BBXX DEGL 10174 99343 30253 41197 70910 10190 20159 40085 58010 70322 85770 22224 04170 20405 310// 41006 5//// 80170
BBXX WCX2417 10184 99474 70876 41/98 82327 11055 2//// 40207 57/// 77072 8//// 22263 0//// 2//04 3//// 4//// 5//// 6//// 8//// ICE /////
BBXX ZMENA 10174 99436 31727 46/// ///// 10130 20106 40233 57016 22200
BBXX 44172 10181 99445 70634 46/// ///// 1//// 91731 22200 00076 10503 20503 319// 41101 70015
BBXX 44097 10181 99410 70711 46/// ///// 1//// 91732 22200 00128 10402 20402 70011
BBXX 46218 10181 99345 71208 46/// ///// 1//// 91732 22200 00133 11804 20902 330// 41804 70020
BBXX WDD2876 10184 99448 70829 41/98 62627 11033 2//// 40264 51/// 70122 8//// 22243 00056 2//02 3//// 4//// 5//// 6//// 8//// ICE /////
BBXX V7MO2 10184 99262 70914 41697 60422 10180 20091 40262 57010 7//00 861// 22200 00240 20404 305// 40605 5//// 6//// 80130 ICE /////
AAXX 10184 40255 32960 00000 10074 20043 39532 40265 52015 333 10125
AAXX 10184 40272 32960 00000 10045 21013 39406 40266 52012 333 10140
AAXX 11184 40310 32960 00000 10058 21007 38912 48545 52011 333 10140
AAXX 10184 40270 31656 20105 10070 20023 39336 40254 52013 70522 82100 333 10125 82830
BBXX C6FR6 10184 99267 10339 41/// /3318 10170 2//// 40200 5//// 7//// 8//// 22200 0//// 2//// 3//// 4//// 5//// 6//// 8//// ICE /////
BBXX NWS0021 10184 99318 70645 43/// /1206 10224 20151 40220 5//// 7//// 8//// 222// 04227 2//// 3//// 4//// 5//// 6//// 8//// ICE /////
BBXX ZCDF4 10183 99104 70755 41698 42606 10290 20255 40098 56007 70200 834// 22200 00290 20000 300// 40000 5//// 80265
BBXX WCZ5238 10184 99084 51345 41698 31016 10270 20213 40149 52008 70200 832// 22273 00266 20403 327// 40902 5//// 6//// 80230 ICE /////
AAXX 10184 91643 11599 40702 10284 20232 40081 51008 60001 70301 82270 333 5629/ 82820 84361
AAXX 10184 91334 32474 60512 10278 20231 30069 40072 55012 82271 333 56399 70018 555 91018
AAXX 10181 13579 11758 53101 10037 20026 39402 40253 51001 69932 71062 85500 333 10083 85650
AAXX 10184 91334 32474 60512 10278 20231 30069 40072 55012 82271 333 56399 70018 555 91018
BBXX BAREU61 10184 99340 70084 46/// /0109 10171 29064 40224 52008 22253
AAXX 10184 08495 12565 72813 10150 20098 30199 40207 52009 60002 82831 91750 333 10173 81825 87075
AAXX 10184 91376 32474 81207 10266 20226 30085 40088 53003 8587/ 333 56399 70450 555 91018
BBXX 46060 10181 99606 71468 46/// /3401 10025 40179 50000 91750 22200 00059 10901 316// 40901 70005 333 91202 555 11008 22008 31711 43403 61749 333008 353011 012022 004022 347022 333017 83403 91705
BBXX 32012 10181 99197 50856 46/// ///// 1//// 91750 22200 11404 70021
BBXX 42362 10181 99278 70907 46/// /0313 10161 20044 40285 91745
BBXX 42363 10181 99282 70892 46/// /0413 10161 20056 40281 91745 333 91213
BBXX 42364 10181 99291 70881 46/// /0112 10144 20039 40281 91745
BBXX 41012 10181 99300 70805 46/// /3609 10215 40216 58011 91750 22200 00245 10504 20503 310// 40901 70018 333 91211 555 11097 22102 31746 43611 61749 002093 358089 000091 359091 358087 001081
BBXX 41001 10181 99347 70727 46/// ///// 10192 20154 40201 50000 91750 22200 00225 10503 70016
BBXX 41049 10181 99275 70630 46/// /0608 10239 20200 40188 58025 91750 22200 00247 10805 20703 300// 40803 70023 333 91209 555 11084 22089 31722 40610 61749 062078 059076 062082 064080 059076 061081 80609 91722
BBXX 44025 10181 99402 70732 46/// /3306 10070 21003 40242 50000 91750 22200 00118 10402 20401 312// 40901 70008 333 91208 555 11062 22064 31735 43109 61749 331060 324066 326071 319073 325072 319068
BBXX 41008 10181 99314 70809 46/// /0209 10141 20123 40246 50000 91750 22200 00177 10603 20603 300// 40901 70014 333 91210 555 11091 22095 31732 40111 61749 021086 019092 017091 013092 014090 017088
BBXX 46105 10181 99590 71522 46/// ///// 1//// 91750 22200 10301 70007
BBXX 46070 10181 99551 11753 46/// /2617 10019 21022 49617 53010 91750 22200 00045 11010 20807 3//// 41008 70052 333 91220 555 11177 22188 31716 42820 61749 263164 262156 269141 267152 263132 252130 82618 91748
BBXX 46088 10181 99483 71232 46/// /0105 10044 40210 53013 91750 22200 00082 1//00 70002 333 91206 555 11051 22053 31657 43507 61749 010049 006049 004047 358047 353054 351059
BBXX 46053 10181 99342 71198 46/// /2703 10136 40200 51009 91750 22200 00141 333 91204 555 11034 22036 31651 42705 61749 266033 266033 271038 273040 272042 274044
BBXX 46014 10181 99394 71240 46/// /3503 10079 40223 53009 91750 22200 00110 11704 20401 3//// 41704 70020 333 91205 555 11031 22032 31712 43606 61749 351031 354033 013033 006042 012043 006039
BBXX 46011 10181 99350 71210 46/// /3303 10128 40212 51006 91750 22200 00139 11704 20301 330// 41704 70018 333 91204 555 11029 22030 31738 43204 61749 332027 328026 323024 327024 324028 316027
AAXX 10184 91376 32474 81207 10266 20226 30085 40088 53003 8587/ 333 56399 70450 555 91018
AAXX 10184 61902 32586 10251 20168 40112 82801 333 10279 59001 81827 85081
BBXX 46047 10181 99324 71195 46/// /3207 10131 40212 53007 91750 22200 00135 11704 20402 329// 41703 70019 333 91208 555 11073 22078 31707 43209 61749 316069 314071 313071 317073 316075 315072
BBXX 46027 10181 99419 71244 46/// /1002 10071 40222 54000 91750 22200 00096 11603 328// 41603 70016 333 91203 555 11018 22019 31706 41104 61749 092018 079016 086018 095021 107023 093021
BBXX 46086 10181 99325 71180 46/// /3203 10151 40202 51010 91750 22200 00158 11902 20401 326// 41902 70012 333 91204 555 11033 22034 31747 43104 61749 321031 324027 326028 327028 328030 331033
BBXX 46050 10181 99442 71246 46/// /3203 10088 40218 53006 91750 22200 00102 11604 20401 328// 41604 70021 333 91205 555 11033 22034 31714 43206 61749 324033 323034 323037 325045 327043 330043
BBXX 46088 10181 99483 71232 46/// /0105 10044 40210 91750 22200 00082 1//00 70002 333 91206 555 11051 22053 31657 43507 61749 010049 006049 004047 358047 353054 351059
BBXX 46249 10181 99338 71197 46/// ///// 1//// 91745 22200 00146 11802 21001 325// 41801 70010
BBXX 46248 10181 99461 71247 46/// ///// 1//// 91734 22200 00089 11504 21001 329// 41504 70019
BBXX 46244 10181 99409 71244 46/// ///// 1//// 91735 22200 00101 11505 20701 330// 41504 70023
BBXX 42020 10181 99270 70967 46/// /0712 10203 20143 40260 52003 91750 22200 00241 10807 20807 70034 333 91215 555 11132 22139 31718 40716 61749 073123 073125 066130 072128 069127 073130
BBXX 41044 10181 99217 70587 46/// /0609 10259 20195 40123 56020 91750 22200 00268 333 91211 555 11098 22104 31711 40711 61749 063091 071088 063091 064094 060094 063093 80610 91705
BBXX 42065 10181 99149 70750 46/// /0807 10278 20236 91750 22200 10603 20402 3//// 40602 70016 333 91208 555 11069 22074 31735 40809 61749 084067 082075 078071 076073 076069 076071 80808 91729
BBXX 41115 10181 99184 70673 46/// ///// 1//// 91735 22200 11002 21002 70011
BBXX 41114 10181 99276 70802 46/// ///// 1//// 91746 22200 00244 10703 20703 307// 41101 70016
AAXX 10184 68994 32598 63005 10072 20036 30267 40297 53007 86500 222// 00065 333 10112 20072 91012 555 91029
BBXX 46240 10181 99366 71219 46/// ///// 1//// 91742 22200 00123 11702 20901 300// 41701 70008
BBXX 46237 10181 99378 71226 46/// ///// 1//// 91740 22200 00112 11703 20801 327// 41703 70015
BBXX 46212 10181 99408 71243 46/// ///// 1//// 91742 22200 00102 11804 20701 330// 41804 70021
BBXX 46217 10181 99342 71194 46/// ///// 1//// 91742 22200 00145 11802 21001 325// 41801 70009
AAXX 10184 68906 11495 83516 10155 20138 30050 40114 58008 60462 76366 8372/ 222// 00130 20401 305// 40602 333 10171 20153 91027 555 20464 60625 91011
BBXX 46211 10181 99469 71242 46/// ///// 1//// 91736 22200 00086 11703 20901 326// 41703 70017
BBXX 44014 10181 99366 70748 46/// /3612 1//// 40242 54000 91750 22200 00156 10705 20705 70027 333 91215 555 11117 22117 31720 43615 61749 355117 357124 357126 355123 357123 357122
BBXX 41004 10181 99325 70791 46/// /0209 10153 20101 40246 58005 91750 22200 00219 10503 20503 3//// 40901 70016 333 91211 555 11090 22094 31656 43613 61749 018086 019089 019086 020087 011087 011093
BBXX 44098 10181 99428 70702 46/// ///// 1//// 91737 22200 00096 10402 20402 70011
BBXX 44009 10181 99385 70747 46/// /3410 10076 40267 57003 91750 22200 00130 10503 20503 70017 333 91212 555 11110 22115 31651 43314 61749 343104 340104 341101 336106 337112 334112
AAXX 10184 89009 42961 00806 11327 36729 53004
AAXX 10184 16597 32965 52109 10163 20127 30147 40234 52004 80009 333 10188 85175
AAXX 10184 89009 42961 00806 11327 36729 53004
BBXX A8OZ4 10184 99350 10208 43898 22214 10170 20120 40270 54000 7//// 82/// 22274 00179 80140
BBXX DBKV 10181 99221 70215 46/// /0408 10221 20185 40158 52007 22262 00226
BBXX BAREU63 10184 99361 10207 46/// /2911 10178 29078 40260 52006 22233
BBXX DBFR 10181 99552 10151 46/// /2515 10045 20017 40010 52005 22230 00067
BBXX BAREU05 10184 99377 70005 46/// ///// 40181 52005 22254
BBXX DBEA 10181 99540 10084 46/// /3111 10045 20015 40086 52017 22261 00048
BBXX DBJM 10181 99542 10079 46/// /2809 10054 20019 40082 52013 22221 000/1
AAXX 10184 61766 31958 82204 10300 20164 30036 40079 70522 80001 333 10330 58007 88075
AAXX 10184 61769 NIL
AAXX 10184 333 NIL
BBXX BAREU08 10184 99163 70713 46/// ///// 40108 57024 22213
AAXX 10184 08594 32462 70413 10240 20173 40128 81532 333 10261 58009 81615 87070
AAXX 10184 08583 31957 70621 10245 20162 40131 70622 81037 333 10275 58009 81360 87270
AAXX 10184 08589 NIL
AAXX 10184 61901 169// /1014 10157 20154 39647 40156 55003 60022 91750 333 10182 8//99 555 7/090
AAXX 10184 91487 NIL
AAXX 10184 91490 NIL
AAXX 10184 91533 NIL
AAXX 10184 91601 NIL
AAXX 10184 91610 11599 20807 10262 20216 40081 53003 60001 70121 82101 333 562/9 8 2 8 2 0
AAXX 10184 91623 NIL
AAXX 10184 91629 NIL
AAXX 10184 91701 NIL
AAXX 10184 91487 NIL
AAXX 10184 91490 NIL
AAXX 10184 91533 NIL
AAXX 10184 91601 NIL
AAXX 10184 91610 11599 20807 10262 20216 40081 53003 60001 70121 82101 333 562/9 8 2 8 2 0
AAXX 10184 91623 NIL
AAXX 10184 91629 NIL
AAXX 10184 91701 NIL
AAXX 10184 78384 12460 20510 10284 20236 40144 60001 82200 333 10294 20236 58001 70000 82816
AAXX 10184 78383 12460 20506 10285 20228 40141 60001 82200 333 10293 20242 59005 70000 82818
AAXX 10184 78384 12460 20510 10284 20236 40144 60001 82200 333 10294 20236 58001 70000 82816
AAXX 10184 78383 12460 20506 10285 20228 40141 60001 82200 333 10293 20242 59005 70000 82818
BBXX DBKV 10181 99221 70215 46/// /0408 10221 20185 40158 52007 22262 00226
BBXX LAOW5 10184 99034 51054 41497 81312 10240 20226 40139 52009 70222 881// 22254 00222 20302 313// 40304 5//// 6//// 80230 ICE /////
BBXX 32012 10181 99197 50856 46/// ///// 1//// 91750 22200 11404 70021
BBXX BAREU08 10184 99163 70713 46/// ///// 40108 57024 22213
BBXX 44009 10181 99385 70747 46/// /3410 10076 40267 57003 91750 22200 00130 10503 20503 70017 333 91212 555 11110 22115 31651 43314 61749 343104 340104 341101 336106 337112 334112
BBXX 41004 10181 99325 70791 46/// /0209 10153 20101 40246 58005 91750 22200 00219 10503 20503 3//// 40901 70016 333 91211 555 11090 22094 31656 43613 61749 018086 019089 019086 020087 011087 011093
BBXX 44098 10181 99428 70702 46/// ///// 1//// 91737 22200 00096 10402 20402 70011
BBXX 44014 10181 99366 70748 46/// /3612 1//// 40242 54000 91750 22200 00156 10705 20705 70027 333 91215 555 11117 22117 31720 43615 61749 355117 357124 357126 355123 357123 357122
BBXX VRHO2 10184 99531 71577 41396 32524 10070 20049 49960 57160 78044 83900 22274 00050 20907 32526 40807 50908 6//// 80060 ICE /////
BBXX LAYG5 10184 99542 71543 41598 72145 10060 21010 49800 57080 70322 8746/ 22263 00080 21004 317// 4//// 5//// 80030
BBXX WPGK 10184 99370 70722 41296 83430 10106 2011/ 40198 57020 75165 886// 22245 00206 20404 303// 40502 5//// 6//// 80106 ICE /////
BBXX ELYX3 10184 99227 70976 41297 81406 10210 20180 40230 51/// 75822 8/7// 22214 20000 3//// 4//// 5//// 80190
BBXX WDE9193 10183 99232 70800 41797 30909 10270 2021/ 40148 57010 70111 82235 22232 0//// 20402 312// 40603 5//// 6//// 80230 ICE /////
BBXX SHIP 10184 99387 70547 41697 71821 10220 20158 40285 57010 70302 8734/ 91745 22224 0//// 1//// 20605 327// 40505 5//// 6//// 80180 /////
BBXX WJBJ 10183 99213 70696 41298 30816 10270 2023/ 40133 52012 70200 83160 22273 00276 20404 308// 40606 5//// 6//// 80240 ICE /////
BBXX 46211 10181 99469 71242 46/// ///// 1//// 91736 22200 00086 11703 20901 326// 41703 70017
BBXX 46217 10181 99342 71194 46/// ///// 1//// 91742 22200 00145 11802 21001 325// 41801 70009
BBXX 46212 10181 99408 71243 46/// ///// 1//// 91742 22200 00102 11804 20701 330// 41804 70021
BBXX 46237 10181 99378 71226 46/// ///// 1//// 91740 22200 00112 11703 20801 327// 41703 70015
BBXX 46240 10181 99366 71219 46/// ///// 1//// 91742 22200 00123 11702 20901 300// 41701 70008
BBXX 41114 10181 99276 70802 46/// ///// 1//// 91746 22200 00244 10703 20703 307// 41101 70016
BBXX 42065 10181 99149 70750 46/// /0807 10278 20236 91750 22200 10603 20402 3//// 40602 70016 333 91208 555 11069 22074 31735 40809 61749 084067 082075 078071 076073 076069 076071 80808 91729
BBXX 41115 10181 99184 70673 46/// ///// 1//// 91735 22200 11002 21002 70011
BBXX 41044 10181 99217 70587 46/// /0609 10259 20195 40123 56020 91750 22200 00268 333 91211 555 11098 22104 31711 40711 61749 063091 071088 063091 064094 060094 063093 80610 91705
BBXX 42020 10181 99270 70967 46/// /0712 10203 20143 40260 52003 91750 22200 00241 10807 20807 70034 333 91215 555 11132 22139 31718 40716 61749 073123 073125 066130 072128 069127 073130
BBXX 46249 10181 99338 71197 46/// ///// 1//// 91745 22200 00146 11802 21001 325// 41801 70010
BBXX 46027 10181 99419 71244 46/// /1002 10071 40222 54000 91750 22200 00096 11603 328// 41603 70016 333 91203 555 11018 22019 31706 41104 61749 092018 079016 086018 095021 107023 093021
BBXX 46244 10181 99409 71244 46/// ///// 1//// 91735 22200 00101 11505 20701 330// 41504 70023
BBXX 46088 10181 99483 71232 46/// /0105 10044 40210 91750 22200 00082 1//00 70002 333 91206 555 11051 22053 31657 43507 61749 010049 006049 004047 358047 353054 351059
BBXX 46086 10181 99325 71180 46/// /3203 10151 40202 51010 91750 22200 00158 11902 20401 326// 41902 70012 333 91204 555 11033 22034 31747 43104 61749 321031 324027 326028 327028 328030 331033
BBXX 46070 10181 99551 11753 46/// /2617 10019 21022 49617 53010 91750 22200 00045 11010 20807 3//// 41008 70052 333 91220 555 11177 22188 31716 42820 61749 263164 262156 269141 267152 263132 252130 82618 91748
BBXX C6DM2 10183 99055 11001 418// 60505 10270 20243 40100 50010 7//22 86/9/ 22271 0//// 2//// 3//// 4//// 5//// 6//// 80250 ICE /////
BBXX LAOX5 10181 99321 11494 41797 50410 00/// 10180 2016/ 40200 51014 70310 85482 22223 00220 20604 325// 40604 5//// 6//// 80160
AAXX 10181 76040 32960 03202 10169 20024 30198 40212 52008 91745 333 10203 20050 30/// 59022 98660
AAXX 10181 76061 32981 00502 10140 20033 30135 40211 52008 91730 333 10142 20090 30/// 59020
AAXX 10181 76256 32980 03002 10199 20071 30176 40190 52002 91745 333 10209 20125 30/// 59014
AAXX 10181 76305 32970 30602 10218 20085 30180 40188 51002 80004 91740 333 10221 20142 30/// 56005 59009 83070
AAXX 10181 76323 32970 73601 10098 21003 38322 40302 57008 8702/ 91755 333 10102 20037 30/// 5605/ 58025 87458
AAXX 10181 76390 31410 83604 10064 20064 38288 40265 57008 74044 887// 91730 333 10080 20045 30/// 568// 58031 88714
AAXX 10181 76458 32970 13005 10216 20143 30168 40173 51002 80006 91740 333 10232 20125 30/// 56//9 59005 81072
AAXX 10181 76491 01460 83605 10164 20162 39874 40269 52006 60141 75155 886// 91745 333 10168 20080 32/// 569// 58038 60037 88717
AAXX 10181 76499 01430 80702 10193 20185 30213 40235 52013 60111 75055 886// 91750 333 10195 20188 32/// 561// 58036 60047 88714
AAXX 10181 76519 32960 40000 10202 20021 38388 40233 57001 80002 91745 333 10205 20033 30/// 56006 58001 84070
AAXX 10181 76525 32970 40804 10115 20042 37500 40171 52006 80008 91740 333 10117 20094 30/// 56//5 58003 84280
AAXX 10181 76539 31567 60902 10168 20066 38199 40227 52006 70544 86400 91750 333 10272 20080 30/// 56200 59021 86624
AAXX 10181 76543 32675 81701 10228 20170 30222 40255 58001 8255/ 91730 333 10229 20185 30/// 5633/ 58040 82650 86358
AAXX 10181 76548 01372 80502 10212 20194 30233 40243 50003 69901 75052 884/// 91740 333 10214 20190 31/// 56800 58029 69907 88606
AAXX 10181 76556 32970 23602 10250 20133 39145 40178 52004 80002 91730 333 10254 20122 30/// 56001 59004 82070
AAXX 10181 76577 32970 02304 10178 20136 38072 40193 50002 91740 333 20099 30/// 58007
AAXX 10181 76581 32970 70501 10196 20133 39093 40206 57005 87060 91750 333 10206 20133 30/// 56020 58022 87360
AAXX 10181 76625 32950 00507 20063 38168 40175 56010 91740 333 20096 30/// 58009
AAXX 10181 76658 31558 12302 10295 20130 39650 40157 57006 70540 81100 91750 333 10300 20179 30/// 59001 81822 94022 98904
AAXX 10181 76665 32962 02101 10208 20087 38138 40105 57004 91755 333 10218 20065 30/// 58010
AAXX 10181 76675 31570 30702 21003 37391 40202 56006 70544 81204 91747 333 10194 21005 30/// 569/9 59001 81826 98470
AAXX 10181 76681 31950 00901 10191 20073 37802 40198 58009 70540 91745 333 10191 20030 30/// 58009
AAXX 10181 76683 32970 11601 10203 20028 37839 40212 56014 80005 91745 333 10215 20036 30/// 56005 59001 81080
AAXX 10181 76685 31950 03601 10190 20000 37885 40166 57006 70544 91740 333 10192 20066 30/// 58002
AAXX 10181 76687 01558 80901 10150 20138 38732 40238 50000 69921 75122 885// 91737 333 10160 20116 31/// 563// 58023 69927 85620 83718
AAXX 10181 76692 01556 83604 10216 20204 30206 40226 50000 60051 79162 8522/ 91745 333 10229 20202 32/// 5688/ 58026 60027 81820 84630 83458
AAXX 10181 76737 01480 81402 10174 20139 38822 40215 58002 69901 70552 8577/ 91735 333 10179 20140 30/// 5622/ 58021 69907 85717 83358 91105 91514
AAXX 10181 76743 31558 21102 10255 20204 30201 40209 58007 70200 82200 91745 333 10256 20205 30/// 562// 58024 82821
AAXX 10181 76750 32560 13403 10274 20176 30179 40190 57014 81100 91750 333 10277 20178 30/// 56100 58012 81820
AAXX 10181 76762 32904 03601 10270 20220 38770 40154 58011 91735 333 10272 20121 30/// 59004
AAXX 10181 76775 31568 12601 10229 20060 38584 40208 57017 70300 81200 91745 333 10234 20092 30/// 56800 59010 81827
AAXX 10181 76833 32960 03612 10280 20153 30147 40149 57005 91745 333 10280 20236 30/// 58012 92002
AAXX 10181 76903 31680 12101 10330 20251 39994 40124 57018 70300 81100 91745 333 10332 20217 30/// 56100 58005 81833
AAXX 10181 76160 32962 00401 20028 39931 40182 54000 91730 333 20110 30/// 59017
AAXX 10181 76243 11372 83608 10074 20058 30035 40340 52022 60031 75165 884// 91730 333 10130 20060 31/// 568// 58093 88609
AAXX 10181 76311 32580 40000 10195 20132 39898 40180 51004 84200 91745 333 10200 20132 30/// 56600 58000 84820
AAXX 10181 76412 31966 02201 10218 20119 30134 40179 52001 70544 91750 333 10218 20118 30/// 59006
AAXX 10181 76640 31358 83202 10216 20194 30239 40251 52001 70544 8313/ 91740 333 10232 20170 30/// 5672/ 58027 83809 85340
AAXX 10181 76741 31465 60503 10246 20204 30174 40193 58006 70542 84230 91735 333 10253 20145 30/// 561// 58023 84818
AAXX 10181 76855 32580 11301 10306 20235 30085 40134 51007 81200 91730 333 10315 20206 30/// 56900 58010 81820 92000
BBXX 46248 10181 99461 71247 46/// ///// 1//// 91734 22200 00089 11504 21001 329// 41504 70019
BBXX 46047 10181 99324 71195 46/// /3207 10131 40212 53007 91750 22200 00135 11704 20402 329// 41703 70019 333 91208 555 11073 22078 31707 43209 61749 316069 314071 313071 317073 316075 315072
BBXX 46050 10181 99442 71246 46/// /3203 10088 40218 53006 91750 22200 00102 11604 20401 328// 41604 70021 333 91205 555 11033 22034 31714 43206 61749 324033 323034 323037 325045 327043 330043
BBXX 46053 10181 99342 71198 46/// /2703 10136 40200 51009 91750 22200 00141 333 91204 555 11034 22036 31651 42705 61749 266033 266033 271038 273040 272042 274044
BBXX 46088 10181 99483 71232 46/// /0105 10044 40210 53013 91750 22200 00082 1//00 70002 333 91206 555 11051 22053 31657 43507 61749 010049 006049 004047 358047 353054 351059
BBXX 46014 10181 99394 71240 46/// /3503 10079 40223 53009 91750 22200 00110 11704 20401 3//// 41704 70020 333 91205 555 11031 22032 31712 43606 61749 351031 354033 013033 006042 012043 006039
BBXX 46011 10181 99350 71210 46/// /3303 10128 40212 51006 91750 22200 00139 11704 20301 330// 41704 70018 333 91204 555 11029 22030 31738 43204 61749 332027 328026 323024 327024 324028 316027
BBXX 46105 10181 99590 71522 46/// ///// 1//// 91750 22200 10301 70007
BBXX 44025 10181 99402 70732 46/// /3306 10070 21003 40242 50000 91750 22200 00118 10402 20401 312// 40901 70008 333 91208 555 11062 22064 31735 43109 61749 331060 324066 326071 319073 325072 319068
BBXX 41008 10181 99314 70809 46/// /0209 10141 20123 40246 50000 91750 22200 00177 10603 20603 300// 40901 70014 333 91210 555 11091 22095 31732 40111 61749 021086 019092 017091 013092 014090 017088
BBXX 41012 10181 99300 70805 46/// /3609 10215 40216 58011 91750 22200 00245 10504 20503 310// 40901 70018 333 91211 555 11097 22102 31746 43611 61749 002093 358089 000091 359091 358087 001081
BBXX 41001 10181 99347 70727 46/// ///// 10192 20154 40201 50000 91750 22200 00225 10503 70016
BBXX 42364 10181 99291 70881 46/// /0112 10144 20039 40281 91745
BBXX 41049 10181 99275 70630 46/// /0608 10239 20200 40188 58025 91750 22200 00247 10805 20703 300// 40803 70023 333 91209 555 11084 22089 31722 40610 61749 062078 059076 062082 064080 059076 061081 80609 91722
BBXX 42363 10181 99282 70892 46/// /0413 10161 20056 40281 91745 333 91213
BBXX 42362 10181 99278 70907 46/// /0313 10161 20044 40285 91745
BBXX 46060 10181 99606 71468 46/// /3401 10025 40179 50000 91750 22200 00059 10901 316// 40901 70005 333 91202 555 11008 22008 31711 43403 61749 333008 353011 012022 004022 347022 333017 83403 91705
BBXX WSNB 10184 99533 71386 41498 53020 10033 2//// 40210 52020 71522 85200 22233 0//// 20401 329// 40804 5//// 6//// 8//// ICE /////
BBXX 9HJB9 10184 99131 70596 41397 80110 10297 2//// 40100 56/// 7//// 85/// 22200 00279 2//// 3//// 4//// 5//// 6//// 8//// ICE /////
BBXX KRGB 10184 99271 71456 41498 60715 10211 2017/ 40230 52010 70222 821/4 22254 00194 2//// 3//// 4//// 5//// 6//// 80189 ICE /////
BBXX ZCDA9 10183 99252 71405 41298 80819 10185 20180 40238 52015 70222 887// 22264 00230 20202 304// 40403 5//// 80182
BBXX WFLG 10183 99246 71500 41298 70623 10211 20178 40220 52020 78082 876// 22213 00194 20203 310// 40805 5//// 6//// 80189 ICE /////
BBXX LAJS6 10184 99500 71703 41597 52334 10040 2101/ 49980 51020 70362 84243 22223 00060 20908 323// 41106 80020
BBXX PINX 10184 99245 70759 41997 01213 10270 2//// 40160 56010 70200 80/// 22200 00270 2//// 3//// 4//// 5//// 6//// 8//// ICE /////
BBXX A8IO2 10184 99122 70809 41597 60515 10295 20260 40080 57020 70322 84873 22214 20502 307// 40803 5//// 80270
BBXX WDA7827 10183 99022 71653 41798 81113 10253 2023/ 40095 52008 7//11 8//// 22213 00278 20301 311// 40404 5//// 6//// 80236 ICE /////
BBXX 9VAW8 10184 99176 71021 41798 40113 10270 20228 40160 51020 70200 84480 22233 00270 20802 30101 40802 50802 6//// 80240 ICE /////
BBXX NWS0021 10184 99318 70645 43/// /1206 10224 20151 40220 5//// 7//// 8//// 222// 04227 2//// 3//// 4//// 5//// 6//// 8//// ICE /////
BBXX DBJM 10181 99542 10079 46/// /2809 10054 20019 40082 52013 22221 000/1
BBXX DBEA 10181 99540 10084 46/// /3111 10045 20015 40086 52017 22261 00048
BBXX DBFR 10181 99552 10151 46/// /2515 10045 20017 40010 52005 22230 00067
BBXX A8OZ4 10184 99350 10208 43898 22214 10170 20120 40270 54000 7//// 82/// 22274 00179 80140
AAXX 10184 78384 12460 20510 10284 20236 40144 60001 82200 333 10294 20236 58001 70000 82816
AAXX 10184 78383 12460 20506 10285 20228 40141 60001 82200 333 10293 20242 59005 70000 82818
BBXX PINX 10184 99245 70759 41997 01213 10270 2//// 40160 56010 70200 80/// 22200 00270 2//// 3//// 4//// 5//// 6//// 8//// ICE /////
BBXX VYNG 10184 99446 70832 41/98 72418 11005 21177 41005 53020 70101 85572 22213 00030 21001 3//// 4//// 5//// 6//// 8//// ICE /////
BBXX C6DM2 10183 99055 11001 418// 60505 10270 20243 40100 50010 7//22 86/9/ 22271 0//// 2//// 3//// 4//// 5//// 6//// 80250 ICE /////
BBXX WFLG 10183 99246 71500 41298 70623 10211 20178 40220 52020 78082 876// 22213 00194 20203 310// 40805 5//// 6//// 80189 ICE /////
BBXX ZCDA9 10183 99252 71405 41298 80819 10185 20180 40238 52015 70222 887// 22264 00230 20202 304// 40403 5//// 80182
BBXX 9HJB9 10184 99131 70596 41397 80110 10297 2//// 40100 56/// 7//// 85/// 22200 00279 2//// 3//// 4//// 5//// 6//// 8//// ICE /////
BBXX NWS0022 10184 99416 70714 43/// /3010 10079 21013 40229 5//// 7//// 8//// 222// 04136 2//// 3//// 4//// 5//// 6//// 8//// ICE /////
BBXX WSNB 10184 99533 71386 41498 53020 10033 2//// 40210 52020 71522 85200 22233 0//// 20401 329// 40804 5//// 6//// 8//// ICE /////
BBXX LAOW5 10184 99034 51054 41497 81312 10240 20226 40139 52009 70222 881// 22254 00222 20302 313// 40304 5//// 6//// 80230 ICE /////
BBXX WDC6698 10184 99095 71441 43/// /0909 10282 20282 40100 5//// 7//// 8//// 222// 04257 2//// 3//// 4//// 5//// 6//// 8//// ICE /////
BBXX VRHO2 10184 99531 71577 41396 32524 10070 20049 49960 57160 78044 83900 22274 00050 20907 32526 40807 50908 6//// 80060 ICE /////
BBXX WZJC 10184 99275 70919 41498 70524 10156 2009/ 40268 50005 70122 8789/ 22233 00222 20505 3//// 4//// 5//// 6//// 80117 ICE /////
AAXX 10181 76040 32960 03202 10169 20024 30198 40212 52008 91745 333 10203 20050 30/// 59022 98660
AAXX 10181 76061 32981 00502 10140 20033 30135 40211 52008 91730 333 10142 20090 30/// 59020
AAXX 10181 76256 32980 03002 10199 20071 30176 40190 52002 91745 333 10209 20125 30/// 59014
AAXX 10181 76305 32970 30602 10218 20085 30180 40188 51002 80004 91740 333 10221 20142 30/// 56005 59009 83070
AAXX 10181 76323 32970 73601 10098 21003 38322 40302 57008 8702/ 91755 333 10102 20037 30/// 5605/ 58025 87458
AAXX 10181 76390 31410 83604 10064 20064 38288 40265 57008 74044 887// 91730 333 10080 20045 30/// 568// 58031 88714
AAXX 10181 76458 32970 13005 10216 20143 30168 40173 51002 80006 91740 333 10232 20125 30/// 56//9 59005 81072
AAXX 10181 76491 01460 83605 10164 20162 39874 40269 52006 60141 75155 886// 91745 333 10168 20080 32/// 569// 58038 60037 88717
AAXX 10181 76499 01430 80702 10193 20185 30213 40235 52013 60111 75055 886// 91750 333 10195 20188 32/// 561// 58036 60047 88714
AAXX 10181 76519 32960 40000 10202 20021 38388 40233 57001 80002 91745 333 10205 20033 30/// 56006 58001 84070
AAXX 10181 76525 32970 40804 10115 20042 37500 40171 52006 80008 91740 333 10117 20094 30/// 56//5 58003 84280
AAXX 10181 76539 31567 60902 10168 20066 38199 40227 52006 70544 86400 91750 333 10272 20080 30/// 56200 59021 86624
AAXX 10181 76543 32675 81701 10228 20170 30222 40255 58001 8255/ 91730 333 10229 20185 30/// 5633/ 58040 82650 86358
AAXX 10181 76548 01372 80502 10212 20194 30233 40243 50003 69901 75052 884/// 91740 333 10214 20190 31/// 56800 58029 69907 88606
AAXX 10181 76556 32970 23602 10250 20133 39145 40178 52004 80002 91730 333 10254 20122 30/// 56001 59004 82070
AAXX 10181 76577 32970 02304 10178 20136 38072 40193 50002 91740 333 20099 30/// 58007
AAXX 10181 76581 32970 70501 10196 20133 39093 40206 57005 87060 91750 333 10206 20133 30/// 56020 58022 87360
AAXX 10181 76625 32950 00507 20063 38168 40175 56010 91740 333 20096 30/// 58009
AAXX 10181 76658 31558 12302 10295 20130 39650 40157 57006 70540 81100 91750 333 10300 20179 30/// 59001 81822 94022 98904
AAXX 10181 76665 32962 02101 10208 20087 38138 40105 57004 91755 333 10218 20065 30/// 58010
AAXX 10181 76675 31570 30702 21003 37391 40202 56006 70544 81204 91747 333 10194 21005 30/// 569/9 59001 81826 98470
AAXX 10181 76681 31950 00901 10191 20073 37802 40198 58009 70540 91745 333 10191 20030 30/// 58009
AAXX 10181 76683 32970 11601 10203 20028 37839 40212 56014 80005 91745 333 10215 20036 30/// 56005 59001 81080
AAXX 10181 76685 31950 03601 10190 20000 37885 40166 57006 70544 91740 333 10192 20066 30/// 58002
AAXX 10181 76687 01558 80901 10150 20138 38732 40238 50000 69921 75122 885// 91737 333 10160 20116 31/// 563// 58023 69927 85620 83718
AAXX 10181 76692 01556 83604 10216 20204 30206 40226 50000 60051 79162 8522/ 91745 333 10229 20202 32/// 5688/ 58026 60027 81820 84630 83458
AAXX 10181 76737 01480 81402 10174 20139 38822 40215 58002 69901 70552 8577/ 91735 333 10179 20140 30/// 5622/ 58021 69907 85717 83358 91105 91514
AAXX 10181 76743 31558 21102 10255 20204 30201 40209 58007 70200 82200 91745 333 10256 20205 30/// 562// 58024 82821
AAXX 10181 76750 32560 13403 10274 20176 30179 40190 57014 81100 91750 333 10277 20178 30/// 56100 58012 81820
AAXX 10181 76762 32904 03601 10270 20220 38770 40154 58011 91735 333 10272 20121 30/// 59004
AAXX 10181 76775 31568 12601 10229 20060 38584 40208 57017 70300 81200 91745 333 10234 20092 30/// 56800 59010 81827
AAXX 10181 76833 32960 03612 10280 20153 30147 40149 57005 91745 333 10280 20236 30/// 58012 92002
AAXX 10181 76903 31680 12101 10330 20251 39994 40124 57018 70300 81100 91745 333 10332 20217 30/// 56100 58005 81833
AAXX 10181 76160 32962 00401 20028 39931 40182 54000 91730 333 20110 30/// 59017
AAXX 10181 76243 11372 83608 10074 20058 30035 40340 52022 60031 75165 884// 91730 333 10130 20060 31/// 568// 58093 88609
AAXX 10181 76311 32580 40000 10195 20132 39898 40180 51004 84200 91745 333 10200 20132 30/// 56600 58000 84820
AAXX 10181 76412 31966 02201 10218 20119 30134 40179 52001 70544 91750 333 10218 20118 30/// 59006
AAXX 10181 76640 31358 83202 10216 20194 30239 40251 52001 70544 8313/ 91740 333 10232 20170 30/// 5672/ 58027 83809 85340
AAXX 10181 76741 31465 60503 10246 20204 30174 40193 58006 70542 84230 91735 333 10253 20145 30/// 561// 58023 84818
AAXX 10181 76855 32580 11301 10306 20235 30085 40134 51007 81200 91730 333 10315 20206 30/// 56900 58010 81820 92000
AAXX 10181 76040 32960 03202 10169 20024 30198 40212 52008 91745 33310203 20050 30/// 59022 98660
AAXX 10181 76061 32981 00502 10140 20033 30135 40211 52008 91730 33310142 20090 30/// 59020
AAXX 10181 76256 32980 03002 10199 20071 30176 40190 52002 91745 33310209 20125 30/// 59014
AAXX 10181 76305 32970 30602 10218 20085 30180 40188 51002 80004 91740333 10221 20142 30/// 56005 59009 83070
AAXX 10181 76323 32970 73601 10098 21003 38322 40302 57008 8702/ 91755333 10102 20037 30/// 5605/ 58025 87458
AAXX 10181 76390 31410 83604 10064 20064 38288 40265 57008 74044 887//91730 333 10080 20045 30/// 568// 58031 88714
AAXX 10181 76458 32970 13005 10216 20143 30168 40173 51002 80006 91740333 10232 20125 30/// 56//9 59005 81072
AAXX 10181 76491 01460 83605 10164 20162 39874 40269 52006 60141 75155886// 91745 333 10168 20080 32/// 569// 58038 60037 88717
AAXX 10181 76499 01430 80702 10193 20185 30213 40235 52013 60111 75055886// 91750 333 10195 20188 32/// 561// 58036 60047 88714
AAXX 10181 76519 32960 40000 10202 20021 38388 40233 57001 80002 91745333 10205 20033 30/// 56006 58001 84070
AAXX 10181 76525 32970 40804 10115 20042 37500 40171 52006 80008 91740333 10117 20094 30/// 56//5 58003 84280
AAXX 10181 76539 31567 60902 10168 20066 38199 40227 52006 70544 8640091750 333 10272 20080 30/// 56200 59021 86624
AAXX 10181 76543 32675 81701 10228 20170 30222 40255 58001 8255/ 91730333 10229 20185 30/// 5633/ 58040 82650 86358
AAXX 10181 76548 01372 80502 10212 20194 30233 40243 50003 69901 75052884/// 91740 333 10214 20190 31/// 56800 58029 69907 88606
AAXX 10181 76556 32970 23602 10250 20133 39145 40178 52004 80002 91730333 10254 20122 30/// 56001 59004 82070
AAXX 10181 76577 32970 02304 10178 20136 38072 40193 50002 91740 33320099 30/// 58007
AAXX 10181 76581 32970 70501 10196 20133 39093 40206 57005 87060 91750333 10206 20133 30/// 56020 58022 87360
AAXX 10181 76625 32950 00507 20063 38168 40175 56010 91740 333 2009630/// 58009
AAXX 10181 76658 31558 12302 10295 20130 39650 40157 57006 70540 8110091750 333 10300 20179 30/// 59001 81822 94022 98904
AAXX 10181 76665 32962 02101 10208 20087 38138 40105 57004 91755 33310218 20065 30/// 58010
AAXX 10181 76675 31570 30702 21003 37391 40202 56006 70544 81204 91747333 10194 21005 30/// 569/9 59001 81826 98470
AAXX 10181 76681 31950 00901 10191 20073 37802 40198 58009 70540 91745333 10191 20030 30/// 58009
AAXX 10181 76683 32970 11601 10203 20028 37839 40212 56014 80005 91745333 10215 20036 30/// 56005 59001 81080
AAXX 10181 76685 31950 03601 10190 20000 37885 40166 57006 70544 91740333 10192 20066 30/// 58002
AAXX 10181 76687 01558 80901 10150 20138 38732 40238 50000 69921 75122885// 91737 333 10160 20116 31/// 563// 58023 69927 8562083718
AAXX 10181 76692 01556 83604 10216 20204 30206 40226 50000 60051 791628522/ 91745 333 10229 20202 32/// 5688/ 58026 60027 8182084630 83458
AAXX 10181 76737 01480 81402 10174 20139 38822 40215 58002 69901 705528577/ 91735 333 10179 20140 30/// 5622/ 58021 69907 8571783358 91105 91514
AAXX 10181 76743 31558 21102 10255 20204 30201 40209 58007 70200 8220091745 333 10256 20205 30/// 562// 58024 82821
AAXX 10181 76750 32560 13403 10274 20176 30179 40190 57014 81100 91750333 10277 20178 30/// 56100 58012 81820
AAXX 10181 76762 32904 03601 10270 20220 38770 40154 58011 91735 33310272 20121 30/// 59004
AAXX 10181 76775 31568 12601 10229 20060 38584 40208 57017 70300 8120091745 333 10234 20092 30/// 56800 59010 81827
AAXX 10181 76833 32960 03612 10280 20153 30147 40149 57005 91745 33310280 20236 30/// 58012 92002
AAXX 10181 76903 31680 12101 10330 20251 39994 40124 57018 70300 8110091745 333 10332 20217 30/// 56100 58005 81833
AAXX 10181 76160 32962 00401 20028 39931 40182 54000 91730 333 2011030/// 59017
AAXX 10181 76243 11372 83608 10074 20058 30035 40340 52022 60031 75165884// 91730 333 10130 20060 31/// 568// 58093 88609
AAXX 10181 76311 32580 40000 10195 20132 39898 40180 51004 84200 91745333 10200 20132 30/// 56600 58000 84820
AAXX 10181 76412 31966 02201 10218 20119 30134 40179 52001 70544 91750333 10218 20118 30/// 59006
AAXX 10181 76640 31358 83202 10216 20194 30239 40251 52001 70544 8313/91740 333 10232 20170 30/// 5672/ 58027 83809 85340
AAXX 10181 76741 31465 60503 10246 20204 30174 40193 58006 70542 8423091735 333 10253 20145 30/// 561// 58023 84818
AAXX 10181 76855 32580 11301 10306 20235 30085 40134 51007 81200 91730333 10315 20206 30/// 56900 58010 81820 92000
BBXX 44027 10181 99443 70673 46/// /3407 10057 21001 40180 57008 91750 22200 00091 10702 20401 3//// 40702 70011 333 91209 555 11075 22078 31735 43409 61749 341071 341072 343066 338071 339077 344071
BBXX 44060 10181 99413 70721 46/// ///08 10056 91745 22200 00108 333 91210 555 11088 22088
BBXX 44022 10181 99409 70737 46/// ///08 10053 21028 91745 22200 00100 333 91210 555 11088 22088
BBXX 44065 10181 99404 70737 46/// /3208 10068 21009 40250 50000 91750 22200 00111 10401 20401 311// 41001 70007 333 91211 555 11086 22090 31730 43211 61749 321081 317076 325079 328074 330072 325066 83209 91746
BBXX 41013 10181 99334 70777 46/// /0110 10142 20067 40241 58015 91750 22200 00223 10503 20503 308// 40901 70015 333 91212 555 11105 22110 31719 40213 61749 013101 023095 020094 022095 024098 024097
BBXX 46078 10181 99561 71526 46/// /1714 10050 20012 40136 91750 333 91217 555 11149 22159
BBXX 46069 10181 99337 71202 46/// /3207 10127 40207 51007 91750 22200 00130 11704 20502 331// 41703 70020 333 91208 555 11072 22077 31708 43209 61749 317068 314071 316076 314076 313077 311075
BBXX 46013 10181 99382 71233 46/// /0805 10098 40212 52004 91750 22200 00105 11603 20301 3//// 41603 70017 333 91206 555 11047 22049 31749 40806 61749 081045 075044 071042 066042 068039 062035
BBXX 46012 10181 99374 71229 46/// /0903 10099 40208 52005 91750 22200 00119 11703 20301 329// 41703 70017 333 91204 555 11032 22033 31718 40905 61749 087031 082036 087038 081034 074029 078021
BBXX 46087 10181 99485 71247 46/// /3403 10070 20043 40210 52004 91750 22200 00083 11602 329// 41602 70012 333 91204 555 11032 22033 31749 43304 61749 343032 346031 344031 356027 355026 355024
BBXX 46029 10181 99461 71245 46/// /3406 10078 20039 40216 52005 91750 22200 00079 11604 20401 328// 41603 70018 333 91207 555 11064 22068 31732 43308 61749 336060 336059 335052 337046 338045 326046
BBXX 46054 10181 99342 71204 46/// /3107 10129 40203 51005 91750 22200 00140 11703 20402 300// 41703 70015 333 91208 555 11073 22077 31711 43110 61749 310071 312077 311075 309080 308077 306077
BBXX 46028 10181 99357 71219 46/// /3003 10122 40209 53007 91750 22200 00136 11704 20301 330// 41703 70018 333 91204 555 11031 22032 31719 42905 61749 302029 300028 292031 292029 295029 293030
BBXX 46025 10181 99337 71191 46/// /3605 10145 40204 51011 91750 22200 00153 11901 20401 328// 41901 70007 333 91206 555 11052 22054 31746 43506 61749 356049 352044 353045 355045 345042 348038
BBXX 41048 10181 99320 70696 46/// /1905 10236 20158 40220 57016 91750 22200 00231 10902 20401 3//// 40902 70012 333 91205 555 11046 22051 31651 42007 61749 193046 194045 196046 196046 198048 200055 82006 91651
BBXX 42012 10181 99301 70876 46/// /0110 10108 20028 40273 58008 91750 22200 00192 10502 20502 70011 333 91212 555 11110 22114 31747 43612 61749 014102 015099 020098 020099 020096 022100
BBXX 42001 10181 99259 70897 46/// /0209 10196 20112 40250 58007 91750 22200 00247 10704 20704 70021 333 91212 555 11096 22100 31730 40113 61749 016091 011095 015090 016092 010093 009087
BBXX 42035 10181 99292 70944 46/// /0610 10113 20046 40313 50000 91750 22200 00157 10603 20603 70014 333 91213 555 11107 22112 31705 40713 61749 060101 057103 060102 057112 061111 059105
BBXX 42058 10181 99149 70749 46/// /0604 10263 20230 40105 56017 91750 22200 00279 10603 20301 310// 40603 70015 333 91206 555 11045 22046 31651 40909 61749 061046 113050 089061 088060 090069 090075 80908 91651
BBXX 42060 10181 99163 70635 46/// /0406 10271 20232 40106 57024 91750 22200 00288 10802 20601 300// 40802 70012 333 91207 555 11065 22068 31748 40307 61749 035062 036054 032035 010025 012025 014026 80307 91748
BBXX 42036 10181 99285 70845 46/// /0109 10170 20132 40230 56009 91750 22200 00219 10603 20603 70016 333 91211 555 11099 22104 31730 40212 61749 010094 014093 014098 014097 016096 011099
BBXX 42056 10181 99198 70849 46/// /0407 10260 20233 40156 58011 91750 22200 00275 10603 20603 70015 333 91209 555 11077 22081 31653 40312 61749 038074 036075 044067 045072 044078 034088 80210 91653
BBXX 42019 10181 99279 70954 46/// /0612 10170 20106 40281 50003 91750 22200 10705 20705 70027 333 91215 555 11130 22138 31723 42916 61749 046121 282122 282129 282122 280121 285117
BBXX 42059 10181 99151 70675 46/// /0902 10278 20226 40101 58024 91750 22200 00291 10902 20401 3//// 40902 70011 333 91203 555 11021 22021 31650 40803 61749 087021 084021 078020 089019 081022 085023 80803 91659
BBXX 44005 10181 99432 70691 46/// /3308 10062 20004 40196 57003 91750 22200 00091 10502 20502 3//// 40901 70012 333 91209 555 11079 22083 31744 43309 61749 330075 330071 329072 330069 333069 321071
BBXX 42040 10181 99292 70882 46/// /0411 10131 40277 58007 91750 22200 00222 10704 20704 70021 333 91213 555 11106 22111 31703 40314 61749 037104 037103 033105 037108 039111 039119
BBXX 42055 10181 99222 70940 46/// /0608 10242 20171 40215 58009 91750 22200 00253 10602 20602 70010 333 91209 555 11084 22088 31655 40810 61749 056079 066075 066072 066074 066075 079076 80508 91749
BBXX 42002 10181 99258 70937 46/// /0514 1//// 40252 58005 91750 22200 00246 333 91216 555 11135 22144
BBXX 41047 10181 99275 70715 46/// /1303 10232 40204 58019 91750 22200 00255 11004 20401 305// 41004 70021 333 91207 555 11029 22030 31742 40707 61749 118032 075037 050033 049043 048039 059042 80606 91741
BBXX 42003 10181 99260 70856 46/// /0309 1//// 91750 22200 10703 20703 70017 333 91211 555 11097 22104 31655 40113 61749 028091 021094 024092 022095 020098 020100 80211 91655
BBXX 46002 10181 99426 71305 46/// ///// 10090 40252 53009 91750 22200 00124 11605 70024
BBXX 46006 10181 99408 71375 46/// /0104 10101 40291 53014 91750 22200 00126 11606 20401 3//// 41606 70030 333 91206 555 11044 22045 31733 40106 61749 010043 014042 008043 359045 356042 350041
BBXX 46084 10181 99566 71361 46/// /3109 10056 20030 40171 53023 91750 22200 00076 11605 20804 300// 41603 70027 333 91211 555 11095 22100 31747 43011 61749 313089 321086 319076 316075 318085 316083
BBXX 46078 10181 99561 71526 46/// /1714 10050 20012 40136 91750 333 91217 555 11149 22159
BBXX 51205 10181 99210 71564 46/// ///// 1//// 91748 22200 00242 11405 20804 333// 41403 70025
BBXX 46114 10181 99364 71222 46/// ///// 1//// 91734 22200 00112 11704 20902 330// 41704 70020
BBXX 46075 10181 99539 71608 46/// /1816 10066 20064 49838 56073 91750 22200 00051 11213 20808 300// 41210 70063 333 91220 555 11171 22184 31704 41723 61749 182157 174158 170163 168166 165171 164168 81718 91704
BBXX 46005 10181 99461 71310 46/// ///08 10087 40244 51013 91750 22200 00101 11506 20503 3//// 41506 70032 333 91210 555 11087 22092
BBXX 46059 10181 99380 71300 46/// /3503 10113 40245 51012 91750 22200 00145 11504 20401 3//// 41504 70021 333 91204 555 11028 22028 31731 43304 61749 354028 346029 322023 323020 327026 309022
BBXX 46080 10181 99580 71500 46/// /2008 10041 20010 40176 56010 91750 22200 00051 10904 20602 3//// 40903 70018 333 91209 555 11080 22084 31650 41911 61749 200077 193078 192069 193066 198059 197058 81909 91750
BBXX 51203 10181 99208 71570 46/// ///// 1//// 91743 22200 00250 11302 20301 327// 41301 70009
BBXX 52200 10181 99134 11448 46/// ///// 1//// 91745 22200 00288 10805 20805 305// 41401 70024
BBXX 51201 10181 99217 71581 46/// ///// 1//// 91742 22200 00243 11405 20703 332// 41404 70024
AAXX 10184 62010 32965 20403 10161 20060 40253 53010 80002 333 10236 82073
AAXX 10184 62010 32965 20403 10161 20060 40253 53010 80002 333 10236 82073
BBXX 46002 10181 99426 71305 46/// ///// 10090 40252 53009 91750 22200 00124 11605 70024
BBXX 46006 10181 99408 71375 46/// /0104 10101 40291 53014 91750 22200 00126 11606 20401 3//// 41606 70030 333 91206 555 11044 22045 31733 40106 61749 010043 014042 008043 359045 356042 350041
BBXX 46012 10181 99374 71229 46/// /0903 10099 40208 52005 91750 22200 00119 11703 20301 329// 41703 70017 333 91204 555 11032 22033 31718 40905 61749 087031 082036 087038 081034 074029 078021
BBXX 46013 10181 99382 71233 46/// /0805 10098 40212 52004 91750 22200 00105 11603 20301 3//// 41603 70017 333 91206 555 11047 22049 31749 40806 61749 081045 075044 071042 066042 068039 062035
BBXX 46014 10181 99394 71240 46/// /3503 10079 40223 53009 91750 22200 00110 11704 20401 3//// 41704 70020 333 91205 555 11031 22032 31712 43606 61749 351031 354033 013033 006042 012043 006039
BBXX 46028 10181 99357 71219 46/// /3003 10122 40209 53007 91750 22200 00136 11704 20301 330// 41703 70018 333 91204 555 11031 22032 31719 42905 61749 302029 300028 292031 292029 295029 293030
BBXX 46029 10181 99461 71245 46/// /3406 10078 20039 40216 52005 91750 22200 00079 11604 20401 328// 41603 70018 333 91207 555 11064 22068 31732 43308 61749 336060 336059 335052 337046 338045 326046
BBXX 46050 10181 99442 71246 46/// /3203 10088 40218 53006 91750 22200 00102 11604 20401 328// 41604 70021 333 91205 555 11033 22034 31714 43206 61749 324033 323034 323037 325045 327043 330043
BBXX 46054 10181 99342 71204 46/// /3107 10129 40203 51005 91750 22200 00140 11703 20402 300// 41703 70015 333 91208 555 11073 22077 31711 43110 61749 310071 312077 311075 309080 308077 306077
BBXX WSNB 10184 99533 71386 41498 53020 10033 2//// 40210 52020 71522 85200 22233 0//// 20401 329// 40804 5//// 6//// 8//// ICE /////
AAXX 10184 78700 32578 70404 10314 20217 30134 40139 58016 81170 333 10314 20234 30/// 56110 58004 81830 86358
AAXX 10184 78703 11356 83110 10238 20218 30159 40161 56011 60301 72186 8672/ 333 10251 20210 32/// 56899 58003 86709 88457
AAXX 10184 78704 11568 63106 10273 20221 30154 40159 57012 70554 84231 333 10280 20208 30/// 59002 84824 83358
AAXX 10184 78705 NIL
AAXX 10184 78706 31558 80000 10214 20206 30209 40214 57007 71544 8522/ 333 10214 20180 31/// 56299 58037 85824 88458
AAXX 10184 78707 NIL
AAXX 10184 78708 31158 70404 10230 20222 30151 40182 58014 71544 85470 333 56880 58013 81702 84618 87458
AAXX 10184 78711 NIL
AAXX 10184 78714 32570 41802 10290 20190 84200 333 10290 20191 30/// 56200 84830
AAXX 10184 78717 11560 73603 10176 20166 38990 40186 55005 69901 70554 87500 333 10176 20150 32/// 56800 58014 87622
AAXX 10184 78718 31660 43608 10218 71544 83430 333 10225 20186 30/// 56800 83835
AAXX 10184 78719 31458 70412 10152 20140 38365 40153 58002 71522 87400 333 10152 20120 30/// 56100 58003 87616
AAXX 10184 78720 31556 60116 10213 20173 39049 40139 58012 71544 86530 333 10255 20164 30/// 56800 58008 86626 83357
AAXX 10184 78724 32578 50420 10334 20193 30055 40112 57018 83130 333 10334 20234 30/// 56200 59008 83834 83358
AAXX 10184 78858 11456 80610 10247 20229 30054 40110 60331 78098 888// 333 10256 20235 59002 86812 88448
AAXX 10184 85864 12680 62610 10130 20055 40066 52005 60001 86200 333 56600 86833
AAXX 10184 85874 12682 33025 10139 20009 39428 40035 50010 60001 83200 333 56600 83840
AAXX 10184 85934 11480 52831 10091 20029 49886 53006 60011 70182 85100 333 56600 85816
AAXX 10184 89056 11115 80213 10011 20008 49774 57009 69943 71042 887// 333 56699 88703
AAXX 10184 89057 11460 72709 10020 20009 49770 57015 60073 87500 333 56600 87615
AAXX 10184 89058 11563 83411 10020 20010 39761 49782 69901 70060 885//
AAXX 10184 89059 11404 80102 10013 20000 49772 56013 60003 71022 886// 333 70999 88710
AAXX 10184 89251 32562 83414 10020 20008 49766 58025 8561/
AAXX 10184 67341 12570 60906 10238 20201 40121 52008 69922 86430 333 10287 94340
AAXX 10184 85585 12598 41915 10183 20110 40219 50005 60001 84200 333 56400 84827
AAXX 10184 85586 12560 12312 10176 20102 40181 58006 60001 81500 333 56600 81623
AAXX 10184 85629 12970 02508 10270 20121 40137 57014 60001
AAXX 10184 85672 12570 21805 10254 20117 40165 57012 60001 82203 333 56500 82825
AAXX 10184 85682 12465 12312 10208 20134 40182 54000 60001 81100 333 56500 81810
AAXX 10184 85743 11460 59907 10191 20122 40179 58003 60051 70152 85200 333 56600 85818
AAXX 10184 85782 12560 62812 10182 200063 40167 52007 60001 86200 333 56800 86820
AAXX 10184 85799 12560 72608 10155 20085 40167 5105 69941 87800 333 56600 82830 87645
AAXX 10184 85406 12980 02111 10232 20130 40139 56009 60001
AAXX 10184 85432 12970 12621 10224 20007 37751 48429 57011 60001 80001 333 56000 81073
AAXX 10184 85442 12565 52012 10209 920106 40145 57009 6001 82508 333 56400 82625 83080
AAXX 10184 85467 12560 82509 10182 20135 40175 54000 885// 333 56699 88617
AAXX 10184 85488 12568 72909 10191 20131 40162 58011 60001 87500 333 56000 87622
AAXX 10184 86011 32570 52908 10346 20237 39911 40065 57018 84805 333 84830 82270
AAXX 10184 86033 32670 43508 10354 20198 39962 40053 57039 83204 333 83834 81840 81270
AAXX 10184 86065 NIL
AAXX 10184 86068 32670 41804 10332 20193 39885 40071 58026 83204 333 83840 81070
AAXX 10184 86086 32570 30000 10340 20167 39983 40070 57024 83200 333 83833
AAXX 10184 86097 32570 52110 10300 20177 39437 40059 57020 85800 333 85827
AAXX 10184 86128 32670 40000 10338 20226 39951 40060 57020 84100 333 84840
AAXX 10184 86134 32570 41405 10332 20190 39977 40061 57022 84800 333 84833
AAXX 10184 86170 32670 32004 10332 20191 39952 40051 57020 83100 333 83840
AAXX 10184 86185 32570 31908 10328 20177 39976 40067 57021 83100 333 83833
AAXX 10184 86192 32970 00000 10334 20191 39870 40082 56007
AAXX 10184 86210 32670 31810 10306 20191 39717 40048 57017 83100 333 83840
AAXX 10184 86218 32970 01705 10328 20155 39974 40066 57017
AAXX 10184 86221 32970 01804 10314 20184 39962 40093 57020
AAXX 10184 86233 32970 01804 10320 20162 39899 40083 57014
AAXX 10184 86234 NIL
AAXX 10184 86246 32570 42205 10320 20232 39798 40073 57013 84200 333 84833
AAXX 10184 86251 32970 32304 10304 20157 39893 40056 57017 86050 333 86358
AAXX 10184 86255 32970 01806 10302 20224 30010 40076 57009
AAXX 10184 86260 32570 30000 10326 20196 39932 40078 57006 83100 333 83833
AAXX 10184 86268 32670 20602 10320 20180 39914 40063 57016 82100 333 82840
AAXX 10184 86285 32970 02308 10318 20180 39795 40068 58020
AAXX 10184 86297 32970 01802 10310 20189 39952 40053 57028
AAXX 10184 85766 11570 52412 1184 20110 40184 52008 69951 70282 85200 333 56600 85840
AAXX 10184 85418 12965 32413 10217 20117 40148 56010 60001 80001 333 56000 83080
AAXX 10184 85968 11659 52613 10082 20022 49831 50/// 69951 78022 85200 333 56600 85840
AAXX 10184 91503 31470 70000 10249 20241 40068 55004 70522 81237 333 56900 81816 86280
AAXX 10184 91517 32480 21810 10235 20208 40075 57007 81102 333 56000 81815
AAXX 10184 91503 31470 70000 10249 20241 40068 55004 70522 81237 333 56900 81816 86280
AAXX 10184 91517 32480 21810 10235 20208 40075 57007 81102 333 56000 81815
BBXX 44020 10181 99414 70702 46/// /3107 10069 20014 40215 58006 91750 22200 00097 10301 20301 70004 333 91209 555 11077 22082 31739 42510 61749 300071 255073 257067 258070 258069 260068
BBXX 44040 10181 99410 70736 46/// /3607 10055 21010 91745 22200 10201 70003 333 91209 555 11082 22093
AAXX 10184 78925 11570 70405 10288 20232 40102 56022 60001 71791 879// 333 10316 20216 59007 82820 82926 85833
AAXX 10184 78925 11570 70405 10288 20232 40102 56022 60001 71791 879// 333 10316 20216 59007 82820 82926 85833
AAXX 10184 91413 32469 59906 10274 20243 30068 40093 58012 82271 333 56999 555 91018
AAXX 10184 91413 32469 59906 10274 20243 30068 40093 58012 82271 333 56999 555 91018
BBXX 41043 10181 99211 70650 46/// /0707 10260 20211 40141 58019 91750 22200 00270 10805 20703 300// 40804 70025 333 91209 555 11079 22083 31731 40709 61749 072075 070076 065070 064072 065070 064073 80708 91731
BBXX 41036 10181 99342 70770 46/// ///// 10118 20046 40251 50000 91750 22200 00168 10402 70012
BBXX 44066 10181 99396 70726 46/// /3310 10084 20023 40233 58004 91750 22200 00134 10502 20502 70012 333 91211 555 11100 22105 31652 43513 61749 335095 331095 336090 335101 332098 340102
AAXX 10181 01001 11575 61902 10008 21014 30068 40080 56010 60002 70220 84530 333 10010 91110
AAXX 10181 01008 11589 11202 11119 21148 30020 40055 55000 60002 70200 81500 333 11072 91107
AAXX 10181 01010 11582 70613 10020 21014 39966 49982 57001 69902 72582 84278 333 10027 91118
AAXX 10181 01026 NIL
AAXX 10181 01055 46/// /1105 11001 21032 39983 40001 55010 333 10010 91107
AAXX 10181 01062 NIL
AAXX 10181 01098 11480 81304 10005 21041 39985 40003 57016 69902 70222 8772/ 333 10011 91108
AAXX 10181 01115 16/// /0512 10025 21042 39909 49930 50004 6//// 333 10033 91115
AAXX 10181 01152 NIL
AAXX 10181 01205 NIL
AAXX 10181 01212 16/// /2103 10031 20013 39932 49948 53019 6//// 333 10040 91113
AAXX 10181 01271 NIL
AAXX 10181 01288 NIL
AAXX 10181 01300 NIL
AAXX 10181 01317 NIL
AAXX 10181 01367 NIL
AAXX 10181 01384 11989 13502 11056 21070 39667 49916 53026 60002 70100 80008 333 11034 91103
AAXX 10181 01403 11578 4//// 10058 20026 39901 49969 53026 60022 70282 84900 333 10058
AAXX 10181 01415 NIL
AAXX 10181 01482 46/// /3504 1//// 2//// 39915 49922 53040 333 91111
AAXX 10181 01492 NIL
AAXX 10181 01003 NIL
AAXX 10181 01007 11989 02801 11134 21176 30052 40062 56002 60002 70200 333 11085 91102
AAXX 10181 01028 NIL
AAXX 10181 01047 11625 83605 11055 21066 39595 49969 57010 60042 77177 8802/ 333 11030
AAXX 10181 01049 NIL
AAXX 10181 01078 NIL
AAXX 10181 01102 46/// /0307 10032 21033 39900 49919 52006 333 10037 91112
AAXX 10181 01160 41989 80306 10010 21070 39947 49964 52005 70222 8801/ 333 10017 91114
AAXX 10181 01218 NIL
AAXX 10181 01238 41575 42003 11069 21075 38788 49911 51020 70222 83940 333 11057 91106
AAXX 10181 01241 11480 71701 11005 21014 39914 49925 51014 69982 72272 8496/ 333 10011 91103
AAXX 10181 01281 NIL
AAXX 10181 01338 16/// /2802 10022 20004 39883 49949 53031 60002 333 10027 91105
AAXX 10181 01359 NIL
AAXX 10181 01397 NIL
AAXX 10181 01400 NIL
AAXX 10181 01427 11565 73109 10056 20021 39950 49966 52031 60092 78082 87900 333 10070 91118
AAXX 10181 01447 NIL
AAXX 10181 01448 46/// ///// 10042 20005 39945 49955 53038 333 10055
AAXX 10184 78897 11580 70506 10256 20229 40103 56019 60011 76086 8683/ 333 0235/ 10284 20216 59005 70016 83820 85640
AAXX 10181 33815 32597 72103 10044 20011 39940 40149 57002 83530 333 10075 555 80018
AAXX 10184 97180 01450 70503 10236 20236 30069 40087 56015 69961 76162 83272 333 56000 69927 83819 85460
BBXX CGDS 10184 99447 70755 46/// /2609 11012 21089 4//// 5//// 7//// 8//// 22200 0//// 2////
AAXX 10184 78897 11580 70506 10256 20229 40103 56019 60011 76086 8683/ 333 0235/ 10284 20216 59005 70016 83820 85640
AAXX 10184 85406 12980 02111 10232 20130 40139 56009 60001
AAXX 10184 85432 12970 12621 10224 20007 37751 48429 57011 60001 80001 333 56000 81073
AAXX 10184 85442 12565 52012 10209 920106 40145 57009 6001 82508 333 56400 82625 83080
AAXX 10184 85467 12560 82509 10182 20135 40175 54000 885// 333 56699 88617
AAXX 10184 85488 12568 72909 10191 20131 40162 58011 60001 87500 333 56000 87622
BBXX CGDS 10184 99447 70755 46/// /2609 11012 21089 4//// 5//// 7//// 8//// 22200 0//// 2////
AAXX 10181 01037 NIL
AAXX 10181 01046 11889 71301 11052 21071 39984 49992 57009 60002 70222 80006 333 11044 91103
AAXX 10181 01058 16/// /3401 11061 21073 39516 49988 56011 60022 333 11060 4/018 91104
AAXX 10181 01065 NIL
AAXX 10181 01092 NIL
AAXX 10181 01107 16/// /0510 10030 20001 39951 49956 52003 69922 333 10036 91116
AAXX 10181 01114 NIL
AAXX 10181 01144 46/// /0308 10013 21058 333 10022 91112
AAXX 10181 01199 NIL
AAXX 10181 01245 NIL
AAXX 10181 01259 16/// /1203 10012 21015 39901 49923 52010 60002 333 10023 91108
AAXX 10181 01262 NIL
AAXX 10181 01278 11/35 90000 11008 21017 39818 49921 53017 60012 77172 333 10011
AAXX 10181 01293 16/// /0000 11023 21030 39715 49924 52018 69992 333 11019 91102
AAXX 10181 01329 NIL
AAXX 10181 01337 NIL
AAXX 10181 01344 16/// ///// 11022 21037 69952 333 11007 4/049
AAXX 10181 01364 NIL
AAXX 10181 01373 11989 00000 11084 21093 39736 49940 53030 69932 70120 333 11063 91100
AAXX 10181 01374 31589 20000 11064 21071 70110 82500 333 11050
AAXX 10181 01380 16/// /2801 11077 21102 6//// 333 11046 4/012 91108
AAXX 10181 01389 NIL
AAXX 10181 01393 NIL
AAXX 10181 01424 11980 6//// 10023 20004 39956 49959 53030 60042 70262 80007 333 10046
AAXX 10181 01431 16/// /3102 10003 21024 39296 49957 53032 60032 333 10016 91110
AAXX 10181 01436 NIL
AAXX 10181 01465 11985 02907 10046 21016 39923 49941 53040 60002 70210 333 10053 91111
AAXX 10181 01471 NIL
AAXX 10181 01483 NIL
AAXX 10181 01025 16/// /0504 11003 21042 39971 49982 57004 60002 333 10000 91109
AAXX 10181 01052 16/// /0302 11036 21059 39895 49995 57008 60002 333 11035 91104
AAXX 10181 01122 16/// /0000 11038 21058 39840 49931 52005 60002 333 11011 91104
AAXX 10181 01132 16/// /0601 11039 21063 39535 49926 52007 60002 333 11006 4/047 91105
AAXX 10181 01156 NIL
AAXX 10181 01203 46/// /0303 10035 21007 39906 49954 53024 333 10050 91112
AAXX 10181 01233 16/// /2903 11026 21044 60002 333 11025 91106
AAXX 10181 01265 NIL
AAXX 10181 01273 NIL
AAXX 10181 01307 46/// /3404 10049 20009 39930 49958 53031 333 10056 91114
AAXX 10181 01321 16/// /2701 11009 21011 39705 49959 53031 69922 333 10002 91103
AAXX 10181 01327 16/// /2903 11003 21013 60022 333 10005 91108
AAXX 10181 01350 16/// /2807 11055 21061 38540 49913 52026 60002 333 11035 91110
AAXX 10181 01361 16/// /3003 11040 21061 38917 49946 53023 69932 333 11031 91107
AAXX 10181 01375 NIL
AAXX 10181 01378 16/// /0302 11067 21084 39630 49928 52025 60002 333 11067 91105
AAXX 10181 01385 16/// /3103 11045 21072 39650 49925 53027 60002 333 11042 91106
AAXX 10181 01412 16/// /3212 10061 20033 39941 49970 52029 60062 333 10072 91125
AAXX 10181 01422 16/// /2702 10039 20013 69962 333 10059 91109
AAXX 10181 01440 NIL
AAXX 10181 01441 NIL
AAXX 10181 01467 NIL
AAXX 10181 01469 NIL
AAXX 10181 01477 16/// /3501 11028 21038 60002 333 11013 4/020 91105
AAXX 10181 01480 16/// /3301 11024 21042 60002 333 11012 91105
AAXX 10181 01484 16/// /3601 11080 21092 39760 49921 52027 60002 333 11033 91104
AAXX 10181 01490 16/// /3503 11044 21051 60002 333 11027 91108
AAXX 10181 01495 16/// /3403 11001 21029 39909 49922 53038 60002 333 10063 91110
AAXX 10181 01015 NIL
AAXX 10181 01023 11687 80000 11048 21062 39886 49983 57005 69902 70272 82578 333 11027 91103
AAXX 10181 01033 46/// ///// 10003 21010 39954 49985 55005 333 10017 91119
AAXX 10181 01059 16/// /3603 11027 21033 39983 49992 57013 6//// 333 11025 91106
AAXX 10181 01089 16/// /1402 11037 21049 39892 40000 58012 6//// 333 11028 91104
AAXX 10181 01167 31687 80302 10015 21077 39968 49973 50001 70222 8352/ 333 10020 91107
AAXX 10181 01180 NIL
AAXX 10181 01210 41585 62602 10018 21004 39925 49952 53024 70282 83261 333 10034 91111
AAXX 10181 01228 NIL
AAXX 10181 01240 16/// /0701 10026 21001 39905 49925 53014 6//// 333 10035 91110
AAXX 10181 01304 46/// /0202 10044 20007 39924 49955 53026 333 10057 91110
AAXX 10181 01311 46/// /0301 10010 20009 39898 49960 53028 333 10034 91106
AAXX 10181 01340 NIL
AAXX 10181 01355 16/// ///// 10000 21006 39944 49949 53030 60002 333 10004
AAXX 10181 01360 NIL
AAXX 10181 01392 11876 60000 11121 21133 39689 49925 52026 60002 70321 86030 333 11092 91102
AAXX 10181 01406 46/// /3210 10062 20030 39941 49959 53024 333 10067 91117
AAXX 10181 01411 16/// /3305 10051 20025 39942 49968 53029 6//// 333 10068 91118
AAXX 10181 01425 NIL
AAXX 10181 01433 46/// /3110 11039 21053 38685 49941 51017 333 11022 91113
AAXX 10181 01442 11789 13203 10032 21028 39692 49947 53035 60012 70100 81100 333 10046 91107
AAXX 10181 01450 NIL
AAXX 10181 01452 11986 22604 10028 21001 39932 49953 53038 69962 70100 81071 333 10050 91111
AAXX 10181 01473 11770 70000 11045 21051 39721 49932 53032 60002 70322 8757/ 333 11024 91104
AAXX 10181 01494 16/// /3101 11021 21028 39856 49922 53034 60002 333 10033 91106
AAXX 10181 01121 46/// /1102 10012 21052 39920 49933 51007 333 10029 91107
AAXX 10181 01135 NIL
AAXX 10181 01143 16/// /0307 10009 21060 60002 333 10014 91110
AAXX 10181 01150 16/// /0000 11047 21061 69922 333 11008 91106
AAXX 10181 01192 NIL
AAXX 10181 01225 46/// /1202 10021 21005 39932 49937 53017 333 10036 91108
AAXX 10181 01230 16/// /2901 11033 21039 69942 333 11025 4/028 91106
AAXX 10181 01232 16/// /1801 11019 21022 39868 49948 53022 60012 333 11014 4/025 91102
AAXX 10181 01234 16/// /2006 11027 21038 60002 333 11026 91107
AAXX 10181 01253 16/// /0201 11034 21041 69932 333 11030 4/030 91102
AAXX 10181 01254 16/// /1601 11052 21061 60022 333 11052 4/019 91102
AAXX 10181 01257 NIL
AAXX 10181 01277 NIL
AAXX 10181 01291 16/// /2701 11021 21028 60022 333 10012 4/017 91104
AAXX 10181 01332 16/// /0701 11010 21019 60002 333 10003 91103
AAXX 10181 01366 46/// /3303 11086 21103 38318 49947 52021 333 11078 91107
AAXX 10181 01370 NIL
AAXX 10181 01376 16/// /0301 11045 21053 60002 333 11029 91103
AAXX 10181 01383 46/// /0000 11165 21176 39618 49950 53028 333 11101 91102
AAXX 10181 01386 16/// ///// 11139 21153 60002 333 11107
AAXX 10181 01416 16/// ///// 10028 20028 60062 333 10052
AAXX 10181 01419 NIL
AAXX 10181 01430 16/// ///// 10040 20004 60082 333 10053
AAXX 10181 01434 16/// /2601 11019 21055 38976 49933 53026 69922 333 10000 91107
AAXX 10181 01455 NIL
AAXX 10181 01468 16/// /0501 11086 21095 60002 333 11033 91103
AAXX 10181 01470 16/// /0602 11016 21020 39815 49930 53036 69932 333 11005 4/004 91105
AAXX 10181 01476 NIL
AAXX 10181 01481 NIL
AAXX 10181 01488 NIL
AAXX 10181 02741 17299 72604 10017 20015 39845 49861 52023 60032 70086 87/// 91739 333 10020 20009
AAXX 10181 02755 17228 80604 11006 21009 39760 49854 57006 69992 77174 88/// 91739 333 11004 21012
AAXX 10181 02805 17317 90702 11037 21047 39859 49993 57012 60022 77176 91739 333 11037 21066
AAXX 10181 02807 47550 80403 11044 21047 39792 49977 771// 88/// 91800 333 11032 21045
AAXX 10181 02836 17529 70803 11051 21059 39726 49951 57007 60012 77170 85/// 91739 333 11030 21052
AAXX 10181 02845 47210 90706 11046 21047 39674 49925 57006 77176 91739 333 11029 21046
AAXX 10181 02849 47557 71103 11051 21065 39673 49950 57012 77174 85/// 91739 333 11030 21052
AAXX 10181 02866 17481 81104 11021 21032 39759 49908 57005 60032 77174 88/// 91739 333 11021 21033
AAXX 10181 02897 47323 81006 11016 21024 39704 49885 771// 88/// 91800 333 11015 21028
AAXX 10181 02913 47360 70104 10006 20003 39770 49821 761// 87/// 333 10014 20005
AAXX 10181 02917 47331 71106 10002 21002 39740 49861 767// 87/// 91800 333 10005 21010
AAXX 10181 02924 47419 90801 10002 20002 39621 49815 52004 77170 91739 333 10003 20000
AAXX 10181 02926 17245 83103 10004 20004 39805 49817 52023 60062 767// 88/// 91800 333 10021 20002
AAXX 10181 02935 17228 81303 10002 20001 39653 49824 57005 60062 77170 88/// 91739 333 10003 21006
AAXX 10181 02939 37350 81205 11013 21020 39723 49916 57015 77774 88/// 91739 333 11013 21029
AAXX 10181 02944 47150 72002 10003 20003 39663 49808 761// 87/// 91800 333 10011 20002
AAXX 10181 02947 47235 71204 10005 20004 49848 57008 77177 87/// 91751 333 10011 21002
AAXX 10181 02963 46/// /2105 10010 20006 49817 333 1//// 2////
AAXX 10181 02974 11382 82206 10022 20009 39777 49842 52009 60122 72176 885// 333 10037 20022 41///
AAXX 10181 02976 46/// /2110 10043 20030 39842 49858 57002 91739 333 10043 20028
AAXX 10181 02981 17380 82711 10034 20017 39849 49859 52021 60022 70086 88/// 91739 333 10040 20029
AAXX 10181 02982 46/// /2714 10036 20022 39843 49851 52016 91739 333 10051 20031
AAXX 10184 07005 04/70 /1904 10052 20025 30086 40178 51007 60002 700// 333 10062 20011 60007 90710 91106 555 60005
AAXX 10184 07015 02982 22002 10023 20002 30116 40175 51009 60002 80001 333 10071 21004 60007 82076 90710 91105 93100 555 60005
AAXX 10184 07020 02570 6//// 1//// 2//// 30159 4//// 53002 6///2 86200 333 1//// 2//// 6///7 86830 555 6///5
AAXX 10184 07027 02782 72106 10055 20037 30104 40187 50005 60002 875// 333 10090 20018 60007 82650 86650 90710 91109 93100 555 60005
AAXX 10184 07037 04760 81602 10037 20034 30000 40188 51008 69942 700// 333 10065 20008 60007 90710 91105 555 60005
AAXX 10184 07070 04770 83004 10054 20022 30076 40189 53008 60002 700// 333 10082 20019 60007 90710 91110 555 60005
AAXX 10184 07110 02662 42102 10049 20036 30069 40187 50002 60002 84500 333 10114 20009 60007 84646 90710 91104 93100 555 60005
AAXX 10184 07117 01575 41703 10071 20033 30115 40186 51003 60012 70162 83160 333 10090 20070 69947 90710 91106 92428 555 60005
AAXX 10184 07130 04971 /1802 10044 20035 30137 40191 51009 60002 700// 333 10116 20011 60007 90710 91103 555 60005
AAXX 10184 07139 06/// /2902 10016 20000 30016 40196 52010 69922 333 10099 21007 60007 90710 91104 555 60005
AAXX 10184 07149 02770 52803 10034 20021 30081 40193 53010 69922 85500 333 10103 20010 60007 85650 90710 91105 93100 555 60005
AAXX 10184 07168 04/66 /1402 10003 21008 30051 40200 52010 60002 700// 333 10086 20001 60007 90710 91105 555 60005
AAXX 10184 07181 04985 /2304 10018 21006 39777 40200 51011 60002 700// 333 10069 20015 60007 90710 91105 555 60005
AAXX 10184 07190 04684 83306 10054 20013 30007 40193 51015 69922 700// 333 10063 20045 60007 90710 91109 555 60005
AAXX 10184 07207 02670 50606 10079 20050 60002 83140 222// 327// 333 10111 20067 60007 90710 91107 92428 555 60005
AAXX 10184 07222 02470 40604 10066 20052 30152 40184 51010 60002 84800 333 10106 20066 60007 83818 90710 91108 555 60005
AAXX 10184 07240 02780 60503 10061 20044 30053 40191 51010 60002 86500 333 10098 20059 60007 86650 90710 91105 93100 555 60005
AAXX 10184 07255 04470 80303 10076 20062 39987 40190 52011 60022 700// 333 10079 20066 60007 90710 91106 555 60005
AAXX 10184 07280 04244 80205 10059 20055 39916 40194 53012 60032 760// 333 10065 20055 60017 90710 91110 555 69985
AAXX 10184 07299 01240 83104 10049 20045 39859 40193 53014 60092 76165 877// 333 10058 20048 60017 86704 87613 90710 91107 93100 555 69945
AAXX 10184 07314 06/// /0210 10111 20105 30151 40179 53012 60002 333 10125 20110 60007 90710 91115 555 60005
AAXX 10184 07335 04258 80505 10079 20075 30040 40187 52012 60062 700// 333 10092 20077 69927 90710 91110 555 69905
AAXX 10184 07434 04009 81402 10091 20086 39698 40178 52006 60022 745// 333 10098 20087 60027 90710 91103 555 69925
AAXX 10184 07460 02680 71701 10090 20054 39785 40176 53007 60002 86801 333 10134 20077 60007 81640 86657 90710 91104 93100 555 60005
AAXX 10184 07471 04670 /1203 10065 20040 39206 48794 53005 69902 700// 333 10107 20041 60007 90710 91105 555 60005
AAXX 10184 07481 02870 60000 10095 20068 39888 40177 53007 69922 86800 333 10148 20076 60007 86656 90710 91104 93100 555 60005
AAXX 10184 07510 02565 20102 10106 20089 30107 40173 53008 69902 82800 333 10166 20097 60007 82832 90710 91102 93100 555 60005
AAXX 10184 07535 06/// /1001 10106 20073 39865 40178 51004 60002 333 10136 20072 60007 90710 91103 555 60005
AAXX 10184 07558 06/// /3503 10066 20054 39340 40182 53005 60002 333 10110 20038 60007 90710 91104 555 60005
AAXX 10184 07577 04/59 /0000 10066 20046 30086 40177 52010 60002 700// 333 10146 20025 60007 90710 91102 555 60005
AAXX 10184 07591 04/// /0403 10031 21007 39163 4//// 53008 60002 700// 333 10104 20000 60007 90710 91105 555 60005
AAXX 10184 07607 04981 /0802 10081 20066 30098 40170 52005 60002 700// 333 10175 20038 60007 90710 91102 555 60005
AAXX 10184 07621 02984 01803 10054 20032 39740 40181 52011 60002 333 10157 20054 60007 90710 91105 93100 555 60005
AAXX 10184 07627 06/// /1403 10048 20013 39689 40187 53010 60002 333 10159 20017 60007 90710 91107 555 60005
AAXX 10184 07630 02868 10603 10108 20075 39998 40179 52008 60002 81501 333 10149 20031 60007 81657 90710 91107 93100 555 60005
AAXX 10184 07643 02957 42802 10087 20070 30163 40173 53001 60002 80002 333 10141 20044 60007 84071 90710 91104 555 60005
AAXX 10184 07650 02962 71304 10099 20066 30131 40170 52002 60002 85032 333 10150 20043 60007 85365 86070 90710 91107 93100 555 60005
AAXX 10184 07661 02870 52707 10123 20095 30008 40169 51003 60002 85050 333 10144 20103 60007 85356 90710 91111 555 60005
AAXX 10184 07690 04967 73307 10106 20058 30131 40165 53008 60002 700// 333 10158 20077 60007 90710 91110 555 60005
AAXX 10184 07747 02980 22803 10076 20057 30122 40176 53005 60002 81031 333 10152 20056 60007 81366 90710 91104 555 60005
AAXX 10184 07761 01360 81103 10133 20119 30169 40180 51002 60052 72162 878// 333 10170 20115 69987 83708 85820 85646 90710 91105 93100 555 69945
AAXX 10184 07790 02570 73402 10128 20107 30160 40174 53003 60002 85801 333 10183 20084 60007 81826 85650 87071 90710 91105 93100 555 60005
AAXX 10181 11816 11758 72401 10047 20037 30003 40168 52011 69912 71062 8357/ 333 10063 83650 86357
AAXX 10181 11826 11740 71501 10033 20024 39963 40166 52011 60002 71022 83540 333 10050 83656 87357
AAXX 10181 11903 12960 20000 11002 21005 39777 40168 52007 60002 82040 333 10028 82359
AAXX 10181 11934 12782 12902 11019 21056 39315 42752 51010 60002 81540 333 10036 41998 81656
AAXX 10181 11968 11456 70000 10018 20003 39866 40152 52003 69902 71066 87500 333 10028 84710 87657
AAXX 10184 63980 12482 41302 10270 20241 40100 60012 70281 84200 333 10310 58003 84818 943// 91120
AAXX 10184 41170 42962 13305 10194 20115 30198 40211 81030 333 10234 58002 81362
AAXX 10181 02741 17299 72604 10017 20015 39845 49861 52023 60032 70086 87/// 91739 333 10020 20009
AAXX 10181 02755 17228 80604 11006 21009 39760 49854 57006 69992 77174 88/// 91739 333 11004 21012
AAXX 10181 02805 17317 90702 11037 21047 39859 49993 57012 60022 77176 91739 333 11037 21066
AAXX 10181 02807 47550 80403 11044 21047 39792 49977 771// 88/// 91800 333 11032 21045
AAXX 10181 02836 17529 70803 11051 21059 39726 49951 57007 60012 77170 85/// 91739 333 11030 21052
AAXX 10181 02845 47210 90706 11046 21047 39674 49925 57006 77176 91739 333 11029 21046
AAXX 10181 02849 47557 71103 11051 21065 39673 49950 57012 77174 85/// 91739 333 11030 21052
AAXX 10181 02866 17481 81104 11021 21032 39759 49908 57005 60032 77174 88/// 91739 333 11021 21033
AAXX 10181 02897 47323 81006 11016 21024 39704 49885 771// 88/// 91800 333 11015 21028
AAXX 10181 02913 47360 70104 10006 20003 39770 49821 761// 87/// 333 10014 20005
AAXX 10181 02917 47331 71106 10002 21002 39740 49861 767// 87/// 91800 333 10005 21010
AAXX 10181 02924 47419 90801 10002 20002 39621 49815 52004 77170 91739 333 10003 20000
AAXX 10181 02926 17245 83103 10004 20004 39805 49817 52023 60062 767// 88/// 91800 333 10021 20002
AAXX 10181 02935 17228 81303 10002 20001 39653 49824 57005 60062 77170 88/// 91739 333 10003 21006
AAXX 10181 02939 37350 81205 11013 21020 39723 49916 57015 77774 88/// 91739 333 11013 21029
AAXX 10181 02944 47150 72002 10003 20003 39663 49808 761// 87/// 91800 333 10011 20002
AAXX 10181 02947 47235 71204 10005 20004 49848 57008 77177 87/// 91751 333 10011 21002
AAXX 10181 02963 46/// /2105 10010 20006 49817 333 1//// 2////
AAXX 10181 02974 11382 82206 10022 20009 39777 49842 52009 60122 72176 885// 333 10037 20022 41///
AAXX 10181 02976 46/// /2110 10043 20030 39842 49858 57002 91739 333 10043 20028
AAXX 10181 02981 17380 82711 10034 20017 39849 49859 52021 60022 70086 88/// 91739 333 10040 20029
AAXX 10181 02982 46/// /2714 10036 20022 39843 49851 52016 91739 333 10051 20031
BBXX BAREU54 10184 99184 70661 46/// ///// 40112 57020 22222
BBXX BAREU04 10184 99513 70258 46/// ///// 40131 57003 22224
AAXX 10181 13586 31850 70000 10011 21020 39953 40254 52003 71022 83036 333 10061 83357 87070
AAXX 10184 81405 01560 60910 10308 20232 30079 40088 60031 70286 84831 333 60007 58002 82831 83360 555 60005
AAXX 10181 12772 11756 83101 10032 20012 39869 40158 52005 69912 76162 8357/ 333 10035 4/000 83650
AAXX 10181 12822 36/// /0000 10047 20037 30026 40171 52012 333 10072
AAXX 10181 12843 31670 80000 10063 20006 39990 40162 53006 70322 8257/ 333 10086 4/000 82633
AAXX 10181 12882 11565 82502 10064 20052 30025 40158 53007 69912 76162 8557/ 333 10089 4/000 85630
AAXX 10181 12925 36/// /0201 10042 20016 39991 40165 51011 333 10144
AAXX 10181 12942 31984 52302 10101 20070 39917 40161 52007 70122 84032 333 10123 4/000
AAXX 10181 12982 31658 61702 10071 20056 30059 40161 52006 70122 82548 333 10115 4/000 82640
BBXX BATFR20 10184 99415 10094 44698 30614 10162 20122 40171 70000 8318/ 22244
BBXX BATEU07 10184 99349 31512 46/// /3621 10195 40032 55010 22282
BBXX BATFR62 10184 99496 70007 46/// /2509 10095 20037 40183 53002 22212 00135
BBXX BATFR60 10184 99538 10062 46/// /2628 10044 20024 40091 53024 22263 00089
BBXX BATFR54 10184 99472 70039 46/// /0612 10104 20042 40181 51006 22233 00142
BBXX BATFR03 10184 99499 70005 46/// /3111 10094 21003 40177 22283
BBXX BATFR05 10184 99053 70002 46/// /2008 10289 20244 40089 53011 22200 00259
BBXX BATFR09 10184 99383 10068 44497 72614 10172 20120 40197 70311 8523/ 22222 00192 20000 30000 40000 50000
BBXX BATFR24 10184 99433 10054 46/// /2101 10139 20087 40181 22241 00152
BBXX BATFR41 10184 99435 10077 46/// /2317 10157 20112 40156 50002 22272
BBXX BATFR59 10184 99198 31670 46/// /0411 10269 20235 40093 55/// 22231 00272
BBXX BATFR56 10184 99001 30864 44998 33108 10284 20245 40109 50/// 70100 83100 22252 00302
AAXX 10184 48698 01462 73502 10260 20251 30080 40098 60001 71022 81832 333 60007 81816 86080
BBXX BATFR61 10184 99477 70053 46/// /1006 10109 20030 40184 51008 22262 00144
AAXX 10184 65338 31956 52202 10294 20208 39897 40083 70522 80002 333 10346 58015 85076
BBXX BATFR55 10184 99077 30413 44598 60216 10287 20254 40099 70322 84142 22222 00287 209// 31111 412// 512//
BBXX BATFR46 10184 99387 10004 44997 11109 10157 20105 40178 52004 70100 81//1 22253 00174 22040
BBXX BATFR08 10184 99480 30596 46/// /2025 10034 21021 40177 51011 22223 00064
BBXX PHCQ 10183 99369 70716 41496 83617 10140 20119 40187 56012 76386 87770 22262 04243 20504 334// 41204 5//// 80128
BBXX BATFR16 10184 99476 70127 44097 62416 10117 40180 57009 70011 8657/ 22224 00144 21502 304// 41502 5//// 60/// ICE 0////
BBXX BATFR12 10184 99482 70066 46/// /2603 10102 20037 40187 53002 22222 00147
BBXX BATEU08 10184 99595 70033 46/// /2510 10044 21025 40012 56017 22223
BBXX BATFR47 10184 99280 51377 44896 52613 10222 20147 40133 51012 72522 84568 22252 20606 32736 40406 50504
BBXX BAREU06 10184 99396 70231 46/// ///// 40263 52002 22264
BBXX BATEU05 10184 99625 70217 46/// /2314 10042 20014 49796 56032 22262
BBXX BATEU02 10184 99534 70108 46/// /2423 10102 20092 40052 56029 22232 00110
BBXX BATFR01 10184 99400 10122 46/// /2114 10174 20137 40180 51004 22232 00182
BBXX PHQX 10183 99366 70597 41498 61606 10230 20143 40255 70200 85462 22214 20603 313// 40804 5//// 80175
BBXX BATFR19 10184 99003 10095 46/// /2316 10270 20242 40083 53014 22200 00292
BBXX BATFR11 10184 99367 10015 46/// /2705 10169 20124 40195 51005 22262 00177
BBXX BATEU09 10184 99435 10088 46/// /2116 10152 20124 40168 50004 22252 00162
BBXX BATEU01 10184 99464 70550 44497 71517 10052 20019 40234 56052 70222 85728 22264 00054 21004 327// 41004 5////
BBXX FVNM 10184 99063 71030 46/// /1306 10247 20217 40129 58005 22200 00269
AAXX 10181 10004 NIL
AAXX 10181 10015 01458 72913 10043 20013 30072 40082 51014 60042 78082 879// 222// 02070 333 10065 20018 31001 55300 20000 30000 69917 82817 82922 85632 91123 90250 91218 90348 91218 96488
AAXX 10181 10020 07681 42813 10057 20010 30014 40046 51014 60022 70076 333 10061 20026 3/002 55300 20000 30000 69907 81/38 84/50 91125 90251 91218 90350 91219
AAXX 10181 10035 01581 32405 10025 20001 30004 40063 53010 60032 72581 83800 333 10029 20006 32100 41998 55300 20000 30000 40899 69907 81833 91116
AAXX 10181 10055 01983 02413 10032 20012 30043 40054 53006 69942 70181 333 10038 20019 31001 55300 20000 30000 69907 91119 91216
AAXX 10181 10147 06/// /2405 10020 20013 30074 40093 51009 60132 333 10028 20004 3/100 55300 20000 30000 41037 60027
AAXX 10181 10162 07357 72407 10017 20017 30003 40087 50006 60062 72476 333 10017 20002 3/100 55300 20000 30000 60027 86/08 87/13 87/56
AAXX 10181 10184 11480 72405 10021 20002 30059 40067 53006 69902 70371 872// 333 10029 20011 31100 55300 20000 30000 87814
AAXX 10181 10200 01462 72605 10042 20017 30107 40105 53015 69972 78081 872// 333 10058 20016 32000 55300 20000 30000 69977 87816 91113
AAXX 10181 10224 12880 52407 10034 20008 30105 40111 53012 69902 81530 333 10048 20010 32000 55300 20000 30000 81657 85361
AAXX 10181 10270 06560 62404 10025 21001 30053 40109 53009 69902 222// 06051 333 10042 20015 3/000 55300 69907 85/26 85/46 86/56
AAXX 10181 10338 12568 62405 10036 20003 30053 40127 53013 60002 86500 333 10047 20028 31001 55300 20000 30000 83623 85630
AAXX 10181 10361 12981 02505 10023 21005 30023 40129 51012 60002 333 10053 20022 31000 55300 20000 30000
AAXX 10181 10393 12980 22406 10028 21007 39988 40117 53010 69902 82040 333 10044 20018 31000 55300 20000 30000 82360 91115
AAXX 10181 10400 12581 52204 10011 21009 30109 40160 52013 60002 83531 333 10060 20003 31102 55300 20000 30000 81622 83650
AAXX 10181 10438 07680 81602 10024 21007 39875 40161 53017 69912 70065 333 10053 21006 3/103 55300 69907 88/46
AAXX 10181 10469 12786 32305 10016 21015 39978 40147 53017 60002 83500 333 10056 20008 31101 55300 83650
AAXX 10181 10488 01683 42705 10030 21023 39860 40146 52014 69902 70161 84800 333 10048 20026 31000 55300 20000 30000 40934 69907 81644 83656
AAXX 10181 10506 12984 32203 11006 21038 39583 40183 52011 60002 80001 333 10027 21008 31103 55300 20000 30000 83077
AAXX 10181 10548 11680 61803 10003 21030 39619 40174 53013 69902 70381 86500 333 10032 20001 31101 55300 20000 30000 86636 96487
AAXX 10181 10637 12682 52503 10020 21032 30039 40180 51014 60002 81501 333 10066 20020 31102 55300 81645 85075
AAXX 10181 10685 01781 32302 11007 21031 39480 40172 52016 69972 70171 81542 333 10024 21008 31103 55300 20000 30000 69907 81650
AAXX 10181 10738 01475 73401 10037 20013 39713 40190 53015 69932 72162 878// 333 10053 20026 31002 55300 69907 82815 86825 96260 96460
AAXX 10181 10763 11780 32401 10003 21012 39792 40186 52017 69902 71161 81501 333 10052 21008 31103 55300 20000 30000 81650 83080
AAXX 10181 10788 15360 82501 10023 20018 39745 40186 53014 60022 333 10033 20005 3/000 55300 20000 30000 81/08 87/25 88/50
AAXX 10181 10852 07213 80601 10020 20020 39613 40194 53016 60042 75265 333 10024 20003 3/000 55300 20000 30000 69937 85/03 86/08 88/14
AAXX 10181 10946 07222 83503 10025 20025 39347 40191 53018 60162 76266 333 10055 20024 3/002 55300 20000 30000 60047 87/04 88/08
BBXX BATFR44 10184 99477 70046 46/// /0707 10107 20024 40186 51008 22221 00125
AAXX 10181 45032 36/// /0006 10087 21081 30232 40250 54000 333 91111
AAXX 10181 45035 36/// /0207 10097 21046 30206 40250 57001
AAXX 10181 45039 36/// /3404 10089 21058 30225 40240 57001
AAXX 10181 45044 36/// /0012 10097 21033 30129 40226 57002 333 91117
AAXX 10181 10007 NIL
AAXX 10181 10044 NIL
AAXX 10181 10046 11465 22305 10017 21001 30028 40068 53007 60032 70181 81831 333 10024 20005 32101 41998 81818
AAXX 10181 10091 15581 72515 10036 20010 39985 40036 51007 69902 333 10037 20015 3/001 55300 20000 30000 84/21 87/28 87/32 91122 91217
AAXX 10181 10113 01470 73013 10050 20025 30077 40096 53014 60022 78082 8683/ 333 10070 20037 32002 55300 20000 30000 60017 84817 83640 91120 91215 96488
AAXX 10181 10124 NIL
AAXX 10181 10131 01570 62306 10031 20020 30073 40088 53010 60062 72582 869// 333 10040 20008 32000 55300 20000 30000 69947 82920 85640 91118 91212 96487 96483
AAXX 10181 10170 11982 02307 10018 20001 30052 40068 52008 60012 70171 333 10024 20004 32100 4/998 55300 20000 30000 91113
AAXX 10181 10264 06459 82405 10018 20008 39983 40091 51005 60052 333 10026 20004 3/100 55300 20000 30000 60027 83/11 88/50 88/60
AAXX 10181 10291 01570 72304 10008 20004 30031 40100 53005 60052 76876 875// 333 10039 20004 3/000 42001 55300 20000 30000 60047 87630 91114
AAXX 10181 10315 12580 12304 10038 20013 30077 40142 53013 60002 81100 333 10050 20018 31001 55300 20000 30000 81821
AAXX 10181 10379 12982 12406 10021 21003 39992 40116 53010 69902 81030 333 10046 20009 31101 55300 20000 30000 40853 81359
AAXX 10181 10382 11882 12506 10030 21004 30067 40113 53010 69902 70161 81500 333 10047 20024 31001 55300 20000 30000 81657 91113
AAXX 10181 10384 16/// /2404 10035 21002 30051 40112 53006 69902 333 10051 20020 3/000 55300 20000 30000 91114
AAXX 10181 10427 01265 72607 11020 21020 39132 48425 53013 69942 70272 876// 333 11018 21024 3/103 48025 55300 20000 30000 69907 87704 91115
AAXX 10181 10430 11580 82204 10037 20003 39953 40148 52012 69902 70282 885// 333 10042 20024 31002 55300 20000 30000 85632 87645
AAXX 10181 10439 12675 72102 10017 21014 39940 40165 52016 60002 875// 333 10054 21011 31104 87648
AAXX 10181 10453 11/90 92517 11047 21048 38771 48399 51011 60052 74987 333 11042 21050 3/105 49050 55300 91124 90248 91218 90315 91219 96038 96287 96488 96486 96473 96449 96438
AAXX 10181 10496 11681 72403 10029 21003 30043 40129 53013 69902 70361 875// 333 10051 20022 31001 55300 20000 30000 87636
AAXX 10181 10499 01680 32305 10012 21008 39846 40143 51015 69982 72176 83500 333 10034 20006 31100 55300 20000 30000 69957 83638
AAXX 10181 10505 12684 62304 10015 21019 39884 40173 53012 60002 85501 333 10046 20005 31101 55300 20000 30000 85636
AAXX 10181 10513 12684 41803 10012 21025 30050 40175 52013 60002 81532 333 10069 20010 31102 55300 20000 30000 81640 83080
AAXX 10181 10532 15681 82305 10022 21014 39916 40170 52013 69902 333 10049 20003 3/102 55300 20000 30000 83/47 88/72 88/77
AAXX 10181 10544 01586 72406 11031 21033 39066 48433 53014 69902 72222 875// 333 11014 21036 3/104 42004 55300 69907 87620 96278
AAXX 10181 10554 12983 12607 10013 21026 39762 40159 52015 60002 81030 333 10043 20005 31102 55300 20000 30000 81360
AAXX 10181 10567 12786 22506 10017 21026 39773 40157 52015 60002 82501 333 10041 20006 31101 55300 20000 30000 82650
AAXX 10181 10578 11173 71712 11054 21059 38726 48420 53012 60032 72841 8167/ 333 11035 21058 3/107 48029 55300 20000 30000 81702 87350
AAXX 10181 10609 12982 12102 10009 21026 39850 40189 53011 60002 80001 333 10059 20007 31103 55300 20000 30000 81080
AAXX 10181 10616 12586 22702 11006 21038 39571 40189 53012 60002 81801 333 10027 21007 31103 55300 81820
AAXX 10181 10641 15981 01701 10002 21024 30030 40182 52016 60002 333 10073 20001 3/104 55300
AAXX 10181 10655 12983 22402 10006 21028 39844 40182 51014 69952 80002 333 10061 20003 31103 55300 20000 30000 82074
AAXX 10181 10675 17982 31601 11019 21029 39882 40185 51016 60012 70065 333 10061 21020 3/104 55300 20000 30000 82/73 83/76
AAXX 10181 10688 15965 02401 11003 21010 39645 40183 51017 69942 333 10033 21009 3/104 55300 20000 30000
AAXX 10181 10708 12682 12601 11002 21024 39798 40196 52013 60002 81500 333 10057 21002 31104 55300 20000 30000 81635
AAXX 10181 10729 15965 02402 11003 21023 30071 40197 52017 60002 333 10077 21003 3/104 55300 20000 30000
AAXX 10181 10731 01780 43401 10024 20011 30044 40191 53018 69902 70181 84500 333 10068 20024 31100 55300 20000 30000 69907 84650
AAXX 10181 10742 15565 72703 10029 20006 39851 40189 53017 60002 333 10063 20027 3/100 55300 20000 30000 86/31 87/50
AAXX 10181 10776 01765 62101 10017 20017 39730 40184 52014 69972 70182 86500 333 10039 20012 31101 55300 20000 30000 69917 86650
AAXX 10181 10791 01/90 92708 11053 21058 38491 48437 53007 69922 74974 333 11043 21053 44049 55300 69927
AAXX 10181 10805 NIL
AAXX 10181 10815 07244 82704 10006 20006 39232 48459 51012 60022 75165 333 10009 20001 3/000 55300 20000 30000 69917 81/05 85/09 88/15
AAXX 10181 10836 01220 83004 10004 20004 39303 40191 51016 60032 76876 886// 333 10013 21006 3/100 43009 55300 20000 30000 60017 88706 96441
AAXX 10181 10870 01245 82105 10011 20010 39648 40195 53012 60072 76176 885// 333 10017 20005 31000 55300 69997 83704 83710 85630 96463
AAXX 10181 10895 01250 82403 10014 20014 39606 40188 53012 60032 76076 876// 333 10016 21002 31000 4/998 55300 20000 30000 69917 87704 96010 96260 96478 96461
AAXX 10181 10908 01/01 92610 11007 21007 38467 48465 53012 60052 75675 333 11001 21011 3/101 49011 55300 20000 30000 69927 89/01 91118 91214 96270 96256 96473
AAXX 10181 10929 01150 80102 10045 20045 39651 40189 53015 60132 76366 8472/ 333 10082 20045 32004 55300 20000 30000 60037 84703 88516
AAXX 10181 10948 07522 81802 10020 20020 39226 48464 51012 60012 72365 333 10053 20014 3/001 4/002 55300 20000 30000 69917 81/26 86/45 88/50
AAXX 10181 10961 11/00 92911 11065 21068 37040 47005 51008 60042 77174 333 11059 21065 49080 55300 20000 41092 91124 91215 96049 96478 96471 96449
AAXX 10181 10962 01/01 93201 11001 21001 39025 48463 53014 60122 77376 333 10020 21004 3/000 43001 55300 20000 30000 60037 96045
AAXX 10181 10980 11/01 92511 11024 21028 38112 48462 51013 60032 77174 333 11008 21024 3/102 48026 55300 20000 30000 91123 90253 91218 90335 91218 96045 96473 96449
AAXX 10184 48698 01462 73502 10260 20251 30080 40098 60001 71022 81832 333 60007 81816 86080
AAXX 10184 78615 32482 60000 10248 20186 30070 40212 58012 83230 333 10258 20194 30/// 56290 57824 58020 83818 83359
AAXX 10184 78627 32582 61110 10186 20086 38182 58008 86500 333 10192 20058 30/// 56200 58010 86620
AAXX 10184 78637 32582 82704 10262 20202 30172 40188 58007 8325/ 333 10262 20200 30/// 5619/ 58013 83820 87359
AAXX 10184 78641 32482 73618 10200 20103 38565 40164 58008 87500 333 10210 20128 30/// 56800 58004 87618
AAXX 10184 78647 31959 01810 10308 20207 30121 40128 58019 70440 333 10312 20195 30/// 54505 59009
AAXX 10184 85585 12598 41915 10183 20110 40219 50005 60001 84200 333 56400 84827
AAXX 10184 85586 12560 12312 10176 20102 40181 58006 60001 81500 333 56600 81623
AAXX 10184 85629 12970 02508 10270 20121 40137 57014 60001
AAXX 10184 85672 12570 21805 10254 20117 40165 57012 60001 82203 333 56500 82825
AAXX 10184 85682 12465 12312 10208 20134 40182 54000 60001 81100 333 56500 81810
AAXX 10184 85743 11460 59907 10191 20122 40179 58003 60051 70152 85200 333 56600 85818
AAXX 10184 85782 12560 62812 10182 200063 40167 52007 60001 86200 333 56800 86820
AAXX 10184 85799 12560 72608 10155 20085 40167 5105 69941 87800 333 56600 82830 87645
AAXX 10184 85418 12965 32413 10217 20117 40148 56010 60001 80001 333 56000 83080
AAXX 10184 85766 11570 52412 1184 20110 40184 52008 69951 70282 85200 333 56600 85840
AAXX 10184 85968 11659 52613 10082 20022 49831 50/// 69951 78022 85200 333 56600 85840
AAXX 10184 61901 169// /1014 10157 20154 39647 40156 55003 60022 91750 333 10182 8//99 555 7/090
AAXX 10184 61902 32586 10251 20168 40112 82801 333 10279 59001 81827 85081
AAXX 10184 88889 12684 42824 10194 20057 39797 49877 58005 60001 81182 91750 333 81840 83070 91032 90710 91132
AAXX 10184 85864 12680 62610 10130 20055 40066 52005 60001 86200 333 56600 86833
AAXX 10184 85874 12682 33025 10139 20009 39428 40035 50010 60001 83200 333 56600 83840
AAXX 10184 85934 11480 52831 10091 20029 49886 53006 60011 70182 85100 333 56600 85816
AAXX 10184 89056 11115 80213 10011 20008 49774 57009 69943 71042 887// 333 56699 88703
AAXX 10184 89057 11460 72709 10020 20009 49770 57015 60073 87500 333 56600 87615
AAXX 10184 89058 11563 83411 10020 20010 39761 49782 69901 70060 885//
AAXX 10184 89059 11404 80102 10013 20000 49772 56013 60003 71022 886// 333 70999 88710
AAXX 10184 89251 32562 83414 10020 20008 49766 58025 8561/
AAXX 10181 45032 36/// /0006 10087 21081 30232 40250 54000 333 91111
AAXX 10181 45035 36/// /0207 10097 21046 30206 40250 57001
AAXX 10181 45039 36/// /3404 10089 21058 30225 40240 57001
AAXX 10181 45044 36/// /0012 10097 21033 30129 40226 57002 333 91117
AAXX 10184 03005 11575 72707 10028 20010 39899 40000 50005 60092 72781 83878 91750 333 10048 55300 20000 81820 83645 85367
AAXX 10184 03017 15967 /2505 10008 21030 39991 40023 58011 60002 91750 333 10030 55300 20000 86/60 83/73
AAXX 10184 03023 17335 /1818 10069 20066 39972 49977 58046 60032 782// 91750 333 10069 86/07 90710 91126
AAXX 10184 03026 17469 /1824 10062 20049 39965 49983 57045 60022 761// 91750 333 10064 55300 20000 86/14 84/61 90710 91132
AAXX 10184 03063 17783 /2304 10011 21026 39763 40044 58017 60012 724// 91750 333 10011 4/003 55300 20000 88/56
AAXX 10184 03066 15782 /2105 10014 20014 30031 40037 58019 69982 91750 333 10018 55300 20000 88/50
AAXX 10184 03075 17968 /1908 10018 21019 39983 40028 58011 69902 741// 91750 333 10022 86/58 87/64
AAXX 10184 03091 15782 /2205 10009 21049 39973 40054 57007 60002 91750 333 10030 55300 20000 87/56 86/64
AAXX 10184 03100 17237 /2022 10077 20074 39997 40013 57034 60022 761// 91750 333 10079 55300 20000 87/04 90710 91131
AAXX 10184 03111 16663 /1808 10051 20039 30050 40063 57016 60062 91750 333 10062 81/37 87/44
AAXX 10184 03134 17759 /2003 10026 20024 39989 40062 58013 60012 723// 91750 333 10026 55300 20000 88/50
AAXX 10184 03136 17569 /2012 10056 20039 30037 40070 57008 69962 781// 91750 333 10067 55300 20000 83/23 83/44 85/56
AAXX 10184 03162 15378 /2206 10023 20014 39799 40090 57003 69962 91750 333 10025 55300 20000 84/08 87/56
AAXX 10184 03166 17480 /2208 10037 20027 39997 40067 57008 60042 723// 91750 333 10038 55300 20000 81/16 83/28
AAXX 10184 03171 12575 72705 10009 21004 30052 40065 57007 60002 8157/ 91750 333 10023 55300 20000 81628 87358
AAXX 10184 03204 12570 72416 10076 20032 30080 40100 57009 60002 8587/ 91750 333 10076 55300 20000 83820 84640 87362
AAXX 10184 03240 15980 /2411 10030 20019 30055 40084 54000 60042 91750 333 10031 55300 20000 87/59
AAXX 10184 03257 15771 /1805 10037 20008 30066 40107 52004 69922 91750 333 10058 55300 20000 81/50 87/63
AAXX 10184 03292 169// /2608 10017 20009 30088 40107 52008 69922 91750 333 10048 84/71
AAXX 10184 03302 15976 /2317 10078 20031 30106 40118 58010 60002 91750 333 10079 55300 20000 87/61 90710 91125
AAXX 10184 03354 15970 /2306 10031 20009 39992 40138 52006 60002 91750 333 10049 55300 20000 81/70
AAXX 10184 03377 12682 72211 10026 20002 30047 40133 52006 69922 82508 91750 333 10045 55300 20000 82630 87273
AAXX 10184 03414 15980 /2204 10030 20009 30047 40137 52001 69922 91750 333 10053 55300 20000 87/70
AAXX 10184 03462 15982 /2310 10026 21004 30052 40144 53005 60002 91750 333 10042 55300 20000 8//99
AAXX 10184 03482 15772 /2106 10017 21003 30118 40144 53008 69922 91750 333 10039 87/50
AAXX 10184 03502 15676 /2210 10052 20022 39978 40142 58005 69902 91750 333 10072 55300 20000 83/42
AAXX 10184 03535 15981 /1806 10028 20003 30026 40146 51007 69922 91750 333 10052 55300 20000 81/70
AAXX 10184 03590 15981 /2206 10008 21009 30041 40154 52007 60002 91750 333 10040 55300 20000 8//99
AAXX 10184 03649 12775 72103 10023 20004 30057 40160 51005 60022 81532 91750 333 10055 55300 2//// 81650 87070
AAXX 10184 03716 17581 /2703 10065 20033 30093 40154 50000 69922 761// 91750 333 10074 55300 20000 82/26 86/30
AAXX 10184 03740 16671 /2004 10031 20014 39985 40165 52004 69922 91750 333 10061 55300 2//// 87/33
AAXX 10184 03746 15681 /2207 10040 20015 30013 40170 53004 69922 91750 333 10053 87/33 84/44
AAXX 10184 03772 15976 /2408 10041 20007 30134 40165 52006 60002 91750 333 10063 55300 20000 83/65
AAXX 10184 03796 46/// /2710 10030 21012 30022 40168 51008 91750 333 10062
AAXX 10184 03803 15684 /2211 10082 20048 30134 40172 58004 69902 91750 333 10094 82/33 87/65
AAXX 10184 03808 11575 72204 10062 20032 30063 40171 58003 69902 70282 8287/ 91750 333 10086 55300 20000 81825 87365
AAXX 10184 03809 11470 72905 10072 20044 30077 40171 58002 69902 70282 85830 91750 333 10087 82815 85622
AAXX 10184 03827 15783 /2806 10072 20033 30110 40172 54000 69902 91750 333 10089 83/50 87/65
AAXX 10184 03840 17568 /2304 10040 20030 39859 40170 51002 69922 781// 91750 333 10055 86/23 84/37
AAXX 10184 03853 15682 /2104 10054 20031 30143 40167 52002 69922 91750 333 10068 55300 20000 85/37 85/50 87/65
AAXX 10184 03874 46/// /2810 10068 20027 30160 40172 52006 91750 333 10076
AAXX 10184 03882 15975 /2802 10020 21014 30105 40171 51006 69922 91750 333 10068 55300 20000 8//99
AAXX 10184 03894 11685 72504 10062 20012 40186 52002 69932 70382 868/1 333 10094 81833 86646
AAXX 10184 03917 15370 /1811 10043 20023 30001 40079 58016 69922 91750 333 10043 55300 20000 88/08
AAXX 10184 78982 02580 40711 10300 20244 30087 40092 57021 60001 84201 333 59009 60007 84820
BBXX A8TG2 10183 99284 71250 41598 80110 10170 20094 40210 54000 70222 8547/ 22224 20204 301// 40204 5//// 80130
AAXX 10181 89061 179// 00212 10039 21001 39704 49710 57021 69953 72376 333 91017 91117
AAXX 10184 78615 32482 60000 10248 20186 30070 40212 58012 83230 333 10258 20194 30/// 56290 57824 58020 83818 83359
AAXX 10184 78627 32582 61110 10186 20086 38182 58008 86500 333 10192 20058 30/// 56200 58010 86620
AAXX 10184 78637 32582 82704 10262 20202 30172 40188 58007 8325/ 333 10262 20200 30/// 5619/ 58013 83820 87359
AAXX 10184 78641 32482 73618 10200 20103 38565 40164 58008 87500 333 10210 20128 30/// 56800 58004 87618
AAXX 10184 78647 31959 01810 10308 20207 30121 40128 58019 70440 333 10312 20195 30/// 54505 59009
AAXX 10181 89061 179// 00212 10039 21001 39704 49710 57021 69953 72376 333 91017 91117
AAXX 10184 78958 11478 31408 10304 20251 30085 40095 60001 71500 83800 333 10318 20234 59017 83819
BBXX VCRG 10184 99463 70623 46/// /3416 10043 20040 40176 58016 7//// 8//// 22252 00101 2////
BBXX CG2350 10184 99433 70798 46/// /2616 11029 21095 40301 50001 7//// 8//// 22200 0//// 2////
AAXX 10181 11423 NIL
AAXX 10181 11487 NIL
AAXX 10181 11518 02982 52405 10001 21029 39716 40167 52016 69902 82044 333 10046 60005 82360 84073 91111
AAXX 10181 11603 01670 52402 10006 21035 39662 40155 53016 69902 72272 84570 333 10024 47997 69905 81640 84646 91111
AAXX 10181 11659 02668 22904 10009 21016 39513 40165 53015 60002 82500 333 10043 60005 82640
AAXX 10181 11723 02780 72805 10037 21005 39863 40165 53016 60002 87500 333 10061 60005 87656
AAXX 10181 11782 01570 52303 10017 21003 39845 40157 53011 69902 70381 85500 333 10053 60005 82623 84640
AAXX 10184 78958 11478 31408 10304 20251 30085 40095 60001 71500 83800 333 10318 20234 59017 83819
BBXX 46001 10181 99563 71480 46/// /2106 10045 40210 56008 91750 22200 00051 11105 20402 300// 41104 70025 333 91207 555 11064 22067 31747 42007 61749 205060 212055 211054 223051 224051 215036
BBXX 46082 10181 99597 71434 46/// ///// 10023 20023 40180 53015 91750 22200 00063 10804 70020
BBXX 46072 10181 99517 71722 46/// /2314 10037 21006 49908 52013 91750 22200 00054 10910 20706 3//// 40907 70048 333 91220 555 11154 22164 31653 42420 61749 235143 237126 240114 249123 252119 253141 82317 91748
BBXX 46035 10181 99571 71778 46/// /1914 1//// 49665 56012 91750 22200 11112 20606 300// 41110 70059 333 91218 555 11143 22153 31658 42021 61749 195144 194143 188148 193147 196157 195165 81919 91658
BBXX 46077 10181 99579 71543 46/// /0906 10036 21007 40126 57019 91750 22200 00048 10602 20601 3//// 40601 70008 333 91207 555 11063 22066 31650 41207 61749 086061 100058 122045 116038 104051 115060 81106 91656
BBXX 42039 10181 99288 70860 46/// /0210 10159 40242 57009 91750 22200 00230 333 91213 555 11109 22114 31722 43613 61749 024103 021107 014107 010101 017105 018105 80212 91721
BBXX 41040 10181 99145 70530 46/// /1603 10276 20235 40102 56019 91750 22200 00285 10804 3//// 40804 70019 333 91203 555 11026 22027 31709 41604 61749 164026 163025 161027 165030 156031 160027 81704 91710
AAXX 10184 81401 06/// /0806 10293 20237 30078 40084 69921 333 69927 59002 555 69925
AAXX 10184 81408 06/// /0907 10325 20220 30075 40083 60011 333 60007 59003 555 60005
BBXX 45008 10181 99443 70824 46/// /2509 11037 30062 40285 50000 91750 22200 00067 10503 20503 70013 333 91211 555 11094 22098 61749 249092 249087 251094 250091 244087 247094
BBXX 46026 10181 99378 71228 46/// /0905 10108 40209 53004 91750 22200 00113 11703 20301 329// 41703 70014 333 91206 555 11051 22053 31744 40906 61749 076048 299043 296044 300043 297044 295045
BBXX 46041 10181 99474 71247 46/// /3203 10073 40211 52006 91750 22200 00087 11504 20401 3//// 41504 70022 333 91204 555 11032 22033 31735 43205 61749 321031 317035 323027 334023 355024 003026
BBXX 51004 10181 99175 71524 46/// /0305 10236 20200 91750 555 11051 22054
BBXX 51002 10181 99171 71578 46/// /0606 10241 40153 53018 91750 22200 00251 333 91208 555 11068 22071 31718 40708 61749 062062 062060 065064 062063 063060 065063
BBXX 51100 10181 99236 71539 46/// /0711 10223 40200 53011 91750 22200 00233 11507 20805 333// 41505 70035 333 91213 555 11116 22123 31735 40614 61749 072109 067118 067110 064114 066116 071107
BBXX 44007 10181 99435 70701 46/// /3308 10054 21014 40208 55000 91750 22200 00089 10601 20301 3//// 40601 70006 333 91209 555 11080 22084 31725 43310 61749 332077 335079 334079 337073 331074 328074
BBXX 46072 10181 99517 71722 46/// /2314 10037 21006 49908 52013 91750 22200 00054 10910 20706 3//// 40907 70048 333 91220 555 11154 22164 31653 42420 61749 235143 237126 240114 249123 252119 253141 82317 91748
AAXX 10184 78583 32570 73407 10257 20191 40183 87800 333 01800 58006 81823 87650
BBXX VCWL 10184 99466 70719 46/// /3207 11035 21087 40243 53004 7//// 8//// 22262 00054 2////
BBXX VCLM 10184 99621 70747 46/// /1806 11166 21201 40001 51009 7//// 8//// 22200 0//// 2////
BBXX VCBW 10184 99514 70571 46/// /2218 10017 20011 40131 56029 7//// 8//// 22200 0//// 2////
BBXX CZ9742 10184 99506 70969 46/// /1603 11084 21124 40165 53007 7//// 8//// 22200 0//// 2////
BBXX CG2960 10184 99453 70800 46/// /1004 11046 21072 40268 50008 7//// 8//// 22200 00052 2////
BBXX VAAP 10184 99452 70609 46/// /2221 10071 20064 40191 56019 7//// 8//// 22213 0//// 2////
BBXX C6SI6 10184 99457 11525 46/// /2327 11005 21013 40063 50009 7//// 8//// 22253 0//// 2////
BBXX CGTF 10184 99476 70527 46/// /1312 10044 21010 40244 56043 7//// 8//// 22200 0//// 2////
BBXX CGJV 10184 99454 70609 46/// /1926 10072 20055 40182 56039 7//// 8//// 22271 00073 2////
BBXX VOFG 10184 99456 70614 46/// /2011 10083 20051 40178 58028 7//// 8//// 22200 0//// 2////
BBXX VAAZ 10184 99510 70503 46/// /2027 10020 20011 40195 57042 7//// 8//// 22211 0//// 2////
BBXX CG2958 10184 99487 71235 46/// /2104 10032 20018 40225 51011 7//// 8//// 22200 0//// 2////
BBXX CGDX 10184 99468 70712 46/// /1907 11018 21072 40238 56002 7//// 8//// 22200 0//// 2////
BBXX CGDR 10184 99496 71265 46/// /0307 10035 20034 40214 51005 7//// 8//// 22200 00104 2////
BBXX VCSZ 10184 99469 70573 46/// /1926 10053 20052 40207 56043 7//// 8//// 22264 0//// 2////
BBXX VOPP 10184 99456 70735 46/// /2404 11019 21091 4//// 5//// 7//// 8//// 22200 0//// 2////
BBXX CG2965 10184 99487 71235 46/// /2302 10030 20013 40218 53012 7//// 8//// 22200 0//// 2////
BBXX CGSB 10184 99468 70712 46/// /2006 11023 21076 40239 56001 7//// 8//// 22200 0//// 2////
BBXX 3FZK3 10184 99476 11569 46/// /2419 11001 21021 40036 58014 7//// 8//// 22213 0//// 2////
BBXX CGBR 10184 99534 71293 46/// /0101 10034 20034 40189 52016 7//// 8//// 22200 0//// 2////
BBXX CGJK 10184 99484 71234 46/// /0106 10034 20023 40215 53013 7//// 8//// 22200 0//// 2////
BBXX VOKJ 10184 99492 70664 46/// /2619 11039 21122 40189 58018 7//// 8//// 22215 0//// 2////
BBXX VRYO3 10184 99510 70509 46/// /2920 10024 20035 40177 56013 7//// 8//// 22224 00030 2////
BBXX CGBY 10184 99487 71235 46/// /2201 10033 20017 40217 53012 7//// 8//// 22200 0//// 2////
BBXX VXKF 10184 99468 70598 46/// /1725 10056 20042 40149 56056 7//// 8//// 22254 0//// 2////
AAXX 10184 81401 06/// /0806 10293 20237 30078 40084 69921 333 69927 59002 555 69925
AAXX 10184 81408 06/// /0907 10325 20220 30075 40083 60011 333 60007 59003 555 60005
AAXX 10184 78954 11464 51309 10289 20249 30030 40093 60001 71700 84903 333 10295 20234 59014 82912 83814
AAXX 10184 64500 32460 52410 10275 20247 30061 40074 85500 333 10297 59002 85611
AAXX 10184 78583 32570 73407 10257 20191 40183 87800 333 01800 58006 81823 87650
AAXX 10181 01115 11482 60512 10025 21042 39909 49930 50004 60002 70222 82260 333 10033 91115
AAXX 10181 01028 11580 63407 11029 21067 30023 40043 53003 69902 70282 86300 333 11019 91111
AAXX 10181 01049 16/// /0203 11034 21049 39991 49994 56010 60012 333 11030 91104
AAXX 10181 01078 16/// /2102 11022 21050 39989 40002 57016 6//// 333 11020 91103
AAXX 10181 01218 11685 60000 10006 21008 39929 49951 53023 69942 70122 83280 333 10010 91103
AAXX 10181 01397 16/// /2802 11041 21045 39471 49910 52028 60002 333 11041 91104
AAXX 10181 01026 11589 80303 11012 21048 39838 49980 58005 60002 70222 8151/ 333 11010 91108
AAXX 10181 01152 11782 60804 11028 21068 39934 49950 52006 60002 70322 82578 333 10004 91106
AAXX 10181 01271 16/// /0000 11010 21019 39905 49926 52015 6//// 333 11009 91102
AAXX 10181 01288 16/// /2402 11050 21060 39175 49928 52022 6//// 333 11050 91103
AAXX 10181 01317 16/// /1402 10016 20001 39945 49960 53029 6//// 333 10041 91104
AAXX 10181 01367 11889 33104 11091 21107 39498 49954 53030 60002 70120 83010 333 11074 91106
AAXX 10181 01415 16/// /0103 10040 20016 39958 49969 52028 6//// 333 10066 91119
AAXX 10181 01492 11987 40000 11026 21044 39800 49919 53029 60002 70220 82032 333 11003 91104
AAXX 10184 78906 12480 13305 10289 20236 30095 40100 60001 81802 333 10299 20225 59011 81818
AAXX 10184 78388 112578 50717 10293 20216 30117 40126 60001 82201 333 01209 10308 20221 59003 82824 84074
AAXX 10181 78221 41466 50203 10268 20212 30139 40166 57020 70222 85200 333 85815
AAXX 10181 78224 12359 70204 10238 20211 30090 40164 58018 69921 84260 333 84807 85325
AAXX 10181 78229 42459 70104 10266 20213 30087 40163 57020 87200 333 87818
AAXX 10181 78239 11559 40807 10279 20216 30148 40151 57020 60004 70500 84800 333 10280 20243 84818
AAXX 10181 12345 42560 50402 10291 20209 30104 40140 57020 85100 333 85820
AAXX 10181 78243 42559 60706 10267 20213 30035 40158 57020 85920 333 85920
AAXX 10181 78255 42559 40806 10263 20206 30004 40153 57020 84502 333 10212 20265 84618
AAXX 10181 78264 31560 32003 10290 20208 30057 40132 57030 70300 83200 333 10300 20220 83820
AAXX 10181 78265 31559 40907 10289 20180 30034 40134 57030 70222 84200 333 10290 20210 84825
AAXX 10181 78256 NIL
AAXX 10181 78259 NIL
AAXX 10181 78268 11460 30905 10295 20250 30129 40148 52028 60001 70211 83200 333 83820
AAXX 10184 78954 11464 51309 10289 20249 30030 40093 60001 71700 84903 333 10295 20234 59014 82912 83814
AAXX 10184 78016 32664 81507 10220 20145 30235 40239 57019 885// 333 10221 20211 70000
AAXX 10184 78792 32460 72704 10302 20226 30074 40087 57024 83230 333 026// 10315 20242 30/// 59008 84818 83359
AAXX 10184 78793 31565 52110 10308 20234 30064 40095 57015 71500 84213 333 10310 20212 30/// 564// 59006 84820
AAXX 10184 78795 32470 82304 10302 20237 39991 40091 57014 83240 333 10310 20216 30/// 5600/ 59009 83815 85360
AAXX 10184 78906 12480 13305 10289 20236 30095 40100 60001 81802 333 10299 20225 59011 81818
AAXX 10184 78388 112578 50717 10293 20216 30117 40126 60001 82201 333 01209 10308 20221 59003 82824 84074
BBXX CGBN 10184 99447 70636 46/// /1701 10101 20075 40156 56037 7//// 8//// 22200 0//// 2////
BBXX CGDT 10184 99490 70669 46/// /2609 11033 21101 40193 58005 7//// 8//// 22200 0//// 2////
AAXX 10184 78016 32664 81507 10220 20145 30235 40239 57019 885// 333 10221 20211 70000
AAXX 10184 78792 32460 72704 10302 20226 30074 40087 57024 83230 333 026// 10315 20242 30/// 59008 84818 83359
AAXX 10184 78793 31565 52110 10308 20234 30064 40095 57015 71500 84213 333 10310 20212 30/// 564// 59006 84820
AAXX 10184 78795 32470 82304 10302 20237 39991 40091 57014 83240 333 10310 20216 30/// 5600/ 59009 83815 85360
AAXX 10184 78862 11472 70608 10243 20221 30084 40107 60011 71586 87822 333 10258 20238 59003 70031 83812 87635 85458
AAXX 10184 TAF TQPF 081000Z 0812/0912 04010KT 9999 SCT022 PROB30 TEMPO 0812/0912 SHRA BKN015
AAXX 10184 TAF TUPJ 081000Z 0812/0912 06010KT 9999 SCT022 PROB30 TEMPO 0812/0912 SHRA BKN015
AAXX 10184 N036
AAXX 10184 TAF TUPJ 071600Z 0718/0818 06008KT 9999 SCT020 BKN280 PROB30 TEMPO 0718/0818 06010G20KT SHRA BKN015 BKN036
AAXX 10184 TEMPO 0600/0624 SHRA BKN015=+TSRA SCT012CB
AAXX 10184 TAF TUPJ 041000Z 04012/0512 07008KT 9999 SCT016 BKN038 SCT270 TEMPO 0412/0512 SHRA BKN015 PROB40 TEMPO 0418/0512 5000 SHRA BKN014 BKN036 PROB30 0420/0512 4000 TSRA FEW012CB
AAXX 10184 918 4000 TSRA FEW012CB
AAXX 10184 N015 BKN036 PROB40 TEMPO 0704/0724 3000 +TSRA SCT011CB BKN012 BECMG 0712/0714 14008KT
AAXX 10184 21/2712 07017G28KT 5000 SHRA BKN015 BKN036 PROB TEMPO 2700/2712 4000 TSRA FEW013CB
AAXX 10184 PROB30 TEMPO 0800/0806 4000 TSRA FEW012CB PROB40 TEMPO 0800/0824 2000 +SHRA/TSRA SCT010CB BKN012 BKN250
BBXX 41010 10181 99289 70785 46/// /0807 10229 40210 58010 91750 22200 00241 10503 20502 300// 40802 70014 333 91207 555 11069 22072
BBXX 41009 10181 99285 70802 46/// /0705 10244 20156 40209 58014 91750 22200 00250 10603 20502 300// 40602 70016 333 91207 555 11057 22060
BBXX 42057 10181 99168 70815 46/// /0406 10281 20221 40136 58014 91750 22200 00281 10602 20502 3//// 40601 70011 333 91207 555 11060 22063 31705 40408 61749 039060 035061 035062 034061 038063 035062 80407 91703
AAXX 10184 78906 12480 13305 10289 20236 30095 40100 60001 81802 333 10299 20225 59011 81818
AAXX 10184 17600 12970 00308 10107 20030 30256 40266 51015 60002 333 10174 20097
AAXX 10184 17601 12982 00501 10094 20049 30230 40262 52016 69982 91750 333 10170
AAXX 10184 17607 NIL
AAXX 10184 17609 12980 03206 10105 21003 30263 40267 51013 60002 333 10164 20085
BBXX 51101 10181 99243 71621 46/// /0807 10234 20181 40211 53008 91750 22200 00244 11404 20603 331// 41403 70022 333 91209 555 11076 22080 31655 40710 61749 081074 079078 080076 075080 077081 075080
BBXX 46061 10181 99602 71468 46/// /0502 10028 40178 52004 91750 22200 00059 10802 300// 40802 70009 333 91203 555 11024 22024 31656 43506 61749 045023 046024 046026 014036 359043 350042
AAXX 10184 78962 11465 51408 10280 20233 30091 40099 69971 71581 83963 333 06299 10309 20231 59012 81810 81912 90960
AAXX 10184 78862 11472 70608 10243 20221 30084 40107 60011 71586 87822 333 10258 20238 59003 70031 83812 87635 85458
AAXX 10184 TAF TQPF 081000Z 0812/0912 04010KT 9999 SCT022 PROB30 TEMPO 0812/0912 SHRA BKN015
AAXX 10184 TAF TUPJ 081000Z 0812/0912 06010KT 9999 SCT022 PROB30 TEMPO 0812/0912 SHRA BKN015
AAXX 10184 N036
AAXX 10184 TAF TUPJ 071600Z 0718/0818 06008KT 9999 SCT020 BKN280 PROB30 TEMPO 0718/0818 06010G20KT SHRA BKN015 BKN036
AAXX 10184 TEMPO 0600/0624 SHRA BKN015=+TSRA SCT012CB
AAXX 10184 TAF TUPJ 041000Z 04012/0512 07008KT 9999 SCT016 BKN038 SCT270 TEMPO 0412/0512 SHRA BKN015 PROB40 TEMPO 0418/0512 5000 SHRA BKN014 BKN036 PROB30 0420/0512 4000 TSRA FEW012CB
AAXX 10184 918 4000 TSRA FEW012CB
AAXX 10184 N015 BKN036 PROB40 TEMPO 0704/0724 3000 +TSRA SCT011CB BKN012 BECMG 0712/0714 14008KT
AAXX 10184 21/2712 07017G28KT 5000 SHRA BKN015 BKN036 PROB TEMPO 2700/2712 4000 TSRA FEW013CB
AAXX 10184 PROB30 TEMPO 0800/0806 4000 TSRA FEW012CB PROB40 TEMPO 0800/0824 2000 +SHRA/TSRA SCT010CB BKN012 BKN250
AAXX 10184 78862 11472 70608 10243 20221 30084 40107 60011 71586 87822 333 10258 20238 59003 70031 83812 87635 85458
AAXX 10184 TAF TQPF 081000Z 0812/0912 04010KT 9999 SCT022 PROB30 TEMPO 0812/0912 SHRA BKN015
AAXX 10184 TAF TUPJ 081000Z 0812/0912 06010KT 9999 SCT022 PROB30 TEMPO 0812/0912 SHRA BKN015
AAXX 10184 N036
AAXX 10184 TAF TUPJ 071600Z 0718/0818 06008KT 9999 SCT020 BKN280 PROB30 TEMPO 0718/0818 06010G20KT SHRA BKN015 BKN036
AAXX 10184 TEMPO 0600/0624 SHRA BKN015=+TSRA SCT012CB
AAXX 10184 TAF TUPJ 041000Z 04012/0512 07008KT 9999 SCT016 BKN038 SCT270 TEMPO 0412/0512 SHRA BKN015 PROB40 TEMPO 0418/0512 5000 SHRA BKN014 BKN036 PROB30 0420/0512 4000 TSRA FEW012CB
AAXX 10184 918 4000 TSRA FEW012CB
AAXX 10184 N015 BKN036 PROB40 TEMPO 0704/0724 3000 +TSRA SCT011CB BKN012 BECMG 0712/0714 14008KT
AAXX 10184 21/2712 07017G28KT 5000 SHRA BKN015 BKN036 PROB TEMPO 2700/2712 4000 TSRA FEW013CB
AAXX 10184 PROB30 TEMPO 0800/0806 4000 TSRA FEW012CB PROB40 TEMPO 0800/0824 2000 +SHRA/TSRA SCT010CB BKN012 BKN250
BBXX 44172 10181 99445 70634 46/// ///// 1//// 91801 22200 00076 10503 20503 70016
BBXX 44097 10181 99410 70711 46/// ///// 1//// 91802 22200 00128 10402 20402 70011
AAXX 10184 78962 11465 51408 10280 20233 30091 40099 69971 71581 83963 333 06299 10309 20231 59012 81810 81912 90960
AAXX 10181 45007 12966 10208 10105 21046 30239 40248 58007 60001 80001 333 58004 81080
BBXX 46232 10181 99325 71174 46/// ///// 1//// 91738 22200 00148 11802 21001 328// 41802 70009
BBXX 46247 10181 99378 71228 46/// ///// 1//// 91751 22200 00115 11703 20801 329// 41702 70014
BBXX 46243 10181 99462 71241 46/// ///// 1//// 91759 22200 00085 11703 20901 327// 41703 70014
BBXX 46236 10181 99368 71219 46/// ///// 1//// 91750 22200 00118 11703 20901 328// 41702 70013
BBXX 46229 10181 99438 71246 46/// ///// 1//// 91751 22200 00103 11704 20901 329// 41704 70021
BBXX 46225 10181 99329 71174 46/// ///// 1//// 91744 22200 00158 12001 21001 325// 42001 70007
BBXX 46213 10181 99403 71247 46/// ///// 1//// 91754 22200 00107 11704 20702 330// 41704 70021
BBXX 46215 10181 99352 71209 46/// ///// 1//// 91738 22200 00138 11802 20901 326// 41802 70011
AAXX 10181 45007 12966 10208 10105 21046 30239 40248 58007 60001 80001 333 58004 81080
AAXX 10181 76040 32960 03202 10169 20024 30198 40212 52008 91745 333 10203 20050 30/// 59022 98660
AAXX 10181 76061 32981 00502 10140 20033 30135 40211 52008 91730 333 10142 20090 30/// 59020
AAXX 10181 76113 32980 02701 10158 21009 39698 40172 57001 91745 333 10165 20040 30/// 59018
AAXX 10181 76122 32970 41102 10094 20055 38593 40270 57001 82420 91749 333 10146 21022 30/// 59017
AAXX 10181 76225 32760 80201 10100 21019 38690 40245 50002 88070 91745 333 20050 30/// 56050 58030 85350 88270
AAXX 10181 76256 32980 03002 10199 20071 30176 40190 52002 91745 333 10209 20125 30/// 59014
AAXX 10181 76258 32970 30703 10215 20073 30132 40178 57004 80001 91750 333 10224 20104 30/// 59011
AAXX 10181 76305 32970 30602 10218 20085 30180 40188 51002 80004 91740 333 10221 20142 30/// 56005 59009 83070
AAXX 10181 76323 32970 73601 10098 21003 38322 40302 57008 8702/ 91755 333 10102 20037 30/// 5605/ 58025 87458
AAXX 10181 76342 01460 80702 10078 20071 39616 40351 52006 69921 75255 887// 91755 333 10090 20074 31/// 561// 58077 69907 88710
AAXX 10181 76373 32580 80000 10107 20024 38248 40203 52015 88800 91750 333 10113 20030 30/// 56900 58024 86620 82725
AAXX 10181 76382 32980 83402 10174 20111 38965 40223 52005 8802/ 91755 333 20114 30/// 56005 58040 88456
AAXX 10181 76390 31410 83604 10064 20064 38288 40265 57008 74044 887// 91730 333 10080 20045 30/// 568// 58031 88714
AAXX 10181 76423 32580 70000 10173 20035 38178 40179 57004 85430 91750 333 20074 30/// 56990 58000 85610 82358
AAXX 10181 76458 32970 13005 10216 20143 30168 40173 51002 80006 91740 333 10232 20125 30/// 56//9 59005 81072
AAXX 10181 76471 32980 31802 10196 20034 37714 40149 57003 80001 91750 333 10200 20053 30/// 56001 59010 83075
AAXX 10181 76491 01460 83605 10164 20162 39874 40269 52006 60141 75155 886// 91745 333 10168 20080 32/// 569// 58038 60037 88717
AAXX 10181 76499 01430 80702 10193 20185 30213 40235 52013 60111 75055 886// 91750 333 10195 20188 32/// 561// 58036 60047 88714
AAXX 10181 76519 32960 40000 10202 20021 38388 40233 57001 80002 91745 333 10205 20033 30/// 56006 58001 84070
AAXX 10181 76525 32970 40804 10115 20042 37500 40171 52006 80008 91740 333 10117 20094 30/// 56//5 58003 84280
AAXX 10181 76539 31567 60902 10168 20066 38199 40227 52006 70544 86400 91750 333 10272 20080 30/// 56200 59021 86624
AAXX 10181 76543 32675 81701 10228 20170 30222 40255 58001 8255/ 91730 333 10229 20185 30/// 5633/ 58040 82650 86358
AAXX 10181 76548 01372 80502 10212 20194 30233 40243 50003 69901 75052 884/// 91740 333 10214 20190 31/// 56800 58029 69907 88606
AAXX 10181 76556 32970 23602 10250 20133 39145 40178 52004 80002 91730 333 10254 20122 30/// 56001 59004 82070
AAXX 10181 76571 31865 43601 20062 38198 40222 57004 705// 80004 91755 333 20060 30/// 56005 58012
AAXX 10181 76577 32970 02304 10178 20136 38072 40193 50002 91740 333 20099 30/// 58007
AAXX 10181 76581 32970 70501 10196 20133 39093 40206 57005 87060 91750 333 10206 20133 30/// 56020 58022 87360
AAXX 10181 76593 32370 50507 10250 20231 30199 40201 58012 83240 91750 333 10264 20217 30/// 5611/ 58001 83820 82330 91011 91505
AAXX 10181 76612 32962 00901 10214 20109 38503 40202 50000 91750 333 10276 20076 30/// 58005
AAXX 10181 76625 32950 00507 20063 38168 40175 56010 91740 333 20096 30/// 58009
AAXX 10181 76634 31570 22801 10164 20073 37882 40241 57008 70511 81201 91750 333 10165 20034 30/// 561/7 58016 81820
AAXX 10181 76644 01460 60203 10237 20201 30186 40199 57013 69911 75052 8487/ 91750 333 10260 20126 31/// 5611/ 58010 69917 82810 85610
AAXX 10181 76654 31956 02002 10298 20224 30156 40160 58005 70544 91750 333 10298 20210 30/// 58000
AAXX 10181 76656 32975 00000 10230 20097 38530 40193 58003 91750 333 10237 20067 30/// 59002
AAXX 10181 76658 31558 12302 10295 20130 39650 40157 57006 70540 81100 91750 333 10300 20179 30/// 59001 81822 94022 98904
AAXX 10181 76662 31970 00601 10224 20096 38487 40188 57007 70542 91750 333 10230 20060 30/// 58010
AAXX 10181 76665 32962 02101 10208 20087 38138 40105 57004 91755 333 10218 20065 30/// 58010
AAXX 10181 76675 31570 30702 21003 37391 40202 56006 70544 81204 91747 333 10194 21005 30/// 569/9 59001 81826 98470
AAXX 10181 76681 31950 00901 10191 20073 37802 40198 58009 70540 91745 333 10191 20030 30/// 58009
AAXX 10181 76683 32970 11601 10203 20028 37839 40212 56014 80005 91745 333 10215 20036 30/// 56005 59001 81080
AAXX 10181 76685 31950 03601 10190 20000 37885 40166 57006 70544 91740 333 10192 20066 30/// 58002
AAXX 10181 76687 01558 80901 10150 20138 38732 40238 50000 69921 75122 885// 91737 333 10160 20116 31/// 563// 58023 69927 85620 83718
AAXX 10181 76692 01556 83604 10216 20204 30206 40226 50000 60051 79162 8522/ 91745 333 10229 20202 32/// 5688/ 58026 60027 81820 84630 83458
AAXX 10181 76698 32560 13601 10259 20187 30178 40190 57016 81200 91755 333 10274 20166 30/// 56800 58010 81820
AAXX 10181 76737 01480 81402 10174 20139 38822 40215 58002 69901 70552 8577/ 91735 333 10179 20140 30/// 5622/ 58021 69907 85717 83358 91105 91514
AAXX 10181 76743 31558 21102 10255 20204 30201 40209 58007 70200 82200 91745 333 10256 20205 30/// 562// 58024 82821
AAXX 10181 76750 32560 13403 10274 20176 30179 40190 57014 81100 91750 333 10277 20178 30/// 56100 58012 81820
AAXX 10181 76762 32904 03601 10270 20220 38770 40154 58011 91735 333 10272 20121 30/// 59004
AAXX 10181 76773 31968 10901 10228 20070 38447 40202 57005 7050/ 80001 91745 333 10234 20050 30/// 56009 58013
AAXX 10181 76775 31568 12601 10229 20060 38584 40208 57017 70300 81200 91745 333 10234 20092 30/// 56800 59010 81827
AAXX 10181 76805 32570 11701 10307 20242 30144 40148 53004 81200 91745 333 10316 20220 30/// 563// 58010 81824
AAXX 10181 76833 32960 03612 10280 20153 30147 40149 57005 91745 333 10280 20236 30/// 58012 92002
AAXX 10181 76840 32150 10310 10280 20171 30085 40140 57014 81200 91740 333 10287 20205 30/// 568// 58008 81827
AAXX 10181 76843 32565 60804 10230 20150 39530 40178 55007 84630 91745 333 10244 20164 30/// 568// 58019 84824
AAXX 10181 76848 32670 20502 10210 20111 38400 40124 56012 82200 91750 333 20215 20121 30/// 56100 58004 82841 98908
AAXX 10181 76903 31680 12101 10330 20251 39994 40124 57018 70300 81100 91745 333 10332 20217 30/// 56100 58005 81833
AAXX 10181 76160 32962 00401 20028 39931 40182 54000 91730 333 20110 30/// 59017
AAXX 10181 76243 11372 83608 10074 20058 30035 40340 52022 60031 75165 884// 91730 333 10130 20060 31/// 568// 58093 88609
AAXX 10181 76311 32580 40000 10195 20132 39898 40180 51004 84200 91745 333 10200 20132 30/// 56600 58000 84820
AAXX 10181 76405 32980 73603 10220 20136 30163 40185 54000 87010 91750 333 10222 20180 30/// 56050 59013 87456
AAXX 10181 76412 31966 02201 10218 20119 30134 40179 52001 70544 91750 333 10218 20118 30/// 59006
AAXX 10181 76640 31358 83202 10216 20194 30239 40251 52001 70544 8313/ 91740 333 10232 20170 30/// 5672/ 58027 83809 85340
AAXX 10181 76647 32770 10503 10284 20159 30171 40201 55009 81100 91750 333 10285 20144 30/// 56100 58005 81850
AAXX 10181 76741 31465 60503 10246 20204 30174 40193 58006 70542 84230 91735 333 10253 20145 30/// 561// 58023 84818
AAXX 10181 76855 32580 11301 10306 20235 30085 40134 51007 81200 91730 333 10315 20206 30/// 56900 58010 81820 92000
AAXX 10184 48601 11560 70000 10261 20225 30091 40095 60001 70522 81542 333 81625 83364 87077
AAXX 10184 48615 11560 71005 10269 20235 30099 40105 60021 70562 82578 333 82620 87364
AAXX 10184 48620 11258 70902 10239 20235 30086 40095 60041 71096 84648 333 82706 84365 87276
AAXX 10184 48647 11559 73502 10260 20242 30074 40099 6///1 70522 82551 333 82626 86364
AAXX 10184 48657 11120 80110 10237 20233 30082 40100 61821 79596 84927 333 82703 81917 84622 88276
AAXX 10184 48665 12564 70507 10252 20232 30095 40105 60001 82542 333 82630 84364 86077
AAXX 10184 96413 12565 71903 10242 20235 30072 40099 6///1 82541 333 82620 83365 86080
AAXX 10184 96421 12465 71502 10245 20238 30060 40096 60001 83531 333 83618 85365
AAXX 10184 96441 12468 71005 10235 20227 30066 40093 60001 83541 333 83616 85365
AAXX 10184 96449 12465 72106 10250 20241 30068 40087 60001 83531 333 83614 85365
AAXX 10184 96465 12470 72006 10272 20246 30048 40081 60001 82842 333 82812 87079
AAXX 10184 96471 11468 71909 10275 20237 30074 40077 60001 70522 82848 333 81814 83364 87277
AAXX 10184 96481 12462 73302 10250 20234 30059 40078 60001 82841 333 82817 86080
AAXX 10184 96491 12465 72203 10264 20249 30061 40073 60001 82842 333 82816 87078
BBXX 46218 10181 99345 71208 46/// ///// 1//// 91802 22200 00133 11703 20902 330// 41702 70016
AAXX 10181 76040 32960 03202 10169 20024 30198 40212 52008 91745 33310203 20050 30/// 59022 98660
AAXX 10181 76061 32981 00502 10140 20033 30135 40211 52008 91730 33310142 20090 30/// 59020
AAXX 10181 76113 32980 02701 10158 21009 39698 40172 57001 91745 33310165 20040 30/// 59018
AAXX 10181 76122 32970 41102 10094 20055 38593 40270 57001 82420 91749333 10146 21022 30/// 59017
AAXX 10181 76225 32760 80201 10100 21019 38690 40245 50002 88070 91745333 20050 30/// 56050 58030 85350 88270
AAXX 10181 76256 32980 03002 10199 20071 30176 40190 52002 91745 33310209 20125 30/// 59014
AAXX 10181 76258 32970 30703 10215 20073 30132 40178 57004 80001 91750333 10224 20104 30/// 59011
AAXX 10181 76305 32970 30602 10218 20085 30180 40188 51002 80004 91740333 10221 20142 30/// 56005 59009 83070
AAXX 10181 76323 32970 73601 10098 21003 38322 40302 57008 8702/ 91755333 10102 20037 30/// 5605/ 58025 87458
AAXX 10181 76342 01460 80702 10078 20071 39616 40351 52006 69921 75255887// 91755 333 10090 20074 31/// 561// 58077 69907 88710
AAXX 10181 76373 32580 80000 10107 20024 38248 40203 52015 88800 91750333 10113 20030 30/// 56900 58024 86620 82725
AAXX 10181 76382 32980 83402 10174 20111 38965 40223 52005 8802/ 91755333 20114 30/// 56005 58040 88456
AAXX 10181 76390 31410 83604 10064 20064 38288 40265 57008 74044 887//91730 333 10080 20045 30/// 568// 58031 88714
AAXX 10181 76423 32580 70000 10173 20035 38178 40179 57004 85430 91750333 20074 30/// 56990 58000 85610 82358
AAXX 10181 76458 32970 13005 10216 20143 30168 40173 51002 80006 91740333 10232 20125 30/// 56//9 59005 81072
AAXX 10181 76471 32980 31802 10196 20034 37714 40149 57003 80001 91750333 10200 20053 30/// 56001 59010 83075
AAXX 10181 76491 01460 83605 10164 20162 39874 40269 52006 60141 75155886// 91745 333 10168 20080 32/// 569// 58038 60037 88717
AAXX 10181 76499 01430 80702 10193 20185 30213 40235 52013 60111 75055886// 91750 333 10195 20188 32/// 561// 58036 60047 88714
AAXX 10181 76519 32960 40000 10202 20021 38388 40233 57001 80002 91745333 10205 20033 30/// 56006 58001 84070
AAXX 10181 76525 32970 40804 10115 20042 37500 40171 52006 80008 91740333 10117 20094 30/// 56//5 58003 84280
AAXX 10181 76539 31567 60902 10168 20066 38199 40227 52006 70544 8640091750 333 10272 20080 30/// 56200 59021 86624
AAXX 10181 76543 32675 81701 10228 20170 30222 40255 58001 8255/ 91730333 10229 20185 30/// 5633/ 58040 82650 86358
AAXX 10181 76548 01372 80502 10212 20194 30233 40243 50003 69901 75052884/// 91740 333 10214 20190 31/// 56800 58029 69907 88606
AAXX 10181 76556 32970 23602 10250 20133 39145 40178 52004 80002 91730333 10254 20122 30/// 56001 59004 82070
AAXX 10181 76571 31865 43601 20062 38198 40222 57004 705// 80004 91755333 20060 30/// 56005 58012
AAXX 10181 76577 32970 02304 10178 20136 38072 40193 50002 91740 33320099 30/// 58007
AAXX 10181 76581 32970 70501 10196 20133 39093 40206 57005 87060 91750333 10206 20133 30/// 56020 58022 87360
AAXX 10181 76593 32370 50507 10250 20231 30199 40201 58012 83240 91750333 10264 20217 30/// 5611/ 58001 83820 82330 91011 91505
AAXX 10181 76612 32962 00901 10214 20109 38503 40202 50000 91750 33310276 20076 30/// 58005
AAXX 10181 76625 32950 00507 20063 38168 40175 56010 91740 333 2009630/// 58009
AAXX 10181 76634 31570 22801 10164 20073 37882 40241 57008 70511 8120191750 333 10165 20034 30/// 561/7 58016 81820
AAXX 10181 76644 01460 60203 10237 20201 30186 40199 57013 69911 750528487/ 91750 333 10260 20126 31/// 5611/ 58010 69917 8281085610
AAXX 10181 76654 31956 02002 10298 20224 30156 40160 58005 70544 91750333 10298 20210 30/// 58000
AAXX 10181 76656 32975 00000 10230 20097 38530 40193 58003 91750 33310237 20067 30/// 59002
AAXX 10181 76658 31558 12302 10295 20130 39650 40157 57006 70540 8110091750 333 10300 20179 30/// 59001 81822 94022 98904
AAXX 10181 76662 31970 00601 10224 20096 38487 40188 57007 70542 91750333 10230 20060 30/// 58010
AAXX 10181 76665 32962 02101 10208 20087 38138 40105 57004 91755 33310218 20065 30/// 58010
AAXX 10181 76675 31570 30702 21003 37391 40202 56006 70544 81204 91747333 10194 21005 30/// 569/9 59001 81826 98470
AAXX 10181 76681 31950 00901 10191 20073 37802 40198 58009 70540 91745333 10191 20030 30/// 58009
AAXX 10181 76683 32970 11601 10203 20028 37839 40212 56014 80005 91745333 10215 20036 30/// 56005 59001 81080
AAXX 10181 76685 31950 03601 10190 20000 37885 40166 57006 70544 91740333 10192 20066 30/// 58002
AAXX 10181 76687 01558 80901 10150 20138 38732 40238 50000 69921 75122885// 91737 333 10160 20116 31/// 563// 58023 69927 8562083718
AAXX 10181 76692 01556 83604 10216 20204 30206 40226 50000 60051 791628522/ 91745 333 10229 20202 32/// 5688/ 58026 60027 8182084630 83458
AAXX 10181 76698 32560 13601 10259 20187 30178 40190 57016 81200 91755333 10274 20166 30/// 56800 58010 81820
AAXX 10181 76737 01480 81402 10174 20139 38822 40215 58002 69901 705528577/ 91735 333 10179 20140 30/// 5622/ 58021 69907 8571783358 91105 91514
AAXX 10181 76743 31558 21102 10255 20204 30201 40209 58007 70200 8220091745 333 10256 20205 30/// 562// 58024 82821
AAXX 10181 76750 32560 13403 10274 20176 30179 40190 57014 81100 91750333 10277 20178 30/// 56100 58012 81820
AAXX 10181 76762 32904 03601 10270 20220 38770 40154 58011 91735 33310272 20121 30/// 59004
AAXX 10181 76773 31968 10901 10228 20070 38447 40202 57005 7050/ 8000191745 333 10234 20050 30/// 56009 58013
AAXX 10181 76775 31568 12601 10229 20060 38584 40208 57017 70300 8120091745 333 10234 20092 30/// 56800 59010 81827
AAXX 10181 76805 32570 11701 10307 20242 30144 40148 53004 81200 91745333 10316 20220 30/// 563// 58010 81824
AAXX 10181 76833 32960 03612 10280 20153 30147 40149 57005 91745 33310280 20236 30/// 58012 92002
AAXX 10181 76840 32150 10310 10280 20171 30085 40140 57014 81200 91740333 10287 20205 30/// 568// 58008 81827
AAXX 10181 76843 32565 60804 10230 20150 39530 40178 55007 84630 91745333 10244 20164 30/// 568// 58019 84824
AAXX 10181 76848 32670 20502 10210 20111 38400 40124 56012 82200 91750333 20215 20121 30/// 56100 58004 82841 98908
AAXX 10181 76903 31680 12101 10330 20251 39994 40124 57018 70300 8110091745 333 10332 20217 30/// 56100 58005 81833
AAXX 10181 76160 32962 00401 20028 39931 40182 54000 91730 333 2011030/// 59017
AAXX 10181 76243 11372 83608 10074 20058 30035 40340 52022 60031 75165884// 91730 333 10130 20060 31/// 568// 58093 88609
AAXX 10181 76311 32580 40000 10195 20132 39898 40180 51004 84200 91745333 10200 20132 30/// 56600 58000 84820
AAXX 10181 76405 32980 73603 10220 20136 30163 40185 54000 87010 91750333 10222 20180 30/// 56050 59013 87456
AAXX 10181 76412 31966 02201 10218 20119 30134 40179 52001 70544 91750333 10218 20118 30/// 59006
AAXX 10181 76640 31358 83202 10216 20194 30239 40251 52001 70544 8313/91740 333 10232 20170 30/// 5672/ 58027 83809 85340
AAXX 10181 76647 32770 10503 10284 20159 30171 40201 55009 81100 91750333 10285 20144 30/// 56100 58005 81850
AAXX 10181 76741 31465 60503 10246 20204 30174 40193 58006 70542 8423091735 333 10253 20145 30/// 561// 58023 84818
AAXX 10181 76855 32580 11301 10306 20235 30085 40134 51007 81200 91730333 10315 20206 30/// 56900 58010 81820 92000
AAXX 10181 76040 32960 03202 10169 20024 30198 40212 52008 91745 333 10203 20050 30/// 59022 98660
AAXX 10181 76061 32981 00502 10140 20033 30135 40211 52008 91730 333 10142 20090 30/// 59020
AAXX 10181 76113 32980 02701 10158 21009 39698 40172 57001 91745 333 10165 20040 30/// 59018
AAXX 10181 76122 32970 41102 10094 20055 38593 40270 57001 82420 91749 333 10146 21022 30/// 59017
AAXX 10181 76225 32760 80201 10100 21019 38690 40245 50002 88070 91745 333 20050 30/// 56050 58030 85350 88270
AAXX 10181 76256 32980 03002 10199 20071 30176 40190 52002 91745 333 10209 20125 30/// 59014
AAXX 10181 76258 32970 30703 10215 20073 30132 40178 57004 80001 91750 333 10224 20104 30/// 59011
AAXX 10181 76305 32970 30602 10218 20085 30180 40188 51002 80004 91740 333 10221 20142 30/// 56005 59009 83070
AAXX 10181 76323 32970 73601 10098 21003 38322 40302 57008 8702/ 91755 333 10102 20037 30/// 5605/ 58025 87458
AAXX 10181 76342 01460 80702 10078 20071 39616 40351 52006 69921 75255 887// 91755 333 10090 20074 31/// 561// 58077 69907 88710
AAXX 10181 76373 32580 80000 10107 20024 38248 40203 52015 88800 91750 333 10113 20030 30/// 56900 58024 86620 82725
AAXX 10181 76382 32980 83402 10174 20111 38965 40223 52005 8802/ 91755 333 20114 30/// 56005 58040 88456
AAXX 10181 76390 31410 83604 10064 20064 38288 40265 57008 74044 887// 91730 333 10080 20045 30/// 568// 58031 88714
AAXX 10181 76423 32580 70000 10173 20035 38178 40179 57004 85430 91750 333 20074 30/// 56990 58000 85610 82358
AAXX 10181 76458 32970 13005 10216 20143 30168 40173 51002 80006 91740 333 10232 20125 30/// 56//9 59005 81072
AAXX 10181 76471 32980 31802 10196 20034 37714 40149 57003 80001 91750 333 10200 20053 30/// 56001 59010 83075
AAXX 10181 76491 01460 83605 10164 20162 39874 40269 52006 60141 75155 886// 91745 333 10168 20080 32/// 569// 58038 60037 88717
AAXX 10181 76499 01430 80702 10193 20185 30213 40235 52013 60111 75055 886// 91750 333 10195 20188 32/// 561// 58036 60047 88714
AAXX 10181 76519 32960 40000 10202 20021 38388 40233 57001 80002 91745 333 10205 20033 30/// 56006 58001 84070
AAXX 10181 76525 32970 40804 10115 20042 37500 40171 52006 80008 91740 333 10117 20094 30/// 56//5 58003 84280
AAXX 10181 76539 31567 60902 10168 20066 38199 40227 52006 70544 86400 91750 333 10272 20080 30/// 56200 59021 86624
AAXX 10181 76543 32675 81701 10228 20170 30222 40255 58001 8255/ 91730 333 10229 20185 30/// 5633/ 58040 82650 86358
AAXX 10181 76548 01372 80502 10212 20194 30233 40243 50003 69901 75052 884/// 91740 333 10214 20190 31/// 56800 58029 69907 88606
AAXX 10181 76556 32970 23602 10250 20133 39145 40178 52004 80002 91730 333 10254 20122 30/// 56001 59004 82070
AAXX 10181 76571 31865 43601 20062 38198 40222 57004 705// 80004 91755 333 20060 30/// 56005 58012
AAXX 10181 76577 32970 02304 10178 20136 38072 40193 50002 91740 333 20099 30/// 58007
AAXX 10181 76581 32970 70501 10196 20133 39093 40206 57005 87060 91750 333 10206 20133 30/// 56020 58022 87360
AAXX 10181 76593 32370 50507 10250 20231 30199 40201 58012 83240 91750 333 10264 20217 30/// 5611/ 58001 83820 82330 91011 91505
AAXX 10181 76612 32962 00901 10214 20109 38503 40202 50000 91750 333 10276 20076 30/// 58005
AAXX 10181 76625 32950 00507 20063 38168 40175 56010 91740 333 20096 30/// 58009
AAXX 10181 76634 31570 22801 10164 20073 37882 40241 57008 70511 81201 91750 333 10165 20034 30/// 561/7 58016 81820
AAXX 10181 76644 01460 60203 10237 20201 30186 40199 57013 69911 75052 8487/ 91750 333 10260 20126 31/// 5611/ 58010 69917 82810 85610
AAXX 10181 76654 31956 02002 10298 20224 30156 40160 58005 70544 91750 333 10298 20210 30/// 58000
AAXX 10181 76656 32975 00000 10230 20097 38530 40193 58003 91750 333 10237 20067 30/// 59002
AAXX 10181 76658 31558 12302 10295 20130 39650 40157 57006 70540 81100 91750 333 10300 20179 30/// 59001 81822 94022 98904
AAXX 10181 76662 31970 00601 10224 20096 38487 40188 57007 70542 91750 333 10230 20060 30/// 58010
AAXX 10181 76665 32962 02101 10208 20087 38138 40105 57004 91755 333 10218 20065 30/// 58010
AAXX 10181 76675 31570 30702 21003 37391 40202 56006 70544 81204 91747 333 10194 21005 30/// 569/9 59001 81826 98470
AAXX 10181 76681 31950 00901 10191 20073 37802 40198 58009 70540 91745 333 10191 20030 30/// 58009
AAXX 10181 76683 32970 11601 10203 20028 37839 40212 56014 80005 91745 333 10215 20036 30/// 56005 59001 81080
AAXX 10181 76685 31950 03601 10190 20000 37885 40166 57006 70544 91740 333 10192 20066 30/// 58002
AAXX 10181 76687 01558 80901 10150 20138 38732 40238 50000 69921 75122 885// 91737 333 10160 20116 31/// 563// 58023 69927 85620 83718
AAXX 10181 76692 01556 83604 10216 20204 30206 40226 50000 60051 79162 8522/ 91745 333 10229 20202 32/// 5688/ 58026 60027 81820 84630 83458
AAXX 10181 76698 32560 13601 10259 20187 30178 40190 57016 81200 91755 333 10274 20166 30/// 56800 58010 81820
AAXX 10181 76737 01480 81402 10174 20139 38822 40215 58002 69901 70552 8577/ 91735 333 10179 20140 30/// 5622/ 58021 69907 85717 83358 91105 91514
AAXX 10181 76743 31558 21102 10255 20204 30201 40209 58007 70200 82200 91745 333 10256 20205 30/// 562// 58024 82821
AAXX 10181 76750 32560 13403 10274 20176 30179 40190 57014 81100 91750 333 10277 20178 30/// 56100 58012 81820
AAXX 10181 76762 32904 03601 10270 20220 38770 40154 58011 91735 333 10272 20121 30/// 59004
AAXX 10181 76773 31968 10901 10228 20070 38447 40202 57005 7050/ 80001 91745 333 10234 20050 30/// 56009 58013
AAXX 10181 76775 31568 12601 10229 20060 38584 40208 57017 70300 81200 91745 333 10234 20092 30/// 56800 59010 81827
AAXX 10181 76805 32570 11701 10307 20242 30144 40148 53004 81200 91745 333 10316 20220 30/// 563// 58010 81824
AAXX 10181 76833 32960 03612 10280 20153 30147 40149 57005 91745 333 10280 20236 30/// 58012 92002
AAXX 10181 76840 32150 10310 10280 20171 30085 40140 57014 81200 91740 333 10287 20205 30/// 568// 58008 81827
AAXX 10181 76843 32565 60804 10230 20150 39530 40178 55007 84630 91745 333 10244 20164 30/// 568// 58019 84824
AAXX 10181 76848 32670 20502 10210 20111 38400 40124 56012 82200 91750 333 20215 20121 30/// 56100 58004 82841 98908
AAXX 10181 76903 31680 12101 10330 20251 39994 40124 57018 70300 81100 91745 333 10332 20217 30/// 56100 58005 81833
AAXX 10181 76160 32962 00401 20028 39931 40182 54000 91730 333 20110 30/// 59017
AAXX 10181 76243 11372 83608 10074 20058 30035 40340 52022 60031 75165 884// 91730 333 10130 20060 31/// 568// 58093 88609
AAXX 10181 76311 32580 40000 10195 20132 39898 40180 51004 84200 91745 333 10200 20132 30/// 56600 58000 84820
AAXX 10181 76405 32980 73603 10220 20136 30163 40185 54000 87010 91750 333 10222 20180 30/// 56050 59013 87456
AAXX 10181 76412 31966 02201 10218 20119 30134 40179 52001 70544 91750 333 10218 20118 30/// 59006
AAXX 10181 76640 31358 83202 10216 20194 30239 40251 52001 70544 8313/ 91740 333 10232 20170 30/// 5672/ 58027 83809 85340
AAXX 10181 76647 32770 10503 10284 20159 30171 40201 55009 81100 91750 333 10285 20144 30/// 56100 58005 81850
AAXX 10181 76741 31465 60503 10246 20204 30174 40193 58006 70542 84230 91735 333 10253 20145 30/// 561// 58023 84818
AAXX 10181 76855 32580 11301 10306 20235 30085 40134 51007 81200 91730 333 10315 20206 30/// 56900 58010 81820 92000
AAXX 10181 11487 01680 42503 10002 21016 39537 40175 52013 69932 70181 81541 333 10033 60005 81646 83073
BBXX 44099 10181 99369 70757 46/// ///// 1//// 91752 22200 00134 10603 20603 70015
BBXX 44039 10181 99411 70727 46/// /3306 10061 21021 91745 22200 00110 10301 70005 333 91208
BBXX 44100 10181 99363 70756 46/// ///// 1//// 91752 22200 00143 10705 20705 70023
BBXX 41110 10181 99341 70777 46/// ///// 1//// 91751 22200 00152 11102 20402 70009
BBXX 42099 10181 99273 70842 46/// ///// 1//// 91757 22200 00239 10603 20603 70014
BBXX 41113 10181 99284 70805 46/// ///// 1//// 91751 22200 00222 10602 20602 70009
BBXX 41112 10181 99307 70813 46/// ///// 1//// 91751 22200 00166 10503 20503 70014
BBXX VOLG 10184 99/// ///// 46/// /2209 10091 20074 40166 56039 7//// 8//// 22200 0//// 2////
BBXX 46219 10181 99332 71199 46/// ///// 1//// 91758 22200 00135 11804 20902 330// 41803 70020
BBXX 46224 10181 99332 71175 46/// ///// 1//// 91736 22200 00152 11801 21001 322// 41801 70006
BBXX 46214 10181 99379 71235 46/// ///// 1//// 91757 22200 00113 11704 20802 330// 41704 70021
AAXX 10184 78397 111578 41807 10303 20211 30100 40116 60001 70500 82942 333 06999 10326 20232 59009 81822 81924 83072
AAXX 10184 16008 12865 60000 10020 21006 38512 48472 53012 60002 86030 333 10062 43008 86358 92842
AAXX 10184 16084 11630 72502 10068 20051 30004 40173 53007 60002 71022 85530 333 10098 85640 83356
AAXX 10184 16088 11630 60000 10065 20065 30056 40176 53005 60002 71022 83530 333 10090 83644 83356
AAXX 10184 16110 11496 80701 10100 20095 30164 40168 53007 69922 76065 886// 333 10122 88715 555 0////
AAXX 10184 16134 11/08 92241 10002 21011 37802 48482 53008 60002 74344 333 10006 89/03 95090 95190
AAXX 10184 16153 12898 30204 10102 20060 39908 40174 51008 60002 83030 333 10140 83357 555 0////
AAXX 10184 16158 11560 71403 10130 20121 30168 40175 52006 60132 70262 87800 333 10168 82825 85650
AAXX 10184 16206 12570 51407 10116 20104 30170 40179 51004 60002 82201 333 10166 82825
AAXX 10184 16219 41/00 92714 10020 20011 38135 48520 53005 6///2 74544 333 10022 89/00 95090 95190
AAXX 10184 16252 12465 80000 10112 20090 39255 42811 58001 60002 8457/ 333 10124 55300 84613 84356
AAXX 10184 16280 12597 51610 10152 20144 39966 40186 57002 60002 83230 333 10164 83820 555 0////
AAXX 10184 16310 NIL
AAXX 10184 16320 12760 62011 10140 20110 30193 40206 58004 60002 86030 333 10182 86356 555 0////
AAXX 10184 16325 12597 82107 10160 20131 30179 40193 56001 60002 8551/ 333 10168 85625 83458 98062 555 0////
AAXX 10184 16360 12997 22108 10150 20130 30082 40217 54000 60002 82031 333 10170 82359 555 0////
AAXX 10184 16400 12498 31917 10162 20133 39920 40207 53007 60002 81130 333 10186 55300 81817 83359 555 0654/
AAXX 10184 16420 12897 82604 10170 20115 30147 40211 53004 60002 83037 333 10180 83358 555 0////
AAXX 10184 16429 12562 71504 10128 20115 30199 40210 51008 60002 83231 333 10182 83622
AAXX 10184 16470 12960 33600 10140 20115 39977 40213 51007 60002 83005 333 10168 40997 55300 22/// 95000
AAXX 10184 16480 12497 62406 10174 20145 30161 40222 51003 60002 81231 333 10198 81810 83358 555 0////
AAXX 10184 16522 12498 40000 10160 20140 39940 40181 54000 60002 82230 333 10164 55300 82815 84358 555 0////
AAXX 10184 16539 NIL
AAXX 10184 16550 12898 62407 10136 20111 39995 40175 53004 60002 86070 333 10164 83358 83459 555 0////
BBXX 51204 10181 99213 71581 46/// ///// 1//// 91752 22200 00248 11403 20602 331// 41402 70015
BBXX 51202 10181 99214 71577 46/// ///// 1//// 91739 22200 00240 10805 20805 335// 41402 70027
AAXX 10184 78397 111578 41807 10303 20211 30100 40116 60001 70500 82942 333 06999 10326 20232 59009 81822 81924 83072
BBXX CGCC 10184 99462 70728 46/// /2513 11031 21101 40244 58008 7//// 8//// 22211 00061 2////
AAXX 10184 60150 32556 12602 10137 20090 39568 40222 51003 80002 333 10169 81070
AAXX 10184 60155 32460 432// 10164 20124 40215 56002 84800 333 10194 82816 82626
AAXX 10184 60252 32960 41907 10173 20095 40204 52002 80002 333 10233 84070 95800
AAXX 10184 60096 NIL
AAXX 10184 60101 NIL
AAXX 10184 60115 NIL
AAXX 10184 60135 NIL
AAXX 10184 60156 NIL
AAXX 10184 60230 NIL
AAXX 10184 60060 32956 50408 10172 20129 40218 53004 80002 333 10199 85070 95300
AAXX 10184 60105 32456 43006 10148 20124 40222 56004 82231 333 10179 82816
AAXX 10184 60107 32560 21002 10124 20093 40206 50001 81230 333 10184 81816 95300
AAXX 10184 60127 32960 02706 10140 20092 39622 40217 52008 333 10185
AAXX 10184 60185 32470 13602 10167 20130 40230 53003 81500 333 10187 81616
AAXX 10184 60190 32965 12203 10157 20079 40206 54000 80002 333 10204 81071
AAXX 10184 60191 32970 03202 10160 20068 40210 55002 333 10215
AAXX 10184 60195 32565 22406 10114 21009 38543 48558 53008 81230 333 10160 81830 95500
AAXX 10184 60210 32570 62606 10152 21006 39027 48551 53002 81102 333 10173 81823 86070
AAXX 10184 60265 32670 62903 10154 21045 38923 48550 53001 82202 333 10187 82840 85070
AAXX 10184 60106 NIL
AAXX 10184 60141 NIL
AAXX 10184 60220 NIL
AAXX 10184 60318 NIL
AAXX 10184 48300 01558 80000 10234 20214 39818 40131 52004 69923 76062 85876 333 58009 69926 70002
AAXX 10184 48327 32560 60000 10235 20196 39802 40160 52002 86535 333 58023 79999
AAXX 10184 48331 NIL
AAXX 10184 48353 32660 51303 10181 20104 39887 40185 52004 82531 333 58024
AAXX 10184 48356 32960 00000 10148 20100 39995 40200 56008 333 58021
AAXX 10184 48375 32960 00000 10218 20186 39896 40124 52001 333 58007
AAXX 10184 48378 31556 20000 10232 20212 30101 40154 57004 71022 81505 333 58024
AAXX 10184 48381 32960 00510 10166 20108 39963 40188 51002 333 58024
AAXX 10184 48407 32960 20411 10166 20114 30020 40166 57003 80001 333 58018
AAXX 10184 48431 32960 10706 10182 20108 39957 40177 52006 80001 333 58020
AAXX 10184 48456 NIL
AAXX 10184 48480 31958 20310 10231 20156 30120 40125 57001 70500 80005 333 58011
AAXX 10184 48500 31956 30207 10246 20172 30120 40126 57006 70511 80005 333 58014
AAXX 10184 48551 31550 60303 10255 20225 30105 40113 57006 71022 83256 333 58007 70100
AAXX 10184 48565 32560 50804 10273 20247 30072 40082 57016 82245 333 59013
AAXX 10184 48569 01558 80000 10243 20220 30071 40111 57003 60223 76162 83876 333 58004 60217 70216
AAXX 10184 48583 NIL
AAXX 10184 48310 NIL
AAXX 10184 48325 32660 30000 10221 20189 39890 40136 57004 82545 333 58013
AAXX 10184 48329 31556 40000 10228 20192 39807 40149 52005 71011 83806 333 58010
AAXX 10184 48352 NIL
AAXX 10184 48357 32960 20902 10152 20082 30026 40202 57007 80001 333 58025
AAXX 10184 48380 32560 80000 10226 20195 30061 40157 52003 885// 333 58021
AAXX 10184 48383 NIL
AAXX 10184 48403 32960 00406 10180 20128 39963 40180 52005 333 58023
AAXX 10184 48405 NIL
AAXX 10184 48420 31950 20607 10235 20161 30134 40139 56002 70500 80005 333 58017
AAXX 10184 48421 31956 00000 10197 20177 30036 40153 52004 71000 333 58024
AAXX 10184 48425 31956 00705 10235 20163 30142 40153 52003 71000 333 58022
AAXX 10184 48426 31957 20310 10229 20136 30141 40155 52010 70500 80005 333 58022
AAXX 10184 48429 32960 20708 10236 20158 30132 40140 52002 80005 333 58015
AAXX 10184 48430 31958 20813 10228 20131 30139 40146 52004 70500 80005 333 58018
AAXX 10184 48450 NIL
AAXX 10184 48459 32962 30407 10235 20168 30136 40139 52002 80005 333 58019
AAXX 10184 48465 31558 63404 10231 20182 30134 40139 57002 71010 83506 333 58021
AAXX 10184 48550 NIL
AAXX 10184 48552 11460 60000 10232 20214 30104 40111 57007 60233 70362 82806 333 58001 70307
AAXX 10184 48566 NIL
AAXX 10184 48568 32460 80507 10280 20238 30095 40102 57007 83977 333 58001 70019
AAXX 10184 61968 16/// /0000 10254 20223 40115 60002 333 10323 58015 90710 91103 555 60005
AAXX 10184 61970 16/// ///// 10266 20244 40110 60002 333 10318 58009 555 60005
AAXX 10184 61972 16/// /1903 10262 20208 40115 60002 333 10308 58006 90710 91105 555 60005
AAXX 10184 61980 12560 51315 10251 20206 40132 60002 84830 333 10306 58010 82823 84656 90710 91123 924/7 555 60005
AAXX 10184 67005 14/// /3302 10264 20241 40116 69902 700// 333 10308 58026 90710 91104 555 60005
AAXX 10184 48302 NIL
AAXX 10184 48304 NIL
AAXX 10184 48334 31589 80000 10206 20183 39785 40153 52001 71022 85576 333 58011
AAXX 10184 48360 32961 00817 10162 20063 39912 40182 57002 333 58021
AAXX 10184 48372 NIL
AAXX 10184 48373 NIL
AAXX 10184 48386 NIL
AAXX 10184 48387 NIL
AAXX 10184 48408 32960 23604 10165 20119 30014 40169 56003 80001 333 58018
AAXX 10184 48415 31958 10610 10220 20153 30144 40155 52009 71000 80004 333 58021
AAXX 10184 48433 31956 00106 10165 20119 30006 40178 52002 71000 333 58025
AAXX 10184 48437 32960 10407 10160 20107 39961 40179 52000 80001 333 58018
AAXX 10184 48440 31957 00306 10209 20142 30098 40148 52006 71000 333 58021
AAXX 10184 48451 32961 13602 10245 20173 30136 40148 53000 80001 333 58023
AAXX 10184 48454 NIL
AAXX 10184 48457 NIL
AAXX 10184 48463 NIL
AAXX 10184 48464 NIL
AAXX 10184 48479 31958 40202 10230 20164 30080 40133 57006 71011 80006 333 58016
AAXX 10184 48520 31556 60000 10238 20214 30104 40120 55001 71022 82546 333 58009 70004
AAXX 10184 48554 31457 70000 10255 20248 30103 40107 57012 71022 83406 333 58001 70166
AAXX 10184 48563 01460 60606 10242 20224 30066 40102 57007 69943 70262 82856 333 58008 69927 70004
AAXX 10184 48571 01558 80000 10245 20233 30094 40105 57004 60143 76062 83876 333 59001 60147 70140
AAXX 10181 01359 11689 22305 11018 21076 39021 49930 53028 69952 70120 82200 333 11008 91112
AAXX 10181 01288 11460 82402 11050 21060 39175 49928 52022 60012 70272 82720 333 11050 91103
AAXX 10181 01317 11582 31402 10016 20001 39945 49960 53029 69962 70121 82831 333 10041 91104
AAXX 10181 01062 11489 70703 11062 21081 30035 40048 53003 60002 70222 875// 333 11059 91104
AAXX 1018/ 89866 46/// ///// 11058 39637 4//// 5////
AAXX 1018/ 89332 46/// ///// 11091 39123 4//// 5////
AAXX 1018/ 89828 46/// ///// 11376 36418 4//// 5////
AAXX 1018/ 89108 46/// ///// 11255 36818 4//// 5////
AAXX 1018/ 89879 46/// ///// 11020 39663 4//// 5////
AAXX 1018/ 89314 46/// ///// 11135 38082 4//// 5////
AAXX 10184 48307 31550 60000 10190 20156 39793 40182 51003 71022 82556 333 58039
AAXX 10184 48324 32560 20000 10198 20178 39918 40142 55001 81105 333 58009
AAXX 10184 48333 31957 80000 10201 20175 39869 40177 52007 71022 8807/ 333 58031
AAXX 10184 48350 32660 61407 10170 20113 39880 40190 52004 83506 333 58032
AAXX 10184 48355 31958 00000 10121 20104 39972 40202 56007 71000 333 58027
AAXX 10184 48358 NIL
AAXX 10184 48384 NIL
AAXX 10184 48401 31956 10808 10230 20159 30049 40158 52004 70500 80005 333 58018
AAXX 10184 48404 32960 20508 10148 20108 30000 40186 56003 80005 333 58026
AAXX 10184 48409 NIL
AAXX 10184 48419 31958 50102 10242 20189 30136 40144 56002 71011 80005 333 58020
AAXX 10184 48427 31956 00402 10233 20180 30131 40139 57000 71000 333 58019
AAXX 10184 48435 32960 10922 10175 20122 39714 40164 51002 80001 333 58017
AAXX 10184 48453 NIL
AAXX 10184 48458 32960 00000 10200 20169 30079 40162 52004 333 58018
AAXX 10184 48474 32960 70000 10204 20173 30004 40131 57010 80006 333 58009
AAXX 10184 48481 32960 13001 10233 20153 30097 40125 57003 80001 333 58014
AAXX 10184 48555 NIL
AAXX 10184 48556 NIL
AAXX 10184 48557 01456 70000 10243 20239 30062 40097 57011 60083 71062 84806 333 59020 60017 70076
AAXX 10184 48560 31558 60000 10260 20243 30092 40096 56011 71020 82256 333 59009 70048
AAXX 10184 48574 11458 60000 10245 20238 30063 40093 57015 60053 71022 84806 333 59013 70047
AAXX 10184 48581 NIL
AAXX 10181 11423 02181 72606 11015 21018 39275 42769 51014 69972 875// 333 11001 44006 60005 83702 87609
AAXX 10183 91082 NIL
AAXX 10183 91809 NIL
AAXX 10183 91831 36/// /2903 ///// ///// 10254 20219 40131 52003
AAXX 10183 91841 36/// /0102 10258 20222 3//// 5//// 555 20056
AAXX 10183 91843 11598 60000 10255 20226 40101 52015 60021 70382 8227/ 333 5649/ 82823 86460
AAXX 10183 91848 36/// /0604 10253 20226 40046 52009 555 20390
BBXX 46238 10181 99334 71195 46/// ///// 1//// 91750 22200 00152 11803 20502 329// 41802 70014
BBXX 46239 10181 99363 71221 46/// ///// 1//// 91751 22200 00135 11804 20901 330// 41804 70020
AAXX 10183 78962 11464 70910 10321 20241 30062 40087 60001 71511 83978 333 06399 10325 20236 59015 81808 82912 87276
BBXX VOXS 10184 99467 70480 41998 82019 10028 2002/ 40303 56025 70322 8801/ 22200 04028 20302 331// 41008 80024
AAXX 10184 48601 11560 70000 10261 20225 30091 40095 60001 70522 81542 333 81625 83364 87077
AAXX 10184 48615 11560 71005 10269 20235 30099 40105 60021 70562 82578 333 82620 87364
AAXX 10184 48620 11258 70902 10239 20235 30086 40095 60041 71096 84648 333 82706 84365 87276
AAXX 10184 48647 11559 73502 10260 20242 30074 40099 6///1 70522 82551 333 82626 86364
AAXX 10184 48650 11460 71401 10265 20236 30079 40098 60001 71392 82972 333 81917 86364
AAXX 10184 48657 11120 80110 10237 20233 30082 40100 61821 79596 84927 333 82703 81917 84622 88276
AAXX 10184 48665 12564 70507 10252 20232 30095 40105 60001 82542 333 82630 84364 86077
AAXX 10184 96413 12565 71903 10242 20235 30072 40099 6///1 82541 333 82620 83365 86080
AAXX 10184 96421 12465 71502 10245 20238 30060 40096 60001 83531 333 83618 85365
AAXX 10184 96441 12468 71005 10235 20227 30066 40093 60001 83541 333 83616 85365
AAXX 10184 96449 12465 72106 10250 20241 30068 40087 60001 83531 333 83614 85365
AAXX 10184 96465 12470 72006 10272 20246 30048 40081 60001 82842 333 82812 87079
AAXX 10184 96471 11468 71909 10275 20237 30074 40077 60001 70522 82848 333 81814 83364 87277
AAXX 10184 96481 12462 73302 10250 20234 30059 40078 60001 82841 333 82817 86080
AAXX 10184 96491 12465 72203 10264 20249 30061 40073 60001 82842 333 82816 87078
BBXX VRZT9 10183 99291 70945 416// 60519 10170 2008/ 40310 51020 7//22 86272 22200 0//// 20804 3//// 40503 5//// 6//// 80120 ICE ////
AAXX 10181 06206 47468 52806 10061 20021 30049 40102 53009 78186 8//// 333 10075 82/14 84/16 85/21 91011 91121 91214
AAXX 10181 06207 47570 82611 10062 20010 30043 40097 52010 72380 8//// 333 10064 83/22 84/26 86/30 91014 91116 91213
AAXX 10181 06239 47683 10111 10061 21007 3//// 4//// 5//// 70180 8//// 333 10065 81/49 91013 91116 91214
AAXX 10181 06252 46/// /2810 10068 20021 30067 40113 53008 222// 0//// 10806 333 10069 91012 91115 91212
AAXX 10181 06260 15977 02203 10033 20001 30140 40142 51009 69922 333 10068 91004 91107 91204
AAXX 10181 06270 15570 52505 10043 20017 30113 40113 53010 60012 8//// 333 10065 82/25 85/41 91006 91113 91209
AAXX 10181 06290 15974 02104 10027 20008 30099 40140 51014 60002 333 10056 91007 91109 91206
AAXX 10184 78958 11478 31408 10304 20251 30085 40095 60001 71500 83800 333 10318 20234 59017 83819
AAXX 10184 91573 06/// /0406 10253 20239 39996 40092 55002 69921 333 59005 60007
AAXX 10184 91579 06/// /0302 10242 20232 30084 40092 56002 60001 333 59009 60007
AAXX 10184 91582 04470 70402 10247 20235 30065 40099 55002 60002 700// 333 10287 20227 60007 90710 91107 555 60005
AAXX 10184 91583 06/// /0000 10245 20231 30084 40099 53005 60001 333 59003 60007
AAXX 10184 91590 04829 /0000 10226 20219 30058 40101 53005 60002 710// 333 10258 20224 60007 90710 91105 555 60005
AAXX 10184 91592 06/// /1703 10242 20223 30016 40101 53003 60001 333 59002 60007
AAXX 10184 91596 06/// /0306 10246 20232 39997 40105 53005 60001 333 59002 60007
AAXX 10184 91577 NIL
AAXX 10184 91587 NIL
AAXX 10183 78962 11464 70910 10321 20241 30062 40087 60001 71511 83978 333 06399 10325 20236 59015 81808 82912 87276
AAXX 10184 91574 46/// ///// 29083 39926 49932 58032
AAXX 10184 91570 NIL
AAXX 10184 91598 NIL
AAXX 10181 06201 47471 82908 10063 20030 30043 40096 52012 78185 8//// 333 10068 81/15 85/20 87/23 91010 91118 91214
AAXX 10181 06203 45566 4//09 10069 20012 30085 40136 53006 8//// 333 10072 83/25 84/28 91012 91113 91210
AAXX 10181 06204 45481 62812 10068 20020 30067 40118 53010 8//// 333 10071 83/19 84/22 85/30 91014 91116 91214
AAXX 10181 06205 466// 63010 10062 21016 30011 40070 53011 8//// 333 10064 81/35 83/39 85/45 91011 91119 91214
AAXX 10181 06208 45563 62710 10075 20023 30054 40103 53010 8//// 333 10075 81/23 85/40 86/46 91012 91114 91212
AAXX 10181 06211 47470 82512 10074 20030 30047 40103 51008 72380 8//// 333 10074 82/17 84/20 85/24 91014 91118 91215
AAXX 10181 06212 45583 42611 1//// 2//// 30060 40123 53009 8//// 333 1//// 82/23 83/27 91013 91114 91212
AAXX 10181 06235 15578 72709 10065 20017 30123 40123 53008 60002 8//// 333 10068 81/24 85/29 87/34 91011 91114 91211
AAXX 10181 06240 15580 22504 10042 20008 30144 40139 52008 69902 8//// 333 10073 82/29 91006 91112 91209
AAXX 10181 06251 15576 62610 10059 20013 30107 40108 52009 69942 8//// 333 10066 81/30 84/39 86/44 91014 91116 91211
AAXX 10181 06258 46/// /2409 333 91011 91114 91212
AAXX 10181 06269 15980 02305 10018 20001 30139 40133 51009 69912 333 10062 91006 91112 91208
AAXX 10181 06280 15680 22306 10027 20006 30111 40115 53011 69942 8//// 333 10063 82/42 91008 91113 91209
AAXX 10181 06310 15583 32707 10064 20004 30146 40156 52007 60002 8//// 333 10069 81/30 83/77 91009 91110 91207
AAXX 10181 06344 15982 02304 10016 21003 30154 40147 51010 69942 333 10071 91004 91111 91207
AAXX 10181 06370 17970 02104 10022 20006 30132 40158 51011 69912 70280 333 10065 91005 91109 91206
AAXX 10181 06380 15677 72204 10019 21011 30029 40172 51011 60002 8//// 333 10055 85/45 87/50 91006 91109 91206
BBXX VOXS 10184 99467 70480 41998 82019 10028 2002/ 40303 56025 70322 8801/ 22200 04028 20302 331// 41008 80024
AAXX 10184 85041 32470 72706 10290 20236 39820 40081 57025 84231 333 56500 59005 84813 86358 87070
AAXX 10184 85140 32470 60000 10310 20235 39886 40094 57024 83101 333 56706 59020 83817 86070
AAXX 10184 85141 32484 70000 10310 20247 39852 40081 57028 82306 333 56700 59021 82817 81920 87070
AAXX 10184 85151 NIL
AAXX 10184 85152 32470 70000 10310 20233 39848 40077 57022 85201 333 56700 59026 85817 85070
AAXX 10184 85201 31465 71210 10150 20028 36276 57017 71522 85933 333 56200 59006 83817 82920 86070 91021
AAXX 10184 85230 NIL
AAXX 10184 85242 32584 60405 10200 20022 36536 57018 84201 333 56206 59004 84820 86070
AAXX 1018/ 89577 46/// ///// 35702 4//// 5////
AAXX 10184 89578 46/// /0802 11357 36780 4//// 5////
AAXX 10184 60285 32958 50412 10178 20139 40202 53001 80002 333 10248 85070
AAXX 10184 60340 32560 20204 10141 20095 40211 53005 81130 333 10176 81820
AAXX 10181 01228 46/// /1201 10024 20005 39925 49932 51017 333 10034 91110
AAXX 10181 01340 16/// /2903 11023 21036 39079 49949 52026 60022 333 11012 91108
AAXX 10181 01425 16/// /3301 10023 20011 39886 49966 53030 60192 333 10046 91109
AAXX 10181 01037 16/// /0901 11025 21053 39980 49985 56006 69992 333 11023 91103
AAXX 10181 01065 11640 80401 11039 21048 39820 49984 57011 60032 78588 888// 333 11038 91103
AAXX 10181 01092 46/// /1904 11016 21040 333 11011 91105
AAXX 10181 01114 16/// /0604 11022 21083 39927 49938 51006 60002 333 10010 91105
AAXX 10181 01245 11570 83001 11031 21047 39226 49934 52019 69932 77072 885// 333 11031 91104
AAXX 10181 01329 11685 62603 10030 20001 39895 49955 53027 60002 70222 83830 333 10039 91106
AAXX 10181 01337 16/// /1101 11002 21013 39889 49956 53027 60002 333 10020 91103
AAXX 10181 01364 16/// /0701 11066 21092 38818 49949 50028 60002 333 11040 4/025 91109
AAXX 10181 01389 11885 71301 11153 21168 39616 49944 51029 60002 70320 87060 333 11113 91103
AAXX 10181 01436 11385 23009 10059 20029 60072 70281 81963 333 10068 91120
AAXX 10181 01156 16/// /0604 10010 21082 39963 49973 53003 60002 333 10013 91108
AAXX 10181 01265 16/// /2801 11097 21110 39350 49948 52023 60002 333 11097 91103
AAXX 10181 01273 16/// /1602 11024 21035 39730 49927 52016 69992 333 11024 91103
AAXX 10181 01375 16/// /3106 11071 21078 6//// 333 11059 91112
AAXX 10181 01469 16/// /0402 11055 21071 39758 49933 53028 60002 333 11028 91104
AAXX 10181 01293 11X40 90000 11023 21030 39715 49924 52018 69992 77172 333 11019 91102
AAXX 10181 01471 11689 43101 11036 21046 60002 70222 83840 333 11015 91104
AAXX 10181 01135 16/// /3502 11023 21058 39781 49934 52006 60002 333 11002 4/003 91107
AAXX 10181 01192 16/// /1503 11027 21082 60002 333 11018 4/006 91110
AAXX 10181 01257 11470 82102 11010 21019 39766 49928 51016 60022 70322 886// 333 11007 91105
AAXX 10181 01370 16/// /3204 11051 21071 38837 40017 52025 60002 333 11035 4/017 91111
AAXX 10181 01419 16/// /1902 10017 20004 60072 333 10031 91109
AAXX 10181 01455 16/// /0602 10000 21046 39626 49936 53037 60002 333 10036 91107
AAXX 10181 01481 16/// /0201 11005 21022 39895 49927 53034 60002 333 10031 91105
AAXX 10184 89532 41/40 80425 11021 21034 39747 49774 53010 77172 885// 333 92962
AAXX 10184 85032 11456 60208 10285 20252 39928 40087 57040 60041 71582 84904 333 56106 59012 83817 81920 86070
AAXX 10184 85043 32465 53006 10313 20238 39922 40083 57030 85903 333 56700 59008 84817 81920 85070
AAXX 10184 85104 32465 43208 10287 20244 39925 40085 57015 84130 333 56770 59005 84817 84358
AAXX 10184 85109 32565 63208 10295 20234 39920 40080 57020 86200 333 56700 59015 86820
AAXX 10184 85114 32465 53208 10300 20240 39931 40094 57019 85200 333 56700 59011 85817
AAXX 10184 85116 32465 53406 10320 20245 39906 40084 57021 85200 333 56700 59029 85817
AAXX 10184 85123 32465 73004 10310 20233 39911 40075 57023 85230 333 56770 59015 85817 85358
AAXX 10184 85139 32465 50000 10300 20235 39852 40044 57036 84204 333 56706 59018 84817 85070
AAXX 10184 85153 32465 53604 10290 20230 39900 40083 57020 84201 333 56706 59045 84817 85070
AAXX 10184 85154 32470 33307 10292 20242 39905 40081 57022 83200 333 56700 59022 83817
AAXX 10184 78862 11472 70608 10243 20221 30084 40107 60011 71586 87822 333 10258 20238 59003 70031 83812 87635 85458
AAXX 10184 TAF TQPF 081000Z 0812/0912 04010KT 9999 SCT022 PROB30 TEMPO 0812/0912 SHRA BKN015
AAXX 10184 TAF TUPJ 081000Z 0812/0912 06010KT 9999 SCT022 PROB30 TEMPO 0812/0912 SHRA BKN015
AAXX 10184 N036
AAXX 10184 TAF TUPJ 071600Z 0718/0818 06008KT 9999 SCT020 BKN280 PROB30 TEMPO 0718/0818 06010G20KT SHRA BKN015 BKN036
AAXX 10184 TEMPO 0600/0624 SHRA BKN015=+TSRA SCT012CB
AAXX 10184 TAF TUPJ 041000Z 04012/0512 07008KT 9999 SCT016 BKN038 SCT270 TEMPO 0412/0512 SHRA BKN015 PROB40 TEMPO 0418/0512 5000 SHRA BKN014 BKN036 PROB30 0420/0512 4000 TSRA FEW012CB
AAXX 10184 918 4000 TSRA FEW012CB
AAXX 10184 N015 BKN036 PROB40 TEMPO 0704/0724 3000 +TSRA SCT011CB BKN012 BECMG 0712/0714 14008KT
AAXX 10184 21/2712 07017G28KT 5000 SHRA BKN015 BKN036 PROB TEMPO 2700/2712 4000 TSRA FEW013CB
AAXX 10184 PROB30 TEMPO 0800/0806 4000 TSRA FEW012CB PROB40 TEMPO 0800/0824 2000 +SHRA/TSRA SCT010CB BKN012 BKN250
AAXX 10181 15015 01596 81704 10047 20032 39549 42763 54000 60032 76166 885// 333 10061 20038 31006 60017 91006 91106 96010
AAXX 10181 15020 02597 82304 10098 20031 39938 40135 54001 60002 8557/ 333 10112 20050 30010 60007 91006 91108
AAXX 10181 15090 01597 80602 10039 20025 30058 40152 50000 69902 70262 8357/ 333 10058 20016 31005 55300 10046 20002 3//// 60007 91003 91103
AAXX 10181 15108 01/91 92720 11037 21037 38043 48472 58008 60002 74944 333 11037 21080 3//// 43005 60007 91028 92712 92840
AAXX 10181 15120 02697 62901 10056 20030 39662 40161 54001 60002 82570 333 10078 20001 30011 55300 10037 2//// 3//// 60007 91003 91103
AAXX 10181 15150 02597 81501 10048 20026 39943 40159 52002 60002 8557/ 333 10084 20011 30009 60007 91001 91103
AAXX 10181 15170 02598 72102 10043 20011 39384 42779 55003 60002 83570 333 10066 21012 3/002 43001 60007 91003 91107 92850
AAXX 10181 15200 02998 71603 10084 20056 30020 40165 52004 60002 87070 333 10091 20058 31009 60007 91004 91104
AAXX 10181 15230 02597 82401 10060 20051 39884 40180 54000 60002 8557/ 333 10078 20020 31008 55300 10040 20003 3//// 60007 91001 91101
AAXX 10181 15260 02598 61600 10047 20005 39642 40183 52004 60002 86500 333 10065 21008 31008 60007 91001 91102
AAXX 10181 15280 01198 82508 11046 21064 37477 47015 53002 60002 72842 83577 333 11043 21066 3//// 48035 60007 92815
AAXX 10181 15292 01598 81504 10083 20047 39887 40182 54000 69952 886// 333 10098 20064 30009 60007 91007 91108
AAXX 10181 15310 02997 82105 10060 20000 30087 40174 54001 60002 84037 333 10091 20016 31009 55300 10086 20003 3//// 60007 91008 91108
AAXX 10181 15335 02997 62002 10074 21014 30169 40176 57002 60002 86030 333 10115 20023 31012 60007 91005 91105
AAXX 10181 15346 02597 80101 10032 21005 39899 40195 50004 60002 8457/ 333 10059 21026 30007 60007 91001 91102
AAXX 10181 15350 02597 82503 10062 20015 30056 40178 53003 60002 8557/ 333 10094 21006 31011 60007 91005 91108
AAXX 10181 15360 02997 62110 10086 20054 30157 40171 57007 60002 80006 222// 06060 20503 333 10091 20057 3//// 60007 91012 91112 92437
AAXX 10181 15410 02997 80000 10032 20004 30101 40199 52002 60002 8807/ 333 10049 21004 30009 60007 91000 91101
AAXX 10181 15420 02997 62502 10060 20011 30074 40187 52003 60002 86030 333 10085 21003 31010 55300 0//// 20000 3//// 60007 91003 91104
AAXX 10181 15450 01996 63401 10030 21020 39955 40196 50001 60002 71022 86070 333 10051 21015 31006 55300 10036 20001 3//// 60007 91002 91103
AAXX 10181 15460 02997 62302 10084 21003 30164 40188 57003 60002 86070 333 10121 21024 31010 60007 91003 91103
AAXX 10181 15470 02997 72702 10038 20016 30068 40197 53004 60002 87070 333 10065 21031 31007 60007 91003 91103
AAXX 10181 15480 02997 32402 10089 21011 30172 40189 58003 60002 80001 222// 06071 2//// 333 10136 20025 30012 60007 91005 91106 92427
AAXX 10184 87692 11560 73616 10232 20195 30074 40099 57037 60071 70362 82570 333 56860 82620 85360 555 10098
AAXX 10184 65201 31457 71903 10277 20229 30051 40104 70522 82508 333 10342 56500 57632 58014 82611 87280 91107 94463
AAXX 10181 11010 01370 72503 10039 20031 39804 40188 52015 60012 72165 333 10039 69905 81709 86710
AAXX 10181 11012 11659 82402 10035 20023 39712 40188 53014 60022 76162 8442/ 333 10042 20014 55300
AAXX 10181 11022 12970 22604 10029 21007 39775 40168 53016 69902 82030 333 10063 20029 55300 82361
AAXX 10181 11035 11683 72805 10056 20020 39914 40169 52014 69902 70262 875// 333 10076 20056 83648 87657
AAXX 10181 11036 11683 82806 10056 20011 39945 40170 50013 69922 70286 333 10066 82645 87657
AAXX 10181 11101 11257 83402 10059 20058 39659 40189 52014 60092 76165 887// 333 10087 20058 88706
AAXX 10181 11120 32770 70902 10037 20017 39473 40187 52016 333 10052 81650 85359 86363
AAXX 10181 11126 16/// /2807 11018 21033 37708 48466 53009 69902 333 10000 21042 55300
AAXX 10181 11130 17/// /0503 10027 20017 39593 40191 53017 69902 7//8/ 333 10047 20004 55300
AAXX 10181 11146 32180 12908 11068 21100 36908 47011 52006 81100 333 11059 21075 81802 91116
AAXX 10181 11150 01360 80202 10028 20019 39648 40198 52018 69902 76366 333 10045 69905 81707 86612
AAXX 10181 11155 11/01 92503 11024 21029 38333 48463 53012 60012 77174 333 10017 21036 55300 89/03 91125
AAXX 10181 11157 11570 89901 11009 21023 39402 40192 50009 69902 72522 875// 333 11007 81625 84639 87650
AAXX 10181 11172 NIL
AAXX 10181 11190 11660 80000 10048 20028 39936 40172 53016 69912 75122 886// 333 10074 20028 55300 88638
AAXX 10181 11204 16/// /0000 11014 21021 39387 40201 51014 60002 333 10046 21037 55300
AAXX 10181 11212 31/00 92511 11026 21029 37802 48473 51007 74943 333 11012 91117 92612
AAXX 10181 11231 32682 13002 10005 21006 39594 40178 53011 333 10073 81645
AAXX 10181 11240 31960 50000 10011 20005 39727 40175 52011 71111 333 10076 84360
AAXX 10181 11244 16/// /3401 10015 20002 39838 40173 52011 60002 333 10084 20015 55300
AAXX 10181 11389 17550 82104 10038 20029 39852 40182 53015 69902 7214/ 885// 333 10047 20033 55300
AAXX 10181 76040 32960 03202 10169 20024 30198 40212 52008 91745 333 10203 20050 30/// 59022 98660
AAXX 10181 76061 32981 00502 10140 20033 30135 40211 52008 91730 333 10142 20090 30/// 59020
AAXX 10181 76113 32980 02701 10158 21009 39698 40172 57001 91745 333 10165 20040 30/// 59018
AAXX 10181 76122 32970 41102 10094 20055 38593 40270 57001 82420 91749 333 10146 21022 30/// 59017
AAXX 10181 76123 06970 41206 10107 21043 3//// 4//// 5//// 60002 7//// 82420 91750 333 0//// 10107 21018 56990 57/// 5//// 60007 8//// 8//// 8//// 8//// 9//// 9//// 9//// 444 ///// 555
AAXX 10181 76225 32760 80201 10100 21019 38690 40245 50002 88070 91745 333 20050 30/// 56050 58030 85350 88270
AAXX 10181 76256 32980 03002 10199 20071 30176 40190 52002 91745 333 10209 20125 30/// 59014
AAXX 10181 76258 32970 30703 10215 20073 30132 40178 57004 80001 91750 333 10224 20104 30/// 59011
AAXX 10181 76305 32970 30602 10218 20085 30180 40188 51002 80004 91740 333 10221 20142 30/// 56005 59009 83070
AAXX 10181 76323 32970 73601 10098 21003 38322 40302 57008 8702/ 91755 333 10102 20037 30/// 5605/ 58025 87458
AAXX 10181 76342 01460 80702 10078 20071 39616 40351 52006 69921 75255 887// 91755 333 10090 20074 31/// 561// 58077 69907 88710
AAXX 10181 76373 32580 80000 10107 20024 38248 40203 52015 88800 91750 333 10113 20030 30/// 56900 58024 86620 82725
AAXX 10181 76382 32980 83402 10174 20111 38965 40223 52005 8802/ 91755 333 20114 30/// 56005 58040 88456
AAXX 10181 76390 31410 83604 10064 20064 38288 40265 57008 74044 887// 91730 333 10080 20045 30/// 568// 58031 88714
AAXX 10181 76393 01103 80401 10122 20115 39688 40279 52006 60051 75055 887// 91750 333 10128 20116 32/// 56999 58065 60037 88703
AAXX 10181 76423 32580 70000 10173 20035 38178 40179 57004 85430 91750 333 20074 30/// 56990 58000 85610 82358
AAXX 10181 76458 32970 13005 10216 20143 30168 40173 51002 80006 91740 333 10232 20125 30/// 56//9 59005 81072
AAXX 10181 76471 32980 31802 10196 20034 37714 40149 57003 80001 91750 333 10200 20053 30/// 56001 59010 83075
AAXX 10181 76490 06/// /0105 10167 20152 39856 40251 50001 60132 7//// 8//// 91750 333 0//// 10198 20159 30/// 54/// 56/// 57/// 58042 60027 8//// 8//// 8//// 8//// 9//// 9//// 9//// 44
AAXX 10181 76491 01460 83605 10164 20162 39874 40269 52006 60141 75155 886// 91745 333 10168 20080 32/// 569// 58038 60037 88717
AAXX 10181 76499 01430 80702 10193 20185 30213 40235 52013 60111 75055 886// 91750 333 10195 20188 32/// 561// 58036 60047 88714
AAXX 10181 76519 32960 40000 10202 20021 38388 40233 57001 80002 91745 333 10205 20033 30/// 56006 58001 84070
AAXX 10181 76525 32970 40804 10115 20042 37500 40171 52006 80008 91740 333 10117 20094 30/// 56//5 58003 84280
AAXX 10181 76539 31567 60902 10168 20066 38199 40227 52006 70544 86400 91750 333 10272 20080 30/// 56200 59021 86624
AAXX 10181 76543 32675 81701 10228 20170 30222 40255 58001 8255/ 91730 333 10229 20185 30/// 5633/ 58040 82650 86358
AAXX 10181 76547 06/// /1301 10210 20193 30219 40231 58002 60002 7//// 8//// 91750 333 0//// 10213 20190 56/// 57/// 58030 60007 8//// 8//// 8//// 8//// 9//// 9//// 9//// 444 ///// 555
AAXX 10181 76556 32970 23602 10250 20133 39145 40178 52004 80002 91730 333 10254 20122 30/// 56001 59004 82070
AAXX 10181 76571 31865 43601 20062 38198 40222 57004 705// 80004 91755 333 20060 30/// 56005 58012
AAXX 10181 76577 32970 02304 10178 20136 38072 40193 50002 91740 333 20099 30/// 58007
AAXX 10181 76578 06/// /2304 20040 38067 40136 58002 60002 7//// 8//// 91750 333 0//// 20095 30/// 4//// 54/// 56/// 57/// 58006 60007 8//// 8//// 8//// 9//// 9//// 9//// 444 ///// 555
AAXX 10181 76581 32970 70501 10196 20133 39093 40206 57005 87060 91750 333 10206 20133 30/// 56020 58022 87360
AAXX 10181 76586 06/// /0801 10223 20174 30078 40234 50002 60002 7//// 8//// 91750 333 0//// 10233 20154 30/// 4//// 54/// 56/// 57/// 58034 60007 8//// 8//// 8//// 9//// 9//// 9//// 44
AAXX 10181 76592 06/// /0312 10253 21094 30199 40199 58013 60002 7//// 8//// 91750 333 0//// 10264 20217 30/// 4//// 54/// 56/// 57/// 58003 60007 8//// 8//// 8//// 9//// 9//// 9//// 44
AAXX 10181 76593 32370 50507 10250 20231 30199 40201 58012 83240 91750 333 10264 20217 30/// 5611/ 58001 83820 82330 91011 91505
AAXX 10181 76612 32962 00901 10214 20109 38503 40202 50000 91750 333 10276 20076 30/// 58005
AAXX 10181 76625 32950 00507 20063 38168 40175 56010 91740 333 20096 30/// 58009
AAXX 10181 76632 32568 30509 10132 20042 37607 40106 57034 83109 91745 333 10135 20074 30/// 56101 59037 81634 82271
AAXX 10181 76634 31570 22801 10164 20073 37882 40241 57008 70511 81201 91750 333 10165 20034 30/// 561/7 58016 81820
AAXX 10181 76641 06/// /1202 10232 20192 30221 40233 58007 60002 7//// 8//// 91750 333 0//// 10245 20184 30/// 4//// 54/// 56/// 57/// 58027 60007 8//// 8//// 8//// 8//// 9//// 9//// 9/
AAXX 10181 76644 01460 60203 10237 20201 30186 40199 57013 69911 75052 8487/ 91750 333 10260 20126 31/// 5611/ 58010 69917 82810 85610
AAXX 10181 76645 06/// /0304 10232 20197 30190 40203 58014 60002 7//// 8//// 91750 333 0//// 10262 20125 30/// 4//// 54/// 56/// 57/// 58008 60007 8//// 8//// 8//// 9//// 9//// 9//// 44
AAXX 10181 76648 06/// /0403 10291 20136 30158 40188 58015 60002 7//// 8//// 91750 333 0//// 10291 20141 30/// 4//// 54/// 56/// 57/// 58009 60007 8//// 8//// 8//// 8//// 9//// 9//// 9/
AAXX 10181 76654 31956 02002 10298 20224 30156 40160 58005 70544 91750 333 10298 20210 30/// 58000
AAXX 10181 76656 32975 00000 10230 20097 38530 40193 58003 91750 333 10237 20067 30/// 59002
AAXX 10181 76658 31558 12302 10295 20130 39650 40157 57006 70540 81100 91750 333 10300 20179 30/// 59001 81822 94022 98904
AAXX 10181 76662 31970 00601 10224 20096 38487 40188 57007 70542 91750 333 10230 20060 30/// 58010
AAXX 10181 76665 32962 02101 10208 20087 38138 40105 57004 91755 333 10218 20065 30/// 58010
AAXX 10181 76675 31570 30702 21003 37391 40202 56006 70544 81204 91747 333 10194 21005 30/// 569/9 59001 81826 98470
AAXX 10181 76681 31950 00901 10191 20073 37802 40198 58009 70540 91745 333 10191 20030 30/// 58009
AAXX 10181 76683 32970 11601 10203 20028 37839 40212 56014 80005 91745 333 10215 20036 30/// 56005 59001 81080
AAXX 10181 76685 31950 03601 10190 20000 37885 40166 57006 70544 91740 333 10192 20066 30/// 58002
AAXX 10181 76687 01558 80901 10150 20138 38732 40238 50000 69921 75122 885// 91737 333 10160 20116 31/// 563// 58023 69927 85620 83718
AAXX 10181 76692 01556 83604 10216 20204 30206 40226 50000 60051 79162 8522/ 91745 333 10229 20202 32/// 5688/ 58026 60027 81820 84630 83458
AAXX 10181 76693 06/// /3604 10214 20199 30204 40223 58004 60062 7//// 8//// 91750 333 0//// 10228 20202 30/// 4//// 56/// 57/// 58028 60027 8//// 8//// 8//// 8//// 9//// 9//// 9//// 44
AAXX 10181 76698 32560 13601 10259 20187 30178 40190 57016 81200 91755 333 10274 20166 30/// 56800 58010 81820
AAXX 10181 76737 01480 81402 10174 20139 38822 40215 58002 69901 70552 8577/ 91735 333 10179 20140 30/// 5622/ 58021 69907 85717 83358 91105 91514
AAXX 10181 76738 06/// /1202 10179 20135 38822 40202 58005 60002 7//// 8//// 333 10193 20138 30/// 56/// 57/// 58021 60007 8//// 8//// 8//// 8//// 9//// 9//// 9//// 444 ///// 555 30190
AAXX 10181 76743 31558 21102 10255 20204 30201 40209 58007 70200 82200 91745 333 10256 20205 30/// 562// 58024 82821
AAXX 10181 76750 32560 13403 10274 20176 30179 40190 57014 81100 91750 333 10277 20178 30/// 56100 58012 81820
AAXX 10181 76751 06/// /3203 10271 20180 30179 40189 58014 60002 7//// 8//// 91750 333 0//// 10273 20179 30/// 4//// 54/// 56/// 57/// 58012 60007 8//// 8//// 8//// 9//// 9//// 9//// 44
AAXX 10181 76762 32904 03601 10270 20220 38770 40154 58011 91735 333 10272 20121 30/// 59004
AAXX 10181 76772 06/// /1402 10224 20060 38449 40136 58009 60002 7//// 8//// 91750 333 0//// 10234 20049 30/// 4//// 56/// 57/// 58011 60007 8//// 8//// 8//// 9//// 9//// 9//// 444 ////
AAXX 10181 76773 31968 10901 10228 20070 38447 40202 57005 7050/ 80001 91745 333 10234 20050 30/// 56009 58013
AAXX 10181 76775 31568 12601 10229 20060 38584 40208 57017 70300 81200 91745 333 10234 20092 30/// 56800 59010 81827
AAXX 10181 76776 06/// /3401 10232 20062 38529 40128 58022 60002 7//// 8//// 91750 333 0//// 10237 20066 30/// 4//// 56/// 57/// 58011 60007 8//// 8//// 8//// 9//// 9//// 9//// 444 ////
AAXX 10181 76805 32570 11701 10307 20242 30144 40148 53004 81200 91745 333 10316 20220 30/// 563// 58010 81824
AAXX 10181 76806 06/// /1801 10305 20221 30142 40146 58008 60002 7//// 8//// 91750 333 10314 20215 30/// 56/// 57/// 58007 60007 8//// 8//// 8//// 8//// 9//// 9//// 9//// 555 30274
AAXX 10181 76833 32960 03612 10280 20153 30147 40149 57005 91745 333 10280 20236 30/// 58012 92002
AAXX 10181 76840 32150 10310 10280 20171 30085 40140 57014 81200 91740 333 10287 20205 30/// 568// 58008 81827
AAXX 10181 76843 32565 60804 10230 20150 39530 40178 55007 84630 91745 333 10244 20164 30/// 568// 58019 84824
AAXX 10181 76845 32460 50503 10168 20122 37966 40179 56011 85600 91750 333 20105 30/// 56200 58008 85720
AAXX 10181 76848 32670 20502 10210 20111 38400 40124 56012 82200 91750 333 20215 20121 30/// 56100 58004 82841 98908
AAXX 10181 76902 06/// /1802 10329 20200 39992 40127 58018 60002 7//// 8//// 91750 333 0//// 10329 20221 30/// 4//// 54/// 56/// 57/// 59002 60007 8//// 8//// 8//// 8//// 9//// 9//// 9/
AAXX 10181 76903 31680 12101 10330 20251 39994 40124 57018 70300 81100 91745 333 10332 20217 30/// 56100 58005 81833
AAXX 10181 76160 32962 00401 20028 39931 40182 54000 91730 333 20110 30/// 59017
AAXX 10181 76243 11372 83608 10074 20058 30035 40340 52022 60031 75165 884// 91730 333 10130 20060 31/// 568// 58093 88609
AAXX 10181 76253 32782 20502 10200 20090 30098 40188 55009 82020 91759 333 10205 20135 30/// 56050 59021 82457 92002
AAXX 10181 76311 32580 40000 10195 20132 39898 40180 51004 84200 91745 333 10200 20132 30/// 56600 58000 84820
AAXX 10181 76405 32980 73603 10220 20136 30163 40185 54000 87010 91750 333 10222 20180 30/// 56050 59013 87456
AAXX 10181 76412 31966 02201 10218 20119 30134 40179 52001 70544 91750 333 10218 20118 30/// 59006
AAXX 10181 76640 31358 83202 10216 20194 30239 40251 52001 70544 8313/ 91740 333 10232 20170 30/// 5672/ 58027 83809 85340
AAXX 10181 76647 32770 10503 10284 20159 30171 40201 55009 81100 91750 333 10285 20144 30/// 56100 58005 81850
AAXX 10181 76741 31465 60503 10246 20204 30174 40193 58006 70542 84230 91735 333 10253 20145 30/// 561// 58023 84818
AAXX 10181 76855 32580 11301 10306 20235 30085 40134 51007 81200 91730 333 10315 20206 30/// 56900 58010 81820 92000
BBXX YJUF7 10184 99444 70622 41597 82110 10069 2006/ 40188 58018 76186 885// 22262 00071 20301 318// 40803 80065
AAXX 10181 37575 41595 82002 10042 20008 39694 40293 52013 76166 882// 333 10088
AAXX 10181 37675 41495 82701 10019 20014 39612 40288 52005 76162 8802/ 333 10052 555 53005
AAXX 10181 37735 41596 82901 10046 20024 39830 40212 52020 76162 887// 333 10100
AAXX 10181 37749 41497 80902 10036 20026 30196 40316 52011 76166 8872/ 333 10076 555 53006
AAXX 10181 37756 41597 80000 10018 21001 39399 40323 52014 76162 8802/ 333 10067
AAXX 10181 37864 31397 80106 10075 20050 40272 52020 76062 885// 333 10090 86710
AAXX 10181 37985 41496 82701 10069 20060 30287 40272 52015 76166 885// 333 10087
AAXX 10181 26141 01375 82208 10014 20004 39749 49896 52006 60012 72586 875// 333 10015 20001 60007 87609 91012 91112 555 1/100 20001 3/100 50006 52100
AAXX 10181 26242 01467 82205 10012 21006 39846 49932 52013 60032 72176 875// 333 10021 20003 69937 87612 91011 91112 555 1/000 20003 3/101 50012 52101
AAXX 10181 26038 NIL
AAXX 10181 26045 NIL
AAXX 10181 26058 NIL
AAXX 10181 26115 NIL
AAXX 10181 26135 NIL
AAXX 10181 26231 NIL
AAXX 10181 26247 NIL
AAXX 10181 01281 16/// /0000 11027 21041 39750 49926 52011 60002 333 10002 91106
AAXX 10181 76040 32960 03202 10169 20024 30198 40212 52008 91745 333 10203 20050 30/// 59022 98660
AAXX 10181 76061 32981 00502 10140 20033 30135 40211 52008 91730 333 10142 20090 30/// 59020
AAXX 10181 76113 32980 02701 10158 21009 39698 40172 57001 91745 333 10165 20040 30/// 59018
AAXX 10181 76122 32970 41102 10094 20055 38593 40270 57001 82420 91749 333 10146 21022 30/// 59017
AAXX 10181 76123 06970 41206 10107 21043 3//// 4//// 5//// 60002 7//// 82420 91750 333 0//// 10107 21018 56990 57/// 5//// 60007 8//// 8//// 8//// 8//// 9//// 9//// 9//// 444 ///// 555
AAXX 10181 76225 32760 80201 10100 21019 38690 40245 50002 88070 91745 333 20050 30/// 56050 58030 85350 88270
AAXX 10181 76256 32980 03002 10199 20071 30176 40190 52002 91745 333 10209 20125 30/// 59014
AAXX 10181 76258 32970 30703 10215 20073 30132 40178 57004 80001 91750 333 10224 20104 30/// 59011
AAXX 10181 76305 32970 30602 10218 20085 30180 40188 51002 80004 91740 333 10221 20142 30/// 56005 59009 83070
AAXX 10181 76323 32970 73601 10098 21003 38322 40302 57008 8702/ 91755 333 10102 20037 30/// 5605/ 58025 87458
AAXX 10181 76342 01460 80702 10078 20071 39616 40351 52006 69921 75255 887// 91755 333 10090 20074 31/// 561// 58077 69907 88710
AAXX 10181 76373 32580 80000 10107 20024 38248 40203 52015 88800 91750 333 10113 20030 30/// 56900 58024 86620 82725
AAXX 10181 76382 32980 83402 10174 20111 38965 40223 52005 8802/ 91755 333 20114 30/// 56005 58040 88456
AAXX 10181 76390 31410 83604 10064 20064 38288 40265 57008 74044 887// 91730 333 10080 20045 30/// 568// 58031 88714
AAXX 10181 76393 01103 80401 10122 20115 39688 40279 52006 60051 75055 887// 91750 333 10128 20116 32/// 56999 58065 60037 88703
AAXX 10181 76423 32580 70000 10173 20035 38178 40179 57004 85430 91750 333 20074 30/// 56990 58000 85610 82358
AAXX 10181 76458 32970 13005 10216 20143 30168 40173 51002 80006 91740 333 10232 20125 30/// 56//9 59005 81072
AAXX 10181 76471 32980 31802 10196 20034 37714 40149 57003 80001 91750 333 10200 20053 30/// 56001 59010 83075
AAXX 10181 76490 06/// /0105 10167 20152 39856 40251 50001 60132 7//// 8//// 91750 333 0//// 10198 20159 30/// 54/// 56/// 57/// 58042 60027 8//// 8//// 8//// 8//// 9//// 9//// 9//// 44
AAXX 10181 76491 01460 83605 10164 20162 39874 40269 52006 60141 75155 886// 91745 333 10168 20080 32/// 569// 58038 60037 88717
AAXX 10181 76499 01430 80702 10193 20185 30213 40235 52013 60111 75055 886// 91750 333 10195 20188 32/// 561// 58036 60047 88714
AAXX 10181 76519 32960 40000 10202 20021 38388 40233 57001 80002 91745 333 10205 20033 30/// 56006 58001 84070
AAXX 10181 76525 32970 40804 10115 20042 37500 40171 52006 80008 91740 333 10117 20094 30/// 56//5 58003 84280
AAXX 10181 76539 31567 60902 10168 20066 38199 40227 52006 70544 86400 91750 333 10272 20080 30/// 56200 59021 86624
AAXX 10181 76543 32675 81701 10228 20170 30222 40255 58001 8255/ 91730 333 10229 20185 30/// 5633/ 58040 82650 86358
AAXX 10181 76547 06/// /1301 10210 20193 30219 40231 58002 60002 7//// 8//// 91750 333 0//// 10213 20190 56/// 57/// 58030 60007 8//// 8//// 8//// 8//// 9//// 9//// 9//// 444 ///// 555
AAXX 10181 76556 32970 23602 10250 20133 39145 40178 52004 80002 91730 333 10254 20122 30/// 56001 59004 82070
AAXX 10181 76571 31865 43601 20062 38198 40222 57004 705// 80004 91755 333 20060 30/// 56005 58012
AAXX 10181 76577 32970 02304 10178 20136 38072 40193 50002 91740 333 20099 30/// 58007
AAXX 10181 76578 06/// /2304 20040 38067 40136 58002 60002 7//// 8//// 91750 333 0//// 20095 30/// 4//// 54/// 56/// 57/// 58006 60007 8//// 8//// 8//// 9//// 9//// 9//// 444 ///// 555
AAXX 10181 76581 32970 70501 10196 20133 39093 40206 57005 87060 91750 333 10206 20133 30/// 56020 58022 87360
AAXX 10181 76586 06/// /0801 10223 20174 30078 40234 50002 60002 7//// 8//// 91750 333 0//// 10233 20154 30/// 4//// 54/// 56/// 57/// 58034 60007 8//// 8//// 8//// 9//// 9//// 9//// 44
AAXX 10181 76592 06/// /0312 10253 21094 30199 40199 58013 60002 7//// 8//// 91750 333 0//// 10264 20217 30/// 4//// 54/// 56/// 57/// 58003 60007 8//// 8//// 8//// 9//// 9//// 9//// 44
AAXX 10181 76593 32370 50507 10250 20231 30199 40201 58012 83240 91750 333 10264 20217 30/// 5611/ 58001 83820 82330 91011 91505
AAXX 10181 76612 32962 00901 10214 20109 38503 40202 50000 91750 333 10276 20076 30/// 58005
AAXX 10181 76625 32950 00507 20063 38168 40175 56010 91740 333 20096 30/// 58009
AAXX 10181 76632 32568 30509 10132 20042 37607 40106 57034 83109 91745 333 10135 20074 30/// 56101 59037 81634 82271
AAXX 10181 76634 31570 22801 10164 20073 37882 40241 57008 70511 81201 91750 333 10165 20034 30/// 561/7 58016 81820
AAXX 10181 76641 06/// /1202 10232 20192 30221 40233 58007 60002 7//// 8//// 91750 333 0//// 10245 20184 30/// 4//// 54/// 56/// 57/// 58027 60007 8//// 8//// 8//// 8//// 9//// 9//// 9/
AAXX 10181 76644 01460 60203 10237 20201 30186 40199 57013 69911 75052 8487/ 91750 333 10260 20126 31/// 5611/ 58010 69917 82810 85610
AAXX 10181 76645 06/// /0304 10232 20197 30190 40203 58014 60002 7//// 8//// 91750 333 0//// 10262 20125 30/// 4//// 54/// 56/// 57/// 58008 60007 8//// 8//// 8//// 9//// 9//// 9//// 44
AAXX 10181 76648 06/// /0403 10291 20136 30158 40188 58015 60002 7//// 8//// 91750 333 0//// 10291 20141 30/// 4//// 54/// 56/// 57/// 58009 60007 8//// 8//// 8//// 8//// 9//// 9//// 9/
AAXX 10181 76654 31956 02002 10298 20224 30156 40160 58005 70544 91750 333 10298 20210 30/// 58000
AAXX 10181 76656 32975 00000 10230 20097 38530 40193 58003 91750 333 10237 20067 30/// 59002
AAXX 10181 76658 31558 12302 10295 20130 39650 40157 57006 70540 81100 91750 333 10300 20179 30/// 59001 81822 94022 98904
AAXX 10181 76662 31970 00601 10224 20096 38487 40188 57007 70542 91750 333 10230 20060 30/// 58010
AAXX 10181 76665 32962 02101 10208 20087 38138 40105 57004 91755 333 10218 20065 30/// 58010
AAXX 10181 76675 31570 30702 21003 37391 40202 56006 70544 81204 91747 333 10194 21005 30/// 569/9 59001 81826 98470
AAXX 10181 76681 31950 00901 10191 20073 37802 40198 58009 70540 91745 333 10191 20030 30/// 58009
AAXX 10181 76683 32970 11601 10203 20028 37839 40212 56014 80005 91745 333 10215 20036 30/// 56005 59001 81080
AAXX 10181 76685 31950 03601 10190 20000 37885 40166 57006 70544 91740 333 10192 20066 30/// 58002
AAXX 10181 76687 01558 80901 10150 20138 38732 40238 50000 69921 75122 885// 91737 333 10160 20116 31/// 563// 58023 69927 85620 83718
AAXX 10181 76692 01556 83604 10216 20204 30206 40226 50000 60051 79162 8522/ 91745 333 10229 20202 32/// 5688/ 58026 60027 81820 84630 83458
AAXX 10181 76693 06/// /3604 10214 20199 30204 40223 58004 60062 7//// 8//// 91750 333 0//// 10228 20202 30/// 4//// 56/// 57/// 58028 60027 8//// 8//// 8//// 8//// 9//// 9//// 9//// 44
AAXX 10181 76698 32560 13601 10259 20187 30178 40190 57016 81200 91755 333 10274 20166 30/// 56800 58010 81820
AAXX 10181 76737 01480 81402 10174 20139 38822 40215 58002 69901 70552 8577/ 91735 333 10179 20140 30/// 5622/ 58021 69907 85717 83358 91105 91514
AAXX 10181 76738 06/// /1202 10179 20135 38822 40202 58005 60002 7//// 8//// 333 10193 20138 30/// 56/// 57/// 58021 60007 8//// 8//// 8//// 8//// 9//// 9//// 9//// 444 ///// 555 30190
AAXX 10181 76743 31558 21102 10255 20204 30201 40209 58007 70200 82200 91745 333 10256 20205 30/// 562// 58024 82821
AAXX 10181 76750 32560 13403 10274 20176 30179 40190 57014 81100 91750 333 10277 20178 30/// 56100 58012 81820
AAXX 10181 76751 06/// /3203 10271 20180 30179 40189 58014 60002 7//// 8//// 91750 333 0//// 10273 20179 30/// 4//// 54/// 56/// 57/// 58012 60007 8//// 8//// 8//// 9//// 9//// 9//// 44
AAXX 10181 76762 32904 03601 10270 20220 38770 40154 58011 91735 333 10272 20121 30/// 59004
AAXX 10181 76772 06/// /1402 10224 20060 38449 40136 58009 60002 7//// 8//// 91750 333 0//// 10234 20049 30/// 4//// 56/// 57/// 58011 60007 8//// 8//// 8//// 9//// 9//// 9//// 444 ////
AAXX 10181 76773 31968 10901 10228 20070 38447 40202 57005 7050/ 80001 91745 333 10234 20050 30/// 56009 58013
AAXX 10181 76775 31568 12601 10229 20060 38584 40208 57017 70300 81200 91745 333 10234 20092 30/// 56800 59010 81827
AAXX 10181 76776 06/// /3401 10232 20062 38529 40128 58022 60002 7//// 8//// 91750 333 0//// 10237 20066 30/// 4//// 56/// 57/// 58011 60007 8//// 8//// 8//// 9//// 9//// 9//// 444 ////
AAXX 10181 76805 32570 11701 10307 20242 30144 40148 53004 81200 91745 333 10316 20220 30/// 563// 58010 81824
AAXX 10181 76806 06/// /1801 10305 20221 30142 40146 58008 60002 7//// 8//// 91750 333 10314 20215 30/// 56/// 57/// 58007 60007 8//// 8//// 8//// 8//// 9//// 9//// 9//// 555 30274
AAXX 10181 76833 32960 03612 10280 20153 30147 40149 57005 91745 333 10280 20236 30/// 58012 92002
AAXX 10181 76840 32150 10310 10280 20171 30085 40140 57014 81200 91740 333 10287 20205 30/// 568// 58008 81827
AAXX 10181 76843 32565 60804 10230 20150 39530 40178 55007 84630 91745 333 10244 20164 30/// 568// 58019 84824
AAXX 10181 76845 32460 50503 10168 20122 37966 40179 56011 85600 91750 333 20105 30/// 56200 58008 85720
AAXX 10181 76848 32670 20502 10210 20111 38400 40124 56012 82200 91750 333 20215 20121 30/// 56100 58004 82841 98908
AAXX 10181 76902 06/// /1802 10329 20200 39992 40127 58018 60002 7//// 8//// 91750 333 0//// 10329 20221 30/// 4//// 54/// 56/// 57/// 59002 60007 8//// 8//// 8//// 8//// 9//// 9//// 9/
AAXX 10181 76903 31680 12101 10330 20251 39994 40124 57018 70300 81100 91745 333 10332 20217 30/// 56100 58005 81833
AAXX 10181 76160 32962 00401 20028 39931 40182 54000 91730 333 20110 30/// 59017
AAXX 10181 76243 11372 83608 10074 20058 30035 40340 52022 60031 75165 884// 91730 333 10130 20060 31/// 568// 58093 88609
AAXX 10181 76253 32782 20502 10200 20090 30098 40188 55009 82020 91759 333 10205 20135 30/// 56050 59021 82457 92002
AAXX 10181 76311 32580 40000 10195 20132 39898 40180 51004 84200 91745 333 10200 20132 30/// 56600 58000 84820
AAXX 10181 76405 32980 73603 10220 20136 30163 40185 54000 87010 91750 333 10222 20180 30/// 56050 59013 87456
AAXX 10181 76412 31966 02201 10218 20119 30134 40179 52001 70544 91750 333 10218 20118 30/// 59006
AAXX 10181 76640 31358 83202 10216 20194 30239 40251 52001 70544 8313/ 91740 333 10232 20170 30/// 5672/ 58027 83809 85340
AAXX 10181 76647 32770 10503 10284 20159 30171 40201 55009 81100 91750 333 10285 20144 30/// 56100 58005 81850
AAXX 10181 76741 31465 60503 10246 20204 30174 40193 58006 70542 84230 91735 333 10253 20145 30/// 561// 58023 84818
AAXX 10181 76855 32580 11301 10306 20235 30085 40134 51007 81200 91730 333 10315 20206 30/// 56900 58010 81820 92000
AAXX 10181 01205 46/// ///// 10043 20010 39910 49955 53022 333 10054
AAXX 10181 33135 11495 82102 10017 20009 39947 40128 53001 60012 71082 886// 333 10025 88715
AAXX 10181 33663 32597 83201 10064 20043 30046 40142 53003 8633/ 333 10073 86927
BBXX YJUF7 10184 99444 70622 41597 82110 10069 2006/ 40188 58018 76186 885// 22262 00071 20301 318// 40803 80065
AAXX 10181 76040 32960 03202 10169 20024 30198 40212 52008 91745 33310203 20050 30/// 59022 98660
AAXX 10181 76061 32981 00502 10140 20033 30135 40211 52008 91730 33310142 20090 30/// 59020
AAXX 10181 76113 32980 02701 10158 21009 39698 40172 57001 91745 33310165 20040 30/// 59018
AAXX 10181 76122 32970 41102 10094 20055 38593 40270 57001 82420 91749333 10146 21022 30/// 59017
AAXX 10181 76123 06970 41206 10107 21043 3//// 4//// 5//// 60002 7////82420 91750 333 0//// 10107 21018 56990 57/// 5//// 600078//// 8//// 8//// 8//// 9//// 9//// 9//// 444 ///// 555
AAXX 10181 76225 32760 80201 10100 21019 38690 40245 50002 88070 91745333 20050 30/// 56050 58030 85350 88270
AAXX 10181 76256 32980 03002 10199 20071 30176 40190 52002 91745 33310209 20125 30/// 59014
AAXX 10181 76258 32970 30703 10215 20073 30132 40178 57004 80001 91750333 10224 20104 30/// 59011
AAXX 10181 76305 32970 30602 10218 20085 30180 40188 51002 80004 91740333 10221 20142 30/// 56005 59009 83070
AAXX 10181 76323 32970 73601 10098 21003 38322 40302 57008 8702/ 91755333 10102 20037 30/// 5605/ 58025 87458
AAXX 10181 76342 01460 80702 10078 20071 39616 40351 52006 69921 75255887// 91755 333 10090 20074 31/// 561// 58077 69907 88710
AAXX 10181 76373 32580 80000 10107 20024 38248 40203 52015 88800 91750333 10113 20030 30/// 56900 58024 86620 82725
AAXX 10181 76382 32980 83402 10174 20111 38965 40223 52005 8802/ 91755333 20114 30/// 56005 58040 88456
AAXX 10181 76390 31410 83604 10064 20064 38288 40265 57008 74044 887//91730 333 10080 20045 30/// 568// 58031 88714
AAXX 10181 76393 01103 80401 10122 20115 39688 40279 52006 60051 75055887// 91750 333 10128 20116 32/// 56999 58065 60037 88703
AAXX 10181 76423 32580 70000 10173 20035 38178 40179 57004 85430 91750333 20074 30/// 56990 58000 85610 82358
AAXX 10181 76458 32970 13005 10216 20143 30168 40173 51002 80006 91740333 10232 20125 30/// 56//9 59005 81072
AAXX 10181 76471 32980 31802 10196 20034 37714 40149 57003 80001 91750333 10200 20053 30/// 56001 59010 83075
AAXX 10181 76490 06/// /0105 10167 20152 39856 40251 50001 60132 7////8//// 91750 333 0//// 10198 20159 30/// 54/// 56/// 57///58042 60027 8//// 8//// 8//// 8//// 9//// 9//// 9//// 44
AAXX 10181 76491 01460 83605 10164 20162 39874 40269 52006 60141 75155886// 91745 333 10168 20080 32/// 569// 58038 60037 88717
AAXX 10181 76499 01430 80702 10193 20185 30213 40235 52013 60111 75055886// 91750 333 10195 20188 32/// 561// 58036 60047 88714
AAXX 10181 76519 32960 40000 10202 20021 38388 40233 57001 80002 91745333 10205 20033 30/// 56006 58001 84070
AAXX 10181 76525 32970 40804 10115 20042 37500 40171 52006 80008 91740333 10117 20094 30/// 56//5 58003 84280
AAXX 10181 76539 31567 60902 10168 20066 38199 40227 52006 70544 8640091750 333 10272 20080 30/// 56200 59021 86624
AAXX 10181 76543 32675 81701 10228 20170 30222 40255 58001 8255/ 91730333 10229 20185 30/// 5633/ 58040 82650 86358
AAXX 10181 76547 06/// /1301 10210 20193 30219 40231 58002 60002 7////8//// 91750 333 0//// 10213 20190 56/// 57/// 58030 600078//// 8//// 8//// 8//// 9//// 9//// 9//// 444 ///// 555
AAXX 10181 76556 32970 23602 10250 20133 39145 40178 52004 80002 91730333 10254 20122 30/// 56001 59004 82070
AAXX 10181 76571 31865 43601 20062 38198 40222 57004 705// 80004 91755333 20060 30/// 56005 58012
AAXX 10181 76577 32970 02304 10178 20136 38072 40193 50002 91740 33320099 30/// 58007
AAXX 10181 76578 06/// /2304 20040 38067 40136 58002 60002 7//// 8////91750 333 0//// 20095 30/// 4//// 54/// 56/// 57/// 5800660007 8//// 8//// 8//// 9//// 9//// 9//// 444 ///// 555
AAXX 10181 76581 32970 70501 10196 20133 39093 40206 57005 87060 91750333 10206 20133 30/// 56020 58022 87360
AAXX 10181 76586 06/// /0801 10223 20174 30078 40234 50002 60002 7////8//// 91750 333 0//// 10233 20154 30/// 4//// 54/// 56///57/// 58034 60007 8//// 8//// 8//// 9//// 9//// 9//// 44
AAXX 10181 76592 06/// /0312 10253 21094 30199 40199 58013 60002 7////8//// 91750 333 0//// 10264 20217 30/// 4//// 54/// 56///57/// 58003 60007 8//// 8//// 8//// 9//// 9//// 9//// 44
AAXX 10181 76593 32370 50507 10250 20231 30199 40201 58012 83240 91750333 10264 20217 30/// 5611/ 58001 83820 82330 91011 91505
AAXX 10181 76612 32962 00901 10214 20109 38503 40202 50000 91750 33310276 20076 30/// 58005
AAXX 10181 76625 32950 00507 20063 38168 40175 56010 91740 333 2009630/// 58009
AAXX 10181 76632 32568 30509 10132 20042 37607 40106 57034 83109 91745333 10135 20074 30/// 56101 59037 81634 82271
AAXX 10181 76634 31570 22801 10164 20073 37882 40241 57008 70511 8120191750 333 10165 20034 30/// 561/7 58016 81820
AAXX 10181 76641 06/// /1202 10232 20192 30221 40233 58007 60002 7////8//// 91750 333 0//// 10245 20184 30/// 4//// 54/// 56///57/// 58027 60007 8//// 8//// 8//// 8//// 9//// 9//// 9/
AAXX 10181 76644 01460 60203 10237 20201 30186 40199 57013 69911 750528487/ 91750 333 10260 20126 31/// 5611/ 58010 69917 8281085610
AAXX 10181 76645 06/// /0304 10232 20197 30190 40203 58014 60002 7////8//// 91750 333 0//// 10262 20125 30/// 4//// 54/// 56///57/// 58008 60007 8//// 8//// 8//// 9//// 9//// 9//// 44
AAXX 10181 76648 06/// /0403 10291 20136 30158 40188 58015 60002 7////8//// 91750 333 0//// 10291 20141 30/// 4//// 54/// 56///57/// 58009 60007 8//// 8//// 8//// 8//// 9//// 9//// 9/
AAXX 10181 76654 31956 02002 10298 20224 30156 40160 58005 70544 91750333 10298 20210 30/// 58000
AAXX 10181 76656 32975 00000 10230 20097 38530 40193 58003 91750 33310237 20067 30/// 59002
AAXX 10181 76658 31558 12302 10295 20130 39650 40157 57006 70540 8110091750 333 10300 20179 30/// 59001 81822 94022 98904
AAXX 10181 76662 31970 00601 10224 20096 38487 40188 57007 70542 91750333 10230 20060 30/// 58010
AAXX 10181 76665 32962 02101 10208 20087 38138 40105 57004 91755 33310218 20065 30/// 58010
AAXX 10181 76675 31570 30702 21003 37391 40202 56006 70544 81204 91747333 10194 21005 30/// 569/9 59001 81826 98470
AAXX 10181 76681 31950 00901 10191 20073 37802 40198 58009 70540 91745333 10191 20030 30/// 58009
AAXX 10181 76683 32970 11601 10203 20028 37839 40212 56014 80005 91745333 10215 20036 30/// 56005 59001 81080
AAXX 10181 76685 31950 03601 10190 20000 37885 40166 57006 70544 91740333 10192 20066 30/// 58002
AAXX 10181 76687 01558 80901 10150 20138 38732 40238 50000 69921 75122885// 91737 333 10160 20116 31/// 563// 58023 69927 8562083718
AAXX 10181 76692 01556 83604 10216 20204 30206 40226 50000 60051 791628522/ 91745 333 10229 20202 32/// 5688/ 58026 60027 8182084630 83458
AAXX 10181 76693 06/// /3604 10214 20199 30204 40223 58004 60062 7////8//// 91750 333 0//// 10228 20202 30/// 4//// 56/// 57///58028 60027 8//// 8//// 8//// 8//// 9//// 9//// 9//// 44
AAXX 10181 76698 32560 13601 10259 20187 30178 40190 57016 81200 91755333 10274 20166 30/// 56800 58010 81820
AAXX 10181 76737 01480 81402 10174 20139 38822 40215 58002 69901 705528577/ 91735 333 10179 20140 30/// 5622/ 58021 69907 8571783358 91105 91514
AAXX 10181 76738 06/// /1202 10179 20135 38822 40202 58005 60002 7////8//// 333 10193 20138 30/// 56/// 57/// 58021 60007 8////8//// 8//// 8//// 9//// 9//// 9//// 444 ///// 555 30190
AAXX 10181 76743 31558 21102 10255 20204 30201 40209 58007 70200 8220091745 333 10256 20205 30/// 562// 58024 82821
AAXX 10181 76750 32560 13403 10274 20176 30179 40190 57014 81100 91750333 10277 20178 30/// 56100 58012 81820
AAXX 10181 76751 06/// /3203 10271 20180 30179 40189 58014 60002 7////8//// 91750 333 0//// 10273 20179 30/// 4//// 54/// 56///57/// 58012 60007 8//// 8//// 8//// 9//// 9//// 9//// 44
AAXX 10181 76762 32904 03601 10270 20220 38770 40154 58011 91735 33310272 20121 30/// 59004
AAXX 10181 76772 06/// /1402 10224 20060 38449 40136 58009 60002 7////8//// 91750 333 0//// 10234 20049 30/// 4//// 56/// 57///58011 60007 8//// 8//// 8//// 9//// 9//// 9//// 444 ////
AAXX 10181 76773 31968 10901 10228 20070 38447 40202 57005 7050/ 8000191745 333 10234 20050 30/// 56009 58013
AAXX 10181 76775 31568 12601 10229 20060 38584 40208 57017 70300 8120091745 333 10234 20092 30/// 56800 59010 81827
AAXX 10181 76776 06/// /3401 10232 20062 38529 40128 58022 60002 7////8//// 91750 333 0//// 10237 20066 30/// 4//// 56/// 57///58011 60007 8//// 8//// 8//// 9//// 9//// 9//// 444 ////
AAXX 10181 76805 32570 11701 10307 20242 30144 40148 53004 81200 91745333 10316 20220 30/// 563// 58010 81824
AAXX 10181 76806 06/// /1801 10305 20221 30142 40146 58008 60002 7////8//// 91750 333 10314 20215 30/// 56/// 57/// 58007 600078//// 8//// 8//// 8//// 9//// 9//// 9//// 555 30274
AAXX 10181 76833 32960 03612 10280 20153 30147 40149 57005 91745 33310280 20236 30/// 58012 92002
AAXX 10181 76840 32150 10310 10280 20171 30085 40140 57014 81200 91740333 10287 20205 30/// 568// 58008 81827
AAXX 10181 76843 32565 60804 10230 20150 39530 40178 55007 84630 91745333 10244 20164 30/// 568// 58019 84824
AAXX 10181 76845 32460 50503 10168 20122 37966 40179 56011 85600 91750333 20105 30/// 56200 58008 85720
AAXX 10181 76848 32670 20502 10210 20111 38400 40124 56012 82200 91750333 20215 20121 30/// 56100 58004 82841 98908
AAXX 10181 76902 06/// /1802 10329 20200 39992 40127 58018 60002 7////8//// 91750 333 0//// 10329 20221 30/// 4//// 54/// 56///57/// 59002 60007 8//// 8//// 8//// 8//// 9//// 9//// 9/
AAXX 10181 76903 31680 12101 10330 20251 39994 40124 57018 70300 8110091745 333 10332 20217 30/// 56100 58005 81833
AAXX 10181 76160 32962 00401 20028 39931 40182 54000 91730 333 2011030/// 59017
AAXX 10181 76243 11372 83608 10074 20058 30035 40340 52022 60031 75165884// 91730 333 10130 20060 31/// 568// 58093 88609
AAXX 10181 76253 32782 20502 10200 20090 30098 40188 55009 82020 91759333 10205 20135 30/// 56050 59021 82457 92002
AAXX 10181 76311 32580 40000 10195 20132 39898 40180 51004 84200 91745333 10200 20132 30/// 56600 58000 84820
AAXX 10181 76405 32980 73603 10220 20136 30163 40185 54000 87010 91750333 10222 20180 30/// 56050 59013 87456
AAXX 10181 76412 31966 02201 10218 20119 30134 40179 52001 70544 91750333 10218 20118 30/// 59006
AAXX 10181 76640 31358 83202 10216 20194 30239 40251 52001 70544 8313/91740 333 10232 20170 30/// 5672/ 58027 83809 85340
AAXX 10181 76647 32770 10503 10284 20159 30171 40201 55009 81100 91750333 10285 20144 30/// 56100 58005 81850
AAXX 10181 76741 31465 60503 10246 20204 30174 40193 58006 70542 8423091735 333 10253 20145 30/// 561// 58023 84818
AAXX 10181 76855 32580 11301 10306 20235 30085 40134 51007 81200 91730333 10315 20206 30/// 56900 58010 81820 92000
AAXX 10181 33135 NIL
AAXX 10181 33317 11496 72502 10019 20011 39797 40138 58004 69962 71022 87500 333 10041 87616
AAXX 10181 33345 11996 72402 10028 20020 39932 40139 58003 60012 71062 87070 333 10044
AAXX 10181 33393 11111 81803 10008 20003 39754 40152 52002 60042 71042 886// 333 10045 88703
AAXX 10181 33506 31496 82304 10047 20037 39966 40163 57006 71022 886// 333 10050
AAXX 10181 33587 11562 80000 10030 20020 39887 40153 58002 69972 72582 889// 333 10053 88920
AAXX 10181 33631 11496 81001 10053 20048 30012 40156 53004 60062 72162 885// 333 10054 88616
AAXX 10181 33663 NIL
AAXX 10181 33658 32497 60000 10034 20019 39850 40152 52008 84630 333 10123 84711
AAXX 10181 33711 32997 71805 10045 20020 39951 40162 57002 87030 333 10060
AAXX 10181 33791 32497 82207 10062 20048 30021 40172 57005 8435/ 333 10073 84917
AAXX 10181 33837 32474 62304 10073 20023 30117 40169 57005 82630 333 10102
AAXX 10181 33924 32598 82107 10092 20046 30194 40206 57003 85901 333 10099
AAXX 10181 33946 32997 82205 10043 20015 30003 40227 57009 80001 333 10084
AAXX 10181 34300 32397 81709 10033 20018 39985 40179 57016 885// 333 10033 86709
AAXX 10181 34504 32497 82006 10048 20028 30009 40189 57007 886// 333 10048 88712
AAXX 10181 34519 32260 81806 10012 21005 39950 40231 57010 886// 333 10012 88706
AAXX 10181 34601 32660 72106 10052 20037 30066 40203 57010 87500 333 10052 87633
AAXX 10181 06407 12580 42605 10046 21007 30160 40167 52009 69902 82802 333 10072 82832 83070 91111 91208
AAXX 10181 06447 NIL
BBXX UFTA 10181 99851 71233 11996 80302 11344 21378 40074 58002 69932 77171 80007
AAXX 10184 91408 11473 80000 10246 20230 30044 40082 57025 60071 72582 82978 333 56999 70091 555 91018
AAXX 10184 91930 16/// ///// 10293 20242 69941
AAXX 10184 91943 36/// /0411 10265 20240 30136 40138 51022 333 10268 58010
AAXX 10184 89061 179// 00212 10039 21001 39704 49710 57021 69953 72376 333 91017 91117
AAXX 10184 43533 11460 70709 10285 20246 30107 40104 69901 70182 8223/ 333 58007 82817 87362
AAXX 10184 43555 11460 71109 10280 20252 30103 40106 69971 70282 82231 333 58008 82818 85078
AAXX 10184 43577 12465 19901 10263 20246 30107 40109 60001 81201 333 58002 81819
AAXX 10184 43588 12465 32705 10276 20249 30104 40106 60001 82932 333 58009 82818 81919
AAXX 10184 43599 11462 62904 10280 20250 30100 40102 69901 72582 8225/ 333 59005 82818 85362
AAXX 10184 70026 NIL
AAXX 10184 70133 NIL
AAXX 10184 70174 NIL
AAXX 10184 70200 NIL
AAXX 10184 70219 NIL
AAXX 10184 70231 NIL
AAXX 10184 70261 NIL
AAXX 10184 70267 NIL
AAXX 10184 70271 NIL
AAXX 10184 70273 NIL
AAXX 10184 70308 NIL
AAXX 10184 70316 NIL
AAXX 10184 70326 NIL
AAXX 10184 70340 NIL
AAXX 10184 70350 NIL
AAXX 10184 70361 NIL
AAXX 10184 70381 NIL
AAXX 10184 70398 NIL
AAXX 10184 70414 NIL
AAXX 10184 43533 11460 70709 10285 20246 30107 40104 69901 70182 8223/ 333 58007 82817 87362
AAXX 10184 43555 11460 71109 10280 20252 30103 40106 69971 70282 82231 333 58008 82818 85078
AAXX 10184 43577 12465 19901 10263 20246 30107 40109 60001 81201 333 58002 81819
AAXX 10184 43588 12465 32705 10276 20249 30104 40106 60001 82932 333 58009 82818 81919
AAXX 10184 43599 11462 62904 10280 20250 30100 40102 69901 72582 8225/ 333 59005 82818 85362
AAXX 10184 64550 32460 6//// 10264 20211 30/// 40/// 86900 333 10319 5//// 83815 81916 85620 94965 95835
AAXX 10184 64551 32460 40000 10276 20246 30047 40076 84900 333 10306 58002 84815 81926 94941 95831
AAXX 10184 64570 32560 50000 10259 20231 39582 40086 85502 333 10302 59001 84620 83075
AAXX 10184 03301 16581 /2312 10065 20032 30048 40122 57008 60002 91750 333 10068 82/25 84/60
AAXX 10184 03305 15583 /2322 10053 20009 39861 40125 57007 69902 91750 333 10055 87/23 90710 91132 91032
AAXX 10184 03313 16679 /2006 10047 20016 30031 40126 57003 60002 91750 333 10065 82/38 84/69
AAXX 10184 03316 15680 /2114 10061 20030 30110 40122 55000 69962 91750 333 10073 84/42 90710 91125
AAXX 10184 03318 16/// /2413 10070 20040 69942 91750 333 10077
AAXX 10184 03321 16679 /2307 10041 20017 30117 40129 56002 60002 91750 333 10059 553// 20000 82/44
AAXX 10184 03330 15966 /2208 10014 20012 39767 40136 53004 60042 91750 333 10036 85/69
AAXX 10184 03344 17457 /2309 10033 20015 39794 40115 53004 60032 741// 91750 333 10033 82/19 83/28
AAXX 10184 03346 16/// /2512 10029 20021 69922 91750 333 10036
AAXX 10184 03348 15676 /2308 10034 20016 30019 40128 53002 60032 91750 333 10055 55300 20000 85/40 86/72
AAXX 10184 03355 17678 /2408 10046 20019 30106 40117 53004 69922 723// 91750 333 10049 55300 20000 81/44 85/71
AAXX 10184 03373 16667 /2110 10027 20005 30056 40128 52007 69922 91750 333 10048 81/39
AAXX 10184 03379 16780 /2311 10018 20001 30058 40137 52006 69922 91750 333 10052 81/50
AAXX 10184 03382 15971 /2309 10033 20020 30104 40113 53006 69922 91750 333 10044 55300 20000 86/71
AAXX 10184 03385 46976 /2314 10032 20010 30112 40122 53007 91750 333 10045 86/68
AAXX 10184 03391 12782 52310 10025 20002 30126 40133 53007 60002 81502 91750 333 10050 81656 85073
AAXX 10184 03392 16966 /2311 10010 20001 30129 40133 53007 60002 91750 333 10044 8//99
AAXX 10184 03405 16582 /2422 10076 20036 30017 40133 58007 60002 91750 333 10076 553// 20000 82/23 87/61 90710 91127
AAXX 10184 03409 16/// /2303 10052 20017 69922 91750 333 10056 55300 2////
AAXX 10184 03410 16574 /2204 10034 20009 39693 40134 54000 60012 91750 333 10035 553// 20000 88/25
AAXX 10184 03469 15781 /2412 10022 20007 30135 40139 53009 60002 91750 333 10053 553// 20000 84/50
AAXX 10184 03488 15982 /2214 10019 20001 30108 40134 52008 69922 91750 333 10043 8//99
AAXX 10184 03503 17681 /1905 10049 20020 30063 40141 58002 69902 723// 91750 333 10070 83/32 85/41
AAXX 10184 03507 15580 /1903 10016 20005 39773 40153 58001 69982 91750 333 10037 82/25 86/69
AAXX 10184 03520 16973 /1001 10016 20001 30025 40150 52002 69922 91750 333 10054 553// 20000 86/71
AAXX 10184 03522 15682 /2202 10032 20011 30059 40154 51002 69922 91750 333 10071 81/35 84/44
AAXX 10184 03529 15672 /2106 10035 20013 30112 40156 51005 69922 91750 333 10058 83/47
AAXX 10184 03544 15678 /1904 10026 20002 30016 40149 51004 60002 91750 333 10041 553// 20000 83/43
AAXX 10184 03560 15780 /2406 10020 20001 30047 40153 52006 69922 91750 333 10048 553// 20000 81/50
AAXX 10184 03604 16584 /2508 10083 20043 30091 40145 58007 69942 91750 333 10083 83/25
AAXX 10184 03605 16674 /2610 10081 20046 30140 40149 58006 69922 91750 333 10085 84/44 84/71
AAXX 10184 03609 16/// /2906 10072 20029 30105 40158 58002 60002 91750 333 10088
AAXX 10184 03628 15970 /1905 10040 20024 30085 40158 50003 69922 91750 333 10068 55300 20000 82/70
AAXX 10184 03647 16962 /2310 10015 20009 39894 40155 51003 69922 91750 333 10050 553// 20000 81/69
AAXX 10184 03658 16974 /2105 10019 20003 30092 40164 53006 69922 91750 333 10061 81/65
AAXX 10184 03660 15975 /2502 10019 20001 39910 40164 53005 69922 91750 333 10051 81/65
AAXX 10184 03672 16980 /2406 10032 21004 30123 40164 53006 69922 91750 333 10063 82/65
AAXX 10184 03684 15972 /2207 10010 21011 30048 40157 52009 60002 91750 333 10048 8//99
AAXX 10184 03693 16975 /2407 10039 20002 30158 40161 51007 60002 91750 333 10067 8//99
AAXX 10184 03707 17684 /2209 10072 20046 30151 40159 58002 69902 723// 91750 333 10089 81/47 84/65
AAXX 10184 03710 16676 /2105 10030 20030 39737 40164 50000 69982 91750 333 10054 553// 20000 82/33 86/64
AAXX 10184 03743 16680 /2403 10035 20017 30005 40170 53005 69922 91750 333 10046 87/35 84/46
AAXX 10184 03749 16672 /2701 10031 20013 30058 40171 53006 69922 91750 333 10051 82/38 87/46
AAXX 10184 03761 12770 22205 10020 20003 30022 40170 53006 60002 81530 91750 333 10055 55300 20000 81650
AAXX 10184 03768 16966 /2504 10020 21002 30087 40169 52006 60002 91750 333 10061 81/65
AAXX 10184 03769 15970 /2304 10025 21002 30083 40167 51006 69922 91750 333 10065 55300 20000 87/65
AAXX 10184 03770 16/// ///// 10036 20005 69922 91750 333 10074
AAXX 10184 03781 15981 /2106 10026 21005 39956 40168 51006 60002 91750 333 10051 553// 20000 88/65
AAXX 10184 03797 15970 /2207 10010 21019 30104 40166 51009 60002 91750 333 10058 55300 20000 8//99
AAXX 10184 03823 17580 /2308 10049 20035 39921 40168 58001 69942 757// 91750 333 10074 553// 20000 84/29 84/37 86/65
AAXX 10184 03839 16/// ///// 10057 20039 60002 91750 333 10080 553// 20000
AAXX 10184 03857 15583 /2815 10083 20023 30107 40171 52003 60002 91750 333 10086 81/29 84/38 87/65
AAXX 10184 03862 15767 /1001 10027 20011 30160 40172 53005 69922 91750 333 10071 55300 20000 86/50 87/65
AAXX 10184 03866 16/// /3005 10069 20017 30146 40170 53006 60002 91750 333 10083
AAXX 10184 03872 17779 /2504 10048 20024 30165 40170 51006 69922 723// 91750 333 10071 553// 20000 83/50 88/65
AAXX 10184 03876 16/// /2804 10007 21010 30169 40172 52006 60002 91750 333 10071
AAXX 10184 03895 41585 31504 10053 20032 40183 51002 70181 82872 333 10105 81826
AAXX 10181 14648 11565 82301 10109 20103 30080 40200 53003 60052 76062 8472/ 333 10117 84723 88459
AAXX 10181 14652 11/00 92024 11004 21006 37909 48470 58008 60002 74544 333 11001 44016 89///
AAXX 10181 14542 11665 82302 10130 20066 39985 40172 53006 69911 76122 8802/ 333 10165 88547
AAXX 10184 03008 16/// /2714 10045 21006 39939 40008 51004 60012 91750 333 10051
AAXX 10184 03010 46/// /1813 10055 20007 40011 57022
AAXX 10184 03014 46/// /2920 10026 20002 39980 40007 53003 91750 333 8////
AAXX 10184 03031 17483 /1006 10002 21024 39701 40032 56024 69902 724// 91750 333 10007 553// 20000 88/17
AAXX 10184 03034 17584 /1509 10045 20015 39993 40007 56036 69922 723// 91750 333 10047 83/21 84/27 86/50
AAXX 10184 03037 17450 /2008 10049 20039 39993 40015 58034 60012 704// 91750 333 10050 81/13 87/18
AAXX 10184 03039 46/// /1925 11003 21003 91750 333 11003 90710 91138 91038
AAXX 10184 03041 46/// ///// 11018 21018 91750 333 11017 91000
AAXX 10184 03044 17684 /0104 10015 21028 39920 40020 57024 69922 721// 91750 333 10030 553// 20000 88/46
AAXX 10184 03047 16/// /1605 10011 21001 3//// 4//// 5//// 60002 91750 333 10012 553// 20000
AAXX 10184 03062 17763 /1806 10005 21019 30028 40033 58018 69922 721// 91750 333 10009 553// 20000 88/50
AAXX 10184 03065 46/// ///// 11043 21048 91750 333 11043 91000
AAXX 10184 03068 12980 81705 11001 21030 30029 40038 58016 69902 87071 91750 333 10010 85358 87362
AAXX 10184 03072 46/// /2316 11054 21057 91750 333 11021 90710 91125
AAXX 10184 03080 15883 /1403 11017 21042 39881 40056 58009 60002 91750 333 10007 88/57
AAXX 10184 03088 15784 /2402 10004 21033 39894 40061 56005 60002 91750 333 10029 553// 20000 81/56 88/58
AAXX 10184 03094 15783 /2108 10008 21045 30037 40042 58006 69902 91750 333 10041 81/56 84/61 85/74
AAXX 10184 03105 17672 /1813 10058 20040 30036 40053 57019 60022 781// 91750 333 10073 85/30 84/50
AAXX 10184 03132 15681 /2214 10064 20041 30070 40084 58011 60002 91750 333 10064 81/43 87/56
AAXX 10184 03144 17362 /2101 10008 21008 30023 40067 57009 69902 741// 91750 333 10021 553// 20000 85/06 87/14
AAXX 10184 03148 46/// /1913 10001 20001 91750 333 10003
AAXX 10184 03153 15480 /2414 10059 20031 39947 40085 58006 60002 91750 333 10059 553// 20000 83/16 87/56
AAXX 10184 03155 16482 /2013 10028 20028 39774 40075 57005 60012 91750 333 10034 83/12 85/19
AAXX 10184 03158 15483 /2304 10004 20001 39937 40077 58002 60022 91750 333 10017 553// 20000 81/19 87/59
AAXX 10184 03210 16473 /2212 10055 20026 39949 40102 57002 60002 91750 333 10059 86/17 85/57 85/59
AAXX 10184 03212 17582 /2505 10055 20023 30002 40101 53001 69982 781// 91750 333 10059 82/25 85/35
AAXX 10184 03214 15579 /2511 10068 20034 30090 40108 55000 60002 91750 333 10074 81/23 86/38
AAXX 10184 03220 16164 ///// 10045 20034 30057 40092 57002 69922 91750 333 10059 81/02 83/20 85/50
AAXX 10184 03224 15372 /2512 10023 20018 39742 40092 54000 69922 91750 333 10026 87/07 86/57
AAXX 10184 03225 16470 /2410 10029 20012 39797 40107 53003 60022 91750 333 10039 553// 20000 81/19 86/24 86/37
AAXX 10184 03226 17581 /2506 10030 20019 39824 40103 53005 69922 723// 91750 333 10054 81/21 87/28
AAXX 10184 03227 46/// /2428 11012 2//// 91750 333 11009 90710 91137
AAXX 10184 03230 16474 /2704 10027 20017 39830 40090 54000 69922 91750 333 10032 81/10 87/58 85/63
AAXX 10184 03238 15480 /2710 10036 20017 39912 40087 54000 69942 91750 333 10041 85/14 83/40
AAXX 10184 03261 16971 /2509 10021 20006 30072 40113 51007 69922 91750 333 10049 82/61
AAXX 10184 03265 15976 /1703 10006 21005 30080 40112 52004 69922 91750 333 10055 86/61
AAXX 10184 03266 16980 /2208 10041 20018 30095 40112 52004 69922 91750 333 10047 86/72
AAXX 10184 03275 15975 /2410 10022 20000 39903 40099 52002 60002 91750 333 10054 8//99
AAXX 10184 03281 16/// /2310 11002 21003 69922 91750 333 10037
AAXX 10184 03903 16258 /1610 10051 20047 30010 40068 57024 69962 91750 333 10052 553// 20000 87/05
AAXX 10184 03904 17456 /1808 10052 20038 30000 40060 57019 60012 751// 91750 333 10056 82/13 84/18 85/58
AAXX 10184 03907 15/84 /2013 10056 20032 30046 40053 58022 69902 91750 333 10056 55300 20000
AAXX 10184 03911 16157 /1709 10035 20031 39799 40075 57015 69962 91750 333 10038 87/02
AAXX 10184 03915 16364 /1612 10039 20039 39989 40068 57017 69942 91750 333 10039 88/06
AAXX 10184 03916 16779 /2112 10035 20026 39870 40061 57022 60052 91750 333 10037 553// 20000 88/50 90710 91125 91023
AAXX 10184 03923 17257 /2110 10034 20028 39882 40080 58015 69922 721// 91750 333 10034 88/03
BBXX 41046 10181 99238 70683 46/// /0707 10250 20195 40161 57022 91750 22200 00260 10905 20604 300// 40904 70025 333 91209 555 11077 22081 31702 40914 61749 069074 072089 068077 068073 081097 079075 80912 91703
BBXX 42363 10181 99282 70892 46/// /0412 10156 20044 40278 58007 91800 333 91212
BBXX 42364 10181 99291 70881 46/// /0212 10144 20044 40275 58010 91800
BBXX 44011 10181 99411 70666 46/// /1604 10118 20109 40182 58013 91750 22200 00104 10603 20401 3//// 40603 70014 333 91205 555 11046 22053 31748 43305 61749 155040 157036 146035 145032 146030 146029
BBXX 41041 10181 99142 70460 46/// /1207 10273 20231 40113 56020 91750 22200 00269 10903 20502 3//// 40902 70016 333 91209 555 11079 22084 31715 41109 61749 115074 116073 115072 112075 117070 116073 81208 91745
AAXX 10184 78526 NIL
AAXX 10184 78543 NIL
AAXX 10181 26554 12965 72306 10013 21019 39876 40040 52012 69942 8703/ 333 10019 91010 91111
AAXX 10181 26666 11660 72203 10009 21030 39848 40073 52008 60012 70272 87500 333 10016 87636
AAXX 10181 26850 32560 52302 10008 21025 39807 40082 52004 82530 333 10019
AAXX 10181 26863 12960 72104 10001 21017 39849 40088 52008 60022 87030 333 10017
AAXX 10181 26941 32960 62102 10004 21013 39857 40097 52004 86030 333 10022
AAXX 10181 26951 32964 62304 10005 21018 39899 40101 52007 86030 333 10035
AAXX 10181 33008 11458 72403 10019 21003 39931 40111 52003 69902 72681 87300 333 10036
AAXX 10181 33019 32660 71902 10026 21010 39938 40114 52006 875// 333 10040 87644
AAXX 10181 33036 11959 22202 10004 21005 39883 40118 52003 60012 71011 80001 333 10022
AAXX 10181 33041 11456 72201 10012 20007 39960 40117 52004 60032 71072 886// 333 10016 88711
AAXX 10184 78255 42559 40806 10263 20206 30004 40153 57020 84502 333 10212 20265 84618
AAXX 10184 78317 NIL
AAXX 10184 78318 NIL
AAXX 10184 78325 NIL
AAXX 10184 78333 NIL
AAXX 10184 78338 NIL
AAXX 10184 78348 NIL
AAXX 10184 78349 NIL
AAXX 10184 78353 NIL
AAXX 10184 78360 NIL
AAXX 10184 78367 NIL
AAXX 10184 78369 NIL
AAXX 10184 91165 NIL
AAXX 10184 91182 NIL
AAXX 10184 91190 NIL
AAXX 10184 91212 NIL
AAXX 10184 91217 NIL
AAXX 10184 91285 NIL
AAXX 10184 91317 NIL
AAXX 10184 91334 32474 60512 10278 20231 30069 40072 55012 82271 333 56399 70018 555 91018
AAXX 10184 91348 NIL
AAXX 10184 91356 NIL
AAXX 10184 91366 NIL
AAXX 10184 91369 NIL
AAXX 10184 91371 NIL
AAXX 10184 91376 32474 81207 10266 20226 30085 40088 53003 8587/ 333 56399 70450 555 91018
AAXX 10184 91408 NIL
AAXX 10184 91413 32469 59906 10274 20243 30068 40093 58012 82271 333 56999 555 91018
AAXX 10184 91425 NIL
AAXX 10184 91434 NIL
AAXX 10184 91765 NIL
AAXX 10184 91222 NIL
AAXX 10184 91245 NIL
AAXX 10184 91323 NIL
AAXX 10184 91339 NIL
AAXX 10184 91343 NIL
AAXX 10184 91353 NIL
AAXX 10184 91442 NIL
AAXX 10184 48352 32660 81106 10168 20086 39987 40195 57005 84536 333 58023
AAXX 10184 48450 31957 00000 10220 20171 30110 40144 51008 71000 333 58017
AAXX 10184 48304 01560 80000 10199 20183 39694 40162 51000 69903 70261 8655/ 333 58029 69907 79999
AAXX 10184 48387 31558 21004 10170 20153 39188 40162 52000 71000 81505 333 58012
AAXX 10181 37682 32997 33601 11053 21060 38121 48524 52006 83040 333 11010
AAXX 10181 37717 115// 83204 11034 21045 38090 48519 52010 69960 70282 8653/ 333 11005
AAXX 10181 37788 11493 80000 10000 21012 39247 40276 52014 60030 74374 333 10026
AAXX 10181 26509 11450 82309 10015 20007 39991 40000 52001 60042 78582 889// 333 10058 91016 91122 555 53022
AAXX 10181 26518 11450 72306 11003 21003 40012 52002 60082 78598 86902 333 10017 86912 91011 91115 555 4/017 53016
AAXX 10181 26524 11496 82105 10004 20001 39869 40002 51003 60022 78382 883// 333 10022 88712 91010 91112 555 4/002 53013
AAXX 10181 26531 32970 62105 10009 21002 40007 52009 86050 333 10027 91012 91114 555 53014
AAXX 10181 26629 32797 62206 10010 21013 39947 40043 52001 86500 333 10031 91009 91114 555 53014
AAXX 10181 26633 32770 62204 10018 21023 39901 40032 51007 86500 333 10033 86650 91009 91112 555 53012
AAXX 10181 26730 12470 32105 11007 21020 39867 40061 52006 69902 83600 333 10017 91008 91108 555 53011
AAXX 10181 11812 36/// /2906 10021 20007 39460 42766 52010 333 10033
AAXX 10181 11813 11665 79901 10041 20029 39817 40170 52011 69902 70266 84570 333 10058 84640 87458
AAXX 10181 11816 11758 72401 10047 20037 30003 40168 52011 69912 71062 8357/ 333 10063 83650 86357
AAXX 10181 11819 16/// /9901 10034 20028 39948 40168 52009 69942 333 10048
AAXX 10181 11826 11740 71501 10033 20024 39963 40166 52011 60002 71022 83540 333 10050 83656 87357
AAXX 10181 11841 11438 70000 10002 21006 39781 40166 53008 60002 71011 83570 333 10043 83617 86360
AAXX 10181 11855 11762 70000 10042 20033 30001 40169 52009 69902 70262 875// 333 10063 87650
AAXX 10181 11856 36/// /2601 10035 20011 39846 40169 52011 333 10049
AAXX 10181 11858 11570 80000 10040 20031 30017 40171 52012 69912 70262 885// 333 10060 88630
AAXX 10181 11867 11457 69901 10011 21005 39847 40171 52009 69912 71066 86500 333 10047 83618 86650
AAXX 10181 11880 11520 80000 10040 20033 39994 40168 52010 69922 76122 885// 333 10060 88623
AAXX 10181 11900 16/// /0401 10003 21003 39826 40169 52007 69902 333 10036
AAXX 10181 11903 12960 20000 11002 21005 39777 40168 52007 60002 82040 333 10028 82359
AAXX 10181 11916 11082 73007 11082 21095 37887 48407 50000 69982 70244 875// 333 11023 48/// 87601 91018 91125 93598
AAXX 10181 11918 12782 62605 11005 21029 39320 42754 53006 69912 86500 333 10021 42004 86656
AAXX 10181 11927 11758 60000 10036 20016 39896 40161 52013 60002 71022 83540 333 10048 83650 86359
AAXX 10181 11930 11589 22308 11122 21174 37277 47939 54000 60082 70274 82040 333 11060 48041 82330 91013 93520 444 36243
AAXX 10181 11933 12581 32603 11044 21073 38606 48423 51004 69922 83540 333 10001 44042 83626
AAXX 10181 11934 12782 12902 11019 21056 39315 42752 51010 60002 81540 333 10036 41998 81656
AAXX 10181 11938 11/05 92201 11021 21026 39072 42750 50008 69932 74771 333 10012 44010 89/00
AAXX 10181 11952 16/// /0000 11003 21053 39307 42753 52009 60002 333 10039
AAXX 10181 11958 36/// /2503 11019 21026 38699 48433 52006 333 10017
AAXX 10181 11968 11456 70000 10018 20003 39866 40152 52003 69902 71066 87500 333 10028 84710 87657
AAXX 10181 11976 11456 80000 10030 20018 39887 40154 52007 69912 71022 886// 333 10038 88710
AAXX 10181 11978 11357 80000 10029 20023 30019 40151 52007 69962 71066 886// 333 10037 88709
AAXX 10181 11993 11415 89901 10028 20025 39935 40155 52004 60022 71066 885// 333 10051 82710 88643
AAXX 10181 14528 NIL
AAXX 10181 14537 NIL
AAXX 10181 14544 NIL
AAXX 10181 14557 12960 40501 10104 20058 39815 40180 52005 60002 84030 333 84360
AAXX 10181 14640 NIL
BBXX 46089 10181 99459 71258 46/// /3406 10080 20054 40225 52003 91750 22200 00097 11605 20501 330// 41605 70024 333 91207 555 11061 22064 31747 43407 61749 343055 357050 355054 000051 008059 005058
BBXX 46042 10181 99368 71224 46/// /0604 10110 40207 52005 91750 22200 00116 11703 20301 330// 41703 70017 333 91205 555 11046 22048 31702 40606 61749 059044 066044 060044 061048 061050 057051
AAXX 10184 91408 11473 80000 10246 20230 30044 40082 57025 60071 72582 82978 333 56999 70091 555 91018
BBXX 44060 10181 99413 70721 46/// ///07 10056 91800 22200 00109 333 91209 555 11072 22077
BBXX 44008 10181 99405 70692 46/// /3312 10080 20055 40206 53003 91750 22200 00133 10503 20503 314// 41001 70015 333 91215 555 11128 22135 31749 43315 61749 330120 331117 333121 330114 339117 338108
BBXX 44022 10181 99409 70737 46/// ///07 10050 21036 91800 22200 00100 333 91209 555 11072 22072
BBXX 46083 10181 99582 71380 46/// /3205 10042 20035 40171 53025 91750 22200 00065 10904 20401 300// 40904 70020 333 91206 555 11052 22055 31722 43007 61749 316050 309049 307051 311049 311051 310050 83106 91713
BBXX 51000 10181 99235 71541 46/// /0712 10224 40195 53007 91750 22200 00234 10807 20806 334// 41504 70034 333 91216 555 11130 22139 31748 40716 61749 066118 065114 065112 065115 065113 073097
BBXX 51003 10181 99193 71606 46/// /0411 10243 40164 53012 91750 22200 00256 10805 20604 3//// 40803 70026 333 91212 555 11112 22118 31740 40312 61749 037105 040105 042103 046101 040098 042098
AAXX 10184 13600 NIL
AAXX 10184 13610 NIL
AAXX 10184 13611 11560 81420 10132 20104 30102 40192 57007 60002 70288 883// 333 10150 84923 84633
AAXX 10184 13619 NIL
AAXX 10184 13622 NIL
AAXX 10184 13624 12660 83602 10100 20078 30183 40222 52006 69942 885// 333 10136 88643
AAXX 10184 13625 NIL
AAXX 10184 13629 12662 81404 10082 20082 39165 42813 54000 60002 885// 333 10106 88640
AAXX 10184 13601 12660 70000 10136 20102 30097 40197 54002 69982 84550 333 10160 84636 83360
AAXX 10184 13602 NIL
AAXX 10184 13623 11660 80000 10092 20089 30209 40215 57010 60052 70266 885// 333 10120 88640
AAXX 10184 71805 02665 82021 10055 20010 30222 40231 56024 60002 8153/ 333 10056 20039 60007 81640 87361 90710 91132 93100 555 60005
BBXX WBS5272 10184 99455 70839 41/98 82220 11027 2//// 40312 57002 70222 8//// 22272 0//// 20202 3//// 4//// 5//// 6//// 8//// ICE /////
BBXX KAOU 10184 99073 10981 43/// /0621 10273 20233 40091 5//// 7//// 8//// 222// 04323 2//// 3//// 4//// 5//// 6//// 8//// ICE /////
BBXX NWS0003 10184 99627 71675 43/// /1346 11004 21009 49764 5//// 7//// 8//// 222// 05016 2//// 3//// 4//// 5//// 6//// 8//// ICE /////
BBXX NWS0029 10184 99174 70245 43/// /1014 10239 20169 40137 5//// 7//// 8//// 222// 04250 2//// 3//// 4//// 5//// 6//// 8//// ICE /////
BBXX NWS0020 10184 99379 10236 43/// /2301 10139 20087 40247 5//// 7//// 8//// 222// 04187 2//// 3//// 4//// 5//// 6//// 8//// ICE /////
BBXX C6XC2 10184 99170 11278 41498 61117 10260 20246 40090 57030 70122 8537/ 22244 00280 2//// 3//// 4//// 5//// 6//// 80250 ICE /////
BBXX A8TG2 10183 99284 71250 41598 80110 10170 20094 40210 54000 70222 8547/ 22224 20204 301// 40204 5//// 80130
BBXX WDF5483 10184 99442 70828 43/96 62520 11016 2//// 40254 5//// 7//// 8//// 22282 0//// 2//01 3//// 4//// 5//// 6//// 8//// ICE /////
BBXX WXJ63 10183 99611 71464 41/97 13404 11056 21066 40181 5//// 702// 8//// 222// 00051 2//// 3//// 4//// 5//// 6//// 8//// ICE /////
BBXX C6SW3 10184 99295 10349 41898 00713 10180 20180 40240 51010 7//00 80000 22200 00150 20101 3//// 4//// 5//// 6//// 80180 ICE /////
BBXX WKAE 10183 99489 70195 41598 82919 10112 20052 40165 56010 70222 888// 22224 00120 2//// 3//// 4//// 5//// 6//// 80082 ICE /////
BBXX C6XC6 10184 99342 70118 41597 73115 10170 2//// 40220 53/// 71822 873// 22253 00190 2//// 3//// 4//// 5//// 6//// 8//// ICE /////
BBXX 9HA2583 10184 99303 70693 41498 31108 1//// 2//// 40240 51/// 7//22 83175 22284 0//// 2//// 3//// 4//// 5//// 6//// 8//// ICE /////
BBXX 3ECJ7 10184 99244 10596 415// 70713 10270 20197 40150 54000 7//// 8//88 22275 0//// 20101 3//// 40101 5//// 6//// 80220 ICE /////
AAXX 10184 16045 NIL
AAXX 10184 16090 11750 60000 10080 20077 30093 40176 53004 60002 71022 86030 333 10110 82356 85357
AAXX 10184 16149 11618 81102 10080 20073 30152 40168 56001 60002 71022 8457/ 333 10120 84640 84357
AAXX 10184 16261 NIL
AAXX 10184 16453 12597 52310 10174 20141 30148 40226 54000 60002 83430 333 10190 55300 83622 85359 555 0200/
AAXX 10184 16560 11159 82101 10134 20102 30185 40192 53006 60002 71022 8467/ 333 10168 55300 82702 83356
BBXX UCSJ 10181 99685 10393 41/96 91614 11021 40042 56030 78682 89/// 22221 20403
BBXX UCKG 10181 99553 10067 41/97 92917 10040 40060 52005 70222 22272 00100 20606 33100 40608
BBXX OWFD2 10181 99382 70097 41597 73112 10185 20153 40190 50150 75055 8/9// 22284 04170 20402 331// 41205 80165
BBXX PDYI 10183 99416 10039 41/98 /3403 10173 20117 40165 53005 702// 8//// 22263 20200 32300 40401 5//// 80140
BBXX PEBT 10183 99374 10243 41997 12215 10150 20119 40250 54000 7//00 80005 22253 02120 20401 300// 40000 5//// 80132
BBXX A8RL3 10181 99165 30711 41392 30907 10260 40100 52000 70200 834// 22213 00280 2//02 3//// 4//04 5////
BBXX PCDE 10183 99399 30714 41297 40102 10160 20127 40240 54000 7//// 847// 22223 20401 80140
BBXX PCQL 10183 99016 11193 41898 51907 10280 20239 40080 56011 70322 85//9 22283 04282 299// 30000 80250
BBXX DBLK 10181 99524 30000 41398 72507 10012 20008 40032 51003 70254 878// 22243 04014 20301 325// 40905
AAXX 10184 16021 NIL
AAXX 10184 16022 NIL
AAXX 10184 16033 12565 72403 10014 21010 38775 48481 53021 60002 87500 333 10028 43006 87630 92822
AAXX 10184 16040 12565 52705 10066 20044 39241 42770 53007 60002 85200 333 10092 85830
AAXX 10184 16052 12970 00607 11066 21217 36602 47028 53003 60002 333 11050 49999
AAXX 10184 16061 12980 10000 10078 20058 39327 42778 53007 60002 80001 333 10094
AAXX 10184 16098 11856 50000 10064 20044 30122 40174 53007 60002 71022 85030 333 10106 85357
AAXX 10184 16138 11715 50000 10070 20063 30162 40173 53004 60002 71022 85030 333 10086 85356
AAXX 10184 16148 11725 72103 10082 20074 30162 40175 53006 60002 71022 87500 333 10098 87650
AAXX 10184 16168 11/00 91716 10108 20100 39438 42798 56001 60002 74544 333 10122 89/00
AAXX 10184 16172 12563 62006 10130 20098 39890 40187 53005 60002 85820 333 10160 83823
AAXX 10184 16179 11558 81910 10120 20083 39500 42796 53008 69922 76062 8527/ 333 10132 85820 83357
AAXX 10184 16224 11457 61606 10124 20105 39864 40181 53004 69942 71062 83101 333 10148 83815
AAXX 10184 16232 12698 61908 10170 20065 30124 40177 53000 60002 82535 333 10178 82633 84358 555 0////
AAXX 10184 16245 12460 80808 10154 20136 30160 40186 53002 60002 8583/ 333 10182 82811 83625 85356
AAXX 10184 16253 11565 70703 10134 20113 30189 40201 53002 69922 70262 81170 333 10178 81820 85357
AAXX 10184 16258 12970 62212 10094 20077 39203 42806 52002 60002 86070 333 10096 86359
AAXX 10184 16263 12870 82316 10074 20062 38941 48507 55000 60002 84037 333 10092 84357
AAXX 10184 16294 12597 52106 10150 20102 30013 40205 56002 60002 85500 333 10170 85620 555 0////
AAXX 10184 16337 12898 60000 10124 20058 39640 40210 54000 60002 86010 333 10150 86458 555 0////
AAXX 10184 16344 12760 83007 10050 21014 38350 48531 54000 60002 8807/ 333 10060 88356 95000 95100
AAXX 10184 16434 12160 61805 10094 20061 39016 48520 53006 60002 82270 333 10120 82802 85360 95010 95100
AAXX 10184 16450 11160 72208 10110 20110 39124 48589 51003 60002 72842 87600 333 10120 84703 84806
AAXX 10184 16459 12560 72607 10152 20146 30193 40228 51004 60002 82235 333 10210 82820 84358
AAXX 10184 16546 NIL
AAXX 10184 16564 NIL
AAXX 10184 13619 11660 70000 10078 20069 39454 42836 54000 60012 70252 87500 333 10086 87633
AAXX 10184 13610 12660 52210 10108 20065 39785 40208 57009 60012 85500 333 10126 85646
BBXX C6VF5 10184 99231 10595 41997 00110 10220 2016/ 40180 5//// 7//00 80000 22274 00250 2//// 3//// 4//// 5//// 6//// 80180 ICE /////
BBXX ONDY 10184 99000 10080 41799 32112 10260 2022/ 40100 52010 70100 836// 22282 00280 2//// 3//// 4//// 5//// 6//// 80230 ICE /////
BBXX 3ECJ7 10184 99244 10596 415// 70713 10270 20197 40150 54000 7//// 8//88 22275 0//// 20101 3//// 40101 5//// 6//// 80220 ICE /////
BBXX C6SW3 10184 99295 10349 41898 00713 10180 20180 40240 51010 7//00 80000 22200 00150 20101 3//// 4//// 5//// 6//// 80180 ICE /////
BBXX WAHV 10184 99212 10380 41797 53520 10230 2022/ 40152 52007 70500 8313/ 22245 00265 20901 334// 4//// 5//// 6//// 80225 ICE /////
BBXX BATFR08 10184 99480 30596 46/// /2025 10034 21021 40177 51011 22223 00064
BBXX BATFR19 10184 99003 10095 46/// /2316 10270 20242 40083 53014 22200 00292
BBXX BATFR55 10184 99077 30413 44598 60216 10287 20254 40099 70322 84142 22222 00287 209// 31111 412// 512//
BBXX BATFR05 10184 99053 70002 46/// /2008 10289 20244 40089 53011 22200 00259
BBXX V7PW3 10183 99217 10376 41/97 /3330 10235 20212 40165 57010 7//22 8//// 22244 00240 20305 80220
BBXX DBRE 10184 99044 50355 41497 41014 10273 20233 40115 56010 70311 83465 22273 04281 20601 80244
BBXX A8DE3 10183 99374 50739 41498 22109 10200 20146 40251 52013 70200 81460 22282 00160 20201 322// 41006 80166
BBXX C6YA7 10184 99280 11748 41598 32310 10220 2019/ 40190 54000 70200 832// 22253 0//// 2//// 3//// 4//// 5//// 6//// 80200 ICE /////
BBXX WCX8882 10184 99551 11721 43/// ///// 1//// 2//// 4//// 5//// 7//// 8//// 22211 0//// 2//// 3//// 4//// 5//// 6//// ICE /////
BBXX S6AJ8 10184 99195 11201 41697 80544 10230 2020/ 40120 54000 78082 8866/ 22212 0//// 21012 39999 41012 5//// 6//// 80210 ICE /////
BBXX TBWUK36 10183 99229 11225 41397 80435 10200 20167 40146 52020 75152 887// 22213 00260 20307 304// 40406 5//// 80180
BBXX C6SI6 10184 99457 11525 46/// /2327 11005 21013 40063 50009 7//// 8//// 22253 0//// 2////
BBXX 3FZK3 10184 99476 11569 46/// /2419 11001 21021 40036 58014 7//// 8//// 22213 0//// 2////
BBXX C6XC2 10184 99170 11278 41498 61117 10260 20246 40090 57030 70122 8537/ 22244 00280 2//// 3//// 4//// 5//// 6//// 80250 ICE /////
BBXX SHIP 10184 99061 10962 41798 70920 10275 2025/ 40115 58010 70222 84208 22223 00380 20403 3//// 4//// 5//// 6//// 80255 ICE /////
BBXX ZCBZ5 10183 99061 10896 41696 50508 10286 20246 40100 53015 70222 83340 22264 02290 20201 304// 40302 5//// 80258
BBXX UFTA 10181 99851 71233 11996 80302 11344 21378 40074 58002 69932 77171 80007
BBXX YJUF7 10184 99444 70622 41597 82110 10069 2006/ 40188 58018 76186 885// 22262 00071 20301 318// 40803 80065
BBXX 9HA2583 10184 99303 70693 41498 31108 1//// 2//// 40240 51/// 7//22 83175 22284 0//// 2//// 3//// 4//// 5//// 6//// 8//// ICE /////
BBXX VCYL 10184 99505 70595 46/// /2514 10016 21000 40122 58025 7//// 8//// 22212 00027 2////
BBXX WGJT 10184 99220 70709 43698 60721 10261 2022/ 40138 57016 7//// 86400 22275 00261 20705 306// 40907 5//// 6//// 80233 ICE /////
BBXX C6VG7 10184 99234 70831 414// 80815 10250 2//// 40170 5/010 7//11 88/7/ 22214 0//// 20603 3//// 40603 50603 6//// 8//// ICE /////
BBXX WKWB 10184 99312 71194 41498 53215 10152 2011/ 40210 57210 70222 85100 22272 00159 20301 331// 41202 80127
BBXX WDF4764 10184 99412 71257 41397 80207 10111 2006/ 40220 54000 7//22 887// 22233 0//// 20101 334// 40604 5//// 6//// 80089 ICE /////
BBXX 4XFV 10183 99530 71741 43298 42336 10030 00/// 21035 49835 51005 70121 83/// 22254 0//// 20507 ///// 3//// 4//// 5//// 6//// 80005
BBXX PDBP 10183 99255 70865 41498 70515 10228 20153 40212 58025 70222 8613/ 22234 04259 20603 308// 40802 80180
BBXX WKPN 10184 99418 70456 41598 70514 10125 2007/ 40330 57010 70322 876// 22225 00213 20302 332// 40806 5//// 6//// 80097 ICE /////
BBXX VRZT9 10183 99291 70945 416// 60519 10170 2008/ 40310 51020 7//22 86272 22200 0//// 20804 3//// 40503 5//// 6//// 80120 ICE ////
BBXX VOXS 10184 99467 70480 41998 82019 10028 2002/ 40303 56025 70322 8801/ 22200 04028 20302 331// 41008 80024
BBXX 46238 10181 99334 71195 46/// ///// 1//// 91750 22200 00152 11803 20502 329// 41802 70014
BBXX 46239 10181 99363 71221 46/// ///// 1//// 91751 22200 00135 11804 20901 330// 41804 70020
BBXX CGCC 10184 99462 70728 46/// /2513 11031 21101 40244 58008 7//// 8//// 22211 00061 2////
BBXX 46214 10181 99379 71235 46/// ///// 1//// 91757 22200 00113 11704 20802 330// 41704 70021
BBXX 46219 10181 99332 71199 46/// ///// 1//// 91758 22200 00135 11804 20902 330// 41803 70020
BBXX 46224 10181 99332 71175 46/// ///// 1//// 91736 22200 00152 11801 21001 322// 41801 70006
BBXX 44099 10181 99369 70757 46/// ///// 1//// 91752 22200 00134 10603 20603 70015
BBXX 44039 10181 99411 70727 46/// /3306 10061 21021 91745 22200 00110 10301 70005 333 91208
BBXX 41113 10181 99284 70805 46/// ///// 1//// 91751 22200 00222 10602 20602 70009
BBXX 41110 10181 99341 70777 46/// ///// 1//// 91751 22200 00152 11102 20402 70009
BBXX 41112 10181 99307 70813 46/// ///// 1//// 91751 22200 00166 10503 20503 70014
BBXX 44100 10181 99363 70756 46/// ///// 1//// 91752 22200 00143 10705 20705 70023
BBXX 42099 10181 99273 70842 46/// ///// 1//// 91757 22200 00239 10603 20603 70014
BBXX 46218 10181 99345 71208 46/// ///// 1//// 91802 22200 00133 11703 20902 330// 41702 70016
BBXX 46225 10181 99329 71174 46/// ///// 1//// 91744 22200 00158 12001 21001 325// 42001 70007
BBXX 46213 10181 99403 71247 46/// ///// 1//// 91754 22200 00107 11704 20702 330// 41704 70021
BBXX 46229 10181 99438 71246 46/// ///// 1//// 91751 22200 00103 11704 20901 329// 41704 70021
BBXX 46236 10181 99368 71219 46/// ///// 1//// 91750 22200 00118 11703 20901 328// 41702 70013
BBXX 46243 10181 99462 71241 46/// ///// 1//// 91759 22200 00085 11703 20901 327// 41703 70014
BBXX 46215 10181 99352 71209 46/// ///// 1//// 91738 22200 00138 11802 20901 326// 41802 70011
BBXX 46232 10181 99325 71174 46/// ///// 1//// 91738 22200 00148 11802 21001 328// 41802 70009
BBXX 46247 10181 99378 71228 46/// ///// 1//// 91751 22200 00115 11703 20801 329// 41702 70014
BBXX 44097 10181 99410 70711 46/// ///// 1//// 91802 22200 00128 10402 20402 70011
BBXX CG2965 10184 99487 71235 46/// /2302 10030 20013 40218 53012 7//// 8//// 22200 0//// 2////
BBXX 44007 10181 99435 70701 46/// /3308 10054 21014 40208 55000 91750 22200 00089 10601 20301 3//// 40601 70006 333 91209 555 11080 22084 31725 43310 61749 332077 335079 334079 337073 331074 328074
BBXX 46041 10181 99474 71247 46/// /3203 10073 40211 52006 91750 22200 00087 11504 20401 3//// 41504 70022 333 91204 555 11032 22033 31735 43205 61749 321031 317035 323027 334023 355024 003026
BBXX 46026 10181 99378 71228 46/// /0905 10108 40209 53004 91750 22200 00113 11703 20301 329// 41703 70014 333 91206 555 11051 22053 31744 40906 61749 076048 299043 296044 300043 297044 295045
BBXX 41040 10181 99145 70530 46/// /1603 10276 20235 40102 56019 91750 22200 00285 10804 3//// 40804 70019 333 91203 555 11026 22027 31709 41604 61749 164026 163025 161027 165030 156031 160027 81704 91710
BBXX 46077 10181 99579 71543 46/// /0906 10036 21007 40126 57019 91750 22200 00048 10602 20601 3//// 40601 70008 333 91207 555 11063 22066 31650 41207 61749 086061 100058 122045 116038 104051 115060 81106 91656
BBXX 46035 10181 99571 71778 46/// /1914 1//// 49665 56012 91750 22200 11112 20606 300// 41110 70059 333 91218 555 11143 22153 31658 42021 61749 195144 194143 188148 193147 196157 195165 81919 91658
BBXX 42039 10181 99288 70860 46/// /0210 10159 40242 57009 91750 22200 00230 333 91213 555 11109 22114 31722 43613 61749 024103 021107 014107 010101 017105 018105 80212 91721
BBXX 46072 10181 99517 71722 46/// /2314 10037 21006 49908 52013 91750 22200 00054 10910 20706 3//// 40907 70048 333 91220 555 11154 22164 31653 42420 61749 235143 237126 240114 249123 252119 253141 82317 91748
BBXX 46082 10181 99597 71434 46/// ///// 10023 20023 40180 53015 91750 22200 00063 10804 70020
BBXX 46001 10181 99563 71480 46/// /2106 10045 40210 56008 91750 22200 00051 11105 20402 300// 41104 70025 333 91207 555 11064 22067 31747 42007 61749 205060 212055 211054 223051 224051 215036
BBXX VCRG 10184 99463 70623 46/// /3416 10043 20040 40176 58016 7//// 8//// 22252 00101 2////
BBXX A8TG2 10183 99284 71250 41598 80110 10170 20094 40210 54000 70222 8547/ 22224 20204 301// 40204 5//// 80130
BBXX BATEU01 10184 99464 70550 44497 71517 10052 20019 40234 56052 70222 85728 22264 00054 21004 327// 41004 5////
BBXX PHQX 10183 99366 70597 41498 61606 10230 20143 40255 70200 85462 22214 20603 313// 40804 5//// 80175
BBXX PHCQ 10183 99369 70716 41496 83617 10140 20119 40187 56012 76386 87770 22262 04243 20504 334// 41204 5//// 80128
BBXX BAREU54 10184 99184 70661 46/// ///// 40112 57020 22222
BBXX 44066 10181 99396 70726 46/// /3310 10084 20023 40233 58004 91750 22200 00134 10502 20502 70012 333 91211 555 11100 22105 31652 43513 61749 335095 331095 336090 335101 332098 340102
BBXX 41043 10181 99211 70650 46/// /0707 10260 20211 40141 58019 91750 22200 00270 10805 20703 300// 40804 70025 333 91209 555 11079 22083 31731 40709 61749 072075 070076 065070 064072 065070 064073 80708 91731
BBXX 41036 10181 99342 70770 46/// ///// 10118 20046 40251 50000 91750 22200 00168 10402 70012
BBXX A8SI3 10183 99540 71565 43/95 9//// 10040 2003/ 40070 57020 22224 00040 20509 80030
BBXX WSRL 10184 99462 71293 41298 73520 10105 2007/ 40222 57013 72052 862/9 22214 00094 2//// 328// 41607 5//// 6//// 80085 ICE /////
BBXX WDB9949 10184 99361 71319 41698 63611 10130 2009/ 40236 52003 71522 86461 22225 00140 20402 303// 40703 5//// 6//// 80110 ICE /////
BBXX SHIP 10184 99377 71776 41/97 /2227 10190 20183 40056 57020 70222 8//// 91755 22224 00175 1//// 2//// 3//// 4//// 5//// 6//// 80185
BBXX DGTX 10183 99358 71222 41297 62911 10130 20084 40210 54000 70211 867/8 22275 00140 20202 332// 40404 80105
BBXX DEDM 10184 99440 70577 41397 81318 10100 20081 40218 56040 75322 82720 22254 04090 20502 80090
BBXX 44020 10181 99414 70702 46/// /3107 10069 20014 40215 58006 91750 22200 00097 10301 20301 70004 333 91209 555 11077 22082 31739 42510 61749 300071 255073 257067 258070 258069 260068
BBXX 44040 10181 99410 70736 46/// /3607 10055 21010 91745 22200 10201 70003 333 91209 555 11082 22093
BBXX 42012 10181 99301 70876 46/// /0110 10108 20028 40273 58008 91750 22200 00192 10502 20502 70011 333 91212 555 11110 22114 31747 43612 61749 014102 015099 020098 020099 020096 022100
BBXX 42003 10181 99260 70856 46/// /0309 1//// 91750 22200 10703 20703 70017 333 91211 555 11097 22104 31655 40113 61749 028091 021094 024092 022095 020098 020100 80211 91655
BBXX 41047 10181 99275 70715 46/// /1303 10232 40204 58019 91750 22200 00255 11004 20401 305// 41004 70021 333 91207 555 11029 22030 31742 40707 61749 118032 075037 050033 049043 048039 059042 80606 91741
BBXX 42059 10181 99151 70675 46/// /0902 10278 20226 40101 58024 91750 22200 00291 10902 20401 3//// 40902 70011 333 91203 555 11021 22021 31650 40803 61749 087021 084021 078020 089019 081022 085023 80803 91659
BBXX 44005 10181 99432 70691 46/// /3308 10062 20004 40196 57003 91750 22200 00091 10502 20502 3//// 40901 70012 333 91209 555 11079 22083 31744 43309 61749 330075 330071 329072 330069 333069 321071
BBXX 44060 10181 99413 70721 46/// ///08 10056 91745 22200 00108 333 91210 555 11088 22088
BBXX 46005 10181 99461 71310 46/// ///08 10087 40244 51013 91750 22200 00101 11506 20503 3//// 41506 70032 333 91210 555 11087 22092
BBXX 42055 10181 99222 70940 46/// /0608 10242 20171 40215 58009 91750 22200 00253 10602 20602 70010 333 91209 555 11084 22088 31655 40810 61749 056079 066075 066072 066074 066075 079076 80508 91749
BBXX 42002 10181 99258 70937 46/// /0514 1//// 40252 58005 91750 22200 00246 333 91216 555 11135 22144
BBXX 42040 10181 99292 70882 46/// /0411 10131 40277 58007 91750 22200 00222 10704 20704 70021 333 91213 555 11106 22111 31703 40314 61749 037104 037103 033105 037108 039111 039119
BBXX 42035 10181 99292 70944 46/// /0610 10113 20046 40313 50000 91750 22200 00157 10603 20603 70014 333 91213 555 11107 22112 31705 40713 61749 060101 057103 060102 057112 061111 059105
BBXX 46114 10181 99364 71222 46/// ///// 1//// 91734 22200 00112 11704 20902 330// 41704 70020
BBXX 42058 10181 99149 70749 46/// /0604 10263 20230 40105 56017 91750 22200 00279 10603 20301 310// 40603 70015 333 91206 555 11045 22046 31651 40909 61749 061046 113050 089061 088060 090069 090075 80908 91651
BBXX 41013 10181 99334 70777 46/// /0110 10142 20067 40241 58015 91750 22200 00223 10503 20503 308// 40901 70015 333 91212 555 11105 22110 31719 40213 61749 013101 023095 020094 022095 024098 024097
BBXX 42019 10181 99279 70954 46/// /0612 10170 20106 40281 50003 91750 22200 10705 20705 70027 333 91215 555 11130 22138 31723 42916 61749 046121 282122 282129 282122 280121 285117
BBXX 44022 10181 99409 70737 46/// ///08 10053 21028 91745 22200 00100 333 91210 555 11088 22088
BBXX 44065 10181 99404 70737 46/// /3208 10068 21009 40250 50000 91750 22200 00111 10401 20401 311// 41001 70007 333 91211 555 11086 22090 31730 43211 61749 321081 317076 325079 328074 330072 325066 83209 91746
BBXX 42056 10181 99198 70849 46/// /0407 10260 20233 40156 58011 91750 22200 00275 10603 20603 70015 333 91209 555 11077 22081 31653 40312 61749 038074 036075 044067 045072 044078 034088 80210 91653
BBXX 44027 10181 99443 70673 46/// /3407 10057 21001 40180 57008 91750 22200 00091 10702 20401 3//// 40702 70011 333 91209 555 11075 22078 31735 43409 61749 341071 341072 343066 338071 339077 344071
BBXX NWS0022 10184 99416 70714 43/// /3010 10079 21013 40229 5//// 7//// 8//// 222// 04136 2//// 3//// 4//// 5//// 6//// 8//// ICE /////
BBXX 9VVU 10184 99252 71158 41498 83614 10210 20172 40174 52005 70222 8456/ 22274 00240 20302 30000 4//// 5//// 80185
BBXX HZRX 10183 99365 70439 41797 62707 /// 10220 20200 40314 54015 70311 86430 22263 10170 20101 32727 40100 5//// 6//// 80190 ///// /////
BBXX WZJC 10184 99275 70919 41498 70524 10156 2009/ 40268 50005 70122 8789/ 22233 00222 20505 3//// 4//// 5//// 6//// 80117 ICE /////
BBXX CG2960 10184 99453 70800 46/// /1004 11046 21072 40268 50008 7//// 8//// 22200 00052 2////
BBXX 45008 10181 99443 70824 46/// /2509 11037 30062 40285 50000 91750 22200 00067 10503 20503 70013 333 91211 555 11094 22098 61749 249092 249087 251094 250091 244087 247094
BBXX CG2350 10184 99433 70798 46/// /2616 11029 21095 40301 50001 7//// 8//// 22200 0//// 2////
BBXX CGDS 10184 99447 70755 46/// /2609 11012 21089 4//// 5//// 7//// 8//// 22200 0//// 2////
BBXX VYNG 10184 99446 70832 41/98 72418 11005 21177 41005 53020 70101 85572 22213 00030 21001 3//// 4//// 5//// 6//// 8//// ICE /////
BBXX 44172 10181 99445 70634 46/// ///// 1//// 91801 22200 00076 10503 20503 70016
BBXX 51101 10181 99243 71621 46/// /0807 10234 20181 40211 53008 91750 22200 00244 11404 20603 331// 41403 70022 333 91209 555 11076 22080 31655 40710 61749 081074 079078 080076 075080 077081 075080
BBXX 46061 10181 99602 71468 46/// /0502 10028 40178 52004 91750 22200 00059 10802 300// 40802 70009 333 91203 555 11024 22024 31656 43506 61749 045023 046024 046026 014036 359043 350042
BBXX 41009 10181 99285 70802 46/// /0705 10244 20156 40209 58014 91750 22200 00250 10603 20502 300// 40602 70016 333 91207 555 11057 22060
BBXX 42057 10181 99168 70815 46/// /0406 10281 20221 40136 58014 91750 22200 00281 10602 20502 3//// 40601 70011 333 91207 555 11060 22063 31705 40408 61749 039060 035061 035062 034061 038063 035062 80407 91703
BBXX 41010 10181 99289 70785 46/// /0807 10229 40210 58010 91750 22200 00241 10503 20502 300// 40802 70014 333 91207 555 11069 22072
BBXX CGDT 10184 99490 70669 46/// /2609 11033 21101 40193 58005 7//// 8//// 22200 0//// 2////
BBXX CGBN 10184 99447 70636 46/// /1701 10101 20075 40156 56037 7//// 8//// 22200 0//// 2////
BBXX WGEB 10183 99351 71377 43598 50909 10156 2011/ 40270 51000 7//// 858// 22225 00167 21002 308// 4//// 5//// 6//// 80133 ICE /////
BBXX 3FBC9 10184 99286 71626 41697 50918 10210 40215 51003 70222 85963 9//// 22223 00240 20303 308// 40303 5//// 6//// 80190
BBXX WKAP 10183 99332 70765 41298 73522 10170 2011/ 40240 55000 70222 87117 22215 00250 20201 33235 40705 50403 6//// 80135 ICE /////
BBXX DFWV2 10184 99296 71358 41598 20111 10190 20124 40250 51010 70100 8/164 2229/ 04170 2//01 333// 4//05 5//// 80150
BBXX CGJV 10184 99454 70609 46/// /1926 10072 20055 40182 56039 7//// 8//// 22271 00073 2////
BBXX VOKJ 10184 99492 70664 46/// /2619 11039 21122 40189 58018 7//// 8//// 22215 0//// 2////
BBXX VCSZ 10184 99469 70573 46/// /1926 10053 20052 40207 56043 7//// 8//// 22264 0//// 2////
BBXX CGDR 10184 99496 71265 46/// /0307 10035 20034 40214 51005 7//// 8//// 22200 00104 2////
BBXX VOPP 10184 99456 70735 46/// /2404 11019 21091 4//// 5//// 7//// 8//// 22200 0//// 2////
BBXX VRYO3 10184 99510 70509 46/// /2920 10024 20035 40177 56013 7//// 8//// 22224 00030 2////
BBXX CG2958 10184 99487 71235 46/// /2104 10032 20018 40225 51011 7//// 8//// 22200 0//// 2////
BBXX CGBY 10184 99487 71235 46/// /2201 10033 20017 40217 53012 7//// 8//// 22200 0//// 2////
BBXX VXKF 10184 99468 70598 46/// /1725 10056 20042 40149 56056 7//// 8//// 22254 0//// 2////
BBXX VCWL 10184 99466 70719 46/// /3207 11035 21087 40243 53004 7//// 8//// 22262 00054 2////
BBXX CZ9742 10184 99506 70969 46/// /1603 11084 21124 40165 53007 7//// 8//// 22200 0//// 2////
BBXX VCLM 10184 99621 70747 46/// /1806 11166 21201 40001 51009 7//// 8//// 22200 0//// 2////
BBXX VCBW 10184 99514 70571 46/// /2218 10017 20011 40131 56029 7//// 8//// 22200 0//// 2////
BBXX CGDX 10184 99468 70712 46/// /1907 11018 21072 40238 56002 7//// 8//// 22200 0//// 2////
BBXX CGJK 10184 99484 71234 46/// /0106 10034 20023 40215 53013 7//// 8//// 22200 0//// 2////
BBXX VAAP 10184 99452 70609 46/// /2221 10071 20064 40191 56019 7//// 8//// 22213 0//// 2////
BBXX CGTF 10184 99476 70527 46/// /1312 10044 21010 40244 56043 7//// 8//// 22200 0//// 2////
BBXX VAAZ 10184 99510 70503 46/// /2027 10020 20011 40195 57042 7//// 8//// 22211 0//// 2////
BBXX CGBR 10184 99534 71293 46/// /0101 10034 20034 40189 52016 7//// 8//// 22200 0//// 2////
BBXX VOFG 10184 99456 70614 46/// /2011 10083 20051 40178 58028 7//// 8//// 22200 0//// 2////
BBXX CGSB 10184 99468 70712 46/// /2006 11023 21076 40239 56001 7//// 8//// 22200 0//// 2////
BBXX 42001 10181 99259 70897 46/// /0209 10196 20112 40250 58007 91750 22200 00247 10704 20704 70021 333 91212 555 11096 22100 31730 40113 61749 016091 011095 015090 016092 010093 009087
BBXX 46059 10181 99380 71300 46/// /3503 10113 40245 51012 91750 22200 00145 11504 20401 3//// 41504 70021 333 91204 555 11028 22028 31731 43304 61749 354028 346029 322023 323020 327026 309022
BBXX 46075 10181 99539 71608 46/// /1816 10066 20064 49838 56073 91750 22200 00051 11213 20808 300// 41210 70063 333 91220 555 11171 22184 31704 41723 61749 182157 174158 170163 168166 165171 164168 81718 91704
BBXX 42036 10181 99285 70845 46/// /0109 10170 20132 40230 56009 91750 22200 00219 10603 20603 70016 333 91211 555 11099 22104 31730 40212 61749 010094 014093 014098 014097 016096 011099
BBXX 42060 10181 99163 70635 46/// /0406 10271 20232 40106 57024 91750 22200 00288 10802 20601 300// 40802 70012 333 91207 555 11065 22068 31748 40307 61749 035062 036054 032035 010025 012025 014026 80307 91748
BBXX 46028 10181 99357 71219 46/// /3003 10122 40209 53007 91750 22200 00136 11704 20301 330// 41703 70018 333 91204 555 11031 22032 31719 42905 61749 302029 300028 292031 292029 295029 293030
BBXX 46025 10181 99337 71191 46/// /3605 10145 40204 51011 91750 22200 00153 11901 20401 328// 41901 70007 333 91206 555 11052 22054 31746 43506 61749 356049 352044 353045 355045 345042 348038
BBXX 46054 10181 99342 71204 46/// /3107 10129 40203 51005 91750 22200 00140 11703 20402 300// 41703 70015 333 91208 555 11073 22077 31711 43110 61749 310071 312077 311075 309080 308077 306077
BBXX 46029 10181 99461 71245 46/// /3406 10078 20039 40216 52005 91750 22200 00079 11604 20401 328// 41603 70018 333 91207 555 11064 22068 31732 43308 61749 336060 336059 335052 337046 338045 326046
BBXX 46087 10181 99485 71247 46/// /3403 10070 20043 40210 52004 91750 22200 00083 11602 329// 41602 70012 333 91204 555 11032 22033 31749 43304 61749 343032 346031 344031 356027 355026 355024
BBXX 46012 10181 99374 71229 46/// /0903 10099 40208 52005 91750 22200 00119 11703 20301 329// 41703 70017 333 91204 555 11032 22033 31718 40905 61749 087031 082036 087038 081034 074029 078021
BBXX 46013 10181 99382 71233 46/// /0805 10098 40212 52004 91750 22200 00105 11603 20301 3//// 41603 70017 333 91206 555 11047 22049 31749 40806 61749 081045 075044 071042 066042 068039 062035
BBXX 41048 10181 99320 70696 46/// /1905 10236 20158 40220 57016 91750 22200 00231 10902 20401 3//// 40902 70012 333 91205 555 11046 22051 31651 42007 61749 193046 194045 196046 196046 198048 200055 82006 91651
BBXX 46080 10181 99580 71500 46/// /2008 10041 20010 40176 56010 91750 22200 00051 10904 20602 3//// 40903 70018 333 91209 555 11080 22084 31650 41911 61749 200077 193078 192069 193066 198059 197058 81909 91750
BBXX 46069 10181 99337 71202 46/// /3207 10127 40207 51007 91750 22200 00130 11704 20502 331// 41703 70020 333 91208 555 11072 22077 31708 43209 61749 317068 314071 316076 314076 313077 311075
BBXX 46002 10181 99426 71305 46/// ///// 10090 40252 53009 91750 22200 00124 11605 70024
BBXX 46006 10181 99408 71375 46/// /0104 10101 40291 53014 91750 22200 00126 11606 20401 3//// 41606 70030 333 91206 555 11044 22045 31733 40106 61749 010043 014042 008043 359045 356042 350041
BBXX 46084 10181 99566 71361 46/// /3109 10056 20030 40171 53023 91750 22200 00076 11605 20804 300// 41603 70027 333 91211 555 11095 22100 31747 43011 61749 313089 321086 319076 316075 318085 316083
BBXX 51205 10181 99210 71564 46/// ///// 1//// 91748 22200 00242 11405 20804 333// 41403 70025
BBXX 46078 10181 99561 71526 46/// /1714 10050 20012 40136 91750 333 91217 555 11149 22159
BBXX C6XC6 10184 99342 70118 41597 73115 10170 2//// 40220 53/// 71822 873// 22253 00190 2//// 3//// 4//// 5//// 6//// 8//// ICE /////
BBXX WKAE 10183 99489 70195 41598 82919 10112 20052 40165 56010 70222 888// 22224 00120 2//// 3//// 4//// 5//// 6//// 80082 ICE /////
BBXX C6JS 10183 99476 70137 41398 82412 10120 2008/ 40180 54000 70322 8517/ 22224 20402 303// 40805 5//// 80100
BBXX HZZB 10183 99342 10224 41598 32905 10160 2011/ 40281 51005 70200 83100 22233 0//// 20401 329// 40602 5//// 6//// 80130 ICE /////
BBXX ZCBW2 10183 99379 10045 41498 72418 10160 20110 40190 56010 71521 8327/ 22253 00200 20602 3//// 4//// 5//// 80130
BBXX BATFR47 10184 99280 51377 44896 52613 10222 20147 40133 51012 72522 84568 22252 20606 32736 40406 50504
BBXX BATFR56 10184 99001 30864 44998 33108 10284 20245 40109 50/// 70100 83100 22252 00302
BBXX BATEU07 10184 99349 31512 46/// /3621 10195 40032 55010 22282
BBXX BATFR59 10184 99198 31670 46/// /0411 10269 20235 40093 55/// 22231 00272
AAXX 10184 48453 32960 30402 10240 20176 30136 40139 54000 80005 333 58019
AAXX 10184 48555 31550 50000 10250 20235 30091 40133 55010 71011 82545 333 58004 70155
BBXX WCX7445 10184 99649 50643 43/// /0617 10028 2//// 49667 5//// 7//// 8//// 22221 01012 2//// 3//// 4//// 5//// 6//// ICE /////
BBXX ONAI 10184 99080 70539 41598 31115 10290 2028/ 40100 58010 70200 83480 22224 00293 2//// 3//// 4//// 5//// 6//// 80280 ICE /////
BBXX DDAC2 10180 99083 70845 41/98 /2905 10280 20239 40100 54000 7//11 8/140 22233 04280 2//// 334// 4//04 5//// 80250
BBXX 3FMH7 10184 99082 70865 41698 43208 00/// 10285 20251 40099 57009 7//// 81135 9//// 22263 00260 1//// 2//// 3//// 4///2 5//// 6//// 80260
BBXX H9UY 10184 99139 71062 41798 33515 00/// 10270 40159 51/// 70200 82141 9//// 22273 04260 20201 304// 40302 5//// 6//// 80240
BBXX FVNM 10184 99063 71030 46/// /1306 10247 20217 40129 58005 22200 00269
BBXX WDC6698 10184 99095 71441 43/// /0909 10282 20282 40100 5//// 7//// 8//// 222// 04257 2//// 3//// 4//// 5//// 6//// 8//// ICE /////
AAXX 10181 10805 11481 83202 10055 20039 30001 40195 53015 60012 70362 888// 333 10063 20048 31004 55300 20000 30000 81815 87629
AAXX 10184 13600 11656 80000 10084 20057 30170 40223 54001 60032 78062 883// 333 10106 81933 87640
BBXX DBBH 10181 99496 70039 41498 22505 10093 20011 40181 52002 70111 82800 22253 04130
AAXX 10184 89642 40/// /1013 11026 21034 39743 49796 51002
BBXX BATFR42 10184 99484 70048 46/// /1408 10090 20047 40179 52004 22243 00157
AAXX 10181 06400 32578 32204 10023 20004 30158 40169 51009 82801 333 10074 82830 91110 91208
AAXX 10181 06428 35968 02103 10029 21006 30121 40171 52008 333 10067 91108 91206
AAXX 10181 06451 12680 22203 10019 21012 30101 40170 51007 60002 82501 333 10057 81634 91108 91206
AAXX 10181 06456 32975 42303 10017 21004 39807 40183 52008 81031 333 10048 81360 83075 91108 91206
AAXX 10181 06476 15159 82201 11011 21020 39507 40190 52010 60002 333 10023 88/02 91108 91205
AAXX 10181 06479 32576 42303 10032 21013 30088 40169 53011 81501 333 10071 83633 91109 91207
AAXX 10181 06490 15981 02403 10005 21029 39597 40182 52008 60002 333 10024 91109 91206
AAXX 10181 06590 12975 02302 10006 21021 39725 40190 52010 60002 333 10043 91109 91205
AAXX 10181 06431 NIL
AAXX 10181 06432 35/63 02202 10008 21006 30099 40178 53009 333 10064 91107 91205
AAXX 10181 06449 12975 42304 10023 21010 39947 40181 53011 60002 81032 333 10055 81360 84073 91109 91206
AAXX 10181 06450 12675 52303 10046 21003 30150 40167 52012 60002 85501 333 10066 81634 85646 91110 91207
AAXX 10181 06458 35977 02203 10025 21009 30018 40176 52009 333 10058 91108 91206
AAXX 10181 06465 35078 02303 10030 21015 30100 40168 51011 333 10065 91109 91206
AAXX 10181 06478 12980 22304 10013 21023 39950 40176 52009 60002 80001 333 10051 82070 91109 91207
AAXX 10181 06496 35980 /9901 11015 21037 39486 40182 53010 333 10025 81/67 91110 91206
AAXX 10184 78906 12480 13305 10289 20236 30095 40100 60001 81802 333 10299 20225 59011 81818
AAXX 10181 03951 17431 /2511 10088 20075 30101 40127 57011 69952 7818/ 87/// 333 10094 87/12
AAXX 10181 03953 11470 82107 10093 20078 30077 40113 58016 69942 75065 886// 333 10093 81710 87717 92427
AAXX 10181 03955 12470 72105 10060 20052 39927 40126 57013 69902 875// 333 10062 81715 86628 87656
AAXX 10181 03956 15461 /2305 10068 20050 30052 40129 57013 60002 86/// 333 10070 86/17 87/58 87/59
AAXX 10181 03962 11475 81805 10074 20054 30080 40104 57016 69902 70352 886// 333 10075 81714 87719 85626
AAXX 10181 03963 17331 /2213 10095 20089 30040 40068 57023 69932 71081 87/// 333 10096 87/06
AAXX 10181 03966 15484 /2005 10061 20038 30010 40103 57014 69912 88/// 333 10063 81/19 85/22 88/46
AAXX 10181 03967 12482 72108 10057 20029 39991 40106 57016 69902 8653/ 333 10058 81718 85656 85362
AAXX 10181 03969 12480 72207 10058 20027 30001 40106 56018 69902 875// 333 10060 81818 87656
AAXX 10181 03973 11150 82007 10063 20063 39813 40067 57024 69922 72052 886// 333 10063 87702 87705
AAXX 10181 03976 11220 82011 10093 20089 30031 40043 57027 60012 75865 886// 333 10094 87705 88711
AAXX 10181 03980 17869 /2011 10058 20044 30012 40037 57027 69952 700// 87/// 333 10069 87/57
AAXX 10184 13622 12662 40000 10156 20081 30204 40211 54001 60002 84500 333 10185 84640
AAXX 10184 78016 32664 81507 10220 20145 30235 40239 57019 885// 333 10221 20211 70000
AAXX 10181 06414 36/// /2103 10018 21016 30133 40166 52007 60002 333 10067 91109 91206
AAXX 10181 06459 36/// /2203 10019 20004 39983 40181 52009 60002 333 10052 91108 91206
AAXX 10181 06494 36/// /2402 11033 21046 39361 40188 52010 60002 333 10016 91108 91206
AAXX 10184 91925 01580 50605 10297 20208 30074 40134 51011 69921 70186 85800 333 56200 69927 83825 90710 91123 555 60005 10923 58000
AAXX 10184 91929 04/86 /2904 10283 20230 30117 40120 51022 60032 700// 333 10283 20242 69907 90710 91109 555 69905
AAXX 10184 91938 01465 71209 10249 20222 30120 40122 51024 69942 721// 878// 333 10264 20242 69947 81813 84820 86650 90710 91113 555 69945 13613 58002
AAXX 10184 91944 06/// /3614 10277 20220 30134 40137 50015 60002 333 10277 20259 60007 90710 91117 555 60005
AAXX 10184 91948 01475 70109 10247 20210 30055 40157 51016 60001 71822 85901 333 56899 60007 83913 83816 85078 90710 91130 555 60005 10330 58019
AAXX 10184 91954 06/// /1008 1//// 2//// 30127 4//// 51018 60001 333 60007 555 58010
AAXX 10184 91958 02581 40506 10216 20140 30147 40149 51011 60001 84200 333 56400 60007 84823 90710 91120 555 60005 10720 58018
AAXX 10184 91943 NIL
AAXX 10184 91945 NIL
BBXX UFJN 10181 99724 10306 41/98 81406 11020 40012 54000 70320 884// 22200 0//// 20301
BBXX UGGA 10181 99691 10421 41/96 91712 10010 40082 57020 70282 89/// 22221 20605
AAXX 10184 08001 12468 33508 10136 20102 30083 40164 53020 60002 81871 333 10150 924/7
AAXX 10184 08015 12560 10000 10110 20099 39764 40166 53010 60002 81540 333 10135
AAXX 10184 08023 12670 72304 10134 20098 30091 40162 53005 60002 81172 333 10178
AAXX 10184 08027 12880 61003 10124 20075 39856 40164 53004 60002 84072 333 10153
AAXX 10184 08045 01580 41807 10103 20084 39849 40158 53010 60112 70265 81570 333 10116 69907
AAXX 10184 08141 NIL
AAXX 10184 08160 11925 52602 10067 20053 39881 40195 53001 60002 71011 80001 333 10091
AAXX 10184 08181 02570 33510 10097 20036 30172 40178 51004 60002 81808 333 10146 60007
AAXX 10184 08221 01240 81703 10042 20029 39520 40220 51009 69902 75122 887// 333 10048 60007
AAXX 10184 08231 12470 82402 10042 20022 39103 48500 51006 60002 887// 333 10111
AAXX 10184 08261 11240 81608 10082 20070 39718 40204 57006 60032 75365 887// 333 10082
AAXX 10184 08284 02975 42407 10124 20048 30104 40180 53009 60002 82071 333 10185 60007
AAXX 10184 08306 12462 70000 10137 20110 30176 40182 53004 60002 82826 333 10177
AAXX 10184 08314 02570 52501 10139 20112 30077 40180 52002 60002 83138 333 10181 60007
AAXX 10184 08430 12865 42702 10120 20067 30115 40190 55000 60002 83049 333 10168
AAXX 10184 08482 12570 42909 10156 20066 30188 40196 52010 60002 81871 333 10188
AAXX 10184 16622 12560 61204 10082 20035 30245 40255 52007 60002 81440 333 10112 81625 86358 90730 91105 555 10000 40010 30000 10074 2//// 30076 4//// 5//// 40000 47716 44235 50000 50062
AAXX 10184 16641 11460 60000 10128 20121 30227 40233 52005 60162 70162 84850 333 10158 82815 84625 86360 90730 91115 555 10000 40128 40000 47704 44230 50000 50124 60000 60155 60415 70000 77/// 7R///
AAXX 10184 16682 12560 71406 10144 20102 30220 40239 57003 60002 82150 333 10178 82820 86358 90730 91109 555 10000 40068 30000 10130 20135 30134 40128 50140 60195 40000 47699 44220 50000 50122
AAXX 10184 16716 12960 20000 10100 20052 30235 40254 53001 60002 80001 333 10174 555 10000 40052 40000 47705 44180 50000 50078
AAXX 10184 16734 12570 60206 10130 20089 30204 40265 51002 60002 82250 333 10183 82820 86360 90730 91110
AAXX 10184 16743 NIL
AAXX 10184 16749 12860 22203 10126 20048 30243 40258 52009 60002 82040 333 10160 90730 91109 555 10000 40116 40000 47716 44220 50000 50090
AAXX 10184 16754 12960 12006 10112 20070 30214 40262 53003 60002 80002 333 10164 90730 91108 555 10000 40068 40000 47693 44205 50000 50092
AAXX 10184 16614 12560 70000 10058 20014 39461 40252 58006 60002 84550 333 10058 84625 87358 90730 91106 555 10000 41014
AAXX 10184 16627 12560 63004 10074 20052 30240 40245 58005 60002 82155 333 10144 82820 83358 85068 90730 91110 555 10000 40056 30000 10082 20082 30090 40088 50096 6//// 40000 47715 44245 50000 50064
AAXX 10184 16667 12965 21904 10094 20034 30255 40260 53004 60002 80001 333 10134 90730 91109 555 10000 40066 30000 20088 30104 40000 47725 44230 50000 50068
AAXX 10184 16675 NIL
AAXX 10184 16710 36/// /9902 10086 20028 39496 40275 52006 333 10152 90730 91112 555 10000 41006
AAXX 10184 16723 12960 29903 10062 20028 30254 40270 52007 60002 80002 333 10138 90730 91104 555 10000 40034 40000 47725 44230 50000 50048
AAXX 10184 16738 NIL
AAXX 10184 16746 12560 22609 10116 20096 30076 40262 53005 60002 82100 333 10170 90730 91113 555 10000 40074 40000 47588 44190 50000 50106
AAXX 10184 16643 12560 60405 10130 20103 30249 40254 54000 60002 84870 333 10136 82820 84630 86358 90730 91113 555 10000 40106 40000 47719 44220 50000 50116
AAXX 10184 16648 12560 70000 10084 21002 30149 40240 54000 60002 81158 333 10140 81830 84358 87268 90730 91106 555 10000 41038 30000 10082 2//// 30078 40072 5//// 6//// 40000 47642 44210 50000 50050
AAXX 10184 16650 12960 40000 10080 20058 30233 40236 54000 60002 80001 333 10146 90730 91104 555 10000 40020 30000 10080 20080 30094 40092 50114 60140 40000 47703 44200 50000 50070
AAXX 10184 16684 12970 49903 10124 20066 30202 40230 56003 60002 80001 333 10146 90730 91106 555 10000 40078 40000 47682 44210 50000 50096
AAXX 10184 16732 12575 31307 10132 20089 30249 40260 51003 60002 82201 333 10170 90730 91111 555 10000 40088 40000 47711 44150 50000 50110
AAXX 10181 38353 429// 50000 11028 21069 39367 40301 58017 85040 333 10068
AAXX 10181 38613 429// 00101 11018 21063 40310 54000 333 10082
AAXX 10181 38616 425// 11401 11018 21064 39259 40311 58003 81500 333 10070
AAXX 10181 38345 32998 50901 11058 21097 38840 48524 53002 85030 333 10053
AAXX 10181 36911 429// 70902 11044 21060 39305 40311 58007 87050 333 10031
AAXX 10181 36974 329// 72301 11142 21169 38060 48634 52011 80030 333 11050
AAXX 10181 36982 429// 20501 11176 21235 36545 47210 58003 80001 333 11126
AAXX 10184 47090 32973 02707 10006 21097 30187 40210 53008 333 92023
AAXX 10184 47095 32570 62302 11027 21077 30068 40264 53001 86500
AAXX 10184 47097 329// /0000 11028 21045 30172 40272 53006
AAXX 10184 47098 329// /0001 11040 21067 30123 40264 53002
AAXX 10184 47099 329// /0000 11040 21060 30228 40266 53002
AAXX 10184 47100 32470 22513 11064 21102 39294 40251 53003 82500
AAXX 10184 47102 32670 62712 10022 21047 30077 40259 53004 86500
AAXX 10184 47104 32970 01606 11001 21092 30114 40214 53006
AAXX 10184 47106 329// /2303 10014 21092 30163 40213 53006
AAXX 10184 47112 32668 61802 10007 21053 30178 40265 52003 85500 333 92011
AAXX 10184 47114 32670 40000 11027 21070 30081 40271 53006 84500
AAXX 10184 47119 31630 70000 11008 21012 30225 40269 52005 71022 87500
AAXX 10184 47121 329// /2702 11024 21060 39964 40269 53004
AAXX 10184 47127 329// /2702 11005 21028 30127 40273 53006
AAXX 10184 47129 31530 81602 10010 20005 30236 40273 52005 71022 886//
AAXX 10184 47130 32970 02510 10017 21076 30156 40219 52003 333 92023
AAXX 10184 47131 41640 61802 10003 21011 30198 40271 53005 72682 86500
AAXX 10184 47135 329// /2711 10011 21030 39955 40261 55001
AAXX 10184 47136 32670 52701 11020 21053 30081 40260 53001 85500
AAXX 10184 47137 329// /2709 10011 21037 30139 40261 54000
AAXX 10184 47140 32662 60903 10011 20002 30243 40273 53002 86500 333 92012
AAXX 10184 47143 32665 62904 10010 21052 30184 40265 55004 86500
AAXX 10184 47145 41550 70001 10001 21013 30239 40266 53008 78582 87800
AAXX 10184 47146 31657 71601 10010 20001 30207 40275 53003 71022 87500
AAXX 10184 47150 32660 70203 10011 21008 30247 40267 52004 87800
AAXX 10184 47152 32973 00001 10015 21050 30196 40240 55004
AAXX 10184 47154 329// /3403 10011 21033 30199 40261 53002
AAXX 10184 47155 32970 00502 10011 21035 30206 40253 57005
AAXX 10184 47156 32662 60000 10034 21013 30186 40277 52004 86500
AAXX 10184 47157 32670 62507 10023 21036 39970 40245 55005 85500
AAXX 10184 47162 32675 20505 10026 21021 30214 40255 57004 81500 333 92022
AAXX 10184 47169 32665 63412 10057 21021 30178 40273 56008 86500 333 92054
AAXX 10184 47170 32670 63207 10047 21051 30228 40272 56001 86500 333 92023
AAXX 10184 47171 429// /1103 10012 21001 30217 40274 53003
AAXX 10184 47172 329// /2501 10040 21017 30200 40268 52002
AAXX 10184 47173 329// /0001 11005 21014 30163 40278 53003
AAXX 10184 47174 32665 63206 10021 21032 30056 40263 57004 85500
AAXX 10184 47175 32568 63213 10009 21049 39685 40272 57002 86500 333 92024
AAXX 10184 47185 32665 73222 10078 21012 30176 40268 55007 87500 333 92046
AAXX 10184 47188 32670 73603 10061 21025 30251 40273 53001 87500 333 92032
AAXX 10184 47189 32670 63203 10069 21030 30203 40264 56007 85500 333 92022
AAXX 10184 47192 32668 20001 11017 21042 30220 40259 57005 82500
AAXX 10181 15502 12565 70000 10038 20015 30160 40200 54000 60002 86550 333 10064 21038 555 585//
AAXX 10181 15525 12575 82703 10107 20032 39931 40195 53004 60002 8657/ 333 10170 20025 555 560//
AAXX 10181 15528 11550 70000 10088 20032 39982 40172 53007 60002 71022 86530 333 10155 20014 555 568//
AAXX 10181 15535 12968 70000 10052 20022 30135 40182 56002 60002 87050 333 10085 21006 555 581//
AAXX 10181 15549 12970 01802 10081 21022 39783 40200 57001 60002 333 10136 20027 555 548//
AAXX 10181 15552 12970 83204 10079 21031 30152 40201 57001 60002 80007 222// 314// 4//01 333 10130 20008 555 546// 92023 92428
AAXX 10181 15614 12662 60000 10034 21008 39512 40230 53002 60002 84241 333 10073 21040 41998 555 574//
AAXX 10181 15615 11/00 92708 11057 21068 37136 47075 54000 60002 74142 333 11044 21070 555 592//
AAXX 10181 15626 12670 80000 10048 21012 30028 40220 54000 60002 83532 333 10096 21030 555 565//
AAXX 10181 15627 11989 53224 11016 21021 37628 47070 58001 60002 70211 83051 333 11016 21032 42001 91128 555 596//
AAXX 10181 15640 12970 80000 10054 21026 39912 40230 54000 60002 80007 333 10098 20002 555 556//
AAXX 10181 15655 12970 82503 10056 20010 30182 40216 53003 60002 80004 222// 00086 20000 333 10102 20009 555 572// 92013 92418
AAXX 10181 15712 12675 62302 10048 21018 39992 40248 53009 60002 86500 333 10087 21015 555 562//
AAXX 10181 15730 12970 62003 10066 20023 39832 40228 57002 60002 83035 333 10122 21011 555 574//
AAXX 10184 93004 16/// /0736 10163 20163 40162 52001 60001
AAXX 10184 93023 16/// /0712 10167 20149 40204 57001 60031
AAXX 10184 93069 16/// /0928 10169 20123 40215 54000 60001
AAXX 10184 93110 17798 /0909 10162 20124 40222 52001 60001
AAXX 10184 93186 17598 /0812 10165 20111 40244 57001 60001
AAXX 10184 93196 16/// /1611 10140 20097 40250 57006 60001
AAXX 10184 93245 16698 /1009 10119 20074 40250 57004 60001
AAXX 10184 93292 17698 /0000 10125 20102 40262 52001 60001
AAXX 10184 93309 17998 /0610 10164 20125 40233 52002 60001
AAXX 10184 93334 16/// /0905 10088 20063 39281 57006 60001
AAXX 10184 93339 16/// /0610 10076 20058 39288 57003 60001
AAXX 10184 93373 17698 /2101 10131 20112 40262 52003 60001
AAXX 10184 93404 17698 /0909 10141 20096 40242 57002 60001
AAXX 10184 93420 17598 /1302 10140 20114 40237 54000 60001
AAXX 10184 93439 17698 /0304 10146 20099 40239 54000 60001
AAXX 10184 93498 16/// /0518 10139 20115 40255 57001 60001
AAXX 10184 93515 17898 /1506 10142 20132 40216 52001 60001
AAXX 10184 93527 16/// /1009 10158 20129 40229 57003 60001
AAXX 10184 93546 17598 /1202 10155 20135 40230 54000 60001
AAXX 10184 93597 16/// /1703 10137 20115 40236 57004 60001
AAXX 10184 93615 17897 /1503 10149 20128 40217 57005 60001
AAXX 10184 93678 16598 /0510 10126 20119 40236 57006 60001
AAXX 10184 93709 16/// /0000 10126 20115 40201 57011 60001
AAXX 10184 93773 17498 /0604 10129 20113 40222 57010 60001
AAXX 10184 93781 17497 /0616 10137 20115 40232 57006 60001
AAXX 10184 93800 NIL
AAXX 10184 93805 NIL
AAXX 10184 93831 17/98 /0602 10123 20105 40194 57013 60001
AAXX 10184 93845 17498 /0201 10126 20117 40194 57016 60001
AAXX 10184 93891 17/98 /0508 10137 20118 40198 57010 60001
AAXX 10184 93909 16/// /1108 10114 20091 40188 57017 60001
AAXX 10184 93929 16/// /9901 10093 20092 40185 57018 60001
AAXX 10184 93947 16/// /3510 10084 20075 40203 57015 60001
AAXX 10184 93987 16/// /1904 10101 20055 40298 52007 60001
AAXX 10184 93994 NIL
AAXX 10184 47101 32665 60201 11052 21070 30168 40269 52007 85500
AAXX 10184 47105 369// /2511 10008 21095 30185 40218 53009
AAXX 10184 47108 32668 62003 11012 21077 30156 40266 52005 86500
AAXX 10184 47115 32572 31801 10018 21060 39929 40206 53003 83500 333 92041
AAXX 10184 47133 31660 70001 10010 21017 30186 40274 53006 77072 87500
AAXX 10184 47138 32970 02506 10018 21040 30233 40236 50002 333 92032
AAXX 10184 47159 32980 01403 10011 21055 30162 40250 56004 333 92022
AAXX 10184 47165 32665 63412 10049 21044 30227 40275 54000 86500 333 92024
AAXX 10184 47168 32570 53410 10033 21053 30179 40260 56003 85500 333 92023
AAXX 10184 47184 32670 73212 10072 21030 30251 40276 56002 87500 333 92034
AAXX 10181 33088 12997 62603 10002 21004 39935 40130 52003 69942 80004 333 10043
AAXX 10181 33177 32997 51703 10012 21010 39893 40134 58002 83041 333 10049
AAXX 10181 33261 11396 82203 10016 20008 39951 40136 58004 60032 76162 8772/ 333 10031 87707
AAXX 10181 33275 11497 82005 10034 20027 39924 40149 57006 69952 78082 8435/ 333 10034 84911
AAXX 10181 33301 12997 32301 11008 21015 39854 40143 52002 60032 82031 333 10039
AAXX 10181 33325 11997 82401 10022 20003 39869 40139 58002 69972 70282 8805/ 333 10049
AAXX 10181 33377 11597 82302 10033 20007 39955 40151 57002 69902 78082 8635/ 333 10040
AAXX 10181 33415 11296 82302 10003 20000 39744 40150 58006 60032 77187 8772/ 333 10037 86704
AAXX 10181 33429 11296 81901 10005 21000 39718 40149 58006 69972 78582 883// 333 10047 86706
AAXX 10181 33466 11659 81903 10027 20009 39959 40149 58001 69902 71082 8457/ 333 10040
AAXX 10181 33526 11211 80000 10003 21003 39813 40160 52003 60032 78688 883// 333 10071 86706
AAXX 10181 33562 11540 81602 10021 20011 39781 40147 50000 69912 71082 8355/ 333 10045
AAXX 10181 33614 11762 81904 10062 20033 30054 40159 56001 69902 70262 8655/ 333 10067 86650
AAXX 10181 33761 32998 82004 10035 20012 39931 40156 57005 8805/ 333 10050
AAXX 10181 33902 32597 72201 10061 20022 30117 40183 57005 87500 333 10087
AAXX 10181 33983 32997 61905 10061 20032 30185 40246 58006 86050 333 10085
AAXX 10181 34415 32697 81806 10023 20001 30111 40209 57009 86554 333 10031
AAXX 10181 34523 32597 71402 10013 21019 30165 40243 58005 87500 333 10028 87620
AAXX 10181 34712 32998 61804 10027 20022 30157 40245 57010 86030 333 10027
BBXX 46001 10181 99563 71480 46/// /2106 10045 40210 56008 91750 22200 00051 11105 20402 300// 41104 70025 333 91207 555 11064 22067 31747 42007 61749 205060 212055 211054 223051 224051 215036
BBXX 46005 10181 99461 71310 46/// ///08 10087 40244 51013 91750 22200 00101 11506 20503 3//// 41506 70032 333 91210 555 11087 22092
BBXX 46026 10181 99378 71228 46/// /0905 10108 40209 53004 91750 22200 00113 11703 20301 329// 41703 70014 333 91206 555 11051 22053 31744 40906 61749 076048 299043 296044 300043 297044 295045
BBXX 46042 10181 99368 71224 46/// /0604 10110 40207 52005 91750 22200 00116 11703 20301 330// 41703 70017 333 91205 555 11046 22048 31702 40606 61749 059044 066044 060044 061048 061050 057051
BBXX CG2958 10184 99487 71235 46/// /2104 10032 20018 40225 51011 7//// 8//// 22200 0//// 2////
BBXX CG2965 10184 99487 71235 46/// /2302 10030 20013 40218 53012 7//// 8//// 22200 0//// 2////
BBXX CGBR 10184 99534 71293 46/// /0101 10034 20034 40189 52016 7//// 8//// 22200 0//// 2////
BBXX CGBY 10184 99487 71235 46/// /2201 10033 20017 40217 53012 7//// 8//// 22200 0//// 2////
BBXX CGDR 10184 99496 71265 46/// /0307 10035 20034 40214 51005 7//// 8//// 22200 00104 2////
BBXX CGJK 10184 99484 71234 46/// /0106 10034 20023 40215 53013 7//// 8//// 22200 0//// 2////
BBXX DQVG 10183 99395 71416 41292 60309 10130 20091 40222 51012 70151 82100 22264 00160 20602 329// 41204 5//// 80110
BBXX WDB9949 10184 99361 71319 41698 63611 10130 20090 40236 52003 71522 86461 22225 00140 20402 303// 40703 5//// 6//// 80110 ICE /////
BBXX WGEB 10183 99351 71377 43598 50909 10156 20110 40270 51000 7//// 858// 22225 00167 21002 308// 4//// 5//// 6//// 80133 ICE /////
AAXX 10181 26645 32597 32304 10002 21015 39791 40053 52006 83500 333 10009
AAXX 10181 26659 12560 72002 10004 21013 39854 40069 52009 60042 875// 333 10015 87630
AAXX 10181 26763 11458 82103 10011 21012 39851 40080 52012 69902 71022 886// 333 10018 88719
AAXX 10181 26825 12962 32103 11005 21017 39893 40079 52002 69902 83030 333 10029
AAXX 10181 26832 12960 32203 10007 21019 39886 40080 52006 69902 83030 333 10026
AAXX 10181 26887 11396 82103 10006 20001 39895 40103 52005 60012 71022 886// 333 10011 88707
AAXX 10181 26961 32960 52202 11002 21018 39904 40099 52006 85030 333 10028
AAXX 10181 33027 32597 72603 10023 21002 39947 40117 52004 86530 333 10042
BBXX LDGJ 10181 99603 10053 43/// /1400 10028 20005 49965 5//// 222/1 04094 1//// 3//// 4//// 5////
BBXX LF4H 10184 99596 10022 46/// /3115 10071 20002 49990 52019 8//// 22200 06088 10706 70028 333 91128
BBXX LGWS 10181 99308 70098 43/// /0311 10165 20132 40203 5//// 222/0 04159 1//// 3//// 4//// 5////
BBXX LMEL 10181 99603 10053 43/// /1201 10022 20017 49959 5//// 222/2 04095 1//// 3//// 4//// 5////
AAXX 10184 17022 12962 31603 10065 21025 30088 40258 58002 60002 80001 333 10112 83070 91108 92427
AAXX 10184 17031 12970 31206 10046 20008 30267 40274 58007 60002 80001 333 10096 83070
AAXX 10184 17038 11558 42106 10072 20016 30248 40301 50002 60002 70411 83130 333 10099 83830 83360 92426
AAXX 10184 17050 12970 31303 10086 20058 30163 40227 50002 60002 83030 333 10121 83360 91107
AAXX 10184 17060 12960 01813 10095 20018 30209 40250 58001 60002 333 10105
AAXX 10184 17096 11920 03102 11169 21169 38282 48556 52017 69982 71011 333 11008
AAXX 10184 17124 12960 01004 11005 21028 39352 40320 52005 60002 333 10034
AAXX 10184 17128 12970 03001 11022 21033 39177 40341 51007 60002 333 10039
AAXX 10184 17170 NIL
AAXX 10184 17195 12970 00000 11041 21055 39068 48565 52011 60002 333 10030
AAXX 10184 17199 12970 01904 10012 21052 39166 40297 52033 60002 333 10040
AAXX 10184 17219 12965 29902 10037 20002 30124 40273 52008 60002 80001 333 10120 82070
AAXX 10184 17240 12970 02101 11019 21075 39114 40321 51007 60002 333 10072 91104
AAXX 10184 17244 11956 02004 11005 21048 39085 48559 52008 60002 71000 333 10053
AAXX 10184 17280 NIL
AAXX 10184 17350 12970 00505 10043 21060 30183 40264 52023 60002 333 10154
AAXX 10181 14240 12670 42901 10072 20058 30000 40156 52010 60002 82530 333 10146
AAXX 10181 14258 11665 72104 10120 20096 39971 40156 53011 69932 72126 87500 333 10147
AAXX 10181 14445 12670 61504 10152 20110 30031 40184 53003 69902 86500 333 10156 86696 92312
AAXX 10184 17024 12970 01809 10042 21014 30174 40254 57005 60002 333 10116 91115 92428
AAXX 10184 17056 12970 03302 10086 20084 30239 40243 58001 60002 333 10128 91116 92428
AAXX 10184 17067 12970 01503 10037 20001 30230 40253 55001 60002 333 10113 91104 92408
AAXX 10184 17092 12960 03306 11015 21066 38931 48549 52018 60002 333 10061
AAXX 10184 17112 12665 42306 10106 20057 30247 40249 52004 60002 82230 333 10126 82835 84360 91113 92417
AAXX 10184 17115 12960 32701 10035 20004 30202 40255 52002 60002 80001 333 10106 83070
AAXX 10184 17116 12962 03201 10020 21008 30142 40270 51001 60002 333 10096 91107
AAXX 10184 17188 12960 43002 10001 21098 39196 40310 52005 60002 80002 333 10069 84070 91105
AAXX 10184 17202 12970 03105 11018 21042 39230 40293 52020 69952 333 10031
AAXX 10184 17248 12970 01002 11017 21056 39072 48559 50007 60002 333 10033
AAXX 10184 17292 12970 00702 10029 20001 39503 40290 52010 60002 333 10122
AAXX 10184 17300 12960 03505 10062 20014 30190 40269 52015 60002 333 10166
AAXX 10184 17310 12970 00602 10109 20004 30262 40269 52011 60002 333 10167 91104 92418
AAXX 10184 17330 12970 02902 10098 21039 30250 40269 52014 60002 333 10141
AAXX 10184 17026 12970 01605 10085 20025 30221 40261 57005 60002 333 10102 91112 92428
AAXX 10184 17034 12970 02202 10064 20026 30250 40298 58002 69922 333 10098 92428
AAXX 10184 17070 11958 01301 11012 21025 39397 40314 51005 60002 71000 333 10034 91103
AAXX 10184 17084 12970 01701 11014 21036 39373 40328 50005 60002 333 10047 91107
AAXX 10184 17090 12965 00000 11035 21067 38803 48562 52012 60002 333 10019
AAXX 10184 17098 11560 50505 11097 21111 38235 48548 52011 60022 70174 85500 333 11016 85630 93105
AAXX 10184 17150 12960 02602 10010 20000 30145 40275 52007 60002 333 10115
AAXX 10184 17160 12970 00000 11028 21056 39113 48559 51010 60002 333 10043 91106
AAXX 10184 17184 12970 00101 10026 20013 30162 40279 51002 60002 333 10092 91103
AAXX 10184 17189 12970 11604 11048 21057 39106 48536 52006 60002 81030 333 10031 81360
AAXX 10184 17210 12670 60000 10035 20022 39196 40256 52019 69942 83130 333 10069 83840 86360
AAXX 10184 17234 12970 01201 10049 20016 30207 40278 52009 60002 333 10122 91108
AAXX 10184 17260 11957 00000 10034 21031 39430 40272 52016 60002 70500 333 10094
AAXX 10184 17290 12970 03601 10088 20014 30241 40274 52008 60002 333 10160 91109 92408
AAXX 10184 17370 12965 01701 10102 20008 30261 40265 51013 60002 333 10157 92417
AAXX 10181 14241 12780 60000 10097 20060 30026 40155 52013 69902 81530 333 10146
AAXX 10181 14284 12960 71902 10092 20081 30053 40161 53006 60002 87070 333 10129
AAXX 10181 14307 32765 60601 10084 20074 30100 40177 52008 81430 333 10141 81655
AAXX 10181 14317 NIL
AAXX 10181 14431 12760 61203 10120 20111 30090 40183 53006 60002 83870 333 10163
AAXX 10181 14444 33565 70000 10142 20112 30160 40189 52003 85730 333 10162
AAXX 10181 14474 12565 81005 10138 20108 30016 40204 55000 69902 8687/ 333 10150
AAXX 10184 64810 NIL
AAXX 10184 64820 32460 72606 10279 20245 30079 40088 84502 333 10303 58004 84613 87076
AAXX 10181 01447 16/// /0000 11060 21072 39272 49953 53032 69922 333 11003 91108
AAXX 10184 08055 11560 70204 10056 20056 39117 48483 53005 60042 70162 86850 333 10060 95090
AAXX 10184 08075 12570 70000 10070 20050 39144 48490 53002 60002 86531 333 10082
AAXX 10184 08084 01950 81104 10053 20032 39753 40193 53009 60002 71042 80007 333 10117 60007
AAXX 10184 08171 11440 80602 10059 20047 39961 40206 54000 69902 71022 886// 333 10068
AAXX 10184 08184 02965 42602 10105 20083 30015 40171 51006 60002 82032 333 10162 60007
AAXX 10184 08202 01465 81704 10062 20053 39257 42801 51006 60022 76362 8657/ 333 10088 69987
AAXX 10184 08235 NIL
AAXX 10184 08238 11658 63305 10084 20058 30118 40179 53007 60002 71022 81134 333 10149
AAXX 10184 08280 11557 53306 10060 20042 39376 40210 53003 60002 71022 80006 333 10092
AAXX 10184 08330 11412 80703 10099 20087 39954 40186 57007 60042 75965 887// 333 10099
AAXX 10184 08348 11758 70401 10058 20055 39475 40225 56001 60002 71022 87010 333 10078
AAXX 10184 08360 02862 32707 10119 20051 30144 40181 53008 60002 82032 333 10164 60007
AAXX 10184 08373 02568 73601 10123 20089 30159 40181 53005 60002 81108 333 10173 60007
AAXX 10184 08410 02965 42407 10108 20077 30098 40210 52005 60002 80005 333 10135 60007
AAXX 10184 08419 02770 62004 10087 20056 39532 40206 5//// 60002 86050 333 10138 60007
AAXX 10184 08451 02970 51001 10120 20097 30178 40211 58001 69902 82054 333 10157 60007
AAXX 10184 08487 NIL
AAXX 10184 60106 32565 72005 10150 20113 40225 53005 872// 333 10171 87820
AAXX 10184 60318 32560 52811 10158 20099 40213 51012 83230 333 10215 83823 83360
AAXX 10181 48820 32998 20000 10146 20064 30251 40259 58008 82040 333 58016 82895
AAXX 10181 48823 32697 83602 10140 20056 30251 40254 58010 885// 333 58017 88696
AAXX 10181 26038 01359 82106 10025 20015 39833 49873 51010 60072 76386 8872/ 333 10033 20008 60057 88508 91011 91112 555 1/002 20008 3/000 50021 52100
AAXX 10181 26106 12/97 21906 10015 21013 49973 52007 60022 82101 333 10030 91011 91112
AAXX 10181 26313 11/// 82305 10030 20016 49930 52007 60052 78082 889// 333 10041 91112
AAXX 10181 26346 11597 62104 10004 21016 49973 52014 60022 70183 86200 333 10011 86828 91010 91116 92980
AAXX 10181 26406 11597 82408 10047 20011 49967 52002 60032 70282 883// 333 10051 88928 91014 91119
AAXX 10181 26416 33/// /2105 10006 21006 49972 52005 333 10029 91011 91112
AAXX 10181 26424 11997 22205 10008 21010 49977 52006 60042 72781 82030 333 10028 91112
AAXX 10181 26544 32697 72306 10020 21019 40024 52010 87500 333 10026 87634 91010 91111
AAXX 10181 26247 01472 62107 10013 21008 39870 49949 51012 60042 70222 86530 333 10023 20005 69917 86620 91012 91114 555 1/100 20005 3/102 50012
AAXX 10184 17500 NIL
AAXX 10184 17501 12960 00604 10107 20000 30247 40267 52014 60002 333 10157 92437
AAXX 10184 17505 12960 01005 10086 20005 30161 40278 52012 60002 333 10153
AAXX 10184 17507 NIL
AAXX 10184 17510 12965 00000 10110 20010 30233 40243 53008 60002 333 10162 92417
AAXX 10184 17515 12960 00000 10055 20000 30109 40292 52015 60002 333 10150
AAXX 10184 17521 12560 12507 10046 21000 30124 40264 52014 60002 81100 333 10152 81830
AAXX 10184 17530 12960 03303 10050 20024 30218 40277 52015 60002 333 10159
AAXX 10184 17535 12960 03605 10085 20041 30215 40252 52012 60002 333 10154
AAXX 10184 17540 NIL
AAXX 10184 17547 NIL
AAXX 10184 17550 12960 00000 10099 20037 30117 40266 52015 60002 333 10155 92437
AAXX 10184 17572 12965 0//// 10105 20007 30253 40278 52010 60002 333 10154 92417
AAXX 10181 26115 01459 62708 10049 20030 39870 49878 52013 60052 78082 86900 333 10059 20038 60037 86913 91014 91119 555 1/004 20038 3/003 50052
AAXX 10181 26231 01462 82210 10032 20018 39899 49913 52012 60092 78086 889// 333 10042 20025 60017 88912 91014 91115 555 1/002 20025 3/002 50032
AAXX 10184 17042 11670 70906 10068 20033 30269 40310 51001 69952 70282 84250 333 10095 84835 87360 92438
AAXX 10184 17074 12970 02102 11017 21033 39328 40310 52008 60002 333 10068 91105
AAXX 10184 17086 12670 71904 10022 21035 39563 40305 51007 60002 85550 333 10048 85635 87360
AAXX 10184 17088 12970 01002 11026 21073 38869 48558 52017 60002 333 10026
AAXX 10184 17140 12965 00501 11046 21063 38781 48554 50007 60002 333 10015
AAXX 10184 17155 11930 32501 11009 21040 39137 40316 52005 60002 71000 83030 333 10053 83360 91104
AAXX 10184 17203 12970 02702 10009 21065 38931 48573 52018 69922 333 10062
AAXX 10184 17237 12970 02302 10045 21033 39762 40287 51004 60002 333 10098 91104
AAXX 10184 17250 12975 00504 11030 21058 38891 48567 52010 60002 333 10030
AAXX 10184 17270 12970 03003 10066 21017 39598 40260 52018 60002 333 10116
AAXX 10184 17295 12960 03606 10050 20015 30261 40269 52012 60002 333 10172
AAXX 10184 17320 12970 03404 10105 20007 30261 40266 52014 60002 333 10165 92428
AAXX 10184 17375 12970 00201 10095 20000 30263 40266 51011 60002 333 10175 91105 92408
AAXX 10184 71604 NIL
AAXX 10184 71605 16/// /2202 10023 20018 30058 40210 53009 60001 333 10023 20000 70000
AAXX 10184 71611 NIL
AAXX 10184 71612 16/// /2002 11018 21094 30161 40253 56008 60001 333 10004 21043 70048
AAXX 10184 71614 NIL
AAXX 10184 71616 16/// /2707 11029 21075 30125 40248 56005 60001 333 10005 21054 70040
AAXX 10184 71617 16/// /3505 11096 21138 30063 40238 58002 60001 333 11046 21113 70031
AAXX 10184 71618 15966 02712 11222 21255 30088 40128 51008 60001 333 11222 21263 70000
AAXX 10184 71619 16/// /2908 11010 21074 30115 40173 58003 60001 333 10020 21010 70000
AAXX 10184 71622 NIL
AAXX 10184 71632 46/// /2702 11168 21194 39671 40130 58002 6///1 333 11167 21269 7////
AAXX 10184 71634 16/// /3302 11016 21035 30031 40187 58006 60001 333 10003 21025 70000
AAXX 10184 71638 16/// /3302 10014 20002 30102 40209 53006 60001 333 10014 21030 70000
AAXX 10184 71639 12574 62510 11021 21117 30040 40289 50002 60001 85170 333 11019 21066 79999
AAXX 10184 71642 11670 71904 11102 21122 39672 40241 56005 69901 77172 87500 333 11101 21177 47019 79999 90917
AAXX 10184 71930 11774 72604 10032 21070 39152 40082 50018 69903 72222 86570 333 10036 21072 43014 79999 90999
AAXX 10184 71931 16/// /2223 10052 21009 30164 40176 56030 60001 333 10066 21018 70000
AAXX 10184 71934 NIL
AAXX 10184 71935 11874 82910 11124 21139 39912 40125 52023 69901 77111 8807/ 333 11121 21177 44015 79999 90921
AAXX 10184 71936 11262 83004 11100 21104 39837 40102 53013 69901 70277 885// 333 11100 21163 48024 70004 90953
AAXX 10184 71937 NIL
AAXX 10184 71938 11669 80403 11234 21259 30096 40127 52013 69901 77677 885// 333 11202 21234 70002 90983
AAXX 10184 71940 12982 22615 10013 21045 39281 40084 58010 60001 82070 333 10015 21041 70000
AAXX 10184 71943 11566 62908 11002 21033 39255 40089 52026 69901 77122 86570 333 10015 21013 44005 79999 90921
AAXX 10184 71944 160// ///// 11036 53010 60001 333 11030 21064 70000
AAXX 10184 71945 11748 80000 11086 21120 39645 40125 53030 69941 77122 885// 333 11079 21146 47011 70004 90931 93101
AAXX 10184 71946 11674 62302 11146 21174 39929 40150 53021 69901 70174 86500 333 11146 21213 48038 79999 90941
AAXX 10184 71948 47461 80812 11179 39976 40092 53012 6///1 745// 333 11179 21213 7////
AAXX 10184 71949 46/// /3204 11125 21139 39318 40212 53019 6///1 333 11091 21129 7////
AAXX 10184 71951 11258 71908 10010 20006 39905 40175 52024 69901 70287 87500 333 10015 21026 47024 70026 90963
AAXX 10184 71957 47550 81702 11082 21131 30026 40115 53018 6///1 745// 333 11074 21142 7////
AAXX 10184 71958 43/// /0000 11028 21034 39184 40127 53024 6///1 333 11020 21062 7////
AAXX 10184 71964 11374 83305 11055 21079 39336 40206 53021 69941 77172 88500 333 11036 21089 47022 70036 90983
AAXX 10184 71966 16/// /0702 11241 21267 39763 40247 51015 60001 333 11166 21257 70000
AAXX 10184 71968 47030 /2715 11084 30059 40123 51037 6///1 745// 333 11068 21086 7////
AAXX 10184 71893 12680 72903 10011 21011 30188 40220 53011 60001 83571 333 10014 21014 70000
AAXX 10184 71894 17/// /0204 10036 20036 30203 40212 53009 69981 7//4/ 333 10036 20011 70010
AAXX 10184 71896 15966 11609 11028 21053 39310 40153 53011 60001 333 11017 21117 70000
AAXX 10184 71897 11469 62710 10044 20036 3//// 4//// 52017 60011 78086 863// 333 10059 20043 70094 90997
AAXX 10184 71898 160// ///// 10051 51016 60021 333 10061 20028 70105
AAXX 10184 71899 11474 63114 10049 20033 3//// 4//// 53014 69981 72581 86900 333 10059 20040 70088 90917
AAXX 10184 71902 12574 12617 11157 21228 30094 40103 56010 60001 81500 333 11146 21178 70000
AAXX 10184 71905 NIL
AAXX 10184 71906 11774 62212 11155 21199 30008 40060 58001 69901 70277 86500 333 11149 21203 48008 79999 90927
AAXX 10184 71907 17420 92815 11103 21134 30007 40040 51018 60021 74544 333 11075 21104 70030
AAXX 10184 71909 16040 83413 11172 21200 39929 49973 50002 60001 333 11148 21176 7////
AAXX 10184 71910 46864 30306 11141 21160 39945 40008 52009 6///1 333 11130 21162 7////
AAXX 10184 71911 46964 01206 11314 30028 40087 53008 6///1 333 11272 21324 7////
AAXX 10184 71912 12574 62209 11221 21285 39962 40156 58004 60001 86500 333 11220 21301 79999
AAXX 10184 71915 11369 70415 11146 21176 39940 40022 51009 69901 77177 87500 333 11116 21213 48043 79999 90983
AAXX 10184 71917 11674 60000 11366 21408 30054 40069 50004 69901 77677 81571 333 11349 21371 47013 79999 90983
AAXX 10184 71922 11574 80907 11093 21105 39628 40104 58013 69901 70277 81570 333 11093 21195 47017 70014 90951
AAXX 10184 71924 11574 10409 11254 21293 39978 40070 52008 69901 70171 81500 333 11174 21257 48037 79999 90923
AAXX 10184 71925 11366 82904 11243 21286 30071 40114 53008 69901 77182 885// 333 11241 21317 48018 79999 90952
AAXX 10184 71926 12580 23010 11276 21326 30077 40102 53010 60001 82500 333 11241 21288 70000
AAXX 10184 71928 16/// /2811 10056 21078 38914 40074 53004 60001 333 10063 21121 70000 555 10010
AAXX 10184 71900 46/// /23// 11124 21181 30111 40124 56006 6///1 333 11121 21150 7////
AAXX 10184 71903 NIL
AAXX 10184 71904 NIL
AAXX 10184 71914 16/// /0000 10017 20007 39993 40218 52012 60001 333 10029 21003 70000
AAXX 10184 71916 NIL
AAXX 10184 71918 460// ///// 11266 6///1 333 7////
AAXX 10184 71920 NIL
AAXX 10184 71921 NIL
AAXX 10184 71923 NIL
AAXX 10184 71927 NIL
AAXX 10184 71941 17548 82906 11121 21152 39813 40247 50000 60001 771// 333 11112 21139 70000
AAXX 10184 71947 17566 82608 11141 21169 39871 40233 58003 60001 771// 333 11141 21173 70000
AAXX 10184 71102 NIL
AAXX 10184 71105 NIL
AAXX 10184 71107 NIL
AAXX 10184 71110 NIL
AAXX 10184 71111 16966 02511 10040 20022 30183 40191 51011 60001 333 10054 20012 70008
AAXX 10184 71112 16/// ///// 60001 333 70002
AAXX 10184 71113 16/// /3102 11006 21012 30195 40219 51018 60001 333 11001 21041 70000
AAXX 10184 71115 16/// /1003 11061 21074 39614 40212 55005 60001 333 11058 21090 70000
AAXX 10184 71116 16/// /0705 10028 21038 39035 40138 57016 60001 333 10028 21081 70000
AAXX 10184 71118 16/// /2105 11046 21097 39228 40057 58013 60001 333 11025 21102 70000
AAXX 10184 71121 16964 32508 11041 21113 39235 40060 55003 60001 333 11014 21094 70000
AAXX 10184 71127 16/// /2810 10004 21068 39155 40057 53007 60001 333 10024 21052 70000
AAXX 10184 71130 15966 61002 11101 21121 39646 40113 58011 60001 333 11081 21178 70000
AAXX 10184 71132 17466 81201 11165 21186 39804 40128 53005 60001 771// 333 11165 21209 70000
AAXX 10184 71133 46/// /0601 11052 21085 39354 40065 58011 6///1 333 11044 21104 7////
AAXX 10184 71139 16/// /2317 10027 21093 38645 40090 58021 60001 333 10058 21036 70000
AAXX 10184 71141 NIL
AAXX 10184 71142 15966 02220 10010 21052 39129 40098 56014 60001 333 10010 21076 70000
AAXX 10184 71143 NIL
AAXX 10184 71144 NIL
AAXX 10184 71147 NIL
AAXX 10184 71149 NIL
AAXX 10184 71401 17/// /0501 11069 21082 39540 40245 55001 60011 7//4/ 333 11063 21100 70018
AAXX 10184 71402 NIL
AAXX 10184 71404 NIL
AAXX 10184 71405 NIL
AAXX 10184 71406 NIL
AAXX 10184 71407 NIL
AAXX 10184 71408 NIL
AAXX 10184 71409 NIL
AAXX 10184 71410 17562 81603 11145 21164 39857 40148 58006 60001 771// 333 11145 21210 70000
AAXX 10184 71413 NIL
AAXX 10184 71414 NIL
AAXX 10184 71415 17/// /3219 10053 20041 30151 40154 56035 60011 7//4/ 333 10081 20031 70013
AAXX 10184 71417 NIL
AAXX 10184 71418 NIL
AAXX 10184 71419 46/// /1920 10071 20056 30173 40183 56032 6///1 333 10082 20039 7////
AAXX 10184 71423 NIL
AAXX 10184 71424 46/// /2708 6///1 333 7////
AAXX 10184 71425 NIL
AAXX 10184 71426 NIL
AAXX 10184 71427 NIL
AAXX 10184 71428 17/// /2717 11030 21095 30179 40185 58005 60011 7//4/ 333 11018 21046 70027
AAXX 10184 71429 17/// /3201 11004 21029 30141 40160 55004 60011 7//4/ 333 10025 21022 70021
AAXX 10184 71434 NIL
AAXX 10184 71436 15666 12814 11020 21093 30034 40276 50000 60001 333 11016 21081 70003
AAXX 10184 71437 46/// /2610 11026 21115 30200 40298 50000 6///1 333 11019 21048 7////
AAXX 10184 71438 NIL
AAXX 10184 71439 NIL
AAXX 10184 71440 NIL
AAXX 10184 71442 16/// /2802 11073 21110 39840 40163 50006 60001 333 11072 21157 70000
AAXX 10184 71445 NIL
AAXX 10184 71446 NIL
AAXX 10184 71448 NIL
AAXX 10184 71449 16/// /2305 11052 21117 39755 40169 50003 60001 333 11051 21175 70000
AAXX 10184 71001 NIL
AAXX 10184 71002 NIL
AAXX 10184 71003 NIL
AAXX 10184 71005 NIL
AAXX 10184 71006 NIL
AAXX 10184 71007 NIL
AAXX 10184 71008 NIL
AAXX 10184 71009 NIL
AAXX 10184 71010 NIL
AAXX 10184 71011 NIL
AAXX 10184 71012 NIL
AAXX 10184 71013 NIL
AAXX 10184 71014 NIL
AAXX 10184 71015 NIL
AAXX 10184 71016 NIL
AAXX 10184 71017 NIL
AAXX 10184 71018 NIL
AAXX 10184 71019 NIL
AAXX 10184 71020 NIL
AAXX 10184 71021 NIL
AAXX 10184 71022 17566 62805 10050 20030 30130 40174 51016 60031 7004/ 333 10060 20027 70118
AAXX 10184 71023 16964 32502 11042 21065 39292 40064 56011 60001 333 11026 21118 70000
AAXX 10184 71024 16/// /3201 11113 21122 60001 333 11113 21157 70000
AAXX 10184 71026 NIL
AAXX 10184 71027 17/// /2205 10081 20031 30152 40162 58031 69971 7//4/ 333 10082 21013 70007
AAXX 10184 71028 16/// /3002 11057 21076 39134 40192 51013 60001 333 11043 21089 70000
AAXX 10184 71029 16/// /0607 11277 21304 30069 40110 53006 60001 333 11247 21283 70000
AAXX 10184 71030 17/64 /3407 10046 20008 30089 40178 56012 69961 7//4/ 333 10083 20044 70065
AAXX 10184 71032 46/// /0000 11084 21098 39371 40233 53002 6///1 333 11084 21138 7////
AAXX 10184 71033 46/// /1102 11125 21139 39465 40111 58001 6///1 333 11125 21209 7//// 555 10010
AAXX 10184 71035 NIL
AAXX 10184 71036 15966 02605 11045 21090 39762 40144 58007 60001 333 11044 21133 70000
AAXX 10184 71039 NIL
AAXX 10184 71040 46/// /3205 11096 21127 30018 40223 58002 6///1 333 11047 21104 7////
AAXX 10184 71041 15466 81913 10080 20055 30030 40172 58036 60001 333 10077 20009 70000
AAXX 10184 71042 16/// /0000 10002 21001 30208 40212 51012 60001 333 10002 21060 70000
AAXX 10184 71044 16/// /2610 11081 21101 39825 40146 53013 60001 333 11066 21086 70000
AAXX 10184 71046 460// /0000 11114 30114 40131 51023 6///1 333 11104 21130 7////
AAXX 10184 71047 NIL
AAXX 10184 71048 NIL
AAXX 10184 71049 NIL
AAXX 10184 71060 NIL
AAXX 10184 71063 NIL
AAXX 10184 71250 NIL
AAXX 10184 71251 16/// /2319 10062 21045 39187 40110 56003 60001 333 10063 21014 70000
AAXX 10184 71252 NIL
AAXX 10184 71253 46/// /0404 11120 21138 6///1 333 11111 21166 7////
AAXX 10184 71254 16/// /2705 11055 21081 60001 333 11055 21129 70000 555 10010
AAXX 10184 71255 16/// /3303 11091 21109 60001 333 11091 21130 70006
AAXX 10184 71256 46/// /2801 10034 21048 39147 40079 51018 6///1 333 10035 21068 7////
AAXX 10184 71257 NIL
AAXX 10184 71258 NIL
AAXX 10184 71259 NIL
AAXX 10184 71261 16/// /2511 11046 21098 30024 40293 50000 60001 333 11040 21051 70004
AAXX 10184 71263 12574 32714 11035 21106 30004 40303 50000 60001 83100 333 11033 21087 70006
AAXX 10184 71264 16/// /1909 10086 20068 30136 40167 56033 60001 333 10093 20051 70000
AAXX 10184 71265 15966 02616 11010 21101 30197 40294 58001 60001 333 11009 21043 70000
AAXX 10184 71266 NIL
AAXX 10184 71267 15966 01604 10057 21071 39038 40125 56012 60001 333 10069 21009 70000
AAXX 10184 71268 NIL
AAXX 10184 71269 NIL
AAXX 10184 71270 NIL
AAXX 10184 71271 NIL
AAXX 10184 71272 15966 00301 11219 21246 39761 40132 55000 60001 333 11219 21283 70000
AAXX 10184 71273 16/// /1601 11030 21055 39400 40061 58014 60001 333 11020 21095 70000
AAXX 10184 71274 NIL
AAXX 10184 71275 NIL
AAXX 10184 71276 NIL
AAXX 10184 71277 NIL
AAXX 10184 71278 NIL
AAXX 10184 71279 16/// /3007 11063 21134 30106 40173 56009 60001 333 11061 21093 70014
AAXX 10184 71281 NIL
AAXX 10184 71282 46/// /2619 11027 21059 39997 40274 51002 6///1 333 11023 21038 7////
AAXX 10184 71283 NIL
AAXX 10184 71284 NIL
AAXX 10184 71285 NIL
AAXX 10184 71286 NIL
AAXX 10184 71287 NIL
AAXX 10184 71288 NIL
AAXX 10184 71289 NIL
AAXX 10184 71290 15566 81706 11030 21049 39296 40135 53008 60001 333 11029 21059 70000
AAXX 10184 71291 16/// /1703 11113 21176 39914 40221 58014 60001 333 11111 21186 70000
AAXX 10184 71292 15966 01404 11070 21081 39511 40130 58019 60001 333 11063 21170 70000
AAXX 10184 71294 16/// /2405 11041 21081 39841 40257 58003 60001 333 11035 70011
AAXX 10184 71295 NIL
AAXX 10184 71296 NIL
AAXX 10184 71297 16/// /2809 11031 21100 60001 333 11020 21072 70000
AAXX 10184 71298 16/// /2611 11026 21096 30079 40321 58003 60001 333 11025 21065 70000 555 10010
AAXX 10184 71299 NIL
AAXX 10184 71665 16/// /2617 11158 21225 30087 40097 56011 60001 333 11153 21179 70000
AAXX 10184 71666 16/// /2303 10022 20010 30127 40172 58014 60001 333 10041 21013 70036
AAXX 10184 71667 NIL
AAXX 10184 71668 16/// /3012 10016 21018 30143 40187 56008 60001 333 10043 20000 70000
AAXX 10184 71669 NIL
AAXX 10184 71670 16/// ///// 10025 20012 60001 333 10028 21024 70000
AAXX 10184 71671 NIL
AAXX 10184 71672 17/// /2609 11025 21101 39999 40271 50001 69931 7//4/ 333 11018 21081 70009 555 10010
AAXX 10184 71673 NIL
AAXX 10184 71674 NIL
AAXX 10184 71675 15966 02706 11199 21233 39892 40185 50004 60001 333 11199 21237 70041
AAXX 10184 71679 16/// /2910 10009 21029 39122 40144 53019 60001 333 10017 21077 70000
AAXX 10184 71680 NIL
AAXX 10184 71681 46/// /3501 11054 21070 6///1 333 11054 21091 7////
AAXX 10184 71682 NIL
AAXX 10184 71683 NIL
AAXX 10184 71684 15566 62906 11103 21151 39941 40254 50000 60001 333 11089 21133 70000
AAXX 10184 71685 15566 82905 11018 21053 39672 40221 56002 60001 333 11008 21059 70000
AAXX 10184 71686 NIL
AAXX 10184 71687 16/// /3301 11024 21032 39400 40197 51011 60001 333 11022 21089 70000 555 10010
AAXX 10184 71688 16/// /2001 11035 21038 39136 40181 53007 60001 333 11007 21043 70000 555 10010
AAXX 10184 71689 17/06 /1005 11071 21079 39605 40067 58007 60031 7724/ 333 11071 21141 70025
AAXX 10184 71690 NIL
AAXX 10184 71691 15966 02713 11048 21114 30165 40193 56010 60001 333 11040 21106 70000
AAXX 10184 71692 NIL
AAXX 10184 71694 17/// /0401 11053 21064 39900 40274 51002 60051 7//4/ 333 11042 21079 70069 555 10120
AAXX 10184 71695 16/// /1802 11110 21134 39787 40131 58004 60001 333 11110 21190 70000
AAXX 10184 71696 NIL
AAXX 10184 71697 15666 32713 11019 21113 30109 40286 50000 60001 333 11012 21067 70000
AAXX 10184 71699 16/// /3206 10052 20015 30175 40182 56015 60001 333 10073 20043 70142
AAXX 10184 71603 11266 83210 10065 20052 30124 40177 58021 60021 78022 8757/ 333 10088 20047 70016 90952
AAXX 10184 71607 16/// /3106 10033 20001 30160 40193 55006 60001 333 10038 21004 70014
AAXX 10184 71609 11474 73509 10036 21003 30050 40185 56011 60011 70266 84570 333 10061 20027 70146 90943
AAXX 10184 71610 NIL
AAXX 10184 71621 12674 22714 11014 21104 30170 40279 50000 60001 82800 333 11002 21056 70002
AAXX 10184 71623 NIL
AAXX 10184 71624 NIL
AAXX 10184 71625 17564 82709 11036 21124 30092 40258 58002 69951 74544 333 11034 21136 70010
AAXX 10184 71627 12583 22210 11012 21072 30209 40255 57007 60001 82401 333 10001 21051 41997 70026
AAXX 10184 71628 12574 62508 11021 21085 30114 40258 56003 60001 85270 333 11016 21065 79999
AAXX 10184 71630 NIL
AAXX 10184 71631 16/// /2510 11061 21109 39766 40284 50003 60001 333 11058 21093 70003
AAXX 10184 71633 11456 82410 11038 21085 39993 40273 50001 69951 78587 885// 333 11033 21051 43005 70009 90973
AAXX 10184 71705 11366 83210 10027 20012 30090 40178 58009 60011 76166 887// 333 10040 20014 70136 90917
AAXX 10184 71706 11374 82504 10023 20014 30114 40175 57020 60021 78088 885// 333 10055 20022 70030 90973
AAXX 10184 71707 11466 81915 10068 20043 30099 40176 58037 69901 78022 885// 333 10068 21011 79999 90910
AAXX 10184 71709 11361 82809 10026 20016 30161 40174 56016 60041 76188 885// 333 10053 20015 70048 90993
AAXX 10184 71711 NIL
AAXX 10184 71714 46/// /2607 11037 30155 6///1 333 7////
AAXX 10184 71715 16/// /3206 11050 21109 30027 40212 55001 60001 333 10007 21054 70041 555 10030
AAXX 10184 71718 11566 52512 11033 21095 30132 40199 57010 60021 70381 85500 333 11021 21054 47014 70098 90933 93102
AAXX 10184 71719 NIL
AAXX 10184 71201 16/// ///// 10026 20012 60001 333 10027 20008 70002
AAXX 10184 71202 17/// ///// 11019 21071 69941 7//4/ 333 11019 21107 70004
AAXX 10184 71203 15966 61906 11027 21043 39688 40219 55004 60001 333 11026 21100 70000
AAXX 10184 71209 46/// /1207 10029 6///1 333 10040 20022 7////
AAXX 10184 71211 46/// /3203 10030 20009 30201 40213 53007 6///1 333 10031 20013 7////
AAXX 10184 71212 16/// /2808 11098 21136 39379 40201 55002 60001 333 11046 21122 70084 555 10120
AAXX 10184 71213 46/// /2905 11101 21144 39938 40250 50000 6///1 333 11088 21132 7////
AAXX 10184 71214 NIL
AAXX 10184 71215 46/// /1606 11042 21064 39880 40233 50007 6///1 333 11032 21050 7////
AAXX 10184 71216 NIL
AAXX 10184 71217 NIL
AAXX 10184 71218 16/// /1903 11010 21043 39767 40202 53003 60001 333 11010 21064 70000
AAXX 10184 71219 46/// /2517 10053 20030 30164 40170 53017 6///1 333 10067 20041 7////
AAXX 10184 71220 46/// /2604 10048 20028 6///1 333 10061 20036 7////
AAXX 10184 71221 NIL
AAXX 10184 71222 17/// /0000 11029 21032 39173 40144 53024 69961 7//4/ 333 11022 21063 70059 555 10080
AAXX 10184 71223 NIL
AAXX 10184 71224 NIL
AAXX 10184 71225 NIL
AAXX 10184 71226 NIL
AAXX 10184 71227 NIL
AAXX 10184 71228 NIL
AAXX 10184 71229 NIL
AAXX 10184 71230 16/// /2708 10009 21076 39192 40079 53013 60001 333 10033 21050 70000
AAXX 10184 71231 16/// /2412 10052 21041 60001 333 10052 21020 70000
AAXX 10184 71232 16/// /2516 10006 21102 38602 40099 58014 60001 333 10008 21040 70000
AAXX 10184 71233 NIL
AAXX 10184 71234 16/// /2519 10082 21075 38919 40088 56015 60001 333 10083 21013 70000
AAXX 10184 71235 16/// /0503 10071 21090 60001 333 10074 20001 70000
AAXX 10184 71236 46/// /2919 10043 21095 6///1 333 10043 21104 7////
AAXX 10184 71237 46/// /2718 10081 21051 39245 40058 58012 6///1 333 10081 21096 7////
AAXX 10184 71238 16/// /2902 11037 21079 60001 333 11023 21086 70000
AAXX 10184 71239 16/// /2705 11035 21079 39694 40166 58001 60001 333 11034 21160 70000
AAXX 10184 71240 16/// /2013 10022 21067 39225 40069 56014 60001 333 10023 21111 70000
AAXX 10184 71241 NIL
AAXX 10184 71242 16/// /3501 11023 21092 60001 333 11023 21088 70000
AAXX 10184 71243 NIL
AAXX 10184 71244 NIL
AAXX 10184 71245 NIL
AAXX 10184 71246 NIL
AAXX 10184 71247 15966 02312 10052 21031 39244 40094 58005 60001 333 10052 21038 70000
AAXX 10184 71248 16/// /0000 10005 21098 38778 40079 55003 60001 333 10066 21099 70007
AAXX 10184 71249 NIL
AAXX 10184 71300 NIL
AAXX 10184 71301 16/// ///// 11119 21175 39826 40240 58004 60001 333 11107 21137 70010
AAXX 10184 71302 NIL
AAXX 10184 71303 46/// ///// 11012 21095 6///1 333 11009 21044 7////
AAXX 10184 71305 15966 00707 11119 21128 39797 40104 53004 60001 333 11119 21196 70000
AAXX 10184 71306 17528 82818 11090 21119 30004 40036 51018 60001 771// 333 11063 21088 70000
AAXX 10184 71307 16/// /2711 11025 21090 30059 40319 58004 60001 333 11022 21079 70000
AAXX 10184 71308 16/// /2013 10083 20049 30085 40169 56035 60001 333 10085 20021 70000
AAXX 10184 71309 NIL
AAXX 10184 71310 17/// /3010 10023 20013 30135 40172 58015 60021 7//4/ 333 10060 20008 70023
AAXX 10184 71311 NIL
AAXX 10184 71312 16/// /1202 11107 21127 39643 40110 58012 60001 333 11084 21191 70000
AAXX 10184 71314 NIL
AAXX 10184 71315 16/// /2609 11015 21084 30130 40185 56010 60001 333 11006 21055 70000
AAXX 10184 71316 16/// /0201 11022 21062 39374 40058 55002 60001 333 11011 21063 70000
AAXX 10184 71317 NIL
AAXX 10184 71318 16/// /2412 10008 21073 39115 40061 56014 60001 333 10008 21109 70000
AAXX 10184 71319 16/// /3003 11099 21127 39314 40193 56003 60001 333 11036 21113 70066
AAXX 10184 71320 NIL
AAXX 10184 71321 NIL
AAXX 10184 71322 NIL
AAXX 10184 71323 16/// /2504 11040 21098 39936 40222 55001 60001 333 10005 21060 70010
AAXX 10184 71331 16/// /1302 11140 21168 60001 333 11140 21234 70000
AAXX 10184 71332 NIL
AAXX 10184 71334 46/// /0000 11217 21252 39786 40133 55001 6///1 333 11209 21296 7////
AAXX 10184 71335 46964 02729 11180 57004 6///1 333 11168 21183 7////
AAXX 10184 71336 46/// ///18 10045 21008 30187 40210 56027 6///1 333 10053 20015 7////
AAXX 10184 71337 46/// /2211 10020 20015 39909 40149 56017 6///1 333 10025 21051 7////
AAXX 10184 71338 46564 80507 11118 21130 39938 49945 53002 6///1 333 11114 21150 7////
AAXX 10184 71339 16256 83104 11044 21061 30098 40113 56044 60001 333 11031 21129 70000
AAXX 10184 71340 NIL
AAXX 10184 71341 NIL
AAXX 10184 71342 NIL
AAXX 10184 71343 NIL
AAXX 10184 71344 NIL
AAXX 10184 71345 NIL
AAXX 10184 71346 NIL
AAXX 10184 71347 NIL
AAXX 10184 71348 NIL
AAXX 10184 71349 NIL
AAXX 10181 13160 32697 82001 10101 20086 30054 40163 53004 885// 333 10131
AAXX 10181 13262 32998 70000 10116 20049 30028 40176 52012 87070 333 10172
AAXX 10181 13272 32970 61803 10130 20047 30051 40169 53003 86030 333 10144 86360
AAXX 10181 13285 12698 81402 10071 20020 30082 40185 54000 69912 885// 333 10080
AAXX 10181 13289 32598 52706 10071 20014 38994 48501 53003 85500 333 10092 4/006 91111
AAXX 10181 13376 32698 60000 10087 20038 39934 40196 51003 84530 333 10113
AAXX 10181 13388 32697 73601 10086 20031 39961 40210 52006 87500 333 10125
AAXX 10181 13462 11630 80000 10081 20075 30183 40223 55001 60032 76162 8552/ 333 10091 85633 88458
AAXX 10181 13473 NIL
AAXX 10181 13489 11994 00301 10014 20009 39713 40249 50001 69922 71000 333 10042
AAXX 10184 71700 15466 83008 10020 21017 30164 40190 55008 60001 333 10045 20003 70000
AAXX 10184 71701 11474 83011 10020 21013 30127 40189 56010 69901 78082 885// 333 10050 20007 70010 90915
AAXX 10184 71702 17/// /2605 10038 20023 30151 40166 56018 60021 7//4/ 333 10042 21018 70092 555 10010
AAXX 10184 71703 11474 52810 11031 21055 39893 40196 56010 69901 70371 85200 333 11018 21042 43014 70002 90931
AAXX 10184 71704 17666 12609 11037 21110 30081 40311 58008 69981 7004/ 333 11037 21106 70029
AAXX 10184 71710 NIL
AAXX 10184 71712 16/// /2407 11022 21053 30195 40257 56006 60001 333 11003 21059 70012
AAXX 10184 71713 16/// /2607 11027 21103 60001 333 10016 21050 70018
AAXX 10184 71716 NIL
AAXX 10184 71717 NIL
AAXX 10184 71720 16/// /0000 10010 20007 30065 40221 53010 60001 333 10010 21010 70000
AAXX 10184 71721 NIL
AAXX 10184 71723 16/// /2608 11025 21088 30235 40245 56005 60001 333 10000 21033 70040
AAXX 10184 71724 NIL
AAXX 10184 71732 NIL
AAXX 10184 71733 16/// /1905 11074 21128 39807 40256 58003 60001 333 11073 21151 70000
AAXX 10184 71734 NIL
AAXX 10184 71736 NIL
AAXX 10184 71737 NIL
AAXX 10184 71741 16/// /0000 11052 21066 39773 40206 53015 60001 333 11048 21118 70000
AAXX 10184 71742 NIL
AAXX 10184 71743 NIL
AAXX 10184 71744 NIL
AAXX 10184 71745 NIL
AAXX 10184 71746 NIL
AAXX 10184 71747 NIL
AAXX 10184 71748 NIL
AAXX 10184 71114 16464 82210 10003 21015 30165 40214 51013 60001 333 10005 21064 70005
AAXX 10184 71120 12974 60000 11033 21070 39405 40065 57016 60001 86070 333 11022 21080 70000
AAXX 10184 71122 16/// /2211 11085 21128 38543 40181 58008 60001 333 11085 21112 70000
AAXX 10184 71123 11974 72205 11054 21091 39201 40076 53002 60001 71422 85081 333 11054 21124 70000
AAXX 10184 71125 NIL
AAXX 10184 71129 12674 71804 11021 21054 39240 40076 58018 60001 82576 333 11019 21095 70000
AAXX 10184 71131 16/// /2315 11032 21073 38859 40125 58015 60001 333 11026 21095 70000
AAXX 10184 71135 16/// /2620 10010 21068 39039 40132 56017 60001 333 10019 21115 70000
AAXX 10184 71137 NIL
AAXX 10184 71140 12974 62605 11053 21076 39649 40162 58009 60001 80001 333 11053 21158 79999
AAXX 10184 71145 12974 11403 11177 21216 39860 40168 58006 60001 80001 333 11176 21267 70000
AAXX 10184 71148 16/// /2704 11028 21073 39580 40171 50002 60001 333 11028 21169 70000
AAXX 10184 71182 16564 32707 11166 21230 39598 40163 53002 60001 333 11156 21235 70000
AAXX 10184 71185 17362 62215 10030 30113 40137 56018 60071 7//44 333 10031 21022 70085
AAXX 10184 71188 11474 73605 11021 21055 30127 40170 57011 69941 70272 85880 333 10010 21086 43017 70004 90921
AAXX 10184 71200 16/// /0107 10024 20015 60001 333 10046 20003 70000
AAXX 10184 71207 16/// /3301 11017 30144 40210 51008 60001 333 11016 21051 70000
AAXX 10184 71260 13/// ///// 11050 21137 30013 40258 50000 60001 333 11050 21099 79999
AAXX 10184 71816 11574 62904 11093 21132 30076 40139 55013 69921 70187 82570 333 11093 21188 44049 70002 90922
AAXX 10184 71817 NIL
AAXX 10184 71818 11569 72305 11097 21109 30114 40132 58027 69941 77122 81110 333 11089 21142 43021 70004 90942
AAXX 10184 71822 11456 82804 11155 21191 39732 40226 58002 69941 77177 885// 333 11127 21167 43023 70006 90983
AAXX 10184 71825 NIL
AAXX 10184 71827 11474 42108 11159 21183 39915 40170 51004 69901 78571 84500 333 11159 21208 47018 70006 90937
AAXX 10184 71828 16964 02609 11197 21252 39467 40135 58002 60001 333 11187 21241 70000
AAXX 10184 71831 11574 62306 11122 21170 39939 40232 58005 69901 70172 86500 333 11121 21168 47016 70006 90921
AAXX 10184 71832 NIL
AAXX 10184 71834 11974 32305 11126 21186 39769 40215 58007 69901 70271 83030 333 11126 21175 48012 70004 90953
AAXX 10184 71841 NIL
AAXX 10184 71842 11774 82107 11114 21162 39702 40191 57005 69901 77122 885// 333 11114 21174 47003 79999 90931
AAXX 10184 71844 16964 02705 11197 21249 39893 40185 50004 60001 333 11197 21239 70000
AAXX 10184 71845 12874 41803 11143 21204 39697 40192 58002 60001 84070 333 11141 21235 79999
AAXX 10184 71850 11674 81606 11090 21123 39656 40172 50001 69901 70272 885// 333 11090 21177 48003 79999 90922
AAXX 10184 71852 16464 62204 11068 21104 39862 40165 50005 60001 333 11068 21158 70000
AAXX 10184 71854 11574 81805 11113 21158 39683 40174 58001 69901 77172 885// 333 11113 21158 48009 79999 90931
AAXX 10184 71858 NIL
AAXX 10184 71861 16/// /1905 11018 21064 39395 40128 58019 60001 333 11018 21137 70000
AAXX 10184 71862 12974 82210 11006 21054 39439 40149 58015 60001 81027 333 11006 21192 70000
AAXX 10184 71863 46964 01305 11020 21071 39411 40118 58020 6///1 333 11020 21133 7////
AAXX 10184 71851 16/// /2604 11043 21074 39822 40165 50005 60001 333 11043 21146 70000
AAXX 10184 71857 NIL
AAXX 10184 71860 12783 42718 10071 21076 38696 40083 57006 60001 81171 333 10073 21050 70000
AAXX 10184 71876 15966 01203 11043 21060 39414 40085 58017 60001 333 11037 21108 70000
AAXX 10184 71885 NIL
AAXX 10184 71888 NIL
AAXX 10184 71895 NIL
AAXX 10184 71150 NIL
AAXX 10184 71151 NIL
AAXX 10184 71152 16/// /2023 10052 20026 30186 40199 56021 60001 333 10053 20009 70000
AAXX 10184 71153 16/// /2007 10102 21075 60001 333 10103 21007 70000
AAXX 10184 71154 16/// /2318 10088 21097 60001 333 10090 21012 70030
AAXX 10184 71155 NIL
AAXX 10184 71156 NIL
AAXX 10184 71157 46/// ///// 11049 21076 6///1 333 11017 21084 7////
AAXX 10184 71158 NIL
AAXX 10184 71159 NIL
AAXX 10184 71160 NIL
AAXX 10184 71161 NIL
AAXX 10184 71162 NIL
AAXX 10184 71163 46/// /3304 11081 21086 39763 40108 53016 6///1 333 11081 21213 7////
AAXX 10184 71164 NIL
AAXX 10184 71165 NIL
AAXX 10184 71166 NIL
AAXX 10184 71167 15966 12914 10044 21033 38992 40084 51019 60001 333 10045 21056 70000
AAXX 10184 71168 16/// /0000 10012 21069 39645 40256 58012 60001 333 10012 21164 70000
AAXX 10184 71170 NIL
AAXX 10184 71171 47/// /2812 11016 21105 30194 40295 50000 6///1 7//4/ 333 11014 21056 7////
AAXX 10184 71172 17/// ///// 11047 21076 30031 40254 50003 60051 7//4/ 333 11035 21069 70152 555 10180
AAXX 10184 71175 NIL
AAXX 10184 71176 460// /2331 11182 39298 49992 53004 6///1 333 11167 21184 7////
AAXX 10184 71177 460// /2322 11217 38996 40030 55002 6///1 333 11207 21232 7////
AAXX 10184 71178 16/// /2124 10043 21020 30178 40210 55028 60001 333 10044 21005 70000
AAXX 10184 71179 460// /1817 11158 39253 40106 56014 6///1 333 11148 21204 7////
AAXX 10184 71180 16/// /1618 10054 20036 30139 40178 58029 60001 333 10058 20007 70000
AAXX 10184 71181 17964 31917 10048 20007 30172 40209 56027 60001 741// 333 10057 21006 70000
AAXX 10184 71183 16/// /2207 30210 57007 60001 333 70015
AAXX 10184 71184 46/// /2511 11009 21074 6///1 333 10003 21033 7////
AAXX 10184 71186 NIL
AAXX 10184 71187 15666 62210 10003 21010 30165 40214 51013 60001 333 10003 21065 70000
AAXX 10184 71189 NIL
AAXX 10184 71190 NIL
AAXX 10184 71191 17/// ///// 10042 20031 69981 7//4/ 333 10074 20031 70050
AAXX 10184 71192 15766 81401 11060 21071 39500 40175 53008 60001 333 11056 21108 70000
AAXX 10184 71193 16/// /2606 11122 21157 39860 40238 58005 60001 333 11122 21172 70000
AAXX 10184 71196 16/// /2506 11034 21112 30051 40255 58003 60001 333 11031 21110 70011 555 10020
AAXX 10184 71197 16359 31917 10051 20041 30133 40182 58028 60001 333 10053 20024 70000
AAXX 10184 71198 46/// /2411 11022 21100 6///1 333 10006 21033 7////
AAXX 10184 71199 46/// /3002 11093 21102 39309 40156 53027 6///1 333 11053 21100 7////
AAXX 10181 33088 12997 62603 10002 21004 39935 40130 52003 69942 80004 333 10043
AAXX 10181 33177 32997 51703 10012 21010 39893 40134 58002 83041 333 10049
AAXX 10181 33261 11396 82203 10016 20008 39951 40136 58004 60032 76162 8772/ 333 10031 87707
AAXX 10181 33275 11497 82005 10034 20027 39924 40149 57006 69952 78082 8435/ 333 10034 84911
AAXX 10181 33301 12997 32301 11008 21015 39854 40143 52002 60032 82031 333 10039
AAXX 10181 33325 11997 82401 10022 20003 39869 40139 58002 69972 70282 8805/ 333 10049
AAXX 10181 33377 11597 82302 10033 20007 39955 40151 57002 69902 78082 8635/ 333 10040
AAXX 10181 33415 11296 82302 10003 20000 39744 40150 58006 60032 77187 8772/ 333 10037 86704
AAXX 10181 33429 11296 81901 10005 21000 39718 40149 58006 69972 78582 883// 333 10047 86706
AAXX 10181 33466 11659 81903 10027 20009 39959 40149 58001 69902 71082 8457/ 333 10040
AAXX 10181 33526 11211 80000 10003 21003 39813 40160 52003 60032 78688 883// 333 10071 86706
AAXX 10181 33562 11540 81602 10021 20011 39781 40147 50000 69912 71082 8355/ 333 10045
AAXX 10181 33614 11762 81904 10062 20033 30054 40159 56001 69902 70262 8655/ 333 10067 86650
AAXX 10181 33761 32998 82004 10035 20012 39931 40156 57005 8805/ 333 10050
AAXX 10181 33902 32597 72201 10061 20022 30117 40183 57005 87500 333 10087
AAXX 10181 33983 32997 61905 10061 20032 30185 40246 58006 86050 333 10085
AAXX 10181 34415 32697 81806 10023 20001 30111 40209 57009 86554 333 10031
AAXX 10181 34523 32597 71402 10013 21019 30165 40243 58005 87500 333 10028 87620
AAXX 10181 34712 32998 61804 10027 20022 30157 40245 57010 86030 333 10027
AAXX 10184 71350 17/// /3202 10019 20009 30099 40165 58023 60021 7//4/ 333 10053 20012 70031
AAXX 10184 71351 NIL
AAXX 10184 71352 16/// /2810 11059 21100 39821 40292 50005 60001 333 11059 21117 70006
AAXX 10184 71353 NIL
AAXX 10184 71354 NIL
AAXX 10184 71355 16/// /0401 11286 21316 39972 40060 51003 60001 333 11255 21298 70000
AAXX 10184 71356 NIL
AAXX 10184 71357 NIL
AAXX 10184 71358 16/// /3119 11123 21140 39931 49966 53002 60001 333 11116 21173 70000 555 10010
AAXX 10184 71359 NIL
AAXX 10184 71360 NIL
AAXX 10184 71361 NIL
AAXX 10184 71362 NIL
AAXX 10184 71363 NIL
AAXX 10184 71364 NIL
AAXX 10184 71365 NIL
AAXX 10184 71368 17566 82615 11051 21100 39895 40299 50002 60001 771// 333 11044 21093 70003
AAXX 10184 71369 15766 61602 11047 21070 39357 40065 53002 60001 333 11027 21082 70000
AAXX 10184 71370 46/// /2907 11037 21101 30095 40234 57006 6///1 333 11017 21089 7////
AAXX 10184 71371 15666 32512 11020 21086 30216 40251 56009 60001 333 10005 21038 70023
AAXX 10184 71372 16/// /2605 11020 21058 60001 333 10007 21049 70010
AAXX 10184 71373 16/// /2906 11024 21093 60001 333 10008 21047 70022
AAXX 10184 71374 NIL
AAXX 10184 71375 NIL
AAXX 10184 71376 NIL
AAXX 10184 71377 16/// /2408 11015 21058 30202 40251 57006 60001 333 11002 21044 70019
AAXX 10184 71378 16/// /2005 11054 21134 30016 40230 58013 60001 333 11051 21179 70040 555 10070
AAXX 10184 71379 16/// /3306 11102 21162 30037 40214 58005 60001 333 11075 21161 70000
AAXX 10184 71380 NIL
AAXX 10184 71381 NIL
AAXX 10184 71382 NIL
AAXX 10184 71383 NIL
AAXX 10184 71384 NIL
AAXX 10184 71385 NIL
AAXX 10184 71386 16/// /3004 11045 21108 39979 40188 56005 60001 333 11004 21057 70000
AAXX 10184 71387 NIL
AAXX 10184 71388 46/// /3205 11093 21129 30033 40227 58003 6///1 333 11042 21115 7////
AAXX 10184 71389 NIL
AAXX 10184 71390 NIL
AAXX 10184 71391 16/// ///// 11033 21089 60001 333 11033 21094 70022
AAXX 10184 71392 16/// /2407 11038 21080 60001 333 10001 21058 70050
AAXX 10184 71393 NIL
AAXX 10184 71395 11448 82013 10080 20072 39986 40164 58037 69921 76182 887// 333 10081 21003 70002 90926
AAXX 10184 71398 15666 82309 11144 21191 30207 40219 58004 60001 333 11144 21222 70000
AAXX 10184 71399 NIL
AAXX 10184 71450 NIL
AAXX 10184 71451 16/// /2701 11139 21166 39686 40128 56005 60001 333 11135 21252 70000
AAXX 10184 71452 46/// /2006 10012 21056 39414 40130 58018 6///1 333 10012 21113 7////
AAXX 10184 71453 NIL
AAXX 10184 71454 16/// /1403 11057 21084 39387 40089 58008 60001 333 11057 21156 70000
AAXX 10184 71455 NIL
AAXX 10184 71456 16/// /1906 11081 21103 39497 40106 56013 60001 333 11080 21159 70000
AAXX 10184 71457 16/// /2512 10043 21034 39189 40076 58003 60001 333 10043 21046 70000
AAXX 10184 71458 16/// /1703 11062 21089 39283 40058 56015 60001 333 11028 21110 70000
AAXX 10184 71459 16/// /2108 10003 21057 39276 40089 58006 60001 333 10010 21097 70000
AAXX 10184 71460 16/// /3106 11050 21085 30015 40264 58004 60001 333 11048 21071 70000
AAXX 10184 71461 NIL
AAXX 10184 71462 NIL
AAXX 10184 71463 NIL
AAXX 10184 71464 NIL
AAXX 10184 71465 NIL
AAXX 10184 71466 NIL
AAXX 10184 71468 NIL
AAXX 10184 71470 NIL
AAXX 10184 71471 15966 12710 11003 21059 39299 40092 53020 60001 333 10011 21060 70000
AAXX 10184 71473 16/// /3002 10015 20000 30186 40217 53016 60001 333 10027 20001 70000
AAXX 10184 71475 16/// /0806 11005 21006 30131 40226 53005 60001 333 11005 21021 70000
AAXX 10184 71476 NIL
AAXX 10184 71477 17/// /2413 10038 20027 60021 7//4/ 333 10052 20032 70060
AAXX 10184 71478 NIL
AAXX 10184 71479 NIL
AAXX 10184 71480 NIL
AAXX 10184 71481 NIL
AAXX 10184 71482 NIL
AAXX 10184 71483 NIL
AAXX 10184 71484 NIL
AAXX 10184 71485 17/// /1308 10045 20037 30186 40207 53009 60031 7//4/ 333 10048 20022 70032
AAXX 10184 71486 16/// /1602 11030 21059 38914 40134 53008 60001 333 11027 21123 70000
AAXX 10184 71487 16/// /2803 10012 21053 39243 40115 58017 60001 333 10015 21103 70000
AAXX 10184 71489 16/// /1404 11045 21073 39271 40078 58014 60001 333 11045 21109 70000
AAXX 10184 71490 NIL
AAXX 10184 71491 16/// /03// 11047 21062 60001 333 10086 21253 70000
AAXX 10184 71492 NIL
AAXX 10184 71493 17/// /3105 10038 20023 30132 40170 56014 60021 7//4/ 333 10077 20038 70015
AAXX 10184 71494 16/// /2810 11063 21099 39693 40224 57002 60001 333 11012 21068 70033 555 10080
AAXX 10184 71495 NIL
AAXX 10184 71496 16/// /2005 11042 21066 39470 40088 56013 60001 333 11042 21132 70000
AAXX 10184 71497 46/// /0905 11118 21138 39882 40155 53029 6///1 333 11118 21163 7////
AAXX 10184 71498 NIL
AAXX 10184 71499 17364 81003 11118 21134 39465 40108 58001 60001 771// 333 11118 21188 70000
AAXX 10184 71043 11680 60000 11134 21157 30039 40134 51012 69901 70177 84570 333 11123 21212 48019 70014 90923
AAXX 10184 71045 16/// /2907 11063 21087 39310 40183 53030 60001 333 11042 21099 70000
AAXX 10184 71050 NIL
AAXX 10184 71051 NIL
AAXX 10184 71052 NIL
AAXX 10184 71066 NIL
AAXX 10184 71068 11974 72612 10010 21046 39363 40051 53008 60001 71411 85072 333 10015 21043 70000
AAXX 10184 71069 16964 00000 11048 21063 39357 40064 53002 60001 333 11031 21081 70005
AAXX 10184 71076 16/// /0000 11152 21171 39716 40121 51005 60001 333 11151 21190 70000
AAXX 10184 71077 16/// /1106 11093 21108 39543 40093 58010 60001 333 11093 21166 70007
AAXX 10184 71079 11774 60000 11177 21218 39857 40153 58006 69901 77671 86500 333 11177 21336 44003 79999 90921
AAXX 10184 71081 47964 02907 11246 21287 30015 40027 56001 6///1 745// 333 11240 21312 7////
AAXX 10184 71082 NIL
AAXX 10184 71083 11966 03412 11299 21342 30032 40076 51007 69901 77677 333 11286 21302 48053 79999 90983
AAXX 10184 71090 47522 83120 11124 21140 39933 49968 53002 6///1 745// 333 11118 21173 7////
AAXX 10184 71091 460// /3019 11209 39769 49981 56002 6///1 333 7////
AAXX 10184 71092 46206 30908 11174 39296 49963 51003 6///1 333 11168 21184 7////
AAXX 10184 71093 460// /3620 11144 39453 49948 58004 6///1 333 11142 21154 7////
AAXX 10184 71094 46062 /3422 11126 38999 49885 50004 6///1 333 11117 21131 7////
AAXX 10184 71095 NIL
AAXX 10184 71101 160// /2612 30183 52011 60001 333 70000
AAXX 10184 71104 12874 72202 11062 21085 39047 40176 53014 60001 87070 333 11038 21081 70000
AAXX 10184 71108 11556 80702 10006 21001 30147 40221 52012 60001 71042 885// 333 10006 21043 70000
AAXX 10184 71109 11574 70000 10046 20034 30185 40212 53009 60021 78062 87500 333 10048 20006 70016 90916
AAXX 10184 71397 11469 82702 10053 20045 30143 40178 58014 60051 78082 885// 333 10068 20029 70046 90952
AAXX 10184 71400 16/64 /2110 10048 20005 60001 333 10050 21065 70000
AAXX 10184 71403 46/// /1821 10075 30145 40165 56044 6///1 333 10085 20057 7////
AAXX 10184 71411 16/// /2311 10086 20077 30155 40167 56034 60001 333 10092 20061 70000
AAXX 10184 71412 17/// /3215 10038 20029 30154 40164 58025 60031 7//4/ 333 10068 20006 70027
AAXX 10184 71421 NIL
AAXX 10184 71430 16/// /2717 10002 21073 30176 40275 54000 60001 333 10006 21020 70048
AAXX 10184 71431 16/// /3010 11009 21109 30174 40272 58001 60001 333 11008 21057 70003
AAXX 10184 71432 NIL
AAXX 10184 71433 NIL
AAXX 10184 71435 NIL
AAXX 10184 71441 NIL
AAXX 10184 71443 16/// /2504 11079 21099 39711 40133 58011 60001 333 11068 21181 70000
AAXX 10184 71444 16/// /2502 11063 21097 39375 40148 58001 60001 333 11062 21200 70000
AAXX 10184 71447 16/// /1907 11028 21070 39605 40158 58010 60001 333 11028 21138 70000
AAXX 10184 71467 NIL
AAXX 10184 71472 NIL
AAXX 10184 71474 16864 31902 11062 21070 38921 40184 51016 60001 333 11059 21108 70000
AAXX 10184 71510 16/// /2307 11022 21059 39362 40074 58021 60001 333 11022 21113 70000
AAXX 10184 71538 12674 22611 11027 21110 30080 40319 58007 60001 82500 333 11020 21073 79999
AAXX 10184 71600 17120 81004 10086 20082 30191 40197 56039 60021 74344 333 10092 20048 70020
AAXX 10184 71601 NIL
AAXX 10184 71744 NIL
AAXX 10184 71750 17/// /0404 11091 21115 39974 40217 58010 69931 7//4/ 333 11091 21133 70003
AAXX 10184 71751 NIL
AAXX 10184 71752 NIL
AAXX 10184 71753 17/// /2009 10080 20064 30126 40155 56040 69931 7//4/ 333 10083 21019 70003
AAXX 10184 71754 16/// /1303 11046 21074 39411 40084 58017 60001 333 11042 21122 70000
AAXX 10184 71755 43/// /2102 11172 21227 39817 40178 58005 6///1 333 11172 21281 7////
AAXX 10184 71756 16/// /0000 11025 21045 39079 40179 51008 60001 333 10014 21031 70000 555 10010
AAXX 10184 71758 NIL
AAXX 10184 71760 NIL
AAXX 10184 71761 NIL
AAXX 10184 71762 NIL
AAXX 10184 71763 NIL
AAXX 10184 71765 16/// /0102 11062 21070 39925 40208 51023 60001 333 11062 21083 70000
AAXX 10184 71766 16/// /1502 10036 20012 30138 40210 53007 60001 333 10036 21008 70000
AAXX 10184 71767 16/// /2508 11034 21095 39999 40267 58001 60001 333 11034 21051 70000
AAXX 10184 71768 46/// /0102 11037 21061 39667 40230 53002 6///1 333 11036 21083 7////
AAXX 10184 71769 16/// /2501 10034 20011 30188 40204 53006 60001 333 10035 20020 70000
AAXX 10184 71770 16/// /1902 11050 21089 39456 40249 56012 60001 333 11043 21091 70000
AAXX 10184 71771 NIL
AAXX 10184 71772 16/// /1703 10037 20015 30200 40206 53007 60001 333 10037 20017 70000
AAXX 10184 71773 16/// /3004 11055 21066 39333 40203 51021 60001 333 11037 21072 7//// 555 10030
AAXX 10184 71774 46/// ///// 10002 6///1 333 10017 21010 7////
AAXX 10184 71775 46/// /3301 11013 21014 30219 40225 53012 6///1 333 11012 21044 7////
AAXX 10184 71776 46/// /0608 11017 21052 39582 40236 56004 6///1 333 11013 21031 7////
AAXX 10184 71777 16/// ///// 11077 21085 39952 40212 51011 60001 333 11077 21122 70000 555 10010
AAXX 10184 71778 46/// /0211 6///1 333 7////
AAXX 10184 71779 16/// /0000 11055 21069 39496 40170 53008 60001 333 11054 21105 70000
AAXX 10184 71780 16/// /2912 10057 20026 30188 40216 53012 60001 333 10063 20025 70000
AAXX 10184 71781 46/// /0603 10032 20006 30183 40208 53009 6///1 333 10032 20021 7////
AAXX 10184 71782 46/// /0000 11112 21121 38874 40249 58013 6///1 333 11111 21149 7////
AAXX 10184 71783 16/// /3603 10026 20017 30140 40215 51012 60001 333 10028 21017 70000
AAXX 10184 71784 16/// /0000 10016 20006 30003 40210 53012 60001 333 10020 21008 70000
AAXX 10184 71785 16/// /0203 10018 20006 30208 40224 52012 60001 333 10021 21022 70000
AAXX 10184 71786 46/// /2618 11102 21114 38335 40211 56008 6///1 333 11102 21126 7////
AAXX 10184 71787 17/// /3107 10004 21003 39682 40173 58012 60021 7//4/ 333 10026 20001 70129
AAXX 10184 71788 NIL
AAXX 10184 71789 NIL
AAXX 10184 71791 NIL
AAXX 10184 71792 NIL
AAXX 10184 71793 NIL
AAXX 10184 71794 NIL
AAXX 10184 71795 NIL
AAXX 10184 71796 NIL
AAXX 10184 71797 NIL
AAXX 10184 06030 01470 22815 10062 20029 39939 49955 52026 60022 70181 82501 333 10062 20026 69917 82619 91144 91232
AAXX 10184 06060 01456 72717 10050 20032 39936 40001 52017 60012 78082 87900 333 10061 20014 69967 81710 84918 86622 91138
AAXX 10184 06070 07464 72615 10046 20015 39957 49988 52015 69922 76166 333 10053 20018 69927 81/19 85/22 87/27 91132
AAXX 10184 06120 36971 12418 10038 20010 39997 40023 52007 333 10040 20016 81/69 91031 91139
AAXX 10184 06180 02680 32521 10038 20005 39995 40001 52004 69902 82570 333 10044 20023 6///7 81639 83360 91134
AAXX 10184 06193 07560 72534 10047 20015 39998 40010 52004 69962 70084 333 10049 20034 55300 20000 69917 81/22 83/28 85/32 87/57 91144
AAXX 10184 71726 17/// /2506 11091 21119 39662 40223 56007 60021 7//4/ 333 11087 21155 70021 555 10010
AAXX 10184 71727 NIL
AAXX 10184 71728 12682 63505 11097 21140 30000 40228 58007 60001 86500 333 11066 21128 70008
AAXX 10184 71730 12574 61904 11071 21126 39815 40255 58003 60001 81531 333 11071 21138 70000
AAXX 10184 71731 12574 62207 11075 21123 39789 40257 50000 60001 81171 333 11072 21123 79999
AAXX 10184 71735 NIL
AAXX 10184 71738 11532 80000 11097 21119 39870 40238 58004 69901 77177 885// 333 11097 21158 47016 79999 90973
AAXX 10184 71739 42574 72705 11118 21158 39861 40239 58005 6//// 70277 87500 333 11118 21146 4//// 7//// 90953
AAXX 10184 71749 16564 80000 11094 21157 39958 40214 58018 60001 333 11094 21162 70000
AAXX 10184 71799 12580 72203 10026 20013 30194 40218 51012 60001 86570 333 10026 21031 70000
AAXX 10184 71800 16/// /1917 10041 20024 30229 40262 55027 60001 333 10048 20011 70000
AAXX 10184 71801 12974 82018 10037 21031 30069 40245 55034 60001 82077 333 10047 21009 70000
AAXX 10184 71803 12580 82017 10040 21020 30008 40196 56022 60001 82577 333 10042 21019 79999
AAXX 10184 71807 NIL
AAXX 10184 71808 11458 82406 10007 21001 30067 40114 56028 60041 77172 885// 333 10011 21091 44018 70044 90973 93104
AAXX 10184 71809 11466 82509 10027 20016 30136 40163 58016 60031 76122 885// 333 10041 21009 41997 70030 90962
AAXX 10184 71810 16/// /2910 11033 21105 30092 40159 56009 60001 333 10002 21044 70000
AAXX 10184 71811 NIL
AAXX 10184 71813 NIL
AAXX 10184 71814 16/// /2512 10013 20004 30110 40120 56017 60001 333 10022 21093 70027
AAXX 10184 71815 11484 82714 10032 20028 30141 40172 56020 60031 78088 885// 333 10051 21001 70033 90983
AAXX 10184 71950 15766 81101 11090 21097 39517 40163 51023 60001 333 11083 21112 70000
AAXX 10184 71952 16/// /3501 11162 21178 39291 40170 53019 60001 333 11106 21188 70000
AAXX 10184 71954 NIL
AAXX 10184 71956 NIL
AAXX 10184 71959 NIL
AAXX 10184 71960 460// /3205 11140 39971 40106 51018 6///1 333 11136 21177 7////
AAXX 10184 71962 16/// /2106 11069 21121 39745 40181 58006 60001 333 11069 21186 70000
AAXX 10184 71963 NIL
AAXX 10184 71967 16/// /2613 11027 21089 30152 40260 56003 60001 333 10004 21061 70007
AAXX 10184 71970 NIL
AAXX 10184 71971 NIL
AAXX 10184 71972 460// ///// 11133 39514 49978 53001 6///1 333 11105 21134 7////
AAXX 10184 71973 46/// /2105 10018 20004 39977 40166 56020 6///1 333 10023 21019 7////
AAXX 10184 71974 NIL
AAXX 10184 71975 460// /2404 11113 39202 49921 51004 6///1 333 11091 21113 7////
AAXX 10184 71976 NIL
AAXX 10184 71977 NIL
AAXX 10184 71978 NIL
AAXX 10184 71979 NIL
AAXX 10184 71980 NIL
AAXX 10184 71981 NIL
AAXX 10184 71982 NIL
AAXX 10184 71983 NIL
AAXX 10184 71984 16/// /2705 11147 21160 30073 40081 53013 60001 333 11137 21157 70000 555 10030
AAXX 10184 71985 NIL
AAXX 10184 71986 NIL
AAXX 10184 71987 17/// /2712 10019 20008 30156 40166 56014 60041 7//4/ 333 10035 21001 70094
AAXX 10184 71988 NIL
AAXX 10184 71989 NIL
AAXX 10184 71990 NIL
AAXX 10184 71999 46/// ///// 11053 6///1 333 11052 21082 7////
AAXX 10184 71550 NIL
AAXX 10184 71551 NIL
AAXX 10184 71552 NIL
AAXX 10184 71553 NIL
AAXX 10184 71554 17/// /2715 11040 21073 30197 40203 55007 60011 7//4/ 333 11016 21049 70084
AAXX 10184 71555 16/// /2404 10071 21109 38545 40085 56008 60001 333 10077 20006 70000
AAXX 10184 71556 NIL
AAXX 10184 71557 46/// /0000 11058 21085 6///1 333 11057 21118 7////
AAXX 10184 71558 46/// ///// 10002 21001 30077 40114 56024 6///1 333 10002 21090 7////
AAXX 10184 71559 17/// /2210 11005 21052 39436 40144 58016 60871 7//4/ 333 11005 21120 7////
AAXX 10184 71560 16/// /2905 11031 21090 39861 40173 50009 60001 333 11031 21152 70000
AAXX 10184 71563 NIL
AAXX 10184 71564 16/// /2907 11021 21081 39793 40169 50009 60001 333 11019 21135 70000
AAXX 10184 71565 NIL
AAXX 10184 71566 NIL
AAXX 10184 71567 NIL
AAXX 10184 71568 16/// /1704 10025 20007 30202 40215 51010 60001 333 10038 20008 70000
AAXX 10184 71569 16/// /1807 10016 21046 39395 40101 58021 60001 333 10016 21115 70000
AAXX 10184 71570 16/// /1803 11077 21134 39850 40172 51005 60001 333 11077 21170 70000
AAXX 10184 71571 NIL
AAXX 10184 71572 NIL
AAXX 10184 71573 NIL
AAXX 10184 71574 12574 72703 11011 21061 30110 40184 56007 60001 82879 333 11003 21030 79999
AAXX 10184 71575 16/// /0406 11140 21158 39937 40002 51009 60001 333 11129 21159 70016
AAXX 10184 71576 16/// /1702 11189 21210 39915 40001 50000 60001 333 11169 21200 70000
AAXX 10184 71577 46/// /1802 11079 21118 6///1 333 11076 21153 7////
AAXX 10184 71578 16/// /2509 11033 21088 60001 333 10004 21044 70062
AAXX 10184 71579 NIL
AAXX 10184 71580 11366 61505 11257 21296 30049 40087 52008 69901 70277 86500 333 11237 21269 48030 79999 90923
AAXX 10184 71581 NIL
AAXX 10184 71582 15566 61702 10011 20011 30159 40213 51015 69931 333 10053 20002 70041
AAXX 10184 71583 NIL
AAXX 10184 71584 15966 02812 11039 21108 30106 40155 56007 60001 333 11031 21090 70000
AAXX 10184 71585 NIL
AAXX 10184 71586 16/// /0905 11094 21107 39626 40101 58014 60001 333 11094 21195 70005
AAXX 10184 71587 NIL
AAXX 10184 71588 16/// /2408 10017 20007 60001 333 10017 21014 70000
AAXX 10184 71589 16/// /2113 10036 21018 30069 40203 56027 60001 333 10042 21018 70000
AAXX 10184 71590 16/// /3205 11030 21077 30006 40200 55003 60001 333 11007 21043 70003
AAXX 10184 71592 NIL
AAXX 10184 71593 NIL
AAXX 10184 71596 NIL
AAXX 10184 71598 16/64 /2810 10004 21049 30172 40178 56004 60001 333 10020 21002 70000
AAXX 10184 71599 17/// /3301 10045 20045 39979 40182 56021 60021 7//4/ 333 10067 20013 70021
AAXX 10184 71877 12986 60000 11001 21078 38828 40094 58001 60001 82031 333 10077 21041 70000
AAXX 10184 71812 46964 33009 11275 21317 30091 40105 51003 6///1 333 7////
AAXX 10184 71819 17258 82108 10002 21001 30081 40123 56024 60001 771// 333 10003 21087 70000
AAXX 10184 71820 16/// /2610 11011 21092 30152 40269 58003 60001 333 11009 21047 70000
AAXX 10184 71823 16556 82310 11186 21222 39779 40177 51003 60001 333 11182 21207 70000
AAXX 10184 71824 NIL
AAXX 10184 71826 16/// /2507 11113 21133 39892 49934 52005 60001 333 11081 21113 70000
AAXX 10184 71829 16/// /2610 11057 21117 30021 40186 55008 60001 333 11045 21077 70019
AAXX 10184 71833 NIL
AAXX 10184 71835 16/// /2104 11142 21194 39686 40186 58002 60001 333 11138 21232 70000
AAXX 10184 71837 NIL
AAXX 10184 71839 NIL
AAXX 10184 71840 NIL
AAXX 10184 71846 16/// /2607 11160 21205 39866 40196 50001 60001 333 11160 21219 70000
AAXX 10184 71847 NIL
AAXX 10184 71848 NIL
AAXX 10184 71849 16/// /2204 11069 21105 39862 40170 50006 60001 333 11069 21153 70000
AAXX 10184 71051 NIL
AAXX 10184 71055 NIL
AAXX 10184 71057 NIL
AAXX 10184 71059 460// ///// 11212 30009 40102 53007 6///1 333 11205 21242 7////
AAXX 10184 71061 16/// /2809 11016 21073 39282 40065 53018 60001 333 11016 21088 70000
AAXX 10184 71062 46/// /2906 10009 21073 38994 40057 53016 6///1 333 10035 21057 7////
AAXX 10184 71064 460// /3309 11283 39896 40122 53010 6///1 333 11282 21303 7////
AAXX 10184 71065 NIL
AAXX 10184 71067 NIL
AAXX 10184 71070 NIL
AAXX 10184 71073 NIL
AAXX 10184 71074 16/// ///02 11336 21370 30006 40087 51002 60001 333 11314 21336 70000 555 10010
AAXX 10184 71075 16/// /2704 11167 21187 39493 40120 50002 60001 333 11166 21214 70000
AAXX 10184 71078 NIL
AAXX 10184 71084 460// ///// 11218 30050 40099 52009 6///1 333 11217 21231 7////
AAXX 10184 71085 15966 02724 10062 21092 38754 40128 56013 60001 333 10062 21006 70000
AAXX 10184 71087 NIL
AAXX 10184 71088 460// /3013 11201 51004 6///1 333 11188 21240 7////
AAXX 10184 71089 NIL
AAXX 10184 71096 460// ///// 11130 39213 49943 52005 6///1 333 11128 21169 7////
AAXX 10184 71097 47004 03205 11092 39472 49942 51001 6///1 745// 333 11090 21094 7////
AAXX 10184 71098 43/// /1703 11160 21208 39796 40172 58006 6///1 333 11158 21261 7////
AAXX 10184 71099 43/// /2510 11238 21298 30129 40150 51012 6///1 333 11237 21275 7////
AAXX 10181 12120 11570 72309 10023 20005 30025 40032 52008 69962 72582 873// 333 10037 20019 91117 93096
AAXX 10181 12250 12670 32304 10014 21005 39998 40088 53005 60002 83500 333 10036 20011 91110 93000
AAXX 10181 12295 12462 32603 10006 21012 39903 40090 53006 69902 82501 333 10026 21009 91108 93000
AAXX 10181 12330 12665 22305 10013 21008 39999 40109 51008 60002 81502 333 10038 20013 93000
AAXX 10181 12375 11570 72303 10021 21003 39976 40109 53003 69902 70182 875// 333 10040 20020 91110 93097
AAXX 10181 12424 12799 12604 10009 21018 39982 40138 51011 69912 81500 333 10044 20004 93000
AAXX 10184 71500 NIL
AAXX 10184 71501 NIL
AAXX 10184 71502 NIL
AAXX 10184 71503 NIL
AAXX 10184 71504 NIL
AAXX 10184 71505 46/// /3003 11072 21092 39469 40207 53018 6///1 333 11027 21082 7////
AAXX 10184 71506 NIL
AAXX 10184 71507 NIL
AAXX 10184 71508 16/// ///// 11013 21107 30153 40295 58002 60001 333 11009 21048 70000
AAXX 10184 71509 NIL
AAXX 10184 71511 16/// /1804 11060 21074 39453 40099 58022 60001 333 11044 21134 70000
AAXX 10184 71512 16/// /2705 11030 21065 30145 40159 58008 60001 333 11028 21097 70000
AAXX 10184 71513 17766 82812 11025 21055 30132 40148 51008 69931 7004/ 333 10017 21069 70018
AAXX 10184 71514 NIL
AAXX 10184 71515 16/// /1912 11026 21065 39410 40117 58020 60001 333 11025 21139 70000
AAXX 10184 71516 17/// /1505 10005 21060 69971 7//4/ 333 10005 21110 70007
AAXX 10184 71517 NIL
AAXX 10184 71518 NIL
AAXX 10184 71519 NIL
AAXX 10184 71520 NIL
AAXX 10184 71521 NIL
AAXX 10184 71522 NIL
AAXX 10184 71523 NIL
AAXX 10184 71524 16/// /2508 11019 21084 30232 40259 58008 60001 333 11006 21052 70030
AAXX 10184 71525 NIL
AAXX 10184 71526 NIL
AAXX 10184 71527 17666 81909 11098 21132 39658 40182 58004 60001 771// 333 11098 21169 70000
AAXX 10184 71528 NIL
AAXX 10184 71529 46/// /2306 11112 21128 39855 40087 53006 6///1 333 11112 21186 7//// 555 10020
AAXX 10184 71532 17448 82507 11038 21059 39907 40261 50000 60001 771// 333 11037 21062 70000
AAXX 10184 71534 17448 62313 11038 21071 30002 40283 50001 60001 745// 333 11026 21107 70000
AAXX 10184 71535 NIL
AAXX 10184 71536 NIL
AAXX 10184 71537 NIL
AAXX 10184 71539 NIL
AAXX 10184 71540 NIL
AAXX 10184 71541 NIL
AAXX 10184 71542 NIL
AAXX 10184 71543 NIL
AAXX 10184 71544 NIL
AAXX 10184 71545 NIL
AAXX 10184 71546 NIL
AAXX 10184 71547 NIL
AAXX 10184 71548 NIL
AAXX 10184 71549 NIL
AAXX 10184 71864 NIL
AAXX 10184 71865 16/// /1907 11005 21062 39419 40104 56018 60001 333 11005 21131 70000
AAXX 10184 71866 46964 01804 11042 21070 39472 40093 57014 6///1 333 11042 21132 7////
AAXX 10184 71867 11474 81903 11111 21124 39790 40135 58005 69901 77122 887// 333 11111 21193 48011 70002 90931
AAXX 10184 71868 NIL
AAXX 10184 71869 12974 80703 11092 21101 39563 40100 58014 60001 83071 333 11092 21176 70004
AAXX 10184 71871 15966 01304 11036 21081 39257 40065 56013 60001 333 11026 21089 70000
AAXX 10184 71877 12986 60000 11001 21078 38828 40094 50001 60001 82031 333 10077 21041 70000
AAXX 10184 71878 12974 72108 11031 21097 39007 40086 55001 60001 81071 333 11018 21126 70000
AAXX 10184 71879 16964 32103 11048 21094 39256 40063 55003 60001 333 11013 21090 70000
AAXX 10184 71880 12374 70000 11091 21112 39110 40252 56013 60001 87500 333 11092 21131 79999
AAXX 10184 71882 16564 83104 11018 21060 39673 40222 56002 60001 333 11006 21060 70000
AAXX 10184 71883 NIL
AAXX 10184 71887 12286 51002 11054 21064 39777 40210 53014 60001 81621 333 11046 21117 70000
AAXX 10184 71889 12474 61912 11031 21053 39800 40228 50002 60001 85670 333 11019 21050 70000
AAXX 10184 71891 16964 00102 11060 21069 39928 40210 51023 60001 333 11060 21081 70000
AAXX 10184 71892 12369 80905 10014 20004 30213 40218 52010 60001 885// 333 10016 21032 70000
AAXX 10181 12160 12560 71802 10009 21013 30003 40057 53005 60002 875// 333 10040 20007 91112 93000
AAXX 10181 12205 11576 12206 10012 20008 30075 40083 51005 69902 70181 81500 333 10045 20011 91115 93097
AAXX 10181 12465 11662 42405 10009 21007 39883 40121 52009 69902 70181 81530 333 10026 20009 93097
AAXX 10181 12566 11560 82504 10015 20003 39849 40149 53011 69942 78311 879// 333 10052 21009 93094
AAXX 10181 12105 12584 72306 10023 21011 30018 40061 51008 60002 875// 333 10035 20015 91116 93000
AAXX 10181 12195 12961 02405 10000 21018 39832 40063 51003 60002 333 10023 20000 91112 93000
AAXX 10181 12235 11469 62407 10009 20000 39856 40069 52005 69912 72611 869// 333 10027 20003 93091
AAXX 10181 12270 12561 72306 10008 21004 39904 40089 53004 60002 875// 333 10026 20003 93000
AAXX 10181 12280 12667 72206 10011 21015 39911 40070 50005 60002 877// 333 10037 20009 91110 93000
AAXX 10181 12300 11665 72603 10014 21007 30011 40102 52007 69902 70381 8353/ 333 10040 20013 91108 93097
AAXX 10181 12400 11565 22404 10006 21007 39885 40125 53010 69902 70281 82500 333 10033 20004 93097
AAXX 10181 12435 11960 22305 10006 21016 39947 40123 52010 69902 70181 82030 333 10022 20006 93097
AAXX 10181 12495 11662 72402 10014 21007 39829 40126 51006 69902 72111 875// 333 10035 20008 93097
AAXX 10181 12530 12760 42101 10010 21005 39940 40144 52009 60002 83530 333 10055 20000 93000
AAXX 10181 12570 11650 62601 10003 21018 39811 40136 51005 69902 71081 86500 333 10041 21009 93097
AAXX 10181 12580 11958 72303 10007 20000 39880 40145 53006 69972 71011 8703/ 333 10040 20001 93000
AAXX 10181 63332 NIL
AAXX 10181 63333 42880 10000 10140 20067 38174 40211 81030 333 10242 58004 81358
AAXX 10181 63334 42580 10000 10144 20050 37623 40123 81500 333 10231 58000 81628
AAXX 10181 63340 42580 20000 10160 20118 37941 40162 82400 333 10240 58011 82625
AAXX 10181 63402 NIL
AAXX 10181 63450 42580 20805 10144 20025 37740 40140 82500 333 10225 58009 82625
AAXX 10181 63451 42580 1//// 1//// 2//// 38150 4//// 81500 333 10257 58012 81625
AAXX 10181 63453 NIL
AAXX 10181 63460 NIL
AAXX 10181 63471 NIL
AAXX 10181 63478 NLI
AAXX 10184 06011 07463 71604 10034 20010 39904 49973 57023 69902 78185 333 10034 20000 55300 20000 69907 81/16 85/21 87/30 91140
AAXX 10184 71893 12680 72903 10011 21011 30188 40220 53011 60001 83571 333 10014 21014 70000
AAXX 10184 71894 17/// /0204 10036 20036 30203 40212 53009 69981 7//4/ 333 10036 20011 70010
AAXX 10184 71896 15966 11609 11028 21053 39310 40153 53011 60001 333 11017 21117 70000
AAXX 10184 71897 11469 62710 10044 20036 3//// 4//// 52017 60011 78086 863// 333 10059 20043 70094 90997
AAXX 10184 71898 160// ///// 10051 51016 60021 333 10061 20028 70105
AAXX 10184 71899 11474 63114 10049 20033 3//// 4//// 53014 69981 72581 86900 333 10059 20040 70088 90917
AAXX 10184 71902 12574 12617 11157 21228 30094 40103 56010 60001 81500 333 11146 21178 70000
AAXX 10184 71905 NIL
AAXX 10184 71906 11774 62212 11155 21199 30008 40060 58001 69901 70277 86500 333 11149 21203 48008 79999 90927
AAXX 10184 71907 17420 92815 11103 21134 30007 40040 51018 60021 74544 333 11075 21104 70030
AAXX 10184 71909 16040 83413 11172 21200 39929 49973 50002 60001 333 11148 21176 7////
AAXX 10184 71910 46864 30306 11141 21160 39945 40008 52009 6///1 333 11130 21162 7////
AAXX 10184 71911 46964 01206 11314 30028 40087 53008 6///1 333 11272 21324 7////
AAXX 10184 71912 12574 62209 11221 21285 39962 40156 58004 60001 86500 333 11220 21301 79999
AAXX 10184 71915 11369 70415 11146 21176 39940 40022 51009 69901 77177 87500 333 11116 21213 48043 79999 90983
AAXX 10184 71917 11674 60000 11366 21408 30054 40069 50004 69901 77677 81571 333 11349 21371 47013 79999 90983
AAXX 10184 71922 11574 80907 11093 21105 39628 40104 58013 69901 70277 81570 333 11093 21195 47017 70014 90951
AAXX 10184 71924 11574 10409 11254 21293 39978 40070 52008 69901 70171 81500 333 11174 21257 48037 79999 90923
AAXX 10184 71925 11366 82904 11243 21286 30071 40114 53008 69901 77182 885// 333 11241 21317 48018 79999 90952
AAXX 10184 71926 12580 23010 11276 21326 30077 40102 53010 60001 82500 333 11241 21288 70000
AAXX 10184 71928 16/// /2811 10056 21078 38914 40074 53004 60001 333 10063 21121 70000 555 10010
AAXX 10184 71816 11574 62904 11093 21132 30076 40139 55013 69921 70187 82570 333 11093 21188 44049 70002 90922
AAXX 10184 71817 NIL
AAXX 10184 71818 11569 72305 11097 21109 30114 40132 58027 69941 77122 81110 333 11089 21142 43021 70004 90942
AAXX 10184 71822 11456 82804 11155 21191 39732 40226 58002 69941 77177 885// 333 11127 21167 43023 70006 90983
AAXX 10184 71825 NIL
AAXX 10184 71827 11474 42108 11159 21183 39915 40170 51004 69901 78571 84500 333 11159 21208 47018 70006 90937
AAXX 10184 71828 16964 02609 11197 21252 39467 40135 58002 60001 333 11187 21241 70000
AAXX 10184 71831 11574 62306 11122 21170 39939 40232 58005 69901 70172 86500 333 11121 21168 47016 70006 90921
AAXX 10184 71832 NIL
AAXX 10184 71834 11974 32305 11126 21186 39769 40215 58007 69901 70271 83030 333 11126 21175 48012 70004 90953
AAXX 10184 71841 NIL
AAXX 10184 71842 11774 82107 11114 21162 39702 40191 57005 69901 77122 885// 333 11114 21174 47003 79999 90931
AAXX 10184 71844 16964 02705 11197 21249 39893 40185 50004 60001 333 11197 21239 70000
AAXX 10184 71845 12874 41803 11143 21204 39697 40192 58002 60001 84070 333 11141 21235 79999
AAXX 10184 71850 11674 81606 11090 21123 39656 40172 50001 69901 70272 885// 333 11090 21177 48003 79999 90922
AAXX 10184 71852 16464 62204 11068 21104 39862 40165 50005 60001 333 11068 21158 70000
AAXX 10184 71854 11574 81805 11113 21158 39683 40174 58001 69901 77172 885// 333 11113 21158 48009 79999 90931
AAXX 10184 71858 NIL
AAXX 10184 71861 16/// /1905 11018 21064 39395 40128 58019 60001 333 11018 21137 70000
AAXX 10184 71862 12974 82210 11006 21054 39439 40149 58015 60001 81027 333 11006 21192 70000
AAXX 10184 71863 46964 01305 11020 21071 39411 40118 58020 6///1 333 11020 21133 7////
AAXX 10184 71603 11266 83210 10065 20052 30124 40177 58021 60021 78022 8757/ 333 10088 20047 70016 90952
AAXX 10184 71607 16/// /3106 10033 20001 30160 40193 55006 60001 333 10038 21004 70014
AAXX 10184 71609 11474 73509 10036 21003 30050 40185 56011 60011 70266 84570 333 10061 20027 70146 90943
AAXX 10184 71610 NIL
AAXX 10184 71621 12674 22714 11014 21104 30170 40279 50000 60001 82800 333 11002 21056 70002
AAXX 10184 71623 NIL
AAXX 10184 71624 NIL
AAXX 10184 71625 17564 82709 11036 21124 30092 40258 58002 69951 74544 333 11034 21136 70010
AAXX 10184 71627 12583 22210 11012 21072 30209 40255 57007 60001 82401 333 10001 21051 41997 70026
AAXX 10184 71628 12574 62508 11021 21085 30114 40258 56003 60001 85270 333 11016 21065 79999
AAXX 10184 71630 NIL
AAXX 10184 71631 16/// /2510 11061 21109 39766 40284 50003 60001 333 11058 21093 70003
AAXX 10184 71633 11456 82410 11038 21085 39993 40273 50001 69951 78587 885// 333 11033 21051 43005 70009 90973
AAXX 10184 71705 11366 83210 10027 20012 30090 40178 58009 60011 76166 887// 333 10040 20014 70136 90917
AAXX 10184 71706 11374 82504 10023 20014 30114 40175 57020 60021 78088 885// 333 10055 20022 70030 90973
AAXX 10184 71707 11466 81915 10068 20043 30099 40176 58037 69901 78022 885// 333 10068 21011 79999 90910
AAXX 10184 71709 11361 82809 10026 20016 30161 40174 56016 60041 76188 885// 333 10053 20015 70048 90993
AAXX 10184 71711 NIL
AAXX 10184 71714 46/// /2607 11037 30155 6///1 333 7////
AAXX 10184 71715 16/// /3206 11050 21109 30027 40212 55001 60001 333 10007 21054 70041 555 10030
AAXX 10184 71718 11566 52512 11033 21095 30132 40199 57010 60021 70381 85500 333 11021 21054 47014 70098 90933 93102
AAXX 10184 71719 NIL
AAXX 10184 71930 11774 72604 10032 21070 39152 40082 50018 69903 72222 86570 333 10036 21072 43014 79999 90999
AAXX 10184 71931 16/// /2223 10052 21009 30164 40176 56030 60001 333 10066 21018 70000
AAXX 10184 71934 NIL
AAXX 10184 71935 11874 82910 11124 21139 39912 40125 52023 69901 77111 8807/ 333 11121 21177 44015 79999 90921
AAXX 10184 71936 11262 83004 11100 21104 39837 40102 53013 69901 70277 885// 333 11100 21163 48024 70004 90953
AAXX 10184 71937 NIL
AAXX 10184 71938 11669 80403 11234 21259 30096 40127 52013 69901 77677 885// 333 11202 21234 70002 90983
AAXX 10184 71940 12982 22615 10013 21045 39281 40084 58010 60001 82070 333 10015 21041 70000
AAXX 10184 71943 11566 62908 11002 21033 39255 40089 52026 69901 77122 86570 333 10015 21013 44005 79999 90921
AAXX 10184 71944 160// ///// 11036 53010 60001 333 11030 21064 70000
AAXX 10184 71945 11748 80000 11086 21120 39645 40125 53030 69941 77122 885// 333 11079 21146 47011 70004 90931 93101
AAXX 10184 71946 11674 62302 11146 21174 39929 40150 53021 69901 70174 86500 333 11146 21213 48038 79999 90941
AAXX 10184 71948 47461 80812 11179 39976 40092 53012 6///1 745// 333 11179 21213 7////
AAXX 10184 71949 46/// /3204 11125 21139 39318 40212 53019 6///1 333 11091 21129 7////
AAXX 10184 71951 11258 71908 10010 20006 39905 40175 52024 69901 70287 87500 333 10015 21026 47024 70026 90963
AAXX 10184 71957 47550 81702 11082 21131 30026 40115 53018 6///1 745// 333 11074 21142 7////
AAXX 10184 71958 43/// /0000 11028 21034 39184 40127 53024 6///1 333 11020 21062 7////
AAXX 10184 71964 11374 83305 11055 21079 39336 40206 53021 69941 77172 88500 333 11036 21089 47022 70036 90983
AAXX 10184 71966 16/// /0702 11241 21267 39763 40247 51015 60001 333 11166 21257 70000
AAXX 10184 71968 47030 /2715 11084 30059 40123 51037 6///1 745// 333 11068 21086 7////
AAXX 10181 01262 46/// /0701 10026 21035 333 10030 91111
AAXX 10181 01393 16/// /3002 11038 21049 39113 49914 53028 6//// 333 11035 91107
AAXX 10181 01015 46/// /0109 10018 21014 333 10024 91113
AAXX 10181 01180 16/// /0203 11002 21063 39920 49978 57002 60002 333 10005 91111
AAXX 10181 01450 16/// /3307 11039 21076 38795 49938 53030 60092 333 11001 91117
AAXX 10184 71864 NIL
AAXX 10184 71865 16/// /1907 11005 21062 39419 40104 56018 60001 333 11005 21131 70000
AAXX 10184 71866 46964 01804 11042 21070 39472 40093 57014 6///1 333 11042 21132 7////
AAXX 10184 71867 11474 81903 11111 21124 39790 40135 58005 69901 77122 887// 333 11111 21193 48011 70002 90931
AAXX 10184 71868 NIL
AAXX 10184 71869 12974 80703 11092 21101 39563 40100 58014 60001 83071 333 11092 21176 70004
AAXX 10184 71871 15966 01304 11036 21081 39257 40065 56013 60001 333 11026 21089 70000
AAXX 10184 71877 12986 60000 11001 21078 38828 40094 50001 60001 82031 333 10077 21041 70000
AAXX 10184 71878 12974 72108 11031 21097 39007 40086 55001 60001 81071 333 11018 21126 70000
AAXX 10184 71879 16964 32103 11048 21094 39256 40063 55003 60001 333 11013 21090 70000
AAXX 10184 71880 12374 70000 11091 21112 39110 40252 56013 60001 87500 333 11092 21131 79999
AAXX 10184 71882 16564 83104 11018 21060 39673 40222 56002 60001 333 11006 21060 70000
AAXX 10184 71883 NIL
AAXX 10184 71887 12286 51002 11054 21064 39777 40210 53014 60001 81621 333 11046 21117 70000
AAXX 10184 71889 12474 61912 11031 21053 39800 40228 50002 60001 85670 333 11019 21050 70000
AAXX 10184 71891 16964 00102 11060 21069 39928 40210 51023 60001 333 11060 21081 70000
AAXX 10184 71892 12369 80905 10014 20004 30213 40218 52010 60001 885// 333 10016 21032 70000
AAXX 10184 71397 11469 82702 10053 20045 30143 40178 58014 60051 78082 885// 333 10068 20029 70046 90952
AAXX 10184 71400 16/64 /2110 10048 20005 60001 333 10050 21065 70000
AAXX 10184 71403 46/// /1821 10075 30145 40165 56044 6///1 333 10085 20057 7////
AAXX 10184 71411 16/// /2311 10086 20077 30155 40167 56034 60001 333 10092 20061 70000
AAXX 10184 71412 17/// /3215 10038 20029 30154 40164 58025 60031 7//4/ 333 10068 20006 70027
AAXX 10184 71421 NIL
AAXX 10184 71430 16/// /2717 10002 21073 30176 40275 54000 60001 333 10006 21020 70048
AAXX 10184 71431 16/// /3010 11009 21109 30174 40272 58001 60001 333 11008 21057 70003
AAXX 10184 71432 NIL
AAXX 10184 71433 NIL
AAXX 10184 71435 NIL
AAXX 10184 71441 NIL
AAXX 10184 71443 16/// /2504 11079 21099 39711 40133 58011 60001 333 11068 21181 70000
AAXX 10184 71444 16/// /2502 11063 21097 39375 40148 58001 60001 333 11062 21200 70000
AAXX 10184 71447 16/// /1907 11028 21070 39605 40158 58010 60001 333 11028 21138 70000
AAXX 10184 71467 NIL
AAXX 10184 71472 NIL
AAXX 10184 71474 16864 31902 11062 21070 38921 40184 51016 60001 333 11059 21108 70000
AAXX 10184 71510 16/// /2307 11022 21059 39362 40074 58021 60001 333 11022 21113 70000
AAXX 10184 71538 12674 22611 11027 21110 30080 40319 58007 60001 82500 333 11020 21073 79999
AAXX 10184 71600 17120 81004 10086 20082 30191 40197 56039 60021 74344 333 10092 20048 70020
AAXX 10184 71601 NIL
AAXX 10184 71930 11774 72604 10032 21070 39152 40082 50018 69903 72222 86570 333 10036 21072 43014 79999 90999
AAXX 10184 71931 16/// /2223 10052 21009 30164 40176 56030 60001 333 10066 21018 70000
AAXX 10184 71934 NIL
AAXX 10184 71935 11874 82910 11124 21139 39912 40125 52023 69901 77111 8807/ 333 11121 21177 44015 79999 90921
AAXX 10184 71936 11262 83004 11100 21104 39837 40102 53013 69901 70277 885// 333 11100 21163 48024 70004 90953
AAXX 10184 71937 NIL
AAXX 10184 71938 11669 80403 11234 21259 30096 40127 52013 69901 77677 885// 333 11202 21234 70002 90983
AAXX 10184 71940 12982 22615 10013 21045 39281 40084 58010 60001 82070 333 10015 21041 70000
AAXX 10184 71943 11566 62908 11002 21033 39255 40089 52026 69901 77122 86570 333 10015 21013 44005 79999 90921
AAXX 10184 71944 160// ///// 11036 53010 60001 333 11030 21064 70000
AAXX 10184 71945 11748 80000 11086 21120 39645 40125 53030 69941 77122 885// 333 11079 21146 47011 70004 90931 93101
AAXX 10184 71946 11674 62302 11146 21174 39929 40150 53021 69901 70174 86500 333 11146 21213 48038 79999 90941
AAXX 10184 71948 47461 80812 11179 39976 40092 53012 6///1 745// 333 11179 21213 7////
AAXX 10184 71949 46/// /3204 11125 21139 39318 40212 53019 6///1 333 11091 21129 7////
AAXX 10184 71951 11258 71908 10010 20006 39905 40175 52024 69901 70287 87500 333 10015 21026 47024 70026 90963
AAXX 10184 71957 47550 81702 11082 21131 30026 40115 53018 6///1 745// 333 11074 21142 7////
AAXX 10184 71958 43/// /0000 11028 21034 39184 40127 53024 6///1 333 11020 21062 7////
AAXX 10184 71964 11374 83305 11055 21079 39336 40206 53021 69941 77172 88500 333 11036 21089 47022 70036 90983
AAXX 10184 71966 16/// /0702 11241 21267 39763 40247 51015 60001 333 11166 21257 70000
AAXX 10184 71968 47030 /2715 11084 30059 40123 51037 6///1 745// 333 11068 21086 7////
AAXX 10184 71114 16464 82210 10003 21015 30165 40214 51013 60001 333 10005 21064 70005
AAXX 10184 71120 12974 60000 11033 21070 39405 40065 57016 60001 86070 333 11022 21080 70000
AAXX 10184 71122 16/// /2211 11085 21128 38543 40181 58008 60001 333 11085 21112 70000
AAXX 10184 71123 11974 72205 11054 21091 39201 40076 53002 60001 71422 85081 333 11054 21124 70000
AAXX 10184 71125 NIL
AAXX 10184 71129 12674 71804 11021 21054 39240 40076 58018 60001 82576 333 11019 21095 70000
AAXX 10184 71131 16/// /2315 11032 21073 38859 40125 58015 60001 333 11026 21095 70000
AAXX 10184 71135 16/// /2620 10010 21068 39039 40132 56017 60001 333 10019 21115 70000
AAXX 10184 71137 NIL
AAXX 10184 71140 12974 62605 11053 21076 39649 40162 58009 60001 80001 333 11053 21158 79999
AAXX 10184 71145 12974 11403 11177 21216 39860 40168 58006 60001 80001 333 11176 21267 70000
AAXX 10184 71148 16/// /2704 11028 21073 39580 40171 50002 60001 333 11028 21169 70000
AAXX 10184 71182 16564 32707 11166 21230 39598 40163 53002 60001 333 11156 21235 70000
AAXX 10184 71185 17362 62215 10030 30113 40137 56018 60071 7//44 333 10031 21022 70085
AAXX 10184 71188 11474 73605 11021 21055 30127 40170 57011 69941 70272 85880 333 10010 21086 43017 70004 90921
AAXX 10184 71200 16/// /0107 10024 20015 60001 333 10046 20003 70000
AAXX 10184 71207 16/// /3301 11017 30144 40210 51008 60001 333 11016 21051 70000
AAXX 10184 71260 13/// ///// 11050 21137 30013 40258 50000 60001 333 11050 21099 79999
AAXX 10184 71043 11680 60000 11134 21157 30039 40134 51012 69901 70177 84570 333 11123 21212 48019 70014 90923
AAXX 10184 71045 16/// /2907 11063 21087 39310 40183 53030 60001 333 11042 21099 70000
AAXX 10184 71050 NIL
AAXX 10184 71051 NIL
AAXX 10184 71052 NIL
AAXX 10184 71066 NIL
AAXX 10184 71068 11974 72612 10010 21046 39363 40051 53008 60001 71411 85072 333 10015 21043 70000
AAXX 10184 71069 16964 00000 11048 21063 39357 40064 53002 60001 333 11031 21081 70005
AAXX 10184 71076 16/// /0000 11152 21171 39716 40121 51005 60001 333 11151 21190 70000
AAXX 10184 71077 16/// /1106 11093 21108 39543 40093 58010 60001 333 11093 21166 70007
AAXX 10184 71079 11774 60000 11177 21218 39857 40153 58006 69901 77671 86500 333 11177 21336 44003 79999 90921
AAXX 10184 71081 47964 02907 11246 21287 30015 40027 56001 6///1 745// 333 11240 21312 7////
AAXX 10184 71082 NIL
AAXX 10184 71083 11966 03412 11299 21342 30032 40076 51007 69901 77677 333 11286 21302 48053 79999 90983
AAXX 10184 71090 47522 83120 11124 21140 39933 49968 53002 6///1 745// 333 11118 21173 7////
AAXX 10184 71091 460// /3019 11209 39769 49981 56002 6///1 333 7////
AAXX 10184 71092 46206 30908 11174 39296 49963 51003 6///1 333 11168 21184 7////
AAXX 10184 71093 460// /3620 11144 39453 49948 58004 6///1 333 11142 21154 7////
AAXX 10184 71094 46062 /3422 11126 38999 49885 50004 6///1 333 11117 21131 7////
AAXX 10184 71095 NIL
AAXX 10184 71101 160// /2612 30183 52011 60001 333 70000
AAXX 10184 71104 12874 72202 11062 21085 39047 40176 53014 60001 87070 333 11038 21081 70000
AAXX 10184 71108 11556 80702 10006 21001 30147 40221 52012 60001 71042 885// 333 10006 21043 70000
AAXX 10184 71109 11574 70000 10046 20034 30185 40212 53009 60021 78062 87500 333 10048 20006 70016 90916
AAXX 10181 01277 16/// /0000 11006 21016 69942 333 10007 91103
AAXX 10181 01476 16/// /3401 10018 21009 39925 49931 53043 6//// 333 10053 91108
AAXX 10184 71877 12986 60000 11001 21078 38828 40094 58001 60001 82031 333 10077 21041 70000
AAXX 10184 71726 17/// /2506 11091 21119 39662 40223 56007 60021 7//4/ 333 11087 21155 70021 555 10010
AAXX 10184 71727 NIL
AAXX 10184 71728 12682 63505 11097 21140 30000 40228 58007 60001 86500 333 11066 21128 70008
AAXX 10184 71730 12574 61904 11071 21126 39815 40255 58003 60001 81531 333 11071 21138 70000
AAXX 10184 71731 12574 62207 11075 21123 39789 40257 50000 60001 81171 333 11072 21123 79999
AAXX 10184 71735 NIL
AAXX 10184 71738 11532 80000 11097 21119 39870 40238 58004 69901 77177 885// 333 11097 21158 47016 79999 90973
AAXX 10184 71739 42574 72705 11118 21158 39861 40239 58005 6//// 70277 87500 333 11118 21146 4//// 7//// 90953
AAXX 10184 71749 16564 80000 11094 21157 39958 40214 58018 60001 333 11094 21162 70000
AAXX 10184 71799 12580 72203 10026 20013 30194 40218 51012 60001 86570 333 10026 21031 70000
AAXX 10184 71800 16/// /1917 10041 20024 30229 40262 55027 60001 333 10048 20011 70000
AAXX 10184 71801 12974 82018 10037 21031 30069 40245 55034 60001 82077 333 10047 21009 70000
AAXX 10184 71803 12580 82017 10040 21020 30008 40196 56022 60001 82577 333 10042 21019 79999
AAXX 10184 71807 NIL
AAXX 10184 71808 11458 82406 10007 21001 30067 40114 56028 60041 77172 885// 333 10011 21091 44018 70044 90973 93104
AAXX 10184 71809 11466 82509 10027 20016 30136 40163 58016 60031 76122 885// 333 10041 21009 41997 70030 90962
AAXX 10184 71810 16/// /2910 11033 21105 30092 40159 56009 60001 333 10002 21044 70000
AAXX 10184 71811 NIL
AAXX 10184 71813 NIL
AAXX 10184 71814 16/// /2512 10013 20004 30110 40120 56017 60001 333 10022 21093 70027
AAXX 10184 71815 11484 82714 10032 20028 30141 40172 56020 60031 78088 885// 333 10051 21001 70033 90983
AAXX 10184 71726 17/// /2506 11091 21119 39662 40223 56007 60021 7//4/ 333 11087 21155 70021 555 10010
AAXX 10184 71727 NIL
AAXX 10184 71728 12682 63505 11097 21140 30000 40228 58007 60001 86500 333 11066 21128 70008
AAXX 10184 71730 12574 61904 11071 21126 39815 40255 58003 60001 81531 333 11071 21138 70000
AAXX 10184 71731 12574 62207 11075 21123 39789 40257 50000 60001 81171 333 11072 21123 79999
AAXX 10184 71735 NIL
AAXX 10184 71738 11532 80000 11097 21119 39870 40238 58004 69901 77177 885// 333 11097 21158 47016 79999 90973
AAXX 10184 71739 42574 72705 11118 21158 39861 40239 58005 6//// 70277 87500 333 11118 21146 4//// 7//// 90953
AAXX 10184 71749 16564 80000 11094 21157 39958 40214 58018 60001 333 11094 21162 70000
AAXX 10184 71799 12580 72203 10026 20013 30194 40218 51012 60001 86570 333 10026 21031 70000
AAXX 10184 71800 16/// /1917 10041 20024 30229 40262 55027 60001 333 10048 20011 70000
AAXX 10184 71801 12974 82018 10037 21031 30069 40245 55034 60001 82077 333 10047 21009 70000
AAXX 10184 71803 12580 82017 10040 21020 30008 40196 56022 60001 82577 333 10042 21019 79999
AAXX 10184 71807 NIL
AAXX 10184 71808 11458 82406 10007 21001 30067 40114 56028 60041 77172 885// 333 10011 21091 44018 70044 90973 93104
AAXX 10184 71809 11466 82509 10027 20016 30136 40163 58016 60031 76122 885// 333 10041 21009 41997 70030 90962
AAXX 10184 71810 16/// /2910 11033 21105 30092 40159 56009 60001 333 10002 21044 70000
AAXX 10184 71811 NIL
AAXX 10184 71813 NIL
AAXX 10184 71814 16/// /2512 10013 20004 30110 40120 56017 60001 333 10022 21093 70027
AAXX 10184 71815 11484 82714 10032 20028 30141 40172 56020 60031 78088 885// 333 10051 21001 70033 90983
AAXX 10184 91648 30714 10278 20286 40079 60001 70211 82100 333 562//
AAXX 10184 71043 11680 60000 11134 21157 30039 40134 51012 69901 70177 84570 333 11123 21212 48019 70014 90923
AAXX 10184 71045 16/// /2907 11063 21087 39310 40183 53030 60001 333 11042 21099 70000
AAXX 10184 71050 NIL
AAXX 10184 71051 NIL
AAXX 10184 71052 NIL
AAXX 10184 71066 NIL
AAXX 10184 71068 11974 72612 10010 21046 39363 40051 53008 60001 71411 85072 333 10015 21043 70000
AAXX 10184 71069 16964 00000 11048 21063 39357 40064 53002 60001 333 11031 21081 70005
AAXX 10184 71076 16/// /0000 11152 21171 39716 40121 51005 60001 333 11151 21190 70000
AAXX 10184 71077 16/// /1106 11093 21108 39543 40093 58010 60001 333 11093 21166 70007
AAXX 10184 71079 11774 60000 11177 21218 39857 40153 58006 69901 77671 86500 333 11177 21336 44003 79999 90921
AAXX 10184 71081 47964 02907 11246 21287 30015 40027 56001 6///1 745// 333 11240 21312 7////
AAXX 10184 71082 NIL
AAXX 10184 71083 11966 03412 11299 21342 30032 40076 51007 69901 77677 333 11286 21302 48053 79999 90983
AAXX 10184 71090 47522 83120 11124 21140 39933 49968 53002 6///1 745// 333 11118 21173 7////
AAXX 10184 71091 460// /3019 11209 39769 49981 56002 6///1 333 7////
AAXX 10184 71092 46206 30908 11174 39296 49963 51003 6///1 333 11168 21184 7////
AAXX 10184 71093 460// /3620 11144 39453 49948 58004 6///1 333 11142 21154 7////
AAXX 10184 71094 46062 /3422 11126 38999 49885 50004 6///1 333 11117 21131 7////
AAXX 10184 71095 NIL
AAXX 10184 71101 160// /2612 30183 52011 60001 333 70000
AAXX 10184 71104 12874 72202 11062 21085 39047 40176 53014 60001 87070 333 11038 21081 70000
AAXX 10184 71108 11556 80702 10006 21001 30147 40221 52012 60001 71042 885// 333 10006 21043 70000
AAXX 10184 71109 11574 70000 10046 20034 30185 40212 53009 60021 78062 87500 333 10048 20006 70016 90916
AAXX 10124 91648 11599 30213 10282 20245 40082 69921 70218 83200 333 10314 568//
AAXX 10184 71864 NIL
AAXX 10184 71865 16/// /1907 11005 21062 39419 40104 56018 60001 333 11005 21131 70000
AAXX 10184 71866 46964 01804 11042 21070 39472 40093 57014 6///1 333 11042 21132 7////
AAXX 10184 71867 11474 81903 11111 21124 39790 40135 58005 69901 77122 887// 333 11111 21193 48011 70002 90931
AAXX 10184 71868 NIL
AAXX 10184 71869 12974 80703 11092 21101 39563 40100 58014 60001 83071 333 11092 21176 70004
AAXX 10184 71871 15966 01304 11036 21081 39257 40065 56013 60001 333 11026 21089 70000
AAXX 10184 71877 12986 60000 11001 21078 38828 40094 50001 60001 82031 333 10077 21041 70000
AAXX 10184 71878 12974 72108 11031 21097 39007 40086 55001 60001 81071 333 11018 21126 70000
AAXX 10184 71879 16964 32103 11048 21094 39256 40063 55003 60001 333 11013 21090 70000
AAXX 10184 71880 12374 70000 11091 21112 39110 40252 56013 60001 87500 333 11092 21131 79999
AAXX 10184 71882 16564 83104 11018 21060 39673 40222 56002 60001 333 11006 21060 70000
AAXX 10184 71883 NIL
AAXX 10184 71887 12286 51002 11054 21064 39777 40210 53014 60001 81621 333 11046 21117 70000
AAXX 10184 71889 12474 61912 11031 21053 39800 40228 50002 60001 85670 333 11019 21050 70000
AAXX 10184 71891 16964 00102 11060 21069 39928 40210 51023 60001 333 11060 21081 70000
AAXX 10184 71892 12369 80905 10014 20004 30213 40218 52010 60001 885// 333 10016 21032 70000
AAXX 10184 71114 16464 82210 10003 21015 30165 40214 51013 60001 333 10005 21064 70005
AAXX 10184 71120 12974 60000 11033 21070 39405 40065 57016 60001 86070 333 11022 21080 70000
AAXX 10184 71122 16/// /2211 11085 21128 38543 40181 58008 60001 333 11085 21112 70000
AAXX 10184 71123 11974 72205 11054 21091 39201 40076 53002 60001 71422 85081 333 11054 21124 70000
AAXX 10184 71125 NIL
AAXX 10184 71129 12674 71804 11021 21054 39240 40076 58018 60001 82576 333 11019 21095 70000
AAXX 10184 71131 16/// /2315 11032 21073 38859 40125 58015 60001 333 11026 21095 70000
AAXX 10184 71135 16/// /2620 10010 21068 39039 40132 56017 60001 333 10019 21115 70000
AAXX 10184 71137 NIL
AAXX 10184 71140 12974 62605 11053 21076 39649 40162 58009 60001 80001 333 11053 21158 79999
AAXX 10184 71145 12974 11403 11177 21216 39860 40168 58006 60001 80001 333 11176 21267 70000
AAXX 10184 71148 16/// /2704 11028 21073 39580 40171 50002 60001 333 11028 21169 70000
AAXX 10184 71182 16564 32707 11166 21230 39598 40163 53002 60001 333 11156 21235 70000
AAXX 10184 71185 17362 62215 10030 30113 40137 56018 60071 7//44 333 10031 21022 70085
AAXX 10184 71188 11474 73605 11021 21055 30127 40170 57011 69941 70272 85880 333 10010 21086 43017 70004 90921
AAXX 10184 71200 16/// /0107 10024 20015 60001 333 10046 20003 70000
AAXX 10184 71207 16/// /3301 11017 30144 40210 51008 60001 333 11016 21051 70000
AAXX 10184 71260 13/// ///// 11050 21137 30013 40258 50000 60001 333 11050 21099 79999
AAXX 10184 60020 NIL
AAXX 10184 60030 02562 80114 10200 20158 30145 40201 52004 60002 82807 333 10217 60007 92437
AAXX 10184 60040 02565 80312 10194 20142 30195 40219 53008 60002 81807 333 10219 60007 92437
AAXX 10184 60338 12580 22407 10156 20115 30136 40202 51002 60002 82500 333 10184 92428
AAXX 10181 10004 46/60 /3008 10068 20023 30087 40087 53013 222// 00097 333 10075 20032 55300 91124 91216
AAXX 10181 02019 07/37 /0402 11064 21074 39346 49973 54000 60042 77170 333 11048 21064 69905 90710 91106
AAXX 10181 02081 07/50 /0303 11055 21060 39554 49961 57007 60032 77174 333 11047 21056 69935 90710 91106
AAXX 10181 02095 07350 /0404 11041 21048 39732 49936 57004 60052 77171 333 11029 21041 69915 81/07 88/42 90710 91106
AAXX 10181 02101 47569 /0803 11039 21088 39376 49935 51005 771// 8//// 333 11023 21039 82/32 88/47
AAXX 10181 02119 07699 /2901 11089 21096 39560 49951 52001 69962 70074 333 11036 21089 60005 87/45 90710 91102
AAXX 10181 02124 07480 /3602 11057 21067 39410 49937 52006 60012 77187 333 11040 21057 69905 88/18 90710 91105
AAXX 10181 02126 07667 /3504 11038 21053 39580 49918 52009 60012 77187 333 11014 21038 69905 88/37 90710 91106
AAXX 10181 02151 17450 83402 11046 21046 39593 49930 51001 60022 77177 333 11034 21047 60005 85/14 88/22 91003 90710 91103 90710 91202
AAXX 10181 02186 07337 80203 11026 21029 39876 49901 51003 60072 77174 333 11001 21026 69925 87/07 88/14 91005 90710 91105 90710 91203
AAXX 10181 02197 07/60 /0404 11025 21025 39884 49903 57003 60042 72474 333 11017 21026 69905 90710 91105
AAXX 10181 02207 07483 /3102 11039 21041 39216 49913 51018 60022 70087 333 11030 21040 60005 88/11 90710 91102
AAXX 10181 02219 07/59 /0502 11045 21062 39251 49917 51012 69992 77187 333 11028 21045 69905 90710 91104
AAXX 10181 02226 47367 /0304 11024 21028 39452 49905 51020 740// 8//// 333 11008 21025 84/08 85/11 88/30
AAXX 10181 02243 07/63 /3502 11019 21024 39630 49897 52020 69972 70087 333 11003 21019 60005 90710 91106
AAXX 10181 02269 07699 /3404 10008 20002 69992 72487 333 10039 20007 69905 87/47 90710 91109
AAXX 10181 02287 07259 /0110 10018 20009 39851 49861 53007 69912 75254 333 10023 20016 69905 88/06 90710 91113
AAXX 10181 02297 07375 /0409 10009 20003 39826 49871 50004 60032 78587 333 10010 20002 69905 81/09 85/15 88/22 90710 91111
AAXX 10181 02308 07470 /2701 11042 21050 39051 49909 52023 60012 72477 333 11034 21057 69905 88/15 90710 91102
AAXX 10181 02327 07/99 /3102 11010 21011 39468 49900 52026 60042 70087 333 11003 21015 60005 90710 91104
AAXX 10181 02355 07499 /3407 10022 20010 39867 49878 53027 60022 70086 333 10032 20016 60005 88/18 90710 91112
AAXX 10181 02366 45884 /3203 10010 21002 39876 49882 51023 8//// 333 10031 20010 88/56
AAXX 10181 02407 074// /3201 11069 21075 39529 49899 52027 60002 70010 333 11069 21144 60005 88/11 90710 91103
AAXX 10181 02418 45284 /3101 11022 21031 39766 49898 51026 8//// 333 10015 21022 88/06
AAXX 10181 02435 47483 /2603 11034 21047 39702 49890 51024 771// 8//// 333 11017 21040 81/12 85/32 87/39
AAXX 10181 02440 07483 /3201 10001 21001 69962 70086 333 10007 21009 60005 81/12 88/29 90710 91103
AAXX 10181 02452 07466 /3201 10000 20000 69902 70087 333 10015 21005 60005 81/14 82/38 88/50 90710 91102
AAXX 10181 02456 07235 /2501 11005 21008 39838 49880 53024 60032 78587 333 10003 21005 69905 88/03 90710 91102
AAXX 10181 02469 07/81 /2303 10012 20005 69902 70086 333 10036 21007 60005 90710 91103
AAXX 10181 02498 05483 /2711 10025 21001 39861 49877 52023 69902 333 10041 20022 60005 85/16 90710 91115
AAXX 10181 02518 464// /2713 10066 20045 333 10066 20034 81/16 84/22 86/32 88/// 90710 91117
AAXX 10181 02520 17684 33004 10028 20015 39838 49905 53029 69962 70084 333 10055 20021 60005 82/34 83/50 91005 90710 91105 90710 91204
AAXX 10181 02550 47256 /2205 10009 20009 39634 49908 53005 771// 8//// 333 10022 20007 81/04 85/06 87/09
AAXX 10181 02562 35481 82305 10037 20017 39779 49893 52006 60002 333 10048 20032 60005 88/18 91009 90710 91109 90710 91206
AAXX 10181 02563 07599 /2207 10039 20015 39877 49899 51009 69902 70086 333 10046 20031 60005 86/32 88/56 90710 91110
AAXX 10181 02565 07466 /2206 10031 20009 39805 49923 52001 69902 72386 333 10036 20020 69905 87/18 88/25 90710 91112
AAXX 10181 02589 07580 /2513 10046 20018 39878 49898 53014 69902 70060 333 10048 20038 60005 86/20 87/32 90710 91119
AAXX 10181 02590 45474 /2311 10038 20012 39866 49927 53012 8//// 333 10043 20034 86/16 88/29
AAXX 10181 02618 07/58 /2407 10034 20033 39772 49935 57001 60072 76161 333 10040 20013 60025 90710 91115
AAXX 10181 02664 17775 42305 10028 21012 39901 49972 51002 69922 70087 333 10033 20007 60005 84/56 91010 90710 91111 90710 91207
AAXX 10181 02679 05678 /2514 10038 20006 39909 49953 51011 69902 333 10040 20033 60005 90710 91119
AAXX 10184 78073 12465 60611 10261 20223 40175 60001 84870 58004 84818 84367
AAXX 10184 71854 11574 81805 11113 21158 39683 40174 58001 69901 77172 885// 333 11113 21173 48009 79999 90931
AAXX 10181 76040 32960 03202 10169 20024 30198 40212 52008 91745 333 10203 20050 30/// 59022 98660
AAXX 10181 76061 32981 00502 10140 20033 30135 40211 52008 91730 333 10142 20090 30/// 59020
AAXX 10181 76113 32980 02701 10158 21009 39698 40172 57001 91745 333 10165 20040 30/// 59018
AAXX 10181 76122 32970 41102 10094 20055 38593 40270 57001 82420 91749 333 10146 21022 30/// 59017
AAXX 10181 76123 06970 41206 10107 21043 3//// 4//// 5//// 60002 7//// 82420 91750 333 0//// 10107 21018 56990 57/// 5//// 60007 8//// 8//// 8//// 8//// 9//// 9//// 9//// 444 ///// 555
AAXX 10181 76225 32760 80201 10100 21019 38690 40245 50002 88070 91745 333 20050 30/// 56050 58030 85350 88270
AAXX 10181 76256 32980 03002 10199 20071 30176 40190 52002 91745 333 10209 20125 30/// 59014
AAXX 10181 76258 32970 30703 10215 20073 30132 40178 57004 80001 91750 333 10224 20104 30/// 59011
AAXX 10181 76305 32970 30602 10218 20085 30180 40188 51002 80004 91740 333 10221 20142 30/// 56005 59009 83070
AAXX 10181 76323 32970 73601 10098 21003 38322 40302 57008 8702/ 91755 333 10102 20037 30/// 5605/ 58025 87458
AAXX 10181 76342 01460 80702 10078 20071 39616 40351 52006 69921 75255 887// 91755 333 10090 20074 31/// 561// 58077 69907 88710
AAXX 10181 76373 32580 80000 10107 20024 38248 40203 52015 88800 91750 333 10113 20030 30/// 56900 58024 86620 82725
AAXX 10181 76382 32980 83402 10174 20111 38965 40223 52005 8802/ 91755 333 20114 30/// 56005 58040 88456
AAXX 10181 76390 31410 83604 10064 20064 38288 40265 57008 74044 887// 91730 333 10080 20045 30/// 568// 58031 88714
AAXX 10181 76393 01103 80401 10122 20115 39688 40279 52006 60051 75055 887// 91750 333 10128 20116 32/// 56999 58065 60037 88703
AAXX 10181 76423 32580 70000 10173 20035 38178 40179 57004 85430 91750 333 20074 30/// 56990 58000 85610 82358
AAXX 10181 76458 32970 13005 10216 20143 30168 40173 51002 80006 91740 333 10232 20125 30/// 56//9 59005 81072
AAXX 10181 76471 32980 31802 10196 20034 37714 40149 57003 80001 91750 333 10200 20053 30/// 56001 59010 83075
AAXX 10181 76490 06/// /0105 10167 20152 39856 40251 50001 60132 7//// 8//// 91750 333 0//// 10198 20159 30/// 54/// 56/// 57/// 58042 60027 8//// 8//// 8//// 8//// 9//// 9//// 9//// 44
AAXX 10181 76491 01460 83605 10164 20162 39874 40269 52006 60141 75155 886// 91745 333 10168 20080 32/// 569// 58038 60037 88717
AAXX 10181 76499 01430 80702 10193 20185 30213 40235 52013 60111 75055 886// 91750 333 10195 20188 32/// 561// 58036 60047 88714
AAXX 10181 76519 32960 40000 10202 20021 38388 40233 57001 80002 91745 333 10205 20033 30/// 56006 58001 84070
AAXX 10181 76525 32970 40804 10115 20042 37500 40171 52006 80008 91740 333 10117 20094 30/// 56//5 58003 84280
AAXX 10181 76539 31567 60902 10168 20066 38199 40227 52006 70544 86400 91750 333 10272 20080 30/// 56200 59021 86624
AAXX 10181 76543 32675 81701 10228 20170 30222 40255 58001 8255/ 91730 333 10229 20185 30/// 5633/ 58040 82650 86358
AAXX 10181 76547 06/// /1301 10210 20193 30219 40231 58002 60002 7//// 8//// 91750 333 0//// 10213 20190 56/// 57/// 58030 60007 8//// 8//// 8//// 8//// 9//// 9//// 9//// 444 ///// 555
AAXX 10181 76548 01372 80502 10212 20194 30233 40243 50003 69901 75052 884// 91740 333 10214 20190 31/// 56800 58029 69907 88606
AAXX 10181 76556 32970 23602 10250 20133 39145 40178 52004 80002 91730 333 10254 20122 30/// 56001 59004 82070
AAXX 10181 76571 31865 43601 20062 38198 40222 57004 705// 80004 91755 333 20060 30/// 56005 58012
AAXX 10181 76577 32970 02304 10178 20136 38072 40193 50002 91740 333 20099 30/// 58007
AAXX 10181 76578 06/// /2304 20040 38067 40136 58002 60002 7//// 8//// 91750 333 0//// 20095 30/// 4//// 54/// 56/// 57/// 58006 60007 8//// 8//// 8//// 9//// 9//// 9//// 444 ///// 555
AAXX 10181 76581 32970 70501 10196 20133 39093 40206 57005 87060 91750 333 10206 20133 30/// 56020 58022 87360
AAXX 10181 76585 32980 70000 10217 20182 30075 40235 50000 8547/ 91740 333 10226 20156 30/// 5685/ 58034 85637 82358
AAXX 10181 76586 06/// /0801 10223 20174 30078 40234 50002 60002 7//// 8//// 91750 333 0//// 10233 20154 30/// 4//// 54/// 56/// 57/// 58034 60007 8//// 8//// 8//// 9//// 9//// 9//// 44
AAXX 10181 76592 06/// /0312 10253 21094 30199 40199 58013 60002 7//// 8//// 91750 333 0//// 10264 20217 30/// 4//// 54/// 56/// 57/// 58003 60007 8//// 8//// 8//// 9//// 9//// 9//// 44
AAXX 10181 76593 32370 50507 10250 20231 30199 40201 58012 83240 91750 333 10264 20217 30/// 5611/ 58001 83820 82330 91011 91505
AAXX 10181 76612 32962 00901 10214 20109 38503 40202 50000 91750 333 10276 20076 30/// 58005
AAXX 10181 76625 32950 00507 20063 38168 40175 56010 91740 333 20096 30/// 58009
AAXX 10181 76632 32568 30509 10132 20042 37607 40106 57034 83109 91745 333 10135 20074 30/// 56101 59037 81634 82271
AAXX 10181 76634 31570 22801 10164 20073 37882 40241 57008 70511 81201 91750 333 10165 20034 30/// 561/7 58016 81820
AAXX 10181 76641 06/// /1202 10232 20192 30221 40233 58007 60002 7//// 8//// 91750 333 0//// 10245 20184 30/// 4//// 54/// 56/// 57/// 58027 60007 8//// 8//// 8//// 8//// 9//// 9//// 9/
AAXX 10181 76644 01460 60203 10237 20201 30186 40199 57013 69911 75052 8487/ 91750 333 10260 20126 31/// 5611/ 58010 69917 82810 85610
AAXX 10181 76645 06/// /0304 10232 20197 30190 40203 58014 60002 7//// 8//// 91750 333 0//// 10262 20125 30/// 4//// 54/// 56/// 57/// 58008 60007 8//// 8//// 8//// 9//// 9//// 9//// 44
AAXX 10181 76648 06/// /0403 10291 20136 30158 40188 58015 60002 7//// 8//// 91750 333 0//// 10291 20141 30/// 4//// 54/// 56/// 57/// 58009 60007 8//// 8//// 8//// 8//// 9//// 9//// 9/
AAXX 10181 76654 31956 02002 10298 20224 30156 40160 58005 70544 91750 333 10298 20210 30/// 58000
AAXX 10181 76656 32975 00000 10230 20097 38530 40193 58003 91750 333 10237 20067 30/// 59002
AAXX 10181 76658 31558 12302 10295 20130 39650 40157 57006 70540 81100 91750 333 10300 20179 30/// 59001 81822 94022 98904
AAXX 10181 76662 31970 00601 10224 20096 38487 40188 57007 70542 91750 333 10230 20060 30/// 58010
AAXX 10181 76665 32962 02101 10208 20087 38138 40105 57004 91755 333 10218 20065 30/// 58010
AAXX 10181 76675 31570 30702 21003 37391 40202 56006 70544 81204 91747 333 10194 21005 30/// 569/9 59001 81826 98470
AAXX 10181 76681 31950 00901 10191 20073 37802 40198 58009 70540 91745 333 10191 20030 30/// 58009
AAXX 10181 76683 32970 11601 10203 20028 37839 40212 56014 80005 91745 333 10215 20036 30/// 56005 59001 81080
AAXX 10181 76685 31950 03601 10190 20000 37885 40166 57006 70544 91740 333 10192 20066 30/// 58002
AAXX 10181 76687 01558 80901 10150 20138 38732 40238 50000 69921 75122 885// 91737 333 10160 20116 31/// 563// 58023 69927 85620 83718
AAXX 10181 76692 01556 83604 10216 20204 30206 40226 50000 60051 79162 8522/ 91745 333 10229 20202 32/// 5688/ 58026 60027 81820 84630 83458
AAXX 10181 76693 06/// /3604 10214 20199 30204 40223 58004 60062 7//// 8//// 91750 333 0//// 10228 20202 30/// 4//// 56/// 57/// 58028 60027 8//// 8//// 8//// 8//// 9//// 9//// 9//// 44
AAXX 10181 76698 32560 13601 10259 20187 30178 40190 57016 81200 91755 333 10274 20166 30/// 56800 58010 81820
AAXX 10181 76737 01480 81402 10174 20139 38822 40215 58002 69901 70552 8577/ 91735 333 10179 20140 30/// 5622/ 58021 69907 85717 83358 91105 91514
AAXX 10181 76738 06/// /1202 10179 20135 38822 40202 58005 60002 7//// 8//// 333 10193 20138 30/// 56/// 57/// 58021 60007 8//// 8//// 8//// 8//// 9//// 9//// 9//// 444 ///// 555 30190
AAXX 10181 76743 31558 21102 10255 20204 30201 40209 58007 70200 82200 91745 333 10256 20205 30/// 562// 58024 82821
AAXX 10181 76750 32560 13403 10274 20176 30179 40190 57014 81100 91750 333 10277 20178 30/// 56100 58012 81820
AAXX 10181 76751 06/// /3203 10271 20180 30179 40189 58014 60002 7//// 8//// 91750 333 0//// 10273 20179 30/// 4//// 54/// 56/// 57/// 58012 60007 8//// 8//// 8//// 9//// 9//// 9//// 44
AAXX 10181 76762 32904 03601 10270 20220 38770 40154 58011 91735 333 10272 20121 30/// 59004
AAXX 10181 76772 06/// /1402 10224 20060 38449 40136 58009 60002 7//// 8//// 91750 333 0//// 10234 20049 30/// 4//// 56/// 57/// 58011 60007 8//// 8//// 8//// 9//// 9//// 9//// 444 ////
AAXX 10181 76773 31968 10901 10228 20070 38447 40202 57005 7050/ 80001 91745 333 10234 20050 30/// 56009 58013
AAXX 10181 76775 31568 12601 10229 20060 38584 40208 57017 70300 81200 91745 333 10234 20092 30/// 56800 59010 81827
AAXX 10181 76776 06/// /3401 10232 20062 38529 40128 58022 60002 7//// 8//// 91750 333 0//// 10237 20066 30/// 4//// 56/// 57/// 58011 60007 8//// 8//// 8//// 9//// 9//// 9//// 444 ////
AAXX 10181 76805 32570 11701 10307 20242 30144 40148 53004 81200 91745 333 10316 20220 30/// 563// 58010 81824
AAXX 10181 76806 06/// /1801 10305 20221 30142 40146 58008 60002 7//// 8//// 91750 333 10314 20215 30/// 56/// 57/// 58007 60007 8//// 8//// 8//// 8//// 9//// 9//// 9//// 555 30274
AAXX 10181 76833 32960 03612 10280 20153 30147 40149 57005 91745 333 10280 20236 30/// 58012 92002
AAXX 10181 76840 32150 10310 10280 20171 30085 40140 57014 81200 91740 333 10287 20205 30/// 568// 58008 81827
AAXX 10181 76843 32565 60804 10230 20150 39530 40178 55007 84630 91745 333 10244 20164 30/// 568// 58019 84824
AAXX 10181 76845 32460 50503 10168 20122 37966 40179 56011 85600 91750 333 20105 30/// 56200 58008 85720
AAXX 10181 76848 32670 20502 10210 20111 38400 40124 56012 82200 91750 333 10215 20121 30/// 56100 58004 82841 98908
AAXX 10181 76902 06/// /1802 10329 20200 39992 40127 58018 60002 7//// 8//// 91750 333 0//// 10329 20221 30/// 4//// 54/// 56/// 57/// 59002 60007 8//// 8//// 8//// 8//// 9//// 9//// 9/
AAXX 10181 76903 31680 12101 10330 20251 39994 40124 57018 70300 81100 91745 333 10332 20217 30/// 56100 58005 81833
AAXX 10181 76160 32962 00401 20028 39931 40182 54000 91730 333 20110 30/// 59017
AAXX 10181 76243 11372 83608 10074 20058 30035 40340 52022 60031 75165 884// 91730 333 10130 20060 31/// 568// 58093 88609
AAXX 10181 76253 32782 20502 10200 20090 30098 40188 55009 82020 91759 333 10205 20135 30/// 56050 59021 82457 92002
AAXX 10181 76311 32580 40000 10195 20132 39898 40180 51004 84200 91745 333 10200 20132 30/// 56600 58000 84820
AAXX 10181 76405 32980 73603 10220 20136 30163 40185 54000 87010 91750 333 10222 20180 30/// 56050 59013 87456
AAXX 10181 76412 31966 02201 10218 20119 30134 40179 52001 70544 91750 333 10218 20118 30/// 59006
AAXX 10181 76640 31358 83202 10216 20194 30239 40251 52001 70544 8313/ 91740 333 10232 20170 30/// 5672/ 58027 83809 85340
AAXX 10181 76647 32770 10503 10284 20159 30171 40201 55009 81100 91750 333 10285 20144 30/// 56100 58005 81850
AAXX 10181 76741 31465 60503 10246 20204 30174 40193 58006 70542 84230 91735 333 10253 20145 30/// 561// 58023 84818
AAXX 10181 76855 32580 11301 10306 20235 30085 40134 51007 81200 91730 333 10315 20206 30/// 56900 58010 81820 92000
AAXX 10181 02464 45477 /2402 10019 20008 39868 49886 51021 8//// 333 10037 20012 83/14
AAXX 10181 02500 05999 /0105 10007 21040 39882 49924 52045 60002 333 10064 20006 60005 81/62 90710 91109
AAXX 10181 02513 NIL
AAXX 10181 02615 05970 /2515 10045 20005 30006 40010 51006 60002 333 10047 20035 60005 84/62 90710 91121
AAXX 10181 02635 05/67 /2608 10040 20003 60002 333 10045 20027 60005 90710 91115
AAXX 10184 71854 11574 81805 11113 21158 39683 40174 58001 69901 77172 885// 333 11113 21173 48009 79999 90931
AAXX 10181 76040 32960 03202 10169 20024 30198 40212 52008 91745 333 10203 20050 30/// 59022 98660
AAXX 10181 76061 32981 00502 10140 20033 30135 40211 52008 91730 333 10142 20090 30/// 59020
AAXX 10181 76113 32980 02701 10158 21009 39698 40172 57001 91745 333 10165 20040 30/// 59018
AAXX 10181 76122 32970 41102 10094 20055 38593 40270 57001 82420 91749 333 10146 21022 30/// 59017
AAXX 10181 76123 06970 41206 10107 21043 3//// 4//// 5//// 60002 7//// 82420 91750 333 0//// 10107 21018 56990 57/// 5//// 60007 8//// 8//// 8//// 8//// 9//// 9//// 9//// 444 ///// 555
AAXX 10181 76225 32760 80201 10100 21019 38690 40245 50002 88070 91745 333 20050 30/// 56050 58030 85350 88270
AAXX 10181 76256 32980 03002 10199 20071 30176 40190 52002 91745 333 10209 20125 30/// 59014
AAXX 10181 76258 32970 30703 10215 20073 30132 40178 57004 80001 91750 333 10224 20104 30/// 59011
AAXX 10181 76305 32970 30602 10218 20085 30180 40188 51002 80004 91740 333 10221 20142 30/// 56005 59009 83070
AAXX 10181 76323 32970 73601 10098 21003 38322 40302 57008 8702/ 91755 333 10102 20037 30/// 5605/ 58025 87458
AAXX 10181 76342 01460 80702 10078 20071 39616 40351 52006 69921 75255 887// 91755 333 10090 20074 31/// 561// 58077 69907 88710
AAXX 10181 76373 32580 80000 10107 20024 38248 40203 52015 88800 91750 333 10113 20030 30/// 56900 58024 86620 82725
AAXX 10181 76382 32980 83402 10174 20111 38965 40223 52005 8802/ 91755 333 20114 30/// 56005 58040 88456
AAXX 10181 76390 31410 83604 10064 20064 38288 40265 57008 74044 887// 91730 333 10080 20045 30/// 568// 58031 88714
AAXX 10181 76393 01103 80401 10122 20115 39688 40279 52006 60051 75055 887// 91750 333 10128 20116 32/// 56999 58065 60037 88703
AAXX 10181 76423 32580 70000 10173 20035 38178 40179 57004 85430 91750 333 20074 30/// 56990 58000 85610 82358
AAXX 10181 76458 32970 13005 10216 20143 30168 40173 51002 80006 91740 333 10232 20125 30/// 56//9 59005 81072
AAXX 10181 76471 32980 31802 10196 20034 37714 40149 57003 80001 91750 333 10200 20053 30/// 56001 59010 83075
AAXX 10181 76490 06/// /0105 10167 20152 39856 40251 50001 60132 7//// 8//// 91750 333 0//// 10198 20159 30/// 54/// 56/// 57/// 58042 60027 8//// 8//// 8//// 8//// 9//// 9//// 9//// 44
AAXX 10181 76491 01460 83605 10164 20162 39874 40269 52006 60141 75155 886// 91745 333 10168 20080 32/// 569// 58038 60037 88717
AAXX 10181 76499 01430 80702 10193 20185 30213 40235 52013 60111 75055 886// 91750 333 10195 20188 32/// 561// 58036 60047 88714
AAXX 10181 76519 32960 40000 10202 20021 38388 40233 57001 80002 91745 333 10205 20033 30/// 56006 58001 84070
AAXX 10181 76525 32970 40804 10115 20042 37500 40171 52006 80008 91740 333 10117 20094 30/// 56//5 58003 84280
AAXX 10181 76539 31567 60902 10168 20066 38199 40227 52006 70544 86400 91750 333 10272 20080 30/// 56200 59021 86624
AAXX 10181 76543 32675 81701 10228 20170 30222 40255 58001 8255/ 91730 333 10229 20185 30/// 5633/ 58040 82650 86358
AAXX 10181 76547 06/// /1301 10210 20193 30219 40231 58002 60002 7//// 8//// 91750 333 0//// 10213 20190 56/// 57/// 58030 60007 8//// 8//// 8//// 8//// 9//// 9//// 9//// 444 ///// 555
AAXX 10181 76548 01372 80502 10212 20194 30233 40243 50003 69901 75052 884// 91740 333 10214 20190 31/// 56800 58029 69907 88606
AAXX 10181 76556 32970 23602 10250 20133 39145 40178 52004 80002 91730 333 10254 20122 30/// 56001 59004 82070
AAXX 10181 76571 31865 43601 20062 38198 40222 57004 705// 80004 91755 333 20060 30/// 56005 58012
AAXX 10181 76577 32970 02304 10178 20136 38072 40193 50002 91740 333 20099 30/// 58007
AAXX 10181 76578 06/// /2304 20040 38067 40136 58002 60002 7//// 8//// 91750 333 0//// 20095 30/// 4//// 54/// 56/// 57/// 58006 60007 8//// 8//// 8//// 9//// 9//// 9//// 444 ///// 555
AAXX 10181 76581 32970 70501 10196 20133 39093 40206 57005 87060 91750 333 10206 20133 30/// 56020 58022 87360
AAXX 10181 76585 32980 70000 10217 20182 30075 40235 50000 8547/ 91740 333 10226 20156 30/// 5685/ 58034 85637 82358
AAXX 10181 76586 06/// /0801 10223 20174 30078 40234 50002 60002 7//// 8//// 91750 333 0//// 10233 20154 30/// 4//// 54/// 56/// 57/// 58034 60007 8//// 8//// 8//// 9//// 9//// 9//// 44
AAXX 10181 76592 06/// /0312 10253 21094 30199 40199 58013 60002 7//// 8//// 91750 333 0//// 10264 20217 30/// 4//// 54/// 56/// 57/// 58003 60007 8//// 8//// 8//// 9//// 9//// 9//// 44
AAXX 10181 76593 32370 50507 10250 20231 30199 40201 58012 83240 91750 333 10264 20217 30/// 5611/ 58001 83820 82330 91011 91505
AAXX 10181 76612 32962 00901 10214 20109 38503 40202 50000 91750 333 10276 20076 30/// 58005
AAXX 10181 76625 32950 00507 20063 38168 40175 56010 91740 333 20096 30/// 58009
AAXX 10181 76632 32568 30509 10132 20042 37607 40106 57034 83109 91745 333 10135 20074 30/// 56101 59037 81634 82271
AAXX 10181 76634 31570 22801 10164 20073 37882 40241 57008 70511 81201 91750 333 10165 20034 30/// 561/7 58016 81820
AAXX 10181 76641 06/// /1202 10232 20192 30221 40233 58007 60002 7//// 8//// 91750 333 0//// 10245 20184 30/// 4//// 54/// 56/// 57/// 58027 60007 8//// 8//// 8//// 8//// 9//// 9//// 9/
AAXX 10181 76644 01460 60203 10237 20201 30186 40199 57013 69911 75052 8487/ 91750 333 10260 20126 31/// 5611/ 58010 69917 82810 85610
AAXX 10181 76645 06/// /0304 10232 20197 30190 40203 58014 60002 7//// 8//// 91750 333 0//// 10262 20125 30/// 4//// 54/// 56/// 57/// 58008 60007 8//// 8//// 8//// 9//// 9//// 9//// 44
AAXX 10181 76648 06/// /0403 10291 20136 30158 40188 58015 60002 7//// 8//// 91750 333 0//// 10291 20141 30/// 4//// 54/// 56/// 57/// 58009 60007 8//// 8//// 8//// 8//// 9//// 9//// 9/
AAXX 10181 76654 31956 02002 10298 20224 30156 40160 58005 70544 91750 333 10298 20210 30/// 58000
AAXX 10181 76656 32975 00000 10230 20097 38530 40193 58003 91750 333 10237 20067 30/// 59002
AAXX 10181 76658 31558 12302 10295 20130 39650 40157 57006 70540 81100 91750 333 10300 20179 30/// 59001 81822 94022 98904
AAXX 10181 76662 31970 00601 10224 20096 38487 40188 57007 70542 91750 333 10230 20060 30/// 58010
AAXX 10181 76665 32962 02101 10208 20087 38138 40105 57004 91755 333 10218 20065 30/// 58010
AAXX 10181 76675 31570 30702 21003 37391 40202 56006 70544 81204 91747 333 10194 21005 30/// 569/9 59001 81826 98470
AAXX 10181 76681 31950 00901 10191 20073 37802 40198 58009 70540 91745 333 10191 20030 30/// 58009
AAXX 10181 76683 32970 11601 10203 20028 37839 40212 56014 80005 91745 333 10215 20036 30/// 56005 59001 81080
AAXX 10181 76685 31950 03601 10190 20000 37885 40166 57006 70544 91740 333 10192 20066 30/// 58002
AAXX 10181 76687 01558 80901 10150 20138 38732 40238 50000 69921 75122 885// 91737 333 10160 20116 31/// 563// 58023 69927 85620 83718
AAXX 10181 76692 01556 83604 10216 20204 30206 40226 50000 60051 79162 8522/ 91745 333 10229 20202 32/// 5688/ 58026 60027 81820 84630 83458
AAXX 10181 76693 06/// /3604 10214 20199 30204 40223 58004 60062 7//// 8//// 91750 333 0//// 10228 20202 30/// 4//// 56/// 57/// 58028 60027 8//// 8//// 8//// 8//// 9//// 9//// 9//// 44
AAXX 10181 76698 32560 13601 10259 20187 30178 40190 57016 81200 91755 333 10274 20166 30/// 56800 58010 81820
AAXX 10181 76737 01480 81402 10174 20139 38822 40215 58002 69901 70552 8577/ 91735 333 10179 20140 30/// 5622/ 58021 69907 85717 83358 91105 91514
AAXX 10181 76738 06/// /1202 10179 20135 38822 40202 58005 60002 7//// 8//// 333 10193 20138 30/// 56/// 57/// 58021 60007 8//// 8//// 8//// 8//// 9//// 9//// 9//// 444 ///// 555 30190
AAXX 10181 76743 31558 21102 10255 20204 30201 40209 58007 70200 82200 91745 333 10256 20205 30/// 562// 58024 82821
AAXX 10181 76750 32560 13403 10274 20176 30179 40190 57014 81100 91750 333 10277 20178 30/// 56100 58012 81820
AAXX 10181 76751 06/// /3203 10271 20180 30179 40189 58014 60002 7//// 8//// 91750 333 0//// 10273 20179 30/// 4//// 54/// 56/// 57/// 58012 60007 8//// 8//// 8//// 9//// 9//// 9//// 44
AAXX 10181 76762 32904 03601 10270 20220 38770 40154 58011 91735 333 10272 20121 30/// 59004
AAXX 10181 76772 06/// /1402 10224 20060 38449 40136 58009 60002 7//// 8//// 91750 333 0//// 10234 20049 30/// 4//// 56/// 57/// 58011 60007 8//// 8//// 8//// 9//// 9//// 9//// 444 ////
AAXX 10181 76773 31968 10901 10228 20070 38447 40202 57005 7050/ 80001 91745 333 10234 20050 30/// 56009 58013
AAXX 10181 76775 31568 12601 10229 20060 38584 40208 57017 70300 81200 91745 333 10234 20092 30/// 56800 59010 81827
AAXX 10181 76776 06/// /3401 10232 20062 38529 40128 58022 60002 7//// 8//// 91750 333 0//// 10237 20066 30/// 4//// 56/// 57/// 58011 60007 8//// 8//// 8//// 9//// 9//// 9//// 444 ////
AAXX 10181 76805 32570 11701 10307 20242 30144 40148 53004 81200 91745 333 10316 20220 30/// 563// 58010 81824
AAXX 10181 76806 06/// /1801 10305 20221 30142 40146 58008 60002 7//// 8//// 91750 333 10314 20215 30/// 56/// 57/// 58007 60007 8//// 8//// 8//// 8//// 9//// 9//// 9//// 555 30274
AAXX 10181 76833 32960 03612 10280 20153 30147 40149 57005 91745 333 10280 20236 30/// 58012 92002
AAXX 10181 76840 32150 10310 10280 20171 30085 40140 57014 81200 91740 333 10287 20205 30/// 568// 58008 81827
AAXX 10181 76843 32565 60804 10230 20150 39530 40178 55007 84630 91745 333 10244 20164 30/// 568// 58019 84824
AAXX 10181 76845 32460 50503 10168 20122 37966 40179 56011 85600 91750 333 20105 30/// 56200 58008 85720
AAXX 10181 76848 32670 20502 10210 20111 38400 40124 56012 82200 91750 333 10215 20121 30/// 56100 58004 82841 98908
AAXX 10181 76902 06/// /1802 10329 20200 39992 40127 58018 60002 7//// 8//// 91750 333 0//// 10329 20221 30/// 4//// 54/// 56/// 57/// 59002 60007 8//// 8//// 8//// 8//// 9//// 9//// 9/
AAXX 10181 76903 31680 12101 10330 20251 39994 40124 57018 70300 81100 91745 333 10332 20217 30/// 56100 58005 81833
AAXX 10181 76160 32962 00401 20028 39931 40182 54000 91730 333 20110 30/// 59017
AAXX 10181 76243 11372 83608 10074 20058 30035 40340 52022 60031 75165 884// 91730 333 10130 20060 31/// 568// 58093 88609
AAXX 10181 76253 32782 20502 10200 20090 30098 40188 55009 82020 91759 333 10205 20135 30/// 56050 59021 82457 92002
AAXX 10181 76311 32580 40000 10195 20132 39898 40180 51004 84200 91745 333 10200 20132 30/// 56600 58000 84820
AAXX 10181 76405 32980 73603 10220 20136 30163 40185 54000 87010 91750 333 10222 20180 30/// 56050 59013 87456
AAXX 10181 76412 31966 02201 10218 20119 30134 40179 52001 70544 91750 333 10218 20118 30/// 59006
AAXX 10181 76640 31358 83202 10216 20194 30239 40251 52001 70544 8313/ 91740 333 10232 20170 30/// 5672/ 58027 83809 85340
AAXX 10181 76647 32770 10503 10284 20159 30171 40201 55009 81100 91750 333 10285 20144 30/// 56100 58005 81850
AAXX 10181 76741 31465 60503 10246 20204 30174 40193 58006 70542 84230 91735 333 10253 20145 30/// 561// 58023 84818
AAXX 10181 76855 32580 11301 10306 20235 30085 40134 51007 81200 91730 333 10315 20206 30/// 56900 58010 81820 92000
AAXX 10184 64600 32960 00000 10234 20148 39431 40083 333 10312 55079 58009
AAXX 10184 64601 31930 00412 10210 20074 38981 48488 70400 333 10295 58011
AAXX 10184 64605 32960 00000 10231 20143 39337 40080 333 10309 58010
AAXX 10184 64610 32960 00000 10227 20146 3//// 4//// 333 10328 5////
AAXX 10184 64650 31940 10204 10250 20205 39663 40075 70411 80001 333 10335 55101 58008 81080
AAXX 10184 64654 32956 01008 10224 20137 39534 40106 333 10310 58013
AAXX 10184 64655 32960 00000 10240 20178 39443 40090 333 10316 58011
AAXX 10184 64656 32960 10000 10240 20179 39527 40073 80002 333 10313 58010 81080
AAXX 10184 64659 NIL
AAXX 10184 64660 32960 30000 10240 20178 39541 40069 80002 333 10330 58007 83080
AAXX 10184 64662 32960 30000 10251 20182 39566 40065 80002 333 10336 58005 83080
AAXX 10184 64665 32960 00000 10236 20180 3//// 4//// 333 10340 5////
AAXX 10181 01300 41598 23305 10058 20025 49977 52020 70180 82/// 22200 02063 10807 70037 333 91112
AAXX 10184 84142 11110 80000 10162 20159 69931 75044 887// 555 10003 30098
AAXX 10184 84088 32570 80902 10162 20061 37058 883// 333 58003 555 30051
AAXX 10184 84143 32670 71612 10194 20094 37390 87800 333 59004 555 30052
AAXX 10184 84135 32575 82206 10281 20198 30072 8681/ 333 58013 555 30061
AAXX 10184 84202 31575 72304 10296 20206 30149 70544 86209 333 58009 555 30062
AAXX 10184 84132 11560 63604 10280 20225 39874 60051 72164 86300 333 59007 555 10054 30062
AAXX 10184 84173 31670 50904 10196 20091 70544 83335 555 30051
AAXX 10184 84270 32570 50000 10208 20126 84830 555 30059
AAXX 10184 84036 31570 61806 10169 20102 70544 84220 555 30062
AAXX 10184 84008 11530 71414 10262 20202 30124 40134 69901 71652 87800 00186 333 58001 555 1 T 30069
AAXX 10184 84140 31570 80000 10264 20199 30028 40113 70544 8681/ 333 58006 555 30068
AAXX 10184 84076 31565 70512 10192 20116 71544 87400 555 30061
AAXX 10184 84179 31575 50902 10281 20197 39037 71544 85339 333 59013 555 30060
AAXX 10184 84160 31570 40910 10195 20080 37258 70544 84200 333 58004 555 30047
AAXX 10184 84050 11565 81804 10239 20207 69901 70545 886// 555 1 T 30082
AAXX 10184 84105 32560 81404 10244 20213 31001 8451/ 333 58000 555 30083
AAXX 10184 84226 31670 63204 10150 20144 74042 86400 555 30096
AAXX 10184 84072 32575 70412 10180 20105 37285 87200 333 58002 555 30061
AAXX 10181 76040 32960 03202 10169 20024 30198 40212 52008 91745 33310203 20050 30/// 59022 98660
AAXX 10181 76061 32981 00502 10140 20033 30135 40211 52008 91730 33310142 20090 30/// 59020
AAXX 10181 76113 32980 02701 10158 21009 39698 40172 57001 91745 33310165 20040 30/// 59018
AAXX 10181 76122 32970 41102 10094 20055 38593 40270 57001 82420 91749333 10146 21022 30/// 59017
AAXX 10181 76123 06970 41206 10107 21043 3//// 4//// 5//// 60002 7////82420 91750 333 0//// 10107 21018 56990 57/// 5//// 600078//// 8//// 8//// 8//// 9//// 9//// 9//// 444 ///// 555
AAXX 10181 76225 32760 80201 10100 21019 38690 40245 50002 88070 91745333 20050 30/// 56050 58030 85350 88270
AAXX 10181 76256 32980 03002 10199 20071 30176 40190 52002 91745 33310209 20125 30/// 59014
AAXX 10181 76258 32970 30703 10215 20073 30132 40178 57004 80001 91750333 10224 20104 30/// 59011
AAXX 10181 76305 32970 30602 10218 20085 30180 40188 51002 80004 91740333 10221 20142 30/// 56005 59009 83070
AAXX 10181 76323 32970 73601 10098 21003 38322 40302 57008 8702/ 91755333 10102 20037 30/// 5605/ 58025 87458
AAXX 10181 76342 01460 80702 10078 20071 39616 40351 52006 69921 75255887// 91755 333 10090 20074 31/// 561// 58077 69907 88710
AAXX 10181 76373 32580 80000 10107 20024 38248 40203 52015 88800 91750333 10113 20030 30/// 56900 58024 86620 82725
AAXX 10181 76382 32980 83402 10174 20111 38965 40223 52005 8802/ 91755333 20114 30/// 56005 58040 88456
AAXX 10181 76390 31410 83604 10064 20064 38288 40265 57008 74044 887//91730 333 10080 20045 30/// 568// 58031 88714
AAXX 10181 76393 01103 80401 10122 20115 39688 40279 52006 60051 75055887// 91750 333 10128 20116 32/// 56999 58065 60037 88703
AAXX 10181 76423 32580 70000 10173 20035 38178 40179 57004 85430 91750333 20074 30/// 56990 58000 85610 82358
AAXX 10181 76458 32970 13005 10216 20143 30168 40173 51002 80006 91740333 10232 20125 30/// 56//9 59005 81072
AAXX 10181 76471 32980 31802 10196 20034 37714 40149 57003 80001 91750333 10200 20053 30/// 56001 59010 83075
AAXX 10181 76490 06/// /0105 10167 20152 39856 40251 50001 60132 7////8//// 91750 333 0//// 10198 20159 30/// 54/// 56/// 57///58042 60027 8//// 8//// 8//// 8//// 9//// 9//// 9//// 44
AAXX 10181 76491 01460 83605 10164 20162 39874 40269 52006 60141 75155886// 91745 333 10168 20080 32/// 569// 58038 60037 88717
AAXX 10181 76499 01430 80702 10193 20185 30213 40235 52013 60111 75055886// 91750 333 10195 20188 32/// 561// 58036 60047 88714
AAXX 10181 76519 32960 40000 10202 20021 38388 40233 57001 80002 91745333 10205 20033 30/// 56006 58001 84070
AAXX 10181 76525 32970 40804 10115 20042 37500 40171 52006 80008 91740333 10117 20094 30/// 56//5 58003 84280
AAXX 10181 76539 31567 60902 10168 20066 38199 40227 52006 70544 8640091750 333 10272 20080 30/// 56200 59021 86624
AAXX 10181 76543 32675 81701 10228 20170 30222 40255 58001 8255/ 91730333 10229 20185 30/// 5633/ 58040 82650 86358
AAXX 10181 76547 06/// /1301 10210 20193 30219 40231 58002 60002 7////8//// 91750 333 0//// 10213 20190 56/// 57/// 58030 600078//// 8//// 8//// 8//// 9//// 9//// 9//// 444 ///// 555
AAXX 10181 76548 01372 80502 10212 20194 30233 40243 50003 69901 75052884// 91740 333 10214 20190 31/// 56800 58029 69907 88606
AAXX 10181 76556 32970 23602 10250 20133 39145 40178 52004 80002 91730333 10254 20122 30/// 56001 59004 82070
AAXX 10181 76571 31865 43601 20062 38198 40222 57004 705// 80004 91755333 20060 30/// 56005 58012
AAXX 10181 76577 32970 02304 10178 20136 38072 40193 50002 91740 33320099 30/// 58007
AAXX 10181 76578 06/// /2304 20040 38067 40136 58002 60002 7//// 8////91750 333 0//// 20095 30/// 4//// 54/// 56/// 57/// 5800660007 8//// 8//// 8//// 9//// 9//// 9//// 444 ///// 555
AAXX 10181 76581 32970 70501 10196 20133 39093 40206 57005 87060 91750333 10206 20133 30/// 56020 58022 87360
AAXX 10181 76585 32980 70000 10217 20182 30075 40235 50000 8547/ 91740333 10226 20156 30/// 5685/ 58034 85637 82358
AAXX 10181 76586 06/// /0801 10223 20174 30078 40234 50002 60002 7////8//// 91750 333 0//// 10233 20154 30/// 4//// 54/// 56///57/// 58034 60007 8//// 8//// 8//// 9//// 9//// 9//// 44
AAXX 10181 76592 06/// /0312 10253 21094 30199 40199 58013 60002 7////8//// 91750 333 0//// 10264 20217 30/// 4//// 54/// 56///57/// 58003 60007 8//// 8//// 8//// 9//// 9//// 9//// 44
AAXX 10181 76593 32370 50507 10250 20231 30199 40201 58012 83240 91750333 10264 20217 30/// 5611/ 58001 83820 82330 91011 91505
AAXX 10181 76612 32962 00901 10214 20109 38503 40202 50000 91750 33310276 20076 30/// 58005
AAXX 10181 76625 32950 00507 20063 38168 40175 56010 91740 333 2009630/// 58009
AAXX 10181 76632 32568 30509 10132 20042 37607 40106 57034 83109 91745333 10135 20074 30/// 56101 59037 81634 82271
AAXX 10181 76634 31570 22801 10164 20073 37882 40241 57008 70511 8120191750 333 10165 20034 30/// 561/7 58016 81820
AAXX 10181 76641 06/// /1202 10232 20192 30221 40233 58007 60002 7////8//// 91750 333 0//// 10245 20184 30/// 4//// 54/// 56///57/// 58027 60007 8//// 8//// 8//// 8//// 9//// 9//// 9/
AAXX 10181 76644 01460 60203 10237 20201 30186 40199 57013 69911 750528487/ 91750 333 10260 20126 31/// 5611/ 58010 69917 8281085610
AAXX 10181 76645 06/// /0304 10232 20197 30190 40203 58014 60002 7////8//// 91750 333 0//// 10262 20125 30/// 4//// 54/// 56///57/// 58008 60007 8//// 8//// 8//// 9//// 9//// 9//// 44
AAXX 10181 76648 06/// /0403 10291 20136 30158 40188 58015 60002 7////8//// 91750 333 0//// 10291 20141 30/// 4//// 54/// 56///57/// 58009 60007 8//// 8//// 8//// 8//// 9//// 9//// 9/
AAXX 10181 76654 31956 02002 10298 20224 30156 40160 58005 70544 91750333 10298 20210 30/// 58000
AAXX 10181 76656 32975 00000 10230 20097 38530 40193 58003 91750 33310237 20067 30/// 59002
AAXX 10181 76658 31558 12302 10295 20130 39650 40157 57006 70540 8110091750 333 10300 20179 30/// 59001 81822 94022 98904
AAXX 10181 76662 31970 00601 10224 20096 38487 40188 57007 70542 91750333 10230 20060 30/// 58010
AAXX 10181 76665 32962 02101 10208 20087 38138 40105 57004 91755 33310218 20065 30/// 58010
AAXX 10181 76675 31570 30702 21003 37391 40202 56006 70544 81204 91747333 10194 21005 30/// 569/9 59001 81826 98470
AAXX 10181 76681 31950 00901 10191 20073 37802 40198 58009 70540 91745333 10191 20030 30/// 58009
AAXX 10181 76683 32970 11601 10203 20028 37839 40212 56014 80005 91745333 10215 20036 30/// 56005 59001 81080
AAXX 10181 76685 31950 03601 10190 20000 37885 40166 57006 70544 91740333 10192 20066 30/// 58002
AAXX 10181 76687 01558 80901 10150 20138 38732 40238 50000 69921 75122885// 91737 333 10160 20116 31/// 563// 58023 69927 8562083718
AAXX 10181 76692 01556 83604 10216 20204 30206 40226 50000 60051 791628522/ 91745 333 10229 20202 32/// 5688/ 58026 60027 8182084630 83458
AAXX 10181 76693 06/// /3604 10214 20199 30204 40223 58004 60062 7////8//// 91750 333 0//// 10228 20202 30/// 4//// 56/// 57///58028 60027 8//// 8//// 8//// 8//// 9//// 9//// 9//// 44
AAXX 10181 76698 32560 13601 10259 20187 30178 40190 57016 81200 91755333 10274 20166 30/// 56800 58010 81820
AAXX 10181 76737 01480 81402 10174 20139 38822 40215 58002 69901 705528577/ 91735 333 10179 20140 30/// 5622/ 58021 69907 8571783358 91105 91514
AAXX 10181 76738 06/// /1202 10179 20135 38822 40202 58005 60002 7////8//// 333 10193 20138 30/// 56/// 57/// 58021 60007 8////8//// 8//// 8//// 9//// 9//// 9//// 444 ///// 555 30190
AAXX 10181 76743 31558 21102 10255 20204 30201 40209 58007 70200 8220091745 333 10256 20205 30/// 562// 58024 82821
AAXX 10181 76750 32560 13403 10274 20176 30179 40190 57014 81100 91750333 10277 20178 30/// 56100 58012 81820
AAXX 10181 76751 06/// /3203 10271 20180 30179 40189 58014 60002 7////8//// 91750 333 0//// 10273 20179 30/// 4//// 54/// 56///57/// 58012 60007 8//// 8//// 8//// 9//// 9//// 9//// 44
AAXX 10181 76762 32904 03601 10270 20220 38770 40154 58011 91735 33310272 20121 30/// 59004
AAXX 10181 76772 06/// /1402 10224 20060 38449 40136 58009 60002 7////8//// 91750 333 0//// 10234 20049 30/// 4//// 56/// 57///58011 60007 8//// 8//// 8//// 9//// 9//// 9//// 444 ////
AAXX 10181 76773 31968 10901 10228 20070 38447 40202 57005 7050/ 8000191745 333 10234 20050 30/// 56009 58013
AAXX 10181 76775 31568 12601 10229 20060 38584 40208 57017 70300 8120091745 333 10234 20092 30/// 56800 59010 81827
AAXX 10181 76776 06/// /3401 10232 20062 38529 40128 58022 60002 7////8//// 91750 333 0//// 10237 20066 30/// 4//// 56/// 57///58011 60007 8//// 8//// 8//// 9//// 9//// 9//// 444 ////
AAXX 10181 76805 32570 11701 10307 20242 30144 40148 53004 81200 91745333 10316 20220 30/// 563// 58010 81824
AAXX 10181 76806 06/// /1801 10305 20221 30142 40146 58008 60002 7////8//// 91750 333 10314 20215 30/// 56/// 57/// 58007 600078//// 8//// 8//// 8//// 9//// 9//// 9//// 555 30274
AAXX 10181 76833 32960 03612 10280 20153 30147 40149 57005 91745 33310280 20236 30/// 58012 92002
AAXX 10181 76840 32150 10310 10280 20171 30085 40140 57014 81200 91740333 10287 20205 30/// 568// 58008 81827
AAXX 10181 76843 32565 60804 10230 20150 39530 40178 55007 84630 91745333 10244 20164 30/// 568// 58019 84824
AAXX 10181 76845 32460 50503 10168 20122 37966 40179 56011 85600 91750333 20105 30/// 56200 58008 85720
AAXX 10181 76848 32670 20502 10210 20111 38400 40124 56012 82200 91750333 10215 20121 30/// 56100 58004 82841 98908
AAXX 10181 76902 06/// /1802 10329 20200 39992 40127 58018 60002 7////8//// 91750 333 0//// 10329 20221 30/// 4//// 54/// 56///57/// 59002 60007 8//// 8//// 8//// 8//// 9//// 9//// 9/
AAXX 10181 76903 31680 12101 10330 20251 39994 40124 57018 70300 8110091745 333 10332 20217 30/// 56100 58005 81833
AAXX 10181 76160 32962 00401 20028 39931 40182 54000 91730 333 2011030/// 59017
AAXX 10181 76243 11372 83608 10074 20058 30035 40340 52022 60031 75165884// 91730 333 10130 20060 31/// 568// 58093 88609
AAXX 10181 76253 32782 20502 10200 20090 30098 40188 55009 82020 91759333 10205 20135 30/// 56050 59021 82457 92002
AAXX 10181 76311 32580 40000 10195 20132 39898 40180 51004 84200 91745333 10200 20132 30/// 56600 58000 84820
AAXX 10181 76405 32980 73603 10220 20136 30163 40185 54000 87010 91750333 10222 20180 30/// 56050 59013 87456
AAXX 10181 76412 31966 02201 10218 20119 30134 40179 52001 70544 91750333 10218 20118 30/// 59006
AAXX 10181 76640 31358 83202 10216 20194 30239 40251 52001 70544 8313/91740 333 10232 20170 30/// 5672/ 58027 83809 85340
AAXX 10181 76647 32770 10503 10284 20159 30171 40201 55009 81100 91750333 10285 20144 30/// 56100 58005 81850
AAXX 10181 76741 31465 60503 10246 20204 30174 40193 58006 70542 8423091735 333 10253 20145 30/// 561// 58023 84818
AAXX 10181 76855 32580 11301 10306 20235 30085 40134 51007 81200 91730333 10315 20206 30/// 56900 58010 81820 92000
AAXX 10183 91551 11598 80000 10259 20248 4//// 5//// 70282 888// 333 569// 60041 84820 88640
AAXX 10183 91553 NIL
AAXX 10183 91554 NIL
AAXX 10183 91555 31598 10000 10250 20238 40087 53003 70111 81100 333 569// 81823
AAXX 10183 91557 31598 50000 10220 20220 40074 56002 70222 83801 333 569/9 83820 85179
AAXX 10183 91565 NIL
AAXX 10183 91568 31598 50000 10239 10235 40103 53002 70222 85901 333 5629 83825 81926 84640
AAXX 10181 01400 41499 62911 10057 21014 40049 52015 70282 868// 22200 06088 10810 70049 333 91119
AAXX 10183 91551 11598 80000 10259 20248 4//// 5//// 70282 888// 333 569// 60041 84820 88640
AAXX 10183 91553 NIL
AAXX 10183 91554 NIL
AAXX 10183 91555 31598 10000 10250 20238 40087 53003 70111 81100 333 569// 81823
AAXX 10183 91557 31598 50000 10220 20220 40074 56002 70222 83801 333 569/9 83820 85179
AAXX 10183 91565 NIL
AAXX 10183 91568 31598 50000 10239 10235 40103 53002 70222 85901 333 5629 83825 81926 84640
AAXX 10184 60715 12560 60000 10131 20069 30205 40212 51009 60002 81132 333 10194 59028 81820 85070 91002 91114
AAXX 10184 60723 12960 50000 10118 20101 30032 40223 53006 60002 82082 333 10168 82360 84070
AAXX 10184 60725 12560 52102 10120 2//// 30042 40222 53007 60002 82202 333 10179 82820 84070
AAXX 10184 60735 12560 70000 10148 20074 30122 40204 53007 60002 81502 333 10211 81633 87070
AAXX 10184 60745 12960 63201 10119 20051 39863 40237 53008 60002 80002 333 10178 86070
AAXX 10184 60748 12560 41810 10144 20035 39798 40216 50002 60002 82802 333 10197 82826 83070
AAXX 10184 60750 12660 62209 10168 20048 30200 40225 51009 60002 83502 333 10201 83633 84070
AAXX 10184 60760 12660 72604 10134 20032 30129 40234 50002 60002 82202 333 10178 82833 86070 91005 91109
AAXX 10184 60765 12958 32310 10165 20075 30220 40224 58004 60002 80002 333 10211 83070 92436 9258/
AAXX 10184 60767 12560 42206 10149 20043 30089 40234 53002 60002 82202 333 10201 82820 83070
AAXX 10184 60769 12960 51604 10159 20107 30223 40227 55004 60002 80002 333 10215 85070
AAXX 10184 78948 11475 11207 10294 20235 30091 40099 60001 71500 81940 333 06220 81917
AAXX 10184 41859 31330 80000 10158 20150 30086 40125 70522 8662/ 333 56699 59009 70000 82710 85618 88458
AAXX 10184 41883 31930 60000 10170 20160 30104 40125 70510 86020 333 56090 58000 70000 86460
AAXX 10184 41891 31/05 90000 10194 20190 30088 40128 74142 89/// 333 56999 58012 70000
AAXX 10184 41907 31405 30000 10162 20150 30115 40130 74244 83400 333 56900 58003 70000 82618
AAXX 10184 41923 31930 00000 10180 20170 30114 40124 70500 333 58009 70000
AAXX 10184 41936 31914 00000 10168 20160 40130 70500 333 58004 70000
AAXX 10184 41943 32940 00000 10180 20170 30126 40134 333 58005 70000
AAXX 10184 41950 31940 00000 10170 20170 30125 40128 70500 333 58011 70000
AAXX 10184 41978 31935 00000 10196 20170 30117 40124 70500 333 58008 70000
AAXX 10184 41992 31925 00000 10195 20180 30121 40123 71000 333 58012 70000
BBXX VCXF 10184 99464 70484 41998 71917 10043 2002/ 40299 57028 70322 87040 22200 02036 20301 333// 41007 80033
AAXX 10181 06447 36/// /2303 10024 21009 30043 40171 52008 60002 333 10063 91108 91204
BBXX VCXF 10184 99464 70484 41998 71917 10043 2002/ 40299 57028 70322 87040 22200 02036 20301 333// 41007 80033
AAXX 10184 16310 12697 51807 10142 20117 39980 40201 53002 60002 82505 333 10174 82640 555 0////
AAXX 10184 48550 31558 60503 10265 20220 30098 40105 57011 71022 82146 333 58008 70218
AAXX 10184 48566 32560 80305 10272 20222 30093 40101 57004 82847 333 58004
AAXX 10184 48373 31940 20000 10225 20185 30083 40147 57004 71000 80001 333 58017
AAXX 10184 94102 46/// /2907 10288 20256 30067 40076
AAXX 10184 94103 NIL
AAXX 10184 94120 46/// /3308 10291 20245 30037 40077
AAXX 10184 94122 NIL
AAXX 10184 94131 46/// /2907 10272 20242 39916 40066
AAXX 10184 94132 NIL
AAXX 10184 94147 NIL
AAXX 10184 94150 46/// /3111 10292 20243 30002 40061
AAXX 10184 94151 46/// /3113 10298 20253 30038 4////
AAXX 10184 94170 46/// /0201 10250 20244 30054 40076
AAXX 10184 94200 NIL
AAXX 10184 94203 46/// /2807 10277 20245 30055 40065
AAXX 10184 94206 46/// /3111 10288 20100 39921 40049
AAXX 10184 94207 46/// /2417 10275 30057 40065 58013
AAXX 10184 94211 NIL
AAXX 10184 94212 46/// /3205 10287 20190 39581 40042
AAXX 10184 94216 46/// /3503 10263 20243 30016 40066
AAXX 10184 94236 NIL
AAXX 10184 94238 46/// /3108 10286 20219 39610 40022
AAXX 10184 94248 NIL
AAXX 10184 94255 46/// /3510 10286 20216 39767 40022
AAXX 10184 94268 46/// /0105 10259 20243 30056 40068
AAXX 10184 94287 46/// /2607 10281 20197 30063 40072
AAXX 10184 94290 NIL
AAXX 10184 94294 46/// /3509 10279 20255 30061 40071
AAXX 10184 94296 35/// /0000 10275 30074 40084 52005
AAXX 10184 94298 46/// /3607 10276 30074 40080 56007
AAXX 10184 95641 NIL
AAXX 10184 91925 01580 50605 10297 20208 30074 40134 51011 69921 70186 85800 333 56200 69927 83825 90710 91123 555 60005 10923 58000
AAXX 10184 91929 04/86 /2904 10283 20230 30117 40120 51022 60032 700// 333 10283 20242 69907 90710 91109 555 69905
AAXX 10184 91938 01465 71209 10249 20222 30120 40122 51024 69942 721// 878// 333 10264 20242 69947 81813 84820 86650 90710 91113 555 69945 13613 58002
AAXX 10184 91944 06/// /3614 10277 20220 30134 40137 50015 60002 333 10277 20259 60007 90710 91117 555 60005
AAXX 10184 91948 01475 70109 10247 20210 30055 40157 51016 60001 71822 85901 333 56899 60007 83913 83816 85078 90710 91130 555 60005 10330 58019
AAXX 10184 91954 06/// /1008 1//// 2//// 30127 4//// 51018 60001 333 60007 555 58010
AAXX 10184 91958 02581 40506 10216 20140 30147 40149 51011 60001 84200 333 56400 60007 84823 90710 91120 555 60005 10720 58018
AAXX 10184 91945 16/// /3110 10265 20242 30112 40117 51018 60011
AAXX 10184 65001 31925 70502 10277 20095 3//// 4//// 70522 80008 333 10345 5//// 87280
AAXX 10184 65112 31935 72704 10324 20089 3//// 4//// 70522 80008 333 10335 5//// 87280
AAXX 10184 65123 31940 70109 10289 20069 30070 40080 70522 80008 333 10334 58006 87280
AAXX 10184 65124 31956 70902 10290 20056 3//// 4//// 70522 80008 333 10338 5//// 87280
AAXX 10184 65203 31957 70000 10285 20232 3//// 4//// 70522 80008 333 10326 5//// 87280
AAXX 10184 65208 31940 71703 10295 20148 39832 40090 70522 80008 333 10340 58003 87280
AAXX 10184 65215 31935 70000 10285 20158 3//// 4//// 70522 80008 333 10340 5//// 87280
AAXX 10184 65264 32460 63204 10282 20214 30017 40089 83508 333 10325 59028 83614 85280
AAXX 10184 48384 31958 00000 10160 20122 39989 40187 57001 71000 333 58021
AAXX 10184 NIL
AAXX 10184 94299 46/// /0807 10279 20255 30074 40084
AAXX 10184 94300 46/// /2207 10231 20203 30076 40086
AAXX 10184 94302 46/// /2105 10241 20206 30081 40087
AAXX 10184 94312 46/// /2710 10268 20213 30043 40052
AAXX 10184 94313 NIL
AAXX 10184 94317 46/// /0809 10311 20110 39478 40047
AAXX 10184 94319 46/// /1807 10318 20116 39716 40037
AAXX 10184 94324 NIL
AAXX 10184 94326 46/// /1607 10229 20125 39460 40059
AAXX 10184 94327 46/// /1707 10255 20155 39686 40049
AAXX 10184 94332 46/// /2120 10235 20217 39678 40054
AAXX 10184 94333 NIL
AAXX 10184 94341 46/// /0000 10265 20189 39810 40038
AAXX 10184 94346 46/// /0000 10242 20199 39818 40032
AAXX 10184 94363 46/// /1502 10212 20209 39839 40051
AAXX 10184 94366 NIL
AAXX 10184 94367 46/// /3404 10238 20231 30024 40065
AAXX 10184 94374 46/// /2103 10224 20218 30045 40061
AAXX 10184 94388 46/// /3513 10255 20246 30056 40061
AAXX 10184 94393 46/// /0000 10265 30067 40079 56009
AAXX 10184 94394 46/// /3515 10249 30069 40077 56008
AAXX 10184 94403 46/// /1708 10229 20170 30026 40067
AAXX 10184 94429 46/// /0807 10257 20125 39619 40071
AAXX 10184 94430 46/// /0905 10248 20114 39491 40058
AAXX 10184 94449 46/// /0913 10221 20099 39584 40102
AAXX 10184 94451 NIL
AAXX 10184 94461 46/// /1411 10219 20123 39408 40060
AAXX 10184 94462 46/// /1608 10225 20130 39528 40069
AAXX 10184 94477 NIL
AAXX 10184 94488 NIL
AAXX 10184 92001 NIL
AAXX 10184 92014 NIL
AAXX 10184 92044 11470 80000 10245 20242 30069 40075 5//// 60111 702// 8587/
AAXX 10184 92047 NIL
AAXX 10184 92100 NIL
AAXX 10183 NIL
BBXX C6HS4 10183 99160 30929 41297 31515 10260 20246 40073 5/020 78788 81100 22233 2//// 313// 41002 80250
BBXX ZCBU6 10184 99343 31731 41397 80828 10180 20146 40161 57023 70300 8/7// 22274 00190 20303 308// 40604 5//// 80160
BBXX 3ECI3 10184 99395 31737 41598 73613 10170 20135 40231 54000 70222 83838 22233 00170 20301 336// 40904 80150
BBXX VNSZ 10164 99401 31458 46/// /2621 10161 20155 39987 40013 57025 22235 04166 85158
BBXX VNSZ 10184 99408 31462 46/// /2617 10157 20152 39974 40000 57025 22235 04162 85154
BBXX C6FS9 10164 99204 31494 46/// /0111 10270 20255 30048 40083 57008 22233 04275 85258
BBXX 9HA2479 10164 99334 31520 46/// /3616 10198 20171 30022 40051 57027 22254 04209 85180
BBXX VROB 10164 99068 31470 46/// /3212 10246 20223 30050 40075 57018 22200 04307 85229
BBXX FHZI 10164 99443 31471 46/// /2503 10147 20146 39972 49983 57029 22283 04154 85147
BBXX VNSZ 10174 99405 31460 46/// /2620 10157 20153 39980 40006 57027 22235 04161 85154
BBXX 9HA2479 10174 99336 31517 46/// /3616 10199 20171 30016 40045 57022 22254 04212 85181
BBXX C6FS9 10174 99206 31496 46/// /0210 10267 20255 30045 40080 57012 22233 04273 85258
BBXX VROB 10174 99068 31470 46/// /3317 10245 20225 30045 40070 57016 22200 04304 85231
BBXX FHZI 10174 99441 31472 46/// /3605 10145 20145 39972 49983 57016 22283 04148 85145
BBXX VROC 10184 99132 31544 41498 33608 10290 20248 40087 54000 70200 8214/ 22283 20201 316// 40403 80260
BBXX 2AGH7 10173 99257 31560 41298 83421 10220 20172 40091 54000 70192 887// 22224 20202 334// 40303 80190
BBXX VRZN7 10184 99048 51682 416// 50712 10270 2021/ 40090 52010 7//22 8513/ 22253 04290 20306 305// 40306 5//// 85230
BBXX VRAE2 10183 99123 31554 41/98 50205 10286 20243 40074 56008 70111 8//// 22234 04310 2//// 80256
AAXX 10184 41241 NIL
AAXX 10184 41242 36/// /2004 10144 20084 30176 40200 333 0E019 10265 59007
AAXX 10184 41244 36/// /3404 10184 20098 39843 48291 333 0E018 10267 58004
AAXX 10184 41246 NIL
AAXX 10184 41251 NIL
AAXX 10184 41252 36/// /3208 10196 21005 39809 40099 333 0E022 10281 58002
AAXX 10184 41253 NIL
AAXX 10184 41254 NIL
AAXX 10184 41255 NIL
AAXX 10184 41256 32960 01704 10209 20118 30179 40189 333 10256 59006
AAXX 10184 41257 36/// /0000 10172 20119 39711 40201 333 0E016 10253 59007
AAXX 10184 41258 36/// /2102 10234 20120 30177 40182 333 0E/// 10250 59006
AAXX 10184 41259 NIL
AAXX 10184 41262 NIL
AAXX 10184 41263 36/// /3502 10191 20026 39509 40202 333 0E019 10270 58001
AAXX 10184 41264 36/70 /2704 10201 20031 39804 40175 333 0E022 10279 58000
AAXX 10184 41265 36/// /0102 10179 20039 39648 40201 333 0E021 10274 58001
AAXX 10184 41267 35/84 /3008 10223 20105 30171 40187 333 0E021 10253 59001
AAXX 10184 41268 NIL
AAXX 10184 41270 NIL
AAXX 10184 41275 NIL
AAXX 10184 41287 36/// /0705 10204 20132 30140 40209 333 0E023 10289 58001
AAXX 10184 41288 36/// /0812 10235 20158 30162 40186 333 0E023 10274 59001
AAXX 10184 41290 NIL
AAXX 10184 41295 NIL
AAXX 10184 41304 NIL
AAXX 10184 41312 36/// /2704 10236 20147 30127 40166 333 0E/// 10284 59000
AAXX 10184 41314 NIL
AAXX 10184 41315 NIL
AAXX 10184 41316 NIL
AAXX 10184 94102 46/// /2907 10288 20256 30067 40076
AAXX 10184 94103 NIL
AAXX 10184 94120 46/// /3308 10291 20245 30037 40077
AAXX 10184 94122 NIL
AAXX 10184 94131 46/// /2907 10272 20242 39916 40066
AAXX 10184 94132 NIL
AAXX 10184 94147 NIL
AAXX 10184 94150 46/// /3111 10292 20243 30002 40061
AAXX 10184 94151 46/// /3113 10298 20253 30038 4////
AAXX 10184 94170 46/// /0201 10250 20244 30054 40076
AAXX 10184 94200 NIL
AAXX 10184 94203 46/// /2807 10277 20245 30055 40065
AAXX 10184 94206 46/// /3111 10288 20100 39921 40049
AAXX 10184 94207 46/// /2417 10275 30057 40065 58013
AAXX 10184 94211 NIL
AAXX 10184 94212 46/// /3205 10287 20190 39581 40042
AAXX 10184 94216 46/// /3503 10263 20243 30016 40066
AAXX 10184 94236 NIL
AAXX 10184 94238 46/// /3108 10286 20219 39610 40022
AAXX 10184 94248 NIL
AAXX 10184 94255 46/// /3510 10286 20216 39767 40022
AAXX 10184 94268 46/// /0105 10259 20243 30056 40068
AAXX 10184 94287 46/// /2607 10281 20197 30063 40072
AAXX 10184 94290 NIL
AAXX 10184 94294 46/// /3509 10279 20255 30061 40071
AAXX 10184 94296 35/// /0000 10275 30074 40084 52005
AAXX 10184 94298 46/// /3607 10276 30074 40080 56007
AAXX 10184 95641 NIL
AAXX 10184 89564 45/// /1525 11061 21128 39795 49815 53003
AAXX 10184 89570 46/// /3202 11091 21107 39157 56005
AAXX 10184 89571 45/// /3005 11034 21088 39797 49825 56005
AAXX 10184 89573 NIL
AAXX 10184 89610 NIL
AAXX 10184 89611 45/// /0905 11036 21086 39671 49722 53012
AAXX 10184 89614 NIL
AAXX 10184 89615 468// 81021 11089 21120 38826 53014
AAXX 10184 89807 NIL
AAXX 10184 89809 46/// /1505 11070 21110 39275 53013
AAXX 10184 94299 46/// /0807 10279 20255 30074 40084
AAXX 10184 94300 46/// /2207 10231 20203 30076 40086
AAXX 10184 94302 46/// /2105 10241 20206 30081 40087
AAXX 10184 94312 46/// /2710 10268 20213 30043 40052
AAXX 10184 94313 NIL
AAXX 10184 94317 46/// /0809 10311 20110 39478 40047
AAXX 10184 94319 46/// /1807 10318 20116 39716 40037
AAXX 10184 94324 NIL
AAXX 10184 94326 46/// /1607 10229 20125 39460 40059
AAXX 10184 94327 46/// /1707 10255 20155 39686 40049
AAXX 10184 94332 46/// /2120 10235 20217 39678 40054
AAXX 10184 94333 NIL
AAXX 10184 94341 46/// /0000 10265 20189 39810 40038
AAXX 10184 94346 46/// /0000 10242 20199 39818 40032
AAXX 10184 94363 46/// /1502 10212 20209 39839 40051
AAXX 10184 94366 NIL
AAXX 10184 94367 46/// /3404 10238 20231 30024 40065
AAXX 10184 94374 46/// /2103 10224 20218 30045 40061
AAXX 10184 94388 46/// /3513 10255 20246 30056 40061
AAXX 10184 94393 46/// /0000 10265 30067 40079 56009
AAXX 10184 94394 46/// /3515 10249 30069 40077 56008
AAXX 10184 94403 46/// /1708 10229 20170 30026 40067
AAXX 10184 94429 46/// /0807 10257 20125 39619 40071
AAXX 10184 94430 46/// /0905 10248 20114 39491 40058
AAXX 10184 94449 46/// /0913 10221 20099 39584 40102
AAXX 10184 94451 NIL
AAXX 10184 94461 46/// /1411 10219 20123 39408 40060
AAXX 10184 94462 46/// /1608 10225 20130 39528 40069
AAXX 10184 94477 NIL
AAXX 10184 94488 NIL
AAXX 10184 94500 NIL
AAXX 10184 94510 46/// /1205 10224 20174 39687 40024
AAXX 10184 94515 46/// /0109 10207 20190 39686 40025
AAXX 10184 94552 46/// /0405 10157 20151 39593 40048
AAXX 10184 94578 46/// /0000 10188 20185 30042 40053
AAXX 10184 94584 46/// /3115 10222 20203 39943 40051
AAXX 10184 94601 46/// /1121 10174 20127 30129 40146
AAXX 10184 94610 46/// /0920 10217 20104 30075 40098
AAXX 10184 94637 46/// /1505 10185 20081 39699 40117
AAXX 10184 94638 46/// /0000 10128 20115 30129 40160
AAXX 10184 94642 NIL
AAXX 10184 94643 NIL
AAXX 10184 94647 46/// /1505 10147 20098 30026 40145
AAXX 10184 94651 46/// /1407 10157 20132 30063 40139
AAXX 10184 94653 46/// /1512 10169 20114 30108 40126
AAXX 10184 94659 46/// /1914 10156 20103 39902 40092
AAXX 10184 94672 46/// /1911 10153 20074 30094 40104
AAXX 10184 94691 46/// /2117 10151 20133 39740 40058
AAXX 10184 94693 46/// /2110 10169 20132 30001 40061
AAXX 10184 94700 NIL
AAXX 10184 94703 46/// /1204 10207 20186 39907 40029
AAXX 10184 94710 46/// /3409 10208 20168 39782 40027
AAXX 10184 94729 46/// /3603 10134 20132 39203 40030
AAXX 10184 94750 46/// /0000 10152 20150 39902 40022
AAXX 10184 94767 46/// /3404 10185 20162 30031 40037
AAXX 10184 94776 46/// /0000 10142 20135 30031 40041
AAXX 10184 94791 NIL
AAXX 10184 94802 46/// /0000 10099 20095 30078 40160
AAXX 10184 94804 46/// /2116 10154 20100 30077 40114
AAXX 10184 94807 NIL
AAXX 10184 94821 46/// /2605 10104 20081 30004 40085
AAXX 10184 94842 46/// /2217 10137 20086 39967 40065
AAXX 10184 94847 NIL
AAXX 10184 94850 46/// /2116 10129 20087 30002 40047
AAXX 10184 94865 46/// /2114 10155 20152 30022 40046
AAXX 10184 94866 NIL
AAXX 10184 94875 46/// /0000 10166 20164 39896 40028
BBXX C6HS4 10183 99160 30929 41297 31515 10260 20246 40073 5/020 78788 81100 22233 2//// 313// 41002 80250
BBXX ZCBU6 10184 99343 31731 41397 80828 10180 20146 40161 57023 70300 8/7// 22274 00190 20303 308// 40604 5//// 80160
BBXX 3ECI3 10184 99395 31737 41598 73613 10170 20135 40231 54000 70222 83838 22233 00170 20301 336// 40904 80150
BBXX VNSZ 10164 99401 31458 46/// /2621 10161 20155 39987 40013 57025 22235 04166 85158
BBXX VNSZ 10184 99408 31462 46/// /2617 10157 20152 39974 40000 57025 22235 04162 85154
BBXX C6FS9 10164 99204 31494 46/// /0111 10270 20255 30048 40083 57008 22233 04275 85258
BBXX 9HA2479 10164 99334 31520 46/// /3616 10198 20171 30022 40051 57027 22254 04209 85180
BBXX VROB 10164 99068 31470 46/// /3212 10246 20223 30050 40075 57018 22200 04307 85229
BBXX FHZI 10164 99443 31471 46/// /2503 10147 20146 39972 49983 57029 22283 04154 85147
BBXX VNSZ 10174 99405 31460 46/// /2620 10157 20153 39980 40006 57027 22235 04161 85154
BBXX 9HA2479 10174 99336 31517 46/// /3616 10199 20171 30016 40045 57022 22254 04212 85181
BBXX C6FS9 10174 99206 31496 46/// /0210 10267 20255 30045 40080 57012 22233 04273 85258
BBXX VROB 10174 99068 31470 46/// /3317 10245 20225 30045 40070 57016 22200 04304 85231
BBXX FHZI 10174 99441 31472 46/// /3605 10145 20145 39972 49983 57016 22283 04148 85145
BBXX VROC 10184 99132 31544 41498 33608 10290 20248 40087 54000 70200 8214/ 22283 20201 316// 40403 80260
BBXX 2AGH7 10173 99257 31560 41298 83421 10220 20172 40091 54000 70192 887// 22224 20202 334// 40303 80190
BBXX VRZN7 10184 99048 51682 416// 50712 10270 2021/ 40090 52010 7//22 8513/ 22253 04290 20306 305// 40306 5//// 85230
BBXX VRAE2 10183 99123 31554 41/98 50205 10286 20243 40074 56008 70111 8//// 22234 04310 2//// 80256
AAXX 10183 91502 31470 60000 10246 20241 40072 52004 71522 82936 333 56799 82814 81915 84360 86280
AAXX 10183 91507 32480 11404 10240 20221 40073 55007 81956 333 56999 81813 81914
AAXX 10183 91520 31475 20000 10225 20213 40074 56007 70500 81948 333 56999 81815 81916
AAXX 10183 91541 NIL
AAXX 10184 92001 NIL
AAXX 10184 92014 NIL
AAXX 10184 92044 11470 80000 10245 20242 30069 40075 5//// 60111 702// 8587/
AAXX 10184 92047 NIL
AAXX 10184 92100 NIL
AAXX 10184 94893 46/// /2817 10164 20167 39900 40014
AAXX 10184 94907 46/// /2708 10165 20153 30010 40020
AAXX 10184 94910 46/// /1307 10168 20158 39783 40026
AAXX 10184 94926 46/// /0000 10150 20131 39374 40024
AAXX 10184 94935 46/// /3306 10166 20153 39990 40016
AAXX 10184 94954 46/// /2130 10129 20090 39924 40033
AAXX 10184 94956 46/// /2004 10109 20100 30009 40035
AAXX 10184 94975 46/// /1001 10160 20146 39950 49982
AAXX 10184 94983 46/// /3612 10161 20161 39977 40002
AAXX 10184 94995 46/// /3003 10203 20167 30071 40079
AAXX 10184 94996 46/// /3005 10199 20191 39989 40117
AAXX 10184 94997 NIL
AAXX 10184 94998 46/// /0229 10069 20060 30015 40026
AAXX 10184 95111 46/// /3006 10293 20251 30032 40068
AAXX 10184 95205 46/// /3008 10272 20242 30057 40064
AAXX 10184 95322 NIL
AAXX 10184 95448 46/// /0906 10236 20103 39523 40071
AAXX 10184 95458 46/// /1919 10168 20113 39836 40090
AAXX 10184 95480 46/// /1818 10190 20147 30008 40066
AAXX 10184 95481 46/// /2504 10241 20208 39990 40034
AAXX 10184 95482 46/// /2008 10260 20171 39992 40046
AAXX 10184 95485 46/// /2807 10208 20186 39828 40025
AAXX 10184 95492 46/// /1605 10217 20198 39890 40039
AAXX 10184 95527 46/// /0705 10203 20191 39793 40039
AAXX 10184 95634 46/// /1211 10165 20128 39723 40117
AAXX 10184 95637 46/// /1104 10133 20107 39813 40141
AAXX 10184 95646 46/// /2204 10112 20109 39963 40147
AAXX 10184 95666 NIL
AAXX 10184 95719 46/// /0803 10158 20147 39714 40035
AAXX 10184 95762 46/// /0000 10133 20119 39596 40040
AAXX 10184 95826 NIL
AAXX 10184 95839 46/// /2017 10146 20102 39909 40065
AAXX 10184 95864 NIL
AAXX 10184 95909 NIL
AAXX 10184 95954 NIL
AAXX 10184 95966 46/// /3606 10154 20148 39800 49997
AAXX 10184 96995 46/// /2701 10228 20222 39807 40101
AAXX 10184 96996 45/// /3207 10266 20235 30080 40084 58003
AAXX 10184 89564 45/// /1525 11061 21128 39795 49815 53003
AAXX 10184 89570 46/// /3202 11091 21107 39157 56005
AAXX 10184 89571 45/// /3005 11034 21088 39797 49825 56005
AAXX 10184 89573 NIL
AAXX 10184 89610 NIL
AAXX 10184 89611 45/// /0905 11036 21086 39671 49722 53012
AAXX 10184 89614 NIL
AAXX 10184 89615 468// 81021 11089 21120 38826 53014
AAXX 10184 89807 NIL
AAXX 10184 89809 46/// /1505 11070 21110 39275 53013
AAXX 10184 94893 46/// /2817 10164 20167 39900 40014
AAXX 10184 94907 46/// /2708 10165 20153 30010 40020
AAXX 10184 94910 46/// /1307 10168 20158 39783 40026
AAXX 10184 94926 46/// /0000 10150 20131 39374 40024
AAXX 10184 94935 46/// /3306 10166 20153 39990 40016
AAXX 10184 94954 46/// /2130 10129 20090 39924 40033
AAXX 10184 94956 46/// /2004 10109 20100 30009 40035
AAXX 10184 94975 46/// /1001 10160 20146 39950 49982
AAXX 10184 94983 46/// /3612 10161 20161 39977 40002
AAXX 10184 94995 46/// /3003 10203 20167 30071 40079
AAXX 10184 94996 46/// /3005 10199 20191 39989 40117
AAXX 10184 94997 NIL
AAXX 10184 94998 46/// /0229 10069 20060 30015 40026
AAXX 10184 95111 46/// /3006 10293 20251 30032 40068
AAXX 10184 95205 46/// /3008 10272 20242 30057 40064
AAXX 10184 95322 NIL
AAXX 10184 95448 46/// /0906 10236 20103 39523 40071
AAXX 10184 95458 46/// /1919 10168 20113 39836 40090
AAXX 10184 95480 46/// /1818 10190 20147 30008 40066
AAXX 10184 95481 46/// /2504 10241 20208 39990 40034
AAXX 10184 95482 46/// /2008 10260 20171 39992 40046
AAXX 10184 95485 46/// /2807 10208 20186 39828 40025
AAXX 10184 95492 46/// /1605 10217 20198 39890 40039
AAXX 10184 95527 46/// /0705 10203 20191 39793 40039
AAXX 10184 95634 46/// /1211 10165 20128 39723 40117
AAXX 10184 95637 46/// /1104 10133 20107 39813 40141
AAXX 10184 95646 46/// /2204 10112 20109 39963 40147
AAXX 10184 95666 NIL
AAXX 10184 95719 46/// /0803 10158 20147 39714 40035
AAXX 10184 95762 46/// /0000 10133 20119 39596 40040
AAXX 10184 95826 NIL
AAXX 10184 95839 46/// /2017 10146 20102 39909 40065
AAXX 10184 95864 NIL
AAXX 10184 95909 NIL
AAXX 10184 95954 NIL
AAXX 10184 95966 46/// /3606 10154 20148 39800 49997
AAXX 10184 96995 46/// /2701 10228 20222 39807 40101
AAXX 10184 96996 45/// /3207 10266 20235 30080 40084 58003
AAXX 10184 94500 NIL
AAXX 10184 94510 46/// /1205 10224 20174 39687 40024
AAXX 10184 94515 46/// /0109 10207 20190 39686 40025
AAXX 10184 94552 46/// /0405 10157 20151 39593 40048
AAXX 10184 94578 46/// /0000 10188 20185 30042 40053
AAXX 10184 94584 46/// /3115 10222 20203 39943 40051
AAXX 10184 94601 46/// /1121 10174 20127 30129 40146
AAXX 10184 94610 46/// /0920 10217 20104 30075 40098
AAXX 10184 94637 46/// /1505 10185 20081 39699 40117
AAXX 10184 94638 46/// /0000 10128 20115 30129 40160
AAXX 10184 94642 NIL
AAXX 10184 94643 NIL
AAXX 10184 94647 46/// /1505 10147 20098 30026 40145
AAXX 10184 94651 46/// /1407 10157 20132 30063 40139
AAXX 10184 94653 46/// /1512 10169 20114 30108 40126
AAXX 10184 94659 46/// /1914 10156 20103 39902 40092
AAXX 10184 94672 46/// /1911 10153 20074 30094 40104
AAXX 10184 94691 46/// /2117 10151 20133 39740 40058
AAXX 10184 94693 46/// /2110 10169 20132 30001 40061
AAXX 10184 94700 NIL
AAXX 10184 94703 46/// /1204 10207 20186 39907 40029
AAXX 10184 94710 46/// /3409 10208 20168 39782 40027
AAXX 10184 94729 46/// /3603 10134 20132 39203 40030
AAXX 10184 94750 46/// /0000 10152 20150 39902 40022
AAXX 10184 94767 46/// /3404 10185 20162 30031 40037
AAXX 10184 94776 46/// /0000 10142 20135 30031 40041
AAXX 10184 94791 NIL
AAXX 10184 94802 46/// /0000 10099 20095 30078 40160
AAXX 10184 94804 46/// /2116 10154 20100 30077 40114
AAXX 10184 94807 NIL
AAXX 10184 94821 46/// /2605 10104 20081 30004 40085
AAXX 10184 94842 46/// /2217 10137 20086 39967 40065
AAXX 10184 94847 NIL
AAXX 10184 94850 46/// /2116 10129 20087 30002 40047
AAXX 10184 94865 46/// /2114 10155 20152 30022 40046
AAXX 10184 94866 NIL
AAXX 10184 94875 46/// /0000 10166 20164 39896 40028
AAXX 10184 41024 42960 03306 10246 20200 30122 40142 333 10300 58010 55085
AAXX 10184 41030 42960 00000 10260 20190 39861 40131 333 10350 58009 55///
AAXX 10184 41036 42960 03608 10187 20100 38585 48535 333 10260 58010 55095 555 04410 50130
AAXX 10184 41055 42960 00806 10160 20000 38387 48535 333 10235 58004 55096 555 04410 50166
AAXX 10184 41061 42960 01204 10141 20010 39477 40200 333 10231 58000 55101
AAXX 10184 41084 42960 00000 10174 21020 38882 48533 333 10260 58003 55100 555 04410 50156
AAXX 10184 41112 42960 00000 10138 20130 37965 48532 333 10225 58009 55095 555 04410 50172
AAXX 10184 41114 42460 10000 10148 20120 37999 48530 81400 333 10246 58011 55/// 81618 555 04410 50161
AAXX 10184 41128 42960 00000 10138 21060 38846 48547 333 10246 58004 55088 555 04410 50188
AAXX 10184 41136 42960 00508 10176 20010 39355 40177 333 10245 59004 55103
AAXX 10184 41140 42960 32004 10282 20220 30132 40142 83030 333 10319 58012 55/// 83360
AAXX 10184 94310 46/// /2721 10270 20235 30042 40054 57009
AAXX 10184 95283 46/// /2603 10273 20249 30070 40077
AAXX 10184 95288 46/// /0000 10285 30061 40076 55001
AAXX 10184 95675 46/// /1717
AAXX 10184 95872 46/// /1923
AAXX 10184 95961 37/// /2312 10123 39977 40018 52010 7//44
AAXX 10184 91375 NIL
AAXX 10184 91519 NIL
AAXX 10184 91531 NIL
AAXX 10184 91532 45/// /0404 10264 20235 30068 40076 57001
AAXX 10184 91559 NIL
AAXX 10184 91611 NIL
AAXX 10184 91642 NIL
AAXX 10184 91679 NIL
AAXX 10184 91689 NIL
AAXX 10184 91756 NIL
AAXX 10184 91844 NIL
AAXX 10184 92036 NIL
AAXX 10184 93713 NIL
AAXX 10184 40356 42960 00104 10060 21050 39258 48541 333 10120 58061 55090 555 04410 50259
AAXX 10184 40357 42960 02603 10078 21020 39600 40253 333 10158 58059 55///
AAXX 10184 40360 42960 02704 10084 21010 39647 40243 333 10158 58053 55096
AAXX 10184 40361 42960 00603 10097 21080 39466 40252 333 10161 58048 55///
AAXX 10184 40362 42960 03606 10101 21030 39712 40242 333 10180 58041 55///
AAXX 10184 40373 42960 03506 10145 21010 39790 40212 333 10256 58017 55///
AAXX 10184 40375 42960 03604 10108 21010 39341 40239 333 10170 58038 55090
AAXX 10184 40377 42960 00607 10150 20030 39733 40216 333 10254 58018 55///
AAXX 10184 40394 42660 30308 10110 21070 39086 48555 83500 333 10184 58032 55087 83640 555 04410 50224
AAXX 10184 40400 42960 03408 10226 20140 30139 40167 333 10268 58008 55090
AAXX 10184 40401 42960 03208 10172 20010 39500 40204 333 10215 58035
AAXX 10184 40405 42960 03607 10170 20060 39460 40201 333 10260 58018 55///
AAXX 10184 40416 42960 09902 10130 20050 30170 40190 333 10230 59004 55///
AAXX 10184 40417 42960 00000 10124 20040 30190 40205 333 10223 59004 55///
AAXX 10184 40420 42960 02304 10121 20040 39995 40206 333 10230 59002 55///
AAXX 10184 40430 42960 00000 10230 20050 39437 40147 333 10284 58017 55090
AAXX 10184 40435 NIL
AAXX 10184 40437 42960 01603 10136 20020 39498 40207 333 10238 58001 55100
AAXX 10184 40439 42960 02908 10234 20150 30128 40138 333 10312 58010 55093
AAXX 10184 91577 06/// /0603 10229 20210 30073 40094 53005 60001 333 59002 60007
AAXX 10181 38141 12998 00901 11114 21167 30098 40268 54000 69900 333 11078
AAXX 10181 38149 42998 00901 11082 21124 30189 40271 52001 333 10012
AAXX 10181 38178 429// 00601 11088 21189 30003 40309 58001 333 11041
AAXX 10181 38262 326// 80000 11060 21108 30185 40271 52002 885// 333 11002
AAXX 10181 38264 41115 80802 11051 21054 30168 40267 57006 71011 886// 333 10034 88702
AAXX 10181 38396 41195 81203 11044 21053 30133 40264 57011 71011 886// 333 11034 88701
AAXX 10181 38403 429// 00903 11054 21119 30146 40273 57002 333 11006
AAXX 10181 38413 429// 01003 11066 21086 39984 40291 53002 333 11041
AAXX 10181 38457 31995 51601 10006 21017 39679 40283 57003 71022 85080 333 10075
AAXX 10181 38462 426// 70000 11014 21066 38814 58001 83551 333 10030
AAXX 10181 38565 329// 00000 11032 21039 39684 40288 51001 333 10040
AAXX 10181 38579 31/// 91203 11027 21030 39854 40290 57006 74542 89/// 333 11010
AAXX 10181 38583 31/91 90201 11016 21016 39961 40296 57004 74541 333 10013
AAXX 10181 38611 41996 03502 10000 21021 39724 40314 52002 71011 333 10062
AAXX 10181 38618 329// 00000 11018 21027 39583 40299 54000 333 10063
AAXX 10181 38683 41/91 90000 11034 21034 39981 40271 58001 74541 333 10070 89/01
AAXX 10181 38696 329// 00000 11005 21021 39397 40280 52001 333 10118
AAXX 10181 38812 41996 00703 10024 20008 39792 40256 58007 71000 333 10107
AAXX 10181 38927 31950 00701 10023 20007 39883 40270 58006 71000 333 10143
AAXX 10181 37395 32697 82702 10056 20044 30158 40301 52006 8552/ 333 10076
AAXX 10181 37409 11/91 92705 11020 21020 38834 48544 52004 69920 74544 333 11002 95090
AAXX 10181 37432 31596 80000 10005 21012 39006 48537 52012 77022 8872/ 333 10080
AAXX 10181 37514 32696 70000 10004 21019 39103 40288 52011 87500 333 10035
AAXX 10181 37545 325// 43608 10051 20024 39747 40268 52010 84100 333 10066
AAXX 10181 37621 326// 70000 10033 21008 39618 40273 52017 80030 333 10100
AAXX 10181 37484 NIL
AAXX 10184 40550 35/69 /3303 10138 21043 40219 51015 333 55300 00000 10192 20000 30000 41100 51292 60000 55407 40000 90069 90400 91003 91109 91205 91301
AAXX 10184 40551 36/// /2807 10127 21051 333 90400 91009 91111 91209 91305
AAXX 10184 40552 35/70 /3111 10137 21060 40220 51015 333 55300 90069 90401 91011 91113 91211 91305
AAXX 10184 40553 35/69 /3207 10129 21051 40218 53014 333 55300 90069 90400 91009 91111 91209 91303
AAXX 10184 40568 36/// /1906 10129 20061 333 90400 91007 91107 91205 91303
AAXX 10184 40569 NIL
AAXX 10184 40570 35/70 /3608 10131 21036 40228 51021 333 55300 90069 90401 91009 91115 91213 91307
AAXX 10184 40571 NIL
AAXX 10184 40572 NIL
AAXX 10184 40573 36/// /3308 10125 21048 333 90401 91009 91111 91209 91305
AAXX 10184 40580 46/// /2801 10113 20007 333 553// 00000 10215 20000 30000 41064 51279 60000 55407 40000 90401 91001 91105 91201 91301
AAXX 10184 40581 36/// /2102 10162 20042 333 90401 91003 91105 91201 91301
AAXX 10184 40582 32960 00000 10116 20053 40214 51006 333 55300 00000 10191 20000 30000 41112 51303 60000 55407 40000 90400 91003 91109 91205 91301
AAXX 10184 40583 NIL
AAXX 10184 40585 36/// /2112 10161 20127 222// 1//// 3//// 4//// 70/// 333 90400 91013 91113 91211 91305
AAXX 10184 40586 36/// /2403 10135 21006 333 90401 91003 91105 91203 91301
AAXX 10184 40587 46/// /2604 10114 21003 333 553// 00000 10190 20000 30000 41073 51263 60000 55407 40000 90400 91003 91105 91205 91301
AAXX 10184 40588 37/56 /2402 10119 20083 40212 52005 71011 333 55300 90069 90400 91001 91107 91205 91303
AAXX 10184 40589 NIL
AAXX 10184 40590 36/// /1004 10147 20019 333 90401 91005 91109 91209 91303
AAXX 10184 40591 NIL
AAXX 10184 40592 35/63 /3002 10088 20041 40217 51010 333 55300 00000 10227 20000 30000 41045 51272 60000 55407 40000 90069 90401 91001 91107 91203 91301
AAXX 10184 40593 36/// /1401 10156 20119 333 90400 91001 91109 91207 91303
AAXX 10184 40594 36/// /3005 10129 20077 333 90401 91005 91107 91205 91303
AAXX 10184 40596 46/// /0805 10186 20117 333 90400 91005 91107 91205 91303
AAXX 10181 14008 12099 12702 11024 21057 37456 47013 52011 60002 81100 333 11012 49065 92868 95152 444 38238
AAXX 10181 14015 12775 22902 10095 20062 39809 40165 53009 69902 81530 333 10120 81650
AAXX 10181 14023 12699 22102 10087 20043 39862 40156 53008 60002 81140 333 10132 81842
AAXX 10181 14024 12498 32308 10057 20040 39062 48462 52004 60002 81142 333 10081 81810 91111 95000
AAXX 10181 14026 12997 13502 10021 20005 39844 40171 52012 60002 81040 333 10101
AAXX 10181 14031 12997 23201 10025 20008 39937 40170 52010 60002 82030 333 10095
AAXX 10181 14105 11796 71203 10091 20078 30168 40173 51009 69902 72186 82570 333 10119 82650
AAXX 10181 14106 11595 60000 10091 20085 30101 40169 53007 60002 71022 86500 333 10105 86624 95090
AAXX 10181 14121 12998 31802 10104 20056 39886 40150 50008 60002 83040 333 10147
AAXX 10181 14122 12980 22903 10089 20049 39961 40157 52009 60002 81031 333 10154
BBXX BATUK01 10184 99580 70032 46/// /2114 10039 21017 40032 50/// 22261 00099
BBXX DBFH 10181 99555 10084 46/// /2909 10061 20019 40033 12012 22200 00047
AAXX 10184 65306 31940 50406 10270 20062 39776 40110 70522 80002 333 10325 58008 85076
AAXX 10184 65319 31940 50000 10271 20143 39584 40097 70522 80002 333 10351 58007 85076
AAXX 10184 65330 31910 50802 10296 20078 39651 40089 70522 80002 333 10344 58007 85076
AAXX 10184 65335 32958 53602 10305 20128 39862 40085 80002 333 10355 58011 85076
AAXX 10184 65344 32458 52006 10290 20235 30073 40084 81502 333 10321 58008 81613 85076
BBXX DBEB 10181 99538 10082 41/// /2310 10034 20433 40088 52010 7//// 22221 00048
AAXX 10184 60710 12960 80603 10125 20082 30125 40205 51006 60002 83082 333 10199 83360 86070
AAXX 10184 60714 12960 60000 10121 2//// 30216 40222 51011 60002 83082 333 10195 83360 84070
AAXX 10184 60720 12960 61802 10156 20119 30172 40208 53008 60002 80002 333 10206 86070
AAXX 10184 60728 NIL
AAXX 10184 60729 NIL
AAXX 10184 60731 05960 /0302 10138 20082 30203 40210 51010 60002 333 10186 20069 59033 60007 91003 91111
AAXX 10184 60732 12560 70000 10110 20068 39606 40203 51006 60002 8388/ 333 10167 82820 85360
AAXX 10184 60734 12962 61804 10110 20064 39694 40219 52007 60002 82082 333 10189 82360 85070
AAXX 10184 60738 12560 33008 10113 21061 38980 48547 53005 60002 84200 333 10166 84823
AAXX 10184 60739 NIL
AAXX 10184 60740 12965 71403 10171 20034 30208 40210 51008 60002 82082 333 10217 82360 86070
AAXX 10184 60742 NIL
AAXX 10184 60764 NIL
AAXX 10184 60770 12975 72406 10176 20082 30095 40233 53005 60002 83082 333 10225 83360 85070
AAXX 10184 60772 NIL
AAXX 10184 60775 12965 52204 10165 20029 39889 40243 54000 60002 83082 333 10219 83360 83070
AAXX 10184 60780 12960 61906 10147 20035 39944 40247 53002 60002 81082 333 10215 81360 86070
BBXX DBKR 10181 99541 10121 46/// /2406 10023 20020 40067 52005 22200 00057
BBXX DBBA 10181 99536 10086 46/// ///// 10014 20009 40100 52019 22260 00054
BBXX DBND 10181 99/// ///// 46/// ///// 10014 20010 40093 52019 22220 00056
AAXX 10184 60141 32458 40000 10118 20085 39557 40226 51006 84800 333 10170 82816 83630
AAXX 10184 60115 32660 33506 10135 20109 40205 51005 81530 91748 333 10190 81640 83360
AAXX 10184 60135 32456 52502 10137 20112 40223 53005 83530 333 10183 83615 83357
AAXX 10184 60156 15460 23505 10135 20097 40233 52005 69902 82200 333 10188 82816
AAXX 10184 60230 15958 32305 10175 20064 40214 53003 60002 83082 333 10229 83360
BBXX DBCK 10181 99/// ///// 46/// ///// 10014 20013 40093 52019 22220 00048
BBXX 41101 10184 99146 70562 46/// /1805 10276 20225 40088 57022 22200 00281 10804 70020
AAXX 10181 10044 46/// /2311 10025 20001 30025 40057 53007 222// 00062 333 10028 20001 55300 91123 91219
AAXX 10181 10124 46/// /2504 10050 2//// 30047 40086 53013 222// 00054 333 10060 20023 553// 91125 91217
AAXX 10181 15501 12562 60000 10041 20026 30148 40193 56001 60002 86500 333 10048 21016 555 590//
AAXX 10181 15505 12670 52003 10141 20028 39822 40187 52004 60002 85300 333 10178 20068 555 547//
AAXX 10181 15511 12565 80000 10042 20022 30169 40209 57003 60002 8555/ 333 10048 21012 555 587//
AAXX 10181 15514 12970 80000 10050 20023 30161 40197 54000 60002 8807/ 333 10065 21006 555 582//
AAXX 10181 15530 12962 70000 10086 20007 39968 40207 53011 60002 83036 333 10146 21021 555 558//
AAXX 10181 15533 12666 72302 10055 20033 30132 40164 53002 60002 87500 333 10080 21007 555 586//
AAXX 10181 15550 12970 80000 10088 20002 30163 40183 57001 60002 8807/ 333 10116 20022 555 555//
AAXX 10181 15561 12975 52004 10073 20022 30188 40195 57001 60002 80001 222// 00093 2//01 333 10124 20050 555 570// 92023 92428
AAXX 10181 15562 12983 32310 10096 20044 30130 40202 58003 60002 80001 222// 2//02 333 10104 20078 555 570// 92035 92438
AAXX 10181 15601 12970 30000 10028 21029 39596 40228 53010 60002 83030 333 10076 21054 555 566//
AAXX 10181 15605 12772 60000 10023 20005 39370 40230 53002 60002 82531 333 10093 21054 41/// 555 588//
AAXX 10181 15613 11/00 92310 11024 21027 37727 47074 53007 60002 74942 333 11022 21045 46003 555 598//
AAXX 10181 15628 12970 82702 10020 21033 39969 40234 53005 60002 80007 333 10090 21035 555 568//
AAXX 10181 15642 12980 20000 10054 20019 30044 40215 53001 60002 80002 333 10116 21022 555 578//
AAXX 10181 15661 12970 02002 10070 20037 30180 40216 53004 60002 222// 20000 333 10122 20020 555 579// 92012 92418
AAXX 10181 15726 11881 72001 10021 21067 38284 48544 54000 60002 70322 86072 333 10092 20017 43003 555 552//
BBXX 61001 10184 99434 10078 46/// /2215 10153 20122 40560 52006 22200 00157 10402 70011
AAXX 10184 40250 32960 00000 10080 21018 39428 40233 52003 333 10140
AAXX 10184 40260 32960 03306 10080 21042 39440 40237 52015 333 10150
AAXX 10184 40265 32960 02606 10066 20024 39461 40281 52020 333 10126
AAXX 10184 40296 32960 00000 10164 20080 40250 52007 333 10247
AAXX 10181 13168 32698 71802 10132 20076 30058 40163 53002 87500 333 10141
AAXX 10181 13174 11697 81803 10084 20058 30061 40162 52003 69902 70262 885// 333 10088
AAXX 10181 13269 32599 72501 10112 20066 39966 40178 51005 87500 333 10163
AAXX 10181 13274 32698 72103 10137 20047 30015 40173 55003 86530 333 10153
AAXX 10181 13278 32698 70000 10097 20051 39968 40192 53007 87500 333 10142
AAXX 10181 13378 32498 62304 10015 20015 38288 48513 53004 86500 333 10025 4/014
AAXX 10181 13397 32698 71304 10046 20018 39682 40228 51005 87500 333 10112
AAXX 10181 13457 12565 81604 10137 20120 30201 40208 54000 69972 888// 333 10153 82820 83830 86640
AAXX 10181 13481 NIL
AAXX 10184 08141 11458 82002 10080 20076 39316 40175 53004 60002 76162 8677/ 333 10090
AAXX 10184 06610 32675 72104 10099 20052 39592 40171 5//// 875// 333 10121 31/// 553// 20000 87647 90766 93100
AAXX 10184 06670 01256 83305 10063 20051 39668 40183 5//// 60022 78085 885// 333 10091 32/// 553// 20000 60005 81703 83708 86614 90766 93100
AAXX 10184 06700 32689 32601 10083 20055 39686 40179 5//// 81440 333 10125 31/// 553// 20004 81635 83358 90766 93100
AAXX 10184 06680 01/01 92720 11037 21039 37477 47012 5//// 60042 77174 333 11027 47092 553// 20000 69935 90766 93102
AAXX 10184 06990 31560 80000 10057 20039 39630 40182 5//// 76362 887// 333 10101 32/// 553// 20000 88725
AAXX 10184 06760 32980 00000 10072 20000 39729 40179 5//// 333 10109 30/// 553// 20000 90766 93100
AAXX 10184 06720 33/// /0000 10028 21003 39613 40200 5//// 333 10084 553// 20000
AAXX 10181 13173 32698 71603 10088 20056 30069 40169 51002 87500 333 10092
AAXX 10181 13180 32698 81806 10100 20052 30063 40173 51002 885// 333 10105
AAXX 10181 13266 12697 80402 10088 20072 30070 40171 53004 69922 885// 333 10106
AAXX 10181 13369 32698 51401 10041 20025 39002 48483 50000 85500 333 10098 4/016
AAXX 10181 13383 32998 71601 10071 20020 39994 40199 52005 87030 333 10106
AAXX 10181 13384 32698 81401 10090 20025 30042 40194 53002 885// 333 10113
AAXX 10181 13389 32698 60000 10068 21019 39928 40212 54000 86500 333 10114
AAXX 10181 13477 NIL
AAXX 10181 13492 NIL
AAXX 10181 13584 NIL
AAXX 10181 13585 12697 80000 10028 20023 39423 40232 50002 69922 885// 333 10051 94000
AAXX 10181 13597 42698 80000 10070 20020 30159 40232 54000 885// 333 10135 94036
AAXX 10181 13598 42698 81102 10047 21022 48511 53005 885// 333 10122 94021
AAXX 10184 65352 31910 70000 10295 20030 3//// 4//// 70522 80002 333 10360 5//// 87076
AAXX 10184 65361 31940 70000 10260 20136 3//// 4//// 70522 80002 333 10330 5//// 87076
AAXX 10184 65376 32957 70804 10285 20093 39633 40101 80002 333 10323 58009 87076
AAXX 10184 65387 32460 72204 10292 20247 30052 40070 81202 333 10343 58012 81816 87073
AAXX 10181 06431 36/// /2304 10038 20007 30150 40162 52008 60002 333 10068 91108 91205
AAXX 10184 65351 31940 70406 10286 20060 3//// 4//// 70522 80002 333 10325 5//// 87076
AAXX 10184 65355 31956 70206 10264 20074 39584 40099 70522 80002 333 10328 58011 87073
AAXX 10184 65357 31930 70804 10304 20069 39703 40092 70522 80002 333 10352 58006 87076
AAXX 10184 65380 32960 70000 10280 20230 3//// 4//// 80002 333 10350 5//// 87076
AAXX 10184 65501 31956 70000 10269 21008 39803 40118 70622 80002 333 10314 58009 87076
AAXX 10184 65502 31930 70802 10284 21051 39725 40104 70622 80002 333 10324 58008 87076
AAXX 10184 65503 31935 70404 10283 20026 39762 40107 70622 80002 333 10327 58011 97076
AAXX 10184 65505 32960 70404 10299 20061 39761 40098 80002 333 10344 58006 87076
AAXX 10184 65507 31920 70204 10276 20022 39756 40106 70622 80002 333 10329 58010 87076
AAXX 10184 65510 31935 60804 10287 20084 39581 40093 70622 80002 333 10324 58011 86076
AAXX 10184 65516 31958 60000 10296 20029 39787 40092 70622 80002 333 10342 58004 86076
AAXX 10184 65518 31958 70202 10280 20008 39730 40092 70622 80002 333 10336 58014 87076
AAXX 10184 65522 31935 70000 10300 20060 39763 40093 70622 80002 333 10342 58012 87076
AAXX 10184 40340 32960 03612 10136 20034 40232 52013 333 10200
AAXX 10184 64501 32358 62212 10273 20245 3//// 4//// 86900 333 10295 5//// 83608 81923 86630 94942 95832
AAXX 10181 50468 32970 03402 11189 21213 39917 40138 52004 333 11081
AAXX 10181 50953 32965 82202 11095 21111 39990 40176 52012 80007 333 11064
AAXX 10181 51076 NIL
AAXX 10181 51243 NIL
AAXX 10181 51288 32980 70902 11101 21188 38379 57003 80002 333 05153 11033
AAXX 10181 51463 NIL
AAXX 10181 51573 NIL
AAXX 10181 51709 NIL
AAXX 10181 52533 NIL
AAXX 10181 52652 NIL
AAXX 10181 52866 32968 00000 11142 21172 37746 57002 333 05554 11025
AAXX 10181 52983 NIL
AAXX 10181 53463 32980 00401 11107 21148 39063 40382 57003 333 05302 11039
AAXX 10181 53513 32970 02001 11098 21187 39074 40358 57013 333 05703 11019
AAXX 10181 53588 NIL
AAXX 10181 53772 NIL
AAXX 10181 53915 NIL
AAXX 10181 54218 32970 02502 11051 21121 39431 40258 52004 333 10004
AAXX 10181 54337 NIL
AAXX 10181 54342 NIL
AAXX 10181 54401 NIL
AAXX 10181 54471 32960 01602 11020 21050 30225 40231 52001 333 11013
AAXX 10181 54497 32960 00402 11082 21101 30237 40254 57003 333 11010
AAXX 10181 54511 NIL
AAXX 10181 54823 32978 01401 11007 21126 30090 40308 57005 333 10032
AAXX 10181 56080 NIL
AAXX 10181 56096 NIL
AAXX 10181 57083 32968 02702 10025 21121 30170 40311 57011 333 10066
BBXX UCJU 10181 99700 10487 41/98 91811 11016 40138 57020 70222 22263 20503 30000
AAXX 10184 04048 21450 81057 10003 21003 49782 57033 76877 8672/ 333 10003 21025 69908 555 3//64
AAXX 10183 04013 32589 81802 11032 21057 49883 57026 82210 333 11025 21055 555 3//09
AAXX 10183 04064 22650 80913 11004 21035 49888 57045 70282 8372/ 333 11004 21050 60018 555 3//18
AAXX 10184 04005 32489 50503 11025 21116 49910 57027 85800 333 11020 21033 555 3/208
AAXX 10184 04018 21235 80917 11016 21021 49833 57031 77173 8672/ 333 11016 21044 69938 555 3//28 81705 83708 86714
AAXX 10184 04030 21656 80918 11008 21037 49831 57026 73877 8253/ 333 11005 21062 69908 555 3//23 82635 86359 88362
AAXX 10184 04048 NIL
AAXX 10184 04063 32684 52403 11041 21080 49943 57026 83520 333 11035 21100 555 3//06
AAXX 10184 04077 NIL
AAXX 10184 04082 21780 80709 10012 21024 49927 57046 72222 8262/ 333 10013 21052 69928 555 3//09 82750 87460
AAXX 10184 04097 21/08 93208 10005 21017 49956 57029 77372 333 10005 21034 69928 555 3/412
BBXX TFBKF 10184 99635 70202 46/// ///// 22200 10708 70038
BBXX TFBLK 10184 99657 70248 46/// ///// 22200 10705 70024
BBXX TFDRN 10184 99658 70212 46/// ///// 22200 10805 70024
BBXX TFGRS 10184 99663 70182 46/// ///// 22200 10705 70026
BBXX TFGRV 10184 99638 70225 46/// ///// 22200 10810 70050
BBXX TFGSK 10184 99641 70229 46/// ///// 22200 10603 70017
BBXX TFHFN 10184 99642 70152 46/// ///// 22200 10603 70015
BBXX TFKGR 10184 99657 70136 46/// ///// 22200 10906 70032
BBXX TFSTD 10184 99664 70234 46/// ///// 22200 10706 70031
BBXX UFNZ 10181 99344 70092 41798 52808 10181 40235 54000 70222 87470 22253 00121 20302
AAXX 10181 10035 01581 32405 10025 20001 30004 40063 53010 60032 72581 83800 333 10029 20006 32100 41998 55300 20000 30000 40899 69907 81833 91116 96485
AAXX 10181 56187 32961 70000 10045 20020 39645 40311 57011 8704/ 333 05551 10098
AAXX 10181 56778 NIL
AAXX 10181 57265 NIL
AAXX 10181 57461 32960 02701 10016 20004 30174 40343 57009 333 10094
AAXX 10181 57494 NIL
AAXX 10181 57516 31756 82501 10071 20048 30000 40320 57011 71000 885// 333 05300 10098
AAXX 10181 57687 32968 02201 10022 21041 30244 40331 57006 333 10099
AAXX 10181 57816 32660 81102 10006 21019 38877 40320 57010 885// 333 05200 10031
AAXX 10181 58040 32961 02702 11018 21079 30298 40312 57007 333 10035
AAXX 10181 58102 NIL
AAXX 10181 58150 NIL
AAXX 10181 58221 31958 02201 11025 21051 30300 40330 57010 71000 333 10054
AAXX 10181 58238 NIL
AAXX 10181 58251 NIL
AAXX 10181 58362 NIL
AAXX 10181 58457 32960 02902 11001 21057 30275 40330 57007 333 10071
AAXX 10181 58606 NIL
AAXX 10181 58752 NIL
AAXX 10181 58847 NIL
AAXX 10181 59117 32976 01801 10066 21074 30160 40269 57011 333 10148
AAXX 10181 59134 NIL
AAXX 10181 59287 32975 00205 10065 21071 30184 40272 57007 333 10153
AAXX 10181 59316 32965 61102 10095 21028 30229 40234 57005 80002 333 10182
AAXX 10181 59431 NIL
AAXX 10181 59644 NIL
AAXX 10181 59758 32468 73605 10118 20043 30159 40237 57011 878// 333 10174
AAXX 10184 61401 NIL
AAXX 10184 61404 31950 70816 10264 21080 39756 40146 70722 83082 333 10275 58010 83363 86073
AAXX 10184 61415 31956 63109 10225 20096 30129 40124 70622 86070 333 10278 58008 86463
AAXX 10184 61421 NIL
AAXX 10184 61437 32958 60404 10306 20130 39988 40124 80002 333 10330 59005 86073
AAXX 10184 61442 31940 50606 10322 21079 30109 40112 70611 80002 333 10340 58001 85073
AAXX 10184 61450 31930 00806 10276 21002 39667 40121 70600 333 10310 59004
AAXX 10184 61461 NIL
AAXX 10184 61489 31956 00000 10330 20032 30096 40103 70500 333 10347 58000
AAXX 10184 61492 32958 50808 10320 21022 30116 40135 80002 333 10335 58003 85073
AAXX 10184 61497 34920 00812 10309 21038 33985 4//// 705// 333 10344 59003
AAXX 10184 61498 31940 00000 10310 20086 39982 40114 705// 333 10334 58008
AAXX 10184 61499 31930 00804 10295 20010 39856 40110 70500 333 10330 58000
AAXX 10181 01003 16/// /0601 11106 21135 30038 40050 52002 6////
AAXX 10181 48852 11497 83201 10162 20159 30197 40207 57010 60071 76166 8672/ 333 58022 86894 88499 96162
AAXX 10181 48855 11560 83602 10183 20180 30189 40197 58009 60131 76362 8672/ 333 58016 86895 88499 96162
AAXX 10181 48848 11497 83204 10138 20130 30222 40230 57008 60011 76066 8672/ 333 58021 86894 88499 96160
AAXX 10181 26135 27364 82204 10022 20014 39830 49904 52011 72386 88/// 333 10024 20006 69987 88/09 91008 91110 555 1/001 20006 3/100 50013 52100
AAXX 10181 80001 01470 80305 10264 20244 30112 40113 60121 70365 333 56190 59007 69907 82816 86458 NIL
AAXX 10181 80002 NIL
AAXX 10181 80009 31560 32002 10312 20245 30080 40085 70500 81804 333 560/0 59002 81820 83070
AAXX 10181 80022 01340 72703 10284 20238 30087 40089 60031 76392 85921 333 56990 59003 60037 85709 81910 84257
AAXX 10181 80028 NIL
AAXX 10181 80035 31565 50904 10296 20250 30096 40101 70521 85100 333 562// 59003 85820
AAXX 10181 80036 31468 20804 10319 20242 70500 82200 333 560/0 57892 82815
AAXX 10181 80063 NIL
AAXX 10181 80084 31570 51803 10305 20236 70521 84801 333 561/9 84825
AAXX 10181 80091 31465 50000 10305 20236 70522 84202 333 560/9 84815
AAXX 10181 80094 31464 72705 10248 20194 38795 70522 86801 333 567/9 59004 86817
AAXX 10181 80097 NIL
AAXX 10181 80099 31466 40202 10314 20231 39897 40039 70500 84801 333 563/9 59015 84815
AAXX 10181 80110 31670 71803 10260 20137 38490 70522 83206 333 560/9 57895 58001 83835 87270
AAXX 10181 80112 31570 70705 10208 20125 37892 70522 83205 333 569/9 57896 58000 83825 85070
AAXX 10181 80139 NIL
AAXX 10181 80144 11458 82402 10270 20237 69941 70552 8521/ 333 5600/ 85815 88457
AAXX 10181 80149 NIL
AAXX 10181 80210 31462 52202 10260 20184 38647 71521 84201 333 564/9 57891 58000 84817
AAXX 10181 80211 NIL
AAXX 10181 80214 NIL
AAXX 10181 80222 31562 42404 10204 20124 37506 70510 84800 333 569// 59002 84823
AAXX 10181 80234 32562 31002 10312 20204 39584 40070 83101 333 56299 59011 83823
AAXX 10181 80241 NIL
AAXX 10181 80259 31560 42802 10288 20195 39037 70521 84800 333 568// 58000 84827
AAXX 10181 80315 11565 30201 10309 20209 39570 40061 69931 70151 83100 333 568// 59010 83833
AAXX 10181 80342 32570 43504 10213 20179 38206 84800 333 563// 58003 84825
AAXX 10181 80370 01570 40902 10156 20087 69931 70152 84100 333 562// 69937 84820
AAXX 10181 80398 01468 72702 10250 20232 30014 40110 60111 70196 83570 333 5688/ 58022 60017 83610 87458
AAXX 10181 26058 01383 82004 10014 20009 39896 49904 53002 60012 72162 8675/ 333 10023 20009 69917 86508 91008 91109 555 1/100 20009 3/102 50009 52101
AAXX 10181 26045 01466 72007 10025 20012 39880 49882 52002 69942 70222 83530 333 10029 20014 60007 83616 91011 91111 555 1/000 20014 3/100
BBXX 44139 10181 99442 70571 46/// /1408 10089 40231 57033 22200 00086 10504 70019 333 91210
BBXX SBLW 10183 99456 70139 43/98 72607 10110 40213 58002 22254 00147 2//// 4////
BBXX DFGX2 10183 99391 11363 41597 53323 40150 54000 70222 82576 22214 2////
BBXX LAOX5 10181 99321 11494 41797 50410 00/// 10180 20160 40200 51014 70310 85482 22223 00220 20604 325// 40604 5//// 6//// 80160
BBXX MGPU2 10184 99413 11433 41998 32738 10035 21039 40108 58010 70111 82040 22273 00062 20403 3//// 4//// 5//// 80010
BBXX 46035 10181 99571 71778 46/// /1914 1//// 49665 56012 91750 22200 11112 20606 300// 41110 70059 333 91218 555 11143 22153 31658 42021 61749 195144 194143 188148 193147 196157 195165 81919 91658
BBXX 4XFV 10183 99530 71741 43298 42336 10030 00/// 21035 49835 51005 70121 83/// 22254 0//// 20507 ///// 3//// 4//// 5//// 6//// 80005
BBXX A8SI3 10183 99540 71565 43/95 9//// 10040 20030 40070 57020 22224 00040 20509 80030
BBXX LAJS6 10184 99500 71703 41597 52334 10040 21010 49980 51020 70362 84243 22223 00060 20908 323// 41106 80020
BBXX LAYG5 10184 99542 71543 41598 72145 10060 21010 49800 57080 70322 8746/ 22263 00080 21004 317// 4//// 5//// 80030
BBXX SHIP 10184 99377 71776 41/97 /2227 10190 20183 40056 57020 70222 8//// 91755 22224 00175 1//// 2//// 3//// 4//// 5//// 6//// 80185
BBXX VRHO2 10184 99531 71577 41396 32524 10070 20049 49960 57160 78044 83900 22274 00050 20907 32526 40807 50908 6//// 80060 ICE /////
AAXX 10181 01441 16/// /1602 11027 21053 38958 49942 53031 69962 333 11008 91109
AAXX 10181 01144 41886 30308 10013 21058 70211 81046 333 10022 91112
AAXX 10181 01180 11680 40203 11002 21063 39920 49978 57002 60002 70200 81801 333 10005 91111
BBXX 44139 10181 99442 70571 46/// /1408 10089 40231 57033 22200 00086 10504 70019 333 91210
AAXX 10181 01488 16/// /2802 11066 21072 60002 333 11039 4/021 91105
AAXX 10184 60101 32458 40000 10113 20078 40226 51009 84800 333 10/// 82813 83616
AAXX 10181 80001 01470 80305 10264 20244 30112 40113 60121 70365 333 56190 59007 69907 82816 86458 NIL
AAXX 10181 80002 NIL
AAXX 10181 80009 31560 32002 10312 20245 30080 40085 70500 81804 333 560/0 59002 81820 83070
AAXX 10181 80022 01340 72703 10284 20238 30087 40089 60031 76392 85921 333 56990 59003 60037 85709 81910 84257
AAXX 10181 80028 NIL
AAXX 10181 80035 31565 50904 10296 20250 30096 40101 70521 85100 333 562// 59003 85820
AAXX 10181 80036 31468 20804 10319 20242 70500 82200 333 560/0 57892 82815
AAXX 10181 80063 NIL
AAXX 10181 80084 31570 51803 10305 20236 70521 84801 333 561/9 84825
AAXX 10181 80091 31465 50000 10305 20236 70522 84202 333 560/9 84815
AAXX 10181 80094 31464 72705 10248 20194 38795 70522 86801 333 567/9 59004 86817
AAXX 10181 80097 NIL
AAXX 10181 80099 31466 40202 10314 20231 39897 40039 70500 84801 333 563/9 59015 84815
AAXX 10181 80110 31670 71803 10260 20137 38490 70522 83206 333 560/9 57895 58001 83835 87270
AAXX 10181 80112 31570 70705 10208 20125 37892 70522 83205 333 569/9 57896 58000 83825 85070
AAXX 10181 80139 NIL
AAXX 10181 80144 11458 82402 10270 20237 69941 70552 8521/ 333 5600/ 85815 88457
AAXX 10181 80149 NIL
AAXX 10181 80210 31462 52202 10260 20184 38647 71521 84201 333 564/9 57891 58000 84817
AAXX 10181 80211 NIL
AAXX 10181 80214 NIL
AAXX 10181 80222 31562 42404 10204 20124 37506 70510 84800 333 569// 59002 84823
AAXX 10181 80234 32562 31002 10312 20204 39584 40070 83101 333 56299 59011 83823
AAXX 10181 80241 NIL
AAXX 10181 80259 31560 42802 10288 20195 39037 70521 84800 333 568// 58000 84827
AAXX 10181 80315 11565 30201 10309 20209 39570 40061 69931 70151 83100 333 568// 59010 83833
AAXX 10181 80342 32570 43504 10213 20179 38206 84800 333 563// 58003 84825
AAXX 10181 80370 01570 40902 10156 20087 69931 70152 84100 333 562// 69937 84820
AAXX 10181 80398 01468 72702 10250 20232 30014 40110 60111 70196 83570 333 5688/ 58022 60017 83610 87458
AAXX 10184 71441 46/// /2907 11020 21081 39851 40166 50010 6///1 333 11020 21140 7////
AAXX 10184 71472 17/// /3317 10059 20023 30183 40201 53012 69961 7//4/ 333 10062 20044 70048
AAXX 10184 71216 16/// /1202 11023 21052 39588 40218 56012 60001 333 11023 21065 70000
AAXX 10184 71243 16/// /1808 10077 21076 39051 40113 58007 60001 333 10077 20029 70000
AAXX 10184 71246 16/// /3503 11011 21063 39380 40043 58003 60001 333 11009 21069 70000
AAXX 10184 71066 11456 83305 11095 21117 39669 40099 53018 69901 77171 887// 333 11095 21169 44018 79999 90942
AAXX 10184 71501 16/// /0503 11126 21141 30119 40121 51027 60001 333 11109 21130 70000
AAXX 10184 71087 46/// /2704 11156 21178 39919 40129 53018 6///1 333 11125 21183 7////
AAXX 10184 71934 11274 70000 11155 21184 39851 40116 52004 69901 72277 81672 333 11139 21159 47021 79999 90983
AAXX 10184 71833 46/// /2610 11052 21109 6///1 333 11047 21096 7////
AAXX 10184 71837 46/// ///// 10072 6///1 333 7////
AAXX 10184 71839 16/// ///// 10090 60001 333 10098 20007 70003
AAXX 10184 71840 46/// /2808 11031 21077 6///1 333 11029 21139 7////
AAXX 10184 71719 16/// /2707 10013 21052 30168 40174 55003 60001 333 10025 21015 70000 555 10010
AAXX 10184 71622 16/// ///// 11046 21108 39959 40310 50004 60001 333 11044 21093 70003
AAXX 10184 71402 46/// /2119 10044 21006 30048 40163 56023 6///1 333 10045 21014 7////
AAXX 10184 71407 16/// /2608 11245 21274 30062 40084 51012 60001 333 11242 21276 70000
AAXX 10184 71427 17/// /2714 11037 21101 30177 40185 56013 60011 7//4/ 333 11033 21053 70050
AAXX 10184 71446 16/// /2318 10010 21062 39116 40092 56015 60001 333 10010 21077 70000
AAXX 10184 71868 16/// /1802 11067 21104 39669 40119 58012 60001 333 11067 21181 70000
AAXX 10184 71885 16/// ///// 10095 60001 333 10096 21012 70000
AAXX 10184 71110 16/// /2013 10048 20026 30174 40234 56022 60001 333 10052 20016 70000
AAXX 10184 71141 16/// /3313 11167 21181 30055 40082 51009 60001 333 11167 21203 70000
AAXX 10184 71147 16/// /2807 11029 21075 60001 333 11028 21162 70000
AAXX 10184 71149 16/// /0903 11044 21094 60001 333 11044 21155 70000
AAXX 10184 71954 46/// /0000 11135 21156 39748 40138 58004 6///1 333 11133 21207 7////
AAXX 10184 71956 16/// /2612 11048 21060 30017 40256 58001 60001 333 11035 21066 70000
AAXX 10184 71959 16/// ///// 10087 20037 60001 333 10088 20017 70000
AAXX 10184 71970 16/// /0602 11044 21059 39480 40074 58011 60001 333 11044 21121 70000
AAXX 10184 71977 46/// /2801 11189 21189 39426 40159 53020 6///1 333 11183 21244 7////
AAXX 10184 71978 46/// /1807 11144 21182 39812 40130 51019 6///1 333 11134 21163 7////
AAXX 10184 71988 17/// /3413 10059 20029 30166 40186 56016 60031 7//4/ 333 10090 20058 70026
AAXX 10184 71989 16/// /1605 11234 21257 30102 40119 55002 60001 333 11230 21301 70000
AAXX 10184 71669 16/// /2512 10056 21099 38463 40070 56012 60001 333 10058 21045 70000
AAXX 10184 71671 17/// /3104 10048 20042 30108 40168 56015 60021 7//4/ 333 10073 20018 70023
AAXX 10184 71137 16/// /2109 11028 21068 39181 40133 58013 60001 333 10027 21174 70000
AAXX 10184 71920 16/// /3214 10077 20072 30163 40169 56027 60001 333 10092 20071 70000
AAXX 10184 71858 16/// /2403 11090 21115 39852 40141 58002 60001 333 11090 21178 70000
AAXX 10184 41295 36/// /0704 10201 20158 39998 40175 333 0E021 10279 59001
AAXX 10184 71357 16/// /0507 11119 21131 39941 49948 53002 60001 333 11113 21149 70000 555 10010
AAXX 10184 71363 16/// /2904 11206 21227 30024 40080 52009 60001 333 11192 21235 70003
AAXX 10184 71364 16/// /2003 11077 21093 39975 40109 53018 60001 333 11062 21137 70000
AAXX 10184 71365 16/// /2402 11165 21179 39923 40143 53020 60001 333 11147 21212 70000
AAXX 10184 71381 46/// /3407 11096 21162 6///1 333 11052 21101 70000
AAXX 10184 71384 16/// /2706 11026 21106 30218 40226 55003 60001 333 10008 21057 70090
AAXX 10184 71393 16/// ///// 10010 21087 38822 40086 55001 60001 333 10053 21042 70000
AAXX 10184 71250 16/// /2110 10039 21027 30098 40236 56035 60001 333 10046 21017 70000
AAXX 10184 71270 16/// /2809 11028 21098 30048 40276 50001 60001 333 11019 21051 70000
AAXX 10184 71295 16/// /1702 11108 21150 39716 40178 58001 60001 333 11108 21174 70000
AAXX 10184 71296 16/// /2407 11046 21067 39965 40281 51003 60001 333 11033 70000
AAXX 10184 71299 16/// /2207 11118 21149 39940 40228 58005 60001 333 11118 21182 70000
AAXX 10184 71551 16/// /1803 10016 21041 39419 40073 58022 60001 333 10016 21091 70000
AAXX 10184 71552 46/// /2204 11077 21117 6///1 333 11077 21156 7////
AAXX 10184 71553 16/// /2003 11104 21115 60001 333 11104 21205 70007
AAXX 10184 71556 16/// /1911 11045 21061 39487 40099 58025 60001 333 11045 21144 70000
AAXX 10184 71579 16/// /2203 11066 21121 39869 40160 50005 60001 333 11066 21147 70000
AAXX 10184 71752 16/// /2712 11035 21112 30079 40304 50001 60001 333 11033 21077 70010 555 10010
AAXX 10184 71771 46/// /2708 10053 20019 30172 40193 51011 6///1 333 10060 20043 7////
AAXX 10184 71450 16/// /2108 10016 21051 39368 40087 58020 60001 333 10016 21107 70000
AAXX 10184 71453 16/// /2218 10069 21061 39179 40093 56019 60001 333 10079 21096 70000 555 10010
AAXX 10184 71455 46/// /2410 10027 21047 39284 40080 58020 6///1 333 10030 21102 7////
AAXX 10184 71465 46/// /2412 11022 21096 30090 40314 58001 6///1 333 11017 21055 7////
AAXX 10184 71470 16/// /3405 11183 21202 39453 40092 53013 60001 333 11183 21217 7////
AAXX 10184 71480 16/// /0401 11141 21156 30005 40129 53012 60001 333 11121 21198 70006 555 10020
AAXX 10184 71484 16/// /2811 10061 20019 30165 40183 53011 60001 333 10072 20041 70000
AAXX 10184 71492 46/// ///06 11136 21144 39364 40065 53007 6///1 333 11136 21176 7////
AAXX 10184 71727 11556 83207 11095 21127 30027 40230 58002 60011 78511 86501 333 11044 21130 47013 70057 90952
AAXX 10184 71807 16/// /1820 10049 20006 30225 40244 55035 60001 333 10056 20031 70000
AAXX 10184 71311 17/// /2103 10033 20021 30152 40177 58014 60021 7//4/ 333 10058 20031 70043
AAXX 10184 71317 46/// /3204 10060 20053 30113 40160 56031 6///1 333 10068 21029 7////
AAXX 10184 71320 17/// /0000 11246 21269 30019 40020 56001 69931 7//4/ 333 11242 21318 70003
AAXX 10184 71321 16/// /3312 11171 21186 39945 49989 50002 60001 333 11147 21174 70000
AAXX 10184 71322 16/// /3209 11274 21302 30092 40105 51003 60001 333 11264 21283 70000
AAXX 10184 71015 17/// ///// 10042 69931 7//4/ 333 10062 20001 7////
AAXX 10184 71017 16/// /3505 11249 21274 30094 40109 52008 60001 333 11227 21268 70000
AAXX 10184 71018 16/// ///09 11254 21280 39979 40068 51008 60001 333 11175 21258 70000
AAXX 10184 71019 46/// /2908 11025 21075 39887 40194 56010 6///1 333 11004 21037 7////
AAXX 10184 71020 46/// /0000 11114 21128 39876 40139 52027 6///1 333 11114 21205 7////
AAXX 10184 71021 46/// /0000 11107 21124 39800 40160 53029 6///1 333 11106 21149 7////
AAXX 10184 71039 46/// /0000 11177 6///1 333 11111 21178 7////
AAXX 10184 71150 46/// /1302 11081 21097 39451 40148 58010 6///1 333 11081 21186 7////
AAXX 10184 71155 16/// ///// 11054 21079 60001 333 11053 21123 70000
AAXX 10184 71156 16/// /2908 10047 21040 38989 40081 51019 60001 333 10048 21047 70000
AAXX 10184 71158 16/// /1804 11098 21126 39867 40151 57003 60001 333 11097 21171 70000
AAXX 10184 71159 17/// /2708 10019 20012 30094 40167 56020 60031 7//4/ 333 10045 21007 70033
AAXX 10184 71160 16/// /2302 11122 21139 39868 40086 53006 60001 333 11122 21208 70000
AAXX 10184 71162 46/// /3309 11068 21075 39874 40085 53012 6///1 333 7////
AAXX 10184 71164 46/// /0000 11129 21146 30049 40131 53015 6///1 333 11123 21214 7////
AAXX 10184 71165 46/// ///03 11079 21091 39827 40114 53019 6///1 333 11078 21187 7////
AAXX 10184 71166 46/// /1601 39515 6///1 333 7////
AAXX 10184 71175 16/// /1924 10078 20056 30144 40179 58034 60001 333 10081 20040 70000
AAXX 10184 71721 16/// /2705 11038 21122 39991 40243 58005 60001 333 11035 21125 70020
AAXX 10184 71724 16/// /2807 11023 21094 30235 40243 57005 60001 333 11003 21046 70024
AAXX 10184 71732 16/// /2905 11053 21142 60001 333 11051 21116 70000
AAXX 10184 71742 46/// /2016 10039 21014 30008 40196 56020 6///1 333 10042 21018 7////
AAXX 10184 71744 16/// /3404 11008 21018 30140 40181 55006 60001 333 10022 21019 70000
AAXX 10184 71746 46/// /2608 11037 21111 30075 40304 58007 6///1 333 11037 21107 7////
AAXX 10184 91753 02580 41306 10270 20233 30064 40096 53004 60002 84200 333 10277 20260 60007 84820 90710 91110 555 60005
AAXX 10184 91754 32581 20604 10270 20222 30053 40094 53004 81202 333 81820 555 60005 60004 20258 10306
AAXX 10184 61202 NIL
AAXX 10184 61214 NIL
AAXX 10184 61223 31920 00404 10270 21027 39831 40129 70600 333 10308 59004
AAXX 10184 61226 31940 01208 10286 20027 39833 40124 70600 333 10314 58010
AAXX 10184 61230 32960 00406 10315 21018 39814 40081 333 10341 58002
AAXX 10184 61233 31959 60000 10300 20044 3//// 4//// 70611 80002 333 10350 5//// 86075
AAXX 10184 61235 31958 60410 10330 21020 3//// 4//// 70600 80002 333 10360 5//// 86075
AAXX 10184 61240 31940 50804 10283 21051 39786 40110 70611 80002 333 10315 58004 85075
AAXX 10184 61250 31930 60808 10295 20114 3//// 4//// 70633 80002 333 10310 5//// 86075
AAXX 10184 61257 31930 60404 10335 20115 30023 40116 70611 80002 333 10363 58006 86075
AAXX 10184 61265 31957 00804 10287 20041 39797 40104 70600 333 10334 58001
AAXX 10184 61270 32960 00000 10325 20091 3//// 4//// 333 10365 5////
AAXX 10184 61272 32960 00404 10288 20043 39770 40095 333 10355 59006
AAXX 10184 61277 31958 20000 10310 20037 39778 40091 70600 80002 333 10345 59005 82075
AAXX 10184 61285 31959 70000 10337 20119 39932 40082 70611 80002 333 10369 58004 87075
AAXX 10184 61291 31950 00606 10295 20052 39677 40085 70600 333 10340 58005
AAXX 10184 61293 31958 50204 10310 20065 3//// 4//// 70622 80002 333 10335 5//// 85075
AAXX 10184 61296 32960 60000 10295 20141 3//// 4//// 80002 333 10347 5//// 86075
AAXX 10184 61297 32960 63606 10294 20120 3//// 4//// 80002 333 10325 5//// 86075
BBXX 41052 10181 99183 70648 46/// /0709 10272 40099 91750 333 91210
BBXX 41052 10181 99183 70648 46/// /0809 10269 40101 91740 333 91211
BBXX 41052 10181 99183 70648 46/// /0708 10273 40099 58022 91800 22200 00280 333 91210
BBXX 41053 10181 99185 70661 46/// /0808 10273 40105 56026 91800 22200 00278 10904 70020 333 91209
BBXX 41053 10181 99185 70661 46/// /0808 10272 40107 91750 333 91209
BBXX 41053 10181 99185 70661 46/// /0809 10272 40108 91740 333 91210
AAXX 10184 71066 11456 83305 11095 21117 39669 40099 53018 69901 77171 887// 333 11095 21169 44018 79999 90942
AAXX 10184 71441 46/// /2907 11020 21081 39851 40166 50010 6///1 333 11020 21140 7////
AAXX 10184 71472 17/// /3317 10059 20023 30183 40201 53012 69961 7//4/ 333 10062 20044 70048
AAXX 10184 71868 16/// /1802 11067 21104 39669 40119 58012 60001 333 11067 21181 70000
AAXX 10184 71934 11274 70000 11155 21184 39851 40116 52004 69901 72277 81672 333 11139 21159 47021 79999 90983
AAXX 10184 71719 16/// /2707 10013 21052 30168 40174 55003 60001 333 10025 21015 70000 555 10010
AAXX 10184 71727 11556 83207 11095 21127 30027 40230 58002 60011 78511 86501 333 11044 21130 47013 70057 90952
AAXX 10184 71807 16/// /1820 10049 20006 30225 40244 55035 60001 333 10056 20031 70000
AAXX 10184 71137 16/// /2109 11028 21068 39181 40133 58013 60001 333 10027 21174 70000
AAXX 10184 71858 16/// /2403 11090 21115 39852 40141 58002 60001 333 11090 21178 70000
BBXX 42067 10181 99300 70886 46/// ///// 10088 20028 40290 91740 22200 00184 10402 70010
AAXX 10184 71833 46/// /2610 11052 21109 6///1 333 11047 21096 7////
AAXX 10184 71837 46/// ///// 10072 6///1 333 7////
AAXX 10184 71839 16/// ///// 10090 60001 333 10098 20007 70003
AAXX 10184 71840 46/// /2808 11031 21077 6///1 333 11029 21139 7////
AAXX 10184 71669 16/// /2512 10056 21099 38463 40070 56012 60001 333 10058 21045 70000
AAXX 10184 71671 17/// /3104 10048 20042 30108 40168 56015 60021 7//4/ 333 10073 20018 70023
AAXX 10184 71501 16/// /0503 11126 21141 30119 40121 51027 60001 333 11109 21130 70000
AAXX 10184 71954 46/// /0000 11135 21156 39748 40138 58004 6///1 333 11133 21207 7////
AAXX 10184 71956 16/// /2612 11048 21060 30017 40256 58001 60001 333 11035 21066 70000
AAXX 10184 71959 16/// ///// 10087 20037 60001 333 10088 20017 70000
AAXX 10184 71970 16/// /0602 11044 21059 39480 40074 58011 60001 333 11044 21121 70000
AAXX 10184 71977 46/// /2801 11189 21189 39426 40159 53020 6///1 333 11183 21244 7////
AAXX 10184 71978 46/// /1807 11144 21182 39812 40130 51019 6///1 333 11134 21163 7////
AAXX 10184 71988 17/// /3413 10059 20029 30166 40186 56016 60031 7//4/ 333 10090 20058 70026
AAXX 10184 71989 16/// /1605 11234 21257 30102 40119 55002 60001 333 11230 21301 70000
AAXX 10184 71402 46/// /2119 10044 21006 30048 40163 56023 6///1 333 10045 21014 7////
AAXX 10184 71407 16/// /2608 11245 21274 30062 40084 51012 60001 333 11242 21276 70000
AAXX 10184 71427 17/// /2714 11037 21101 30177 40185 56013 60011 7//4/ 333 11033 21053 70050
AAXX 10184 71446 16/// /2318 10010 21062 39116 40092 56015 60001 333 10010 21077 70000
AAXX 10184 71087 46/// /2704 11156 21178 39919 40129 53018 6///1 333 11125 21183 7////
AAXX 10184 71885 16/// ///// 10095 60001 333 10096 21012 70000
AAXX 10184 71920 16/// /3214 10077 20072 30163 40169 56027 60001 333 10092 20071 70000
AAXX 10184 71216 16/// /1202 11023 21052 39588 40218 56012 60001 333 11023 21065 70000
AAXX 10184 71243 16/// /1808 10077 21076 39051 40113 58007 60001 333 10077 20029 70000
AAXX 10184 71246 16/// /3503 11011 21063 39380 40043 58003 60001 333 11009 21069 70000
AAXX 10184 71622 16/// ///// 11046 21108 39959 40310 50004 60001 333 11044 21093 70003
AAXX 10184 04211 45/84 /0707 11080 21130 39763 49923 57002 333 11073 21093
AAXX 10184 04220 05684 81607 11044 21105 39836 49887 52009 69932 333 11034 21055 55300 20004 69917 88/46
AAXX 10184 04221 45/84 /1014 11061 21164 39855 49893 57001 333 11039 21061
AAXX 10184 04231 12989 40808 11066 21166 39826 49899 52004 6///2 8403/ 333 11023 21080 84361 91122
AAXX 10184 04234 45584 71102 11046 21099 39871 49881 52002 333 11013 21049 83/27 87/61
AAXX 10184 04241 47526 80818 11040 21058 39841 49880 52004 75477 333 11021 21045 83/20 85/29 88/44
AAXX 10184 04250 07/09 91617 11030 21036 39783 49887 52011 60022 77187 333 11014 21031 55300 20007 60027 89/05 91131
AAXX 10184 04254 47405 71916 11030 21053 39789 49902 52011 77177 333 11002 21042 87/13
AAXX 10184 04260 47582 61406 11039 21078 39888 49932 52013 70055 333 11005 21041 81/22 82/37 85/60 86/60
AAXX 10184 04270 45684 80810 11003 21067 39905 49943 52042 333 10022 21003 81/41 88/47 91223
AAXX 10184 04272 05984 7//// 11002 21082 39861 49932 52030 6///2 333 10019 21010 6///7 81/60 87/61
AAXX 10184 04312 46/// /2505 11326 21369 30000 40043 57008
AAXX 10184 04320 45/84 /1302 11267 21326 30016 40033 57007 333 11232 21324 55300
AAXX 10184 04339 47/08 ///// 11084 21089 39966 40059 57013 77187 333 11084 21108 55300 20000
AAXX 10184 04360 06/// /1402 11052 21122 39886 49956 57018 6///2 333 11038 21056 55300 20000 6///7 91123 91212
AAXX 10184 04361 467// 73001 11056 21124 39908 49961 57015 333 11033 21067 87/// 87/61 91131 91220
AAXX 10184 04390 07/18 93004 11020 21024 39853 49946 52052 60112 77177 333 10000 21039 60017 89/09
BBXX 44150 10181 99425 70640 46/// /1404 10106 40179 57042 22200 00109 10702 70009 333 91205
AAXX 10183 61701 31959 60000 10270 20161 40091 70522 80002 333 10347 58110 86072
AAXX 10183 61705 32960 40000 10304 20202 4//// 80006 333 10340 5//// 83272 83074
AAXX 10183 61707 32970 70000 10310 20183 4//// 80002 333 10365 5//// 87074
AAXX 10183 61711 32960 40903 10286 20175 4//// 80002 333 10300 5////
AAXX 10183 61712 NIL
AAXX 10183 61717 NIL
AAXX 10183 61720 NIL
AAXX 10183 61721 32960 60000 10320 20166 4//// 80002 333 10375 5//// 86073
AAXX 10183 61722 32960 00000 10310 20078 4//// 80000 333 10365 5////
AAXX 10183 61731 32960 60000 10318 20176 4//// 80002 333 10372 5//// 86074
AAXX 10183 61733 NIL
AAXX 10184 64700 31930 00410 10249 20011 39788 40130 70600 333 10305 58016
AAXX 10184 64750 31956 53604 10255 20067 39679 40093 70622 80002 333 10335 58013 85075
BBXX 44150 10181 99425 70640 46/// /1404 10106 40179 57042 22200 00109 10702 70009 333 91205
AAXX 10184 61974 11465 30000 10256 20234 40102 60002 71500 83200 333 10316 55096 58010 83816
AAXX 10184 61986 12470 61611 10272 20246 40082 60002 85842 333 10286 59004 82818 84650
AAXX 10184 61988 11462 70816 10250 20238 40114 60042 71586 8787/ 333 10287 55037 58014 85817 84650 91132
AAXX 10184 61989 NIL
AAXX 10184 61990 12470 31207 10260 20221 40130 60002 82202 333 10297 55104 58011 82817 91120
AAXX 10184 61995 12470 30908 10222 20204 39644 60002 83202 333 10279 55111 58005 83817
AAXX 10181 56778 32660 80902 10023 21003 38162 57007 885// 333 00152 10044
AAXX 10181 58102 32970 02001 11014 21075 30277 40327 57009 333 10051
AAXX 10181 58150 31956 02902 11027 21050 30314 40318 57012 71000 333 10038
AAXX 10181 58238 32960 23402 11021 21051 30284 40331 57008 80002 333 10053
AAXX 10181 58251 31930 02701 11018 21034 30314 40319 57010 71000 333 10040
AAXX 10181 58606 32961 01401 10014 21039 30265 40326 57011 333 10090
AAXX 10181 58752 32662 73404 10066 21070 30257 40304 57011 875// 333 10107
AAXX 10181 58847 32670 80401 10094 21019 30171 40275 57013 885// 333 10117
AAXX 10181 59134 32967 00402 10096 20000 30076 40246 57010 333 10172
AAXX 10181 59644 32960 03604 10090 21020 30245 40262 57012 333 10141
AAXX 10181 52533 32980 02202 11137 21175 38620 40411 57006 333 05301 11035
AAXX 10181 52652 32980 01604 11152 21180 38639 40427 57004 333 05251 11053
AAXX 10181 53588 32980 03603 11084 21156 37813 57001 333 11058
AAXX 10181 53772 32965 00902 11059 21108 39396 40363 57004 333 10004
AAXX 10181 53915 32980 02902 11083 21123 38754 40369 57009 333 05700 10002
AAXX 10181 54337 32960 02002 11040 21129 30141 40227 52005 333 10010
AAXX 10181 54342 32962 42502 11046 21098 30163 40227 52007 80002 333 11041
AAXX 10181 54511 32965 02001 11028 21113 30220 40262 57001 333 10049
AAXX 10181 56080 32980 73401 11131 21178 37157 57002 80002 333 05502 11017
AAXX 10181 56096 32975 73602 10018 21104 39026 40299 57009 80002 333 05800 10071
AAXX 10180 44203 329// 00000 11295 21319 38481 40552 53002
AAXX 10180 44207 329// 52704 11203 21236 38353 40414 54000 83049
AAXX 10180 44212 32999 71801 11174 21193 39255 40484 58005 87070
AAXX 10180 44213 416// 80000 11177 21196 38890 40483 57006 70272 885//
AAXX 10180 44215 32998 00000 11280 21298 38495 40560 57004
AAXX 10180 44218 329// 01903 11212 21244 38685 40471 58005
AAXX 10180 44225 329// 70000 11163 21176 38341 40445 56002 87010
AAXX 10180 44230 329// 20204 11153 21177 38845 40419 51004 80001
AAXX 10180 44232 329// 00000 11237 21264 39169 40422 52007
AAXX 10180 44237 32999 01801 11213 21238 38528 40424 51001
AAXX 10180 44239 329// 03601 11142 21177 38838 40335 53011
AAXX 10180 44241 329// 11401 11222 21240 39321 40390 52008 81040
AAXX 10180 44256 41699 60000 11079 21097 39328 40208 53012 72272 83550
AAXX 10180 44265 329// 20000 11181 21214 38904 40416 58013 80001
AAXX 10180 44272 329// 02302 11215 21247 38271 40450 57001
AAXX 10180 44275 NIL
AAXX 10180 44282 32999 03201 11110 21185 38328 40351 53001
AAXX 10180 44284 NIL
AAXX 10180 44285 32999 01402 11174 21197 38345 40412 53002
AAXX 10180 44287 NIL
AAXX 10180 44294 329// 03503 11234 21257 38590 40445 54000
AAXX 10180 44298 329// 03604 11165 21165 38738 40343 57001
AAXX 10180 44302 329// 32702 11110 21148 39109 40269 52004 80006
AAXX 10180 44305 32999 62904 11096 21198 39049 40246 51007 80008
AAXX 10180 44313 32999 53603 11111 21131 39350 40220 52011 80002
AAXX 10180 44314 32998 60000 11126 2//// 39133 40273 52017 84038
AAXX 10180 44317 32998 33206 11122 21157 38926 40264 54000 83040
AAXX 10180 44336 329// 00000 11200 21219 38709 40382 57027
AAXX 10180 44341 329// 00901 11187 21205 38630 40405 56005
AAXX 10180 44347 32999 00000 11130 21182 38748 40353 56004
AAXX 10180 44352 32999 13207 11088 21132 38918 40261 54000 81040
AAXX 10180 44358 329// 03203 11124 21144 39120 40329 56006
AAXX 10180 44214 32998 03303 11200 21239 38339 40495 58003
AAXX 10180 44231 329// 00801 11170 21220 38783 40446 52005
AAXX 10180 44259 32997 63103 11098 21140 39297 40237 53010 80008
AAXX 10180 44277 329// 02501 11198 21239 37841 40517 57002
AAXX 10180 44288 32999 02804 11062 21164 38191 40328 57005
AAXX 10180 44292 318// 60000 11200 21219 38742 40401 53003 70421 86010
AAXX 10180 44304 329// 50000 11148 21175 39006 40308 52006 83049
AAXX 10180 44354 329// 01603 11120 21147 39131 40304 58002
AAXX 10180 44373 32999 02901 11127 21167 38572 40356 58004
OOXX AAUNI 10184 99798 50833 56093 07671 46/// /2215 11084 21183 38833 49707 52007 91800
AAXX 10181 51076 32980 00201 11126 21192 39412 40343 57003 333 05252 11005
AAXX 10181 51243 32970 03601 11130 21148 39762 40357 54000 333 05152 11060
AAXX 10181 51463 32975 01101 11097 21130 39185 40354 54000 333 05102 11037
AAXX 10181 51573 32975 42901 11046 21108 30332 40378 57005 80002 333 05301 10000
AAXX 10181 51709 32975 03201 11098 21137 38826 40396 57006 333 05451 11008
AAXX 10181 52983 32965 01601 11120 21139 38169 57006 333 05702 11025
AAXX 10181 54401 32965 03401 11063 21122 39422 40321 52006 333 10011
AAXX 10181 57265 32961 42501 10004 21041 30211 40326 57007 84030 333 10092
AAXX 10181 57494 32970 03201 11035 21036 30298 40329 57014 333 10083
AAXX 10181 58362 32960 02501 11014 21033 30314 40323 57006 333 10048
AAXX 10181 59431 32965 23401 10056 20017 30138 40289 57006 82030 333 10139
AAXX 10181 50136 32970 00401 11274 21306 39597 40171 52009 333 11094
AAXX 10181 50745 32965 12201 11151 21176 39981 40175 52010 80002 333 11044
AAXX 10181 50774 32960 00000 11228 21248 39846 40173 52008 333 11093
AAXX 10181 50788 32970 02704 11145 21175 30053 40143 52005 333 11082
AAXX 10181 51133 32980 20201 11074 21138 39633 40309 52005 80002 333 05153 10013
AAXX 10181 51431 32961 70401 11082 21097 39484 40318 52011 80002 333 05151 11011
AAXX 10181 51747 32962 00000 11163 21199 39047 40420 52001 333 05358 11001
AAXX 10181 52203 32980 70701 11108 21175 39446 40376 57006 80002 333 05400 10005
AAXX 10181 52418 32970 70000 11117 21179 39004 40410 57001 80002 333 00051 10000
AAXX 10181 52681 32980 02503 11145 21216 38739 40405 57001 333 05653 11020
AAXX 10181 53564 32980 00000 11108 21137 39311 40392 57004 333 05400 11027
AAXX 10181 53614 32975 03601 11098 21124 39017 40384 57007 333 05702 11016
AAXX 10181 53646 32970 00000 11104 21138 38957 40380 57012 333 05503 11034
AAXX 10181 53798 32962 02001 11017 21061 30197 40297 57005 333 10063
AAXX 10181 53845 32965 02002 11076 21116 39197 40379 57008 333 05551 10009
AAXX 10181 53959 32970 03601 11047 21078 39895 40359 57013 333 10037
AAXX 10181 54094 32760 72001 11108 21157 39874 40189 54000 875// 333 11081
AAXX 10181 54102 32980 61803 11134 21155 39045 40306 57001 80002 333 11103
AAXX 10181 54161 32960 02503 11096 21146 39890 40197 52009 333 11068
AAXX 10181 54292 32965 62502 11094 21153 39873 40206 52003 80002 333 11046
AAXX 10181 54374 32662 70000 11123 21158 39766 40258 52006 875// 333 11082
AAXX 10181 54423 32980 01401 11079 21129 39738 40274 52002 333 10012
AAXX 10181 54618 32962 32203 11016 21102 30263 40281 57007 80002 333 10046
AAXX 10181 54843 32972 02201 11032 21096 30267 40296 57007 333 10024
AAXX 10181 54909 32964 02002 11017 21089 30243 40309 57008 333 10049
AAXX 10181 56029 32980 70000 11072 21105 36423 52005 80002 333 05254 10045
AAXX 10181 57127 32961 31801 11011 21035 39711 40341 57007 83030 333 10078
AAXX 10181 57131 32965 01602 11026 21095 39850 40367 57010 333 10038
BBXX 44255 10181 99473 70573 46/// /1812 10055 40190 57027 22200 00044 10705 70026 333 91214
AAXX 10184 67002 NIL
AAXX 10184 67009 NIL
AAXX 10184 67025 NIL
AAXX 10184 67027 32580 52808 10283 20234 30080 40101 52021 82950 333 10330 81820 81920 85360 94962 95832 555 81640
AAXX 10184 67083 32470 61202 10198 20175 38751 48523 52026 86800 333 10275 82817 84620
AAXX 10184 67095 31470 50000 10254 20235 30124 40131 52018 71511 85800 333 10315 84817 555 82633
AAXX 10184 67113 NIL
AAXX 10184 67117 NIL
AAXX 10184 67137 NIL
AAXX 10184 67157 NIL
AAXX 10184 67161 NIL
AAXX 10184 67197 32480 31008 10250 20221 30116 40126 52014 83800 333 10298 82820 555 82633
BBXX 44255 10181 99473 70573 46/// /1812 10055 40190 57027 22200 00044 10705 70026 333 91214
AAXX 10180 44210 32999 00000 11232 21244 38596 56004
AAXX 10180 44216 415// 80000 11135 21155 39103 40436 58005 77877 886//
AAXX 10180 44217 32998 00000 11237 21261 37893 40521 53003
AAXX 10180 44219 419// 81402 11178 21190 38703 40457 52001 77172 8802/
AAXX 10180 44221 329// 80000 11170 21183 38659 40437 54000 8802/
AAXX 10180 44224 329// 70902 11230 21249 38112 40502 58006 87070
AAXX 10180 44229 32999 02302 11229 21248 37965 40482 53002
AAXX 10180 44242 329// 30000 11221 21242 39382 40390 52008 83040
AAXX 10180 44243 329// 21402 11189 21205 39467 40370 53006 82060
AAXX 10180 44254 329// 03202 11068 21141 39027 40230 51008
AAXX 10180 44257 319// 13203 11074 21161 38981 40259 52006 70230 81040
AAXX 10180 44263 32998 53203 11188 21237 38116 40497 57005 80007
AAXX 10180 44266 329// 23602 11168 21272 37801 40414 57003 80008
AAXX 10180 44286 329// 01801 11146 21175 38678 40368 54000
AAXX 10180 44291 318// 30000 11209 21230 38778 40428 51002 74440 333 96004
AAXX 10180 44325 329// 00902 11213 21238 38936 40463 58006
AAXX 10180 44329 NIL
AAXX 10180 44338 32999 01604 11100 21153 38515 40345 57007
AAXX 10180 44348 329// 03203 11112 21125 38712 40302 51003
AAXX 10180 44374 32999 01804 11105 21288 38314 40404 58008
AAXX 10180 44385 32999 02307 11043 21123 38960 40303 56013
AAXX 10180 44386 329// 03202 11128 21163 39087 40335 57006
AAXX 10184 40100 12960 01002 10132 20058 30229 40261 52015 60001 918// 333 10187 92427
AAXX 10184 40101 12958 03207 10059 20000 39168 48553 51017 60001 918// 333 10115
AAXX 10184 40102 NIL
AAXX 10184 40103 NIL
AAXX 10184 47401 11/56 72907 11025 21074 30060 40075 57004 69901 78582 872//
AAXX 10184 47412 11/40 70401 11008 21019 30066 40099 56010 69951 78582 872//
AAXX 10184 47420 15/70 /2309 11006 21066 30047 40081 56013 60001
AAXX 10184 47426 17/70 /3109 10008 21029 30058 40106 56006 69901 70076
AAXX 10184 47582 11/20 80803 10006 21002 30106 40133 56014 60031 78582 883//
AAXX 10184 47590 11/70 83104 10024 21009 30082 40137 56014 69901 72611 8451/
AAXX 10184 47600 17/61 /2410 10068 20011 30160 40168 53010 60111 76160
AAXX 10184 47648 12/70 22807 10058 20006 30105 40140 56009 60001 82500
AAXX 10184 47662 12/70 13004 10045 21024 30103 40148 56007 60001 81100
AAXX 10184 47678 17/70 /2909 10122 20090 39967 40154 56005 60031 72360
AAXX 10184 47740 17/81 /2810 10071 21016 30168 40203 53004 69901 78186
AAXX 10184 47778 15/70 /3012 10080 21018 30125 40210 53012 60001
AAXX 10184 47807 11/65 72906 10084 21022 30229 40248 55000 69901 70282 872//
AAXX 10184 47827 11/70 83106 10074 20036 30207 40246 55001 69901 72582 882//
AAXX 10184 47843 17/77 /3409 10089 20001 30223 40256 53001 69951 70086
AAXX 10184 47893 12/65 10702 10038 20002 30220 40226 53001 60001 81100
AAXX 10184 47909 11/70 83411 10163 20067 30221 40231 58005 69951 72162 8627/
AAXX 10184 47918 11/60 80313 10166 20144 30187 40205 58012 60031 76166 888//
AAXX 10184 47936 11/60 80212 10151 20122 30165 40225 58001 60021 76162 888//
AAXX 10184 47945 11/65 80311 10189 20135 30179 40203 56011 69901 76162 8487/
AAXX 10184 47971 12/75 63102 10195 20167 30177 40187 56005 60001 82202
AAXX 10184 47991 16/// /1010 10252 20205 30167 40177 56010 60001
AAXX 10184 47407 11/30 81606 11019 21029 39917 40093 58008 60011 78582 883//
AAXX 10184 47409 12/80 62507 11013 21066 30020 40075 56014 69901 81230
AAXX 10184 47418 12/80 13203 11053 21082 30037 40088 56014 60001 81100
AAXX 10184 47421 17/62 /3107 10009 21021 30058 40102 56007 60031 77170
AAXX 10184 47430 11/58 82805 10003 21005 30058 40113 56010 69901 78581 883//
AAXX 10184 47570 17/47 /3502 10001 21006 39897 40164 55003 69901 76763
AAXX 10184 47575 11/65 72004 10003 21026 30118 40123 58011 69901 78582 8120/
AAXX 10184 47584 11/50 80000 10003 20003 39939 40133 58020 69901 78522 883//
AAXX 10184 47604 11/58 82415 10062 20032 30132 40141 56005 60121 78098 882//
AAXX 10184 47605 11/65 82113 10060 20019 30144 40186 50008 60061 70282 882//
AAXX 10184 47610 11/80 62504 10009 21020 39655 40170 53004 69901 78511 83232
AAXX 10184 47624 12/80 13108 10018 21041 30009 40152 56010 60001 81130
AAXX 10184 47629 12980 02602 10007 21018 30102 40142 56010 60001
AAXX 10184 47636 11/70 13008 10058 21033 30125 40195 57001 69901 70281 81500
AAXX 10184 47651 13/// /2607 10054 21022 30179 40202 58002 69901
AAXX 10184 47655 17/70 /2815 10065 21019 30116 40174 53004 69901 70060
AAXX 10184 47675 17/70 /2614 10109 20001 30062 40153 55007 69901 70060
AAXX 10184 47741 11/75 72815 10071 20001 30185 40213 56002 60011 72582 872//
AAXX 10184 47746 11/75 71107 10031 21005 30194 40214 52004 69901 70398 8627/
AAXX 10184 47750 12/65 62204 10015 21001 30182 40211 52003 60001 86200
AAXX 10184 47765 12/80 70106 10037 21009 30164 40232 51001 60001 872//
AAXX 10184 47772 12/80 13504 10056 21030 30115 40218 53004 60001 81800
AAXX 10184 47800 15/80 /3310 10067 21017 30242 40247 56005 60001
AAXX 10184 47815 11/70 32505 10064 21008 30222 40239 58001 69901 70281 83800
AAXX 10184 47817 11/70 73307 10084 20006 30205 40249 53001 69901 72582 872//
AAXX 10184 47830 12/82 72905 10063 20022 30221 40240 51002 60001 878//
AAXX 10184 47887 12/70 31403 10044 21004 30194 40237 53002 60001 8283/
AAXX 10184 47891 12/80 23004 10061 21013 30212 40229 53007 60001 82800
AAXX 10184 47895 12/80 12910 10059 21001 30208 40216 55000 60001 81100
AAXX 10184 47927 11/60 80417 10167 20144 30157 40207 58012 60081 76166 888//
AAXX 10184 41255 36/// /0303 10191 20018 39654 40212 333 0E021 10281 58002
AAXX 10184 43400 NIL
AAXX 10184 43404 NIL
AAXX 10184 43410 NIL
AAXX 10184 43413 NIL
AAXX 10184 43415 NIL
AAXX 10184 43418 21470 70503 10263 20251 3//// 4//// 70386 84336 333 5//// 60017 81818 83360
AAXX 10184 43421 22460 23601 10258 20246 30011 40113 82100 333 58005 60007 82818
AAXX 10184 43422 NIL
AAXX 10184 43424 22968 10502 10248 20241 30099 40102 80001 333 58005 60007 81080
AAXX 10184 43436 21470 60000 10256 20244 30104 40107 72598 82906 333 58006 60027 82818 81920 86280
AAXX 10184 43441 NIL
AAXX 10184 43444 22970 00000 10230 20209 39578 40104 333 58004 60007
AAXX 10184 43467 22460 20000 10248 20236 30098 40103 81101 333 58008 60007 81816
AAXX 10184 43473 22470 20903 10150 20130 38133 48501 82100 333 58002 60007 82812
AAXX 10184 43475 NIL
AAXX 10184 43476 NIL
AAXX 10184 43479 NIL
AAXX 10184 43486 21470 10000 10230 20224 30003 40097 70191 81100 333 58003 60007 81810
AAXX 10184 43495 21460 7//// 10254 20245 30096 40112 70295 8591/ 333 58009 69917 85818 81919 87458
AAXX 10184 43497 22470 20000 10248 20229 30080 40097 81201 333 58000 60007 81818
AAXX 10184 43400 NIL
AAXX 10184 43404 NIL
AAXX 10184 43410 NIL
AAXX 10184 43413 NIL
AAXX 10184 43415 NIL
AAXX 10184 43418 21470 70503 10263 20251 3//// 4//// 70386 84336 333 5//// 60017 81818 83360
AAXX 10184 43421 22460 23601 10258 20246 30011 40113 82100 333 58005 60007 82818
AAXX 10184 43422 NIL
AAXX 10184 43424 22968 10502 10248 20241 30099 40102 80001 333 58005 60007 81080
AAXX 10184 43436 21470 60000 10256 20244 30104 40107 72598 82906 333 58006 60027 82818 81920 86280
AAXX 10184 43441 NIL
AAXX 10184 43444 22970 00000 10230 20209 39578 40104 333 58004 60007
AAXX 10184 43467 22460 20000 10248 20236 30098 40103 81101 333 58008 60007 81816
AAXX 10184 43473 22470 20903 10150 20130 38133 48501 82100 333 58002 60007 82812
AAXX 10184 43475 NIL
AAXX 10184 43476 NIL
AAXX 10184 43479 NIL
AAXX 10184 43486 21470 10000 10230 20224 30003 40097 70191 81100 333 58003 60007 81810
AAXX 10184 43495 21460 7//// 10254 20245 30096 40112 70295 8591/ 333 58009 69917 85818 81919 87458
AAXX 10184 43497 22470 20000 10248 20229 30080 40097 81201 333 58000 60007 81818
AAXX 10184 43466 21470 31601 10252 20231 30091 40103 70298 81130 333 58008 60007 81818 83360
AAXX 10181 01271 17/26 80000 11010 21019 39905 49926 52015 6//// 771// 333 11009 91102
AAXX 10181 01415 17/72 40103 10040 20016 39958 49969 52028 6//// 723// 333 10066 91119
AAXX 10184 67002 NIL
AAXX 10184 67009 NIL
AAXX 10184 67025 NIL
AAXX 10184 67027 32580 52808 10283 20234 30080 40101 52021 82950 333 10330 81820 81920 85360 94962 95832 555 81640
AAXX 10184 67083 32470 61202 10198 20175 38751 48523 52026 86800 333 10275 82817 84620
AAXX 10184 67095 31470 50000 10254 20235 30124 40131 52018 71511 85800 333 10315 84817 555 82633
AAXX 10184 67113 NIL
AAXX 10184 67117 NIL
AAXX 10184 67137 NIL
AAXX 10184 67157 NIL
AAXX 10184 67161 NIL
AAXX 10184 67197 32480 31008 10250 20221 30116 40126 52014 83800 333 10298 82820 555 82633
AAXX 10181 48826 32797 80203 10128 20074 30112 40253 58008 885// 333 58012 88697
AAXX 10181 48839 32497 80215 10147 20110 30176 40244 58014 888// 222// 00155 2//// 333 58014 83894 88696 9112 2 91502
AAXX 10184 88878 46/// /2621 10149 20079 49878 57002
AAXX 10184 88897 46/// /3018 10146 20068 49836 54000
BBXX 41037 10181 99340 70775 46/// /0309 10124 40222 57010 91800 22200 00165 333 91209
AAXX 10184 NIL
AAXX 10184 NIL
AAXX 10184 82022 32970 61205 10333 20198 39974 40069 85230 333 59008
AAXX 10184 82193 32570 33409 10305 20248 30062 40080 83200 333 58000
AAXX 10184 82281 32570 20617 10312 20185 30019 40080 82200 333 59002
AAXX 10184 82332 32570 41106 10326 20243 39975 40067 84200 333 59011
AAXX 10184 82398 32570 31012 10288 20218 30060 40089 83100 333 59001
AAXX 10184 82400 32570 30907 10275 20229 30033 40097 83100 333 58000
AAXX 10184 82579 32570 42703 10365 20189 39998 40074 84200 333 59007
AAXX 10184 82917 21350 73302 10265 20254 39877 40097 76162 85230 333 59013 60361
AAXX 10184 82965 NIL
AAXX 10184 82993 32970 00813 10302 20232 39945 40080 333 59017
AAXX 10184 83208 31558 52009 10272 20225 39397 48510 71522 85200 333 59013
AAXX 10184 83349 32570 60315 10292 20238 30072 40078 82231 333 59020
AAXX 10184 83362 32570 50514 10294 20211 39848 40062 85100 333 59019
AAXX 10184 83378 32570 52812 10269 20161 38915 48480 85230 333 59002
AAXX 10184 83460 32570 30518 10285 20224 30002 40058 83100 333 59030
AAXX 10184 83497 NIL
AAXX 10184 83566 21230 72306 10148 20146 39172 48480 76162 86610 333 58005 60231
AAXX 10184 83599 NIL
AAXX 10184 83612 32570 52913 10294 20202 39436 48480 56023 85200
AAXX 10184 83649 42470 70410 10256 20238 30040 40045 57019 86530
AAXX 10184 83650 NIL
AAXX 10184 83780 21470 81708 10195 20160 39205 48490 56002 72162 885// 333 69911
AAXX 10184 83827 32570 42207 10313 20185 39791 40062 56019 84100
AAXX 10184 83840 32570 60910 10227 20173 39085 48490 56009 86500
AAXX 10184 83899 32570 31714 10250 20190 30096 40102 57007 83100
AAXX 10184 83925 NIL
AAXX 10184 83970 NIL
AAXX 10184 83971 32970 41509 10282 20167 30094 40098 57016 84500
AAXX 10184 03896 16/// ///// 10054 69902 333 10094
AAXX 10184 82143 NIL
AAXX 10184 82599 32570 41012 10288 20225 30029 40089 84100 333 59005
AAXX 10184 82824 32570 53205 10340 20236 39965 40064 85200 333 59026
AAXX 10184 82899 32570 40510 10280 20209 30079 40091 84200 333 59013
AAXX 10184 83117 NIL
AAXX 10184 83248 32470 30719 10292 20213 30058 40080 83200 333 59018
AAXX 10184 83746 21459 72212 10238 20183 30067 40078 50004 70562 87500 333 69941
AAXX 10184 NIL
AAXX 10184 87022 32560 50903 10326 20154 39545 40038 57023 82108 333 56809 82830
AAXX 10184 87046 32565 20910 10312 20170 39057 48456 57025 81101 333 56009 81825
AAXX 10184 87047 32575 30506 10287 20149 38749 48470 57024 83201 333 56000 57887 83822
AAXX 10184 87097 32570 40000 10314 20202 39765 40069 57017 84100 333 56000 84830
AAXX 10184 87121 32665 10507 10336 20180 39546 40041 57025 81100 333 56700 81840
AAXX 10184 87129 NIL
AAXX 10184 87155 32965 01403 10300 20176 30018 40079 57021
AAXX 10184 87162 32570 11612 10330 20159 39997 40065 57021 81100 333 56300 81825
AAXX 10184 87166 NIL
AAXX 10184 87178 31558 11606 10313 20185 39928 40070 57019 70400 81100 333 56000 81830
AAXX 10184 87217 32970 01806 10368 20162 39538 40006 57028
AAXX 10184 87222 NIL
AAXX 10184 87257 32965 00206 10341 20125 39968 40069 57027
AAXX 10184 87270 32965 00709 10301 20164 30028 40089 57020
AAXX 10184 87289 32962 00905 10306 20139 30010 40091 57023
AAXX 10184 87311 32765 11810 10368 20080 39352 49994 57035 81100 333 56000 81850
AAXX 10184 87320 32975 00505 10348 20132 39528 40038 57031
AAXX 10184 87328 32780 13212 10338 20079 39414 40039 57029 81100 333 56000 81850 95000
AAXX 10184 NIL
AAXX 10181 30372 42699 80702 11169 21188 39257 40169 52008 8291/
AAXX 10181 30433 42999 33002 11097 21182 39655 40271 52009 82041
AAXX 10181 30554 429// 80000 11181 21222 39102 40258 52009 81031
AAXX 10181 30635 428// 82401 11060 21079 39683 40266 52008 8805/
AAXX 10181 30673 NIL
AAXX 10181 30692 NIL
AAXX 10181 30758 42984 10501 11139 21174 39386 40244 52009 80001
AAXX 10181 30802 42999 02501 11181 21181 38753 48520 54000
AAXX 10181 30823 41598 82501 11053 21099 39636 40286 52012 78582 889//
AAXX 10181 30879 42999 80000 11217 21235 39392 40209 52001 80007
AAXX 10181 30935 41997 82903 11051 21096 39321 40273 52009 71522 8807/
AAXX 10181 30949 42999 53202 11071 21129 39122 40237 52006 85030
AAXX 10181 30965 419// 00000 11239 21257 39364 40264 52007 74844
AAXX 10181 31168 42999 80000 11146 21227 30038 40050 56001 80007
AAXX 10181 31300 41920 60000 11246 21259 39815 40130 53001 71011 80002
AAXX 10181 31329 41999 80000 11302 21325 39419 40159 53003 72272 82032
AAXX 10181 31369 42998 12901 11254 21265 39976 40068 57005 80002
AAXX 10181 31416 42999 02401 11303 21315 39995 40094 54000
AAXX 10181 31484 42999 00000 11204 21237 39736 40095 53004
AAXX 10181 31512 429// 03001 11151 21193 39957 40132 52004
AAXX 10181 31538 41998 10000 11222 21235 39671 40137 53003 70271 80001
AAXX 10181 31707 42998 80000 11189 21222 30043 40141 52002 80001
AAXX 10181 31735 41596 82405 11126 21147 30012 40104 56005 77172 82535
AAXX 10181 31770 42971 82302 11173 21215 30046 40078 57006 85015
AAXX 10184 NIL
AAXX 10184 NIL
AAXX 10184 70133 12661 80928 11067 21083 30024 40030 58026 69901 91753 333 11067 21094 91034 555 91018
AAXX 10184 70174 32566 80000 11094 21106 39898 40152 55003 91753 333 11056 21122 555 91018
AAXX 10184 70200 11856 80930 11028 21044 39907 49914 56055 69901 738// 91753 333 11017 21072 91035 555 91018
AAXX 10184 70219 12866 81219 10017 21011 39824 49880 58066 69901 91753 333 10028 21032 555 91018
AAXX 10184 70231 32966 60000 11106 21122 39948 40078 58047 91753 333 11028 21122 4/091 555 91018
AAXX 10184 70261 32466 80000 11072 21089 39988 40165 56015 91753 333 11033 21089 555 91018
AAXX 10184 70267 32566 40000 11156 21172 39690 40196 58019 91753 333 11106 21172 555 91018
AAXX 10184 70271 11161 83603 11139 21150 39609 40225 50002 69901 710// 91753 333 11089 21178 4/010 555 91018
AAXX 10184 70273 11104 83605 11056 21067 30114 40174 56020 69901 741// 91753 333 11017 21061 4/028 555 91018
AAXX 10184 70316 11362 81720 10067 20061 39749 49784 56061 60291 761// 91753 333 10067 21027 91029 555 91018
AAXX 10184 70326 32866 81320 10044 21017 39991 40003 58068 91754 333 10044 21028 91028 555 91018
AAXX 10184 70340 32566 61021 10028 21028 30026 40087 58029 91753 333 10028 21044 4/005 91028 555 91018
AAXX 10184 70350 32566 81809 10017 21022 30104 40145 56015 91753 333 10028 21067 555 91018
AAXX 10184 70361 32966 00000 11022 21028 30172 40182 51028 91753 333 10017 21028 555 91018
AAXX 10184 70381 12162 80000 10000 20000 30159 40170 53020 69951 91753 333 10022 20000 555 91018
AAXX 10184 70414 35666 62337 10011 21044 39717 49755 53015 91756 333 10017 21006 91047 555 91018
AAXX 10184 NIL
AAXX 10184 NIL
AAXX 10181 30692 42999 40502 11258 21270 39626 40166 52/// 84030
AAXX 10181 40706 11508 83504 10000 21016 38670 40236 51016 60051 77077 8572X 333 55008 20244 82720 83635 88558
AAXX 10181 40718 11520 83310 10094 20086 30283 40254 51007 60151 76366 8452/ 333 55000 84625 88557
AAXX 10181 40732 11550 83302 10094 20077 30259 40234 52013 60091 76162 8632/ 333 55034 82920 84625 88557
AAXX 10181 40745 12960 00000 10036 21032 39073 40239 58004 60001 333 55086 21075
AAXX 10181 40754 12660 61103 10072 21028 38854 40218 58002 60001 83370 333 55058 81935 82640 85460
AAXX 10181 40766 12660 23205 10071 21050 38723 40208 52014 60001 82400 333 55052 20796 82645
AAXX 10181 40800 11957 00000 10054 21024 38479 40227 54000 60001 70500 333 55072 2////
AAXX 10181 40811 12660 30000 10140 20055 30180 40208 52011 60001 83400 333 55083 20365 83640
AAXX 10181 40841 12965 30000 10050 21170 38286 40223 52010 60001 80001 333 55094 21506 83070
AAXX 10181 40848 12960 00000 10038 21030 38565 40237 51006 60001 333 55087 21413
AAXX 10181 40856 12965 02202 10034 21208 38679 40226 58003 60001 333 55095 2////
AAXX 10181 40875 12960 30202 10120 20003 30171 40183 51005 60001 80005 333 55098 21583 83270
AAXX 10181 22028 32580 71807 11036 21061 39990 40029 57017 83570 333 11010 91010 91114
AAXX 10181 22106 32598 80602 11040 21055 39918 49997 57014 885// 333 11011 88630 91003
AAXX 10181 22127 11396 81204 11052 21062 39811 40015 57019 69902 78583 889// 333 11018 86708 91007 91112
AAXX 10181 22324 11558 81304 11030 21040 39945 49995 57023 60022 78583 889// 333 11010 91007 91112
AAXX 10181 22621 11482 81304 11027 21043 39826 49966 57017 60022 70283 885// 333 11026 88611
AAXX 10181 22831 11496 81101 11018 21016 39930 49990 57025 78582 889// 333 11018
AAXX 10181 22892 11497 81907 10016 20008 39881 49897 57008 60012 78082 889// 333 10018 88919 91111
AAXX 10181 26275 11397 81805 10017 21005 39954 49985 57003 69902 77171 8872/ 333 10022 88708
AAXX 10181 26389 11596 72002 10004 21010 39763 40026 53007 60022 71082 87500 333 10007
AAXX 10181 26499 11498 71905 10009 21008 39823 40052 53004 60012 70282 87900 333 10010 87916
AAXX 10181 26695 11396 82204 10005 21003 39775 40085 52009 60022 71022 886// 333 10006 88709
AAXX 10181 26882 11465 72104 10005 21001 39822 40099 52001 60022 70262 87500 333 10007 87613
AAXX 10181 22271 31498 81406 11041 21067 30075 40085 57030 70232 885// 333 11031
AAXX 10181 22520 11495 81308 11022 21034 39961 49970 57022 69962 77373 8802/ 333 11017 88518 91113
AAXX 10181 22550 11370 81404 11047 21067 30034 40044 57022 69900 70272 886// 333 11043 88709
AAXX 10181 22583 11480 71402 11068 21084 30043 40126 57011 69990 70277 875// 333 11043 87615
AAXX 10181 22768 11496 81404 11041 21060 30021 40078 57018 60010 77072 8802/ 333 11040 88513
AAXX 10181 22845 11495 81505 11020 21032 39863 40020 57015 69970 77373 8872/ 333 11026 86717
AAXX 10181 22887 12497 71405 11060 21087 30067 40139 57018 69930 8555/ 333 11050 85616 91109
AAXX 10181 23205 NIL
AAXX 10181 23219 NIL
AAXX 10181 23418 11665 71505 11057 21095 30130 40206 57026 69920 70272 87500 333 11038 87636
AAXX 10181 23606 31960 61604 11096 21122 30017 40197 57005 72272 82032 333 11054
AAXX 10181 23711 12998 61402 11098 21119 30052 40235 57011 69900 80005 333 11075
AAXX 10181 23804 12597 81903 11073 21094 30036 40190 57010 69900 885// 333 11059 88622
AAXX 10181 27037 11497 81604 11021 21030 39890 40053 57016 69900 77173 8672/ 333 11016 86710
AAXX 10181 27199 11997 81503 11108 21128 30005 40213 57011 60020 77172 8801/ 333 11086 93404
AAXX 10181 27271 11597 81205 11064 21080 30001 40162 57017 69920 70172 8252/ 333 11060
AAXX 10181 27459 12498 81803 11042 21051 39959 40160 57019 69900 8557/ 333 11046
AAXX 10181 27730 11498 82105 10006 21011 39937 40133 57002 69900 70272 885// 333 10004 88612 91113
AAXX 10181 38598 429// 00904 10031 20002 40296 52009
AAXX 10181 38599 NIL
AAXX 10181 38725 429// 00901 11021 21174 48550 52002
AAXX 10181 38734 NIL
AAXX 10181 38744 429// 00000 11168 21194 38099 48680 52007
AAXX 10181 38836 329// 00000 10004 21047 39335 40304 54000 333 10132
AAXX 10181 38838 428// 00505 10037 20013 39595 40279 58004
AAXX 10181 38844 429// 01803 11031 21168 48540 52013
AAXX 10181 38846 NIL
AAXX 10181 38847 NIL
AAXX 10181 38932 NIL
AAXX 10181 38933 NIL
AAXX 10181 38944 329// 03603 10023 21005 39654 40201 52011 333 10125
AAXX 10181 38954 329// 00000 11049 21134 38027 48620 57008 333 10022
AAXX 10184 41858 NIL
AAXX 10184 41863 32450 60000 10155 20150 30089 40134 70522 82530 333 56990 58013 70000 82618 85362
AAXX 10184 41886 NIL
AAXX 10184 41895 32450 60000 10170 20160 30109 40133 82530 333 56990 58005 70000 82616 85362
AAXX 10184 41909 NIL
AAXX 10184 41915 NIL
AAXX 10184 41926 31940 01802 10155 20150 30118 40132 70500 333 58009 70000
AAXX 10184 41929 31904 00000 10164 20150 30117 40126 74044 333 58010 70000
AAXX 10184 41933 31930 00000 10176 20170 30125 40134 70500 333 58013 70000
AAXX 10184 41939 31930 00000 10182 20170 40132 71044 333 59004 70000
AAXX 10184 41941 NIL
AAXX 10184 41946 31940 00000 10194 20180 30125 40129 70500 333 58007 70000
AAXX 10184 41947 31940 00000 10190 20180 30129 40131 70544 333 58010 70000
AAXX 10184 41951 NIL
AAXX 10184 41953 NIL
AAXX 10184 41958 31940 00000 10190 20180 30126 40128 70500 333 59003 70000
AAXX 10184 41960 31940 00000 10184 20180 30132 40134 70500 333 58008 70000
AAXX 10184 41963 NIL
AAXX 10184 41964 NIL
AAXX 10184 41965 NIL
AAXX 10184 41966 NIL
AAXX 10184 41984 NIL
AAXX 10184 41989 NIL
AAXX 10184 41998 NIL
BBXX 46111 10181 99481 71227 46/// /1903 10041 40213 53009 91800 22200 00061
BBXX 46112 10181 99481 71227 46/// /2102 10039 40214 51009 91800
AAXX 10181 40706 11508 83504 10000 21016 38670 40236 51016 60051 77077 8572X 333 55008 20244 82720 83635 88558
AAXX 10181 40718 11520 83310 10094 20086 30283 40254 51007 60151 76366 8452/ 333 55000 84625 88557
AAXX 10181 40732 11550 83302 10094 20077 30259 40234 52013 60091 76162 8632/ 333 55034 82920 84625 88557
AAXX 10181 40745 12960 00000 10036 21032 39073 40239 58004 60001 333 55086 21075
AAXX 10181 40754 12660 61103 10072 21028 38854 40218 58002 60001 83370 333 55058 81935 82640 85460
AAXX 10181 40766 12660 23205 10071 21050 38723 40208 52014 60001 82400 333 55052 20796 82645
AAXX 10181 40800 11957 00000 10054 21024 38479 40227 54000 60001 70500 333 55072 2////
AAXX 10181 40811 12660 30000 10140 20055 30180 40208 52011 60001 83400 333 55083 20365 83640
AAXX 10181 40841 12965 30000 10050 21170 38286 40223 52010 60001 80001 333 55094 21506 83070
AAXX 10181 40848 12960 00000 10038 21030 38565 40237 51006 60001 333 55087 21413
AAXX 10181 40856 12965 02202 10034 21208 38679 40226 58003 60001 333 55095 2////
AAXX 10181 40875 12960 30202 10120 20003 30171 40183 51005 60001 80005 333 55098 21583 83270
AAXX 10181 26997 11424 82302 10005 20002 39900 40122 54000 60022 71072 886// 333 10023 88711
AAXX 10181 27595 32997 61603 11121 21138 30087 40245 57007 86080 333 11112
AAXX 10181 27612 113// 82001 10012 21002 39891 40085 53002 60042 72272 887// 333 10012
AAXX 10181 27707 11549 72302 10001 21005 39817 40110 52007 60032 71072 87500 333 10005 87625
AAXX 10181 27719 11496 81804 10004 20001 39872 40124 58003 60022 78582 883// 333 10014 91112
AAXX 10181 27786 32997 01602 11160 21179 30081 40256 58008 333 11117
AAXX 10181 27857 32997 71705 11030 21037 30028 40196 57011 69900 87030 333 11031
AAXX 10181 27906 11596 81704 10007 20001 39883 40127 57002 60022 78382 883// 333 10016
AAXX 10181 27928 31596 82104 10011 21006 39948 40157 57010 71022 8455/ 333 10009
AAXX 10181 27947 12697 71705 11008 21030 30033 40196 57012 69900 875// 333 11003 87633
AAXX 10181 27962 12397 81604 11088 21112 40241 57006 60020 885// 333 10084 88608
AAXX 10181 27983 32968 31503 11143 21156 30129 40268 58004 80001 333 11118
AAXX 10181 27995 32973 31102 11149 21169 40275 57008 82031 333 11122
AAXX 10181 28506 32997 20000 11139 21159 30153 40275 57007 82030 333 11087
AAXX 10181 28704 32998 61803 11141 21161 30167 40272 57009 80002 333 11117
AAXX 10181 28711 32997 51702 11151 21164 39885 40289 57011 85030 333 11099
AAXX 10181 28807 32997 50000 11163 21176 30228 40284 57006 82031 333 10122
AAXX 10181 34009 11596 81904 10015 20007 39838 40145 57010 69942 78322 889// 333 10017
AAXX 10181 34110 31496 82104 10007 21001 39889 40171 57012 71022 886// 333 10008 88713
AAXX 10181 34123 11597 81804 10003 21011 39998 40185 57010 69900 70282 885// 333 10010 88620
AAXX 10181 34152 12560 70000 11036 21041 30040 40244 58002 69920 875// 333 11032 87631
AAXX 10181 34163 32498 80802 11102 21115 40258 58003 885// 333 11099 88620
AAXX 10181 34171 11360 81202 11112 21126 30055 40261 57003 69920 70272 886// 333 11094 86709 88620
AAXX 10181 34186 32978 61302 11155 21168 30120 40270 54000 86030 333 11117 93404
AAXX 10181 34247 32564 82103 11001 21016 30118 40235 58007 885// 333 10012 88624 53006
AAXX 10181 34336 32998 81602 11001 21019 30130 40237 58006 80002 333 10016
AAXX 10181 34391 12997 30901 11121 21148 30221 40254 58007 69900 83030 333 11097
AAXX 10181 35011 32984 31301 11159 21186 40298 57008 80001 333 11113
AAXX 10181 35121 32998 01103 11189 21209 30151 40312 58007 333 11154
AAXX 10181 28676 329// 00000 11177 21199 30204 40342 57008 333 11094
AAXX 10181 28766 329// 20703 11157 21191 30131 40336 58008 80001 333 11130
AAXX 10181 28867 32998 00000 11212 21244 30034 40332 57003 333 11155
AAXX 10181 28879 119// 20000 11231 21247 30021 40340 57006 69900 77800 80001 333 11115
AAXX 10181 28952 329// 00000 11211 21223 30125 40336 54000 333 11139
AAXX 10181 28966 329// 30000 11210 21237 30021 40332 53004 80001 333 11113
AAXX 10181 29802 319// 40603 11184 21200 30170 40326 58007 71000 80001 333 11100
AAXX 10181 29807 329// 80601 11174 21202 30192 40320 57007 8802/ 333 11104
AAXX 10181 34691 12998 20000 11084 21107 30262 40249 58003 69900 82030 333 11062
AAXX 10181 35067 329// 00000 11230 21256 30020 40325 58006 333 11134
AAXX 10181 35078 319// 00603 11214 21237 39915 40331 58002 74900 333 11160
AAXX 10181 35085 329// 73501 11158 21169 39804 40313 57007 80002 333 11156
AAXX 10181 35108 329// 60501 11177 21202 30233 40283 58002 80001 333 11115
AAXX 10181 35188 319// 83301 11169 21187 39842 40309 58010 70411 80001 333 11137
AAXX 10181 35217 329// 31103 11152 21172 30233 40276 58004 80001 333 11128
AAXX 10181 35229 129// 00000 11236 21254 30023 40326 57006 69900 333 11166
AAXX 10181 35302 329// 21503 11160 21179 30246 40267 58002 80004 333 11120
AAXX 10181 35357 329// 60000 11193 21219 39833 40304 53001 80002 333 11125
AAXX 10181 35394 32998 71101 11134 21152 39592 40308 53005 80006 333 11065
AAXX 10181 35406 315// 81002 11119 21146 30257 40259 58004 77171 8802/ 333 11100
AAXX 10181 35416 329// 21302 11171 21193 30159 40289 57003 80001 333 11113
AAXX 10181 35426 329// 00901 11210 21229 39997 40317 57006 333 11153
AAXX 10181 35497 319// 81101 11143 21164 39466 40312 58001 70272 8801/ 333 11083
AAXX 10181 35532 32998 00000 11138 21181 39778 40301 57008 333 11069
AAXX 10181 35671 12998 00000 11230 21254 39856 40330 52002 69940 333 11171
AAXX 10181 35700 31996 81302 11058 21073 30272 40247 58002 71022 8802/ 333 11063
AAXX 10181 35746 319// 60101 11192 21218 30243 40315 58002 71011 80004 333 11154
AAXX 10181 35796 11697 80303 11086 21105 39859 40312 57002 69920 77177 8802/ 333 11065
AAXX 10181 35849 32998 20000 11173 21199 30219 40311 57001 80001 333 11098
AAXX 10181 35925 NIL
AAXX 10181 35953 329// 30601 11177 21196 30176 40317 57001 83030 333 11086
AAXX 10181 35969 329// 00000 11170 21189 30139 40327 52005 333 11064
AAXX 10181 36003 32998 20000 11205 21216 30141 40306 57011 82030 333 11145
AAXX 10181 36152 329// 71402 11156 21198 30101 40302 58012 80002 333 11149
AAXX 10181 36177 329// 51003 11150 21171 30056 40318 57006 83031 333 11140
AAXX 10181 36208 329// 00702 11090 21132 39308 40323 54000 333 11010
AAXX 10181 36397 329// 30000 11091 21146 39731 40315 58001 80002 333 11051
AAXX 10181 36428 315// 60202 11219 21239 39819 40366 53001 70241 82601 333 11085 95090
AAXX 10181 36535 329// 32801 11223 21255 39683 40376 52004 80002 333 11096
AAXX 10181 36639 329// 50000 11164 21190 39682 40329 52001 80004 333 10005
AAXX 10181 36821 315// 60000 11075 21088 39807 40315 58001 71041 82932 333 11031
AAXX 10181 36859 329// 71001 11070 21086 39510 40320 52008 80005 333 11005
AAXX 10181 36864 329// 20000 11083 21102 39385 40317 58011 80004 333 10013
AAXX 10181 36870 329// 40000 11005 21065 39263 40288 58007 80002 333 10006
AAXX 10181 38001 NIL
AAXX 10181 38062 319// 00000 11124 21144 30140 40314 58002 71000 333 11034
AAXX 10181 38069 329// 00000 11102 21108 30110 40312 58002 333 11023
AAXX 10181 38196 32998 00000 11061 21105 39286 40303 58002 333 10001
AAXX 10181 38198 329// 00501 11107 21127 30040 40316 58005 333 11026
AAXX 10181 38222 32997 40000 11090 21115 39731 40319 57004 84030 333 11025
AAXX 10181 38232 NIL
AAXX 10181 38328 319// 21101 11014 21022 39547 40293 58003 71011 82030 333 10016
AAXX 10181 38334 32997 30901 11040 21090 39311 40303 58005 82081 333 10000
AAXX 10181 38341 32997 81901 11034 21077 39485 40294 58004 80007 333 11040
AAXX 10181 38343 32997 30000 11083 21111 39427 40310 58008 80001 333 10019
AAXX 10181 38439 31/93 90000 11028 21032 39945 40295 58003 74542 333 11020
AAXX 10184 78526 12564 60815 10272 20222 30095 40116 56025 60051 91756 333 10278 20233 91019 555 91018
AAXX 10184 78543 12566 80313 10272 20222 30031 40112 58022 69951 91753 555 91018
BBXX 44067 10181 99384 70770 46/// /0604 10078 40275 58007 91800
BBXX 41029 10181 99328 70796 46/// /0407 1//// 91800 555 11094 22113
BBXX 44032 10181 99437 70694 46/30 /3208 10059 40195 55000 91804 22200 00092 10602 70010 333 91210 555 11094 22098
AAXX 10181 20107 32597 21202 11100 21142 39961 40060 52002 81530 333 11088 91002
AAXX 10181 22113 32584 61305 11029 21063 39943 40007 57015 85530 333 11007 91008
AAXX 10181 22217 11340 81103 11028 21044 39951 49983 57022 60012 78583 889// 333 11006 86708 91006 91110 92401
AAXX 10181 22235 11380 81303 11058 21065 39831 40029 57021 69902 70283 886// 333 11024 88707 91006 91110
AAXX 10181 22349 11598 81507 11033 21050 30030 40042 57024 69902 70282 885// 333 11027 91008 91111
AAXX 10181 22408 11382 81204 11035 21046 39800 49951 57011 60042 70272 886// 333 11023 88707
AAXX 10181 22602 12474 81304 11019 21034 39697 49921 57022 69982 885// 333 11019 88613
AAXX 10181 22619 11381 81704 11013 21027 39792 49953 57014 60012 70283 886// 333 11013 88708 91111
AAXX 10181 22721 11497 81301 11009 21013 39859 49959 57019 60022 70273 887// 333 11006 85710
AAXX 10181 22802 12484 81405 10020 21011 39894 49917 57018 60012 889// 333 10020
AAXX 10181 22820 12474 81302 11014 21022 39820 49957 57017 69982 885// 333 11012 88610
AAXX 10181 26059 11396 81903 10006 20001 39889 49914 54000 60022 78582 889// 333 10024 86708
AAXX 10181 26063 11496 81804 10021 21004 39908 49915 57015 69902 77176 885// 333 11024
AAXX 10181 26094 11570 81903 10002 21001 39898 49974 58017 60032 70272 885// 333 10002 88631
AAXX 10181 26157 11497 72109 10017 20009 39879 49929 53011 60022 70282 875// 333 10020 87617 91114
AAXX 10181 26167 11440 82105 10002 21001 30837 49949 56002 60032 78682 889// 333 10017 88710
AAXX 10181 26258 11598 82203 10015 21004 39918 49973 53016 69982 70282 889// 333 10023 91115
AAXX 10181 26298 11496 82003 10001 21004 39789 40019 53002 60022 71087 886// 333 10002
AAXX 10181 26359 32476 82005 10023 21026 39870 40004 52011 889// 333 10030
AAXX 10181 26702 11496 82703 10022 21015 30009 40035 54000 69912 78581 889// 333 10038 91008 91111
AAXX 10181 26781 12597 72202 10006 21005 39790 40084 52014 60022 875// 333 10009 87626
AAXX 10181 27208 11596 72004 10002 21009 39851 40028 56003 60022 71082 87500 333 10002
AAXX 10181 27402 11497 61902 10008 21006 39873 40053 57002 60012 70272 85630 333 10008 85710
AAXX 10184 NIL
AAXX 10184 NIL
AAXX 10183 87007 32570 51405 10224 21055 36714 47104 57021 82105 333 56707 82830 85270
AAXX 10183 87148 32970 00912 10332 20171 39953 40059 57028
AAXX 10184 91165 12566 20416 10228 20172 30155 40190 53006 69901 91753 333 10228 20217 555 91018
AAXX 10184 91182 12566 60405 10228 20178 30174 40177 53008 60021 91753 333 10244 20206 555 91018
AAXX 10184 91190 32566 60515 10228 20172 30161 40181 53009 91754 333 10228 20194 555 91018
AAXX 10184 91212 12466 60608 10261 20250 31360 40096 58014 69951 91754 333 10294 20244 555 91018
AAXX 10184 91285 32666 62504 10200 20156 30148 40159 51007 91753 333 10228 20183 555 91018
AAXX 10184 91408 11473 80000 10246 20230 30044 40082 57025 60071 72582 82978 333 56999 70091 555 91018
AAXX 10184 91245 32566 2//// 10270 20230 30154 91755 555 91018
AAXX 10181 28676 329// 00000 11177 21199 30204 40342 57008 333 11094
AAXX 10181 28766 329// 20703 11157 21191 30131 40336 58008 80001 333 11130
AAXX 10181 28867 32998 00000 11212 21244 30034 40332 57003 333 11155
AAXX 10181 28879 119// 20000 11231 21247 30021 40340 57006 69900 77800 80001 333 11115
AAXX 10181 28952 329// 00000 11211 21223 30125 40336 54000 333 11139
AAXX 10181 28966 329// 30000 11210 21237 30021 40332 53004 80001 333 11113
AAXX 10181 29802 319// 40603 11184 21200 30170 40326 58007 71000 80001 333 11100
AAXX 10181 29807 329// 80601 11174 21202 30192 40320 57007 8802/ 333 11104
AAXX 10181 34691 12998 20000 11084 21107 30262 40249 58003 69900 82030 333 11062
AAXX 10181 35067 329// 00000 11230 21256 30020 40325 58006 333 11134
AAXX 10181 35078 319// 00603 11214 21237 39915 40331 58002 74900 333 11160
AAXX 10181 35085 329// 73501 11158 21169 39804 40313 57007 80002 333 11156
AAXX 10181 35108 329// 60501 11177 21202 30233 40283 58002 80001 333 11115
AAXX 10181 35188 319// 83301 11169 21187 39842 40309 58010 70411 80001 333 11137
AAXX 10181 35217 329// 31103 11152 21172 30233 40276 58004 80001 333 11128
AAXX 10181 35229 129// 00000 11236 21254 30023 40326 57006 69900 333 11166
AAXX 10181 35302 329// 21503 11160 21179 30246 40267 58002 80004 333 11120
AAXX 10181 35357 329// 60000 11193 21219 39833 40304 53001 80002 333 11125
AAXX 10181 35394 32998 71101 11134 21152 39592 40308 53005 80006 333 11065
AAXX 10181 35406 315// 81002 11119 21146 30257 40259 58004 77171 8802/ 333 11100
AAXX 10181 35416 329// 21302 11171 21193 30159 40289 57003 80001 333 11113
AAXX 10181 35426 329// 00901 11210 21229 39997 40317 57006 333 11153
AAXX 10181 35497 319// 81101 11143 21164 39466 40312 58001 70272 8801/ 333 11083
AAXX 10181 35532 32998 00000 11138 21181 39778 40301 57008 333 11069
AAXX 10181 35671 12998 00000 11230 21254 39856 40330 52002 69940 333 11171
AAXX 10181 35700 31996 81302 11058 21073 30272 40247 58002 71022 8802/ 333 11063
AAXX 10181 35746 319// 60101 11192 21218 30243 40315 58002 71011 80004 333 11154
AAXX 10181 35796 11697 80303 11086 21105 39859 40312 57002 69920 77177 8802/ 333 11065
AAXX 10181 35849 32998 20000 11173 21199 30219 40311 57001 80001 333 11098
AAXX 10181 35925 NIL
AAXX 10181 35953 329// 30601 11177 21196 30176 40317 57001 83030 333 11086
AAXX 10181 35969 329// 00000 11170 21189 30139 40327 52005 333 11064
AAXX 10181 36003 32998 20000 11205 21216 30141 40306 57011 82030 333 11145
AAXX 10181 36152 329// 71402 11156 21198 30101 40302 58012 80002 333 11149
AAXX 10181 36177 329// 51003 11150 21171 30056 40318 57006 83031 333 11140
AAXX 10181 36208 329// 00702 11090 21132 39308 40323 54000 333 11010
AAXX 10181 36397 329// 30000 11091 21146 39731 40315 58001 80002 333 11051
AAXX 10181 36428 315// 60202 11219 21239 39819 40366 53001 70241 82601 333 11085 95090
AAXX 10181 36535 329// 32801 11223 21255 39683 40376 52004 80002 333 11096
AAXX 10181 36639 329// 50000 11164 21190 39682 40329 52001 80004 333 10005
AAXX 10181 36821 315// 60000 11075 21088 39807 40315 58001 71041 82932 333 11031
AAXX 10181 36859 329// 71001 11070 21086 39510 40320 52008 80005 333 11005
AAXX 10181 36864 329// 20000 11083 21102 39385 40317 58011 80004 333 10013
AAXX 10181 36870 329// 40000 11005 21065 39263 40288 58007 80002 333 10006
AAXX 10181 38001 NIL
AAXX 10181 38062 319// 00000 11124 21144 30140 40314 58002 71000 333 11034
AAXX 10181 38069 329// 00000 11102 21108 30110 40312 58002 333 11023
AAXX 10181 38196 32998 00000 11061 21105 39286 40303 58002 333 10001
AAXX 10181 38198 329// 00501 11107 21127 30040 40316 58005 333 11026
AAXX 10181 38222 32997 40000 11090 21115 39731 40319 57004 84030 333 11025
AAXX 10181 38232 NIL
AAXX 10181 38328 319// 21101 11014 21022 39547 40293 58003 71011 82030 333 10016
AAXX 10181 38334 32997 30901 11040 21090 39311 40303 58005 82081 333 10000
AAXX 10181 38341 32997 81901 11034 21077 39485 40294 58004 80007 333 11040
AAXX 10181 38343 32997 30000 11083 21111 39427 40310 58008 80001 333 10019
AAXX 10181 38439 31/93 90000 11028 21032 39945 40295 58003 74542 333 11020
BBXX HZGN 10183 99233 10666 41/98 10606 10245 20095 40175 58001 70200 8///1 22234 02256 20200 306// 40501 5//// 80187
BBXX A8VL8 10184 99262 30511 41297 30717 10260 20217 40140 54000 7//00 831// 22223 00230 20204 331// 40204 5//// 6//// 80230 ICE /////
BBXX PHPP 10184 99094 10680 41498 20520 10270 20234 40099 50003 702// 82100 22224 00290 2//01 80244
BBXX 3FMV6 10183 99150 30099 41698 61816 10200 20149 40089 54000 70222 84465 22283 06204 21201 80170
BBXX PHQW 10183 99018 10014 413// 51810 10252 20231 40085 53008 7//61 8374/ 22223 00282 20401 318// 40602 80237 90194
BBXX DBLK 10181 99524 30000 41398 72507 10012 20008 40032 51003 70254 878// 22243 04014 20301 325// 40905
BBXX NWS0029 10184 99174 70245 43/// /1014 10239 20169 40137 5//// 7//// 8//// 222// 04250 2//// 3//// 4//// 5//// 6//// 8//// ICE /////
BBXX PCIH 10183 99105 70167 41497 59903 10280 20217 40075 58014 70511 22274 20000 318// 40502 80235
BBXX ZCBH7 10184 99065 11102 41697 30525 10241 20228 40100 58021 70322 8/492 22253 04254 20206 305// 40205 5//// 80232
BBXX ONDE 10183 99363 11411 41997 13210 10090 20025 40160 56010 7//00 81//9 22200 00170 20202 332// 4//// 5//// 6//// 80060 ICE /////
BBXX MIBR 10183 99220 11142 41998 50110 10122 20029 40230 54000 70200 80007 22200 00201 2//// 3//// 4//// 5//// 80081
BBXX KAOU 10184 99073 10981 43/// /0621 10273 20233 40091 5//// 7//// 8//// 222// 04323 2//// 3//// 4//// 5//// 6//// 8//// ICE /////
BBXX MGPU2 10184 99413 11433 41998 32738 10035 21039 40108 58010 70111 82040 22273 00062 20403 3//// 4//// 5//// 80010
BBXX DMRX 10184 99444 11535 41598 23010 10027 21016 40104 57020 70122 824// 22214 00060 20102 32216 40608 50406 80010
BBXX DFGX2 10183 99391 11363 41597 53323 40150 54000 70222 82576 22214 2////
BBXX A8SE8 10184 99044 70802 41397 72521 10240 20233 40100 56000 75852 8677/ 22243 00275 29902 80235
BBXX 3EPD8 10184 99311 50763 41998 31613 10199 20135 40209 7//00 8304/ 22243 04172 2//01 322// 40705 80162
BBXX VK4041 10180 99013 50898 41698 71403 10221 20207 40134 58004 70152 8157/ 22241 02221 20201 317// 40905 5//// 80212
BBXX DFFA2 10183 99280 50735 41297 81808 10180 20131 40175 57005 70222 8277/ 22284 00170 2//// 322// 41002 5//// 80150
BBXX 44255 10181 99473 70573 46/// /1812 10055 40190 57027 22200 00044 10705 70026 333 91214
BBXX WECH 10183 99264 71458 41398 61215 10222 2021/ 40250 51004 76055 86762 22255 00226 20301 330// 40402 5//// 6//// 80211 ICE /////
BBXX WFLH 10183 99330 71196 43498 33122 10183 20128 40211 52009 7//// 831// 22254 00144 20502 3//// 4//// 5//// 6//// 80150 ICE /////
BBXX WKAB 10183 99371 70748 41498 83427 10080 20038 40243 57010 7//22 8887/ 22213 00145 20804 336// 40805 5//// 6//// 80060 ICE /////
BBXX WKPF 10183 99420 70481 41496 80705 10095 2008/ 40320 57020 75222 887// 22265 00086 20100 332// 40805 5//// 6//// 80085 ICE /////
BBXX 44150 10181 99425 70640 46/// /1404 10106 40179 57042 22200 00109 10702 70009 333 91205
BBXX 42067 10181 99300 70886 46/// ///// 10088 20028 40290 91740 22200 00184 10402 70010
BBXX 41053 10181 99185 70661 46/// /0808 10272 40107 91750 333 91209
BBXX 41053 10181 99185 70661 46/// /0809 10272 40108 91740 333 91210
BBXX 41053 10181 99185 70661 46/// /0808 10273 40105 56026 91800 22200 00278 10904 70020 333 91209
BBXX 41052 10181 99183 70648 46/// /0809 10269 40101 91740 333 91211
BBXX 41052 10181 99183 70648 46/// /0709 10272 40099 91750 333 91210
BBXX 41052 10181 99183 70648 46/// /0708 10273 40099 58022 91800 22200 00280 333 91210
BBXX 44139 10181 99442 70571 46/// /1408 10089 40231 57033 22200 00086 10504 70019 333 91210
BBXX 41101 10184 99146 70562 46/// /1805 10276 20225 40088 57022 22200 00281 10804 70020
BBXX PDXQ 10183 99275 70796 41297 80922 10183 20158 40197 54000 76062 8/7// 22283 04264 20805 80167
BBXX ELWR5 10183 99272 71154 41/98 33408 10240 20219 40180 50/// 7//// 8/1// 22274 04217 20902 80225
BBXX OXBB2 10181 99260 70527 41798 60915 10255 20212 40140 54000 70322 85462 22215 00250 20408 80225
BBXX WCAJ 10184 99570 71426 413// 73120 10050 20050 40170 54000 7//// 879// 222// 00050 20301 3//// 40502 5//// 6//// 80050 ICE /////
BBXX J8AZ2 10183 99198 70675 41497 80919 10000 2000/ 40140 54000 7//22 87943 22273 0//// 20403 30709 40504 50605 6//// 80000 ICE /////
BBXX WBN7618 10184 99279 70790 41/// /0722 10239 2//// 40240 5//// 7//// 8//// 22273 0//// 20504 30505 40404 50403 6//// 8//// ICE /////
BBXX WNBE 10184 99213 71578 41498 60708 10230 2//// 40175 52010 78162 8625/ 22200 0//// 2//// 3//// 4//// 5//// 6//// 8//// ICE /////
BBXX WDB3161 10184 99426 71301 41598 70324 10110 2010/ 40232 52012 72582 852/8 22275 00136 20402 332// 40902 5//// 6//// 80105 ICE /////
BBXX VCXF 10184 99464 70484 41998 71917 10043 2002/ 40299 57028 70322 87040 22200 02036 20301 333// 41007 80033
BBXX J8PR3 10183 99107 70607 41198 71013 10300 2025/ 40110 54000 70222 87293 22231 00290 20302 31010 40302 50302 6//// 80260 ICE /////
BBXX WBN6512 10184 99610 71463 41998 09900 11044 21049 40180 54/// 70110 80000 222// 0//// 2//// 3//// 4//// 5//// 6//// 81044 ICE /////
BBXX WDD3825 10184 99385 70429 41297 83407 10200 2019/ 40320 54000 78065 8847/ 22254 00200 20200 330// 40602 5//// 6//// 80190 ICE /////
BBXX WCX8884 10184 99476 71412 41096 33105 10060 2004/ 40320 54000 70211 833// 22275 00054 20704 3//// 40704 5//// 6//// 80050 ICE /////
BBXX A8PF6 10184 99451 70393 416// 83124 10080 20038 40310 54000 7//22 889// 22272 0//// 20402 332// 41008 5//// 6//// 80060 ICE /////
BBXX A8DH2 10183 99241 70489 41396 81223 10245 20191 40166 53007 76366 87778 22222 04261 20608 31009 40608 50407 80210
BBXX PDNN 10183 99337 70760 41/98 70222 10163 20102 40231 57006 70322 87/12 22213 02230 20304 30000 80128 90194
BBXX A8IN8 10184 99375 70361 41598 42919 10200 20153 40300 54000 70122 83445 22224 04180 20401 80170
BBXX C6KD5 10183 99292 70517 41498 60930 10240 20176 40220 56005 70322 85463 22214 02245 21509 309// 41309 5//// 80200
AAXX 10181 45032 36/// /0105 10086 21081 30231 40249 57001 333 91110
AAXX 10181 45035 36/// /0107 10097 21042 30205 40249 57001
AAXX 10181 45039 36/// /3403 10088 21057 30225 40240 54000
AAXX 10181 45044 36/// /0011 10096 21028 30128 40225 57001 333 91116
BBXX DQVG 10183 99395 71416 41292 60309 10130 20091 40222 51012 70151 82100 22264 00160 20602 329// 41204 5//// 80110
BBXX C6VR4 10183 99181 70682 41698 40521 10275 20231 40107 58013 70211 83466 22214 04284 20804 307// 41005 5//// 80245
BBXX DHEE 10183 99454 70381 41398 73022 10095 20032 40300 54000 70211 8677/ 22264 00160 21004 331// 41208 80065
BBXX VRFO7 10184 99379 70458 41/98 81416 10240 20158 40330 50000 70322 8//// 22214 20404 314// 40806 80190
BBXX WXJ63 10183 99611 71464 41/97 13404 11056 21066 40181 5//// 702// 8//// 222// 00051 2//// 3//// 4//// 5//// 6//// 8//// ICE /////
BBXX NWS0003 10184 99627 71675 43/// /1346 11004 21009 49764 5//// 7//// 8//// 222// 05016 2//// 3//// 4//// 5//// 6//// 8//// ICE /////
BBXX 44022 10181 99409 70737 46/// ///07 10050 21036 91800 22200 00100 333 91209 555 11072 22072
BBXX 44008 10181 99405 70692 46/// /3312 10080 20055 40206 53003 91750 22200 00133 10503 20503 314// 41001 70015 333 91215 555 11128 22135 31749 43315 61749 330120 331117 333121 330114 339117 338108
BBXX 44060 10181 99413 70721 46/// ///07 10056 91800 22200 00109 333 91209 555 11072 22077
BBXX 46083 10181 99582 71380 46/// /3205 10042 20035 40171 53025 91750 22200 00065 10904 20401 300// 40904 70020 333 91206 555 11052 22055 31722 43007 61749 316050 309049 307051 311049 311051 310050 83106 91713
BBXX 46089 10181 99459 71258 46/// /3406 10080 20054 40225 52003 91750 22200 00097 11605 20501 330// 41605 70024 333 91207 555 11061 22064 31747 43407 61749 343055 357050 355054 000051 008059 005058
BBXX 46042 10181 99368 71224 46/// /0604 10110 40207 52005 91750 22200 00116 11703 20301 330// 41703 70017 333 91205 555 11046 22048 31702 40606 61749 059044 066044 060044 061048 061050 057051
BBXX 42363 10181 99282 70892 46/// /0412 10156 20044 40278 58007 91800 333 91212
BBXX 41041 10181 99142 70460 46/// /1207 10273 20231 40113 56020 91750 22200 00269 10903 20502 3//// 40902 70016 333 91209 555 11079 22084 31715 41109 61749 115074 116073 115072 112075 117070 116073 81208 91745
BBXX 44011 10181 99411 70666 46/// /1604 10118 20109 40182 58013 91750 22200 00104 10603 20401 3//// 40603 70014 333 91205 555 11046 22053 31748 43305 61749 155040 157036 146035 145032 146030 146029
BBXX 42364 10181 99291 70881 46/// /0212 10144 20044 40275 58010 91800
BBXX 41046 10181 99238 70683 46/// /0707 10250 20195 40161 57022 91750 22200 00260 10905 20604 300// 40904 70025 333 91209 555 11077 22081 31702 40914 61749 069074 072089 068077 068073 081097 079075 80912 91703
BBXX C6VG7 10184 99234 70831 414// 80815 10250 2//// 40170 5/010 7//11 88/7/ 22214 0//// 20603 3//// 40603 50603 6//// 8//// ICE /////
BBXX ONDE 10183 99363 11411 41997 13210 10090 20025 40160 56010 7//00 81//9 22200 00170 20202 332// 4//// 5//// 6//// 80060 ICE /////
BBXX A8PF6 10184 99451 70393 416// 83124 10080 20038 40310 54000 7//22 889// 22272 0//// 20402 332// 41008 5//// 6//// 80060 ICE /////
BBXX WBN6512 10184 99610 71463 41998 09900 11044 21049 40180 54/// 70110 80000 222// 0//// 2//// 3//// 4//// 5//// 6//// 81044 ICE /////
BBXX WCAJ 10184 99570 71426 413// 73120 10050 20050 40170 54000 7//// 879// 222// 00050 20301 3//// 40502 5//// 6//// 80050 ICE /////
BBXX WNBE 10184 99213 71578 41498 60708 10230 2//// 40175 52010 78162 8625/ 22200 0//// 2//// 3//// 4//// 5//// 6//// 8//// ICE /////
BBXX WBN7618 10184 99279 70790 41/// /0722 10239 2//// 40240 5//// 7//// 8//// 22273 0//// 20504 30505 40404 50403 6//// 8//// ICE /////
BBXX A8VL8 10184 99262 30511 41297 30717 10260 20217 40140 54000 7//00 831// 22223 00230 20204 331// 40204 5//// 6//// 80230 ICE /////
BBXX WKAB 10183 99371 70748 41498 83427 10080 20038 40243 57010 7//22 8887/ 22213 00145 20804 336// 40805 5//// 6//// 80060 ICE /////
BBXX WFLH 10183 99330 71196 43498 33122 10183 20128 40211 52009 7//// 831// 22254 00144 20502 3//// 4//// 5//// 6//// 80150 ICE /////
BBXX PBAD 10181 99157 70951 415// 11304 10261 20198 40135 70200 81100 22200 00270 2//// 3//// 4//// 5//// 80220
BBXX VRZN7 10184 99048 51682 416// 50712 10270 20210 40090 52010 7//22 8513/ 22253 04290 20306 305// 40306 5//// 85230
BBXX A8HJ8 10183 99012 11034 41/96 /3605 10256 20238 40100 54000 70211 8//// 22200 20201 30000 80243
BBXX VRAE2 10183 99123 31554 41/98 50205 10286 20243 40074 56008 70111 8//// 22234 04310 2//// 80256
BBXX VRZN7 10184 99048 51682 416// 50712 10270 2021/ 40090 52010 7//22 8513/ 22253 04290 20306 305// 40306 5//// 85230
BBXX VROC 10184 99132 31544 41498 33608 10290 20248 40087 54000 70200 8214/ 22283 20201 316// 40403 80260
BBXX VNSZ 10184 99408 31462 46/// /2617 10157 20152 39974 40000 57025 22235 04162 85154
BBXX C6HS4 10183 99160 30929 41297 31515 10260 20246 40073 5/020 78788 81100 22233 2//// 313// 41002 80250
BBXX ZCBU6 10184 99343 31731 41397 80828 10180 20146 40161 57023 70300 8/7// 22274 00190 20303 308// 40604 5//// 80160
BBXX 3ECI3 10184 99395 31737 41598 73613 10170 20135 40231 54000 70222 83838 22233 00170 20301 336// 40904 80150
BBXX SHIP 10183 99062 31256 41498 52508 10270 2024/ 40100 56010 70322 8527/ 22284 00300 2//// 3//// 4//// 5//// 6//// 80250 ICE /////
BBXX PCDE 10183 99399 30714 41297 40102 10160 20127 40240 54000 7//// 847// 22223 20401 80140
BBXX PCQL 10183 99016 11193 41898 51907 10280 20239 40080 56011 70322 85//9 22283 04282 299// 30000 80250
BBXX A8RL3 10181 99165 30711 41392 30907 10260 40100 52000 70200 834// 22213 00280 2//02 3//// 4//04 5////
BBXX DBFH 10181 99555 10084 46/// /2909 10061 20019 12012 40033 22200 00047
BBXX SBLW 10183 99456 70139 43/98 72607 10110 40213 58002 22254 00147 2//// 4////
BBXX TFGSK 10184 99641 70229 46/// ///// 22200 10603 70017
BBXX TFHFN 10184 99642 70152 46/// ///// 22200 10603 70015
BBXX TFBKF 10184 99635 70202 46/// ///// 22200 10708 70038
BBXX TFBLK 10184 99657 70248 46/// ///// 22200 10705 70024
BBXX TFKGR 10184 99657 70136 46/// ///// 22200 10906 70032
BBXX TFGRV 10184 99638 70225 46/// ///// 22200 10810 70050
BBXX TFGRS 10184 99663 70182 46/// ///// 22200 10705 70026
BBXX TFSTD 10184 99664 70234 46/// ///// 22200 10706 70031
BBXX TFDRN 10184 99658 70212 46/// ///// 22200 10805 70024
BBXX 62023 10183 99514 70079 46/97 /2424 10089 2//// 40150 5//// 22200 10403 70015 555 70025 80017
BBXX UCJU 10181 99700 10487 41/98 91811 11016 40138 57020 70222 22263 20503 30000
BBXX UFNZ 10181 99344 70092 41798 52808 10181 40235 54000 70222 87470 22253 00121 20302
BBXX DBBA 10181 99536 10086 46/// ///// 10014 20009 40100 52019 22260 00054
BBXX DBKR 10181 99541 10121 46/// /2406 10023 20020 40067 52005 22200 00057
BBXX DBFH 10181 99555 10084 46/// /2909 10061 20019 40033 12012 22200 00047
BBXX DBEB 10181 99538 10082 41/// /2310 10034 20433 40088 52010 7//// 22221 00048
BBXX MGSG6 10183 99537 10003 41597 72627 10060 20036 40118 54000 70322 85974 22200 04108 20404 325// 40505 5//// 80050
BBXX LF4H 10184 99596 10022 46/// /3115 10071 20002 49990 52019 8//// 22200 06088 10706 70028 333 91128
BBXX LMEL 10181 99603 10053 43/// /1201 10022 20017 49959 5//// 222/2 04095 1//// 3//// 4//// 5////
BBXX LDGJ 10181 99603 10053 43/// /1400 10028 20005 49965 5//// 222/1 04094 1//// 3//// 4//// 5////
BBXX LGWS 10181 99308 70098 43/// /0311 10165 20132 40203 5//// 222/0 04159 1//// 3//// 4//// 5////
BBXX UFJN 10181 99724 10306 41/98 81406 11020 40012 54000 70320 884// 22200 0//// 20301
BBXX UGGA 10181 99691 10421 41/96 91712 10010 40082 57020 70282 89/// 22221 20605
BBXX DBBH 10181 99496 70039 41498 22505 10093 20011 40181 52002 70111 82800 22253 04130
BBXX PDYI 10183 99416 10039 41/98 /3403 10173 20117 40165 53005 702// 8//// 22263 20200 32300 40401 5//// 80140
BBXX PEBT 10183 99374 10243 41997 12215 10150 20119 40250 54000 7//00 80005 22253 02120 20401 300// 40000 5//// 80132
BBXX UCKG 10181 99553 10067 41/97 92917 10040 40060 52005 70222 22272 00100 20606 33100 40608
BBXX UCSJ 10181 99685 10393 41/96 91614 11021 40042 56030 78682 89/// 22221 20403
BBXX OWFD2 10181 99382 70097 41597 73112 10185 20153 40190 50150 75055 8/9// 22284 04170 20402 331// 41205 80165
BBXX NWS0020 10184 99379 10236 43/// /2301 10139 20087 40247 5//// 7//// 8//// 222// 04187 2//// 3//// 4//// 5//// 6//// 8//// ICE /////
BBXX BSH02 10181 99542 10079 46/// ///// 22200 00079 20804 70022
BBXX WBS5272 10184 99455 70839 41/98 82220 11027 2//// 40312 57002 70222 8//// 22272 0//// 20202 3//// 4//// 5//// 6//// 8//// ICE /////
BBXX WDF5483 10184 99442 70828 43/96 62520 11016 2//// 40254 5//// 7//// 8//// 22282 0//// 2//01 3//// 4//// 5//// 6//// 8//// ICE /////
AAXX 10181 08501 NIL
AAXX 10181 08505 12475 72804 10170 20137 30242 40292 55001 69912 83842 333 10185 82815 87070
AAXX 10181 08509 32560 52805 10172 20140 30223 40288 55004 83871 333 10188 81823 83070
AAXX 10181 08512 32580 63104 10159 20123 30199 40285 54000 82802 333 10177 81820 85070 91107
AAXX 10181 08515 32482 43104 10168 20150 30166 40288 55001 84801 333 10180 83818 910// 911//
AAXX 10181 08533 12/// /3105 10158 20138 30173 40202 57001 69942 333 10178 91108
AAXX 10181 08541 12/// /3105 10133 20114 30078 40197 52004 60042 333 10151 91008 91108
AAXX 10181 08545 NIL
AAXX 10181 08548 12/// /2101 10107 20101 39979 40185 52007 60212 333 10116
AAXX 10181 08554 NIL
AAXX 10181 08558 12/// /2603 10115 20115 39892 40186 54000 60052 333 10118 91106
AAXX 10181 08560 12/// /2102 10074 20068 39421 40184 52008 60152 333 10091
AAXX 10181 08567 12/// /1801 10077 20070 39512 40180 52008 60172 333 10094
AAXX 10181 08570 11258 89902 10066 20066 39730 40196 52003 60102 72164 8277/ 333 10072 82706 87458 91105 96010
AAXX 10181 08575 12/// /1701 10071 20065 39365 40180 52005 60082 333 10080
AAXX 10181 08579 12/// /36// 10125 20100 30071 40196 52013 60042 333 10148
AAXX 10181 08521 31470 50302 10185 20129 30177 40248 53011 71611 85800 333 10215 84815 91005
AAXX 10181 08524 32470 50104 10171 20141 30150 40248 54000 85800 333 10195 84815 91108
AAXX 10181 45032 36/// /0105 10086 21081 30231 40249 57001 333 91110
AAXX 10181 45035 36/// /0107 10097 21042 30205 40249 57001
AAXX 10181 45039 36/// /3403 10088 21057 30225 40240 54000
AAXX 10181 45044 36/// /0011 10096 21028 30128 40225 57001 333 91116
AAXX 10184 60351 12560 70000 10133 20118 40197 50002 60002 82232 333 10191 82823 83359 85070 95900
AAXX 10184 60355 12960 30206 10171 20112 40202 52011 60002 83030 333 0//00 10210 83360 95990
AAXX 10184 60445 12965 60202 10074 20019 39056 48527 50004 60002 82032 333 10123 82360 85073 95990
AAXX 10184 60468 12960 70000 10084 20017 39269 48528 53010 60002 84032 333 10144 84360 83070 95990
AAXX 10184 60507 12560 60704 10113 20088 40217 53006 60001 85280 333 10166 85830 95990
AAXX 10184 60511 12565 60000 10086 20066 39090 48524 53013 60002 82282 333 10151 82826 85359 95990
AAXX 10184 60535 12970 62206 10080 20048 38870 48531 54000 60002 86030 333 10122 86360 95900
AAXX 10184 60536 12960 40000 10105 20071 39334 48521 53004 60002 83082 333 10194 83360 95990
AAXX 10184 60549 11960 61708 10102 20046 38947 48546 51003 60002 70222 83082 333 10144 83360 84073 95990
AAXX 10184 60550 12560 72404 10077 20034 38701 48538 50001 60002 82532 333 10112 82630 85360 95990
AAXX 10184 60555 12965 60000 10138 20059 40240 51005 60002 85032 333 10184 85360 83073
AAXX 10184 60559 12960 70000 10141 20066 40238 56001 81034 333 10200 81360 86073
AAXX 10184 60581 12960 60206 10168 20050 40235 53003 60002 82032 333 10215 82360 85073
AAXX 10184 60602 12960 70000 10151 20052 40225 53002 60002 8423/ 333 10172 84843 84360 95990
AAXX 10184 60607 12960 73405 10169 21053 40199 56002 60002 86072 333 10199 86462
AAXX 10184 60640 12960 20910 10195 20003 40226 53007 60002 80002 333 10240 82073
AAXX 10184 60690 NIL
AAXX 10184 60360 12660 80502 10148 20116 40206 53006 60002 83032 333 10202 83360 85073 95990
AAXX 10184 60390 12960 71803 10140 20112 40217 53008 60002 85032 333 10179 85360 83070 95990
AAXX 10184 60402 12960 70000 10130 20111 40210 53004 60002 83032 333 10183 83359 85073 95900
AAXX 10184 60419 12965 61804 10108 20006 40227 53006 60002 84032 333 10161 84361 85070 95990
AAXX 10184 60475 12965 63210 10110 20023 39270 48531 53005 60002 81032 333 10181 81360 86073 95990
AAXX 10184 60490 12965 62406 10141 20119 40206 52007 60002 83032 333 10184 83360 84073 95990
AAXX 10184 60525 12960 60000 10115 20062 40231 55001 60002 83032 333 10165 83360 85073 95990
AAXX 10184 60531 12465 30000 10133 20110 40215 51004 60002 81632 333 10167 81710 95990
AAXX 10184 60566 12960 60000 10133 20041 40248 53003 60002 83032 333 10178 83360 84070
AAXX 10184 60571 12962 50000 10130 20042 39291 48540 50002 60002 85082 333 10160 85360 95990
AAXX 10184 60580 12660 70805 10151 20085 40232 58003 60002 84234 333 10198 81846 83360
AAXX 10184 60590 12660 70108 10164 20066 40233 52006 60002 875// 333 10199 87640
AAXX 10184 60611 12960 31008 10145 20024 40240 53005 60002 80001 333 10202 83073
AAXX 10184 60620 12660 63410 10183 21036 40211 53006 60002 82230 333 10228 82846 85365
AAXX 10184 60630 12960 62409 10200 20034 40196 53008 60002 83032 333 10245 83362 84075
AAXX 10184 60656 12765 60000 10205 20002 40196 55003 60002 82282 333 10234 82846 83460
AAXX 10184 60670 12970 10000 10153 21001 39124 48555 53012 60002 80001 333 10207 81073 95990
AAXX 10184 60680 12980 31603 10156 21043 38684 48559 53008 60002 80002 333 10226 83073 95990
AAXX 10184 91943 36/// /0411 10265 20240 30136 40138 51022 333 10268 58010
AAXX 10184 91945 16/// /3110 10265 20242 30112 40117 51018 60011
AAXX 10184 60351 12560 70000 10133 20118 40197 50002 60002 82232 333 10191 82823 83359 85070 95900
AAXX 10184 60355 12960 30206 10171 20112 40202 52011 60002 83030 333 0//00 10210 83360 95990
AAXX 10184 60445 12965 60202 10074 20019 39056 48527 50004 60002 82032 333 10123 82360 85073 95990
AAXX 10184 60468 12960 70000 10084 20017 39269 48528 53010 60002 84032 333 10144 84360 83070 95990
AAXX 10184 60507 12560 60704 10113 20088 40217 53006 60001 85280 333 10166 85830 95990
AAXX 10184 60511 12565 60000 10086 20066 39090 48524 53013 60002 82282 333 10151 82826 85359 95990
AAXX 10184 60535 12970 62206 10080 20048 38870 48531 54000 60002 86030 333 10122 86360 95900
AAXX 10184 60536 12960 40000 10105 20071 39334 48521 53004 60002 83082 333 10194 83360 95990
AAXX 10184 60549 11960 61708 10102 20046 38947 48546 51003 60002 70222 83082 333 10144 83360 84073 95990
AAXX 10184 60550 12560 72404 10077 20034 38701 48538 50001 60002 82532 333 10112 82630 85360 95990
AAXX 10184 60555 12965 60000 10138 20059 40240 51005 60002 85032 333 10184 85360 83073
AAXX 10184 60559 12960 70000 10141 20066 40238 56001 81034 333 10200 81360 86073
AAXX 10184 60581 12960 60206 10168 20050 40235 53003 60002 82032 333 10215 82360 85073
AAXX 10184 60602 12960 70000 10151 20052 40225 53002 60002 8423/ 333 10172 84843 84360 95990
AAXX 10184 60607 12960 73405 10169 21053 40199 56002 60002 86072 333 10199 86462
AAXX 10184 60640 12960 20910 10195 20003 40226 53007 60002 80002 333 10240 82073
AAXX 10184 60690 NIL
BBXX VRGJ6 10183 99484 70062 41598 72910 10120 20029 40180 51009 703// 86559 22254 04129 20402 329// 40504 5//// 80080
BBXX 46207 10181 99509 71299 46/// /3208 10075 40213 52010 22200 00085 11706 70031 333 91210
AAXX 10181 37279 32594 70000 10056 20044 30146 40292 52011 87500 333 10087
AAXX 10181 37308 326// 80000 10022 20009 39631 40299 52004 8451/ 333 10048
AAXX 10181 37531 329// 63205 10026 20010 39560 40302 52008 80050 333 10055 46003
AAXX 10181 37553 326// 80000 10025 20004 39607 40269 52010 885// 333 10083
AAXX 10181 37651 16/// ///00 10007 20003 3//// 4//// 5//// 60002 333 10070
AAXX 10181 37492 NIL
AAXX 10184 60360 12660 80502 10148 20116 40206 53006 60002 83032 333 10202 83360 85073 95990
AAXX 10184 60390 12960 71803 10140 20112 40217 53008 60002 85032 333 10179 85360 83070 95990
AAXX 10184 60402 12960 70000 10130 20111 40210 53004 60002 83032 333 10183 83359 85073 95900
AAXX 10184 60419 12965 61804 10108 20006 40227 53006 60002 84032 333 10161 84361 85070 95990
AAXX 10184 60475 12965 63210 10110 20023 39270 48531 53005 60002 81032 333 10181 81360 86073 95990
AAXX 10184 60490 12965 62406 10141 20119 40206 52007 60002 83032 333 10184 83360 84073 95990
AAXX 10184 60525 12960 60000 10115 20062 40231 55001 60002 83032 333 10165 83360 85073 95990
AAXX 10184 60531 12465 30000 10133 20110 40215 51004 60002 81632 333 10167 81710 95990
AAXX 10184 60566 12960 60000 10133 20041 40248 53003 60002 83032 333 10178 83360 84070
AAXX 10184 60571 12962 50000 10130 20042 39291 48540 50002 60002 85082 333 10160 85360 95990
AAXX 10184 60580 12660 70805 10151 20085 40232 58003 60002 84234 333 10198 81846 83360
AAXX 10184 60590 12660 70108 10164 20066 40233 52006 60002 875// 333 10199 87640
AAXX 10184 60611 12960 31008 10145 20024 40240 53005 60002 80001 333 10202 83073
AAXX 10184 60620 12660 63410 10183 21036 40211 53006 60002 82230 333 10228 82846 85365
AAXX 10184 60630 12960 62409 10200 20034 40196 53008 60002 83032 333 10245 83362 84075
AAXX 10184 60656 12765 60000 10205 20002 40196 55003 60002 82282 333 10234 82846 83460
AAXX 10184 60670 12970 10000 10153 21001 39124 48555 53012 60002 80001 333 10207 81073 95990
AAXX 10184 60680 12980 31603 10156 21043 38684 48559 53008 60002 80002 333 10226 83073 95990
BBXX SLKQ 10181 99056 11077 43/98 80212 10261 40098 58005 22254 00281 2////4////
AAXX 10184 89002 41498 81112 11036 21049 39595 49649 52017 70272 888//
BBXX 46207 10181 99509 71299 46/// /3208 10075 40213 52010 22200 00085 11706 70031 333 91210
AAXX 10181 40001 32970 03105 10009 21004 40262 53023 333 10062
AAXX 10181 40007 31929 03101 10055 20022 40269 51015 70500 333 10122
AAXX 10181 40025 32965 00803 10062 20029 40258 52014 333 10161
AAXX 10181 40045 32970 02403 10043 20020 40261 52013 333 10123
AAXX 10181 40061 32970 03304 10080 21006 40252 52018 333 10136
AAXX 10181 40080 32965 02101 10050 20001 39527 40253 52016 333 10152
AAXX 10181 40087 NIL
AAXX 10181 40095 NIL
BBXX BATFR05 10184 99053 70002 46/// /2008 10289 20244 40089 53011 22200 00259
BBXX BATFR19 10184 99003 10095 46/// /2316 10270 20242 40083 53014 22200 00292
BBXX BATFR55 10184 99077 30413 44598 60216 10287 20254 40099 70322 84142 22222 00287 209// 31111 412// 512//
BBXX BATFR08 10184 99480 30596 46/// /2025 10034 21021 40177 51011 22223 00064
AAXX 10181 48830 32998 03602 10084 20021 39948 40271 58007 333 58005
AAXX 10181 48808 32498 80000 10096 20080 39985 40283 58003 888// 333 58012 83894 88696
AAXX 10181 48918 32498 70703 10262 20217 30105 40116 58005 878// 222// 00268 2//// 333 58007 82894 86696
AAXX 10181 48917 32998 70505 10270 20191 30096 40102 57011 80008 222// 00278 333 58005 87299
AAXX 10181 48914 32698 70502 10260 20225 30108 40110 58003 875// 333 58003 87696
AAXX 10181 48900 32497 60105 10234 20182 30094 40104 57010 868// 333 58001 82894 84696
BBXX BAREU11 10184 99076 50805 46/// ///// 40143 57015 22274
BBXX A8QJ7 10184 99147 50353 41/98 30508 10270 20241 40096 56020 7//00 83200 22253 20501 3//// 4//// 5//// 80250
BBXX BAREU61 10184 99340 70084 46/// /0109 10171 29064 40224 52008 22253
BBXX BAREU63 10184 99361 10207 46/// /2911 10178 29078 40260 52006 22233
BBXX BAREU05 10184 99377 70005 46/// ///// 40181 52005 22254
BBXX BAREU04 10184 99513 70258 46/// ///// 40131 57003 22224
BBXX BATFR20 10184 99415 10094 44698 30614 10162 20122 40171 70000 8318/ 22244
BBXX BATFR03 10184 99499 70005 46/// /3111 10094 21003 40177 22283
BBXX BATFR54 10184 99472 70039 46/// /0612 10104 20042 40181 51006 22233 00142
BBXX BATFR60 10184 99538 10062 46/// /2628 10044 20024 40091 53024 22263 00089
BBXX BATFR09 10184 99383 10068 44497 72614 10172 20120 40197 70311 8523/ 22222 00192 20000 30000 40000 50000
BBXX BATFR62 10184 99496 70007 46/// /2509 10095 20037 40183 53002 22212 00135
BBXX BATFR24 10184 99433 10054 46/// /2101 10139 20087 40181 22241 00152
BBXX BATFR41 10184 99435 10077 46/// /2317 10157 20112 40156 50002 22272
BBXX BATFR12 10184 99482 70066 46/// /2603 10102 20037 40187 53002 22222 00147
BBXX BATEU09 10184 99435 10088 46/// /2116 10152 20124 40168 50004 22252 00162
BBXX BATFR44 10184 99477 70046 46/// /0707 10107 20024 40186 51008 22221 00125
BBXX BATFR46 10184 99387 10004 44997 11109 10157 20105 40178 52004 70100 81//1 22253 00174 22040
BBXX BATFR16 10184 99476 70127 44097 62416 10117 40180 57009 70011 8657/ 22224 00144 21502 304// 41502 5//// 60/// ICE 0////
BBXX BAREU06 10184 99396 70231 46/// ///// 40263 52002 22264
BBXX BATFR11 10184 99367 10015 46/// /2705 10169 20124 40195 51005 22262 00177
BBXX BATFR61 10184 99477 70053 46/// /1006 10109 20030 40184 51008 22262 00144
BBXX BATEU08 10184 99595 70033 46/// /2510 10044 21025 40012 56017 22223
BBXX BATEU02 10184 99534 70108 46/// /2423 10102 20092 40052 56029 22232 00110
BBXX BATFR01 10184 99400 10122 46/// /2114 10174 20137 40180 51004 22232 00182
BBXX BATEU05 10184 99625 70217 46/// /2314 10042 20014 49796 56032 22262
BBXX BATFR42 10184 99484 70048 46/// /1408 10090 20047 40179 52004 22243 00157
BBXX BATUK01 10184 99580 70032 46/// /2114 10039 21017 40032 50/// 22261 00099
BBXX 61001 10184 99434 10078 46/// /2215 10153 20122 40560 52006 22200 00157 10402 70011
BBXX BAREU08 10184 99163 70713 46/// ///// 40108 57024 22213
BBXX BAREU54 10184 99184 70661 46/// ///// 40112 57020 22222
BBXX FVNM 10184 99063 71030 46/// /1306 10247 20217 40129 58005 22200 00269
BBXX BATEU01 10184 99464 70550 44497 71517 10052 20019 40234 56052 70222 85728 22264 00054 21004 327// 41004 5////
BBXX PHQX 10183 99366 70597 41498 61606 10230 20143 40255 70200 85462 22214 20603 313// 40804 5//// 80175
BBXX PHCQ 10183 99369 70716 41496 83617 10140 20119 40187 56012 76386 87770 22262 04243 20504 334// 41204 5//// 80128
BBXX 41101 10184 99146 70562 46/// /1805 10276 20225 40088 57022 22200 00281 10804 70020
AAXX 10183 41150 42962 09902 10170 20093 40207 333 10143 59003
BBXX SKOZ 10184 99462 70415 43/98 72717 10045 40324 53007 22263 00104 2//// 40504
AAXX 10184 60395 12965 70000 10135 20090 40204 53006 60002 8707/ 333 10162 87360 95990
AAXX 10184 60421 12970 60000 10110 20013 39185 48527 50007 60002 83032 333 10140 83360 85070 95990
AAXX 10184 60423 12965 70000 10108 20036 39235 48508 51004 60002 83032 333 10153 83360 86073 95990
AAXX 10184 60430 12570 62805 10114 20054 40215 56002 60002 84802 333 10150 82826 83633 83073 95990
AAXX 10184 60437 12670 70000 10095 20032 39002 48508 53004 60002 8253/ 333 10132 82640 86360 95900
AAXX 10184 60444 12960 72604 10091 20022 39118 48528 58002 60002 82032 333 10130 82360 86073 95900
AAXX 10184 60452 12565 6//// 10165 20130 40188 51003 60002 83272 222// 20000 333 10194 83823 83460 91827
AAXX 10184 60457 12560 30000 10133 20119 40206 53003 60002 82570 333 10176 82620 95990
AAXX 10184 60514 12560 60000 10081 20054 39314 48542 56002 60002 86500 333 10116 86626 95990
AAXX 10184 60518 12965 50000 10153 20121 40195 53004 60002 82032 222// 20000 333 10188 82360 84073 91807 95990
AAXX 10184 60520 12660 60000 10119 20098 40208 53005 60002 85502 333 10169 85633 95990
AAXX 10184 60540 11560 52206 10108 20055 39064 48526 58004 60002 70210 82230 333 10144 82830 83360 95990
AAXX 10184 60560 11960 70000 10103 20044 38983 48531 51006 60002 70222 85082 333 10134 85360 84073 95990
BBXX 3ERR2 10184 99635 10053 41598 30320 10056 21004 49949 52014 70311 83300 22200 06098 10908 70041 333 91131
BBXX LF3F 10184 99643 10078 43/// /0212 10041 21002 49939 52016 22200 04092 10807 70036 333 91124
BBXX LF3N 10184 99653 10073 41697 70422 10048 21042 49948 52012 70282 8//// 22200 00092 10708 70040
BBXX LF4B 10184 99606 10037 47/98 /3413 10058 49972 52029 700// 22200 00059 10808 70042 333 91129
BBXX LF4C 10184 99584 10019 41497 72922 10055 20033 40017 52025 72586 89/// 22200 00071 10807 70037 333 91137
BBXX LF5T 10184 99660 10081 41/98 /0421 10047 21038 49950 52007 70222 22200 10809 70043 333 91132
AAXX 10184 60353 NIL
AAXX 10184 60367 12565 6//// 10147 20119 40190 58001 60002 83202 333 10187 83820 86070
AAXX 10184 60369 12960 50000 10166 20051 40204 53009 60002 83082 333 10194 83360 91827
AAXX 10184 60401 NIL
AAXX 10184 60403 12960 70000 10134 20064 40212 53008 60002 83032 333 10200 83360 87075 95990
AAXX 10184 60425 12960 60000 10135 20109 40212 53004 60002 84032 333 10161 84360 83073 95990
AAXX 10184 60461 12570 52406 10164 20108 40206 53010 60002 81532 222// 20000 333 10194 81626 83360 91818 95990
AAXX 10184 60467 12970 61206 10112 20050 40230 55000 60002 82032 333 10143 82360 85073 95990
AAXX 10184 60492 12958 40000 10131 20118 40205 52004 60002 84030 333 10179 84360 95990
AAXX 10184 60515 NIL
AAXX 10184 60517 12465 30000 10133 20110 40215 51004 60002 81632 333 10167 81710 95990
AAXX 10184 60522 12970 20000 10123 20098 40212 50002 60002 82030 333 10171 82360 95990
AAXX 10184 60557 11970 51606 10095 20017 38885 48531 54000 60002 70222 83082 333 10141 83360 95990
AAXX 10184 60563 12660 80000 10106 20009 39337 48545 58003 60002 8523/ 333 10161 85830 83360
AAXX 10184 60603 12960 40910 10185 20008 40218 55011 60002 80002 333 10233 84073
AAXX 10184 60638 12958 6//// 10188 20034 40227 53005 60002 80002 333 10229 86073
AAXX 10184 60686 NIL
AAXX 10181 01025 17/84 00504 11003 21042 39971 49982 57004 60002 700// 333 10000 91109
AAXX 10181 01311 47/64 60301 10010 20009 39898 49960 53028 700// 333 10034 91106
AAXX 10181 01494 17/82 13101 11021 21028 39856 49922 53034 60002 700// 333 10033 91106
AAXX 10181 48919 11498 70514 10259 20231 30072 40094 58007 69941 72582 8291/ 22200 02274 333 58000 81894 8299 5 87499 91118 91505
AAXX 10181 48916 32598 73602 10270 20205 30056 40103 58004 878// 333 58002 83895 87696
BBXX BATFR59 10184 99198 31670 46/// /0411 10269 20235 40093 55/// 22231 00272
BBXX BATEU07 10184 99349 31512 46/// /3621 10195 40032 55010 22282
BBXX BATFR56 10184 99001 30864 44998 33108 10284 20245 40109 50/// 70100 83100 22252 00302
BBXX BATFR47 10184 99280 51377 44896 52613 10222 20147 40133 51012 72522 84568 22252 20606 32736 40406 50504
AAXX 10183 87480 32965 03609 10319 20151 30054 40083 57020
AAXX 10183 87532 32670 53602 10354 20143 39878 40039 57021 85100 333 56400 85841
AAXX 10184 87344 32965 00214 10335 20098 39533 40059 57023
AAXX 10184 87349 31960 00208 10324 20100 39680 40057 57031 70500
AAXX 10184 87371 32962 00508 10316 20170 30070 40092 57021
AAXX 10184 87374 32965 03606 10310 20147 30002 40087 57020
AAXX 10184 87395 32965 00508 10304 20147 30056 40100 57021
AAXX 10184 87418 32665 10904 10334 20122 39254 40013 57024 81200 333 56600 57862 81840
AAXX 10184 87436 32670 23410 10324 20137 39261 40034 57019 82100 333 56800 82840
AAXX 10184 87448 32565 20516 10364 20141 39500 40036 57023 81170 333 56570 81830
AAXX 10184 87453 32965 03620 10327 20098 39578 40045 57020
AAXX 10184 87467 32970 03614 10342 20163 39940 40070 57024
AAXX 10184 87497 32965 03608 10308 20138 30069 40096 57023
AAXX 10184 87506 32570 42305 10290 20041 38528 48454 57019 84800 333 56600 82632 83836 95030
AAXX 10184 87509 32570 41405 10304 20098 39222 40043 57021 83360 333 56870 57970 82830 81950
AAXX 10184 87534 31958 03616 10347 20110 39900 40055 57021 70700
AAXX 10184 87548 32965 03614 10340 20108 39986 40079 57020
AAXX 10184 87576 32760 10511 10312 20143 30078 40102 57019 81100 333 56100 81850
AAXX 10184 87582 32960 00705 10280 20160 30098 40106 57021
AAXX 10184 87585 32460 10000 10300 20162 30070 40099 57021 81100 333 56100 81815
AAXX 10181 22282 NIL
AAXX 10181 22438 NIL
AAXX 10181 22471 11478 81806 11047 21075 30053 40078 56016 69900 78583 889// 333 11040 88914
AAXX 10181 22563 11497 81704 11056 21074 30037 40076 57017 69920 70272 885// 333 11039 88610
AAXX 10181 22641 11397 81204 11035 21046 39991 40007 57021 69900 77173 8872/ 333 11032 86707 91109
AAXX 10181 22695 11498 81603 11081 21104 39993 40152 57010 69930 70273 887// 333 11045 87710
AAXX 10181 22867 11397 81503 11041 21057 39956 40071 57019 60020 77172 8872/ 333 11042 86708 91108
AAXX 10181 22939 11496 81605 11014 21025 39846 40009 57016 60010 77173 8672/ 333 11014 86713
AAXX 10181 22996 12998 71704 11082 21105 39996 40194 57010 69900 87010 333 11071
AAXX 10181 23324 32975 81004 11093 21105 30162 40244 57029 80007 333 11053
AAXX 10181 27008 11397 81604 11003 21006 39827 49997 57010 60020 77173 8872/ 333 11007
AAXX 10181 27051 11496 81605 11042 21054 39924 40094 57017 60020 77173 8652/ 333 11048 85711
AAXX 10181 27225 11457 82005 11008 21015 39922 40054 57011 69970 77172 8872/ 333 11011 88716
AAXX 10181 27252 11498 81604 11042 21054 39935 40126 57013 69920 70272 885// 333 11053 88618
AAXX 10181 27333 NIL
AAXX 10181 27369 11697 81704 11062 21077 30030 40173 57019 69930 70272 8802/ 333 11057
AAXX 10181 27393 32998 80204 11110 21130 30054 40231 57010 8805/ 333 11093
AAXX 10181 27479 11998 81402 11078 21100 30060 40200 57015 60020 77172 8807/ 333 11077
AAXX 10181 27532 11294 81804 11002 21005 39886 40101 57009 69900 77387 8872/ 333 11006 86703
AAXX 10181 27648 11997 81803 11010 21023 39983 40154 57010 69900 73632 8803/ 333 11013
AAXX 10181 27675 32597 71304 11084 21094 30037 40215 57011 60030 87500 333 11086
AAXX 10181 27679 12598 81705 11092 21099 39995 40230 57007 60020 885// 333 11092 88623
AAXX 10181 28214 32996 81203 11112 21125 30033 40258 57009 8805/ 333 11102
AAXX 10181 22165 NIL
AAXX 10181 22676 11484 81404 11064 21080 30029 40109 57013 60010 70272 885// 333 11035
AAXX 10181 22837 11430 81004 11012 21019 39914 49984 57014 69980 77372 8472/ 333 11010
AAXX 10181 22954 11295 81605 11028 21035 39798 40049 57017 69950 77373 8872/ 333 11027 86704
AAXX 10181 23405 11570 61505 11071 21096 30057 40160 57016 69930 70273 85530 333 11056 85623
AAXX 10181 23412 12599 60905 11062 21077 30107 40207 57034 69900 86500 333 11061 86631
AAXX 10181 23803 11999 81303 11101 21114 30032 40221 57009 69900 70273 8805/ 333 11076
AAXX 10181 27066 11498 81702 11061 21072 39962 40145 57018 69950 70272 888// 333 11067 88713
AAXX 10181 27083 11459 81402 11080 21102 39952 40185 57012 69900 77172 8802/ 333 11074
AAXX 10181 27113 11356 81805 11009 21022 39880 40027 57015 60010 77173 8872/ 333 11011 86707
AAXX 10181 27242 11497 81604 11018 21023 39957 40087 57024 60010 78582 889// 333 11015 87711 91010
AAXX 10181 27329 11432 81904 11005 21008 39945 40071 57009 69920 77372 8872/ 333 11004
AAXX 10181 27355 12497 81605 11030 21043 39980 40148 57007 69920 885// 333 11031
AAXX 10181 27373 11496 81405 11083 21102 39958 40185 57012 69940 70272 886// 333 11072 88714
AAXX 10181 27665 32997 81703 11064 21087 39915 40196 57015 8807/ 333 11066
AAXX 10181 27835 319// 81804 10002 21012 39999 40160 57012 71022 8802/ 333 10005
AAXX 10181 28009 32998 81803 11097 21114 30015 40235 57008 8801/ 333 11077
AAXX 10181 28411 32997 31502 11145 21165 30069 40278 57005 80001 333 11093
AAXX 10181 28418 32998 60000 11127 21140 30108 40286 58005 80003 333 11085
AAXX 10184 41241 36/// /2004 10210 20060 30147 40185 333 0E024 10278 59008
AAXX 10184 41254 36/// /2706 10111 21196 37963 47967 333 0E006 10207 59004
AAXX 10184 41259 36/// /1210 10100 21242 37151 40332 333 0E/// 10154 58003
AAXX 10181 34560 11/03 92302 11012 21012 30084 40255 52002 69900 74374 333 11012 89/02 93401
AAXX 10181 34720 32999 21704 10011 21002 30215 40256 57007 80005 333 10026
AAXX 10181 34730 12497 71603 10007 21016 30169 40264 57004 69900 87500 333 10010 87617
AAXX 10181 34740 32598 82603 11001 21024 30179 40279 50001 885// 333 10027
AAXX 10181 34824 31596 81603 10018 20006 30250 40255 57007 71011 8850/ 333 10061
AAXX 10181 34858 31496 83002 10006 21017 30171 40281 52003 71022 886// 333 10041
AAXX 10181 34866 32998 82702 10024 20018 30275 40266 52012 8007/ 333 10021
AAXX 10181 34880 11496 82803 11016 21030 30283 40256 51006 69920 72272 8672/ 333 11012 88411
AAXX 10181 37018 32698 50401 10039 20018 30207 40285 52003 83530 333 10116
AAXX 10181 37054 32697 22901 11022 21026 39898 40298 52003 82500 333 10040
AAXX 10181 37472 31596 83103 10051 20017 30303 40280 51008 71022 8357/ 333 10075
AAXX 10181 30673 42999 41601 11251 21251 39367 40203 52004 80006
AAXX 10183 64800 NIL
AAXX 10183 64820 NIL
AAXX 10183 64860 31915 70000 10270 20046 39828 40099 70622 80002 333 10326 58012 87080
AAXX 10183 64861 NIL
AAXX 10183 64870 32958 70202 10188 20050 38904 48493 70522 80002 333 10288 58012 87080
AAXX 10183 64871 NIL
AAXX 10183 64892 NIL
AAXX 10183 64893 NIL
AAXX 10183 64894 NIL
AAXX 10184 64910 32460 60000 10280 20252 30076 40085 83302 333 10330 58004 83616 81920 86080 94945 95835
AAXX 10184 64911 NIL
AAXX 10184 64950 NIL
BBXX 3FZK3 10184 99476 11569 46/// /2419 11001 21021 40036 58014 7//// 8//// 22213 0//// 2////
BBXX C6SI6 10184 99457 11525 46/// /2327 11005 21013 40063 50009 7//// 8//// 22253 0//// 2////
BBXX DMRX 10184 99444 11535 41598 23010 10027 21016 40104 57020 70122 824// 22214 00060 20102 32216 40608 50406 80010
BBXX WCX8882 10184 99551 11721 43/// ///// 1//// 2//// 4//// 5//// 7//// 8//// 22211 0//// 2//// 3//// 4//// 5//// 6//// ICE /////
AAXX 10181 40703 11540 80000 11006 21018 38963 40277 52020 69991 71072 8662/ 333 55000 83720 83635 88458
AAXX 10181 40712 11/01 90000 11034 21038 38700 40254 52014 69921 74544 333 55000 21148 89/05
AAXX 10181 40729 12660 50000 10012 21054 38341 40203 51003 60001 85400 333 55057 85635
AAXX 10181 40736 12560 70000 10110 20067 30258 40232 52023 60001 84670 333 55038 84720 87359
AAXX 10181 40739 12965 00000 10002 21043 38717 40244 56006 60001 333 55088
AAXX 10181 40743 12965 00502 10050 21038 39101 40235 56003 60001 333 55084
AAXX 10181 40762 12965 03303 11008 21113 38589 40237 58006 60001 333 55086
AAXX 10181 40768 12660 32402 10064 21056 38261 40165 52007 60001 83400 333 55080 20102 83640
AAXX 10181 40769 12662 11804 10098 21027 38307 40167 58002 60001 81500 333 55083 2////
AAXX 10181 40785 12960 00000 10044 21001 39106 40224 58003 60001 333 55082
AAXX 10181 40809 12965 40902 10040 21165 38541 40222 58001 60001 80002 333 55080 21206 84070
AAXX 10181 40821 12960 12103 10056 21063 38813 40224 58003 60001 80001 333 55088 21135
AAXX 10181 40831 12960 40000 10124 21019 30208 40216 53011 60001 84030 333 55079 84360
AAXX 10181 40701 11556 60000 11024 21027 38624 40271 52011 69961 71072 86600 333 55000 83720 84635
AAXX 10181 40704 11410 82802 11018 21020 38639 40256 52018 60061 77377 8372X 333 55025 20347 83715 88558
AAXX 10181 40708 11230 70506 11014 21016 38685 40246 51004 60051 77177 85720 333 55052 20728 85706 87557
AAXX 10181 40710 11665 81102 11008 21026 38320 40214 50002 60011 70272 8452X 333 55045 84635 88458
AAXX 10181 40713 11635 82402 10004 21006 38682 40222 52017 60041 72287 8532/ 333 55026 82935 83640 88458
AAXX 10181 40731 11558 81102 10042 21002 38758 40224 50019 69901 76082 8332/ 333 55062 20900 81930 82635 88558
AAXX 10181 40740 12960 00000 11054 21071 38754 40254 57008 60001 333 55089
AAXX 10181 40747 12965 01803 10038 21071 38643 40189 51018 60001 333 55069 20987
AAXX 10181 40757 12662 63602 10042 21009 38930 40232 50001 60001 81552 333 55084 21124 81635 85070
AAXX 10181 40763 12965 00000 10054 21087 38954 40236 50004 60001 333 55090
AAXX 10181 40782 12660 60000 10098 21019 38906 40215 53007 60001 84530 333 55039 84635 86358
AAXX 10181 40783 12662 31708 10060 21022 38001 40171 50000 60001 83500 333 55060 83640
AAXX 10181 40789 12965 00000 10044 21026 39232 40227 57007 60001 333 55090 21284
AAXX 10181 40798 12960 02605 10044 21031 37995 40228 54000 60001 333 55085 21332
AAXX 10181 40818 12970 12803 10062 21136 38014 40215 51008 60001 80002 333 55093 81070
AAXX 10181 40827 12965 40000 10036 21072 38885 40284 56002 60001 80002 333 55093 84069
AAXX 10181 40836 12966 00000 10036 21129 38242 40262 52008 60001 333 55092 21418
AAXX 10181 40851 12960 21103 10070 21113 38304 40213 52009 60001 80001 333 55086 82070
AAXX 10181 40853 12960 13603 10072 21203 37794 40190 52005 60001 80001 333 55096 81070
AAXX 10181 40854 12960 22802 10092 21111 38984 40194 50002 60001 80001 333 55086 82070
AAXX 10181 40857 11957 20302 10170 20142 30197 40207 52009 60001 80002 222// 00/// 20301 333 55087 83070
AAXX 10181 40859 12962 30000 10038 21052 38756 40216 51012 60001 80001 333 55095 83070
AAXX 10181 40878 12965 00000 10078 21236 38889 40245 58002 60001 333 55100
AAXX 10181 40879 12962 03602 10128 21169 39525 40209 51009 60001 333 5100
AAXX 10181 40883 12960 03402 10176 20067 30162 40185 51005 60001 333 55099
AAXX 10181 40703 11540 80000 11006 21018 38963 40277 52020 69991 71072 8662/ 333 55000 83720 83635 88458
AAXX 10181 40712 11/01 90000 11034 21038 38700 40254 52014 69921 74544 333 55000 21148 89/05
AAXX 10181 40729 12660 50000 10012 21054 38341 40203 51003 60001 85400 333 55057 85635
AAXX 10181 40736 12560 70000 10110 20067 30258 40232 52023 60001 84670 333 55038 84720 87359
AAXX 10181 40739 12965 00000 10002 21043 38717 40244 56006 60001 333 55088
AAXX 10181 40743 12965 00502 10050 21038 39101 40235 56003 60001 333 55084
AAXX 10181 40762 12965 03303 11008 21113 38589 40237 58006 60001 333 55086
AAXX 10181 40768 12660 32402 10064 21056 38261 40165 52007 60001 83400 333 55080 20102 83640
AAXX 10181 40769 12662 11804 10098 21027 38307 40167 58002 60001 81500 333 55083 2////
AAXX 10181 40785 12960 00000 10044 21001 39106 40224 58003 60001 333 55082
AAXX 10181 40809 12965 40902 10040 21165 38541 40222 58001 60001 80002 333 55080 21206 84070
AAXX 10181 40821 12960 12103 10056 21063 38813 40224 58003 60001 80001 333 55088 21135
AAXX 10181 40831 12960 40000 10124 21019 30208 40216 53011 60001 84030 333 55079 84360
AAXX 10181 40701 11556 60000 11024 21027 38624 40271 52011 69961 71072 86600 333 55000 83720 84635
AAXX 10181 40704 11410 82802 11018 21020 38639 40256 52018 60061 77377 8372X 333 55025 20347 83715 88558
AAXX 10181 40708 11230 70506 11014 21016 38685 40246 51004 60051 77177 85720 333 55052 20728 85706 87557
AAXX 10181 40710 11665 81102 11008 21026 38320 40214 50002 60011 70272 8452X 333 55045 84635 88458
AAXX 10181 40713 11635 82402 10004 21006 38682 40222 52017 60041 72287 8532/ 333 55026 82935 83640 88458
AAXX 10181 40731 11558 81102 10042 21002 38758 40224 50019 69901 76082 8332/ 333 55062 20900 81930 82635 88558
AAXX 10181 40740 12960 00000 11054 21071 38754 40254 57008 60001 333 55089
AAXX 10181 40747 12965 01803 10038 21071 38643 40189 51018 60001 333 55069 20987
AAXX 10181 40757 12662 63602 10042 21009 38930 40232 50001 60001 81552 333 55084 21124 81635 85070
AAXX 10181 40763 12965 00000 10054 21087 38954 40236 50004 60001 333 55090
AAXX 10181 40782 12660 60000 10098 21019 38906 40215 53007 60001 84530 333 55039 84635 86358
AAXX 10181 40783 12662 31708 10060 21022 38001 40171 50000 60001 83500 333 55060 83640
AAXX 10181 40789 12965 00000 10044 21026 39232 40227 57007 60001 333 55090 21284
AAXX 10181 40798 12960 02605 10044 21031 37995 40228 54000 60001 333 55085 21332
AAXX 10181 40818 12970 12803 10062 21136 38014 40215 51008 60001 80002 333 55093 81070
AAXX 10181 40827 12965 40000 10036 21072 38885 40284 56002 60001 80002 333 55093 84069
AAXX 10181 40836 12966 00000 10036 21129 38242 40262 52008 60001 333 55092 21418
AAXX 10181 40851 12960 21103 10070 21113 38304 40213 52009 60001 80001 333 55086 82070
AAXX 10181 40853 12960 13603 10072 21203 37794 40190 52005 60001 80001 333 55096 81070
AAXX 10181 40854 12960 22802 10092 21111 38984 40194 50002 60001 80001 333 55086 82070
AAXX 10181 40857 11957 20302 10170 20142 30197 40207 52009 60001 80002 222// 00/// 20301 333 55087 83070
AAXX 10181 40859 12962 30000 10038 21052 38756 40216 51012 60001 80001 333 55095 83070
AAXX 10181 40878 12965 00000 10078 21236 38889 40245 58002 60001 333 55100
AAXX 10181 40879 12962 03602 10128 21169 39525 40209 51009 60001 333 5100
AAXX 10181 40883 12960 03402 10176 20067 30162 40185 51005 60001 333 55099
AAXX 10181 50844 32962 00000 11158 21179 40176 52010 333 11032
AAXX 10181 50854 32970 02501 11153 21177 40173 52009 333 11054
AAXX 10181 50968 11662 72203 11092 21103 40187 52002 69941 77070 875// 333 11080
AAXX 10181 51379 32980 71602 11130 21160 40353 57005 80002 333 05151 11034
AAXX 10181 51467 32980 00000 11119 21163 38321 57002 333 05452 11025
AAXX 10181 51495 32980 73605 11051 21169 40372 57008 80002 333 05302 11002
AAXX 10181 53480 32980 02505 11099 21145 40343 54000 333 11050
AAXX 10181 53673 32961 02901 11094 21130 40364 57005 333 11014
AAXX 10181 53698 32962 02501 10027 21109 40290 57007 333 10080
AAXX 10181 53898 32964 00000 11038 21056 40303 57007 333 10076
AAXX 10181 54308 32980 03201 11067 21116 40277 52002 333 11003
AAXX 10181 54602 32962 02001 11033 21074 40270 57005 333 10062
AAXX 10181 54725 32965 02504 11014 21082 40294 57005 333 10036
AAXX 10181 54751 32970 02708 10035 21054 40271 57002 333 10035
AAXX 10181 54916 32960 01601 11050 21062 40315 57007 333 10037
AAXX 10181 57014 32965 13401 11074 21096 40360 57009 80002 333 05855 10026
AAXX 10181 57025 32974 03602 11056 21098 40360 57011 333 10036
AAXX 10181 57046 32974 00701 11076 21238 37990 57010 333 05305 11073
AAXX 10181 58208 32962 71601 11029 21037 40331 57011 80002 333 10062
AAXX 10181 08501 NIL
AAXX 10181 08505 12475 72804 10170 20137 30242 40292 55001 69912 83842 333 10185 82815 87070 555 60007
AAXX 10181 08506 32/// /9902 10168 20132 30228 40300 57001 333 10192 555 60005
AAXX 10181 08509 32560 52805 10172 20140 30223 40288 55004 83871 333 10188 81823 83070 555 60007
AAXX 10181 08511 32/// /2602 10159 20131 30182 40290 54000 333 10175 91106 555 60005
AAXX 10181 08512 32580 63104 10159 20123 30199 40285 54000 82802 333 10177 81820 85070 91107 555 60005
AAXX 10181 08515 32482 43104 10168 20150 30166 40288 55001 84801 333 10180 83818 910// 911// 555 60007 912//
AAXX 10181 08521 31470 50302 10185 20129 30177 40248 53011 71611 85800 333 10215 84815 91005 555 60007
AAXX 10181 08522 32/// /9901 10190 20122 30178 40246 54000 333 10218 555 60005
AAXX 10181 08524 32470 50104 10171 20141 30150 40248 54000 85800 333 10195 84815 91108 555 60005
AAXX 10181 08530 NIL
AAXX 10181 08531 12/// /3203 10143 20093 30153 40191 52007 60042 333 10159 91007 91110 555 60005
AAXX 10181 08532 NIL
AAXX 10181 08533 12/// /3105 10158 20138 30173 40202 57001 69942 333 10178 91108 555 60005
AAXX 10181 08534 11460 63402 10130 20123 30176 40194 52009 60052 70362 87800 333 10150 82810 84818 555 60007
AAXX 10181 08535 NIL
AAXX 10181 08537 NIL
AAXX 10181 08540 11460 73002 10122 20100 30113 40182 52005 60132 70362 8683/ 333 10144 83816 85630 555 60007
AAXX 10181 08541 12/// /3105 10133 20114 30078 40197 52004 60042 333 10151 91008 91108 555 60005
AAXX 10181 08544 11357 82404 10124 20113 30143 40163 58002 60192 78082 888// 333 10144 83708 85815 85630 91007 91108 555 60077 90213 96681 90305
AAXX 10181 08545 NIL
AAXX 10181 08548 12/// /2101 10107 20101 39979 40185 52007 60212 333 10116 555 69925
AAXX 10181 08551 12/// /9903 10110 20102 30091 40149 57003 60202 333 10131 91006 91106 555 60025
AAXX 10181 08554 NIL
AAXX 10181 08558 12/// /2603 10115 20115 39892 40186 54000 60052 333 10118 91106 555 60015
AAXX 10181 08560 12/// /2102 10074 20068 39421 40184 52008 60152 333 10091 555 60005
AAXX 10181 08561 11365 82204 10130 20127 39956 40188 57005 60012 72165 888// 333 10134 84708 85812 85820 555 60027
AAXX 10181 08562 12/// /2204 10123 20117 39893 40186 57005 60042 333 10127 91106 555 69915
AAXX 10181 08567 12/// /1801 10077 20070 39512 40180 52008 60172 333 10094 555 69935
AAXX 10181 08568 12/// /9903 10022 20022 38612 48485 52005 60222 333 10049 91107 555 69935
AAXX 10181 08570 11258 89902 10066 20066 39730 40196 52003 60102 72164 8277/ 333 10072 82706 87458 91105 96010 555 69915
AAXX 10181 08571 NIL
AAXX 10181 08575 12/// /1701 10071 20065 39365 40180 52005 60082 333 10080 555 60005
AAXX 10181 08579 12/// /36// 10125 20100 30071 40196 52013 60042 333 10148 555 60005
AAXX 10181 60370 36/// /2101 10150 20113 333 10185
AAXX 10181 60371 16/// /1701 10149 20115 69922 333 10187
AAXX 10181 60372 16/// /0000 10128 20116 69922 333 10166
AAXX 10181 60373 NIL
AAXX 10181 60374 NIL
AAXX 10181 60376 NIL
AAXX 10181 60379 NIL
AAXX 10181 60380 NIL
AAXX 10181 60381 NIL
AAXX 10181 60393 NIL
AAXX 10181 60394 NIL
AAXX 10181 60593 NIL
AAXX 10181 60595 NIL
AAXX 10181 60605 NIL
AAXX 10181 60613 NIL
AAXX 10181 60623 NIL
AAXX 10184 60624 36/// /0000 10212 21066 333 10239
AAXX 10184 60639 NIL
AAXX 10184 60645 36/// /0000 10212 21020 333 10250
AAXX 10181 14235 12760 2//// 10055 20047 39006 48465 52004 60002 82030 333 10084
AAXX 10181 14246 11965 13302 10044 20031 39955 40161 52/// 60002 700// 81030 333 10153
AAXX 10181 14314 12660 83401 10138 20110 30111 40175 57/// 69952 8487/ 333 10158 92301 92417
AAXX 10181 14323 11668 83501 10138 20115 30137 40170 53/// 69972 702// 885// 333 10159 92311 92417
AAXX 10181 14324 11/00 92711 10018 20018 38396 48498 53/// 60092 760// 333 10032 41998
AAXX 10181 14328 11565 70701 10121 20070 39764 40153 51/// 69982 7006/ 87800 333 10139
AAXX 10181 14330 12560 62303 10112 20056 39508 40165 52/// 69992 86500 333 10123
AAXX 10181 14438 11580 61001 10146 20113 30088 40178 53/// 69912 702// 86800 333 10165 923//
AAXX 10181 14443 NIL
AAXX 10181 14447 12584 61003 10158 20126 30157 40187 54/// 60002 83270 333 10185 92322
AAXX 10181 14472 12670 81607 10156 20125 30127 40190 54000 69942 8227/ 333 10156 92323
AAXX 10181 03980 17869 /2011 10058 20044 30012 40037 57027 69952 7035/ 87/// 333 10069 87/57
AAXX 10181 40716 11660 72902 10028 21008 38928 40232 51008 69901 70362 82570 333 55051 82640 87459
AAXX 10181 40719 11420 82703 10086 20082 30267 40256 51012 60101 76386 8732/ 333 55000 83915 84620 88557
AAXX 10181 40721 11558 22107 10074 20047 39663 40206 53008 60001 71000 82700 333 55088 82725
AAXX 10181 40858 12960 03602 10180 20142 30193 40204 51007 60001 333 88088
AAXX 10181 40872 12960 00000 10168 20091 30189 40194 51008 60001 222// 00/// 20000 333 55096
AAXX 10181 40877 12960 00000 10098 21042 39614 40168 57008 60001 333 55098
AAXX 10181 40898 12960 02902 10194 20082 30168 40177 51008 60001 222// 00250 10900 333 55100 2////
AAXX 10181 40700 11630 83603 10044 20034 30184 40275 51015 69981 76162 8452/ 333 55034 84635 88557
AAXX 10181 40723 12960 00000 11002 21056 38932 40236 58012 60001 333 55085 21131
AAXX 10181 40726 11556 60000 10022 21026 38675 40215 530WE 69931 70576 84370 333 55012 82930 82635 85458
AAXX 10181 40727 11660 62605 10022 21032 38484 40213 52014 69911 70171 86500 333 55015 20396 86640
AAXX 10181 40734 11456 80000 10094 20086 30268 40242 52026 60051 76162 8732/ 333 55042 85712 82925 88558
AAXX 10181 40737 12560 80000 10096 20092 30217 40235 52025 60001 8572/ 333 55052 2//// 82720 83722 88457
AAXX 10181 40741 11920 00000 10024 20023 39890 40238 57016 60001 71000 333 55033
AAXX 10181 40780 12960 01602 10046 21063 38729 40233 52009 60001 82030 333 55081 21162 82360
AAXX 10181 40791 12962 00602 10062 21109 39383 40223 51001 60001 333 55090 2////
AAXX 10181 40792 12970 00702 10042 21114 38744 40211 58008 60001 333 55095
AAXX 10181 40794 12960 60000 10136 20084 30113 40212 51005 60001 86050 91740 333 55041 20717 86360
AAXX 10181 40812 12660 60000 10156 20047 39823 40201 51009 60001 83430 333 55050 83640 86359
AAXX 10181 40829 12960 00000 10056 21129 39657 40247 58001 60001 333 55090
AAXX 10181 40833 12960 20000 10136 20075 30182 40215 52007 60001 82030 333 55087 82360
AAXX 10181 40835 12960 00000 10106 20025 39379 40220 52006 60001 333 55085
AAXX 10181 40845 NIL
AAXX 10181 40882 12965 03002 10196 20137 30150 40185 51008 60001 333 55100
AAXX 10181 40889 NIL
AAXX 10181 40890 NIL
AAXX 10181 40893 12960 03305 10218 20139 30177 40183 51005 60001 222// 00/// 20501 333 55099
AAXX 10181 40897 NIL
BBXX MINFR09 1018/ 99320 31157 46/// ///// 40110 57015
BBXX FLAO 1018/ 99764 70847 46/// ///// 11248 40026 52004
AAXX 10184 89022 42983 12006 11041 21071 39723 49760 52014 81030 333 81360
AAXX 10184 89062 41450 82804 10004 21019 39669 49709 57025 78587 8867/ 333 84710 88462
AAXX 10181 23909 32998 81804 11111 21128 39981 40243 57007 86016 333 11099
AAXX 10181 28044 32997 01001 11119 21136 30118 40291 57013 333 11098
AAXX 10181 28116 32898 61703 11111 21136 30016 40261 57010 86030 333 11090
AAXX 10181 28240 32998 01401 11122 21148 39966 40310 55003 333 11058
AAXX 10181 28522 32997 71801 11144 21161 30031 40308 58007 84075 333 11108
AAXX 10181 28621 32997 51401 11133 21153 30048 40297 58002 80001 333 11098
AAXX 10181 29023 42998 62302 11179 21198 30209 40314 57017 80002
AAXX 10181 29122 42999 02102 11201 21214 30251 40331 57012
AAXX 10181 29328 41398 80000 11120 21125 30205 40353 57008 78582 8691/ 333 84709
AAXX 10181 29348 41996 80000 11085 21087 30193 40344 57009 77172 8802/
AAXX 10181 29405 42997 00000 11208 21227 30209 40370 57004
AAXX 10181 29418 42998 00000 11238 21263 30190 40367 57006
AAXX 10181 29430 42498 80000 11073 21032 30155 40338 57010 886// 333 88713
AAXX 10181 29524 41996 00000 11202 21214 30183 40362 57005 71000
AAXX 10181 29605 42998 00202 11183 21189 30190 40345 58010
AAXX 10181 29631 42597 80502 11081 21080 30143 40337 58010 8802/
AAXX 10181 29645 41995 20000 11226 21244 30146 40353 58007 70400 80001
AAXX 10181 29706 42998 00703 11198 21217 30175 40336 57009
AAXX 10181 29736 41996 00000 11258 21276 30077 40357 54000 71000
AAXX 10181 29937 41996 00000 11202 21228 30096 40339 58007 71000
AAXX 10181 36034 42998 30401 11208 21227 30034 40336 57004 80001
AAXX 10181 36096 41996 70702 11227 21246 39630 40489 54000 77172 80005 333 95090
AAXX 10184 87222 32770 13619 10351 20128 39509 40006 57024 81400 333 56600 81650
AAXX 10183 87016 32462 53604 10334 20195 39642 40034 56023 83206 333 56807 83815
AAXX 10183 87896 32580 72524 10206 20054 39878 49972 52008 86408 333 56606 86625
AAXX 10184 04203 46/// /3015 11143 21170 39949 49967 57006
AAXX 10184 04205 45/84 /1501 11190 21259 39948 49971 57003 333 11160 21210
AAXX 10184 04208 46/// /3408 11091 21123 39880 49926 52004
AAXX 10184 04213 46/// /1517 11052 21168 39790 49899 52003 333 11047 21062
AAXX 10184 04214 46/// /1309 11042 21110 39860 49893 54000
AAXX 10184 04224 45683 81405 11047 21123 39852 49885 52008 333 11034 21053 88/47
AAXX 10184 04228 NIL
AAXX 10184 04242 46/// /1420 11015 21031 39866 49882 54000
AAXX 10184 04253 46/// /1514 11020 21050 39902 49929 52012
AAXX 10184 04266 46/// /2909 11006 21033 39899 49937 52020
AAXX 10184 04285 46/// /2812 11004 21026 39921 49940 52038
AAXX 10184 04301 46/// /2605 11299 21343 30018 40023 52003
AAXX 10184 04313 46/// /1805 11216 21245 30026 40038 57012
AAXX 10184 04330 46/// /1002 11181 21261 30015 40033 57015
AAXX 10184 04351 46/// /3606 11032 21119 39961 49977 57022
AAXX 10184 04373 46/// /3118 11053 21126 39869 49963 57019
AAXX 10184 04382 46/// /3326 11030 21068 39887 49936 52048 333 91039
AAXX 10184 04416 NIL
AAXX 10183 87791 32580 32712 10300 20068 30030 40039 57009 83202 333 56000 57810 83825
AAXX 10184 87593 32960 00510 10283 20152 30090 40118 57009
AAXX 10184 87623 32680 72005 10330 20154 39830 40043 57016 85962 333 56765 57990 84635 82956
AAXX 10184 87641 32565 60512 10320 20133 39902 40071 57031 86800 333 56800 84625 84827
AAXX 10184 87645 32570 63614 10294 20144 39878 40078 57036 86800 333 56500 84820
AAXX 10184 87648 NIL
AAXX 10184 87692 11560 73616 10232 20195 30074 40099 57037 60071 70362 82570 333 56860 82620 85360
AAXX 10184 87715 32670 22721 10302 20002 39748 40052 57019 82100 333 56600 82845
AAXX 10184 87750 31658 32710 10314 20109 39960 40055 56005 70400 83201 333 56506 57851 83840
AAXX 10184 87765 31557 52922 10158 20002 39157 48463 52007 70422 85500 333 56600 85625 96104 96120
AAXX 10184 87784 31670 32716 10327 20048 30013 40037 57021 70400 83200 333 56000 57878 83835
AAXX 10184 87800 NIL
AAXX 10184 87803 32680 52718 10144 20008 39166 40070 52008 81845 333 56666 57391 81635
AAXX 10184 87828 31560 62312 10278 20014 39964 40013 57016 70411 86800 333 56200 82832 84634
AAXX 10184 87860 31670 72723 10231 21030 39950 40004 55003 70711 83106 333 56607 83835 87070
AAXX 10184 87904 32680 32718 10088 20016 39746 49990 52032 83800 333 56600 82640
AAXX 10184 87909 32680 42330 10202 21071 39886 49958 51005 84100 333 56000 84840
AAXX 10184 87925 31570 72734 10144 21082 39890 49913 51008 71522 83214 333 56600 57800 83825
AAXX 10184 87938 11556 72528 10057 20020 39772 49840 57007 69951 76362 85820 333 56550 85825 87540
AAXX 10184 87078 32770 41802 10350 20164 39925 40072 57023 84100 333 56400 84850
AAXX 10184 87244 32970 00502 10322 20169 39682 4//// 5////
AAXX 10184 87393 32570 11403 10308 20142 30036 40097 57020 81100 333 56300 81828
AAXX 10184 87416 32665 10905 10345 20158 39301 40013 57029 81100 333 56000 81835
AAXX 10184 87563 32565 43208 10314 20119 30037 40078 56018 84100 333 56000 84825
AAXX 10184 87640 32565 43216 10343 20168 39962 4//// 57021 81506 333 56806 81620 83270
AAXX 10184 87688 NIL
AAXX 10184 87774 31/05 92730 10210 20059 39079 48434 5//// 70711 333 69/04
AAXX 10184 87852 32584 22526 10158 21039 39518 40015 53015 81140 333 56660 57349 81830
AAXX 10181 34357 32598 82301 11011 21030 30086 40246 54001 885// 333 10001
AAXX 10181 34363 11397 80901 11078 21086 30104 40265 52005 69930 78582 883// 333 11074
AAXX 10181 34545 12498 82402 11007 21021 30147 40262 50002 69900 886// 333 10016
AAXX 10181 34579 32998 73402 11066 21085 30210 40256 52002 80002 333 11044
AAXX 10181 34838 32997 00102 11006 21015 30177 40276 57006 333 10013
AAXX 10181 34927 32997 51801 10032 20003 30236 40274 57004 80030 333 10059
AAXX 10181 34949 11470 22502 11033 21042 39722 40290 54001 69900 70254 81501 333 10009 93401
AAXX 10181 37001 11997 32108 10084 20016 30217 40258 57004 69910 70181 83030 333 10080
AAXX 10181 37031 32997 01501 11012 21017 30085 40287 54000 333 10019
AAXX 10181 37061 11559 83103 10014 21004 30114 40285 52004 69910 71022 885// 333 10047
AAXX 10181 37085 12596 72803 10038 20018 30305 40278 52010 69910 875// 333 10072
AAXX 10181 37107 12998 20000 10011 20006 39607 40304 52009 69950 8030/ 333 10070
AAXX 10181 37126 42998 22102 11078 21157 37952 48537 52002 80001 333 11036
AAXX 10181 37171 32996 00603 10036 20031 30271 40290 52007 333 10098
AAXX 10181 37228 12/// /2801 10009 21001 39431 40285 51007 60010 333 10029
AAXX 10181 37470 31496 83002 10066 20034 30301 40279 52004 78082 889// 333 10081
AAXX 10181 37663 31496 80801 10001 21004 39067 48530 52003 77177 8872/ 333 10034
AAXX 10181 23914 32999 61604 11118 21135 39998 40272 58014 80004 333 11107
AAXX 10181 23921 32998 80000 11182 21194 30163 40292 57010 80005 333 11107
AAXX 10181 23955 41468 82604 11139 21156 30250 40316 57002 78582 8637/ 333 86913
AAXX 10181 23966 41999 61901 11112 21125 30160 40292 57025 70272 83530
AAXX 10181 28138 32999 60000 11088 21140 39707 40303 57007 80008 333 11056
AAXX 10181 28224 32998 71803 11104 21143 30057 40283 57010 80007 333 11086
AAXX 10181 28255 32994 01601 11177 21190 30196 40337 57005 333 11142
AAXX 10181 28440 32/// /1401 11128 21144 3//// 4//// 5//// 333 11076
AAXX 10181 28645 31997 00000 11178 21184 30024 40346 58005 333 11126
AAXX 10181 28661 32997 00402 11191 21207 30242 40343 57005 333 11114
AAXX 10181 28722 31996 72502 11194 21209 30163 40307 57001 71022 80005 333 11104
AAXX 10181 28748 32961 03401 11180 21199 30075 40337 58002 333 11101
AAXX 10181 28838 32996 00601 11148 21161 39818 40331 58008 333 11082
AAXX 10181 29231 41496 82002 11133 21146 30244 40347 57011 78582 8695/
AAXX 10181 29313 42998 02301 11283 21304 30223 40362 57010
AAXX 10181 29612 42998 00301 11215 21240 30188 40353 58008
AAXX 10181 29638 41596 83601 11101 21107 30166 40340 57007 77171 86501
AAXX 10181 29838 42997 00000 11199 21211 30081 40336 58006
AAXX 10181 29846 41914 03602 11222 21227 39932 40356 58004 71000
AAXX 10181 36061 42999 20000 11215 21233 39908 40355 52003 80001
AAXX 10181 28049 32997 01606 11099 21141 30132 40305 57009 333 11083
AAXX 10181 28144 32998 60000 11138 21153 30135 40303 56008 80002 333 11090
AAXX 10181 28319 32998 21302 11136 21156 30113 40289 58004 80001 333 11083
AAXX 10181 28321 32999 51603 11120 21140 30065 40282 57003 84031 333 11115
AAXX 10181 28334 32998 20000 11192 21211 39990 40322 53001 81001 333 11142
AAXX 10181 28434 32998 00000 11234 21255 30041 40328 54001 333 11130
AAXX 10181 28552 31996 00901 11172 21188 30221 40343 57004 71000 333 10124
AAXX 10181 28666 32999 20201 11152 21184 30153 40341 57006 80001 333 11106
AAXX 10181 28825 31994 30000 11197 21210 30122 40311 57004 71000 80005 333 11121
AAXX 10181 29111 42998 02702 11190 21209 30248 40344 57003
AAXX 10181 29209 42998 20000 11250 21268 30227 40368 57001 80002
AAXX 10181 29551 41497 80301 11103 21109 30151 40343 58014 72272 83302
AAXX 10181 29602 42999 00401 11230 21249 30194 40350 57009
AAXX 10181 29636 42598 80501 11089 21092 30110 40338 57008 883//
AAXX 10181 29654 42999 00000 11166 21179 39683 40342 57004
AAXX 10181 29712 42998 00601 11176 21188 30192 40348 57005
AAXX 10181 29724 42997 00503 11176 21188 30125 40346 58009
AAXX 10181 29726 42998 80902 11147 21160 30168 40348 57006 8802/
AAXX 10181 29814 42999 50302 11172 21198 30179 40337 53001 80002
AAXX 10181 29827 42997 00701 11213 21231 30165 40334 58004
AAXX 10181 29923 42999 00000 11251 21269 30041 40348 58004
AAXX 10181 29939 41995 00901 11218 21236 30037 40349 58002 71000
AAXX 10181 35026 32997 00000 11155 21176 39638 40322 57009 333 11073
AAXX 10181 36021 42999 31001 11210 21222 30119 40315 57008 80002
AAXX 10181 36022 42998 60202 11218 21230 30050 40338 58004 80001
AAXX 10181 36038 42999 20000 11207 21219 39864 40348 57003 80001
AAXX 10181 36058 42999 01004 11112 21125 39801 40350 53012
AAXX 10181 36064 42999 00703 11015 21101 39715 40318 58002
AAXX 10181 36229 42999 00000 11252 21258 39161 40465 58005
AAXX 10181 36259 42999 00000 11290 21321 38310 48599 58002
AAXX 10184 71476 16/// /2605 30160 53017 60001 333 70094
AAXX 10184 71478 16/// /3117 10061 20030 30078 40215 53012 60001 333 10070 20036 7////
AAXX 10184 71479 16/// /3115 10063 20033 30092 40214 53013 60001 333 10065 20040 7////
AAXX 10184 71482 46/// /1806 10033 30168 40207 53016 6///1 333 10040 20000 7////
AAXX 10184 71667 16/// /3101 11095 21166 39954 40210 58017 60001 333 11094 21161 70000
AAXX 10184 71682 16/// /2101 11150 21158 39924 40162 52024 60001 333 11150 21226 70000
AAXX 10184 71696 16/// /2607 11222 21256 30084 40122 51007 60001 333 11222 21265 70000
AAXX 10184 71151 16/// /1704 11091 21123 39647 40167 58001 60001 333 11089 21179 70000
AAXX 10184 71170 16/// /2504 11054 21090 60001 333 11053 21156 70000
AAXX 10184 71186 46/// /2915 11067 21137 6///1 333 11028 21075 7////
AAXX 10184 71190 46/// /2918 11040 21112 6///1 333 11007 21056 7////
AAXX 10184 71361 17/// /3108 11120 21136 39903 40115 51023 69981 7//4/ 333 11119 21174 70008
AAXX 10184 71362 16/// /1901 11155 21173 39844 40107 51004 60001 333 11139 21169 70000
AAXX 10184 71374 46/// /2619 10011 21008 6///1 333 10026 21028 7////
AAXX 10184 71387 16/// /3205 11111 21159 39827 40218 58001 60001 333 11068 21153 70000
AAXX 10184 71736 46/// ///// 10065 21080 6///1 333 10065 21006 7////
AAXX 10184 71737 16/// /2307 11058 21127 39686 40221 58008 60001 333 11058 21120 70021 555 10020
AAXX 10184 71743 16/// /1604 11154 21189 39818 40040 53001 60001 333 11150 21181 70000
AAXX 10184 71748 16/// /1802 11077 21117 39869 40167 50007 60001 333 11076 21179 70000
AAXX 10184 71423 16/// /3412 11013 21025 30145 40154 55005 60001 333 10028 21019 70000
AAXX 10184 71434 16/// /2508 11222 21269 30083 40153 51007 60001 333 11217 70000 555 10010
AAXX 10184 71503 46/// /2502 11081 21089 39850 40123 53013 6///1 333 11081 21173 7////
AAXX 10184 71506 46/// /2510 11086 21091 39231 40121 53020 6///1 333 11070 21090 7////
AAXX 10184 71302 16/// /1607 11028 21049 39320 40149 53011 60001 333 11016 21115 70000
AAXX 10184 71309 16/// /2204 11139 21194 30204 40216 58006 60001 333 11139 21228 70000
AAXX 10184 71332 16/// /0403 11235 21260 30085 40115 53012 60001 333 11204 21235 70000
AAXX 10184 71341 16/// /2431 10071 21082 60001 333 10071 21003 70000
AAXX 10184 71342 16/// /2310 11001 21057 60001 333 10000 21066 70000
AAXX 10184 71344 16/// /2319 10019 21069 60001 333 10039 21038 70000
AAXX 10184 71347 16/// /2611 10008 21048 60001 333 10019 21010 70000
AAXX 10184 71348 16/// /2707 10017 21052 60001 333 10025 21027 70000
AAXX 10184 71349 16/// ///// 11028 21066 60001 333 11022 21066 70000
AAXX 10184 71976 46/// /2702 11242 21268 39361 40008 51008 6///1 333 11210 21248 7////
AAXX 10184 71421 17/// ///// 11107 21149 39428 40164 56002 60011 7//4/ 333 11090 21177 70010
AAXX 10184 71432 16/// /2617 11010 21079 30199 40299 50000 60001 333 11007 21032 70000
AAXX 10184 71435 16/// /1704 11110 21158 39575 40192 58011 60001 333 11110 21193 70000
AAXX 10184 71107 16/// /3427 10056 20024 30090 40204 53011 60001 333 10067 20043 70000
AAXX 10184 71825 11574 42910 11185 21229 39473 40172 55002 69901 70288 84500 333 11152 21189 48076 70006 90953
AAXX 10184 71832 16/// /2106 11108 21168 39873 40213 58007 60001 333 11107 21185 70000
AAXX 10184 71269 16/// /2419 10038 21034 60001 333 10043 21024 70000
AAXX 10184 71285 46/// /1202 11037 21073 6///1 333 11001 21092 7////
AAXX 10184 71026 16/// /2408 10051 21042 39237 40088 58005 60001 333 21034 7////
AAXX 10184 71063 16/// /2506 11013 21071 30154 40255 58002 60001 333 11007 21052 70000
AAXX 10184 71228 17/// /2104 11042 21089 69941 7//4/ 333 11042 21124 70004
AAXX 10184 71550 16/// /2604 11050 21096 39762 40143 58007 60001 333 11048 21149 70000
AAXX 10184 71581 16/// /2502 11059 21087 39756 40252 58002 60001 333 11059 70000
AAXX 10184 71585 17/// /1004 11071 21076 39597 40064 58006 60031 7//4/ 333 11071 21143 70029 555 10030
AAXX 10184 71903 17/// /3014 10047 20034 30123 40173 53016 69941 7//4/ 333 7////
AAXX 10181 48806 32498 81803 10107 20050 39458 40262 58001 888// 333 58022 83894 88696
AAXX 10184 71667 16/// /3101 11095 21166 39954 40210 58017 60001 333 11094 21161 70000
AAXX 10184 71682 16/// /2101 11150 21158 39924 40162 52024 60001 333 11150 21226 70000
AAXX 10184 71696 16/// /2607 11222 21256 30084 40122 51007 60001 333 11222 21265 70000
AAXX 10184 71421 17/// ///// 11107 21149 39428 40164 56002 60011 7//4/ 333 11090 21177 70010
AAXX 10184 71432 16/// /2617 11010 21079 30199 40299 50000 60001 333 11007 21032 70000
AAXX 10184 71435 16/// /1704 11110 21158 39575 40192 58011 60001 333 11110 21193 70000
AAXX 10184 71476 16/// /2605 30160 53017 60001 333 70094
AAXX 10184 71478 16/// /3117 10061 20030 30078 40215 53012 60001 333 10070 20036 7////
AAXX 10184 71479 16/// /3115 10063 20033 30092 40214 53013 60001 333 10065 20040 7////
AAXX 10184 71482 46/// /1806 10033 30168 40207 53016 6///1 333 10040 20000 7////
AAXX 10184 71151 16/// /1704 11091 21123 39647 40167 58001 60001 333 11089 21179 70000
AAXX 10184 71170 16/// /2504 11054 21090 60001 333 11053 21156 70000
AAXX 10184 71186 46/// /2915 11067 21137 6///1 333 11028 21075 7////
AAXX 10184 71190 46/// /2918 11040 21112 6///1 333 11007 21056 7////
AAXX 10184 71825 11574 42910 11185 21229 39473 40172 55002 69901 70288 84500 333 11152 21189 48076 70006 90953
AAXX 10184 71832 16/// /2106 11108 21168 39873 40213 58007 60001 333 11107 21185 70000
AAXX 10184 71736 46/// ///// 10065 21080 6///1 333 10065 21006 7////
AAXX 10184 71737 16/// /2307 11058 21127 39686 40221 58008 60001 333 11058 21120 70021 555 10020
AAXX 10184 71743 16/// /1604 11154 21189 39818 40040 53001 60001 333 11150 21181 70000
AAXX 10184 71748 16/// /1802 11077 21117 39869 40167 50007 60001 333 11076 21179 70000
AAXX 10184 71423 16/// /3412 11013 21025 30145 40154 55005 60001 333 10028 21019 70000
AAXX 10184 71434 16/// /2508 11222 21269 30083 40153 51007 60001 333 11217 70000 555 10010
AAXX 10184 71361 17/// /3108 11120 21136 39903 40115 51023 69981 7//4/ 333 11119 21174 70008
AAXX 10184 71362 16/// /1901 11155 21173 39844 40107 51004 60001 333 11139 21169 70000
AAXX 10184 71374 46/// /2619 10011 21008 6///1 333 10026 21028 7////
AAXX 10184 71387 16/// /3205 11111 21159 39827 40218 58001 60001 333 11068 21153 70000
AAXX 10184 71976 46/// /2702 11242 21268 39361 40008 51008 6///1 333 11210 21248 7////
AAXX 10181 28216 32999 41402 11113 21141 39972 40270 57005 80008 333 11090
AAXX 10181 28428 31996 20000 11192 21208 30108 40311 57005 71011 80001 333 11135
AAXX 10181 28451 32996 01302 11192 21210 30166 40341 57004 333 11141
AAXX 10181 28541 32975 00000 11178 21190 39804 40340 57003 333 11076
AAXX 10181 28655 32998 00701 11165 21178 30101 40342 57006 333 11096
AAXX 10181 28756 32997 00903 11187 21212 30174 40336 57008 333 11100
AAXX 10181 29557 41698 42001 11190 21209 30056 40346 57016 70181 82530
AAXX 10181 29625 41496 70802 11126 21139 30156 40346 58009 78581 87900 333 87917
AAXX 10181 29813 42999 01101 11186 21198 30125 40320 57006
AAXX 10181 29822 42997 02901 11225 21243 30166 40347 54000
AAXX 10181 29915 42998 80901 11186 21205 30152 40323 57002 80002
AAXX 10181 36020 42998 20601 11198 21204 30121 40340 52004 80002
AAXX 10184 89528 46/// /3521 4//// 5////
AAXX 1018/ 89828 46/// ///// 11371 36418 4//// 5////
AAXX 10181 23226 11228 81604 11069 21078 30051 40275 58008 69930 71072 886// 333 11073 88703
AAXX 10181 23701 11480 81802 11082 21105 30048 40183 56008 69920 72272 8672/ 333 11036 86715
AAXX 10181 28909 32999 41401 11144 21164 30182 40290 57004 84030 333 11113
BBXX 46249 10181 99338 71197 46/// ///// 1//// 91815 22200 00146 11802 20501 324// 41801 70010
BBXX 46248 10181 99461 71247 46/// ///// 1//// 91804 22200 00088 11504 21001 329// 41503 70018
BBXX 46244 10181 99409 71244 46/// ///// 1//// 91805 22200 00100 11705 20701 330// 41705 70026
AAXX 10181 01003 11684 10601 11106 21135 30038 40050 52002 60001 70200 81500
AAXX 10181 56146 11780 80401 11017 21030 36703 52003 69991 78580 889// 333 05100 10055
AAXX 10181 56444 11780 72702 11019 21049 36799 57008 69971 78580 85102 333 00153 10028
AAXX 10181 56492 32764 81401 10069 20032 39896 40316 57015 885// 333 05401 10082
AAXX 10181 56571 11670 83401 10034 21012 38456 57009 69901 70060 888// 333 00053 10061
AAXX 10181 57799 32965 02701 10014 21008 30232 40325 57011 333 10071
AAXX 10181 57866 32968 01601 10020 21020 30113 40329 57009 333 10084
AAXX 10181 57957 32968 00204 10053 21086 30110 40316 57012 333 10105
AAXX 10181 57993 32970 02201 10027 21024 30137 40311 57012 333 10092
AAXX 10181 58027 32960 02701 11030 21068 30263 40317 57005 333 10040
AAXX 10181 58141 31940 02702 11012 21049 30300 40320 57012 71000 333 10040
AAXX 10181 58265 31950 02902 11012 21056 30317 40325 57007 70500 333 10041
AAXX 10181 58472 32973 03408 10031 21066 30219 40318 57010 333 10044
AAXX 10181 58477 32970 03602 10028 21069 30268 40315 57008 333 10071
AAXX 10181 58527 32960 00901 10006 21052 30248 40328 57008 333 10091
AAXX 10181 58633 32968 00403 10015 21030 30219 40324 57009 333 10070
AAXX 10181 58666 32961 73612 10047 21038 30197 40303 57007 8704/ 333 10068 91119 91534
AAXX 10181 58725 32962 02501 11010 21026 30037 40312 57012 333 10090
AAXX 10181 58921 32968 00901 10027 20011 30037 40293 57010 333 10123
AAXX 10181 59082 32978 00203 10043 21088 30148 40300 57011 333 10113
AAXX 10181 59211 32970 70000 10083 20041 30080 40293 57004 8704/ 333 10159
AAXX 10181 59265 32968 00203 10053 21054 30146 40290 57007 333 10126
AAXX 10181 59293 32970 00205 10063 21104 30185 40274 57011 333 10135
AAXX 10181 59501 32968 03604 10096 21044 30208 40230 57011 333 10167
AAXX 10181 59663 32980 03606 10090 21035 30140 40250 57008 333 10182
AAXX 10181 59838 32962 70407 10146 20067 30220 40231 57013 8703/ 333 10181
AAXX 10181 59948 32472 70409 10119 20066 39710 40204 57010 81102 333 10189
AAXX 10181 59981 11570 70407 10217 20173 30151 40158 57013 69921 72560 872// 333 10245
AAXX 10184 41253 36/// /0000 10177 20114 39814 40197 333 0E019 10255 59009
BBXX 46241 10181 99330 71173 46/// ///// 1//// 91741 22200 00143 11801 21001 326// 41801 70006
BBXX 46240 10181 99366 71219 46/// ///// 1//// 91812 22200 00124 11801 20801 300// 41801 70007
BBXX 46237 10181 99378 71226 46/// ///// 1//// 91810 22200 00112 11703 20801 326// 41703 70015
BBXX 46212 10181 99408 71243 46/// ///// 1//// 91812 22200 00102 11704 20701 330// 41704 70022
BBXX 46217 10181 99342 71194 46/// ///// 1//// 91812 22200 00145 11802 20901 327// 41801 70009
BBXX 46223 10181 99335 71178 46/// ///// 1//// 91800 22200 00160 11802 20901 327// 41801 70008
BBXX 46231 10181 99327 71174 46/// ///// 1//// 91754 22200 00157 11802 21001 327// 41802 70009
BBXX 46222 10181 99336 71183 46/// ///// 1//// 91756 22200 00159 11801 21001 327// 41801 70007
BBXX 46242 10181 99332 71174 46/// ///// 1//// 91758 22200 00151 11801 21001 323// 41801 70005
AAXX 10181 48870 32498 83607 10227 20179 30150 40157 58003 888// 333 58017 83894 88696
AAXX 10181 48877 32598 83610 10240 20177 30137 40142 50000 889// 333 58019 83995 85697 91117 91534
AAXX 10181 48887 32798 72902 10240 20210 30099 40105 50002 82508 333 58001 82697 87299
AAXX 10181 48920 11598 73612 10267 20244 30074 40077 58012 69931 70362 8321/ 333 58002 83895 87499 91118 9153 6
AAXX 10181 48892 11498 80208 10254 20244 30059 40064 58004 60021 72582 889// 333 58000 82894 83995 85697 9111 8 91505
BBXX 46211 10181 99469 71242 46/// ///// 1//// 91806 22200 00086 11703 21001 327// 41703 70017
BBXX 46216 10181 99343 71198 46/// ///// 1//// 91757 22200 00147 11801 20901 326// 41801 70007
AAXX 10181 23205 32498 81404 11067 21087 30141 40156 57035 8463/ 333 11057 84711 91108
AAXX 10184 84088 32570 80902 10162 20061 37058 883// 333 58003 555 30051
AAXX 10184 84143 32670 71612 10194 20094 37390 87800 333 59004 555 30052
AAXX 10184 84135 32575 82206 10281 20198 30072 8681/ 333 58013 555 30061
AAXX 10184 84202 31575 72304 10296 20206 30149 70544 86209 333 58009 555 30062
AAXX 10184 84132 11560 63604 10280 20225 39874 60051 72164 86300 333 59007 555 10054 30062
AAXX 10184 84270 32570 50000 10208 20126 84830 555 30059
AAXX 10184 84036 31570 61806 10169 20102 70544 84220 555 30062
AAXX 10184 84008 11530 71414 10262 20202 30124 40134 69901 71652 87800 00186 333 58001 555 1 T 30069
AAXX 10184 84140 31570 80000 10264 20199 30028 40113 70544 8681/ 333 58006 555 30068
AAXX 10184 84076 31565 70512 10192 20116 71544 87400 555 30061
AAXX 10184 84179 31575 50902 10281 20197 39037 71544 85339 333 59013 555 30060
AAXX 10184 84160 31570 40910 10195 20080 37258 70544 84200 333 58004 555 30047
AAXX 10184 84050 11565 81804 10239 20207 69901 70545 886// 555 1 T 30082
AAXX 10184 84105 32560 81404 10244 20213 31001 8451/ 333 58000 555 30083
AAXX 10184 84226 31670 63204 10150 20144 74042 86400 555 30096
AAXX 10184 84072 32575 70412 10180 20105 37285 87200 333 58002 555 30061
AAXX 10184 84001 31565 71414 10252 20201 30106 40126 70544 87800 333 58003
AAXX 10184 84010 11570 61410 10258 20212 69901 71654 82250 555 1 T
AAXX 10184 84018 11570 72811 10260 20219 30110 40117 69901 71564 86230 333 58013 555 1 T
AAXX 10184 84027 32570 51004 10172 20086 37167 47140 85200 333 58004
AAXX 10184 84063 32580 40000 10313 20244 39733 40058 84100 333 58006
AAXX 10184 84069 11456 82603 10221 20193 69901 70554 885// 555 1 T
AAXX 10184 84071 32670 70208 10172 20094 37272 47122 85230 333 58005
AAXX 10184 84099 32575 60000 10318 20216 3//// 40100 83130 333 5////
AAXX 10184 84117 31665 61709 10298 20180 30094 40117 70544 83130 333 58008
AAXX 10184 84123 32570 71812 10184 20078 37278 47115 86230 333 58001
AAXX 10184 84147 31565 41606 10199 20115 70242 83230
AAXX 10184 84176 32680 30610 10218 20098 83200
AAXX 10184 84200 31962 02109 10244 20199 70544
AAXX 10184 84203 31660 71607 10285 20178 30101 40106 70544 83130 333 58013
AAXX 10184 84217 32680 30610 10296 20217 83200
AAXX 10184 84239 32680 70106 10213 20105 37528 47150 86200 333 58000
AAXX 10184 84252 31570 73208 10287 20209 30107 40115 70544 87820 333 58006
AAXX 10184 84265 32680 40000 10264 20172 38745 4//// 84100 333 59009
AAXX 10181 50353 32970 60000 11235 21261 39894 40132 52003 84032 333 11110
AAXX 10181 50557 32970 01801 11246 21272 39847 40172 52004 333 11113
AAXX 10181 50756 32960 00000 11190 21202 39861 40179 52008 333 11109
AAXX 10181 50949 11965 02201 11121 21145 30004 40183 52010 69921 70070 333 11049
AAXX 10181 50963 32962 02201 11140 21163 30029 40174 52007 333 11084
AAXX 10181 50978 32975 02202 11120 21164 39803 40168 52001 333 11080
AAXX 10181 51087 32980 00000 11172 21195 39337 40374 57001 333 05200 11061
AAXX 10181 51156 32980 02902 11116 21178 38771 40344 57002 333 05252 11033
AAXX 10181 51644 32970 02702 11053 21110 39051 40366 57004 333 05451 10007
AAXX 10181 51656 11775 71802 11030 21060 39225 40367 57005 69901 70070 86502 333 05451 11001
AAXX 10181 51886 32980 13601 11152 21272 37133 57002 80002 333 00054 11037
AAXX 10181 52602 32980 73403 11185 21285 37286 57001 80002 333 05100 11012
AAXX 10181 52713 32980 00901 11141 21272 36917 57001 333 05100 11024
AAXX 10181 52754 32980 03603 11160 21226 36795 57004 333 05402 11053
AAXX 10181 52818 32980 02502 11094 21208 37260 52002 333 00002 11025
AAXX 10181 52836 32980 81602 11150 21222 36909 52002 80007 333 05151 11020
AAXX 10181 52955 32980 81602 11144 21230 36979 57002 80007 333 05304 11024
AAXX 10181 53068 32980 02503 11110 21156 39115 40315 57003 333 05405 11057
AAXX 10181 53276 32980 02507 11082 21136 38910 40320 57003 333 11067
AAXX 10181 54135 32980 02502 11073 21131 39975 40206 52008 333 11023
AAXX 10181 54236 32970 02501 11087 21127 30110 40220 52010 333 11013
AAXX 10181 54539 32970 03201 11032 21094 30248 40263 57002 333 10018
AAXX 10181 54662 32970 02002 10013 21060 30137 40254 57005 333 10014
AAXX 10181 54753 32965 02004 11008 21064 30274 40281 57002 333 10026
AAXX 10181 54857 32962 02703 10004 21091 30207 40303 57005 333 10019
AAXX 10181 57067 32970 01801 11061 21096 39645 40358 57010 333 10043
AAXX 10181 57178 32970 00201 11009 21062 30168 40333 57005 333 10087
AAXX 10181 57245 32968 20000 11009 21033 39980 40345 57004 82030 333 05552 10099
AAXX 10181 57297 32962 02201 11014 21051 30186 40333 57012 333 10067
AAXX 10184 17280 12960 02805 10019 21021 39445 40261 52019 69922 333 10061
BBXX 46221 10181 99339 71186 46/// ///// 1//// 91745 22200 00152 11801 20901 326// 41801 70007
AAXX 10181 89062 41450 82804 10004 21019 39669 49709 57025 78587 8867/ 333 84710 88462
AAXX 10181 91943 36/// /0411 10265 20240 30136 40138 51022 333 10268 58010
AAXX 10181 91945 16/// /3110 10265 20242 30112 40117 51018 60011
AAXX 10184 41315 36/// /0108 10164 20067 39187 42824 333 0E/// 10226 58005
BBXX 63110 10183 99595 10015 41/97 /3125 10070 49988 70086 8//// 22200 11007 70035
BBXX 62303 10184 99516 70051 46/// /2413 10096 20044 40144 57011 22200 00119 10503 70013
BBXX 62301 10184 99524 70047 46/// /2516 10088 20036 40132 57009 22200 00104 10403 70016
BBXX 64046 10184 99605 70049 46/// /2010 10039 21014 49994 58019 22200 00098 10807 70033
BBXX 62001 10184 99452 70050 46/// /0209 10139 20114 40170 52014 22200 00153 10906 70030
BBXX 62029 10184 99487 70125 46/// /2418 10111 20079 40164 56012 22200 00136 10907 70036
BBXX 64045 10184 99591 70117 46/// /2522 10080 20030 49904 56014 22200 00103 10606 70031 333 90710 91129
BBXX 62105 10184 99554 70122 46/// /2719 10091 20050 40008 57004 22200 00108 10808 70042 333 90710 91127
BBXX 62081 10184 99510 70134 46/// ///// 10115 20107 40106 57017 22200 00120 10808 70039
BBXX 62442 10184 99490 70164 46/// /3119 1//// 2//// 40140 55008 22200 00130 333 90710 91125
BBXX AMOUK27 10184 99579 70052 46/// ///// 1//// 2//// 30008 40008 57026 91750
BBXX AMOUK03 10184 99537 70003 46/// ///// 10041 20026 30083 40112 52007 91750
BBXX AMOUK02 10184 99535 70037 46/// ///// 10079 20038 30092 40123 57010 91750
BBXX AMOUK11 10184 99533 70060 46/// ///// 10076 20026 30071 40116 57015 91750
BBXX AMOUK13 10184 99519 10013 46/// ///// 10033 21001 30146 40156 52007 91750
BBXX AMOUK21 10184 99564 70055 46/// ///// 10053 20042 30046 40046 57016 91750
BBXX AMOUK09 10184 99520 10018 46/// ///// 10064 20014 30132 40149 52006 91750
BBXX AMOUK12 10184 99533 70055 46/// ///// 10080 20038 30081 40123 57022 91750
BBXX AMOUK05 10184 99537 70003 46/// ///// 10039 20021 30073 40114 54002 91750
BBXX AMOUK06 10184 99507 70014 46/// ///// 10082 20025 30151 40171 54002 91750
BBXX AMOUK14 10184 99533 70062 46/// ///// 10069 20025 30080 40120 57011 91750
BBXX AMOUK16 10184 99523 70063 46/// ///// 10080 20049 30125 40126 57027 91750
BBXX AMOUK19 10184 99574 70017 46/// ///// 10039 21023 30053 40063 54001 91750
BBXX AMOUK08 10184 99501 70061 46/// ///// 10095 20050 30161 40168 57007 91750
BBXX 63103 10184 99612 10011 46/// /3609 10065 20002 49980 52015 22200 10807 70035
BBXX 63056 10184 99597 10016 47698 /3113 10070 20006 49980 52017 700// 22200 10706 70031
BBXX 64041 10184 99607 70026 47698 /2308 10049 20013 49996 57002 700// 22200 10807 70034
BBXX MWYG6 10184 99603 70040 47998 /2004 10038 700// 22200
BBXX 63115 10184 99616 10013 47598 /3508 10057 20010 49977 52011 762// 22200 10808 70038
BBXX 63117 10184 99613 10011 47999 /3508 10070 20005 49979 52015 700// 22200
BBXX 63101 10184 99612 10009 46/// /0108 10068 20016 49978 52013 22200
BBXX 63104 10184 99612 10016 47496 /0205 10059 20014 49977 52019 762// 22200
BBXX 62111 10184 99580 70003 46/// /2917 10052 21023 40048 50005 22200 10706 70028
BBXX PJAI 10184 99581 70014 47599 /2713 10057 21018 40040 54000 700// 22200
BBXX 62112 10184 99584 70002 47998 /2810 10047 21026 40033 52010 762// 22200
BBXX 63055 10184 99606 10016 47998 /3111 10064 20006 49979 52017 700// 22200 10806 70031
BBXX 63108 10184 99608 10017 47698 /3410 10061 21001 49972 53017 700// 22200 10906 70031
BBXX 63106 10184 99610 10017 46/// /3207 10062 49977 52020 22200
BBXX 63105 10184 99610 10017 47597 ///// 10072 20016 49977 52019 700// 22200
BBXX 63113 10184 99610 10017 46/// /3411 10061 20007 49977 52019 22200 10807 70034
BBXX 63112 10184 99611 10010 47/98 /3409 10064 21001 49978 52015 700// 22200 10807 70035
BBXX 63107 10184 99611 10017 46/// /3206 10057 49975 52019 22200
BBXX 62164 10184 99572 10008 47598 /2817 10061 21009 40058 51009 700// 22200 00099 10606 70032
BBXX PJGO 10184 99571 10022 47698 /2724 10059 21005 40048 52013 700// 22200
BBXX 62133 10184 99571 10009 46/// /2718 10050 21029 40053 51009 22200 10807 70036
BBXX 62119 10184 99570 10019 47598 /2920 10059 21011 40055 51008 700// 22200 10809 70047
BBXX 62152 10184 99570 10018 47/96 /2815 10053 21012 40056 51009 740// 22200 10709 70043
BBXX 62154 10184 99564 10022 46/// /2918 10050 21033 40055 51010 22200
BBXX 62120 10184 99564 10021 47698 /2821 10048 21035 40058 52008 700// 22200
BBXX 62132 10184 99564 10020 46/// /3221 10052 21040 40071 52006 22200
BBXX 62123 10184 99563 10022 47699 /2824 10054 21036 40059 51010 700// 22200
BBXX 62165 10184 99540 10009 47498 /2710 10062 20024 40115 53006 700// 22200 10706 70032
BBXX 62127 10184 99540 10007 47498 ///// 10057 20026 40111 53008 700// 22200 10605 70026
BBXX 62131 10184 99539 10012 46/// /27// 10063 20031 40111 53008 22200
BBXX 62149 10184 99537 10011 47498 /2519 10066 20023 40120 53006 700// 22200 10605 70025
BBXX 62148 10184 99536 10015 46/// /2512 10060 20023 40126 52008 22200
BBXX 62150 10184 99536 10007 47998 /2619 10059 20020 40127 52005 700// 22200 10705 70027
BBXX 62121 10184 99535 10027 46/// /2620 10064 20011 40115 52007 22200
BBXX 62144 10184 99534 10017 47598 /2621 10058 20018 40134 52009 700// 22200 10605 70027
BBXX 62145 10184 99531 10028 47498 /2620 10063 20011 40130 52008 700// 22200 10706 70032
BBXX 62142 10184 99530 10021 46998 /2619 10056 20019 40128 52008 22200 10605 70026
BBXX 63057 10184 99592 10015 47998 /2820 10067 20016 49999 52019 700// 22200 10807 70033
BBXX 62128 10184 99587 10014 47498 /2822 10054 20027 40017 52018 700// 22200 10707 70037
BBXX 62129 10184 99584 10003 46/// ///// 10047 21011 40029 52014 22200
BBXX 62113 10184 99584 10002 47598 /2817 10049 21012 40032 52014 700// 22200
BBXX ZQSD5 10184 99583 10007 46/// /2722 10054 21000 40036 52021 22200 10909 70043
BBXX 62114 10184 99583 10000 46/// /2819 10047 21022 40030 52012 22200
BBXX 62134 10184 99580 10014 47998 /2821 10055 20004 40033 52022 700// 22200 10709 70044
BBXX 62102 10184 99579 10018 46/// /2823 10061 20010 40026 52019 22200 10809 70043
BBXX 62117 10184 99579 10000 47997 /2816 10055 21020 40042 52010 700// 22200 10605 70025
BBXX 62143 10184 99577 10018 47998 /3116 10055 21004 40047 52015 700// 22200 10709 70043
BBXX 62146 10184 99572 10021 47/98 /2502 10055 21014 40049 51011 700// 22200 10808 70042
BBXX 62140 10184 99573 10013 46/// /29// 10057 21027 40043 52015 22200
BBXX 62122 10184 99573 10016 47698 /2821 10057 21016 40044 52017 700// 22200 10809 70046
BBXX 62153 10184 99573 10020 47698 /2710 10057 21015 40040 52015 700// 22200 10709 70043
BBXX 62104 10184 99574 10013 47998 /2920 10062 21016 40041 52014 700// 22200
BBXX 62116 10184 99576 10011 47698 /2919 10057 21024 40039 52016 700// 22200 10708 70042
BBXX 62155 10184 99577 10007 47998 /2920 10054 21019 40047 52012 751// 22200 10707 70035
BBXX 62118 10184 99577 10009 47998 /2819 10054 21026 40038 52011 700// 22200 10707 70033
BBXX C6SI2 10184 99526 10041 41598 32730 10070 20004 40122 58/// 70111 83200 22283 00120 20602 330// 40705 5//// 80044
BBXX 62027 10184 99491 70022 46/// /1704 1//// 2//// 40178 58003 22200 00127 11102 326// 70010
BBXX 62163 10184 99475 70084 46/// /0304 10106 20039 40186 50004 22200 00134 10805 70025
BBXX 62103 10184 99499 70029 46/// /2912 10093 20003 40170 55002 22200 00129 10802 70009
BBXX 62170 10184 99514 10020 46/97 /2719 10068 20000 40164 51014 22200 00117 10702 70008 333 90710 91125
BBXX 62304 10184 99511 10018 46/99 /2614 10069 21006 40169 51011 22200 00120 10701 70005
BBXX 62305 10184 99504 10000 46/98 /2811 10088 20004 40185 52008 22200 00128 10501 70004
BBXX 63119 10184 99578 70022 41/97 60818 10051 21018 40025 55/// 701// 8//// 22200 2//// 330// 40606 5////
BBXX 2AUO5 10183 99606 10016 41297 43115 10071 20020 49983 52020 7//// 8/7// 22281 20702 399// 40904 80050
AAXX 10181 29998 42999 00000 11210 21210 38682 48530 52002
AAXX 10181 30385 41999 80000 11246 21259 39602 40178 52011 70272 80007
AAXX 10181 30469 429// 80000 11261 21273 39406 40232 53015 80005
AAXX 10181 30636 425// 82602 11063 21095 39627 40245 52006 82931
AAXX 10181 30650 42984 52702 11231 21250 39086 40293 52002 83041
AAXX 10181 30664 42999 72303 11161 21174 39185 40220 52005 86043
AAXX 10181 30781 42999 30000 11283 21300 39703 40221 52008 80001
AAXX 10181 30777 41998 62702 11209 21221 39517 40215 52010 70371 83016
AAXX 10181 30844 41599 72706 11072 21102 39263 40256 52011 73633 875// 333 87630
AAXX 10181 30925 429// 23602 11094 21129 39306 40309 52008 80001
AAXX 10181 31371 42999 60000 11235 21260 39846 40131 53005 80001
AAXX 10181 31388 42984 00000 11319 21331 39850 40143 52003
AAXX 10181 31478 NIL
AAXX 10181 31532 41999 20000 11286 21297 39777 40155 53004 70271 80001
AAXX 10181 31594 41598 81601 11177 21183 39949 40130 53003 70282 889// 333 88925
AAXX 10181 31655 42998 01802 11146 21152 30041 40090 58007
AAXX 10181 31754 41999 80000 11147 21167 39587 40108 57009 70282 80007
BBXX JGQH 10184 99239 11369 41/97 80321 10215 20206 40164 57013 78082 882// 22241 00259 10904 20402 399// 4//03 70021
BBXX JPBN 10184 99316 11478 41/98 71607 10172 20055 40189 55012 70211 85231 22242 00218 1//// 20200 399// 4//03
BBXX JGQH 10184 99239 11369 41/97 80321 10215 20206 40164 57013 78082 882// 22241 00259 10904 20402 399// 4//03 70021
BBXX JPBN 10184 99316 11478 41/98 71607 10172 20055 40189 55012 70211 85231 22242 00218 1//// 20200 399// 4//03
AAXX 10184 83550 31597 ///// 10302 20246 30011 40040 70210 81270 333 59036
AAXX 10184 83698 21397 80000 10270 20241 30031 40045 54000 76166 887// 333 60021
AAXX 10184 83738 32698 82309 10244 20188 39560 40051 56001 887//
AAXX 10184 83064 32498 73604 10329 20230 39806 40071 82386 333 58004
AAXX 10184 83235 21798 80000 10276 20209 39404 40067 70252 8801/ 333 58014 69971
AAXX 10184 83332 32698 63204 10275 20206 39169 40052 83250 333 58005
AAXX 10184 83423 32698 62702 10282 20205 39247 40049 82231 333 59013
AAXX 10184 83470 21698 82702 10242 20218 39215 40048 76161 885// 333 59003 60121
AAXX 10184 40582 32960 00000 10116 20053 40214 51006 333 55300 00000 10191 20000 30000 41112 51303 60000 55407 40000 90400 91003 91109 91205 91301
AAXX 10184 41150 NIL
AAXX 10184 41168 NIL
AAXX 10184 41170 42962 13305 10194 20115 30198 40211 81030 333 10234 58002 81362
AAXX 10184 41176 NIL
AAXX 10184 41184 42960 01903 10160 20077 40181 333 20284 59004
AAXX 10184 41194 12960 09902 10230 20092 30184 40189 60001 333 10271 59005
AAXX 10184 41196 42960 01600 10161 20094 30152 40193 333 10271 59004
AAXX 10184 41198 42960 03107 10200 20084 40189 333 10251 59006
AAXX 10184 41210 NIL
AAXX 10184 41216 NIL
AAXX 10184 41217 42960 00402 10187 20125 30158 40187 333 10255 58001
AAXX 10184 41218 42960 03307 10181 20106 39883 40194 333 10268 58005
AAXX 10184 41226 NIL
AAXX 10184 41244 36/// /3404 10184 20098 39843 48291 333 0E018 10267 58004
AAXX 10184 41246 NIL
AAXX 10184 41254 36/// /2706 10111 21196 37963 47967 333 0E006 10207 59004
AAXX 10184 41256 32960 01704 10209 20118 30179 40189 333 10256 59006
AAXX 10184 41258 36/// /2102 10234 20120 30177 40182 333 0E/// 10250 59006
AAXX 10184 41268 NIL
AAXX 10184 41312 36/// /2704 10236 20147 30127 40166 333 0E/// 10284 59000
AAXX 10184 41314 NIL
AAXX 10184 41316 NIL
AAXX 10184 41404 42960 00804 10117 21093 37884 48545 333 10228 58005
AAXX 10184 41407 NIL
AAXX 10184 41431 42960 00000 10260 20231 30124 40137 333 10306 58012
AAXX 10184 41466 NIL
AAXX 10184 41477 NIL
AAXX 10184 41480 42460 50809 10261 20148 30162 40165 85500 333 10295 58011 82618 85640
BBXX 46114 10181 99364 71222 46/// ///// 1//// 91804 22200 00112 11704 20902 330// 41703 70018
BBXX SHIP 10184 99075 31033 41/98 32206 10282 20238 40099 57011 70211 8//// 22213 00301 11704 20101 327// 41004
BBXX 44033 10181 99441 70690 46/30 /3108 10060 40197 55003 91804 22200 00086 10601 70007 333 91210 555 11101 22106
BBXX 44034 10181 99441 70681 46/30 /3107 10060 40190 55000 91804 22200 00090 10602 70012 333 91209 555 11087 22092
BBXX 44039 10181 99411 70727 46/// /3305 10061 21022 91800 22200 00110 10301 70005 333 91208
BBXX 44098 10181 99428 70702 46/// ///// 1//// 91807 22200 00096 10402 20402 70011
BBXX 44060 10181 99413 70721 46/// ///06 10057 91815 22200 00115 333 91208 555 11062 22062
BBXX 44022 10181 99409 70737 46/// ///07 10051 21035 91815 22200 00100 333 91209 555 11072 22077
AAXX 10181 22282 315// 81405 11030 21047 30090 40098 57031 73632 8355/ 333 11022
AAXX 10181 22165 12998 80909 11036 21054 30032 40095 53002 69920 8805/ 333 11002 91118
AAXX 10181 38388 NIL
AAXX 10181 38392 32297 81303 11042 21058 30162 40270 58003 886// 333 11017 88706
AAXX 10181 38507 32996 83404 10038 20012 30141 40246 52020 8807/ 333 10114
AAXX 10181 38511 32598 80902 11025 21031 30105 40242 53007 886// 333 11005
AAXX 10181 38545 32998 81203 11020 21036 30087 40270 58003 8802/ 333 11012
AAXX 10181 38647 32597 70910 11004 21032 30171 40215 57006 87600 333 10048
AAXX 10181 38656 32698 80903 11007 21035 30131 40244 57001 885// 333 10014
AAXX 10181 38687 31/92 90501 11018 21018 30028 40273 58002 74544 333 11011 89/01
AAXX 10181 38750 32997 02703 10071 20048 30247 40219 53015 333 10144
AAXX 10181 38763 31496 80703 11001 21022 30115 40224 57004 71022 886// 333 10045 88713
AAXX 10181 38774 32995 01402 10002 21012 30031 40234 57007 333 10039
AAXX 10181 38799 31/93 90702 11014 21016 30025 40267 58008 74944 333 10001
AAXX 10181 38806 31/92 90201 11014 20003 39998 40269 57003 74141 333 10027
AAXX 10181 38880 31295 80601 10015 20004 39968 40230 58003 71011 886// 333 10074 88704
AAXX 10181 38886 31/93 91102 10000 21006 30009 40244 58009 74540 8//// 333 10065
AAXX 10181 38895 31/90 90402 11004 21004 39952 40253 57012 74542 333 10020
AAXX 10181 38911 32997 01802 10028 21014 39957 40259 58002 333 10141
AAXX 10181 38915 32997 01002 10060 20006 39935 40263 52009 333 10157
AAXX 10181 38974 32998 01601 10022 20012 39890 40233 57010 333 10054
AAXX 10181 38987 32996 02202 10042 21000 39497 40252 58003 333 10154
BBXX 41115 10181 99184 70673 46/// ///// 1//// 91805 22200 10902 20902 303// 41101 70011
BBXX 41114 10181 99276 70802 46/// ///// 1//// 91816 22200 00244 10603 20603 307// 41101 70016
BBXX 42362 10181 99278 70907 46/// /0313 10156 20039 40281 58007 91800
BBXX 42363 10181 99282 70892 46/// /0414 10156 20050 40275 91815 333 91214
BBXX 42364 10181 99291 70881 46/// /0213 10144 20022 40271 91815
AAXX 10181 28383 31996 00000 11232 21250 30272 40367 57006 70400 333 11141 93525
AAXX 10181 28688 32997 20402 11131 21137 30168 40338 57008 80001 333 11080
AAXX 10181 28791 32998 00303 11145 21158 30179 40335 57011 333 11090
AAXX 10181 28588 32998 00202 11160 21179 30179 40351 57005 333 11084
AAXX 10181 28586 32997 00201 11164 21177 30192 40352 57007 333 11071
AAXX 10181 28696 12997 20402 11177 21189 30192 40344 57009 69900 80001 333 11111
AAXX 10181 28465 32998 01902 11170 21183 30268 40351 57007 333 11126
AAXX 10181 23929 32979 81302 11157 21170 30246 40318 57006 80007 333 11099
AAXX 10181 38847 3//// /2802 10055 21061 39490 40260 333 10123 777 92043
BBXX 46088 10181 99483 71232 46/// /0104 10046 40210 91820 22200 00082 10501 70003 333 91205 555 11044 22045 31753 43606 61819 012041 010041 012048 010049 006049 004047
BBXX 51203 10181 99208 71570 46/// ///// 1//// 91813 22200 00250 11402 20301 328// 41401 70009
BBXX 52200 10181 99134 11448 46/// ///// 1//// 91815 22200 00288 10704 20704 307// 41101 70022
BBXX ZQCP3 10183 99192 11136 41397 80226 10199 20133 40188 57020 70200 887// 22253 00250 29902 304// 40804 5//// 80161
BBXX DANR 10183 99393 11462 41/98 13111 10090 40085 58025 70200 8//// 22214 00150 2////
BBXX SHIP 10184 99266 11353 41397 83413 10190 20159 40202 56009 70222 8662/ 22283 00242 399// 4//// 5//// 80170
BBXX SHIP 10184 99354 11485 41697 53508 10130 20074 40128 57030 7//00 86983 22254 00230 20304 399// 40304 80100
BBXX 7JJA 10184 99154 11182 41696 80235 00 10260 20246 40085 57015 76362 886// 9//// 22242 0 2 12 303 4 12 5 6//// 80250 IC E/////
BBXX SHIP 10184 99292 11545 41397 63504 10218 20184 40192 57001 70022 8449/ 22263 06238 20303 329// 40604 80195
BBXX A8PB2 10183 99205 11134 41497 40220 10150 20116 40150 54000 70322 8456/ 22254 20704 305// 40804 80130
BBXX SHIP 10184 99244 11414 41/98 41212 10251 40165 57008 70311 8//// 22261 00263
BBXX SHIP 10184 99230 11701 41/96 31018 10262 20217 40186 56014 71600 8//// 22220 04254
BBXX SHIP 10184 99066 11269 41698 40803 10260 20246 40081 57072 70100 8323/ 22254 00294 80250
BBXX SHIP 10184 99230 11701 41/96 31018 10262 20217 40186 56014 71600 8//// 22220 04254
BBXX 3EDA4 10183 99322 11407 41498 20606 10171 20171 40139 53/// 70011 82613 22245 00222 20503 30505 40503 50503 80171
BBXX DCTA2 10180 99322 11674 41598 53410 10197 20137 40181 51013 70322 8113/ 22224 04210 2//04 399// 4//06 5//// 80160
BBXX DDJS2 10184 99455 71715 41297 81209 10109 20067 40048 58/// 70262 887// 22224 00120 2//// 3//// 4//// 5//// 80089
BBXX SHIP 10184 99207 30918 41498 41315 10230 20186 40101 50005 70101 8323/ 22214 00255 80210
AAXX 10184 08141 11458 82002 10080 20076 39316 40175 53004 60012 76162 8677/ 333 10090
AAXX 10181 14216 12565 80901 10120 20094 30023 40173 51/// 60002 888// 333 10149 923// 924/7
AAXX 10181 14219 11460 72003 10080 20035 39159 48478 51/// 69902 70266 87800 333 10095
AAXX 10181 14232 12584 61904 10127 20086 30025 40158 52/// 69912 83170 333 10141
AAXX 10181 14234 11780 12103 10120 20058 39910 40152 51/// 60002 700// 81500 333 10155
AAXX 10181 14236 12665 53302 10117 20069 39955 40149 51/// 60002 83530 333 10136
AAXX 10181 14244 12582 62202 10132 20076 30033 40160 53/// 60002 86500 333 10146
AAXX 10181 14248 12770 21802 10103 20068 39981 40153 51/// 60002 81440
AAXX 10181 14253 12660 42501 10109 20079 39981 40152 52/// 60002 84400 333 10149
AAXX 10181 14256 12570 62304 10115 20067 39836 40150 52008 69902 84530 333 10139
AAXX 10181 14280 12960 82001 10098 20077 30048 40157 54006 60002 8807/ 333 10120
AAXX 10181 14308 12665 72701 10101 20072 39821 40171 51/// 60002 82570 333 10133
AAXX 10181 14321 11562 81001 10127 20109 30157 40181 53/// 60012 760// 888// 333 10155 92311 92417
AAXX 10181 14370 11520 80000 10092 20072 30053 40161 55011 69932 71022 886// 333 10126
AAXX 10181 14382 11670 72001 10138 20063 30042 40159 52011 69932 72162 87500 333 10146
AAXX 10181 14428 12470 61302 10144 20123 30171 40178 53/// 60002 84830 333 10162 92301
AAXX 10181 14441 11580 61801 10143 20096 30150 40174 51/// 60002 700// 81132 333 10183 92312
AAXX 10181 14452 NIL
AAXX 10181 14454 11775 81003 10158 20083 30123 40182 54/// 69912 7006/ 8287/ 333 10180 92312
AAXX 10181 14462 11570 73401 10120 20105 30188 40195 53/// 60052 7036/ 83808 333 10130
BBXX SHIP 10184 99207 30918 41498 41315 10230 20186 40101 50005 70101 8323/ 22214 00255 80210
AAXX 10181 21432 41596 81102 11185 21218 30153 40173 52004 77172 885//
AAXX 10181 21824 41997 82101 11280 21292 30189 40199 57002 77872 82036
AAXX 10181 21908 42999 30000 11426 21443 30151 40245 57004 80001
AAXX 10181 21921 41997 50000 11377 21405 30157 40207 54000 71011 82031
AAXX 10181 21931 41996 82706 11225 21250 30134 40168 54000 77173 8805/
AAXX 10181 21946 42999 01901 11355 21390 30082 40171 52006
AAXX 10181 21982 31998 60509 11147 21160 30009 40037 57021 73731 86030 333 21168 49013 91112
AAXX 10181 25062 11597 70606 11146 21159 30005 40009 57035 69902 77073 87500 333 21208 47010 91108
AAXX 10181 25123 41996 70000 11341 21371 30042 40078 57019 77172 83022
AAXX 10181 25138 41698 83104 11330 21353 39929 40064 57016 77172 8553/ 333 91107
AAXX 10181 25173 11396 83005 11175 21181 39996 40001 57026 69922 77173 885// 333 21178 48045 91108
AAXX 10181 25248 42998 80000 11310 21334 39522 40007 57037 8253/ 333 91102
AAXX 10181 25282 11956 83108 11122 21128 39931 49937 58062 69990 77173 8803/ 333 21215 48010 91111
AAXX 10181 25325 NIL
AAXX 10181 25356 11597 83608 11175 21217 39757 49858 57048 69922 77173 885// 333 21185 48019 55000 91012
AAXX 10181 25399 11468 81009 11038 21056 39882 49891 57038 69940 73783 885// 333 21145 48055 55000 91114
AAXX 10181 25428 41958 71601 11423 21455 39695 40075 57017 77872 86036 333 91102
AAXX 10181 25551 11996 83606 11159 21178 39801 49832 57037 69980 77173 8802/ 333 21183 47024 55000 91113
AAXX 10181 25563 11/01 90624 11108 21121 39628 49704 57042 60052 73973 333 21142 48024 55000 91136 92992
AAXX 10181 25594 11/93 90818 11009 21009 39708 49756 57071 73833 333 21091 48029 91124
AAXX 10181 25677 11396 80306 11028 21035 39632 49638 57016 60022 78583 889// 333 21052 86707 91116
AAXX 10181 31054 41998 80000 11364 21398 39861 40167 52005 77172 88020
AAXX 10181 31123 41997 83101 11354 21383 39822 40188 52008 77172 80007
AAXX 10184 89514 32/95 81425 11035 49717 52005 88020 333 88345
AAXX 10184 89514 32/95 81425 11035 49717 52005 88020 333 88345
BBXX 46207 10181 99509 71299 46/// /3208 10075 40213 52010 22200 00085 11706 70031 333 91210
BBXX DGTX 10183 99358 71222 41297 62911 10130 20084 40210 54000 70211 867/8 22275 00140 20202 332// 40404 80105
BBXX WCAJ 10184 99570 71426 413// 73120 10050 20050 40170 54000 7//// 879// 222// 00050 20301 3//// 40502 5//// 6//// 80050 ICE /////
BBXX WCX8884 10184 99476 71412 41096 33105 10060 20040 40320 54000 70211 833// 22275 00054 20704 3//// 40704 5//// 6//// 80050 ICE /////
BBXX WDB3161 10184 99426 71301 41598 70324 10110 20100 40232 52012 72582 852/8 22275 00136 20402 332// 40902 5//// 6//// 80105 ICE /////
BBXX WDF4764 10184 99412 71257 41397 80207 10111 20060 40220 54000 7//22 887// 22233 0//// 20101 334// 40604 5//// 6//// 80089 ICE /////
BBXX WSRL 10184 99462 71293 41298 73520 10105 20070 40222 57013 72052 862/9 22214 00094 2//// 328// 41607 5//// 6//// 80085 ICE /////
AAXX 10184 93800 16/// /1604 10135 20111 40179 57014 60001
AAXX 10184 93805 16/// /0802 10123 20106 40186 57020 60001
AAXX 10184 93994 16/// /1209 10204 20182 40168 52002 60001
AAXX 10184 48405 32960 00508 10150 20102 30015 40185 57001 333 58028
BBXX 46147 10181 99518 71312 46/// /2808 10067 40207 52008 22200 00083 11507 70035 333 91210
AAXX 10184 61600 32960 73406 10270 20202 30089 40094 80002 333 10360 58002 87073
AAXX 10184 61612 32960 00000 10325 20027 30092 40100 333 10363 58005
AAXX 10184 61627 31935 60602 10335 20043 3//// 4//// 7061/ 80002 333 10372 5//// 86073
AAXX 10184 61630 32960 00000 10332 20122 30070 40089 333 10370 58003
AAXX 10184 61641 32960 73609 10255 20218 30070 40102 80002 333 10282 58006 87073
AAXX 10184 61666 32962 70000 10356 20173 30071 40079 80002 333 10372 58001 87073
AAXX 10184 61679 32960 60000 10350 20193 30085 40093 80002 333 10390 58004 86073
AAXX 10184 61687 31940 70402 10346 20135 30023 40080 70511 80002 333 10370 58005 87073
AAXX 10184 61695 32960 53402 10300 20152 30063 40089 80002 333 10347 58001 85073
AAXX 10184 61697 32960 42204 10275 20194 30074 40089 80002 333 10340 58006 84073
AAXX 10184 61698 32960 61802 10316 20188 30070 40081 80002 333 10366 58001 86073
AAXX 10184 61699 32958 51204 10335 20106 39877 40065 80002 333 10367 58005 85073
AAXX 10184 48372 32560 60603 10226 20196 30089 40148 57002 83556 333 58013
BBXX 46147 10181 99518 71312 46/// /2808 10067 40207 52008 22200 00083 11507 70035 333 91210
AAXX 10181 40009 32965 00000 10049 20032 40233 52020 333 10114
AAXX 10181 40016 NIL
AAXX 10181 40022 32965 00000 10086 20041 40262 52024 222// 20000 333 10152
AAXX 10181 40030 32970 00000 10064 20040 40257 51016 333 10150
AAXX 10181 40039 NIL
AAXX 10181 40066 32970 00000 10090 21018 40260 52016 333 10150
AAXX 10181 40072 32970 00000 10068 20025 40271 52028 333 10130
AAXX 10181 40083 32970 02401 10026 20007 48530 52013 333 10100
AAXX 10184 60686 12956 00608 10216 20012 40178 57005 60002 333 10285
AAXX 10184 48409 31958 00210 10165 20119 30021 40175 57000 71000 333 58021
AAXX 10184 60595 36/// /0000 11451 333 11451
AAXX 10181 40001 32970 03105 10009 21004 40262 53023 333 10062
AAXX 10181 40007 31929 03101 10055 20022 40269 51015 70500 333 10122
AAXX 10181 40025 32965 00803 10062 20029 40258 52014 333 10161
AAXX 10181 40045 32970 02403 10043 20020 40261 52013 333 10123
AAXX 10181 40061 32970 03304 10080 21006 40252 52018 333 10136
AAXX 10181 40080 32965 02101 10050 20001 39527 40253 52016 333 10152
AAXX 10181 40087 NIL
AAXX 10181 40095 NIL
AAXX 10181 40009 32965 00000 10049 20032 40233 52020 333 10114
AAXX 10181 40016 NIL
AAXX 10181 40022 32965 00000 10086 20041 40262 52024 222// 20000 333 10152
AAXX 10181 40030 32970 00000 10064 20040 40257 51016 333 10150
AAXX 10181 40039 NIL
AAXX 10181 40066 32970 00000 10090 21018 40260 52016 333 10150
AAXX 10181 40072 32970 00000 10068 20025 40271 52028 333 10130
AAXX 10181 40083 32970 02401 10026 20007 48530 52013 333 10100
AAXX 10181 08554 32465 72405 10156 20128 30193 40203 57002 8583/ 333 10167 82811 85622 85359 91108
BBXX 61002 10184 99421 10047 46/// ///06 10143 2//// 40174 52004 22200 00151 10401 70003
AAXX 10181 08501 32/// /9902 10172 20130 30261 40297 57003 333 10196
AAXX 10181 08545 11360 72002 10122 20106 30074 40157 57008 60142 72582 8686/ 333 10142 84707 86812 91109
AAXX 10181 13463 11550 81101 10086 20083 30159 40220 54000 60062 76162 8572/ 333 10087
AAXX 10181 13459 11210 81601 10056 20056 39459 40233 54000 60202 76166 8672/ 333 10060 86792 88497
AAXX 10181 13461 12665 71402 10162 20121 30208 40216 50000 69992 84820 333 10176 82833 83650 87458 92322 92427
AAXX 10181 13363 32665 62901 10017 20017 39281 48491 50003 86500 333 10072 43008
AAXX 10181 89064 11480 50204 10049 29075 49765 57014 69911 70155 82548
AAXX 10184 60645 36/// /0000 10212 21020 333 10250
BBXX 62087 10181 99547 10068 46/// /1002 10059 20010 4//// 5//// 22230 00086
AAXX 10181 10908 01/01 92610 11007 21007 38467 48465 53012 60052 75675 333 11001 21011 3/101 49011 55300 20000 30000 69927 89/01 91118 91214 96049 96270 96473
AAXX 10184 78922 46//+ /1306 10274 20224 30056 40100 56021
AAXX 10184 60663 36/// /1704 10201 21119 333 10235
AAXX 10184 60619 36/// /0108 10157 21007 333 10206
AAXX 10184 60621 36/// /3408 10198 21031 333 10259
AAXX 10184 60664 36/// /0000 10135 21042 333 10187
AAXX 10184 61017 32960 50000 10184 20061 39769 40185 80002 333 10255 58012 85080
AAXX 10184 61024 31940 21010 10220 20027 39585 40155 70600 80002 333 10270 58005 82080
AAXX 10184 61036 31918 70802 10282 21017 39875 40113 7062/ 80008 333 10310 58013 87280
AAXX 10184 61043 31908 71210 10262 21080 39690 40134 7064/ 80008 333 10288 58014 87280
AAXX 10184 61045 31908 70606 10250 21038 39642 40140 7064/ 80008 333 10284 58012 87280
AAXX 10184 61049 31940 70804 10245 20092 39810 40132 7062/ 80008 333 10288 58010 87280
AAXX 10184 61052 31912 50806 10276 21048 39865 40123 70622 80002 333 10310 58013 85080
AAXX 10184 61075 31906 71206 10260 20012 39811 40121 70644 80008 333 10295 58013 87280
AAXX 10184 61080 31910 70000 10242 20020 39715 40137 70642 80008 333 10281 58014 87280
AAXX 10184 61090 31928 70406 10250 21039 39623 40134 70622 80008 333 10285 58009 87280
AAXX 10184 61091 32960 70000 10220 20072 39688 40145 80008 333 10282 58012 87280
AAXX 10184 61096 31957 70808 10255 21001 39760 40144 70522 80008 333 10297 58015 87280
AAXX 10184 61099 31915 70806 10285 20044 39878 40106 70622 80008 333 10325 58017 87280
AAXX 10184 60612 36/// /0607 10156 21021 333 10206
BBXX 61002 10184 99421 10047 46/// ///06 10143 2//// 40174 52004 22200 00151 10401 70003
AAXX 10184 65528 NIL
AAXX 10184 65536 NIL
AAXX 10184 65545 31960 0//// 10291 20135 39673 40093 70500 333 10336 58014
AAXX 10184 65548 NIL
AAXX 10184 65555 NIL
AAXX 10184 65557 32960 0//// 10295 20237 39845 40082 333 10/// 58000
AAXX 10184 65560 32460 5//// 10310 20207 39773 40078 85200 333 10344 59009 85815 94910
AAXX 10184 65562 32458 3//// 10316 20228 3//// 4//// 81202 333 10345 5//// 81815 83080 94904
AAXX 10184 65563 32956 43604 10281 20237 39849 40087 80002 333 10327 58011 84076
AAXX 10184 65578 12560 72404 10276 20248 30/// 40/// 60012 83570 333 10315 5//// 83620 86360
AAXX 10184 65585 32460 6//// 10278 20230 3//// 4//// 83572 333 10322 5//// 82613 85076
AAXX 10184 65592 12460 5//// 10271 20241 30062 40084 83202 333 10304 58011 83813 83076 94913
AAXX 10184 65594 31460 62006 10282 20244 30058 40092 71799 83903 333 10307 58007 82813 81920 84080 94903 94948 95838
AAXX 10184 65599 11458 6//// 10246 20225 30009 40083 60112 79599 86933 333 10305 58013 86813 81916 95868
AAXX 10181 15600 41989 62016 10018 21007 38327 48526 52007 60002 70222 86070 333 10035 21010 91120 555 583//
AAXX 10181 14443 42698 518// 10151 20130 30099 40189 52003 85530 333 10174 92312
AAXX 10181 25703 41996 80000 11385 21413 39833 40139 58008 77172 83037
AAXX 10181 25745 NIL
AAXX 10181 25913 42999 00503 11200 21258 39830 49985 57006
AAXX 10181 25954 41595 83416 11146 21173 39631 49745 53009 78583 889// 333 91021 91123 92982
AAXX 10181 25956 42699 20515 11091 21116 39630 49636 53001 82500 333 31018 91120
AAXX 10181 31088 NIL
AAXX 10181 31873 42997 82602 11136 21161 30020 40160 53004 82031
AAXX 10181 31909 42998 32904 11101 21174 30047 40127 53003 80009
AAXX 10181 31960 42998 83602 11078 21157 39944 40188 52009 80007
AAXX 10181 31961 42698 81903 11124 21159 30134 40182 52004 82531
AAXX 10181 32053 42997 22702 11187 21199 39997 40049 53001 80002 333 91003 91104
AAXX 10181 32061 41564 83103 11128 21163 30022 40063 57004 70282 889// 333 91005 91106
AAXX 10181 32098 42598 23502 11178 21190 30056 40067 57001 81903 333 91004 91105
AAXX 10181 32150 41596 70000 11082 21092 30035 40065 57007 78582 87900 333 91102
AAXX 10181 32165 42699 22602 11004 21071 30018 40079 56016 82100 333 91003 91108
AAXX 10181 32215 41596 62803 11026 21096 39959 49988 57002 72682 86900 333 91005 91111
AAXX 10181 32252 NIL
AAXX 10181 32389 41999 72809 11179 21205 39829 49967 57004 73631 82031 333 91013 91113
AAXX 10181 32477 42998 30701 11222 21241 39926 49972 57016 80001
AAXX 10181 32583 42699 13112 11066 21149 39869 49899 52001 81500 333 91014 91116
AAXX 10181 32618 41598 70115 11048 21096 39761 49782 52015 70283 87900 333 91022 91125 92980
AAXX 10184 40153 11660 13408 10050 20026 39163 48545 52011 60002 71000 81400 333 10106
AAXX 10184 40179 12565 21103 10113 20060 30222 40260 52015 60002 82100 333 10187
AAXX 10184 40180 12660 20602 10113 20045 30213 40263 52014 60002 82500 333 10187
AAXX 10184 40190 16/// ///// 10120 20047 39921 40258 52015 60002 333 10182
AAXX 10184 40199 12970 00206 10171 20022 30210 40233 52011 60002 333 10208
AAXX 10184 41270 36/70 /3507 10210 20111 30132 40144 333 0E021 10262 59001
AAXX 10181 60381 36/// /2001 10142 20116 333 10188
AAXX 10181 60639 36/// /0807 10162 21004 333 10223
AAXX 10181 60605 36/// /0000 10182 21045 333 10203
AAXX 10181 60373 36/// /2001 10138 20118 333 10167
AAXX 10181 60393 36/// /0000 10150 20115 333 10189
AAXX 10184 71624 12574 42718 11024 21115 30073 40292 50000 60001 82830 333 11017 21054 79999
AAXX 10184 71356 16/// /2905 11285 21313 30036 40106 53008 60001 333 11261 21293 70000
AAXX 10184 71217 16/// /2011 10048 21054 60001 333 10052 21028 70000
AAXX 10184 71224 16/// /1406 10050 21083 60001 333 10050 21017 70000
AAXX 10184 71979 16/// ///// 11018 21074 38420 40080 50002 60001 333 10006 21105 70000
AAXX 10181 08535 12/// /3303 10123 20107 30105 40198 52014 60082 333 10142 91006 91106 555 69915
AAXX 10181 60379 36/// /0000 10131 20131 333 10171
AAXX 10181 60380 36/// /0701 10123 20115 333 10170
AAXX 10181 08501 32/// /9902 10172 20130 30261 40297 57003 333 10196 555 60005
AAXX 10181 08554 32465 72405 10156 20128 30193 40203 57002 8583/ 333 10167 82811 85622 85359 91108 555 60005
AAXX 10181 08545 11360 72002 10122 20106 30074 40157 57008 60142 72582 8686/ 333 10142 84707 86812 91109 555 69995
AAXX 10181 08571 12/// /3301 10082 20082 39481 40189 52001 60112 333 10083 555 69935
AAXX 10184 71276 16/// ///07 11048 21087 60001 333 11029 21073 70000
AAXX 10184 71340 16/// /2703 11036 21070 60001 333 11036 21084 70000
AAXX 10184 71343 16/// /2118 10054 21064 60001 333 10059 21006 70000
AAXX 10184 71161 16/// /2510 11019 21085 30105 40257 58003 60001 333 11010 21062 70018
AAXX 10184 71189 46/// /2821 11057 21117 6///1 333 11024 21067 7////
AAXX 10184 89002 41498 81112 11036 21049 39595 49649 52017 70272 888//
AAXX 10184 71050 46/// /0902 11143 21162 39086 40204 53010 6///1 333 11138 21165 7////
AAXX 10184 86330 32598 10000 10298 20135 40093 57017 81500
AAXX 10184 86360 32598 10508 10303 20123 40095 57023 81100
AAXX 10184 86460 32698 20710 10280 20108 40117 57014 82100
AAXX 10184 86490 32598 10504 10317 20127 40097 57025 81100
AAXX 10184 86530 32698 41106 10290 20119 40105 57020 84105
AAXX 10184 86545 32497 50206 10294 20163 40121 57024 85200
AAXX 10184 86565 32598 11015 10252 20169 40125 56010 81200
AAXX 10184 86580 32697 11115 10240 20176 40112 57011 81500
AAXX 10184 71161 16/// /2510 11019 21085 30105 40257 58003 60001 333 11010 21062 70018
AAXX 10184 71189 46/// /2821 11057 21117 6///1 333 11024 21067 7////
AAXX 10184 71276 16/// ///07 11048 21087 60001 333 11029 21073 70000
AAXX 10184 71050 46/// /0902 11143 21162 39086 40204 53010 6///1 333 11138 21165 7////
AAXX 10181 31088 42999 00104 21211 21251 30015 40033 52009
AAXX 10184 71624 12574 42718 11024 21115 30073 40292 50000 60001 82830 333 11017 21054 79999
AAXX 10184 71979 16/// ///// 11018 21074 38420 40080 50002 60001 333 10006 21105 70000
AAXX 10184 71356 16/// /2905 11285 21313 30036 40106 53008 60001 333 11261 21293 70000
AAXX 10184 71340 16/// /2703 11036 21070 60001 333 11036 21084 70000
AAXX 10184 71343 16/// /2118 10054 21064 60001 333 10059 21006 70000
AAXX 10184 71217 16/// /2011 10048 21054 60001 333 10052 21028 70000
AAXX 10184 71224 16/// /1406 10050 21083 60001 333 10050 21017 70000
AAXX 10181 50434 32980 70701 11289 21322 39265 40236 52003 80002 333 11160
AAXX 10181 50527 32970 03201 11191 21208 39378 40221 52009 333 11137
AAXX 10181 50603 32980 32904 11093 21108 39510 40214 52008 80002 333 11039
AAXX 10181 50632 32680 63204 11136 21163 39256 40191 52006 86500 333 11102
AAXX 10181 50727 11570 82904 11106 21129 38975 40215 52010 69911 77077 885// 333 11099
AAXX 10181 50915 32680 42202 11143 21179 39197 40262 52002 84500 333 11064
AAXX 10181 51716 32965 71101 11048 21071 39016 40385 57008 80002 333 05401 11006
AAXX 10181 51765 32980 60000 11088 21112 39333 40388 57002 84032 333 05302 10014
AAXX 10181 51777 32970 02202 11064 21106 39290 40387 57003 333 05453 10024
AAXX 10181 51811 32962 20000 11088 21101 38891 40395 57003 80002 333 05453 11029
AAXX 10181 51828 32965 01102 11057 21083 38729 40379 57011 333 05452 11021
AAXX 10181 52267 32980 02501 11096 21232 39210 40381 57012 333 05703 11017
AAXX 10181 52323 32980 02705 11161 21231 38295 57003 333 05404 11064
AAXX 10181 52495 32980 02201 11161 21253 38771 40399 57012 333 05700 11027
AAXX 10181 53149 32980 02707 11086 21142 38833 40324 57006 333 05405 11055
AAXX 10181 53192 11678 72203 11145 21163 38914 40327 57002 69901 77070 86502 333 11116
AAXX 10181 53231 NIL
AAXX 10181 53336 32980 00401 11119 21163 38792 40371 57009 333 05500 11056
AAXX 10181 53391 32980 02907 11105 21137 38539 40321 57005 333 05206 11078
AAXX 10181 53529 32980 02201 11110 21174 38709 40379 57007 333 05504 11033
AAXX 10181 53543 32980 01802 11090 21168 38610 40362 57008 333 11038
AAXX 10181 53723 32970 02501 11146 21182 38746 40398 57009 333 05601 11030
AAXX 10181 54012 32980 02508 11120 21158 39016 40262 52003 333 11086
AAXX 10181 54026 32980 00000 11063 21114 39859 40197 52009 333 11017
AAXX 10181 54027 32980 02501 11058 21123 39610 40219 52006 333 10000
AAXX 10181 54208 11980 22705 11089 21124 38785 40308 57002 69901 70070 80002 333 11079
AAXX 10181 54776 32970 02003 10001 21061 30220 40279 52003 333 10023
AAXX 10181 56004 32980 12503 11160 21204 35787 52001 80002 333 05202 11036
AAXX 10181 56033 11675 71103 11104 21167 35993 52002 69901 78500 85902 333 05307 11046
AAXX 10181 56046 11680 70702 11077 21109 36226 52002 60011 78588 879// 333 05302 11014
AAXX 10181 56193 NIL
AAXX 10181 56196 32960 70000 10049 20005 40310 57015 8703/ 333 05651 10096
AAXX 10181 56287 32970 80000 10047 20030 40315 57011 8807/ 333 05600 10107
AAXX 10181 56684 32560 81101 11013 21045 37939 57008 885// 333 05151 10001
AAXX 10181 56751 32780 21104 10100 20042 38026 52001 82400 333 00100 10182
AAXX 10181 56786 32562 81804 10011 21013 38160 57005 885// 333 00051 10018
AAXX 10181 56977 11465 81401 10103 20094 40224 54000 69931 72160 885// 333 00252 10128
AAXX 10181 57259 32970 00000 11033 21036 40345 57007 333 10081
AAXX 10181 57279 32961 31101 10004 21056 40331 57012 80008 333 10077
AAXX 10181 57348 32970 03601 10040 20015 40323 57001 333 10127
AAXX 10181 57399 32965 20202 11013 21055 40338 57012 80001 333 10088
AAXX 10181 57554 32961 00000 10002 21011 40340 57001 333 10104
AAXX 10181 57793 32962 01601 10007 21009 40329 57009 333 10091
AAXX 10181 58345 32963 02701 10008 21061 40333 57006 333 10053
AAXX 10181 58506 32970 00402 11061 21103 40337 57014 333 10006
AAXX 10181 58813 32969 00000 10000 21016 40313 57014 333 10075
AAXX 10181 58834 32970 02501 10036 21024 40300 57008 333 10124
AAXX 10181 58926 32970 23401 10063 21026 40275 57015 80002 333 10146
AAXX 10181 58944 32563 70405 10108 20005 40265 57011 875// 333 10119
AAXX 10181 59096 32965 00401 10052 21110 40283 57015 333 10124
AAXX 10181 59102 32962 00403 10036 21112 40285 57015 333 10103
AAXX 10181 59278 32978 00203 10089 21065 40277 57006 333 10157
AAXX 10181 59456 32972 00204 10084 21073 40261 57006 333 10156
AAXX 10181 59493 32980 03606 10087 21055 40248 57010 333 10151
AAXX 10181 59658 32970 03603 10083 21045 40247 57009 333 10170
AAXX 10181 59673 32966 03614 10107 21020 40237 57010 333 10150 91119 91536
AAXX 10181 59845 32560 70401 10117 20056 40244 57008 878// 333 10169
BBXX 46145 10181 99544 71324 46/// /3304 10053 40177 52015 22200 00076 11505 70025 333 91206
BBXX 46183 10181 99536 71311 46/// /2607 10058 40184 52009 22200 00078 11602 70008 333 91208
AAXX 10183 64810 32460 62804 10290 20241 30050 40076 83530 333 10320 55/// 58009 83613 86363
AAXX 10181 38599 31918 00303 10011 20000 39762 40291 58002 71000 333 10005
AAXX 10181 38734 429// 00506 11084 21160 47100 51001
AAXX 10181 38846 429// 00404 11006 21059 38572 48530 52002
BBXX 46183 10181 99536 71311 46/// /2607 10058 40184 52009 22200 00078 11602 70008 333 91208
BBXX 46145 10181 99544 71324 46/// /3304 10053 40177 52015 22200 00076 11505 70025 333 91206
AAXX 10184 45011 47970 /0219 10093 21017 40241 57007 70011 333 58001
BBXX 46131 10181 99499 71250 46/// /0101 1//// 40218 52012 22200 00067 10300 70000 333 91201
AAXX 10181 53231 32980 01605 11124 21198 38560 57008 333 05601 11058
AAXX 10181 01494 11773 43101 11021 21028 39856 49922 53034 60002 70120 84070 333 10033 91106
BBXX 46131 10181 99499 71250 46/// /0101 1//// 40218 52012 22200 00067 10300 70000 333 91201
AAXX 10181 40650 11915 03403 10123 20014 40253 52017 60002 70600
AAXX 10181 40602 12960 00000 10034 20017 40284 52020 60032
AAXX 10181 40604 11556 30000 10044 20040 40253 52024 69942 71011 83200
AAXX 10181 40606 12960 30301 10055 20030 40213 52020 60052 83060
AAXX 10181 40608 11958 02602 10050 20040 40257 52025 69942 71011
AAXX 10181 40611 11556 81503 10017 20015 40206 51019 69922 75166 888//
AAXX 10181 40616 11556 81104 10065 20045 40251 52020 69902 75052 888//
AAXX 10181 40621 11958 21201 10077 20025 40257 52018 60002 70600 80001
AAXX 10181 40623 11956 40000 10054 21004 40259 52024 69922 70500 84030
AAXX 10181 40627 12960 02703 10078 20036 40257 52025 60002
AAXX 10181 40629 12960 02902 10074 20041 40254 52018 60002
AAXX 10181 40631 12560 60000 10091 20076 40251 52023 60002 86800
AAXX 10181 40632 11908 02602 10102 20033 40238 52016 60002 70644
AAXX 10181 40634 12960 02702 10075 20026 40253 52015 60002
AAXX 10181 40637 12960 40000 10100 20048 40249 52020 60002 80002
AAXX 10181 40642 12960 20000 10058 21041 40267 52018 60002 80001
AAXX 10181 40656 11930 03202 10128 20009 40232 52020 60002 70600
AAXX 10181 40665 12960 03204 10117 20043 40252 52019 60002
AAXX 10181 40670 12960 00000 10115 20021 40248 52023 60002
AAXX 10181 40672 11958 00000 10112 20026 40251 51015 60002 70600
AAXX 10181 40674 12960 03305 10122 20006 40245 52022 60002
AAXX 10181 40676 12960 03106 10316 20027 40239 52023 60002
AAXX 10181 40680 12960 23005 10141 20037 40212 52013 60002 81032
AAXX 10181 40690 12960 33003 10142 20060 40217 52017 60002 83030
AAXX 10181 40691 12960 10000 10144 20076 40234 52010 60002 80001
AAXX 10181 23219 32998 72304 11097 21105 30138 40249 57023 87070 333 11065
BBXX 46204 10181 99514 71288 46/// /2606 10076 40204 52011 22200 00087 11605 70027 333 91208
BBXX 46204 10181 99514 71288 46/// /2606 10076 40204 52011 22200 00087 11605 70027 333 91208
AAXX 10184 82098 32597 60506 10322 20229 30061 40076 84660 333 58001
AAXX 10184 82246 32597 51102 10319 20256 39892 40088 84730 333 59001
AAXX 10184 82445 31598 51401 10328 20240 30046 40098 70544 85200 333 59001
AAXX 10184 82460 32597 33604 10379 20216 30036 40065 83200 333 59002
AAXX 10184 82562 32598 43604 10353 20243 39925 40031 84200 333 58000
AAXX 10184 82571 32497 23604 10339 20207 39891 40062 82200 333 59007
AAXX 10184 82765 32598 52903 10341 20234 39858 40094 83214 333 59001
AAXX 10184 91650 11599 20000 10276 2026/ 40081 53009 60001 70200 82100 333 569// 82820
AAXX 10184 91652 NIL
AAXX 10184 91656 NIL
AAXX 10184 91659 NIL
AAXX 10184 91660 NIL
AAXX 10184 91669 36/// /15// 10243 20243 40108 54000
AAXX 10184 91670 36/// /0600 10263 20223 40101
AAXX 10184 91676 NIL
AAXX 10184 91680 11699 51205 10230 20215 40106 53005 60001 70222 81102 333 569/9 81830 84080
AAXX 10184 91682 NIL
AAXX 10184 91683 11599 60000 10230 20229 40108 53005 69921 70382 86800 333 569// 85824 83650
AAXX 10184 91691 NIL
AAXX 10184 91693 11598 20000 10248 2024/ 40107 53006 60001 70200 81101 333 563/9 81825
AAXX 10184 91697 NIL
AAXX 10184 91699 NIL
BBXX 41036 10181 99342 70770 46/// ///// 10118 20052 40245 91820 22200 00168
BBXX 9KWP 10183 99120 30977 41697 73016 10280 20252 40089 58005 70265 84562 22274 2//// 80260
BBXX 9HA2479 10184 99338 31515 46/// /3514 10190 20177 30010 40039 57021 22254 04198 85181
BBXX C6FS9 10184 99208 31498 46/// /0111 10267 20255 30040 40075 57012 22233 04271 85258
BBXX VROB 10184 99068 31470 46/// /3313 10246 20227 30042 40067 57011 22200 04303 85232
BBXX FHZI 10184 99439 31473 46/// /0206 10145 2//// 39969 49980 57011 22283 04146
BBXX JPAT 10184 99109 30852 41498 42308 10273 20229 40086 58004 70300 83261 22253 00287 10904 2//00 316// 40601 85241
BBXX ZMKA 10184 99349 31724 41296 80528 10172 20169 40160 57010 75852 896// 22283 20403
AAXX 10184 42309 31495 30000 10170 20156 40105 70500 81530 333 58006
AAXX 10184 42314 31595 50000 10168 20154 40147 70522 82530 333 58025 82620 85360
AAXX 10184 42398 31990 90000 10163 20161 40135 74022 89999 333 58016
AAXX 10184 42410 31495 40000 10180 20177 40145 70522 82530 333 58026 82618 83359
AAXX 10184 42415 32596 60702 10192 20172 40144 83530 333 58011 83620 85360
AAXX 10184 42492 31994 30000 10162 20141 40132 71000 83030 333 58006 83360
AAXX 10184 42587 31995 20000 10170 20138 40130 70500 82030 333 58001 82360
AAXX 10184 42591 31494 22902 10170 20153 40135 71000 82500 333 59003 82618
AAXX 10184 42623 31495 30000 10116 20101 39245 40137 70500 83500 333 58002 83618
AAXX 10184 42701 31995 02902 10150 20095 39396 40141 70500 333 59003
AAXX 10184 42706 31495 40000 10188 20147 40121 70500 84500 333 56600 58001 84618
AAXX 10184 42724 31994 00000 10162 20155 40138 71000 333 58015
AAXX 10184 42798 31995 00000 10182 20144 40123 70500 333 59004
AAXX 10184 42809 31995 00000 10198 20179 40124 70500 333 58006
AAXX 10184 42886 31996 00000 10180 20134 40132 70500 333 59001
AAXX 10184 42895 32996 00000 10200 20167 40126 333 58006
AAXX 10184 42971 31994 02302 10208 20199 40125 71000 333 59004
AAXX 10184 43333 21495 70909 10274 20236 40111 70522 86401 333 56209 58010 6002/ 83616 85818
AAXX 10184 42977 NIL
AAXX 10184 43368 NIL
AAXX 10184 83096 32695 10908 10286 20223 30086 40093 81100 333 59008
AAXX 10184 83186 32598 41804 10340 20185 39519 40032 84200 333 59016
AAXX 10184 83242 32497 62703 10365 20177 39615 40093 83712 333 58038
AAXX 10184 83288 32598 82703 10261 20207 39574 40060 885// 333 59003
AAXX 10184 83344 32498 30506 10313 20202 39104 40045 81132 333 59020
AAXX 10184 82141 32598 30208 10301 20237 30070 40082 83200 333 58001
AAXX 10184 82145 32598 30903 10334 20234 30035 40076 82201 333 58001
AAXX 10184 82181 32497 50507 10330 20218 39962 40100 83205 333 58001
AAXX 10184 82198 32495 40707 10329 20223 30024 40075 84200 333 58001
AAXX 10184 82353 32598 60904 10353 20238 39974 40057 84230 333 58004
AAXX 10184 82361 32497 30504 10342 20236 30044 40081 83200 333 59003
AAXX 10184 82476 32595 51403 10369 20169 39948 40065 85200 333 59001
AAXX 10184 82861 32597 51406 10336 20239 39881 40047 83104 333 58001
BBXX 9KWP 10183 99120 30977 41697 73016 10280 20252 40089 58005 70265 84562 22274 2//// 80260
BBXX 9HA2479 10184 99338 31515 46/// /3514 10190 20177 30010 40039 57021 22254 04198 85181
BBXX C6FS9 10184 99208 31498 46/// /0111 10267 20255 30040 40075 57012 22233 04271 85258
BBXX VROB 10184 99068 31470 46/// /3313 10246 20227 30042 40067 57011 22200 04303 85232
BBXX FHZI 10184 99439 31473 46/// /0206 10145 2//// 39969 49980 57011 22283 04146
BBXX JPAT 10184 99109 30852 41498 42308 10273 20229 40086 58004 70300 83261 22253 00287 10904 2//00 316// 40601 85241
BBXX ZMKA 10184 99349 31724 41296 80528 10172 20169 40160 57010 75852 896// 22283 20403
BBXX ZCDS3 10181 99347 70443 41498 21005 10210 20164 40326 54000 70200 81161 22264 00240 20201 316// 40704 5//// 80182
AAXX 10184 67765 42975 70301 10208 20169 38651 48494 81038 333 10248 58000 81360 87280
AAXX 10184 67775 41675 71702 10180 20168 38504 48508 76066 8127/ 333 10262 81835 87458
AAXX 10184 67779 NIL
AAXX 10184 67853 NIL
AAXX 10184 67861 NIL
AAXX 10184 67867 42980 81203 10184 20158 38572 48499 87072 333 10219 58006 87459
AAXX 10184 67881 42980 73602 10196 20169 38574 48502 8707/ 333 10267 58011 87460
AAXX 10184 67965 41475 71501 10184 20161 38678 48501 70265 8157/ 333 10205 58008 81610 87459
AAXX 10184 67975 41975 80000 10202 20185 38916 48506 76162 8807/ 333 10254 58006 88460
AAXX 10184 67977 NIL
AAXX 10184 67983 42975 60000 10205 20170 38877 48504 86061 333 10244 58004 86359
AAXX 10184 67991 41680 80000 10216 20205 39580 48480 8557/ 333 10255 58015 85630 87460
AAXX 10183 67765 42975 70301 10208 20169 38651 48494 81038 333 10248 81360 87280
AAXX 10183 67775 41675 71702 10180 20168 38504 48508 76066 8127/ 333 10262 81835 87458
AAXX 10183 67867 42980 81203 10184 20158 38572 48499 87072 333 10219 87459
AAXX 10183 67881 42980 73602 10196 20169 38574 48502 8707/ 333 10267 87460
AAXX 10183 67965 41475 71501 10184 20161 38678 48501 70265 8157/ 333 10205 81610 87459
AAXX 10183 67975 41975 80000 10202 20185 38916 48506 76162 8807/ 333 10254 88460
AAXX 10183 67983 42975 60000 10205 20170 38877 48504 86061 333 10244 86359
AAXX 10183 67991 42580 80000 10216 20205 39580 48480 8557/ 333 10255 85630 87460
AAXX 10181 21802 42999 61901 11370 21387 30193 40220 57004 86070
AAXX 10181 24125 41998 50000 11400 21415 39950 40275 58002 70271 80005
AAXX 10181 24136 42999 80000 11407 21438 30155 40270 53001 80007
AAXX 10181 24143 42999 03601 11428 21461 30158 40217 52003
AAXX 10181 24266 41997 82801 11385 21413 30029 40232 57001 77177 80007
AAXX 10181 24329 42998 20000 11435 21461 39953 40309 52003 82010
AAXX 10181 24343 42998 23402 11320 21343 30075 40209 52005 80001
AAXX 10181 24382 41996 30000 11455 21476 39922 40218 53001 71011 80001
AAXX 10181 24639 42999 32301 11376 21411 30087 40263 52005 80001
AAXX 10181 24641 41999 82501 11372 21401 30071 40234 52005 70272 80001
AAXX 10181 24652 42997 00000 11408 21438 30052 40195 52006
AAXX 10181 24656 42999 22703 11373 21407 30065 40181 52006 80001
AAXX 10181 24671 42999 23601 11411 21438 39622 40206 53003 80001
AAXX 10181 24688 41998 80000 11459 21492 39197 40272 57001 77172 80007
AAXX 10181 24724 42999 03101 11285 21308 39690 40276 52009
AAXX 10181 24738 41998 80000 11342 21358 30069 40268 52007 70272 80007
AAXX 10181 24768 42998 30000 11420 21456 39919 40190 52005 80001
AAXX 10181 24923 41999 30000 11254 21278 39920 40254 52015 70271 80001
AAXX 10181 24944 41996 80000 11314 21336 39925 40252 52013 77172 80007
AAXX 10181 24951 42999 02802 11338 21375 30046 40235 52016
AAXX 10181 24661 41999 10105 11189 21257 39851 40121 53005 73630 80001
AAXX 10181 24959 41998 80000 11333 21362 30037 40182 52005 77172 80001
AAXX 10181 24962 41998 82301 11384 21413 39975 40190 52008 77172 83078
AAXX 10181 24966 41997 80000 11393 21416 39915 40164 52006 77172 80007
AAXX 10181 24967 42999 82501 11378 21405 39964 40214 52013 80007
AAXX 10181 25206 41997 82201 11375 21405 30115 40146 57002 77172 80007
AAXX 10181 25400 42998 53401 11411 21438 30094 40158 54000 80001
AAXX 10181 30054 41598 83402 11092 21132 39965 40212 52008 70282 85907
AAXX 10181 30089 41998 80000 11250 21267 39991 40235 52020 77177 80007
AAXX 10181 30393 41998 83504 11237 21255 39059 40177 52012 77172 8802/
AAXX 10181 30493 41999 80202 11227 21259 39048 40163 52012 70272 82041
AAXX 10181 31004 41996 80000 11284 21302 39301 40217 52018 77172 80007
AAXX 10181 31137 41998 80000 11432 21456 39047 40250 52006 77172 80005
BBXX ZCDS3 10181 99347 70443 41498 21005 10210 20164 40326 54000 70200 81161 22264 00240 20201 316// 40704 5//// 80182
BBXX C6VG8 10184 99365 70743 41/96 83433 10090 2//// 40230 52020 7//21 8824/ 22284 00170 2//// 3//// 4//// 5//// 6//// 8//// ICE /////
BBXX WQZ7791 10184 99473 70893 41/98 /0000 11177 2//// 40000 56000 70200 8//// 222// 01178 2//00 3//// 4//// 5//// 6//// 8//// ICE /////
BBXX ICGU 10184 99146 70610 41797 00312 10290 20263 40100 54000 7//// 80441 222// 04260 20101 3//// 40202 50203 6//// 85270 ICE /////
BBXX ONFP 10184 99371 30167 43593 51738 10180 2015/ 40150 53010 70311 85963 22232 04212 20704 31717 40707 50707 6//// 80160 ICE /////
BBXX 9HXC9 10184 99257 70801 41498 70712 10247 20171 40165 56003 7//22 87240 22200 04244 20000 3//// 40000 5//// 6//// 80197 ICE /////
BBXX 46088 10181 99483 71232 46/// /0104 10046 40210 91820 22200 00082 10501 70003 333 91205 555 11044 22045 31753 43606 61819 012041 010041 012048 010049 006049 004047
BBXX 46087 10181 99485 71247 46/// /3403 10069 20034 40211 91820 22200 00083 333 91204 555 11030 22031 31810 43304 61819 338030 347029 348027 343032 346031 344031
AAXX 10181 30157 41997 83403 11074 21100 39909 40198 51004 77172 80007
BBXX 44029 10181 99425 70706 46/30 /3206 10059 40214 55000 91804 22200 00091 10301 70006 333 91208 555 11070 22073
BBXX 44030 10181 99432 70704 46/// /2909 1//// 40210 55000 91804 22200 00090 10301 70007 333 91211 555 11115 22123
BBXX 44040 10181 99410 70736 46/// /3107 10054 21028 91815 22200 10201 70003 333 91210 555 11088 22103
BBXX ONFP 10184 99371 30167 43593 51738 10180 2015/ 40150 53010 70311 85963 22232 04212 20704 31717 40707 50707 6//// 80160 ICE /////
BBXX 2AKI2 10183 99342 30332 41398 70923 10180 20127 40183 57013 8677/ 22224 00195 2//// 3//// 4//// 5//// 80150
BBXX ZQCP3 10183 99192 11136 41397 80226 10199 20133 40188 57020 70200 887// 22253 00250 29902 304// 40804 5//// 80161
BBXX 3EDA4 10183 99322 11407 41498 20606 10171 20171 40139 53/// 70011 82613 22245 00222 20503 30505 40503 50503 80171
BBXX DCTA2 10180 99322 11674 41598 53410 10197 20137 40181 51013 70322 8113/ 22224 04210 2//04 399// 4//06 5//// 80160
BBXX SHIP 10184 99066 11269 41698 40803 10260 20246 40081 57072 70100 8323/ 22254 00294 80250
BBXX SHIP 10184 99244 11414 41/98 41212 10251 40165 57008 70311 8//// 22261 00263
BBXX SHIP 10184 99230 11701 41/96 31018 10262 20217 40186 56014 71600 8//// 22220 04254
BBXX A8PB2 10183 99205 11134 41497 40220 10150 20116 40150 54000 70322 8456/ 22254 20704 305// 40804 80130
BBXX SHIP 10184 99292 11545 41397 63504 10218 20184 40192 57001 70022 8449/ 22263 06238 20303 329// 40604 80195
BBXX 7JJA 10184 99154 11182 41696 80235 00 10260 20246 40085 57015 76362 886// 9//// 22242 0 2 12 303 4 12 5 6//// 80250 IC E/////
BBXX SHIP 10184 99354 11485 41697 53508 10130 20074 40128 57030 7//00 86983 22254 00230 20304 399// 40304 80100
BBXX SHIP 10184 99266 11353 41397 83413 10190 20159 40202 56009 70222 8662/ 22283 00242 399// 4//// 5//// 80170
BBXX DANR 10183 99393 11462 41/98 13111 10090 40085 58025 70200 8//// 22214 00150 2////
BBXX JGQH 10184 99239 11369 41/97 80321 10215 20206 40164 57013 78082 882// 22241 00259 10904 20402 399// 4//03 70021
BBXX JPBN 10184 99316 11478 41/98 71607 10172 20055 40189 55012 70211 85231 22242 00218 1//// 20200 399// 4//03
BBXX SLKQ 10181 99056 11077 43/98 80212 10261 40098 58005 22254 00281 2////4////
BBXX UHFW 10180 99482 11411 42/98 93607 11080 40097 57010 22233 06040 20402
BBXX A8QJ7 10184 99147 50353 41/98 30508 10270 20241 40096 56020 7//00 83200 22253 20501 3//// 4//// 5//// 80250
BBXX BAREU11 10184 99076 50805 46/// ///// 40143 57015 22274
BBXX WDE8264 10183 99386 70185 41497 73111 10180 20164 40260 57010 70320 85282 22224 00190 20402 336// 40502 5//// 6//// 80170 ICE /////
BBXX 61002 10184 99421 10047 46/// ///06 10143 2//// 40174 52004 22200 00151 10401 70003
BBXX WBDS 10183 99344 10220 41598 33010 10150 2008/ 40280 51012 7//00 83200 22265 00180 20302 3//// 4//// 5//// 6//// 80110 ICE /////
BBXX 62087 10181 99547 10068 46/// /1002 10059 20010 4//// 5//// 22230 00086
BBXX 2AUO5 10183 99606 10016 41297 43115 10071 20020 49983 52020 7//// 8/7// 22281 20702 399// 40904 80050
BBXX 63119 10184 99578 70022 41/97 60818 10051 21018 40025 55/// 701// 8//// 22200 2//// 330// 40606 5////
BBXX C6SI2 10184 99526 10041 41598 32730 10070 20004 40122 58/// 70111 83200 22283 00120 20602 330// 40705 5//// 80044
BBXX 62027 10184 99491 70022 46/// /1704 1//// 2//// 40178 58003 22200 00127 11102 326// 70010
BBXX 62118 10184 99577 10009 47998 /2819 10054 21026 40038 52011 700// 22200 10707 70033
BBXX 62155 10184 99577 10007 47998 /2920 10054 21019 40047 52012 751// 22200 10707 70035
BBXX 62305 10184 99504 10000 46/98 /2811 10088 20004 40185 52008 22200 00128 10501 70004
BBXX 62304 10184 99511 10018 46/99 /2614 10069 21006 40169 51011 22200 00120 10701 70005
BBXX 62140 10184 99573 10013 46/// /29// 10057 21027 40043 52015 22200
BBXX 62104 10184 99574 10013 47998 /2920 10062 21016 40041 52014 700// 22200
BBXX 62170 10184 99514 10020 46/97 /2719 10068 20000 40164 51014 22200 00117 10702 70008 333 90710 91125
BBXX 62146 10184 99572 10021 47/98 /2502 10055 21014 40049 51011 700// 22200 10808 70042
BBXX 62103 10184 99499 70029 46/// /2912 10093 20003 40170 55002 22200 00129 10802 70009
BBXX 62163 10184 99475 70084 46/// /0304 10106 20039 40186 50004 22200 00134 10805 70025
BBXX 62116 10184 99576 10011 47698 /2919 10057 21024 40039 52016 700// 22200 10708 70042
BBXX 62153 10184 99573 10020 47698 /2710 10057 21015 40040 52015 700// 22200 10709 70043
BBXX 62122 10184 99573 10016 47698 /2821 10057 21016 40044 52017 700// 22200 10809 70046
BBXX 62143 10184 99577 10018 47998 /3116 10055 21004 40047 52015 700// 22200 10709 70043
BBXX ZQSD5 10184 99583 10007 46/// /2722 10054 21000 40036 52021 22200 10909 70043
BBXX 62134 10184 99580 10014 47998 /2821 10055 20004 40033 52022 700// 22200 10709 70044
BBXX 62117 10184 99579 10000 47997 /2816 10055 21020 40042 52010 700// 22200 10605 70025
BBXX 62102 10184 99579 10018 46/// /2823 10061 20010 40026 52019 22200 10809 70043
BBXX 62113 10184 99584 10002 47598 /2817 10049 21012 40032 52014 700// 22200
BBXX 62114 10184 99583 10000 46/// /2819 10047 21022 40030 52012 22200
BBXX 62129 10184 99584 10003 46/// ///// 10047 21011 40029 52014 22200
BBXX 63057 10184 99592 10015 47998 /2820 10067 20016 49999 52019 700// 22200 10807 70033
BBXX 62121 10184 99535 10027 46/// /2620 10064 20011 40115 52007 22200
BBXX 62149 10184 99537 10011 47498 /2519 10066 20023 40120 53006 700// 22200 10605 70025
BBXX 62150 10184 99536 10007 47998 /2619 10059 20020 40127 52005 700// 22200 10705 70027
BBXX 62128 10184 99587 10014 47498 /2822 10054 20027 40017 52018 700// 22200 10707 70037
BBXX 62148 10184 99536 10015 46/// /2512 10060 20023 40126 52008 22200
BBXX 62144 10184 99534 10017 47598 /2621 10058 20018 40134 52009 700// 22200 10605 70027
BBXX 62131 10184 99539 10012 46/// /27// 10063 20031 40111 53008 22200
BBXX 62142 10184 99530 10021 46998 /2619 10056 20019 40128 52008 22200 10605 70026
BBXX 62145 10184 99531 10028 47498 /2620 10063 20011 40130 52008 700// 22200 10706 70032
BBXX 62127 10184 99540 10007 47498 ///// 10057 20026 40111 53008 700// 22200 10605 70026
BBXX 62165 10184 99540 10009 47498 /2710 10062 20024 40115 53006 700// 22200 10706 70032
BBXX 9HXC9 10184 99257 70801 41498 70712 10247 20171 40165 56003 7//22 87240 22200 04244 20000 3//// 40000 5//// 6//// 80197 ICE /////
BBXX 46204 10181 99514 71288 46/// /2606 10076 40204 52011 22200 00087 11605 70027 333 91208
BBXX 46131 10181 99499 71250 46/// /0101 1//// 40218 52012 22200 00067 10300 70000 333 91201
BBXX 46145 10181 99544 71324 46/// /3304 10053 40177 52015 22200 00076 11505 70025 333 91206
BBXX 46183 10181 99536 71311 46/// /2607 10058 40184 52009 22200 00078 11602 70008 333 91208
BBXX ICGU 10184 99146 70610 41797 00312 10290 20263 40100 54000 7//// 80441 222// 04260 20101 3//// 40202 50203 6//// 85270 ICE /////
BBXX 46147 10181 99518 71312 46/// /2808 10067 40207 52008 22200 00083 11507 70035 333 91210
BBXX DDJS2 10184 99455 71715 41297 81209 10109 20067 40048 58/// 70262 887// 22224 00120 2//// 3//// 4//// 5//// 80089
BBXX DDSD2 10183 99163 70712 41497 50520 10280 20239 40102 56023 70311 8418/ 22213 00278 20505 304// 40404 5//// 80250
BBXX DGOS 10183 99349 70467 41498 31110 10208 20178 40305 50000 70200 83100 22224 20601 332// 41204 80188
BBXX 46088 10181 99483 71232 46/// /0104 10046 40210 91820 22200 00082 10501 70003 333 91205 555 11044 22045 31753 43606 61819 012041 010041 012048 010049 006049 004047
BBXX 44022 10181 99409 70737 46/// ///07 10051 21035 91815 22200 00100 333 91209 555 11072 22077
BBXX 44060 10181 99413 70721 46/// ///06 10057 91815 22200 00115 333 91208 555 11062 22062
BBXX 44098 10181 99428 70702 46/// ///// 1//// 91807 22200 00096 10402 20402 70011
BBXX 46114 10181 99364 71222 46/// ///// 1//// 91804 22200 00112 11704 20902 330// 41703 70018
BBXX 44033 10181 99441 70690 46/30 /3108 10060 40197 55003 91804 22200 00086 10601 70007 333 91210 555 11101 22106
BBXX 44034 10181 99441 70681 46/30 /3107 10060 40190 55000 91804 22200 00090 10602 70012 333 91209 555 11087 22092
BBXX 44039 10181 99411 70727 46/// /3305 10061 21022 91800 22200 00110 10301 70005 333 91208
BBXX 42364 10181 99291 70881 46/// /0213 10144 20022 40271 91815
BBXX 42362 10181 99278 70907 46/// /0313 10156 20039 40281 58007 91800
BBXX 42363 10181 99282 70892 46/// /0414 10156 20050 40275 91815 333 91214
BBXX 41115 10181 99184 70673 46/// ///// 1//// 91805 22200 10902 20902 303// 41101 70011
BBXX 41114 10181 99276 70802 46/// ///// 1//// 91816 22200 00244 10603 20603 307// 41101 70016
BBXX 46221 10181 99339 71186 46/// ///// 1//// 91745 22200 00152 11801 20901 326// 41801 70007
BBXX SHIP 10183 99322 71779 41198 52220 10220 20206 40235 56020 70222 853// 22264 00201 2//// 3//// 4//// 80210
BBXX C6UB2 10184 99442 71565 41295 81830 10120 2012/ 40180 56020 76162 8892/ 22224 00120 20808 320// 40806 5//// 6//// 80120 ICE /////
BBXX ZCDS3 10181 99347 70443 41498 21005 10210 20164 40326 54000 70200 81161 22264 00240 20201 316// 40704 5//// 80182
BBXX HPQI 10184 99313 70770 41598 60506 10200 20200 40260 70222 86835 9//// 22254 00240 20401 31104 40402 50602 6//// 80200
BBXX SHIP 10184 99430 71763 41698 81006 10080 20038 40024 56006 70222 88/1/ 22223 00120 80060
BBXX 46211 10181 99469 71242 46/// ///// 1//// 91806 22200 00086 11703 21001 327// 41703 70017
BBXX 46242 10181 99332 71174 46/// ///// 1//// 91758 22200 00151 11801 21001 323// 41801 70005
BBXX 46222 10181 99336 71183 46/// ///// 1//// 91756 22200 00159 11801 21001 327// 41801 70007
BBXX 46231 10181 99327 71174 46/// ///// 1//// 91754 22200 00157 11802 21001 327// 41802 70009
BBXX 46216 10181 99343 71198 46/// ///// 1//// 91757 22200 00147 11801 20901 326// 41801 70007
BBXX 46217 10181 99342 71194 46/// ///// 1//// 91812 22200 00145 11802 20901 327// 41801 70009
BBXX 46240 10181 99366 71219 46/// ///// 1//// 91812 22200 00124 11801 20801 300// 41801 70007
BBXX 46223 10181 99335 71178 46/// ///// 1//// 91800 22200 00160 11802 20901 327// 41801 70008
BBXX 46237 10181 99378 71226 46/// ///// 1//// 91810 22200 00112 11703 20801 326// 41703 70015
BBXX 46212 10181 99408 71243 46/// ///// 1//// 91812 22200 00102 11704 20701 330// 41704 70022
BBXX 46241 10181 99330 71173 46/// ///// 1//// 91741 22200 00143 11801 21001 326// 41801 70006
BBXX 46248 10181 99461 71247 46/// ///// 1//// 91804 22200 00088 11504 21001 329// 41503 70018
BBXX 46244 10181 99409 71244 46/// ///// 1//// 91805 22200 00100 11705 20701 330// 41705 70026
BBXX 46249 10181 99338 71197 46/// ///// 1//// 91815 22200 00146 11802 20501 324// 41801 70010
BBXX FLAO 1018/ 99764 70847 46/// ///// 11248 40026 52004
BBXX KGTZ 10184 99538 71611 41396 82225 10067 2005/ 49844 55003 75352 886// 22223 00072 20605 318// 40809 5//// 6//// 80061 ICE /////
BBXX WDC3786 10184 99255 71387 41598 80619 10190 2015/ 40249 52025 7//22 8825/ 22224 00240 20402 305// 40806 5//// 6//// 80168 ICE /////
BBXX DDZB2 10183 99453 71479 41298 61615 10080 20064 40300 53010 70222 84776 22225 04100 20602 80072
BBXX SKOZ 10184 99462 70415 43/98 72717 10045 40324 53007 22263 00104 2//// 40504
BBXX 46207 10181 99509 71299 46/// /3208 10075 40213 52010 22200 00085 11706 70031 333 91210
BBXX 46112 10181 99481 71227 46/// /2102 10039 40214 51009 91800
BBXX 46111 10181 99481 71227 46/// /1903 10041 40213 53009 91800 22200 00061
BBXX 41029 10181 99328 70796 46/// /0407 1//// 91800 555 11094 22113
BBXX 44067 10181 99384 70770 46/// /0604 10078 40275 58007 91800
BBXX 44032 10181 99437 70694 46/30 /3208 10059 40195 55000 91804 22200 00092 10602 70010 333 91210 555 11094 22098
BBXX 41037 10181 99340 70775 46/// /0309 10124 40222 57010 91800 22200 00165 333 91209
BBXX SHIP 10184 99207 30918 41498 41315 10230 20186 40101 50005 70101 8323/ 22214 00255 80210
BBXX SHIP 10184 99075 31033 41/98 32206 10282 20238 40099 57011 70211 8//// 22213 00301 11704 20101 327// 41004
BBXX MINFR09 1018/ 99320 31157 46/// ///// 40110 57015
BBXX A8EH2 10183 99083 70875 41498 13615 10265 20244 40103 58019 70100 81400 22274 00245 20302 333// 40403 80250
BBXX PBAD 10181 99157 70951 415// 11304 10261 20198 40135 70200 81100 22200 00270 2//// 3//// 4//// 5//// 80220
BBXX PJGO 10184 99571 10022 47698 /2724 10059 21005 40048 52013 700// 22200
BBXX 62123 10184 99563 10022 47699 /2824 10054 21036 40059 51010 700// 22200
BBXX 62132 10184 99564 10020 46/// /3221 10052 21040 40071 52006 22200
BBXX 63108 10184 99608 10017 47698 /3410 10061 21001 49972 53017 700// 22200 10906 70031
BBXX 62120 10184 99564 10021 47698 /2821 10048 21035 40058 52008 700// 22200
BBXX 62152 10184 99570 10018 47/96 /2815 10053 21012 40056 51009 740// 22200 10709 70043
BBXX 62154 10184 99564 10022 46/// /2918 10050 21033 40055 51010 22200
BBXX 62133 10184 99571 10009 46/// /2718 10050 21029 40053 51009 22200 10807 70036
BBXX 63055 10184 99606 10016 47998 /3111 10064 20006 49979 52017 700// 22200 10806 70031
BBXX 62119 10184 99570 10019 47598 /2920 10059 21011 40055 51008 700// 22200 10809 70047
BBXX 62112 10184 99584 70002 47998 /2810 10047 21026 40033 52010 762// 22200
BBXX 62164 10184 99572 10008 47598 /2817 10061 21009 40058 51009 700// 22200 00099 10606 70032
BBXX 63112 10184 99611 10010 47/98 /3409 10064 21001 49978 52015 700// 22200 10807 70035
BBXX 63107 10184 99611 10017 46/// /3206 10057 49975 52019 22200
BBXX 63113 10184 99610 10017 46/// /3411 10061 20007 49977 52019 22200 10807 70034
BBXX 63105 10184 99610 10017 47597 ///// 10072 20016 49977 52019 700// 22200
BBXX 63106 10184 99610 10017 46/// /3207 10062 49977 52020 22200
BBXX PJAI 10184 99581 70014 47599 /2713 10057 21018 40040 54000 700// 22200
BBXX 63115 10184 99616 10013 47598 /3508 10057 20010 49977 52011 762// 22200 10808 70038
BBXX 62111 10184 99580 70003 46/// /2917 10052 21023 40048 50005 22200 10706 70028
BBXX 63101 10184 99612 10009 46/// /0108 10068 20016 49978 52013 22200
BBXX 64041 10184 99607 70026 47698 /2308 10049 20013 49996 57002 700// 22200 10807 70034
BBXX 63104 10184 99612 10016 47496 /0205 10059 20014 49977 52019 762// 22200
BBXX 63117 10184 99613 10011 47999 /3508 10070 20005 49979 52015 700// 22200
BBXX 63103 10184 99612 10011 46/// /3609 10065 20002 49980 52015 22200 10807 70035
BBXX MWYG6 10184 99603 70040 47998 /2004 10038 700// 22200
BBXX 63056 10184 99597 10016 47698 /3113 10070 20006 49980 52017 700// 22200 10706 70031
BBXX AMOUK21 10184 99564 70055 46/// ///// 10053 20042 30046 40046 57016 91750
BBXX AMOUK14 10184 99533 70062 46/// ///// 10069 20025 30080 40120 57011 91750
BBXX AMOUK08 10184 99501 70061 46/// ///// 10095 20050 30161 40168 57007 91750
BBXX AMOUK16 10184 99523 70063 46/// ///// 10080 20049 30125 40126 57027 91750
BBXX AMOUK19 10184 99574 70017 46/// ///// 10039 21023 30053 40063 54001 91750
BBXX AMOUK06 10184 99507 70014 46/// ///// 10082 20025 30151 40171 54002 91750
BBXX AMOUK05 10184 99537 70003 46/// ///// 10039 20021 30073 40114 54002 91750
BBXX AMOUK13 10184 99519 10013 46/// ///// 10033 21001 30146 40156 52007 91750
BBXX AMOUK12 10184 99533 70055 46/// ///// 10080 20038 30081 40123 57022 91750
BBXX AMOUK09 10184 99520 10018 46/// ///// 10064 20014 30132 40149 52006 91750
BBXX AMOUK11 10184 99533 70060 46/// ///// 10076 20026 30071 40116 57015 91750
BBXX AMOUK02 10184 99535 70037 46/// ///// 10079 20038 30092 40123 57010 91750
BBXX AMOUK03 10184 99537 70003 46/// ///// 10041 20026 30083 40112 52007 91750
BBXX 62081 10184 99510 70134 46/// ///// 10115 20107 40106 57017 22200 00120 10808 70039
BBXX 63110 10183 99595 10015 41/97 /3125 10070 49988 70086 8//// 22200 11007 70035
BBXX 62303 10184 99516 70051 46/// /2413 10096 20044 40144 57011 22200 00119 10503 70013
BBXX 62301 10184 99524 70047 46/// /2516 10088 20036 40132 57009 22200 00104 10403 70016
BBXX 62442 10184 99490 70164 46/// /3119 1//// 2//// 40140 55008 22200 00130 333 90710 91125
BBXX AMOUK27 10184 99579 70052 46/// ///// 1//// 2//// 30008 40008 57026 91750
BBXX 64045 10184 99591 70117 46/// /2522 10080 20030 49904 56014 22200 00103 10606 70031 333 90710 91129
BBXX 62105 10184 99554 70122 46/// /2719 10091 20050 40008 57004 22200 00108 10808 70042 333 90710 91127
BBXX 64046 10184 99605 70049 46/// /2010 10039 21014 49994 58019 22200 00098 10807 70033
BBXX 62029 10184 99487 70125 46/// /2418 10111 20079 40164 56012 22200 00136 10907 70036
BBXX 62001 10184 99452 70050 46/// /0209 10139 20114 40170 52014 22200 00153 10906 70030
BBXX LF5T 10184 99660 10081 41/98 /0421 10047 21038 49950 52007 70222 22200 10809 70043 333 91132
BBXX LF4B 10184 99606 10037 47/98 /3413 10058 49972 52029 700// 22200 00059 10808 70042 333 91129
BBXX LF4C 10184 99584 10019 41497 72922 10055 20033 40017 52025 72586 89/// 22200 00071 10807 70037 333 91137
BBXX LF3F 10184 99643 10078 43/// /0212 10041 21002 49939 52016 22200 04092 10807 70036 333 91124
BBXX 3ERR2 10184 99635 10053 41598 30320 10056 21004 49949 52014 70311 83300 22200 06098 10908 70041 333 91131
BBXX LF3N 10184 99653 10073 41697 70422 10048 21042 49948 52012 70282 8//// 22200 00092 10708 70040
BBXX BATFR62 10184 99496 70007 46/// /2509 10095 20037 40183 53002 22212 00135
BBXX BATFR09 10184 99383 10068 44497 72614 10172 20120 40197 70311 8523/ 22222 00192 20000 30000 40000 50000
BBXX BATFR60 10184 99538 10062 46/// /2628 10044 20024 40091 53024 22263 00089
BBXX 61001 10184 99434 10078 46/// /2215 10153 20122 40560 52006 22200 00157 10402 70011
BBXX BATFR54 10184 99472 70039 46/// /0612 10104 20042 40181 51006 22233 00142
BBXX BATFR42 10184 99484 70048 46/// /1408 10090 20047 40179 52004 22243 00157
BBXX BATUK01 10184 99580 70032 46/// /2114 10039 21017 40032 50/// 22261 00099
BBXX BATEU05 10184 99625 70217 46/// /2314 10042 20014 49796 56032 22262
BBXX BATFR01 10184 99400 10122 46/// /2114 10174 20137 40180 51004 22232 00182
BBXX BATEU02 10184 99534 70108 46/// /2423 10102 20092 40052 56029 22232 00110
BBXX BATEU08 10184 99595 70033 46/// /2510 10044 21025 40012 56017 22223
BBXX BATFR61 10184 99477 70053 46/// /1006 10109 20030 40184 51008 22262 00144
BBXX BATFR11 10184 99367 10015 46/// /2705 10169 20124 40195 51005 22262 00177
BBXX BATFR44 10184 99477 70046 46/// /0707 10107 20024 40186 51008 22221 00125
BBXX BATFR16 10184 99476 70127 44097 62416 10117 40180 57009 70011 8657/ 22224 00144 21502 304// 41502 5//// 60/// ICE 0////
BBXX BAREU06 10184 99396 70231 46/// ///// 40263 52002 22264
BBXX BATEU09 10184 99435 10088 46/// /2116 10152 20124 40168 50004 22252 00162
BBXX BATFR46 10184 99387 10004 44997 11109 10157 20105 40178 52004 70100 81//1 22253 00174 22040
BBXX BATFR41 10184 99435 10077 46/// /2317 10157 20112 40156 50002 22272
BBXX BATFR12 10184 99482 70066 46/// /2603 10102 20037 40187 53002 22222 00147
BBXX BATFR24 10184 99433 10054 46/// /2101 10139 20087 40181 22241 00152
BBXX BAREU05 10184 99377 70005 46/// ///// 40181 52005 22254
BBXX BATFR03 10184 99499 70005 46/// /3111 10094 21003 40177 22283
BBXX BAREU61 10184 99340 70084 46/// /0109 10171 29064 40224 52008 22253
BBXX BAREU04 10184 99513 70258 46/// ///// 40131 57003 22224
BBXX BAREU63 10184 99361 10207 46/// /2911 10178 29078 40260 52006 22233
BBXX BATFR20 10184 99415 10094 44698 30614 10162 20122 40171 70000 8318/ 22244
BBXX VRGJ6 10183 99484 70062 41598 72910 10120 20029 40180 51009 703// 86559 22254 04129 20402 329// 40504 5//// 80080
BBXX IDDUK02 10184 99676 50681 46/// ///// 49717 222//
AAXX 10184 40250 32960 00000 10080 21018 39428 40233 52003 333 10140
AAXX 10184 40265 32960 02606 10066 20024 39461 40281 52020 333 10126
AAXX 10184 40296 32960 00000 10164 20080 40250 52007 333 10247
AAXX 10184 40310 32960 00000 10058 21007 38912 48545 52011 333 10140
AAXX 10181 37085 12596 83003 10038 20018 30305 40332 51006 69910 885// 333 10071
AAXX 10184 71624 12574 42718 11024 21115 30073 40292 50000 60001 82830 333 11017 21070 79999
AAXX 10181 55299 32880 70000 11130 21232 35827 52007 87400 333 00055 10002
AAXX 10181 55591 32680 11101 10016 21190 36459 52015 81100 333 05154 10127
AAXX 10181 56739 32580 20201 10078 20058 38357 57002 82400 333 00051 10189
AAXX 10181 56951 32775 30000 10101 20082 38516 57001 83400 333 00000 10225
AAXX 10181 56964 32565 81102 10116 20086 38742 40195 57003 884// 333 00254 10158
AAXX 10181 57328 32980 60701 10024 21007 39898 40323 57004 86040 333 10106
AAXX 10181 57411 31959 70000 10060 20011 39935 40316 57010 71000 8703/ 333 10114
AAXX 10181 57447 32962 22701 10009 20008 39769 40333 57004 82040 333 10086
AAXX 10181 57662 32962 03201 10023 21022 30291 40336 57004 333 10098
AAXX 10181 57745 32965 00201 11003 21025 39991 40332 57007 333 10101
AAXX 10181 57972 32966 00000 10013 21014 30089 40324 57012 333 10073
AAXX 10181 58203 32965 02002 11026 21083 30291 40334 57007 333 10061
AAXX 10181 58314 32965 01601 11042 21042 30220 40332 57013 333 10077
AAXX 10181 58424 32962 00901 11008 21058 30308 40335 57012 333 10068
AAXX 10181 59023 32970 02701 10061 21006 39989 40309 57002 333 10136
AAXX 10181 59417 32964 00401 10103 20024 30122 40280 57003 333 10155
AAXX 10181 59985 11570 80407 10214 20179 30159 40164 57010 69901 78080 882// 333 10246
AAXX 10181 59995 NIL
BBXX UANA 10181 99703 10329 41/97 31307 10021 40002 57001 70221 80200 22252 04061 2020/
AAXX 10184 06610 32675 72104 10099 20052 39592 40171 52008 875// 333 10121 31/// 55300 20000 87647 90766 93100 91116 91210
AAXX 10184 06670 01256 83305 10063 20051 39668 40183 53014 60022 78085 885// 333 10091 32/// 55300 20000 60005 81703 83708 86614 90766 93100 91111 91207
AAXX 10184 06700 32689 32601 10083 20055 39686 40179 52008 81440 333 10125 31/// 55300 20004 81635 83358 90766 93100 91114 91210
AAXX 10184 06680 01/01 92720 11037 21039 37477 47012 52009 60042 77174 333 11027 47092 55300 20000 69935 90766 93102 91153 91234
AAXX 10184 06990 31560 80000 10057 20039 39630 40182 51014 76362 887// 333 10101 32/// 55300 20000 88725 91108 91205
AAXX 10184 06760 32980 00000 10072 20000 39729 40179 51015 333 10109 30/// 55300 20000 90766 93100 91106 91203
AAXX 10184 06720 32975 30000 10028 21003 39613 40200 53013 83070 333 10084 30/// 55300 20000 83360 90766 93100 91105 91204
BBXX 46185 10181 99524 71298 46/// /2806 10070 40197 52011 22200 00077 10503 70015 333 91207
AAXX 10184 94996 45/// /3003 10201 20190 39984 40120 53011 91830
AAXX 10184 71624 12574 42718 11024 21115 30073 40292 50000 60001 82830 333 11017 21070 79999
BBXX 46185 10181 99524 71298 46/// /2806 10070 40197 52011 22200 00077 10503 70015 333 91207
AAXX 10184 94996 45/// /3003 10201 20190 39984 40120 53011 91830
AAXX 10184 63705 32970 30000 10232 20184 38842 48498 80005 333 10260 58010 83272 555 10198
AAXX 10181 24790 41999 30000 11413 21426 39270 40201 57002 77671 80001
AAXX 10181 24988 42999 03103 11297 21328 39779 40055 57007
AAXX 10181 25378 11595 83309 11079 21097 39804 49837 57059 60072 77373 8652/ 333 21134 48016 91117
AAXX 10181 25503 41699 62804 11378 21399 39991 40135 57007 73631 82501
AAXX 10181 25705 41998 82501 11367 21391 39763 40135 53002 77172 84047
AAXX 10181 25927 42998 22906 11234 21274 39969 49976 57005 80009
AAXX 10181 25932 42999 00108 11763 21223 39873 49902 57008 333 91111
AAXX 10181 31152 42997 80000 11326 21355 39695 40142 53004 86036
AAXX 10181 31174 41597 70000 11196 21202 30058 40057 58003 77172 87500
AAXX 10181 31489 42998 00000 11292 21322 39971 40100 58002
AAXX 10181 31866 42998 82802 11154 21188 30099 40105 56008 8802/
AAXX 10181 31959 42598 60000 11122 21157 30088 40133 53004 83532
AAXX 10181 31989 42999 72702 11065 21136 30103 40158 52007 80009
AAXX 10181 32027 42999 43103 11159 21193 30053 40062 57004 80002 333 91005 91106
AAXX 10181 32076 42998 02803 11193 21205 30038 40049 57003 333 91003 91103
AAXX 10181 32099 41598 63606 11086 21119 30045 40053 54000 70232 86500 333 91008 91112
AAXX 10181 32121 41497 83407 11086 21151 30044 40067 57001 78583 889// 333 91012 91112
AAXX 10181 32213 41598 52912 11036 21051 39912 49976 52001 70231 85500 333 91015 91119
AAXX 10181 32287 41597 71404 11213 21225 39947 49958 57003 78582 86901 333 86922
AAXX 10181 32408 41698 52909 11094 21157 39781 49820 54000 73632 82531 333 91013 91114
AAXX 10181 32509 41998 03317 11078 21201 39801 49835 57007 73631 333 91026 91128
AAXX 10181 32594 41496 81403 11062 21093 39934 49970 58006 78581 889//
AAXX 10184 67665 42780 51501 10214 20214 48498 81930 333 10270 81950 85360 91016
AAXX 10183 67295 32480 21804 10230 20200 39350 48518 82100 333 10274 58011 94310
AAXX 10184 89667 46/// /0709 11071 29083 39756 4//// 5//// 91810
AAXX 10184 89667 46/// /0709 11072 39755 4//// 5////
AAXX 1018/ 89879 46/// ///// 11023 39663 4//// 5//// 91810
AAXX 1018/ 89872 46/// ///// 11049 39704 4//// 5////
AAXX 1018/ 89872 46/// ///// 11048 39705 4//// 5//// 91810
AAXX 1018/ 89869 46/// ///// 11060 39688 4//// 5////
AAXX 1018/ 89869 46/// ///// 11059 39688 4//// 5//// 91810
AAXX 1018/ 89866 46/// ///// 11054 39638 4//// 5//// 91810
AAXX 1018/ 89332 46/// ///// 11073 39123 4//// 5//// 91810
AAXX 1018/ 89769 46/// ///// 11060 39720 4//// 5//// 91810
AAXX 1018/ 89314 46/// ///// 11135 38083 4//// 5//// 91810
AAXX 10184 89667 46/// /0709 11073 39754 4//// 5////
AAXX 10181 63332 NIL
AAXX 10181 63333 42880 10000 10140 20067 38174 40211 81030 333 10242 58004 81358
AAXX 10181 63334 42580 10000 10144 20050 37623 40123 81500 333 10231 58000 81628
AAXX 10181 63340 42580 20000 10160 20118 37941 40162 82400 333 10240 58011 82625
AAXX 10181 63402 NIL
AAXX 10181 63450 42580 20805 10144 20025 37740 40140 82500 333 10225 58009 82625
AAXX 10181 63451 42580 1//// 1//// 2//// 38150 4//// 81500 333 10257 58012 81625
AAXX 10181 63453 NIL
AAXX 10181 63460 NIL
AAXX 10181 63471 NIL
AAXX 10181 63478 NIL
AAXX 10184 40100 12960 01002 10132 20058 30229 40261 52015 60001 918// 333 10187 92427 40101 12958
AAXX 10181 48803 31496 81802 10134 20125 30147 40265 58003 71022 888// 333 58027 84894 88696
AAXX 10183 64800 NIL
AAXX 10183 64820 NIL
AAXX 10183 64860 31915 70000 10270 20046 39828 40099 70622 80002 333 10326 58012 87080
AAXX 10183 64861 NIL
AAXX 10183 64870 32958 70202 10188 20050 38904 48493 70522 80002 333 10288 58012 87080
AAXX 10183 64871 NIL
AAXX 10183 64892 NIL
AAXX 10183 64893 NIL
AAXX 10183 64894 NIL
AAXX 10183 64910 32460 60000 10280 20252 30076 40085 83302 333 10330 58004 83616 81920 86080 94945 95835
AAXX 10183 64911 NIL
AAXX 10183 64950 NIL
BBXX BAREU12 10184 99502 70059 46/// ///// 40162 57007 22283
BBXX BAREU62 10184 99408 10282 46/// ///// 40243 22264
AAXX 10184 61017 32960 50000 10184 20061 39769 40185 80002 333 10255 58012 85080
AAXX 10184 61024 31940 21010 10220 20027 39585 40155 70600 80002 333 10270 58005 82080
AAXX 10184 61036 31918 70802 10282 21017 39875 40113 7062/ 80008 333 10310 58013 87280
AAXX 10184 61043 31908 71210 10262 21080 39690 40134 7064/ 80008 333 10288 58014 87280
AAXX 10184 61045 31908 70606 10250 21038 39642 40140 7064/ 80008 333 10284 58012 87280
AAXX 10184 61049 31940 70804 10245 20092 39810 40132 7062/ 80008 333 10288 58010 87280
AAXX 10184 61052 31912 50806 10276 21048 39865 40123 70622 80002 333 10310 58013 85080
AAXX 10184 61075 31906 71206 10260 20012 39811 40121 70644 80008 333 10295 58013 87280
AAXX 10184 61080 31910 70000 10242 20020 39715 40137 70642 80008 333 10281 58014 87280
AAXX 10184 61090 31928 70406 10250 21039 39623 40134 70622 80008 333 10285 58009 87280
AAXX 10184 61091 32960 70000 10220 20072 39688 40145 80008 333 10282 58012 87280
AAXX 10184 61096 31957 70808 10255 21001 39760 40144 70522 80008 333 10297 58015 87280
AAXX 10184 61099 31915 70806 10285 20044 39878 40106 70622 80008 333 10325 58017 87280
AAXX 10184 63729 12980 50000 10205 20187 38849 48/// 69902 80002 333 0//17 10257 55300 58002 85071
AAXX 10184 63733 32580 50000 10225 20186 38848 48489 81931 333 10277 58011 81924 84076
AAXX 10184 63791 32580 31120 10256 20169 39103 48492 83500 10338 55300 58013 83626
AAXX 10184 63801 32580 40705 10231 20209 39188 48516 81931 333 10288 59007 81820 81921 84078
AAXX 10184 63866 32580 30000 10250 20224 39495 48/// 83900 333 10286 58015 83623 81924
AAXX 10184 63881 11480 70000 10174 20158 38195 48/// 69902 71322 81973 333 10229 58000 81618 81920 87074
AAXX 10184 63887 11580 80000 10210 20180 38580 48505 60021 70296 8692/ 333 10255 55300 58002 86820 81921 87357
AAXX 10184 63894 32580 40310 10270 20252 30039 40099 84200 333 10317 55300 58019 84822
AAXX 10184 63932 11580 80000 10177 20166 38302 48500 69902 79592 8497/ 333 0//15 10225 55300 58001 84824 81925 87359
AAXX 10184 63971 10580 60000 10237 20228 39970 40100 60022 82230 333 0//17 10280 55300 58018 82821 85358
AAXX 10184 63756 NIL
AAXX 10184 63832 NIL
AAXX 10184 63862 NIL
AAXX 10184 63870 NIL
AAXX 10184 63962 NIL
AAXX 10184 61017 32960 50000 10184 20061 39769 40185 80002 333 10255 58012 85080
AAXX 10184 61024 31940 21010 10220 20027 39585 40155 70600 80002 333 10270 58005 82080
AAXX 10184 61036 31918 70802 10282 21017 39875 40113 7062/ 80008 333 10310 58013 87280
AAXX 10184 61043 31908 71210 10262 21080 39690 40134 7064/ 80008 333 10288 58014 87280
AAXX 10184 61045 31908 70606 10250 21038 39642 40140 7064/ 80008 333 10284 58012 87280
AAXX 10184 61049 31940 70804 10245 20092 39810 40132 7062/ 80008 333 10288 58010 87280
AAXX 10184 61052 31912 50806 10276 21048 39865 40123 70622 80002 333 10310 58013 85080
AAXX 10184 61075 31906 71206 10260 20012 39811 40121 70644 80008 333 10295 58013 87280
AAXX 10184 61080 31910 70000 10242 20020 39715 40137 70642 80008 333 10281 58014 87280
AAXX 10184 61090 31928 70406 10250 21039 39623 40134 70622 80008 333 10285 58009 87280
AAXX 10184 61091 32960 70000 10220 20072 39688 40145 80008 333 10282 58012 87280
AAXX 10184 61096 31957 70808 10255 21001 39760 40144 70522 80008 333 10297 58015 87280
AAXX 10184 61099 31915 70806 10285 20044 39878 40106 70622 80008 333 10325 58017 87280
AAXX 10181 23973 41597 81704 11079 21085 30253 40318 57023 77172 8472/
AAXX 10181 23975 415// 81903 11072 21081 30200 40313 57024 70282 889//
AAXX 10181 23986 41598 51801 11111 21116 39672 40335 57010 78582 85300
AAXX 10181 23987 42399 81503 11090 21106 30251 40328 57020 889//
AAXX 10181 24606 418// 10000 11248 21266 30001 40295 52009 70271 81040
AAXX 10181 29253 419// 80000 11098 21115 30162 40339 57014 77172 8802/
AAXX 10181 29471 41598 80000 11096 21108 30112 40350 57013 70282 889// 333 88920
AAXX 10181 29481 42999 81401 11122 21135 30107 40358 57015 8802/
AAXX 10181 29553 41958 21102 11147 21153 39957 40346 57018 71071 80001
AAXX 10181 29562 42984 50000 11138 21151 39908 40350 57014 80002
AAXX 10181 29581 429// 81202 11081 21095 30096 40364 58010 8802/
AAXX 10181 29594 41598 80000 11092 21112 39965 40367 57003 78582 889//
AAXX 10181 29653 42997 71902 11201 21220 39845 40371 57009 80001
AAXX 10181 29675 42998 82701 11163 21176 39738 40371 57011 80007
AAXX 10181 29676 42898 80000 11092 21099 39909 40350 52011 8802/
AAXX 10181 29752 429// 03302 11039 21204 38871 48524 57008
AAXX 10181 29759 429// 00000 11143 21156 39275 40360 58010
AAXX 10181 29766 42899 80000 11169 21175 30001 40384 57006 8801/
AAXX 10181 29789 42999 00000 11219 21225 39134 40423 58004
AAXX 10181 29864 429// 03501 11230 21249 39678 40394 58008
AAXX 10181 29866 419// 80601 11140 21146 30026 40368 57004 77172 8802/
AAXX 10181 29869 419// 80401 11154 21160 39972 40371 57006 71022 8802/ 333 95090
AAXX 10181 29956 41913 80000 11132 21138 39778 40370 58005 77172 8802/
AAXX 10181 30337 41598 80000 11093 21109 39842 40305 52013 70282 84908
AAXX 10181 30405 415// 83101 11107 21120 39814 40368 52002 78581 889//
AAXX 10181 30504 41497 70000 11103 21123 39694 40370 58001 78582 86302
AAXX 10181 30603 41997 20000 11156 21162 39767 40275 52004 70281 80001
AAXX 10181 30612 415// 82802 11128 21141 39805 40367 52011 78582 84915
AAXX 10181 30622 429// 21002 11124 21137 39661 40335 52014 80003
AAXX 10181 30627 42699 70000 11102 21138 39365 40329 52010 84531
AAXX 10181 30703 415// 83402 11077 21091 39667 40362 51008 78582 889//
AAXX 10181 36307 42897 83301 11169 21195 39068 48582 58001 8801/ 333 95090
AAXX 10181 78310 12570 70306 10258 20231 30170 40180 58007 60001 87900 333 10274 20220 30/// 56900 57963 59007 82820 85620 819// 92024
AAXX 10181 78315 11575 53604 10259 20201 30100 40165 58014 69931 70381 83232 333 10270 20200 30/// 56999 59012 70011 83820
AAXX 10181 78318 01458 60307 10236 20223 30158 40162 58021 60541 72586 86800 333 10246 20205 33/// 56100 59021 69977 71190 85818 555 10402
AAXX 10181 78322 01510 73604 10224 20217 30146 40163 58015 60151 76322 8222/ 333 10254 20204 32/// 56899 59011 60157 70154 82820 87459 555 13602
AAXX 10181 78324 11410 63602 10256 20217 30143 40154 56014 60001 70511 83806 333 10261 20231 30/// 56809 59007 82816 83620 86270 555 13603
AAXX 10181 78325 01563 70503 10241 20223 30104 40162 58021 60031 72186 8626/ 333 10235 20214 32/// 56299 59015 60037 70035 86820 555 10903
AAXX 10181 78328 11461 60706 10262 20220 30160 40/// 58011 69961 70581 83252 333 10274 20231 31/// 56190 59009 70055 83817 85073 92427 555 10603
AAXX 10181 78333 11410 42002 10281 20190 30144 40151 58016 60001 70511 83903 333 10286 20216 31/// 56209 57935 59008 70131 83817 819// 555 10901
AAXX 10181 78344 11564 40602 10292 20196 30094 40142 58020 60001 70500 84240 333 10292 20212 31/// 56990 57881 59007 70063 84820
AAXX 10181 78345 12565 20905 10291 20212 30127 40140 58026 60001 82800 333 10291 20179 30/// 56900 57826 59007 82820
AAXX 10181 78348 11557 20904 10268 20216 30097 40149 58018 60001 70511 82840 333 10271 20231 30/// 56290 57851 59013 82822 555 10902
AAXX 10181 78349 11568 40901 10276 20196 30044 40153 57025 60001 70500 84200 333 10282 20206 31/// 56200 57852 59008 70081 84822 555 10902
AAXX 10181 78351 12550 40506 10284 20194 30130 40132 58024 60001 84800 333 10298 20197 30/// 56100 57834 59008 70010 84826 555 10403
AAXX 10181 78353 11570 41303 10277 20223 30132 40154 58024 69961 70181 84800 333 10277 20234 31/// 56900 59003 70009 83820
AAXX 10181 78355 12570 40806 10274 20212 30008 40143 58019 60001 84800 333 10274 20215 30/// 56900 59007 82823
AAXX 10181 78358 01550 50703 10273 20237 30124 40139 58026 60061 70386 85800 333 10275 20230 31/// 56900 57884 59005 60017 70062 82823 84629
AAXX 10181 78360 12570 31306 10301 20232 30121 40132 58022 60001 82903 333 10301 20225 30/// 56909 57949 59011 81820 819// 92024
AAXX 10181 78363 11561 40403 10289 20209 30002 40116 58027 60001 70540 84200 333 10289 20186 31/// 56200 59007 70009 84820 555 10901
AAXX 10181 78365 11562 50909 10274 20219 30143 40148 58020 69961 70562 84862 333 10276 20234 32/// 56299 57845 59008 70078 83822 92035 555 10903
AAXX 10181 78369 11568 30405 10283 20206 30127 40136 58020 60001 70500 83200 333 10283 20256 30/// 56100 57866 59008 83820 92043 555 10403
AAXX 10181 23074 41496 82003 11085 21104 30229 40255 52002 78583 889//
AAXX 10181 23274 41497 71701 11102 21115 30243 40280 56002 78582 879// 333 85917
AAXX 10181 23383 41597 80000 11093 21109 39918 40281 53004 78582 8592/
AAXX 10181 23472 41495 80802 11076 21086 30222 40271 57007 78682 889//
AAXX 10181 23678 419// 81104 11062 21077 30209 40268 57032 77172 8802/
AAXX 10181 23884 419// 81601 11073 21086 30229 40304 57027 77172 8002/
AAXX 10181 23891 41596 83001 11070 21108 39985 58008 78582 889//
AAXX 10181 24507 429// 00000 11211 21230 30044 40307 52007
AAXX 10181 24817 419// 83102 11120 21133 39868 40249 52011 77172 80006
AAXX 10181 24908 41998 80000 11099 21111 39959 40300 52008 77187 82037
AAXX 10181 29263 41559 80000 11096 21117 30240 40345 57015 78582 8595/
AAXX 10181 29282 42978 80000 11202 21221 30177 40362 58001 80001
AAXX 10181 29379 42998 70901 11150 21163 30146 40369 57008 8705/
AAXX 10181 29570 41596 72401 11105 21118 39986 40349 57017 78582 84930
AAXX 10181 29698 419// 80000 11154 21161 39831 40379 58002 70282 80002
AAXX 10181 30230 41597 82601 11086 21105 39938 40274 52012 78582 8697/
AAXX 10181 30252 416// 82501 11070 21127 39878 40199 52003 70332 84907
AAXX 10181 30309 41598 82602 11091 21107 39808 40348 52005 78582 85931
AAXX 10181 30328 415// 80000 11104 21110 39885 40292 52008 70282 84907
AAXX 10181 30521 415// 62702 11108 21128 39792 40339 52010 70282 82901
AAXX 10181 30710 41597 82904 11062 21110 39747 40346 52009 72683 889//
AAXX 10184 71125 12874 70702 11045 21059 39485 40076 57009 60001 87070 333 79999
AAXX 10184 71624 12574 42718 11024 21115 30073 40292 50000 60001 82830 333 11017 21070 79999
AAXX 10184 71345 16/// /2413 10075 21065 60001 333 10075 21006 70000
AAXX 10184 71916 46/// /0000 11354 21386 30051 40109 6///1 333 11320 21359 7////
AAXX 10184 71683 46/// /2910 11080 39986 40097 53022 6///1 333 11072 21118 7////
AAXX 10184 71525 16/// /2319 10067 21040 60001 333 10067 21041 70000
AAXX 10184 71535 16/// /2207 10057 21038 60001 333 10057 20006 70000
AAXX 10184 71536 16/// /3003 10055 21046 60001 333 10062 21005 70000
AAXX 10184 71537 16/// /2511 10026 21029 60001 333 10028 21112 70000
AAXX 10184 71464 46/// ///21 11031 30073 40294 58004 6///1 333 11026 21053 7////
AAXX 10184 16564 12597 82705 10150 20114 30048 40190 51006 60002 82275 333 10174 82820 83357 85459 555 0////
AAXX 10184 71751 46/// /3303 11080 21142 39933 40200 58017 6///1 333 11080 21132 7////
AAXX 10184 71445 16/// /2109 11094 21126 39865 40150 54000 60001 333 11094 21171 70000 555 10030
AAXX 10184 71214 16/// /1203 11016 21066 60001 333 11016 21091 70000
AAXX 10184 71223 16/// /2213 11022 21070 60001 333 11022 21091 70000
AAXX 10184 71225 16/// /2217 10062 21060 60001 333 10062 21031 70000
AAXX 10184 71227 46/// /2305 11060 21091 6///1 333 11049 7////
AAXX 10184 71351 17/// /2701 11029 21079 69961 7//4/ 333 11018 21105 70006
AAXX 10184 71353 16/// /2908 10033 21097 60001 333 10035 21020 70000
AAXX 10184 71375 46/// /2722 11026 6///1 333 11004 21059 7////
AAXX 10184 71385 46/// /2524 11025 6///1 333 10010 21039 7////
AAXX 10184 71257 16/// /2610 10062 21048 60001 333 10062 21053 70009
AAXX 10184 71258 16/// /2110 10019 21070 60001 333 10043 21020 70000
AAXX 10184 71259 16/// /2415 10020 21051 60001 333 10020 21121 70000
AAXX 10184 71274 16/// /0202 11032 21071 60001 333 11032 21079 70000
AAXX 10184 71275 46/// /1304 11030 21077 6///1 333 11030 21083 7////
AAXX 10184 71278 16/// /0901 11046 21074 60001 333 11025 21106 70000
AAXX 10184 71286 16/// /1403 11059 21087 60001 333 11013 21093 7////
AAXX 10184 71287 16/// /0404 11026 21056 60001 333 11026 21093 70000
AAXX 10184 71289 16/// /2211 10020 21078 60001 333 10020 21070 70000
AAXX 10184 89132 NIL
AAXX 10184 89542 NIL
AAXX 10184 89575 NIL
AAXX 10184 89657 46/// /2008 11054 20095 49780 57002
BBXX BAREU62 10184 99408 10282 46/// ///// 40243 22264
AAXX 10184 71125 12874 70702 11045 21059 39485 40076 57009 60001 87070 333 79999
BBXX BAREU12 10184 99502 70059 46/// ///// 40162 57007 22283
AAXX 10181 27333 12984 81806 11012 21017 39920 40078 57018 69900 8807/ 333 11010 91112
AAXX 10184 40103 32960 01204 10115 20046 40266 52013 333 10180
AAXX 10184 61017 32960 50000 10184 20061 39769 40185 80002 333 10255 58012 85080
AAXX 10184 61024 31940 21010 10220 20027 39585 40155 70600 80002 333 10270 58005 82080 P 084
AAXX 10184 61036 31918 70802 10282 21017 39875 40113 7062/ 80008 333 10310 58013 87280
AAXX 10184 61043 31908 71210 10262 21080 39690 40134 7064/ 80008 333 10288 58014 87280
AAXX 10184 61045 31908 70606 10250 21038 39642 40140 7064/ 80008 333 10284 58012 87280
AAXX 10184 61049 31940 70804 10245 20092 39810 40132 7062/ 80008 333 10288 58010 87280
AAXX 10184 61052 31912 50806 10276 21048 39865 40123 70622 80002 333 10310 58013 85080
AAXX 10184 61075 31906 71206 10260 20012 39811 40121 70644 80008 333 10295 58013 87280
AAXX 10184 61080 31910 70000 10242 20020 39715 40137 70642 80008 333 10281 58014 87280
AAXX 10184 61090 31928 70406 10250 21039 39623 40134 70622 80008 333 10285 58009 87280
AAXX 10184 61091 32960 70000 10220 20072 39688 40145 80008 333 10282 58012 87280
AAXX 10184 61096 31957 70808 10255 21001 39760 40144 70522 80008 333 10297 58015 87280
AAXX 10184 61099 31915 70806 10285 20044 39878 40106 70622 80008 333 10325 58017 87280
AAXX 10184 60677 36/// /0000 10143 21044 333 10215
AAXX 10184 60679 36/// /3404 10066 21169 333 10139
AAXX 10184 60691 36/// /0611 10218 21047 333 10267
AAXX 10184 60662 36/// /0000 10158 21065 333 10197
AAXX 10184 60676 36/// /0510 10145 20008 333 10179
AAXX 10181 60394 16/// /0000 10132 20123 69922 333 10183
AAXX 10181 60374 36/// /1202 10141 20140 333 10176
AAXX 10181 60613 36/// /0000 10150 20008 333 10206
AAXX 10181 60376 16/// /1502 10141 20140 69922 333 10179
AAXX 10181 60593 36/// /0000 10158 333 10195
AAXX 10184 60650 36/// /0000 10222 21079 333 10259
AAXX 10184 60672 36/// /3304 10163 21120 333 10212
BBXX NIL
AAXX 10184 60633 36/// /1208 10239 21108 333 10273
AAXX 10184 40250 32960 00000 10080 21018 39428 40233 52003 333 10140
AAXX 10184 40265 32960 02606 10066 20024 39461 40281 52020 333 10126
AAXX 10184 40296 32960 00000 10164 20080 40250 52007 333 10247
AAXX 10184 40310 32960 00000 10058 21007 38912 48545 52011 333 10140
AAXX 10184 60661 36/// /0000 10174 21134 333 10241
BBXX NIL
AAXX 10184 60667 36/// /0000 10172 20000 333 10201
AAXX 10184 60692 36/// /0106 10219 21024 333 10271
BBXX NIL
AAXX 10184 40255 32960 00000 10074 20043 39532 40265 52015 333 10125
AAXX 10184 40260 32960 03306 10080 21042 39440 40237 52015 333 10150
AAXX 10184 40270 31656 20105 10070 20023 39336 40254 52013 70522 82100 333 10125 82830
AAXX 10184 40272 32960 00000 10045 21013 39406 40266 52012 333 10140
AAXX 10184 40290 NIL
AAXX 10184 40340 32960 03612 10136 20034 40232 52013 333 10200
BBXX NIL
BBXX NIL
AAXX 1018/ 89767 46/// ///// 11114 39722 4//// 5////
AAXX 10184 89016 46/89 /1504 11031 29065 39303 4//// 5////
AAXX 10184 89003 46/89 /3223 11091 29065 38868 4//// 5////
AAXX 10184 89507 46/89 /1107 11225 29065 36701 4//// 5////
AAXX 10184 71624 12574 42718 11024 21115 30073 40292 50000 60001 82830 333 11017 21070 79999
AAXX 10181 51711 32980 22502 11145 21169 38074 57004 80002 333 05351 11064
AAXX 10181 51730 32975 71601 11105 21120 40386 57005 80002 333 05451 10017
AAXX 10181 52112 32980 12501 11115 21194 40357 57002 80002 333 05753 11007
AAXX 10181 52737 32980 20000 11147 21265 37093 52005 80002 333 05253 11006
AAXX 10181 52787 32980 01401 11136 21249 37029 57005 333 05405 11048
AAXX 10181 53352 32980 02002 11116 21165 40359 57009 333 11050
AAXX 10181 53593 32970 01401 11101 21144 40347 52003 333 11016
AAXX 10181 53705 32970 00000 11082 21131 40376 54000 333 05802 10005
AAXX 10181 53863 32970 00000 11052 21113 40358 57014 333 10006
AAXX 10181 53975 32976 00000 11047 21131 40345 57013 333 10017
AAXX 10181 54273 11670 72201 11073 21131 40217 57004 69951 72270 875// 333 11072
AAXX 10181 54324 32970 02003 11037 21139 40235 52010 333 10004
AAXX 10181 54405 32980 02906 11028 21113 40300 52006 333 10007
AAXX 10181 54436 32980 02701 11077 21114 40269 52003 333 10018
AAXX 10181 54808 32962 01801 11020 21079 40304 57008 333 10052
AAXX 10181 54826 32980 03407 11059 21173 38502 54000 333 11058
AAXX 10181 54836 32965 02502 11032 21090 40314 57005 333 10016
AAXX 10181 54863 32962 02502 11028 21091 40294 57002 333 10018
AAXX 10181 56018 32680 72001 11075 21177 36141 52003 879// 333 05251 10044
AAXX 10181 56021 11780 72903 11086 21116 36043 52004 69911 77000 875// 333 05204 10004
AAXX 10181 57071 32965 03202 11017 21105 40328 57009 333 10042
AAXX 10184 71345 16/// /2413 10075 21065 60001 333 10075 21006 70000
AAXX 10184 71683 46/// /2910 11080 39986 40097 53022 6///1 333 11072 21118 7////
AAXX 10184 71464 46/// ///21 11031 30073 40294 58004 6///1 333 11026 21053 7////
AAXX 10184 71525 16/// /2319 10067 21040 60001 333 10067 21041 70000
AAXX 10184 71535 16/// /2207 10057 21038 60001 333 10057 20006 70000
AAXX 10184 71536 16/// /3003 10055 21046 60001 333 10062 21005 70000
AAXX 10184 71537 16/// /2511 10026 21029 60001 333 10028 21112 70000
AAXX 10184 71916 46/// /0000 11354 21386 30051 40109 6///1 333 11320 21359 7////
AAXX 10181 35925 329// 81805 11090 21101 40274 58002 8802/ 333 11060
AAXX 10181 38001 11497 83603 10019 20008 30285 40255 52009 60010 76162 8872/ 333 10022
AAXX 10181 38001 11497 83603 10019 20008 30285 40255 52009 60010 76162 8872/ 333 10022
BBXX ZCDQ5 10183 99331 10327 43898 20308 10160 20140 40250 54000 70200 82//3 22234 00163 20101 80150
AAXX 10181 38232 32498 80701 11022 21038 30160 40262 52003 886// 333 11021
AAXX 10181 35925 329// 81805 11090 21101 40274 58002 8802/ 333 11060
BBXX 46208 10181 99525 71327 46/// /2910 10067 40209 52011 22200 00077 1//// 70/// 333 912//
AAXX 10181 78458 32466 60604 10278 20243 40139 57029 85834 333 10290 20215 32/// 56200 59009 85618
AAXX 10181 78460 31460 41304 10294 20218 40125 57028 70544 84900 333 10298 20203 31/// 56200 59022 81918 83820
AAXX 10181 78467 21466 50904 10250 20222 40126 57024 72582 85200 333 10280 20210 32/// 56200 59011 60062 85815
AAXX 10181 78479 21458 70707 10266 20239 40102 57015 76062 86220 333 10290 20244 31/// 56100 59026 69900 86816 84458
AAXX 10181 78482 32566 31104 10318 20217 40128 57033 83900 333 10335 20200 30/// 56000 59013 81922 82825
AAXX 10181 78485 32466 60204 10282 20222 40111 57011 86900 333 10310 20214 30/// 56200 59017 81918 85820
AAXX 10181 78486 32466 53603 10300 20236 40101 57025 85200 333 10306 20230 30/// 56000 59016 85822
AAXX 10181 78488 32566 50508 10295 20242 40127 57026 83800 333 10300 20200 30/// 56200 59018 85620
AAXX 10184 68513 36/// /1515 10163 20100 30044 40157 53006 333 10217 20163 91020 555 91015
AAXX 10184 68514 36/// /2313 10216 20034 39655 48524 52018 333 10319 20216 91021 555 91013
AAXX 10184 68523 36/// /2219 10177 20004 39081 48492 53017 333 10285 20177 91028 555 91014
AAXX 10184 68527 36/// /2210 10278 21109 39013 48469 53013 333 10341 20278 91017 555 91009
AAXX 10184 68572 16/// /2204 10129 20104 38401 48511 52017 69962 333 10255 20125 91006 555 20006 91020
AAXX 10184 68575 16/// /3602 10172 20165 39087 48509 55000 60052 333 10225 20170 91006 555 20056 91016
AAXX 10184 68581 36/// /1202 10188 20178 39361 48508 52016 333 10258 20188 91004 555 91014
AAXX 10184 68583 16/// /0608 10219 20203 30012 40121 52010 60062 333 10254 20219 91017 555 20060 60265 91012
AAXX 10184 68589 16/// /0202 10123 20100 38248 48511 56001 60062 333 10198 20122 91005 555 20064 91020
AAXX 10184 68613 36/// /2307 10134 20096 30052 40170 53011 333 10204 20133 91012 555 91016
AAXX 10184 68647 16/// /1105 10148 20117 38880 48474 53012 69922 333 10224 20146 91012 555 20002 91013
AAXX 10184 68651 16/// /1107 10133 20112 38549 48511 53017 60052 333 10231 20120 91013 555 20058 91019
AAXX 10184 68715 36/// /2203 10167 20094 30029 40157 52011 333 10237 20167 91009 555 91015
AAXX 10184 68717 36/// /1906 10168 20067 30008 40152 52008 333 10251 20168 91010 555 91015
AAXX 10184 68723 36/// /2010 10172 20087 39357 48483 53018 333 10293 20172 91018 555 91011
AAXX 10184 68737 32775 11606 10231 20089 39174 48460 52008 81200 333 10287 20231 91012 555 91008
AAXX 10184 68744 36/// /1106 10210 20125 39040 48460 52021 333 10288 20210 91010 555 91010
AAXX 10184 68747 36/// /2803 10214 20134 39564 48488 53006 333 10260 20213 91005 555 91009
AAXX 10184 68754 16/// /3409 10169 20128 39095 48480 52008 60092 333 10247 20162 91017 555 20098 91013
AAXX 10184 68817 NIL
AAXX 10184 68821 36/// /2811 10175 20045 39887 40126 52013 333 10253 20173 91018 555 91012
AAXX 10184 68835 36/// /3305 10188 20102 30000 40114 53008 333 10259 20188 91010 555 91011
AAXX 10184 68843 16/// /0814 10191 20160 39993 40091 53005 69922 333 10246 20189 91019 555 20002 91009
AAXX 10184 68849 36/// /1205 10174 20143 39364 48476 53006 333 10240 20174 91006 555 91011
AAXX 10184 68912 36/// /2305 10155 20111 30142 40151 52005 333 10198 20155 91012 555 91015
AAXX 10184 68918 36/// /3012 10173 20093 30116 40135 52003 333 10211 20162 91021 555 91013
AAXX 10184 68921 36/// /2714 10172 20097 30118 40121 53006 333 10223 20172 91025 555 91012
AAXX 10184 68925 36/// /2906 10144 20084 39776 40142 52006 333 10189 20144 91015 555 91014
AAXX 10184 68926 32040 80303 10160 20105 39958 40138 52006 885// 333 10254 20159 91005 555 91013
AAXX 10184 68935 36/// /2704 10176 20117 30065 40129 52011 333 10232 20176 91007 555 91012
AAXX 10184 42027 32596 40000 10028 20014 38448 48536 84400 333 59012
AAXX 10184 42101 31995 02702 10136 20117 40134 70500 333 59011
AAXX 10184 42111 31994 03201 10114 20107 39355 40142 71000 333 59004
AAXX 10184 42131 32996 22701 10100 20057 40160 80001 333 58001
AAXX 10184 42165 32996 00000 10120 21016 40157 333 59003
AAXX 10184 42182 31994 02703 10136 20110 40146 71000 333 58004
AAXX 10184 42189 31994 90000 10164 20154 40130 74144 333 58///
AAXX 10184 42328 32996 03603 10128 21017 40163 333 59001
AAXX 10184 42339 31995 00000 10120 20018 40165 70500 333 58012
AAXX 10184 42348 31995 00000 10154 20006 40154 70500 333 58012
AAXX 10184 42361 31995 00000 10126 20107 40154 70500 333 58011
AAXX 10184 42369 31993 09902 10150 20139 40145 74440 333 58015
AAXX 10184 42379 31990 00901 10148 20130 40124 74644 333 59001
AAXX 10184 42452 32996 02702 10160 20040 40161 333 58012
AAXX 10184 42475 31994 00000 10166 20130 40144 71000 333 58016
AAXX 10184 42071 NIL
AAXX 10184 42260 NIL
AAXX 10183 42071 31996 00000 10116 20075 40144 70500 333 59010
AAXX 10181 47008 42570 61401 11035 21096 30131 40187 58025 86500
AAXX 10181 47014 42950 80000 11127 21147 39809 40236 52003 8804/
AAXX 10181 47016 42770 70000 11147 21170 39337 40234 58021 87070
AAXX 10181 47020 42965 70000 11090 21119 39888 40288 52015 80006
AAXX 10181 47025 42960 03202 11015 21133 30167 40197 52017
AAXX 10181 47035 42970 00000 11070 21100 30250 40259 54000
AAXX 10181 47041 42970 00000 11072 21115 30178 40207 52006
AAXX 10181 47055 42970 02302 11010 21060 30179 40226 54000
AAXX 10181 47058 42560 80501 11045 21080 30218 40267 54000 885//
AAXX 10181 47069 42565 10000 11016 21053 30155 40258 52005 81500
AAXX 10181 47101 32665 60201 11052 21070 30168 40269 52007 85500
AAXX 10181 47105 369// /2511 10008 21095 30185 40218 53009
AAXX 10181 47108 32668 62003 11012 21077 30156 40266 52005 86500
AAXX 10181 47115 32572 31801 10018 21060 39929 40206 53003 83500 333 92041
AAXX 10181 47133 31660 70001 10010 21017 30186 40274 53006 77072 87500
AAXX 10181 47138 32970 02506 10018 21040 30233 40236 50002 333 92032
AAXX 10181 47159 32980 01403 10011 21055 30162 40250 56004 333 92022
AAXX 10181 47165 32665 63412 10049 21044 30227 40275 54000 86500 333 92024
AAXX 10181 47168 32570 53410 10033 21053 30179 40260 56003 85500 333 92023
AAXX 10181 47184 32670 73212 10072 21030 30251 40276 56002 87500 333 92034
AAXX 10181 47090 32973 02707 10006 21097 30187 40210 53008 333 92023
AAXX 10181 47095 32570 62302 11027 21077 30068 40264 53001 86500
AAXX 10181 47097 329// /0000 11028 21045 30172 40272 53006
AAXX 10181 47098 329// /0001 11040 21067 30123 40264 53002
AAXX 10181 47099 329// /0000 11040 21060 30228 40266 53002
AAXX 10181 47100 32470 22513 11064 21102 39294 40251 53003 82500
AAXX 10181 47102 32670 62712 10022 21047 30077 40259 53004 86500
AAXX 10181 47104 32970 01606 11001 21092 30114 40214 53006
AAXX 10181 47106 329// /2303 10014 21092 30163 40213 53006
AAXX 10181 47112 32668 61802 10007 21053 30178 40265 52003 85500 333 92011
AAXX 10181 47114 32670 40000 11027 21070 30081 40271 53006 84500
AAXX 10181 47119 31630 70000 11008 21012 30225 40269 52005 71022 87500
AAXX 10181 47121 329// /2702 11024 21060 39964 40269 53004
AAXX 10181 47127 329// /2702 11005 21028 30127 40273 53006
AAXX 10181 47129 31530 81602 10010 20005 30236 40273 52005 71022 886//
AAXX 10181 47130 32970 02510 10017 21076 30156 40219 52003 333 92023
AAXX 10181 47131 41640 61802 10003 21011 30198 40271 53005 72682 86500
AAXX 10181 47135 329// /2711 10011 21030 39955 40261 55001
AAXX 10181 47136 32670 52701 11020 21053 30081 40260 53001 85500
AAXX 10181 47137 329// /2709 10011 21037 30139 40261 54000
AAXX 10181 47140 32662 60903 10011 20002 30243 40273 53002 86500 333 92012
AAXX 10181 47143 32665 62904 10010 21052 30184 40265 55004 86500
AAXX 10181 47145 41550 70001 10001 21013 30239 40266 53008 78582 87800
AAXX 10181 47146 31657 71601 10010 20001 30207 40275 53003 71022 87500
AAXX 10181 47150 32660 70203 10011 21008 30247 40267 52004 87800
AAXX 10181 47152 32973 00001 10015 21050 30196 40240 55004
AAXX 10181 47154 329// /3403 10011 21033 30199 40261 53002
AAXX 10181 47155 32970 00502 10011 21035 30206 40253 57005
AAXX 10181 47156 32662 60000 10034 21013 30186 40277 52004 86500
AAXX 10181 47157 32670 62507 10023 21036 39970 40245 55005 85500
AAXX 10181 47162 32675 20505 10026 21021 30214 40255 57004 81500 333 92022
AAXX 10181 47169 32665 63412 10057 21021 30178 40273 56008 86500 333 92054
AAXX 10181 47170 32670 63207 10047 21051 30228 40272 56001 86500 333 92023
AAXX 10181 47171 429// /1103 10012 21001 30217 40274 53003
AAXX 10181 47172 329// /2501 10040 21017 30200 40268 52002
AAXX 10181 47173 329// /0001 11005 21014 30163 40278 53003
AAXX 10181 47174 32665 63206 10021 21032 30056 40263 57004 85500
AAXX 10181 47175 32568 63213 10009 21049 39685 40272 57002 86500 333 92024
AAXX 10181 47185 32665 73222 10078 21012 30176 40268 55007 87500 333 92046
AAXX 10181 47188 32670 73603 10061 21025 30251 40273 53001 87500 333 92032
AAXX 10181 47189 32670 63203 10069 21030 30203 40264 56007 85500 333 92022
AAXX 10181 47192 32668 20001 11017 21042 30220 40259 57005 82500
AAXX 10181 47003 42980 00000 11055 21126 30189 40193 52007
AAXX 10181 47005 11550 81401 11156 21175 38563 52004 69931 77177 885//
AAXX 10181 47022 42475 23405 11106 21179 38793 52005 82900
AAXX 10181 47028 42962 02701 11079 21110 30147 40246 58001
AAXX 10181 47031 42970 03204 11116 21136 38912 52008
AAXX 10181 47037 42970 00000 11075 21110 30132 40261 52002
AAXX 10181 47039 42960 40000 11090 21115 30071 40273 52002 84030
AAXX 10181 47046 42969 02702 11027 21133 30172 40195 52009
AAXX 10181 47050 42965 00000 11070 21108 30218 40254 52003
AAXX 10181 47052 42565 80000 11068 21092 39914 40269 57004 885//
AAXX 10181 47060 42560 81101 11015 21032 30195 40255 58001 885//
AAXX 10181 47061 42980 00000 10009 21085 30155 40199 54000
AAXX 10181 47065 42570 81101 11025 21051 30200 40268 52004 885//
AAXX 10181 47067 41560 80000 11044 21057 30154 40279 57002 71022 885//
AAXX 10181 47068 42570 71404 11023 21042 30217 40253 53005 87500
AAXX 10181 47070 42970 80000 11037 21047 30178 40269 52003 8803/
AAXX 10181 47075 42580 82301 11044 21075 39759 40202 52009 885//
BBXX 46208 10181 99525 71327 46/// /2910 10067 40209 52011 22200 00077 1//// 70/// 333 912//
AAXX 10181 78458 32466 60604 10278 20243 40139 57029 85834 333 10290 20215 32/// 56200 59009 85618
AAXX 10181 78460 31460 41304 10294 20218 40125 57028 70544 84900 333 10298 20203 31/// 56200 59022 81918 83820
AAXX 10181 78467 21466 50904 10250 20222 40126 57024 72582 85200 333 10280 20210 32/// 56200 59011 60062 85815
AAXX 10181 78479 21458 70707 10266 20239 40102 57015 76062 86220 333 10290 20244 31/// 56100 59026 69900 86816 84458
AAXX 10181 78482 32566 31104 10318 20217 40128 57033 83900 333 10335 20200 30/// 56000 59013 81922 82825
AAXX 10181 78485 32466 60204 10282 20222 40111 57011 86900 333 10310 20214 30/// 56200 59017 81918 85820
AAXX 10181 78486 32466 53603 10300 20236 40101 57025 85200 333 10306 20230 30/// 56000 59016 85822
AAXX 10181 78488 32566 50508 10295 20242 40127 57026 83800 333 10300 20200 30/// 56200 59018 85620
AAXX 10181 78458 32466 60604 10278 20243 40139 57029 85834 333 10290 20215 32/// 56200 59009 85618
AAXX 10181 78460 31460 41304 10294 20218 40125 57028 70544 84900 333 10298 20203 31/// 56200 59022 81918 83820
AAXX 10181 78467 21466 50904 10250 20222 40126 57024 72582 85200 333 10280 20210 32/// 56200 59011 60062 85815
AAXX 10181 78479 21458 70707 10266 20239 40102 57015 76062 86220 333 10290 20244 31/// 56100 59026 69900 86816 84458
AAXX 10181 78482 32566 31104 10318 20217 40128 57033 83900 333 10335 20200 30/// 56000 59013 81922 82825
AAXX 10181 78485 32466 60204 10282 20222 40111 57011 86900 333 10310 20214 30/// 56200 59017 81918 85820
AAXX 10181 78486 32466 53603 10300 20236 40101 57025 85200 333 10306 20230 30/// 56000 59016 85822
AAXX 10181 78488 32566 50508 10295 20242 40127 57026 83800 333 10300 20200 30/// 56200 59018 85620
AAXX 10181 80400 NIL
AAXX 10181 80403 32470 10905 10330 20250 30082 40101 81200 333 30/// 56900 59009 81813 555 10104
AAXX 10181 80405 NIL
AAXX 10181 80407 32470 5//// 10310 20252 30023 4//// 854// 333 30/// 569// 5//// 85613 555 10098
AAXX 10181 80410 32470 30908 10288 20210 39429 40101 83200 333 30/// 56900 58007 83816 555 10140
AAXX 10181 80413 32470 42003 10315 20165 39609 40092 82520 333 30/// 56990 58000 82616 555 10126
AAXX 10181 80415 32470 40502 10290 20236 30051 40105 84500 333 30/// 56900 58001 84616 555 10107
AAXX 10181 80419 NIL
AAXX 10181 80421 32364 6//// 10334 30240 30069 40067 83806 333 30/// 56909 59001 83810 83277 555 10090
AAXX 10181 80423 32470 4//// 10310 20192 30059 40076 84200 333 30/// 56200 59012 84810 555 10075
AAXX 10181 80428 32460 40902 10328 20229 39896 40078 84100 333 30/// 56900 59006 84820 555 10092
AAXX 10181 80432 NIL
AAXX 10181 80435 32470 70505 10289 20209 30014 40088 878// 333 30/// 569// 59000 87813 555 10087
AAXX 10181 80438 32570 52504 10242 20173 38502 48499 8453/ 333 30/// 5699/ 59002 84620 555 10182
AAXX 10181 80444 32470 4//// 10312 2//// 30020 4//// 84500 333 30/// 56200 59011 84613 555 10068
AAXX 10181 80447 32560 33403 10305 20208 39639 40057 83500 333 30/// 56900 59007 83620 555 10111
AAXX 10181 80448 32570 40503 10322 20231 3//// 4//// 84100 333 30/// 56900 84820
AAXX 10181 80450 32475 81103 10304 20224 30055 40110 84508 333 30/// 56909 58003 84616 85280 555 10107
AAXX 10181 80453 NIL
AAXX 10181 80457 32470 4//// 10344 20144 30012 40097 82520 333 30/// 56990 58004 82616 555 10097
AAXX 10181 80462 NIL
AAXX 10181 80402 NIL
AAXX 10181 80412 NIL
AAXX 10181 80416 NIL
AAXX 10181 80420 32470 30204 10316 20189 30075 40081 83800 333 30/// 56900 59012 83813 555 10094
AAXX 10181 80425 32570 60502 10334 20256 30056 40087 861// 333 30/// 569// 59006 86820 555 10088
AAXX 10181 80426 32570 63402 10264 20201 39460 40103 865// 333 30/// 569// 59011 86627 555 10135
AAXX 10181 80427 32570 40902 10328 20243 39847 40097 84200 333 30/// 56900 59002 84820 555 10113
AAXX 10181 80431 NIL
AAXX 10181 80434 NIL
AAXX 10181 80437 32470 32902 10324 20191 39982 40052 8351/ 333 30/// 5699/ 59011 83617 85460 555 10077
AAXX 10181 80440 32570 41602 10326 20207 39870 40081 84200 333 30/// 56900 59007 84823 555 10090
AAXX 10181 80442 32470 6//// 10326 2//// 39972 4//// 862// 333 30/// 569// 59008 86813 555 10083
AAXX 10181 80472 32468 51401 10336 20236 39609 40084 8323/ 333 30/// 5629/ 59006 83816 555 10111
AAXX 10181 80475 32560 31103 10318 20209 39736 40104 83500 333 30/// 56900 59063 85623 555 10118
AAXX 10181 80476 32370 2//// 10329 20078 30083 40078 82200 333 30/// 56900 58003 82003
AAXX 10181 80478 NIL
AAXX 10181 80479 NIL
AAXX 10184 68817 NIL
AAXX 10184 91772 31498 30705 10252 20219 4//// 60001 70200 83200 333 561// 83818
AAXX 10184 91776 31498 30908 1//// 2//// 4//// 60001 70200 83100 333 562// 83818
AAXX 10184 91779 31498 30000 10222 20216 40118 53007 60001 70200 81201 333 569/9 81817 83079
AAXX 10184 91784 31498 60905 10260 20238 40115 53002 60001 70222 84801 333 562/9 84818 86080
AAXX 10184 91792 31498 71203 10250 20237 40129 53003 60001 70222 82206 333 569/9 82816 87278
AAXX 10181 50548 32980 20401 11252 21282 40185 52006 80002 333 11086
AAXX 10181 50564 32970 02202 11209 21229 40160 52008 333 11116
AAXX 10181 51334 32970 12001 11099 21118 40340 57006 80002 333 05253 11011
AAXX 10181 51818 32962 00000 11088 21113 40385 57007 333 05455 11002
AAXX 10181 52378 32980 02004 11121 21230 40396 57008 333 05700 11025
AAXX 10181 53487 32965 03602 11128 21158 40366 57003 333 11026
AAXX 10181 53502 32980 02203 11120 21208 40386 57010 333 05802 11024
AAXX 10181 53923 32980 02201 11066 21153 40372 57008 333 11017
AAXX 10181 54049 32970 02502 11094 21161 40191 52009 333 11042
AAXX 10181 54115 32980 02506 11071 21140 40240 57001 333 11042
AAXX 10181 54157 32962 02204 11079 21133 40209 52003 333 11064
AAXX 10181 54186 32970 02003 11112 21147 40206 54000 333 11077
AAXX 10181 54311 32980 23402 11065 21116 40267 57002 80002 333 11048
AAXX 10181 54346 32665 73201 11049 21135 40238 52004 875// 333 11039
AAXX 10181 54377 32670 70202 11094 21139 40263 52006 875// 333 11041
AAXX 10181 54386 32570 60201 11158 21195 40248 52007 86500 333 11068
AAXX 10181 54493 32970 02701 11113 21130 40261 57001 333 11035
AAXX 10181 54587 NIL
AAXX 10181 54715 32968 02203 11015 21087 40296 57005 333 10043
AAXX 10181 54929 32965 03401 11038 21069 40318 57003 333 10036
AAXX 10181 54945 32962 02703 11008 21087 40310 57006 333 10039
AAXX 10181 56065 32975 81801 11108 21152 36610 57003 80007 333 05405 11031
AAXX 10181 57193 32962 00000 11026 21077 40321 57011 333 10062
AAXX 10181 57290 32962 00000 10006 21084 40327 57012 333 10072
AAXX 10181 80402 NIL
AAXX 10181 80412 NIL
AAXX 10181 80416 NIL
AAXX 10181 80420 32470 30204 10316 20189 30075 40081 83800 333 30/// 56900 59012 83813 555 10094
AAXX 10181 80425 32570 60502 10334 20256 30056 40087 861// 333 30/// 569// 59006 86820 555 10088
AAXX 10181 80426 32570 63402 10264 20201 39460 40103 865// 333 30/// 569// 59011 86627 555 10135
AAXX 10181 80427 32570 40902 10328 20243 39847 40097 84200 333 30/// 56900 59002 84820 555 10113
AAXX 10181 80431 NIL
AAXX 10181 80434 NIL
AAXX 10181 80437 32470 32902 10324 20191 39982 40052 8351/ 333 30/// 5699/ 59011 83617 85460 555 10077
AAXX 10181 80440 32570 41602 10326 20207 39870 40081 84200 333 30/// 56900 59007 84823 555 10090
AAXX 10181 80442 32470 6//// 10326 2//// 39972 4//// 862// 333 30/// 569// 59008 86813 555 10083
AAXX 10181 80472 32468 51401 10336 20236 39609 40084 8323/ 333 30/// 5629/ 59006 83816 555 10111
AAXX 10181 80475 32560 31103 10318 20209 39736 40104 83500 333 30/// 56900 59063 85623 555 10118
AAXX 10181 80476 32370 2//// 10329 20078 30083 40078 82200 333 30/// 56900 58003 82003
AAXX 10181 80478 NIL
AAXX 10181 80479 NIL
AAXX 10184 08141 11458 82002 10080 20076 39316 40175 53004 69982 76162 8677/ 333 10090
AAXX 1018/ 89828 46/// ///// 11364 36418 4//// 5//// 91810
AAXX 1018/ 89108 46/// ///// 11253 36819 4//// 5//// 91810
AAXX 1018/ 89108 46/// ///// 11253 36819 4//// 5//// 91820
AAXX 1018/ 89879 46/// ///// 11020 39664 4//// 5//// 91820
AAXX 1018/ 89329 46/// ///// 11111 38632 4//// 5//// 91810
AAXX 1018/ 89799 46/// ///// 11290 4//// 5//// 91810
AAXX 10184 68174 11460 70402 10156 20149 38788 48508 53002 69982 70522 8257/ 333 10174 20155 91003 555 20008 91018
AAXX 10184 68191 36/// /3203 10225 20172 39633 48534 56001 333 10258 20225 91005 555 91014
AAXX 10184 68242 32380 70111 10165 20123 38711 48489 53006 875// 333 10207 20165 91016 555 91016
AAXX 10184 68262 36/// /0403 10199 20152 38695 48503 53008 333 10221 20199 91006 555 91017
AAXX 10184 68263 32580 63005 10180 20141 38479 48504 53008 86500 333 10202 20180 91006 555 91019
AAXX 10184 68267 NIL
AAXX 10184 68289 36/// /0503 10199 20149 39148 48519 53007 333 10224 20199 91004 555 91016
AAXX 10184 68350 36/// /3303 10196 20140 38665 48516 53015 333 10239 20196 91007 555 91019
AAXX 10184 68368 42780 70210 10169 20139 38315 48505 51011 87100 333 10197 555 91020
AAXX 10184 68403 36/// /2016 10164 20118 30144 40177 53007 333 10219 20164 91023 555 91017
AAXX 10184 68424 31782 12112 10267 21071 39146 48484 53008 71300 81300 333 10344 20267 91017 555 91010
AAXX 10184 68438 12782 53613 10154 20127 38780 48470 57011 60032 82973 333 10233 20149 91018 555 20038 69925 91013
AAXX 10184 68442 12685 73411 10142 20126 38637 48487 57011 60012 87500 333 10173 20142 91017 555 20016 60125 91016
AAXX 10184 68461 12580 72002 10139 20119 38309 48496 55000 60042 8497/ 333 10215 20129 91003 555 20042 91018
AAXX 10184 68512 32982 01911 10126 20055 39016 48503 53007 333 10217 20126 91018 555 91017
AAXX 10184 68538 31782 10309 10218 20125 38662 48449 53010 71300 81900 333 10309 20218 91014 555 91011
AAXX 10184 68587 16/// /0504 10217 20203 30110 40122 53002 60292 333 10237 20217 91007 555 20292 61905 91012
AAXX 10184 68588 16/// /0310 10226 20198 30112 40128 52008 69922 333 10260 20225 91017 555 20002 69925 91012
AAXX 10184 68591 16/// /0510 10221 20217 39951 40129 57002 60102 333 10243 20216 91017 555 20104 60345 91013
AAXX 10184 68592 NIL
AAXX 10184 68618 32780 12320 10148 20039 39039 48499 53013 81100 333 10248 20148 91025 555 91016
AAXX 10184 68633 36/// /0111 10194 20099 38454 48448 53010 333 10293 20194 91018 555 91012
AAXX 10184 68668 16/// /3407 10170 20143 39278 48499 56010 60132 333 10241 20153 91011 555 20138 91014
AAXX 10184 68714 36/// /2108 10164 20082 30120 40157 52008 333 10217 20164 91014 555 91015
AAXX 10184 68727 36/// /2016 10245 20003 39061 48461 53012 333 10295 20245 91022 555 91009
AAXX 10184 68752 36/// /0509 10190 20164 39418 48479 53001 333 10256 20190 91013 555 91010
AAXX 10184 68816 32680 22609 10173 20093 30096 40150 53010 82500 333 10215 20156 91013 555 91015
AAXX 10184 68828 11256 72513 10145 20134 39902 40136 53015 60002 76162 875// 333 10211 555 91013
AAXX 10184 68842 32359 79902 10189 20160 30031 40100 53004 87600 333 10222 555 91010
AAXX 10184 68858 32980 40508 10197 20180 39937 40091 50001 82506 333 10241 555 91009
AAXX 10184 68906 11495 83516 10155 20138 30050 40114 58008 60462 76366 8372/ 222// 00130 20401 305// 40602 333 10171 20153 91027 555 20464 60625 91011
AAXX 10184 68994 32598 63005 10072 20036 30267 40297 53007 86500 222// 00065 333 10112 20072 91012 555 91029
AAXX 10184 89004 NIL
AAXX 10184 87688 32962 63206 10264 20183 39930 40065 57028 86070 333 56070 86360
BBXX 46206 10181 99488 71260 46/// /0901 10063 40211 52003 22200 00088 11603 70017 333 91202
AAXX 10181 38933 319// 00000 10014 21018 39755 40286 58001 74440 333 10155
BBXX 46206 10181 99488 71260 46/// /0901 10063 40211 52003 22200 00088 11603 70017 333 91202
AAXX 10181 50658 31958 02001 11223 21236 40173 52005 70400 333 11098
AAXX 10181 50888 32980 02202 11117 21159 40148 52001 333 11064
AAXX 10181 50983 32770 42901 11125 21167 40163 52004 84500 333 11080
AAXX 10181 51053 32980 00904 11093 21138 40333 57003 333 05155 11017
AAXX 10181 51542 32980 60202 11168 21205 37586 52002 80002 333 05155 11034
AAXX 10181 52436 32980 02703 11118 21182 38558 40394 57005 333 05203 11038
AAXX 10181 52908 32980 13601 11170 21220 35733 57002 80002 333 05102 11055
AAXX 10181 52996 32980 21606 11107 21166 37592 57008 80002 333 05605 11058
AAXX 10181 53083 32980 02201 11178 21193 40314 54000 333 05405 11095
AAXX 10181 53764 32970 00202 11090 21138 40392 57011 333 11040
AAXX 10181 53787 32980 00402 11108 21136 40359 57002 333 11011
AAXX 10181 54096 32670 72704 11130 21173 40181 52002 86502 333 11098
AAXX 10181 54226 32980 02705 11026 21124 40225 52009 333 11004
AAXX 10181 54259 32662 20000 11081 21137 40233 52001 82500 333 11064
AAXX 10181 54527 32965 02204 11017 21095 40274 57006 333 10037
AAXX 10181 54534 32965 02703 11064 21099 40263 57001 333 10026
BBXX 46205 10181 99542 71343 46/// /3109 10060 40190 52018 22200 00078 11507 70033 333 91212
BBXX 46132 10181 99497 71279 46/// /3208 10076 40213 52006 22200 00081 11605 70026 333 91209
BBXX 46205 10181 99542 71343 46/// /3109 10060 40190 52018 22200 00078 11507 70033 333 91212
BBXX 46132 10181 99497 71279 46/// /3208 10076 40213 52006 22200 00081 11605 70026 333 91209
AAXX 10184 42559 32996 00000 10120 20060 40151 333 58000
AAXX 10184 42571 31996 00000 10160 20112 40144 70500 333 58014
AAXX 10184 42667 32996 00208 10154 20099 39551 40154 333 58006
AAXX 10184 42675 31996 00503 10190 20118 40141 70500 333 58005
AAXX 10184 42754 32996 00505 10160 20053 39500 40150 333 58010
AAXX 10184 42779 32996 00000 10170 20106 39433 40144 333 59005
AAXX 10184 42867 31995 02702 10186 20113 40132 70500 333 59004
AAXX 10184 42874 32996 00000 10190 20118 40128 333 59005
AAXX 10184 42933 32996 00000 10196 20095 40131 333 59005
AAXX 10184 43041 32996 03201 10170 20129 39514 40145 333 59002
AAXX 10184 40602 12960 00000 10034 20017 40284 52020 60032
AAXX 10184 40604 11556 30000 10044 20040 40253 52024 69942 71011 83200
AAXX 10184 40606 12960 30301 10055 20030 40213 52020 60052 83060
AAXX 10184 40608 11958 02602 10050 20040 40257 52025 69942 71011
AAXX 10184 40611 11556 81503 10017 20015 40206 51019 69922 75166 888//
AAXX 10184 40616 11556 81104 10065 20045 40251 52020 69902 75052 888//
AAXX 10184 40621 11958 21201 10077 20025 40257 52018 60002 70600 80001
AAXX 10184 40623 11956 40000 10054 21004 40259 52024 69922 70500 84030
AAXX 10184 40627 12960 02703 10078 20036 40257 52025 60002
AAXX 10184 40629 12960 02902 10074 20041 40254 52018 60002
AAXX 10184 40631 12560 60000 10091 20076 40251 52023 60002 86800
AAXX 10184 40632 11908 02602 10102 20033 40238 52016 60002 70644
AAXX 10184 40634 12960 02702 10075 20026 40253 52015 60002
AAXX 10184 40637 12960 40000 10100 20048 40249 52020 60002 80002
AAXX 10184 40642 12960 20000 10058 21041 40267 52018 60002 80001
AAXX 10184 40650 11915 03403 10123 20014 40253 52017 60002 70600
AAXX 10184 40656 11930 03202 10128 20009 40232 52020 60002 70600
AAXX 10184 40665 12960 03204 10117 20043 40252 52019 60002
AAXX 10184 40670 12960 00000 10115 20021 40248 52023 60002
AAXX 10184 40672 11958 00000 10112 20026 40251 51015 60002 70600
AAXX 10184 40674 12960 03305 10122 20006 40245 52022 60002
AAXX 10184 40676 12960 03106 10316 20027 40239 52023 60002
AAXX 10184 40680 12960 23005 10141 20037 40212 52013 60002 81032
AAXX 10184 40690 12960 33003 10142 20060 40217 52017 60002 83030
AAXX 10184 40691 12960 10000 10144 20076 40234 52010 60002 80001
AAXX 10184 89020 46/// /1906 11038 21063 39714 49749 52013 91750
BBXX A8VD9 10183 99084 70299 41398 60114 10275 20226 40090 56015 70211 8/67/ 22215 04275 20303 314// 40404 5//// 80240
BBXX AMOUK01 10184 99339 30184 46/// ///// 10159 20097 30152 40155 52010 91750
BBXX AMOUK15 10184 99159 50057 46/// ///// 10200 20159 30125 40158 57007 91750
BBXX AMOUK17 10184 99327 30573 46/// ///// 10204 20190 30173 40183 52013 91750
BBXX TBWUK30 10183 99255 70170 41296 80427 10210 20194 40146 54000 70933 8/610 22284 06200 20408 303// 40706 5//// 80200
BBXX A8UL5 10183 99259 30489 41898 30614 10260 20218 40112 52012 70100 81165 22214 20303 3//// 4//// 5//// 80230
BBXX ZSAF 10184 99394 30105 41599 71707 10129 20051 40253 52011 70322 875// 22253 04174 2//// 322// 40504 5////
BBXX 64045 10184 99259 70117 46/// /2522 10080 20030 49904 56015 22200 00103 10606 70031 333 90710 91129
BBXX ZCDM6 10183 99260 70801 41298 70613 10260 20215 40190 52010 70322 87763 22200 00250 2//// 3//// 4//// 5//// 80230
BBXX ZCDF4 10183 99104 70755 41698 42606 10290 20255 40098 56007 70200 834// 22200 00290 20000 300// 40000 5//// 80265
BBXX PHHD 10181 99423 70636 41296 71805 10120 20083 40180 56032 71322 81798 22213 04090 20301 80100
BBXX DFRZ 10183 99300 70430 41598 50918 10235 20199 40280 58020 70322 85555 22254 00230 20902 80210
BBXX DGSE 10183 99525 71518 41297 81732 10055 20032 40170 54000 70222 887// 22225 00050 20706
BBXX DCDP2 10184 99420 70609 41297 81721 10150 20142 40167 57070 76266 887// 22264 04140 21005 80145
BBXX ZCDG4 10184 99216 70768 41298 82526 10256 20217 40149 57021 70222 887// 22234 00280 20302 308// 40504 5////
BBXX ZCDY2 10184 99250 70755 41698 30725 10258 20174 40168 55010 70100 82160 22274 00260 20201 307// 40303 5////
BBXX VQKZ6 10183 99316 70419 41498 20917 10210 20178 40303 54000 70200 82100 22254 02209 20403 311// 40806 5//// 80190
BBXX PENR 10183 99229 70684 41597 60620 10265 20228 40145 58023 70182 84445 22214 20402 307// 40904 80240
AAXX 10184 68183 12475 82402 10190 20171 39436 48520 56001 60022 8357/ 333 10198 20190 91003 555 20024 91015
AAXX 10184 68188 36/// /0000 10179 20164 39199 48520 53001 333 10198 20178 91002 555 91017
AAXX 10184 68268 16/// /0202 10197 20164 38884 48523 52011 69922 333 10241 20197 91003 555 20002 91018
AAXX 10184 68272 NIL
AAXX 10184 68296 NIL
AAXX 10184 68322 36/// /2005 10274 21031 39093 48481 52017 333 10362 20274 91009 555 91010
AAXX 10184 68338 16/// /1002 10138 20128 38773 48500 52037 60152 333 10252 20135 91011 555 20154 60305 91017
AAXX 10184 68345 NIL
AAXX 10184 68362 32680 62803 10183 20125 38498 48500 52013 82154 333 10250 20181 91006 555 91018
AAXX 10184 68400 32865 60807 10239 20197 30045 40118 52015 86280 333 10302 20239 91011 555 91012
AAXX 10184 68408 36/// /1508 10142 20117 30158 40166 52010 333 10183 20142 91013 555 91016
AAXX 10184 68416 32984 02021 10196 20026 39007 48482 52017 333 10292 20196 91031 555 91013
AAXX 10184 68478 11470 80000 10153 20140 38862 48498 53003 60212 70299 885// 333 10246 20153 91003 555 20216 91016
AAXX 10184 68488 11460 81906 10163 20139 39267 48510 52022 69982 79599 889// 333 10234 20163 91012 555 20008 69985 91016
AAXX 10184 68494 16/// /3508 10188 20178 30002 40133 53011 60282 333 10276 20186 91011 555 20284 62705 91013
AAXX 10184 68524 32986 02515 10236 21062 39014 48476 52020 333 10320 20236 91021 555 91011
AAXX 10184 68546 16/// /3603 10143 20109 38633 48477 53003 60272 333 10252 20102 91008 555 20276 91015
AAXX 10184 68558 16/// /0410 10118 20063 38164 48483 52003 60142 333 10212 20071 91021 555 20148 91017
AAXX 10184 68570 11060 83602 10130 20083 38518 48510 52017 60012 75055 8800/ 333 10245 20127 91004 555 20010 69985 91019
AAXX 10184 68580 16/// /1405 10159 20151 38936 48497 58003 60012 333 10226 20159 91008 555 20014 69965 91016
AAXX 10184 68614 32580 12306 10175 20087 30113 40154 52011 81100 333 10249 20175 91014 555 91015
AAXX 10184 68624 32982 02406 10197 21084 38704 48478 52012 333 10284 20197 91016 555 91014
AAXX 10184 68674 16/// /0105 10211 20196 30081 48530 58005 60042 333 10271 20203 91017 555 20044 91011
AAXX 10184 68712 32400 12110 10138 20108 30089 40155 52007 81200 333 10190 20138 91011 555 91015
AAXX 10184 68718 36/// /2810 10179 20035 39879 40125 52008 333 10273 20179 91018 555 91012
AAXX 10184 68722 36/// /2406 10140 20013 38521 48478 52012 333 10228 20140 91016 555 91015
AAXX 10184 68814 36/// /2303 10169 20125 30155 40163 53005 333 10201 20155 91011 555 91016
AAXX 10184 68832 32570 41308 10157 20080 39151 48470 52022 84700 333 10286 20157 91015 555 91011
AAXX 10184 68916 36/// /2523 10153 20107 39875 40144 52002 333 10188 20150 91031 555 91014
AAXX 10184 68920 32470 32708 10169 20098 30111 40124 52005 83800 333 10216 20169 91017 555 91012
AAXX 10184 68928 16/// /2207 10165 20147 39977 40138 52014 60012 333 10233 20161 91014 555 20014 69965 91013
BBXX MGSM3 10184 99009 11410 41498 81509 10260 20255 40050 57015 72166 88/// 22233 04300 20200 30505 41001 51001 80255
AAXX 10184 68155 16/// /0302 10203 20181 39188 48514 52011 60012 333 10212 20203 91004 555 20014 91015
AAXX 10184 68171 NIL
AAXX 10184 68176 16/// /1002 10176 20161 39132 48510 55000 60042 333 10216 20175 91004 555 20042 91016
AAXX 10184 68181 NIL
AAXX 10184 68182 16/// /2302 10181 20169 39338 48517 56001 60022 333 10197 20181 91003 555 20026 91015
AAXX 10184 68185 36/// /0203 10173 20144 38471 48403 58006 333 10205 20172 91005 555 91006
AAXX 10184 68253 NIL
AAXX 10184 68255 36/// /3003 10203 20145 38852 48500 53006 333 10219 20203 91006 555 91016
AAXX 10184 68271 36/// /3404 10192 20149 38910 48512 53006 333 10235 20192 91007 555 91017
AAXX 10184 68273 36/// /3606 10168 20144 38455 48510 53008 333 10230 20168 91009 555 91019
AAXX 10184 68287 16/// /2102 10142 20140 38573 48507 52007 69982 333 10167 20141 91003 555 20008 91019
AAXX 10184 68291 36/// /2802 10214 20162 39530 48526 52007 333 10264 20214 91004 555 91014
AAXX 10184 68297 NIL
AAXX 10184 68329 16/// /1303 10197 20176 39050 48479 53013 69942 333 10341 20176 91005 555 20004 91012
AAXX 10184 68331 36/// /0305 10176 20154 38821 48502 52006 333 10250 20172 91008 555 91017
AAXX 10184 68335 16/// /0308 10154 20134 38923 48523 53006 60122 333 10263 20149 91017 555 20122 60325 91019
AAXX 10184 68341 16/// /3607 10164 20140 38530 48514 53002 69922 333 10183 20164 91013 555 20002 91020
AAXX 10184 68342 NIL
AAXX 10184 68343 NIL
AAXX 10184 68349 36/// /3308 10175 20142 38501 48495 53006 333 10211 20175 91011 555 91017
AAXX 10184 68353 36/// /3504 10184 20141 38508 48487 53010 333 10221 20184 91007 555 91016
AAXX 10184 68355 16/// /1609 10144 20140 38575 48507 52021 60072 333 10237 20144 91013 555 20078 60205 91019
AAXX 10184 68370 NIL
AAXX 10184 68377 36/// /1612 10191 20152 38747 48486 53024 333 10285 20191 91017 555 91015
AAXX 10184 68380 36/// /3403 10158 20134 3//// 4//// 5//// 333 10232 20155 91006 555
AAXX 10184 68387 NIL
AAXX 10184 68411 36/// /2009 10229 20055 39932 40137 53016 333 10415 20229 91015 555 91014
AAXX 10184 68429 NIL
AAXX 10184 68449 16/// /3003 10142 20122 38390 48504 53011 60192 333 10184 20125 91005 555 20198 69925 91019
AAXX 10184 68471 NIL
AAXX 10184 68474 16/// /0000 10133 20118 38618 48507 52017 60112 333 10245 20133 91002 555 20110 91018
AAXX 10184 68479 16/// /1104 10169 20152 38943 48503 52017 60112 333 10267 20165 91008 555 20116 91016
AAXX 10184 68481 36/// /0502 10249 20193 39759 40121 52013 333 10279 20248 91004 555 91013
AAXX 10184 68487 16/// /0105 10147 20135 38991 48505 52020 60252 333 10245 20146 91007 555 20252 60245 91017
AAXX 10184 68491 36/// /0504 10234 20211 30111 40120 52010 333 10271 20233 91006 555 91012
AAXX 10184 68497 16/// /0303 10228 20209 30087 40131 52014 60012 333 10262 20228 91011 555 20016 91013
BBXX A8SI9 10184 99512 11602 43397 82635 11030 2104/ 49980 51020 882// 22253 00052 20706 326// 41312 81020
BBXX S6OM 10184 99254 11222 41597 80233 10150 20136 40258 52/// 78922 887// 22211 00222 21214 303// 41214 5//// 80142
BBXX A8MV6 10183 99065 11083 41997 23628 10260 20231 40110 54000 70100 82040 22253 04270 20805 30299 41007 5//// 80240
BBXX MCCW7 10184 99060 10859 41398 52006 10279 20239 40099 51036 71322 852// 22263 00279 29901 3//// 4//// 5//// 80251
AAXX 10184 68267 NIL
AAXX 10184 68592 NIL
BBXX A8CJ2 10184 99209 50708 41598 62013 10240 20219 40150 54000 70222 85670 22244 04230 20601 327// 41204 5//// 80225
BBXX A8VE3 10184 99015 50402 41698 51018 10290 20273 40080 56010 70222 83141 22274 04260 21603 312// 41202 5//// 80277
BBXX VQHO7 10184 99190 50378 41898 73535 10262 20219 40060 57013 70122 87070 22214 00260 20206 303// 40408 5//// 80233
AAXX 10184 82106 32598 70904 10326 20241 3//// 4//// 87300 333 5////
AAXX 10184 82113 31696 80502 10281 20246 3//// 4//// 70392 83470 333 5////
AAXX 10184 82212 32798 50502 10340 20280 30014 40095 88350 333 59005
AAXX 10184 82336 32598 61802 10328 20248 3//// 4//// 84270 333 5////
AAXX 10184 82425 32597 50902 10328 20266 3//// 4//// 83233 333 5////
AAXX 10184 82533 32497 51402 10332 20275 3//// 4//// 85200 333 5////
AAXX 10184 82704 32596 60000 10295 20249 39854 40046 86100 333 59008
AAXX 10184 83264 32797 52304 10325 20224 39642 40100 83210 333 59015
AAXX 10184 83358 21598 80000 10274 20238 39657 40053 70362 8379/ 333 58008 60021
AAXX 10184 82143 31598 20309 10310 20243 40079 7010/ 81205 222// 80260 333 59003
AAXX 10184 83117 11196 82802 10210 20196 40085 51010 60016 7022/ 8867/ 222// 02190 20101 80200
AAXX 10184 82979 32498 50000 10341 20178 39631 40067 85200 333 58014
AAXX 10184 82986 32798 41807 10330 20233 39767 40279 84400 333 59017
AAXX 10184 83179 32598 73607 10325 20168 39605 40043 87500 333 58000
AAXX 10184 83192 32597 20905 10367 20107 39900 40061 82200 333 59037
AAXX 10184 83339 32497 23210 10303 20143 39096 40030 81220 333 59013
AAXX 10184 83498 32595 20510 10289 20250 30063 40068 82131 333 59033
AAXX 10184 82042 32198 60000 10335 20283 3//// 4//// 83632 333 5////
AAXX 10184 82240 32696 40000 10317 20249 3//// 4//// 84900 333 5////
AAXX 10184 82317 32594 30000 10342 20250 3//// 4//// 82201 333 5////
AAXX 10184 82610 32595 80000 10269 20243 3//// 4//// 887// 333 5////
AAXX 10184 82807 32595 63602 10301 20246 3//// 4//// 83231 333 5////
AAXX 10184 83695 21698 82704 10230 20207 39942 40078 52012 72065 887// 333 60081
AAXX 10184 82965 31570 60310 10304 20223 39744 40069 72992 84934 333 59025
AAXX 10184 83599 31997 899// 10260 20233 40060 56002 7102/ 826/1 222// 0402 80240
AAXX 10184 83650 41698 73606 10270 20243 40130 57025 71522 85531 222// 02250 20803 80250
AAXX 10184 83925 11195 81804 10212 20201 40113 57006 7512/ 886// 222// 20000 80204
AAXX 10184 83970 41298 50805 10240 20197 30120 40124 54000 7030/ 85100 222// 02230 20401 80210
AAXX 10181 30499 42999 80101 11183 21202 39453 40141 52015 80007
AAXX 10181 30683 429// 50000 11245 21264 39491 40192 52017 82044
AAXX 10181 30695 42999 83601 11224 21242 39792 40151 53009 85044
AAXX 10181 31253 42999 00000 11334 21363 39636 40147 53001
AAXX 10181 31295 42999 83402 11181 21207 39643 40121 54000 80007
AAXX 10181 31348 42999 00000 11330 21336 39896 40114 58001
AAXX 10181 31418 42984 00000 11238 21270 39828 40102 54000
AAXX 10181 31439 41999 00000 11253 21274 30031 40079 53001 70171
AAXX 10181 31442 42997 50000 11281 21311 39758 40145 52005 80001
AAXX 10181 31445 42984 00000 11271 21295 39858 40135 52007
AAXX 10181 31474 42998 00000 11314 21343 39631 40166 53005
AAXX 10181 31521 32984 00000 11217 21229 39823 40135 53003
AAXX 10181 31527 41998 02502 11197 21208 39812 40133 51001 70171
AAXX 10181 31534 42999 50000 11212 21232 39772 40139 58005 80004
AAXX 10181 31587 42999 00000 11186 21205 39984 40138 53005
AAXX 10181 31632 NIL
AAXX 10181 31702 41997 80000 11173 21192 39787 40141 53001 77172 8802/
AAXX 10181 31713 42999 62901 11140 21167 30012 40115 53002 86070
AAXX 10181 31725 42998 82301 11143 21163 30040 40109 54000 85042
AAXX 10181 31801 41998 80000 11147 21167 39886 40124 57007 77172 80007
AAXX 10181 31825 42684 20601 11210 21229 39891 40114 53001 81501
AAXX 10181 31845 42998 80801 11206 21231 39972 40148 57022 85055
AAXX 10181 31878 41669 80000 11158 21182 30042 40174 52002 77171 8802/
AAXX 10181 31915 42998 82502 11102 21175 39899 40173 54000 83015
AAXX 10181 31921 42998 81802 11117 21161 30072 40174 53006 8805/
AAXX 10181 31969 42598 42803 11066 21140 30146 40197 52006 82531 333 91112
AAXX 10181 31981 42999 82202 11187 21193 39942 40195 53014 80009
AAXX 10181 31987 42699 63407 11090 21170 39905 40174 51005 85530 333 91012 91112
AAXX 10181 32069 41598 70202 11105 21133 30055 40060 58004 70283 87900 333 91003 91110
BBXX 41010 10181 99289 70785 46/// /0806 10229 40203 91820 22200 00241 10503 20502 300// 40902 70015 333 91208 555 11068 22071
BBXX 41009 10181 99285 70802 46/// /0707 10243 20183 40207 91820 22200 00250 10503 20502 300// 40702 70016 333 91208 555 11069 22072
AAXX 10184 82863 32597 71804 10316 20242 39860 40068 84341 333 58009
AAXX 10184 83228 32799 53203 10340 20218 39782 40050 82202 333 58003
AAXX 10184 83270 32898 50000 10298 20225 39614 40092 81038 333 58000
AAXX 10184 83309 31595 60000 10310 20251 39763 40082 70511 83230 333 58009
AAXX 10184 83319 32697 60504 10318 20234 39723 40090 83260 333 59004
AAXX 10184 83368 32698 60000 10316 20239 39690 40049 83204 333 59001
AAXX 10184 83374 32598 62706 10302 20221 39500 40063 85202 333 59002
AAXX 10184 83405 32597 4//// 10304 20248 39924 40056 84200 333 58013
AAXX 10184 83526 32498 82706 10255 20191 39134 40063 885// 333 59005
AAXX 10181 30455 429// 81402 11186 21219 38877 48423 51003 84032
AAXX 10181 30731 415// 53103 11056 21103 39659 40281 52017 70282 83952
AAXX 10181 30739 426// 22704 11090 21129 39426 40268 52009 81902
AAXX 10181 30741 419// 02902 11127 21133 38694 48475 52008 70271
AAXX 10181 30745 429// 02202 11136 21171 39067 40263 52005
AAXX 10181 30764 42998 01301 11189 21195 39389 40234 52007
AAXX 10181 30829 41684 82104 11051 21080 39602 40303 52009 72622 8297/
AAXX 10181 30838 41597 82603 11080 21094 39282 40287 52008 78582 889//
AAXX 10181 30846 42699 52504 11066 21122 39313 40234 52010 82530
AAXX 10181 30859 42999 02901 11119 21146 39361 40226 52009
AAXX 10181 30862 42984 52904 11149 21183 39438 40209 52006 80002
AAXX 10181 30957 416// 63404 11058 21125 39316 40221 52012 70182 83340
AAXX 10181 30967 NIL
AAXX 10181 30975 42998 32301 11265 21297 39533 40242 52001 80001
AAXX 10180 44285 32999 01402 11174 21197 38354 40412 53002
BBXX 46181 10181 99538 71288 46/// /1905 10041 40181 52016 22200 00044 10200 70001 333 91207
AAXX 10184 68171 NIL
AAXX 10184 68181 NIL
AAXX 10184 68253 NIL
AAXX 10184 68297 NIL
AAXX 10184 68342 NIL
AAXX 10184 68343 NIL
AAXX 10184 68370 NIL
AAXX 10184 68387 NIL
AAXX 10184 68429 NIL
AAXX 10184 68471 NIL
BBXX 46181 10181 99538 71288 46/// /1905 10041 40181 52016 22200 00044 10200 70001 333 91207
AAXX 10181 45032 36/// /0105 10085 21081 30228 40245 57003
AAXX 10181 45035 36/// /0106 10095 21042 30203 40247 57002
AAXX 10181 45039 36/// /3403 10089 21051 30222 40238 57003
AAXX 10181 45044 36/// /0013 10095 21031 30125 40222 57003
AAXX 10181 45032 36/// /0105 10085 21081 30228 40245 57003
AAXX 10181 45035 36/// /0106 10095 21042 30203 40247 57002
AAXX 10181 45039 36/// /3403 10089 21051 30222 40238 57003
AAXX 10181 45044 36/// /0013 10095 21031 30125 40222 57003
BBXX 46184 10181 99539 71389 46/// /3209 10047 40238 52020 22200 00067 11407 70034 333 91211
BBXX 46184 10181 99539 71389 46/// /3209 10047 40238 52020 22200 00067 11407 70034 333 91211
AAXX 10184 91723 NIL
AAXX 10184 91759 11598 20000 10250 20235 40106 53013 60001 70500 82201 333 82820
AAXX 10184 91762 11598 20000 10249 20227 40105 53015 60001 70599 82100 333 82820
AAXX 10180 44203 329// 00000 11295 21319 38481 40552 53002
AAXX 10180 44207 329// 52704 11203 21236 38353 40414 54000 83049
AAXX 10180 44212 32999 71801 11174 21193 39255 40484 58005 87070
AAXX 10180 44213 416// 80000 11177 21196 38890 40483 57006 70272 885//
AAXX 10180 44215 32998 00000 11280 21298 38495 40560 57004
AAXX 10180 44218 329// 01903 11212 21244 38685 40471 58005
AAXX 10180 44225 329// 70000 11163 21176 38341 40445 56002 87010
AAXX 10180 44230 329// 20204 11153 21177 38845 40419 51004 80001
AAXX 10180 44232 329// 00000 11237 21264 39169 40422 52007
AAXX 10180 44237 32999 01801 11213 21238 38528 40424 51001
AAXX 10180 44239 329// 03601 11142 21177 38838 40335 53011
AAXX 10180 44241 329// 11401 11222 21240 39321 40390 52008 81040
AAXX 10180 44256 41699 60000 11079 21097 39328 40208 53012 72272 83550
AAXX 10180 44265 329// 20000 11181 21214 38904 40416 58013 80001
AAXX 10180 44272 329// 02302 11215 21247 38271 40450 57001
AAXX 10180 44275 NIL
AAXX 10180 44282 32999 03201 11110 21185 38328 40351 53001
AAXX 10180 44284 NIL
AAXX 10180 44285 32999 01402 11174 21197 38354 40412 53002
AAXX 10180 44287 NIL
AAXX 10180 44294 329// 03503 11234 21257 38590 40445 54000
AAXX 10180 44298 329// 03604 11165 21165 38738 40343 57001
AAXX 10180 44302 329// 32702 11110 21148 39109 40269 52004 80006
AAXX 10180 44305 32999 62904 11096 21198 39049 40246 51007 80008
AAXX 10180 44313 32999 53603 11111 21131 39350 40220 52011 80002
AAXX 10180 44314 32998 60000 11126 2//// 39133 40273 52017 84038
AAXX 10180 44317 32998 33206 11122 21157 38926 40264 54000 83040
AAXX 10180 44336 329// 00000 11200 21219 38709 40382 57027
AAXX 10180 44341 329// 00901 11187 21205 38630 40405 56005
AAXX 10180 44347 32999 00000 11130 21182 38748 40353 56004
AAXX 10180 44352 32999 13207 11088 21132 38918 40261 54000 81040
AAXX 10180 44358 329// 03203 11124 21144 39120 40329 56006
AAXX 10184 42634 32996 00000 10174 20070 40143 333 59006
AAXX 10184 42647 31996 03403 10188 20059 40150 70400 333 58015
AAXX 10184 42737 32996 00204 10168 20034 40158 333 58013
AAXX 10184 42840 32996 03602 10200 20141 40146 333 58013
AAXX 10184 42909 32996 03606 10202 20046 40149 333 58010
AAXX 10184 42921 32996 00000 10174 20122 40180 333 58002
AAXX 10184 43003 31995 03206 10240 20180 40124 70400 333 58008
AAXX 10184 43014 32996 00000 10180 20101 39477 40135 333 59001
AAXX 10184 43063 32996 00000 10172 20127 39502 40138 333 59003
AAXX 10184 43110 31996 03603 10264 20182 40114 70040 333 59004
AAXX 10184 43117 32596 30501 10230 20142 40121 81501 333 58000
AAXX 10184 43192 NIL
AAXX 10184 68296 NIL
AAXX 10184 68345 NIL
AAXX 10181 31913 NIL
AAXX 10181 32128 41599 72907 11051 21120 30025 40078 56006 73683 87300 333 91010 91113
AAXX 10181 24856 41998 82302 11381 21403 30023 40200 52006 77177 80007
AAXX 10181 30679 NIL
AAXX 10181 30686 42999 80000 11263 21287 39770 40175 52009 80007
AAXX 10181 30961 42899 23001 11178 21190 39403 40235 52009 82080
AAXX 10181 30971 42999 00000 11174 21193 39181 40215 52004
AAXX 10181 30978 42999 60000 11217 21235 39501 40232 51004 85032
AAXX 10181 31513 42999 52501 11214 21220 39890 40131 53006 85030
AAXX 10181 31624 NIL
AAXX 10181 31832 42965 81001 11140 21167 30054 40145 53001 80009
BBXX 3EDA4 10183 99322 11407 41498 20606 10171 20171 40139 53/// 70011 82613 22245 00222 20503 30505 40503 50503 80171
BBXX DANR 10183 99393 11462 41/98 13111 10090 40085 58025 70200 8//// 22214 00150 2////
BBXX JPBN 10184 99316 11478 41/98 71607 10172 20055 40189 55012 70211 85231 22242 00218 1//// 20200 399// 4//03
BBXX ONDE 10183 99363 11411 41997 13210 10090 20025 40160 56010 7//00 81//9 22200 00170 20202 332// 4//// 5//// 6//// 80060 ICE /////
BBXX SHIP 10184 99354 11485 41697 53508 10130 20074 40128 57030 7//00 86983 22254 00230 20304 399// 40304 80100
BBXX UDWE 10181 99478 11488 42498 72812 11025 40015 54000 87200 22253 00044 20404
BBXX UHFW 10180 99482 11411 42/98 93607 11080 40097 57010 22233 06040 20402
AAXX 10181 56671 32780 80201 10030 21021 38256 57007 8147/ 333 00254 10073
AAXX 10181 57378 32962 01601 10014 21062 40333 57013 333 10087
AAXX 10181 57426 31859 70000 10000 21001 40323 57006 71000 875// 333 05455 10104
AAXX 10181 57476 31958 02701 10010 20004 40331 57012 71000 333 10093
AAXX 10181 57584 32970 00000 10031 21018 40335 57013 333 10082
AAXX 10181 57598 32960 00000 11018 21026 40333 57011 333 10111
AAXX 10181 57655 31950 00000 10014 21001 40333 57004 71000 333 10107
AAXX 10181 57713 NIL
AAXX 10181 57776 32975 00405 11063 21092 40345 57012 333 11024
AAXX 10181 58321 32960 02502 11023 21043 40344 57008 333 10065
AAXX 10181 58437 32980 00704 11055 21224 38191 57003 333 11054
AAXX 10181 58445 NIL
AAXX 10181 58556 32961 02702 11005 21051 40330 57008 333 10056
AAXX 10181 58569 32968 03204 10019 21064 40314 57009 333 10063
AAXX 10181 58646 32960 00000 10018 21022 40322 57005 333 10089
AAXX 10181 58653 NIL
AAXX 10181 58660 NIL
AAXX 10181 58715 32965 03601 10004 21028 40321 57012 333 10059
AAXX 10181 58730 32968 00201 10012 21039 40311 57013 333 10103
AAXX 10181 58731 32965 20702 10014 21039 40310 57012 82040 333 10079
AAXX 10181 58754 32675 70203 10075 21085 40294 57014 875// 333 10117
AAXX 10181 58911 32975 00701 11002 21037 40302 57014 333 10087
AAXX 10181 58931 32965 00711 11011 21161 38377 57012 333 11002
AAXX 10181 59254 32965 70201 10075 21022 40286 57007 87030 333 10138
AAXX 10181 59632 32965 03603 10100 21047 40271 57010 333 10146
AAXX 10181 59855 32570 73204 10132 20059 40227 57012 878// 333 10179
BBXX 46004 10181 99509 71361 46/// /3111 10059 40255 52010 22200 00079 11507 70034 333 91213
BBXX 46004 10181 99509 71361 46/// /3111 10059 40255 52010 22200 00079 11507 70034 333 91213
AAXX 10184 43086 32996 00000 10182 20151 39935 40117 333 59005
AAXX 10184 43128 31596 40903 10228 20179 39518 40126 70521 82501 333 59003 82620 83070
AAXX 10184 43150 31596 70000 10260 20231 30054 40129 70511 83530 333 58000 83620 85360
AAXX 10184 43185 31596 20000 10252 20240 30116 40120 70500 81501 333 58000 81620
AAXX 10184 43189 32596 50000 10262 20242 30118 40127 83531 333 58000
AAXX 10184 43198 32996 30000 10186 20157 39292 40127 80001 333 59001 83075
AAXX 10184 43201 32996 00903 10226 20176 39394 40114 333 59004
AAXX 10184 43213 32996 49901 10262 20214 39798 40113 83031 333 59006
AAXX 10184 43226 32996 00000 10254 20237 30081 40110 333 59003
AAXX 10184 43233 32996 00503 10230 20184 39310 40118 333 59003
AAXX 10184 43237 32596 30904 10252 20225 39724 40117 80001 333 59006 83070
AAXX 10184 43245 22596 50000 10266 20243 30095 40121 82530 333 58001 6992/
AAXX 10184 43279 32596 30000 10262 20233 30109 40127 83500 333 58007 83620
AAXX 10184 43284 32996 33603 10262 20242 39987 40102 82031 333 59003 82359
AAXX 10184 43295 32396 60904 10216 20192 39109 48517 85501 333 56209 59001 84708 83616
AAXX 10184 43311 32596 10000 10266 20257 40096 81500 333 59003 81620
AAXX 10184 43314 32596 22702 10274 20248 40099 81402 333 59003
AAXX 10184 43321 31496 60503 10242 20208 39680 40128 70520 83530 333 58004
AAXX 10184 43329 32596 40000 10266 20240 30105 40118 84500 333 58002
AAXX 10184 43344 31496 50204 10244 20229 30021 40121 70522 81501 333 58005 81618 84075
AAXX 10184 43346 32596 40508 10276 20238 30102 40109 82501 333 58004 82620 84075
AAXX 10184 43353 31496 40000 10274 20222 40106 70500 82501 333 56609 58003 81616 83072
AAXX 10184 43369 32596 20000 10282 20254 40105 82500 333 56200 58002 82620
AAXX 10184 43371 32596 40000 10270 20247 30035 40108 82470 333 58009 82620 83360
AAXX 10184 71405 16/// ///// 11048 21083 60001 333 11042 21119 70000
AAXX 10184 71417 17/// /2008 10011 20011 30101 40136 56019 60041 7//4/ 333 10012 21030 70037
AAXX 10184 71426 46/// /3223 11047 6///1 333 11011 21050 7////
AAXX 10184 71067 16/// ///// 11051 21104 60001 333 11046 21101 70000
AAXX 10184 71761 16/// ///// 11039 21082 60001 333 11022 21067 70000
AAXX 10184 71788 16/// /2211 10058 21042 60001 333 10065 20005 70000
AAXX 10184 71792 17/// ///// 10011 21073 69971 7//4/ 333 10011 21096 70012
AAXX 10184 71359 16/// /0802 11050 21075 60001 333 11016 21069 70000
AAXX 10184 71888 16/// ///// 11047 21084 60001 333 11036 21091 70000
AAXX 10184 71895 46/// ///// 11037 21092 6///1 333 7////
AAXX 10184 71500 16/// /2914 11001 21079 60001 333 10015 21042 70000
AAXX 10184 71504 16/// ///// 11003 21075 60001 333 11003 21095 70000
AAXX 10184 71526 16/// /2006 10027 21070 60001 333 10056 21029 70000
AAXX 10184 71541 16/// /2510 11006 21054 60001 333 10000 21036 70000
AAXX 10184 71543 16/// /2408 11005 21053 60001 333 10017 21059 70000
AAXX 10184 71546 16/// /2713 10012 21055 60001 333 10012 21013 70000
AAXX 10184 71547 16/// /2709 11010 21059 60001 333 10023 21012 70000
AAXX 10184 71283 16/// /2710 10006 21042 60001 333 10012 21032 70000
AAXX 10184 71288 16/// /2905 11242 21265 30082 40108 53009 60001 333 11239 21315 70000
AAXX 10184 71673 16/// ///// 11011 21080 60001 333 11011 21112 70000
AAXX 10184 71690 16/// ///// 11009 21055 60001 333 10028 21036 70000
AAXX 10184 71461 16/// /2510 10006 21052 60001 333 10023 21043 70000
AAXX 10184 71468 16/// /2207 11086 21136 39874 40207 58009 60001 333 21129 70000
AAXX 10184 71483 16/// ///// 10037 21061 60001 333 10044 21064 70000
AAXX 10184 71010 16/// /1905 11005 21074 60001 333 10005 21087 70000
AAXX 10184 71011 16/// ///// 10018 21078 60001 333 10018 21056 70000
AAXX 10184 71049 17/// /3104 11256 30054 40078 53013 69931 7//4/ 333 11201 21256 70003
AAXX 10184 71221 16/// /2912 10003 21024 60001 333 10029 21019 70000
AAXX 10184 71226 16/// /2610 10028 21052 60001 333 10043 21022 70000
AAXX 10184 71229 46/// /3103 11020 21037 6///1 333 11013 21059 7////
AAXX 10184 71244 16/// /2215 10059 21079 38904 40124 58006 60001 333 10068 21032 70000
AAXX 10184 62007 32960 40000 10197 20107 40232 52001 80005 333 10240 84270
AAXX 10184 62010 32965 20403 10161 20060 40253 53010 80002 333 10236 82073
AAXX 10184 62012 32960 21510 10174 20092 30218 40248 52006 80004 333 82070
AAXX 10184 62016 32960 30000 10139 20079 40282 52006 80004 333 10215 83070
AAXX 10184 62053 32560 20000 10135 20080 40284 51008 82100 333 10200 82830
AAXX 10184 62124 32660 50808 10180 20083 39737 40247 53002 85100 333 10208 85840 62161 32960 00607 10160 20069 40268 53020 333 10212
AAXX 10184 62259 32960 30910 10161 20055 40274 53014 83030 333 10211 83360
AAXX 10184 62271 32960 00507 10157 20020 40279 53012 333 10193
AAXX 10181 37989 41496 83302 10072 20061 40282 52016 76166 8872/ 333 10090
AAXX 10181 37985 41496 82701 10069 20060 30287 40272 52015 76166 885// 333 10087
AAXX 10181 37923 41496 83204 10050 20036 40233 54000 76162 8872/ 333 10099 555 53014
AAXX 10181 37740 41596 82501 10025 20020 39453 40276 52008 75152 885//
AAXX 10181 37851 41498 81403 10071 20048 30205 40278 52018 76162 882// 333 10088 91112
AAXX 10181 37832 31996 72801 10033 20023 40276 52010 76062 87/20 333 10054
AAXX 10181 37675 41495 82701 10019 20014 39612 40288 52005 76162 8802/ 333 10052 555 53005
AAXX 10181 37864 31397 80106 10075 20050 40272 52020 76062 885// 333 10090 86710
AAXX 10181 37661 41597 72801 10032 20019 39503 40278 52014 76162 8872/ 333 10110
AAXX 10181 37905 41496 83601 10051 20039 40279 52024 76166 885// 333 10067
AAXX 10181 37925 41597 80505 10071 20058 30291 40262 53017 76162 8872/ 333 10100 555 53007
AAXX 10181 37729 41496 82005 11022 21025 38530 52011 77177 887// 333 10055 53009
AAXX 10181 37735 41596 82901 10046 20024 39830 40212 52020 76162 887// 333 10100
AAXX 10181 56144 11780 80000 11004 21026 36831 54000 69901 78500 884// 333 05101 10056
AAXX 10181 56152 11580 70000 11070 21073 36281 52005 60031 78587 879// 333 05201 10014
AAXX 10181 56167 32780 70000 11004 21028 37060 52008 878// 333 00003 10077
AAXX 10181 56182 32980 70000 11060 21109 37206 57006 80002 333 05452 10034
AAXX 10181 56357 32680 42202 11012 21122 36436 54000 84400 333 00002 10053
AAXX 10181 56586 32460 81601 11012 21045 38099 57011 885// 333 05301 10002
AAXX 10181 56748 32580 20000 10085 20063 38361 57002 82400 333 00053 10194
AAXX 10181 56763 32675 80000 10083 20039 40243 57007 884// 333 00551 10135
AAXX 10181 56768 32675 81403 10037 20022 38224 57005 884// 333 00255 10091
AAXX 10181 56838 32670 10000 10138 20124 40148 52002 81400 333 00000 10260
AAXX 10181 56886 11556 82701 10016 20006 38358 57004 69921 76060 885// 333 00151 10039
AAXX 10181 56946 32680 20901 10119 20111 40147 57001 82400 333 00100 10255
AAXX 10181 56959 11765 82701 10153 20148 40191 57005 69911 70080 884// 333 00456 10212
AAXX 10181 56969 32760 80901 10147 20111 40214 57003 885// 333 00354 10183
AAXX 10181 57731 32665 70000 10043 20006 40325 57008 875// 333 05451 10090
AAXX 10181 57766 32962 01401 10016 21016 40334 57009 333 10089
AAXX 10181 57845 32962 02201 11008 21033 40321 57011 333 10093
AAXX 10181 57853 32965 02001 10017 21040 40336 57006 333 10085
AAXX 10181 57916 32665 70000 10052 20031 40308 57005 875// 333 05151 10148
AAXX 10181 57922 32670 70201 10010 21019 40324 57003 875// 333 05100 10066
AAXX 10181 57932 32968 00000 10022 21001 40330 57002 333 05155 10119
AAXX 10181 58338 32963 02001 11006 21035 40332 57008 333 10064
AAXX 10181 59007 32665 80202 10042 21026 40302 57002 885// 333 10056
AAXX 10181 59046 32966 13601 10073 21064 40304 57006 81040 333 10135
AAXX 10181 59058 32970 13202 10055 21058 40296 57008 81040 333 10121
AAXX 10181 59072 32968 03603 10022 21043 40311 57010 333 10092
AAXX 10181 59087 32965 00704 10062 21114 40278 57015 333 10136
AAXX 10181 59209 32762 60000 10065 20018 40296 57004 86500 333 10095
AAXX 10184 71359 16/// /0802 11050 21075 60001 333 11016 21069 70000
AAXX 10184 71761 16/// ///// 11039 21082 60001 333 11022 21067 70000
AAXX 10184 71788 16/// /2211 10058 21042 60001 333 10065 20005 70000
AAXX 10184 71792 17/// ///// 10011 21073 69971 7//4/ 333 10011 21096 70012
AAXX 10184 71010 16/// /1905 11005 21074 60001 333 10005 21087 70000
AAXX 10184 71011 16/// ///// 10018 21078 60001 333 10018 21056 70000
AAXX 10184 71049 17/// /3104 11256 30054 40078 53013 69931 7//4/ 333 11201 21256 70003
AAXX 10184 71067 16/// ///// 11051 21104 60001 333 11046 21101 70000
AAXX 10184 71405 16/// ///// 11048 21083 60001 333 11042 21119 70000
AAXX 10184 71417 17/// /2008 10011 20011 30101 40136 56019 60041 7//4/ 333 10012 21030 70037
AAXX 10184 71426 46/// /3223 11047 6///1 333 11011 21050 7////
BBXX 46146 10181 99493 71237 46/// /1001 10039 40218 52008 22200 00058 10400 70002 333 91202
AAXX 10184 71461 16/// /2510 10006 21052 60001 333 10023 21043 70000
AAXX 10184 71468 16/// /2207 11086 21136 39874 40207 58009 60001 333 21129 70000
AAXX 10184 71483 16/// ///// 10037 21061 60001 333 10044 21064 70000
AAXX 10184 71221 16/// /2912 10003 21024 60001 333 10029 21019 70000
AAXX 10184 71226 16/// /2610 10028 21052 60001 333 10043 21022 70000
AAXX 10184 71229 46/// /3103 11020 21037 6///1 333 11013 21059 7////
AAXX 10184 71244 16/// /2215 10059 21079 38904 40124 58006 60001 333 10068 21032 70000
AAXX 10184 71283 16/// /2710 10006 21042 60001 333 10012 21032 70000
AAXX 10184 71288 16/// /2905 11242 21265 30082 40108 53009 60001 333 11239 21315 70000
AAXX 10184 71888 16/// ///// 11047 21084 60001 333 11036 21091 70000
AAXX 10184 71895 46/// ///// 11037 21092 6///1 333 7////
AAXX 10184 71500 16/// /2914 11001 21079 60001 333 10015 21042 70000
AAXX 10184 71504 16/// ///// 11003 21075 60001 333 11003 21095 70000
AAXX 10184 71526 16/// /2006 10027 21070 60001 333 10056 21029 70000
AAXX 10184 71541 16/// /2510 11006 21054 60001 333 10000 21036 70000
AAXX 10184 71543 16/// /2408 11005 21053 60001 333 10017 21059 70000
AAXX 10184 71546 16/// /2713 10012 21055 60001 333 10012 21013 70000
AAXX 10184 71547 16/// /2709 11010 21059 60001 333 10023 21012 70000
AAXX 10184 71673 16/// ///// 11011 21080 60001 333 11011 21112 70000
AAXX 10184 71690 16/// ///// 11009 21055 60001 333 10028 21036 70000
BBXX 46146 10181 99493 71237 46/// /1001 10039 40218 52008 22200 00058 10400 70002 333 91202
AAXX 10184 62305 32560 43202 10129 20093 40288 52009 84500 333 10175
AAXX 10184 62306 32560 23605 10150 20074 40286 52009 82200 333 10180
AAXX 10184 62318 32560 40207 10154 20067 40272 52012 84800 333 10205
AAXX 10184 62337 NIL
AAXX 10184 62366 32960 00310 10149 20055 40263 52023 333 10186
AAXX 10184 62393 32960 03411 10136 20045 40231 51011 333 10196
AAXX 10184 62405 32960 01802 10146 20053 40190 52012 333 10240
AAXX 10184 62414 32960 03410 10170 20031 40199 52015 333 10227
AAXX 10184 62417 32960 00702 10140 20054 40274 52014 333 10198
AAXX 10184 62440 32960 00204 10128 20062 40261 52014 333 10192
AAXX 10184 62463 32960 02912 10156 20051 40213 52015 333 10214
AAXX 10184 62465 32960 03313 10192 20067 40189 52012 333 10220
AAXX 10184 62419 NIL
AAXX 10181 38847 429// 02702 10055 21063 40292 58001
BBXX KS088 10184 99267 70801 43/// /1508 10250 40189 22200 06236
BBXX KS098 10184 99446 71240 43/// /0605 10060 40215 22200 06000
BBXX KS094 10184 99170 70618 43/// /0614 10247 40112 22200 06271
BBXX 44258 10181 99445 70634 46/// /1809 10082 40166 57033 22200 00075 10503 70016 333 91211
BBXX 44258 10181 99445 70634 46/// /1809 10082 40166 57033 22200 00075 10503 70016 333 91211
AAXX 10184 89050 41296 70410 10017 20014 49775 57012 71042 86609
AAXX 10184 89512 31998 81226 11044 21068 39573 40721 52005 70232 8801/ 333 11043
AAXX 10184 89574 42498 73201 11043 21074 49825 57004 81530
AAXX 10184 89592 42998 31610 11070 21131 49787 57004 80001
AAXX 10184 89606 42998 62806 11391 21458 36208 47823 54000 80001 333 11297
AAXX 10184 48310 31558 50000 10220 20205 39693 40153 57005 71011 82506 333 58021
AAXX 10184 48425 31956 00705 10235 20165 30142 40153 52003 71000 333 58022
AAXX 10184 96009 31457 30000 10352 20246 30055 40070 57028 71311 81921 333 56000 57903 81917 80865
AAXX 10184 96011 NIL
AAXX 10184 96035 31450 70000 10260 20239 30055 40092 57010 70522 83576 333 56000 83617
AAXX 10184 96073 31556 70000 10252 20240 30074 40086 56008 70522 83522 333 56000 83620
AAXX 10184 96091 31450 60000 10252 20240 30082 40105 57007 70522 84211 333 56000 57802 84817 80860
AAXX 10184 96109 32556 70000 10249 20240 30052 40092 57006 83572 333 56000 83620
AAXX 10184 96145 01440 73511 10271 20239 30088 40091 58014 69961 72162 85810 333 56800 57883 69907 82616 83817 84460 80857
AAXX 10184 96147 NIL
AAXX 10184 96163 32560 40000 10248 20236 30092 40094 52006 81521 333 56000 81625
AAXX 10184 96179 32460 70000 10266 20246 30065 40102 57008 83208 333 56000 57802 83817 80850
AAXX 10184 96195 31407 42002 10230 20227 30069 40106 57011 74121 81531 333 56000 81114
AAXX 10184 96221 31915 70000 10246 20240 30084 40099 58009 71022 85031 333 56099 85360
AAXX 10184 96237 32457 70000 10234 20228 30058 40100 58007 82578 333 56000 82617 85360 85280
AAXX 10184 96249 32559 70000 10235 20231 30041 40102 57007 83232 333 56000 57801 83820 80863
AAXX 10184 96253 NIL
AAXX 10184 96295 NIL
AAXX 10184 96509 32458 40000 10274 20253 30067 40078 57004 81131 333 56000 81815
AAXX 10184 96581 32456 70000 10256 20245 30089 40096 57008 8597/ 333 56600 59763 81911 84812 80980 80860
AAXX 10184 96633 NIL
AAXX 10184 96645 NIL
AAXX 10184 96655 11456 70000 10244 20236 30083 40118 57005 60031 70296 85572 333 56000 85611
AAXX 10184 96685 01457 70000 10244 20233 30074 40100 58008 69921 70562 85911 333 56000 57902 69927 82919 84615 87462 80979
AAXX 10184 96749 01556 80000 10244 20239 30101 40114 53001 69981 76096 83571 333 56000 69987 83621 87461
AAXX 10184 96781 NIL
AAXX 10184 96805 01558 70000 10248 20228 30103 40112 56003 60061 72996 85971 333 56000 57901 57801 60067 81920 84820 80960 80860
AAXX 10184 96839 31430 70000 10262 20247 30085 40092 57013 70522 84576 333 56000 84618
AAXX 10184 96935 01550 80000 10255 20238 30083 40089 57017 69901 70562 81531 333 56000 81623 85363
AAXX 10184 97008 32560 62303 10253 20238 30059 40069 57009 81132 333 56000 81820 84360
AAXX 10184 97016 32462 60000 10260 20227 30083 40085 52016 82236 333 10326 56000 57802 58009 82818 83360 85280 80860
AAXX 10184 97126 11457 70206 10246 20229 30027 40087 58023 69951 70262 83920 333 56000 57902 81916 82616 87460 80980
AAXX 10184 97182 21560 80802 10242 20228 30076 40080 57015 76022 8322/ 333 56009 57806 69907 83819 86459 808//
AAXX 10184 97240 NIL
AAXX 10184 97310 32556 60000 10234 20228 30061 40073 57023 83221 333 56000 57802 83818 85460 80840
AAXX 10184 97320 11560 80000 10244 20238 30062 40075 57024 60041 70362 82126 333 56000 82820 83460 85280
AAXX 10184 97378 NIL
AAXX 10184 97406 32460 70000 10230 20224 30049 40074 57010 84232 333 56000 57801 84819 80860
AAXX 10184 97570 11458 83103 10240 20234 30080 40087 56006 60061 76166 889// 333 56000 60067 82913 87616
AAXX 10184 97630 NIL
AAXX 10184 97700 32460 70000 10254 20239 30058 40072 57011 84872 333 56000 57804 82817 84074 80850
AAXX 10184 97722 NIL
AAXX 10184 96001 NIL
AAXX 10184 96015 NIL
AAXX 10184 96033 31450 50000 10272 20249 30086 40092 57009 70521 82926 333 56000 57903 81920 82617 80980
AAXX 10184 96075 32450 50000 10258 20255 30081 40086 52000 82571 333 56000 82618
AAXX 10184 96087 01458 70407 10274 20245 30065 40098 56007 69901 76061 84531 333 56100 69907 84613 87460 85280
AAXX 10184 96171 31440 70000 10250 20238 30073 40098 58001 70522 85522 333 56000 85615
AAXX 10184 96207 31450 70000 10224 20212 39215 40117 57006 71522 83972 333 56000 57900 81915 83360
AAXX 10184 96525 32458 21804 10257 20234 30073 40080 57010 81131 333 56700 81815
AAXX 10184 96529 32950 20000 10240 20237 30077 40101 51004 80001 333 56000 82080
AAXX 10184 96559 01320 80000 10236 20230 30070 40108 54000 60091 76196 8692/ 333 56609 57963 57864 60047 81913 85808 88460 80973 80847
AAXX 10184 96607 32458 52204 10244 20225 30083 40098 57007 83221 333 56000 83814
AAXX 10184 96615 32956 80000 10256 20244 30091 40106 57005 81037 333 56000 81362 88281
AAXX 10184 96737 11450 70000 10246 20240 30062 40092 57004 69911 70562 84571 333 56000 84617 83460
AAXX 10184 96739 NIL
AAXX 10184 96741 11540 81605 10250 20240 30094 40098 57020 60081 71462 8452/ 333 56009 84620 88459
AAXX 10184 96745 12556 80000 10252 20237 30102 40107 57006 60071 8552/ 333 56009 85620 88460
AAXX 10184 96751 32540 70000 10192 20174 39043 48920 58004 85510 333 56200 85620 83460
AAXX 10184 96791 12457 70000 10250 20241 30041 40115 57011 60091 83571 333 56000 83618
AAXX 10184 96797 NIL
AAXX 10184 96837 NIL
AAXX 10184 96925 01460 80000 10266 20252 30089 40094 56011 60021 79596 82972 333 56000 57900 57800 60027 81917 81817 80980 80860
AAXX 10184 96933 11459 80000 10258 20240 30088 40092 57020 60021 70296 83871 333 56200 69907 83819 87460
AAXX 10184 96937 11458 80000 10256 20240 30083 40088 58016 60021 71462 87821 333 56000 84818 86460
AAXX 10184 96973 01458 80202 10262 20238 30081 40087 57013 69901 71362 84976 333 56000 57902 81919 80977 83820 80850
AAXX 10184 96987 31457 70000 10266 20236 30035 40094 50000 71522 85931 333 56000 57902 81918 84618 80980
AAXX 10184 97014 32560 41302 10223 20215 39994 40087 57013 81521 333 56000 81624 83460
AAXX 10184 97028 NIL
AAXX 10184 97048 31240 80000 10245 20240 30048 40072 57010 71021 84676 333 56000 86703 85460
AAXX 10184 97072 NIL
AAXX 10184 97086 NIL
AAXX 10184 97096 11458 83604 10238 20228 30087 40109 58007 79599 8392/ 333 56009 57801 57803 60567 81916 82816 88460 80980 80860
AAXX 10184 97120 21459 71202 10248 20233 30069 40102 52014 76062 84971 333 56000 57903 57801 69917 81917 83818 85460 80981 80860
AAXX 10184 97146 NIL
AAXX 10184 97180 01450 70503 10236 20236 30069 40087 56015 69961 76162 83272 333 56000 69927 83819 85460
AAXX 10184 97192 NIL
AAXX 10184 97230 NIL
AAXX 10184 97260 NIL
AAXX 10184 97270 31450 80000 10246 20237 30076 40081 58021 69921 70562 8682/ 333 82815 85617 88460 808//
AAXX 10184 97300 11560 80000 10238 20228 30044 40084 57023 69901 71562 84271 333 56000 57801 84820 80858
AAXX 10184 97340 NIL
AAXX 10184 97372 NIL
AAXX 10184 97430 NIL
AAXX 10184 97460 NIL
AAXX 10184 97502 NIL
AAXX 10184 97530 01458 50000 10242 20239 30064 40069 57009 71566 84866 333 56000 57802 60267 82814 83615 86458 80833
AAXX 10184 97560 01459 82607 10264 20250 30066 40081 57017 69951 76086 84977 333 56000 57902 57803 69957 82917 83619 85461 88279 80980
AAXX 10184 97686 NIL
AAXX 10184 97690 NIL
AAXX 10184 97724 31458 83402 10245 20229 30061 40078 57013 70522 83872 333 56200 57822 82815 80842
AAXX 10184 97748 31459 83512 10270 20238 30059 40060 54000 71622 8497/ 333 56808 57980 83913 85358 80940
AAXX 10184 97760 NIL
AAXX 10184 97796 31450 70000 10245 20240 30044 40095 57007 70522 84532 333 56000 84613 86361
AAXX 10184 97810 NIL
AAXX 10184 97900 NIL
AAXX 10184 97980 NIL
AAXX 10184 48386 31956 00000 10251 20244 30064 40108 71000 333 59018
BBXX 46036 10181 99484 71339 46/// /3208 10074 40269 52013 22200 00086 11606 70031 333 91211
BBXX 46036 10181 99484 71339 46/// /3208 10074 40269 52013 22200 00086 11606 70031 333 91211
BBXX AMOUK03 10184 99537 70003 46/// ///// 10041 20026 30083 40112 52007 91750
BBXX 63055 10184 99606 10016 47998 /3111 10064 20006 49979 52017 700// 22200 10806 70031
BBXX 63106 10184 99610 10017 46/// /3207 10062 49977 52020 22200
BBXX 63105 10184 99610 10017 47597 ///// 10072 20016 49977 52019 700// 22200
BBXX 62107 10184 99501 70061 46/// /2418 10090 20041 40167 57006 22200 00121 10903 70014
BBXX 62094 10184 99517 70067 46/// /2218 10095 20060 40136 58013 22200 00114 10403 70015 333 90710 91125
BBXX 62095 10184 99530 70159 46/// /2720 10099 20050 40072 56002 22200 00117 10708 70039 333 90710 91133
BBXX PHBO 10183 99385 70259 41598 42712 10171 20141 40285 53008 70211 83943 22254 2//// 330// 40401 80154
BBXX 64049 10183 99571 10022 41/97 72830 10065 20065 40027 53006 70022 8//// 22200 20610 3//// 4//// 5//// 80065
AAXX 10184 82586 32598 20907 10350 20205 39847 40081 82200 333 58012
AAXX 10184 82678 32596 63602 10358 20216 39935 40072 84231 333 58004
AAXX 10184 82784 32598 10503 10341 20246 39609 40055 81100 333 59016
AAXX 10184 82791 32599 50503 10373 20164 39772 40045 85200 333 59010
AAXX 10184 82983 32597 51403 10362 20212 39641 40041 84210 333 59010
AAXX 10184 83552 32598 2//// 10370 20216 39898 4//// 82300 333 59036
AAXX 10184 83623 32995 8//// 1//// 2//// 39478 4//// 58036 8655/
AAXX 10184 83630 21597 82706 10210 20186 3//// 4//// 57013 70362 8457/ 333 60081
AAXX 10184 83702 32599 82304 10303 20171 39323 40058 58015 86304
AAXX 10184 83704 32698 31802 10310 20203 39624 40021 58008 83200
BBXX 42361 10181 99276 70925 46/// ///14 10161 20056 40264 58017 91830 555 11116 22124
AAXX 10184 83766 32597 30000 10282 20186 39436 40073 5//// 83200
AAXX 10184 83836 32497 40903 10241 20167 39110 40068 58009 84200
AAXX 10184 83881 32497 32303 10312 20171 39780 40056 57017 83200
AAXX 10184 83980 31596 31406 10279 20124 39824 40100 57018 70521 83200
AAXX 10184 83997 32597 81412 10230 20181 30115 40159 57014 885//
AAXX 10184 87648 32560 20214 10277 20172 30105 40115 57011 82100 333 56700 82825
AAXX 10181 20046 NIL
AAXX 10181 20069 NIL
AAXX 10181 20087 41996 21304 11242 21273 30170 40181 52005 71011 82030
AAXX 10181 20292 NIL
AAXX 10181 20353 46/// /2203 11021 21052 30109 40113 52004
AAXX 10181 20667 32598 82206 11027 21034 30192 40199 52008 885// 333 11019
AAXX 10181 20674 41495 72602 11049 21052 30141 40201 52010 71072 8653/ 333 86611 91104
AAXX 10181 20744 NIL
AAXX 10181 20891 41297 79902 11104 21124 30138 40181 54000 78582 879// 333 86705 91103
AAXX 10181 23022 11597 62007 11087 21102 30181 40244 54000 69900 70232 82530 333 11034 91112
AAXX 10181 23032 11597 52206 11059 21085 30230 40251 52004 69940 70283 87500 333 11037 87621
AAXX 10181 23058 11298 82605 11064 21068 30261 40265 52010 69940 70232 886// 333 11054 88704
AAXX 10181 23242 32997 82601 11150 21170 30268 40285 52010 8805/ 333 11194
AAXX 10181 23256 11498 82703 11100 21113 30344 40281 52007 69930 78584 883// 333 11065 85911
AAXX 10181 23330 11196 82401 11175 21187 30274 40297 52003 69900 77142 86775 333 11147 86702 93545
AAXX 10181 23445 11/93 92902 11111 21111 30276 40303 52016 60010 74747 333 11053
AAXX 10181 23552 11597 53001 11086 21093 30242 40277 52013 60020 70282 86500 333 11042 86630
AAXX 10181 23631 11298 81401 11091 21098 30263 40306 57001 69960 70242 886// 333 11063 88704
AAXX 10181 23662 11996 82501 11075 21084 30202 40248 57009 60030 77187 8802/ 333 11064
AAXX 10181 23724 32998 80902 11139 21152 30215 40283 57012 80005 333 11075
AAXX 10181 23734 12598 89501 11112 21132 30220 40316 54000 69930 886// 333 11089
AAXX 10181 23849 41156 82904 11149 21165 40334 52008 71022 8562/ 333 85702
AAXX 10181 23867 31496 82604 11146 21173 30220 40297 57005 77172 8377/ 333 11079
AAXX 10181 23933 32997 50000 11202 21216 30277 40339 52003 80001 333 11155
AAXX 10181 28064 32998 40000 11136 21163 30239 40337 57002 80001 333 11108
AAXX 10181 28275 32997 00000 11200 21219 30291 40357 57003 333 11152
AAXX 10181 28493 32997 00000 11206 21225 30263 40365 57005 333 11151
AAXX 10181 28698 32997 00402 11154 21167 30174 40340 57009 333 11084
AAXX 10184 03008 11460 72714 10045 21006 40008 60012 70282 878// 91750 333 10051 81818 87635
AAXX 10181 23426 32984 31602 11153 21172 30269 40295 57004 80001 333 11115
AAXX 10181 23625 12998 01101 11107 21120 30252 40287 57008 69930 333 11057
AAXX 10181 28076 32997 00000 11178 21184 30262 40341 54000 333 11128
AAXX 10181 28367 32984 10000 11162 21175 30211 40350 57002 80001 333 11096
AAXX 10181 28382 32998 00000 11224 21236 30292 40370 57001 333 11146
AAXX 10181 28481 32997 03601 11188 21200 30258 40367 57005 333 11130
AAXX 10181 28491 31997 30000 11217 21242 30244 40366 57009 70270 80001 333 11120
AAXX 10181 28573 31996 00000 11202 21214 30244 40359 58010 71000 333 11127
AAXX 10181 28593 32997 20201 11179 21191 30249 40355 57006 80005 333 11135
AAXX 10181 28786 32997 20502 11151 21164 30166 40335 57009 80002 333 11081
AAXX 10181 28797 32997 60501 11171 21183 30157 40328 57008 80001 333 11118
AAXX 10181 28799 32997 30703 11158 21185 30174 40330 57006 80001 333 11108
AAXX 10184 78318 01458 60307 10236 20223 30158 40162 58021 60541 72586 86800 333 10246 20205 33/// 56100 59021 69977 71190 85818 555 10402
AAXX 10184 78325 01563 70503 10241 20223 30104 40162 58021 60031 72186 8626/ 333 10235 20214 32/// 56299 59015 60037 70035 86820 555 10903
AAXX 10184 78333 11410 42002 10281 20190 30144 40151 58016 60001 70511 83903 333 10286 20216 31/// 56209 57935 59008 70131 83817 819// 555 10901
AAXX 10184 78348 11557 20904 10268 20216 30097 40149 58018 60001 70511 82840 333 10271 20231 30/// 56290 57851 59013 82822 555 10902
AAXX 10184 78349 11568 40901 10276 20196 30044 40153 57025 60001 70500 84200 333 10282 20206 31/// 56200 57852 59008 70081 84822 555 10902
AAXX 10184 78353 11570 41303 10277 20223 30132 40154 58024 69961 70181 84800 333 10277 20234 31/// 56900 59003 70009 83820
AAXX 10184 78360 12570 31306 10301 20232 30121 40132 58022 60001 82903 333 10301 20225 30/// 56909 57949 59011 81820 819// 92024
AAXX 10184 78369 11568 30405 10283 20206 30127 40136 58020 60001 70500 83200 333 10283 20256 30/// 56100 57866 59008 83820 92043 555 10403
BBXX WE3806 10184 99435 70824 41/98 12714 11050 2//// 40301 54000 70200 8//// 22203 00067 2//02 3//// 4//// 5//// 6//// 8//// ICE /////
BBXX WDA2768 10184 99459 70854 43/// /0939 00/// 11046 21100 40257 52001 7//// 8//// 22263 0//// 2//// 3//// 4//// 5//// 6//// 81062 ICE /////
BBXX WC5932 10184 99417 70874 43/// /2312 00/// 11021 21111 40346 55036 7//// 8//// 22200 0//// 2//// 3//// 4//// 5//// 6//// 81048 ICE /////
BBXX KEY796 10183 99571 71703 41/97 72319 10011 21005 49774 51/// 702// 8//// 222// 00028 2//// 3//// 4//// 5//// 6//// 8//// ICE /////
BBXX 9HA2066 10184 99339 71341 419// 30209 10160 20160 40240 51/// 7//// 831// 22224 00150 21402 323// 41102 5//// 6//// 80160 ICE /////
BBXX V7NV4 10184 99097 70891 41798 60210 10280 20239 40110 56010 70221 85465 22273 00290 20102 30202 40102 50102 6//// 80250 ICE /////
AAXX 10183 63671 32980 00000 10257 20207 333 10325
AAXX 10183 63723 32980 00704 10298 20224 40088 333 10349 58009
AAXX 10183 63793 32980 70507 10260 20192 40072 80002 333 10314 58010 87078
AAXX 10184 63688 32480 10809 10113 20081 48/// 81970 333 10230 58005 81918
AAXX 10184 63772 32980 00905 10270 20242 333 10335
AAXX 10184 63820 32580 10608 10270 20244 40095 81100 333 10344 58004 81821
AAXX 10184 63612 NIL
AAXX 10184 63661 NIL
AAXX 10184 63671 NIL
AAXX 10184 63695 NIL
AAXX 10184 63708 NIL
AAXX 10184 63714 NIL
AAXX 10184 63723 NIL
AAXX 10184 63740 NIL
AAXX 10184 63793 NIL
BBXX PBOF 10183 99389 11181 41/97 /2625 10010 21016 40270 56010 702// 8//// 22200 04080 2//// 80000 90194
BBXX UDWE 10181 99478 11488 42498 72812 11025 40015 54000 87200 22253 00044 20404
BBXX A8MV6 10183 99065 11083 41997 23628 10260 20231 40110 54000 70100 82040 22253 04270 20805 30299 41007 5//// 80240
BBXX MCCW7 10184 99060 10859 41398 52006 10279 20239 40099 51036 71322 852// 22263 00279 29901 3//// 4//// 5//// 80251
BBXX S6OM 10184 99254 11222 41597 80233 10150 20136 40258 52/// 78922 887// 22211 00222 21214 303// 41214 5//// 80142
BBXX A8SI9 10184 99512 11602 43397 82635 11030 2104/ 49980 51020 882// 22253 00052 20706 326// 41312 81020
BBXX A8UL5 10183 99259 30489 41898 30614 10260 20218 40112 52012 70100 81165 22214 20303 3//// 4//// 5//// 80230
BBXX 64045 10184 99259 70117 46/// /2522 10080 20030 49904 56015 22200 00103 10606 70031 333 90710 91129
BBXX AMOUK01 10184 99339 30184 46/// ///// 10159 20097 30152 40155 52010 91750
BBXX TBWUK30 10183 99255 70170 41296 80427 10210 20194 40146 54000 70933 8/610 22284 06200 20408 303// 40706 5//// 80200
BBXX AMOUK17 10184 99327 30573 46/// ///// 10204 20190 30173 40183 52013 91750
BBXX AMOUK15 10184 99159 50057 46/// ///// 10200 20159 30125 40158 57007 91750
BBXX A8VD9 10183 99084 70299 41398 60114 10275 20226 40090 56015 70211 8/67/ 22215 04275 20303 314// 40404 5//// 80240
BBXX ZSAF 10184 99394 30105 41599 71707 10129 20051 40253 52011 70322 875// 22253 04174 2//// 322// 40504 5////
BBXX VQHO7 10184 99190 50378 41898 73535 10262 20219 40060 57013 70122 87070 22214 00260 20206 303// 40408 5//// 80233
BBXX A8CJ2 10184 99209 50708 41598 62013 10240 20219 40150 54000 70222 85670 22244 04230 20601 327// 41204 5//// 80225
BBXX A8VE3 10184 99015 50402 41698 51018 10290 20273 40080 56010 70222 83141 22274 04260 21603 312// 41202 5//// 80277
BBXX 46036 10181 99484 71339 46/// /3208 10074 40269 52013 22200 00086 11606 70031 333 91211
BBXX 44258 10181 99445 70634 46/// /1809 10082 40166 57033 22200 00075 10503 70016 333 91211
BBXX KS088 10184 99267 70801 43/// /1508 10250 40189 22200 06236
BBXX KS094 10184 99170 70618 43/// /0614 10247 40112 22200 06271
BBXX KS098 10184 99446 71240 43/// /0605 10060 40215 22200 06000
BBXX 46146 10181 99493 71237 46/// /1001 10039 40218 52008 22200 00058 10400 70002 333 91202
BBXX 46004 10181 99509 71361 46/// /3111 10059 40255 52010 22200 00079 11507 70034 333 91213
BBXX 9HA2066 10184 99339 71341 419// 30209 10160 20160 40240 51/// 7//// 831// 22224 00150 21402 323// 41102 5//// 6//// 80160 ICE /////
BBXX 46184 10181 99539 71389 46/// /3209 10047 40238 52020 22200 00067 11407 70034 333 91211
BBXX 46181 10181 99538 71288 46/// /1905 10041 40181 52016 22200 00044 10200 70001 333 91207
BBXX 41010 10181 99289 70785 46/// /0806 10229 40203 91820 22200 00241 10503 20502 300// 40902 70015 333 91208 555 11068 22071
BBXX 41009 10181 99285 70802 46/// /0707 10243 20183 40207 91820 22200 00250 10503 20502 300// 40702 70016 333 91208 555 11069 22072
BBXX PENR 10183 99229 70684 41597 60620 10265 20228 40145 58023 70182 84445 22214 20402 307// 40904 80240
BBXX VQKZ6 10183 99316 70419 41498 20917 10210 20178 40303 54000 70200 82100 22254 02209 20403 311// 40806 5//// 80190
BBXX ZCDY2 10184 99250 70755 41698 30725 10258 20174 40168 55010 70100 82160 22274 00260 20201 307// 40303 5////
BBXX DGSE 10183 99525 71518 41297 81732 10055 20032 40170 54000 70222 887// 22225 00050 20706
BBXX ZCDG4 10184 99216 70768 41298 82526 10256 20217 40149 57021 70222 887// 22234 00280 20302 308// 40504 5////
BBXX ZCDM6 10183 99260 70801 41298 70613 10260 20215 40190 52010 70322 87763 22200 00250 2//// 3//// 4//// 5//// 80230
BBXX DFRZ 10183 99300 70430 41598 50918 10235 20199 40280 58020 70322 85555 22254 00230 20902 80210
BBXX DCDP2 10184 99420 70609 41297 81721 10150 20142 40167 57070 76266 887// 22264 04140 21005 80145
BBXX PHHD 10181 99423 70636 41296 71805 10120 20083 40180 56032 71322 81798 22213 04090 20301 80100
BBXX 46205 10181 99542 71343 46/// /3109 10060 40190 52018 22200 00078 11507 70033 333 91212
BBXX 46132 10181 99497 71279 46/// /3208 10076 40213 52006 22200 00081 11605 70026 333 91209
BBXX 46206 10181 99488 71260 46/// /0901 10063 40211 52003 22200 00088 11603 70017 333 91202
BBXX 46208 10181 99525 71327 46/// /2910 10067 40209 52011 22200 00077 1//// 70/// 333 912//
BBXX 46185 10181 99524 71298 46/// /2806 10070 40197 52011 22200 00077 10503 70015 333 91207
BBXX A8KW3 10183 99214 71099 41495 83111 10234 20197 40272 54000 72166 842// 22235 04270 20201 30000 4//// 5//// 80210
BBXX 44029 10181 99425 70706 46/30 /3206 10059 40214 55000 91804 22200 00091 10301 70006 333 91208 555 11070 22073
BBXX 44040 10181 99410 70736 46/// /3107 10054 21028 91815 22200 10201 70003 333 91210 555 11088 22103
BBXX 44030 10181 99432 70704 46/// /2909 1//// 40210 55000 91804 22200 00090 10301 70007 333 91211 555 11115 22123
BBXX 46087 10181 99485 71247 46/// /3403 10069 20034 40211 91820 22200 00083 333 91204 555 11030 22031 31810 43304 61819 338030 347029 348027 343032 346031 344031
BBXX C6VG8 10184 99365 70743 41/96 83433 10090 2//// 40230 52020 7//21 8824/ 22284 00170 2//// 3//// 4//// 5//// 6//// 8//// ICE /////
BBXX 41036 10181 99342 70770 46/// ///// 10118 20052 40245 91820 22200 00168
BBXX WC5932 10184 99417 70874 43/// /2312 00/// 11021 21111 40346 55036 7//// 8//// 22200 0//// 2//// 3//// 4//// 5//// 6//// 81048 ICE /////
BBXX WDA2768 10184 99459 70854 43/// /0939 00/// 11046 21100 40257 52001 7//// 8//// 22263 0//// 2//// 3//// 4//// 5//// 6//// 81062 ICE /////
BBXX WQZ7791 10184 99473 70893 41/98 /0000 11177 2//// 40000 56000 70200 8//// 222// 01178 2//00 3//// 4//// 5//// 6//// 8//// ICE /////
BBXX ZCDQ5 10183 99331 10327 43898 20308 10160 20140 40250 54000 70200 82//3 22234 00163 20101 80150
BBXX BAREU12 10184 99502 70059 46/// ///// 40162 57007 22283
BBXX BAREU62 10184 99408 10282 46/// ///// 40243 22264
BBXX UANA 10181 99703 10329 41/97 31307 10021 40002 57001 70221 80200 22252 04061 2020/
BBXX MGSM3 10184 99009 11410 41498 81509 10260 20255 40050 57015 72166 88/// 22233 04300 20200 30505 41001 51001 80255
BBXX 9HA2479 10184 99338 31515 46/// /3514 10190 20177 30010 40039 57021 22254 04198 85181
BBXX VROB 10184 99068 31470 46/// /3313 10246 20227 30042 40067 57011 22200 04303 85232
BBXX SHIP 10184 99109 30852 41498 42308 10273 20229 40086 58004 70300 83261 22253 00287 10904 2//00 316// 40601 85241
BBXX C6FS9 10184 99208 31498 46/// /0111 10267 20255 30040 40075 57012 22233 04271 85258
BBXX ZMKA 10184 99349 31724 41296 80528 10172 20169 40160 57010 75852 896// 22283 20403
BBXX FHZI 10184 99439 31473 46/// /0206 10145 2//// 39969 49980 57011 22283 04146
BBXX 9KWP 10183 99120 30977 41697 73016 10280 20252 40089 58005 70265 84562 22274 2//// 80260
BBXX V7NV4 10184 99097 70891 41798 60210 10280 20239 40110 56010 70221 85465 22273 00290 20102 30202 40102 50102 6//// 80250 ICE /////
AAXX 10184 63962 11580 71205 10217 20186 38949 48509 60072 71796 8392/ 333 10272 58026 83620 81921 87458
AAXX 10184 91723 NIL
AAXX 10184 91964 NIL
BBXX C6UB2 10184 99442 71565 41295 81830 10120 20120 40180 56020 76162 8892/ 22224 00120 20808 320// 40806 5//// 6//// 80120 ICE /////
BBXX DDJS2 10184 99455 71715 41297 81209 10109 20067 40048 58/// 70262 887// 22224 00120 2//// 3//// 4//// 5//// 80089
BBXX DGSE 10183 99525 71518 41297 81732 10055 20032 40170 54000 70222 887// 22225 00050 20706
BBXX KEY796 10183 99571 71703 41/97 72319 10011 21005 49774 51/// 702// 8//// 222// 00028 2//// 3//// 4//// 5//// 6//// 8//// ICE /////
BBXX KGTZ 10184 99538 71611 41396 82225 10067 20050 49844 55003 75352 886// 22223 00072 20605 318// 40809 5//// 6//// 80061 ICE /////
BBXX SHIP 10183 99322 71779 41198 52220 10220 20206 40235 56020 70222 853// 22264 00201 2//// 3//// 4//// 80210
BBXX SHIP 10184 99430 71763 41698 81006 10080 20038 40024 56006 70222 88/1/ 22223 00120 80060
BBXX A8SI9 10184 99512 11602 43397 82635 11030 21040 49980 51020 882// 22253 00052 20706 326// 41312 81020
BBXX DCTA2 10180 99322 11674 41598 53410 10197 20137 40181 51013 70322 8113/ 22224 04210 2//04 399// 4//06 5//// 80160
AAXX 10181 31152 42997 80000 11326 21355 39695 40142 53004 86036
AAXX 10181 31163 NIL
AAXX 10181 31285 41999 70000 11260 21291 30034 40119 52010 77171 80008
AAXX 10181 31561 41998 20000 11242 21260 30066 40096 57001 70271 80001
AAXX 10181 31683 42999 80000 11225 21238 30009 40088 57006 86071
AAXX 10181 32010 41498 62503 11162 21175 39981 40032 56001 70282 86900 333 86914 91005 91106
AAXX 10181 34247 32564 82103 11001 21016 30118 40235 58007 885// 333 10012 88624
BBXX VEP717 10184 99467 70487 41898 81918 10031 2003/ 40288 57033 70222 887// 22200 06033 20502 335// 40706 80030
BBXX 44137 10181 99423 70620 46/// /0008 10112 40171 57043 22200 00128 10603 70017 333 91210
BBXX 44137 10181 99423 70620 46/// /0008 10112 40171 57043 22200 00128 10603 70017 333 91210
AAXX 10184 87129 32965 00506 10332 10171 39838 40063 57024
AAXX 10184 71923 16/// ///10 11200 21218 39638 40098 55000 60001 333 11199 21256 70000
AAXX 10184 71963 16/// /3003 11178 21194 39666 40079 53008 60001 333 11177 21269 70000
AAXX 10184 71592 16/// /0705 11168 21197 39999 40012 53001 60001 333 11165 21203 70000
AAXX 10184 71490 16/// /0000 11289 21315 39790 40128 53013 60001 333 11258 21301 70000
AAXX 10181 38388 32598 80000 11034 21074 30180 40254 58011 886// 333 11027
BBXX 44138 10181 99443 70536 46/// /1612 10083 40257 5//// 22200 00090 11104 70022 333 91214
BBXX 44138 10181 99443 70536 46/// /1612 10083 40257 5//// 22200 00090 11104 70022 333 91214
AAXX 10184 71490 16/// /0000 11289 21315 39790 40128 53013 60001 333 11258 21301 70000
AAXX 10184 71592 16/// /0705 11168 21197 39999 40012 53001 60001 333 11165 21203 70000
AAXX 10184 71963 16/// /3003 11178 21194 39666 40079 53008 60001 333 11177 21269 70000
AAXX 10184 71923 16/// ///10 11200 21218 39638 40098 55000 60001 333 11199 21256 70000
BBXX PBEO 10183 99363 70046 41597 52621 10166 20093 40195 52013 70311 83596 22252 02166 20503 323// 40503 80125
BBXX DDZF2 10184 99131 10492 41/97 /0921 10260 20186 40155 53010 70200 8//// 22225 00270 20303 80210
AAXX 10184 16022 11470 32105 11018 21028 37830 48472 51007 60002 72841 81401 333 11010 81610 444 18150
AAXX 10184 16022 11470 32105 11018 21028 37830 48472 51007 60002 72841 81201 333 11010 81610 444 18150
AAXX 10184 16546 12460 82006 10148 20128 30162 40190 52010 60002 8327/ 333 10178 83818 85358
BBXX 2BLY5 10183 99032 70269 41/98 70707 10255 20233 40097 58018 78082 8741/ 22253 00280 20301 313// 40602 80240
BBXX A8VL5 10184 99028 11052 41/97 /0423 10260 20232 40218 50/// 758// 8/3// 22255 04270 2//03 80240
BBXX DDZF2 10184 99131 10492 41/97 /0921 10260 20186 40155 53010 70200 8//// 22225 00270 20303 80210
BBXX 2BLY5 10183 99032 70269 41/98 70707 10255 20233 40097 58018 78082 8741/ 22253 00280 20301 313// 40602 80240
BBXX A8VL5 10184 99028 11052 41/97 /0423 10260 20232 40218 50/// 758// 8/3// 22255 04270 2//03 80240
BBXX PBEO 10183 99363 70046 41597 52621 10166 20093 40195 52013 70311 83596 22252 02166 20503 323// 40503 80125
BBXX PGQI 10183 99333 70127 41497 43206 10161 20126 40230 5/000 70200 82140 22253 20201 332// 40904 80140
BBXX 2ALE5 10183 99055 70106 41698 32207 10285 20242 40080 55004 70200 83400 22275 20402 318// 40802 80255
BBXX A8IF4 10183 99382 71754 41297 82244 10180 20139 40060 57030 70222 887// 22263 21010 325// 41206 80155
BBXX A8IE6 10184 99047 11063 41697 70426 10270 20236 40085 56030 70300 8/5// 22214 04280 20506 80245
BBXX DHDH 10184 99138 10514 41698 50625 10230 20169 40150 54000 70211 8514/ 22224 00240 20302 80190
BBXX C6CU6 10183 99458 70111 41598 63415 10115 20085 40210 58020 70211 84548 22253 04140 20701 333// 41006 5//// 80100
BBXX DMQN 10183 99321 70178 41598 40511 10195 20164 40248 55002 70311 82170 22214 04210 21301 3//// 4//// 5//// 80175
AAXX 10184 89610 46/// /0423 11057 39518 4//// 5//// 333 90700 91126
BBXX ONDY 10184 99000 10080 41799 32112 10260 2022/ 40100 52010 70100 836// 22282 00280 2//// 3//// 4//// 5//// 6//// 80230 ICE /////
BBXX BATFR56 10184 99001 30864 44998 33108 10284 20245 40109 50/// 70100 83100 22252 00302
BBXX SHIP 10184 99075 31033 41/98 32206 10282 20238 40099 57011 70211 8//// 22213 00301 11704 20101 327// 41004
BBXX BATFR55 10184 99077 30413 44598 60216 10287 20254 40099 70322 84142 22222 00287 209// 31111 412// 512//
BBXX 3FMV6 10183 99150 30099 41698 61816 10200 20149 40089 54000 70222 84465 22283 06204 21201 80170
BBXX C6HS4 10183 99160 30929 41297 31515 10260 20246 40073 5/020 78788 81100 22233 2//// 313// 41002 80250
BBXX A8RL3 10181 99165 30711 41392 30907 10260 40100 52000 70200 834// 22213 00280 2//02 3//// 4//04 5////
BBXX SHIP 10184 99207 30918 41498 41315 10230 20186 40101 50005 70101 8323/ 22214 00255 80210
BBXX A8VL8 10184 99262 30511 41297 30717 10260 20217 40140 54000 7//00 831// 22223 00230 20204 331// 40204 5//// 6//// 80230 ICE /////
BBXX PCDE 10183 99399 30714 41297 40102 10160 20127 40240 54000 7//// 847// 22223 20401 80140
BBXX BATFR08 10184 99480 30596 46/// /2025 10034 21021 40177 51011 22223 00064
BBXX DBLK 10181 99524 30000 41398 72507 10012 20008 40032 51003 70254 878// 22243 04014 20301 325// 40905
BBXX A8IF4 10183 99382 71754 41297 82244 10180 20139 40060 57030 70222 887// 22263 21010 325// 41206 80155
BBXX A8IE6 10184 99047 11063 41697 70426 10270 20236 40085 56030 70300 8/5// 22214 04280 20506 80245
BBXX 2ALE5 10183 99055 70106 41698 32207 10285 20242 40080 55004 70200 83400 22275 20402 318// 40802 80255
BBXX DHDH 10184 99138 10514 41698 50625 10230 20169 40150 54000 70211 8514/ 22224 00240 20302 80190
BBXX PGQI 10183 99333 70127 41497 43206 10161 20126 40230 5/000 70200 82140 22253 20201 332// 40904 80140
BBXX C6CU6 10183 99458 70111 41598 63415 10115 20085 40210 58020 70211 84548 22253 04140 20701 333// 41006 5//// 80100
BBXX DMQN 10183 99321 70178 41598 40511 10195 20164 40248 55002 70311 82170 22214 04210 21301 3//// 4//// 5//// 80175
BBXX CFO383 10184 99439 70602 47796 /2011 10101 2010/ 40195 57002 761// 8/ // 22200 00086 10603 2//// 3//// 4//// 5//// 6//// 70016 80102 333 91012
BBXX CFO383 10184 99439 70602 47796 /2011 10101 2010/ 40195 57002 761// 8/ // 22200 00086 10603 2//// 3//// 4//// 5//// 6//// 70016 80102 333 91012
BBXX 46092 10181 99368 71220 46/// /1703 10096 40209 52012 91757 22200 00119 555 11026 22026
BBXX 46004 10181 99509 71361 46/// /3111 10059 40255 52010 22200 00079 11507 70034 333 91213
BBXX 46036 10181 99484 71339 46/// /3208 10074 40269 52013 22200 00086 11606 70031 333 91211
BBXX 46145 10181 99544 71324 46/// /3304 10053 40177 52015 22200 00076 11505 70025 333 91206
BBXX 46181 10181 99538 71288 46/// /1905 10041 40181 52016 22200 00044 10200 70001 333 91207
BBXX 46183 10181 99536 71311 46/// /2607 10058 40184 52009 22200 00078 11602 70008 333 91208
BBXX 46185 10181 99524 71298 46/// /2806 10070 40197 52011 22200 00077 10503 70015 333 91207
BBXX 46204 10181 99514 71288 46/// /2606 10076 40204 52011 22200 00087 11605 70027 333 91208
BBXX 46205 10181 99542 71343 46/// /3109 10060 40190 52018 22200 00078 11507 70033 333 91212
BBXX 46206 10181 99488 71260 46/// /0901 10063 40211 52003 22200 00088 11603 70017 333 91202
BBXX 46208 10181 99525 71327 46/// /2910 10067 40209 52011 22200 00077 1//// 70/// 333 912//
BBXX 9HA2066 10184 99339 71341 419// 30209 10160 20160 40240 51/// 7//// 831// 22224 00150 21402 323// 41102 5//// 6//// 80160 ICE /////
BBXX A8IY2 10183 99439 71340 41297 83520 10100 20081 40260 53020 75082 8/77/ 22274 00120 20203 334// 40305 5//// 80090
BBXX DDZB2 10183 99453 71479 41298 61615 10080 20064 40300 53010 70222 84776 22225 04100 20602 80072
BBXX KS098 10184 99446 71240 43/// /0605 10060 40215 22200 06000
BBXX 44061 10181 99388 70770 46/// /3505 1//// 91820 333 91210
BBXX 44061 10181 99388 70770 46/// /3605 1//// 40279 91810 333 91208
BBXX 44061 10181 99388 70770 46/// /3605 10067 40279 58007 91800 22200 00075 333 91208
BBXX 44059 10181 99368 70763 46/// /0206 1//// 91820 333 91209
BBXX 44059 10181 99368 70763 46/// /0106 1//// 40260 91810 333 91209
BBXX 44059 10181 99368 70763 46/// /3607 10083 40260 58008 91800 22200 00122 333 91210
BBXX 44057 10181 99395 70761 46/// /3406 1//// 91820 333 91209
BBXX 44057 10181 99395 70761 46/// /3407 1//// 40269 91810 333 91208
BBXX 44057 10181 99395 70761 46/// /3406 10062 40269 58009 91800 22200 00071 333 91208
BBXX 44058 10181 99376 70763 46/// /0207 1//// 91820 333 91209
BBXX 44058 10181 99376 70763 46/// /0207 1//// 40267 91810 333 91209
BBXX 44058 10181 99376 70763 46/// /0208 10079 40266 58011 91800 22200 00108 10301 70007 333 91210
BBXX 46232 10181 99325 71174 46/// ///// 1//// 91808 22200 00149 11802 21001 327// 41802 70010
BBXX 46247 10181 99378 71228 46/// ///// 1//// 91821 22200 00115 11803 20802 329// 41802 70014
BBXX 46246 10181 99500 71451 46/// ///// 1//// 91829 22200 00076 11306 21003 328// 41305 70030
BBXX 46246 10181 99500 71451 46/// ///// 1//// 91759 22200 00076 11405 21003 328// 41404 70027
AAXX 10181 01059 11559 83603 11027 21033 39983 49992 57013 69981 77172 8262/ 333 11025 91106
BBXX 44056 10181 99362 70757 46/// ///// 1//// 91750 22200 00139 10705 20705 308// 41101 70023
BBXX 44039 10181 99411 70727 46/// /3206 10061 21021 91753 22200 00110 10301 70005 333 91208
AAXX 10181 98134 11440 80407 10201 20197 39954 40147 5//// 60091 76166 8552/ 333 56199 85617 88456
AAXX 10181 98223 11562 73602 10245 20210 40086 58015 69901 70182 81260 333 56999 81820 87360
AAXX 10181 98232 11560 80410 10234 20210 40113 54000 60071 70246 8557/ 333 56199 85628 88358
AAXX 10181 98325 32458 81401 10252 20244 40078 58008 8457/ 333 56999 84615 88358
AAXX 10181 98328 31460 71401 10166 20157 38493 40062 58002 70544 82270 333 56999 82814 87358
AAXX 10181 98330 32470 60000 10243 20241 30051 40083 58007 83206 333 56999 83818 86077
AAXX 10181 98336 NIL
AAXX 10181 98429 31560 72102 10248 20246 40083 58005 70544 83830 333 56999 83825 85360
AAXX 10181 98430 11558 80901 10246 20244 40079 58006 69931 70584 82612 333 56999 82720 84458
AAXX 10181 98431 11458 81801 10247 20239 30026 40073 56022 60051 70382 8325/ 333 56999 83818 88359
AAXX 10181 98440 31465 10000 10240 20223 30080 40085 58007 70544 81201 333 56999 81815
AAXX 10181 98444 32465 73001 10246 20239 30061 40080 56006 82208 333 56999 82818 87270
AAXX 10181 98526 NIL
AAXX 10181 98531 11462 81002 10251 20243 30071 40075 58006 60161 76196 8252/ 333 56199 82619 88458
AAXX 10181 98536 11465 52202 10247 20225 39874 40079 58008 69921 70182 82271 333 56999 82818 83357
AAXX 10181 98543 32468 60000 10256 20241 30065 40076 58012 83208 333 56999 83818 85272
AAXX 10181 98550 32460 40000 10258 20245 40085 53008 82262 333 56999 82818
AAXX 10181 98618 11470 72402 10266 20247 40070 58008 60041 70286 83278 333 56599 83819 85458 87274
AAXX 10181 98630 11470 80000 10252 20232 40129 58007 60061 70282 8422/ 222// 20000 333 56999 84818 88458
AAXX 10181 98637 NIL
AAXX 10181 98646 32560 33201 10252 20238 30075 40103 58008 81201 333 56999 81820 83080
AAXX 10181 98653 31470 20000 10281 20248 30033 40078 58007 70544 82200 333 56999 82818
AAXX 10181 98741 32470 70000 10249 20241 40075 57011 71311 81238 333 56999 81818 86275
AAXX 10181 98747 NIL
AAXX 10181 98753 31465 60000 10258 20243 40078 58023 70544 82232 333 56999 82816 85079
AAXX 10181 98755 32575 60000 10247 20238 40076 58018 81208 333 56999 81820 86279
AAXX 10181 98836 31460 70000 10262 20240 40081 58009 70544 81230 333 56999 81818 87362
AAXX 10184 89512 31998 81226 11044 21068 39573 40721 52005 70232 8801/ 333 11043
AAXX 10184 94997 46/// ///// 10003 30019 40034 5////
AAXX 10184 94290 46/// /3612 10286 30065 40074 56009 91824
AAXX 10184 89610 46/// /0423 11057 39518 4//// 5//// 333 90700 91126
AAXX 10184 89614 46/// ///// 11092 29080 38847 4//// 5////
AAXX 10184 89807 46/// /2626 11055 29066 39647 4//// 5//// 333 90700 91130
AAXX 10184 94210 35/// /2605 10272 30063 40068 57012
AAXX 10184 94289 46/// /0106 10286 30065 40072 56008 91815
AAXX 10184 94379 46/// /3512 10266 30059 40068 55008 91826
AAXX 10184 83437 32599 42307 10322 20180 39341 40040 84200 333 59016
AAXX 10184 83579 21598 81403 10202 20189 38950 40059 70362 88800 333 59029 60161
AAXX 10184 83592 21596 82304 10233 20208 39395 40072 76352 8472/ 333 59011 69981
BBXX 51205 10181 99210 71564 46/// ///// 1//// 91818 22200 00243 11405 20704 333// 41403 70026
BBXX 46238 10181 99334 71195 46/// ///// 1//// 91820 22200 00152 11803 20502 329// 41803 70016
BBXX 46239 10181 99363 71221 46/// ///// 1//// 91821 22200 00136 11704 20802 331// 41703 70019
BBXX 44062 10181 99386 70764 46/// /3607 1//// 91820 22200 00101 333 91209
BBXX 44062 10181 99386 70764 46/// /3507 1//// 40256 91810 22200 00101 333 91208
BBXX 44062 10181 99386 70764 46/// /3507 10073 40262 55012 91800 22200 00101 10301 70007 333 91209
BBXX 44063 10181 99390 70764 46/// /3206 1//// 91820 333 91208
BBXX 44063 10181 99390 70764 46/// /3207 1//// 40279 91810 333 91208
BBXX 44063 10181 99390 70764 46/// /3207 10072 40278 58016 91800 22200 00093 10201 70003 333 91209
BBXX 44041 10181 99372 70768 46/// /0104 1//// 91820 333 91206
BBXX 44041 10181 99372 70768 46/// /0104 1//// 40291 91810 333 91206
BBXX 44041 10181 99372 70768 46/// /0104 10082 40292 58009 91800 22200 00113 1//00 70002 333 91207
BBXX 44042 10181 99380 70763 46/// /3506 1//// 91820 333 91209
BBXX 44042 10181 99380 70763 46/// /3506 1//// 40272 91810 333 91208
BBXX 44042 10181 99380 70763 46/// /3606 10080 40273 57007 91800 22200 00106 10301 70004 333 91208
BBXX 44043 10181 99392 70764 46/// /3208 1//// 91820 333 91210
BBXX 44043 10181 99392 70764 46/// /3210 1//// 40268 91810 333 91211
BBXX 44043 10181 99392 70764 46/// /3308 10071 40268 58010 91800 22200 00085 10201 70005 333 91212
BBXX 44100 10181 99363 70756 46/// ///// 1//// 91822 22200 00143 10705 20705 70024
BBXX 41110 10181 99341 70777 46/// ///// 1//// 91821 22200 00152 11102 20802 70009
BBXX 41113 10181 99284 70805 46/// ///// 1//// 91821 22200 00221 10502 20502 70010
BBXX 41112 10181 99307 70813 46/// ///// 1//// 91821 22200 00166 10603 20603 70015
BBXX 42362 10181 99278 70907 46/// /0313 10156 20050 40278 91815
BBXX 42362 10181 99278 70907 46/// /0313 10161 20044 40275 91830
BBXX 42363 10181 99282 70892 46/// /0414 10156 20056 40271 91830 333 91214
BBXX 42364 10181 99291 70881 46/// /0212 10150 20044 40264 91830
AAXX 10184 89610 46/// /0423 11057 39518 4//// 5//// 333 90700 91126
AAXX 10184 89614 46/// ///// 11092 29080 38847 4//// 5////
AAXX 10184 89807 46/// /2626 11055 29066 39647 4//// 5//// 333 90700 91130
AAXX 10184 94997 46/// ///// 10003 30019 40034 5////
AAXX 10184 94290 46/// /3612 10286 30065 40074 56009 91824
BBXX 44039 10181 99411 70727 46/// /3305 10061 21022 91800 22200 00110 10301 70005 333 91208
BBXX 44060 10181 99413 70721 46/// ///07 10058 91830 22200 00116 333 91210 555 11072 22077
BBXX 44022 10181 99409 70737 46/// ///06 10052 21042 91830 22200 00100 333 91210 555 11067 22067
BBXX 44040 10181 99410 70736 46/// /3108 10054 21039 91819 22200 10201 70003 333 91211 555 11098 22113
BBXX 46243 10181 99462 71241 46/// ///// 1//// 91829 22200 00084 11703 20901 327// 41702 70014
BBXX 46236 10181 99368 71219 46/// ///// 1//// 91820 22200 00118 11803 20801 328// 41802 70013
BBXX 46229 10181 99438 71246 46/// ///// 1//// 91821 22200 00103 11705 20901 328// 41705 70024
BBXX 46225 10181 99329 71174 46/// ///// 1//// 91814 22200 00159 11802 21001 326// 41801 70008
BBXX 46215 10181 99352 71209 46/// ///// 1//// 91808 22200 00147 11803 20901 326// 41802 70013
BBXX 46219 10181 99332 71199 46/// ///// 1//// 91828 22200 00135 11805 21003 330// 41804 70023
BBXX 46224 10181 99332 71175 46/// ///// 1//// 91806 22200 00153 11401 21001 322// 41401 70006
BBXX 46214 10181 99379 71235 46/// ///// 1//// 91827 22200 00113 11704 20802 329// 41704 70020
BBXX 51204 10181 99213 71581 46/// ///// 1//// 91822 22200 00248 11303 20702 330// 41302 70014
BBXX 51201 10181 99217 71581 46/// ///// 1//// 91812 22200 00243 11405 20603 332// 41404 70025
BBXX 51202 10181 99214 71577 46/// ///// 1//// 91809 22200 00240 10805 20805 336// 41402 70025
AAXX 10184 41915 31920 00000 10142 20130 30114 40140 71044 333 58015 70000
AAXX 10184 41941 31940 00000 10196 20180 30125 40131 70500 333 58018 70000
AAXX 10184 41984 31940 00000 10184 20170 30121 40123 70500 333 58009 70000
AAXX 10181 55228 32980 00000 11146 21349 36018 52013 333 00052 11013
AAXX 10181 55578 32980 00000 11011 21201 36317 52013 333 05355 10097
AAXX 10181 55664 32980 00000 11072 21235 35971 52009 333 05202 10074
AAXX 10181 55773 32570 71803 11062 21096 35987 57001 879// 333 05204 10020
AAXX 10181 56116 11578 81101 11036 21037 36308 52005 69991 77087 885// 333 05154 10044
AAXX 10181 56137 32780 42701 10008 21133 36755 52006 84500 333 05100 10115
AAXX 10181 56172 11780 71401 11016 21022 37340 52001 60021 76870 875// 333 05251 10055
AAXX 10181 56247 32980 00000 10058 21100 37406 52010 333 00101 10158
AAXX 10181 56312 32680 81601 10030 21029 37063 52002 884// 333 05100 10125
AAXX 10181 56462 11580 81601 11030 21058 37140 57007 69911 78588 884// 333 00257 10038
AAXX 10181 56651 32980 00201 10057 21008 37644 54000 333 00001 10155
AAXX 10181 56691 32466 81802 11033 21047 37814 57008 886// 333 05201 11028
AAXX 10181 56985 32660 81101 10067 20010 38775 40268 57006 885// 333 00253 10093
AAXX 10181 57633 32760 71101 10003 21008 39526 40337 57006 875// 333 05452 10067
AAXX 10181 57902 32462 71102 10019 21010 38710 40309 57009 876// 333 05100 10049
AAXX 10181 55279 32880 32501 11130 21262 35678 52004 83400 333 00054 11015
AAXX 10181 55472 32980 00403 11108 21311 35711 52008 333 05154 11006
AAXX 10181 55696 32680 10000 11036 21081 36316 52003 81400 333 05151 10081
AAXX 10181 56079 32980 70202 11081 21128 36668 57007 80002 333 05401 11019
AAXX 10181 56106 32980 00000 11091 21202 36177 52006 333 00056 10051
AAXX 10181 56257 11680 12703 11021 21119 36249 57004 69901 70080 81400 333 05100 10052
AAXX 10181 56374 11580 80903 11058 21092 37448 57008 69901 78580 884// 333 05300 11006
AAXX 10181 56385 11/00 93202 11104 21109 37020 57009 69911 77074 333 05401 11066
AAXX 10181 56954 11563 80902 10155 20140 40154 57002 60031 78080 889// 333 00102 10248
AAXX 10181 56966 32775 80904 10139 20065 40247 57002 885// 333 00553 10166
AAXX 10181 57237 32962 53201 11016 21063 40340 57004 85040 333 10075
AAXX 10181 57306 32965 30000 10042 20019 40315 57010 83040 333 10120
AAXX 10181 57604 11750 81402 10051 20048 40319 57015 69911 71060 885// 333 10061
AAXX 10181 57707 32465 81401 10001 21012 38566 57011 886// 333 05300 10017
AAXX 10181 57832 32765 70000 11002 21024 39566 40335 57007 875// 333 05353 10070
AAXX 10184 62458 32960 00213 10174 20005 40204 52014 333 10236
AAXX 10184 62420 32960 03606 10140 20050 40255 52028 333 10196
AAXX 10184 62432 32960 03310 10161 20010 40229 52006 333 10236
AAXX 10184 62435 32960 03506 10158 20022 40212 52015 333 10214
AAXX 10184 62455 32960 03409 10146 20037 40242 52018 333 10205
AAXX 10184 62476 32960 03518 10208 20155 40158 52013 333 10240
AAXX 10184 62309 32560 60203 10152 20078 40268 52008 86800 333 10190
AAXX 10184 62325 32960 00000 10142 20070 40276 52016 333 10192
AAXX 10184 62332 32560 20210 10161 20076 40264 52011 82500 333 10185
AAXX 10184 62387 32960 03507 10136 20063 40237 52012 333 10192
AAXX 10184 62459 32960 03305 10178 20047 40200 52012 333 10209
AAXX 10184 62452 32960 03508 10102 20037 40270 53013 333 10166
AAXX 10184 62309 32560 60203 10152 20078 40268 52008 86800 333 10190
AAXX 10184 62325 32960 00000 10142 20070 40276 52016 333 10192
AAXX 10184 62332 32560 20210 10161 20076 40264 52011 82500 333 10185
AAXX 10184 62387 32960 03507 10136 20063 40237 52012 333 10192
AAXX 10184 62459 32960 03305 10178 20047 40200 52012 333 10209
AAXX 10184 62452 32960 03508 10102 20037 40270 53013 333 10166
AAXX 10181 28440 32997 01401 11128 21144 39951 40324 57005 333 11076
AAXX 1018/ 48969 NIL
AAXX 1018/ 48962 NIL
AAXX 1018/ 48990 NIL
AAXX 1018/ 48986 NIL
AAXX 1018/ 48995 NIL
AAXX 1018/ 48967 NIL
AAXX 1018/ 48992 NIL
AAXX 1018/ 48965 NIL
AAXX 1018/ 48985 NIL
AAXX 1018/ 48970 NIL
AAXX 1018/ 48991 NIL
AAXX 1018/ 48964 NIL
AAXX 1018/ 48997 NIL
AAXX 1018/ 48968 NIL
AAXX 1018/ 48973 NIL
AAXX 1018/ 48966 NIL
AAXX 1018/ 48983 NIL
AAXX 1018/ 48972 NIL
AAXX 1018/ 48998 NIL
AAXX 1018/ 48993 NIL
AAXX 1018/ 48971 NIL
AAXX 1018/ 48963 NIL
AAXX 1018/ 48987 NIL
AAXX 10181 20744 11497 71809 11020 21045 30128 40146 57007 69900 73683 85830 333 11004 83619
AAXX 10184 71048 16/// /2410 10029 21048 60001 333 10029 21096 70000
AAXX 10184 71406 17/// /2322 10021 20009 30099 40109 56028 60031 7//4/ 333 10021 21029 70031
AAXX 10184 71418 46/// /1716 10061 20038 30127 40160 58032 6///1 333 10064 20033 7////
AAXX 10184 71982 16/// /1303 11027 21108 60001 333 10063 21058 70000
AAXX 10184 71986 16/// /2619 10031 21035 60001 333 10036 21093 70000
AAXX 10184 71990 17/// /2202 11186 21205 38531 40183 51016 69941 7//4/ 333 11131 21189 70007
AAXX 10184 71277 46/// /2514 10009 21057 6///1 333 10011 21056 7////
AAXX 10184 71824 46/// /2803 11154 21187 6///1 333 11137 21174 7////
AAXX 10184 71354 17/// /2304 11055 21088 69941 7//4/ 333 21089 7////
AAXX 10184 71982 16/// /1303 11027 21108 60001 333 10063 21058 70000
AAXX 10184 71986 16/// /2619 10031 21035 60001 333 10036 21093 70000
AAXX 10184 71990 17/// /2202 11186 21205 38531 40183 51016 69941 7//4/ 333 11131 21189 70007
AAXX 10184 71406 17/// /2322 10021 20009 30099 40109 56028 60031 7//4/ 333 10021 21029 70031
AAXX 10184 71418 46/// /1716 10061 20038 30127 40160 58032 6///1 333 10064 20033 7////
AAXX 10184 71048 16/// /2410 10029 21048 60001 333 10029 21096 70000
AAXX 10181 37470 31496 83002 10066 20034 30301 40279 52004 78082 889// 333 10081
AAXX 10181 37472 31596 83103 10051 20017 30303 40280 51008 71022 8357/ 333 10075
AAXX 10181 38750 32997 02703 10071 20048 30247 40219 53015 333 10144
AAXX 10181 38111 11596 80802 10010 20005 30284 40255 52003 69940 76062 8802/ 333 10009
BBXX A8EH3 10183 99474 11549 41395 82724 10030 20006 40038 57010 77277 887// 22215 04030 2//// 80020
BBXX BATFR41 10184 99435 10077 46/// /2317 10157 20112 40156 50002 22272
BBXX BATEU09 10184 99435 10088 46/// /2116 10152 20124 40168 50004 22252 00162
BBXX 61001 10184 99434 10078 46/// /2215 10153 20122 40560 52006 22200 00157 10402 70011
BBXX BATFR24 10184 99433 10054 46/// /2101 10139 20087 40181 22241 00152
BBXX 61002 10184 99421 10047 46/// ///06 10143 2//// 40174 52004 22200 00151 10401 70003
BBXX PDYI 10183 99416 10039 41/98 /3403 10173 20117 40165 53005 702// 8//// 22263 20200 32300 40401 5//// 80140
BBXX BATFR20 10184 99415 10094 44698 30614 10162 20122 40171 70000 8318/ 22244
BBXX BAREU62 10184 99408 10282 46/// ///// 40243 22264
BBXX BATFR01 10184 99400 10122 46/// /2114 10174 20137 40180 51004 22232 00182
BBXX BATFR46 10184 99387 10004 44997 11109 10157 20105 40178 52004 70100 81//1 22253 00174 22040
BBXX BATFR09 10184 99383 10068 44497 72614 10172 20120 40197 70311 8523/ 22222 00192 20000 30000 40000 50000
BBXX ZCBW2 10183 99379 10045 41498 72418 10160 20110 40190 56010 71521 8327/ 22253 00200 20602 3//// 4//// 5//// 80130
BBXX NWS0020 10184 99379 10236 43/// /2301 10139 20087 40247 5//// 7//// 8//// 222// 04187 2//// 3//// 4//// 5//// 6//// 8//// /////
BBXX BAREU05 10184 99377 70005 46/// ///// 40181 52005 22254
BBXX PEBT 10183 99374 10243 41997 12215 10150 20119 40250 54000 7//00 80005 22253 02120 20401 300// 40000 5//// 80132
BBXX BATFR11 10184 99367 10015 46/// /2705 10169 20124 40195 51005 22262 00177
BBXX BAREU63 10184 99361 10207 46/// /2911 10178 29078 40260 52006 22233
BBXX A8OZ4 10184 99350 10208 43898 22214 10170 20120 40270 54000 7//// 82/// 22274 00179 80140
BBXX WBDS 10183 99344 10220 41598 33010 10150 2008/ 40280 51012 7//00 83200 22265 00180 20302 3//// 4//// 5//// 6//// 80110 /////
BBXX HZZB 10183 99342 10224 41598 32905 10160 2011/ 40281 51005 70200 83100 22233 0//// 20401 329// 40602 5//// 6//// 80130 /////
BBXX BATEU08 10184 99595 70033 46/// /2510 10044 21025 40012 56017 22223
BBXX 64045 10184 99591 70117 46/// /2522 10080 20030 49904 56014 22200 00103 10606 70031 333 90710 91129
BBXX 62112 10184 99584 70002 47998 /2810 10047 21026 40033 52010 762// 22200
BBXX 62113 10184 99584 10002 47598 /2817 10049 21012 40032 52014 700// 22200
BBXX 62129 10184 99584 10003 46/// ///// 10047 21011 40029 52014 22200
BBXX 62114 10184 99583 10000 46/// /2819 10047 21022 40030 52012 22200
BBXX PJAI 10184 99581 70014 47599 /2713 10057 21018 40040 54000 700// 22200
BBXX BATUK01 10184 99580 70032 46/// /2114 10039 21017 40032 50/// 22261 00099
BBXX 62111 10184 99580 70003 46/// /2917 10052 21023 40048 50005 22200 10706 70028
BBXX AMOUK27 10184 99579 70052 46/// ///// 1//// 2//// 30008 40008 57026 91750
BBXX 62117 10184 99579 10000 47997 /2816 10055 21020 40042 52010 700// 22200 10605 70025
BBXX 63119 10184 99578 70022 41/97 60818 10051 21018 40025 55/// 701// 8//// 22200 2//// 330// 40606 5////
BBXX AMOUK19 10184 99574 70017 46/// ///// 10039 21023 30053 40063 54001 91750
BBXX AMOUK21 10184 99564 70055 46/// ///// 10053 20042 30046 40046 57016 91750
BBXX 62105 10184 99554 70122 46/// /2719 10091 20050 40008 57004 22200 00108 10808 70042 333 90710 91127
BBXX AMOUK03 10184 99537 70003 46/// ///// 10041 20026 30083 40112 52007 91750
BBXX MGSG6 10183 99537 10003 41597 72627 10060 20036 40118 54000 70322 85974 22200 04108 20404 325// 40505 5//// 80050
BBXX AMOUK02 10184 99535 70037 46/// ///// 10079 20038 30092 40123 57010 91750
BBXX BATEU02 10184 99534 70108 46/// /2423 10102 20092 40052 56029 22232 00110
BBXX AMOUK14 10184 99533 70062 46/// ///// 10069 20025 30080 40120 57011 91750
BBXX AMOUK11 10184 99533 70060 46/// ///// 10076 20026 30071 40116 57015 91750
BBXX AMOUK12 10184 99533 70055 46/// ///// 10080 20038 30081 40123 57022 91750
BBXX 62095 10184 99530 70159 46/// /2720 10099 20050 40072 56002 22200 00117 10708 70039 333 90710 91133
BBXX 62301 10184 99524 70047 46/// /2516 10088 20036 40132 57009 22200 00104 10403 70016
BBXX AMOUK16 10184 99523 70063 46/// ///// 10080 20049 30125 40126 57027 91750
BBXX 62094 10184 99517 70067 46/// /2218 10095 20060 40136 58013 22200 00114 10403 70015 333 90710 91125
BBXX 62303 10184 99516 70051 46/// /2413 10096 20044 40144 57011 22200 00119 10503 70013
BBXX 62023 10183 99514 70079 46/97 /2424 10089 2//// 40150 5//// 22200 10403 70015 555 70025 80017
BBXX BAREU04 10184 99513 70258 46/// ///// 40131 57003 22224
BBXX 62081 10184 99510 70134 46/// ///// 10115 20107 40106 57017 22200 00120 10808 70039
BBXX AMOUK06 10184 99507 70014 46/// ///// 10082 20025 30151 40171 54002 91750
BBXX 62305 10184 99504 10000 46/98 /2811 10088 20004 40185 52008 22200 00128 10501 70004
BBXX BAREU12 10184 99502 70059 46/// ///// 40162 57007 22283
BBXX AMOUK08 10184 99501 70061 46/// ///// 10095 20050 30161 40168 57007 91750
BBXX 62103 10184 99499 70029 46/// /2912 10093 20003 40170 55002 22200 00129 10802 70009
BBXX BATFR03 10184 99499 70005 46/// /3111 10094 21003 40177 22283
BBXX DBBH 10181 99496 70039 41498 22505 10093 20011 40181 52002 70111 82800 22253 04130
BBXX BATFR62 10184 99496 70007 46/// /2509 10095 20037 40183 53002 22212 00135
BBXX 62027 10184 99491 70022 46/// /1704 1//// 2//// 40178 58003 22200 00127 11102 326// 70010
BBXX 62442 10184 99490 70164 46/// /3119 1//// 2//// 40140 55008 22200 00130 333 90710 91125
BBXX WKAE 10183 99489 70195 41598 82919 10112 20052 40165 56010 70222 888// 22224 00120 2//// 3//// 4//// 5//// 6//// 80082 /////
BBXX 62029 10184 99487 70125 46/// /2418 10111 20079 40164 56012 22200 00136 10907 70036
BBXX VRGJ6 10183 99484 70062 41598 72910 10120 20029 40180 51009 703// 86559 22254 04129 20402 329// 40504 5//// 80080
BBXX BATFR42 10184 99484 70048 46/// /1408 10090 20047 40179 52004 22243 00157
BBXX BATFR12 10184 99482 70066 46/// /2603 10102 20037 40187 53002 22222 00147
BBXX BATFR61 10184 99477 70053 46/// /1006 10109 20030 40184 51008 22262 00144
BBXX BATFR44 10184 99477 70046 46/// /0707 10107 20024 40186 51008 22221 00125
BBXX C6JS 10183 99476 70137 41398 82412 10120 2008/ 40180 54000 70322 8517/ 22224 20402 303// 40805 5//// 80100
BBXX BATFR16 10184 99476 70127 44097 62416 10117 40180 57009 70011 8657/ 22224 00144 21502 304// 41502 5//// 60/// ICE 0////
BBXX 62163 10184 99475 70084 46/// /0304 10106 20039 40186 50004 22200 00134 10805 70025
BBXX BATFR54 10184 99472 70039 46/// /0612 10104 20042 40181 51006 22233 00142
BBXX C6CU6 10183 99458 70111 41598 63415 10115 20085 40210 58020 70211 84548 22253 04140 20701 333// 41006 5//// 80100
BBXX SBLW 10183 99456 70139 43/98 72607 10110 40213 58002 22254 00147 2//// 4////
BBXX 62001 10184 99452 70050 46/// /0209 10139 20114 40170 52014 22200 00153 10906 70030
BBXX BAREU06 10184 99396 70231 46/// ///// 40263 52002 22264
BBXX BATFR46 10184 99387 10004 44997 11109 10157 20105 40178 52004 70100 81//1 22253 00174 22040
BBXX WDE8264 10183 99386 70185 41497 73111 10180 20164 40260 57010 70320 85282 22224 00190 20402 336// 40502 5//// 6//// 80170 /////
BBXX PHBO 10183 99385 70259 41598 42712 10171 20141 40285 53008 70211 83943 22254 2//// 330// 40401 80154
BBXX OWFD2 10181 99382 70097 41597 73112 10185 20153 40190 50150 75055 8/9// 22284 04170 20402 331// 41205 80165
BBXX BAREU05 10184 99377 70005 46/// ///// 40181 52005 22254
BBXX PBEO 10183 99363 70046 41597 52621 10166 20093 40195 52013 70311 83596 22252 02166 20503 323// 40503 80125
AAXX 10184 97120 01460 70203 10250 20230 30054 40087 57015 69911 71562 83871 333 56000 57801 69907 82818 85360 80860
AAXX 10184 62357 32960 03604 10124 20070 40267 52016 333 10198
AAXX 10184 62423 32960 03608 10106 20030 40261 52014 333 10188
AAXX 10184 62403 32960 03604 10156 20056 40197 52011 333 10236
AAXX 10184 62357 32960 03604 10124 20070 40267 52016 333 10198
AAXX 10184 62423 32960 03608 10106 20030 40261 52014 333 10188
AAXX 10184 62403 32960 03604 10156 20056 40197 52011 333 10236
BBXX 41052 10181 99183 70648 46/// /0808 10265 40096 91830 333 91210
BBXX 41052 10181 99183 70648 46/// /0708 10270 40097 91820 333 91211
BBXX 41052 10181 99183 70648 46/// /0607 10272 40098 91810 333 91209
BBXX 41053 10181 99185 70661 46/// /0808 10273 40103 91830 333 91210
BBXX 41053 10181 99185 70661 46/// /0907 10268 40104 91820 333 91209
BBXX 41053 10181 99185 70661 46/// /0908 10270 40104 91810 333 91210
BBXX 44024 10181 99423 70659 46/30 /2004 10096 40174 56017 91804 22200 00091 10603 70013 333 91204 555 11048 22053
BBXX 42360 10181 99267 70905 46/// /0310 10177 91800 22200 00246 10704 70020 333 91213
BBXX C6W2032 10183 99044 70100 41798 71913 10290 2023/ 56/// 70322 87852 22233 00290 20201 314// 40201 50201 6//// 80250 ICE /////
BBXX GDTT 10184 99246 70737 41598 61117 10260 20246 40187 58/// 7//22 852// 22273 00300 20304 305// 40304 80250
AAXX 10184 83811 32597 32702 10274 20164 39186 40073 50005 83400
AAXX 10184 83844 32597 709// 10253 20181 30078 40085 56008 84460
AAXX 10184 83887 32597 21406 10236 20132 39052 40089 57016 82100
AAXX 10184 83907 32997 01404 10326 20160 39800 40076 56015
AAXX 10184 83914 31596 21406 10278 20109 39331 40090 57012 70500 82100
AAXX 10184 83919 31496 62308 10226 20134 38943 40115 58011 70421 86200
AAXX 10184 83927 32997 00904 10294 20140 30031 40101 57016
AAXX 10184 83936 32497 31806 10296 20161 39984 40103 57010 83200
AAXX 10184 83948 32497 20908 10238 20201 30100 40106 56002 81260
AAXX 10184 83964 31596 51406 10262 20137 39616 40098 57014 70500 85100
AAXX 10184 83995 21497 80910 10208 20182 30118 40121 58010 75021 886// 333 69921
AAXX 10184 82594 32697 40511 10306 20227 30064 40072 82011 333 58001
AAXX 10184 82780 32598 22302 10371 20177 39826 40070 82100 333 59004
AAXX 10184 82795 32597 20908 10313 20158 39479 40083 82100 333 59020
AAXX 10184 82879 32598 33204 10354 20185 39799 40059 83100 333 58007
AAXX 10184 82893 32798 41410 10294 20185 39182 40067 84200 333 59013
AAXX 10184 83384 32597 70903 10300 20216 39488 40054 85270 333 59007
AAXX 10184 83386 31498 52305 10328 20213 39502 40018 71500 83965 333 59029
AAXX 10184 83388 32497 60506 10326 20188 39361 40011 84206 333 59031
AAXX 10184 83393 21599 60000 10272 20205 39334 40038 76069 83532 333 59026 60031
AAXX 10184 83442 32597 60000 10340 20234 39672 40005 82256 333 59032
AAXX 10184 83479 31598 82710 10285 20192 39279 40064 71522 889// 333 59007
AAXX 10184 83483 32598 81802 10300 20232 39492 40042 83140 333 59001
AAXX 10184 83531 21597 62703 10212 20198 39046 40075 76062 86500 333 59014 60031
AAXX 10184 83538 21497 82705 10233 20170 38664 40028 70252 8374/ 333 59013 69941
AAXX 10184 83574 21794 80502 10256 20213 39568 40176 5//// 76066 88600 333 60031
AAXX 10184 83582 21598 73602 10205 20198 39301 40063 58009 76362 87700 333 60151
AAXX 10184 83595 21597 83602 10270 20256 39982 40066 70366 855// 333 59013 69921
AAXX 10184 83692 21697 82306 10198 20186 39028 40052 54000 72162 887// 333 60081
BBXX 44039 10181 99411 70727 46/// /3206 10061 21021 91753 22200 00110 10301 70005 333 91208
BBXX V7QX2 10184 99063 10948 41/// /0309 10280 2028/ 40080 5/000 7//// 8//// 222// 00290 20601 3//// 4//// 5//// 6//// 80280 ICE /////
BBXX WRAH 10184 99127 10472 41698 10813 10230 2//// 40146 58/// 7//00 818// 22254 00277 20402 306// 40404 5//// 6//// 8//// ICE /////
BBXX WDE2719 10183 99607 71514 41/97 80510 11044 2//// 40160 5//// 702// 8//// 222// 01017 2//// 327// 4//01 5//// 6//// 8//// ICE /////
BBXX A8EH3 10183 99474 11549 41395 82724 10030 20006 40038 57010 77277 887// 22215 04030 2//// 80020
BBXX WRYC 10184 99064 10929 43/// /0710 10280 2026/ 40092 57003 7//// 8//// 22265 00287 2//// 3//// 4//// 5//// 6//// 80265 ICE /////
BBXX V7QX2 10184 99063 10948 41/// /0309 10280 2028/ 40080 5/000 7//// 8//// 222// 00290 20601 3//// 4//// 5//// 6//// 80280 ICE /////
BBXX DHDH 10184 99138 10514 41698 50625 10230 20169 40150 54000 70211 8514/ 22224 00240 20302 80190
BBXX 2ALE5 10183 99055 70106 41698 32207 10285 20242 40080 55004 70200 83400 22275 20402 318// 40802 80255
BBXX 2BLY5 10183 99032 70269 41/98 70707 10255 20233 40097 58018 78082 8741/ 22253 00280 20301 313// 40602 80240
BBXX DDZF2 10184 99131 10492 41/97 /0921 10260 20186 40155 53010 70200 8//// 22225 00270 20303 80210
BBXX WRAH 10184 99127 10472 41698 10813 10230 2//// 40146 58/// 7//00 818// 22254 00277 20402 306// 40404 5//// 6//// 8//// ICE /////
BBXX 42360 10181 99267 70905 46/// /0310 10177 91800 22200 00246 10704 70020 333 91213
BBXX 41052 10181 99183 70648 46/// /0607 10272 40098 91810 333 91209
BBXX 44024 10181 99423 70659 46/30 /2004 10096 40174 56017 91804 22200 00091 10603 70013 333 91204 555 11048 22053
BBXX 41053 10181 99185 70661 46/// /0907 10268 40104 91820 333 91209
BBXX 41053 10181 99185 70661 46/// /0808 10273 40103 91830 333 91210
BBXX 41053 10181 99185 70661 46/// /0908 10270 40104 91810 333 91210
BBXX 41052 10181 99183 70648 46/// /0708 10270 40097 91820 333 91211
BBXX 41052 10181 99183 70648 46/// /0808 10265 40096 91830 333 91210
BBXX 46224 10181 99332 71175 46/// ///// 1//// 91806 22200 00153 11401 21001 322// 41401 70006
BBXX 46219 10181 99332 71199 46/// ///// 1//// 91828 22200 00135 11805 21003 330// 41804 70023
BBXX 46229 10181 99438 71246 46/// ///// 1//// 91821 22200 00103 11705 20901 328// 41705 70024
BBXX 46215 10181 99352 71209 46/// ///// 1//// 91808 22200 00147 11803 20901 326// 41802 70013
BBXX 46225 10181 99329 71174 46/// ///// 1//// 91814 22200 00159 11802 21001 326// 41801 70008
BBXX 46236 10181 99368 71219 46/// ///// 1//// 91820 22200 00118 11803 20801 328// 41802 70013
BBXX 46214 10181 99379 71235 46/// ///// 1//// 91827 22200 00113 11704 20802 329// 41704 70020
BBXX 46243 10181 99462 71241 46/// ///// 1//// 91829 22200 00084 11703 20901 327// 41702 70014
BBXX 44060 10181 99413 70721 46/// ///07 10058 91830 22200 00116 333 91210 555 11072 22077
BBXX 44022 10181 99409 70737 46/// ///06 10052 21042 91830 22200 00100 333 91210 555 11067 22067
BBXX 44040 10181 99410 70736 46/// /3108 10054 21039 91819 22200 10201 70003 333 91211 555 11098 22113
BBXX 44041 10181 99372 70768 46/// /0104 1//// 40291 91810 333 91206
BBXX 44062 10181 99386 70764 46/// /3507 10073 40262 55012 91800 22200 00101 10301 70007 333 91209
BBXX 44042 10181 99380 70763 46/// /3506 1//// 91820 333 91209
BBXX 44041 10181 99372 70768 46/// /0104 10082 40292 58009 91800 22200 00113 1//00 70002 333 91207
BBXX 44063 10181 99390 70764 46/// /3207 10072 40278 58016 91800 22200 00093 10201 70003 333 91209
BBXX 42363 10181 99282 70892 46/// /0414 10156 20056 40271 91830 333 91214
BBXX 42364 10181 99291 70881 46/// /0212 10150 20044 40264 91830
BBXX 42362 10181 99278 70907 46/// /0313 10161 20044 40275 91830
BBXX 41110 10181 99341 70777 46/// ///// 1//// 91821 22200 00152 11102 20802 70009
BBXX 42362 10181 99278 70907 46/// /0313 10156 20050 40278 91815
BBXX 41113 10181 99284 70805 46/// ///// 1//// 91821 22200 00221 10502 20502 70010
BBXX 41112 10181 99307 70813 46/// ///// 1//// 91821 22200 00166 10603 20603 70015
BBXX 44043 10181 99392 70764 46/// /3308 10071 40268 58010 91800 22200 00085 10201 70005 333 91212
BBXX 44100 10181 99363 70756 46/// ///// 1//// 91822 22200 00143 10705 20705 70024
BBXX 44043 10181 99392 70764 46/// /3210 1//// 40268 91810 333 91211
BBXX 44042 10181 99380 70763 46/// /3606 10080 40273 57007 91800 22200 00106 10301 70004 333 91208
BBXX 44043 10181 99392 70764 46/// /3208 1//// 91820 333 91210
BBXX 44042 10181 99380 70763 46/// /3506 1//// 40272 91810 333 91208
BBXX 44062 10181 99386 70764 46/// /3507 1//// 40256 91810 22200 00101 333 91208
BBXX 44041 10181 99372 70768 46/// /0104 1//// 91820 333 91206
BBXX 44063 10181 99390 70764 46/// /3206 1//// 91820 333 91208
BBXX 44063 10181 99390 70764 46/// /3207 1//// 40279 91810 333 91208
BBXX 44062 10181 99386 70764 46/// /3607 1//// 91820 22200 00101 333 91209
BBXX 46239 10181 99363 71221 46/// ///// 1//// 91821 22200 00136 11704 20802 331// 41703 70019
BBXX 51205 10181 99210 71564 46/// ///// 1//// 91818 22200 00243 11405 20704 333// 41403 70026
BBXX 46238 10181 99334 71195 46/// ///// 1//// 91820 22200 00152 11803 20502 329// 41803 70016
BBXX WDE8265 10183 99421 70599 41296 82619 10172 2015/ 40156 57049 75352 8872/ 22264 00160 20402 316// 40704 5//// 6//// 80156 ICE /////
BBXX 44039 10181 99411 70727 46/// /3206 10061 21021 91753 22200 00110 10301 70005 333 91208
BBXX 44056 10181 99362 70757 46/// ///// 1//// 91750 22200 00139 10705 20705 308// 41101 70023
BBXX 46246 10181 99500 71451 46/// ///// 1//// 91759 22200 00076 11405 21003 328// 41404 70027
BBXX 46246 10181 99500 71451 46/// ///// 1//// 91829 22200 00076 11306 21003 328// 41305 70030
BBXX 46247 10181 99378 71228 46/// ///// 1//// 91821 22200 00115 11803 20802 329// 41802 70014
BBXX 46232 10181 99325 71174 46/// ///// 1//// 91808 22200 00149 11802 21001 327// 41802 70010
BBXX 44058 10181 99376 70763 46/// /0208 10079 40266 58011 91800 22200 00108 10301 70007 333 91210
BBXX 44058 10181 99376 70763 46/// /0207 1//// 40267 91810 333 91209
BBXX 44057 10181 99395 70761 46/// /3406 10062 40269 58009 91800 22200 00071 333 91208
BBXX 44058 10181 99376 70763 46/// /0207 1//// 91820 333 91209
BBXX 44057 10181 99395 70761 46/// /3407 1//// 40269 91810 333 91208
BBXX 44057 10181 99395 70761 46/// /3406 1//// 91820 333 91209
BBXX 44059 10181 99368 70763 46/// /0106 1//// 40260 91810 333 91209
BBXX 44059 10181 99368 70763 46/// /3607 10083 40260 58008 91800 22200 00122 333 91210
BBXX 44059 10181 99368 70763 46/// /0206 1//// 91820 333 91209
BBXX 44061 10181 99388 70770 46/// /3605 10067 40279 58007 91800 22200 00075 333 91208
BBXX 44061 10181 99388 70770 46/// /3605 1//// 40279 91810 333 91208
BBXX 44061 10181 99388 70770 46/// /3505 1//// 91820 333 91210
BBXX 46092 10181 99368 71220 46/// /1703 10096 40209 52012 91757 22200 00119 555 11026 22026
BBXX CFO383 10184 99439 70602 47796 /2011 10101 2010/ 40195 57002 761// 8/ // 22200 00086 10603 2//// 3//// 4//// 5//// 6//// 70016 80102 333 91012
BBXX A8IF4 10183 99382 71754 41297 82244 10180 20139 40060 57030 70222 887// 22263 21010 325// 41206 80155
BBXX 44138 10181 99443 70536 46/// /1612 10083 40257 5//// 22200 00090 11104 70022 333 91214
BBXX 44137 10181 99423 70620 46/// /0008 10112 40171 57043 22200 00128 10603 70017 333 91210
BBXX A8IY2 10183 99439 71340 41297 83520 10100 20081 40260 53020 75082 8/77/ 22274 00120 20203 334// 40305 5//// 80090
BBXX KEY796 10183 99571 71703 41/97 72319 10011 21005 49774 51/// 702// 8//// 222// 00028 2//// 3//// 4//// 5//// 6//// 8//// ICE /////
BBXX 42361 10181 99276 70925 46/// ///14 10161 20056 40264 58017 91830 555 11116 22124
BBXX DMQN 10183 99321 70178 41598 40511 10195 20164 40248 55002 70311 82170 22214 04210 21301 3//// 4//// 5//// 80175
BBXX PGQI 10183 99333 70127 41497 43206 10161 20126 40230 5/000 70200 82140 22253 20201 332// 40904 80140
BBXX C6CU6 10183 99458 70111 41598 63415 10115 20085 40210 58020 70211 84548 22253 04140 20701 333// 41006 5//// 80100
BBXX PBEO 10183 99363 70046 41597 52621 10166 20093 40195 52013 70311 83596 22252 02166 20503 323// 40503 80125
BBXX 64049 10183 99571 10022 41/97 72830 10065 20065 40027 53006 70022 8//// 22200 20610 3//// 4//// 5//// 80065
BBXX 62107 10184 99501 70061 46/// /2418 10090 20041 40167 57006 22200 00121 10903 70014
BBXX 62094 10184 99517 70067 46/// /2218 10095 20060 40136 58013 22200 00114 10403 70015 333 90710 91125
BBXX PHBO 10183 99385 70259 41598 42712 10171 20141 40285 53008 70211 83943 22254 2//// 330// 40401 80154
BBXX 62095 10184 99530 70159 46/// /2720 10099 20050 40072 56002 22200 00117 10708 70039 333 90710 91133
BBXX WE3806 10184 99435 70824 41/98 12714 11050 2//// 40301 54000 70200 8//// 22203 00067 2//02 3//// 4//// 5//// 6//// 8//// ICE /////
BBXX A8IE6 10184 99047 11063 41697 70426 10270 20236 40085 56030 70300 8/5// 22214 04280 20506 80245
BBXX A8VL5 10184 99028 11052 41/97 /0423 10260 20232 40218 50/// 758// 8/3// 22255 04270 2//03 80240
AAXX 10181 47008 42570 61401 11035 21096 30131 40187 58025 86500
AAXX 10181 47014 42950 80000 11127 21147 39809 40236 52003 8804/
AAXX 10181 47016 42770 70000 11147 21170 39337 40234 58021 87070
AAXX 10181 47020 42965 70000 11090 21119 39888 40288 52015 80006
AAXX 10181 47025 42960 03202 11015 21133 30167 40197 52017
AAXX 10181 47035 42970 00000 11070 21100 30250 40259 54000
AAXX 10181 47041 42970 00000 11072 21115 30178 40207 52006
AAXX 10181 47055 42970 02302 11010 21060 30179 40226 54000
AAXX 10181 47058 42560 80501 11045 21080 30218 40267 54000 885//
AAXX 10181 47069 42565 10000 11016 21053 30155 40258 52005 81500
AAXX 10181 47003 42980 00000 11055 21126 30189 40193 52007
AAXX 10181 47005 11550 81401 11156 21175 38563 52004 69931 77177 885//
AAXX 10181 47022 42475 23405 11106 21179 38793 52005 82900
AAXX 10181 47028 42962 02701 11079 21110 30147 40246 58001
AAXX 10181 47031 42970 03204 11116 21136 38912 52008
AAXX 10181 47037 42970 00000 11075 21110 30132 40261 52002
AAXX 10181 47039 42960 40000 11090 21115 30071 40273 52002 84030
AAXX 10181 47046 42969 02702 11027 21133 30172 40195 52009
AAXX 10181 47050 42965 00000 11070 21108 30218 40254 52003
AAXX 10181 47052 42565 80000 11068 21092 39914 40269 57004 885//
AAXX 10181 47060 42560 81101 11015 21032 30195 40255 58001 885//
AAXX 10181 47061 42980 00000 10009 21085 30155 40199 54000
AAXX 10181 47065 42570 81101 11025 21051 30200 40268 52004 885//
AAXX 10181 47067 41560 80000 11044 21057 30154 40279 57002 71022 885//
AAXX 10181 47068 42570 71404 11023 21042 30217 40253 53005 87500
AAXX 10181 47070 42970 80000 11037 21047 30178 40269 52003 8803/
AAXX 10181 47075 42580 82301 11044 21075 39759 40202 52009 885//
AAXX 10181 45032 36/// /0105 10084 21087 30227 40245 57001 333 91110
AAXX 10181 45035 36/// /0205 10093 21033 30201 40245 57002
AAXX 10181 45039 36/// /3403 10088 21057 30220 40236 57002
AAXX 10181 45044 36/// /0012 10094 21029 30124 40221 57001 333 91117
AAXX 10181 45032 36/// /0105 10084 21087 30227 40245 57001 333 91110
AAXX 10181 45035 36/// /0205 10093 21033 30201 40245 57002
AAXX 10181 45039 36/// /3403 10088 21057 30220 40236 57002
AAXX 10181 45044 36/// /0012 10094 21029 30124 40221 57001 333 91117
AAXX 10184 47575 12/65 72004 10003 21026 30118 40123 58011 69901 81202
AAXX 10184 47887 12/70 31403 10044 21004 30194 40237 53002 60001 82830
AAXX 10184 47590 11/70 83104 10024 21009 30082 40137 56014 69901 72611 8421/
AAXX 1018/ 89866 46/// ///// 11054 39638 4//// 5//// 91820
AAXX 1018/ 89329 46/// ///// 11109 38632 4//// 5//// 91820
AAXX 1018/ 89327 46/// ///// 11018 39491 4//// 5//// 91820
AAXX 1018/ 89332 46/// ///// 11064 39124 4//// 5//// 91820
AAXX 1018/ 89769 46/// ///// 11060 39720 4//// 5//// 91820
AAXX 1018/ 89314 46/// ///// 11134 38084 4//// 5//// 91820
BBXX A8SZ5 10184 99327 11239 41497 83118 10070 20026 40280 54000 702// 8/7// 22243 00/// 2//03 80050
BBXX DDDI2 10184 99103 30736 41/98 30510 10285 20237 40105 51010 70200 8//// 22254 04290 2//// 80250
BBXX DFUM2 10183 99144 10554 41698 60320 10245 20231 40160 51010 70211 864// 22264 00260 20405 80235
BBXX ELUC5 10184 99219 31772 41598 80808 10256 20237 40117 58003 70211 8137/ 22264 00/// 20701 304// 41502 80242
BBXX OXVD2 10183 99388 31427 41598 31611 10153 20095 40065 52012 70311 83100 22263 04170 2//// 80123
BBXX VRBQ6 10184 99312 11518 41598 83507 10200 20116 40214 54000 70320 885// 22214 00229 2//// 80150
BBXX VQIB9 10183 99092 11171 41/98 51924 10270 20166 40055 54000 70222 81448 22214 00/// 2//// 80205
BBXX VRGL4 10184 99102 10655 41397 50519 10280 20252 40116 51/// 70322 84241 22224 00286 20504 305// 40504 80260
BBXX 9VDD2 10184 99524 71754 41498 62225 10030 21020 4//// 56010 72772 852// 22263 06005 20605 328// 40807 80010
BBXX 9MCN8 10184 99113 11182 41498 81820 10275 20238 40075 5//// 70321 85/// 22213 00300 2//// 80249
AAXX 10184 71565 17/// /3414 11034 21092 69961 7//4/ 333 11034 21151 70006
AAXX 10184 71566 17/// /3116 10037 21074 69971 7//4/ 333 10037 21065 70007
AAXX 10184 71567 16/// /1302 11044 21079 60001 333 11026 21076 70000
AAXX 10184 71012 16/// /1906 11018 21073 60001 333 11005 21073 70000
AAXX 10184 71013 16/// ///// 10045 21046 60001 333 10045 21084 70000
AAXX 10184 71060 16/// /2703 10046 21080 38558 40112 53010 60001 333 10046 21052 70000
AAXX 10184 71399 16/// ///// 11006 21061 60001 333 11006 21098 70000
AAXX 10184 71073 16/// /2014 10015 21051 60001 333 10049 21011 70000
AAXX 10184 71495 16/// /2516 10054 21080 60001 333 10054 20009 70000
AAXX 10184 71974 46/// /1410 11307 21333 30074 40119 53001 6///1 333 11306 21325 7////
AAXX 10184 71793 16/// ///// 11023 21060 60001 333 11023 21109 70000
AAXX 10184 71848 16/// ///// 10043 21049 60001 333 10048 21004 70000
AAXX 10184 71793 16/// ///// 11023 21060 60001 333 11023 21109 70000
AAXX 10184 71495 16/// /2516 10054 21080 60001 333 10054 20009 70000
AAXX 10184 71012 16/// /1906 11018 21073 60001 333 11005 21073 70000
AAXX 10184 71013 16/// ///// 10045 21046 60001 333 10045 21084 70000
AAXX 10184 71060 16/// /2703 10046 21080 38558 40112 53010 60001 333 10046 21052 70000
AAXX 10184 71974 46/// /1410 11307 21333 30074 40119 53001 6///1 333 11306 21325 7////
AAXX 10184 71073 16/// /2014 10015 21051 60001 333 10049 21011 70000
AAXX 10184 71565 17/// /3414 11034 21092 69961 7//4/ 333 11034 21151 70006
AAXX 10184 71566 17/// /3116 10037 21074 69971 7//4/ 333 10037 21065 70007
AAXX 10184 71567 16/// /1302 11044 21079 60001 333 11026 21076 70000
AAXX 10184 71848 16/// ///// 10043 21049 60001 333 10048 21004 70000
AAXX 10184 71399 16/// ///// 11006 21061 60001 333 11006 21098 70000
BBXX 46241 10181 99330 71173 46/// ///// 1//// 91811 22200 00145 12001 21001 326// 42001 70006
AAXX 10184 89646 46/// /0202 11310 29074 37519 4//// 5////
AAXX 10184 89648 46/// /2206 11341 29069 37074 4//// 5////
AAXX 10184 89659 46/// /3217 11270 29070 37563 4//// 5////
AAXX 10184 89661 46/// /0403 11060 29056 39119 4//// 5////
AAXX 10184 89662 42980 00106 11029 21085 39643 49747 52009 222 ICE 98015 333 21029
AAXX 10184 89666 46/// /1713 11049 29089 39561 4//// 5////
BBXX MINUK05 1018/ 99571 70021 46/// ///// 10015 40057 57006
BBXX MINFR00 1018/ 99438 70240 46/// ///// 10125 40225 52013
BBXX 46216 10181 99343 71198 46/// ///// 1//// 91827 22200 00148 11802 21001 327// 41801 70008
BBXX 46223 10181 99335 71178 46/// ///// 1//// 91830 22200 00161 11801 21001 324// 41801 70007
BBXX 46231 10181 99327 71174 46/// ///// 1//// 91824 22200 00157 11802 20901 326// 41801 70008
BBXX 46222 10181 99336 71183 46/// ///// 1//// 91826 22200 00159 11801 21001 327// 41801 70007
BBXX 46242 10181 99332 71174 46/// ///// 1//// 91828 22200 00155 11801 21001 322// 41801 70006
AAXX 10181 89063 41497 83602 10023 20007 39703 49714 57020 72272 886// 333 44128
AAXX 10184 96645 11430 83304 10234 20230 30060 40092 57012 69961 71062 86572 333 56000 86612
AAXX 10184 97230 01460 83207 10258 20241 30079 40086 57013 60061 76062 82218 333 56000 57802 69987 82815 83460 86280 80858
AAXX 10184 97502 32450 70000 10240 20233 30068 40072 57022 85431 333 56000 85613
AAXX 10184 97378 32560 70000 10254 20248 39935 40098 56009 82172 333 56000 82820
BBXX AMOUK05 10184 99537 70003 46/// ///// 10039 20021 30073 40114 54002 91750
BBXX AMOUK08 10184 99501 70061 46/// ///// 10095 20050 30161 40168 57007 91750
BBXX PJGO 10184 99571 10022 47698 /2724 10059 21005 40048 52013 700// 22200
BBXX 63106 10184 99610 10017 46/// /3207 10062 49977 52020 22200
BBXX 63113 10184 99610 10017 46/// /3411 10061 20007 49977 52019 22200 10807 70034
BBXX 2AUO5 10183 99606 10016 41297 43115 10071 20020 49983 52020 7//// 8/7// 22281 20702 399// 40904 80050
AAXX 10184 78988 02484 50808 10300 20248 30085 40095 57023 60001 84201 333 59011 60007 84819 83081
AAXX 10184 78990 01/82 /0100 10305 20239 30097 57022 60001 70000 333 59009 60007
AAXX 10184 78873 NIL
AAXX 10184 63708 11450 73010 10204 20173 48485 60122 79511 8194/ 333 10300 58017 81919 87457
AAXX 10184 78988 02484 50808 10300 20248 30085 40095 57023 60001 84201 333 59011 60007 84819 83081
AAXX 10184 78990 01/82 /0100 10305 20239 30097 57022 60001 70000 333 59009 60007
AAXX 10184 78873 NIL
BBXX UCKD 10181 99552 10059 41496 92616 10068 40056 52002 76977 89/// 22212 00100 20814
AAXX 10184 71727 11556 83207 11095 21127 30027 40230 58002 69961 78511 86501 333 11044 21130 47013 70057 90952
AAXX 10184 71727 11556 83207 11095 21127 30027 40230 58002 69961 78511 86501 333 11044 21130 47013 70057 90952
BBXX 46221 10181 99339 71186 46/// ///// 1//// 91815 22200 00153 11801 21001 324// 41801 70006
BBXX 44099 10181 99369 70757 46/// ///// 1//// 91822 22200 00134 10603 20603 70016
BBXX 44039 10181 99411 70727 46/// /3107 10061 21018 91830 22200 00110 10301 70005 333 91210
AAXX 10184 71102 16/// ///// 11030 21075 60001 333 11026 21092 70000
AAXX 10184 71105 16/// ///// 10048 21035 60001 333 10057 21025 70000
AAXX 10184 71502 16/// /0107 11148 21156 30075 40091 53023 60001 333 21148 7////
AAXX 10184 71509 16/// /1907 10070 21065 60001 333 10074 20014 70000
AAXX 10184 71517 16/// /2703 10079 21081 60001 333 10086 21005 7////
AAXX 10184 71518 16/// /2318 10057 21034 60001 333 10057 21042 70000
AAXX 10184 71519 16/// /2314 10054 21034 60001 333 10057 21009 70000
AAXX 10184 71528 16/// /2327 10082 21073 60001 333 10083 20002 70000
AAXX 10184 71841 16/// /1603 11125 21194 39790 40206 58005 60001 333 11125 21221 7////
AAXX 10184 71433 46/// /2623 11029 21055 39989 40225 58005 6///1 333 11028 21061 7////
AAXX 10184 71006 16/// /2609 10033 21070 60001 333 10033 21067 70000
AAXX 10184 71007 16/// ///// 10051 21050 60001 333 10051 7////
AAXX 10184 71008 16/// /2906 11010 21050 60001 333 10043 21045 70000
AAXX 10184 71009 16/// /2717 10057 21052 60001 333 10059 21034 70000
AAXX 10184 71035 16/// ///// 10049 21053 60001 333 10054 21021 70000
AAXX 10184 71051 46/// ///// 10074 21076 6///1 333 10074 21113 7////
AAXX 10184 71057 16/// ///// 10037 21049 60001 333 10060 21015 70000
AAXX 10184 71070 46/// ///// 10061 21048 6///1 333 7////
AAXX 10184 71078 17666 82602 11166 21191 39670 40132 57001 60001 771// 333 11166 21243 70000
AAXX 10184 71089 16/// ///// 11026 21074 60001 333 10009 21095 70000
AAXX 10184 71404 46/// ///// 6///1 333 7////
AAXX 10184 71409 16/// ///// 10058 21045 60001 333 10059 21071 70000
AAXX 10184 71789 16/// ///// 10074 21080 60001 333 10074 20013 70000
AAXX 10184 71791 16/// /1406 11053 21086 60001 333 11024 21104 70000
AAXX 10184 71794 16/// ///// 11044 21081 60001 333 11044 21095 70000
AAXX 10184 71795 16/// ///// 10059 21035 60001 333 20006 7////
AAXX 10184 71796 16/// ///// 10009 21071 60001 333 10009 21114 70000
AAXX 10184 71841 16/// /1603 11125 21194 39790 40206 58005 60001 333 11125 21221 7////
AAXX 10184 71433 46/// /2623 11029 21055 39989 40225 58005 6///1 333 11028 21061 7////
BBXX 9VDD2 10184 99524 71754 41498 62225 10030 21020 4//// 56010 72772 852// 22263 06005 20605 328// 40807 80010
BBXX A8IF4 10183 99382 71754 41297 82244 10180 20139 40060 57030 70222 887// 22263 21010 325// 41206 80155
AAXX 1018/ 89327 46/// ///// 11023 39493 4//// 5//// 91830
AAXX 1018/ 89828 46/// ///// 11378 36419 4//// 5//// 91830
AAXX 1018/ 89108 46/// ///// 11253 36820 4//// 5//// 91830
AAXX 1018/ 89108 46/// ///// 11250 36821 4//// 5//// 91840
AAXX 1018/ 89879 46/// ///// 11024 39665 4//// 5//// 91830
AAXX 1018/ 89879 46/// ///// 11023 39666 4//// 5//// 91840
AAXX 1018/ 89667 46/// ///// 4//// 5//// 91820
AAXX 1018/ 89872 46/// ///// 11046 39707 4//// 5//// 91830
AAXX 1018/ 89869 46/// ///// 11058 39690 4//// 5//// 91830
AAXX 1018/ 89866 46/// ///// 11054 39639 4//// 5//// 91830
AAXX 1018/ 89329 46/// ///// 11111 38632 4//// 5//// 91830
AAXX 1018/ 89799 46/// ///// 11291 4//// 5//// 91830
AAXX 1018/ 89332 46/// ///// 11055 39124 4//// 5//// 91830
AAXX 1018/ 89769 46/// ///// 11060 39721 4//// 5//// 91830
AAXX 1018/ 89314 46/// ///// 11131 38085 4//// 5//// 91830
AAXX 10184 89667 46/// /0709 11070 39756 4//// 5//// 91830
AAXX 10184 17189 11957 11604 11048 21057 39106 48536 52006 60002 71000 81030 333 10031 81360
AAXX 10184 89807 46/// /2726 11058 29061 39647 4//// 5//// 91830 333 90700 91129
AAXX 10184 89807 46/// /2726 11058 29061 39647 4//// 5//// 91830 333 90700 91129
AAXX 10181 44329 32998 02303 11130 21253 37808 40396 58005
AAXX 10184 16021 11458 53206 11020 21024 37959 48481 53009 60002 71022 83204 333 10014 83610
AAXX 10181 89063 41497 83602 10023 20007 39703 49714 57020 72272 886// 333 44128
BBXX DFUM2 10183 99144 10554 41698 60320 10245 20231 40160 51010 70211 864// 22264 00260 20405 80235
BBXX VRGL4 10184 99102 10655 41397 50519 10280 20252 40116 51/// 70322 84241 22224 00286 20504 305// 40504 80260
BBXX C6W2032 10183 99044 70100 41798 71913 10290 2023/ 56/// 70322 87852 22233 00290 20201 314// 40201 50201 6//// 80250 ICE /////
BBXX SHIP 10184 99113 11182 41498 81820 10275 20238 40075 5//// 70321 85/// 22213 00300 2//// 80249
BBXX VQIB9 10183 99092 11171 41/98 51924 10270 20166 40055 54000 70222 81448 22214 00/// 2//// 80205
BBXX SHIP 10184 99312 11518 41598 83507 10200 20116 40214 54000 70320 885// 22214 00229 2//// 80150
BBXX A8SZ5 10184 99327 11239 41497 83118 10070 20026 40280 54000 702// 8/7// 22243 00/// 2//03 80050
BBXX DDSB2 10183 99075 50804 41398 51514 10215 20185 40130 57020 70222 82626 22274 20202 320// 40303 80195
BBXX 44039 10181 99411 70727 46/// /3107 10061 21018 91830 22200 00110 10301 70005 333 91210
BBXX 44099 10181 99369 70757 46/// ///// 1//// 91822 22200 00134 10603 20603 70016
BBXX 46221 10181 99339 71186 46/// ///// 1//// 91815 22200 00153 11801 21001 324// 41801 70006
BBXX 46242 10181 99332 71174 46/// ///// 1//// 91828 22200 00155 11801 21001 322// 41801 70006
BBXX 46223 10181 99335 71178 46/// ///// 1//// 91830 22200 00161 11801 21001 324// 41801 70007
BBXX 46222 10181 99336 71183 46/// ///// 1//// 91826 22200 00159 11801 21001 327// 41801 70007
BBXX 46216 10181 99343 71198 46/// ///// 1//// 91827 22200 00148 11802 21001 327// 41801 70008
BBXX 46231 10181 99327 71174 46/// ///// 1//// 91824 22200 00157 11802 20901 326// 41801 70008
BBXX 46241 10181 99330 71173 46/// ///// 1//// 91811 22200 00145 12001 21001 326// 42001 70006
BBXX 9VDD2 10184 99524 71754 41498 62225 10030 21020 4//// 56010 72772 852// 22263 06005 20605 328// 40807 80010
BBXX WDE2719 10183 99607 71514 41/97 80510 11044 2//// 40160 5//// 702// 8//// 222// 01017 2//// 327// 4//01 5//// 6//// 8//// ICE /////
BBXX GDTT 10184 99246 70737 41598 61117 10260 20246 40187 58/// 7//22 852// 22273 00300 20304 305// 40304 80250
BBXX UCKD 10181 99552 10059 41496 92616 10068 40056 52002 76977 89/// 22212 00100 20814
BBXX MINFR00 1018/ 99438 70240 46/// ///// 10125 40225 52013
BBXX 66022 10181 99541 10142 46/// /2312 10026 30050 22200 00047
BBXX MINUK05 1018/ 99571 70021 46/// ///// 10015 40057 57006
BBXX OXVD2 10183 99388 31427 41598 31611 10153 20095 40065 52012 70311 83100 22263 04170 2//// 80123
BBXX ELUC5 10184 99219 31772 41598 80808 10256 20237 40117 58003 70211 8137/ 22264 00/// 20701 304// 41502 80242
BBXX DDDI2 10184 99103 30736 41/98 30510 10285 20237 40105 51010 70200 8//// 22254 04290 2//// 80250
BBXX WYP8657 10184 99458 70844 41/98 72715 11038 2//// 40261 5//// 70322 87135 22223 00050 20301 3//// 4//// 5//// 6//// 8//// ICE /////
BBXX DDSC2 10183 99415 70261 41597 82618 10170 20146 40260 56030 70322 887// 22225 00157 20702 80155
OOXX AABRI 10184 99839 51342 60134 05251 46/// /0506 11062 21249 39182 49799 52004 91830
OOXX AAPEG 10184 99779 31666 57186 00051 46/// /0709 11070 21096 39756 49762 52005 91830
OOXX AAVIT 10184 99785 31778 57087 00501 46/// /1106 11038 21091 39712 49774 52006 91830
OOXX AAERC 10184 99815 31639 60713 00451 46/// /1804 11070 21121 39708 49764 52006 91830
AAXX 10184 71520 16/// /2805 11192 21224 39493 40195 55000 60001 333 11177 21236 70000
AAXX 10184 71521 16/// ///// 11164 21224 60001 333 11159 21234 70000
AAXX 10184 71522 46/// /3108 11145 21202 39715 40223 53002 6///1 333 11129 21165 70000
AAXX 10184 71523 16/// ///// 11127 21179 39822 40212 58003 60001 333 11125 21177 7////
AAXX 10184 71540 16/// /2807 10046 21092 60001 333 10056 21094 70000
AAXX 10184 71544 16/// ///// 11013 21063 60001 333 10004 21052 70000
AAXX 10184 71548 16/// ///// 11012 21070 60001 333 11002 21044 70000
AAXX 10184 71249 16/// /2420 10040 21041 60001 333 10053 21040 70000
AAXX 10184 71413 16/// ///// 10023 21053 60001 333 10023 21103 70000
AAXX 10184 71414 16/// ///// 11003 21059 60001 333 11002 21063 70000
AAXX 10184 71440 16/// ///// 10048 21073 60001 333 10068 20000 70000
AAXX 10184 71346 16/// /2313 10061 21059 60001 333 10061 21008 70000
AAXX 10184 71014 16/// /1901 10031 21100 60001 333 10031 21078 70004
AAXX 10184 71055 46/// /1807 11099 21110 39760 40093 53015 6///1 333 11096 21152 7////
AAXX 10184 71065 16/// ///// 11057 21083 60001 333 11030 21098 70000
AAXX 10184 71674 16/// ///// 11014 21075 60001 333 11014 21122 70000
AAXX 10184 71797 16/// ///// 11033 21074 60001 333 11026 21085 70000
AAXX 10184 71904 16/// ///// 10031 21070 60001 333 10042 21025 70000
AAXX 10184 71360 16/// ///// 11032 21077 60001 333 11015 21128 70000
AAXX 10184 71380 16/// /2912 10056 21069 60001 333 10061 21120 70000
AAXX 10184 71383 16/// ///// 11158 21211 39569 40198 51002 60001 333 11119 21166 70000
AAXX 10184 71857 16/// ///// 11044 21078 60001 333 11036 21085 70000
AAXX 10184 71481 16/// /3109 10016 21071 60001 333 10035 7////
AAXX 10184 71498 16/// /2109 10018 21054 60001 333 10050 21033 70000
AAXX 10184 78988 02484 50808 10300 20248 30085 40095 57023 60001 84201 333 59011 60007 84819 83081
AAXX 10184 78990 01/82 /0100 10305 20239 30097 57022 60001 70000 333 59009 60007
AAXX 10184 78873 NIL
BBXX A8EH3 10183 99474 11549 41395 82724 10030 20006 40038 57010 77277 887// 22215 04030 2//// 80020
BBXX SHIP 10184 99312 11518 41598 83507 10200 20116 40214 54000 70320 885// 22214 00229 2//// 80150
BBXX VRBQ6 10184 99312 11518 41598 83507 10200 20116 40214 54000 70320 885// 22214 00229 2//// 80150
AAXX 10184 97240 32458 60000 10258 20247 39997 40112 52008 85101 333 56000 85815
AAXX 10184 88903 45/// /1507 10122 20041 30073 40073 58010
AAXX 10184 89108 46/// /1406 11250 36815 4//// 52006 91830
AAXX 10184 89314 46/// /1014 11131 38080 4//// 52005 91820
AAXX 10184 89327 46/// /0000 11022 39462 49736 52001 91820
AAXX 10184 89329 46/// ///02 11111 38627 49690 54000 91830
AAXX 10184 89376 46/// /1905 11078 39694 49761 52006 91830
AAXX 10184 89667 46/// /0709 11070 39756 49766 52005 91830
AAXX 10184 89734 46/// /1202 11331 35942 4//// 52006 91840
AAXX 10184 89744 46/// /0504 11325 36331 4//// 52007 91840
AAXX 10184 89769 46/// /1909 11060 39707 49759 52006 91820
AAXX 10184 89799 46/// /2607 11291 36626 4//// 52004 91830
AAXX 10184 89832 46/// /0608 11044 39463 49755 52002 91830
AAXX 10184 89834 46/// /1313 11146 38035 4//// 52002 91830
AAXX 10184 89865 46/// ///// 1//// 3//// 4//// 5//// 91830
AAXX 10184 89866 46/// /1209 11054 39623 49756 52006 91820
AAXX 10184 89869 46/// /2104 11058 39682 49760 52007 91830
AAXX 10184 89872 46/// /1805 11046 39702 49758 52007 91830
AAXX 10184 89873 46/// /1603 11083 39695 49773 52007 91820
AAXX 10184 89879 46/// ///01 11022 39652 49689 52009 91830
BBXX 62141 10183 99493 50590 41697 33432 10112 49938 57013 72111 83144 22200 20709 33434 40506 50709
AAXX 1018/ 89872 46/// ///// 11046 39706 4//// 5//// 91820
AAXX 1018/ 89869 46/// ///// 11059 39689 4//// 5//// 91820
AAXX 1018/ 89799 46/// ///// 11290 4//// 5//// 91820
AAXX 10181 58968 31558 81004 10127 20101 30238 40246 58016 71022 885//
AAXX 10181 58974 46/// /0311 10126 20076 30128 40256 58010
AAXX 10181 59358 32760 60104 10146 20105 30156 40188 58011 86500
AAXX 10181 59559 32662 80411 10199 20149 30127 40155 58013 884//
AAXX 10181 59792 32460 80311 10198 20159 30179 40184 57009 8542/
AAXX 10181 59997 11458 80209 10272 20256 30057 40068 58007 60031 72588 8382/
AAXX 10181 59158 32560 80102 10139 20091 30086 40189 58008 885//
AAXX 10181 59562 11560 83602 10180 20139 30185 40197 57004 69951 70262 887//
AAXX 10181 59567 46/// /0110 10166 20166 39785 40168 58005
AAXX 10184 91844 46/// /0000 10246 40098 22200 00268
AAXX 1018/ 89869 46/// ///// 11061 39687 4//// 5////
AAXX 1018/ 89329 46/// ///// 11111 38630 4//// 5////
AAXX 1018/ 89799 46/// ///// 11288 4//// 5////
AAXX 1018/ 89108 46/// ///// 11253 36819 4//// 5////
AAXX 10184 08487 02580 33201 10145 20103 30155 40180 53008 60002 81871 333 10183 60007
AAXX 10181 01380 11685 22801 11077 21102 60002 70200 82540 333 11046 4/012 91108
BBXX A8SZ5 10184 99327 11239 41497 83118 10070 20026 40280 54000 702// 8/7// 22243 00/// 2//03 80050
BBXX DDDI2 10184 99103 30736 41/98 30510 10285 20237 40105 51010 70200 8//// 22254 04290 2//// 80250
BBXX JPAT 10184 99109 30852 41498 42308 10273 20229 40086 58004 70300 83261 22253 00287 10904 2//00 316// 40601 85241
BBXX 9KWP 10183 99120 30977 41697 73016 10280 20252 40089 58005 70265 84562 22274 2//// 80260
BBXX A8UL5 10183 99259 30489 41898 30614 10260 20218 40112 52012 70100 81165 22214 20303 3//// 4//// 5//// 80230
BBXX AMOUK17 10184 99327 30573 46/// ///// 10204 20190 30173 40183 52013 91750
BBXX AMOUK01 10184 99339 30184 46/// ///// 10159 20097 30152 40155 52010 91750
BBXX 2AKI2 10183 99342 30332 41398 70923 10180 20127 40183 57013 8677/ 22224 00195 2//// 3//// 4//// 5//// 80150
BBXX ONFP 10184 99371 30167 43593 51738 10180 2015/ 40150 53010 70311 85963 22232 04212 20704 31717 40707 50707 6//// 80160 /////
BBXX ZSAF 10184 99394 30105 41599 71707 10129 20051 40253 52011 70322 875// 22253 04174 2//// 322// 40504 5////
BBXX AMOUK03 10184 99537 70003 46/// ///// 10041 20026 30083 40112 52007 91750
BBXX 63055 10184 99606 10016 47998 /3111 10064 20006 49979 52017 700// 22200 10806 70031
BBXX 63106 10184 99610 10017 46/// /3207 10062 49977 52020 22200
BBXX 63105 10184 99610 10017 47597 ///// 10072 20016 49977 52019 700// 22200
BBXX 62107 10184 99501 70061 46/// /2418 10090 20041 40167 57006 22200 00121 10903 70014
BBXX 64049 10183 99571 10022 41/97 72830 10065 20065 40027 53006 70022 8//// 22200 20610 3//// 4//// 5//// 80065
BBXX AMOUK04 10184 99533 70062 46/// ///// 10091 20046 30093 4//// 57015 91750
BBXX ONAN 10184 99015 51373 41597 31119 10270 2024/ 4//// 54/// 70222 822// 22273 00250 21005 3//// 40805 5//// 6//// 80250 ICE /////
BBXX WAZV 10184 99580 71450 41498 32713 10040 2000/ 40220 51015 70300 838// 22233 00050 20503 323// 40905 5//// 6//// 80020 ICE /////
BBXX VRBU6 10184 99062 10919 43/// /0819 10270 2024/ 40100 54/// 7//// 8//// 22233 0//// 20201 309// 4//// 5//// 6//// 80250 ICE /////
BBXX WYP8657 10184 99458 70844 41/98 72715 11038 2//// 40261 5//// 70322 87135 22223 00050 20301 3//// 4//// 5//// 6//// 8//// ICE /////
BBXX VRBU6 10184 99062 10919 43/// /0819 10270 2024/ 40100 54/// 7//// 8//// 22233 0//// 20201 309// 4//// 5//// 6//// 80250 ICE /////
BBXX 62141 10183 99493 50590 41697 33432 10112 49938 57013 72111 83144 22200 20709 33434 40506 50709
BBXX ONAN 10184 99015 51373 41597 31119 10270 2024/ 4//// 54/// 70222 822// 22273 00250 21005 3//// 40805 5//// 6//// 80250 ICE /////
BBXX BSH03 10181 99540 10081 46/// ///// 22200 00062 20805 70024
BBXX VREF7 10183 99577 10106 41497 52429 10070 2005/ 49830 56020 70321 82131 22200 00090 20606 33128 40606 50505 6//// 80060 ICE /////
BBXX DDSC2 10183 99415 70261 41597 82618 10170 20146 40260 56030 70322 887// 22225 00157 20702 80155
BBXX WAZV 10184 99580 71450 41498 32713 10040 2000/ 40220 51015 70300 838// 22233 00050 20503 323// 40905 5//// 6//// 80020 ICE /////
OOXX GBP67 10161 99159 50057 ///// 04381 26/// /0303 10166 29093 39652 91600 333 60000
OOXX GBP67 10161 99159 50057 ///// 04381 26/// /0304 10166 29093 39651 91610 333 60000
OOXX GBP67 10161 99159 50057 ///// 04381 26/// /0503 10164 29095 39653 91620 333 60000
OOXX GBP67 10161 99159 50057 ///// 04381 26/// /0503 10162 29096 39652 91630 333 60000
OOXX GBP67 10161 99159 50057 ///// 04381 26/// /0904 10159 29097 39651 91640 333 60000
OOXX GBP67 10161 99159 50057 ///// 04381 26/// /0704 10163 29092 39652 91650 333 60000
OOXX GBP67 10171 99159 50057 ///// 04381 26/// /0503 10165 29092 39654 91700 333 60000
OOXX GBP67 10171 99159 50057 ///// 04381 26/// /0803 10165 29094 39654 91710 333 60000
OOXX GBP67 10171 99159 50057 ///// 04381 26/// /0803 10164 29095 39652 91720 333 60000
OOXX GBP67 10171 99159 50057 ///// 04381 26/// /0903 10164 29096 39653 91730 333 60000
OOXX GBP67 10171 99159 50057 ///// 04381 26/// /0403 10161 29097 39653 91740 333 60000
OOXX GBP67 10171 99159 50057 ///// 04381 26/// /0404 10159 29098 39655 91750 333 60000
OOXX MXP44 10161 99280 71140 ///// 00041 26/// /1422 10112 29054 30171 91610 333 60000
OOXX MXP44 10161 99280 71140 ///// 00041 26/// /1422 10119 29054 30171 91620 333 60000
OOXX MXP44 10161 99280 71140 ///// 00041 26/// /1422 10125 29054 30170 91630 333 60000
OOXX MXP44 10161 99280 71140 ///// 00041 26/// /1422 10129 29054 30171 91640 333 60000
OOXX MXP44 10161 99280 71140 ///// 00041 26/// /1422 10133 29054 30171 91650 333 60000
OOXX MXP44 10171 99280 71140 ///// 00041 26/// /1422 10139 29055 30171 91700 333 60000
OOXX MXP44 10171 99280 71140 ///// 00041 26/// /1422 10146 29055 30171 91710 333 60000
OOXX MXP44 10171 99280 71140 ///// 00041 26/// /1422 10156 29055 30169 91720 333 60000
OOXX MXP44 10171 99280 71140 ///// 00041 26/// /1422 10161 29055 30168 91730 333 60000
OOXX MXP44 10171 99280 71140 ///// 00041 26/// /1422 10166 29055 30167 91740 333 60000
OOXX MXP44 10171 99280 71140 ///// 00041 26/// /1422 10170 29055 30167 91750 333 60000
OOXX MXP44 10181 99280 71140 ///// 00041 26/// /1422 10172 29055 30166 91800 333 60000
OOXX RUP59 10161 99539 10848 ///// 02121 26/// /0000 11272 29070 30022 91640 333 60000
OOXX RUP59 10161 99539 10848 ///// 02121 26/// /0000 11276 29071 30021 91650 333 60000
OOXX RUP59 10171 99539 10848 ///// 02121 26/// /0000 11275 29072 30021 91700 333 60000
OOXX RUP59 10171 99539 10848 ///// 02121 26/// /0000 11280 29069 30022 91710 333 60000
OOXX RUP59 10171 99539 10848 ///// 02121 26/// /0000 11279 29071 30020 91720 333 60000
OOXX RUP59 10171 99539 10848 ///// 02121 26/// /0000 11282 29070 30021 91730 333 60000
OOXX RUP59 10171 99539 10848 ///// 02121 26/// /0000 11282 29071 30022 91740 333 60000
OOXX RUP59 10171 99539 10848 ///// 02121 26/// /0000 11282 29071 30022 91750 333 60000
OOXX RUP59 10181 99539 10848 ///// 02121 26/// /0000 11284 29071 30021 91800 333 60000
OOXX RUP59 10181 99539 10848 ///// 02121 26/// /0000 11283 29071 30023 91810 333 60000
OOXX RUP59 10181 99539 10848 ///// 02121 26/// /0000 11286 29070 30023 91820 333 60000
OOXX RUP59 10181 99539 10848 ///// 02121 26/// /0000 11286 29070 30022 91830 333 60000
OOXX NZP46 10161 99438 51765 ///// 00221 26/// /1604 10107 29066 30275 91630 333 60000
OOXX NZP46 10161 99438 51765 ///// 00221 26/// /1102 10107 29064 30275 91640 333 60000
OOXX NZP46 10161 99438 51765 ///// 00221 26/// /0903 10108 29060 30276 91650 333 60000
OOXX NZP46 10171 99438 51765 ///// 00221 26/// /1102 10109 29061 30277 91700 333 60000
OOXX NZP46 10171 99438 51765 ///// 00221 26/// /1203 10109 29063 30278 91710 333 60000
OOXX NZP46 10171 99438 51765 ///// 00221 26/// /1103 10109 29069 30278 91720 333 60000
OOXX NZP46 10171 99438 51765 ///// 00221 26/// /1103 10111 29060 30278 91730 333 60000
OOXX NZP46 10171 99438 51765 ///// 00221 26/// /0603 10113 29055 30278 91740 333 60000
OOXX NZP46 10171 99438 51765 ///// 00221 26/// /0802 10114 29059 30278 91750 333 60000
OOXX NZP46 10181 99438 51765 ///// 00221 26/// /0902 10115 29063 30279 91800 333 60000
OOXX NZP46 10181 99438 51765 ///// 00221 26/// /1002 10115 29062 30280 91810 333 60000
OOXX NZP46 10181 99438 51765 ///// 00221 26/// /0902 10116 29063 30281 91820 333 60000
OOXX CKP23 10161 99212 51598 ///// 00051 26/// /2101 10246 29095 30077 91650 333 60000
OOXX CKP23 10171 99212 51598 ///// 00051 26/// /2202 10246 29094 30079 91700 333 69920
OOXX CKP23 10171 99212 51598 ///// 00051 26/// /2101 10246 29092 30079 91710 333 60000
OOXX CKP23 10171 99212 51598 ///// 00051 26/// /1902 10246 29092 30080 91720 333 60000
OOXX CKP23 10171 99212 51598 ///// 00051 26/// /2001 10247 29093 30080 91730 333 60000
OOXX CKP23 10171 99212 51598 ///// 00051 26/// /0000 10248 29093 30082 91740 333 60000
OOXX CKP23 10171 99212 51598 ///// 00051 26/// /2401 10249 29090 30081 91750 333 60000
OOXX CKP23 10181 99212 51598 ///// 00051 26/// /1901 10253 29088 30084 91800 333 60000
OOXX CKP23 10181 99212 51598 ///// 00051 26/// /0901 10255 29089 30084 91810 333 60000
OOXX CKP23 10181 99212 51598 ///// 00051 26/// /1701 10256 29087 30083 91820 333 60000
OOXX CKP23 10181 99212 51598 ///// 00051 26/// /3201 10262 29084 30083 91830 333 60000
OOXX CKP23 10181 99212 51598 ///// 00051 26/// /0301 10266 29084 30083 91840 333 60000
OOXX RUP60 10161 99531 11588 ///// 00651 26/// /3105 11085 29040 39800 91652 333 60000
OOXX RUP60 10171 99531 11588 ///// 00651 26/// /3003 11081 29039 39801 91702 333 60000
OOXX RUP60 10171 99531 11588 ///// 00651 26/// /2707 11079 29039 39799 91712 333 60000
OOXX RUP60 10171 99531 11588 ///// 00651 26/// /3005 11078 29038 39801 91722 333 60000
OOXX RUP60 10171 99531 11588 ///// 00651 26/// /2906 11080 29039 39802 91732 333 60000
OOXX RUP60 10171 99531 11588 ///// 00651 26/// /2906 11079 29038 39800 91742 333 60000
OOXX RUP60 10171 99531 11588 ///// 00651 26/// /2902 11078 29038 39800 91752 333 60000
OOXX RUP60 10181 99531 11588 ///// 00651 26/// /2908 11078 29038 39800 91802 333 60000
OOXX RUP60 10181 99531 11588 ///// 00651 26/// /3005 11076 29037 39802 91812 333 60000
OOXX RUP60 10181 99531 11588 ///// 00651 26/// /3106 11078 29038 39803 91822 333 60000
OOXX RUP60 10181 99531 11588 ///// 00651 26/// /3105 11080 29038 39805 91832 333 60000
OOXX RUP60 10181 99531 11588 ///// 00651 26/// /3106 11080 29039 39804 91842 333 60000
OOXX KIP39 10161 99020 51574 ///// 00181 26/// /1303 10251 29088 30094 91630 333 60000
OOXX KIP39 10161 99020 51574 ///// 00181 26/// /1303 10252 29088 30096 91640 333 60000
OOXX KIP39 10161 99020 51574 ///// 00181 26/// /1303 10253 29087 30098 91650 333 60000
OOXX KIP39 10171 99020 51574 ///// 00181 26/// /1303 10254 29086 30098 91700 333 60000
OOXX KIP39 10171 99020 51574 ///// 00181 26/// /1303 10256 29086 30098 91710 333 60000
OOXX KIP39 10171 99020 51574 ///// 00181 26/// /1303 10258 29085 30099 91720 333 60000
OOXX KIP39 10171 99020 51574 ///// 00181 26/// /1303 10261 29085 30102 91730 333 60000
OOXX KIP39 10171 99020 51574 ///// 00181 26/// /1304 10260 29083 30102 91740 333 60000
OOXX KIP39 10171 99020 51574 ///// 00181 26/// /1303 10265 29081 30104 91750 333 60000
OOXX KIP39 10181 99020 51574 ///// 00181 26/// /1303 10264 29082 30105 91800 333 60000
OOXX KIP39 10181 99020 51574 ///// 00181 26/// /1303 10263 29081 30106 91810 333 60000
OOXX KIP39 10181 99020 51574 ///// 00181 26/// /1304 10267 29080 30107 91820 333 60000
OOXX AUP09 10161 99124 31309 ///// 00321 26/// ///// 1//// 29/// 3//// 91614 333 6///0
OOXX AUP09 10161 99124 31309 ///// 00321 26/// ///// 1//// 29/// 3//// 91624 333 6///0
OOXX AUP09 10161 99124 31309 ///// 00321 26/// ///// 1//// 29/// 3//// 91634 333 6///0
OOXX AUP09 10161 99124 31309 ///// 00321 26/// ///// 1//// 29/// 3//// 91644 333 6///0
OOXX AUP09 10161 99124 31309 ///// 00321 26/// ///// 1//// 29/// 3//// 91654 333 6///0
OOXX AUP09 10171 99124 31309 ///// 00321 26/// ///// 1//// 29/// 3//// 91704 333 6///0
OOXX AUP09 10171 99124 31309 ///// 00321 26/// ///// 1//// 29/// 3//// 91714 333 6///0
OOXX AUP09 10171 99124 31309 ///// 00321 26/// ///// 1//// 29/// 3//// 91724 333 6///0
OOXX AUP09 10171 99124 31309 ///// 00321 26/// ///// 1//// 29/// 3//// 91734 333 6///0
OOXX AUP09 10171 99124 31309 ///// 00321 26/// ///// 1//// 29/// 3//// 91744 333 6///0
OOXX AUP09 10171 99124 31309 ///// 00321 26/// ///// 1//// 29/// 3//// 91754 333 6///0
OOXX AUP09 10181 99124 31309 ///// 00321 26/// ///// 1//// 29/// 3//// 91804 333 6///0
OOXX RUP54 10161 99586 10494 ///// 01271 26/// /1606 11114 29094 30054 91627 333 60120
OOXX RUP54 10161 99586 10494 ///// 01271 26/// /0106 11115 29094 30055 91637 333 60120
OOXX RUP54 10161 99586 10494 ///// 01271 26/// /0605 11114 29094 30054 91647 333 60120
OOXX RUP54 10161 99586 10494 ///// 01271 26/// /1706 11114 29094 30053 91657 333 60120
OOXX RUP54 10171 99586 10494 ///// 01271 26/// /2109 11115 29094 30052 91707 333 60120
OOXX RUP54 10171 99586 10494 ///// 01271 26/// /3605 11115 29094 30052 91717 333 60120
OOXX RUP54 10171 99586 10494 ///// 01271 26/// /0507 11115 29094 30053 91727 333 60120
OOXX RUP54 10171 99586 10494 ///// 01271 26/// /0705 11115 29094 30050 91737 333 60120
OOXX RUP54 10171 99586 10494 ///// 01271 26/// /0508 11114 29094 30051 91747 333 60120
OOXX RUP54 10171 99586 10494 ///// 01271 26/// /2210 11113 29094 30051 91757 333 60120
OOXX RUP54 10181 99586 10494 ///// 01271 26/// /3510 11112 29094 30052 91807 333 60120
OOXX RUP54 10181 99586 10494 ///// 01271 26/// /3307 11112 29093 30052 91817 333 60120
OOXX CAP14 10161 99487 71234 ///// 00431 26/// /2702 10019 29087 30139 91620 333 60000
OOXX CAP14 10161 99487 71234 ///// 00431 26/// /2702 10020 29087 30142 91630 333 60000
OOXX CAP14 10161 99487 71234 ///// 00431 26/// /2902 10021 29086 30143 91640 333 60000
OOXX CAP14 10161 99487 71234 ///// 00431 26/// /2702 10023 29086 30144 91650 333 60000
OOXX CAP14 10171 99487 71234 ///// 00431 26/// /2702 10024 29085 30146 91700 333 60000
OOXX CAP14 10171 99487 71234 ///// 00431 26/// /2802 10025 29084 30146 91710 333 60000
OOXX CAP14 10171 99487 71234 ///// 00431 26/// /2902 10025 29084 30147 91720 333 60000
OOXX CAP14 10171 99487 71234 ///// 00431 26/// /2701 10026 29083 30147 91730 333 60000
OOXX CAP14 10171 99487 71234 ///// 00431 26/// /2401 10027 29083 30146 91740 333 60000
OOXX CAP14 10171 99487 71234 ///// 00431 26/// /2301 10027 29083 30146 91750 333 60000
OOXX CAP14 10181 99487 71234 ///// 00431 26/// /2101 10027 29084 30146 91800 333 60000
OOXX CAP14 10181 99487 71234 ///// 00431 26/// /1501 10026 29085 30144 91810 333 60000
OOXX ARP01 10161 99345 50585 ///// 00311 26/// /1101 10127 29034 30090 91610 333 60000
OOXX ARP01 10161 99345 50585 ///// 00311 26/// /1101 10128 29033 30089 91620 333 60000
OOXX ARP01 10161 99345 50585 ///// 00311 26/// /1101 10129 29033 30087 91630 333 60000
OOXX ARP01 10161 99345 50585 ///// 00311 26/// /1101 10131 29033 30086 91640 333 60000
OOXX ARP01 10161 99345 50585 ///// 00311 26/// /0000 10131 29033 30085 91650 333 60000
OOXX ARP01 10171 99345 50585 ///// 00311 26/// /1101 10132 29032 30084 91700 333 60000
OOXX ARP01 10171 99345 50585 ///// 00311 26/// /1401 10133 29032 30084 91710 333 60000
OOXX ARP01 10171 99345 50585 ///// 00311 26/// /0000 10135 29032 30082 91720 333 60000
OOXX ARP01 10171 99345 50585 ///// 00311 26/// /1101 10135 29032 30082 91730 333 60000
OOXX ARP01 10171 99345 50585 ///// 00311 26/// /0000 10136 29032 30081 91740 333 60000
OOXX ARP01 10171 99345 50585 ///// 00311 26/// /0000 10137 29030 30081 91750 333 60000
OOXX ARP01 10181 99345 50585 ///// 00311 26/// /0000 10137 29031 30080 91800 333 60000
OOXX MRP43 10161 99181 70159 ///// 00101 26/// /0703 10326 29008 30099 91640 333 60000
OOXX MRP43 10161 99181 70159 ///// 00101 26/// /0503 10326 29008 30098 91650 333 60000
OOXX MRP43 10171 99181 70159 ///// 00101 26/// /0503 10322 29008 30099 91700 333 60000
OOXX MRP43 10171 99181 70159 ///// 00101 26/// /0603 10320 29008 30099 91710 333 60000
OOXX MRP43 10171 99181 70159 ///// 00101 26/// /0503 10318 29008 30099 91720 333 60000
OOXX MRP43 10171 99181 70159 ///// 00101 26/// /0503 10315 29008 30099 91730 333 60000
OOXX MRP43 10171 99181 70159 ///// 00101 26/// /0403 10314 29008 30099 91740 333 60000
OOXX MRP43 10171 99181 70159 ///// 00101 26/// /0503 10312 29008 30099 91750 333 60000
OOXX MRP43 10181 99181 70159 ///// 00101 26/// /0403 10309 29008 30101 91800 333 60000
OOXX MRP43 10181 99181 70159 ///// 00101 26/// /0302 10305 29009 30101 91810 333 60000
OOXX MRP43 10181 99181 70159 ///// 00101 26/// /0302 10300 29009 30102 91820 333 60000
OOXX MRP43 10181 99181 70159 ///// 00101 26/// /0302 10294 29009 30105 91830 333 60000
OOXX NOP49 10161 99782 10154 ///// 04691 26/// /3402 11130 29086 39462 91610 333 6///0
OOXX NOP49 10161 99782 10154 ///// 04691 26/// /3502 11127 29087 39461 91620 333 6///0
OOXX NOP49 10161 99782 10154 ///// 04691 26/// /3402 11128 29087 39461 91630 333 6///0
OOXX NOP49 10161 99782 10154 ///// 04691 26/// /3402 11128 29088 39461 91640 333 6///0
OOXX NOP49 10161 99782 10154 ///// 04691 26/// /3502 11128 29088 39462 91650 333 6///0
OOXX NOP49 10171 99782 10154 ///// 04691 26/// /3303 11132 29087 39462 91700 333 6///0
OOXX NOP49 10171 99782 10154 ///// 04691 26/// /3402 11129 29088 39462 91710 333 6///0
OOXX NOP49 10171 99782 10154 ///// 04691 26/// /3302 11128 29087 39462 91720 333 6///0
OOXX NOP49 10171 99782 10154 ///// 04691 26/// /3402 11129 29088 39463 91730 333 6///0
OOXX NOP49 10171 99782 10154 ///// 04691 26/// /3302 11130 29087 39463 91740 333 6///0
OOXX NOP49 10171 99782 10154 ///// 04691 26/// /3402 11129 29088 39463 91750 333 6///0
OOXX NOP49 10181 99782 10154 ///// 04691 26/// /3402 11128 29089 39463 91800 333 6///0
OOXX GBP68 10161 99371 50123 ///// 00641 26/// /3502 11094 29000 30124 91600 333 60000
OOXX GBP68 10161 99371 50123 ///// 00641 26/// /3502 11099 29000 30122 91610 333 60000
OOXX GBP68 10161 99371 50123 ///// 00641 26/// /3502 11099 29000 30121 91620 333 60000
OOXX GBP68 10161 99371 50123 ///// 00641 26/// /3504 11097 29000 30123 91630 333 60000
OOXX GBP68 10161 99371 50123 ///// 00641 26/// /3503 11100 29000 30121 91640 333 60000
OOXX GBP68 10161 99371 50123 ///// 00641 26/// /3504 11094 29000 30121 91650 333 60000
OOXX GBP68 10171 99371 50123 ///// 00641 26/// /3502 11093 29000 30119 91700 333 60000
OOXX GBP68 10171 99371 50123 ///// 00641 26/// /3503 11089 29000 30117 91710 333 60000
OOXX GBP68 10171 99371 50123 ///// 00641 26/// /3503 11091 29000 30117 91720 333 60000
OOXX GBP68 10171 99371 50123 ///// 00641 26/// /3503 11082 29000 30116 91730 333 60000
OOXX GBP68 10171 99371 50123 ///// 00641 26/// /3503 11078 29000 30114 91740 333 60000
OOXX GBP68 10171 99371 50123 ///// 00641 26/// /3503 11073 29000 30113 91750 333 60000
OOXX FJP26 10161 99178 31775 ///// 00311 26/// /1102 10227 29092 30066 91610 333 60000
OOXX FJP26 10161 99178 31775 ///// 00311 26/// /1001 10227 29092 30066 91620 333 60000
OOXX FJP26 10161 99178 31775 ///// 00311 26/// /0701 10226 29093 30067 91630 333 60000
OOXX FJP26 10161 99178 31775 ///// 00311 26/// /0401 10226 29092 30068 91640 333 60000
OOXX FJP26 10161 99178 31775 ///// 00311 26/// /0802 10226 29092 30068 91650 333 60000
OOXX FJP26 10171 99178 31775 ///// 00311 26/// /1001 10225 29093 30068 91700 333 60000
OOXX FJP26 10171 99178 31775 ///// 00311 26/// /0901 10225 29093 30069 91710 333 60000
OOXX FJP26 10171 99178 31775 ///// 00311 26/// /1002 10226 29092 30069 91720 333 60000
OOXX FJP26 10171 99178 31775 ///// 00311 26/// /1002 10226 29092 30070 91730 333 60000
OOXX FJP26 10171 99178 31775 ///// 00311 26/// /0902 10226 29092 30070 91740 333 60000
OOXX FJP26 10171 99178 31775 ///// 00311 26/// /1102 10228 29091 30070 91750 333 60000
OOXX FJP26 10181 99178 31775 ///// 00311 26/// /1102 10231 29090 30072 91800 333 60000
OOXX AUP07 10161 99/// ///// ///// ///// 26/// /0215 10070 29094 30024 91657 333 60000
OOXX AUP07 10171 99/// ///// ///// ///// 26/// /0215 10070 29094 30022 91707 333 60000
OOXX AUP07 10171 99/// ///// ///// ///// 26/// /0215 10070 29094 30020 91717 333 60000
OOXX AUP07 10171 99/// ///// ///// ///// 26/// /0214 10068 29094 30020 91727 333 60000
OOXX AUP07 10171 99/// ///// ///// ///// 26/// /0215 10070 29094 30020 91737 333 60000
OOXX AUP07 10171 99/// ///// ///// ///// 26/// /0215 10070 29094 30020 91747 333 60000
OOXX AUP07 10171 99/// ///// ///// ///// 26/// /0215 10070 29094 30019 91757 333 60000
OOXX AUP07 10181 99/// ///// ///// ///// 26/// /0215 10070 29094 30017 91807 333 60000
OOXX AUP07 10181 99/// ///// ///// ///// 26/// /0215 10070 29094 30017 91817 333 60000
OOXX AUP07 10181 99/// ///// ///// ///// 26/// /0215 10070 29094 30018 91827 333 60000
OOXX AUP07 10181 99/// ///// ///// ///// 26/// /0215 10069 29094 30018 91837 333 60000
OOXX AUP07 10181 99/// ///// ///// ///// 26/// /0215 10070 29094 30017 91847 333 60000
OOXX AUP04 10171 99377 31451 ///// 00311 26/// /2401 10172 29092 39979 91705 333 60000
OOXX AUP04 10171 99377 31451 ///// 00311 26/// /2301 10172 29092 39979 91715 333 60000
OOXX AUP04 10171 99377 31451 ///// 00311 26/// /2102 10170 29092 39979 91725 333 60000
OOXX AUP04 10171 99377 31451 ///// 00311 26/// /2302 10170 29093 39980 91735 333 60000
OOXX AUP04 10171 99377 31451 ///// 00311 26/// /2402 10170 29093 39981 91745 333 60000
OOXX AUP04 10171 99377 31451 ///// 00311 26/// /2102 10170 29093 39982 91755 333 60000
OOXX AUP04 10181 99377 31451 ///// 00311 26/// /2203 10167 29092 39985 91805 333 60000
OOXX AUP04 10181 99377 31451 ///// 00311 26/// /2302 10165 29092 39987 91815 333 60000
OOXX AUP04 10181 99377 31451 ///// 00311 26/// /2202 10163 29092 39988 91825 333 60000
OOXX AUP04 10181 99377 31451 ///// 00311 26/// /2002 10162 29092 39990 91835 333 60000
OOXX AUP04 10181 99377 31451 ///// 00311 26/// /2003 10160 29092 39991 91845 333 60000
OOXX AUP04 10181 99377 31451 ///// 00311 26/// /2002 10159 29092 39992 91855 333 60000
AAXX 10184 91559 46/// /0000 10237 40080 22200 00277
AAXX 10184 71376 16/// /2604 11046 21092 39948 40250 58007 60001 333 11037 21123 70050
AAXX 10184 71389 46/// /0000 11015 21084 6///1 333 10002 21093 7////
AAXX 10184 71425 17/// /3013 11032 21107 30142 40179 55006 60011 7//4/ 333 10008 21041 70021
AAXX 10184 71614 16/// /2805 11022 21054 30179 40246 57007 60001 333 10003 21062 70142
AAXX 10184 71710 17/// /2809 10020 20009 30160 40170 56018 60031 7//4/ 333 10047 20011 70030
AAXX 10184 71425 17/// /3013 11032 21107 30142 40179 55006 60011 7//4/ 333 10008 21041 70021
AAXX 10184 71710 17/// /2809 10020 20009 30160 40170 56018 60031 7//4/ 333 10047 20011 70030
AAXX 10184 71376 16/// /2604 11046 21092 39948 40250 58007 60001 333 11037 21123 70050
AAXX 10184 71389 46/// /0000 11015 21084 6///1 333 10002 21093 7////
AAXX 10184 71614 16/// /2805 11022 21054 30179 40246 57007 60001 333 10003 21062 70142
AAXX 10184 91531 46/// /1007 1//// 40059 22200 00266
BBXX A8ZS7 10184 99121 30775 41598 31402 10270 20206 40100 50/// 70300 83200 22254 04270 20101 318// 41201 80225
BBXX V2AM5 10184 99156 10732 43997 03608 10280 20232 40105 50010 22274 80245
BBXX A8TG2 10183 99284 71250 41598 80110 10170 20094 40210 54000 70222 8547/ 22224 20204 301// 40204 80130
BBXX A8UA9 10184 99379 10168 41998 02118 10145 20101 40250 54000 70200 22253 20902 80120
BBXX A8RV8 10184 99224 11161 41698 40324 10140 20064 40210 56/// 70200
BBXX A8ZS7 10184 99121 30775 41598 31402 10270 20206 40100 50/// 70300 83200 22254 04270 20101 318// 41201 80225
AAXX 10181 44287 32999 00304 11162 21206 38160 40445 57005
AAXX 10181 44284 32999 02502 11254 21278 37894 40436 57008
AAXX 10181 44275 32998 00000 11260 21271 37768 40532 57002
AAXX 10180 44287 32999 00304 11162 21206 38160 40445 57005
AAXX 10180 44284 32999 02502 11254 21278 37894 40436 57008
AAXX 10180 44275 32998 00000 11260 21271 37768 40532 57002
AAXX 10181 98747 31460 21601 10225 20204 39880 40093 54000 70544 82200 333 56999 82818
BBXX 41038 10181 99341 70777 46/// /0308 10128 40249 58013 91800 22200 00152 333 91209
AAXX 10181 44329 32998 02303 11130 21253 37808 40396 58005
BBXX 44056 10181 99362 70757 46/// ///// 1//// 91820 22200 00136 10604 20604 70019
BBXX 42085 10181 99179 70665 46/// /0908 10280 40096 56028 91800 22200 00284 10502 70010 333 91209
BBXX 42085 10181 99179 70665 46/// /0907 10280 40098 91750 333 91209
BBXX 42085 10181 99179 70665 46/// /0907 10280 40100 91740 333 91208
AAXX 10184 71016 16/// ///// 10069 60001 333 10074 20004 70000
AAXX 10184 71758 16/// /1817 10063 20045 30100 40177 58037 60001 333 10063 21015 70000
BBXX 46109 10181 99481 71234 46/// /3504 10063 40211 91757 22200 00080
BBXX 46110 10181 99481 71230 46/// /1503 10052 40211 91758
BBXX 42085 10181 99179 70665 46/// /0909 10281 40095 91830 333 91210
BBXX 42085 10181 99179 70665 46/// /0908 10280 40095 91820 333 91210
BBXX 42085 10181 99179 70665 46/// /0908 10280 40095 91810 333 91210
BBXX 41038 10181 99341 70777 46/// /0308 10128 40249 91800 22200 00152 333 91209
AAXX 10184 71758 16/// /1817 10063 20045 30100 40177 58037 60001 333 10063 21015 70000
AAXX 10184 71016 16/// ///// 10069 60001 333 10074 20004 70000
AAXX 10184 91642 46/// /0000 1//// 40074 22200 0////
AAXX 10184 63756 11480 40000 10200 20184 38854 48488 60042 71322 81932 333 0//18 10274 58007 81819 81920 83074
OOXX AAKOM 10184 99795 51121 56392 18332 46/// /2109 11138 21207 37720 49584 52001 91830
OOXX AAERI 10184 99849 51288 60048 09901 46/// /0709 11124 21130 38659 49782 52005 91830
OOXX AALAU 10184 99775 31708 57070 00371 46/// /2005 11076 21100 39715 49761 52006 91830
OOXX AAMIZ 10184 99707 30443 58304 22602 46/// /0808 11100 2//// 37364 49524 52010 91830
AAXX 10181 10035 01581 32405 10025 20001 30004 40063 53010 60032 72581 83800 333 10029 20006 32100 41998 55300 20000 30000 40899 69907 81833 91116 96487 96485
AAXX 10181 98526 31570 80000 10248 20240 40068 58017 70262 82207 333 56999 82820 88274
BBXX SHIP 10184 99156 11319 41297 61119 00/// 10270 20257 40095 57012 70222 84493 9//// 22283 00311 2//// 3//// 4//// 5//// 6//// 80260 THNKS/B.REGARDS MASTER PACIFIC GLORY INM C - 443272110
BBXX MINFR03 1018/ 99294 30332 46/// ///// 10225 40127 52017
BBXX ZCDQ4 31112 10184 99393 10143 41798 30000 10172 20120 40210 56030 70301 84034 22274 00186 20401 30201 40301 5//// 80140
AAXX 10184 89332 46/// ///01 11055 39124 49728 52003 91820
AAXX 10184 89828 46/// /0000 11378 36387 4//// 52003 91830
BBXX MINFR03 1018/ 99294 30332 46/// ///// 10225 40127 52017
BBXX A8ZS7 10184 99121 30775 41598 31402 10270 20206 40100 50/// 70300 83200 22254 04270 20101 318// 41201 80225
BBXX WCOB 10183 99265 70925 41598 40624 10190 20123 40265 50012 70111 83162 22273 0//// 20403 306// 41005 5//// 6//// 80150 ICE /////
BBXX OYCY2 10184 99365 71272 43596 83508 10140 2012/ 40260 52010 7//// 8872/ 22234 00180 20302 302// 40806 5//// 6//// 80130 ICE /////
BBXX 41038 10181 99341 70777 46/// /0308 10128 40249 91800 22200 00152 333 91209
BBXX 42085 10181 99179 70665 46/// /0908 10280 40095 91810 333 91210
BBXX 42085 10181 99179 70665 46/// /0908 10280 40095 91820 333 91210
BBXX 42085 10181 99179 70665 46/// /0909 10281 40095 91830 333 91210
BBXX 46109 10181 99481 71234 46/// /3504 10063 40211 91757 22200 00080
BBXX 46110 10181 99481 71230 46/// /1503 10052 40211 91758
BBXX 42085 10181 99179 70665 46/// /0907 10280 40098 91750 333 91209
BBXX 42085 10181 99179 70665 46/// /0907 10280 40100 91740 333 91208
BBXX 42085 10181 99179 70665 46/// /0908 10280 40096 56028 91800 22200 00284 10502 70010 333 91209
BBXX 44056 10181 99362 70757 46/// ///// 1//// 91820 22200 00136 10604 20604 70019
BBXX 41038 10181 99341 70777 46/// /0308 10128 40249 58013 91800 22200 00152 333 91209
BBXX A8TG2 10183 99284 71250 41598 80110 10170 20094 40210 54000 70222 8547/ 22224 20204 301// 40204 80130
BBXX A8UA9 10184 99379 10168 41998 02118 10145 20101 40250 54000 70200 22253 20902 80120
BBXX AMOUK04 10184 99533 70062 46/// ///// 10091 20046 30093 4//// 57015 91750
BBXX WCOB 10183 99265 70925 41598 40624 10190 20123 40265 50012 70111 83162 22273 0//// 20403 306// 41005 5//// 6//// 80150 ICE /////
BBXX SHIP 10184 99156 11319 41297 61119 00/// 10270 20257 40095 57012 70222 84493 9//// 22283 00311 2//// 3//// 4//// 5//// 6//// 80260 THNKS/B.REGARDS MASTER PACIFIC GLORY INM C - 443272110
BBXX V2AM5 10184 99156 10732 43997 03608 10280 20232 40105 50010 22274 80245
BBXX A8RV8 10184 99224 11161 41698 40324 10140 20064 40210 56/// 70200
AAXX 10184 89628 46/// /3119 4//// 5////
BBXX MNAN4 10184 99341 30221 41497 82708 10165 20157 40161 50020 72022 887// 22200 20801 315// 40701 5//// 80160
AAXX 10184 63862 32580 10000 10242 20190 38884 48498 81171 333 10284 58001 81822 86359
AAXX 10184 71514 16/// /1305 11019 21071 39412 40120 58019 60001 333 11019 21132 70000
AAXX 10184 71539 16/// /2215 10027 21063 39411 40109 58021 60001 333 10027 21097 70000
AAXX 10184 71971 16/// /0701 11229 21248 39981 40027 51006 60001 333 11143 21235 70006
BBXX 42043 10181 99290 70949 46/// /0810 1//// 40301 91830 22200 00170 333 91212
BBXX 42043 10181 99290 70949 46/// /0709 1//// 40305 57007 91800 22200 00170 333 91212
BBXX 46094 10181 99446 71243 46/// /3205 10091 91750
BBXX 46094 10181 99446 71243 46/// /3106 10090 91740
BBXX 46094 10181 99446 71243 46/// /3004 10091 91830
BBXX 46094 10181 99446 71243 46/// /3204 10090 91820
BBXX 46094 10181 99446 71243 46/// /3005 10091 91810
BBXX 46094 10181 99446 71243 46/// /3205 10090 91800
AAXX 10184 63870 32480 40405 10271 20238 30078 40093 81230 333 10330 55300 58020 81818 84358
BBXX 42047 10181 99279 70936 46/// /0710 10143 20068 40278 91830 22200 00229 333 91212
BBXX 42047 10181 99279 70936 46/// /0710 10147 20075 40282 57011 91800 22200 00229 333 91212
AAXX 10184 92036 46/// /2103 10252 40068 22200 00309
AAXX 1018/ 89667 46/// ///// 11070 39756 4//// 5//// 91840
AAXX 10184 89664 32561 80811 11061 21090 39709 49751 81005 888// 333 56199 85330 87650
AAXX 10184 89664 32561 80811 11061 21090 39709 49751 81005 888// 333 56199 85330 87650
AAXX 10184 89664 32561 80811 11061 21090 39709 49751 81005 888// 333 56199 85330 87650
BBXX MINUK04 1018/ 99554 10083 46/// ///// 10065 4//// 52027
BBXX MINUK01 1018/ 99602 70012 46/// ///// 10050 40008 52004
BBXX MINFR03 1018/ 99294 30332 46/// ///// 10225 40127 52017
AAXX 10181 26518 11450 72306 11003 21003 40012 52002 60082 78598 86902 333 10017 86912 91011 91115 555 4/016 53016
BBXX AMOUK05 10184 99537 70003 46/// ///// 10039 20021 30073 40114 54002 91750
BBXX AMOUK14 10184 99533 70062 46/// ///// 10069 20025 30080 40120 57011 91750
BBXX AMOUK08 10184 99501 70061 46/// ///// 10095 20050 30161 40168 57007 91750
BBXX PJGO 10184 99571 10022 47698 /2724 10059 21005 40048 52013 700// 22200
BBXX 63106 10184 99610 10017 46/// /3207 10062 49977 52020 22200
BBXX 63113 10184 99610 10017 46/// /3411 10061 20007 49977 52019 22200 10807 70034
BBXX 2AUO5 10183 99606 10016 41297 43115 10071 20020 49983 52020 7//// 8/7// 22281 20702 399// 40904 80050
AAXX 10184 93713 46/// /0000 10169 40186 22200 00165
BBXX OYCY2 10184 99365 71272 43596 83508 10140 20120 40260 52010 7//// 8872/ 22234 00180 20302 302// 40806 5//// 6//// 80130 ICE /////
BBXX WAZV 10184 99580 71450 41498 32713 10040 20000 40220 51015 70300 838// 22233 00050 20503 323// 40905 5//// 6//// 80020 ICE /////
AAXX 10181 98336 11468 73603 10223 20219 30094 40099 58012 60081 70162 82270 333 56899 82815 87357
OOXX AAPIG 10184 99758 51003 56251 08502 46/// /0506 11094 21173 38731 49692 52003 91750
AAXX 10184 91689 46/// /0609 10253 40102 22200 00280
BBXX MINUK03 1018/ 99549 70011 46/// ///// 10058 40076 57007
BBXX WDE4430 10183 99476 71255 41697 53413 10094 20062 40220 51000 70110 81188 22213 0//// 20401 33433 40502 50402 6//// 80078 ICE /////
BBXX ZMFR 10184 99492 31686 43/// /03// 10106 20103 40211 57012 22251 00102
BBXX ZMENA 10184 99436 31727 46/// ///// 10131 20107 40231 57007 22200
BBXX V2QD4 10183 99340 31560 41497 41011 10220 20190 40057 54000 70311 84175 22263 00240 20401 309// 41402
BBXX ZMFR 10184 99492 31686 43/// /03// 10106 20103 40211 57012 22251 00102
BBXX ZMENA 10184 99436 31727 46/// ///// 10131 20107 40231 57007 22200
BBXX V2QD4 10183 99340 31560 41497 41011 10220 20190 40057 54000 70311 84175 22263 00240 20401 309// 41402
BBXX MNAN4 10184 99341 30221 41497 82708 10165 20157 40161 50020 72022 887// 22200 20801 315// 40701 5//// 80160
BBXX SHIP 10184 99156 11319 41297 61119 00/// 10270 20257 40095 57012 70222 84493 9//// 22283 00311 2//// 3//// 4//// 5//// 6//// 80260 THNKS/B/REGARDS MASTER PACIFIC GLORY INM C - 443272110
BBXX MINUK03 1018/ 99549 70011 46/// ///// 10058 40076 57007
BBXX MINUK01 1018/ 99602 70012 46/// ///// 10050 40008 52004
BBXX MINUK04 1018/ 99554 10083 46/// ///// 10065 4//// 52027
BBXX WDE4430 10183 99476 71255 41697 53413 10094 20062 40220 51000 70110 81188 22213 0//// 20401 33433 40502 50402 6//// 80078 ICE /////
BBXX 42047 10181 99279 70936 46/// /0710 10147 20075 40282 57011 91800 22200 00229 333 91212
BBXX 42047 10181 99279 70936 46/// /0710 10143 20068 40278 91830 22200 00229 333 91212
BBXX 46094 10181 99446 71243 46/// /3106 10090 91740
BBXX 46094 10181 99446 71243 46/// /3205 10091 91750
BBXX 46094 10181 99446 71243 46/// /3205 10090 91800
BBXX 46094 10181 99446 71243 46/// /3004 10091 91830
BBXX 46094 10181 99446 71243 46/// /3005 10091 91810
BBXX 46094 10181 99446 71243 46/// /3204 10090 91820
BBXX 42043 10181 99290 70949 46/// /0709 1//// 40305 57007 91800 22200 00170 333 91212
BBXX 42043 10181 99290 70949 46/// /0810 1//// 40301 91830 22200 00170 333 91212
AAXX 10184 89257 46/// /0308 11069 21098 39708 49778 52002 91820
AAXX 10184 89272 46/// /3212 11097 21141 37971 49579 52004 91820
AAXX 10184 89272 46/// /3112 11097 21140 37971 49579 52004 91810
AAXX 1018/ 89327 46/// ///// 11018 39491 4//// 5//// 91810
AAXX 1018/ 89828 46/// ///// 11375 36419 4//// 5//// 91820
BBXX 44055 10181 99391 70753 46/// ///// 1//// 91830 22200 00100 10301 70006
AAXX 10184 89013 46/// /0309 11210 21244 37541 49551 52011 91750
AAXX 10184 89065 46/// /1604 10031 21022 39670 49745 5//// 91750
AAXX 10184 89257 46/// /0209 11071 21100 39708 49778 52003 91750
AAXX 10184 89262 46/// /0806 10014 21012 39719 49761 57011 91750
AAXX 10184 89266 46/// /0109 11047 21056 39638 49775 5//// 91820
AAXX 10184 89272 46/// /3212 11097 21136 37971 49579 52004 91750
BBXX A8GH5 10183 99309 70114 41/96 /0522 10180 20125 40240 54000 70200 8//// 22214 20404 80147
BBXX MINUK05 1018/ 99571 70021 46/// ///// 10015 40057 57006
BBXX MINFR00 1018/ 99438 70240 46/// ///// 10125 40225 52013
BBXX DDSC2 10183 99415 70261 41597 82618 10170 20146 40260 56030 70322 887// 22225 00157 20702 80155
AAXX 10184 04418 NIL
AAXX 10184 04425 NIL
AAXX 10184 04432 NIL
AAXX 10184 04436 46/// /0000 11276 21301
AAXX 10184 04464 46/// /1621 11260 21283 333 553// 20004
AAXX 10184 04485 46/// /2913 11269 21281 37216 57005 333 553// 20000
AAXX 10184 04488 46/// /3003 11270 21287 37274 57011 333 553// 20004
BBXX MNAN4 10184 99341 30221 41497 82708 10165 20157 40161 50020 72022 887// 22200 20801 315// 40701 5//// 80160
BBXX MINUK03 1018/ 99549 70011 46/// ///// 10058 40076 57007
BBXX MNAN4 10184 99341 30221 41497 82708 10165 20157 40161 50020 72022 887// 22200 20801 315// 40701 5//// 80160
BBXX SKEC 10181 99598 10196 46/// ///// 10010 49839 52032 22244 00066
AAXX 10183 91553 31598 60000 10255 20232 40092 57008 70222 86900 333 563// 85820 81925
AAXX 10183 91554 31598 70000 10239 20233 40092 54000 70222 878// 333 563// 85820 81925
AAXX 10183 91553 31598 60000 10255 20232 40092 57008 70222 86900 333 563// 85820 81925
AAXX 10183 91554 31598 70000 10239 20233 40092 54000 70222 878// 333 563// 85820 81925
AAXX 10184 41529 22995 00000 10089 20045 39772 40164 60003 333 59023
AAXX 10184 41598 11996 00000 10110 20068 39865 40143 60003 70500 333 59015
AAXX 10184 41620 32995 02305 10080 21106 38619 48520 333 59005
AAXX 10184 41624 02995 02302 10115 20050 39946 40152 60003 333 59018 60007
AAXX 10184 41640 01996 02702 10160 20057 39890 40142 60003 70500 333 59009 60007
AAXX 10184 41660 119// 02706 10010 21036 38473 48564 60003 70500 80001 333 56009 58003 81072
AAXX 10184 41675 11995 20000 10105 20050 30009 40152 60003 70400 82030 333 56090 59020 82362
AAXX 10184 41712 12996 00000 10060 21095 39256 48542 60003 333 59003
AAXX 10184 41715 01996 00000 10130 20068 30101 40168 60003 70500 333 59011 60007
AAXX 10184 41756 01996 02302 10180 20083 30105 40170 60003 70500 333 59001 60007
AAXX 10184 41764 32996 00000 10140 20080 30102 40154 60003 333 59007 60007
AAXX 10184 41768 02996 00000 10140 20080 30167 40174 60003 333 58006 60007
AAXX 10184 41780 02996 00502 10170 20115 30142 40170 60003 333 59002 60007
AAXX 10184 41529 22995 00000 10089 20045 39772 40164 60003 333 59023
AAXX 10184 41598 11996 00000 10110 20068 39865 40143 60003 70500 333 59015
AAXX 10184 41620 32995 02305 10080 21106 38619 48520 333 59005
AAXX 10184 41624 02995 02302 10115 20050 39946 40152 60003 333 59018 60007
AAXX 10184 41640 01996 02702 10160 20057 39890 40142 60003 70500 333 59009 60007
AAXX 10184 41660 119// 02706 10010 21036 38473 48564 60003 70500 80001 333 56009 58003 81072
AAXX 10184 41675 11995 20000 10105 20050 30009 40152 60003 70400 82030 333 56090 59020 82362
AAXX 10184 41712 12996 00000 10060 21095 39256 48542 60003 333 59003
AAXX 10184 41715 01996 00000 10130 20068 30101 40168 60003 70500 333 59011 60007
AAXX 10184 41756 01996 02302 10180 20083 30105 40170 60003 70500 333 59001 60007
AAXX 10184 41764 32996 00000 10140 20080 30102 40154 60003 333 59007 60007
AAXX 10184 41768 02996 00000 10140 20080 30167 40174 60003 333 58006 60007
AAXX 10184 41780 02996 00502 10170 20115 30142 40170 60003 333 59002 60007
AAXX 10184 89065 46/// /1604 10031 21022 39670 49745 5//// 91750
BBXX AMOUK03 10184 99537 70003 46/// ///// 10041 20026 30083 40112 52007 91750
BBXX 63055 10184 99606 10016 47998 /3111 10064 20006 49979 52017 700// 22200 10806 70031
BBXX 63106 10184 99610 10017 46/// /3207 10062 49977 52020 22200
BBXX 63105 10184 99610 10017 47597 ///// 10072 20016 49977 52019 700// 22200
BBXX 62107 10184 99501 70061 46/// /2418 10090 20041 40167 57006 22200 00121 10903 70014
BBXX 64049 10183 99571 10022 41/97 72830 10065 20065 40027 53006 70022 8//// 22200 20610 3//// 4//// 5//// 80065
BBXX AMOUK04 10184 99533 70062 46/// ///// 10091 20046 30093 4//// 57015 91750
BBXX SKEC 10181 99598 10196 46/// ///// 10010 49839 52032 22244 00066
BBXX A8GH5 10183 99309 70114 41/96 /0522 10180 20125 40240 54000 70200 8//// 22214 20404 80147
AAXX 10184 41515 02995 00000 10074 21028 38559 48521 60003 333 59028 60007
AAXX 10184 41560 22696 31803 10030 21051 38264 48499 60003 82320 333 59002 60007
AAXX 10184 41571 119// 00000 10095 20053 39560 40158 60003 70500 333 59019
AAXX 10184 41594 319// 00000 10115 20068 39932 40155 70500 81030 333 56090 59014
AAXX 10184 41685 32993 20000 10105 20000 38937 48513 82020 333 56090 58011 82460
AAXX 10184 41710 02997 03102 10060 21158 39423 40230 60003 333 58001 60007
AAXX 10184 41718 12996 30000 10095 20051 30053 40160 60003 80001 333 56009 59011 83070
AAXX 10184 41739 02996 00000 10110 21044 39098 48543 60003 333 58017 60007
AAXX 10184 41744 32996 00000 10110 21008 38794 48519 333 58004
AAXX 10184 41749 01996 00000 10160 20104 30136 40170 60003 70400 333 59006 60007
AAXX 10184 41515 02995 00000 10074 21028 38559 48521 60003 333 59028 60007
AAXX 10184 41560 22696 31803 10030 21051 38264 48499 60003 82320 333 59002 60007
AAXX 10184 41571 119// 00000 10095 20053 39560 40158 60003 70500 333 59019
AAXX 10184 41594 319// 00000 10115 20068 39932 40155 70500 81030 333 56090 59014
AAXX 10184 41685 32993 20000 10105 20000 38937 48513 82020 333 56090 58011 82460
AAXX 10184 41710 02997 03102 10060 21158 39423 40230 60003 333 58001 60007
AAXX 10184 41718 12996 30000 10095 20051 30053 40160 60003 80001 333 56009 59011 83070
AAXX 10184 41739 02996 00000 10110 21044 39098 48543 60003 333 58017 60007
AAXX 10184 41744 32996 00000 10110 21008 38794 48519 333 58004
AAXX 10184 41749 01996 00000 10160 20104 30136 40170 60003 70400 333 59006 60007
BBXX 44055 10181 99391 70753 46/// ///// 1//// 91830 22200 00100 10301 70006
BBXX ZMENA 10184 99436 31727 46/// ///// 10131 20107 40231 57007 22200
BBXX V2QD4 10183 99340 31560 41497 41011 10220 20190 40057 54000 70311 84175 22263 00240 20401 309// 41402
BBXX ZMFR 10184 99492 31686 43/// /03// 10106 20103 40211 57012 22251 00102
AAXX 10184 41506 02994 03612 10070 20011 48535 60003 333 59016 60007
AAXX 10184 41508 22996 00000 10045 20022 48539 60003 333 59017 60007
AAXX 10184 41523 02996 00000 10060 21001 48520 60003 333 56000 59012 60007
AAXX 10184 41535 12997 00000 10055 20020 48476 60003 333 59019
AAXX 10184 41573 12996 03604 10040 21008 48502 60003 333 59012
AAXX 10184 41600 02996 00000 10125 20096 39841 40142 60003 333 59016 60007
AAXX 10184 41630 11996 00000 10130 20068 40162 60003 70400 333 59009
AAXX 10184 41678 12996 10000 10135 20074 40160 60003 81030 333 56090 59006 60007 81362
AAXX 10184 41696 02996 00000 10010 21101 38050 48577 60003 333 58002 60007
AAXX 10184 41697 02996 00000 10106 20037 40180 60003 333 58000 60007
AAXX 10184 41700 11995 00000 10130 20091 40159 60003 70400 333 59004
AAXX 10184 41725 02996 00000 10150 20092 40160 60003 333 59010 60007
AAXX 10184 41746 02996 00000 10140 20102 40175 60003 333 58002 60007
AAXX 10184 41759 12996 00000 10175 20089 30179 40185 60002 333 58001
AAXX 10184 41785 02996 00000 10160 20081 40169 60003 333 58003 60007
AAXX 10184 71408 46/// /1728 10048 20019 30139 40219 55010 6///1 333 10049 7////
AAXX 10184 48331 32960 80000 10221 20177 39933 40167 57005 8807/ 333 58023
AAXX 10181 98132 11458 80407 10205 20192 40179 58011 60051 76166 8552/ 333 56199 85616 88456
AAXX 10181 98133 NIL
AAXX 10181 98222 31575 73601 10232 20208 40091 58006 70544 81236 333 56999 81820 85358
AAXX 10181 98233 31570 80000 10225 20204 40101 58008 70544 885// 333 56999 88620
AAXX 10181 98324 31462 70000 10260 20236 40070 58008 70544 82170 333 56999 82816 87358
AAXX 10181 98327 31665 73602 10238 20217 39911 40086 56011 70544 82270 333 56999 82842 87360
AAXX 10181 98334 11450 80000 10225 20225 39890 40094 57010 60277 76066 885// 333 56999 88615
AAXX 10181 98425 31558 80201 10258 20239 40081 58006 70322 8567/ 333 56999 85620 88358
AAXX 10181 98426 31568 70702 10244 20219 40087 58004 70544 81108 333 56999 81820 87280
AAXX 10181 98427 32475 40000 10240 20228 39895 40072 58003 82202 333 56999 82818 83075
AAXX 10181 98428 32458 70000 10254 20243 40083 54000 82470 333 56999 82618 87359
AAXX 10181 98432 31568 60000 10249 20237 40076 57010 70544 83270 333 56999 83820 85356
AAXX 10181 98433 11460 70903 10210 20203 39362 40083 57008 60031 70262 82271 333 56199 82812 84357
AAXX 10181 98434 11458 83201 10245 20238 30076 40084 58009 60071 76166 8552/ 333 56999 85616 88457
AAXX 10181 98435 32475 30000 10246 20230 40081 5//// 82201 333 56999 82819
AAXX 10181 98442 NIL
AAXX 10181 98446 11470 63202 10250 20245 30044 40090 58012 69961 70282 84201 333 56799 84818
AAXX 10181 98447 31470 62202 10250 20239 39825 40089 5//// 71522 86201 333 56599 86818
AAXX 10181 98538 32468 20000 10250 20236 30068 40073 58003 81201 333 56999 81811
AAXX 10181 98546 32575 50000 10247 20240 30074 40082 58006 82208 333 56999 82820 85275
AAXX 10181 98548 32468 10000 10250 20239 30073 40079 54000 81100 333 56999 81816
AAXX 10181 98553 31570 42701 10240 20230 30084 40088 54000 70544 83201 333 56999 83820 84075
AAXX 10181 98558 32465 71502 10260 20247 40084 57006 82370 333 56999 82915 87357
AAXX 10181 98642 32462 50000 10234 20220 30068 40077 58009 83202 333 56999 83815 85072
AAXX 10181 98644 32465 30000 10246 20232 30071 40080 58011 81261 333 56999 81817
AAXX 10181 98648 31470 53601 10246 20218 39992 40073 57010 70544 82232 333 56999 82817 84072
AAXX 10181 98746 31462 71502 10238 20213 40074 58028 71344 83971 333 56999 83918 85358
AAXX 10181 98751 32470 20000 10200 20193 39414 40081 57008 81101 333 56999 81815
AAXX 10181 98752 32460 20000 10247 20243 40089 58007 81201 333 56999 81818
AAXX 10181 98851 32470 80000 10250 20231 39932 40080 58013 8127/ 333 56999 81818 88358
BBXX 42370 10181 99273 70905 46/// ///// 10154 91740 22200 10504 70018
BBXX WDE4430 10183 99476 71255 41697 53413 10094 20062 40220 51000 70110 81188 22213 0//// 20401 33433 40502 50402 6//// 80078 ICE /////
AAXX 10184 97460 32460 70000 10238 20223 30056 40070 57008 83876 333 56000 57802 82817 80858
AAXX 10184 71981 16/// /2520 10066 21076 60001 333 10067 21004 70000
BBXX 42370 10181 99273 70905 46/// ///// 10154 91740 22200 10504 70018
BBXX VVPG 10183 99189 10725 41798 43520 10280 20264 40102 51003 70201 84021 22200 00///
BBXX VRGW2 10184 99134 11133 41/96 80138 10250 20235 40096 58001 72166 8//// 22212 04270 20511 80240
BBXX ZCBV4 10184 99049 10986 41/98 /0519 10262 20246 40099 5//// 70211 8//// 22273 00300 20401 329// 40402 80250
BBXX ZCAO7 10184 99107 31224 41998 43108 10284 20246 40066 57010 70000 80007 22214 00306 20601 80257
BBXX 9VBS 10184 99062 10924 41698 30515 10280 20253 40110 51010 70200 834// 22224 00260 20301 312// 40601 80260
BBXX 9MBW7 10184 99159 11193 41/97 80334 10250 20204 40140 51010 70050 88/// 22254 00270 2//// 80200
BBXX TBWUK37 10184 99121 11184 41398 60215 10270 20241 40057 54000 70322 8674/ 22243 04300 20502 302// 40804 80250
BBXX AMOUK05 10184 99537 70003 46/// ///// 10039 20021 30073 40114 54002 91750
BBXX AMOUK14 10184 99533 70062 46/// ///// 10069 20025 30080 40120 57011 91750
BBXX AMOUK08 10184 99501 70061 46/// ///// 10095 20050 30161 40168 57007 91750
BBXX PJGO 10184 99571 10022 47698 /2724 10059 21005 40048 52013 700// 22200
BBXX 63106 10184 99610 10017 46/// /3207 10062 49977 52020 22200
BBXX 63113 10184 99610 10017 46/// /3411 10061 20007 49977 52019 22200 10807 70034
BBXX 2AUO5 10183 99606 10016 41297 43115 10071 20020 49983 52020 7//// 8/7// 22281 20702 399// 40904 80050
AAXX 1018/ 89327 46/// ///// 11016 39519 4//// 5////
AAXX 1018/ 89329 46/// ///// 11111 38631 4//// 5////
BBXX DFTH2 10184 99295 11725 41/97 12512 10230 20216 40200 54000 70200 22263 04230 21004 334// 41504 80220
AAXX 10184 91367 11474 81305 10261 20238 60471 70381 85235 333 56339 85815 82760 82180 555 91018
AAXX 10184 91367 11474 81305 10261 20238 60471 70381 85235 333 56339 85815 82760 82180 555 91018
AAXX 10184 91367 11474 81305 10261 20238 60471 70381 85235 333 56339 85815 82760 82180 555 91018
AAXX 10184 91367 11474 81305 10261 20238 60471 70381 85235 333 56339 85815 82760 82180 555 91018
BBXX ZCAO7 10184 99107 31224 41998 43108 10284 20246 40066 57010 70000 80007 22214 00306 20601 80257
BBXX ZCBV4 10184 99049 10986 41/98 /0519 10262 20246 40099 5//// 70211 8//// 22273 00300 20401 329// 40402 80250
BBXX DFTH2 10184 99295 11725 41/97 12512 10230 20216 40200 54000 70200 22263 04230 21004 334// 41504 80220
BBXX TBWUK37 10184 99121 11184 41398 60215 10270 20241 40057 54000 70322 8674/ 22243 04300 20502 302// 40804 80250
BBXX SHIP 10184 99159 11193 41/97 80334 10250 20204 40140 51010 70050 88/// 22254 00270 2//// 80200
BBXX VRGW2 10184 99134 11133 41/96 80138 10250 20235 40096 58001 72166 8//// 22212 04270 20511 80240
BBXX 9VBS 10184 99062 10924 41698 30515 10280 20253 40110 51010 70200 834// 22224 00260 20301 312// 40601 80260
BBXX VVPG 10183 99189 10725 41798 43520 10280 20264 40102 51003 70201 84021 22200 00///
AAXX 10184 91367 11474 81305 10261 20238 60471 70381 85235 333 56339 85815 82760 82180 555 91018
AAXX 10184 91367 11474 81305 10261 20238 60471 70381 85235 333 56339 85815 82760 82180 555 91018
AAXX 10184 91375 46/// /0706 10244 40089 22200 00282
AAXX 1018/ 89868 46/// ///// 11046 39696 4//// 5//// 91810
AAXX 10184 88963 11208 63606 10016 20013 39737 49766 57015 69901 74654 86700 333 56700 86705 90007 90080 90307 90640 92403 94075 95095 96110
AAXX 10184 88968 11256 83624 10015 20007 39856 49871 57052 60081 76162 886// 333 56799 85705 88710 90043 90095 90221 90290 90952 92436 92734 92851 94070 95080
AAXX 10184 89034 32970 00000 11012 21100 39458 49770 51009 333 92407 92830
AAXX 10184 89053 31458 62715 10048 20029 39768 49781 57005 71010 81532 333 56677 81615 83357 85070 90027 90084 92416 92851 94060 94465 95000 97520 98558
AAXX 10184 89055 31158 63416 10025 20012 39510 49746 57021 74142 82776 333 56777 82702 84360 86270 90045 90092 92734 92841 95121
AAXX 10184 89066 32570 0516 10046 21053 39712 49720 57028 886// 333 56299 88732 92427 92734 92851 94070 95000
BBXX 42370 10181 99273 70905 46/// ///// 10156 91800 22200 10504 70018
AAXX 10184 91165 12566 20416 10228 20172 30155 40190 53006 69901 91753
AAXX 10184 91212 12466 60608 10261 20250 31360 40096 58014 69951 91754
AAXX 10184 91245 32566 2//// 10270 20230 30154 91755
AAXX 10184 91285 32666 62504 10200 20156 30148 40159 51007 91753
AAXX 10184 91334 32474 60512 10278 20231 30069 40072 55012 82271
AAXX 10184 91376 32474 81207 10266 20226 30085 40088 53003 8587/
AAXX 10184 91408 11473 80000 10246 20230 30044 40082 57025 60071 72582 82978
AAXX 10184 91413 32469 59906 10274 20243 30068 40093 58012 82271
AAXX 10184 91610 11599 20807 10262 20216 40081 53003 60001 70121 82101
AAXX 10184 91155 NIL
AAXX 10184 91203 NIL
AAXX 10184 91217 NIL
AAXX 10184 91232 NIL
AAXX 10184 91250 NIL
AAXX 10184 91275 NIL
AAXX 10184 91317 NIL
AAXX 10184 91324 NIL
AAXX 10184 91339 NIL
AAXX 10184 91348 NIL
AAXX 10184 91353 NIL
AAXX 10184 91356 NIL
AAXX 10184 91366 NIL
AAXX 10184 91367 NIL
AAXX 10184 91369 NIL
AAXX 10184 91371 NIL
AAXX 10184 91378 NIL
AAXX 10184 91425 NIL
AAXX 10184 91434 NIL
AAXX 10184 91601 NIL
AAXX 10181 48840 32498 83603 10149 20062 30244 40250 58011 888// 333 58021 82894 88696
AAXX 10181 48845 32698 80000 10146 20092 30231 40238 57008 885// 333 58014 88696
AAXX 10181 01271 17/26 80000 11010 21019 39905 49926 52015 60022 771// 333 11009 91102
AAXX 10183 91565 31598 10000 10250 20243 40092 53003 70111 81100 333 563// 81825
AAXX 10183 91565 31598 10000 10250 20243 40092 53003 70111 81100 333 563// 81825
BBXX AMOUK03 10184 99537 70003 46/// ///// 10041 20026 30083 40112 52007 91750
BBXX 63055 10184 99606 10016 47998 /3111 10064 20006 49979 52017 700// 22200 10806 70031
BBXX 63106 10184 99610 10017 46/// /3207 10062 49977 52020 22200
BBXX 63105 10184 99610 10017 47597 ///// 10072 20016 49977 52019 700// 22200
BBXX 62107 10184 99501 70061 46/// /2418 10090 20041 40167 57006 22200 00121 10903 70014
BBXX 64049 10183 99571 10022 41/97 72830 10065 20065 40027 53006 70022 8//// 22200 20610 3//// 4//// 5//// 80065
BBXX AMOUK04 10184 99533 70062 46/// ///// 10091 20046 30093 4//// 57015 91750
AAXX 10184 03002 15667 /2807 10032 20010 39975 49994 52008 69962 91750 333 10059 86/32
AAXX 10184 91165 12566 20416 10228 20172 30155 40190 53006 69901 91753
AAXX 10184 91212 12466 60608 10261 20250 31360 40096 58014 69951 91754
AAXX 10184 91285 32666 62504 10200 20156 30148 40159 51007 91753
AAXX 10184 91334 32474 60512 10278 20231 30069 40072 55012 82271
AAXX 10184 91376 32474 81207 10266 20226 30085 40088 53003 8587/
AAXX 10184 91408 11473 80000 10246 20230 30044 40082 57025 60071 72582 82978
AAXX 10184 91413 32469 59906 10274 20243 30068 40093 58012 82271
AAXX 10184 91245 32566 2//// 10270 20230 30154 91755
BBXX 42370 10181 99273 70905 46/// ///// 10156 91800 22200 10504 70018
BBXX ZCDQ4 10184 99393 10143 41798 30000 10172 20120 40210 56030 70301 84034 22274 00186 20401 30201 40301 5//// 80140
BBXX A8UA9 10184 99379 10168 41998 02118 10145 20101 40250 54000 70200 22253 20902 80120
AAXX 10184 97690 32450 80000 10238 20227 39979 40081 57016 81837 333 56000 57800 81815 85362 88279
AAXX 10184 71390 46/// /2712 11051 6///1 333 11049 21066 7////
AAXX 10184 71390 46/// /2712 11051 6///1 333 11049 21066 7////
AAXX 10184 62600 32970 03608 10190 20050 39979 40197 333 10220 58003
AAXX 10184 62640 31962 03615 10225 20035 39751 40109 70700 333 10295 59008
AAXX 10184 62641 31568 73206 10245 20175 30107 40155 70622 83570 333 10264 56990 58007 83630 87365
AAXX 10184 62650 32970 03508 10185 21010 39891 40166 333 10251 59002
AAXX 10184 62660 32970 03407 10230 20030 39853 40154 333 10290 58009
AAXX 10184 62680 31968 03406 10250 20120 39710 40163 70600 333 10307 58008
AAXX 10184 62700 32970 73204 10240 20100 39/// 4//// 80007 333 10313 56009 5//// 87275
AAXX 10184 62721 32970 73210 10250 20090 39686 40126 80007 333 10305 56009 58014 87275
AAXX 10184 62730 32970 00000 10293 20147 39579 40135 333 10347 58001
AAXX 10184 62733 32970 03205 10280 20150 39597 40093 333 10345 58026
AAXX 10184 62750 32970 73206 10250 20090 39657 40084 80007 333 10310 56009 58002 87275
AAXX 10184 62751 32970 03604 10232 20090 39483 40109 333 10334 58005
AAXX 10184 62752 32970 03604 10293 20111 39418 40079 333 10357 58013
AAXX 10184 62762 32970 73604 10240 20150 39609 40081 80007 333 10335 56009 58011 87275
AAXX 10184 62600 32970 03608 10190 20050 39979 40197 333 10220 58003
AAXX 10184 62640 31962 03615 10225 20035 39751 40109 70700 333 10295 59008
AAXX 10184 62641 31568 73206 10245 20175 30107 40155 70622 83570 333 10264 56990 58007 83630 87365
AAXX 10184 62650 32970 03508 10185 21010 39891 40166 333 10251 59002
AAXX 10184 62660 32970 03407 10230 20030 39853 40154 333 10290 58009
AAXX 10184 62680 31968 03406 10250 20120 39710 40163 70600 333 10307 58008
AAXX 10184 62700 32970 73204 10240 20100 39/// 4//// 80007 333 10313 56009 5//// 87275
AAXX 10184 62721 32970 73210 10250 20090 39686 40126 80007 333 10305 56009 58014 87275
AAXX 10184 62730 32970 00000 10293 20147 39579 40135 333 10347 58001
AAXX 10184 62733 32970 03205 10280 20150 39597 40093 333 10345 58026
AAXX 10184 62750 32970 73206 10250 20090 39657 40084 80007 333 10310 56009 58002 87275
AAXX 10184 62751 32970 03604 10232 20090 39483 40109 333 10334 58005
AAXX 10184 62752 32970 03604 10293 20111 39418 40079 333 10357 58013
AAXX 10184 62762 32970 73604 10240 20150 39609 40081 80007 333 10335 56009 58011 87275
AAXX 10184 41316 36/90 /3503 10235 20098 30142 40168 333 0E022 10295 59000
AAXX 10184 64005 NIL
AAXX 10184 64040 NIL
AAXX 10184 64210 32560 70902 10282 20252 39718 40066 8357/ 333 10314 59001 83624 86360
AAXX 10184 64360 NIL
AAXX 10184 41316 36/90 /3503 10235 20098 30142 40168 333 0E022 10295 59000
BBXX C6FY5 10184 99093 50344 41598 30515 10240 2020/ 40120 54/// 7//00 831// 22213 04280 20201 309// 40604 5//// 6//// 80210 ICE /////
AAXX 10184 71467 16/// /0506 11220 21239 39990 40108 52012 60001 333 11200 21246 70000
AAXX 10184 71467 16/// /0506 11220 21239 39990 40108 52012 60001 333 11200 21246 70000
AAXX 10183 62771 32970 73508 10240 20010 39488 40132 80007 333 10285 56009 58013 87275
AAXX 10183 62772 32970 03607 10250 20110 39667 40098 333 10305 58013
AAXX 10183 62774 32970 73207 10286 20120 39/// 4//// 80007 333 10336 56009 5//// 87275
AAXX 10183 62781 32970 73603 10215 20045 39495 40126 80007 333 10280 56009 58012 87275
AAXX 10183 62790 31965 70508 10224 21048 39398 40125 70622 80007 333 10274 56009 59008 87275
AAXX 10183 62795 32970 73608 10285 20125 39582 40077 80007 333 10365 56009 58002 87275
AAXX 10183 62803 32970 73603 10225 20075 39/// 4//// 80007 333 10290 56009 58024 87275
AAXX 10183 62805 32970 73303 10280 20120 39547 40067 80007 333 10350 56009 58018 87275
AAXX 10183 62809 32970 73603 10248 20070 39601 40120 80007 333 10290 56009 58009 87275
AAXX 10183 62810 32970 70407 10250 20090 39/// 4//// 80007 333 10320 56009 5//// 87275
AAXX 10183 62771 32970 73508 10240 20010 39488 40132 80007 333 10285 56009 58013 87275
AAXX 10183 62772 32970 03607 10250 20110 39667 40098 333 10305 58013
AAXX 10183 62774 32970 73207 10286 20120 39/// 4//// 80007 333 10336 56009 5//// 87275
AAXX 10183 62781 32970 73603 10215 20045 39495 40126 80007 333 10280 56009 58012 87275
AAXX 10183 62790 31965 70508 10224 21048 39398 40125 70622 80007 333 10274 56009 59008 87275
AAXX 10183 62795 32970 73608 10285 20125 39582 40077 80007 333 10365 56009 58002 87275
AAXX 10183 62803 32970 73603 10225 20075 39/// 4//// 80007 333 10290 56009 58024 87275
AAXX 10183 62805 32970 73303 10280 20120 39547 40067 80007 333 10350 56009 58018 87275
AAXX 10183 62809 32970 73603 10248 20070 39601 40120 80007 333 10290 56009 58009 87275
AAXX 10183 62810 32970 70407 10250 20090 39/// 4//// 80007 333 10320 56009 5//// 87275
BBXX C6FY5 10184 99093 50344 41598 30515 10240 2020/ 40120 54/// 7//00 831// 22213 04280 20201 309// 40604 5//// 6//// 80210 ICE /////
BBXX AMOUK05 10184 99537 70003 46/// ///// 10039 20021 30073 40114 54002 91750
BBXX AMOUK14 10184 99533 70062 46/// ///// 10069 20025 30080 40120 57011 91750
BBXX AMOUK08 10184 99501 70061 46/// ///// 10095 20050 30161 40168 57007 91750
BBXX PJGO 10184 99571 10022 47698 /2724 10059 21005 40048 52013 700// 22200
BBXX 63106 10184 99610 10017 46/// /3207 10062 49977 52020 22200
BBXX 63113 10184 99610 10017 46/// /3411 10061 20007 49977 52019 22200 10807 70034
BBXX 2AUO5 10183 99606 10016 41297 43115 10071 20020 49983 52020 7//// 8/7// 22281 20702 399// 40904 80050
BBXX 42044 10181 99262 70971 46/// /1208 10200 20145 40239 91830 22200 00194 333 91213
BBXX 42044 10181 99262 70971 46/// /1108 10200 20147 40241 57006 91800 22200 00194 333 91213
BBXX 42046 10181 99279 70940 46/// /0610 1//// 40280 91830 22200 00226 333 91212
BBXX 42046 10181 99279 70940 46/// /0711 1//// 40283 57011 91800 22200 00226 333 91213
AAXX 10181 25594 11/93 90818 11009 21009 39708 49756 57071 60032 73833 333 21091 48029 91124
BBXX 42370 10181 99273 70905 46/// ///// 10156 91820 22200 10504 70018
BBXX 42370 10181 99273 70905 46/// ///// 10156 91820 22200 10504 70018
BBXX 42046 10181 99279 70940 46/// /0711 1//// 40283 57011 91800 22200 00226 333 91213
BBXX 42046 10181 99279 70940 46/// /0610 1//// 40280 91830 22200 00226 333 91212
BBXX 42044 10181 99262 70971 46/// /1108 10200 20147 40241 57006 91800 22200 00194 333 91213
BBXX 42044 10181 99262 70971 46/// /1208 10200 20145 40239 91830 22200 00194 333 91213
BBXX 52243 10181 99193 11666 46/// ///// 1//// 91800 22200 00266
BBXX 51179 10181 99143 51708 46/// ///// 1//// 91800 22200 00285
BBXX 51178 10181 99142 51695 46/// ///// 1//// 91800 22200 00282
BBXX 52246 10181 99152 11457 46/// ///// 1//// 91800 22200 00282
BBXX 51176 10181 99278 71758 46/// ///// 1//// 91800 22200 00236
BBXX 52245 10181 99181 11458 46/// ///// 1//// 91800 22200 00281
BBXX 51174 10181 99142 51697 46/// ///// 1//// 91800 22200 00284
BBXX 52244 10181 99200 11452 46/// ///// 1//// 91800 22200 00269
BBXX 51173 10181 99260 71739 46/// ///// 1//// 91800 22200 00240
BBXX 51172 10181 99284 71783 46/// ///// 1//// 91800 22200 00234
BBXX 51171 10181 99064 71623 46/// ///// 1//// 91800 22200 00281
BBXX 51170 10181 99168 71695 46/// ///// 1//// 91800 22200 00261
BBXX 51169 10181 99004 51600 46/// ///// 1//// 91800 22200 00256
BBXX 52248 10181 99135 11448 46/// ///// 1//// 91800 22200 00285
AAXX 10184 97372 11457 70000 10240 20236 39969 40090 57015 60081 70262 83276 333 56000 83817 86359
BBXX AMOUK03 10184 99537 70003 46/// ///// 10041 20026 30083 40112 52007 91750
BBXX 63055 10184 99606 10016 47998 /3111 10064 20006 49979 52017 700// 22200 10806 70031
BBXX 63106 10184 99610 10017 46/// /3207 10062 49977 52020 22200
BBXX 63105 10184 99610 10017 47597 ///// 10072 20016 49977 52019 700// 22200
BBXX 62107 10184 99501 70061 46/// /2418 10090 20041 40167 57006 22200 00121 10903 70014
BBXX 64049 10183 99571 10022 41/97 72830 10065 20065 40027 53006 70022 8//// 22200 20610 3//// 4//// 5//// 80065
BBXX AMOUK04 10184 99533 70062 46/// ///// 10091 20046 30093 4//// 57015 91750
BBXX 52248 10181 99135 11448 46/// ///// 1//// 91800 22200 00285
BBXX 52244 10181 99200 11452 46/// ///// 1//// 91800 22200 00269
BBXX 52246 10181 99152 11457 46/// ///// 1//// 91800 22200 00282
BBXX 52243 10181 99193 11666 46/// ///// 1//// 91800 22200 00266
BBXX 52245 10181 99181 11458 46/// ///// 1//// 91800 22200 00281
BBXX 51173 10181 99260 71739 46/// ///// 1//// 91800 22200 00240
BBXX 51176 10181 99278 71758 46/// ///// 1//// 91800 22200 00236
BBXX 51172 10181 99284 71783 46/// ///// 1//// 91800 22200 00234
BBXX 51171 10181 99064 71623 46/// ///// 1//// 91800 22200 00281
BBXX 51170 10181 99168 71695 46/// ///// 1//// 91800 22200 00261
BBXX 51169 10181 99004 51600 46/// ///// 1//// 91800 22200 00256
BBXX 51178 10181 99142 51695 46/// ///// 1//// 91800 22200 00282
BBXX 51174 10181 99142 51697 46/// ///// 1//// 91800 22200 00284
BBXX 51179 10181 99143 51708 46/// ///// 1//// 91800 22200 00285
AAXX 10184 97086 32560 72603 10252 20224 30062 40087 56009 83571 333 56000 83620 85360
BBXX C6VG8 10184 99365 70743 41/96 83433 10090 2//// 40230 54/// 7//22 8824/ 22284 00170 2//// 3//// 4//// 5//// 6//// 8//// ICE /////
BBXX AMOUK05 10184 99537 70003 46/// ///// 10039 20021 30073 40114 54002 91750
BBXX AMOUK14 10184 99533 70062 46/// ///// 10069 20025 30080 40120 57011 91750
BBXX AMOUK08 10184 99501 70061 46/// ///// 10095 20050 30161 40168 57007 91750
BBXX PJGO 10184 99571 10022 47698 /2724 10059 21005 40048 52013 700// 22200
BBXX 63106 10184 99610 10017 46/// /3207 10062 49977 52020 22200
BBXX 63113 10184 99610 10017 46/// /3411 10061 20007 49977 52019 22200 10807 70034
BBXX 2AUO5 10183 99606 10016 41297 43115 10071 20020 49983 52020 7//// 8/7// 22281 20702 399// 40904 80050
AAXX 10184 97810 32458 70000 10251 20241 30061 40071 56005 82232 333 56000 57804 82819 85360 80835
AAXX 10184 97086 32560 72703 10250 20227 30062 40087 50000 83571 333 56000 83620 85360
AAXX 10181 30879 42999 80000 11221 21240 39399 40218 52007 80007
BBXX HPQI 10184 99313 70770 41598 60506 10200 20200 40226 70222 86835 9//// 22254 00240 20401 31104 40402 50602 6//// 80200
BBXX C6VG8 10184 99365 70743 41/96 83433 10090 2//// 40230 54/// 7//22 8824/ 22284 00170 2//// 3//// 4//// 5//// 6//// 8//// ICE /////
AAXX 10184 48552 11460 60000 10250 20243 30104 40111 57007 60233 70362 82806 333 58001 70307
AAXX 10184 48464 31558 63503 10220 20205 30114 40127 57003 71022 84534 333 58017
AAXX 10204 96315 41460 71805 10254 20240 40076 70522 82848 333 82815 83364 85080
AAXX 10204 96323 NIL
AAXX 10184 48556 11556 50000 10245 20238 30096 40113 57002 69943 71011 82505 333 58008 70010
AAXX 10184 48574 11460 80000 10245 20238 30063 40093 57015 60053 70262 8687/ 333 59013 70047
AAXX 10181 27271 42597 71205 11065 21081 39988 40149 57013 87500
AAXX 10184 48574 01460 80000 10245 20238 30063 40093 57015 60063 72162 8687/ 333 59013 69986 70055
AAXX 10184 96253 32558 40000 10250 20233 30066 40086 57002 81532 333 56000 57800 82820 84360
AAXX 10184 03784 46/// /2408 10036 21009 30156 40159 51006 91750 333 10068
BBXX AMOUK03 10184 99537 70003 46/// ///// 10041 20026 30083 40112 52007 91750
BBXX 63055 10184 99606 10016 47998 /3111 10064 20006 49979 52017 700// 22200 10806 70031
BBXX 63106 10184 99610 10017 46/// /3207 10062 49977 52020 22200
BBXX 63105 10184 99610 10017 47597 ///// 10072 20016 49977 52019 700// 22200
BBXX 62107 10184 99501 70061 46/// /2418 10090 20041 40167 57006 22200 00121 10903 70014
BBXX 64049 10183 99571 10022 41/97 72830 10065 20065 40027 53006 70022 8//// 22200 20610 3//// 4//// 5//// 80065
BBXX AMOUK04 10184 99533 70062 46/// ///// 10091 20046 30093 4//// 57015 91750
BBXX S6SR 10184 99442 50461 41496 73417 10150 20116 40200 54000 7//// 8//// 22223 00110 2//04 333// 4//// 5//// 6//// 80130 ICE /////
BBXX S6SR 10184 99442 50461 41496 73417 10150 20116 40200 54000 7//// 8//// 22223 00110 2//04 333// 4//// 5//// 6//// 80130 ICE /////
AAXX 10181 25677 11396 80306 11028 21035 39632 49638 57016 60022 78583 889// 333 21052 86707 91108
AAXX 10184 48373 31940 20000 10225 20185 30083 40147 57004 71000 80001 333 58017
AAXX 10184 48358 31959 00000 10134 20107 30020 40205 56009 71000 333 58021
AAXX 10184 97072 31557 70703 10246 20228 39998 40098 58008 70522 82521 333 56000 82620 84460
AAXX 10184 96011 32560 60000 10260 20230 30075 40101 57003 82532 333 56000 82620
AAXX 10183 63661 32980 10000 10162 20109 48531 81040 333 10264 58007 81359
AAXX 10183 63695 32980 10000 10158 20143 81030 333 10246 81359
AAXX 10184 48386 31956 00000 10216 20191 30093 40138 55003 71000 333 58012
AAXX 10184 97980 32460 50000 10240 20229 30056 40063 56018 82842 333 56000 82817
BBXX 42045 10181 99262 70965 46/// /1011 10189 40241 91830 22200 00219 333 91213
BBXX 42045 10181 99262 70965 46/// /1011 10191 40242 91800 22200 00219 333 91214
AAXX 10184 97686 01356 80000 10167 20155 38358 40090 51003 60021 70522 86747 333 56000 60027 84709 87360
BBXX 42045 10181 99262 70965 46/// /1011 10191 40242 91800 22200 00219 333 91214
BBXX 42045 10181 99262 70965 46/// /1011 10189 40241 91830 22200 00219 333 91213
AAXX 10181 20046 11498 81706 11032 21039 30001 40033 58014 69910 73632 8353/ 333 11027
AAXX 10181 20069 41463 81709 11030 21040 30109 40122 54000 77173 8452/ 333 84611 91112
AAXX 10184 67002 12580 70802 10251 20251 20215 30094 40128 69952 8188/ 333 10320 58018 81820 86630 92407
AAXX 10181 20292 42498 71102 11189 21201 30161 40182 52011 83530 333 91104
AAXX 10181 23966 41499 61901 11112 21125 30160 40292 57025 70272 83530
BBXX AMOUK05 10184 99537 70003 46/// ///// 10039 20021 30073 40114 54002 91750
BBXX AMOUK14 10184 99533 70062 46/// ///// 10069 20025 30080 40120 57011 91750
BBXX AMOUK08 10184 99501 70061 46/// ///// 10095 20050 30161 40168 57007 91750
BBXX PJGO 10184 99571 10022 47698 /2724 10059 21005 40048 52013 700// 22200
BBXX 63106 10184 99610 10017 46/// /3207 10062 49977 52020 22200
BBXX 63113 10184 99610 10017 46/// /3411 10061 20007 49977 52019 22200 10807 70034
BBXX 2AUO5 10183 99606 10016 41297 43115 10071 20020 49983 52020 7//// 8/7// 22281 20702 399// 40904 80050
AAXX 10184 97192 32420 61003 10248 20239 30049 40104 57012 82520 333 56000 82617 85460
AAXX 10184 97630 11450 70105 10230 20215 39922 40082 57014 69901 71522 83972 333 56000 57901 81911 82813 86360 80978
AAXX 10181 44275 32998 00000 11260 21271 37768 40532 57002
AAXX 10181 44284 32999 02502 11254 21278 37894 40436 57008
AAXX 10181 44287 32999 00304 11162 21206 38160 40445 57005
AAXX 10184 97028 32560 60000 10242 20231 30069 40075 56005 83521 333 56000 83620 85460
AAXX 10184 97340 32560 82206 10237 20233 30067 40082 56021 82272 333 56000 82620 87360
AAXX 10181 25745 41496 80205 11139 21182 39771 49823 57022 78583 889//
AAXX 1018/ 68902 46/// ///// 40111 57014
AAXX 10184 48383 31957 00505 10155 20104 30023 40189 57012 71000 333 58012
BBXX AMOUK03 10184 99537 70003 46/// ///// 10041 20026 30083 40112 52007 91750
BBXX 63055 10184 99606 10016 47998 /3111 10064 20006 49979 52017 700// 22200 10806 70031
BBXX 63106 10184 99610 10017 46/// /3207 10062 49977 52020 22200
BBXX 63105 10184 99610 10017 47597 ///// 10072 20016 49977 52019 700// 22200
BBXX 62107 10184 99501 70061 46/// /2418 10090 20041 40167 57006 22200 00121 10903 70014
BBXX 64049 10183 99571 10022 41/97 72830 10065 20065 40027 53006 70022 8//// 22200 20610 3//// 4//// 5//// 80065
BBXX AMOUK04 10184 99533 70062 46/// ///// 10091 20046 30093 4//// 57015 91750
AAXX 10184 97430 32460 72303 10248 20235 30057 40087 56009 83272 333 56700 57872 83818 86360 80860
AAXX 10184 97016 32460 30000 10248 20229 30082 40084 57004 82231 333 56000 57802 82818 83360 80860
BBXX AMOUK05 10184 99537 70003 46/// ///// 10039 20021 30073 40114 54002 91750
BBXX AMOUK14 10184 99533 70062 46/// ///// 10069 20025 30080 40120 57011 91750
BBXX AMOUK08 10184 99501 70061 46/// ///// 10095 20050 30161 40168 57007 91750
BBXX PJGO 10184 99571 10022 47698 /2724 10059 21005 40048 52013 700// 22200
BBXX 63106 10184 99610 10017 46/// /3207 10062 49977 52020 22200
BBXX 63113 10184 99610 10017 46/// /3411 10061 20007 49977 52019 22200 10807 70034
BBXX 2AUO5 10183 99606 10016 41297 43115 10071 20020 49983 52020 7//// 8/7// 22281 20702 399// 40904 80050
AAXX 10184 96633 01457 82604 10240 20239 30086 40094 57005 60211 70296 8392/ 333 56009 57900 60067 81918 82618 88460 809//
AAXX 10184 67002 12580 70802 10251 20251 30094 40128 69952 8188/ 333 10320 58018 81820 86630 92407
BBXX AMOUK03 10184 99537 70003 46/// ///// 10041 20026 30083 40112 52007 91750
BBXX 63055 10184 99606 10016 47998 /3111 10064 20006 49979 52017 700// 22200 10806 70031
BBXX 63106 10184 99610 10017 46/// /3207 10062 49977 52020 22200
BBXX 63105 10184 99610 10017 47597 ///// 10072 20016 49977 52019 700// 22200
BBXX 62107 10184 99501 70061 46/// /2418 10090 20041 40167 57006 22200 00121 10903 70014
BBXX 64049 10183 99571 10022 41/97 72830 10065 20065 40027 53006 70022 8//// 22200 20610 3//// 4//// 5//// 80065
BBXX AMOUK04 10184 99533 70062 46/// ///// 10091 20046 30093 4//// 57015 91750
AAXX 10184 97260 31559 60000 10245 20236 30080 40087 57009 70522 84531 333 56000 84620
BBXX AMOUK05 10184 99537 70003 46/// ///// 10039 20021 30073 40114 54002 91750
BBXX AMOUK14 10184 99533 70062 46/// ///// 10069 20025 30080 40120 57011 91750
BBXX AMOUK08 10184 99501 70061 46/// ///// 10095 20050 30161 40168 57007 91750
BBXX PJGO 10184 99571 10022 47698 /2724 10059 21005 40048 52013 700// 22200
BBXX 63106 10184 99610 10017 46/// /3207 10062 49977 52020 22200
BBXX 63113 10184 99610 10017 46/// /3411 10061 20007 49977 52019 22200 10807 70034
BBXX 2AUO5 10183 99606 10016 41297 43115 10071 20020 49983 52020 7//// 8/7// 22281 20702 399// 40904 80050
BBXX 52249 10181 99052 31503 46/// ///// 1//// 91800 22200 00306
BBXX UGPK 11001 99555 11475 43/98 73207 11030 49960 50020 22281 00015 2//10 3//01
BBXX AMOUK03 10184 99537 70003 46/// ///// 10041 20026 30083 40112 52007 91750
BBXX 63055 10184 99606 10016 47998 /3111 10064 20006 49979 52017 700// 22200 10806 70031
BBXX 63106 10184 99610 10017 46/// /3207 10062 49977 52020 22200
BBXX 63105 10184 99610 10017 47597 ///// 10072 20016 49977 52019 700// 22200
BBXX 62107 10184 99501 70061 46/// /2418 10090 20041 40167 57006 22200 00121 10903 70014
BBXX 64049 10183 99571 10022 41/97 72830 10065 20065 40027 53006 70022 8//// 22200 20610 3//// 4//// 5//// 80065
BBXX AMOUK04 10184 99533 70062 46/// ///// 10091 20046 30093 4//// 57015 91750
BBXX 52249 10181 99052 31503 46/// ///// 1//// 91800 22200 00306
BBXX AMOUK05 10184 99537 70003 46/// ///// 10039 20021 30073 40114 54002 91750
BBXX AMOUK14 10184 99533 70062 46/// ///// 10069 20025 30080 40120 57011 91750
BBXX AMOUK08 10184 99501 70061 46/// ///// 10095 20050 30161 40168 57007 91750
BBXX PJGO 10184 99571 10022 47698 /2724 10059 21005 40048 52013 700// 22200
BBXX 63106 10184 99610 10017 46/// /3207 10062 49977 52020 22200
BBXX 63113 10184 99610 10017 46/// /3411 10061 20007 49977 52019 22200 10807 70034
BBXX 2AUO5 10183 99606 10016 41297 43115 10071 20020 49983 52020 7//// 8/7// 22281 20702 399// 40904 80050
AAXX 10181 78090 15/// /0000 10297 30185 40188 69901 91800 222// 00144
AAXX 10181 29645 41995 20000 11226 21244 30146 40353 58007 71000 80001
BBXX AMOUK03 10184 99537 70003 46/// ///// 10041 20026 30083 40112 52007 91750
BBXX 63055 10184 99606 10016 47998 /3111 10064 20006 49979 52017 700// 22200 10806 70031
BBXX 63106 10184 99610 10017 46/// /3207 10062 49977 52020 22200
BBXX 63105 10184 99610 10017 47597 ///// 10072 20016 49977 52019 700// 22200
BBXX 62107 10184 99501 70061 46/// /2418 10090 20041 40167 57006 22200 00121 10903 70014
BBXX 64049 10183 99571 10022 41/97 72830 10065 20065 40027 53006 70022 8//// 22200 20610 3//// 4//// 5//// 80065
BBXX AMOUK04 10184 99533 70062 46/// ///// 10091 20046 30093 4//// 57015 91750
AAXX 10184 71734 16/// /2710 11133 21189 39840 40248 51002 60001 333 11112 21142 70000
AAXX 10184 96739 01440 80000 10238 20235 30054 40103 57014 60061 71096 8552/ 333 56009 69907 85618
AAXX 10184 78951 12580 21008 10305 20225 30090 40105 60001 333 10311 20228 59014 70000 81821
AAXX 10184 78951 12580 21008 10305 20225 30090 40105 60001 333 10311 20228 59014 70000 81821
BBXX AMOUK05 10184 99537 70003 46/// ///// 10039 20021 30073 40114 54002 91750
BBXX AMOUK14 10184 99533 70062 46/// ///// 10069 20025 30080 40120 57011 91750
BBXX AMOUK08 10184 99501 70061 46/// ///// 10095 20050 30161 40168 57007 91750
BBXX PJGO 10184 99571 10022 47698 /2724 10059 21005 40048 52013 700// 22200
BBXX 63106 10184 99610 10017 46/// /3207 10062 49977 52020 22200
BBXX 63113 10184 99610 10017 46/// /3411 10061 20007 49977 52019 22200 10807 70034
BBXX 2AUO5 10183 99606 10016 41297 43115 10071 20020 49983 52020 7//// 8/7// 22281 20702 399// 40904 80050
BBXX AMOUK03 10184 99537 70003 46/// ///// 10041 20026 30083 40112 52007 91750
BBXX 63055 10184 99606 10016 47998 /3111 10064 20006 49979 52017 700// 22200 10806 70031
BBXX 63106 10184 99610 10017 46/// /3207 10062 49977 52020 22200
BBXX 63105 10184 99610 10017 47597 ///// 10072 20016 49977 52019 700// 22200
BBXX 62107 10184 99501 70061 46/// /2418 10090 20041 40167 57006 22200 00121 10903 70014
BBXX 64049 10183 99571 10022 41/97 72830 10065 20065 40027 53006 70022 8//// 22200 20610 3//// 4//// 5//// 80065
BBXX AMOUK04 10184 99533 70062 46/// ///// 10091 20046 30093 4//// 57015 91750
AAXX 10184 48583 01430 80000 10240 20230 30096 40102 57010 60443 76166 8382/ 333 58002 60097 70476
AAXX 10184 91723 NIL
AAXX 10184 91964 NIL
AAXX 10184 83726 32597 50502 10242 20193 39140 40095 54000 86231
BBXX AMOUK05 10184 99537 70003 46/// ///// 10039 20021 30073 40114 54002 91750
BBXX AMOUK14 10184 99533 70062 46/// ///// 10069 20025 30080 40120 57011 91750
BBXX AMOUK08 10184 99501 70061 46/// ///// 10095 20050 30161 40168 57007 91750
BBXX PJGO 10184 99571 10022 47698 /2724 10059 21005 40048 52013 700// 22200
BBXX 63106 10184 99610 10017 46/// /3207 10062 49977 52020 22200
BBXX 63113 10184 99610 10017 46/// /3411 10061 20007 49977 52019 22200 10807 70034
BBXX 2AUO5 10183 99606 10016 41297 43115 10071 20020 49983 52020 7//// 8/7// 22281 20702 399// 40904 80050
BBXX AMOUK03 10184 99537 70003 46/// ///// 10041 20026 30083 40112 52007 91750
BBXX 63055 10184 99606 10016 47998 /3111 10064 20006 49979 52017 700// 22200 10806 70031
BBXX 63106 10184 99610 10017 46/// /3207 10062 49977 52020 22200
BBXX 63105 10184 99610 10017 47597 ///// 10072 20016 49977 52019 700// 22200
BBXX 62107 10184 99501 70061 46/// /2418 10090 20041 40167 57006 22200 00121 10903 70014
BBXX 64049 10183 99571 10022 41/97 72830 10065 20065 40027 53006 70022 8//// 22200 20610 3//// 4//// 5//// 80065
BBXX AMOUK04 10184 99533 70062 46/// ///// 10091 20046 30093 4//// 57015 91750
AAXX 10184 89573 35970 72903 11047 21093 39802 49824 57004 8703/
AAXX 10184 89573 35970 72903 11047 21093 39802 49824 57004 8703/
AAXX 10184 48464 31558 63503 10220 20188 30114 40127 57003 71022 84534 333 58017
AAXX 10184 48581 11556 60000 10237 20233 30071 40113 57004 60353 71022 82576 333 58000 70348
AAXX 10181 03953 11470 82107 10093 20078 30077 40113 58016 69952 75065 886// 333 10093 81710 87717 92427
AAXX 10184 96837 31559 10268 20241 30100 40103 57009 70522 83221 333 56000 57800 83823
AAXX 10181 48921 NIL
AAXX 10181 48924 NIL
AAXX 10181 48925 NIL
AAXX 10181 48926 NIL
AAXX 10181 48927 NIL
AAXX 10181 48928 NIL
AAXX 10181 48930 31440 80402 10180 20112 39857 40215 52003 71044 8387/ 333 58041
AAXX 10181 48935 NIL
AAXX 10181 48938 NIL
AAXX 10181 48940 31610 23203 10200 20149 39970 40170 57010 71044 82500 333 58011
AAXX 10181 48941 NIL
AAXX 10181 48944 NIL
AAXX 10181 48945 NIL
AAXX 10181 48946 NIL
AAXX 10181 48947 31530 60402 10142 20110 30041 40214 52011 71044 83560 333 58015
AAXX 10181 48948 NIL
AAXX 10181 48952 NIL
AAXX 10181 48953 NIL
AAXX 10181 48955 31758 33604 10188 20118 30026 40146 57002 71044 83500 333 58009
AAXX 10181 48956 NIL
AAXX 10181 48957 NIL
BBXX AMOUK05 10184 99537 70003 46/// ///// 10039 20021 30073 40114 54002 91750
BBXX AMOUK14 10184 99533 70062 46/// ///// 10069 20025 30080 40120 57011 91750
BBXX AMOUK08 10184 99501 70061 46/// ///// 10095 20050 30161 40168 57007 91750
BBXX PJGO 10184 99571 10022 47698 /2724 10059 21005 40048 52013 700// 22200
BBXX 63106 10184 99610 10017 46/// /3207 10062 49977 52020 22200
BBXX 63113 10184 99610 10017 46/// /3411 10061 20007 49977 52019 22200 10807 70034
BBXX 2AUO5 10183 99606 10016 41297 43115 10071 20020 49983 52020 7//// 8/7// 22281 20702 399// 40904 80050
AAXX 10184 48001 NIL
AAXX 10184 48004 NIL
AAXX 10184 48008 31510 10000 10178 20155 40134 71044 81400 333 56900 58000
AAXX 10184 48010 NIL
AAXX 10184 48018 NIL
AAXX 10184 48019 NIL
AAXX 10184 48020 NIL
AAXX 10184 48025 NIL
AAXX 10184 48035 NIL
AAXX 10184 48037 NIL
AAXX 10184 48042 32956 10000 10220 20185 40117 80050 333 56090 58008
AAXX 10184 48045 NIL
AAXX 10184 48048 NIL
AAXX 10184 48053 32540 30000 10220 20185 40117 80500 333 56500 59017
AAXX 10184 48057 NIL
AAXX 10184 48060 32410 60000 10210 20160 40140 84970 333 56560 58003
AAXX 10184 48062 NIL
AAXX 10184 48071 32950 00000 10215 20185 40128 333 58018
AAXX 10184 48077 NIL
AAXX 10184 48078 NIL
AAXX 10184 48080 32950 00000 10220 20205 40103 333 58007
AAXX 10184 48094 32456 50000 10250 20230 40123 85900 333 56900 58009
AAXX 10184 48097 32456 62301 10270 20201 40119 85530 333 56990 59001
AAXX 10184 48108 31596 50501 10250 20167 40132 70522 82405 333 56109 58008
AAXX 10184 48109 22496 60901 10271 20240 40101 84970 333 56990 58003
AAXX 10184 48110 31995 81302 10240 20191 40128 705// 80008 333 56009 58013
AAXX 10184 48112 22597 80408 10260 20229 40100 83876 333 56199 58015
AAXX 10184 48001 NIL
AAXX 10184 48004 NIL
AAXX 10184 48008 31510 10000 10178 20155 40134 71044 81400 333 56900 58000
AAXX 10184 48010 NIL
AAXX 10184 48018 NIL
AAXX 10184 48019 NIL
AAXX 10184 48020 NIL
AAXX 10184 48025 NIL
AAXX 10184 48035 NIL
AAXX 10184 48037 NIL
AAXX 10184 48042 32956 10000 10220 20185 40117 80050 333 56090 58008
AAXX 10184 48045 NIL
AAXX 10184 48048 NIL
AAXX 10184 48053 32540 30000 10220 20185 40117 80500 333 56500 59017
AAXX 10184 48057 NIL
AAXX 10184 48060 32410 60000 10210 20160 40140 84970 333 56560 58003
AAXX 10184 48062 NIL
AAXX 10184 48071 32950 00000 10215 20185 40128 333 58018
AAXX 10184 48077 NIL
AAXX 10184 48078 NIL
AAXX 10184 48080 32950 00000 10220 20205 40103 333 58007
AAXX 10184 48094 32456 50000 10250 20230 40123 85900 333 56900 58009
AAXX 10184 48097 32456 62301 10270 20201 40119 85530 333 56990 59001
AAXX 10184 48108 31596 50501 10250 20167 40132 70522 82405 333 56109 58008
AAXX 10184 48109 22496 60901 10271 20240 40101 84970 333 56990 58003
AAXX 10184 48110 31995 81302 10240 20191 40128 705// 80008 333 56009 58013
AAXX 10184 48112 22597 80408 10260 20229 40100 83876 333 56199 58015
BBXX WDJK 10184 99524 71363 41498 63220 10070 20026 40250 54000 70222 8629/ 22233 00070 20301 329// 40805 5//// 6//// 80050 ICE /////
BBXX WDJK 10184 99524 71363 41498 63220 10070 20026 40250 54000 70222 8629/ 22233 00070 20301 329// 40805 5//// 6//// 80050 ICE /////
AAXX 10181 35229 129// 00000 11236 21254 30023 40326 57006 69900 333 11166
AAXX 10181 35426 329// 00901 11210 21229 39997 40317 57006 333 11153
AAXX 10181 35532 32998 00000 11138 21181 39778 40301 57008 333 11069
AAXX 10181 35416 329// 21302 11171 21193 30159 40289 57003 80001 333 11113
BBXX AMOUK03 10184 99537 70003 46/// ///// 10041 20026 30083 40112 52007 91750
BBXX 63055 10184 99606 10016 47998 /3111 10064 20006 49979 52017 700// 22200 10806 70031
BBXX 63106 10184 99610 10017 46/// /3207 10062 49977 52020 22200
BBXX 63105 10184 99610 10017 47597 ///// 10072 20016 49977 52019 700// 22200
BBXX 62107 10184 99501 70061 46/// /2418 10090 20041 40167 57006 22200 00121 10903 70014
BBXX 64049 10183 99571 10022 41/97 72830 10065 20065 40027 53006 70022 8//// 22200 20610 3//// 4//// 5//// 80065
BBXX AMOUK04 10184 99533 70062 46/// ///// 10091 20046 30093 4//// 57015 91750
BBXX WDJK 10184 99524 71363 41498 63220 10070 20026 40250 54000 70222 8629/ 22233 00070 20301 329// 40805 5//// 6//// 80050 ICE /////
AAXX 10184 41966 32930 00000 10180 20180 30040 40123 333 59004 70000
BBXX WDE8293 10184 99134 10492 41597 30513 10250 20191 40150 54000 70200 831// 22255 00270 20303 306// 40202 5//// 6//// 80210 ICE /////
BBXX WDE8293 10184 99134 10492 41597 30513 10250 20191 40150 54000 70200 831// 22255 00270 20303 306// 40202 5//// 6//// 80210 ICE /////
AAXX 10184 41909 31940 00000 10167 10160 30111 40123 70540 333 58007 70000
AAXX 10184 71448 16/// /1402 11073 21135 39823 40163 50005 60001 333 11073 21168 70000
AAXX 10184 44454 42556 10000 10068 20050 38650 48484 81100 333 59005
AAXX 10181 38932 429// 00000 10016 21012 40294 58003
AAXX 10183 63612 32980 00000 10274 20192 40091 333 10345 59001
AAXX 10184 67009 31580 70000 10270 20231 39993 40111 51010 7//// 879// 333 10325 86820 81920 94994 94996 95814 95816 555 82640
AAXX 10184 71604 16/// /2208 10039 20021 60001 333 10039 21009 70006
AAXX 10181 10815 07244 82704 10006 20006 39232 48459 51012 60022 75165 333 10009 20001 3/000 55300 20000 30000 69907 81/05 85/09 88/15
AAXX 10181 10836 01220 83004 10004 20004 39303 40191 51016 60032 76876 886// 333 10013 21006 3/100 43008 55300 20000 30000 60017 88706 96441
AAXX 10184 41466 42460 21507 10148 20111 38583 48482 82600 333 10248 58011 82720
AAXX 10184 60515 12558 50000 10100 20071 40221 56013 60002 83230 333 10130 83833 83360 95990
BBXX DEFY 10183 99145 70559 41498 32402 10324 20221 40090 57023 70300 83100 22262 02291 80250
BBXX DEFY 10183 99145 70559 41498 32402 10324 20221 40090 57023 70300 83100 22262 02291 80250
BBXX C6YA5 10183 99518 50737 417// 63220 10107 2//// 49940 53010 75655 832/3 22233 00100 20401 3//// 4//// 5//// 6//// 8//// ICE /////
BBXX C6YA5 10183 99518 50737 417// 63220 10107 2//// 49940 53010 75655 832/3 22233 00100 20401 3//// 4//// 5//// 6//// 8//// ICE /////
AAXX 10184 71462 46/// /2617 11030 21062 30029 6///1 333 7////
AAXX 10181 10147 01206 82405 10020 20013 30074 40093 51009 60132 72682 877// 333 10028 20004 3/100 42002 55300 20000 30000 41037 60027 87706 96285 96487 96486
AAXX 10181 10147 01262 82405 10020 20013 30074 40093 51009 60132 72682 877// 333 10028 20004 3/100 42002 55300 20000 30000 41037 60027 87706 96285 96487 96486
AAXX 10184 71233 16/// /2902 11016 21096 60001 333 7////
AAXX 10184 71271 16/// ///// 11006 21067 60001 333 7////
AAXX 10184 71542 16/// /0407 11115 21130 60001 333 7////
AAXX 10184 71005 46/// ///// 11066 21088 6///1 333 7////
AAXX 10184 71507 17/// /3506 11011 21015 60031 7//4/ 333 7////
AAXX 10184 71047 16/// ///// 11040 21079 60001 333 7////
AAXX 10184 71284 17/// ///// 11026 21076 69961 7//4/ 333 7////
AAXX 10184 71545 17/// ///// 11038 21074 69991 7//4/ 333 7////
AAXX 10184 71382 17/// /1704 11110 21140 39239 40201 58002 60021 7//4/ 333 11065 21133 70070
AAXX 10184 71382 17/// /1704 11110 21140 39239 40201 58002 60021 7//4/ 333 11065 21133 70070
AAXX 10184 71245 46/// /2126 11038 21121 6///1 333 11012 7////
AAXX 10184 71463 46/// /2919 11033 21130 30078 50001 6///1 333 7////
AAXX 10181 10791 01/90 92708 11053 21058 38491 48437 53007 69912 74974 333 11043 21053 44049 55300 69917
AAXX 10181 10815 07244 82704 10006 20006 39232 48459 51012 60022 75165 333 10009 20001 3/000 55300 20000 30000 69917 81/05 85/09 88/15
AAXX 10181 10170 11982 02307 10018 20002 30052 40068 52008 60012 70171 333 10024 20004 32100 4/998 55300 20000 30000 91113
AAXX 10184 85585 12598 41915 10183 20110 40219 50005 60001 84200 333 56400 84827
AAXX 10184 85586 12560 12312 10176 20102 40181 58006 60001 81500 333 56600 81623
AAXX 10184 85629 12970 02508 10270 20121 40137 57014 60001
AAXX 10184 85672 12570 21805 10254 20117 40165 57012 60001 82203 333 56500 82825
AAXX 10184 85682 12465 12312 10208 20134 40182 54000 60001 81100 333 56500 81810
AAXX 10184 85743 11460 59907 10191 20122 40179 58003 60051 70152 85200 333 56600 85818
AAXX 10184 85782 12560 62812 10182 200063 40167 52007 60001 86200 333 56800 86820
AAXX 10184 85799 12560 72608 10155 20085 40167 5105 69941 87800 333 56600 82830 87645
AAXX 10184 85864 12680 62610 10130 20055 40066 52005 60001 86200 333 56600 86833
AAXX 10184 85874 12682 33025 10139 20009 39428 40035 50010 60001 83200 333 56600 83840
AAXX 10184 85934 11480 52831 10091 20029 49886 53006 60011 70182 85100 333 56600 85816
AAXX 10184 89056 11115 80213 10011 20008 49774 57009 69943 71042 887// 333 56699 88703
AAXX 10184 89057 11460 72709 10020 20009 49770 57015 60073 87500 333 56600 87615
AAXX 10184 89058 11563 83411 10020 20010 39761 49782 69901 70060 885//
AAXX 10184 89059 11404 80102 10013 20000 49772 56013 60003 71022 886// 333 70999 88710
AAXX 10184 89251 32562 83414 10020 20008 49766 58025 8561/
AAXX 10184 85406 12980 02111 10232 20130 40139 56009 60001
AAXX 10184 85432 12970 12621 10224 20007 37751 48429 57011 60001 80001 333 56000 81073
AAXX 10184 85442 12565 52012 10209 920106 40145 57009 6001 82508 333 56400 82625 83080
AAXX 10184 85467 12560 82509 10182 20135 40175 54000 885// 333 56699 88617
AAXX 10184 85488 12568 72909 10191 20131 40162 58011 60001 87500 333 56000 87622
AAXX 10184 85766 11570 52412 1184 20110 40184 52008 69951 70282 85200 333 56600 85840
AAXX 10184 85968 11659 52613 10082 20022 49831 50/// 69951 78022 85200 333 56600 85840
AAXX 10184 85418 12965 32413 10217 20117 40148 56010 60001 80001 333 56000 83080
AAXX 10181 10147 01206 82405 10020 20013 30074 40093 51009 60132 72682 877// 333 10028 20004 3/100 42002 55300 20000 30000 41037 60027 87706 96285 96487 96486
AAXX 10181 10124 46/// ///// 10050 2//// 30047 40086 53013 222// 00054 333 10060 20023 553// 911// 912//
