BBXX ZMFR 08174 99440 51771 43/// /0622 10155 20152 40181 57011 22263 00158
BBXX ZMENA 08174 99411 31733 46/// ///// 10198 20118 40056 52004 22261
BBXX 44172 08181 99445 70634 46/// ///// 1//// 91731 22200 00055 10903 20903 319// 41101 70015
BBXX 46218 08181 99345 71208 46/// ///// 1//// 91732 22200 00134 11104 21003 329// 41102 70021
BBXX WDD2876 08184 99441 70826 41/98 72410 10000 2//// 40261 53/// 70311 8//// 22283 00039 2//01 3//// 4//// 5//// 6//// 8//// ICE /////
AAXX 08184 78764 32970 00712 10253 20140 39039 40170 58013 333 10253 20191 30/// 54000
AAXX 08184 78764 32970 00712 10253 20140 39039 40170 58013 333 10253 20191 30/// 54000
AAXX 08184 40270 31540 22007 10090 21008 39261 40167 52013 70500 81100 333 10/// 82830
AAXX 08184 81225 11560 50912 10320 20234 40103 60001 71511 85962 333 56229 59005 82920 84825
AAXX 08184 81200 11570 51008 10311 20240 40107 60011 70281 84963 333 56299 59006 81925 83833
AAXX 08184 81202 12570 50714 10284 20247 40115 60001 819-2 333 56209 58000 81925 85080
AAXX 08184 81209 NIL
AAXX 08184 81251 NIL
AAXX 08184 81225 11560 50912 10320 20234 40103 60001 71511 85962 333 56229 59005 82920 84825
AAXX 08184 81200 11570 51008 10311 20240 40107 60011 70281 84963 333 56299 59006 81925 83833
AAXX 08184 81202 12570 50714 10284 20247 40115 60001 819-2 333 56209 58000 81925 85080
AAXX 08184 81209 NIL
AAXX 08184 81251 NIL
AAXX 08184 40255 32960 00000 10074 20033 39452 40176 52010 333 10132
BBXX C6DM2 08183 99065 10990 416// 70613 10270 20228 40120 51020 7//22 876// 22272 0//// 2//// 3//// 4//// 5//// 6//// 80240 ICE /////
BBXX WSNB 08184 99457 71312 41295 81931 00/// 10119 2010/ 40120 52017 78162 886// 22233 0//// 20811 319// 41009 5//// 6//// 80110 ICE /////
BBXX BAREU56 08184 99379 10112 46/// ///// 40178 52003 22232
AAXX 08184 08495 12665 21010 10148 20105 30241 40249 56001 60002 81501 91750 333 10164 81632
AAXX 08184 61902 32584 41414 10255 20178 40122 84800 333 10293 58002 81825 84650
AAXX 08184 91643 11498 82912 10253 20241 40086 53012 60271 78028 8437/ 333 5669/ 84918 88460
AAXX 08184 91643 11498 82912 10253 20241 40086 53012 60271 78028 8437/ 333 5669/ 84918 88460
BBXX 46249 08181 99338 71197 46/// ///// 1//// 91737 22200 00130 11004 21003 328// 41101 70018
BBXX 46248 08181 99461 71247 46/// ///// 1//// 91734 22200 00094 11106 20904 328// 41104 70029
BBXX 46244 08181 99409 71244 46/// ///// 1//// 91735 22200 00105 11204 21002 329// 41203 70021
BBXX 41115 08181 99184 70673 46/// ///// 1//// 91735 22200 10902 20902 301// 41101 70010
BBXX BAREU61 08184 99056 10000 46/// ///// 10278 29081 40094 52009 22272
AAXX 08184 08594 32965 00512 10238 20160 40141 333 10252 59004
AAXX 08184 08589 32960 00214 10250 20142 40130 333 10275 59012
AAXX 08184 08583 31559 10624 10240 20141 40141 70600 81500 333 10266 59012 81622
BBXX 44098 08181 99428 70702 46/// ///// 1//// 91737 22200 00078 10302 20302 70009
BBXX 44097 08181 99410 70711 46/// ///// 1//// 91732 22200 00099 10802 20802 70012
AAXX 08184 68392 36/// /1007 1//// 2//// 30210 4//// 56054 333 1//// 2//// 91015 555
AAXX 08184 68382 36/// /0806 10228 20157 39361 48548 53011 333 10301 20228 91011 555 91017
AAXX 08184 68994 32598 33126 10078 20056 30041 40070 58001 83500 222// 00065 333 10091 20069 91037 555 91006
AAXX 08184 67665 42980 11701 10235 20206 48509 81030 333 10306 59009 81360
AAXX 08184 91413 11469 80910 10268 20245 30081 40107 57002 60041 70282 82371 333 56299 70066 555 90818
BBXX 51205 08181 99210 71564 46/// ///// 1//// 91748 22200 00235 11804 20802 332// 41804 70021
BBXX 46114 08181 99364 71222 46/// ///// 1//// 91734 22200 00111 11305 20803 328// 41303 70023
BBXX 46060 08181 99606 71468 46/// /1906 10026 49781 91750 22200 00046 333 91207 555 11059 22061
BBXX 41114 08181 99276 70802 46/// ///// 1//// 91746 22200 00223 11101 21001 70004
BBXX 44060 08181 99413 70721 46/// ///06 10052 40209 91745 22200 00084 333 91208 555 11062 22067
BBXX 44022 08181 99409 70737 46/// ///07 10060 21038 40219 91745 22200 00060 333 91210 555 11072 22077
AAXX 08184 91413 11469 80910 10268 20245 30081 40107 57002 60041 70282 82371 333 56299 70066 555 90818
BBXX DBBU 08181 99543 10123 46/// /3409 10044 20046 40155 52034 22231 00054
BBXX DBBT 08181 99233 30101 46/// /1711 10203 20170 40140 52002 22273 00203
BBXX DBKV 08181 99/// ///// 46/// ///// 10181 20136 40199 52005 22220 00244
BBXX DBFR 08181 99508 10010 46/// /2607 10092 20070 40285 52017 22252 00103
AAXX 08184 40272 31958 02404 10076 21009 39339 40191 52018 70500 333 10124
AAXX 08184 91376 11474 80813 10259 20236 30088 40091 53007 69981 72582 84878 333 56229 70536 555 90818
AAXX 08184 91376 11474 80813 10259 20236 30088 40091 53007 69981 72582 84878 333 56229 70536 555 90818
AAXX 08184 16597 11560 72915 10131 20082 30098 40185 52005 69902 72111 878// 333 10142 82825 86645 91124 91530
BBXX TESTFR9 08184 99499 70005 46/// /3111 10100 29084 40326 52015 22234
AAXX 08181 13586 32770 70701 10012 21031 39845 40143 51005 82530 333 10040 82656 86360
AAXX 08184 78016 32564 42510 10209 20146 30212 40216 57017 83545 333 10216 20169 70000
AAXX 08184 78016 32564 42510 10209 20146 30212 40216 57017 83545 333 10216 20169 70000
AAXX 08184 68352 36/// /0511 10250 20038 39071 48528 53008 333 10316 20246 91018 555 91017
AAXX 08184 68906 32598 62313 10122 20049 30124 40189 52016 84269 222// 00137 318// 40702 333 10138 20121 91021 555 91018
BBXX BAREU08 08184 99154 70720 46/// ///// 40158 57027 22253
BBXX VCXF 08184 99464 70484 41/91 91934 10061 2006/ 40072 57014 74244 89/// 22200 02026 20605 333// 40802 80061
BBXX VCXF 08184 99464 70484 41/91 91934 10061 2006/ 40072 57014 74244 89/// 22200 02026 20605 333// 40802 80061
AAXX 08184 61901 169// /1412 10179 20152 39652 40158 56005 60002 91750 333 10208 8//99 555 7/090
AAXX 08184 91334 11474 81209 10260 20240 30081 40084 57010 60071 72582 83171 333 56399 70089 555 90818
BBXX 41012 08181 99300 70805 46/// /2901 10194 40239 58011 91750 22200 00217 10901 312// 40901 70005 333 91202 555 11010 22010 31659 43202 61749 291010 296007 309006 315005 331009 348012
BBXX 41049 08181 99275 70630 46/// /1403 10227 20127 40207 58029 91750 22200 00234 10803 20401 300// 40803 70014 333 91203 555 11026 22027 31736 41403 61749 141025 141023 141019 130018 137016 139015 81403 91745
BBXX 41001 08181 99347 70727 46/// ///// 10209 20143 40197 58015 91750 22200 00217 10703 70015
BBXX 42020 08181 99270 70967 46/// /1405 10219 20189 40160 58004 91750 22200 00213 10602 20501 314// 40602 70012 333 91206 555 11057 22062 31652 41507 61749 137052 139054 145052 147056 150055 152056
BBXX 41044 08181 99217 70587 46/// /1208 10233 20193 40189 58024 91750 22200 00255 10905 20603 300// 40903 70023 333 91209 555 11079 22083 31710 41211 61749 115075 115081 118083 116087 107084 096085 81209 91711
BBXX 41048 08181 99320 70696 46/// /2805 10208 20143 40212 56020 91750 22200 00215 10703 20401 3//// 40703 70014 333 91205 555 11046 22048 31727 42606 61749 275047 269047 266051 267048 266047 266052 82706 91657
BBXX 41060 08181 99148 70510 46/// ///// 1//// 91750 22200 11104 70020
BBXX 42065 08181 99170 70817 46/// /0608 10263 20221 91750 22200 10603 20603 70016 333 91209 555 11085 22090 31715 40610 61749 063080 062074 064080 063080 061076 065073 80609 91715
BBXX 42012 08181 99301 70876 46/// /1403 10187 20176 40216 58008 91750 22200 00178 10501 320// 40501 70004 333 91203 555 11033 22039 31749 41403 61749 138029 135024 137024 138025 140023 144019
BBXX 42001 08181 99259 70897 46/// /1507 10237 20168 40213 58003 91750 22200 00234 10401 20401 70007 333 91208 555 11073 22079 31738 41608 61749 154068 155065 158064 155066 154066 151066
BBXX 42035 08181 99292 70944 46/// /1204 10182 20182 40185 50000 91750 22200 00166 10701 20401 319// 40701 70007 333 91204 555 11043 22050 31748 41204 61749 123037 120037 117037 117036 116037 115034
BBXX 42060 08181 99163 70635 46/// /0808 10264 20209 40161 58024 91750 22200 00273 10603 20603 300// 41001 70016 333 91210 555 11087 22092 31736 40810 61749 078082 077080 076077 061067 056065 052071 80809 91737
BBXX 42058 08181 99149 70749 46/// /0808 10268 20218 40143 58017 91750 22200 00271 10603 20603 308// 41101 70014 333 91209 555 11084 22089 31709 40710 61749 074079 077083 079085 072083 073086 070084 80709 91708
BBXX 42036 08181 99285 70845 46/// /1405 10203 20179 40230 58008 91750 22200 00204 10701 70003 333 91206 555 11048 22050 31748 41406 61749 137045 135047 135046 134047 130045 128045
BBXX 42056 08181 99198 70849 46/// /1007 10259 20213 40185 58012 91750 22200 00266 10702 20702 306// 41101 70012 333 91209 555 11079 22083 31720 40910 61749 101074 099078 096079 096077 094075 092075 80909 91720
BBXX 42059 08181 99151 70675 46/// /0907 10270 20211 40154 58021 91750 22200 00276 10604 20603 3//// 41002 70018 333 91209 555 11077 22081 31734 40809 61749 089073 089075 089074 093074 095076 093073 81008 91715
BBXX 42019 08181 99279 70954 46/// /1505 10229 20205 40169 58004 91750 22200 10602 20401 316// 40601 70009 333 91206 555 11053 22057 31749 41506 61749 159050 284048 285049 283050 284052 280054
BBXX 44005 08181 99432 70691 46/// /3206 10041 21032 40177 55000 91750 22200 00076 10902 20502 3//// 40902 70012 333 91207 555 11064 22066 31738 43108 61749 322061 322059 325058 325057 327059 327053
BBXX 42040 08181 99292 70882 46/// /1804 10217 40216 58004 91750 22200 00203 10502 20401 3//// 40501 70008 333 91205 555 11040 22047 31745 41805 61749 184040 188035 190032 186036 187036 184039
BBXX 42003 08181 99260 70856 46/// /1007 1//// 91750 22200 10401 20401 70007 333 91208 555 11070 22075 31743 40908 61749 099065 104060 102061 099063 109064 103059 80907 91743
BBXX 42002 08181 99258 70937 46/// /1510 10238 20194 40184 58004 91750 22200 00241 10502 20502 70012 333 91212 555 11103 22110 31716 41512 61749 145102 147102 147101 147103 145099 145098
BBXX 41047 08181 99275 70715 46/// /0305 10220 40228 58017 91750 22200 00249 11002 20301 311// 41002 70009 333 91206 555 11047 22049 31740 40107 61749 025047 022048 021042 013046 024047 029043 80206 91709
BBXX 42055 08181 99222 70940 46/// /1309 10247 20207 40169 58003 91750 22200 00238 10503 20503 70016 333 91211 555 11098 22107 31700 41411 61749 133089 132089 135089 133086 134092 133092 81310 91707
BBXX 41043 08181 99211 70650 46/// /1207 10250 20214 40184 58026 91750 22200 00259 10804 20603 300// 40803 70021 333 91209 555 11072 22076 31716 41010 61749 120069 102065 092075 100084 107073 109077 81009 91717
BBXX 41036 08181 99342 70770 46/// ///// 10151 20057 40224 58004 91750 22200 00193 10402 70010
BBXX 44066 08181 99396 70726 46/// /3006 10080 20003 40217 58006 91750 22200 00133 10502 20502 3//// 40801 70012 333 91208 555 11064 22066 31709 43209 61749 299062 308059 308057 308064 305062 315065
BBXX NWS0022 08184 99416 70714 43/// /2906 10074 21045 40198 5//// 7//// 8//// 222// 04095 2//// 3//// 4//// 5//// 6//// 8//// ICE /////
BBXX WDC6698 08184 99213 71579 43/// /0302 10000 21027 40170 5//// 7//// 8//// 222// 04240 2//// 3//// 4//// 5//// 6//// 8//// ICE /////
BBXX C6XC2 08184 99015 11269 41498 53007 10230 20185 40080 57020 70211 8418/ 22244 00290 2//// 3//// 4//// 5//// 6//// 80200 ICE /////
BBXX KEY796 08183 99571 71703 41/97 80810 11078 21111 40059 51/// 702// 8//// 222// 01017 2//// 3//// 4//// 5//// 6//// 8//// ICE /////
BBXX 46006 08181 99408 71375 46/// /1810 10137 40156 53005 91750 22200 00120 10708 20707 3//// 41305 70042 333 91213 555 11113 22123 31745 41913 61749 178105 180098 175088 174094 167097 171102
BBXX 46002 08181 99426 71305 46/// ///// 10118 40238 57003 91750 22200 00113 11606 70031
BBXX 46084 08181 99566 71361 46/// ///// 10062 20039 49975 53023 91750 22200 00070 11211 70056
BBXX 46075 08181 99539 71608 46/// /3110 10000 21071 40093 51028 91750 22200 00034 10806 20805 300// 41403 70028 333 91212 555 11109 22115 31745 43112 61749 312102 317098 315093 311085 307091 309091 83111 91745
BBXX 46059 08181 99380 71300 46/// /1102 10102 40285 53016 91750 22200 00128 11103 3//// 41103 70016 333 91203 555 11016 22017 31720 41103 61749 105017 099010 103013 257004 114003 067009
BBXX 46005 08181 99461 71310 46/// ///11 10105 40167 55000 91750 22200 00097 11208 20805 3//// 41206 70038 333 91212 555 11113 22122
BBXX 46080 08181 99580 71500 46/// /2913 11040 21074 49880 53040 91750 22200 00044 10908 20806 3//// 40905 70041 333 91216 555 11135 22141 31747 42916 61749 294127 294118 292112 292111 286107 287111 83014 91750
BBXX 46088 08181 99483 71232 46/// /1104 10071 40253 53003 91750 22200 00077 10401 20401 70004 333 91205 555 11045 22047 31658 41306 61749 110044 115047 113047 124045 125048 127047
BBXX 46014 08181 99394 71240 46/// /0104 10097 40236 52005 91750 22200 00105 11304 20301 3//// 41304 70022 333 91204 555 11039 22040 31727 40105 61749 012037 005036 012038 009038 013036 007036
BBXX 46011 08181 99350 71210 46/// /0804 10127 40229 51027 91750 22200 00127 11304 20401 328// 41304 70021 333 91205 555 11039 22042 31731 40906 61749 083037 084042 092035 074029 065028 044026
BBXX 46047 08181 99324 71195 46/// /0803 10141 40217 53025 91750 22200 00147 10904 20301 331// 40904 70022 333 91204 555 11026 22027 31748 40904 61749 084025 106020 108014 082012 086010 059014
BBXX 46088 08181 99483 71232 46/// /1104 10071 40253 91750 22200 00077 10401 20401 70004 333 91205 555 11045 22047 31658 41306 61749 110044 115047 113047 124045 125048 127047
BBXX 46027 08181 99419 71244 46/// /0501 10098 40259 53004 91750 22200 00095 11103 20401 327// 41103 70017 333 91202 555 11015 22018 31653 41203 61749 049012 075009 106013 114013 118016 122020
BBXX 46086 08181 99325 71180 46/// /0102 10144 40214 52026 91750 22200 00151 11104 329// 41104 70018 333 91202 555 11019 22019 31655 40303 61749 012018 001018 342015 009018 010019 020024
BBXX 46050 08181 99442 71246 46/// /1304 10086 40263 56008 91750 22200 00093 11105 20401 328// 41105 70024 333 91206 555 11045 22047 31747 41206 61749 126043 119039 119039 120040 120039 120039
BBXX 46069 08181 99337 71202 46/// /0708 10156 40221 53030 91750 22200 00133 11405 20603 329// 41403 70023 333 91210 555 11088 22098 31738 40811 61749 074079 075075 073076 075076 075070 070076
BBXX 46012 08181 99374 71229 46/// /0503 10130 40235 51012 91750 22200 00115 11305 20401 329// 41305 70023 333 91204 555 11035 22042 31656 40306 61749 045032 030047 033044 023047 021046 027045
BBXX 46013 08181 99382 71233 46/// /1601 10114 40237 52016 91750 22200 00107 11204 20401 3//// 41204 70019 333 91202 555 11011 22013 31728 41402 61749 163009 148009 154006 138005 117006 191004
BBXX 46029 08181 99461 71245 46/// /1604 10089 20056 40268 55000 91750 22200 00090 11206 20301 329// 41206 70030 333 91205 555 11044 22047 31652 41506 61749 157041 156043 155045 155044 155046 161050
BBXX 46054 08181 99342 71204 46/// /0000 10139 40227 51031 91750 22200 00131 11304 20401 300// 41304 70019 333 91201 555 11006 22007 31653 43203 61749 354006 020011 027012 028011 348015 336018
BBXX 46028 08181 99357 71219 46/// /1403 10135 40219 51016 91750 22200 00128 11304 20401 328// 41304 70019 333 91204 555 11035 22040 31736 41404 61749 142031 144030 150027 147028 153024 155027
BBXX 46025 08181 99337 71191 46/// /2002 10168 20068 40212 51026 91750 22200 00149 11402 20401 327// 41402 70010 333 91203 555 11023 22027 31725 40603 61749 195019 089015 059026 090020 089019 079019
BBXX WDC6923 08184 99234 10591 41498 31113 10230 20201 40190 5010 70200 83480 22234 00220 20101 314// 40201 5//// 6//// 80210 ICE /////
BBXX DBBT 08181 99233 30101 46/// /1711 10203 20170 40140 52002 22273 00203
BBXX WBDS 08184 99159 10414 41997 02002 10257 2022/ 40166 51011 70200 80000 22235 00274 2//// 319// 40202 5//// 6//// 80231 ICE /////
BBXX BAREU61 08184 99056 10000 46/// ///// 10278 29081 40094 52009 22272
BBXX 9VVN 08184 99351 11431 41/97 10100 2001/ 40225 58005 7//// 8//// 22264 00190 2//// 3//// 4//// 5//// 6//// 80060
BBXX LAYG5 08184 99501 11766 41597 50925 10000 21160 40040 56005 70122 8516/ 22223 00063 20803 327// 41404 81040
BBXX ZCBH7 08184 99171 11096 41697 30525 10242 20226 40205 51031 70322 8/472 22282 04241 20206 305// 40206 5//// 80231
BBXX ZCBZ5 08183 99075 11196 41/96 60311 10282 20251 40093 51011 70222 8//53 22264 02286 20202 302// 40503 5//// 80260
BBXX A8SU4 08184 99274 11219 41297 80224 10140 20122 40240 54000 71065 8572/ 22213 00170 20406 304// 40606 5//// 80130
BBXX 46070 08181 99551 11753 46/// /2803 11038 21108 40084 56004 91750 22200 00028 10804 20401 3//// 40803 70018 333 91205 555 11032 22033 31658 43105 61749 282031 295027 301024 308025 305034 307036 83105 91659
BBXX 46105 08181 99590 71522 46/// ///// 1//// 91750 22200 10504 70022
BBXX 44025 08181 99402 70732 46/// /2908 10068 21019 40216 57005 91750 22200 00092 10402 20401 316// 40701 70009 333 91209 555 11079 22083 31705 43110 61749 290073 293065 307066 310068 313075 312074
BBXX 41008 08181 99314 70809 46/// /2103 10150 20135 40238 58011 91750 22200 00153 11001 300// 41001 70004 333 91203 555 11028 22029 31745 42103 61749 209026 213021 207012 206008 249014 249012
BBXX 41004 08181 99325 70791 46/// /2502 10184 20116 91750 22200 00197 11101 20401 3//// 41101 70005 333 91203 555 11020 22020 31749 42603 61749 254018 258015 247013 255011 268010 300009
BBXX 44014 08181 99366 70748 46/// ///08 1//// 40228 50000 91750 22200 00129 10603 20603 313// 41101 70014 333 91210 555 11083 22083
BBXX 44009 08181 99385 70747 46/// /3307 10076 40245 58006 91750 22200 00083 10301 20301 300// 40701 70007 333 91208 555 11076 22081 31650 43309 61749 332072 330069 329070 328065 326063 328066
BBXX 44027 08181 99443 70673 46/// /3305 10036 21025 40162 53006 91750 22200 00073 10902 20401 3//// 40902 70012 333 91206 555 11052 22054 31652 43209 61749 326051 320059 319063 315068 313071 313073
BBXX 44065 08181 99404 70737 46/// /3006 10064 21018 40222 57006 91750 22200 00084 10801 20301 314// 40801 70007 333 91207 555 11060 22062 31653 43208 61749 299057 304062 311061 308066 308063 306068 83107 91653
BBXX 41013 08181 99334 70777 46/// /3404 10148 20116 40225 57004 91750 22200 00175 11101 20401 314// 41101 70007 333 91205 555 11040 22042 31702 43305 61749 343039 343039 339040 331040 325044 320041
BBXX 44040 08181 99410 70736 46/// /3107 10060 21038 40222 91745 22200 10201 70003 333 91209 555 11082 22098
BBXX 44020 08181 99414 70702 46/// /2704 10056 21001 40192 57004 91750 22200 00050 10401 20401 70003 333 91205 555 11046 22048 31732 42606 61749 266043 249046 248044 248046 247046 250041
BBXX DBBU 08181 99543 10123 46/// /3409 10044 20046 40155 52034 22231 00054
BBXX DBFR 08181 99508 10010 46/// /2607 10092 20070 40285 52017 22252 00103
BBXX WDE8288 08184 99374 10074 41598 32831 10160 2009/ 40230 52030 70111 832// 22264 0//// 20607 333// 40906 5//// 6//// 80120 ICE /////
BBXX VCXF 08184 99464 70484 41/91 91934 10061 2006/ 40072 57014 74244 89/// 22200 02026 20605 333// 40802 80061
BBXX BAREU08 08184 99154 70720 46/// ///// 40158 57027 22253
BBXX AA8IG4 08184 99088 70564 41398 70714 10265 20228 40100 57015 76262 8574/ 22233 04270 20503 304// 40804 80240
BBXX 46060 08181 99606 71468 46/// /1906 10026 49781 91750 22200 00046 333 91207 555 11059 22061
BBXX 46114 08181 99364 71222 46/// ///// 1//// 91734 22200 00111 11305 20803 328// 41303 70023
BBXX 51205 08181 99210 71564 46/// ///// 1//// 91748 22200 00235 11804 20802 332// 41804 70021
BBXX 44022 08181 99409 70737 46/// ///07 10060 21038 40219 91745 22200 00060 333 91210 555 11072 22077
BBXX 44060 08181 99413 70721 46/// ///06 10052 40209 91745 22200 00084 333 91208 555 11062 22067
BBXX 41114 08181 99276 70802 46/// ///// 1//// 91746 22200 00223 11101 21001 70004
BBXX SHIP 08184 99197 71154 41798 60206 10210 2016/ 40210 52010 70211 82146 22224 00310 20101 331// 40802 5//// 6//// 80180 ICE /////
BBXX KCGH 08183 99225 70709 41698 60318 10239 2017/ 40156 5//// 7//11 8/0/7 22234 00239 20501 3//// 4//// 5//// 6//// 80194 ICE /////
BBXX LAGB5 08184 99308 71349 41698 81009 10170 2014/ 40260 52010 70222 88530 22223 21203 332// 41403 80150
BBXX 44098 08181 99428 70702 46/// ///// 1//// 91737 22200 00078 10302 20302 70009
BBXX 44097 08181 99410 70711 46/// ///// 1//// 91732 22200 00099 10802 20802 70012
BBXX 41115 08181 99184 70673 46/// ///// 1//// 91735 22200 10902 20902 301// 41101 70010
BBXX 46249 08181 99338 71197 46/// ///// 1//// 91737 22200 00130 11004 21003 328// 41101 70018
BBXX 46244 08181 99409 71244 46/// ///// 1//// 91735 22200 00105 11204 21002 329// 41203 70021
BBXX 46248 08181 99461 71247 46/// ///// 1//// 91734 22200 00094 11106 20904 328// 41104 70029
BBXX DQVK 08183 99326 70794 41998 32310 10165 20149 40220 54000 70200 80005 22200 00162 29901 3//// 4//// 5//// 80155
BBXX WSNB 08184 99457 71312 41295 81931 00/// 10119 2010/ 40120 52017 78162 886// 22233 0//// 20811 319// 41009 5//// 6//// 80110 ICE /////
BBXX C6XC2 08184 99015 11269 41498 53007 10230 20185 40080 57020 70211 8418/ 22244 00290 2//// 3//// 4//// 5//// 6//// 80200 ICE /////
AAXX 08184 96315 32460 70608 10267 20239 40073 82848 333 82814 85364
AAXX 08184 96323 NIL
AAXX 08184 86011 32670 50906 10370 20189 39934 40087 57026 85200 333 85835
AAXX 08184 86033 NIL
AAXX 08184 86065 32670 10406 10380 20141 39849 40074 57030 81100 333 81840
AAXX 08184 86068 32870 10804 10394 20154 39884 40066 57029 81030 333 81358
AAXX 08184 86086 32570 20000 10370 20168 30003 40089 57021 82200 333 82833
AAXX 08184 86097 31570 60508 10320 20180 39482 40103 57014 71721 85930 333 84833 81940 84030
AAXX 08184 86128 32970 30510 10404 20116 39974 40081 57023 83050 333 83358
AAXX 08184 86134 32670 60405 10370 20170 30001 40084 57021 81270 333 81840 86358
AAXX 08184 86170 32570 71602 10370 20186 39974 40072 57012 83270 333 83833 86456
AAXX 08184 86185 32570 40000 10386 20180 39998 40087 57023 84200 333 84833
AAXX 08184 86192 32570 20000 10364 20100 39871 40081 57023 82100 333 82820
AAXX 08184 86210 32570 50906 10330 20177 39764 40094 57018 85200 333 85833
AAXX 08184 86218 32670 30109 10382 20138 39983 40064 57022 83100 333 83840
AAXX 08184 86221 32670 43608 10368 20204 39981 40109 57014 84100 333 84840
AAXX 08184 86233 32670 40504 10374 20168 39913 40093 58015 84100 333 84840
AAXX 08184 86234 32570 40705 10372 20186 39872 40047 56023 83201 333 83630 81070
AAXX 08184 86246 32670 40612 10346 20205 39831 40104 57018 82130 333 82840 82357
AAXX 08184 86251 32570 60508 10366 20152 39916 40076 57021 86800 333 84633 88240
AAXX 08184 86255 32670 20506 10384 20179 30026 40090 57010 82200 333 82833
AAXX 08184 86260 32670 40706 10366 20189 39936 40080 57022 84200 333 84840
AAXX 08184 86268 32670 62602 10354 20177 39923 40080 56011 86100 333 86840
AAXX 08184 86285 32670 40508 10366 20211 39831 40099 56013 84200 333 84840
AAXX 08184 86297 NIL
AAXX 08181 76040 32960 03306 10171 20004 30206 40220 52014 91745 333 10259 20076 30/// 58062 98660
AAXX 08181 76122 32670 32508 10142 20031 38501 40151 57002 83100 91750 333 10152 21002 30/// 56500 59043 83846
AAXX 08181 76256 32980 00000 10166 20129 30168 40182 52027 91745 333 10180 20086 30/// 59001
AAXX 08181 76305 32970 10403 20067 30155 40163 52019 80001 91740 333 10250 20111 30/// 56005 59006 81070
AAXX 08181 76342 32962 00301 10204 20006 39462 40178 57008 91750 333 10210 20086 30/// 59033
AAXX 08181 76373 32570 23001 10178 21033 38183 40123 57017 82030 91750 333 10180 21016 30/// 56090 59041 82635
AAXX 08181 76390 32970 42507 10208 21017 38220 40111 52003 80004 91730 333 10222 20092 30/// 56005 59028 84070 91111 91113
AAXX 08181 76393 31950 60601 10190 20095 39556 40133 57006 70422 85048 91755 333 10202 20122 30/// 56077 59034 85362
AAXX 08181 76423 32784 42001 10194 20036 38145 40144 57007 81354 91751 333 10226 20070 30/// 56099 59024 82357 82067
AAXX 08181 76458 32568 31902 10223 20168 30167 40172 51004 83200 91740 333 10246 20136 30/// 566// 59005 83823
AAXX 08181 76491 32660 23601 10228 20149 39768 40162 57002 82400 91750 333 10232 20086 30/// 56900 59035 82650
AAXX 08181 76499 31860 41804 10266 20188 30117 40139 57002 70122 84030 91745 333 10267 20140 30/// 56090 59024 84357
AAXX 08181 76525 32780 52112 10103 20013 37467 40147 51002 83054 91745 333 10105 20075 30/// 56/55 59019 83358 91112
AAXX 08181 76548 32870 62502 10238 20200 30166 40176 51001 84034 91740 333 10245 20178 30/// 56065 59011 84358
AAXX 08181 76556 32970 10000 10238 20014 39132 40167 50002 80001 91735 333 10238 20109 30/// 56005 59010 81070
AAXX 08181 76571 32770 41902 10194 20074 38179 40201 55001 84500 91748 333 10200 20060 30/// 56500 59010 84656
AAXX 08181 76577 32970 22304 10160 20108 38061 40203 52006 80003 91740 333 10166 20064 30/// 56005 59001
AAXX 08181 76581 32975 40802 10217 20147 39062 40179 57003 84030 91750 333 10224 20088 30/// 56050 59006 84360
AAXX 08181 76625 32950 33203 10201 20034 38147 40159 55002 80001 91740 333 10201 20082 30/// 56007 59012
AAXX 08181 76654 31956 02301 10288 20203 30172 40176 50002 70544 91750 333 10290 20198 30/// 58000
AAXX 08181 76662 32970 11201 10194 20076 38480 40194 52005 80002 91730 333 10208 20060 30/// 56003 59004 83070
AAXX 08181 76685 31560 11801 10184 20032 37885 40189 57002 70544 81100 91750 333 10186 20050 30/// 56900 58003 81827
AAXX 08181 76687 31968 50701 10218 20072 38691 40191 58002 70310 80008 91745 333 10222 20100 30/// 56//6 58004 85073
AAXX 08181 76692 31556 31202 10248 20190 30150 40170 58003 70544 822/4 91745 333 10250 20180 30/// 563/5 59006 81820 81630
AAXX 08181 76695 32560 30603 10296 20208 30159 40164 57012 81140 91450 333 10300 20186 30/// 563/0 59006 81830
AAXX 08181 76737 31980 51402 10230 20129 38783 40174 58001 70300 80005 91735 333 10235 20098 30/// 56009 59005 85280 91105 91514 99021
AAXX 08181 76750 32560 10903 10295 20209 30173 40183 57010 81100 91750 333 10318 20190 30/// 56100 58000 81820
AAXX 08181 76762 32904 01801 10266 20212 38777 40169 56005 91735 333 10268 20105 30/// 58///
AAXX 08181 76775 31970 31801 10258 20046 38540 40190 57008 70311 80006 91730 333 10260 20092 30/// 56002 58000
AAXX 08181 76833 31970 00303 10315 20199 30136 40138 57010 70500 91745 333 10315 20212 30/// 59008 92031
AAXX 08181 76840 32050 00000 10326 20212 30083 40139 57009 80000 91740 333 10335 20212 30/// 56000 59004
AAXX 08181 76843 32965 00201 10252 20179 39510 40157 58010 91730 333 10261 20164 30/// 59004
AAXX 08181 76845 32960 01801 10210 20132 37962 40233 56013 91745 333 10220 20032 30/// 58000
AAXX 08181 76903 31981 00901 10314 20208 30007 40137 57015 70400 91740 333 10345 20214 30/// 58///
AAXX 08181 76160 32962 00000 10148 20071 39919 40173 52015 91730 333 10148 20055 30/// 59002
AAXX 08181 76243 32473 20601 10180 20110 39861 40158 52003 82400 91735 333 10192 20082 30/// 56800 59028 82616
AAXX 08181 76311 32980 40000 10214 20107 39887 40170 51010 80004 91740 333 10214 20092 30/// 56005 59015 84070
AAXX 08181 76405 32980 41803 10239 20167 30150 40172 57001 80001 92350 333 10239 20120 30/// 56005 59011 84072
AAXX 08181 76412 31966 82201 10160 20150 30151 40197 57024 70544 88050 91750 333 10160 20120 30/// 56050 58011 88356
AAXX 08181 76640 31458 31402 10236 20203 30167 40179 57010 70111 832// 91740 333 10252 20182 31/// 563// 59016 83814
AAXX 08181 76681 31460 13601 10190 20109 37786 40168 57014 70500 81500 91745 333 10190 20022 30/// 59009 81417
AAXX 08181 76741 31465 43203 10255 20208 30124 40142 52000 70544 82236 91735 333 10273 20140 30/// 561// 59015 82819
AAXX 08181 76855 32580 31301 10304 20230 30080 40129 52009 81238 91740 333 10320 20204 30/// 56999 59006 81820 92000
AAXX 08184 91334 11474 81209 10260 20240 30081 40084 57010 60071 72582 83171 333 56399 70089 555 90818
AAXX 08184 89054 32465 72827 10026 20002 49928 52010 87500 333 56600 87610 91040
AAXX 08184 89056 12465 72818 10021 21005 49928 51008 60003 86801 333 56605 83615 83825
AAXX 08184 89057 12470 52416 10028 21011 49925 54002 60003 83505 333 56505 83617 85270
AAXX 08184 89058 32480 82715 10037 21009 39908 49929 52007 84107 333 20000
AAXX 08184 89059 12960 52110 10017 21044 49899 52008 60003 82011 333 56000 82458 83061
AAXX 08184 89251 32468 42720 10021 21012 49917 52008 83602
AAXX 08181 76040 32960 03306 10171 20004 30206 40220 52014 91745 33310259 20076 30/// 58062 98660
AAXX 08181 76122 32670 32508 10142 20031 38501 40151 57002 83100 91750333 10152 21002 30/// 56500 59043 83846
AAXX 08181 76256 32980 00000 10166 20129 30168 40182 52027 91745 33310180 20086 30/// 59001
AAXX 08181 76305 32970 10403 20067 30155 40163 52019 80001 91740 33310250 20111 30/// 56005 59006 81070
AAXX 08181 76342 32962 00301 10204 20006 39462 40178 57008 91750 33310210 20086 30/// 59033
AAXX 08181 76373 32570 23001 10178 21033 38183 40123 57017 82030 91750333 10180 21016 30/// 56090 59041 82635
AAXX 08181 76390 32970 42507 10208 21017 38220 40111 52003 80004 91730333 10222 20092 30/// 56005 59028 84070 91111 91113
AAXX 08181 76393 31950 60601 10190 20095 39556 40133 57006 70422 8504891755 333 10202 20122 30/// 56077 59034 85362
AAXX 08181 76423 32784 42001 10194 20036 38145 40144 57007 81354 91751333 10226 20070 30/// 56099 59024 82357 82067
AAXX 08181 76458 32568 31902 10223 20168 30167 40172 51004 83200 91740333 10246 20136 30/// 566// 59005 83823
AAXX 08181 76491 32660 23601 10228 20149 39768 40162 57002 82400 91750333 10232 20086 30/// 56900 59035 82650
AAXX 08181 76499 31860 41804 10266 20188 30117 40139 57002 70122 8403091745 333 10267 20140 30/// 56090 59024 84357
AAXX 08181 76525 32780 52112 10103 20013 37467 40147 51002 83054 91745333 10105 20075 30/// 56/55 59019 83358 91112
AAXX 08181 76548 32870 62502 10238 20200 30166 40176 51001 84034 91740333 10245 20178 30/// 56065 59011 84358
AAXX 08181 76556 32970 10000 10238 20014 39132 40167 50002 80001 91735333 10238 20109 30/// 56005 59010 81070
AAXX 08181 76571 32770 41902 10194 20074 38179 40201 55001 84500 91748333 10200 20060 30/// 56500 59010 84656
AAXX 08181 76577 32970 22304 10160 20108 38061 40203 52006 80003 91740333 10166 20064 30/// 56005 59001
AAXX 08181 76581 32975 40802 10217 20147 39062 40179 57003 84030 91750333 10224 20088 30/// 56050 59006 84360
AAXX 08181 76625 32950 33203 10201 20034 38147 40159 55002 80001 91740333 10201 20082 30/// 56007 59012
AAXX 08181 76654 31956 02301 10288 20203 30172 40176 50002 70544 91750333 10290 20198 30/// 58000
AAXX 08181 76662 32970 11201 10194 20076 38480 40194 52005 80002 91730333 10208 20060 30/// 56003 59004 83070
AAXX 08181 76685 31560 11801 10184 20032 37885 40189 57002 70544 8110091750 333 10186 20050 30/// 56900 58003 81827
AAXX 08181 76687 31968 50701 10218 20072 38691 40191 58002 70310 8000891745 333 10222 20100 30/// 56//6 58004 85073
AAXX 08181 76692 31556 31202 10248 20190 30150 40170 58003 70544 822/491745 333 10250 20180 30/// 563/5 59006 81820 81630
AAXX 08181 76695 32560 30603 10296 20208 30159 40164 57012 81140 91450333 10300 20186 30/// 563/0 59006 81830
AAXX 08181 76737 31980 51402 10230 20129 38783 40174 58001 70300 8000591735 333 10235 20098 30/// 56009 59005 85280 91105 9151499021
AAXX 08181 76750 32560 10903 10295 20209 30173 40183 57010 81100 91750333 10318 20190 30/// 56100 58000 81820
AAXX 08181 76762 32904 01801 10266 20212 38777 40169 56005 91735 33310268 20105 30/// 58///
AAXX 08181 76775 31970 31801 10258 20046 38540 40190 57008 70311 8000691730 333 10260 20092 30/// 56002 58000
AAXX 08181 76833 31970 00303 10315 20199 30136 40138 57010 70500 91745333 10315 20212 30/// 59008 92031
AAXX 08181 76840 32050 00000 10326 20212 30083 40139 57009 80000 91740333 10335 20212 30/// 56000 59004
AAXX 08181 76843 32965 00201 10252 20179 39510 40157 58010 91730 33310261 20164 30/// 59004
AAXX 08181 76845 32960 01801 10210 20132 37962 40233 56013 91745 33310220 20032 30/// 58000
AAXX 08181 76903 31981 00901 10314 20208 30007 40137 57015 70400 91740333 10345 20214 30/// 58///
AAXX 08181 76160 32962 00000 10148 20071 39919 40173 52015 91730 33310148 20055 30/// 59002
AAXX 08181 76243 32473 20601 10180 20110 39861 40158 52003 82400 91735333 10192 20082 30/// 56800 59028 82616
AAXX 08181 76311 32980 40000 10214 20107 39887 40170 51010 80004 91740333 10214 20092 30/// 56005 59015 84070
AAXX 08181 76405 32980 41803 10239 20167 30150 40172 57001 80001 92350333 10239 20120 30/// 56005 59011 84072
AAXX 08181 76412 31966 82201 10160 20150 30151 40197 57024 70544 8805091750 333 10160 20120 30/// 56050 58011 88356
AAXX 08181 76640 31458 31402 10236 20203 30167 40179 57010 70111 832//91740 333 10252 20182 31/// 563// 59016 83814
AAXX 08181 76681 31460 13601 10190 20109 37786 40168 57014 70500 8150091745 333 10190 20022 30/// 59009 81417
AAXX 08181 76741 31465 43203 10255 20208 30124 40142 52000 70544 8223691735 333 10273 20140 30/// 561// 59015 82819
AAXX 08181 76855 32580 31301 10304 20230 30080 40129 52009 81238 91740333 10320 20204 30/// 56999 59006 81820 92000
AAXX 08184 91772 31498 62907 10264 20238 4//// 60001 70222 8483/ 333 5679/ 83817 84640 86361
AAXX 08184 91776 NIL
AAXX 08184 91779 31398 62704 10265 20244 40042 53011 60001 70222 81701 333 566/9 81708 86079
AAXX 08184 91784 11498 62412 10275 20254 40030 53013 69901 70328 81108 333 565/9 81817 86277
AAXX 08184 91792 11398 72413 10263 20259 40029 53010 60011 70288 877// 333 565// 83708 86817
AAXX 08184 91772 31498 62907 10264 20238 4//// 60001 70222 8483/ 333 5679/ 83817 84640 86361
AAXX 08184 91776 NIL
AAXX 08184 91779 31398 62704 10265 20244 40042 53011 60001 70222 81701 333 566/9 81708 86079
AAXX 08184 91784 11498 62412 10275 20254 40030 53013 69901 70328 81108 333 565/9 81817 86277
AAXX 08184 91792 11398 72413 10263 20259 40029 53010 60011 70288 877// 333 565// 83708 86817
AAXX 08181 13579 32970 03501 11051 21074 30300 40172 52006 333 10038
BBXX 46002 08181 99426 71305 46/// ///// 10118 40238 57003 91750 22200 00113 11606 70031
BBXX 46005 08181 99461 71310 46/// ///11 10105 40167 55000 91750 22200 00097 11208 20805 3//// 41206 70038 333 91212 555 11113 22122
BBXX 46006 08181 99408 71375 46/// /1810 10137 40156 53005 91750 22200 00120 10708 20707 3//// 41305 70042 333 91213 555 11113 22123 31745 41913 61749 178105 180098 175088 174094 167097 171102
BBXX 46012 08181 99374 71229 46/// /0503 10130 40235 51012 91750 22200 00115 11305 20401 329// 41305 70023 333 91204 555 11035 22042 31656 40306 61749 045032 030047 033044 023047 021046 027045
BBXX 46013 08181 99382 71233 46/// /1601 10114 40237 52016 91750 22200 00107 11204 20401 3//// 41204 70019 333 91202 555 11011 22013 31728 41402 61749 163009 148009 154006 138005 117006 191004
BBXX 46014 08181 99394 71240 46/// /0104 10097 40236 52005 91750 22200 00105 11304 20301 3//// 41304 70022 333 91204 555 11039 22040 31727 40105 61749 012037 005036 012038 009038 013036 007036
BBXX 46028 08181 99357 71219 46/// /1403 10135 40219 51016 91750 22200 00128 11304 20401 328// 41304 70019 333 91204 555 11035 22040 31736 41404 61749 142031 144030 150027 147028 153024 155027
BBXX 46050 08181 99442 71246 46/// /1304 10086 40263 56008 91750 22200 00093 11105 20401 328// 41105 70024 333 91206 555 11045 22047 31747 41206 61749 126043 119039 119039 120040 120039 120039
BBXX 46054 08181 99342 71204 46/// /0000 10139 40227 51031 91750 22200 00131 11304 20401 300// 41304 70019 333 91201 555 11006 22007 31653 43203 61749 354006 020011 027012 028011 348015 336018
BBXX LAGB5 08184 99308 71349 41698 81009 10170 20140 40260 52010 70222 88530 22223 21203 332// 41403 80150
BBXX WSNB 08184 99457 71312 41295 81931 00/// 10119 20100 40120 52017 78162 886// 22233 0//// 20811 319// 41009 5//// 6//// 80110 ICE /////
AAXX 08184 78016 32564 42510 10209 20146 30212 40216 57017 83545 333 10216 20169 70000
AAXX 08184 89009 42461 70710 11263 36810 55002 87600 333 87415
AAXX 08184 78948 11579 20920 10290 20222 30136 40144 69901 70582 82400 333 02200 10294 20256 58001 79999 81827 90940
AAXX 08184 89009 42461 70710 11263 36810 55002 87600 333 87415
BBXX VEP717 08184 99467 70487 41/91 92254 10067 2007/ 40068 56013 76346 89/// 22200 06020 20606 80067
AAXX 08184 68386 36/// /1002 10260 20188 39702 48634 52014 333 10345 20260 91005 555 91024
AAXX 08184 85864 12680 72408 10203 20134 49997 56003 60001 87200 333 56500 87836
AAXX 08184 85874 12680 82920 10170 20095 39393 49990 54002 60001 8621/ 333 56669 86840 88462
AAXX 08184 85934 12580 71711 10125 20074 49910 57043 60001 82530 333 56330 82620 87360
AAXX 08184 89056 12465 72818 10021 21005 49928 51008 60003 86801 333 56605 83615 83825
AAXX 08184 89057 12470 52416 10028 21011 49925 54002 60003 83505 333 56505 83617 85270
AAXX 08184 89058 32480 82715 10037 21009 39908 49929 52007 84107 333 20000
AAXX 08184 89059 12960 52110 10017 21044 49899 52008 60003 82011 333 56000 82458 83061
AAXX 08184 89251 32468 42720 10021 21012 49917 52008 83602
AAXX 08184 85406 12980 02014 10253 20139 40126 56017 60001
AAXX 08184 85418 12970 42318 10238 20132 40136 57015 60001 80001 333 56000 84080
AAXX 08184 85432 12970 52721 10230 20050 37758 48427 57016 60001 80001 333 56006 85070
AAXX 08184 85467 12570 12413 10236 20142 40153 58020 60001 81500 333 56600 81630
AAXX 08184 85488 12970 12911 10234 20131 40149 58013 60001 80001 333 56000 81075
AAXX 08184 85574 12960 02012 10282 20096 39597 40126 57013 60001
AAXX 08184 85585 339// 93219 10207 20149 30080 40115 50001
AAXX 08184 85586 12960 02807 10227 20128 40172 58003 60001
AAXX 08184 85629 12780 13010 10296 20123 40134 57010 60001 81800 333 56700 81850
AAXX 08184 85672 12570 63310 10268 20119 40144 58004 60001 84504 333 56606 84630 83070
AAXX 08184 85682 12460 80117 10193 20164 40153 50001 69901 888// 333 56899 84811 88615
AAXX 08184 85703 12560 73114 10244 20114 40136 54003 60001 87200 333 56700 87830
AAXX 08184 85743 11460 69904 10220 20157 40123 50009 60021 70282 86800 333 56600 84815 86630
AAXX 08184 85782 11560 73423 10218 20101 40094 54001 60061 70282 87200 333 56700 87830
AAXX 08184 85799 11660 63620 10201 20130 40070 58002 60041 70182 86200 333 56700 86843
AAXX 08184 85442 12975 51912 10219 20141 40134 57019 60001 80004 333 56007 85080
AAXX 08184 81405 01359 81503 10258 20237 30107 40116 60111 70286 882// 333 60117 58014 83807 87821 555 69905
AAXX 08184 78925 12675 30714 10287 20199 40152 58022 60001 83202 333 10293 20249 58002 83833
BBXX BAREU04 08184 99506 70126 46/// ///// 40295 57001 22222
AAXX 08184 40340 32760 20107 10174 20000 40172 52013 82500 333 82656
BBXX BAREU06 08184 99361 70066 46/// ///// 40238 22263
BBXX BAREU11 08184 99405 70291 46/// ///// 40269 57004 22253
AAXX 08184 78925 12675 30714 10287 20199 40152 58022 60001 83202 333 10293 20249 58002 83833
AAXX 08184 62010 32660 72706 10124 20068 40232 51002 84430 333 10145 84633 86358
AAXX 08184 85223 32580 62604 10244 20113 37501 47143 57027 84331 333 56000 59001 83827 81930 85358
AAXX 08184 85283 32584 50406 10183 20106 37212 47148 57015 84201 333 56100 59003 84823
AAXX 08184 85364 32570 61405 10252 20156 38147 48232 57014 84361 333 56000 59021 83830 81933 83357
AAXX 08184 85365 32584 33610 10323 20211 39359 40049 57021 83100 333 56100 59046 83825
AAXX 08184 85469 42565 61011 10225 20154 40247 52003 86800 333 56200 83820 85630
AAXX 08184 78583 11562 60809 10270 20228 40176 60031 78088 86800 333 02200 59001 83822
AAXX 08184 97180 01440 70805 10240 20240 30075 40093 56019 60131 76062 83272 333 56000 60117 83819 85360
AAXX 08184 85469 42565 61011 10225 20154 40247 52003 86800 333 56200 83820 85630
AAXX 08184 85574 12960 02012 10282 20096 39597 40126 57013 60001
AAXX 08184 85585 339// 93219 10207 20149 30080 40115 50001
AAXX 08184 85586 12960 02807 10227 20128 40172 58003 60001
AAXX 08184 85629 12780 13010 10296 20123 40134 57010 60001 81800 333 56700 81850
AAXX 08184 85672 12570 63310 10268 20119 40144 58004 60001 84504 333 56606 84630 83070
AAXX 08184 85682 12460 80117 10193 20164 40153 50001 69901 888// 333 56899 84811 88615
AAXX 08184 85703 12560 73114 10244 20114 40136 54003 60001 87200 333 56700 87830
AAXX 08184 85743 11460 69904 10220 20157 40123 50009 60021 70282 86800 333 56600 84815 86630
AAXX 08184 85782 11560 73423 10218 20101 40094 54001 60061 70282 87200 333 56700 87830
AAXX 08184 85799 11660 63620 10201 20130 40070 58002 60041 70182 86200 333 56700 86843
AAXX 08184 85864 12680 72408 10203 20134 49997 56003 60001 87200 333 56500 87836
AAXX 08184 85874 12680 82920 10170 20095 39393 49990 54002 60001 8621/ 333 56669 86840 88462
AAXX 08184 85934 12580 71711 10125 20074 49910 57043 60001 82530 333 56330 82620 87360
AAXX 08184 89056 12465 72818 10021 21005 49928 51008 60003 86801 333 56605 83615 83825
AAXX 08184 89057 12470 52416 10028 21011 49925 54002 60003 83505 333 56505 83617 85270
AAXX 08184 89058 32480 82715 10037 21009 39908 49929 52007 84107 333 20000
AAXX 08184 89059 12960 52110 10017 21044 49899 52008 60003 82011 333 56000 82458 83061
AAXX 08184 89251 32468 42720 10021 21012 49917 52008 83602
AAXX 08184 85406 12980 02014 10253 20139 40126 56017 60001
AAXX 08184 85418 12970 42318 10238 20132 40136 57015 60001 80001 333 56000 84080
AAXX 08184 85432 12970 52721 10230 20050 37758 48427 57016 60001 80001 333 56006 85070
AAXX 08184 85467 12570 12413 10236 20142 40153 58020 60001 81500 333 56600 81630
AAXX 08184 85488 12970 12911 10234 20131 40149 58013 60001 80001 333 56000 81075
AAXX 08184 85442 12975 51912 10219 20141 40134 57019 60001 80004 333 56007 85080
AAXX 08184 78925 12675 30714 10287 20199 40152 58022 60001 83202 333 10293 20249 58002 83833
AAXX 08184 40340 32760 20107 10174 20000 40172 52013 82500 333 10212 82656
AAXX 08181 12772 11406 80000 10000 21007 39855 40147 52011 60012 74642 886// 333 10007 41998 88710
AAXX 08181 12822 16/// /2901 10026 20010 30017 40163 52009 69912 333 10070
AAXX 08181 12843 11580 33104 10044 20013 39971 40143 51013 69912 70311 81142 333 10065 4/000 81820
AAXX 08181 12882 11420 83301 11006 21010 30009 40145 51012 60012 72272 886// 333 10000 43003 88713
AAXX 08181 12925 36/// /0000 10020 21023 39997 40173 52009 333 10092
AAXX 08181 12942 11982 63105 10041 20003 39913 40162 52011 69962 70122 86040 333 10064 4/000
AAXX 08181 12982 11440 80201 10025 20016 30041 40144 51013 60032 76066 8472/ 333 10040 4/000 84711 88515
AAXX 08184 41170 41956 00704 10195 20181 30176 40189 70500 333 10257 59007
AAXX 08184 89514 32999 00202 10021 49712 57001 333
AAXX 08184 89514 32999 00202 10021 49712 57001 333
AAXX 08184 78762 32970 00811 10273 20112 39107 40119 57006 333 10276 20168 30/// 58000
AAXX 08184 78897 11682 50713 10280 20208 40157 58025 60021 70286 85200 333 02/// 10285 20222 58002 70078 85833
AAXX 08184 78762 32970 00811 10273 20112 39107 40119 57006 333 10276 20168 30/// 58000
AAXX 08184 78862 11578 20714 10271 20203 30142 40165 60001 70511 82202 333 10279 20238 58004 81820
AAXX 08184 TKPN 081000Z 0812/0912 07015KT 9999 SCT022 PROB40 TEMPO 0904/0912 SHRA BKN015
AAXX 08184 TAF TQPF 081000Z 0812/0912 07015KT 9999 SCT022 PROB40 TEMPO 0904/0912 SHRA BKN015
AAXX 08184 TAF TUPJ 081000Z 0812/0912 07015KT 9999 SCT022 PROB40 TEMPO 0904/0912 SHRA BKN015
AAXX 08184 00KT
AAXX 08184 TAF TUPJ 041000Z 0412/0512 05012KT 9999 SCT018 SCT035 TEMPO 0412/0512 SHRA PROB30 TEMPO 0412/0422 VRB02KT 5000 +SHRA FEW015CB BKN018
AAXX 08184 032200Z 0400/0424 09014KT 9999 SCT022 SCT038 BKN270 TEMPO 0400/0424 4000 SHRA BKN013 BKN036 BKN260
AAXX 08184 BKN038 SCT270 TEMPO 0412/0512 SHRA BKN015 PROB40 TEMPO 0418/0512 5000 SHRA BKN014 BKN036 PROB30 0420/0512 4000 TSRA FEW012CB
AAXX 08184 918 4000 TSRA FEW012CB
AAXX 08184 N015 BKN036 PROB40 TEMPO 0704/0724 3000 +TSRA SCT011CB BKN012 BECMG 0712/0714 14008KT
AAXX 08184 21/2712 07017G28KT 5000 SHRA BKN015 BKN036 PROB TEMPO 2700/2712 4000 TSRA FEW013CB
AAXX 08184 PROB30 TEMPO 0800/0806 4000 TSRA FEW012CB PROB40 TEMPO 0800/0824 2000 +SHRA/TSRA SCT010CB BKN012 BKN250
AAXX 08181 01003 NIL
AAXX 08181 01007 16/// /1203 11066 21111 30126 40136 57003 60002 333 11061 91105
AAXX 08181 01028 NIL
AAXX 08181 01047 31788 41803 11195 21214 39736 40122 53020 70200 84070 333 11168
AAXX 08181 01049 NIL
AAXX 08181 01078 11375 73108 10011 21015 30051 40064 53020 6//// 70222 86340 333 10013 91111
AAXX 08181 01102 46/// /1705 10020 20004 30128 40148 51016 333 10036 91111
AAXX 08181 01160 NIL
AAXX 08181 01218 NIL
AAXX 08181 01238 41989 01403 11118 21143 39016 40168 52010 70200 333 11077 91106
AAXX 08181 01241 11486 42506 10010 21001 30156 40167 52013 60022 72682 83860 333 10016 91111
AAXX 08181 01281 NIL
AAXX 08181 01338 16/// /1004 11003 21028 30126 40194 52014 60002 333 10017 91108
AAXX 08181 01359 NIL
AAXX 08181 01397 NIL
AAXX 08181 01400 NIL
AAXX 08181 01427 16/// /1105 10020 20007 30171 40187 51023 60002 333 10059 91106
AAXX 08181 01447 NIL
AAXX 08181 01448 46/// /0303 10003 21019 30186 40196 52022 333 10021 91107
AAXX 08184 78897 11682 50713 10280 20208 40157 58025 60021 70286 85200 333 02/// 10285 20222 58002 70078 85833
AAXX 08181 01001 NIL
AAXX 08181 01008 11589 11301 11131 21150 30120 40156 52005 60002 70200 81500 333 11121 91105
AAXX 08181 01010 11470 61803 11008 21019 30117 40133 53019 60072 78582 86960 333 11001 91107
AAXX 08181 01026 NIL
AAXX 08181 01055 46/// /3410 10026 21010 30064 40082 53015 333 10032 91118
AAXX 08181 01062 NIL
AAXX 08181 01098 11580 12805 11019 21040 30042 40060 52020 60002 70120 81400 333 10020 91107
AAXX 08181 01115 16/// /1907 10009 21009 30121 40142 52017 6//// 333 10009 91110
AAXX 08181 01152 NIL
AAXX 08181 01205 NIL
AAXX 08181 01212 16/// /1506 10018 21020 30152 40168 50000 6//// 333 10028 91109
AAXX 08181 01271 16/// /1104 11063 21082 30157 40179 51011 69912 333 11062 91106
AAXX 08181 01288 11680 81801 11103 21115 39412 40200 51014 60002 70222 86830 333 11102 91103
AAXX 08181 01300 NIL
AAXX 08181 01317 11275 51601 11002 21012 30155 40170 53008 60002 70121 81674 333 10036 91105
AAXX 08181 01367 NIL
AAXX 08181 01384 11989 03101 11089 21104 39935 40191 52021 60002 70100 333 11033 91105
AAXX 08181 01403 16/// /1304 10029 20008 30102 40173 52009 60002 333 10052 91111
AAXX 08181 01415 16/// /1502 10030 20002 30163 40174 51009 6//// 333 10060 91107
AAXX 08181 01482 46/// /0308 11006 21042 30180 40188 53022 333 11003 91112
AAXX 08181 01492 NIL
AAXX 08184 78862 11578 20714 10271 20203 30142 40165 60001 70511 82202 333 10279 20238 58004 81820
AAXX 08184 TKPN 081000Z 0812/0912 07015KT 9999 SCT022 PROB40 TEMPO 0904/0912 SHRA BKN015
AAXX 08184 TAF TQPF 081000Z 0812/0912 07015KT 9999 SCT022 PROB40 TEMPO 0904/0912 SHRA BKN015
AAXX 08184 TAF TUPJ 081000Z 0812/0912 07015KT 9999 SCT022 PROB40 TEMPO 0904/0912 SHRA BKN015
AAXX 08184 00KT
AAXX 08184 TAF TUPJ 041000Z 0412/0512 05012KT 9999 SCT018 SCT035 TEMPO 0412/0512 SHRA PROB30 TEMPO 0412/0422 VRB02KT 5000 +SHRA FEW015CB BKN018
AAXX 08184 032200Z 0400/0424 09014KT 9999 SCT022 SCT038 BKN270 TEMPO 0400/0424 4000 SHRA BKN013 BKN036 BKN260
AAXX 08184 BKN038 SCT270 TEMPO 0412/0512 SHRA BKN015 PROB40 TEMPO 0418/0512 5000 SHRA BKN014 BKN036 PROB30 0420/0512 4000 TSRA FEW012CB
AAXX 08184 918 4000 TSRA FEW012CB
AAXX 08184 N015 BKN036 PROB40 TEMPO 0704/0724 3000 +TSRA SCT011CB BKN012 BECMG 0712/0714 14008KT
AAXX 08184 21/2712 07017G28KT 5000 SHRA BKN015 BKN036 PROB TEMPO 2700/2712 4000 TSRA FEW013CB
AAXX 08184 PROB30 TEMPO 0800/0806 4000 TSRA FEW012CB PROB40 TEMPO 0800/0824 2000 +SHRA/TSRA SCT010CB BKN012 BKN250
AAXX 08181 78221 11565 10807 10251 20162 30182 40209 57020 60004 70200 81200 333 81820
AAXX 08181 78224 31659 59905 10261 20125 30131 40205 58021 70544 85500 333 85640
AAXX 08181 78229 32559 31001 10257 20138 30138 40213 57020 83200 333 83820
AAXX 08181 78239 11559 30406 10256 20160 30203 40207 57020 60004 70500 83800 333 10259 20197 83820
AAXX 08181 12345 42560 30606 10250 20162 30160 40200 57020 83100 333 83825
AAXX 08181 78243 12559 20706 10248 20138 30089 40213 57021 60004 82100 333 82820
AAXX 08181 78255 42560 60608 10253 20171 30056 40205 57020 86200 333 10256 20177 86820
AAXX 08181 78264 31560 21704 10281 20181 30104 40180 57020 70200 82200 333 10286 20197 82825
AAXX 08181 78265 31559 30508 10274 20185 30087 40187 57020 70544 83200 333 10277 20161 83825
AAXX 08181 78256 NIL
AAXX 08181 78259 NIL
AAXX 08181 78268 11556 60607 10273 20232 30170 40189 57022 60001 76062 86200 333 86825
AAXX 08181 10004 NIL
AAXX 08181 10015 01575 73105 10064 20037 30187 40197 51025 69902 72522 878// 222// 02060 333 10076 20063 31005 55300 20000 30000 69907 82829 87640 91114 91211
AAXX 08181 10020 17680 23405 10035 20028 30151 40184 51026 69902 70050 333 10067 20035 3/002 55300 20000 30000 82/37
AAXX 08181 10035 01475 73503 10048 20029 30121 40181 51032 69902 72582 878// 333 10067 20045 32003 55300 20000 30000 41167 69907 82815 87630
AAXX 08181 10055 01475 73609 10034 20014 30159 40170 51034 69982 70265 878// 333 10054 20034 31003 55300 20000 30000 69907 83810 87626 91113
AAXX 08181 10147 01480 73105 10060 20036 30158 40177 51029 69962 72186 878// 333 10076 20059 32005 55300 20000 30000 41177 69917 81815 87629
AAXX 08181 10162 07472 83604 10041 20026 30082 40166 52031 60012 75186 333 10063 20040 3/003 55300 20000 30000 69917 82/10 87/16 88/26
AAXX 08181 10184 01568 73203 10049 20042 30138 40146 52030 69952 72562 878// 333 10059 20048 31004 55300 20000 30000 69907 84827 87646
AAXX 08181 10200 07478 73104 10065 20031 30211 40209 51023 60022 72265 333 10079 20050 3/004 55300 20000 30000 69907 84/11 87/28 87/36 91114
AAXX 08181 10224 01681 63005 10057 20026 30190 40196 51025 60032 72588 85500 333 10074 20046 33004 55300 20000 30000 69917 84640 96480
AAXX 08181 10270 06560 83204 10045 20033 30103 40159 51028 60032 222// 06042 333 10063 20041 3/003 55300 69957 85/25 87/33 88/40
AAXX 08181 10338 01470 73005 10050 20039 30121 40195 53028 69932 70182 878// 333 10066 20048 32004 55300 20000 30000 69907 81818 86640 96480
AAXX 08181 10361 01584 73003 10053 20033 30068 40173 52023 60022 72181 875// 333 10070 20043 31003 55300 20000 30000 69907 87631
AAXX 08181 10393 01358 72903 10042 20037 30015 40143 51022 60022 78086 873// 333 10049 20040 31003 55300 20000 30000 60027 84909 87633
AAXX 08181 10400 01472 52904 10056 20042 30190 40241 52022 60032 78082 85831 333 10075 20053 32004 55300 20000 30000 60027 81812 85638 96481
AAXX 08181 10438 07481 72803 10051 20024 39925 40210 51028 60032 72365 333 10057 20025 3/001 55300 69907 82/18 86/30 87/37
AAXX 08181 10469 01665 72805 10040 20027 30006 40174 51020 60032 72186 875// 333 10054 20027 31001 55300 60017 87635
AAXX 08181 10488 01263 82805 10039 20031 39878 40163 51019 60022 72162 878// 333 10041 20029 32003 55300 20000 30000 41177 69907 83805 85808 87629
AAXX 08181 10506 01480 73105 10034 20012 39654 40249 53018 69942 72581 878// 333 10041 20026 31002 55300 20000 30000 69907 82811 87636
AAXX 08181 10548 01465 83004 10031 20012 39654 40205 51018 69912 72582 882// 333 10040 20018 31001 55300 20000 30000 69907 88813 91113
AAXX 08181 10637 01581 72104 10051 20030 30095 40235 52024 60022 72581 878// 333 10080 20046 31004 55300 69907 81820 87628 91114
AAXX 08181 10685 07360 82903 10015 20003 39505 40193 51016 69982 77476 333 10017 20006 3/100 4/004 55300 20000 30000 69917 85/07 87/14 88/22
AAXX 08181 10738 11770 71903 10023 21001 39769 40252 53016 60032 70262 8353/ 333 10057 20022 31000 55300 83650 87360 91113
AAXX 08181 10763 01475 82806 10043 20019 39824 40213 53019 60012 76086 878// 333 10049 20022 31002 55300 20000 30000 69907 82815 84618 86628
AAXX 08181 10788 07465 72605 10034 20022 39764 40204 53012 60022 76165 333 10037 20018 3/001 55300 20000 30000 60017 82/16 87/22 87/26
AAXX 08181 10852 07575 62605 10027 20017 39651 40233 51013 60012 75186 333 10036 20019 3/001 55300 20000 30000 69907 83/25 84/50 86/57
AAXX 08181 10946 07203 83302 10003 21003 39400 40256 51017 60022 77376 333 10025 20003 3/000 4/001 55300 20000 30000 60017 86/03 87/09 88/14
BBXX CGDS 08184 99421 70831 46/// /2402 10013 21054 40284 58001 7//// 8//// 22200 0//// 2////
AAXX 08181 14648 12770 63601 10078 21028 30031 40152 52011 60002 83531 333 10100 83650
AAXX 08181 14652 11000 93627 11087 21090 37808 48385 57007 69942 74574 333 11085 49078 89/00
AAXX 08181 14542 12662 70000 10047 21009 39981 40174 52008 69902 86530 333 10084 86640 95900
AAXX 08181 78221 11565 10807 10251 20162 30182 40209 57020 60004 70200 81200 333 81820
AAXX 08181 78224 31659 59905 10261 20125 30131 40205 58021 70544 85500 333 85640
AAXX 08181 78229 32559 31001 10257 20138 30138 40213 57020 83200 333 83820
AAXX 08181 78239 11559 30406 10256 20160 30203 40207 57020 60004 70500 83800 333 10259 20197 83820
AAXX 08181 12345 42560 30606 10250 20162 30160 40200 57020 83100 333 83825
AAXX 08181 78243 12559 20706 10248 20138 30089 40213 57021 60004 82100 333 82820
AAXX 08181 78255 42560 60608 10253 20171 30056 40205 57020 86200 333 10256 20177 86820
AAXX 08181 78264 31560 21704 10281 20181 30104 40180 57020 70200 82200 333 10286 20197 82825
AAXX 08181 78265 31559 30508 10274 20185 30087 40187 57020 70544 83200 333 10277 20161 83825
AAXX 08181 78256 NIL
AAXX 08181 78259 NIL
AAXX 08181 78268 11556 60607 10273 20232 30170 40189 57022 60001 76062 86200 333 86825
BBXX 44007 08181 99435 70701 46/// /2807 10046 21027 40179 57003 91750 22200 00063 10901 3//// 40901 70005 333 91208 555 11071 22074 31706 43009 61749 280067 277062 286055 290068 287075 286055
BBXX 42085 08181 99179 70665 46/// /1007 10267 40158 91740 333 91208
BBXX BATFR54 08184 99392 70098 46/// /0213 10149 20105 40259 53009 22282 00149
BBXX BATFR12 08184 99490 70069 46/// /3007 10110 20107 40327 53005 22231 00130
BBXX BATFR60 08184 99493 70046 46/// /2617 10112 20104 40314 51013 22252 00109
BBXX BATFR15 08184 99467 70036 46/// /0105 10110 20055 40325 53013 22264 00132
BBXX BATEU02 08184 99548 70174 46/// /2726 10087 20079 40133 53022 22212 00107
BBXX BATFR56 08184 99052 10982 46/// /0211 10270 20269 40124 58003 22273 00294
BBXX BATEU09 08184 99382 10151 46/// /2507 10139 20077 40162 57030 22200 00167
BBXX BATFR19 08184 99024 30081 46/// /1809 10259 20229 40118 53009 22212 00259
BBXX BATEU04 08184 99569 10108 46/// /0212 10019 21021 40176 51021 22253
BBXX BATFR52 08184 99499 70005 46/// /3110 10104 20069 40303 51014 22243 00112
BBXX BATEU06 08184 99460 70251 46/// /1915 10139 20124 40239 56016 22263 00142
BBXX FVNM 08184 99249 70881 46/// /1011 10242 20192 40207 58008 22281 00252
BBXX BATFR14 08184 99229 70515 44798 30615 10252 20182 40193 56023 70200 83162 22254 00244
BBXX A8QJ7 08184 99481 70210 41298 82215 10120 20101 40254 55009 7//00 84708 22263 20602 3//// 4//// 5//// 80110
BBXX BATFR42 08184 99438 70038 46/// /3614 10114 20097 40315 22284 00149
BBXX BAREU00 08184 99447 70584 46/// ///// 40123 222//
BBXX BATFR58 08184 99431 10062 46/// /2817 10124 20012 40157 53017 22200 00144
BBXX BATFR46 08184 99387 10004 46/// /2014 10142 20089 40248 56009 22253 00159
BBXX BATFR24 08184 99427 10095 46/// /3005 10120 20040 40166 22213 00139
BBXX BATFR08 08184 99496 30683 46/// /3028 10062 20039 49822 51012 22222 00054
BBXX BATFR03 08184 99500 70006 46/// /3316 10104 20072 40300 22284
BBXX BATEU08 08184 99571 70155 46/// /3429 11063 21230 40061 55003 22262
BBXX BATFR05 08184 99360 70052 46/// /1310 10152 20102 40252 53024 22223 00155
AAXX 08181 10609 01682 72703 10047 20027 39922 40259 51017 69982 72162 875// 333 10065 20038 31003 55300 20000 30000 69907 87640
AAXX 08181 10616 01375 72904 10029 20016 39639 40253 53020 60012 70282 878// 333 10039 20023 31002 55300 69907 81809 84815 86645
AAXX 08181 10641 07882 22604 10055 20025 30080 40229 51020 69942 70065 333 10078 20044 3/004 55300 69907 82/57
AAXX 08181 10655 01470 83004 10046 20031 39886 40220 51020 60022 75862 878// 333 10065 20028 31002 55300 20000 30000 69937 81816 83622 87628
AAXX 08181 10675 07481 73003 10039 20023 39916 40213 51021 60032 72365 333 10054 20029 3/003 55300 20000 30000 60017 83/16 87/37 87/47
AAXX 08181 10688 07237 82401 10005 20000 39671 40208 51020 60032 77276 333 10031 20005 3/000 55300 20000 30000 60027 85/05 87/33 88/43
AAXX 08181 10708 11781 42704 10035 20023 39868 40263 53017 69942 70281 84501 333 10057 20034 31002 55300 20000 30000 84650 96487 96481
AAXX 08181 10729 07683 82804 10072 20015 30126 40250 51020 69962 72365 333 10090 20049 3/004 55300 20000 30000 69907 84/36 87/49 88/59
AAXX 08181 10731 11682 52205 10044 20030 30103 40250 50013 60022 70386 82530 333 10077 20038 31003 55300 20000 30000 82645 84359 96484
AAXX 08181 10742 07583 82604 10042 20015 39898 40236 51018 60022 72265 333 10054 20031 3/002 55300 20000 30000 69907 81/32 87/49 88/60
AAXX 08181 10776 01581 82805 10035 20018 39753 40205 53014 60012 76162 875// 333 10039 20018 31001 55300 20000 30000 69927 87625
AAXX 08181 10791 01/90 93013 11041 21043 38512 48457 53013 60052 77174 333 11041 21049 49149 55300 60037 96049 96036
AAXX 08181 10805 12780 62202 10052 20030 30070 40265 51015 60022 865// 333 10075 20043 31004 55300 20000 30000 86656
AAXX 08181 10815 07480 82807 10008 20000 39295 48513 51018 60052 77187 333 10012 20001 3/100 4/006 55300 20000 30000 60027 83/19 87/24 88/48 91114
AAXX 08181 10836 01386 82809 10003 20003 39351 40244 53015 60062 70297 886// 333 10010 21002 3/000 42004 553// 2//// 3//// 69907 88707 91116 96495 96471 96469 96451 96441
AAXX 08181 10870 01475 72605 10024 20013 39679 40225 51015 60052 72176 878// 333 10036 20004 32000 55300 69917 81810 83620 86645
AAXX 08181 10895 01260 82607 10011 20004 39619 40203 53011 60032 76176 877// 333 10019 20001 3/000 42003 55300 20000 30000 69967 87705 96478 96478
AAXX 08181 10908 01/00 93208 11036 21036 38523 48517 51011 60022 78587 333 11033 21041 3/104 49100 55300 20000 30000 60027 89/01 91118 91213 96049 96036 96487 96471
AAXX 08181 10929 01468 83004 10039 20025 39720 40263 53016 60032 76186 878/7 333 10042 20027 32002 55300 20000 30000 69917 83815 87626 96480 96461
AAXX 08181 10948 07210 72602 10003 20003 39281 48507 51010 60062 77270 333 10015 20001 3/100 4/042 55300 20000 30000 60017 83/05 84/12 87/21
AAXX 08181 10961 11/90 93508 11138 21141 37034 47997 53015 60192 77574 333 11133 21148 49345 55300 20000 41003 91118 91211 96049 96475 96473 96449
AAXX 08181 10962 01175 72505 11011 21011 39063 48494 51016 60042 70298 878// 333 11007 21015 3/102 44020 55300 20000 30000 60027 84802 87630 96496 96488 96473 96445 96436
AAXX 08181 10980 11/01 93410 11067 21070 38135 48491 53018 60072 74974 333 11060 21069 3/107 49108 55300 20000 30000 96471 96449
AAXX 08181 10007 NIL
AAXX 08181 10044 NIL
AAXX 08181 10046 11462 83602 10043 20026 30136 40176 52032 69932 72182 875// 333 10066 20042 32003 84712 87630
AAXX 08181 10091 07483 80406 10032 20023 30095 40147 51033 69992 75165 333 10051 20031 3/002 55300 20000 30000 69957 87/13 87/20 88/38
AAXX 08181 10113 11575 73308 10067 20034 30188 40207 51023 69902 70381 878// 333 10073 20064 32005 55300 20000 30000 81827 87639 91115 91212
AAXX 08181 10124 NIL
AAXX 08181 10131 07577 73105 10055 20039 30175 40190 51026 69912 72386 333 10070 20054 3/005 55300 20000 30000 69907 81/24 86/32 87/42 91116
AAXX 08181 10170 01481 83211 10046 20034 30143 40159 52032 69982 72582 875// 333 10056 20046 31003 55300 20000 30000 69927 84710 87633 91211
AAXX 08181 10264 06482 83103 10043 20031 30050 40158 52029 60022 333 10060 20040 3/003 55300 20000 30000 69917 82/13 85/29 88/38
AAXX 08181 10291 01682 72803 10037 20029 30074 40143 51026 69982 70186 875// 333 10058 20035 31003 55300 20000 30000 69917 87640
AAXX 08181 10315 01462 72803 10059 20049 30154 40219 51022 60012 78081 878// 333 10073 20053 31004 55300 20000 30000 69957 83817 87640
AAXX 08181 10379 01481 73005 10043 20034 30029 40152 53024 60022 76162 875// 333 10053 20036 31001 55300 20000 30000 41193 69927 82710 87630
AAXX 08181 10382 01482 63003 10047 20032 30105 40151 51024 60022 72186 86800 333 10060 20044 31003 55300 20000 30000 60017 81815 86628
AAXX 08181 10384 06/// /3005 10052 20037 30088 40149 51024 60012 333 10063 20048 3/003 55300 20000 30000 60017
AAXX 08181 10427 01/03 93209 10001 20001 39187 48477 53017 60102 77174 333 10001 21005 3/101 48050 55300 20000 30000 60017 91118 91212 96041 96475 96473
AAXX 08181 10430 01463 72704 10047 20037 30019 40215 51026 60042 72182 875// 333 10056 20043 31004 55300 20000 30000 69947 84710 87635
AAXX 08181 10439 11575 73003 10052 20025 39991 40214 52025 60022 70262 875// 333 10063 20020 32101 86622 83635
AAXX 08181 10453 11/90 93216 11019 21019 38819 48445 51020 60172 78587 333 11018 21028 3/103 49141 55300 91124 91217 96049 96036 96488 96486 96473 96449 96438
AAXX 08181 10496 01250 82603 10046 20039 30063 40149 51022 60012 78065 873// 333 10050 20041 31004 55300 20000 30000 69917 85806 87930
AAXX 08181 10499 01365 82804 10037 20026 39854 40148 51017 60022 76075 875// 333 10044 20024 32002 55300 20000 30000 69907 84708 87613
AAXX 08181 10505 01465 82805 10051 20035 39968 40255 51019 69932 75082 888// 333 10060 20043 32004 55300 20000 30000 69907 83811 88632
AAXX 08181 10513 01468 73105 10055 20047 30121 40245 53019 60022 78082 878// 333 10076 20045 31004 55300 20000 30000 69947 82810 83825 85632 91114
AAXX 08181 10532 07581 72704 10049 20025 39970 40222 52023 60012 72265 333 10069 20023 3/001 55300 20000 30000 69907 87/23 87/38 87/45
AAXX 08181 10544 01/01 93008 11005 21005 39106 48473 51016 60042 77774 333 11002 21015 3/102 48024 55300 69967 91115
AAXX 08181 10554 01480 83006 10035 20025 39800 40195 53019 69942 76061 875// 333 10041 20014 31000 55300 20000 30000 69907 87617 91113 96463
AAXX 08181 10567 01483 82804 10037 20019 39800 40182 51018 69952 72186 878// 333 10043 20030 31002 55300 20000 30000 69917 81810 87623 91113
AAXX 08181 10578 11/01 92917 11026 21027 38745 48440 53018 60132 77074 333 11025 21032 3/103 49092 55300 20000 30000 96049
BBXX BATFR04 08184 99579 70059 44/97 82430 10099 20080 40136 58019 702// 8//// 22282 00097 20702 320// 40902 5//// 60000 ICE 0////
AAXX 08184 07005 04/70 /2909 10078 20042 30196 40288 51012 60002 700// 333 10087 20076 60007 90710 91112 555 60005
AAXX 08184 07015 02682 73005 10074 20049 30217 40275 51012 69902 875// 333 10089 20062 60007 87638 90710 91111 93100 555 60005
AAXX 08184 07020 06/// /2407 10104 20096 30285 40312 51008 69922 333 10114 20100 69927 90710 91111 555 69925
AAXX 08184 07027 04670 72607 10068 20043 30224 40308 52011 60002 700// 333 10089 20064 60007 90710 91110 555 60005
AAXX 08184 07037 04683 83006 10072 20038 30109 40297 53009 60002 700// 333 10081 20067 60007 90710 91111 555 60005
AAXX 08184 07070 04770 82905 10070 20045 30170 40283 51015 69902 700// 333 10087 20061 60007 90710 91108 555 60005
AAXX 08184 07110 01228 72703 10100 20092 30206 40323 53003 69902 75865 876// 333 10112 20088 69907 87706 90710 91110 93100 555 69905
AAXX 08184 07117 02465 72607 10108 20097 30246 40317 53003 60002 875// 333 10114 20099 60007 90710 91113 92427 555 60005
AAXX 08184 07130 04469 82903 10084 20073 30265 40318 53012 60002 700// 333 10109 20083 60007 90710 91106 555 60005
AAXX 08184 07139 06/// /2802 10074 20031 30129 40307 53009 60002 333 10085 20069 60007 90710 91109 555 60005
AAXX 08184 07149 02680 83206 10084 20030 30184 40295 53011 60002 885// 333 10084 20071 60007 88633 90710 91109 93100 555 60005
AAXX 08184 07168 04/69 /3204 10063 20045 30147 40294 51014 69922 700// 333 10081 20063 69907 90710 91110 555 60005
AAXX 08184 07181 04486 82705 10039 20027 39858 40281 51016 60032 700// 333 10056 20035 69907 90710 91108 555 60005
AAXX 08184 07190 04885 /2606 10046 20018 30076 40264 51015 60012 700// 333 10084 20046 60007 90710 91111 555 60005
AAXX 08184 07207 02770 73405 10100 20067 60002 87500 222// 328// 333 10109 20099 60007 90710 91109 92428 555 60005
AAXX 08184 07222 02665 73105 10093 20066 30285 40317 53007 60002 875// 333 10101 20084 60007 87640 90710 91108 555 60005
AAXX 08184 07240 02665 83102 10079 20045 30171 40310 53009 69902 875// 333 10088 20073 60007 87633 90710 91104 93100 555 60005
AAXX 08184 07255 04469 82902 10072 20050 30100 40305 51011 69902 700// 333 10086 20069 60007 90710 91105 555 60005
AAXX 08184 07280 04786 72702 10049 20026 30009 40290 51011 69922 700// 333 10074 20049 69927 90710 91107 555 60005
AAXX 08184 07299 02870 52510 10050 20027 39935 40271 51014 69982 85500 333 10067 20049 60007 85657 90710 91116 93100 555 60005
AAXX 08184 07314 06/// /3407 10104 20062 30293 40321 51007 60002 333 10105 20098 60007 90710 91110 555 60005
AAXX 08184 07335 04582 83503 10080 20051 30165 40314 53008 60002 700// 333 10095 20075 60007 90710 91109 555 60005
AAXX 08184 07434 04464 83301 10056 20041 39818 40311 53008 60002 700// 333 10070 20056 60007 90710 91105 555 60005
AAXX 08184 07460 01565 80103 10059 20029 39903 40303 53013 69902 76062 885// 333 10090 20058 69907 84620 87630 90710 91110 93100 555 69905
AAXX 08184 07471 04470 80108 10023 20000 39297 48874 52009 69902 761// 333 10052 20023 69907 90710 91114 555 69905
AAXX 08184 07481 01582 73506 10057 20029 39996 40292 53013 69922 72162 875// 333 10075 20038 69907 83630 87650 90710 91115 93100 555 69905
AAXX 08184 07510 01580 73504 10093 20037 30251 40318 53009 69922 70362 875// 333 10109 20093 60007 87631 90710 91108 93100 555 60005
AAXX 08184 07535 06/// /3205 10072 20040 39986 40307 52009 69922 333 10091 20072 60007 90710 91110 555 60005
AAXX 08184 07558 06/// /3312 10045 20015 39422 40279 53006 69902 333 10067 20045 60007 90710 91125 555 60005
AAXX 08184 07577 04/70 /0116 10090 20016 30155 40246 58001 69902 700// 333 10112 20073 60007 91036 90710 91136 555 60005
AAXX 08184 07591 04/// /0101 10013 21026 39171 4//// 53004 60002 700// 333 10098 21035 60007 90710 91103 555 60005
AAXX 08184 07607 04585 80404 10090 20071 30245 40318 53010 60022 700// 333 10114 20090 69907 90710 91111 555 60005
AAXX 08184 07621 04380 82902 10091 20079 39870 40311 53009 60002 700// 333 10129 20055 60007 90710 91107 555 60005
AAXX 08184 07627 06/// /3305 10094 20067 39809 40304 53012 60002 333 10129 20034 60007 90710 91112 555 60005
AAXX 08184 07630 01680 73208 10084 20064 30123 40308 52011 60012 70165 875// 333 10108 20084 60007 87635 90710 91115 93100 555 60005
AAXX 08184 07643 02986 03407 10095 20028 30230 40240 51007 60002 333 10158 20051 60007 90710 91119 555 60005
AAXX 08184 07650 02989 13328 10096 20002 30170 40209 52015 60002 80002 333 10141 20093 60007 81075 91039 90710 91139 93100 555 60005
AAXX 08184 07661 02970 02725 10094 20000 39997 40160 51006 60002 333 10139 20094 60007 91039 90710 91145 555 60005
AAXX 08184 07690 02/84 23207 10088 20019 30120 40154 52008 60002 80002 333 10150 20062 60007 82075 90710 91109 93100 555 60005
AAXX 08184 07747 02675 33314 10117 20056 30203 40257 53017 60002 83100 333 10165 20117 60007 83836 90710 91138 93100 555 60005
AAXX 08184 07761 02565 20405 10089 20062 30149 40160 53003 60002 82500 333 10156 20020 60007 82630 90710 91107 93100 555 60005
AAXX 08184 07790 02975 12104 10056 20021 30143 40158 53006 60002 80001 333 10162 20054 60007 81075 90710 91106 93100 555 60005
AAXX 08181 11816 11665 72905 10043 20013 39998 40164 52013 69952 70266 875// 333 10064 84634 86650
AAXX 08181 11826 12681 73001 10034 20006 39953 40156 52013 69902 8554/ 333 10056 85640 83359
AAXX 08181 11903 12670 50000 11003 21020 39757 40147 52015 60002 85500 333 10054 43008 82645 85656
AAXX 08181 11934 11458 70000 11003 21022 39301 42740 51014 69952 77172 875// 333 10024 43003 81710 87626
AAXX 08181 11968 11250 79901 11003 21016 39854 40142 52011 60022 71077 87600 333 10013 43002 87706
BBXX A8GH5 08183 99266 50481 41397 61310 10280 20217 40180 56005 7//// 8577/ 22254 04280 20301 313// 40503 80235
AAXX 08184 78858 12579 40415 10288 20214 30109 40165 60001 83832 333 10291 20237 58000 83822
AAXX 08184 78767 31965 71107 10290 20214 30150 40160 50010 70500 87030 333 10290 20209 30/// 56000 58010 87363
AAXX 08184 48698 01466 73305 10245 20237 30100 40118 60001 71022 84848 333 60007 81815 84630 85365
AAXX 08184 78767 31965 71107 10290 20214 30150 40160 50010 70500 87030 333 10290 20209 30/// 56000 58010 87363
AAXX 08184 48698 01466 73305 10245 20237 30100 40118 60001 71022 84848 333 60007 81815 84630 85365
AAXX 08184 85041 11258 80000 10250 20250 39828 40091 51004 8751/ 333 56000 58007 87608 88457
AAXX 08184 85140 32570 60000 10320 20239 39907 40115 57019 83104 333 56706 59011 83820 86070
AAXX 08184 85141 32584 70906 10308 20243 39880 40108 57020 84304 333 56707 59010 84820 81923 87070
AAXX 08184 85151 NIL
AAXX 08184 85152 32570 80000 10318 20230 39870 40100 57018 83207 333 56700 59010 83820 88270
AAXX 08184 85201 31458 71307 10112 20036 36300 57012 79622 85963 333 56000 58010 83817 82920 87070
AAXX 08184 85230 NIL
AAXX 08184 85242 31457 70000 10172 20056 36558 57015 71722 87900 333 56400 58006 86817 81920 96015
AAXX 08184 78954 12586 50816 10286 20208 30074 40138 60001 83242 333 10290 20236 58003 83820 83080
AAXX 08184 78954 12586 50816 10286 20208 30074 40138 60001 83242 333 10290 20236 58003 83820 83080
AAXX 08181 01037 NIL
AAXX 08181 01046 11480 81403 11066 21078 30119 40126 53019 69982 77172 887// 333 11061 91104
AAXX 08181 01058 16/// /3005 11056 21075 39634 40111 53018 69952 333 11039 4/020 91109
AAXX 08181 01065 NIL
AAXX 08181 01092 NIL
AAXX 08181 01107 16/// /2101 10009 21036 30133 40137 51014 60002 333 10018 91105
AAXX 08181 01114 NIL
AAXX 08181 01144 41886 71406 11001 21026 70322 83046 333 10001 91110
AAXX 08181 01199 NIL
AAXX 08181 01245 NIL
AAXX 08181 01259 16/// /1705 10021 21005 30131 40154 50012 69982 333 10034 91112
AAXX 08181 01262 NIL
AAXX 08181 01278 11480 81001 11060 21071 30067 40174 52013 69922 70282 8192/ 333 11056
AAXX 08181 01293 16/// /0000 11108 21119 39969 40190 52011 60002 333 11108 91102
AAXX 08181 01329 NIL
AAXX 08181 01337 NIL
AAXX 08181 01344 16/// ///// 11111 21129 60002 333 11022 4/084
AAXX 08181 01364 16/// /0901 11250 21274 39047 40297 50014 60002 333 11084 91105
AAXX 08181 01373 11989 00000 11127 21139 30010 40222 51028 60002 70200 333 11048 91102
AAXX 08181 01374 NIL
AAXX 08181 01380 16/// /3202 11154 21175 6//// 333 11057 4/054 91107
AAXX 08181 01389 NIL
AAXX 08181 01393 NIL
AAXX 08181 01424 11860 4//// 11025 21036 30187 40191 52015 60002 70210 84040 333 10004
AAXX 08181 01431 16/// /0701 11102 21111 39513 40218 51020 60002 333 11021 91104
AAXX 08181 01436 NIL
AAXX 08181 01465 11570 60205 10008 21022 30178 40197 51022 60002 70222 85502 333 10013 91107
AAXX 08181 01471 16/// /2803 11073 21085 60002 333 11033 91105
AAXX 08181 01483 NIL
AAXX 08181 01015 NIL
AAXX 08181 01023 11589 50000 11107 21116 30044 40145 52016 60002 70122 84870 333 11100 91102
AAXX 08181 01033 46/// /1504 10007 21008 30088 40120 53018 333 10013 91110
AAXX 08181 01059 16/// /2811 10005 21043 30077 40086 51019 6//// 333 10008 91114
AAXX 08181 01089 16/// /1602 11096 21105 39966 40078 52021 6//// 333 11015 91110
AAXX 08181 01167 41888 21803 11017 21036 30130 40134 52017 70111 82030 333 11014 91105
AAXX 08181 01180 NIL
AAXX 08181 01210 41989 21207 10006 21050 30138 40166 58003 70200 80008 333 10022 91112
AAXX 08181 01228 NIL
AAXX 08181 01240 16/// /2107 10032 20006 30136 40155 51011 6//// 333 10040 91110
AAXX 08181 01304 46/// ///// 10021 21034 30129 40161 56004 333 10045
AAXX 08181 01311 46/// /1604 10002 20001 30106 40170 52007 333 10030 91105
AAXX 08181 01340 NIL
AAXX 08181 01355 16/// ///// 11049 21058 30200 40205 51022 69952 333 10001
AAXX 08181 01360 NIL
AAXX 08181 01392 16/// /0201 11119 21127 39961 40203 51021 60002 333 11051 91103
AAXX 08181 01406 NIL
AAXX 08181 01411 16/// /1103 10034 20013 30147 40173 51011 6//// 333 10059 91107
AAXX 08181 01425 NIL
AAXX 08181 01433 46/// /0000 11082 21113 38892 40201 51012 333 11034 91102
AAXX 08181 01442 11489 53401 11022 21034 39933 40199 51021 60002 70122 85600 333 10003 91104
AAXX 08181 01450 NIL
AAXX 08181 01452 11780 50402 11018 21023 30175 40197 52020 60002 74022 84502 333 10012 91104
AAXX 08181 01473 11980 00000 11079 21087 39985 40205 51025 69942 70121 333 11019 91102
AAXX 08181 01494 11884 20202 11054 21060 30125 40193 51023 60002 70220 81041 333 11021 91111
AAXX 08181 01025 16/// /1804 11016 21029 30122 40133 53019 60042 333 11016 91108
AAXX 08181 01052 16/// /2805 10005 21027 39990 40089 51019 69972 333 10017 91114
AAXX 08181 01122 16/// /1401 11115 21128 30083 40179 52019 60002 333 11115 91102
AAXX 08181 01132 16/// /0201 11119 21133 39769 40182 51017 69942 333 11104 91102
AAXX 08181 01156 NIL
AAXX 08181 01203 46/// /1003 10022 21056 30108 40158 58007 333 10040 91105
AAXX 08181 01233 16/// /3101 11122 21141 60002 333 11050 91105
AAXX 08181 01265 NIL
AAXX 08181 01273 NIL
AAXX 08181 01307 46/// /1306 10023 21008 30133 40162 50002 333 10044 91110
AAXX 08181 01321 16/// /1301 11078 21083 39922 40189 50001 60002 333 11012 91103
AAXX 08181 01327 16/// /0000 11036 21045 69922 333 10005 91103
AAXX 08181 01350 16/// /2601 11198 21208 38754 40188 51016 60002 333 11036 91105
AAXX 08181 01361 16/// /3301 11236 21256 39139 40280 50010 60002 333 11053 4/083 91103
AAXX 08181 01375 NIL
AAXX 08181 01378 16/// /0101 11088 21101 39894 40203 53021 60002 333 11052 91104
AAXX 08181 01385 16/// /3102 11064 21083 39917 40202 52020 60002 333 11040 91106
AAXX 08181 01412 16/// /1003 10024 20006 30147 40177 52013 60002 333 10062 91112
AAXX 08181 01422 16/// /1005 10015 21006 60002 333 10041 91106
AAXX 08181 01440 NIL
AAXX 08181 01441 NIL
AAXX 08181 01467 NIL
AAXX 08181 01469 NIL
AAXX 08181 01477 16/// /0000 11085 21096 69932 333 11010 4/030 91105
AAXX 08181 01480 16/// /3302 11049 21064 60002 333 11007 91105
AAXX 08181 01484 16/// /0402 11094 21115 30032 40198 53021 60002 333 11024 91106
AAXX 08181 01490 16/// /3602 11066 21079 60002 333 11046 91106
AAXX 08181 01495 16/// /0204 11032 21050 30178 40191 51023 6//// 333 11013 91108
AAXX 08181 01121 46/// /1204 11008 21033 30140 40152 51018 333 11007 91107
AAXX 08181 01135 NIL
AAXX 08181 01143 16/// /2103 11044 21063 60002 333 11044 91105
AAXX 08181 01150 16/// /1002 11181 21209 60002 333 11162 4/059 91106
AAXX 08181 01192 NIL
AAXX 08181 01225 46/// /1707 10018 21018 30159 40164 50003 333 10029 91110
AAXX 08181 01230 16/// /0501 11268 21295 69922 333 11092 4/068 91102
AAXX 08181 01232 NIL
AAXX 08181 01234 16/// /2006 11071 21087 60002 333 11055 91109
AAXX 08181 01253 NIL
AAXX 08181 01254 16/// /1801 11097 21113 60002 333 11090 4/047 91104
AAXX 08181 01257 NIL
AAXX 08181 01277 NIL
AAXX 08181 01291 16/// /0000 11122 21135 69972 333 11121 4/044 91102
AAXX 08181 01332 16/// /0000 11085 21096 60002 333 11014 91102
AAXX 08181 01366 46/// /0000 11168 21224 38522 40248 52010 333 11076 91106
AAXX 08181 01370 NIL
AAXX 08181 01376 16/// /1401 11086 21104 60002 333 11027 91104
AAXX 08181 01383 46/// /0000 11194 21207 39882 40228 51023 333 11082 91100
AAXX 08181 01386 16/// ///// 11129 21142 60002 333 11045
AAXX 08181 01416 16/// ///// 10023 20019 60002 333 10050
AAXX 08181 01419 NIL
AAXX 08181 01430 16/// ///// 10000 21010 60002 333 10024
AAXX 08181 01434 16/// /0201 11110 21125 39198 40190 51020 60002 333 11018 91103
AAXX 08181 01455 NIL
AAXX 08181 01468 16/// /1401 11113 21123 60002 333 11032 91103
AAXX 08181 01470 16/// /0202 11028 21040 30079 40198 51025 60002 333 11002 4/008 91104
AAXX 08181 01476 NIL
AAXX 08181 01481 NIL
AAXX 08181 01488 NIL
AAXX 08184 61901 169// /1412 10179 20152 39652 40158 56005 60002 91750 333 10208 8//99 555 7/090
AAXX 08184 61902 32584 41414 10255 20178 40122 84800 333 10293 58002 81825 84650
AAXX 08184 88889 12989 71505 10169 20097 39953 40035 58020 60002 85032 91750 333 85358 87075
AAXX 08184 03005 11250 81821 10061 20056 30008 40108 58028 60052 76362 885// 91750 333 10061 55300 20000 84704 88612 90710 91130
AAXX 08184 03017 17450 /2314 10085 20082 30082 40114 56017 60142 762// 91750 333 10085 55300 20000 86/12 86/23
AAXX 08184 03023 17457 /2324 10097 20089 30140 40145 58008 69962 710// 91750 333 10101 87/10 90710 91132
AAXX 08184 03026 17472 /2424 10100 20085 30099 40117 58012 60022 761// 91750 333 10107 55300 20001 87/15 90710 91133
AAXX 08184 03063 15982 /2210 10083 20061 39883 40160 55004 69902 91750 333 10090 55300 20000 88/71 91021
AAXX 08184 03066 17887 /2321 10105 20072 30134 40140 58011 69942 723// 91750 333 10106 55300 20000 88/57 90710 91127
AAXX 08184 03075 17675 /2213 10096 20081 30081 40125 56011 60032 723// 91750 333 10096 87/37 85/50
AAXX 08184 03091 15881 /1605 10068 20051 30081 40161 57008 69942 91750 333 10081 55300 20000 87/57 86/72
AAXX 08184 03100 17463 /2521 10100 20089 30162 40177 56008 60012 704// 91750 333 10105 55300 20000 88/12 90710 91133 91033
AAXX 08184 03111 16463 /2614 10095 20079 30202 40214 57007 60012 91750 333 10101 88/19
AAXX 08184 03134 16/// /2606 10094 20075 3//// 4//// 5//// 69922 91750 333 10103 55300 20000
AAXX 08184 03136 15578 /2415 10101 20073 30182 40215 58006 69942 91750 333 10101 55300 20000 87/20
AAXX 08184 03162 15480 /2710 10088 20056 39933 40220 50000 69942 91750 333 10093 55300 20000 87/18
AAXX 08184 03166 15468 /2510 10100 20078 30131 40201 51002 60002 91750 333 10105 55300 20000 87/12 84/21 90710 91125
AAXX 08184 03171 12475 72621 10095 20072 30165 40177 58008 69922 81601 91750 333 10096 55300 20000 81710 87072 90710 91126
AAXX 08184 03204 12475 72510 10098 20080 30224 40244 50000 69962 84502 91750 333 10109 55300 20000 81712 84630 87075
AAXX 08184 03240 15980 /1907 10084 20072 30179 40207 50001 60002 91750 333 10096 55300 20000 8//99
AAXX 08184 03257 15871 /2609 10102 20077 30191 40231 50000 60002 91750 333 10103 55300 20000 88/57
AAXX 08184 03292 166// /2609 10082 20075 30213 40232 55001 69982 91750 333 10103 86/34 84/48
AAXX 08184 03302 15668 /2413 10097 20081 30252 40264 51002 69942 91750 333 10106 55300 20000 87/48
AAXX 08184 03354 15467 /2606 10100 20077 30114 40258 53003 60002 91750 333 10100 55300 20000 83/12 87/57
AAXX 08184 03377 11465 72409 10080 20068 30165 40251 56001 69922 70162 8253/ 91750 333 10095 55300 20000 81618 87358
AAXX 08184 03414 15876 /2307 10086 20074 30181 40270 52010 69942 91750 333 10107 55300 20000 81/57 86/74
AAXX 08184 03462 15476 /2104 10079 20068 30171 40261 53003 69922 91750 333 10092 55300 20000 87/14
AAXX 08184 03482 17456 /2307 10075 20057 30233 40259 51004 69902 758// 91750 333 10092 81/16 87/32
AAXX 08184 03502 17781 /2411 10099 20085 30122 40286 52004 69922 723// 91750 333 10108 55300 20000 87/50
AAXX 08184 03535 15783 /2505 10095 20074 30150 40268 53008 60002 91750 333 10105 55300 20000 88/50
AAXX 08184 03590 15476 /2406 10063 20049 30153 40265 51004 60002 91750 333 10083 55300 20000 86/19 85/56 85/67
AAXX 08184 03649 12781 72405 10091 20071 30179 40280 53005 60002 875// 91750 333 10103 55300 2//// 87650
AAXX 08184 03716 17058 /2608 10098 20095 30233 40294 53010 69902 751// 91750 333 10101 55300 20000 88/01
AAXX 08184 03740 NIL
AAXX 08184 03746 15360 /2405 10086 20082 30135 40291 53007 60002 91750 333 10105 81/06 88/50
AAXX 08184 03772 17673 /2207 10093 20064 30247 40278 51004 69902 723// 91750 333 10102 55300 20000 87/48
AAXX 08184 03796 46/// /2706 10073 20036 30132 40278 51008 91750 333 10084
AAXX 08184 03803 15261 /2807 10107 20107 30280 40318 53008 60002 91750 333 10111 86/03 87/56
AAXX 08184 03808 11020 83104 10101 20099 30206 40314 53008 69902 72854 886// 91750 333 10105 55300 20000 86701 88705
AAXX 08184 03809 16156 /3017 10102 20102 30218 40312 53008 69962 91750 333 10106 87/02 87/56
AAXX 08184 03827 15368 /2603 10103 20103 30244 40306 52005 69922 91750 333 10105 86/06 87/56
AAXX 08184 03840 17050 /2806 10092 20092 39990 40299 52007 60002 710// 91750 333 10095 88/01
AAXX 08184 03853 15463 /2003 10095 20086 30272 40296 51010 60002 91750 333 10107 55300 20000 84/19 87/56
AAXX 08184 03874 46/// /2712 10089 20079 30279 40290 51008 91750 333 10108
AAXX 08184 03882 15565 /2603 10074 20045 30221 40286 51007 60002 91750 333 10085 55300 20000 83/25 88/29
AAXX 08184 03894 11262 82807 10103 20097 40313 52007 69902 72165 886// 333 10106 84703 86705
AAXX 08184 03917 15575 /2208 10084 20074 30151 40229 58006 60012 91750 333 10101 55300 20000 81/24 87/35
AAXX 08181 10224 01681 63005 10057 20026 30190 40196 51025 60032 72588 86500 333 10074 20046 33004 55300 20000 30000 69917 84640 96480
AAXX 08184 91408 11466 81504 10261 20254 30054 40092 57014 60081 78082 86908 333 569/9 70305 555 90818
BBXX VCRG 08184 99474 70619 46/// /3113 11017 21029 40133 52030 7//// 8//// 22200 0//// 2////
AAXX 08184 91408 11466 81504 10261 20254 30054 40092 57014 60081 78082 86908 333 569/9 70305 555 90818
BBXX DBFH 08181 99535 10086 46/// /3206 10072 20046 40195 52025 22260 00055
BBXX DBEA 08181 99540 10082 46/// /3307 10061 20037 40193 52031 22261 00055
BBXX A8IM7 08184 99317 71318 41298 70412 10150 20116 40280 52010 70322 8/700 22263 20202 326// 40404 5//// 80130
BBXX DBBA 08181 99/// ///// 46/// ///// 10047 20039 40153 52030 22220 00049
AAXX 08181 14528 NIL
AAXX 08181 14537 NIL
AAXX 08181 14544 NIL
AAXX 08181 14557 11958 82901 10016 20011 39790 40166 52006 60052 71077 8807/ 333 47004 86360 88461
AAXX 08181 14640 NIL
BBXX DBEB 08181 99538 10081 41/// /3208 10059 20059 40190 52024 7//// 22200 00053
BBXX DBBC 08181 99535 10100 46/// /3104 10061 20033 40175 52032 22250 00048
BBXX DBND 08181 99/// ///// 42/// ///// 10045 20035 40173 52031 22220 00059
BBXX DBJM 08181 99541 10081 46/// /3308 10062 20042 40194 52028 22272 00058
BBXX 42039 08181 99288 70860 46/// /1303 10219 40222 58010 91750 22200 00215 10501 20401 300// 40501 70005 333 91204 555 11034 22039 31724 41305 61749 131032 131033 128038 129035 133034 125031 81304 91725
BBXX 41040 08181 99145 70530 46/// /0609 10259 20202 40146 58020 91750 22200 00270 10804 20604 3//// 40802 70021 333 91210 555 11090 22095 31735 40811 61749 062084 066088 064083 063085 064082 066082 80710 91736
BBXX DBBI 08181 99535 10100 46/// +3104 10062 20053 40572 52030/ 22270 00446
BBXX DBCK 08181 99/// ///// 46/// ///// 10065 20063 40189 52024 22220 00060
BBXX DBKR 08181 99541 10121 46/// /3205 10048 20048 40155 52031 22200 00050
BBXX 46082 08181 99597 71434 46/// ///// 10039 49824 53037 91750 22200 00055 11108 70041
BBXX 46072 08181 99517 71722 46/// /0905 11008 21063 40091 58008 91750 22200 00037 11004 20401 3//// 41004 70019 333 91206 555 11051 22052 31737 40807 61749 091050 096046 118024 075021 133042 116025 80806 91738
BBXX 46077 08181 99579 71543 46/// /2915 11076 21128 49917 52043 91750 22200 00033 10605 20605 70024 333 91219 555 11157 22165 31749 42919 61749 285150 287143 287144 288135 285147 283148 82916 91727
BBXX 46035 08181 99571 71778 46/// /2713 1//// 40057 53005 91750 22200 10906 20906 300// 41201 70031 333 91216 555 11133 22142 31749 42616 61749 269131 264113 262110 261114 255109 277130 82815 91749
BBXX 51101 08181 99243 71621 46/// /1801 10222 20171 40191 53011 91750 22200 00236 11506 331// 41506 70031 333 91202 555 11008 22008 31732 41502 61749 178009 184011 196008 222004 156004 155008
BBXX 46026 08181 99378 71228 46/// /0903 10125 40237 53012 91750 22200 00110 11203 20401 329// 41203 70017 333 91205 555 11037 22044 31736 42906 61749 081035 286044 282029 278023 286009 278002
BBXX 46041 08181 99474 71247 46/// /1409 10074 40257 55000 91750 22200 00089 11106 20602 3//// 41106 70031 333 91212 555 11100 22105 31748 41312 61749 144094 145094 145092 146085 148081 147086
BBXX 51004 08181 99175 71524 46/// /0507 10234 20197 91750 555 11078 22083
BBXX 51002 08181 99171 71578 46/// /0709 10238 40172 53014 91750 22200 00242 333 91210 555 11093 22098 31658 40711 61749 072087 068085 075083 078084 076087 071090
BBXX 51100 08181 99236 71539 46/// /1104 10223 40207 53017 91750 22200 00232 11705 20401 332// 41705 70024 333 91206 555 11039 22040 31749 41106 61749 112037 119031 128030 118036 110038 107039
BBXX 46072 08181 99517 71722 46/// /0905 11008 21063 40091 58008 91750 22200 00037 11004 20401 3//// 41004 70019 333 91206 555 11051 22052 31737 40807 61749 091050 096046 118024 075021 133042 116025 80806 91738
BBXX VCRG 08184 99474 70619 46/// /3113 11017 21029 40133 52030 7//// 8//// 22200 0//// 2////
AAXX 08181 76040 32960 03306 10171 20004 30206 40220 52014 91745 333 10259 20076 30/// 58062 98660
AAXX 08181 76122 32670 32508 10142 20031 38501 40151 57002 83100 91750 333 10152 21002 30/// 56500 59043 83846
AAXX 08181 76225 32560 21802 10174 21027 38597 40103 57008 82030 91755 333 10174 20084 30/// 56050 58042 82327
AAXX 08181 76256 32980 00000 10166 20129 30168 40182 52027 91745 333 10180 20086 30/// 59001
AAXX 08181 76258 32/65 /1603 10164 20137 30124 40170 52024 71004 91750 333 10165 20068 30/// 59009
AAXX 08181 76305 32970 10403 20067 30155 40163 52019 80001 91740 333 10250 20111 30/// 56005 59006 81070
AAXX 08181 76342 32962 00301 10204 20006 39462 40178 57008 91750 333 10210 20086 30/// 59033
AAXX 08181 76373 32570 23001 10178 21033 38183 40123 57017 82030 91750 333 10180 21016 30/// 56090 59041 82635
AAXX 08181 76382 32480 71401 10146 20045 38886 40147 54000 87500 91748 333 10152 20080 30/// 56500 59034 87614
AAXX 08181 76390 32970 42507 10208 21017 38220 40111 52003 80004 91730 333 10222 20092 30/// 56005 59028 84070 91111 91113
AAXX 08181 76393 31950 60601 10190 20095 39556 40133 57006 70422 85048 91755 333 10202 20122 30/// 56077 59034 85362
AAXX 08181 76402 31556 33602 10186 20142 30120 40178 57017 70544 86400 91745 333 10190 20116 30/// 56700 59009 86728
AAXX 08181 76423 32784 42001 10194 20036 38145 40144 57007 81354 91751 333 10226 20070 30/// 56099 59024 82357 82067
AAXX 08181 76458 32568 31902 10223 20168 30167 40172 51004 83200 91740 333 10246 20136 30/// 566// 59005 83823
AAXX 08181 76471 32980 42103 10180 20005 37688 40133 57001 84030 71750 333 10185 20049 30/// 56050 59017 84356
AAXX 08181 76491 32660 23601 10228 20149 39768 40162 57002 82400 91750 333 10232 20086 30/// 56900 59035 82650
AAXX 08181 76499 31860 41804 10266 20188 30117 40139 57002 70122 84030 91745 333 10267 20140 30/// 56090 59024 84357
AAXX 08181 76525 32780 52112 10103 20013 37467 40147 51002 83054 91745 333 10105 20075 30/// 56/55 59019 83358 91112
AAXX 08181 76543 31570 30703 10270 20191 30142 40175 58010 70544 81535 91743 333 10272 20174 30/// 56335 59018 81834
AAXX 08181 76548 32870 62502 10238 20200 30166 40176 51001 84034 91740 333 10245 20178 30/// 56065 59011 84358
AAXX 08181 76556 32970 10000 10238 20014 39132 40167 50002 80001 91735 333 10238 20109 30/// 56005 59010 81070
AAXX 08181 76571 32770 41902 10194 20074 38179 40201 55001 84500 91748 333 10200 20060 30/// 56500 59010 84656
AAXX 08181 76577 32970 22304 10160 20108 38061 40203 52006 80003 91740 333 10166 20064 30/// 56005 59001
AAXX 08181 76581 32975 40802 10217 20147 39062 40179 57003 84030 91750 333 10224 20088 30/// 56050 59006 84360
AAXX 08181 76593 32370 30507 10260 20227 30186 40188 58013 81106 91750 333 10294 20170 30/// 561/9 58000 81820 820// 91009 91505
AAXX 08181 76625 32950 33203 10201 20034 38147 40159 55002 80001 91740 333 10201 20082 30/// 56007 59012
AAXX 08181 76632 31960 31902 10164 20089 37643 40155 57001 70511 80009 91745 333 10166 20070 30/// 56005 59005 83170 98560
AAXX 08181 76634 31570 21404 10218 20054 37855 40175 57007 70500 88400 91750 333 10222 20062 30/// 561// 59011 88634
AAXX 08181 76644 32460 51104 10290 20189 30173 40186 56017 821// 91750 333 10296 20190 30/// 563// 58000 82820 83080 91006 91511
AAXX 08181 76654 31956 02301 10288 20203 30172 40176 50002 70544 91750 333 10290 20198 30/// 58000
AAXX 08181 76658 31958 30902 10273 20152 39656 40167 56007 70541 80002 91748 333 10280 20155 30/// 56001 59002 83070 98924
AAXX 08181 76662 32970 11201 10194 20076 38480 40194 52005 80002 91730 333 10208 20060 30/// 56003 59004 83070
AAXX 08181 76665 32964 02402 10226 20055 38134 40176 52001 91750 333 10236 20066 30/// 59004
AAXX 08181 76675 31980 10701 10173 20009 37388 40221 56001 70540 80004 91752 333 10181 21013 30/// 56//9 58001
AAXX 08181 76685 31560 11801 10184 20032 37885 40189 57002 70544 81100 91750 333 10186 20050 30/// 56900 58003 81827
AAXX 08181 76687 31968 50701 10218 20072 38691 40191 58002 70310 80008 91745 333 10222 20100 30/// 56//6 58004 85073
AAXX 08181 76692 31556 31202 10248 20190 30150 40170 58003 70544 822/4 91745 333 10250 20180 30/// 563/5 59006 81820 81630
AAXX 08181 76695 32560 30603 10296 20208 30159 40164 57012 81140 91450 333 10300 20186 30/// 563/0 59006 81830
AAXX 08181 76698 32560 30903 10290 20216 30178 40189 57013 83200 91750 333 10303 20168 30/// 56200 58000 83820
AAXX 08181 76737 31980 51402 10230 20129 38783 40174 58001 70300 80005 91735 333 10235 20098 30/// 56009 59005 85280 91105 91514 99021
AAXX 08181 76750 32560 10903 10295 20209 30173 40183 57010 81100 91750 333 10318 20190 30/// 56100 58000 81820
AAXX 08181 76762 32904 01801 10266 20212 38777 40169 56005 91735 333 10268 20105 30/// 58///
AAXX 08181 76773 31568 42701 10232 20067 38442 40172 57003 70500 81103 91746 333 10236 20065 30/// 56209 58000 81820 83067
AAXX 08181 76775 31970 31801 10258 20046 38540 40190 57008 70311 80006 91730 333 10260 20092 30/// 56002 58000
AAXX 08181 76805 32570 32403 10297 20216 30142 40146 58010 82105 91750 333 10316 20212 30/// 566/6 59002 82824 81059
AAXX 08181 76833 31970 00303 10315 20199 30136 40138 57010 70500 91745 333 10315 20212 30/// 59008 92031
AAXX 08181 76840 32050 00000 10326 20212 30083 40139 57009 80000 91740 333 10335 20212 30/// 56000 59004
AAXX 08181 76843 32965 00201 10252 20179 39510 40157 58010 91730 333 10261 20164 30/// 59004
AAXX 08181 76845 32960 01801 10210 20132 37962 40233 56013 91745 333 10220 20032 30/// 58000
AAXX 08181 76903 31981 00901 10314 20208 30007 40137 57015 70400 91740 333 10345 20214 30/// 58///
AAXX 08181 76160 32962 00000 10148 20071 39919 40173 52015 91730 333 10148 20055 30/// 59002
AAXX 08181 76243 32473 20601 10180 20110 39861 40158 52003 82400 91735 333 10192 20082 30/// 56800 59028 82616
AAXX 08181 76311 32980 40000 10214 20107 39887 40170 51010 80004 91740 333 10214 20092 30/// 56005 59015 84070
AAXX 08181 76405 32980 41803 10239 20167 30150 40172 57001 80001 92350 333 10239 20120 30/// 56005 59011 84072
AAXX 08181 76412 31966 82201 10160 20150 30151 40197 57024 70544 88050 91750 333 10160 20120 30/// 56050 58011 88356
AAXX 08181 76640 31458 31402 10236 20203 30167 40179 57010 70111 832// 91740 333 10252 20182 31/// 563// 59016 83814
AAXX 08181 76647 32670 40902 10298 20161 30168 40198 57012 82106 91750 333 10303 20156 30/// 5620/ 59002 82856
AAXX 08181 76681 31460 13601 10190 20109 37786 40168 57014 70500 81500 91745 333 10190 20022 30/// 59009 81417
AAXX 08181 76741 31465 43203 10255 20208 30124 40142 52000 70544 82236 91735 333 10273 20140 30/// 561// 59015 82819
AAXX 08181 76855 32580 31301 10304 20230 30080 40129 52009 81238 91740 333 10320 20204 30/// 56999 59006 81820 92000
BBXX CGUM 08184 99431 70589 46/// /3016 10069 20050 40143 53002 7//// 8//// 22223 0//// 2////
AAXX 08184 78905 12478 30910 10273 20193 30138 40161 60001 7011 83200 333 10295 20246 58002 70004 83819
AAXX 08184 78906 12580 31107 10290 20188 30146 40151 60001 83200 333 10297 20245 58002 70011 83822
AAXX 08181 76040 32960 03306 10171 20004 30206 40220 52014 91745 33310259 20076 30/// 58062 98660
AAXX 08181 76122 32670 32508 10142 20031 38501 40151 57002 83100 91750333 10152 21002 30/// 56500 59043 83846
AAXX 08181 76225 32560 21802 10174 21027 38597 40103 57008 82030 91755333 10174 20084 30/// 56050 58042 82327
AAXX 08181 76256 32980 00000 10166 20129 30168 40182 52027 91745 33310180 20086 30/// 59001
AAXX 08181 76258 32/65 /1603 10164 20137 30124 40170 52024 71004 91750333 10165 20068 30/// 59009
AAXX 08181 76305 32970 10403 20067 30155 40163 52019 80001 91740 33310250 20111 30/// 56005 59006 81070
AAXX 08181 76342 32962 00301 10204 20006 39462 40178 57008 91750 33310210 20086 30/// 59033
AAXX 08181 76373 32570 23001 10178 21033 38183 40123 57017 82030 91750333 10180 21016 30/// 56090 59041 82635
AAXX 08181 76382 32480 71401 10146 20045 38886 40147 54000 87500 91748333 10152 20080 30/// 56500 59034 87614
AAXX 08181 76390 32970 42507 10208 21017 38220 40111 52003 80004 91730333 10222 20092 30/// 56005 59028 84070 91111 91113
AAXX 08181 76393 31950 60601 10190 20095 39556 40133 57006 70422 8504891755 333 10202 20122 30/// 56077 59034 85362
AAXX 08181 76402 31556 33602 10186 20142 30120 40178 57017 70544 8640091745 333 10190 20116 30/// 56700 59009 86728
AAXX 08181 76423 32784 42001 10194 20036 38145 40144 57007 81354 91751333 10226 20070 30/// 56099 59024 82357 82067
AAXX 08181 76458 32568 31902 10223 20168 30167 40172 51004 83200 91740333 10246 20136 30/// 566// 59005 83823
AAXX 08181 76471 32980 42103 10180 20005 37688 40133 57001 84030 71750333 10185 20049 30/// 56050 59017 84356
AAXX 08181 76491 32660 23601 10228 20149 39768 40162 57002 82400 91750333 10232 20086 30/// 56900 59035 82650
AAXX 08181 76499 31860 41804 10266 20188 30117 40139 57002 70122 8403091745 333 10267 20140 30/// 56090 59024 84357
AAXX 08181 76525 32780 52112 10103 20013 37467 40147 51002 83054 91745333 10105 20075 30/// 56/55 59019 83358 91112
AAXX 08181 76543 31570 30703 10270 20191 30142 40175 58010 70544 8153591743 333 10272 20174 30/// 56335 59018 81834
AAXX 08181 76548 32870 62502 10238 20200 30166 40176 51001 84034 91740333 10245 20178 30/// 56065 59011 84358
AAXX 08181 76556 32970 10000 10238 20014 39132 40167 50002 80001 91735333 10238 20109 30/// 56005 59010 81070
AAXX 08181 76571 32770 41902 10194 20074 38179 40201 55001 84500 91748333 10200 20060 30/// 56500 59010 84656
AAXX 08181 76577 32970 22304 10160 20108 38061 40203 52006 80003 91740333 10166 20064 30/// 56005 59001
AAXX 08181 76581 32975 40802 10217 20147 39062 40179 57003 84030 91750333 10224 20088 30/// 56050 59006 84360
AAXX 08181 76593 32370 30507 10260 20227 30186 40188 58013 81106 91750333 10294 20170 30/// 561/9 58000 81820 820// 91009 91505
AAXX 08181 76625 32950 33203 10201 20034 38147 40159 55002 80001 91740333 10201 20082 30/// 56007 59012
AAXX 08181 76632 31960 31902 10164 20089 37643 40155 57001 70511 8000991745 333 10166 20070 30/// 56005 59005 83170 98560
AAXX 08181 76634 31570 21404 10218 20054 37855 40175 57007 70500 8840091750 333 10222 20062 30/// 561// 59011 88634
AAXX 08181 76644 32460 51104 10290 20189 30173 40186 56017 821// 91750333 10296 20190 30/// 563// 58000 82820 83080 91006 91511
AAXX 08181 76654 31956 02301 10288 20203 30172 40176 50002 70544 91750333 10290 20198 30/// 58000
AAXX 08181 76658 31958 30902 10273 20152 39656 40167 56007 70541 8000291748 333 10280 20155 30/// 56001 59002 83070 98924
AAXX 08181 76662 32970 11201 10194 20076 38480 40194 52005 80002 91730333 10208 20060 30/// 56003 59004 83070
AAXX 08181 76665 32964 02402 10226 20055 38134 40176 52001 91750 33310236 20066 30/// 59004
AAXX 08181 76675 31980 10701 10173 20009 37388 40221 56001 70540 8000491752 333 10181 21013 30/// 56//9 58001
AAXX 08181 76685 31560 11801 10184 20032 37885 40189 57002 70544 8110091750 333 10186 20050 30/// 56900 58003 81827
AAXX 08181 76687 31968 50701 10218 20072 38691 40191 58002 70310 8000891745 333 10222 20100 30/// 56//6 58004 85073
AAXX 08181 76692 31556 31202 10248 20190 30150 40170 58003 70544 822/491745 333 10250 20180 30/// 563/5 59006 81820 81630
AAXX 08181 76695 32560 30603 10296 20208 30159 40164 57012 81140 91450333 10300 20186 30/// 563/0 59006 81830
AAXX 08181 76698 32560 30903 10290 20216 30178 40189 57013 83200 91750333 10303 20168 30/// 56200 58000 83820
AAXX 08181 76737 31980 51402 10230 20129 38783 40174 58001 70300 8000591735 333 10235 20098 30/// 56009 59005 85280 91105 9151499021
AAXX 08181 76750 32560 10903 10295 20209 30173 40183 57010 81100 91750333 10318 20190 30/// 56100 58000 81820
AAXX 08181 76762 32904 01801 10266 20212 38777 40169 56005 91735 33310268 20105 30/// 58///
AAXX 08181 76773 31568 42701 10232 20067 38442 40172 57003 70500 8110391746 333 10236 20065 30/// 56209 58000 81820 83067
AAXX 08181 76775 31970 31801 10258 20046 38540 40190 57008 70311 8000691730 333 10260 20092 30/// 56002 58000
AAXX 08181 76805 32570 32403 10297 20216 30142 40146 58010 82105 91750333 10316 20212 30/// 566/6 59002 82824 81059
AAXX 08181 76833 31970 00303 10315 20199 30136 40138 57010 70500 91745333 10315 20212 30/// 59008 92031
AAXX 08181 76840 32050 00000 10326 20212 30083 40139 57009 80000 91740333 10335 20212 30/// 56000 59004
AAXX 08181 76843 32965 00201 10252 20179 39510 40157 58010 91730 33310261 20164 30/// 59004
AAXX 08181 76845 32960 01801 10210 20132 37962 40233 56013 91745 33310220 20032 30/// 58000
AAXX 08181 76903 31981 00901 10314 20208 30007 40137 57015 70400 91740333 10345 20214 30/// 58///
AAXX 08181 76160 32962 00000 10148 20071 39919 40173 52015 91730 33310148 20055 30/// 59002
AAXX 08181 76243 32473 20601 10180 20110 39861 40158 52003 82400 91735333 10192 20082 30/// 56800 59028 82616
AAXX 08181 76311 32980 40000 10214 20107 39887 40170 51010 80004 91740333 10214 20092 30/// 56005 59015 84070
AAXX 08181 76405 32980 41803 10239 20167 30150 40172 57001 80001 92350333 10239 20120 30/// 56005 59011 84072
AAXX 08181 76412 31966 82201 10160 20150 30151 40197 57024 70544 8805091750 333 10160 20120 30/// 56050 58011 88356
AAXX 08181 76640 31458 31402 10236 20203 30167 40179 57010 70111 832//91740 333 10252 20182 31/// 563// 59016 83814
AAXX 08181 76647 32670 40902 10298 20161 30168 40198 57012 82106 91750333 10303 20156 30/// 5620/ 59002 82856
AAXX 08181 76681 31460 13601 10190 20109 37786 40168 57014 70500 8150091745 333 10190 20022 30/// 59009 81417
AAXX 08181 76741 31465 43203 10255 20208 30124 40142 52000 70544 8223691735 333 10273 20140 30/// 561// 59015 82819
AAXX 08181 76855 32580 31301 10304 20230 30080 40129 52009 81238 91740333 10320 20204 30/// 56999 59006 81820 92000
BBXX CGUM 08184 99431 70589 46/// /3016 10069 20050 40143 53002 7//// 8//// 22223 0//// 2////
AAXX 08184 78905 12478 30910 10273 20193 30138 40161 60001 7011 83200 333 10295 20246 58002 70004 83819
AAXX 08184 78906 12580 31107 10290 20188 30146 40151 60001 83200 333 10297 20245 58002 70011 83822
BBXX CZ9742 08184 99506 70969 46/// /1914 11051 21078 4//// 5//// 7//// 8//// 22200 0//// 2////
BBXX VOKJ 08184 99472 70586 46/// /2722 10017 20005 40090 51016 7//// 8//// 22224 0//// 2////
BBXX C6SI6 08184 99533 71565 46/// /2819 11004 21070 40098 51015 7//// 8//// 22223 0//// 2////
BBXX CGTF 08184 99476 70527 46/// /1515 10051 20034 40038 51017 7//// 8//// 22200 0//// 2////
BBXX CG2958 08184 99505 71278 46/// /1504 10106 20098 40165 55004 7//// 8//// 22200 0//// 2////
BBXX CG2350 08184 99433 70798 46/// /2809 11000 21088 40267 58007 7//// 8//// 22200 0//// 2////
BBXX VOFG 08184 99456 70614 46/// /3119 11001 21022 40137 51016 7//// 8//// 22200 0//// 2////
BBXX VXKF 08184 99469 70596 46/// /2733 10008 21005 40062 55000 7//// 8//// 22253 0//// 2////
BBXX CGDT 08184 99463 70725 46/// /3103 11070 21117 40227 52004 7//// 8//// 22200 0//// 2////
BBXX CGJV 08184 99475 70614 46/// /3314 11015 21026 40120 51048 7//// 8//// 22252 00008 2////
BBXX CGDG 08184 99447 70636 46/// /3111 10043 20019 40147 53005 7//// 8//// 22200 0//// 2////
BBXX VRYO3 08184 99492 70407 46/// /2419 10080 20063 40159 57028 7//// 8//// 22224 00124 2////
BBXX CGBY 08184 99487 71235 46/// /1304 10073 20055 40266 53005 7//// 8//// 22200 0//// 2////
BBXX VCLM 08184 99459 70732 46/// /3204 11063 21124 40223 51007 7//// 8//// 22252 00008 2////
BBXX CGHL 08184 99476 70527 46/// /2414 10052 20035 40038 51017 7//// 8//// 22200 0//// 2////
BBXX CG2960 08184 99453 70817 46/// /1907 11025 21068 40259 58013 7//// 8//// 22200 0//// 2////
BBXX VOLG 08184 99476 70527 46/// /2311 10054 20038 40036 51017 7//// 8//// 22200 0//// 2////
BBXX VCSZ 08184 99455 70735 46/// /2605 11062 21088 40227 53007 7//// 8//// 22200 0//// 2////
BBXX VOKF 08184 99490 70669 46/// /2314 11083 21107 40176 51016 7//// 8//// 22200 0//// 2////
BBXX CGBR 08184 99539 71302 46/// /0506 10091 20089 40107 53012 7//// 8//// 22200 0//// 2////
BBXX CGDR 08184 99545 71305 46/// /1922 10088 20075 40094 51009 7//// 8//// 22251 00133 2////
BBXX CGSB 08184 99484 70707 46/// /2716 11114 21158 40221 53017 7//// 8//// 22263 00014 2////
BBXX VCBW 08184 99477 70700 46/// /1406 11070 21119 40195 50007 7//// 8//// 22252 00011 2////
BBXX CGBN 08184 99476 70527 46/// /2411 10057 20038 40037 51016 7//// 8//// 22200 0//// 2////
BBXX VAAP 08184 99501 70664 46/// /3415 11090 21147 40164 51009 7//// 8//// 22241 0//// 2////
BBXX 3FZK3 08184 99558 71522 46/// /3140 11057 21090 49890 51065 7//// 8//// 22261 0//// 2////
AAXX 08184 81401 06/// /0000 10256 20242 30100 40106 60021 333 60027 58005 555 60025
AAXX 08184 81408 06/// /1307 10230 20216 30116 40124 60211 333 60037 58021 555 69965
AAXX 08181 11423 01158 82805 11002 21004 39296 42788 52019 60022 72274 877// 333 10001 44021 69925 87702 91115
AAXX 08181 11487 01363 82806 10017 20007 39550 40185 52016 60022 76887 885// 333 10033 42997 69915 81707 88613 91111
AAXX 08181 11518 01480 72706 10025 20009 39723 40170 52016 69902 78086 878// 333 10045 69905 84819 86625 91112
AAXX 08181 11603 01261 83103 10018 20004 39667 40158 52016 60022 76086 885// 333 10046 69975 82705 85707 88613
AAXX 08181 11659 01250 82905 10011 20011 39513 40165 52011 60032 76887 887// 333 10022 44003 69905 88705
AAXX 08181 11723 02582 72805 10041 20001 39859 40161 52011 69902 87530 333 10055 60005 85626 87646 91111
AAXX 08181 11782 01770 81903 10032 20009 39841 40151 52013 69902 70262 885// 333 10047 60005 87650
AAXX 08181 02741 37982 50202 11062 21071 30135 40152 52014 70000 81/// 91739 333 11035 21099
AAXX 08181 02755 17580 71801 11057 21062 30046 40145 52017 69922 70072 87/// 91739 333 11023 21058
AAXX 08181 02805 37683 71601 11123 21137 39947 40087 52020 70087 85/// 91739 333 11123 21173
AAXX 08181 02807 47799 72304 11113 21122 39912 40104 700// 87/// 91800 333 11046 21163
AAXX 08181 02836 37999 00000 11187 21207 39888 40130 52023 70020 91739 333 11062 21187
AAXX 08181 02845 47982 82601 11087 21093 39868 40127 52024 72073 88/// 91739 333 11055 21088
AAXX 08181 02849 47980 12702 11110 21118 39835 40123 52026 70087 81/// 91739 333 11059 21111
AAXX 08181 02866 17158 80000 11044 21044 39977 40131 52022 69942 77170 88/// 91739 333 11044 21061
AAXX 08181 02897 47499 72201 11050 21060 39961 40149 700// 87/// 91800 333 11033 21077
AAXX 08181 02913 47460 72001 11044 21051 30093 40147 785// 87/// 333 11032 21078
AAXX 08181 02917 47570 81801 11063 21075 30040 40168 700// 88/// 91800 333 11057 21080
AAXX 08181 02924 47475 80000 11064 21066 39955 40161 52014 785// 88/// 91739 333 11056 21089
AAXX 08181 02926 37669 71101 11083 21096 30149 40162 52013 700// 87/// 91800 333 11083 21121
AAXX 08181 02935 37566 81601 11090 21098 39985 40168 52014 70010 88/// 91739 333 11089 21148
AAXX 08181 02939 37259 80000 11068 21071 39968 40170 52022 70072 88/// 91739 333 11068 21080
AAXX 08181 02944 47999 70000 11157 21167 30013 40172 700// 87/// 91800 333 11117 21169
AAXX 08181 02947 47570 10000 11166 21180 40184 52015 70080 81/// 91751 333 11115 21174
AAXX 08181 02963 46/// /0000 11128 21138 40163 333 1//// 2////
AAXX 08181 02974 31160 70404 11096 21109 30089 40159 52008 70242 876// 333 11095 21141 47///
AAXX 08181 02976 46/// /0404 11047 21048 30143 40160 52011 91739 333 11038 21087
AAXX 08181 02981 37283 70508 11011 2//// 30126 40136 52008 70000 81/// 91739 333 11008 21022
AAXX 08181 02982 46/// /0608 11033 21036 30127 40135 52008 91739 333 11030 21052
AAXX 08181 02741 37982 50202 11062 21071 30135 40152 52014 70000 81/// 91739 333 11035 21099
AAXX 08181 02755 17580 71801 11057 21062 30046 40145 52017 69922 70072 87/// 91739 333 11023 21058
AAXX 08181 02805 37683 71601 11123 21137 39947 40087 52020 70087 85/// 91739 333 11123 21173
AAXX 08181 02807 47799 72304 11113 21122 39912 40104 700// 87/// 91800 333 11046 21163
AAXX 08181 02836 37999 00000 11187 21207 39888 40130 52023 70020 91739 333 11062 21187
AAXX 08181 02845 47982 82601 11087 21093 39868 40127 52024 72073 88/// 91739 333 11055 21088
AAXX 08181 02849 47980 12702 11110 21118 39835 40123 52026 70087 81/// 91739 333 11059 21111
AAXX 08181 02866 17158 80000 11044 21044 39977 40131 52022 69942 77170 88/// 91739 333 11044 21061
AAXX 08181 02897 47499 72201 11050 21060 39961 40149 700// 87/// 91800 333 11033 21077
AAXX 08181 02913 47460 72001 11044 21051 30093 40147 785// 87/// 333 11032 21078
AAXX 08181 02917 47570 81801 11063 21075 30040 40168 700// 88/// 91800 333 11057 21080
AAXX 08181 02924 47475 80000 11064 21066 39955 40161 52014 785// 88/// 91739 333 11056 21089
AAXX 08181 02926 37669 71101 11083 21096 30149 40162 52013 700// 87/// 91800 333 11083 21121
AAXX 08181 02935 37566 81601 11090 21098 39985 40168 52014 70010 88/// 91739 333 11089 21148
AAXX 08181 02939 37259 80000 11068 21071 39968 40170 52022 70072 88/// 91739 333 11068 21080
AAXX 08181 02944 47999 70000 11157 21167 30013 40172 700// 87/// 91800 333 11117 21169
AAXX 08181 02947 47570 10000 11166 21180 40184 52015 70080 81/// 91751 333 11115 21174
AAXX 08181 02963 46/// /0000 11128 21138 40163 333 1//// 2////
AAXX 08181 02974 31160 70404 11096 21109 30089 40159 52008 70242 876// 333 11095 21141 47///
AAXX 08181 02976 46/// /0404 11047 21048 30143 40160 52011 91739 333 11038 21087
AAXX 08181 02981 37283 70508 11011 2//// 30126 40136 52008 70000 81/// 91739 333 11008 21022
AAXX 08181 02982 46/// /0608 11033 21036 30127 40135 52008 91739 333 11030 21052
AAXX 08184 68399 36/// /0908 10273 20205 30026 40133 52007 333 10364 20273 91063 555 91013
AAXX 08181 01028 11585 20304 11035 21073 30128 40148 53010 69902 70200 82500 333 11028 91108
AAXX 08181 01049 16/// /1302 11057 21065 30101 40104 52018 60012 333 11038 91105
AAXX 08181 01160 41350 81605 10001 21013 30121 40139 53017 78582 888// 333 10011 91111
AAXX 08181 01397 16/// /0000 11193 21209 39742 40221 51020 60002 333 11086 91102
AAXX 08181 01001 11575 71410 10011 21020 30032 40044 58035 60002 70222 8753/ 333 10011 91113
AAXX 08181 01026 11475 72004 11021 21028 39987 40132 52018 60032 72682 8686/ 333 11021 4/018 91107
AAXX 08181 01152 16/// /1007 11032 21064 30132 40148 52014 6//// 333 11030 91109
AAXX 08181 01492 11988 00201 11052 21075 30071 40194 52024 60002 70100 333 11012 91107
BBXX CGDG 08184 99447 70636 46/// /3111 10043 20019 40147 53005 7//// 8//// 22200 0//// 2////
BBXX CZ9742 08184 99506 70969 46/// /1914 11051 21078 4//// 5//// 7//// 8//// 22200 0//// 2////
BBXX VRYO3 08184 99492 70407 46/// /2419 10080 20063 40159 57028 7//// 8//// 22224 00124 2////
BBXX C6SI6 08184 99533 71565 46/// /2819 11004 21070 40098 51015 7//// 8//// 22223 0//// 2////
BBXX CGTF 08184 99476 70527 46/// /1515 10051 20034 40038 51017 7//// 8//// 22200 0//// 2////
BBXX VOFG 08184 99456 70614 46/// /3119 11001 21022 40137 51016 7//// 8//// 22200 0//// 2////
BBXX VCSZ 08184 99455 70735 46/// /2605 11062 21088 40227 53007 7//// 8//// 22200 0//// 2////
BBXX VXKF 08184 99469 70596 46/// /2733 10008 21005 40062 55000 7//// 8//// 22253 0//// 2////
BBXX CGHL 08184 99476 70527 46/// /2414 10052 20035 40038 51017 7//// 8//// 22200 0//// 2////
BBXX CGJV 08184 99475 70614 46/// /3314 11015 21026 40120 51048 7//// 8//// 22252 00008 2////
BBXX CG2958 08184 99505 71278 46/// /1504 10106 20098 40165 55004 7//// 8//// 22200 0//// 2////
BBXX CG2350 08184 99433 70798 46/// /2809 11000 21088 40267 58007 7//// 8//// 22200 0//// 2////
BBXX VOKJ 08184 99472 70586 46/// /2722 10017 20005 40090 51016 7//// 8//// 22224 0//// 2////
BBXX CGDT 08184 99463 70725 46/// /3103 11070 21117 40227 52004 7//// 8//// 22200 0//// 2////
BBXX 41010 08181 99289 70785 46/// /0402 10217 40235 58014 91750 22200 00233 11001 20401 300// 41001 70007 333 91203 555 11015 22016
BBXX 41009 08181 99285 70802 46/// /3302 10208 20135 40239 58013 91750 22200 00232 11001 300// 41001 70005 333 91202 555 11018 22019
BBXX 42057 08181 99168 70815 46/// /0508 10272 20217 40176 58010 91750 22200 00271 10603 20603 3//// 40801 70015 333 91210 555 11084 22089 31652 40611 61749 054084 060085 058085 057083 057089 057093 80610 91652
BBXX CGBY 08184 99487 71235 46/// /1304 10073 20055 40266 53005 7//// 8//// 22200 0//// 2////
AAXX 08184 81401 06/// /0000 10256 20242 30100 40106 60021 333 60027 58005 555 60025
AAXX 08184 81408 06/// /1307 10230 20216 30116 40124 60211 333 60037 58021 555 69965
BBXX CGBR 08184 99539 71302 46/// /0506 10091 20089 40107 53012 7//// 8//// 22200 0//// 2////
BBXX 3FZK3 08184 99558 71522 46/// /3140 11057 21090 49890 51065 7//// 8//// 22261 0//// 2////
BBXX VCBW 08184 99477 70700 46/// /1406 11070 21119 40195 50007 7//// 8//// 22252 00011 2////
BBXX CGBN 08184 99476 70527 46/// /2411 10057 20038 40037 51016 7//// 8//// 22200 0//// 2////
BBXX VAAP 08184 99501 70664 46/// /3415 11090 21147 40164 51009 7//// 8//// 22241 0//// 2////
BBXX CGSB 08184 99484 70707 46/// /2716 11114 21158 40221 53017 7//// 8//// 22263 00014 2////
BBXX VOKF 08184 99490 70669 46/// /2314 11083 21107 40176 51016 7//// 8//// 22200 0//// 2////
BBXX CGDR 08184 99545 71305 46/// /1922 10088 20075 40094 51009 7//// 8//// 22251 00133 2////
BBXX VOLG 08184 99476 70527 46/// /2311 10054 20038 40036 51017 7//// 8//// 22200 0//// 2////
BBXX VCLM 08184 99459 70732 46/// /3204 11063 21124 40223 51007 7//// 8//// 22252 00008 2////
BBXX CG2960 08184 99453 70817 46/// /1907 11025 21068 40259 58013 7//// 8//// 22200 0//// 2////
BBXX CGCC 08184 99463 70725 46/// /3103 11077 21126 40228 51005 7//// 8//// 22200 0//// 2////
BBXX VCWL 08184 99468 70712 46/// /2205 11072 21108 40208 51008 7//// 8//// 22200 0//// 2////
BBXX CGDX 08184 99468 70712 46/// /2408 11062 21102 40209 51010 7//// 8//// 22200 0//// 2////
AAXX 08181 11812 36/// /3106 10010 21004 39453 42759 52019 333 10015
AAXX 08181 11813 11680 79903 10031 20008 39813 40167 52015 60012 70288 8554/ 333 10047 85640
AAXX 08181 11816 11665 72905 10043 20013 39998 40164 52013 69952 70266 875// 333 10064 84634 86650
AAXX 08181 11819 36/// /2903 10029 20005 39939 40159 52013 333 10056
AAXX 08181 11826 12681 73001 10034 20006 39953 40156 52013 69902 8554/ 333 10056 85640 83359
AAXX 08181 11841 11556 60000 10010 20001 39770 40154 51013 69912 71062 86500 333 10032 42002 86627
AAXX 08181 11855 11775 73303 10042 20017 39988 40156 52011 69922 72122 875// 333 10063 87650
AAXX 08181 11856 36/// /3301 10026 20013 39832 40155 52015 333 10049
AAXX 08181 11858 11570 79902 10040 20019 30005 40159 52013 69932 70262 87500 333 10072 87630
AAXX 08181 11867 12572 72303 10026 20002 39829 40150 52011 60002 875// 333 10053 42002 85630 87650
AAXX 08181 11880 12660 59901 10025 20025 39978 40152 52016 60002 84540 333 10072 84636
AAXX 08181 11900 16/// /0000 10030 21001 39811 40150 52014 69902 333 10049
AAXX 08181 11903 12670 50000 11003 21020 39757 40147 52015 60002 85500 333 10054 43008 82645 85656
AAXX 08181 11916 11/00 93413 11084 21099 37866 48386 53013 69992 77143 333 11076 48084 89/00 91124 92982 93598 96049
AAXX 08181 11918 11445 89901 11003 21008 39313 42748 52012 69932 77174 875// 333 10015 44015 87615
AAXX 08181 11927 11103 89901 11004 21007 39879 40148 52015 60002 74422 886// 333 10018 41998 88702
AAXX 08181 11930 11/00 93214 11132 21144 37238 47896 50005 60072 77174 333 11118 48068 89/00 91020 91120 93572 96049
AAXX 08181 11933 11/20 79901 11041 21045 38593 48411 51011 60012 74087 87500 333 11002 48067 817// 87623 444 17//1
AAXX 08181 11934 11458 70000 11003 21022 39301 42740 51014 69952 77172 875// 333 10024 43003 81710 87626
AAXX 08181 11938 12580 39901 11038 21049 39056 42736 52014 60002 83501 333 10020 44032 83630
AAXX 08181 11952 16/// /9901 10000 21017 39292 42740 52012 69962 333 10017
AAXX 08181 11958 36/// ///// 11038 21044 38675 48409 52011 333 11032
AAXX 08181 11968 11250 79901 11003 21016 39854 40142 52011 60022 71077 87600 333 10013 43002 87706
AAXX 08181 11976 11340 80000 11007 21015 39875 40146 52012 60022 72272 885// 333 10000 43005 86706 88633
AAXX 08181 11978 11556 70000 11014 21021 30008 40142 52009 60032 71076 87500 333 10005 43002 87630
AAXX 08181 11993 11659 80000 11009 21010 39925 40148 52011 60032 71077 885// 333 10009 43004 88636
AAXX 08184 60285 NIL
AAXX 08184 60340 NIL
BBXX DBLK 08181 99364 30162 41498 12105 10181 20141 40170 52011 70100 81100 22252 04208 20201 32318 40905 50804
AAXX 08184 60105 32960 43206 10146 20112 40224 58002 80002 333 10187 84070
AAXX 08184 60107 32465 52604 10114 20093 40243 58005 82202 333 10168 82816 84070 95310
AAXX 08184 60127 32960 40000 10136 20039 39647 40245 55000 80002 333 10171 84073
AAXX 08184 60141 32960 50000 10097 20011 39568 40244 53007 80002 333 10195 85073
AAXX 08184 60210 32970 42604 10131 21041 39056 48576 56003 80002 333 10166 84070
AAXX 08184 60060 NIL
AAXX 08184 60106 NIL
AAXX 08184 60185 NIL
AAXX 08184 60190 NIL
AAXX 08184 60191 NIL
AAXX 08184 60195 NIL
AAXX 08184 60220 NIL
AAXX 08184 60265 NIL
AAXX 08184 60318 NIL
BBXX 61001 08184 99434 10078 46/// /0707 10126 20100 40142 52002 22200 00134 10802 70010
AAXX 08184 40250 32960 02204 10060 21018 39370 40180 52012 333 10154
AAXX 08184 40260 32960 02204 10076 21037 39377 40168 52020 333 10160
AAXX 08184 40265 32960 00000 10070 21005 39384 40191 53016 333 10130
BBXX 41101 08184 99146 70562 46/// /0817 10260 20206 40136 57022 22200 00267 10704 70021
BBXX DCPC2 08184 99274 11564 41598 12922 10200 20126 40180 54000 70200 81100 22263 00220 21005 329// 41005 5//// 80155
AAXX 08184 64500 32460 82408 10275 20238 30085 40098 885// 333 10287 59001 83610 88633
AAXX 08184 60150 32960 51204 10136 20019 39579 40235 52007 80002 333 10203 85070
AAXX 08184 60096 NIL
AAXX 08184 60101 NIL
AAXX 08184 60115 NIL
AAXX 08184 60135 NIL
AAXX 08184 60155 NIL
AAXX 08184 60156 NIL
AAXX 08184 60230 NIL
AAXX 08184 60252 NIL
AAXX 08184 17600 11560 32612 10162 20094 30095 40104 51014 60082 70181 83800 333 10174 20141 81825 83640
AAXX 08184 17601 12675 32611 10152 20092 30073 40104 52015 60022 83100 91750 333 10169 83830
AAXX 08184 17607 NIL
AAXX 08184 17609 11565 72405 10134 20095 30101 40105 53012 60042 71381 8288/ 333 10171 20121 81825 83360 85366 97011
BBXX CGCC 08184 99463 70725 46/// /3103 11077 21126 40228 51005 7//// 8//// 22200 0//// 2////
BBXX CGDX 08184 99468 70712 46/// /2408 11062 21102 40209 51010 7//// 8//// 22200 0//// 2////
BBXX VCWL 08184 99468 70712 46/// /2205 11072 21108 40208 51008 7//// 8//// 22200 0//// 2////
AAXX 08181 33815 11597 83304 10011 21013 39885 40096 52006 69902 77176 885// 333 10015 555 80020
AAXX 08184 85032 31457 63412 10280 20225 39937 40096 57038 71522 85904 333 56706 58007 84817 81920 86070
AAXX 08184 85043 31450 63610 10280 20240 39938 40098 57023 71722 86904 333 56800 58000 85817 81920 86070
AAXX 08184 85104 32465 40000 10310 20246 39930 40089 57023 84200 333 56700 59008 84817
AAXX 08184 85109 32465 63205 10320 20240 39943 40102 57017 86200 333 56700 58000 86817
AAXX 08184 85114 32465 33006 10305 20238 39936 40100 57024 83200 333 56700 59004 83817
AAXX 08184 85116 32465 43508 10330 20247 39922 40099 57025 84900 333 56700 59011 83817 81923
AAXX 08184 85123 12458 60904 10310 20247 39925 40090 57030 69941 71582 86900 333 56800 59011 85817 81923
AAXX 08184 85139 11458 60000 10278 20243 39884 40076 56009 60051 71562 86904 333 56406 59012 85817 81923
AAXX 08184 85153 32465 50000 10320 20246 39981 40100 57022 84201 333 56303 59006 84817 85070
AAXX 08184 85154 32470 33202 10320 20240 39917 40094 57029 82201 333 56706 59021 82817
BBXX VAAZ 08184 99/// ///// 46/// /2619 10042 20039 40036 51016 7//// 8//// 22200 0//// 2////
BBXX VAAZ 08184 99/// ///// 46/// /2619 10042 20039 40036 51016 7//// 8//// 22200 0//// 2////
AAXX 08181 45007 12650 33504 10144 20100 30234 40243 54000 60001 81530 333 59023 81640 83365
AAXX 08184 48300 31958 00000 10175 20158 39850 40171 52003 71010 333 59018
AAXX 08184 48327 32960 10000 10212 20183 39810 40171 57006 80005 333 59017
AAXX 08184 48331 32960 50000 10201 20185 39939 40174 57004 83051 333 59010
AAXX 08184 48353 31950 00000 10171 20147 39884 40183 57003 71000 333 59009
AAXX 08184 48356 32960 00000 10160 20133 39992 40197 58005 333 59012
AAXX 08184 48375 32960 00000 10223 20166 39922 40150 52003 333 59011
AAXX 08184 48378 31556 50000 10216 20182 30106 40160 56004 71020 82545 333 59007
AAXX 08184 48381 32960 20000 10197 20134 39959 40182 57005 80005 333 59009
AAXX 08184 48407 31959 50306 10192 20151 30015 40161 57007 71022 81046 333 59013
AAXX 08184 48431 32960 10705 10206 20163 39954 40173 57001 80001 333 59010
AAXX 08184 48456 NIL
AAXX 08184 48480 31957 20505 10245 20156 30129 40133 57008 70500 80001 333 59022
AAXX 08184 48500 31956 30000 10251 20180 30129 40136 57009 71010 80005 333 59020
AAXX 08184 48551 31550 30000 10232 20221 30126 40134 57007 71000 81145 333 59022
AAXX 08184 48565 32460 70812 10269 20217 30108 40118 57008 82256 333 59028
AAXX 08184 48569 31557 70000 10237 20214 30092 40133 57006 71022 82876 333 59021 70130
AAXX 08184 48583 NIL
AAXX 08184 48310 31556 30000 10188 20175 39704 40169 57004 71011 82505 333 59028
AAXX 08184 48325 31956 00000 10175 20167 39917 40167 57002 71000 333 59020
AAXX 08184 48329 31950 20000 10202 20183 39825 40171 57002 71000 80005 333 59005
AAXX 08184 48352 NIL
AAXX 08184 48357 NIL
AAXX 08184 48380 31956 00000 10216 20199 30066 40162 57004 71000 333 59010
AAXX 08184 48383 31957 10703 10170 20134 30022 40188 57008 71000 80001 333 59011
AAXX 08184 48403 31958 20206 10208 20152 39961 40176 52000 71000 80005 333 59012
AAXX 08184 48405 NIL
AAXX 08184 48420 31958 60605 10243 20168 30139 40144 57005 70522 82046 333 59019
AAXX 08184 48421 NIL
AAXX 08184 48425 31950 50000 10225 20194 30149 40159 57002 71011 80007 333 59012
AAXX 08184 48426 31958 20205 10255 20148 30141 40154 57002 70500 80001 333 59013
AAXX 08184 48429 32960 20507 10227 20148 30141 40148 57005 80001 333 59028
AAXX 08184 48430 31958 20606 10243 20145 30143 40150 57008 70500 80005 333 59016
AAXX 08184 48450 NIL
AAXX 08184 48459 NIL
AAXX 08184 48465 31958 30113 10234 20197 30141 40145 57009 71011 80005 333 59014
AAXX 08184 48550 31558 50204 10259 20212 30125 40132 57005 71011 81106 333 59020
AAXX 08184 48552 31458 60000 10244 20231 30125 40132 57006 71022 83806 333 59022 70005
AAXX 08184 48566 NIL
AAXX 08184 48568 31459 60506 10270 20230 30121 40128 57007 71022 83866 333 59020 70070
AAXX 08181 45007 12650 33504 10144 20100 30234 40243 54000 60001 81530 333 59023 81640 83365
AAXX 08181 45032 36/// /9901 10103 20094 30225 40242 57001
AAXX 08181 45035 36/// /3404 10135 20103 30200 40244 57001
AAXX 08181 45039 36/// /0002 10135 20100 30224 40240 54000
AAXX 08181 45044 36/// /0005 10133 20105 30140 40236 54000
AAXX 08181 45032 36/// /9901 10103 20094 30225 40242 57001
AAXX 08181 45035 36/// /3404 10135 20103 30200 40244 57001
AAXX 08181 45039 36/// /0002 10135 20100 30224 40240 54000
AAXX 08181 45044 36/// /0005 10133 20105 30140 40236 54000
AAXX 08184 48302 NIL
AAXX 08184 48304 31958 00000 10183 20173 39699 40170 56000 71000 333 59009
AAXX 08184 48334 31956 00000 10195 20184 39806 40176 52003 71000 333 58008
AAXX 08184 48360 32960 00806 10200 20141 39911 40177 57003 333 59013
AAXX 08184 48372 NIL
AAXX 08184 48373 NIL
AAXX 08184 48386 31940 60000 10210 20202 30113 40158 52002 71022 80006 333 59007
AAXX 08184 48387 31957 30903 10160 20141 39194 40172 57008 71011 81045 333 59025
AAXX 08184 48408 32960 60404 10191 20159 30006 40160 57011 80006 333 59016
AAXX 08184 48415 31957 40702 10223 20173 30147 40159 71011 80006 333 59006
AAXX 08184 48433 31957 00000 10190 20156 30006 40177 57000 71000 333 59011
AAXX 08184 48437 32960 00000 10190 20147 39963 40179 52000 333 59010
AAXX 08184 48440 NIL
AAXX 08184 48451 32960 50000 10223 20183 30144 40155 57008 80007 333 59015
AAXX 08184 48454 NIL
AAXX 08184 48457 NIL
AAXX 08184 48463 NIL
AAXX 08184 48464 NIL
AAXX 08184 48479 32960 70203 10231 20154 30088 40141 57012 80007 333 59024
AAXX 08184 48520 31956 40000 10215 20207 30138 40153 50012 71011 80005 333 59006
AAXX 08184 48554 31458 70000 10245 20238 30121 40125 57009 71022 82206 333 59020 70021
AAXX 08184 48563 NIL
AAXX 08184 48571 32560 40903 10262 20222 30104 40116 57013 82236 333 59018 70150
AAXX 08184 78958 11572 61015 10289 20220 30124 30134 60001 70622 84842 333 10302 20233 59003 82822 85357
AAXX 08184 48307 31950 10000 10171 20168 39793 40184 57002 71000 80005 333 59008
AAXX 08184 48324 32960 20701 10195 20180 39940 40164 57004 80005 333 59009
AAXX 08184 48333 31956 00000 10185 20172 39866 40176 52000 71000 333 59011
AAXX 08184 48350 NIL
AAXX 08184 48355 32960 00000 10140 20131 39961 40190 57016 333 59015
AAXX 08184 48358 31959 10000 10160 20142 30016 40199 56008 71000 80001 333 59013
AAXX 08184 48384 31957 00000 10179 20153 39986 40183 56004 71000 333 59012
AAXX 08184 48401 31957 60000 10220 20153 30058 40168 57004 71011 82046 333 59008
AAXX 08184 48404 32961 00605 10179 20139 39991 40175 58009 333 59018
AAXX 08184 48409 NIL
AAXX 08184 48419 31957 40000 10230 20182 30137 40145 57008 71011 80005 333 59008
AAXX 08184 48427 31950 00000 10200 20189 30148 40156 52001 71000 333 59008
AAXX 08184 48435 31959 31028 10202 20138 39718 40164 57006 71011 80005 333 59010
AAXX 08184 48453 32960 60502 10250 20166 30144 40147 57003 80006 333 59015
AAXX 08184 48458 32960 50000 10197 20160 30081 40163 57009 80006 333 59024
AAXX 08184 48474 31956 40000 10206 20178 30022 40149 57007 71010 80006 333 59013
AAXX 08184 48481 31958 12804 10254 20155 30107 40135 57011 70500 80001 333 59023
AAXX 08184 48555 31550 20000 10223 20211 30120 40163 55005 71000 82105 333 59012
AAXX 08184 48556 NIL
AAXX 08184 48557 32560 50000 10243 20224 30100 40135 57010 82806 333 59009
AAXX 08184 48560 31457 80000 10251 20239 30119 40124 56011 71022 82876 333 59001 70012
AAXX 08184 48574 32560 60000 10258 20225 30086 40116 57012 83146 333 59022 70102
AAXX 08184 48581 NIL
AAXX 08184 78958 11572 61015 10289 20220 30124 30134 60001 70622 84842 333 10302 20233 59003 82822 85357
AAXX 08181 10004 46/60 /3209 10076 20027 30212 40212 51024 222// 00069 333 10081 20066 55300 91117 91212
AAXX 08181 10015 01575 73105 10064 20037 30187 40197 51025 69902 70282 878// 222// 02060 333 10076 20063 31005 55300 20000 30000 69907 82829 87640 91114 91211
BBXX VOPP 08184 99456 70735 46/// /2603 11065 21116 4//// 5//// 7//// 8//// 22200 0//// 2////
AAXX 08184 65338 32958 51802 10310 20224 39908 40095 80002 333 10350 58003 85076
BBXX 2BLY5 08183 99379 70145 41298 60809 10163 20131 40256 55000 7//// 84768 22214 00179 20201 304// 40504 80145
BBXX A8SG2 08181 99328 51699 41498 40713 10230 20183 40175 51015 70100 84141 22224 00190 20503 306// 40603 5//// 80200
AAXX 08184 63980 32470 42706 10277 20238 40138 60002 82202 333 10296 58002 82817 83075 943// 91116
BBXX MGGK4 08180 99059 70134 41/96 49901 10285 20234 40103 58004 70500 82330 22233 00293 20000 318// 40603 5//// 80248
BBXX VOPP 08184 99456 70735 46/// /2603 11065 21116 4//// 5//// 7//// 8//// 22200 0//// 2////
AAXX 08184 91503 31475 10000 10234 20232 40071 55007 70500 81338 333 56000 81816 81917
AAXX 08184 91517 11475 31805 10240 20231 40075 57006 69921 71511 82938 333 56699 81815 81916
AAXX 08184 61970 16/// ///// 10271 20247 40075 60082 333 10284 58018 555 60005
AAXX 08184 61980 12560 71408 10251 20190 40141 60002 878// 333 10295 59010 82823 86650 90710 91111 924/7 555 60005
AAXX 08184 67005 14/// /3310 10284 20244 40112 69902 700// 333 10310 59005 90710 91120 555 60005
AAXX 08181 89061 179// 02804 10016 20002 39909 49916 52005 69953 72477 333 91005 91106
AAXX 08184 78947 11580 30915 10283 20232 30145 40148 69901 70381 81101 333 00109 10288 20244 58000 70002 81826 83079 90960
BBXX A8TG2 08183 99267 71662 412// 70808 10220 20189 40150 54000 7//// 8/7// 22264 00200 20801 330// 40807 5//// 80200
AAXX 08184 91503 31475 10000 10234 20232 40071 55007 70500 81338 333 56000 81816 81917
AAXX 08184 91517 11475 31805 10240 20231 40075 57006 69921 71511 82938 333 56699 81815 81916
BBXX 44011 08181 99411 70666 46/// /3005 10086 20040 40175 57004 91750 22200 00088 10904 20401 3//// 40904 70022 333 91206 555 11050 22052 31729 41206 61749 301048 301049 300051 300050 300050 306051
BBXX 41046 08181 99238 70683 46/// /3301 10246 20180 40200 58020 91750 22200 00252 11003 20401 300// 41003 70015 333 91202 555 11014 22015 31732 43402 61749 335014 346015 319009 293010 291008 337008 83402 91745
BBXX 46089 08181 99459 71258 46/// /1907 10079 20078 40258 57003 91750 22200 00091 11206 20702 327// 41205 70029 333 91209 555 11078 22082 31730 42009 61749 186074 182074 186075 184076 187076 186076
AAXX 08184 78862 11578 20714 10271 20203 30142 40165 60001 70511 82202 333 10279 20238 58004 81820
AAXX 08184 TKPN 081000Z 0812/0912 07015KT 9999 SCT022 PROB40 TEMPO 0904/0912 SHRA BKN015
AAXX 08184 TAF TQPF 081000Z 0812/0912 07015KT 9999 SCT022 PROB40 TEMPO 0904/0912 SHRA BKN015
AAXX 08184 TAF TUPJ 081000Z 0812/0912 07015KT 9999 SCT022 PROB40 TEMPO 0904/0912 SHRA BKN015
AAXX 08184 00KT
AAXX 08184 TAF TUPJ 041000Z 0412/0512 05012KT 9999 SCT018 SCT035 TEMPO 0412/0512 SHRA PROB30 TEMPO 0412/0422 VRB02KT 5000 +SHRA FEW015CB BKN018
AAXX 08184 032200Z 0400/0424 09014KT 9999 SCT022 SCT038 BKN270 TEMPO 0400/0424 4000 SHRA BKN013 BKN036 BKN260
AAXX 08184 BKN038 SCT270 TEMPO 0412/0512 SHRA BKN015 PROB40 TEMPO 0418/0512 5000 SHRA BKN014 BKN036 PROB30 0420/0512 4000 TSRA FEW012CB
AAXX 08184 918 4000 TSRA FEW012CB
AAXX 08184 N015 BKN036 PROB40 TEMPO 0704/0724 3000 +TSRA SCT011CB BKN012 BECMG 0712/0714 14008KT
AAXX 08184 21/2712 07017G28KT 5000 SHRA BKN015 BKN036 PROB TEMPO 2700/2712 4000 TSRA FEW013CB
AAXX 08184 PROB30 TEMPO 0800/0806 4000 TSRA FEW012CB PROB40 TEMPO 0800/0824 2000 +SHRA/TSRA SCT010CB BKN012 BKN250
BBXX 46061 08181 99602 71468 46/// /2012 10020 49781 53029 91750 22200 00030 11104 20503 300// 41103 70022 333 91214 555 11123 22130 31704 42014 61749 200115 199113 196109 199115 197120 199115
BBXX 46083 08181 99582 71380 46/// /2112 10059 20048 49903 53031 91750 22200 00064 11111 20706 300// 41109 70053 333 91216 555 11132 22141 31715 42117 61749 206123 207119 209123 210126 210129 208129 82114 91703
AAXX 08181 89061 179// 02804 10016 20002 39909 49916 52005 69953 72477 333 91005 91106
BBXX 51000 08181 99235 71541 46/// /1303 10226 40202 53016 91750 22200 00232 11705 20301 331// 41705 70025 333 91204 555 11027 22028 31717 41206 61749 130027 125037 110039 110044 108040 111037
AAXX 08181 01115 11470 71907 10009 21009 30121 40142 52017 60002 70222 82870 333 10009 91110
AAXX 08181 01152 11482 71007 11032 21064 30132 40148 52014 60002 71522 8587/ 333 11030 91109
AAXX 08181 01367 11860 73003 11115 21127 39758 40231 53021 60002 70222 87010 333 11050 91107
AAXX 08181 01427 11580 81105 10020 20007 30171 40187 51023 60002 70321 8245/ 333 10059 91106
AAXX 08181 01218 11989 03501 11049 21080 30167 40189 50005 69922 70200 333 10000 91103
AAXX 08181 01359 11989 00000 11144 21162 39262 40243 53018 69932 70100 333 11099 91103
BBXX 44100 08181 99363 70756 46/// ///// 1//// 91752 22200 00102 10603 20602 70013
BBXX 41110 08181 99341 70777 46/// ///// 1//// 91751 22200 00125 11101 21001 70007
BBXX 42099 08181 99273 70842 46/// ///// 1//// 91757 22200 00235 10701 20701 70005
BBXX 41113 08181 99284 70805 46/// ///// 1//// 91751 22200 00206 11101 21001 70003
BBXX 41112 08181 99307 70813 46/// ///// 1//// 91751 22200 00165 11101 21001 311// 41101 70004
AAXX 08184 48601 11559 70307 10264 20210 30113 40117 60001 70522 82542 333 82625 83364 87077
AAXX 08184 48615 11560 82403 10237 20230 30121 40127 60021 70262 83538 333 83620 87272
AAXX 08184 48620 11462 70301 10245 20225 30106 40115 60001 71322 82942 333 81917 84364 86078
AAXX 08184 48647 11357 72502 10266 20253 30095 40120 60001 71322 81938 333 81708 81917 83364 87275
AAXX 08184 48650 11460 70803 10257 20229 30100 40119 60001 71322 82942 333 81917 83364 86078
AAXX 08184 48657 11560 73404 10234 20225 30109 40127 60031 70562 82442 333 82625 85366
AAXX 08184 48665 12568 70203 10245 20223 30118 40128 60001 82542 333 82628 84364 86078
AAXX 08184 96413 11140 81301 10242 20237 30065 40092 60941 76166 8552/ 333 81702 85620 88465
AAXX 08184 96421 11465 71301 10241 20236 30049 40085 60101 72992 8457/ 333 84618 87365
AAXX 08184 96441 11468 70903 10249 20242 30053 40080 60011 70292 83531 333 83616 86365
AAXX 08184 96449 12465 71103 10252 20248 30056 40075 60001 83531 333 83614 85365
AAXX 08184 96465 11465 80904 10267 20235 30041 40074 69921 72162 83877 333 82810 85364 88278
AAXX 08184 96471 11468 71204 10249 20233 30072 40075 69941 72162 82848 333 81814 83364 87277
AAXX 08184 96481 12462 73301 10246 20229 30078 40097 60001 8387/ 333 82817 86364
AAXX 08184 96491 11361 72403 10253 20245 30084 40096 69921 76062 86848 333 82707 83640 87276
AAXX 08181 15015 01597 80000 11024 21036 39517 42729 52007 69902 77172 8552/ 333 11014 21056 34000 69907 91000 91101
AAXX 08181 15020 02997 63001 11039 21055 39922 40129 52011 60002 80008 333 10030 21062 34008 60007 91002 91102
AAXX 08181 15090 02597 72801 11002 21040 30026 40121 52012 60002 84536 333 10044 21022 34005 55300 10183 20004 3//// 60007 91002 91103
AAXX 08181 15108 02698 22702 11120 21120 37960 48398 54000 60002 81041 333 11104 21121 3//// 44022 60007 92863
AAXX 08181 15120 02597 82201 11016 21029 39626 40137 52007 60002 8557/ 333 11015 21063 31100 55300 10026 2//// 3//// 60007 91002 91102
AAXX 08181 15150 02997 03200 11038 21052 39905 40126 52010 60002 333 10038 21063 34006 60007 91001 91102
AAXX 08181 15170 02998 23301 11087 21093 39322 42722 51010 60002 80001 333 10005 21093 3/006 41998 60007 91002 91102
AAXX 08181 15200 01596 83301 10001 20001 39992 40141 52014 69982 77172 8802/ 333 10006 21013 3/001 43003 69917 91001 91101 92821 96010
AAXX 08181 15230 02997 72200 11015 21026 39836 40139 52010 60002 87070 333 10018 21032 30002 55300 10104 20004 3//// 60007 91001 91101
AAXX 08181 15260 02598 83402 11007 21043 39585 40134 52009 60002 8637/ 333 10013 21020 31007 60007 91003 91103
AAXX 08181 15280 02599 63606 11163 21250 37354 47867 53001 60002 86050 333 11127 21167 3//// 49046 60007 92727 92818
AAXX 08181 15292 01596 83301 11002 21002 39832 40135 52010 69982 77172 885// 333 10020 21022 3/002 43001 69927 91002 91103 92821 96010
AAXX 08181 15310 02997 83203 10011 21023 30021 40109 51009 60002 81037 333 10048 20008 31011 55300 10094 20003 3//// 60007 91005 91105
AAXX 08181 15335 02997 83303 10031 21005 30093 40100 51009 60002 8807/ 333 10046 20019 31007 60007 91006 91106
AAXX 08181 15346 02997 80801 10006 21024 39815 40111 52011 60002 80007 333 10075 21017 31012 60007 91001 91101
AAXX 08181 15350 02597 71201 10025 20010 39992 40114 52007 60002 87500 333 10057 21002 31010 60007 91002 91102
AAXX 08181 15360 01497 83308 10024 20014 30070 40085 51010 60012 72162 886// 222// 06058 20301 333 10034 20024 3//// 60017 91009 91110 92437
AAXX 08181 15410 02597 80000 10033 21008 30013 40110 52002 60002 8802/ 333 10056 20012 31010 60007 91003 91103
AAXX 08181 15420 02997 40000 11005 21008 39996 40111 52005 60002 84070 333 10043 21005 31007 55300 0//// 20000 3//// 60007 91001 91102
AAXX 08181 15450 02597 82502 10013 20002 39869 40109 52006 60002 8452/ 333 10046 21011 31006 55300 10131 20004 3//// 60007 91005 91105
AAXX 08181 15460 02497 72902 10021 20001 30088 40112 52006 60002 87600 333 10031 20014 31005 60007 91003 91104
AAXX 08181 15470 02997 72401 10003 20001 39980 40110 51005 60002 80006 333 10029 20001 3/004 41998 60007 91002 91103
AAXX 08181 15480 02497 83102 10033 20003 30085 40102 50005 60002 886// 222// 06059 2//// 333 10052 20020 31007 60007 91005 91106 92437
AAXX 08184 91574 46/// ///// 29079 39910 49916 58029
AAXX 08184 91570 NIL
AAXX 08184 91598 NIL
AAXX 08184 91573 06/// /0000 10219 2//// 30000 4//// 55000 60001 333 58003 60007
AAXX 08184 91577 06/// /0502 10198 20168 30076 40097 53001 60001 333 58003 60007
AAXX 08184 91579 06/// /1106 10233 20188 30087 40095 53002 60001 333 58007 60007
AAXX 08184 91582 04570 /1602 10159 20154 30062 40097 53001 69922 700// 333 10260 20159 69927 90710 91103 555 69925
AAXX 08184 91583 06/// /1902 10208 20198 30084 40099 53003 60001 333 58008 60007
AAXX 08184 91587 06/// /2604 10150 20142 30054 40100 53004 69921 333 58011 69927
AAXX 08184 91590 04786 /1203 10170 20160 30064 40108 53004 60002 700// 333 10258 20166 60007 90710 91105 555 60005
AAXX 08184 91592 06/// /0105 10205 20165 30023 40109 53005 60001 333 58005 60007
AAXX 08184 91596 06/// /1202 10186 20164 39995 40106 53003 60001 333 58007 60007
BBXX 44008 08181 99405 70692 46/// /3207 10064 20005 40195 57003 91750 22200 00088 10904 20603 318// 40903 70019 333 91208 555 11070 22074 31653 43110 61749 323067 325070 328069 323073 319078 318080
BBXX 44172 08181 99445 70634 46/// ///// 1//// 91801 22200 00055 10903 20903 318// 41101 70015
BBXX 44097 08181 99410 70711 46/// ///// 1//// 91802 22200 00099 10802 20802 70012
BBXX 44039 08181 99411 70727 46/// /2907 10059 21027 40220 91745 22200 00069 10301 70004 333 91210
AAXX 08181 06201 47768 82706 10073 20063 30179 40232 51010 70380 8//// 333 10088 86/56 87/59 88/63 91007 91115 91212
AAXX 08181 06203 45972 12904 10084 20054 30204 40256 51013 8//// 333 10088 81/73 91005 91111 91207
AAXX 08181 06204 45968 2//07 10073 20060 30191 40242 51011 8//// 333 10081 82/70 91009 91112 91209
AAXX 08181 06205 45963 8//04 10074 20054 30151 40211 50009 8//// 333 10080 88/59 91005 91112 91210
AAXX 08181 06208 47467 73108 10076 20044 30170 40220 51019 70280 8//// 333 10081 82/16 83/19 87/34 91010 91114 91212
AAXX 08181 06211 47874 52707 10073 20060 30182 40238 51010 701// 8//// 333 10081 84/58 85/64 91008 91114 91212
AAXX 08181 06212 463// 73009 1//// 2//// 30177 40241 51012 8//// 333 1//// 82/07 87/68 91010 91113 91211
AAXX 08181 06235 15462 83005 10071 20051 30239 40239 51015 60002 8//// 333 10084 82/14 83/17 88/39 91006 91113 91208
AAXX 08181 06240 15667 83006 10074 20046 30252 40247 51017 60002 8//// 333 10088 88/38 91008 91113 91209
AAXX 08181 06251 15460 83105 10074 20060 30228 40229 51018 60002 8//// 333 10083 81/11 83/15 85/29 91008 91112 91209
AAXX 08181 06258 46/// /3006 333 91007 91113 91210
AAXX 08181 06269 17561 83004 10067 20049 30245 40239 51017 69922 70285 8//// 333 10079 81/21 87/37 88/42 91006 91112 91207
AAXX 08181 06280 15564 83003 10060 20038 30217 40221 51021 69972 8//// 333 10081 81/26 84/30 88/35 91004 91111 91207
AAXX 08181 06310 15571 72903 10072 20053 30255 40265 51014 60002 8//// 333 10089 82/24 85/34 87/39 91004 91108 91205
AAXX 08181 06344 15664 12803 10055 20046 30261 40254 51016 60002 8//// 333 10090 81/36 91005 91112 91208
AAXX 08181 06370 17468 82703 10074 20046 30226 40252 51018 60002 72280 8//// 333 10085 81/19 84/22 85/27 91005 91110 91206
AAXX 08181 06380 17469 82903 10060 20041 30118 40260 53018 60012 72280 8//// 333 10072 85/14 86/17 87/41 91004 91109 91204
AAXX 08181 06206 46862 5//03 10076 20051 30179 40232 51012 8//// 333 10084 83/58 85/68 91005 91113 91211
AAXX 08181 06207 47460 3//07 1//// 2//// 30173 40229 51016 78000 8//// 333 1//// 82/12 83/17 91009 91115 91211
AAXX 08181 06239 45667 1//06 10073 20054 30152 40214 51016 8//// 333 10078 81/36 91007 91112 91210
AAXX 08181 06252 46/// /2906 10072 20057 30199 40246 51011 222// 00070 10704 333 10080 91007 91112 91210
AAXX 08181 06260 17565 83002 10075 20045 30243 40245 51016 60002 70285 8//// 333 10084 81/21 88/40 91005 91108 91204
AAXX 08181 06270 17461 83104 10069 20053 30226 40226 51018 69912 70385 8//// 333 10081 81/19 88/35 91006 91113 91209
AAXX 08181 06290 17460 82803 10060 20051 30186 40227 51022 60022 70285 8//// 333 10077 81/10 83/31 85/38 91005 91111 91207
BBXX 46232 08181 99325 71174 46/// ///// 1//// 91738 22200 00147 11403 20902 328// 41402 70014
BBXX 46247 08181 99378 71228 46/// ///// 1//// 91751 22200 00112 11304 21002 330// 41303 70018
BBXX 46243 08181 99462 71241 46/// ///// 1//// 91759 22200 00091 11305 21003 326// 41303 70023
BBXX 46236 08181 99368 71219 46/// ///// 1//// 91750 22200 00118 11303 21002 328// 41302 70017
BBXX 46212 08181 99408 71243 46/// ///// 1//// 91742 22200 00102 11304 21002 329// 41303 70019
BBXX 46217 08181 99342 71194 46/// ///// 1//// 91742 22200 00145 11303 21002 327// 41301 70013
BBXX 46225 08181 99329 71174 46/// ///// 1//// 91744 22200 00148 11302 20902 328// 41301 70011
BBXX 46215 08181 99352 71209 46/// ///// 1//// 91738 22200 00124 11203 20902 328// 41202 70016
BBXX 46219 08181 99332 71199 46/// ///// 1//// 91758 22200 00138 11204 21003 331// 41203 70021
BBXX 46211 08181 99469 71242 46/// ///// 1//// 91736 22200 00081 11205 20903 327// 41204 70026
BBXX 46214 08181 99379 71235 46/// ///// 1//// 91748 22200 00110 12004 20803 329// 42003 70022
AAXX 08181 37682 32997 60000 11085 21092 38091 48495 57014 86040 333 11010
AAXX 08181 37717 325// 60000 11029 21063 38029 48459 57006 82530 333 10020
AAXX 08181 37788 41995 60501 11010 21046 39167 40191 57007 71022 86030 333 10065
BBXX 51201 08181 99217 71581 46/// ///// 1//// 91755 22200 00243 11704 21002 332// 41704 70022
BBXX 51202 08181 99214 71577 46/// ///// 1//// 91740 22200 00238 11802 20802 335// 41801 70012
AAXX 08184 16021 12680 43310 11070 21097 37932 48464 53002 60002 81106 333 11045 44015 81840
AAXX 08184 16022 12886 33312 11054 21109 37816 48466 53007 60002 83030 333 11034 48018 83357 92832
AAXX 08184 16033 12562 80000 10000 21044 38773 48478 53010 60002 885// 333 10012 47049 88630 92802
AAXX 08184 16040 12565 43301 11008 21032 39252 42780 52017 60002 84200 333 10042 43002 84830 92838
AAXX 08184 16052 11460 20431 11146 21163 36584 47021 53003 60012 72874 82080 333 11122 49999 82310
AAXX 08184 16061 12984 00908 10084 20004 39327 42778 53007 60002 333 10110
AAXX 08184 16098 12970 00303 10036 20012 30113 40166 53009 60002 333 10124
AAXX 08184 16138 12962 00000 10048 20023 30157 40168 52014 60002 333 10112
AAXX 08184 16148 12970 40102 10026 20026 30151 40163 53009 60002 84030 333 10112 84363
AAXX 08184 16168 12782 30208 10074 20044 39413 42775 56004 60002 83030 333 10106 83350
AAXX 08184 16172 NIL
AAXX 08184 16179 12875 61704 10062 21064 39477 42772 53004 60002 86030 333 10099 86358
AAXX 08184 16224 12870 73304 10098 20040 39829 40148 53009 60002 87070 333 10124 87358
AAXX 08184 16232 12598 22707 10092 20056 30100 40153 52003 60002 81130 333 10116 81826 555 0////
AAXX 08184 16245 NIL
AAXX 08184 16253 12872 70404 10070 20031 30141 40153 53005 60002 85031 333 10140 85358
AAXX 08184 16258 12465 23509 10018 21004 39144 42755 52005 60002 82500 333 10050 82615
AAXX 08184 16263 12562 60506 10020 20011 38888 48451 53010 60002 86200 333 10046 86620
AAXX 08184 16294 42598 60000 10120 20111 39961 40154 54000 6///2 82230 333 10140 82625 85358 555 0////
AAXX 08184 16337 12598 62403 10078 20033 39569 40144 50000 60002 86100 333 10102 86820 555 0////
AAXX 08184 16344 12260 42208 11008 21040 38264 48452 52004 60002 83130 333 10020 42036 83804 95000 95100
AAXX 08184 16434 12470 22008 10042 20027 38969 48469 56001 60002 82200 333 10082 82814 95000 95100
AAXX 08184 16450 12463 12204 10074 20074 39049 48514 55000 60002 81200 333 10100 81810
AAXX 08184 16459 12960 02706 10080 20063 30119 40155 53002 60002 333 10178
AAXX 08184 16546 12560 62806 10126 20071 30156 40184 58003 60002 86200 333 10150 86830
AAXX 08184 16564 12598 32836 10124 20073 30015 40157 55005 60002 81201 333 10156 81825 555 0////
AAXX 08184 16045 NIL
AAXX 08184 16090 12960 00000 10054 20051 30089 40173 52018 60002 333 10142
AAXX 08184 16149 12665 30000 10061 20041 30146 40162 53007 60002 81101 333 10126 81845
AAXX 08184 16261 NIL
AAXX 08184 16453 12997 03110 10132 20095 30085 40163 58003 60002 333 10164 55300 555 0////
AAXX 08184 16560 12564 63009 10124 20068 30178 40185 55004 60002 85830 333 10156 81820 85625
AAXX 08184 16008 11462 80304 11020 21050 38526 48485 52011 69982 70272 83720 333 11002 47051 83715 86458 92810
AAXX 08184 16084 12970 01604 10014 20014 30003 40176 52018 60002 333 10152
AAXX 08184 16088 12970 00505 10040 20002 30053 40173 53012 60002 333 10119
AAXX 08184 16110 12998 10605 10054 20019 30160 40164 51007 60002 80001 333 10124 555 0////
AAXX 08184 16134 12980 03416 11034 21090 37787 48476 50000 60002 333 11010 44027 92845
AAXX 08184 16153 12999 00212 10084 20073 39893 40160 53001 60002 333 10132 555 0////
AAXX 08184 16158 12970 01302 10068 20053 30159 40167 52009 60002 333 10128
AAXX 08184 16206 12682 40203 10076 20061 30150 40159 54000 60002 81530 333 10138 81640 84363
AAXX 08184 16219 NIL
AAXX 08184 16252 12980 30000 10042 21064 39211 42773 53005 60002 83030 333 10090 83359
AAXX 08184 16280 12798 83511 10110 20096 39923 40145 51000 60002 8317/ 333 10118 83850 84358 85463 555 0////
AAXX 08184 16310 12898 60307 10088 21011 39912 40136 53002 60002 86030 333 10122 86358 555 0////
AAXX 08184 16320 11458 41509 10072 20065 30130 40142 50001 60032 71096 84500 333 10106 84615 555 0////
AAXX 08184 16325 12998 02812 10096 21006 30131 40145 53011 60002 333 10150 98070 555 0////
AAXX 08184 16360 12597 40618 10068 20043 30001 40138 52012 60002 84500 333 10120 84620 555 0////
AAXX 08184 16400 12997 03306 10112 20091 39876 40166 56003 60002 333 10140 55300 555 0327/
AAXX 08184 16420 12598 43303 10134 20074 30089 40154 53002 69902 84800 333 10158 82825 83635 90970 555 0////
AAXX 08184 16429 12562 33102 10120 20101 30160 40171 55002 60002 83500 333 10156 83625
AAXX 08184 16470 12560 82918 10134 20113 39958 40195 53000 60002 881// 333 10148 40997 55300 22/// 88830 95060
AAXX 08184 16480 12998 03010 10122 20081 30080 40142 54000 60002 333 10160 555 0////
AAXX 08184 16522 12497 53313 10128 20089 39946 40190 56005 60002 85200 333 10130 55300 85818 555 0////
AAXX 08184 16539 NIL
AAXX 08184 16550 12998 23001 10124 20081 39974 40154 50000 60002 80001 333 10158 555 0////
AAXX 08184 89642 40/// /1423 11043 21150 39869 49923 51009 333 01535 91135
AAXX 08184 16172 12965 00000 10052 20029 39870 40174 53008 60002 333 10120
AAXX 08181 13579 32970 03501 11051 21074 39300 40172 52006 333 10038
BBXX 46238 08181 99334 71195 46/// ///// 1//// 91750 22200 00134 11304 20903 328// 41302 70018
BBXX KSDF 08184 99343 70093 41398 60607 10172 20154 40230 50002 70322 8559/ 22253 0//// 20301 330// 41203 5//// 6//// 80161 /////
BBXX V2JU 08180 99346 70200 41598 80607 10175 20106 40250 52010 7//22 8247/ 22264 29902 303// 40605 5//// 80135
AAXX 08184 13600 12960 40902 10068 20027 30080 40133 54003 60002 84030 333 10095 84360
AAXX 08184 13610 12960 50408 10036 20012 39708 40139 54000 60002 85030 333 10066 85360
AAXX 08184 13611 NIL
AAXX 08184 13619 12660 60000 11002 21051 39355 42747 54002 60002 86500 333 10070 86640
AAXX 08184 13622 12665 60000 10044 21016 30122 40130 54004 60002 86500 333 10090 86640
AAXX 08184 13624 12965 11406 10004 21026 30092 40133 52013 60002 81060 333 10118 81360
AAXX 08184 13625 NIL
AAXX 08184 13629 12664 71402 11024 21054 39070 42733 52018 60002 87500 333 10002 87640
AAXX 08184 13601 12960 50000 10048 21019 30012 40115 54005 60002 84031 333 10108 84360
AAXX 08184 13602 NIL
AAXX 08184 13623 NIL
BBXX A8CG7 08180 99267 31564 41297 30305 10236 40101 56010 70200 81741 22274 29902 3//// 4//// 5////
BBXX DGOQ 08184 99545 10100 41/97 93617 10034 21004 40175 702// 22200 04055 80020
BBXX A8TG2 08183 99267 71662 412// 70808 10220 20189 40150 54000 8/6// 22264 00200 20801 330// 40807 80200
AAXX 08181 10044 46/// /3508 10045 20012 30141 40173 51031 222// 00046 333 10063 20042 55300
AAXX 08181 03951 17460 /2408 10109 20100 30268 40295 55001 69902 7011/ 88/// 333 10110 81/16 88/49
AAXX 08181 03953 32480 72206 10112 20081 30251 40288 57004 875// 333 10122 81718 87650 92428
AAXX 08181 03955 32675 72304 10094 20078 30089 40289 56001 875// 333 10124 87644
AAXX 08181 03956 15684 /2503 10099 20062 30208 40286 53007 69922 88/// 333 10121 88/42
AAXX 08181 03962 12581 72306 10100 20064 30249 40273 57004 69902 875// 333 10114 81626 87642
AAXX 08181 03963 17665 /2310 10101 20075 30225 40254 57006 69912 70185 87/// 333 10104 87/30
AAXX 08181 03966 17682 /2406 10097 20055 30175 40269 55003 60002 7031/ 88/// 333 10106 88/40
AAXX 08181 03967 11481 72408 10093 20068 30144 40258 56003 69902 70162 875// 333 10110 81715 83630 87640
AAXX 08181 03969 11482 72406 10095 20065 30154 40259 55001 69902 70265 875// 333 10112 81618 83625 86640
AAXX 08181 03973 11276 82104 10081 20079 39987 40244 57007 69992 72065 885// 333 10095 83703 84622 87633
AAXX 08181 03976 11468 32109 10100 20090 30216 40228 57010 69912 72165 82501 333 10111 81715
AAXX 08181 03980 17475 /2310 10099 20087 30181 40206 57008 69952 7011/ 87/// 333 10102 87/14 87/31
AAXX 08184 48601 11559 70307 10264 20210 30113 40117 60001 70522 82542 333 82625 83364 87077
AAXX 08184 48615 11560 82403 10237 20230 30121 40127 60021 70262 83538 333 83620 87272
AAXX 08184 48620 11462 70301 10245 20225 30106 40115 60001 71322 82942 333 81917 84364 86078
AAXX 08184 48647 11357 72502 10266 20253 30095 40120 60001 71322 81938 333 81708 81917 83364 87275
AAXX 08184 48657 11560 73404 10234 20225 30109 40127 60031 70562 82442 333 82625 85366
AAXX 08184 48665 12568 70203 10245 20223 30118 40128 60001 82542 333 82628 84364 86078
AAXX 08184 96413 11140 81301 10242 20237 30065 40092 60941 76166 8552/ 333 81702 85620 88465
AAXX 08184 96421 11465 71301 10241 20236 30049 40085 60101 72992 8457/ 333 84618 87365
AAXX 08184 96441 11468 70903 10249 20242 30053 40080 60011 70292 83531 333 83616 86365
AAXX 08184 96449 12465 71103 10252 20248 30056 40075 60001 83531 333 83614 85365
AAXX 08184 96465 11465 80904 10267 20235 30041 40074 69921 72162 83877 333 82810 85364 88278
AAXX 08184 96471 11468 71204 10249 20233 30072 40075 69941 72162 82848 333 81814 83364 87277
AAXX 08184 96481 12462 73301 10246 20229 30078 40097 60001 8387/ 333 82817 86364
AAXX 08184 96491 11361 72403 10253 20245 30084 40096 69921 76062 86848 333 82707 83640 87276
AAXX 08184 89532 42/60 70502 11029 21051 39724 49751 50003 875//
AAXX 08184 84658 31362 43303 10300 20254 39865 40101 70124 84100 333 56000 58016 84808
AAXX 08184 84455 31460 61903 10309 20203 39820 40162 70211 8313/ 333 5600/ 58010 83817 86362
AAXX 08184 84377 21358 80302 10242 20228 30022 40128 75156 8652/ 333 5600/ 58034 60041 86610 88457
AAXX 08184 84688 31257 80904 10090 20063 36681 70223 886// 333 563// 58020 83609 88656
AAXX 08184 84515 31460 60404 10304 20235 39946 40122 70222 8313/ 333 5690/ 58028 83820 83360
AAXX 08184 84735 31460 81206 10144 20062 36449 70262 885// 333 569// 58012 83812 85625
AAXX 08184 84501 31660 41710 10237 20182 30086 40113 70100 84600 333 56000 59014 84750
AAXX 08184 84452 31960 31812 10300 20201 30080 40110 70162 84030 333 56090 59020 83365
AAXX 08184 84628 34960 42007 10262 20197 30099 40114 70112 80001 333 56001 59013 84073
AAXX 08184 84720 31960 62103 10328 20209 39491 40157 70122 80001 333 56009 58011 86070
AAXX 08184 84782 31865 52109 10272 20166 39618 40110 70222 8503/ 333 5609/ 58009 85358
AAXX 08184 84472 31660 39902 10185 20119 37413 70222 83700 333 56900 58005 83630
AAXX 08184 84401 31660 72005 10292 20215 30070 40113 70222 8253/ 333 5600/ 59004 82635 85360
AAXX 08184 84564 31560 20604 10220 20159 38166 7012/ 82200 333 56000 58020 82830
AAXX 08184 84691 31957 62809 10265 20212 30112 40119 71044 80001 333 56000 59003 86073
AAXX 08184 84686 21565 82805 10137 20056 36883 70265 885// 333 56900 58016 69921 83630 85650
AAXX 08184 84370 31560 13311 10302 20235 30064 40108 70222 81100 333 56000 59017 81830
AAXX 08184 43533 11462 70505 10260 20238 30134 40137 60021 72598 8427/ 333 59009 82817 84620
AAXX 08184 43555 12470 50707 10279 20238 30132 40135 60001 82231 333 59010 82818 84077
AAXX 08184 43577 12472 20205 10266 20235 30134 40136 60001 81202 333 59014 81818
AAXX 08184 43588 12470 39902 10271 20233 30132 40134 60001 82101 333 59011 82818
AAXX 08184 43599 12465 19901 10275 20230 30132 40134 60001 81100 333 59017 81818
AAXX 08184 43533 11462 70505 10260 20238 30134 40137 60021 72598 8427/ 333 59009 82817 84620
AAXX 08184 43555 12470 50707 10279 20238 30132 40135 60001 82231 333 59010 82818 84077
AAXX 08184 43577 12472 20205 10266 20235 30134 40136 60001 81202 333 59014 81818
AAXX 08184 43588 12470 39902 10271 20233 30132 40134 60001 82101 333 59011 82818
AAXX 08184 43599 12465 19901 10275 20230 30132 40134 60001 81100 333 59017 81818
AAXX 08181 01156 16/// /1003 10003 21024 30124 40134 53015 60002 333 10015 91107
AAXX 08181 01273 16/// /0000 11097 21111 39982 40190 52010 69982 333 11085 91101
AAXX 08181 01059 41688 62811 10005 21043 30077 40086 51019 70387 86340 333 10008 91114
AAXX 08181 01392 11876 10201 11119 21127 39961 40203 51021 60002 70200 81040 333 11051 91103
AAXX 08181 01037 16/// /1202 11078 21088 30124 40130 53016 60012 333 11078 91104
AAXX 08181 01065 11689 12501 11188 21207 39937 40113 53017 60022 70221 81800 333 11162 91102
AAXX 08181 01092 46/// /2404 11025 21046 333 10002 91106
AAXX 08181 01114 16/// /0601 11013 21030 30138 40149 52016 60022 333 11010 91104
AAXX 08181 01245 11683 13202 11081 21112 39463 40204 51012 60002 70120 81500 333 11043 91105
AAXX 08181 01337 16/// /0702 11032 21053 30125 40194 51013 60012 333 10007 91105
AAXX 08181 01374 31989 03501 11122 21131 70200 333 11042
AAXX 08181 01389 11987 03101 11203 21218 39885 40229 51020 60002 70200 333 11072 91103
AAXX 08181 01135 16/// ///// 11109 21118 30016 40178 52018 60012 333 11102 4/170
AAXX 08181 01192 16/// /0000 11041 21076 60002 333 11041 4/016 91102
AAXX 08181 01232 16/// /1703 11067 21108 30119 40203 52010 69932 333 11048 4/017 91108
AAXX 08181 01253 16/// /1901 11079 21090 60002 333 11064 91104
AAXX 08181 01370 16/// /2702 11114 21148 39067 40309 52013 60002 333 11052 4/040 91105
AAXX 08181 01419 16/// /0201 11011 21016 60002 333 10028 91103
AAXX 08181 01455 16/// /0501 11028 21041 39877 40198 51020 60002 333 11009 91102
AAXX 08181 01481 16/// /0301 11042 21059 30161 40194 51023 60002 333 11009 91106
AAXX 08181 01228 46/// /2307 10026 20005 30156 40164 51012 333 10034 91111
AAXX 08181 01340 16/// /1104 11094 21125 39301 40218 51013 60002 333 11016 91106
AAXX 08181 01406 46/// /1405 10025 20012 30149 40167 50009 333 10062 91107
AAXX 08181 01327 11989 40000 11036 21045 69922 70300 80008 333 10005 91103
AAXX 08181 01471 11989 02803 11073 21085 60002 70121 333 11033 91105
AAXX 08181 11010 01465 82506 10037 20017 39815 40200 52014 60012 78062 333 10042 69915 82614 87618
AAXX 08181 11012 11458 82505 10026 20015 39726 40204 51014 60012 76262 887// 333 10036 20015 55300
AAXX 08181 11022 12568 62805 10032 21003 39773 40165 52014 60002 82102 333 10051 20021 55300 86075 91116
AAXX 08181 11035 17/// /2806 10040 20008 39911 40167 53012 60062 7//8/ 333 10053 20035 55300 91114
AAXX 08181 11036 11783 72805 10041 20000 39942 40168 52010 69922 70162 333 10056 82650 86362 91113 91210
AAXX 08181 11101 11468 83201 10035 20027 39727 40266 52011 60052 75952 885// 333 10040 20026 88618
AAXX 08181 11120 01250 82703 10011 20001 39513 40237 52017 60052 77187 333 10010 69995 83605 83608 86613
AAXX 08181 11126 17/// /3408 11092 21093 37709 48489 52012 6///2 7408/ 333 11087 21101 55300 91120
AAXX 08181 11130 17/// /0502 10017 21005 39632 40234 53019 60122 7//4/ 333 10021 20002 55300
AAXX 08181 11146 11/00 90407 11144 21145 36868 47970 52011 60232 77374 333 11133 21151 89/00 92612 91119
AAXX 08181 11150 11270 72804 10031 21006 39674 40224 52021 60052 70286 333 10039 81705 83812 86638 91113 91207
AAXX 08181 11155 11/01 93211 11057 21065 38337 48469 53021 60092 77174 333 11050 21060 55300 89/01 92612
AAXX 08181 11157 11250 82303 10007 21003 39418 40204 53020 60042 77377 888// 333 10025 81705 83612 88622
AAXX 08181 11172 NIL
AAXX 08181 11190 17665 62806 10051 21018 39931 40167 52012 69902 7//4/ 865// 333 10071 20045 55300 91115
AAXX 08181 11204 17/// /2902 10009 21002 39402 40210 53018 69922 780// 333 10040 21001 55300
AAXX 08181 11212 11/30 62902 11084 21091 37785 48471 52008 69942 77174 86700 333 11070 887// 92611
AAXX 08181 11231 32682 79901 10023 21011 39607 40188 52014 333 10077 83645 87466
AAXX 08181 11240 32784 73002 10032 21025 39732 40177 52011 333 10074 81850 83358 85368
AAXX 08181 11244 16/// /0000 10004 21021 39842 40179 53009 60002 333 10078 21038 55300
AAXX 08181 11389 12550 82206 10036 20011 39854 40185 53013 69902 885// 333 10047 20032 55300 91113
BBXX DAPG 08181 99067 30393 41/97 20308 10275 20241 40110 52020 70200 821// 22200 2//01 3//// 4//// 5//// 80250
AAXX 08184 78906 12580 31107 10290 20188 30146 40151 60001 83200 333 10297 20245 58002 70011 83822
AAXX 08181 03973 11276 82104 10081 20079 39987 40244 57007 69992 72065 885// 333 10095 83703 84622 87633
AAXX 08184 78905 12478 30910 10273 20193 30138 40161 60001 7011 83200 333 10295 20246 58002 70004 83819
AAXX 08184 65352 31950 70000 10310 20046 3//// 4//// 70522 80002 333 10355 5//// 87076
AAXX 08184 65361 32960 70000 10281 20068 3//// 4//// 80002 333 10345 5//// 87076
AAXX 08184 65376 31950 70000 10300 20139 39641 40099 70522 80002 333 10333 59001 87076
AAXX 08184 65387 32957 72004 10288 20256 30066 40066 80002 333 10336 58001 87073
AAXX 08181 06431 NIL
AAXX 08181 06432 35/67 /3002 10064 20046 30198 40276 51016 333 10087 85/46 91110 91207
AAXX 08181 06449 11567 22901 10047 20034 30041 40274 52017 69982 70181 82802 333 10067 81832 91108 91204
AAXX 08181 06450 12469 12903 10066 20040 30249 40265 52016 69932 81500 333 10089 81617 91110 91207
AAXX 08181 06458 15666 /9901 10046 20036 30114 40272 51017 69942 333 10077 81/46 91107 91205
AAXX 08181 06465 15967 /2703 10058 20038 30196 40264 51021 60012 333 10085 81/38 85/45 91110 91207
AAXX 08181 06478 11565 63003 10045 20030 30040 40265 52020 60022 78011 868// 333 10067 83820 85645 91108 91205
AAXX 08181 06496 17265 /3006 10028 20017 39565 40254 51016 60012 70086 333 10033 81/05 83/08 85/16 91113 91208
BBXX SHIP 08184 99491 70059 41297 82916 10110 20101 40314 54000 70522 887// 22224 04110 2//// 80105
AAXX 08181 06400 12580 73004 10087 20054 30264 40275 51010 69902 878// 333 10092 81820 86640 91109 91207
AAXX 08181 06428 17464 /9901 10072 20050 30223 40272 51013 69942 78186 333 10093 81/13 83/23 87/47 91110 91206
AAXX 08181 06451 12670 12902 10050 20035 30200 40269 51016 60012 81500 333 10079 81639 91107 91205
AAXX 08181 06456 11567 73003 10050 20033 39900 40275 51018 69942 70286 878// 333 10062 83824 87645 91109 91206
AAXX 08181 06476 17042 83004 10028 20023 39591 40270 51017 60032 71065 333 10033 88/01 91111 91207
AAXX 08181 06479 11466 72704 10066 20044 30180 40261 53018 69902 70282 878// 333 10084 81815 86644 91108 91205
AAXX 08181 06490 17261 83204 10033 20023 39680 40262 52017 60012 70051 333 10040 88/05 91109 91205
AAXX 08181 06590 11770 72703 10037 20030 39802 40265 52018 60022 70382 875// 333 10049 87650 91108 91205
AAXX 08181 06407 12670 73004 10080 20054 30265 40271 51009 69902 875// 333 10086 87638 91109 91207
AAXX 08181 06447 NIL
AAXX 08181 76040 32960 03306 10171 20004 30206 40220 52014 91745 333 10259 20076 30/// 58062 98660
AAXX 08181 76056 06/// /3316 10191 21087 30184 40208 51020 60002 7//// 8//// 91750 333 0//// 10204 20154 30/// 4//// 54/// 56/// 57/// 58058 60007 8//// 8//// 8//// 9//// 9//// 9//// 44
AAXX 08181 76122 32670 32508 10142 20031 38501 40151 57002 83100 91750 333 10152 21002 30/// 56500 59043 83846
AAXX 08181 76123 06/// 32316 10150 21043 3//// 4//// 5//// 60002 7//// 83100 91750 333 0//// 10150 21006 56500 57/// 5//// 60007 83846 8//// 8//// 8//// 9//// 9//// 9//// 444 ///// 555
AAXX 08181 76225 32560 21802 10174 21027 38597 40103 57008 82030 91755 333 10174 20084 30/// 56050 58042 82327
AAXX 08181 76256 32980 00000 10166 20129 30168 40182 52027 91745 333 10180 20086 30/// 59001
AAXX 08181 76258 32/65 /1603 10164 20137 30124 40170 52024 71004 91750 333 10165 20068 30/// 59009
AAXX 08181 76305 32970 10403 10250 20067 30155 40163 52019 80001 91740 333 10250 20111 30/// 56005 59006 81070
AAXX 08181 76323 32870 70201 10140 21046 38252 40213 50000 83037 91745 333 10146 20015 30/// 56055 59031 83357 84268
AAXX 08181 76342 32962 00301 10204 20006 39462 40178 57008 91750 333 10210 20086 30/// 59033
AAXX 08181 76373 32570 23001 10178 21033 38183 40123 57017 82030 91750 333 10180 21016 30/// 56090 59041 82635
AAXX 08181 76382 32480 71401 10146 20045 38886 40147 54000 87500 91748 333 10152 20080 30/// 56500 59034 87614
AAXX 08181 76390 32970 42507 10208 21017 38220 40111 52003 80004 91730 333 10222 20092 30/// 56005 59028 84070 91111 91113
AAXX 08181 76393 31950 60601 10190 20095 39556 40133 57006 70422 85048 91755 333 10202 20122 30/// 56077 59034 85362
AAXX 08181 76402 31556 33602 10186 20142 30120 40178 57017 70544 86400 91745 333 10190 20116 30/// 56700 59009 86728
AAXX 08181 76423 32784 42001 10194 20036 38145 40144 57007 81354 91751 333 10226 20070 30/// 56099 59024 82357 82067
AAXX 08181 76458 32568 31902 10223 20168 30167 40172 51004 83200 91740 333 10246 20136 30/// 566// 59005 83823
AAXX 08181 76471 32980 42103 10180 20005 37688 40133 57001 84030 71750 333 10185 20049 30/// 56050 59017 84356
AAXX 08181 76490 06/// /0502 10242 20113 39747 40128 58008 60002 7//// 8//// 91750 333 0//// 10242 20123 30/// 54/// 56/// 57/// 59032 60007 8//// 8//// 8//// 8//// 9//// 9//// 9//// 44
AAXX 08181 76491 32660 23601 10228 20149 39768 40162 57002 82400 91750 333 10232 20086 30/// 56900 59035 82650
AAXX 08181 76499 31860 41804 10266 20188 30117 40139 57002 70122 84030 91745 333 10267 20140 30/// 56090 59024 84357
AAXX 08181 76525 32780 52112 10103 20013 37467 40147 51002 83054 91745 333 10105 20075 30/// 56/55 59019 83358 91112
AAXX 08181 76538 06/// /2404 10218 20045 38163 40088 58010 60002 7//// 8//// 91750 333 0//// 10218 20029 30/// 4//// 54/// 56/// 57/// 59014 60007 8//// 8//// 8//// 9//// 9//// 9//// 44
AAXX 08181 76539 31562 62702 10210 20088 38168 40200 52002 70544 86530 91745 333 10213 21003 30/// 56250 59007 83623 83358
AAXX 08181 76543 31570 30703 10270 20191 30142 40175 58010 70544 81535 91743 333 10272 20174 30/// 56335 59018 81834
AAXX 08181 76547 06/// /2301 10245 20198 30149 40161 58004 60002 7//// 8//// 91750 333 0//// 10249 20177 56/// 57/// 59012 60007 8//// 8//// 8//// 8//// 9//// 9//// 9//// 444 ///// 555
AAXX 08181 76548 32870 62502 10238 20200 30166 40176 51001 84034 91740 333 10245 20178 30/// 56065 59011 84358
AAXX 08181 76556 32970 10000 10238 20014 39132 40167 50002 80001 91735 333 10238 20109 30/// 56005 59010 81070
AAXX 08181 76571 32770 41902 10194 20074 38179 40201 55001 84500 91748 333 10200 20060 30/// 56500 59010 84656
AAXX 08181 76577 32970 22304 10160 20108 38061 40203 52006 80003 91740 333 10166 20064 30/// 56005 59001
AAXX 08181 76578 06/// /2004 10178 20025 38052 40125 58002 60002 7//// 8//// 91750 333 0//// 10178 20063 30/// 4//// 54/// 56/// 57/// 59005 60007 8//// 8//// 8//// 9//// 9//// 9//// 44
AAXX 08181 76581 32975 40802 10217 20147 39062 40179 57003 84030 91750 333 10224 20088 30/// 56050 59006 84360
AAXX 08181 76586 06/// /0701 10267 20169 30000 40152 58010 60002 7//// 8//// 91750 333 0//// 10272 20133 30/// 4//// 54/// 56/// 57/// 59012 60007 8//// 8//// 8//// 9//// 9//// 9//// 44
AAXX 08181 76592 06/// /0309 10263 20141 30186 40186 58012 60002 7//// 8//// 91750 333 0//// 10294 20172 30/// 4//// 54/// 56/// 57/// 58001 60007 8//// 8//// 8//// 9//// 9//// 9//// 44
AAXX 08181 76593 32370 30507 10260 20227 30186 40188 58013 81106 91750 333 10294 20170 30/// 561/9 58000 81820 820// 91009 91505
AAXX 08181 76625 32950 33203 10201 20034 38147 40159 55002 80001 91740 333 10201 20082 30/// 56007 59012
AAXX 08181 76632 31960 31902 10164 20089 37643 40155 57001 70511 80009 91745 333 10166 20070 30/// 56005 59005 83170 98560
AAXX 08181 76634 31570 21404 10218 20054 37855 40175 57007 70500 88400 91750 333 10222 20062 30/// 561// 59011 88634
AAXX 08181 76641 06/// /2701 10263 20201 30146 40158 58013 60002 7//// 8//// 91750 333 0//// 10264 20165 30/// 4//// 54/// 56/// 57/// 59018 60007 8//// 8//// 8//// 8//// 9//// 9//// 9/
AAXX 08181 76644 32460 51104 10290 20189 30173 40186 56017 821// 91750 333 10296 20190 30/// 563// 58000 82820 83080 91006 91511
AAXX 08181 76645 06/// /1003 10293 20170 30176 40189 58013 60002 7//// 8//// 91750 333 0//// 10294 20187 30/// 4//// 54/// 56/// 57/// 58001 60007 8//// 8//// 8//// 9//// 9//// 9//// 44
AAXX 08181 76648 06/// /0903 10306 20135 30154 40184 58016 60002 7//// 8//// 91750 333 0//// 10310 20154 30/// 4//// 54/// 56/// 57/// 59002 60007 8//// 8//// 8//// 8//// 9//// 9//// 9/
AAXX 08181 76654 31956 02301 10288 20203 30172 40176 50002 70544 91750 333 10290 20198 30/// 58000
AAXX 08181 76658 31958 30902 10273 20152 39656 40167 56007 70541 80002 91748 333 10280 20155 30/// 56001 59002 83070 98924
AAXX 08181 76659 06/// /1702 10293 20106 3//// 4//// 5//// 60002 7//// 8//// 91750 333 0//// 10294 20144 30/// 4//// 54/// 56/// 57/// 5//// 60007 8//// 8//// 8//// 9//// 9//// 9//// 44
AAXX 08181 76662 32970 11201 10194 20076 38480 40194 52005 80002 91730 333 10208 20060 30/// 56003 59004 83070
AAXX 08181 76665 32964 02402 10226 20055 38134 40176 52001 91750 333 10236 20066 30/// 59004
AAXX 08181 76675 31980 10701 10173 20009 37388 40221 56001 70540 80004 91752 333 10181 21013 30/// 56//9 58001
AAXX 08181 76684 02/// ///// 1//// 2//// 3//// 4//// 5//// 6//// 7//// 8//// 9//// 333 0//// 1//// 2//// 30/// 4//// 54/// 56/// 57/// 5//// 6//// 8//// 8//// 8//// 9//// 9//// 9//// 44
AAXX 08181 76685 31560 11801 10184 20032 37885 40189 57002 70544 81100 91750 333 10186 20050 30/// 56900 58003 81827
AAXX 08181 76687 31968 50701 10218 20072 38691 40191 58002 70310 80008 91745 333 10222 20100 30/// 56//6 58004 85073
AAXX 08181 76692 31556 31202 10248 20190 30150 40170 58003 70544 822/4 91745 333 10250 20180 30/// 563/5 59006 81820 81630
AAXX 08181 76695 32560 30603 10296 20208 30159 40164 57012 81140 91450 333 10300 20186 30/// 563/0 59006 81830
AAXX 08181 76698 32560 30903 10290 20216 30178 40189 57013 83200 91750 333 10303 20168 30/// 56200 58000 83820
AAXX 08181 76727 06/// /1501 10242 20045 38417 40099 50001 60002 7//// 8//// 91750 333 0//// 10248 20115 30/// 4//// 54/// 56/// 57/// 58002 60007 8//// 8//// 8//// 9//// 9//// 9//// 44
AAXX 08181 76737 31980 51402 10230 20129 38783 40174 58001 70300 80005 91735 333 10235 20098 30/// 56009 59005 85280 91105 91514 99021
AAXX 08181 76738 02/// ///// 1//// 2//// 3//// 4//// 5//// 6//// 7//// 8//// 333 1//// 2//// 30/// 56/// 57/// 5//// 6//// 8//// 8//// 8//// 8//// 9//// 9//// 9//// 444 ///// 555 3////
AAXX 08181 76750 32560 10903 10295 20209 30173 40183 57010 81100 91750 333 10318 20190 30/// 56100 58000 81820
AAXX 08181 76751 02/// ///// 1//// 2//// 3//// 4//// 5//// 6//// 7//// 8//// 9//// 333 0//// 1//// 2//// 30/// 4//// 54/// 56/// 57/// 5//// 6//// 8//// 8//// 8//// 9//// 9//// 9//// 44
AAXX 08181 76762 32904 01801 10266 20212 38777 40169 56005 91735 333 10268 20105 30/// 58///
AAXX 08181 76772 06/// /0101 10243 20071 38447 40122 58005 60002 7//// 8//// 91750 333 0//// 10243 20058 30/// 4//// 56/// 57/// 58003 60007 8//// 8//// 8//// 9//// 9//// 9//// 444 ////
AAXX 08181 76773 31568 42701 10232 20067 38442 40172 57003 70500 81103 91746 333 10236 20065 30/// 56209 58000 81820 83067
AAXX 08181 76775 31970 31801 10258 20046 38540 40190 57008 70311 80006 91730 333 10260 20092 30/// 56002 58000
AAXX 08181 76776 06/// /1602 10251 20039 38521 40107 58014 60002 7//// 8//// 91750 333 0//// 10256 20093 30/// 4//// 56/// 57/// 58000 60007 8//// 8//// 8//// 9//// 9//// 9//// 444 ////
AAXX 08181 76805 32570 32403 10297 20216 30142 40146 58010 82105 91750 333 10316 20212 30/// 566/6 59002 82824 81059
AAXX 08181 76806 06/// /2503 10298 20208 30147 40151 58008 60002 7//// 8//// 91750 333 10309 20211 30/// 56/// 57/// 59005 60007 8//// 8//// 8//// 8//// 9//// 9//// 9//// 555 30271
AAXX 08181 76833 31970 00303 10315 20199 30136 40138 57010 70500 91745 333 10315 20212 30/// 59008 92031
AAXX 08181 76840 32050 00000 10326 20212 30083 40139 57009 80000 91740 333 10335 20212 30/// 56000 59004
AAXX 08181 76843 32965 00201 10252 20179 39510 40157 58010 91730 333 10261 20164 30/// 59004
AAXX 08181 76845 32960 01801 10210 20132 37962 40233 56013 91745 333 10220 20032 30/// 58000
AAXX 08181 76848 32970 00000 10241 20107 38394 40121 56012 91750 333 10241 20102 30/// 59001
AAXX 08181 76902 06/// /0702 10323 20208 30004 40139 58017 60002 7//// 8//// 91750 333 0//// 10328 20209 30/// 4//// 54/// 56/// 57/// 59008 60007 8//// 8//// 8//// 8//// 9//// 9//// 9/
AAXX 08181 76903 31981 00901 10314 20208 30007 40137 57015 70400 91740 333 10345 20214 30/// 58///
AAXX 08181 76160 32962 00000 10148 20071 39919 40173 52015 91730 333 10148 20055 30/// 59002
AAXX 08181 76243 32473 20601 10180 20110 39861 40158 52003 82400 91735 333 10192 20082 30/// 56800 59028 82616
AAXX 08181 76311 32980 40000 10214 20107 39887 40170 51010 80004 91740 333 10214 20092 30/// 56005 59015 84070
AAXX 08181 76405 32980 41803 10239 20167 30150 40172 57001 80001 92350 333 10239 20120 30/// 56005 59011 84072
AAXX 08181 76412 31966 82201 10160 20150 30151 40197 57024 70544 88050 91750 333 10160 20120 30/// 56050 58011 88356
AAXX 08181 76640 31458 31402 10236 20203 30167 40179 57010 70111 832// 91740 333 10252 20182 31/// 563// 59016 83814
AAXX 08181 76647 32670 40902 10298 20161 30168 40198 57012 82106 91750 333 10303 20156 30/// 5620/ 59002 82856
AAXX 08181 76681 31460 13601 10190 20109 37786 40168 57014 70500 81500 91745 333 10190 20022 30/// 59009 81417
AAXX 08181 76741 31465 43203 10255 20208 30124 40142 52000 70544 82236 91735 333 10273 20140 30/// 561// 59015 82819
AAXX 08181 76855 32580 31301 10304 20230 30080 40129 52009 81238 91740 333 10320 20204 30/// 56999 59006 81820 92000
AAXX 08181 33135 11597 83403 10008 21009 39923 40103 52001 69932 72682 883// 333 10024 88920
AAXX 08181 33317 32997 80000 11025 21054 39784 40131 52007 8807/ 333 11001
AAXX 08181 33345 11998 73603 10009 21020 39899 40107 52003 69902 70282 87030 333 10023
AAXX 08181 33393 11217 80000 11008 21018 39731 40131 52010 60012 78688 889// 333 11002 86704
AAXX 08181 33506 11495 81103 10038 20036 39884 40080 52002 60062 76162 8772/ 333 10042
AAXX 08181 33587 32564 83501 10004 21019 39838 40105 52005 885// 333 10010 88626
AAXX 08181 33631 11/93 90000 11005 21008 30000 40148 52008 60032 74774 333 10002
AAXX 08181 33663 32597 83201 10009 21020 30021 40119 52010 8232/ 333 10026
AAXX 08181 33658 32997 00000 11031 21058 39825 40134 52010 333 10023
AAXX 08181 33711 11297 83604 10013 20008 39873 40084 52007 60022 70282 886// 333 10030 88706
AAXX 08181 33791 NIL
AAXX 08181 33837 11457 83502 10035 20022 30030 40082 52009 69942 71022 886// 333 10054 88716
AAXX 08181 33924 NIL
AAXX 08181 33946 11744 81002 10072 20068 39841 40059 58002 69942 71082 8155/ 333 10125
AAXX 08181 34300 11346 81205 10031 20026 39909 40100 51004 60072 76166 8772/ 333 10035 87707
AAXX 08181 34504 11697 81404 10040 20035 39899 40078 52003 60052 78086 889// 333 10047 86940
AAXX 08181 34519 11460 81205 10022 20006 39830 40107 52003 69932 76162 8572/ 333 10030 85713
AAXX 08181 34601 11447 71504 10042 20036 39948 40084 52006 60042 78082 87900 333 10052 84610
AAXX 08183 91802 NIL
AAXX 08183 91809 NIL
AAXX 08183 91831 36/// /1007 10257 20218 40101 52003
AAXX 08183 91841 NIL
AAXX 08183 91843 11599 41109 10260 20214 40104 52016 69971 70185 84200 333 563// 84821
AAXX 08183 91848 36/// /1312 10250 20211 40074 52002 555 20010
AAXX 08181 33088 32997 20000 11045 21054 39935 40133 52008 81041 333 10014
AAXX 08181 33177 11597 81901 10003 21017 39883 40125 52008 69942 78582 889// 333 10020
AAXX 08181 33261 11396 80201 10011 20006 39909 40094 52002 60012 76186 8772/ 333 10015 87707
AAXX 08181 33275 11297 81102 10031 20026 39866 40090 52005 60062 76165 8772/ 333 10032 87704
AAXX 08181 33301 32997 71302 11045 21061 39840 40132 51005 84031 333 10011
AAXX 08181 33325 32997 83501 11015 21049 39851 40125 52006 8801/ 333 10001
AAXX 08181 33377 11294 80102 10018 20015 39891 40086 52003 60022 75165 886// 333 10023 88705
AAXX 08181 33415 32997 59901 11043 21070 39720 40133 52005 80001 333 10008
AAXX 08181 33429 32997 73501 11021 21049 39694 40128 52006 87030 333 11010
AAXX 08181 33466 11357 83602 10010 20002 39911 40101 52002 60022 77172 8872/ 333 10015 86709
AAXX 08181 33526 11460 80000 10003 21037 39780 40126 52008 69902 77072 886// 333 10021 88716
AAXX 08181 33562 12997 60000 11019 21047 39750 40120 51003 69902 86030 333 10005
AAXX 08181 33614 11310 82903 10027 20024 39975 40080 52010 60042 76162 8872/ 333 10045 88708
AAXX 08181 33761 11496 83505 10012 20001 39870 40096 52005 69902 71022 886// 333 10022 88710
AAXX 08181 33902 11496 83403 10055 20048 39997 40063 52007 60032 75165 886// 333 10075
AAXX 08181 33983 11997 70000 10085 20061 30014 40074 58003 69902 70282 8703/ 333 10113
AAXX 08181 34415 11697 71404 10030 20022 30011 40108 52005 60022 70286 87500 333 10043
AAXX 08181 34523 11596 81203 10031 20010 30055 40132 52002 69902 76162 885// 333 10035
AAXX 08181 34712 11497 80906 10034 20029 30021 40107 52004 69972 76162 8772/ 333 10034
AAXX 08181 76040 32960 03306 10171 20004 30206 40220 52014 91745 33310259 20076 30/// 58062 98660
AAXX 08181 76056 06/// /3316 10191 21087 30184 40208 51020 60002 7////8//// 91750 333 0//// 10204 20154 30/// 4//// 54/// 56///57/// 58058 60007 8//// 8//// 8//// 9//// 9//// 9//// 44
AAXX 08181 76122 32670 32508 10142 20031 38501 40151 57002 83100 91750333 10152 21002 30/// 56500 59043 83846
AAXX 08181 76123 06/// 32316 10150 21043 3//// 4//// 5//// 60002 7////83100 91750 333 0//// 10150 21006 56500 57/// 5//// 6000783846 8//// 8//// 8//// 9//// 9//// 9//// 444 ///// 555
AAXX 08181 76225 32560 21802 10174 21027 38597 40103 57008 82030 91755333 10174 20084 30/// 56050 58042 82327
AAXX 08181 76256 32980 00000 10166 20129 30168 40182 52027 91745 33310180 20086 30/// 59001
AAXX 08181 76258 32/65 /1603 10164 20137 30124 40170 52024 71004 91750333 10165 20068 30/// 59009
AAXX 08181 76305 32970 10403 10250 20067 30155 40163 52019 80001 91740333 10250 20111 30/// 56005 59006 81070
AAXX 08181 76323 32870 70201 10140 21046 38252 40213 50000 83037 91745333 10146 20015 30/// 56055 59031 83357 84268
AAXX 08181 76342 32962 00301 10204 20006 39462 40178 57008 91750 33310210 20086 30/// 59033
AAXX 08181 76373 32570 23001 10178 21033 38183 40123 57017 82030 91750333 10180 21016 30/// 56090 59041 82635
AAXX 08181 76382 32480 71401 10146 20045 38886 40147 54000 87500 91748333 10152 20080 30/// 56500 59034 87614
AAXX 08181 76390 32970 42507 10208 21017 38220 40111 52003 80004 91730333 10222 20092 30/// 56005 59028 84070 91111 91113
AAXX 08181 76393 31950 60601 10190 20095 39556 40133 57006 70422 8504891755 333 10202 20122 30/// 56077 59034 85362
AAXX 08181 76402 31556 33602 10186 20142 30120 40178 57017 70544 8640091745 333 10190 20116 30/// 56700 59009 86728
AAXX 08181 76423 32784 42001 10194 20036 38145 40144 57007 81354 91751333 10226 20070 30/// 56099 59024 82357 82067
AAXX 08181 76458 32568 31902 10223 20168 30167 40172 51004 83200 91740333 10246 20136 30/// 566// 59005 83823
AAXX 08181 76471 32980 42103 10180 20005 37688 40133 57001 84030 71750333 10185 20049 30/// 56050 59017 84356
AAXX 08181 76490 06/// /0502 10242 20113 39747 40128 58008 60002 7////8//// 91750 333 0//// 10242 20123 30/// 54/// 56/// 57///59032 60007 8//// 8//// 8//// 8//// 9//// 9//// 9//// 44
AAXX 08181 76491 32660 23601 10228 20149 39768 40162 57002 82400 91750333 10232 20086 30/// 56900 59035 82650
AAXX 08181 76499 31860 41804 10266 20188 30117 40139 57002 70122 8403091745 333 10267 20140 30/// 56090 59024 84357
AAXX 08181 76525 32780 52112 10103 20013 37467 40147 51002 83054 91745333 10105 20075 30/// 56/55 59019 83358 91112
AAXX 08181 76538 06/// /2404 10218 20045 38163 40088 58010 60002 7////8//// 91750 333 0//// 10218 20029 30/// 4//// 54/// 56///57/// 59014 60007 8//// 8//// 8//// 9//// 9//// 9//// 44
AAXX 08181 76539 31562 62702 10210 20088 38168 40200 52002 70544 8653091745 333 10213 21003 30/// 56250 59007 83623 83358
AAXX 08181 76543 31570 30703 10270 20191 30142 40175 58010 70544 8153591743 333 10272 20174 30/// 56335 59018 81834
AAXX 08181 76547 06/// /2301 10245 20198 30149 40161 58004 60002 7////8//// 91750 333 0//// 10249 20177 56/// 57/// 59012 600078//// 8//// 8//// 8//// 9//// 9//// 9//// 444 ///// 555
AAXX 08181 76548 32870 62502 10238 20200 30166 40176 51001 84034 91740333 10245 20178 30/// 56065 59011 84358
AAXX 08181 76556 32970 10000 10238 20014 39132 40167 50002 80001 91735333 10238 20109 30/// 56005 59010 81070
AAXX 08181 76571 32770 41902 10194 20074 38179 40201 55001 84500 91748333 10200 20060 30/// 56500 59010 84656
AAXX 08181 76577 32970 22304 10160 20108 38061 40203 52006 80003 91740333 10166 20064 30/// 56005 59001
AAXX 08181 76578 06/// /2004 10178 20025 38052 40125 58002 60002 7////8//// 91750 333 0//// 10178 20063 30/// 4//// 54/// 56///57/// 59005 60007 8//// 8//// 8//// 9//// 9//// 9//// 44
AAXX 08181 76581 32975 40802 10217 20147 39062 40179 57003 84030 91750333 10224 20088 30/// 56050 59006 84360
AAXX 08181 76586 06/// /0701 10267 20169 30000 40152 58010 60002 7////8//// 91750 333 0//// 10272 20133 30/// 4//// 54/// 56///57/// 59012 60007 8//// 8//// 8//// 9//// 9//// 9//// 44
AAXX 08181 76592 06/// /0309 10263 20141 30186 40186 58012 60002 7////8//// 91750 333 0//// 10294 20172 30/// 4//// 54/// 56///57/// 58001 60007 8//// 8//// 8//// 9//// 9//// 9//// 44
AAXX 08181 76593 32370 30507 10260 20227 30186 40188 58013 81106 91750333 10294 20170 30/// 561/9 58000 81820 820// 91009 91505
AAXX 08181 76625 32950 33203 10201 20034 38147 40159 55002 80001 91740333 10201 20082 30/// 56007 59012
AAXX 08181 76632 31960 31902 10164 20089 37643 40155 57001 70511 8000991745 333 10166 20070 30/// 56005 59005 83170 98560
AAXX 08181 76634 31570 21404 10218 20054 37855 40175 57007 70500 8840091750 333 10222 20062 30/// 561// 59011 88634
AAXX 08181 76641 06/// /2701 10263 20201 30146 40158 58013 60002 7////8//// 91750 333 0//// 10264 20165 30/// 4//// 54/// 56///57/// 59018 60007 8//// 8//// 8//// 8//// 9//// 9//// 9/
AAXX 08181 76644 32460 51104 10290 20189 30173 40186 56017 821// 91750333 10296 20190 30/// 563// 58000 82820 83080 91006 91511
AAXX 08181 76645 06/// /1003 10293 20170 30176 40189 58013 60002 7////8//// 91750 333 0//// 10294 20187 30/// 4//// 54/// 56///57/// 58001 60007 8//// 8//// 8//// 9//// 9//// 9//// 44
AAXX 08181 76648 06/// /0903 10306 20135 30154 40184 58016 60002 7////8//// 91750 333 0//// 10310 20154 30/// 4//// 54/// 56///57/// 59002 60007 8//// 8//// 8//// 8//// 9//// 9//// 9/
AAXX 08181 76654 31956 02301 10288 20203 30172 40176 50002 70544 91750333 10290 20198 30/// 58000
AAXX 08181 76658 31958 30902 10273 20152 39656 40167 56007 70541 8000291748 333 10280 20155 30/// 56001 59002 83070 98924
AAXX 08181 76659 06/// /1702 10293 20106 3//// 4//// 5//// 60002 7////8//// 91750 333 0//// 10294 20144 30/// 4//// 54/// 56///57/// 5//// 60007 8//// 8//// 8//// 9//// 9//// 9//// 44
AAXX 08181 76662 32970 11201 10194 20076 38480 40194 52005 80002 91730333 10208 20060 30/// 56003 59004 83070
AAXX 08181 76665 32964 02402 10226 20055 38134 40176 52001 91750 33310236 20066 30/// 59004
AAXX 08181 76675 31980 10701 10173 20009 37388 40221 56001 70540 8000491752 333 10181 21013 30/// 56//9 58001
AAXX 08181 76684 02/// ///// 1//// 2//// 3//// 4//// 5//// 6//// 7////8//// 9//// 333 0//// 1//// 2//// 30/// 4//// 54/// 56///57/// 5//// 6//// 8//// 8//// 8//// 9//// 9//// 9//// 44
AAXX 08181 76685 31560 11801 10184 20032 37885 40189 57002 70544 8110091750 333 10186 20050 30/// 56900 58003 81827
AAXX 08181 76687 31968 50701 10218 20072 38691 40191 58002 70310 8000891745 333 10222 20100 30/// 56//6 58004 85073
AAXX 08181 76692 31556 31202 10248 20190 30150 40170 58003 70544 822/491745 333 10250 20180 30/// 563/5 59006 81820 81630
AAXX 08181 76695 32560 30603 10296 20208 30159 40164 57012 81140 91450333 10300 20186 30/// 563/0 59006 81830
AAXX 08181 76698 32560 30903 10290 20216 30178 40189 57013 83200 91750333 10303 20168 30/// 56200 58000 83820
AAXX 08181 76727 06/// /1501 10242 20045 38417 40099 50001 60002 7////8//// 91750 333 0//// 10248 20115 30/// 4//// 54/// 56///57/// 58002 60007 8//// 8//// 8//// 9//// 9//// 9//// 44
AAXX 08181 76737 31980 51402 10230 20129 38783 40174 58001 70300 8000591735 333 10235 20098 30/// 56009 59005 85280 91105 9151499021
AAXX 08181 76738 02/// ///// 1//// 2//// 3//// 4//// 5//// 6//// 7////8//// 333 1//// 2//// 30/// 56/// 57/// 5//// 6//// 8////8//// 8//// 8//// 9//// 9//// 9//// 444 ///// 555 3////
AAXX 08181 76750 32560 10903 10295 20209 30173 40183 57010 81100 91750333 10318 20190 30/// 56100 58000 81820
AAXX 08181 76751 02/// ///// 1//// 2//// 3//// 4//// 5//// 6//// 7////8//// 9//// 333 0//// 1//// 2//// 30/// 4//// 54/// 56///57/// 5//// 6//// 8//// 8//// 8//// 9//// 9//// 9//// 44
AAXX 08181 76762 32904 01801 10266 20212 38777 40169 56005 91735 33310268 20105 30/// 58///
AAXX 08181 76772 06/// /0101 10243 20071 38447 40122 58005 60002 7////8//// 91750 333 0//// 10243 20058 30/// 4//// 56/// 57///58003 60007 8//// 8//// 8//// 9//// 9//// 9//// 444 ////
AAXX 08181 76773 31568 42701 10232 20067 38442 40172 57003 70500 8110391746 333 10236 20065 30/// 56209 58000 81820 83067
AAXX 08181 76775 31970 31801 10258 20046 38540 40190 57008 70311 8000691730 333 10260 20092 30/// 56002 58000
AAXX 08181 76776 06/// /1602 10251 20039 38521 40107 58014 60002 7////8//// 91750 333 0//// 10256 20093 30/// 4//// 56/// 57///58000 60007 8//// 8//// 8//// 9//// 9//// 9//// 444 ////
AAXX 08181 76805 32570 32403 10297 20216 30142 40146 58010 82105 91750333 10316 20212 30/// 566/6 59002 82824 81059
AAXX 08181 76806 06/// /2503 10298 20208 30147 40151 58008 60002 7////8//// 91750 333 10309 20211 30/// 56/// 57/// 59005 600078//// 8//// 8//// 8//// 9//// 9//// 9//// 555 30271
AAXX 08181 76833 31970 00303 10315 20199 30136 40138 57010 70500 91745333 10315 20212 30/// 59008 92031
AAXX 08181 76840 32050 00000 10326 20212 30083 40139 57009 80000 91740333 10335 20212 30/// 56000 59004
AAXX 08181 76843 32965 00201 10252 20179 39510 40157 58010 91730 33310261 20164 30/// 59004
AAXX 08181 76845 32960 01801 10210 20132 37962 40233 56013 91745 33310220 20032 30/// 58000
AAXX 08181 76848 32970 00000 10241 20107 38394 40121 56012 91750 33310241 20102 30/// 59001
AAXX 08181 76902 06/// /0702 10323 20208 30004 40139 58017 60002 7////8//// 91750 333 0//// 10328 20209 30/// 4//// 54/// 56///57/// 59008 60007 8//// 8//// 8//// 8//// 9//// 9//// 9/
AAXX 08181 76903 31981 00901 10314 20208 30007 40137 57015 70400 91740333 10345 20214 30/// 58///
AAXX 08181 76160 32962 00000 10148 20071 39919 40173 52015 91730 33310148 20055 30/// 59002
AAXX 08181 76243 32473 20601 10180 20110 39861 40158 52003 82400 91735333 10192 20082 30/// 56800 59028 82616
AAXX 08181 76311 32980 40000 10214 20107 39887 40170 51010 80004 91740333 10214 20092 30/// 56005 59015 84070
AAXX 08181 76405 32980 41803 10239 20167 30150 40172 57001 80001 92350333 10239 20120 30/// 56005 59011 84072
AAXX 08181 76412 31966 82201 10160 20150 30151 40197 57024 70544 8805091750 333 10160 20120 30/// 56050 58011 88356
AAXX 08181 76640 31458 31402 10236 20203 30167 40179 57010 70111 832//91740 333 10252 20182 31/// 563// 59016 83814
AAXX 08181 76647 32670 40902 10298 20161 30168 40198 57012 82106 91750333 10303 20156 30/// 5620/ 59002 82856
AAXX 08181 76681 31460 13601 10190 20109 37786 40168 57014 70500 8150091745 333 10190 20022 30/// 59009 81417
AAXX 08181 76741 31465 43203 10255 20208 30124 40142 52000 70544 8223691735 333 10273 20140 30/// 561// 59015 82819
AAXX 08181 76855 32580 31301 10304 20230 30080 40129 52009 81238 91740333 10320 20204 30/// 56999 59006 81820 92000
AAXX 08181 01007 11570 71203 11066 21111 30126 40136 57003 60002 77871 8701/ 333 11061 91105
AAXX 08181 01062 11589 53403 11074 21098 30136 40149 52008 69912 70281 85800 333 11045 91108
AAXX 08181 01205 46/// /1306 10026 21031 30111 40157 58007 333 10044 91108
AAXX 08184 68398 36/// /3611 10231 20199 39376 48529 52010 333 10321 20231 91018 555 91015
AAXX 08184 68299 36/// /0708 10166 20128 38945 48534 52007 333 10221 20166 91012 555 91020
AAXX 08181 89061 179// 02804 10016 20002 39909 49916 52005 69953 72477 333 91005 91106
AAXX 08184 91930 36/// ///// 10245 20182
AAXX 08184 91943 36/// /0311 10285 20215 30138 40140 51019 333 10288 58014
AAXX 08184 03008 16/// /1821 10072 20071 30037 40107 58026 60102 91750 333 10072 90710 91129
AAXX 08184 03010 46/// /2422 10091 20090 40103 57009 333 90710 91130
AAXX 08184 03014 46/// /1924 10022 20013 40097 50/// 91750 333 8//// 90710 91133
AAXX 08184 03031 17450 /2513 10082 20066 39827 40153 56003 69962 751// 91750 333 10096 553// 20000 86/16 86/47 90710 91126
AAXX 08184 03034 17356 /2322 10096 20082 30134 40148 58004 60022 723// 91750 333 10105 88/09 90710 91130
AAXX 08184 03037 17530 /2317 10091 20085 30142 40164 57008 60012 710// 91750 333 10105 87/24 90710 91133
AAXX 08184 03039 46/// /2225 10047 20015 91750 333 10058 90710 91135
AAXX 08184 03041 46/// /2125 10023 20023 91750 333 10039 90710 91147 91043
AAXX 08184 03044 17648 /2509 10093 20080 30031 40130 57008 60032 762// 91750 333 10104 553// 20000 86/39 85/50
AAXX 08184 03047 17559 /2114 10084 20064 39888 40191 50001 60012 781// 91750 333 10104 553// 20000 88/25
AAXX 08184 03062 17584 /2106 10096 20070 30136 40141 56007 69942 723// 91750 333 10102 553// 20000 85/21 87/44
AAXX 08184 03065 46/// /2447 10027 20027 91750 333 10029 90710 91170 91067
AAXX 08184 03068 11680 72515 10100 20074 30134 40143 58009 60012 70262 875// 91750 333 10102 82630 87650
AAXX 08184 03080 15882 /2712 10103 20059 39982 40152 57015 69902 91750 333 10105 81/57 88/71
AAXX 08184 03088 17066 /2113 10062 20062 30004 40169 56010 69942 710// 91750 333 10067 553// 20000 81/01 84/69 85/74
AAXX 08184 03094 17663 /2112 10089 20064 30141 40145 56008 60022 757// 91750 333 10090 82/42 85/56 85/61
AAXX 08184 03105 15462 /2417 10097 20081 30194 40211 58008 60012 91750 333 10100 81/14 87/18 85/25 90710 91127
AAXX 08184 03132 17470 /2609 10095 20085 30216 40230 58003 69922 781// 91750 333 10106 81/16 87/23
AAXX 08184 03144 15683 /2216 10095 20072 30150 40193 50004 69902 91750 333 10104 553// 20000 82/35 87/74
AAXX 08184 03148 46/// /2626 10060 20060 91750 333 10068 90710 91137 91036
AAXX 08184 03153 15565 /2515 10089 20080 30085 40223 58004 69922 91750 333 10092 553// 20000 87/22
AAXX 08184 03155 16380 /2515 10078 20060 39913 40212 58002 60002 91750 333 10089 87/09
AAXX 08184 03158 15581 /2411 10091 20072 30061 40199 58004 69902 91750 333 10097 553// 20000 82/20 83/69
AAXX 08184 03210 16466 /2209 10082 20075 30088 40241 50000 69962 91750 333 10089 87/19
AAXX 08184 03212 15471 /2804 10101 20075 30137 40236 58001 69922 91750 333 10106 87/16 83/32
AAXX 08184 03214 15565 /2410 10087 20078 30227 40245 51003 69942 91750 333 10091 87/20 87/56
AAXX 08184 03220 16574 ///// 10100 20086 30192 40227 50001 60002 91750 333 10101 87/28
AAXX 08184 03224 17/05 /2515 10076 20076 39875 40223 50002 69922 751// 91750 333 10077
AAXX 08184 03225 16476 /1806 10089 20060 39931 40238 51003 60002 91750 333 10098 553// 20000 87/18 86/56
AAXX 08184 03226 15473 /3004 10078 20074 39956 40235 51002 60032 91750 333 10081 87/16
AAXX 08184 03227 46/// /2729 10041 2//// 91750 333 10045 90710 91136
AAXX 08184 03230 16475 /2508 10085 20074 39959 40217 50000 60002 91750 333 10085 87/12 86/25
AAXX 08184 03238 17467 /2613 10091 20078 30040 40214 50000 69902 722// 91750 333 10092 81/11 87/20
AAXX 08184 03261 16475 /2710 10104 20076 30195 40236 50001 60002 91750 333 10104 81/15 87/57
AAXX 08184 03265 15482 /2506 10103 20077 30206 40237 51002 69902 91750 333 10105 81/18 87/57
AAXX 08184 03266 16482 /2706 10099 20076 30219 40236 58001 60002 91750 333 10099 81/15 87/57
AAXX 08184 03275 15875 /2613 10087 20065 30032 40226 53002 69902 91750 333 10089 88/57
AAXX 08184 03281 16/// /2308 10065 20065 60002 91750 333 10078
AAXX 08184 03903 16463 /2308 10098 20089 30175 40233 56008 69942 91750 333 10107 553// 20000 87/11
AAXX 08184 03904 15464 /2210 10095 20079 30164 40224 56010 69922 91750 333 10106 87/13
AAXX 08184 03907 17560 /2218 10093 20076 30205 40212 58013 69942 704// 91750 333 10101 55300 20000 83/21 86/32
AAXX 08184 03911 16281 /2307 10081 20073 39951 40227 58008 60022 91750 333 10092 83/04 86/33
AAXX 08184 03915 16580 /2307 10089 20089 30141 40220 58004 69982 91750 333 10108 82/20 84/74
AAXX 08184 03916 16482 /2805 10088 20073 30027 40218 58005 69962 91750 333 10097 553// 20000 87/16
AAXX 08184 03923 17478 /2409 10087 20070 30035 40232 58007 69942 723// 91750 333 10101 83/12 85/40
AAXX 08184 70026 NIL
AAXX 08184 70133 NIL
AAXX 08184 70174 NIL
AAXX 08184 70200 NIL
AAXX 08184 70219 NIL
AAXX 08184 70231 NIL
AAXX 08184 70261 NIL
AAXX 08184 70267 NIL
AAXX 08184 70271 NIL
AAXX 08184 70273 NIL
AAXX 08184 70308 NIL
AAXX 08184 70316 NIL
AAXX 08184 70326 NIL
AAXX 08184 70340 NIL
AAXX 08184 70350 NIL
AAXX 08184 70361 NIL
AAXX 08184 70381 NIL
AAXX 08184 70398 NIL
AAXX 08184 70414 NIL
AAXX 08184 03301 16672 /2411 10094 20094 30194 40268 52002 60012 91750 333 10103 87/41
AAXX 08184 03313 16683 /2510 10108 20070 30168 40263 51001 69942 91750 333 10112 85/47
AAXX 08184 03316 15980 /2607 10087 20075 30247 40258 50001 69982 91750 333 10096 8//99
AAXX 08184 03318 16/// /2309 10083 20076 69922 91750 333 10089
AAXX 08184 03321 16872 /2303 10082 20070 30252 40264 53006 60012 91750 333 10116 553// 20000 81/57 88/73
AAXX 08184 03330 17048 /3108 10078 20078 39900 40265 52007 60012 710// 91750 333 10080 86/01 84/09 87/50
AAXX 08184 03344 17157 /2510 10080 20078 39928 40249 51006 69902 710// 91750 333 10081 88/02
AAXX 08184 03346 16/// /2718 10083 20078 60002 91750 333 10083
AAXX 08184 03348 15468 /2606 10092 20086 30155 40263 53009 60022 91750 333 10095 55300 20000 81/11 87/50
AAXX 08184 03355 17474 /2707 10101 20087 30230 40241 50000 69922 723// 91750 333 10102 55300 20000 83/13 88/57
AAXX 08184 03373 16457 /2410 10070 20061 30175 40246 56002 69922 91750 333 10092 81/16 85/57
AAXX 08184 03379 16973 /2508 10083 20071 30174 40252 56002 69902 91750 333 10093 88/58
AAXX 08184 03382 17777 /2510 10090 20082 30225 40233 56004 69942 723// 91750 333 10091 55300 20000 82/50 88/58
AAXX 08184 03385 46463 /2311 10078 20072 30231 40241 58002 91750 333 10095 84/14 85/56 87/70
AAXX 08184 03391 11481 72407 10076 20065 30243 40251 50001 69902 70262 8353/ 91750 333 10100 83618 87358
AAXX 08184 03392 16458 /2107 10070 20068 30246 40249 58001 60002 91750 333 10093 86/19 85/50
AAXX 08184 03405 16473 /2614 10092 20092 30165 40282 53003 60002 91750 333 10099 553// 20000 81/13
AAXX 08184 03409 16/// /2307 10085 20077 69942 91750 333 10101 55300 2////
AAXX 08184 03410 16480 /2611 10078 20066 39833 40272 53003 60002 91750 333 10093 553// 20000 81/17
AAXX 08184 03469 15566 /2308 10077 20073 30252 40256 52002 69902 91750 333 10098 553// 20000 86/23 86/50
AAXX 08184 03488 15474 /2410 10081 20060 30224 40250 50002 60002 91750 333 10085 81/19 87/22
AAXX 08184 03503 15480 /2205 10101 20089 30203 40281 51003 60032 91750 333 10106 81/19 87/50
AAXX 08184 03507 15264 /2405 10088 20088 39913 40289 51006 69942 91750 333 10089 84/03 86/13 86/50
AAXX 08184 03520 16775 /2909 10106 20077 30156 40278 53007 60002 91750 333 10122 553// 20000 88/56
AAXX 08184 03522 15783 /2707 10108 20089 30189 40283 53007 60002 91750 333 10118 88/56
AAXX 08184 03529 15781 /2405 10098 20077 30238 40281 53008 60002 91750 333 10113 88/56
AAXX 08184 03544 15882 /2510 10087 20072 30135 40267 53004 60002 91750 333 10094 553// 20000 87/57
AAXX 08184 03560 15482 /2406 10083 20067 30164 40269 53004 69922 91750 333 10090 553// 20000 88/18
AAXX 08184 03604 16275 /2706 10102 20095 30238 40292 52005 69922 91750 333 10118 81/05 86/56 87/68
AAXX 08184 03605 16356 /2510 10100 20094 30284 40292 51008 60002 91750 333 10113 81/07 88/56
AAXX 08184 03609 16/// /2511 10097 20096 30246 40299 52007 60002 91750 333 10099
AAXX 08184 03628 15260 /2510 10095 20089 30214 40287 53007 69902 91750 333 10104 55300 20000 82/05 88/57
AAXX 08184 03647 16780 /2808 10088 20065 30019 40277 53008 60002 91750 333 10096 553// 20000 88/50
AAXX 08184 03658 16777 /2305 10091 20065 30209 40280 53005 60002 91750 333 10099 88/50
AAXX 08184 03660 15781 /2604 10082 20063 30027 40278 51006 69922 91750 333 10086 87/56
AAXX 08184 03672 11581 72505 10090 20060 30235 40276 50003 69902 72162 8157/ 91750 333 10098 81622 87357
AAXX 08184 03684 15478 /2306 10075 20048 30161 40269 52004 60002 91750 333 10084 88/17
AAXX 08184 03693 16580 /2606 10088 20050 30271 40274 51006 60002 91750 333 10091 88/25
AAXX 08184 03710 16/01 /2804 10083 20083 39876 40301 52008 69922 91750 333 10090 553// 20000
AAXX 08184 03743 16763 /2406 10088 20083 30127 40290 52008 60002 91750 333 10099 88/50
AAXX 08184 03749 16760 /2607 10091 20082 30177 40289 52007 60002 91750 333 10103 87/50
AAXX 08184 03761 12670 72409 10086 20063 30137 40283 51006 60002 875// 91750 333 10094 55300 20000 87645
AAXX 08184 03768 16580 /2506 10091 20062 30201 40281 51004 60002 91750 333 10102 81/22 87/50
AAXX 08184 03769 15572 /2103 10081 20051 30197 40280 51005 6///2 91750 333 10093 55300 20000 85/22 87/50
AAXX 08184 03770 16/// ///// 10096 20065 60002 91750 333 10103
AAXX 08184 03781 15481 /2205 10079 20052 30071 40281 51005 60002 91750 333 10082 553// 20000 87/18 86/22
AAXX 08184 03797 15671 /2707 10074 20042 30213 40274 50006 60002 91750 333 10083 55300 20000 88/33
AAXX 08184 03823 17/01 /3006 10094 20094 30061 40307 52008 60022 751// 91750 333 10099 553// 20000
AAXX 08184 03839 16/// ///// 10106 20103 60002 91750 333 10118 553// 20000
AAXX 08184 03857 15477 /3207 10103 20101 30232 40296 52005 60002 91750 333 10104 81/15 87/50
AAXX 08184 03862 17459 /2604 10090 20077 30280 40293 51005 69902 704// 91750 333 10105 55300 20000 82/15 88/50
AAXX 08184 03866 16/// /2806 10094 20083 30267 40292 51006 60002 91750 333 10103
AAXX 08184 03872 17365 /2610 10089 20081 30284 40289 51007 69902 723// 91750 333 10106 553// 20000 86/08 85/57
AAXX 08184 03876 16/// /2607 10088 20060 30284 40286 51005 60002 91750 333 10097
AAXX 08184 03895 41258 83006 10094 20083 40310 51008 72165 886// 333 10110 81704 86706
AAXX 08184 68029 42660 20802 10277 20191 48497 52009 82401 333 10335
AAXX 08184 68030 42660 10000 10286 20152 48495 52009 81400 333 10341
AAXX 08184 68038 42960 00905 10300 20153 48489 52008 333 10361
AAXX 08184 68040 42660 51005 10295 20156 48500 58003 83350
AAXX 08184 68054 42960 00906 10266 20121 48528 53004 333 10349
AAXX 08184 68070 42660 10000 10294 20195 48514 53003 81400 333 10331
AAXX 08184 68148 42960 10908 10269 20190 48512 52010 81070 333 10335
AAXX 08184 68226 42660 20604 10318 20169 48495 53005 82901 333 10362
AAXX 08184 68240 42960 40807 10297 20153 48510 52013 82082 333 10344
AAXX 08184 68320 42960 10000 10323 20169 48508 52001 81080 333 10372
AAXX 08184 68325 41660 61418 10270 20154 48517 53017 71396 82972 333 10341
AAXX 08184 68328 42660 30303 10345 20153 48496 53008 82983 333 10384
AAXX 08184 78526 NIL
AAXX 08184 78543 NIL
AAXX 08184 78255 42560 60608 10253 20171 30056 40205 57020 86200 333 10256 20177 86820
AAXX 08184 78317 NIL
AAXX 08184 78318 NIL
AAXX 08184 78325 NIL
AAXX 08184 78333 NIL
AAXX 08184 78338 NIL
AAXX 08184 78348 NIL
AAXX 08184 78349 NIL
AAXX 08184 78353 NIL
AAXX 08184 78360 NIL
AAXX 08184 78367 NIL
AAXX 08184 78369 NIL
AAXX 08184 91165 NIL
AAXX 08184 91182 NIL
AAXX 08184 91190 NIL
AAXX 08184 91212 NIL
AAXX 08184 91217 NIL
AAXX 08184 91285 NIL
AAXX 08184 91317 NIL
AAXX 08184 91334 11474 81209 10260 20240 30081 40084 57010 60071 72582 83171 333 56399 70089 555 90818
AAXX 08184 91348 NIL
AAXX 08184 91356 NIL
AAXX 08184 91366 NIL
AAXX 08184 91369 NIL
AAXX 08184 91371 NIL
AAXX 08184 91376 11474 80813 10259 20236 30088 40091 53007 69981 72582 84878 333 56229 70536 555 90818
AAXX 08184 91408 11466 81504 10261 20254 30054 40092 57014 60081 78082 86908 333 569/9 70305 555 90818
AAXX 08184 91413 11469 80910 10268 20245 30081 40107 57002 60041 70282 82371 333 56299 70066 555 90818
AAXX 08184 91425 NIL
AAXX 08184 91434 NIL
AAXX 08184 91765 NIL
AAXX 08184 91222 NIL
AAXX 08184 91245 NIL
AAXX 08184 91323 NIL
AAXX 08184 91339 NIL
AAXX 08184 91343 NIL
AAXX 08184 91353 NIL
AAXX 08184 91442 NIL
BBXX TBWUK35 08184 99706 10234 41398 73118 10024 21001 40088 52030 77071 86870 22200 00070 20401 30000 80015
BBXX PCBT 08183 99397 70244 41498 60807 10149 20122 40289 55001 71511 864// 22254 20101 399// 4//03 80133
BBXX UITJ 08181 99705 10175 41598 50503 10025 40119 52009 70122 85050 22213 00080 20201 30300 40702
BBXX PDHW 08183 99518 10029 41/99 73110 10092 20047 40260 52010 70222 859/2 22223 00080 2//// 80070
BBXX PHIN 08184 99498 70324 41/98 42312 10083 20044 40248 53008 76065 8352/ 22223 00110 20402 329// 40905 80064
BBXX PBEN 08183 99360 70105 41298 70916 10180 20172 40240 52010 7//22 84720 22263 04189 20803 309// 41003 80175
BBXX OXOR2 08184 99364 10143 41598 43128 10151 20090 40162 53001 70211 84200 22264 00162 20606 80117
BBXX 41041 08181 99142 70460 46/// /0506 10257 20197 40139 57020 91750 22200 00261 10804 20502 3//// 40803 70019 333 91208 555 11067 22071 31710 40508 61749 049063 048062 053062 052065 055066 053062 80607 91710
BBXX 51003 08181 99193 71606 46/// /0805 10237 40178 51009 91750 22200 00250 11705 20501 3//// 41704 70023 333 91206 555 11051 22053 31743 40906 61749 079048 073047 069046 070044 068043 067043
BBXX 46053 08181 99342 71198 46/// /1801 10145 40222 51023 91750 22200 00141 11203 20401 329// 41203 70013 333 91202 555 11012 22015 31748 42102 61749 185009 214005 287009 287005 287008 299006
BBXX 46042 08181 99368 71224 46/// /0805 10118 40229 53010 91750 22200 00113 11004 20301 331// 41004 70019 333 91206 555 11052 22057 31712 41008 61749 078047 073048 074054 085060 084056 085059
BBXX 46001 08181 99563 71480 46/// /2715 11022 49918 53040 91750 22200 00038 11212 20909 300// 41209 70061 333 91219 555 11160 22169 31738 42621 61749 270151 266160 263160 269152 269161 266154
AAXX 08181 26554 32965 81103 11020 21035 39973 40140 51003 80007 333 11004
AAXX 08181 26666 31258 80000 11037 21048 39927 40149 52001 71022 886// 333 11023 88704
AAXX 08181 26850 32960 61601 11040 21049 39854 40135 52005 80001 333 11009
AAXX 08181 26863 31950 60301 11043 21052 39893 40138 58002 71011 80002 333 11015
AAXX 08181 26941 32960 71502 11007 21032 39885 40127 52010 87030 333 10005
AAXX 08181 26951 32965 41301 11028 21048 39929 40134 52005 80002 333 10011
AAXX 08181 33008 11226 82102 10003 21005 39939 40120 52011 60022 77172 8872/ 333 10005 86703
AAXX 08181 33019 31959 60901 11022 21040 39950 40130 52008 71011 80001 333 10017
AAXX 08181 33036 32970 30201 11029 21063 39893 40131 52006 80001 333 11007
AAXX 08181 33041 32560 70101 10002 21027 39959 40117 53001 875// 333 10016 87626
BBXX MGRH9 08184 99266 31532 41/98 /3422 10240 20210 40075 57025 7//// 8//// 22200 00245 2//// 3//// 4//// 5//// 80220
BBXX 44060 08181 99413 70721 46/// ///06 10052 40208 58009 91800 22200 00085 333 91207 555 11062 22067
BBXX 44022 08181 99409 70737 46/// ///07 10058 21037 40220 57006 91800 22200 00060 333 91210 555 11082 22088
BBXX WRTF 08184 99560 71420 41497 82725 10060 2004/ 49940 52040 7//22 889// 22233 00050 20303 323// 40811 5//// 6//// 80050 ICE 0/0//
BBXX KRPP 08183 99194 70797 41798 40719 10260 20246 40190 56010 70300 842// 22223 0//// 20304 3//// 4//// 5//// 6//// 80250 ICE /////
BBXX WFLH 08184 99306 71280 41498 70115 10194 20141 40250 52020 7//22 8717/ 22264 00150 20502 336// 41205 5//// 6//// 80161 ICE /////
BBXX NWS0029 08184 99415 70707 43/// /3008 10052 21029 40196 5//// 7//// 8//// 222// 04058 2//// 3//// 4//// 5//// 6//// 8//// ICE /////
BBXX KAOU 08184 99078 10984 43/// /1003 10270 20216 40119 5//// 7//// 8//// 222// 04300 2//// 3//// 4//// 5//// 6//// 8//// ICE /////
BBXX NWS0003 08184 99619 71677 43/// /2501 11226 21256 40026 5//// 7//// 8//// 222// 0//// 2//// 3//// 4//// 5//// 6//// 8//// ICE /////
BBXX NWS0020 08184 99196 70828 43/// /0621 10255 20199 40180 5//// 7//// 8//// 222// 04269 2//// 3//// 4//// 5//// 6//// 8//// ICE /////
BBXX PDGS 08184 99238 71486 41598 41314 10220 20158 40210 54000 70111 8347/ 22264 00230 20501 313// 41004 80180
BBXX WQZ9670 08184 99466 70853 43/98 /2417 11011 2//// 40200 5//// 7//// 8//// 22223 0//// 2//02 3//// 4//// 5//// 6//// 8//// ICE /////
BBXX WABS 08184 99402 71254 41998 23618 10111 20091 40240 54000 70300 80000 22283 0//// 20505 3//// 4//// 5//// 6/000 80100 ICE 0/0//
BBXX A8TG2 08183 99267 71662 412// 70808 10220 20189 40150 54000 7//// 8/7// 22264 00200 20801 330// 40807 5//// 80200
BBXX WYP8657 08184 99454 70865 41/98 43015 10005 2//// 40230 54/// 70121 83135 22253 0//// 20302 3//// 4//// 5//// 6//// 8//// ICE /////
BBXX C6XP7 08183 99240 70739 41899 20620 1//// 2//// 40190 54/// 7//// 82180 22234 00250 2//// 3//// 4//// 5//// 6//// 8//// ICE /////
BBXX WFLG 08184 99258 71470 41498 21013 10206 20162 40205 52002 70111 821// 22224 00189 20302 329// 40605 5//// 6//// 80178 ICE /////
AAXX 08184 40340 32760 20107 10174 20000 40172 52023 82500 333 10212 82656
AAXX 08181 06414 16/// /2902 10073 20046 30235 40268 51012 69912 333 10090 91111 91207
AAXX 08181 06459 16/// /2903 10041 20039 30078 40276 51016 60012 333 10072 91109 91207
AAXX 08181 06494 16/// /3105 10019 20016 39441 40258 50017 60012 333 10024 91111 91206
BBXX DAPG 08181 99067 30393 41/97 20308 10275 20241 40110 52020 70200 821// 22200 2//01 3//// 4//// 5//// 80250
BBXX PJRH 08183 99214 10669 41297 10711 10220 20205 40190 52020 70200 81778 22234 20301 309// 40502 80210
BBXX MGGK4 08180 99059 70134 41/96 49901 10285 20234 40103 58004 70500 82330 22233 00293 20000 318// 40603 5//// 80248
BBXX DBLK 08181 99364 30162 41498 12105 10181 20141 40170 52011 70100 81100 22252 04208 20201 32318 40905 50804
BBXX DPKZ 08183 99112 70172 41997 00207 10265 20175 40110 56015 7//// 80000 22244 29901 80205
BBXX BATFR08 08184 99496 30683 46/// /3028 10062 20039 49822 51012 22222 00054
BBXX BATFR19 08184 99024 30081 46/// /1809 10259 20229 40118 53009 22212 00259
BBXX WKPN 08184 99269 10126 41597 83028 10150 2010/ 40165 54000 70322 884// 22265 00189 20804 330// 41008 5//// 6//// 80120 ICE /////
BBXX OVYB2 08181 99073 10650 41698 30610 10285 20227 40173 52015 70200 834// 22214 00295 20502 312// 41003 5//// 80245
BBXX S6JU 08184 99468 11642 41596 80126 10010 20010 40025 52020 77077 884// 22254 04020 2//// 3//// 4//// 5//// 6//// 80000 ICE /////
BBXX SHIP 08183 99181 11309 41/95 80526 10270 2023/ 40170 54000 70222 88/// 22283 00267 2//// 3//// 4//// 5//// 6//// 80240 ICE /////
BBXX D5BC5 08184 99407 11725 41/98 83622 00/// 10080 2004/ 49900 56010 70311 85/// 22223 04/// 2//// 3//// 4//// 5//// 6//// 80060 ICE /////
BBXX DCPC2 08184 99274 11564 41598 12922 10200 20126 40180 54000 70200 81100 22263 00220 21005 329// 41005 5//// 80155
BBXX A8AJ4 08184 99496 11718 41/// /0730 10020 2//// 40040 52010 7//// 8//// 22233 0//// 20608 3//// 4//// 5//// 6//// 8//// ICE /////
BBXX BATFR56 08184 99052 10982 46/// /0211 10270 20269 40124 58003 22273 00294
BBXX 46070 08181 99551 11753 46/// /2803 11038 21108 40084 56004 91750 22200 00028 10804 20401 3//// 40803 70018 333 91205 555 11032 22033 31658 43105 61749 282031 295027 301024 308025 305034 307036 83105 91659
BBXX UBNY 08181 99737 10700 41//9 91515 11089 40039 57025 77177 22253 ICE 53092
BBXX C6FY8 08183 99402 11572 415// 53619 10070 2003/ 40150 5//// 75253 8522/ 22222 0//// 20704 335// 41008 5//// 6//// 80050 ICE /////
BBXX A8GH5 08183 99266 50481 41397 61310 10280 20217 40180 56005 7//// 8577/ 22254 04280 20301 313// 40503 80235
BBXX WFLG 08184 99258 71470 41498 21013 10206 20162 40205 52002 70111 821// 22224 00189 20302 329// 40605 5//// 6//// 80178 ICE /////
BBXX WGAX 08184 99482 70381 43398 82125 10085 2006/ 40187 56011 7//// 8812/ 22224 00117 20503 332// 41404 5//// 6//// 80070 ICE /////
BBXX 3FFR4 08184 99322 71337 41497 81306 00/// 10160 2013/ 40270 51010 70220 8832/ 22234 00180 20101 328// 40101 5//// 6//// 80140 ICE//
BBXX C6XP7 08183 99240 70739 41899 20620 1//// 2//// 40190 54/// 7//// 82180 22234 00250 2//// 3//// 4//// 5//// 6//// 8//// ICE /////
BBXX DANM 08184 99416 70470 41598 52227 10155 20117 40218 56017 70311 84501 22211 00150 20406 325// 40706 80133
BBXX WAHV 08183 99415 70604 43498 82616 10145 2012/ 40143 54000 86507 22264 00148 20704 323// 41005 80125
BBXX 3FSB4 08184 99110 70790 43596 40513 10290 2025/ 40150 5//// 7//// 84488 22244 00290 20303 3//// 4//// 5//// 6//// 80260 ICE /////
BBXX WDB9918 08184 99382 71247 43998 03613 10111 2//// 40176 54000 7//// 80/// 22273 00106 20804 3//// 40402 5//// 6//// ICE /////
BBXX A8UE5 08184 99486 71256 41195 81318 10090 20080 40240 57030 75155 8779/ 22274 04090 20502 317// 40905 5//// 80085
BBXX A8TG2 08183 99267 71662 412// 70808 10220 20189 40150 54000 8/6// 22264 00200 20801 330// 40807 80200
BBXX 46238 08181 99334 71195 46/// ///// 1//// 91750 22200 00134 11304 20903 328// 41302 70018
BBXX 46247 08181 99378 71228 46/// ///// 1//// 91751 22200 00112 11304 21002 330// 41303 70018
BBXX 46219 08181 99332 71199 46/// ///// 1//// 91758 22200 00138 11204 21003 331// 41203 70021
BBXX 46214 08181 99379 71235 46/// ///// 1//// 91748 22200 00110 12004 20803 329// 42003 70022
BBXX 46211 08181 99469 71242 46/// ///// 1//// 91736 22200 00081 11205 20903 327// 41204 70026
BBXX 46215 08181 99352 71209 46/// ///// 1//// 91738 22200 00124 11203 20902 328// 41202 70016
BBXX 46236 08181 99368 71219 46/// ///// 1//// 91750 22200 00118 11303 21002 328// 41302 70017
BBXX 46243 08181 99462 71241 46/// ///// 1//// 91759 22200 00091 11305 21003 326// 41303 70023
BBXX 46212 08181 99408 71243 46/// ///// 1//// 91742 22200 00102 11304 21002 329// 41303 70019
BBXX 46232 08181 99325 71174 46/// ///// 1//// 91738 22200 00147 11403 20902 328// 41402 70014
BBXX 46225 08181 99329 71174 46/// ///// 1//// 91744 22200 00148 11302 20902 328// 41301 70011
BBXX 46217 08181 99342 71194 46/// ///// 1//// 91742 22200 00145 11303 21002 327// 41301 70013
BBXX 44172 08181 99445 70634 46/// ///// 1//// 91801 22200 00055 10903 20903 318// 41101 70015
BBXX 44039 08181 99411 70727 46/// /2907 10059 21027 40220 91745 22200 00069 10301 70004 333 91210
BBXX 44008 08181 99405 70692 46/// /3207 10064 20005 40195 57003 91750 22200 00088 10904 20603 318// 40903 70019 333 91208 555 11070 22074 31653 43110 61749 323067 325070 328069 323073 319078 318080
BBXX 44097 08181 99410 70711 46/// ///// 1//// 91802 22200 00099 10802 20802 70012
BBXX 44100 08181 99363 70756 46/// ///// 1//// 91752 22200 00102 10603 20602 70013
BBXX 41113 08181 99284 70805 46/// ///// 1//// 91751 22200 00206 11101 21001 70003
BBXX 41110 08181 99341 70777 46/// ///// 1//// 91751 22200 00125 11101 21001 70007
BBXX 41112 08181 99307 70813 46/// ///// 1//// 91751 22200 00165 11101 21001 311// 41101 70004
BBXX 42099 08181 99273 70842 46/// ///// 1//// 91757 22200 00235 10701 20701 70005
BBXX 46061 08181 99602 71468 46/// /2012 10020 49781 53029 91750 22200 00030 11104 20503 300// 41103 70022 333 91214 555 11123 22130 31704 42014 61749 200115 199113 196109 199115 197120 199115
BBXX 46083 08181 99582 71380 46/// /2112 10059 20048 49903 53031 91750 22200 00064 11111 20706 300// 41109 70053 333 91216 555 11132 22141 31715 42117 61749 206123 207119 209123 210126 210129 208129 82114 91703
BBXX 44011 08181 99411 70666 46/// /3005 10086 20040 40175 57004 91750 22200 00088 10904 20401 3//// 40904 70022 333 91206 555 11050 22052 31729 41206 61749 301048 301049 300051 300050 300050 306051
BBXX 46089 08181 99459 71258 46/// /1907 10079 20078 40258 57003 91750 22200 00091 11206 20702 327// 41205 70029 333 91209 555 11078 22082 31730 42009 61749 186074 182074 186075 184076 187076 186076
BBXX 41046 08181 99238 70683 46/// /3301 10246 20180 40200 58020 91750 22200 00252 11003 20401 300// 41003 70015 333 91202 555 11014 22015 31732 43402 61749 335014 346015 319009 293010 291008 337008 83402 91745
BBXX VOPP 08184 99456 70735 46/// /2603 11065 21116 4//// 5//// 7//// 8//// 22200 0//// 2////
BBXX 41101 08184 99146 70562 46/// /0817 10260 20206 40136 57022 22200 00267 10704 70021
BBXX VCWL 08184 99468 70712 46/// /2205 11072 21108 40208 51008 7//// 8//// 22200 0//// 2////
BBXX CGCC 08184 99463 70725 46/// /3103 11077 21126 40228 51005 7//// 8//// 22200 0//// 2////
BBXX CGDX 08184 99468 70712 46/// /2408 11062 21102 40209 51010 7//// 8//// 22200 0//// 2////
BBXX 41009 08181 99285 70802 46/// /3302 10208 20135 40239 58013 91750 22200 00232 11001 300// 41001 70005 333 91202 555 11018 22019
BBXX 42057 08181 99168 70815 46/// /0508 10272 20217 40176 58010 91750 22200 00271 10603 20603 3//// 40801 70015 333 91210 555 11084 22089 31652 40611 61749 054084 060085 058085 057083 057089 057093 80610 91652
BBXX 41010 08181 99289 70785 46/// /0402 10217 40235 58014 91750 22200 00233 11001 20401 300// 41001 70007 333 91203 555 11015 22016
BBXX A8TG2 08183 99267 71662 412// 70808 10220 20189 40150 54000 7//// 8/7// 22264 00200 20801 330// 40807 5//// 80200
BBXX 9HA2583 08184 99221 70662 41797 70815 10243 2//// 40210 54/// 70222 87246 22224 04264 2//// 3//// 4//// 5//// 6//// 8//// ICE /////
BBXX A8EY7 08183 99242 71136 41/98 80110 10180 20131 40210 53020 702// 8/7// 22234 2//02 331// 4//04 5//// 80150
BBXX VQKR7 08184 99322 71171 41497 33313 10140 20112 40214 51031 70200 82170 22200 04090 20402 332// 40403 80125
BBXX V7OQ7 08184 99391 70692 41/95 33518 10170 2008/ 40150 51020 70121 8/1// 22263 00200 20404 33528 40806 50806 6//// 80120 ICE /////
BBXX A8OK7 08184 99144 70694 41498 30918 10274 20228 40153 55008 70211 8/262 22273 20704 307// 41003 5//// 80241
BBXX DHEE 08183 99373 71337 41598 81823 10150 20097 40250 50010 70222 8/878 22264 00160 20302 80120
BBXX WABS 08184 99402 71254 41998 23618 10111 20091 40240 54000 70300 80000 22283 0//// 20505 3//// 4//// 5//// 6/000 80100 ICE 0/0//
BBXX 9VVP 08184 99541 71618 41498 33216 11010 21010 40095 52045 70173 8288/ 22225 00040 2//// 32732 40905 51001 6//// 86010 ICE /////
BBXX VCBW 08184 99477 70700 46/// /1406 11070 21119 40195 50007 7//// 8//// 22252 00011 2////
BBXX 3FZK3 08184 99558 71522 46/// /3140 11057 21090 49890 51065 7//// 8//// 22261 0//// 2////
BBXX VOKF 08184 99490 70669 46/// /2314 11083 21107 40176 51016 7//// 8//// 22200 0//// 2////
BBXX CGBN 08184 99476 70527 46/// /2411 10057 20038 40037 51016 7//// 8//// 22200 0//// 2////
BBXX CGHL 08184 99476 70527 46/// /2414 10052 20035 40038 51017 7//// 8//// 22200 0//// 2////
BBXX VAAP 08184 99501 70664 46/// /3415 11090 21147 40164 51009 7//// 8//// 22241 0//// 2////
BBXX VOLG 08184 99476 70527 46/// /2311 10054 20038 40036 51017 7//// 8//// 22200 0//// 2////
BBXX CGDT 08184 99463 70725 46/// /3103 11070 21117 40227 52004 7//// 8//// 22200 0//// 2////
BBXX CGSB 08184 99484 70707 46/// /2716 11114 21158 40221 53017 7//// 8//// 22263 00014 2////
BBXX VOKJ 08184 99472 70586 46/// /2722 10017 20005 40090 51016 7//// 8//// 22224 0//// 2////
BBXX CGBR 08184 99539 71302 46/// /0506 10091 20089 40107 53012 7//// 8//// 22200 0//// 2////
BBXX CGBY 08184 99487 71235 46/// /1304 10073 20055 40266 53005 7//// 8//// 22200 0//// 2////
BBXX VOFG 08184 99456 70614 46/// /3119 11001 21022 40137 51016 7//// 8//// 22200 0//// 2////
BBXX VCLM 08184 99459 70732 46/// /3204 11063 21124 40223 51007 7//// 8//// 22252 00008 2////
BBXX CGDG 08184 99447 70636 46/// /3111 10043 20019 40147 53005 7//// 8//// 22200 0//// 2////
BBXX CGDR 08184 99545 71305 46/// /1922 10088 20075 40094 51009 7//// 8//// 22251 00133 2////
BBXX VRYO3 08184 99492 70407 46/// /2419 10080 20063 40159 57028 7//// 8//// 22224 00124 2////
BBXX VCSZ 08184 99455 70735 46/// /2605 11062 21088 40227 53007 7//// 8//// 22200 0//// 2////
BBXX VXKF 08184 99469 70596 46/// /2733 10008 21005 40062 55000 7//// 8//// 22253 0//// 2////
BBXX CGTF 08184 99476 70527 46/// /1515 10051 20034 40038 51017 7//// 8//// 22200 0//// 2////
BBXX C6SI6 08184 99533 71565 46/// /2819 11004 21070 40098 51015 7//// 8//// 22223 0//// 2////
BBXX CGJV 08184 99475 70614 46/// /3314 11015 21026 40120 51048 7//// 8//// 22252 00008 2////
BBXX CG2958 08184 99505 71278 46/// /1504 10106 20098 40165 55004 7//// 8//// 22200 0//// 2////
BBXX CZ9742 08184 99506 70969 46/// /1914 11051 21078 4//// 5//// 7//// 8//// 22200 0//// 2////
BBXX CGUM 08184 99431 70589 46/// /3016 10069 20050 40143 53002 7//// 8//// 22223 0//// 2////
BBXX 46072 08181 99517 71722 46/// /0905 11008 21063 40091 58008 91750 22200 00037 11004 20401 3//// 41004 70019 333 91206 555 11051 22052 31737 40807 61749 091050 096046 118024 075021 133042 116025 80806 91738
BBXX 46041 08181 99474 71247 46/// /1409 10074 40257 55000 91750 22200 00089 11106 20602 3//// 41106 70031 333 91212 555 11100 22105 31748 41312 61749 144094 145094 145092 146085 148081 147086
BBXX 46077 08181 99579 71543 46/// /2915 11076 21128 49917 52043 91750 22200 00033 10605 20605 70024 333 91219 555 11157 22165 31749 42919 61749 285150 287143 287144 288135 285147 283148 82916 91727
BBXX 46035 08181 99571 71778 46/// /2713 1//// 40057 53005 91750 22200 10906 20906 300// 41201 70031 333 91216 555 11133 22142 31749 42616 61749 269131 264113 262110 261114 255109 277130 82815 91749
BBXX 51101 08181 99243 71621 46/// /1801 10222 20171 40191 53011 91750 22200 00236 11506 331// 41506 70031 333 91202 555 11008 22008 31732 41502 61749 178009 184011 196008 222004 156004 155008
BBXX 46082 08181 99597 71434 46/// ///// 10039 49824 53037 91750 22200 00055 11108 70041
BBXX 46026 08181 99378 71228 46/// /0903 10125 40237 53012 91750 22200 00110 11203 20401 329// 41203 70017 333 91205 555 11037 22044 31736 42906 61749 081035 286044 282029 278023 286009 278002
BBXX A8IM7 08184 99317 71318 41298 70412 10150 20116 40280 52010 70322 8/700 22263 20202 326// 40404 5//// 80130
BBXX 41040 08181 99145 70530 46/// /0609 10259 20202 40146 58020 91750 22200 00270 10804 20604 3//// 40802 70021 333 91210 555 11090 22095 31735 40811 61749 062084 066088 064083 063085 064082 066082 80710 91736
BBXX 42039 08181 99288 70860 46/// /1303 10219 40222 58010 91750 22200 00215 10501 20401 300// 40501 70005 333 91204 555 11034 22039 31724 41305 61749 131032 131033 128038 129035 133034 125031 81304 91725
BBXX VCRG 08184 99474 70619 46/// /3113 11017 21029 40133 52030 7//// 8//// 22200 0//// 2////
BBXX BATFR14 08184 99229 70515 44798 30615 10252 20182 40193 56023 70200 83162 22254 00244
BBXX TFBKF 08184 99635 70202 46/// ///// 22200 10705 70025
BBXX TFDRN 08184 99658 70212 46/// ///// 22200 10502 70011
BBXX TFGRS 08184 99663 70182 46/// ///// 22200 10703 70017
BBXX TFGRV 08184 99638 70225 46/// ///// 22200 10707 70036
BBXX TFGSK 08184 99641 70229 46/// ///// 22200 10606 70029
BBXX TFHFN 08184 99642 70152 46/// ///// 22200 10706 70030
BBXX TFKGR 08184 99657 70136 46/// ///// 22200 10707 70036
BBXX TFSRT 08184 99633 70203 46/// ///// 22200 10707 70036
BBXX TFSTD 08184 99664 70234 46/// ///// 22200 10705 70027
BBXX FVNM 08184 99249 70881 46/// /1011 10242 20192 40207 58008 22281 00252
BBXX BAREU00 08184 99447 70584 46/// ///// 40123 222//
BBXX 42085 08181 99179 70665 46/// /1007 10267 40158 91740 333 91208
BBXX 44007 08181 99435 70701 46/// /2807 10046 21027 40179 57003 91750 22200 00063 10901 3//// 40901 70005 333 91208 555 11071 22074 31706 43009 61749 280067 277062 286055 290068 287075 286055
BBXX ONAI 08184 99108 70616 41/95 /0924 10250 2024/ 40130 5//// 74565 8//// 22263 00280 2//// 3//// 4//// 5//// 6//// 80240 ICE /////
BBXX DFKP2 08184 99188 71073 41998 00305 10235 20183 40160 51020 7//// 80000 22224 00240 2//// 30000 80200
BBXX A8MH7 08184 99196 70867 41798 40916 2019/ 40187 56015 70322 83285 22244 04260 309// 40402
BBXX WCX8883 08184 99448 71346 41496 81931 10120 2010/ 40116 57034 75122 886// 22274 00090 20804 33019 41206 51206 6//// 80110 ICE /////
BBXX ZCDG8 08183 99184 70660 41598 30720 10262 20198 40164 50000 70200 83225 22200 00270 2//// 3//// 4//// 5//// 80220
BBXX PDGS 08184 99238 71486 41598 41314 10220 20158 40210 54000 70111 8347/ 22264 00230 20501 313// 41004 80180
BBXX 46105 08181 99590 71522 46/// ///// 1//// 91750 22200 10504 70022
BBXX 41013 08181 99334 70777 46/// /3404 10148 20116 40225 57004 91750 22200 00175 11101 20401 314// 41101 70007 333 91205 555 11040 22042 31702 43305 61749 343039 343039 339040 331040 325044 320041
BBXX 44020 08181 99414 70702 46/// /2704 10056 21001 40192 57004 91750 22200 00050 10401 20401 70003 333 91205 555 11046 22048 31732 42606 61749 266043 249046 248044 248046 247046 250041
BBXX 44014 08181 99366 70748 46/// ///08 1//// 40228 50000 91750 22200 00129 10603 20603 313// 41101 70014 333 91210 555 11083 22083
BBXX 44065 08181 99404 70737 46/// /3006 10064 21018 40222 57006 91750 22200 00084 10801 20301 314// 40801 70007 333 91207 555 11060 22062 31653 43208 61749 299057 304062 311061 308066 308063 306068 83107 91653
BBXX 44040 08181 99410 70736 46/// /3107 10060 21038 40222 91745 22200 10201 70003 333 91209 555 11082 22098
BBXX 44027 08181 99443 70673 46/// /3305 10036 21025 40162 53006 91750 22200 00073 10902 20401 3//// 40902 70012 333 91206 555 11052 22054 31652 43209 61749 326051 320059 319063 315068 313071 313073
BBXX 44025 08181 99402 70732 46/// /2908 10068 21019 40216 57005 91750 22200 00092 10402 20401 316// 40701 70009 333 91209 555 11079 22083 31705 43110 61749 290073 293065 307066 310068 313075 312074
BBXX 41008 08181 99314 70809 46/// /2103 10150 20135 40238 58011 91750 22200 00153 11001 300// 41001 70004 333 91203 555 11028 22029 31745 42103 61749 209026 213021 207012 206008 249014 249012
BBXX 44009 08181 99385 70747 46/// /3307 10076 40245 58006 91750 22200 00083 10301 20301 300// 40701 70007 333 91208 555 11076 22081 31650 43309 61749 332072 330069 329070 328065 326063 328066
BBXX 41004 08181 99325 70791 46/// /2502 10184 20116 91750 22200 00197 11101 20401 3//// 41101 70005 333 91203 555 11020 22020 31749 42603 61749 254018 258015 247013 255011 268010 300009
BBXX 46029 08181 99461 71245 46/// /1604 10089 20056 40268 55000 91750 22200 00090 11206 20301 329// 41206 70030 333 91205 555 11044 22047 31652 41506 61749 157041 156043 155045 155044 155046 161050
BBXX 46028 08181 99357 71219 46/// /1403 10135 40219 51016 91750 22200 00128 11304 20401 328// 41304 70019 333 91204 555 11035 22040 31736 41404 61749 142031 144030 150027 147028 153024 155027
BBXX 46054 08181 99342 71204 46/// /0000 10139 40227 51031 91750 22200 00131 11304 20401 300// 41304 70019 333 91201 555 11006 22007 31653 43203 61749 354006 020011 027012 028011 348015 336018
BBXX 46025 08181 99337 71191 46/// /2002 10168 20068 40212 51026 91750 22200 00149 11402 20401 327// 41402 70010 333 91203 555 11023 22027 31725 40603 61749 195019 089015 059026 090020 089019 079019
BBXX 46050 08181 99442 71246 46/// /1304 10086 40263 56008 91750 22200 00093 11105 20401 328// 41105 70024 333 91206 555 11045 22047 31747 41206 61749 126043 119039 119039 120040 120039 120039
BBXX 46086 08181 99325 71180 46/// /0102 10144 40214 52026 91750 22200 00151 11104 329// 41104 70018 333 91202 555 11019 22019 31655 40303 61749 012018 001018 342015 009018 010019 020024
BBXX 46013 08181 99382 71233 46/// /1601 10114 40237 52016 91750 22200 00107 11204 20401 3//// 41204 70019 333 91202 555 11011 22013 31728 41402 61749 163009 148009 154006 138005 117006 191004
BBXX 46027 08181 99419 71244 46/// /0501 10098 40259 53004 91750 22200 00095 11103 20401 327// 41103 70017 333 91202 555 11015 22018 31653 41203 61749 049012 075009 106013 114013 118016 122020
BBXX 46011 08181 99350 71210 46/// /0804 10127 40229 51027 91750 22200 00127 11304 20401 328// 41304 70021 333 91205 555 11039 22042 31731 40906 61749 083037 084042 092035 074029 065028 044026
BBXX 46088 08181 99483 71232 46/// /1104 10071 40253 91750 22200 00077 10401 20401 70004 333 91205 555 11045 22047 31658 41306 61749 110044 115047 113047 124045 125048 127047
BBXX 46047 08181 99324 71195 46/// /0803 10141 40217 53025 91750 22200 00147 10904 20301 331// 40904 70022 333 91204 555 11026 22027 31748 40904 61749 084025 106020 108014 082012 086010 059014
BBXX 46069 08181 99337 71202 46/// /0708 10156 40221 53030 91750 22200 00133 11405 20603 329// 41403 70023 333 91210 555 11088 22098 31738 40811 61749 074079 075075 073076 075076 075070 070076
BBXX 46014 08181 99394 71240 46/// /0104 10097 40236 52005 91750 22200 00105 11304 20301 3//// 41304 70022 333 91204 555 11039 22040 31727 40105 61749 012037 005036 012038 009038 013036 007036
BBXX 46088 08181 99483 71232 46/// /1104 10071 40253 53003 91750 22200 00077 10401 20401 70004 333 91205 555 11045 22047 31658 41306 61749 110044 115047 113047 124045 125048 127047
BBXX 46012 08181 99374 71229 46/// /0503 10130 40235 51012 91750 22200 00115 11305 20401 329// 41305 70023 333 91204 555 11035 22042 31656 40306 61749 045032 030047 033044 023047 021046 027045
BBXX 46005 08181 99461 71310 46/// ///11 10105 40167 55000 91750 22200 00097 11208 20805 3//// 41206 70038 333 91212 555 11113 22122
BBXX 46059 08181 99380 71300 46/// /1102 10102 40285 53016 91750 22200 00128 11103 3//// 41103 70016 333 91203 555 11016 22017 31720 41103 61749 105017 099010 103013 257004 114003 067009
BBXX 46080 08181 99580 71500 46/// /2913 11040 21074 49880 53040 91750 22200 00044 10908 20806 3//// 40905 70041 333 91216 555 11135 22141 31747 42916 61749 294127 294118 292112 292111 286107 287111 83014 91750
BBXX 46084 08181 99566 71361 46/// ///// 10062 20039 49975 53023 91750 22200 00070 11211 70056
BBXX 46075 08181 99539 71608 46/// /3110 10000 21071 40093 51028 91750 22200 00034 10806 20805 300// 41403 70028 333 91212 555 11109 22115 31745 43112 61749 312102 317098 315093 311085 307091 309091 83111 91745
BBXX 46002 08181 99426 71305 46/// ///// 10118 40238 57003 91750 22200 00113 11606 70031
BBXX 46006 08181 99408 71375 46/// /1810 10137 40156 53005 91750 22200 00120 10708 20707 3//// 41305 70042 333 91213 555 11113 22123 31745 41913 61749 178105 180098 175088 174094 167097 171102
BBXX WDC6698 08184 99213 71579 43/// /0302 10000 21027 40170 5//// 7//// 8//// 222// 04240 2//// 3//// 4//// 5//// 6//// 8//// ICE /////
BBXX A8CG7 08180 99267 31564 41297 30305 10236 40101 56010 70200 81741 22274 29902 3//// 4//// 5////
BBXX A8SG2 08181 99328 51699 41498 40713 10230 20183 40175 51015 70100 84141 22224 00190 20503 306// 40603 5//// 80200
BBXX C6UA2 08184 99229 31672 41696 61412 10230 2//// 40130 54/// 7//22 86260 22282 02270 2//03 3//// 4//// 5//// 6//// 8//// ICE /////
BBXX TBWUK42 08184 99045 11062 41597 80228 10255 20227 40104 53005 70222 887// 22213 20707 303// 41006 5//// 80236
BBXX DQXQ 08184 99079 70796 41998 43624 10285 20230 40120 58010 70311 81052 22283 00260 20404 80245
BBXX WJBJ 08183 99166 71159 41398 30402 10250 2020/ 40163 51024 7//00 831// 22264 00255 20200 332// 40705 5//// 6//// 80215 ICE /////
BBXX CG2960 08184 99453 70817 46/// /1907 11025 21068 40259 58013 7//// 8//// 22200 0//// 2////
BBXX CG2350 08184 99433 70798 46/// /2809 11000 21088 40267 58007 7//// 8//// 22200 0//// 2////
BBXX CGDS 08184 99421 70831 46/// /2402 10013 21054 40284 58001 7//// 8//// 22200 0//// 2////
BBXX DBBI 08181 99535 10100 46/// /3104 10062 20053 40572 52030/ 22270 00446
BBXX DGOQ 08184 99545 10100 41/97 93617 10034 21004 40175 702// 22200 04055 80020
BBXX MGSG6 08183 99545 10037 41497 32712 10075 20040 40230 53020 70111 81141 22233 20401 327// 40502 5//// 80060
BBXX DBBI 08181 99535 10100 46/// +3104 10062 20053 40572 52030/ 22270 00446
BBXX DBKR 08181 99541 10121 46/// /3205 10048 20048 40155 52031 22200 00050
BBXX DBFH 08181 99535 10086 46/// /3206 10072 20046 40195 52025 22260 00055
BBXX DBJM 08181 99541 10081 46/// /3308 10062 20042 40194 52028 22272 00058
BBXX DBEB 08181 99538 10081 41/// /3208 10059 20059 40190 52024 7//// 22200 00053
BBXX DBBC 08181 99535 10100 46/// /3104 10061 20033 40175 52032 22250 00048
BBXX DBEA 08181 99540 10082 46/// /3307 10061 20037 40193 52031 22261 00055
BBXX 41047 08181 99275 70715 46/// /0305 10220 40228 58017 91750 22200 00249 11002 20301 311// 41002 70009 333 91206 555 11047 22049 31740 40107 61749 025047 022048 021042 013046 024047 029043 80206 91709
BBXX 44066 08181 99396 70726 46/// /3006 10080 20003 40217 58006 91750 22200 00133 10502 20502 3//// 40801 70012 333 91208 555 11064 22066 31709 43209 61749 299062 308059 308057 308064 305062 315065
BBXX 42065 08181 99170 70817 46/// /0608 10263 20221 91750 22200 10603 20603 70016 333 91209 555 11085 22090 31715 40610 61749 063080 062074 064080 063080 061076 065073 80609 91715
BBXX 42002 08181 99258 70937 46/// /1510 10238 20194 40184 58004 91750 22200 00241 10502 20502 70012 333 91212 555 11103 22110 31716 41512 61749 145102 147102 147101 147103 145099 145098
BBXX 42012 08181 99301 70876 46/// /1403 10187 20176 40216 58008 91750 22200 00178 10501 320// 40501 70004 333 91203 555 11033 22039 31749 41403 61749 138029 135024 137024 138025 140023 144019
BBXX 41049 08181 99275 70630 46/// /1403 10227 20127 40207 58029 91750 22200 00234 10803 20401 300// 40803 70014 333 91203 555 11026 22027 31736 41403 61749 141025 141023 141019 130018 137016 139015 81403 91745
BBXX 41012 08181 99300 70805 46/// /2901 10194 40239 58011 91750 22200 00217 10901 312// 40901 70005 333 91202 555 11010 22010 31659 43202 61749 291010 296007 309006 315005 331009 348012
BBXX 41001 08181 99347 70727 46/// ///// 10209 20143 40197 58015 91750 22200 00217 10703 70015
BBXX 42020 08181 99270 70967 46/// /1405 10219 20189 40160 58004 91750 22200 00213 10602 20501 314// 40602 70012 333 91206 555 11057 22062 31652 41507 61749 137052 139054 145052 147056 150055 152056
BBXX WPGK 08184 99299 70697 41698 42309 10200 2015/ 40204 57007 70200 842// 22244 00222 20602 311// 40902 5//// 6//// 80172 ICE /////
BBXX WFLH 08184 99306 71280 41498 70115 10194 20141 40250 52020 7//22 8717/ 22264 00150 20502 336// 41205 5//// 6//// 80161 ICE /////
BBXX KRPP 08183 99194 70797 41798 40719 10260 20246 40190 56010 70300 842// 22223 0//// 20304 3//// 4//// 5//// 6//// 80250 ICE /////
BBXX WRTF 08184 99560 71420 41497 82725 10060 2004/ 49940 52040 7//22 889// 22233 00050 20303 323// 40811 5//// 6//// 80050 ICE 0/0//
BBXX NWS0022 08184 99416 70714 43/// /2906 10074 21045 40198 5//// 7//// 8//// 222// 04095 2//// 3//// 4//// 5//// 6//// 8//// ICE /////
BBXX KEY796 08183 99571 71703 41/97 80810 11078 21111 40059 51/// 702// 8//// 222// 01017 2//// 3//// 4//// 5//// 6//// 8//// ICE /////
BBXX 44005 08181 99432 70691 46/// /3206 10041 21032 40177 55000 91750 22200 00076 10902 20502 3//// 40902 70012 333 91207 555 11064 22066 31738 43108 61749 322061 322059 325058 325057 327059 327053
BBXX 42019 08181 99279 70954 46/// /1505 10229 20205 40169 58004 91750 22200 10602 20401 316// 40601 70009 333 91206 555 11053 22057 31749 41506 61749 159050 284048 285049 283050 284052 280054
BBXX 42040 08181 99292 70882 46/// /1804 10217 40216 58004 91750 22200 00203 10502 20401 3//// 40501 70008 333 91205 555 11040 22047 31745 41805 61749 184040 188035 190032 186036 187036 184039
BBXX 42035 08181 99292 70944 46/// /1204 10182 20182 40185 50000 91750 22200 00166 10701 20401 319// 40701 70007 333 91204 555 11043 22050 31748 41204 61749 123037 120037 117037 117036 116037 115034
BBXX 42055 08181 99222 70940 46/// /1309 10247 20207 40169 58003 91750 22200 00238 10503 20503 70016 333 91211 555 11098 22107 31700 41411 61749 133089 132089 135089 133086 134092 133092 81310 91707
BBXX 42036 08181 99285 70845 46/// /1405 10203 20179 40230 58008 91750 22200 00204 10701 70003 333 91206 555 11048 22050 31748 41406 61749 137045 135047 135046 134047 130045 128045
BBXX 42059 08181 99151 70675 46/// /0907 10270 20211 40154 58021 91750 22200 00276 10604 20603 3//// 41002 70018 333 91209 555 11077 22081 31734 40809 61749 089073 089075 089074 093074 095076 093073 81008 91715
BBXX 42056 08181 99198 70849 46/// /1007 10259 20213 40185 58012 91750 22200 00266 10702 20702 306// 41101 70012 333 91209 555 11079 22083 31720 40910 61749 101074 099078 096079 096077 094075 092075 80909 91720
BBXX 42058 08181 99149 70749 46/// /0808 10268 20218 40143 58017 91750 22200 00271 10603 20603 308// 41101 70014 333 91209 555 11084 22089 31709 40710 61749 074079 077083 079085 072083 073086 070084 80709 91708
BBXX 42060 08181 99163 70635 46/// /0808 10264 20209 40161 58024 91750 22200 00273 10603 20603 300// 41001 70016 333 91210 555 11087 22092 31736 40810 61749 078082 077080 076077 061067 056065 052071 80809 91737
BBXX 41060 08181 99148 70510 46/// ///// 1//// 91750 22200 11104 70020
BBXX 41048 08181 99320 70696 46/// /2805 10208 20143 40212 56020 91750 22200 00215 10703 20401 3//// 40703 70014 333 91205 555 11046 22048 31727 42606 61749 275047 269047 266051 267048 266047 266052 82706 91657
BBXX 41036 08181 99342 70770 46/// ///// 10151 20057 40224 58004 91750 22200 00193 10402 70010
BBXX 41044 08181 99217 70587 46/// /1208 10233 20193 40189 58024 91750 22200 00255 10905 20603 300// 40903 70023 333 91209 555 11079 22083 31710 41211 61749 115075 115081 118083 116087 107084 096085 81209 91711
BBXX 42001 08181 99259 70897 46/// /1507 10237 20168 40213 58003 91750 22200 00234 10401 20401 70007 333 91208 555 11073 22079 31738 41608 61749 154068 155065 158064 155066 154066 151066
BBXX 41043 08181 99211 70650 46/// /1207 10250 20214 40184 58026 91750 22200 00259 10804 20603 300// 40803 70021 333 91209 555 11072 22076 31716 41010 61749 120069 102065 092075 100084 107073 109077 81009 91717
BBXX 42003 08181 99260 70856 46/// /1007 1//// 91750 22200 10401 20401 70007 333 91208 555 11070 22075 31743 40908 61749 099065 104060 102061 099063 109064 103059 80907 91743
BBXX WBP3210 08184 99750 51700 43/// /0105 11020 2//// 49811 5//// 7//// 8//// 22200 01008 2//// 3//// 4//// 5//// 6//// ICE /////
BBXX WCX7445 08184 99646 50683 43/// /3012 10046 2//// 49859 5//// 7//// 8//// 22261 00011 2//// 3//// 4//// 5//// 6//// ICE /////
AAXX 08184 93004 16/// /2331 10147 20147 40036 54000 60021
AAXX 08184 93023 16/// /3002 10167 20156 40025 52008 69921
AAXX 08184 93069 16/// /2106 10180 20157 40024 52012 6///1
AAXX 08184 93110 17496 /0712 10176 20169 40028 52016 60021
AAXX 08184 93186 17397 /0609 10191 20182 40051 52017 60011
AAXX 08184 93196 16/// /0107 10190 20185 40081 52019 60001
AAXX 08184 93245 16596 /0711 10159 20143 40062 52015 60001
AAXX 08184 93292 17192 /0201 10149 20149 40077 52021 60001
AAXX 08184 93309 17698 /1413 10159 20148 40048 52015 69921
AAXX 08184 93334 16/// /0301 10135 20126 39132 52014 69921
AAXX 08184 93339 16/// /0313 10132 20122 39136 52012 69921
AAXX 08184 93373 17498 /0000 10156 20154 40074 52018 60001
AAXX 08184 93404 17898 /1508 10166 20140 40068 52018 60001
AAXX 08184 93420 16/// /1912 10153 20119 40070 52010 60001
AAXX 08184 93439 17596 /1920 10142 20116 40085 52010 69961
AAXX 08184 93498 16/// /2808 10145 20144 40077 52025 60001
AAXX 08184 93515 17998 /1705 10158 20111 40060 52002 60001
AAXX 08184 93527 16/// /1105 10175 20145 40064 52012 69921
AAXX 08184 93546 17898 /0703 10175 20115 40061 52008 60001
AAXX 08184 93597 16/// /1823 10150 20128 40069 52023 60001
AAXX 08184 93615 17998 /1102 10150 20109 40067 57006 60001
AAXX 08184 93678 16598 /2715 10115 20106 40109 57007 60001
AAXX 08184 93709 16/// /2106 10140 20105 40075 57004 60001
AAXX 08184 93773 17798 /2903 10099 20095 40136 57014 60001
AAXX 08184 93781 17295 /2508 10113 20110 40131 57006 60021
AAXX 08184 93800 NIL
AAXX 08184 93805 NIL
AAXX 08184 93831 17/98 /0214 10131 20054 40096 57008 60001
AAXX 08184 93845 17/98 /0609 10117 20081 40079 57011 60001
AAXX 08184 93891 17/98 /0103 10110 20066 40111 57020 60001
AAXX 08184 93909 16/// /9901 10135 20094 40069 57012 60001
AAXX 08184 93929 16/// /9901 10099 20094 40100 57024 60001
AAXX 08184 93947 16/// /1207 10099 20054 40149 57015 60001
AAXX 08184 93987 16/// /0612 10159 20154 40193 52007 60001
AAXX 08184 93994 NIL
AAXX 08181 48823 31496 83402 10134 20121 30235 40238 58004 71022 888// 333 59012 86894 88696
AAXX 08184 48352 32561 50502 10186 20154 39986 40193 57000 81106 333 59027
AAXX 08184 48357 32960 10606 10180 20130 30019 40194 57009 80001 333 59011
AAXX 08184 48405 32960 20203 10177 20138 30008 40177 57008 80005 333 59016
AAXX 08184 48459 31958 20000 10240 20176 30141 40144 57006 71000 80001 333 59018
AAXX 08181 15502 11570 80000 10020 20009 30073 40113 58002 69902 70262 8355/ 333 10062 21010 555 59300 69099 71800
AAXX 08181 15525 12965 32002 10007 21022 39848 40119 52002 60002 80001 333 10032 20006 43005 555 581//
AAXX 08181 15528 12968 82303 10012 21017 39901 40094 54000 60002 85057 333 10040 20008 44012 555 581//
AAXX 08181 15535 12570 72302 10020 21005 30056 40103 54000 60002 87500 333 10026 20009 555 584//
AAXX 08181 15549 12570 82702 11001 21021 39694 40120 53004 60002 886// 333 10001 21008 555 584//
AAXX 08181 15552 11565 73203 10030 20006 30053 40103 52004 69912 70162 85510 222// 2//00 333 10048 20026 555 58400 69399 71800 92012 92417
AAXX 08181 15614 11660 80000 11001 21018 39406 40126 57001 69902 77172 888// 333 10015 21020 44015 555 587// 66399 71800
AAXX 08181 15626 12970 82704 10034 21043 39922 40113 53009 60002 8802/ 333 10042 20020 42904 555 557//
AAXX 08181 15627 11/01 93202 11099 21111 37450 47865 54000 69972 74944 333 11097 21111 37050 93506 555 591// 92710
AAXX 08181 15640 12968 83202 10026 21050 39797 40115 52007 60002 8802/ 333 10050 20022 555 557//
AAXX 08181 15655 12570 83204 10044 21020 30073 40106 52003 60012 885// 222// 00072 309// 40501 333 10056 20021 555 563// 92023 92428
AAXX 08181 15712 12675 63401 10016 21024 39865 40121 58002 60002 82171 333 10060 20015 555 575//
AAXX 08181 15730 11930 80000 10011 21005 39718 40118 51007 69902 71072 86017 333 10034 20004 41/// 555 58900 69862 71800
BBXX DCHO 08184 99306 70130 41498 39902 10181 20144 40222 52005 70200 82230 22214 04180 299// 301// 41602 80158
BBXX PDHP 08183 99457 70082 41598 79904 10136 20100 40328 55000 7//// 877// 22254 00133 2//// 328// 41006 80116
AAXX 08181 14240 12970 63401 10015 21013 30011 40170 53009 60002 82032 333 10089
AAXX 08181 14258 11670 80701 10033 20026 39975 40167 52010 69942 70226 885// 333 10080
AAXX 08181 14445 12670 50303 10095 21049 39996 40151 52007 60002 81532 333 10113 81696 82399 82099 92312
BBXX C6KD6 08183 99468 70106 41498 71410 10115 20089 40323 58014 70322 87778 22254 02127 21207 32727 41506 51205 80102
BBXX PHKL 08180 99023 11017 41/98 ///// 10294 20235 40110 58006 70222 8//// 22233 00292 2//// 3//// 4//// 5//// 80251
AAXX 08184 78988 02581 30808 10291 20233 30132 40142 57024 60001 83200 333 58006 60007 83822
AAXX 08184 78990 01481 31012 10291 20226 30142 40149 57023 60001 70100 83200 333 58004 60007 83818
AAXX 08184 78873 NIL
AAXX 08183 91551 31598 60000 10219 20213 40077 53001 70222 81204 333 569/9 81822 86279
AAXX 08183 91553 11598 70000 10240 20238 40083 53004 60041 72528 83907 333 564/9 60041 83820 81925 87080
AAXX 08183 91554 31598 60000 10225 20218 40080 53002 70222 82101 333 569/9 81820 86080
AAXX 08183 91555 31598 32705 10231 20219 40083 53002 70111 81131 333 569/9 81820 86080
AAXX 08183 91557 31598 19902 10196 20194 40088 53001 70111 81800 333 569// 81825
AAXX 08183 91565 31598 10000 10200 20184 40079 53004 70111 81100 333 563// 81820
AAXX 08183 91568 31598 50000 10205 20197 40092 53004 70211 85100 333 563// 85825
AAXX 08184 91925 02580 71113 10291 20213 30079 40139 51012 60001 83201 333 56206 60007 83825 87076 90710 91122 555 60005 11122 58007
AAXX 08184 91929 044// 80131 10251 20195 30092 40095 50008 60262 700// 333 10251 20221 60087 91042 90710 91144 555 60035
AAXX 08184 91938 01570 80607 10253 20190 30113 40115 51002 60172 725// 8487/ 333 10259 20215 69987 82820 84650 87460 90710 91115 555 69905 10717 58009
AAXX 08184 91944 06/// /3606 10276 20204 30144 40147 51014 69942 333 10277 20231 60007 90710 91109 555 60005
AAXX 08184 91948 02580 63608 10275 20211 30056 40157 50005 60001 82882 333 56799 60007 82820 84076 90710 91117 555 60005 13618 58003
AAXX 08184 91954 06/// /1212 10241 20183 30116 40119 50014 60001 333 60007 555 58015
AAXX 08184 91958 01575 82304 10230 20183 30120 40122 53012 69921 70286 888// 333 56499 69927 86820 87650 90710 91113 555 60005 11020 58003
AAXX 08184 91943 NIL
AAXX 08184 91945 NIL
AAXX 08183 91551 31598 60000 10219 20213 40077 53001 70222 81204 333 569/9 81822 86279
AAXX 08183 91553 11598 70000 10240 20238 40083 53004 60041 72528 83907 333 564/9 60041 83820 81925 87080
AAXX 08183 91554 31598 60000 10225 20218 40080 53002 70222 82101 333 569/9 81820 86080
AAXX 08183 91555 31598 32705 10231 20219 40083 53002 70111 81131 333 569/9 81820 86080
AAXX 08183 91557 31598 19902 10196 20194 40088 53001 70111 81800 333 569// 81825
AAXX 08183 91565 31598 10000 10200 20184 40079 53004 70111 81100 333 563// 81820
AAXX 08183 91568 31598 50000 10205 20197 40092 53004 70211 85100 333 563// 85825
BBXX PFBF 08183 99125 31637 41397 22701 10280 20273 40060 50002 70000 8118/ 22263 02300 20000 335// 40102 5//// 80275
AAXX 08184 47090 32960 23402 11006 21105 30254 40277 52009 80001 333 92011
AAXX 08184 47095 31556 60001 11028 21086 30118 40316 52008 70522 86500
AAXX 08184 47097 329// /2701 11032 21071 30216 40317 52005
AAXX 08184 47098 329// /2301 11031 21079 30172 40313 52008
AAXX 08184 47099 329// /0000 11029 21078 30278 40316 52006
AAXX 08184 47100 32460 22716 11072 21115 39333 40295 56004 81501
AAXX 08184 47102 31656 82906 10008 21033 30127 40311 53002 70522 8552/
AAXX 08184 47104 32962 21803 11014 21105 30174 40275 52006 80001
AAXX 08184 47106 329// /2511 10003 21102 30223 40274 53007
AAXX 08184 47112 31656 63403 11001 21043 30227 40314 52005 70522 86500 333 92011
AAXX 08184 47114 31658 60001 11040 21096 30120 40312 52004 70522 85500
AAXX 08184 47119 31640 60000 11028 21049 30271 40315 52004 71022 86500
AAXX 08184 47121 329// /0001 11048 21099 30005 40315 52006
AAXX 08184 47127 329// /0000 11057 21079 30169 40319 52005
AAXX 08184 47129 31630 60701 11046 21057 30284 40322 52005 71022 85500
AAXX 08184 47130 32962 02003 11008 21110 30214 40278 53010 333 92021
AAXX 08184 47131 31956 01801 11037 21061 30243 40317 51006 71000
AAXX 08184 47135 329// /2301 11042 21074 30003 40317 52007
AAXX 08184 47136 31958 40000 11033 21087 30127 40307 52010 70544 80001
AAXX 08184 47137 329// /1803 11031 21083 30187 40311 52005
AAXX 08184 47140 31658 53401 11020 21048 30286 40316 54000 71000 85500 333 92011
AAXX 08184 47143 32961 02705 11003 21082 30228 40310 50003
AAXX 08184 47145 31657 30000 11059 21072 30283 40311 52005 71011 83500
AAXX 08184 47146 31656 40001 11034 21061 30248 40317 51002 71022 84500
AAXX 08184 47150 31657 60202 11027 21056 30293 40313 52002 71022 85500
AAXX 08184 47152 32962 03407 10004 21078 30239 40283 50005
AAXX 08184 47154 329// /2907 11014 21071 30245 40308 52005
AAXX 08184 47155 31959 01105 10008 21084 30244 40291 50002 70500
AAXX 08184 47156 32662 40205 11007 21055 30221 40314 55001 84500
AAXX 08184 47157 32962 02505 11052 21086 30014 40299 51003
AAXX 08184 47162 32962 00507 10012 21080 30248 40290 50007 333 92023
AAXX 08184 47169 32661 23414 10046 21032 30209 40305 56005 82500 333 92034
AAXX 08184 47170 32661 22303 10001 21069 30261 40306 54000 82500 333 92022
AAXX 08184 47171 329// /0000 11022 21050 30258 40316 54000
AAXX 08184 47172 329// /0000 11010 21043 30239 40308 55001
AAXX 08184 47173 329// /0000 11052 21071 30199 40317 50002
AAXX 08184 47174 32962 02905 11009 21066 30092 40302 52004
AAXX 08184 47175 32561 20207 11024 21055 39711 40308 57002 82500 333 92023
AAXX 08184 47185 32665 63619 10058 21011 30201 40294 57005 86500 333 92025
AAXX 08184 47188 32665 61806 10047 21024 30266 40288 57003 86500 333 92022
AAXX 08184 47189 32670 60203 10072 20037 30214 40275 55003 85500 333 92022
AAXX 08184 47192 31958 00703 11002 21088 30259 40298 50003 70500
AAXX 08184 47101 31658 60001 11072 21100 30214 40316 52007 71022 85500
AAXX 08184 47105 369// /2509 11002 21101 30243 40276 53003
AAXX 08184 47108 31656 62903 11015 21072 30203 40313 52005 70522 86500
AAXX 08184 47115 32575 61603 10020 21056 39978 40256 52007 85500 333 92032
AAXX 08184 47133 31650 41801 11041 21067 30229 40319 50003 71011 84500
AAXX 08184 47138 32961 02006 10004 21071 30286 40289 52008 333 92022
AAXX 08184 47159 32961 03615 10010 21099 30189 40277 50003 333 92024
AAXX 08184 47165 32662 40501 11010 21045 30258 40307 57004 84500 333 92021
AAXX 08184 47168 32963 00203 10007 21088 30212 40294 52008 333 92021
AAXX 08184 47184 32670 63409 10049 21022 30282 40308 55001 86500 333 92023
AAXX 08184 78988 02581 30808 10291 20233 30132 40142 57024 60001 83200 333 58006 60007 83822
AAXX 08184 78990 01481 31012 10291 20226 30142 40149 57023 60001 70100 83200 333 58004 60007 83818
AAXX 08184 78873 NIL
AAXX 08181 33088 32997 20000 11045 21054 39935 40133 52008 81041 333 10014
AAXX 08181 33177 11597 81901 10003 21017 39883 40125 52008 69942 78582 889// 333 10020
AAXX 08181 33261 11396 80201 10011 20006 39909 40094 52002 60012 76186 8772/ 333 10015 87707
AAXX 08181 33275 11297 81102 10031 20026 39866 40090 52005 60062 76165 8772/ 333 10032 87704
AAXX 08181 33301 32997 71302 11045 21061 39840 40132 51005 84031 333 10011
AAXX 08181 33325 32997 83501 11015 21049 39851 40125 52006 8801/ 333 10001
AAXX 08181 33377 11294 80102 10018 20015 39891 40086 52003 60022 75165 886// 333 10023 88705
AAXX 08181 33415 32997 59901 11043 21070 39720 40133 52005 80001 333 10008
AAXX 08181 33429 32997 73501 11021 21049 39694 40128 52006 87030 333 11010
AAXX 08181 33466 11357 83602 10010 20002 39911 40101 52002 60022 77172 8872/ 333 10015 86709
AAXX 08181 33526 11460 80000 10003 21037 39780 40126 52008 69902 77072 886// 333 10021 88716
AAXX 08181 33562 12997 60000 11019 21047 39750 40120 51003 69902 86030 333 10005
AAXX 08181 33614 11310 82903 10027 20024 39975 40080 52010 60042 76162 8872/ 333 10045 88708
AAXX 08181 33761 11496 83505 10012 20001 39870 40096 52005 69902 71022 886// 333 10022 88710
AAXX 08181 33902 11496 83403 10055 20048 39997 40063 52007 60032 75165 886// 333 10075
AAXX 08181 33983 11997 70000 10085 20061 30014 40074 58003 69902 70282 8703/ 333 10113
AAXX 08181 34415 11697 71404 10030 20022 30011 40108 52005 60022 70286 87500 333 10043
AAXX 08181 34523 11596 81203 10031 20010 30055 40132 52002 69902 76162 885// 333 10035
AAXX 08181 34712 11497 80906 10034 20029 30021 40107 52004 69972 76162 8772/ 333 10034
AAXX 08184 16622 12560 33508 10046 21042 30122 40133 53006 60002 82430 333 10064 90730 91120 555 10000 40030 30000 10058 2//// 30064 4//// 5//// 40000 47620 44200 50000 50016
AAXX 08184 16641 12560 43208 10088 20010 30114 40119 52007 60002 81150 333 10116 81830 84358 90730 91118 555 10000 40020 40000 47615 44200 50000 50056
AAXX 08184 16682 12560 20000 10066 20017 30093 40111 53010 60002 82100 333 10112 90730 91110 555 10000 40018 30000 10080 20088 30090 40096 50114 60154 40000 47597 44180 50000 50046
AAXX 08184 16716 12960 20000 10068 21018 30096 40115 52014 69902 80002 333 10104 555 10000 40068 40000 47600 44175 50000 50036 60000 65555 60040
AAXX 08184 16734 NIL
AAXX 08184 16743 NIL
AAXX 08184 16749 11458 72210 10100 20079 30060 40075 51002 60082 76196 84860 333 10134 82818 84625 86358 90730 91115 555 10000 40094 40000 47575 44190 50000 50090 60000 60084 60545 70000 77R// 7TR//
AAXX 08184 16754 12460 52915 10124 20051 30053 40099 52014 60002 85800 333 10132 81818 84625 90730 91120 555 10000 40084 40000 47570 44190 50000 50090
AAXX 08184 48409 31958 10206 10192 20158 30016 40168 57004 71000 80001 333 59012
BBXX 46001 08181 99563 71480 46/// /2715 11022 49918 53040 91750 22200 00038 11212 20909 300// 41209 70061 333 91219 555 11160 22169 31738 42621 61749 270151 266160 263160 269152 269161 266154
BBXX 46026 08181 99378 71228 46/// /0903 10125 40237 53012 91750 22200 00110 11203 20401 329// 41203 70017 333 91205 555 11037 22044 31736 42906 61749 081035 286044 282029 278023 286009 278002
BBXX 46029 08181 99461 71245 46/// /1604 10089 20056 40268 55000 91750 22200 00090 11206 20301 329// 41206 70030 333 91205 555 11044 22047 31652 41506 61749 157041 156043 155045 155044 155046 161050
BBXX 46042 08181 99368 71224 46/// /0805 10118 40229 53010 91750 22200 00113 11004 20301 331// 41004 70019 333 91206 555 11052 22057 31712 41008 61749 078047 073048 074054 085060 084056 085059
BBXX A8IM7 08184 99317 71318 41298 70412 10150 20116 40280 52010 70322 8/700 22263 20202 326// 40404 5//// 80130
BBXX CG2958 08184 99505 71278 46/// /1504 10106 20098 40165 55004 7//// 8//// 22200 0//// 2////
BBXX CGBR 08184 99539 71302 46/// /0506 10091 20089 40107 53012 7//// 8//// 22200 0//// 2////
BBXX CGBY 08184 99487 71235 46/// /1304 10073 20055 40266 53005 7//// 8//// 22200 0//// 2////
BBXX CGDR 08184 99545 71305 46/// /1922 10088 20075 40094 51009 7//// 8//// 22251 00133 2////
BBXX DGXS 08184 99486 71269 41/96 81050 10095 20086 40200 57041 70222 8//// 22265 00090 20605 325// 41007 5//// 80090
BBXX WCX8883 08184 99448 71346 41496 81931 10120 20100 40116 57034 75122 886// 22274 00090 20804 33019 41206 51206 6//// 80110 ICE /////
BBXX WDB9918 08184 99382 71247 43998 03613 10111 2//// 40176 54000 7//// 80/// 22273 00106 20804 3//// 40402 5//// 6//// ICE /////
BBXX LAHV 08181 99696 10190 43/// /2206 11005 21020 40132 222// 04049 1////
BBXX LDGJ 08181 99603 10053 43/// /1600 10006 21009 40172 5//// 222/0 04078 1//// 3//// 4//// 5////
BBXX LF4H 08184 99596 10022 46/// /1511 10066 20020 40159 57010 8//// 22200 06082 10804 70021 333 91113
BBXX LMEL 08181 99603 10053 43/// /1300 10000 20000 40168 5//// 222/0 04080 1//// 3//// 4//// 5////
AAXX 08181 48921 NIL
AAXX 08181 48924 NIL
AAXX 08181 48925 NIL
AAXX 08181 48926 NIL
AAXX 08181 48927 NIL
AAXX 08181 48928 NIL
AAXX 08181 48930 NIL
AAXX 08181 48935 NIL
AAXX 08181 48938 NIL
AAXX 08181 48940 31930 03601 10195 20156 39977 40177 52007 71044 333 59012
AAXX 08181 48941 NIL
AAXX 08181 48944 NIL
AAXX 08181 48945 NIL
AAXX 08181 48946 NIL
AAXX 08181 48947 NIL
AAXX 08181 48948 NIL
AAXX 08181 48952 NIL
AAXX 08181 48953 NIL
AAXX 08181 48955 31758 53603 10200 20152 30030 40150 57006 71044 82502 333 58000
AAXX 08181 48957 NIL
AAXX 08181 48820 32598 83201 10131 20094 30233 40241 58008 888// 333 59013 82895 88697
AAXX 08181 38353 425// 80000 11056 21078 39406 40355 58005 8455/ 333 11040
AAXX 08181 38613 429// 00101 11091 21136 40345 53013 333 11032
AAXX 08181 38616 415// 70000 11095 21111 39275 40362 58001 71022 87500 333 11041
AAXX 08181 38345 32998 00901 11125 21168 38846 48525 58010 333 11067
AAXX 08181 36911 429// 80000 11054 21079 39333 40345 58003 8663/ 333 11039
AAXX 08181 36974 329// 00901 11207 21232 38042 48625 53001 333 11135
AAXX 08181 36982 429// 00901 11255 21329 36517 47231 58001 333 58003
OOXX AABRI 08184 99839 51342 60134 05251 46/// /3204 11045 21232 39226 49842 5//// 91740
OOXX AAEMI 08184 99785 31731 57083 00521 46/// /2309 11052 21079 39779 49844 5//// 91750
AAXX 08181 26645 32997 71802 11014 21025 39858 40123 52007 8707/ 333 11002
AAXX 08181 26659 32963 21301 11040 21055 39922 40143 52005 80001 333 11002
AAXX 08181 26763 31/08 90601 11040 21045 39909 40144 52001 74942 333 11030 93503
AAXX 08181 26825 11235 81702 10000 21003 39925 40111 52011 60012 77172 8872/ 333 10001 88705
AAXX 08181 26832 11458 71201 11001 21016 39925 40122 52009 69932 71072 875// 333 10006 87618
AAXX 08181 26887 32497 80304 11010 21029 39908 40118 57005 886// 333 11004 88710
AAXX 08181 26961 31956 30000 11066 21076 39937 40138 52003 71011 80001 333 11006
AAXX 08181 33027 32997 70000 11055 21076 39963 40138 52007 80001 333 10011
OOXX AAPEG 08184 99779 31666 57186 00051 46/// /2406 11020 21039 39815 49821 5//// 91750
OOXX AAMIZ 08184 99707 30443 58304 22602 46/// /0909 11112 2//// 37350 49516 5//// 91740
OOXX AALAU 08184 99775 31708 57070 00371 46/// /2106 11042 21070 39767 49813 5//// 91750
AAXX 08181 13160 12997 13202 10040 20017 30044 40154 52013 69932 80001 333 10064
AAXX 08181 13262 11697 83402 10055 20019 30003 40153 52007 60042 72162 885// 333 10057
AAXX 08181 13272 11358 83404 10030 20017 30021 40143 52015 60052 76162 8672/ 333 10044 84708 85715 88457
AAXX 08181 13285 11595 82701 10003 21006 30029 40135 52008 60062 77177 8802/ 333 10006 4/004 93104
AAXX 08181 13289 11/90 93006 11037 21039 38886 48387 50005 60022 77377 333 11032 4/006 91014 91119 93103
AAXX 08181 13376 11697 83001 10021 20012 39879 40146 51003 69982 76166 885// 333 10030
AAXX 08181 13388 11594 80000 10002 21005 39884 40139 54000 60042 77177 8802/ 333 10023 4/005 93105
AAXX 08181 13462 32670 53401 10044 21025 30097 40138 52005 82532 333 10088 82640 83358
AAXX 08181 13473 NIL
AAXX 08181 13489 11495 80601 11011 21015 39612 40146 50000 69972 77177 887// 333 10011 4/010 93101
AAXX 08184 65501 32960 50000 10273 21011 39809 40128 80002 333 10316 59008 85076
AAXX 08184 65502 32960 70802 10286 21034 39733 40114 80002 333 10320 59009 87076
AAXX 08184 65503 32960 50404 10282 21013 39768 40116 80002 333 10325 59010 85076
AAXX 08184 65505 32965 40404 10301 20021 39772 40110 80002 333 10335 59003 84076
AAXX 08184 65507 32960 73602 10283 20040 39761 40112 80002 333 10329 59006 87076
AAXX 08184 65510 31958 50604 10298 20024 39591 40103 70622 80002 333 10330 59004 85076
AAXX 08184 65516 32965 50000 10303 20003 39792 40100 80002 333 10336 59014 85076
AAXX 08184 65518 32965 30000 10291 21025 39737 40104 80002 333 10333 59011 83076
AAXX 08184 65522 32960 70000 10317 20000 39771 40101 80002 333 10340 59007 87076
AAXX 08184 60106 32965 33205 10125 20085 40252 53004 80002 333 10167 83070
AAXX 08184 60318 32560 61006 10133 20099 40249 58005 84202 333 10176 84820 83070
AAXX 08184 13623 12970 40000 10058 21019 30121 40127 57008 60002 82014 333 10100 82460
AAXX 08181 26115 01427 80402 11011 21013 30107 40116 52011 60032 77172 8872/ 333 11011 21026 69977 88517 555 1/100 21026 3/103 51017
AAXX 08184 08001 12970 00608 10120 20083 30205 40287 53005 60002 333 10150 92437
AAXX 08184 08015 12565 40402 10090 20050 39904 40315 57004 60002 84400 333 10120
AAXX 08184 08023 12565 60205 10122 20071 30247 40319 54000 60002 868// 333 10140
AAXX 08184 08027 11160 83309 10098 20098 39996 40311 53002 60032 70265 887// 333 10108
AAXX 08184 08045 01970 02403 10091 20056 39970 40285 56002 69902 70240 333 10136 60007
AAXX 08184 08141 11/02 91803 10020 20020 39430 40320 53003 60002 74541 333 10040 89/03
AAXX 08184 08160 12684 12921 10112 20051 39959 40270 51005 60002 81500 333 10140
AAXX 08184 08181 02980 03104 10089 20027 30243 40249 50004 60002 333 10137 60007
AAXX 08184 08221 02980 03201 10074 21030 39574 40270 58003 60002 333 10156 60007
AAXX 08184 08231 12970 00103 10103 21041 39158 48561 58002 60002 333 10158
AAXX 08184 08261 12980 02502 10086 20030 39795 40284 56004 60002 333 10140
AAXX 08184 08284 02980 02802 10100 20056 30177 40254 50003 60002 333 10180 60007
AAXX 08184 08306 12570 12701 10106 20075 30246 40252 53002 60002 81101 333 10173
AAXX 08184 08314 02570 23104 10099 20073 30141 40246 55000 60002 81131 333 10157 60007
AAXX 08184 08430 12962 00000 10126 20066 30183 40258 55000 60002 333 10182
AAXX 08184 08482 12470 11501 10132 20096 30251 40260 56008 60002 81501 333 10170
BBXX BATUK01 08184 99604 70005 44/96 81915 10062 20027 40117 58024 725// 8//// 22212 00092
AAXX 08181 14015 42680 53401 10045 21020 39813 40166 52015 60002 82142 333 10093 82845
AAXX 08181 14023 12799 72403 10018 21012 39876 40178 52009 60002 81570 333 10086 81656
AAXX 08181 14024 12499 73504 10011 21076 39059 48449 52006 60002 81121 333 10027 81812 95000
AAXX 08181 14026 12998 73401 10014 21031 39848 40176 52008 60002 87070 333 10079
AAXX 08181 14031 12998 70201 10009 21028 39941 40176 52009 60002 84071 333 10080
AAXX 08181 14105 12999 21103 10025 20000 30166 40171 52010 60002 80002 333 10109
AAXX 08181 14106 12998 21101 10014 21001 30099 40170 53009 60002 82030 333 10108 95000
AAXX 08181 14121 12798 71901 10021 20006 39895 40167 52008 60002 83531 333 10070 83650
AAXX 08181 14122 12984 70000 10015 21011 39972 40174 52009 60002 82038 333 10089
AAXX 08184 16614 12860 42805 10004 21073 39347 40144 52012 60002 84040 333 10030 41998 90730 91112 555 10000 41016
AAXX 08184 16627 12560 80406 10040 20003 30110 40114 52004 60002 8317/ 333 10068 83830 88358 90730 91110 555 10000 40034 30000 10060 20060 30070 40076 50076 6//// 40000 47617 44250 50000 50026
AAXX 08184 16667 11460 83510 10090 20045 30080 40086 53007 69952 70262 8687/ 333 10110 82818 86625 88357 90730 91115 555 10000 40090 30000 20098 30102 40000 47590 44200 50000 50070 60000 60005 60200 70000 77/// 7R///
AAXX 08184 16675 17/// /9902 10026 21022 30112 40126 52015 69902 741// 333 10109 90730 91108 555 10000 40011 60000 65555 6////
AAXX 08184 16710 36/// /2205 10023 21045 39352 40137 52018 333 10078 90730 91112 555 10000 41034
AAXX 08184 16723 12460 83405 10090 20069 30059 40075 52012 60012 8687/ 333 10118 83818 85625 88358 90730 91110 555 10000 40082 40000 47577 44220 50000 50080 60000 60012 60225
AAXX 08184 16738 17/// /3406 10080 20026 39913 40114 52016 69902 741// 333 10116 90730 91115 555 10000 40080 60000 65555 60131
AAXX 08184 16746 12560 53020 10114 20027 39927 40109 53016 60002 85800 333 10122 82820 85630 90730 91134 555 10000 40070 40000 47475 44185 50000 50076
AAXX 08184 16643 12560 20000 10064 20003 30122 40127 52004 60002 82100 333 10112 90730 91106 555 10000 40026 40000 47621 44200 50000 50040
AAXX 08184 16648 12560 23104 10018 21023 30029 40120 58004 60002 81102 333 10084 90730 91109 555 10000 40000 30000 10050 2//// 30062 40052 5//// 6//// 40000 47552 44210 50000 50004
AAXX 08184 16650 11560 70708 10068 20035 30090 40094 52005 69902 70262 84560 333 10072 84620 87358 90730 91113 555 10000 40068 30000 10070 20072 30074 40076 50100 60116 40000 47598 44220 50000 50054 60000 65555 60030 70000 77/// 7R///
AAXX 08184 16684 11460 83212 10078 20020 30069 40096 53009 60062 70262 8767/ 333 10078 83712 87620 88358 90730 91124 555 10000 40068 40000 47582 44210 50000 50054 60000 60062 60500 70000 77/// 7R///
AAXX 08184 16732 11465 63317 10098 20054 30090 40102 52011 60142 70162 86800 333 10114 82818 86625 90730 91128 555 10000 40092 40000 47592 44150 50000 50078 60000 60136 60530 70000 77/// 7R///
AAXX 08181 26509 11497 81802 10032 20024 30071 40080 52011 60032 78082 889// 333 10046 91004 91108 555 53009
AAXX 08181 26518 11/02 91603 10008 20008 40090 52010 69932 75165 333 10010 91004 91105 96045 555 4/001 53008
AAXX 08181 26524 11295 81701 10007 20004 39965 40099 52013 60022 71072 886// 333 10007 88703 91003 91107 555 4/002 53008
AAXX 08181 26531 11456 81403 10005 20002 40109 52010 60032 76176 8872/ 333 10010 88710 91004 91105 555 4/997 53006
AAXX 08181 26629 11220 81702 10002 21001 30011 40108 52013 69982 72276 886// 333 10008 88705 91003 91107 555 4/001 53007
AAXX 08181 26633 11470 81502 10004 21013 39982 40115 51011 69902 70272 886// 333 10010 88711 91004 91106 555 4/001 53006
AAXX 08181 26730 11362 81703 11002 21011 39920 40115 52011 69932 77176 8802/ 333 10000 88509 91004 91105 555 42002 53009
AAXX 08181 14241 12982 61901 10015 21013 30035 40169 53008 60002 81046 333 10080
AAXX 08181 14284 12970 23003 10036 20008 30044 40154 52012 60012 82030 333 10067
AAXX 08181 14307 32970 30101 10033 20012 30092 40170 52011 80001 333 10124
AAXX 08181 14317 NIL
AAXX 08181 14431 12780 33402 10034 21034 30070 40166 53008 60002 81101 333 10133 81860
AAXX 08181 14444 32980 33603 10082 21046 30131 40160 52010 81042 333 10128
AAXX 08181 14474 12980 13408 10078 21052 39951 40143 53007 60002 81080 333 10116
AAXX 08181 26038 01418 80803 11032 21036 30092 40134 52007 60012 77372 8872/ 333 11032 21125 60017 88511 555 1/103 21125 3/122 51081 52101
AAXX 08181 26045 NIL
AAXX 08181 26058 NIL
AAXX 08181 26115 NIL
AAXX 08181 26135 NIL
AAXX 08181 26141 01257 81002 11023 21027 39987 40140 52006 69922 78587 889// 333 11023 21158 69937 88907 555 1/102 21158 3/117 51076 52105
AAXX 08181 26231 01123 80802 11001 21005 30105 40120 52010 60012 77172 8872/ 333 10002 21035 69977 88502 555 1/100 21035 3/103 51034
AAXX 08181 26242 01374 81203 11002 21022 30043 40132 52008 69922 70222 886// 333 10005 21016 60007 88710 555 1/100 21016 3/101 51012 52102
AAXX 08181 26247 NIL
AAXX 08183 04013 21260 82013 10014 21006 49824 52008 76876 83620 333 10055 20014 60058 555 3//13
AAXX 08183 04064 22680 53205 10040 20014 49863 57001 82232 333 10043 20016 60148 555 3//09
AAXX 08184 04005 22489 61803 10031 21038 49790 54000 86800 333 10069 20028 60018 555 3/209
AAXX 08184 04018 21365 52116 10009 21005 49846 51001 72681 84360 333 10063 20009 60088 555 3//26 82909 83630 85357
AAXX 08184 04030 21465 51906 10009 21002 49853 53005 71521 84930 333 10065 20009 60108 555 3//14 82914 84836 85356
AAXX 08184 04048 NIL
AAXX 08184 04063 22582 81705 10050 20003 49801 57008 70162 8652/ 333 10075 20033 69918 555 3//12
AAXX 08184 04077 NIL
AAXX 08184 04082 21460 82013 10057 20052 49841 57016 72155 8462/ 333 10064 20040 60238 555 3//13 84713 87460
AAXX 08184 04097 21584 81817 10060 20049 49814 57056 71586 883// 333 10064 20029 60138 555 3/429
AAXX 08181 33791 11219 83503 10057 20055 39919 40069 52006 60062 76164 8772/ 333 10061 87704
AAXX 08181 33924 11394 83602 10074 20070 30047 40059 54000 69952 71052 886// 333 10099 88607
AAXX 08184 17022 11550 82205 10059 20052 39932 40099 52023 60152 76166 8552/ 333 10089 85625 88458 91115 92426
AAXX 08184 17031 12670 61706 10142 21008 30057 40063 52006 60002 83250 333 10177 83836 86360
AAXX 08184 17038 12970 52010 10165 21050 30031 40081 55002 60002 85050 333 10183 85360 92428
AAXX 08184 17050 11670 83302 10031 20012 30054 40118 51004 69922 72262 8552/ 333 10053 85635 88460 91109
AAXX 08184 17060 11458 73609 10047 20029 30069 40110 50002 60022 78082 86270 333 10055 82713 85830 87358
AAXX 08184 17096 12560 71004 11037 21050 38190 48463 50000 60002 84550 333 10027 84630 87358
AAXX 08184 17124 11560 72806 10025 20007 39166 40089 51007 60012 70262 84530 333 10061 82721 84635 86360
AAXX 08184 17128 11458 70304 10028 20024 38989 40091 52009 60022 71062 84550 333 10051 81715 84635 87360
AAXX 08184 17170 11556 73504 10006 21010 38293 48468 52009 69902 77072 85570 333 10055 85630 87358 93100 96010
AAXX 08184 17195 12670 70302 10037 21009 38890 48419 52012 60002 84470 333 10090 84640 87360
AAXX 08184 17199 12670 72403 10043 20005 39044 40149 52003 60002 84570 333 10084 84635 87360
AAXX 08184 17219 11548 70111 10064 20052 39928 40073 53008 60132 78082 84250 333 10105 84828 87359 96010
AAXX 08184 17240 12570 50905 10038 20001 38927 40085 58001 60002 83530 333 10064 83630 85360 91113
AAXX 08184 17244 12670 52301 10022 20009 38896 48399 50003 60002 83550 333 10088 83635 85359
AAXX 08184 17280 11656 60803 10047 20037 39368 40176 52010 69902 71062 84550 333 10064 84640 86360
AAXX 08184 17350 11560 70311 10084 20078 30033 40112 57005 60222 78082 85250 333 10096 85830 87360
AAXX 08184 17024 12665 82710 10096 20084 39986 40062 52011 60002 8452/ 333 10153 84635 88460 91120 92437
AAXX 08184 17056 11565 83202 10041 20040 30113 40117 52002 60012 76022 8552/ 333 10052 85630 88457 91107 92417
AAXX 08184 17067 11560 72902 10048 20038 30088 40111 52008 60042 78088 87200 333 10075 87830 91109 92407
AAXX 08184 17092 12660 61606 10028 21022 38810 48445 54000 60002 84550 333 10073 84638 86359
AAXX 08184 17112 12670 80406 10053 20032 30106 40108 52006 60002 8551/ 333 10061 85635 88460 91113 92418
AAXX 08184 17115 11460 70210 10048 20033 30053 40105 55000 60022 78088 85270 333 10051 82710 84835 87360
AAXX 08184 17116 11662 60601 10048 20041 39986 40109 50000 60052 70282 84250 333 10058 84835 86360 91106
AAXX 08184 17188 11660 80302 10033 20020 39010 40078 56002 60022 70262 8552/ 333 10040 85635 88460 91106
AAXX 08184 17202 12670 60805 10057 20001 39126 40154 51003 60002 84550 333 10076 84635 86360
AAXX 08184 17248 11665 62901 10023 20012 38894 48408 51002 60012 70162 83550 333 10057 83640 86360
AAXX 08184 17292 11670 70901 10043 20042 39319 40084 56001 60012 70182 84270 333 10091 84835 87360 91106
AAXX 08184 17300 11460 60102 10099 20080 30004 40075 50001 60042 72582 86900 333 10126 81915 85825
AAXX 08184 17310 11560 70301 10102 20067 30086 40093 53010 60202 79582 85950 333 10125 82925 84833 87359 91109 92447
AAXX 08184 17330 11670 73102 10110 20063 30089 40107 52004 60072 70282 84270 333 10123 84836 87359
AAXX 08184 17042 12670 71112 10162 21048 30052 40091 52004 60002 84250 333 10180 84835 87360 92438
AAXX 08184 17074 12563 62202 10033 20004 39140 40077 52009 60002 84520 333 10083 84629 86459 91104
AAXX 08184 17086 12670 72007 10100 21021 39370 40074 52014 60002 85550 333 10117 85635 87360
AAXX 08184 17088 12670 81205 10048 21048 38736 48440 53002 60002 8452/ 333 10077 84640 88460
AAXX 08184 17140 11665 82105 10024 20002 38613 48405 52006 60022 72162 8552/ 333 10058 85638 88459
AAXX 08184 17155 12670 72901 10023 20010 38961 40087 50005 60002 85550 333 10051 85635 87359 91109
AAXX 08184 17203 11658 80000 10005 20000 38857 48506 52005 60052 76872 8552/ 333 10028 85633 88457 93100
AAXX 08184 17237 11660 82801 10069 20057 39569 40075 51005 60012 76082 8552/ 333 10106 85635 88458 91104
AAXX 08184 17250 11675 60403 10027 20012 38721 48418 53001 69942 70162 83550 333 10082 83640 86360
AAXX 08184 17270 11660 71201 10067 20036 39509 40165 52009 69972 76022 85520 333 10090 85635 87459
AAXX 08184 17295 11558 73205 10096 20079 30082 40089 53004 60052 78098 85970 333 10145 81920 84825 87358
AAXX 08184 17320 11660 73203 10092 20080 30098 40103 52008 60142 78188 85270 333 10112 85833 87358 92437
AAXX 08184 17375 11570 70701 10103 20103 30079 40081 52004 60172 72582 84270 333 10154 84831 87360 91109 92438
AAXX 08184 17026 12670 61703 10128 20034 30017 40055 50001 60002 82256 333 10144 82833 85360 85270 91109 92428
AAXX 08184 17034 12970 63204 10157 21026 30031 40076 53004 60002 84038 333 10178 84360 86270 92428
AAXX 08184 17070 11558 82302 10024 20015 39220 40090 52010 60022 76062 8552/ 333 10079 85630 88458 91113
AAXX 08184 17084 12670 82203 10052 20014 39192 40101 52016 60002 8552/ 333 10094 85635 88460 91120
AAXX 08184 17090 11558 81404 10023 21007 38657 48433 52006 69922 76022 8552/ 333 10046 85630 88459
AAXX 08184 17098 12660 53104 11125 21125 38162 48486 55001 60002 85500 333 11049 85640
AAXX 08184 17150 12460 70108 10048 20026 39974 40099 50002 60012 85550 333 10064 82715 85635 86360
AAXX 08184 17160 12670 60501 10028 20012 38934 48410 53006 69922 84570 333 10073 84640 86360 91122
AAXX 08184 17184 11660 83404 10052 20045 39973 40086 52004 60032 76062 8452/ 333 10098 84635 88459 91110
AAXX 08184 17189 12660 71702 10009 21007 38919 48389 51003 69922 84550 333 10070 84635 87360
AAXX 08184 17210 11640 63201 10055 20028 39132 40181 52011 69902 71062 82170 333 10099 82840 86360
AAXX 08184 17234 11660 71001 10088 20072 30005 40073 53003 60012 78082 84270 333 10115 84838 87358 91108
AAXX 08184 17260 11360 81106 10062 20056 39321 40146 50005 60022 72162 8672/ 333 10069 83707 85625 88459
AAXX 08184 17290 11670 73603 10095 20081 30046 40078 52003 60032 78082 84270 333 10128 84835 87360 91114 92418
AAXX 08184 17370 11665 70105 10126 20085 30110 40114 57006 60092 72582 84270 333 10151 84835 87460 92427
AAXX 08184 17500 NIL
AAXX 08184 17501 12560 40000 10129 20069 30078 40097 52012 69922 84200 333 10156 82825 83830 92437
AAXX 08184 17505 11560 40704 10113 20077 39994 40108 52010 60012 70281 84200 333 10152 81825 83830
AAXX 08184 17507 NIL
AAXX 08184 17510 12560 42203 10125 20087 30094 40106 5//// 69942 84200 333 10174 81825 83830 92427
AAXX 08184 17515 11560 40000 10085 20065 39942 40120 52012 60012 70281 84200 333 10152 81825 83830
AAXX 08184 17521 11560 22804 10093 20076 39958 40096 52012 60012 70281 82130 333 10144 82825
AAXX 08184 17530 11560 40000 10076 20061 30051 40109 52009 60012 70281 84200 333 10154 81825 83830
AAXX 08184 17535 11560 43503 10086 20070 30050 40087 53006 60012 70281 84200 333 10155 81825 83830
AAXX 08184 17540 11560 40000 10135 20101 30093 40117 52009 60042 84200 333 10168 84825 92417
AAXX 08184 17547 11560 42008 10115 20096 39857 40106 52010 60002 84200 333 10152 84825 92417
AAXX 08184 17550 11560 41605 10110 20085 39951 40096 52009 60022 70281 84200 333 10150 81825 83830 92437
AAXX 08184 17572 NIL
AAXX 08181 01281 16/// ///// 1//// 2//// 30000 40186 51017 69972
AAXX 08181 12120 11463 73403 10036 20030 30109 40116 51021 60012 78082 873// 333 10052 20032 91108 93093
AAXX 08181 12250 11456 72602 10034 20033 30027 40117 52015 69902 71082 875// 333 10049 20031 93097
AAXX 08181 12295 11109 81701 10002 20002 39924 40112 51012 60022 75174 886// 333 10004 21003 88702 93094
AAXX 08181 12330 11256 72703 10042 20039 30020 40129 52015 60012 71082 875// 333 10053 20042 83705 86630 93001
AAXX 08181 12375 11256 72401 10038 20034 39986 40118 52013 69962 71082 876// 333 10048 20028 87705 93096
AAXX 08181 12424 11482 72904 10036 20023 39989 40144 52014 60012 70386 878// 333 10049 20036 83813 93001
AAXX 08184 78384 12460 40815 10266 20219 40187 60001 84400 333 10283 20226 58006 70000 84818 90908
AAXX 08184 78383 12460 20610 10276 20209 40190 60001 82200 333 10295 20235 58008 70000 82816
AAXX 08181 12160 11470 73104 10033 20015 30053 40106 51018 69922 70282 875// 333 10050 20027 93097
AAXX 08181 12205 11465 73003 10051 20044 30126 40134 51024 60022 72582 873// 333 10060 20048 93002
AAXX 08181 12465 11456 72402 10027 20024 39891 40128 51013 69962 71082 875// 333 10042 20027 84610 93093
AAXX 08181 12566 11758 82603 10023 20017 39844 40143 51014 69902 71062 875// 333 10037 20012 93097
AAXX 08181 12105 11584 73504 10032 20012 30090 40133 52029 60012 70185 875// 333 10051 20032 91108 93001
AAXX 08181 12195 11104 81901 10005 20005 39876 40108 51012 69952 74275 886// 333 10007 20001 93093
AAXX 08181 12235 11574 63404 10029 20028 39906 40119 52020 60022 72582 865// 333 10046 20029 93002
AAXX 08181 12270 11456 72503 10035 20034 39926 40110 52011 69902 71082 873// 333 10045 20029 93097
AAXX 08181 12280 11459 72103 10025 20022 39945 40104 51011 69942 71082 875// 333 10038 20009 93097
AAXX 08181 12300 11360 83403 10045 20041 30042 40133 52020 60012 70386 885// 333 10048 20040 93095
AAXX 08181 12400 11558 72803 10037 20033 39901 40139 51017 69972 72582 875// 333 10040 20032 91110 93095
AAXX 08181 12435 11560 82503 10037 20027 39959 40133 53015 69932 72582 875// 333 10048 20034 93093
AAXX 08181 12495 11650 82702 10018 20017 39828 40125 51016 60032 71064 885// 333 10021 21008 93097
AAXX 08181 12530 11535 82902 10032 20029 39942 40144 53013 60012 78082 889// 333 10041 20031 93001
AAXX 08181 12570 11228 82702 10024 20021 39811 40134 52015 69972 78085 889// 333 10036 20003 87705 88910 93096
AAXX 08181 12580 11430 82603 10014 20014 39867 40131 52013 60032 71052 885// 333 10026 21006 88615 93097
AAXX 08184 06011 07346 72419 10101 20090 39925 49992 57031 60252 75265 333 10103 20030 55300 20000 60117 81/08 85/10 87/13 91031 91133
OOXX AAERI 08184 99849 51288 60048 09901 46/// /0105 11078 21100 38749 49864 5//// 91740
OOXX AAVIT 08184 99785 31778 57087 00501 46/// /2411 11050 21080 39747 49809 5//// 91750
OOXX AAERC 08184 99815 31639 60713 00451 46/// /1804 11042 21086 39770 49826 5//// 91740
AAXX 08184 78384 12460 40815 10266 20219 40187 60001 84400 333 10283 20226 58006 70000 84818 90908
AAXX 08184 78383 12460 20610 10276 20209 40190 60001 82200 333 10295 20235 58008 70000 82816
AAXX 08184 08055 12980 00204 10006 21004 39229 48569 56002 60002 333 10042 95000
AAXX 08184 08075 12475 40515 10046 20021 39253 48580 50000 60002 84500 333 10076
AAXX 08184 08084 02670 72708 10103 20042 39870 40308 53005 60002 87500 333 10125 60007
AAXX 08184 08171 12984 00701 10086 20050 30015 40259 56002 60002 333 10144
AAXX 08184 08184 06/// /0000 10085 20049 30081 40239 53002 60002 333 10156 60007
AAXX 08184 08202 01/01 90904 10016 20012 39362 42891 58001 60002 74742 333 10037 60007
AAXX 08184 08235 NIL
AAXX 08184 08238 11758 11406 10118 20068 30182 40243 54000 60002 71000 81400 333 10127
AAXX 08184 08280 12980 00000 10062 20013 39431 40270 55004 60002 333 10134
AAXX 08184 08330 12980 00802 10103 20001 30027 40261 54000 60002 333 10171
AAXX 08184 08348 12963 00000 10078 20047 39528 40277 55001 60002 333 10130
AAXX 08184 08360 02970 00000 10097 20059 30217 40255 52005 60002 333 10173 60007
AAXX 08184 08373 02970 13502 10103 20081 30230 40252 58003 69902 81100 333 10162 60007
AAXX 08184 08410 02980 /0602 10128 20045 30138 40249 55001 60002 333 10181 60007
AAXX 08184 08419 02980 02205 10088 20030 39575 40253 53001 60002 333 10176 60007
AAXX 08184 08451 02981 12102 10146 20097 30212 40245 53004 60002 80001 333 10207 60007
AAXX 08184 08487 06/// /3303 10127 20082 30226 40252 53002 60002 333 10181 60007
BBXX 61002 08184 99421 10047 46/// ///30 10131 2//// 40224 52006 22200 00133 10705 70027 555 1/037
AAXX 08181 13168 11697 83203 10043 20039 30036 40144 51013 60082 76166 885// 333 10050
AAXX 08181 13174 11696 83602 10014 20007 30037 40140 52013 60032 76162 885// 333 10029 93197
AAXX 08181 13269 11597 82703 10014 20009 39935 40155 52013 60092 76366 8802/ 333 10030 93197
AAXX 08181 13274 11696 83403 10026 20015 39980 40144 52014 60082 76176 888// 333 10041 93197
AAXX 08181 13278 11597 83202 10026 20002 39913 40142 53004 69992 75066 885// 333 10038
AAXX 08181 13378 11/93 93203 11067 21076 38172 48391 51002 60052 77377 333 11060 4/041 93107
AAXX 08181 13397 11495 83001 11006 21009 39585 40136 51001 69982 77172 8372/ 333 10030 4/013 93101
AAXX 08181 13457 32970 20203 10097 21042 30131 40138 52010 82030 333 10133 82360
AAXX 08181 13481 NIL
AAXX 08184 60621 36/// /0411 10146 21080 333 10185
AAXX 08181 13173 11595 83602 10022 20015 30040 40142 52014 60062 76366 8802/ 333 10043
AAXX 08181 13180 11597 83203 10002 21001 30024 40138 52012 60052 77062 8802/ 333 10021
AAXX 08181 13266 11697 83103 10045 20034 30044 40147 52009 60092 76062 885// 333 10050
AAXX 08181 13369 11496 82904 11021 21029 38922 48400 51007 60022 77372 8802/ 333 11011 4/030 93103
AAXX 08181 13383 11697 82503 10022 20015 39927 40135 51001 69972 76166 885// 333 10026
AAXX 08181 13384 11595 80000 10002 21002 39984 40140 53002 60062 77177 8802/ 333 10008 4/003 93103
AAXX 08181 13389 11596 80000 10004 21002 39848 40137 54000 60012 77177 8802/ 333 10028 4/001 93101
AAXX 08181 13477 NIL
AAXX 08184 60619 36/// /0313 10098 21070 333 10141
AAXX 08184 60645 36/// /0000 10159 21088 333 10196
AAXX 08184 60612 36/// /0607 10126 21084 333 10169
AAXX 08181 15501 11970 82702 10025 20022 30060 40105 54000 69942 70262 8802/ 333 10060 20003 555 59800 69499
AAXX 08181 15505 11565 81401 10006 20001 39740 40120 52005 69942 77172 8802/ 333 10045 21007 43014 555 59600 65399 71850
AAXX 08181 15511 12970 82304 10032 20014 30086 40126 53002 60002 8802/ 333 10057 20006 555 588//
AAXX 08181 15514 12970 82905 10034 20005 30070 40106 52006 60002 8802/ 333 10056 20020 555 581//
AAXX 08181 15530 12663 80000 10014 21014 39879 40122 51002 60002 8652/ 333 10031 20003 42001 555 582//
AAXX 08181 15533 12970 52701 10018 21004 30041 40073 58004 60002 80001 333 10034 20012 555 585//
AAXX 08181 15550 12565 72701 10021 20002 30086 40106 52009 60002 87500 333 10030 20018 555 587//
AAXX 08181 15561 12475 82904 10030 21003 30086 40093 52019 60002 886// 222// 00078 2//01 333 10055 20022 555 579// 92024 92428
AAXX 08181 15562 12481 82906 10032 20006 30029 40102 52006 60002 885// 222// 2//02 333 10044 20018 555 583// 92034 92438
AAXX 08181 15600 11/00 93206 11078 21088 38193 48408 52002 69962 77174 333 11068 21104 49035 555 593// 65499 92712
AAXX 08181 15601 11570 80000 11002 21039 39485 40117 53004 60002 77172 8802/ 333 10038 21025 41/// 555 573// 65399
AAXX 08181 15605 11666 82902 11019 21022 39266 40130 52004 69932 77182 8802/ 333 11002 21041 48023 555 59800 69999 71851
AAXX 08181 15613 11/00 93210 11117 21122 37582 47903 52001 69942 77174 333 11102 21130 48068 555 596// 67199 71800 92711
AAXX 08181 15628 12980 82502 10013 21031 39858 40120 52005 60002 81047 333 10038 20008 555 572//
AAXX 08181 15635 12665 83201 11004 21022 39887 40103 52002 60002 886// 333 10016 21004 43005 555 588//
AAXX 08181 15642 12680 80000 10030 21002 39943 40113 52010 60002 885// 333 10048 20024 555 579//
AAXX 08181 15661 12570 82703 10036 20004 30068 40104 52005 60022 885// 222// 20401 333 10038 20016 555 580// 92022 92428
AAXX 08181 15726 11330 73502 11096 21112 38146 48241 52005 60012 70174 84670 333 11046 21096 49095 555 58800 69454 71851
AAXX 08184 60663 36/// /1702 10161 21074 333 10210
AAXX 08184 71604 16/// /3016 11033 21033 60001 333 10005 21051 70024 555 10050
AAXX 08184 71605 17/// /3605 10056 20056 30115 40267 53003 60051 7//4/ 333 10056 20026 70215
AAXX 08184 71611 NIL
AAXX 08184 71612 NIL
AAXX 08184 71614 NIL
AAXX 08184 71616 16/// /2907 11083 21105 30108 40232 53005 60001 333 11046 21095 70030
AAXX 08184 71617 16/// /2708 11128 21164 30055 40234 53001 60001 333 11121 21145 70010
AAXX 08184 71618 15666 62321 11140 21154 39909 49947 58049 60001 333 11140 21256 70000
AAXX 08184 71619 NIL
AAXX 08184 71622 NIL
AAXX 08184 71632 46/// /2311 11057 21065 39495 49935 56053 6///1 333 11057 21255 7//// 555 10030
AAXX 08184 71634 16/// /3004 11047 21086 30010 40167 53013 60001 333 11041 21088 70035 555 10030
AAXX 08184 71638 16/// /1305 10067 20041 30149 40255 51006 60001 333 10069 20034 70029
AAXX 08184 71639 11574 13005 11026 21108 30019 40267 58004 69901 70288 81500 333 11008 21060 79999 90961
AAXX 08184 71642 11466 81805 11096 21110 39659 40228 58019 69981 77177 885// 333 11096 21229 44040 70012 90973
AAXX 08184 71893 11380 71422 10068 20050 30205 40237 58005 69901 76166 86770 333 10068 20041 70008 90973
AAXX 08184 71894 NIL
AAXX 08184 71896 15866 81915 10025 21011 39323 40156 53015 60001 333 10026 21027 70005
AAXX 08184 71897 11266 81430 10070 20062 3//// 4//// 54000 60211 761XX 8882X 333 10076 20042 70254 90955
AAXX 08184 71898 160// ///// 10081 53019 60001 333 10090 20051 70010
AAXX 08184 71899 11369 82214 10054 20047 3//// 4//// 52023 60021 72582 83277 333 10076 20044 70114 90917
AAXX 08184 71902 12974 02929 11223 21333 30134 40143 50001 60001 333 11200 21234 47050 79999
AAXX 08184 71905 NIL
AAXX 08184 71906 NIL
AAXX 08184 71907 17927 00000 11208 21250 30083 40117 56038 69951 7//44 333 11208 21336 70005
AAXX 08184 71909 16958 00000 11300 21345 39998 40044 56015 60001 333 11299 21357 70000
AAXX 08184 71910 47008 90506 11263 21302 39924 49989 58024 6///1 745// 333 11261 21325 7////
AAXX 08184 71911 46020 00211 11378 39960 40020 52017 6///1 333 11343 21390 7////
AAXX 08184 71912 11266 82016 11102 21113 39831 40019 58062 69901 77111 886// 333 11101 21235 48020 79999 90942
AAXX 08184 71915 11348 80814 11260 21310 39854 49938 58035 60011 77177 886// 333 11260 21393 48043 70010 90983 93101
AAXX 08184 71917 11974 11403 11434 21467 39998 40013 57008 69901 77677 81070 333 11400 21440 48015 79999 90983
AAXX 08184 71922 11574 32516 10013 21024 39524 49990 56011 69901 70176 83500 333 10013 21152 47040 70040 90921
AAXX 08184 71924 11974 03208 11336 21379 39951 40045 51009 69901 77670 333 11297 21361 48038 79999 90962
AAXX 08184 71925 11669 10409 11369 21409 30003 40046 52018 69901 77677 81530 333 11319 21369 44018 79999 90983
AAXX 08184 71926 11456 83621 11257 21313 39912 49937 50001 69921 77177 885// 333 11234 21360 48043 70002 90983
AAXX 08184 71928 16/// /2303 10066 21045 38961 40123 52015 60001 333 10070 21096 70000
AAXX 08184 71043 11583 70000 11200 21251 39842 49937 53007 69901 72277 87500 333 11195 21263 48035 79999 90973
AAXX 08184 71045 16/// /1507 10004 21051 39080 49921 51010 60001 333 10020 21048 70006
AAXX 08184 71050 NIL
AAXX 08184 71051 NIL
AAXX 08184 71052 NIL
AAXX 08184 71066 12974 00000 11132 21160 39550 49974 53017 60001 333 11105 21227 70000
AAXX 08184 71068 12974 72413 10041 21013 39356 40041 53016 60001 86071 333 10053 21045 70000
AAXX 08184 71069 16964 02822 10076 20001 39350 40046 51006 60001 333 10082 21068 70000
AAXX 08184 71076 NIL
AAXX 08184 71077 NIL
AAXX 08184 71079 11374 81811 11081 21084 39716 40003 56067 69901 73672 8662/ 333 11081 21264 48017 79999 90923
AAXX 08184 71081 46964 03307 11435 21452 39983 49996 51009 6///1 333 11376 21435 7////
AAXX 08184 71082 NIL
AAXX 08184 71083 11574 83303 11225 21260 39849 49892 57022 69921 77177 885// 333 11223 21353 48060 70002 90983
AAXX 08184 71090 46964 02606 11306 21352 39939 49975 51007 6///1 333 11278 21324 7////
AAXX 08184 71091 460// /0709 11410 39784 40007 51006 6///1 333 7////
AAXX 08184 71092 46964 02804 11383 39293 49996 52004 6///1 333 11353 21384 7////
AAXX 08184 71093 460// ///// 11323 39448 49964 52004 6///1 333 11287 21333 7////
AAXX 08184 71094 46011 /0209 11299 38989 49907 55002 6///1 333 11232 21299 7////
AAXX 08184 71095 46964 01805 11344 21385 39913 49997 5/003 6///1 333 7////
AAXX 08184 71101 160// /1507 30088 52015 60001 333 70000
AAXX 08184 71104 12674 71408 10019 21017 39070 40187 53003 60001 81570 333 10019 21054 70028
AAXX 08184 71108 12182 80105 10046 20038 30200 40274 55002 60001 8657/ 333 10046 20024 70036
AAXX 08184 71109 11366 81215 10069 20047 30142 40169 55000 60171 76166 885// 333 10069 20043 70804 90983
AAXX 08184 71726 17/// /2904 11138 21185 39673 40237 55001 60011 7//4/ 333 11137 21176 70014
AAXX 08184 71727 12482 32810 11123 21167 30019 40224 53001 60001 83500 333 11116 21144 70010
AAXX 08184 71728 12686 13208 11133 21174 39998 40229 58002 60001 81500 333 11132 21152 70018
AAXX 08184 71730 NIL
AAXX 08184 71731 12674 82306 11127 21159 39794 40266 58004 60001 8357/ 333 11122 21177 70004
AAXX 08184 71735 NIL
AAXX 08184 71738 11/06 90000 11080 21095 39849 40216 58017 60031 77377 333 11080 21167 47034 70030 90973 93114
AAXX 08184 71739 41566 81608 11139 21176 39861 40242 58017 6//// 77177 88500 333 11138 21191 4//// 7//// 90973
AAXX 08184 71749 16564 82811 11047 21085 39981 40234 58003 60001 333 21086 70005
AAXX 08184 71799 12483 81305 10073 20054 30243 40267 53006 60001 885// 333 10073 20048 70020
AAXX 08184 71800 16/// /2624 10032 20032 30024 40057 53009 60001 333 10060 21007 7////
AAXX 08184 71801 11269 82721 10036 20030 39864 40036 53016 69921 70254 886// 333 10068 21035 70012 90941
AAXX 08184 71803 11232 63115 11008 21021 39860 40047 53027 69981 78576 86500 333 11006 21073 44011 70036 90917
AAXX 08184 71807 16/// /2619 10030 20025 30045 40063 53022 60001 333 10080 21010 70006
AAXX 08184 71808 11974 60209 11104 21147 30045 40093 53004 69951 70372 82079 333 11104 21200 48037 70020 90942
AAXX 08184 71809 11466 72105 11022 21039 30049 40077 52012 69981 77187 87500 333 11014 21066 48063 70204 90927 93101
AAXX 08184 71810 16/// /0307 11096 21129 30085 40153 53014 60001 333 11089 21108 70017
AAXX 08184 71811 NIL
AAXX 08184 71813 16/// /3611 11123 21173 30121 40135 53014 60001 333 11118 21148 70008
AAXX 08184 71814 16/// /3611 11108 21159 30105 40115 53007 60001 333 11105 21173 70006
AAXX 08184 71815 11469 73209 11007 21013 30049 40080 53014 60041 78588 87500 333 11002 21041 47037 70128 90983 93104
AAXX 08184 71500 NIL
AAXX 08184 71501 NIL
AAXX 08184 71502 NIL
AAXX 08184 71503 NIL
AAXX 08184 71504 NIL
AAXX 08184 71505 16/// /0404 11003 21017 39144 49849 53010 60001 333 10036 21057 7////
AAXX 08184 71506 NIL
AAXX 08184 71507 NIL
AAXX 08184 71508 17/// ///// 11004 21072 30131 40272 58004 69971 7//4/ 333 10013 21035 70007
AAXX 08184 71509 NIL
AAXX 08184 71511 16/// /2311 11003 21057 39458 40100 56021 60001 333 11003 21091 70000
AAXX 08184 71512 16/// /0202 11102 21132 30148 40163 53012 60001 333 11100 21134 70012
AAXX 08184 71513 15666 83612 11122 21176 30123 40139 53014 60001 333 11118 21149 70003
AAXX 08184 71514 NIL
AAXX 08184 71515 16/// /2212 11022 21064 39425 40134 58015 60001 333 11022 21105 70000
AAXX 08184 71516 16/// /2215 10000 21071 60001 333 10000 21099 70007
AAXX 08184 71517 NIL
AAXX 08184 71518 NIL
AAXX 08184 71519 NIL
AAXX 08184 71520 NIL
AAXX 08184 71521 NIL
AAXX 08184 71522 NIL
AAXX 08184 71523 NIL
AAXX 08184 71524 NIL
AAXX 08184 71525 NIL
AAXX 08184 71526 NIL
AAXX 08184 71527 15366 82110 11066 21077 39687 40207 58017 60001 333 11066 21101 70000
AAXX 08184 71528 NIL
AAXX 08184 71529 46/// /0805 11123 21143 39692 49920 53009 6///1 333 11123 21223 7////
AAXX 08184 71532 15966 81902 11073 21127 39909 40266 58006 60001 333 11072 21141 70010
AAXX 08184 71534 16964 01502 11050 21090 39987 40266 58007 60001 333 11032 21099 70005
AAXX 08184 71535 NIL
AAXX 08184 71536 NIL
AAXX 08184 71537 NIL
AAXX 08184 71539 NIL
AAXX 08184 71540 NIL
AAXX 08184 71541 NIL
AAXX 08184 71542 16/// /2517 10051 21015 60001 333 10051 21203 70000
AAXX 08184 71543 NIL
AAXX 08184 71544 NIL
AAXX 08184 71545 16/// ///// 10062 21019 60001 333 10062 21049 70000
AAXX 08184 71546 NIL
AAXX 08184 71547 NIL
AAXX 08184 71548 NIL
AAXX 08184 71549 NIL
AAXX 08184 71397 12574 52710 10026 21028 30126 40161 53002 60001 85570 333 10045 20006 70000
AAXX 08184 71400 17/64 /3203 11015 21023 69961 7//4/ 333 11015 21088 70060
AAXX 08184 71403 46/// /3107 10034 20005 30122 40142 53011 6///1 333 10046 20031 7////
AAXX 08184 71411 16/// /3208 10064 20003 30146 40158 55001 60001 333 10067 20008 70000
AAXX 08184 71412 16/// /3014 11007 21018 30122 40132 53023 60001 333 10025 21007 70003
AAXX 08184 71421 NIL
AAXX 08184 71430 16/// /3207 11027 21103 30158 40257 51003 60001 333 10020 21046 70000
AAXX 08184 71431 16/// /3207 11036 21116 30158 40256 58001 60001 333 10007 21068 70000
AAXX 08184 71432 NIL
AAXX 08184 71433 NIL
AAXX 08184 71435 NIL
AAXX 08184 71441 NIL
AAXX 08184 71443 16/// /2311 11019 21067 39678 40096 58029 60001 333 11019 21174 70000
AAXX 08184 71444 16/// /2203 11048 21060 39376 40144 58015 60001 333 11048 21152 70000
AAXX 08184 71447 NIL
AAXX 08184 71467 16/// /1903 11210 21229 39853 49969 51009 60001 333 11207 21241 70000
AAXX 08184 71472 NIL
AAXX 08184 71474 16764 32105 11013 21035 38971 40225 53004 60001 333 11006 21053 70000
AAXX 08184 71510 NIL
AAXX 08184 71538 12574 50000 10030 21061 30041 40276 56004 60001 82501 333 10037 21024 70000
AAXX 08184 71600 16564 83014 10062 20034 30130 40136 53006 60001 333 10081 20053 70000
AAXX 08184 71601 NIL
AAXX 08184 71950 15766 11109 10040 20010 39467 40093 53016 60001 333 10043 21015 70018
AAXX 08184 71952 16/// /1002 10033 21003 39266 40114 53011 60001 333 10043 21020 70000
AAXX 08184 71954 46/// /2210 11033 21038 39620 49997 56058 6///1 333 11033 21143 7////
AAXX 08184 71956 NIL
AAXX 08184 71959 NIL
AAXX 08184 71960 460// /0514 11229 39821 49957 58008 6///1 333 11229 21288 7////
AAXX 08184 71962 17/// /2007 11014 21063 39787 40217 58014 60411 7//4/ 333 11014 21071 70411
AAXX 08184 71963 NIL
AAXX 08184 71967 16/// /2805 11070 21108 30133 40241 53007 60001 333 11004 21079 70014
AAXX 08184 71970 NIL
AAXX 08184 71971 NIL
AAXX 08184 71972 460// /2416 11246 39587 40069 52001 6///1 333 11224 21271 7////
AAXX 08184 71973 46/// /2902 11016 21031 39890 40079 53015 6///1 333 11015 21054 7////
AAXX 08184 71974 NIL
AAXX 08184 71975 460// /2725 11351 39196 49954 51003 6///1 333 11273 21351 7////
AAXX 08184 71976 NIL
AAXX 08184 71977 NIL
AAXX 08184 71978 NIL
AAXX 08184 71979 NIL
AAXX 08184 71980 46/// ///// 11162 21182 6///1 333 11162 21268 7//// 555 10010
AAXX 08184 71981 NIL
AAXX 08184 71982 NIL
AAXX 08184 71983 NIL
AAXX 08184 71984 16/// /2203 11236 21259 39942 49950 55003 60001 333 11235 21264 70000
AAXX 08184 71985 NIL
AAXX 08184 71986 NIL
AAXX 08184 71987 16/// /3117 11026 21037 30133 40143 53016 60001 333 11012 21030 70006
AAXX 08184 71988 NIL
AAXX 08184 71989 16/// /1908 11254 21279 39997 40014 55001 60001 333 11218 21268 70000 555 10010
AAXX 08184 71990 NIL
AAXX 08184 71999 46/// ///// 10079 6///1 333 10081 20003 7////
AAXX 08184 71350 16/// /2906 11029 21047 30079 40145 53016 60001 333 10009 21030 70000
AAXX 08184 71351 NIL
AAXX 08184 71352 16/// /3005 11029 21075 39795 40260 58005 60001 333 11017 21068 70000
AAXX 08184 71353 NIL
AAXX 08184 71354 NIL
AAXX 08184 71355 NIL
AAXX 08184 71356 NIL
AAXX 08184 71357 NIL
AAXX 08184 71358 16/// /2606 11302 21339 39938 49974 53007 60001 333 11278 21325 70008
AAXX 08184 71359 NIL
AAXX 08184 71360 NIL
AAXX 08184 71361 NIL
AAXX 08184 71362 NIL
AAXX 08184 71363 NIL
AAXX 08184 71364 NIL
AAXX 08184 71365 NIL
AAXX 08184 71368 15966 02907 11012 21076 39866 40265 58006 60001 333 11010 21056 70000
AAXX 08184 71369 15966 82723 10076 21011 39349 40046 51007 60001 333 10080 21072 70000
AAXX 08184 71370 46/// /3105 11081 21128 30080 40220 53004 6///1 333 11046 21099 7////
AAXX 08184 71371 17566 82907 11060 21104 30199 40234 52004 60001 771// 333 10000 21065 70008
AAXX 08184 71372 NIL
AAXX 08184 71373 NIL
AAXX 08184 71374 NIL
AAXX 08184 71375 NIL
AAXX 08184 71376 16/// /3103 11083 21138 39940 40245 55001 60001 333 11054 21120 70010
AAXX 08184 71377 16/// /2708 11066 21109 30188 40238 53004 60001 333 11006 21073 70015
AAXX 08184 71378 16/// /3206 11107 21173 30013 40229 53001 60001 333 11089 21128 70000
AAXX 08184 71379 16/// /3109 11140 21195 30036 40214 56001 60001 333 11138 21183 70007
AAXX 08184 71380 NIL
AAXX 08184 71381 NIL
AAXX 08184 71382 16/// /0000 11127 21159 39214 40182 55000 60001 333 11096 21172 70020
AAXX 08184 71383 NIL
AAXX 08184 71384 NIL
AAXX 08184 71385 NIL
AAXX 08184 71386 NIL
AAXX 08184 71387 NIL
AAXX 08184 71388 NIL
AAXX 08184 71389 46/// /3006 11085 21111 6///1 333 11058 21098 7////
AAXX 08184 71390 NIL
AAXX 08184 71391 16/// ///// 11104 21148 60001 333 11061 21110 70011
AAXX 08184 71392 16/// /2310 11079 21113 60001 333 11057 21083 70026
AAXX 08184 71393 NIL
AAXX 08184 71395 12574 43109 10028 21018 39966 40145 53006 69901 84500 333 10038 20010 79999
AAXX 08184 71398 15966 82202 11171 21191 30234 40246 58020 60001 333 11171 21267 70000
AAXX 08184 71399 NIL
AAXX 08184 71102 NIL
AAXX 08184 71105 NIL
AAXX 08184 71107 NIL
AAXX 08184 71110 NIL
AAXX 08184 71111 15966 31508 10054 20029 30088 40096 52013 60001 333 10096 20046 70050
AAXX 08184 71112 16/// ///// 60001 333 70056
AAXX 08184 71113 17/// /2001 10041 20040 30247 40271 53003 60011 7//4/ 333 10041 20013 70052
AAXX 08184 71115 NIL
AAXX 08184 71116 16/// /2905 10002 21036 39074 40183 52011 60001 333 10002 21107 70000
AAXX 08184 71118 16/// /2307 10028 21052 39272 40099 51006 60001 333 10029 21059 70000
AAXX 08184 71121 16964 02615 10053 21056 39272 40094 53006 60001 333 10055 21034 70000
AAXX 08184 71127 16/// /2409 10035 21032 39188 40089 50005 60001 333 10035 21036 70000
AAXX 08184 71130 15966 61919 11013 21055 39576 40038 56048 60001 333 11011 21174 70000
AAXX 08184 71132 17366 82903 11090 21098 39612 49928 53002 60021 7004/ 333 11090 21240 70015
AAXX 08184 71133 16/// /2613 10033 21051 39337 40039 56009 60001 333 10033 21101 7////
AAXX 08184 71139 NIL
AAXX 08184 71141 NIL
AAXX 08184 71142 15966 12312 10011 21044 39158 40134 50000 60001 333 10011 21061 70000
AAXX 08184 71143 NIL
AAXX 08184 71144 NIL
AAXX 08184 71147 16/// /2410 10000 21047 60001 333 10000 21102 70000
AAXX 08184 71149 NIL
AAXX 08184 71930 13974 72705 10028 21048 39167 40099 53013 60003 82071 333 10028 21083 43013 70000
AAXX 08184 71931 16/// /3017 11001 21017 39997 40009 53019 60001 333 10038 21071 70000
AAXX 08184 71934 11674 70000 11074 21087 39652 49909 55002 69901 70272 87500 333 11072 21210 47033 79999 90932
AAXX 08184 71935 12874 12305 11061 21082 39696 49901 53016 60001 81070 333 11039 21106 70004
AAXX 08184 71936 11474 80905 11116 21123 39646 49907 53008 60011 77177 885// 333 11116 21195 48024 70022 90973 93101
AAXX 08184 71937 NIL
AAXX 08184 71938 11774 70000 11294 21324 39959 49990 53011 69901 77671 87500 333 11266 21294 44024 79999 90963
AAXX 08184 71940 NIL
AAXX 08184 71943 12974 22230 10049 21028 39213 40036 58006 60001 80001 333 10050 21008 70000
AAXX 08184 71944 160// ///// 10019 53011 60001 333 10020 21031 70000
AAXX 08184 71945 12983 11904 11076 21113 39509 49983 52019 60001 81070 333 11021 21183 70000
AAXX 08184 71946 12774 20000 11111 21133 39687 49900 53020 60001 81501 333 11080 21203 79999
AAXX 08184 71948 46064 /0807 11212 39839 49954 55000 6///1 333 11210 21239 7////
AAXX 08184 71949 46/// /0303 11045 21070 39018 49871 51014 6///1 333 11016 21101 7////
AAXX 08184 71951 11269 81911 10047 20039 39846 40112 53020 69921 71682 8487/ 333 10052 20014 43023 70160 90933
AAXX 08184 71957 47537 80505 11229 21304 39854 49945 56008 6///1 745// 333 11228 21307 7////
AAXX 08184 71964 12786 71515 10004 21048 39046 49881 53011 60001 83570 333 10009 21038 79999
AAXX 08184 71966 16/// /0000 11151 21175 39386 49846 53012 60001 333 11144 21229 70009 555 10040
AAXX 08184 71968 470// /3304 11240 39897 49963 55002 6///1 745// 333 11240 21291 7////
AAXX 08184 71114 160// /2403 10040 20036 30224 40273 55001 60011 333 10040 20020 70035
AAXX 08184 71120 12974 62610 10046 21021 39391 40045 53005 60001 80002 333 10048 21086 70000
AAXX 08184 71122 16/// /2309 11005 21054 38586 40205 53002 60001 333 11004 21068 70000
AAXX 08184 71123 12974 72109 10019 21038 39239 40108 50006 60001 82072 333 10022 21071 70000
AAXX 08184 71125 12974 42310 10012 21030 39454 40040 55001 60001 82072 333 70000
AAXX 08184 71129 12874 62004 11009 21059 39284 40123 51002 60001 86070 333 11009 21080 70000
AAXX 08184 71131 NIL
AAXX 08184 71135 16/// /2419 11003 21079 39063 40161 50000 60001 333 11003 21078 70000
AAXX 08184 71137 NIL
AAXX 08184 71140 12974 82612 11034 21057 39664 40174 5/014 60001 86072 333 11033 21096 70000
AAXX 08184 71145 11474 81809 11105 21117 39793 40098 58061 69901 70271 86570 333 11105 21286 48037 79999 90931
AAXX 08184 71148 NIL
AAXX 08184 71185 16464 30210 11051 30053 40077 52013 60001 333 11038 21090 70010
AAXX 08184 71188 11774 73205 11051 21095 30104 40147 51009 69901 72272 85550 333 11050 21102 47021 70048 90931
AAXX 08184 71200 16/// /1003 10066 20051 60001 333 10066 20046 70004
AAXX 08184 71207 17/// /0000 10027 30199 40264 53004 60041 7//4/ 333 10028 20014 70152
AAXX 08184 71260 13/// ///// 11069 21079 39987 40232 58021 60011 333 11068 21109 44015 70015
AAXX 08184 71700 15766 82904 11021 21075 30142 40168 51005 60001 333 11017 21078 70003
AAXX 08184 71701 12774 72904 11019 21078 30105 40168 53004 60001 81570 333 11019 21050 70004
AAXX 08184 71702 16/// /3211 11030 21057 30132 40147 53014 60001 333 10000 21034 70005
AAXX 08184 71703 11569 83210 11093 21120 39880 40186 52006 69901 70271 888// 333 11069 21113 47017 70048 90951
AAXX 08184 71704 17966 03203 10008 21078 30047 40273 58006 69931 7004/ 333 10011 21009 70011
AAXX 08184 71710 NIL
AAXX 08184 71712 16/// /2709 11069 21102 30185 40248 52007 60001 333 11018 21075 70024
AAXX 08184 71713 NIL
AAXX 08184 71716 NIL
AAXX 08184 71717 NIL
AAXX 08184 71720 16/// /1113 10061 20041 30096 40250 50001 60001 333 10063 20023 70025
AAXX 08184 71721 NIL
AAXX 08184 71723 NIL
AAXX 08184 71724 NIL
AAXX 08184 71732 16/// /2402 11112 21156 60001 333 11109 21140 70000
AAXX 08184 71733 17/// /1904 11125 21148 39813 40267 58007 69931 7//4/ 333 11125 21176 70003
AAXX 08184 71734 NIL
AAXX 08184 71736 NIL
AAXX 08184 71737 NIL
AAXX 08184 71741 16/// /1115 10028 21005 39820 40247 53004 60001 333 10029 21018 70023
AAXX 08184 71742 46/// /3015 11011 21015 39861 40048 53027 6///1 333 11006 21073 7////
AAXX 08184 71743 NIL
AAXX 08184 71744 16/// /2905 11031 21083 30121 40163 51013 60001 333 11029 21069 70036 555 10020
AAXX 08184 71745 NIL
AAXX 08184 71746 NIL
AAXX 08184 71747 NIL
AAXX 08184 71748 NIL
AAXX 08184 71250 NIL
AAXX 08184 71251 16/// /2713 10066 21040 39228 40159 53015 60001 333 10066 21074 70000
AAXX 08184 71252 NIL
AAXX 08184 71253 46/// /2505 11018 21018 6///1 333 11018 21210 7////
AAXX 08184 71254 16/// /2610 10032 21015 60001 333 10032 21042 70000
AAXX 08184 71255 16/// /2717 10043 21011 60001 333 10043 21159 70007 555 10010
AAXX 08184 71256 46/// /2804 10028 21028 39163 40096 53013 6///1 333 10029 21069 7////
AAXX 08184 71257 NIL
AAXX 08184 71258 NIL
AAXX 08184 71259 NIL
AAXX 08184 71261 16/// /2305 11005 21065 39994 40260 58006 60001 333 10009 21031 70000
AAXX 08184 71263 11560 32908 11003 21085 39972 40268 58006 69901 70281 83100 333 10001 21031 79999 909/5
AAXX 08184 71264 16/// /3108 10049 21018 30113 40145 53006 60001 333 10052 20026 70000
AAXX 08184 71265 15966 03107 11006 21096 30174 40270 58004 60001 333 10014 21033 70000
AAXX 08184 71266 NIL
AAXX 08184 71267 15966 32629 10066 21036 39076 40170 52018 60001 333 10066 20001 70000
AAXX 08184 71268 NIL
AAXX 08184 71269 NIL
AAXX 08184 71270 NIL
AAXX 08184 71271 16/// ///// 10065 21023 60001 333 10065 21037 70000
AAXX 08184 71272 17548 81906 11116 21125 39572 49931 58047 60001 771// 333 11116 21256 70000
AAXX 08184 71273 NIL
AAXX 08184 71274 NIL
AAXX 08184 71275 NIL
AAXX 08184 71276 NIL
AAXX 08184 71277 NIL
AAXX 08184 71278 NIL
AAXX 08184 71279 16/// /3607 11113 21158 30102 40170 53009 60001 333 11110 21155 70012
AAXX 08184 71281 NIL
AAXX 08184 71282 46/// /2703 11070 21102 39995 40274 58004 6///1 333 11035 21108 7////
AAXX 08184 71283 NIL
AAXX 08184 71284 16/// ///// 10052 21023 60001 333 10053 21050 70000
AAXX 08184 71285 NIL
AAXX 08184 71286 NIL
AAXX 08184 71287 NIL
AAXX 08184 71288 NIL
AAXX 08184 71289 NIL
AAXX 08184 71290 17666 61414 10020 20001 39285 40116 53010 60031 7004/ 333 10019 21028 70025
AAXX 08184 71291 NIL
AAXX 08184 71292 15666 82114 11020 21048 39504 40116 58025 60001 333 11020 21095 70000
AAXX 08184 71294 16/// /3304 11075 21164 39837 40252 56009 60001 333 11054 70003
AAXX 08184 71295 NIL
AAXX 08184 71296 NIL
AAXX 08184 71297 16/// /2805 10012 21078 60001 333 10014 21022 70000
AAXX 08184 71298 NIL
AAXX 08184 71299 NIL
AAXX 08184 71816 12974 72809 11192 21257 30102 40167 55001 60001 85011 333 11190 21262 70000
AAXX 08184 71817 NIL
AAXX 08184 71818 12874 43113 11148 21188 30109 40128 53003 60001 82071 333 11139 21196 70000
AAXX 08184 71822 12574 12704 11163 21209 39742 40240 55004 60001 81501 333 11161 21216 79999
AAXX 08184 71825 11474 30000 11216 21273 39494 40207 52002 69901 77611 83600 333 11208 21295 48103 79999 90931
AAXX 08184 71827 NIL
AAXX 08184 71828 16964 03004 11258 21311 39521 40211 53001 60001 333 11253 21388 70000
AAXX 08184 71831 12774 71304 11137 21151 39942 40237 58018 60001 87530 333 11136 21190 48057 79999
AAXX 08184 71832 NIL
AAXX 08184 71834 11674 52702 11098 21124 39774 40219 58010 69901 77172 85500 333 11092 21192 48037 70004 90947
AAXX 08184 71841 NIL
AAXX 08184 71842 11474 82306 11085 21101 39725 40211 57017 69921 77177 885// 333 11085 21128 48018 70002 90983
AAXX 08184 71844 NIL
AAXX 08184 71845 11262 52102 11152 21170 39703 40198 58018 69901 77177 85700 333 11152 21225 44025 79999 90921
AAXX 08184 71850 NIL
AAXX 08184 71852 16964 32011 11026 21061 39871 40171 58017 60001 333 11025 21092 70000
AAXX 08184 71854 11474 31706 11076 21106 39688 40176 58027 69901 70177 81630 333 11076 21197 48020 70002 90929
AAXX 08184 71858 NIL
AAXX 08184 71861 16/// /2213 11028 21073 39409 40143 58012 60001 333 11028 21096 70000
AAXX 08184 71862 12874 82312 11029 21063 39467 40181 58017 60001 8802/ 333 11027 21094 70000
AAXX 08184 71863 46964 32212 11009 21060 39434 40142 58014 6///1 333 11009 21114 7////
AAXX 08184 71864 NIL
AAXX 08184 71865 NIL
AAXX 08184 71866 46764 62311 11006 21062 39472 40091 58018 6///1 333 11005 21085 7////
AAXX 08184 71867 11/12 91808 11045 21049 39682 40019 58052 69961 77122 333 11042 21138 47028 70006 90921 93101
AAXX 08184 71868 16/// /0000 11022 21053 39612 40060 58052 60001 333 11022 21196 70000
AAXX 08184 71869 11574 62306 11003 21060 39522 40051 57022 69901 70172 81571 333 11003 21149 43007 79999 90940
AAXX 08184 71871 15966 02619 10040 21038 39270 40077 56002 60001 333 10041 21092 70000
AAXX 08184 71877 12986 72723 10089 21036 38878 40142 53021 60001 87070 333 10091 21035 70000
AAXX 08184 71878 12774 72004 11006 21045 39059 40142 53013 60001 81572 333 11006 21065 70000
AAXX 08184 71879 16964 02610 10058 21038 39292 40094 52005 60001 333 10061 21033 70000
AAXX 08184 71880 12582 80000 11004 21041 39157 40281 52014 60001 885// 333 11003 21027 70000
AAXX 08184 71882 NIL
AAXX 08184 71883 NIL
AAXX 08184 71887 12986 61115 10027 21011 39824 40252 53006 60001 86070 333 10027 21020 70026
AAXX 08184 71889 12574 81611 10019 21033 39871 40298 53003 60001 87501 333 10020 21009 70016
AAXX 08184 71891 16864 33404 10031 21005 39940 40216 57001 60001 333 10073 21001 70000
AAXX 08184 71892 11569 80605 10064 20047 30266 40271 53003 69941 72565 885// 333 10064 20037 70042 90936
AAXX 08184 71051 NIL
AAXX 08184 71055 NIL
AAXX 08184 71057 NIL
AAXX 08184 71059 460// ///// 11282 39878 49971 53006 6///1 333 11248 21297 7////
AAXX 08184 71061 16/// /2309 10057 21023 39297 40065 53007 60001 333 10058 21037 70000
AAXX 08184 71062 46/// /2307 10057 21038 39026 40082 51014 6///1 333 10059 21028 7////
AAXX 08184 71064 460// /0509 11338 39812 40038 51017 6///1 333 11303 21338 7////
AAXX 08184 71065 NIL
AAXX 08184 71067 NIL
AAXX 08184 71070 NIL
AAXX 08184 71073 NIL
AAXX 08184 71074 16/// ///00 11319 21351 39948 40029 58002 60001 333 11319 21350 70000
AAXX 08184 71075 16/// /2506 11044 21051 39309 49914 56017 60001 333 11044 21217 70000 555 10050
AAXX 08184 71078 NIL
AAXX 08184 71084 460// ///// 11354 39981 40031 52020 6///1 333 11290 21355 7////
AAXX 08184 71085 15666 82512 10029 21039 38833 40225 51021 60001 333 10032 21011 70000
AAXX 08184 71087 NIL
AAXX 08184 71088 460// /0904 11347 51010 6///1 333 11343 21390 7////
AAXX 08184 71089 NIL
AAXX 08184 71096 460// ///// 11306 39202 49960 53001 6///1 333 11283 21310 7////
AAXX 08184 71097 46464 32812 11305 39537 40033 51012 6///1 333 11251 21312 7////
AAXX 08184 71098 43/// /1705 11134 21150 39766 40143 58040 6///1 333 11134 21293 7////
AAXX 08184 71099 43/// /2112 11176 21213 30086 40107 58042 6///1 333 11176 21262 7////
AAXX 08184 71001 15966 31322 11004 21058 38863 49820 53014 60001 333 10012 21214 70000
AAXX 08184 71002 15966 03107 11242 21276 39624 40206 53005 60001 333 11242 21361 70000
AAXX 08184 71003 15966 00901 11269 21297 39839 40254 58004 60001 333 11269 21383 70000
AAXX 08184 71005 16/// ///// 10056 21028 60001 333 10056 21072 70000
AAXX 08184 71006 NIL
AAXX 08184 71007 NIL
AAXX 08184 71008 NIL
AAXX 08184 71009 NIL
AAXX 08184 71010 NIL
AAXX 08184 71011 NIL
AAXX 08184 71012 NIL
AAXX 08184 71013 NIL
AAXX 08184 71014 NIL
AAXX 08184 71015 NIL
AAXX 08184 71016 NIL
AAXX 08184 71017 NIL
AAXX 08184 71018 NIL
AAXX 08184 71019 NIL
AAXX 08184 71020 NIL
AAXX 08184 71021 NIL
AAXX 08184 71022 17666 81808 10080 20053 30060 40104 53017 69981 7004/ 333 10087 20055 70206
AAXX 08184 71023 NIL
AAXX 08184 71024 16/// /3301 11124 21138 60001 333 11102 21200 70000
AAXX 08184 71026 NIL
AAXX 08184 71027 16/// /2908 10018 21013 30096 40106 53025 60001 333 10037 21026 70027
AAXX 08184 71028 16/// /3304 11004 21012 39132 40173 56004 60001 333 10050 21021 70000
AAXX 08184 71029 16/// /1112 11240 21265 39952 49992 51008 60001 333 11220 21282 70040
AAXX 08184 71030 16/64 /3403 10010 21006 30067 40157 55002 60001 333 10022 21003 70000
AAXX 08184 71032 46/// /0501 11025 21036 39430 40281 53001 6///1 333 11023 21052 7////
AAXX 08184 71033 46/// /2807 11015 21031 39316 49942 55006 6///1 333 11015 21204 7//// 555 10010
AAXX 08184 71035 NIL
AAXX 08184 71036 15966 02415 10002 21068 39741 40119 58022 60001 333 10006 21089 70000
AAXX 08184 71039 46/// /1109 11018 6///1 333 11003 21109 7////
AAXX 08184 71040 46/// /2709 11127 21183 30012 40219 53001 6///1 333 11124 21139 7////
AAXX 08184 71041 15466 82817 11010 21026 39994 40137 53018 60001 333 10029 21028 70000
AAXX 08184 71042 16/// /1002 10055 20050 30271 40275 53005 60001 333 10055 20035 70044
AAXX 08184 71044 16/// /0215 11212 21256 39592 49916 53007 60001 333 11210 21345 70000
AAXX 08184 71046 460// /2506 11260 39965 49983 53003 6///1 333 11244 21332 7////
AAXX 08184 71047 16/// ///// 10061 21022 60001 333 10061 21055 70000
AAXX 08184 71048 NIL
AAXX 08184 71049 NIL
AAXX 08184 71060 NIL
AAXX 08184 71063 NIL
AAXX 08184 71201 16/// ///// 10064 20042 60001 333 10065 20043 70086
AAXX 08184 71202 16/// ///// 10041 21034 60001 333 10041 21067 70005
AAXX 08184 71203 15566 81706 10018 21010 39759 40289 52005 60001 333 10018 21007 70013
AAXX 08184 71209 46/// /0909 10061 6///1 333 10062 20037 7////
AAXX 08184 71211 46/// /0104 10053 20050 30256 40268 53005 6///1 333 10053 20025 7////
AAXX 08184 71212 16/// /3204 11108 21159 39352 40176 55000 60001 333 11057 21126 70020 555 10010
AAXX 08184 71213 46/// /1205 11149 21168 39946 40261 58010 6///1 333 11135 21192 7////
AAXX 08184 71214 NIL
AAXX 08184 71215 46/// /1303 10012 21010 39950 40302 53002 6///1 333 10013 21023 7////
AAXX 08184 71216 16/// /1502 10008 21006 39665 40294 53006 60001 333 10008 21006 70000
AAXX 08184 71217 NIL
AAXX 08184 71218 16/// /1703 10007 21003 39840 40276 51004 60001 333 10016 21008 70017 555 10020
AAXX 08184 71219 46/// /1514 10073 20037 30102 40108 53018 6///1 333 10087 20044 7////
AAXX 08184 71220 46/// /1820 10078 20053 6///1 333 10085 20050 7////
AAXX 08184 71221 NIL
AAXX 08184 71222 16/// /2501 11031 21034 39055 40016 53017 60001 333 11027 21103 70000
AAXX 08184 71223 NIL
AAXX 08184 71224 NIL
AAXX 08184 71225 NIL
AAXX 08184 71226 NIL
AAXX 08184 71227 NIL
AAXX 08184 71228 NIL
AAXX 08184 71229 NIL
AAXX 08184 71230 16/// /2609 10043 21021 39188 40073 51006 60001 333 10065 21021 70000
AAXX 08184 71231 16/// /2817 10068 21041 60001 333 10068 21061 70000
AAXX 08184 71232 16/// /2310 10055 21052 38656 40149 51015 60001 333 10057 21026 70000
AAXX 08184 71233 16/// /1603 10040 21048 60001 333 10040 21016 70000
AAXX 08184 71234 16/// /2727 10066 21046 38970 40153 53017 60001 333 10067 21022 70000
AAXX 08184 71235 16/// /2713 10074 21034 60001 333 10074 21026 70000
AAXX 08184 71236 46/// /3019 10010 21045 6///1 333 10011 21024 7////
AAXX 08184 71237 46/// /0201 11046 21078 39311 40138 51015 6///1 333 11044 21073 7////
AAXX 08184 71238 16/// /2504 10082 21030 60001 333 10082 21058 70000
AAXX 08184 71239 NIL
AAXX 08184 71240 NIL
AAXX 08184 71241 NIL
AAXX 08184 71242 16/// /1603 11016 21045 60001 333 11016 21060 70000
AAXX 08184 71243 NIL
AAXX 08184 71244 16/// /2925 10071 21036 38929 40157 52011 60001 333 10073 21066 70000
AAXX 08184 71245 NIL
AAXX 08184 71246 NIL
AAXX 08184 71247 15966 02310 10050 21033 39291 40152 51012 60001 333 10050 21080 70000
AAXX 08184 71248 16/// /1803 10057 21041 38835 40137 53019 60001 333 10081 21048 70000 555 10010
AAXX 08184 71249 NIL
AAXX 08184 71550 NIL
AAXX 08184 71551 NIL
AAXX 08184 71552 NIL
AAXX 08184 71553 NIL
AAXX 08184 71554 NIL
AAXX 08184 71555 16/// /2728 10044 21055 38601 40164 53018 60001 333 10047 21030 70000
AAXX 08184 71556 16/// /1912 11023 21050 39498 40110 58021 60001 333 11023 21098 70000
AAXX 08184 71557 46/// /1405 10045 20011 6///1 333 10064 21046 7////
AAXX 08184 71558 46/// ///// 11094 21121 30043 40080 53006 6///1 333 11077 21140 7////
AAXX 08184 71559 46/// /2212 11029 21060 39465 40178 58016 6///1 333 11029 21091 7////
AAXX 08184 71560 16/// /2013 10002 21041 39875 40181 58016 60001 333 10002 21073 70000
AAXX 08184 71563 NIL
AAXX 08184 71564 NIL
AAXX 08184 71565 NIL
AAXX 08184 71566 NIL
AAXX 08184 71567 NIL
AAXX 08184 71568 17/// /1310 10073 20051 30211 40223 53003 60071 7//4/ 333 10073 20036 70226
AAXX 08184 71569 16/// /2211 11006 21057 39420 40129 58010 60001 333 11004 21087 70000
AAXX 08184 71570 16/// /1806 11036 21071 39850 40169 58026 60001 333 11036 21123 70013
AAXX 08184 71571 NIL
AAXX 08184 71572 NIL
AAXX 08184 71573 16/// /2504 10003 21054 39972 40260 58004 60001 333 10003 21014 70000
AAXX 08184 71574 12574 12706 11048 21094 30089 40164 53015 60001 81530 333 11038 21080 70040
AAXX 08184 71575 NIL
AAXX 08184 71576 16/// /1902 11341 21379 39909 49998 53003 60001 333 11309 21367 7////
AAXX 08184 71577 46/// /2212 11048 21077 6///1 333 11048 21127 7////
AAXX 08184 71578 16/// /2210 11069 21115 60001 333 11059 21076 70000
AAXX 08184 71579 NIL
AAXX 08184 71580 11674 10106 11399 39996 40035 52016 69901 77677 81500 333 11392 21417 44030 79999 90983
AAXX 08184 71581 NIL
AAXX 08184 71582 17556 81303 10058 20054 30112 40165 53006 60151 76144 333 10079 20042 70724
AAXX 08184 71583 NIL
AAXX 08184 71584 15666 80107 11105 21157 30108 40157 53011 60001 333 11103 21128 70000
AAXX 08184 71585 NIL
AAXX 08184 71586 NIL
AAXX 08184 71587 NIL
AAXX 08184 71588 NIL
AAXX 08184 71589 NIL
AAXX 08184 71590 16/// /3506 11085 21133 39990 40186 53002 60001 333 11066 21111 70055 555 10060
AAXX 08184 71592 NIL
AAXX 08184 71593 NIL
AAXX 08184 71596 NIL
AAXX 08184 71598 17/24 /2814 11038 21064 30151 40157 53019 69931 7//4/ 333 11023 21047 70030 555 10030
AAXX 08184 71599 NIL
AAXX 08184 71603 12474 82704 10048 20007 30109 40162 55005 60001 87501 333 10063 20014 70000
AAXX 08184 71607 16/// /3504 11012 21030 30138 40171 53004 60001 333 11007 21061 70000
AAXX 08184 71609 12574 83209 11006 21045 30028 40164 53001 60001 8657/ 333 10001 21037 79999
AAXX 08184 71610 17448 83106 11072 21092 39916 40218 53012 60001 771// 333 10005 21072 70013
AAXX 08184 71621 12974 03004 11036 21120 30151 40260 58004 60001 333 10010 21064 70000
AAXX 08184 71623 NIL
AAXX 08184 71624 12574 23203 11019 21080 30050 40267 58005 60001 81130 333 10004 21052 70002
AAXX 08184 71625 16664 63205 11097 21157 30098 40265 58006 60001 333 11085 21164 70000
AAXX 08184 71627 11574 82808 11065 21124 30194 40240 52005 69901 72272 8653/ 333 11006 21071 42002 70012 90912
AAXX 08184 71628 11560 22708 11085 21140 30110 40256 54000 69941 70177 82500 333 11055 21103 4-2017 70026 909/6
AAXX 08184 71630 NIL
AAXX 08184 71631 16/// /2703 11038 21087 39745 40258 58008 60001 333 11026 21103 70000
AAXX 08184 71633 12874 62604 11028 21077 39983 40262 57009 60001 86070 333 11026 21085 70006
AAXX 08184 71705 12474 73010 11033 21065 30068 40157 53005 60001 87800 333 11016 21053 70004
AAXX 08184 71706 12474 72907 11025 21051 30093 40154 53015 60001 87500 333 10012 21028 79999
AAXX 08184 71707 11474 72703 10007 21018 30045 40122 53024 69901 70252 87500 333 10024 21022 44014 70004 90921
AAXX 08184 71709 11480 83313 11018 21036 30117 40130 53033 69921 70282 885// 333 10005 21024 43004 70042 90941
AAXX 08184 71711 NIL
AAXX 08184 71714 16/// /2307 11070 21117 30128 40223 53007 60001 333 11057 21084 70016 555 10020
AAXX 08184 71715 16/// /3607 11094 21143 30012 40199 52004 60001 333 11078 21115 70016
AAXX 08184 71718 12583 62608 11091 21129 30124 40191 52005 60001 84570 333 11074 21108 70042
AAXX 08184 71719 NIL
AAXX 08184 71300 NIL
AAXX 08184 71301 NIL
AAXX 08184 71302 16/// /1914 10027 21007 39335 40154 53016 60001 333 10028 21024 70006
AAXX 08184 71303 46/// ///// 10031 21052 6///1 333 10035 21016 7////
AAXX 08184 71305 15966 02709 11015 21018 39638 49928 56001 60001 333 11015 21202 70000
AAXX 08184 71306 17920 02119 11170 21191 30083 40117 56038 60001 710// 333 11174 21304 70000
AAXX 08184 71307 16/// /3003 10011 21067 30020 40276 58003 60001 333 10013 21010 70000
AAXX 08184 71308 16/// /2810 11010 21031 30063 40148 53016 60001 333 10037 21010 70000
AAXX 08184 71309 NIL
AAXX 08184 71310 NIL
AAXX 08184 71311 16/// /3409 11008 21046 30129 40154 53007 60001 333 10010 21019 70000
AAXX 08184 71312 16/// /2218 11015 21056 39572 40034 56048 60001 333 11012 21181 70000
AAXX 08184 71314 16/// /2806 11054 21101 39898 40261 58004 60001 333 11042 21122 70000
AAXX 08184 71315 16/// /2609 11069 21121 30121 40176 52020 60001 333 11054 21083 70035 555 10020
AAXX 08184 71316 16/// /2714 10067 21025 39359 40035 53002 60001 333 10071 21041 70000
AAXX 08184 71317 NIL
AAXX 08184 71318 16/// /2710 10018 21052 39171 40123 53011 60001 333 10018 21079 70000
AAXX 08184 71319 16/// /0803 11109 21124 39287 40168 53001 60001 333 11062 21117 70008
AAXX 08184 71320 16/// /3207 11437 21482 39987 49987 51008 60001 333 11377 21437 70000
AAXX 08184 71321 NIL
AAXX 08184 71322 NIL
AAXX 08184 71323 NIL
AAXX 08184 71331 17/// /2407 11041 21056 60031 7//4/ 333 11041 21140 70029 555 10040
AAXX 08184 71332 NIL
AAXX 08184 71334 46/// /1905 11117 21133 39598 49932 58048 6///1 333 11117 21275 7////
AAXX 08184 71335 46964 0//// 11254 39453 40098 51012 6///1 333 11201 21259 7////
AAXX 08184 71336 NIL
AAXX 08184 71337 46/// /3612 11046 21051 39819 40059 53024 6///1 333 11022 21096 7////
AAXX 08184 71338 46556 80504 11287 21330 39979 49986 53004 6///1 333 11259 21349 7////
AAXX 08184 71339 16964 03411 11124 21213 30084 40099 55003 60001 333 11124 21197 70000
AAXX 08184 71340 NIL
AAXX 08184 71341 NIL
AAXX 08184 71342 NIL
AAXX 08184 71343 NIL
AAXX 08184 71344 NIL
AAXX 08184 71345 NIL
AAXX 08184 71346 NIL
AAXX 08184 71347 NIL
AAXX 08184 71348 NIL
AAXX 08184 71349 NIL
AAXX 08184 71812 46764 32610 11212 21244 39902 49916 56023 6///1 333 11204 21329 7////
AAXX 08184 71819 15966 00412 11095 21122 30045 40087 53005 60001 333 11076 21137 70000
AAXX 08184 71820 16/// /3405 11039 21115 30136 40253 50000 60001 333 10013 21064 70000
AAXX 08184 71823 16964 00000 11274 21320 39839 40255 58005 60001 333 11274 21405 70000
AAXX 08184 71824 46/// /2603 11161 21202 6///1 333 11151 21235 7////
AAXX 08184 71826 16/// /0000 11351 21405 39978 40025 51003 60001 333 11288 21353 70000 555 10020
AAXX 08184 71829 16/// /2710 11094 21149 30010 40176 53006 60001 333 11093 21132 70020
AAXX 08184 71833 46/// /3106 11020 21081 6///1 333 11013 21057 7////
AAXX 08184 71835 16/// /2104 11148 21162 39692 40192 58018 60001 333 11148 21225 70000
AAXX 08184 71837 NIL
AAXX 08184 71839 NIL
AAXX 08184 71840 46/// /2412 11007 21054 6///1 333 11007 21090 7////
AAXX 08184 71846 16/// /2205 11131 21150 39861 40189 58027 60001 333 11131 21268 70000
AAXX 08184 71847 NIL
AAXX 08184 71848 NIL
AAXX 08184 71849 16/// /2010 11027 21061 39871 40174 58016 60001 333 11027 21091 70000
AAXX 08184 71401 16/// /1302 11012 21023 39618 40320 53012 60001 333 11012 21045 70007 555 10010
AAXX 08184 71402 NIL
AAXX 08184 71404 NIL
AAXX 08184 71405 NIL
AAXX 08184 71406 NIL
AAXX 08184 71407 NIL
AAXX 08184 71408 NIL
AAXX 08184 71409 NIL
AAXX 08184 71410 15966 81914 11076 21093 39768 40056 58062 60001 333 11076 21261 70000
AAXX 08184 71413 NIL
AAXX 08184 71414 NIL
AAXX 08184 71415 16/// /3118 11013 21032 30139 40142 53015 60001 333 10024 21013 70000
AAXX 08184 71417 NIL
AAXX 08184 71418 NIL
AAXX 08184 71419 46/// /3016 10011 21010 30126 40136 53017 6///1 333 10056 20011 7////
AAXX 08184 71423 NIL
AAXX 08184 71424 46/// /2010 6///1 333 7////
AAXX 08184 71425 16/// /3315 11066 21096 30124 40161 53015 60001 333 11049 21077 70040
AAXX 08184 71426 NIL
AAXX 08184 71427 NIL
AAXX 08184 71428 NIL
AAXX 08184 71429 NIL
AAXX 08184 71434 NIL
AAXX 08184 71436 15966 03209 11043 21113 30024 40265 58005 60001 333 11010 21088 70000
AAXX 08184 71437 NIL
AAXX 08184 71438 NIL
AAXX 08184 71439 NIL
AAXX 08184 71440 NIL
AAXX 08184 71442 16/// /2110 11037 21069 39819 40139 58026 60001 333 11037 21109 70000
AAXX 08184 71445 NIL
AAXX 08184 71446 17/// /2412 10002 21051 39145 40130 50000 69951 7//4/ 333 10002 21062 70005
AAXX 08184 71448 NIL
AAXX 08184 71449 NIL
AAXX 08184 71851 16/// /2308 11006 21051 39824 40164 58015 60001 333 11006 21091 70000
AAXX 08184 71857 NIL
AAXX 08184 71860 12783 72712 10071 21042 38765 40156 51018 60001 81571 333 10072 21037 41996 70000
AAXX 08184 71876 15966 02412 10029 21043 39418 40084 57009 60001 333 10029 21080 70000
AAXX 08184 71885 NIL
AAXX 08184 71886 16/// /2113 11020 21067 39503 40115 58025 60001 333 11020 21093 70000
AAXX 08184 71888 NIL
AAXX 08184 71890 16/// /0608 11094 21159 30156 40184 53007 60001 333 11089 21122 70007 555 10030
AAXX 08184 71895 NIL
AAXX 08184 71150 46/// /2112 11044 21077 39457 40147 58013 6///1 333 11043 21107 7////
AAXX 08184 71151 NIL
AAXX 08184 71152 16/// /2812 10024 20012 30058 40071 51021 60001 333 10034 21034 70025
AAXX 08184 71153 16/// /2727 10057 21034 60001 333 10060 20000 70000
AAXX 08184 71154 16/// /2321 10024 21041 60001 333 10024 21016 70000
AAXX 08184 71155 NIL
AAXX 08184 71156 NIL
AAXX 08184 71157 46/// ///// 10056 21011 6///1 333 10058 21034 7////
AAXX 08184 71158 NIL
AAXX 08184 71159 17/// /3105 11008 21021 30001 40073 53013 69981 7//4/ 333 11003 21046 70099
AAXX 08184 71160 NIL
AAXX 08184 71161 16/// /2905 11067 21124 30097 40250 51003 60001 333 11030 21083 70000
AAXX 08184 71162 NIL
AAXX 08184 71163 46/// /0603 11131 21140 39568 49910 53017 6///1 333 11130 21241 7////
AAXX 08184 71164 NIL
AAXX 08184 71165 NIL
AAXX 08184 71166 NIL
AAXX 08184 71167 15966 01301 11018 21052 39017 40118 51016 60001 333 10035 21096 70000
AAXX 08184 71168 NIL
AAXX 08184 71170 NIL
AAXX 08184 71171 16/// /3205 10005 21077 30160 40259 58006 60001 333 10015 21010 70000
AAXX 08184 71172 16/// ///// 11075 21129 30032 40257 58011 60001 333 11073 21125 70000
AAXX 08184 71175 16/// /2808 10003 21011 30092 40127 53020 60001 333 10031 21014 70000
AAXX 08184 71176 460// /2442 11301 39345 40065 58005 6///1 333 11278 21310 7////
AAXX 08184 71177 460// /3111 11290 39029 40079 53032 6///1 333 11221 21295 7////
AAXX 08184 71178 17/// /2829 10010 21007 39988 40020 53023 69931 7//4/ 333 10040 21042 70003
AAXX 08184 71179 460// ///// 11236 39219 40072 58006 6///1 333 11154 21236 7////
AAXX 08184 71180 17/// /2811 10012 20004 30048 40087 51011 69971 7//4/ 333 10034 21033 70007
AAXX 08184 71181 16364 82821 10034 20018 30006 40042 53023 60001 333 10048 21022 70010
AAXX 08184 71183 16/// /2808 30197 52006 60001 333 70011
AAXX 08184 71184 46/// /3003 11056 21121 6///1 333 10005 21062 7////
AAXX 08184 71186 NIL
AAXX 08184 71187 15564 82503 10039 20038 30223 40272 55001 60001 333 10039 20018 70000
AAXX 08184 71189 NIL
AAXX 08184 71190 NIL
AAXX 08184 71191 16/// ///// 10010 21043 60001 333 10020 21024 70000
AAXX 08184 71192 17766 81804 10012 20001 39520 40186 53006 60001 761// 333 10027 21030 70036
AAXX 08184 71193 16/// /1607 11142 21167 39861 40243 58016 60001 333 11141 21218 70000
AAXX 08184 71196 16/// /3105 11097 21141 30055 40261 58008 60001 333 11089 21144 70016
AAXX 08184 71197 17264 82817 10011 20005 30037 40086 53013 69951 74144 333 10023 21030 70030
AAXX 08184 71198 46/// /3003 11069 21136 6///1 333 11034 21078 7////
AAXX 08184 71199 46/// /1402 11098 21108 39140 49978 53016 6///1 333 11081 21172 7//// 555 10040
AAXX 08184 71900 46/// /23// 11197 21269 30133 40146 53007 6///1 333 11191 21242 7////
AAXX 08184 71903 NIL
AAXX 08184 71904 NIL
AAXX 08184 71914 16/// /0000 10056 20037 30045 40269 53008 60001 333 10056 20034 70025
AAXX 08184 71916 NIL
AAXX 08184 71918 460// ///// 11356 6///1 333 7////
AAXX 08184 71920 16/// /2610 10068 20030 30155 40161 55004 60001 333 10080 20016 70000
AAXX 08184 71921 NIL
AAXX 08184 71923 NIL
AAXX 08184 71927 NIL
AAXX 08184 71941 15766 82103 11154 21183 39826 40263 58005 60001 333 11145 21213 70003
AAXX 08184 71947 15866 82602 11183 21200 39894 40260 58006 60001 333 11177 21272 70000
AAXX 08184 71450 NIL
AAXX 08184 71451 17/// /2506 11040 21055 39524 49949 56032 60031 7//4/ 333 11036 21220 70035 555 10040
AAXX 08184 71452 46/// /2109 11013 21055 39439 40161 58011 6///1 333 11013 21104 7////
AAXX 08184 71453 NIL
AAXX 08184 71454 16/// /2607 10039 21047 39334 40020 56019 60001 333 10039 21100 70000
AAXX 08184 71455 NIL
AAXX 08184 71456 16/// /2322 11016 21058 39452 40054 56041 60001 333 11009 21130 70005
AAXX 08184 71457 16/// /2405 10044 21022 39239 40136 53012 60001 333 10044 21086 70000
AAXX 08184 71458 16/// /2413 10054 21020 39312 40078 52004 60001 333 10054 21108 70000
AAXX 08184 71459 16/// /2413 10012 21044 39311 40125 57001 60001 333 10012 21071 70000
AAXX 08184 71460 16/// /0807 11077 21095 30014 40265 58015 60001 333 11077 21122 70000
AAXX 08184 71461 NIL
AAXX 08184 71462 NIL
AAXX 08184 71463 46/// /2807 11004 21092 30043 40272 58003 6///1 333 10010 21016 7////
AAXX 08184 71464 NIL
AAXX 08184 71465 NIL
AAXX 08184 71466 NIL
AAXX 08184 71468 NIL
AAXX 08184 71470 NIL
AAXX 08184 71471 15966 02418 10065 21012 39284 40064 52007 60001 333 10076 20005 70000
AAXX 08184 71473 16/// /1711 10062 20022 30235 40265 51008 60001 333 10063 20035 70010
AAXX 08184 71475 17/// /0000 10044 20040 30155 40250 50001 60011 7//4/ 333 10044 20022 70062
AAXX 08184 71476 NIL
AAXX 08184 71477 16/// /1813 10061 20038 60001 333 10071 20054 70044
AAXX 08184 71478 NIL
AAXX 08184 71479 NIL
AAXX 08184 71480 NIL
AAXX 08184 71481 NIL
AAXX 08184 71482 NIL
AAXX 08184 71483 NIL
AAXX 08184 71484 NIL
AAXX 08184 71485 NIL
AAXX 08184 71486 16/// /1608 10051 21034 38956 40153 56003 60001 333 10052 21034 70000
AAXX 08184 71487 16/// /2416 10003 21060 39266 40141 58009 60001 333 10003 21078 70000
AAXX 08184 71489 16/// /2508 10012 21057 39296 40096 55001 60001 333 10012 21095 70000
AAXX 08184 71490 NIL
AAXX 08184 71491 NIL
AAXX 08184 71492 NIL
AAXX 08184 71493 16/// /2803 10031 21032 30106 40144 53003 60001 333 10034 21015 70000
AAXX 08184 71494 16/// /2807 11101 21113 39666 40199 53010 60001 333 11024 21106 70016 555 10040
AAXX 08184 71495 NIL
AAXX 08184 71496 16/// /2412 11007 21060 39469 40085 58019 60001 333 11006 21084 70000
AAXX 08184 71497 46/// /2313 11127 21146 39679 49946 51006 6///1 333 11105 21165 7////
AAXX 08184 71498 NIL
AAXX 08184 71499 15766 82709 11012 21029 39316 49940 55006 60001 333 11012 21194 70000
AAXX 08184 06030 02460 70102 10012 20001 30167 40183 52022 69902 87501 333 10039 20011 6///7 82610 85622 87656
AAXX 08184 06060 02470 73404 10021 20008 30117 40184 52023 69902 87500 333 10053 20022 6///7 82616 87625
AAXX 08184 06070 05484 73308 10021 21007 30149 40179 52025 6///2 333 10048 20018 6///7 87/12
AAXX 08184 06120 36484 83310 10023 20012 30154 40180 52028 333 10055 20023 85/12 88/15
AAXX 08184 06180 01380 80209 10028 20007 30155 40161 52031 69992 70282 885// 333 10062 20027 6///7 82709 87613
AAXX 08184 06193 05483 70112 10034 20009 30136 40148 52029 69952 333 10050 20032 55300 20000 6///7 83/16 87/19
AAXX 08184 71744 NIL
AAXX 08184 71750 16/// /0404 11079 21104 39970 40213 58006 60001 333 11078 21149 70000
AAXX 08184 71751 NIL
AAXX 08184 71752 NIL
AAXX 08184 71753 16/// /3007 10018 21027 30112 40141 53011 60001 333 10031 20017 70000
AAXX 08184 71754 NIL
AAXX 08184 71755 43/// /2207 11176 21212 39791 40154 58033 6///1 333 11174 7////
AAXX 08184 71756 16/// /0000 10005 21001 39141 40248 53006 60001 333 10005 21023 70005 555 10010
AAXX 08184 71758 NIL
AAXX 08184 71760 NIL
AAXX 08184 71761 NIL
AAXX 08184 71762 NIL
AAXX 08184 71763 NIL
AAXX 08184 71765 16/// /3404 10030 21012 39938 40214 57001 60001 333 10073 21003 70000
AAXX 08184 71766 16/// /1207 10068 20052 30168 40240 51005 60001 333 10068 20038 70000
AAXX 08184 71767 NIL
AAXX 08184 71768 46/// /1704 10018 21015 39738 40297 53005 6///1 333 10018 21026 7////
AAXX 08184 71769 16/// /1122 10069 20055 30226 40242 53005 60001 333 10069 20048 70008
AAXX 08184 71770 16/// /0702 10001 21020 39523 40313 51012 60001 333 10001 21018 70000
AAXX 08184 71771 NIL
AAXX 08184 71772 16/// /1118 10070 20058 30243 40249 53005 60001 333 10071 20047 70014
AAXX 08184 71773 16/// /1610 10006 21037 39044 49879 53011 60001 333 10009 21036 70003
AAXX 08184 71774 46/// ///// 10042 6///1 333 10042 20015 7////
AAXX 08184 71775 16/// /0107 10050 20042 30271 40277 53006 60001 333 10050 20031 70092
AAXX 08184 71776 46/// /2909 10016 21021 39651 40307 51012 6///1 333 10016 21008 7////
AAXX 08184 71777 17/// ///// 10010 20009 30002 40258 53003 60031 7//4/ 333 10010 21003 70033 555 10010
AAXX 08184 71778 46/// /3613 6///1 333 7////
AAXX 08184 71779 16/// /1402 10012 21002 39517 40182 53007 60001 333 10027 21033 70028 555 10040
AAXX 08184 71780 NIL
AAXX 08184 71781 46/// /1129 10067 20050 30209 40234 50004 6///1 333 10068 20047 7////
AAXX 08184 71782 46/// /1807 10001 21029 38919 40266 53017 6///1 333 10001 21080 7////
AAXX 08184 71783 NIL
AAXX 08184 71784 17/// /0504 10058 20039 30059 40266 53005 69941 7//4/ 333 10061 20030 70116
AAXX 08184 71785 16/// /0204 10059 20046 30262 40278 53005 60001 333 10062 20038 70038
AAXX 08184 71786 46/// /2624 11068 21081 38393 40263 53003 6///1 333 11068 21073 7////
AAXX 08184 71787 16/// /2908 11037 21050 39655 40148 53006 60001 333 11006 21047 70000
AAXX 08184 71788 NIL
AAXX 08184 71789 NIL
AAXX 08184 71791 NIL
AAXX 08184 71792 NIL
AAXX 08184 71793 NIL
AAXX 08184 71794 NIL
AAXX 08184 71795 NIL
AAXX 08184 71796 NIL
AAXX 08184 71797 NIL
AAXX 08184 71665 NIL
AAXX 08184 71666 16/// /3107 11036 21074 30111 40156 53007 60001 333 11035 21064 70000
AAXX 08184 71667 NIL
AAXX 08184 71668 16/// /3006 11026 21078 30121 40165 51006 60001 333 11017 21079 70003
AAXX 08184 71669 NIL
AAXX 08184 71670 17/// ///// 11023 21061 69951 7//4/ 333 11023 21057 70040
AAXX 08184 71671 16/// /3007 10027 21027 30089 40149 53005 60001 333 10045 20006 70000
AAXX 08184 71672 16/// /2904 11038 21117 39990 40261 58005 60001 333 11009 21090 70000
AAXX 08184 71673 NIL
AAXX 08184 71674 NIL
AAXX 08184 71675 15966 02107 11182 21200 39859 40151 58036 69931 333 11178 21275 70033
AAXX 08184 71679 16/// /0403 10000 21006 39115 40126 52016 60001 333 10053 21007 70000
AAXX 08184 71680 NIL
AAXX 08184 71681 46/// /1601 11023 21029 6///1 333 11017 21030 7////
AAXX 08184 71682 NIL
AAXX 08184 71683 NIL
AAXX 08184 71684 15666 81105 11150 21173 39948 40264 58011 60001 333 11136 21181 70000
AAXX 08184 71685 15366 81609 10012 20003 39744 40293 51005 60001 333 10012 21005 70000
AAXX 08184 71686 469// /2601 11030 21031 39056 40002 53018 6///1 333 11025 21090
AAXX 08184 71687 16/// /1704 10017 20010 39456 40248 53004 60001 333 10018 21004 70000 555 10010
AAXX 08184 71688 16/// /0000 11001 21001 39196 40244 53004 60001 333 10006 21019 70000
AAXX 08184 71689 15966 02510 10045 21007 39535 49987 53009 60001 333 10045 21163 70000
AAXX 08184 71690 NIL
AAXX 08184 71691 15966 63208 11092 21145 30160 40188 53008 60001 333 11087 21122 70000
AAXX 08184 71692 NIL
AAXX 08184 71694 16/// /2301 11070 21136 39899 40275 58008 60001 333 11069 21160 70000
AAXX 08184 71695 NIL
AAXX 08184 71696 16/// /2217 11140 21159 39905 49942 58050 60001 333 11140 21257 70000
AAXX 08184 71697 15966 03208 11025 21111 30092 40267 58002 60001 333 11002 21071 70000
AAXX 08184 71699 16/// /3405 10003 21032 30157 40165 55001 60001 333 10008 21017 70000
AAXX 08184 71043 11583 70000 11200 21251 39842 49937 53007 69901 72277 87500 333 11195 21263 48035 79999 90973
AAXX 08184 71045 16/// /1507 10004 21051 39080 49921 51010 60001 333 10020 21048 70006
AAXX 08184 71050 NIL
AAXX 08184 71051 NIL
AAXX 08184 71052 NIL
AAXX 08184 71066 12974 00000 11132 21160 39550 49974 53017 60001 333 11105 21227 70000
AAXX 08184 71068 12974 72413 10041 21013 39356 40041 53016 60001 86071 333 10053 21045 70000
AAXX 08184 71069 16964 02822 10076 20001 39350 40046 51006 60001 333 10082 21068 70000
AAXX 08184 71076 NIL
AAXX 08184 71077 NIL
AAXX 08184 71079 11374 81811 11081 21084 39716 40003 56067 69901 73672 8662/ 333 11081 21264 48017 79999 90923
AAXX 08184 71081 46964 03307 11435 21452 39983 49996 51009 6///1 333 11376 21435 7////
AAXX 08184 71082 NIL
AAXX 08184 71083 11574 83303 11225 21260 39849 49892 57022 69921 77177 885// 333 11223 21353 48060 70002 90983
AAXX 08184 71090 46964 02606 11306 21352 39939 49975 51007 6///1 333 11278 21324 7////
AAXX 08184 71091 460// /0709 11410 39784 40007 51006 6///1 333 7////
AAXX 08184 71092 46964 02804 11383 39293 49996 52004 6///1 333 11353 21384 7////
AAXX 08184 71093 460// ///// 11323 39448 49964 52004 6///1 333 11287 21333 7////
AAXX 08184 71094 46011 /0209 11299 38989 49907 55002 6///1 333 11232 21299 7////
AAXX 08184 71095 46964 01805 11344 21385 39913 49997 5/003 6///1 333 7////
AAXX 08184 71101 160// /1507 30088 52015 60001 333 70000
AAXX 08184 71104 12674 71408 10019 21017 39070 40187 53003 60001 81570 333 10019 21054 70028
AAXX 08184 71108 12182 80105 10046 20038 30200 40274 55002 60001 8657/ 333 10046 20024 70036
AAXX 08184 71109 11366 81215 10069 20047 30142 40169 55000 60171 76166 885// 333 10069 20043 70804 90983
AAXX 08181 26106 11/96 81304 10009 20000 40106 52011 60022 77177 8872/ 333 10013
AAXX 08181 26313 11/// 81503 10014 20006 40098 52011 60062 76162 8872/ 333 10020
AAXX 08181 26346 32497 81203 11015 21020 40132 52006 886// 333 11005 88710
AAXX 08181 26406 11496 61301 10028 20022 40081 52016 69942 71062 86600 333 10033 86712
AAXX 08181 26416 33/// /1402 10006 20001 40093 52013 333 10007
AAXX 08181 26424 11496 81403 10003 20001 40098 52012 60022 71072 88500 333 10008 88513
AAXX 08181 26544 32697 71403 11017 21029 40127 52009 82532 333 10002
AAXX 08184 71043 11583 70000 11200 21251 39842 49937 53007 69901 72277 87500 333 11195 21263 48035 79999 90973
AAXX 08184 71045 16/// /1507 10004 21051 39080 49921 51010 60001 333 10020 21048 70006
AAXX 08184 71050 NIL
AAXX 08184 71051 NIL
AAXX 08184 71052 NIL
AAXX 08184 71066 12974 00000 11132 21160 39550 49974 53017 60001 333 11105 21227 70000
AAXX 08184 71068 12974 72413 10041 21013 39356 40041 53016 60001 86071 333 10053 21045 70000
AAXX 08184 71069 16964 02822 10076 20001 39350 40046 51006 60001 333 10082 21068 70000
AAXX 08184 71076 NIL
AAXX 08184 71077 NIL
AAXX 08184 71079 11374 81811 11081 21084 39716 40003 56067 69901 73672 8662/ 333 11081 21264 48017 79999 90923
AAXX 08184 71081 46964 03307 11435 21452 39983 49996 51009 6///1 333 11376 21435 7////
AAXX 08184 71082 NIL
AAXX 08184 71083 11574 83303 11225 21260 39849 49892 57022 69921 77177 885// 333 11223 21353 48060 70002 90983
AAXX 08184 71090 46964 02606 11306 21352 39939 49975 51007 6///1 333 11278 21324 7////
AAXX 08184 71091 460// /0709 11410 39784 40007 51006 6///1 333 7////
AAXX 08184 71092 46964 02804 11383 39293 49996 52004 6///1 333 11353 21384 7////
AAXX 08184 71093 460// ///// 11323 39448 49964 52004 6///1 333 11287 21333 7////
AAXX 08184 71094 46011 /0209 11299 38989 49907 55002 6///1 333 11232 21299 7////
AAXX 08184 71095 46964 01805 11344 21385 39913 49997 5/003 6///1 333 7////
AAXX 08184 71101 160// /1507 30088 52015 60001 333 70000
AAXX 08184 71104 12674 71408 10019 21017 39070 40187 53003 60001 81570 333 10019 21054 70028
AAXX 08184 71108 12182 80105 10046 20038 30200 40274 55002 60001 8657/ 333 10046 20024 70036
AAXX 08184 71109 11366 81215 10069 20047 30142 40169 55000 60171 76166 885// 333 10069 20043 70804 90983
AAXX 08184 71930 13974 72705 10028 21048 39167 40099 53013 60003 82071 333 10028 21083 43013 70000
AAXX 08184 71931 16/// /3017 11001 21017 39997 40009 53019 60001 333 10038 21071 70000
AAXX 08184 71934 11674 70000 11074 21087 39652 49909 55002 69901 70272 87500 333 11072 21210 47033 79999 90932
AAXX 08184 71935 12874 12305 11061 21082 39696 49901 53016 60001 81070 333 11039 21106 70004
AAXX 08184 71936 11474 80905 11116 21123 39646 49907 53008 60011 77177 885// 333 11116 21195 48024 70022 90973 93101
AAXX 08184 71937 NIL
AAXX 08184 71938 11774 70000 11294 21324 39959 49990 53011 69901 77671 87500 333 11266 21294 44024 79999 90963
AAXX 08184 71940 NIL
AAXX 08184 71943 12974 22230 10049 21028 39213 40036 58006 60001 80001 333 10050 21008 70000
AAXX 08184 71944 160// ///// 10019 53011 60001 333 10020 21031 70000
AAXX 08184 71945 12983 11904 11076 21113 39509 49983 52019 60001 81070 333 11021 21183 70000
AAXX 08184 71946 12774 20000 11111 21133 39687 49900 53020 60001 81501 333 11080 21203 79999
AAXX 08184 71948 46064 /0807 11212 39839 49954 55000 6///1 333 11210 21239 7////
AAXX 08184 71949 46/// /0303 11045 21070 39018 49871 51014 6///1 333 11016 21101 7////
AAXX 08184 71951 11269 81911 10047 20039 39846 40112 53020 69921 71682 8487/ 333 10052 20014 43023 70160 90933
AAXX 08184 71957 47537 80505 11229 21304 39854 49945 56008 6///1 745// 333 11228 21307 7////
AAXX 08184 71964 12786 71515 10004 21048 39046 49881 53011 60001 83570 333 10009 21038 79999
AAXX 08184 71966 16/// /0000 11151 21175 39386 49846 53012 60001 333 11144 21229 70009 555 10040
AAXX 08184 71968 470// /3304 11240 39897 49963 55002 6///1 745// 333 11240 21291 7////
AAXX 08184 71893 11380 71422 10068 20050 30205 40237 58005 69901 76166 86770 333 10068 20041 70008 90973
AAXX 08184 71894 NIL
AAXX 08184 71896 15866 81915 10025 21011 39323 40156 53015 60001 333 10026 21027 70005
AAXX 08184 71897 11266 81430 10070 20062 3//// 4//// 54000 60211 761XX 8882X 333 10076 20042 70254 90955
AAXX 08184 71898 160// ///// 10081 53019 60001 333 10090 20051 70010
AAXX 08184 71899 11369 82214 10054 20047 3//// 4//// 52023 60021 72582 83277 333 10076 20044 70114 90917
AAXX 08184 71902 12974 02929 11223 21333 30134 40143 50001 60001 333 11200 21234 47050 79999
AAXX 08184 71905 NIL
AAXX 08184 71906 NIL
AAXX 08184 71907 17927 00000 11208 21250 30083 40117 56038 69951 7//44 333 11208 21336 70005
AAXX 08184 71909 16958 00000 11300 21345 39998 40044 56015 60001 333 11299 21357 70000
AAXX 08184 71910 47008 90506 11263 21302 39924 49989 58024 6///1 745// 333 11261 21325 7////
AAXX 08184 71911 46020 00211 11378 39960 40020 52017 6///1 333 11343 21390 7////
AAXX 08184 71912 11266 82016 11102 21113 39831 40019 58062 69901 77111 886// 333 11101 21235 48020 79999 90942
AAXX 08184 71915 11348 80814 11260 21310 39854 49938 58035 60011 77177 886// 333 11260 21393 48043 70010 90983 93101
AAXX 08184 71917 11974 11403 11434 21467 39998 40013 57008 69901 77677 81070 333 11400 21440 48015 79999 90983
AAXX 08184 71922 11574 32516 10013 21024 39524 49990 56011 69901 70176 83500 333 10013 21152 47040 70040 90921
AAXX 08184 71924 11974 03208 11336 21379 39951 40045 51009 69901 77670 333 11297 21361 48038 79999 90962
AAXX 08184 71925 11669 10409 11369 21409 30003 40046 52018 69901 77677 81530 333 11319 21369 44018 79999 90983
AAXX 08184 71926 11456 83621 11257 21313 39912 49937 50001 69921 77177 885// 333 11234 21360 48043 70002 90983
AAXX 08184 71928 16/// /2303 10066 21045 38961 40123 52015 60001 333 10070 21096 70000
AAXX 08184 71726 17/// /2904 11138 21185 39673 40237 55001 60011 7//4/ 333 11137 21176 70014
AAXX 08184 71727 12482 32810 11123 21167 30019 40224 53001 60001 83500 333 11116 21144 70010
AAXX 08184 71728 12686 13208 11133 21174 39998 40229 58002 60001 81500 333 11132 21152 70018
AAXX 08184 71730 NIL
AAXX 08184 71731 12674 82306 11127 21159 39794 40266 58004 60001 8357/ 333 11122 21177 70004
AAXX 08184 71735 NIL
AAXX 08184 71738 11/06 90000 11080 21095 39849 40216 58017 60031 77377 333 11080 21167 47034 70030 90973 93114
AAXX 08184 71739 41566 81608 11139 21176 39861 40242 58017 6//// 77177 88500 333 11138 21191 4//// 7//// 90973
AAXX 08184 71749 16564 82811 11047 21085 39981 40234 58003 60001 333 21086 70005
AAXX 08184 71799 12483 81305 10073 20054 30243 40267 53006 60001 885// 333 10073 20048 70020
AAXX 08184 71800 16/// /2624 10032 20032 30024 40057 53009 60001 333 10060 21007 7////
AAXX 08184 71801 11269 82721 10036 20030 39864 40036 53016 69921 70254 886// 333 10068 21035 70012 90941
AAXX 08184 71803 11232 63115 11008 21021 39860 40047 53027 69981 78576 86500 333 11006 21073 44011 70036 90917
AAXX 08184 71807 16/// /2619 10030 20025 30045 40063 53022 60001 333 10080 21010 70006
AAXX 08184 71808 11974 60209 11104 21147 30045 40093 53004 69951 70372 82079 333 11104 21200 48037 70020 90942
AAXX 08184 71809 11466 72105 11022 21039 30049 40077 52012 69981 77187 87500 333 11014 21066 48063 70204 90927 93101
AAXX 08184 71810 16/// /0307 11096 21129 30085 40153 53014 60001 333 11089 21108 70017
AAXX 08184 71811 NIL
AAXX 08184 71813 16/// /3611 11123 21173 30121 40135 53014 60001 333 11118 21148 70008
AAXX 08184 71814 16/// /3611 11108 21159 30105 40115 53007 60001 333 11105 21173 70006
AAXX 08184 71815 11469 73209 11007 21013 30049 40080 53014 60041 78588 87500 333 11002 21041 47037 70128 90983 93104
AAXX 08184 71114 160// /2403 10040 20036 30224 40273 55001 60011 333 10040 20020 70035
AAXX 08184 71120 12974 62610 10046 21021 39391 40045 53005 60001 80002 333 10048 21086 70000
AAXX 08184 71122 16/// /2309 11005 21054 38586 40205 53002 60001 333 11004 21068 70000
AAXX 08184 71123 12974 72109 10019 21038 39239 40108 50006 60001 82072 333 10022 21071 70000
AAXX 08184 71125 12974 42310 10012 21030 39454 40040 55001 60001 82072 333 70000
AAXX 08184 71129 12874 62004 11009 21059 39284 40123 51002 60001 86070 333 11009 21080 70000
AAXX 08184 71131 NIL
AAXX 08184 71135 16/// /2419 11003 21079 39063 40161 50000 60001 333 11003 21078 70000
AAXX 08184 71137 NIL
AAXX 08184 71140 12974 82612 11034 21057 39664 40174 5/014 60001 86072 333 11033 21096 70000
AAXX 08184 71145 11474 81809 11105 21117 39793 40098 58061 69901 70271 86570 333 11105 21286 48037 79999 90931
AAXX 08184 71148 NIL
AAXX 08184 71185 16464 30210 11051 30053 40077 52013 60001 333 11038 21090 70010
AAXX 08184 71188 11774 73205 11051 21095 30104 40147 51009 69901 72272 85550 333 11050 21102 47021 70048 90931
AAXX 08184 71200 16/// /1003 10066 20051 60001 333 10066 20046 70004
AAXX 08184 71207 17/// /0000 10027 30199 40264 53004 60041 7//4/ 333 10028 20014 70152
AAXX 08184 71260 13/// ///// 11069 21079 39987 40232 58021 60011 333 11068 21109 44015 70015
AAXX 08184 71397 12574 52710 10026 21028 30126 40161 53002 60001 85570 333 10045 20006 70000
AAXX 08184 71400 17/64 /3203 11015 21023 69961 7//4/ 333 11015 21088 70060
AAXX 08184 71403 46/// /3107 10034 20005 30122 40142 53011 6///1 333 10046 20031 7////
AAXX 08184 71411 16/// /3208 10064 20003 30146 40158 55001 60001 333 10067 20008 70000
AAXX 08184 71412 16/// /3014 11007 21018 30122 40132 53023 60001 333 10025 21007 70003
AAXX 08184 71421 NIL
AAXX 08184 71430 16/// /3207 11027 21103 30158 40257 51003 60001 333 10020 21046 70000
AAXX 08184 71431 16/// /3207 11036 21116 30158 40256 58001 60001 333 10007 21068 70000
AAXX 08184 71432 NIL
AAXX 08184 71433 NIL
AAXX 08184 71435 NIL
AAXX 08184 71441 NIL
AAXX 08184 71443 16/// /2311 11019 21067 39678 40096 58029 60001 333 11019 21174 70000
AAXX 08184 71444 16/// /2203 11048 21060 39376 40144 58015 60001 333 11048 21152 70000
AAXX 08184 71447 NIL
AAXX 08184 71467 16/// /1903 11210 21229 39853 49969 51009 60001 333 11207 21241 70000
AAXX 08184 71472 NIL
AAXX 08184 71474 16764 32105 11013 21035 38971 40225 53004 60001 333 11006 21053 70000
AAXX 08184 71510 NIL
AAXX 08184 71538 12574 50000 10030 21061 30041 40276 56004 60001 82501 333 10037 21024 70000
AAXX 08184 71600 16564 83014 10062 20034 30130 40136 53006 60001 333 10081 20053 70000
AAXX 08184 71601 NIL
AAXX 08184 71930 13974 72705 10028 21048 39167 40099 53013 60003 82071 333 10028 21083 43013 70000
AAXX 08184 71931 16/// /3017 11001 21017 39997 40009 53019 60001 333 10038 21071 70000
AAXX 08184 71934 11674 70000 11074 21087 39652 49909 55002 69901 70272 87500 333 11072 21210 47033 79999 90932
AAXX 08184 71935 12874 12305 11061 21082 39696 49901 53016 60001 81070 333 11039 21106 70004
AAXX 08184 71936 11474 80905 11116 21123 39646 49907 53008 60011 77177 885// 333 11116 21195 48024 70022 90973 93101
AAXX 08184 71937 NIL
AAXX 08184 71938 11774 70000 11294 21324 39959 49990 53011 69901 77671 87500 333 11266 21294 44024 79999 90963
AAXX 08184 71940 NIL
AAXX 08184 71943 12974 22230 10049 21028 39213 40036 58006 60001 80001 333 10050 21008 70000
AAXX 08184 71944 160// ///// 10019 53011 60001 333 10020 21031 70000
AAXX 08184 71945 12983 11904 11076 21113 39509 49983 52019 60001 81070 333 11021 21183 70000
AAXX 08184 71946 12774 20000 11111 21133 39687 49900 53020 60001 81501 333 11080 21203 79999
AAXX 08184 71948 46064 /0807 11212 39839 49954 55000 6///1 333 11210 21239 7////
AAXX 08184 71949 46/// /0303 11045 21070 39018 49871 51014 6///1 333 11016 21101 7////
AAXX 08184 71951 11269 81911 10047 20039 39846 40112 53020 69921 71682 8487/ 333 10052 20014 43023 70160 90933
AAXX 08184 71957 47537 80505 11229 21304 39854 49945 56008 6///1 745// 333 11228 21307 7////
AAXX 08184 71964 12786 71515 10004 21048 39046 49881 53011 60001 83570 333 10009 21038 79999
AAXX 08184 71966 16/// /0000 11151 21175 39386 49846 53012 60001 333 11144 21229 70009 555 10040
AAXX 08184 71968 470// /3304 11240 39897 49963 55002 6///1 745// 333 11240 21291 7////
AAXX 08184 71500 NIL
AAXX 08184 71501 NIL
AAXX 08184 71502 NIL
AAXX 08184 71503 NIL
AAXX 08184 71504 NIL
AAXX 08184 71505 16/// /0404 11003 21017 39144 49849 53010 60001 333 10036 21057 7////
AAXX 08184 71506 NIL
AAXX 08184 71507 NIL
AAXX 08184 71508 17/// ///// 11004 21072 30131 40272 58004 69971 7//4/ 333 10013 21035 70007
AAXX 08184 71509 NIL
AAXX 08184 71511 16/// /2311 11003 21057 39458 40100 56021 60001 333 11003 21091 70000
AAXX 08184 71512 16/// /0202 11102 21132 30148 40163 53012 60001 333 11100 21134 70012
AAXX 08184 71513 15666 83612 11122 21176 30123 40139 53014 60001 333 11118 21149 70003
AAXX 08184 71514 NIL
AAXX 08184 71515 16/// /2212 11022 21064 39425 40134 58015 60001 333 11022 21105 70000
AAXX 08184 71516 16/// /2215 10000 21071 60001 333 10000 21099 70007
AAXX 08184 71517 NIL
AAXX 08184 71518 NIL
AAXX 08184 71519 NIL
AAXX 08184 71520 NIL
AAXX 08184 71521 NIL
AAXX 08184 71522 NIL
AAXX 08184 71523 NIL
AAXX 08184 71524 NIL
AAXX 08184 71525 NIL
AAXX 08184 71526 NIL
AAXX 08184 71527 15366 82110 11066 21077 39687 40207 58017 60001 333 11066 21101 70000
AAXX 08184 71528 NIL
AAXX 08184 71529 46/// /0805 11123 21143 39692 49920 53009 6///1 333 11123 21223 7////
AAXX 08184 71532 15966 81902 11073 21127 39909 40266 58006 60001 333 11072 21141 70010
AAXX 08184 71534 16964 01502 11050 21090 39987 40266 58007 60001 333 11032 21099 70005
AAXX 08184 71535 NIL
AAXX 08184 71536 NIL
AAXX 08184 71537 NIL
AAXX 08184 71539 NIL
AAXX 08184 71540 NIL
AAXX 08184 71541 NIL
AAXX 08184 71542 16/// /2517 10051 21015 60001 333 10051 21203 70000
AAXX 08184 71543 NIL
AAXX 08184 71544 NIL
AAXX 08184 71545 16/// ///// 10062 21019 60001 333 10062 21049 70000
AAXX 08184 71546 NIL
AAXX 08184 71547 NIL
AAXX 08184 71548 NIL
AAXX 08184 71549 NIL
AAXX 08184 71864 NIL
AAXX 08184 71865 NIL
AAXX 08184 71866 46764 62311 11006 21062 39472 40091 58018 6///1 333 11005 21085 7////
AAXX 08184 71867 11/12 91808 11045 21049 39682 40019 58052 69961 77122 333 11042 21138 47028 70006 90921 93101
AAXX 08184 71868 16/// /0000 11022 21053 39612 40060 58052 60001 333 11022 21196 70000
AAXX 08184 71869 11574 62306 11003 21060 39522 40051 57022 69901 70172 81571 333 11003 21149 43007 79999 90940
AAXX 08184 71871 15966 02619 10040 21038 39270 40077 56002 60001 333 10041 21092 70000
AAXX 08184 71877 12986 72723 10089 21036 38878 40142 53021 60001 87070 333 10091 21035 70000
AAXX 08184 71878 12774 72004 11006 21045 39059 40142 53013 60001 81572 333 11006 21065 70000
AAXX 08184 71879 16964 02610 10058 21038 39292 40094 52005 60001 333 10061 21033 70000
AAXX 08184 71880 12582 80000 11004 21041 39157 40281 52014 60001 885// 333 11003 21027 70000
AAXX 08184 71882 NIL
AAXX 08184 71883 NIL
AAXX 08184 71887 12986 61115 10027 21011 39824 40252 53006 60001 86070 333 10027 21020 70026
AAXX 08184 71889 12574 81611 10019 21033 39871 40298 53003 60001 87501 333 10020 21009 70016
AAXX 08184 71891 16864 33404 10031 21005 39940 40216 57001 60001 333 10073 21001 70000
AAXX 08184 71892 11569 80605 10064 20047 30266 40271 53003 69941 72565 885// 333 10064 20037 70042 90936
AAXX 08184 71950 15766 11109 10040 20010 39467 40093 53016 60001 333 10043 21015 70018
AAXX 08184 71952 16/// /1002 10033 21003 39266 40114 53011 60001 333 10043 21020 70000
AAXX 08184 71954 46/// /2210 11033 21038 39620 49997 56058 6///1 333 11033 21143 7////
AAXX 08184 71956 NIL
AAXX 08184 71959 NIL
AAXX 08184 71960 460// /0514 11229 39821 49957 58008 6///1 333 11229 21288 7////
AAXX 08184 71962 17/// /2007 11014 21063 39787 40217 58014 60411 7//4/ 333 11014 21071 70411
AAXX 08184 71963 NIL
AAXX 08184 71967 16/// /2805 11070 21108 30133 40241 53007 60001 333 11004 21079 70014
AAXX 08184 71970 NIL
AAXX 08184 71971 NIL
AAXX 08184 71972 460// /2416 11246 39587 40069 52001 6///1 333 11224 21271 7////
AAXX 08184 71973 46/// /2902 11016 21031 39890 40079 53015 6///1 333 11015 21054 7////
AAXX 08184 71974 NIL
AAXX 08184 71975 460// /2725 11351 39196 49954 51003 6///1 333 11273 21351 7////
AAXX 08184 71976 NIL
AAXX 08184 71977 NIL
AAXX 08184 71978 NIL
AAXX 08184 71979 NIL
AAXX 08184 71980 46/// ///// 11162 21182 6///1 333 11162 21268 7//// 555 10010
AAXX 08184 71981 NIL
AAXX 08184 71982 NIL
AAXX 08184 71983 NIL
AAXX 08184 71984 16/// /2203 11236 21259 39942 49950 55003 60001 333 11235 21264 70000
AAXX 08184 71985 NIL
AAXX 08184 71986 NIL
AAXX 08184 71987 16/// /3117 11026 21037 30133 40143 53016 60001 333 11012 21030 70006
AAXX 08184 71988 NIL
AAXX 08184 71989 16/// /1908 11254 21279 39997 40014 55001 60001 333 11218 21268 70000 555 10010
AAXX 08184 71990 NIL
AAXX 08184 71999 46/// ///// 10079 6///1 333 10081 20003 7////
AAXX 08184 71604 16/// /3016 11033 21033 60001 333 10005 21051 70024 555 10050
AAXX 08184 71605 17/// /3605 10056 20056 30115 40267 53003 60051 7//4/ 333 10056 20026 70215
AAXX 08184 71611 NIL
AAXX 08184 71612 NIL
AAXX 08184 71614 NIL
AAXX 08184 71616 16/// /2907 11083 21105 30108 40232 53005 60001 333 11046 21095 70030
AAXX 08184 71617 16/// /2708 11128 21164 30055 40234 53001 60001 333 11121 21145 70010
AAXX 08184 71618 15666 62321 11140 21154 39909 49947 58049 60001 333 11140 21256 70000
AAXX 08184 71619 NIL
AAXX 08184 71622 NIL
AAXX 08184 71632 46/// /2311 11057 21065 39495 49935 56053 6///1 333 11057 21255 7//// 555 10030
AAXX 08184 71634 16/// /3004 11047 21086 30010 40167 53013 60001 333 11041 21088 70035 555 10030
AAXX 08184 71638 16/// /1305 10067 20041 30149 40255 51006 60001 333 10069 20034 70029
AAXX 08184 71639 11574 13005 11026 21108 30019 40267 58004 69901 70288 81500 333 11008 21060 79999 90961
AAXX 08184 71642 11466 81805 11096 21110 39659 40228 58019 69981 77177 885// 333 11096 21229 44040 70012 90973
AAXX 08184 71114 160// /2403 10040 20036 30224 40273 55001 60011 333 10040 20020 70035
AAXX 08184 71120 12974 62610 10046 21021 39391 40045 53005 60001 80002 333 10048 21086 70000
AAXX 08184 71122 16/// /2309 11005 21054 38586 40205 53002 60001 333 11004 21068 70000
AAXX 08184 71123 12974 72109 10019 21038 39239 40108 50006 60001 82072 333 10022 21071 70000
AAXX 08184 71125 12974 42310 10012 21030 39454 40040 55001 60001 82072 333 70000
AAXX 08184 71129 12874 62004 11009 21059 39284 40123 51002 60001 86070 333 11009 21080 70000
AAXX 08184 71131 NIL
AAXX 08184 71135 16/// /2419 11003 21079 39063 40161 50000 60001 333 11003 21078 70000
AAXX 08184 71137 NIL
AAXX 08184 71140 12974 82612 11034 21057 39664 40174 5/014 60001 86072 333 11033 21096 70000
AAXX 08184 71145 11474 81809 11105 21117 39793 40098 58061 69901 70271 86570 333 11105 21286 48037 79999 90931
AAXX 08184 71148 NIL
AAXX 08184 71185 16464 30210 11051 30053 40077 52013 60001 333 11038 21090 70010
AAXX 08184 71188 11774 73205 11051 21095 30104 40147 51009 69901 72272 85550 333 11050 21102 47021 70048 90931
AAXX 08184 71200 16/// /1003 10066 20051 60001 333 10066 20046 70004
AAXX 08184 71207 17/// /0000 10027 30199 40264 53004 60041 7//4/ 333 10028 20014 70152
AAXX 08184 71260 13/// ///// 11069 21079 39987 40232 58021 60011 333 11068 21109 44015 70015
AAXX 08184 71816 12974 72809 11192 21257 30102 40167 55001 60001 85011 333 11190 21262 70000
AAXX 08184 71817 NIL
AAXX 08184 71818 12874 43113 11148 21188 30109 40128 53003 60001 82071 333 11139 21196 70000
AAXX 08184 71822 12574 12704 11163 21209 39742 40240 55004 60001 81501 333 11161 21216 79999
AAXX 08184 71825 11474 30000 11216 21273 39494 40207 52002 69901 77611 83600 333 11208 21295 48103 79999 90931
AAXX 08184 71827 NIL
AAXX 08184 71828 16964 03004 11258 21311 39521 40211 53001 60001 333 11253 21388 70000
AAXX 08184 71831 12774 71304 11137 21151 39942 40237 58018 60001 87530 333 11136 21190 48057 79999
AAXX 08184 71832 NIL
AAXX 08184 71834 11674 52702 11098 21124 39774 40219 58010 69901 77172 85500 333 11092 21192 48037 70004 90947
AAXX 08184 71841 NIL
AAXX 08184 71842 11474 82306 11085 21101 39725 40211 57017 69921 77177 885// 333 11085 21128 48018 70002 90983
AAXX 08184 71844 NIL
AAXX 08184 71845 11262 52102 11152 21170 39703 40198 58018 69901 77177 85700 333 11152 21225 44025 79999 90921
AAXX 08184 71850 NIL
AAXX 08184 71852 16964 32011 11026 21061 39871 40171 58017 60001 333 11025 21092 70000
AAXX 08184 71854 11474 31706 11076 21106 39688 40176 58027 69901 70177 81630 333 11076 21197 48020 70002 90929
AAXX 08184 71858 NIL
AAXX 08184 71861 16/// /2213 11028 21073 39409 40143 58012 60001 333 11028 21096 70000
AAXX 08184 71862 12874 82312 11029 21063 39467 40181 58017 60001 8802/ 333 11027 21094 70000
AAXX 08184 71863 46964 32212 11009 21060 39434 40142 58014 6///1 333 11009 21114 7////
AAXX 08184 71102 NIL
AAXX 08184 71105 NIL
AAXX 08184 71107 NIL
AAXX 08184 71110 NIL
AAXX 08184 71111 15966 31508 10054 20029 30088 40096 52013 60001 333 10096 20046 70050
AAXX 08184 71112 16/// ///// 60001 333 70056
AAXX 08184 71113 17/// /2001 10041 20040 30247 40271 53003 60011 7//4/ 333 10041 20013 70052
AAXX 08184 71115 NIL
AAXX 08184 71116 16/// /2905 10002 21036 39074 40183 52011 60001 333 10002 21107 70000
AAXX 08184 71118 16/// /2307 10028 21052 39272 40099 51006 60001 333 10029 21059 70000
AAXX 08184 71121 16964 02615 10053 21056 39272 40094 53006 60001 333 10055 21034 70000
AAXX 08184 71127 16/// /2409 10035 21032 39188 40089 50005 60001 333 10035 21036 70000
AAXX 08184 71130 15966 61919 11013 21055 39576 40038 56048 60001 333 11011 21174 70000
AAXX 08184 71132 17366 82903 11090 21098 39612 49928 53002 60021 7004/ 333 11090 21240 70015
AAXX 08184 71133 16/// /2613 10033 21051 39337 40039 56009 60001 333 10033 21101 7////
AAXX 08184 71139 NIL
AAXX 08184 71141 NIL
AAXX 08184 71142 15966 12312 10011 21044 39158 40134 50000 60001 333 10011 21061 70000
AAXX 08184 71143 NIL
AAXX 08184 71144 NIL
AAXX 08184 71147 16/// /2410 10000 21047 60001 333 10000 21102 70000
AAXX 08184 71149 NIL
AAXX 08184 71603 12474 82704 10048 20007 30109 40162 55005 60001 87501 333 10063 20014 70000
AAXX 08184 71607 16/// /3504 11012 21030 30138 40171 53004 60001 333 11007 21061 70000
AAXX 08184 71609 12574 83209 11006 21045 30028 40164 53001 60001 8657/ 333 10001 21037 79999
AAXX 08184 71610 17448 83106 11072 21092 39916 40218 53012 60001 771// 333 10005 21072 70013
AAXX 08184 71621 12974 03004 11036 21120 30151 40260 58004 60001 333 10010 21064 70000
AAXX 08184 71623 NIL
AAXX 08184 71624 12574 23203 11019 21080 30050 40267 58005 60001 81130 333 10004 21052 70002
AAXX 08184 71625 16664 63205 11097 21157 30098 40265 58006 60001 333 11085 21164 70000
AAXX 08184 71627 11574 82808 11065 21124 30194 40240 52005 69901 72272 8653/ 333 11006 21071 42002 70012 90912
AAXX 08184 71628 11560 22708 11085 21140 30110 40256 54000 69941 70177 82500 333 11055 21103 4-2017 70026 909/6
AAXX 08184 71630 NIL
AAXX 08184 71631 16/// /2703 11038 21087 39745 40258 58008 60001 333 11026 21103 70000
AAXX 08184 71633 12874 62604 11028 21077 39983 40262 57009 60001 86070 333 11026 21085 70006
AAXX 08184 71705 12474 73010 11033 21065 30068 40157 53005 60001 87800 333 11016 21053 70004
AAXX 08184 71706 12474 72907 11025 21051 30093 40154 53015 60001 87500 333 10012 21028 79999
AAXX 08184 71707 11474 72703 10007 21018 30045 40122 53024 69901 70252 87500 333 10024 21022 44014 70004 90921
AAXX 08184 71709 11480 83313 11018 21036 30117 40130 53033 69921 70282 885// 333 10005 21024 43004 70042 90941
AAXX 08184 71711 NIL
AAXX 08184 71714 16/// /2307 11070 21117 30128 40223 53007 60001 333 11057 21084 70016 555 10020
AAXX 08184 71715 16/// /3607 11094 21143 30012 40199 52004 60001 333 11078 21115 70016
AAXX 08184 71718 12583 62608 11091 21129 30124 40191 52005 60001 84570 333 11074 21108 70042
AAXX 08184 71719 NIL
AAXX 08184 71250 NIL
AAXX 08184 71251 16/// /2713 10066 21040 39228 40159 53015 60001 333 10066 21074 70000
AAXX 08184 71252 NIL
AAXX 08184 71253 46/// /2505 11018 21018 6///1 333 11018 21210 7////
AAXX 08184 71254 16/// /2610 10032 21015 60001 333 10032 21042 70000
AAXX 08184 71255 16/// /2717 10043 21011 60001 333 10043 21159 70007 555 10010
AAXX 08184 71256 46/// /2804 10028 21028 39163 40096 53013 6///1 333 10029 21069 7////
AAXX 08184 71257 NIL
AAXX 08184 71258 NIL
AAXX 08184 71259 NIL
AAXX 08184 71261 16/// /2305 11005 21065 39994 40260 58006 60001 333 10009 21031 70000
AAXX 08184 71263 11560 32908 11003 21085 39972 40268 58006 69901 70281 83100 333 10001 21031 79999 909/5
AAXX 08184 71264 16/// /3108 10049 21018 30113 40145 53006 60001 333 10052 20026 70000
AAXX 08184 71265 15966 03107 11006 21096 30174 40270 58004 60001 333 10014 21033 70000
AAXX 08184 71266 NIL
AAXX 08184 71267 15966 32629 10066 21036 39076 40170 52018 60001 333 10066 20001 70000
AAXX 08184 71268 NIL
AAXX 08184 71269 NIL
AAXX 08184 71270 NIL
AAXX 08184 71271 16/// ///// 10065 21023 60001 333 10065 21037 70000
AAXX 08184 71272 17548 81906 11116 21125 39572 49931 58047 60001 771// 333 11116 21256 70000
AAXX 08184 71273 NIL
AAXX 08184 71274 NIL
AAXX 08184 71275 NIL
AAXX 08184 71276 NIL
AAXX 08184 71277 NIL
AAXX 08184 71278 NIL
AAXX 08184 71279 16/// /3607 11113 21158 30102 40170 53009 60001 333 11110 21155 70012
AAXX 08184 71281 NIL
AAXX 08184 71282 46/// /2703 11070 21102 39995 40274 58004 6///1 333 11035 21108 7////
AAXX 08184 71283 NIL
AAXX 08184 71284 16/// ///// 10052 21023 60001 333 10053 21050 70000
AAXX 08184 71285 NIL
AAXX 08184 71286 NIL
AAXX 08184 71287 NIL
AAXX 08184 71288 NIL
AAXX 08184 71289 NIL
AAXX 08184 71290 17666 61414 10020 20001 39285 40116 53010 60031 7004/ 333 10019 21028 70025
AAXX 08184 71291 NIL
AAXX 08184 71292 15666 82114 11020 21048 39504 40116 58025 60001 333 11020 21095 70000
AAXX 08184 71294 16/// /3304 11075 21164 39837 40252 56009 60001 333 11054 70003
AAXX 08184 71295 NIL
AAXX 08184 71296 NIL
AAXX 08184 71297 16/// /2805 10012 21078 60001 333 10014 21022 70000
AAXX 08184 71298 NIL
AAXX 08184 71299 NIL
AAXX 08184 71350 16/// /2906 11029 21047 30079 40145 53016 60001 333 10009 21030 70000
AAXX 08184 71351 NIL
AAXX 08184 71352 16/// /3005 11029 21075 39795 40260 58005 60001 333 11017 21068 70000
AAXX 08184 71353 NIL
AAXX 08184 71354 NIL
AAXX 08184 71355 NIL
AAXX 08184 71356 NIL
AAXX 08184 71357 NIL
AAXX 08184 71358 16/// /2606 11302 21339 39938 49974 53007 60001 333 11278 21325 70008
AAXX 08184 71359 NIL
AAXX 08184 71360 NIL
AAXX 08184 71361 NIL
AAXX 08184 71362 NIL
AAXX 08184 71363 NIL
AAXX 08184 71364 NIL
AAXX 08184 71365 NIL
AAXX 08184 71368 15966 02907 11012 21076 39866 40265 58006 60001 333 11010 21056 70000
AAXX 08184 71369 15966 82723 10076 21011 39349 40046 51007 60001 333 10080 21072 70000
AAXX 08184 71370 46/// /3105 11081 21128 30080 40220 53004 6///1 333 11046 21099 7////
AAXX 08184 71371 17566 82907 11060 21104 30199 40234 52004 60001 771// 333 10000 21065 70008
AAXX 08184 71372 NIL
AAXX 08184 71373 NIL
AAXX 08184 71374 NIL
AAXX 08184 71375 NIL
AAXX 08184 71376 16/// /3103 11083 21138 39940 40245 55001 60001 333 11054 21120 70010
AAXX 08184 71377 16/// /2708 11066 21109 30188 40238 53004 60001 333 11006 21073 70015
AAXX 08184 71378 16/// /3206 11107 21173 30013 40229 53001 60001 333 11089 21128 70000
AAXX 08184 71379 16/// /3109 11140 21195 30036 40214 56001 60001 333 11138 21183 70007
AAXX 08184 71380 NIL
AAXX 08184 71381 NIL
AAXX 08184 71382 16/// /0000 11127 21159 39214 40182 55000 60001 333 11096 21172 70020
AAXX 08184 71383 NIL
AAXX 08184 71384 NIL
AAXX 08184 71385 NIL
AAXX 08184 71386 NIL
AAXX 08184 71387 NIL
AAXX 08184 71388 NIL
AAXX 08184 71389 46/// /3006 11085 21111 6///1 333 11058 21098 7////
AAXX 08184 71390 NIL
AAXX 08184 71391 16/// ///// 11104 21148 60001 333 11061 21110 70011
AAXX 08184 71392 16/// /2310 11079 21113 60001 333 11057 21083 70026
AAXX 08184 71393 NIL
AAXX 08184 71395 12574 43109 10028 21018 39966 40145 53006 69901 84500 333 10038 20010 79999
AAXX 08184 71398 15966 82202 11171 21191 30234 40246 58020 60001 333 11171 21267 70000
AAXX 08184 71399 NIL
AAXX 08184 71812 46764 32610 11212 21244 39902 49916 56023 6///1 333 11204 21329 7////
AAXX 08184 71819 15966 00412 11095 21122 30045 40087 53005 60001 333 11076 21137 70000
AAXX 08184 71820 16/// /3405 11039 21115 30136 40253 50000 60001 333 10013 21064 70000
AAXX 08184 71823 16964 00000 11274 21320 39839 40255 58005 60001 333 11274 21405 70000
AAXX 08184 71824 46/// /2603 11161 21202 6///1 333 11151 21235 7////
AAXX 08184 71826 16/// /0000 11351 21405 39978 40025 51003 60001 333 11288 21353 70000 555 10020
AAXX 08184 71829 16/// /2710 11094 21149 30010 40176 53006 60001 333 11093 21132 70020
AAXX 08184 71833 46/// /3106 11020 21081 6///1 333 11013 21057 7////
AAXX 08184 71835 16/// /2104 11148 21162 39692 40192 58018 60001 333 11148 21225 70000
AAXX 08184 71837 NIL
AAXX 08184 71839 NIL
AAXX 08184 71840 46/// /2412 11007 21054 6///1 333 11007 21090 7////
AAXX 08184 71846 16/// /2205 11131 21150 39861 40189 58027 60001 333 11131 21268 70000
AAXX 08184 71847 NIL
AAXX 08184 71848 NIL
AAXX 08184 71849 16/// /2010 11027 21061 39871 40174 58016 60001 333 11027 21091 70000
AAXX 08184 71201 16/// ///// 10064 20042 60001 333 10065 20043 70086
AAXX 08184 71202 16/// ///// 10041 21034 60001 333 10041 21067 70005
AAXX 08184 71203 15566 81706 10018 21010 39759 40289 52005 60001 333 10018 21007 70013
AAXX 08184 71209 46/// /0909 10061 6///1 333 10062 20037 7////
AAXX 08184 71211 46/// /0104 10053 20050 30256 40268 53005 6///1 333 10053 20025 7////
AAXX 08184 71212 16/// /3204 11108 21159 39352 40176 55000 60001 333 11057 21126 70020 555 10010
AAXX 08184 71213 46/// /1205 11149 21168 39946 40261 58010 6///1 333 11135 21192 7////
AAXX 08184 71214 NIL
AAXX 08184 71215 46/// /1303 10012 21010 39950 40302 53002 6///1 333 10013 21023 7////
AAXX 08184 71216 16/// /1502 10008 21006 39665 40294 53006 60001 333 10008 21006 70000
AAXX 08184 71217 NIL
AAXX 08184 71218 16/// /1703 10007 21003 39840 40276 51004 60001 333 10016 21008 70017 555 10020
AAXX 08184 71219 46/// /1514 10073 20037 30102 40108 53018 6///1 333 10087 20044 7////
AAXX 08184 71220 46/// /1820 10078 20053 6///1 333 10085 20050 7////
AAXX 08184 71221 NIL
AAXX 08184 71222 16/// /2501 11031 21034 39055 40016 53017 60001 333 11027 21103 70000
AAXX 08184 71223 NIL
AAXX 08184 71224 NIL
AAXX 08184 71225 NIL
AAXX 08184 71226 NIL
AAXX 08184 71227 NIL
AAXX 08184 71228 NIL
AAXX 08184 71229 NIL
AAXX 08184 71230 16/// /2609 10043 21021 39188 40073 51006 60001 333 10065 21021 70000
AAXX 08184 71231 16/// /2817 10068 21041 60001 333 10068 21061 70000
AAXX 08184 71232 16/// /2310 10055 21052 38656 40149 51015 60001 333 10057 21026 70000
AAXX 08184 71233 16/// /1603 10040 21048 60001 333 10040 21016 70000
AAXX 08184 71234 16/// /2727 10066 21046 38970 40153 53017 60001 333 10067 21022 70000
AAXX 08184 71235 16/// /2713 10074 21034 60001 333 10074 21026 70000
AAXX 08184 71236 46/// /3019 10010 21045 6///1 333 10011 21024 7////
AAXX 08184 71237 46/// /0201 11046 21078 39311 40138 51015 6///1 333 11044 21073 7////
AAXX 08184 71238 16/// /2504 10082 21030 60001 333 10082 21058 70000
AAXX 08184 71239 NIL
AAXX 08184 71240 NIL
AAXX 08184 71241 NIL
AAXX 08184 71242 16/// /1603 11016 21045 60001 333 11016 21060 70000
AAXX 08184 71243 NIL
AAXX 08184 71244 16/// /2925 10071 21036 38929 40157 52011 60001 333 10073 21066 70000
AAXX 08184 71245 NIL
AAXX 08184 71246 NIL
AAXX 08184 71247 15966 02310 10050 21033 39291 40152 51012 60001 333 10050 21080 70000
AAXX 08184 71248 16/// /1803 10057 21041 38835 40137 53019 60001 333 10081 21048 70000 555 10010
AAXX 08184 71249 NIL
AAXX 08184 71700 15766 82904 11021 21075 30142 40168 51005 60001 333 11017 21078 70003
AAXX 08184 71701 12774 72904 11019 21078 30105 40168 53004 60001 81570 333 11019 21050 70004
AAXX 08184 71702 16/// /3211 11030 21057 30132 40147 53014 60001 333 10000 21034 70005
AAXX 08184 71703 11569 83210 11093 21120 39880 40186 52006 69901 70271 888// 333 11069 21113 47017 70048 90951
AAXX 08184 71704 17966 03203 10008 21078 30047 40273 58006 69931 7004/ 333 10011 21009 70011
AAXX 08184 71710 NIL
AAXX 08184 71712 16/// /2709 11069 21102 30185 40248 52007 60001 333 11018 21075 70024
AAXX 08184 71713 NIL
AAXX 08184 71716 NIL
AAXX 08184 71717 NIL
AAXX 08184 71720 16/// /1113 10061 20041 30096 40250 50001 60001 333 10063 20023 70025
AAXX 08184 71721 NIL
AAXX 08184 71723 NIL
AAXX 08184 71724 NIL
AAXX 08184 71732 16/// /2402 11112 21156 60001 333 11109 21140 70000
AAXX 08184 71733 17/// /1904 11125 21148 39813 40267 58007 69931 7//4/ 333 11125 21176 70003
AAXX 08184 71734 NIL
AAXX 08184 71736 NIL
AAXX 08184 71737 NIL
AAXX 08184 71741 16/// /1115 10028 21005 39820 40247 53004 60001 333 10029 21018 70023
AAXX 08184 71742 46/// /3015 11011 21015 39861 40048 53027 6///1 333 11006 21073 7////
AAXX 08184 71743 NIL
AAXX 08184 71744 16/// /2905 11031 21083 30121 40163 51013 60001 333 11029 21069 70036 555 10020
AAXX 08184 71745 NIL
AAXX 08184 71746 NIL
AAXX 08184 71747 NIL
AAXX 08184 71748 NIL
AAXX 08184 71300 NIL
AAXX 08184 71301 NIL
AAXX 08184 71302 16/// /1914 10027 21007 39335 40154 53016 60001 333 10028 21024 70006
AAXX 08184 71303 46/// ///// 10031 21052 6///1 333 10035 21016 7////
AAXX 08184 71305 15966 02709 11015 21018 39638 49928 56001 60001 333 11015 21202 70000
AAXX 08184 71306 17920 02119 11170 21191 30083 40117 56038 60001 710// 333 11174 21304 70000
AAXX 08184 71307 16/// /3003 10011 21067 30020 40276 58003 60001 333 10013 21010 70000
AAXX 08184 71308 16/// /2810 11010 21031 30063 40148 53016 60001 333 10037 21010 70000
AAXX 08184 71309 NIL
AAXX 08184 71310 NIL
AAXX 08184 71311 16/// /3409 11008 21046 30129 40154 53007 60001 333 10010 21019 70000
AAXX 08184 71312 16/// /2218 11015 21056 39572 40034 56048 60001 333 11012 21181 70000
AAXX 08184 71314 16/// /2806 11054 21101 39898 40261 58004 60001 333 11042 21122 70000
AAXX 08184 71315 16/// /2609 11069 21121 30121 40176 52020 60001 333 11054 21083 70035 555 10020
AAXX 08184 71316 16/// /2714 10067 21025 39359 40035 53002 60001 333 10071 21041 70000
AAXX 08184 71317 NIL
AAXX 08184 71318 16/// /2710 10018 21052 39171 40123 53011 60001 333 10018 21079 70000
AAXX 08184 71319 16/// /0803 11109 21124 39287 40168 53001 60001 333 11062 21117 70008
AAXX 08184 71320 16/// /3207 11437 21482 39987 49987 51008 60001 333 11377 21437 70000
AAXX 08184 71321 NIL
AAXX 08184 71322 NIL
AAXX 08184 71323 NIL
AAXX 08184 71331 17/// /2407 11041 21056 60031 7//4/ 333 11041 21140 70029 555 10040
AAXX 08184 71332 NIL
AAXX 08184 71334 46/// /1905 11117 21133 39598 49932 58048 6///1 333 11117 21275 7////
AAXX 08184 71335 46964 0//// 11254 39453 40098 51012 6///1 333 11201 21259 7////
AAXX 08184 71336 NIL
AAXX 08184 71337 46/// /3612 11046 21051 39819 40059 53024 6///1 333 11022 21096 7////
AAXX 08184 71338 46556 80504 11287 21330 39979 49986 53004 6///1 333 11259 21349 7////
AAXX 08184 71339 16964 03411 11124 21213 30084 40099 55003 60001 333 11124 21197 70000
AAXX 08184 71340 NIL
AAXX 08184 71341 NIL
AAXX 08184 71342 NIL
AAXX 08184 71343 NIL
AAXX 08184 71344 NIL
AAXX 08184 71345 NIL
AAXX 08184 71346 NIL
AAXX 08184 71347 NIL
AAXX 08184 71348 NIL
AAXX 08184 71349 NIL
AAXX 08184 71051 NIL
AAXX 08184 71055 NIL
AAXX 08184 71057 NIL
AAXX 08184 71059 460// ///// 11282 39878 49971 53006 6///1 333 11248 21297 7////
AAXX 08184 71061 16/// /2309 10057 21023 39297 40065 53007 60001 333 10058 21037 70000
AAXX 08184 71062 46/// /2307 10057 21038 39026 40082 51014 6///1 333 10059 21028 7////
AAXX 08184 71064 460// /0509 11338 39812 40038 51017 6///1 333 11303 21338 7////
AAXX 08184 71065 NIL
AAXX 08184 71067 NIL
AAXX 08184 71070 NIL
AAXX 08184 71073 NIL
AAXX 08184 71074 16/// ///00 11319 21351 39948 40029 58002 60001 333 11319 21350 70000
AAXX 08184 71075 16/// /2506 11044 21051 39309 49914 56017 60001 333 11044 21217 70000 555 10050
AAXX 08184 71078 NIL
AAXX 08184 71084 460// ///// 11354 39981 40031 52020 6///1 333 11290 21355 7////
AAXX 08184 71085 15666 82512 10029 21039 38833 40225 51021 60001 333 10032 21011 70000
AAXX 08184 71087 NIL
AAXX 08184 71088 460// /0904 11347 51010 6///1 333 11343 21390 7////
AAXX 08184 71089 NIL
AAXX 08184 71096 460// ///// 11306 39202 49960 53001 6///1 333 11283 21310 7////
AAXX 08184 71097 46464 32812 11305 39537 40033 51012 6///1 333 11251 21312 7////
AAXX 08184 71098 43/// /1705 11134 21150 39766 40143 58040 6///1 333 11134 21293 7////
AAXX 08184 71099 43/// /2112 11176 21213 30086 40107 58042 6///1 333 11176 21262 7////
AAXX 08184 71550 NIL
AAXX 08184 71551 NIL
AAXX 08184 71552 NIL
AAXX 08184 71553 NIL
AAXX 08184 71554 NIL
AAXX 08184 71555 16/// /2728 10044 21055 38601 40164 53018 60001 333 10047 21030 70000
AAXX 08184 71556 16/// /1912 11023 21050 39498 40110 58021 60001 333 11023 21098 70000
AAXX 08184 71557 46/// /1405 10045 20011 6///1 333 10064 21046 7////
AAXX 08184 71558 46/// ///// 11094 21121 30043 40080 53006 6///1 333 11077 21140 7////
AAXX 08184 71559 46/// /2212 11029 21060 39465 40178 58016 6///1 333 11029 21091 7////
AAXX 08184 71560 16/// /2013 10002 21041 39875 40181 58016 60001 333 10002 21073 70000
AAXX 08184 71563 NIL
AAXX 08184 71564 NIL
AAXX 08184 71565 NIL
AAXX 08184 71566 NIL
AAXX 08184 71567 NIL
AAXX 08184 71568 17/// /1310 10073 20051 30211 40223 53003 60071 7//4/ 333 10073 20036 70226
AAXX 08184 71569 16/// /2211 11006 21057 39420 40129 58010 60001 333 11004 21087 70000
AAXX 08184 71570 16/// /1806 11036 21071 39850 40169 58026 60001 333 11036 21123 70013
AAXX 08184 71571 NIL
AAXX 08184 71572 NIL
AAXX 08184 71573 16/// /2504 10003 21054 39972 40260 58004 60001 333 10003 21014 70000
AAXX 08184 71574 12574 12706 11048 21094 30089 40164 53015 60001 81530 333 11038 21080 70040
AAXX 08184 71575 NIL
AAXX 08184 71576 16/// /1902 11341 21379 39909 49998 53003 60001 333 11309 21367 7////
AAXX 08184 71577 46/// /2212 11048 21077 6///1 333 11048 21127 7////
AAXX 08184 71578 16/// /2210 11069 21115 60001 333 11059 21076 70000
AAXX 08184 71579 NIL
AAXX 08184 71580 11674 10106 11399 39996 40035 52016 69901 77677 81500 333 11392 21417 44030 79999 90983
AAXX 08184 71581 NIL
AAXX 08184 71582 17556 81303 10058 20054 30112 40165 53006 60151 76144 333 10079 20042 70724
AAXX 08184 71583 NIL
AAXX 08184 71584 15666 80107 11105 21157 30108 40157 53011 60001 333 11103 21128 70000
AAXX 08184 71585 NIL
AAXX 08184 71586 NIL
AAXX 08184 71587 NIL
AAXX 08184 71588 NIL
AAXX 08184 71589 NIL
AAXX 08184 71590 16/// /3506 11085 21133 39990 40186 53002 60001 333 11066 21111 70055 555 10060
AAXX 08184 71592 NIL
AAXX 08184 71593 NIL
AAXX 08184 71596 NIL
AAXX 08184 71598 17/24 /2814 11038 21064 30151 40157 53019 69931 7//4/ 333 11023 21047 70030 555 10030
AAXX 08184 71599 NIL
AAXX 08184 71001 15966 31322 11004 21058 38863 49820 53014 60001 333 10012 21214 70000
AAXX 08184 71002 15966 03107 11242 21276 39624 40206 53005 60001 333 11242 21361 70000
AAXX 08184 71003 15966 00901 11269 21297 39839 40254 58004 60001 333 11269 21383 70000
AAXX 08184 71005 16/// ///// 10056 21028 60001 333 10056 21072 70000
AAXX 08184 71006 NIL
AAXX 08184 71007 NIL
AAXX 08184 71008 NIL
AAXX 08184 71009 NIL
AAXX 08184 71010 NIL
AAXX 08184 71011 NIL
AAXX 08184 71012 NIL
AAXX 08184 71013 NIL
AAXX 08184 71014 NIL
AAXX 08184 71015 NIL
AAXX 08184 71016 NIL
AAXX 08184 71017 NIL
AAXX 08184 71018 NIL
AAXX 08184 71019 NIL
AAXX 08184 71020 NIL
AAXX 08184 71021 NIL
AAXX 08184 71022 17666 81808 10080 20053 30060 40104 53017 69981 7004/ 333 10087 20055 70206
AAXX 08184 71023 NIL
AAXX 08184 71024 16/// /3301 11124 21138 60001 333 11102 21200 70000
AAXX 08184 71026 NIL
AAXX 08184 71027 16/// /2908 10018 21013 30096 40106 53025 60001 333 10037 21026 70027
AAXX 08184 71028 16/// /3304 11004 21012 39132 40173 56004 60001 333 10050 21021 70000
AAXX 08184 71029 16/// /1112 11240 21265 39952 49992 51008 60001 333 11220 21282 70040
AAXX 08184 71030 16/64 /3403 10010 21006 30067 40157 55002 60001 333 10022 21003 70000
AAXX 08184 71032 46/// /0501 11025 21036 39430 40281 53001 6///1 333 11023 21052 7////
AAXX 08184 71033 46/// /2807 11015 21031 39316 49942 55006 6///1 333 11015 21204 7//// 555 10010
AAXX 08184 71035 NIL
AAXX 08184 71036 15966 02415 10002 21068 39741 40119 58022 60001 333 10006 21089 70000
AAXX 08184 71039 46/// /1109 11018 6///1 333 11003 21109 7////
AAXX 08184 71040 46/// /2709 11127 21183 30012 40219 53001 6///1 333 11124 21139 7////
AAXX 08184 71041 15466 82817 11010 21026 39994 40137 53018 60001 333 10029 21028 70000
AAXX 08184 71042 16/// /1002 10055 20050 30271 40275 53005 60001 333 10055 20035 70044
AAXX 08184 71044 16/// /0215 11212 21256 39592 49916 53007 60001 333 11210 21345 70000
AAXX 08184 71046 460// /2506 11260 39965 49983 53003 6///1 333 11244 21332 7////
AAXX 08184 71047 16/// ///// 10061 21022 60001 333 10061 21055 70000
AAXX 08184 71048 NIL
AAXX 08184 71049 NIL
AAXX 08184 71060 NIL
AAXX 08184 71063 NIL
AAXX 08184 71864 NIL
AAXX 08184 71865 NIL
AAXX 08184 71866 46764 62311 11006 21062 39472 40091 58018 6///1 333 11005 21085 7////
AAXX 08184 71867 11/12 91808 11045 21049 39682 40019 58052 69961 77122 333 11042 21138 47028 70006 90921 93101
AAXX 08184 71868 16/// /0000 11022 21053 39612 40060 58052 60001 333 11022 21196 70000
AAXX 08184 71869 11574 62306 11003 21060 39522 40051 57022 69901 70172 81571 333 11003 21149 43007 79999 90940
AAXX 08184 71871 15966 02619 10040 21038 39270 40077 56002 60001 333 10041 21092 70000
AAXX 08184 71877 12986 72723 10089 21036 38878 40142 53021 60001 87070 333 10091 21035 70000
AAXX 08184 71878 12774 72004 11006 21045 39059 40142 53013 60001 81572 333 11006 21065 70000
AAXX 08184 71879 16964 02610 10058 21038 39292 40094 52005 60001 333 10061 21033 70000
AAXX 08184 71880 12582 80000 11004 21041 39157 40281 52014 60001 885// 333 11003 21027 70000
AAXX 08184 71882 NIL
AAXX 08184 71883 NIL
AAXX 08184 71887 12986 61115 10027 21011 39824 40252 53006 60001 86070 333 10027 21020 70026
AAXX 08184 71889 12574 81611 10019 21033 39871 40298 53003 60001 87501 333 10020 21009 70016
AAXX 08184 71891 16864 33404 10031 21005 39940 40216 57001 60001 333 10073 21001 70000
AAXX 08184 71892 11569 80605 10064 20047 30266 40271 53003 69941 72565 885// 333 10064 20037 70042 90936
AAXX 08184 71603 12474 82704 10048 20007 30109 40162 55005 60001 87501 333 10063 20014 70000
AAXX 08184 71607 16/// /3504 11012 21030 30138 40171 53004 60001 333 11007 21061 70000
AAXX 08184 71609 12574 83209 11006 21045 30028 40164 53001 60001 8657/ 333 10001 21037 79999
AAXX 08184 71610 17448 83106 11072 21092 39916 40218 53012 60001 771// 333 10005 21072 70013
AAXX 08184 71621 12974 03004 11036 21120 30151 40260 58004 60001 333 10010 21064 70000
AAXX 08184 71623 NIL
AAXX 08184 71624 12574 23203 11019 21080 30050 40267 58005 60001 81130 333 10004 21052 70002
AAXX 08184 71625 16664 63205 11097 21157 30098 40265 58006 60001 333 11085 21164 70000
AAXX 08184 71627 11574 82808 11065 21124 30194 40240 52005 69901 72272 8653/ 333 11006 21071 42002 70012 90912
AAXX 08184 71628 11560 22708 11085 21140 30110 40256 54000 69941 70177 82500 333 11055 21103 4-2017 70026 909/6
AAXX 08184 71630 NIL
AAXX 08184 71631 16/// /2703 11038 21087 39745 40258 58008 60001 333 11026 21103 70000
AAXX 08184 71633 12874 62604 11028 21077 39983 40262 57009 60001 86070 333 11026 21085 70006
AAXX 08184 71705 12474 73010 11033 21065 30068 40157 53005 60001 87800 333 11016 21053 70004
AAXX 08184 71706 12474 72907 11025 21051 30093 40154 53015 60001 87500 333 10012 21028 79999
AAXX 08184 71707 11474 72703 10007 21018 30045 40122 53024 69901 70252 87500 333 10024 21022 44014 70004 90921
AAXX 08184 71709 11480 83313 11018 21036 30117 40130 53033 69921 70282 885// 333 10005 21024 43004 70042 90941
AAXX 08184 71711 NIL
AAXX 08184 71714 16/// /2307 11070 21117 30128 40223 53007 60001 333 11057 21084 70016 555 10020
AAXX 08184 71715 16/// /3607 11094 21143 30012 40199 52004 60001 333 11078 21115 70016
AAXX 08184 71718 12583 62608 11091 21129 30124 40191 52005 60001 84570 333 11074 21108 70042
AAXX 08184 71719 NIL
AAXX 08184 71665 NIL
AAXX 08184 71666 16/// /3107 11036 21074 30111 40156 53007 60001 333 11035 21064 70000
AAXX 08184 71667 NIL
AAXX 08184 71668 16/// /3006 11026 21078 30121 40165 51006 60001 333 11017 21079 70003
AAXX 08184 71669 NIL
AAXX 08184 71670 17/// ///// 11023 21061 69951 7//4/ 333 11023 21057 70040
AAXX 08184 71671 16/// /3007 10027 21027 30089 40149 53005 60001 333 10045 20006 70000
AAXX 08184 71672 16/// /2904 11038 21117 39990 40261 58005 60001 333 11009 21090 70000
AAXX 08184 71673 NIL
AAXX 08184 71674 NIL
AAXX 08184 71675 15966 02107 11182 21200 39859 40151 58036 69931 333 11178 21275 70033
AAXX 08184 71679 16/// /0403 10000 21006 39115 40126 52016 60001 333 10053 21007 70000
AAXX 08184 71680 NIL
AAXX 08184 71681 46/// /1601 11023 21029 6///1 333 11017 21030 7////
AAXX 08184 71682 NIL
AAXX 08184 71683 NIL
AAXX 08184 71684 15666 81105 11150 21173 39948 40264 58011 60001 333 11136 21181 70000
AAXX 08184 71685 15366 81609 10012 20003 39744 40293 51005 60001 333 10012 21005 70000
AAXX 08184 71686 469// /2601 11030 21031 39056 40002 53018 6///1 333 11025 21090
AAXX 08184 71687 16/// /1704 10017 20010 39456 40248 53004 60001 333 10018 21004 70000 555 10010
AAXX 08184 71688 16/// /0000 11001 21001 39196 40244 53004 60001 333 10006 21019 70000
AAXX 08184 71689 15966 02510 10045 21007 39535 49987 53009 60001 333 10045 21163 70000
AAXX 08184 71690 NIL
AAXX 08184 71691 15966 63208 11092 21145 30160 40188 53008 60001 333 11087 21122 70000
AAXX 08184 71692 NIL
AAXX 08184 71694 16/// /2301 11070 21136 39899 40275 58008 60001 333 11069 21160 70000
AAXX 08184 71695 NIL
AAXX 08184 71696 16/// /2217 11140 21159 39905 49942 58050 60001 333 11140 21257 70000
AAXX 08184 71697 15966 03208 11025 21111 30092 40267 58002 60001 333 11002 21071 70000
AAXX 08184 71699 16/// /3405 10003 21032 30157 40165 55001 60001 333 10008 21017 70000
AAXX 08184 71150 46/// /2112 11044 21077 39457 40147 58013 6///1 333 11043 21107 7////
AAXX 08184 71151 NIL
AAXX 08184 71152 16/// /2812 10024 20012 30058 40071 51021 60001 333 10034 21034 70025
AAXX 08184 71153 16/// /2727 10057 21034 60001 333 10060 20000 70000
AAXX 08184 71154 16/// /2321 10024 21041 60001 333 10024 21016 70000
AAXX 08184 71155 NIL
AAXX 08184 71156 NIL
AAXX 08184 71157 46/// ///// 10056 21011 6///1 333 10058 21034 7////
AAXX 08184 71158 NIL
AAXX 08184 71159 17/// /3105 11008 21021 30001 40073 53013 69981 7//4/ 333 11003 21046 70099
AAXX 08184 71160 NIL
AAXX 08184 71161 16/// /2905 11067 21124 30097 40250 51003 60001 333 11030 21083 70000
AAXX 08184 71162 NIL
AAXX 08184 71163 46/// /0603 11131 21140 39568 49910 53017 6///1 333 11130 21241 7////
AAXX 08184 71164 NIL
AAXX 08184 71165 NIL
AAXX 08184 71166 NIL
AAXX 08184 71167 15966 01301 11018 21052 39017 40118 51016 60001 333 10035 21096 70000
AAXX 08184 71168 NIL
AAXX 08184 71170 NIL
AAXX 08184 71171 16/// /3205 10005 21077 30160 40259 58006 60001 333 10015 21010 70000
AAXX 08184 71172 16/// ///// 11075 21129 30032 40257 58011 60001 333 11073 21125 70000
AAXX 08184 71175 16/// /2808 10003 21011 30092 40127 53020 60001 333 10031 21014 70000
AAXX 08184 71176 460// /2442 11301 39345 40065 58005 6///1 333 11278 21310 7////
AAXX 08184 71177 460// /3111 11290 39029 40079 53032 6///1 333 11221 21295 7////
AAXX 08184 71178 17/// /2829 10010 21007 39988 40020 53023 69931 7//4/ 333 10040 21042 70003
AAXX 08184 71179 460// ///// 11236 39219 40072 58006 6///1 333 11154 21236 7////
AAXX 08184 71180 17/// /2811 10012 20004 30048 40087 51011 69971 7//4/ 333 10034 21033 70007
AAXX 08184 71181 16364 82821 10034 20018 30006 40042 53023 60001 333 10048 21022 70010
AAXX 08184 71183 16/// /2808 30197 52006 60001 333 70011
AAXX 08184 71184 46/// /3003 11056 21121 6///1 333 10005 21062 7////
AAXX 08184 71186 NIL
AAXX 08184 71187 15564 82503 10039 20038 30223 40272 55001 60001 333 10039 20018 70000
AAXX 08184 71189 NIL
AAXX 08184 71190 NIL
AAXX 08184 71191 16/// ///// 10010 21043 60001 333 10020 21024 70000
AAXX 08184 71192 17766 81804 10012 20001 39520 40186 53006 60001 761// 333 10027 21030 70036
AAXX 08184 71193 16/// /1607 11142 21167 39861 40243 58016 60001 333 11141 21218 70000
AAXX 08184 71196 16/// /3105 11097 21141 30055 40261 58008 60001 333 11089 21144 70016
AAXX 08184 71197 17264 82817 10011 20005 30037 40086 53013 69951 74144 333 10023 21030 70030
AAXX 08184 71198 46/// /3003 11069 21136 6///1 333 11034 21078 7////
AAXX 08184 71199 46/// /1402 11098 21108 39140 49978 53016 6///1 333 11081 21172 7//// 555 10040
AAXX 08184 71900 46/// /23// 11197 21269 30133 40146 53007 6///1 333 11191 21242 7////
AAXX 08184 71903 NIL
AAXX 08184 71904 NIL
AAXX 08184 71914 16/// /0000 10056 20037 30045 40269 53008 60001 333 10056 20034 70025
AAXX 08184 71916 NIL
AAXX 08184 71918 460// ///// 11356 6///1 333 7////
AAXX 08184 71920 16/// /2610 10068 20030 30155 40161 55004 60001 333 10080 20016 70000
AAXX 08184 71921 NIL
AAXX 08184 71923 NIL
AAXX 08184 71927 NIL
AAXX 08184 71941 15766 82103 11154 21183 39826 40263 58005 60001 333 11145 21213 70003
AAXX 08184 71947 15866 82602 11183 21200 39894 40260 58006 60001 333 11177 21272 70000
AAXX 08184 71851 16/// /2308 11006 21051 39824 40164 58015 60001 333 11006 21091 70000
AAXX 08184 71857 NIL
AAXX 08184 71860 12783 72712 10071 21042 38765 40156 51018 60001 81571 333 10072 21037 41996 70000
AAXX 08184 71876 15966 02412 10029 21043 39418 40084 57009 60001 333 10029 21080 70000
AAXX 08184 71885 NIL
AAXX 08184 71886 16/// /2113 11020 21067 39503 40115 58025 60001 333 11020 21093 70000
AAXX 08184 71888 NIL
AAXX 08184 71890 16/// /0608 11094 21159 30156 40184 53007 60001 333 11089 21122 70007 555 10030
AAXX 08184 71895 NIL
AAXX 08184 71401 16/// /1302 11012 21023 39618 40320 53012 60001 333 11012 21045 70007 555 10010
AAXX 08184 71402 NIL
AAXX 08184 71404 NIL
AAXX 08184 71405 NIL
AAXX 08184 71406 NIL
AAXX 08184 71407 NIL
AAXX 08184 71408 NIL
AAXX 08184 71409 NIL
AAXX 08184 71410 15966 81914 11076 21093 39768 40056 58062 60001 333 11076 21261 70000
AAXX 08184 71413 NIL
AAXX 08184 71414 NIL
AAXX 08184 71415 16/// /3118 11013 21032 30139 40142 53015 60001 333 10024 21013 70000
AAXX 08184 71417 NIL
AAXX 08184 71418 NIL
AAXX 08184 71419 46/// /3016 10011 21010 30126 40136 53017 6///1 333 10056 20011 7////
AAXX 08184 71423 NIL
AAXX 08184 71424 46/// /2010 6///1 333 7////
AAXX 08184 71425 16/// /3315 11066 21096 30124 40161 53015 60001 333 11049 21077 70040
AAXX 08184 71426 NIL
AAXX 08184 71427 NIL
AAXX 08184 71428 NIL
AAXX 08184 71429 NIL
AAXX 08184 71434 NIL
AAXX 08184 71436 15966 03209 11043 21113 30024 40265 58005 60001 333 11010 21088 70000
AAXX 08184 71437 NIL
AAXX 08184 71438 NIL
AAXX 08184 71439 NIL
AAXX 08184 71440 NIL
AAXX 08184 71442 16/// /2110 11037 21069 39819 40139 58026 60001 333 11037 21109 70000
AAXX 08184 71445 NIL
AAXX 08184 71446 17/// /2412 10002 21051 39145 40130 50000 69951 7//4/ 333 10002 21062 70005
AAXX 08184 71448 NIL
AAXX 08184 71449 NIL
AAXX 08184 71450 NIL
AAXX 08184 71451 17/// /2506 11040 21055 39524 49949 56032 60031 7//4/ 333 11036 21220 70035 555 10040
AAXX 08184 71452 46/// /2109 11013 21055 39439 40161 58011 6///1 333 11013 21104 7////
AAXX 08184 71453 NIL
AAXX 08184 71454 16/// /2607 10039 21047 39334 40020 56019 60001 333 10039 21100 70000
AAXX 08184 71455 NIL
AAXX 08184 71456 16/// /2322 11016 21058 39452 40054 56041 60001 333 11009 21130 70005
AAXX 08184 71457 16/// /2405 10044 21022 39239 40136 53012 60001 333 10044 21086 70000
AAXX 08184 71458 16/// /2413 10054 21020 39312 40078 52004 60001 333 10054 21108 70000
AAXX 08184 71459 16/// /2413 10012 21044 39311 40125 57001 60001 333 10012 21071 70000
AAXX 08184 71460 16/// /0807 11077 21095 30014 40265 58015 60001 333 11077 21122 70000
AAXX 08184 71461 NIL
AAXX 08184 71462 NIL
AAXX 08184 71463 46/// /2807 11004 21092 30043 40272 58003 6///1 333 10010 21016 7////
AAXX 08184 71464 NIL
AAXX 08184 71465 NIL
AAXX 08184 71466 NIL
AAXX 08184 71468 NIL
AAXX 08184 71470 NIL
AAXX 08184 71471 15966 02418 10065 21012 39284 40064 52007 60001 333 10076 20005 70000
AAXX 08184 71473 16/// /1711 10062 20022 30235 40265 51008 60001 333 10063 20035 70010
AAXX 08184 71475 17/// /0000 10044 20040 30155 40250 50001 60011 7//4/ 333 10044 20022 70062
AAXX 08184 71476 NIL
AAXX 08184 71477 16/// /1813 10061 20038 60001 333 10071 20054 70044
AAXX 08184 71478 NIL
AAXX 08184 71479 NIL
AAXX 08184 71480 NIL
AAXX 08184 71481 NIL
AAXX 08184 71482 NIL
AAXX 08184 71483 NIL
AAXX 08184 71484 NIL
AAXX 08184 71485 NIL
AAXX 08184 71486 16/// /1608 10051 21034 38956 40153 56003 60001 333 10052 21034 70000
AAXX 08184 71487 16/// /2416 10003 21060 39266 40141 58009 60001 333 10003 21078 70000
AAXX 08184 71489 16/// /2508 10012 21057 39296 40096 55001 60001 333 10012 21095 70000
AAXX 08184 71490 NIL
AAXX 08184 71491 NIL
AAXX 08184 71492 NIL
AAXX 08184 71493 16/// /2803 10031 21032 30106 40144 53003 60001 333 10034 21015 70000
AAXX 08184 71494 16/// /2807 11101 21113 39666 40199 53010 60001 333 11024 21106 70016 555 10040
AAXX 08184 71495 NIL
AAXX 08184 71496 16/// /2412 11007 21060 39469 40085 58019 60001 333 11006 21084 70000
AAXX 08184 71497 46/// /2313 11127 21146 39679 49946 51006 6///1 333 11105 21165 7////
AAXX 08184 71498 NIL
AAXX 08184 71499 15766 82709 11012 21029 39316 49940 55006 60001 333 11012 21194 70000
AAXX 08184 71744 NIL
AAXX 08184 71750 16/// /0404 11079 21104 39970 40213 58006 60001 333 11078 21149 70000
AAXX 08184 71751 NIL
AAXX 08184 71752 NIL
AAXX 08184 71753 16/// /3007 10018 21027 30112 40141 53011 60001 333 10031 20017 70000
AAXX 08184 71754 NIL
AAXX 08184 71755 43/// /2207 11176 21212 39791 40154 58033 6///1 333 11174 7////
AAXX 08184 71756 16/// /0000 10005 21001 39141 40248 53006 60001 333 10005 21023 70005 555 10010
AAXX 08184 71758 NIL
AAXX 08184 71760 NIL
AAXX 08184 71761 NIL
AAXX 08184 71762 NIL
AAXX 08184 71763 NIL
AAXX 08184 71765 16/// /3404 10030 21012 39938 40214 57001 60001 333 10073 21003 70000
AAXX 08184 71766 16/// /1207 10068 20052 30168 40240 51005 60001 333 10068 20038 70000
AAXX 08184 71767 NIL
AAXX 08184 71768 46/// /1704 10018 21015 39738 40297 53005 6///1 333 10018 21026 7////
AAXX 08184 71769 16/// /1122 10069 20055 30226 40242 53005 60001 333 10069 20048 70008
AAXX 08184 71770 16/// /0702 10001 21020 39523 40313 51012 60001 333 10001 21018 70000
AAXX 08184 71771 NIL
AAXX 08184 71772 16/// /1118 10070 20058 30243 40249 53005 60001 333 10071 20047 70014
AAXX 08184 71773 16/// /1610 10006 21037 39044 49879 53011 60001 333 10009 21036 70003
AAXX 08184 71774 46/// ///// 10042 6///1 333 10042 20015 7////
AAXX 08184 71775 16/// /0107 10050 20042 30271 40277 53006 60001 333 10050 20031 70092
AAXX 08184 71776 46/// /2909 10016 21021 39651 40307 51012 6///1 333 10016 21008 7////
AAXX 08184 71777 17/// ///// 10010 20009 30002 40258 53003 60031 7//4/ 333 10010 21003 70033 555 10010
AAXX 08184 71778 46/// /3613 6///1 333 7////
AAXX 08184 71779 16/// /1402 10012 21002 39517 40182 53007 60001 333 10027 21033 70028 555 10040
AAXX 08184 71780 NIL
AAXX 08184 71781 46/// /1129 10067 20050 30209 40234 50004 6///1 333 10068 20047 7////
AAXX 08184 71782 46/// /1807 10001 21029 38919 40266 53017 6///1 333 10001 21080 7////
AAXX 08184 71783 NIL
AAXX 08184 71784 17/// /0504 10058 20039 30059 40266 53005 69941 7//4/ 333 10061 20030 70116
AAXX 08184 71785 16/// /0204 10059 20046 30262 40278 53005 60001 333 10062 20038 70038
AAXX 08184 71786 46/// /2624 11068 21081 38393 40263 53003 6///1 333 11068 21073 7////
AAXX 08184 71787 16/// /2908 11037 21050 39655 40148 53006 60001 333 11006 21047 70000
AAXX 08184 71788 NIL
AAXX 08184 71789 NIL
AAXX 08184 71791 NIL
AAXX 08184 71792 NIL
AAXX 08184 71793 NIL
AAXX 08184 71794 NIL
AAXX 08184 71795 NIL
AAXX 08184 71796 NIL
AAXX 08184 71797 NIL
AAXX 08184 60020 NIL
AAXX 08184 60030 02775 30113 10184 20133 30139 40195 52003 60002 81870 333 10198 60007 92428
AAXX 08184 60040 02970 60904 10192 20138 30185 40209 53005 60002 86070 333 10208 60007 92418
AAXX 08184 60338 12580 40000 10140 20114 30182 40248 55000 60002 81102 333 10164 81820 83070 92418
AAXX 08181 48852 11597 73601 10184 20184 30196 40206 57009 60011 78082 878// 333 59010 85895 87697 96160
AAXX 08181 02019 05/99 /2301 11056 21083 39506 40142 52015 60002 333 11051 21114 60005 90710 91104
AAXX 08181 02081 05/81 /2302 11170 21184 39712 40134 52018 60002 333 11115 21219 60005 90710 91103
AAXX 08181 02095 07971 /0801 11216 21242 39924 40139 52020 69922 70071 333 11072 21216 60005 90710 91102
AAXX 08181 02101 45377 /0000 11260 21288 39606 40205 51018 8//// 333 11199 21284 87/10 88/13
AAXX 08181 02119 05/99 /0101 11253 21276 39755 40167 52021 60002 333 11110 21256 60005 90710 91102
AAXX 08181 02124 07/99 /0000 11194 21214 39615 40168 52020 69962 70071 333 11096 21194 60005 90710 91102
AAXX 08181 02126 07/99 /3103 11153 21169 39810 40164 52020 69912 70087 333 11097 21153 60005 90710 91105
AAXX 08181 02151 17984 00000 11152 21159 39800 40152 51021 69912 70085 333 11062 21162 60005 91001 90710 91101 90710 91201
AAXX 08181 02186 17981 03202 11075 21080 30113 40138 53021 69902 70084 333 11047 21091 60005 91002 90710 91104 90710 91203
AAXX 08181 02197 07/63 /3201 11053 21055 30113 40132 53023 69912 70087 333 11036 21053 60005 90710 91102
AAXX 08181 02207 07379 /1701 11047 21050 39451 40167 52014 69912 72487 333 11043 21216 69915 88/09 90710 91103
AAXX 08181 02219 07/24 /3202 11074 21074 39477 40165 52021 69902 71087 333 11074 21100 60005 90710 91104
AAXX 08181 02226 47568 /2503 11076 21087 39697 40167 51017 785// 8//// 333 11069 21119 87/27
AAXX 08181 02243 07/61 /3301 11165 21178 39884 40166 52020 69902 78587 333 11067 21165 69905 90710 91102
AAXX 08181 02269 05/99 /3204 11067 21093 60002 333 11034 21067 60005 90710 91108
AAXX 08181 02287 05775 /3004 11068 21091 30135 40145 52017 60002 333 11041 21072 60005 88/50 90710 91106
AAXX 08181 02297 05199 /2903 11086 21091 30095 40142 52019 60002 333 11040 21090 60005 83/02 90710 91104
AAXX 08181 02308 05699 /0301 11089 21098 39290 40180 51017 60002 333 11081 21130 60005 83/34 90710 91102
AAXX 08181 02327 05/80 /2801 11199 21216 39730 40192 52013 60002 333 11103 21204 60005 90710 91103
AAXX 08181 02355 07/99 /2803 11069 21087 30157 40170 53018 69902 70087 333 11032 21069 60005 90710 91104
AAXX 08181 02366 45984 /2201 11081 21095 30161 40167 52019 8//// 333 11047 21082
AAXX 08181 02407 05/66 /3100 11168 21182 39804 40194 51022 60002 333 11064 21169 60005 90710 91101
AAXX 08181 02418 45584 /3403 11047 21066 30045 40181 51023 8//// 333 11027 21047 85/28
AAXX 08181 02435 45/84 /2903 11072 21095 39984 40179 51022 8//// 333 11049 21107
AAXX 08181 02440 07399 /2602 11088 21103 69902 70087 333 11049 21088 60005 90710 91106
AAXX 08181 02452 05599 /3402 11043 21061 60002 333 11035 21053 60005 88/27 90710 91103
AAXX 08181 02456 05682 /0000 11034 21045 30119 40163 52017 60002 333 11023 21040 60005 88/35 90710 91102
AAXX 08181 02469 06/// /3402 11035 21061 60002 333 11008 21066 60005 90710 91103
AAXX 08181 02498 05499 /0205 11002 21042 30125 40142 52014 60002 333 10010 21007 60005 85/19 87/63 90710 91108
AAXX 08181 02518 466// /0006 10014 21005 333 10025 20008 88/41 90710 91107
AAXX 08181 02520 35480 83605 11006 21026 30110 40179 51023 60002 333 10000 21014 60005 88/12 91007 90710 91107 90710 91205
AAXX 08181 02550 45584 /3203 11020 21024 39882 40164 51022 8//// 333 11008 21020 88/25
AAXX 08181 02562 35684 83603 11036 21059 30047 40166 53021 60002 333 11029 21066 60005 88/35 91004 90710 91105 90710 91204
AAXX 08181 02563 05/99 /3505 11012 21030 30123 40146 52022 60002 333 10011 21012 60005 90710 91111
AAXX 08181 02565 05566 /3302 11039 21050 30031 40154 53027 60002 333 11001 21039 60005 81/29 90710 91105
AAXX 08181 02589 07482 /0307 10022 20001 30096 40117 53015 69902 70070 333 10026 20018 60005 87/17 90710 91115
AAXX 08181 02590 45584 /0207 10019 21011 30055 40117 52017 8//// 333 10022 20008 86/23 88/35
AAXX 08181 02618 07/60 /3202 11016 21016 39995 40163 52024 60002 70010 333 10011 21019 60005 90710 91103
AAXX 08181 02664 35984 03102 11011 21027 30075 40148 52026 60002 333 10026 21012 60005 91004 90710 91105 90710 91203
AAXX 08181 02679 07/99 /0007 10017 20002 30067 40112 51025 60012 70060 333 10031 20015 60005 90710 91111
AAXX 08181 48855 32597 70000 10211 20181 30198 40206 57008 878// 333 59006 82895 87697
AAXX 08181 48848 11597 83203 10160 20151 30211 40219 58011 60011 70262 888// 333 59009 83895 88697
AAXX 08181 01015 46/// /1605 11005 21022 333 11002 91111
AAXX 08181 01425 16/// /1701 11005 21007 30111 40193 52025 60002 333 10020 91103
AAXX 08181 01450 16/// /0902 11065 21107 39015 40198 52015 60002 333 11035 91104
AAXX 08181 01265 16/// /2101 11127 21142 39595 40216 51017 60002 333 11115 91102
AAXX 08181 01375 16/// /3304 11096 21125 6//// 333 11066 91110
AAXX 08181 01440 46/// /0000 11093 21102 38866 40205 52011 333 11038 91100
AAXX 08181 01469 16/// /3402 11084 21100 30026 40208 51024 60002 333 11024 91104
AAXX 08181 01277 16/// /0000 11042 21052 69992 333 11042 91103
AAXX 08181 01476 16/// /3602 11001 21028 30188 40195 51022 6//// 333 10005 91108
AAXX 08181 01199 11989 00000 11195 21212 39645 40151 52019 60002 70210 333 11132 91100
AAXX 08181 01262 46/// /1505 10025 20014 333 10036 91116
AAXX 08181 01329 11983 72502 10006 21013 30117 40180 52010 69932 70222 80006 333 10017 91108
AAXX 08181 01436 11570 80607 10019 21000 60002 70222 885// 333 10039 91109
AAXX 08181 01293 11/35 90000 11108 21119 39969 40190 52011 60002 77172 333 11108 91102
AAXX 08181 01380 11989 03202 11154 21175 60002 70200 333 11057 4/054 91107
AAXX 08183 78970 11430 80913 10254 20238 30105 40130 60091 76186 888// 333 02299 10321 20238 58005 83815 88640 90926
AAXX 08183 78962 11467 70811 10280 20207 30124 40135 60021 71586 8487/ 333 02299 10286 20224 59001 82816 86358 90916
AAXX 08184 64600 32960 70000 10238 20162 39452 40103 80002 333 10310 55000 58008 87080
AAXX 08184 64601 31940 60608 10235 20043 39000 48509 70422 80002 333 10310 58003 86080
AAXX 08184 64605 32960 50000 10230 20102 39362 40106 80002 333 10304 58006 85080
AAXX 08184 64610 32960 80000 10220 20105 3//// 5//// 80002 333 10315 5//// 88080
AAXX 08184 64650 31940 50000 10236 20143 39690 40105 70422 80002 333 10315 55060 58005 85080
AAXX 08184 64654 32960 83604 10232 20095 39545 40121 80002 333 10340 58007 88080
AAXX 08184 64655 32960 70000 10242 20172 39453 40100 80002 333 10322 58000 87080
AAXX 08184 64656 32960 60000 10250 20205 39543 40097 80002 333 10312 58009 86080
AAXX 08184 64659 NIL
AAXX 08184 64660 32960 63604 10230 20131 39566 40096 80002 333 10325 58005 86080
AAXX 08184 64662 32960 80000 10252 20165 39588 40089 80002 333 10335 58003 88080
AAXX 08184 64665 32960 80000 10230 20166 3//// 4//// 80002 333 10320 5//// 88080
BBXX V7OX3 08181 99341 30257 41/97 /1310 10230 20199 40100 54000 702// 8//// 22223 04250 21003 3//// 4//// 5//// 80210
AAXX 08181 06447 16/// /3002 10053 20032 30142 40270 52017 60012 333 10081 91110 91205
AAXX 08184 78922 46/// /0915 10271 20194 30107 40152 58024
AAXX 08184 78866 02586 31212 10276 20208 30161 40166 57024 60001 83801 333 59001 60007 83823
AAXX 08184 78951 11570 60914 10285 20212 30131 40146 69901 78011 85840 333 10295 20230 58003 70007 84820
AAXX 08184 78866 02586 31212 10276 20208 30161 40166 57024 60001 83801 333 59001 60007 83823
AAXX 08184 78951 11570 60914 10285 20212 30131 40146 69901 78011 85840 333 10295 20230 58003 70007 84820
AAXX 08184 68024 42660 20000 10299 20149 48494 53006 82300 333 10364
BBXX V2AJ8 08183 99198 11138 41497 80120 10190 20165 40197 57020 70222 84576 22244 20404 3//// 4//// 5//// 80175
AAXX 08184 68383 36/// /0000 10262 20187 39906 48577 52015 333 10349 20262 91000 555 91015
AAXX 08184 68379 36/// /0905 10260 20208 39823 48570 52011 333 10357 20259 91011 555 91015
AAXX 08184 61974 11465 70000 10283 20245 40122 60002 71522 84936 333 10308 55015 59012 819// 83817 85360
AAXX 08184 61986 12570 10000 10264 20207 40133 60002 81800 333 10322 59005 81820
AAXX 08184 61988 12570 71606 10244 20198 40145 60002 82206 333 10297 55064 58000 82820 86275 91120
AAXX 08184 61989 NIL
AAXX 08184 61990 11460 71105 10256 20205 40145 69932 72582 85806 333 10294 55089 59004 85816 83650 86275
AAXX 08184 61995 12470 61105 10215 20183 39665 60002 82802 333 10281 55062 59004 82819 86075
AAXX 08184 87692 32960 00522 10250 20174 30114 40140 57021 555 10138
AAXX 08181 01300 43/// /1708 10058 21001 40145 57016 22200 02063 10905 70027 333 91109
AAXX 08181 01403 11980 21304 10029 20008 30102 40173 52009 60002 70121 80008 333 10052 91111
AAXX 08181 01400 41498 52705 10075 20052 40199 52005 70321 84878 22200 06078 10705 70024 333 91110
AAXX 08181 01447 16/// /0000 11076 21083 39506 40209 51019 60002 333 11074 91101
AAXX 08181 02464 45584 /3102 11034 21060 30136 40154 52018 8//// 333 11011 21051 81/31 83/58
AAXX 08181 02500 05/82 /0206 11021 21053 30146 40190 51023 60002 333 11011 21021 60005 90710 91109
AAXX 08181 02513 05/80 /0002 10006 21011 30172 40176 52028 60002 333 10017 20005 60005 90710 91105
AAXX 08181 02615 07399 /0203 10029 20014 30154 40158 51032 69922 70060 333 10054 20028 60005 88/09 90710 91109
AAXX 08181 02635 07/99 /0102 10018 20005 69942 70086 333 10057 20017 60005 90710 91106
AAXX 08184 48556 31558 40000 10232 20214 30115 40131 57006 71011 82505 333 59022
BBXX DCSL2 08184 99357 71341 41298 81915 10150 20150 40260 52030 70222 887// 22224 00155 20202 30000 80150
BBXX A8AD7 08183 99190 70177 41795 43612 10240 20155 40140 50000 70000 83145 22283 02210 2//// 30000 80185
AAXX 08184 78988 02581 30808 10291 20233 30132 40142 57024 60001 83200 333 58006 60007 83822
AAXX 08184 78990 01481 31012 10291 20226 30142 40149 57023 60001 70100 83200 333 58004 60007 83818
AAXX 08184 78873 NIL
BBXX PDHY 08183 99453 70547 41297 82715 10070 40109 53004 71022 887// 22223 04030 20306 328// 40704 5////
BBXX OXHY2 08183 99121 10606 41/98 /0108 10240 20216 40174 51010 7//00 8//// 22224 20102 3//// 4//// 5//// 80223
AAXX 08184 13611 12665 30000 10082 20022 30020 40111 54004 60002 81530 333 10126 81636
BBXX A8RV9 08184 99363 30379 41597 41009 10213 20145 40161 53/// 70222 83763 22224 20502 320// 41608 5//// 80170
BBXX A8VL7 08184 99250 70632 41598 31608 10250 20175 40195 58010 70211 81544 22274 04240 20803 309// 40803 80200
AAXX 08181 14008 11/91 93209 11112 21116 37427 47967 53008 60012 78584 333 11098 47112 92808 93102 95190
AAXX 0818/ 89828 46/// ///// 11286 36464 4//// 5////
AAXX 08181 78458 32566 30103 10280 20242 40178 57024 83200 333 10282 20186 30/// 56200 59012 83820
AAXX 08181 78460 32560 50902 10290 20220 40166 57030 70544 83501 333 10292 20190 30/// 56200 59010 83626
AAXX 08181 78467 32466 73603 10270 20228 40174 57018 82230 333 10272 20190 31/// 56000 59008 82815 83357
AAXX 08181 78479 32566 41203 10274 20216 40155 57018 82204 333 10280 20230 30/// 56200 58001 82822 84080
AAXX 08181 78482 32566 60905 10294 20212 40183 58027 83235 333 10310 20210 30/// 56400 58003 83825 84080
AAXX 08181 78485 32566 51604 10286 20201 40165 57028 82231 333 10295 20202 30//// 56000 58002 82820 84080
AAXX 08181 78486 32566 31202 10282 20226 40156 57020 82201 333 10292 20215 30/// 56000 58002 82822
AAXX 08181 78488 32566 50405 10292 20214 40170 57020 84206 333 10295 20180 30/// 56100 58000 84825
AAXX 08181 91925 02580 71113 10291 20213 30079 40139 51012 60001 83201 333 56206 60007 83825 87076 90710 91122 555 60005 11122 58007
AAXX 08181 91929 044// 80131 10251 20195 30092 40095 50008 60262 700// 333 10251 20221 60087 91042 90710 91144 555 60035
AAXX 08181 91938 01570 80607 10253 20190 30113 40115 51002 60172 725// 8487/ 333 10259 20215 69987 82820 84650 87460 90710 91115 555 69905 10717 58009
AAXX 08181 91944 06/// /3606 10276 20204 30144 40147 51014 69942 333 10277 20231 60007 90710 91109 555 60005
AAXX 08181 91948 02580 63608 10275 20211 30056 40157 50005 60001 82882 333 56799 60007 82820 84076 90710 91117 555 60005 13618 58003
AAXX 08181 91954 06/// /1212 10241 20183 30116 40119 50014 60001 333 60007 555 58015
AAXX 08181 91958 01575 82304 10230 20183 30120 40122 53012 69921 70286 888// 333 56499 69927 86820 87650 90710 91113 555 60005 11020 58003
AAXX 08181 91945 06/// /0000 10248 20225 30133 40138 51016 60101 333 69947
AAXX 08184 94102 46/// /3204 10285 20265 30059 40068
AAXX 08184 94103 NIL
AAXX 08184 94120 46/// /0305 10268 20251 30034 40074
AAXX 08184 94122 46/// /1105 10255 20239 30061 40069
AAXX 08184 94131 46/// /2903 10265 20237 39926 40077
AAXX 08184 94132 NIL
AAXX 08184 94147 NIL
AAXX 08184 94150 46/// /0000 10238 20226 30022 40081
AAXX 08184 94151 46/// /3406 10282 20227 30065 4////
AAXX 08184 94170 46/// /0603 10245 20221 30065 40087
AAXX 08184 94200 NIL
AAXX 08184 94203 46/// /0805 10250 20241 30050 40060
AAXX 08184 94206 NIL
AAXX 08184 94207 46/// /1006 10275 30034 40042 56025
AAXX 08184 94211 NIL
AAXX 08184 94212 46/// /0502 10277 20214 39595 40058
AAXX 08184 94216 46/// /3604 10265 20248 30018 40068
AAXX 08184 94236 NIL
AAXX 08184 94238 46/// /3505 10290 20177 39655 40068
AAXX 08184 94248 NIL
AAXX 08184 94255 46/// /0000 10277 20226 39814 40070
AAXX 08184 94268 46/// /0605 10262 20253 30070 40082
AAXX 08184 94287 46/// /0000 10243 20221 30083 40092
AAXX 08184 94290 NIL
AAXX 08184 94294 46/// /0106 10265 20214 30086 40096
AAXX 08184 94296 35/// /1206 10259 30074 40084 57008
AAXX 08184 94298 46/// /1011 10257 30084 40090 56010
AAXX 08184 95641 NIL
AAXX 08184 94299 46/// /1009 10257 20200 30078 40088
AAXX 08184 94300 46/// /1512 10259 20187 30070 40080
AAXX 08184 94302 46/// /0503 10243 20196 30052 40058
AAXX 08184 94312 46/// /0207 10288 20229 30051 40060
AAXX 08184 94313 NIL
AAXX 08184 94317 46/// /1309 10200 20192 39500 40068
AAXX 08184 94319 46/// /1205 10257 20214 39741 40063
AAXX 08184 94324 NIL
AAXX 08184 94326 46/// /1105 10237 20199 39499 40098
AAXX 08184 94327 46/// /1607 10272 20193 39738 40102
AAXX 08184 94332 46/// /1804 10248 20210 39692 40067
AAXX 08184 94333 NIL
AAXX 08184 94341 46/// /3607 10274 20187 39835 40064
AAXX 08184 94346 46/// /1905 10288 20162 39845 40059
AAXX 08184 94363 46/// /0307 10236 20183 39863 40075
AAXX 08184 94366 NIL
AAXX 08184 94367 46/// /3505 10246 20206 30052 40093
AAXX 08184 94374 46/// /0103 10231 20200 30074 40090
AAXX 08184 94388 46/// /3514 10250 20197 30087 40092
AAXX 08184 94393 46/// /0000 10248 30086 40098 58003
AAXX 08184 94394 46/// /0000 10220 30094 40102 58009
AAXX 08184 94403 46/// /1511 10173 20127 30088 40128
AAXX 08184 94429 46/// /1107 10226 20094 39653 40102
AAXX 08184 94430 46/// /1605 10194 20140 39526 40091
AAXX 08184 94449 46/// /1214 10220 20067 39606 40121
AAXX 08184 94451 NIL
AAXX 08184 94461 46/// /1208 10204 20182 39438 40088
AAXX 08184 94462 46/// /1504 10233 20164 39562 40101
AAXX 08184 94477 NIL
AAXX 08184 94488 NIL
AAXX 08184 40356 42960 02706 10070 21010 39184 48477 333 10130 58007 55087 555 04410 50181
AAXX 08184 40357 42960 02406 10085 20010 39535 40187 333 10181 58005 55///
AAXX 08184 40360 42960 02804 10102 20020 39574 40164 333 10175 58015 55090
AAXX 08184 40361 41958 00000 10099 21040 39402 40180 70500 333 10170 58021 55///
AAXX 08184 40362 41950 02907 10135 21080 39651 40173 70633 333 10225 59004 55///
AAXX 08184 40373 42660 60102 10171 20090 39742 40162 86500 333 10244 59018 55/// 86635
AAXX 08184 40375 42960 02008 10108 21040 39289 40177 333 10176 58035 55091
AAXX 08184 40377 42660 23606 10170 20140 39683 40168 82500 333 10230 59014 55/// 82640
AAXX 08184 40394 42960 00410 10120 20010 39043 48520 333 10204 58016 55083 555 04410 50168
AAXX 08184 40400 42960 03404 10186 20090 30156 40184 333 10244 58032 55093
AAXX 08184 40401 42960 02704 10160 20000 39466 40169 333 10232 58028 55///
AAXX 08184 40405 42660 33513 10210 20140 39414 40146 83500 333 10280 59006 55/// 83640
AAXX 08184 40416 42960 01109 10190 20160 30136 40156 333 10240 59008 55///
AAXX 08184 40417 41958 01009 10181 20140 30153 40168 70500 333 10256 59007 55///
AAXX 08184 40420 42960 01304 10192 20070 39964 40171 333 10290 59002 55///
AAXX 08184 40430 42960 02610 10220 20120 39433 40144 333 10280 58022 55083
AAXX 08184 40435 NIL
AAXX 08184 40437 42960 01404 10195 20020 39466 40160 333 10274 59006 55085
AAXX 08184 40439 42660 62604 10214 20110 30144 40154 84530 333 10275 58023 55073 84640
AAXX 08184 41241 36/// /0000 10213 20162 30153 40191 333 0E024 10266 58002
AAXX 08184 41242 36/// /0000 10190 20153 30181 40205 333 0E020 10254 58003
AAXX 08184 41244 NIL
AAXX 08184 41246 NIL
AAXX 08184 41251 36/// /2001 10122 20049 3//// 49930 333 0E012 10180 58019
AAXX 08184 41252 36/// /0000 10214 20067 39821 40111 333 0E021 10294 58008
AAXX 08184 41253 36/// /2102 10196 20168 39823 40207 333 0E021 10281 58009
AAXX 08184 41254 NIL
AAXX 08184 41255 36/// /1102 10193 20088 39665 40223 333 0E021 10287 58006
AAXX 08184 41256 31959 02405 10212 20190 30186 40196 70500 333 10269 58007
AAXX 08184 41257 36/// /2302 10207 20142 39720 40211 333 0E019 10283 58007
AAXX 08184 41258 NIL
AAXX 08184 41259 36/// /2810 10059 21161 37160 40344 333 0E/// 10113 58006
AAXX 08184 41262 NIL
AAXX 08184 41263 NIL
AAXX 08184 41264 NIL
AAXX 08184 41265 NIL
AAXX 08184 41267 35/71 /9902 10235 20177 30183 40199 333 0E024 10260 58002
AAXX 08184 41268 NIL
AAXX 08184 41270 36/70 /1505 10231 20182 30147 40159 333 0E023 10257 58002
AAXX 08184 41275 NIL
AAXX 08184 41287 36/// /1605 10208 20184 30155 40207 333 0E022 10290 58007
AAXX 08184 41288 NIL
AAXX 08184 41290 NIL
AAXX 08184 41295 26/// /1006 10189 20175 30014 40198 333 0E021 10282 58009 70002
AAXX 08184 41304 NIL
AAXX 08184 41312 36/// /0400 10236 20188 30154 40193 333 0E/// 10268 58011
AAXX 08184 41314 32960 01616 10198 20133 39681 40188 333 10295 58002
AAXX 08184 41315 36/// /1512 10159 20148 39202 42838 333 0E/// 10218 58008
AAXX 08184 41316 32560 40202 10228 20175 30169 40195 84500 333 10265 58011 84625
AAXX 08184 88963 32960 20000 10043 20004 39861 49890 52005 80001 333 56007 82070 92407 94000 95000
AAXX 08184 88968 11465 83426 10010 21016 39858 49873 52025 69901 70272 886// 333 56799 88715 90960 92437 92731 92851 93000 93100 94075 95065
AAXX 08184 89034 32970 11802 11022 21072 39482 49796 57004 81070 333 56040 81360 92407 92800
AAXX 08184 89053 32462 72724 10032 20011 39926 49941 52008 87700 333 56700 87712 92437 94070 95080
AAXX 08184 89055 32965 21811 10009 21017 39648 49891 52009 80001 333 56004 82070 92734 92840 95100
AAXX 08184 89066 11550 80000 10030 21002 39876 49885 52005 60021 77377 886// 333 88720 90568 90668 90983 92406 92734 92801 93192 94070 95090 96010
AAXX 08183 NIL
AAXX 08184 94299 46/// /1009 10257 20200 30078 40088
AAXX 08184 94300 46/// /1512 10259 20187 30070 40080
AAXX 08184 94302 46/// /0503 10243 20196 30052 40058
AAXX 08184 94312 46/// /0207 10288 20229 30051 40060
AAXX 08184 94313 NIL
AAXX 08184 94317 46/// /1309 10200 20192 39500 40068
AAXX 08184 94319 46/// /1205 10257 20214 39741 40063
AAXX 08184 94324 NIL
AAXX 08184 94326 46/// /1105 10237 20199 39499 40098
AAXX 08184 94327 46/// /1607 10272 20193 39738 40102
AAXX 08184 94332 46/// /1804 10248 20210 39692 40067
AAXX 08184 94333 NIL
AAXX 08184 94341 46/// /3607 10274 20187 39835 40064
AAXX 08184 94346 46/// /1905 10288 20162 39845 40059
AAXX 08184 94363 46/// /0307 10236 20183 39863 40075
AAXX 08184 94366 NIL
AAXX 08184 94367 46/// /3505 10246 20206 30052 40093
AAXX 08184 94374 46/// /0103 10231 20200 30074 40090
AAXX 08184 94388 46/// /3514 10250 20197 30087 40092
AAXX 08184 94393 46/// /0000 10248 30086 40098 58003
AAXX 08184 94394 46/// /0000 10220 30094 40102 58009
AAXX 08184 94403 46/// /1511 10173 20127 30088 40128
AAXX 08184 94429 46/// /1107 10226 20094 39653 40102
AAXX 08184 94430 46/// /1605 10194 20140 39526 40091
AAXX 08184 94449 46/// /1214 10220 20067 39606 40121
AAXX 08184 94451 NIL
AAXX 08184 94461 46/// /1208 10204 20182 39438 40088
AAXX 08184 94462 46/// /1504 10233 20164 39562 40101
AAXX 08184 94477 NIL
AAXX 08184 94488 NIL
AAXX 08184 94893 NIL
AAXX 08184 94907 46/// /2813 10144 20091 30041 40051
AAXX 08184 94910 46/// /2511 10161 20051 39833 40075
AAXX 08184 94926 46/// /3108 10164 20124 39390 40038
AAXX 08184 94935 46/// /2608 10149 20124 30021 40047
AAXX 08184 94954 46/// /2734 10138 20106 39891 49999
AAXX 08184 94956 46/// /3122 10139 20116 39947 49973
AAXX 08184 94975 46/// /3412 10162 20062 39895 49927
AAXX 08184 94983 46/// /3018 10154 20100 39951 49976
AAXX 08184 94995 46/// /0106 10223 20183 30087 40095
AAXX 08184 94996 46/// /1905 10184 20081 39983 40111
AAXX 08184 94997 NIL
AAXX 08184 94998 46/// /3531 10089 20067 39963 49973
AAXX 08184 95111 46/// /1104 10262 20244 30033 40069
AAXX 08184 95205 46/// /0604 10252 20243 30054 40061
AAXX 08184 95322 NIL
AAXX 08184 95448 46/// /1307 10209 20095 39551 40097
AAXX 08184 95458 46/// /1717 10183 20086 39884 40139
AAXX 08184 95480 46/// /1811 10197 20068 30083 40140
AAXX 08184 95481 46/// /1812 10237 20082 30069 40112
AAXX 08184 95482 46/// /1910 10262 20095 30044 40098
AAXX 08184 95485 46/// /2010 10208 2//// 39907 40105
AAXX 08184 95492 46/// /2108 10259 20101 39933 40082
AAXX 08184 95527 46/// /0207 10254 20225 39792 40037
AAXX 08184 95634 46/// /1313 10159 20093 39769 40161
AAXX 08184 95637 46/// /1304 10126 20095 39863 40190
AAXX 08184 95646 46/// /2004 10145 20097 39990 40174
AAXX 08184 95666 NIL
AAXX 08184 95719 46/// /2310 10223 20185 39742 40062
AAXX 08184 95762 46/// /1805 10219 20202 39601 40042
AAXX 08184 95826 NIL
AAXX 08184 95839 46/// /3006 10096 20080 39939 40093
AAXX 08184 95864 NIL
AAXX 08184 95909 NIL
AAXX 08184 95954 NIL
AAXX 08184 95966 46/// /3417 10123 20074 39783 49977
AAXX 08184 96995 NIL
AAXX 08184 96996 454// 81513 10270 20242 30080 40084 58013
AAXX 08184 03809 11150 73006 10102 20102 30218 40312 53008 69962 71054 875// 91750 333 10106 81702 84704 87620
AAXX 08184 89564 45/// /1442 10001 21081 39696 49715 50006
AAXX 08184 89570 46/// /0832 11069 21094 39111 53021
AAXX 08184 89571 45/// /0527 11005 21086 39747 49775 53018
AAXX 08184 89573 NIL
AAXX 08184 89610 NIL
AAXX 08184 89611 45/// /0606 11021 21088 39766 49818 52010
AAXX 08184 89614 NIL
AAXX 08184 89615 467// 81019 11092 21126 38918 53009
AAXX 08184 89807 NIL
AAXX 08184 89809 46/// /0000 11050 21064 39366 51013
AAXX 08184 94500 NIL
AAXX 08184 94510 46/// /2006 10276 20158 39718 40055
AAXX 08184 94515 46/// /0109 10238 20195 39704 40042
AAXX 08184 94552 46/// /0604 10221 20170 39608 40062
AAXX 08184 94578 46/// /3612 10235 20198 30053 40064
AAXX 08184 94584 46/// /3507 10231 20197 39968 40076
AAXX 08184 94601 46/// /1314 10181 20123 30188 40205
AAXX 08184 94610 46/// /1308 10195 20093 30144 40167
AAXX 08184 94637 46/// /1411 10177 20064 39742 40158
AAXX 08184 94638 46/// /1606 10162 20107 30169 40201
AAXX 08184 94642 NIL
AAXX 08184 94643 NIL
AAXX 08184 94647 46/// /2105 10158 20105 30059 40178
AAXX 08184 94651 46/// /2206 10132 20107 30095 40171
AAXX 08184 94653 46/// /2113 10172 20098 30133 40151
AAXX 08184 94659 46/// /1909 10155 20078 39950 40140
AAXX 08184 94672 46/// /2517 10170 20100 30113 40123
AAXX 08184 94691 46/// /2106 10138 20090 39802 40121
AAXX 08184 94693 46/// /2604 10129 20089 30059 40119
AAXX 08184 94700 NIL
AAXX 08184 94703 46/// /2210 10257 20132 39949 40070
AAXX 08184 94710 46/// /2110 10212 20104 39842 40087
AAXX 08184 94729 46/// /2508 10184 20174 39223 40045
AAXX 08184 94750 46/// /1809 10176 20159 39919 40040
AAXX 08184 94767 46/// /3305 10232 20223 30026 40032
AAXX 08184 94776 46/// /3008 10233 20216 30020 40030
AAXX 08184 94791 NIL
AAXX 08184 94802 46/// /1903 10152 20121 30127 40208
AAXX 08184 94804 46/// /2521 10164 20089 30084 40121
AAXX 08184 94807 NIL
AAXX 08184 94821 46/// /2910 10139 20088 39996 40077
AAXX 08184 94842 46/// /3215 10132 20101 39949 40046
AAXX 08184 94847 NIL
AAXX 08184 94850 46/// /2718 10139 20117 39978 40022
AAXX 08184 94865 46/// /3108 10108 20075 30053 40077
AAXX 08184 94866 46/// /2809 10124 20063 39939 40076
AAXX 08184 94875 46/// /2911 10124 20067 39949 40080
AAXX 08184 68014 36/// /2704 10231 20145 38592 48509 53009 333 10332 20230 91006 555 91018
AAXX 08184 68110 16/// /2505 10235 20123 38288 48505 53013 60012 333 10344 20232 91008 555 20014 91020
AAXX 08184 68300 36/// /1915 10176 20149 39972 40121 53004 333 10238 20176 91019 555 91012
AAXX 08184 68004 16/// /2604 10256 20154 38539 48495 52016 60052 333 10350 20203 91008 555 20054 91017
AAXX 08184 68006 16/// /2606 10322 20137 38896 48489 52008 69922 333 10353 20321 91009 555 20002 91012
AAXX 08184 68018 36/// /1104 10257 20161 38893 48503 52012 333 10346 20255 91006 555 91015
AAXX 08184 68098 32989 02209 10188 20139 30023 40130 55000 333 10256 20188 91011 555 91013
AAXX 08184 68102 16/// /1705 10237 20156 38741 48493 52020 69922 333 10342 20237 91008 555 20002 91015
AAXX 08184 68112 16/// /2511 10255 20111 38328 48507 53010 69922 333 10361 20255 91015 555 20002 91020
AAXX 08184 68116 16/// /0803 10309 20064 38555 48505 52008 69922 333 10372 20309 91006 555 20002 91018
AAXX 08184 68212 36/// /3106 10336 20047 38873 48505 52010 333 10423 20336 91009 555 91014
AAXX 08184 68312 31789 52214 10339 20067 38933 48515 53006 71522 83973 333 10428 20339 91023 555 91015
AAXX 08184 94500 NIL
AAXX 08184 94510 46/// /2006 10276 20158 39718 40055
AAXX 08184 94515 46/// /0109 10238 20195 39704 40042
AAXX 08184 94552 46/// /0604 10221 20170 39608 40062
AAXX 08184 94578 46/// /3612 10235 20198 30053 40064
AAXX 08184 94584 46/// /3507 10231 20197 39968 40076
AAXX 08184 94601 46/// /1314 10181 20123 30188 40205
AAXX 08184 94610 46/// /1308 10195 20093 30144 40167
AAXX 08184 94637 46/// /1411 10177 20064 39742 40158
AAXX 08184 94638 46/// /1606 10162 20107 30169 40201
AAXX 08184 94642 NIL
AAXX 08184 94643 NIL
AAXX 08184 94647 46/// /2105 10158 20105 30059 40178
AAXX 08184 94651 46/// /2206 10132 20107 30095 40171
AAXX 08184 94653 46/// /2113 10172 20098 30133 40151
AAXX 08184 94659 46/// /1909 10155 20078 39950 40140
AAXX 08184 94672 46/// /2517 10170 20100 30113 40123
AAXX 08184 94691 46/// /2106 10138 20090 39802 40121
AAXX 08184 94693 46/// /2604 10129 20089 30059 40119
AAXX 08184 94700 NIL
AAXX 08184 94703 46/// /2210 10257 20132 39949 40070
AAXX 08184 94710 46/// /2110 10212 20104 39842 40087
AAXX 08184 94729 46/// /2508 10184 20174 39223 40045
AAXX 08184 94750 46/// /1809 10176 20159 39919 40040
AAXX 08184 94767 46/// /3305 10232 20223 30026 40032
AAXX 08184 94776 46/// /3008 10233 20216 30020 40030
AAXX 08184 94791 NIL
AAXX 08184 94802 46/// /1903 10152 20121 30127 40208
AAXX 08184 94804 46/// /2521 10164 20089 30084 40121
AAXX 08184 94807 NIL
AAXX 08184 94821 46/// /2910 10139 20088 39996 40077
AAXX 08184 94842 46/// /3215 10132 20101 39949 40046
AAXX 08184 94847 NIL
AAXX 08184 94850 46/// /2718 10139 20117 39978 40022
AAXX 08184 94865 46/// /3108 10108 20075 30053 40077
AAXX 08184 94866 46/// /2809 10124 20063 39939 40076
AAXX 08184 94875 46/// /2911 10124 20067 39949 40080
AAXX 08184 89564 45/// /1442 10001 21081 39696 49715 50006
AAXX 08184 89570 46/// /0832 11069 21094 39111 53021
AAXX 08184 89571 45/// /0527 11005 21086 39747 49775 53018
AAXX 08184 89573 NIL
AAXX 08184 89610 NIL
AAXX 08184 89611 45/// /0606 11021 21088 39766 49818 52010
AAXX 08184 89614 NIL
AAXX 08184 89615 467// 81019 11092 21126 38918 53009
AAXX 08184 89807 NIL
AAXX 08184 89809 46/// /0000 11050 21064 39366 51013
BBXX 3ECI3 08184 99357 31571 41597 63524 10210 20178 40069 57030 70311 86436 22263 00210 20403 308// 41103 80190
BBXX V2OG2 08183 99108 31032 41496 73015 10275 20248 40093 57005 76162 87700 22223 20401 332// 40504 80255
BBXX C6FS9 08164 99390 31445 46/// /3128 10157 20111 30001 40037 57004 22262 04179 85130
BBXX VNSZ 08164 99397 31454 46/// /2738 10166 20097 30000 40026 57017 22236 04179 85126
BBXX VNSZ 08174 99401 31457 46/// /2739 10162 20094 39985 40011 57037 22236 04176 85123
BBXX 9HA2479 08174 99282 31561 46/// /0121 10226 20183 30064 40093 57022 22254 04238 85197
BBXX VNSZ 08184 99405 31460 46/// /2839 10148 20125 39980 40006 57040 22236 04175 85135
BBXX B2M1303 08183 99280 31131 41596 41530 10225 20188 40113 52020 7//// 845// 22243 00210 20609 80200
BBXX 9HA2479 08164 99280 31563 46/// /0120 10225 20173 30067 40096 57026 22254 04239 85190
BBXX VROB 08164 99068 31470 46/// /2703 10248 20232 30053 40078 57035 22200 04305 85236
BBXX 9KWP 08183 99250 31082 41597 61435 10220 20172 40130 54000 70222 83132 22233 2//// 80190
BBXX FHZI 08164 99480 31463 46/// /0222 10121 20100 39743 49754 57052 22243 04106 85109
BBXX VNAH 08164 99355 31208 46/// /2606 10162 20097 30183 40207 52004 22263 04184 85125
BBXX VROB 08174 99068 31470 46/// /3304 10250 20234 30044 40069 57035 22200 04305 85238
BBXX FHZI 08174 99482 31462 46/// /0125 10123 20102 39727 49737 57058 22242 04104 85111
BBXX VNAH 08174 99355 31205 46/// /1904 10163 20095 30183 40207 52003 22253 04184 85125
BBXX VNJC 08163 99321 31137 41497 21422 10199 20164 40182 57006 70222 82100 22221 20403 316// 40806 80178
BBXX SHIP 08183 99245 51226 41597 70415 10265 20261 40215 50004 7//11 8646/ 22214 00250 2//// 80262
BBXX VRRC 08174 99386 31483 41198 72424 10180 20121 40038 56/// 70122 8/872 22253 20101 324// 40101 80145
AAXX 08183 91502 NIL
AAXX 08183 91507 NIL
AAXX 08183 91520 31475 50000 10236 20234 40074 55005 70522 82936 333 56000 82815 81916 84280
AAXX 08183 91541 NIL
AAXX 08184 94893 NIL
AAXX 08184 94907 46/// /2813 10144 20091 30041 40051
AAXX 08184 94910 46/// /2511 10161 20051 39833 40075
AAXX 08184 94926 46/// /3108 10164 20124 39390 40038
AAXX 08184 94935 46/// /2608 10149 20124 30021 40047
AAXX 08184 94954 46/// /2734 10138 20106 39891 49999
AAXX 08184 94956 46/// /3122 10139 20116 39947 49973
AAXX 08184 94975 46/// /3412 10162 20062 39895 49927
AAXX 08184 94983 46/// /3018 10154 20100 39951 49976
AAXX 08184 94995 46/// /0106 10223 20183 30087 40095
AAXX 08184 94996 46/// /1905 10184 20081 39983 40111
AAXX 08184 94997 NIL
AAXX 08184 94998 46/// /3531 10089 20067 39963 49973
AAXX 08184 95111 46/// /1104 10262 20244 30033 40069
AAXX 08184 95205 46/// /0604 10252 20243 30054 40061
AAXX 08184 95322 NIL
AAXX 08184 95448 46/// /1307 10209 20095 39551 40097
AAXX 08184 95458 46/// /1717 10183 20086 39884 40139
AAXX 08184 95480 46/// /1811 10197 20068 30083 40140
AAXX 08184 95481 46/// /1812 10237 20082 30069 40112
AAXX 08184 95482 46/// /1910 10262 20095 30044 40098
AAXX 08184 95485 46/// /2010 10208 2//// 39907 40105
AAXX 08184 95492 46/// /2108 10259 20101 39933 40082
AAXX 08184 95527 46/// /0207 10254 20225 39792 40037
AAXX 08184 95634 46/// /1313 10159 20093 39769 40161
AAXX 08184 95637 46/// /1304 10126 20095 39863 40190
AAXX 08184 95646 46/// /2004 10145 20097 39990 40174
AAXX 08184 95666 NIL
AAXX 08184 95719 46/// /2310 10223 20185 39742 40062
AAXX 08184 95762 46/// /1805 10219 20202 39601 40042
AAXX 08184 95826 NIL
AAXX 08184 95839 46/// /3006 10096 20080 39939 40093
AAXX 08184 95864 NIL
AAXX 08184 95909 NIL
AAXX 08184 95954 NIL
AAXX 08184 95966 46/// /3417 10123 20074 39783 49977
AAXX 08184 96995 NIL
AAXX 08184 96996 454// 81513 10270 20242 30080 40084 58013
AAXX 08184 94102 46/// /3204 10285 20265 30059 40068
AAXX 08184 94103 NIL
AAXX 08184 94120 46/// /0305 10268 20251 30034 40074
AAXX 08184 94122 46/// /1105 10255 20239 30061 40069
AAXX 08184 94131 46/// /2903 10265 20237 39926 40077
AAXX 08184 94132 NIL
AAXX 08184 94147 NIL
AAXX 08184 94150 46/// /0000 10238 20226 30022 40081
AAXX 08184 94151 46/// /3406 10282 20227 30065 4////
AAXX 08184 94170 46/// /0603 10245 20221 30065 40087
AAXX 08184 94200 NIL
AAXX 08184 94203 46/// /0805 10250 20241 30050 40060
AAXX 08184 94206 NIL
AAXX 08184 94207 46/// /1006 10275 30034 40042 56025
AAXX 08184 94211 NIL
AAXX 08184 94212 46/// /0502 10277 20214 39595 40058
AAXX 08184 94216 46/// /3604 10265 20248 30018 40068
AAXX 08184 94236 NIL
AAXX 08184 94238 46/// /3505 10290 20177 39655 40068
AAXX 08184 94248 NIL
AAXX 08184 94255 46/// /0000 10277 20226 39814 40070
AAXX 08184 94268 46/// /0605 10262 20253 30070 40082
AAXX 08184 94287 46/// /0000 10243 20221 30083 40092
AAXX 08184 94290 NIL
AAXX 08184 94294 46/// /0106 10265 20214 30086 40096
AAXX 08184 94296 35/// /1206 10259 30074 40084 57008
AAXX 08184 94298 46/// /1011 10257 30084 40090 56010
AAXX 08184 95641 NIL
AAXX 08184 91375 NIL
AAXX 08184 91519 NIL
AAXX 08184 91531 NIL
AAXX 08184 91532 45/// /0606 10262 20235 30088 40096 54000
AAXX 08184 91559 NIL
AAXX 08184 91611 NIL
AAXX 08184 91642 NIL
AAXX 08184 91679 NIL
AAXX 08184 91689 NIL
AAXX 08184 91756 NIL
AAXX 08184 91844 NIL
AAXX 08184 92036 NIL
AAXX 08184 93713 NIL
AAXX 08184 41024 42660 23308 10234 20180 30136 40156 82500 333 10300 58026 55056 82640
AAXX 08184 41030 42960 00102 10246 20170 39872 40144 333 10310 58016 55///
AAXX 08184 41036 42960 01905 10176 20140 38582 48532 333 10260 58007 55090 555 04410 50140
AAXX 08184 41055 42960 00000 10172 20130 38393 48540 333 10251 58012 55090 555 04410 50157
AAXX 08184 41061 42960 00704 10215 20130 39442 40139 333 10320 58006 55092
AAXX 08184 41084 42960 00000 10226 20150 38878 48536 333 10320 58009 55100 555 04410 50135
AAXX 08184 41112 42960 01904 10149 20120 37976 48542 333 10218 58009 55090 555 04410 50177
AAXX 08184 41114 42960 00000 10158 20120 38008 48537 333 10252 58008 55091 555 04410 50160
AAXX 08184 41128 42960 00302 10230 20050 38829 48540 333 10320 58007 55084 555 04410 50134
AAXX 08184 41136 42960 00507 10248 20070 39330 40127 333 10330 58007 55100
AAXX 08184 41140 42960 00000 10273 20210 30134 40143 333 10320 58007 55///
BBXX 3ECI3 08184 99357 31571 41597 63524 10210 20178 40069 57030 70311 86436 22263 00210 20403 308// 41103 80190
BBXX V2OG2 08183 99108 31032 41496 73015 10275 20248 40093 57005 76162 87700 22223 20401 332// 40504 80255
BBXX C6FS9 08164 99390 31445 46/// /3128 10157 20111 30001 40037 57004 22262 04179 85130
BBXX VNSZ 08164 99397 31454 46/// /2738 10166 20097 30000 40026 57017 22236 04179 85126
BBXX VNSZ 08174 99401 31457 46/// /2739 10162 20094 39985 40011 57037 22236 04176 85123
BBXX 9HA2479 08174 99282 31561 46/// /0121 10226 20183 30064 40093 57022 22254 04238 85197
BBXX VNSZ 08184 99405 31460 46/// /2839 10148 20125 39980 40006 57040 22236 04175 85135
BBXX B2M1303 08183 99280 31131 41596 41530 10225 20188 40113 52020 7//// 845// 22243 00210 20609 80200
BBXX 9HA2479 08164 99280 31563 46/// /0120 10225 20173 30067 40096 57026 22254 04239 85190
BBXX VROB 08164 99068 31470 46/// /2703 10248 20232 30053 40078 57035 22200 04305 85236
BBXX 9KWP 08183 99250 31082 41597 61435 10220 20172 40130 54000 70222 83132 22233 2//// 80190
BBXX FHZI 08164 99480 31463 46/// /0222 10121 20100 39743 49754 57052 22243 04106 85109
BBXX VNAH 08164 99355 31208 46/// /2606 10162 20097 30183 40207 52004 22263 04184 85125
BBXX VROB 08174 99068 31470 46/// /3304 10250 20234 30044 40069 57035 22200 04305 85238
BBXX FHZI 08174 99482 31462 46/// /0125 10123 20102 39727 49737 57058 22242 04104 85111
BBXX VNAH 08174 99355 31205 46/// /1904 10163 20095 30183 40207 52003 22253 04184 85125
BBXX VNJC 08163 99321 31137 41497 21422 10199 20164 40182 57006 70222 82100 22221 20403 316// 40806 80178
BBXX SHIP 08183 99245 51226 41597 70415 10265 20261 40215 50004 7//11 8646/ 22214 00250 2//// 80262
BBXX VRRC 08174 99386 31483 41198 72424 10180 20121 40038 56/// 70122 8/872 22253 20101 324// 40101 80145
AAXX 08184 85864 12680 72408 10203 20134 49997 56003 60001 87200 333 56500 87836
AAXX 08184 85874 12680 82920 10170 20095 39393 49990 54002 60001 8621/ 333 56669 86840 88462
AAXX 08184 85934 12580 71711 10125 20074 49910 57043 60001 82530 333 56330 82620 87360
AAXX 08184 89054 32465 72827 10026 20002 49928 52010 87500 333 56600 87610 91040
AAXX 08184 89056 12465 72818 10021 21005 49928 51008 60003 86801 333 56605 83615 83825
AAXX 08184 89057 12470 52416 10028 21011 49925 54002 60003 83505 333 56505 83617 85270
AAXX 08184 89058 32480 82715 10037 21009 39908 49929 52007 84107 333 20000
AAXX 08184 89059 12960 52110 10017 21044 49899 52008 60003 82011 333 56000 82458 83061
AAXX 08184 89251 32468 42720 10021 21012 49917 52008 83602
AAXX 08184 94310 46/// /0000 10271 20239 30042 40053 57018
AAXX 08184 95283 46/// /3101 10237 20224 30084 40091
AAXX 08184 95288 46/// /1010 10268 30067 40082 56014
AAXX 08184 95675 46/// /2519
AAXX 08184 95872 46/// /2820
AAXX 08184 95961 37/// /3131 10147 39893 49934 52011 7//44
AAXX 08184 85585 339// 93219 10207 20149 30080 40115 50001
AAXX 08184 85586 12960 02807 10227 20128 40172 58003 60001
AAXX 08184 85629 12780 13010 10296 20123 40134 57010 60001 81800 333 56700 81850
AAXX 08184 85672 12570 63310 10268 20119 40144 58004 60001 84504 333 56606 84630 83070
AAXX 08184 85682 12460 80117 10193 20164 40153 50001 69901 888// 333 56899 84811 88615
AAXX 08184 85743 11460 69904 10220 20157 40123 50009 60021 70282 86800 333 56600 84815 86630
AAXX 08184 85766 11565 53418 10198 20147 40122 51008 60041 70182 85200 333 56700 85825
AAXX 08184 85782 11560 73423 10218 20101 40094 54001 60061 70282 87200 333 56700 87830
AAXX 08184 85799 11660 63620 10201 20130 40070 58002 60041 70182 86200 333 56700 86843
AAXX 08184 85830 NIL
AAXX 08184 85406 12980 02014 10253 20139 40126 56017 60001
AAXX 08184 85418 12970 42318 10238 20132 40136 57015 60001 80001 333 56000 84080
AAXX 08184 85432 12970 52721 10230 20050 37758 48427 57016 60001 80001 333 56006 85070
AAXX 08184 85442 12975 51912 10219 20141 40134 57019 60001 80004 333 56007 85080
AAXX 08184 85467 12570 12413 10236 20142 40153 58020 60001 81500 333 56600 81630
AAXX 08184 85469 42565 61011 10225 20154 40247 52003 86800 333 56200 83820 85630
AAXX 08184 85488 12970 12911 10234 20131 40149 58013 60001 80001 333 56000 81075
AAXX 08184 85574 12960 02012 10282 20096 39597 40126 57013 60001
AAXX 08184 85577 12960 02106 10283 20099 39550 40131 57010 60001
AAXX 08181 38141 32998 01103 11104 21167 30139 40309 57002 333 11060
AAXX 08181 38149 42998 00901 11090 21140 30216 40298 58007 333 11013
AAXX 08181 38178 429// 00000 11118 21227 30024 40333 58003 333 11068
AAXX 08181 38262 329// 00903 11102 21157 30208 40296 58008 333 11030
AAXX 08181 38264 42998 00903 11137 21150 30198 40299 57008 333 11065
AAXX 08181 38396 12196 30803 11137 21157 30164 40300 58009 69902 83600 333 11060 83702
AAXX 08181 38403 429// 00203 11112 21185 30170 40300 54000 333 11058
AAXX 08181 38413 429// 81302 11070 21117 30000 40309 53005 8802/ 333 11059
AAXX 08181 38457 31996 00000 11052 21073 39693 40312 57005 71000 333 10016
AAXX 08181 38462 NIL
AAXX 08181 38565 329// 00000 11054 21073 39686 40301 58006 333 10005
AAXX 08181 38579 31/// 91001 11054 21058 39868 40309 57012 74540 333 11028
AAXX 08181 38583 32997 50000 11097 21101 39975 40320 58005 80001 333 11032
AAXX 08181 38611 41995 53601 11045 21068 39738 40339 52001 71011 85030 333 10003
AAXX 08181 38618 329// 80000 11042 21059 39597 40321 54000 8807/ 333 11007
AAXX 08181 38683 41995 03402 11074 21095 39992 40286 57009 71000 333 11013
AAXX 08181 38696 329// 00000 11015 21059 39399 40286 58009 333 10081
AAXX 08181 38812 41995 01002 11035 21053 39801 40276 57003 71000 333 10041
AAXX 08181 38927 31950 00101 11018 21029 39891 40283 58003 71000 333 10091
AAXX 08181 37395 32797 80905 10126 21025 39978 40116 53012 8352/ 333 10160
AAXX 08181 37409 42998 00910 10003 21043 38721 48446 57003 333 10016 95000
AAXX 08181 37432 32697 60000 11018 21060 38924 48455 57001 86500 333 10066
AAXX 08181 37514 32996 00000 10022 21061 38981 40143 57002 333 10084
AAXX 08181 37545 425// 40000 10008 21021 39633 40159 57005 84001 333 10105
AAXX 08181 37621 329// 00000 10012 21067 39516 40169 57006 333 10100
AAXX 08181 37484 NIL
AAXX 08184 40550 47/43 /2004 10174 20139 40169 51009 71011 333 55300 00000 10170 20000 30000 41242 51412 60000 55407 40000 90069 90400 91011 91119 91207 91303
AAXX 08184 40551 36/// /1311 10176 20129 333 90400 91015 91127 91219 91311
AAXX 08184 40552 47/42 /1610 10169 20134 40169 53010 71010 333 55300 90069 90400 91011 91125 91221 91313
AAXX 08184 40553 37/37 /1613 10169 20149 40167 51007 71011 333 55300 90069 90401 91017 91131 91227 91313
AAXX 08184 40568 36/// /1704 10158 20152 333 90401 91007 91123 91219 91309
AAXX 08184 40569 NIL
AAXX 08184 40570 45/68 /1804 10173 20082 40170 53016 333 55300 90069 90401 91007 91121 91213 91305
AAXX 08184 40571 NIL
AAXX 08184 40572 NIL
AAXX 08184 40573 36/// /1802 10167 20107 333 90401 91007 91117 91213 91305
AAXX 08184 40580 46/// /1603 10187 20149 333 553// 00000 10061 20000 30000 41390 51450 60000 55407 40000 90401 91007 91121 91207 91305
AAXX 08184 40581 46/// /1903 10194 20155 333 90400 91007 91119 91207 91305
AAXX 08184 40582 41540 71507 10176 20147 40171 51014 79596 82950 333 55300 00000 10035 20000 30000 41404 51439 60000 55407 40000 82930 84640 87358 90401 91003 91123 91215 91309
AAXX 08184 40583 NIL
AAXX 08184 40585 46/// /1711 10170 20152 222// 1//// 3//// 4//// 70/// 333 90400 91013 91127 91221 91313
AAXX 08184 40586 46/// /2001 10171 20141 333 90400 91003 91119 91213 91305
AAXX 08184 40587 46/// /1604 10174 20149 333 553// 00000 10040 20000 30000 41371 51411 60000 55407 40000 90400 91007 91115 91209 91305
AAXX 08184 40588 47/56 /1309 10182 20153 40170 51014 78186 333 55300 90000 90401 91015 91125 91217 91311
AAXX 08184 40589 NIL
AAXX 08184 40590 46/// /1409 10166 20132 333 90400 91011 91119 91213 91309
AAXX 08184 40591 NIL
AAXX 08184 40592 47/39 /1506 10174 20146 40169 51012 71086 333 55300 00000 10125 20000 30000 41290 51414 60000 55407 40000 90069 90400 91011 91123 91215 91307
AAXX 08184 40593 46/// /1705 10179 20155 333 90400 91007 91121 91217 91311
AAXX 08184 40594 36/// /1505 10190 20155 333 90400 91013 91117 91209 91307
AAXX 08184 40596 46/// /1215 10201 20163 333 90401 91019 91125 91221 91315
AAXX 08181 78458 32566 30103 10280 20242 40178 57024 83200 333 10282 20186 30/// 56200 59012 83820
AAXX 08181 78460 32560 50902 10290 20220 40166 57030 70544 83501 333 10292 20190 30/// 56200 59010 83626
AAXX 08181 78467 32466 73603 10270 20228 40174 57018 82230 333 10272 20190 31/// 56000 59008 82815 83357
AAXX 08181 78479 32566 41203 10274 20216 40155 57018 82204 333 10280 20230 30/// 56200 58001 82822 84080
AAXX 08181 78482 32566 60905 10294 20212 40183 58027 83235 333 10310 20210 30/// 56400 58003 83825 84080
AAXX 08181 78485 32566 51604 10286 20201 40165 57028 82231 333 10295 20202 30//// 56000 58002 82820 84080
AAXX 08181 78486 32566 31202 10282 20226 40156 57020 82201 333 10292 20215 30/// 56000 58002 82822
AAXX 08181 78488 32566 50405 10292 20214 40170 57020 84206 333 10295 20180 30/// 56100 58000 84825
AAXX 08181 78458 32566 30103 10280 20242 40178 57024 83200 333 10282 20186 30/// 56200 59012 83820
AAXX 08181 78460 32560 50902 10290 20220 40166 57030 70544 83501 333 10292 20190 30/// 56200 59010 83626
AAXX 08181 78467 32466 73603 10270 20228 40174 57018 82230 333 10272 20190 31/// 56000 59008 82815 83357
AAXX 08181 78479 32566 41203 10274 20216 40155 57018 82204 333 10280 20230 30/// 56200 58001 82822 84080
AAXX 08181 78482 32566 60905 10294 20212 40183 58027 83235 333 10310 20210 30/// 56400 58003 83825 84080
AAXX 08181 78485 32566 51604 10286 20201 40165 57028 82231 333 10295 20202 30//// 56000 58002 82820 84080
AAXX 08181 78486 32566 31202 10282 20226 40156 57020 82201 333 10292 20215 30/// 56000 58002 82822
AAXX 08181 78488 32566 50405 10292 20214 40170 57020 84206 333 10295 20180 30/// 56100 58000 84825
AAXX 08181 48845 11497 83401 10146 20144 30224 40231 56008 60021 76166 888// 333 59007 85894 88696 96160
AAXX 08184 60715 12560 62914 10144 20077 30199 40206 57001 60002 85880 333 10169 59028 82826 84636 91022 91137
AAXX 08184 60723 12560 52710 10137 20092 30043 40232 53002 60002 84280 333 10154 84823
AAXX 08184 60725 12558 72808 10132 2//// 30069 40241 53004 60002 878// 333 10149 84820 84630
AAXX 08184 60735 12562 23008 10151 20057 30131 40213 58006 60002 81502 333 10182 81630
AAXX 08184 60745 12960 23410 10138 20033 39854 40225 55000 60002 333 10183
AAXX 08184 60748 12560 32608 10121 20034 39800 40217 58008 60002 82202 333 10166 82823
AAXX 08184 60750 12560 33203 10142 20034 30195 40220 53004 60002 82202 333 10181 82820
AAXX 08184 60760 12960 02710 10130 21021 30133 40238 55000 60002 333 10170 91013 91124
AAXX 08184 60765 12558 22208 10151 20068 30226 40230 56007 60002 82500 333 10174 82630 92436 925//
AAXX 08184 60767 12560 12110 10118 20003 30085 40232 58002 60002 81500 333 10161 81630
AAXX 08184 60769 12560 22410 10144 20070 30214 40218 55005 60002 82800 333 10163 81820
AAXX 08184 60715 12560 62914 10144 20077 30199 40206 57001 60002 85880 333 10169 59028 82826 84636 91022 91137
AAXX 08184 60723 12560 52710 10137 20092 30043 40232 53002 60002 84280 333 10154 84823
AAXX 08184 60725 12558 72808 10132 2//// 30069 40241 53004 60002 878// 333 10149 84820 84630
AAXX 08184 60735 12562 23008 10151 20057 30131 40213 58006 60002 81502 333 10182 81630
AAXX 08184 60745 12960 23410 10138 20033 39854 40225 55000 60002 333 10183
AAXX 08184 60748 12560 32608 10121 20034 39800 40217 58008 60002 82202 333 10166 82823
AAXX 08184 60750 12560 33203 10142 20034 30195 40220 53004 60002 82202 333 10181 82820
AAXX 08184 60760 12960 02710 10130 21021 30133 40238 55000 60002 333 10170 91013 91124
AAXX 08184 60765 12558 22208 10151 20068 30226 40230 56007 60002 82500 333 10174 82630 92436 925//
AAXX 08184 60767 12560 12110 10118 20003 30085 40232 58002 60002 81500 333 10161 81630
AAXX 08184 60769 12560 22410 10144 20070 30214 40218 55005 60002 82800 333 10163 81820
BBXX AVMI 08183 99360 31504 41295 31640 10220 20/// 40200 50601 70100 83/// 22253 00220
AAXX 08181 48840 32498 83402 10144 20124 30226 40232 57006 888// 333 59014 83894 88696
AAXX 08184 06610 01566 81303 10039 20014 39692 40291 53017 69922 78082 8657/ 333 10061 32/// 55300 20000 60005 86627 90766 93100 91115 91208
AAXX 08181 50468 NIL
AAXX 08181 50953 NIL
AAXX 08181 51076 NIL
AAXX 08181 51243 NIL
AAXX 08181 51288 32980 01102 11139 21200 38406 52001 333 00201 11058
AAXX 08181 51463 NIL
AAXX 08181 51573 NIL
AAXX 08181 51709 NIL
AAXX 08181 52533 NIL
AAXX 08181 52652 NIL
AAXX 08181 52866 NIL
AAXX 08181 52983 NIL
AAXX 08181 53463 NIL
AAXX 08181 53513 NIL
AAXX 08181 53588 NIL
AAXX 08181 53772 NIL
AAXX 08181 53915 NIL
AAXX 08181 54218 NIL
AAXX 08181 54337 NIL
AAXX 08181 54342 NIL
AAXX 08181 54401 NIL
AAXX 08181 54471 NIL
AAXX 08181 54497 NIL
AAXX 08181 54511 NIL
AAXX 08181 54823 NIL
AAXX 08181 56080 NIL
AAXX 08181 56096 NIL
AAXX 08181 57083 NIL
AAXX 08184 06670 01462 72105 10036 20017 39746 40270 52015 60042 71086 8386/ 333 10054 31/// 55300 20000 69915 81713 83822 85358 90766 93100 91119 91211
AAXX 08184 06700 32583 70103 10051 20002 39783 40287 53018 878// 333 10075 31/// 55300 20000 81621 87645 90766 93100 91111 91207
AAXX 08184 06680 01/01 92808 11103 21111 37492 47015 52008 60232 77174 333 11086 47388 55300 20000 69965 90766 93108 91147 91223
AAXX 08184 06990 01640 80413 10050 21013 39690 40247 52010 60042 76266 887// 333 10061 41/// 55300 20000 60005 88739 91122 91213
AAXX 08184 06760 32782 10101 10096 21052 39742 40189 53021 81500 333 10101 30/// 55300 20000 81656 90766 93100 91120 91212
AAXX 08184 06720 32565 83201 10051 20004 39683 40269 52021 886// 333 10063 42998 55300 20000 88724 90766 93100 91123 91216
AAXX 08181 48900 32497 40204 10236 20154 30120 40130 57005 84800 333 59008 81894 83696
AAXX 08181 48917 32598 60506 10274 20181 30110 40116 57010 8121/ 222// 00279 333 59018 81895 86499
AAXX 08181 48918 32498 70504 10248 20199 30120 40131 58012 878// 222// 00249 2//// 333 59009 81894 86696
AAXX 08181 48914 32698 70901 10255 20231 30127 40129 58006 875// 333 59012 87696
BBXX 44139 08181 99442 70571 46/// /2907 10053 40140 52015 22200 00050 10805 70026 333 91209
AAXX 08184 60115 32970 33505 10115 20080 40248 53003 80002 333 10188 83073
BBXX 3FZK3 08184 99558 71522 46/// /3140 11057 21090 49890 51065 7//// 8//// 22261 0//// 2////
BBXX 46035 08181 99571 71778 46/// /2713 1//// 40057 53005 91750 22200 10906 20906 300// 41201 70031 333 91216 555 11133 22142 31749 42616 61749 269131 264113 262110 261114 255109 277130 82815 91749
BBXX 9VVP 08184 99541 71618 41498 33216 11010 21010 40095 52045 70173 8288/ 22225 00040 2//// 32732 40905 51001 6//// 86010 ICE /////
BBXX C6SI6 08184 99533 71565 46/// /2819 11004 21070 40098 51015 7//// 8//// 22223 0//// 2////
BBXX KEY796 08183 99571 71703 41/97 80810 11078 21111 40059 51/// 702// 8//// 222// 01017 2//// 3//// 4//// 5//// 6//// 8//// ICE /////
BBXX 44139 08181 99442 70571 46/// /2907 10053 40140 52015 22200 00050 10805 70026 333 91209
AAXX 08184 65306 32960 50000 10274 20060 39782 40117 80002 333 10336 59007 85076
AAXX 08184 65319 32958 50000 10287 20120 39597 40112 80002 333 10355 59001 85076
AAXX 08184 65330 31915 50000 10305 20093 39658 40094 70522 80002 333 10350 59003 85076
AAXX 08184 65335 32956 52804 10321 20183 39868 40091 80002 333 10359 58001 85076
AAXX 08184 65344 32956 51804 10287 20249 30085 40096 80002 333 10310 58004 85076
BBXX 9VVN 08184 99351 11431 41/97 10100 2001/ 40225 58005 7//// 8//// 22264 00190 2//// 3//// 4//// 5//// 6//// 80060
BBXX A8CN9 08180 99396 11461 41/97 53103 10030 21021 40210 55/// 70311 83440 22253 20604 30505 40604 50603 80010
BBXX DIHC 08183 99408 11395 41498 72818 10000 21027 40235 57010 70322 871/7 22214 00080 2//// 81010
BBXX A8AJ4 08184 99496 11718 41/// /0730 10020 2//// 40040 52010 7//// 8//// 22233 0//// 20608 3//// 4//// 5//// 6//// 8//// ICE /////
BBXX C6FY8 08183 99402 11572 415// 53619 10070 20030 40150 5//// 75253 8522/ 22222 0//// 20704 335// 41008 5//// 6//// 80050 ICE /////
BBXX D5BC5 08184 99407 11725 41/98 83622 00/// 10080 20040 49900 56010 70311 85/// 22223 04/// 2//// 3//// 4//// 5//// 6//// 80060 ICE /////
BBXX DDJS2 08183 99504 11777 41598 50614 11005 40066 57011 70211 84870 22263 00040 20401 323// 40805 5////
BBXX LAYG5 08184 99501 11766 41597 50925 10000 21160 40040 56005 70122 8516/ 22223 00063 20803 327// 41404 81040
BBXX MGPU2 08184 99445 11555 41598 50113 10005 21044 40150 58011 70222 84444 22223 00028 20612 3//// 4//// 5//// 81011
BBXX S6JU 08184 99468 11642 41596 80126 10010 20010 40025 52020 77077 884// 22254 04020 2//// 3//// 4//// 5//// 6//// 80000 ICE /////
BBXX EIPT 08184 99518 70074 41597 82411 10110 20105 40297 58/// 70222 86776 22222 2//// 3//// 40403 5//// 80107
AAXX 08184 85972 11998 03003 10122 20076 49923 57042 60001
AAXX 08184 85585 12598 33219 10207 20149 40115 54001 60001 83200 333 56700 83823
BBXX 9VBM6 08183 99220 70189 41898 30212 10210 20164 40180 52010 7//22 82619 22243 00220 20303 3//// 40303 50302 6//// 80180 /////
BBXX FLAO 0818/ 99764 70847 46/// ///// 11333 49983 57002
AAXX 08184 13625 12960 40302 10063 21034 39891 40125 54003 60002 84030 333 10102 84360
AAXX 08184 60710 12562 72722 10145 20085 30151 40230 58001 60002 878// 333 10163 84820 84630
AAXX 08184 60714 12460 53114 10147 20093 30215 40221 52006 60002 85800 333 10167 83816 83630
AAXX 08184 60720 12560 62710 10136 20096 30160 40194 50001 60002 86800 333 10163 84820 83630
AAXX 08184 60728 NIL
AAXX 08184 60729 NIL
AAXX 08184 60731 02656 52508 10146 20069 30208 40215 53004 60002 333 10176 20099 59019 60007 83/38 85/46 85/50 91012 91134
AAXX 08184 60732 NIL
AAXX 08184 60734 12560 73012 10107 20079 39703 40228 56002 60002 878// 333 10133 84823 84630
AAXX 08184 60738 NIL
AAXX 08184 60739 NIL
AAXX 08184 60740 12560 32606 10153 20078 30215 40217 53005 60002 83802 333 10178 81820 83626
AAXX 08184 60742 NIL
AAXX 08184 60764 12962 02408 10133 20034 30190 40242 53007 60002 333 10178
AAXX 08184 60770 12975 32806 10116 20046 30091 40232 55002 60002 83080 333 10174 83360
AAXX 08184 60772 NIL
AAXX 08184 60775 12575 32804 10109 20000 39889 40250 53002 60002 82280 333 10138 82826
AAXX 08184 60780 12960 03204 10102 21012 39950 40260 58014 60002 333 10141
AAXX 08181 26135 27457 81002 11013 21015 30055 40131 51009 72487 88/// 333 11013 21096 60007 88/14 555 1/101 21096 3/113 51057 52103
AAXX 08181 26058 27318 /1102 11024 21028 30144 40152 52008 77177 333 11024 21050 69937 8//10 555 1/102 21050 3/112 51028 52110
AAXX 08184 16245 12775 63008 10100 20064 30125 40151 53007 60002 86070 333 10138 83356 85459
AAXX 08184 89002 41999 22416 11037 21061 39693 49747 54000 73630 80002 333 92911
AAXX 08181 26045 263// 71002 11022 21022 30141 40144 52007 87/// 333 11018 21108 69957 87/07 555 1/100 21108 3/100 51058
AAXX 08181 26247 27/35 /1102 11002 21005 30044 40125 51008 77170 333 10006 21003 69937 555 1/100 21003 3/100 50000
AAXX 08184 86330 32698 10304 10346 20172 40104 57022 81100
AAXX 08184 86360 32997 01410 10356 20114 40102 57028
AAXX 08184 86460 32998 01206 10324 20159 40123 57026
AAXX 08184 86490 32997 00908 10344 20128 40115 57025
AAXX 08184 86530 32997 00710 10332 20118 40114 57027
AAXX 08184 86545 32597 13610 10326 20165 40129 57029 81100
AAXX 08184 86565 32497 20915 10284 20199 40142 57019 82400
AAXX 08184 86580 32797 11213 10260 20202 40145 57020 81050
AAXX 08181 01180 11680 72201 11038 21061 30080 40139 52016 60002 70222 87500 333 11021 91103
AAXX 08181 01257 16/// /2303 11064 21080 30010 40179 52012 60002 333 11045 91105
AAXX 08181 01488 16/// /1201 11101 21110 60002 333 11032 91104
AAXX 08181 01393 16/// /3301 11134 21147 39359 40214 51016 6//// 333 11077 91108
AAXX 08181 01441 16/// /0601 11123 21138 39172 40219 51014 60002 333 11061 91103
AAXX 08184 91348 11474 80506 10264 20243 30042 40095 55002 60031 78082 8627/ 333 56199 70033 555 90818
AAXX 08181 50953 32965 00000 11190 21223 30122 40315 52007 333 11090
AAXX 08181 53463 32980 00901 11141 21191 39052 40379 57006 333 00053 11050
AAXX 08181 53513 32970 01802 11169 21208 39078 40383 54000 333 00000 11027
AAXX 08181 54218 32970 02001 11163 21221 39501 40359 54000 333 11032
AAXX 08181 54337 32960 00901 11124 21161 30251 40340 52006 333 11048
AAXX 08181 54471 32960 00401 11118 21167 30331 40337 52007 333 11046
AAXX 08181 54497 31957 00702 11104 21135 30304 40321 52004 71000 333 11020
AAXX 08181 54823 31957 01401 11024 21059 30121 40339 52005 71000 333 10040
AAXX 08183 78970 11430 80913 10254 20238 30105 40130 60091 76186 888// 333 02299 10321 20238 58005 83815 88640 90926
AAXX 08183 78962 11467 70811 10280 20207 30124 40135 60021 71586 8487/ 333 02299 10286 20224 59001 82816 86358 90916
AAXX 08184 78615 32482 60606 10290 20214 30040 40180 58014 86200 333 10296 20172 30/// 56200 57824 59004 86818
AAXX 08184 78627 32982 00000 10236 20012 38180 58008
AAXX 08184 333 10240 20036 30/// 54505 54306 58003
AAXX 08184 78637 32482 73608 10262 20229 30158 40174 58011 84230 333 10266 20198 30/// 56290 57824 59004 84818 83359
AAXX 08184 78641 32482 23610 10226 20135 38572 40159 58003 82100 333 10228 20116 30/// 56800 57887 58002 82818
AAXX 08184 78647 31982 01808 10318 20189 30135 40142 58018 70240 333 10320 20180 30/// 59008
AAXX 08184 43400 NIL
AAXX 08184 43404 NIL
AAXX 08184 43410 NIL
AAXX 08184 43413 22970 00504 10257 20251 30137 40140 333 59012 60007
AAXX 08184 43415 NIL
AAXX 08184 43418 22470 40903 10260 20237 3//// 4//// 83132 333 5//// 60007 83818
AAXX 08184 43421 22460 40000 10248 20236 30044 40146 84100 333 59004 60007 84818
AAXX 08184 43422 NIL
AAXX 08184 43424 22468 30501 10244 20241 30129 40132 81101 333 59006 60007 81818 83080
AAXX 08184 43436 22470 50506 10276 20247 30135 40138 85100 333 59011 60007 85818
AAXX 08184 43441 NIL
AAXX 08184 43444 22470 10000 10222 20207 39604 40134 81200 333 59010 60007 81818
AAXX 08184 43467 21460 50000 10250 20239 30126 40131 70398 83931 333 59010 60017 83816 81918
AAXX 08184 43473 21470 20907 10138 20128 38154 48523 70282 81102 333 59010 69917 81812 82080
AAXX 08184 43475 NIL
AAXX 08184 43476 NIL
AAXX 08184 43479 NIL
AAXX 08184 43486 22470 40000 10246 20231 30034 40128 84200 333 59010 60007 84808
AAXX 08184 43495 22460 2//// 10246 20229 30117 40133 81131 333 59017 60007 81818
AAXX 08184 43497 22476 10505 10254 20230 30108 40125 81101 333 59017 60007 81818
AAXX 08184 41258 36/// /1204 10233 20193 30185 40189 333 0E/// 10251 58007
AAXX 08181 56187 11958 82901 10048 20036 39627 40292 57010 60011 76060 8807/ 333 05201 10080
AAXX 08181 57461 32960 80701 10046 21027 30157 40326 57010 8807/ 333 10069
AAXX 08181 57516 31730 83402 10072 20042 39967 40286 57011 71000 885// 333 05300 10088
AAXX 08181 57687 31720 72901 10047 21007 30235 40322 57005 70500 875// 333 10058
AAXX 08181 57816 11440 80703 10004 21002 38850 40291 57009 69901 76066 885// 333 05201 10031
AAXX 08181 58040 31950 00000 11042 21062 30323 40337 52004 71000 333 10053
AAXX 08181 58102 32962 01401 11002 21019 30289 40339 54000 333 10070
AAXX 08181 58150 31957 03602 11001 21035 30334 40338 54000 71000 333 10053
AAXX 08181 58221 31650 70000 10008 21005 30309 40339 52004 71000 875// 333 10050
AAXX 08181 59117 32661 82502 10092 20059 30157 40265 52002 885// 333 10163
AAXX 08181 59431 32762 83402 10086 20071 30119 40270 57011 885// 333 10090
AAXX 08181 59644 31558 83603 10097 20078 30235 40252 57007 71000 888// 333 10097
AAXX 08181 56778 32968 21601 10033 20012 38145 57005 80001 333 00000 10171
AAXX 08181 57265 32961 80000 10000 21027 30215 40331 52003 8803/ 333 10079
AAXX 08181 57494 32965 83401 10037 20002 30294 40325 52001 8807/ 333 10058
AAXX 08181 58362 32568 80202 10053 20016 30310 40318 52003 8217/ 333 10075
AAXX 08181 58457 11718 80201 10051 20041 30264 40319 52001 69971 76066 885// 333 10055
AAXX 08181 58752 31658 83402 10105 20059 30245 40292 54000 70500 885// 333 10138
AAXX 08181 50468 32970 03402 11301 21341 30124 40358 52002 333 11162
AAXX 08181 51076 32980 00401 11200 21230 39469 40438 52005 333 00200 11109
AAXX 08181 51463 31920 63201 11140 21158 39232 40423 52002 71000 80002 333 00300 11089
AAXX 08181 51573 32970 00000 11105 21154 30354 40401 57002 333 00251 11043
AAXX 08181 54401 32970 03201 11120 21203 39381 40355 52003 333 11015
AAXX 08181 52533 32980 02002 11139 21212 38613 40398 57003 333 00200 11025
AAXX 08181 52652 32980 01801 11179 21242 38625 40406 57003 333 00251 11022
AAXX 08181 52866 32970 70701 11096 21178 37735 57001 80002 333 05106 11009
AAXX 08181 52983 32965 70000 11082 21150 38157 57007 80002 333 05101 11019
AAXX 08181 53588 32980 02909 11121 21277 37798 57003 333 11088
AAXX 08181 53772 31950 60000 11085 21125 39389 40362 52004 71000 84032 333 10001
AAXX 08181 53915 32980 42902 11055 21129 38740 40340 57011 80002 333 05100 10022
AAXX 08181 54342 31956 01401 11195 21215 30269 40336 52007 71000 333 11072
AAXX 08181 54511 31940 03401 11075 21096 30285 40327 52001 71000 333 10021
AAXX 08181 56080 11965 83401 11096 21126 37146 57006 69931 77077 8801/ 333 05102 11019
AAXX 08181 56096 32775 70201 10019 21042 39020 40298 57010 875// 333 05201 10046
AAXX 08181 57083 31915 02202 11020 21053 30188 40330 57006 71000 333 10066
AAXX 08181 58238 31650 83402 10037 20014 30285 40331 52004 71000 885// 333 10037
AAXX 08181 58251 31956 73602 10011 21018 30323 40328 57001 71000 8704/ 333 10049
AAXX 08181 58606 31757 80701 10060 21026 30253 40313 57005 70500 885// 333 10073
AAXX 08181 58847 31557 83402 10108 20096 30169 40273 57004 71000 885// 333 10136
AAXX 08181 59134 32961 10903 10115 20091 30079 40248 57003 80002 333 10200
AAXX 08181 59287 32964 23605 10092 20063 30169 40256 52001 80002 333 10167
AAXX 08181 59316 32960 70702 10145 20122 30236 40241 57002 8704/ 333 10201
AAXX 08181 59758 32462 70701 10154 20134 30160 40238 57004 878// 333 10163
AAXX 08181 48919 11498 80513 10253 20231 30099 40121 58006 69941 72582 889// 22200 02260 333 59010 81894 8299 5 86696
AAXX 08181 48916 32698 70204 10271 20192 30077 40124 58003 875// 333 59019 87696
AAXX 08181 48808 32498 60000 10098 20090 39965 40261 58003 868// 333 59012 83894 86696
AAXX 08181 48830 11496 83602 10086 20080 39933 40256 58007 69901 75052 887// 333 59015 86794 88696 96150
AAXX 08181 48839 32497 80205 10145 20127 30170 40238 58007 888// 222// 00152 2//// 333 59010 83894 88696
AAXX 08181 48826 31595 80201 10134 20125 30102 40242 58003 71022 888// 333 59010 83894 88697
AAXX 08184 43466 21470 61801 10250 20243 30117 40129 71798 8497/ 333 59015 60037 82818 82920 84360
AAXX 08184 91753 01565 72908 10258 20244 30039 40071 51011 60192 71522 878// 333 10268 20243 60037 82820 87658 90710 91116 555 69925
AAXX 08184 91754 01475 72806 10261 20232 30025 40066 53011 69981 702// 8323/ 333 69987 83818 86360 555 60005
AAXX 08184 91348 11474 80506 10264 20243 30042 40095 55002 60031 78082 8627/ 333 56199 70033 555 90818
BBXX 44150 08181 99425 70640 46/// /3606 10059 40164 52004 22200 00095 11004 70020 333 91207
BBXX 41053 08181 99185 70661 46/// /0807 10269 40155 91750 333 91210
BBXX 41053 08181 99185 70661 46/// /0807 10269 40156 91740 333 91210
BBXX 41053 08181 99185 70661 46/// /0807 10269 40153 58027 91800 22200 00272 10903 70014 333 91209
AAXX 08184 78615 32482 60606 10290 20214 30040 40180 58014 86200 333 10296 20172 30/// 56200 57824 59004 86818
AAXX 08184 78627 32982 00000 10236 20012 38180 58008
AAXX 08184 333 10240 20036 30/// 54505 54306 58003
AAXX 08184 78637 32482 73608 10262 20229 30158 40174 58011 84230 333 10266 20198 30/// 56290 57824 59004 84818 83359
AAXX 08184 78641 32482 23610 10226 20135 38572 40159 58003 82100 333 10228 20116 30/// 56800 57887 58002 82818
AAXX 08184 78647 31982 01808 10318 20189 30135 40142 58018 70240 333 10320 20180 30/// 59008
BBXX 44150 08181 99425 70640 46/// /3606 10059 40164 52004 22200 00095 11004 70020 333 91207
BBXX 42085 08181 99179 70665 46/// /1007 10268 40154 58022 91800 22200 00271 10702 70011 333 91208
BBXX 42085 08181 99179 70665 46/// /1107 10267 40157 91750 333 91208
AAXX 08184 71441 46/// /2209 10002 21048 39865 40179 58014 6///1 333 10002 21081 7////
AAXX 08184 71447 16/// /2006 11025 21051 39628 40181 58013 60001 333 11025 21091 70000
AAXX 08184 71472 46/// /2118 6///1 333 7////
AAXX 08184 71250 17/// /2616 10043 20027 39894 40029 53012 60241 7//4/ 333 10065 21026 7////
AAXX 08184 71270 16/// /1202 11044 21094 30037 40265 58008 60001 333 11023 21072 70000
AAXX 08184 71288 16/// /0409 11369 21407 30013 40039 53018 60001 333 11319 21369 70000
AAXX 08184 71291 16/// /3303 11071 21098 39927 40230 58005 60001 333 11071 21126 70000
AAXX 08184 71295 16/// /1703 11062 21090 39728 40186 58027 60001 333 11062 21165 70000
AAXX 08184 71296 16/// /1104 11059 21094 39947 40262 58006 60001 333 11031 70000
AAXX 08184 71299 16/// /2005 11141 21165 39944 40235 58018 60001 333 11122 21202 70000
AAXX 08184 71015 16/// ///// 10043 60001 333 10046 21057 70000
AAXX 08184 71017 16/// /1102 11380 21420 30034 40050 51006 60001 333 11359 21401 70000
AAXX 08184 71019 46/// /3008 11089 21125 39874 40184 53007 6///1 333 11068 21108 7////
AAXX 08184 71020 46/// /2707 10075 21037 39625 49873 53012 6///1 333 10080 21167 7////
AAXX 08184 71021 46/// /3005 11030 21034 39557 49906 50007 6///1 333 11030 21189 7////
AAXX 08184 71151 16/// /1810 11058 21064 39670 40185 58022 60001 333 11058 21097 70014 555 10030
AAXX 08184 71155 16/// ///// 10020 21008 60001 333 10020 21072 70000
AAXX 08184 71158 16/// /1707 11075 21096 39827 40109 58039 60001 333 11075 21189 70000
AAXX 08184 71160 16/// /0404 11138 21166 39711 49926 53008 60001 333 11138 21223 70000
AAXX 08184 71162 17/// /1012 11097 21109 39679 49887 53005 69931 7//4/ 333 11096 21184 70009
AAXX 08184 71164 46/// /3202 11222 21247 39863 49945 53006 6///1 333 11201 21303 7////
AAXX 08184 71165 46/// ///02 11164 21185 39642 49928 53014 6///1 333 11151 21284 7////
AAXX 08184 71166 46/// /2214 11009 21052 39331 49930 53024 6///1 333 11007 21098 7////
AAXX 08184 71752 16/// /2806 10004 21076 30041 40263 58003 60001 333 10011 21016 70000
AAXX 08184 71754 16/// /2511 10028 21055 39416 40081 56008 60001 333 10028 21096 70000
AAXX 08184 71783 16/// /0801 10067 20050 30185 40259 53005 60001 333 10067 20047 70010
AAXX 08184 71450 16/// /2306 10002 21052 39386 40109 58017 60001 333 10002 21069 70000
AAXX 08184 71453 16/// /2404 10057 21043 39230 40147 53004 60001 333 10057 21071 70000 555 10010
AAXX 08184 71465 46/// /3403 10017 21072 30049 40270 58001 6///1 333 10017 21005 7////
AAXX 08184 71470 16/// /0000 11262 21289 39329 49969 53013 60001 333 11222 21263 70000
AAXX 08184 71476 16/// /1820 30084 53020 60001 333 70166
AAXX 08184 71480 16/// /1501 11201 21230 39807 49930 53007 60001 333 11193 21253 70000
AAXX 08184 71484 16/// /1821 10078 20067 30075 40093 52011 60001 333 10087 20054 70000
AAXX 08184 71492 46/// ///01 11204 21221 39215 49919 51003 6///1 333 11184 21272 7////
AAXX 08184 71667 17/// /2811 11047 21089 39975 40228 58003 69931 7//4/ 333 11045 21086 70003
AAXX 08184 71669 16/// /2603 10045 21044 38554 40172 51016 60001 333 10046 21033 70000
AAXX 08184 71110 16/// /2719 10032 20027 30001 40061 53020 60001 333 10050 21019 70019
AAXX 08184 71139 16/// /2504 10026 21059 38682 40148 53011 60001 333 10034 21081 70000
AAXX 08184 71149 16/// /0805 10018 21085 60001 333 10022 21088 70000
AAXX 08184 71837 16/// ///// 10049 60001 333 10062 21032 7////
AAXX 08184 71839 16/// ///// 10047 60001 333 10068 21014 7////
AAXX 08184 71906 12974 52005 11284 21352 30142 40196 56006 60001 82071 333 11283 21339 79999
AAXX 08184 71619 16/// /2814 11050 21091 30095 40154 53018 60001 333 11037 21070 70030
AAXX 08184 71956 16/// /1507 11045 21067 30005 40244 58018 60001 333 11045 21112 70000
AAXX 08184 71959 16/// ///// 10008 21009 60001 333 10045 21001 70007
AAXX 08184 71977 46/// /1401 11252 21252 39200 49931 56002 6///1 333 11240 7//// 555 10030
AAXX 08184 71978 46/// /3609 11261 21289 39625 49950 53001 6///1 333 11261 21348 7//// 555 10010
AAXX 08184 71087 46/// /2402 11123 21138 39694 49898 53023 6///1 333 11069 21209 7////
AAXX 08184 71243 16/// /2722 10064 21045 39093 40169 51023 60001 333 10064 20006 70000
AAXX 08184 71246 16/// /2612 10058 21017 39359 40010 53014 60001 333 10058 21057 70000
AAXX 08184 71719 16/// /3508 11039 21055 30151 40157 53021 60001 333 11021 21044 70039 555 10070
AAXX 08184 71730 11974 81804 11122 21143 39820 40264 58008 69901 70271 8807/ 333 11121 21171 47016 70004 90961
AAXX 08184 71501 17/// /3609 11249 21276 39966 49968 53001 69931 7//4/ 333 11246 21327 70011 555 10060
AAXX 08184 71522 46/// /2705 11132 21182 39702 40208 53002 6///1 333 11132 21170 70000
AAXX 08184 71524 16/// /3103 11065 21131 30214 40241 51001 60001 333 11005 21077 70020
AAXX 08184 71885 16/// ///// 10057 60001 333 10071 7////
AAXX 08184 71355 16/// /0802 11310 21343 39913 40002 58007 60001 333 11308 21359 70000
AAXX 08184 71357 16/// /0604 11281 21312 39983 49990 53004 60001 333 11258 21339 70000
AAXX 08184 71361 16/// /2605 11059 21086 39687 49891 53016 60001 333 11039 21110 70000
AAXX 08184 71362 16/// /1201 11070 21082 39645 49899 55001 60001 333 11070 21207 70000
AAXX 08184 71363 16/// /0411 11378 21420 39962 40020 51020 60001 333 11326 21379 70000
AAXX 08184 71364 16/// /0407 11234 21262 39803 49939 55007 60001 333 11233 21254 70003 555 10010
AAXX 08184 71365 16/// /3401 11113 21121 39683 49894 53022 60001 333 11078 21219 70000
AAXX 08184 71372 16/// /2707 11064 21100 60001 333 11008 21064 70028
AAXX 08184 71373 16/// /2705 11067 21105 60001 333 10000 21069 70040
AAXX 08184 71381 47/// /2711 11134 21151 6///1 7//4/ 333 21174 70000
AAXX 08184 71393 16/// ///// 10086 21041 38870 40129 53019 60001 333 10087 21033 70000
AAXX 08184 71317 16/// /3107 10009 21035 30100 40147 53009 60001 333 10021 20004 70000
AAXX 08184 71321 16/// /0000 11299 21330 30015 40061 56014 60001 333 11299 21358 70000 555 10010
AAXX 08184 71402 46/// /3623 11024 21030 39930 40045 53026 6///1 333 11008 21058 7////
AAXX 08184 71448 16/// /1903 11021 21059 39832 40168 58023 60001 333 11021 21113 70006
AAXX 08184 71449 16/// /2005 11003 21048 39779 40189 58019 60001 333 11003 21101 70000
AAXX 08184 71551 16/// /2615 10015 21056 39441 40098 56014 60001 333 10015 21043 70000
AAXX 08184 71552 46/// /2120 11038 21067 6///1 333 11036 21136 7////
AAXX 08184 71553 16/// /2116 11050 21086 60001 333 11048 21115 70000
AAXX 08184 71564 16/// /2708 11008 21060 39805 40180 58012 60001 333 11007 21074 70000
AAXX 08184 71579 16/// /2206 11023 21065 39878 40167 58020 60001 333 11023 21080 70000
AAXX 08184 71581 16/// /3102 11080 21160 39749 40248 58008 60001 333 11079 70000
AAXX 08184 71585 16/// /2511 10043 21008 39526 49976 53009 60001 333 10044 21162 70000
AAXX 08184 71586 16/// /2607 10011 21025 39522 49988 56009 60001 333 10012 21151 70000
AAXX 08184 71588 16/// /3203 11022 21039 60001 333 11013 21070 70000
AAXX 08184 71589 16/// /3010 11004 21014 39906 40039 53034 60001 333 10021 21073 70013
AAXX 08184 71599 17/// /0000 10026 21001 39961 40164 55002 69961 7//4/ 333 10042 21014 70006
AAXX 08184 71827 11274 61804 11230 21266 39978 40240 57011 60001 70277 81602 333 11280 21333 48020 70000 90961
AAXX 08184 71850 11374 41910 11055 21064 39679 40191 58022 69901 72271 81771 333 11055 21094 48017 70016 90912
AAXX 08184 71858 16/// /2309 11036 21066 39775 40059 58053 60001 333 11036 21140 70000
AAXX 08184 71721 16/// /1201 11091 21146 39996 40251 58004 60001 333 11088 21137 70020
AAXX 08184 71724 16/// /2905 11077 21124 30220 40228 53002 60001 333 11047 21088 70033
AAXX 08184 71734 16/// /2004 11157 21194 39850 40261 58004 60001 333 11151 21204 70010
AAXX 08184 71736 46/// ///// 10028 21042 6///1 333 10031 21012 7////
AAXX 08184 71746 16/// /3103 10009 21089 30041 40266 58006 60001 333 10017 21008 70000
BBXX 44067 08181 99384 70770 46/// /0302 10090 40238 58016 91800
BBXX 46111 08181 99481 71227 46/// /1608 10082 40258 53008 91800 22200 00049
BBXX 46112 08181 99481 71227 46/// /1406 10080 40261 53003 91800
AAXX 08184 71441 46/// /2209 10002 21048 39865 40179 58014 6///1 333 10002 21081 7////
AAXX 08184 71447 16/// /2006 11025 21051 39628 40181 58013 60001 333 11025 21091 70000
AAXX 08184 71472 46/// /2118 6///1 333 7////
AAXX 08184 71906 12974 52005 11284 21352 30142 40196 56006 60001 82071 333 11283 21339 79999
AAXX 08184 71719 16/// /3508 11039 21055 30151 40157 53021 60001 333 11021 21044 70039 555 10070
AAXX 08184 71730 11974 81804 11122 21143 39820 40264 58008 69901 70271 8807/ 333 11121 21171 47016 70004 90961
AAXX 08184 71827 11274 61804 11230 21266 39978 40240 57011 60001 70277 81602 333 11280 21333 48020 70000 90961
AAXX 08184 71850 11374 41910 11055 21064 39679 40191 58022 69901 72271 81771 333 11055 21094 48017 70016 90912
AAXX 08184 71858 16/// /2309 11036 21066 39775 40059 58053 60001 333 11036 21140 70000
AAXX 08184 71250 17/// /2616 10043 20027 39894 40029 53012 60241 7//4/ 333 10065 21026 7////
AAXX 08184 71270 16/// /1202 11044 21094 30037 40265 58008 60001 333 11023 21072 70000
AAXX 08184 71288 16/// /0409 11369 21407 30013 40039 53018 60001 333 11319 21369 70000
AAXX 08184 71291 16/// /3303 11071 21098 39927 40230 58005 60001 333 11071 21126 70000
AAXX 08184 71295 16/// /1703 11062 21090 39728 40186 58027 60001 333 11062 21165 70000
AAXX 08184 71296 16/// /1104 11059 21094 39947 40262 58006 60001 333 11031 70000
AAXX 08184 71299 16/// /2005 11141 21165 39944 40235 58018 60001 333 11122 21202 70000
AAXX 08184 71906 12974 52005 11284 21352 30142 40196 56006 60001 82071 333 11283 21339 79999
AAXX 08184 71667 17/// /2811 11047 21089 39975 40228 58003 69931 7//4/ 333 11045 21086 70003
AAXX 08184 71669 16/// /2603 10045 21044 38554 40172 51016 60001 333 10046 21033 70000
AAXX 08184 71837 16/// ///// 10049 60001 333 10062 21032 7////
AAXX 08184 71839 16/// ///// 10047 60001 333 10068 21014 7////
AAXX 08184 71956 16/// /1507 11045 21067 30005 40244 58018 60001 333 11045 21112 70000
AAXX 08184 71959 16/// ///// 10008 21009 60001 333 10045 21001 70007
AAXX 08184 71977 46/// /1401 11252 21252 39200 49931 56002 6///1 333 11240 7//// 555 10030
AAXX 08184 71978 46/// /3609 11261 21289 39625 49950 53001 6///1 333 11261 21348 7//// 555 10010
AAXX 08184 71551 16/// /2615 10015 21056 39441 40098 56014 60001 333 10015 21043 70000
AAXX 08184 71552 46/// /2120 11038 21067 6///1 333 11036 21136 7////
AAXX 08184 71553 16/// /2116 11050 21086 60001 333 11048 21115 70000
AAXX 08184 71564 16/// /2708 11008 21060 39805 40180 58012 60001 333 11007 21074 70000
AAXX 08184 71579 16/// /2206 11023 21065 39878 40167 58020 60001 333 11023 21080 70000
AAXX 08184 71581 16/// /3102 11080 21160 39749 40248 58008 60001 333 11079 70000
AAXX 08184 71585 16/// /2511 10043 21008 39526 49976 53009 60001 333 10044 21162 70000
AAXX 08184 71586 16/// /2607 10011 21025 39522 49988 56009 60001 333 10012 21151 70000
AAXX 08184 71588 16/// /3203 11022 21039 60001 333 11013 21070 70000
AAXX 08184 71589 16/// /3010 11004 21014 39906 40039 53034 60001 333 10021 21073 70013
AAXX 08184 71599 17/// /0000 10026 21001 39961 40164 55002 69961 7//4/ 333 10042 21014 70006
AAXX 08184 71402 46/// /3623 11024 21030 39930 40045 53026 6///1 333 11008 21058 7////
AAXX 08184 71448 16/// /1903 11021 21059 39832 40168 58023 60001 333 11021 21113 70006
AAXX 08184 71449 16/// /2005 11003 21048 39779 40189 58019 60001 333 11003 21101 70000
AAXX 08184 71015 16/// ///// 10043 60001 333 10046 21057 70000
AAXX 08184 71017 16/// /1102 11380 21420 30034 40050 51006 60001 333 11359 21401 70000
AAXX 08184 71019 46/// /3008 11089 21125 39874 40184 53007 6///1 333 11068 21108 7////
AAXX 08184 71020 46/// /2707 10075 21037 39625 49873 53012 6///1 333 10080 21167 7////
AAXX 08184 71021 46/// /3005 11030 21034 39557 49906 50007 6///1 333 11030 21189 7////
AAXX 08184 71619 16/// /2814 11050 21091 30095 40154 53018 60001 333 11037 21070 70030
AAXX 08184 71087 46/// /2402 11123 21138 39694 49898 53023 6///1 333 11069 21209 7////
AAXX 08184 71151 16/// /1810 11058 21064 39670 40185 58022 60001 333 11058 21097 70014 555 10030
AAXX 08184 71155 16/// ///// 10020 21008 60001 333 10020 21072 70000
AAXX 08184 71158 16/// /1707 11075 21096 39827 40109 58039 60001 333 11075 21189 70000
AAXX 08184 71160 16/// /0404 11138 21166 39711 49926 53008 60001 333 11138 21223 70000
AAXX 08184 71162 17/// /1012 11097 21109 39679 49887 53005 69931 7//4/ 333 11096 21184 70009
AAXX 08184 71164 46/// /3202 11222 21247 39863 49945 53006 6///1 333 11201 21303 7////
AAXX 08184 71165 46/// ///02 11164 21185 39642 49928 53014 6///1 333 11151 21284 7////
AAXX 08184 71166 46/// /2214 11009 21052 39331 49930 53024 6///1 333 11007 21098 7////
AAXX 08184 71752 16/// /2806 10004 21076 30041 40263 58003 60001 333 10011 21016 70000
AAXX 08184 71754 16/// /2511 10028 21055 39416 40081 56008 60001 333 10028 21096 70000
AAXX 08184 71783 16/// /0801 10067 20050 30185 40259 53005 60001 333 10067 20047 70010
AAXX 08184 71110 16/// /2719 10032 20027 30001 40061 53020 60001 333 10050 21019 70019
AAXX 08184 71139 16/// /2504 10026 21059 38682 40148 53011 60001 333 10034 21081 70000
AAXX 08184 71149 16/// /0805 10018 21085 60001 333 10022 21088 70000
AAXX 08184 71450 16/// /2306 10002 21052 39386 40109 58017 60001 333 10002 21069 70000
AAXX 08184 71453 16/// /2404 10057 21043 39230 40147 53004 60001 333 10057 21071 70000 555 10010
AAXX 08184 71465 46/// /3403 10017 21072 30049 40270 58001 6///1 333 10017 21005 7////
AAXX 08184 71470 16/// /0000 11262 21289 39329 49969 53013 60001 333 11222 21263 70000
AAXX 08184 71476 16/// /1820 30084 53020 60001 333 70166
AAXX 08184 71480 16/// /1501 11201 21230 39807 49930 53007 60001 333 11193 21253 70000
AAXX 08184 71484 16/// /1821 10078 20067 30075 40093 52011 60001 333 10087 20054 70000
AAXX 08184 71492 46/// ///01 11204 21221 39215 49919 51003 6///1 333 11184 21272 7////
AAXX 08184 71885 16/// ///// 10057 60001 333 10071 7////
AAXX 08184 71721 16/// /1201 11091 21146 39996 40251 58004 60001 333 11088 21137 70020
AAXX 08184 71724 16/// /2905 11077 21124 30220 40228 53002 60001 333 11047 21088 70033
AAXX 08184 71734 16/// /2004 11157 21194 39850 40261 58004 60001 333 11151 21204 70010
AAXX 08184 71736 46/// ///// 10028 21042 6///1 333 10031 21012 7////
AAXX 08184 71746 16/// /3103 10009 21089 30041 40266 58006 60001 333 10017 21008 70000
AAXX 08184 71355 16/// /0802 11310 21343 39913 40002 58007 60001 333 11308 21359 70000
AAXX 08184 71357 16/// /0604 11281 21312 39983 49990 53004 60001 333 11258 21339 70000
AAXX 08184 71361 16/// /2605 11059 21086 39687 49891 53016 60001 333 11039 21110 70000
AAXX 08184 71362 16/// /1201 11070 21082 39645 49899 55001 60001 333 11070 21207 70000
AAXX 08184 71363 16/// /0411 11378 21420 39962 40020 51020 60001 333 11326 21379 70000
AAXX 08184 71364 16/// /0407 11234 21262 39803 49939 55007 60001 333 11233 21254 70003 555 10010
AAXX 08184 71365 16/// /3401 11113 21121 39683 49894 53022 60001 333 11078 21219 70000
AAXX 08184 71372 16/// /2707 11064 21100 60001 333 11008 21064 70028
AAXX 08184 71373 16/// /2705 11067 21105 60001 333 10000 21069 70040
AAXX 08184 71381 47/// /2711 11134 21151 6///1 7//4/ 333 21174 70000
AAXX 08184 71393 16/// ///// 10086 21041 38870 40129 53019 60001 333 10087 21033 70000
AAXX 08184 71243 16/// /2722 10064 21045 39093 40169 51023 60001 333 10064 20006 70000
AAXX 08184 71246 16/// /2612 10058 21017 39359 40010 53014 60001 333 10058 21057 70000
AAXX 08184 71317 16/// /3107 10009 21035 30100 40147 53009 60001 333 10021 20004 70000
AAXX 08184 71321 16/// /0000 11299 21330 30015 40061 56014 60001 333 11299 21358 70000 555 10010
AAXX 08184 71501 17/// /3609 11249 21276 39966 49968 53001 69931 7//4/ 333 11246 21327 70011 555 10060
AAXX 08184 71522 46/// /2705 11132 21182 39702 40208 53002 6///1 333 11132 21170 70000
AAXX 08184 71524 16/// /3103 11065 21131 30214 40241 51001 60001 333 11005 21077 70020
AAXX 08181 38462 429// 0000 11074 21144 38811 48531 58003 333 10037
AAXX 08181 40706 11425 83302 10020 20010 38629 40197 56003 60011 76382 8432/ 333 55080 21020 82720 83940 88558
AAXX 08181 40718 11557 82705 10086 20078 30176 40147 58008 60001 71022 8552/ 333 55000 85630 88460
AAXX 08181 40732 12660 33102 10094 20068 30159 40135 56009 60001 83200 333 55082 83835
AAXX 08181 40745 11940 01702 11016 21043 39059 40244 56006 60001 71000 333 55068 21200
AAXX 08181 40754 12660 60502 10054 21047 38840 40211 52007 60001 82570 333 55085 82640 84360
AAXX 08181 40766 11660 81404 10098 20048 38685 40166 56003 69911 70262 8532/ 333 55018 20400 82935 83640 88458
AAXX 08181 40800 12960 20000 10054 21015 38458 40197 51002 60001 82030 333 55075 2//// 82360
AAXX 08181 40811 11656 41402 10184 20131 30145 40172 53005 60001 70521 84400 333 55021 20616 84640
AAXX 08181 40841 12660 21802 10062 21041 38281 40204 50002 60001 82400 333 55096 2//// 82645
AAXX 08181 40848 11458 80205 10112 20074 38563 40198 50016 69941 78082 8532/ 333 55062 20986 81715 82930 83635 88458
AAXX 08181 40856 12960 02202 10035 21118 38678 40229 50001 60001 333 55090 2////
AAXX 08181 40875 11950 03602 10176 20156 30177 40189 51006 60001 71000 333 55079 21324
AAXX 08181 01003 16/// /0703 11105 21125 30137 40149 50001 6////
AAXX 08181 48803 32497 80000 10140 20129 30122 40239 58005 888// 333 59012 85894 88696
AAXX 08184 04211 47/07 /1918 11180 21195 39757 49923 52027 77177 333 11161 21182 91022
AAXX 08184 04220 07484 11602 11170 21187 39887 49942 57003 69912 70087 333 10382 21228 55300 20004 69907 81/13 91212
AAXX 08184 04221 47484 71309 11156 21195 39900 49939 52002 72477 333 11117 21156 83/18 87/65
AAXX 08184 04231 12884 70409 11188 21231 39876 49953 52003 6///2 8707/ 333 11185 21253 87357
AAXX 08184 04234 47550 72022 11112 21164 39940 49951 52022 78588 333 11098 21158 85/24 87/58 91137 91037
AAXX 08184 04241 47248 72317 11125 21163 39931 49972 52004 77187 333 11077 21129 83/04 85/28 87/34
AAXX 08184 04250 07/10 93304 11120 21136 39867 49976 52003 69962 78580 333 10168 21181 55300 20014 69957 89/04 91215
AAXX 08184 04254 47/03 91201 11123 21152 39862 49980 57008 77277 333 11107 21123 89/06 91214
AAXX 08184 04260 47534 81310 11102 21149 39942 49987 57011 78588 333 11069 21120 88/27
AAXX 08184 04270 45/84 /0904 11092 21199 39947 49987 54000 333 11028 21116 91227
AAXX 08184 04272 06/// ///// 39923 57004 69962 333 6///7
AAXX 08184 04312 46/// ///// 11326 21369 39930 49972 57011
AAXX 08184 04320 45/83 /0000 11277 21312 30019 40036 57011 333 11260 21341
AAXX 08184 04339 47/01 ///// 11013 21022 39756 49844 57069 77377 333 11013 21045 55300 20000
AAXX 08184 04360 06/// /1201 11024 21026 39648 49717 57024 60062 333 11007 21024 55300 20000 60017
AAXX 08184 04361 NIL
AAXX 08184 04390 07/82 02515 11024 21151 39843 49936 52007 60192 78587 333 11011 21047 60017 91160 91238
OOXX AAUNI 08184 99798 50833 56093 07671 46/// /2321 11064 21158 38922 49798 5//// 91800
AAXX 08184 61401 NIL
AAXX 08184 61404 32960 00814 10260 21080 39767 40160 333 10273 59010
AAXX 08184 61415 32958 03008 10231 20112 30148 40153 333 10284 59013
AAXX 08184 61421 32960 03606 10300 20031 39892 40146 333 10310 59002
AAXX 08184 61437 32960 01404 10298 20094 30022 40159 333 10314 58000
AAXX 08184 61442 32960 00805 10320 21123 30126 40129 333 10328 59017
AAXX 08184 61450 32960 40804 10260 21022 39690 40146 84030 333 10296 59002 84363
AAXX 08184 61461 32960 00804 10310 21024 30043 40129 333 10315 59037
AAXX 08184 61489 32958 20000 10322 21003 30125 40132 82070 333 10337 59002 82363
AAXX 08184 61492 31956 50812 10315 21052 30144 40163 70622 85070 333 10330 59019 85363
AAXX 08184 61497 35960 60806 10285 21067 39877 4//// 86070 333 10310 59022 86363
AAXX 08184 61498 31958 40404 10310 20043 30000 40132 705// 84030 333 10332 59020 84363
AAXX 08184 61499 32960 50804 10290 21080 39875 40130 85070 333 10320 59009 85363
AAXX 08184 61510 NIL
AAXX 08181 50136 31970 42501 11362 21406 39777 40384 57002 77600 80002 333 11191
AAXX 08181 50745 32965 70901 11207 21241 30147 40349 52009 82032 333 11107
AAXX 08181 50774 32960 02501 11247 21270 30007 40341 52011 333 11106
AAXX 08181 50788 32970 02903 11211 21256 30205 40298 52012 333 11111
AAXX 08181 51133 32980 00701 11136 21169 39692 40386 57001 333 00352 11029
AAXX 08181 51431 NIL
AAXX 08181 51747 NIL
AAXX 08181 52203 32980 00401 11125 21185 39453 40391 52002 333 00201 11017
AAXX 08181 52418 32980 01102 11145 21189 38993 40409 57006 333 00201 11023
AAXX 08181 52681 32980 62502 11142 21203 38727 40387 52001 80002 333 00152 11003
AAXX 08181 53564 32965 00000 11156 21181 39297 40386 52002 333 00052 11013
AAXX 08181 53614 31956 32201 11120 21154 39013 40384 52002 71000 80002 333 00000 11022
AAXX 08181 53646 32970 20000 11106 21163 38949 40366 52003 80002 333 00001 11012
AAXX 08181 53798 31956 70701 11036 21059 30236 40338 52005 71000 8703/ 333 11008
AAXX 08181 53845 32965 80902 11053 21108 39183 40354 52001 80007 333 00051 10022
AAXX 08181 53959 31958 70401 11039 21072 39883 40345 57002 71000 80002 333 10042
AAXX 08181 54094 32960 02901 11217 21252 39991 40318 52006 333 11104
AAXX 08181 54102 32980 21802 11273 21301 39103 40427 57003 80002 333 11179
AAXX 08181 54161 32960 02002 11176 21204 30009 40325 52005 333 11081
AAXX 08181 54292 32970 02701 11149 21219 39965 40307 52007 333 11082
AAXX 08181 54374 32962 03602 11199 21226 39847 40355 52010 333 11125
AAXX 08181 54423 32980 00901 11116 21169 39808 40353 52005 333 11012
AAXX 08181 54618 32961 60000 11066 21087 30319 40338 52005 86030 333 10006
AAXX 08181 54843 31940 02701 11054 21077 30312 40341 52006 71000 333 10053
AAXX 08181 54909 31959 00000 11034 21051 30262 40328 57005 71000 333 10058
AAXX 08181 56029 32680 82701 11065 21128 36437 54000 889// 333 00001 11003
AAXX 08181 57127 32960 72901 10023 20013 39690 40317 57009 8703/ 333 10059
AAXX 08181 57131 31958 73202 11019 21049 39836 40352 52001 71000 8703/ 333 10038
AAXX 08184 62010 32660 72706 10124 20068 40232 51002 84430 333 10145 84635 86358
AAXX 08184 62012 32560 32610 10129 20078 30192 40222 51003 83500 333 10159 83630
AAXX 08184 62016 32560 52509 10118 20068 40246 52007 85500 333 10166 85625
AAXX 08184 62124 32960 00000 10120 21010 39719 40236 52003 333 10138
BBXX 9V9243 08183 99291 11229 41/97 /0420 10115 40285 53010 70222 8//// 22283 00164 2////
BBXX SLCO 08184 99176 11378 43/98 50826 10261 40164 50003 22274 00267 2//// 4////
BBXX SKUN 08183 99447 70584 43/98 92117 10064 40125 56014 22263 00034 2//// 4////
BBXX SERW 08183 99148 70396 43598 40809 10262 2//// 40135 56017 70311 841// 22262 06254 20402 307// 40902
BBXX SCKM 08183 99465 70378 43/98 62120 10090 40249 58017 22264 00130 20404 40405
BBXX SKWI 08184 99417 70485 43/97 82218 10127 40203 54000 22224 00110 2//// 4////
BBXX SBLW 08183 99545 71677 43/98 71815 11019 40091 50002 22263 00039 2//// 4////
AAXX 08180 44214 32998 00103 11195 21256 38362 40520 52006
AAXX 08180 44231 319// 80000 11169 21232 38780 40442 57002 70422 8807/
AAXX 08180 44259 32997 02705 11238 21272 39375 40381 58003
AAXX 08180 44277 329// 02904 11254 21285 37851 40600 58001
AAXX 08180 44288 32999 22803 11158 21222 38195 40422 57006 80004
AAXX 08180 44292 319// 02301 11265 21290 38756 40467 58005 70400
AAXX 08180 44304 329// 12305 11307 21336 39053 40444 57002 81040
AAXX 08180 44354 329// 20000 11261 21285 39172 40422 54000 80004
AAXX 08180 44373 32999 22702 11177 21234 38591 40425 58003 80008
AAXX 08181 13492 NIL
AAXX 08181 13584 NIL
AAXX 08181 13585 42697 31001 11054 21086 39324 40149 53001 82540 333 10020 94041 47017 92265
AAXX 08181 13597 42698 73602 10048 21053 30042 40116 51005 87500 333 10078 94016
AAXX 08181 13598 42998 31102 11053 21061 48384 53002 80001 333 10003 43012 94026
AAXX 08181 37279 32594 70901 10106 20002 39950 40096 58003 87800 333 10172
AAXX 08181 37308 327// 70000 10050 21037 39494 40146 52002 83530 333 10123
AAXX 08181 37531 329// 61103 10040 21022 39422 40150 57007 80050 333 10095
AAXX 08181 37553 329// 00901 10005 21073 39495 40155 57011 333 10109
AAXX 08181 37651 16/// ///00 10001 21044 3//// 4//// 5//// 60002 333 10121
AAXX 08181 37492 NIL
AAXX 08181 63021 42980 10503 10141 20103 37745 40153 333 59002 81358 555 10245
AAXX 08184 47401 11/70 82408 11022 21095 30152 40167 58008 69901 72681 882//
AAXX 08184 47412 12/65 71906 11037 21091 30165 40199 58010 60001 872//
AAXX 08184 47420 17/62 /2604 11041 21050 30145 40180 58013 69901 77170
AAXX 08184 47426 17/70 /3506 11036 21098 30152 40202 58008 69901 70070
AAXX 08184 47582 12/60 71105 11028 21059 30211 40239 57006 60001 872//
AAXX 08184 47590 12/80 83403 11005 21047 30185 40241 56009 60001 81832
AAXX 08184 47600 15/70 /2205 10008 21003 30216 40225 56020 60001
AAXX 08184 47648 11/65 83003 10047 20003 30196 40231 58014 69901 72162 885//
AAXX 08184 47662 12/70 63306 10037 21077 30191 40237 58014 60001 82570
AAXX 08184 47678 15/70 /2710 10094 20036 30042 40232 58010 60001
AAXX 08184 47740 17/73 /3007 10070 21004 30196 40231 53006 60021 70085
AAXX 08184 47778 15/70 /3604 10076 20006 30154 40239 58013 60001
AAXX 08184 47807 11/65 72703 10087 20021 30248 40267 56002 69901 70282 82230
AAXX 08184 47827 11/75 83306 10091 20031 30222 40261 56009 69901 70282 8327/
AAXX 08184 47843 17/64 /3408 10088 20032 30242 40275 55000 69951 72186
AAXX 08184 47893 12/70 72904 10055 20007 30243 40249 56008 60001 8253/
AAXX 08184 47909 11/70 71802 10150 20142 30230 40240 58006 60011 72162 8327/
AAXX 08184 47918 11/58 81515 10221 20206 30174 40191 58011 69901 78082 8727/
AAXX 08184 47936 11/70 80307 10190 20157 30162 40221 58010 69901 70262 8587/
AAXX 08184 47945 11/65 62003 10176 20166 30195 40220 58007 69901 78082 84830
AAXX 08184 47971 12/70 13105 10130 20081 30232 40242 58011 60001 81200
AAXX 08184 47991 16/// /0215 10198 20094 30189 40199 55002 60001
AAXX 08184 47407 11/60 73403 11099 21115 30017 40201 58010 69901 78582 872//
AAXX 08184 47409 12/70 72406 11076 21100 30128 40185 58010 60001 8703/
AAXX 08184 47418 12/70 50209 11109 21131 30139 40192 58008 60001 85500
AAXX 08184 47421 17/70 /3007 11019 21120 30159 40204 56007 69901 72470
AAXX 08184 47430 11/65 73504 11043 21064 30153 40210 58008 69901 78582 872//
AAXX 08184 47570 15/70 /0101 11045 21056 39979 40253 57012 60001
AAXX 08184 47575 11/60 72108 11013 21062 30216 40221 58009 69901 78582 873//
AAXX 08184 47584 11/65 71603 11054 21074 30041 40241 57006 69901 70382 87500
AAXX 08184 47604 12/65 71802 10004 21028 30235 40244 56014 60001 81072
AAXX 08184 47605 12970 72003 10021 21020 30178 40221 58023 60001 8707/
AAXX 08184 47610 12/70 22205 11038 21072 39725 40253 58016 60001 81232
AAXX 08184 47624 12/80 12904 11006 21072 30097 40242 58012 60001 81531
AAXX 08184 47629 12/70 73403 11014 21060 30198 40238 58015 60001 8283/
AAXX 08184 47636 12/65 80103 10018 21056 30182 40253 55002 60001 8802/
AAXX 08184 47651 13/// /2704 10021 21034 30227 40250 56008 60001
AAXX 08184 47655 15/70 /2708 10026 21021 30176 40235 55007 60001
AAXX 08184 47675 15/70 /0606 10049 20001 30132 40226 58012 60001
AAXX 08184 47741 11/60 82607 10049 20037 30217 40245 52003 60031 78082 882//
AAXX 08184 47746 11/60 82005 10052 21008 30224 40244 55001 69901 78081 8627/
AAXX 08184 47750 12/70 72407 10014 21008 30219 40248 56010 60001 8127/
AAXX 08184 47765 11/70 70106 10048 20000 30187 40255 58006 69901 70182 8227/
AAXX 08184 47772 12/80 80602 10032 21019 30150 40254 58002 60001 8187/
AAXX 08184 47800 15/63 /3209 10058 21025 30268 40273 52006 60001
AAXX 08184 47815 12/70 51603 10049 20007 30246 40263 55005 60001 85830
AAXX 08184 47817 11/65 80802 10074 20056 30224 40269 55004 69901 78082 882//
AAXX 08184 47830 11/82 23004 10067 20016 30238 40257 56007 69901 70162 81530
AAXX 08184 47887 11/65 71401 10065 20018 30215 40258 55006 69901 72522 872//
AAXX 08184 47891 12/80 71802 10031 21018 30236 40254 55006 60001 8627/
AAXX 08184 47895 12/80 72306 10028 21025 30244 40252 56009 60001 81830
AAXX 08184 47927 11/70 81006 10204 20196 30152 40201 58010 60021 72582 8687/
AAXX 08184 40100 11558 71711 10145 20077 30115 40147 53010 60001 76062 87900 918// 333 10183 81920 86826 92436
AAXX 08184 40101 12556 72209 10066 20041 39079 48476 51012 60001 87200 918// 333 10093 87826
AAXX 08184 40103 32558 72612 10155 20039 40125 51004 87800 333 10169 83824 85640 555 10184
AAXX 08184 40102 NIL
AAXX 08180 44203 329// 50000 11328 21351 38477 40592 53003 81018
AAXX 08180 44207 329// 60000 11228 21268 38350 40442 54000 80008
AAXX 08180 44212 329// 21805 11340 21368 39313 40631 52001 82040
AAXX 08180 44213 32999 50000 11336 21371 38926 40641 57001 85030
AAXX 08180 44215 32998 00000 11295 21326 38508 40590 52010
AAXX 08180 44218 319// 01801 11281 21311 38717 40575 52003 77620
AAXX 08180 44225 319// 50000 11295 21319 38349 40590 53001 70277 85040
AAXX 08180 44230 329// 40104 11218 21251 38850 40470 57002 80004
AAXX 08180 44232 329// 20000 11304 21335 39184 40474 54001 82040
AAXX 08180 44237 32999 22301 11201 21242 38540 40427 58010 82041
AAXX 08180 44239 329// 23302 11238 21277 38844 40400 58003 82040 555 99600 99905
AAXX 08180 44241 329// 01402 11310 21334 39348 40466 54000
AAXX 08180 44256 32999 10000 11239 21257 39409 40357 56002 80004
AAXX 08180 44265 329// 00000 11265 21297 38938 40509 51005
AAXX 08180 44272 329// 70000 11221 21261 38292 40475 52002 87010
AAXX 08180 44275 32998 00000 11235 21255 37756 40544 56002
AAXX 08180 44282 32999 52504 11143 21242 38331 40377 58008 84044
AAXX 08180 44284 32999 10000 11285 21314 37880 40598 56003 80001
AAXX 08180 44285 32999 00000 11251 21276 38359 40491 58002
AAXX 08180 44287 32899 20104 11223 21264 38157 40506 58005 82040
AAXX 08180 44294 329// 00102 11272 21303 38599 40488 57004
AAXX 08180 44298 329// 03603 11243 21249 38757 40420 53001
AAXX 08180 44302 329// 02908 11260 21295 39176 40430 51003
AAXX 08180 44305 32999 02903 11276 21307 39112 40410 57005
AAXX 08180 44313 32999 31805 11272 21303 39459 40401 58007 80003
AAXX 08180 44314 32998 00000 11264 21395 39197 40416 57003
AAXX 08180 44317 32998 53203 11210 21243 38990 40392 57005 80008
AAXX 08180 44336 329// 52702 11209 21242 38750 40462 58004 80008
AAXX 08180 44341 329// 21802 11202 21235 38649 40439 58001 80004
AAXX 08180 44347 32999 20000 11219 21251 38777 40448 50006 80004
AAXX 08180 44352 32999 60000 11266 21283 38970 40424 56002 80007
AAXX 08180 44358 329// 50903 11269 21286 39155 40453 57001 80002
AAXX 08183 41150 41958 01109 10194 20163 40177 70500 333 10215 59007
AAXX 08181 08501 32472 51907 10168 20151 30225 40261 5//// 82801 333 10185 82818 84070
AAXX 08181 08505 32475 31103 10178 20125 30222 40271 56005 83801 333 10188 82814
AAXX 08181 08509 11560 21203 10158 20128 30217 40282 55000 69932 70382 83800 333 10172 81823
AAXX 08181 08512 32480 31003 10164 20128 30183 40275 53001 83800 333 10/// 82818
AAXX 08181 08515 11475 6//// 10141 20123 30165 40281 52006 69922 70351 86801 333 10178 82811 83820 85635
AAXX 08181 08533 32/// /0801 10120 20100 30224 40253 52005 333 10166
AAXX 08181 08541 NIL
AAXX 08181 08545 31962 00701 10107 20059 30190 40274 54000 70200 333 10173
AAXX 08181 08548 32/// /9902 10101 20024 30060 40268 57004 333 10137 91005 91106
AAXX 08181 08554 32/// /0503 10143 20083 30241 40251 52003 333 10171
AAXX 08181 08558 32/// /0703 10100 20033 39960 40258 52004 333 10160
AAXX 08181 08560 32/// /0505 10058 21005 39511 40286 57005 333 10117 91009 91109
AAXX 08181 08567 32/// /9902 10036 20027 39633 40320 52002 333 10082
AAXX 08181 08570 NIL
AAXX 08181 08575 32/// /0000 10037 20026 39482 40318 57002 333 10048
AAXX 08181 08579 32/// /2402 10134 20068 30133 40258 52004 333 10154
AAXX 08181 40703 11660 82206 10040 20021 38889 40178 52008 69901 72522 8452/ 333 55065 84640 88460
AAXX 08181 40712 11508 82002 10006 20004 38657 40192 55006 69961 76176 8532/ 333 55068 20923 81930 84635 88457
AAXX 08181 40729 11557 80000 10018 21002 38314 40181 58008 69911 77072 8432/ 333 55057 20992 81930 84635 88558
AAXX 08181 40736 12960 00802 10090 20054 30150 40124 57037 60001 333 55081
AAXX 08181 40739 12965 00402 11020 21089 38708 40257 50001 60001 333 55088
AAXX 08181 40743 12970 00703 10008 21043 39100 40256 56005 60001 333 55087
AAXX 08181 40762 12965 03203 11055 21075 38581 40259 51004 60001 333 55083
AAXX 08181 40768 11560 83003 10045 20003 38233 40178 58007 69901 70282 8532/ 333 55037 21232 82930 84635 88459
AAXX 08181 40769 11660 30000 10040 21033 38281 40180 58007 69901 70181 82570 333 55062 20945 82640
AAXX 08181 40785 12960 00000 10044 21032 39090 40209 56006 60001 333 55085
AAXX 08181 40809 12960 00000 11024 21127 38533 40253 51003 60001 333 55094 21351
AAXX 08181 40821 12660 11203 10096 21085 38801 40209 58006 60001 81430 333 55093 21311
AAXX 08181 40831 11650 51303 10176 20159 30167 40175 52012 60001 71010 85300 333 55045 81935 85640
AAXX 08181 06431 36/// /2802 10064 20049 30253 40265 50012 60002 333 10086 91109 91207
AAXX 08181 40703 11660 82206 10040 20021 38889 40178 52008 69901 72522 8452/ 333 55065 84640 88460
AAXX 08181 40712 11508 82002 10006 20004 38657 40192 55006 69961 76176 8532/ 333 55068 20923 81930 84635 88457
AAXX 08181 40729 11557 80000 10018 21002 38314 40181 58008 69911 77072 8432/ 333 55057 20992 81930 84635 88558
AAXX 08181 40736 12960 00802 10090 20054 30150 40124 57037 60001 333 55081
AAXX 08181 40739 12965 00402 11020 21089 38708 40257 50001 60001 333 55088
AAXX 08181 40743 12970 00703 10008 21043 39100 40256 56005 60001 333 55087
AAXX 08181 40762 12965 03203 11055 21075 38581 40259 51004 60001 333 55083
AAXX 08181 40768 11560 83003 10045 20003 38233 40178 58007 69901 70282 8532/ 333 55037 21232 82930 84635 88459
AAXX 08181 40769 11660 30000 10040 21033 38281 40180 58007 69901 70181 82570 333 55062 20945 82640
AAXX 08181 40785 12960 00000 10044 21032 39090 40209 56006 60001 333 55085
AAXX 08181 40809 12960 00000 11024 21127 38533 40253 51003 60001 333 55094 21351
AAXX 08181 40821 12660 11203 10096 21085 38801 40209 58006 60001 81430 333 55093 21311
AAXX 08181 40831 11650 51303 10176 20159 30167 40175 52012 60001 71010 85300 333 55045 81935 85640
BBXX UFTA 08181 99844 71202 31997 21403 11337 21370 40009 57005 70230 80001
AAXX 08184 87022 32560 53612 10333 20186 39562 40055 57024 85100 333 56899 85830
AAXX 08184 87046 32565 70512 10308 20150 39077 48475 57024 82108 333 56000 82830 86270
AAXX 08184 87097 32570 40000 10343 20180 39812 40115 57023 84100 333 56100 84825
AAXX 08184 87121 32665 13606 10360 20185 39553 40042 57029 81100 333 56800 81840
AAXX 08184 87129 NIL
AAXX 08184 87155 31560 30906 10368 20160 30022 40081 57021 70400 83500 333 56200 83630
AAXX 08184 87162 31560 60906 10362 20185 30011 40078 57020 71791 86900 333 56300 57950 81950 86625 96004
AAXX 08184 87166 31558 33608 10378 20158 30010 40080 57020 70400 83200 333 56700 57879 83830
AAXX 08184 87178 31570 43403 10360 20165 39952 40092 57025 71791 83201 333 56600 57861 83825 84070
AAXX 08184 87217 32970 00510 10395 20204 39543 40006 57035
AAXX 08184 87222 32670 10219 10376 20130 39517 40011 57027 81100 333 56600 81845
AAXX 08184 87257 NIL
AAXX 08184 87270 31956 00910 10358 20183 30026 40086 57023 70400
AAXX 08184 87289 31660 10914 10337 20232 30025 40105 57017 70500 81280 333 56260 57816 81835
AAXX 08184 87311 32965 03610 10403 20139 39339 49971 57039
AAXX 08184 87320 32975 00514 10395 20137 39524 40025 57040
AAXX 08184 87328 32980 03618 10394 20029 39413 40026 57027 333 95000
AAXX 08181 30372 41995 00000 11420 21450 39431 40465 58002 74640
AAXX 08181 30433 41997 83601 11188 21200 39696 40337 52002 77177 8802/
AAXX 08181 30554 419// 80000 11284 21302 39166 40383 53001 70272 80006
AAXX 08181 30635 418// 81202 11195 21207 39712 40330 57002 77172 8802/
AAXX 08181 30673 419// 81101 11315 21321 39514 40386 57004 77172 86015
AAXX 08181 30692 42999 03402 11395 21411 39816 40402 58///
AAXX 08181 30758 41920 30901 11288 21319 39452 40375 54000 70571 82031
AAXX 08181 30802 42799 32703 11138 21190 38738 48515 53002 83500
AAXX 08181 30823 41998 72602 11230 21256 39670 40370 57004 77171 8702/
AAXX 08181 30879 41996 80000 11275 21300 39531 40380 58002 77177 80007
AAXX 08181 30935 41999 82801 11270 21295 39366 40412 57002 70372 85075
AAXX 08181 30949 42999 30000 11256 21268 39174 40383 54000 80001
AAXX 08181 30965 419// 80000 11299 21317 39457 40390 56009 77171 8807/
AAXX 08181 31168 42999 83604 11291 21386 30240 40253 53003 80007
AAXX 08181 31300 41906 00000 11324 21336 30023 40354 52001 74640
AAXX 08181 31329 42999 50000 11360 21384 39577 40349 52009 80001
AAXX 08181 31369 42998 82704 11265 21277 30123 40216 52007 80007
AAXX 08181 31416 41999 03303 11273 21312 30167 40267 52017 70271
AAXX 08181 31484 42999 02902 11260 21306 39898 40272 52015
AAXX 08181 31512 429// 02802 11287 21326 30168 40357 52003
AAXX 08181 31538 42998 02101 11280 21305 39833 40319 52012
AAXX 08181 31707 42998 83207 11205 21263 30212 40312 52010 82071
AAXX 08181 31735 41997 42604 11212 21280 30149 40245 52014 70230 80001 333 91111
AAXX 08181 31770 42968 83402 11143 21214 30152 40184 52009 82021
AAXX 08184 41529 12995 00000 10067 20047 39822 40217 60003 333 59042 60007
AAXX 08184 41598 11996 00000 10070 20035 39913 40197 60003 70500 333 59037
AAXX 08184 41620 32995 01305 10030 21103 38613 48512 333 58005
AAXX 08184 41624 02995 00000 10075 20027 39999 40209 60003 333 59032 60007
AAXX 08184 41640 01995 20000 10095 20074 39943 40203 60003 70400 82030 333 56090 59022 60007 82362
AAXX 08184 41660 119// 00504 10000 21042 38454 48548 60003 70500 333 59004
AAXX 08184 41675 11994 00000 10070 20047 30065 40209 60003 71040 333 59021
AAXX 08184 41712 12996 00000 10050 21090 39248 48533 60003 333 58000
AAXX 08184 41715 01996 00000 10090 20032 40218 60003 70500 333 58002 60007
AAXX 08184 41756 01595 71306 10210 20173 30131 40196 60003 70504 85430 333 56990 58008 60007 85625 82358
AAXX 08184 41764 32996 03606 10120 20056 30175 40227 60003 333 58032 60007
AAXX 08184 41768 02996 00000 10100 20044 30196 40203 60003 333 58025 60007
AAXX 08184 41780 02996 00502 10130 20013 30187 40214 60003 333 58018 60007
AAXX 08184 88878 46/// /0210 10125 20099 40015 57028
AAXX 08184 88883 46/// /0303 10136 20092 40011 57036
AAXX 08184 88897 46/// /0710 10108 20091 40007 57019
AAXX 08181 40716 11656 80000 11002 21008 38900 40201 57021 60011 77177 8242X 333 55000 82640 88558
AAXX 08181 40719 11212 82402 10082 20073 30158 40147 57007 60001 71022 886// 333 55020 88705
AAXX 08181 40721 12960 01510 10090 21048 39634 40180 58009 60001 333 55087
AAXX 08181 40858 11658 40000 10190 20156 30170 40181 55000 69961 71096 84500 91746 333 55040 84640
AAXX 08181 40872 11958 20000 10198 20154 30177 40182 51005 60001 70521 82030 222// 00/// 20000 333 55068 82360
AAXX 08181 40877 12960 00000 10150 20016 39623 40171 52006 60001 333 55054
AAXX 08181 40898 11558 11102 10222 20184 30183 40192 51011 60001 70500 81600 222// 00232 10900 333 55065 2/// / 81720
AAXX 08183 87007 31568 40502 10184 20046 36740 47141 58019 71500 82262 333 56877 57825 82827
AAXX 08183 87047 32565 60907 10272 20161 38774 48494 57019 83202 333 56106 57891 83820 85070
AAXX 08183 87148 32570 30905 10388 20162 39958 40063 57027 83200 333 56000 57800 83830
BBXX 41029 08181 99328 70796 46/// /2203 1//// 91800 555 11032 22033
AAXX 08184 70133 32764 40603 11367 30000 40006 53003 91753 333 11350 21394 555 90818
AAXX 08184 70174 11666 80000 11350 39726 49994 51015 69901 771// 91753 333 11344 21417 4/076 555 90818
AAXX 08184 70200 12564 80807 11217 21289 30002 40006 55002 69901 91753 333 11211 21328 555 90818
AAXX 08184 70219 32966 43606 11333 21372 39982 40042 53003 91753 333 11306 21356 555 90818
AAXX 08184 70231 32966 00000 11378 39894 40034 53026 91753 333 11256 21383 4/097 555 90818
AAXX 08184 70261 11648 80000 11261 21294 39794 49979 53019 69981 771// 91753 333 11261 21300 96010 555 90818
AAXX 08184 70267 12766 82906 11267 21306 39475 4999 53027 69901 91753 333 11261 21300 555 90818
AAXX 08184 70271 11559 80000 11156 21178 39224 49827 53011 69901 771// 91753 333 11150 21194 4/020 96010 555 90818
AAXX 08184 70273 11512 80305 11100 21122 39784 49843 53031 60021 771// 91753 333 11072 21150 4/094 555 90818
AAXX 08184 70316 12666 23115 11056 21117 30053 40091 53029 60101 91753 333 11044 21111 555 90818
AAXX 08184 70326 32966 00000 11328 21356 30028 40042 53024 91754 333 11211 21328 555 90818
AAXX 08184 70340 31966 03017 11228 21294 39938 40005 51031 738// 91753 333 11194 21239 4/013 91031 555 90818
AAXX 08184 70350 12461 62811 11061 21144 39885 49924 51045 69931 91753 333 11017 21078 4/030 91014 555 90818
AAXX 08184 70361 12461 81808 10044 20022 39864 49875 53039 60051 91753 333 10050 20006 91016 555 90818
AAXX 08184 70381 11466 81120 10044 20028 39949 49958 53021 60011 761// 91753 333 10056 20022 91029 555 90818
AAXX 08184 70414 35966 00407 11067 21139 30055 40092 55004 91756 333 11039 21094 555 90818
AAXX 08181 40701 12660 80000 10002 21049 38561 40192 53003 60001 8252/ 333 55082 82640 88460
AAXX 08181 40704 12862 82404 10038 21031 38582 40158 50000 60001 8802X 333 55087 21093 88458
AAXX 08181 40708 11459 71808 10018 20008 38633 40157 52007 69901 72052 85320 333 55087 21139 81935 84710 87457
AAXX 08181 40710 11640 80302 11002 21003 38289 40200 58003 60011 77172 8342X 333 55065 82634 88557
AAXX 08181 40713 11658 80905 10010 20005 38638 40181 55004 60021 77186 8542X 333 55076 85635 88558
AAXX 08181 40719 11212 82402 10082 20073 30158 40147 57007 60001 71022 886// 333 55020 88705
AAXX 08181 40731 11660 80805 10048 21016 38731 40192 51003 69901 70262 8332/ 333 55082 21085 81935 82640 88459
AAXX 08181 40738 12960 00905 10044 20024 30146 40148 57031 60001 333 55079
AAXX 08181 40740 12960 00702 11088 21103 38737 40256 56004 60001 333 55081
AAXX 08181 40747 11660 70103 10046 20030 38599 40167 56010 60011 70162 85320 333 55029 20642 82935 83640 87457
AAXX 08181 40757 12962 23301 10012 21050 38915 40229 56007 60001 82050 333 55089 20726 82360
AAXX 08181 40763 12965 00000 10016 21031 38953 40254 54000 60001 333 55078
AAXX 08181 40782 11660 63002 10074 20039 38873 40190 58005 69901 84330 333 55022 81935 83640 86359
AAXX 08181 40783 11660 71703 10084 20004 37975 40153 58003 69901 72522 85370 333 55066 82935 83640 87459
AAXX 08181 40789 12965 00000 10036 21037 39224 40223 56007 60001 333 55090 21324
AAXX 08181 40798 12660 62703 10086 20007 37966 40169 56005 69901 83450 333 55060 21016 83635 86359
AAXX 08181 40818 12965 00000 10050 21012 37991 40186 53001 60001 333 55080
AAXX 08181 40827 12965 00000 10028 21086 38880 40284 50006 60001 333 55092
AAXX 08181 40836 11658 61202 10080 20056 38223 40204 50003 60011 71796 86900 333 55041 20837 81935 85640
AAXX 08181 40851 12660 10000 10074 20006 38294 40193 50006 60001 81400 333 55059 81640
AAXX 08181 40853 12960 03603 10062 21024 37784 40194 51009 60001 333 55073
AAXX 08181 40854 12960 00000 10080 21084 38989 40204 50003 60001 333 55085
AAXX 08181 40857 11658 60204 10186 20166 30172 40181 55004 69971 71096 86500 222// 00/// 327// 40401 333 55042 86635
AAXX 08181 40859 12960 00000 10080 20027 38750 40194 53008 60001 333 55052
AAXX 08181 40878 12965 00000 10080 21056 38883 40239 51005 60001 333 55092
AAXX 08181 40879 11956 13602 10138 21049 39524 40208 50006 60001 70500 81070 333 55086 81360
AAXX 08181 40883 11940 03602 10186 20129 30164 40187 52007 60001 70500 333 55079
AAXX 08181 40898 11558 11102 10222 20184 30183 40192 51011 60001 70500 81600 222// 00232 10900 333 55065 2//// 81720
AAXX 08184 03896 16/// ///// 10095 69902 333 10114
BBXX 46087 08181 99485 71247 46/// /1106 10078 20077 40254 54000 91750 22200 00083 11205 20602 327// 41205 70024 333 91208 555 11067 22070 31653 41009 61749 106063 103062 105064 104064 103065 101066
AAXX 08184 41529 12995 00000 10067 20047 39822 40217 60003 333 59042 60007
AAXX 08184 41598 11996 00000 10070 20035 39913 40197 60003 70500 333 59037
AAXX 08184 41620 32995 01305 10030 21103 38613 48512 333 58005
AAXX 08184 41624 02995 00000 10075 20027 39999 40209 60003 333 59032 60007
AAXX 08184 41640 01995 20000 10095 20074 39943 40203 60003 70400 82030 333 56090 59022 60007 82362
AAXX 08184 41660 119// 00504 10000 21042 38454 48548 60003 70500 333 59004
AAXX 08184 41675 11994 00000 10070 20047 30065 40209 60003 71040 333 59021
AAXX 08184 41712 12996 00000 10050 21090 39248 48533 60003 333 58000
AAXX 08184 41715 01996 00000 10090 20032 40218 60003 70500 333 58002 60007
AAXX 08184 41756 01595 71306 10210 20173 30131 40196 60003 70504 85430 333 56990 58008 60007 85625 82358
AAXX 08184 41764 32996 03606 10120 20056 30175 40227 60003 333 58032 60007
AAXX 08184 41768 02996 00000 10100 20044 30196 40203 60003 333 58025 60007
AAXX 08184 41780 02996 00502 10130 20013 30187 40214 60003 333 58018 60007
BBXX 41037 08181 99340 70775 46/// /0607 10161 40209 58007 91800 22200 00179 333 91208
AAXX 08184 78526 32666 41010 10289 20200 30143 40163 58027 91756 333 10294 20233 555 90818
AAXX 08184 78543 32966 01013 10250 20217 30082 40163 58025 91753 333 10261 20222 555 90818
AAXX 08181 40701 12660 80000 10002 21049 38561 40192 53003 60001 8252/ 333 55082 82640 88460
AAXX 08181 40704 12862 82404 10038 21031 38582 40158 50000 60001 8802X 333 55087 21093 88458
AAXX 08181 40708 11459 71808 10018 20008 38633 40157 52007 69901 72052 85320 333 55087 21139 81935 84710 87457
AAXX 08181 40710 11640 80302 11002 21003 38289 40200 58003 60011 77172 8342X 333 55065 82634 88557
AAXX 08181 40713 11658 80905 10010 20005 38638 40181 55004 60021 77186 8542X 333 55076 85635 88558
AAXX 08181 40719 11212 82402 10082 20073 30158 40147 57007 60001 71022 886// 333 55020 88705
AAXX 08181 40731 11660 80805 10048 21016 38731 40192 51003 69901 70262 8332/ 333 55082 21085 81935 82640 88459
AAXX 08181 40738 12960 00905 10044 20024 30146 40148 57031 60001 333 55079
AAXX 08181 40740 12960 00702 11088 21103 38737 40256 56004 60001 333 55081
AAXX 08181 40747 11660 70103 10046 20030 38599 40167 56010 60011 70162 85320 333 55029 20642 82935 83640 87457
AAXX 08181 40757 12962 23301 10012 21050 38915 40229 56007 60001 82050 333 55089 20726 82360
AAXX 08181 40763 12965 00000 10016 21031 38953 40254 54000 60001 333 55078
AAXX 08181 40782 11660 63002 10074 20039 38873 40190 58005 69901 84330 333 55022 81935 83640 86359
AAXX 08181 40783 11660 71703 10084 20004 37975 40153 58003 69901 72522 85370 333 55066 82935 83640 87459
AAXX 08181 40789 12965 00000 10036 21037 39224 40223 56007 60001 333 55090 21324
AAXX 08181 40798 12660 62703 10086 20007 37966 40169 56005 69901 83450 333 55060 21016 83635 86359
AAXX 08181 40818 12965 00000 10050 21012 37991 40186 53001 60001 333 55080
AAXX 08181 40827 12965 00000 10028 21086 38880 40284 50006 60001 333 55092
AAXX 08181 40836 11658 61202 10080 20056 38223 40204 50003 60011 71796 86900 333 55041 20837 81935 85640
AAXX 08181 40851 12660 10000 10074 20006 38294 40193 50006 60001 81400 333 55059 81640
AAXX 08181 40853 12960 03603 10062 21024 37784 40194 51009 60001 333 55073
AAXX 08181 40854 12960 00000 10080 21084 38989 40204 50003 60001 333 55085
AAXX 08181 40857 11658 60204 10186 20166 30172 40181 55004 69971 71096 86500 222// 00/// 327// 40401 333 55042 86635
AAXX 08181 40859 12960 00000 10080 20027 38750 40194 53008 60001 333 55052
AAXX 08181 40878 12965 00000 10080 21056 38883 40239 51005 60001 333 55092
AAXX 08181 40879 11956 13602 10138 21049 39524 40208 50006 60001 70500 81070 333 55086 81360
AAXX 08181 40883 11940 03602 10186 20129 30164 40187 52007 60001 70500 333 55079
AAXX 08181 40898 11558 11102 10222 20184 30183 40192 51011 60001 70500 81600 222// 00232 10900 333 55065 2//// 81720
AAXX 08181 22271 11996 82606 11012 21025 30006 40016 52020 69980 77173 8807/ 333 11005
AAXX 08181 22520 12598 72305 11044 21064 30107 40117 52028 69942 87500 333 11038 87629
AAXX 08181 22550 11471 82603 11030 21057 30120 40130 52036 69930 70283 886// 333 11021 88711
AAXX 08181 22583 11366 70000 11020 21038 30027 40108 58028 69930 78588 87900 333 10030 87909
AAXX 08181 22768 11597 72003 11020 21048 30121 40178 52029 69900 70282 87500 333 10003 87628
AAXX 08181 22845 12498 82303 11028 21055 30031 40192 52018 69920 889// 333 11015 88919
AAXX 08181 22887 11597 72202 11012 21048 30126 40197 52021 69900 70282 8655/ 333 10001 86628 91107
AAXX 08181 23205 NIL
AAXX 08181 23219 11996 82306 11039 21051 39982 40089 52005 69982 77173 8802/ 333 11018
AAXX 08181 23418 11450 81905 11021 21039 30047 40121 52004 60020 77172 8672/ 333 11029 86711
AAXX 08181 23606 11208 81606 11021 21027 39960 40134 58007 69950 78682 889// 333 11023 86703
AAXX 08181 23711 11498 81905 11033 21054 30016 40192 52003 69980 73683 885// 333 11037 88615
AAXX 08181 23804 11497 72303 11013 21033 30051 40202 52023 69920 70272 87500 333 11011 87616
AAXX 08181 27037 12998 81401 11081 21083 30042 40211 52011 69900 80007 333 11017
AAXX 08181 27199 11497 81703 11060 21071 30052 40257 52010 60030 77172 8651/ 333 11036
AAXX 08181 27271 32497 71403 11006 21015 30065 40223 52009 87500 333 10007
AAXX 08181 27459 12398 81403 11029 21036 30015 40215 51002 60020 886// 333 10004 88707
AAXX 08181 27730 11297 81303 11011 21027 39966 40163 54000 60020 77172 8872/ 333 20005 88506
AAXX 08181 20107 32997 20802 11116 21144 30058 40158 52002 82030 333 11109 91003
AAXX 08181 22003 NIL
AAXX 08181 22004 NIL
AAXX 08181 22100 NIL
AAXX 08181 22140 NIL
AAXX 08181 22113 12584 72303 11019 21037 30006 40070 52023 60012 83530 333 11010 91004 93513
AAXX 08181 22212 11560 71801 11036 21041 39918 40084 52030 60032 70282 85530 333 11035 85624 91002 93502
AAXX 08181 22213 NIL
AAXX 08181 22217 11479 70301 11064 21072 30061 40094 52028 69922 70282 85670 333 11046 85714 91002
AAXX 08181 22235 11449 72903 11057 21061 39872 40070 52029 69952 78582 87900 333 11056 86912 91004
AAXX 08181 22249 11584 50000 11097 21105 39868 40063 52026 60012 70281 85500 333 11021
AAXX 08181 22312 32580 82701 11056 21063 30078 40101 52032 83501 333 11033 91003
AAXX 08181 22334 11584 82806 11030 21040 30078 40085 52030 69902 73683 889// 333 11018 91009 91110 93704
AAXX 08181 22349 11598 72807 11021 21039 30065 40077 52031 69952 73683 83530 333 11008 91009 91110
AAXX 08181 22408 11459 82501 11050 21063 39979 40133 52028 69902 78582 883// 333 11044 88912
AAXX 08181 22602 11458 82202 11051 21058 39924 40156 52025 69922 77122 885// 333 11051 88610
AAXX 08181 22619 32382 82904 11063 21075 39992 40159 52026 886// 333 11058 88709
AAXX 08181 22721 11398 80000 11068 21073 30064 40169 52023 69902 70272 886// 333 11045 88709 93710
AAXX 08181 22802 32482 80000 11064 21076 30160 40184 52019 886// 333 11056 93710
AAXX 08181 22820 32381 82902 11062 21070 30040 40184 52023 885// 333 11031 88607
AAXX 08181 26059 11396 81101 11019 21028 30131 40156 51007 69932 77172 8872/ 333 11019 86707
AAXX 08181 26063 32497 71201 11037 21062 30165 40173 52011 87500 333 11018 87613
AAXX 08181 26094 32970 30000 11097 21105 30106 40186 52012 83030 333 11026
AAXX 08181 26157 11597 81002 11007 21011 30097 40148 52010 69922 72682 883// 333 11007 86922
AAXX 08181 26167 11359 81301 11008 21015 30045 40159 52011 69932 71072 886// 333 11005 88709
AAXX 08181 26258 12598 81202 11006 21021 30092 40148 52008 69902 885// 333 10003
AAXX 08181 26298 11496 81202 11019 21031 39943 40179 52010 69902 71022 886// 333 11009
AAXX 08181 26359 32475 81702 11018 21036 30013 40151 52009 886// 333 11003
AAXX 08181 26702 11496 82701 10036 20016 30067 40093 52012 69942 71085 885// 333 10053 91003 91104
AAXX 08181 26781 32597 73301 11028 21048 39840 40140 58004 875// 333 11028 87626
AAXX 08181 27208 11496 71102 11040 21047 30002 40184 52007 69902 71022 83610 333 11014
AAXX 08181 27402 32997 70601 11039 21047 39994 40180 52002 87030 333 11030
AAXX 08181 22028 11581 73207 10012 21017 30018 40056 52028 60032 70282 87900 333 10020 91010 91116
AAXX 08181 22106 11598 72603 11062 21077 30003 40084 52028 69982 70182 84930 333 11029 91007
AAXX 08181 22127 11496 72703 11029 21039 39867 40070 52028 69902 78582 86930 333 11029 84636 91006
AAXX 08181 22324 11576 82802 11043 21052 30041 40092 52029 69902 78582 84931 333 11031 91003 93609
AAXX 08181 22621 11482 82504 11056 21070 30010 40155 52031 69922 70282 889// 333 10045 86910
AAXX 08181 22831 12997 82402 11031 21044 30114 40176 52012 60012 8802/ 333 11010
AAXX 08181 22892 31296 80801 11080 21086 40173 52014 71022 886// 333 11071 88706
AAXX 08181 26275 12498 80903 11003 21024 30133 40164 52009 69912 886// 333 10006 88710
AAXX 08181 26389 11396 81002 11045 21054 39899 40172 52005 69902 71022 886// 333 11019
AAXX 08181 26499 32298 80403 11044 21051 39940 40177 54000 886// 333 11018 88705
AAXX 08181 26695 11295 80402 11024 21027 39832 40147 57002 60012 77372 8672/ 333 11023 86704
AAXX 08181 26882 11357 80503 11018 21026 39844 40124 57008 69922 77172 8872/ 333 11011 88710
AAXX 08181 26997 11423 80502 10002 21001 39879 40100 58009 60032 71072 886// 333 10005 88711
AAXX 08181 27595 12/97 81702 11117 21141 30131 40285 50003 69890 80031
AAXX 08181 27612 114// 80901 10000 21009 39964 40195 58008 60032 78687 883// 333 10001
AAXX 08181 27707 11425 80902 11003 21006 39825 40122 57004 60042 77177 8872/ 333 11002 85714
AAXX 08181 27719 11396 80802 11002 21008 39894 40148 54000 60082 77177 8872/ 333 10003
AAXX 08181 27786 32997 61702 11135 21155 30116 40289 58001 80001 333 11063
AAXX 08181 27857 32597 71504 11052 21073 30036 40205 52003 875// 333 11010
AAXX 08181 27906 11496 81002 10006 20001 39871 40115 58002 60082 71082 883// 333 10006
AAXX 08181 27928 11496 81503 10004 21005 39926 40135 53001 60020 76162 8757/ 333 10010
AAXX 08181 27947 31497 81205 11030 21057 30022 40185 53004 78522 883// 333 10002 86913
AAXX 08181 27962 11497 81407 11076 21102 40235 56004 69900 73873 885// 333 11043 88614 91012 91112 92982
AAXX 08181 27983 12570 21303 11135 21148 30161 40299 58001 69900 82500 333 11104
AAXX 08181 27995 32975 00902 11124 21144 40306 52001 333 11095
AAXX 08181 28506 32997 00000 11121 21140 30194 40315 52003 333 11075
AAXX 08181 28704 32998 81603 11120 21143 30210 40312 50002 80002 333 11104
AAXX 08181 28711 32997 51803 11120 21140 39940 40341 54001 80001 333 11085
AAXX 08181 28807 32997 20000 11130 21150 30267 40323 58002 80001 333 11094
AAXX 08181 34009 11495 81102 10010 20005 39798 40104 52002 60082 76172 8872/ 333 10010
AAXX 08181 34110 11497 81503 10014 20009 39838 40117 52007 60052 76162 8872/ 333 10014 88710
AAXX 08181 34123 11496 81204 10003 21008 39956 40143 54000 60020 71062 886// 333 10012 88710
AAXX 08181 34152 32484 81204 11061 21072 30002 40206 52003 886// 333 11020 88712
AAXX 08181 34163 32498 80704 11094 21101 40249 53001 885// 333 11080 88620
AAXX 08181 34171 11460 81105 11088 21103 30052 40256 58001 69950 72272 886// 333 11096 88713 93626
AAXX 08181 34186 32980 21405 11114 21134 30133 40281 58001 80001 333 11114
AAXX 08181 34247 12360 81404 11004 21019 30053 40169 54000 69910 885// 333 10008 85707
AAXX 08181 34336 12598 81203 10009 20006 30059 40164 52007 69900 885// 333 10010 88630
AAXX 08181 34391 32997 01104 11095 21111 30235 40268 54000 333 11079
AAXX 08181 35011 32984 51403 11125 21160 40349 58004 80001 333 11101
AAXX 08181 35121 32998 20901 11151 21179 30216 40376 57002 80001 333 11120
AAXX 08181 28676 329// 21602 11152 21179 30268 40406 52002 80001 333 11123
AAXX 08181 28766 329// 02003 11135 21170 30201 40405 52003 333 11118
AAXX 08181 28867 32998 02301 11150 21177 30132 40426 52001 333 11136
AAXX 08181 28879 329// 22403 11128 21146 30115 40424 58002 80001 333 11070
AAXX 08181 28952 329// 00000 11160 21187 30217 40424 54000 333 11126
AAXX 08181 28966 329// 02201 11200 21213 30127 40441 58004 333 11147
AAXX 08181 29802 315// 82102 11074 21087 30261 40412 52006 71022 885// 333 11058
AAXX 08181 29807 125// 82201 11105 21122 30300 40426 52004 69900 885// 333 11076
AAXX 08181 34691 32998 20907 11052 21081 30248 40235 53005 80002 333 11013
AAXX 08181 35067 329// 00000 11226 21243 30139 40447 58005 333 11121
AAXX 08181 35078 329// 03604 11223 21243 30030 40452 57003 333 11150
AAXX 08181 35085 329// 00000 11196 21214 39922 40445 52002 333 11111
AAXX 08181 35108 329// 01204 11110 21142 30275 40324 58003 333 11074
AAXX 08181 35188 119// 21301 11201 21229 39971 40450 58002 69900 70400 80001 333 11119
AAXX 08181 35217 329// 71104 11126 21153 30283 40325 57003 80005 333 11090
AAXX 08181 35229 329// 00000 11146 21167 30095 40390 57009 333 11090
AAXX 08181 35302 329// 01706 11113 21141 30284 40304 57005 333 11088
AAXX 08181 35357 319// 50000 11213 21238 39960 40441 58003 71001 82051 333 11150
AAXX 08181 35394 32998 00201 11176 21192 39708 40445 54000 333 11098
AAXX 08181 35406 329// 01306 11118 21146 30298 40300 58005 333 11066
AAXX 08181 35416 31997 21105 11124 21159 30218 40346 58004 70230 80001 333 11087
AAXX 08181 35426 329// 20903 11163 21189 30068 40386 58005 80001 333 11106
AAXX 08181 35497 329// 00201 11171 21190 39574 40439 52002 333 11062
AAXX 08181 35532 31993 01112 11148 21182 39846 40374 58019 73933 333 11138 91016
AAXX 08181 35671 32998 03302 11197 21224 39955 40427 58002 333 11134
AAXX 08181 35700 32998 01209 11086 21124 30292 40267 58012 333 11033 91115
AAXX 08181 35746 329// 00407 11143 21170 30295 40368 57006 333 11124
AAXX 08181 35796 32997 00505 11137 21170 39941 40407 58001 333 11085
AAXX 08181 35849 32998 00704 11144 21171 30258 40351 58008 333 11101
AAXX 08181 35925 NIL
AAXX 08181 35953 329// 00603 11150 21170 30217 40357 57004 333 11096
AAXX 08181 35969 329// 00902 11142 21169 30188 40376 53004 333 11107
AAXX 08181 36003 12998 80000 11093 21105 30267 40427 52001 69900 8807/ 333 11062
AAXX 08181 36152 115// 80000 11068 21097 30229 40426 52002 69940 70272 885// 333 11043
AAXX 08181 36177 119// 80000 11091 21102 30173 40432 52003 69920 77177 8807/ 333 11068
AAXX 08181 36208 329// 00402 11199 21226 39383 40453 52001 333 11101
AAXX 08181 36397 119// 80000 11108 21123 39831 40425 53005 69900 77172 8802/ 333 11098
AAXX 08181 36428 329// 01102 11274 21298 39912 40477 53002 333 11179 95090
AAXX 08181 36535 329// 00000 11272 21306 39770 40483 54000 333 11128
AAXX 08181 36639 329// 00000 11226 21254 39746 40414 52001 333 11068
AAXX 08181 36821 318// 70000 11174 21190 39872 40404 52001 71011 86032 333 11112
AAXX 08181 36859 119// 80701 11110 21114 39565 40393 52003 69920 77072 8802/ 333 11104
AAXX 08181 36864 125// 80000 11090 21101 39424 40372 58004 69900 886// 333 11948
AAXX 08181 36870 113// 80301 11085 21096 39294 40355 58004 69900 77772 886// 333 11073
AAXX 08181 38001 NIL
AAXX 08181 38062 329// 00702 11122 21157 30167 40341 58005 333 11068
AAXX 08181 38069 329// 00701 11094 21124 30126 40329 58002 333 10004
AAXX 08181 38196 32998 00203 11021 21133 39306 40311 56008 333 10017
AAXX 08181 38198 319// 00000 11112 21118 30054 40330 58004 71000 333 11055
AAXX 08181 38222 31995 20000 11156 21175 39781 40387 52002 71000 82030 333 11072
AAXX 08181 38232 NIL
AAXX 08181 38328 329// 01201 11075 21105 39554 40319 58006 333 11004
AAXX 08181 38334 32997 01105 11102 21130 39317 40261 58002 333 11029
AAXX 08181 38341 11596 80000 11066 21090 39526 40349 58005 69900 71022 886// 333 11057
AAXX 08181 38343 32697 81401 11074 21091 39470 40354 58001 885// 333 11058
AAXX 08181 38439 31996 03604 11112 21125 39957 40319 58010 71000 333 11052
AAXX 08184 91245 32566 20000 10240 20220 30140 91750 555 90818
AAXX 08181 38598 429// 00708 10001 21019 40314 54000
AAXX 08181 38599 NIL
AAXX 08181 38725 NIL
AAXX 08181 38734 426// 41402 11141 21212 47050 51001 82503
AAXX 08181 38744 429// 00000 11183 21216 38064 48600 50000
AAXX 08181 38836 326// 40000 11038 21064 39319 40301 58003 83901 333 10070
AAXX 08181 38838 NIL
AAXX 08181 38844 429// 31802 11084 21112 48510 51003 80002
AAXX 08181 38846 NIL
AAXX 08181 38847 429// 60000 11013 21074 40316 58004 82033
AAXX 08181 38932 NIL
AAXX 08181 38933 329// 60000 11030 21054 39764 40305 58004 80002 333 10032
AAXX 08181 38944 329// 43602 11037 21052 39651 40211 52006 82031 333 10023
AAXX 08181 38954 NIL
BBXX KIRH 08183 99222 70703 41998 70713 10239 20198 40182 57028 7//// 86873 22234 00217 20704 309// 41003 5//// 6//// 80211 ICE /////
BBXX V7MO2 08184 99262 70914 41797 81412 10230 20133 40209 52003 7//// 8824/ 22200 00230 20402 316// 40701 5//// 6//// 80170 ICE /////
BBXX WBN3013 08184 99195 70673 41/// /1216 10294 2//// 40024 54000 7//// 8//// 22232 0//// 20403 30912 40604 50401 6//// 8//// ICE /////
BBXX C6XC6 08184 99153 71277 41897 80606 10240 2//// 40170 52010 70222 886// 22254 00260 2//// 3//// 4//// 5//// 6//// 8//// ICE /////
BBXX WDD9433 08184 99310 71603 41398 40916 10180 20148 40179 51014 70111 848// 22264 00200 20204 332// 41111 5//// 6//// 80160 ICE /////
BBXX WXJ63 08183 99611 71464 41/94 82604 11026 21031 49780 52/// 773// 8//// 222// 00044 2//// 3//// 4//// 5//// 6//// 8//// ICE /////
BBXX KCDK 08183 99283 70796 41398 30806 10239 2024/ 40230 56010 7//00 831// 22284 0//// 20402 308// 40402 5//// 6//// 80239 ICE /////
BBXX VRDI7 08184 99323 30162 41498 61319 10210 20195 40110 54100 7//22 86478 22273 0//// 21004 323// 41005 5//// 6//// 80200 ICE /////
AAXX 08181 28676 329// 21602 11152 21179 30268 40406 52002 80001 333 11123
AAXX 08181 28766 329// 02003 11135 21170 30201 40405 52003 333 11118
AAXX 08181 28867 32998 02301 11150 21177 30132 40426 52001 333 11136
AAXX 08181 28879 329// 22403 11128 21146 30115 40424 58002 80001 333 11070
AAXX 08181 28952 329// 00000 11160 21187 30217 40424 54000 333 11126
AAXX 08181 28966 329// 02201 11200 21213 30127 40441 58004 333 11147
AAXX 08181 29802 315// 82102 11074 21087 30261 40412 52006 71022 885// 333 11058
AAXX 08181 29807 125// 82201 11105 21122 30300 40426 52004 69900 885// 333 11076
AAXX 08181 34691 32998 20907 11052 21081 30248 40235 53005 80002 333 11013
AAXX 08181 35067 329// 00000 11226 21243 30139 40447 58005 333 11121
AAXX 08181 35078 329// 03604 11223 21243 30030 40452 57003 333 11150
AAXX 08181 35085 329// 00000 11196 21214 39922 40445 52002 333 11111
AAXX 08181 35108 329// 01204 11110 21142 30275 40324 58003 333 11074
AAXX 08181 35188 119// 21301 11201 21229 39971 40450 58002 69900 70400 80001 333 11119
AAXX 08181 35217 329// 71104 11126 21153 30283 40325 57003 80005 333 11090
AAXX 08181 35229 329// 00000 11146 21167 30095 40390 57009 333 11090
AAXX 08181 35302 329// 01706 11113 21141 30284 40304 57005 333 11088
AAXX 08181 35357 319// 50000 11213 21238 39960 40441 58003 71001 82051 333 11150
AAXX 08181 35394 32998 00201 11176 21192 39708 40445 54000 333 11098
AAXX 08181 35406 329// 01306 11118 21146 30298 40300 58005 333 11066
AAXX 08181 35416 31997 21105 11124 21159 30218 40346 58004 70230 80001 333 11087
AAXX 08181 35426 329// 20903 11163 21189 30068 40386 58005 80001 333 11106
AAXX 08181 35497 329// 00201 11171 21190 39574 40439 52002 333 11062
AAXX 08181 35532 31993 01112 11148 21182 39846 40374 58019 73933 333 11138 91016
AAXX 08181 35671 32998 03302 11197 21224 39955 40427 58002 333 11134
AAXX 08181 35700 32998 01209 11086 21124 30292 40267 58012 333 11033 91115
AAXX 08181 35746 329// 00407 11143 21170 30295 40368 57006 333 11124
AAXX 08181 35796 32997 00505 11137 21170 39941 40407 58001 333 11085
AAXX 08181 35849 32998 00704 11144 21171 30258 40351 58008 333 11101
AAXX 08181 35925 NIL
AAXX 08181 35953 329// 00603 11150 21170 30217 40357 57004 333 11096
AAXX 08181 35969 329// 00902 11142 21169 30188 40376 53004 333 11107
AAXX 08181 36003 12998 80000 11093 21105 30267 40427 52001 69900 8807/ 333 11062
AAXX 08181 36152 115// 80000 11068 21097 30229 40426 52002 69940 70272 885// 333 11043
AAXX 08181 36177 119// 80000 11091 21102 30173 40432 52003 69920 77177 8807/ 333 11068
AAXX 08181 36208 329// 00402 11199 21226 39383 40453 52001 333 11101
AAXX 08181 36397 119// 80000 11108 21123 39831 40425 53005 69900 77172 8802/ 333 11098
AAXX 08181 36428 329// 01102 11274 21298 39912 40477 53002 333 11179 95090
AAXX 08181 36535 329// 00000 11272 21306 39770 40483 54000 333 11128
AAXX 08181 36639 329// 00000 11226 21254 39746 40414 52001 333 11068
AAXX 08181 36821 318// 70000 11174 21190 39872 40404 52001 71011 86032 333 11112
AAXX 08181 36859 119// 80701 11110 21114 39565 40393 52003 69920 77072 8802/ 333 11104
AAXX 08181 36864 125// 80000 11090 21101 39424 40372 58004 69900 886// 333 11948
AAXX 08181 36870 113// 80301 11085 21096 39294 40355 58004 69900 77772 886// 333 11073
AAXX 08181 38001 NIL
AAXX 08181 38062 329// 00702 11122 21157 30167 40341 58005 333 11068
AAXX 08181 38069 329// 00701 11094 21124 30126 40329 58002 333 10004
AAXX 08181 38196 32998 00203 11021 21133 39306 40311 56008 333 10017
AAXX 08181 38198 319// 00000 11112 21118 30054 40330 58004 71000 333 11055
AAXX 08181 38222 31995 20000 11156 21175 39781 40387 52002 71000 82030 333 11072
AAXX 08181 38232 NIL
AAXX 08181 38328 329// 01201 11075 21105 39554 40319 58006 333 11004
AAXX 08181 38334 32997 01105 11102 21130 39317 40261 58002 333 11029
AAXX 08181 38341 11596 80000 11066 21090 39526 40349 58005 69900 71022 886// 333 11057
AAXX 08181 38343 32697 81401 11074 21091 39470 40354 58001 885// 333 11058
AAXX 08181 38439 31996 03604 11112 21125 39957 40319 58010 71000 333 11052
AAXX 08184 91165 12666 22907 10183 20156 30159 40192 53011 69931 91753 333 10228 20178 555 90818
AAXX 08184 91182 32566 23404 10183 20167 30184 40190 53009 91753 333 10222 20161 555 90818
AAXX 08184 91190 32566 21405 10156 20122 30175 40195 53010 91754 333 10211 20128 555 90818
AAXX 08184 91212 12566 60610 10261 20233 31387 40119 56014 69901 91754 333 10278 20239 555 90818
AAXX 08184 91285 32566 22406 10189 20117 30178 40191 53013 91753 333 10222 20178 555 90818
AAXX 08184 91348 11474 80506 10264 20243 30042 40095 55002 60031 78082 8627/ 333 56199 70033 555 90818
BBXX 9V9243 08183 99291 11229 41/97 /0420 10115 40285 53010 70222 8//// 22283 00164 2////
BBXX SLCO 08184 99176 11378 43/98 50826 10261 40164 50003 22274 00267 2//// 4////
BBXX MGPU2 08184 99445 11555 41598 50113 10005 21044 40150 58011 70222 84444 22223 00028 20612 3//// 4//// 5//// 81011
BBXX V2AJ8 08183 99198 11138 41497 80120 10190 20165 40197 57020 70222 84576 22244 20404 3//// 4//// 5//// 80175
BBXX VRCI9 08184 99500 11579 41398 52908 11020 21036 40090 52010 70221 8327/ 22254 00008 2//// 3//// 4//// 81025
BBXX MTFH5 08183 99075 10952 41497 10712 10288 20233 40124 54000 70100 81100 22234 20603 399// 4//// 5//// 80248
BBXX A8KH9 08184 99090 11092 41/96 80140 10250 20207 40100 54000 71222 8/7// 22213 20814 302// 41412 5//// 80220
BBXX A8CN9 08180 99396 11461 41/97 53103 10030 21021 40210 55/// 70311 83440 22253 20604 30505 40604 50603 80010
BBXX KAOU 08184 99078 10984 43/// /1003 10270 20216 40119 5//// 7//// 8//// 222// 04300 2//// 3//// 4//// 5//// 6//// 8//// ICE /////
BBXX DGWD2 08183 99201 11136 41/97 /0222 10195 20138 40210 52010 702// 8//// 22284 00220 2//// 80160
BBXX DIHC 08183 99408 11395 41498 72818 10000 21027 40235 57010 70322 871/7 22214 00080 2//// 81010
BBXX DDJS2 08183 99504 11777 41598 50614 11005 40066 57011 70211 84870 22263 00040 20401 323// 40805 5////
BBXX DDGK2 08184 99058 10814 41398 60414 10265 20247 40150 50010 72588 8526/ 22263 00275 20601 80252
BBXX 9VBM6 08183 99220 70189 41898 30212 10210 20164 40180 52010 7//22 82619 22243 00220 20303 3//// 40303 50302 6//// 80180 /////
BBXX PCAW 08183 99106 70249 41997 10407 10275 20195 40120 55020 70522 80009 22253 00213 21001 322// 41001 80220 91304
BBXX A8RV9 08184 99363 30379 41597 41009 10213 20145 40161 53/// 70222 83763 22224 20502 320// 41608 5//// 80170
BBXX A8AD7 08183 99190 70177 41795 43612 10240 20155 40140 50000 70000 83145 22283 02210 2//// 30000 80185
BBXX OXHY2 08183 99121 10606 41/98 /0108 10240 20216 40174 51010 7//00 8//// 22224 20102 3//// 4//// 5//// 80223
BBXX V7OX3 08181 99341 30257 41/97 /1310 10230 20199 40100 54000 702// 8//// 22223 04250 21003 3//// 4//// 5//// 80210
BBXX VQIB9 08183 99091 50287 41598 51121 10267 20198 40119 57012 70222 85100 22274 00277 20502 309// 40804 5//// 80222
BBXX DILS 08184 99266 30449 41/97 /2129 10241 20226 40151 50/// 7//11 8//// 22214 04231 20104 80231
BBXX UBAU 08181 99138 70174 41598 50607 10260 40153 54000 70211 8555/ 22211 04248 20301
BBXX MIBR 08184 99264 30089 41498 51619 10200 20176 40171 52020 70222 85200 22274 00200 20302 318// 40606 5//// 80185
BBXX PJHA 08184 99073 70139 41696 12708 10291 20288 40093 54000 7//// 814// 22273 06283 20200 32020 40801 51002 80289
BBXX PDZS 08183 99587 50623 41397 83615 10028 20009 49974 58035 75811 886// 22262 02022 20402 327// 40707 5//// 80020
BBXX C6YM6 08184 99038 70481 41/98 83604 10260 2022/ 40110 56020 70022 88/// 22274 00280 2//// 3//// 4//// 5//// 6//// 80230 ICE /////
BBXX PHAA 08183 99240 50390 41598 61207 10285 20244 40190 57008 70211 8247/ 22253 2//// 80255 91304
BBXX C6XC6 08184 99153 71277 41897 80606 10240 2//// 40170 52010 70222 886// 22254 00260 2//// 3//// 4//// 5//// 6//// 8//// ICE /////
BBXX DFCX2 08183 99164 71002 41898 23507 10285 20230 40162 50/// 7//22 82142 22234 06295 20301 80245
BBXX WYP8657 08184 99454 70865 41/98 43015 10005 2//// 40230 54/// 70121 83135 22253 0//// 20302 3//// 4//// 5//// 6//// 8//// ICE /////
BBXX WQZ9670 08184 99466 70853 43/98 /2417 11011 2//// 40200 5//// 7//// 8//// 22223 0//// 2//02 3//// 4//// 5//// 6//// 8//// ICE /////
BBXX DFFA2 08183 99095 70799 41698 30415 10300 20224 40135 58035 70011 821/6 22200 00270 20402 3//// 4//// 5//// 80245
BBXX NWS0020 08184 99196 70828 43/// /0621 10255 20199 40180 5//// 7//// 8//// 222// 04269 2//// 3//// 4//// 5//// 6//// 8//// ICE /////
BBXX NWS0003 08184 99619 71677 43/// /2501 11226 21256 40026 5//// 7//// 8//// 222// 0//// 2//// 3//// 4//// 5//// 6//// 8//// ICE /////
BBXX NWS0029 08184 99415 70707 43/// /3008 10052 21029 40196 5//// 7//// 8//// 222// 04058 2//// 3//// 4//// 5//// 6//// 8//// ICE /////
BBXX C6KD4 08183 99311 70428 41598 50120 10184 20161 40177 57032 76062 84445 22214 02212 20805 399// 41206 80170
BBXX PJFF 08184 99344 70391 41197 70000 10195 20195 40195 53005 70222 84451 22200 20000 320// 41003 80195
BBXX A8OF6 08183 99182 70756 41598 30520 10290 20212 40160 56016 70200 831// 22214 04270 20402 80235
BBXX SKUN 08183 99447 70584 43/98 92117 10064 40125 56014 22263 00034 2//// 4////
BBXX DGXS 08184 99486 71269 41/96 81050 10095 20086 40200 57041 70222 8//// 22265 00090 20605 325// 41007 5//// 80090
BBXX A8KC6 08184 99239 71406 41697 40911 10200 20149 40215 52015 70322 84778 22214 04240 2//// 3//// 4//// 5//// 80170 46379 1738080124
BBXX DGDD 08181 99197 71059 41698 50204 10245 20202 40170 51015 70211 854// 22274 04260 20401 330// 40303 5//// 80215
BBXX 44060 08181 99413 70721 46/// ///06 10052 40208 58009 91800 22200 00085 333 91207 555 11062 22067
BBXX 44022 08181 99409 70737 46/// ///07 10058 21037 40220 57006 91800 22200 00060 333 91210 555 11082 22088
BBXX 46042 08181 99368 71224 46/// /0805 10118 40229 53010 91750 22200 00113 11004 20301 331// 41004 70019 333 91206 555 11052 22057 31712 41008 61749 078047 073048 074054 085060 084056 085059
BBXX 46053 08181 99342 71198 46/// /1801 10145 40222 51023 91750 22200 00141 11203 20401 329// 41203 70013 333 91202 555 11012 22015 31748 42102 61749 185009 214005 287009 287005 287008 299006
BBXX 41041 08181 99142 70460 46/// /0506 10257 20197 40139 57020 91750 22200 00261 10804 20502 3//// 40803 70019 333 91208 555 11067 22071 31710 40508 61749 049063 048062 053062 052065 055066 053062 80607 91710
BBXX 46001 08181 99563 71480 46/// /2715 11022 49918 53040 91750 22200 00038 11212 20909 300// 41209 70061 333 91219 555 11160 22169 31738 42621 61749 270151 266160 263160 269152 269161 266154
BBXX AVMI 08183 99360 31504 41295 31640 10220 20/// 40200 50601 70100 83/// 22253 00220
BBXX SHIP 08183 99245 51226 41597 70415 10265 20261 40215 50004 7//11 8646/ 22214 00250 2//// 80262
BBXX 9KWP 08183 99250 31082 41597 61435 10220 20172 40130 54000 70222 83132 22233 2//// 80190
BBXX B2M1303 08183 99280 31131 41596 41530 10225 20188 40113 52020 7//// 845// 22243 00210 20609 80200
BBXX VNSZ 08184 99405 31460 46/// /2839 10148 20125 39980 40006 57040 22236 04175 85135
BBXX 3ECI3 08184 99357 31571 41597 63524 10210 20178 40069 57030 70311 86436 22263 00210 20403 308// 41103 80190
BBXX V2OG2 08183 99108 31032 41496 73015 10275 20248 40093 57005 76162 87700 22223 20401 332// 40504 80255
BBXX A8HJ8 08183 99012 11034 41/96 /3615 10253 20221 40125 54000 70222 8//// 22200 20101 30000 80230
BBXX PFBF 08183 99125 31637 41397 22701 10280 20273 40060 50002 70000 8118/ 22263 02300 20000 335// 40102 5//// 80275
BBXX PHKL 08180 99023 11017 41/98 ///// 10294 20235 40110 58006 70222 8//// 22233 00292 2//// 3//// 4//// 5//// 80251
BBXX MGRH9 08184 99266 31532 41/98 /3422 10240 20210 40075 57025 7//// 8//// 22200 00245 2//// 3//// 4//// 5//// 80220
BBXX SHIP 08184 99651 31079 41697 71113 11018 21054 49811 52014 70272 8753/ 01003 10702 20402 306// 40701 61003 86030 ICE //840
BBXX 4XFB 08184 99390 70227 04349 41010 10150 20120 40275 51010 840// 22264 00180 20801 327// 40804 5//// 80130
BBXX EIPT 08184 99518 70074 41597 82411 10110 20105 40297 58/// 70222 86776 22222 2//// 3//// 40403 5//// 80107
BBXX 62023 08183 99514 70079 46/97 /2415 10107 2//// 40309 5//// 22200 10603 70015 555 70024 80013
BBXX C6OR4 08183 99333 10249 41597 52820 10140 20084 40143 54000 70111 85320 22223 06178 21006 3//// 4//// 5//// 80112
BBXX LMEL 08181 99603 10053 43/// /1300 10000 20000 40168 5//// 222/0 04080 1//// 3//// 4//// 5////
BBXX LDGJ 08181 99603 10053 43/// /1600 10006 21009 40172 5//// 222/0 04078 1//// 3//// 4//// 5////
BBXX LAHV 08181 99696 10190 43/// /2206 11005 21020 40132 222// 04049 1////
BBXX LF4H 08184 99596 10022 46/// /1511 10066 20020 40159 57010 8//// 22200 06082 10804 70021 333 91113
BBXX C6KD6 08183 99468 70106 41498 71410 10115 20089 40323 58014 70322 87778 22254 02127 21207 32727 41506 51205 80102
BBXX PDHP 08183 99457 70082 41598 79904 10136 20100 40328 55000 7//// 877// 22254 00133 2//// 328// 41006 80116
BBXX DCHO 08184 99306 70130 41498 39902 10181 20144 40222 52005 70200 82230 22214 04180 299// 301// 41602 80158
BBXX TFSRT 08184 99633 70203 46/// ///// 22200 10707 70036
BBXX TFBKF 08184 99635 70202 46/// ///// 22200 10705 70025
BBXX TFHFN 08184 99642 70152 46/// ///// 22200 10706 70030
BBXX TFDRN 08184 99658 70212 46/// ///// 22200 10502 70011
BBXX TFGSK 08184 99641 70229 46/// ///// 22200 10606 70029
BBXX TFKGR 08184 99657 70136 46/// ///// 22200 10707 70036
BBXX TFSTD 08184 99664 70234 46/// ///// 22200 10705 70027
BBXX TFGRV 08184 99638 70225 46/// ///// 22200 10707 70036
BBXX TFGRS 08184 99663 70182 46/// ///// 22200 10703 70017
BBXX TBWUK35 08184 99706 10234 41398 73118 10024 21001 40088 52030 77071 86870 22200 00070 20401 30000 80015
BBXX PDHW 08183 99518 10029 41/99 73110 10092 20047 40260 52010 70222 859/2 22223 00080 2//// 80070
BBXX PHIN 08184 99498 70324 41/98 42312 10083 20044 40248 53008 76065 8352/ 22223 00110 20402 329// 40905 80064
BBXX PCBT 08183 99397 70244 41498 60807 10149 20122 40289 55001 71511 864// 22254 20101 399// 4//03 80133
BBXX PBEN 08183 99360 70105 41298 70916 10180 20172 40240 52010 7//22 84720 22263 04189 20803 309// 41003 80175
BBXX OXOR2 08184 99364 10143 41598 43128 10151 20090 40162 53001 70211 84200 22264 00162 20606 80117
BBXX UITJ 08181 99705 10175 41598 50503 10025 40119 52009 70122 85050 22213 00080 20201 30300 40702
BBXX UFTA 08181 99844 71202 31997 21403 11337 21370 40009 57005 70230 80001
BBXX SCKM 08183 99465 70378 43/98 62120 10090 40249 58017 22264 00130 20404 40405
BBXX SKWI 08184 99417 70485 43/97 82218 10127 40203 54000 22224 00110 2//// 4////
BBXX SBLW 08183 99545 71677 43/98 71815 11019 40091 50002 22263 00039 2//// 4////
BBXX SERW 08183 99148 70396 43598 40809 10262 2//// 40135 56017 70311 841// 22262 06254 20402 307// 40902
BBXX WCX8882 08184 99376 71277 43799 10112 10130 2009/ 40275 54000 7//// 80001 22235 00130 20204 304// 40508 5//// 6//// 80110 ICE /////
BBXX KCDK 08183 99283 70796 41398 30806 10239 2024/ 40230 56010 7//00 831// 22284 0//// 20402 308// 40402 5//// 6//// 80239 ICE /////
BBXX KGTX 08184 99531 71342 41598 82213 10070 2005/ 40078 57020 70222 886// 22274 00069 20604 324// 41411 5//// 6//// 80060 ICE /////
BBXX 46112 08181 99481 71227 46/// /1406 10080 40261 53003 91800
BBXX 46111 08181 99481 71227 46/// /1608 10082 40258 53008 91800 22200 00049
BBXX 44067 08181 99384 70770 46/// /0302 10090 40238 58016 91800
BBXX 42085 08181 99179 70665 46/// /1107 10267 40157 91750 333 91208
BBXX 42085 08181 99179 70665 46/// /1007 10268 40154 58022 91800 22200 00271 10702 70011 333 91208
BBXX 41053 08181 99185 70661 46/// /0807 10269 40153 58027 91800 22200 00272 10903 70014 333 91209
BBXX 41053 08181 99185 70661 46/// /0807 10269 40156 91740 333 91210
BBXX 41053 08181 99185 70661 46/// /0807 10269 40155 91750 333 91210
BBXX 44150 08181 99425 70640 46/// /3606 10059 40164 52004 22200 00095 11004 70020 333 91207
BBXX FLAO 0818/ 99764 70847 46/// ///// 11333 49983 57002
BBXX 44139 08181 99442 70571 46/// /2907 10053 40140 52015 22200 00050 10805 70026 333 91209
BBXX C6KD7 08183 99219 70589 41498 60716 10255 20210 40189 57/// 70211 84261 22255 02257 20704 307// 41003 5//// 80225
BBXX A8JR4 08183 99262 70752 41598 10905 10230 20152 40230 50010 70211 81100 22254 04261 20000 30000 80180
BBXX A8QM9 08184 99261 70784 41998 00406 10250 20191 40230 54000 70222 80000 22200 2//// 30000 80210
BBXX WDD9433 08184 99310 71603 41398 40916 10180 20148 40179 51014 70111 848// 22264 00200 20204 332// 41111 5//// 6//// 80160 ICE /////
BBXX V2NA1 08184 99342 70654 41698 22521 10215 20143 40205 55015 70200 82145 22264 04200 20904 80170
BBXX A8VL7 08184 99250 70632 41598 31608 10250 20175 40195 58010 70211 81544 22274 04240 20803 309// 40803 80200
BBXX PDHY 08183 99453 70547 41297 82715 10070 40109 53004 71022 887// 22223 04030 20306 328// 40704 5////
BBXX DCSL2 08184 99357 71341 41298 81915 10150 20150 40260 52030 70222 887// 22224 00155 20202 30000 80150
BBXX OZBY2 08184 99344 71426 41/// 82020 10170 2015/ 40210 56040 7//22 8//// 22265 00160 20506 311// 41407 5//// 6//// 80160 ICE /////
BBXX KIRH 08183 99222 70703 41998 70713 10239 20198 40182 57028 7//// 86873 22234 00217 20704 309// 41003 5//// 6//// 80211 ICE /////
BBXX V7MO2 08184 99262 70914 41797 81412 10230 20133 40209 52003 7//// 8824/ 22200 00230 20402 316// 40701 5//// 6//// 80170 ICE /////
BBXX WDC6644 08184 99527 71389 41398 42130 10050 2002/ 40040 52070 72588 8443/ 22232 00078 20302 323// 41213 5//// 6//// 80035 ICE /////
BBXX DHDM 08184 99553 71449 41397 82729 10005 21008 49950 52040 7//// 886// 22224 04030 20409 318// 40512 5//// 80000
BBXX J8AZ2 08183 99242 70743 41598 50613 10000 2000/ 40225 51005 7//11 84181 22263 0//// 20202 30605 40303 50404 6//// 80000 ICE /////
BBXX WBN3013 08184 99195 70673 41/// /1216 10294 2//// 40024 54000 7//// 8//// 22232 0//// 20403 30912 40604 50401 6//// 8//// ICE /////
BBXX DDJG2 08183 99394 70502 41698 62125 10190 20182 40230 53015 70222 85462 22224 04200 20606 321// 40806 80185
AAXX 08181 45032 36/// /9901 10103 20095 30224 40240 57001
AAXX 08181 45035 36/// /3305 10133 20101 30200 40244 54000
AAXX 08181 45039 36/// /0501 10132 20099 30223 40238 57001
AAXX 08181 45044 36/// /0005 10133 20104 30139 40235 57001
AAXX 08181 45032 36/// /9901 10103 20095 30224 40240 57001
AAXX 08181 45035 36/// /3305 10133 20101 30200 40244 54000
AAXX 08181 45039 36/// /0501 10132 20099 30223 40238 57001
AAXX 08181 45044 36/// /0005 10133 20104 30139 40235 57001
AAXX 08181 08521 32470 69901 10177 20091 30153 40224 53006 85831 333 10196 84818
AAXX 08181 08524 32470 40901 10164 20110 30125 40223 52006 83831 333 10188 82815
AAXX 08184 61017 32960 30404 10190 21016 39760 40176 80001 333 10238 58015 83080
AAXX 08184 61024 32960 11217 10205 21067 39586 40163 80002 333 10260 58009 81080
AAXX 08184 61036 32960 70804 10280 20031 39880 40120 80008 333 10315 59011 87280
AAXX 08184 61043 32960 30806 10260 21080 39684 40130 80002 333 10302 59002 83080
AAXX 08184 61045 32965 20000 10210 21055 39643 40153 80002 333 10274 58000 82080
AAXX 08184 61049 32960 70000 10198 21024 39815 40144 80008 333 10275 58004 87280
AAXX 08184 61052 32960 20804 10274 21038 39872 40132 80002 333 10314 59002 82080
AAXX 08184 61075 32960 50000 10257 20006 39816 40130 80002 333 10317 58000 85080
AAXX 08184 61080 32960 50804 10236 20000 39715 40142 80002 333 10290 58002 85080
AAXX 08184 61090 32962 60402 10233 21070 39628 40146 80006 333 10277 58010 86280
AAXX 08184 61091 32965 20000 10225 20072 39691 40160 80002 333 10288 58003 82080
AAXX 08184 61096 32965 70402 10228 21040 39756 40146 80008 333 10287 58001 87280
AAXX 08184 61099 32960 70206 10274 21007 39875 40104 80008 333 10335 59004 87280
AAXX 08181 40009 32565 60000 10070 20043 40128 52006 80001 333 10128 84360 86360
AAXX 08181 40016 32970 20000 10048 20033 40192 51006 80001 333 10128 82070
AAXX 08181 40022 11560 51610 10146 20113 40105 55000 60072 79596 85900 222// 20502 333 10162 83930 85632
AAXX 08181 40030 11570 70000 10104 20066 40133 52005 69912 70262 84570 333 10124 84630 86360
AAXX 08181 40039 32970 60000 10070 20013 40148 52013 86050 333 10128 86360
AAXX 08181 40066 11570 72205 10110 20062 40122 53007 60083 70262 87400 333 10122 87626
AAXX 08181 40072 32970 00000 10066 20057 40184 52015 333 10122
AAXX 08181 40083 32570 21801 10028 21003 48442 52007 82100 333 10088
AAXX 08181 40716 11656 80000 11002 21008 38900 40201 57021 60011 77177 8242X 333 55000 82640 88558
AAXX 08181 40719 11212 82402 10082 20073 30158 40147 57007 60001 71022 886// 333 55020 88705
AAXX 08181 40721 12960 01510 10090 21048 39634 40180 58009 60001 333 55087
AAXX 08181 40858 11658 40000 10190 20156 30170 40181 55000 69961 71096 84500 91746 333 55040 84640
AAXX 08181 40872 11958 20000 10198 20154 30177 40182 51005 60001 70521 82030 222// 00/// 20000 333 55068 82360
AAXX 08181 40877 12960 00000 10150 20016 39623 40171 52006 60001 333 55054
AAXX 08181 40898 11558 11102 10222 20184 30183 40192 51011 60001 70500 81600 222// 00232 10900 333 55065 2//// 81720
AAXX 08184 08410 02980 00602 10128 20045 30138 40249 55001 60002 333 10181 60007
BBXX A8SG2 08181 99328 51699 41498 40713 10230 20183 40175 51015 70100 84141 22224 00190 20503 306// 40603 5//// 80200
BBXX A8CG7 08180 99267 31564 41297 30305 10236 40101 56010 70200 81741 22274 29902 3//// 4//// 5////
BBXX BAREU61 08184 99056 10000 46/// ///// 10278 29081 40094 52009 22272
BBXX BATFR19 08184 99024 30081 46/// /1809 10259 20229 40118 53009 22212 00259
BBXX BATFR08 08184 99496 30683 46/// /3028 10062 20039 49822 51012 22222 00054
BBXX MGGK4 08180 99059 70134 41/96 49901 10285 20234 40103 58004 70500 82330 22233 00293 20000 318// 40603 5//// 80248
BBXX DAPG 08181 99067 30393 41/97 20308 10275 20241 40110 52020 70200 821// 22200 2//01 3//// 4//// 5//// 80250
BBXX V7OX3 08181 99341 30257 41/97 /1310 10230 20199 40100 54000 702// 8//// 22223 04250 21003 3//// 4//// 5//// 80210
BBXX OXHY2 08183 99121 10606 41/98 /0108 10240 20216 40174 51010 7//00 8//// 22224 20102 3//// 4//// 5//// 80223
BBXX A8AD7 08183 99190 70177 41795 43612 10240 20155 40140 50000 70000 83145 22283 02210 2//// 30000 80185
BBXX A8RV9 08184 99363 30379 41597 41009 10213 20145 40161 53/// 70222 83763 22224 20502 320// 41608 5//// 80170
BBXX 9VBM6 08183 99220 70189 41898 30212 10210 20164 40180 52010 7//22 82619 22243 00220 20303 3//// 40303 50302 6//// 80180 /////
BBXX BATFR53 08184 99081 50958 44598 71410 10234 20174 40153 58009 70322 8746/ 22222 00244 202// 31422 405// 515//
BBXX C6XQ2 08183 99209 50389 41698 70704 10270 20226 40175 54000 70252 86307 22233 04250 20602 31010 40802 50602 80240
BBXX C6CU6 08183 99022 70430 41398 81015 10275 20262 40110 50000 70222 887// 22233 04274 20705 306// 40904 5//// 80266
BBXX IDDUK02 08184 99541 50366 46/// ///// 49905 222//
BBXX A8SF8 08184 99013 50814 41598 41806 10270 20206 40120 57010 70300 81178 22284 04260 20802 30000 80225
BBXX BAREU56 08184 99379 10112 46/// ///// 40178 52003 22232
BBXX TESTFR9 08184 99499 70005 46/// /3111 10100 29084 40326 52015 22234
BBXX BAREU04 08184 99506 70126 46/// ///// 40295 57001 22222
BBXX BAREU11 08184 99405 70291 46/// ///// 40269 57004 22253
BBXX BAREU06 08184 99361 70066 46/// ///// 40238 22263
BBXX BATFR60 08184 99493 70046 46/// /2617 10112 20104 40314 51013 22252 00109
BBXX BATFR54 08184 99392 70098 46/// /0213 10149 20105 40259 53009 22282 00149
BBXX BATFR15 08184 99467 70036 46/// /0105 10110 20055 40325 53013 22264 00132
BBXX BATFR04 08184 99579 70059 44/97 82430 10099 20080 40136 58019 702// 8//// 22282 00097 20702 320// 40902 5//// 60000 ICE 0////
BBXX BATFR12 08184 99490 70069 46/// /3007 10110 20107 40327 53005 22231 00130
BBXX BATFR24 08184 99427 10095 46/// /3005 10120 20040 40166 22213 00139
BBXX BATFR05 08184 99360 70052 46/// /1310 10152 20102 40252 53024 22223 00155
BBXX BATEU02 08184 99548 70174 46/// /2726 10087 20079 40133 53022 22212 00107
BBXX BATFR46 08184 99387 10004 46/// /2014 10142 20089 40248 56009 22253 00159
BBXX BATFR52 08184 99499 70005 46/// /3110 10104 20069 40303 51014 22243 00112
BBXX BATFR42 08184 99438 70038 46/// /3614 10114 20097 40315 22284 00149
BBXX BATEU09 08184 99382 10151 46/// /2507 10139 20077 40162 57030 22200 00167
BBXX BATFR58 08184 99431 10062 46/// /2817 10124 20012 40157 53017 22200 00144
BBXX BATEU04 08184 99569 10108 46/// /0212 10019 21021 40176 51021 22253
BBXX BATEU08 08184 99571 70155 46/// /3429 11063 21230 40061 55003 22262
BBXX BATEU06 08184 99460 70251 46/// /1915 10139 20124 40239 56016 22263 00142
BBXX BATFR03 08184 99500 70006 46/// /3316 10104 20072 40300 22284
BBXX A8QJ7 08184 99481 70210 41298 82215 10120 20101 40254 55009 7//00 84708 22263 20602 3//// 4//// 5//// 80110
BBXX 61001 08184 99434 10078 46/// /0707 10126 20100 40142 52002 22200 00134 10802 70010
BBXX 2BLY5 08183 99379 70145 41298 60809 10163 20131 40256 55000 7//// 84768 22214 00179 20201 304// 40504 80145
BBXX V2JU 08180 99346 70200 41598 80607 10175 20106 40250 52010 7//22 8247/ 22264 29902 303// 40605 5//// 80135
BBXX KSDF 08184 99343 70093 41398 60607 10172 20154 40230 50002 70322 8559/ 22253 0//// 20301 330// 41203 5//// 6//// 80161 /////
BBXX SHIP 08184 99491 70059 41297 82916 10110 20101 40314 54000 70522 887// 22224 04110 2//// 80105
BBXX BATUK01 08184 99604 70005 44/96 81915 10062 20027 40117 58024 725// 8//// 22212 00092
BBXX 61002 08184 99421 10047 46/// ///30 10131 2//// 40224 52006 22200 00133 10705 70027 555 1/037
BBXX PFBE 08183 99450 70342 41598 53021 10125 20054 40280 53003 70111 8216/ 22224 00140 20603 80089 91304
AAXX 08184 04048 21470 52228 10028 20004 49864 52005 72551 85300 333 10074 20023 60118 555 3/534
BBXX DCPI2 08183 99374 10107 41/98 /2926 10165 20084 40190 56015 70311 8//// 22224 00140 2//// 80120
BBXX BAREU08 08184 99154 70720 46/// ///// 40158 57027 22253
BBXX FVNM 08184 99249 70881 46/// /1011 10242 20192 40207 58008 22281 00252
BBXX BAREU00 08184 99447 70584 46/// ///// 40123 222//
BBXX BATFR14 08184 99229 70515 44798 30615 10252 20182 40193 56023 70200 83162 22254 00244
BBXX A8IM7 08184 99317 71318 41298 70412 10150 20116 40280 52010 70322 8/700 22263 20202 326// 40404 5//// 80130
BBXX 41101 08184 99146 70562 46/// /0817 10260 20206 40136 57022 22200 00267 10704 70021
BBXX DCSL2 08184 99357 71341 41298 81915 10150 20150 40260 52030 70222 887// 22224 00155 20202 30000 80150
BBXX PDHY 08183 99453 70547 41297 82715 10070 40109 53004 71022 887// 22223 04030 20306 328// 40704 5////
BBXX A8VL7 08184 99250 70632 41598 31608 10250 20175 40195 58010 70211 81544 22274 04240 20803 309// 40803 80200
AAXX 08184 41858 31930 20605 10154 20140 30133 40181 71011 82040 333 56090 59017 70000 82362
AAXX 08184 41863 32950 20501 10145 20140 30132 40178 82030 333 56090 59022 70000 82362
AAXX 08184 41886 31920 30000 10165 20160 30120 40141 71041 83040 333 56090 59008 70000 83365
AAXX 08184 41895 32450 80000 10180 20170 30149 40172 8452/ 333 56599 59023 70000 84615 88458
AAXX 08184 41909 31440 50000 10174 20160 30147 40159 70542 82530 333 56990 59018 70002 82618 85362
AAXX 08184 41915 31430 50000 10162 20150 30154 40180 71042 83530 333 56990 59014 70000 83618 83362
AAXX 08184 41926 31940 31801 10170 20160 30154 40168 70520 83030 333 56090 59022 70017 83362
AAXX 08184 41929 31950 53102 10197 20180 30149 40159 70522 85040 333 56090 59024 70000 85364
AAXX 08184 41933 31430 70000 10202 20180 30160 40169 70522 83520 333 56990 59017 70000 83616 87458
AAXX 08184 41939 11430 70000 10194 20180 40159 69936 71064 83570 333 56990 59035 70004 83615 85460
AAXX 08184 41941 NIL
AAXX 08184 41946 31540 50000 10187 20180 30157 40162 70522 83530 333 56990 59023 70014 83620 84362
AAXX 08184 41947 11440 50000 10188 20180 30164 40166 60036 70564 82530 333 56390 59018 70052 82615 84362
AAXX 08184 41951 NIL
AAXX 08184 41953 11430 80000 10200 20190 30154 40160 69926 70562 8452/ 333 56999 59016 70002 84616 88458
AAXX 08184 41958 31440 60000 10180 20160 30154 40156 70522 84530 333 56990 59025 70110 84616 84363
AAXX 08184 41960 31909 30000 10184 20180 30169 40171 74442 83030 333 56090 59015 70004 83362
AAXX 08184 41963 31910 50000 10185 20180 30163 40166 74022 85030 333 56090 59016 70000 85363
AAXX 08184 41964 31322 60000 10190 20180 30185 40187 71022 83520 333 56990 59002 70000 83618 86459
AAXX 08184 41965 NIL
AAXX 08184 41966 NIL
AAXX 08184 41984 31940 20000 10186 20180 30153 40155 70500 82030 333 56090 59017 70000 82362
AAXX 08184 41989 31930 00000 10204 20170 30154 40159 70500 333 59009 70000
AAXX 08184 41998 NIL
AAXX 08184 91943 36/// /0311 10285 20215 30138 40140 51019 333 10288 58014
AAXX 08184 91945 06/// /0000 10248 20225 30133 40138 51016 60101 333 69947
BBXX MCLJ8 08184 99158 31510 41498 20809 10260 20231 40086 57022 70250 82100 22273 20802 309// 40802 5//// 80240
BBXX 9V8043 08184 99265 31100 41697 71226 10220 20189 40138 570207//118770 0 22274 20805 334// 40805 80200
AAXX 08183 64800 NIL
AAXX 08183 64820 NIL
AAXX 08183 64860 32965 70000 10262 20073 39843 40115 80002 333 10315 58002 87080
AAXX 08183 64861 NIL
AAXX 08184 64870 32960 73404 10190 20076 38915 48504 80002 333 10285 58002 87080
AAXX 08184 64871 NIL
AAXX 08184 64892 NIL
AAXX 08184 64893 NIL
AAXX 08184 64894 NIL
AAXX 08184 64910 31530 70000 10278 20245 30099 40108 70522 84502 333 10325 58002 84620 87080
AAXX 08184 64911 NIL
AAXX 08184 64950 NIL
BBXX 46207 08181 99509 71299 46/// /0903 10082 40123 57011 22200 00079 11207 70034 333 91204
AAXX 08181 15615 11/01 93410 11157 21175 36978 47903 52016 60022 77174 333 11115 21177 555 586// 63599 71850 92712
BBXX 3ERR2 08184 99635 10053 43/// /2211 10043 21001 40148 57006 22200 11005 70025 333 91111
BBXX LF3F 08184 99643 10078 43/// /2305 10043 21025 40156 52004 22200 04086 11108 70039 333 91117
BBXX LF3N 08184 99653 10073 41698 42201 10041 21023 40148 52005 70122 8//// 22200 00089 10904 70018
BBXX LF4B 08184 99606 10037 47/98 /1207 10051 40164 57004 700// 22200 00046 10906 70028 333 91115
BBXX LF4C 08184 99584 10019 41598 72010 10074 20050 40171 57007 76062 89/// 22200 00069 10804 70020 333 91114
BBXX LF5T 08184 99660 10081 41597 /0802 10042 21020 40144 52008 725// 22200 10907 70033 333 91115
AAXX 08180 44210 32999 00000 11268 21293 38624 53005
AAXX 08180 44216 32999 03202 11335 21359 39159 40625 53004
AAXX 08180 44217 32998 00000 11261 21285 37918 40585 51012
AAXX 08180 44219 329// 20902 11304 21327 38734 40586 52003 82040
AAXX 08180 44221 329// 80000 11329 21344 38705 40614 52002 8807/
AAXX 08180 44224 419// 60000 11261 21292 38125 40547 53002 70272 86070
AAXX 08180 44229 319// 72706 11197 21223 37952 40434 53007 71622 87010
AAXX 08180 44242 329// 01101 11327 21358 39407 40464 57002
AAXX 08180 44243 329// 20000 11340 21377 39509 40475 56002 80008
AAXX 08180 44254 329// 70000 11210 21237 39087 40370 53001 80008
AAXX 08180 44257 329// 60000 11256 21284 39021 40428 57003 80008
AAXX 08180 44263 32998 00000 11262 21301 38141 40598 52006
AAXX 08180 44266 329// 20000 11198 21239 37815 40475 52005 82080
AAXX 08180 44286 329// 52506 11172 21208 38689 40394 57003 80008
AAXX 08180 44291 319// 21802 11334 21369 38795 40541 56001 70400 80004
AAXX 08180 44325 329// 21401 11234 21266 38932 40464 54000 82044
AAXX 08180 44329 328// 60000 11206 21246 37799 40474 58007 82047
AAXX 08180 44338 32999 70000 11239 21264 38534 40470 54000 80007
AAXX 08180 44348 329// 23205 11202 21214 38726 40386 54000 80004
AAXX 08180 44374 32999 02301 11171 21225 38308 40456 58002
AAXX 08180 44385 32999 22704 11142 21213 38987 40392 51001 80004
AAXX 08180 44386 329// 60000 11203 21236 39118 40405 57002 80007
AAXX 08184 87344 32962 00220 10365 20086 39541 40061 57029
AAXX 08184 87349 31960 00217 10358 20085 39690 40065 57033 70500
AAXX 08184 87371 32962 00912 10347 20153 30082 40103 57024
AAXX 08184 87374 32965 03606 10346 20158 30009 40093 57027
AAXX 08184 87395 32965 01404 10355 20097 30061 40104 52031
AAXX 08184 87418 32665 10512 10386 20122 39229 49976 57032 81200 333 56600 57863 81840
AAXX 08184 87436 32970 03616 10356 20046 39249 40011 57029
AAXX 08184 87448 32965 03620 10390 20116 39498 40027 57028
AAXX 08184 87453 32965 03627 10364 20109 39582 40044 57025
AAXX 08184 87467 NIL
AAXX 08184 87497 32965 01112 10330 20143 30092 40118 57023
AAXX 08184 87506 32670 12702 10338 21044 38504 48429 57024 81140 333 56340 57347 81835 95000
AAXX 08184 87509 31960 03610 10378 20126 39186 49986 57037 70700
AAXX 08184 87534 31658 10221 10366 20124 39913 40067 57024 70700 81100 333 56800 81840
AAXX 08184 87548 32565 13615 10356 20123 30006 40099 57032 81100 333 56800 81825
AAXX 08184 87576 31959 00712 10324 20160 30102 40126 57027 70400
AAXX 08184 87582 32960 01110 10272 20175 30124 40131 57024
AAXX 08184 87585 32960 03604 10303 20154 30092 40120 57027
AAXX 08184 89664 11532 81708 11018 21031 39773 49814 52012 60053 77177 885// 333 56399 87625 90976 93105
BBXX 46207 08181 99509 71299 46/// /0903 10082 40123 57011 22200 00079 11207 70034 333 91204
AAXX 08181 34560 12597 81105 11016 21024 30026 40196 57002 69950 74444 88444 333 11016 88423
AAXX 08181 34720 31499 80803 10028 20016 30079 40118 53002 70262 886// 333 10039
AAXX 08181 34730 11396 81108 10024 20014 30033 40126 52006 69900 71062 8672/ 333 10030 86706 91115
AAXX 08181 34740 31596 80906 10029 20021 30033 40130 58009 71022 8251/ 333 10031
AAXX 08181 34824 32597 81203 10051 20020 30091 40096 52003 885// 333 10069
AAXX 08181 34858 31495 81203 10028 20024 30034 40142 57005 75152 886// 333 10040
AAXX 08181 34866 32998 80906 10004 21018 30169 40160 58008 8007/ 333 10043
AAXX 08181 34880 12997 80803 11010 21042 30219 40192 55005 69900 80005 333 10025 88200
AAXX 08181 37018 32998 01102 10128 20003 30007 40080 57008 333 10138
AAXX 08181 37054 31496 82701 10007 20000 39745 40135 57006 71022 886// 333 10014
AAXX 08181 37472 31596 80000 10058 20053 30136 40113 57004 75152 886// 333 10062
AAXX 08183 87480 32965 00510 10342 20177 30066 40094 57027
AAXX 08183 87532 31660 13624 10380 20147 39889 40046 52027 70700 81100 333 56800 81837
AAXX 08181 22282 NIL
AAXX 08181 22438 NIL
AAXX 08181 22471 11458 82303 11028 21044 30049 40073 53022 69900 78582 8693/ 333 10005 86917
AAXX 08181 22563 11496 82404 11029 21046 30080 40119 52039 69940 78582 889// 333 10004 85911
AAXX 08181 22641 11598 82102 11042 21061 30129 40145 52032 69900 78573 889// 333 11028 88917 91107
AAXX 08181 22695 11496 82304 11017 21025 39989 40144 53038 69980 77173 8652/ 333 10000 86619
AAXX 08181 22867 12598 62201 11033 21065 30082 40199 52023 69900 86500 333 11005 86620 91105
AAXX 08181 22939 12997 51501 11103 21116 30035 40207 52016 69950 80001 333 11021
AAXX 08181 22996 12498 81903 11020 21038 30033 40227 52019 69900 8552/ 333 11017
AAXX 08181 23324 11457 82307 11038 21056 30019 40097 51003 60030 77173 8272/ 333 11026
AAXX 08181 27008 12698 60000 11093 21100 30021 40200 52011 69990 86500 333 11016
AAXX 08181 27051 31997 01601 11086 21089 30040 40215 52017 71011 333 11005
AAXX 08181 27225 32964 21101 11048 21061 30059 40194 52010 80001 333 11010
AAXX 08181 27252 32598 80901 11024 21040 30008 40198 58010 885// 333 10000 88620
AAXX 08181 27333 31784 81702 11026 21029 30036 40197 52003 70242 8807/ 333 11001
AAXX 08181 27369 11697 81503 11024 21033 30087 40228 52007 60020 70272 885// 333 10000
AAXX 08181 27393 11998 72006 11108 21121 30103 40281 52007 69960 73632 85031 333 11048
AAXX 08181 27479 11498 81504 11078 21109 30107 40248 52006 69900 73632 886// 333 11008 88716
AAXX 08181 27532 11295 81301 11002 21005 39965 40181 54000 60020 77177 8872/ 333 10006
AAXX 08181 27648 11396 81403 11030 21043 30021 40193 52001 69990 71022 886// 333 10006 88709
AAXX 08181 27675 32497 81206 11067 21095 30068 40244 54000 885// 333 11018 88618
AAXX 08181 27679 32599 81504 11092 21117 30017 40252 58001 885// 333 11024 88624
AAXX 08181 28214 12996 81302 11108 21128 30075 40301 52009 69900 86031 333 11054
AAXX 08181 22165 11598 72503 11008 21014 39942 40003 52019 60030 70272 82530 333 11010
AAXX 08181 22676 11461 82303 11018 21039 30063 40142 52038 69950 78582 889// 333 10008
AAXX 08181 22837 12577 72002 11036 21072 30118 40191 52019 69900 875// 333 11016 87625
AAXX 08181 22954 12999 72201 11063 21078 39950 70209 52018 69920 87030 333 11020
AAXX 08181 23405 11975 72202 11028 21048 39991 40091 52011 69950 70272 87030 333 11015
AAXX 08181 23412 11499 81805 11025 21044 39991 40088 52002 60020 72682 883// 333 11028 84914
AAXX 08181 23803 11599 82205 11033 21050 30027 40211 51002 69950 73632 889// 333 11031 88929
AAXX 08181 27066 32598 82001 11013 21023 30040 40221 52017 888// 333 10000 88623
AAXX 08181 27083 32484 82002 11015 21023 39997 40225 52016 885// 333 11010
AAXX 08181 27113 32560 70000 11045 21051 30049 40200 51014 85330 333 11014 84922
AAXX 08181 27242 32498 80000 11055 21059 30074 40207 52010 889// 333 10000 88712
AAXX 08181 27329 32570 80802 11012 21019 30062 40189 51003 885// 333 11003
AAXX 08181 27355 31396 81603 11003 21006 30042 40209 52005 77172 8872/ 333 10007
AAXX 08181 27373 11296 81604 11036 21041 30014 40238 52006 60020 77173 8872/ 333 11012 88705
AAXX 08181 27665 32597 71402 11048 21088 39949 40230 54000 875// 333 11020 87630
AAXX 08181 27835 31496 81103 11019 21028 30007 40169 53001 77172 8872/ 333 10007 87711
AAXX 08181 28009 11496 82003 11056 21070 30046 40265 52011 69970 78583 889// 333 11043
AAXX 08181 28411 12997 31604 11120 21147 30113 40321 52005 69900 80001 333 11080
AAXX 08181 28418 32998 01801 11104 21148 30148 40325 53005 333 11089
AAXX 08184 89664 11532 81708 11018 21031 39773 49814 52012 60053 77177 885// 333 56399 87625 90976 93105
AAXX 08184 41515 02995 00000 10040 21027 38576 48537 60003 333 58049 60007
AAXX 08184 41560 22696 30503 10050 21024 38245 48476 60003 82530 333 58004 60007
AAXX 08184 41571 119// 40504 10060 20026 39600 40210 60007 70522 84070 333 56990 59043
AAXX 08184 41594 319// 00000 10070 20035 39981 40209 70500 333 59035
AAXX 08184 41685 32993 00000 10050 21030 38954 48520 333 58028
AAXX 08184 41710 02997 03102 10055 21103 39375 40181 60003 333 59002 60007
AAXX 08184 41718 11995 00000 10070 20047 30106 40215 60003 70400 333 59017
AAXX 08184 41739 02996 00000 10090 20023 39077 48519 60003 333 58000 60007
AAXX 08184 41744 32996 00000 10090 21040 38792 48510 333 59007
AAXX 08184 41749 01995 03602 10110 20056 30190 40226 60003 70400 333 58025 60007
AAXX 08184 41515 02995 00000 10040 21027 38576 48537 60003 333 58049 60007
AAXX 08184 41560 22696 30503 10050 21024 38245 48476 60003 82530 333 58004 60007
AAXX 08184 41571 119// 40504 10060 20026 39600 40210 60007 70522 84070 333 56990 59043
AAXX 08184 41594 319// 00000 10070 20035 39981 40209 70500 333 59035
AAXX 08184 41685 32993 00000 10050 21030 38954 48520 333 58028
AAXX 08184 41710 02997 03102 10055 21103 39375 40181 60003 333 59002 60007
AAXX 08184 41718 11995 00000 10070 20047 30106 40215 60003 70400 333 59017
AAXX 08184 41739 02996 00000 10090 20023 39077 48519 60003 333 58000 60007
AAXX 08184 41744 32996 00000 10090 21040 38792 48510 333 59007
AAXX 08184 41749 01995 03602 10110 20056 30190 40226 60003 70400 333 58025 60007
AAXX 08184 89664 11532 81708 11018 21031 39773 49814 52012 60053 77177 885// 333 56399 87625 90976 93105
AAXX 08183 61701 31959 53605 10307 20096 40100 70500 84032 333 10355 59012 84363
AAXX 08183 61705 31959 70000 10335 20152 4//// 70522 87030 333 10365 5//// 87360
AAXX 08183 61707 NIL
AAXX 08183 61711 NIL
AAXX 08183 61712 32960 52703 10345 20133 4//// 85030 333 10380 5//// 85363
AAXX 08183 61717 NIL
AAXX 08183 61720 NIL
AAXX 08183 61721 32960 20903 10357 20096 4//// 80002 333 10370 5//// 82074
AAXX 08183 61722 31959 03604 10317 20020 4//// 70500 80002 333 103/5 5////
AAXX 08183 61731 31959 20000 10345 20135 4//// 70500 80002 333 10376 5//// 82074
AAXX 08183 61733 NIL
BBXX DFVY2 08184 99349 70160 41/98 70616 10185 20136 40225 52006 70222 8567/ 22213 00180 10602 70010 80155
BBXX MZDL7 08183 99117 50149 41298 31416 10237 20187 40144 56015 70200 83100 22214 00250 20503 313// 40603 5//// 80205
AAXX 08181 14235 12760 3//// 11008 21052 38997 48446 52006 60002 81016 333 10011 41998
AAXX 08181 14246 11984 72602 10021 21023 39961 40169 52/// 60002 700// 86072 333 10094
AAXX 08181 14314 12680 52401 10083 20017 30097 40162 53/// 60002 81172 333 10130 92301 92418
AAXX 08181 14323 11681 71501 10085 21024 30129 40164 52/// 60002 703// 87500 333 10124 92311 92418
AAXX 08181 14324 12480 62703 11042 21102 38367 48473 53/// 60002 86500 333 11012 44024
AAXX 08181 14328 12660 63101 10022 21007 39771 40174 53/// 60002 86500 333 10074
AAXX 08181 14330 12960 50901 11002 21055 39491 40177 52/// 60002 81031 333 10077
AAXX 08181 14438 11684 10103 10082 21061 30063 40155 51/// 60002 702// 81402 333 10121 923//
AAXX 08181 14443 32699 634// 10108 20090 30054 40153 52007 86130 333 10122 92312
AAXX 08181 14447 12984 23401 10096 21024 30123 40154 52/// 60002 82040 333 10140 92311
AAXX 08181 14472 12680 20202 10090 21072 30079 40144 52008 60002 82200 333 10133 92312
AAXX 08181 08501 32472 51907 10168 20151 30225 40261 5//// 82801 333 10185 82818 84070 555 60005
AAXX 08181 08505 32475 31103 10178 20125 30222 40271 56005 83801 333 10188 82814 555 60007
AAXX 08181 08506 32/// /1703 10163 20122 30211 40283 52002 333 10180 91105 555 60005
AAXX 08181 08509 11560 21203 10158 20128 30217 40282 55000 69932 70382 83800 333 10172 81823 555 60007
AAXX 08181 08511 32/// /1203 10155 20116 30174 40283 52002 333 10175 91105 555 60005
AAXX 08181 08512 32480 31003 10164 20128 30183 40275 53001 83800 333 10/// 82818 555 60007
AAXX 08181 08515 11475 6//// 10141 20123 30165 40281 52006 69922 70351 86801 333 10178 82811 83820 85635 555 60005
AAXX 08181 08521 32470 69901 10177 20091 30153 40224 53006 85831 333 10196 84818 555 60007
AAXX 08181 08522 42/// /9901 10178 20098 30156 40225 52007 333 1//// 555 60005
AAXX 08181 08524 32470 40901 10164 20110 30125 40223 52006 83831 333 10188 82815 555 60005
AAXX 08181 08530 NIL
AAXX 08181 08531 32/// /0504 10139 20100 30226 40264 52004 333 10168 91106 555 60005
AAXX 08181 08532 NIL
AAXX 08181 08533 32/// /0801 10120 20100 30224 40253 52005 333 10166 555 60005
AAXX 08180 08534 32970 10402 10128 20092 30240 40258 53001 80001 333 10164 81070 555 60007
AAXX 08180 08535 NIL
AAXX 08180 08537 NIL
AAXX 08181 08540 32960 13403 10116 20061 30191 40260 55001 80001 333 10166 81072 555 60007
AAXX 08181 08541 NIL
AAXX 08181 08544 32960 00102 10104 20060 30244 40265 56004 333 10166 555 60007
AAXX 08181 08545 31962 00701 10107 20059 30190 40274 54000 70200 333 10173 555 60005
AAXX 08181 08548 32/// /9902 10101 20024 30060 40268 57004 333 10137 91005 91106 555 60005
AAXX 08181 08551 32/// /1102 10090 20074 30216 40275 57004 333 10143 555 60005
AAXX 08181 08554 32/// /0503 10143 20083 30241 40251 52003 333 10171 555 60005
AAXX 08181 08558 32/// /0703 10100 20033 39960 40258 52004 333 10160 555 60005
AAXX 08181 08560 32/// /0505 10058 21005 39511 40286 57005 333 10117 91009 91109 555 60005
AAXX 08181 08561 32970 00202 10126 20056 30022 40257 53002 333 10167 555 60007
AAXX 08181 08562 32/// /0701 10114 20055 39956 40253 52003 333 10159 555 60005
AAXX 08181 08567 32/// /9902 10036 20027 39633 40320 52002 333 10082 555 60005
AAXX 08181 08568 32/// /1502 10083 21181 38713 48583 54000 333 10148 555 60005
AAXX 08181 08570 NIL
AAXX 08181 08571 32/// /9901 10123 21016 39556 40258 57002 333 10173 91105 555 60005
AAXX 08181 08575 32/// /0000 10037 20026 39482 40318 57002 333 10048 555 60005
AAXX 08181 08579 32/// /2402 10134 20068 30133 40258 52004 333 10154 555 60005
BBXX A8ZP9 08183 99258 30426 41597 61023 10260 40100 54000 70222 83446 22223 00280 20202 314// 40603 5////
AAXX 08184 83437 NIL
AAXX 08184 83550 21597 6//// 10276 20236 30111 40140 70219 84940 333 58012 60021
AAXX 08184 83552 31598 6//// 10353 20234 39939 4//// 72921 863// 333 59011
AAXX 08184 83565 32697 81404 10264 20216 39636 40099 8672/ 333 58010
AAXX 08184 83579 NIL
AAXX 08184 83592 NIL
AAXX 08184 83623 NIL
AAXX 08184 83630 32597 63208 10254 20188 3//// 4//// 57027 82340
AAXX 08184 83676 NIL
AAXX 08184 83698 32998 83603 10276 20234 30138 40142 56015 8802/
AAXX 08184 83702 32498 80502 10303 20200 39360 40097 58020 86970
AAXX 08184 83704 32598 73602 10324 20219 39680 40080 58010 87200
AAXX 08184 83716 NIL
AAXX 08184 83726 32597 81806 10247 20185 39178 40140 58035 887//
AAXX 08184 83738 NIL
AAXX 08184 NIL
AAXX 08184 82143 NIL
AAXX 08184 82599 32570 41214 10291 20224 30042 40102 84100 333 59006
AAXX 08184 82824 21250 60000 10258 20239 30009 40110 72162 886// 333 59007 60041
AAXX 08184 82899 21570 51613 10288 20223 30105 40117 70361 85200 333 59004 60051
AAXX 08184 83117 NIL
AAXX 08184 83248 32470 51009 10316 20240 30126 40148 83104 333 59015
AAXX 08184 83746 31564 61217 10265 20202 30127 40137 56022 70522 85230
AAXX 08184 NIL
AAXX 08184 NIL
AAXX 08184 NIL
AAXX 08184 NIL
AAXX 08184 83384 NIL
AAXX 08184 83386 NIL
AAXX 08184 83388 NIL
AAXX 08184 83393 NIL
AAXX 08184 83442 NIL
AAXX 08184 83479 NIL
AAXX 08184 83483 NIL
AAXX 08184 83531 NIL
AAXX 08184 83538 NIL
AAXX 08184 83574 NIL
AAXX 08184 83582 NIL
AAXX 08184 83595 NIL
AAXX 08184 83687 NIL
AAXX 08184 83692 NIL
AAXX 08184 83695 32696 80000 10264 20218 30028 40165 57020 885//
AAXX 08184 83718 NIL
AAXX 08184 82022 21558 60803 10293 20217 30006 40102 71562 84230 333 59009 60021
AAXX 08184 82193 21540 63611 10289 20254 30080 40098 76061 86200 333 59011 60021
AAXX 08184 82281 32570 40315 10306 20206 30026 40088 84200 333 58000
AAXX 08184 82332 32570 61205 10313 20251 30007 40100 84204 333 59006
AAXX 08184 82398 32570 10813 10292 20228 30084 40113 81200 333 59010
AAXX 08184 82400 32470 30906 10279 20228 30040 40104 83100 333 59006
AAXX 08184 82579 32670 12203 10367 20199 39996 40072 81100 333 59006
AAXX 08184 82917 21230 70102 10218 20214 39899 40123 76362 85510 333 59022 60361
AAXX 08184 82965 21570 61202 10310 20227 39780 40106 70262 84234 333 58018 69901
AAXX 08184 82993 22570 41312 10287 20208 39993 40129 84200 333 59009 69911
AAXX 08184 83208 21470 73504 10248 20215 39424 48540 70362 85220 333 58018 60031
AAXX 08184 83349 32570 41009 10294 20232 30141 40147 81104 333 58013
AAXX 08184 83362 22570 50107 10277 20244 39890 40105 85100 333 58012 69901
AAXX 08184 83378 32970 72906 10251 20150 38964 48520 82234 333 58002
AAXX 08184 83460 32570 40912 10279 20223 30089 40145 84200 333 58014
AAXX 08184 83497 NIL
AAXX 08184 83566 22370 81902 10191 20176 39229 48530 8561/ 333 58027 60031
AAXX 08184 83599 NIL
AAXX 08184 83612 21910 73419 10249 20177 39479 48520 57022 79596 87900 333 60091
AAXX 08184 83649 32570 80611 10276 20236 30152 40157 58010 82277
AAXX 08184 83650 NIL
AAXX 08184 83780 32970 51516 10249 20161 39250 48540 56019 85200
AAXX 08184 83827 32570 23508 10347 20171 39837 40106 58024 82100
AAXX 08184 83840 21570 61014 10241 20168 39149 48550 58015 70362 85504 333 60021
AAXX 08184 83899 32470 51113 10263 20224 30172 40178 57010 85200
AAXX 08184 83925 NIL
AAXX 08184 83970 NIL
AAXX 08184 83971 32970 21114 10323 20206 30138 40142 56021 82500
AAXX 08184 NIL
AAXX 08181 50844 32962 00201 11227 21252 40347 52003 333 11093
AAXX 08181 50854 32970 00201 11212 21246 40334 52007 333 11096
AAXX 08181 50968 32962 02501 11213 21236 40320 52005 333 11093
AAXX 08181 51379 NIL
AAXX 08181 51467 32980 00701 11172 21201 38281 52003 333 00151 11041
AAXX 08181 51495 32980 03603 11116 21184 40399 52001 333 00251 11032
AAXX 08181 53480 32980 00000 11155 21206 40366 57002 333 11036
AAXX 08181 53673 32961 01801 11090 21136 40352 52005 333 10003
AAXX 08181 53698 31930 60000 11053 21074 40340 52002 71000 80002 333 10003
AAXX 08181 53898 31920 02901 11064 21073 40332 57006 71000 333 10015
AAXX 08181 54308 32980 03601 11168 21217 40361 52004 333 11028
AAXX 08181 54602 31957 80000 11100 21112 40331 54000 71000 80007 333 10008
AAXX 08181 54725 31956 02501 11074 21083 40344 52008 71000 333 10023
AAXX 08181 54751 31540 62703 10005 21045 40325 52004 71000 86400 333 10013
AAXX 08181 54916 31958 00000 11048 21056 40340 52003 71000 333 10054
AAXX 08181 57014 32962 62901 11003 21067 40312 57004 80002 333 05201 10056
AAXX 08181 57025 31930 83601 11013 21041 40330 57011 71000 8802/ 333 10041
AAXX 08181 57046 32962 22904 11066 21095 37982 57006 80002 333 00002 11036
AAXX 08181 58208 31950 00201 10001 21007 40328 52001 71000 333 10071
AAXX 08181 40700 11520 80000 10034 20024 30066 40157 58005 60001 71022 886// 333 55007 88720
AAXX 08181 40723 12960 00000 11056 21073 38928 40258 58002 60001 333 55088 21161
AAXX 08181 40726 11520 80000 10006 21004 38630 40182 54000 60051 77282 8432/ 333 55050 82930 82635 88557
AAXX 08181 40727 11610 80000 10006 20001 38450 40193 56006 60051 77166 8342/ 333 55031 20586 83640 88558
AAXX 08181 40734 12565 42802 10064 20045 30153 40127 57021 60001 84500 333 55087 84630
AAXX 08181 40737 12960 01403 10054 20030 30118 40136 57024 60001 333 55084 2////
AAXX 08181 40741 12960 00000 11004 21005 39903 40251 54000 60001 333 55072
AAXX 08181 40780 11556 81204 10086 20078 38677 40170 50002 60021 79222 8592/ 333 55005 2//// 82930 85635 88557
AAXX 08181 40791 12965 00702 10060 21072 39375 40222 58008 60001 333 55090 2////
AAXX 08181 40792 12970 00702 10028 21038 38746 40237 54000 60001 333 55091
AAXX 08181 40794 12660 61204 10168 20100 30081 40179 53005 60001 84370 91745 333 55022 20538 81935 83640 86358
AAXX 08181 40812 11660 50000 10166 20098 39794 40168 51004 69901 70561 83570 333 55008 83640 85358
AAXX 08181 40829 12962 02702 10040 21111 39656 40248 51005 60001 333 55088
AAXX 08181 40833 12660 21605 10172 20109 30148 40180 53003 60001 82400 333 55016 82640
AAXX 08181 40835 11660 60804 10138 20113 39363 40197 55001 60031 72996 84330 333 55041 82640 82945 84360
AAXX 08181 40845 NIL
AAXX 08181 40882 11950 00000 10194 20142 30151 40186 53003 60001 70500 333 55070
AAXX 08181 40889 NIL
AAXX 08181 40890 NIL
AAXX 08181 40893 11450 60000 10226 20183 30183 40189 51006 60001 70500 86600 222// 00/// 20300 333 55074 86715
AAXX 08181 40897 14957 00202 10184 20142 30185 40199 51010 60001 70500 333 55071
AAXX 08181 40700 11520 80000 10034 20024 30066 40157 58005 60001 71022 886// 333 55007 88720
AAXX 08181 40723 12960 00000 11056 21073 38928 40258 58002 60001 333 55088 21161
AAXX 08181 40726 11520 80000 10006 21004 38630 40182 54000 60051 77282 8432/ 333 55050 82930 82635 88557
AAXX 08181 40727 11610 80000 10006 20001 38450 40193 56006 60051 77166 8342/ 333 55031 20586 83640 88558
AAXX 08181 40734 12565 42802 10064 20045 30153 40127 57021 60001 84500 333 55087 84630
AAXX 08181 40737 12960 01403 10054 20030 30118 40136 57024 60001 333 55084 2////
AAXX 08181 40741 12960 00000 11004 21005 39903 40251 54000 60001 333 55072
AAXX 08181 40780 11556 81204 10086 20078 38677 40170 50002 60021 79222 8592/ 333 55005 2//// 82930 85635 88557
AAXX 08181 40791 12965 00702 10060 21072 39375 40222 58008 60001 333 55090 2////
AAXX 08181 40792 12970 00702 10028 21038 38746 40237 54000 60001 333 55091
AAXX 08181 40794 12660 61204 10168 20100 30081 40179 53005 60001 84370 91745 333 55022 20538 81935 83640 86358
AAXX 08181 40812 11660 50000 10166 20098 39794 40168 51004 69901 70561 83570 333 55008 83640 85358
AAXX 08181 40829 12962 02702 10040 21111 39656 40248 51005 60001 333 55088
AAXX 08181 40833 12660 21605 10172 20109 30148 40180 53003 60001 82400 333 55016 82640
AAXX 08181 40835 11660 60804 10138 20113 39363 40197 55001 60031 72996 84330 333 55041 82640 82945 84360
AAXX 08181 40845 NIL
AAXX 08181 40882 11950 00000 10194 20142 30151 40186 53003 60001 70500 333 55070
AAXX 08181 40889 NIL
AAXX 08181 40890 NIL
AAXX 08181 40893 11450 60000 10226 20183 30183 40189 51006 60001 70500 86600 222// 00/// 20300 333 55074 86715
AAXX 08181 40897 14957 00202 10184 20142 30185 40199 51010 60001 70500 333 55071
AAXX 08184 NIL
AAXX 08181 40700 11520 80000 10034 20024 30066 40157 58005 60001 71022 886// 333 55007 88720
AAXX 08181 40723 12960 00000 11056 21073 38928 40258 58002 60001 333 55088 21161
AAXX 08181 40726 11520 80000 10006 21004 38630 40182 54000 60051 77282 8432/ 333 55050 82930 82635 88557
AAXX 08181 40727 11610 80000 10006 20001 38450 40193 56006 60051 77166 8342/ 333 55031 20586 83640 88558
AAXX 08181 40734 12565 42802 10064 20045 30153 40127 57021 60001 84500 333 55087 84630
AAXX 08181 40737 12960 01403 10054 20030 30118 40136 57024 60001 333 55084 2////
AAXX 08181 40741 12960 00000 11004 21005 39903 40251 54000 60001 333 55072
AAXX 08181 40780 11556 81204 10086 20078 38677 40170 50002 60021 79222 8592/ 333 55005 2//// 82930 85635 88557
AAXX 08181 40791 12965 00702 10060 21072 39375 40222 58008 60001 333 55090 2////
AAXX 08181 40792 12970 00702 10028 21038 38746 40237 54000 60001 333 55091
AAXX 08181 40794 12660 61204 10168 20100 30081 40179 53005 60001 84370 91745 333 55022 20538 81935 83640 86358
AAXX 08181 40812 11660 50000 10166 20098 39794 40168 51004 69901 70561 83570 333 55008 83640 85358
AAXX 08181 40829 12962 02702 10040 21111 39656 40248 51005 60001 333 55088
AAXX 08181 40833 12660 21605 10172 20109 30148 40180 53003 60001 82400 333 55016 82640
AAXX 08181 40835 11660 60804 10138 20113 39363 40197 55001 60031 72996 84330 333 55041 82640 82945 84360
AAXX 08181 40845 NIL
AAXX 08181 40882 11950 00000 10194 20142 30151 40186 53003 60001 70500 333 55070
AAXX 08181 40889 NIL
AAXX 08181 40890 NIL
AAXX 08181 40893 11450 60000 10226 20183 30183 40189 51006 60001 70500 86600 222// 00/// 20300 333 55074 86715
AAXX 08181 40897 14957 00202 10184 20142 30185 40199 51010 60001 70500 333 55071
AAXX 08184 NIL
AAXX 08181 01271 17683 81104 11063 21082 30157 40179 51011 69912 700// 333 11062 91106
AAXX 08181 01415 17/75 11502 10030 20002 30163 40174 51009 6//// 700// 333 10060 91107
AAXX 08184 41506 12994 00000 10000 21014 48545 69953 333 58026 60007
AAXX 08184 41508 22696 30000 11011 21024 48560 60003 83400 333 56900 58002 60007 83630
AAXX 08184 41523 02996 00000 10030 20005 48525 60003 333 56000 59029 60007
AAXX 08184 41535 12997 00000 10030 20005 48491 60003 333 58014
AAXX 08184 41536 NIL
AAXX 08184 41573 12996 03602 10000 21013 48502 60003 333 59014
AAXX 08184 41600 02696 53102 10090 20069 39896 40203 60003 82570 333 59031 60007
AAXX 08184 41630 11996 00000 10070 20021 40218 60003 70400 333 59024
AAXX 08184 41678 12996 00000 10090 20045 40225 60003 333 59004 60007
AAXX 08184 41696 02996 00000 10010 21125 38030 48557 60003 333 58003 60007
AAXX 08184 41697 02996 00000 10086 20039 40222 60003 333 58002 60007
AAXX 08184 41700 11995 00000 10080 20046 40210 60003 70400 333 59006
AAXX 08184 41725 02996 00000 10105 20050 40228 60003 333 58016 60007
AAXX 08184 41746 02996 03102 10090 20045 40220 60003 333 58020 60007
AAXX 08184 41759 12996 02302 10190 20085 30195 40201 60002 333 58014
AAXX 08184 41785 02996 00502 10130 20068 40210 60003 333 58018 60007
AAXX 08181 38954 329// 70000 11092 21132 37967 48580 55003 80007 333 11014
AAXX 08184 87593 32960 00909 10286 20126 30106 40133 57024
AAXX 08184 87623 31835 13421 10405 20140 39824 40035 57031 70700 81100 333 56800 81858 96004
AAXX 08184 87641 32965 03615 10341 20088 39938 40107 57028
AAXX 08184 87645 32970 00510 10331 20104 39913 40113 57028
AAXX 08184 87648 32960 00512 10293 20125 30124 40135 57023
AAXX 08184 87692 32960 00522 10250 20174 30114 40140 57021
AAXX 08184 87715 32970 32502 10330 20105 39720 40021 57025 80001 333 56006 83070
AAXX 08184 87750 31959 13624 10390 20091 39958 40051 57028 70700 80002 333 56006 81070
AAXX 08184 87765 31459 73222 10188 20052 39130 48444 50004 70732 86870 333 56660 83718 83630 96104 96120
AAXX 08184 87784 32980 43225 10418 20041 39993 40015 57020 82270 333 56660 57889 82360
AAXX 08184 87791 32580 13226 10415 20135 30006 40014 57028 81100 333 56600 81830
AAXX 08184 87800 11680 61806 10209 20161 39665 40049 54000 69901 71622 86500 333 56600 86648
AAXX 08184 87803 11580 52913 10196 20074 39130 40016 50008 60031 70262 85500 333 56600 85630 96461
AAXX 08184 87828 32980 62714 10350 20096 39926 4997 57031 80006 333 56000 86270
AAXX 08184 87860 31670 60519 10257 20103 39906 49960 57024 70522 83806 333 56606 82840 86270
AAXX 08184 87904 42680 62714 10180 20069 39669 49905 57037 82554 333 56666 82640
AAXX 08184 87909 31970 62913 10294 20023 39829 49899 57041 70522 80004 333 56000 86070
AAXX 08184 87925 32570 79908 10187 20113 39884 49906 57041 70522 82486 333 56119 82630 83360
AAXX 08184 87938 32680 63618 10183 20026 39946 49914 57043 83106 333 56406 83840 86270
AAXX 08184 78397 111468 32006 10314 20230 30145 40161 60001 70511 83801 333 01909 10315 20235 58001 81818 83636
AAXX 08184 DUPE
AAXX 08184 78388 111576 70714 10274 20221 30161 40170 69901 76011 82892 333 02229 10305 20230 5803 81820 86358 90910
AAXX 08184 DUPE DUPE
AAXX 08184 87078 32770 43602 10412 20137 39934 40080 57029 84100 333 56800 84850
AAXX 08184 87244 32970 70213 10374 20165 39681 4//// 5//// 80002 333 56006 86088
AAXX 08184 87393 31958 00907 10341 20218 30044 40105 57025 70400
AAXX 08184 87416 32965 03613 10385 20181 39281 49977 57032
AAXX 08184 87563 NIL
AAXX 08184 87640 32965 03620 10353 20135 39985 4//// 57027
AAXX 08184 87688 NIL
AAXX 08184 87774 32982 02708 10315 20132 39047 48429 5////
AAXX 08184 87852 31582 82725 10218 20064 39476 49962 57008 71522 84872 333 56600 81820 83620
AAXX 08184 89022 41458 80909 11054 21068 39750 49787 57004 77172 8463/ 333 84714 88359
AAXX 08184 89062 42584 70314 10024 21021 39831 49871 52001 8557/ 333 81620 83650 87360
AAXX 08183 NIL
AAXX 08183 87016 32560 40908 10354 20185 39658 40050 57027 82205 333 56606 82820
AAXX 08183 87896 32980 83613 10238 20137 39852 49944 57027 8807/ 333 56059 88460
AAXX 08184 71137 16/// /2107 11023 21058 39209 40173 50001 60001 333 11023 21115 70000
AAXX 08184 71771 46/// /1604 10090 20030 30077 40097 53015 6///1 333 10107 20079 7////
AAXX 08184 71300 16/// /3105 11082 21131 30125 40252 50000 60001 333 11050 21094 70024
AAXX 08184 71309 16/// /1802 11167 21194 30233 40245 58019 60001 333 11167 21276 70012
AAXX 08184 71322 46/// /2709 11211 21232 39902 49915 56024 6///1 333 11203 21329 7//// 555 10010
AAXX 08184 71340 16/// /2311 10048 21018 60001 333 10048 21069 70000
AAXX 08184 71341 16/// ///// 10037 21039 60001 333 10037 21005 70000
AAXX 08184 71342 16/// /2415 10001 21055 60001 333 10001 21065 70000
AAXX 08184 71344 16/// /2712 10036 21037 60001 333 10038 21041 70000
AAXX 08184 71347 16/// /2408 10040 21012 60001 333 21038 7////
AAXX 08184 71348 16/// /2416 10060 21007 60001 333 10068 21029 70000
AAXX 08184 71349 16/// ///// 10066 21026 60001 333 10068 21039 70000
AAXX 08184 71455 46/// /2517 10014 21047 39311 40113 58006 6///1 333 10015 21077 7////
AAXX 08184 71478 17/// /1728 10082 20081 39993 40128 56015 60181 7//4/ 333 10085 20059 70736
AAXX 08184 71479 16/// /1135 10077 20077 30033 40153 55002 60001 333 10082 20054 70000
AAXX 08181 23914 11496 81805 11072 21085 39997 40266 51003 60030 77373 8677/ 333 11060
AAXX 08181 23921 32998 62101 11066 21103 30133 40256 52007 84031 333 11031
AAXX 08181 23955 42984 82404 11094 21110 30196 40260 57005 83071
AAXX 08181 23966 42499 81901 11092 21108 30153 40284 57020 885//
AAXX 08181 28138 32999 22101 11104 21126 39729 40329 52008 80001 333 11081 93504
AAXX 08181 28224 12998 01702 11097 21123 30088 40313 52005 69900 333 11058
AAXX 08181 28255 32994 02602 11049 21121 30182 40316 52004 333 11017
AAXX 08181 28440 32997 21802 11044 21134 39981 40343 58001 80001 333 11003
AAXX 08181 28645 32997 01801 11138 21165 30057 40375 52001 333 11078
AAXX 08181 28661 32997 62104 11152 21174 30286 40386 54000 82031 333 11114
AAXX 08181 28722 32997 71601 11102 21133 30218 40357 52002 80001 333 11075
AAXX 08181 28748 32965 32002 11142 21169 30139 40399 54000 80001 333 11090
AAXX 08181 28838 32996 00000 11191 21203 39900 40426 58002 333 11134
AAXX 08181 29231 41396 82202 11054 21064 30214 40313 57008 77172 885// 333 86709
AAXX 08181 29313 42998 32103 11098 21110 30197 40325 57004 80002
AAXX 08181 29612 41396 82404 11056 21060 30227 40385 52001 71011 886// 333 88709
AAXX 08181 29638 41498 82302 11052 21066 30206 40377 52006 70282 889// 333 86919
AAXX 08181 29838 41597 82404 11051 21061 30158 40400 52002 70272 885// 333 88631
AAXX 08181 29846 41456 81804 11078 21092 39995 40399 53003 78582 889// 333 86711
AAXX 08181 36061 41599 80000 11095 21102 39999 40429 52004 78582 889//
AAXX 08184 71550 16/// /2314 10001 21071 39742 40120 58023 60001 333 10005 21094 70000
AAXX 08184 71063 16/// /2608 11085 21137 30151 40254 57002 60001 333 11059 21099 70000
AAXX 08184 71865 16/// /2218 11012 21073 39410 40094 58025 60001 333 11012 21065 70000
AAXX 08184 71407 16/// /0605 11405 21453 39997 40019 53012 60001 333 11328 21420 70000
AAXX 08184 71423 16/// /3511 11067 21079 30122 40132 53023 60001 333 11015 21068 70008
AAXX 08184 71434 16/// /2008 11178 21196 30081 40150 56038 60001 333 11178 70000
AAXX 08184 71437 46/// /2907 10005 21104 30166 40263 58007 6///1 333 10016 21019 7////
AAXX 08184 71903 47/// /2414 10060 20049 30015 40064 53023 6///1 7//4/ 333 7////
AAXX 08184 71503 46/// /1702 11176 21200 39653 49926 51009 6///1 333 11140 21247 7//// 555 10010
AAXX 08184 71506 46/// /3403 11208 21225 38976 49870 56003 6///1 333 11171 21233 7////
AAXX 08184 71514 16/// /2111 11010 21061 39434 40142 56013 60001 333 11009 21113 70000
AAXX 08181 28049 32997 32004 11052 21096 30113 40282 52002 80001 333 11044
AAXX 08181 28144 32998 82303 11050 21115 30131 40294 52005 82038 333 11040
AAXX 08181 28319 32999 01802 11102 21146 30149 40323 52004 333 11070
AAXX 08181 28321 32999 21504 11116 21136 30101 40219 52005 80002 333 11073
AAXX 08181 28334 32998 32101 11088 21134 30022 40341 53007 81045 333 11050
AAXX 08181 28434 32998 70000 11156 21166 30081 40360 52003 80001 333 11036
AAXX 08181 28552 32998 51901 11126 21159 30253 40374 52003 80002 333 11065
AAXX 08181 28666 32999 01904 11157 21178 30198 40388 54000 333 11121
AAXX 08181 28825 32997 00000 11133 21155 30185 40370 53002 333 11064
AAXX 08181 29111 42998 82403 11092 21117 30201 40292 54000 80005
AAXX 08181 29209 42998 62002 11075 21097 30194 40326 57002 80002
AAXX 08181 29551 41497 82203 11064 21076 30175 40362 52008 78583 883//
AAXX 08181 29602 42397 82004 11061 21062 30242 40388 52001 886// 333 88707
AAXX 08181 29636 42598 82603 11054 21061 30145 40371 52006 883//
AAXX 08181 29654 41396 82003 11092 21099 39742 40385 52009 78582 889// 333 85709
AAXX 08181 29712 42398 82604 11052 21055 30245 40393 52011 886// 333 88709
AAXX 08181 29724 41294 82402 11056 21063 30188 40399 52008 71022 886// 333 88705
AAXX 08181 29726 42498 82503 11052 21066 30219 40393 52007 886// 333 88716
AAXX 08181 29814 42499 82603 11070 21083 30267 40421 52004 889// 333 88914
AAXX 08181 29827 42697 72302 11082 21088 30249 40410 52005 87500
AAXX 08181 29923 41599 82604 11063 21071 30126 40413 52004 70272 8802/ 333 88524
AAXX 08181 29939 41597 82202 11073 21086 30123 40420 52005 70282 885// 333 88623
AAXX 08181 35026 31996 50000 11158 21173 39720 40411 57005 71011 80001 333 11080
AAXX 08181 36021 42599 82901 11071 21084 30238 40426 58001 885//
AAXX 08181 36022 41598 82802 11067 21076 30154 40428 52006 70272 885// 333 88621
AAXX 08181 36038 41499 70000 11084 21103 39965 40429 51002 72682 85930 333 85919
AAXX 08181 36058 42699 30901 11165 21171 39899 40464 52012 83500
AAXX 08181 36064 42999 83501 11074 21083 39803 40426 52005 8805/
AAXX 08181 36229 42999 00000 11270 21286 39230 40554 52007
AAXX 08181 36259 42999 00000 11285 21317 38341 48625 52008
AAXX 08184 71421 17/// ///// 11205 21239 39435 40188 53004 69931 7//4/ 333 11199 21259 70003
AAXX 08184 71432 16/// /2906 10005 21074 30167 40266 58003 60001 333 10020 21005 70000
AAXX 08184 71435 17/// /2207 11073 21088 39607 40218 58007 69931 7//4/ 333 11072 21102 70003
AAXX 08181 23909 11498 72204 11051 21072 39999 40255 52012 69920 73632 875// 333 11044
AAXX 08181 28044 32597 50000 11083 21096 30105 40276 52003 82501 333 11046
AAXX 08181 28116 12599 81803 11082 21114 30037 40281 52004 69900 8257/ 333 11060
AAXX 08181 28240 32998 02604 11038 21113 39990 40325 52005 333 11027
AAXX 08181 28522 32997 72004 11090 21133 30073 40345 58003 80003 333 11083
AAXX 08181 28621 32997 21404 11098 21124 30099 40346 54000 80002 333 11081
AAXX 08181 28719 32984 718// 11129 21156 39895 40366 54000 80002 333 11105
AAXX 08181 29023 41497 82002 11060 21075 30184 40284 57013 78582 889// 333 88913
AAXX 08181 29122 42999 62002 11097 21109 30218 40294 57011 80002
AAXX 08181 29328 42998 82203 11091 21107 30191 40337 58002 84071
AAXX 08181 29348 41496 72102 11072 21077 30194 40345 51003 78582 84930
AAXX 08181 29405 42597 62204 11063 21075 30205 40358 58008 83301
AAXX 08181 29418 42598 82205 11053 21053 30198 40363 52001 885//
AAXX 08181 29430 41498 82301 11066 21071 30172 40355 52001 70272 8653/ 333 86618
AAXX 08181 29524 42998 82303 11077 21079 30202 40373 52009 885//
AAXX 08181 29605 41296 82105 11061 21062 30238 40385 54000 71022 886//
AAXX 08181 29631 42697 82402 11082 21084 30181 40376 52006 884//
AAXX 08181 29645 41596 81502 11065 21077 30182 40377 52003 78582 889// 333 88920
AAXX 08181 29706 42598 82505 11060 21071 30255 40409 52004 885//
AAXX 08181 29736 42498 82402 11056 21067 30123 40382 53002 885// 333 88616
AAXX 08181 29937 42497 82101 11071 21084 30188 40419 52003 885//
AAXX 08181 36034 41496 81801 11072 21085 30141 40430 52003 71072 885// 333 88616
AAXX 08181 36096 41996 80801 11214 21232 39640 40495 52004 77177 8807/ 333 95090
AAXX 08184 71269 16/// /2416 10030 21038 60001 333 10030 21061 70000
AAXX 08184 71273 16/// /2610 10064 21026 39377 40031 56002 60001 333 10064 21081 70000
AAXX 08184 71285 46/// /2713 10067 21019 6///1 333 10068 21079 7////
AAXX 08184 71156 16/// /0000 11030 21056 39015 40116 51016 60001 333 10020 21087 70000
AAXX 08184 71168 16/// /1907 10037 21020 39659 40257 58007 60001 333 10039 21098 70000
AAXX 08184 71170 16/// /2407 11025 21061 60001 333 11025 21092 70000
AAXX 08184 71186 46/// /2919 11108 21158 6///1 333 11102 21129 7////
AAXX 08184 71190 46/// /2924 11071 21122 6///1 333 11065 21090 7////
AAXX 08184 71228 16/// /2611 10025 21047 60001 333 10030 21062 70000
AAXX 08184 71239 16/// /2306 11010 21048 39705 40172 58014 60001 333 11010 21089 70000
AAXX 08184 71107 16/// ///21 10072 20068 30003 40115 58003 60001 333 10077 20072 70000
AAXX 08184 71832 16/// /1902 11105 21130 39877 40217 58017 60001 333 11103 21177 70000
AAXX 08184 71970 16/// /2309 10016 21028 39449 40034 55000 60001 333 10026 21117 70000
AAXX 08184 71976 46/// /2217 11314 21350 39391 40060 56028 6///1 333 11314 21374 7////
AAXX 08184 71374 46/// /3617 11097 21137 6///1 333 11095 21122 7////
AAXX 08184 71387 17/// /3601 11122 21162 39810 40204 55000 69931 7//4/ 333 11117 21169 70000
AAXX 08184 71737 16/// /3304 11112 21154 39680 40219 50002 60001 333 11072 21134 70009 555 10010
AAXX 08184 71743 16/// /2202 11269 21300 39936 40170 58019 60001 333 11269 21387 70000
AAXX 08184 71747 16/// /2504 39738 58008 60001 333 70000
AAXX 08184 71748 16/// /1912 11053 21078 39860 40155 58027 60001 333 11053 21121 70000
AAXX 08181 34357 32598 81304 11014 21016 30020 40179 52002 885// 333 11013
AAXX 08181 34363 11497 80705 11067 21072 30074 40234 57002 69940 70272 886// 333 11065
AAXX 08181 34545 31496 81305 10012 20012 30047 40160 58005 75122 886// 333 10010
AAXX 08181 34579 32998 80905 11043 21064 30169 40215 54000 80002 333 11011
AAXX 08181 34838 12997 80103 10030 20008 30019 40115 55000 60010 8807/ 333 10041
AAXX 08181 34927 32997 80602 10047 20012 30060 40098 57007 84034 333 10086
AAXX 08181 34949 32398 81303 11005 21009 39579 40132 57004 8565/ 333 10006 88706
AAXX 08181 37001 12597 70702 10108 20044 30034 40073 57004 69930 84930 333 10136
AAXX 08181 37031 32997 81203 10020 20000 39916 40113 58005 8805/ 333 10064
AAXX 08181 37061 11422 80903 10035 20032 39960 40127 57006 69960 75185 886// 333 10044
AAXX 08181 37085 11496 81107 10049 20032 30163 40136 57006 69900 76166 8872/ 333 10067 91112
AAXX 08181 37107 NIL
AAXX 08181 37126 42999 82704 11018 21101 37867 48436 58003 86031 333 10019
AAXX 08181 37171 32996 80504 10090 20023 30064 40082 58005 82031 333 10159
AAXX 08181 37228 31/93 90101 11038 21046 39282 40138 54001 74542 333 10020
AAXX 08181 37470 32496 60000 10075 20030 30122 40098 53001 83530 333 10087
AAXX 08181 37663 32996 22802 10053 21060 38941 48425 52002 82040 333 10151
AAXX 08184 71682 16/// /1403 10017 20005 39681 49906 53020 60001 333 10019 21142 70007
AAXX 08184 61017 32960 30404 10190 21016 39760 40176 80001 333 10238 58015 83080
AAXX 08184 61024 32960 11217 10205 21067 39586 40163 80002 333 10260 58009 81080
AAXX 08184 61036 32960 70804 10280 20031 39880 40120 80008 333 10315 59011 87280
AAXX 08184 61043 32960 30806 10260 21080 39684 40130 80002 333 10302 59002 83080
AAXX 08184 61045 32965 20000 10210 21055 39643 40153 80002 333 10274 58000 82080
AAXX 08184 61049 32960 70000 10198 21024 39815 40144 80008 333 10275 58004 87280
AAXX 08184 61052 32960 20804 10274 21038 39872 40132 80002 333 10314 59002 82080
AAXX 08184 61075 32960 50000 10257 20006 39816 40130 80002 333 10317 58000 85080
AAXX 08184 61080 32960 50804 10236 20000 39715 40142 80002 333 10290 58002 85080
AAXX 08184 61090 32962 60402 10233 21070 39628 40146 80006 333 10277 58010 86280
AAXX 08184 61091 32965 20000 10225 20072 39691 40160 80002 333 10288 58003 82080
AAXX 08184 61096 32965 70402 10228 21040 39756 40146 80008 333 10287 58001 87280
AAXX 08184 61099 32960 70206 10274 21007 39875 40104 80008 333 10335 59004 87280
AAXX 08184 62305 32560 32511 10109 20056 40170 52015 83500 333 10161
AAXX 08184 62306 32560 22411 10120 20075 40167 52020 82400 333 10174
AAXX 08184 62318 11560 72709 10134 20099 40152 52007 60052 70282 878// 333 10168
AAXX 08184 62337 32960 02105 10127 20004 40176 52017 333 10180
AAXX 08184 62366 32960 02412 10150 20030 40185 52021 333 10171
AAXX 08184 62393 32960 00000 10100 21004 40217 51014 333 10168
AAXX 08184 62405 32960 03103 10132 20017 40201 52018 333 10214
AAXX 08184 62414 32960 03506 10160 20003 40207 52017 333 10228
AAXX 08184 62417 32960 02503 10124 20028 40190 52006 333 10174
AAXX 08184 62440 32960 02208 10139 20033 40175 52016 333 10190
AAXX 08184 62463 32960 03208 10160 21027 40192 52026 333 10220
AAXX 08184 62465 32960 02605 10180 21016 40184 52021 333 10230
AAXX 08184 62419 NIL
AAXX 08184 78388 111576 70714 10274 20221 30161 40170 69901 76011 82892 333 02229 10305 20230 5803 81820 86358 90910
AAXX 08184 DUPE DUPE
AAXX 08184 78397 111468 32006 10314 20230 30145 40161 60001 70511 83801 333 01909 10315 20235 58001 81818 83636
AAXX 08184 DUPE
AAXX 08184 71421 17/// ///// 11205 21239 39435 40188 53004 69931 7//4/ 333 11199 21259 70003
AAXX 08184 71432 16/// /2906 10005 21074 30167 40266 58003 60001 333 10020 21005 70000
AAXX 08184 71435 17/// /2207 11073 21088 39607 40218 58007 69931 7//4/ 333 11072 21102 70003
AAXX 08184 71865 16/// /2218 11012 21073 39410 40094 58025 60001 333 11012 21065 70000
AAXX 08184 71137 16/// /2107 11023 21058 39209 40173 50001 60001 333 11023 21115 70000
AAXX 08184 63125 32560 31007 10265 20228 40176 83200 333 58011 83820 SADJ20 HDAM 081825 RRA METAR HDAM 081800Z 10007KT 9999 SCT020 27/23 Q1017
AAXX 08184 40153 11440 72113 10059 20030 39083 48475 52014 60002 75022 874// 333 10097
AAXX 08184 40179 12560 31807 10126 20044 30131 40169 52015 60002 83100 333 10169
AAXX 08184 40180 12960 01807 10124 20041 30123 40173 57016 60002 333 10170
AAXX 08184 40190 16/// ///// 10119 20003 39843 40178 52018 60002 333 10167
AAXX 08184 40199 12970 20304 10166 21021 30150 40173 52021 60002 82060 333 10218
AAXX 0818/ 89577 46/// ///// 35778 4//// 5////
AAXX 08184 89578 46/// /0802 11304 36842 4//// 5////
AAXX 08181 13463 32670 52701 10049 21015 30075 40136 52007 83830 333 10099
AAXX 08181 13459 32670 53204 10030 21040 39373 40145 52011 84830 333 10061 84696 91113
AAXX 08181 13461 32770 60204 10096 21038 30128 40136 52001 83830 333 10126 8156 83657 84360 92322 92428
AAXX 08181 13363 11630 80201 11005 21006 39221 48432 52006 60022 77172 8802/ 333 11001 43019 93103
AAXX 08184 71832 16/// /1902 11105 21130 39877 40217 58017 60001 333 11103 21177 70000
AAXX 08181 22003 12599 62806 11009 21034 30054 40064 52024 69972 86500 333 10021 91007
AAXX 08181 22213 11584 72603 11040 21045 39911 40081 52026 69932 70282 84530 333 11038 91005 93501
AAXX 08181 22140 11497 82909 10000 21023 30002 40017 52026 69922 78582 889// 333 10000 91010 91112
AAXX 08181 22100 11598 72701 11110 21123 39952 40102 52017 69902 78581 87900 333 11032 87932 91002
BBXX 46248 08181 99461 71247 46/// ///// 1//// 91804 22200 00095 11106 21004 327// 41105 70031
BBXX 46244 08181 99409 71244 46/// ///// 1//// 91805 22200 00105 11104 21002 330// 41103 70019
BBXX 46241 08181 99330 71173 46/// ///// 1//// 91741 22200 00146 11502 21001 326// 41501 70008
AAXX 08181 28216 12999 02001 11108 21136 30006 40306 52007 69900 333 11082
AAXX 08181 28428 32998 51702 11120 21143 30156 40355 52002 80001 333 11078
AAXX 08181 28451 32996 02402 11050 21128 30180 40345 52001 333 11012
AAXX 08181 28541 32984 70501 11089 21162 39848 40367 54000 80001 333 11014
AAXX 08181 28655 32998 02203 11148 21170 30142 40383 58002 333 11097
AAXX 08181 28756 32997 02003 11146 21168 30244 40405 52002 333 11129
AAXX 08181 29557 41697 82605 11060 21091 30086 40363 52003 78582 883// 333 88633
AAXX 08181 29625 41496 72704 11079 21085 30200 40388 52010 78581 87900 333 87919
AAXX 08181 29813 42499 82402 11061 21065 30209 40396 52003 85606
AAXX 08181 29822 42597 82704 11063 21071 30236 40406 52009 885// 333 88627
AAXX 08181 29915 42598 83103 11076 21085 30255 40421 52006 885// 333 88632
AAXX 08181 36020 42498 82702 11070 21072 30199 40409 57001 889// 333 87916
AAXX 08184 08487 02880 13303 10127 20082 30226 40252 53002 60002 81010 333 10181 60007
AAXX 08181 22004 12584 50000 11082 21096 39967 40083 51014 60022 85900 333 11026 91001 93513
BBXX 46114 08181 99364 71222 46/// ///// 1//// 91804 22200 00111 11304 21003 329// 41303 70021
AAXX 08181 23226 11220 82310 11054 21068 39850 40069 53001 60020 77373 887// 333 11036 86707
AAXX 08181 23701 11984 42405 11020 21041 30035 40167 52037 69940 70373 84030 333 11010
AAXX 08181 28909 32999 21304 11122 21142 30234 40340 52003 80001 333 11095
BBXX 46240 08181 99366 71219 46/// ///// 1//// 91812 22200 00115 11302 20801 335// 41302 70011
BBXX 46237 08181 99378 71226 46/// ///// 1//// 91810 22200 00110 12003 21002 326// 42003 70016
BBXX 46237 08181 99378 71226 46/// ///// 1//// 91741 22200 00109 11303 21002 326// 41303 70015
BBXX 46229 08181 99438 71246 46/// ///// 1//// 91751 22200 00096 11105 21003 328// 41104 70024
BBXX 51203 08181 99208 71570 46/// ///// 1//// 91813 22200 00245 11502 20801 328// 41501 70008
BBXX 52200 08181 99134 11448 46/// ///// 1//// 91815 22200 00285 10805 20804 309// 41101 70023
AAXX 08184 60360 12560 42807 10134 20094 40249 53003 60002 83802 333 10168 83820 95990
AAXX 08184 60390 12965 01501 10097 20064 40268 53004 60002 333 10175 95990
AAXX 08184 60402 12560 20000 10105 20089 40264 55008 60002 81202 333 10184 81823 95990
AAXX 08184 60419 12560 22806 10058 20023 40268 55000 60002 82800 333 10121 81820 95990
AAXX 08184 60475 12665 42604 10070 20046 39289 48542 56001 60002 84202 333 10109 84840 95990
AAXX 08184 60490 12970 20204 10120 20075 40249 55001 60002 80002 333 10176 82073 95990
AAXX 08184 60525 12960 00000 10130 20037 40235 55000 60002 333 10191 95900
AAXX 08184 60531 12970 23605 10115 20069 40255 55000 60002 80002 333 10187 82073 95990
AAXX 08184 60566 12960 0//// 10109 20006 40275 55000 60002 333 10146
AAXX 08184 60571 12970 30000 10125 20027 39319 48559 55001 60002 333 10160 95990
AAXX 08184 60580 12960 00000 10120 20018 40260 52006 60002 333 10182
AAXX 08184 60590 12760 10204 10110 20018 40269 53002 60002 81500 333 10148 81650
AAXX 08184 60611 12960 01304 10082 21092 40256 53007 60002 333 10133
AAXX 08184 60620 12960 20308 10150 21093 40237 53001 60002 80002 333 10177 82075
AAXX 08184 60630 11958 30620 10145 21107 40220 53011 60001 70700 80002 333 10190 83075
AAXX 08184 60656 12965 20912 10188 20008 40220 51001 60002 81032 333 10225 81360
AAXX 08184 60670 12965 015// 10115 21055 39102 48531 53010 60002 333 10172 95900
AAXX 08184 60680 NIL
AAXX 08184 60351 12560 51804 10120 20095 40254 55001 60002 83202 333 10167 83820 83070 95990
AAXX 08184 60355 12660 53208 10137 20072 40243 56002 60002 83201 333 10174 83833 83073 95990
AAXX 08184 60445 12960 23404 10045 20004 39084 48550 55000 60002 81032 333 10106 81360 95990
AAXX 08184 60468 12560 30000 10064 20025 39298 48553 50002 60002 82202 333 10106 82826 95900
AAXX 08184 60507 12960 20000 10113 20033 40259 55000 60002 80002 333 10175 82073 95990
AAXX 08184 60511 12965 00902 10080 21021 39120 48541 55000 60002 333 10150 95990
AAXX 08184 60535 12970 00000 10054 21017 38895 48550 53003 60002 333 10100 95900
AAXX 08184 60536 12960 10000 10095 20028 39371 48542 53002 60002 80001 333 10180 81073 95990
AAXX 08184 60549 11960 30000 10104 21062 38980 48568 54000 60002 70200 80002 333 10141 83073 95990
AAXX 08184 60550 12960 10000 10074 21023 38730 48563 53005 60002 80002 333 10114 81073 95990
AAXX 08184 60555 12970 00000 10108 20012 40261 54000 60002 333 10170
AAXX 08184 60559 12960 00000 10242 20008 40253 55002 60001 333 10175
AAXX 08183 60581 12960 00000 10115 20020 40265 53003 60002 333 10172
AAXX 08184 60602 12960 11004 10136 20004 40259 54001 60002 81030 333 10160 81360 95990
AAXX 08184 60607 12960 20210 10127 21053 40245 53003 60002 80001 333 10154 82075
AAXX 08184 60640 12960 00510 10108 21068 40251 53004 60002 333 10150
AAXX 08184 60690 NIL
BBXX 46223 08181 99335 71178 46/// ///// 1//// 91800 22200 00152 11302 20901 327// 41301 70008
AAXX 08181 56146 32780 12202 11102 21152 36714 57001 81100 333 05204 10031
AAXX 08181 56444 32980 02001 11062 21111 36833 57002 333 00102 10029
AAXX 08181 56492 31730 80000 10065 20042 39873 40292 57007 71000 885// 333 05301 10085
AAXX 08181 56571 32980 02005 10141 21051 38401 57004 333 05101 10194
AAXX 08181 57799 31758 80000 10046 20031 30223 40316 57005 71000 885// 333 10051
AAXX 08181 57866 32761 80202 10052 20002 30102 40317 57004 885// 333 10060
AAXX 08181 57957 31758 80203 10066 21004 30098 40304 57003 70500 885// 333 10086
AAXX 08181 57993 32760 80201 10052 20029 30133 40307 52001 885// 333 10059
AAXX 08181 58027 31930 00000 11030 21044 30278 40332 52002 71000 333 10053
AAXX 08181 58141 31920 00000 11025 21038 30318 40338 52004 71000 333 10050
AAXX 08181 58265 31959 13402 10037 20006 30319 40325 54000 71000 81040 333 10067
AAXX 08181 58472 11977 83606 10065 20038 30209 40306 52001 69941 76060 8807/ 333 10091
AAXX 08181 58477 11468 83403 10068 20039 30256 40302 57002 69911 76060 885// 333 10116
AAXX 08181 58527 31650 80000 10056 20047 30232 40311 57002 71000 885// 333 10064
AAXX 08181 58633 11615 80902 10056 20050 30204 40308 57001 69951 76064 885// 333 10060
AAXX 08181 58666 32770 83610 10079 20052 30179 40284 57005 885// 333 10088
AAXX 08181 58725 32762 82201 10058 20041 30028 40299 54000 885// 333 10076
AAXX 08181 58921 31640 80000 10104 20093 30023 40275 52001 71000 885// 333 10132
AAXX 08181 59082 31658 80401 10072 20031 30136 40288 52001 70500 885// 333 10091
AAXX 08181 59211 11660 82001 10095 20078 30056 40269 57006 69901 76060 8347/ 333 10124
AAXX 08181 59265 31756 73401 10086 20048 30127 40270 57005 71000 875// 333 10107
AAXX 08181 59293 32763 73201 10072 20043 30181 40269 52004 874// 333 10148
AAXX 08181 59501 32962 20000 10128 20102 30217 40238 57002 82040 333 10202
AAXX 08181 59663 31950 70402 10100 20081 30138 40248 57001 71000 8704/ 333 10171
AAXX 08181 59838 32962 70404 10162 20144 30212 40222 57004 8704/ 333 10209
AAXX 08181 59948 32370 70405 10160 20129 39730 40221 57006 86802 333 10206
AAXX 08181 59981 32570 70404 10225 20165 30179 40186 57012 878// 333 10248
AAXX 08184 60351 12560 51804 10120 20095 40254 55001 60002 83202 333 10167 83820 83070 95990
AAXX 08184 60355 12660 53208 10137 20072 40243 56002 60002 83201 333 10174 83833 83073 95990
AAXX 08184 60445 12960 23404 10045 20004 39084 48550 55000 60002 81032 333 10106 81360 95990
AAXX 08184 60468 12560 30000 10064 20025 39298 48553 50002 60002 82202 333 10106 82826 95900
AAXX 08184 60507 12960 20000 10113 20033 40259 55000 60002 80002 333 10175 82073 95990
AAXX 08184 60511 12965 00902 10080 21021 39120 48541 55000 60002 333 10150 95990
AAXX 08184 60535 12970 00000 10054 21017 38895 48550 53003 60002 333 10100 95900
AAXX 08184 60536 12960 10000 10095 20028 39371 48542 53002 60002 80001 333 10180 81073 95990
AAXX 08184 60549 11960 30000 10104 21062 38980 48568 54000 60002 70200 80002 333 10141 83073 95990
AAXX 08184 60550 12960 10000 10074 21023 38730 48563 53005 60002 80002 333 10114 81073 95990
AAXX 08184 60555 12970 00000 10108 20012 40261 54000 60002 333 10170
AAXX 08184 60559 12960 00000 10242 20008 40253 55002 60001 333 10175
AAXX 08183 60581 12960 00000 10115 20020 40265 53003 60002 333 10172
AAXX 08184 60602 12960 11004 10136 20004 40259 54001 60002 81030 333 10160 81360 95990
AAXX 08184 60607 12960 20210 10127 21053 40245 53003 60002 80001 333 10154 82075
AAXX 08184 60640 12960 00510 10108 21068 40251 53004 60002 333 10150
AAXX 08184 60690 NIL
AAXX 08181 01028 11585 20304 11035 21073 30128 40148 53010 69902 70282 82500 333 11028 91108
AAXX 08184 87129 32965 13610 10392 20152 39832 40053 57036 81100 333 81845
AAXX 08184 87257 32962 00510 10383 20140 39976 40074 57028
AAXX 08184 60395 12965 00000 10123 20078 40258 51004 60002 333 10175 95990
AAXX 08184 60421 12560 50000 10068 20044 39208 48544 55003 60002 84202 333 10096 84830 95990
AAXX 08184 60423 11660 60000 10074 20065 39256 48518 58005 69912 70162 86800 333 10095 82833 85640 95990
AAXX 08184 60430 12965 00000 10102 20036 40276 54000 60002 333 10151 95990
AAXX 08184 60437 12970 00000 10075 20030 39040 48535 53004 60002 333 10131 90900
AAXX 08184 60444 12965 00000 10083 20044 39147 48550 58002 60002 333 10127 95900
AAXX 08184 60452 12970 0//// 10150 20063 40250 53004 60002 222// 20000 333 10165 91826
AAXX 08184 60457 12965 00000 10095 20067 40248 56001 60002 333 10199 95990
AAXX 08184 60514 12960 22606 10040 20031 39319 48542 53008 60001 82500 333 10200 82626 92990
AAXX 08184 60518 12965 20000 10127 20094 40233 55000 60002 80002 222// 20000 333 10090 82073 91807 95990
AAXX 08184 60520 12960 30000 10090 20051 40260 51004 60002 80001 333 10186 83073 95990
AAXX 08184 60540 11970 10000 10074 20002 39085 48538 56002 60002 70200 80002 333 10131 81073 95990
AAXX 08184 60560 11960 30000 10110 21047 39010 48548 56003 60002 70200 80002 333 10162 83073 95990
BBXX A8ZP9 08183 99258 30426 41597 61023 10260 40100 54000 70222 83446 22223 00280 20202 314// 40603 5////
BBXX MZDL7 08183 99117 50149 41298 31416 10237 20187 40144 56015 70200 83100 22214 00250 20503 313// 40603 5//// 80205
AAXX 08184 60353 NIL
AAXX 08184 60367 11560 7//// 10120 20080 40235 56002 60032 70262 8313/ 333 10153 83820 85360
AAXX 08184 60369 12960 00406 10150 20042 40258 53001 60002 333 10164 91827
AAXX 08184 60401 NIL
AAXX 08184 60403 12560 60000 10087 20072 40258 55001 60002 84202 333 10150 81830 84836 95990
AAXX 08184 60425 12970 00000 10122 20046 40255 56006 60002 333 10172 95990
AAXX 08184 60461 12970 00000 10132 20079 40247 54000 60002 222// 20000 333 10175 91808 95990
AAXX 08184 60467 12960 12808 10087 20038 40265 56005 60002 81030 333 10146 81360 95990
AAXX 08184 60492 12960 01006 10130 20091 40246 58006 60002 333 10167 95990
AAXX 08184 60515 12960 00000 10097 20037 40247 57019 60002 333 10155 95990
AAXX 08184 60517 12960 21601 10132 20100 40248 55002 60002 80002 333 10162 82073 95970
AAXX 08184 60522 12970 30000 10125 20041 40260 53001 60002 80002 333 10180 82073 95990
AAXX 08184 60557 11970 20000 10075 21001 38915 48549 56002 60002 70100 80002 333 10150 82073 95990
AAXX 08184 60563 12960 00000 10085 21009 39383 48549 53003 60002 333 10132
AAXX 08184 60603 12960 00706 10116 21029 40260 55004 60002 333 10158
AAXX 08184 60638 12960 00910 10120 21014 40248 53006 60002 333 10148
AAXX 08184 60686 NIL
AAXX 08181 23205 11598 82604 11023 21066 30025 40040 52014 60010 70282 885// 333 10002 88624 91110
AAXX 08181 60370 36/// /0000 10122 20080 333 10176
AAXX 08181 60371 36/// /1802 10113 20078 333 10171
AAXX 08181 60372 16/// /0902 10109 20084 69922 333 10169
AAXX 08181 60373 NIL
AAXX 08181 60374 NIL
AAXX 08181 60376 NIL
AAXX 08181 60379 NIL
AAXX 08181 60380 NIL
AAXX 08181 60381 16/// /0000 10120 20077 69922 333 10181
AAXX 08181 60393 NIL
AAXX 08181 60394 NIL
AAXX 08181 60593 NIL
AAXX 08184 60595 36/// /0000 11451 333 11451
AAXX 08184 60605 36/// /0705 10135 21024 333 10164
AAXX 08184 60613 NIL
AAXX 08184 60623 NIL
AAXX 08184 60624 36/// /0000 10185 21031 333 10209
AAXX 08184 60639 36/// /1005 10089 21080 333 10143
AAXX 08184 60645 36/// /0000 10159 21088 333 10196
AAXX 08181 50353 32970 00000 11332 21371 30111 40363 52002 333 11190
AAXX 08181 50557 32970 00000 11309 21343 30028 40369 52009 333 11187
AAXX 08181 50756 32960 00204 11224 21290 30014 40342 52008 333 11158
AAXX 08181 50949 32965 03602 11182 21235 30146 40331 52008 333 11089
AAXX 08181 50963 32962 00201 11255 21285 30158 40309 52007 333 11112
AAXX 08181 50978 32980 02903 11191 21227 39927 40303 52009 333 11093
AAXX 08181 51087 NIL
AAXX 08181 51156 NIL
AAXX 08181 51644 32960 03601 11132 21153 39053 40404 52001 333 00200 11030
AAXX 08181 51656 32970 01101 11109 21135 39230 40401 57004 333 00200 11034
AAXX 08181 51886 32980 20701 11152 21285 37119 57001 80002 333 00200 11057
AAXX 08181 52602 32980 00000 11209 21336 37271 52002 333 00101 11032
AAXX 08181 52713 32980 60000 11188 21266 36902 52003 80002 333 00153 11040
AAXX 08181 52754 32980 72901 11152 21208 36777 57003 80002 333 00001 11069
AAXX 08181 52818 32780 72202 11104 21258 37245 52002 85502 333 00201 11052
AAXX 08181 52836 32980 21802 11172 21256 36891 57001 80002 333 00155 11040
AAXX 08181 52955 32980 70000 11167 21206 36959 57002 80002 333 00052 11038
AAXX 08181 53068 32980 61101 11255 21292 39145 40409 57006 80002 333 05202 11147
AAXX 08181 53276 32980 12203 11145 21206 38929 40366 57006 81030 333 11094
AAXX 08181 54135 32980 03203 11169 21230 30110 40351 52012 333 11079
AAXX 08181 54236 32970 03202 11163 21215 30230 40344 52010 333 11073
AAXX 08181 54539 32960 70701 11072 21086 30323 40338 52004 80002 333 11009
AAXX 08181 54662 31958 03202 11036 21069 30210 40330 52004 71000 333 11004
AAXX 08181 54753 31957 02501 11009 21042 30325 40332 52005 71000 333 10019
AAXX 08181 54857 31940 03401 11002 21027 30240 40336 52004 71000 333 10045
AAXX 08181 57067 31950 70000 11056 21082 39633 40343 57001 71000 8703/ 333 10059
AAXX 08181 57178 31930 00000 11008 21052 30167 40332 57001 71000 333 10071
AAXX 08181 57245 32962 80000 10022 21014 39958 40321 57003 8807/ 333 05200 10089
AAXX 08181 57297 31958 02701 11006 21041 30186 40333 52002 71000 333 10067
AAXX 08181 37107 32698 81001 10060 20011 39441 40104 52004 875// 333 10103
AAXX 08181 01311 47282 61604 10002 20001 30106 40170 52007 700// 333 10030 91105
AAXX 08181 01025 17482 61804 11016 21029 30122 40133 53019 60042 785// 333 11016 91108
AAXX 08184 89667 46/// /2406 11020 29087 39815 4//// 5////
AAXX 0818/ 89879 46/// ///// 10008 39736 4//// 5////
AAXX 0818/ 89869 46/// ///// 11064 39750 4//// 5////
AAXX 0818/ 89828 46/// ///// 11286 36464 4//// 5////
AAXX 0818/ 89108 46/// ///// 11231 36892 4//// 5////
AAXX 0818/ 89872 46/// ///// 11016 39758 4//// 5////
AAXX 0818/ 89866 46/// ///// 11018 39709 4//// 5////
AAXX 0818/ 89329 46/// ///// 11076 38737 4//// 5////
AAXX 0818/ 89799 46/// ///// 11250 4//// 5////
AAXX 08184 48566 32560 50000 10265 20220 30114 40122 57008 82145 333 59023
AAXX 08184 89062 42584 70314 10024 21021 39831 49871 52001 8557/ 333 81620 83650 87360
AAXX 08184 91943 36/// /0311 10285 20215 30138 40140 51019 333 10288 58014
AAXX 08184 91945 06/// /0000 10248 20225 30133 40138 51016 60101 333 69947
AAXX 08184 60360 12560 42807 10134 20094 40249 53003 60002 83802 333 10168 83820 95990
AAXX 08184 60390 12965 01501 10097 20064 40268 53004 60002 333 10175 95990
AAXX 08184 60402 12560 20000 10105 20089 40264 55008 60002 81202 333 10184 81823 95990
AAXX 08184 60419 12560 22806 10058 20023 40268 55000 60002 82800 333 10121 81820 95990
AAXX 08184 60475 12665 42604 10070 20046 39289 48542 56001 60002 84202 333 10109 84840 95990
AAXX 08184 60490 12970 20204 10120 20075 40249 55001 60002 80002 333 10176 82073 95990
AAXX 08184 60525 12960 00000 10130 20037 40235 55000 60002 333 10191 95900
AAXX 08184 60531 12970 23605 10115 20069 40255 55000 60002 80002 333 10187 82073 95990
AAXX 08184 60566 12960 0//// 10109 20006 40275 55000 60002 333 10146
AAXX 08184 60571 12970 30000 10125 20027 39319 48559 55001 60002 333 10160 95990
AAXX 08184 60580 12960 00000 10120 20018 40260 52006 60002 333 10182
AAXX 08184 60590 12760 10204 10110 20018 40269 53002 60002 81500 333 10148 81650
AAXX 08184 60611 12960 01304 10082 21092 40256 53007 60002 333 10133
AAXX 08184 60620 12960 20308 10150 21093 40237 53001 60002 80002 333 10177 82075
AAXX 08184 60630 11958 30620 10145 21107 40220 53011 60001 70700 80002 333 10190 83075
AAXX 08184 60656 12965 20912 10188 20008 40220 51001 60002 81032 333 10225 81360
AAXX 08184 60670 12965 015// 10115 21055 39102 48531 53010 60002 333 10172 95900
AAXX 08184 60680 NIL
AAXX 08181 48806 11397 80000 10113 20111 39443 40241 57007 69901 75152 887// 333 59005 86793 96160
AAXX 08184 40582 41540 71507 10176 20147 40171 51014 79596 82950 333 55300 00000 10035 20000 30000 41404 51439 60000 55407 40000 82930 84640 87358 90401 91003 91123 91215 91309
AAXX 08184 41150 NIL
AAXX 08184 41168 NIL
AAXX 08184 41170 41956 00704 10195 20181 30176 40189 70500 333 10257 59007
AAXX 08184 41176 NIL
AAXX 08184 41184 42960 00000 10170 20125 40182 333 10282 58000
AAXX 08184 41194 12960 01103 10209 20139 30186 40191 60001 333 10278 59002
AAXX 08184 41196 42960 01304 10158 20104 30154 40195 333 10278 59001
AAXX 08184 41198 41950 00103 10219 20179 40194 70500 333 10248 58003
AAXX 08184 41210 NIL
AAXX 08184 41216 NIL
AAXX 08184 41217 42960 00605 10186 20127 30155 40184 333 10286 59003
AAXX 08184 41218 42960 00405 10195 20077 39884 40193 333 10281 59002
AAXX 08184 41226 NIL
AAXX 08184 41244 NIL
AAXX 08184 41246 NIL
AAXX 08184 41254 NIL
AAXX 08184 41256 31959 02405 10212 20190 30186 40196 70500 333 10269 58007
AAXX 08184 41258 36/// /1204 10233 20193 30185 40189 333 0E/// 10251 58007
AAXX 08184 41268 NIL
AAXX 08184 41312 36/// /0400 10236 20188 30154 40193 333 0E/// 10268 58011
AAXX 08184 41314 32960 01616 10198 20133 39681 40188 333 10295 58002
AAXX 08184 41316 32560 40202 10228 20175 30169 40195 84500 333 10265 58011 84625
AAXX 08184 41404 42560 19902 10175 20002 37901 48550 81100 333 10260 58011 81830
AAXX 08184 41407 NIL
AAXX 08184 41431 42960 01508 10270 20210 30103 40117 333 10302 59021
AAXX 08184 41466 42460 31206 10174 20147 38592 48491 83600 333 10260 59001 83715
AAXX 08184 41477 NIL
AAXX 08184 41480 42560 30815 10259 20206 30174 40177 83500 333 10294 58010 83620
BBXX 62029 08184 99487 70125 46/// /2008 10117 20108 40316 55002 22200 00126 10805 70026
BBXX 64045 08184 99591 70117 46/// /2229 10103 20094 40024 58024 22200 00099 10812 70060 333 90710 91143
BBXX 62163 08184 99475 70084 46/// /1203 10095 20072 40336 53005 22200 00123 11005 70026
BBXX 62001 08184 99452 70050 46/// /0411 10119 20083 40322 53004 22200 00131 10906 70029
BBXX 64046 08184 99605 70049 46/// /2318 10092 20087 40052 56017 22200 00076 10707 70033
BBXX 62442 08184 99490 70164 46/// /2119 1//// 2//// 40294 55002 22200 00118 333 90710 91125
BBXX 62081 08184 99510 70134 46/// ///// 10123 20081 40280 55004 22200 00115 10706 70032
BBXX 62301 08184 99524 70047 46/// /2211 10089 20083 40278 50001 22200 00083 10502 70010
BBXX 62105 08184 99554 70121 46/// /2327 10109 20096 40162 56013 22200 00105 10709 70043 333 90710 91136
BBXX 62303 08184 99516 70051 46/// /2509 10111 20099 40292 53003 22200 00107 10603 70014
BBXX 62107 08184 99501 70061 46/// /2810 10111 20104 40317 53008 22200 00114 11004 70018
BBXX PBHZ 08183 99661 10367 41296 72210 10023 21021 40082 52/// 72822 876// 22263 06047 20501 30000 80006
BBXX DDSB2 08183 99405 70290 41/98 51814 10167 20148 40270 54000 7//11 84/41 22254 29903 80155
BBXX 62112 08184 99584 70002 47393 /1819 10070 20056 40149 57022 762// 22200
BBXX PJAI 08184 99581 70014 47698 /2115 10087 20056 40144 57017 700// 22200
BBXX 62111 08184 99580 70003 46/// /2118 10074 20063 40158 57018 22200 10503 70014
BBXX 63056 08184 99597 10016 47496 /1715 10066 20018 40147 57005 740// 22200 10805 70027
BBXX 63109 08184 99596 10015 46/// /2114 10082 20032 40151 57009 22200
BBXX 63110 08184 99595 10015 47496 /1910 10062 20034 40152 57009 762// 22200 10805 70025
BBXX 63057 08184 99592 10015 47496 /1914 10064 20021 40156 57009 762// 22200 10805 70023
BBXX 62128 08184 99587 10014 47496 /1911 10065 20032 40164 57007 762// 22200 10805 70023
BBXX 62129 08184 99584 10003 46/// ///// 10069 20052 40159 57012 22200
BBXX 62113 08184 99584 10002 47396 /1917 10068 20048 40158 57013 753// 22200
BBXX 63055 08184 99606 10016 47998 /1415 10064 20004 40139 57017 700// 22200 10805 70024
BBXX 63108 08184 99608 10017 47698 /1818 10055 21012 40134 57016 700// 22200 10904 70022
BBXX 63106 08184 99610 10017 46/// /1617 10060 40140 57015 22200
BBXX 63105 08184 99610 10017 47998 ///// 10067 21011 40139 57015 700// 22200
BBXX 63113 08184 99610 10017 46/// /1517 10065 21011 40140 57014 22200 10805 70027
BBXX 63112 08184 99611 10010 46/// /1721 10072 20006 40127 57019 22200 10706 70029
BBXX 63107 08184 99611 10017 46/// /1618 10064 40138 57016 22200
BBXX 63101 08184 99612 10009 46/// /1821 10065 20023 40132 57016 22200
BBXX 63103 08184 99612 10011 46/// /1721 10067 20006 40130 57020 22200 10705 70025
BBXX 63104 08184 99612 10016 47997 /1619 10073 21004 40136 57016 700// 22200
BBXX 63117 08184 99613 10011 47598 /1722 10065 21001 40138 57013 700// 22200
BBXX 63115 08184 99616 10013 47598 /1519 10092 20008 40126 57020 700// 22200 10806 70029
BBXX MWYG6 08184 99603 70040 47296 /2221 10108 761// 22200
BBXX 64041 08184 99607 70026 47295 /1524 10075 20068 40068 57038 763// 22200 10806 70032
BBXX 62133 08184 99571 10009 46/// /2113 10082 20047 40184 58006 22200
BBXX 62119 08184 99570 10019 47796 /2508 10073 20043 40192 58002 740// 22200 10604 70018
BBXX 62152 08184 99570 10018 47/96 /1907 10077 20044 40193 58002 740// 22200 10504 70019
BBXX 62154 08184 99564 10022 46/// /2409 10076 20048 40197 50002 22200
BBXX 62120 08184 99564 10021 47797 /2510 10080 20057 40199 50000 751// 22200
BBXX 62132 08184 99564 10020 46/// /2610 10078 20044 40199 58004 22200
BBXX 62123 08184 99563 10022 47997 /2410 10080 20045 40201 50003 762// 22200
BBXX 62165 08184 99540 10009 47598 /2611 10080 20063 40240 58002 700// 22200 10604 70022
BBXX 62127 08184 99540 10007 46/// ///// 10080 20064 40237 58001 22200 10704 70019
BBXX 62131 08184 99539 10012 46/// /25// 10080 20064 40238 58001 22200
BBXX 62149 08184 99537 10011 47497 /2413 10085 20062 40243 50000 751// 22200 10604 70018
BBXX 62148 08184 99536 10015 46/// /2408 10076 20061 40246 50001 22200
BBXX 62150 08184 99536 10007 47498 /2408 10080 20060 40251 58002 700// 22200 10704 70020
BBXX 62121 08184 99535 10027 46/// /2610 10071 20051 22200
BBXX 62144 08184 99534 10017 47597 /2510 10075 20057 40248 50000 700// 22200 10604 70019
BBXX 62145 08184 99531 10028 47998 /2610 10069 20050 40251 51006 700// 22200 10604 70022
BBXX 62142 08184 99530 10021 47697 /2811 10082 20056 40249 51005 700// 22200 10604 70021
BBXX ZQSD5 08184 99583 10007 46/// /1701 10070 20043 40171 57009 22200 10905 70025
BBXX 62114 08184 99583 10000 46/// /1818 10069 20056 40153 57018 22200
BBXX 62134 08184 99580 10014 47497 /2214 10066 20034 40173 58007 700// 22200 10704 70020
BBXX 62102 08184 99579 10018 46/// /2210 10074 20032 40178 58004 22200 10704 70021
BBXX 62117 08184 99579 10000 47294 /1917 10077 20057 40163 57014 753// 22200 10503 70013
BBXX 62143 08184 99577 10018 47597 /2106 10073 20047 40179 58005 751// 22200 10604 70019
BBXX 62118 08184 99577 10009 47497 /1815 10091 20057 40166 58010 762// 22200 10603 70017
BBXX 62155 08184 99577 10007 47396 /2016 10076 20053 40173 58011 753// 22200 10603 70017
BBXX 62116 08184 99576 10011 47/97 /1914 10073 20051 40178 57004 752// 22200
BBXX 62104 08184 99574 10013 47697 /2012 10075 20043 40179 58007 740// 22200
BBXX 62153 08184 99573 10020 47596 /2311 10072 20044 40187 58002 761// 22200 10604 70021
BBXX 62122 08184 99573 10016 47697 /2009 10083 20052 40186 58003 762// 22200 10604 70018
BBXX 62140 08184 99573 10013 46/// /32// 10075 20050 40184 58004 22200
BBXX 62146 08184 99572 10021 47697 /2308 10071 20040 40187 58002 762// 22200 10704 70020
BBXX 62164 08184 99572 10008 47395 /2015 10099 20066 40184 58008 700// 22200 00086 10604 70018
BBXX PJGO 08184 99571 10022 47/97 /2306 10070 40190 57003 761// 22200
BBXX 62103 08184 99499 70029 46/99 /3219 10109 20096 40296 55001 22200 00115 10903 70013 333 90710 91126
BBXX 62105 08184 99554 70121 46/// /2327 10108 20095 40162 56013 22200 00105 10709 70043 333 90710 91136
BBXX 64045 08184 99591 70117 46/// /2129 10103 20094 40024 58024 22200 00099 10812 70060 333 90710 91143
BBXX 62094 08184 99517 70067 46/// /2311 10106 20096 40296 53006 22200 00103 10603 70014
BBXX 62170 08184 99514 10020 46/97 /2818 10091 20052 40274 51011 22200 00101 10601 70007
BBXX 62304 08184 99511 10018 46/98 /2915 10093 20044 40277 50007 22200 00101 10701 70005
BBXX 62305 08184 99504 10000 46/98 /2915 10103 20064 40303 52009 22200 00111 10601 70004
BBXX 62027 08184 99491 70022 46/// /3411 1//// 2//// 40306 53003 22200 00106 11303 327// 70013
BBXX 63118 08183 99591 10016 41497 82015 10069 40160 76366 8/7// 22200 10705 70025
BBXX 62095 08184 99531 70159 46/// /2122 10115 20102 40192 58010 22200 00110 10810 70049 333 90710 91135
BBXX MCZN2 08184 99562 10064 41298 43414 10060 21114 40190 52030 70200 8272/ 22243 20503 333// 40504 5//// 80010
BBXX 62103 08184 99499 70029 46/// /3115 10110 20099 40300 53003 22200 00114 10903 70013
BBXX 2AUO5 08183 99606 10016 41597 51718 10071 20017 40147 58012 70211 854// 22241 20402 316// 40804 80049
BBXX JPBN 08184 99336 11389 41/97 63016 10102 20005 40232 54000 70211 82130 22253 00201 1//03 20402 399// 4//02 70015
BBXX JPBN 08184 99336 11389 41/97 63016 10102 20005 40232 54000 70211 82130 22253 00201 1//03 20402 399// 4//02 70015
AAXX 08181 29998 42799 51801 11250 21256 38670 48515 57003 82502
AAXX 08181 30385 41992 00000 11417 21432 39798 40431 53004 74440
AAXX 08181 30469 419// 00000 11363 21378 39537 40412 56002 70171
AAXX 08181 30636 419// 80000 11282 21294 39690 40369 57004 77171 8801/
AAXX 08181 30650 42984 80000 11298 21315 39138 40387 52004 8802/
AAXX 08181 30664 41998 80000 11308 21320 39269 40380 53001 77172 83047
AAXX 08181 30781 41997 80000 11286 21304 39858 40387 57007 77172 8802/
AAXX 08181 30777 41997 80000 11263 21287 39643 40365 54000 77177 8807/
AAXX 08181 30844 42999 30000 11298 21309 39310 40407 57005 80001
AAXX 08181 30925 429// 20000 11232 21250 39335 40400 57003 80001
AAXX 08181 31371 42999 00000 11369 21404 30065 40373 54000
AAXX 08181 31388 42984 00000 11373 21395 30042 40348 52004
AAXX 08181 31478 NIL
AAXX 08181 31532 42999 00000 11366 21381 39947 40345 52012
AAXX 08181 31594 42998 00000 11306 21324 30145 40339 52013
AAXX 08181 31655 42997 82306 11217 21229 30172 40223 52007 70230 8802/
AAXX 08181 31754 41997 82902 11174 21213 39700 40236 53007 77172 80007
AAXX 08181 22282 119// 82511 11036 21043 30005 40013 52008 69930 73632 8805/ 333 11006
BBXX 41115 08181 99184 70673 46/// ///// 1//// 91805 22200 10802 20802 70010
BBXX 41114 08181 99276 70802 46/// ///// 1//// 91816 22200 00224 11101 21001 70004
AAXX 08181 28586 32997 32002 11131 21166 30225 40384 52007 80001 333 11072
AAXX 08184 48563 32560 60000 10245 20219 30082 40118 57011 82246 333 59032
BBXX SHIP 08184 99047 11467 41/96 60419 10267 20231 40077 54000 76011 8//// 22283 06200 10804 20202 303// 41004
AAXX 08181 23929 32979 82304 11059 21089 30194 40264 52002 85031 333 11037
AAXX 08181 28791 31996 02102 11140 21153 30249 40405 52002 71011 333 11077
AAXX 08181 28465 32998 22003 11142 21169 30277 40360 52002 80001 333 11115
AAXX 08181 28696 11996 81902 11086 21093 30255 40402 54000 69900 71072 8802/ 333 11056
AAXX 08181 28383 32997 82302 11092 21167 30247 40337 52008 80002 333 11046
AAXX 08181 28588 32998 22002 11150 21184 30215 40386 52002 80002 333 11089
AAXX 08181 28688 32997 22103 11139 21174 30227 40399 57001 80001 333 11091
BBXX 46213 08181 99403 71247 46/// ///// 1//// 91754 22200 00106 11205 21003 330// 41204 70023
BBXX 46231 08181 99327 71174 46/// ///// 1//// 91754 22200 00148 11303 21002 328// 41302 70014
BBXX 46222 08181 99336 71183 46/// ///// 1//// 91756 22200 00149 11202 21002 327// 41202 70011
BBXX 46242 08181 99332 71174 46/// ///// 1//// 91758 22200 00147 11301 20901 325// 41301 70006
BBXX 46221 08181 99339 71186 46/// ///// 1//// 91745 22200 00147 11302 21001 327// 41301 70009
AAXX 08181 38388 32598 70904 11081 21108 30193 40269 58017 87600 333 11019
AAXX 08181 38392 32297 81307 11070 21083 30193 40302 57001 886// 333 88706 11056
AAXX 08181 38507 32996 41105 10025 21018 30076 40182 57014 80001 333 10094
AAXX 08181 38511 32998 00702 11038 21067 30098 40245 57003 333 10001
AAXX 08181 38545 32998 00501 11128 21166 30106 40297 57008 333 11044
AAXX 08181 38647 32497 60910 10006 21008 30142 40185 56027 86600 333 10021
AAXX 08181 38656 32998 00704 11027 21057 30135 40249 58015 333 10028
AAXX 08181 38687 32996 00502 11044 21057 30040 40288 57003 333 10003
AAXX 08181 38750 32997 00902 10064 20038 30183 40154 58024 333 10147
AAXX 08181 38763 32497 60907 10011 21015 30095 40203 57021 86600 333 10014 86717
AAXX 08181 38774 31495 81402 10008 20000 30027 40227 57021 71022 886// 333 10012
AAXX 08181 38799 32997 00702 11008 21023 30027 40268 58007 333 10068
AAXX 08181 38806 32997 00901 11014 21034 30007 40279 58003 333 10058
AAXX 08181 38880 32497 80902 10014 21008 39973 40235 57014 886// 333 10035 88714
AAXX 08181 38886 31996 01202 11010 21022 30013 40250 58005 71000 333 10075
AAXX 08181 38895 32996 00703 10006 21017 39954 40254 58014 333 10050
AAXX 08181 38911 32997 00702 11006 21024 39967 40273 57002 333 10059
AAXX 08181 38915 32997 00701 10004 21023 39936 40271 58011 333 10070
AAXX 08181 38974 32998 00000 10004 21005 39892 40237 58007 333 10085
AAXX 08181 38987 32996 02201 10024 20003 39495 40256 52001 333 10139
AAXX 08184 64700 32962 30206 10235 21027 39786 40131 80002 333 10304 58002 83075
AAXX 08184 64750 32960 62808 10275 20024 39690 40102 80002 91800 333 1025 58000 86075
AAXX 08184 04203 46/// /3126 11167 21200 39860 49877 52002
AAXX 08184 04205 45/84 /1701 11261 21330 39849 49873 57005 333 11249 21280
AAXX 08184 04208 46/// /1814 11169 21196 39859 49905 52038
AAXX 08184 04213 46/// /3012 11164 21189 39821 49935 52019 333 11150 21170
AAXX 08184 04214 46/// ///// 11175 21201 39910 49943 52010
AAXX 08184 04224 45483 11504 11170 21203 39905 49939 57001 333 11106 21183 81/14
AAXX 08184 04228 NIL
AAXX 08184 04242 46/// /2411 11114 21160 39960 49976 52001
AAXX 08184 04253 46/// /1312 11102 21119 39960 49987 57010
AAXX 08184 04266 46/// /2807 11064 21118 39951 49989 57010
AAXX 08184 04285 46/// /3218 11058 21127 39963 49982 57003
AAXX 08184 04301 46/// /2509 11317 21363 39964 49969 57003
AAXX 08184 04313 46/// ///// 11222 21251 39996 40008 57007
AAXX 08184 04330 46/// /3304 11179 21207 30023 40041 57021
AAXX 08184 04351 46/// /0521 11014 21015 39725 49741 57014
AAXX 08184 04373 46/// /3159 11088 21116 39634 49726 57014 333 91071
AAXX 08184 04382 46/// /2839 11036 21138 39763 49811 52008 333 91050
AAXX 08184 04416 46/// ///// 11291 21306 36484 57021
BBXX 44098 08181 99428 70702 46/// ///// 1//// 91807 22200 00078 10902 20902 70008
BBXX 52200 08181 99134 11448 46/// ///// 1//// 91746 22200 00284 10805 20805 308// 41101 70025
BBXX 46239 08181 99363 71221 46/// ///// 1//// 91751 22200 00110 11305 20803 329// 41303 70023
AAXX 08181 60373 36/// /1303 10127 20076 333 10174
AAXX 08181 60623 36/// /0000 10093 21167 333 10134
AAXX 08181 60393 36/// /0000 10124 20076 333 10179
BBXX SHIP 08184 99185 11202 41598 70428 10240 20212 40149 54005 70222 87/// 22284 00250 2//// 3//// 4//// 80220
BBXX SHIP 08183 99248 11331 41/98 31115 10205 20198 40276 56009 70181 8//// 22243 00220 80200
BBXX SHIP 08184 99185 11202 41598 70428 10240 20212 40149 54005 70222 87/// 22284 00250 2//// 3//// 4//// 80220
BBXX DDAC2 08180 99491 11512 41497 72003 11035 21085 40120 58010 7//22 86870 22253 04014 20200 3//// 4//// 5//// 81050
BBXX 3FMH7 08184 99337 11428 41598 60910 00/// 10130 20073 40215 53008 7//// 84363 9//// 22273 00180 1//// 2//// 3//// 4//// 5//// 6//// 80100
BBXX DDZF2 08184 99261 11229 41295 80540 10170 20154 40235 58005 76055 8/777 22215 00230 20808 305// 40804 80160
BBXX SHIP 08184 99377 11461 41/98 21724 10050 20050 40163 55/// 70011 82/// 22214 04130 20305 399// 4//// 80050
BBXX A8IJ4 08180 99528 11774 41998 40105 11010 21026 40080 56008 70211 83043 22263 04061 21004 301// 41806 5//// 81016 =2015
BBXX SHIP 08184 99197 71154 41798 50207 10210 20164 40210 52010 70211 82146 22224 00310 20101 331// 40802 80180
BBXX SHIP 08184 99542 71643 41698 52124 11020 21086 40122 51020 70300 85345 22263 060400 20506 331// 40506 81040
BBXX DDZC2 08184 99492 71672 41598 41815 10006 21072 40110 54000 7//// 82098 22225 00040 2//02 303// 4//05 5//// 81020
BBXX A8KO3 08180 99017 31086 41597 83214 10250 20175 40090 54000 76066 872// 22234 00270 20303 80200
BBXX ZCAO7 08184 99057 31254 41/98 53206 10282 20237 40067 56013 71322 8//// 22284 2//// 80251
BBXX SHIP 08180 99047 10877 41398 40907 10280 20267 40135 51005 70111 83361 22252 00292 80270
BBXX ZCAO7 08184 99057 31254 41/98 53206 10282 20237 40067 56013 71322 8//// 22284 2//// 80251
BBXX SHIP 08180 99047 10877 41398 40907 10280 20267 40135 51005 70111 83361 22252 00292 80270
AAXX 08184 93800 16/// /1204 10125 20107 40073 57008 60001
AAXX 08184 93805 16/// /3602 10142 20119 40067 57008 60001
AAXX 08184 93994 16/// /1908 10204 20194 40071 52009 60051
AAXX 08181 14216 12980 70102 10079 21029 30011 40164 51/// 60002 83/72 333 10127 923// 924/8
AAXX 08181 14219 12480 83002 10023 21067 39148 48456 53/// 60002 8217/ 333 10060
AAXX 08181 14232 12984 51101 10037 20001 30033 40170 51/// 60002 82041 333 10098
AAXX 08181 14234 11980 62201 10034 21016 39921 40172 52/// 60002 700// 86070 333 10081
AAXX 08181 14236 11770 63101 10058 21021 39964 40163 52/// 60002 702// 81532 333 10080
AAXX 08181 14244 11980 40000 10023 21009 30038 40170 53/// 60002 700// 81042 333 10088
AAXX 08181 14248 12984 40901 10041 21031 39991 40168 52/// 60002 82043 333 10094
AAXX 08181 14253 12660 40601 10032 20008 39991 40167 50/// 60002 82541 333 10088
AAXX 08181 14256 11570 43303 10046 21012 39842 40164 52011 69962 7016/ 84500 333 10075
AAXX 08181 14280 12960 33601 10032 20013 30038 40149 52010 69952 83030 333 10070
AAXX 08181 14308 12980 60901 10017 21021 39811 40172 53/// 60002 86010 333 10123
AAXX 08181 14321 12684 60201 10076 21035 30145 40170 52/// 60002 83530 333 10136 92301 92419
AAXX 08181 14370 12660 43003 10043 20010 30049 40160 52012 60002 81130 333 10080
AAXX 08181 14382 12580 83004 10049 20017 30033 40154 53011 60022 885// 333 10062
AAXX 08181 14428 12570 20302 10074 21024 30154 40161 52/// 60002 81102 333 10129 92311
AAXX 08181 14441 11980 63602 10080 21010 30122 40147 53/// 69902 700// 86050 333 10134 92312
AAXX 08181 14452 NIL
AAXX 08181 14454 12780 63504 10104 21046 30077 40137 60002 81142 333 10133 92322
AAXX 08181 14462 12980 33403 10090 21034 30142 40148 51/// 60002 81038 333 10122
AAXX 08184 87688 32970 03614 10351 20098 39957 40088 57029
BBXX ZMFR 08184 99440 51773 43/// /0524 10157 20153 40178 57010 22263 00158
BBXX ZMENA 08184 99411 31733 46/// ///// 10197 20112 40058 52008 22241
BBXX V2QD4 08183 99353 31667 41798 52016 10180 20164 40105 51010 70311 83163 22224 00190 20301 318// 41004
BBXX ZMFR 08184 99440 51773 43/// /0524 10157 20153 40178 57010 22263 00158
BBXX ZMENA 08184 99411 31733 46/// ///// 10197 20112 40058 52008 22241
BBXX V2QD4 08183 99353 31667 41798 52016 10180 20164 40105 51010 70311 83163 22224 00190 20301 318// 41004
AAXX 08181 21432 42998 52304 11313 21342 30266 40288 57006 85030
AAXX 08181 21824 42998 21902 11321 21333 30341 40351 57002 82030
AAXX 08181 21908 42998 30000 11442 21463 30267 40362 57015 80002
AAXX 08181 21921 42999 00000 11438 21468 30337 40390 58001
AAXX 08181 21931 41998 02302 11330 21360 30301 40337 54000 70271
AAXX 08181 21946 41297 83007 11294 21324 30171 40258 53005 77173 8563/ 333 85706
AAXX 08181 21982 11596 82803 11174 21193 39943 49971 57006 60012 77172 8552/ 333 21204 48013 91106
AAXX 08181 25062 11996 82707 11219 21237 30041 40045 52001 69992 77173 8802/ 333 21231 48042 91110
AAXX 08181 25123 41996 82702 11290 21320 30160 40196 52001 77173 8802/
AAXX 08181 25138 41597 80000 11327 21357 30062 40197 52001 77172 8652/ 333 91102
AAXX 08181 25173 11392 83113 11218 21230 30000 40005 54000 60012 77373 8872/ 333 21234 48058 91119
AAXX 08181 25248 41997 82506 11303 21341 39678 40170 58002 77173 8801/ 333 91110
AAXX 08181 25282 32984 02702 11312 21330 39985 49992 57005 333 21330 46006 55000 91104
AAXX 08181 25325 NIL
AAXX 08181 25356 11997 83402 11230 21270 39963 40068 54000 69932 77172 82037 333 21391 48017 57000 91104
AAXX 08181 25399 12574 52402 11365 21400 30002 40012 53003 69940 82511 333 21382 48037 55000 91102
AAXX 08181 25428 41956 80000 11389 21424 39883 40265 52005 77172 84037 333 91100
AAXX 08181 25551 11997 72703 11291 21329 30072 40106 58001 69900 77872 80006 333 21323 47035 55000 91106
AAXX 08181 25563 31984 23405 11351 21380 39978 40066 58001 70271 80001 333 21370 44030 55000 91106
AAXX 08181 25594 32998 00000 11281 21298 39962 40017 52003 333 21289 49043 91102
AAXX 08181 25677 32998 02903 11356 21390 30063 40070 54000 333 21357 91105
AAXX 08181 31054 42999 00000 11480 21505 30082 40412 53005
AAXX 08181 31123 41997 80201 11332 21360 30020 40390 52008 77172 83017
AAXX 08181 63332 NIL 63333 42580 30000 10178 20115 38184 40193 81530 333 10270 58005 81625 82358
AAXX 08181 63334 42580 50000 10156 20011 37643 40140 83505 333 10247 58000 83628 84270
AAXX 08181 63340 42880 43602 10175 20089 37950 40173 84030 333 10260 59010 84358
AAXX 08181 63402 NIL
AAXX 08181 63450 42880 10606 10170 20083 37754 40137 81030 333 10252 58007 81358
AAXX 08181 63451 42980 2//// 1//// 2//// 38154 4//// 80001 333 10288 59011 83070
AAXX 08181 63471 42880 23602 1//// 2//// 38880 4//// 82030 333 10306 58004 82357
AAXX 08181 NNNN
BBXX BAREU12 08184 99466 70378 46/// ///// 40253 57009 22264
AAXX 08181 08541 32/// /0602 10133 20063 30133 40252 52003 333 10181
AAXX 08184 65528 NIL
AAXX 08184 65536 NIL
AAXX 08184 65545 31940 0//// 10307 20101 39672 40098 66500 333 10358 59010
AAXX 08184 65548 NIL
AAXX 08184 65555 NIL
AAXX 08184 65557 31950 0//// 10322 20204 39854 40091 70511 333 10/// 59004
AAXX 08184 65560 31940 0//// 10322 20165 39774 40080 70500 333 10365 59004
AAXX 08184 65562 NIL
AAXX 08184 65563 32956 00000 10319 20178 39850 40089 333 10357 59005
AAXX 08184 65578 32556 02006 10282 20257 30084 40101 80002 333 10316 59009 84076
AAXX 08184 65585 32958 0//// 10289 20244 3//// 4//// 333 10326 5////
AAXX 08184 65592 32460 1//// 10279 20252 30067 40090 81200 333 10317 59004 81815 94928
AAXX 08184 65594 32458 02006 10288 20256 30063 40097 333 10320 59005
AAXX 08184 65599 32958 3//// 10275 20257 30011 40084 80002 333 10310 59005 83076
AAXX 08181 08570 31975 00601 10093 20012 39806 40271 57002 70200 333 10148
AAXX 08184 61600 32960 23004 10283 20186 30110 40115 82080 333 10340 59010 82363
AAXX 08184 61612 32960 20000 10324 20008 30106 40114 82080 333 10343 59012 82363
AAXX 08184 61627 32958 60804 10331 20029 3//// 4//// 86080 333 10346 5//// 86363
AAXX 08184 61630 32960 51404 10332 20093 30079 40098 85070 333 10360 59012 85363
AAXX 08184 61641 32960 33411 10238 20181 30085 40118 83080 333 10265 59012 83363
AAXX 08184 61666 32962 50000 10343 20137 30088 40096 85080 333 10370 59003 83363
AAXX 08184 61679 32960 50204 10355 20151 30096 40104 85080 333 10395 59010 83363
AAXX 08184 61687 32960 40404 10355 20034 30039 40095 83072 333 10365 59005 83363 83073
AAXX 08184 61695 32960 13602 10329 20110 30072 40098 81030 333 10351 59010 81363
AAXX 08184 61697 32960 43202 10260 20173 30093 40108 84030 333 10329 59010 84363
AAXX 08184 61698 32960 20000 10354 20131 30086 40097 80002 333 10392 58000 82073
AAXX 08184 61699 32958 31004 10340 20094 39902 40090 80002 333 10365 59010 83073
AAXX 08184 84120 31670 40504 10301 20222 70544 81230 555 30063
AAXX 08184 84008 32680 11816 10293 20219 30128 40138 81100 00244 333 58001 555 30064
AAXX 08184 84135 32675 60902 10294 20206 30071 84239 333 58000 555 30059
AAXX 08184 84143 11658 80000 10136 20105 37413 60011 75052 8142/ 333 58011 555 10013 30081
AAXX 08184 84088 31560 80904 10122 20110 37077 71544 8472/ 333 58008 555 30092
AAXX 08184 84142 11210 83204 10186 20172 69911 75055 887// 555 10001 30091
AAXX 08184 84076 31550 81404 10172 20127 71644 884// 555 30075
AAXX 08184 84036 11565 83604 10144 20101 69941 75052 8671/ 555 10004 30056
AAXX 08184 84056 31265 82308 10162 20114 71544 8542/ 555 30072
AAXX 08184 84050 11465 81804 10254 20213 30031 60031 75056 887// 555 10026 30076
AAXX 08184 84270 31565 53606 10212 20130 74042 85500 555 30060
AAXX 08184 84179 11460 80000 10196 20183 39077 60061 79594 8792/ 333 58016 555 10064 30096
AAXX 08184 84202 31565 53204 10296 20233 30149 70544 85500 333 59003 555 30069
AAXX 08184 84140 32582 62206 10280 20225 30034 40119 86200 333 58000 555 30072
AAXX 08184 84160 31450 80504 10145 20094 37273 74044 888// 333 58008 555 30071
AAXX 08184 84072 11565 80402 10176 20114 37309 69901 75022 8552/ 333 58012 555 1T 30067
AAXX 08184 84173 31665 81412 10184 20106 71544 885// 555 30060
AAXX 08184 84045 11220 80906 10106 20097 69911 75022 887// 555 10001 30094
AAXX 08184 84132 11565 70404 10259 20233 39892 60061 79594 85960 333 58006 555 10055 30086
AAXX 08184 84105 12560 70904 10262 20218 31003 69931 83110 333 58000 555 10003 30077
AAXX 08184 84226 31560 83606 10130 20130 74042 886// 555 30100
BBXX BAREU12 08184 99466 70378 46/// ///// 40253 57009 22264
BBXX 3FFR4 08184 99322 71337 41497 81306 00/// 10160 20130 40270 51010 70220 8832/ 22234 00180 20101 328// 40101 5//// 6//// 80140 ICE//
BBXX 46207 08181 99509 71299 46/// /0903 10082 40123 57011 22200 00079 11207 70034 333 91204
BBXX A8UE5 08184 99486 71256 41195 81318 10090 20080 40240 57030 75155 8779/ 22274 04090 20502 317// 40905 5//// 80085
BBXX DCSL2 08184 99357 71341 41298 81915 10150 20150 40260 52030 70222 887// 22224 00155 20202 30000 80150
BBXX DHDM 08184 99553 71449 41397 82729 10005 21008 49950 52040 7//// 886// 22224 04030 20409 318// 40512 5//// 80000
BBXX DHEE 08183 99373 71337 41598 81823 10150 20097 40250 50010 70222 8/878 22264 00160 20302 80120
BBXX KGTX 08184 99531 71342 41598 82213 10070 20050 40078 57020 70222 886// 22274 00069 20604 324// 41411 5//// 6//// 80060 ICE /////
BBXX OZBY2 08184 99344 71426 41/// 82020 10170 20150 40210 56040 7//22 8//// 22265 00160 20506 311// 41407 5//// 6//// 80160 ICE /////
BBXX WABS 08184 99402 71254 41998 23618 10111 20091 40240 54000 70300 80000 22283 0//// 20505 3//// 4//// 5//// 6/000 80100 ICE 0/0//
BBXX WCX8882 08184 99376 71277 43799 10112 10130 20090 40275 54000 7//// 80001 22235 00130 20204 304// 40508 5//// 6//// 80110 ICE /////
BBXX WDC6644 08184 99527 71389 41398 42130 10050 20020 40040 52070 72588 8443/ 22232 00078 20302 323// 41213 5//// 6//// 80035 ICE /////
BBXX WFLH 08184 99306 71280 41498 70115 10194 20141 40250 52020 7//22 8717/ 22264 00150 20502 336// 41205 5//// 6//// 80161 ICE /////
BBXX WRTF 08184 99560 71420 41497 82725 10060 20040 49940 52040 7//22 889// 22233 00050 20303 323// 40811 5//// 6//// 80050 ICE 0/0//
AAXX 08181 38462 429// 00000 11074 21144 38811 48531 58003 333 10037
AAXX 08181 27595 12/97 81702 11117 21141 30131 40285 50003 69900 80031
AAXX 08184 83096 32695 10903 10299 20224 30125 40132 81100 333 58014
AAXX 08184 83186 32597 51409 10314 20145 39577 40099 84201 333 58021
AAXX 08184 83242 32497 71804 10317 20233 39618 40103 85703 333 58007
AAXX 08184 83288 32598 50501 10321 20224 39610 40094 83105 333 58005
AAXX 08184 83344 32498 60906 10263 20193 39165 40119 84722 333 58007
BBXX 46147 08181 99518 71312 46/// /1708 10080 40112 57004 22200 00075 11210 70048 333 91210
BBXX 46147 08181 99518 71312 46/// /1708 10080 40112 57004 22200 00075 11210 70048 333 91210
AAXX 08184 71050 46/// /1802 11111 21124 39096 40206 53004 6///1 333 11104 21160 7////
AAXX 08184 71076 16/// /0601 11098 21107 39535 49932 51006 60001 333 11098 21266 70008 555 10030
AAXX 08184 71217 16/// /2413 10060 21037 60001 333 10062 21073 70000
AAXX 08184 71224 16/// /2715 10061 21031 60001 333 10061 21051 70000
AAXX 08184 71979 16/// ///// 10051 21041 38439 40069 51010 60001 333 10058 21036 70000
AAXX 08184 71622 16/// ///// 11008 21058 39925 40270 58004 60001 333 10002 21020 70000
AAXX 08184 71665 16/// /2929 11224 21308 30128 40138 50001 60001 333 11195 21234 70006 555 10050
AAXX 08181 25703 41996 80000 11400 21433 30009 40321 53003 77172 86037
AAXX 08181 25745 NIL
AAXX 08181 25913 42999 00704 11274 21320 30032 40195 54000
AAXX 08181 25954 42998 03606 11276 21322 30028 40153 53002
AAXX 08181 25956 42999 00000 11366 21401 30093 40100 53001
AAXX 08181 31088 42999 03403 11306 21329 30200 40208 57004
AAXX 08181 31873 42997 12903 11203 21226 30142 40289 52008 80001
AAXX 08181 31909 42998 02807 11117 21212 30134 40215 53001 333 91114
AAXX 08181 31960 42998 03607 11121 21183 30029 40279 53002
AAXX 08181 31961 41996 60801 11254 21272 30245 40297 53010 70422 80001
AAXX 08181 32053 42997 23102 11219 21251 30128 40182 52012 80001 333 91004 91108
AAXX 08181 32061 41582 83605 11178 21219 30143 40184 52015 70283 82902 333 91008 91108
AAXX 08181 32098 42598 80103 11150 21163 30147 40158 53002 82943 333 91004 91105
AAXX 08181 32150 41596 70000 11116 21129 30120 40151 57011 70282 87300 333 87927 91102
AAXX 08181 32165 42599 60201 11048 21080 30122 40185 58013 82130 333 91002 91104
AAXX 08181 32215 41596 60000 11061 21110 30099 40129 54000 70282 86900 333 91002 91105
AAXX 08181 32252 NIL
AAXX 08181 32389 42999 22501 11333 21350 30122 40164 52011 82030
AAXX 08181 32477 42998 20902 11224 21236 30092 40126 57008 80001
AAXX 08181 32583 42999 23202 11132 21167 30097 40129 53006 80001
AAXX 08181 32618 41598 70607 11072 21115 30080 40102 57002 72681 87900
AAXX 08184 71767 16/// /1804 11032 21078 39990 40259 58013 60001 333 11031 21109 70000
AAXX 08184 71276 16/// ///12 10044 21028 60001 333 10044 21071 70000
AAXX 08184 71298 16/// /3402 10018 21052 30037 40274 58003 60001 333 10028 21024 70000
AAXX 08184 71189 46/// /2814 11105 21169 6///1 333 11094 21123 7////
AAXX 08184 71883 46/// /0000 11018 21021 39421 40255 50001 6///1 333 11018 21024 7////
AAXX 08184 71343 16/// /2724 10071 21041 60001 333 10071 21060 70000
AAXX 08184 71345 16/// /2610 10067 21029 60001 333 10067 21044 70000
AAXX 08184 71883 46/// /0000 11018 21021 39421 40255 50001 6///1 333 11018 21024 7////
AAXX 08184 71050 46/// /1802 11111 21124 39096 40206 53004 6///1 333 11104 21160 7////
AAXX 08184 71076 16/// /0601 11098 21107 39535 49932 51006 60001 333 11098 21266 70008 555 10030
AAXX 08184 71622 16/// ///// 11008 21058 39925 40270 58004 60001 333 10002 21020 70000
AAXX 08184 71767 16/// /1804 11032 21078 39990 40259 58013 60001 333 11031 21109 70000
AAXX 08184 71665 16/// /2929 11224 21308 30128 40138 50001 60001 333 11195 21234 70006 555 10050
AAXX 08181 08570 31975 00601 10093 20012 39806 40271 57002 70200 333 10148 555 60005
AAXX 08184 71189 46/// /2814 11105 21169 6///1 333 11094 21123 7////
AAXX 08181 08535 32/// /0203 10144 20070 30165 40258 52003 333 10153 91105 555 60005
AAXX 08181 08541 32/// /0602 10133 20063 30133 40252 52003 333 10181 555 60005
AAXX 08184 89002 41999 22416 11037 21061 39693 49747 54000 73630 80002 333 92911
AAXX 08184 71343 16/// /2724 10071 21041 60001 333 10071 21060 70000
AAXX 08184 71345 16/// /2610 10067 21029 60001 333 10067 21044 70000
AAXX 08184 71217 16/// /2413 10060 21037 60001 333 10062 21073 70000
AAXX 08184 71224 16/// /2715 10061 21031 60001 333 10061 21051 70000
AAXX 08184 64500 32460 82408 10275 20238 30085 40098 885// 333 10287 59001 83610 88633
AAXX 08184 64501 32360 82108 1070 20232 3//// 4//// 84502 333 10295 5//// 83608 86073
AAXX 08184 64550 11458 8//// 10248 20228 30/// 40/// 60022 70362 885// 333 10276 5//// 84611 88616
AAXX 08184 64570 32560 61902 10250 20227 39608 40115 83512 333 10288 58008 83620 84466 86075
AAXX 08184 71276 16/// ///12 10044 21028 60001 333 10044 21071 70000
AAXX 08184 71298 16/// /3402 10018 21052 30037 40274 58003 60001 333 10028 21024 70000
AAXX 08184 71979 16/// ///// 10051 21041 38439 40069 51010 60001 333 10058 21036 70000
BBXX 46183 08181 99536 71311 46/// /1610 10083 40096 52008 22200 00076 10904 70018 333 91213
AAXX 08184 62458 32960 00703 10127 20011 40197 52018 333 10183
AAXX 08184 62420 32960 00000 10110 20000 40200 52014 333 10180
AAXX 08184 62432 32960 03202 10108 20038 40210 52018 333 10182
AAXX 08184 62435 32960 03201 10132 20035 40208 52017 333 10202
AAXX 08184 62455 32960 02010 10155 20037 40119 52019 333 10186
AAXX 08184 62476 32960 03002 10190 20091 40171 53016 333 10236
AAXX 08184 62309 32560 32407 10122 20023 40162 52018 83500 333 10176
AAXX 08184 62325 31558 42214 10132 20084 40163 52016 70700 84400 333 10168
AAXX 08184 62332 32960 02211 10137 20087 40163 52010 333 10175
AAXX 08184 62387 32960 02203 10124 20028 40203 52015 333 10188
AAXX 08184 62459 32960 03508 10147 21018 40193 52019 333 10196
AAXX 08184 62452 32960 02008 10086 21007 40209 52019 333 10164
AAXX 08184 62309 32560 32407 10122 20023 40162 52018 83500 333 10176
AAXX 08184 62325 31558 42214 10132 20084 40163 52016 70700 84400 333 10168
AAXX 08184 62332 32960 02211 10137 20087 40163 52010 333 10175
AAXX 08184 62387 32960 02203 10124 20028 40203 52015 333 10188
AAXX 08184 62459 32960 03508 10147 21018 40193 52019 333 10196
AAXX 08184 62452 32960 02008 10086 21007 40209 52019 333 10164
AAXX 08181 50434 32980 70000 11314 21351 39389 40386 57002 80002 333 11209
AAXX 08181 50527 32970 72901 11288 21317 39494 40388 57002 80002 333 11258
AAXX 08181 50603 32980 00000 11305 21341 39624 40391 57004 333 11220
AAXX 08181 50632 11976 82902 11212 21248 39375 40351 54000 69901 77070 8807/ 333 11168
AAXX 08181 50727 11580 70000 11252 21285 39070 40379 57007 69901 77070 875// 333 11198
AAXX 08181 50915 32980 70000 11282 21324 39287 40414 52001 80002 333 11205
AAXX 08181 51716 NIL
AAXX 08181 51765 32980 00000 11158 21183 39329 40410 57004 333 00252 11019
AAXX 08181 51777 32970 01801 11139 21179 39281 40398 52001 333 00100 11009
AAXX 08181 51811 NIL
AAXX 08181 51828 32965 70000 11077 21128 38717 40368 54000 80002 333 00051 11010
AAXX 08181 52267 32980 02703 11119 21205 39205 40389 57005 333 00101 11040
AAXX 08181 52323 32980 02508 11129 21161 38287 57006 333 00107 11023
AAXX 08181 52495 32980 00701 11169 21238 38767 40393 57001 333 00001 11022
AAXX 08181 53149 32980 02704 11166 21208 38844 40368 57003 333 05100 11072
AAXX 08181 53192 32980 22701 11289 21315 38959 40447 57003 80002 333 11214
AAXX 08181 53231 32980 01604 11167 21212 38551 57003 333 00002 11062
AAXX 08181 53336 32980 02702 11142 21197 38787 40373 57003 333 05100 11061
AAXX 08181 53391 32980 02702 11162 21206 38554 40372 57002 333 05102 11104
AAXX 08181 53529 32980 02702 11140 21190 38705 40380 52004 333 00001 11016
AAXX 08181 53543 32980 02703 11086 21184 38600 40349 52001 333 11036
AAXX 08181 53723 32970 00000 11123 21160 38740 40369 52002 333 00002 10008
AAXX 08181 54012 32980 01101 11299 21336 39092 40418 57005 333 11172
AAXX 08181 54026 32980 03201 11156 21234 39993 40344 52008 333 11056
AAXX 08181 54027 32980 22901 11195 21251 39718 40357 52003 80002 333 11058
AAXX 08181 54208 32980 00000 11255 21285 38821 40409 54000 333 11116
AAXX 08181 54776 32962 72902 10005 21073 30267 40327 52003 80002 333 10030
AAXX 08181 56004 32980 72702 11199 21272 35789 57003 80002 333 00101 11080
AAXX 08181 56033 32680 20000 11196 21225 35987 57004 81902 333 00052 11087
AAXX 08181 56046 32980 80702 11123 21170 36229 57005 80007 333 05101 11024
AAXX 08181 56193 NIL
AAXX 08181 56196 32961 83201 10049 20024 40294 57010 8807/ 333 05201 10091
AAXX 08181 56287 11450 80000 10049 20042 40296 57009 60011 76060 8172/ 333 05301 10085
AAXX 08181 56684 32980 02204 10089 21046 37907 57004 333 05208 10145
AAXX 08181 56751 32780 21602 10061 20020 38053 57006 81102 333 00001 10161
AAXX 08181 56786 32980 51802 10086 21007 38128 54000 80002 333 00001 10183
AAXX 08181 56977 32470 70000 10126 20123 40195 57002 874// 333 00053 10227
AAXX 08181 57259 32965 81101 10020 21014 40323 57001 8807/ 333 10075
AAXX 08181 57279 31959 70000 11003 21040 40330 57003 71000 87030 333 10073
AAXX 08181 57348 32860 73603 10087 20011 40284 57011 875// 333 10122
AAXX 08181 57399 32960 80000 10043 21015 40327 54000 8807/ 333 10081
AAXX 08181 57554 31957 81101 10042 21014 40319 57010 71000 8807/ 333 10067
AAXX 08181 57793 31930 72001 10050 20030 40319 57006 71000 8704/ 333 10061
AAXX 08181 58345 11630 83602 10039 20029 40327 52004 69901 72166 8557/ 333 10043
AAXX 08181 58506 32766 80201 10005 21070 40319 57004 885// 333 10009
AAXX 08181 58813 11660 83401 10046 20043 40311 52004 69901 70060 885// 333 10051
AAXX 08181 58834 32760 83202 10097 20086 40282 57002 885// 333 10123
AAXX 08181 58926 31657 83201 10116 20093 40265 52002 71000 885// 333 10206
AAXX 08181 58944 32461 83606 10110 20079 40260 57005 885// 333 10121
AAXX 08181 59096 32562 80203 10074 20042 40278 52001 885// 333 10118
AAXX 08181 59102 32661 80403 10061 20043 40284 54000 885// 333 10106
AAXX 08181 59278 31958 03201 10100 20074 40261 57002 70500 333 10131
AAXX 08181 59456 32862 70203 10103 20074 40252 57001 875// 333 10137
AAXX 08181 59493 31956 63401 10124 20092 40242 54000 70500 86040 333 10194
AAXX 08181 59658 32660 83602 10117 20086 40243 57003 885// 333 10170
AAXX 08181 59673 32963 70407 10120 20085 40243 57001 8704/ 333 10156
AAXX 08181 59845 32460 71102 10147 20137 40236 57005 878// 333 10162
BBXX VOXS 08184 99467 70480 41/90 92123 10052 2005/ 40096 56017 74544 89/// 22200 04015 20402 334// 40606 80050
BBXX 46183 08181 99536 71311 46/// /1610 10083 40096 52008 22200 00076 10904 70018 333 91213
AAXX 08184 71145 11474 81809 11105 21117 39793 40098 58061 69901 70171 86570 333 11105 21286 48037 79999 90931
AAXX 08183 64870 32960 73404 10190 20076 38915 48504 80002 333 10285 58002 87080
BBXX VOXS 08184 99467 70480 41/90 92123 10052 2005/ 40096 56017 74544 89/// 22200 04015 20402 334// 40606 80050
AAXX 08184 71145 11474 81809 11105 21117 39793 40098 58061 69901 70171 86570 333 11105 21286 48037 79999 90931
AAXX 08181 48870 32998 23604 10228 20178 30173 40180 56006 80001 333 59010 82099
AAXX 08181 48877 32598 83606 10236 20178 30158 40163 58010 888// 333 59010 84895 88697
AAXX 08181 48887 32998 70502 10248 20184 30128 40134 58001 80008 333 59005 87299
AAXX 08181 48920 11598 73613 10255 20249 30099 40102 58012 60081 72582 879// 333 59015 85995 83697 91118 9153 6
AAXX 08181 48892 11598 70208 10260 20246 30109 40114 58009 60021 72582 879// 333 59015 82995 86697
AAXX 08181 51379 11958 71802 11171 21190 40436 52010 69901 77000 80002 333 00304 11079
AAXX 08181 60379 36/// /0701 10126 20111 333 10165
AAXX 08181 60380 36/// /1002 10112 20072 333 10179
AAXX 08181 60394 36/// /0000 10102 20075 333 10192
AAXX 08181 60374 36/// /0903 10117 20080 333 10180
AAXX 08181 60613 36/// /0000 10099 21067 333 10135
AAXX 08181 51716 32965 22902 11108 21128 39006 40385 57004 80002 333 00100 11004
AAXX 08181 51811 32962 72701 11108 21134 38879 40392 57003 80002 333 00152 11014
AAXX 08181 51431 11962 83401 11123 21146 39537 40396 52001 69901 77077 8802/ 333 00452 11097
AAXX 08181 51747 32970 80000 11194 21245 39032 40417 54000 80007 333 00101 11029
AAXX 08181 51243 32970 03401 11197 21223 39828 40442 57001 333 00351 11121
AAXX 08181 51709 32962 02702 11113 21150 38813 40391 57005 333 00100 11025
AAXX 08181 51087 32980 00000 11239 21268 39385 40456 52007 333 00200 11110
AAXX 08181 51156 32980 02901 11154 21198 38810 40410 57001 333 00251 11062
AAXX 08184 60581 12960 00000 10115 20020 40265 53003 60002 333 10172
AAXX 08184 60602 12960 11004 10136 20004 40259 54001 60002 81030 333 10160 81360 95990
BBXX 46131 08181 99499 71250 46/// /1212 1//// 40232 57004 22200 00077 10503 70014 333 91214
BBXX 46131 08181 99499 71250 46/// /1212 1//// 40232 57004 22200 00077 10503 70014 333 91214
AAXX 08184 62357 32560 32208 10139 20034 40178 52015 83500 333 10174
AAXX 08184 62423 32960 00000 10113 20030 40215 52011 333 10172
AAXX 08184 62403 32960 03202 10140 20021 40208 52020 333 10204
AAXX 08183 64870 32960 73404 10190 20076 38915 48504 80002 333 10285 58002 87080
AAXX 08184 41265 36/// /1306 10204 20199 39665 40220 333 0E023 10287 5////
AAXX 08184 60602 12960 11004 10136 20004 40259 54001 60002 81030 333 10160 81360 95990
AAXX 08184 60101 32960 51008 10135 20088 40240 51002 80002 333 10187 85070
AAXX 08184 60135 32950 60000 10101 20085 40229 53006 60002 80002 333 10181 86070
AAXX 08184 60156 15560 53404 10133 20066 40238 51010 69902 81502 333 10225 81620 85070
AAXX 08184 60230 12960 63103 10205 21054 40217 53005 60002 85082 333 10238 85360 83070
AAXX 08184 60252 15960 32404 10201 21035 40204 58001 60002 80002 333 10256 83070
AAXX 08181 89064 32589 52503 10034 29072 49927 52004 84401
AAXX 08184 60667 36/// /0000 10103 21105 333 10163
AAXX 08184 60692 36/// /0402 10213 21102 333 10252
AAXX 08184 60660 36/// /1101 10195 21054 333 10241
AAXX 08184 60633 36/// /1309 10217 21147 333 10258
AAXX 08184 60676 36/// /0511 10101 21067 333 10134
AAXX 08184 60662 36/// /0000 10102 21169 333 10135
AAXX 08184 60691 36/// /0706 10210 21130 333 10254
AAXX 08184 60661 36/// /3505 10139 21073 333 10204
AAXX 08184 60672 36/// /2803 10152 21127 333 10195
AAXX 08184 60679 36/// /3305 10051 21183 333 10112
AAXX 08184 60650 36/// /0820 10162 21073 333 10210
AAXX 08181 38725 429// 00902 11065 21217 48540 53003
BBXX 46204 08181 99514 71288 46/// /1313 10076 40125 57015 22200 00080 11207 70035 333 91215
BBXX 46204 08181 99514 71288 46/// /1313 10076 40125 57015 22200 00080 11207 70035 333 91215
BBXX ZDLS1 08183 99608 50422 41296 82230 11007 2//// 49822 51027 710// 887// 22263 05009 20202 399// 4////
AAXX 08184 91650 NIL
AAXX 08184 91652 NIL
AAXX 08184 91656 NIL
AAXX 08184 91659 11599 60903 10246 2022/ 40080 53010 60001 70222 81872 333 56999 81828 83461
AAXX 08184 91660 NIL
AAXX 08184 91669 36/// /2203 10238 20228 40074 52010 91815
AAXX 08184 91670 36/// /1500 10251 20226 40072
AAXX 08184 91676 14/// /2403 10256 20218 39995 40055 50010 60001
AAXX 08184 91680 11599 71104 10228 20224 40073 53010 60001 70222 868// 333 569// 81828 86650
AAXX 08184 91682 NIL
AAXX 08184 91683 11498 70000 10221 20220 40071 53012 69901 70384 84832 333 56999 83818 84362 87080
AAXX 08184 91691 14/// /2206 10272 20222 30064 40067 50011 60001
AAXX 08184 91693 NIL
AAXX 08184 91697 14/// /1702 10246 20199 30065 40070 50011 60001
AAXX 08184 91699 14/// /2205 10251 20212 30031 40063 50009 60001
BBXX 9HA2479 08184 99284 31559 46/// /0121 10228 20185 30056 40085 57018 22254 04238 85199
BBXX C6FS9 08184 99390 31442 46/// /3028 10151 20106 30014 40051 52011 22272 04182 85125
BBXX VROB 08184 99068 31470 46/// /3106 10246 20230 30046 40071 57019 22200 04306 85234
BBXX FHZI 08184 99483 31462 46/// /0123 10114 20098 39710 49720 57056 22243 04105 85105
BBXX VNAH 08184 99354 31202 46/// /2605 10165 20100 30178 40202 57004 22263 04194 85128
BBXX VNAA 08184 99573 31452 41/91 /0913 10030 20030 49778 57/// 74544 8//// 22242 00025 20401 302// 40802 6///0 ICE 0////
AAXX 08184 48450 31956 00000 10225 20185 30115 40149 57007 71000 333 59013
BBXX 9HA2479 08184 99284 31559 46/// /0121 10228 20185 30056 40085 57018 22254 04238 85199
BBXX C6FS9 08184 99390 31442 46/// /3028 10151 20106 30014 40051 52011 22272 04182 85125
BBXX VROB 08184 99068 31470 46/// /3106 10246 20230 30046 40071 57019 22200 04306 85234
BBXX FHZI 08184 99483 31462 46/// /0123 10114 20098 39710 49720 57056 22243 04105 85105
BBXX VNAH 08184 99354 31202 46/// /2605 10165 20100 30178 40202 57004 22263 04194 85128
BBXX VNAA 08184 99573 31452 41/91 /0913 10030 20030 49778 57/// 74544 8//// 22242 00025 20401 302// 40802 6///0 ICE 0////
BBXX 44039 08181 99411 70727 46/// /2907 10060 21031 40221 57008 91800 22200 00069 10301 70004 333 91208
BBXX 44060 08181 99413 70721 46/// ///06 10053 40209 91815 22200 00086 333 91208 555 11062 22062
BBXX 44022 08181 99409 70737 46/// ///07 10059 21038 40220 91815 22200 00061 333 91210 555 11077 22082
BBXX 46088 08181 99483 71232 46/// /1301 10071 40252 91820 22200 00077 10301 20301 70004 333 91202 555 11014 22015 31739 41206 61819 128014 126021 111030 110044 115047 113047
BBXX 46088 08181 99483 71232 46/// /1301 10071 40252 91820 22200 00077 10301 20301 70004 333 91202 555 11014 22015 31739 41206 61819 128014 126021 111030 110044 115047 113047
BBXX 46087 08181 99485 71247 46/// /1106 10078 20077 40254 91820 22200 00083 333 91208 555 11064 22067 31728 41008 61819 108060 103060 105060 106063 103062 105064
BBXX 41036 08181 99342 70770 46/// ///// 10150 20054 40222 91820 22200 00193
AAXX 08184 42309 31995 10000 10130 20119 40196 70500 81030 333 58010
AAXX 08184 42314 31595 30000 10140 20114 40191 70520 81530 333 59031 81620 83360
AAXX 08184 42410 31494 20000 10148 20148 40185 71000 82500 333 59009 82618
AAXX 08184 42415 31996 20000 10150 20121 40218 70500 82030 333 59010 82360
AAXX 08184 42492 31995 20904 10170 20150 40165 70500 82030 333 59024 82360
AAXX 08184 42587 31495 70000 10186 20163 40161 70522 84530 333 59021 84618 86360
AAXX 08184 42591 21494 50504 10178 20171 40174 71022 82530 333 59017 6990/ 82618 83360
AAXX 08184 42623 21494 50000 10120 20113 39302 40200 70522 85500 333 59009 6998/ 85618
AAXX 08184 42701 21494 80901 10170 20167 39420 40161 79696 8494/ 333 59023 6003/ 84710 81930 88458
AAXX 08184 42706 21495 73602 10184 20178 40158 72162 85530 333 59020 6015/ 85615 85360
AAXX 08184 42724 31595 60502 10196 20170 40164 70522 83530 333 56560 59021 83620 85360
AAXX 08184 42798 21494 70000 10192 20179 40165 71022 85430 333 59013 6003/ 84615 83825 87360
AAXX 08184 42809 21494 60000 10188 20175 40159 71062 84530 333 56690 59022 6001/ 84615 84360
AAXX 08184 42886 21594 73601 10206 20193 40148 71022 83530 333 59021 6990/ 83620 85360
AAXX 08184 42895 21595 60000 10208 20189 40154 70564 84530 333 59024 6991/ 84620 85360
AAXX 08184 42971 31595 40904 10222 20213 40151 70511 81501 333 59019 81620 84075
AAXX 08184 43333 31496 60906 10260 20218 40143 70511 85401 333 56209 59021 84616 84818
AAXX 08184 42398 NIL
AAXX 08184 42977 NIL
AAXX 08184 43368 NIL
AAXX 08181 30157 41996 00000 11409 21438 30108 40447 53011 71000
AAXX 08181 35925 329// 00906 11110 21130 40312 56003 333 11077
AAXX 08181 38001 32997 50514 10017 21069 30197 40167 57009 85030 333 10053 91018
AAXX 08181 38232 32998 41106 11035 21069 30145 40247 58012 84030 333 10005
AAXX 08181 21802 42999 00000 11400 21417 30317 40345 57007
AAXX 08181 24125 42998 80000 11440 21458 30083 40419 57007 80001
AAXX 08181 24136 42999 00000 11486 21522 30304 40427 58006
AAXX 08181 24143 42999 03601 11473 21501 30340 40400 52002
AAXX 08181 24266 41998 80000 11466 21494 30214 40427 53005 70272 80005
AAXX 08181 24329 42998 20000 11482 21505 30113 40481 53003 82010
AAXX 08181 24343 42998 03201 11381 21409 30257 40396 52002 80002
AAXX 08181 24382 41997 80000 11347 21377 30071 40357 53001 77177 8802/
AAXX 08181 24639 41993 32201 11443 21469 30256 40440 52005 74444 80001
AAXX 08181 24641 41998 02401 11446 21475 30249 40420 52003 71200
AAXX 08181 24652 41996 00701 11477 21505 30249 40398 53002 71000
AAXX 08181 24656 42999 40000 11492 21522 30286 40412 52004 80001
AAXX 08181 24671 42999 53502 11423 21448 39790 40388 53006 80001
AAXX 08181 24688 41999 80000 11468 21522 39345 40455 52005 70422 80008
AAXX 08181 24724 42999 03402 11319 21350 39842 40445 53004
AAXX 08181 24738 41995 00000 11477 21494 30234 40450 52007 71000
AAXX 08181 24768 41996 00000 11528 21565 30120 40411 53004 71000
AAXX 08181 24923 42999 00000 11431 21461 30096 40464 52008
AAXX 08181 24944 41995 40000 11463 21485 30102 40458 52009 71000 80001
AAXX 08181 24951 42999 02702 11432 21461 30236 40426 52012
AAXX 08181 24661 41998 80000 11475 21511 30078 40402 52001 74011 80001
AAXX 08181 24959 41994 80000 11449 21476 30244 40400 52004 71022 80001
AAXX 08181 24962 41993 00000 11533 21569 30185 40419 52005 74440
AAXX 08181 24966 42999 00000 11508 21530 30134 40403 52007
AAXX 08181 24967 42999 00000 11503 21535 30169 40440 52007
AAXX 08181 25206 41998 82202 11306 21336 30226 40256 53003 77177 83037
AAXX 08181 25400 41998 80000 11317 21341 30224 40286 54000 77172 8802/
AAXX 08181 30054 41994 00000 11454 21476 30159 40451 52011 71000
AAXX 08181 30089 42999 00000 11468 21494 30190 40454 52004
AAXX 08181 30393 41998 80000 11388 21411 39218 40435 52004 77171 80007
AAXX 08181 30493 42999 22501 11421 21448 39213 40448 54000 80001
AAXX 08181 31004 42999 60000 11406 21426 39459 40442 52007 80001
AAXX 08181 31137 41998 80000 11375 21399 39204 40396 53009 77172 8802/
BBXX WAHP 08184 99356 70168 41597 80719 10180 20148 40280 54000 7//22 88/// 22225 00170 20502 307// 40402 5//// 6//// 80160 ICE /////
BBXX WKAU 08184 99454 70514 41/93 92419 10070 2007/ 40090 54000 71244 89/// 22215 00040 20606 32420 40606 50404 6//// 80070 ICE /////
BBXX VRJI2 08183 99227 50398 41698 60009 10250 2022/ 40160 54000 70322 86900 22253 04250 21002 30000 40801 50801 6/00/ 80230 ICE 0////
BBXX VRHO2 08184 99531 71581 41898 73219 10010 21015 40100 51030 70310 877// 22235 00000 20604 33232 40804 50904 6//// 80000 ICE /////
AAXX 08184 67765 42784 20000 10230 20181 38652 48496 81432 333 10297 59015 81650
AAXX 08184 67775 42780 11307 10218 20122 38501 48505 81402 333 10286 59017 81656
AAXX 08184 67779 NIL
AAXX 08184 67853 NIL
AAXX 08184 67861 NIL
AAXX 08184 67867 42880 11703 10210 20129 38575 48503 81400 333 10290 59010 81657
AAXX 08184 67881 42980 00000 10200 20146 38578 48506 333 10276 59014
AAXX 08184 67965 42980 11504 10238 20105 38680 48507 81030 333 10317 59019 81360
AAXX 08184 67975 42980 01202 10234 20144 38917 48510 333 10300 59014
AAXX 08184 67977 42980 00000 10282 20183 39647 48535 333 10351 59022
AAXX 08184 67983 41970 10000 10215 20158 38881 48508 70500 80001 333 10275 59015 81080
AAXX 08184 67991 42980 00000 10316 20156 39561 48488 333 10359 59029
AAXX 08184 67755 NIL
AAXX 08184 67771 NIL
AAXX 08184 67773 NIL
AAXX 08184 67774 NIL
AAXX 08184 67785 NIL
AAXX 08184 67789 NIL
AAXX 08184 67855 NIL
AAXX 08184 67857 NIL
AAXX 08184 67863 NIL
AAXX 08184 67871 NIL
AAXX 08184 67875 NIL
AAXX 08184 67891 NIL
AAXX 08184 67895 NIL
AAXX 08184 67897 NIL
AAXX 08184 67899 NIL
AAXX 08184 67951 NIL
AAXX 08184 67963 NIL
AAXX 08184 67967 NIL
AAXX 08184 67971 41970 01405 10259 20153 38/// 48/// 70500 333 10318 5////
AAXX 08184 67976 NIL
AAXX 08184 67979 NIL
AAXX 08184 61202 32965 20000 10244 21074 39597 40154 81072 333 10288 59004 81365
AAXX 08184 61214 NIL
AAXX 08184 61223 32960 70406 10268 21001 39844 40142 80002 333 10301 59006 87075
AAXX 08184 61226 32960 60404 10285 20115 39831 40130 80002 333 10318 59015 86075
AAXX 08184 61230 32960 40810 10299 21110 39835 40106 80002 333 10316 59006 84075
AAXX 08184 61233 32960 60606 10284 21063 3//// 4//// 80002 333 10314 5//// 86075
AAXX 08184 61235 32960 60806 10312 21028 3//// 4//// 80002 333 10335 5//// 86075
AAXX 08184 61240 32960 60000 10290 21019 39794 40121 80002 333 10327 59012 86075
AAXX 08184 61250 32960 50000 10280 20019 3//// 4//// 80002 333 10310 5//// 85075
AAXX 08184 61257 32960 60808 10325 20035 30043 40137 85042 333 10343 59008 85365
AAXX 08184 61265 32970 50606 10294 21065 39814 40123 80002 333 10328 59002 85075
AAXX 08184 61270 32960 10404 10330 20024 3//// 4//// 80002 333 10355 5//// 81075
AAXX 08184 61272 32960 00000 10290 20072 39790 40117 333 10335 59008
AAXX 08184 61277 32960 00404 10300 20007 39800 40122 333 10330 59004
AAXX 08184 61285 32960 20806 10346 21007 39943 40091 80002 333 10369 59012 82075
AAXX 08184 61291 31960 00804 10308 20023 39686 40095 333 10332 59006
AAXX 08184 61293 32960 20406 10305 20055 39695 40103 80002 333 10333 59006 82075
AAXX 08184 61296 32965 50000 10313 20105 3//// 4//// 80002 333 10351 5//// 85075
AAXX 08184 61297 32960 73604 10303 20009 3//// 4//// 80002 333 10329 5//// 87075
AAXX 08181 60376 36/// /0502 10131 20092 333 10170
AAXX 08181 60593 36/// /0000 10120 333 10154
BBXX PHOB 08184 99141 10520 419// 01113 10245 20217 40184 51012 70000 80000 22264 00231 2//// 3//// 4//// 5//// 80225
BBXX VVZU 08180 99252 10565 41/97 /0000 10280 20253 40220 56000 70201 8//// 222// 2//// 3//// 4//// 5////
BBXX MZDL7 08183 99117 50149 41298 31416 10237 20187 40144 56015 70200 83100 22214 00250 20503 313// 40603 5//// 80205
BBXX A8ZP9 08183 99258 30426 41597 61023 10260 40100 54000 70222 83446 22223 00280 20202 314// 40603 5////
BBXX VRDI7 08184 99323 30162 41498 61319 10210 20195 40110 54100 7//22 86478 22273 0//// 21004 323// 41005 5//// 6//// 80200 ICE /////
BBXX A8IJ4 08180 99528 11774 41998 40105 11010 21026 40080 56008 70211 83043 22263 04061 21004 301// 41806 5//// 81016 /2015
BBXX SHIP 08183 99248 11331 41/98 31115 10205 20198 40276 56009 70181 8//// 22243 00220 80200
BBXX SHIP 08184 99377 11461 41/98 21724 10050 20050 40163 55/// 70011 82/// 22214 04130 20305 399// 4//// 80050
BBXX DDZF2 08184 99261 11229 41295 80540 10170 20154 40235 58005 76055 8/777 22215 00230 20808 305// 40804 80160
BBXX 3FMH7 08184 99337 11428 41598 60910 00/// 10130 20073 40215 53008 7//// 84363 9//// 22273 00180 1//// 2//// 3//// 4//// 5//// 6//// 80100
BBXX A8IJ4 08180 99528 11774 41998 40105 11010 21026 40080 56008 70211 83043 22263 04061 21004 301// 41806 5//// 81016
BBXX DDAC2 08180 99491 11512 41497 72003 11035 21085 40120 58010 7//22 86870 22253 04014 20200 3//// 4//// 5//// 81050
BBXX SHIP 08184 99185 11202 41598 70428 10240 20212 40149 54005 70222 87/// 22284 00250 2//// 3//// 4//// 80220
BBXX JPBN 08184 99336 11389 41/97 63016 10102 20005 40232 54000 70211 82130 22253 00201 1//03 20402 399// 4//02 70015
BBXX HZGH 08183 99057 10822 41397 70515 10270 20241 40150 51/// 72562 83460 22223 02275 20203 30500 40203 5//// 80250
BBXX UHFW 08181 99441 11363 42/98 93212 11050 40226 57020 22213 06040 20503
BBXX 41037 08181 99340 70775 46/// /0607 10161 40209 58007 91800 22200 00179 333 91208
BBXX 46087 08181 99485 71247 46/// /1106 10078 20077 40254 54000 91750 22200 00083 11205 20602 327// 41205 70024 333 91208 555 11067 22070 31653 41009 61749 106063 103062 105064 104064 103065 101066
BBXX 41029 08181 99328 70796 46/// /2203 1//// 91800 555 11032 22033
BBXX 46204 08181 99514 71288 46/// /1313 10076 40125 57015 22200 00080 11207 70035 333 91215
BBXX 46131 08181 99499 71250 46/// /1212 1//// 40232 57004 22200 00077 10503 70014 333 91214
BBXX VOXS 08184 99467 70480 41/90 92123 10052 2005/ 40096 56017 74544 89/// 22200 04015 20402 334// 40606 80050
BBXX 46183 08181 99536 71311 46/// /1610 10083 40096 52008 22200 00076 10904 70018 333 91213
BBXX WKAU 08184 99454 70514 41/93 92419 10070 2007/ 40090 54000 71244 89/// 22215 00040 20606 32420 40606 50404 6//// 80070 ICE /////
BBXX 46147 08181 99518 71312 46/// /1708 10080 40112 57004 22200 00075 11210 70048 333 91210
BBXX BAREU12 08184 99466 70378 46/// ///// 40253 57009 22264
BBXX DDZC2 08184 99492 71672 41598 41815 10006 21072 40110 54000 7//// 82098 22225 00040 2//02 303// 4//05 5//// 81020
BBXX SHIP 08184 99197 71154 41798 50207 10210 20164 40210 52010 70211 82146 22224 00310 20101 331// 40802 80180
BBXX SHIP 08184 99542 71643 41698 52124 11020 21086 40122 51020 70300 85345 22263 060400 20506 331// 40506 81040
BBXX 44098 08181 99428 70702 46/// ///// 1//// 91807 22200 00078 10902 20902 70008
BBXX 46242 08181 99332 71174 46/// ///// 1//// 91758 22200 00147 11301 20901 325// 41301 70006
BBXX 46231 08181 99327 71174 46/// ///// 1//// 91754 22200 00148 11303 21002 328// 41302 70014
BBXX 46221 08181 99339 71186 46/// ///// 1//// 91745 22200 00147 11302 21001 327// 41301 70009
BBXX 46222 08181 99336 71183 46/// ///// 1//// 91756 22200 00149 11202 21002 327// 41202 70011
BBXX 46213 08181 99403 71247 46/// ///// 1//// 91754 22200 00106 11205 21003 330// 41204 70023
BBXX 46239 08181 99363 71221 46/// ///// 1//// 91751 22200 00110 11305 20803 329// 41303 70023
BBXX 41115 08181 99184 70673 46/// ///// 1//// 91805 22200 10802 20802 70010
BBXX 41114 08181 99276 70802 46/// ///// 1//// 91816 22200 00224 11101 21001 70004
BBXX ELWR5 08180 99291 70460 41498 60308 10246 20192 40202 56018 70011 85448 22214 04221 20304 334// 40405 80209
BBXX A8L9 08183 99489 71300 41/94 /2134 10105 20096 40140 56015 710// 8//// 22254 00070 20412 319// 40707 5//// 80100
BBXX A8MQ9 08183 99232 70631 41/99 /0909 40200 56020 7//// 8///2 22214 2//// 399// 4////
BBXX 46223 08181 99335 71178 46/// ///// 1//// 91800 22200 00152 11302 20901 327// 41301 70008
BBXX 46237 08181 99378 71226 46/// ///// 1//// 91741 22200 00109 11303 21002 326// 41303 70015
BBXX 46229 08181 99438 71246 46/// ///// 1//// 91751 22200 00096 11105 21003 328// 41104 70024
BBXX 46240 08181 99366 71219 46/// ///// 1//// 91812 22200 00115 11302 20801 335// 41302 70011
BBXX 46237 08181 99378 71226 46/// ///// 1//// 91810 22200 00110 12003 21002 326// 42003 70016
BBXX 46114 08181 99364 71222 46/// ///// 1//// 91804 22200 00111 11304 21003 329// 41303 70021
BBXX 46241 08181 99330 71173 46/// ///// 1//// 91741 22200 00146 11502 21001 326// 41501 70008
BBXX 46248 08181 99461 71247 46/// ///// 1//// 91804 22200 00095 11106 21004 327// 41105 70031
BBXX 46244 08181 99409 71244 46/// ///// 1//// 91805 22200 00105 11104 21002 330// 41103 70019
BBXX 9HXC9 08184 99232 70729 41598 40521 10230 20123 40179 56003 7//00 84100 22235 06266 20502 3//// 40702 5//// 6//// 80165 ICE /////
BBXX 46207 08181 99509 71299 46/// /0903 10082 40123 57011 22200 00079 11207 70034 333 91204
BBXX PCBZ 08184 99273 70521 41/98 60516 10208 20165 40212 57021 70352 8426/ 22213 00220 20402 30531 40903 51205 80180 91304
BBXX DCDP2 08183 99409 70628 41998 13120 10120 20051 40152 51002 70222 81048 22264 00140 20505 322// 41208 80085
BBXX WXJ63 08183 99611 71464 41/94 82604 11026 21031 49780 52/// 773// 8//// 222// 00044 2//// 3//// 4//// 5//// 6//// 8//// ICE /////
AAXX 08184 40250 32960 02204 10060 21018 39370 40180 52012 333 10154
AAXX 08184 40265 32960 00000 10070 21005 39384 40191 53016 333 10130
AAXX 08184 40296 NIL
AAXX 08184 40310 NIL
BBXX WDF9323 08183 99100 71039 41398 40909 10270 2023/ 40130 52015 7//00 8326/ 22234 0//// 20302 3//// 4//// 5//// 6//// 80240 ICE /////
BBXX DDSC2 08183 99024 50815 41298 52207 10265 20208 40120 57015 70222 82168 22243 00243 20401 80225
BBXX IDDUK02 08184 99541 50366 46/// ///// 49905 222//
BBXX A8SF8 08184 99013 50814 41598 41806 10270 20206 40120 57010 70300 81178 22284 04260 20802 30000 80225
BBXX C6CU6 08183 99022 70430 41398 81015 10275 20262 40110 50000 70222 887// 22233 04274 20705 306// 40904 5//// 80266
BBXX C6XQ2 08183 99209 50389 41698 70704 10270 20226 40175 54000 70252 86307 22233 04250 20602 31010 40802 50602 80240
BBXX BATFR53 08184 99081 50958 44598 71410 10234 20174 40153 58009 70322 8746/ 22222 00244 202// 31422 405// 515//
BBXX V2QD4 08183 99353 31667 41798 52016 10180 20164 40105 51010 70311 83163 22224 00190 20301 318// 41004
BBXX ZMENA 08184 99411 31733 46/// ///// 10197 20112 40058 52008 22241
BBXX ZMFR 08184 99440 51773 43/// /0524 10157 20153 40178 57010 22263 00158
BBXX A8KO3 08180 99017 31086 41597 83214 10250 20175 40090 54000 76066 872// 22234 00270 20303 80200
BBXX SHIP 08180 99047 10877 41398 40907 10280 20267 40135 51005 70111 83361 22252 00292 80270
BBXX ZCAO7 08184 99057 31254 41/98 53206 10282 20237 40067 56013 71322 8//// 22284 2//// 80251
BBXX SHIP 08184 99047 11467 41/96 60419 10267 20231 40077 54000 76011 8//// 22283 06200 10804 20202 303// 41004
BBXX 9V8043 08184 99265 31100 41697 71226 10220 20189 40138 570207//118770 0 22274 20805 334// 40805 80200
BBXX MCLJ8 08184 99158 31510 41498 20809 10260 20231 40086 57022 70250 82100 22273 20802 309// 40802 5//// 80240
BBXX LF4C 08184 99584 10019 41598 72010 10074 20050 40171 57007 76062 89/// 22200 00069 10804 70020 333 91114
BBXX LF5T 08184 99660 10081 41597 /0802 10042 21020 40144 52008 725// 22200 10907 70033 333 91115
BBXX LF4B 08184 99606 10037 47/98 /1207 10051 40164 57004 700// 22200 00046 10906 70028 333 91115
BBXX LF3F 08184 99643 10078 43/// /2305 10043 21025 40156 52004 22200 04086 11108 70039 333 91117
BBXX LF3N 08184 99653 10073 41698 42201 10041 21023 40148 52005 70122 8//// 22200 00089 10904 70018
BBXX 3ERR2 08184 99635 10053 43/// /2211 10043 21001 40148 57006 22200 11005 70025 333 91111
BBXX A8QJ7 08184 99481 70210 41298 82215 10120 20101 40254 55009 7//00 84708 22263 20602 3//// 4//// 5//// 80110
BBXX DCPI2 08183 99374 10107 41/98 /2926 10165 20084 40190 56015 70311 8//// 22224 00140 2//// 80120
BBXX PFBE 08183 99450 70342 41598 53021 10125 20054 40280 53003 70111 8216/ 22224 00140 20603 80089 91304
BBXX V2JU 08180 99346 70200 41598 80607 10175 20106 40250 52010 7//22 8247/ 22264 29902 303// 40605 5//// 80135
BBXX 2BLY5 08183 99379 70145 41298 60809 10163 20131 40256 55000 7//// 84768 22214 00179 20201 304// 40504 80145
BBXX BATUK01 08184 99604 70005 44/96 81915 10062 20027 40117 58024 725// 8//// 22212 00092
BBXX 61002 08184 99421 10047 46/// ///30 10131 2//// 40224 52006 22200 00133 10705 70027 555 1/037
BBXX SHIP 08184 99491 70059 41297 82916 10110 20101 40314 54000 70522 887// 22224 04110 2//// 80105
BBXX KSDF 08184 99343 70093 41398 60607 10172 20154 40230 50002 70322 8559/ 22253 0//// 20301 330// 41203 5//// 6//// 80161 /////
BBXX 61001 08184 99434 10078 46/// /0707 10126 20100 40142 52002 22200 00134 10802 70010
BBXX BATFR03 08184 99500 70006 46/// /3316 10104 20072 40300 22284
BBXX BATFR58 08184 99431 10062 46/// /2817 10124 20012 40157 53017 22200 00144
BBXX BATEU06 08184 99460 70251 46/// /1915 10139 20124 40239 56016 22263 00142
BBXX BATEU08 08184 99571 70155 46/// /3429 11063 21230 40061 55003 22262
BBXX BATEU04 08184 99569 10108 46/// /0212 10019 21021 40176 51021 22253
BBXX BATFR52 08184 99499 70005 46/// /3110 10104 20069 40303 51014 22243 00112
BBXX BATFR46 08184 99387 10004 46/// /2014 10142 20089 40248 56009 22253 00159
BBXX BATEU02 08184 99548 70174 46/// /2726 10087 20079 40133 53022 22212 00107
BBXX BATEU09 08184 99382 10151 46/// /2507 10139 20077 40162 57030 22200 00167
BBXX BATFR24 08184 99427 10095 46/// /3005 10120 20040 40166 22213 00139
BBXX BATFR05 08184 99360 70052 46/// /1310 10152 20102 40252 53024 22223 00155
BBXX BATFR42 08184 99438 70038 46/// /3614 10114 20097 40315 22284 00149
BBXX BATFR12 08184 99490 70069 46/// /3007 10110 20107 40327 53005 22231 00130
BBXX BATFR54 08184 99392 70098 46/// /0213 10149 20105 40259 53009 22282 00149
BBXX BATFR15 08184 99467 70036 46/// /0105 10110 20055 40325 53013 22264 00132
BBXX BATFR04 08184 99579 70059 44/97 82430 10099 20080 40136 58019 702// 8//// 22282 00097 20702 320// 40902 5//// 60000 ICE 0////
BBXX BAREU04 08184 99506 70126 46/// ///// 40295 57001 22222
BBXX BATFR60 08184 99493 70046 46/// /2617 10112 20104 40314 51013 22252 00109
BBXX BAREU06 08184 99361 70066 46/// ///// 40238 22263
BBXX BAREU11 08184 99405 70291 46/// ///// 40269 57004 22253
BBXX TESTFR9 08184 99499 70005 46/// /3111 10100 29084 40326 52015 22234
BBXX BAREU56 08184 99379 10112 46/// ///// 40178 52003 22232
BBXX 2AUO5 08183 99606 10016 41597 51718 10071 20017 40147 58012 70211 854// 22241 20402 316// 40804 80049
BBXX 62103 08184 99499 70029 46/// /3115 10110 20099 40300 53003 22200 00114 10903 70013
BBXX MCZN2 08184 99562 10064 41298 43414 10060 21114 40190 52030 70200 8272/ 22243 20503 333// 40504 5//// 80010
BBXX 62095 08184 99531 70159 46/// /2122 10115 20102 40192 58010 22200 00110 10810 70049 333 90710 91135
BBXX 63118 08183 99591 10016 41497 82015 10069 40160 76366 8/7// 22200 10705 70025
BBXX 62305 08184 99504 10000 46/98 /2915 10103 20064 40303 52009 22200 00111 10601 70004
BBXX 62304 08184 99511 10018 46/98 /2915 10093 20044 40277 50007 22200 00101 10701 70005
BBXX 62027 08184 99491 70022 46/// /3411 1//// 2//// 40306 53003 22200 00106 11303 327// 70013
BBXX 62170 08184 99514 10020 46/97 /2818 10091 20052 40274 51011 22200 00101 10601 70007
BBXX 62146 08184 99572 10021 47697 /2308 10071 20040 40187 58002 762// 22200 10704 70020
BBXX 62094 08184 99517 70067 46/// /2311 10106 20096 40296 53006 22200 00103 10603 70014
BBXX 62103 08184 99499 70029 46/99 /3219 10109 20096 40296 55001 22200 00115 10903 70013 333 90710 91126
BBXX 64045 08184 99591 70117 46/// /2129 10103 20094 40024 58024 22200 00099 10812 70060 333 90710 91143
BBXX 62105 08184 99554 70121 46/// /2327 10108 20095 40162 56013 22200 00105 10709 70043 333 90710 91136
BBXX PJGO 08184 99571 10022 47/97 /2306 10070 40190 57003 761// 22200
BBXX 62104 08184 99574 10013 47697 /2012 10075 20043 40179 58007 740// 22200
BBXX 62164 08184 99572 10008 47395 /2015 10099 20066 40184 58008 700// 22200 00086 10604 70018
BBXX 62116 08184 99576 10011 47/97 /1914 10073 20051 40178 57004 752// 22200
BBXX 62140 08184 99573 10013 46/// /32// 10075 20050 40184 58004 22200
BBXX 62153 08184 99573 10020 47596 /2311 10072 20044 40187 58002 761// 22200 10604 70021
BBXX 62122 08184 99573 10016 47697 /2009 10083 20052 40186 58003 762// 22200 10604 70018
BBXX 62155 08184 99577 10007 47396 /2016 10076 20053 40173 58011 753// 22200 10603 70017
BBXX 62118 08184 99577 10009 47497 /1815 10091 20057 40166 58010 762// 22200 10603 70017
BBXX 62102 08184 99579 10018 46/// /2210 10074 20032 40178 58004 22200 10704 70021
BBXX 62143 08184 99577 10018 47597 /2106 10073 20047 40179 58005 751// 22200 10604 70019
BBXX 62117 08184 99579 10000 47294 /1917 10077 20057 40163 57014 753// 22200 10503 70013
BBXX 62134 08184 99580 10014 47497 /2214 10066 20034 40173 58007 700// 22200 10704 70020
BBXX 62114 08184 99583 10000 46/// /1818 10069 20056 40153 57018 22200
BBXX 62121 08184 99535 10027 46/// /2610 10071 20051 22200
BBXX 62142 08184 99530 10021 47697 /2811 10082 20056 40249 51005 700// 22200 10604 70021
BBXX 62145 08184 99531 10028 47998 /2610 10069 20050 40251 51006 700// 22200 10604 70022
BBXX 62123 08184 99563 10022 47997 /2410 10080 20045 40201 50003 762// 22200
BBXX ZQSD5 08184 99583 10007 46/// /1701 10070 20043 40171 57009 22200 10905 70025
BBXX 62148 08184 99536 10015 46/// /2408 10076 20061 40246 50001 22200
BBXX 62144 08184 99534 10017 47597 /2510 10075 20057 40248 50000 700// 22200 10604 70019
BBXX 62150 08184 99536 10007 47498 /2408 10080 20060 40251 58002 700// 22200 10704 70020
BBXX 62149 08184 99537 10011 47497 /2413 10085 20062 40243 50000 751// 22200 10604 70018
BBXX 62120 08184 99564 10021 47797 /2510 10080 20057 40199 50000 751// 22200
BBXX 62127 08184 99540 10007 46/// ///// 10080 20064 40237 58001 22200 10704 70019
BBXX 62131 08184 99539 10012 46/// /25// 10080 20064 40238 58001 22200
BBXX 62165 08184 99540 10009 47598 /2611 10080 20063 40240 58002 700// 22200 10604 70022
BBXX 62132 08184 99564 10020 46/// /2610 10078 20044 40199 58004 22200
BBXX 62152 08184 99570 10018 47/96 /1907 10077 20044 40193 58002 740// 22200 10504 70019
BBXX MWYG6 08184 99603 70040 47296 /2221 10108 761// 22200
BBXX 62133 08184 99571 10009 46/// /2113 10082 20047 40184 58006 22200
BBXX 64041 08184 99607 70026 47295 /1524 10075 20068 40068 57038 763// 22200 10806 70032
BBXX 62154 08184 99564 10022 46/// /2409 10076 20048 40197 50002 22200
BBXX 62119 08184 99570 10019 47796 /2508 10073 20043 40192 58002 740// 22200 10604 70018
BBXX 63117 08184 99613 10011 47598 /1722 10065 21001 40138 57013 700// 22200
BBXX 63115 08184 99616 10013 47598 /1519 10092 20008 40126 57020 700// 22200 10806 70029
BBXX 63107 08184 99611 10017 46/// /1618 10064 40138 57016 22200
BBXX 63103 08184 99612 10011 46/// /1721 10067 20006 40130 57020 22200 10705 70025
BBXX 63101 08184 99612 10009 46/// /1821 10065 20023 40132 57016 22200
BBXX 63104 08184 99612 10016 47997 /1619 10073 21004 40136 57016 700// 22200
BBXX 63112 08184 99611 10010 46/// /1721 10072 20006 40127 57019 22200 10706 70029
BBXX 63108 08184 99608 10017 47698 /1818 10055 21012 40134 57016 700// 22200 10904 70022
BBXX 63113 08184 99610 10017 46/// /1517 10065 21011 40140 57014 22200 10805 70027
BBXX 63106 08184 99610 10017 46/// /1617 10060 40140 57015 22200
BBXX 63055 08184 99606 10016 47998 /1415 10064 20004 40139 57017 700// 22200 10805 70024
BBXX 62129 08184 99584 10003 46/// ///// 10069 20052 40159 57012 22200
BBXX 62113 08184 99584 10002 47396 /1917 10068 20048 40158 57013 753// 22200
BBXX 62128 08184 99587 10014 47496 /1911 10065 20032 40164 57007 762// 22200 10805 70023
BBXX 63105 08184 99610 10017 47998 ///// 10067 21011 40139 57015 700// 22200
BBXX 63110 08184 99595 10015 47496 /1910 10062 20034 40152 57009 762// 22200 10805 70025
BBXX 63057 08184 99592 10015 47496 /1914 10064 20021 40156 57009 762// 22200 10805 70023
BBXX 63056 08184 99597 10016 47496 /1715 10066 20018 40147 57005 740// 22200 10805 70027
BBXX 63109 08184 99596 10015 46/// /2114 10082 20032 40151 57009 22200
BBXX 62111 08184 99580 70003 46/// /2118 10074 20063 40158 57018 22200 10503 70014
BBXX PJAI 08184 99581 70014 47698 /2115 10087 20056 40144 57017 700// 22200
BBXX 62112 08184 99584 70002 47393 /1819 10070 20056 40149 57022 762// 22200
BBXX 62107 08184 99501 70061 46/// /2810 10111 20104 40317 53008 22200 00114 11004 70018
BBXX DDSB2 08183 99405 70290 41/98 51814 10167 20148 40270 54000 7//11 84/41 22254 29903 80155
BBXX PBHZ 08183 99661 10367 41296 72210 10023 21021 40082 52/// 72822 876// 22263 06047 20501 30000 80006
BBXX 62303 08184 99516 70051 46/// /2509 10111 20099 40292 53003 22200 00107 10603 70014
BBXX 62442 08184 99490 70164 46/// /2119 1//// 2//// 40294 55002 22200 00118 333 90710 91125
BBXX 62301 08184 99524 70047 46/// /2211 10089 20083 40278 50001 22200 00083 10502 70010
BBXX 62029 08184 99487 70125 46/// /2008 10117 20108 40316 55002 22200 00126 10805 70026
BBXX 62001 08184 99452 70050 46/// /0411 10119 20083 40322 53004 22200 00131 10906 70029
BBXX 62081 08184 99510 70134 46/// ///// 10123 20081 40280 55004 22200 00115 10706 70032
BBXX 64045 08184 99591 70117 46/// /2229 10103 20094 40024 58024 22200 00099 10812 70060 333 90710 91143
BBXX 62105 08184 99554 70121 46/// /2327 10109 20096 40162 56013 22200 00105 10709 70043 333 90710 91136
BBXX 62163 08184 99475 70084 46/// /1203 10095 20072 40336 53005 22200 00123 11005 70026
BBXX 64046 08184 99605 70049 46/// /2318 10092 20087 40052 56017 22200 00076 10707 70033
BBXX WAHP 08184 99356 70168 41597 80719 10180 20148 40280 54000 7//22 88/// 22225 00170 20502 307// 40402 5//// 6//// 80160 ICE /////
BBXX DFVY2 08184 99349 70160 41/98 70616 10185 20136 40225 52006 70222 8567/ 22213 00180 10602 70010 80155
BBXX BATEU00 08184 99624 30196 46/// /0307 11008 21010 49599 56037 22283
AAXX 08184 89050 41598 73220 10022 21005 49930 52004 70211 87100
AAXX 08184 89512 32998 01702 10013 21129 39575 49720 57001 333 10021
AAXX 08184 89574 41498 80710 11002 21063 49795 52019 72272 8261/
AAXX 08184 89592 42498 51211 11039 21070 49818 52009 85500
AAXX 08184 89606 42998 82006 11322 21372 36260 47789 53007 8807/ 333 11253
AAXX 08181 55299 32880 80000 11105 21178 35815 57002 884// 333 00103 11039
AAXX 08181 55591 32780 60000 11015 21185 36485 52004 82402 333 05104 10059
AAXX 08181 56739 32575 13401 10059 20034 38392 57003 81400 333 05101 10169
AAXX 08181 56951 32975 60901 10073 20046 38551 54000 80002 333 00000 10199
AAXX 08181 56964 32970 03201 10097 20080 38751 40196 57005 333 00000 10218
AAXX 08181 57328 31957 50000 10058 20024 39869 40291 57006 71000 85040 333 10101
AAXX 08181 57411 31920 80000 10062 20048 39913 40295 57006 71000 8807/ 333 10087
AAXX 08181 57447 11965 82501 10044 20029 39750 40311 57011 69901 70060 8807/ 333 10071
AAXX 08181 57662 32961 82001 10039 21048 30131 40321 57008 8807/ 333 10056
AAXX 08181 57745 32960 80402 10050 21035 39973 40311 57008 8807/ 333 10091
AAXX 08181 57972 31757 80000 10048 20016 30084 40318 57005 71000 885// 333 10050
AAXX 08181 58203 31956 80401 11034 21054 30294 40337 52002 71000 80007 333 10076
AAXX 08181 58314 32960 61401 10029 20019 30212 40322 57001 86040 333 10088
AAXX 08181 58424 31950 70702 10045 20010 30294 40321 57004 71000 8707/ 333 10063
AAXX 08181 59023 11458 80701 10073 20069 39969 40290 57004 69901 76060 887// 333 10102
AAXX 08181 59417 11465 81102 10092 20081 30106 40265 57008 69911 76060 887// 333 10112
AAXX 08181 59985 32570 50406 10222 20172 30181 40186 57014 85800 333 10254
AAXX 08181 59995 NIL
AAXX 08184 94996 456// 21905 10176 20085 39978 40113 53011 91830
AAXX 08184 94996 456// 21905 10176 20085 39978 40113 53011 91830
BBXX 46185 08181 99524 71298 46/// /1610 10079 40124 54000 22200 00071 11206 70032 333 91212
AAXX 08181 80001 11470 20704 10280 20243 30146 40147 60021 70151 81230 333 5630/ 58007 81820
AAXX 08181 80002 32570 20605 10288 20239 82100 333 562// 82820
AAXX 08181 80009 31560 32302 10304 20229 30103 40108 70500 81804 333 56090 58001 81820 83070
AAXX 08181 80022 31567 60206 10302 20243 30112 40114 70500 82101 333 561/9 58004 82820 84070
AAXX 08181 80028 31960 40407 10295 20220 30089 40124 70500 80005 333 56//9 59001
AAXX 08181 80035 31465 31106 10312 20214 30136 40141 70521 83100 333 562// 58008 83818
AAXX 08181 80036 31568 30607 10335 20198 70500 81802 333 560/0 81820 83270
AAXX 08181 80063 31565 82803 10308 20237 70522 8341/ 333 5660/ 83623 86460
AAXX 08181 80084 31559 83605 10288 20234 70522 82806 333 564/9 82825 86270
AAXX 08181 80091 31465 20000 10308 20227 70500 82100 333 569// 82810
AAXX 08181 80094 31464 52806 10236 20178 38816 70522 85800 333 567// 58003 85817
AAXX 08181 80097 32470 53603 10287 20223 39766 40113 83832 333 56999 58002 83818
AAXX 08181 80099 31466 40604 10310 20206 39932 40078 70510 84801 333 563/9 57892 58002 84817
AAXX 08181 80110 31670 60405 10268 20118 38510 70522 83205 333 560/9 57895 58000 83835 85070
AAXX 08181 80112 31570 50604 10206 20104 37906 70522 84201 333 560/9 57893 58002 84820
AAXX 08181 80139 32570 30507 10325 20214 83100 333 562// 83823
AAXX 08181 80144 31460 42202 10290 20227 70522 84200 333 560// 84818
AAXX 08181 80210 11462 62302 10245 20183 38669 60061 70565 83235 333 56550 57891 58009 83815 83358
AAXX 08181 80211 01570 60000 10246 20180 69921 70522 84280 333 5612/ 69927 84825 83360
AAXX 08181 80214 31460 81105 10276 20205 39122 70521 83831 333 56500 58004 83817
AAXX 08181 80222 31568 73303 10183 20114 37520 70522 86276 333 56999 57896 58008 86820
AAXX 08181 80234 32562 70302 10304 20201 39613 40100 84531 333 56239 58005 84623 83359
AAXX 08181 80252 NIL
AAXX 08181 80259 31560 71204 10263 20198 39059 70522 85230 333 5614/ 57863 58009 85825 84360
AAXX 08181 80315 11357 70000 10249 20219 39609 40111 60011 71565 83270 333 5655/ 57864 58020 82807 81815 86361
AAXX 08181 80342 11450 83102 10190 20165 38227 69931 74052 8683/ 333 5643/ 58011 86812 84358
AAXX 08181 80372 NIL
AAXX 08181 80398 01360 82902 10256 20248 30035 40131 60081 72165 8677/ 333 5699/ 58025 60077 83707 85610 87458
BBXX 46185 08181 99524 71298 46/// /1610 10079 40124 54000 22200 00071 11206 70032 333 91212
AAXX 08181 47008 42570 20000 11078 21092 30224 40281 53004 82500
AAXX 08181 47014 42950 00000 11217 21229 39896 40344 52002
AAXX 08181 47016 42970 00000 11202 21228 39415 40334 52005
AAXX 08181 47020 42965 80000 11160 21173 39936 40349 80004
AAXX 08181 47025 42962 03201 11050 21104 30247 40277 54000
AAXX 08181 47035 42965 00000 11095 21150 30308 40317 54000
AAXX 08181 47041 NIL
AAXX 08181 47055 42970 00000 11022 21077 30245 40292 52005
AAXX 08181 47058 41902 91401 11069 21085 30277 40327 53008 74744 89///
AAXX 08181 47069 11556 80000 11018 21032 30211 40315 53006 69901 71072 885//
AAXX 08181 47003 42980 53202 11046 21157 30266 40270 54000 80002
AAXX 08181 47005 42980 30000 11173 21223 38625 57001 80002
AAXX 08181 47022 42975 00000 11184 21243 38871 53011
AAXX 08181 47028 42962 01802 11113 21141 30218 40320 52010
AAXX 08181 47031 NIL
AAXX 08181 47037 42970 00000 11122 21149 30187 40320 52005
AAXX 08181 47039 42960 30000 11131 21158 30128 40335 52012 80001
AAXX 08181 47046 42969 80000 11079 21110 30241 40265 53005 80002
AAXX 08181 47050 42965 00000 11108 21121 30280 40315 52002
AAXX 08181 47052 42965 60000 11080 21098 39973 40331 52005 86040
AAXX 08181 47060 41540 80000 11064 21072 30252 40314 58002 71022 884//
AAXX 08181 47061 42980 03204 10006 21067 30227 40272 57002
AAXX 08181 47065 41940 80000 11058 21069 30254 40323 52003 71022 84012
AAXX 08181 47067 41560 80000 11042 21051 30214 40304 52007 71022 885//
AAXX 08181 47068 11540 80902 11016 21030 30270 40306 53002 69901 77077 885//
AAXX 08181 47070 42970 80000 11031 21051 30230 40321 53009 8803/
AAXX 08181 47075 42580 82301 11044 21064 39808 40255 52005 885//
AAXX 08184 41263 36/// /3002 10208 20058 39522 40216 333 0E020 10284 58008
AAXX 08181 47101 31658 60001 11072 21100 30214 40316 52007 71022 85500
AAXX 08181 47105 369// /2509 11002 21101 30243 40276 53003
AAXX 08181 47108 31656 62903 11015 21072 30203 40313 52005 70522 86500
AAXX 08181 47115 32575 61603 10020 21056 39978 40256 52007 85500 333 92032
AAXX 08181 47133 31650 41801 11041 21067 30229 40319 50003 71011 84500
AAXX 08181 47138 32961 02006 10004 21071 30286 40289 52008 333 92022
AAXX 08181 47159 32961 03615 10010 21099 30189 40277 50003 333 92024
AAXX 08181 47165 32662 40501 11010 21045 30258 40307 57004 84500 333 92021
AAXX 08181 47168 32963 00203 10007 21088 30212 40294 52008 333 92021
AAXX 08181 47184 32670 63409 10049 21022 30282 40308 55001 86500 333 92023
AAXX 08181 47090 32960 23402 11006 21105 30254 40277 52009 80001 333 92011
AAXX 08181 47095 31556 60001 11028 21086 30118 40316 52008 70522 86500
AAXX 08181 47097 329// /2701 11032 21071 30216 40317 52005
AAXX 08181 47098 329// /2301 11031 21079 30172 40313 52008
AAXX 08181 47099 329// /0000 11029 21078 30278 40316 52006
AAXX 08181 47100 32460 22716 11072 21115 39333 40295 56004 81501
AAXX 08181 47102 31656 82906 10008 21033 30127 40311 53002 70522 8552/
AAXX 08181 47104 32962 21803 11014 21105 30174 40275 52006 80001
AAXX 08181 47106 329// /2511 10003 21102 30223 40274 53007
AAXX 08181 47112 31656 63403 11001 21043 30227 40314 52005 70522 86500 333 92011
AAXX 08181 47114 31658 60001 11040 21096 30120 40312 52004 70522 85500
AAXX 08181 47119 31640 60000 11028 21049 30271 40315 52004 71022 86500
AAXX 08181 47121 329// /0001 11048 21099 30005 40315 52006
AAXX 08181 47127 329// /0000 11057 21079 30169 40319 52005
AAXX 08181 47129 31630 60701 11046 21057 30284 40322 52005 71022 85500
AAXX 08181 47130 32962 02003 11008 21110 30214 40278 53010 333 92021
AAXX 08181 47131 31956 01801 11037 21061 30243 40317 51006 71000
AAXX 08181 47135 329// /2301 11042 21074 30003 40317 52007
AAXX 08181 47136 31958 40000 11033 21087 30127 40307 52010 70544 80001
AAXX 08181 47137 329// /1803 11031 21083 30187 40311 52005
AAXX 08181 47140 31658 53401 11020 21048 30286 40316 54000 71000 85500 333 92011
AAXX 08181 47143 32961 02705 11003 21082 30228 40310 50003
AAXX 08181 47145 31657 30000 11059 21072 30283 40311 52005 71011 83500
AAXX 08181 47146 31656 40001 11034 21061 30248 40317 51002 71022 84500
AAXX 08181 47150 31657 60202 11027 21056 30293 40313 52002 71022 85500
AAXX 08181 47152 32962 03407 10004 21078 30239 40283 50005
AAXX 08181 47154 329// /2907 11014 21071 30245 40308 52005
AAXX 08181 47155 31959 01105 10008 21084 30244 40291 50002 70500
AAXX 08181 47156 32662 40205 11007 21055 30221 40314 55001 84500
AAXX 08181 47157 32962 02505 11052 21086 30014 40299 51003
AAXX 08181 47162 32962 00507 10012 21080 30248 40290 50007 333 92023
AAXX 08181 47169 32661 23414 10046 21032 30209 40305 56005 82500 333 92034
AAXX 08181 47170 32661 22303 10001 21069 30261 40306 54000 82500 333 92022
AAXX 08181 47171 329// /0000 11022 21050 30258 40316 54000
AAXX 08181 47172 329// /0000 11010 21043 30239 40308 55001
AAXX 08181 47173 329// /0000 11052 21071 30199 40317 50002
AAXX 08181 47174 32962 02905 11009 21066 30092 40302 52004
AAXX 08181 47175 32561 20207 11024 21055 39711 40308 57002 82500 333 92023
AAXX 08181 47185 32665 63619 10058 21011 30201 40294 57005 86500 333 92025
AAXX 08181 47188 32665 61806 10047 21024 30266 40288 57003 86500 333 92022
AAXX 08181 47189 32670 60203 10072 20037 30214 40275 55003 85500 333 92022
AAXX 08181 47192 31958 00703 11002 21088 30259 40298 50003 70500
AAXX 08181 24790 41998 80000 11400 21421 39400 40339 58001 77172 84037
AAXX 08181 24988 42999 83302 11226 21302 39944 40217 54000 80007
AAXX 08181 25378 32998 60000 11297 21335 39996 40033 53001 82031 333 21305 48004 91103
AAXX 08181 25503 41997 80802 11363 21384 30150 40296 53003 77172 86037
AAXX 08181 25705 41996 82401 11397 21416 39930 40314 53005 77172 83037
AAXX 08181 25927 42998 63103 11334 21356 30197 40205 52001 80001
AAXX 08181 25932 42999 02501 11261 21325 30128 40170 52006
AAXX 08181 31152 42997 00000 11475 21512 39900 40388 52003
AAXX 08181 31174 41997 80000 11270 21295 30252 40165 53003 77173 80007
AAXX 08181 31489 41997 73103 11227 21252 30134 40261 53025 77171 80007
AAXX 08181 31866 42999 00402 11113 21222 30192 40197 53012 333 91114
AAXX 08181 31959 42998 61401 11104 21177 30179 40224 54000 80004 333 91112
AAXX 08181 31989 42999 30102 11086 21226 30190 40246 52002 80009
AAXX 08181 32027 41999 73411 11205 21246 30186 40197 52009 73632 84032 333 91013 91114
AAXX 08181 32076 41496 80302 11143 21156 30143 40154 53005 78582 889// 333 91004 91107
AAXX 08181 32099 42998 01502 11102 21122 30134 40142 57015 333 91003 91107
AAXX 08181 32121 41597 83606 11063 21122 30121 40144 57002 78582 889// 333 91009 91109
AAXX 08181 32213 41597 50000 11058 21069 30060 40125 53004 70282 83530
AAXX 08181 32287 NIL
AAXX 08181 32408 42999 00102 11264 21289 30091 40133 53002
AAXX 08181 32509 41998 03208 11119 21214 30083 40118 53008 73630 333 91012 91113
AAXX 08181 32594 42598 20805 11134 21169 30079 40117 54000 81501
AAXX 08181 22438 12569 72009 11019 21037 30070 40091 52031 69940 87500 333 11006
AAXX 08184 40255 32960 00000 10074 20033 39452 40176 52010 333 10132
AAXX 08184 40260 32960 02204 10076 21037 39377 40168 52020 333 10160
AAXX 08184 40270 31540 22007 10090 21008 39261 40167 52013 70500 81100 333 10/// 82830
AAXX 08184 40272 31958 02404 10076 21009 39339 40191 52018 70500 333 10124
AAXX 08184 40290 NIL
AAXX 08184 40340 32760 20107 10174 20000 40172 52013 82500 333 10212 82656
BBXX NIL
BBXX NIL
BBXX NIL
BBXX NIL
AAXX 08184 40250 32960 02204 10060 21018 39370 40180 52012 333 10154
AAXX 08184 40265 32960 00000 10070 21005 39384 40191 53016 333 10130
AAXX 08184 40296 NIL
AAXX 08184 40310 NIL
BBXX NIL
BBXX BATFR19 08184 99024 30081 46/// /1809 10259 20229 40118 53009 22212 00259
BBXX DAPG 08181 99067 30393 41/97 20308 10275 20241 40110 52020 70200 821// 22200 2//01 3//// 4//// 5//// 80250
BBXX V2OG2 08183 99108 31032 41496 73015 10275 20248 40093 57005 76162 87700 22223 20401 332// 40504 80255
BBXX DBBT 08181 99233 30101 46/// /1711 10203 20170 40140 52002 22273 00203
BBXX 9KWP 08183 99250 31082 41597 61435 10220 20172 40130 54000 70222 83132 22233 2//// 80190
BBXX A8ZP9 08183 99258 30426 41597 61023 10260 40100 54000 70222 83446 22223 00280 20202 314// 40603 5////
BBXX MIBR 08184 99264 30089 41498 51619 10200 20176 40171 52020 70222 85200 22274 00200 20302 318// 40606 5//// 80185
BBXX DILS 08184 99266 30449 41/97 /2129 10241 20226 40151 50/// 7//11 8//// 22214 04231 20104 80231
BBXX V7OX3 08181 99341 30257 41/97 /1310 10230 20199 40100 54000 702// 8//// 22223 04250 21003 3//// 4//// 5//// 80210
BBXX A8RV9 08184 99363 30379 41597 41009 10213 20145 40161 53/// 70222 83763 22224 20502 320// 41608 5//// 80170
BBXX DBLK 08181 99364 30162 41498 12105 10181 20141 40170 52011 70100 81100 22252 04208 20201 32318 40905 50804
BBXX BATFR08 08184 99496 30683 46/// /3028 10062 20039 49822 51012 22222 00054
AAXX 08181 80001 11470 20704 10280 20243 30146 40147 60021 70151 81230 333 5630/ 58007 81820
AAXX 08181 80002 32570 20605 10288 20239 82100 333 562// 82820
AAXX 08181 80009 31560 32302 10304 20229 30103 40108 70500 81804 333 56090 58001 81820 83070
AAXX 08181 80022 31567 60206 10302 20243 30112 40114 70500 82101 333 561/9 58004 82820 84070
AAXX 08181 80028 31960 40407 10295 20220 30089 40124 70500 80005 333 56//9 59001
AAXX 08181 80035 31465 31106 10312 20214 30136 40141 70521 83100 333 562// 58008 83818
AAXX 08181 80036 31568 30607 10335 20198 70500 81802 333 560/0 81820 83270
AAXX 08181 80063 31565 82803 10308 20237 70522 8341/ 333 5660/ 83623 86460
AAXX 08181 80084 31559 83605 10288 20234 70522 82806 333 564/9 82825 86270
AAXX 08181 80091 31465 20000 10308 20227 70500 82100 333 569// 82810
AAXX 08181 80094 31464 52806 10236 20178 38816 70522 85800 333 567// 58003 85817
AAXX 08181 80097 32470 53603 10287 20223 39766 40113 83832 333 56999 58002 83818
AAXX 08181 80099 31466 40604 10310 20206 39932 40078 70510 84801 333 563/9 57892 58002 84817
AAXX 08181 80110 31670 60405 10268 20118 38510 70522 83205 333 560/9 57895 58000 83835 85070
AAXX 08181 80112 31570 50604 10206 20104 37906 70522 84201 333 560/9 57893 58002 84820
AAXX 08181 80139 32570 30507 10325 20214 83100 333 562// 83823
AAXX 08181 80144 31460 42202 10290 20227 70522 84200 333 560// 84818
AAXX 08181 80210 11462 62302 10245 20183 38669 60061 70565 83235 333 56550 57891 58009 83815 83358
AAXX 08181 80211 01570 60000 10246 20180 69921 70522 84280 333 5612/ 69927 84825 83360
AAXX 08181 80214 31460 81105 10276 20205 39122 70521 83831 333 56500 58004 83817
AAXX 08181 80222 31568 73303 10183 20114 37520 70522 86276 333 56999 57896 58008 86820
AAXX 08181 80234 32562 70302 10304 20201 39613 40100 84531 333 56239 58005 84623 83359
AAXX 08181 80252 NIL
AAXX 08181 80259 31560 71204 10263 20198 39059 70522 85230 333 5614/ 57863 58009 85825 84360
AAXX 08181 80315 11357 70000 10249 20219 39609 40111 60011 71565 83270 333 5655/ 57864 58020 82807 81815 86361
AAXX 08181 80342 11450 83102 10190 20165 38227 69931 74052 8683/ 333 5643/ 58011 86812 84358
AAXX 08181 80372 NIL
AAXX 08181 80398 01360 82902 10256 20248 30035 40131 60081 72165 8677/ 333 5699/ 58025 60077 83707 85610 87458
AAXX 08184 82678 32596 60903 10366 20182 39940 40077 83102 333 58016
AAXX 08184 82784 32595 61804 10348 20211 39632 40078 86100 333 59005
AAXX 08184 82791 32599 60910 10354 20197 39802 40076 86200 333 58002
AAXX 08184 82983 32598 41407 10346 20230 39673 40077 84100 333 59003
AAXX 08184 82098 32597 30706 10334 20228 30080 40097 82460 333 58006
AAXX 08184 82246 21597 62002 10307 20270 39913 40110 72922 83721 333 59001 60081
AAXX 08184 82460 32597 63201 10351 20235 30061 40090 85200 333 59002
AAXX 08184 82562 32598 43603 10335 20247 39955 40062 84200 333 59001
AAXX 08184 82571 32497 21406 10331 20232 39907 40079 82200 333 59001
AAXX 08184 82765 32598 52303 10310 20251 39880 40118 82230 333 58001
AAXX 08184 82141 32698 50505 10303 20255 30086 40098 85030 333 58007
AAXX 08184 82145 32598 50902 10322 20232 30049 40090 85200 333 58002
AAXX 08184 82181 32498 30709 10319 20221 39979 40118 81140 333 59015
AAXX 08184 82198 32495 30207 10330 20236 30027 40078 83200 333 58003
AAXX 08184 82353 31497 71804 10325 20244 39983 40066 71391 86730 333 59005
AAXX 08184 82361 32497 41404 10323 20237 30059 40096 84300 333 59003
AAXX 08184 82476 32595 51405 10360 20186 39960 40078 85200 333 59002
AAXX 08184 82861 32597 32006 10323 20243 39904 40072 83100 333 58005
AAXX 08184 63729 12480 20000 10205 20190 38868 48/// 60072 82900 333 0//58 10260 55300 58005 82619 81921
AAXX 08184 63791 32580 21115 10280 20136 39117 48510 82900 333 10336 55300 59009 81928 Q1014
AAXX 08184 63801 32580 70000 10240 20218 39199 48527 81931 333 10296 58000 81821 81922 87076
AAXX 08184 63866 32580 10000 10250 20222 39512 48/// 81500 333 10300 59002 81624
AAXX 08184 63881 32480 70000 10190 20164 38208 48/// 81532 333 10259 58002 81618 83356 87075
AAXX 08184 63887 32480 60000 10204 20183 38590 48514 81502 333 10259 55300 59003 81619 85074
AAXX 08184 63894 32580 30310 10267 20247 30059 40119 83200 333 10320 55300 58001 83823
AAXX 08184 63932 32580 50705 10176 38315 48513 81910 333 10252 81622 81923 85459
AAXX 08184 63971 32580 43412 10265 20254 39975 40104 81230 333 10298 55300 59009 81821 83358
AAXX 08184 63733 NIL
AAXX 08184 63756 NIL
AAXX 08184 63832 NIL
AAXX 08184 63862 NIL
AAXX 08184 63870 NIL
AAXX 08184 63962 NIL
AAXX 08184 71214 16/// /2608 10041 21054 60001 333 10041 21076 70000
AAXX 08184 71223 16/// /2110 11018 21068 60001 333 11018 21087 70000
AAXX 08184 71225 16/// /2619 10072 21040 60001 333 10072 21059 70000
AAXX 08184 71227 46/// /2613 10051 21023 6///1 333 10051 21070 7////
AAXX 08184 71445 17/// /1820 11082 21103 39810 40092 58042 60021 7//4/ 333 11078 21157 70053 555 10020
AAXX 08184 71464 46/// ///05 11002 30038 40256 58002 6///1 333 10015 21006 7////
AAXX 08184 71466 46/// ///// 10040 30037 40279 58002 6///1 333 10056 20006 7////
AAXX 08184 71353 16/// /2808 10049 21040 60001 333 10049 21032 70000
AAXX 08184 71375 46/// /0113 11105 6///1 333 11088 21127 7////
AAXX 08184 71385 46/// /3112 11074 6///1 333 11045 21093 7////
AAXX 08184 71525 16/// /2411 10055 21026 60001 333 10055 21089 70000
AAXX 08184 71535 16/// /2519 10066 21034 60001 333 10066 21074 70000
AAXX 08184 71536 16/// /2629 10071 21039 60001 333 10073 21035 70000
AAXX 08184 71537 17/// /2406 10028 21012 69941 7//4/ 333 10028 21084 7////
AAXX 08184 71510 16/// /2611 11001 21056 39395 40108 57003 60001 333 11001 21096 70000
AAXX 08181 23973 41997 80000 11214 21223 30274 40342 52007 77172 82038
AAXX 08181 23975 425// 81501 11140 21160 30214 40329 52004 889//
AAXX 08181 23986 42999 00000 11225 21250 39680 40375 52011
AAXX 08181 23987 41597 71402 11182 21208 30262 40342 52007 78582 85930
AAXX 08181 24606 429// 00000 11476 21506 30168 40497 52005
AAXX 08181 29253 419// 80000 11122 21149 30158 40341 53003 77172 8802/
AAXX 08181 29471 41496 80000 11099 21111 30112 40351 52010 78582 889// 333 88917
AAXX 08181 29481 41997 83201 11119 21125 30098 40349 52013 77177 8802/
AAXX 08181 29553 41539 82702 11075 21085 39976 40355 52006 78587 889//
AAXX 08181 29562 41547 82602 11082 21088 39922 40354 52007 78582 889//
AAXX 08181 29581 415// 80101 11094 21106 30070 40337 53015 78582 8392/
AAXX 08181 29594 41597 83003 11103 21116 39936 40338 52015 78582 889//
AAXX 08181 29653 41597 80000 11073 21078 39857 40358 52007 78582 883//
AAXX 08181 29675 41896 80000 11077 21095 39745 40358 52003 77172 8801/
AAXX 08181 29676 42898 83601 11071 21088 39899 40336 52007 8802/
AAXX 08181 29752 414// 82510 11120 21133 38887 48529 53007 78583 82949 333 91118
AAXX 08181 29759 415// 72802 11096 21132 39310 40379 53011 78582 84930
AAXX 08181 29766 41896 80000 11105 21111 39997 40369 54000 77172 8801/
AAXX 08181 29789 NIL
AAXX 08181 29864 419// 80901 11075 21085 39694 40366 53006 77172 8802/
AAXX 08181 29866 419// 80000 11092 21095 30029 40364 53002 77172 8801/
AAXX 08181 29869 419// 82905 11043 21052 39982 40366 57002 77173 8802/ 333 95090
AAXX 08181 29956 41681 82506 11050 21090 39814 40390 58005 78522 889//
AAXX 08181 30337 41998 80000 11205 21224 39860 40344 53002 77187 80007
AAXX 08181 30405 419// 80000 11104 21110 39773 40323 52009 77177 80007
AAXX 08181 30504 41995 82401 11089 21096 39654 40323 53003 77172 8801/
AAXX 08181 30603 41996 82101 11124 21130 39734 40332 54000 77172 8802/
AAXX 08181 30612 415// 81203 11170 21182 39779 40349 57006 78582 8497/
AAXX 08181 30622 419// 80000 11235 21254 39662 40368 57008 77172 80007
AAXX 08181 30627 41997 82201 11170 21182 39352 40342 57004 77172 80006
AAXX 08181 30703 NIL
AAXX 08181 36307 42897 80901 11313 21336 39106 48595 52001 8801/ 333 95090
AAXX 08184 71257 16/// /1906 11002 21050 60001 333 11002 21067 70000
AAXX 08184 71258 16/// /2411 10047 21027 60001 333 10057 21042 70000
AAXX 08184 71259 16/// /2206 11008 21035 60001 333 11008 21107 70000
AAXX 08184 71274 16/// /2513 10043 21017 60001 333 10043 21069 70000
AAXX 08184 71275 46/// /2311 10017 21023 6///1 333 10017 21096 7////
AAXX 08184 71278 16/// /2811 10053 21025 60001 333 10053 21045 70000
AAXX 08184 71286 16/// /2714 10056 21018 60001 333 10056 21091 70000
AAXX 08184 71287 16/// /2610 10055 21018 60001 333 10055 21047 70000
AAXX 08184 71289 16/// /2208 10031 21042 60001 333 10031 21048 70000
AAXX 08184 71683 46/// /0308 11228 39822 49935 55006 6///1 333 11228 21278 7////
AAXX 08184 71916 46/// /1308 11258 21278 39932 49989 53002 6///1 333 11256 21317 7////
AAXX 08181 23074 42997 01305 11221 21254 30240 40267 57018
AAXX 08181 23274 42597 71503 11238 21270 30247 40286 57016 82507
AAXX 08181 23383 42998 10000 11374 21401 30006 40417 58001 80001
AAXX 08181 23472 42999 71003 11237 21277 30249 40302 57014 80001
AAXX 08181 23678 429// 81003 11190 21209 30252 40315 57001 77171 8801/
AAXX 08181 23884 429// 00000 11255 21280 30269 40351 52006
AAXX 08181 23891 42996 00000 11316 21352 30055 52011
AAXX 08181 24507 419// 00000 11412 21438 30181 40471 52004 74440
AAXX 08181 24817 419// 00501 11439 21463 30034 40476 52011 74000
AAXX 08181 24908 42998 00501 11336 21366 30043 40423 52017
AAXX 08181 29263 41559 80000 11127 21147 30243 40349 52010 78582 8395/
AAXX 08181 29282 41984 80000 11266 21277 30190 40380 52021 70371 80001
AAXX 08181 29379 41598 80101 11128 21141 30127 40349 52005 70282 889//
AAXX 08181 29570 41596 82601 11072 21093 39990 40349 52008 78582 889//
AAXX 08181 29698 419// 80000 11114 21127 39795 40332 53006 77172 8802/
AAXX 08181 30230 42998 20000 11298 21322 30021 40391 52010 80001
AAXX 08181 30252 419// 50000 11396 21417 30066 40440 52002 74874 80001
AAXX 08181 30309 41997 60000 11146 21159 39773 40322 53007 77172 80001
AAXX 08181 30328 419// 80000 11198 21217 39889 40349 54000 77177 80007
AAXX 08181 30521 415// 80801 11193 21212 39782 40346 57006 78582 84901
AAXX 08181 30710 41995 80000 11152 21167 39732 40352 57003 77172 8801/
AAXX 08184 71353 16/// /2808 10049 21040 60001 333 10049 21032 70000
AAXX 08184 71375 46/// /0113 11105 6///1 333 11088 21127 7////
AAXX 08184 71385 46/// /3112 11074 6///1 333 11045 21093 7////
AAXX 08184 71445 17/// /1820 11082 21103 39810 40092 58042 60021 7//4/ 333 11078 21157 70053 555 10020
AAXX 08184 71214 16/// /2608 10041 21054 60001 333 10041 21076 70000
AAXX 08184 71223 16/// /2110 11018 21068 60001 333 11018 21087 70000
AAXX 08184 71225 16/// /2619 10072 21040 60001 333 10072 21059 70000
AAXX 08184 71227 46/// /2613 10051 21023 6///1 333 10051 21070 7////
AAXX 08184 71525 16/// /2411 10055 21026 60001 333 10055 21089 70000
AAXX 08184 71535 16/// /2519 10066 21034 60001 333 10066 21074 70000
AAXX 08184 71536 16/// /2629 10071 21039 60001 333 10073 21035 70000
AAXX 08184 71537 17/// /2406 10028 21012 69941 7//4/ 333 10028 21084 7////
AAXX 08184 71464 46/// ///05 11002 30038 40256 58002 6///1 333 10015 21006 7////
AAXX 08184 71466 46/// ///// 10040 30037 40279 58002 6///1 333 10056 20006 7////
AAXX 08184 71510 16/// /2611 11001 21056 39395 40108 57003 60001 333 11001 21096 70000
AAXX 08184 67002 32580 33411 10283 20245 30094 40127 81802 333 10318 58002 81822 83073 92408
AAXX 08184 67009 NIL
AAXX 08184 67027 11560 80208 10241 20231 30080 40101 59019 60082 79196 8487/ 333 10296 82820 83640 86460 RR 27.8MM 67073 11575 7//// 10266 20237 30035 40061 52017 69922 71522 8387/ 333 10281 82820 83633 85460 = RR 0.2MM 67083 11465 70204 10170 20156 38729 48502 51009 60032 76066 878// 333 10218 81817 87620 RR 2.7MM 67095 11465 70000 10262 20254 30105 40111 51015 60022 71522 879// 333 10307 83817 81917 86633 94967 95837 RR 1.5MM 67117 11475 8//// 10257 20237 39977 49986 52016 60134 71562 8452/ 333 10252 83617 88460
AAXX 08184 67137 11265 8//06 10180 20178 38477 48479 51005 60062 71566 8487/ 333 10199 81707 81817 83620 88460 RR 6.3MM
AAXX 08184 67152 11465 8//// 10188 20180 39171 48473 54001 60182 76366 8487/ 333 10215 83817 85458 555 82620 RR 17.4MM 67161 32480 7//// 10274 20221 30058 40067 51010 8487/ 333 10325 82820 87460 555 82640
AAXX 08184 67197 32480 70806 10248 20219 30103 40113 51008 8587/ 333 10292 82817 84633 85460
AAXX 08184 71257 16/// /1906 11002 21050 60001 333 11002 21067 70000
AAXX 08184 71258 16/// /2411 10047 21027 60001 333 10057 21042 70000
AAXX 08184 71259 16/// /2206 11008 21035 60001 333 11008 21107 70000
AAXX 08184 71274 16/// /2513 10043 21017 60001 333 10043 21069 70000
AAXX 08184 71275 46/// /2311 10017 21023 6///1 333 10017 21096 7////
AAXX 08184 71278 16/// /2811 10053 21025 60001 333 10053 21045 70000
AAXX 08184 71286 16/// /2714 10056 21018 60001 333 10056 21091 70000
AAXX 08184 71287 16/// /2610 10055 21018 60001 333 10055 21047 70000
AAXX 08184 71289 16/// /2208 10031 21042 60001 333 10031 21048 70000
AAXX 08184 71916 46/// /1308 11258 21278 39932 49989 53002 6///1 333 11256 21317 7////
AAXX 08184 71683 46/// /0308 11228 39822 49935 55006 6///1 333 11228 21278 7////
AAXX 08181 51711 32780 12901 11173 21201 38054 57005 81502 333 00053 11049
AAXX 08181 51730 32970 70000 11122 21154 40383 57003 80002 333 00101 11002
AAXX 08181 52112 32980 02201 11150 21207 40409 52005 333 00200 11057
AAXX 08181 52737 32980 00000 11146 21247 37075 52004 333 00100 11024
AAXX 08181 52787 32980 71803 11149 21204 37026 57005 80002 333 00003 11064
AAXX 08181 53352 32980 00901 11162 21216 40378 57002 333 11050
AAXX 08181 53593 32960 02501 11133 21190 40364 52003 333 11015
AAXX 08181 53705 32965 72501 11086 21154 40371 52001 80002 333 00001 10006
AAXX 08181 53863 32962 70000 11069 21107 40354 52001 8703/ 333 10001
AAXX 08181 53975 32964 72901 11046 21108 40338 57003 80002 333 10043
AAXX 08181 54273 32965 00000 11264 21298 40348 52004 333 11126
AAXX 08181 54324 32960 00000 11188 21215 40351 52006 333 11060
AAXX 08181 54405 32970 01101 11098 21183 40342 52006 333 11004
AAXX 08181 54436 32962 00901 11125 21144 40350 52005 333 10003
AAXX 08181 54808 31940 73601 11054 21068 40335 54000 71000 80002 333 10034
AAXX 08181 54826 32960 12706 11073 21102 38520 54000 80002 333 11055
AAXX 08181 54836 32960 02501 11047 21068 40346 52005 333 10025
AAXX 08181 54863 31950 02701 11038 21079 40333 52003 71000 333 10039
AAXX 08181 56018 32680 71801 11089 21161 36155 57002 879// 333 00102 11038
AAXX 08181 56021 32980 70701 11149 21226 36048 52001 80002 333 00102 11058
AAXX 08181 57071 31920 00000 11022 21062 40332 57005 71000 333 10067
AAXX 08183 42071 31995 20000 10064 20050 40203 71011 82030 333 59025 82360
AAXX 08184 42027 31595 70000 11030 21045 38451 48539 70522 83520 333 59002
AAXX 08184 42101 31694 30000 10096 20079 40195 71000 82530 333 59013 82640
AAXX 08184 42111 21595 60501 10092 20084 39384 40179 70562 84830 333 59030 6990/ 83620 84825 86360
AAXX 08184 42131 31994 00000 10066 20062 40209 71000 333 59016
AAXX 08184 42165 31995 03601 10094 20034 40202 70500 333 59009
AAXX 08184 42182 31993 12902 10104 20088 40195 71110 81030 333 59009 81360
AAXX 08184 42328 32996 20502 10088 20027 40209 80002 333 58002 82070
AAXX 08184 42339 31995 00000 10120 21002 40204 70500 333 58009
AAXX 08184 42348 31995 00000 10100 20036 40201 70500 333 58000
AAXX 08184 42361 31994 00000 10108 20100 40193 74044 333 59009
AAXX 08184 42369 31990 22703 10130 20123 40189 74444 82030 333 59008 82359
AAXX 08184 42379 31595 70000 10156 20123 40167 70522 84520 333 56290 59023 84625 86458
AAXX 08184 42452 32996 03602 10130 20082 40194 333 58002
AAXX 08184 42475 31594 60000 10170 20160 40179 71022 84530 333 59014 84625 85360
AAXX 08184 42071 NIL
AAXX 08184 42189 NIL
AAXX 08184 42260 NIL
AAXX 08184 68513 36/// /1608 10200 20166 30016 40127 53005 333 10235 20199 91011 555 91012
AAXX 08184 68514 NIL
AAXX 08184 68523 36/// /2217 10336 20038 39064 48506 53006 333 10422 20336 91025 555 91012
AAXX 08184 68527 NIL
AAXX 08184 68572 NIL
AAXX 08184 68575 36/// /0102 10204 20185 39100 48528 53002 333 10245 20204 91009 555 91018
AAXX 08184 68581 36/// /1203 10219 20193 39379 48534 53002 333 10277 20219 91006 555 91016
AAXX 08184 68583 36/// /0604 10256 20217 30020 40128 53002 333 10290 20256 91009 555 91013
AAXX 08184 68589 16/// /1402 10183 20142 38279 48538 53011 60022 333 10241 20180 91005 555 20022 91024
AAXX 08184 68613 36/// /3202 10178 20147 30000 40115 53006 333 10246 20178 91004 555 91011
AAXX 08184 68647 NIL
AAXX 08184 68651 16/// /1306 10208 20184 38559 48522 53006 69922 333 10271 20208 91011 555 20002 91020
AAXX 08184 68715 NIL
AAXX 08184 68717 36/// /2006 10300 20148 39948 40085 52017 333 10396 20300 91008 555 91009
AAXX 08184 68723 36/// /1904 10287 20158 39351 48510 53018 333 10390 20287 91010 555 91011
AAXX 08184 68737 32875 41707 10292 20166 39204 48504 52008 81478 333 10364 20292 91012 555 91011
AAXX 08184 68744 32980 01510 10259 20189 39061 48490 52013 333 10354 20259 91016 555 91012
AAXX 08184 68747 36/// /1610 10249 20204 39582 48517 53007 333 10342 20249 91015 555 91011
AAXX 08184 68754 36/// /0805 10208 20193 39126 48518 52013 333 10289 20208 91009 555 91016
AAXX 08184 68817 NIL
AAXX 08184 68821 36/// /1210 10275 20178 39865 40095 53021 333 10377 20275 91019 555 91010
AAXX 08184 68835 36/// /1503 10237 20201 30002 40114 53012 333 10317 20236 91008 555 91011
AAXX 08184 68843 36/// /0914 10233 20208 30014 40111 53003 333 10242 20226 91021 555 91011
AAXX 08184 68849 36/// /1208 10208 20194 39390 48510 53005 333 10250 20208 91013 555 91013
AAXX 08184 68912 36/// /1621 10174 20159 30108 40117 52006 333 10244 20168 91024 555 91011
AAXX 08184 68918 36/// /1213 10237 20195 30113 40131 53016 333 10286 20233 91018 555 91013
AAXX 08184 68921 36/// /1110 10227 20202 30137 40140 53008 333 10269 20227 91013 555 91014
AAXX 08184 68925 36/// /1503 10248 20176 39760 40113 53011 333 10317 20248 91014 555 91012
AAXX 08184 68926 32070 61207 10242 20189 39951 40126 52020 86005 333 10313 20242 91012 555 91013
AAXX 08184 68935 36/// /1004 10234 20196 30053 40115 53008 333 10295 20233 91010 555 91011
AAXX 08184 68514 NIL
AAXX 08184 68527 NIL
AAXX 08184 68572 NIL
AAXX 08184 68647 NIL
AAXX 08184 68715 NIL
AAXX 08184 68817 NIL
AAXX 08181 50548 32980 73601 11278 21313 40362 52006 80002 333 11142
AAXX 08181 50564 32970 22501 11313 21345 40365 52004 80002 333 11156
AAXX 08181 51334 32970 01401 11205 21230 40438 57006 333 00251 11129
AAXX 08181 51818 32965 30000 11101 21142 40376 57005 80002 333 00051 11007
AAXX 08181 52378 32980 02004 11136 21181 40393 57004 333 00051 11020
AAXX 08181 53487 32960 03403 11153 21202 40370 57001 333 11022
AAXX 08181 53502 32980 02002 11149 21213 40398 52002 333 00051 11010
AAXX 08181 53923 32980 00000 11050 21154 40338 57009 333 10011
AAXX 08181 54049 32970 03601 11186 21241 40331 52009 333 11078
AAXX 08181 54115 32680 60201 11203 21257 40359 57004 82502 333 11079
AAXX 08181 54157 32962 01801 11171 21199 40333 52006 333 11081
AAXX 08181 54186 32970 02201 11221 21271 40326 52005 333 11087
AAXX 08181 54311 32980 00402 11177 21220 40359 57002 333 11073
AAXX 08181 54346 32962 00901 11159 21187 40343 52009 333 11052
AAXX 08181 54377 32965 00202 11156 21175 40338 52008 333 11062
AAXX 08181 54386 32970 00202 11213 21249 40349 52009 333 11130
AAXX 08181 54493 32966 02901 11158 21173 40330 52006 333 11040
AAXX 08181 54587 NIL
AAXX 08181 54715 31940 80901 11076 21081 40343 52006 71000 80007 333 10016
AAXX 08181 54929 32960 00000 11031 21054 40339 52003 333 10055
AAXX 08181 54945 32965 02702 11002 21046 40339 52006 333 10052
AAXX 08181 56065 31/08 90000 11146 21164 36596 57008 74500 333 05151 11035
AAXX 08181 57193 32960 00000 11024 21038 40329 57004 333 10070
AAXX 08181 57290 32962 00000 11004 21048 40330 57001 333 10071
AAXX 08184 17260 11360 81106 10062 20056 39321 40146 50007 60022 72162 8672/ 333 10069 83707 85625 88459
AAXX 08181 27595 12/97 81702 11117 21141 30131 40285 50003 69900 80031 333 11058
AAXX 08184 68174 31765 30606 10245 20153 38790 48519 53012 71799 81962 333 10309 20245 91010 555 91018
AAXX 08184 68191 36/// /1602 10288 20116 39618 40097 52010 333 10347 20277 91003 555 91012
AAXX 08184 68242 11680 61210 10235 20126 38724 48507 52020 69982 71322 84970 333 10337 20217 91016 555 20008 69985 91017
AAXX 08184 68262 36/// /0905 10237 20105 38721 48531 53011 333 10321 20236 91014 555 91020
AAXX 08184 68263 11670 71321 10163 20138 38516 48541 53010 60022 79522 83973 333 10283 20163 91033 555 20026 60265 91023
AAXX 08184 68267 12570 80605 10179 20153 38261 48532 51008 60082 885// 333 10269 20168 91005 555 20088 91023
AAXX 08184 68289 36/// /1302 10246 20162 39153 48534 52007 333 10284 20246 91003 555 91017
AAXX 08184 68350 36/// /1716 10213 20130 38680 48532 53002 333 10354 20213 91026 555 91021
AAXX 08184 68368 11570 71214 10158 20139 38345 48544 53026 60071 79596 8397/ 333 10276 555 20068 91024
AAXX 08184 68403 36/// /2405 10203 20175 30119 40152 52011 333 10230 20203 91009 555 91015
AAXX 08184 68424 32782 23408 10361 20048 39134 48493 53002 81102 333 10445 20356 91015 555 91009
AAXX 08184 68438 32782 63312 10301 20057 38769 48473 53010 82972 333 10395 20301 91019 555 91012
AAXX 08184 68442 11680 70414 10180 20151 38657 48509 52044 60022 79599 829// 333 10363 20178 91022 555 20026 60105 91018
AAXX 08184 68461 11770 82913 10190 20104 38332 48516 52012 69922 79599 83973 333 10277 20177 91019 555 20002 91021
AAXX 08184 68512 32482 12516 10196 20136 39008 48507 53001 81600 333 10320 20196 91019 555 91016
AAXX 08184 68538 31764 41915 10331 20119 38673 48467 55000 70522 82983 333 10387 20331 91021 555 91012
AAXX 08184 68587 36/// /0408 10247 20218 30105 40117 53002 333 10277 20247 91015 555 91011
AAXX 08184 68588 36/// /0209 10261 20216 30131 40147 53003 333 10301 20259 91015 555 91014
AAXX 08184 68591 36/// /0409 10243 20216 39953 40130 53000 333 10275 20243 91016 555 91013
AAXX 08184 68592 NIL
AAXX 08184 68618 32980 02611 10298 20032 39030 48518 53008 333 10389 20298 91014 555 91015
AAXX 08184 68633 36/// /1513 10255 20154 38479 48473 53008 333 10363 20244 91020 555 91015
AAXX 08184 68668 32570 81207 10225 20199 39282 48517 53012 885// 333 10294 20225 91010 555 91014
AAXX 08184 68714 36/// /2015 10192 20161 30065 40101 52013 333 10326 20192 91020 555 91010
AAXX 08184 68727 36/// /1911 10350 20029 39072 48492 53008 333 10388 20350 91015 555 91010
AAXX 08184 68752 36/// /0714 10316 20305 39446 48544 53005 333 10345 20292 91020 555 91013
AAXX 08184 68816 31470 21920 10226 20199 30051 40104 53007 70400 82600 333 10299 91026 555 91010
AAXX 08184 68828 32270 81311 10219 20211 39894 40122 53013 886// 333 10269 555 91013
AAXX 08184 68842 11460 70814 10234 20200 30046 40114 52005 60002 76022 876// 333 10262 555 91011
AAXX 08184 68858 42975 70611 10234 20228 39965 40118 53006 877// 333 10248 555 91012
AAXX 08184 68906 32598 62313 10122 20049 30124 40189 52016 84269 222// 00137 318// 40702 333 10138 20121 91021 555 91018
AAXX 08184 68994 32598 33126 10078 20056 30041 40070 58001 83500 222// 00065 333 10091 20069 91037 555 91006
AAXX 08184 89004 36/// /0907 11043 21118 38735 49721 56001 333 10020 21046 91024 555
BBXX 46206 08181 99488 71260 46/// /1611 10086 40221 57002 22200 00084 11207 70036 333 91214
BBXX MINFR09 0818/ 99360 11202 46/// ///// 40335 52001
BBXX 46206 08181 99488 71260 46/// /1611 10086 40221 57002 22200 00084 11207 70036 333 91214
AAXX 08184 68592 NIL
BBXX DDZC2 08184 99492 71672 41598 41815 10006 21072 40110 54000 7//// 82098 22225 00040 2//02 303// 4//05 5//// 81020
BBXX SBLW 08183 99545 71677 43/98 71815 11019 40091 50002 22263 00039 2//// 4////
BBXX SHIP 08184 99542 71643 41698 52124 11020 21086 40122 51020 70300 85345 22263 060400 20506 331// 40506 81040
BBXX VRHO2 08184 99531 71581 41898 73219 10010 21015 40100 51030 70310 877// 22235 00000 20604 33232 40804 50904 6//// 80000 ICE /////
BBXX WDD9433 08184 99310 71603 41398 40916 10180 20148 40179 51014 70111 848// 22264 00200 20204 332// 41111 5//// 6//// 80160 ICE /////
AAXX 08181 50658 32962 03601 11224 21277 40353 52011 333 11155
AAXX 08181 50888 32980 03205 11190 21248 40297 52009 333 11083
AAXX 08181 50983 32970 03402 11187 21231 40297 52016 333 11100
AAXX 08181 51053 32978 02501 11215 21240 40461 52001 333 00251 11156
AAXX 08181 51542 32980 00000 11308 21341 37595 52002 333 00200 11188
AAXX 08181 52436 32980 02503 11138 21170 38551 40394 57007 333 00203 11040
AAXX 08181 52908 32980 02906 11209 21243 35724 54000 333 00101 11099
AAXX 08181 52996 32970 71402 11091 21100 37587 57009 8704/ 333 05100 11052
AAXX 08181 53083 32980 70000 11279 21307 40428 57006 80002 333 05102 11214
AAXX 08181 53764 32970 03402 11087 21130 40373 52004 333 11003
AAXX 08181 53787 32965 70201 11124 21148 40359 52002 80002 333 10005
AAXX 08181 54096 32970 22705 11162 21220 40294 52006 80002 333 11097
AAXX 08181 54226 32980 02201 11158 21220 40352 52008 333 11057
AAXX 08181 54259 32962 02701 11208 21238 40349 52009 333 11085
AAXX 08181 54527 32960 00901 11067 21081 40328 57001 333 10012
AAXX 08181 54534 31962 00201 11113 21125 40335 52005 70040 333 11001
BBXX 46205 08181 99542 71343 46/// /2210 10069 40060 52017 22200 00067 11312 70059 333 91213
BBXX 46132 08181 99497 71279 46/// /1611 10091 40163 54000 22200 00084 11208 70042 333 91214
AAXX 08184 89020 46/// /0807 11059 21071 39745 49780 57004 91750
AAXX 08184 89087 46/// /1820 11169 21213 38014 49760 5////
AAXX 08184 89667 46/// /2406 11020 39815 49825 5//// 91750
AAXX 08184 89734 46/// /0608 11290 35997 4//// 5//// 91750
AAXX 08184 89744 46/// /0013 11255 36369 4//// 5//// 91750
AAXX 08184 89834 46/// /1220 11185 38138 4//// 5//// 91750
AAXX 08184 89865 46/// ///// 1//// 3//// 4//// 5//// 91750
AAXX 08184 89872 46/// /2210 11016 39753 49808 5//// 91750
BBXX DANV 08184 99051 10984 41698 60424 10268 20235 40110 57015 78122 86338 22234 04260 20102 30000 80244
BBXX VQHO7 08184 99334 30342 41/98 /0921 10230 20207 40152 55000 70211 8//// 22224 00240 2//// 3//// 4//// 5//// 80215
BBXX MLRM6 08183 99400 50130 41598 42111 10121 20028 40206 53010 70200 83408 22200 00148 20101 32226 41006 51504
BBXX A8CJ2 08184 99357 70748 41598 70118 10175 20143 40230 53010 70222 85770 22244 04210 20401 301// 40602 5//// 80155
BBXX A8UE5 08184 99486 71256 41195 81318 10090 20080 40240 57030 75155 8779/ 22274 04090 20502 317// 40905 5//// 80085
BBXX VQKZ6 08183 99178 70751 41598 10715 10280 20205 40166 58010 70100 81100 22214 02233 20504 301// 40806 5//// 80230
BBXX ZCEE2 08184 99153 70619 41598 20728 10270 20193 40146 58020 70200 82200 22282 00270 20301 305// 40302 5//// 80220
BBXX A8XD4 08184 99510 71659 41398 21804 10010 21010 40140 51010 70100 81270 22223 04040 21204 324// 41405 80002
AAXX 08184 42571 31996 40000 10140 20129 40179 70500 82031 333 59003
AAXX 08184 42667 31995 00205 10136 20114 39574 40182 70500 333 59002
AAXX 08184 42675 31996 03602 10144 20129 40177 70500 333 59002
AAXX 08184 42754 31996 00506 10126 20100 39522 40181 70500 333 59003
AAXX 08184 42867 31995 00203 10200 20149 40149 70500 333 59010
AAXX 08184 42933 32996 00000 10176 20110 40153 333 59007
AAXX 08184 43041 32596 20000 10190 20158 39520 40146 82500 333 59025 82625
AAXX 08184 42559 NIL
AAXX 08184 42779 NIL
AAXX 08184 42874 NIL
BBXX A8CC9 08184 99059 31169 41696 72317 10260 20218 40090 55010 763// 86444 22213 04310 21003 332// 41204 5//// 80230
AAXX 08184 68183 31675 31103 10281 20149 39422 48535 53009 70500 81271 333 10319 20281 91004 555 91013
AAXX 08184 68188 36/// /0000 10225 20185 39195 48527 53013 333 10301 20225 91003 555 91016
AAXX 08184 68268 36/// /1009 10239 20168 38881 48526 52016 333 10354 20239 91015 555 91018
AAXX 08184 68272 16/// /2110 10205 20167 39085 48530 53025 69922 333 10339 20205 91018 555 20002 91018
AAXX 08184 68296 36/// /1404 1//// 2//// 38914 4//// 52001 333 1//// 2//// 91008 555
AAXX 08184 68322 32582 60405 10341 20084 39093 48494 52008 86400 333 10448 20341 91008 555 91010
AAXX 08184 68338 31670 50803 10277 20106 38747 48487 52015 71700 84970 333 10349 20271 91010 555 91014
AAXX 08184 68345 NIL
AAXX 08184 68362 11640 83406 10171 20145 38532 48534 52038 60162 79799 85370 333 10315 20171 91014 555 20168 61685 91022
AAXX 08184 68400 NIL
AAXX 08184 68408 32/// /3403 10164 20154 30136 40144 52011 333 10166 20141 91001 555 91014
AAXX 08184 68416 32984 01916 10332 20076 38998 48496 52016 333 10409 20332 91026 555 91012
AAXX 08184 68478 NIL
AAXX 08184 68488 36/// /1005 10216 20168 39276 48532 52012 333 10292 20216 91008 555 91017
AAXX 08184 68494 36/// /0604 10239 20203 30001 40130 53003 333 10303 20239 91007 555 91013
AAXX 08184 68524 32586 12518 10368 21007 38996 48480 52013 81100 333 10427 20368 91026 555 91009
AAXX 08184 68546 16/// /1504 10226 20196 38629 48477 52018 60012 333 10364 20219 91006 555 20014 91014
AAXX 08184 68558 36/// /1204 10207 20165 38191 48501 52013 333 10301 20205 91008 555 91020
AAXX 08184 68570 NIL
AAXX 08184 68580 NIL
AAXX 08184 68614 32480 13105 10204 20163 30065 40106 52017 81600 333 10367 20204 91011 555 91010
AAXX 08184 68624 32882 12106 10327 21024 38711 48494 52012 81200 333 10384 20327 91013 555 91015
AAXX 08184 68674 36/// /0104 10258 20229 30090 48563 53010 333 10294 20254 91012 555 91012
AAXX 08184 68712 32470 71820 10157 20144 30036 40101 52010 875// 333 10204 20157 91024 555 91010
AAXX 08184 68718 36/// /1306 10251 20181 39884 40124 52021 333 10357 20251 91016 555 91013
AAXX 08184 68722 32980 02505 10285 20005 38542 48501 52009 333 10342 20285 91015 555 91018
AAXX 08184 68814 36/// /2022 1//// 2//// 30100 4//// 53002 333 1//// 2//// 91028 555 91010
AAXX 08184 68832 36/// /0709 10256 20166 39164 48504 52025 333 10369 20256 91016 555 91013
AAXX 08184 68916 31/01 90706 10201 20187 39856 40120 52008 74744 333 10233 20201 91017 555 91012
AAXX 08184 68920 32470 51006 10224 20198 30129 40141 52010 85800 333 10247 20223 91012 555 91014
AAXX 08184 68928 36/// /1207 10228 20209 39977 40134 53011 333 10273 20228 91012 555 91013
BBXX 46181 08181 99538 71288 46/// /2204 10069 40123 52016 22200 00044 10200 70001 333 91206
AAXX 08181 30499 42999 02601 11381 21397 39651 40416 53001
AAXX 08181 30683 429// 50000 11353 21377 39648 40394 57004 80004
AAXX 08181 30695 42999 23202 11379 21409 39999 40391 53001 80001
AAXX 08181 31253 42999 03401 11353 21405 39834 40360 53002
AAXX 08181 31295 42999 00000 11284 21315 39856 40365 58002
AAXX 08181 31348 42999 00000 11346 21350 30076 40300 52017
AAXX 08181 31418 42984 00000 11282 21307 39999 40282 52014
AAXX 08181 31439 42599 60206 11227 21267 30174 40175 52017 82561 333 91112
AAXX 08181 31442 42997 00000 11339 21375 39959 40365 52003
AAXX 08181 31445 42984 02702 11338 21383 30067 40358 52006
AAXX 08181 31474 42998 00000 11383 21416 39785 40345 52011
AAXX 08181 31521 32984 03001 11308 21339 30021 40351 53006
AAXX 08181 31527 42998 03403 11296 21320 30005 40347 52007
AAXX 08181 31534 42999 00000 11343 21365 39948 40343 52009
AAXX 08181 31587 42998 03001 11304 21334 30192 40357 52008
AAXX 08181 31632 NIL
AAXX 08181 31702 42998 00101 11316 21352 39957 40340 53012
AAXX 08181 31713 42998 03603 11254 21278 30176 40285 52016
AAXX 08181 31725 42998 02902 11217 21235 30188 40260 52006
AAXX 08181 31801 42998 21801 11273 21292 30008 40260 53002 80001
AAXX 08184 68155 36/// /3502 10286 20157 39172 48518 53007 333 10345 20286 91003 555 91014
AAXX 08184 68171 NIL
AAXX 08184 68176 36/// /0903 10260 20143 39127 48523 53012 333 10346 20260 91006 555 91015
AAXX 08184 68181 NIL
AAXX 08184 68182 36/// /0502 10255 20156 39327 48528 53008 333 10321 20255 91005 555 91014
AAXX 08184 68185 NIL
AAXX 08184 68253 36/// /0000 10277 20174 39034 48518 53011 333 10343 20277 91003 555 91015
AAXX 08184 68255 36/// /2204 10267 20153 38850 48506 53007 333 10326 20267 91005 555 91016
AAXX 08184 68271 36/// /0000 1//// 2//// 38907 4//// 53009 333 1//// 2//// 91002 555 91017
AAXX 08184 68273 16/// /0306 10188 20164 38475 48529 52005 60042 333 10284 20171 91008 555 20048 60265 91022
AAXX 08184 68287 36/// /1203 10188 20147 38592 48528 53007 333 10244 20188 91006 555 91021
AAXX 08184 68291 NIL
AAXX 08184 68297 NIL
AAXX 08184 68329 36/// /1612 10327 20079 39060 48514 53017 333 10419 20304 91022 555 91013
AAXX 08184 68331 36/// /0905 10302 20094 38821 48516 53003 333 10379 20302 91008 555 91017
AAXX 08184 68335 36/// /3305 10306 20061 38893 48515 53012 333 10385 20296 91008 555 91016
AAXX 08184 68341 16/// /0404 10205 20140 38540 48525 52025 60032 333 10324 20188 91007 555 20034 69925 91021
AAXX 08184 68342 NIL
AAXX 08184 68343 NIL
AAXX 08184 68349 NIL
AAXX 08184 68353 16/// /2409 10164 20146 38544 48522 53022 60202 333 10298 20164 91017 555 20200 91020
AAXX 08184 68355 16/// /1215 10168 20137 38601 48534 52031 60032 333 10319 20168 91021 555 20036 60285 91022
AAXX 08184 68370 NIL
AAXX 08184 68377 36/// /0807 10248 20190 38757 48501 53012 333 10302 20244 91010 555 91016
AAXX 08184 68380 16/// /2704 10182 20168 38334 48542 53005 69922 333 10296 20162 91012 555 20002 91024
AAXX 08184 68387 36/// /0506 10244 20189 38867 48533 53005 333 10307 20244 91020 555 91019
AAXX 08184 68411 36/// /2112 10260 20143 39910 40113 53020 333 10411 20260 91018 555 91012
AAXX 08184 68429 16/// ///// 10273 20107 38655 48480 52007 69942 333 10386 20245 555 20004 91014
AAXX 08184 68449 16/// /0406 10184 20120 38428 48541 53006 60182 333 10291 20160 91020 555 20188 91023
AAXX 08184 68471 16/// /3613 10152 20130 38341 48521 52013 60262 333 10255 20149 91017 555 20260 60845 91021
AAXX 08184 68474 NIL
AAXX 08184 68479 16/// /3004 10198 20170 38960 48524 53020 60032 333 10309 20193 91006 555 20034 91018
AAXX 08184 68481 NIL
AAXX 08184 68487 36/// /1403 10211 20185 39000 48525 53006 333 10276 20211 91006 555 91018
AAXX 08184 68491 NIL
AAXX 08184 68497 36/// /0704 10256 20211 30092 40135 52006 333 10306 20256 91009 555 91013
AAXX 08181 30455 429// 80000 11291 21309 38941 48458 53005 82031
AAXX 08181 30731 415// 82003 11116 21129 39667 40304 57005 77372 8802/
AAXX 08181 30739 429// 80000 11297 21322 39474 40394 57006 80005
AAXX 08181 30741 419// 82602 11201 21207 38709 48496 57002 70272 80007
AAXX 08181 30745 419// 81801 11231 21250 39104 40352 57001 71022 80007
AAXX 08181 30764 41997 80000 11272 21290 39479 40362 53003 72272 8801/
AAXX 08181 30829 42984 80000 11285 21304 39643 40417 57003 80007
AAXX 08181 30838 41998 30000 11265 21277 39317 40406 57003 70281 80002
AAXX 08181 30846 42999 02701 11188 21221 39364 40337 54000
AAXX 08181 30859 41898 80000 11285 21310 39437 40372 57003 77172 8801/
AAXX 08181 30862 41984 71301 11300 21337 39530 40362 53003 70422 80002
AAXX 08181 30957 429// 21702 11261 21273 39388 40378 57002 82040
AAXX 08181 30967 NIL
AAXX 08181 30975 41896 82001 11318 21341 39668 40404 57004 77172 8802/
BBXX 46205 08181 99542 71343 46/// /2210 10069 40060 52017 22200 00067 11312 70059 333 91213
BBXX 46132 08181 99497 71279 46/// /1611 10091 40163 54000 22200 00084 11208 70042 333 91214
BBXX 41024 08181 99338 70785 46/// /1903 10146 40223 58011 91800
BBXX 44029 08181 99425 70706 46/30 /2905 10051 40180 58005 91804 22200 00074 10301 70004 333 91208 555 11059 22062
BBXX 44059 08181 99368 70763 46/// /0604 1//// 91820 333 91207
BBXX 44059 08181 99368 70763 46/// /0705 1//// 40234 91810 333 91207
BBXX 44059 08181 99368 70763 46/// /0405 10092 40234 58007 91800 22200 00089 333 91208
BBXX 44057 08181 99395 70761 46/// /3104 1//// 91820 333 91206
BBXX 44057 08181 99395 70761 46/// /3304 1//// 40234 91810 333 91207
BBXX 44057 08181 99395 70761 46/// /3303 10071 40234 56011 91800 22200 00030 333 91204
BBXX 44058 08181 99376 70763 46/// /0503 1//// 91820 333 91203
BBXX 44058 08181 99376 70763 46/// /0502 1//// 40239 91810 333 91203
BBXX 44058 08181 99376 70763 46/// /0502 10078 40239 58010 91800 22200 00074 1//00 70002 333 91202
BBXX 44030 08181 99432 70704 46/// /3108 1//// 40181 54000 91804 22200 00075 10301 70006 333 91210 555 11100 22106
BBXX 44032 08181 99437 70694 46/30 /3006 10042 40171 53004 91804 22200 00076 10501 70006 333 91207 555 11070 22073
BBXX 44033 08181 99441 70690 46/30 /3206 10039 40174 55000 91804 22200 00048 10201 70004 333 91208 555 11075 22079
BBXX 44040 08181 99410 70736 46/// /3208 10060 21033 40224 91815 22200 10201 70004 333 91210 555 11093 22108
AAXX 08181 31825 41684 23203 11149 21219 39983 40203 56004 73631 82509
AAXX 08181 31845 42998 00000 11320 21346 30091 40278 57007
AAXX 08181 31878 42984 00000 11272 21299 30159 40298 53009
AAXX 08181 31915 42998 02802 11165 21225 30008 40292 53004
AAXX 08181 31921 42998 02902 11132 21203 30187 40292 53008
AAXX 08181 31969 42598 73002 11087 21194 30228 40280 53003 87500
AAXX 08181 31981 42999 62402 11255 21280 30046 40308 53008 80001
AAXX 08181 31987 42999 20103 11150 21224 30001 40278 54001 80001
AAXX 08181 32069 41597 83407 11128 21148 30167 40172 53005 78583 889// 333 91008 91114
BBXX 44062 08181 99386 70764 46/// /0801 1//// 91810 22200 00064 333 91202
BBXX 44062 08181 99386 70764 46/// /0602 10068 40221 58013 91800 22200 00064 1//00 70000 333 91202
BBXX 44063 08181 99390 70764 46/// /3503 1//// 91820 333 91206
BBXX 44063 08181 99390 70764 46/// /3504 1//// 40247 91810 333 91206
BBXX 44063 08181 99390 70764 46/// /3504 10081 40247 58013 91800 22200 00055 1//00 70001 333 91206
BBXX 44041 08181 99372 70768 46/// /2601 1//// 91820 333 91202
BBXX 44041 08181 99372 70768 46/// /2701 1//// 40262 91810 333 91202
BBXX 44041 08181 99372 70768 46/// /3002 10101 40262 58011 91800 22200 00079 1//00 70000 333 91203
BBXX 44042 08181 99380 70763 46/// /1901 1//// 91810 333 91201
BBXX 44042 08181 99380 70763 46/// /2001 10083 40245 58008 91800 22200 00071 1//00 70001 333 91201
BBXX 44043 08181 99392 70764 46/// /3203 1//// 91820 333 91203
BBXX 44043 08181 99392 70764 46/// /3203 1//// 40232 91810 333 91204
BBXX 44043 08181 99392 70764 46/// /3302 10071 40233 58011 91800 22200 00042 1//00 70001 333 91203
AAXX 08184 68171 NIL
AAXX 08184 68181 NIL
AAXX 08184 68185 NIL
AAXX 08184 68291 NIL
AAXX 08184 68297 NIL
AAXX 08184 68342 NIL
AAXX 08184 68343 NIL
AAXX 08184 68349 NIL
AAXX 08184 68370 NIL
AAXX 08184 68474 NIL
AAXX 08184 68481 NIL
AAXX 08184 68491 NIL
AAXX 08184 68345 NIL
BBXX 46181 08181 99538 71288 46/// /2204 10069 40123 52016 22200 00044 10200 70001 333 91206
AAXX 08184 48440 31957 00000 10192 20172 30097 40148 57009 71000 333 59017
BBXX 46184 08181 99539 71389 46/// /2213 10053 40003 52027 22200 00057 11413 70067 333 91218
BBXX 46184 08181 99539 71389 46/// /2213 10053 40003 52027 22200 00057 11413 70067 333 91218
AAXX 08184 68715 36/// /2303 10249 20191 39973 40097 52012 333 10376 20249 91008 555 91010
AAXX 08184 68817 36/// /1824 10243 20196 30083 40095 52005 333 10338 20242 91039 555 91009
AAXX 08184 91723 NIL
AAXX 08184 91759 11497 80000 10247 20244 40075 53015 60041 71565 86870 333 83818 83640 88461
AAXX 08184 91762 11598 80000 10246 20239 40072 53012 60021 71556 8787/ 333 82822 85650 88464
AAXX 08184 42634 32996 00000 10150 20105 40187 333 58011
AAXX 08184 42647 32996 03603 10156 20015 40184 333 58004
AAXX 08184 42737 32996 00205 10148 20080 40187 333 58005
AAXX 08184 42840 32996 00000 10156 20081 40175 333 59005
AAXX 08184 42909 32996 00208 10170 21009 40171 333 59006
AAXX 08184 42921 32996 00000 10098 20033 40217 333 59007
AAXX 08184 43003 31995 00000 10190 20061 40158 70400 333 59005
AAXX 08184 43014 32996 02904 10182 20025 39491 40148 333 59012
AAXX 08184 43063 32996 00000 10126 20062 39520 40169 333 59015
AAXX 08184 43110 31996 03604 10210 20134 40146 70544 333 59012
AAXX 08184 43117 32996 03602 10212 20081 40137 333 59019
AAXX 08184 43192 32996 03404 10226 20167 40147 333 59003
AAXX 08181 24856 41996 02402 11511 21530 30224 40414 52009 71000
AAXX 08181 30679 NIL
AAXX 08181 30686 42999 80000 11374 21395 39959 40392 57002 80009
AAXX 08181 30961 41897 81403 11287 21299 39496 40376 57008 77177 8802/
AAXX 08181 30971 42999 80000 11249 21274 39280 40358 57007 80007
AAXX 08181 30978 42999 80000 11334 21358 39632 40410 57003 80007
AAXX 08181 31513 42999 03401 11297 21315 30097 40352 53004
AAXX 08181 31624 NIL
AAXX 08181 31832 42964 00000 11279 21296 30188 40285 53010
AAXX 08181 31913 NIL
AAXX 08181 32128 41599 73006 11037 21103 30099 40152 56008 73683 87300 333 91010 91111
BBXX 46004 08181 99509 71361 46/// /2205 10072 40093 52010 22200 00070 11512 70060 333 91207
BBXX A8IJ4 08180 99528 11774 41998 40105 11010 21026 40080 56008 70211 83043 22263 04061 21004 301// 41806 5//// 81016 /2015
BBXX DDAC2 08180 99491 11512 41497 72003 11035 21085 40120 58010 7//22 86870 22253 04014 20200 3//// 4//// 5//// 81050
BBXX VRCI9 08184 99500 11579 41398 52908 11020 21036 40090 52010 70221 8327/ 22254 00008 2//// 3//// 4//// 81025
BBXX 3FMH7 08184 99337 11428 41598 60910 00/// 10130 20073 40215 53008 7//// 84363 9//// 22273 00180 1//// 2//// 3//// 4//// 5//// 6//// 80100
BBXX JPBN 08184 99336 11389 41/97 63016 10102 20005 40232 54000 70211 82130 22253 00201 1//03 20402 399// 4//02 70015
BBXX MINFR09 0818/ 99360 11202 46/// ///// 40335 52001
BBXX SHIP 08184 99377 11461 41/98 21724 10050 20050 40163 55/// 70011 82/// 22214 04130 20305 399// 4//// 80050
BBXX UHFW 08181 99441 11363 42/98 93212 11050 40226 57020 22213 06040 20503
AAXX 08184 89610 46/// /0417 11046 39622 4//// 5//// 333 90700 91121
AAXX 08184 83437 32598 83603 10259 20199 39408 40120 885// 333 58003
AAXX 08184 83579 21599 73608 10208 20193 39016 40137 70362 877// 333 58020 60051
AAXX 08184 83592 21596 80901 10228 20213 39464 40145 76165 8472/ 333 58018 60041
AAXX 08184 82106 21195 81804 10264 20261 3//// 4//// 70362 887// 333 5//// 60021
AAXX 08184 82113 32596 60502 10312 20246 3//// 4//// 84301 333 5////
AAXX 08184 82212 21698 63602 10308 20258 30023 40104 70162 84820 333 58001 60021
AAXX 08184 82336 32591 60000 10314 20240 3//// 4//// 84220 333 5////
AAXX 08184 82425 32297 80904 10314 20286 3//// 4//// 885// 333 5////
AAXX 08184 82533 32497 50000 10302 20236 3//// 4//// 83250 333 5////
AAXX 08184 82704 32695 70000 10284 20246 39882 40075 87400 333 58018
AAXX 08184 82723 21196 81406 10252 20234 30047 40129 76166 887// 333 58012 60151
AAXX 08184 83599 32698 699// 10285 20250 40116 57014 86400 222// 20501 80260
AAXX 08184 83650 42798 41006 10290 20236 40189 57012 7//// 83530 222// 02266 21003 80250
AAXX 08184 83925 32398 21112 10246 20226 40168 57014 7010/ 82100 222// 20602 80232
AAXX 08184 83970 41598 11106 10270 20229 40215 57010 7180/ 81100 222// 02260 20401 80240
AAXX 08184 82042 32197 70000 10299 20249 3//// 4//// 87600 333 5////
AAXX 08184 82240 32596 40000 10311 20246 3//// 4//// 82231 333 5////
AAXX 08184 82317 32594 31404 10312 20225 3//// 4//// 82102 333 5////
AAXX 08184 82610 32695 60000 10308 20258 3//// 4//// 84320 333 5////
AAXX 08184 83064 32698 31806 10312 20228 39825 40117 82204 333 58001
AAXX 08184 83264 21796 83202 10280 20236 39686 40150 76100 8352/ 333 58028 69941
AAXX 08184 83332 21697 80000 10220 20201 39211 40120 70362 885// 333 58001 60091
AAXX 08184 83358 21598 83206 10278 20227 39693 40090 70362 8359/ 333 58026 60061
AAXX 08184 83423 21696 83603 10224 20212 39299 40118 76062 8492/ 333 58003 60081
AAXX 08184 83470 32698 50504 10288 20190 39242 40096 82101 333 58002
AAXX 08184 82143 31598 40310 10300 20247 40096 7011/ 82236 222// 80260 333 58009
AAXX 08184 83117 31597 71801 10280 20253 40153 57015 7012/ 88232 222// 02220 20101 80260
AAXX 08184 83384 32597 72702 10234 20206 39554 40135 8559/ 333 58006
AAXX 08184 83386 32598 41405 10300 20208 39569 40092 83344 333 59020
AAXX 08184 83388 32497 60903 10304 20194 39413 40071 85204 333 58002
AAXX 08184 83393 32599 60904 10284 20191 39404 40112 82336 333 58009
AAXX 08184 83442 32597 50502 10312 20217 39758 40099 81232 333 58008
AAXX 08184 83479 21598 63604 10250 20198 39331 40124 70152 86400 333 58005 69921
AAXX 08184 83483 21597 82306 10255 20214 39563 40125 70252 8441/ 333 58005 69921
AAXX 08184 83531 21597 81803 10198 20190 39099 40136 76261 8872/ 333 58017 60051
AAXX 08184 83538 21496 80902 10201 20164 38720 40113 75062 8672/ 333 58011 60011
AAXX 08184 83574 32794 63202 10302 20213 39586 40186 5//// 86100
AAXX 08184 83582 21196 80000 10232 20207 39360 40123 57014 76062 88700 333 60021
AAXX 08184 83595 32597 62302 10290 20232 30068 40152 84250 333 58030
AAXX 08184 83692 21995 93606 10190 20187 39114 40154 54000 76162 8//// 333 60121
AAXX 08184 82392 32499 30506 10377 20150 39964 40064 82110 333 59006
AAXX 08184 82583 32599 31413 10357 20155 39727 40058 83100 333 59014
AAXX 08184 82780 32598 31406 10371 20162 39840 40086 83200 333 59009
AAXX 08184 82979 32498 40907 10333 20180 39648 40088 83140 333 58002
AAXX 08184 82986 32598 40911 10345 20158 39810 40089 84100 333 58004
AAXX 08184 83179 32598 51804 10321 20152 39632 40070 84202 333 59001
AAXX 08184 83192 32597 21404 10334 20124 39952 40114 82200 333 58017
AAXX 08184 83339 32497 41409 10272 20179 39147 40097 83204 333 58008
AAXX 08184 83498 21595 50506 10283 20224 30154 40159 76166 82131 333 58024 60011
AAXX 08184 82863 32598 41804 10317 20235 39879 40089 83340 333 59015
AAXX 08184 83228 32799 22305 10300 20222 39823 40096 81202 333 59007
AAXX 08184 83270 32598 80000 10275 20233 39643 40124 887// 333 59014
AAXX 08184 83309 21695 80000 10282 20240 39822 40143 70561 8852/ 333 58052 60041
AAXX 08184 83319 32697 63202 10300 20230 39778 40149 82290 333 58008
AAXX 08184 83368 21698 80000 10236 20228 39753 40120 72196 8421/ 333 58009 60231
AAXX 08184 83526 32598 60000 10265 20200 39178 40110 86800 333 58003
AAXX 08181 56671 32980 20000 10021 21012 38234 57004 80002 333 00000 10164
AAXX 08181 57378 32960 71601 10039 21021 40327 57003 8703/ 333 10071
AAXX 08181 57426 31758 70000 10031 20024 40289 57010 71000 875// 333 05252 10096
AAXX 08181 57476 32960 80000 10041 21027 40319 57008 8807/ 333 10063
AAXX 08181 57584 32960 83602 10046 21020 40326 57005 8807/ 333 10059
AAXX 08181 57598 32760 72901 10051 20016 40319 57004 875// 333 10069
AAXX 08181 57655 32960 80402 10049 21046 40315 57008 8807/ 333 10073
AAXX 08181 57713 NIL
AAXX 08181 57776 32568 72201 11007 21021 40323 57003 875// 333 11007
AAXX 08181 58321 31956 80701 10042 20019 40339 52002 71000 8807/ 333 10079
AAXX 08181 58437 11670 83204 11027 21035 38207 54000 69941 70070 885// 333 10003
AAXX 08181 58445 NIL
AAXX 08181 58556 11650 80202 10051 20039 40310 54000 69931 72166 885// 333 10077
AAXX 08181 58569 32772 83606 10070 20036 40296 57004 885// 333 10103
AAXX 08181 58646 31650 83201 10072 20058 40301 52001 71000 885// 333 10104
AAXX 08181 58653 NIL
AAXX 08181 58660 NIL
AAXX 08181 58715 31730 83402 10045 20025 40314 57002 71000 8557/ 333 10047
AAXX 08181 58730 11660 82701 10073 20053 40293 57001 69901 72160 885// 333 10095
AAXX 08181 58731 11959 80201 10051 20042 40298 54000 69901 76060 8807/ 333 10087
AAXX 08181 58754 32562 83602 10102 20054 40288 57001 885// 333 10147
AAXX 08181 58911 11462 82702 10059 20036 40295 52003 69901 70060 885// 333 10087
AAXX 08181 58931 31/00 93206 10062 20061 38407 57004 74740 333 10094
AAXX 08181 59254 31758 80401 10101 20084 40268 57006 71000 885// 333 10105
AAXX 08181 59632 11761 83402 10100 20065 40255 57010 69901 70060 885// 333 10105
AAXX 08181 59855 32568 73201 10153 20132 40232 57005 878// 333 10214
BBXX 46004 08181 99509 71361 46/// /2205 10072 40093 52010 22200 00070 11512 70060 333 91207
AAXX 08181 38846 429// 60404 11076 21116 38539 48510 52003 83033
AAXX 08184 43086 32596 41803 10258 20186 39953 40131 83530 333 59017
AAXX 08184 43128 31996 01403 10240 20161 39525 40131 70510 333 59022
AAXX 08184 43150 32596 21802 10230 20205 30076 40151 82500 333 59022 82620
AAXX 08184 43185 31596 21402 10230 20212 30140 40144 70500 82500 333 59020 82620
AAXX 08184 43189 32996 00000 10230 20202 30145 40154 333 59019
AAXX 08184 43198 32996 00000 10180 20121 39308 40146 333 59017
AAXX 08184 43201 32996 00902 10232 20183 39410 40127 333 59013
AAXX 08184 43213 32996 09901 10244 20126 39812 40130 333 59023
AAXX 08184 43226 32996 00000 10230 20205 30109 40139 333 59011
AAXX 08184 43233 32996 00000 10190 20092 39327 40148 333 59018
AAXX 08184 43237 32996 01404 10238 20148 39733 40127 333 59027
AAXX 08184 43245 32596 30000 10250 20229 30119 40146 83500 333 59020
AAXX 08184 43279 32596 30902 10240 20225 30135 40153 82501 333 59018 82620
AAXX 08184 43284 32996 03603 10250 20220 30016 40132 333 59007
AAXX 08184 43295 32996 20903 10204 20185 39128 48533 80001 333 59015 82075
AAXX 08184 43311 32596 20502 10270 20238 40134 82500 333 56800 59003 82625
AAXX 08184 43314 32996 00000 10270 20241 40138 333 59013
AAXX 08184 43321 31996 00903 10238 20204 39703 40153 70500 333 59016
AAXX 08184 43329 32596 40000 10260 20231 30130 40144 84500 333 59028
AAXX 08184 43344 31996 20903 10244 20226 30051 40152 70511 80001 333 59011 82075
AAXX 08184 43346 22596 70506 10264 20244 30137 40144 86502 333 59012 6004/ 86620 83075
AAXX 08184 43353 32496 50000 10282 20239 40132 81531 333 56699 59014 81616 83359 85072
AAXX 08184 43369 32596 40503 10274 20242 40135 82402 333 59011 82620 83075
AAXX 08184 43371 32596 60000 10270 20241 30065 40138 82430 333 59007 82620 85360
AAXX 08184 45011 47558 /3406 10111 20082 40244 52002 70211 333 59021
AAXX 08184 41254 36/// /0000 10111 20044 38005 48010 333 0E009 10189 58015
AAXX 08184 71283 16/// /2415 10040 21007 60001 333 10041 21031 70000
AAXX 08184 71461 16/// /2418 10059 21005 60001 333 10067 21016 70000
AAXX 08184 71468 16/// /3011 11075 21095 39889 40222 58002 60001 333 21108 70000
AAXX 08184 71483 16/// ///// 10036 21028 60001 333 10036 7////
AAXX 08184 71500 16/// /2605 10064 21035 60001 333 10064 21022 70000
AAXX 08184 71504 16/// ///// 10066 21032 60001 333 10067 21042 70000
AAXX 08184 71526 16/// /2408 10066 21031 60001 333 10066 21041 70000
AAXX 08184 71541 16/// /2517 10045 21008 60001 333 10052 21029 70000
AAXX 08184 71543 16/// /2804 10037 21007 60001 333 10049 21057 70000
AAXX 08184 71546 16/// /2514 10066 21010 60001 333 10070 21009 70000
AAXX 08184 71547 16/// /2424 10056 21022 60001 333 10056 21023 70000
AAXX 08184 71549 16/// ///// 10058 21023 60001 333 10061 21044 70000
AAXX 08184 71010 16/// /2610 10040 21045 60001 333 10042 21043 70000
AAXX 08184 71011 16/// ///// 11008 21056 60001 333 11008 21070 70000
AAXX 08184 71049 16/// /0615 11267 39925 49949 56006 60001 333 11266 21357 7////
AAXX 08184 71758 16/// /2507 10006 21006 30043 40120 53023 60001 333 10024 21023 70005
AAXX 08184 71788 16/// /2615 10067 21036 60001 333 10067 21063 70000
AAXX 08184 71792 16/// ///// 10013 21051 60001 333 10013 21061 70000
AAXX 08184 71894 17/// /1019 10081 20081 30205 40214 55001 60391 7//4/ 333 10087 20058 70806
AAXX 08184 71332 16/// /1701 11291 21322 39948 49978 53012 60001 333 11266 21302 70000
AAXX 08184 71336 46/// ///17 10034 20028 39988 40010 53024 6///1 333 10062 21029 7////
AAXX 08184 71221 16/// /2413 10046 21009 60001 333 10048 21110 70006
AAXX 08184 71226 16/// /2517 10070 21009 60001 333 10072 21001 70000
AAXX 08184 71229 46/// /2523 10049 21013 6///1 333 10056 21132 7//// 555 10010
AAXX 08184 71405 16/// ///// 10047 21019 60001 333 10047 21087 7////
AAXX 08184 71417 17/// /2915 11070 21081 30045 40080 53013 60031 7//4/ 333 11054 21086 70075
AAXX 08184 71426 46/// /3125 11088 6///1 333 11070 21101 7////
AAXX 08184 71148 16/// /2210 11017 21045 39596 40185 58009 60001 333 11017 21097 70000
AAXX 08184 71888 16/// ///// 10064 21029 60001 333 10065 21070 70000
AAXX 08184 71895 16/// ///// 10027 21016 60001 333 10029 21076 70000
AAXX 08184 71673 16/// ///// 10010 21042 60001 333 10015 21057 70000
AAXX 08184 71690 16/// ///// 10032 21007 60001 333 10042 21023 70000
AAXX 08184 71695 17/// /1914 11043 21055 39677 40013 58055 69971 7//4/ 333 11043 21135 70007 555 10010
AAXX 08184 71067 16/// ///// 10040 21033 60001 333 10040 21061 70000
AAXX 08184 71359 16/// /2708 10051 21018 60001 333 10051 21079 70000
AAXX 08184 71283 16/// /2415 10040 21007 60001 333 10041 21031 70000
AAXX 08184 71894 17/// /1019 10081 20081 30205 40214 55001 60391 7//4/ 333 10087 20058 70806
AAXX 08184 71461 16/// /2418 10059 21005 60001 333 10067 21016 70000
AAXX 08184 71468 16/// /3011 11075 21095 39889 40222 58002 60001 333 21108 70000
AAXX 08184 71483 16/// ///// 10036 21028 60001 333 10036 7////
AAXX 08184 71148 16/// /2210 11017 21045 39596 40185 58009 60001 333 11017 21097 70000
AAXX 08184 71359 16/// /2708 10051 21018 60001 333 10051 21079 70000
AAXX 08184 71758 16/// /2507 10006 21006 30043 40120 53023 60001 333 10024 21023 70005
AAXX 08184 71788 16/// /2615 10067 21036 60001 333 10067 21063 70000
AAXX 08184 71792 16/// ///// 10013 21051 60001 333 10013 21061 70000
AAXX 08184 71500 16/// /2605 10064 21035 60001 333 10064 21022 70000
AAXX 08184 71504 16/// ///// 10066 21032 60001 333 10067 21042 70000
AAXX 08184 71526 16/// /2408 10066 21031 60001 333 10066 21041 70000
AAXX 08184 71541 16/// /2517 10045 21008 60001 333 10052 21029 70000
AAXX 08184 71543 16/// /2804 10037 21007 60001 333 10049 21057 70000
AAXX 08184 71546 16/// /2514 10066 21010 60001 333 10070 21009 70000
AAXX 08184 71547 16/// /2424 10056 21022 60001 333 10056 21023 70000
AAXX 08184 71549 16/// ///// 10058 21023 60001 333 10061 21044 70000
AAXX 08184 71010 16/// /2610 10040 21045 60001 333 10042 21043 70000
AAXX 08184 71011 16/// ///// 11008 21056 60001 333 11008 21070 70000
AAXX 08184 71049 16/// /0615 11267 39925 49949 56006 60001 333 11266 21357 7////
AAXX 08184 71221 16/// /2413 10046 21009 60001 333 10048 21110 70006
AAXX 08184 71226 16/// /2517 10070 21009 60001 333 10072 21001 70000
AAXX 08184 71229 46/// /2523 10049 21013 6///1 333 10056 21132 7//// 555 10010
AAXX 08184 71332 16/// /1701 11291 21322 39948 49978 53012 60001 333 11266 21302 70000
AAXX 08184 71336 46/// ///17 10034 20028 39988 40010 53024 6///1 333 10062 21029 7////
AAXX 08184 71405 16/// ///// 10047 21019 60001 333 10047 21087 7////
AAXX 08184 71417 17/// /2915 11070 21081 30045 40080 53013 60031 7//4/ 333 11054 21086 70075
AAXX 08184 71426 46/// /3125 11088 6///1 333 11070 21101 7////
AAXX 08184 71067 16/// ///// 10040 21033 60001 333 10040 21061 70000
AAXX 08184 71888 16/// ///// 10064 21029 60001 333 10065 21070 70000
AAXX 08184 71895 16/// ///// 10027 21016 60001 333 10029 21076 70000
AAXX 08184 71673 16/// ///// 10010 21042 60001 333 10015 21057 70000
AAXX 08184 71690 16/// ///// 10032 21007 60001 333 10042 21023 70000
AAXX 08184 71695 17/// /1914 11043 21055 39677 40013 58055 69971 7//4/ 333 11043 21135 70007 555 10010
AAXX 08181 45032 36/// /9901 10100 20091 30223 40240 57001
AAXX 08181 45035 36/// /3405 10132 20100 30199 40242 57001
AAXX 08181 45039 36/// /0501 10130 20099 30222 40238 57001
AAXX 08181 45044 36/// /0004 10131 20104 30138 40233 57001
AAXX 08181 45032 36/// /9901 10100 20091 30223 40240 57001
AAXX 08181 45035 36/// /3405 10132 20100 30199 40242 57001
AAXX 08181 45039 36/// /0501 10130 20099 30222 40238 57001
AAXX 08181 45044 36/// /0004 10131 20104 30138 40233 57001
BBXX 46146 08181 99493 71237 46/// /0908 10066 40262 52006 22200 00069 10301 70005 333 91210
AAXX 08181 56144 32780 50000 11059 21189 36849 52010 84402 333 00001 10057
AAXX 08181 56152 32980 00000 11167 21201 36288 52003 333 05101 10004
AAXX 08181 56167 32980 60000 11084 21111 37080 52003 80002 333 05100 10079
AAXX 08181 56182 32680 83201 11060 21104 37188 57006 885// 333 05202 10050
AAXX 08181 56357 32980 00000 11107 21189 36461 52001 333 00101 10048
AAXX 08181 56586 32970 03401 11026 21037 38075 54000 333 05200 10118
AAXX 08181 56748 32980 00000 10053 20032 38397 57001 333 05151 10178
AAXX 08181 56763 32980 21603 10132 20012 40161 57002 80002 333 00001 10245
AAXX 08181 56768 32680 72902 10070 20023 38217 57003 82402 333 00001 10176
AAXX 08181 56838 32966 00402 10125 20095 40197 57006 333 05200 10236
AAXX 08181 56886 32980 72202 10066 20034 38328 57002 80002 333 05103 10180
AAXX 08181 56946 32575 40000 10086 20080 40215 54000 81102 333 05100 10224
AAXX 08181 56959 32965 00000 10136 20134 40185 57002 333 00000 10265
AAXX 08181 56969 31958 01801 10134 20125 40195 57001 71000 333 00053 10272
AAXX 08181 57731 32662 82001 10056 21002 40304 57011 885// 333 05202 10071
AAXX 08181 57766 32760 80901 10046 21016 40321 57004 885// 333 10065
AAXX 08181 57845 32960 83401 10049 21009 40304 57004 885// 333 10060
AAXX 08181 57853 31756 80901 10043 21005 40320 57006 71000 885// 333 10054
AAXX 08181 57916 32663 80000 10075 20051 40282 57003 885// 333 05202 10095
AAXX 08181 57922 11320 80000 10020 20019 40299 57006 69911 76060 887// 333 05102 10031
AAXX 08181 57932 31657 80000 10059 20039 40304 57001 71000 885// 333 05201 10079
AAXX 08181 58338 31540 83601 10045 20038 40326 52007 71000 885// 333 10053
AAXX 08181 59007 11462 80000 10056 20038 40256 57001 69901 75000 886// 333 10074
AAXX 08181 59046 31757 83601 10084 20042 40287 57004 71000 885// 333 10101
AAXX 08181 59058 31856 83202 10077 20030 40284 57006 71000 885// 333 10077
AAXX 08181 59072 31758 80202 10072 20013 40294 57003 70500 885// 333 10091
AAXX 08181 59087 32760 70705 10094 20046 40270 54000 875// 333 10123
AAXX 08181 59209 11358 83401 10083 20072 40255 57006 69901 76066 887// 333 10095
AAXX 08184 84008 32680 11816 10293 20219 30128 40138 81100 00244 333 58001 555 30064
AAXX 08184 84135 32675 60902 10294 20206 30071 84239 333 58000 555 30059
AAXX 08184 84143 11658 80000 10136 20105 37413 60011 75052 8142/ 333 58011 555 10013 30081
AAXX 08184 84088 31560 80904 10122 20110 37077 71544 8472/ 333 58008 555 30092
AAXX 08184 84076 31550 81404 10172 20127 71644 884// 555 30075
AAXX 08184 84036 11565 83604 10144 20101 69941 75052 8671/ 555 10004 30056
AAXX 08184 84056 31265 82308 10162 20114 71544 8542/ 555 30072
AAXX 08184 84050 11465 81804 10254 20213 30031 60031 75056 887// 555 10026 30076
AAXX 08184 84270 31565 53606 10212 20130 74042 85500 555 30060
AAXX 08184 84179 11460 80000 10196 20183 39077 60061 79594 8792/ 333 58016 555 10064 30096
AAXX 08184 84202 31565 53204 10296 20233 30149 70544 85500 333 59003 555 30069
AAXX 08184 84140 32582 62206 10280 20225 30034 40119 86200 333 58000 555 30072
AAXX 08184 84160 31450 80504 10145 20094 37273 74044 888// 333 58008 555 30071
AAXX 08184 84072 11565 80402 10176 20114 37309 69901 75022 8552/ 333 58012 555 1T 30067
AAXX 08184 84045 11220 80906 10106 20097 69911 75022 887// 555 10001 30094
AAXX 08184 84132 11565 70404 10259 20233 39892 60061 79594 85960 333 58006 555 10055 30086
AAXX 08184 84105 12560 70904 10262 20218 31003 69931 83110 333 58000 555 10003 30077
AAXX 08184 84226 31560 83606 10130 20130 74042 886// 555 30100
AAXX 08184 84001 31565 31315 10286 20219 30107 40127 70544 83500 333 59004
AAXX 08184 84010 32481 31412 10292 20231 83200
AAXX 08184 84018 31580 63008 10270 20237 30117 40124 70544 85230 333 58005
AAXX 08184 84027 11565 80906 10124 20107 37183 47156 69981 71665 8422/ 333 58011 555 10008
AAXX 08184 84063 11570 82403 10252 20228 39770 40103 60121 72996 8623/ 333 58016 555 10122
AAXX 08184 84069 11570 71706 10254 20215 60021 72064 86230 555 10016
AAXX 08184 84071 11560 83304 10157 20098 37291 47144 69921 71664 8521/ 333 58010 555 10002
AAXX 08184 84099 11275 83204 10255 20226 3//// 40115 60081 72062 8312/ 333 5//// 555 10080
AAXX 08184 84117 31560 53206 10286 20219 30098 40121 70544 82130 333 58000
AAXX 08184 84123 11560 81502 10126 20112 37309 47146 60011 76164 8522/ 333 58014 555 10010
AAXX 08184 84147 11458 70000 10145 20122 69961 76064 86270 555 10006
AAXX 08184 84163 11420 81105 10199 20190 38967 48515 60071 76162 8682/ 333 58015 555 10071
AAXX 08184 84176 31680 70912 10198 20122 71542 85230
AAXX 08184 84200 31575 22811 10278 20229 70544 81130
AAXX 08184 84203 11570 43606 10298 20205 30100 40105 69911 70564 83130 333 58004 555 10001
AAXX 08184 84217 11440 80503 10214 20194 69951 76064 86270 555 10005
AAXX 08184 84239 32680 50604 10191 20101 37550 47165 85230 333 58008
AAXX 08184 84252 31570 23505 10299 20240 30101 40109 70544 82200 333 59009
AAXX 08184 84265 32680 40000 10260 20180 37624 4//// 84100 333 58005
BBXX 46146 08181 99493 71237 46/// /0908 10066 40262 52006 22200 00069 10301 70005 333 91210
AAXX 08184 67002 32580 33411 10283 20245 30094 40127 81802 333 10318 58002 81822 83073 92408
AAXX 08184 67009 NIL
AAXX 08184 67027 11560 80208 10241 20231 30080 40101 59019 60082 79196 8487/ 333 10296 82820 83640 86460
AAXX 08184 67073 11575 7//// 10266 20237 30035 40061 52017 69922 71522 8387/ 333 10281 82820 83633 85460
AAXX 08184 67083 11465 70204 10170 20156 38729 48502 51009 60032 76066 878// 333 10218 81817 87620
AAXX 08184 67095 11465 70000 10262 20254 30105 40111 51015 60022 71522 879// 333 10307 83817 81917 86633 94967 95837
AAXX 08184 67117 11475 8//// 10257 20237 39977 49986 52016 60134 71562 8452/ 333 10252 83617 88460
AAXX 08184 67137 11265 8//06 10180 20178 38477 48479 51005 60062 71566 8487/ 333 10199 81707 81817 83620 88460
AAXX 08184 67152 11465 8//// 10188 20180 39171 48473 54001 60182 76366 8487/ 333 10215 83817 85458 555 82620
AAXX 08184 67161 32480 7//// 10274 20221 30058 40067 51010 8487/ 333 10325 82820 87460 555 82640
AAXX 08184 67197 32480 70806 10248 20219 30103 40113 51008 8587/ 333 10292 82817 84633 85460
AAXX 08184 63125 32560 31007 10265 20228 40176 83200 333 58011 83820
BBXX V7DS3 08183 99153 71071 41498 80909 10250 20220 40160 54000 70222 8/14/ 22223 06260 20402 327// 40402 80230
BBXX C6QF4 08183 99360 11313 41197 23420 10070 21009 40277 54000 70200 82100 22213 06150 20303 302// 40503 5//// 80040
BBXX V7DS3 08183 99153 71071 41498 80909 10250 20220 40160 54000 70222 8/14/ 22223 06260 20402 327// 40402 80230
AAXX 08184 89507 46/// /3207 29072 36716 4//// 5////
AAXX 0818/ 89767 46/// ///// 11035 39696 4//// 5////
BBXX 44258 08181 99445 70634 46/// /3304 10043 40149 52005 22200 00055 10803 70015 333 91205
AAXX 08184 89667 46/// /2302 11020 29082 39816 4//// 5////
AAXX 08184 89667 46/// /1104 11021 29079 39816 4//// 5//// 91810
AAXX 0818/ 89828 46/// ///// 11270 36465 4//// 5//// 91810
AAXX 0818/ 89108 46/// ///// 11228 36892 4//// 5////
AAXX 0818/ 89108 46/// ///// 11233 36892 4//// 5//// 91810
AAXX 0818/ 89879 46/// ///// 10004 39738 4//// 5//// 91810
AAXX 0818/ 89872 46/// ///// 11018 39759 4//// 5////
AAXX 0818/ 89872 46/// ///// 11024 39760 4//// 5//// 91810
AAXX 0818/ 89869 46/// ///// 11053 39750 4//// 5//// 91810
AAXX 0818/ 89866 46/// ///// 11016 39709 4//// 5////
AAXX 0818/ 89866 46/// ///// 11011 39710 4//// 5//// 91810
AAXX 0818/ 89329 46/// ///// 11071 38736 4//// 5//// 91810
AAXX 0818/ 89799 46/// ///// 11250 4//// 5//// 91810
AAXX 0818/ 89332 46/// ///// 11035 39232 4//// 5//// 91810
AAXX 0818/ 89769 46/// ///// 11029 39775 4//// 5////
AAXX 0818/ 89769 46/// ///// 11029 39775 4//// 5//// 91810
AAXX 0818/ 89314 46/// ///// 11071 38183 4//// 5////
AAXX 0818/ 89314 46/// ///// 11074 38184 4//// 5//// 91810
BBXX 44258 08181 99445 70634 46/// /3304 10043 40149 52005 22200 00055 10803 70015 333 91205
AAXX 08184 96009 31450 71503 10238 20226 30088 40123 57005 70521 83921 333 56000 57902 81915 82617 80965
AAXX 08184 96011 11559 70306 10254 20230 30101 40127 57005 69901 70262 84532 333 56000 84620
AAXX 08184 96035 32457 80000 10259 20234 30080 40118 57011 85576 333 56000 85617
AAXX 08184 96073 31556 70000 10251 20240 30109 40120 51011 70522 83522 333 56000 83620
AAXX 08184 96091 01440 83512 10248 20233 30096 40119 57007 60011 76162 84528 333 56000 69907 84613 87280
AAXX 08184 96109 32458 70000 10255 20225 30075 40114 51004 84531 333 56000 84615
AAXX 08184 96145 31420 73502 10260 20230 30100 40102 58010 69901 70522 86520 333 56800 86615 87460
AAXX 08184 96147 NIL
AAXX 08184 96163 32560 60000 10246 20237 30106 40108 57008 82531 333 56000 82620
AAXX 08184 96179 NIL
AAXX 08184 96195 NIL
AAXX 08184 96221 32460 73106 10245 20229 30089 40104 58013 82131 333 56999 82818 84360 86080
AAXX 08184 96237 32457 70000 10242 20232 30057 40099 58012 83278 333 56000 57802 83816 83360 85280 80860
AAXX 08184 96249 32458 72812 10258 20234 30029 40090 57019 85932 333 56700 57971 57871 81917 84820 80981
AAXX 08184 96253 32460 60203 10255 20233 30062 40083 57016 83932 333 56000 57900 57800 81915 81820 83360
AAXX 08184 96295 32460 60000 10254 20236 39997 40099 56008 82531 333 56000 82618
AAXX 08184 96509 NIL
AAXX 08184 96581 01456 80000 10246 20240 30077 40084 57007 69981 70262 8512/ 333 56809 69907 85810 88462 80856
AAXX 08184 96633 01558 70000 10240 20236 30075 40083 57023 72162 82571 333 56000 69937 82620 84460
AAXX 08184 96645 NIL
AAXX 08184 96655 32458 70000 10255 20247 30077 40112 57005 85472 333 56000 85613
AAXX 08184 96685 01459 80000 10250 20239 30065 40091 57015 60161 76062 84511 333 56000 60167 84615 87462
AAXX 08184 96749 31550 52408 10255 20230 30084 40098 58014 70522 81571 333 56000 81622 85462
AAXX 08184 96781 NIL
AAXX 08184 96805 NIL
AAXX 08184 96839 01556 71303 10246 20234 30076 40083 56017 60011 72166 84272 333 56000 57809 69937 84818 80862
AAXX 08184 96935 32558 82907 10252 20231 30070 40076 57019 82271 333 56600 82820 85080
AAXX 08184 97008 32459 50605 10262 20244 30073 40083 57007 83272 333 56800 57881 83819 80860
AAXX 08184 97016 11562 30000 10253 20229 30082 40084 57019 69901 70162 81132 333 56000 57803 81820 80860
AAXX 08184 97126 01457 80000 10242 20230 30030 40090 57027 60111 70262 8392/ 333 56009 57900 69947 82915 88460 80980
AAXX 08184 97182 01458 83012 10256 20241 30081 40085 57019 60061 72162 8382/ 333 56009 57800 60027 82819 88459 808//
AAXX 08184 97240 01450 73306 10234 20231 39958 40075 57024 60071 76166 84131 333 56000 57801 60017 84816 80860
AAXX 08184 97310 NIL
AAXX 08184 97320 01440 80000 10236 20236 30067 40080 57024 60321 76166 8692/ 333 56009 57901 60147 81912 85614 88460 80958
AAXX 08184 97378 11560 70000 10260 20251 39912 40074 56014 69901 70262 84171 333 56000 84820
AAXX 08184 97406 32460 70000 10230 20227 30051 40077 57009 85556 333 56000 57801 85818 80860
AAXX 08184 97570 11458 83505 10240 20234 30081 40088 56009 60051 76066 887// 333 56000 60027 88712
AAXX 08184 97630 32462 73605 10232 20220 39925 40085 56018 84942 333 56000 57901 81912 83813 85360 80978
AAXX 08184 97700 32460 40000 10250 20237 30063 40077 57018 82232 333 56000 57803 82818 80856
AAXX 08184 97722 32463 70000 10257 20239 30065 40080 57020 83872 333 56600 57861 82819 80856
AAXX 08184 97014 NIL
AAXX 08184 97028 NIL
AAXX 08184 97048 32460 30000 10250 20232 30061 40085 57014 82231 333 56000 57802 82818 80860
AAXX 08184 97072 32558 60000 10254 20233 30055 40105 57009 82521 333 56000 82620 84360
AAXX 08184 97086 NIL
AAXX 08184 97096 12460 51402 10258 20246 30080 40102 59009 82231 333 56000 57803 60057 82816 83460 80860
AAXX 08184 97120 32459 50000 10250 20236 30057 40090 56016 82231 333 56000 57802 82818 80860
AAXX 08184 97146 NIL
AAXX 08184 97180 01440 70805 10240 20240 30075 40093 56019 60131 76062 83272 333 56000 60117 83819 85360
AAXX 08184 97192 NIL
AAXX 08184 97230 01456 82917 10260 20243 30064 40071 57024 60121 76062 85272 333 56600 60077 85614 85460
AAXX 08184 97260 NIL
AAXX 08184 97270 11450 60000 10258 20252 30056 40061 57020 69911 70562 83111 333 56000 83813
AAXX 08184 97300 01560 81303 10251 20244 30035 40075 57015 60071 72162 83271 333 56000 57801 60077 83820 84459 80858
AAXX 08184 97340 NIL
AAXX 08184 97372 32458 80000 10254 20243 39949 40069 57020 83241 333 56000 83817 85080
AAXX 08184 97430 32460 50000 10252 20237 30054 40083 57015 82232 333 56700 57873 82818 80860
AAXX 08184 97460 32460 70000 10234 20222 30053 40067 57017 82836 333 56000 57803 82818 80857
AAXX 08184 97502 32450 70603 10234 20228 30070 40074 57016 82531 333 56000 82620
AAXX 08184 97530 NIL
AAXX 08184 97560 01459 82511 10248 20236 30072 40087 55009 60021 72162 84977 333 56000 57903 57804 60027 82917 83620 86361 88279 80980 80860
AAXX 08184 97686 NIL
AAXX 08184 97690 NIL
AAXX 08184 97724 31459 43302 10243 20233 30060 40076 57015 70522 333 56600 57864 82816 80850
AAXX 08184 97748 NIL
AAXX 08184 97760 32460 70000 10242 20230 30082 40091 57010 82202 333 56000 57801 82816 80860
AAXX 08184 97796 NIL
AAXX 08184 97810 NIL
AAXX 08184 97900 01458 73404 10262 20247 30047 40076 56015 69901 76022 85820 333 56800 57881 69907 83615 87460 80858
AAXX 08184 97980 NIL
AAXX 08184 96001 NIL
AAXX 08184 96015 32450 70000 10257 20251 30111 40118 58002 85572 333 56000 85615
AAXX 08184 96033 31440 80000 10268 20238 30111 40117 57018 71622 83928 333 56000 57903 81918 83617 85457 80980
AAXX 08184 96075 32456 60000 10252 20241 30110 40115 52002 82571 333 56000 82620 84362
AAXX 08184 96087 32458 80309 10247 20232 30084 40118 58006 8452/ 333 56109 84615 88460
AAXX 08184 96171 31540 60000 10250 20227 30089 40114 56007 70521 83522 333 56000 83620
AAXX 08184 96207 NIL
AAXX 08184 96525 32400 50000 10246 20236 30094 40101 58012 82431 333 56000 82615
AAXX 08184 96529 32450 60000 10239 20237 30092 40116 56013 82101 333 56000 82818 85080
AAXX 08184 96559 31330 72704 10250 20241 30071 40109 52012 71322 85970 333 56200 57922 57824 81914 84809 86462 80974 80849
AAXX 08184 96607 11458 70000 10242 20232 30084 40099 56003 69901 70362 83521 333 56000 85615
AAXX 08184 96615 01450 72305 10256 20244 30072 40086 56017 60111 70262 83131 333 56600 57863 60047 83812 87363 80856
AAXX 08184 96737 31450 60000 10256 20244 30061 40091 57006 70522 84521 333 56000 84615
AAXX 08184 96739 NIL
AAXX 08184 96741 32550 52604 10266 20228 30087 40091 57012 82531 333 56000 82622
AAXX 08184 96745 NIL
AAXX 08184 96751 NIL
AAXX 08184 96791 11457 70000 10254 20239 30035 40109 57011 69991 70262 84571 333 56000 84618
AAXX 08184 96797 01558 52803 10251 20241 30081 40087 58021 69921 70162 81231 333 56000 57804 69927 81820 83360 80860
AAXX 08184 96837 NIL
AAXX 08184 96925 01464 82908 10277 20242 30076 40081 56017 69901 83272 333 56600 57860 69907 83817 85360 80860
AAXX 08184 96933 32460 72706 10252 20237 30082 40086 57016 83571 333 56600 83618 85460
AAXX 08184 96937 32958 82706 10263 20235 30071 40076 57020 8802/ 333 56009 88460
AAXX 08184 96973 NIL
AAXX 08184 96987 01458 80000 10238 20231 30027 40081 57014 60061 76062 85521 333 56000 60017 85618
BBXX 44140 08181 99429 70515 46/// /2210 10161 40132 57007 22200 00094 10807 70034 333 91212
BBXX 44099 08181 99369 70757 46/// ///// 1//// 91822 22200 00099 10502 20502 70011
BBXX 44039 08181 99411 70727 46/// /2906 10061 21025 40221 91753 22200 00069 10301 70004 333 91208
AAXX 08184 67002 32580 33411 10283 20245 30094 40127 81802 333 10318 58002 81822 83073 92408
AAXX 08184 67009 NIL
AAXX 08184 67012 NIL
AAXX 08184 67025 NIL
AAXX 08184 67027 11560 80208 10241 20231 30080 40101 59019 60082 79196 8487/ 333 10296 82820 83640 86460
AAXX 08184 67072 NIL
AAXX 08184 67073 11575 7//// 10266 20237 30035 40061 52017 69922 71522 8387/ 333 10281 82820 83633 85460
AAXX 08184 67083 11465 70204 10170 20156 38729 48502 51009 60032 76066 878// 333 10218 81817 87620
AAXX 08184 67085 NIL
AAXX 08184 67095 11465 70000 10262 20254 30105 40111 51015 60022 71522 879// 333 10307 83817 81917 86633 94967 95837
AAXX 08184 67113 NIL
AAXX 08184 67117 11475 8//// 10257 20237 39977 49986 52016 60134 71562 8452/ 333 10252 83617 88460
AAXX 08184 67137 11265 8//06 10180 20178 38477 48479 51005 60062 71566 8487/ 333 10199 81707 81817 83620 88460
AAXX 08184 67143 NIL
AAXX 08184 67152 11465 8//// 10188 20180 39171 48473 54001 60182 76366 8487/ 333 10215 83817 85458 555 82620
AAXX 08184 67157 NIL
AAXX 08184 67161 32480 7//// 10274 20221 30058 40067 51010 8487/ 333 10325 82820 87460 555 82640
AAXX 08184 67197 32480 70806 10248 20219 30103 40113 51008 8587/ 333 10292 82817 84633 85460
AAXX 08184 68916 36/// /0706 10201 20187 39856 40120 52008 333 10233 20201 91017 555 91012
AAXX 08181 32287 41395 80802 11178 21190 30119 40130 53008 78582 889// 333 88707
BBXX 44140 08181 99429 70515 46/// /2210 10161 40132 57007 22200 00094 10807 70034 333 91212
BBXX 46036 08181 99484 71339 46/// /0504 10082 40101 57004 22200 00078 11108 70038 333 91206
BBXX 46036 08181 99484 71339 46/// /0504 10082 40101 57004 22200 00078 11108 70038 333 91206
AAXX 08184 41254 36/// /0000 10111 20044 38005 48010 333 0E009 10189 58015
BBXX 41010 08181 99289 70785 46/// /0301 10218 40231 91820 22200 00233 11002 20401 300// 41001 70008 333 91203 555 11014 22015
BBXX 41009 08181 99285 70802 46/// /3202 10208 20136 40236 91820 22200 00233 11101 300// 41101 70004 333 91203 555 11019 22020
BBXX 42099 08181 99273 70842 46/// ///// 1//// 91827 22200 00234 10301 20301 70005
BBXX 62105 08184 99554 70121 46/// /2327 10109 20096 40162 56013 22200 00105 10709 70043 333 90710 91136
BBXX 64045 08184 99591 70117 46/// /2229 10103 20094 40024 58024 22200 00099 10812 70060 333 90710 91143
BBXX 63055 08184 99606 10016 47998 /1415 10064 20004 40139 57017 700// 22200 10805 70024
BBXX 63106 08184 99610 10017 46/// /1617 10060 40140 57015 22200
BBXX 63105 08184 99610 10017 47998 ///// 10067 21011 40139 57015 700// 22200
BBXX 62103 08184 99499 70029 46/99 /3219 10109 20096 40296 55001 22200 00115 10903 70013 333 90710 91126
BBXX 63119 08184 99583 10009 41397 81916 10070 20070 40156 55005 76022 8/878 22200 20603 332// 40804 5//// 80070
AAXX 08183 63612 32980 30000 10290 20190 40105 80001 333 58005 83080
AAXX 08183 63661 32980 20904 10177 20101 48534 81054 333 10284 58005 81360
AAXX 08183 63671 32980 00000 10285 20191 333 10357
AAXX 08183 63695 32980 00000 10157 20135 333 10264
AAXX 08183 63723 32582 10000 10312 20212 40095 81500 333 10370 59003 81628
AAXX 08183 63772 12980 10905 10264 20237 69902 80001 333 10314 81077
AAXX 08183 63793 32980 40000 10270 20177 40083 80002 333 10325 59008 84077
AAXX 08181 20046 NIL
AAXX 08181 20069 NIL
AAXX 08181 20087 41998 21406 11300 21330 30203 40215 57007 73630 80001
AAXX 08181 20292 NIL
AAXX 08181 20353 46/// /1310 11124 21147 30073 40077 57009 333 91113
AAXX 08181 20667 11996 81110 11106 21112 30042 40049 57030 69920 77173 8802/ 333 11095
AAXX 08181 20674 41294 81813 11170 21183 30093 40156 57018 77373 8672/ 333 86706 91117 92982
AAXX 08181 20744 11496 71015 11078 21096 39971 49989 52008 69940 78583 86930 333 11074 86916 91126
AAXX 08181 20891 42998 51903 11335 21365 30267 40315 57005 85030 333 91105
AAXX 08181 23022 11496 82408 11013 21018 39933 49992 53002 69950 78583 889// 333 11031
AAXX 08181 23032 11297 82009 11052 21059 39964 49994 57020 69970 77177 8872/ 333 11040 88506
AAXX 08181 23058 11394 81507 11148 21161 30111 40116 57030 60010 77173 8872/ 333 11154 87707 91115
AAXX 08181 23242 11496 81209 11052 21062 30055 40071 57015 69900 78583 889// 333 11058 88911 91113
AAXX 08181 23256 11395 81508 11156 21175 30110 40147 57034 69900 77373 885// 333 11182 85708 91012 91113 92992
AAXX 08181 23330 11597 82104 11098 21106 30079 40100 52001 60030 70272 8453/ 333 11045 84520
AAXX 08181 23445 11497 81905 11068 21080 30098 40124 57004 69930 77172 885// 333 11044 88612
AAXX 08181 23552 11496 81904 11066 21082 30122 40157 57022 69900 77173 8802/ 333 11068 88510
AAXX 08181 23631 32998 82304 11088 21099 30125 40168 52006 80006 333 11045
AAXX 08181 23662 11498 81302 11106 21119 30180 40226 57019 69900 70272 885// 333 11138 88615
AAXX 08181 23724 32698 82602 11056 21074 30150 40216 52011 82501 333 11040
AAXX 08181 23734 32798 70000 11104 21110 30122 40217 52004 87500 333 11087
AAXX 08181 23849 42696 32504 11093 21107 40239 52003 83500 333 83641
AAXX 08181 23867 11497 82303 11070 21091 30180 40254 57005 60010 77172 8572/ 333 11059
AAXX 08181 23933 32997 82302 11067 21088 30189 40247 52006 80005 333 11068
AAXX 08181 28064 32998 02502 11031 21085 30183 40276 52001 333 11030
AAXX 08181 28275 32997 22002 11063 21144 30254 40316 52008 80002 333 11046
AAXX 08181 28493 32997 82002 11094 21129 30254 40352 52003 80007 333 11054
AAXX 08181 28698 11997 62302 11086 21093 30235 40398 52001 69900 70272 80002 333 11047
BBXX 51204 08181 99213 71581 46/// ///// 1//// 91822 22200 00245 11703 20801 330// 41702 70014
BBXX 51202 08181 99214 71577 46/// ///// 1//// 91810 22200 00238 11802 20802 335// 41801 70012
BBXX 46232 08181 99325 71174 46/// ///// 1//// 91808 22200 00148 11303 21002 328// 41302 70015
BBXX 46249 08181 99338 71197 46/// ///// 1//// 91807 22200 00129 11304 20603 326// 41302 70019
BBXX 46247 08181 99378 71228 46/// ///// 1//// 91821 22200 00112 11304 20902 329// 41303 70019
BBXX 46243 08181 99462 71241 46/// ///// 1//// 91829 22200 00091 11205 20903 326// 41204 70024
BBXX 46229 08181 99438 71246 46/// ///// 1//// 91821 22200 00097 11205 20803 329// 41203 70023
BBXX 46217 08181 99342 71194 46/// ///// 1//// 91812 22200 00145 11303 21002 328// 41301 70013
BBXX 46225 08181 99329 71174 46/// ///// 1//// 91814 22200 00150 11202 20901 328// 41202 70010
BBXX 46213 08181 99403 71247 46/// ///// 1//// 91824 22200 00107 11104 21003 328// 41103 70022
BBXX 46215 08181 99352 71209 46/// ///// 1//// 91808 22200 00124 11303 20902 326// 41302 70015
BBXX 46219 08181 99332 71199 46/// ///// 1//// 91828 22200 00139 11304 21003 329// 41303 70021
BBXX 46211 08181 99469 71242 46/// ///// 1//// 91806 22200 00081 11306 21003 327// 41305 70030
BBXX 46214 08181 99379 71235 46/// ///// 1//// 91818 22200 00111 11204 20803 329// 41203 70022
BBXX 51205 08181 99210 71564 46/// ///// 1//// 91818 22200 00235 11804 20802 332// 41804 70022
BBXX 46239 08181 99363 71221 46/// ///// 1//// 91821 22200 00110 11304 21003 330// 41303 70022
BBXX 44060 08181 99413 70721 46/// ///07 10053 40209 91830 22200 00086 333 91209 555 11072 22072
BBXX 44022 08181 99409 70737 46/// ///07 10059 21040 40221 91830 22200 00061 333 91209 555 11072 22077
BBXX 44040 08181 99410 70736 46/// /3208 10060 21033 40224 91819 22200 10201 70004 333 91210 555 11093 22108
BBXX V7HD2 08184 99252 30356 41497 51023 10260 2023/ 40140 54000 7//22 852// 22212 00285 20404 311// 40805 5//// 6//// 80240 ICE /////
BBXX WXY6216 08184 99458 70871 43/// /0810 00/// 11002 21050 40222 58004 7//// 8//// 22200 0//// 2//// 3//// 4//// 5//// 6//// 81030 ICE /////
BBXX C6FR6 08184 99057 10815 41/// /0326 10270 2//// 40140 5//// 7//// 8//// 222/2 0//// 2//// 3//// 4//// 5//// 6//// 8//// ICE /////
BBXX ONFP 08184 99218 11211 41596 80528 10230 2020/ 40190 50010 7//22 88792 22213 04231 20508 305// 4//// 5//// 6//// 80210 ICE /////
BBXX V7HC6 08184 99273 70907 416// 51514 10230 20216 40201 57015 7//22 852// 22200 00215 20401 318// 40702 5//// 6//// 80220 ICE /////
BBXX WZJC 08184 99240 70824 41398 72918 10228 2017/ 40195 57020 70382 877// 22222 00233 20603 3//// 4//// 5//// 6//// 80189 ICE /////
BBXX WDF5438 08183 99534 71514 41/97 83145 1//// 2//// 40010 5//// 702// 8//// 222// 0//// 2//11 331// 4//11 5//// 6//// 8//// ICE /////
AAXX 08181 23426 12984 81904 11052 21077 30095 40120 52002 60020 8807/ 333 11041
AAXX 08181 23625 12998 02403 11046 21070 30137 40171 52004 69900 333 11041
AAXX 08181 28076 32997 52302 11071 21100 30202 40276 52006 82041 333 11050
AAXX 08181 28367 32984 62102 11078 21144 30212 40347 52007 80001 333 11032
AAXX 08181 28382 32998 80000 11169 21181 30263 40340 52008 80007 333 11084
AAXX 08181 28481 32997 72303 11129 21181 30253 40360 52003 80002 333 11090
AAXX 08181 28491 32997 22303 11102 21165 30235 40351 52004 80009 333 11045
AAXX 08181 28573 32997 02003 11162 21188 30262 40375 53001 333 11121
AAXX 08181 28593 32997 52005 11078 21092 30268 40370 54000 80005 333 11063
AAXX 08181 28786 31997 02201 11125 21138 30242 40411 52002 70242 333 11082
AAXX 08181 28797 31294 82001 11098 21101 30241 40408 53001 71042 886// 333 11080 88706
AAXX 08181 28799 11396 82303 11086 21097 30261 40413 52003 69900 77172 8802/ 333 11049 88507
BBXX DDYZ2 08184 99130 10570 41397 31019 10260 20253 40170 50/// 70222 83778 22225 20304 80255
BBXX MLRM6 08183 99400 50130 41598 42111 10121 20028 40206 53010 70200 83408 22200 00148 20101 32226 41006 51504
BBXX VQHO7 08184 99334 30342 41/98 /0921 10230 20207 40152 55000 70211 8//// 22224 00240 2//// 3//// 4//// 5//// 80215
BBXX V7HD2 08184 99252 30356 41497 51023 10260 2023/ 40140 54000 7//22 852// 22212 00285 20404 311// 40805 5//// 6//// 80240 ICE /////
BBXX VRJI2 08183 99227 50398 41698 60009 10250 2022/ 40160 54000 70322 86900 22253 04250 21002 30000 40801 50801 6/00/ 80230 ICE 0////
BBXX C6QF4 08183 99360 11313 41197 23420 10070 21009 40277 54000 70200 82100 22213 06150 20303 302// 40503 5//// 80040
BBXX 3FQS8 08184 99405 11385 41/98 83014 00/// 10005 2001/ 40220 56003 70222 88/// 22254 0//// 2//// 3//// 4//// 5//// 6//// 80010 /////
BBXX DANV 08184 99051 10984 41698 60424 10268 20235 40110 57015 78122 86338 22234 04260 20102 30000 80244
BBXX MINFR09 0818/ 99360 11202 46/// ///// 40335 52001
BBXX ONFP 08184 99218 11211 41596 80528 10230 2020/ 40190 50010 7//22 88792 22213 04231 20508 305// 4//// 5//// 6//// 80210 ICE /////
BBXX C6FR6 08184 99057 10815 41/// /0326 10270 2//// 40140 5//// 7//// 8//// 222/2 0//// 2//// 3//// 4//// 5//// 6//// 8//// ICE /////
BBXX SHIP 08184 99533 11674 41598 61707 11001 21010 40058 56003 72222 86/// 91800 22264 00040 2//// 3//// 4//// 82000
BBXX WXY6216 08184 99458 70871 43/// /0810 00/// 11002 21050 40222 58004 7//// 8//// 22200 0//// 2//// 3//// 4//// 5//// 6//// 81030 ICE /////
BBXX A8XD4 08184 99510 71659 41398 21804 10010 21010 40140 51010 70100 81270 22223 04040 21204 324// 41405 80002
BBXX ZCEE2 08184 99153 70619 41598 20728 10270 20193 40146 58020 70200 82200 22282 00270 20301 305// 40302 5//// 80220
BBXX A8CJ2 08184 99357 70748 41598 70118 10175 20143 40230 53010 70222 85770 22244 04210 20401 301// 40602 5//// 80155
BBXX 46205 08181 99542 71343 46/// /2210 10069 40060 52017 22200 00067 11312 70059 333 91213
BBXX 46132 08181 99497 71279 46/// /1611 10091 40163 54000 22200 00084 11208 70042 333 91214
BBXX 46206 08181 99488 71260 46/// /1611 10086 40221 57002 22200 00084 11207 70036 333 91214
BBXX 9HJB9 08184 99140 70609 41498 20820 10301 2//// 40140 56/// 7//// 80/// 22200 00267 2//// 3//// 4//// 5//// 6//// 8//// ICE /////
BBXX 46185 08181 99524 71298 46/// /1610 10079 40124 54000 22200 00071 11206 70032 333 91212
BBXX DDSD2 08183 99153 70720 41697 60620 10290 20228 40155 56025 70311 8538/ 22253 04272 20404 399// 4//// 5//// 80245
BBXX 44060 08181 99413 70721 46/// ///06 10053 40209 91815 22200 00086 333 91208 555 11062 22062
BBXX 44022 08181 99409 70737 46/// ///07 10059 21038 40220 91815 22200 00061 333 91210 555 11077 22082
BBXX 44039 08181 99411 70727 46/// /2907 10060 21031 40221 57008 91800 22200 00069 10301 70004 333 91208
BBXX 46087 08181 99485 71247 46/// /1106 10078 20077 40254 91820 22200 00083 333 91208 555 11064 22067 31728 41008 61819 108060 103060 105060 106063 103062 105064
BBXX 46088 08181 99483 71232 46/// /1301 10071 40252 91820 22200 00077 10301 20301 70004 333 91202 555 11014 22015 31739 41206 61819 128014 126021 111030 110044 115047 113047
BBXX 41036 08181 99342 70770 46/// ///// 10150 20054 40222 91820 22200 00193
BBXX 9V7963 08184 99522 71655 41498 32314 00/// 10045 20050 40100 51010 70000 8382/ 22214 04008 20502 325// 40402 5//// 6//// 80100 ///// /////
BBXX VRHO2 08184 99531 71581 41898 73219 10010 21015 40100 51030 70310 877// 22235 00000 20604 33232 40804 50904 6//// 80000 ICE /////
BBXX 46036 08181 99484 71339 46/// /0504 10082 40101 57004 22200 00078 11108 70038 333 91206
BBXX 44099 08181 99369 70757 46/// ///// 1//// 91822 22200 00099 10502 20502 70011
BBXX 44039 08181 99411 70727 46/// /2906 10061 21025 40221 91753 22200 00069 10301 70004 333 91208
BBXX 44140 08181 99429 70515 46/// /2210 10161 40132 57007 22200 00094 10807 70034 333 91212
BBXX WRGD 08184 99228 71541 41598 51214 10228 2019/ 40200 51010 70211 83561 22255 00233 20203 331// 40805 5//// 6//// 80200 ICE /////
BBXX SHIP 08184 99452 71368 41/92 92027 10110 20092 40070 56010 74542 89/// 91805 22234 00100 20604 321// 41008 80100
BBXX 44258 08181 99445 70634 46/// /3304 10043 40149 52005 22200 00055 10803 70015 333 91205
BBXX 46146 08181 99493 71237 46/// /0908 10066 40262 52006 22200 00069 10301 70005 333 91210
BBXX 46004 08181 99509 71361 46/// /2205 10072 40093 52010 22200 00070 11512 70060 333 91207
BBXX WZJC 08184 99240 70824 41398 72918 10228 2017/ 40195 57020 70382 877// 22222 00233 20603 3//// 4//// 5//// 6//// 80189 ICE /////
BBXX 46184 08181 99539 71389 46/// /2213 10053 40003 52027 22200 00057 11413 70067 333 91218
BBXX 44041 08181 99372 70768 46/// /2701 1//// 40262 91810 333 91202
BBXX 44043 08181 99392 70764 46/// /3203 1//// 40232 91810 333 91204
BBXX 44043 08181 99392 70764 46/// /3302 10071 40233 58011 91800 22200 00042 1//00 70001 333 91203
BBXX 44041 08181 99372 70768 46/// /3002 10101 40262 58011 91800 22200 00079 1//00 70000 333 91203
BBXX 44042 08181 99380 70763 46/// /1901 1//// 91810 333 91201
BBXX 44062 08181 99386 70764 46/// /0602 10068 40221 58013 91800 22200 00064 1//00 70000 333 91202
BBXX 44063 08181 99390 70764 46/// /3503 1//// 91820 333 91206
BBXX 44062 08181 99386 70764 46/// /0801 1//// 91810 22200 00064 333 91202
BBXX 44063 08181 99390 70764 46/// /3504 10081 40247 58013 91800 22200 00055 1//00 70001 333 91206
BBXX 44063 08181 99390 70764 46/// /3504 1//// 40247 91810 333 91206
BBXX 44043 08181 99392 70764 46/// /3203 1//// 91820 333 91203
BBXX 44042 08181 99380 70763 46/// /2001 10083 40245 58008 91800 22200 00071 1//00 70001 333 91201
BBXX 44041 08181 99372 70768 46/// /2601 1//// 91820 333 91202
BBXX 44059 08181 99368 70763 46/// /0604 1//// 91820 333 91207
BBXX 44059 08181 99368 70763 46/// /0705 1//// 40234 91810 333 91207
BBXX 41024 08181 99338 70785 46/// /1903 10146 40223 58011 91800
BBXX 44057 08181 99395 70761 46/// /3304 1//// 40234 91810 333 91207
BBXX 44057 08181 99395 70761 46/// /3104 1//// 91820 333 91206
BBXX 44058 08181 99376 70763 46/// /0502 10078 40239 58010 91800 22200 00074 1//00 70002 333 91202
BBXX 44030 08181 99432 70704 46/// /3108 1//// 40181 54000 91804 22200 00075 10301 70006 333 91210 555 11100 22106
BBXX 44040 08181 99410 70736 46/// /3208 10060 21033 40224 91815 22200 10201 70004 333 91210 555 11093 22108
BBXX 44032 08181 99437 70694 46/30 /3006 10042 40171 53004 91804 22200 00076 10501 70006 333 91207 555 11070 22073
BBXX 44033 08181 99441 70690 46/30 /3206 10039 40174 55000 91804 22200 00048 10201 70004 333 91208 555 11075 22079
BBXX 44058 08181 99376 70763 46/// /0503 1//// 91820 333 91203
BBXX 44059 08181 99368 70763 46/// /0405 10092 40234 58007 91800 22200 00089 333 91208
BBXX 44057 08181 99395 70761 46/// /3303 10071 40234 56011 91800 22200 00030 333 91204
BBXX 44029 08181 99425 70706 46/30 /2905 10051 40180 58005 91804 22200 00074 10301 70004 333 91208 555 11059 22062
BBXX 44058 08181 99376 70763 46/// /0502 1//// 40239 91810 333 91203
BBXX 46181 08181 99538 71288 46/// /2204 10069 40123 52016 22200 00044 10200 70001 333 91206
BBXX VQKZ6 08183 99178 70751 41598 10715 10280 20205 40166 58010 70100 81100 22214 02233 20504 301// 40806 5//// 80230
BBXX ZDLS1 08183 99608 50422 41296 82230 11007 2//// 49822 51027 710// 887// 22263 05009 20202 399// 4////
BBXX V7DS3 08183 99153 71071 41498 80909 10250 20220 40160 54000 70222 8/14/ 22223 06260 20402 327// 40402 80230
BBXX A8CC9 08184 99059 31169 41696 72317 10260 20218 40090 55010 763// 86444 22213 04310 21003 332// 41204 5//// 80230
BBXX VNAA 08184 99573 31452 41/91 /0913 10030 20030 49778 57/// 74544 8//// 22242 00025 20401 302// 40802 6///0 ICE 0////
BBXX FHZI 08184 99483 31462 46/// /0123 10114 20098 39710 49720 57056 22243 04105 85105
BBXX VNAH 08184 99354 31202 46/// /2605 10165 20100 30178 40202 57004 22263 04194 85128
BBXX C6FS9 08184 99390 31442 46/// /3028 10151 20106 30014 40051 52011 22272 04182 85125
BBXX VROB 08184 99068 31470 46/// /3106 10246 20230 30046 40071 57019 22200 04306 85234
BBXX 9HA2479 08184 99284 31559 46/// /0121 10228 20185 30056 40085 57018 22254 04238 85199
AAXX 08181 98134 31462 61101 10218 20195 39990 40182 58008 70544 81270 333 56299 81819 86358
AAXX 08181 98223 32562 70000 10230 20216 40137 58011 81260 333 56999 81820 87360
AAXX 08181 98232 31565 50000 10244 20213 40168 58007 70142 82270 333 56199 82820 83358
AAXX 08181 98325 32458 61601 10240 20226 40134 58011 82270 333 56999 82817 85359
AAXX 08181 98328 31461 71402 10160 20141 38537 40114 58016 70544 81130 333 56999 81814 87358
AAXX 08181 98330 32470 83601 10245 20231 30107 40139 58013 8327/ 333 56999 83818 88358
AAXX 08181 98336 NIL
AAXX 08181 98429 11559 80000 10242 20240 40135 57021 60011 70564 8387/ 333 56999 83823 88459
AAXX 08181 98430 31458 83601 10228 20228 40132 58012 70542 82677 333 56999 82718 85359 88280
AAXX 08181 98431 NIL
AAXX 08181 98440 31460 80905 10250 20232 30127 40132 57013 71522 83237 333 56299 83815 84358 88277
AAXX 08181 98444 11458 80301 10254 20243 30104 40123 56024 60181 70282 82237 333 56999 82818 86360 88270
AAXX 08181 98526 NIL
AAXX 08181 98531 NIL
AAXX 08181 98536 NIL
AAXX 08181 98543 NIL
AAXX 08181 98550 11460 70000 10254 20243 40114 57018 60081 72582 83970 333 56199 81915 87357
AAXX 08181 98618 32570 50906 10273 20237 40104 58014 82261 333 56999 82820 83358
AAXX 08181 98630 32575 30204 10262 20249 40132 58004 82201 222// 2//03 333 56199 82820
AAXX 08181 98637 NIL
AAXX 08181 98646 11560 83302 10255 20246 30106 40134 57010 60061 70262 8287/ 333 56799 82820 88459
AAXX 08181 98653 31465 60404 10263 20250 30054 40099 58002 70544 82201 333 56999 82818 84075
AAXX 08181 98741 32470 60402 10261 20246 40093 57011 82270 333 56999 82817 86358
AAXX 08181 98747 31460 42701 10235 20225 39900 40104 58010 70544 82270 333 56999 82818 83358
AAXX 08181 98753 11465 73603 10250 20241 40096 58023 60011 70565 83238 333 56999 83816 83358 86279
AAXX 08181 98755 11460 80000 10242 20238 40104 58025 60091 78088 8452/ 333 56999 84616 88456
AAXX 08181 98836 11460 60000 10250 20239 40102 58016 69981 72582 81971 333 56999 81918 85362
AAXX 08181 04650 12960 01605 10140 20109 40148 53004 69902
AAXX 08181 04604 11960 00000 10066 20024 40167 53005 69962 70161
AAXX 08181 04608 12560 10000 10080 20060 40169 55000 69942072162 81100
AAXX 08181 04621 11558 80301 10106 20086 40192 52006 60092 72166 888//
AAXX 08181 04623 11456 81802 10072 20056 40176 57005 60072 76396 8592/
AAXX 08181 04629 11958 00000 10058 20044 40181 52014 60012 71000
AAXX 08181 40634 12960 02802 10079 20059 40152 53012 69962
AAXX 08181 40642 12960 00000 10080 21030 40165 53016 60002
AAXX 08181 40656 12960 02103 10135 20034 40138 52018 69902
AAXX 08181 40665 12960 00503 10152 20110 40166 50004 69902
AAXX 08181 40670 11960 00000 10140 20055 40154 52018 69902
AAXX 08181 40674 11950 02409 10166 20042 40162 52020 60002 70700
AAXX 08181 40676 12960 01902 10154 20096 40162 52012 60002
AAXX 08181 40680 12960 20802 10162 20068 40171 53008 69902 80002
AAXX 08181 40689 12660 51807 10180 20159 40176 52006 60002 85100
AAXX 08181 40691 11658 30304 10182 20165 40194 51006 69902 71081 83200
AAXX 08184 91723 NIL
AAXX 08184 91964 36/// /0310 10250 20230 40186 52004
AAXX 08181 31152 42997 00000 11475 21512 39900 40388 52003
AAXX 08181 31163 NIL
AAXX 08181 31285 42999 22701 11310 21272 30236 40325 58001 80001
AAXX 08181 31561 41998 03604 11209 21242 30214 40243 52015 70271
AAXX 08181 31683 42699 20000 11267 21279 30114 40196 53007 82500
AAXX 08181 32010 41496 72912 11228 21246 30100 40153 53008 78583 87900 333 87914 91017 91119
BBXX 44137 08181 99423 70620 46/// /3107 10076 40157 52007 22200 00087 11005 70027 333 91208
AAXX 08184 83766 32597 50506 10308 20198 39491 40135 5//// 85200
AAXX 08184 83836 32497 50503 10272 20177 39168 40128 56018 85200
AAXX 08184 83881 31496 41804 10360 20186 39812 40083 57020 70540 83340
AAXX 08184 83980 31596 30506 10314 20173 39851 40124 57013 70510 83200
AAXX 08184 83997 32497 40916 10269 20201 30139 40182 58012 84200
BBXX 44137 08181 99423 70620 46/// /3107 10076 40157 52007 22200 00087 11005 70027 333 91208
AAXX 08184 71761 16/// ///// 10061 21020 60001 333 10062 21078 7////
AAXX 08184 71490 16/// /0212 11285 21310 39668 49998 51018 60001 333 11219 21292 70000
AAXX 08184 71963 16/// /0412 11242 21264 39539 49949 53006 60001 333 11194 7//// 555 10010
AAXX 08184 71592 16/// /0000 11340 21391 39990 40004 50003 60001 333 11335 21377 70000
AAXX 08184 71923 16/// ///03 11159 21172 39467 49914 56015 60001 333 11159 21259 70000
AAXX 08184 71761 16/// ///// 10061 21020 60001 333 10062 21078 7////
AAXX 08184 71963 16/// /0412 11242 21264 39539 49949 53006 60001 333 11194 7//// 555 10010
AAXX 08184 71592 16/// /0000 11340 21391 39990 40004 50003 60001 333 11335 21377 70000
AAXX 08184 71490 16/// /0212 11285 21310 39668 49998 51018 60001 333 11219 21292 70000
BBXX MINUK04 0818/ 99555 10084 46/// ///// 10043 4//// 52019
BBXX MINUK03 0818/ 99525 10046 46/// ///// 10075 40225 52011
AAXX 08184 71923 16/// ///03 11159 21172 39467 49914 56015 60001 333 11159 21259 70000
AAXX 08181 37675 42995 00000 10010 21007 39450 40117 57002 333 10073 555 53004
AAXX 08181 37985 42596 80000 10076 20058 30172 40158 57005 885// 333 10107
AAXX 08181 37749 41596 82901 10043 20026 30087 40205 53014 71010 885// 333 10092 555 53002
AAXX 08181 37989 42496 82801 10075 20064 40164 57008 887// 333 10094
AAXX 08181 37923 42596 80000 10060 20041 40136 58014 885// 333 10097 555 53004
AAXX 08181 37661 42998 02801 10028 21002 39397 40165 57004 333 10110
AAXX 08181 37740 42998 00501 10012 21005 39360 40180 52008 333 10098
AAXX 08181 37735 42996 70000 10032 21009 39773 40154 52002 87070 333 10090
AAXX 08181 37864 32997 31910 10087 20058 40145 57019 83030 333 10112
AAXX 08181 37905 42/90 /0000 10020 20020 40163 53002 74744 333 10058
AAXX 08181 37925 42997 80000 10082 20076 30200 40171 54000 8807/ 333 10126 555 53000
AAXX 08181 37851 42598 42005 10087 20058 30088 40160 57011 84600 333 10100 91112
AAXX 08181 37832 32997 70000 10022 20012 40168 52005 80100 333 10094
AAXX 08184 63688 32980 00908 1012 20062 49/// 333 10254 58000
AAXX 08184 63708 32975 33004 10237 20169 48493 81031 333 10307 58003 81359 83075
AAXX 08184 63820 32580 10512 10262 20233 40116 81100 333 10324 59006 81823
AAXX 08184 63612 NIL
AAXX 08184 63661 NIL
AAXX 08184 63671 NIL
AAXX 08184 63695 NIL
AAXX 08184 63714 NIL
AAXX 08184 63723 NIL
AAXX 08184 63740 NIL
AAXX 08184 63772 NIL
AAXX 08184 63793 NIL
BBXX KS007 08184 99267 70800 43/// ///// 10221 40188 22200
BBXX KS094 08184 99189 70663 43/// /1114 10268 40173 22262 06260
BBXX KS077 08184 99179 70629 43/// ///// 10263 40167 22200 06246
BBXX KS096 08184 99443 71244 43/// /1708 10098 40272 22242 06000
BBXX KS089 08184 99236 70365 43/// /1109 10220 49804 22263
BBXX 44138 08181 99443 70536 46/// /2808 10077 40117 52015 22200 00076 10805 70027 333 91210
BBXX 44138 08181 99443 70536 46/// /2808 10077 40117 52015 22200 00076 10805 70027 333 91210
AAXX 08184 87467 32970 00514 10358 20171 39945 40074 57029
BBXX 44141 08181 99430 70580 46/// /1000 10073 40136 52005 22200 00079 11404 70022 333 91201
BBXX 44141 08181 99430 70580 46/// /1000 10073 40136 52005 22200 00079 11404 70022 333 91201
AAXX 08181 40001 32558 80905 10062 20017 40160 53011 8552/ 333 10130 85626 88460
AAXX 08181 40007 11560 80902 10088 20077 40139 50001 60012 76062 84571 333 10117 84630 88360
AAXX 08181 40025 11556 81805 10118 20106 40117 53004 60202 79596 8697/ 333 10144 84926 86630 87360
AAXX 08181 40045 32970 00000 10056 20021 40173 52009 333 10118
AAXX 08181 40061 32970 00000 10080 21006 40153 52012 333 10130
AAXX 08181 40080 32965 02607 10070 20016 39444 40167 52016 333 10138
AAXX 08181 40087 NIL
AAXX 08181 40095 NIL
BBXX 46004 08181 99509 71361 46/// /2205 10072 40093 52010 22200 00070 11512 70060 333 91207
BBXX 46036 08181 99484 71339 46/// /0504 10082 40101 57004 22200 00078 11108 70038 333 91206
BBXX 46181 08181 99538 71288 46/// /2204 10069 40123 52016 22200 00044 10200 70001 333 91206
BBXX 46183 08181 99536 71311 46/// /1610 10083 40096 52008 22200 00076 10904 70018 333 91213
BBXX 46185 08181 99524 71298 46/// /1610 10079 40124 54000 22200 00071 11206 70032 333 91212
BBXX 46204 08181 99514 71288 46/// /1313 10076 40125 57015 22200 00080 11207 70035 333 91215
BBXX 46205 08181 99542 71343 46/// /2210 10069 40060 52017 22200 00067 11312 70059 333 91213
BBXX 46206 08181 99488 71260 46/// /1611 10086 40221 57002 22200 00084 11207 70036 333 91214
BBXX A8L9 08183 99489 71300 41/94 /2134 10105 20096 40140 56015 710// 8//// 22254 00070 20412 319// 40707 5//// 80100
BBXX KS096 08184 99443 71244 43/// /1708 10098 40272 22242 06000
BBXX SHIP 08184 99452 71368 41/92 92027 10110 20092 40070 56010 74542 89/// 91805 22234 00100 20604 321// 41008 80100
BBXX MINUK05 0818/ 99586 10007 46/// ///// 10073 40152 57020
AAXX 08181 40634 12960 02802 10079 20059 40152 53012 69962
AAXX 08181 40642 12960 00000 10080 21030 40165 53016 60002
AAXX 08181 40656 12960 02103 10135 20034 40138 52018 69902
AAXX 08181 40665 12960 00503 10152 20110 40166 50004 69902
AAXX 08181 40670 11960 00000 10140 20055 40154 52018 69902
AAXX 08181 40674 11950 02409 10166 20042 40162 52020 60002 70700
AAXX 08181 40676 12960 01902 10154 20096 40162 52012 60002
AAXX 08181 40680 12960 20802 10162 20068 40171 53008 69902 80002
AAXX 08181 40689 12660 51807 10180 20159 40176 52006 60002 85100
AAXX 08181 40691 11658 30304 10182 20165 40194 51006 69902 71081 83200
BBXX 44024 08181 99423 70659 46/30 /3204 10069 40166 54000 91804 333 91205 555 11072 22087
AAXX 08184 94210 35/// /0307 10280 30048 40053 57013
AAXX 08184 94289 46/// /1008 10261 30080 40087 56005 91815
AAXX 08184 94379 46/// /0413 10253 30085 40094 56010 91826
AAXX 08184 94997 46/// ///// 10037 39740 49755 5////
AAXX 08184 89610 46/// /0417 11046 39622 4//// 5//// 333 90700 91121
AAXX 08184 89614 46/// /1018 11098 29077 38953 4//// 5//// 333 90700 91127
AAXX 08184 89807 46/// /1917 11061 29087 39741 4//// 5//// 333 90700 91119
AAXX 08181 37575 41996 50502 10026 21060 39583 40179 55002 85050 333 10100
AAXX 08181 37675 42995 00000 10010 21007 39450 40117 57002 333 10073 555 53004
AAXX 08181 37735 42996 70000 10032 21009 39773 40154 52002 87070 333 10090
AAXX 08181 37749 41596 82901 10043 20026 30087 40205 53014 71010 885// 333 10092 555 53002
AAXX 08181 37756 41/93 90000 10009 20009 39304 40222 56002 74541 333 10057
AAXX 08181 37864 32997 31910 10087 20058 40145 57019 83030 333 10112
AAXX 08181 37985 42596 80000 10076 20058 30172 40158 57005 885// 333 10107
AAXX 08184 94206 46/// /0000 10261 2//// 39929 40057
AAXX 08184 94290 46/// /0708 10259 30086 40095 55002 91824
AAXX 08184 89610 46/// /0417 11046 39622 4//// 5//// 333 90700 91121
AAXX 08184 89614 46/// /1018 11098 29077 38953 4//// 5//// 333 90700 91127
AAXX 08184 89807 46/// /1917 11061 29087 39741 4//// 5//// 333 90700 91119
AAXX 08184 94206 46/// /0000 10261 2//// 39929 40057
AAXX 08184 94290 46/// /0708 10259 30086 40095 55002 91824
AAXX 08184 94997 46/// ///// 10037 39740 49755 5////
BBXX 41053 08181 99185 70661 46/// /0808 10269 40150 91830 333 91209
BBXX 41053 08181 99185 70661 46/// /0808 10269 40151 91820 333 91209
BBXX 41053 08181 99185 70661 46/// /0808 10269 40152 91810 333 91209
BBXX 44056 08181 99362 70757 46/// ///// 1//// 91750 22200 00105 10502 20502 70012
BBXX SHIP 08184 99533 11674 41598 61707 11001 21010 40058 56003 72222 86/// 91800 22264 00040 2//// 3//// 4//// 82000
BBXX SHIP 08184 99347 71667 41498 51819 10165 20114 40161 57019 7020 3 85105 22264 00220 20502 329// 40904 80135
AAXX 08181 55228 32780 60000 11158 21275 35973 52002 86900 333 00054 11076
AAXX 08181 55578 32880 70000 11037 21229 36347 57002 86402 333 05101 10026
AAXX 08181 55664 32880 70000 11091 21255 35984 57005 87500 333 05104 11002
AAXX 08181 55773 32470 41602 11122 21255 36016 52003 84400 333 00002 11038
AAXX 08181 56116 32680 70000 11077 21158 36323 57002 81102 333 00002 10017
AAXX 08181 56137 32780 73201 11049 21180 36786 52003 81402 333 05102 10086
AAXX 08181 56172 32980 01101 11062 21089 37342 52004 333 05100 10096
AAXX 08181 56247 32980 11801 10026 21170 37439 52007 80002 333 00001 10145
AAXX 08181 56312 32680 81403 11004 21093 37106 54000 884// 333 00151 10048
AAXX 08181 56462 32980 02901 11040 21131 37141 52003 333 00000 10135
AAXX 08181 56651 32680 12505 10038 21068 37672 57006 81400 333 00000 10124
AAXX 08181 56691 31358 81402 11008 21015 37795 57003 71000 886// 333 05101 10137
AAXX 08181 56985 32565 70901 10114 20067 38746 40185 57001 81102 333 00051 10205
AAXX 08181 57633 31759 73402 10012 21022 39320 40322 57010 71000 875// 333 05201 10030
AAXX 08181 57902 11440 80402 10024 20024 38682 40278 57003 69971 76066 887// 333 05100 10035
AAXX 08181 55279 32780 62507 11094 21282 35659 57003 86400 333 00100 11059
AAXX 08181 55472 32980 02507 11102 21300 35699 52001 333 00000 11055
AAXX 08181 55696 32680 41402 11079 21117 36343 54000 81142 333 00002 10065
AAXX 08181 56079 32780 70202 11076 21127 36659 57004 875// 333 00051 10011
AAXX 08181 56106 32780 51404 11057 21124 36173 57003 85100 333 00003 11014
AAXX 08181 56257 32980 00902 11068 21187 36275 57001 333 00101 10040
AAXX 08181 56374 32980 00000 11081 21111 37437 57004 333 05152 11002
AAXX 08181 56385 11/01 92201 11101 21107 37009 57007 69911 77774 333 05101 11055
AAXX 08181 56954 32965 60000 10092 20091 40214 57001 80002 333 05100 10243
AAXX 08181 56966 32770 80904 10151 20099 40221 57001 884// 333 00000 10178
AAXX 08181 57237 32960 70000 10016 21010 40301 57005 8703/ 333 10082
AAXX 08181 57306 31958 82501 10060 20043 40294 57008 71000 8807/ 333 10108
AAXX 08181 57604 31720 80000 10064 20057 40290 57007 71000 885// 333 10070
AAXX 08181 57707 11350 81401 10005 20005 38542 57007 69941 76066 887// 333 05201 10014
AAXX 08181 57832 32663 83601 10036 21002 39542 40305 57006 885// 333 05203 10057
AAXX 08184 16450 36/// /2213 14123 20067 30096 40175/57004 333 10157 55091 21100 555 20116 3//74 46712 50/02 62618 1/000 21510 31111 411//J51511 65111 7////
AAXX 08184 71406 17/// /0610 11071 21082 30074 40084 53010 69961 7//4/ 333 11058 21089 70014
AAXX 08184 71418 46/// /2728 10010 21002 30046 40079 53008 6///1 333 10025 21024 7////
AAXX 08184 71981 16/// /2616 10071 21048 60001 333 10071 21016 70000
AAXX 08184 71982 16/// /2407 10052 21042 60001 333 10083 21051 70000
AAXX 08184 71986 16/// /2309 10023 21031 60001 333 10023 21079 70000
AAXX 08184 71990 17/// /2319 11035 21047 38302 49874 53015 60021 7//4/ 333 11018 21136 70068
AAXX 08184 71277 46/// /2508 10047 21005 6///1 333 10057 21052 7////
AAXX 08184 71575 16/// /0705 11262 21289 39918 49986 58024 60001 333 11260 21324 70000
AAXX 08184 71048 16/// /2514 10028 21048 60001 333 10028 21083 70000
AAXX 08184 71354 16/// /2410 10050 21021 60001 333 10050 21069 70000
AAXX 08184 71575 16/// /0705 11262 21289 39918 49986 58024 60001 333 11260 21324 70000
AAXX 08184 71406 17/// /0610 11071 21082 30074 40084 53010 69961 7//4/ 333 11058 21089 70014
AAXX 08184 71418 46/// /2728 10010 21002 30046 40079 53008 6///1 333 10025 21024 7////
AAXX 08184 71277 46/// /2508 10047 21005 6///1 333 10057 21052 7////
AAXX 08184 71354 16/// /2410 10050 21021 60001 333 10050 21069 70000
AAXX 08184 71048 16/// /2514 10028 21048 60001 333 10028 21083 70000
AAXX 08184 71981 16/// /2616 10071 21048 60001 333 10071 21016 70000
AAXX 08184 71982 16/// /2407 10052 21042 60001 333 10083 21051 70000
AAXX 08184 71986 16/// /2309 10023 21031 60001 333 10023 21079 70000
AAXX 08184 71990 17/// /2319 11035 21047 38302 49874 53015 60021 7//4/ 333 11018 21136 70068
BBXX 41033 08181 99323 70804 46/// /2003 1//// 40230 58016 91800 555 11026 22026
BBXX 42360 08181 99267 70905 46/// /1705 10227 91800 22200 00236 10501 70007 333 91206
AAXX 08181 47031 42970 00000 11165 21184 38967 52006
AAXX 08181 47041 42970 00501 11088 21132 30245 40274 53010
AAXX 08184 64700 32962 30206 10235 21027 39786 40131 80002 333 10304 58002 83075
AAXX 08184 64750 32960 62808 10275 20024 39690 40102 80002 91800 333 58000 86075
AAXX 08181 63333 42580 30000 10178 20115 38184 40193 81530 333 10270 58005 81625 82358
AAXX 08181 63334 42580 50000 10156 20011 37643 40140 83505 333 10247 58000 83628 84270
AAXX 08181 63340 42880 43602 10175 20089 37950 40173 84030 333 10260 59010 84358
AAXX 08181 63402 NIL
AAXX 08181 63450 42880 10606 10170 20083 37754 40137 81030 333 10252 58007 81358
AAXX 08181 63451 42980 2//// 1//// 2//// 38154 4//// 80001 333 10288 59011 83070
AAXX 08181 63471 42880 23602 1//// 2//// 38880 4//// 82030 333 10306 58004 82357
AAXX 08181
AAXX 08184 63729 12480 20000 10205 20190 38868 48/// 60072 82900 333 0//58 10260 55300 58005 82619 81921
AAXX 08184 63791 32580 21115 10280 20136 39117 48510 82900 333 10336 55300 59009 81928
AAXX 08184 63801 32580 70000 10240 20218 39199 48527 81931 333 10296 58000 81821 81922 87076
AAXX 08184 63866 32580 10000 10250 20222 39512 48/// 81500 333 10300 59002 81624
AAXX 08184 63881 32480 70000 10190 20164 38208 48/// 81532 333 10259 58002 81618 83356 87075
AAXX 08184 63887 32480 60000 10204 20183 38590 48514 81502 333 10259 55300 59003 81619 85074
AAXX 08184 63894 32580 30310 10267 20247 30059 40119 83200 333 10320 55300 58001 83823
AAXX 08184 63932 32580 50705 10176 38315 48513 81910 333 10252 81622 81923 85459
AAXX 08184 63971 32580 43412 10265 20254 39975 40104 81230 333 10298 55300 59009 81821 83358
AAXX 08184 63733 NIL
AAXX 08184 63756 NIL
AAXX 08184 63832 NIL
AAXX 08184 63862 NIL
AAXX 08184 63870 NIL
AAXX 08184 63962 NIL
AAXX 08181 63333 42580 30000 10178 20115 38184 40193 81530 333 10270 58005 81625 82358
AAXX 08181 63334 42580 50000 10156 20011 37643 40140 83505 333 10247 58000 83628 84270
AAXX 08181 63340 42880 43602 10175 20089 37950 40173 84030 333 10260 59010 84358
AAXX 08181 63402 NIL
AAXX 08181 63450 42880 10606 10170 20083 37754 40137 81030 333 10252 58007 81358
AAXX 08181 63451 42980 2//// 1//// 2//// 38154 4//// 80001 333 10288 59011 83070
AAXX 08181 63471 42880 23602 1//// 2//// 38880 4//// 82030 333 10306 58004 82357
AAXX 08184 89657 46/// /1404 11081 20058 49866 53015
AAXX 08181 98429 11559 80000 10242 20240 40135 57021 60011 70564 8387/ 333 56999 83823 88459
AAXX 08181 98526 32570 80404 10274 20248 40112 58017 82277 333 56999 82820 85358 88274
AAXX 08181 98550 11460 70000 10254 20243 40114 57018 60081 72582 83970 333 56199 81915 87357
AAXX 08184 67002 32580 33411 10283 20245 30094 40127 81802 333 10318 58002 81822 83073 92408
AAXX 08184 67009 NIL
AAXX 08184 67027 11560 80208 10241 20231 30080 40101 60082 79196 8487/ 333 10296 82820 83640 86460
AAXX 08184 67073 11575 7//// 10266 20237 30035 40061 52017 69922 71522 8387/ 333 10281 82820 83633 85460
AAXX 08184 67083 11465 70204 10170 20156 38729 48502 51009 60032 76066 878// 333 10218 81817 87620
AAXX 08184 67095 11465 70000 10262 20254 30105 40111 51015 60022 71522 879// 333 10307 83817 81917 86633 94967 95837
AAXX 08184 67117 11475 8//// 10257 20237 39977 49986 52016 60134 71562 8452/ 333 10252 83617 88460
AAXX 08184 67137 11265 8//06 10180 20178 38477 48479 51005 60062 71566 8487/ 333 10199 81707 81817 83620 88460
AAXX 08184 67152 11465 8//// 10188 20180 39171 48473 54001 60182 76366 8487/ 333 10215 83817 85458 555 82620
AAXX 08184 67161 32480 7//// 10274 20221 30058 40067 51010 8487/ 333 10325 82820 87460 555 82640
AAXX 08184 67197 32480 70806 10248 20219 30103 40113 51008 8587/ 333 10292 82817 84633 85460
AAXX 08184 03008 11356 81821 10072 20071 40107 60102 76362 887// 91750 333 10072 88706 90710 91129
BBXX A8JR5 08184 99099 11009 41597 30112 10270 20210 40130 54000 70200 82168 22284 04282 21202 80230
BBXX ZQHM2 08183 99199 70265 41497 10516 10215 20183 40164 56009 70200 81136 22261 02222 20602 300// 4//// 5//// 80195
BBXX TBWUK16 08184 99377 30411 41598 53408 10175 20131 40178 51005 70111 85444 22223 06220 20504 323// 41408 5//// 80150
BBXX PENR 08184 99273 70639 41697 42027 10250 20151 40208 56018 70211 83165 22214 20301 80190
BBXX 41052 08181 99183 70648 46/// /1006 10266 40150 91830 333 91207
BBXX 41052 08181 99183 70648 46/// /1006 10266 40151 91820 333 91207
BBXX 41052 08181 99183 70648 46/// /1006 10266 40151 91810 333 91208
BBXX 44034 08181 99441 70681 46/30 /2906 10038 40168 55000 91804 22200 00066 11103 70013 333 91207 555 11067 22069
BBXX SHIP 08184 99533 11674 41598 61707 11001 21010 40058 56003 72222 86/// 91800 22264 00040 2//// 3//// 4//// 82000
BBXX SHIP 08184 99153 11346 41597 60726 10260 20246 40140 54/// 7//22 8636/ 22253 00274 20307 33336 40606 51205 6//// 80250 ICE /////
BBXX WHKM 08184 99325 31148 41997 01619 10180 20180 40171 52015 70200 80000 22253 0//// 20402 316// 40805 5//// 6//// 80180 ICE /////
BBXX ZCBU3 08184 99419 31635 41398 70110 10150 20092 40086 50002 70222 87674 22274 00167 20301 320// 40507 5//// 80120
BBXX VRBU6 08184 99062 30871 43297 72313 10290 2028/ 40130 54/// 7//11 8777/ 22253 0//// 2//// 3//// 4//// 5//// 6//// 80280 ICE /////
BBXX TBWUK41 08184 99560 70013 41298 42721 10081 20055 40185 58/// 70200 83243 22262 20305 301// 40504 5//// 80068
BBXX MINUK05 0818/ 99586 10007 46/// ///// 10073 40152 57020
BBXX MINUK04 0818/ 99555 10084 46/// ///// 10043 4//// 52019
BBXX MINUK03 0818/ 99525 10046 46/// ///// 10075 40225 52011
BBXX 63119 08184 99583 10009 41397 81916 10070 20070 40156 55005 76022 8/878 22200 20603 332// 40804 5//// 80070
BBXX A8TR7 08184 99082 70840 41298 32307 10315 20305 40175 54000 70200 83180 22274 20000 30000 80307
BBXX 42099 08181 99273 70842 46/// ///// 1//// 91827 22200 00234 10301 20301 70005
BBXX 41010 08181 99289 70785 46/// /0301 10218 40231 91820 22200 00233 11002 20401 300// 41001 70008 333 91203 555 11014 22015
BBXX 41009 08181 99285 70802 46/// /3202 10208 20136 40236 91820 22200 00233 11101 300// 41101 70004 333 91203 555 11019 22020
BBXX SHIP 08184 99347 71667 41498 51819 10165 20114 3 40161 57019 7020 85105 22264 00220 20502 329// 40904 80135
BBXX WAZV 08184 99544 71401 41397 89937 10040 2004/ 49979 54000 70222 8877/ 22273 00050 20807 32224 41521 51012 6//// 80040 ICE /////
BBXX 41033 08181 99323 70804 46/// /2003 1//// 40230 58016 91800 555 11026 22026
BBXX 42360 08181 99267 70905 46/// /1705 10227 91800 22200 00236 10501 70007 333 91206
BBXX SHIP 08184 99347 71667 41498 51819 10165 20114 40161 57019 7020 3 85105 22264 00220 20502 329// 40904 80135
BBXX 44056 08181 99362 70757 46/// ///// 1//// 91750 22200 00105 10502 20502 70012
BBXX 41053 08181 99185 70661 46/// /0808 10269 40152 91810 333 91209
BBXX 41053 08181 99185 70661 46/// /0808 10269 40150 91830 333 91209
BBXX 41053 08181 99185 70661 46/// /0808 10269 40151 91820 333 91209
BBXX 44024 08181 99423 70659 46/30 /3204 10069 40166 54000 91804 333 91205 555 11072 22087
BBXX 44141 08181 99430 70580 46/// /1000 10073 40136 52005 22200 00079 11404 70022 333 91201
BBXX 44138 08181 99443 70536 46/// /2808 10077 40117 52015 22200 00076 10805 70027 333 91210
BBXX KS077 08184 99179 70629 43/// ///// 10263 40167 22200 06246
BBXX KS089 08184 99236 70365 43/// /1109 10220 49804 22263
BBXX KS096 08184 99443 71244 43/// /1708 10098 40272 22242 06000
BBXX KS094 08184 99189 70663 43/// /1114 10268 40173 22262 06260
BBXX KS007 08184 99267 70800 43/// ///// 10221 40188 22200
BBXX ICGU 08184 99180 70630 41897 30410 10290 20204 40160 56020 70311 834// 22200 04270 2//// 3//// 4//// 5//// 6//// 85230 ICE /////
BBXX 44137 08181 99423 70620 46/// /3107 10076 40157 52007 22200 00087 11005 70027 333 91208
BBXX C6OT4 08184 99104 70651 41498 30615 10270 20229 40122 57025 70211 83143 22223 04271 20702 30700 40903 5//// 80242
BBXX 46247 08181 99378 71228 46/// ///// 1//// 91821 22200 00112 11304 20902 329// 41303 70019
BBXX 46213 08181 99403 71247 46/// ///// 1//// 91824 22200 00107 11104 21003 328// 41103 70022
BBXX 46225 08181 99329 71174 46/// ///// 1//// 91814 22200 00150 11202 20901 328// 41202 70010
BBXX 46229 08181 99438 71246 46/// ///// 1//// 91821 22200 00097 11205 20803 329// 41203 70023
BBXX 46217 08181 99342 71194 46/// ///// 1//// 91812 22200 00145 11303 21002 328// 41301 70013
BBXX 46243 08181 99462 71241 46/// ///// 1//// 91829 22200 00091 11205 20903 326// 41204 70024
BBXX 46249 08181 99338 71197 46/// ///// 1//// 91807 22200 00129 11304 20603 326// 41302 70019
BBXX WDF5438 08183 99534 71514 41/97 83145 1//// 2//// 40010 5//// 702// 8//// 222// 0//// 2//11 331// 4//11 5//// 6//// 8//// ICE /////
BBXX V7HC6 08184 99273 70907 416// 51514 10230 20216 40201 57015 7//22 852// 22200 00215 20401 318// 40702 5//// 6//// 80220 ICE /////
BBXX 44040 08181 99410 70736 46/// /3208 10060 21033 40224 91819 22200 10201 70004 333 91210 555 11093 22108
BBXX 44022 08181 99409 70737 46/// ///07 10059 21040 40221 91830 22200 00061 333 91209 555 11072 22077
BBXX 46211 08181 99469 71242 46/// ///// 1//// 91806 22200 00081 11306 21003 327// 41305 70030
BBXX 44060 08181 99413 70721 46/// ///07 10053 40209 91830 22200 00086 333 91209 555 11072 22072
BBXX 46214 08181 99379 71235 46/// ///// 1//// 91818 22200 00111 11204 20803 329// 41203 70022
BBXX 46219 08181 99332 71199 46/// ///// 1//// 91828 22200 00139 11304 21003 329// 41303 70021
BBXX 46215 08181 99352 71209 46/// ///// 1//// 91808 22200 00124 11303 20902 326// 41302 70015
BBXX 46232 08181 99325 71174 46/// ///// 1//// 91808 22200 00148 11303 21002 328// 41302 70015
BBXX 46239 08181 99363 71221 46/// ///// 1//// 91821 22200 00110 11304 21003 330// 41303 70022
BBXX 51205 08181 99210 71564 46/// ///// 1//// 91818 22200 00235 11804 20802 332// 41804 70022
BBXX VRBU6 08184 99062 30871 43297 72313 10290 2028/ 40130 54/// 7//11 8777/ 22253 0//// 2//// 3//// 4//// 5//// 6//// 80280 ICE /////
BBXX WAZV 08184 99544 71401 41397 89937 10040 2004/ 49979 54000 70222 8877/ 22273 00050 20807 32224 41521 51012 6//// 80040 ICE /////
BBXX WHKM 08184 99325 31148 41997 01619 10180 20180 40171 52015 70200 80000 22253 0//// 20402 316// 40805 5//// 6//// 80180 ICE /////
BBXX MINFR03 0818/ 99062 30589 46/// ///// 10273 40135 52018
BBXX 9V7963 08184 99522 71655 41498 32314 00/// 10045 20050 40100 51010 70000 8382/ 22214 04008 20502 325// 40402 5//// 6//// 80100 ///// /////
BBXX A8XD4 08184 99510 71659 41398 21804 10010 21010 40140 51010 70100 81270 22223 04040 21204 324// 41405 80002
BBXX SHIP 08184 99347 71667 41498 51819 10165 20114 3 40161 57019 7020 85105 22264 00220 20502 329// 40904 80135
BBXX WDF5438 08183 99534 71514 41/97 83145 1//// 2//// 40010 5//// 702// 8//// 222// 0//// 2//11 331// 4//11 5//// 6//// 8//// ICE /////
AAXX 08183 91487 NIL
AAXX 08183 91490 NIL
AAXX 08183 91533 NIL
AAXX 08183 91601 NIL
AAXX 08183 91610 11499 60705 10260 20229 40054 53007 60001 70301 82208 333 561/9
AAXX 08183 91623 NIL
AAXX 08183 91629 NIL
AAXX 08183 91701 NIL
AAXX 08183 91487 NIL
AAXX 08183 91490 NIL
AAXX 08183 91533 NIL
AAXX 08183 91601 NIL
AAXX 08183 91610 11499 60705 10260 20229 40054 53007 60001 70301 82208 333 561/9
AAXX 08183 91623 NIL
AAXX 08183 91629 NIL
AAXX 08183 91701 NIL
AAXX 08181 47003 42980 53202 11046 21157 30266 40270 54000 80002
AAXX 08181 47005 42980 30000 11173 21223 38625 57001 80002
AAXX 08181 47022 42975 00000 11184 21243 38871 53011
AAXX 08181 47028 42962 01802 11113 21141 30218 40320 52010
AAXX 08181 47037 42970 00000 11122 21149 30187 40320 52005
AAXX 08181 47039 42960 30000 11131 21158 30128 40335 52012 80001
AAXX 08181 47046 42969 80000 11079 21110 30241 40265 53005 80002
AAXX 08181 47050 42965 00000 11108 21121 30280 40315 52002
AAXX 08181 47052 42965 60000 11080 21098 39973 40331 52005 86040
AAXX 08181 47060 41540 80000 11064 21072 30252 40314 58002 71022 884//
AAXX 08181 47061 42980 03204 10006 21067 30227 40272 57002
AAXX 08181 47065 41940 80000 11058 21069 30254 40323 52003 71022 84012
AAXX 08181 47067 41560 80000 11042 21051 30214 40304 52007 71022 885//
AAXX 08181 47068 11540 80902 11016 21030 30270 40306 53002 69901 77077 885//
AAXX 08181 47070 42970 80000 11031 21051 30230 40321 53009 8803/
AAXX 08181 47075 42580 82301 11044 21064 39808 40255 52005 885//
AAXX 08181 47008 42570 20000 11078 21092 30224 40281 53004 82500
AAXX 08181 47014 42950 00000 11217 21229 39896 40344 52002
AAXX 08181 47016 42970 00000 11202 21228 39415 40334 52005
AAXX 08181 47020 42965 80000 11160 21173 39936 40349 80004
AAXX 08181 47025 42962 03201 11050 21104 30247 40277 54000
AAXX 08181 47035 42965 00000 11095 21150 30308 40317 54000
AAXX 08181 47055 42970 00000 11022 21077 30245 40292 52005
AAXX 08181 47058 41902 91401 11069 21085 30277 40327 53008 74744 89///
AAXX 08181 47069 11556 80000 11018 21032 30211 40315 53006 69901 71072 885//
AAXX 08181 45032 36/// /2001 10099 20090 30223 40240 54000
AAXX 08181 45035 36/// /3305 10131 20098 30199 40242 54000
AAXX 08181 45039 36/// /0501 10127 20100 30222 40238 54000
AAXX 08181 45044 36/// /3504 10130 20104 30138 40233 54000
AAXX 08181 45032 36/// /2001 10099 20090 30223 40240 54000
AAXX 08181 45035 36/// /3305 10131 20098 30199 40242 54000
AAXX 08181 45039 36/// /0501 10127 20100 30222 40238 54000
AAXX 08181 45044 36/// /3504 10130 20104 30138 40233 54000
AAXX 08184 47590 12/80 73403 11005 21047 30185 40241 56009 60001 81832
AAXX 08181 89828 46/// ///// 11270 36465 4//// 5//// 91810
AAXX 08181 89108 46/// ///// 11228 36892 4//// 5////
AAXX 08181 89108 46/// ///// 11233 36892 4//// 5//// 91810
AAXX 08181 89879 46/// ///// 10004 39738 4//// 5//// 91810
AAXX 08181 89872 46/// ///// 11018 39759 4//// 5////
AAXX 08181 89872 46/// ///// 11024 39760 4//// 5//// 91810
AAXX 08181 89869 46/// ///// 11053 39750 4//// 5//// 91810
AAXX 08181 89866 46/// ///// 11016 39709 4//// 5////
AAXX 08181 89866 46/// ///// 11011 39710 4//// 5//// 91810
AAXX 08181 89329 46/// ///// 11071 38736 4//// 5//// 91810
AAXX 08181 89799 46/// ///// 11250 4//// 5//// 91810
AAXX 08181 89332 46/// ///// 11035 39232 4//// 5//// 91810
AAXX 08181 89769 46/// ///// 11029 39775 4//// 5////
AAXX 08181 89769 46/// ///// 11029 39775 4//// 5//// 91810
AAXX 08181 89314 46/// ///// 11071 38183 4//// 5////
AAXX 08181 89314 46/// ///// 11074 38184 4//// 5//// 91810
AAXX 08184 83811 32497 21402 10296 20174 39240 40129 58010 82100
AAXX 08184 83844 21597 805// 10256 20223 30151 40158 57010 70165 8572/ 333 60081
AAXX 08184 83887 32597 50910 10258 20158 39118 40158 57017 85200
AAXX 08184 83907 32497 53205 10367 20191 39826 40099 56023 85200
AAXX 08184 83914 31596 50506 10310 20173 39366 40114 57014 70521 85300
AAXX 08184 83919 31495 51806 10266 20133 39002 40171 57016 70421 85200
AAXX 08184 83927 32997 00506 10331 20202 30026 40098 57013
AAXX 08184 83936 32497 31406 10360 20203 30007 40124 57010 83200
AAXX 08184 83948 31496 20514 10260 20229 30163 40169 58008 71000 81240
AAXX 08184 83964 31596 51402 10314 20180 39662 40139 57010 70540 85200
AAXX 08184 83995 32697 60916 10266 20218 30159 40162 58010 86402
AAXX 08184 71848 16/// ///// 10066 21042 60001 333 10067 21049 70000
AAXX 08184 71073 16/// /2310 10065 21039 60001 333 10067 21042 70000
AAXX 08184 71793 16/// ///// 11026 21065 60001 333 11026 21094 70000
AAXX 08184 71565 16/// /1504 11029 21052 60001 333 11025 21067 70000
AAXX 08184 71566 16/// /2205 10014 21042 60001 333 10014 21049 70004
AAXX 08184 71567 16/// /2511 10043 21016 60001 333 10044 21096 70000
AAXX 08184 71495 16/// /2622 10069 21050 60001 333 10069 21006 70000
AAXX 08184 71013 16/// ///// 10026 21035 60001 333 10026 21069 70000
AAXX 08184 71060 16/// /2604 10065 21038 38599 40154 53014 60001 333 10065 21013 70000
AAXX 08184 71399 16/// ///// 11019 21057 60001 333 11019 21073 70000
AAXX 08184 71974 46/// /1908 11239 21258 39953 49997 53001 6///1 333 11239 21321 7////
AAXX 08184 89625 46/// /1802 11306 29071 36442 4//// 5//// 91800
AAXX 08184 89646 46/// ///05 11301 29070 37588 4//// 5////
AAXX 08184 89648 46/// /2506 11268 29076 37148 4//// 5////
AAXX 08184 89659 46/// /3209 11210 29073 37624 4//// 5////
AAXX 08184 89661 46/// /2504 11053 29033 39189 4//// 5////
AAXX 08184 89662 42462 62914 10000 21120 39719 49823 52013 81720 222 ICE 38121 333 21016 81715 85450
AAXX 08184 89666 46/// /1607 11025 29089 39636 4//// 5////
AAXX 08184 67002 32580 33411 10283 20245 30094 40127 81802 333 10318 58002 81822 83073 92408
AAXX 08184 67009 NIL
AAXX 08184 67027 11560 80208 10241 20231 30080 40101 60082 79196 8487/ 333 10296 82820 83640 86460
AAXX 08184 67073 11575 7//// 10266 20237 30035 40061 52017 69922 71522 8387/ 333 10281 82820 83633 85460
AAXX 08184 67083 11465 70204 10170 20156 38729 48502 51009 60032 76066 878// 333 10218 81817 87620
AAXX 08184 67095 11465 70000 10262 20254 30105 40111 51015 60022 71522 879// 333 10307 83817 81917 86633 94967 95837
AAXX 08184 67117 11475 8//// 10257 20237 39977 49986 52016 60134 71562 8452/ 333 10252 83617 88460
AAXX 08184 67137 11265 8//06 10180 20178 38477 48479 51005 60062 71566 8487/ 333 10199 81707 81817 83620 88460
AAXX 08184 67152 11465 8//// 10188 20180 39171 48473 54001 60182 76366 8487/ 333 10215 83817 85458 555 82620
AAXX 08184 67161 32480 7//// 10274 20221 30058 40067 51010 8487/ 333 10325 82820 87460 555 82640
AAXX 08184 67197 32480 70806 10248 20219 30103 40113 51008 8587/ 333 10292 82817 84633 85460
BBXX MINUK01 0818/ 99575 70017 46/// ///// 10078 40167 57011
AAXX 08184 71974 46/// /1908 11239 21258 39953 49997 53001 6///1 333 11239 21321 7////
AAXX 08184 71793 16/// ///// 11026 21065 60001 333 11026 21094 70000
AAXX 08184 71495 16/// /2622 10069 21050 60001 333 10069 21006 70000
AAXX 08184 71013 16/// ///// 10026 21035 60001 333 10026 21069 70000
AAXX 08184 71060 16/// /2604 10065 21038 38599 40154 53014 60001 333 10065 21013 70000
AAXX 08184 71848 16/// ///// 10066 21042 60001 333 10067 21049 70000
AAXX 08184 71565 16/// /1504 11029 21052 60001 333 11025 21067 70000
AAXX 08184 71566 16/// /2205 10014 21042 60001 333 10014 21049 70004
AAXX 08184 71567 16/// /2511 10043 21016 60001 333 10044 21096 70000
AAXX 08184 71073 16/// /2310 10065 21039 60001 333 10067 21042 70000
AAXX 08184 71399 16/// ///// 11019 21057 60001 333 11019 21073 70000
BBXX DGZS2 08183 99103 10654 41497 /0326 10260 20218 40150 50010 70222 8/145 22264 00279 20603 80230
BBXX PHJV 08184 99024 11050 41397 73622 10245 20238 40106 58006 75011 87717 22283 06272 20102 80240
BBXX DGHX 08183 99083 11075 41/97 ///// 10250 20199 40115 51005 70222 8//// 22214 00230 2//// 80215
BBXX 9MCN8 08184 99233 11262 41398 61116 10223 20206 40202 5//// 70321 84/// 22215 00250 2//// 80212
BBXX PDWT 08183 99105 11112 41497 /0231 10250 20222 40145 54000 70211 8/7// 22253 00/// 20806 303// 41005 80230
BBXX A8VN4 08184 99146 11097 41398 60422 10238 20178 40185 56015 70222 83442 22244 04220 21005 305// 41306 80198
BBXX 9VDD2 08184 99425 11545 41598 53225 10010 20/// 40170 56010 70200 852// 22215 00010 2//// 80000
BBXX MZER8 08180 99060 10856 41397 80310 10272 20209 40130 51005 72582 887// 22264 00288 20302 306// 40503 80230
BBXX VRFH2 08183 99384 71305 41297 82613 10140 20080 40280 52020 7//22 88641 22224 00120 21204 314// 41204 80110
BBXX DDBB2 08184 99427 11470 41/97 62111 10020 20007 40180 56010 78411 86/// 22215 00040 20603 332// 41002 80015
BBXX TBWUK37 08184 99259 11319 41498 /0413 10140 20102 40200 54000 75855 8/2// 22254 04230 20603 304// 40803 80120
AAXX 0818/ 89828 46/// ///// 11253 36467 4//// 5//// 91840
BBXX 46246 08181 99500 71451 46/// ///// 1//// 91829 22200 00065 11414 21007 324// 41412 70070
BBXX 46246 08181 99500 71451 46/// ///// 1//// 91759 22200 00065 11513 21007 325// 41511 70067
AAXX 07061 44218 31995 23402 11246 21285 38710 40539 58008 70400 80001
AAXX 07061 44225 329// 70000 11311 21334 38352 40601 53001 87010 333 11260
AAXX 07061 44230 329// 03604 11213 21246 38855 40272 58002 333 11167
AAXX 07061 44237 32999 22002 11179 21229 38539 40411 58008 82041
AAXX 07061 44265 32999 00000 11156 21207 38946 40455 58009
AAXX 07061 44272 329// 10000 11258 21297 38285 40502 53014 81040 333 11185
AAXX 07061 44275 328// 60000 11250 21267 37751 40402 51006 82047 333 11155
AAXX 07061 44284 328// 72901 11237 21271 37881 40539 51002 87010 333 11169
AAXX 07061 44287 328// 60503 11181 21230 38158 40465 52006 82044 333 11090
AAXX 07061 44298 31999 53605 11279 21284 38790 40485 53008 70242 80003
AAXX 07061 44302 32999 22002 11302 21341 39231 40511 58001 81044
AAXX 07061 44336 32999 01302 11188 21229 38753 40450 58016
AAXX 07061 44341 31999 11501 11187 21218 38655 40434 58014 70240 80001
AAXX 07061 44347 32999 60000 11247 21271 38782 40470 55000 80008 333 21250 46997 555 31285
AAXX 07061 44352 32999 00000 11252 21270 39017 40470 54000 333 11186
AAXX 07061 44358 329// 00000 11265 21277 39172 40458 57005
BBXX 3FQS8 08184 99405 11385 41/98 83014 00/// 10005 2001/ 40220 56003 70222 88/// 22254 0//// 2//// 3//// 4//// 5//// 6//// 80010 /////
BBXX C6QF4 08183 99360 11313 41197 23420 10070 21009 40277 54000 70200 82100 22213 06150 20303 302// 40503 5//// 80040
BBXX DDBB2 08184 99427 11470 41/97 62111 10020 20007 40180 56010 78411 86/// 22215 00040 20603 332// 41002 80015
BBXX 46241 08181 99330 71173 46/// ///// 1//// 91811 22200 00147 11502 21001 326// 41501 70008
BBXX 44100 08181 99363 70756 46/// ///// 1//// 91822 22200 00103 10603 20603 70013
BBXX 41110 08181 99341 70777 46/// ///// 1//// 91821 22200 00125 11101 20301 70007
BBXX 41113 08181 99284 70805 46/// ///// 1//// 91821 22200 00206 11101 70003
BBXX 46223 08181 99335 71178 46/// ///// 1//// 91830 22200 00152 11102 21001 325// 41101 70008
BBXX 46231 08181 99327 71174 46/// ///// 1//// 91824 22200 00149 11403 21002 328// 41402 70015
BBXX 46222 08181 99336 71183 46/// ///// 1//// 91826 22200 00151 11302 20902 327// 41301 70011
BBXX 44039 08181 99411 70727 46/// /2907 10061 21029 40221 91830 22200 00069 10301 70004 333 91209
AAXX 08181 89063 41497 73101 10010 20000 39905 49916 52006 71072 8641/ 222// ICE 45792 333 46098
AAXX 08184 96195 31457 63203 10251 20221 30079 40115 58015 70522 82521 333 56000 82615 84460
AAXX 08184 89528 46/// /3621 4//// 5////
AAXX 08184 89628 46/// /3121 4//// 5////
BBXX 63106 08184 99610 10017 46/// /1617 10060 40140 57015 22200
BBXX 63113 08184 99610 10017 46/// /1517 10065 21011 40140 57014 22200 10805 70027
BBXX 62105 08184 99554 70121 46/// /2327 10108 20095 40162 56013 22200 00105 10709 70043 333 90710 91136
BBXX 64045 08184 99591 70117 46/// /2129 10103 20094 40024 58024 22200 00099 10812 70060 333 90710 91143
BBXX 62103 08184 99499 70029 46/// /3115 10110 20099 40300 53003 22200 00114 10903 70013
BBXX 2AUO5 08183 99606 10016 41597 51718 10071 20017 40147 58012 70211 854// 22241 20402 316// 40804 80049
BBXX DGZL 08183 99366 10002 41998 00910 10147 20089 40250 56005 70200 80000 22224 00160 20101 30000 80115
BBXX A8OH5 08183 99346 70190 41297 20221 10172 20153 40240 54000 7//11 827// 22224 00223 20904 304// 41204 80160
BBXX 46145 08181 99544 71324 46/// /1706 10072 40083 52017 22200 00068 11204 70018 333 91208
BBXX 46208 08181 99525 71327 46/// /1805 10078 40105 52009 22200 00072 11209 70044 333 91207
BBXX 46145 08181 99544 71324 46/// /1706 10072 40083 52017 22200 00068 11204 70018 333 91208
BBXX 46208 08181 99525 71327 46/// /1805 10078 40105 52009 22200 00072 11209 70044 333 91207
BBXX VRFJ6 08184 99016 11393 41/98 70000 10290 20250 40106 54000 70202 8//// 22234 00287 2//// 3//// 4//// 80260
BBXX VRFJ6 08184 99016 11393 41/98 70000 10290 20250 40106 54000 70202 8//// 22234 00287 2//// 3//// 4//// 80260
AAXX 08181 98431 11458 81801 10248 20237 30089 40136 58025 69961 70282 8387/ 333 56999 83816 88459
BBXX 9VDD2 08184 99425 11545 41598 53225 10010 20/// 40170 56010 70200 852// 22215 00010 2//// 80000
BBXX SHIP 08184 99533 11674 41598 61707 11001 21010 40058 56003 72222 86/// 91800 22264 00040 2//// 3//// 4//// 82000
BBXX 46238 08181 99334 71195 46/// ///// 1//// 91820 22200 00134 11304 21003 329// 41302 70018
BBXX 46242 08181 99332 71174 46/// ///// 1//// 91828 22200 00148 11201 20901 326// 41201 70006
BBXX 46221 08181 99339 71186 46/// ///// 1//// 91815 22200 00148 11402 21001 326// 41402 70010
BBXX 41112 08181 99307 70813 46/// ///// 1//// 91822 22200 00166 11101 21001 310// 41101 70004
AAXX 08184 71404 46/// /0000 11052 21065 39649 55005 6///1 333 7////
AAXX 08184 71409 16/// ///// 10068 21028 60001 333 10068 21099 70000
AAXX 08184 71433 46/// /2615 10001 20001 39959 40194 58013 6///1 333 10006 21069 7////
AAXX 08184 71006 16/// /2610 10049 21041 60001 333 10050 21045 70000
AAXX 08184 71007 16/// ///// 10073 21050 60001 333 10073 21066 7////
AAXX 08184 71008 16/// /2707 10051 21023 60001 333 10051 21088 7////
AAXX 08184 71009 16/// /1801 10049 21031 60001 333 10060 21044 70000
AAXX 08184 71012 16/// /2513 10055 21049 60001 333 10055 21114 70000
AAXX 08184 71035 16/// ///// 10044 21025 60001 333 10051 21053 70000
AAXX 08184 71383 16/// ///// 11174 21228 39571 40206 53003 60001 333 11172 21205 70000
AAXX 08184 71502 16/// /0404 11232 21249 39919 49935 56003 60001 333 11232 21271 70000
AAXX 08184 71509 46/// /2724 10063 21033 6///1 333 10064 20004 7////
AAXX 08184 71517 16/// /2630 10063 21038 60001 333 10064 20001 70000
AAXX 08184 71518 16/// /2715 10078 21034 60001 333 10079 21060 70000
AAXX 08184 71519 16/// /2611 10063 21030 60001 333 10063 21064 70000
AAXX 08184 71520 16/// /3105 11169 21214 39499 40200 50000 60001 333 11169 21296 70000
AAXX 08184 71521 16/// /2507 11188 21231 60001 333 11177 21240 70003
AAXX 08184 71523 16/// ///// 11142 21192 39825 40216 56002 60001 333 11138 21188 70000
AAXX 08184 71528 16/// /2624 10058 21037 60001 333 10059 21025 70000
AAXX 08184 71051 16/// ///// 11004 21042 60001 333 11004 21098 7////
AAXX 08184 71057 16/// ///// 10070 21041 60001 333 10070 21072 70000
AAXX 08184 71070 16/// ///// 10054 21028 60001 333 10054 21076 70004
AAXX 08184 71089 16/// ///// 10042 21049 60001 333 10042 21078 70000
AAXX 08184 71789 16/// ///// 10047 21041 60001 333 10054 21011 70000
AAXX 08184 71791 16/// /2517 10038 21043 60001 333 10039 21057 70000
AAXX 08184 71794 16/// ///// 10054 21043 60001 333 10054 21090 70000
AAXX 08184 71795 16/// ///// 10058 21038 60001 333 10058 21043 70000
AAXX 08184 71796 16/// ///// 10051 21046 60001 333 10051 21048 70000
AAXX 08184 71841 16/// /2807 11100 21141 39803 40216 58011 60001 333 11095 21268 70000
AAXX 08184 71102 16/// ///// 10028 21038 60001 333 10028 21082 70000
AAXX 08184 71105 16/// ///// 10056 21034 60001 333 10056 21091 70000
AAXX 08184 71841 16/// /2807 11100 21141 39803 40216 58011 60001 333 11095 21268 70000
AAXX 08184 71433 46/// /2615 10001 20001 39959 40194 58013 6///1 333 10006 21069 7////
AAXX 08184 71404 46/// /0000 11052 21065 39649 55005 6///1 333 7////
AAXX 08184 71409 16/// ///// 10068 21028 60001 333 10068 21099 70000
AAXX 08184 71051 16/// ///// 11004 21042 60001 333 11004 21098 7////
AAXX 08184 71057 16/// ///// 10070 21041 60001 333 10070 21072 70000
AAXX 08184 71070 16/// ///// 10054 21028 60001 333 10054 21076 70004
AAXX 08184 71089 16/// ///// 10042 21049 60001 333 10042 21078 70000
AAXX 08184 71789 16/// ///// 10047 21041 60001 333 10054 21011 70000
AAXX 08184 71791 16/// /2517 10038 21043 60001 333 10039 21057 70000
AAXX 08184 71794 16/// ///// 10054 21043 60001 333 10054 21090 70000
AAXX 08184 71795 16/// ///// 10058 21038 60001 333 10058 21043 70000
AAXX 08184 71796 16/// ///// 10051 21046 60001 333 10051 21048 70000
AAXX 08184 71502 16/// /0404 11232 21249 39919 49935 56003 60001 333 11232 21271 70000
AAXX 08184 71509 46/// /2724 10063 21033 6///1 333 10064 20004 7////
AAXX 08184 71517 16/// /2630 10063 21038 60001 333 10064 20001 70000
AAXX 08184 71518 16/// /2715 10078 21034 60001 333 10079 21060 70000
AAXX 08184 71519 16/// /2611 10063 21030 60001 333 10063 21064 70000
AAXX 08184 71520 16/// /3105 11169 21214 39499 40200 50000 60001 333 11169 21296 70000
AAXX 08184 71521 16/// /2507 11188 21231 60001 333 11177 21240 70003
AAXX 08184 71523 16/// ///// 11142 21192 39825 40216 56002 60001 333 11138 21188 70000
AAXX 08184 71528 16/// /2624 10058 21037 60001 333 10059 21025 70000
AAXX 08184 71006 16/// /2610 10049 21041 60001 333 10050 21045 70000
AAXX 08184 71007 16/// ///// 10073 21050 60001 333 10073 21066 7////
AAXX 08184 71008 16/// /2707 10051 21023 60001 333 10051 21088 7////
AAXX 08184 71009 16/// /1801 10049 21031 60001 333 10060 21044 70000
AAXX 08184 71012 16/// /2513 10055 21049 60001 333 10055 21114 70000
AAXX 08184 71035 16/// ///// 10044 21025 60001 333 10051 21053 70000
AAXX 08184 71102 16/// ///// 10028 21038 60001 333 10028 21082 70000
AAXX 08184 71105 16/// ///// 10056 21034 60001 333 10056 21091 70000
AAXX 08184 71383 16/// ///// 11174 21228 39571 40206 53003 60001 333 11172 21205 70000
AAXX 08184 71145 11474 81809 11105 21117 39793 40098 58061 69901 73671 86570 333 11105 21286 48037 79999 90931
AAXX 08184 71145 11474 81809 11105 21117 39793 40098 58061 69901 73671 86570 333 11105 21286 48037 79999 90931
AAXX 08184 96995 46/// /2812 10227 20226 39796 40090
AAXX 08184 96995 46/// /2812 10227 20226 39796 40090
AAXX 08181 10929 01468 83004 10039 20025 39720 40263 53016 60032 76186 878// 333 10042 20027 32002 55300 20000 30000 69917 83815 87626 96480 96461
AAXX 08184 96973 32558 73005 10256 20235 30067 40072 57018 83231 333 56000 57802 83820 80850
AAXX 08181 89063 41497 73101 10010 20000 39905 49916 52006 71072 8641/ 222// ICE 45792 333 46098
BBXX S6SR 08184 99273 70424 41498 /3107 10300 20215 40200 54000 7//// 862// 22273 02220 2//04 331// 4//// 5//// 6//// 80240 ICE /////
BBXX DGZS2 08183 99103 10654 41497 /0326 10260 20218 40150 50010 70222 8/145 22264 00279 20603 80230
BBXX MINFR03 0818/ 99062 30589 46/// ///// 10273 40135 52018
BBXX ZQHM2 08183 99199 70265 41497 10516 10215 20183 40164 56009 70200 81136 22261 02222 20602 300// 4//// 5//// 80195
BBXX TBWUK16 08184 99377 30411 41598 53408 10175 20131 40178 51005 70111 85444 22223 06220 20504 323// 41408 5//// 80150
BBXX VRIB2 08184 99110 11101 41598 80227 10255 20219 40147 58020 70222 88/// 22244 0//// 2//// 3//// 4//// 80230
BBXX 9VDD2 08184 99425 11545 41598 53225 10010 20/// 40170 56010 70200 852// 22215 00010 2//// 80000
BBXX DDBB2 08184 99427 11470 41/97 62111 10020 20007 40180 56010 78411 86/// 22215 00040 20603 332// 41002 80015
BBXX MZER8 08180 99060 10856 41397 80310 10272 20209 40130 51005 72582 887// 22264 00288 20302 306// 40503 80230
BBXX TBWUK37 08184 99259 11319 41498 /0413 10140 20102 40200 54000 75855 8/2// 22254 04230 20603 304// 40803 80120
BBXX SHIP 08184 99233 11262 41398 61116 10223 20206 40202 5//// 70321 84/// 22215 00250 2//// 80212
BBXX A8VN4 08184 99146 11097 41398 60422 10238 20178 40185 56015 70222 83442 22244 04220 21005 305// 41306 80198
BBXX PDWT 08183 99105 11112 41497 /0231 10250 20222 40145 54000 70211 8/7// 22253 00/// 20806 303// 41005 80230
BBXX DGHX 08183 99083 11075 41/97 ///// 10250 20199 40115 51005 70222 8//// 22214 00230 2//// 80215
BBXX A8JR5 08184 99099 11009 41597 30112 10270 20210 40130 54000 70200 82168 22284 04282 21202 80230
BBXX VRFJ6 08184 99016 11393 41/98 70000 10290 20250 40106 54000 70202 8//// 22234 00287 2//// 3//// 4//// 80260
BBXX PHJV 08184 99024 11050 41397 73622 10245 20238 40106 58006 75011 87717 22283 06272 20102 80240
BBXX A8OH5 08183 99346 70190 41297 20221 10172 20153 40240 54000 7//11 827// 22224 00223 20904 304// 41204 80160
BBXX DGZL 08183 99366 10002 41998 00910 10147 20089 40250 56005 70200 80000 22224 00160 20101 30000 80115
BBXX MINUK01 0818/ 99575 70017 46/// ///// 10078 40167 57011
BBXX WADN 08183 99149 70411 41698 31626 10260 2023/ 40130 52008 70200 8264/ 22233 0//// 20502 316// 40804 5//// 6//// 80240 ICE//
BBXX 41112 08181 99307 70813 46/// ///// 1//// 91822 22200 00166 11101 21001 310// 41101 70004
BBXX 46221 08181 99339 71186 46/// ///// 1//// 91815 22200 00148 11402 21001 326// 41402 70010
BBXX 46242 08181 99332 71174 46/// ///// 1//// 91828 22200 00148 11201 20901 326// 41201 70006
BBXX 46238 08181 99334 71195 46/// ///// 1//// 91820 22200 00134 11304 21003 329// 41302 70018
BBXX 46208 08181 99525 71327 46/// /1805 10078 40105 52009 22200 00072 11209 70044 333 91207
BBXX 46145 08181 99544 71324 46/// /1706 10072 40083 52017 22200 00068 11204 70018 333 91208
BBXX S6SR 08184 99273 70424 41498 /3107 10300 20215 40200 54000 7//// 862// 22273 02220 2//04 331// 4//// 5//// 6//// 80240 ICE /////
BBXX 44039 08181 99411 70727 46/// /2907 10061 21029 40221 91830 22200 00069 10301 70004 333 91209
BBXX 46223 08181 99335 71178 46/// ///// 1//// 91830 22200 00152 11102 21001 325// 41101 70008
BBXX 46222 08181 99336 71183 46/// ///// 1//// 91826 22200 00151 11302 20902 327// 41301 70011
BBXX 46231 08181 99327 71174 46/// ///// 1//// 91824 22200 00149 11403 21002 328// 41402 70015
BBXX 41113 08181 99284 70805 46/// ///// 1//// 91821 22200 00206 11101 70003
BBXX 44100 08181 99363 70756 46/// ///// 1//// 91822 22200 00103 10603 20603 70013
BBXX 41110 08181 99341 70777 46/// ///// 1//// 91821 22200 00125 11101 20301 70007
BBXX 46241 08181 99330 71173 46/// ///// 1//// 91811 22200 00147 11502 21001 326// 41501 70008
BBXX 46246 08181 99500 71451 46/// ///// 1//// 91759 22200 00065 11513 21007 325// 41511 70067
BBXX 46246 08181 99500 71451 46/// ///// 1//// 91829 22200 00065 11414 21007 324// 41412 70070
BBXX VRFH2 08183 99384 71305 41297 82613 10140 20080 40280 52020 7//22 88641 22224 00120 21204 314// 41204 80110
BBXX A8NQ5 08183 99467 70515 41192 82510 10060 20039 40050 54000 71242 886// 22224 04025 21401 80050
BBXX 44034 08181 99441 70681 46/30 /2906 10038 40168 55000 91804 22200 00066 11103 70013 333 91207 555 11067 22069
BBXX 41052 08181 99183 70648 46/// /1006 10266 40151 91810 333 91208
BBXX 41052 08181 99183 70648 46/// /1006 10266 40151 91820 333 91207
BBXX 41052 08181 99183 70648 46/// /1006 10266 40150 91830 333 91207
BBXX PENR 08184 99273 70639 41697 42027 10250 20151 40208 56018 70211 83165 22214 20301 80190
AAXX 08184 71887 12986 61115 10027 21011 39824 40252 53006 60001 83072 333 10027 21020 70026
AAXX 08184 71887 12986 61115 10027 21011 39824 40252 53006 60001 83072 333 10027 21020 70026
AAXX 08184 71887 12986 61115 10027 21011 39824 40252 53006 60001 83072 333 10027 21020 70026
OOXX AAMIZ 08184 99707 30443 58304 22602 46/// /0908 11102 2//// 37351 49509 5//// 91750
OOXX AAERI 08184 99849 51288 60048 09901 46/// /3504 11078 21099 38750 49865 5//// 91750
AAXX 08184 60195 32970 32616 10122 21071 38558 48573 52006 80002 333 10162 83073 95500
BBXX TBWUK17 08183 99192 50152 41398 41314 10225 20189 40209 54000 70211 83145 22273 04230 20101 307// 40302 5//// 80202
BBXX TBWUK18 08183 99216 30745 41398 22509 10240 20210 40124 52013 70000 821// 22212 00260 20501 309// 41002 5//// 80220
BBXX VRC27 08180 99219 10378 41598 1//// 10230 20165 40171 54000 70200 811// 22235 2//// 3//// 4//// 5//// 80190
BBXX MRGU3 08183 99147 10596 41697 50809 10265 20213 40168 54000 70222 84500 22224 04255 20301 80230
BBXX OVSB2 08183 99128 30006 41598 11408 10239 20181 40125 56007 70100 811// 22275 00233 20302 318// 40903 5//// 80202
AAXX 08184 60340 32962 40605 10109 20083 40254 52003 80002 333 10165 84070
AAXX 08184 71014 16/// /2003 10048 21037 60001 333 10051 21045 7////
AAXX 08184 71346 16/// /2519 10065 21038 60001 333 10065 21044 70000
AAXX 08184 71857 16/// ///// 10033 21028 60001 333 10033 7////
AAXX 08184 71055 46/// /0104 11212 21232 39581 49918 53003 6///1 333 11211 21289 7////
AAXX 08184 71065 16/// ///// 10074 21026 60001 333 10076 21103 70000
AAXX 08184 71360 16/// ///// 10053 21046 60001 333 10053 21074 70000
AAXX 08184 71380 46/// /3404 10049 21033 6///1 333 10052 21037 7////
AAXX 08184 71249 16/// /2616 10040 21025 60001 333 10040 21045 70000
AAXX 08184 71413 16/// ///// 10036 21044 60001 333 10036 21089 70000
AAXX 08184 71414 16/// ///// 10067 21020 60001 333 10067 21065 70000
AAXX 08184 71440 16/// ///// 10066 21032 60001 333 10066 21035 70000
AAXX 08184 71674 16/// ///// 10025 21043 60001 333 10025 21043 70000
AAXX 08184 71904 16/// ///// 10046 21031 60001 333 10067 21048 70000
AAXX 08184 71481 16/// /2307 10054 21032 60001 333 10054 21050 70000
AAXX 08184 71498 16/// /2307 10048 21024 60001 333 10048 21048 70000
AAXX 08184 71507 16/// /2519 10058 21016 60001 333 10060 21115 70005
AAXX 08184 71540 16/// /1103 11021 21049 60001 333 21091 7////
AAXX 08184 71544 16/// ///// 10062 21015 60001 333 10063 21037 70000
AAXX 08184 71548 16/// ///// 10063 21023 60001 333 10063 21054 70000
AAXX 08184 71797 16/// ///// 10047 21027 60001 333 10047 21063 70000
BBXX MINFR05 0818/ 99055 10000 46/// ///// 10270 40105 52010
AAXX 08184 71346 16/// /2519 10065 21038 60001 333 10065 21044 70000
AAXX 08184 71014 16/// /2003 10048 21037 60001 333 10051 21045 7////
AAXX 08184 71674 16/// ///// 10025 21043 60001 333 10025 21043 70000
AAXX 08184 71360 16/// ///// 10053 21046 60001 333 10053 21074 70000
AAXX 08184 71380 46/// /3404 10049 21033 6///1 333 10052 21037 7////
AAXX 08184 71904 16/// ///// 10046 21031 60001 333 10067 21048 70000
AAXX 08184 71857 16/// ///// 10033 21028 60001 333 10033 7////
AAXX 08184 71055 46/// /0104 11212 21232 39581 49918 53003 6///1 333 11211 21289 7////
AAXX 08184 71065 16/// ///// 10074 21026 60001 333 10076 21103 70000
AAXX 08184 71249 16/// /2616 10040 21025 60001 333 10040 21045 70000
AAXX 08184 71507 16/// /2519 10058 21016 60001 333 10060 21115 70005
AAXX 08184 71540 16/// /1103 11021 21049 60001 333 21091 7////
AAXX 08184 71544 16/// ///// 10062 21015 60001 333 10063 21037 70000
AAXX 08184 71548 16/// ///// 10063 21023 60001 333 10063 21054 70000
AAXX 08184 71413 16/// ///// 10036 21044 60001 333 10036 21089 70000
AAXX 08184 71414 16/// ///// 10067 21020 60001 333 10067 21065 70000
AAXX 08184 71440 16/// ///// 10066 21032 60001 333 10066 21035 70000
AAXX 08184 71481 16/// /2307 10054 21032 60001 333 10054 21050 70000
AAXX 08184 71498 16/// /2307 10048 21024 60001 333 10048 21048 70000
AAXX 08184 71797 16/// ///// 10047 21027 60001 333 10047 21063 70000
AAXX 08181 11867 12572 72303 10026 20002 39829 40150 52011 69902 875// 333 10053 42002 85630 87650
AAXX 08181 10544 01/01 93008 11005 21005 39106 48473 51016 60042 77774 333 11002 21015 3/102 48024 55300 69967 91115 96049
BBXX MINFR03 0818/ 99062 30589 46/// ///// 10273 40135 52018
BBXX OVSB2 08183 99128 30006 41598 11408 10239 20181 40125 56007 70100 811// 22275 00233 20302 318// 40903 5//// 80202
BBXX TBWUK18 08183 99216 30745 41398 22509 10240 20210 40124 52013 70000 821// 22212 00260 20501 309// 41002 5//// 80220
AAXX 08181 59158 32660 40102 10167 20133 30111 40213 58004 84500
AAXX 08181 59562 32665 63601 10202 20165 30187 40199 58011 86500
AAXX 08181 59567 46/// /0312 10192 20179 39818 40198 58009
AAXX 08181 58968 32566 61003 10172 20158 30223 40231 58006 86500
AAXX 08181 58974 46/// /0208 10159 20145 30113 40239 58002
AAXX 08181 59358 31630 20204 10163 20145 30181 40213 58011 71011 82400
AAXX 08181 59559 32565 33603 10207 20184 30167 40195 58008 83200
AAXX 08181 59792 32460 60409 10194 20165 30197 40202 57010 84410
AAXX 08181 59997 11458 80608 10270 20254 30108 40116 57012 69961 72588 8382/
AAXX 08184 88903 45/// /2622 10046 21041 39899 49899 53047
BBXX TBWUK34 08183 99083 70167 41997 03204 10270 20241 40105 57005 70630 80000 22273 00300 20100 332// 40801 5//// 80250
AAXX 08184 41268 36/// /1608 10237 20190 30181 48447 333 0E024 10297 59000
BBXX PHAL 08183 99380 70122 41798 30615 10154 20118 40251 52011 70200 82074 22283 20202 33403 40603 50302 80133 91305
OOXX MXP44 08161 99280 71140 ///// 00041 26/// /1422 10118 29054 30160 91610 333 60000
OOXX MXP44 08161 99280 71140 ///// 00041 26/// /1422 10123 29054 30162 91620 333 60000
OOXX MXP44 08161 99280 71140 ///// 00041 26/// /1422 10127 29054 30163 91630 333 60000
OOXX MXP44 08161 99280 71140 ///// 00041 26/// /1422 10131 29054 30165 91640 333 60000
OOXX MXP44 08161 99280 71140 ///// 00041 26/// /1422 10140 29055 30165 91650 333 60000
OOXX MXP44 08171 99280 71140 ///// 00041 26/// /1422 10146 29055 30166 91700 333 60000
OOXX MXP44 08171 99280 71140 ///// 00041 26/// /1422 10152 29055 30168 91710 333 60000
OOXX MXP44 08171 99280 71140 ///// 00041 26/// /1422 10154 29055 30166 91720 333 60000
OOXX MXP44 08171 99280 71140 ///// 00041 26/// /1422 10156 29055 30165 91730 333 60000
OOXX MXP44 08171 99280 71140 ///// 00041 26/// /1422 10157 29055 30164 91740 333 60000
OOXX MXP44 08171 99280 71140 ///// 00041 26/// /1422 10159 29055 30163 91750 333 60000
OOXX MXP44 08181 99280 71140 ///// 00041 26/// /1422 10165 29055 30162 91800 333 60000
OOXX SEP63 08161 99594 10180 ///// 00401 26/// /2302 11014 29078 30090 91610 333 60000
OOXX SEP63 08161 99594 10180 ///// 00401 26/// /2503 11015 29078 30090 91620 333 60000
OOXX SEP63 08161 99594 10180 ///// 00401 26/// /2102 11015 29078 30090 91630 333 60000
OOXX SEP63 08161 99594 10180 ///// 00401 26/// /2002 11015 29077 30090 91640 333 60000
OOXX SEP63 08161 99594 10180 ///// 00401 26/// /2101 11015 29077 30100 91650 333 60000
OOXX SEP63 08171 99594 10180 ///// 00401 26/// /2102 11016 29077 30100 91700 333 60000
OOXX SEP63 08171 99594 10180 ///// 00401 26/// /1802 11018 29078 30100 91710 333 60000
OOXX SEP63 08171 99594 10180 ///// 00401 26/// /2301 11019 29076 30100 91720 333 60000
OOXX SEP63 08171 99594 10180 ///// 00401 26/// /2001 11018 29073 30100 91730 333 60000
OOXX SEP63 08171 99594 10180 ///// 00401 26/// /1801 11018 29073 30100 91740 333 60000
OOXX SEP63 08171 99594 10180 ///// 00401 26/// /1902 11019 29073 30100 91750 333 60000
OOXX SEP63 08181 99594 10180 ///// 00401 26/// /1702 11020 29073 30100 91800 333 60000
BBXX 46145 08181 99544 71324 46/// /1706 10072 40083 52017 22200 00068 11204 70018 333 91208
BBXX 46208 08181 99525 71327 46/// /1805 10078 40105 52009 22200 00072 11209 70044 333 91207
BBXX VRFH2 08183 99384 71305 41297 82613 10140 20080 40280 52020 7//22 88641 22224 00120 21204 314// 41204 80110
BBXX WAZV 08184 99544 71401 41397 89937 10040 20040 49979 54000 70222 8877/ 22273 00050 20807 32224 41521 51012 6//// 80040 ICE /////
AAXX 08184 71611 16/// /3006 11061 21084 60001 333 10013 21063 70040
AAXX 08184 91844 46/// /0808 10257 40099 22200 00271
AAXX 08184 41268 36/// /1608 10237 20190 30181 48447 333 0E024 10297 59000
BBXX 62105 08184 99554 70121 46/// /2327 10109 20096 40162 56013 22200 00105 10709 70043 333 90710 91136
BBXX 64045 08184 99591 70117 46/// /2229 10103 20094 40024 58024 22200 00099 10812 70060 333 90710 91143
BBXX 63055 08184 99606 10016 47998 /1415 10064 20004 40139 57017 700// 22200 10805 70024
BBXX 63106 08184 99610 10017 46/// /1617 10060 40140 57015 22200
BBXX 63105 08184 99610 10017 47998 ///// 10067 21011 40139 57015 700// 22200
BBXX 62103 08184 99499 70029 46/99 /3219 10109 20096 40296 55001 22200 00115 10903 70013 333 90710 91126
BBXX VRXL7 08183 99236 70508 41397 60915 10230 2017/ 40190 56010 7//22 86115 22273 00260 20204 309// 40204 5//// 6//// 80190 ICE /////
BBXX PBAD 08181 99196 70670 41/98 51210 10260 20215 40199 56007 70211 8514/ 22234 2//// 322// 40802 5//// 80230
BBXX TBWUK34 08183 99083 70167 41997 03204 10270 20241 40105 57005 70630 80000 22273 00300 20100 332// 40801 5//// 80250
BBXX MINFR05 0818/ 99055 10000 46/// ///// 10270 40105 52010
BBXX MRGU3 08183 99147 10596 41697 50809 10265 20213 40168 54000 70222 84500 22224 04255 20301 80230
BBXX TBWUK17 08183 99192 50152 41398 41314 10225 20189 40209 54000 70211 83145 22273 04230 20101 307// 40302 5//// 80202
BBXX OVSB2 08183 99128 30006 41598 11408 10239 20181 40125 56007 70100 811// 22275 00233 20302 318// 40903 5//// 80202
BBXX VRC27 08180 99219 10378 41598 1//// 10230 20165 40171 54000 70200 811// 22235 2//// 3//// 4//// 5//// 80190
BBXX PBAD 08181 99196 70670 41/98 51210 10260 20215 40199 56007 70211 8514/ 22234 2//// 322// 40802 5//// 80230
BBXX VRXL7 08183 99236 70508 41397 60915 10230 2017/ 40190 56010 7//22 86115 22273 00260 20204 309// 40204 5//// 6//// 80190 ICE /////
BBXX TBWUK18 08183 99216 30745 41398 22509 10240 20210 40124 52013 70000 821// 22212 00260 20501 309// 41002 5//// 80220
BBXX BSH02 08181 99542 10079 46/// ///// 22200 00066 20803 70015
BBXX BSH03 08181 99540 10081 46/// ///// 22200 00060 20804 70019
BBXX PHAL 08183 99380 70122 41798 30615 10154 20118 40251 52011 70200 82074 22283 20202 33403 40603 50302 80133 91305
OOXX RUP54 08161 99586 10494 ///// 01271 26/// /0604 11059 29094 30094 91628 333 60120
OOXX RUP54 08161 99586 10494 ///// 01271 26/// /0604 11059 29094 30095 91638 333 60120
OOXX RUP54 08161 99586 10494 ///// 01271 26/// /0604 11060 29094 30095 91648 333 60120
OOXX RUP54 08161 99586 10494 ///// 01271 26/// /0604 11061 29094 30095 91658 333 60120
OOXX RUP54 08171 99586 10494 ///// 01271 26/// /0503 11062 29094 30096 91708 333 60120
OOXX RUP54 08171 99586 10494 ///// 01271 26/// /0604 11063 29094 30096 91718 333 60120
OOXX RUP54 08171 99586 10494 ///// 01271 26/// /0604 11064 29094 30096 91728 333 60120
OOXX RUP54 08171 99586 10494 ///// 01271 26/// /0604 11065 29094 30096 91738 333 60120
OOXX RUP54 08171 99586 10494 ///// 01271 26/// /0604 11066 29094 30097 91748 333 60120
OOXX RUP54 08171 99586 10494 ///// 01271 26/// /0604 11067 29094 30098 91758 333 60120
OOXX RUP54 08181 99586 10494 ///// 01271 26/// /0604 11067 29094 30098 91808 333 60120
OOXX RUP54 08181 99586 10494 ///// 01271 26/// /0604 11068 29094 30099 91818 333 60120
OOXX MRP43 08161 99181 70159 ///// 00101 26/// /0603 10316 29006 30117 91650 333 60000
OOXX MRP43 08171 99181 70159 ///// 00101 26/// /0303 10313 29006 30118 91700 333 60000
OOXX MRP43 08171 99181 70159 ///// 00101 26/// /0603 10314 29006 30117 91710 333 60000
OOXX MRP43 08171 99181 70159 ///// 00101 26/// /0403 10313 29006 30118 91720 333 60000
OOXX MRP43 08171 99181 70159 ///// 00101 26/// /0504 10310 29006 30118 91730 333 60000
OOXX MRP43 08171 99181 70159 ///// 00101 26/// /0503 10309 29006 30117 91740 333 60000
OOXX MRP43 08171 99181 70159 ///// 00101 26/// /0403 10307 29006 30118 91750 333 60000
OOXX MRP43 08181 99181 70159 ///// 00101 26/// /0403 10305 29006 30118 91800 333 60000
OOXX MRP43 08181 99181 70159 ///// 00101 26/// /0304 10302 29007 30118 91810 333 60000
OOXX MRP43 08181 99181 70159 ///// 00101 26/// /0302 10298 29007 30120 91820 333 60000
OOXX MRP43 08181 99181 70159 ///// 00101 26/// /0302 10293 29007 30121 91830 333 60000
OOXX MRP43 08181 99181 70159 ///// 00101 26/// /0302 10287 29007 30122 91840 333 60000
OOXX KIP39 08161 99020 51574 ///// 00181 26/// /0906 10255 29090 30106 91620 333 60000
OOXX KIP39 08161 99020 51574 ///// 00181 26/// /0905 10256 29090 30107 91630 333 60000
OOXX KIP39 08161 99020 51574 ///// 00181 26/// /0906 10255 29090 30107 91640 333 60000
OOXX KIP39 08161 99020 51574 ///// 00181 26/// /1005 10254 29091 30107 91650 333 60000
OOXX KIP39 08171 99020 51574 ///// 00181 26/// /1005 10255 29091 30109 91700 333 60000
OOXX KIP39 08171 99020 51574 ///// 00181 26/// /0906 10256 29089 30110 91710 333 60000
OOXX KIP39 08171 99020 51574 ///// 00181 26/// /1005 10257 29088 30112 91720 333 60000
OOXX KIP39 08171 99020 51574 ///// 00181 26/// /1005 10259 29088 30112 91730 333 60000
OOXX KIP39 08171 99020 51574 ///// 00181 26/// /1006 10261 29087 30113 91740 333 60000
OOXX KIP39 08171 99020 51574 ///// 00181 26/// /1005 10262 29087 30116 91750 333 60000
OOXX KIP39 08181 99020 51574 ///// 00181 26/// /0905 10262 29086 30116 91800 333 60000
OOXX KIP39 08181 99020 51574 ///// 00181 26/// /0905 10261 29086 30116 91810 333 60000
OOXX FJP26 08161 99178 31775 ///// 00311 26/// /1302 10233 29091 30030 91630 333 60000
OOXX FJP26 08161 99178 31775 ///// 00311 26/// /1302 10232 29091 30031 91640 333 60000
OOXX FJP26 08161 99178 31775 ///// 00311 26/// /1302 10232 29092 30032 91650 333 60000
OOXX FJP26 08171 99178 31775 ///// 00311 26/// /1202 10231 29092 30033 91700 333 60000
OOXX FJP26 08171 99178 31775 ///// 00311 26/// /1301 10232 29092 30034 91710 333 60000
OOXX FJP26 08171 99178 31775 ///// 00311 26/// /1302 10233 29091 30035 91720 333 60000
OOXX FJP26 08171 99178 31775 ///// 00311 26/// /1402 10234 29091 30035 91730 333 60000
OOXX FJP26 08171 99178 31775 ///// 00311 26/// /1302 10233 29091 30036 91740 333 60000
OOXX FJP26 08171 99178 31775 ///// 00311 26/// /1202 10232 29091 30037 91750 333 60000
OOXX FJP26 08181 99178 31775 ///// 00311 26/// /1102 10231 29092 30039 91800 333 60000
OOXX FJP26 08181 99178 31775 ///// 00311 26/// /0902 10233 29092 30040 91810 333 60000
OOXX FJP26 08181 99178 31775 ///// 00311 26/// /0902 10235 29090 30040 91820 333 60000
OOXX AUP07 08161 99/// ///// ///// ///// 26/// /3515 10089 29088 39971 91653 333 60000
OOXX AUP07 08171 99/// ///// ///// ///// 26/// /3515 10089 29087 39971 91703 333 60000
OOXX AUP07 08171 99/// ///// ///// ///// 26/// /3515 10089 29086 39969 91713 333 60000
OOXX AUP07 08171 99/// ///// ///// ///// 26/// /3515 10090 29086 39969 91723 333 60000
OOXX AUP07 08171 99/// ///// ///// ///// 26/// /3515 10091 29085 39967 91733 333 60000
OOXX AUP07 08171 99/// ///// ///// ///// 26/// /3515 10092 29084 39967 91743 333 60000
OOXX AUP07 08171 99/// ///// ///// ///// 26/// /3515 10089 29085 39967 91753 333 60000
OOXX AUP07 08181 99/// ///// ///// ///// 26/// /3516 10089 29086 39966 91803 333 60000
OOXX AUP07 08181 99/// ///// ///// ///// 26/// /3516 10090 29086 39965 91813 333 60000
OOXX AUP07 08181 99/// ///// ///// ///// 26/// /3516 10089 29087 39964 91823 333 60000
OOXX AUP07 08181 99/// ///// ///// ///// 26/// /3516 10090 29086 39963 91833 333 60000
OOXX AUP07 08181 99/// ///// ///// ///// 26/// /3517 10090 29086 39961 91843 333 60000
OOXX PAP50 08161 99090 70795 ///// 00901 26/// /3604 10300 29041 30032 91600 333 60000
OOXX PAP50 08161 99090 70795 ///// 00901 26/// /0305 10301 29040 30031 91610 333 60000
OOXX PAP50 08161 99090 70795 ///// 00901 26/// /0404 10304 29040 30030 91620 333 60000
OOXX PAP50 08161 99090 70795 ///// 00901 26/// /0304 10306 29037 30029 91630 333 60000
OOXX PAP50 08161 99090 70795 ///// 00901 26/// /0205 10307 29039 30029 91640 333 60000
OOXX PAP50 08161 99090 70795 ///// 00901 26/// /3505 10304 29041 30027 91650 333 60000
OOXX PAP50 08171 99090 70795 ///// 00901 26/// /0105 10304 29038 30026 91700 333 60000
OOXX PAP50 08171 99090 70795 ///// 00901 26/// /0206 10309 29035 30023 91710 333 60000
OOXX PAP50 08171 99090 70795 ///// 00901 26/// /0404 10313 29034 30023 91720 333 60000
OOXX PAP50 08171 99090 70795 ///// 00901 26/// /0205 10313 29037 30021 91730 333 60000
OOXX PAP50 08171 99090 70795 ///// 00901 26/// /3605 10310 29037 30018 91740 333 60000
OOXX PAP50 08171 99090 70795 ///// 00901 26/// /0105 10310 29039 30018 91750 333 60000
OOXX GBP67 08161 99159 50057 ///// 04381 26/// /0803 10194 29079 39658 91620 333 60000
OOXX GBP67 08161 99159 50057 ///// 04381 26/// /0704 10187 29082 39658 91630 333 60000
OOXX GBP67 08161 99159 50057 ///// 04381 26/// /0804 10185 29083 39659 91640 333 60000
OOXX GBP67 08161 99159 50057 ///// 04381 26/// /0703 10185 29083 39658 91650 333 60000
OOXX GBP67 08171 99159 50057 ///// 04381 26/// /0903 10186 29083 39658 91700 333 60000
OOXX GBP67 08171 99159 50057 ///// 04381 26/// /0704 10184 29086 39655 91710 333 60000
OOXX GBP67 08171 99159 50057 ///// 04381 26/// /1003 10182 29087 39656 91720 333 60000
OOXX GBP67 08171 99159 50057 ///// 04381 26/// /1003 10181 29088 39656 91730 333 60000
OOXX GBP67 08171 99159 50057 ///// 04381 26/// /1003 10181 29087 39657 91740 333 60000
OOXX GBP67 08171 99159 50057 ///// 04381 26/// /0903 10180 29087 39659 91750 333 60000
OOXX GBP67 08181 99159 50057 ///// 04381 26/// /1003 10180 29089 39659 91800 333 60000
OOXX GBP67 08181 99159 50057 ///// 04381 26/// /0902 10179 29090 39658 91810 333 60000
OOXX MYP42 08161 99045 11014 ///// 15551 26/// /0104 10178 29085 38445 91614 333 60000
OOXX MYP42 08161 99045 11014 ///// 15551 26/// /0104 10175 29086 38449 91624 333 60000
OOXX MYP42 08161 99045 11014 ///// 15551 26/// /3601 10178 29088 38447 91634 333 60000
OOXX MYP42 08161 99045 11014 ///// 15551 26/// /1303 10172 29089 38445 91644 333 60000
OOXX MYP42 08161 99045 11014 ///// 15551 26/// /0401 10172 29091 38451 91654 333 60000
OOXX MYP42 08171 99045 11014 ///// 15551 26/// /0401 10173 29091 38442 91704 333 60000
OOXX MYP42 08171 99045 11014 ///// 15551 26/// /0205 10172 29092 38453 91714 333 60000
OOXX MYP42 08171 99045 11014 ///// 15551 26/// /1005 10169 29092 38442 91724 333 60000
OOXX MYP42 08171 99045 11014 ///// 15551 26/// /3303 10172 29093 38431 91734 333 60000
OOXX MYP42 08171 99045 11014 ///// 15551 26/// /1906 10169 29093 38453 91744 333 60000
OOXX MYP42 08171 99045 11014 ///// 15551 26/// /1004 10168 29092 38434 91754 333 60000
OOXX MYP42 08181 99045 11014 ///// 15551 26/// /0307 10174 29092 38434 91804 333 60000
OOXX AUP09 08161 99124 31309 ///// 00321 26/// ///// 1//// 29/// 3//// 91651 333 6///0
OOXX AUP09 08171 99124 31309 ///// 00321 26/// ///// 1//// 29/// 3//// 91701 333 6///0
OOXX AUP09 08171 99124 31309 ///// 00321 26/// ///// 1//// 29/// 3//// 91711 333 6///0
OOXX AUP09 08171 99124 31309 ///// 00321 26/// ///// 1//// 29/// 3//// 91721 333 6///0
OOXX AUP09 08171 99124 31309 ///// 00321 26/// ///// 1//// 29/// 3//// 91731 333 6///0
OOXX AUP09 08171 99124 31309 ///// 00321 26/// ///// 1//// 29/// 3//// 91741 333 6///0
OOXX AUP09 08171 99124 31309 ///// 00321 26/// ///// 1//// 29/// 3//// 91751 333 6///0
OOXX AUP09 08181 99124 31309 ///// 00321 26/// ///// 1//// 29/// 3//// 91801 333 6///0
OOXX AUP09 08181 99124 31309 ///// 00321 26/// ///// 1//// 29/// 3//// 91811 333 6///0
OOXX AUP09 08181 99124 31309 ///// 00321 26/// ///// 1//// 29/// 3//// 91821 333 6///0
OOXX AUP09 08181 99124 31309 ///// 00321 26/// ///// 1//// 29/// 3//// 91831 333 6///0
OOXX AUP09 08181 99124 31309 ///// 00321 26/// ///// 1//// 29/// 3//// 91841 333 6///0
OOXX RUP60 08171 99531 11588 ///// 00651 26/// /0106 11134 29053 30031 91702 333 60000
OOXX RUP60 08171 99531 11588 ///// 00651 26/// /3002 11132 29052 30032 91712 333 60000
OOXX RUP60 08171 99531 11588 ///// 00651 26/// /3002 11135 29052 30031 91722 333 60000
OOXX RUP60 08171 99531 11588 ///// 00651 26/// /3201 11141 29051 30031 91732 333 60000
OOXX RUP60 08171 99531 11588 ///// 00651 26/// /3005 11148 29057 30032 91742 333 60000
OOXX RUP60 08171 99531 11588 ///// 00651 26/// /3203 11143 29054 30032 91752 333 60000
OOXX RUP60 08181 99531 11588 ///// 00651 26/// /2801 11160 29057 30032 91802 333 60000
OOXX RUP60 08181 99531 11588 ///// 00651 26/// /3002 11159 29061 30033 91812 333 60000
OOXX RUP60 08181 99531 11588 ///// 00651 26/// /2906 11161 29060 30034 91822 333 60000
OOXX RUP60 08181 99531 11588 ///// 00651 26/// /3202 11164 29062 30033 91832 333 60000
OOXX RUP60 08181 99531 11588 ///// 00651 26/// /3303 11173 29063 30033 91842 333 60000
OOXX RUP60 08181 99531 11588 ///// 00651 26/// /3102 11174 29062 30033 91852 333 60000
OOXX CAP14 08161 99487 71234 ///// 00431 26/// /1402 10067 29084 30193 91640 333 60000
OOXX CAP14 08161 99487 71234 ///// 00431 26/// /1401 10068 29084 30192 91650 333 60000
OOXX CAP14 08171 99487 71234 ///// 00431 26/// /1401 10068 29084 30193 91700 333 60000
OOXX CAP14 08171 99487 71234 ///// 00431 26/// /1301 10068 29084 30194 91710 333 60000
OOXX CAP14 08171 99487 71234 ///// 00431 26/// /1201 10068 29085 30195 91720 333 60000
OOXX CAP14 08171 99487 71234 ///// 00431 26/// /1403 10070 29083 30194 91730 333 60000
OOXX CAP14 08171 99487 71234 ///// 00431 26/// /1303 10071 29082 30194 91740 333 60000
OOXX CAP14 08171 99487 71234 ///// 00431 26/// /1402 10071 29082 30196 91750 333 60000
OOXX CAP14 08181 99487 71234 ///// 00431 26/// /1402 10072 29082 30196 91800 333 60000
OOXX CAP14 08181 99487 71234 ///// 00431 26/// /1402 10072 29081 30197 91810 333 60000
OOXX CAP14 08181 99487 71234 ///// 00431 26/// /1502 10073 29081 30197 91820 333 60000
OOXX CAP14 08181 99487 71234 ///// 00431 26/// /1202 10075 29081 30195 91830 333 60000
OOXX GBP68 08161 99371 50123 ///// 00641 26/// /3502 10128 29000 30138 91620 333 60000
OOXX GBP68 08161 99371 50123 ///// 00641 26/// /3502 10130 29000 30137 91630 333 60000
OOXX GBP68 08161 99371 50123 ///// 00641 26/// /3501 10130 29000 30133 91640 333 60000
OOXX GBP68 08161 99371 50123 ///// 00641 26/// /3502 10130 29000 30135 91650 333 60000
OOXX GBP68 08171 99371 50123 ///// 00641 26/// /3501 10131 29000 30134 91700 333 60000
OOXX GBP68 08171 99371 50123 ///// 00641 26/// /3501 10133 29000 30134 91710 333 60000
OOXX GBP68 08171 99371 50123 ///// 00641 26/// /3501 10131 29000 30135 91720 333 60000
OOXX GBP68 08171 99371 50123 ///// 00641 26/// /3501 10132 29000 30138 91730 333 60000
OOXX GBP68 08171 99371 50123 ///// 00641 26/// /3501 10132 29000 30139 91740 333 60000
OOXX GBP68 08171 99371 50123 ///// 00641 26/// /3501 10135 29000 30139 91750 333 60000
OOXX GBP68 08181 99371 50123 ///// 00641 26/// /3502 10135 29000 30140 91800 333 60000
OOXX GBP68 08181 99371 50123 ///// 00641 26/// /3502 10134 29000 30142 91810 333 60000
OOXX ISP34 08161 99641 70219 ///// 01301 26/// /3203 10030 29005 39776 91610 333 6///0
OOXX ISP34 08161 99641 70219 ///// 01301 26/// /3203 10030 29003 39777 91620 333 6///0
OOXX ISP34 08161 99641 70219 ///// 01301 26/// /3204 10030 29004 39777 91630 333 6///0
OOXX ISP34 08161 99641 70219 ///// 01301 26/// /3305 10031 29005 39777 91640 333 6///0
OOXX ISP34 08161 99641 70219 ///// 01301 26/// /3404 10029 29006 39779 91650 333 6///0
OOXX ISP34 08171 99641 70219 ///// 01301 26/// /3404 10026 29005 39780 91700 333 6///0
OOXX ISP34 08171 99641 70219 ///// 01301 26/// /3205 10024 29005 39778 91710 333 6///0
OOXX ISP34 08171 99641 70219 ///// 01301 26/// /3206 10024 29006 39778 91720 333 6///0
OOXX ISP34 08171 99641 70219 ///// 01301 26/// /3307 10022 29006 39780 91730 333 6///0
OOXX ISP34 08171 99641 70219 ///// 01301 26/// /3304 10016 29005 39780 91740 333 6///0
OOXX ISP34 08171 99641 70219 ///// 01301 26/// /3204 10015 29005 39781 91750 333 6///0
OOXX ISP34 08181 99641 70219 ///// 01301 26/// /3103 10016 29005 39781 91800 333 6///0
OOXX FRP31 08161 99052 70527 ///// 00091 26/// /0507 10281 29079 30219 91614 333 60000
OOXX FRP31 08161 99052 70527 ///// 00091 26/// /0508 10284 29077 30217 91624 333 60000
OOXX FRP31 08161 99052 70527 ///// 00091 26/// /0508 10281 29078 30215 91634 333 60000
OOXX FRP31 08161 99052 70527 ///// 00091 26/// /0407 10284 29076 30217 91644 333 60000
OOXX FRP31 08161 99052 70527 ///// 00091 26/// /0408 10287 29075 30213 91654 333 60000
OOXX FRP31 08171 99052 70527 ///// 00091 26/// /0408 10284 29076 30211 91704 333 60000
OOXX FRP31 08171 99052 70527 ///// 00091 26/// /0406 10279 29079 30208 91714 333 60000
OOXX FRP31 08171 99052 70527 ///// 00091 26/// /0308 10277 29080 30207 91724 333 60000
OOXX FRP31 08171 99052 70527 ///// 00091 26/// /0406 10275 29081 30203 91734 333 60000
OOXX FRP31 08171 99052 70527 ///// 00091 26/// /0407 10276 29080 30201 91744 333 60000
OOXX FRP31 08171 99052 70527 ///// 00091 26/// /0407 10279 29079 30201 91754 333 60000
OOXX FRP31 08181 99052 70527 ///// 00091 26/// /0507 10281 29077 30201 91804 333 60000
OOXX FRP29 08161 99210 30556 ///// 00751 26/// /2304 10264 29073 39853 91655 333 60000
OOXX FRP29 08171 99210 30556 ///// 00751 26/// /2304 10266 29072 39854 91705 333 60000
OOXX FRP29 08171 99210 30556 ///// 00751 26/// /2304 10268 29070 39852 91715 333 60000
OOXX FRP29 08171 99210 30556 ///// 00751 26/// /2403 10271 29069 39852 91725 333 60000
OOXX FRP29 08171 99210 30556 ///// 00751 26/// /2304 10269 29069 39852 91735 333 60000
OOXX FRP29 08171 99210 30556 ///// 00751 26/// /2403 10269 29070 39853 91745 333 60000
OOXX FRP29 08171 99210 30556 ///// 00751 26/// /2304 10268 29071 39851 91755 333 60000
OOXX FRP29 08181 99210 30556 ///// 00751 26/// /2304 10267 29071 39852 91805 333 60000
OOXX FRP29 08181 99210 30556 ///// 00751 26/// /2304 10267 29072 39853 91815 333 60000
OOXX FRP29 08181 99210 30556 ///// 00751 26/// /2304 10267 29072 39850 91825 333 60000
OOXX FRP29 08181 99210 30556 ///// 00751 26/// /2204 10266 29073 39850 91835 333 60000
OOXX FRP29 08181 99210 30556 ///// 00751 26/// /2204 10266 29072 39849 91845 333 60000
OOXX NZP46 08161 99438 51765 ///// 00221 26/// /0409 10160 29/// 30180 91640 333 60000
OOXX NZP46 08161 99438 51765 ///// 00221 26/// /0410 10160 29/// 30180 91650 333 60000
OOXX NZP46 08171 99438 51765 ///// 00221 26/// /0410 10160 29/// 30180 91700 333 60000
OOXX NZP46 08171 99438 51765 ///// 00221 26/// /0409 10160 29/// 30181 91710 333 60000
OOXX NZP46 08171 99438 51765 ///// 00221 26/// /0409 10160 29/// 30181 91720 333 60000
OOXX NZP46 08171 99438 51765 ///// 00221 26/// /0409 10160 29/// 30182 91730 333 60000
OOXX NZP46 08171 99438 51765 ///// 00221 26/// /0509 10161 29/// 30181 91740 333 60000
OOXX NZP46 08171 99438 51765 ///// 00221 26/// /0409 10161 29/// 30182 91750 333 60000
OOXX NZP46 08181 99438 51765 ///// 00221 26/// /0509 10162 29100 30182 91800 333 60000
OOXX NZP46 08181 99438 51765 ///// 00221 26/// /0509 10163 29100 30182 91810 333 60000
OOXX NZP46 08181 99438 51765 ///// 00221 26/// /0510 10165 29099 30184 91820 333 60000
OOXX NZP46 08181 99438 51765 ///// 00221 26/// /0509 10164 29099 30184 91830 333 60000
AAXX 08184 91559 46/// /0000 10215 40075 22200 00288
AAXX 08184 71428 16/// /3409 11070 21089 30170 40176 53019 60001 333 11043 21089 70020
AAXX 08184 71429 16/// /0503 11045 21075 30121 40141 53017 60001 333 11025 21063 70040
AAXX 08184 71723 16/// /2805 11076 21131 30222 40232 53005 60001 333 11043 21080 70028
AAXX 08184 71612 16/// /2803 11066 21121 30147 40240 53006 60001 333 11003 21069 70024
AAXX 08184 71614 16/// /3006 11067 21106 30165 40233 53008 60001 333 11011 21070 70048 555 10020
AAXX 08184 71554 16/// /2606 11083 21132 30189 40195 51004 60001 333 11068 21099 70024
AAXX 08184 71301 16/// ///// 11148 21176 39833 40251 58009 60001 333 11146 21185 70000
AAXX 08184 71323 17/// /2905 11071 21105 39907 40195 53005 60011 7//4/ 333 11041 21091 70060
AAXX 08184 71386 16/// /3305 11099 21140 39968 40180 52013 60001 333 11071 21109 70020
AAXX 0818/ 89108 46/// ///// 11233 36893 4//// 5//// 91820
AAXX 0818/ 89872 46/// ///// 11024 39760 4//// 5//// 91840
AAXX 0818/ 89869 46/// ///// 11053 39751 4//// 5//// 91820
AAXX 0818/ 89866 46/// ///// 11006 39713 4//// 5//// 91840
AAXX 0818/ 89329 46/// ///// 11071 38738 4//// 5//// 91820
AAXX 0818/ 89799 46/// ///// 11258 4//// 5//// 91840
AAXX 0818/ 89799 46/// ///// 11258 4//// 5//// 91820
AAXX 0818/ 89332 46/// ///// 11035 39233 4//// 5//// 91820
AAXX 0818/ 89314 46/// ///// 11074 38185 4//// 5//// 91840
AAXX 08184 89667 46/// /1605 11020 29077 39818 4//// 5//// 91840
AAXX 08184 89667 46/// /1005 11025 39817 4//// 5//// 91830
AAXX 08184 89667 46/// /1005 11024 39816 4//// 5//// 91820
AAXX 08184 91531 46/// /0504 1//// 40079 22200 00267
AAXX 08181 98336 32470 40402 10220 20212 30156 40161 58016 81231 333 56199 81815
AAXX 08181 98536 11465 80402 10234 20216 39929 40135 57005 60031 70286 8327/ 333 56199 83818 88357
AAXX 08181 98543 11468 70000 10255 20242 30110 40121 58015 69941 70182 83408 333 56999 83618 86272
AAXX 08184 16219 42770 30516 11012 21096 38073 48463 53001 6///2 83030 333 10000 44012 83350 92825
AAXX 08184 89253 46/// /1899 00146 10047 49803 5////
AAXX 08184 89614 46/// /1019 11097 29076 38953 4//// 5//// 91830 333 90700 91127
AAXX 08184 89807 46/// /1715 11062 29095 39741 4//// 5//// 91830 333 90700 91122
AAXX 08184 89807 46/// /1715 11062 29095 39741 4//// 5//// 91830 333 90700 91122
AAXX 08184 89016 46/89 /1712 11063 29078 39358 4//// 5////
AAXX 08184 89003 46/89 /1503 11061 29066 38943 4//// 5////
AAXX 08184 89614 46/// /1019 11097 29076 38953 4//// 5//// 91830 333 90700 91127
AAXX 08184 71016 16/// ///// 10038 60001 333 10044 21011 70000
AAXX 08184 71077 17/// /2706 10030 21012 39462 49998 53002 69931 7//4/ 333 10030 21110 70003
AAXX 08184 71077 17/// /2706 10030 21012 39462 49998 53002 69931 7//4/ 333 10030 21110 70003
BBXX 41052 08181 99183 70648 46/// /1007 10266 40153 58024 91800 22200 00266 10602 70011 333 91208
BBXX 42085 08181 99179 70665 46/// /1006 10268 40152 91830 333 91207
BBXX 42085 08181 99179 70665 46/// /1106 10267 40153 91820 333 91208
BBXX 42085 08181 99179 70665 46/// /1006 10269 40154 91810 333 91207
BBXX 46109 08181 99481 71234 46/// /2303 10075 40258 91757 22200 00080
BBXX 46110 08181 99481 71230 46/// /1502 10071 40258 91758
BBXX 44055 08181 99391 70753 46/// ///// 1//// 91830 22200 00070 1//00 70002
BBXX 41038 08181 99341 70777 46/// /0705 10146 40223 58006 91800 22200 00125 333 91207
BBXX 44056 08181 99362 70757 46/// ///// 1//// 91820 22200 00105 10603 20603 70013
AAXX 08184 71018 16/// ///08 11338 21372 39952 40043 51008 60001 333 11297 21362 70000
AAXX 08184 92036 46/// /2202 10259 40064 22200 00310
BBXX 66022 08181 99541 10142 46/// /0205 10044 30130 22200 00039
BBXX 44056 08181 99362 70757 46/// ///// 1//// 91820 22200 00105 10603 20603 70013
BBXX 41038 08181 99341 70777 46/// /0705 10146 40223 58006 91800 22200 00125 333 91207
BBXX 46109 08181 99481 71234 46/// /2303 10075 40258 91757 22200 00080
BBXX 46110 08181 99481 71230 46/// /1502 10071 40258 91758
BBXX 44055 08181 99391 70753 46/// ///// 1//// 91830 22200 00070 1//00 70002
BBXX 42085 08181 99179 70665 46/// /1106 10267 40153 91820 333 91208
BBXX 42085 08181 99179 70665 46/// /1006 10268 40152 91830 333 91207
BBXX 42085 08181 99179 70665 46/// /1006 10269 40154 91810 333 91207
BBXX 41052 08181 99183 70648 46/// /1007 10266 40153 58024 91800 22200 00266 10602 70011 333 91208
BBXX DEDM 08184 99406 70657 41298 32917 10103 20046 40170 51010 70200 83105 22264 04170 20403 320// 40708 80075
BBXX 63106 08184 99610 10017 46/// /1617 10060 40140 57015 22200
BBXX 63113 08184 99610 10017 46/// /1517 10065 21011 40140 57014 22200 10805 70027
BBXX 62105 08184 99554 70121 46/// /2327 10108 20095 40162 56013 22200 00105 10709 70043 333 90710 91136
BBXX 64045 08184 99591 70117 46/// /2129 10103 20094 40024 58024 22200 00099 10812 70060 333 90710 91143
BBXX 62103 08184 99499 70029 46/// /3115 10110 20099 40300 53003 22200 00114 10903 70013
BBXX 2AUO5 08183 99606 10016 41597 51718 10071 20017 40147 58012 70211 854// 22241 20402 316// 40804 80049
BBXX 64045 08184 99591 70117 46/// /2229 10103 20094 40024 58024 22200 00099 10812 70060 333 90710 91143
BBXX 62112 08184 99584 70002 47393 /1819 10070 20056 40149 57022 762// 22200
BBXX 62113 08184 99584 10002 47396 /1917 10068 20048 40158 57013 753// 22200
BBXX 62129 08184 99584 10003 46/// ///// 10069 20052 40159 57012 22200
BBXX 62114 08184 99583 10000 46/// /1818 10069 20056 40153 57018 22200
BBXX PJAI 08184 99581 70014 47698 /2115 10087 20056 40144 57017 700// 22200
BBXX 62111 08184 99580 70003 46/// /2118 10074 20063 40158 57018 22200 10503 70014
BBXX BATFR04 08184 99579 70059 44/97 82430 10099 20080 40136 58019 702// 8//// 22282 00097 20702 320// 40902 5//// 60000 ICE 0////
BBXX 62117 08184 99579 10000 47294 /1917 10077 20057 40163 57014 753// 22200 10503 70013
BBXX BATEU08 08184 99571 70155 46/// /3429 11063 21230 40061 55003 22262
BBXX 62105 08184 99554 70121 46/// /2327 10109 20096 40162 56013 22200 00105 10709 70043 333 90710 91136
BBXX BATEU02 08184 99548 70174 46/// /2726 10087 20079 40133 53022 22212 00107
BBXX 62095 08184 99531 70159 46/// /2122 10115 20102 40192 58010 22200 00110 10810 70049 333 90710 91135
BBXX 62301 08184 99524 70047 46/// /2211 10089 20083 40278 50001 22200 00083 10502 70010
BBXX EIPT 08184 99518 70074 41597 82411 10110 20105 40297 58/// 70222 86776 22222 2//// 3//// 40403 5//// 80107
BBXX 62094 08184 99517 70067 46/// /2311 10106 20096 40296 53006 22200 00103 10603 70014
BBXX 62303 08184 99516 70051 46/// /2509 10111 20099 40292 53003 22200 00107 10603 70014
BBXX 62023 08183 99514 70079 46/97 /2415 10107 2//// 40309 5//// 22200 10603 70015 555 70024 80013
BBXX 62081 08184 99510 70134 46/// ///// 10123 20081 40280 55004 22200 00115 10706 70032
BBXX BAREU04 08184 99506 70126 46/// ///// 40295 57001 22222
BBXX 62305 08184 99504 10000 46/98 /2915 10103 20064 40303 52009 22200 00111 10601 70004
BBXX 62107 08184 99501 70061 46/// /2810 10111 20104 40317 53008 22200 00114 11004 70018
BBXX BATFR03 08184 99500 70006 46/// /3316 10104 20072 40300 22284
BBXX 62103 08184 99499 70029 46/99 /3219 10109 20096 40296 55001 22200 00115 10903 70013 333 90710 91126
BBXX TESTFR9 08184 99499 70005 46/// /3111 10100 29084 40326 52015 22234
BBXX BATFR60 08184 99493 70046 46/// /2617 10112 20104 40314 51013 22252 00109
BBXX SHIP 08184 99491 70059 41297 82916 10110 20101 40314 54000 70522 887// 22224 04110 2//// 80105
BBXX 62027 08184 99491 70022 46/// /3411 1//// 2//// 40306 53003 22200 00106 11303 327// 70013
BBXX 62442 08184 99490 70164 46/// /2119 1//// 2//// 40294 55002 22200 00118 333 90710 91125
BBXX BATFR12 08184 99490 70069 46/// /3007 10110 20107 40327 53005 22231 00130
BBXX 62029 08184 99487 70125 46/// /2008 10117 20108 40316 55002 22200 00126 10805 70026
BBXX A8QJ7 08184 99481 70210 41298 82215 10120 20101 40254 55009 7//00 84708 22263 20602 3//// 4//// 5//// 80110
BBXX 62163 08184 99475 70084 46/// /1203 10095 20072 40336 53005 22200 00123 11005 70026
BBXX C6KD6 08183 99468 70106 41498 71410 10115 20089 40323 58014 70322 87778 22254 02127 21207 32727 41506 51205 80102
BBXX BATFR15 08184 99467 70036 46/// /0105 10110 20055 40325 53013 22264 00132
BBXX BATEU06 08184 99460 70251 46/// /1915 10139 20124 40239 56016 22263 00142
BBXX PDHP 08183 99457 70082 41598 79904 10136 20100 40328 55000 7//// 877// 22254 00133 2//// 328// 41006 80116
BBXX 62001 08184 99452 70050 46/// /0411 10119 20083 40322 53004 22200 00131 10906 70029
BBXX BATFR42 08184 99438 70038 46/// /3614 10114 20097 40315 22284 00149
BBXX BAREU11 08184 99405 70291 46/// ///// 40269 57004 22253
BBXX DDSB2 08183 99405 70290 41/98 51814 10167 20148 40270 54000 7//11 84/41 22254 29903 80155
BBXX PCBT 08183 99397 70244 41498 60807 10149 20122 40289 55001 71511 864// 22254 20101 399// 4//03 80133
BBXX BATFR54 08184 99392 70098 46/// /0213 10149 20105 40259 53009 22282 00149
BBXX 4XFB 08184 99390 70227 04349 41010 10150 20120 40275 51010 840// 22264 00180 20801 327// 40804 5//// 80130
BBXX BATFR46 08184 99387 10004 46/// /2014 10142 20089 40248 56009 22253 00159
BBXX 2BLY5 08183 99379 70145 41298 60809 10163 20131 40256 55000 7//// 84768 22214 00179 20201 304// 40504 80145
BBXX BAREU06 08184 99361 70066 46/// ///// 40238 22263
BBXX PBEN 08183 99360 70105 41298 70916 10180 20172 40240 52010 7//22 84720 22263 04189 20803 309// 41003 80175
BBXX BATFR05 08184 99360 70052 46/// /1310 10152 20102 40252 53024 22223 00155
BBXX WAHP 08184 99356 70168 41597 80719 10180 20148 40280 54000 7//22 88/// 22225 00170 20502 307// 40402 5//// 6//// 80160 /////
BBXX 61001 08184 99434 10078 46/// /0707 10126 20100 40142 52002 22200 00134 10802 70010
BBXX BATFR58 08184 99431 10062 46/// /2817 10124 20012 40157 53017 22200 00144
BBXX BATFR24 08184 99427 10095 46/// /3005 10120 20040 40166 22213 00139
BBXX 61002 08184 99421 10047 46/// ///30 10131 2//// 40224 52006 22200 00133 10705 70027 555 1/037
BBXX BATFR46 08184 99387 10004 46/// /2014 10142 20089 40248 56009 22253 00159
BBXX BATEU09 08184 99382 10151 46/// /2507 10139 20077 40162 57030 22200 00167
BBXX BAREU56 08184 99379 10112 46/// ///// 40178 52003 22232
BBXX WDE8288 08184 99374 10074 41598 32831 10160 2009/ 40230 52030 70111 832// 22264 0//// 20607 333// 40906 5//// 6//// 80120 /////
BBXX DCPI2 08183 99374 10107 41/98 /2926 10165 20084 40190 56015 70311 8//// 22224 00140 2//// 80120
BBXX OXOR2 08184 99364 10143 41598 43128 10151 20090 40162 53001 70211 84200 22264 00162 20606 80117
BBXX C6OR4 08183 99333 10249 41597 52820 10140 20084 40143 54000 70111 85320 22223 06178 21006 3//// 4//// 5//// 80112
BBXX A8KO3 08180 99017 31086 41597 83214 10250 20175 40090 54000 76066 872// 22234 00270 20303 80200
BBXX VRBU6 08184 99062 30871 43297 72313 10290 2028/ 40130 54/// 7//11 8777/ 22253 0//// 2//// 3//// 4//// 5//// 6//// 80280 /////
BBXX V7HD2 08184 99252 30356 41497 51023 10260 2023/ 40140 54000 7//22 852// 22212 00285 20404 311// 40805 5//// 6//// 80240 /////
BBXX 9V8043 08184 99265 31100 41697 71226 10220 20189 40138 570207//118770 0 22274 20805 334// 40805 80200
BBXX VRDI7 08184 99323 30162 41498 61319 10210 20195 40110 54100 7//22 86478 22273 0//// 21004 323// 41005 5//// 6//// 80200 ICE /////
BBXX VQHO7 08184 99334 30342 41/98 /0921 10230 20207 40152 55000 70211 8//// 22224 00240 2//// 3//// 4//// 5//// 80215
BBXX TBWUK16 08184 99377 30411 41598 53408 10175 20131 40178 51005 70111 85444 22223 06220 20504 323// 41408 5//// 80150
AAXX 08181 89108 46/// ///// 11233 36893 4//// 5//// 91820
AAXX 08181 89872 46/// ///// 11024 39760 4//// 5//// 91840
AAXX 08181 89869 46/// ///// 11053 39751 4//// 5//// 91820
AAXX 08181 89866 46/// ///// 11006 39713 4//// 5//// 91840
AAXX 08181 89329 46/// ///// 11071 38738 4//// 5//// 91820
AAXX 08181 89799 46/// ///// 11258 4//// 5//// 91840
AAXX 08181 89799 46/// ///// 11258 4//// 5//// 91820
AAXX 08181 89332 46/// ///// 11035 39233 4//// 5//// 91820
AAXX 08181 89314 46/// ///// 11074 38185 4//// 5//// 91840
AAXX 08184 91689 46/// /0430 10245 40067 22200 00293
AAXX 08181 98531 31568 50903 10270 20227 30126 40130 58006 70544 81230 333 56199 81820 85358
BBXX 9V7645 08183 99546 71784 41696 52918 11015 21016 40060 57040 70222 8318/ 22263 04025 2//// 3//// 4//// 5//// 6//// 81015 ICE /////
BBXX MGSH7 08183 99540 10042 41/98 /2220 10080 20058 40234 52065 70100 8/5// 22253 2//// 3//// 4//// 5//// 80070
BBXX DGZL 08183 99366 10002 41998 00910 10147 20089 40250 56005 70200 80000 22224 00160 20101 30000 80115
BBXX 9V7645 08183 99546 71784 41696 52918 11015 21016 40060 57040 70222 8318/ 22263 04025 2//// 3//// 4//// 5//// 6//// 81015 ICE /////
AAXX 08184 04418 NIL
AAXX 08184 04425 NIL
AAXX 08184 04432 NIL
AAXX 08184 04436 46/// /0000 11273 21298
AAXX 08184 04464 46/// /2608 11320 21350 333 553// 20007
AAXX 08184 04485 46/// /1112 11330 21348 37125 333 553// 20004
AAXX 08184 04488 NIL
AAXX 08184 89257 46/// /2105 11062 21095 39789 49859 57004 91750
AAXX 08184 71988 46/// /0807 10041 20009 30149 40169 5/003 6///1 333 7////
AAXX 08184 97690 32430 60000 10250 20238 39972 40074 57013 83862 333 56000 57800 82815 86080
AAXX 08181 98132 11462 60702 10232 20217 40215 58016 70021 70564 85260 333 56199 85816 84357
AAXX 08181 98133 NIL
AAXX 08181 98222 31575 40401 10245 20217 40132 58014 70544 81206 333 56999 81820 84078
AAXX 08181 98233 31570 80000 10250 20215 40154 58011 70544 885// 333 56999 88620
AAXX 08181 98324 31462 70701 10262 20227 40126 57015 70544 82270 333 56999 82816 87358
AAXX 08181 98327 11665 73204 10228 20198 39975 40151 57010 69901 70544 82230 333 56999 82836 87360
AAXX 08181 98334 32460 51802 10239 20224 39950 40156 57020 81208 333 56999 81817 84275
AAXX 08181 98425 31558 50401 10254 20230 40134 57017 70122 82608 333 56999 82620 85280
AAXX 08181 98426 11568 61901 10251 20197 40138 57015 69901 70566 82170 333 56999 82820 86358
AAXX 08181 98427 11465 83604 10246 20231 39949 40128 58015 60021 76066 8382/ 333 56199 83818 88356
AAXX 08181 98428 32458 63602 10250 20236 40133 58018 82434 333 56299 82618 83360
AAXX 08181 98432 31468 60402 10253 20238 40132 57019 70544 82272 333 56199 82618 83356
AAXX 08181 98433 11460 80405 10208 20201 39410 40137 57015 60011 70382 8487/ 333 56199 84612 88357
AAXX 08181 98434 11462 83602 10255 20237 30135 40143 57019 60041 71586 8587/ 333 56199 85817 88358
AAXX 08181 98435 11468 70402 10251 20235 40120 5//// 60021 70262 84270 333 56999 84817 87357
AAXX 08181 98442 NIL
AAXX 08181 98446 32475 70404 10260 20255 30098 40144 56013 84208 333 56199 84818 87270
AAXX 08181 98447 11465 70406 10243 20233 39870 40136 5//// 84808 333 56199 84816 87270
AAXX 08181 98538 32466 70404 10255 20235 30120 40125 58012 82268 333 56119 82811 84357 87272
AAXX 08181 98546 NIL
AAXX 08181 98548 11466 70000 10256 20248 30107 40113 58020 69921 70181 84230 333 56999 84818 86358
AAXX 08181 98553 11466 70403 10271 20250 30115 40119 58011 60041 70584 85970 333 56199 82916 84818 87358
AAXX 08181 98558 11460 80412 10271 20252 40118 58021 60051 70282 8597/ 333 56999 84915 88357
AAXX 08181 98642 32462 80000 10265 20231 30098 40107 58021 84207 333 56199 84815 88272
AAXX 08181 98644 32464 80201 10255 20235 30102 40111 57012 82277 333 56999 82817 83358 88272
AAXX 08181 98648 11470 70401 10264 20240 30030 40112 57010 60011 70584 82268 333 56299 82817 83358 86270
AAXX 08181 98746 11460 81502 10247 20219 40085 58028 60011 72584 8397/ 333 56999 83918 88358
AAXX 08181 98751 32468 60000 10203 20197 39426 40099 57023 83970 333 56999 83915 86356
AAXX 08181 98752 11458 80000 10247 20240 40116 58011 69941 78088 8357/ 333 56999 83616 88358
AAXX 08181 98851 NIL
BBXX 62105 08184 99554 70121 46/// /2327 10109 20096 40162 56013 22200 00105 10709 70043 333 90710 91136
BBXX 64045 08184 99591 70117 46/// /2229 10103 20094 40024 58024 22200 00099 10812 70060 333 90710 91143
BBXX 63055 08184 99606 10016 47998 /1415 10064 20004 40139 57017 700// 22200 10805 70024
BBXX 63106 08184 99610 10017 46/// /1617 10060 40140 57015 22200
BBXX 63105 08184 99610 10017 47998 ///// 10067 21011 40139 57015 700// 22200
BBXX 62103 08184 99499 70029 46/99 /3219 10109 20096 40296 55001 22200 00115 10903 70013 333 90710 91126
BBXX MGSH7 08183 99540 10042 41/98 /2220 10080 20058 40234 52065 70100 8/5// 22253 2//// 3//// 4//// 5//// 80070
AAXX 08181 22954 12999 72201 11063 21078 39950 40209 52018 69920 87030 333 11020
AAXX 08184 71408 46/// /2812 10017 20009 39980 40059 53031 6///1 333 10043 21016 7////
BBXX 9V7645 08183 99546 71784 41696 52918 11015 21016 40060 57040 70222 8318/ 22263 04025 2//// 3//// 4//// 5//// 6//// 81015 ICE /////
BBXX 42369 08181 99272 70903 46/// /1905 1//// 91740 22200 10402 70009
BBXX 42370 08181 99273 70905 46/// ///// 10223 91740 22200 10402 70008
BBXX 42376 08181 99291 70879 46/// /0000 10200 40205 91740 22200 10101 70003
BBXX 42392 08181 99272 70900 46/// ///// 1//// 91740 22200 10402 70008
BBXX 42887 08181 99282 70885 46/// /1506 10233 91740 22200 10402 70009
AAXX 08184 60680 12381 31908 10145 21058 38664 48539 51012 60002 80002 333 10206 83073 95990
BBXX 42376 08181 99291 70879 46/// /0000 10200 40205 91740 22200 10101 70003
BBXX 42392 08181 99272 70900 46/// ///// 1//// 91740 22200 10402 70008
BBXX 42887 08181 99282 70885 46/// /1506 10233 91740 22200 10402 70009
BBXX 42369 08181 99272 70903 46/// /1905 1//// 91740 22200 10402 70009
BBXX 42370 08181 99273 70905 46/// ///// 10223 91740 22200 10402 70008
AAXX 08184 48372 31956 30000 10216 20213 30092 40151 57010 71011 80005 333 59015
BBXX MGRX9 08184 99070 30945 41398 73223 10280 20237 40090 54000 70322 877// 22273 02261 20804 332// 40604 80250
BBXX 63106 08184 99610 10017 46/// /1617 10060 40140 57015 22200
BBXX 63113 08184 99610 10017 46/// /1517 10065 21011 40140 57014 22200 10805 70027
BBXX 62105 08184 99554 70121 46/// /2327 10108 20095 40162 56013 22200 00105 10709 70043 333 90710 91136
BBXX 64045 08184 99591 70117 46/// /2129 10103 20094 40024 58024 22200 00099 10812 70060 333 90710 91143
BBXX 62103 08184 99499 70029 46/// /3115 10110 20099 40300 53003 22200 00114 10903 70013
BBXX 2AUO5 08183 99606 10016 41597 51718 10071 20017 40147 58012 70211 854// 22241 20402 316// 40804 80049
AAXX 08184 97980 32460 20000 10246 20231 30072 40079 57007 81431 333 56000 81619
BBXX OXES2 08184 99401 70455 412// 31917 10160 20126 40280 51030 7//// 83/89 22224 00180 20201 328// 40502 5//// 6//// 80140 ICE /////
BBXX MGRX9 08184 99070 30945 41398 73223 10280 20237 40090 54000 70322 877// 22273 02261 20804 332// 40604 80250
BBXX OXES2 08184 99401 70455 412// 31917 10160 20126 40280 51030 7//// 83/89 22224 00180 20201 328// 40502 5//// 6//// 80140 ICE /////
BBXX CFO383 08184 99439 70602 47598 /2908 10066 2003/ 40136 5//// 700// 8//// 22200 00062 10804 2//// 3//// 70021 80050 91013
BBXX CFO383 08184 99439 70602 47598 /2908 10066 2003/ 40136 5//// 700// 8//// 22200 00062 10804 2//// 3//// 70021 80050 91013
BBXX MGRX9 08184 99070 30945 41398 73223 10280 20237 40090 54000 70322 877// 22273 02261 20804 332// 40604 80250
AAXX 08184 89013 46/// /0407 11172 21208 37553 49537 57001 91750
AAXX 08184 89376 46/// /1705 11057 39720 49787 52006 91840
AAXX 08184 89828 46/// /3503 11275 36444 4//// 52014 91840
AAXX 08184 89832 46/// /1117 11076 39590 49890 52007 91840
AAXX 08184 89866 46/// /2504 11001 39689 49820 52008 91840
AAXX 08184 89873 46/// /1203 11062 39751 49828 52008 91840
AAXX 08184 89879 46/// /0000 10005 39724 49760 52013 91840
BBXX PHDL 08183 99482 70088 41297 80000 10107 20088 40341 53004 70222 886// 22223 00126 20000 399// 4//03 80097 91306
AAXX 08184 91375 46/// /0508 10272 40090 22200 00279
BBXX 42369 08181 99272 70903 46/// /1806 1//// 91800 22200 10402 70009
BBXX 42370 08181 99273 70905 46/// ///// 10223 91800 22200 10402 70008
AAXX 0818/ 68902 46/// ///// 40140 52014
BBXX 42376 08181 99291 70879 46/// /0000 10200 40205 54000 91800 22200 10101 70003
BBXX 42392 08181 99272 70900 46/// ///// 1//// 91800 22200 10402 70008
BBXX 42887 08181 99282 70885 46/// /1507 10232 91800 22200 10402 70010
AAXX 08184 91165 12666 22907 10183 20156 30159 40192 53011 69931 91753
AAXX 08184 91212 12566 60610 10261 20233 31387 40119 56014 69901 91754
AAXX 08184 91245 32566 20000 10240 20220 30140 91750
AAXX 08184 91285 32566 22406 10189 20117 30178 40191 53013 91753
AAXX 08184 91334 11474 81209 10260 20240 30081 40084 57010 60071 72582 83171
AAXX 08184 91348 11474 80506 10264 20243 30042 40095 55002 60031 78082 8627/
AAXX 08184 91376 11474 80813 10259 20236 30088 40091 53007 69981 72582 84878
AAXX 08184 91408 11466 81504 10261 20254 30054 40092 57014 60081 78082 86908
AAXX 08184 91413 11469 80910 10268 20245 30081 40107 57002 60041 70282 82371
AAXX 08184 91155 NIL
AAXX 08184 91203 NIL
AAXX 08184 91217 NIL
AAXX 08184 91232 NIL
AAXX 08184 91250 NIL
AAXX 08184 91275 NIL
AAXX 08184 91317 NIL
AAXX 08184 91324 NIL
AAXX 08184 91339 NIL
AAXX 08184 91353 NIL
AAXX 08184 91356 NIL
AAXX 08184 91366 NIL
AAXX 08184 91367 NIL
AAXX 08184 91369 NIL
AAXX 08184 91371 NIL
AAXX 08184 91378 NIL
AAXX 08184 91425 NIL
AAXX 08184 91434 NIL
AAXX 08184 91601 NIL
AAXX 08184 91610 NIL
AAXX 0818/ 89828 46/// ///// 11263 36465 4//// 5//// 91820
AAXX 0818/ 89872 46/// ///// 11021 39760 4//// 5//// 91820
AAXX 0818/ 89769 46/// ///// 11033 39776 4//// 5//// 91820
AAXX 0818/ 89314 46/// ///// 11076 38184 4//// 5//// 91820
AAXX 0818/ 89879 46/// ///// 10005 39738 4//// 5//// 91820
AAXX 0818/ 89866 46/// ///// 11008 39711 4//// 5//// 91820
BBXX 62105 08184 99554 70121 46/// /2327 10109 20096 40162 56013 22200 00105 10709 70043 333 90710 91136
BBXX 64045 08184 99591 70117 46/// /2229 10103 20094 40024 58024 22200 00099 10812 70060 333 90710 91143
BBXX 63055 08184 99606 10016 47998 /1415 10064 20004 40139 57017 700// 22200 10805 70024
BBXX 63106 08184 99610 10017 46/// /1617 10060 40140 57015 22200
BBXX 63105 08184 99610 10017 47998 ///// 10067 21011 40139 57015 700// 22200
BBXX 62103 08184 99499 70029 46/99 /3219 10109 20096 40296 55001 22200 00115 10903 70013 333 90710 91126
AAXX 08184 91165 12666 22907 10183 20156 30159 40192 53011 69931 91753
AAXX 08184 91212 12566 60610 10261 20233 31387 40119 56014 69901 91754
AAXX 08184 91285 32566 22406 10189 20117 30178 40191 53013 91753
AAXX 08184 91334 11474 81209 10260 20240 30081 40084 57010 60071 72582 83171
AAXX 08184 91348 11474 80506 10264 20243 30042 40095 55002 60031 78082 8627/
AAXX 08184 91376 11474 80813 10259 20236 30088 40091 53007 69981 72582 84878
AAXX 08184 91408 11466 81504 10261 20254 30054 40092 57014 60081 78082 86908
AAXX 08184 91413 11469 80910 10268 20245 30081 40107 57002 60041 70282 82371
AAXX 08184 91245 32566 20000 10240 20220 30140 91750
BBXX WCDP 08184 99379 70691 41498 13212 10175 2//// 40200 54000 70200 812// 22224 00175 2//// 3//// 4//// 5//// 6//// ICE /////
BBXX 42376 08181 99291 70879 46/// /0000 10200 40205 54000 91800 22200 10101 70003
BBXX 42887 08181 99282 70885 46/// /1507 10232 91800 22200 10402 70010
BBXX 42392 08181 99272 70900 46/// ///// 1//// 91800 22200 10402 70008
BBXX 42370 08181 99273 70905 46/// ///// 10223 91800 22200 10402 70008
BBXX 42369 08181 99272 70903 46/// /1806 1//// 91800 22200 10402 70009
BBXX CFO383 08184 99439 70602 47598 /2908 10066 2003/ 40136 5//// 700// 8//// 22200 00062 10804 2//// 3//// 70021 80050 91013
BBXX PHDL 08183 99482 70088 41297 80000 10107 20088 40341 53004 70222 886// 22223 00126 20000 399// 4//03 80097 91306
AAXX 08184 71427 17/// /2903 11070 21114 30171 40179 53013 60011 7//4/ 333 11067 21124 70040
AAXX 08184 71710 17/// /3313 11018 21034 30116 40126 53033 60011 7//4/ 333 10005 21022 70070
AAXX 08184 71384 16/// /2202 11061 21087 30197 40205 53006 60001 333 11048 21086 70010
AAXX 08184 71388 46/// /3008 11135 21179 30025 40221 52001 6///1 333 11117 21144 7////
AAXX 08184 71390 46/// /3407 11096 6///1 333 11089 21130 7////
AAXX 08181 20069 42976 21106 11184 21209 30150 40164 57011 82030
AAXX 08181 20046 32998 12701 11218 21236 30117 40151 57008 80001 333 11156
AAXX 08181 20292 42998 22302 11317 21341 30229 40250 57013 80001 333 91106
AAXX 08184 96509 32458 50000 10258 20248 30090 40102 57013 82231 333 56000 57803 82815 80857
BBXX MINFR00 0818/ 99215 51729 46/// ///// 10253 40035 52006
BBXX MINUK01 0818/ 99575 70017 46/// ///// 10078 40167 57011
BBXX TBWUK41 08184 99560 70013 41298 42721 10081 20055 40185 58/// 70200 83243 22262 20305 301// 40504 5//// 80068
BBXX PHAL 08183 99380 70122 41798 30615 10154 20118 40251 52011 70200 82074 22283 20202 33403 40603 50302 80133 91305
BBXX DGZL 08183 99366 10002 41998 00910 10147 20089 40250 56005 70200 80000 22224 00160 20101 30000 80115
BBXX 63106 08184 99610 10017 46/// /1617 10060 40140 57015 22200
BBXX 63113 08184 99610 10017 46/// /1517 10065 21011 40140 57014 22200 10805 70027
BBXX 62105 08184 99554 70121 46/// /2327 10108 20095 40162 56013 22200 00105 10709 70043 333 90710 91136
BBXX 64045 08184 99591 70117 46/// /2129 10103 20094 40024 58024 22200 00099 10812 70060 333 90710 91143
BBXX 62103 08184 99499 70029 46/// /3115 10110 20099 40300 53003 22200 00114 10903 70013
BBXX 2AUO5 08183 99606 10016 41597 51718 10071 20017 40147 58012 70211 854// 22241 20402 316// 40804 80049
BBXX 42369 08181 99272 70903 46/// /1806 1//// 91820 22200 10402 70009
BBXX 42370 08181 99273 70905 46/// ///// 10223 91820 22200 10402 70008
BBXX 42376 08181 99291 70879 46/// /0000 10200 40205 91820 22200 10101 70003
BBXX 42392 08181 99272 70900 46/// ///// 1//// 91820 22200 10402 70008
BBXX 42887 08181 99282 70885 46/// /1506 10232 91820 22200 10402 70009
BBXX 42369 08181 99272 70903 46/// /1806 1//// 91820 22200 10402 70009
BBXX 42376 08181 99291 70879 46/// /0000 10200 40205 91820 22200 10101 70003
BBXX 42392 08181 99272 70900 46/// ///// 1//// 91820 22200 10402 70008
BBXX 42887 08181 99282 70885 46/// /1506 10232 91820 22200 10402 70009
BBXX 42370 08181 99273 70905 46/// ///// 10223 91820 22200 10402 70008
BBXX MINFR00 0818/ 99215 51729 46/// ///// 10253 40035 52006
BBXX 52243 08181 99193 11666 46/// ///// 1//// 91800 22200 00270
BBXX 51179 08181 99143 51708 46/// ///// 1//// 91800 22200 00286
BBXX 51178 08181 99142 51695 46/// ///// 1//// 91800 22200 00284
BBXX 52246 08181 99152 11457 46/// ///// 1//// 91800 22200 00278
BBXX 51176 08181 99278 71758 46/// ///// 1//// 91800 22200 00238
BBXX 52245 08181 99181 11458 46/// ///// 1//// 91800 22200 00274
BBXX 51174 08181 99142 51697 46/// ///// 1//// 91800 22200 00284
BBXX 52244 08181 99200 11452 46/// ///// 1//// 91800 22200 00263
BBXX 51173 08181 99260 71739 46/// ///// 1//// 91800 22200 00244
BBXX 51172 08181 99284 71783 46/// ///// 1//// 91800 22200 00222
BBXX 51171 08181 99064 71623 46/// ///// 1//// 91800 22200 00271
BBXX 51170 08181 99168 71695 46/// ///// 1//// 91800 22200 00256
BBXX 51169 08181 99004 51600 46/// ///// 1//// 91800 22200 00254
BBXX 52248 08181 99135 11448 46/// ///// 1//// 91800 22200 00282
AAXX 0818/ 89332 46/// ///// 11044 39232 4//// 5////
BBXX SKEC 08181 99620 10198 46/// ///// 11023 40112 52005 22241 00043
BBXX 62105 08184 99554 70121 46/// /2327 10109 20096 40162 56013 22200 00105 10709 70043 333 90710 91136
BBXX 64045 08184 99591 70117 46/// /2229 10103 20094 40024 58024 22200 00099 10812 70060 333 90710 91143
BBXX 63055 08184 99606 10016 47998 /1415 10064 20004 40139 57017 700// 22200 10805 70024
BBXX 63106 08184 99610 10017 46/// /1617 10060 40140 57015 22200
BBXX 63105 08184 99610 10017 47998 ///// 10067 21011 40139 57015 700// 22200
BBXX 62103 08184 99499 70029 46/99 /3219 10109 20096 40296 55001 22200 00115 10903 70013 333 90710 91126
BBXX 51172 08181 99284 71783 46/// ///// 1//// 91800 22200 00222
BBXX 51173 08181 99260 71739 46/// ///// 1//// 91800 22200 00244
BBXX 51176 08181 99278 71758 46/// ///// 1//// 91800 22200 00238
BBXX 51169 08181 99004 51600 46/// ///// 1//// 91800 22200 00254
BBXX 51179 08181 99143 51708 46/// ///// 1//// 91800 22200 00286
BBXX 51178 08181 99142 51695 46/// ///// 1//// 91800 22200 00284
BBXX 51174 08181 99142 51697 46/// ///// 1//// 91800 22200 00284
BBXX 51170 08181 99168 71695 46/// ///// 1//// 91800 22200 00256
BBXX 51171 08181 99064 71623 46/// ///// 1//// 91800 22200 00271
BBXX SKEC 08181 99620 10198 46/// ///// 11023 40112 52005 22241 00043
BBXX 52248 08181 99135 11448 46/// ///// 1//// 91800 22200 00282
BBXX 52245 08181 99181 11458 46/// ///// 1//// 91800 22200 00274
BBXX 52246 08181 99152 11457 46/// ///// 1//// 91800 22200 00278
BBXX 52243 08181 99193 11666 46/// ///// 1//// 91800 22200 00270
BBXX 52244 08181 99200 11452 46/// ///// 1//// 91800 22200 00263
AAXX 08181 23678 419// 81003 11190 21209 30252 40315 57001 77171 8801/
AAXX 08184 96525 32458 50000 10246 20236 30094 40101 58012 82431 333 56000 82615
BBXX UEYO 08181 99501 11561 42/98 /0306 11030 40214 54000 22213 00017 20402
BBXX UIFY 08181 99514 11409 42/98 /3212 11188 21239 40201 52013 22200 01001 2//// ICE 51092
AAXX 08181 02805 11883 11601 11123 21137 39947 40087 52020 69902 70271 81070 333 11123 21173 47///
BBXX 63106 08184 99610 10017 46/// /1617 10060 40140 57015 22200
BBXX 63113 08184 99610 10017 46/// /1517 10065 21011 40140 57014 22200 10805 70027
BBXX 62105 08184 99554 70121 46/// /2327 10108 20095 40162 56013 22200 00105 10709 70043 333 90710 91136
BBXX 64045 08184 99591 70117 46/// /2129 10103 20094 40024 58024 22200 00099 10812 70060 333 90710 91143
BBXX 62103 08184 99499 70029 46/// /3115 10110 20099 40300 53003 22200 00114 10903 70013
BBXX 2AUO5 08183 99606 10016 41597 51718 10071 20017 40147 58012 70211 854// 22241 20402 316// 40804 80049
AAXX 08184 97796 31440 80000 10248 20239 30060 40111 57010 70522 8697/ 333 56009 57901 82910 85611 87460 80980
BBXX UIFY 08181 99514 11409 42/98 /3212 11188 21239 40201 52013 22200 01001 2//// ICE 51092
BBXX UEYO 08181 99501 11561 42/98 /0306 11030 40214 54000 22213 00017 20402
AAXX 08181 38734 426// 20902 11143 21214 47050 58003 82500
AAXX 08181 38844 429// 31403 11072 21106 48500 58010 80002
AAXX 08181 38744 429// 00000 11189 21215 38061 48600 56003
AAXX 08181 38598 429// 00907 11007 21022 40310 57005
AAXX 08181 38933 429// 13601 11028 21052 39752 40289 57012 80002
AAXX 08181 38725 429// 00000 11085 21227 48540 54000
AAXX 08184 71245 46/// /2324 11031 21062 6///1 333 11001 21118 7////
AAXX 08184 97260 32459 70000 10252 20240 30051 40058 57015 85971 333 56000 57902 81918 80980 84618
BBXX PHDL 08183 99482 70088 41297 80000 10107 20088 40341 53004 70222 886// 22223 00126 20000 399// 4//03 80097 91306
AAXX 08184 89262 46/// /1403 10008 21024 39841 49884 5//// 91750
AAXX 08181 29653 41597 80000 11073 21078 39857 40358 52007 78587 883//
AAXX 08184 48464 31958 00000 10211 20177 30115 40128 57014 71000 333 59024
BBXX 62105 08184 99554 70121 46/// /2327 10109 20096 40162 56013 22200 00105 10709 70043 333 90710 91136
BBXX 64045 08184 99591 70117 46/// /2229 10103 20094 40024 58024 22200 00099 10812 70060 333 90710 91143
BBXX 63055 08184 99606 10016 47998 /1415 10064 20004 40139 57017 700// 22200 10805 70024
BBXX 63106 08184 99610 10017 46/// /1617 10060 40140 57015 22200
BBXX 63105 08184 99610 10017 47998 ///// 10067 21011 40139 57015 700// 22200
BBXX 62103 08184 99499 70029 46/99 /3219 10109 20096 40296 55001 22200 00115 10903 70013 333 90710 91126
AAXX 08184 71539 16/// /2414 11003 21072 39437 40141 58013 60001 333 11003 21073 70000
AAXX 08181 25745 42698 32802 11344 21374 30111 40169 52006 83500
AAXX 08184 48373 31930 20000 10216 20204 30087 40151 57011 71000 80001 333 59018
AAXX 08181 01003 11582 20703 11105 21125 30137 40149 50001 60001 70300 81530
AAXX 08181 38599 31995 00605 11019 21034 39777 40312 58003 71000 333 10007
BBXX 63106 08184 99610 10017 46/// /1617 10060 40140 57015 22200
BBXX 63113 08184 99610 10017 46/// /1517 10065 21011 40140 57014 22200 10805 70027
BBXX 62105 08184 99554 70121 46/// /2327 10108 20095 40162 56013 22200 00105 10709 70043 333 90710 91136
BBXX 64045 08184 99591 70117 46/// /2129 10103 20094 40024 58024 22200 00099 10812 70060 333 90710 91143
BBXX 62103 08184 99499 70029 46/// /3115 10110 20099 40300 53003 22200 00114 10903 70013
BBXX 2AUO5 08183 99606 10016 41597 51718 10071 20017 40147 58012 70211 854// 22241 20402 316// 40804 80049
AAXX 08184 97192 32420 53104 10258 20238 30046 40103 57016 82531 333 56000 82616 83360
BBXX 62105 08184 99554 70121 46/// /2327 10109 20096 40162 56013 22200 00105 10709 70043 333 90710 91136
BBXX 64045 08184 99591 70117 46/// /2229 10103 20094 40024 58024 22200 00099 10812 70060 333 90710 91143
BBXX 63055 08184 99606 10016 47998 /1415 10064 20004 40139 57017 700// 22200 10805 70024
BBXX 63106 08184 99610 10017 46/// /1617 10060 40140 57015 22200
BBXX 63105 08184 99610 10017 47998 ///// 10067 21011 40139 57015 700// 22200
BBXX 62103 08184 99499 70029 46/99 /3219 10109 20096 40296 55001 22200 00115 10903 70013 333 90710 91126
BBXX A8VL8 08184 99158 11257 41597 70422 10260 20232 40160 57010 70322 877// 22233 0//// 2//// 3//// 4//// 5//// 6//// 80240 ICE /////
BBXX A8VL8 08184 99158 11257 41597 70422 10260 20232 40160 57010 70322 877// 22233 0//// 2//// 3//// 4//// 5//// 6//// 80240 ICE /////
AAXX 08184 41246 32960 01803 10218 20188 30190 40195 333 10254 58005
AAXX 0818/ 89872 46/// ///// 11021 39760 4//// 5//// 91830
AAXX 0818/ 89879 46/// ///// 10005 39739 4//// 5//// 91830
AAXX 0818/ 89879 46/// ///// 10004 39740 4//// 5//// 91840
AAXX 0818/ 89869 46/// ///// 11054 39752 4//// 5//// 91830
AAXX 0818/ 89869 46/// ///// 11053 39753 4//// 5//// 91840
AAXX 0818/ 89866 46/// ///// 11010 39711 4//// 5//// 91830
AAXX 0818/ 89329 46/// ///// 11070 38738 4//// 5//// 91830
AAXX 0818/ 89329 46/// ///// 11084 38739 4//// 5//// 91840
AAXX 0818/ 89799 46/// ///// 11253 4//// 5//// 91830
AAXX 0818/ 89828 46/// ///// 11246 36466 4//// 5//// 91830
AAXX 0818/ 89108 46/// ///// 11233 36892 4//// 5//// 91830
AAXX 0818/ 89108 46/// ///// 11231 36892 4//// 5//// 91840
AAXX 0818/ 89332 46/// ///// 11038 39233 4//// 5//// 91830
AAXX 0818/ 89332 46/// ///// 11041 39234 4//// 5//// 91840
AAXX 0818/ 89769 46/// ///// 11039 39776 4//// 5//// 91830
AAXX 0818/ 89769 46/// ///// 11038 39778 4//// 5//// 91840
AAXX 0818/ 89314 46/// ///// 11076 38185 4//// 5//// 91830
AAXX 08184 41246 32960 01803 10218 20188 30190 40195 333 10254 58005
AAXX 08184 97340 32560 80000 10250 20241 30055 40070 56013 81232 333 56000 81620 87080
AAXX 08181 98546 11460 81203 10248 20237 30114 40122 57016 60021 72582 84907 333 56999 84915 88275
AAXX 08181 98851 11468 83202 10240 20206 39935 40084 58021 60021 70282 8327/ 333 56999 83818 88358
BBXX 63106 08184 99610 10017 46/// /1617 10060 40140 57015 22200
BBXX 63113 08184 99610 10017 46/// /1517 10065 21011 40140 57014 22200 10805 70027
BBXX 62105 08184 99554 70121 46/// /2327 10108 20095 40162 56013 22200 00105 10709 70043 333 90710 91136
BBXX 64045 08184 99591 70117 46/// /2129 10103 20094 40024 58024 22200 00099 10812 70060 333 90710 91143
BBXX 62103 08184 99499 70029 46/// /3115 10110 20099 40300 53003 22200 00114 10903 70013
BBXX 2AUO5 08183 99606 10016 41597 51718 10071 20017 40147 58012 70211 854// 22241 20402 316// 40804 80049
AAXX 08184 91367 11474 70808 10272 20242 60151 70182 84232 333 56229 84815 82360 82180 555 90818
AAXX 08184 91367 11474 70808 10272 20242 60151 70182 84232 333 56229 84815 82360 82180 555 90818
AAXX 08184 91367 11474 70808 10272 20242 60151 70182 84232 333 56229 84815 82360 82180 555 90818
AAXX 08184 96179 32460 70000 10248 20234 30079 40116 57005 84218 333 56000 57802 84817 80850
BBXX 62105 08184 99554 70121 46/// /2327 10109 20096 40162 56013 22200 00105 10709 70043 333 90710 91136
BBXX 64045 08184 99591 70117 46/// /2229 10103 20094 40024 58024 22200 00099 10812 70060 333 90710 91143
BBXX 63055 08184 99606 10016 47998 /1415 10064 20004 40139 57017 700// 22200 10805 70024
BBXX 63106 08184 99610 10017 46/// /1617 10060 40140 57015 22200
BBXX 63105 08184 99610 10017 47998 ///// 10067 21011 40139 57015 700// 22200
BBXX 62103 08184 99499 70029 46/99 /3219 10109 20096 40296 55001 22200 00115 10903 70013 333 90710 91126
AAXX 08184 71713 16/// /0405 11077 21122 60001 333 11062 21108 70022
AAXX 08184 97086 32560 42502 10277 20246 30070 40094 56007 82271 333 56000 57803 82820 80858
BBXX 63106 08184 99610 10017 46/// /1617 10060 40140 57015 22200
BBXX 63113 08184 99610 10017 46/// /1517 10065 21011 40140 57014 22200 10805 70027
BBXX 62105 08184 99554 70121 46/// /2327 10108 20095 40162 56013 22200 00105 10709 70043 333 90710 91136
BBXX 64045 08184 99591 70117 46/// /2129 10103 20094 40024 58024 22200 00099 10812 70060 333 90710 91143
BBXX 62103 08184 99499 70029 46/// /3115 10110 20099 40300 53003 22200 00114 10903 70013
BBXX 2AUO5 08183 99606 10016 41597 51718 10071 20017 40147 58012 70211 854// 22241 20402 316// 40804 80049
AAXX 08184 71971 16/// /0702 11334 21367 39935 49983 56005 60001 333 11299 21345 70000
AAXX 08184 71971 16/// /0702 11334 21367 39935 49983 56005 60001 333 11299 21345 70000
BBXX 52249 08181 99052 31503 46/// ///// 1//// 91800 22200 00297
BBXX 62105 08184 99554 70121 46/// /2327 10109 20096 40162 56013 22200 00105 10709 70043 333 90710 91136
BBXX 64045 08184 99591 70117 46/// /2229 10103 20094 40024 58024 22200 00099 10812 70060 333 90710 91143
BBXX 63055 08184 99606 10016 47998 /1415 10064 20004 40139 57017 700// 22200 10805 70024
BBXX 63106 08184 99610 10017 46/// /1617 10060 40140 57015 22200
BBXX 63105 08184 99610 10017 47998 ///// 10067 21011 40139 57015 700// 22200
BBXX 62103 08184 99499 70029 46/99 /3219 10109 20096 40296 55001 22200 00115 10903 70013 333 90710 91126
BBXX 52249 08181 99052 31503 46/// ///// 1//// 91800 22200 00297
BBXX 63106 08184 99610 10017 46/// /1617 10060 40140 57015 22200
BBXX 63113 08184 99610 10017 46/// /1517 10065 21011 40140 57014 22200 10805 70027
BBXX 62105 08184 99554 70121 46/// /2327 10108 20095 40162 56013 22200 00105 10709 70043 333 90710 91136
BBXX 64045 08184 99591 70117 46/// /2129 10103 20094 40024 58024 22200 00099 10812 70060 333 90710 91143
BBXX 62103 08184 99499 70029 46/// /3115 10110 20099 40300 53003 22200 00114 10903 70013
BBXX 2AUO5 08183 99606 10016 41597 51718 10071 20017 40147 58012 70211 854// 22241 20402 316// 40804 80049
AAXX 08181 30703 425// 80000 11131 21137 39636 40344 58002 82907
AAXX 08181 78090 15/// /0000 10291 30225 40229 69901 91800 222// 00233
AAXX 08184 96739 32458 82608 10251 20232 30065 40114 57005 8552/ 333 56009 85618
AAXX 08184 71574 12574 62706 11048 21094 30089 40164 53015 60001 81530 333 11038 21080 70040
AAXX 08184 97028 32560 70000 10246 20237 30080 40086 56005 83521 333 56000 83620 86460
BBXX 62105 08184 99554 70121 46/// /2327 10109 20096 40162 56013 22200 00105 10709 70043 333 90710 91136
BBXX 64045 08184 99591 70117 46/// /2229 10103 20094 40024 58024 22200 00099 10812 70060 333 90710 91143
BBXX 63055 08184 99606 10016 47998 /1415 10064 20004 40139 57017 700// 22200 10805 70024
BBXX 63106 08184 99610 10017 46/// /1617 10060 40140 57015 22200
BBXX 63105 08184 99610 10017 47998 ///// 10067 21011 40139 57015 700// 22200
BBXX 62103 08184 99499 70029 46/99 /3219 10109 20096 40296 55001 22200 00115 10903 70013 333 90710 91126
AAXX 08184 96751 32540 60000 10194 20175 39047 48920 51000 83510 333 56500 83620 84460
AAXX 08184 96207 32430 70000 10206 20196 39228 40160 57003 83531 333 56000 83617
BBXX 42044 08181 99262 70971 46/// /1506 10193 20169 40139 91830 333 91207
BBXX 42044 08181 99262 70971 46/// /1405 10193 20170 40144 91800 333 91206
BBXX 42044 08181 99262 70971 46/// /1405 10193 20170 40144 91800 333 91206
BBXX 42044 08181 99262 70971 46/// /1506 10193 20169 40139 91830 333 91207
BBXX 63106 08184 99610 10017 46/// /1617 10060 40140 57015 22200
BBXX 63113 08184 99610 10017 46/// /1517 10065 21011 40140 57014 22200 10805 70027
BBXX 62105 08184 99554 70121 46/// /2327 10108 20095 40162 56013 22200 00105 10709 70043 333 90710 91136
BBXX 64045 08184 99591 70117 46/// /2129 10103 20094 40024 58024 22200 00099 10812 70060 333 90710 91143
BBXX 62103 08184 99499 70029 46/// /3115 10110 20099 40300 53003 22200 00114 10903 70013
BBXX 2AUO5 08183 99606 10016 41597 51718 10071 20017 40147 58012 70211 854// 22241 20402 316// 40804 80049
BBXX 62105 08184 99554 70121 46/// /2327 10109 20096 40162 56013 22200 00105 10709 70043 333 90710 91136
BBXX 64045 08184 99591 70117 46/// /2229 10103 20094 40024 58024 22200 00099 10812 70060 333 90710 91143
BBXX 63055 08184 99606 10016 47998 /1415 10064 20004 40139 57017 700// 22200 10805 70024
BBXX 63106 08184 99610 10017 46/// /1617 10060 40140 57015 22200
BBXX 63105 08184 99610 10017 47998 ///// 10067 21011 40139 57015 700// 22200
BBXX 62103 08184 99499 70029 46/99 /3219 10109 20096 40296 55001 22200 00115 10903 70013 333 90710 91126
AAXX 08184 48520 31956 40000 10215 20207 30138 40153 50012 71011 80005 333 59006
AAXX 08184 91723 NIL
AAXX 08184 91964 36/// /0310 10250 20230 40186 52004
BBXX 63106 08184 99610 10017 46/// /1617 10060 40140 57015 22200
BBXX 63113 08184 99610 10017 46/// /1517 10065 21011 40140 57014 22200 10805 70027
BBXX 62105 08184 99554 70121 46/// /2327 10108 20095 40162 56013 22200 00105 10709 70043 333 90710 91136
BBXX 64045 08184 99591 70117 46/// /2129 10103 20094 40024 58024 22200 00099 10812 70060 333 90710 91143
BBXX 62103 08184 99499 70029 46/// /3115 10110 20099 40300 53003 22200 00114 10903 70013
BBXX 2AUO5 08183 99606 10016 41597 51718 10071 20017 40147 58012 70211 854// 22241 20402 316// 40804 80049
AAXX 08184 89573 44958 80422 11003 21085 39771 49793 52018 73873 8802/
AAXX 08184 89573 44958 80422 11003 21085 39771 49793 52018 73873 8802/
BBXX 62105 08184 99554 70121 46/// /2327 10109 20096 40162 56013 22200 00105 10709 70043 333 90710 91136
BBXX 64045 08184 99591 70117 46/// /2229 10103 20094 40024 58024 22200 00099 10812 70060 333 90710 91143
BBXX 63055 08184 99606 10016 47998 /1415 10064 20004 40139 57017 700// 22200 10805 70024
BBXX 63106 08184 99610 10017 46/// /1617 10060 40140 57015 22200
BBXX 63105 08184 99610 10017 47998 ///// 10067 21011 40139 57015 700// 22200
BBXX 62103 08184 99499 70029 46/99 /3219 10109 20096 40296 55001 22200 00115 10903 70013 333 90710 91126
AAXX 08181 24688 41999 80000 11498 21522 39345 40457 53005 70422 80008
AAXX 08184 48583 31558 60000 10243 20228 30111 40117 57015 71022 82206 333 59017 70004
AAXX 08184 48581 31556 80000 10233 20225 30088 40130 57010 71022 82246 333 59014 70048
AAXX 08184 42559 31993 00000 10122 20100 40180 71000 333 58000
BBXX 63106 08184 99610 10017 46/// /1617 10060 40140 57015 22200
BBXX 63113 08184 99610 10017 46/// /1517 10065 21011 40140 57014 22200 10805 70027
BBXX 62105 08184 99554 70121 46/// /2327 10108 20095 40162 56013 22200 00105 10709 70043 333 90710 91136
BBXX 64045 08184 99591 70117 46/// /2129 10103 20094 40024 58024 22200 00099 10812 70060 333 90710 91143
BBXX 62103 08184 99499 70029 46/// /3115 10110 20099 40300 53003 22200 00114 10903 70013
BBXX 2AUO5 08183 99606 10016 41597 51718 10071 20017 40147 58012 70211 854// 22241 20402 316// 40804 80049
AAXX 08184 82807 21295 80000 10261 20242 3//// 4//// 70266 887// 333 5//// 60041
BBXX 62105 08184 99554 70121 46/// /2327 10109 20096 40162 56013 22200 00105 10709 70043 333 90710 91136
BBXX 64045 08184 99591 70117 46/// /2229 10103 20094 40024 58024 22200 00099 10812 70060 333 90710 91143
BBXX 63055 08184 99606 10016 47998 /1415 10064 20004 40139 57017 700// 22200 10805 70024
BBXX 63106 08184 99610 10017 46/// /1617 10060 40140 57015 22200
BBXX 63105 08184 99610 10017 47998 ///// 10067 21011 40139 57015 700// 22200
BBXX 62103 08184 99499 70029 46/99 /3219 10109 20096 40296 55001 22200 00115 10903 70013 333 90710 91126
AAXX 08184 48001 NIL
AAXX 08184 48004 NIL
AAXX 08184 48008 31510 70000 10170 20154 40166 71044 84970 333 56450 59032
AAXX 08184 48010 NIL
AAXX 08184 48018 32320 70000 10190 20159 40162 84870 333 56590 59005
AAXX 08184 48019 NIL
AAXX 08184 48020 NIL
AAXX 08184 48025 NIL
AAXX 08184 48035 NIL
AAXX 08184 48037 NIL
AAXX 08184 48042 32956 00000 10187 20159 40161 333 59017
AAXX 08184 48045 NIL
AAXX 08184 48048 NIL
AAXX 08184 48053 32940 03601 10200 20168 40179 333 59004
AAXX 08184 48057 NIL
AAXX 08184 48060 32410 40000 10156 20144 40199 81102 333 56506 58006
AAXX 08184 48062 31440 40000 10220 20210 40154 71021 83840 333 56990 59003
AAXX 08184 48071 31930 00000 10220 20190 40148 71000 333 59015
AAXX 08184 48077 NIL
AAXX 08184 48078 NIL
AAXX 08184 48080 32550 20000 10180 20154 40140 81870 333 56990 59010
AAXX 08184 48094 32950 00000 10200 20190 40162 333 59016
AAXX 08184 48097 32956 03201 10210 20195 40144 333 59011
AAXX 08184 48108 31596 40000 10240 20209 40145 70588 82705 333 56109 59030
AAXX 08184 48109 32595 10401 10230 20215 40136 80001 333 56009 59013
AAXX 08184 48110 NIL
AAXX 08184 48112 32596 60901 10242 20191 40120 82876 333 56299 59012
BBXX VRDT5 08183 99053 31173 41/97 83037 10270 2026/ 40110 54000 7//// 88356 222// 0//// 2//// 3//// 4//// 5//// 6//// 80260 ICE /////
BBXX VRDT5 08183 99053 31173 41/97 83037 10270 2026/ 40110 54000 7//// 88356 222// 0//// 2//// 3//// 4//// 5//// 6//// 80260 ICE /////
BBXX VRBK6 08184 99016 11044 41497 83525 10250 2022/ 40100 57010 76055 8874/ 22200 0//// 20606 33536 40504 50404 6//// 80230 ICE /////
BBXX VRBK6 08184 99016 11044 41497 83525 10250 2022/ 40100 57010 76055 8874/ 22200 0//// 20606 33536 40504 50404 6//// 80230 ICE /////
AAXX 08184 48350 31957 00000 10163 20149 39874 40185 56004 71000 333 59009
AAXX 08184 71310 16/// /2910 11014 21030 30103 40140 53018 60001 333 10006 21020 70005
AAXX 08184 48421 31950 20000 10200 20187 30065 40182 51003 71000 80005 333 58009
AAXX 08184 41264 36/70 /2507 10205 20098 39817 40188 333 0E022 10285 58007
AAXX 08184 67009 32582 51604 10250 20236 39993 40111 51013 85200 333 10312 85820
BBXX V2AJ8 08183 99198 11138 41497 80120 10190 20165 40197 57020 70222 8457
BBXX V2AJ8 08183 99198 11138 41497 80120 10190 20165 40197 57020 70222 8457
AAXX 08184 62455 32960 02010 10155 20037 40169 52019 333 10186
AAXX 08184 60686 12960 40000 10225 21042 40174 56006 60002 82032 333 10260 82360
AAXX 08184 68296 32/// /1404 1//// 2//// 38914 4//// 51001 333 1//// 2//// 91008 555
BBXX A8LK5 31201 08184 99351 10219 41498 63527 10180 20090 40160 54000 70200 86400 22234 00190 20805 33 5// 40805 5//// 80130
BBXX A8IZ2 31201 08184 99373 10181 41598 70125 10120 20060 40145 52035 70362 87/// 22274 80090
BBXX A8LK5 31201 08184 99351 10219 41498 63527 10180 20090 40160 54000 70200 86400 22234 00190 20805 335// 40805 5//// 80130
BBXX A8IZ2 31201 08124 99368 10206 41498 43130 10150 20120 40110 54000 70121 8412/ 22264 20806 329// 41 410 80130
BBXX A8LK5 31201 08124 99354 10200 41498 63227 10200 20120 40160 57010 70322 86493 22234 00190 20805 33 2// 40906 5//// 80150
BBXX ZCDQ4 31201 08123 99367 10173 41298 53123 10140 20090 40170 52040 70201 84034 22274 00165 20302 33 1// 40301 5//// 80110
BBXX ZCDQ4 31201 08123 99367 10173 41298 53123 10140 20090 40170 52040 70201 84034 22274 00165 20302 331// 40301 5//// 80110
BBXX A8IZ2 31201 08124 99368 10206 41498 43130 10150 20120 40110 54000 70121 8412/ 22264 20806 329// 41410 80130
BBXX A8LK5 31201 08124 99354 10200 41498 63227 10200 20120 40160 57010 70322 86493 22234 00190 20805 332// 40906 5//// 80150
BBXX VRHF5 08184 99036 71056 41197 83625 10250 20222 40090 52010 7//22 857// 22213 0//// 2//// 3//// 4//// 5//// 6//// 80230 ICE /////
BBXX VRHF5 08184 99036 71056 41197 83625 10250 20222 40090 52010 7//22 857// 22213 0//// 2//// 3//// 4//// 5//// 6//// 80230 ICE /////
AAXX 08184 60518 12965 20000 10127 20094 40233 55000 60002 80002 222// 20000 333 10159 82073 91807 95900
AAXX 08184 60265 32970 40301 10140 21092 38942 48566 56004 83082 333 10175 83360
AAXX 08184 60060 32960 20408 10203 21020 40210 57004 82030 333 10205 82360 95300
BBXX V2AJ8 08183 99198 11138 41497 80120 10190 20165 40197 57020 70222 84576 22244 20404 3//// 4//// 5//// 80175
BBXX 63106 08184 99610 10017 46/// /1617 10060 40140 57015 22200
BBXX 63113 08184 99610 10017 46/// /1517 10065 21011 40140 57014 22200 10805 70027
BBXX 62105 08184 99554 70121 46/// /2327 10108 20095 40162 56013 22200 00105 10709 70043 333 90710 91136
BBXX 64045 08184 99591 70117 46/// /2129 10103 20094 40024 58024 22200 00099 10812 70060 333 90710 91143
BBXX 62103 08184 99499 70029 46/// /3115 10110 20099 40300 53003 22200 00114 10903 70013
BBXX 2AUO5 08183 99606 10016 41597 51718 10071 20017 40147 58012 70211 854// 22241 20402 316// 40804 80049
BBXX UGNQ 08181 99714 10245 41195 83511 10005 40053 52015 76872 8772/ 22261 20605
BBXX UGNQ 08181 99714 10245 41195 83511 10005 40053 52015 76872 8772/ 22261 20605
AAXX 08181 10499 01365 82804 10037 20026 39854 40148 51017 60022 76076 875// 333 10044 20024 32002 55300 20000 30000 69907 84708 87613
AAXX 08181 10184 01568 73203 10049 20042 30138 40146 52030 69952 72586 878// 333 10059 20048 31004 55300 20000 30000 69907 84827 87646
AAXX 08184 88889 12989 71505 10169 20097 39953 40035 58020 60001 85032 91750 333 85358 87075
AAXX 08184 71571 16/// /2314 10027 21012 38876 40058 51010 60001 333 10037 21032 70000
AAXX 08184 71240 16/// ///// 10025 21066 39272 40123 53010 60001 333 10028 21063 70000
AAXX 08184 71780 16/// /2907 10065 20054 30238 40266 53006 60001 333 10065 20041 70004
AAXX 08184 71395 12574 43109 10028 21018 39966 40145 53006 60001 84500 333 10038 20010 79999
AAXX 08184 71115 16/// /0801 11001 21012 39686 40280 51007 60001 333 10000 21026 70038
AAXX 08181 26424 11496 81403 10003 20001 40098 52012 60022 71072 885// 333 10008 88613
AAXX 08181 08568 32/// /1502 10083 2//// 38713 48583 54000 333 10148 555 60005
AAXX 08181 10836 01386 82809 10003 20003 39351 40244 53015 60062 70297 886// 333 10010 21002 3/000 42004 55300 20000 30000 69907 88707 91116 96495 96471 96469 96451 96441
AAXX 08184 71356 16/// /3618 11261 21291 39873 49941 51005 60001 333 11239 21351 70000
