BBXX ZMENA 20174 99388 31781 46/// ///// 10153 20110 40274 222//
AAXX 20184 40270 31950 20000 10118 20014 39290 40196 52005 70500 80002 333 10184 82070
BBXX 44172 20181 99445 70634 46/// ///// 1//// 91731 22200 00064 10903 20903 312// 41101 70015
BBXX 44097 20181 99410 70711 46/// ///// 1//// 91732 22200 00121 10904 20904 316// 41302 70020
AAXX 20184 40296 32960 00000 10178 20078 40163 52007 333 10265
AAXX 20184 40340 32960 03606 10190 20033 40156 52017 333 10276
AAXX 20184 40255 32960 00000 10146 20017 39475 40187 52009 333 10210
BBXX 42363 20181 99282 70892 46/// /1806 10239 20189 40173 91745 333 91208
BBXX 42364 20181 99291 70881 46/// /1509 10228 20200 40180 91745
BBXX WFLG 20183 99274 71426 41398 80920 10189 20154 40254 52006 70222 8883/ 22254 00183 20504 399// 4//// 5//// 6//// 80167 ICE /////
BBXX C6DM2 20183 99065 10990 416// 40419 10270 20228 40100 51010 7//00 84//8 22233 0//// 2//// 3//// 4//// 5//// 6//// 80240 ICE /////
BBXX VRWV4 20183 99013 10058 41498 72109 10280 2024/ 40120 54/// 70322 877// 22213 00300 20200 3//// 4//// 5//// 6//// 80250 ICE /////
AAXX 20184 08495 12982 12407 10153 20060 30272 40280 53003 60002 80001 91750 333 10170 81075
AAXX 20184 89664 32961 02805 11031 21107 39722 49763 56002
AAXX 20184 89664 32961 02805 11031 21107 39722 49763 56002
AAXX 20184 89664 32961 02805 11031 21107 39722 49763 56002
AAXX 20184 91413 11469 70808 10266 20248 30036 40061 56025 60031 70182 83271 333 56299 70089 555 92018
AAXX 20184 91413 11469 70808 10266 20248 30036 40061 56025 60031 70182 83271 333 56299 70089 555 92018
AAXX 20184 91334 32474 70610 10275 20236 30058 40061 56012 82171 333 56199 70130 555 92018
AAXX 20184 91334 32474 70610 10275 20236 30058 40061 56012 82171 333 56199 70130 555 92018
AAXX 20184 78954 12484 70717 10284 20228 30066 40130 85208 333 10295 20244 58001 85818 87080
AAXX 20184 78954 12484 70717 10284 20228 30066 40130 85208 333 10295 20244 58001 85818 87080
BBXX 46249 20181 99338 71197 46/// ///// 1//// 91742 22200 00147 11303 21002 327// 41302 70013
BBXX 46248 20181 99461 71247 46/// ///// 1//// 91734 22200 00096 11506 20903 329// 41506 70032
BBXX 46244 20181 99409 71244 46/// ///// 1//// 91735 22200 00097 11407 20905 329// 41404 70034
BBXX 46240 20181 99366 71219 46/// ///// 1//// 91742 22200 00122 11103 20901 335// 41103 70015
BBXX 46237 20181 99378 71226 46/// ///// 1//// 91740 22200 00112 11504 21002 325// 41504 70021
BBXX 46212 20181 99408 71243 46/// ///// 1//// 91742 22200 00096 11407 20805 329// 41404 70033
BBXX 46217 20181 99342 71194 46/// ///// 1//// 91742 22200 00149 11302 20901 327// 41302 70012
BBXX BAREU61 20184 99040 70073 46/// /2414 10280 29074 40102 52009 22224
AAXX 20184 08589 32470 30512 10245 20183 40138 83500 333 10268 58003 83616
AAXX 20184 08594 32465 30713 10242 20168 40140 83200 333 10253 58003 83614
AAXX 20184 08583 32562 30615 10250 20153 40150 83500 333 10267 58001 83622
BBXX BAREU56 20184 99347 10131 46/// ///// 40212 52005 22242
BBXX 46218 20181 99345 71208 46/// ///// 1//// 91732 22200 00140 11206 21004 331// 41205 70030
BBXX 46211 20181 99469 71242 46/// ///// 1//// 91736 22200 00085 11506 20803 327// 41506 70032
BBXX 44098 20181 99428 70702 46/// ///// 1//// 91737 22200 00088 10503 20503 312// 41301 70014
BBXX 41115 20181 99184 70673 46/// ///// 1//// 91735 22200 10905 20904 336// 41303 70026
BBXX 41114 20181 99276 70802 46/// ///// 1//// 91746 22200 00237 11103 20603 306// 41101 70015
BBXX 41012 20181 99300 70805 46/// /2702 10211 40231 58013 91750 22200 00233 11002 20301 307// 41002 70010 333 91204 555 11025 22025 31655 42604 61749 269023 275024 283028 280028 266027 261030
BBXX 51203 20181 99208 71570 46/// ///// 1//// 91743 22200 00248 11302 21001 327// 41301 70008
BBXX 52200 20181 99134 11448 46/// ///// 1//// 91745 22200 00287 10905 20904 309// 41102 70023
BBXX 51201 20181 99217 71581 46/// ///// 1//// 91742 22200 00241 11304 21003 332// 41302 70019
BBXX 51205 20181 99210 71564 46/// ///// 1//// 91748 22200 00241 10905 20905 334// 41302 70026
BBXX 46114 20181 99364 71222 46/// ///// 1//// 91734 22200 00123 11306 21004 330// 41305 70032
BBXX 46060 20181 99606 71468 46/// /2007 10045 40115 51027 91750 22200 00057 11002 20401 317// 41001 70008 333 91208 555 11071 22074 31653 42011 61749 195067 205065 202072 211079 214085 211091 82110 91653
BBXX 44060 20181 99413 70721 46/// ///05 10053 40208 91745 22200 00101 333 91207 555 11051 22057
BBXX 46088 20181 99483 71232 46/// /2707 10084 40255 52003 91750 22200 00079 1//00 70002 333 91209 555 11077 22083 31747 42609 61749 264070 261073 259064 258068 253059 223047
AAXX 20184 68906 32698 62413 10118 20061 30079 40144 57003 86500 222// 00122 318// 40501 333 10140 20118 91020 555 91014
BBXX VRCI9 20184 99400 71775 41/98 /1030 10100 20081 49950 57040 76362 8//// 22225 00127 2//// 3//// 4//// 80090
BBXX VRCI9 20184 99400 71775 41/98 /1030 10100 20081 49950 57040 76362 8//// 22225 00127 2//// 3//// 4//// 80090
BBXX BAREU63 20184 99368 10204 46/// /1307 10126 29049 40150 52015 22262
BBXX TESTFR9 20184 99499 70041 46/// /2829 10108 29079 40234 57003 22284
AAXX 20184 61902 32584 31413 10254 20180 40134 333 10280 58006 82823
AAXX 20184 68994 32498 83313 10099 20089 30070 40099 52003 886// 222// 00074 333 10130 20090 91023 555 91009
AAXX 20184 68382 36/// /0607 10217 20118 39356 48540 53011 333 10286 20217 91013 555 91017
AAXX 20184 40272 32960 00706 10114 21019 39362 40206 52020 333 10188
AAXX 20184 91643 11599 60809 10277 20243 40075 54004 60001 70200 81107 333 562/9 81820 85180
AAXX 20184 ---785318740-241953238-1324403870=:78188 html code found in mail The rest of this message has been deleted
AAXX 20184 91408 32474 70504 10267 20243 30017 40055 57019 81101 333 562/9 70003 555 92018
AAXX 20184 91408 32474 70504 10267 20243 30017 40055 57019 81101 333 562/9 70003 555 92018
AAXX 20184 16597 12665 73006 10100 20044 30104 40193 52006 69962 85802 333 10131 81839 85656 86075
BBXX BAREU08 20184 99503 70000 46/// ///// 40202 52001 22224
BBXX BAREU05 20184 99482 70695 46/// ///// 40175 52013 22253
AAXX 20181 13586 12660 80304 10016 20001 39829 40126 52013 60022 885// 333 10046 88633
AAXX 20184 61901 169// /1312 10168 20153 39662 40170 55003 69902 91750 333 10197 8//99 555 7/090
BBXX WDD2876 20184 99469 70913 41/98 21921 11016 2//// 40119 5//// 70200 8//// 22213 00050 2//02 3//// 4//// 5//// 6//// 8//// ICE /////
BBXX C6XC2 20184 99024 31327 41498 71112 10260 20246 40040 57010 70222 8624/ 22200 00300 2//// 3//// 4//// 5//// 6//// 80250 ICE /////
BBXX PCHM 20184 99356 31539 41298 82125 10190 20174 40127 58002 70322 887// 22234 00200 20203 319// 40203 80180
BBXX PINX 20184 99181 70745 41697 20814 10290 2//// 40140 56020 70200 81/88 22234 00270 20302 309// 40704 5//// 6//// 8//// ICE /////
BBXX WDC6698 20184 99097 71432 43/// /0712 1//// 2//// 40110 5//// 7//// 8//// 222// 04254 2//// 3//// 4//// 5//// 6//// 8//// ICE /////
BBXX 41060 20181 99148 70510 46/// ///// 1//// 91750 22200 11004 70018
BBXX 41001 20181 99347 70727 46/// ///// 10205 20115 40223 58017 91750 22200 00222 10805 70026
BBXX 41049 20181 99275 70630 46/// /3505 10200 20118 40245 56015 91750 22200 00235 11310 20502 300// 41310 70048 333 91207 555 11056 22058 31704 43609 61749 348054 351057 008053 014055 010066 012063 83608 91704
BBXX 42020 20181 99270 70967 46/// /3106 10210 20189 40129 51006 91750 22200 00235 10803 20502 314// 40803 70017 333 91207 555 11066 22069 31735 43107 61749 309062 306061 306060 301060 300057 298054
BBXX 41044 20181 99217 70587 46/// /0410 10241 20172 40188 58018 91750 22200 00264 11306 20704 300// 41305 70031 333 91212 555 11108 22114 31746 40512 61749 045101 045093 041092 042088 040093 045089 80511 91746
BBXX 41048 20181 99320 70696 46/// /2505 10187 20087 40255 57023 91750 22200 00228 11406 20401 3//// 41406 70030 333 91207 555 11053 22055 31723 42508 61749 251053 256050 257052 254053 247044 247050 82606 91736
BBXX 42065 20181 99149 70750 46/// /0711 10271 20219 91750 22200 10906 20805 3//// 40903 70029 333 91213 555 11112 22120 31749 40813 61749 075105 079105 082103 079098 078105 079107 80812 91701
BBXX 42012 20181 99301 70876 46/// /3105 10193 20188 40170 58022 91750 22200 00207 10703 20401 316// 40703 70017 333 91207 555 11047 22049 31653 42707 61749 313043 006038 347036 337040 302049 291052
BBXX 42001 20181 99259 70897 46/// /1608 10250 20210 40167 58011 91750 22200 00259 10803 20602 3//// 40802 70016 333 91210 555 11087 22092 31704 41510 61749 157081 158080 157079 157072 155081 155083
BBXX 42035 20181 99292 70944 46/// /3608 10139 20123 40141 51011 91750 22200 00160 10802 20502 318// 40802 70012 333 91210 555 11088 22092 31714 43611 61749 004084 005080 023079 006087 358079 005083
BBXX 42060 20181 99163 70635 46/// /0509 10267 20190 40158 58024 91750 22200 00277 10604 20603 300// 41001 70018 333 91211 555 11097 22102 31724 40411 61749 048091 043092 043096 040093 038093 041088 80410 91712
BBXX 42058 20181 99149 70749 46/// /0913 10273 20201 40119 58024 91750 22200 00277 10906 20906 70031 333 91214 555 11136 22145 31651 40915 61749 085126 080124 081124 085120 085120 085116 80913 91748
BBXX 42036 20181 99285 70845 46/// /1508 10216 20191 40194 58009 91750 22200 00215 10703 20703 70016 333 91210 555 11089 22095 31710 41411 61749 148083 147084 144087 144088 140082 145084
BBXX 42056 20181 99198 70849 46/// /1110 10270 20232 40146 58017 91750 22200 00272 10805 20805 70023 333 91212 555 11103 22109 31723 41112 61749 108097 109098 110098 109094 107099 108099 81110 91709
BBXX 42059 20181 99151 70675 46/// /0710 10273 20180 40144 58025 91750 22200 00278 10704 20704 3//// 41101 70022 333 91211 555 11101 22108 31741 40712 61749 070095 073092 072091 071091 072091 069091 80710 91744
BBXX 42019 20181 99279 70954 46/// /0112 10179 20163 40116 58004 91750 22200 10805 20504 316// 40803 70024 333 91215 555 11128 22136 31743 40215 61749 000115 284088 279049 281075 282077 277066
BBXX 44005 20181 99432 70691 46/// /3212 11001 21110 40191 53014 91750 22200 00085 10605 20605 3//// 41201 70027 333 91215 555 11126 22132 31709 43416 61749 322119 327121 328123 325128 326133 330136
BBXX 42040 20181 99292 70882 46/// /1608 10228 40163 58010 91750 22200 00227 10804 20703 313// 40803 70022 333 91210 555 11080 22086 31702 41511 61749 156080 154084 155082 153085 155088 153081
BBXX 42003 20181 99260 70856 46/// /1408 1//// 91750 22200 10805 20503 312// 40803 70023 333 91213 555 11085 22090 31700 41413 61749 142074 129080 129087 125097 134110 129098 81412 91700
BBXX S6JU 20184 99466 11775 41898 32916 10045 21020 40145 55801 70100 82//2 22224 04050 2//// 3//// 4//// 5//// 6//// 80045
BBXX DCCP2 20180 99140 11122 41/98 /0510 10245 20238 40105 57010 70011 8//// 22254 00250 2//// 3//// 4//// 5//// 80240
BBXX 4XFX 20184 99519 11598 41/97 60120 00/// 11046 21/// 40010 54000 77270 83/// 22254 04/// 2//// 3//// 4//// 5//// 6//// 81/// ICE /////
BBXX WCX8882 20184 99281 11265 41398 70710 10200 2012/ 40220 57010 75052 872// 22275 00240 2//// 3//// 4//// 5//// 6//// 80150 ICE /////
BBXX 4XIS 20183 99369 11739 43/98 73118 10130 2007/ 40160 51025 22224 80100
BBXX BAREU61 20184 99040 70073 46/// /2414 10280 29074 40102 52009 22224
BBXX ELZA8 20183 99084 50346 41598 30811 10265 20215 40130 58015 70200 8/100 22284 04280 20502 306// 40903 80230
BBXX A8PF5 20184 99107 30100 41398 42524 10245 20182 40110 54000 70211 8387/ 22244 20402 325// 40602 5//// 80205
BBXX ONCE 20184 99263 30691 41497 21423 10210 2015/ 40200 5//// 70200 821// 22214 00236 2//// 3//// 4//// 5//// 6//// 80170 ICE /////
BBXX BAREU05 20184 99482 70695 46/// ///// 40175 52013 22253
BBXX 9V8739 20184 99354 71797 41/96 82840 10190 20159 40090 54000 78122 889// 22264 00200 2//// 329// 41207 5//// 6//// 80170 ICE /////
BBXX HZRX 20183 99249 70803 41797 71718 /// 10250 20210 40208 55007 70322 87150 22253 10240 20303 31717 40202 5//// 6//// 80190 ///// /////
BBXX PGQI 20183 99311 70738 41597 51110 10201 20136 40265 58013 70111 83140 22284 20401 304// 41003 80161
BBXX 3FSB4 20184 99255 71155 435// 82604 10180 2015/ 40170 52010 7//// 886// 22234 0//// 20601 3//// 40501 5//// 6//// 80160 ICE /////
BBXX 9VAW8 20184 99224 70868 41798 61419 10300 20260 40170 52010 70322 86283 22273 04206 20503 31414 40503 50503 6//// 80270 ICE /////
BBXX DGHX 20183 99330 71636 41/97 /1220 10160 20108 40130 58024 75855 8//// 22264 00190 2//// 80130
BBXX WSLH 20184 99303 71500 41398 60909 10190 2016/ 40252 52022 71561 867// 22215 00190 21001 313// 41507 5//// 6//// 80170 ICE /////
BBXX PINX 20184 99181 70745 41697 20814 10290 2//// 40140 56020 70200 81/88 22234 00270 20302 309// 40704 5//// 6//// 8//// ICE /////
BBXX 51205 20181 99210 71564 46/// ///// 1//// 91748 22200 00241 10905 20905 334// 41302 70026
BBXX 46060 20181 99606 71468 46/// /2007 10045 40115 51027 91750 22200 00057 11002 20401 317// 41001 70008 333 91208 555 11071 22074 31653 42011 61749 195067 205065 202072 211079 214085 211091 82110 91653
BBXX 46088 20181 99483 71232 46/// /2707 10084 40255 52003 91750 22200 00079 1//00 70002 333 91209 555 11077 22083 31747 42609 61749 264070 261073 259064 258068 253059 223047
BBXX 46114 20181 99364 71222 46/// ///// 1//// 91734 22200 00123 11306 21004 330// 41305 70032
BBXX 44060 20181 99413 70721 46/// ///05 10053 40208 91745 22200 00101 333 91207 555 11051 22057
BBXX 41114 20181 99276 70802 46/// ///// 1//// 91746 22200 00237 11103 20603 306// 41101 70015
BBXX 41115 20181 99184 70673 46/// ///// 1//// 91735 22200 10905 20904 336// 41303 70026
BBXX 41012 20181 99300 70805 46/// /2702 10211 40231 58013 91750 22200 00233 11002 20301 307// 41002 70010 333 91204 555 11025 22025 31655 42604 61749 269023 275024 283028 280028 266027 261030
BBXX 44098 20181 99428 70702 46/// ///// 1//// 91737 22200 00088 10503 20503 312// 41301 70014
BBXX 46211 20181 99469 71242 46/// ///// 1//// 91736 22200 00085 11506 20803 327// 41506 70032
BBXX 46218 20181 99345 71208 46/// ///// 1//// 91732 22200 00140 11206 21004 331// 41205 70030
BBXX 46217 20181 99342 71194 46/// ///// 1//// 91742 22200 00149 11302 20901 327// 41302 70012
BBXX 46237 20181 99378 71226 46/// ///// 1//// 91740 22200 00112 11504 21002 325// 41504 70021
BBXX 46212 20181 99408 71243 46/// ///// 1//// 91742 22200 00096 11407 20805 329// 41404 70033
BBXX 46240 20181 99366 71219 46/// ///// 1//// 91742 22200 00122 11103 20901 335// 41103 70015
BBXX 46244 20181 99409 71244 46/// ///// 1//// 91735 22200 00097 11407 20905 329// 41404 70034
BBXX 46249 20181 99338 71197 46/// ///// 1//// 91742 22200 00147 11303 21002 327// 41302 70013
BBXX 46248 20181 99461 71247 46/// ///// 1//// 91734 22200 00096 11506 20903 329// 41506 70032
BBXX WDE9586 20183 99418 71431 43698 61818 10140 2011/ 40300 54000 7//// 86/56 22214 00130 20702 326// 41205 5//// 6//// 80120 ICE /////
BBXX WCX8884 20184 99514 71514 41091 61737 10060 2004/ 40190 55015 70211 86/// 22275 00051 20506 3//// 40506 5//// 6//// 80050 ICE /////
BBXX KGTY 20184 99507 71334 43898 62516 10072 2005/ 40200 5//// 7//// 842// 22234 00067 21005 32722 41206 51009 6//// 80061 ICE /////
BBXX WDC6736 20184 99328 70631 41698 63119 10190 2012/ 40228 58024 70122 85268 22264 00240 20404 327// 40806 5//// 6//// 80150 ICE /////
BBXX A8SE8 20184 99237 50742 41698 61609 10205 20132 40145 56005 7//22 8//7/ 22244 00213 20301 321// 40905 80160
BBXX DMDZ 20183 99221 70532 41298 80314 10235 20183 40195 54000 70266 845// 22263 00260 2//// 333// 40706 5//// 80200
BBXX 42363 20181 99282 70892 46/// /1806 10239 20189 40173 91745 333 91208
BBXX 42364 20181 99291 70881 46/// /1509 10228 20200 40180 91745
BBXX DFZB2 20184 99168 71148 41398 80216 10235 20178 40160 54000 70222 8677/ 22264 04250 20403 334// 41207 5//// 80197
BBXX DDAC2 20180 99152 70985 41/98 30101 10270 20243 40110 54000 7//// 82470 22273 04290 2//// 330// 40404 5//// 80250
BBXX PCHM 20184 99356 31539 41298 82125 10190 20174 40127 58002 70322 887// 22234 00200 20203 319// 40203 80180
BBXX C6XC2 20184 99024 31327 41498 71112 10260 20246 40040 57010 70222 8624/ 22200 00300 2//// 3//// 4//// 5//// 6//// 80250 ICE /////
BBXX 42055 20181 99222 70940 46/// /1307 10257 20214 40120 58010 91750 22200 00253 10603 20603 70016 333 91208 555 11075 22081 31650 41309 61749 129069 129064 132064 131063 134064 136071 81308 91750
BBXX 42002 20181 99258 70937 46/// /1706 10250 20228 40139 58009 91750 22200 00240 10704 20402 313// 40703 70019 333 91207 555 11060 22064 31716 41709 61749 171061 169068 167067 169071 166074 162067
BBXX 44022 20181 99409 70737 46/// ///02 10065 21009 40214 91745 22200 00079 333 91203 555 11021 22021
BBXX 44025 20181 99402 70732 46/// /3504 10077 20021 40208 54000 91750 22200 00110 11303 20401 310// 41303 70014 333 91205 555 11039 22040 31655 43506 61749 346037 336037 338042 344041 352037 349045
BBXX 41008 20181 99314 70809 46/// /0702 10189 20164 40234 58013 91750 22200 00174 11002 20401 300// 41002 70009 333 91202 555 11019 22023 31749 40602 61749 068016 055011 032008 047009 026013 047015
BBXX 41004 20181 99325 70791 46/// /0000 10200 20132 40240 58017 91750 22200 00208 11102 20401 3//// 41102 70010 333 91201 555 11003 22003 31651 43002 61749 010004 034009 018011 357011 335008 320011
BBXX 44009 20181 99385 70747 46/// /2802 10105 40227 58006 91750 22200 00111 11302 20401 300// 41302 70011 333 91203 555 11023 22023 31710 42703 61749 284022 287020 279021 273023 270025 273023
BBXX 44014 20181 99366 70748 46/// /2904 1//// 40217 58012 91750 22200 00146 11303 20401 307// 41303 70017 333 91205 555 11040 22040 31725 42806 61749 287040 288044 290047 288045 283045 289045
BBXX 44027 20181 99443 70673 46/// /3110 11028 21101 40170 51027 91750 22200 00083 10804 20704 3//// 40802 70022 333 91213 555 11105 22109 31713 43016 61749 309101 305113 305114 308127 305108 309111
BBXX 44065 20181 99404 70737 46/// /3604 10072 21005 40213 50000 91750 22200 00091 11302 20301 311// 41302 70011 333 91205 555 11036 22037 31722 40106 61749 355035 356032 356044 342038 343039 350043 80105 91721
BBXX 41013 20181 99334 70777 46/// /1601 10195 20133 40236 58018 91750 22200 00195 11302 20401 310// 41301 70008 333 91201 555 11007 22008 31656 42302 61749 160007 168006 165006 199005 230011 230012
BBXX 32012 20181 99197 50856 46/// ///// 1//// 91750 22200 11505 70027
BBXX 46002 20181 99426 71305 46/// ///// 10113 40321 52005 91750 22200 00118 11407 70036
BBXX 46006 20181 99408 71375 46/// /0502 10118 40345 52007 91750 22200 00125 11407 3//// 41407 70033 333 91203 555 11018 22018 31650 43303 61749 049017 042017 028020 016020 008022 003022
BBXX 46084 20181 99566 71361 46/// /2810 10058 20000 40204 51038 91750 22200 00069 11308 20806 300// 41306 70042 333 91211 555 11101 22107 31708 42712 61749 278095 273098 271100 272097 273098 272097
BBXX 46075 20181 99539 71608 46/// /2619 10036 20014 49929 53055 91750 22200 00048 11417 20808 300// 41415 70086 333 91224 555 11201 22215 31726 42524 61749 263186 258186 259182 256174 252170 239174 82620 91746
BBXX 46005 20181 99461 71310 46/// ///06 10094 40322 53012 91750 22200 00100 11508 20501 3//// 41508 70039 333 91207 555 11062 22066
BBXX 46059 20181 99380 71300 46/// /0112 10137 40277 52007 91750 22200 00145 11408 20604 3//// 41407 70039 333 91214 555 11127 22135 31729 40115 61749 009119 009123 010121 008119 010120 008111
BBXX 46080 20181 99580 71500 46/// /1814 10032 20020 40084 56022 91750 22200 00051 11107 20705 3//// 41105 70034 333 91218 555 11147 22156 31734 41819 61749 175139 176148 176133 176141 179137 178134 81816 91734
BBXX 46105 20181 99590 71522 46/// ///// 1//// 91750 22200 10303 70015
BBXX 46070 20181 99551 11753 46/// /3506 11010 21079 49954 52008 91750 22200 00039 10906 20502 3//// 40906 70029 333 91207 555 11057 22059 31707 43508 61749 344056 323060 339059 323047 341058 342055 83407 91707
BBXX 46014 20181 99394 71240 46/// /1406 10101 40195 53011 91750 22200 00106 11206 20501 3//// 41206 70030 333 91207 555 11062 22066 31725 41208 61749 135057 136056 129063 122046 114033 099046
BBXX 46011 20181 99350 71210 46/// /0702 10123 40192 53011 91750 22200 00138 11305 20401 330// 41305 70026 333 91203 555 11015 22016 31652 40904 61749 070015 069014 075013 080019 089019 087024
BBXX 46047 20181 99324 71195 46/// /0103 10135 40180 51008 91750 22200 00137 11205 20401 330// 41205 70026 333 91204 555 11033 22034 31717 40104 61749 012031 015030 017031 010031 010028 015028
BBXX 46088 20181 99483 71232 46/// /2707 10084 40255 91750 22200 00079 1//00 70002 333 91209 555 11077 22083 31747 42609 61749 264070 261073 259064 258068 253059 223047
BBXX 46027 20181 99419 71244 46/// /3510 10101 40232 55000 91750 22200 00091 11306 20804 328// 41304 70029 333 91212 555 11111 22120 31730 43514 61749 348103 352109 358108 350106 357090 355095
BBXX 46086 20181 99325 71180 46/// /0105 10142 40169 51009 91750 22200 00149 11503 20401 329// 41503 70016 333 91205 555 11047 22049 31713 40107 61749 006046 359044 006050 006053 010055 011053
BBXX 46050 20181 99442 71246 46/// /1702 10079 40285 54000 91750 22200 00098 11305 329// 41305 70027 333 91203 555 11022 22022 31723 41603 61749 171021 174023 178023 184021 177021 181017
BBXX 46069 20181 99337 71202 46/// /0000 10142 40185 53009 91750 22200 00141 11405 20301 329// 41405 70023 333 91201 555 11005 22006 31650 43404 61749 027006 029014 019016 023020 009027 358031
BBXX 46013 20181 99382 71233 46/// /1604 10097 40195 51014 91750 22200 00111 11305 20401 3//// 41305 70025 333 91206 555 11037 22039 31652 41706 61749 161038 154041 160037 158043 162049 172049
BBXX 46012 20181 99374 71229 46/// /0202 10099 40197 51012 91750 22200 00123 11506 20401 330// 41506 70032 333 91203 555 11021 22021 31734 40704 61749 027021 056029 056024 055017 073016 083008
BBXX 46087 20181 99485 71247 46/// /3006 10089 20078 40266 52008 91750 22200 00077 11107 20401 328// 41107 70037 333 91207 555 11063 22070 31702 43009 61749 303057 302056 300048 306057 301071 296066
BBXX 46029 20181 99461 71245 46/// /3304 10092 20090 40277 53005 91750 22200 00089 11506 20401 328// 41506 70030 333 91206 555 11044 22049 31650 43407 61749 325042 330046 339050 344052 347054 348059
BBXX 46054 20181 99342 71204 46/// /3303 10134 40185 53010 91750 22200 00137 11105 20401 300// 41105 70027 333 91204 555 11031 22033 31726 43205 61749 326030 327031 323030 318029 316032 318033
BBXX 46028 20181 99357 71219 46/// /2801 10122 40187 53012 91750 22200 00127 11107 20301 332// 41107 70033 333 91202 555 11010 22011 31655 43202 61749 278010 258007 319005 345005 336007 340010
BBXX 46025 20181 99337 71191 46/// /3407 10138 20097 40172 52008 91750 22200 00153 11402 20401 330// 41402 70009 333 91208 555 11069 22072 31719 43408 61749 337065 336065 334063 333064 335060 332061
AAXX 20181 76122 32970 61403 10068 21006 38517 40198 52001 84052 91750 333 10074 21032 30/// 56099 58006 84358
AAXX 20181 76225 32760 70901 10088 21026 38618 40177 50003 87020 91745 333 10088 20008 30/// 56050 58022 87450
AAXX 20181 76256 32980 40000 10163 20072 30150 40164 52006 80008 91745 333 10171 20081 30/// 56//5 59065 84270
AAXX 20181 76305 32670 30601 10190 20078 30150 40158 52005 82430 91740 333 10196 20100 30/// 56440 59040 82650
AAXX 20181 76323 32970 10502 10108 21017 38248 40225 58006 80008 91755 333 10116 20011 30/// 58014
AAXX 20181 76342 32962 00603 10142 20035 39495 40216 52006 91750 333 10144 20090 30/// 58059
AAXX 20181 76390 31956 02307 10190 21042 38205 40119 57003 70544 91737 333 10200 20065 30/// 58013
AAXX 20181 76402 31560 70202 10168 20096 30106 40164 52008 70544 87700 91745 333 10168 20056 30/// 56500 59040 87633
AAXX 20181 76458 32970 12402 10206 20153 30144 40148 52003 80001 91737 333 10232 20098 30/// 56//6 59010 81072
AAXX 20181 76491 32960 03603 10245 20145 39764 40156 57008 91750 333 10257 20147 30/// 58025
AAXX 20181 76525 32680 12112 10104 20019 37456 40142 52006 81100 91740 333 10105 20060 30/// 565// 58001 81835
AAXX 20181 76539 32970 02405 10197 20061 38148 40146 54000 91750 333 10250 30031 30/// 58004
AAXX 20181 76548 31472 62702 10256 20207 30124 40134 58001 70244 86400 91740 333 10262 20194 30/// 56300 59028 86618
AAXX 20181 76556 32970 00000 10232 20150 39111 40146 51005 91735 333 10240 20105 30/// 59010
AAXX 20181 76571 32680 11803 10200 20034 38159 40175 56005 81100 91750 333 10204 20050 30/// 56500 59001 81850
AAXX 20181 76577 32570 12306 10177 20131 38041 40159 50006 81400 91740 333 10187 20074 30/// 56500 59005 81628
AAXX 20181 76581 32975 03501 10250 20143 39016 40126 57017 91750 333 10256 20078 30/// 59015
AAXX 20181 76585 32980 02701 10230 20199 39965 40123 58005 91735 333 10240 20124 30/// 59025
AAXX 20181 76654 31430 11403 10301 20207 30140 40144 57005 70544 81200 91751 333 10301 20222 30/// 56900 59009 81820
AAXX 20181 76662 31670 12302 10220 20110 38462 40161 57005 70542 81100 91735 333 10235 20052 30/// 56/00 59005 81833
AAXX 20181 76681 31950 00501 10190 20078 37774 40168 57018 70500 91745 333 10190 20032 30/// 50310 55080 59009 70000
AAXX 20181 76683 31668 10901 10194 20091 37820 40193 56012 70544 81100 91745 333 10200 20040 30/// 56200 58002 81840 9401094182
AAXX 20181 76685 32970 12101 10190 20024 37860 40153 57004 81100 91750 333 10192 20052 30/// 56900 59007 81827
AAXX 20181 76687 31570 10701 10266 20030 38655 40134 58002 70100 81100 91738 333 10270 20115 30/// 563// 59029 81830
AAXX 20181 76692 31456 10702 10260 20200 30095 40114 58008 70544 81200 91745 333 10277 20179 30/// 564// 59050 81817
AAXX 20181 76737 31480 12902 10279 20124 38745 40110 58004 70300 81100 91735 333 10282 20121 30/// 56200 59029 81813 91111 91529
AAXX 20181 76743 31/58 01301 10280 20253 30102 40110 57014 70211 80000 1745 333 10290 20200 30/// 56000 59047
AAXX 20181 76750 32560 20903 10294 20231 30128 40138 57009 82100 91750 333 10301 20206 30/// 56200 59032 82820
AAXX 20181 76762 31504 13201 10272 20218 38753 40127 57009 81200 91742 333 10274 20158 30/// 56200 59007 81830
AAXX 20181 76775 31970 21801 10248 20092 38513 40154 57013 70100 82100 91740 333 10270 20084 30/// 56802 59017 81824
AAXX 20181 76833 32970 01403 10294 20236 30113 40115 57012 91745 333 10294 30/// 58/// 59001
AAXX 20181 76840 32450 42303 10323 20219 30060 40115 57016 84200 91740 333 10355 30/// 569// 59011 84827
AAXX 20181 76843 32665 10801 10268 20153 39474 40119 57018 81100 91740 333 10284 20160 30/// 561// 59031 81822
AAXX 20181 76903 31680 33001 10315 20212 39988 40118 57015 70111 82200 91745 333 10322 20224 30/// 59009 83833
AAXX 20181 76243 32473 73005 10110 20029 39893 40194 54000 87400 91735 333 10116 20062 30/// 56800 58065 87616
AAXX 20181 76311 32680 60000 10184 20067 39864 40150 56008 86400 91748 333 10186 20072 30/// 56500 59037 86625
AAXX 20181 76412 31966 02201 10184 20098 30127 40173 52016 70544 91740 333 10188 20060 30/// 59001
AAXX 20181 76640 31358 43201 10238 20217 30122 40134 50000 70211 84200 91740 333 10252 20172 30/// 567// 59035 84809
AAXX 20181 76741 31458 11702 10264 20221 30067 40086 57007 70544 81200 91735 333 10270 20176 30/// 564// 59064 81818
AAXX 20181 76855 32980 02102 10320 20244 30063 40112 50001 91745 333 10322 20216 30/// 59014 92000
AAXX 20184 91376 32474 80811 10268 20233 30061 40064 53007 86878 333 56229 555 92018
AAXX 20184 89009 41/10 93122 11237 36877 50002 77772 333 89/05
AAXX 20184 78700 32578 12304 10320 20214 30128 40133 58013 81100 333 10320 20230 30/// 56000 59002 81830
AAXX 20184 78703 NIL
AAXX 20184 78704 31570 12505 10294 20211 30141 40146 57012 70544 81100 333 10298 20196 30/// 56600 59024 81828
AAXX 20184 78705 31570 23504 10270 20208 30112 40130 58020 70544 82200 333 10270 20187 30/// 56200 59035 82824
AAXX 20184 78706 31570 43604 10277 20234 30140 40145 57005 70544 84200 333 10277 20200 30/// 56200 59022 84824
AAXX 20184 78707 NIL
AAXX 20184 333 78708 31560 23604 10292 20227 30094 40124 58028 70544 82100 333 10292 20191 30/// 56000 59046 82830
AAXX 20184 78711 31570 41008 10294 20218 30120 40135 58024 70544 84230 333 10294 20232 30/// 56300 59008 84828
AAXX 20184 78714 11570 72502 10226 20203 69941 70254 84120 333 10226 20194 30/// 56770 84825 85457
AAXX 20184 78717 31570 20000 10244 20160 38946 40122 57014 70544 82100 333 10244 20147 32/// 56100 59027 82825
AAXX 20184 78718 31660 20000 10270 70544 82260 333 10280 20148 30/// 56000 82840
AAXX 20184 78719 32570 11004 10236 20120 38347 40111 58010 81100 333 10236 20078 30/// 56200 59018 81824
AAXX 20184 78720 31565 20908 10253 20154 39033 40106 58017 70544 82100 333 10253 20145 30/// 56000 59017 82828
AAXX 20184 78724 32578 33612 10331 20189 30045 40102 57018 83100 333 10331 20248 30/// 56100 58005 83834
AAXX 20184 91376 32474 80811 10268 20233 30061 40064 53007 86878 333 56229 555 92018
AAXX 20184 89009 41/10 93122 11237 36877 50002 77772 333 89/05
AAXX 20181 76122 32970 61403 10068 21006 38517 40198 52001 84052 91750333 10074 21032 30/// 56099 58006 84358
AAXX 20181 76225 32760 70901 10088 21026 38618 40177 50003 87020 91745333 10088 20008 30/// 56050 58022 87450
AAXX 20181 76256 32980 40000 10163 20072 30150 40164 52006 80008 91745333 10171 20081 30/// 56//5 59065 84270
AAXX 20181 76305 32670 30601 10190 20078 30150 40158 52005 82430 91740333 10196 20100 30/// 56440 59040 82650
AAXX 20181 76323 32970 10502 10108 21017 38248 40225 58006 80008 91755333 10116 20011 30/// 58014
AAXX 20181 76342 32962 00603 10142 20035 39495 40216 52006 91750 33310144 20090 30/// 58059
AAXX 20181 76390 31956 02307 10190 21042 38205 40119 57003 70544 91737333 10200 20065 30/// 58013
AAXX 20181 76402 31560 70202 10168 20096 30106 40164 52008 70544 8770091745 333 10168 20056 30/// 56500 59040 87633
AAXX 20181 76458 32970 12402 10206 20153 30144 40148 52003 80001 91737333 10232 20098 30/// 56//6 59010 81072
AAXX 20181 76491 32960 03603 10245 20145 39764 40156 57008 91750 33310257 20147 30/// 58025
AAXX 20181 76525 32680 12112 10104 20019 37456 40142 52006 81100 91740333 10105 20060 30/// 565// 58001 81835
AAXX 20181 76539 32970 02405 10197 20061 38148 40146 54000 91750 33310250 30031 30/// 58004
AAXX 20181 76548 31472 62702 10256 20207 30124 40134 58001 70244 8640091740 333 10262 20194 30/// 56300 59028 86618
AAXX 20181 76556 32970 00000 10232 20150 39111 40146 51005 91735 33310240 20105 30/// 59010
AAXX 20181 76571 32680 11803 10200 20034 38159 40175 56005 81100 91750333 10204 20050 30/// 56500 59001 81850
AAXX 20181 76577 32570 12306 10177 20131 38041 40159 50006 81400 91740333 10187 20074 30/// 56500 59005 81628
AAXX 20181 76581 32975 03501 10250 20143 39016 40126 57017 91750 33310256 20078 30/// 59015
AAXX 20181 76585 32980 02701 10230 20199 39965 40123 58005 91735 33310240 20124 30/// 59025
AAXX 20181 76654 31430 11403 10301 20207 30140 40144 57005 70544 8120091751 333 10301 20222 30/// 56900 59009 81820
AAXX 20181 76662 31670 12302 10220 20110 38462 40161 57005 70542 8110091735 333 10235 20052 30/// 56/00 59005 81833
AAXX 20181 76681 31950 00501 10190 20078 37774 40168 57018 70500 91745333 10190 20032 30/// 50310 55080 59009 70000
AAXX 20181 76683 31668 10901 10194 20091 37820 40193 56012 70544 8110091745 333 10200 20040 30/// 56200 58002 81840 9401094182
AAXX 20181 76685 32970 12101 10190 20024 37860 40153 57004 81100 91750333 10192 20052 30/// 56900 59007 81827
AAXX 20181 76687 31570 10701 10266 20030 38655 40134 58002 70100 8110091738 333 10270 20115 30/// 563// 59029 81830
AAXX 20181 76692 31456 10702 10260 20200 30095 40114 58008 70544 8120091745 333 10277 20179 30/// 564// 59050 81817
AAXX 20181 76737 31480 12902 10279 20124 38745 40110 58004 70300 8110091735 333 10282 20121 30/// 56200 59029 81813 91111 91529
AAXX 20181 76743 31/58 01301 10280 20253 30102 40110 57014 70211 800001745 333 10290 20200 30/// 56000 59047
AAXX 20181 76750 32560 20903 10294 20231 30128 40138 57009 82100 91750333 10301 20206 30/// 56200 59032 82820
AAXX 20181 76762 31504 13201 10272 20218 38753 40127 57009 81200 91742333 10274 20158 30/// 56200 59007 81830
AAXX 20181 76775 31970 21801 10248 20092 38513 40154 57013 70100 8210091740 333 10270 20084 30/// 56802 59017 81824
AAXX 20181 76833 32970 01403 10294 20236 30113 40115 57012 91745 33310294 30/// 58/// 59001
AAXX 20181 76840 32450 42303 10323 20219 30060 40115 57016 84200 91740333 10355 30/// 569// 59011 84827
AAXX 20181 76843 32665 10801 10268 20153 39474 40119 57018 81100 91740333 10284 20160 30/// 561// 59031 81822
AAXX 20181 76903 31680 33001 10315 20212 39988 40118 57015 70111 8220091745 333 10322 20224 30/// 59009 83833
AAXX 20181 76243 32473 73005 10110 20029 39893 40194 54000 87400 91735333 10116 20062 30/// 56800 58065 87616
AAXX 20181 76311 32680 60000 10184 20067 39864 40150 56008 86400 91748333 10186 20072 30/// 56500 59037 86625
AAXX 20181 76412 31966 02201 10184 20098 30127 40173 52016 70544 91740333 10188 20060 30/// 59001
AAXX 20181 76640 31358 43201 10238 20217 30122 40134 50000 70211 8420091740 333 10252 20172 30/// 567// 59035 84809
AAXX 20181 76741 31458 11702 10264 20221 30067 40086 57007 70544 8120091735 333 10270 20176 30/// 564// 59064 81818
AAXX 20181 76855 32980 02102 10320 20244 30063 40112 50001 91745 33310322 20216 30/// 59014 92000
AAXX 20181 76122 32970 61403 10068 21006 38517 40198 52001 84052 91750 333 10074 21032 30/// 56099 58006 84358
AAXX 20181 76225 32760 70901 10088 21026 38618 40177 50003 87020 91745 333 10088 20008 30/// 56050 58022 87450
AAXX 20181 76256 32980 40000 10163 20072 30150 40164 52006 80008 91745 333 10171 20081 30/// 56//5 59065 84270
AAXX 20181 76305 32670 30601 10190 20078 30150 40158 52005 82430 91740 333 10196 20100 30/// 56440 59040 82650
AAXX 20181 76323 32970 10502 10108 21017 38248 40225 58006 80008 91755 333 10116 20011 30/// 58014
AAXX 20181 76342 32962 00603 10142 20035 39495 40216 52006 91750 333 10144 20090 30/// 58059
AAXX 20181 76390 31956 02307 10190 21042 38205 40119 57003 70544 91737 333 10200 20065 30/// 58013
AAXX 20181 76402 31560 70202 10168 20096 30106 40164 52008 70544 87700 91745 333 10168 20056 30/// 56500 59040 87633
AAXX 20181 76458 32970 12402 10206 20153 30144 40148 52003 80001 91737 333 10232 20098 30/// 56//6 59010 81072
AAXX 20181 76491 32960 03603 10245 20145 39764 40156 57008 91750 333 10257 20147 30/// 58025
AAXX 20181 76525 32680 12112 10104 20019 37456 40142 52006 81100 91740 333 10105 20060 30/// 565// 58001 81835
AAXX 20181 76539 32970 02405 10197 20061 38148 40146 54000 91750 333 10250 30031 30/// 58004
AAXX 20181 76548 31472 62702 10256 20207 30124 40134 58001 70244 86400 91740 333 10262 20194 30/// 56300 59028 86618
AAXX 20181 76556 32970 00000 10232 20150 39111 40146 51005 91735 333 10240 20105 30/// 59010
AAXX 20181 76571 32680 11803 10200 20034 38159 40175 56005 81100 91750 333 10204 20050 30/// 56500 59001 81850
AAXX 20181 76577 32570 12306 10177 20131 38041 40159 50006 81400 91740 333 10187 20074 30/// 56500 59005 81628
AAXX 20181 76581 32975 03501 10250 20143 39016 40126 57017 91750 333 10256 20078 30/// 59015
AAXX 20181 76585 32980 02701 10230 20199 39965 40123 58005 91735 333 10240 20124 30/// 59025
AAXX 20181 76654 31430 11403 10301 20207 30140 40144 57005 70544 81200 91751 333 10301 20222 30/// 56900 59009 81820
AAXX 20181 76662 31670 12302 10220 20110 38462 40161 57005 70542 81100 91735 333 10235 20052 30/// 56/00 59005 81833
AAXX 20181 76681 31950 00501 10190 20078 37774 40168 57018 70500 91745 333 10190 20032 30/// 50310 55080 59009 70000
AAXX 20181 76683 31668 10901 10194 20091 37820 40193 56012 70544 81100 91745 333 10200 20040 30/// 56200 58002 81840 9401094182
AAXX 20181 76685 32970 12101 10190 20024 37860 40153 57004 81100 91750 333 10192 20052 30/// 56900 59007 81827
AAXX 20181 76687 31570 10701 10266 20030 38655 40134 58002 70100 81100 91738 333 10270 20115 30/// 563// 59029 81830
AAXX 20181 76692 31456 10702 10260 20200 30095 40114 58008 70544 81200 91745 333 10277 20179 30/// 564// 59050 81817
AAXX 20181 76737 31480 12902 10279 20124 38745 40110 58004 70300 81100 91735 333 10282 20121 30/// 56200 59029 81813 91111 91529
AAXX 20181 76743 31/58 01301 10280 20253 30102 40110 57014 70211 80000 1745 333 10290 20200 30/// 56000 59047
AAXX 20181 76750 32560 20903 10294 20231 30128 40138 57009 82100 91750 333 10301 20206 30/// 56200 59032 82820
AAXX 20181 76762 31504 13201 10272 20218 38753 40127 57009 81200 91742 333 10274 20158 30/// 56200 59007 81830
AAXX 20181 76775 31970 21801 10248 20092 38513 40154 57013 70100 82100 91740 333 10270 20084 30/// 56802 59017 81824
AAXX 20181 76833 32970 01403 10294 20236 30113 40115 57012 91745 333 10294 30/// 58/// 59001
AAXX 20181 76840 32450 42303 10323 20219 30060 40115 57016 84200 91740 333 10355 30/// 569// 59011 84827
AAXX 20181 76843 32665 10801 10268 20153 39474 40119 57018 81100 91740 333 10284 20160 30/// 561// 59031 81822
AAXX 20181 76903 31680 33001 10315 20212 39988 40118 57015 70111 82200 91745 333 10322 20224 30/// 59009 83833
AAXX 20181 76243 32473 73005 10110 20029 39893 40194 54000 87400 91735 333 10116 20062 30/// 56800 58065 87616
AAXX 20181 76311 32680 60000 10184 20067 39864 40150 56008 86400 91748 333 10186 20072 30/// 56500 59037 86625
AAXX 20181 76412 31966 02201 10184 20098 30127 40173 52016 70544 91740 333 10188 20060 30/// 59001
AAXX 20181 76640 31358 43201 10238 20217 30122 40134 50000 70211 84200 91740 333 10252 20172 30/// 567// 59035 84809
AAXX 20181 76741 31458 11702 10264 20221 30067 40086 57007 70544 81200 91735 333 10270 20176 30/// 564// 59064 81818
AAXX 20181 76855 32980 02102 10320 20244 30063 40112 50001 91745 333 10322 20216 30/// 59014 92000
BBXX 46002 20181 99426 71305 46/// ///// 10113 40321 52005 91750 22200 00118 11407 70036
BBXX 46005 20181 99461 71310 46/// ///06 10094 40322 53012 91750 22200 00100 11508 20501 3//// 41508 70039 333 91207 555 11062 22066
BBXX 46006 20181 99408 71375 46/// /0502 10118 40345 52007 91750 22200 00125 11407 3//// 41407 70033 333 91203 555 11018 22018 31650 43303 61749 049017 042017 028020 016020 008022 003022
BBXX 46012 20181 99374 71229 46/// /0202 10099 40197 51012 91750 22200 00123 11506 20401 330// 41506 70032 333 91203 555 11021 22021 31734 40704 61749 027021 056029 056024 055017 073016 083008
BBXX 46014 20181 99394 71240 46/// /1406 10101 40195 53011 91750 22200 00106 11206 20501 3//// 41206 70030 333 91207 555 11062 22066 31725 41208 61749 135057 136056 129063 122046 114033 099046
BBXX 46028 20181 99357 71219 46/// /2801 10122 40187 53012 91750 22200 00127 11107 20301 332// 41107 70033 333 91202 555 11010 22011 31655 43202 61749 278010 258007 319005 345005 336007 340010
BBXX 46029 20181 99461 71245 46/// /3304 10092 20090 40277 53005 91750 22200 00089 11506 20401 328// 41506 70030 333 91206 555 11044 22049 31650 43407 61749 325042 330046 339050 344052 347054 348059
BBXX 46050 20181 99442 71246 46/// /1702 10079 40285 54000 91750 22200 00098 11305 329// 41305 70027 333 91203 555 11022 22022 31723 41603 61749 171021 174023 178023 184021 177021 181017
BBXX 46054 20181 99342 71204 46/// /3303 10134 40185 53010 91750 22200 00137 11105 20401 300// 41105 70027 333 91204 555 11031 22033 31726 43205 61749 326030 327031 323030 318029 316032 318033
BBXX KGTY 20184 99507 71334 43898 62516 10072 20050 40200 5//// 7//// 842// 22234 00067 21005 32722 41206 51009 6//// 80061 ICE /////
BBXX WSLH 20184 99303 71500 41398 60909 10190 20160 40252 52022 71561 867// 22215 00190 21001 313// 41507 5//// 6//// 80170 ICE /////
AAXX 20184 81405 04586 70912 10296 20226 30088 40097 60021 700// 333 60007 59002 555 60005
AAXX 20184 81405 04586 70912 10296 20226 30088 40097 60021 700// 333 60007 59002 555 60005
BBXX 44020 20181 99414 70702 46/// /3309 10046 21036 40193 52006 91750 22200 00073 10402 20402 70008 333 91212 555 11096 22103 31745 43412 61749 320090 258083 257090 257089 258089 260095
AAXX 20184 85574 12960 01713 10309 20069 39581 40103 58013 60001
AAXX 20184 85672 12570 41804 10256 20098 40152 57009 60001 84200 333 56600 84825
AAXX 20184 85682 12562 22410 10208 20134 40170 51004 60001 81130 333 56550 81820
AAXX 20184 85703 12560 62921 10266 20150 40143 57008 60001 86200 333 56000 86830
AAXX 20184 85743 11440 89901 10152 20136 40171 53006 69961 78082 888// 333 56699 83610 88615
AAXX 20184 85799 11660 62705 10154 20092 40150 51003 60051 70182 83530 333 56560 83633 85357
AAXX 20184 85406 12980 02014 10229 20138 40119 56015 60001
AAXX 20184 85418 12565 32414 10221 20141 40128 57011 60001 83500 333 56000 83630
AAXX 20184 85432 12970 22524 10258 20025 37738 48396 57017 60001 80001 333 56006 82074
AAXX 20184 85467 12960 02711 10226 20135 40135 57022 60001
AAXX 20184 85469 42565 31211 10219 20119 40227 51002 83100 333 56200 83820
AAXX 20184 85488 12468 12810 10196 20136 40137 58013 60001 81500 333 56600 81615
AAXX 20184 85832 11458 82712 10110 20038 40113 53019 69921 78082 882// 333 56699 84715 88833
AAXX 20184 85836 11570 62309 10119 20064 40159 53019 60011 70182 86200 333 56600 82829 86849
AAXX 20184 85864 11550 82212 10090 20071 40082 53015 69961 78181 882// 333 56599 88820
AAXX 20184 85874 11560 63118 10076 20025 39438 40059 50013 69981 78082 86200 333 56600 83820 86830
AAXX 20184 85886 12670 42927 10144 20111 40027 54001 60001 84200 333 56600 84836
AAXX 20184 85892 12570 73318 10122 20016 49999 52011 60001 87800 333 56600 87825
AAXX 20184 85934 12480 62511 10129 21003 49936 57011 60001 82902 333 56606 82916 84820 85070
AAXX 20184 85968 11660 60811 10125 20065 49915 50000 69911 72581 85210 333 56220 85843 85460
AAXX 20184 86011 32670 43518 10386 20218 39926 40078 57027 84800 333 84840
AAXX 20184 86033 32670 30413 10372 20185 39996 40087 57018 83200 333 83834
AAXX 20184 86065 32670 50508 10390 20176 39829 40053 57022 85200 333 85840
AAXX 20184 86068 32570 33610 10378 20202 39862 40045 57032 82202 333 82835 82170
AAXX 20184 86086 32570 33606 10380 20161 39988 40075 57023 83200 333 83833
AAXX 20184 86097 32570 52808 10352 20136 39465 40080 57024 85800 333 85827
AAXX 20184 86128 32670 43605 10386 20199 39956 40063 57026 84200 333 84840
AAXX 20184 86134 32670 43608 10380 20181 39994 40076 57026 84800 333 84840
AAXX 20184 86170 32670 30514 10398 20099 39955 40052 57028 83100 333 83840
AAXX 20184 86185 32570 10000 10384 20201 39989 40078 57029 81100 333 81833
AAXX 20184 86192 32970 00906 10368 20094 39882 40092 57021
AAXX 20184 86210 32570 13604 10344 20092 39739 40066 57020 81200 333 81833
AAXX 20184 86218 32970 23608 10386 20133 39989 40080 57022 80001 333 82070
AAXX 20184 86221 32970 00000 10382 20112 39970 40098 57019
AAXX 20184 86233 32970 03606 10378 20112 39910 40090 56005
AAXX 20184 86234 32970 03605 10370 20125 39860 40035 58015
AAXX 20184 86246 32970 01005 10356 20111 39818 40090 57010
AAXX 20184 86251 32970 00000 10370 20100 39900 40060 57018
AAXX 20184 86255 32970 03608 10410 20082 30007 40070 57019
AAXX 20184 86260 32970 00000 10380 20183 39927 40071 56016
AAXX 20184 86268 32970 00504 10370 20144 39933 40089 57020
AAXX 20184 86285 32670 41408 10374 20164 39811 40079 58019 84200 333 84840
AAXX 20184 86297 32970 03602 10390 20157 39970 40069 57020
AAXX 20184 97180 01450 60504 10266 20257 30050 40068 57015 60021 76062 83271 333 56000 60027 83819 83359
BBXX BAREU51 20184 99440 10092 46/// ///// 40113 52002 22285
AAXX 20184 91376 32474 80811 10268 20233 30061 40064 53007 86878 333 56229 555 92018 /
BBXX BAREU11 20184 99264 70598 46/// ///// 40228 57014 22214
BBXX BAREU04 20184 99523 70408 46/// ///// 49784 57056 22253
BBXX BAREU00 20184 99534 70030 46/// ///// 40160 22200
AAXX 20184 68352 36/// /1512 10246 20035 39071 48528 52018 333 10314 20246 91028 555 91017
AAXX 20183 91802 NIL
AAXX 20183 91809 NIL
AAXX 20183 91831 36/// /0907 ///// ///// 10264 20227 40154 52004
AAXX 20183 91841 36/// /1206 10268 20225 40141 52014 555 20000
AAXX 20183 91843 31598 20807 10270 20241 40143 52015 0001 70200 82200 333 562// 82821
AAXX 20183 91848 36/// /1004 10261 20231 40070 52008 555 20000
BBXX DBBU 20181 99545 10124 46/// /1405 10010 21010 40066 52008 22211/00050
BBXX DBBT 20181 99368 30126 46/// /2709 10162 20123 40136 54000 22213 00170
BBXX DBKV 20181 99169 70250 46/// /0505 10232 20161 40147 57001 22220 00236
BBXX DBFR 20181 99539 10075 46/// /3409 10051 20045 40058 52046 22211 00059
AAXX 20184 78384 12460 60912 10275 20225 40161 60001 83242 333 10290 20221 59008 70127 83816 86067
AAXX 20184
AAXX 20184 78383 12460 60913 10270 20217 40170 60001 83202 333 10281 20241 59003 70000 83816 84075
AAXX 20184 78016 11664 72912 10183 20105 30247 40251 57016 69901 71681 87800 333 10191 20158 79999 90960
BBXX DBJM 20181 99540 10085 46/// /0108 10030 20022 40047 52040 22231 00045
BBXX DBBA 20181 99544 10113 46/// /1509 10021 20004 40051 52010 22231 00051
BBXX 41101 20184 99146 70562 46/// /0519 10265 20203 40124 57026 22200 00272 10704 70019
BBXX DBND 20181 99/// ///// 46/// ///// 10049 20048 40039 52027 22220 00050
BBXX DBKR 20181 99541 10121 46/// /1603 10012 21007 40058 52002 22200 00043
BBXX DBFH 20181 99535 10086 46/// /3305 10061 20054 40040 52026 22210 00044
BBXX DBBC 20181 99535/10100 46/// /1102 10023 ///+/ 40043 52009 22220 00032
BBXX DBBI 20181 99535 10100 46/// /1102 10024 20024 40042 52009 22260 00030
BBXX 61001 20184 99434 10078 46/// /0521 10112 20047 40104 52008 22200 00148 10503 70014 555 1/028
BBXX DBEB 20181 99539 10079 41/// /3513 10045 20045 40045 52041 7//// 22200 00060
BBXX DBEA 20181 99540 10082 46/// /3511 10035 20027 40048 52041 22210 00058
AAXX 20184 91772 11498 50705 10261 20236 4//// 69911 70228 8487/ 333 5619/ 82816 84640 85362
AAXX 20184 91776 31498 30000 1//// 2//// 4//// 60001 70200 83100 333 562// 83818
AAXX 20184 91779 31498 60000 10237 20233 40115 53011 60001 70201 82101 333 569/9 81816 86079
AAXX 20184 91784 11498 70000 10255 20246 40111 53012 69911 70262 8127/ 333 5699/ 81817 87461
AAXX 20184 91792 31498 70000 10249 20242 40122 53011 60001 70311 8573/ 333 5699/ 81711 85817 86362
AAXX 20184 78016 11664 72912 10183 20105 30247 40251 57016 69901 71681 87800 333 10191 20158 79999 90960
AAXX 20184 78384 12460 60912 10275 20225 40161 60001 83242 333 10290 20221 59008 70127 83816 86067
AAXX 20184 78383 12460 60913 10270 20217 40170 60001 83202 333 10281 20241 59003 70000 83816 84075
AAXX 20184 78925 11568 70512 10272 20226 40145 56022 69961 72186 85201 333 10287 20232 58002 82821 84830
BBXX 41047 20181 99275 70715 46/// /0905 10217 40253 58016 91750 22200 00251 11206 20401 303// 41206 70029 333 91207 555 11052 22054 31734 41008 61749 093054 102059 089059 085056 096060 088056 80907 91734
BBXX 41043 20181 99211 70650 46/// /0609 10244 20177 40198 58029 91750 22200 00263 11106 20703 300// 41105 70030 333 91210 555 11093 22098 31727 40711 61749 062088 066084 064087 060082 063080 067080 80610 91749
BBXX 41036 20181 99342 70770 46/// ///// 10181 20117 40234 58018 91750 22200 00193 11001 70007
BBXX 44066 20181 99396 70726 46/// /3405 10095 20042 40209 54000 91750 22200 00130 10804 20401 3//// 40804 70019 333 91206 555 11051 22053 31703 43408 61749 339050 334050 337049 331051 331061 332054
AAXX 20184 78925 11568 70512 10272 20226 40145 56022 69961 72186 85201 333 10287 20232 58002 82821 84830
AAXX 20184 85406 12980 02014 10229 20138 40119 56015 60001
AAXX 20184 85418 12565 32414 10221 20141 40128 57011 60001 83500 333 56000 83630
AAXX 20184 85432 12970 22524 10258 20025 37738 48396 57017 60001 80001 333 56006 82074
AAXX 20184 85467 12960 02711 10226 20135 40135 57022 60001
AAXX 20184 85469 42565 31211 10219 20119 40227 51002 83100 333 56200 83820
AAXX 20184 85488 12468 12810 10196 20136 40137 58013 60001 81500 333 56600 81615
AAXX 20184 85574 12960 01713 10309 20069 39581 40103 58013 60001
AAXX 20184 85672 12570 41804 10256 20098 40152 57009 60001 84200 333 56600 84825
AAXX 20184 85682 12562 22410 10208 20134 40170 51004 60001 81130 333 56550 81820
AAXX 20184 85703 12560 62921 10266 20150 40143 57008 60001 86200 333 56000 86830
AAXX 20184 85743 11440 89901 10152 20136 40171 53006 69961 78082 888// 333 56699 83610 88615
AAXX 20184 85799 11660 62705 10154 20092 40150 51003 60051 70182 83530 333 56560 83633 85357
AAXX 20184 91348 11474 80510 10267 20243 30015 40068 55007 69901 70282 8527/ 333 56199 70124 555 92018
AAXX 20184 85832 11458 82712 10110 20038 40113 53019 69921 78082 882// 333 56699 84715 88833
AAXX 20184 85836 11570 62309 10119 20064 40159 53019 60011 70182 86200 333 56600 82829 86849
AAXX 20184 85864 11550 82212 10090 20071 40082 53015 69961 78181 882// 333 56599 88820
AAXX 20184 85874 11560 63118 10076 20025 39438 40059 50013 69981 78082 86200 333 56600 83820 86830
AAXX 20184 85886 12670 42927 10144 20111 40027 54001 60001 84200 333 56600 84836
AAXX 20184 85892 12570 73318 10122 20016 49999 52011 60001 87800 333 56600 87825
AAXX 20184 85934 12480 62511 10129 21003 49936 57011 60001 82902 333 56606 82916 84820 85070
AAXX 20184 85968 11660 60811 10125 20065 49915 50000 69911 72581 85210 333 56220 85843 85460
AAXX 20181 33815 12597 83104 10017 20007 39868 40078 52011 60012 885// 333 10041 555 80016
AAXX 20181 12772 31575 81402 10011 21032 39831 40121 52005 70222 875// 333 10031 4/000 87626
AAXX 20181 12822 36/// /0000 11044 21064 39986 40136 52003 333 10033
AAXX 20181 12843 31962 00000 11018 21045 39952 40128 52008 70211 333 10033 4/000
AAXX 20181 12882 31565 82701 10010 21006 39984 40119 52009 70122 8357/ 333 10018 4/000 83626
AAXX 20181 12925 36/// /1701 11037 21057 39965 40144 56001 333 10039
AAXX 20181 12942 31980 02702 11041 21061 39892 40148 52004 70200 333 10012 43007
AAXX 20181 12982 31958 22804 11015 21032 30029 40134 52008 70111 81042 333 10008 42000
AAXX 20184 91503 31470 40000 10240 20234 40044 56007 70521 82270 333 56000 82814 84359
AAXX 20184 91517 01470 71806 10240 20236 40060 57006 60181 72582 8397/ 333 56999 69987 82814 81916 87458
AAXX 20184 91348 11474 80510 10267 20243 30015 40068 55007 69901 70282 8527/ 333 56199 70124 555 92018
AAXX 20184 91503 31470 40000 10240 20234 40044 56007 70521 82270 333 56000 82814 84359
AAXX 20184 91517 01470 71806 10240 20236 40060 57006 60181 72582 8397/ 333 56999 69987 82814 81916 87458
AAXX 20184 91824 11499 50802 10252 20242 40124 52010 60001 70322 848/2 333 562/9 555 1////
AAXX 20184 Scanned by MailMarshal - M86 Security's comprehensive email content s ecur
AAXX 20184 ity solution.
AAXX 20184 --_000_15A73B2E9A32B34CBBB7D7F59DAEB2C0DCC01B09mailniuegovloca_ html code found in mail The rest of this message has been deleted
AAXX 20181 10004 NIL
AAXX 20181 10015 01363 83509 10037 20022 30050 40060 51047 60012 72052 886// 222// 02062 333 10071 20020 31002 55300 20000 30000 69917 85708 87612
AAXX 20181 10020 07343 80103 10018 20015 30025 40058 51025 69922 72276 333 10024 20014 3/001 55300 20000 30000 69927 88/09
AAXX 20181 10035 01012 80302 10009 20005 39991 40051 53022 69922 76876 877// 333 10014 20007 32000 55300 20000 30000 41148 69917 87701
AAXX 20181 10055 01360 81503 10018 20007 30040 40051 51009 69902 70276 875// 333 10018 20009 31000 55300 20000 30000 69907 87609
AAXX 20181 10147 01140 81303 10025 20025 30022 40041 53010 60012 72587 877// 333 10026 20009 32000 55300 20000 30000 41174 69927 87703
AAXX 20181 10162 07234 81603 10005 20001 39969 40053 53003 69922 75176 333 10010 21003 3/101 55300 20000 30000 69927 87/05 88/09
AAXX 20181 10184 12568 71302 10005 21024 30065 40073 58001 60002 875// 333 10022 21004 31102 55300 20000 30000 87629
AAXX 20181 10200 01475 73205 10061 20045 30072 40070 51043 60042 70286 875// 333 10066 20008 32001 55300 20000 30000 69907 87615 91114
AAXX 20181 10224 01370 62805 10057 20047 30039 40045 53016 60042 76022 86800 333 10059 20003 32000 55300 20000 30000 69987 82808 84620
AAXX 20181 10270 06460 81606 10011 21004 30020 40076 58001 69902 222// 06040 333 10021 20006 3/100 55300 69907 88/17 88/32 88/39
AAXX 20181 10338 01358 82405 10047 20041 39978 40051 52004 60022 76176 875// 333 10049 20005 32100 55300 20000 30000 69907 85708 87612
AAXX 20181 10361 01470 81803 10013 20002 39967 40073 50002 69932 72272 885// 333 10017 21005 31101 55300 20000 30000 69927 88618
AAXX 20181 10393 12570 71603 10002 21033 39960 40090 50001 60002 875// 333 10021 21012 31103 55300 20000 30000 87631
AAXX 20181 10400 01580 72706 10055 20031 30073 40123 52026 60032 70262 8553/ 333 10061 20007 32000 4/998 55300 20000 30000 69907 83620 84635 86362
AAXX 20181 10438 07537 81803 10003 20001 39811 40098 51011 60022 75776 333 10003 21010 3/101 4/005 55300 69927 87/21 87/39 88/62
AAXX 20181 10469 01256 82006 10003 21006 39921 40090 51005 69902 77172 8652/ 333 10022 21002 31101 55300 69907 84705 85620 88460 96010 96273
AAXX 20181 10488 01575 81703 10006 21050 39814 40101 53005 69902 77072 875// 333 10018 21032 31105 55300 20000 30000 41092 69907 87629
AAXX 20181 10506 01277 73005 10018 20007 39551 40143 51026 60022 70287 878// 333 10023 21013 3/101 42002 55300 20000 30000 69907 83804 87608 96480 96469
AAXX 20181 10548 01035 81802 11017 21020 39564 40120 51017 60022 77772 876// 333 11017 21028 3/103 47004 55300 20000 30000 69937 87701
AAXX 20181 10637 01168 72404 10017 20010 39993 40134 53027 60022 72176 875// 333 10019 21004 3/101 44007 55300 69907 81703 83617 87645 96471 96468 96461 96410
AAXX 20181 10685 01357 82303 11022 21030 39422 40114 53013 69932 72277 876// 333 11022 21033 3/104 47007 55300 20000 30000 69927 87707 96477 96473
AAXX 20181 10738 01382 82204 10018 20003 39666 40144 51027 60082 72076 875// 333 10018 21016 3/102 44007 55300 69907 81708 84714 87621 96473 96458
AAXX 20181 10763 01256 82002 11001 21009 39733 40125 52017 69992 77177 875// 333 10000 21015 3/102 43002 55300 20000 30000 69977 82705 87608
AAXX 20181 10788 07461 81502 11014 21020 39689 40134 53013 69912 77175 333 10000 21054 3/107 55300 20000 30000 69917 88/15
AAXX 20181 10852 01326 82503 10004 20004 39553 40134 53018 60022 77177 877// 333 10004 21049 3/106 43002 55300 20000 30000 69957 87707
AAXX 20181 10946 07419 82202 11002 21003 39300 40148 51024 60052 77277 333 11002 21065 3/105 55300 20000 30000 69967 81/11 83/22 88/28
BBXX BATFR04 20184 99582 70061 46/// /3112 10045 20017 40095 51012 22282 00105
BBXX BATFR02 20184 99500 70006 46/// /3122 10099 20024 40217 22284 00129
BBXX BATEU01 20184 99506 70164 44796 82527 10135 20107 40229 53017 70022 86611 22224 00120 21004 330// 41004 5////
BBXX BATFR01 20184 99345 10293 46/// /2817 10167 20124 40164 53009 22262 00180
BBXX BAREU06 20184 99481 70612 46/// ///// 40009 52003 22234
BBXX BATEU05 20184 99594 70442 46/// /0807 11033 21075 49984 56022 22222
BBXX BATFR53 20184 99183 31797 44498 50509 10267 20229 40109 53017 70300 82432 22222 00282 201// 321// 404// 5//// 60/// ICE 0////
BBXX BATEU07 20184 99313 31137 46/// /2013 10200 40141 51004 22284
BBXX BATEU08 20184 99593 70408 46/// /0115 11007 21098 49988 56021 22263
BBXX BATFR09 20184 99432 70101 44296 82607 10124 20112 40320 52022 72854 882// 22243 00152 20202 327// 41006 5//// 60//0 ICE 0/0//
BBXX BATFR46 20184 99362 70034 44/96 32610 10144 20079 40278 55002 70011 82//1 22223 00169 20000
BBXX BATFR45 20184 99055 10553 46/// ///// 10262 20239 40129 51014 22214 00294
BBXX BATFR19 20184 99065 30060 46/// /1915 10235 20199 40121 53013 22200 00257
AAXX 20184 65338 32958 51808 10308 20214 39911 40097 80002 333 10356 58006 85076
BBXX BATFR52 20184 99499 70041 46/// /2626 10112 20067 40226 58007 22283 00120
BBXX BATFR48 20184 99167 51490 46/// /1023 10237 20194 40136 51017 22252 00299
BBXX BATEU04 20184 99570 10102 46/// /1806 10020 21002 40056 22232
BBXX BATFR55 20184 99102 30464 46/// /2310 10274 20250 40120 22262 00287
BBXX BATFR12 20184 99482 70069 46/// /2714 10122 20109 40262 53013 22251 00142
BBXX BATFR14 20184 99309 70431 44498 72909 10207 20172 40147 55004 70222 8748/ 22214 00217 202// 30913 40904 507// 60000 ICE 0/0//
BBXX FVNM 20184 99065 70815 46/// /3110 10270 20234 40092 58026 22221 00274
BBXX BATFR54 20184 99521 70056 46/// /2218 10102 20084 40182 56013 22283 00114
AAXX 20184 78948 11576 70717 10287 20221 30130 40138 69901 72582 83801 333 02205 10298 20246 58001 79999 83825 86079 90914
AAXX 20181 01003 NIL
AAXX 20181 01007 11689 82401 11042 21092 30078 40088 52005 60002 70222 8805/ 333 11037 91104
AAXX 20181 01028 NIL
AAXX 20181 01047 11688 83601 11012 21021 39627 40000 52009 69952 70272 8802/ 333 10010
AAXX 20181 01049 NIL
AAXX 20181 01078 11385 8//// 10031 21010 39977 49990 52007 60012 70282 85100 333 10039 91112
AAXX 20181 01102 46/// /3102 10053 21007 39974 49993 52007 333 10060 91110
AAXX 20181 01160 NIL
AAXX 20181 01218 NIL
AAXX 20181 01238 41989 01303 11121 21166 38875 40009 52001 70200 333 11091 91105
AAXX 20181 01241 11486 11305 10008 21016 39992 40004 54000 60002 70221 81671 333 10030 91108
AAXX 20181 01281 NIL
AAXX 20181 01338 16/// /0904 11002 21046 39978 40045 53007 60002 333 10022 91110
AAXX 20181 01359 NIL
AAXX 20181 01397 NIL
AAXX 20181 01400 NIL
AAXX 20181 01427 11440 81005 10017 20001 30018 40034 53005 60022 76162 8562/ 333 10019 91109
AAXX 20181 01447 NIL
AAXX 20181 01448 46/// /0504 10005 21024 30032 40042 50002 333 10005 91107
AAXX 20181 01001 11460 80707 10018 20007 39866 49878 57015 69902 70222 8777/ 333 10025 91110
AAXX 20181 01008 11486 71304 11060 21098 30056 40091 52004 69912 70272 875// 333 11052 91105
AAXX 20181 01010 11789 72103 10011 21010 39979 49995 52005 60002 70222 875// 333 10012 91104
AAXX 20181 01026 11488 71501 10004 21006 39858 40000 52006 60002 70222 8353/ 333 10010 4/020 91102
AAXX 20181 01055 46/// /0508 10036 21007 39994 40011 52010 333 10043 91115
AAXX 20181 01062 NIL
AAXX 20181 01098 16/// /3104 10023 20007 39953 49971 52005 6//// 333 10029 91108
AAXX 20181 01115 16/// /1606 10033 21012 39970 49991 52008 6//// 333 10035 91108
AAXX 20181 01152 11888 40905 11002 21038 39985 40001 52007 60002 70111 83072 333 11001 91108
AAXX 20181 01205 NIL
AAXX 20181 01212 16/// /1808 10024 21005 39988 40004 53004 6//// 333 10041 91115
AAXX 20181 01271 16/// /1202 11021 21031 39995 40017 54000 6//// 333 10027 91105
AAXX 20181 01288 11970 01701 11163 21180 39279 40075 52002 60002 70110 333 11044 91105
AAXX 20181 01300 NIL
AAXX 20181 01317 11356 83202 10006 21011 30013 40028 53013 69982 77272 8667/ 333 10028 91112
AAXX 20181 01367 NIL
AAXX 20181 01384 11180 20101 11091 21099 39802 40055 52006 60002 70200 81601 333 11052 91104
AAXX 20181 01403 11570 4//// 10034 20021 39975 40044 53015 60052 70186 84900 333 10035
AAXX 20181 01415 16/// /1402 10007 21003 30035 40046 53014 6//// 333 10023 91106
AAXX 20181 01482 46/// /0304 11004 21018 30043 40051 52008 333 10009 91106
AAXX 20181 01492 NIL
BBXX CGDS 20184 99450 70747 46/// /2605 11057 21118 4//// 5//// 7//// 8//// 22200 0//// 2////
AAXX 20184 78897 12584 70414 10279 20183 40153 58023 60001 85802 333 022/6 10280 20236 58005 70008 81830 85643 85078
AAXX 20181 78221 41458 50909 10259 20205 30153 40180 57020 70122 85200 333 85815
AAXX 20181 78224 31560 71407 10265 20170 30107 40180 58019 70544 83501 333 83630 86068
AAXX 20181 78229 42559 71001 10194 20169 30126 40201 52010 872// 333 87820
AAXX 20181 78239 41559 30908 10265 20166 30191 40194 57020 70500 83600 333 10275 20224 82820
AAXX 20181 12345 42559 51007 10270 20192 30140 40180 57025 82135 333 82820 84070
AAXX 20181 78243 42559 40901 10251 20166 30072 40195 57023 84200 333 84820
AAXX 20181 78255 42559 60808 10248 20175 30047 40196 57020 86200 333 10258 20187 86820
AAXX 20181 78264 31560 20504 10289 20184 30097 40172 57030 70200 82200 333 82820
AAXX 20181 78265 31559 60808 10255 20168 30083 40183 57020 70222 86201 333 10263 20198 86820
AAXX 20181 78256 11559 40508 10282 20163 30120 40182 57025 60004 70544 84100 333 10283 20211 84825
AAXX 20181 78259 31559 60206 10275 20167 30100 40188 57025 70544 86200 333 10279 20266 86820
AAXX 20181 78268 11457 30909 10250 20222 30173 40192 57024 60001 71522 83200 333 10278 83815 88830
AAXX 20184 78897 12584 70414 10279 20183 40153 58023 60001 85802 333 022/6 10280 20236 58005 70008 81830 85643 85078
AAXX 20184 48698 01462 73003 10254 20242 30059 40078 60001 70522 81138 333 60007 81818 84278
AAXX 20184 48698 01462 73003 10254 20242 30059 40078 60001 70522 81138 333 60007 81818 84278
AAXX 20181 13579 11460 82201 10019 21003 39272 40118 52015 60012 75152 8652/ 333 10043 83715 86636 88457
AAXX 20184 78970 11470 73508 10320 20223 30093 40118 69901 78082 84872 333 02299 10330 20228 59007 81816 83818 86078
AAXX 20181 10007 NIL
AAXX 20181 10044 46/// /1404 10009 21000 30016 40048 52013 222// 00050 333 10016 20004 55300
AAXX 20181 10046 11240 81002 10010 20000 30007 40047 52012 69972 75865 887// 333 10016 20010 32000 88704
AAXX 20181 10091 15576 81706 10014 21018 30024 40076 53006 60002 333 10016 20003 3/100 55300 20000 30000 87/24 88/63
AAXX 20181 10113 01472 83409 10062 20045 30049 40068 51046 60042 70282 878// 333 10069 20010 31001 55300 20000 30000 69947 82816 87625 91119 91216
AAXX 20181 10124 46/// ///// 10038 2//// 30009 40047 53042 222// 00061 333 10067 20006 553// 911// 912//
AAXX 20181 10131 01125 83606 10028 20023 30032 40047 53035 69972 72165 876// 333 10052 20004 31000 55300 20000 30000 69907 87703 96010 98025
AAXX 20181 10170 01470 81604 10014 21013 30044 40060 53002 69902 77072 885// 333 10017 20003 31101 55300 20000 30000 69907 88617
AAXX 20181 10264 06229 71603 10003 21002 39949 40058 54000 69922 333 10011 21005 3/101 55300 20000 30000 69927 87/05
AAXX 20181 10291 12580 71604 10008 21037 30016 40085 50000 60002 875// 333 10022 21001 34102 55300 20000 30000 87631
AAXX 20181 10315 01460 83004 10056 20049 30025 40089 53025 60032 76386 875// 333 10060 20005 32000 55300 20000 30000 60027 83611 87616
AAXX 20181 10379 01476 81705 10008 21016 39954 40078 51001 69902 77072 888// 333 10020 21007 31103 55300 20000 30000 41106 69907 81816 88646 96468
AAXX 20181 10382 01568 81804 10018 21029 30036 40082 50001 69902 77122 8652/ 333 10027 20004 31102 55300 20000 30000 69907 86625 87458
AAXX 20181 10384 06/// /1703 10020 21029 30021 40082 50000 69902 333 10028 20002 3/102 55300 20000 30000 69907
AAXX 20181 10427 01/01 92709 11006 21006 39081 48384 51014 60062 77387 333 11004 21044 3/105 48053 55300 20000 30000 60027 91115 96049 96486 96473 96441
AAXX 20181 10430 01256 82606 10038 20030 39890 40084 53012 60052 75865 886// 333 10041 21002 3/100 42002 55300 20000 30000 60017 85706 87709 96010
AAXX 20181 10439 12560 72104 10011 21001 39880 40104 52015 69942 85530 333 10012 21006 32101 41998 85621 85363
AAXX 20181 10453 11/90 92415 11031 21031 38719 48354 51004 60052 77174 333 11028 21069 3/107 49120 55300 91120 91216 96049 96036
AAXX 20181 10496 12575 81803 10017 21046 30010 40097 52003 60002 885// 333 10030 21010 31103 55300 20000 30000 88626
AAXX 20181 10499 12681 61904 11003 21052 39807 40104 53002 60002 83570 333 10015 21014 31103 55300 20000 30000 83646 85460
AAXX 20181 10505 01368 82707 10037 20026 39861 40146 52026 60032 70282 8682/ 333 10053 20016 32001 55300 20000 30000 69907 81809 86616
AAXX 20181 10513 01577 72703 10041 20029 30008 40131 52023 60072 70262 875// 333 10047 20001 3/000 44002 55300 20000 30000 69927 82623 87640
AAXX 20181 10532 17450 72203 10013 20012 39864 40117 52019 69982 71076 333 10013 21009 3/101 4/003 55300 20000 30000 87/14 87/33 87/56
AAXX 20181 10544 01/01 92804 11020 21020 39015 48391 52021 6///2 74974 333 11018 21053 3/105 48024 55300 69947 96045 96278 96277 96473 96436
AAXX 20181 10554 01480 82306 10003 21015 39701 40097 51013 69912 72272 875// 333 10010 21007 3/101 42001 55300 20000 30000 69907 82615 87630 96278 96473
AAXX 20181 10567 01462 82207 11009 21012 39717 40102 51010 60012 77172 875// 333 10002 21014 3/102 43003 55300 20000 30000 60017 87613 96473
AAXX 20181 10578 11/01 92410 11070 21077 38671 48370 53006 6///2 74974 333 11070 21089 3/109 49056 55300 20000 30000 96022
AAXX 20181 10609 01575 72703 10037 20019 39822 40157 53031 69982 70162 878// 333 10047 21002 31100 55300 20000 30000 69907 83825 87656
AAXX 20181 10616 01163 72904 10010 20003 39536 40148 53030 69942 72674 878// 333 10016 21010 3/101 42003 55300 69907 81803 83806 85613 96285
AAXX 20181 10641 07464 82203 10025 20018 39982 40132 53028 60032 70076 333 10027 21003 3/101 4/002 55300 69907 81/15 87/21 88/50
AAXX 20181 10655 01260 82401 10003 20001 39790 40126 53022 60032 72277 877// 333 10004 21013 3/102 43003 55300 20000 30000 69977 87705
AAXX 20181 10675 07438 81401 11002 21009 39826 40125 52017 69952 77175 333 10000 21012 3/101 55300 20000 30000 69937 88/12 88/26
AAXX 20181 10688 07456 61802 11022 21032 39589 40127 51015 69922 77776 333 11007 21023 3/103 55300 20000 30000 69917 81/12 85/17 86/50
AAXX 20181 10708 01570 72703 10024 20018 39766 40159 53030 60042 72186 875// 333 10031 21008 3/101 43005 55300 20000 30000 69907 83620 87638 96480 96463
AAXX 20181 10729 07545 81402 10013 20012 30026 40151 53030 60032 72276 333 10016 21005 3/101 4/003 55300 20000 30000 69927 85/25 87/37 88/58
AAXX 20181 10731 01465 72304 10037 20027 30001 40147 53026 60042 76087 878// 333 10037 21002 31100 55300 20000 30000 69907 83813 87645 96484
AAXX 20181 10742 07226 82704 10013 20009 39800 40138 53026 60062 75776 333 10014 21012 3/102 4/005 55300 20000 30000 69917 88/04
AAXX 20181 10776 01425 81502 11016 21022 39674 40131 52014 69992 77177 875// 333 11004 21028 37104 4/001 55300 20000 30000 69957 87610
AAXX 20181 10791 01/00 92307 11088 21096 38434 48385 53012 69902 77874 333 11085 21102 49087 55300 69907
AAXX 20181 10805 01480 81804 10036 20023 39968 40162 51027 60052 70362 888// 333 10038 20000 31100 55300 20000 30000 69937 81814 86627
AAXX 20181 10815 01125 82906 10001 20001 39196 48427 53028 60082 77177 887// 333 10001 21045 3/104 43035 55300 20000 30000 60017 87703 91114 96473
AAXX 20181 10836 01/90 92806 11010 21010 39252 40140 52025 60072 77174 333 11009 21042 37104 4/017 55300 20000 30000 60027 89/01 96049
AAXX 20181 10870 01215 82503 11005 21005 39586 40133 53014 60022 77377 8472/ 333 11005 21045 3/106 43004 55300 60017 84705 88512 96010
AAXX 20181 10895 01458 82001 11020 21035 39548 40135 51013 69902 77172 885// 333 11004 21051 3/107 43002 55300 20000 30000 69907 88618
AAXX 20181 10908 01/00 93213 11040 21041 38432 48432 51022 60062 77174 333 11037 21071 3/107 49060 55300 20000 30000 60027 89/01 91117 91213 96049 96036
AAXX 20181 10929 03475 72805 10020 20011 39615 40156 53024 60022 8//// 333 10020 21026 3/102 55300 20000 30000 69937 87/14 87/31 87/47
AAXX 20181 10948 07/11 /0203 10002 20001 39187 48426 52021 60122 77277 333 10004 21095 3/110 4/048 55300 20000 30000 60047
AAXX 20181 10961 11/01 93508 11132 21132 36962 47919 53019 60152 77374 333 11132 21185 49140 55300 20000 40985 91120 91212 96049
AAXX 20181 10962 01/03 92506 11018 21019 38966 48408 53018 60062 77374 333 11018 21057 3/107 48013 55300 20000 30000 60027 91113 96045
AAXX 20181 10980 11/01 92916 11069 21072 38046 48404 51017 60052 77174 333 11069 21119 3/111 48040 55300 20000 30000 91121 91217 96049
AAXX 20181 11816 12970 09901 11035 21075 39963 40133 52003 60002 333 10038
AAXX 20181 11826 12960 10000 11057 21083 39923 40132 52006 60002 81040 333 10030 81361
AAXX 20181 11903 12965 02801 11049 21063 39736 40132 52009 60002 333 10012
AAXX 20181 11934 12570 72902 11059 21077 39282 42723 53006 69902 875// 333 11018 42001 87623
AAXX 20181 11968 12775 83602 10008 21046 39829 40115 52006 60002 885// 333 10018 88650
BBXX PHCQ 20183 99258 70858 41597 81308 10263 20230 40177 58014 70282 884// 22273 00244 20504 3//// 4//// 5//// 80239
AAXX 20184 78073 12565 51011 10256 20174 40219 60001 82101 59011 82822 85072
AAXX 20181 01037 NIL
AAXX 20181 01046 11470 81901 11012 21019 30000 40007 52007 69952 70252 886// 333 11003 91103
AAXX 20181 01058 16/// /3203 11018 21027 39541 40006 52010 60002 333 11011 4/017 91105
AAXX 20181 01065 NIL
AAXX 20181 01092 NIL
AAXX 20181 01107 16/// /1806 10045 2//// 39984 49988 52006 60002 333 10046 91108
AAXX 20181 01114 NIL
AAXX 20181 01144 46/// /1306 10016 21025 333 10021 91108
AAXX 20181 01199 NIL
AAXX 20181 01245 NIL
AAXX 20181 01259 16/// /1705 10035 20009 39977 40000 50004 60012 333 10061 91109
AAXX 20181 01262 NIL
AAXX 20181 01278 11785 20000 11001 21012 39912 40016 52003 69942 70181 81802 333 10023
AAXX 20181 01293 16/// /1801 11054 21060 39813 40026 52003 69922 333 10011 91104
AAXX 20181 01329 NIL
AAXX 20181 01337 NIL
AAXX 20181 01344 16/// ///// 11092 21110 60002 333 11086 4/075
AAXX 20181 01364 NIL
AAXX 20181 01373 11989 00000 11143 21157 39868 40077 50006 69922 70100 333 11111 91101
AAXX 20181 01374 31989 10000 11160 21170 70200 80008 333 11105
AAXX 20181 01380 16/// /0102 11178 21195 6//// 333 11116 4/030 91104
AAXX 20181 01389 NIL
AAXX 20181 01393 NIL
AAXX 20181 01424 11450 8//// 11030 21047 30053 40057 51011 69972 77121 887// 333 11028
AAXX 20181 01431 16/// /0402 11083 21091 39380 40070 53006 60022 333 11083 91104
AAXX 20181 01436 NIL
AAXX 20181 01465 11575 70105 11001 21032 30032 40051 51004 60002 70222 875// 333 10000 91107
AAXX 20181 01471 11989 02702 11104 21125 60002 70100 333 11070 91104
AAXX 20181 01483 NIL
AAXX 20181 01121 46/// /1207 10026 21025 39984 49996 51009 333 10028 91110
AAXX 20181 01135 NIL
AAXX 20181 01143 16/// /2003 11058 21069 60002 333 11042 91105
AAXX 20181 01150 16/// /0000 11076 21099 60002 333 11059 91105
AAXX 20181 01192 NIL
AAXX 20181 01225 46/// /1506 10031 21012 39995 40000 54001 333 10058 91108
AAXX 20181 01230 16/// /0802 11186 21203 60002 333 11089 4/037 91104
AAXX 20181 01232 16/// /1704 11066 21105 39963 40045 52006 60002 333 11016 4/027 91110
AAXX 20181 01234 16/// /2104 11048 21063 60002 333 10008 91106
AAXX 20181 01253 NIL
AAXX 20181 01254 16/// /1501 11097 21108 6//// 333 11037 4/021 91104
AAXX 20181 01257 NIL
AAXX 20181 01277 NIL
AAXX 20181 01291 16/// /0000 11028 21034 60022 333 11028 4/024 91102
AAXX 20181 01332 16/// /0000 11051 21062 60002 333 11011 91103
AAXX 20181 01366 46/// /3101 11137 21156 38390 40068 54001 333 11123 91102
AAXX 20181 01370 NIL
AAXX 20181 01376 16/// /3102 11106 21123 60002 333 11063 91105
AAXX 20181 01383 46/// /0000 11190 21203 39749 40089 53010 333 11131 91101
AAXX 20181 01386 16/// ///// 11125 21140 60002 333 11089
AAXX 20181 01416 16/// ///// 10004 20004 60082 333 10026
AAXX 20181 01419 NIL
AAXX 20181 01430 16/// ///// 11008 21020 60002 333 11008
AAXX 20181 01434 16/// /0000 11141 21159 39068 40051 52002 60002 333 11138 91101
AAXX 20181 01455 NIL
AAXX 20181 01468 16/// /1101 11066 21074 60002 333 11065 91103
AAXX 20181 01470 16/// /0502 11077 21085 39942 40061 52007 60002 333 11054 4/006 91104
AAXX 20181 01476 NIL
AAXX 20181 01481 NIL
AAXX 20181 01488 NIL
AAXX 20181 01025 16/// /1401 10003 21011 39989 40000 52006 6//// 333 10013 91105
AAXX 20181 01052 16/// /0202 10003 21010 39909 40007 52010 60002 333 10020 91107
AAXX 20181 01122 16/// /2101 11043 21050 39921 40013 52009 60002 333 11034 91103
AAXX 20181 01132 16/// /0401 11049 21058 39620 40016 52005 60022 333 11043 4/040 91102
AAXX 20181 01156 NIL
AAXX 20181 01203 46/// /1910 10039 21001 39960 40009 53012 333 10040 91117
AAXX 20181 01233 16/// /0000 11152 21163 60002 333 11103 91102
AAXX 20181 01265 NIL
AAXX 20181 01273 NIL
AAXX 20181 01307 46/// /1006 10004 21007 30000 40028 53008 333 10031 91113
AAXX 20181 01321 NIL
AAXX 20181 01327 16/// /0901 11048 21060 60002 333 11043 91105
AAXX 20181 01350 16/// /2901 11175 21185 38616 40023 57003 60002 333 11175 91106
AAXX 20181 01361 16/// /0000 11223 21244 38999 40116 52001 60002 333 11138 91102
AAXX 20181 01375 NIL
AAXX 20181 01378 NIL
AAXX 20181 01385 16/// /3601 11115 21123 39784 40070 52006 60002 333 11069 91103
AAXX 20181 01412 16/// /0304 10003 21001 30016 40046 50022 60032 333 10028 91110
AAXX 20181 01422 NIL
AAXX 20181 01440 NIL
AAXX 20181 01441 NIL
AAXX 20181 01467 NIL
AAXX 20181 01469 NIL
AAXX 20181 01477 16/// /2901 11102 21110 69932 333 11043 4/019 91103
AAXX 20181 01480 16/// /3301 11068 21080 60002 333 11043 91106
AAXX 20181 01484 16/// /3001 11037 21047 39897 40057 53006 60002 333 11028 91102
AAXX 20181 01490 16/// /3401 11066 21071 60002 333 11006 91104
AAXX 20181 01495 16/// /3401 11010 21019 30039 40052 52006 60002 333 11009 91103
AAXX 20181 01015 NIL
AAXX 20181 01023 11689 80000 11045 21049 39908 40005 52008 60002 70322 8557/ 333 11038 91102
AAXX 20181 01033 NIL
AAXX 20181 01059 NIL
AAXX 20181 01089 16/// /2203 11033 21035 39879 49987 52008 6//// 333 11025 91106
AAXX 20181 01167 41988 21601 11027 21037 39990 49994 52007 70110 80008 333 11006 91103
AAXX 20181 01180 NIL
AAXX 20181 01210 41483 81705 10021 21017 39980 40007 53007 70272 8557/ 333 10025 91110
AAXX 20181 01228 NIL
AAXX 20181 01240 16/// /1707 10041 20015 39979 49999 52001 6//// 333 10055 91110
AAXX 20181 01304 46/// /1808 10032 20014 39989 40020 53012 333 10040 91115
AAXX 20181 01311 46/// /1401 11004 21008 39967 40030 53014 333 10016 91110
AAXX 20181 01340 NIL
AAXX 20181 01355 16/// ///// 11038 21070 30047 40052 53002 60002 333 10000
AAXX 20181 01360 NIL
AAXX 20181 01392 11972 13501 11095 21106 39830 40067 52006 60002 70200 80001 333 11073 91102
AAXX 20181 01406 NIL
AAXX 20181 01411 16/// /1602 10019 20012 30017 40043 51010 6//// 333 10035 91108
AAXX 20181 01425 NIL
AAXX 20181 01433 46/// /0000 11068 21102 38765 40047 50004 333 11068 91104
AAXX 20181 01442 NIL
AAXX 20181 01450 NIL
AAXX 20181 01452 11458 80402 11016 21026 30025 40047 52002 69952 77172 885// 333 11011 91103
AAXX 20181 01473 16/// /2701 11119 21129 39847 40067 51007 6//// 333 11068 91102
AAXX 20181 01494 16/// /3601 11035 21035 39986 40053 52004 60002 333 11027 91103
AAXX 20184 61901 169// /1312 10168 20153 39662 40170 55003 69902 91750 333 10197 8//99 555 7/090
AAXX 20184 61902 32584 31413 10254 20180 40134 333 10280 58006 82823
AAXX 20184 41170 42960 03603 10199 20163 30208 40221 333 10242 59003
AAXX 20184 07005 04/70 /3009 10068 20029 30100 40191 51021 69942 700// 333 10082 20067 60007 90710 91115 555 60005
AAXX 20184 07015 01584 82808 10045 20017 30119 40177 51022 69962 70286 82532 333 10077 20045 60007 82631 84364 88070 90710 91112 93100 555 60005
AAXX 20184 07020 02668 73112 10108 20062 30197 40224 51009 60002 8653/ 333 10111 20105 60007 86633 90710 91118 555 60005
AAXX 20184 07027 01580 72808 10081 20059 30134 40216 53013 69922 70186 8287/ 333 10104 20074 60007 81826 87360 90710 91112 93100 555 60005
AAXX 20184 07037 04985 83007 10065 20038 30018 40205 51019 69902 700// 333 10092 20065 60007 90710 91115 555 60005
AAXX 20184 07070 04670 83212 10053 20014 30072 40185 51028 69902 700// 333 10077 20053 60007 90710 91119 555 60005
AAXX 20184 07110 02575 72504 10074 20057 30131 40248 53007 69902 84801 333 10109 20074 60007 83821 87072 90710 91106 93100 555 60005
AAXX 20184 07117 02465 62711 10105 20064 30164 40235 51005 60002 85850 333 10111 20103 60007 90710 91119 92437 555 60005
AAXX 20184 07130 04682 82806 10095 20069 30185 40238 52018 69902 700// 333 10109 20086 69907 90710 91112 555 60005
AAXX 20184 07139 06/// /3105 10080 20046 30045 40221 53021 60002 333 10097 20077 60007 90710 91111 555 60005
AAXX 20184 07149 01570 73109 10077 20034 30093 40204 51027 69902 70286 8117/ 333 10092 20068 60007 81828 87363 90710 91116 93100 555 60005
AAXX 20184 07168 04/70 /3010 10052 20025 30051 40197 53029 69922 700// 333 10088 20048 60007 90710 91114 555 60005
AAXX 20184 07181 04469 82707 10028 20021 39758 40178 53027 60042 700// 333 10054 20006 60007 90710 91110 555 60005
AAXX 20184 07190 04682 82204 10044 20021 39973 40159 52027 60032 700// 333 10046 21003 60007 90710 91108 555 60005
AAXX 20184 07207 02562 33311 10109 20068 60002 83500 222// 327// 333 10118 20108 60007 90710 91118 92437 555 60005
AAXX 20184 07222 02670 63105 10085 20063 30212 40244 51019 60002 83531 333 10116 20085 60007 83643 83366 90710 91113 555 60005
AAXX 20184 07240 02780 72806 10084 20055 30087 40224 53018 60002 87530 333 10102 20084 60007 83650 87363 90710 91109 93100 555 60005
AAXX 20184 07255 04670 /3005 10078 20061 30014 40217 53025 60012 700// 333 10101 20073 69927 90710 91111 555 60005
AAXX 20184 07280 04505 71205 10017 20014 39916 40198 52027 69942 745// 333 10053 20002 69907 90710 91109 555 69905
AAXX 20184 07299 01770 42612 10029 20013 39835 40171 53025 69982 70261 84500 333 10033 21007 60007 84650 90710 91120 93100 555 60005
AAXX 20184 07314 06/// /3415 10110 20077 30230 40258 51027 60002 333 10122 20110 60007 90710 91120 555 60005
AAXX 20184 07335 04682 72805 10087 20067 30090 40237 51023 69962 700// 333 10106 20086 60007 90710 91113 555 60005
AAXX 20184 07434 04482 83005 10065 20048 39748 40236 51026 69942 700// 333 10090 20065 60007 90710 91114 555 60005
AAXX 20184 07460 02570 73208 10082 20034 39816 40209 53025 69922 875// 333 10103 20081 60007 81629 83633 85650 90710 91117 93100 555 60005
AAXX 20184 07471 04463 63010 10039 20021 39217 48804 51020 60022 761// 333 10054 20022 69947 90710 91119 555 69905
AAXX 20184 07481 01130 80902 10028 20021 39905 40202 53024 60072 71062 885// 333 10030 21004 60027 85703 87610 90710 91110 93100 555 60005
AAXX 20184 07510 01682 73105 10105 20072 30191 40257 52023 69962 70165 875// 333 10131 20105 69907 87646 90710 91110 93100 555 60005
AAXX 20184 07535 06/// /2906 10084 20073 39921 40238 53028 69982 333 10104 20084 60007 90710 91114 555 60005
AAXX 20184 07558 06/// /3118 10068 20045 39357 40200 51023 60042 333 10077 20039 60007 90710 91129 555 60005
AAXX 20184 07577 04/64 /0205 10041 20029 30101 40193 53023 69982 700// 333 10051 20003 69907 90710 91112 555 69905
AAXX 20184 07591 04/// /2301 11027 21034 39133 4//// 53007 60012 700// 333 11023 21082 69927 90710 91110 555 69905
AAXX 20184 07607 04569 83007 10110 20091 30194 40266 51027 60132 700// 333 10141 20081 60007 90710 91111 555 60005
AAXX 20184 07621 01345 83013 10093 20081 39834 40273 51031 60162 76365 885// 333 10116 20077 60077 84708 84620 88628 90710 91125 93100 555 60035
AAXX 20184 07627 06/// /2714 10095 20071 39760 40252 51029 60132 333 10117 20055 60027 90710 91123 555 60015
AAXX 20184 07630 01480 72910 10104 20078 30065 40247 53032 69982 70162 875// 333 10121 20085 69907 81616 87643 90710 91124 93100 555 60005
AAXX 20184 07643 02775 71002 10061 20029 30168 40178 50014 60002 81532 333 10084 20024 60007 81650 87075 90710 91105 555 60005
AAXX 20184 07650 04980 /3009 10059 20027 30129 40169 53014 69902 700// 333 10093 20026 60007 90710 91114 555 60005
AAXX 20184 07661 02870 53126 10117 20024 39968 40129 53030 69942 85010 333 10119 20049 60007 85456 91038 90710 91148 555 60005
AAXX 20184 07690 02970 33210 10057 21050 30086 40121 52018 60002 80002 333 10098 20031 60007 83073 90710 91114 93100 555 60005
AAXX 20184 07747 01570 73111 10133 20086 30141 40194 53025 6///2 72162 82542 333 10154 20087 69927 82630 85364 90710 91138 93100 555 69905
AAXX 20184 07761 01462 83013 10128 20072 30076 40087 56030 60162 72598 872// 333 10129 21001 60057 81918 84820 90710 91135 93100 555 69945
AAXX 20184 07790 01615 82205 10058 20036 30094 40109 56006 60032 76162 88802 333 10111 20024 60037 88646 88070 90710 91111 93100 555 69985
AAXX 20184 03005 11472 23013 10037 21012 39949 40050 53015 69902 70380 82901 91750 333 10048 55300 20000 82915 91024
AAXX 20184 03017 15581 /2807 10038 20016 30045 40077 53009 69922 91750 333 10047 55300 20000 84/23 86/60
AAXX 20184 03023 17560 /2505 10060 20040 30092 40097 55004 69962 781// 91750 333 10071 84/27 86/32
AAXX 20184 03026 17461 /2603 10032 20023 30077 40096 53006 60012 751// 91750 333 10046 55300 20000 81/15 86/39
AAXX 20184 03063 17663 /2104 10017 20005 39826 40108 50003 69922 781// 91750 333 10028 4/004 55300 20000 81/32 84/37 87/47
AAXX 20184 03066 15681 /2209 10039 20005 30094 40100 53005 60002 91750 333 10042 55300 20000 81/38 87/56
AAXX 20184 03075 17568 /2710 10020 20012 30042 40087 53012 60022 721// 91750 333 10028 84/22 83/56 85/68
AAXX 20184 03091 15981 /2408 10040 21011 30025 40106 52007 60002 91750 333 10046 55300 20000 88/58
AAXX 20184 03100 15362 /2404 10065 20058 30091 40107 55009 60022 91750 333 10066 55300 20000 82/09 87/20
AAXX 20184 03111 16580 /2006 10061 20047 30110 40122 58007 69922 91750 333 10076 82/20 85/40 85/50
AAXX 20184 03134 15681 /2105 10049 20036 30049 40122 58002 69902 91750 333 10059 55300 20000 86/30 86/49
AAXX 20184 03136 17471 /2412 10067 20051 30095 40128 58003 69962 723// 91750 333 10071 55300 20000 81/10 83/14 86/36
AAXX 20184 03162 17342 /1604 10026 20023 39852 40144 50001 69902 751// 91750 333 10031 55300 20000 84/08 85/20
AAXX 20184 03166 17474 /2207 10049 20030 30053 40124 50002 69902 723// 91750 333 10051 55300 20000 81/18 84/36 85/49
AAXX 20184 03171 11680 82707 10031 20011 30108 40120 53001 69902 7//62 8257/ 91750 333 10043 55300 20000 82640 88359
AAXX 20184 03204 11465 82509 10077 20057 30129 40149 58009 69902 76062 885// 91750 333 10078 55300 20000 83715 85628 88635
AAXX 20184 03240 15781 /2511 10050 20019 30103 40132 51009 60002 91750 333 10053 55300 20000 88/50
AAXX 20184 03257 15871 /2505 10048 20025 30110 40151 53011 60002 91750 333 10056 55300 20000 88/57
AAXX 20184 03292 169// /2805 10037 20015 30128 40146 50016 60002 91750 333 10052 86/59 87/66
AAXX 20184 03302 17662 /2213 10082 20068 30153 40166 58005 60012 781// 91750 333 10083 55300 20000 85/31 83/43 86/50
AAXX 20184 03354 15570 /2508 10057 20029 30029 40173 51010 60002 91750 333 10065 55300 20000 82/28 87/56
AAXX 20184 03377 12680 72504 10052 20025 30082 40168 52014 69922 82532 91750 333 10062 55300 20000 82633 83358 87070
AAXX 20184 03414 15782 /2005 10060 20032 30091 40181 52010 69902 91750 333 10071 55300 20000 86/50 86/66
AAXX 20184 03462 15880 /2608 10053 20027 30084 40175 53011 60002 91750 333 10064 55300 20000 87/57 85/70
AAXX 20184 03482 15768 /2708 10049 20030 30142 40168 53015 60002 91750 333 10059 83/50 86/59 87/70
AAXX 20184 03502 17659 /2106 10064 20058 30022 40186 57007 60012 761// 91750 333 10078 55300 20000 83/43 86/50
AAXX 20184 03535 15771 /2404 10061 20032 30060 40178 50007 69922 91750 333 10064 55300 20000 87/50
AAXX 20184 03590 12981 72607 10036 20022 30065 40177 53017 60002 8707/ 91750 333 10056 55300 20000 81362 87467
AAXX 20184 03649 12575 72403 10061 20034 30087 40189 52005 60002 8117/ 91750 333 10075 55300 2//// 81820 87359
AAXX 20184 03716 15680 /3002 10072 20045 30135 40196 50001 69902 91750 333 10083 55300 20000 87/48
AAXX 20184 03740 16769 /2406 10060 20037 30018 40198 53010 6///2 91750 333 10066 55300 2//// 88/56
AAXX 20184 03746 11672 82606 10059 20041 30045 40201 50010 69922 70262 885// 91750 333 10071 81630 88656
AAXX 20184 03772 15977 /2509 10063 20027 30161 40192 53013 69922 91750 333 10083 55300 20000 83/59
AAXX 20184 03796 46/// /2909 10053 20025 30041 40186 51020 91750 333 10070
AAXX 20184 03803 NIL
AAXX 20184 03808 11356 82507 10090 20084 30110 40217 58002 69922 75865 888// 91750 333 10101 55300 20000 84708 87620 88630
AAXX 20184 03809 11240 82708 10094 20091 30126 40219 58003 69922 75052 887// 91750 333 10101 81705 86708 88710
AAXX 20184 03827 15663 /2511 10094 20069 30151 40213 55002 60002 91750 333 10102 83/34 84/61 87/70
AAXX 20184 03840 15474 /2504 10064 20054 39898 40207 52007 69902 91750 333 10075 85/13 85/63
AAXX 20184 03853 15672 /2003 10066 20053 30182 40206 52009 69902 91750 333 10086 55300 20000 85/39 88/50
AAXX 20184 03874 46/// /2711 10078 20051 30191 40202 53010 91750 333 10088
AAXX 20184 03882 15969 /2704 10054 20027 30130 40195 51019 69922 91750 333 10076 55300 20000 87/58 87/70
AAXX 20184 03894 11581 73012 10098 20052 40226 53013 69902 72052 878// 333 10103 82820 83625 86656
AAXX 20184 03917 17659 /1809 10059 20049 30057 40134 57016 60012 762// 91750 333 10060 55300 20000 81/44 87/56
AAXX 20184 78970 11470 73508 10320 20223 30093 40118 69901 78082 84872 333 02299 10330 20228 59007 81816 83818 86078
BBXX 42362 20181 99278 70907 46/// /1808 10239 20206 40163 91745
BBXX 42039 20181 99288 70860 46/// /1510 10229 40172 58016 91750 22200 00227 10704 20704 70021 333 91212 555 11105 22112 31733 41513 61749 150097 152097 152098 148101 149098 147097 81511 91720
BBXX 41040 20181 99145 70530 46/// /0409 10269 20209 40130 56027 91750 22200 00279 10904 20804 3//// 40902 70022 333 91210 555 11095 22100 31655 40511 61749 044089 041088 041087 038092 036091 040092 80510 91656
BBXX VCRG 20184 99463 70623 46/// /3025 11028 21042 40057 53024 7//// 8//// 22243 00087 2////
AAXX 20181 14648 12670 13601 10032 21048 30004 40127 51011 60002 81500 333 10064 81646
AAXX 20181 14652 12989 02305 11102 21108 37811 48392 53003 60002 333 11102 49070
AAXX 20181 14542 11940 00000 11035 21044 39965 40164 51007 69972 71000 333 10025 44008 95990
AAXX 20181 76040 32960 43302 10148 20103 30164 40178 52005 84030 91745 333 10130 20056 30/// 56070 59002 84375 98660
AAXX 20181 76055 21570 83504 10118 20106 30140 40159 52009 76253 88700 91740 333 10184 20057 32/// 56600 59012 60027 88627
AAXX 20181 76113 32980 02101 10128 20052 39666 40150 57006 91745 333 10135 20044 30/// 59042
AAXX 20181 76122 32970 61403 10068 21006 38517 40198 52001 84052 91750 333 10074 21032 30/// 56099 58006 84358
AAXX 20181 76225 32760 70901 10088 21026 38618 40177 50003 87020 91745 333 10088 20008 30/// 56050 58022 87450
AAXX 20181 76256 32980 40000 10163 20072 30150 40164 52006 80008 91745 333 10171 20081 30/// 56//5 59065 84270
AAXX 20181 76305 32670 30601 10190 20078 30150 40158 52005 82430 91740 333 10196 20100 30/// 56440 59040 82650
AAXX 20181 76323 32970 10502 10108 21017 38248 40225 58006 80008 91755 333 10116 20011 30/// 58014
AAXX 20181 76342 32962 00603 10142 20035 39495 40216 52006 91750 333 10144 20090 30/// 58059
AAXX 20181 76373 32980 00000 10112 21063 38190 40131 52004 91750 333 10200 21050 30/// 58006
AAXX 20181 76390 31956 02307 10190 21042 38205 40119 57003 70544 91737 333 10200 20065 30/// 58013
AAXX 20181 76393 32640 10301 10190 20090 39570 40147 57001 81400 91750 333 10206 20140 30/// 56300 58053 81641
AAXX 20181 76402 31560 70202 10168 20096 30106 40164 52008 70544 87700 91745 333 10168 20056 30/// 56500 59040 87633
AAXX 20181 76458 32970 12402 10206 20153 30144 40148 52003 80001 91737 333 10232 20098 30/// 56//6 59010 81072
AAXX 20181 76471 32980 02306 10158 21071 37674 40132 54000 91750 333 10163 20011 30/// 58004
AAXX 20181 76491 32960 03603 10245 20145 39764 40156 57008 91750 333 10257 20147 30/// 58025
AAXX 20181 76525 32680 12112 10104 20019 37456 40142 52006 81100 91740 333 10105 20060 30/// 565// 58001 81835
AAXX 20181 76539 32970 02405 10197 20061 38148 40146 54000 91750 333 10250 30031 30/// 58004
AAXX 20181 76543 31570 13402 10265 20198 30110 40142 57015 70544 81100 91745 333 10265 20142 30/// 56300 59024 81834
AAXX 20181 76548 31472 62702 10256 20207 30124 40134 58001 70244 86400 91740 333 10262 20194 30/// 56300 59028 86618
AAXX 20181 76556 32970 00000 10232 20150 39111 40146 51005 91735 333 10240 20105 30/// 59010
AAXX 20181 76571 32680 11803 10200 20034 38159 40175 56005 81100 91750 333 10204 20050 30/// 56500 59001 81850
AAXX 20181 76577 32570 12306 10177 20131 38041 40159 50006 81400 91740 333 10187 20074 30/// 56500 59005 81628
AAXX 20181 76581 32975 03501 10250 20143 39016 40126 57017 91750 333 10256 20078 30/// 59015
AAXX 20181 76585 32980 02701 10230 20199 39965 40123 58005 91735 333 10240 20124 30/// 59025
AAXX 20181 76612 32662 30000 10228 20082 38467 40159 57003 83100 91750 333 10266 20070 30/// 56500 59006 83840
AAXX 20181 76625 32460 12702 10209 20068 38136 40121 57007 81100 91755 333 10211 20104 30/// 56100 59002 81818
AAXX 20181 76634 31670 11302 10216 20071 37841 40142 57011 70500 81100 91750 333 10220 20093 30/// 563// 59008 81834
AAXX 20181 76644 32465 51103 10294 20208 30119 40132 57022 85200 91750 333 10299 20199 30/// 86300 59036 85820 91007 91511
AAXX 20181 76654 31430 11403 10301 20207 30140 40144 57005 70544 81200 91751 333 10301 20222 30/// 56900 59009 81820
AAXX 20181 76658 31556 13203 10272 20175 39629 40135 56012 70540 81200 91747 333 10278 20170 30/// 56100 59002 81824 94022 98924
AAXX 20181 76662 31670 12302 10220 20110 38462 40161 57005 70542 81100 91735 333 10235 20052 30/// 56/00 59005 81833
AAXX 20181 76665 32964 22102 10216 20077 38118 40156 57005 70300 82200 91750 333 10268 20065 30/// 57812 59006 82823
AAXX 20181 76681 31950 00501 10190 20078 37774 40168 57018 70500 91745 333 10190 20032 30/// 50310 55080 59009 70000
AAXX 20181 76683 31668 10901 10194 20091 37820 40193 56012 70544 81100 91745 333 10200 20040 30/// 56200 58002 81840 9401094182
AAXX 20181 76685 32970 12101 10190 20024 37860 40153 57004 81100 91750 333 10192 20052 30/// 56900 59007 81827
AAXX 20181 76687 31570 10701 10266 20030 38655 40134 58002 70100 81100 91738 333 10270 20115 30/// 563// 59029 81830
AAXX 20181 76692 31456 10702 10260 20200 30095 40114 58008 70544 81200 91745 333 10277 20179 30/// 564// 59050 81817
AAXX 20181 76695 32960 01202 10296 20214 30113 40119 57018 91748 333 10300 20174 30/// 59037 91005 91513
AAXX 20181 76698 32560 61202 10298 20248 30130 40141 57011 86200 91750 333 10322 20199 30/// 56300 59035 86820
AAXX 20181 76737 31480 12902 10279 20124 38745 40110 58004 70300 81100 91735 333 10282 20121 30/// 56200 59029 81813 91111 91529
AAXX 20181 76743 31/58 01301 10280 20253 30102 40110 57014 70211 80000 1745 333 10290 20200 30/// 56000 59047
AAXX 20181 76750 32560 20903 10294 20231 30128 40138 57009 82100 91750 333 10301 20206 30/// 56200 59032 82820
AAXX 20181 76762 31504 13201 10272 20218 38753 40127 57009 81200 91742 333 10274 20158 30/// 56200 59007 81830
AAXX 20181 76773 31568 11801 10238 20076 38416 40165 57015 7050/ 81100 91745 333 10244 20041 30/// 56900 59006 81820
AAXX 20181 76775 31970 21801 10248 20092 38513 40154 57013 70100 82100 91740 333 10270 20084 30/// 56802 59017 81824
AAXX 20181 76805 32570 12302 10298 20212 30113 40118 58016 81100 91750 333 10315 20230 30/// 563// 29018 81830
AAXX 20181 76833 32970 01403 10294 20236 30113 40115 57012 91745 333 10294 30/// 58/// 59001
AAXX 20181 76840 32450 42303 10323 20219 30060 40115 57016 84200 91740 333 10355 30/// 569// 59011 84827
AAXX 20181 76843 32665 10801 10268 20153 39474 40119 57018 81100 91740 333 10284 20160 30/// 561// 59031 81822
AAXX 20181 76848 32970 02401 10265 20100 38370 40083 56009 91750 333 10266 20093 30/// 59015
AAXX 20181 76903 31680 33001 10315 20212 39988 40118 57015 70111 82200 91745 333 10322 20224 30/// 59009 83833
AAXX 20181 76160 32862 40501 10146 20034 39901 40153 52003 83052 91730 333 10146 20070 30/// 56049 59056 83357
AAXX 20181 76243 32473 73005 10110 20029 39893 40194 54000 87400 91735 333 10116 20062 30/// 56800 58065 87616
AAXX 20181 76311 32680 60000 10184 20067 39864 40150 56008 86400 91748 333 10186 20072 30/// 56500 59037 86625
AAXX 20181 76405 32880 12202 10204 20140 30142 40163 50006 81010 91750 333 10204 20087 30/// 56050 59031 81457
AAXX 20181 76412 31966 02201 10184 20098 30127 40173 52016 70544 91740 333 10188 20060 30/// 59001
AAXX 20181 76640 31358 43201 10238 20217 30122 40134 50000 70211 84200 91740 333 10252 20172 30/// 567// 59035 84809
AAXX 20181 76647 01570 60903 10298 20219 30115 40146 58017 69901 72122 85330 91750 333 10302 20206 32/// 563/0 59038 69907 81932 84832
AAXX 20181 76741 31458 11702 10264 20221 30067 40086 57007 70544 81200 91735 333 10270 20176 30/// 564// 59064 81818
AAXX 20181 76855 32980 02102 10320 20244 30063 40112 50001 91745 333 10322 20216 30/// 59014 92000
AAXX 20181 14528 NIL
AAXX 20181 14537 NIL
AAXX 20181 14544 NIL
AAXX 20181 14557 12960 00201 11041 21058 39784 40168 51006 69962 333 47005
AAXX 20181 14640 NIL
BBXX 46072 20181 99517 71722 46/// /2710 10021 21031 49992 53019 91750 22200 00045 11008 20807 3//// 41005 70041 333 91213 555 11108 22114 31709 42715 61749 272101 278110 271114 266111 266120 264120 82613 91709
BBXX 42362 20181 99278 70907 46/// /1807 10239 20206 40159 58010 91800
BBXX 42363 20181 99282 70892 46/// /1810 10239 20178 40169 58014 91800 333 91211
BBXX 42364 20181 99291 70881 46/// /1609 10228 20200 40173 58017 91800
BBXX 46082 20181 99597 71434 46/// ///// 10052 20052 40157 51026 91750 22200 00062 11106 70028
BBXX 46072 20181 99517 71722 46/// /2710 10021 21031 49992 53019 91750 22200 00045 11008 20807 3//// 41005 70041 333 91213 555 11108 22114 31709 42715 61749 272101 278110 271114 266111 266120 264120 82613 91709
BBXX 46035 20181 99571 71778 46/// /2908 1//// 49907 51013 91750 22200 11006 20603 300// 41005 70029 333 91210 555 11084 22089 31712 43211 61749 295084 306085 307092 310087 306082 303087 83210 91729
BBXX 46077 20181 99579 71543 46/// /1413 10028 20022 49982 56054 91750 22200 00055 10504 20504 3//// 40802 70019 333 91216 555 11138 22146 31700 41418 61749 143130 143131 145132 145141 145143 140142 81516 91712
BBXX 44007 20181 99435 70701 46/// /3306 11005 21131 40206 53012 91750 22200 00081 11101 20301 3//// 41101 70007 333 91208 555 11061 22063 31650 43410 61749 329059 329055 334063 341073 347055 344071
BBXX 51004 20181 99175 71524 46/// /0510 10220 20205 91750 555 11102 22108
BBXX 51002 20181 99171 71578 46/// /0610 10244 40133 53009 91750 22200 00251 333 91212 555 11108 22114 31726 40613 61749 060101 058104 060103 060097 063099 059100
BBXX 51100 20181 99236 71539 46/// /0610 10224 40201 53015 91750 22200 00233 10905 20704 311// 40903 70027 333 91212 555 11107 22113 31659 40612 61749 063098 064093 064092 064102 061102 058105
BBXX 46026 20181 99378 71228 46/// /1204 10106 40195 52008 91750 22200 00108 11205 20401 330// 41205 70023 333 91205 555 11043 22045 31722 42907 61749 118041 290046 290051 292047 291046 291040
BBXX 46041 20181 99474 71247 46/// /3307 10085 40275 52012 91750 22200 00082 11408 20502 3//// 41408 70040 333 91208 555 11073 22079 31746 43308 61749 329068 332066 332066 333062 343049 349041
AAXX 20181 11423 NIL
AAXX 20181 11487 02677 72602 11023 21053 39484 40124 52010 60002 8657/ 333 11005 41998 60005 86634 84359 87462
AAXX 20181 11518 02680 72102 11011 21051 39668 40119 52006 60002 875// 333 10010 43001 60005 84636 87656
AAXX 20181 11603 01775 61404 11016 21068 39620 40115 52002 69902 70171 84570 333 10001 47001 60005 84650 85357
AAXX 20181 11659 NIL
AAXX 20181 11723 02965 10402 11018 21060 39824 40131 52003 60002 80001 333 10016 60005 81075
AAXX 20181 11782 01956 02401 11057 21075 39817 40137 52004 60002 71000 333 10019 60005
AAXX 20181 76040 32960 43302 10148 20103 30164 40178 52005 84030 91745 333 10130 20056 30/// 56070 59002 84375 98660
AAXX 20181 76055 21570 83504 10118 20106 30140 40159 52009 76253 88700 91740 333 10184 20057 32/// 56600 59012 60027 88627
AAXX 20181 76113 32980 02101 10128 20052 39666 40150 57006 91745 333 10135 20044 30/// 59042
AAXX 20181 76122 32970 61403 10068 21006 38517 40198 52001 84052 91750 333 10074 21032 30/// 56099 58006 84358
AAXX 20181 76225 32760 70901 10088 21026 38618 40177 50003 87020 91745 333 10088 20008 30/// 56050 58022 87450
AAXX 20181 76256 32980 40000 10163 20072 30150 40164 52006 80008 91745 333 10171 20081 30/// 56//5 59065 84270
AAXX 20181 76305 32670 30601 10190 20078 30150 40158 52005 82430 91740 333 10196 20100 30/// 56440 59040 82650
AAXX 20181 76323 32970 10502 10108 21017 38248 40225 58006 80008 91755 333 10116 20011 30/// 58014
AAXX 20181 76342 32962 00603 10142 20035 39495 40216 52006 91750 333 10144 20090 30/// 58059
AAXX 20181 76373 32980 00000 10112 21063 38190 40131 52004 91750 333 10200 21050 30/// 58006
AAXX 20181 76390 31956 02307 10190 21042 38205 40119 57003 70544 91737 333 10200 20065 30/// 58013
AAXX 20181 76393 32640 10301 10190 20090 39570 40147 57001 81400 91750 333 10206 20140 30/// 56300 58053 81641
AAXX 20181 76402 31560 70202 10168 20096 30106 40164 52008 70544 87700 91745 333 10168 20056 30/// 56500 59040 87633
AAXX 20181 76458 32970 12402 10206 20153 30144 40148 52003 80001 91737 333 10232 20098 30/// 56//6 59010 81072
AAXX 20181 76471 32980 02306 10158 21071 37674 40132 54000 91750 333 10163 20011 30/// 58004
AAXX 20181 76491 32960 03603 10245 20145 39764 40156 57008 91750 333 10257 20147 30/// 58025
AAXX 20181 76525 32680 12112 10104 20019 37456 40142 52006 81100 91740 333 10105 20060 30/// 565// 58001 81835
AAXX 20181 76539 32970 02405 10197 20061 38148 40146 54000 91750 333 10250 30031 30/// 58004
AAXX 20181 76543 31570 13402 10265 20198 30110 40142 57015 70544 81100 91745 333 10265 20142 30/// 56300 59024 81834
AAXX 20181 76548 31472 62702 10256 20207 30124 40134 58001 70244 86400 91740 333 10262 20194 30/// 56300 59028 86618
AAXX 20181 76556 32970 00000 10232 20150 39111 40146 51005 91735 333 10240 20105 30/// 59010
AAXX 20181 76571 32680 11803 10200 20034 38159 40175 56005 81100 91750 333 10204 20050 30/// 56500 59001 81850
AAXX 20181 76577 32570 12306 10177 20131 38041 40159 50006 81400 91740 333 10187 20074 30/// 56500 59005 81628
AAXX 20181 76581 32975 03501 10250 20143 39016 40126 57017 91750 333 10256 20078 30/// 59015
AAXX 20181 76585 32980 02701 10230 20199 39965 40123 58005 91735 333 10240 20124 30/// 59025
AAXX 20181 76612 32662 30000 10228 20082 38467 40159 57003 83100 91750 333 10266 20070 30/// 56500 59006 83840
AAXX 20181 76625 32460 12702 10209 20068 38136 40121 57007 81100 91755 333 10211 20104 30/// 56100 59002 81818
AAXX 20181 76634 31670 11302 10216 20071 37841 40142 57011 70500 81100 91750 333 10220 20093 30/// 563// 59008 81834
AAXX 20181 76644 32465 51103 10294 20208 30119 40132 57022 85200 91750 333 10299 20199 30/// 86300 59036 85820 91007 91511
AAXX 20181 76654 31430 11403 10301 20207 30140 40144 57005 70544 81200 91751 333 10301 20222 30/// 56900 59009 81820
AAXX 20181 76658 31556 13203 10272 20175 39629 40135 56012 70540 81200 91747 333 10278 20170 30/// 56100 59002 81824 94022 98924
AAXX 20181 76662 31670 12302 10220 20110 38462 40161 57005 70542 81100 91735 333 10235 20052 30/// 56/00 59005 81833
AAXX 20181 76665 32964 22102 10216 20077 38118 40156 57005 70300 82200 91750 333 10268 20065 30/// 57812 59006 82823
AAXX 20181 76681 31950 00501 10190 20078 37774 40168 57018 70500 91745 333 10190 20032 30/// 50310 55080 59009 70000
AAXX 20181 76683 31668 10901 10194 20091 37820 40193 56012 70544 81100 91745 333 10200 20040 30/// 56200 58002 81840 9401094182
AAXX 20181 76685 32970 12101 10190 20024 37860 40153 57004 81100 91750 333 10192 20052 30/// 56900 59007 81827
AAXX 20181 76687 31570 10701 10266 20030 38655 40134 58002 70100 81100 91738 333 10270 20115 30/// 563// 59029 81830
AAXX 20181 76692 31456 10702 10260 20200 30095 40114 58008 70544 81200 91745 333 10277 20179 30/// 564// 59050 81817
AAXX 20181 76695 32960 01202 10296 20214 30113 40119 57018 91748 333 10300 20174 30/// 59037 91005 91513
AAXX 20181 76698 32560 61202 10298 20248 30130 40141 57011 86200 91750 333 10322 20199 30/// 56300 59035 86820
AAXX 20181 76737 31480 12902 10279 20124 38745 40110 58004 70300 81100 91735 333 10282 20121 30/// 56200 59029 81813 91111 91529
AAXX 20181 76743 31/58 01301 10280 20253 30102 40110 57014 70211 80000 1745 333 10290 20200 30/// 56000 59047
AAXX 20181 76750 32560 20903 10294 20231 30128 40138 57009 82100 91750 333 10301 20206 30/// 56200 59032 82820
AAXX 20181 76762 31504 13201 10272 20218 38753 40127 57009 81200 91742 333 10274 20158 30/// 56200 59007 81830
AAXX 20181 76773 31568 11801 10238 20076 38416 40165 57015 7050/ 81100 91745 333 10244 20041 30/// 56900 59006 81820
AAXX 20181 76775 31970 21801 10248 20092 38513 40154 57013 70100 82100 91740 333 10270 20084 30/// 56802 59017 81824
AAXX 20181 76805 32570 12302 10298 20212 30113 40118 58016 81100 91750 333 10315 20230 30/// 563// 29018 81830
AAXX 20181 76833 32970 01403 10294 20236 30113 40115 57012 91745 333 10294 30/// 58/// 59001
AAXX 20181 76840 32450 42303 10323 20219 30060 40115 57016 84200 91740 333 10355 30/// 569// 59011 84827
AAXX 20181 76843 32665 10801 10268 20153 39474 40119 57018 81100 91740 333 10284 20160 30/// 561// 59031 81822
AAXX 20181 76848 32970 02401 10265 20100 38370 40083 56009 91750 333 10266 20093 30/// 59015
AAXX 20181 76903 31680 33001 10315 20212 39988 40118 57015 70111 82200 91745 333 10322 20224 30/// 59009 83833
AAXX 20181 76160 32862 40501 10146 20034 39901 40153 52003 83052 91730 333 10146 20070 30/// 56049 59056 83357
AAXX 20181 76243 32473 73005 10110 20029 39893 40194 54000 87400 91735 333 10116 20062 30/// 56800 58065 87616
AAXX 20181 76311 32680 60000 10184 20067 39864 40150 56008 86400 91748 333 10186 20072 30/// 56500 59037 86625
AAXX 20181 76405 32880 12202 10204 20140 30142 40163 50006 81010 91750 333 10204 20087 30/// 56050 59031 81457
AAXX 20181 76412 31966 02201 10184 20098 30127 40173 52016 70544 91740 333 10188 20060 30/// 59001
AAXX 20181 76640 31358 43201 10238 20217 30122 40134 50000 70211 84200 91740 333 10252 20172 30/// 567// 59035 84809
AAXX 20181 76647 01570 60903 10298 20219 30115 40146 58017 69901 72122 85330 91750 333 10302 20206 32/// 563/0 59038 69907 81932 84832
AAXX 20181 76741 31458 11702 10264 20221 30067 40086 57007 70544 81200 91735 333 10270 20176 30/// 564// 59064 81818
AAXX 20181 76855 32980 02102 10320 20244 30063 40112 50001 91745 333 10322 20216 30/// 59014 92000
AAXX 20181 02741 17480 72206 10019 20004 30052 40067 52010 69952 70020 87/// 91739 333 10019 21001
AAXX 20181 02755 17450 71602 10001 20000 39939 40035 52016 69932 71072 87/// 91739 333 10001 21007
AAXX 20181 02805 17860 73602 11012 21018 39863 49996 52013 69932 72487 87/// 91739 333 11007 21017
AAXX 20181 02807 47583 82204 11052 21056 39823 40009 700// 88/// 91800 333 11052 21091
AAXX 20181 02836 17272 72402 11038 21041 39793 40019 52011 69922 70000 87/// 91739 333 11037 21045
AAXX 20181 02845 47056 82102 11018 21018 39771 40021 52013 71032 88/// 91739 333 11011 21018
AAXX 20181 02849 47599 72001 11021 21023 39746 40022 52011 70072 85/// 91739 333 11012 21021
AAXX 20181 02866 37171 81901 11008 21008 39883 40033 52014 70087 88/// 91739 333 10001 21010
AAXX 20181 02897 47282 80000 11003 21006 39860 40043 700// 88/// 91800 333 11002 21012
AAXX 20181 02913 47265 82004 10010 20004 39978 40030 777// 88/// 333 10015 20006
AAXX 20181 02917 47260 81803 10003 20000 39934 40058 761// 88/// 91800 333 10009 20000
AAXX 20181 02924 47246 81901 10001 20001 39849 40047 52017 77187 88/// 91739 333 10004 21005
AAXX 20181 02926 17357 82103 10013 20013 30033 40046 52007 60062 761// 88/// 91800 333 10024 20002
AAXX 20181 02935 17382 82002 10003 21002 39883 40058 52019 69952 72487 88/// 91739 333 10004 21002
AAXX 20181 02939 17232 82103 10001 20001 39877 40072 52020 60012 77187 88/// 91739 333 10008 20001
AAXX 20181 02944 47270 71904 10003 20003 39912 40060 761// 87/// 91800 333 10005 21003
AAXX 20181 02963 46/// /2102 10009 20002 40069 333 1//// 2////
AAXX 20181 02974 11280 72105 10016 20007 30023 40090 52013 69942 78381 8557/ 333 10018 20011 32///
AAXX 20181 02976 46/// /2405 10030 20026 30081 40097 52015 91739 333 10039 20017
AAXX 20181 02981 17581 52311 10043 20002 30069 40079 52009 69942 70084 85/// 91739 333 10044 20024
AAXX 20181 02982 46/// /2414 10043 20009 30077 40085 52011 91739 333 10048 20024
AAXX 20181 02947 NIL
AAXX 20181 02741 17480 72206 10019 20004 30052 40067 52010 69952 70020 87/// 91739 333 10019 21001
AAXX 20181 02755 17450 71602 10001 20000 39939 40035 52016 69932 71072 87/// 91739 333 10001 21007
AAXX 20181 02805 17860 73602 11012 21018 39863 49996 52013 69932 72487 87/// 91739 333 11007 21017
AAXX 20181 02807 47583 82204 11052 21056 39823 40009 700// 88/// 91800 333 11052 21091
AAXX 20181 02836 17272 72402 11038 21041 39793 40019 52011 69922 70000 87/// 91739 333 11037 21045
AAXX 20181 02845 47056 82102 11018 21018 39771 40021 52013 71032 88/// 91739 333 11011 21018
AAXX 20181 02849 47599 72001 11021 21023 39746 40022 52011 70072 85/// 91739 333 11012 21021
AAXX 20181 02866 37171 81901 11008 21008 39883 40033 52014 70087 88/// 91739 333 10001 21010
AAXX 20181 02897 47282 80000 11003 21006 39860 40043 700// 88/// 91800 333 11002 21012
AAXX 20181 02913 47265 82004 10010 20004 39978 40030 777// 88/// 333 10015 20006
AAXX 20181 02917 47260 81803 10003 20000 39934 40058 761// 88/// 91800 333 10009 20000
AAXX 20181 02924 47246 81901 10001 20001 39849 40047 52017 77187 88/// 91739 333 10004 21005
AAXX 20181 02926 17357 82103 10013 20013 30033 40046 52007 60062 761// 88/// 91800 333 10024 20002
AAXX 20181 02935 17382 82002 10003 21002 39883 40058 52019 69952 72487 88/// 91739 333 10004 21002
AAXX 20181 02939 17232 82103 10001 20001 39877 40072 52020 60012 77187 88/// 91739 333 10008 20001
AAXX 20181 02944 47270 71904 10003 20003 39912 40060 761// 87/// 91800 333 10005 21003
AAXX 20181 02963 46/// /2102 10009 20002 40069 333 1//// 2////
AAXX 20181 02974 11280 72105 10016 20007 30023 40090 52013 69942 78381 8557/ 333 10018 20011 32///
AAXX 20181 02976 46/// /2405 10030 20026 30081 40097 52015 91739 333 10039 20017
AAXX 20181 02981 17581 52311 10043 20002 30069 40079 52009 69942 70084 85/// 91739 333 10044 20024
AAXX 20181 02982 46/// /2414 10043 20009 30077 40085 52011 91739 333 10048 20024
AAXX 20181 02947 NIL
AAXX 20181 76040 32960 43302 10148 20103 30164 40178 52005 84030 91745333 10130 20056 30/// 56070 59002 84375 98660
AAXX 20181 76055 21570 83504 10118 20106 30140 40159 52009 76253 8870091740 333 10184 20057 32/// 56600 59012 60027 88627
AAXX 20181 76113 32980 02101 10128 20052 39666 40150 57006 91745 33310135 20044 30/// 59042
AAXX 20181 76122 32970 61403 10068 21006 38517 40198 52001 84052 91750333 10074 21032 30/// 56099 58006 84358
AAXX 20181 76225 32760 70901 10088 21026 38618 40177 50003 87020 91745333 10088 20008 30/// 56050 58022 87450
AAXX 20181 76256 32980 40000 10163 20072 30150 40164 52006 80008 91745333 10171 20081 30/// 56//5 59065 84270
AAXX 20181 76305 32670 30601 10190 20078 30150 40158 52005 82430 91740333 10196 20100 30/// 56440 59040 82650
AAXX 20181 76323 32970 10502 10108 21017 38248 40225 58006 80008 91755333 10116 20011 30/// 58014
AAXX 20181 76342 32962 00603 10142 20035 39495 40216 52006 91750 33310144 20090 30/// 58059
AAXX 20181 76373 32980 00000 10112 21063 38190 40131 52004 91750 33310200 21050 30/// 58006
AAXX 20181 76390 31956 02307 10190 21042 38205 40119 57003 70544 91737333 10200 20065 30/// 58013
AAXX 20181 76393 32640 10301 10190 20090 39570 40147 57001 81400 91750333 10206 20140 30/// 56300 58053 81641
AAXX 20181 76402 31560 70202 10168 20096 30106 40164 52008 70544 8770091745 333 10168 20056 30/// 56500 59040 87633
AAXX 20181 76458 32970 12402 10206 20153 30144 40148 52003 80001 91737333 10232 20098 30/// 56//6 59010 81072
AAXX 20181 76471 32980 02306 10158 21071 37674 40132 54000 91750 33310163 20011 30/// 58004
AAXX 20181 76491 32960 03603 10245 20145 39764 40156 57008 91750 33310257 20147 30/// 58025
AAXX 20181 76525 32680 12112 10104 20019 37456 40142 52006 81100 91740333 10105 20060 30/// 565// 58001 81835
AAXX 20181 76539 32970 02405 10197 20061 38148 40146 54000 91750 33310250 30031 30/// 58004
AAXX 20181 76543 31570 13402 10265 20198 30110 40142 57015 70544 8110091745 333 10265 20142 30/// 56300 59024 81834
AAXX 20181 76548 31472 62702 10256 20207 30124 40134 58001 70244 8640091740 333 10262 20194 30/// 56300 59028 86618
AAXX 20181 76556 32970 00000 10232 20150 39111 40146 51005 91735 33310240 20105 30/// 59010
AAXX 20181 76571 32680 11803 10200 20034 38159 40175 56005 81100 91750333 10204 20050 30/// 56500 59001 81850
AAXX 20181 76577 32570 12306 10177 20131 38041 40159 50006 81400 91740333 10187 20074 30/// 56500 59005 81628
AAXX 20181 76581 32975 03501 10250 20143 39016 40126 57017 91750 33310256 20078 30/// 59015
AAXX 20181 76585 32980 02701 10230 20199 39965 40123 58005 91735 33310240 20124 30/// 59025
AAXX 20181 76612 32662 30000 10228 20082 38467 40159 57003 83100 91750333 10266 20070 30/// 56500 59006 83840
AAXX 20181 76625 32460 12702 10209 20068 38136 40121 57007 81100 91755333 10211 20104 30/// 56100 59002 81818
AAXX 20181 76634 31670 11302 10216 20071 37841 40142 57011 70500 8110091750 333 10220 20093 30/// 563// 59008 81834
AAXX 20181 76644 32465 51103 10294 20208 30119 40132 57022 85200 91750333 10299 20199 30/// 86300 59036 85820 91007 91511
AAXX 20181 76654 31430 11403 10301 20207 30140 40144 57005 70544 8120091751 333 10301 20222 30/// 56900 59009 81820
AAXX 20181 76658 31556 13203 10272 20175 39629 40135 56012 70540 8120091747 333 10278 20170 30/// 56100 59002 81824 94022 98924
AAXX 20181 76662 31670 12302 10220 20110 38462 40161 57005 70542 8110091735 333 10235 20052 30/// 56/00 59005 81833
AAXX 20181 76665 32964 22102 10216 20077 38118 40156 57005 70300 8220091750 333 10268 20065 30/// 57812 59006 82823
AAXX 20181 76681 31950 00501 10190 20078 37774 40168 57018 70500 91745333 10190 20032 30/// 50310 55080 59009 70000
AAXX 20181 76683 31668 10901 10194 20091 37820 40193 56012 70544 8110091745 333 10200 20040 30/// 56200 58002 81840 9401094182
AAXX 20181 76685 32970 12101 10190 20024 37860 40153 57004 81100 91750333 10192 20052 30/// 56900 59007 81827
AAXX 20181 76687 31570 10701 10266 20030 38655 40134 58002 70100 8110091738 333 10270 20115 30/// 563// 59029 81830
AAXX 20181 76692 31456 10702 10260 20200 30095 40114 58008 70544 8120091745 333 10277 20179 30/// 564// 59050 81817
AAXX 20181 76695 32960 01202 10296 20214 30113 40119 57018 91748 33310300 20174 30/// 59037 91005 91513
AAXX 20181 76698 32560 61202 10298 20248 30130 40141 57011 86200 91750333 10322 20199 30/// 56300 59035 86820
AAXX 20181 76737 31480 12902 10279 20124 38745 40110 58004 70300 8110091735 333 10282 20121 30/// 56200 59029 81813 91111 91529
AAXX 20181 76743 31/58 01301 10280 20253 30102 40110 57014 70211 800001745 333 10290 20200 30/// 56000 59047
AAXX 20181 76750 32560 20903 10294 20231 30128 40138 57009 82100 91750333 10301 20206 30/// 56200 59032 82820
AAXX 20181 76762 31504 13201 10272 20218 38753 40127 57009 81200 91742333 10274 20158 30/// 56200 59007 81830
AAXX 20181 76773 31568 11801 10238 20076 38416 40165 57015 7050/ 8110091745 333 10244 20041 30/// 56900 59006 81820
AAXX 20181 76775 31970 21801 10248 20092 38513 40154 57013 70100 8210091740 333 10270 20084 30/// 56802 59017 81824
AAXX 20181 76805 32570 12302 10298 20212 30113 40118 58016 81100 91750333 10315 20230 30/// 563// 29018 81830
AAXX 20181 76833 32970 01403 10294 20236 30113 40115 57012 91745 33310294 30/// 58/// 59001
AAXX 20181 76840 32450 42303 10323 20219 30060 40115 57016 84200 91740333 10355 30/// 569// 59011 84827
AAXX 20181 76843 32665 10801 10268 20153 39474 40119 57018 81100 91740333 10284 20160 30/// 561// 59031 81822
AAXX 20181 76848 32970 02401 10265 20100 38370 40083 56009 91750 33310266 20093 30/// 59015
AAXX 20181 76903 31680 33001 10315 20212 39988 40118 57015 70111 8220091745 333 10322 20224 30/// 59009 83833
AAXX 20181 76160 32862 40501 10146 20034 39901 40153 52003 83052 91730333 10146 20070 30/// 56049 59056 83357
AAXX 20181 76243 32473 73005 10110 20029 39893 40194 54000 87400 91735333 10116 20062 30/// 56800 58065 87616
AAXX 20181 76311 32680 60000 10184 20067 39864 40150 56008 86400 91748333 10186 20072 30/// 56500 59037 86625
AAXX 20181 76405 32880 12202 10204 20140 30142 40163 50006 81010 91750333 10204 20087 30/// 56050 59031 81457
AAXX 20181 76412 31966 02201 10184 20098 30127 40173 52016 70544 91740333 10188 20060 30/// 59001
AAXX 20181 76640 31358 43201 10238 20217 30122 40134 50000 70211 8420091740 333 10252 20172 30/// 567// 59035 84809
AAXX 20181 76647 01570 60903 10298 20219 30115 40146 58017 69901 7212285330 91750 333 10302 20206 32/// 563/0 59038 69907 8193284832
AAXX 20181 76741 31458 11702 10264 20221 30067 40086 57007 70544 8120091735 333 10270 20176 30/// 564// 59064 81818
AAXX 20181 76855 32980 02102 10320 20244 30063 40112 50001 91745 33310322 20216 30/// 59014 92000
BBXX CGBN 20184 99447 70636 46/// /3124 11009 21087 40086 51020 7//// 8//// 22200 0//// 2////
BBXX VCWL 20184 99456 70735 46/// /2702 11046 21116 40226 58020 7//// 8//// 22200 0//// 2////
BBXX CG2350 20184 99433 70798 46/// /0503 11008 21050 40221 58026 7//// 8//// 22200 0//// 2////
BBXX CGJV 20184 99462 70631 46/// /3219 11030 21107 40081 53014 7//// 8//// 22200 0//// 2////
BBXX CGDG 20184 99447 70636 46/// /3224 11012 20014 40102 51023 7//// 8//// 22200 0//// 2////
BBXX VOKF 20184 99490 70669 46/// /2924 11086 21146 40134 51023 7//// 8//// 22200 0//// 2////
BBXX VOLG 20184 99476 70527 46/// /1902 11010 21035 49960 58034 7//// 8//// 22200 0//// 2////
BBXX VOPP 20184 99456 70735 46/// /2205 11052 21135 4//// 5//// 7//// 8//// 22200 0//// 2////
BBXX VAAZ 20184 99543 70528 46/// /0108 11053 21072 49988 56021 7//// 8//// 22232 0//// 2////
BBXX CGDR 20184 99492 71239 46/// /3011 10075 20074 40262 51004 7//// 8//// 22200 00113 2////
AAXX 20181 01367 16/// /3205 11172 21194 39617 40093 52003 6//// 333 11142 91107
AAXX 20181 01492 11487 30502 11051 21070 39933 40055 52007 60002 70300 83600 333 11008 91103
AAXX 20181 01028 11687 10606 11014 21049 30050 40070 52004 60002 70220 81500 333 10001 91108
AAXX 20181 01049 16/// /0201 10021 21020 30005 40008 52010 60002 333 10027 91106
AAXX 20181 01218 11989 21406 10011 21109 30002 40024 53003 60002 70300 80001 333 10021 91115
AAXX 20181 01397 16/// /1101 11156 21169 39614 40081 52009 60002 333 11058 91102
AAXX 20184 78958 11470 70610 10284 20233 30122 40132 71522 87841 333 10304 20233 58002 82818 86640
BBXX CZ9742 20184 99506 70969 46/// /2211 10004 21037 49988 50997 7//// 8//// 22200 0//// 2////
BBXX CG2958 20184 99517 71281 46/// /2905 10076 20047 40275 51014 7//// 8//// 22200 0//// 2////
BBXX VOKJ 20184 99512 70548 46/// /1711 11039 21057 49954 56024 7//// 8//// 22274 0//// 2////
BBXX VCBW 20184 99485 70689 46/// /2814 11090 21169 40184 50001 7//// 8//// 22213 00029 2////
BBXX CGDX 20184 99490 70669 46/// /2916 11083 21140 40143 51019 7//// 8//// 22200 0//// 2////
BBXX CGDT 20184 99468 70712 46/// /2407 11084 21162 40219 58013 7//// 8//// 22200 0//// 2////
BBXX CGTF 20184 99476 70527 46/// /1305 11017 21044 49963 58034 7//// 8//// 22200 0//// 2////
BBXX CG2960 20184 99423 70830 46/// /0507 10005 21028 4//// 5//// 7//// 8//// 22200 0//// 2////
BBXX CGSB 20184 99492 70681 46/// /3015 11095 21157 40160 51020 7//// 8//// 22200 0//// 2////
BBXX CGCC 20184 99460 70731 46/// /2207 11068 21148 40228 58016 7//// 8//// 22200 0//// 2////
BBXX 3FZK3 20184 99514 71354 46/// /2913 10069 20048 40256 51025 7//// 8//// 22233 0//// 2////
BBXX VRYO3 20184 99497 70067 46/// /0921 10111 20122 40221 51007 7//// 8//// 22264 00122 2////
BBXX CGUM 20184 99447 70636 46/// /3221 11009 21105 40102 53111 7//// 8//// 22200 0//// 2////
BBXX VOFG 20184 99456 70614 46/// /2929 11016 21061 40043 51013 7//// 8//// 22200 0//// 2////
AAXX 20184 78958 11470 70610 10284 20233 30122 40132 71522 87841 333 10304 20233 58002 82818 86640
BBXX VXKF 20184 99462 70602 46/// /2918 11012 21070 40000 53054 7//// 8//// 22244 0//// 2////
BBXX CGJK 20184 99484 71234 46/// /3606 10088 20067 40263 51008 7//// 8//// 22200 0//// 2////
BBXX VCLM 20184 99501 70644 46/// /3128 11079 21134 40035 52044 7//// 8//// 22263 00016 2////
BBXX VAAP 20184 99446 70636 46/// /2905 11003 21104 40091 51017 7//// 8//// 22200 0//// 2////
BBXX CG2965 20184 99487 71235 46/// /2505 10067 20056 40267 51012 7//// 8//// 22200 0//// 2////
BBXX VCSZ 20184 99455 70735 46/// /2506 11047 21098 40222 58020 7//// 8//// 22200 0//// 2////
BBXX CGBY 20184 99487 71235 46/// /2504 10070 20059 40265 52012 7//// 8//// 22200 0//// 2////
BBXX C6SI6 20184 99318 11209 46/// /0908 10074 20065 40264 56005 7//// 8//// 22200 0//// 2////
BBXX CGBR 20184 99543 71303 46/// /1101 10048 20046 40234 51024 7//// 8//// 22200 0//// 2////
BBXX 41010 20181 99289 70785 46/// /1407 10219 40234 58025 91750 22200 00237 11003 20502 300// 41002 70016 333 91208 555 11070 22073
BBXX 41009 20181 99285 70802 46/// /1408 10227 20159 40226 58023 91750 22200 00246 11003 20503 300// 41002 70017 333 91210 555 11083 22087
BBXX 42057 20181 99168 70815 46/// /1011 10283 20213 40139 58022 91750 22200 00279 10804 20603 3//// 40803 70021 333 91213 555 11106 22113 31746 41013 61749 097106 093099 096103 092103 090102 092100 80911 91714
BBXX 44039 20181 99411 70727 46/// /3306 10054 21051 40222 91745 22200 00093 10201 70004 333 91207
AAXX 20184 68392 36/// /0604 10203 20118 30120 4//// 53008 333 10264 20203 91006 555
AAXX 20184 64500 12460 82406 10269 20234 30088 40101 60052 885// 333 10285 58008 83610 88650
AAXX 20184 60060 32956 00405 10176 20109 40249 53006 333 10201
AAXX 20184 60105 32960 33408 10130 20081 40285 53001 80002 333 10160 83070
AAXX 20184 60107 32965 02604 10109 20065 40284 50004 333 10157
AAXX 20184 60127 32960 00000 10125 20065 39680 40282 53002 333 10190
AAXX 20184 60141 32960 20000 10106 20058 39610 40286 53006 80002 333 10158 82073
AAXX 20184 60185 32965 00607 10172 20080 40271 53005 333 10195
AAXX 20184 60191 32970 23202 10158 20095 40264 53005 80002 333 10202 82073
AAXX 20184 60195 32965 22406 10110 21037 38577 48591 51003 80002 333 10151 82073 95500
AAXX 20184 60210 32570 22202 10120 21005 39077 48591 53005 80002 333 10153 82070
AAXX 20184 60220 32958 00208 10168 20114 40249 55000 333 10180
AAXX 20184 60265 32970 00202 10148 21050 38960 48584 53005 333 10171
AAXX 20184 60106 NIL
AAXX 20184 60190 NIL
AAXX 20184 60318 NIL
AAXX 20184 60285 32960 00210 10191 20086 40243 53011 333 10253
AAXX 20184 60340 32965 03404 10114 20034 40288 53009 333 10164
AAXX 20184 60096 32960 03514 10183 20144 40176 53001 333 10203
AAXX 20184 60155 32965 202// 10148 20093 40277 53011 80002 333 10170 82070
AAXX 20184 60156 15960 30209 10131 20092 40293 53013 69902 80002 333 10177 83070
AAXX 20184 60252 12960 02307 10180 20080 40250 53013 60002 333 10250 95800
AAXX 20184 60101 NIL
AAXX 20184 60115 NIL
AAXX 20184 60135 NIL
AAXX 20184 60150 NIL
AAXX 20184 60230 NIL
AAXX 20181 11812 36/// /3303 11038 21083 39412 42722 54000 333 11018
AAXX 20181 11813 12982 09901 11024 21079 39775 40136 52003 60002 333 10025
AAXX 20181 11816 12970 09901 11035 21075 39963 40133 52003 60002 333 10038
AAXX 20181 11819 36/// /3302 11026 21052 39911 40135 52007 333 10022
AAXX 20181 11826 12960 10000 11057 21083 39923 40132 52006 60002 81040 333 10030 81361
AAXX 20181 11841 12965 01202 11049 21070 39744 40136 53007 60002 333 10024
AAXX 20181 11855 12975 03101 11028 21050 39958 40130 52005 60002 333 10032
AAXX 20181 11856 36/// /0000 11028 21045 39800 40129 52006 333 10030
AAXX 20181 11858 12965 02703 11034 21052 39974 40132 52005 60002 333 10030
AAXX 20181 11867 12962 00201 11042 21066 39804 40133 51008 60002 333 10038
AAXX 20181 11880 12960 00000 11042 21049 39952 40131 53005 60002 333 10024
AAXX 20181 11900 16/// /0501 11032 21050 39787 40134 52009 60002 333 10029
AAXX 20181 11903 12965 02801 11049 21063 39736 40132 52009 60002 333 10012
AAXX 20181 11916 12989 13505 11121 21140 37837 48366 53002 60002 80001 333 11099 48046 81066 93598 444 26169 27096
AAXX 20181 11918 12960 09901 11099 21110 39288 42725 52006 69902 333 11020 43007
AAXX 20181 11927 12965 39901 11012 21034 39853 40122 52006 60002 80002 333 10031 83070
AAXX 20181 11930 12981 23403 11148 21162 37209 47863 52001 69912 80002 333 11116 48042 82060 93562 444 76205
AAXX 20181 11933 11/65 20000 11118 21131 38567 48385 53006 69902 70181 82500 333 11045 48040 817// 444 17//2
AAXX 20181 11934 12570 72902 11059 21077 39282 42723 53006 69902 875// 333 11018 42001 87623
AAXX 20181 11938 12970 10702 11080 21096 39030 42716 52006 69902 80001 333 11023 44016 81073
AAXX 20181 11952 16/// /3102 11051 21063 39273 42723 52005 69922 333 11016
AAXX 20181 11958 36/// /3405 11077 21088 38649 48383 52005 333 11067
AAXX 20181 11968 12775 83602 10008 21046 39829 40115 52006 60002 885// 333 10018 88650
AAXX 20181 11976 12563 53601 11002 21031 39850 40120 52002 69912 85500 333 10009 85630
AAXX 20181 11978 12670 83404 10011 21023 39979 40112 52005 60002 885// 333 10015 88646
AAXX 20181 11993 11656 89901 10001 21015 39897 40118 52004 69902 77172 885// 333 10012 43997 88633
AAXX 20184 63980 32482 30705 10282 20242 40116 60002 83202 333 10315 58000 83817 943// 91119
AAXX 20184 13600 11550 80000 10060 20029 30061 40114 52014 60072 76166 885// 333 10065 88623
AAXX 20184 13610 11440 80000 10020 21001 39675 40107 51007 60042 77177 885// 333 10040 88613
AAXX 20184 13611 11560 81412 10050 20035 39967 40059 52004 60112 70288 883// 333 10096 82923 86633
AAXX 20184 13619 11510 82204 11002 21002 39328 42724 54005 60052 76195 88?// 333 10022 88623
AAXX 20184 13622 11658 80000 10062 20050 30097 40105 52010 60162 70166 885// 333 10080 88633
AAXX 20184 13624 NIL
AAXX 20184 13625 NIL
AAXX 20184 13629 NIL
AAXX 20184 13601 11457 81402 10052 20037 39992 40094 53015 60052 76062 885// 333 10080 83616 85630
AAXX 20184 13602 NIL
AAXX 20184 13623 NIL
AAXX 20184 16045 NIL
AAXX 20184 16090 11958 22704 10000 21003 30051 40136 54000 60002 71011 82030 333 10066 82359 92600
AAXX 20184 16149 12970 70000 10030 21012 30113 40130 57007 60002 84031 333 10083 84360
AAXX 20184 16261 11560 22108 10028 20005 30064 40139 51005 60092 70261 82200 333 10080 55300 82830
AAXX 20184 16453 12597 60102 10114 20039 30102 40181 52002 60002 83450 333 10142 55300 83630 86359 555 0100/
AAXX 20184 16560 11458 82612 10118 20084 30133 40139 57034 60042 76066 8683/ 333 10118 82815 85630
AAXX 20184 16008 11430 80304 11058 21079 38430 48396 53001 69942 77177 887// 333 11056 43014 88710 92810 93197
AAXX 20184 16084 12970 52403 11004 21011 39968 40141 53003 60002 85040 333 10032 85360
AAXX 20184 16088 12960 10000 11018 21018 30019 40141 53001 60002 81030 333 10060 81359
AAXX 20184 16110 12998 00706 10030 21067 30127 40132 53000 60002 333 10086 555 0////
AAXX 20184 16134 11/00 92622 11046 21046 37721 48411 53003 60002 74941 333 11036 44004 89/00 92713 92845 95090 95190
AAXX 20184 16153 12599 20114 10062 21034 39839 40107 56001 60002 81502 333 10101 81630 555 0////
AAXX 20184 16158 12560 72002 10056 20050 30119 40126 55002 69962 82800 333 10076 82830 85640
AAXX 20184 16206 12782 51005 10068 20013 30110 40119 56011 60002 85070 333 10094 83356 83460
AAXX 20184 16219 42965 00816 11064 21119 38023 48422 56007 6///2 333 11058 43008 92843
AAXX 20184 16252 12765 10000 10004 21081 39181 42747 54000 60002 81030 333 10044 81356
AAXX 20184 16280 12898 31503 10084 20026 39909 40133 58010 60002 83050 333 10086 83358 555 0////
AAXX 20184 16310 12997 10203 10054 21065 39913 40140 51006 60002 81030 333 10096 81359 555 0////
AAXX 20184 16320 12460 12816 10060 20037 30121 40133 52014 60002 81100 333 10102 81815 555 0////
AAXX 20184 16325 12998 03109 10062 21001 30113 40128 52013 60002 333 10092 98070 555 0////
AAXX 20184 16360 12598 13111 10072 20015 39997 40134 52013 60002 81100 333 10096 81820 555 0////
AAXX 20184 16400 12498 42513 10098 20023 39878 40171 58002 60002 84100 333 10122 55300 84817 555 0545/
AAXX 20184 16420 12597 59903 10112 21019 30095 40161 51011 60002 85800 333 10134 82830 83636 555 0////
AAXX 20184 16429 11566 72702 10094 20044 30166 40177 57005 69922 70361 87800 333 10132 84825 85640
AAXX 20184 16470 12560 42807 10114 20057 39950 40188 54000 60002 84500 333 10122 55300 22/// 84630 95000
AAXX 20184 16480 12497 23306 10088 20030 30091 40153 51002 60002 82200 333 10142 82815 555 0////
AAXX 20184 16522 11496 83234 10130 20111 39860 40102 55020 60092 79562 883// 333 10136 55300 84812 83915 85625 555 0////
AAXX 20184 16539 11397 82940 10128 20123 30020 40134 57024 60082 70266 889// 333 10140 82808 82912 85815 555 0////
AAXX 20184 16550 11596 72213 10088 20082 39922 40104 57021 60022 76061 84820 333 10134 82830 84640 555 0////
BBXX DBLK 20181 99705 50081 41499 22303 11024 21053 49831 57009 70122 82500 22200 05017 ICE 18780
AAXX 20184 16021 NIL
AAXX 20184 16022 12986 03106 11092 21190 37741 48400 55002 60002 333 11090 48016 92835
AAXX 20184 16033 12962 52703 11090 21128 38712 48416 53005 60002 80008 333 11066 43020
AAXX 20184 16040 12965 30000 11056 21070 39197 42733 53002 60002 83001 333 11020 42998 92832
AAXX 20184 16052 11/01 90528 11166 21191 36510 47940 53007 69942 77174 333 11144 49999 89/01 93199 96045
AAXX 20184 16061 12982 42004 11008 21078 39282 42738 56001 60002 80002 333 10016
AAXX 20184 16098 12980 20000 10006 21044 30079 40132 53002 60002 80001 333 10072
AAXX 20184 16138 12880 50000 10004 21032 30122 40134 55002 60002 82056 333 10055 82358
AAXX 20184 16148 12970 43600 10024 20008 30120 40132 56001 60002 84030 333 10070 84359
AAXX 20184 16168 12480 71312 10040 21028 39360 42727 57019 60002 82231 333 10076 82810 84350
AAXX 20184 16172 12564 70000 10034 21019 39836 40141 56004 60002 83550 333 10062 83630 86358
AAXX 20184 16179 12881 71705 10016 21060 39438 42735 56001 60002 87030 333 10018 43009 87358 92852
AAXX 20184 16224 12568 81309 10050 21026 39800 40124 56020 60002 8357/ 333 10080 83630 86357
AAXX 20184 16232 12998 22108 10068 21040 30077 40131 52000 60012 80001 333 10096 555 0////
AAXX 20184 16245 12665 51205 10066 21026 30108 40135 57011 60002 82410 333 10098 82640 83458
AAXX 20184 16253 12970 10402 10034 21001 30132 40144 54000 60002 80001 333 10106
AAXX 20184 16258 11460 33208 11022 21036 39110 42727 52011 69922 70174 83500 333 11006 42010 83612
AAXX 20184 16263 NIL
AAXX 20184 16294 12598 22907 10078 21043 39951 40147 54000 60002 82100 333 10092 82820 555 0////
AAXX 20184 16337 12598 42315 10056 20002 39559 40138 52003 60002 84800 333 10072 82820 555 0////
AAXX 20184 16344 11/60 92712 11040 21040 38240 48431 51009 60042 74540 333 11038 43040 89/00 95090 95190
AAXX 20184 16434 12965 02509 10012 21014 38965 48461 53003 60002 333 10030 95000 95100
AAXX 20184 16450 12260 32905 10026 20026 39059 48514 52009 60002 81230 333 10048 81806 83356
AAXX 20184 16459 12662 22207 10088 20052 30139 40175 51011 60002 82400 333 10132 82640
AAXX 20184 16546 11450 82614 10134 20093 30109 40137 57029 60072 76166 889// 333 10134 82818 81920 85640
AAXX 20184 16564 11497 82518 10106 20064 39993 40135 58031 60032 76162 8487/ 333 10140 81815 84620 88357 555 0////
AAXX 20184 89642 40/// /2932 11008 21016 39776 49829 53006 333 03045 91043 91145
AAXX 20184 17600 12460 73106 10180 20133 30160 40169 51011 60002 85882 333 10226 20180 82616 84822 86075
AAXX 20184 17601 11950 63003 10153 20138 30134 40165 51012 60002 70611 80004 91750 333 10204 86075
AAXX 20184 17607 NIL
AAXX 20184 17609 11950 53204 10148 20137 30162 40166 52008 60002 71011 82082 333 10206 20148 82359 84075
AAXX 20181 89061 179// 00000 10032 20019 39916 49923 52006 60043 76166 333 91002 91104
AAXX 20184 78982 01575 70619 10289 20225 30115 4012057029 69941 70388 82238 333 59004 69927 82820 83358 87281
AAXX 20181 89061 179// 00000 10032 20019 39916 49923 52006 60043 76166 333 91002 91104
AAXX 20181 10488 01575 81703 10006 21050 39814 40101 53005 69902 77072 875// 333 10018 21032 31105 4/998 55300 20000 30000 41092 69907 87629
BBXX 44011 20181 99411 70666 46/// /3311 10066 20009 40159 53012 91750 22200 00094 10807 20806 3//// 41003 70035 333 91213 555 11119 22126 31715 41515 61749 325113 326114 327117 325125 326123 328119
BBXX 41046 20181 99238 70683 46/// /0707 10235 20152 40219 58019 91750 22200 00257 11206 20603 300// 41205 70029 333 91209 555 11078 22082 31722 40810 61749 073073 074072 081073 077069 079070 072064 80708 91737
BBXX 46089 20181 99459 71258 46/// /3406 10093 20090 40294 53009 91750 22200 00091 11508 20501 331// 41508 70042 333 91208 555 11065 22070 31747 43308 61749 338061 340050 341046 336054 339056 342059
AAXX 20184 43533 11459 73605 10277 20230 30101 40104 60001 70522 82208 333 59009 82818 87277
AAXX 20184 43555 11459 73607 10283 20243 30098 40101 60001 70522 82202 333 59010 82818 87077
AAXX 20184 43577 11464 73605 10273 20231 30106 40108 69901 70282 82248 333 59004 82818 87276
AAXX 20184 43588 11462 72708 10271 20255 30106 40108 60101 70282 83932 333 58000 82817 81918 86362
AAXX 20184 43599 11458 73205 10254 20242 30110 40112 60081 76186 8327/ 333 58002 83817 87460
AAXX 20181 45007 11557 70701 10184 20125 30169 40179 56009 69901 70362 84501 333 59032 81630 83645 85080
AAXX 20181 45032 36/// /0000 10160 20141 30163 40180 57001
AAXX 20181 45035 36/// /0701 10171 20132 30136 40178 54000
AAXX 20181 45039 36/// /0302 10166 20141 30163 40177 52001
AAXX 20181 45044 36/// /0103 10165 20139 30081 40176 57001
AAXX 20184 71805 01570 72920 10009 20008 39943 49952 55003 60032 72376 872// 333 10013 21051 42998 60017 87830 91033 90710 91133 93100 555 69905
AAXX 20184 81401 06/// /2802 10268 20237 30095 40101 60121 333 60077 58006 555 60005
AAXX 20184 81408 06/// /0306 10284 20238 30085 40093 60001 333 60007 58000 555 60005
AAXX 20184 43533 11459 73605 10277 20230 30101 40104 60001 70522 82208 333 59009 82818 87277
AAXX 20184 43555 11459 73607 10283 20243 30098 40101 60001 70522 82202 333 59010 82818 87077
AAXX 20184 43577 11464 73605 10273 20231 30106 40108 69901 70282 82248 333 59004 82818 87276
AAXX 20184 43588 11462 72708 10271 20255 30106 40108 60101 70282 83932 333 58000 82817 81918 86362
AAXX 20184 43599 11458 73205 10254 20242 30110 40112 60081 76186 8327/ 333 58002 83817 87460
AAXX 20181 45007 11557 70701 10184 20125 30169 40179 56009 69901 70362 84501 333 59032 81630 83645 85080
BBXX 51101 20181 99243 71621 46/// /0709 10231 20168 40210 55000 91750 22200 00239 10906 20503 309// 40905 70030 333 91210 555 11090 22096 31743 40710 61749 067084 063077 059081 059083 060076 058079
BBXX 46061 20181 99602 71468 46/// /2108 10046 40116 51020 91750 22200 00059 10904 20603 300// 40903 70021 333 91210 555 11085 22089 31749 42210 61749 213080 214074 209069 210059 201052 198054
BBXX 46083 20181 99582 71380 46/// /2909 10053 20008 40172 51033 91750 22200 00064 11306 20804 300// 41305 70032 333 91211 555 11098 22105 31701 42912 61749 289093 293094 288092 287094 286096 286100 82911 91701
BBXX 51000 20181 99235 71541 46/// /0610 10224 40198 53016 91750 22200 00231 10906 20704 311// 40904 70029 333 91212 555 11101 22107 31724 40613 61749 061097 065101 059104 062098 061100 062102
AAXX 20181 45032 36/// /0000 10160 20141 30163 40180 57001
AAXX 20181 45035 36/// /0701 10171 20132 30136 40178 54000
AAXX 20181 45039 36/// /0302 10166 20141 30163 40177 52001
AAXX 20181 45044 36/// /0103 10165 20139 30081 40176 57001
BBXX 44060 20181 99413 70721 46/// ///04 10053 40209 57003 91800 22200 00101 333 91206 555 11046 22046
BBXX 44008 20181 99405 70692 46/// /3509 10068 20017 40189 51008 91750 22200 00115 333 91211 555 11095 22099 31654 43612 61749 347091 346085 346087 345091 350088 346092
BBXX 44172 20181 99445 70634 46/// ///// 1//// 91801 22200 00064 10803 20803 319// 41101 70014
AAXX 20184 61970 16/// ///// 10271 20204 40116 60002 333 10321 58005 555 60005
AAXX 20184 61972 16/// /2011 10252 20215 40101 60142 333 10301 59019 90710 91122 555 60005
AAXX 20184 61980 12560 21108 10255 20224 40136 60002 81830 333 10300 58002 81823 90710 91111 924/7 555 60005
AAXX 20184 67005 14/// /2606 10256 20229 40121 60102 700// 333 10314 58010 90710 91110 555 69905
BBXX 46232 20181 99325 71174 46/// ///// 1//// 91738 22200 00152 11503 20702 327// 41502 70014
BBXX 46247 20181 99378 71228 46/// ///// 1//// 91751 22200 00110 11005 21003 330// 41103 70024
BBXX 46243 20181 99462 71241 46/// ///// 1//// 91759 22200 00081 11505 21003 326// 41504 70025
BBXX 46236 20181 99368 71219 46/// ///// 1//// 91750 22200 00124 11404 21002 329// 41403 70021
BBXX 46229 20181 99438 71246 46/// ///// 1//// 91751 22200 00099 11305 21002 329// 41305 70027
BBXX 46225 20181 99329 71174 46/// ///// 1//// 91744 22200 00145 11402 20701 327// 41402 70010
BBXX 46215 20181 99352 71209 46/// ///// 1//// 91738 22200 00149 11504 21002 326// 41503 70018
AAXX 20181 01115 11884 81606 10033 21012 39970 49991 52008 60002 70222 8807/ 333 10035 91108
AAXX 20181 01367 11780 43205 11172 21194 39617 40093 52003 60002 70120 84030 333 11142 91107
AAXX 20181 01062 11456 80404 11041 21045 30075 40088 53005 60002 78582 888// 333 11024 91107
AAXX 20181 01205 46/// /2008 10034 20015 39959 40005 53011 333 10043 91114
AAXX 20181 01160 41789 80704 10027 21006 39979 49996 53007 70200 8801/ 333 10028 91105
AAXX 20181 01359 11889 20000 11166 21183 39120 40094 57001 69952 70300 82051 333 11116 91105
BBXX 46218 20181 99345 71208 46/// ///// 1//// 91802 22200 00140 11106 21004 331// 41104 70028
BBXX 44099 20181 99369 70757 46/// ///// 1//// 91752 22200 00114 11101 21001 308// 41101 70007
BBXX 46219 20181 99332 71199 46/// ///// 1//// 91758 22200 00138 11405 21003 330// 41404 70027
BBXX 46214 20181 99379 71235 46/// ///// 1//// 91755 22200 00118 11106 21004 331// 41104 70028
AAXX 20183 61701 32960 63208 10299 20116 40110 80006 333 10343 58006 83273 84074
AAXX 20183 61705 NIL
AAXX 20183 61707 NIL
AAXX 20183 61711 NIL
AAXX 20183 61712 NIL
AAXX 20183 61717 NIL
AAXX 20183 61720 NIL
AAXX 20183 61721 NIL
AAXX 20183 61722 NIL
AAXX 20183 61731 NIL
AAXX 20183 61733 32960 50000 10336 20096 4//// 84032 333 10356 5//// 83364 83075
BBXX 51204 20181 99213 71581 46/// ///// 1//// 91752 22200 00245 11303 20702 330// 41301 70014
BBXX 51202 20181 99214 71577 46/// ///// 1//// 91739 22200 00244 10905 20905 308// 41101 70026
AAXX 20184 48601 11559 70206 10261 20223 30079 40083 60001 70522 82532 333 82625 87077
AAXX 20184 48615 11556 73607 10243 20234 30087 40093 60021 76062 83532 333 83620 84364 87074
AAXX 20184 48620 11259 70902 10247 20242 30075 40084 69921 71096 83538 333 81704 84364 86276
AAXX 20184 48647 11040 70000 10250 20245 30060 40085 60001 71322 84941 333 81700 81917 83364 87078
AAXX 20184 48650 11460 70303 10242 20237 30065 40084 69901 71362 82942 333 81917 83364 87078
AAXX 20184 48657 11460 73402 10242 20234 30064 40082 60001 71022 83542 333 81710 83366 86078
AAXX 20184 48665 12564 73501 10246 20237 30078 40088 60001 82552 333 82628 85364 85078
AAXX 20184 96413 11460 72602 10252 20244 30037 40063 69961 76062 83961 333 81915 83620 86365
AAXX 20184 96421 12465 70101 10254 20245 30024 40060 60001 83531 333 83618 85365
AAXX 20184 96441 12468 70000 10256 20251 30033 40060 60001 82531 333 82616 84365 85080
AAXX 20184 96449 11465 70802 10253 20250 30041 40060 69921 70262 83531 333 83614 85365
AAXX 20184 96465 12470 72104 10271 20254 30026 40059 60001 85938 333 83810 81915 84364 87279
AAXX 20184 96471 12468 71103 10271 20248 30053 40056 60001 82848 333 81814 83364 87277
AAXX 20184 96481 12462 60000 10245 20233 30053 40072 60001 82841 333 81817 85080
AAXX 20184 96491 NIL
BBXX 44100 20181 99363 70756 46/// ///// 1//// 91752 22200 00118 11402 21001 308// 41402 70010
BBXX 41110 20181 99341 70777 46/// ///// 1//// 91751 22200 00144 11101 20501 311// 41101 70006
BBXX 42099 20181 99273 70842 46/// ///// 1//// 91757 22200 00231 10704 20704 70019
BBXX 41113 20181 99284 70805 46/// ///// 1//// 91751 22200 00212 10502 20502 309// 41101 70012
AAXX 20181 06206 47568 73211 10071 20008 30063 40116 51026 75880 8//// 333 10085 82/20 84/24 86/30 91014 91119 91214
AAXX 20181 06207 47564 3//13 10063 20016 30051 40105 51033 70186 8//// 333 10071 81/22 83/73 91016 91122 91218
AAXX 20181 06239 45569 1//11 10076 20019 3//// 4//// 5//// 8//// 333 10080 81/28 91014 91119 91216
AAXX 20181 06252 46/// /3210 10077 20015 30090 40136 53028 222// 00095 10706 333 10085 91013 91119 91216
AAXX 20181 06260 17568 83004 10063 20025 30128 40130 51027 69972 72385 8//// 333 10083 81/31 84/42 87/47 91006 91110 91205
AAXX 20181 06270 17562 63107 10063 20039 30100 40100 51035 60022 70186 8//// 333 10072 82/25 85/28 86/36 91010 91118 91212
AAXX 20181 06290 17462 82807 10060 20044 30058 40099 53030 60012 72385 8//// 333 10070 83/10 87/13 88/16 91012 91114 91209
AAXX 20181 06201 47570 23111 10075 20021 30070 40123 51023 70380 8//// 333 10083 81/28 91013 91122 91217
AAXX 20181 06203 47569 7//07 10077 20020 30094 40145 51022 70380 8//// 333 10086 81/22 83/50 87/72 91009 91116 91212
AAXX 20181 06204 47576 73111 10076 20011 30080 40131 51029 70380 8//// 333 10085 82/27 83/34 87/70 91013 91118 91215
AAXX 20181 06205 47567 3//08 10070 20017 30031 40090 51020 70180 8//// 333 10079 81/23 83/32 91011 91116 91214
AAXX 20181 06208 47565 43214 10077 20027 30039 40088 51040 72385 8//// 333 10082 81/26 83/40 91017 91120 91217
AAXX 20181 06211 47578 43012 10074 20006 30073 40129 51023 703// 8//// 333 10084 82/29 83/33 91014 91121 91217
AAXX 20181 06212 45575 53212 1//// 2//// 30070 40133 52029 8//// 333 1//// 82/29 85/71 91014 91120 91217
AAXX 20181 06235 15565 83208 10071 20026 30123 40123 51032 69942 8//// 333 10082 82/25 83/30 85/44 91012 91117 91211
AAXX 20181 06240 17666 63107 10065 20028 30137 40132 51028 60012 72385 8//// 333 10081 86/46 91009 91115 91210
AAXX 20181 06251 17562 73209 10071 20038 30106 40107 53035 60012 70385 8//// 333 10077 83/20 85/24 87/47 91014 91120 91213
AAXX 20181 06258 46/// /3010 333 91011 91117 91212
AAXX 20181 06269 17964 63005 10057 20032 30125 40119 51029 69912 70385 8//// 333 10073 86/68 91008 91114 91209
AAXX 20181 06280 17459 83108 10060 20044 30085 40089 53038 60062 78085 8//// 333 10069 81/16 84/22 85/26 91011 91114 91209
AAXX 20181 06310 17969 43006 10064 20026 30151 40161 51025 69942 70186 8//// 333 10079 81/62 84/72 91011 91112 91208
AAXX 20181 06344 17568 83206 10066 20027 30149 40142 52027 60012 72385 8//// 333 10084 81/33 83/38 87/48 91009 91116 91209
AAXX 20181 06370 17568 72504 10047 20032 30114 40140 51026 60022 72385 8//// 333 10076 81/25 86/43 87/48 91005 91114 91207
AAXX 20181 06380 17565 82603 10044 20032 30009 40151 51026 60022 70385 8//// 333 10062 82/25 85/28 88/32 91005 91109 91206
AAXX 20184 91487 NIL
AAXX 20184 91490 NIL
AAXX 20184 91533 NIL
AAXX 20184 91601 NIL
AAXX 20184 91610 11599 21118 10263 20223 40065 53008 60001 70200 82100 333 562//
AAXX 20184 91623 NIL
AAXX 20184 91629 NIL
AAXX 20184 91701 NIL
BBXX 41041 20181 99142 70460 46/// /1006 10266 20216 40127 58023 91750 22200 00267 10804 20502 3//// 40803 70018 333 91207 555 11061 22065 31703 41007 61749 096057 096058 096059 097058 097059 098056 81006 91721
AAXX 20181 37682 32997 63401 11068 21072 38207 48611 57004 86030 333 11010
AAXX 20181 37717 325// 62001 11024 21088 38144 48569 57004 83530 333 10021
AAXX 20181 37788 11395 60000 11031 21051 39322 40372 57002 6990/ 71022 866// 333 11018 86709
AAXX 20184 91487 NIL
AAXX 20184 91490 NIL
AAXX 20184 91533 NIL
AAXX 20184 91601 NIL
AAXX 20184 91610 11599 21118 10263 20223 40065 53008 60001 70200 82100 333 562//
AAXX 20184 91623 NIL
AAXX 20184 91629 NIL
AAXX 20184 91701 NIL
AAXX 20181 06400 12575 73106 10069 20012 30165 40176 51019 69902 81572 333 10085 81625 83462 87072 91113 91209
AAXX 20181 06428 NIL
AAXX 20181 06451 11468 72905 10051 20027 30094 40162 52024 60012 78081 878// 333 10072 84814 85629 91112 91208
AAXX 20181 06456 11470 73005 10036 20020 39798 40171 51027 60032 70282 875// 333 10056 81713 87622 91111 91207
AAXX 20181 06476 17036 8//// 10012 20005 39490 40165 51029 60072 71065 333 10023 88/01 911// 912//
AAXX 20181 06479 11568 72802 10041 20031 30070 40151 52027 60022 78081 878// 333 10062 81826 83636 85647 91108 91204
AAXX 20181 06490 17150 83104 10019 20011 39576 40156 51026 60082 71063 333 10030 88/02 91111 91206
AAXX 20181 06590 11375 72803 10026 20019 39698 40158 52031 60012 70381 878// 333 10037 41001 82708 84812 87656 91109 91205
AAXX 20181 06407 12568 73108 10064 20011 30166 40172 51021 69982 82572 333 10078 82628 87072 91112 91209
AAXX 20181 06447 NIL
AAXX 20184 78962 11460 70313 10257 20222 30126 40134 60011 71582 85962 333 06199 10274 20226 58001 82910 85640 90935
AAXX 20184 91574 46/// ///// 29097 39914 49920 53022
AAXX 20184 91570 NIL
AAXX 20184 91598 NIL
AAXX 20181 03951 17/08 92510 10110 20108 30153 40179 57010 60042 781// 333 10111 89/03
AAXX 20181 03953 11257 82508 10115 20111 30145 40181 55001 60072 75865 886// 333 10117 88704 92436
AAXX 20181 03955 11280 72306 10095 20094 39971 40168 57017 69902 70252 876// 333 10095 81703 87704
AAXX 20181 03956 17131 /2204 10089 20084 30093 40170 57015 60022 7626/ 88/// 333 10089 88/02
AAXX 20181 03962 11226 82407 10101 20099 30122 40146 57020 60032 75165 886// 333 10103 81703 83704 87705
AAXX 20181 03963 17223 /2612 10107 20101 30098 40126 55018 60042 75286 88/// 333 10108 88/03
AAXX 20181 03966 17260 /2004 10086 20081 30048 40141 57025 60032 75286 88/// 333 10086 81/05 83/07 87/12
AAXX 20181 03967 11458 82106 10075 20065 30032 40146 58017 60032 76165 8257/ 333 10076 81715 88557
AAXX 20181 03969 11467 81804 10069 20063 30048 40153 58015 60022 76166 885// 333 10071 81712 86628 87657
AAXX 20181 03973 11/03 92005 10081 20081 39864 40118 57023 60082 76365 333 10081 89/02
AAXX 20181 03976 NIL
AAXX 20181 03980 17458 /1906 10065 20058 30086 40111 55018 6//// 75251 88/// 333 10078 84/19 88/41
AAXX 20184 91573 06/// /0616 10233 20223 39990 40087 55001 60151 333 59001 60067
AAXX 20184 91577 06/// /0000 10217 20198 30068 40089 53005 60031 333 59001 69967
AAXX 20184 91579 06/// /1008 10223 20209 30094 40102 55009 60161 333 59002 60027
AAXX 20184 91582 04570 81501 10218 20210 30071 40106 55004 69962 700// 333 10254 20218 69967 90710 91104 555 69925
AAXX 20184 91583 06/// /1602 10213 20205 30093 40108 55002 60141 333 58004 60057
AAXX 20184 91587 06/// /2402 10195 20182 30065 40111 53003 60001 333 59002 60007
AAXX 20184 91590 04986 83602 10214 20180 30072 40115 53007 6///2 700// 333 1//// 2//// 60007 90710 91105 555 60005
AAXX 20184 91592 06/// /0708 10230 20187 30033 40118 53009 60001 333 58003 60007
AAXX 20184 91596 06/// /0702 10224 20196 30013 40122 53010 60001 333 58005 60007
BBXX DBBH 20181 99362 70107 41498 10208 10150 20089 40319 52007 70111 81130 22252 04180 20502
AAXX 20181 06431 NIL
AAXX 20181 06432 NIL
AAXX 20181 06449 12470 72703 10039 20020 39937 40169 52023 60022 83832 333 10062 82818 86070 91110 91206
AAXX 20181 06450 11570 72906 10058 20028 30139 40155 51025 69972 70282 878// 333 10082 82827 86630 91114 91209
AAXX 20181 06458 NIL
AAXX 20181 06465 NIL
AAXX 20181 06478 11461 72805 10040 20021 39934 40157 52026 60032 78082 868// 333 10060 83817 85640 91110 91206
AAXX 20181 06496 NIL
AAXX 20181 37989 42596 80000 10075 20053 40294 57008 885// 333 10109
AAXX 20181 37985 41495 83401 10069 20058 30307 40292 58005 71022 886// 333 10093
AAXX 20181 37851 41395 82303 10079 20059 30206 40278 57011 71022 885// 333 10087
AAXX 20181 37925 41597 80901 10062 20036 30315 40286 57023 69902 75155 886// 333 10075 555 63006
AAXX 20181 37661 42998 03001 10020 21011 39508 40287 57011 333 10068
AAXX 20181 37905 42596 00000 10017 20003 40288 57012 333 10092
AAXX 20181 37675 42995 60000 10034 20005 39535 40202 57009 86008 333 10109 555 53004
AAXX 20181 37735 42697 80000 10031 21001 39829 40212 57010 885// 333 10083
AAXX 20181 37749 41596 82701 10069 20049 30194 40312 57009 71022 885// 333 10092 555 53005
AAXX 20181 37864 32697 81509 10077 20056 40275 57011 885// 333 10100 88623
AAXX 20181 37740 42596 82500 10031 20014 39470 40293 57001 885// 333 10080
AAXX 20184 89532 42/70 20507 11014 21031 39778 49805 56035 82502
AAXX 20181 11659 02965 01102 11037 21072 39469 40130 52005 60002 333 11002 60005
AAXX 20184 84455 31460 81603 10278 20217 39820 40172 70222 8453/ 333 5600/ 84615 86458
AAXX 20184 84452 31660 71712 10242 20186 30086 40116 70122 8257/ 333 5600/ 59004 82640 85360
AAXX 20184 84658 31462 52804 10313 20238 39853 40075 70122 852// 333 560// 58004 85813
AAXX 20184 84773 31965 01311 10246 20142 30105 40130 70111 333 58002
AAXX 20184 84401 21660 42005 10280 20194 30063 40107 70122 8153/ 333 5600/ 58000 69994 81640 83360
AAXX 20184 84673 31665 82802 10218 20090 37342 70228 83120 333 56990 58010 83846 86460
AAXX 20184 84686 31765 69905 10176 20032 36866 70222 8353/ 333 56990 59005 83650 83360
AAXX 20184 84735 31560 4//// 10170 20044 36431 70222 84500 333 56900 58003 84630
AAXX 20184 84534 21458 8//// 10234 20209 39390 40109 7586/ 8572/ 333 5699/ 58010 60071 85715 88458
AAXX 20184 84474 21558 80000 10234 20227 39792 7505/ 887// 333 569// 58045 65414 88720
AAXX 20184 84542 31670 83510 10190 20086 37343 7022/ 8454/ 333 5699/ 580187 84640 84462
AAXX 20184 84782 31962 02210 10256 20150 39607 40102 70220 333 58003
AAXX 20184 84720 31960 22804 10340 20217 39481 40147 70200 80001 333 56009 58007 82070
AAXX 20184 84691 31330 83008 10210 20181 30109 40116 71044 886// 333 560// 58003 83710 85713
AAXX 20181 01015 46/// /1605 10029 20005 333 10029 91108
AAXX 20181 01033 46/// /0705 10040 21006 39969 40000 52005 333 10044 91109
AAXX 20181 01228 46/// /1705 10035 21003 39992 49999 50001 333 10049 91107
AAXX 20181 01340 16/// /1402 11076 21113 39159 40055 54001 60002 333 11064 91107
AAXX 20181 01406 46/// /3209 10050 20020 30009 40027 53019 333 10057 91118
AAXX 20181 01425 16/// /2601 11014 21018 39969 40050 53011 60042 333 11010 91102
AAXX 20181 01442 11X50 93405 11046 21067 39794 40059 52002 60002 77072 333 11039 91108
AAXX 20181 01135 16/// /1001 11028 21035 39858 40013 52009 60002 333 11021 91102
AAXX 20181 01192 16/// /2401 10000 21033 60002 333 10001 4/006 91102
AAXX 20181 01253 16/// /1704 11097 21116 60002 333 11019 4/034 91106
AAXX 20181 01257 11984 01902 11026 21047 39852 40016 54000 60002 70100 333 10012 91105
AAXX 20181 01370 16/// /2101 11140 21156 38928 40163 54001 60002 333 11094 4/026 91103
AAXX 20181 01419 16/// /0301 11012 21015 60062 333 11001 91104
AAXX 20181 01455 16/// /0000 11054 21067 39741 40061 52004 60002 333 11044 91103
AAXX 20181 01481 16/// /0101 11057 21069 30023 40056 51006 60002 333 11025 91103
AAXX 20181 01156 16/// /0904 10021 21005 39983 49992 53006 60002 333 10022 91106
AAXX 20181 01265 16/// /3001 11222 21246 39462 40098 52003 69942 333 11115 91102
AAXX 20181 01273 16/// /0000 11063 21074 39823 40025 54001 60002 333 10000 91103
AAXX 20181 01375 16/// /1702 11102 21121 6//// 333 11080 91103
AAXX 20181 01378 16/// /0201 11130 21146 39758 40067 52006 60002 333 11086 91105
AAXX 20181 01422 16/// /1103 10006 21008 60022 333 10025 91107
AAXX 20181 01469 16/// /3201 11081 21099 39885 40064 50006 60002 333 11053 91103
AAXX 20181 01059 11789 23405 10000 21013 39995 40004 52013 69902 70110 81130 333 10019 91109
AAXX 20181 01089 11450 82203 11033 21035 39879 49987 52008 60024 77077 8802/ 333 11025 91106
AAXX 20181 01037 16/// /1101 11011 21016 39999 40005 52008 60002 333 10002 91103
AAXX 20181 01065 11689 80000 11021 21026 39838 40001 52011 60002 70222 888// 333 11012 91102
AAXX 20181 01092 46/// /3607 10027 21004 333 10032 91111
AAXX 20181 01114 16/// /0602 11026 21041 39985 49996 52006 60002 333 10017 91104
AAXX 20181 01245 11983 00501 11073 21144 39309 40034 54000 60002 70200 333 11047 91105
AAXX 20181 01329 11235 83504 11005 21041 39974 40037 53002 60002 78522 888// 333 10005 91112
AAXX 20181 01337 16/// /0000 11041 21064 39984 40052 53006 60002 333 11015 91103
AAXX 20181 01364 16/// /1501 11219 21239 38905 40120 50000 69922 333 11082 4/039 91104
AAXX 20181 01389 11107 43401 11187 21205 39752 40089 52008 60002 74841 82608 333 11119 91102
AAXX 20181 01436 11365 80506 10012 21003 69972 76176 8672/ 333 10015 91110
AAXX 2018/ 89869 46/// ///// 11120 39701 4//// 5////
AAXX 2018/ 89329 46/// ///// 11053 38700 4//// 5////
OOXX AAUNI 20184 99798 50833 56093 07671 46/// /0905 11095 21143 39056 49956 52001 91800
AAXX 20181 11010 32568 62602 11002 21032 39746 40134 52014 333 10013 83632 85650
AAXX 20181 11012 11562 82601 11005 21034 39655 40135 53018 69902 77022 885// 333 10007 21041 55300 92601
AAXX 20181 11022 12562 12401 11013 21070 39729 40126 53003 60002 81100 333 10024 21025 55300 81828
AAXX 20181 11035 32980 00701 11026 21063 39868 40130 52004 333 10031 21026
AAXX 20181 11036 32983 11802 11049 21093 39901 40134 53002 333 10024 81364
AAXX 20181 11101 11420 81903 11003 21006 39627 40168 52018 60162 77377 887// 333 11002 21025 88710
AAXX 20181 11120 01220 82702 11032 21033 39435 40165 52019 60012 77372 333 11028 69965 82605 84612 87617
AAXX 20181 11126 17/// /3308 11093 21093 37632 48410 53016 60012 7408/ 333 11087 21144 55300 91115
AAXX 20181 11130 17/// /2402 11032 21037 39547 40156 53012 69962 7404/ 333 11022 21075 55300
AAXX 20181 11146 NIL
AAXX 20181 11150 01245 81604 11023 21034 39588 40145 52014 69932 76366 333 10001 69925 81706 87617
AAXX 20181 11155 11/06 93206 11072 21081 38260 48397 53006 69952 77372 333 11054 21121 55300 89/03 91114
AAXX 20181 11157 42565 79901 11070 21089 39357 40162 53011 875// 333 11061 84625 87640
AAXX 20181 11172 NIL
AAXX 20181 11190 12970 03602 11029 21080 39889 40131 52001 60002 333 10029 21029 55300
AAXX 20181 11204 16/// /3002 11034 21092 39335 40151 53003 60002 333 11024 21092 55300
AAXX 20181 11212 31/84 22906 11114 21182 37721 48415 55002 73631 81712 333 11101 817// 91115
AAXX 20181 11231 32884 79901 11038 21054 39558 40149 52005 333 10012 82658 87461
AAXX 20181 11240 12980 69901 11031 21062 39685 40138 53002 69902 333 10022 83362 85072
AAXX 20181 11244 16/// /0000 11042 21061 39798 40140 54000 60002 333 10023 21075 55300
AAXX 20181 11389 12950 01901 11023 21056 39796 40132 53007 60002 333 10020 21026 55300
AAXX 20184 65201 31358 72006 10283 20257 30066 40119 70522 82508 333 10342 56500 57632 58005 82612 86280 91108 94463
AAXX 20184 16263 12462 40908 11004 21052 38864 48426 54000 60002 84200 333 10010 44005 84615 92822
AAXX 20184 16206 12782 51005 10068 20005 30110 40119 56011 60002 85070 333 10094 83356 83460
AAXX 20184 13624 11940 82204 10038 20018 30070 40110 52018 60152 76262 8802/ 333 10070 88460
AAXX 20181 33135 NIL
AAXX 20181 33317 11396 80000 11004 21010 39742 40084 54000 60072 71082 889// 333 10000 88709
AAXX 20181 33345 NIL
AAXX 20181 33393 11218 82703 11016 21024 39714 40115 57001 60022 78688 889// 333 11013 86704
AAXX 20181 33506 11496 81403 10036 20034 39898 40095 57011 60022 78082 889// 333 10042
AAXX 20181 33587 11450 80000 10042 20035 39799 40061 53006 60072 71062 886// 333 10062 88716
AAXX 20181 33631 32697 83101 10009 21011 39968 40114 52008 885// 333 10032 88645
AAXX 20181 33663 12497 83101 10019 20008 39985 40082 52002 60062 8372/ 333 10023
AAXX 20181 33658 NIL
AAXX 20181 33711 11/93 91505 10062 20062 39857 40065 57009 60042 74784 333 10062
AAXX 20181 33791 NIL
AAXX 20181 33837 11450 82702 10073 20068 30017 40068 53005 60042 71064 886// 333 10090 88713
AAXX 20181 33924 11596 82004 10108 20097 30081 40093 52003 69932 76162 8667/ 333 10129
AAXX 20181 33946 11997 81602 10099 20078 39886 40103 50001 69902 76162 8802/ 333 10180
AAXX 20181 34300 11350 81206 10025 20012 39930 40123 57006 69952 71022 885// 333 10032 86708
AAXX 20181 34504 12997 81506 10037 20030 39916 40095 57009 69912 8805/ 333 10061
AAXX 20181 34519 32260 81307 10029 20019 39843 40119 57010 886// 333 10032 88704
AAXX 20181 34601 31944 71504 10041 20034 39969 40106 57005 71022 87030 333 10063
AAXX 20184 64500 12460 82406 10269 20234 30088 40101 60052 885// 333 10285 58008 83610 88650
AAXX 20184 64551 32460 80000 10272 20244 30076 40105 889// 333 10296 58009 83610 81923 88633 94942 95832
AAXX 20184 64550 32358 8//// 10252 20237 30/// 40/// 885// 333 10280 5//// 84608 88625
AAXX 20184 40250 NIL
AAXX 20184 40260 32960 00000 10143 21040 39416 40199 54001 333 10200
AAXX 20184 40265 32960 00000 10116 21023 39418 40214 54000 333 10156
AAXX 20184 07650 02784 63009 10059 20027 30129 40169 53014 69902 81502 333 10093 20026 60007 81656 86073 90710 91114 93100 555 60005
AAXX 20184 48300 31958 00000 10160 20151 39828 40150 52007 71000 333 59005
AAXX 20184 48327 32960 00000 10165 20148 39800 40167 52002 333 58005
AAXX 20184 48331 32960 00000 10153 20142 39914 40153 52001 333 59006
AAXX 20184 48353 31930 00000 10155 20137 39847 40146 57006 71000 333 59006
AAXX 20184 48356 31940 00000 10173 20152 39944 40146 56006 71000 333 59012
AAXX 20184 48375 31958 00000 10172 20151 39895 40127 57001 71000 333 59010
AAXX 20184 48378 31956 20000 10197 20165 30078 40132 56005 71000 80005 333 59005
AAXX 20184 48381 32960 00000 10190 20147 39917 40140 56009 333 59007
AAXX 20184 48407 31959 60104 10192 20165 39974 40118 56008 71022 82046 333 59008
AAXX 20184 48431 NIL
AAXX 20184 48456 NIL
AAXX 20184 48480 31557 30503 10254 20168 30095 40099 57011 70510 82505 333 59013
AAXX 20184 48500 31956 33303 10253 20158 30098 40104 57010 70511 80005 333 59005
AAXX 20184 48551 31550 40000 10225 20210 30092 40100 52001 71011 82206 333 59007
AAXX 20184 48565 31558 61203 10251 20208 30079 40089 57009 71022 81246 333 59006
AAXX 20184 48569 31558 60000 10242 20215 30053 40094 57013 71022 82846 333 59005 70024
AAXX 20184 48583 NIL
AAXX 20184 48310 31956 00000 10133 20129 39687 40161 57001 71000 333 59008
AAXX 20184 48325 31956 00000 10134 20125 39896 40150 52002 71000 333 59012
AAXX 20184 48329 31950 00000 10152 20141 39799 40150 52001 71000 333 59015
AAXX 20184 48352 31940 00000 10178 20147 39941 40148 57002 71000 333 59009
AAXX 20184 48357 31950 20000 10168 20154 39971 40145 57009 71000 80001 333 59009
AAXX 20184 48380 32960 00000 10191 20175 30038 40135 56007 333 59006
AAXX 20184 48383 31950 00000 10180 20149 39971 40135 56010 71000 333 59010
AAXX 20184 48403 31956 00000 10191 20157 39918 40133 57012 71000 333 59014
AAXX 20184 48405 31957 20000 10187 20155 39969 40136 57004 71000 80005 333 59001
AAXX 20184 48420 31956 30000 10233 20185 30106 40110 57006 71011 80005 333 59007
AAXX 20184 48421 31950 20000 10188 20171 30010 40127 56001 71000 80005 333 59010
AAXX 20184 48425 31940 20102 10219 20161 30116 40126 57003 71000 80005 333 59005
AAXX 20184 48426 31957 00000 10218 20154 30108 40121 56005 71000 333 59005
AAXX 20184 48429 32560 40305 10243 20167 30107 40114 57007 81105 333 59008
AAXX 20184 48430 31958 20000 10240 20167 30105 40112 57007 70500 80002 333 59006
AAXX 20184 48450 31957 00000 10217 20173 30090 40123 57001 71000 333 59006
AAXX 20184 48459 32960 00000 10240 20176 30105 40108 57008 333 59007
AAXX 20184 48465 31958 23406 10230 20173 30103 40108 57006 71000 80005 333 59011
AAXX 20184 48550 31558 63603 10262 20219 30094 40101 57006 71022 81146 333 58000
AAXX 20184 48552 NIL
AAXX 20184 48566 32560 30000 10240 20220 30083 40091 57006 82105 333 59007
AAXX 20184 48568 32460 20202 10267 20229 30083 40090 57012 81201 333 58003 70092
BBXX 46238 20181 99334 71195 46/// ///// 1//// 91750 22200 00145 11304 20802 328// 41303 70019
BBXX 46239 20181 99363 71221 46/// ///// 1//// 91751 22200 00134 11306 21004 330// 41305 70031
AAXX 20184 48302 NIL
AAXX 20184 48304 32960 00000 10125 20119 39681 40161 57002 333 59008
AAXX 20184 48334 31956 00000 10153 20129 39782 40156 52010 71000 333 59001
AAXX 20184 48360 31957 00000 10161 20142 39876 40145 57007 71000 333 58000
AAXX 20184 48372 31956 20000 10198 20182 30074 40133 57008 71000 80005 333 59006
AAXX 20184 48373 31940 20000 10190 20168 30069 40133 57004 71000 80001 333 58003
AAXX 20184 48386 31920 00000 10208 20194 30071 40116 57010 71000 333 59013
AAXX 20184 48387 31950 00000 10120 20110 39175 40164 52000 71000 333 59002
AAXX 20184 48408 31959 20000 10194 20164 39968 40121 57006 71000 80005 333 59004
AAXX 20184 48415 31957 20508 10235 20151 30124 40135 52003 70500 80005 333 58006
AAXX 20184 48433 31956 23603 10200 20165 39965 40134 57003 71000 80005 333 59011
AAXX 20184 48437 31958 03601 10188 20165 39917 40133 57006 71000 333 59011
AAXX 20184 48440 NIL
AAXX 20184 48451 32960 00000 10213 20188 30112 40123 57005 333 59004
AAXX 20184 48454 NIL
AAXX 20184 48457 NIL
AAXX 20184 48463 NIL
AAXX 20184 48464 31957 03107 10220 20171 30093 40106 57005 71000 333 59008
AAXX 20184 48479 31958 40307 10235 20170 30050 40103 57009 71011 80006 333 59009
AAXX 20184 48520 31956 40000 10205 20197 30089 40105 55005 71011 80005 333 59025
AAXX 20184 48554 31458 60000 10239 20226 30091 40095 57009 71022 82246 333 59009
AAXX 20184 48563 32560 40407 10239 20210 30054 40090 57006 81245 333 59009
AAXX 20184 48571 32560 60000 10255 20233 30075 40086 57038 83235 333 59012 70030
AAXX 20181 11423 01211 82505 11041 21046 39217 42719 52007 69942 77177 885// 333 11025 48014 69915 88606
AAXX 20184 48307 31950 00000 10150 20141 39773 40167 51002 71000 333 59002
AAXX 20184 48324 31950 00902 10153 20148 39921 40148 57003 71000 333 59005
AAXX 20184 48333 31956 00000 10160 20148 39846 40158 52000 71000 333 59004
AAXX 20184 48350 NIL
AAXX 20184 48355 31930 00000 10159 20143 39916 40143 56008 71000 333 59018
AAXX 20184 48358 NIL
AAXX 20184 48384 31956 00000 10173 20158 39944 40140 56007 71000 333 59008
AAXX 20184 48401 31956 20000 10200 20169 30026 40136 57005 71000 80005 333 59009
AAXX 20184 48404 31958 00402 10182 20155 39948 40131 56009 71000 333 59007
AAXX 20184 48409 32960 60304 10202 20166 39975 40126 57006 83045 333 59004
AAXX 20184 48419 31959 40504 10240 20169 30107 40115 56004 70511 80005 333 59010
AAXX 20184 48427 NIL
AAXX 20184 48435 31958 20805 10205 20135 39687 40131 57006 70500 80001 333 59006
AAXX 20184 48453 31958 50000 10242 20189 30107 40110 57008 71011 80006 333 59007
AAXX 20184 48458 32960 00000 10205 20181 30045 40127 57011 333 59009
AAXX 20184 48474 31956 20000 10205 20167 39991 40117 57006 71000 80005 333 59005
AAXX 20184 48481 NIL
AAXX 20184 48555 31556 20000 10223 20209 30091 40134 55004 71000 82105 333 59005 70002
AAXX 20184 48556 32560 53103 10238 20226 30081 40097 57005 81106 333 59007
AAXX 20184 48557 32560 40000 10235 20228 30063 40098 57011 82101 333 59004
AAXX 20184 48560 31457 60000 10250 20237 30090 40095 56009 71022 82856 333 59009 70494
AAXX 20184 48574 32560 50000 10248 20244 30060 40090 57008 82106 333 58004 79999
AAXX 20184 48581 NIL
AAXX 20181 15015 02597 81500 11007 21031 39487 42706 54001 60002 885// 333 10017 21029 3/001 42998 60007 91001 91101
AAXX 20181 15020 01596 70000 11022 21024 39895 40100 52004 60042 71011 83570 333 10014 21030 3/002 43003 60007 91000 91100 92801
AAXX 20181 15090 01496 82901 10008 21004 30005 40100 53010 69932 71022 8557/ 333 10019 20006 31002 55300 10064 20002 3//// 60007 91003 91104
AAXX 20181 15108 02197 70000 11065 21065 37964 48394 57005 69982 85540 333 11039 21066 3//// 47013 60007 92727 92800
AAXX 20181 15120 01597 82701 11002 21002 39598 40105 52004 69942 77187 8657/ 333 10030 21008 3/005 43997 55300 10034 2//// 3//// 69937 91002 91102
AAXX 20181 15150 02997 33401 10002 21008 39884 40102 52012 60012 83030 333 10033 21002 31001 60007 91002 91102
AAXX 20181 15170 01596 81601 11007 21007 39291 42698 57002 69922 71022 885// 333 10015 21021 3/001 47005 60007 91002 91102 92800
AAXX 20181 15200 01495 82801 10009 20002 39978 40126 52009 60022 71072 8802/ 333 10013 20001 31002 60007 91002 91102
AAXX 20181 15230 01596 80901 10007 20007 39816 40116 52007 69922 71022 885// 333 10018 21001 31002 55300 10036 20002 3//// 60007 91002 91103
AAXX 20181 15260 01596 82501 10002 20001 39559 40105 52003 60012 77172 8557/ 333 10028 21011 3/005 43997 60017 91002 91102 96010
AAXX 20181 15280 01/93 81802 11083 21100 37362 47885 58001 60002 74142 885// 333 11063 21087 3//// 48031 60007 92825
AAXX 20181 15292 01596 83101 10002 20002 39827 40129 52009 60022 76876 8802/ 333 10013 20001 31002 69967 91003 91103 96010
AAXX 20181 15310 01596 80302 10034 20025 30003 40091 50009 60002 71022 8257/ 333 10051 20032 31007 55300 10023 20000 30001 60007 91003 91104
AAXX 20181 15335 02597 83401 10047 20040 30081 40087 52012 60022 885// 333 10097 20046 31008 60007 91002 91102
AAXX 20181 15346 01596 83502 10035 20027 39789 40081 52004 60032 76162 8672/ 333 10067 20025 31011 60037 91003 91104 96010
AAXX 20181 15350 01495 80603 10035 20035 39969 40091 50005 69922 75152 886// 333 10053 20035 31008 69927 91005 91105 96010
AAXX 20181 15360 02497 82903 10052 20043 30065 40079 52010 69962 886// 222// 06076 20301 333 10096 20051 3//// 60007 91004 91106 92427
AAXX 20181 15410 01597 82905 10031 21003 39994 40091 54000 60012 70262 8802/ 333 10044 20029 31006 69937 91006 91107
AAXX 20181 15420 01496 80701 10041 20040 39969 40081 50001 69922 75152 886// 333 10047 20035 31008 55300 0//// 20000 3//// 69917 91002 91102 96010
AAXX 20181 15450 01497 82603 10011 20011 39848 40088 54001 60072 76176 8672/ 333 10031 20005 32005 55300 10021 20001 3//// 60047 91004 91104
AAXX 20181 15460 01492 83301 10044 20043 30058 40082 54001 69912 74622 886// 333 10048 20033 31007 60007 91001 91102
AAXX 20181 15470 01595 82504 10014 20014 39959 40087 52004 60022 72162 8457/ 333 10036 20013 31006 60017 91005 91106
AAXX 20181 15480 02497 73402 10057 20056 30058 40075 58008 60022 87600 222// 06068 2//// 333 10102 20056 31010 4//// 60007 91003 91105 92427
AAXX 20181 01281 16/// /0000 11037 21048 39837 40015 52005 60022 333 11036 91102
BBXX UFTA 20181 99849 71235 11696 72603 11158 21179 40050 54000 60012 78582 879//
AAXX 20184 91930 06/// ///// 10270 20226 69921 333 69927
AAXX 20184 91943 16/// /0909 10278 20230 30125 40127 51015 60032 333 10278 59012
AAXX 20184 89061 179// 00000 10032 20019 39916 49923 52006 60043 76166 333 91002 91104
AAXX 20184 78397 111574 61115 10300 20197 30127 40143 60001 70522 82843 333 01229 10309 20234 59003 81824 85070
AAXX 20184 DUPE
AAXX 20184 48601 11559 70206 10261 20223 30079 40083 60001 70522 82532 333 82625 87077
AAXX 20184 48615 11556 73607 10243 20234 30087 40093 60021 76062 83532 333 83620 84364 87074
AAXX 20184 48620 11259 70902 10247 20242 30075 40084 69921 71096 83538 333 81704 84364 86276
AAXX 20184 48647 11040 70000 10250 20245 30060 40085 60001 71322 84941 333 81700 81917 83364 87078
AAXX 20184 48657 11460 73402 10242 20234 30064 40082 60001 71022 83542 333 81710 83366 86078
AAXX 20184 48665 12564 73501 10246 20237 30078 40088 60001 82552 333 82628 85364 85078
AAXX 20184 96413 11460 72602 10252 20244 30037 40063 69961 76062 83961 333 81915 83620 86365
AAXX 20184 96421 12465 70101 10254 20245 30024 40060 60001 83531 333 83618 85365
AAXX 20184 96441 12468 70000 10256 20251 30033 40060 60001 82531 333 82616 84365 85080
AAXX 20184 96449 11465 70802 10253 20250 30041 40060 69921 70262 83531 333 83614 85365
AAXX 20184 96465 12470 72104 10271 20254 30026 40059 60001 85938 333 83810 81915 84364 87279
AAXX 20184 96471 12468 71103 10271 20248 30053 40056 60001 82848 333 81814 83364 87277
AAXX 20184 96481 12462 60000 10245 20233 30053 40072 60001 82841 333 81817 85080
AAXX 20184 96491 12465 72502 10258 20246 30059 40071 60001 83842 333 82816 87080
AAXX 20184 96491 12465 72502 10258 20246 30059 40071 60001 83842 333 82816 87080
AAXX 20183 78388 111559 70716 10270 20213 30142 40151 60001 71522 85852 333 02229 10292 20223 59008 82822 84645 85074
AAXX 20184 03301 16671 /2209 10071 20069 30095 40169 58005 69962 91750 333 10073 86/33 86/40
AAXX 20184 03305 17460 /2214 10059 20041 39911 40176 50002 60012 781// 91750 333 10067 88/15
AAXX 20184 03313 16580 /2206 10064 20045 30076 40171 50002 60002 91750 333 10072 83/25 87/61
AAXX 20184 03316 17460 /2512 10067 20053 30156 40167 53002 69922 704// 91750 333 10072 81/18 86/27
AAXX 20184 03318 16/// /2510 10070 20057 69982 91750 333 10073
AAXX 20184 03321 16580 /2304 10065 20041 30162 40174 52007 60002 91750 333 10080 553// 20000 84/25 83/32 87/50
AAXX 20184 03330 15466 /2705 10042 20028 39811 40177 51014 60012 91750 333 10046 84/15 86/33
AAXX 20184 03344 17459 /2707 10045 20034 39839 40161 53009 69902 751// 91750 333 10046 86/17 83/50
AAXX 20184 03346 16/// /2819 10046 20033 60002 91750 333 10046 90710 91126
AAXX 20184 03348 15667 /2406 10058 20042 30063 40172 53011 69962 91750 333 10065 55300 20000 81/38 87/49
AAXX 20184 03355 17878 /2906 10062 20029 30147 40158 51013 69902 723// 91750 333 10065 55300 20000 88/57
AAXX 20184 03373 16762 /2505 10039 20025 30093 40164 52014 60002 91750 333 10059 87/56 85/60
AAXX 20184 03379 16872 /2408 10033 20022 30093 40172 52015 6///2 91750 333 1//// 86/57 85/68
AAXX 20184 03382 15978 /2706 10047 20030 30144 40152 51017 60002 91750 333 10056 55300 20000 83/58 87/65
AAXX 20184 03385 46972 /2707 10042 20029 30146 40156 51014 91750 333 10058 82/58 87/66
AAXX 20184 03391 12980 72709 10056 20025 30159 40166 52016 60002 8703/ 91750 333 10065 87358
AAXX 20184 03392 16968 /2710 10043 20029 30157 40161 53011 60002 91750 333 10057 87/59 87/69
AAXX 20184 03405 16359 /2416 10079 20074 30066 40183 56005 60012 91750 333 10081 553// 20000 81/09 86/30
AAXX 20184 03409 16/// /2407 10059 20045 60002 91750 333 10066 55300 2////
AAXX 20184 03410 16360 /2610 10047 20043 39738 40179 53002 69922 91750 333 10048 553// 20000 87/09 84/17
AAXX 20184 03469 15672 /2708 10047 20034 30164 40168 53010 60002 91750 333 10060 553// 20000 82/47 88/58
AAXX 20184 03488 15980 /2612 10047 20025 30136 40162 53017 60002 91750 333 10056 88/66
AAXX 20184 03503 17457 /2005 10066 20051 30109 40187 50001 69922 781// 91750 333 10080 82/14 84/21 85/42
AAXX 20184 03507 17264 /2204 10045 20045 39817 40194 50000 69982 781// 91750 333 10057 85/05 84/15
AAXX 20184 03520 16477 /2407 10060 20041 30064 40187 51004 60002 91750 333 10075 553// 20000 83/18 84/46 87/65
AAXX 20184 03522 15581 /2503 10063 20042 30100 40194 53006 69902 91750 333 10075 81/21 86/50 86/64
AAXX 20184 03529 15576 /2304 10061 20036 30148 40192 51007 60002 91750 333 10072 81/25 85/56 87/66
AAXX 20184 03544 15770 /2608 10054 20032 30046 40179 51005 69902 91750 333 10063 553// 20000 86/56 86/59 85/68
AAXX 20184 03560 15879 /2406 10050 20029 30074 40179 53009 60002 91750 333 10073 553// 20000 87/57
AAXX 20184 03604 16674 /2607 10096 20074 30132 40186 57011 69942 91750 333 10096 81/31 87/43
AAXX 20184 03605 16564 /1402 10068 20057 30182 40191 57008 69922 91750 333 10091 81/22 86/45 87/57
AAXX 20184 03609 16/// /2603 10076 20053 30148 40201 57005 60002 91750 333 10086
AAXX 20184 03628 15774 /2606 10070 20044 30123 40196 52009 69902 91750 333 10081 55300 20000 85/50 88/61
AAXX 20184 03647 16765 /2709 10046 20033 39928 40187 51007 60002 91750 333 10060 553// 20000 86/56 88/66
AAXX 20184 03658 16875 /2505 10067 20031 30120 40191 52009 60002 91750 333 10072 88/57
AAXX 20184 03660 15971 /2905 10046 20029 39939 40191 52012 69902 91750 333 10065 87/58
AAXX 20184 03672 12680 72505 10055 20018 30150 40191 53013 60002 8553/ 91750 333 10078 83638 85657 87366
AAXX 20184 03684 15977 /2709 10046 20021 30070 40178 53014 60002 91750 333 10068 81/60 88/70
AAXX 20184 03693 16980 /2808 10059 20030 30180 40183 52015 60002 91750 333 10075 84/61 87/70
AAXX 20184 03707 15766 /2607 10090 20075 30192 40199 56004 69922 91750 333 10099 88/50
AAXX 20184 03710 16965 /2705 10056 20056 39776 40202 53002 60002 91750 333 10072 553// 20000 87/59
AAXX 20184 03743 16779 /2304 10059 20040 30038 40201 51011 69902 91750 333 10071 88/50
AAXX 20184 03749 16777 /2505 10062 20034 30087 40199 51009 60002 91750 333 10074 88/56
AAXX 20184 03761 12975 82408 10056 20035 30051 40197 51011 60002 8807/ 91750 333 10071 55300 20000 88358
AAXX 20184 03768 16778 /2506 10045 20019 30115 40196 52011 60002 91750 333 10078 81/56 86/58
AAXX 20184 03769 15879 /2606 10062 20032 30111 40194 52015 60002 91750 333 10076 55300 20000 88/57
AAXX 20184 03770 16/// ///// 10070 20033 60002 91750 333 10090
AAXX 20184 03781 15974 /2506 10041 20021 39983 40194 51015 60002 91750 333 10066 553// 20000 84/58 86/69
AAXX 20184 03784 46/// /2708 10069 20021 30181 40184 52015 91750 333 10082
AAXX 20184 03797 15973 /2811 10057 20026 30123 40184 51018 60002 91750 333 10067 55300 20000 84/62 88/70
AAXX 20184 03839 16/// ///// 10083 20065 60002 91750 333 10093 553// 20000
AAXX 20184 03857 15581 /3112 10095 20050 30147 40211 53011 60002 91750 333 10095 85/29 87/50
AAXX 20184 03862 15773 /2704 10067 20048 30192 40205 52009 60002 91750 333 10085 55300 20000 88/50
AAXX 20184 03866 16/// /2809 10086 20045 30180 40205 53013 60002 91750 333 10089
AAXX 20184 03872 15775 /2708 10074 20049 30195 40200 53012 60002 91750 333 10082 553// 20000 88/56
AAXX 20184 03876 16/// /2706 10063 20042 30198 40200 52017 60002 91750 333 10085
AAXX 20184 03895 42580 73213 10099 20063 40223 52013 8683/ 333 10107 82818 86635
AAXX 20184 03008 16/// /3015 10048 20000 39985 40055 53010 69922 91750 333 10059
AAXX 20184 03010 46/// /2916 10065 20008 40075 52009 333 90710 91125
AAXX 20184 03014 46/// /2921 10035 21007 40053 52009 91750 333 8//// 90710 91127
AAXX 20184 03031 17460 /0802 10012 20006 39772 40105 51005 60022 761// 91750 333 10029 553// 20000 81/15 87/39
AAXX 20184 03034 17462 /2806 10046 20029 30088 40101 53001 60032 762// 91750 333 10062 82/16 86/21
AAXX 20184 03037 17661 /2203 10047 20039 30083 40106 57002 69982 781// 91750 333 10050 85/34 86/50
AAXX 20184 03039 46/// /2519 11005 21036 91750 333 11003
AAXX 20184 03041 46/// /2518 11022 21022 91750 333 11022 90710 91126
AAXX 20184 03044 17465 /3104 10023 20013 39994 40094 53008 69942 762// 91750 333 10037 553// 20000 81/16 86/23
AAXX 20184 03047 17/72 /2404 10030 20013 39810 40117 58004 69962 751// 91750 333 10035 553// 20000
AAXX 20184 03062 15780 /2006 10029 20005 30094 40098 51006 69922 91750 333 10042 553// 20000 81/50 87/58
AAXX 20184 03065 46/// /2707 11036 21042 91750 333 11033 91023
AAXX 20184 03068 12581 72408 10032 20005 30092 40100 53007 60002 83872 91750 333 10042 81825 83645 85464
AAXX 20184 03072 46/// ///// 11025 21027 91750 333 11025 91000
AAXX 20184 03080 15883 /2705 10034 21004 39933 40106 52004 60002 91750 333 10045 88/57
AAXX 20184 03088 15982 /2514 10030 20004 39945 40111 52003 60002 91750 333 10033 553// 20000 88/59
AAXX 20184 03094 15/68 /2518 10051 20010 30086 40091 51009 69942 91750 333 10062
AAXX 20184 03105 17460 /2109 10069 20057 30104 40121 55009 60012 751// 91750 333 10077 87/12 83/24
AAXX 20184 03132 17464 /2307 10064 20063 30126 40140 58003 60012 781// 91750 333 10067 87/14
AAXX 20184 03144 15681 /2406 10041 20019 30076 40120 55002 60002 91750 333 10047 553// 20000 87/43 84/64
AAXX 20184 03148 46/// /2610 10013 20008 91750 333 10014
AAXX 20184 03153 15580 /2510 10057 20042 39999 40138 58004 69902 91750 333 10058 553// 20000 84/24 85/35
AAXX 20184 03155 16467 /2110 10038 2//// 39826 40128 50000 60002 91750 333 10038 81/14 84/17 85/44
AAXX 20184 03158 17782 /2407 10031 20017 39989 40129 51007 69902 723// 91750 333 10036 553// 20000 88/56
AAXX 20184 03210 16675 /2613 10062 20041 39994 40146 58002 60022 91750 333 10063 84/32 84/50
AAXX 20184 03212 17575 /2705 10065 20036 30046 40146 50001 69902 723// 91750 333 10066 83/20 85/48
AAXX 20184 03214 15671 /2610 10074 20053 30135 40153 50001 69942 91750 333 10074 87/42 87/50
AAXX 20184 03220 16573 ///// 10056 20045 30110 40144 51004 60002 91750 333 10058 81/23 87/27
AAXX 20184 03225 16570 /2305 10041 20017 39843 40153 52001 60002 91750 333 10048 553// 20000 86/28 84/50
AAXX 20184 03226 15480 /0000 10035 20021 39869 40149 51004 69902 91750 333 10035 87/18 86/30
AAXX 20184 03230 16780 /2604 10031 20019 39879 40140 50005 60002 91750 333 10033 87/50 85/60
AAXX 20184 03238 17362 /2708 10041 20031 39961 40137 52004 69902 751// 91750 333 10041 81/09 87/47 85/58
AAXX 20184 03261 16875 /2607 10057 20027 30115 40156 53013 60002 91750 333 10061 88/57
AAXX 20184 03265 15882 /3001 10048 20021 30125 40156 52014 60002 91750 333 10062 88/57
AAXX 20184 03266 16880 /2604 10054 20029 30139 40156 52014 60002 91750 333 10061 88/57
AAXX 20184 03275 15873 /2612 10039 20008 39948 40144 51011 60002 91750 333 10043 87/57
AAXX 20184 03281 16/// /2506 10029 20006 60002 91750 333 10036
AAXX 20184 03903 16462 /1707 10069 20069 30064 40122 58022 60032 91750 333 10071 553// 20000 82/16 87/35
AAXX 20184 03904 17457 /1504 10063 20055 30059 40119 58019 60032 723// 91750 333 10069 86/19 86/27
AAXX 20184 03907 17459 /2008 10063 20052 30112 40119 58019 60012 762// 91750 333 10065 55300 20000 84/13 87/50
AAXX 20184 03911 16103 /1305 10047 20047 39856 40132 57016 60012 91750 333 10052 88/02
AAXX 20184 03915 16158 /1608 10052 20052 30049 40128 57013 69962 91750 333 10064 85/02 84/31
AAXX 20184 03916 16475 /2207 10053 20049 39935 40127 58013 69982 91750 333 10054 553// 20000 83/13 87/56
AAXX 20184 03923 17156 /2010 10055 20055 39934 40132 57019 60012 762// 91750 333 10057 88/02
AAXX 20184 68032 42660 40000 10280 20170 48506 52013 81404 333 10335
AAXX 20184 68038 42960 31404 10280 20172 48505 52014 81081 333 10331
AAXX 20184 68070 42960 00000 10263 20170 48517 53008 333 10305
AAXX 20184 68226 42660 60403 10318 20129 48498 52013 81981 333 10355
AAXX 20184 68234 42660 40506 10290 20126 48491 52009 81482 333 10361
AAXX 20184 68240 42960 00409 10298 20125 48499 52011 333 10346
AAXX 20184 68320 42960 30000 10330 20131 48500 53009 82081 333 10386
AAXX 20184 68328 42960 20303 10330 20124 48490 52008 82082 333 10377
BBXX 41038 20181 99341 70777 46/// /1903 10165 40225 58023 91800 22200 00143 333 91204
BBXX 46001 20181 99563 71480 46/// /1913 10051 40148 56020 91750 22200 00049 11208 20805 300// 41206 70039 333 91217 555 11140 22149 31747 41917 61749 188129 187124 181119 182122 186112 193104
AAXX 20184 70026 NIL
AAXX 20184 70133 NIL
AAXX 20184 70174 NIL
AAXX 20184 70200 NIL
AAXX 20184 70219 NIL
AAXX 20184 70231 NIL
AAXX 20184 70261 NIL
AAXX 20184 70267 NIL
AAXX 20184 70271 NIL
AAXX 20184 70273 NIL
AAXX 20184 70308 NIL
AAXX 20184 70316 NIL
AAXX 20184 70326 NIL
AAXX 20184 70340 NIL
AAXX 20184 70350 NIL
AAXX 20184 70361 NIL
AAXX 20184 70381 NIL
AAXX 20184 70398 NIL
AAXX 20184 70414 NIL
AAXX 20183 64501 11256 83204 10254 20244 3//// 4//// 6///2 76162 8592/ 333 0//12 10284 5//// 84606 81920 88460 94947 95837
AAXX 20184 78526 NIL
AAXX 20184 78543 NIL
BBXX NWS0003 20184 99539 71665 43/// /3500 10019 21054 49957 5//// 7//// 8//// 222// 0//// 2//// 3//// 4//// 5//// 6//// 8//// ICE /////
BBXX KAOU 20184 99001 10809 43/// /3208 10272 20248 40075 5//// 7//// 8//// 222// 04289 2//// 3//// 4//// 5//// 6//// 8//// ICE /////
BBXX NWS0020 20184 99337 70221 43/// /0923 10185 20115 40284 5//// 7//// 8//// 222// 04202 2//// 3//// 4//// 5//// 6//// 8//// ICE /////
BBXX NWS0029 20184 99345 70609 43/// /2619 10181 20104 40205 5//// 7//// 8//// 222// 04213 2//// 3//// 4//// 5//// 6//// 8//// ICE /////
BBXX WBO3345 20184 99212 70751 41697 60523 10267 20244 40160 57/// 70122 86493 22232 0//// 20405 308// 40405 5//// 6//// 80250 ICE /////
BBXX WE4805 20184 99453 70871 41/99 82221 10000 2//// 40166 57001 70202 88/// 22253 00044 20301 3//// 4//// 5//// 6//// 8//// ICE /////
BBXX V7NV4 20184 99299 71513 41497 70913 10190 20175 40250 53010 701// 84276 22263 00180 20201 314// 40404 5//// 6//// 80180 ICE /////
BBXX WXJ63 20183 99611 71464 41/93 80705 11001 21006 40093 5//// 702// 8//// 222// 0//// 2//// 3//// 4//// 5//// 6//// 8//// ICE /////
BBXX WXJ63 20183 99611 71464 41/96 83600 10001 21002 40120 52/// 771// 8//// 222// 0//// 2//// 3//// 4//// 5//// 6//// 8//// ICE /////
BBXX ONDE 20183 99171 11477 41897 31215 10270 20243 40090 56010 7//00 83/69 22233 00270 21005 312// 4//// 5//// 6//// 80250 ICE /////
BBXX WE3592 20184 99472 70904 43/98 12428 11016 2//// 40102 5//// 7//// 8//// 222// 0//// 2//// 3//// 4//// 5//// 6//// 8//// ICE /////
BBXX WE3806 20184 99474 70885 41/98 62328 11011 2//// 40108 56011 70122 8//// 22252 00050 2//06 3//// 4//// 5//// 6//// 8//// ICE /////
BBXX WKAB 20184 99365 10153 41/98 13115 10125 20044 40189 53001 70100 8//// 22234 00169 2//// 3//// 4//// 5//// 6//// 80085 ICE /////
BBXX KEY796 20183 99571 71703 41/97 42309 11017 21033 49895 52/// 702// 8//// 222// 00017 2//// 3//// 4//// 5//// 6//// 8//// ICE /////
BBXX PJFF 20184 99346 70292 41197 71120 10197 20187 40260 57010 70222 8277/ 22254 20402 310// 40904 80190
BBXX UCAC 20181 99714 10278 41/97 60712 10030 40009 54000 70222 89/// 22233 00090 20806 306// 40806
BBXX UITJ 20181 99717 10265 41598 80611 10020 40010 52013 70222 885// 22273 00060 20805 33600 40803
BBXX UGGA 20181 99693 10430 41/98 92212 10040 40012 54000 70222 89/// 22281 20605
BBXX MSTM6 20183 99415 70101 41598 72708 10182 20137 40321 52020 70322 868// 22244 00156 20101 80156
BBXX C6KD7 20183 99358 70296 41598 41321 10192 20140 40270 54000 70211 80005 22214 02191 20604 327// 41003 5//// 80162
BBXX PFDH 20181 99360 70043 41/99 12704 10188 20143 40285 55000 70200 81050 22224 00167 20201 307// 40701 80160
BBXX UCAB 20181 99643 10054 41/98 91812 10060 49945 57032 70211 8//// 22253 00110 20605
BBXX PHOB 20184 99049 10835 41/98 40524 10250 20236 40078 58008 70185 82/// 22222 00270 2//// 3//// 4//// 5//// 80240
BBXX PCDE 20183 99393 31427 41297 41704 10140 20105 40200 54000 7//11 827// 22223 2//// 324// 40402 80120
BBXX PHJV 20183 99067 31193 41498 32908 10270 20228 40061 58008 70211 83144 22273 02292 20201 80240
BBXX DGZR2 20183 99032 11004 41/97 72714 10260 20239 40070 56010 70222 8//// 22234 00280 20201 80245
AAXX 20181 26554 31/05 91102 11034 21034 39982 40150 58014 74541 333 11005
AAXX 20181 26666 31240 80302 11017 21025 39920 40140 57024 71022 886// 333 11008 88705
AAXX 20181 26850 31358 80402 11019 21037 39842 40120 57018 71022 885// 333 11018 88708
AAXX 20181 26863 11211 80303 11010 21017 39866 40107 57025 69952 77372 8872/ 333 11004 88705
AAXX 20181 26941 31335 63602 11020 21029 39877 40121 57011 71042 86700 333 11015
AAXX 20181 26951 32462 80303 11008 21026 39903 40105 57017 886// 333 11004 88712
AAXX 20181 33008 11245 80901 11006 21018 39937 40119 57003 69932 71072 886// 333 10000 88705
AAXX 20181 33019 11336 83102 11010 21014 39931 40109 57006 60012 77372 8872/ 333 11001 88707
AAXX 20181 33036 11119 80601 11003 21006 39844 40079 57021 60062 77372 8872/ 333 10001 87702 93702
AAXX 20181 33041 11224 80802 10000 21003 39922 40079 57023 60052 77372 8872/ 333 10006 88704 93705
AAXX 20184 78255 42559 60808 10248 20175 30047 40196 57020 86200 333 10258 20187 86820
AAXX 20184 78317 NIL
AAXX 20184 78318 NIL
AAXX 20184 78325 NIL
AAXX 20184 78333 NIL
AAXX 20184 78338 NIL
AAXX 20184 78348 NIL
AAXX 20184 78349 NIL
AAXX 20184 78353 NIL
AAXX 20184 78360 NIL
AAXX 20184 78367 NIL
AAXX 20184 78369 NIL
BBXX 44022 20181 99409 70737 46/// ///02 10064 21011 40215 57004 91800 22200 00078 333 91204 555 11021 22021
BBXX 51003 20181 99193 71606 46/// /0310 10246 40162 53028 91750 22200 00257 10906 20605 3//// 40904 70032 333 91212 555 11110 22116 31741 40312 61749 031103 034097 030097 034101 037097 033098
BBXX 46042 20181 99368 71224 46/// /1105 10100 40193 52013 91750 22200 00127 11406 20301 331// 41406 70030 333 91207 555 11051 22053 31706 41108 61749 107050 102050 101054 102061 099062 101061
BBXX 46053 20181 99342 71198 46/// /2801 10135 40186 53013 91750 22200 00135 11403 20401 328// 41403 70016 333 91202 555 11015 22016 31731 42802 61749 280014 296014 279013 277011 280008 268013
AAXX 20184 91165 NIL
AAXX 20184 91182 NIL
AAXX 20184 91190 NIL
AAXX 20184 91212 NIL
AAXX 20184 91217 NIL
AAXX 20184 91285 NIL
AAXX 20184 91317 NIL
AAXX 20184 91334 32474 70610 10275 20236 30058 40061 56012 82171 333 56199 70130 555 92018
AAXX 20184 91348 11474 80510 10267 20243 30015 40068 55007 69901 70282 8527/ 333 56199 70124 555 92018
AAXX 20184 91356 NIL
AAXX 20184 91366 NIL
AAXX 20184 91369 NIL
AAXX 20184 91371 NIL
AAXX 20184 91376 32474 80811 10268 20233 30061 40064 53007 86878 333 56229 555 92018 /
AAXX 20184 91376 32474 80811 10268 20233 30061 40064 53007 86878 333 56229 555 92018
AAXX 20184 91376 32474 80811 10268 20233 30061 40064 53007 86878 333 56229 555 92018
AAXX 20184 91408 32474 70504 10267 20243 30017 40055 57019 81101 333 562/9 70003 555 92018
AAXX 20184 91413 11469 70808 10266 20248 30036 40061 56025 60031 70182 83271 333 56299 70089 555 92018
AAXX 20184 91425 NIL
AAXX 20184 91434 NIL
AAXX 20184 91765 NIL
AAXX 20184 91222 NIL
AAXX 20184 91245 NIL
AAXX 20184 91323 NIL
AAXX 20184 91339 NIL
AAXX 20184 91343 NIL
AAXX 20184 91353 NIL
AAXX 20184 91442 NIL
BBXX A8YW2 20184 99135 30771 41/98 51320 10278 20214 40090 50002 70311 8//// 22214 00270 20804 80235
AAXX 20184 64570 325700 82702 10244 20222 39607 40114 885// 333 10277 58011 88620
BBXX DDLK 20183 99455 70494 41298 62928 10022 21013 40010 57012 70122 8477/ 22223 20808 399// 41109 80008
AAXX 20181 06414 16/// /2904 10054 20016 30137 40170 51023 60032 333 10079 91110 91207
AAXX 20181 06459 16/// /2805 10042 20038 39975 40171 52025 60022 333 10066 91113 91209
AAXX 20181 06494 16/// /3206 10004 20001 39338 40151 50025 60102 333 10013 4/029 91113 91208
BBXX C6YA7 20184 99072 11158 41/98 40616 10250 2022/ 40050 55010 70121 84/// 22263 0//// 2//// 3//// 4//// 5//// 6//// 80230 ICE /////
BBXX VREX8 20184 99302 11379 41597 73019 10160 2013/ 40220 56020 70211 872// 22264 0//// 20304 330// 40405 5//// 6//// 80140 ICE /////
BBXX C6SI3 20183 99462 11769 41898 42719 10020 2101/ 40050 54000 70211 84465 22223 0//// 20203 327// 4//// 5//// 6//// 80010 ICE /////
BBXX A8AJ4 20184 99541 11735 41997 0//// 10020 2//// 49960 52030 7//// 8//// 22264 0//// 2//// 3//// 4//// 5//// 6//// 8//// ICE /////
BBXX TBWUK36 20183 99072 11080 41397 80314 10255 20248 40079 51005 75882 887// 22254 00270 20604 304// 40703 5//// 80250
BBXX ONDE 20183 99171 11477 41897 31215 10270 20243 40090 56010 7//00 83/69 22233 00270 21005 312// 4//// 5//// 6//// 80250 ICE /////
BBXX C6SI6 20184 99318 11209 46/// /0908 10074 20065 40264 56005 7//// 8//// 22200 0//// 2////
BBXX LAIG7 20184 99362 11651 41797 52014 10130 2005/ 40140 57010 70211 8529/ 22233 00200 20503 324// 41206 5//// 6//// 80090 ICE /////
BBXX WDB3161 20184 99406 11467 41398 73220 11010 2104/ 40190 52005 70222 877// 22253 00089 20802 307// 41004 5//// 6//// 81020 ICE /////
BBXX V7SY6 20184 99112 10737 41998 00708 10280 20224 40230 54000 70000 80000 22223 00230 20501 306// 40502 5//// 6//// 80240 ICE /////
BBXX 46070 20181 99551 11753 46/// /3506 11010 21079 49954 52008 91750 22200 00039 10906 20502 3//// 40906 70029 333 91207 555 11057 22059 31707 43508 61749 344056 323060 339059 323047 341058 342055 83407 91707
AAXX 20181 26509 11537 50901 11005 21014 30119 40129 58003 69952 71022 85500 333 10041 91004 91105 555 53010
AAXX 20181 26518 31124 81101 11025 21028 40134 58005 71022 886// 333 10000 88703 91003 91105 555 4/015 53008
AAXX 20181 26524 31295 81201 11011 21011 30001 40137 57005 71022 886// 333 10015 88703 91002 91104 555 53008
AAXX 20181 26531 31918 40000 11034 21037 40139 58009 71011 84070 333 10005 91001 91102 555 53008
AAXX 20181 26629 41895 50000 11036 21041 30037 40136 57008 71022 85040 333 11007 91000 91103 555 53004
AAXX 20181 26633 31526 30000 11047 21053 30004 40140 58010 71010 82550 333 11009 91000 91102 555 53005
AAXX 20181 26730 31956 50000 11024 21033 39938 40135 57011 71022 85030 333 11004 91001 91103 555 53004
BBXX BATFR19 20184 99065 30060 46/// /1915 10235 20199 40121 53013 22200 00257
BBXX BATFR45 20184 99055 10553 46/// ///// 10262 20239 40129 51014 22214 00294
BBXX BATFR55 20184 99102 30464 46/// /2310 10274 20250 40120 22262 00287
BBXX ONDY 20184 99354 30192 41798 82218 10190 2014/ 40135 56005 70321 88900 22233 00220 2//// 3//// 4//// 5//// 6//// 80160 ICE /////
BBXX DBBT 20181 99368 30126 46/// /2709 10162 20123 40136 54000 22213 00170
BBXX DBKV 20181 99169 70250 46/// /0505 10232 20161 40147 57001 22220 00236
BBXX TBWUK18 20184 99319 50035 41098 62811 10200 20200 40208 57015 70200 861// 22222 20501 321// 41404 5//// 80200
BBXX C6TZ9 20184 99233 50434 417// 40906 10290 20204 40100 54/// 7//00 84/// 22212 00230 2//// 3//// 4//// 5//// 6//// 80230 ICE /////
BBXX WCX7445 20184 99531 50709 43/// /2708 10138 2//// 49882 5//// 7//// 8//// 22200 00151 2//// 3//// 4//// 5//// 6//// ICE /////
BBXX WBP3210 20184 99531 50709 43/// /2707 10129 2//// 49938 5//// 7//// 8//// 22200 00114 2//// 3//// 4//// 5//// 6//// ICE /////
BBXX 32012 20181 99197 50856 46/// ///// 1//// 91750 22200 11505 70027
BBXX ELWR5 20183 99042 70855 41/98 /2310 10250 20222 40100 55010 70361 8/771 22234 04274 20504 316// 41004 80230
BBXX 3EPD8 20184 99249 50409 41998 03620 10260 20215 40108 7//00 80000 22213 04236 2//03 80230
BBXX UFTA 20181 99849 71235 11696 72603 11158 21179 40050 54000 60012 78582 879//
BBXX 46239 20181 99363 71221 46/// ///// 1//// 91751 22200 00134 11306 21004 330// 41305 70031
BBXX 46238 20181 99334 71195 46/// ///// 1//// 91750 22200 00145 11304 20802 328// 41303 70019
BBXX DEDM 20184 99456 70543 41/97 72738 10050 20016 49960 56020 70152 84728 22214 04050 20602 307// 40804 80035
BBXX 41041 20181 99142 70460 46/// /1006 10266 20216 40127 58023 91750 22200 00267 10804 20502 3//// 40803 70018 333 91207 555 11061 22065 31703 41007 61749 096057 096058 096059 097058 097059 098056 81006 91721
BBXX 41113 20181 99284 70805 46/// ///// 1//// 91751 22200 00212 10502 20502 309// 41101 70012
BBXX 41110 20181 99341 70777 46/// ///// 1//// 91751 22200 00144 11101 20501 311// 41101 70006
BBXX 44100 20181 99363 70756 46/// ///// 1//// 91752 22200 00118 11402 21001 308// 41402 70010
BBXX 42099 20181 99273 70842 46/// ///// 1//// 91757 22200 00231 10704 20704 70019
BBXX 46219 20181 99332 71199 46/// ///// 1//// 91758 22200 00138 11405 21003 330// 41404 70027
BBXX 46214 20181 99379 71235 46/// ///// 1//// 91755 22200 00118 11106 21004 331// 41104 70028
BBXX 44099 20181 99369 70757 46/// ///// 1//// 91752 22200 00114 11101 21001 308// 41101 70007
BBXX 46218 20181 99345 71208 46/// ///// 1//// 91802 22200 00140 11106 21004 331// 41104 70028
BBXX 46236 20181 99368 71219 46/// ///// 1//// 91750 22200 00124 11404 21002 329// 41403 70021
BBXX 46243 20181 99462 71241 46/// ///// 1//// 91759 22200 00081 11505 21003 326// 41504 70025
BBXX 46215 20181 99352 71209 46/// ///// 1//// 91738 22200 00149 11504 21002 326// 41503 70018
BBXX 46225 20181 99329 71174 46/// ///// 1//// 91744 22200 00145 11402 20701 327// 41402 70010
BBXX 46229 20181 99438 71246 46/// ///// 1//// 91751 22200 00099 11305 21002 329// 41305 70027
BBXX 46232 20181 99325 71174 46/// ///// 1//// 91738 22200 00152 11503 20702 327// 41502 70014
BBXX 46247 20181 99378 71228 46/// ///// 1//// 91751 22200 00110 11005 21003 330// 41103 70024
BBXX 44060 20181 99413 70721 46/// ///04 10053 40209 57003 91800 22200 00101 333 91206 555 11046 22046
BBXX 44172 20181 99445 70634 46/// ///// 1//// 91801 22200 00064 10803 20803 319// 41101 70014
BBXX 44008 20181 99405 70692 46/// /3509 10068 20017 40189 51008 91750 22200 00115 333 91211 555 11095 22099 31654 43612 61749 347091 346085 346087 345091 350088 346092
BBXX 46083 20181 99582 71380 46/// /2909 10053 20008 40172 51033 91750 22200 00064 11306 20804 300// 41305 70032 333 91211 555 11098 22105 31701 42912 61749 289093 293094 288092 287094 286096 286100 82911 91701
BBXX 51101 20181 99243 71621 46/// /0709 10231 20168 40210 55000 91750 22200 00239 10906 20503 309// 40905 70030 333 91210 555 11090 22096 31743 40710 61749 067084 063077 059081 059083 060076 058079
BBXX 46061 20181 99602 71468 46/// /2108 10046 40116 51020 91750 22200 00059 10904 20603 300// 40903 70021 333 91210 555 11085 22089 31749 42210 61749 213080 214074 209069 210059 201052 198054
BBXX 46089 20181 99459 71258 46/// /3406 10093 20090 40294 53009 91750 22200 00091 11508 20501 331// 41508 70042 333 91208 555 11065 22070 31747 43308 61749 338061 340050 341046 336054 339056 342059
BBXX 44011 20181 99411 70666 46/// /3311 10066 20009 40159 53012 91750 22200 00094 10807 20806 3//// 41003 70035 333 91213 555 11119 22126 31715 41515 61749 325113 326114 327117 325125 326123 328119
BBXX 41046 20181 99238 70683 46/// /0707 10235 20152 40219 58019 91750 22200 00257 11206 20603 300// 41205 70029 333 91209 555 11078 22082 31722 40810 61749 073073 074072 081073 077069 079070 072064 80708 91737
AAXX 20183 78388 111559 70716 10270 20213 30142 40151 60001 71522 85852 333 02229 10292 20223 59008 82822 84645 85074
AAXX 20184 78397 111574 61115 10300 20197 30127 40143 60001 70522 82843 333 01229 10309 20234 59003 81824 85070
AAXX 20184 DUPE
BBXX TFBKF 20184 99635 70202 46/// ///// 22200 10806 70032
BBXX TFBLK 20184 99657 70248 46/// ///// 22200 10809 70045
BBXX TFDRN 20184 99658 70212 46/// ///// 22200 10302 70008
BBXX TFGRS 20184 99663 70182 46/// ///// 22200 10504 70018
BBXX TFGRV 20184 99638 70225 46/// ///// 22200 10705 70026
BBXX TFGSK 20184 99641 70229 46/// ///// 22200 10810 70050
BBXX TFHFN 20184 99642 70152 46/// ///// 22200 10705 70025
BBXX TFKGR 20184 99657 70136 46/// ///// 22200 10402 70011
BBXX TFSRT 20184 99633 70203 46/// ///// 22200 10909 70043
BBXX TFSTD 20184 99664 70234 46/// ///// 22200 10707 70034
BBXX 44039 20181 99411 70727 46/// /3306 10054 21051 40222 91745 22200 00093 10201 70004 333 91207
BBXX ZCDF4 20183 99337 71182 41598 30000 10168 20109 40184 51008 70200 821// 22200 00150 20000 300// 40000 5//// 80136
BBXX 42057 20181 99168 70815 46/// /1011 10283 20213 40139 58022 91750 22200 00279 10804 20603 3//// 40803 70021 333 91213 555 11106 22113 31746 41013 61749 097106 093099 096103 092103 090102 092100 80911 91714
BBXX 41009 20181 99285 70802 46/// /1408 10227 20159 40226 58023 91750 22200 00246 11003 20503 300// 41002 70017 333 91210 555 11083 22087
BBXX 41010 20181 99289 70785 46/// /1407 10219 40234 58025 91750 22200 00237 11003 20502 300// 41002 70016 333 91208 555 11070 22073
BBXX CGBY 20184 99487 71235 46/// /2504 10070 20059 40265 52012 7//// 8//// 22200 0//// 2////
BBXX VOFG 20184 99456 70614 46/// /2929 11016 21061 40043 51013 7//// 8//// 22200 0//// 2////
BBXX VCSZ 20184 99455 70735 46/// /2506 11047 21098 40222 58020 7//// 8//// 22200 0//// 2////
BBXX CG2958 20184 99517 71281 46/// /2905 10076 20047 40275 51014 7//// 8//// 22200 0//// 2////
BBXX VXKF 20184 99462 70602 46/// /2918 11012 21070 40000 53054 7//// 8//// 22244 0//// 2////
BBXX VCLM 20184 99501 70644 46/// /3128 11079 21134 40035 52044 7//// 8//// 22263 00016 2////
BBXX CGDT 20184 99468 70712 46/// /2407 11084 21162 40219 58013 7//// 8//// 22200 0//// 2////
BBXX CGBR 20184 99543 71303 46/// /1101 10048 20046 40234 51024 7//// 8//// 22200 0//// 2////
BBXX CGUM 20184 99447 70636 46/// /3221 11009 21105 40102 53111 7//// 8//// 22200 0//// 2////
BBXX VOKJ 20184 99512 70548 46/// /1711 11039 21057 49954 56024 7//// 8//// 22274 0//// 2////
BBXX CG2965 20184 99487 71235 46/// /2505 10067 20056 40267 51012 7//// 8//// 22200 0//// 2////
BBXX CGTF 20184 99476 70527 46/// /1305 11017 21044 49963 58034 7//// 8//// 22200 0//// 2////
BBXX CGCC 20184 99460 70731 46/// /2207 11068 21148 40228 58016 7//// 8//// 22200 0//// 2////
BBXX 3FZK3 20184 99514 71354 46/// /2913 10069 20048 40256 51025 7//// 8//// 22233 0//// 2////
BBXX VAAP 20184 99446 70636 46/// /2905 11003 21104 40091 51017 7//// 8//// 22200 0//// 2////
BBXX VCBW 20184 99485 70689 46/// /2814 11090 21169 40184 50001 7//// 8//// 22213 00029 2////
BBXX CGSB 20184 99492 70681 46/// /3015 11095 21157 40160 51020 7//// 8//// 22200 0//// 2////
BBXX CZ9742 20184 99506 70969 46/// /2211 10004 21037 49988 50997 7//// 8//// 22200 0//// 2////
BBXX CGDX 20184 99490 70669 46/// /2916 11083 21140 40143 51019 7//// 8//// 22200 0//// 2////
BBXX CGJK 20184 99484 71234 46/// /3606 10088 20067 40263 51008 7//// 8//// 22200 0//// 2////
BBXX VOPP 20184 99456 70735 46/// /2205 11052 21135 4//// 5//// 7//// 8//// 22200 0//// 2////
BBXX VOKF 20184 99490 70669 46/// /2924 11086 21146 40134 51023 7//// 8//// 22200 0//// 2////
BBXX VCWL 20184 99456 70735 46/// /2702 11046 21116 40226 58020 7//// 8//// 22200 0//// 2////
BBXX VOLG 20184 99476 70527 46/// /1902 11010 21035 49960 58034 7//// 8//// 22200 0//// 2////
BBXX CGDG 20184 99447 70636 46/// /3224 11012 20014 40102 51023 7//// 8//// 22200 0//// 2////
BBXX CGDR 20184 99492 71239 46/// /3011 10075 20074 40262 51004 7//// 8//// 22200 00113 2////
BBXX VAAZ 20184 99543 70528 46/// /0108 11053 21072 49988 56021 7//// 8//// 22232 0//// 2////
BBXX CGBN 20184 99447 70636 46/// /3124 11009 21087 40086 51020 7//// 8//// 22200 0//// 2////
BBXX CGJV 20184 99462 70631 46/// /3219 11030 21107 40081 53014 7//// 8//// 22200 0//// 2////
BBXX 46026 20181 99378 71228 46/// /1204 10106 40195 52008 91750 22200 00108 11205 20401 330// 41205 70023 333 91205 555 11043 22045 31722 42907 61749 118041 290046 290051 292047 291046 291040
BBXX 46041 20181 99474 71247 46/// /3307 10085 40275 52012 91750 22200 00082 11408 20502 3//// 41408 70040 333 91208 555 11073 22079 31746 43308 61749 329068 332066 332066 333062 343049 349041
BBXX 44007 20181 99435 70701 46/// /3306 11005 21131 40206 53012 91750 22200 00081 11101 20301 3//// 41101 70007 333 91208 555 11061 22063 31650 43410 61749 329059 329055 334063 341073 347055 344071
BBXX 42363 20181 99282 70892 46/// /1810 10239 20178 40169 58014 91800 333 91211
BBXX 42362 20181 99278 70907 46/// /1807 10239 20206 40159 58010 91800
BBXX 42364 20181 99291 70881 46/// /1609 10228 20200 40173 58017 91800
BBXX 46035 20181 99571 71778 46/// /2908 1//// 49907 51013 91750 22200 11006 20603 300// 41005 70029 333 91210 555 11084 22089 31712 43211 61749 295084 306085 307092 310087 306082 303087 83210 91729
BBXX 46077 20181 99579 71543 46/// /1413 10028 20022 49982 56054 91750 22200 00055 10504 20504 3//// 40802 70019 333 91216 555 11138 22146 31700 41418 61749 143130 143131 145132 145141 145143 140142 81516 91712
BBXX 46072 20181 99517 71722 46/// /2710 10021 21031 49992 53019 91750 22200 00045 11008 20807 3//// 41005 70041 333 91213 555 11108 22114 31709 42715 61749 272101 278110 271114 266111 266120 264120 82613 91709
BBXX 46082 20181 99597 71434 46/// ///// 10052 20052 40157 51026 91750 22200 00062 11106 70028
BBXX VCRG 20184 99463 70623 46/// /3025 11028 21042 40057 53024 7//// 8//// 22243 00087 2////
BBXX 41040 20181 99145 70530 46/// /0409 10269 20209 40130 56027 91750 22200 00279 10904 20804 3//// 40902 70022 333 91210 555 11095 22100 31655 40511 61749 044089 041088 041087 038092 036091 040092 80510 91656
BBXX 42039 20181 99288 70860 46/// /1510 10229 40172 58016 91750 22200 00227 10704 20704 70021 333 91212 555 11105 22112 31733 41513 61749 150097 152097 152098 148101 149098 147097 81511 91720
BBXX 42362 20181 99278 70907 46/// /1808 10239 20206 40163 91745
BBXX PHCQ 20183 99258 70858 41597 81308 10263 20230 40177 58014 70282 884// 22273 00244 20504 3//// 4//// 5//// 80239
BBXX CGDS 20184 99450 70747 46/// /2605 11057 21118 4//// 5//// 7//// 8//// 22200 0//// 2////
BBXX BATEU08 20184 99593 70408 46/// /0115 11007 21098 49988 56021 22263
BBXX BATEU05 20184 99594 70442 46/// /0807 11033 21075 49984 56022 22222
BBXX BAREU06 20184 99481 70612 46/// ///// 40009 52003 22234
BBXX BATFR14 20184 99309 70431 44498 72909 10207 20172 40147 55004 70222 8748/ 22214 00217 202// 30913 40904 507// 60000 ICE 0/0//
BBXX C6OT4 20184 99181 71492 41598 80924 10225 20210 40150 52010 72522 8587/ 22223 04234 20806 309// 40905 5//// 80215
BBXX A8EH2 20183 99403 71394 41198 71208 10120 20090 40340 58002 86832 22274 00125 20200 329// 41206 80105
BBXX V7NV4 20184 99299 71513 41497 70913 10190 20175 40250 53010 701// 84276 22263 00180 20201 314// 40404 5//// 6//// 80180 ICE /////
BBXX WBO3345 20184 99212 70751 41697 60523 10267 20244 40160 57/// 70122 86493 22232 0//// 20405 308// 40405 5//// 6//// 80250 ICE /////
BBXX A8SI3 20183 99529 71432 43698 52314 10065 2002/ 40320 52020 85130 22274 00050 20604 324// 50702 80045
BBXX 44066 20181 99396 70726 46/// /3405 10095 20042 40209 54000 91750 22200 00130 10804 20401 3//// 40804 70019 333 91206 555 11051 22053 31703 43408 61749 339050 334050 337049 331051 331061 332054
BBXX 41043 20181 99211 70650 46/// /0609 10244 20177 40198 58029 91750 22200 00263 11106 20703 300// 41105 70030 333 91210 555 11093 22098 31727 40711 61749 062088 066084 064087 060082 063080 067080 80610 91749
BBXX 41036 20181 99342 70770 46/// ///// 10181 20117 40234 58018 91750 22200 00193 11001 70007
BBXX 41047 20181 99275 70715 46/// /0905 10217 40253 58016 91750 22200 00251 11206 20401 303// 41206 70029 333 91207 555 11052 22054 31734 41008 61749 093054 102059 089059 085056 096060 088056 80907 91734
BBXX 41101 20184 99146 70562 46/// /0519 10265 20203 40124 57026 22200 00272 10704 70019
BBXX BAREU04 20184 99523 70408 46/// ///// 49784 57056 22253
BBXX BAREU11 20184 99264 70598 46/// ///// 40228 57014 22214
BBXX 44020 20181 99414 70702 46/// /3309 10046 21036 40193 52006 91750 22200 00073 10402 20402 70008 333 91212 555 11096 22103 31745 43412 61749 320090 258083 257090 257089 258089 260095
BBXX 46025 20181 99337 71191 46/// /3407 10138 20097 40172 52008 91750 22200 00153 11402 20401 330// 41402 70009 333 91208 555 11069 22072 31719 43408 61749 337065 336065 334063 333064 335060 332061
BBXX 46054 20181 99342 71204 46/// /3303 10134 40185 53010 91750 22200 00137 11105 20401 300// 41105 70027 333 91204 555 11031 22033 31726 43205 61749 326030 327031 323030 318029 316032 318033
BBXX 46028 20181 99357 71219 46/// /2801 10122 40187 53012 91750 22200 00127 11107 20301 332// 41107 70033 333 91202 555 11010 22011 31655 43202 61749 278010 258007 319005 345005 336007 340010
BBXX 46029 20181 99461 71245 46/// /3304 10092 20090 40277 53005 91750 22200 00089 11506 20401 328// 41506 70030 333 91206 555 11044 22049 31650 43407 61749 325042 330046 339050 344052 347054 348059
BBXX 46087 20181 99485 71247 46/// /3006 10089 20078 40266 52008 91750 22200 00077 11107 20401 328// 41107 70037 333 91207 555 11063 22070 31702 43009 61749 303057 302056 300048 306057 301071 296066
BBXX 46047 20181 99324 71195 46/// /0103 10135 40180 51008 91750 22200 00137 11205 20401 330// 41205 70026 333 91204 555 11033 22034 31717 40104 61749 012031 015030 017031 010031 010028 015028
BBXX 46086 20181 99325 71180 46/// /0105 10142 40169 51009 91750 22200 00149 11503 20401 329// 41503 70016 333 91205 555 11047 22049 31713 40107 61749 006046 359044 006050 006053 010055 011053
BBXX 46013 20181 99382 71233 46/// /1604 10097 40195 51014 91750 22200 00111 11305 20401 3//// 41305 70025 333 91206 555 11037 22039 31652 41706 61749 161038 154041 160037 158043 162049 172049
BBXX 46027 20181 99419 71244 46/// /3510 10101 40232 55000 91750 22200 00091 11306 20804 328// 41304 70029 333 91212 555 11111 22120 31730 43514 61749 348103 352109 358108 350106 357090 355095
BBXX 46088 20181 99483 71232 46/// /2707 10084 40255 91750 22200 00079 1//00 70002 333 91209 555 11077 22083 31747 42609 61749 264070 261073 259064 258068 253059 223047
BBXX 46050 20181 99442 71246 46/// /1702 10079 40285 54000 91750 22200 00098 11305 329// 41305 70027 333 91203 555 11022 22022 31723 41603 61749 171021 174023 178023 184021 177021 181017
BBXX 46014 20181 99394 71240 46/// /1406 10101 40195 53011 91750 22200 00106 11206 20501 3//// 41206 70030 333 91207 555 11062 22066 31725 41208 61749 135057 136056 129063 122046 114033 099046
BBXX 46012 20181 99374 71229 46/// /0202 10099 40197 51012 91750 22200 00123 11506 20401 330// 41506 70032 333 91203 555 11021 22021 31734 40704 61749 027021 056029 056024 055017 073016 083008
BBXX 46069 20181 99337 71202 46/// /0000 10142 40185 53009 91750 22200 00141 11405 20301 329// 41405 70023 333 91201 555 11005 22006 31650 43404 61749 027006 029014 019016 023020 009027 358031
BBXX 46011 20181 99350 71210 46/// /0702 10123 40192 53011 91750 22200 00138 11305 20401 330// 41305 70026 333 91203 555 11015 22016 31652 40904 61749 070015 069014 075013 080019 089019 087024
BBXX 46105 20181 99590 71522 46/// ///// 1//// 91750 22200 10303 70015
BBXX A8ID9 20184 99038 71586 41298 40917 10240 20226 40100 51010 70322 82261 22214 04270 20403 30000 4//// 5//// 80230
BBXX BATFR53 20184 99183 31797 44498 50509 10267 20229 40109 53017 70300 82432 22222 00282 201// 321// 404// 5//// 60/// ICE 0////
BBXX BATFR48 20184 99167 51490 46/// /1023 10237 20194 40136 51017 22252 00299
BBXX BATEU07 20184 99313 31137 46/// /2013 10200 40141 51004 22284
BBXX CG2960 20184 99423 70830 46/// /0507 10005 21028 4//// 5//// 7//// 8//// 22200 0//// 2////
BBXX CG2350 20184 99433 70798 46/// /0503 11008 21050 40221 58026 7//// 8//// 22200 0//// 2////
BBXX WDD2876 20184 99469 70913 41/98 21921 11016 2//// 40119 5//// 70200 8//// 22213 00050 2//02 3//// 4//// 5//// 6//// 8//// ICE /////
BBXX 42019 20181 99279 70954 46/// /0112 10179 20163 40116 58004 91750 22200 10805 20504 316// 40803 70024 333 91215 555 11128 22136 31743 40215 61749 000115 284088 279049 281075 282077 277066
BBXX 42040 20181 99292 70882 46/// /1608 10228 40163 58010 91750 22200 00227 10804 20703 313// 40803 70022 333 91210 555 11080 22086 31702 41511 61749 156080 154084 155082 153085 155088 153081
BBXX 44005 20181 99432 70691 46/// /3212 11001 21110 40191 53014 91750 22200 00085 10605 20605 3//// 41201 70027 333 91215 555 11126 22132 31709 43416 61749 322119 327121 328123 325128 326133 330136
BBXX 42003 20181 99260 70856 46/// /1408 1//// 91750 22200 10805 20503 312// 40803 70023 333 91213 555 11085 22090 31700 41413 61749 142074 129080 129087 125097 134110 129098 81412 91700
BBXX 42036 20181 99285 70845 46/// /1508 10216 20191 40194 58009 91750 22200 00215 10703 20703 70016 333 91210 555 11089 22095 31710 41411 61749 148083 147084 144087 144088 140082 145084
BBXX 42056 20181 99198 70849 46/// /1110 10270 20232 40146 58017 91750 22200 00272 10805 20805 70023 333 91212 555 11103 22109 31723 41112 61749 108097 109098 110098 109094 107099 108099 81110 91709
BBXX 42058 20181 99149 70749 46/// /0913 10273 20201 40119 58024 91750 22200 00277 10906 20906 70031 333 91214 555 11136 22145 31651 40915 61749 085126 080124 081124 085120 085120 085116 80913 91748
BBXX 42060 20181 99163 70635 46/// /0509 10267 20190 40158 58024 91750 22200 00277 10604 20603 300// 41001 70018 333 91211 555 11097 22102 31724 40411 61749 048091 043092 043096 040093 038093 041088 80410 91712
BBXX 42065 20181 99149 70750 46/// /0711 10271 20219 91750 22200 10906 20805 3//// 40903 70029 333 91213 555 11112 22120 31749 40813 61749 075105 079105 082103 079098 078105 079107 80812 91701
BBXX 42001 20181 99259 70897 46/// /1608 10250 20210 40167 58011 91750 22200 00259 10803 20602 3//// 40802 70016 333 91210 555 11087 22092 31704 41510 61749 157081 158080 157079 157072 155081 155083
BBXX 42012 20181 99301 70876 46/// /3105 10193 20188 40170 58022 91750 22200 00207 10703 20401 316// 40703 70017 333 91207 555 11047 22049 31653 42707 61749 313043 006038 347036 337040 302049 291052
BBXX 41001 20181 99347 70727 46/// ///// 10205 20115 40223 58017 91750 22200 00222 10805 70026
BBXX 41060 20181 99148 70510 46/// ///// 1//// 91750 22200 11004 70018
BBXX 42035 20181 99292 70944 46/// /3608 10139 20123 40141 51011 91750 22200 00160 10802 20502 318// 40802 70012 333 91210 555 11088 22092 31714 43611 61749 004084 005080 023079 006087 358079 005083
BBXX 41044 20181 99217 70587 46/// /0410 10241 20172 40188 58018 91750 22200 00264 11306 20704 300// 41305 70031 333 91212 555 11108 22114 31746 40512 61749 045101 045093 041092 042088 040093 045089 80511 91746
BBXX 41048 20181 99320 70696 46/// /2505 10187 20087 40255 57023 91750 22200 00228 11406 20401 3//// 41406 70030 333 91207 555 11053 22055 31723 42508 61749 251053 256050 257052 254053 247044 247050 82606 91736
BBXX 42020 20181 99270 70967 46/// /3106 10210 20189 40129 51006 91750 22200 00235 10803 20502 314// 40803 70017 333 91207 555 11066 22069 31735 43107 61749 309062 306061 306060 301060 300057 298054
BBXX 41049 20181 99275 70630 46/// /3505 10200 20118 40245 56015 91750 22200 00235 11310 20502 300// 41310 70048 333 91207 555 11056 22058 31704 43609 61749 348054 351057 008053 014055 010066 012063 83608 91704
BBXX WKAW 20184 99425 70647 41598 53224 10080 2001/ 40130 54000 70211 85100 22224 00070 20606 3//// 4//// 5//// 6//// 80050 ICE /////
BBXX C6JS 20183 99352 70365 41498 71422 10210 2018/ 40190 57020 70311 89/// 22254 20704 3//// 4//// 5//// 80190
BBXX DBLK 20181 99705 50081 41499 22303 11024 21053 49831 57009 70122 82500 22200 05017 ICE 18780
BBXX 3FBC9 20184 99100 71149 41798 70719 10280 40085 51020 70322 86563 9//// 22233 00280 20404 305// 40605 5//// 6//// 80250
BBXX FVNM 20184 99065 70815 46/// /3110 10270 20234 40092 58026 22221 00274
BBXX WDC6698 20184 99097 71432 43/// /0712 1//// 2//// 40110 5//// 7//// 8//// 222// 04254 2//// 3//// 4//// 5//// 6//// 8//// ICE /////
BBXX 44014 20181 99366 70748 46/// /2904 1//// 40217 58012 91750 22200 00146 11303 20401 307// 41303 70017 333 91205 555 11040 22040 31725 42806 61749 287040 288044 290047 288045 283045 289045
BBXX 41008 20181 99314 70809 46/// /0702 10189 20164 40234 58013 91750 22200 00174 11002 20401 300// 41002 70009 333 91202 555 11019 22023 31749 40602 61749 068016 055011 032008 047009 026013 047015
BBXX 41004 20181 99325 70791 46/// /0000 10200 20132 40240 58017 91750 22200 00208 11102 20401 3//// 41102 70010 333 91201 555 11003 22003 31651 43002 61749 010004 034009 018011 357011 335008 320011
BBXX 41013 20181 99334 70777 46/// /1601 10195 20133 40236 58018 91750 22200 00195 11302 20401 310// 41301 70008 333 91201 555 11007 22008 31656 42302 61749 160007 168006 165006 199005 230011 230012
BBXX 42002 20181 99258 70937 46/// /1706 10250 20228 40139 58009 91750 22200 00240 10704 20402 313// 40703 70019 333 91207 555 11060 22064 31716 41709 61749 171061 169068 167067 169071 166074 162067
BBXX 44065 20181 99404 70737 46/// /3604 10072 21005 40213 50000 91750 22200 00091 11302 20301 311// 41302 70011 333 91205 555 11036 22037 31722 40106 61749 355035 356032 356044 342038 343039 350043 80105 91721
BBXX 44009 20181 99385 70747 46/// /2802 10105 40227 58006 91750 22200 00111 11302 20401 300// 41302 70011 333 91203 555 11023 22023 31710 42703 61749 284022 287020 279021 273023 270025 273023
BBXX 44025 20181 99402 70732 46/// /3504 10077 20021 40208 54000 91750 22200 00110 11303 20401 310// 41303 70014 333 91205 555 11039 22040 31655 43506 61749 346037 336037 338042 344041 352037 349045
BBXX 44027 20181 99443 70673 46/// /3110 11028 21101 40170 51027 91750 22200 00083 10804 20704 3//// 40802 70022 333 91213 555 11105 22109 31713 43016 61749 309101 305113 305114 308127 305108 309111
BBXX 42055 20181 99222 70940 46/// /1307 10257 20214 40120 58010 91750 22200 00253 10603 20603 70016 333 91208 555 11075 22081 31650 41309 61749 129069 129064 132064 131063 134064 136071 81308 91750
BBXX 44022 20181 99409 70737 46/// ///02 10065 21009 40214 91745 22200 00079 333 91203 555 11021 22021
BBXX 46075 20181 99539 71608 46/// /2619 10036 20014 49929 53055 91750 22200 00048 11417 20808 300// 41415 70086 333 91224 555 11201 22215 31726 42524 61749 263186 258186 259182 256174 252170 239174 82620 91746
BBXX 46080 20181 99580 71500 46/// /1814 10032 20020 40084 56022 91750 22200 00051 11107 20705 3//// 41105 70034 333 91218 555 11147 22156 31734 41819 61749 175139 176148 176133 176141 179137 178134 81816 91734
BBXX 46084 20181 99566 71361 46/// /2810 10058 20000 40204 51038 91750 22200 00069 11308 20806 300// 41306 70042 333 91211 555 11101 22107 31708 42712 61749 278095 273098 271100 272097 273098 272097
BBXX 46005 20181 99461 71310 46/// ///06 10094 40322 53012 91750 22200 00100 11508 20501 3//// 41508 70039 333 91207 555 11062 22066
BBXX 46059 20181 99380 71300 46/// /0112 10137 40277 52007 91750 22200 00145 11408 20604 3//// 41407 70039 333 91214 555 11127 22135 31729 40115 61749 009119 009123 010121 008119 010120 008111
BBXX 46006 20181 99408 71375 46/// /0502 10118 40345 52007 91750 22200 00125 11407 3//// 41407 70033 333 91203 555 11018 22018 31650 43303 61749 049017 042017 028020 016020 008022 003022
BBXX 46002 20181 99426 71305 46/// ///// 10113 40321 52005 91750 22200 00118 11407 70036
BBXX 42059 20181 99151 70675 46/// /0710 10273 20180 40144 58025 91750 22200 00278 10704 20704 3//// 41101 70022 333 91211 555 11101 22108 31741 40712 61749 070095 073092 072091 071091 072091 069091 80710 91744
BBXX MDTE9 20183 99388 70193 41097 81208 10161 20156 40336 56001 741// 8/6// 22223 00162 2//// 3//// 4//// 5//// 80158
BBXX WDD6126 20184 99490 70059 41398 62624 10130 2009/ 40246 52026 70222 8619/ 22254 00110 20305 327// 40404 5//// 6//// 80110 ICE /////
BBXX MGSG6 20183 99575 70000 41297 82723 10070 20047 40097 52030 70262 887// 22243 04170 20402 327// 40503 5//// 80060
BBXX WKAB 20184 99365 10153 41/98 13115 10125 20044 40189 53001 70100 8//// 22234 00169 2//// 3//// 4//// 5//// 6//// 80085 ICE /////
BBXX DBBH 20181 99362 70107 41498 10208 10150 20089 40319 52007 70111 81130 22252 04180 20502
BBXX OZ2049 20180 99626 70142 41/97 42716 10065 40008
BBXX WDD3826 20184 99493 70061 41398 73213 10140 2012/ 40250 54000 7//22 876// 22224 00100 20301 332// 40602 5//// 6//// 80130 ICE /////
BBXX VRYO3 20184 99497 70067 46/// /0921 10111 20122 40221 51007 7//// 8//// 22264 00122 2////
BBXX DBFH 20181 99535 10086 46/// /3305 10061 20054 40040 52026 22210 00044
BBXX DBBI 20181 99535 10100 46/// /1102 10024 20024 40042 52009 22260 00030
BBXX DBEA 20181 99540 10082 46/// /3511 10035 20027 40048 52041 22210 00058
BBXX DBBC 20181 99535/10100 46/// /1102 10023 ///+/ 40043 52009 22220 00032
BBXX DBEB 20181 99539 10079 41/// /3513 10045 20045 40045 52041 7//// 22200 00060
BBXX DBJM 20181 99540 10085 46/// /0108 10030 20022 40047 52040 22231 00045
BBXX DBBA 20181 99544 10113 46/// /1509 10021 20004 40051 52010 22231 00051
BBXX DBKR 20181 99541 10121 46/// /1603 10012 21007 40058 52002 22200 00043
BBXX DBFR 20181 99539 10075 46/// /3409 10051 20045 40058 52046 22211 00059
BBXX DBBU 20181 99545 10124 46/// /1405 10010 21010 40066 52008 22211/00050
BBXX DK7210 20181 99540 10066 46/// /3310 10082 20078 30049
AAXX 20184 93004 16/// /0816 10152 20125 40242 52008 60001
AAXX 20184 93023 16/// /1503 10153 20125 40260 52011 60001
AAXX 20184 93069 16/// /1210 10162 20125 40262 52009 60001
AAXX 20184 93110 17/98 /0000 10136 20132 40266 52010 60001
AAXX 20184 93186 17698 /2002 10145 20112 40275 52014 60001
AAXX 20184 93196 16/// /1309 10136 20102 40271 52012 60001
AAXX 20184 93245 16/98 /0901 10090 20076 40288 52009 60001
AAXX 20184 93292 17698 /3601 10132 20110 40283 52014 60001
AAXX 20184 93309 17/98 /1407 10129 20103 40269 52013 60001
AAXX 20184 93334 16/// /1003 10065 20056 39315 52014 60001
AAXX 20184 93339 16/// /0608 10071 20056 39320 52013 60001
AAXX 20184 93373 17698 /2404 10131 20104 40289 52015 60001
AAXX 20184 93404 17/98 /1208 10132 20079 40284 52015 60001
AAXX 20184 93420 17598 /3301 10097 20079 40284 52017 60001
AAXX 20184 93439 17698 /1708 10134 20077 40292 52016 60001
AAXX 20184 93498 16/// /2404 10119 20088 40293 52017 60001
AAXX 20184 93515 17398 /1605 10136 20135 40276 52010 60001
AAXX 20184 93527 16/// /0708 10138 20120 40281 52015 60001
AAXX 20184 93546 17/98 /1102 10122 20114 40280 52013 60001
AAXX 20184 93597 16/// /1106 10127 20092 40296 52016 60001
AAXX 20184 93615 17697 /0903 10153 20138 40276 52010 60001
AAXX 20184 93678 16498 /0302 10118 20094 40297 52016 60001
AAXX 20184 93709 16/// /1704 10130 20124 40275 52009 60001
AAXX 20184 93773 17498 /0404 10123 20108 40287 52011 60001
AAXX 20184 93781 17498 /0303 10127 20095 40292 52011 60001
AAXX 20184 93800 NIL
AAXX 20184 93805 NIL
AAXX 20184 93831 17998 /1902 10128 20104 40279 52012 60001
AAXX 20184 93845 17/98 /0103 10083 20080 40276 52007 60001
AAXX 20184 93891 17094 /0703 10090 20083 40284 52013 60001
AAXX 20184 93909 16/// /3509 10131 20109 40270 52011 60001
AAXX 20184 93929 16/// /0000 10085 20078 40256 52004 60001
AAXX 20184 93947 16/// /2812 10077 20069 40243 52005 60001
AAXX 20184 93987 16/// /1906 10098 20044 40272 52021 60001
AAXX 20184 93994 NIL
AAXX 20181 26038 01/81 11903 10007 21001 30066 40107 52009 69972 70251 81030 333 10037 20008 60007 81/// 91109 555 1/100 20008 3/100 50022 52100
AAXX 20181 26045 NIL
AAXX 20181 26058 NIL
AAXX 20181 26115 NIL
AAXX 20181 26135 01258 71902 10009 20005 30049 40124 52006 60012 70272 87900 333 10032 20005 69957 87904 555 1/001 20005 3/000 50017 52100
AAXX 20181 26141 01260 82005 10004 21002 39974 40125 52009 69932 70282 875// 333 10021 20004 60007 87604 91108 555 1/000 20004 3/100 50010 52100
AAXX 20181 26231 01483 22105 10025 20013 30109 40124 52005 60042 70281 82600 333 10036 20019 60007 82711 91108 555 1/001 20019 3/001 50031
AAXX 20181 26242 01469 81902 11003 21022 30050 40138 52002 60002 70222 875// 333 10026 21005 60007 87616 91108 555 1/100 21005 3/101 50018 52102
AAXX 20181 26247 NIL
AAXX 20184 78866 01463 70710 10260 20202 30163 40168 57024 60001 71622 83462 333 58007 60007 82817 83632 87078
BBXX MGRH9 20183 99340 31653 41598 71114 10184 20135 40204 53001 71522 86874 22233 00201 20202 315// 40903 5//// 80156
BBXX LAHV 20181 99589 10057 43/// /1203 10013 21003 40045 222// 04078 1////
BBXX LDGJ 20181 99603 10053 43/// /3302 10008 21007 40032 5//// 222/0 04088 1//// 3//// 4//// 5////
BBXX LF4H 20184 99596 10022 46/// /3015 10061 21025 40045 52013 8//// 22200 06083 10604 70021 333 91128
BBXX LMEL 20181 99603 10053 43/// /3402 10004 20004 40028 5//// 222/0 04090 1//// 3//// 4//// 5////
AAXX 20184 47101 31563 80901 11046 21078 30170 40271 57008 72272 8552/
AAXX 20184 47105 369// /2704 10012 21086 30217 40250 57004
AAXX 20184 47108 32660 81404 10015 21054 30149 40257 57010 8552/
AAXX 20184 47115 32670 72904 10028 21061 39963 40240 57010 84502 333 92032
AAXX 20184 47133 31662 82902 10003 21055 30179 40267 57009 77072 8452/
AAXX 20184 47138 32970 62303 10027 21105 30256 40259 57008 80002 333 92022
AAXX 20184 47159 32970 60503 10031 21132 30173 40260 55006 80002 333 92022
AAXX 20184 47165 32962 41604 10016 21027 30217 40265 57007 80001 333 92022
AAXX 20184 47168 32970 50703 10035 21102 30179 40260 57008 80001 333 92022
AAXX 20184 47184 31658 61804 10058 20000 30238 40264 57007 70521 81501 333 92022
AAXX 20184 78866 01463 70710 10260 20202 30163 40168 57024 60001 71622 83462 333 58007 60007 82817 83632 87078
AAXX 20184 16622 12260 33207 10082 20073 30083 40094 52020 60002 83600 333 10100 90730 91111 555 10000 40070 30000 10070 2//// 30094 4//// 5//// 40000 47592 44210 50000 50078
AAXX 20184 16641 11460 63108 10080 20043 30120 40126 52021 60052 72992 85860 333 10112 83818 84630 85358 90730 91131 555 10000 40052 40000 47622 44220 50000 50064 60000 60048 60147 70000 77TR/ 7TP//
AAXX 20184 16682 11560 60000 10060 20046 30113 40131 51006 60072 70196 84850 333 10120 82820 84625 90730 91108 555 10000 40060 30000 10090 20100 30112 40124 50136 60186 40000 47620 44240 50000 50054 60000 60073 60235 70000 77/// 7TR//
AAXX 20184 16716 12570 23308 10110 20038 30105 40123 52022 60002 81140 333 10160 555 10000 40096 40000 47605 44170 50000 50078
AAXX 20184 16734 NIL
AAXX 20184 16743 NIL
AAXX 20184 16749 11458 72207 10144 20133 30119 40134 50000 60042 76162 86770 333 10184 82710 86620 87356 90730 91118 555 10000 40144 40000 47621 44210 50000 50138 60000 60044 60115 70000 77RY/ 7RY//
AAXX 20184 16754 12560 23407 10140 20061 30103 40150 52024 60002 82200 333 10196 90730 91110 555 10000 40138 40000 47609 44205 50000 50102
AAXX 20184 47090 32970 20000 10019 21088 30220 40243 57010 80001 333 92020
AAXX 20184 47095 32560 80000 11059 21084 30066 40265 57013 8552/
AAXX 20184 47097 329// /0001 11024 21062 30169 40269 57006
AAXX 20184 47098 329// /0000 11021 21068 30116 40255 57011
AAXX 20184 47099 329// /3601 11019 21070 30219 40257 57013
AAXX 20184 47100 32962 32707 11056 21095 39311 40266 58006 80001
AAXX 20184 47102 32665 82908 10036 21025 30069 40249 56006 8552/
AAXX 20184 47104 32970 21603 11022 21098 30149 40250 58003 80001
AAXX 20184 47106 329// /2001 10007 21088 30201 40252 54000
AAXX 20184 47112 32660 81608 10018 21030 30167 40253 57012 8552/ 333 92012
AAXX 20184 47114 32662 70205 11035 21095 30078 40269 57006 85502
AAXX 20184 47119 32658 81405 10007 21018 30218 40261 57009 8552/
AAXX 20184 47121 329// /0000 11057 21089 39970 40279 57004
AAXX 20184 47127 329// /1101 11018 21069 30126 40273 55005
AAXX 20184 47129 31658 83602 10000 21016 30224 40261 57014 71022 8552/
AAXX 20184 47130 32968 62305 10013 21087 30190 40253 55004 80002 333 92022
AAXX 20184 47131 41660 82701 10001 21057 30192 40265 57010 77072 8452/
AAXX 20184 47135 329// /0201 11028 21062 39959 40270 57011
AAXX 20184 47136 32970 60000 11033 21091 30092 40272 55003 80002
AAXX 20184 47137 329// /0502 11021 21078 30145 40268 56008
AAXX 20184 47140 32962 61104 10007 21039 30233 40263 57011 80001 333 92011
AAXX 20184 47143 32965 70502 10005 21090 30193 40275 57010 80002
AAXX 20184 47145 32662 81105 10009 21069 30228 40255 57009 8452/
AAXX 20184 47146 32668 81604 10014 21076 30196 40264 57013 8552/
AAXX 20184 47150 41658 80703 10018 21034 30240 40260 55007 77072 8452/
AAXX 20184 47152 32970 60000 10021 21086 30215 40259 57007 80002
AAXX 20184 47154 329// /0001 11020 21071 30206 40269 57009
AAXX 20184 47155 32967 50901 10031 21089 30217 40264 57006 80001
AAXX 20184 47156 32970 50000 10010 21031 30178 40270 57009 80001
AAXX 20184 47157 32970 63402 11032 21084 39980 40262 57009 80001
AAXX 20184 47162 32970 50702 10020 21070 30222 40263 55004 80001 333 92021
AAXX 20184 47169 32665 61805 10064 20026 30166 40261 57007 82502 333 92022
AAXX 20184 47170 32962 22001 10018 21036 30222 40267 58005 80001 333 92021
AAXX 20184 47171 329// /0000 10007 21043 30207 40264 57013
AAXX 20184 47172 329// /0001 10010 21027 30190 40259 57011
AAXX 20184 47173 329// /3602 11027 21047 30156 40272 57010
AAXX 20184 47174 32962 60000 11018 21053 30057 40267 57007 80001
AAXX 20184 47175 32963 53408 10016 21014 39679 40264 57010 80001 333 92023
AAXX 20184 47185 32661 60214 10082 20004 30163 40254 57013 82501 333 92034
AAXX 20184 47188 32661 60503 10065 20003 30236 40258 57006 85500 333 92022
AAXX 20184 47189 32668 53603 10085 20037 30190 40250 58004 82501 333 92022
AAXX 20184 47192 32968 50000 11021 21064 30229 40268 57008 80001
AAXX 20184 78866 01463 70710 10260 20202 30163 40168 57024 60001 71622 83462 333 58007 60007 82817 83632 87078
AAXX 20184 91929 04576 /0811 10278 20221 30126 40129 51018 69922 700// 333 10278 20250 60007 90710 91117 555 60005
AAXX 20184 91938 01475 62105 10268 20209 30134 40136 51016 60012 702// 83932 333 10277 20231 60007 81915 83360 85080 90710 91107 555 60005 11907 59009
AAXX 20184 91943 16/// /0909 10278 20230 30125 40127 51015 60032 333 10278 59012
AAXX 20184 91944 06/// /0814 10280 20206 30142 40145 51013 69922 333 10282 20255 60007 90710 91121 555 60005
AAXX 20184 91948 01581 30205 10263 20206 30089 40191 51009 69921 72586 83200 333 56200 69927 83821 90710 91112 555 69905 10514 58006
AAXX 20184 91954 06/// /0906 10277 20217 30157 40160 51011 60001 333 60007 555 59013
AAXX 20184 91958 02582 30607 10256 20202 30192 40194 51008 60001 83201 333 56203 60007 83823 90710 91110 555 60005 10612 59010
AAXX 20184 91925 NIL
AAXX 20184 91945 NIL
BBXX 3FZK3 20184 99514 71354 46/// /2913 10069 20048 40256 51025 7//// 8//// 22233 0//// 2////
BBXX 46001 20181 99563 71480 46/// /1913 10051 40148 56020 91750 22200 00049 11208 20805 300// 41206 70039 333 91217 555 11140 22149 31747 41917 61749 188129 187124 181119 182122 186112 193104
BBXX 46013 20181 99382 71233 46/// /1604 10097 40195 51014 91750 22200 00111 11305 20401 3//// 41305 70025 333 91206 555 11037 22039 31652 41706 61749 161038 154041 160037 158043 162049 172049
BBXX 46026 20181 99378 71228 46/// /1204 10106 40195 52008 91750 22200 00108 11205 20401 330// 41205 70023 333 91205 555 11043 22045 31722 42907 61749 118041 290046 290051 292047 291046 291040
BBXX 46042 20181 99368 71224 46/// /1105 10100 40193 52013 91750 22200 00127 11406 20301 331// 41406 70030 333 91207 555 11051 22053 31706 41108 61749 107050 102050 101054 102061 099062 101061
BBXX CG2958 20184 99517 71281 46/// /2905 10076 20047 40275 51014 7//// 8//// 22200 0//// 2////
BBXX CG2965 20184 99487 71235 46/// /2505 10067 20056 40267 51012 7//// 8//// 22200 0//// 2////
BBXX CGBR 20184 99543 71303 46/// /1101 10048 20046 40234 51024 7//// 8//// 22200 0//// 2////
BBXX CGBY 20184 99487 71235 46/// /2504 10070 20059 40265 52012 7//// 8//// 22200 0//// 2////
BBXX CGDR 20184 99492 71239 46/// /3011 10075 20074 40262 51004 7//// 8//// 22200 00113 2////
BBXX CGJK 20184 99484 71234 46/// /3606 10088 20067 40263 51008 7//// 8//// 22200 0//// 2////
BBXX WDE9586 20183 99418 71431 43698 61818 10140 20110 40300 54000 7//// 86/56 22214 00130 20702 326// 41205 5//// 6//// 80120 ICE /////
AAXX 20184 78962 11460 70313 10257 20222 30126 40134 60011 71582 85962 333 06199 10274 20226 58001 82910 85640 90935
AAXX 20184 87692 32560 20712 10236 20198 30061 40086 58007 82300 333 56700 57973 81828 81935 555 10085
AAXX 20181 14240 12970 02001 10000 21039 39983 40143 56001 60002 333 10037
AAXX 20181 14258 11940 01201 11051 21058 39952 40149 52004 60002 7100/ 333 10030 43007
AAXX 20181 14445 12970 03503 10044 21057 39966 40123 52009 60002 333 10069 92311
AAXX 20184 16643 11357 80000 10070 20047 30126 40131 51013 60242 79592 8592/ 333 10088 83708 83918 85625 90730 91110 555 10000 40070 40000 47624 44200 50000 50060 60000 60241 60450 70000 77TRY 7TVY/
AAXX 20184 16648 12460 32205 10080 20033 30005 40094 52014 69902 81650 333 10110 81712 83358 90730 91111 555 10000 40056 30000 10088 2//// 30094 40084 5//// 6//// 40000 47534 44215 50000 50060 60000 65555 60030
AAXX 20184 16650 12460 42405 10116 20066 30062 40066 52004 60002 84600 333 10148 81710 83620 90730 91113 555 10000 40084 30000 10100 20106 30116 40112 50124 60140 40000 47576 44210 50000 50092
AAXX 20184 16684 12560 42511 10120 20040 30054 40082 51016 60002 84140 333 10152 90730 91123 555 10000 40112 40000 47571 44210 50000 50084
AAXX 20184 16732 12570 22223 10144 20051 30119 40131 52013 60002 82200 333 10170 90730 91134 555 10000 40144 40000 47615 44160 50000 50100
AAXX 20181 14241 12980 11702 11020 21043 30008 40143 53001 60002 80002 333 10032
AAXX 20181 14284 12960 02503 11033 21043 30032 40145 52006 69902 333 10013 42002 93197
AAXX 20181 14307 32980 10602 11006 21064 30056 40136 50001 80002 333 10073
AAXX 20181 14317 NIL
AAXX 20181 14431 12980 01502 11009 21049 30038 40135 51005 60002 333 10072
AAXX 20181 14444 12980 03103 10032 21061 30100 40130 52005 69922 333 10086
AAXX 20181 14474 12970 00207 10038 21027 39923 40117 53014 60042 333 10056
AAXX 20181 38353 425// 80000 11186 21212 39522 40535 57013 885// 333 11152
AAXX 20181 38613 429// 81801 11074 21128 40442 51003 8802/ 333 11057
AAXX 20181 38616 425// 70000 11091 21121 39352 40446 58007 87500 333 11069
AAXX 20181 38345 31696 82701 11211 21236 38932 48581 57013 71022 885// 333 11149
AAXX 20181 36911 429// 80000 11169 21195 39438 40511 57020 8802/ 333 11141
AAXX 20181 36974 327// 82201 11152 21194 38048 48627 54000 885// 333 11129
AAXX 20181 36982 425// 70000 11187 21220 36541 47203 58001 82550 333 11161
AAXX 20184 16614 12560 23305 10010 21013 39327 40121 52014 60002 82200 333 10054 90730 91120 555 10000 40003
AAXX 20184 16627 11460 53003 10090 20064 30062 40066 55000 69942 70165 85800 333 10132 81818 84620 90730 91116 555 10000 40086 30000 10106 20108 30116 40114 50114 6//// 40000 47582 44260 50000 50078 60000 60004 60050 70000 77/// 7RD//
AAXX 20184 16667 12560 52217 10140 20071 30096 40102 53009 60052 85800 333 10164 82820 84625 90730 91132 555 10000 40138 30000 20124 30134 40000 47602 44200 50000 50106 60000 60046 60130
AAXX 20184 16675 17/// /3309 10087 20016 30093 40106 52009 60022 741// 333 10099 90730 91118 555 10000 40070 60000 60018 60259
AAXX 20184 16710 36/// /9905 10044 21006 39363 40144 52016 333 10080 90730 91136 555 10000 40037
AAXX 20184 16723 11460 32216 10134 20099 30109 40125 52003 60062 70162 83440 333 10176 90730 91118 555 10000 40134 40000 47615 44230 50000 50116 60000 60060 60215 70000 77/// 7R///
AAXX 20184 16738 17/// /2614 10120 20058 39938 40136 52020 69932 741// 333 10158 90730 91125 555 10000 40117 60000 60003 60044
AAXX 20184 16746 12560 52912 10122 20063 39967 40150 52009 60002 85800 333 10166 83820 84630 90730 91124 555 10000 40122 40000 47505 44190 50000 50094
AAXX 20181 26645 31996 00301 11042 21047 39871 40139 57014 71011 333 11004
AAXX 20181 26659 31956 80402 11019 21021 39918 40138 57018 71022 8802/ 333 11014
AAXX 20181 26763 32460 80403 11010 21029 39891 40123 57024 886// 333 11005 88714
AAXX 20181 26825 31957 70202 11018 21026 39935 40123 57011 71022 8703/ 333 11012
AAXX 20181 26832 31959 60502 11019 21030 39931 40129 57011 71022 86030 333 11005
AAXX 20181 26887 11295 80503 11008 21015 39899 40108 57019 60042 77172 8872/ 333 11001 88706
AAXX 20181 26961 11335 80403 11006 21013 39904 40099 57022 60012 77372 8872/ 333 10001 88708
AAXX 20181 33027 11496 80102 11004 21007 39925 40095 57013 60062 77172 8872/ 333 10001
AAXX 20181 48921 NIL
AAXX 20181 48924 NIL
AAXX 20181 48925 NIL
AAXX 20181 48926 NIL
AAXX 20181 48927 NIL
AAXX 20181 48928 NIL
AAXX 20181 48930 31210 80000 10130 20121 39814 40178 52003 74044 886// 333 59004
AAXX 20181 48935 NIL
AAXX 20181 48938 NIL
AAXX 20181 48940 NIL
AAXX 20181 48941 NIL
AAXX 20181 48944 NIL
AAXX 20181 48945 NIL
AAXX 20181 48946 NIL
AAXX 20181 48947 NIL
AAXX 20181 48948 NIL
AAXX 20181 48952 NIL
AAXX 20181 48953 NIL
AAXX 20181 48955 31750 23601 10222 20161 39990 40110 57006 71044 82500 333 59010
AAXX 20181 48957 NIL
AAXX 20184 48431 32960 10000 10208 20156 39914 40131 57008 80001 333 59010
AAXX 20181 37575 42596 73602 10032 21019 39689 40287 56011 87500 333 10078
AAXX 20181 37675 41995 60000 10034 20005 39535 40202 57009 86008 333 10109 555 53004
AAXX 20181 37735 42697 80000 10031 21001 39829 40212 57010 885// 333 10083
AAXX 20181 37749 41596 82701 10069 20049 30194 40312 57009 71022 885// 333 10092 555 53005
AAXX 20181 37756 42997 82102 10024 20008 39405 40328 57011 8871/ 333 10061
AAXX 20181 37864 32697 81509 10077 20056 40275 57011 885// 333 10100 88633
AAXX 20181 37985 41495 83401 10069 20058 30307 40292 58005 71022 886// 333 10093
AAXX 20184 60106 32965 22602 10078 20048 40302 53010 80002 333 10182 82070
AAXX 20184 60150 32960 30000 10112 20074 39624 40288 52007 80002 333 10158 83070
AAXX 20184 89577 46/// /1715 11303 35792 4//// 5////
AAXX 20184 89578 46/// /1301 11343 36834 4//// 5////
AAXX 20181 15502 11968 82703 10020 20009 30065 40105 51005 60052 70262 8807/ 333 10032 20012 555 59300 69199 71800
AAXX 20181 15525 11556 82703 10013 20010 39828 40098 51003 60012 75175 885// 333 10034 20013 555 59800 61799 71855
AAXX 20181 15528 11670 82504 10012 21002 39885 40078 51003 60022 70276 885// 333 10030 20005 555 59101 71800
AAXX 20181 15535 11512 82005 10018 20013 30032 40079 53003 69952 76164 8802/ 333 10047 20018 555 59601 69999
AAXX 20181 15549 11/02 92903 10018 20005 39672 40094 53005 60002 74544 333 10028 20018 555 591//
AAXX 20181 15552 11458 80502 10084 20073 30016 40065 57005 69922 76162 8802/ 222// 2//01 333 10116 20084 555 59300 61899 71800 92022 92426
AAXX 20181 15614 11660 62903 11004 21027 39387 40106 52010 60032 70182 86800 333 10026 21005 555 584// 69499 71852
AAXX 20181 15615 11/00 92506 11110 21123 36978 47903 54000 60042 77174 333 11070 21110 555 590// 69999 92711
AAXX 20181 15626 11670 80000 10050 20041 39886 40075 53007 69942 76062 8802/ 333 10058 20016 555 59400 69999
AAXX 20181 15627 11/01 92306 11072 21081 37484 47906 53001 69942 74944 333 11050 21073 48006 93508 555 593// 92711 96041
AAXX 20181 15640 11520 80000 10062 20036 39759 40071 53003 60022 76365 8802/ 333 10072 20050 555 58402 69999 71852
AAXX 20181 15655 11570 70000 10086 20082 30026 40059 57003 60012 70262 87500 222// 00092 309// 40601 333 10105 20086 555 59701 63299 71855 92020 92428
AAXX 20181 15712 11668 73203 10042 20017 39832 40085 53018 60052 70382 87900 333 10093 20040 555 58402 63399 71849
AAXX 20181 15730 11656 60000 10050 20043 39675 40067 53001 60012 71084 84831 333 10090 20026 555 59500 69980 71853
AAXX 20184 08001 11456 8//// 10134 20131 30226 40308 52008 60032 76165 8677/ 333 10140 924/6
AAXX 20184 08015 12560 71202 10128 20109 39897 40302 52021 69912 87800 333 10154
AAXX 20184 08023 11560 83115 10134 20128 30220 40291 53021 60052 70262 887// 333 10155
AAXX 20184 08027 11265 83313 10110 20108 39967 40279 53024 60072 76166 887// 333 10124
AAXX 20184 08045 NIL
AAXX 20184 08141 12865 52404 10084 20059 39427 40295 53009 60002 83032 333 10104
AAXX 20184 08160 12670 33018 10122 20069 39939 40248 53011 69902 81531 333 10138
AAXX 20184 08181 02580 50111 10115 20040 30181 40187 53013 60002 81875 333 10159 60007
AAXX 20184 08221 02963 21504 10054 20008 39598 40301 53008 60002 80001 333 10100 60007
AAXX 20184 08231 12770 43202 10059 21002 39181 48572 53012 60002 84010 333 10108
AAXX 20184 08261 12980 12706 10104 20052 39831 40319 53003 60002 80001 333 10118
AAXX 20184 08284 02978 62510 10145 20024 30150 40225 55001 60002 80006 333 10241 60007
AAXX 20184 08306 12570 42813 10146 20083 30190 40196 57008 60002 81876 333 10162
AAXX 20184 08314 02570 62813 10135 20081 30090 40193 53007 60002 81138 333 10143 60007
AAXX 20184 08430 12980 12603 10152 20006 30183 40258 53003 60002 81030 333 10190
AAXX 20184 08482 12980 12814 10142 21036 30269 40278 56006 60002 80001 333 10170
AAXX 20181 14008 12699 13205 11118 21168 37360 47897 52005 60002 81030 333 11118 49110 92838 95160 444 26085
AAXX 20181 14015 11140 50501 11026 21033 39775 40147 52002 60002 71022 82671 333 11007 82701
AAXX 20181 14024 12999 12206 11049 21086 39005 48392 54000 60002 80001 333 11044 48022 92805 95000
AAXX 20181 14026 12998 20000 11055 21073 39806 40142 52002 60002 82030 333 10019
AAXX 20181 14031 12997 01101 11028 21049 39901 40138 54000 60002 333 10034
AAXX 20181 14105 12999 21205 11006 21062 30130 40135 52002 60002 82030 333 10075
AAXX 20181 14106 12999 21101 11010 21042 30060 40131 51001 60002 82030 333 10075 95000
AAXX 20181 14121 11/92 90000 11027 21028 39862 40138 54000 60002 745// 333 10005 42003 92841
AAXX 20181 14122 11/03 92001 11033 21034 39942 40147 55000 60002 74541 333 11015 89/01
BBXX DCPX2 20183 99140 10560 41/// /0431 10245 20186 40160 70500 8//// 22234 00250 2//// 80205
BBXX BATUK01 20184 99585 70029 46/// /2906 10034 20004 40087 53017 22200 00092
BBXX A8XY2 20184 99445 70237 41398 82216 10151 20098 40308 51004 70300 888// 22264 04130 20502 327// 40603 80121
AAXX 20184 04005 21/30 92912 11019 21062 49926 56002 78888 333 11006 21028 60048 555 3/316
AAXX 20184 04018 21470 52622 11009 21049 49979 51002 73683 85900 333 11009 21042 69938 555 3//25 82915 85650
AAXX 20184 04030 21580 72705 11012 21039 49982 52003 71582 84960 333 10004 21021 69918 555 3//14 84926 86357
AAXX 20184 04048 NIL
AAXX 20184 04063 32682 21904 11023 21097 49953 52012 81310 333 11001 21031 555 3//05
AAXX 20184 04077 NIL
AAXX 20184 04082 32982 62902 11021 21057 49955 52014 86200 333 10015 21055 555 3//10 86256 82256 81650
AAXX 20184 04097 32689 12508 11005 21106 49968 52021 81200 333 10015 21006 555 3/322
AAXX 20183 04013 22589 82318 11016 21044 49957 52005 82320 333 11002 21045 60048 555 3//18
AAXX 20183 04064 32650 43205 11050 21087 49997 52005 82248 333 11030 21065 555 3//09
AAXX 20181 03976 11222 82307 10110 20108 30095 40107 56015 60102 75165 886// 333 10110 87705 88710
AAXX 20181 33088 NIL
AAXX 20181 33177 11496 82901 11004 21013 39870 40112 57004 69992 77172 8772/ 333 10003
AAXX 20181 33261 11395 81102 10018 20015 39893 40077 57017 60152 78082 889// 333 10018 87708
AAXX 20181 33275 11395 81407 10027 20019 39873 40098 57015 60072 71062 886// 333 10027 88708
AAXX 20181 33301 11296 83403 11006 21010 39807 40094 57001 60042 77172 8772/ 333 11002 87704
AAXX 20181 33325 11296 80000 10002 21004 39799 40070 56003 60072 77177 8772/ 333 10004 87706
AAXX 20181 33377 11295 81403 10046 20041 39878 40071 57010 60102 76186 8772/ 333 10046 87706
AAXX 20181 33415 11295 83204 11004 21007 39694 40100 52002 60022 72474 886// 333 10006 88704 93401
AAXX 20181 33429 11295 83104 11006 21010 39657 40087 53002 60052 72272 886// 333 10004 88703
AAXX 20181 33466 11328 81802 10054 20049 39867 40053 57006 60052 75165 886// 333 10054 88707
AAXX 20181 33526 12560 83002 11009 21034 39765 40112 53003 69942 885// 333 10001 88626
AAXX 20181 33562 11/04 92903 10002 20002 39707 40073 53004 60042 74576 333 10007
AAXX 20181 33614 11457 81303 10057 20050 39971 40075 57007 60042 72162 886// 333 10060 88710
AAXX 20181 33761 11396 83003 10040 20035 39843 40066 53007 60092 71062 886// 333 10074 88707
AAXX 20181 33902 11595 81601 10086 20082 30010 40076 57001 69972 71082 883// 333 10086
AAXX 20181 33983 41997 71603 10098 20081 30051 40112 53003 71022 87051 333 10117
AAXX 20181 34415 32497 81406 10035 20020 30030 40127 56008 886// 333 10048
AAXX 20181 34523 NIL
AAXX 20181 34712 32497 81006 10037 20035 30038 40124 57009 8772/ 333 10043 87711
AAXX 20181 33658 12497 72905 11008 21026 39800 40106 52004 60042 85330 333 11005 85916
AAXX 20181 33791 11210 81606 10059 20057 39926 40076 56007 69932 75352 886// 333 10062 88703
AAXX 20181 01447 16/// /3202 11108 21122 39373 40075 53003 60002 333 11100 91104
AAXX 20181 01271 16/// /1202 11021 21031 39995 40017 54000 60002 333 10027 91105
AAXX 20184 17022 11562 81402 10119 20089 39938 40100 57004 60012 70286 8552/ 333 10182 85628 88459 91110 92427
AAXX 20184 17031 12670 52101 10090 20035 30102 40108 57003 60002 83550 333 10193 83636 85360
AAXX 20184 17038 11950 70502 10149 21028 30088 40139 57006 60002 70422 83037 333 10159 83360 87270 92426
AAXX 20184 17050 11558 82901 10078 20077 30011 40074 52006 60032 76062 8552/ 333 10085 85630 88458 91113
AAXX 20184 17060 11660 72608 10126 20083 30048 40088 53002 60062 70282 84250 333 10137 84835 86359
AAXX 20184 17096 12960 /1503 11076 21095 38290 48564 58003 60002 333 11027
AAXX 20184 17124 12660 61904 10093 20042 39208 40121 53002 60002 84550 333 10145 84635 85360
AAXX 20184 17128 11658 72210 10085 20042 39044 40149 53004 69942 78022 85250 333 10133 85835 87358
AAXX 20184 17170 NIL
AAXX 20184 17195 12670 61513 10126 21013 38951 48477 50001 60002 83150 333 10151 83840 86360
AAXX 20184 17199 11558 80000 10015 21014 39149 40278 57002 60002 71022 8562/ 333 10023 82720 85635 88460
AAXX 20184 17219 11565 51813 10126 20081 39970 40113 53005 60132 70182 83150 333 10165 83830 85360 91127
AAXX 20184 17240 11570 51507 10099 20034 39002 40134 52016 60022 72582 84250 333 10112 84830 85360 91125
AAXX 20184 17244 12670 51709 10066 20018 38964 48464 52008 60002 82550 333 10146 82640 85360
AAXX 20184 17280 11/01 90000 11003 21005 39452 40279 50003 60002 74944 333 10002
AAXX 20184 17350 12660 60305 10135 20064 30089 40168 50002 60002 83130 333 10200 83835 85360
AAXX 20184 17024 12670 81911 10118 20050 30025 40101 57008 60002 8352/ 333 10206 83635 88460 92428
AAXX 20184 17056 11570 52207 10112 20111 30075 40079 55006 60072 72582 85900 333 10123 81930 84833 91116 92438 96013
AAXX 20184 17067 11560 71302 10111 20103 30071 40093 57006 60022 78088 87200 333 10139 87830 91107 92407
AAXX 20184 17092 11957 60603 11016 21061 38899 48516 50000 60002 70511 86050 333 10075 86362
AAXX 20184 17112 11558 72105 10112 20085 30071 40073 56001 60282 79598 85970 333 10138 82927 83830 87360 91136 92416
AAXX 20184 17115 11660 72006 10106 20084 30038 40089 53010 60022 72582 84250 333 10137 84835 87360
AAXX 20184 17116 11662 62406 10123 20069 39976 40096 50003 60022 72582 84250 333 10148 84835 86360 91125
AAXX 20184 17188 1//// /0603 10073 20046 39074 40130 50005 69962 333 10094
AAXX 20184 17202 12560 61903 11018 21026 39231 40296 51001 60002 84550 333 10019 82720 84630 86359
AAXX 20184 17248 12975 42202 10130 21001 38954 48471 58001 60002 84050 333 10183 84360
AAXX 20184 17292 11570 70902 10090 20088 39393 40147 53004 60212 72598 85270 333 10124 85830 87359 91106
AAXX 20184 17300 11560 61508 10165 20108 30069 40140 52009 60012 70292 84250 333 10184 84830 86360 91131
AAXX 20184 17310 12670 60503 10165 20090 30150 40157 53003 60002 83250 333 10200 83835 86360 91105 92428
AAXX 20184 17330 12670 50000 10146 20064 30150 40168 56001 60002 82250 333 10194 82840 85360
BBXX 46145 20181 99544 71324 46/// /30// 1//// 40228 52017 22200 0//// 1//// 70/// 333 912//
AAXX 20184 17042 12670 61314 10196 21097 30103 40141 57011 60002 83250 333 10221 83835 86360 92428
AAXX 20184 17074 12665 22202 10049 20035 39193 40136 58003 60002 82500 333 10077 82635 91111
AAXX 20184 17086 12670 61902 10112 21009 39434 40152 50000 60002 84550 333 10170 84635 86360
AAXX 20184 17088 12970 00000 10058 21115 38817 48515 51001 60002 333 10143
AAXX 20184 17140 12665 61605 10097 20003 38677 48468 55000 60002 86200 333 10119 86838
AAXX 20184 17155 11670 22008 10081 20027 39000 40106 50002 69962 70161 82500 333 10112 82640 91021 91123
AAXX 20184 17203 12970 00000 11001 21058 38948 48586 51001 60002 333 10081
AAXX 20184 17237 11670 63601 10118 20062 39629 40124 50001 69962 70262 82270 333 10119 82835 86360 91112
AAXX 20184 17250 12975 61613 10121 21010 38785 48483 51002 60002 86050 333 10151 86360
AAXX 20184 17270 12970 02501 10081 20016 39573 40230 57003 60002 333 10148
AAXX 20184 17295 11560 60607 10124 20106 30144 40151 52005 60112 70398 83250 333 10193 83825 85358
AAXX 20184 17320 12670 63504 10144 20083 30166 40171 52007 60002 83250 333 10190 83836 86357 92448
AAXX 20184 17375 12570 33404 10134 20129 30148 40150 52011 60012 83200 333 10194 83830 92428
AAXX 20184 17026 12970 33305 10132 20071 30073 40111 52007 60002 83040 333 10193 83360 91114 92438
AAXX 20184 17034 12970 42303 10222 21050 30077 40122 57011 60002 84030 333 10232 84360 92428
AAXX 20184 17070 11565 50602 10095 20050 39252 40108 51001 69912 70162 85500 333 10154 85630 91111
AAXX 20184 17084 12970 31401 10021 20009 39242 40170 58001 60002 83030 333 10091 83360
AAXX 20184 17090 12965 63601 10055 21032 38734 48504 53002 60002 86030 333 10100 86360
AAXX 20184 17098 12960 02401 11137 21145 38271 48587 54000 60002 333 11032
AAXX 20184 17150 11660 61913 10117 20054 39979 40101 52009 60032 78082 86200 333 10140 86835 91131
AAXX 20184 17160 12670 71806 10127 20011 38992 48468 52004 60002 84570 333 10140 84640 87360 91117
AAXX 20184 17184 11670 82104 10109 20087 30007 40118 52007 60112 72586 8422/ 333 10130 84838 88460 91113
AAXX 20184 17189 11570 51910 10079 20030 38975 48447 50005 60022 72588 83250 333 10142 83830 85360
AAXX 20184 17210 11920 00000 10035 20008 39207 40279 53011 60002 71000 333 10090
AAXX 20184 17234 11670 52302 10129 20087 30071 40139 52011 60032 70282 85200 333 10165 85840 91109
AAXX 20184 17260 12960 00000 10061 20003 39402 40241 52006 60002 333 10138
AAXX 20184 17290 12670 62404 10150 20089 30118 40150 52013 60052 84250 333 10177 84835 86359 91014 91115 92428
AAXX 20184 17370 12965 51506 10178 20030 30156 40160 58005 60002 85030 333 10198 85360 92437
AAXX 20184 17500 NIL
AAXX 20184 17501 12560 72606 10174 20136 30146 40165 52016 60002 81151 333 10230 81830 86360 92437
AAXX 20184 17505 12560 70605 10167 20120 30061 40173 52013 60002 81151 333 10212 81830 86360
AAXX 20184 17507 NIL
AAXX 20184 17510 12560 60000 10178 20124 30135 40145 52010 60002 81131 333 10221 81830 86070 92427
AAXX 20184 17515 12560 70000 10140 20103 30011 40186 52012 60002 81151 333 10209 81830 86360
AAXX 20184 17521 12560 50304 10139 20114 30026 40163 52010 60002 82130 333 82830 84360
AAXX 20184 17530 11558 60000 10137 20113 30116 40173 52007 60002 71011 81151 333 10214 81830 85360
AAXX 20184 17535 12560 60000 10141 20115 30116 40152 51003 60002 81131 333 10192 81830 85360
AAXX 20184 17540 NIL
AAXX 20184 17547 NIL
AAXX 20184 17550 12560 61003 10158 20121 30017 40162 60006 60002 81131 333 10188 81830 85360 92437
AAXX 20184 17572 12560 6//// 10172 20114 30148 40172 52011 60002 81131 333 10209 81830 86070 92427
BBXX 46145 20181 99544 71324 46/// /30// 1//// 40228 52017 22200 0//// 1//// 70/// 333 912//
AAXX 20184 84377 31560 80203 10288 20242 39990 40094 70222 85230 333 56890 58009 85820 84360
AAXX 20184 84501 31156 71708 10184 20159 30085 40112 71042 8453/ 333 56000 59006 817023 83650 87362
AAXX 20184 84628 34760 72905 10225 20178 30105 40121 70222 875// 333 566// 59001 87660
AAXX 20184 84688 31458 80107 10098 20058 36669 70244 886// 333 568// 58006 83613 85645
AAXX 20184 84752 32760 52711 10193 20014 37522 70222 8553/ 333 5699/ 58002 82650 83360
AAXX 20184 84370 31560 43307 10271 20227 30062 40095 70122 84500 333 56900 58001 84637
AAXX 20184 84390 31965 61911 10285 20172 39992 40094 70320 86030 333 5600/ 58011 86356
AAXX 20184 84531 31960 42014 10228 20172 30071 40088 70100 84030 333 56090 59007 84362
AAXX 20184 84515 21457 83303 10234 20234 39946 40125 76166 8552/ 333 5699/ 58013 60111 85513 88457
AAXX 20184 84425 21230 80000 10252 20236 39912 40130 76316 886// 333 568// 58010 60071 88708
AAXX 20184 84472 21560 83407 10163 20122 37400 76422 886// 333 56900 58011 69921 85725 88733
AAXX 20184 84444 21420 82406 10148 20135 37530 76166 8312/ 333 5699/ 58007 60081 83810 86640 88460
AAXX 20184 84564 31550 81006 10183 20158 38154 7032/ 885// 333 561// 58016 82810 88627
AAXX 20184 87765 32559 73216 10167 20031 39150 48453 57004 71522 87500 333 56600 87620 96120 555 10119
AAXX 20184 08055 NIL
AAXX 20184 08075 12470 51901 10032 20022 39251 48574 52009 60002 82841 333 10065
AAXX 20184 08084 01560 82806 10094 20065 39844 40282 53016 69912 76062 8685/ 333 10117 69917
AAXX 20184 08171 12784 20502 10118 20073 39965 40205 55000 60002 81048 333 10124
AAXX 20184 08184 02665 40000 10094 20031 30024 40181 53012 60002 81105 333 10145 60007
AAXX 20184 08202 02370 52406 10074 20059 39378 42907 53013 60002 84631 333 10118 60007
AAXX 20184 08235 NIL
AAXX 20184 08238 12770 22806 10166 20058 30128 40188 53001 60002 81540 333 10193
AAXX 20184 08280 12970 22910 10070 21012 39449 40287 53006 60002 80005 333 10108
AAXX 20184 08330 12960 02204 10090 20019 30074 40310 52003 60002 333 10128
AAXX 20184 08348 12970 22702 10087 21003 39555 40305 53007 60002 80002 333 10117
AAXX 20184 08360 02980 22614 10144 21001 30198 40235 55001 60002 80005 333 10184 60007
AAXX 20184 08373 02970 22414 10139 20076 30194 40216 55007 60002 80001 333 10159 60007
AAXX 20184 08410 02975 10000 10088 20036 30187 40301 53008 60002 80001 333 10149 60007
AAXX 20184 08419 02970 12105 10063 20002 39614 40301 53011 60002 80002 333 10142 60007
AAXX 20184 08451 02975 13405 10106 20041 30262 40296 53007 60002 80001 333 10170 60007
AAXX 20184 08487 02582 12510 10125 20065 30242 40268 51004 60002 81100 333 10161 60007
AAXX 20184 06030 01325 81902 10012 20006 30040 40056 51008 69962 76876 885// 333 10022 20008 69937 82708 87612
AAXX 20184 06060 01457 81601 10011 20002 39989 40055 52006 69902 71022 885// 333 10024 20010 6///7 84615 87616
AAXX 20184 06070 05480 71902 10019 21002 30032 40062 52010 60022 333 10025 20013 6///7 81/17 87/20
AAXX 20184 06120 NIL
AAXX 20184 06180 02480 81709 10028 21003 30065 40071 53009 6///2 885// 333 10030 20025 6///7 83617 87620
AAXX 20184 06193 05581 71907 10022 21026 30075 40087 52003 6///2 333 10031 20011 55300 20000 6///7 81/31 87/42 91119
AAXX 20184 71550 NIL
AAXX 20184 71551 NIL
AAXX 20184 71552 46/// /2221 11011 21042 6///1 333 11011 21069 7////
AAXX 20184 71553 16/// /2115 11009 21035 60001 333 11008 21108 70000
AAXX 20184 71554 16/// /2814 11085 21153 30172 40178 52006 60001 333 11020 21090 70000
AAXX 20184 71555 16/// /2506 10034 21066 38552 40103 53016 60001 333 10056 20002 70000
AAXX 20184 71556 16/// /2713 10032 21014 39412 40011 50000 60001 333 10034 21100 70000
AAXX 20184 71557 46/// /2106 10063 21016 6///1 333 10069 21024 7////
AAXX 20184 71558 NIL
AAXX 20184 71559 46/// /2511 10027 21042 39343 40041 58009 6///1 333 10027 21055 7////
AAXX 20184 71560 16/// /2207 10012 21054 39729 40030 56023 60001 333 10012 21089 70000
AAXX 20184 71563 NIL
AAXX 20184 71564 NIL
AAXX 20184 71565 NIL
AAXX 20184 71566 NIL
AAXX 20184 71567 NIL
AAXX 20184 71568 17/// /3014 10070 20037 30256 40268 53003 69921 7//4/ 333 10075 20048 70114
AAXX 20184 71569 16/// /2813 10021 21024 39328 40024 53008 60001 333 10021 21062 70000
AAXX 20184 71570 17/// /2210 11009 21063 39692 40003 58026 69931 7//4/ 333 10003 21068 70003
AAXX 20184 71571 NIL
AAXX 20184 71572 NIL
AAXX 20184 71573 16/// /0903 11006 21049 39913 40199 58027 60001 333 10012 21034 70000
AAXX 20184 71574 11574 22915 11077 21177 30048 40122 53021 69901 70281 82500 333 11021 21078 43019 79999 90950
AAXX 20184 71575 NIL
AAXX 20184 71576 17/// /1401 11186 21208 39860 49945 55000 69971 7//4/ 333 11169 21221 70007
AAXX 20184 71577 NIL
AAXX 20184 71578 16/// /2507 11086 21177 60001 333 11041 21108 70018
AAXX 20184 71579 16/// /2209 11008 21057 39723 40006 58017 60001 333 11008 21074 70000
AAXX 20184 71580 11574 21803 11352 21417 39953 49991 51009 60001 70300 82500 333 11314 21357 41030 70004
AAXX 20184 71581 NIL
AAXX 20184 71582 15966 62902 10066 20041 30219 40272 53019 60001 333 10073 20063 70393
AAXX 20184 71583 NIL
AAXX 20184 71584 15966 03013 11082 21137 39988 40035 53023 60001 333 11041 21108 70000
AAXX 20184 71585 NIL
AAXX 20184 71586 16/// /3008 11006 21032 39509 49969 51020 60001 333 11006 21064 70000
AAXX 20184 71587 NIL
AAXX 20184 71588 16/// /2608 11029 21046 60001 333 11028 21121 70000
AAXX 20184 71589 16/// /1402 11047 21054 39808 49940 56036 60001 333 11040 21072 70000
AAXX 20184 71590 16/// /3110 11094 21171 39973 40169 51015 60001 333 11042 21106 70005 555 10010
AAXX 20184 71592 NIL
AAXX 20184 71593 NIL
AAXX 20184 71596 NIL
AAXX 20184 71598 16/64 /2918 11063 21135 30090 40096 53018 60001 333 11016 21063 70000
AAXX 20184 71599 17/// /3103 11034 21044 39930 40134 53017 69961 7//4/ 333 10020 21034 70032
AAXX 20184 71051 NIL
AAXX 20184 71055 NIL
AAXX 20184 71057 NIL
AAXX 20184 71059 460// ///// 11274 30009 40104 52015 6///1 333 11256 21284 7////
AAXX 20184 71061 16/// /2705 10037 21030 39264 40029 51009 60001 333 10054 21012 70000
AAXX 20184 71062 46/// /2607 10024 21031 38986 40039 54000 6///1 333 10056 21032 7////
AAXX 20184 71064 460// /3520 11331 39846 40074 51017 6///1 333 11326 21344 7////
AAXX 20184 71065 NIL
AAXX 20184 71067 NIL
AAXX 20184 71070 NIL
AAXX 20184 71073 NIL
AAXX 20184 71074 NIL
AAXX 20184 71075 16/// /0108 11111 21130 39366 49970 51039 60001 333 11048 21119 70006
AAXX 20184 71078 15466 63111 11052 21074 39492 49929 52015 60001 333 11034 21109 70000
AAXX 20184 71084 460// ///// 11278 39965 40015 51012 6///1 333 11278 21346 7////
AAXX 20184 71085 15966 62518 10028 21044 38751 40128 53012 60001 333 10028 20005 70000
AAXX 20184 71087 NIL
AAXX 20184 71088 460// /1010 11215 51012 6///1 333 11204 21272 7////
AAXX 20184 71089 NIL
AAXX 20184 71096 460// ///// 11207 39205 49947 56006 6///1 333 11200 21225 7////
AAXX 20184 71097 46464 32512 11142 39486 49962 57005 6///1 333 11137 21142 7////
AAXX 20184 71098 43/// /2408 11015 21043 39589 49945 58012 6///1 333 11012 21109 7////
AAXX 20184 71099 43/// /2510 11032 21053 39834 49854 56009 6///1 333 11032 21226 7////
AAXX 20184 71604 17/// /3120 11073 21075 69971 7//4/ 333 11013 21100 70052 555 10280
AAXX 20184 71605 16/// /0201 10062 20062 30096 40247 55000 60001 333 10062 20048 70076
AAXX 20184 71611 NIL
AAXX 20184 71612 NIL
AAXX 20184 71614 NIL
AAXX 20184 71616 16/// /2406 11073 21157 30107 40231 58018 60001 333 11043 21105 70016
AAXX 20184 71617 16/// /3007 11126 21155 30034 40212 58008 60001 333 11098 21128 70039
AAXX 20184 71618 NIL
AAXX 20184 71619 16/// /2918 11079 21167 30038 40097 53015 60001 333 11027 21079 70000
AAXX 20184 71622 NIL
AAXX 20184 71632 46/// /3210 11054 21078 39494 49929 53015 6///1 333 11035 21111 7//// 555 10020
AAXX 20184 71634 16/// /3110 11074 21162 39966 40122 53013 60001 333 11041 21081 70000 555 10010
AAXX 20184 71638 16/// /3004 10059 20040 30145 40251 52004 60001 333 10060 20046 70012
AAXX 20184 71639 12774 41305 11017 21101 39972 40219 58029 60001 81501 333 11010 21051 79999
AAXX 20184 71642 12574 82112 11058 21079 39590 40149 58034 60001 885// 333 11058 21146 70006
AAXX 20184 71812 46814 33520 11278 21321 39959 49973 51037 6///1 333 21278 7////
AAXX 20184 71819 17666 81411 11042 21062 39901 49942 56022 60001 771// 333 11041 21149 70000
AAXX 20184 71820 16/// /1107 11041 21084 30116 40233 57020 60001 333 11014 21063 70000
AAXX 20184 71823 16459 32014 11166 21202 39694 40087 58042 60001 333 11166 21195 70005
AAXX 20184 71824 46/// /1905 11146 21170 6///1 333 11146 21225 7////
AAXX 20184 71826 16/// /1105 11143 21170 39907 49950 55000 60001 333 11135 21200 70000
AAXX 20184 71829 46/// /2611 11106 21178 39979 40144 5/016 6///1 333 7////
AAXX 20184 71833 46/// /1506 11023 21073 6///1 333 11005 21079 7////
AAXX 20184 71835 17/// /2415 11045 21062 39503 49983 56016 69951 7//4/ 333 11045 21105 70008
AAXX 20184 71837 NIL
AAXX 20184 71839 NIL
AAXX 20184 71840 NIL
AAXX 20184 71846 16/// /2417 11034 21056 39647 49961 58018 60001 333 11034 21143 70000
AAXX 20184 71847 NIL
AAXX 20184 71848 NIL
AAXX 20184 71849 NIL
AAXX 20184 71450 16/// /2712 10039 21024 39323 40035 50007 60001 333 10039 21062 70000
AAXX 20184 71451 16/// /3105 11043 21073 39528 49950 51014 60001 333 11027 21093 70006
AAXX 20184 71452 46/// /2707 10028 21028 39328 40035 56008 6///1 333 10028 21059 7////
AAXX 20184 71453 16/// /2706 10041 21027 39173 40079 53021 60001 333 10051 21006 70000
AAXX 20184 71454 NIL
AAXX 20184 71455 46/// /3014 10043 21024 39253 40042 50010 6///1 333 10043 21066 7////
AAXX 20184 71456 NIL
AAXX 20184 71457 16/// /2803 10033 21011 39190 40074 53017 60001 333 10044 21046 70000
AAXX 20184 71458 16/// /2917 10049 21029 39277 40035 51011 60001 333 10067 21041 70000
AAXX 20184 71459 NIL
AAXX 20184 71460 16/// /2310 11032 21071 39962 40210 56038 60001 333 11030 21097 70000
AAXX 20184 71461 NIL
AAXX 20184 71462 NIL
AAXX 20184 71463 46/// /1310 10004 21069 39990 40217 58026 6///1 333 10019 21021 7////
AAXX 20184 71464 NIL
AAXX 20184 71465 NIL
AAXX 20184 71466 NIL
AAXX 20184 71468 NIL
AAXX 20184 71470 NIL
AAXX 20184 71471 15966 82706 10034 21036 39256 40035 53009 60001 333 10062 20012 70000
AAXX 20184 71473 16/// /2308 10053 20039 30235 40265 53016 60001 333 10056 20046 70000
AAXX 20184 71475 NIL
AAXX 20184 71476 NIL
AAXX 20184 71477 17/// /2620 10048 20028 69921 7//4/ 333 10061 20040 70022
AAXX 20184 71478 NIL
AAXX 20184 71479 NIL
AAXX 20184 71480 NIL
AAXX 20184 71481 NIL
AAXX 20184 71482 NIL
AAXX 20184 71483 NIL
AAXX 20184 71484 NIL
AAXX 20184 71485 16/// /3007 10074 20046 30251 40272 53008 60001 333 10078 20052 70158
AAXX 20184 71486 16/// /1901 11012 21031 38908 40104 58002 60001 333 10034 21033 70000
AAXX 20184 71487 NIL
AAXX 20184 71489 16/// /3011 10049 21032 39237 40022 50004 60001 333 10049 21051 70000
AAXX 20184 71490 NIL
AAXX 20184 71491 16/// /1002 11195 21222 60001 333 11082 21338 70000
AAXX 20184 71492 NIL
AAXX 20184 71493 16/// /3112 11044 21112 30078 40117 53025 60001 333 10019 21048 70049
AAXX 20184 71494 16/// /2807 11111 21154 39664 40200 56016 60001 333 11054 21139 70040 555 10010
AAXX 20184 71495 NIL
AAXX 20184 71496 16/// /2713 10051 21018 39407 40012 52011 60001 333 10051 21061 70000
AAXX 20184 71497 46/// /0710 11086 21106 39824 40091 53038 6///1 333 11034 21109 7////
AAXX 20184 71498 NIL
AAXX 20184 71499 17466 83107 11063 21077 39348 49973 53029 60001 771// 333 11051 21077 70000
AAXX 20184 71043 11783 60902 11201 21246 30006 40102 53011 69901 70277 83530 333 11187 21222 48024 70027 90923
AAXX 20184 71045 16/// /1001 11160 21176 39280 40168 52030 60001 333 11126 21189 70000
AAXX 20184 71050 46/// /2407 10007 21064 39115 40192 53012 6///1 333 10061 21072 7////
AAXX 20184 71051 NIL
AAXX 20184 71052 NIL
AAXX 20184 71066 12974 83605 11083 21126 39633 40053 53022 60001 85071 333 11003 21100 70000
AAXX 20184 71068 11774 70000 11005 21015 39351 40037 53011 69901 77111 87500 333 10049 21007 42002 79999 90921
AAXX 20184 71069 17564 32916 10021 20013 39334 40031 51016 60001 743// 333 10082 20007 70000
AAXX 20184 71076 16/// /0204 11104 21124 39622 40017 53033 60001 333 11050 21133 70000 555 10010
AAXX 20184 71077 16/// /3309 11029 21066 39477 40014 53031 60001 333 10002 21038 70000
AAXX 20184 71079 NIL
AAXX 20184 71081 46048 03313 11291 21334 39894 49906 51001 6///1 333 11232 21301 7////
AAXX 20184 71082 NIL
AAXX 20184 71083 11958 03515 11330 21376 39912 49956 50008 69901 77677 333 11227 21335 48054 70024 90983
AAXX 20184 71090 46064 /1510 11212 21258 39923 49958 52010 6///1 333 11198 21290 7////
AAXX 20184 71091 460// /1109 11244 39717 49930 53011 6///1 333 7////
AAXX 20184 71092 46220 81215 11230 39265 49941 53007 6///1 333 11230 21258 7////
AAXX 20184 71093 460// /1114 11210 39448 49952 55000 6///1 333 11201 21236 7////
AAXX 20184 71094 46008 /2022 11192 39015 49920 58001 6///1 333 11189 21213 7////
AAXX 20184 71095 47420 91902 11186 21216 39865 49945 53001 6///1 745// 333 11167 21222 7////
AAXX 20184 71101 160// /2710 30249 53026 60001 333 70160
AAXX 20184 71104 12974 11003 11029 21058 39065 40186 52002 60001 81070 333 10008 21054 70000
AAXX 20184 71108 11366 82207 10054 20042 30189 40262 51009 60011 78062 885// 333 10055 20046 70019 90917
AAXX 20184 71109 11574 82703 10061 20034 30252 40279 53008 69981 70282 84570 333 10067 20051 70208 90930
AAXX 20184 71603 12574 53220 11020 21097 30100 40153 53024 60001 85500 333 10069 21021 70004
AAXX 20184 71607 16/// /2910 11044 21164 30134 40167 51019 60001 333 10012 21048 70000
AAXX 20184 71609 12774 13219 11058 21162 30012 40148 53030 60001 81500 333 11034 21060 70051
AAXX 20184 71610 15566 62710 11067 21134 39915 40218 58013 60001 333 11018 21099 70018
AAXX 20184 71621 12574 31102 11016 21079 30119 40227 56027 60001 81501 333 10002 21070 79999
AAXX 20184 71623 NIL
AAXX 20184 71624 12574 61305 11020 21075 30002 40218 57028 60001 82801 333 11002 21056 79999
AAXX 20184 71625 47964 01604 30054 58038 6///1 745// 333 7////
AAXX 20184 71627 12674 22709 11047 21137 30186 40232 58020 60001 82101 333 11016 21082 79999
AAXX 20184 71628 13760 12604 11058 21137 30091 40236 56025 60001 81500 333 11026 21107 70008
AAXX 20184 71630 NIL
AAXX 20184 71631 16/// /1704 11016 21068 39689 40197 58033 60001 333 11013 21063 70000
AAXX 20184 71633 12974 31603 11019 21078 39926 40203 56037 60001 80001 333 11011 21044 70002
AAXX 20184 71705 12574 22820 11060 21128 30028 40117 53021 60001 82800 333 10004 21066 70024
AAXX 20184 71706 11574 43118 11041 21105 30027 40088 53018 69921 78581 84800 333 10008 21049 43002 70042 90936
AAXX 20184 71707 11674 52914 11020 21087 39948 40025 53015 69901 70182 85500 333 10008 21092 44004 70036 90920
AAXX 20184 71709 11559 73125 11045 21083 30028 40041 53019 60021 78582 87500 333 10007 21054 46006 70072 90962 93102
AAXX 20184 71711 NIL
AAXX 20184 71714 16/// /2605 11088 21178 30135 40230 58020 60001 333 11046 21126 70009
AAXX 20184 71715 16/// /3105 11095 21179 30001 40187 51002 60001 333 11051 21108 70000
AAXX 20184 71718 11583 72815 11091 21155 30103 40170 51006 69901 70282 87500 333 11031 21097 42002 70004 90920
AAXX 20184 71719 16/// /2918 11059 21135 30077 40083 53022 60001 333 11025 21062 70000
AAXX 20184 71250 NIL
AAXX 20184 71251 16/// /2712 10046 21024 39177 40097 51023 60001 333 10046 21004 70000
AAXX 20184 71252 NIL
AAXX 20184 71253 46/// /0801 11134 21138 6///1 333 11054 21145 7////
AAXX 20184 71254 16/// /3013 10039 21016 60001 333 10047 21042 70000
AAXX 20184 71255 16/// /0104 11048 21090 60001 333 10013 21053 70000
AAXX 20184 71256 46/// /2915 10041 21037 39124 40050 53002 6///1 333 10041 21022 7////
AAXX 20184 71257 NIL
AAXX 20184 71258 NIL
AAXX 20184 71259 NIL
AAXX 20184 71261 16/// /1507 11007 21057 39931 40196 58034 60001 333 11006 21046 70000
AAXX 20184 71263 13560 /0808 11010 21056 39920 40215 58026 60001 81115 333 10014 21054 79999
AAXX 20184 71264 16/// /3115 11007 21102 30067 40099 53019 60001 333 10051 21027 70021
AAXX 20184 71265 15466 10608 11016 21060 30127 40223 58029 60001 333 10012 21038 70000
AAXX 20184 71266 NIL
AAXX 20184 71267 15966 12622 10056 21043 39022 40107 53020 60001 333 10065 20030 70000
AAXX 20184 71268 12474 81808 11040 21073 39781 40195 57032 60001 885// 333 11040 21150 70000
AAXX 20184 71269 NIL
AAXX 20184 71270 16/// /1506 11015 21074 39976 40201 58042 60001 333 11013 21041 70006
AAXX 20184 71271 NIL
AAXX 20184 71272 17566 80211 11174 21201 39612 49967 51043 60001 771// 333 11062 21174 70000
AAXX 20184 71273 16/// /3111 10050 21019 39344 49991 51019 60001 333 10053 21032 70000
AAXX 20184 71274 NIL
AAXX 20184 71275 NIL
AAXX 20184 71276 NIL
AAXX 20184 71277 NIL
AAXX 20184 71278 NIL
AAXX 20184 71279 16/// /3214 11100 21162 30029 40097 52020 60001 333 11097 21128 70053
AAXX 20184 71281 NIL
AAXX 20184 71282 46/// /2005 11037 21058 39944 40220 58033 6///1 333 11028 21074 7////
AAXX 20184 71283 NIL
AAXX 20184 71284 16/// ///// 10035 21028 60001 333 10051 21024 70000
AAXX 20184 71285 NIL
AAXX 20184 71286 NIL
AAXX 20184 71287 NIL
AAXX 20184 71288 NIL
AAXX 20184 71289 NIL
AAXX 20184 71290 17866 82908 10030 21042 39265 40092 53013 60041 70044 333 10047 21012 70083
AAXX 20184 71291 16/// /1809 11038 21079 39782 40080 58042 60001 333 11038 21165 70000
AAXX 20184 71292 15966 82516 10017 21006 39389 49990 56009 60001 333 10017 21104 70000
AAXX 20184 71294 16/// /1904 11044 21106 39800 40212 58031 60001 333 11044 70008
AAXX 20184 71295 NIL
AAXX 20184 71296 NIL
AAXX 20184 71297 NIL
AAXX 20184 71298 16/// /0803 10019 21013 39957 40192 58036 60001 333 10020 20002 70000
AAXX 20184 71299 NIL
AAXX 20184 71851 NIL
AAXX 20184 71857 NIL
AAXX 20184 71860 11783 22811 10049 21058 38706 40088 51008 60001 71511 81531 333 10069 20030 70000
AAXX 20184 71876 15966 02916 10059 21025 39365 40022 51012 60001 333 10059 21028 70000
AAXX 20184 71885 NIL
AAXX 20184 71886 NIL
AAXX 20184 71888 NIL
AAXX 20184 71890 16/// /0512 11103 21192 30129 40157 53011 60001 333 11066 21114 70013 555 10070
AAXX 20184 71895 NIL
AAXX 20184 71201 16/// ///// 10064 20047 60001 333 10068 20057 70038
AAXX 20184 71202 16/// ///// 10036 21039 60001 333 10064 21046 70000
AAXX 20184 71203 15966 61611 10013 21023 39691 40218 58001 60001 333 10013 21029 70000
AAXX 20184 71209 46/// /2912 10064 6///1 333 10073 20052 7////
AAXX 20184 71211 46/// /1908 10066 20048 30237 40249 50001 6///1 333 10067 20045 7////
AAXX 20184 71212 16/// /3203 11136 21192 39344 40173 58008 60001 333 11092 21168 70031
AAXX 20184 71213 46/// /2010 11069 21103 39866 40174 58041 6///1 333 11066 21122 7////
AAXX 20184 71214 NIL
AAXX 20184 71215 46/// /1505 10004 21030 39894 40245 51004 6///1 333 10005 21016 7////
AAXX 20184 71216 16/// /1603 10004 21028 39587 40211 56004 60001 333 10010 21010 70000
AAXX 20184 71217 NIL
AAXX 20184 71218 16/// /1901 11011 21026 39776 40210 51002 60001 333 10003 21034 70000
AAXX 20184 71219 46/// /2617 10060 20028 30229 40235 53027 6///1 333 10083 20054 7////
AAXX 20184 71220 46/// /2711 10053 20029 6///1 333 10072 20042 7////
AAXX 20184 71221 NIL
AAXX 20184 71222 17/// /0000 11040 21043 39176 40152 53031 69961 7//4/ 333 11038 21080 70077 555 10140
AAXX 20184 71223 NIL
AAXX 20184 71224 NIL
AAXX 20184 71225 NIL
AAXX 20184 71226 NIL
AAXX 20184 71227 NIL
AAXX 20184 71228 NIL
AAXX 20184 71229 NIL
AAXX 20184 71230 16/// /2611 10023 21034 39158 40039 53002 60001 333 10058 20018 70000
AAXX 20184 71231 16/// /3012 10047 21024 60001 333 10050 21001 70000
AAXX 20184 71232 16/// /2613 10043 21092 38596 40076 53009 60001 333 10061 21020 70014
AAXX 20184 71233 16/// /2704 10030 21031 60001 333 10060 20000 70000
AAXX 20184 71234 16/// /2913 10057 21050 38918 40091 53014 60001 333 10069 20024 70000
AAXX 20184 71235 16/// /3013 10060 21068 60001 333 10076 20024 70000
AAXX 20184 71236 46/// /2915 10014 21053 6///1 333 10014 21013 7////
AAXX 20184 71237 46/// /0000 10001 21031 39266 40084 51015 6///1 333 10040 21085 7////
AAXX 20184 71238 16/// /2804 10034 21033 60001 333 10052 21007 70000
AAXX 20184 71239 16/// /2610 10013 21035 39563 40020 58018 60001 333 10013 21115 70000
AAXX 20184 71240 16/// ///// 10046 21031 39224 40063 51011 60001 333 10054 21039 70000
AAXX 20184 71241 NIL
AAXX 20184 71242 16/// /3009 10031 21023 60001 333 10056 21070 70000
AAXX 20184 71243 NIL
AAXX 20184 71244 NIL
AAXX 20184 71245 NIL
AAXX 20184 71246 NIL
AAXX 20184 71247 15966 62808 10052 21017 39235 40084 51017 60001 333 10052 20007 70000
AAXX 20184 71248 16/// /2702 11002 21081 38788 40075 53008 60001 333 10081 21078 70012
AAXX 20184 71249 NIL
AAXX 20184 71930 11674 72917 10039 21058 39130 40054 53003 60003 714// 87170 333 10041 21024 47017 79999
AAXX 20184 71931 NIL
AAXX 20184 71934 11774 72904 11152 21170 39789 40049 53026 69901 77172 83530 333 11047 21152 47021 79999 90977
AAXX 20184 71935 12574 73109 11112 21134 39858 40069 52025 60001 87500 333 11098 21176 70000
AAXX 20184 71936 11574 23110 11182 21212 39782 40048 53022 69941 72271 81571 333 11153 21189 48021 70016 90983 93101
AAXX 20184 71937 NIL
AAXX 20184 71938 11574 70605 11252 21291 30077 40108 53022 69901 70177 87630 333 11248 21270 70002 90923
AAXX 20184 71940 11882 72520 10030 21023 39249 40045 53002 60001 71422 87070 333 10055 21019 70000
AAXX 20184 71943 12774 72608 10019 21050 39211 40037 53014 60001 86570 333 10039 20008 70000
AAXX 20184 71944 160// ///// 10027 53014 60051 333 10044 21014 70055
AAXX 20184 71945 11880 82003 11054 21088 39601 40076 53031 69901 70272 88071 333 11033 21123 43011 79999 90941
AAXX 20184 71946 12674 73106 11112 21148 39876 40095 52030 60001 87500 333 11106 21180 70000
AAXX 20184 71948 46064 /0907 11270 39978 40096 53021 6///1 333 11255 21271 7////
AAXX 20184 71949 46/// /1104 11209 21233 39244 40147 53022 6///1 333 11163 21236 7////
AAXX 20184 71951 11369 61814 10019 20009 39947 40216 53032 60011 70288 86570 333 10040 20008 43028 70143 90933
AAXX 20184 71957 46664 80000 11251 21319 30011 40103 51016 6///1 333 11250 21299 7////
AAXX 20184 71964 12886 80000 11121 21145 39265 40144 53025 60001 81031 333 11116 21183 70000
AAXX 20184 71966 16/// /0000 11175 21195 39645 40121 53014 60001 333 11175 21237 70000
AAXX 20184 71968 460// /2505 11276 30029 40096 51010 6///1 333 11237 21293 7////
AAXX 20184 71102 NIL
AAXX 20184 71105 NIL
AAXX 20184 71107 NIL
AAXX 20184 71110 NIL
AAXX 20184 71111 15666 32710 10048 20025 30248 40256 53025 60001 333 10068 20041 70021
AAXX 20184 71112 16/// ///// 60001 333 70012
AAXX 20184 71113 17/// /0000 10059 20053 30230 40254 50006 60031 7//4/ 333 10059 20048 70076
AAXX 20184 71115 16/// /2502 10007 21022 39618 40208 50001 60001 333 10007 21041 70000
AAXX 20184 71116 16/// /3217 10039 21016 39003 40096 52008 60001 333 10039 21049 70000 555 10010
AAXX 20184 71118 16/// /2814 10043 21038 39228 40047 51011 60001 333 10055 21057 70000
AAXX 20184 71121 16564 62811 10037 21056 39235 40050 51011 60001 333 10058 21029 70005
AAXX 20184 71127 16/// /2710 10033 21029 39152 40045 52007 60001 333 10066 21023 70000
AAXX 20184 71130 15666 82410 10020 21010 39524 49975 53010 60001 333 10020 21095 70000
AAXX 20184 71132 17566 80305 11107 21136 39690 40004 51040 60001 771// 333 11042 21108 70000
AAXX 20184 71133 16/// /2814 10035 21029 39289 49984 51015 60001 333 10035 21038 7////
AAXX 20184 71139 NIL
AAXX 20184 71141 NIL
AAXX 20184 71142 15766 82410 10013 21016 39102 40068 51019 60001 333 10028 21055 70000
AAXX 20184 71143 NIL
AAXX 20184 71144 NIL
AAXX 20184 71147 16/// /2610 10009 21043 60001 333 10010 21127 70000
AAXX 20184 71149 16/// /2417 10027 21046 60001 333 10027 21080 70000
AAXX 20184 71816 11320 80404 11088 21111 39940 40002 53007 60021 78577 885// 333 11084 21151 47049 70032 90983 93103
AAXX 20184 71817 11432 80508 11044 21073 39945 49958 57020 60011 77122 886// 333 42011 70012 90952
AAXX 20184 71818 11674 83404 11080 21090 39975 49993 56005 69941 70272 885// 333 11070 21140 43019 70008 90943
AAXX 20184 71822 12574 72008 11147 21167 39677 40169 58033 60001 82507 333 11145 21196 70014
AAXX 20184 71825 11574 23016 11174 21228 39405 40102 53013 69901 70277 82500 333 11160 21216 47084 70032 90963
AAXX 20184 71827 11462 81818 11135 21156 39760 40010 56061 69901 77177 885// 333 11134 21174 47018 70004 90983
AAXX 20184 71828 17462 33110 11194 21240 39426 40092 50012 69951 7//44 333 11190 21248 70005
AAXX 20184 71831 11574 82015 11032 21055 39804 40092 58050 60001 73611 885// 333 11032 21138 79999
AAXX 20184 71832 NIL
AAXX 20184 71834 11/08 92215 11040 21057 39620 40053 58035 69941 77131 333 11040 21175 48023 70004 90910 93101
AAXX 20184 71841 NIL
AAXX 20184 71842 12774 82012 11039 21074 39552 40025 58026 60001 8552/ 333 11038 21093 79999
AAXX 20184 71844 16464 82710 11025 21045 39645 49920 58005 60001 333 11025 21161 70010
AAXX 20184 71845 11474 82208 11046 21063 39512 49988 57014 69961 77172 885// 333 11045 21107 44016 70006 90952
AAXX 20184 71850 11874 82114 11036 21081 39526 40027 58023 60001 73622 88070 333 11036 21065 48007 79999
AAXX 20184 71852 16764 32012 11008 21046 39715 40009 58015 60001 333 11007 21082 70000
AAXX 20184 71854 11366 82209 11035 21059 39523 49996 58018 60031 77177 8677/ 333 11035 21099 48012 70034 90973
AAXX 20184 71858 NIL
AAXX 20184 71861 NIL
AAXX 20184 71862 12974 82509 10027 21040 39346 40044 58008 60001 81071 333 10027 21055 70000
AAXX 20184 71863 46864 82813 10016 21019 39340 40034 51004 6///1 333 10017 21071 7////
AAXX 20184 71001 15966 80303 11161 21179 39142 40148 51030 60001 333 11152 21219 70000
AAXX 20184 71002 17248 13112 11179 21210 39508 40062 53024 60001 771// 333 11122 21182 70005
AAXX 20184 71003 17458 62014 11151 21181 39695 40088 58041 60001 771// 333 11150 21177 70000
AAXX 20184 71005 16/// ///// 10049 21034 60001 333 10064 21046 70000
AAXX 20184 71006 NIL
AAXX 20184 71007 NIL
AAXX 20184 71008 NIL
AAXX 20184 71009 NIL
AAXX 20184 71010 NIL
AAXX 20184 71011 NIL
AAXX 20184 71012 NIL
AAXX 20184 71013 NIL
AAXX 20184 71014 NIL
AAXX 20184 71015 NIL
AAXX 20184 71016 NIL
AAXX 20184 71017 NIL
AAXX 20184 71018 NIL
AAXX 20184 71019 NIL
AAXX 20184 71020 NIL
AAXX 20184 71021 NIL
AAXX 20184 71022 17466 82612 10050 20027 30192 40236 51023 60011 7004/ 333 10075 20041 70191
AAXX 20184 71023 17564 83204 10002 21008 39249 40013 51026 60021 7//44 333 10031 21049 70030
AAXX 20184 71024 16/// /3002 11078 21094 60001 333 11050 21100 70007 555 10010
AAXX 20184 71026 NIL
AAXX 20184 71027 17/// /3206 11019 21057 30007 40017 53017 69981 7//4/ 333 10010 21081 70034 555 10050
AAXX 20184 71028 16/// /1510 10032 21043 39174 40207 53013 60001 333 10095 20027 70000
AAXX 20184 71029 16/// /0406 11305 21337 30059 40100 51011 60001 333 11247 21318 70004
AAXX 20184 71030 16/64 /3011 11041 21156 30063 40153 51025 60001 333 10043 21047 70000
AAXX 20184 71032 46/// /1501 11030 21056 39385 40233 54000 6///1 333 11028 21067 7////
AAXX 20184 71033 46/// /3207 11066 21079 39348 49975 53029 6///1 333 11053 21082 7////
AAXX 20184 71035 NIL
AAXX 20184 71036 15966 62515 10032 21036 39594 49963 58035 60001 333 10032 21064 70000
AAXX 20184 71039 46/// /1201 11235 6///1 333 11163 21237 7////
AAXX 20184 71040 46/// /2710 11111 21187 39989 40195 58010 6///1 333 11094 21131 7////
AAXX 20184 71041 17416 83020 11030 21055 39909 40051 53019 60001 771// 333 10016 21073 70023
AAXX 20184 71042 16/// /2503 10065 20055 30259 40263 53007 60001 333 10066 20052 70004
AAXX 20184 71044 16/// /0903 11185 21208 39749 40076 53015 60001 333 11177 21242 70003 555 10020
AAXX 20184 71046 460// /2504 11288 30081 40099 52005 6///1 333 11246 21290 7////
AAXX 20184 71047 16/// ///// 10055 21029 60001 333 10063 21044 70000
AAXX 20184 71048 NIL
AAXX 20184 71049 NIL
AAXX 20184 71060 NIL
AAXX 20184 71063 NIL
AAXX 20184 71950 15666 33010 10030 21040 39533 40163 51032 60001 333 10051 21036 70015
AAXX 20184 71952 16/// /3007 10012 21041 39300 40153 53031 60001 333 10035 21011 70000
AAXX 20184 71954 NIL
AAXX 20184 71956 NIL
AAXX 20184 71959 NIL
AAXX 20184 71960 460// /1806 11279 39965 40104 53012 6///1 333 11275 21307 7////
AAXX 20184 71962 16/// /2214 11007 21085 39632 40055 58040 60001 333 11007 21077 70000
AAXX 20184 71963 NIL
AAXX 20184 71967 16/// /2507 11064 21122 30130 40238 58016 60001 333 11041 21093 70000
AAXX 20184 71970 NIL
AAXX 20184 71971 NIL
AAXX 20184 71972 460// ///// 11146 39519 49986 56004 6///1 333 11131 21146 7////
AAXX 20184 71973 46/// /2805 11028 21044 39760 49948 55002 6///1 333 11021 21146 7////
AAXX 20184 71974 NIL
AAXX 20184 71975 460// /1905 11160 39218 49949 56007 6///1 333 11156 21179 7////
AAXX 20184 71976 NIL
AAXX 20184 71977 NIL
AAXX 20184 71978 NIL
AAXX 20184 71979 NIL
AAXX 20184 71980 NIL
AAXX 20184 71981 NIL
AAXX 20184 71982 NIL
AAXX 20184 71983 NIL
AAXX 20184 71984 16/// /2807 11227 21251 30083 40092 53015 60001 333 11226 21287 70000 555 10010
AAXX 20184 71985 NIL
AAXX 20184 71986 NIL
AAXX 20184 71987 16/// /3034 11046 21091 30068 40078 51020 60001 333 10004 21048 70006
AAXX 20184 71988 16/// /3127 11018 21083 30141 40161 53024 60001 333 10072 21022 70012
AAXX 20184 71989 NIL
AAXX 20184 71990 NIL
AAXX 20184 71999 46/// ///// 10074 6///1 333 10086 20010 7////
AAXX 20184 71350 16/// /3014 11051 21098 30012 40078 53018 60001 333 10004 21051 70008 555 10030
AAXX 20184 71351 NIL
AAXX 20184 71352 16/// /1508 11025 21066 39741 40203 58031 60001 333 11010 21064 70000
AAXX 20184 71353 NIL
AAXX 20184 71354 NIL
AAXX 20184 71355 16/// /1104 11242 21267 39925 40013 50002 60001 333 11242 21315 70000
AAXX 20184 71356 16/// /3120 11335 21372 39936 40006 53005 60001 333 11312 21339 70000
AAXX 20184 71357 NIL
AAXX 20184 71358 17/// /1510 11212 21243 39922 49957 53010 69991 7//4/ 333 11197 21301 70012 555 10070
AAXX 20184 71359 NIL
AAXX 20184 71360 NIL
AAXX 20184 71361 NIL
AAXX 20184 71362 NIL
AAXX 20184 71363 NIL
AAXX 20184 71364 NIL
AAXX 20184 71365 NIL
AAXX 20184 71368 15966 01209 11016 21067 39811 40207 58032 60001 333 11006 21071 70000
AAXX 20184 71369 17666 82918 10022 21001 39334 40032 51018 60001 761// 333 10081 20010 70000
AAXX 20184 71370 46/// /2203 11074 21151 30073 40213 58016 6///1 333 11058 21110 7////
AAXX 20184 71371 15966 02408 11040 21126 30193 40228 58022 60001 333 11027 21073 70000
AAXX 20184 71372 NIL
AAXX 20184 71373 NIL
AAXX 20184 71374 NIL
AAXX 20184 71375 NIL
AAXX 20184 71376 NIL
AAXX 20184 71377 16/// /2508 11050 21124 30178 40228 58021 60001 333 11026 21079 70000
AAXX 20184 71378 16/// /0301 11107 21190 39991 40207 58030 60001 333 11085 21141 70010
AAXX 20184 71379 16/// /2803 11130 21198 30002 40179 58024 60001 333 11110 21172 70000
AAXX 20184 71380 NIL
AAXX 20184 71381 NIL
AAXX 20184 71382 NIL
AAXX 20184 71383 NIL
AAXX 20184 71384 16/// /2406 11074 21176 30195 40203 58014 60001 333 11040 21124 70030
AAXX 20184 71385 NIL
AAXX 20184 71386 NIL
AAXX 20184 71387 NIL
AAXX 20184 71388 NIL
AAXX 20184 71389 46/// /2606 11070 21172 6///1 333 11045 21119 7////
AAXX 20184 71390 46/// /3112 11085 6///1 333 11069 21090 7////
AAXX 20184 71391 16/// ///// 11086 21146 60001 333 11055 21102 70000
AAXX 20184 71392 16/// /2703 11088 21169 60001 333 11050 21112 70012
AAXX 20184 71393 NIL
AAXX 20184 71395 11674 22921 11025 21129 39915 40094 53016 69911 70182 82500 333 10030 21048 70040 90926
AAXX 20184 71398 15562 62120 11041 21061 30013 40025 56057 60001 333 11041 21203 70000
AAXX 20184 71399 NIL
AAXX 20184 71401 16/// /1904 11024 21040 39545 40244 55004 60001 333 11024 21040 70007
AAXX 20184 71402 NIL
AAXX 20184 71404 NIL
AAXX 20184 71405 NIL
AAXX 20184 71406 NIL
AAXX 20184 71407 NIL
AAXX 20184 71408 NIL
AAXX 20184 71409 NIL
AAXX 20184 71410 15866 82305 11013 21045 39662 49938 56006 60001 333 11009 21078 70000
AAXX 20184 71413 NIL
AAXX 20184 71414 NIL
AAXX 20184 71415 16/// /3129 11035 21045 30071 40074 53023 60001 333 10024 7////
AAXX 20184 71417 NIL
AAXX 20184 71418 NIL
AAXX 20184 71419 46/// /3026 11009 21050 30040 40050 53020 6///1 333 10048 21034 7////
AAXX 20184 71423 NIL
AAXX 20184 71424 46/// /2309 6///1 333 7////
AAXX 20184 71425 16/// /2921 11072 21124 30055 40092 52022 60001 333 11032 21076 70010
AAXX 20184 71426 NIL
AAXX 20184 71427 16/// /2818 11096 21160 30134 40142 53015 60001 333 11055 21102 70030
AAXX 20184 71428 16/// /2822 11077 21127 30127 40133 53017 60001 333 11031 21082 70000
AAXX 20184 71429 16/// /3018 11064 21162 30044 40063 51022 60001 333 11049 21081 70011
AAXX 20184 71434 NIL
AAXX 20184 71436 15966 01405 11025 21083 39982 40222 58028 60001 333 11017 21081 70000
AAXX 20184 71437 46/// /0606 11013 21057 30118 40215 58029 6///1 333 10025 21024 7////
AAXX 20184 71438 NIL
AAXX 20184 71439 NIL
AAXX 20184 71440 NIL
AAXX 20184 71442 NIL
AAXX 20184 71445 NIL
AAXX 20184 71446 NIL
AAXX 20184 71448 16/// /2005 11012 21065 39675 40004 58021 60001 333 10003 21066 70000
AAXX 20184 71449 16/// /2311 11013 21078 39637 40041 56026 60001 333 11013 21068 70000
AAXX 20184 71665 16/// /0501 11129 21193 30032 40042 56003 60001 333 11127 21203 70000
AAXX 20184 71666 16/// /2914 11057 21141 30070 40115 53024 60001 333 11002 21060 70010 555 10010
AAXX 20184 71667 NIL
AAXX 20184 71668 16/// /3114 11064 21160 30109 40153 53016 60001 333 11005 21074 70000
AAXX 20184 71669 NIL
AAXX 20184 71670 16/// ///// 11055 21149 60001 333 11019 21057 70000
AAXX 20184 71671 16/// /3014 11027 21098 30058 40119 53022 60001 333 10025 21036 70055
AAXX 20184 71672 16/// /1403 11026 21098 39949 40219 58027 60001 333 11019 21100 70000
AAXX 20184 71673 NIL
AAXX 20184 71674 NIL
AAXX 20184 71675 17466 82711 11026 21043 39644 49920 58004 60021 70044 333 11026 21159 70122
AAXX 20184 71679 16/// /2721 10019 21046 39150 40164 53026 60001 333 10039 20016 70010
AAXX 20184 71680 NIL
AAXX 20184 71681 46/// /0000 11029 21038 6///1 333 10004 21034 7////
AAXX 20184 71682 NIL
AAXX 20184 71683 NIL
AAXX 20184 71684 17566 61912 11068 21107 39869 40178 58040 60001 771// 333 11068 21122 70000
AAXX 20184 71685 15566 81610 10010 21012 39667 40212 52004 60001 333 10010 21009 70000
AAXX 20184 71686 469// /2502 11036 21039 39176 40136 53031 6///1 333 11034 21069
AAXX 20184 71687 16/// /1504 10018 20013 39443 40233 50004 60001 333 10020 20011 70000
AAXX 20184 71688 16/// /2401 10005 20005 39181 40225 50003 60001 333 10006 21004 70000 555 10010
AAXX 20184 71689 15966 33306 11046 21078 39572 40025 51032 60001 333 10021 21046 70000
AAXX 20184 71690 NIL
AAXX 20184 71691 17966 02912 11100 21179 30132 40160 53011 60001 771// 333 11066 21113 70000
AAXX 20184 71692 NIL
AAXX 20184 71694 16/// /1804 11030 21093 39848 40219 58035 60001 333 11028 21122 70000 555 10010
AAXX 20184 71695 16/// /2706 11005 21039 39615 49944 55000 60001 333 11002 21092 70000
AAXX 20184 71696 16/// /0223 11154 21176 39881 49918 53037 60001 333 11083 21230 70000
AAXX 20184 71697 15466 81406 11022 21058 30046 40221 58030 60001 333 11001 21071 70000
AAXX 20184 71699 16/// /3111 11043 21146 30148 40156 51027 60001 333 10033 21052 70015
AAXX 20184 71114 160// /2610 10062 20046 30197 40245 50010 60011 333 10062 20037 70050
AAXX 20184 71120 NIL
AAXX 20184 71122 16/// /2308 11015 21056 38520 40129 58001 60001 333 21067 7////
AAXX 20184 71123 11874 72810 10040 21032 39203 40062 51007 60001 71411 87070 333 10055 21033 79999
AAXX 20184 71125 11774 73410 10012 20000 39425 40006 53021 69921 72581 86270 333 70002 90916
AAXX 20184 71129 12874 72808 10030 21027 39229 40055 50008 60001 85071 333 10033 21073 70000
AAXX 20184 71131 16/// /3221 10016 21025 38813 40068 50000 60001 333 10016 21071 70000
AAXX 20184 71135 16/// /2812 10002 21050 38975 40057 51004 60001 333 10002 21071 70000
AAXX 20184 71137 16/// /3115 10004 21029 39120 40067 51002 60001 333 10007 21104 70000
AAXX 20184 71140 12974 82513 11014 21038 39520 40021 5/018 60001 86071 333 11014 21127 70000
AAXX 20184 71145 12974 62405 11025 21042 39643 49933 57011 60001 84031 333 11017 21132 70010
AAXX 20184 71148 16/// /2414 11008 21049 39454 40033 58020 60001 333 11008 21116 70000
AAXX 20184 71185 17564 62512 11016 39903 49927 55004 69951 7//44 333 11014 21124 70005
AAXX 20184 71188 12674 22920 11076 21151 30026 40069 52021 60001 82100 333 11054 21081 70004
AAXX 20184 71200 16/// /3206 10078 20052 60001 333 10084 20060 70000
AAXX 20184 71207 17/// /3601 10032 30183 40248 53003 69951 7//4/ 333 10045 20016 70046
AAXX 20184 71260 13/// ///// 11006 21070 39938 40178 58033 60001 333 11004 21066 70000
AAXX 20184 71744 NIL
AAXX 20184 71750 16/// /2211 11005 21034 39865 40101 58036 60001 333 11001 21112 70000
AAXX 20184 71751 NIL
AAXX 20184 71752 NIL
AAXX 20184 71753 16/// /3111 11030 21094 30060 40089 53019 60001 333 10024 21056 70036
AAXX 20184 71754 16/// /3016 10056 21039 39362 40017 51011 60001 333 10058 21033 70000
AAXX 20184 71755 43/// /2614 11024 21050 39591 49932 58009 6///1 333 11024 21146 7////
AAXX 20184 71756 16/// /1501 10002 20000 39126 40230 50002 60001 333 10002 21008 70000
AAXX 20184 71758 NIL
AAXX 20184 71760 NIL
AAXX 20184 71761 NIL
AAXX 20184 71762 NIL
AAXX 20184 71763 NIL
AAXX 20184 71765 16/// /1916 10079 20004 39922 40196 51010 60001 333 10081 20003 70000
AAXX 20184 71766 16/// /3105 10067 20045 30190 40262 53010 60001 333 10067 20035 70000
AAXX 20184 71767 16/// /1807 11027 21068 39938 40205 58035 60001 333 11019 21052 70000 555 10010
AAXX 20184 71768 46/// /1603 10010 21031 39677 40234 56003 6///1 333 10013 21030 7////
AAXX 20184 71769 16/// /2914 10069 20055 30239 40255 53008 60001 333 10070 20056 70002
AAXX 20184 71770 NIL
AAXX 20184 71771 NIL
AAXX 20184 71772 17/// /3016 10072 20058 30243 40249 51002 69921 7//4/ 333 10072 20056 70004
AAXX 20184 71773 16/// /2005 11103 21122 39260 40138 53024 60001 333 11100 21185 70000
AAXX 20184 71774 46/// ///// 10047 6///1 333 10051 20037 7////
AAXX 20184 71775 46/// /0703 10055 20048 30256 40262 53005 6///1 333 10056 20049 7////
AAXX 20184 71776 46/// /2909 11001 21032 39577 40230 56005 6///1 333 10001 21018 7////
AAXX 20184 71777 16/// ///// 11002 21003 39986 40242 50003 60001 333 10008 21006 70000 555 10010
AAXX 20184 71778 46/// /2717 6///1 333 7////
AAXX 20184 71779 16/// /3202 10038 21045 39502 40163 53008 60001 333 10044 21019 70000
AAXX 20184 71780 16/// /2716 10076 20066 30237 40265 53005 60001 333 10079 20063 70000
AAXX 20184 71781 46/// /3109 10067 20051 30238 40263 53010 6///1 333 10071 20055 7////
AAXX 20184 71782 46/// /1708 11003 21041 38833 40167 58004 6///1 333 10000 21047 7////
AAXX 20184 71783 NIL
AAXX 20184 71784 16/// /1701 10052 20047 30042 40249 53003 60001 333 10053 20048 70034
AAXX 20184 71785 16/// /2302 10075 20058 30253 40269 53011 60001 333 10076 20062 70002
AAXX 20184 71786 46/// /2617 11063 21072 38317 40169 58005 6///1 333 11063 21090 7////
AAXX 20184 71787 17/// /3012 11093 21131 39619 40114 53017 69941 7//4/ 333 11016 21099 70040
AAXX 20184 71788 NIL
AAXX 20184 71789 NIL
AAXX 20184 71791 NIL
AAXX 20184 71792 NIL
AAXX 20184 71793 NIL
AAXX 20184 71794 NIL
AAXX 20184 71795 NIL
AAXX 20184 71796 NIL
AAXX 20184 71797 NIL
AAXX 20184 71300 NIL
AAXX 20184 71301 16/// ///// 11082 21099 39749 40157 58042 60001 333 11082 21121 70000
AAXX 20184 71302 16/// /2310 10029 21039 39322 40138 53018 60001 333 10036 21005 70000
AAXX 20184 71303 46/// ///// 10038 21002 6///1 333 10038 20007 7////
AAXX 20184 71305 17466 83306 11104 21116 39751 40044 53035 60001 771// 333 11044 21130 70000
AAXX 20184 71306 17/00 /1932 11080 21091 39853 49885 56064 60001 773// 333 11079 21143 70000
AAXX 20184 71307 46/// /1007 10014 21008 39946 40200 6///1 333 10015 21010 7////
AAXX 20184 71308 16/// /2917 11024 21085 39984 40069 53020 60001 333 10021 21068 70017
AAXX 20184 71309 NIL
AAXX 20184 71310 NIL
AAXX 20184 71311 NIL
AAXX 20184 71312 16/// /2609 10020 21013 39521 49972 53010 60001 333 10020 21098 70000
AAXX 20184 71314 16/// /1406 11041 21076 39848 40208 58035 60001 333 11031 21093 70000
AAXX 20184 71315 16/// /2717 11092 21155 30079 40134 53018 60001 333 11032 21108 70016
AAXX 20184 71316 16/// /3306 10016 21003 39344 40020 53023 60001 333 10057 21014 70000
AAXX 20184 71317 NIL
AAXX 20184 71318 16/// /3011 10037 21042 39121 40059 53010 60001 333 10059 21063 70000
AAXX 20184 71319 16/// /3205 11136 21195 39277 40163 58009 60001 333 11097 21163 70006
AAXX 20184 71320 NIL
AAXX 20184 71321 NIL
AAXX 20184 71322 NIL
AAXX 20184 71323 16/// /3005 11091 21160 39911 40199 56008 60001 333 11037 21121 70040
AAXX 20184 71331 16/// /3005 11030 21063 60001 333 11027 21088 70000
AAXX 20184 71332 NIL
AAXX 20184 71334 NIL
AAXX 20184 71335 46964 02606 11139 56007 6///1 333 11135 21171 7////
AAXX 20184 71336 46/// ///09 11013 21051 39910 49932 56032 6///1 333 11003 21017 7////
AAXX 20184 71337 46/// /1709 11058 21065 39693 49930 56022 6///1 333 11057 21107 7////
AAXX 20184 71338 46964 00602 11218 21260 39951 49958 58006 6///1 333 11209 21275 7////
AAXX 20184 71339 17458 60508 11046 21073 39945 49960 56019 60001 745// 333 11044 21168 70000
AAXX 20184 71340 NIL
AAXX 20184 71341 NIL
AAXX 20184 71342 NIL
AAXX 20184 71343 NIL
AAXX 20184 71344 NIL
AAXX 20184 71345 NIL
AAXX 20184 71346 NIL
AAXX 20184 71347 NIL
AAXX 20184 71348 NIL
AAXX 20184 71349 NIL
AAXX 20184 71700 15966 03011 11057 21164 30132 40158 53019 60001 333 11003 21069 70003
AAXX 20184 71701 11674 23018 11064 21156 30094 40157 51019 69901 70281 82100 333 10003 21067 45997 79999 90920
AAXX 20184 71702 16/// /3118 11048 21117 30076 40091 53021 60001 333 10005 21054 70004
AAXX 20184 71703 11574 23120 11101 21148 39857 40161 53010 60001 73611 82100 333 11044 21117 70016
AAXX 20184 71704 17566 61508 11002 21037 39976 40200 58033 69931 7004/ 333 10014 21030 70003
AAXX 20184 71710 16/// /3126 11049 21071 30026 40035 53019 60001 333 10001 21054 70030
AAXX 20184 71712 16/// /2505 11055 21101 30170 40233 58025 60001 333 11013 21072 70000
AAXX 20184 71713 NIL
AAXX 20184 71716 NIL
AAXX 20184 71717 NIL
AAXX 20184 71720 16/// /2908 10051 20044 30120 40275 53008 60001 333 10058 20033 70006
AAXX 20184 71721 16/// /1904 11076 21146 39966 40219 58030 60001 333 11070 21135 70019
AAXX 20184 71723 NIL
AAXX 20184 71724 16/// /2111 11074 21142 30217 40225 58017 60001 333 11043 21099 70000
AAXX 20184 71732 NIL
AAXX 20184 71733 16/// /2013 11061 21098 39754 40198 58034 60001 333 11059 21141 70000
AAXX 20184 71734 16/// /2109 11089 21125 39771 40174 58028 60001 333 11089 21127 70000
AAXX 20184 71736 NIL
AAXX 20184 71737 NIL
AAXX 20184 71741 16/// /2802 11010 21031 39778 40206 50000 60001 333 10011 21039 70000
AAXX 20184 71742 NIL
AAXX 20184 71743 NIL
AAXX 20184 71744 NIL
AAXX 20184 71745 NIL
AAXX 20184 71746 NIL
AAXX 20184 71747 NIL
AAXX 20184 71748 NIL
AAXX 20184 71864 NIL
AAXX 20184 71865 16/// /2512 10025 21028 39325 49997 50003 60001 333 10027 21066 70000
AAXX 20184 71866 46964 02713 10050 21019 39410 40018 53011 6///1 333 10051 21061 7////
AAXX 20184 71867 12674 62707 11008 21030 39618 49948 53001 60001 81571 333 11002 21092 70000
AAXX 20184 71868 16/// /2608 10016 21027 39525 49959 56006 60001 333 10016 21071 70000
AAXX 20184 71869 12574 72705 10026 21016 39468 49986 51018 60001 87500 333 10026 21079 70000
AAXX 20184 71871 15966 02818 10044 21036 39226 40021 51009 60001 333 10048 21039 70000
AAXX 20184 71877 12986 42613 10066 21056 38835 40088 53011 60001 82071 333 10092 20053 70000
AAXX 20184 71878 12674 71905 11038 21065 39014 40087 50006 60001 82571 333 10052 21070 70000
AAXX 20184 71879 16864 82810 10044 21036 39258 40055 51011 60001 333 10058 21040 70000
AAXX 20184 71880 12582 71810 10005 21041 39072 40185 56007 60001 86570 333 10011 21027 70000
AAXX 20184 71882 160// /1709 10009 21020 39669 40213 53004 60001 333 10013 21007 70000
AAXX 20184 71883 46/// /0000 11010 21016 39356 40184 58005 6///1 333 11005 21046 7////
AAXX 20184 71887 12986 30000 11010 21027 39782 40210 50000 60001 80001 333 10015 21043 70000
AAXX 20184 71889 12874 61817 10006 21026 39813 40238 55002 60001 84571 333 10007 21016 70000
AAXX 20184 71891 16964 02018 10082 20009 39925 40199 51011 60001 333 10082 20005 70000
AAXX 20184 71892 11262 80000 10066 20053 30256 40261 53007 69901 72052 886// 333 10067 20056 70012 90910
AAXX 20184 71893 12480 62902 10056 20037 30241 40273 53006 60001 82570 333 10071 20046 70002
AAXX 20184 71894 NIL
AAXX 20184 71896 15666 62311 10028 21042 39311 40142 53018 60001 333 10033 21013 70000
AAXX 20184 71897 12269 72715 10074 20037 3//// 4//// 52017 60001 85870 333 10078 20069 70012
AAXX 20184 71898 160// ///// 10055 51025 60011 333 10076 20041 70185
AAXX 20184 71899 11474 83022 10058 20034 3//// 4//// 52024 69981 70181 82277 333 10071 20045 70052 90936
AAXX 20184 71902 12974 20000 11130 21182 30038 40047 56003 60001 80001 333 11120 21201 70000
AAXX 20184 71905 NIL
AAXX 20184 71906 11574 52206 11195 21251 30012 40064 58007 69901 77171 85501 333 11187 21254 48015 79999 90937
AAXX 20184 71907 17002 91930 11095 21114 39852 49885 56064 60021 74544 333 11094 21169 70020
AAXX 20184 71909 16964 03502 11180 21208 39913 49957 50002 60001 333 11111 21185 70000
AAXX 20184 71910 47011 93602 11200 21228 39859 49923 58014 6///1 745// 333 11189 21230 7////
AAXX 20184 71911 46464 61008 11401 39933 49993 51012 6///1 333 11323 21402 7////
AAXX 20184 71912 11332 83508 11043 21054 39714 49894 52011 60021 77177 886// 333 11021 21164 47016 70046 90937 93102
AAXX 20184 71915 11574 13312 11356 21399 39825 49910 56011 69901 77677 81500 333 11350 21380 48043 79999 90983
AAXX 20184 71917 11666 80000 11358 21399 30018 40033 57010 69901 77677 885// 333 11356 21412 43013 79999 90983
AAXX 20184 71922 12474 23011 11003 21030 39512 49973 52018 60001 81170 333 11003 21064 70000
AAXX 20184 71924 12974 13503 11282 21311 39940 40032 50005 60001 81030 333 11231 21302 48038 79999
AAXX 20184 71925 11674 73209 11309 21355 30011 40054 52009 69901 77677 87500 333 11306 21363 42021 79999 90983
AAXX 20184 71926 11540 13123 11331 21386 39976 40002 53003 60001 73800 81500 333 11304 21339 79999
AAXX 20184 71928 16/// /2706 11010 21070 38921 40074 50005 60001 333 10077 21102 70003 555 10010
AAXX 20184 71500 NIL
AAXX 20184 71501 NIL
AAXX 20184 71502 NIL
AAXX 20184 71503 NIL
AAXX 20184 71504 NIL
AAXX 20184 71505 46/// /1201 11198 21225 39403 40159 53034 6///1 333 11192 21236 7////
AAXX 20184 71506 NIL
AAXX 20184 71507 16/// /3602 11009 21025 60001 333 10006 21024 70000
AAXX 20184 71508 17/// ///// 11015 21054 30084 40225 58029 69981 7//4/ 333 10009 21035 70008
AAXX 20184 71509 NIL
AAXX 20184 71511 NIL
AAXX 20184 71512 16/// /3008 11084 21117 30040 40054 53021 60001 333 11051 21108 70034
AAXX 20184 71513 17966 03018 11076 21113 39970 49985 53017 60001 771// 333 11034 21113 70013
AAXX 20184 71514 NIL
AAXX 20184 71515 16/// /2609 10018 21022 39320 40015 50003 60001 333 10022 21081 70000
AAXX 20184 71516 16/// /2911 10036 21030 60001 333 10036 21054 70006
AAXX 20184 71517 NIL
AAXX 20184 71518 NIL
AAXX 20184 71519 NIL
AAXX 20184 71520 NIL
AAXX 20184 71521 NIL
AAXX 20184 71522 NIL
AAXX 20184 71523 NIL
AAXX 20184 71524 16/// /2406 11052 21141 30209 40236 58021 60001 333 11044 21095 70000
AAXX 20184 71525 NIL
AAXX 20184 71526 NIL
AAXX 20184 71527 15866 82213 11032 21074 39523 40031 58017 60001 333 11032 21086 70000
AAXX 20184 71528 NIL
AAXX 20184 71529 NIL
AAXX 20184 71532 15966 01508 11035 21094 39857 40209 58036 60001 333 11035 21117 70000
AAXX 20184 71534 16864 31508 11023 21072 39934 40211 58036 60001 333 11013 21067 70000
AAXX 20184 71535 NIL
AAXX 20184 71536 NIL
AAXX 20184 71537 NIL
AAXX 20184 71539 NIL
AAXX 20184 71540 NIL
AAXX 20184 71541 NIL
AAXX 20184 71542 16/// /3104 11058 21093 60001 333 10008 21061 70000
AAXX 20184 71543 NIL
AAXX 20184 71544 NIL
AAXX 20184 71545 16/// ///// 10036 21031 60001 333 10057 21028 70000
AAXX 20184 71546 NIL
AAXX 20184 71547 NIL
AAXX 20184 71548 NIL
AAXX 20184 71549 NIL
AAXX 20184 71726 16/// /2404 11124 21167 39639 40200 57023 60001 333 11123 21164 70011 555 10030
AAXX 20184 71727 11574 73207 11120 21153 30000 40204 57009 69901 78511 87500 333 11089 21133 48029 70060 90942
AAXX 20184 71728 12582 52405 11119 21185 39969 40198 57021 60001 81501 333 11098 21148 79999
AAXX 20184 71730 12474 42014 11065 21104 39763 40200 56034 60001 82501 333 11065 21123 70002
AAXX 20184 71731 11974 22308 11071 21118 39741 40206 56031 69901 70271 80001 333 11066 21106 45997 79999 90961
AAXX 20184 71735 NIL
AAXX 20184 71738 11574 82415 11026 21063 39778 40139 58036 60001 73622 885// 333 11017 21148 79999
AAXX 20184 71739 41474 62212 11052 21085 39761 40131 58045 6//// 73672 86570 333 11051 21124 4//// 7//// 90963
AAXX 20184 71749 16964 02509 11023 21080 39850 40099 56042 60001 333 11023 21107 70000
AAXX 20184 71799 12374 72503 10067 20059 30243 40267 52010 60001 86570 333 10073 20044 70000
AAXX 20184 71800 16/// /1713 10003 20003 39915 49948 56052 60001 333 10008 21048 70000
AAXX 20184 71801 11332 81808 11026 21052 39786 49958 57033 69901 78522 887// 333 11019 21032 47007 79999 90910
AAXX 20184 71803 11/16 91510 11055 21070 39756 49943 56035 60021 77122 333 11049 21107 46002 70016 90952 93102
AAXX 20184 71807 NIL
AAXX 20184 71808 11574 80914 11046 21071 39892 49938 56018 69901 77172 885// 333 11041 21128 70010 90927
AAXX 20184 71809 11466 42306 11039 21054 39916 49943 57011 60021 77177 84500 333 11037 21160 46004 70064 90973 93102
AAXX 20184 71810 16/// /2912 11080 21144 39984 40051 53019 60001 333 11046 21085 70000
AAXX 20184 71811 NIL
AAXX 20184 71813 47/// /3017 11076 21112 39967 53018 6///1 7//4/ 333 7////
AAXX 20184 71814 17/// /2612 11047 21059 39917 49927 55000 60011 7//4/ 333 11019 21069 70093
AAXX 20184 71815 11469 82810 11026 21054 39932 49963 53004 60041 78588 885// 333 11014 21103 48007 70070 90973 93104
AAXX 20184 71900 46/// /30// 11122 21153 30014 40027 53004 6///1 333 11119 21151 7////
AAXX 20184 71903 NIL
AAXX 20184 71904 NIL
AAXX 20184 71914 16/// /1701 10053 20045 30038 40262 51009 60001 333 10054 20045 70000
AAXX 20184 71916 NIL
AAXX 20184 71918 460// ///// 11320 6///1 333 7////
AAXX 20184 71920 NIL
AAXX 20184 71921 NIL
AAXX 20184 71923 NIL
AAXX 20184 71927 16/// /1402 10056 20039 30205 40263 51011 60001 333 10066 20033 70000
AAXX 20184 71941 17466 62011 11093 21122 39763 40193 58025 60001 771// 333 11093 21146 70000
AAXX 20184 71947 17466 31912 11101 21119 39780 40137 57036 60001 771// 333 11101 21193 70000
AAXX 20184 71397 12574 63214 11031 21097 30101 40136 52023 60001 86500 333 10035 21033 70076
AAXX 20184 71400 NIL
AAXX 20184 71403 46/// /3023 11010 21061 30062 40082 53021 6///1 333 10059 21014 7////
AAXX 20184 71411 NIL
AAXX 20184 71412 17/// /3227 11024 21075 30040 40050 53020 69931 7//4/ 333 10014 21033 70043 555 10010
AAXX 20184 71421 NIL
AAXX 20184 71430 16/// /1007 11015 21057 30127 40226 58020 60001 333 10020 21064 70000
AAXX 20184 71431 16/// /1206 11016 21060 30118 40216 58027 60001 333 10005 21058 70000
AAXX 20184 71432 16/// /0705 10005 21046 30115 40213 58029 60001 333 10028 21008 70000
AAXX 20184 71433 NIL
AAXX 20184 71435 NIL
AAXX 20184 71441 46/// /2703 10018 21059 39716 40024 55024 6///1 333 10018 21078 7////
AAXX 20184 71443 NIL
AAXX 20184 71444 NIL
AAXX 20184 71447 16/// /2206 10009 21035 39481 40023 58022 60001 333 10009 21088 70000
AAXX 20184 71467 16/// /1003 11245 21268 39982 40101 53013 60001 333 11232 21266 70000
AAXX 20184 71472 NIL
AAXX 20184 71474 46964 02404 11020 21038 38939 40188 58005 6///1 333 10003 21056 7////
AAXX 20184 71510 16/// /2810 10041 21023 39333 40035 50005 60001 333 10041 21070 70000
AAXX 20184 71538 12574 80803 10011 21036 39965 40199 56034 60001 885// 333 10014 20000 79999
AAXX 20184 71600 16664 83025 10023 21044 30054 40060 53020 60011 333 10072 21016 70020
AAXX 20184 71601 NIL
AAXX 20184 71150 46/// /2210 11015 21043 39325 40002 56025 6///1 333 11015 21117 7////
AAXX 20184 71151 NIL
AAXX 20184 71152 17/// /2920 11007 21051 39948 49961 53012 60041 7//4/ 333 10014 21089 70072
AAXX 20184 71153 16/// /2617 10041 21040 60001 333 10064 20023 70000
AAXX 20184 71154 NIL
AAXX 20184 71155 NIL
AAXX 20184 71156 NIL
AAXX 20184 71157 46/// ///// 10041 21012 6///1 333 10053 21042 7////
AAXX 20184 71158 NIL
AAXX 20184 71159 NIL
AAXX 20184 71160 NIL
AAXX 20184 71161 16/// /3302 11054 21146 30074 40226 58029 60001 333 11022 21086 70000
AAXX 20184 71162 NIL
AAXX 20184 71163 46/// /3104 11199 21217 39717 40068 51025 6///1 333 11152 21200 7////
AAXX 20184 71164 NIL
AAXX 20184 71165 NIL
AAXX 20184 71166 NIL
AAXX 20184 71167 15966 02709 10026 21049 38975 40063 58005 69931 333 10055 21068 70003
AAXX 20184 71168 16/// /2010 11018 21061 39570 40172 58035 60001 333 11017 21136 70000
AAXX 20184 71170 16/// /2511 11005 21044 60001 333 11002 21112 70000
AAXX 20184 71171 16/// /1004 10007 21049 30107 40205 58030 60001 333 10023 21010 70000
AAXX 20184 71172 16/// ///// 11030 21089 39976 40198 58035 60001 333 11027 21099 70000 555 10130
AAXX 20184 71175 NIL
AAXX 20184 71176 460// /2518 11183 39309 40005 55003 6///1 333 11169 21185 7////
AAXX 20184 71177 460// /3605 11170 38984 40007 55002 6///1 333 11168 21204 7////
AAXX 20184 71178 16/// /2110 11013 21068 39915 49947 56033 60001 333 11003 21029 70000
AAXX 20184 71179 460// ///// 11137 39153 49991 53004 6///1 333 11125 21195 7////
AAXX 20184 71180 16/// /3023 11027 21034 39955 49994 53012 60001 333 10011 21102 70035
AAXX 20184 71181 17164 32913 10003 21011 39879 49915 56030 60021 74144 333 10003 21092 70015
AAXX 20184 71183 16/// /2608 30188 58022 60001 333 70000
AAXX 20184 71184 46/// /2607 11043 21120 6///1 333 11026 21079 7////
AAXX 20184 71186 NIL
AAXX 20184 71187 15466 82710 10061 20048 30196 40244 50009 60001 333 10061 20035 70000
AAXX 20184 71189 NIL
AAXX 20184 71190 NIL
AAXX 20184 71191 16/// ///// 11053 21120 60001 333 10019 21053 70104
AAXX 20184 71192 15966 00403 10040 21040 39506 40167 53008 60001 333 10046 21018 70000
AAXX 20184 71193 16/// /2012 11056 21080 39760 40130 58046 60001 333 11056 21133 70000 555 10040
AAXX 20184 71196 16/// /1306 11050 21131 30013 40217 58038 60001 333 11047 21093 70009
AAXX 20184 71197 17458 62930 11021 21063 39934 49983 51005 60001 745// 333 10013 21089 70035
AAXX 20184 71198 46/// /2310 11070 21148 6///1 333 11034 21086 7////
AAXX 20184 71199 46/// /2901 11210 21234 39288 40149 53032 6///1 333 11108 21217 7////
AAXX 20181 26106 32/97 71303 10010 21008 40138 57002 87500 333 10029
AAXX 20181 26313 12/// 82303 10004 21002 40127 52004 69942 889// 333 10032
AAXX 20181 26346 32597 60000 11025 21031 40147 57005 86500 333 10005 86625
AAXX 20181 26406 11497 81502 10008 20002 40125 52001 60062 70282 886// 333 10045 88710
AAXX 20181 26416 33/// /2101 11006 21012 40136 54000 333 10016
AAXX 20181 26424 32997 61801 10004 21010 40134 57004 80030 333 10023
AAXX 20181 26544 31696 21202 11047 21053 40144 57012 71011 81501 333 11007
AAXX 20184 61017 32960 50000 10218 20000 39743 40154 80002 333 10273 58004 85080
AAXX 20184 61024 32960 71204 10232 21061 39573 40149 84032 333 10284 58006 84364 83080
AAXX 20184 61036 32960 70000 10289 20002 39866 40104 80008 333 10338 59005 87280
AAXX 20184 61043 32960 71208 10277 21047 39673 40116 82038 333 10315 58005 82364 86280
AAXX 20184 61045 32965 50402 10230 21026 39635 40139 80002 333 10291 58013 85080
AAXX 20184 61049 32960 50000 10220 20005 39799 40122 80002 333 10299 58003 85080
AAXX 20184 61052 32960 50204 10290 20038 39863 40121 83032 333 10335 58007 83364 85080
AAXX 20184 61075 32965 70000 10270 20053 39801 40112 83032 333 10335 58002 83364 85080
AAXX 20184 61080 32960 70804 10255 20022 39700 40123 82048 333 10315 58003 82364 87280
AAXX 20184 61090 32965 50202 10256 21040 39610 40125 80002 333 10302 58004 85080
AAXX 20184 61091 NIL
AAXX 20184 61096 32965 70000 10236 20008 39746 40133 80008 333 10307 58003 87280
AAXX 20184 61099 32960 70204 10290 20072 39870 40098 85042 333 10336 58006 85364 83080
AAXX 20184 65306 32960 70000 10286 20067 39700 40113 8703/ 333 10349 58005 87363
AAXX 20184 65319 32958 70000 10300 20159 39596 40109 8703/ 333 10367 58009 87361
AAXX 20184 65330 31910 50000 10300 20115 39660 40096 70522 80002 333 10350 58005 85076
AAXX 20184 65335 32958 50000 10316 20178 39871 40093 80002 333 10361 58000 85076
AAXX 20184 65344 32958 52208 10293 20254 30088 40099 80002 333 10320 58003 85076
AAXX 20184 06011 07680 12913 10029 21029 39965 40034 52024 60022 70087 333 10035 20011 55300 20000 69927 81/39 91130
AAXX 20181 12120 12960 01502 11015 21028 30107 40115 51002 60002 333 10034 21015 93000
AAXX 20181 12250 11956 00901 11031 21041 30032 40124 57001 69902 71071 333 10020 21031 93097
AAXX 20181 12295 11657 83502 11008 21015 39933 40122 56007 69902 71072 885// 333 11002 21054 93097
AAXX 20181 12330 11957 01402 11010 21032 30004 40115 52003 60002 71011 333 10027 21010 93000
AAXX 20181 12375 12660 40000 11023 21029 39991 40126 58001 60002 81530 333 10017 21071 93000
AAXX 20181 12424 12980 01402 11034 21045 39963 40121 53003 60002 333 10031 21044 93000
BBXX A8FZ6 20184 99355 70142 41498 40515 10170 20119 40310 70222 84500 22225 2//03 80140
AAXX 20181 13168 32697 22503 11006 21014 30042 40152 53016 82500 333 10016
AAXX 20181 13174 12697 72702 11006 21019 30031 40135 52010 69932 87500 333 10012
AAXX 20181 13269 11597 82901 10001 21012 39924 40145 52003 69922 70277 885// 333 10010 93197
AAXX 20181 13274 11697 83003 10004 21025 39980 40146 52008 69902 70272 888// 333 10020
AAXX 20181 13278 11596 80000 11001 21005 39908 40140 51004 60012 77177 885// 333 10011 4/004 93101
AAXX 20181 13378 11/92 90302 11094 21103 38159 48375 53003 60012 74574 333 11058 4/017 93102
AAXX 20181 13397 11698 83104 11006 21019 39573 40125 52011 60052 70272 885// 333 10026 4/002 93102
AAXX 20181 13457 11670 60701 10038 20032 30109 40116 52013 60082 70296 84530 333 10070 81633 83650
AAXX 20181 13481 NIL
AAXX 20181 13173 12697 22903 11005 21024 30036 40139 52009 69922 82500 333 10013 93197
AAXX 20181 13180 11697 82904 10002 20000 30024 40137 52010 60022 70262 885// 333 10010
AAXX 20181 13266 12997 02503 11007 21023 30044 40149 53006 69922 333 10014 93100
AAXX 20181 13369 11597 80201 11046 21057 38902 48379 52009 60032 70272 885// 333 11028 4/011 93104
AAXX 20181 13383 11697 82601 10005 21009 39930 40139 52010 60052 72176 885// 333 10014 93197
AAXX 20181 13384 11595 83202 10004 21002 39984 40140 52011 60052 77177 8802/ 333 10038 4/002 93101
AAXX 20181 13389 11596 80000 10001 21006 39843 40132 53007 60092 77177 8802/ 333 10016 4/005 93105
AAXX 20181 13477 NIL
AAXX 20181 12105 11957 01403 11007 21021 30061 40105 51001 60002 71000 333 10034 21007 93000
AAXX 20181 12195 11929 10101 11054 21057 39898 40135 57006 60002 71000 81030 333 11011 21059 93000
AAXX 20181 12235 11535 31404 11003 21013 39901 40116 50001 60002 71011 83500 333 10013 21003 93000
AAXX 20181 12270 11910 00801 11030 21033 39943 40131 54000 60002 71011 333 10014 21030 93000
AAXX 20181 12280 11/03 90000 11029 21029 39970 40132 57003 60002 74911 333 10006 21032 93000
AAXX 20181 12300 12965 51703 11005 21039 30007 40099 50000 60002 85050 333 10031 21005 93000
AAXX 20181 12400 12975 31602 11009 21063 39866 40107 52002 60002 83050 333 10022 21014 91108 93000
AAXX 20181 12435 11940 01302 11020 21052 39948 40125 55000 60002 71011 333 10018 21020 93000
AAXX 20181 12495 11214 83501 11015 21016 39816 40116 57002 60022 77177 8672/ 333 11014 21025 93001
AAXX 20181 12530 11950 00902 11052 21060 39922 40130 52003 60002 71000 333 10023 21053 93000
AAXX 20181 12570 11916 03601 11043 21048 39800 40131 52002 60002 71000 333 10015 21045 93000
AAXX 20181 12580 11360 82902 11006 21017 39853 40119 54000 69942 72272 885// 333 11003 21018 85709 88611 93097
AAXX 20181 12160 11456 71302 10005 21010 30072 40126 55000 60002 71022 875// 333 10021 20003 93000
AAXX 20181 12205 12965 41405 11003 21038 30081 40089 51001 60002 84030 333 10031 21003 93000
AAXX 20181 12465 11910 00000 11047 21057 39888 40131 55000 60002 71011 333 10023 21049 93000
AAXX 20181 12566 11915 00000 11058 21063 39829 40137 52004 60002 71011 333 11004 21061 93000
AAXX 20181 15501 11570 82707 10020 20007 30051 40096 52001 60062 70262 885// 333 10033 20015 555 59101 69299
AAXX 20181 15505 11662 80000 10010 21001 39724 40103 53005 60102 70274 889// 333 10016 20002 43008 555 592//
AAXX 20181 15511 11570 82705 10020 20009 30068 40108 54000 60052 76176 8802/ 333 10029 20017 555 59301 69999
AAXX 20181 15514 11562 82709 10016 20005 30053 40089 52002 60062 76176 8802/ 333 10040 20006 555 59301 69999
AAXX 20181 15530 11911 80000 10011 20000 39858 40100 52006 60012 77176 8802/ 333 10030 20011 555 59201 64499 71867
AAXX 20181 15533 11968 82703 10023 20010 30027 40059 53005 60022 72176 8802/ 333 10042 20021 555 59101 69799
AAXX 20181 15550 11415 80000 10046 20041 30053 40073 54000 69902 76164 8802/ 333 10050 20035 555 59700 67299
AAXX 20181 15561 11465 80504 10066 20057 30062 40069 57003 60032 76162 8802/ 222// 00093 336// 4//01 333 10114 20062 555 59403 66299 71853 92023 92427
AAXX 20181 15562 11457 82703 10072 20063 39996 40068 57009 60052 76162 8802/ 222// 2//00 333 10104 20066 555 594// 66399 71861 92013 92416 96010
AAXX 20181 15600 11/00 93604 11062 21070 38183 48397 54000 60012 74944 333 11058 21062 44011 555 594//
AAXX 20181 15601 11570 80000 10012 21010 39465 40092 53017 60032 70262 885// 333 10024 20000 555 585// 60599 71854
AAXX 20181 15605 12666 82905 11024 21027 39250 40115 52009 60022 885// 333 10011 21024 47002 555 598//
AAXX 20181 15613 11/00 92704 11079 21085 37576 47906 51002 60012 74974 333 11051 21080 48044 555 596// 71854
AAXX 20181 15628 12670 82710 10040 20004 39835 40094 52015 60002 885// 333 10055 20022 555 577//
AAXX 20181 15642 11570 80000 10064 20062 39901 40068 54000 60032 72164 885// 333 10074 20042 555 59801 64399 71860
AAXX 20181 15661 11560 60000 10090 20082 30025 40060 53001 60042 70162 86500 222// 20000 333 10116 20086 555 59504 69699 71854 92012 92417
AAXX 20181 15726 11/01 92601 11030 21034 38135 48403 53002 60022 74574 333 10012 21032 47011 555 59702 60263 71847
AAXX 20184 48431 32960 10000 10208 20156 39914 40131 57008 80001 333 59010
AAXX 20184 60020 NIL
AAXX 20184 60030 02975 00108 10194 20104 30179 40235 53010 60002 333 10212 60007 92428
AAXX 20184 60040 02975 00510 10199 20134 30231 40255 53011 60002 333 10226 60007
AAXX 20184 60338 12980 02404 10128 20070 30212 40279 53009 60002 333 10172 92418
AAXX 20184 71930 11674 72917 10039 21058 39130 40054 53003 60003 714// 87170 333 10041 21024 47017 79999
AAXX 20184 71931 NIL
AAXX 20184 71934 11774 72904 11152 21170 39789 40049 53026 69901 77172 83530 333 11047 21152 47021 79999 90977
AAXX 20184 71935 12574 73109 11112 21134 39858 40069 52025 60001 87500 333 11098 21176 70000
AAXX 20184 71936 11574 23110 11182 21212 39782 40048 53022 69941 72271 81571 333 11153 21189 48021 70016 90983 93101
AAXX 20184 71937 NIL
AAXX 20184 71938 11574 70605 11252 21291 30077 40108 53022 69901 70177 87630 333 11248 21270 70002 90923
AAXX 20184 71940 11882 72520 10030 21023 39249 40045 53002 60001 71422 87070 333 10055 21019 70000
AAXX 20184 71943 12774 72608 10019 21050 39211 40037 53014 60001 86570 333 10039 20008 70000
AAXX 20184 71944 160// ///// 10027 53014 60051 333 10044 21014 70055
AAXX 20184 71945 11880 82003 11054 21088 39601 40076 53031 69901 70272 88071 333 11033 21123 43011 79999 90941
AAXX 20184 71946 12674 73106 11112 21148 39876 40095 52030 60001 87500 333 11106 21180 70000
AAXX 20184 71948 46064 /0907 11270 39978 40096 53021 6///1 333 11255 21271 7////
AAXX 20184 71949 46/// /1104 11209 21233 39244 40147 53022 6///1 333 11163 21236 7////
AAXX 20184 71951 11369 61814 10019 20009 39947 40216 53032 60011 70288 86570 333 10040 20008 43028 70143 90933
AAXX 20184 71957 46664 80000 11251 21319 30011 40103 51016 6///1 333 11250 21299 7////
AAXX 20184 71964 12886 80000 11121 21145 39265 40144 53025 60001 81031 333 11116 21183 70000
AAXX 20184 71966 16/// /0000 11175 21195 39645 40121 53014 60001 333 11175 21237 70000
AAXX 20184 71968 460// /2505 11276 30029 40096 51010 6///1 333 11237 21293 7////
AAXX 20184 71816 11320 80404 11088 21111 39940 40002 53007 60021 78577 885// 333 11084 21151 47049 70032 90983 93103
AAXX 20184 71817 11432 80508 11044 21073 39945 49958 57020 60011 77122 886// 333 42011 70012 90952
AAXX 20184 71818 11674 83404 11080 21090 39975 49993 56005 69941 70272 885// 333 11070 21140 43019 70008 90943
AAXX 20184 71822 12574 72008 11147 21167 39677 40169 58033 60001 82507 333 11145 21196 70014
AAXX 20184 71825 11574 23016 11174 21228 39405 40102 53013 69901 70277 82500 333 11160 21216 47084 70032 90963
AAXX 20184 71827 11462 81818 11135 21156 39760 40010 56061 69901 77177 885// 333 11134 21174 47018 70004 90983
AAXX 20184 71828 17462 33110 11194 21240 39426 40092 50012 69951 7//44 333 11190 21248 70005
AAXX 20184 71831 11574 82015 11032 21055 39804 40092 58050 60001 73611 885// 333 11032 21138 79999
AAXX 20184 71832 NIL
AAXX 20184 71834 11/08 92215 11040 21057 39620 40053 58035 69941 77131 333 11040 21175 48023 70004 90910 93101
AAXX 20184 71841 NIL
AAXX 20184 71842 12774 82012 11039 21074 39552 40025 58026 60001 8552/ 333 11038 21093 79999
AAXX 20184 71844 16464 82710 11025 21045 39645 49920 58005 60001 333 11025 21161 70010
AAXX 20184 71845 11474 82208 11046 21063 39512 49988 57014 69961 77172 885// 333 11045 21107 44016 70006 90952
AAXX 20184 71850 11874 82114 11036 21081 39526 40027 58023 60001 73622 88070 333 11036 21065 48007 79999
AAXX 20184 71852 16764 32012 11008 21046 39715 40009 58015 60001 333 11007 21082 70000
AAXX 20184 71854 11366 82209 11035 21059 39523 49996 58018 60031 77177 8677/ 333 11035 21099 48012 70034 90973
AAXX 20184 71858 NIL
AAXX 20184 71861 NIL
AAXX 20184 71862 12974 82509 10027 21040 39346 40044 58008 60001 81071 333 10027 21055 70000
AAXX 20184 71863 46864 82813 10016 21019 39340 40034 51004 6///1 333 10017 21071 7////
AAXX 20184 71397 12574 63214 11031 21097 30101 40136 52023 60001 86500 333 10035 21033 70076
AAXX 20184 71400 NIL
AAXX 20184 71403 46/// /3023 11010 21061 30062 40082 53021 6///1 333 10059 21014 7////
AAXX 20184 71411 NIL
AAXX 20184 71412 17/// /3227 11024 21075 30040 40050 53020 69931 7//4/ 333 10014 21033 70043 555 10010
AAXX 20184 71421 NIL
AAXX 20184 71430 16/// /1007 11015 21057 30127 40226 58020 60001 333 10020 21064 70000
AAXX 20184 71431 16/// /1206 11016 21060 30118 40216 58027 60001 333 10005 21058 70000
AAXX 20184 71432 16/// /0705 10005 21046 30115 40213 58029 60001 333 10028 21008 70000
AAXX 20184 71433 NIL
AAXX 20184 71435 NIL
AAXX 20184 71441 46/// /2703 10018 21059 39716 40024 55024 6///1 333 10018 21078 7////
AAXX 20184 71443 NIL
AAXX 20184 71444 NIL
AAXX 20184 71447 16/// /2206 10009 21035 39481 40023 58022 60001 333 10009 21088 70000
AAXX 20184 71467 16/// /1003 11245 21268 39982 40101 53013 60001 333 11232 21266 70000
AAXX 20184 71472 NIL
AAXX 20184 71474 46964 02404 11020 21038 38939 40188 58005 6///1 333 10003 21056 7////
AAXX 20184 71510 16/// /2810 10041 21023 39333 40035 50005 60001 333 10041 21070 70000
AAXX 20184 71538 12574 80803 10011 21036 39965 40199 56034 60001 885// 333 10014 20000 79999
AAXX 20184 71600 16664 83025 10023 21044 30054 40060 53020 60011 333 10072 21016 70020
AAXX 20184 71601 NIL
AAXX 20184 71893 12480 62902 10056 20037 30241 40273 53006 60001 82570 333 10071 20046 70002
AAXX 20184 71894 NIL
AAXX 20184 71896 15666 62311 10028 21042 39311 40142 53018 60001 333 10033 21013 70000
AAXX 20184 71897 12269 72715 10074 20037 3//// 4//// 52017 60001 85870 333 10078 20069 70012
AAXX 20184 71898 160// ///// 10055 51025 60011 333 10076 20041 70185
AAXX 20184 71899 11474 83022 10058 20034 3//// 4//// 52024 69981 70181 82277 333 10071 20045 70052 90936
AAXX 20184 71902 12974 20000 11130 21182 30038 40047 56003 60001 80001 333 11120 21201 70000
AAXX 20184 71905 NIL
AAXX 20184 71906 11574 52206 11195 21251 30012 40064 58007 69901 77171 85501 333 11187 21254 48015 79999 90937
AAXX 20184 71907 17002 91930 11095 21114 39852 49885 56064 60021 74544 333 11094 21169 70020
AAXX 20184 71909 16964 03502 11180 21208 39913 49957 50002 60001 333 11111 21185 70000
AAXX 20184 71910 47011 93602 11200 21228 39859 49923 58014 6///1 745// 333 11189 21230 7////
AAXX 20184 71911 46464 61008 11401 39933 49993 51012 6///1 333 11323 21402 7////
AAXX 20184 71912 11332 83508 11043 21054 39714 49894 52011 60021 77177 886// 333 11021 21164 47016 70046 90937 93102
AAXX 20184 71915 11574 13312 11356 21399 39825 49910 56011 69901 77677 81500 333 11350 21380 48043 79999 90983
AAXX 20184 71917 11666 80000 11358 21399 30018 40033 57010 69901 77677 885// 333 11356 21412 43013 79999 90983
AAXX 20184 71922 12474 23011 11003 21030 39512 49973 52018 60001 81170 333 11003 21064 70000
AAXX 20184 71924 12974 13503 11282 21311 39940 40032 50005 60001 81030 333 11231 21302 48038 79999
AAXX 20184 71925 11674 73209 11309 21355 30011 40054 52009 69901 77677 87500 333 11306 21363 42021 79999 90983
AAXX 20184 71926 11540 13123 11331 21386 39976 40002 53003 60001 73800 81500 333 11304 21339 79999
AAXX 20184 71928 16/// /2706 11010 21070 38921 40074 50005 60001 333 10077 21102 70003 555 10010
AAXX 20184 71864 NIL
AAXX 20184 71865 16/// /2512 10025 21028 39325 49997 50003 60001 333 10027 21066 70000
AAXX 20184 71866 46964 02713 10050 21019 39410 40018 53011 6///1 333 10051 21061 7////
AAXX 20184 71867 12674 62707 11008 21030 39618 49948 53001 60001 81571 333 11002 21092 70000
AAXX 20184 71868 16/// /2608 10016 21027 39525 49959 56006 60001 333 10016 21071 70000
AAXX 20184 71869 12574 72705 10026 21016 39468 49986 51018 60001 87500 333 10026 21079 70000
AAXX 20184 71871 15966 02818 10044 21036 39226 40021 51009 60001 333 10048 21039 70000
AAXX 20184 71877 12986 42613 10066 21056 38835 40088 53011 60001 82071 333 10092 20053 70000
AAXX 20184 71878 12674 71905 11038 21065 39014 40087 50006 60001 82571 333 10052 21070 70000
AAXX 20184 71879 16864 82810 10044 21036 39258 40055 51011 60001 333 10058 21040 70000
AAXX 20184 71880 12582 71810 10005 21041 39072 40185 56007 60001 86570 333 10011 21027 70000
AAXX 20184 71882 160// /1709 10009 21020 39669 40213 53004 60001 333 10013 21007 70000
AAXX 20184 71883 46/// /0000 11010 21016 39356 40184 58005 6///1 333 11005 21046 7////
AAXX 20184 71887 12986 30000 11010 21027 39782 40210 50000 60001 80001 333 10015 21043 70000
AAXX 20184 71889 12874 61817 10006 21026 39813 40238 55002 60001 84571 333 10007 21016 70000
AAXX 20184 71891 16964 02018 10082 20009 39925 40199 51011 60001 333 10082 20005 70000
AAXX 20184 71892 11262 80000 10066 20053 30256 40261 53007 69901 72052 886// 333 10067 20056 70012 90910
AAXX 20184 71603 12574 53220 11020 21097 30100 40153 53024 60001 85500 333 10069 21021 70004
AAXX 20184 71607 16/// /2910 11044 21164 30134 40167 51019 60001 333 10012 21048 70000
AAXX 20184 71609 12774 13219 11058 21162 30012 40148 53030 60001 81500 333 11034 21060 70051
AAXX 20184 71610 15566 62710 11067 21134 39915 40218 58013 60001 333 11018 21099 70018
AAXX 20184 71621 12574 31102 11016 21079 30119 40227 56027 60001 81501 333 10002 21070 79999
AAXX 20184 71623 NIL
AAXX 20184 71624 12574 61305 11020 21075 30002 40218 57028 60001 82801 333 11002 21056 79999
AAXX 20184 71625 47964 01604 30054 58038 6///1 745// 333 7////
AAXX 20184 71627 12674 22709 11047 21137 30186 40232 58020 60001 82101 333 11016 21082 79999
AAXX 20184 71628 13760 12604 11058 21137 30091 40236 56025 60001 81500 333 11026 21107 70008
AAXX 20184 71630 NIL
AAXX 20184 71631 16/// /1704 11016 21068 39689 40197 58033 60001 333 11013 21063 70000
AAXX 20184 71633 12974 31603 11019 21078 39926 40203 56037 60001 80001 333 11011 21044 70002
AAXX 20184 71705 12574 22820 11060 21128 30028 40117 53021 60001 82800 333 10004 21066 70024
AAXX 20184 71706 11574 43118 11041 21105 30027 40088 53018 69921 78581 84800 333 10008 21049 43002 70042 90936
AAXX 20184 71707 11674 52914 11020 21087 39948 40025 53015 69901 70182 85500 333 10008 21092 44004 70036 90920
AAXX 20184 71709 11559 73125 11045 21083 30028 40041 53019 60021 78582 87500 333 10007 21054 46006 70072 90962 93102
AAXX 20184 71711 NIL
AAXX 20184 71714 16/// /2605 11088 21178 30135 40230 58020 60001 333 11046 21126 70009
AAXX 20184 71715 16/// /3105 11095 21179 30001 40187 51002 60001 333 11051 21108 70000
AAXX 20184 71718 11583 72815 11091 21155 30103 40170 51006 69901 70282 87500 333 11031 21097 42002 70004 90920
AAXX 20184 71719 16/// /2918 11059 21135 30077 40083 53022 60001 333 11025 21062 70000
AAXX 20184 71114 160// /2610 10062 20046 30197 40245 50010 60011 333 10062 20037 70050
AAXX 20184 71120 NIL
AAXX 20184 71122 16/// /2308 11015 21056 38520 40129 58001 60001 333 21067 7////
AAXX 20184 71123 11874 72810 10040 21032 39203 40062 51007 60001 71411 87070 333 10055 21033 79999
AAXX 20184 71125 11774 73410 10012 20000 39425 40006 53021 69921 72581 86270 333 70002 90916
AAXX 20184 71129 12874 72808 10030 21027 39229 40055 50008 60001 85071 333 10033 21073 70000
AAXX 20184 71131 16/// /3221 10016 21025 38813 40068 50000 60001 333 10016 21071 70000
AAXX 20184 71135 16/// /2812 10002 21050 38975 40057 51004 60001 333 10002 21071 70000
AAXX 20184 71137 16/// /3115 10004 21029 39120 40067 51002 60001 333 10007 21104 70000
AAXX 20184 71140 12974 82513 11014 21038 39520 40021 5/018 60001 86071 333 11014 21127 70000
AAXX 20184 71145 12974 62405 11025 21042 39643 49933 57011 60001 84031 333 11017 21132 70010
AAXX 20184 71148 16/// /2414 11008 21049 39454 40033 58020 60001 333 11008 21116 70000
AAXX 20184 71185 17564 62512 11016 39903 49927 55004 69951 7//44 333 11014 21124 70005
AAXX 20184 71188 12674 22920 11076 21151 30026 40069 52021 60001 82100 333 11054 21081 70004
AAXX 20184 71200 16/// /3206 10078 20052 60001 333 10084 20060 70000
AAXX 20184 71207 17/// /3601 10032 30183 40248 53003 69951 7//4/ 333 10045 20016 70046
AAXX 20184 71260 13/// ///// 11006 21070 39938 40178 58033 60001 333 11004 21066 70000
AAXX 20184 71043 11783 60902 11201 21246 30006 40102 53011 69901 70277 83530 333 11187 21222 48024 70027 90923
AAXX 20184 71045 16/// /1001 11160 21176 39280 40168 52030 60001 333 11126 21189 70000
AAXX 20184 71050 46/// /2407 10007 21064 39115 40192 53012 6///1 333 10061 21072 7////
AAXX 20184 71051 NIL
AAXX 20184 71052 NIL
AAXX 20184 71066 12974 83605 11083 21126 39633 40053 53022 60001 85071 333 11003 21100 70000
AAXX 20184 71068 11774 70000 11005 21015 39351 40037 53011 69901 77111 87500 333 10049 21007 42002 79999 90921
AAXX 20184 71069 17564 32916 10021 20013 39334 40031 51016 60001 743// 333 10082 20007 70000
AAXX 20184 71076 16/// /0204 11104 21124 39622 40017 53033 60001 333 11050 21133 70000 555 10010
AAXX 20184 71077 16/// /3309 11029 21066 39477 40014 53031 60001 333 10002 21038 70000
AAXX 20184 71079 NIL
AAXX 20184 71081 46048 03313 11291 21334 39894 49906 51001 6///1 333 11232 21301 7////
AAXX 20184 71082 NIL
AAXX 20184 71083 11958 03515 11330 21376 39912 49956 50008 69901 77677 333 11227 21335 48054 70024 90983
AAXX 20184 71090 46064 /1510 11212 21258 39923 49958 52010 6///1 333 11198 21290 7////
AAXX 20184 71091 460// /1109 11244 39717 49930 53011 6///1 333 7////
AAXX 20184 71092 46220 81215 11230 39265 49941 53007 6///1 333 11230 21258 7////
AAXX 20184 71093 460// /1114 11210 39448 49952 55000 6///1 333 11201 21236 7////
AAXX 20184 71094 46008 /2022 11192 39015 49920 58001 6///1 333 11189 21213 7////
AAXX 20184 71095 47420 91902 11186 21216 39865 49945 53001 6///1 745// 333 11167 21222 7////
AAXX 20184 71101 160// /2710 30249 53026 60001 333 70160
AAXX 20184 71104 12974 11003 11029 21058 39065 40186 52002 60001 81070 333 10008 21054 70000
AAXX 20184 71108 11366 82207 10054 20042 30189 40262 51009 60011 78062 885// 333 10055 20046 70019 90917
AAXX 20184 71109 11574 82703 10061 20034 30252 40279 53008 69981 70282 84570 333 10067 20051 70208 90930
AAXX 20184 71726 16/// /2404 11124 21167 39639 40200 57023 60001 333 11123 21164 70011 555 10030
AAXX 20184 71727 11574 73207 11120 21153 30000 40204 57009 69901 78511 87500 333 11089 21133 48029 70060 90942
AAXX 20184 71728 12582 52405 11119 21185 39969 40198 57021 60001 81501 333 11098 21148 79999
AAXX 20184 71730 12474 42014 11065 21104 39763 40200 56034 60001 82501 333 11065 21123 70002
AAXX 20184 71731 11974 22308 11071 21118 39741 40206 56031 69901 70271 80001 333 11066 21106 45997 79999 90961
AAXX 20184 71735 NIL
AAXX 20184 71738 11574 82415 11026 21063 39778 40139 58036 60001 73622 885// 333 11017 21148 79999
AAXX 20184 71739 41474 62212 11052 21085 39761 40131 58045 6//// 73672 86570 333 11051 21124 4//// 7//// 90963
AAXX 20184 71749 16964 02509 11023 21080 39850 40099 56042 60001 333 11023 21107 70000
AAXX 20184 71799 12374 72503 10067 20059 30243 40267 52010 60001 86570 333 10073 20044 70000
AAXX 20184 71800 16/// /1713 10003 20003 39915 49948 56052 60001 333 10008 21048 70000
AAXX 20184 71801 11332 81808 11026 21052 39786 49958 57033 69901 78522 887// 333 11019 21032 47007 79999 90910
AAXX 20184 71803 11/16 91510 11055 21070 39756 49943 56035 60021 77122 333 11049 21107 46002 70016 90952 93102
AAXX 20184 71807 NIL
AAXX 20184 71808 11574 80914 11046 21071 39892 49938 56018 69901 77172 885// 333 11041 21128 70010 90927
AAXX 20184 71809 11466 42306 11039 21054 39916 49943 57011 60021 77177 84500 333 11037 21160 46004 70064 90973 93102
AAXX 20184 71810 16/// /2912 11080 21144 39984 40051 53019 60001 333 11046 21085 70000
AAXX 20184 71811 NIL
AAXX 20184 71813 47/// /3017 11076 21112 39967 53018 6///1 7//4/ 333 7////
AAXX 20184 71814 17/// /2612 11047 21059 39917 49927 55000 60011 7//4/ 333 11019 21069 70093
AAXX 20184 71815 11469 82810 11026 21054 39932 49963 53004 60041 78588 885// 333 11014 21103 48007 70070 90973 93104
AAXX 20184 71864 NIL
AAXX 20184 71865 16/// /2512 10025 21028 39325 49997 50003 60001 333 10027 21066 70000
AAXX 20184 71866 46964 02713 10050 21019 39410 40018 53011 6///1 333 10051 21061 7////
AAXX 20184 71867 12674 62707 11008 21030 39618 49948 53001 60001 81571 333 11002 21092 70000
AAXX 20184 71868 16/// /2608 10016 21027 39525 49959 56006 60001 333 10016 21071 70000
AAXX 20184 71869 12574 72705 10026 21016 39468 49986 51018 60001 87500 333 10026 21079 70000
AAXX 20184 71871 15966 02818 10044 21036 39226 40021 51009 60001 333 10048 21039 70000
AAXX 20184 71877 12986 42613 10066 21056 38835 40088 53011 60001 82071 333 10092 20053 70000
AAXX 20184 71878 12674 71905 11038 21065 39014 40087 50006 60001 82571 333 10052 21070 70000
AAXX 20184 71879 16864 82810 10044 21036 39258 40055 51011 60001 333 10058 21040 70000
AAXX 20184 71880 12582 71810 10005 21041 39072 40185 56007 60001 86570 333 10011 21027 70000
AAXX 20184 71882 160// /1709 10009 21020 39669 40213 53004 60001 333 10013 21007 70000
AAXX 20184 71883 46/// /0000 11010 21016 39356 40184 58005 6///1 333 11005 21046 7////
AAXX 20184 71887 12986 30000 11010 21027 39782 40210 50000 60001 80001 333 10015 21043 70000
AAXX 20184 71889 12874 61817 10006 21026 39813 40238 55002 60001 84571 333 10007 21016 70000
AAXX 20184 71891 16964 02018 10082 20009 39925 40199 51011 60001 333 10082 20005 70000
AAXX 20184 71892 11262 80000 10066 20053 30256 40261 53007 69901 72052 886// 333 10067 20056 70012 90910
AAXX 20184 71726 16/// /2404 11124 21167 39639 40200 57023 60001 333 11123 21164 70011 555 10030
AAXX 20184 71727 11574 73207 11120 21153 30000 40204 57009 69901 78511 87500 333 11089 21133 48029 70060 90942
AAXX 20184 71728 12582 52405 11119 21185 39969 40198 57021 60001 81501 333 11098 21148 79999
AAXX 20184 71730 12474 42014 11065 21104 39763 40200 56034 60001 82501 333 11065 21123 70002
AAXX 20184 71731 11974 22308 11071 21118 39741 40206 56031 69901 70271 80001 333 11066 21106 45997 79999 90961
AAXX 20184 71735 NIL
AAXX 20184 71738 11574 82415 11026 21063 39778 40139 58036 60001 73622 885// 333 11017 21148 79999
AAXX 20184 71739 41474 62212 11052 21085 39761 40131 58045 6//// 73672 86570 333 11051 21124 4//// 7//// 90963
AAXX 20184 71749 16964 02509 11023 21080 39850 40099 56042 60001 333 11023 21107 70000
AAXX 20184 71799 12374 72503 10067 20059 30243 40267 52010 60001 86570 333 10073 20044 70000
AAXX 20184 71800 16/// /1713 10003 20003 39915 49948 56052 60001 333 10008 21048 70000
AAXX 20184 71801 11332 81808 11026 21052 39786 49958 57033 69901 78522 887// 333 11019 21032 47007 79999 90910
AAXX 20184 71803 11/16 91510 11055 21070 39756 49943 56035 60021 77122 333 11049 21107 46002 70016 90952 93102
AAXX 20184 71807 NIL
AAXX 20184 71808 11574 80914 11046 21071 39892 49938 56018 69901 77172 885// 333 11041 21128 70010 90927
AAXX 20184 71809 11466 42306 11039 21054 39916 49943 57011 60021 77177 84500 333 11037 21160 46004 70064 90973 93102
AAXX 20184 71810 16/// /2912 11080 21144 39984 40051 53019 60001 333 11046 21085 70000
AAXX 20184 71811 NIL
AAXX 20184 71813 47/// /3017 11076 21112 39967 53018 6///1 7//4/ 333 7////
AAXX 20184 71814 17/// /2612 11047 21059 39917 49927 55000 60011 7//4/ 333 11019 21069 70093
AAXX 20184 71815 11469 82810 11026 21054 39932 49963 53004 60041 78588 885// 333 11014 21103 48007 70070 90973 93104
AAXX 20184 71603 12574 53220 11020 21097 30100 40153 53024 60001 85500 333 10069 21021 70004
AAXX 20184 71607 16/// /2910 11044 21164 30134 40167 51019 60001 333 10012 21048 70000
AAXX 20184 71609 12774 13219 11058 21162 30012 40148 53030 60001 81500 333 11034 21060 70051
AAXX 20184 71610 15566 62710 11067 21134 39915 40218 58013 60001 333 11018 21099 70018
AAXX 20184 71621 12574 31102 11016 21079 30119 40227 56027 60001 81501 333 10002 21070 79999
AAXX 20184 71623 NIL
AAXX 20184 71624 12574 61305 11020 21075 30002 40218 57028 60001 82801 333 11002 21056 79999
AAXX 20184 71625 47964 01604 30054 58038 6///1 745// 333 7////
AAXX 20184 71627 12674 22709 11047 21137 30186 40232 58020 60001 82101 333 11016 21082 79999
AAXX 20184 71628 13760 12604 11058 21137 30091 40236 56025 60001 81500 333 11026 21107 70008
AAXX 20184 71630 NIL
AAXX 20184 71631 16/// /1704 11016 21068 39689 40197 58033 60001 333 11013 21063 70000
AAXX 20184 71633 12974 31603 11019 21078 39926 40203 56037 60001 80001 333 11011 21044 70002
AAXX 20184 71705 12574 22820 11060 21128 30028 40117 53021 60001 82800 333 10004 21066 70024
AAXX 20184 71706 11574 43118 11041 21105 30027 40088 53018 69921 78581 84800 333 10008 21049 43002 70042 90936
AAXX 20184 71707 11674 52914 11020 21087 39948 40025 53015 69901 70182 85500 333 10008 21092 44004 70036 90920
AAXX 20184 71709 11559 73125 11045 21083 30028 40041 53019 60021 78582 87500 333 10007 21054 46006 70072 90962 93102
AAXX 20184 71711 NIL
AAXX 20184 71714 16/// /2605 11088 21178 30135 40230 58020 60001 333 11046 21126 70009
AAXX 20184 71715 16/// /3105 11095 21179 30001 40187 51002 60001 333 11051 21108 70000
AAXX 20184 71718 11583 72815 11091 21155 30103 40170 51006 69901 70282 87500 333 11031 21097 42002 70004 90920
AAXX 20184 71719 16/// /2918 11059 21135 30077 40083 53022 60001 333 11025 21062 70000
AAXX 20184 71816 11320 80404 11088 21111 39940 40002 53007 60021 78577 885// 333 11084 21151 47049 70032 90983 93103
AAXX 20184 71817 11432 80508 11044 21073 39945 49958 57020 60011 77122 886// 333 42011 70012 90952
AAXX 20184 71818 11674 83404 11080 21090 39975 49993 56005 69941 70272 885// 333 11070 21140 43019 70008 90943
AAXX 20184 71822 12574 72008 11147 21167 39677 40169 58033 60001 82507 333 11145 21196 70014
AAXX 20184 71825 11574 23016 11174 21228 39405 40102 53013 69901 70277 82500 333 11160 21216 47084 70032 90963
AAXX 20184 71827 11462 81818 11135 21156 39760 40010 56061 69901 77177 885// 333 11134 21174 47018 70004 90983
AAXX 20184 71828 17462 33110 11194 21240 39426 40092 50012 69951 7//44 333 11190 21248 70005
AAXX 20184 71831 11574 82015 11032 21055 39804 40092 58050 60001 73611 885// 333 11032 21138 79999
AAXX 20184 71832 NIL
AAXX 20184 71834 11/08 92215 11040 21057 39620 40053 58035 69941 77131 333 11040 21175 48023 70004 90910 93101
AAXX 20184 71841 NIL
AAXX 20184 71842 12774 82012 11039 21074 39552 40025 58026 60001 8552/ 333 11038 21093 79999
AAXX 20184 71844 16464 82710 11025 21045 39645 49920 58005 60001 333 11025 21161 70010
AAXX 20184 71845 11474 82208 11046 21063 39512 49988 57014 69961 77172 885// 333 11045 21107 44016 70006 90952
AAXX 20184 71850 11874 82114 11036 21081 39526 40027 58023 60001 73622 88070 333 11036 21065 48007 79999
AAXX 20184 71852 16764 32012 11008 21046 39715 40009 58015 60001 333 11007 21082 70000
AAXX 20184 71854 11366 82209 11035 21059 39523 49996 58018 60031 77177 8677/ 333 11035 21099 48012 70034 90973
AAXX 20184 71858 NIL
AAXX 20184 71861 NIL
AAXX 20184 71862 12974 82509 10027 21040 39346 40044 58008 60001 81071 333 10027 21055 70000
AAXX 20184 71863 46864 82813 10016 21019 39340 40034 51004 6///1 333 10017 21071 7////
AAXX 20184 71930 11674 72917 10039 21058 39130 40054 53003 60003 714// 87170 333 10041 21024 47017 79999
AAXX 20184 71931 NIL
AAXX 20184 71934 11774 72904 11152 21170 39789 40049 53026 69901 77172 83530 333 11047 21152 47021 79999 90977
AAXX 20184 71935 12574 73109 11112 21134 39858 40069 52025 60001 87500 333 11098 21176 70000
AAXX 20184 71936 11574 23110 11182 21212 39782 40048 53022 69941 72271 81571 333 11153 21189 48021 70016 90983 93101
AAXX 20184 71937 NIL
AAXX 20184 71938 11574 70605 11252 21291 30077 40108 53022 69901 70177 87630 333 11248 21270 70002 90923
AAXX 20184 71940 11882 72520 10030 21023 39249 40045 53002 60001 71422 87070 333 10055 21019 70000
AAXX 20184 71943 12774 72608 10019 21050 39211 40037 53014 60001 86570 333 10039 20008 70000
AAXX 20184 71944 160// ///// 10027 53014 60051 333 10044 21014 70055
AAXX 20184 71945 11880 82003 11054 21088 39601 40076 53031 69901 70272 88071 333 11033 21123 43011 79999 90941
AAXX 20184 71946 12674 73106 11112 21148 39876 40095 52030 60001 87500 333 11106 21180 70000
AAXX 20184 71948 46064 /0907 11270 39978 40096 53021 6///1 333 11255 21271 7////
AAXX 20184 71949 46/// /1104 11209 21233 39244 40147 53022 6///1 333 11163 21236 7////
AAXX 20184 71951 11369 61814 10019 20009 39947 40216 53032 60011 70288 86570 333 10040 20008 43028 70143 90933
AAXX 20184 71957 46664 80000 11251 21319 30011 40103 51016 6///1 333 11250 21299 7////
AAXX 20184 71964 12886 80000 11121 21145 39265 40144 53025 60001 81031 333 11116 21183 70000
AAXX 20184 71966 16/// /0000 11175 21195 39645 40121 53014 60001 333 11175 21237 70000
AAXX 20184 71968 460// /2505 11276 30029 40096 51010 6///1 333 11237 21293 7////
AAXX 20184 71893 12480 62902 10056 20037 30241 40273 53006 60001 82570 333 10071 20046 70002
AAXX 20184 71894 NIL
AAXX 20184 71896 15666 62311 10028 21042 39311 40142 53018 60001 333 10033 21013 70000
AAXX 20184 71897 12269 72715 10074 20037 3//// 4//// 52017 60001 85870 333 10078 20069 70012
AAXX 20184 71898 160// ///// 10055 51025 60011 333 10076 20041 70185
AAXX 20184 71899 11474 83022 10058 20034 3//// 4//// 52024 69981 70181 82277 333 10071 20045 70052 90936
AAXX 20184 71902 12974 20000 11130 21182 30038 40047 56003 60001 80001 333 11120 21201 70000
AAXX 20184 71905 NIL
AAXX 20184 71906 11574 52206 11195 21251 30012 40064 58007 69901 77171 85501 333 11187 21254 48015 79999 90937
AAXX 20184 71907 17002 91930 11095 21114 39852 49885 56064 60021 74544 333 11094 21169 70020
AAXX 20184 71909 16964 03502 11180 21208 39913 49957 50002 60001 333 11111 21185 70000
AAXX 20184 71910 47011 93602 11200 21228 39859 49923 58014 6///1 745// 333 11189 21230 7////
AAXX 20184 71911 46464 61008 11401 39933 49993 51012 6///1 333 11323 21402 7////
AAXX 20184 71912 11332 83508 11043 21054 39714 49894 52011 60021 77177 886// 333 11021 21164 47016 70046 90937 93102
AAXX 20184 71915 11574 13312 11356 21399 39825 49910 56011 69901 77677 81500 333 11350 21380 48043 79999 90983
AAXX 20184 71917 11666 80000 11358 21399 30018 40033 57010 69901 77677 885// 333 11356 21412 43013 79999 90983
AAXX 20184 71922 12474 23011 11003 21030 39512 49973 52018 60001 81170 333 11003 21064 70000
AAXX 20184 71924 12974 13503 11282 21311 39940 40032 50005 60001 81030 333 11231 21302 48038 79999
AAXX 20184 71925 11674 73209 11309 21355 30011 40054 52009 69901 77677 87500 333 11306 21363 42021 79999 90983
AAXX 20184 71926 11540 13123 11331 21386 39976 40002 53003 60001 73800 81500 333 11304 21339 79999
AAXX 20184 71928 16/// /2706 11010 21070 38921 40074 50005 60001 333 10077 21102 70003 555 10010
AAXX 20184 71114 160// /2610 10062 20046 30197 40245 50010 60011 333 10062 20037 70050
AAXX 20184 71120 NIL
AAXX 20184 71122 16/// /2308 11015 21056 38520 40129 58001 60001 333 21067 7////
AAXX 20184 71123 11874 72810 10040 21032 39203 40062 51007 60001 71411 87070 333 10055 21033 79999
AAXX 20184 71125 11774 73410 10012 20000 39425 40006 53021 69921 72581 86270 333 70002 90916
AAXX 20184 71129 12874 72808 10030 21027 39229 40055 50008 60001 85071 333 10033 21073 70000
AAXX 20184 71131 16/// /3221 10016 21025 38813 40068 50000 60001 333 10016 21071 70000
AAXX 20184 71135 16/// /2812 10002 21050 38975 40057 51004 60001 333 10002 21071 70000
AAXX 20184 71137 16/// /3115 10004 21029 39120 40067 51002 60001 333 10007 21104 70000
AAXX 20184 71140 12974 82513 11014 21038 39520 40021 5/018 60001 86071 333 11014 21127 70000
AAXX 20184 71145 12974 62405 11025 21042 39643 49933 57011 60001 84031 333 11017 21132 70010
AAXX 20184 71148 16/// /2414 11008 21049 39454 40033 58020 60001 333 11008 21116 70000
AAXX 20184 71185 17564 62512 11016 39903 49927 55004 69951 7//44 333 11014 21124 70005
AAXX 20184 71188 12674 22920 11076 21151 30026 40069 52021 60001 82100 333 11054 21081 70004
AAXX 20184 71200 16/// /3206 10078 20052 60001 333 10084 20060 70000
AAXX 20184 71207 17/// /3601 10032 30183 40248 53003 69951 7//4/ 333 10045 20016 70046
AAXX 20184 71260 13/// ///// 11006 21070 39938 40178 58033 60001 333 11004 21066 70000
AAXX 20184 71043 11783 60902 11201 21246 30006 40102 53011 69901 70277 83530 333 11187 21222 48024 70027 90923
AAXX 20184 71045 16/// /1001 11160 21176 39280 40168 52030 60001 333 11126 21189 70000
AAXX 20184 71050 46/// /2407 10007 21064 39115 40192 53012 6///1 333 10061 21072 7////
AAXX 20184 71051 NIL
AAXX 20184 71052 NIL
AAXX 20184 71066 12974 83605 11083 21126 39633 40053 53022 60001 85071 333 11003 21100 70000
AAXX 20184 71068 11774 70000 11005 21015 39351 40037 53011 69901 77111 87500 333 10049 21007 42002 79999 90921
AAXX 20184 71069 17564 32916 10021 20013 39334 40031 51016 60001 743// 333 10082 20007 70000
AAXX 20184 71076 16/// /0204 11104 21124 39622 40017 53033 60001 333 11050 21133 70000 555 10010
AAXX 20184 71077 16/// /3309 11029 21066 39477 40014 53031 60001 333 10002 21038 70000
AAXX 20184 71079 NIL
AAXX 20184 71081 46048 03313 11291 21334 39894 49906 51001 6///1 333 11232 21301 7////
AAXX 20184 71082 NIL
AAXX 20184 71083 11958 03515 11330 21376 39912 49956 50008 69901 77677 333 11227 21335 48054 70024 90983
AAXX 20184 71090 46064 /1510 11212 21258 39923 49958 52010 6///1 333 11198 21290 7////
AAXX 20184 71091 460// /1109 11244 39717 49930 53011 6///1 333 7////
AAXX 20184 71092 46220 81215 11230 39265 49941 53007 6///1 333 11230 21258 7////
AAXX 20184 71093 460// /1114 11210 39448 49952 55000 6///1 333 11201 21236 7////
AAXX 20184 71094 46008 /2022 11192 39015 49920 58001 6///1 333 11189 21213 7////
AAXX 20184 71095 47420 91902 11186 21216 39865 49945 53001 6///1 745// 333 11167 21222 7////
AAXX 20184 71101 160// /2710 30249 53026 60001 333 70160
AAXX 20184 71104 12974 11003 11029 21058 39065 40186 52002 60001 81070 333 10008 21054 70000
AAXX 20184 71108 11366 82207 10054 20042 30189 40262 51009 60011 78062 885// 333 10055 20046 70019 90917
AAXX 20184 71109 11574 82703 10061 20034 30252 40279 53008 69981 70282 84570 333 10067 20051 70208 90930
BBXX 46035 20181 99571 71778 46/// /2908 1//// 49907 51013 91750 22200 11006 20603 300// 41005 70029 333 91210 555 11084 22089 31712 43211 61749 295084 306085 307092 310087 306082 303087 83210 91729
BBXX 9V8739 20184 99354 71797 41/96 82840 10190 20159 40090 54000 78122 889// 22264 00200 2//// 329// 41207 5//// 6//// 80170 ICE /////
BBXX DGHX 20183 99330 71636 41/97 /1220 10160 20108 40130 58024 75855 8//// 22264 00190 2//// 80130
BBXX KEY796 20183 99571 71703 41/97 42309 11017 21033 49895 52/// 702// 8//// 222// 00017 2//// 3//// 4//// 5//// 6//// 8//// ICE /////
BBXX NWS0003 20184 99539 71665 43/// /3500 10019 21054 49957 5//// 7//// 8//// 222// 0//// 2//// 3//// 4//// 5//// 6//// 8//// ICE /////
BBXX VRCI9 20184 99400 71775 41/98 /1030 10100 20081 49950 57040 76362 8//// 22225 00127 2//// 3//// 4//// 80090
BBXX WCX8884 20184 99514 71514 41091 61737 10060 20040 40190 55015 70211 86/// 22275 00051 20506 3//// 40506 5//// 6//// 80050 ICE /////
BBXX WSLH 20184 99303 71500 41398 60909 10190 20160 40252 52022 71561 867// 22215 00190 21001 313// 41507 5//// 6//// 80170 ICE /////
AAXX 20184 71550 NIL
AAXX 20184 71551 NIL
AAXX 20184 71552 46/// /2221 11011 21042 6///1 333 11011 21069 7////
AAXX 20184 71553 16/// /2115 11009 21035 60001 333 11008 21108 70000
AAXX 20184 71554 16/// /2814 11085 21153 30172 40178 52006 60001 333 11020 21090 70000
AAXX 20184 71555 16/// /2506 10034 21066 38552 40103 53016 60001 333 10056 20002 70000
AAXX 20184 71556 16/// /2713 10032 21014 39412 40011 50000 60001 333 10034 21100 70000
AAXX 20184 71557 46/// /2106 10063 21016 6///1 333 10069 21024 7////
AAXX 20184 71558 NIL
AAXX 20184 71559 46/// /2511 10027 21042 39343 40041 58009 6///1 333 10027 21055 7////
AAXX 20184 71560 16/// /2207 10012 21054 39729 40030 56023 60001 333 10012 21089 70000
AAXX 20184 71563 NIL
AAXX 20184 71564 NIL
AAXX 20184 71565 NIL
AAXX 20184 71566 NIL
AAXX 20184 71567 NIL
AAXX 20184 71568 17/// /3014 10070 20037 30256 40268 53003 69921 7//4/ 333 10075 20048 70114
AAXX 20184 71569 16/// /2813 10021 21024 39328 40024 53008 60001 333 10021 21062 70000
AAXX 20184 71570 17/// /2210 11009 21063 39692 40003 58026 69931 7//4/ 333 10003 21068 70003
AAXX 20184 71571 NIL
AAXX 20184 71572 NIL
AAXX 20184 71573 16/// /0903 11006 21049 39913 40199 58027 60001 333 10012 21034 70000
AAXX 20184 71574 11574 22915 11077 21177 30048 40122 53021 69901 70281 82500 333 11021 21078 43019 79999 90950
AAXX 20184 71575 NIL
AAXX 20184 71576 17/// /1401 11186 21208 39860 49945 55000 69971 7//4/ 333 11169 21221 70007
AAXX 20184 71577 NIL
AAXX 20184 71578 16/// /2507 11086 21177 60001 333 11041 21108 70018
AAXX 20184 71579 16/// /2209 11008 21057 39723 40006 58017 60001 333 11008 21074 70000
AAXX 20184 71580 11574 21803 11352 21417 39953 49991 51009 60001 70300 82500 333 11314 21357 41030 70004
AAXX 20184 71581 NIL
AAXX 20184 71582 15966 62902 10066 20041 30219 40272 53019 60001 333 10073 20063 70393
AAXX 20184 71583 NIL
AAXX 20184 71584 15966 03013 11082 21137 39988 40035 53023 60001 333 11041 21108 70000
AAXX 20184 71585 NIL
AAXX 20184 71586 16/// /3008 11006 21032 39509 49969 51020 60001 333 11006 21064 70000
AAXX 20184 71587 NIL
AAXX 20184 71588 16/// /2608 11029 21046 60001 333 11028 21121 70000
AAXX 20184 71589 16/// /1402 11047 21054 39808 49940 56036 60001 333 11040 21072 70000
AAXX 20184 71590 16/// /3110 11094 21171 39973 40169 51015 60001 333 11042 21106 70005 555 10010
AAXX 20184 71592 NIL
AAXX 20184 71593 NIL
AAXX 20184 71596 NIL
AAXX 20184 71598 16/64 /2918 11063 21135 30090 40096 53018 60001 333 11016 21063 70000
AAXX 20184 71599 17/// /3103 11034 21044 39930 40134 53017 69961 7//4/ 333 10020 21034 70032
AAXX 20184 60715 11560 62108 10104 20075 30196 40203 58006 69952 70262 83280 333 10150 58006 83823 85358 91011 91127
AAXX 20184 60723 11560 22206 10103 20080 30028 40220 57007 60142 70162 82202 333 10120 82823
AAXX 20184 60725 11558 72310 10095 2//// 30046 40227 56008 60072 70282 878// 333 10116 84820 84630
AAXX 20184 60735 12565 22702 10126 20041 30141 40223 56004 60002 81280 333 10138 81823
AAXX 20184 60745 12560 22309 10091 21028 39864 40242 55000 60002 82200 333 10136 82830
AAXX 20184 60748 12560 41602 10076 20025 39807 40235 52001 60002 84802 333 10135 83823
AAXX 20184 60750 12560 32704 10111 20008 30204 40230 53004 60002 83800 333 10162 82820
AAXX 20184 60760 12560 22508 10093 21050 30145 40252 55000 60002 82200 333 10143 82830 91010 91118
AAXX 20184 60765 12558 62708 10112 21004 30235 40239 58010 60002 84502 333 10154 84630 92436 925//
AAXX 20184 60767 12560 42210 10102 21053 30098 40245 53007 60002 82502 333 10145 82630 83070
AAXX 20184 60769 12562 42717 10144 20006 30226 40230 53003 60002 82802 333 10157 82820 83070
AAXX 20181 02019 05/99 /0300 11033 21040 39380 40005 52008 69912 333 11021 21045 60005 90710 91101
AAXX 20181 02081 07/62 /0902 11057 21061 39600 40008 52009 69962 77177 333 11026 21057 69905 90710 91103
AAXX 20181 02095 07126 /2102 11057 21062 39817 40023 52011 69912 71071 333 11045 21057 60005 88/02 90710 91104
AAXX 20181 02101 45382 /0000 11101 21113 39459 40030 50003 8//// 333 11086 21118 83/07 87/50 88/56
AAXX 20181 02119 07571 /1600 11049 21051 39623 40012 52010 69902 77187 333 11048 21083 69905 88/22 90710 91101
AAXX 20181 02124 07561 /2101 11094 21101 39490 40027 52010 69922 77177 333 11082 21111 69905 88/21 90710 91102
AAXX 20181 02126 05599 /3302 11084 21094 39684 40029 52006 60002 333 11045 21087 60005 88/32 90710 91103
AAXX 20181 02151 37102 81501 11135 21141 39681 40027 51012 6///2 77785 333 11067 21142 60005 81/03 88/56 91001 90710 91102 90710 91202
AAXX 20181 02186 35680 80101 11032 21038 30002 40027 51014 60002 333 11021 21033 60005 88/39 91002 90710 91102 90710 91201
AAXX 20181 02197 07/04 /2601 11009 21009 30006 40025 52014 69902 77187 333 11001 21011 69905 90710 91101
AAXX 20181 02207 05499 /1502 11034 21042 39311 40014 50003 69932 333 11015 21054 60005 85/10 87/68 90710 91104
AAXX 20181 02219 07/27 /0901 11047 21049 39338 40011 52004 60032 77174 333 11044 21053 69915 90710 91103
AAXX 20181 02226 47/28 /2601 11017 21017 39556 40013 50006 771// 8//// 333 11013 21045 89/22
AAXX 20181 02243 07/57 /0300 11143 21151 39752 40030 52009 60002 71010 333 11062 21146 60005 90710 91102
AAXX 20181 02269 05681 /3201 11007 21008 69902 333 11001 21008 60005 87/36 88/49 90710 91102
AAXX 20181 02287 07257 /0202 10011 20005 30012 40022 52009 69932 78586 333 10015 20008 69925 88/04 90710 91103
AAXX 20181 02297 07169 /3104 11005 21006 39979 40025 52012 69942 70070 333 10006 21005 60005 81/03 85/06 87/16 90710 91105
AAXX 20181 02308 05999 /1201 11086 21095 39157 40034 50003 69902 333 11030 21089 60005 81/66 90710 91102
AAXX 20181 02327 07/82 /3101 11054 21058 39592 40034 52007 60012 70073 333 11006 21054 60005 90710 91102
AAXX 20181 02355 07541 /2304 10000 21004 30018 40030 51007 69922 77174 333 10001 21019 69915 81/26 88/40 90710 91106
AAXX 20181 02366 47227 /3303 11058 21067 30022 40028 51006 771// 8//// 333 11030 21064 85/06 88/09
AAXX 20181 02407 05761 /3201 11110 21119 39679 40059 52009 60002 333 11017 21110 60005 87/50 90710 91102
AAXX 20181 02418 47/01 /0302 11010 21012 39923 40057 51006 734// 8//// 333 10010 21032 89/01
AAXX 20181 02435 45264 /2501 11024 21041 39866 40056 51009 8//// 333 10009 21042 88/05
AAXX 20181 02440 07/79 /3201 11061 21067 69902 70070 333 11006 21062 60005 90710 91102
AAXX 20181 02452 07122 /1801 11006 21006 69902 72031 333 10005 21008 60005 87/02 90710 91103
AAXX 20181 02456 05380 /2203 10004 21004 30019 40061 51008 69922 333 10007 21015 60005 88/08 90710 91107
AAXX 20181 02469 07/56 /2003 10005 21005 60022 72487 333 10010 21005 69905 90710 91105
AAXX 20181 02498 05581 /2309 10027 20003 30060 40077 50008 60002 333 10035 20015 60005 87/32 90710 91113
AAXX 20181 02518 463// /2006 10029 20021 333 10046 20026 84/09 90710 91109
AAXX 20181 02520 17361 81401 10003 21006 39993 40061 51007 69912 70071 333 10009 21025 60005 82/08 88/32 91002 90710 91102 90710 91202
AAXX 20181 02550 47260 /1704 11003 21003 39791 40070 51009 771// 8//// 333 10006 21003 81/06 83/14 87/17
AAXX 20181 02562 07558 81803 10002 21002 39955 40072 52005 69932 77180 333 10011 20002 69905 88/29 91004 90710 91105 90710 91203
AAXX 20181 02563 07681 /2106 10021 21002 30058 40080 52007 69902 72387 333 10030 20016 69905 89/34 90710 91109
AAXX 20181 02565 07459 /1402 10004 21018 39965 40086 52008 69902 78580 333 10024 20004 69905 82/18 84/23 85/30 87/// 90710 91104
AAXX 20181 02589 05599 /2307 10036 21008 30070 40092 52007 60002 333 10041 20030 60005 87/30 90710 91113
AAXX 20181 02590 45580 /1503 10001 21020 30036 40099 52004 8//// 333 10034 20000 84/31 87/44
AAXX 20181 02618 07/22 /1602 11001 21001 39905 40071 52007 60072 74176 333 10002 21001 69925 90710 91104
AAXX 20181 02664 35583 81904 10022 21027 30017 40089 51004 60002 333 10039 20017 60005 82/29 88/35 91006 90710 91107 90710 91205
AAXX 20181 02679 05582 /2007 10031 20003 30058 40103 52003 60002 333 10043 20026 60005 82/20 84/48 90710 91111
AAXX 20184 60715 11560 62108 10104 20075 30196 40203 58006 69952 70262 83280 333 10150 58006 83823 85358 91011 91127
AAXX 20184 60723 11560 22206 10103 20080 30028 40220 57007 60142 70162 82202 333 10120 82823
AAXX 20184 60725 11558 72310 10095 2//// 30046 40227 56008 60072 70282 878// 333 10116 84820 84630
AAXX 20184 60735 12565 22702 10126 20041 30141 40223 56004 60002 81280 333 10138 81823
AAXX 20184 60745 12560 22309 10091 21028 39864 40242 55000 60002 82200 333 10136 82830
AAXX 20184 60748 12560 41602 10076 20025 39807 40235 52001 60002 84802 333 10135 83823
AAXX 20184 60750 12560 32704 10111 20008 30204 40230 53004 60002 83800 333 10162 82820
AAXX 20184 60760 12560 22508 10093 21050 30145 40252 55000 60002 82200 333 10143 82830 91010 91118
AAXX 20184 60765 12558 62708 10112 21004 30235 40239 58010 60002 84502 333 10154 84630 92436 925//
AAXX 20184 60767 12560 42210 10102 21053 30098 40245 53007 60002 82502 333 10145 82630 83070
AAXX 20184 60769 12562 42717 10144 20006 30226 40230 53003 60002 82802 333 10157 82820 83070
AAXX 20181 01180 11675 80000 10001 21031 39940 49998 52007 60002 70222 885// 333 10001 91102
AAXX 20181 01199 11570 81501 11048 21054 39539 40011 52009 60012 77172 887// 333 11018 91102
AAXX 20181 01262 46/// /2704 10051 20004 333 10058 91112
AAXX 20181 01393 16/// /0000 11213 21236 39225 40094 52002 6//// 333 11084 91102
AAXX 20181 01450 16/// /2802 11122 21137 38882 40075 52001 60002 333 11089 91102
AAXX 20181 01440 46/// /0000 11095 21104 38741 40062 52006 333 11090 91103
AAXX 20181 01441 16/// /0000 11146 21164 39044 40085 52003 60002 333 11146 91101
AAXX 20181 01144 41886 71306 10016 21025 70222 83046 333 10021 91108
AAXX 20181 01293 11665 61801 11054 21060 39813 40026 52003 69922 70222 84501 333 10011 91104
AAXX 20181 01277 16/// /1602 10015 21004 69982 333 10023 91106
AAXX 20181 01476 16/// /3401 11016 21045 30046 40053 51006 6//// 333 10004 91103
AAXX 20181 01488 16/// /2801 11108 21118 60002 333 11049 4/011 91102
BBXX VEP717 20184 99467 70487 41598 82820 10015 2002/ 49988 52025 70222 885// 22200 06026 20505 336// 40706 80014
AAXX 20184 78951 12578 51014 10297 20216 30125 40140 60001 84832 333 10298 20242 58002 83822
AAXX 20184 68040 42960 00903 10277 20147 48506 52020 333 10344
AAXX 20184 68325 42660 40512 10264 20129 48493 53012 81470 333 10338
AAXX 20181 33088 11595 80203 11002 21005 39899 40093 57004 60042 77377 8872/ 333 10001
AAXX 20181 34523 32497 81206 10032 20017 30070 40147 57022 886// 333 10036 88713
AAXX 20181 33135 11396 80403 11003 21009 39883 40065 57024 60052 78582 883// 333 10012 88709
AAXX 20184 78615 32482 30000 10272 20207 39994 40135 58016 83200 333 10278 20154 30/// 56200 57824 59048 83818
AAXX 20184 78627 31582 10000 10240 20079 38152 58013 70340 81200 333 10254 20044 30/// 54306 56200 57885 59019 81825
AAXX 20184 78637 32582 23608 10260 20227 30116 40132 58018 82200 333 10262 20186 30/// 56200 57844 59044 82820
AAXX 20184 78641 32582 21808 10240 20134 38544 40123 58006 82200 333 10244 20112 30/// 56400 57875 59014 82820
AAXX 20184 78647 31459 21810 10314 20194 30130 40137 58003 70440 82100 333 10320 20198 30/// 56200 57888 58004 82818
AAXX 20184 61401 NIL
AAXX 20184 61404 31930 00823 10235 21029 39785 40181 7070/ 333 10248 58031
AAXX 20184 61415 32958 23111 10198 20159 30155 40160 82030 333 10257 58002 83363
AAXX 20184 61421 NIL
AAXX 20184 61437 32965 00404 10284 20146 30018 40156 333 10322
AAXX 20184 61442 32960 41106 10303 21076 30135 40138 80002 333 10310 58005 84073
AAXX 20184 61450 32960 51010 10260 21007 39695 40156 80002 333 10304 58020 85073
AAXX 20184 61461 32960 60804 10280 21005 30028 40115 80002 333 10290 59027 86073
AAXX 20184 61489 32960 50000 10310 21021 30119 40126 84072 333 10325 58005 84363 82073
AAXX 20184 61492 32960 50806 10316 21040 30102 40121 85070 333 10330 59003 85363
AAXX 20184 61497 35958 60408 10277 21049 39891 4//// 80002 333 10312 58018 86073
AAXX 20184 61498 33960 20404 10295 20047 39986 40119 82030 333 10316 59008 82363
AAXX 20184 61499 32960 30404 10270 21047 39870 40126 80001 333 10300 58001 83073
AAXX 20184 61510 NIL
AAXX 20184 78951 12578 51014 10297 20216 30125 40140 60001 84832 333 10298 20242 58002 83822
AAXX 20184 61766 32960 82005 10283 20146 30064 40106 84072 333 10326 58013 82360 86075
AAXX 20184 61769 31958 72203 10288 20184 3//// 4//// 70522 80001 333 10328 5//// 87075
AAXX 20184 60710 11558 72207 10104 20075 30125 40205 58010 60122 79598 879// 333 10138 84820 81926 84630
AAXX 20184 60714 11465 72717 1//// 2//// 30197 40203 57010 60022 72186 878// 333 1//// 85816 84630
AAXX 20184 60720 NIL
AAXX 20184 60728 NIL
AAXX 20184 60729 NIL
AAXX 20184 60731 02960 02309 10106 20056 30207 40214 56004 69942 333 10135 20074 58014 69947 91012 91124
AAXX 20184 60732 12560 62710 10077 20032 39610 40229 56010 69962 86900 333 10092 83920 81923 83626
AAXX 20184 60734 12558 62806 10070 20062 39695 40225 57002 60002 82882 333 10111 81823 83360
AAXX 20184 60738 12558 60000 10042 20021 38969 48526 58001 60002 86200 333 10061 86823
AAXX 20184 60739 12558 32408 10081 20019 39403 40236 54000 60002 83282 333 10108 83830 94249
AAXX 20184 60740 12465 32508 10116 20039 30215 40217 56001 60002 81882 333 10144 81816
AAXX 20184 60742 NIL
AAXX 20184 60764 12962 33006 10098 21060 30214 40266 53019 60002 80002 333 10156 83070
AAXX 20184 60770 12975 33306 10100 21002 30101 40243 53003 60002 80002 333 10152 83070
AAXX 20184 60772 NIL
AAXX 20184 60775 12975 53006 10101 21054 39897 40260 53005 60002 80002 333 10143 85070
AAXX 20184 60780 12960 53208 10104 21017 39957 40267 53004 60002 80002 333 10161 85070
AAXX 20184 13629 12666 31408 10012 21018 39035 42700 54000 60072 83500 333 10035 83640
AAXX 20181 02464 47339 /1803 10004 21002 30056 40075 51007 771// 8//// 333 1//// 2//// 85/07 87/10
AAXX 20181 02500 07568 /1501 10020 20012 30008 40051 52007 69952 70086 333 10033 20005 60005 85/24 88/40 90710 91104
AAXX 20181 02513 NIL
AAXX 20181 02615 05480 /1607 10026 21004 30068 40072 52008 60002 333 10030 20022 60005 85/17 87/33 87/46 90710 91109
AAXX 20181 02635 05/76 /1603 10018 21013 60002 333 10026 20010 60005 90710 91105
BBXX DBCK 20181 99/// ///// 46/// ///// 10051 20051 40038 52025 22220 00044
AAXX 20184 78615 32482 30000 10272 20207 39994 40135 58016 83200 333 10278 20154 30/// 56200 57824 59048 83818
AAXX 20184 78627 31582 10000 10240 20079 38152 58013 70340 81200 333 10254 20044 30/// 54306 56200 57885 59019 81825
AAXX 20184 78637 32582 23608 10260 20227 30116 40132 58018 82200 333 10262 20186 30/// 56200 57844 59044 82820
AAXX 20184 78641 32582 21808 10240 20134 38544 40123 58006 82200 333 10244 20112 30/// 56400 57875 59014 82820
AAXX 20184 78647 31459 21810 10314 20194 30130 40137 58003 70440 82100 333 10320 20198 30/// 56200 57888 58004 82818
BBXX 62087 20181 99547 10068 46/// /1802 10074 20047 4//// 5//// 22270 00089
AAXX 20181 33088 NIL
AAXX 20181 33177 11496 82901 11004 21013 39870 40112 57004 69992 77172 8772/ 333 10003
AAXX 20181 33261 11395 81102 10018 20015 39893 40077 57017 60152 78082 889// 333 10018 87708
AAXX 20181 33275 11395 81407 10027 20019 39873 40098 57015 60072 71062 886// 333 10027 88708
AAXX 20181 33301 11296 83403 11006 21010 39807 40094 57001 60042 77172 8772/ 333 11002 87704
AAXX 20181 33325 11296 80000 10002 21004 39799 40070 56003 60072 77177 8772/ 333 10004 87706
AAXX 20181 33377 11295 81403 10046 20041 39878 40071 57010 60102 76186 8772/ 333 10046 87706
AAXX 20181 33415 11295 83204 11004 21007 39694 40100 52002 60022 72474 886// 333 10006 88704 93401
AAXX 20181 33429 11295 83104 11006 21010 39657 40087 53002 60052 72272 886// 333 10004 88703
AAXX 20181 33466 11328 81802 10054 20049 39867 40053 57006 60052 75165 886// 333 10054 88707
AAXX 20181 33526 12560 83002 11009 21034 39765 40112 53003 69942 885// 333 10001 88626
AAXX 20181 33562 11/04 92903 10002 20002 39707 40073 53004 60042 74576 333 10007
AAXX 20181 33614 11457 81303 10057 20050 39971 40075 57007 60042 72162 886// 333 10060 88710
AAXX 20181 33761 11396 83003 10040 20035 39843 40066 53007 60092 71062 886// 333 10074 88707
AAXX 20181 33902 11595 81601 10086 20082 30010 40076 57001 69972 71082 883// 333 10086
AAXX 20181 33983 41997 71603 10098 20081 30051 40112 53003 71022 87051 333 10117
AAXX 20181 34415 32497 81406 10035 20020 30030 40127 56008 886// 333 10048
AAXX 20181 34523 NIL
AAXX 20181 34712 32497 81006 10037 20035 30038 40124 57009 8772/ 333 10043 87711
AAXX 20181 01400 41597 53111 10064 20016 40083 52017 70310 83365 22200 06081 10606 70031 333 91117
AAXX 20181 01300 41498 42709 10028 21001 40034 52018 72580 84/// 22200 02062 10705 70025 333 91113
AAXX 20184 78846 11477 70407 10250 20/// 30132 40171 71522 84802 333 10280 20233 58007 84818 87078
AAXX 20181 48820 32798 80000 10187 20153 30161 40169 58007 885// 333 59025 88697
AAXX 20181 48823 32497 80000 10188 20152 30168 40171 57009 888// 333 59017 82894 88696
AAXX 20184 68029 41560 33302 10259 20219 48497 52016 71322 83980 333 10315 30086
AAXX 20184 78846 11477 70407 10250 20/// 30132 40171 71522 84802 333 10280 20233 58007 84818 87078
AAXX 20184 64570 32570 82702 10244 20222 39607 40114 885// 333 10277 58011 88620
BBXX 61002 20184 99421 10047 46/// ///27 10140 2//// 40166 52006 22200 00139 10605 70026 555 1/041
AAXX 20181 14023 12999 40000 11055 21056 39838 40147 53004 60002 84031 333 10015 42002 92831
AAXX 20184 60645 36/// /0000 10148 21066 333 10179
AAXX 20181 06431 16/// /2905 10059 20033 30149 40161 51025 69972 333 10077 91110 91208
AAXX 20181 06432 15/65 /2804 10045 20022 30096 40174 51022 60032 333 10076 85/66 91111 91208
AAXX 20181 06458 17470 /2805 10051 20031 30009 40165 52026 60012 72385 333 10070 81/17 83/25 85/40 91110 91207
AAXX 20181 06465 17560 /2905 10047 20032 30087 40154 51027 60012 781// 333 10073 81/27 83/45 87/57 91113 91208
AAXX 20181 06496 17265 /3007 10012 20006 39463 40149 51026 60182 781// 333 10020 83/04 85/07 87/10 91112 91208
AAXX 20181 06447 16/// /2903 10049 20027 30038 40165 52024 60012 333 10074 91112 91207
AAXX 20181 06428 15565 /2802 10051 20023 30121 40170 51023 60012 333 10076 81/25 85/72 91110 91206
AAXX 20184 85032 11357 80212 10255 20242 39927 40087 57033 60081 71562 8592/ 333 56119 58024 83608 84620 81923 88457
AAXX 20184 85043 32465 62705 10308 20240 39940 40101 57022 86903 333 56400 58010 85817 81920 86070
AAXX 20184 85104 31450 83605 10265 20245 39920 40080 57024 71522 8652/ 333 56889 58006 86315 88457
AAXX 20184 85109 11458 80906 10265 20245 39935 40095 57015 60041 71562 8692/ 333 56889 58005 85615 81923 88457
AAXX 20184 85114 11358 80000 10245 20245 39940 40103 57018 60151 76062 8652/ 333 56009 58010 83608 86615 88457
AAXX 20184 85116 32465 70306 10284 20233 39917 40095 57028 84530 333 56110 58013 84615 87358
AAXX 20184 85123 11450 70608 10260 20247 39927 40092 57028 60021 71582 86904 333 56207 58006 85817 81923 86070
AAXX 20184 85139 32465 60000 10333 20272 39851 40041 57026 85904 333 56203 59003 84817 81923 86070
AAXX 20184 85153 31458 51204 10324 20245 39898 40079 57026 71522 86900 333 56300 58000 85817 81923
AAXX 20184 85154 31460 63604 10315 20242 39902 40078 57038 71522 82202 333 56706 58002 82817 85070
AAXX 20184 NIL
AAXX 20183 NIL
AAXX 20184 91929 04576 /0811 10278 20221 30126 40129 51018 69922 700// 333 10278 20250 60007 90710 91117 555 60005
AAXX 20184 91938 01475 62105 10268 20209 30134 40136 51016 60012 702// 83932 333 10277 20231 60007 81915 83360 85080 90710 91107 555 60005 11907 59009
AAXX 20184 91943 16/// /0909 10278 20230 30125 40127 51015 60032 333 10278 59012
AAXX 20184 91944 06/// /0814 10280 20206 30142 40145 51013 69922 333 10282 20255 60007 90710 91121 555 60005
AAXX 20184 91948 01581 30205 10263 20206 30089 40191 51009 69921 72586 83200 333 56200 69927 83821 90710 91112 555 69905 10514 58006
AAXX 20184 91954 06/// /0906 10277 20217 30157 40160 51011 60001 333 60007 555 59013
AAXX 20184 91958 02582 30607 10256 20202 30192 40194 51008 60001 83201 333 56203 60007 83823 90710 91110 555 60005 10612 59010
AAXX 20184 91945 36/// /0812 10287 20229 30147 40152 51016
AAXX 20181 48855 11597 83201 10198 20193 30144 40152 57014 69911 76062 888// 333 59004 83895 88697 96160
AAXX 20181 48848 32597 83202 10182 20159 30151 40159 57016 888// 333 59010 82895 88697
AAXX 20184 41241 36/// /1602 10210 20018 30172 40210 333 0E/// 10258 58005
AAXX 20184 41242 36/// /0000 10152 20079 30198 40223 333 0E020 10259 58006
AAXX 20184 41244 36/// /0806 10197 20012 39848 48354 333 0E021 10249 58006
AAXX 20184 41246 32960 02105 10194 20090 30203 40208 333 10254 58006
AAXX 20184 41251 32/60 /2504 10088 20042 36136 47807 91816 333 10134 59060
AAXX 20184 41252 NIL
AAXX 20184 41253 36/// /3402 10193 20108 39835 40220 333 0E021 10232 58006
AAXX 20184 41254 36/// /2906 10084 20040 38014 48019 333 0E010 10132 58015
AAXX 20184 41255 36/// /0000 10188 20073 39657 40215 333 0E021 10257 58004
AAXX 20184 41256 31958 01704 10200 20090 30200 40210 70500 333 10252 58005
AAXX 20184 41257 NIL
AAXX 20184 41258 36/// /2402 10229 20100 30198 40202 333 0E/// 10241 58006
AAXX 20184 41259 36/// /2908 10018 21106 37121 40291 333 0E/// 10095 59014
AAXX 20184 41262 NIL
AAXX 20184 41263 36/// /0000 10200 20055 39512 40205 333 0E020 10242 58002
AAXX 20184 41264 36/70 /1409 10210 20070 39812 40182 333 0E022 10268 58008
AAXX 20184 41265 36/// /0404 10185 20058 39655 40209 333 0E022 10248 58002
AAXX 20184 41267 35/60 /3316 10228 20117 30184 40200 333 0E021 10242 58009
AAXX 20184 41268 36/// /0008 10220 20106 30182 48393 333 0E022 10253 58008
AAXX 20184 41270 36/70 /0114 10217 20089 30143 40155 333 0E021 10247 58008
AAXX 20184 41275 NIL
AAXX 20184 41287 36/// /0606 10200 20095 30150 40219 333 0E022 10286 58006
AAXX 20184 41288 NIL
AAXX 20184 41290 NIL
AAXX 20184 41295 36/// /0508 10205 20155 30004 40184 333 0E020 10262 59001
AAXX 20184 41304 NIL
AAXX 20184 41312 36/// /0210 10237 20097 30145 40185 333 0E/// 10277 58010
AAXX 20184 41314 32960 00102 10165 20055 39697 40212 333 10227 58000
AAXX 20184 41315 36/// /3619 10152 20060 39190 42827 333 0E/// 10189 58001
AAXX 20184 41316 32960 00203 10224 20066 30162 40188 333 10277 58010
AAXX 20181 48852 11497 80000 10182 20182 30146 40156 57013 60051 76166 888// 333 59003 86894 88697 96160
AAXX 20184 94102 46/// /2216 10299 20250 30028 40037
AAXX 20184 94103 NIL
AAXX 20184 94120 46/// /1406 10258 20252 39986 40026
AAXX 20184 94122 46/// /2504 10289 20261 30015 40023
AAXX 20184 94131 46/// /1205 10268 20244 39882 40032
AAXX 20184 94132 NIL
AAXX 20184 94147 NIL
AAXX 20184 94150 46/// /1504 10250 20244 39972 40031
AAXX 20184 94151 46/// /0705 10265 20247 30014 4////
AAXX 20184 94170 46/// /1204 10244 20239 30025 40047
AAXX 20184 94200 NIL
AAXX 20184 94203 46/// /2406 10294 20248 30029 40039
AAXX 20184 94206 46/// /2804 10272 20234 39911 40038
AAXX 20184 94207 46/// /2714 10290 30027 40035 56019
AAXX 20184 94211 NIL
AAXX 20184 94212 46/// /0302 10289 20202 39576 40037
AAXX 20184 94216 46/// /1104 10285 20257 39989 40039
AAXX 20184 94236 NIL
AAXX 20184 94238 46/// /0305 10269 20213 39636 40049
AAXX 20184 94248 NIL
AAXX 20184 94255 46/// /0000 10260 20225 39795 40051
AAXX 20184 94268 46/// /0000 10252 20248 30038 40050
AAXX 20184 94287 46/// /1807 10247 20204 30059 40068
AAXX 20184 94290 NIL
AAXX 20184 94294 46/// /0000 10242 20207 30076 40086
AAXX 20184 94296 NIL
AAXX 20184 94298 46/// /1324 10262 30049 40055 56010
AAXX 20184 95641 NIL
AAXX 20184 94500 NIL
AAXX 20184 94510 46/// /0904 10211 20198 39736 40075
AAXX 20184 94515 46/// /0107 10194 20168 39746 40087
AAXX 20184 94552 46/// /0605 10152 20136 39662 40120
AAXX 20184 94578 46/// /0505 10216 20186 30119 40130
AAXX 20184 94584 46/// /0812 10224 20162 30008 40117
AAXX 20184 94601 46/// /1406 10180 20140 30109 40126
AAXX 20184 94610 46/// /2105 10181 20152 30089 40112
AAXX 20184 94637 46/// /0912 10218 20117 39688 40106
AAXX 20184 94638 46/// /0606 10158 20138 30109 40140
AAXX 20184 94642 NIL
AAXX 20184 94643 NIL
AAXX 20184 94647 46/// /1908 10184 20166 30008 40127
AAXX 20184 94651 46/// /2210 10177 20172 30012 40088
AAXX 20184 94653 46/// /1307 10192 20072 30068 40086
AAXX 20184 94659 46/// /1013 10240 20065 39908 40099
AAXX 20184 94672 46/// /1409 10171 20116 30132 40142
AAXX 20184 94691 46/// /1504 10172 20086 39804 40124
AAXX 20184 94693 46/// /1407 10162 20106 30082 40143
AAXX 20184 94700 NIL
AAXX 20184 94703 46/// /1903 10200 20139 39978 40101
AAXX 20184 94710 46/// /1606 10191 20090 39866 40113
AAXX 20184 94729 46/// /0501 10128 20123 39301 40136
AAXX 20184 94750 46/// /2803 10160 20158 30040 40163
AAXX 20184 94767 46/// /1910 10191 20154 30158 40164
AAXX 20184 94776 46/// /1905 10185 20158 30152 40162
AAXX 20184 94791 NIL
AAXX 20184 94802 46/// /0707 10152 20140 30044 40126
AAXX 20184 94804 46/// /1119 10170 20141 30102 40139
AAXX 20184 94807 NIL
AAXX 20184 94821 46/// /1406 10100 20096 30102 40184
AAXX 20184 94842 46/// /2206 10138 20091 30085 40184
AAXX 20184 94847 NIL
AAXX 20184 94850 46/// /1806 10128 20121 30127 40173
AAXX 20184 94865 46/// /1708 10151 20107 30149 40173
AAXX 20184 94866 46/// /1808 10143 20101 30030 40169
AAXX 20184 94875 46/// /1909 10147 20101 30001 40134
AAXX 20184 94299 46/// /1719 10266 20217 30043 40053
AAXX 20184 94300 46/// /1713 10226 20196 30084 40094
AAXX 20184 94302 46/// /2107 10247 20140 30064 40070
AAXX 20184 94312 46/// /2610 10257 20238 30031 40040
AAXX 20184 94313 NIL
AAXX 20184 94317 46/// /1907 10311 20005 39468 40037
AAXX 20184 94319 46/// /2904 10314 20150 39689 40010
AAXX 20184 94324 NIL
AAXX 20184 94326 46/// /1206 10238 20189 39486 40088
AAXX 20184 94327 46/// /0303 10251 20195 39697 40061
AAXX 20184 94332 46/// /0000 10232 20215 39673 40049
AAXX 20184 94333 NIL
AAXX 20184 94341 46/// /0304 10228 20161 39830 40059
AAXX 20184 94346 46/// /1308 10229 20198 39856 40070
AAXX 20184 94363 46/// /0902 10208 20189 39884 40097
AAXX 20184 94366 NIL
AAXX 20184 94367 46/// /1308 10251 20195 30046 40087
AAXX 20184 94374 46/// /1105 10210 20186 30086 40102
AAXX 20184 94388 46/// /1015 10245 20180 30100 40105
AAXX 20184 94393 46/// /1223 10258 30054 40066 56009
AAXX 20184 94394 46/// /1120 10243 30090 40098 55003
AAXX 20184 94403 46/// /1205 10168 20151 30074 40115
AAXX 20184 94429 46/// /2106 10250 20135 39630 40083
AAXX 20184 94430 46/// /2104 10252 20043 39503 40071
AAXX 20184 94449 46/// /0919 10239 20122 39574 40091
AAXX 20184 94451 NIL
AAXX 20184 94461 46/// /2005 10262 20166 39399 40050
AAXX 20184 94462 46/// /0311 10253 20167 39512 40052
AAXX 20184 94477 NIL
AAXX 20184 94488 NIL
AAXX 20184 89564 45/// /1530 10049 21079 39654 49673 55024
AAXX 20184 89570 46/// /1029 11041 21105 38982 51022
AAXX 20184 89571 45/// /0827 10038 21106 39590 49618 52010
AAXX 20184 89573 NIL
AAXX 20184 89610 NIL
AAXX 20184 89611 45/// /0518 11012 21037 39702 49753 51027
AAXX 20184 89614 NIL
AAXX 20184 89615 46/// /0717 11068 21098 38876 51023
AAXX 20184 89807 NIL
AAXX 20184 89809 NIL
BBXX UCKZ 20181 99670 30447 42498 83504 11017 21057 49816 57031 885// 22200 01014 2//// ICE 57895
BBXX FHZI 20164 99652 31448 46/// /3023 11001 21008 39876 49887 52004 22241 05014 86004
BBXX FHZI 20174 99652 31447 46/// /3029 11002 21020 39871 49882 54000 22251 05014 86008
AAXX 20184 94299 46/// /1719 10266 20217 30043 40053
AAXX 20184 94300 46/// /1713 10226 20196 30084 40094
AAXX 20184 94302 46/// /2107 10247 20140 30064 40070
AAXX 20184 94312 46/// /2610 10257 20238 30031 40040
AAXX 20184 94313 NIL
AAXX 20184 94317 46/// /1907 10311 20005 39468 40037
AAXX 20184 94319 46/// /2904 10314 20150 39689 40010
AAXX 20184 94324 NIL
AAXX 20184 94326 46/// /1206 10238 20189 39486 40088
AAXX 20184 94327 46/// /0303 10251 20195 39697 40061
AAXX 20184 94332 46/// /0000 10232 20215 39673 40049
AAXX 20184 94333 NIL
AAXX 20184 94341 46/// /0304 10228 20161 39830 40059
AAXX 20184 94346 46/// /1308 10229 20198 39856 40070
AAXX 20184 94363 46/// /0902 10208 20189 39884 40097
AAXX 20184 94366 NIL
AAXX 20184 94367 46/// /1308 10251 20195 30046 40087
AAXX 20184 94374 46/// /1105 10210 20186 30086 40102
AAXX 20184 94388 46/// /1015 10245 20180 30100 40105
AAXX 20184 94393 46/// /1223 10258 30054 40066 56009
AAXX 20184 94394 46/// /1120 10243 30090 40098 55003
AAXX 20184 94403 46/// /1205 10168 20151 30074 40115
AAXX 20184 94429 46/// /2106 10250 20135 39630 40083
AAXX 20184 94430 46/// /2104 10252 20043 39503 40071
AAXX 20184 94449 46/// /0919 10239 20122 39574 40091
AAXX 20184 94451 NIL
AAXX 20184 94461 46/// /2005 10262 20166 39399 40050
AAXX 20184 94462 46/// /0311 10253 20167 39512 40052
AAXX 20184 94477 NIL
AAXX 20184 94488 NIL
AAXX 20183 91502 31470 50000 10255 20249 40041 56011 71522 82936 333 56699 82814 81915 85280
AAXX 20183 91507 31475 40000 10247 20238 40062 55003 70521 82931 333 56999 82814 81915 83360
AAXX 20183 91520 31475 70000 10245 20245 40059 56007 70522 8497/ 333 56999 82815 81916 87360
AAXX 20183 91541 NIL
AAXX 20184 94893 NIL
AAXX 20184 94907 46/// /0805 10155 20144 30162 40172
AAXX 20184 94910 46/// /0709 10180 20138 39880 40125
AAXX 20184 94926 46/// /1004 10143 20131 39496 40154
AAXX 20184 94935 46/// /2108 10160 20152 30150 40176
AAXX 20184 94954 46/// /0711 10141 20132 30076 40187
AAXX 20184 94956 46/// /1004 10098 20087 30172 40199
AAXX 20184 94975 46/// /2009 10119 20049 30186 40219
AAXX 20184 94983 46/// /1823 10137 20092 30168 40193
AAXX 20184 94995 46/// /0513 10205 20177 30157 40165
AAXX 20184 94996 46/// /0913 10199 20159 30046 40174
AAXX 20184 94997 NIL
AAXX 20184 94998 46/// /1412 10049 20028 30187 40198
AAXX 20184 95111 46/// /0702 10267 20257 39996 40032
AAXX 20184 95205 46/// /3503 10290 20214 30040 40047
AAXX 20184 95322 NIL
AAXX 20184 95448 46/// /0807 10268 20092 39520 40068
AAXX 20184 95458 46/// /0613 10282 20017 39824 40078
AAXX 20184 95480 46/// /1012 10261 20081 30038 40096
AAXX 20184 95481 46/// /1005 10213 20099 30055 40099
AAXX 20184 95482 46/// /1307 10263 20063 30033 40087
AAXX 20184 95485 46/// /1206 10214 2//// 39907 40107
AAXX 20184 95492 46/// /1706 10218 20149 39949 40100
AAXX 20184 95527 46/// /0907 10194 20172 39867 40115
AAXX 20184 95634 46/// /1408 10208 20114 39704 40096
AAXX 20184 95637 46/// /0610 10180 20111 39783 40110
AAXX 20184 95646 46/// /1911 10189 20158 39943 40127
AAXX 20184 95666 NIL
AAXX 20184 95719 46/// /1014 10173 20140 39803 40127
AAXX 20184 95762 46/// /1610 10168 20139 39677 40125
AAXX 20184 95826 NIL
AAXX 20184 95839 46/// /1411 10121 20097 30008 40165
AAXX 20184 95864 NIL
AAXX 20184 95909 NIL
AAXX 20184 95954 NIL
AAXX 20184 95966 46/// /1612 10104 20071 30002 40202
AAXX 20184 96995 46/// /3303 10245 20239 39786 40080
AAXX 20184 96996 45/// /1209 10264 20217 30073 40077 58012
AAXX 20184 94102 46/// /2216 10299 20250 30028 40037
AAXX 20184 94103 NIL
AAXX 20184 94120 46/// /1406 10258 20252 39986 40026
AAXX 20184 94122 46/// /2504 10289 20261 30015 40023
AAXX 20184 94131 46/// /1205 10268 20244 39882 40032
AAXX 20184 94132 NIL
AAXX 20184 94147 NIL
AAXX 20184 94150 46/// /1504 10250 20244 39972 40031
AAXX 20184 94151 46/// /0705 10265 20247 30014 4////
AAXX 20184 94170 46/// /1204 10244 20239 30025 40047
AAXX 20184 94200 NIL
AAXX 20184 94203 46/// /2406 10294 20248 30029 40039
AAXX 20184 94206 46/// /2804 10272 20234 39911 40038
AAXX 20184 94207 46/// /2714 10290 30027 40035 56019
AAXX 20184 94211 NIL
AAXX 20184 94212 46/// /0302 10289 20202 39576 40037
AAXX 20184 94216 46/// /1104 10285 20257 39989 40039
AAXX 20184 94236 NIL
AAXX 20184 94238 46/// /0305 10269 20213 39636 40049
AAXX 20184 94248 NIL
AAXX 20184 94255 46/// /0000 10260 20225 39795 40051
AAXX 20184 94268 46/// /0000 10252 20248 30038 40050
AAXX 20184 94287 46/// /1807 10247 20204 30059 40068
AAXX 20184 94290 NIL
AAXX 20184 94294 46/// /0000 10242 20207 30076 40086
AAXX 20184 94296 NIL
AAXX 20184 94298 46/// /1324 10262 30049 40055 56010
AAXX 20184 95641 NIL
BBXX VRRD 20183 99159 31569 41397 50618 10281 20254 40021 56022 72586 857/0 22253 2//// 80262
BBXX PCAM 20183 99412 31732 41598 21805 10140 20105 40287 53012 70200 8154/ 22200 20100 30000 80120
BBXX ZMIQ 20183 99364 31736 41498 30909 10166 20136 40268 54000 70200 82145 22273 00185 20301 324// 40501 80149
BBXX 3ECI3 20184 99412 31745 41597 61613 10135 20096 40308 54000 70300 86463 22243 00130 20301 318// 40802 80115
BBXX V2OG2 20183 99273 31135 41998 01622 10225 20206 40111 53012 70000 80000 22233 20403 320// 40505 80212
BBXX VNSZ 20164 99401 31458 46/// /0622 10161 20136 30151 40177 57004 22235 04166 85146
BBXX VNSZ 20174 99405 31460 46/// /0622 10158 20136 30159 40185 52006 22235 04166 85144
BBXX 9HA2479 20164 99278 31596 46/// /0719 10222 20152 30112 40141 57021 22214 04235 85177
BBXX C6FS9 20164 99274 31531 46/// /0607 10231 20194 30102 40138 57015 22200 04246 85206
BBXX 9HA2479 20174 99276 31599 46/// /0922 10221 20163 30112 40141 57014 22214 04235 85183
BBXX VROB 20164 99391 31468 46/// /0812 10163 20135 30159 40185 57005 22264 04172 85146
BBXX VNAH 20164 99333 31157 46/// /1906 10182 20111 30100 40124 57003 22200 85140
BBXX C6FS9 20174 99274 31531 46/// /0509 10231 20190 30100 40136 57013 22200 04241 85203
BBXX VROB 20174 99392 31464 46/// /0712 10160 20133 30157 40183 57008 22264 04166 85144
BBXX VNAH 20174 99333 31157 46/// /1907 10171 20113 30101 40125 54000 22200 04217 85137
BBXX VNSZ 20184 99409 31462 46/// /1219 10148 20112 30169 40196 52021 22235 04167 85127
BBXX C6FS9 20184 99274 31531 46/// /0507 10230 20188 30102 40138 57004 22200 85201
AAXX 20184 94500 NIL
AAXX 20184 94510 46/// /0904 10211 20198 39736 40075
AAXX 20184 94515 46/// /0107 10194 20168 39746 40087
AAXX 20184 94552 46/// /0605 10152 20136 39662 40120
AAXX 20184 94578 46/// /0505 10216 20186 30119 40130
AAXX 20184 94584 46/// /0812 10224 20162 30008 40117
AAXX 20184 94601 46/// /1406 10180 20140 30109 40126
AAXX 20184 94610 46/// /2105 10181 20152 30089 40112
AAXX 20184 94637 46/// /0912 10218 20117 39688 40106
AAXX 20184 94638 46/// /0606 10158 20138 30109 40140
AAXX 20184 94642 NIL
AAXX 20184 94643 NIL
AAXX 20184 94647 46/// /1908 10184 20166 30008 40127
AAXX 20184 94651 46/// /2210 10177 20172 30012 40088
AAXX 20184 94653 46/// /1307 10192 20072 30068 40086
AAXX 20184 94659 46/// /1013 10240 20065 39908 40099
AAXX 20184 94672 46/// /1409 10171 20116 30132 40142
AAXX 20184 94691 46/// /1504 10172 20086 39804 40124
AAXX 20184 94693 46/// /1407 10162 20106 30082 40143
AAXX 20184 94700 NIL
AAXX 20184 94703 46/// /1903 10200 20139 39978 40101
AAXX 20184 94710 46/// /1606 10191 20090 39866 40113
AAXX 20184 94729 46/// /0501 10128 20123 39301 40136
AAXX 20184 94750 46/// /2803 10160 20158 30040 40163
AAXX 20184 94767 46/// /1910 10191 20154 30158 40164
AAXX 20184 94776 46/// /1905 10185 20158 30152 40162
AAXX 20184 94791 NIL
AAXX 20184 94802 46/// /0707 10152 20140 30044 40126
AAXX 20184 94804 46/// /1119 10170 20141 30102 40139
AAXX 20184 94807 NIL
AAXX 20184 94821 46/// /1406 10100 20096 30102 40184
AAXX 20184 94842 46/// /2206 10138 20091 30085 40184
AAXX 20184 94847 NIL
AAXX 20184 94850 46/// /1806 10128 20121 30127 40173
AAXX 20184 94865 46/// /1708 10151 20107 30149 40173
AAXX 20184 94866 46/// /1808 10143 20101 30030 40169
AAXX 20184 94875 46/// /1909 10147 20101 30001 40134
AAXX 20184 94893 NIL
AAXX 20184 94907 46/// /0805 10155 20144 30162 40172
AAXX 20184 94910 46/// /0709 10180 20138 39880 40125
AAXX 20184 94926 46/// /1004 10143 20131 39496 40154
AAXX 20184 94935 46/// /2108 10160 20152 30150 40176
AAXX 20184 94954 46/// /0711 10141 20132 30076 40187
AAXX 20184 94956 46/// /1004 10098 20087 30172 40199
AAXX 20184 94975 46/// /2009 10119 20049 30186 40219
AAXX 20184 94983 46/// /1823 10137 20092 30168 40193
AAXX 20184 94995 46/// /0513 10205 20177 30157 40165
AAXX 20184 94996 46/// /0913 10199 20159 30046 40174
AAXX 20184 94997 NIL
AAXX 20184 94998 46/// /1412 10049 20028 30187 40198
AAXX 20184 95111 46/// /0702 10267 20257 39996 40032
AAXX 20184 95205 46/// /3503 10290 20214 30040 40047
AAXX 20184 95322 NIL
AAXX 20184 95448 46/// /0807 10268 20092 39520 40068
AAXX 20184 95458 46/// /0613 10282 20017 39824 40078
AAXX 20184 95480 46/// /1012 10261 20081 30038 40096
AAXX 20184 95481 46/// /1005 10213 20099 30055 40099
AAXX 20184 95482 46/// /1307 10263 20063 30033 40087
AAXX 20184 95485 46/// /1206 10214 2//// 39907 40107
AAXX 20184 95492 46/// /1706 10218 20149 39949 40100
AAXX 20184 95527 46/// /0907 10194 20172 39867 40115
AAXX 20184 95634 46/// /1408 10208 20114 39704 40096
AAXX 20184 95637 46/// /0610 10180 20111 39783 40110
AAXX 20184 95646 46/// /1911 10189 20158 39943 40127
AAXX 20184 95666 NIL
AAXX 20184 95719 46/// /1014 10173 20140 39803 40127
AAXX 20184 95762 46/// /1610 10168 20139 39677 40125
AAXX 20184 95826 NIL
AAXX 20184 95839 46/// /1411 10121 20097 30008 40165
AAXX 20184 95864 NIL
AAXX 20184 95909 NIL
AAXX 20184 95954 NIL
AAXX 20184 95966 46/// /1612 10104 20071 30002 40202
AAXX 20184 96995 46/// /3303 10245 20239 39786 40080
AAXX 20184 96996 45/// /1209 10264 20217 30073 40077 58012
AAXX 20184 40356 42960 01110 10100 21020 39224 48519 333 10200 59038 55090 555 04410 50214
AAXX 20184 40357 42960 01307 10095 20030 39581 40236 333 10180 59032 55///
AAXX 20184 40360 42960 00904 10138 20020 39602 40198 333 10204 59026 55090
AAXX 20184 40361 42960 01007 10120 21060 39436 40215 333 10210 59036 55///
AAXX 20184 40362 42960 00902 10084 21030 39708 40238 333 10180 59019 55///
AAXX 20184 40373 42960 00000 10092 21040 39806 40239 333 10181 59011 55///
AAXX 20184 40375 42960 00000 10152 21020 39295 40175 333 10225 59016 55///
AAXX 20184 40377 42960 00000 10100 20030 39749 40244 333 10182 59017 55///
AAXX 20184 40394 42960 01001 10122 20030 39079 48546 333 10216 59025 55096 555 04410 50223
AAXX 20184 40400 42660 23604 10235 20200 30134 40162 82500 333 10312 58000 55082 82640
AAXX 20184 40401 42960 00605 10200 21040 39468 40168 333 20280 59016 55///
AAXX 20184 40405 42960 00604 10110 20030 39480 40241 333 10213 59013 55///
AAXX 20184 40416 42960 03308 10170 20140 30185 40205 333 10240 59004 55///
AAXX 20184 40417 41958 03206 10160 20100 30207 40222 70500 333 10222 59004 55///
AAXX 20184 40420 42960 03310 10150 20030 30010 40221 333 10220 59002 55///
AAXX 20184 40430 42960 00304 10220 21030 39448 40164 333 10270 59013 55083
AAXX 20184 40435 NIL
AAXX 20184 40437 42960 03204 10108 21010 39525 40243 333 10193 59010 55094
AAXX 20184 40439 42960 00000 10244 20120 30124 40134 333 10322 59012 55088
AAXX 20184 89564 45/// /1530 10049 21079 39654 49673 55024
AAXX 20184 89570 46/// /1029 11041 21105 38982 51022
AAXX 20184 89571 45/// /0827 10038 21106 39590 49618 52010
AAXX 20184 89573 NIL
AAXX 20184 89610 NIL
AAXX 20184 89611 45/// /0518 11012 21037 39702 49753 51027
AAXX 20184 89614 NIL
AAXX 20184 89615 46/// /0717 11068 21098 38876 51023
AAXX 20184 89807 NIL
AAXX 20184 89809 NIL
AAXX 20184 63705 32560 22904 10208 20201 38853 48507 82900 333 10268 58000 82821 81923 555 10203
AAXX 20184 94310 46/// /2618 10277 20249 30025 40036 57007
AAXX 20184 95283 46/// /1504 10253 20223 30053 40060
AAXX 20184 95288 46/// /1419 10276 30041 40056 56012
AAXX 20184 95675 46/// /1004
AAXX 20184 95872 46/// /1513
AAXX 20184 95961 35/// /1214 10117 30167 40209 52002
AAXX 20184 41024 42960 00304 10260 20190 30123 40143 333 10320 59005 55088
AAXX 20184 41030 42960 00000 10268 20190 39868 40137 333 10350 59004 55///
AAXX 20184 41036 42960 00000 10166 20020 38590 48539 333 10250 59006 55090 555 04410 50151
AAXX 20184 41055 42960 01206 10156 20020 38397 48546 333 10222 59008 55090 555 04410 50186
AAXX 20184 41061 42960 00906 10137 20050 39495 40212 333 10230 59010 55100
AAXX 20184 41084 42960 00408 10179 20030 38895 48545 333 10260 59009 55100 555 04410 50176
AAXX 20184 41112 42960 00403 10138 20000 37973 48544 333 10227 59002 55091 555 04410 50182
AAXX 20184 41114 42960 02510 10150 20020 38007 48540 333 10248 58001 55000 555 04410 50167
AAXX 20184 41128 42960 00000 10145 21010 38864 48564 333 10240 59009 55085 555 04410 50212
AAXX 20184 41136 42960 00605 10164 21010 39377 40201 333 10240 59007 55094
AAXX 20184 41140 42560 20000 10274 20220 30139 40143 82100 333 10320 59003 55/// 82830
AAXX 20184 91375 NIL
AAXX 20184 91519 NIL
AAXX 20184 91531 NIL
AAXX 20184 91532 45/// /0708 10272 20228 30054 40062 57003
AAXX 20184 91559 NIL
AAXX 20184 91611 NIL
AAXX 20184 91642 NIL
AAXX 20184 91679 NIL
AAXX 20184 91689 NIL
AAXX 20184 91756 NIL
AAXX 20184 91844 NIL
AAXX 20184 92036 NIL
AAXX 20184 93713 NIL
AAXX 20184 40550 35/63 /3003 10100 20011 40229 50005 333 55300 00000 10213 20000 30000 41033 51246 60000 55407 40000 90069 90400 91003 91107 91203 91301
AAXX 20184 40551 36/// /2007 10091 21016 333 90401 91007 91109 91207 91303
AAXX 20184 40552 35/67 /2806 10108 21005 40233 51007 333 55300 90069 90400 91005 91109 91207 91305
AAXX 20184 40553 35/65 /2703 10117 20002 40229 51006 333 55300 90069 90400 91003 91107 91205 91303
AAXX 20184 40568 36/// /2504 10114 20051 333 90400 91003 91109 91207 91305
AAXX 20184 40569 NIL
AAXX 20184 40570 35/70 /0701 10100 21009 40242 51010 333 55300 90069 90401 91001 91115 91209 91305
AAXX 20184 40571 NIL
AAXX 20184 40572 NIL
AAXX 20184 40573 36/// /2902 10087 21009 333 90400 91001 91113 91211 91305
AAXX 20184 40580 46/// /2101 10120 20032 333 553// 00000 10229 20000 30000 41037 51266 60000 55407 40000 90400 91003 91105 91201 91301
AAXX 20184 40581 36/// /0000 10159 20026 333 90400 91001 91105 91201 91301
AAXX 20184 40582 32960 02104 10098 21010 40232 51008 333 55300 00000 10188 20000 30000 41099 51286 60000 55407 40000 90401 91003 91109 91205 91303
AAXX 20184 40583 NIL
AAXX 20184 40585 36/// /2706 10164 20025 222// 1//// 3//// 4//// 70/// 333 90400 91009 91109 91207 91305
AAXX 20184 40586 36/// /2404 10119 21010 333 90400 91005 91105 91201 91301
AAXX 20184 40587 36/// /2305 10099 21006 333 553// 00000 10214 20000 30000 41030 51244 60000 55407 40000 90401 91005 91107 91205 91303
AAXX 20184 40588 35/69 /2703 10128 20060 40227 50005 333 55300 90069 90401 91003 91105 91205 91303
AAXX 20184 40589 NIL
AAXX 20184 40590 36/// /2906 10102 21009 333 90401 91005 91111 91207 91305
AAXX 20184 40591 NIL
AAXX 20184 40592 37/57 /2602 10083 20046 40237 51010 71010 333 55300 00000 10234 20000 30000 41029 51263 60000 55407 40000 90069 90401 91001 91107 91203 91301
AAXX 20184 40593 36/// /2605 10135 20068 333 90400 91005 91107 91207 91303
AAXX 20184 40594 36/// /2904 10124 20070 333 90401 91005 91109 91205 91303
AAXX 20184 40596 46/// /3103 10169 20088 333 90401 91003 91111 91207 91305
AAXX 20181 33088 11595 80203 11002 21005 39899 40093 57004 60042 77377 8872/ 333 10001
AAXX 20181 34523 32497 81206 10032 20017 30070 40147 57022 886// 333 10036 88713
BBXX VRRD 20183 99159 31569 41397 50618 10281 20254 40021 56022 72586 857/0 22253 2//// 80262
BBXX PCAM 20183 99412 31732 41598 21805 10140 20105 40287 53012 70200 8154/ 22200 20100 30000 80120
BBXX ZMIQ 20183 99364 31736 41498 30909 10166 20136 40268 54000 70200 82145 22273 00185 20301 324// 40501 80149
BBXX 3ECI3 20184 99412 31745 41597 61613 10135 20096 40308 54000 70300 86463 22243 00130 20301 318// 40802 80115
BBXX V2OG2 20183 99273 31135 41998 01622 10225 20206 40111 53012 70000 80000 22233 20403 320// 40505 80212
BBXX VNSZ 20164 99401 31458 46/// /0622 10161 20136 30151 40177 57004 22235 04166 85146
BBXX VNSZ 20174 99405 31460 46/// /0622 10158 20136 30159 40185 52006 22235 04166 85144
BBXX 9HA2479 20164 99278 31596 46/// /0719 10222 20152 30112 40141 57021 22214 04235 85177
BBXX C6FS9 20164 99274 31531 46/// /0607 10231 20194 30102 40138 57015 22200 04246 85206
BBXX 9HA2479 20174 99276 31599 46/// /0922 10221 20163 30112 40141 57014 22214 04235 85183
BBXX VROB 20164 99391 31468 46/// /0812 10163 20135 30159 40185 57005 22264 04172 85146
BBXX VNAH 20164 99333 31157 46/// /1906 10182 20111 30100 40124 57003 22200 85140
BBXX C6FS9 20174 99274 31531 46/// /0509 10231 20190 30100 40136 57013 22200 04241 85203
BBXX VROB 20174 99392 31464 46/// /0712 10160 20133 30157 40183 57008 22264 04166 85144
BBXX VNAH 20174 99333 31157 46/// /1907 10171 20113 30101 40125 54000 22200 04217 85137
BBXX VNSZ 20184 99409 31462 46/// /1219 10148 20112 30169 40196 52021 22235 04167 85127
BBXX C6FS9 20184 99274 31531 46/// /0507 10230 20188 30102 40138 57004 22200 85201
BBXX VRAE3 20184 99079 11182 41497 11219 10289 20246 40080 51024 70102 80000 22223 00300 20302 3//// 4//// 5//// 80259
BBXX V2BE4 20181 99143 11424 41998 00910 10275 20239 40089 57018 70000 80000 22244 04280 20606 311// 40506 80250
AAXX 20181 38141 32998 01105 11139 21200 30302 40477 57007 333 11112
AAXX 20181 38149 42998 00802 11118 21162 30395 40479 58018 333 11050
AAXX 20181 38178 429// 03602 11189 21291 30188 40511 57009 333 11116
AAXX 20181 38262 329// 00503 11137 21185 30392 40483 57010 333 11068
AAXX 20181 38264 42998 00605 11135 21187 30374 40477 57006 333 11067
AAXX 20181 38396 NIL
AAXX 20181 38403 429// 00000 11115 21187 30335 40467 57010 333 11060
AAXX 20181 38413 429// 01003 11128 21149 30144 40464 57019 333 11102
AAXX 20181 38457 32597 70000 11092 21154 39822 40459 57012 83040 333 11055
AAXX 20181 38462 425// 70000 11136 21179 38878 48591 58009 85750 333 11057
AAXX 20181 38565 329// 00000 11138 21151 39828 40473 57020 333 11132
AAXX 20181 38579 125// 20000 11123 21150 30010 40470 58016 69932 82500 333 11110
AAXX 20181 38583 32997 62701 11115 21139 30115 40468 57016 80001 333 11069
AAXX 20181 38611 42597 82502 11075 21097 39838 40453 57007 8802/ 333 11037 82785
AAXX 20181 38618 329// 83201 11082 21105 39692 40434 57009 8805/ 333 11049
AAXX 20181 38683 42997 03602 11110 21172 30150 40453 58006 333 11057
AAXX 20181 38696 129// 00000 11131 21152 39522 40463 58007 69902 333 11080
AAXX 20181 38812 42997 50601 11071 21124 39946 40435 54000 82031 333 11037
AAXX 20181 38927 11547 20303 11054 21079 30024 40427 57011 69902 71000 82400 333 11022
AAXX 20181 37395 32797 50920 10155 21005 30030 40166 57005 82530 333 10164 91126
AAXX 20181 37409 31/91 90913 11026 21026 38800 48515 57004 74544 333 11012 95090
AAXX 20181 37432 32997 00000 10000 21034 39008 48535 57002 333 10067
AAXX 20181 37514 32696 60000 11008 21062 39094 40283 53001 86500 333 10078
AAXX 20181 37545 325// 80002 10012 20007 39746 40276 57004 71022 84411 333 10072
AAXX 20181 37621 326// 70000 11002 21043 39623 40287 57008 875// 333 10075
AAXX 20181 37484 NIL
AAXX 20184 65501 32960 70000 10278 20028 39801 40118 80002 333 10337 58003 87076
AAXX 20184 65502 32960 60000 10294 21003 39733 40112 80002 333 10336 58013 86076
AAXX 20184 65503 31925 70404 10292 20047 39765 40111 70622 80002 333 10343 58006 87076
AAXX 20184 65505 32965 50402 10305 20086 39765 40104 80002 333 10350 58004 85076
AAXX 20184 65507 32960 70000 10293 20108 39757 40107 81032 333 10353 58006 82363 86076
AAXX 20184 65510 31956 53604 10300 20056 39589 40100 70622 80002 333 10335 58006 85076
AAXX 20184 65516 32965 60804 10313 20026 39795 40101 80002 333 10355 58010 86076
AAXX 20184 65518 32965 70000 10297 20067 39733 40095 80002 333 10351 58006 87076
AAXX 20184 65522 31958 70000 10315 20058 39771 40100 70622 81032 333 10352 58007 81363 87076
BBXX C6CU6 20183 99281 70609 41397 30416 10222 20205 40291 51010 70200 831// 22263 04230 21410 335// 41010 5//// 80211
BBXX A8CI9 20184 99102 10583 41597 50324 10267 20224 40145 52010 70211 84461 22244 04276 20403 3//// 4//// 5//// 80236
AAXX 20184 64700 32960 53608 10255 20010 39776 40117 80002 333 10330 59001 85075
AAXX 20184 64750 32965 82804 10257 20141 39678 40088 80007 91752 333 10365 58001 88273
AAXX 20184 65028 32964 70000 10245 20062 30956 40156 80000 333 10300 58002 87280
AAXX 20184 65125 31940 61906 10298 20125 3//// 40123 70522 80008 333 10351 59001 86280
AAXX 20184 65046 31958 70408 10237 20082 39584 40126 70522 80008 333 10296 59001 86280
AAXX 20184 65271 31950 30000 10275 20145 30000 40098 70522 80008 333 10346 58005 83280
BBXX DCAX2 20183 99061 11600 41697 70806 10270 20241 40060 54000 7//22 87778 22233 20806 3//// 4//// 5//// 80250
BBXX UANA 20181 99705 10463 41/98 91507 10023 52000 70100 8//// 22222 00029 20402
AAXX 20181 56187 11940 80201 10066 20043 39607 40267 52008 69901 76060 8807/ 333 05101 10090
AAXX 20181 56778 NIL
AAXX 20181 57265 NIL
AAXX 20181 57461 31956 83201 10078 20025 30116 40282 52002 71000 8807/ 333 10108
AAXX 20181 57494 NIL
AAXX 20181 57516 11740 83601 10082 20053 39940 40258 52004 69901 76000 885// 333 05100 10087
AAXX 20181 57687 11456 82903 10080 20025 30178 40264 54000 69901 76060 887// 333 10093
AAXX 20181 57816 11620 80202 10025 20021 38815 40244 54000 69921 76060 885// 333 05201 10028
AAXX 20181 58040 31930 60000 11009 21023 30267 40281 52003 71000 80002 333 10076
AAXX 20181 58102 31956 33602 10018 21033 30251 40301 52009 71000 80002 333 10077
AAXX 20181 58150 NIL
AAXX 20181 58221 31930 80201 10032 20019 30259 40288 52013 71000 8807/ 333 10091
AAXX 20181 58238 31915 83202 10061 20043 30228 40273 52006 71000 8807/ 333 10087
AAXX 20181 58251 NIL
AAXX 20181 58362 NIL
AAXX 20181 58457 NIL
AAXX 20181 58606 NIL
AAXX 20181 58752 NIL
AAXX 20181 58847 NIL
AAXX 20181 59117 11665 70201 10149 20115 30085 40191 57005 69901 70060 875// 333 10205
AAXX 20181 59134 NIL
AAXX 20181 59287 NIL
AAXX 20181 59316 32760 80702 10168 20135 30179 40184 57008 885// 333 10207
AAXX 20181 59431 NIL
AAXX 20181 59644 32560 70000 10172 20141 30165 40182 57007 878// 333 10234
AAXX 20181 59758 32465 70904 10192 20168 30090 40166 57010 871// 333 10199
AAXX 20181 50468 NIL
AAXX 20181 50953 NIL
AAXX 20181 51076 NIL
AAXX 20181 51243 NIL
AAXX 20181 51288 32980 00702 11175 21264 38487 57006 333 00401 11119
AAXX 20181 51463 NIL
AAXX 20181 51573 NIL
AAXX 20181 51709 NIL
AAXX 20181 52533 NIL
AAXX 20181 52652 NIL
AAXX 20181 52866 NIL
AAXX 20181 52983 NIL
AAXX 20181 53463 32980 03201 11090 21223 39055 40366 52004 333 00100 11040
AAXX 20181 53513 32970 02202 11126 21156 39101 40400 52002 333 00201 11031
AAXX 20181 53588 NIL
AAXX 20181 53772 NIL
AAXX 20181 53915 NIL
AAXX 20181 54218 32970 02502 11094 21202 39431 40269 57006 333 11014
AAXX 20181 54337 32960 02501 11081 21124 30160 40247 54000 333 10011
AAXX 20181 54342 NIL
AAXX 20181 54401 NIL
AAXX 20181 54471 32960 01401 11060 21094 30239 40245 57006 333 10018
AAXX 20181 54497 32562 70703 11058 21108 30238 40255 57008 875// 333 10001
AAXX 20181 54511 NIL
AAXX 20181 54823 31930 01401 11027 21062 30079 40297 52001 71000 333 10045
AAXX 20181 56080 NIL
AAXX 20181 56096 NIL
AAXX 20181 57083 NIL
AAXX 20181 38396 42997 00502 11114 21186 30338 40476 57008 333 11055
AAXX 20184 71188 11674 22920 11076 21151 30026 40069 52021 60001 73611 82100 333 11054 21081 70004
AAXX 20184 85041 32470 53606 10312 20254 39815 40071 57032 82131 333 56000 59002 82815 86358
AAXX 20184 85140 31458 50000 10338 20241 39886 40092 57031 70422 83104 333 56305 58004 83817 85070
AAXX 20184 85141 32584 70904 10309 20260 39850 40078 57028 84304 333 56707 58000 84820 81923 87070
AAXX 20184 85151 NIL
AAXX 20184 85152 32570 70000 10324 20243 39852 40081 57025 85901 333 56000 58002 84820 81923 84070
AAXX 20184 85201 31465 61009 10124 20031 36291 57016 71521 85933 333 56200 58005 84817 81920 83070
AAXX 20184 85230 NIL
AAXX 20184 85242 32484 50308 10168 20036 36544 57017 85300 333 56700 58007 84817 81920
AAXX 20184 78062 12569 71410 10240 20166 40223 60001 85202 333 59020 85825 86075 90908
AAXX 20181 10400 01580 72706 10055 20031 30073 40123 52026 60032 72162 8553/ 333 10061 20007 32000 4/998 55300 20000 30000 69907 83620 84635 86362
AAXX 20181 10004 46/59 /3214 10072 20042 30077 40077 52037 222// 00079 333 10084 20056 55300 91120 91216
AAXX 20184 06670 01250 82306 10015 20001 39645 40168 5//// 60052 76872 887// 333 10018 43010 553// 20000 60005 81706 84708 87613 90766 93107
AAXX 20184 06700 01560 42603 10009 20002 39691 40198 5//// 60032 71081 84800 333 10014 43003 553// 20000 60005 81820 83645 90766 93101
AAXX 20184 06680 01/01 92906 11103 21103 37413 47934 5//// 60512 77374 333 11095 47203 553// 20000 60045 90766 93120
AAXX 20184 06990 03/// /1505 11017 21017 39605 40171 5//// 60062 333 11018 553// 20000 69995
AAXX 20184 06760 32975 33502 10015 21034 39686 40144 5//// 83010 333 10041 30/// 553// 20000 83360 90766 93100
AAXX 20184 06720 03/// ///// 11025 21036 39596 40194 5//// 60082 333 11022 553// 20000 69915
AAXX 20184 06610 01660 82207 10021 20004 39592 40189 5//// 69952 71022 887// 333 10023 43004 553// 20000 60005 88734 90766 93100
AAXX 20181 48892 32998 50504 10265 20256 30075 40080 57002 80008 333 59002 85299
AAXX 20181 48887 11598 72901 10250 20235 30090 40096 58004 69901 70262 878// 333 58007 82895 87697
AAXX 20181 48877 11497 82502 10226 20209 30103 40108 58006 60031 76066 8372/ 333 59002 83894 88499 96160
AAXX 20181 48870 11497 83202 10220 20208 30110 40117 58011 60051 76062 8672/ 333 59012 86894 88499 96160
AAXX 20181 48920 32598 60205 10269 20259 30071 40074 58009 82208 333 58007 82895 86299
AAXX 20181 48803 32497 80000 10162 20146 30066 40182 58002 888// 333 59010 84894 88696
AAXX 20184 78062 12569 71410 10240 20166 40223 60001 85202 333 59020 85825 86075 90908
BBXX 44139 20181 99442 70571 46/// /3015 10047 40022 52012 22200 00089 10705 70027 333 91218
AAXX 20184 71188 11674 22920 11076 21151 30026 40069 52021 60001 73611 82100 333 11054 21081 70004
AAXX 20184 78062 12569 71410 10240 20166 40223 60001 85202 333 59020 85825 86075 90908
AAXX 20181 26247 27/65 /1602 10006 21011 30060 40141 57002 70000 333 10025 20006 60007 555 1/000 20006 3/000 50019
AAXX 20181 26058 27/67 02003 10009 21009 30121 40128 51006 70000 80/// 333 10033 20009 60007 80/// 91109 555 1/101 20009 3/101 50022 52000
AAXX 20181 26045 27467 42005 10019 20007 30113 40116 52009 70000 84/// 333 10036 20017 60007 84/18 91109 555 1/100 20017 3/100 50023
AAXX 20181 26115 27580 62309 10047 21001 30092 40100 52007 72100 86/// 333 10054 20035 60007 86/28 91012 91114 555 1/002 20035 3/001 50044
BBXX 44139 20181 99442 70571 46/// /3015 10047 40022 52012 22200 00089 10705 70027 333 91218
BBXX 4XFX 20184 99519 11598 41/97 60120 00/// 11046 21/// 40010 54000 77270 83/// 22254 04/// 2//// 3//// 4//// 5//// 6//// 81/// ICE /////
BBXX 4XIS 20183 99369 11739 43/98 73118 10130 20070 40160 51025 22224 80100
BBXX A8AJ4 20184 99541 11735 41997 0//// 10020 2//// 49960 52030 7//// 8//// 22264 0//// 2//// 3//// 4//// 5//// 6//// 8//// ICE /////
BBXX C6SI3 20183 99462 11769 41898 42719 10020 21010 40050 54000 70211 84465 22223 0//// 20203 327// 4//// 5//// 6//// 80010 ICE /////
BBXX LAIG7 20184 99362 11651 41797 52014 10130 20050 40140 57010 70211 8529/ 22233 00200 20503 324// 41206 5//// 6//// 80090 ICE /////
BBXX S6JU 20184 99466 11775 41898 32916 10045 21020 40145 55801 70100 82//2 22224 04050 2//// 3//// 4//// 5//// 6//// 80045
AAXX 20184 89002 42499 12504 11030 21049 39771 49825 57012 81600
AAXX 20183 41150 41957 03008 10186 20161 40219 70500 333 10203 59003
AAXX 20184 63705 32560 22904 10208 20201 38853 48507 82900 333 10268 58000 82821 81923 555 10203
BBXX SBHI 20183 99579 10183 43/98 72318 10035 40101 54000 22211 06070
AAXX 20184 91753 04485 /1008 10275 20241 30065 40097 53012 60002 700// 333 10282 20271 60007 90710 91117 555 60005
AAXX 20184 91754 01480 60604 10273 20240 30056 40097 53014 69941 702// 83202 333 60007 83819 84080 555 60005
AAXX 20184 71858 16/// /2605 10007 21037 39666 49943 58011 60001 333 10007 21059 70000
AAXX 20184 71861 46/// /2807 10007 21033 39298 40018 5/004 6///1 333 7////
AAXX 20184 71110 17/// /2914 10003 20003 39873 49933 55028 60051 7//4/ 333 10008 21088 70052 555 10060
AAXX 20184 71139 16/// /3306 10016 21041 38622 40070 53018 60001 333 10042 21075 70000
AAXX 20184 71141 16/// /3609 11299 21329 39987 40015 52014 60001 333 11278 21345 70000
AAXX 20184 71435 16/// /2013 11043 21087 39460 40059 58035 60001 333 11043 21101 70000
AAXX 20184 71443 16/// /2412 10011 21031 39556 49962 56013 60001 333 10012 21075 70000
AAXX 20184 71444 16/// /2103 11013 21047 39245 49996 57023 60001 333 11013 21134 70000
AAXX 20184 71472 17/// /2911 10056 20025 30246 40264 53016 69941 7//4/ 333 10072 20054 70022
AAXX 20184 71564 16/// /2003 10011 21060 39651 40015 56016 60001 333 10012 21102 70000
AAXX 20184 71577 46/// /2410 10006 21037 6///1 333 10006 21080 7////
AAXX 20184 71581 16/// /1902 11046 21108 39706 40199 58036 60001 333 11046 70004
AAXX 20184 71585 16/// /3306 11047 21080 39565 40017 51033 60001 333 21049 7////
AAXX 20184 71250 17/// /1804 11026 21041 39814 49949 56035 69931 7//4/ 333 11014 21026 70003
AAXX 20184 71288 16/// /3208 11307 21338 30022 40048 52010 60001 333 11305 21363 70003
AAXX 20184 71295 17/// /2206 11042 21056 39562 40008 58020 60011 7//4/ 333 11039 21089 70012
AAXX 20184 71296 16/// /1706 11029 21075 39894 40206 58036 60001 333 11015 70000
AAXX 20184 71297 16/// /0706 11008 21046 60001 333 10016 21044 70000
AAXX 20184 71299 16/// /2117 11034 21052 39806 40084 58049 60001 333 11034 21150 70000 555 10030
AAXX 20184 71407 16/// /2412 11318 21356 39949 49971 51005 60001 333 11312 21343 70000
AAXX 20184 71434 17/// /2412 11046 21060 39804 49870 56022 69991 7//4/ 333 11046 70009
AAXX 20184 71446 16/// /2811 10014 21028 39090 40064 51018 60001 333 10027 21056 70000
AAXX 20184 71120 11574 63210 10035 21009 39363 40011 53024 63301 70381 86500 333 10050 21025 42002 79999 90936
AAXX 20184 71454 16/// /2903 10011 21009 39302 49984 53018 60001 333 10020 21073 70000
AAXX 20184 71456 16/// /2712 10015 21027 39394 49985 51014 60001 333 10019 21084 70000
AAXX 20184 71459 16/// /2606 10030 21024 39261 40065 51014 60001 333 10030 21056 70000
AAXX 20184 71465 46/// /0912 10030 21001 39970 40189 58036 6///1 333 10030 20002 7////
AAXX 20184 71470 16/// /1003 11256 21282 39420 40065 53020 60001 333 11217 21261 70000
AAXX 20184 71476 16/// /2812 30218 51030 60001 333 70098
AAXX 20184 71480 16/// /1003 11217 21240 39971 40097 53010 60001 333 11191 21260 70013 555 10020
AAXX 20184 71484 16/// /3014 10064 20022 30226 40245 51016 60001 333 10083 20063 70000
AAXX 20184 71487 16/// /2913 10007 21029 39187 40049 51006 60001 333 10007 21056 70000
AAXX 20184 71492 46/// ///05 11202 21229 39348 40056 53014 6///1 333 11186 21210 7//// 555 10010
AAXX 20184 71851 16/// /2408 10011 21034 39672 40005 58008 60001 333 10013 21086 70000
AAXX 20184 71885 16/// ///// 10049 60001 333 10057 21014 70003
AAXX 20184 71886 16/// /2515 10017 21022 39389 49989 56008 60001 333 10017 21106 70000
AAXX 20184 71087 46/// /0503 11146 21166 39864 40073 53028 6///1 333 11126 21199 7////
AAXX 20184 71920 17/// /3223 10001 21061 30131 40137 53016 69971 7//4/ 333 10067 20001 70022
AAXX 20184 71752 16/// /1004 10014 21046 39989 40209 58028 60001 333 10018 21019 70000
AAXX 20184 71758 16/// /2816 11025 21071 39945 40022 53013 60001 333 10002 21096 70026
AAXX 20184 71783 16/// /3305 10075 20055 30187 40261 53006 60001 333 10077 20052 70002
AAXX 20184 71501 16/// /3502 11303 21339 30090 40092 53007 60001 333 11247 21331 70006
AAXX 20184 71522 46/// /2506 11137 21193 39672 40175 57010 6///1 333 11117 21153 7////
AAXX 20184 71837 16/// ///// 10027 60001 333 10039 20003 70000
AAXX 20184 71839 17/// ///// 10032 69941 7//4/ 333 10041 20014 70009
AAXX 20184 71840 46/// /2518 10000 21049 6///1 333 10000 21079 7////
AAXX 20184 71849 16/// /1911 11009 21045 39714 40011 58015 60001 333 11009 21082 70000
AAXX 20184 71954 46/// /3006 11017 21044 39577 49948 51006 6///1 333 11017 21103 7////
AAXX 20184 71956 16/// /1910 11019 21058 39957 40194 56033 60001 333 11019 21091 70000
AAXX 20184 71959 17/// ///// 11017 21066 69961 7//4/ 333 10020 21065 70059 555 10030
AAXX 20184 71977 46/// /0000 11230 21230 39340 40070 53012 6///1 333 11192 21236 7////
AAXX 20184 71978 46/// /0303 11269 21296 39747 40073 51006 6///1 333 11257 21288 7////
AAXX 20184 71989 16/// /0601 11374 21413 30121 40138 53008 60001 333 11312 21374 70000
AAXX 20184 71243 16/// /2617 10058 21046 39037 40102 51021 60001 333 10071 20031 70000
AAXX 20184 71246 16/// /3002 10005 21016 39377 40034 53014 60001 333 10028 21003 70003
AAXX 20184 71669 16/// /3002 10014 21059 38494 40102 53010 60001 333 10042 21009 70000
AAXX 20184 71156 16/// /2708 10031 21046 38973 40063 58005 60001 333 10042 21069 70000
AAXX 20184 71158 16/// /2005 11003 21032 39679 49952 58019 60001 333 10001 21094 70000
AAXX 20184 71159 17/// /2908 11031 21047 39884 49956 53002 60031 7//4/ 333 11020 21122 70114
AAXX 20184 71160 17/// /0404 11186 21212 39827 40046 53019 69931 7//4/ 333 11173 21193 7////
AAXX 20184 71162 16/// /3111 11145 21165 39817 40029 51020 60001 333 11112 21149 70000
AAXX 20184 71164 46/// /0701 11227 21252 30032 40116 52017 6///1 333 11225 21243 7////
AAXX 20184 71165 46/// ///03 11214 21235 39784 40075 53025 6///1 333 11157 21221 7////
AAXX 20184 71166 46/// /2401 39463 53035 6///1 333 7////
AAXX 20184 71175 16/// /3017 11016 21064 30004 40039 53020 60001 333 10027 21045 70039
AAXX 20184 71614 16/// /2906 11048 21112 30152 40219 58024 60001 333 11019 21072 70004
AAXX 20184 71015 16/// ///// 10021 60001 333 10045 21017 70000
AAXX 20184 71017 16/// /3206 11305 21336 30062 40077 53011 60001 333 11289 21351 70000
AAXX 20184 71018 16/// ///05 11282 21311 39941 40031 51005 60001 333 11231 21302 70000
AAXX 20184 71019 46/// /3018 11101 21172 39852 40160 53010 6///1 333 11040 21115 7////
AAXX 20184 71020 46/// /3302 11132 21142 39827 40085 53038 6///1 333 11042 21139 7////
AAXX 20184 71021 46/// /0000 11219 21244 39744 40107 53036 6///1 333 11154 21227 7////
AAXX 20184 71063 16/// /2805 11062 21136 30131 40233 56027 60001 333 11035 21094 70013
AAXX 20184 71713 16/// /2808 11079 21178 60001 333 11024 21088 70010
AAXX 20184 71742 46/// /1510 11056 21062 39758 49945 56034 6///1 333 11048 21108 7////
AAXX 20184 71744 16/// /2913 11058 21154 30082 40124 53019 60001 333 11034 21062 70000
AAXX 20184 71747 16/// /2211 11031 21092 39589 40069 58035 60001 333 11004 21088 70000
AAXX 20184 71311 16/// /3016 11051 21105 30097 40122 53028 60001 333 10014 21052 70038 555 10010
AAXX 20184 71317 16/// /3214 11041 21091 30057 40104 53026 60001 333 10011 21058 70035
AAXX 20184 71320 16/// /3213 11291 21318 39898 49899 51001 60001 333 11231 21300 70000
AAXX 20184 71321 16/// /3603 11180 21195 39929 49973 50002 60001 333 11109 21184 70000
AAXX 20184 71362 16/// /2803 11139 21158 39782 40040 53026 60001 333 11041 21144 70000
AAXX 20184 71365 16/// /3308 11111 21128 39870 40087 51029 60001 333 11106 21186 70000
AAXX 20184 71376 16/// /2802 11066 21145 39926 40230 58018 60001 333 11063 21126 70030
AAXX 20184 71381 46/// /2909 11117 21177 6///1 333 11098 21130 70000
AAXX 20184 71382 16/// /2006 11154 21192 39204 40179 58006 60001 333 11111 21180 70040
AAXX 20184 71393 16/// ///// 10059 21061 38826 40080 51011 60001 333 10082 20031 70000
AAXX 20184 71807 17/// /1304 11015 21018 39927 49945 56045 60021 7//4/ 333 11009 21027 70024
AAXX 20184 71435 16/// /2013 11043 21087 39460 40059 58035 60001 333 11043 21101 70000
AAXX 20184 71443 16/// /2412 10011 21031 39556 49962 56013 60001 333 10012 21075 70000
AAXX 20184 71444 16/// /2103 11013 21047 39245 49996 57023 60001 333 11013 21134 70000
AAXX 20184 71472 17/// /2911 10056 20025 30246 40264 53016 69941 7//4/ 333 10072 20054 70022
AAXX 20184 71858 16/// /2605 10007 21037 39666 49943 58011 60001 333 10007 21059 70000
AAXX 20184 71861 46/// /2807 10007 21033 39298 40018 5/004 6///1 333 7////
AAXX 20184 71120 11574 63210 10035 21009 39363 40011 53024 63301 70381 86500 333 10050 21025 42002 79999 90936
AAXX 20184 71807 17/// /1304 11015 21018 39927 49945 56045 60021 7//4/ 333 11009 21027 70024
AAXX 20184 65352 31940 70402 10300 20092 3//// 4//// 70522 80002 333 10366 5//// 87076
AAXX 20184 65361 NIL
AAXX 20184 65376 31910 70000 10300 20178 39643 40100 70522 80002 333 10337 58005 87073
AAXX 20184 65387 32458 72004 10292 20254 30063 40081 81202 333 10329 59001 81816 87073
AAXX 20184 13623 11660 80000 10050 20050 30085 40091 52004 60162 70266 885// 333 10070 88633
AAXX 20181 13492 NIL
AAXX 20181 13584 NIL
AAXX 20181 13585 12697 60000 10020 20009 39295 40097 52015 69982 84530 333 10050 94000
AAXX 20181 13597 12695 63606 10058 20015 39999 40071 52013 60022 86500 333 10112 94006
AAXX 20181 13598 11597 83403 10010 20006 48364 53004 60042 77177 8802/ 333 10055 94000
AAXX 20181 37279 32894 70901 10116 20056 30020 40163 58005 87070 333 10190
AAXX 20181 37308 327// 60000 10015 21007 39576 40242 53006 83530 333 10070
AAXX 20181 37531 325// 61402 10024 21000 39528 40268 54000 86500 333 10070
AAXX 20181 37553 326// 81801 10000 21037 39627 40297 58011 885// 333 10071
AAXX 20181 37651 16/// ///00 11011 21017 3//// 4//// 5//// 60002 333 10052
AAXX 20181 37492 NIL
BBXX SBLI 20181 99300 11715 43/98 01803 10207 40160 55009 22264 00216 2//// 4//// 426621110
BBXX SHJC 20181 99187 11160 43/97 80610 10233 40135 57017 22254 01245 2//// 4////
BBXX 9V8797 20184 99087 10764 43/97 30620 10272 40098 54002 22234 00283 2//// 4////
BBXX SMGW 20181 99350 11636 43/98 62008 10146 40139 55001 22224 00209 2//// 4////
BBXX SERW 20183 99269 70159 43/97 80518 10202 2//// 40218 54001 70222 8801/ 22252 06200 20403 302// 40804
AAXX 20184 04211 47/18 /2112 11104 21125 39851 40014 52025 77177 333 11073 21111 91136 91229
AAXX 20184 04220 05784 71011 11107 21148 39957 40010 52002 69942 333 11075 21108 55300 20004 69927 81/57 87/69
AAXX 20184 04221 45/84 /0922 11122 21238 39976 40015 54000 333 11106 21128
AAXX 20184 04231 12989 10610 11164 21235 39959 40036 57001 6///2 815// 333 11117 21167 81650
AAXX 20184 04234 45/82 /0712 11077 21197 39984 49995 57002 333 11075 21088
AAXX 20184 04241 47661 70916 11085 21134 39962 40002 57006 75477 333 11080 21094 81/43 85/59 87/63 91129
AAXX 20184 04250 07984 51109 11074 21157 39889 49996 57007 60032 70087 333 11066 21080 55300 20018 6///7 85/69 91219
AAXX 20184 04254 45782 31114 11077 21182 39893 40009 57009 333 11052 21082 81/50 81/59 83/68 91125
AAXX 20184 04260 45583 71216 11069 21172 39947 49991 57015 333 11053 21091 82/29 84/58 87/60
AAXX 20184 04270 45/84 /0905 11108 21238 39978 40018 57019 333 11092 21136
AAXX 20184 04272 05/84 0//// 11084 21160 39931 40005 57022 6///2 333 11067 21093 6///7
AAXX 20184 04312 46/// ///// 11264 21299 30019 40062 52019
AAXX 20184 04320 47/05 90000 11151 21171 30030 40046 52009 77277 333 11151 21246 89/04
AAXX 20184 04339 47/84 ///// 11100 21131 39816 49907 52008 70010 333 11082 21124 55300 20000
AAXX 20184 04360 06/// /2403 11121 21167 39862 49935 52007 6///2 333 11097 21127 55300 20000 6///7
AAXX 20184 04361 46/// /2306 11108 21197 39883 49937 52008 333 11081 21143
AAXX 20184 04390 05984 72805 11072 21125 39897 49992 57017 60212 333 11048 21074 60057 87/73
AAXX 20184 41883 31930 00000 10126 20120 30131 40152 70500 333 59012 70000
AAXX 20184 84143 32670 41816 10176 20123 37398 84200 333 59005 555 30071
AAXX 20184 84036 31568 80904 10140 20119 71542 8661/ 555 30087
AAXX 20184 84202 31570 80902 10278 20221 30133 70544 8681/ 333 58000 555 30071
AAXX 20184 84270 31550 73604 10184 20126 71622 87700 555 30069
AAXX 20184 84135 32675 73602 10302 20217 30046 85210 333 59004 555 30059
AAXX 20184 84142 31340 63204 10192 20169 70544 86200 555 30086
AAXX 20184 84179 11570 80000 10232 20197 39055 60011 72056 8681/ 333 58004 555 10012 30081
AAXX 20184 84076 31565 63204 10202 20141 71544 86400 555 30068
AAXX 20184 84056 31270 72704 10160 20078 70544 87800 555 30058
AAXX 20184 84204 31675 50504 10298 20223 70544 81159 555 30064
AAXX 20184 84160 31456 71408 10154 20099 37262 74044 85830 333 58002 555 30070
AAXX 20184 84140 32580 73604 10291 20207 30003 40088 87800 333 59004 555 30061
AAXX 20184 84226 11560 70000 10132 20132 69921 74044 87400 555 10002 30100
AAXX 20184 84088 32680 50903 10166 20096 37055 85200 333 59008 555 30063
AAXX 20184 84050 31570 80904 10265 20213 70544 8611/ 555 30073
AAXX 20184 84132 11575 70906 10270 20240 39887 60071 72164 85270 333 58012 555 10067 30084
AAXX 20184 84072 31570 71402 10198 20135 37284 70544 84330 333 59015 555 30067
AAXX 20184 84008 32680 31412 10280 20198 30105 40115 83800 00214 333 59012 555 30061
AAXX 20184 84105 31562 70402 10278 20216 39999 70542 85210 333 58000 555 30069
AAXX 20184 84173 11465 60904 10169 20095 69951 71554 84725 555 10005 30062
AAXX 20184 84045 31450 60904 10133 20128 71544 86300 555 30097
AAXX 20184 68386 36/// /0000 10238 20164 39706 48630 52023 333 10328 20237 91003 555 91024
AAXX 20184 68379 16/// /0607 10250 20127 39824 48567 52016 69922 333 10338 20249 91015 555 20002 91015
AAXX 20184 68299 36/// /0510 10148 20085 38944 48531 52015 333 10214 20148 91014 555 91020
AAXX 20181 48826 31796 80901 10186 20152 30033 40171 58006 71022 885// 333 59020 88697
AAXX 20181 48839 32697 80504 10195 20141 30103 40169 58012 885// 222// 00198 2//// 333 59014 88696
AAXX 20184 85223 31557 42815 10237 20063 37492 47132 57028 71521 84931 333 56000 59010 83827 81930 73070
AAXX 20184 85283 32584 60410 10214 20107 37196 47126 57019 85903 333 56100 58000 83823 82933
AAXX 20184 85293 32584 70610 10101 20047 36366 57016 85904 333 56600 58001 84620 81923 87070
AAXX 20184 85312 32984 20905 10320 20156 38756 57026 80001 333 56000 59014 82070
AAXX 20184 85345 32984 60508 10382 20157 39584 40038 57038 80006 333 56000 59011 86270
AAXX 20184 85364 32670 60000 10282 20148 38144 48226 57012 82232 333 56000 58010 82833 83358 85070
AAXX 20184 85365 32984 53610 10349 20197 39327 40010 57020 80004 333 56000 59009 85070
AAXX 20184 85394 32984 40000 10360 20251 39625 40039 57025 80001 333 56000 59015 84060
BBXX 44032 20181 99437 70694 46/30 /3108 11012 40195 52011 91804 22200 00089 10402 70009 333 91210 555 11097 22101
BBXX 41052 20181 99183 70648 46/// /0710 10258 40157 56023 91800 22200 00274 333 91211
BBXX 41053 20181 99185 70661 46/// /1008 10239 40165 58020 91800 22200 00274 11106 70030 333 91210
BBXX 41052 20181 99183 70648 46/// /0709 10259 40157 91750 333 91211
BBXX 41052 20181 99183 70648 46/// /0509 10255 40158 91740 333 91211
BBXX 41053 20181 99185 70661 46/// /1108 10240 40166 91750 333 91211
BBXX 41053 20181 99185 70661 46/// /0706 10250 40167 91740 333 91210
AAXX 20184 65351 32957 70804 10300 20096 3//// 4//// 80002 333 10338 5//// 87076
AAXX 20184 65355 32958 70000 10285 20105 39590 40103 8704/ 333 10340 58005 87073
AAXX 20184 65357 32960 70000 10310 20086 39705 40093 82032 333 10365 59002 82363 87076
AAXX 20184 65380 32958 70204 10286 20235 3//// 4//// 80002 333 10356 5//// 87076
AAXX 20184 60318 32560 02202 10107 20074 40287 53012 81202 333 10175 81820
AAXX 20184 64600 32960 73604 10230 20184 39447 40097 84072 333 10305 55000 58011 84365 87080
AAXX 20184 64601 32960 83606 10220 20086 38994 48503 80002 333 10285 58004 88080
AAXX 20184 64605 32960 00000 10205 20129 39350 40094 333 10297 58005
AAXX 20184 64610 32960 80000 10250 20117 3//// 4//// 80002 333 10345 5//// 88080
AAXX 20184 64650 31940 50000 10247 20188 39672 40084 70411 80002 333 10340 55095 58000 85080
AAXX 20184 64654 32960 50806 10234 20108 39527 40099 80002 333 10360 59004 85080
AAXX 20184 64655 32960 00000 10244 20154 39437 40083 333 10245 59007
AAXX 20184 64656 32960 00000 10255 20186 39523 40077 333 10345 59006
AAXX 20184 64659 NIL
AAXX 20184 64660 32960 00000 10250 20172 39549 40079 333 10335 59005
AAXX 20184 64662 32960 30000 10250 20179 39572 40073 80002 333 10352 59002 83080
AAXX 20184 64665 32960 00000 10244 20208 3//// 4//// 333 10344 5////
BBXX 42085 20181 99179 70665 46/// /0909 10270 40152 57029 91800 22200 00276 10702 70012 333 91212
BBXX 44255 20181 99473 70573 46/// /2814 10009 49954 52012 22200 00039 10705 70023 333 91216
AAXX 20181 50136 11966 83602 11211 21244 39612 40189 52012 69951 77077 8801/ 333 11180
AAXX 20181 50745 32966 02202 11160 21184 39996 40192 57001 333 11074
AAXX 20181 50774 32960 02201 11223 21243 39891 40220 57009 333 11115
AAXX 20181 50788 32970 01103 11201 21221 30135 40227 57008 333 11103
AAXX 20181 51133 NIL
AAXX 20181 51431 NIL
AAXX 20181 51747 NIL
AAXX 20181 52203 NIL
AAXX 20181 52418 NIL
AAXX 20181 52681 NIL
AAXX 20181 53564 NIL
AAXX 20181 53614 NIL
AAXX 20181 53646 32970 03204 11103 21137 38957 40370 52013 333 00252 11006
AAXX 20181 53798 NIL
AAXX 20181 53845 32962 63201 11023 21076 39182 40349 52008 86030 333 00251 10002
AAXX 20181 53959 NIL
AAXX 20181 54094 32960 02901 11196 21225 39934 40256 57004 333 11082
AAXX 20181 54102 32980 62004 11206 21237 39059 40351 52009 80002 333 11159
AAXX 20181 54161 NIL
AAXX 20181 54292 32960 02701 11178 21201 39919 40259 57005 333 11050
AAXX 20181 54374 NIL
AAXX 20181 54423 NIL
AAXX 20181 54618 NIL
AAXX 20181 54843 NIL
AAXX 20181 54909 31940 70000 11031 21044 30234 40300 52010 71000 8703/ 333 10045
AAXX 20181 56029 32980 00000 11134 21184 36421 57001 333 05551 10068
AAXX 20181 57127 NIL
AAXX 20181 57131 31956 82203 10036 20000 39827 40336 52008 71000 8807/ 333 10047
BBXX 44255 20181 99473 70573 46/// /2814 10009 49954 52012 22200 00039 10705 70023 333 91216
AAXX 20181 40706 11403 80000 11030 21040 38753 40372 54000 60001 74444 886XX 333 55000 20225 88715
AAXX 20181 40718 11556 70000 10100 20092 30299 40270 57011 60001 71022 87500 333 55012 87625
AAXX 20181 40732 12960 00000 10070 20056 30285 40260 58007 60001 333 55068
AAXX 20181 40745 12962 01602 11046 21188 39184 40407 58004 60001 333 55087 21123
AAXX 20181 40754 12960 00000 10040 21047 38936 40315 58002 60001 333 55084
AAXX 20181 40766 12960 00000 10031 21056 38767 40278 52004 60001 333 55090 21159
AAXX 20181 40800 12960 00000 10000 21039 38542 40318 53004 60001 333 55082 2////
AAXX 20181 40811 12960 00000 10128 20088 30195 40222 52009 60001 333 55085 21177
AAXX 20181 40841 12960 03003 10006 21113 38336 40319 51008 60001 333 55096 21479
AAXX 20181 40848 12962 00000 10022 21047 38587 40265 51007 60001 333 55094 21446
AAXX 20181 40856 11930 01602 11057 21417 38708 40303 58001 60001 70500 333 55094 2////
AAXX 20181 40875 11930 03403 10167 21191 30206 40218 52013 60001 70500 333 55085 21484
BBXX 42085 20181 99179 70665 46/// /1010 10269 40154 91750 333 91212
BBXX 42085 20181 99179 70665 46/// /1010 10269 40155 91740 333 91212
BBXX 44067 20181 99384 70770 46/// /2402 10111 40205 91748
BBXX VCXF 20184 99464 70484 41597 62724 10010 2000/ 49987 52025 70322 84540 22200 02025 20403 302// 40807 80005
BBXX 41037 20181 99340 70775 46/// /2603 10193 40219 58013 91800 22200 00188 333 91204
AAXX 20184 88963 11340 82306 10036 21007 39954 49985 52024 69901 77072 887// 333 56799 88708 90015 90088 90325 90662 92405 92800 93100 94070 95010 96115
AAXX 20184 88968 11102 83225 10012 20007 39938 49954 57021 69901 74454 886// 333 56799 88702 90111 90262 90290 90920 92421 92734 92851 94070 95090 96020
AAXX 20184 89034 32970 22018 11010 21096 39544 49856 57011 81072 333 56036 81360 90115 92447 92830
AAXX 20184 89053 32562 63606 10060 20036 39946 49960 52012 83710 333 56770 83720 84457 92417 94070 94477 95000
AAXX 20184 89055 11350 61812 10004 21012 39724 49968 53003 69901 71074 83630 333 56460 83708 85360 90025 90083 95170
AAXX 20184 89066 32970 40000 10070 21018 39938 49948 51004 80009 333 56004 84170 92407 94020
AAXX 20184 40101 12958 03002 10145 21001 39120 48528 50005 60001 918// 333 10213
AAXX 20184 40103 32960 21402 10126 20087 40168 52011 80002 333 10208 82070 555 10189
AAXX 20184 40100 NIL
AAXX 20184 40102 NIL
AAXX 20184 47407 11/65 71602 11100 21117 30048 40232 50008 69901 72688 872//
AAXX 20184 47409 12/70 12407 11079 21129 30159 40216 50008 69901 81200
AAXX 20184 47418 12986 00206 11104 21136 30169 40222 50008 60001
AAXX 20184 47421 17/70 /2404 11038 21088 30179 40224 50002 69901 77170
AAXX 20184 47430 12/65 70204 11060 21100 30172 40229 50001 60001 872//
AAXX 20184 47570 17/70 /1903 11020 21034 39983 40254 50000 69901 70070
AAXX 20184 47575 11/60 61604 11039 21050 30230 40235 50000 69951 72682 86200
AAXX 20184 47584 11/65 71603 11026 21057 30041 40239 53001 69901 70282 872//
AAXX 20184 47604 11/65 71802 10011 21011 30237 40246 58005 69901 70282 872//
AAXX 20184 47605 11/65 71107 10025 20004 30191 40234 57001 69951 78081 872//
AAXX 20184 47610 12/70 63202 11028 21042 39727 40253 57003 60001 86200
AAXX 20184 47624 12980 13505 10007 21062 30096 40241 50000 60001 80001
AAXX 20184 47629 12980 03303 11021 21047 30198 40238 58001 60001
AAXX 20184 47636 12/65 73604 10038 21002 30171 40242 58004 60001 8157/
AAXX 20184 47651 13/// /2906 10034 20000 30220 40243 55005 60001
AAXX 20184 47655 15/70 /2709 10054 21036 30169 40227 58003 60001
AAXX 20184 47675 15/70 /0608 10061 20013 30137 40231 53004 60001
AAXX 20184 47741 11/60 83103 10045 20035 30213 40241 58002 69901 78082 882//
AAXX 20184 47746 11/65 71204 10032 20019 30220 40240 58006 60011 70282 8583/
AAXX 20184 47750 11360 82304 10037 20025 30216 40245 50000 69901 70282 882//
AAXX 20184 47765 12970 60104 10041 21007 30182 40250 58001 60001 80002
AAXX 20184 47772 12970 70103 10046 20008 30141 40245 56002 60001 8707/
AAXX 20184 47800 15/81 /3402 10040 21008 30251 40256 56004 60001
AAXX 20184 47815 12/65 71804 10036 21006 30238 40255 56003 60001 81131
AAXX 20184 47817 12965 71102 10069 20020 30210 40255 56001 60001 8703/
AAXX 20184 47830 11/70 73106 10070 20000 30222 40241 57006 69901 72162 8557/
AAXX 20184 47887 12/70 51005 10042 21012 30208 40251 58002 60001 81531
AAXX 20184 47891 11/70 72103 10060 21001 30227 40244 50000 69901 70282 81832
AAXX 20184 47895 12975 72909 10064 21017 30233 40241 50001 60001 83032
AAXX 20184 47927 11/70 21106 10194 20163 30122 40171 57015 69901 70261 82200
AAXX 20184 47401 12/70 12004 11060 21097 30194 40209 50003 60001 81200
AAXX 20184 47412 12/75 12003 11083 21126 30191 40225 50006 60001 81100
AAXX 20184 47420 17/70 /3308 11023 21061 30172 40207 50007 69901 70070
AAXX 20184 47426 15/70 /3608 11066 21133 30169 40219 50007 60001
AAXX 20184 47582 11/60 70104 11006 21052 30210 40238 58002 69901 78582 873//
AAXX 20184 47590 12/70 13204 11010 21035 30185 40241 50002 60001 81200
AAXX 20184 47600 17/70 /2104 10016 20005 30227 40235 56008 69901 70060
AAXX 20184 47648 12/80 70209 10074 20002 30194 40229 58003 60001 8217/
AAXX 20184 47662 12/70 63104 10041 21068 30194 40240 53002 60001 86800
AAXX 20184 47678 15/70 /2907 10105 20016 30036 40225 53005 69901
AAXX 20184 47740 15/83 /3107 10040 20009 30195 40230 57007 60001
AAXX 20184 47778 15/70 /0204 10075 20016 30149 40234 58004 60001
AAXX 20184 47807 12970 71404 10058 20006 30233 40252 58005 60001 80002
AAXX 20184 47827 12970 73306 10087 20021 30204 40243 56007 60001 86072
AAXX 20184 47843 15/82 /2103 10072 20031 30221 40254 50000 60001
AAXX 20184 47893 12/65 72903 10050 20004 30238 40244 56002 60001 81132
AAXX 20184 47909 12970 71704 10126 20102 30207 40217 56015 60001 87030
AAXX 20184 47918 12/70 71111 10216 20168 30145 40162 58014 60001 8687/
AAXX 20184 47936 12/75 70809 10192 20120 30128 40187 58016 60001 8283/
AAXX 20184 47945 11/65 20713 10202 20137 30163 40187 58012 69901 70182 82200
AAXX 20184 47971 11/65 80608 10184 20110 30197 40207 55006 69901 78082 882//
AAXX 20184 47991 16/// /0115 10233 20206 30138 40148 55006 69901
AAXX 20181 48830 32797 80000 10116 20109 39874 40189 57006 885// 333 59018 88697 96122
AAXX 20181 48808 32498 80000 10128 20114 39898 40189 58004 888// 333 59011 83894 88696
AAXX 20184 48552 31458 60000 10233 20216 30088 40094 57011 71022 82206 333 59005
BBXX VCXF 20184 99464 70484 41597 62724 10010 2000/ 49987 52025 70322 84540 22200 02025 20403 302// 40807 80005
AAXX 20184 48440 31957 00000 10210 20178 30060 40111 57011 71000 333 59012
AAXX 20184 61091 32960 20000 10225 20089 39681 40145 80002 333 10315 58004 82080
AAXX 20184 61091 32960 20000 10225 20089 39681 40145 80002 333 10315 58004 82080
AAXX 20181 08501 32/// /1708 10176 20137 30222 40258 57004 333 10179 91013 91113
AAXX 20181 08505 32575 71307 10176 20109 30241 40291 57007 87800 333 10178 81825 87640
AAXX 20181 08509 32560 71505 10164 20115 30242 40307 57006 878// 333 10171 81825 87635
AAXX 20181 08512 32/// /1404 10154 20120 30225 40311 52003 333 10169 91006 91107
AAXX 20181 08515 32584 71003 10168 20128 30186 40308 55001 878// 333 10180 81823 87636 910// 911//
AAXX 20181 08533 32/// /0205 10123 20073 30282 40311 52007 333 10152
AAXX 20181 08541 32/// /3402 10106 20084 30197 40319 52009 333 10142 91106
AAXX 20181 08545 11330 80902 10115 20098 30243 40327 52007 60002 72022 888// 333 10130 82707 85710 85630 96010
AAXX 20181 08548 32/// /0000 10117 20092 30114 40322 52001 333 10131
AAXX 20181 08554 32965 33201 10122 20041 30301 40311 52007 80001 333 10154 83080
AAXX 20181 08558 32/// /3303 10092 20055 30014 40314 52009 333 10157
AAXX 20181 08560 31465 83101 10095 20079 39558 40325 52008 70322 884// 333 10119 83814 86615
AAXX 20181 08567 32/// /9902 10102 20083 39653 40325 52011 333 10110 91105
AAXX 20181 08570 31975 12602 10111 20057 39844 40308 52006 70111 80001 333 10154 81099
AAXX 20181 08575 32/// /2805 10097 20072 39486 40304 52009 333 10113 91009 91109
AAXX 20181 08579 NIL
BBXX FLAO 2018/ 99764 70847 46/// ///// 11213 40020 52005
AAXX 20184 78062 12569 71410 10240 20166 40223 60001 85202 333 59020 85825 86075 90908
AAXX 20184 43400 NIL
AAXX 20184 43404 NIL
AAXX 20184 43410 NIL
AAXX 20184 43413 NIL
AAXX 20184 43415 NIL
AAXX 20184 43418 21460 80509 10258 20235 3//// 4//// 75065 8472/ 333 5//// 60047 81712 83816 87458
AAXX 20184 43421 21460 83604 10239 20235 39999 40101 72582 8412/ 333 58010 69957 84818 88460
AAXX 20184 43422 NIL
AAXX 20184 43424 21468 50405 10238 20227 30086 40090 70282 82131 333 59012 60007 82816 83360
AAXX 20184 43436 21470 80508 10258 20246 30096 40091 75085 8517/ 333 59008 69997 85818 88460
AAXX 20184 43441 NIL
AAXX 20184 43444 21470 81405 10220 20202 39560 40094 70282 8412/ 333 59012 69907 84818 88460
AAXX 20184 43467 22460 40506 10244 20223 30080 40085 84100 333 59009 60007 84816
AAXX 20184 43473 21470 60914 10142 20133 38117 48487 70282 86200 333 59005 69907 86810
AAXX 20184 43475 NIL
AAXX 20184 43476 NIL
AAXX 20184 43479 NIL
AAXX 20184 43486 21/30 90000 10234 20231 39991 40085 71084 333 59005 60007
AAXX 20184 43495 22460 3//// 10250 20232 30074 40090 83100 333 59012 60007 83818
AAXX 20184 43497 21470 83607 10244 20229 30066 40083 70262 8317/ 333 59006 69907 83818 87458
AAXX 20181 44214 32998 03601 11204 21257 38431 40615 58003
AAXX 20181 44231 329// 02902 11158 21246 38835 40499 58003
AAXX 20181 44259 NIL
AAXX 20181 44277 NIL
AAXX 20181 44288 32999 02804 11158 21238 38234 40472 52005
AAXX 20181 44292 41899 22801 11211 21229 38765 40430 58005 70171 82040
AAXX 20181 44304 329// 52704 11228 21268 39037 40386 52007 85070
AAXX 20181 44354 329// 03210 11172 21206 39166 40375 52019
AAXX 20181 44373 32999 02703 11178 21240 38628 40463 51007
AAXX 20181 01271 17/34 01202 11021 21031 39995 40017 54000 60002 710// 333 10027 91105
AAXX 20181 01415 17663 61402 10007 21003 30035 40046 53014 6//// 754// 333 10023 91106
AAXX 20184 61974 11468 30000 10265 20244 40122 60002 71591 83800 333 10327 55105 58003 83817
AAXX 20184 61986 12470 10707 10282 20251 40128 60002 81200 333 10318 58003 81818
AAXX 20184 61988 12470 51213 10247 20196 40160 60002 83802 333 10281 55051 58007 83818 83075 91127
AAXX 20184 61989 12470 41115 10246 20207 40166 60002 83802 333 10290 58/// 82818
AAXX 20184 61990 11468 60203 10264 20245 40136 69962 72511 85902 333 10302 55115 58008 819// 85816 91118
AAXX 20184 61995 12470 50805 10237 20225 39659 60002 85202 333 10297 55113 58007 85818
AAXX 20183 87007 31565 71402 10177 20018 36738 47139 56013 71511 83926 333 56777 57970 81830 82945 86270
AAXX 20183 87148 31956 20918 10404 20101 39945 40048 58024 70500 80001 333 56000 82070
AAXX 20184 87022 32960 40908 10376 20136 39523 40006 57023 80008 333 56001
AAXX 20184 87046 32565 20712 10340 20132 39050 48455 57019 82160 333 56000 82830
AAXX 20184 87047 32568 20709 10312 20134 38748 48471 57019 81203 333 56100 57893 81825
AAXX 20184 87097 32970 00512 10360 20111 39789 40092 57023
AAXX 20184 87121 32665 30509 10398 20167 39517 49999 57021 81303 333 56606 57961 81940
AAXX 20184 87129 32962 03614 10417 20112 39802 40021 57024
AAXX 20184 87155 31962 20512 10404 20083 30006 40065 58019 70410 80006 333 56007 82270
AAXX 20184 87162 31960 03606 10400 20093 39999 40066 58024 70400
AAXX 20184 87166 31958 00212 10400 20102 39996 40065 57019 70400
AAXX 20184 87178 31660 12908 10381 20076 39940 40080 57021 70500 81100 333 56000 81835
AAXX 20184 87217 32970 09006 10417 20168 39515 49972 57027
AAXX 20184 87222 32770 10220 10395 20101 39490 49978 57015 81410 333 56660 81650
AAXX 20184 87257 32560 33612 10423 20075 39945 40039 57025 83200 333 56700 83830
AAXX 20184 87270 31550 20504 10403 20116 30001 40060 57025 70511 81170 333 56550 81830
AAXX 20184 87289 31958 43213 10394 20126 39989 40069 57019 70510 84080 333 56060 84360
AAXX 20184 87311 32965 01610 10369 20094 39357 49997 57029
AAXX 20184 87320 NIL
AAXX 20184 87328 32780 23220 10397 20048 39393 40002 57011 82200 333 56000 57821 82850 95000
AAXX 20184 70133 32566 41114 11106 21128 39990 49997 51015 91753 333 11022 21106 555 92018
AAXX 20184 70174 32466 80000 11122 21139 39809 40060 53008 91753 333 11122 21172 4/074 555 92018
AAXX 20184 70200 12966 01012 11061 21067 39944 49949 53013 69901 91753 333 11028 21061 555 92018
AAXX 20184 70219 32766 80311 11050 21083 39854 49910 58040 91753 333 11022 21061 555 92018
AAXX 20184 70231 32666 40000 11150 21167 39901 40032 58018 91753 333 11089 21161 4/107 555 92018
AAXX 20184 70261 11561 82103 11072 21083 39891 40071 53019 69931 771// 91753 333 11067 21111 555 92018
AAXX 20184 70267 32166 82604 11094 21106 39592 40087 53025 91753 333 11072 21094 555 92018
AAXX 20184 70271 32766 42305 11089 21111 39509 40115 51027 91753 333 11089 21156 555 92018
AAXX 20184 70273 12666 21408 10000 21044 30017 40075 58003 69901 91753 333 10006 21011 4/046 555 92018
AAXX 20184 70316 11464 82836 10011 21011 39844 49879 53078 69981 771// 91753 333 10033 21055 91051 555 92018
AAXX 20184 70326 12666 81226 10028 21011 39862 49875 58044 69931 91754 333 10033 21022 4/010 91034 555 92018
AAXX 20184 70340 11659 80921 10017 21006 39911 49971 58058 69901 771// 91753 333 10022 21028 91032 96010 555 92018
AAXX 20184 70350 11128 80812 10011 20000 39969 40012 58047 60071 771// 91753 333 10033 20006 4/008 96010 555 92018
AAXX 20184 70361 11116 60404 11022 21028 30158 40168 51037 60021 710// 91753 333 10011 21028 555 92018
AAXX 20184 70381 11166 80000 10011 20011 30159 40169 53042 60021 779// 91753 333 10028 20011 96079 555 92018
AAXX 20184 70414 35566 22609 11028 21078 39934 49970 53004 91756 333 11011 555 92018
AAXX 20184 82586 NIL
AAXX 20184 82678 NIL
AAXX 20184 82784 NIL
AAXX 20184 82791 NIL
AAXX 20184 82983 NIL
AAXX 20184 83096 32695 20916 10293 20233 30114 40121 82100 333 58002
AAXX 20184 83186 32598 50907 10309 20180 39564 40087 83201 333 58005
AAXX 20184 83236 NIL
AAXX 20184 83242 32497 71806 10312 20205 39618 40105 82702 333 58009
AAXX 20184 83288 32998 51804 10314 20204 39598 40082 80002 333 58007
AAXX 20184 83344 32598 61405 10263 20198 39157 40118 82206 333 58010
AAXX 20184 83437 NIL
AAXX 20184 83550 31897 7//// 10294 20226 30087 40116 70211 87070 333 58011
AAXX 20184 83552 NIL
AAXX 20184 83565 NIL
AAXX 20184 83579 NIL
AAXX 20184 83592 NIL
AAXX 20184 83623 NIL
AAXX 20184 83630 NIL
AAXX 20184 83676 NIL
AAXX 20184 83698 32999 03603 10330 20212 30087 40101 56018
AAXX 20184 83702 NIL
AAXX 20184 83704 NIL
AAXX 20184 83716 NIL
AAXX 20184 83726 NIL
AAXX 20184 83738 31698 60904 10310 20180 39610 40097 57010 71520 869//
AAXX 20184 NIL
AAXX 20184 83384 NIL
AAXX 20184 83386 NIL
AAXX 20184 83388 NIL
AAXX 20184 83393 NIL
AAXX 20184 83442 NIL
AAXX 20184 83479 NIL
AAXX 20184 83483 NIL
AAXX 20184 83531 NIL
AAXX 20184 83538 NIL
AAXX 20184 83574 NIL
AAXX 20184 83582 NIL
AAXX 20184 83595 NIL
AAXX 20184 83687 NIL
AAXX 20184 83692 NIL
AAXX 20184 83695 32698 22304 10326 20211 39976 40110 57014 81230
AAXX 20184 83718 NIL
AAXX 20184 NIL
AAXX 20184 NIL
AAXX 20184 NIL
AAXX 20184 82392 NIL
AAXX 20184 82583 NIL
AAXX 20184 82594 NIL
AAXX 20184 82683 NIL
AAXX 20184 82780 NIL
AAXX 20184 82789 NIL
AAXX 20184 82795 NIL
AAXX 20184 82879 NIL
AAXX 20184 82893 NIL
AAXX 20184 82979 32498 3//07 10331 20165 39639 40080 83100 333 59005
AAXX 20184 82986 32598 50910 10349 20168 39803 40081 83230 333 58003
AAXX 20184 83179 32598 51403 10344 20163 39625 40064 85200 333 58002
AAXX 20184 83192 32597 51408 10349 20112 39938 40099 84240 333 58001
AAXX 20184 83339 32497 41405 10281 20172 39140 40087 83230 333 58008
AAXX 20184 83498 32595 83607 10280 20238 30134 40139 82211 333 58034
AAXX 20181 30372 41999 80504 11215 21292 39336 40273 52023 70272 8807/
AAXX 20181 30433 42999 03501 11220 21287 39710 40361 52016
AAXX 20181 30554 429// 33102 11218 21258 39114 40290 52014 80001
AAXX 20181 30635 428// 80203 11145 21188 39720 40327 52010 86052
AAXX 20181 30673 41999 03203 11235 21241 39386 40218 52015
AAXX 20181 30692 41595 80704 11214 21232 39668 40200 52/// 77372 8802/
AAXX 20181 30758 42684 82902 11162 21232 39409 40284 52017 83531
AAXX 20181 30802 41698 82304 11112 21174 38766 48543 58006 71522 83931 333 91117 95700
AAXX 20181 30823 42999 72604 11157 21199 39684 40364 52005 85032
AAXX 20181 30879 41999 00000 11283 21300 39390 40230 53001 70171
AAXX 20181 30935 41697 82402 11140 21160 39363 40354 52008 77172 8257/
AAXX 20181 30949 42999 03204 11153 21213 39142 40297 52012
AAXX 20181 30965 429// 23504 11175 21201 39366 40243 52015 80002
AAXX 20181 31168 42999 03602 11212 21260 30168 40180 52009
AAXX 20181 31300 41966 80000 11191 21197 39890 40200 56011 77172 8802/
AAXX 20181 31329 42999 40000 11359 21386 39532 40300 58004 80001
AAXX 20181 31369 42998 00000 11261 21279 30124 40217 52001
AAXX 20181 31416 42999 00000 11345 21362 30130 40232 52005
AAXX 20181 31484 42999 03201 11234 21259 39858 40226 53002
AAXX 20181 31512 419// 01401 11241 21267 30003 40185 57011 71011
AAXX 20181 31538 42998 00202 11303 21321 39784 40271 54000
AAXX 20181 31707 42998 40000 11233 21251 30129 40230 58006 80001
AAXX 20181 31735 42997 01703 11206 21239 30147 40244 58005
AAXX 20181 31770 42983 02302 11224 21264 30198 40231 52005
AAXX 20184 82143 NIL
AAXX 20184 82599 32570 41213 10295 20219 30045 40105 84100 333 59002
AAXX 20184 82824 42460 60000 10295 20235 39999 40099 86410 333 59024
AAXX 20184 82899 32570 31410 10286 20213 30110 40122 83200 333 59008
AAXX 20184 83117 NIL
AAXX 20184 83248 32470 61011 10286 20229 30110 40132 82102 333 59010
AAXX 20184 83746 32570 41112 10328 20203 30076 40086 56018 83201
AAXX 20184 88878 46/// /2621 10155 20080 49954 52010
AAXX 20184 88883 46/// /2913 10173 20046 49953 52004
AAXX 20184 82022 32570 40814 10337 20180 39992 40087 84200 333 59006
AAXX 20184 82193 32570 43410 10301 20244 30070 40088 84200 333 59003
AAXX 20184 82281 32570 20415 10321 20193 30020 40081 82200 333 59011
AAXX 20184 82332 32570 30508 10325 20233 39985 40077 83100 333 59005
AAXX 20184 82398 32570 30914 10290 20222 30064 40093 83100 333 59006
AAXX 20184 82400 32470 31510 10277 20242 30046 40111 83100 333 59001
AAXX 20184 82579 32570 22403 10372 20195 39994 40069 82200 333 59005
AAXX 20184 82917 32570 63605 1//// 2//// 39872 40068 85230 333 59006
AAXX 20184 82965 31520 70612 10265 20218 39765 40092 71711 87934 333 59005
AAXX 20184 82993 32570 41113 10285 20218 39990 40126 83130 333 59015
AAXX 20184 83208 32570 73009 10245 20215 39411 48530 85230 333 58005
AAXX 20184 83349 32570 60508 10294 20224 30127 40133 82231 333 58008
AAXX 20184 83362 32570 51803 10315 20204 39871 40084 84130 333 58011
AAXX 20184 83378 21556 71208 10212 20184 38961 48520 71662 85210 333 58011 60061
AAXX 20184 83460 32570 20715 10271 20217 30069 40125 82100 333 58008
AAXX 20184 83497 NIL
AAXX 20184 83566 32570 60305 10236 20179 39208 48520 84530 333 58013
AAXX 20184 83599 NIL
AAXX 20184 83612 32970 62705 10323 20161 39471 48530 57026 83204
AAXX 20184 83649 32570 60211 10320 20224 30115 40120 56020 82230
AAXX 20184 83650 NIL
AAXX 20184 83780 32770 33207 10305 20108 39215 48520 56017 83100
AAXX 20184 83827 32970 00607 10361 20039 39817 40088 56022
AAXX 20184 83840 32970 52210 10299 20041 39106 48510 57015 85500
AAXX 20184 83899 32970 01009 10305 20218 30087 40093 55000
AAXX 20184 83925 NIL
AAXX 20184 83970 NIL
AAXX 20184 83971 32970 23108 10356 20129 30070 40073 57027 82100
AAXX 20184 NIL
AAXX 20181 38598 429// 02705 11098 21129 40473 57004
AAXX 20181 38599 NIL
AAXX 20181 38725 429// 30904 11127 21287 48560 57013 80001
AAXX 20181 38734 416// 20906 11178 21228 47050 54000 70231 82500
AAXX 20181 38744 415// 80000 11136 21156 38080 48610 57003 78582 889//
AAXX 20181 38836 126// 60000 11114 21109 39417 40441 57006 60010 83901 333 11013
AAXX 20181 38838 429// 00000 11117 21137 39703 40437 57004
AAXX 20181 38844 NIL
AAXX 20181 38846 419// 40503 11132 21142 38660 48570 57002 71010 82033
AAXX 20181 38847 NIL
AAXX 20181 38932 NIL
AAXX 20181 38933 129// 00000 11060 21111 39873 40425 57015 69900 333 10001
AAXX 20181 38944 329// 03602 11051 21065 39708 40274 57008 333 10001
AAXX 20181 38954 329// 00000 11081 21229 37978 48590 53005 333 11002
AAXX 20184 NIL
AAXX 20181 38598 429// 02705 11098 21129 40473 57004
AAXX 20181 38599 NIL
AAXX 20181 38725 429// 30904 11127 21287 48560 57013 80001
AAXX 20181 38734 416// 20906 11178 21228 47050 54000 70231 82500
AAXX 20181 38744 415// 80000 11136 21156 38080 48610 57003 78582 889//
AAXX 20181 38836 126// 60000 11114 21109 39417 40441 57006 60010 83901 333 11013
AAXX 20181 38838 429// 00000 11117 21137 39703 40437 57004
AAXX 20181 38844 NIL
AAXX 20181 38846 419// 40503 11132 21142 38660 48570 57002 71010 82033
AAXX 20181 38847 NIL
AAXX 20181 38932 NIL
AAXX 20181 38933 129// 00000 11060 21111 39873 40425 57015 69900 333 10001
AAXX 20181 38944 329// 03602 11051 21065 39708 40274 57008 333 10001
AAXX 20181 38954 329// 00000 11081 21229 37978 48590 53005 333 11002
AAXX 20181 22028 31581 62207 11021 21033 39961 49999 52003 70232 82531 333 11010 91009 91110
AAXX 20181 22106 11597 80000 11045 21054 39926 40005 52008 69922 78582 889// 333 11032 85924
AAXX 20181 22127 31995 53301 11127 21140 39812 40022 52007 72841 85030 333 11016 91001 93503
AAXX 20181 22324 11584 82203 11007 21010 39985 40035 52009 60032 70282 86931 333 10005 91005 93603
AAXX 20181 22621 11496 81904 10006 20001 39926 40066 52011 60032 78582 889// 333 10010 85911
AAXX 20181 22831 11497 71603 10060 21019 30084 40145 52007 60012 70282 87900 333 10011
AAXX 20181 22892 11497 82308 10022 20014 30085 40101 52014 60162 78082 889// 333 10032 87713 91113
AAXX 20181 26275 32998 01702 11027 21040 30133 40164 58005 333 10015
AAXX 20181 26389 31596 71002 11026 21033 39899 40170 58019 71011 87500 333 11018
AAXX 20181 26499 32297 80902 11032 21036 39942 40178 57022 886// 333 11010 88704
AAXX 20181 26695 11296 81003 11018 21029 39839 40153 57032 69952 77172 8672/ 333 11011 86703
AAXX 20181 26882 11330 80803 11014 21022 39838 40118 57027 60032 77372 8872/ 333 11003 88708
AAXX 20181 50468 32970 50000 11242 21261 39959 40185 57012 80002 333 11136
AAXX 20181 50953 32965 02501 11149 21179 30021 40210 57010 333 11067
AAXX 20181 53588 32980 02908 11132 21245 37791 57002 333 11091
AAXX 20181 53772 31920 00000 11053 21094 39372 40330 52008 71000 333 10031
AAXX 20181 57083 31912 70000 11013 21040 30161 40303 52004 71000 8703/ 333 10032
AAXX 20181 22271 11496 81907 11006 21021 30040 40050 52001 69930 78583 883// 333 10006
AAXX 20181 22520 11396 81902 10006 20003 30034 40043 52010 69942 78582 889// 333 10007 88707
AAXX 20181 22550 11467 61904 10005 21018 30094 40104 52004 60010 72687 82960 333 10012
AAXX 20181 22583 11483 71803 11005 21023 30073 40154 52002 60020 72688 875// 333 10003 87617
AAXX 20181 22768 32897 21906 11012 21052 30127 40184 53011 82070 333 10023 91112
AAXX 20181 22845 12598 72004 11022 21047 30015 40174 52005 69900 875// 333 10007 87620
AAXX 20181 22887 12597 71605 11016 21053 30168 40239 50001 69900 82531 333 10009 91109
AAXX 20181 23205 11296 82205 11011 21030 30084 40099 57012 69930 78583 889// 333 11024 87704 91110
AAXX 20181 23219 NIL
AAXX 20181 23418 11434 81906 11041 21067 30145 40221 57002 69930 77373 8552/ 333 11042 85618
AAXX 20181 23606 11460 82006 11044 21067 30067 40244 58002 69930 73632 885// 333 11043 88610
AAXX 20181 23711 11497 81804 11070 21099 30119 40300 58001 69900 77173 884// 333 11065
AAXX 20181 23804 11997 52103 11076 21098 30119 40274 57007 69920 73673 85030 333 11041
AAXX 20181 27037 32998 21502 11042 21061 30053 40219 57007 80001 333 10008
AAXX 20181 27199 11496 81704 11097 21109 30122 40331 57021 69900 77173 8872/ 333 11091
AAXX 20181 27271 31997 81205 11075 21084 30122 40286 57013 77172 8802/ 333 11012
AAXX 20181 27459 11296 81304 11073 21086 30054 40259 57023 60010 77172 8872/ 333 11029 88704
AAXX 20181 27730 11496 81303 11046 21059 39999 40200 57023 60030 76676 8802/ 333 11015 88711
AAXX 20184 78526 12564 81013 10239 20211 30153 40176 58020 60021 91756 333 10272 20228 91016 555 92018
AAXX 20184 78543 12766 40213 10256 20206 30088 40169 58024 69901 91753 333 10278 20233 555 92018
AAXX 20181 26997 11422 81003 11001 21004 39886 40107 57018 60122 77177 8872/ 333 10004 87710
AAXX 20181 27595 12697 81503 11076 21111 30196 40353 57012 69920 885// 333 11084
AAXX 20181 27612 114// 81602 11025 21044 39989 40188 57020 69942 77172 887// 333 11002
AAXX 20181 27707 11422 80904 11033 21034 39841 40142 57024 60042 77177 8872/ 333 11017 87717
AAXX 20181 27719 11497 81002 11039 21047 39914 40172 57025 60062 77172 8572/ 333 11019
AAXX 20181 27786 12497 81404 11074 21113 30171 40341 57011 69930 8355/ 333 11077
AAXX 20181 27857 11497 81406 11075 21092 30074 40245 57019 60080 72452 886// 333 11054 88714 91113 93401
AAXX 20181 27906 11497 81006 11002 21011 39877 40122 57026 60102 78082 889// 333 11002 93402
AAXX 20181 27928 11396 81402 11020 21026 39961 40173 57014 60030 71065 886// 333 11006 93403
AAXX 20181 27947 11497 81407 11056 21070 30057 40223 57021 60020 76676 8872/ 333 11022 88710 93404
AAXX 20181 27962 11597 81309 11084 21121 40291 57023 69920 73632 885// 333 11076 88628
AAXX 20181 27983 12467 81604 11081 21113 30214 40350 57013 60020 886// 333 11080 88719
AAXX 20181 27995 12972 81504 11075 21115 40366 57015 60020 8801/ 333 11070
AAXX 20181 28506 12997 81503 11057 21124 30261 40381 57022 60010 8807/ 333 11064
AAXX 20181 28704 11498 81707 11070 21103 30267 40369 57012 60010 73632 8802/ 333 11069 88511 91011 91112
AAXX 20181 28711 11697 81807 11076 21142 39998 40395 57020 69950 73632 8555/ 333 11077 85640 91012 91114
AAXX 20181 28807 12597 81406 11068 21125 30333 40387 57014 69970 8357/ 333 11068
AAXX 20181 34009 11/93 91204 10001 20001 39813 40121 57015 60082 74584 333 10001
AAXX 20181 34110 11497 81705 10001 21005 39854 40135 57015 69982 70252 886// 333 10003 88714
AAXX 20181 34123 11296 81305 11017 21022 39986 40175 58020 60030 71062 886// 333 10003 88706 93402
AAXX 20181 34152 12470 81205 11060 21068 30045 40250 57017 69900 889// 333 11046 93400
AAXX 20181 34163 32498 80904 11085 21108 40301 57018 885// 333 11086 88619
AAXX 20181 34171 11560 81306 11080 21116 30099 40303 57018 69900 70272 8657/ 333 11082 86626
AAXX 20181 34186 31975 81509 11093 21128 30195 40343 57013 73632 8802/ 333 11079 91012 91113
AAXX 20181 34247 31557 81305 11016 21021 30086 40203 57021 71022 885// 333 11009 88621
AAXX 20181 34336 32497 81104 11003 21009 30083 40189 57022 8572/ 333 10004
AAXX 20181 34391 32997 61605 11088 21112 30307 40340 57007 86070 333 11066
AAXX 20181 35011 32984 81407 11091 21153 40444 57011 8705/ 333 11076 91113
AAXX 20181 35121 31998 51604 11103 21158 30323 40481 57015 70232 85030 333 11086
AAXX 20184 91165 31559 60417 10220 20190 30162 761// 91757 333 91023 555 92018
AAXX 20184 91182 12566 60308 10239 20178 30174 40180 53028 69901 91753 333 10256 20228 555 92018
AAXX 20184 91190 31566 40511 10217 20178 30158 40178 53016 761// 91754 333 10233 20211 91017 555 92018
AAXX 20184 91212 32766 20810 10261 20233 31353 40088 56013 91754 333 10294 20250 555 92018
AAXX 20184 91285 12666 82504 10206 20189 30154 40168 53009 60071 91753 333 10217 20194 555 92018
AAXX 20184 91245 32566 40611 10260 20220 30150 91755 555 92018
AAXX 20181 20107 11597 80302 11052 21102 39996 40093 52005 69902 70282 885// 333 11047 91004
AAXX 20181 22113 11468 71905 11025 21038 39938 40001 52010 69922 78582 87900 333 11019 91007
AAXX 20181 22217 11365 81702 11012 21014 39991 40023 52010 60022 78582 889// 333 11001 85709 91003 93727
AAXX 20181 22235 11381 82102 11013 21018 39836 40032 52009 60012 70282 885// 333 11003 86708 91004
AAXX 20181 22349 11596 82209 10011 20000 30031 40043 52002 60022 78582 889// 333 10020 91011 91113
AAXX 20181 22408 32282 82101 11010 21012 39895 40045 52015 886// 333 11010 88705
AAXX 20181 22602 11358 82402 10002 21001 39828 40054 52017 69962 77172 8872/ 333 10003 88708
AAXX 20181 22619 11481 62402 10009 20001 39913 40074 52017 60022 70282 86500 333 10011 86616
AAXX 20181 22721 11496 81501 10009 20004 39986 40087 51010 60052 77172 8872/ 333 10013 86710
AAXX 20181 22802 11566 82204 10018 20007 30078 40101 52018 60012 78082 889// 333 10029
AAXX 20181 22820 11984 72105 10003 21014 39977 40117 52012 69932 70272 87030 333 10011 91113
AAXX 20181 26059 32597 61803 10011 21015 30109 40134 51004 86500 333 10039 86632
AAXX 20181 26063 32997 22104 10013 21022 30127 40135 52008 82030 333 10036
AAXX 20181 26094 32970 01702 11024 21043 30087 40164 54000 333 10020
AAXX 20181 26157 32997 01804 11014 21031 30089 40140 51001 333 10030
AAXX 20181 26167 32470 82002 11010 21036 30041 40155 52001 886// 333 10016 88714
AAXX 20181 26258 32998 80000 11019 21034 30097 40153 58004 8802/ 333 10018
AAXX 20181 26298 31396 81502 11033 21037 39948 40185 57012 71011 886// 333 11003
AAXX 20181 26359 32983 01301 11031 21045 30020 40158 57009 333 10010
AAXX 20181 26702 31596 00000 11022 21028 30104 40130 54000 71011 333 10023 91000 91101
AAXX 20181 26781 11296 80703 11014 21019 39832 40131 57024 69992 77172 8802/ 333 10000 88505
AAXX 20181 27208 31/93 90701 11055 21055 30005 40188 58018 74742 333 11009
AAXX 20181 27402 32297 80902 11030 21034 30006 40191 57018 886// 333 11008 88705
BBXX VRHO2 20184 99310 11310 41997 33013 10140 20085 40240 54000 70100 80001 22255 02210 20101 303// 40401 5//// 6//// 80110 ICE /////
BBXX WFLH 20183 99311 71302 43498 60225 10172 20094 40235 52002 7//// 861// 22213 00161 20502 334// 41009 5//// 6//// 80128 ICE /////
BBXX NWS0022 20184 99416 70714 43/// /0112 10075 21024 40197 5//// 7//// 8//// 222// 04109 2//// 3//// 4//// 5//// 6//// 8//// ICE /////
BBXX V7MO2 20184 99262 70914 41397 81511 10235 20205 40151 57008 7//11 8811/ 22200 00232 20301 315// 40602 5//// 6//// 80214 ICE /////
BBXX WYP8657 20184 99474 70885 41/98 52430 10000 2//// 40102 57026 70301 851// 22262 00044 20706 3//// 4//// 5//// 6//// 8//// ICE /////
BBXX 3ECJ7 20184 99091 10759 41/// /1821 10280 20224 40110 54000 70000 8//// 22235 0//// 20201 3//// 4//// 5//// 6//// 80240 ICE /////
AAXX 20181 52418 32970 40000 11131 21187 39032 40447 57003 80002 333 01152 11024
AAXX 20181 52681 32980 02503 11126 21186 38774 40445 52001 333 00754 11025
AAXX 20181 53798 32960 73201 11019 21056 30192 40292 54000 8703/ 333 10037
AAXX 20181 54423 32980 03601 11108 21172 39753 40294 54000 333 11007
AAXX 20181 54618 31958 70000 11036 21058 30266 40284 57004 71000 8703/ 333 10038
AAXX 20181 53564 32975 00000 11124 21140 39300 40378 52010 333 00258 10001
AAXX 20181 53614 31912 72701 11089 21101 39033 40399 52007 71000 80002 333 00300 11022
AAXX 20181 53959 31958 71802 10013 21036 39869 40324 52013 71000 8703/ 333 10062
AAXX 20181 54161 32962 02203 11100 21150 39914 40221 57010 333 11048
AAXX 20181 54374 32962 00401 11169 21192 39792 40289 57003 333 11076
AAXX 20181 54843 31615 82901 11021 21041 30257 40286 57003 71000 885// 333 10043
AAXX 20181 57127 32960 82701 10065 20053 39663 40280 52001 8807/ 333 10089
AAXX 20181 28676 326// 81803 11135 21173 30359 40497 58005 885// 333 11150
AAXX 20181 28766 319// 82205 11116 21142 30294 40498 57004 71022 8802/ 333 11134
AAXX 20181 28867 NIL
AAXX 20181 28879 NIL
AAXX 20181 28952 NIL
AAXX 20181 28966 325// 51802 11216 21246 30246 40565 57005 83530 333 11181
AAXX 20181 29802 329// 02203 11208 21236 30340 40499 58007 333 11174
AAXX 20181 29807 329// 02301 11217 21238 30398 40531 52001 333 11173
AAXX 20181 34691 31998 51106 11066 21116 30315 40302 57023 70232 80002 333 11040
AAXX 20181 35067 329// 00201 11250 21279 30270 40585 58013 333 11168
AAXX 20181 35078 329// 01902 11263 21291 30152 40586 57012 333 11204
AAXX 20181 35085 329// 32903 11210 21230 30034 40566 57011 80001 333 11153
AAXX 20181 35108 315// 71606 11091 21142 30352 40401 57017 73633 87500 333 11074
AAXX 20181 35188 329// 01603 11254 21281 30096 40592 57010 333 11188
AAXX 20181 35217 315// 31311 11106 21142 30380 40422 57017 73632 83500 333 11080 91016 91117
AAXX 20181 35229 NIL
AAXX 20181 35302 319// 01808 11088 21132 30368 40390 57020 73633 333 11076
AAXX 20181 35357 329// 02001 11281 21304 30098 40600 58007 333 11201
AAXX 20181 35394 32998 00000 11247 21273 39831 40600 58011 333 11195
AAXX 20181 35406 319// 61409 11090 21141 30397 40399 57009 73633 86050 333 11076
AAXX 20181 35416 NIL
AAXX 20181 35426 NIL
AAXX 20181 35497 329// 00201 11228 21259 39697 40594 58008 333 11151
AAXX 20181 35532 NIL
AAXX 20181 35671 32998 00000 11221 21249 30107 40591 58007 333 11170
AAXX 20181 35700 31996 01313 11082 21124 30401 40376 57010 70733 333 11063 91018 91121
AAXX 20181 35746 329// 00504 11190 21223 30472 40547 57010 333 11164
AAXX 20181 35796 32997 00402 11224 21255 30077 40566 57018 333 11196
AAXX 20181 35849 32998 00201 11214 21247 30442 40538 57008 333 11145
AAXX 20181 35925 NIL
AAXX 20181 35953 329// 00604 11216 21248 30395 40541 57009 333 11149
AAXX 20181 35969 329// 00704 11226 21266 30358 40555 57010 333 11166
AAXX 20181 36003 32998 01902 11240 21262 30359 40520 58011 333 11158
AAXX 20181 36152 329// 02302 11241 21288 30343 40556 57006 333 11128
AAXX 20181 36177 129// 01002 11237 21258 30293 40571 57009 69900 333 11182
AAXX 20181 36208 329// 01001 11221 21250 39486 40577 53001 333 11188
AAXX 20181 36397 329// 00000 11236 21258 39944 40576 58013 333 11166
AAXX 20181 36428 329// 00000 11271 21295 30026 40597 58004 333 11186 95090
AAXX 20181 36535 329// 00000 11325 21355 39887 40627 58006 333 11229
AAXX 20181 36639 329// 00000 11284 21312 39872 40565 57019 333 11195
AAXX 20181 36821 329// 00000 11228 21253 30004 40555 57015 333 11148
AAXX 20181 36859 129// 70101 11138 21165 39668 40515 57016 69900 84075 333 11089
AAXX 20181 36864 328// 30702 11178 21204 39545 40529 57011 83030 333 11137
AAXX 20181 36870 329// 80000 11161 21189 39405 40512 57015 80002 333 11127
AAXX 20181 38001 NIL
AAXX 20181 38062 329// 00603 11203 21244 30342 40525 57016 333 11162
AAXX 20181 38069 329// 03402 11140 21191 30277 40484 57019 333 11071
AAXX 20181 38196 NIL
AAXX 20181 38198 NIL
AAXX 20181 38222 32997 00000 11232 21257 39908 40541 57023 333 11185
AAXX 20181 38232 NIL
AAXX 20181 38328 NIL
AAXX 20181 38334 NIL
AAXX 20181 38341 32997 80000 11213 21238 39654 40538 57014 8802/ 333 11192
AAXX 20181 38343 32997 80000 11210 21228 39583 40527 58025 8801/ 333 11186
AAXX 20181 38439 NIL
AAXX 20181 57265 31958 80000 10057 20003 30174 40288 52002 71000 8807/ 333 10087
AAXX 20181 57494 32965 80401 10054 20015 30241 40271 52004 8807/ 333 10113
AAXX 20181 58362 11562 80702 10085 20073 30245 40253 57008 60021 70060 8517/ 333 10118
AAXX 20181 58752 31756 72902 10106 20080 30185 40231 57006 71000 875// 333 10168
AAXX 20181 59134 32762 70203 10157 20098 30028 40195 57013 875// 333 10190
AAXX 20181 28676 326// 81803 11135 21173 30359 40497 58005 885// 333 11150
AAXX 20181 28766 319// 82205 11116 21142 30294 40498 57004 71022 8802/ 333 11134
AAXX 20181 28867 NIL
AAXX 20181 28879 NIL
AAXX 20181 28952 NIL
AAXX 20181 28966 325// 51802 11216 21246 30246 40565 57005 83530 333 11181
AAXX 20181 29802 329// 02203 11208 21236 30340 40499 58007 333 11174
AAXX 20181 29807 329// 02301 11217 21238 30398 40531 52001 333 11173
AAXX 20181 34691 31998 51106 11066 21116 30315 40302 57023 70232 80002 333 11040
AAXX 20181 35067 329// 00201 11250 21279 30270 40585 58013 333 11168
AAXX 20181 35078 329// 01902 11263 21291 30152 40586 57012 333 11204
AAXX 20181 35085 329// 32903 11210 21230 30034 40566 57011 80001 333 11153
AAXX 20181 35108 315// 71606 11091 21142 30352 40401 57017 73633 87500 333 11074
AAXX 20181 35188 329// 01603 11254 21281 30096 40592 57010 333 11188
AAXX 20181 35217 315// 31311 11106 21142 30380 40422 57017 73632 83500 333 11080 91016 91117
AAXX 20181 35229 NIL
AAXX 20181 35302 319// 01808 11088 21132 30368 40390 57020 73633 333 11076
AAXX 20181 35357 329// 02001 11281 21304 30098 40600 58007 333 11201
AAXX 20181 35394 32998 00000 11247 21273 39831 40600 58011 333 11195
AAXX 20181 35406 319// 61409 11090 21141 30397 40399 57009 73633 86050 333 11076
AAXX 20181 35416 NIL
AAXX 20181 35426 NIL
AAXX 20181 35497 329// 00201 11228 21259 39697 40594 58008 333 11151
AAXX 20181 35532 NIL
AAXX 20181 35671 32998 00000 11221 21249 30107 40591 58007 333 11170
AAXX 20181 35700 31996 01313 11082 21124 30401 40376 57010 70733 333 11063 91018 91121
AAXX 20181 35746 329// 00504 11190 21223 30472 40547 57010 333 11164
AAXX 20181 35796 32997 00402 11224 21255 30077 40566 57018 333 11196
AAXX 20181 35849 32998 00201 11214 21247 30442 40538 57008 333 11145
AAXX 20181 35925 NIL
AAXX 20181 35953 329// 00604 11216 21248 30395 40541 57009 333 11149
AAXX 20181 35969 329// 00704 11226 21266 30358 40555 57010 333 11166
AAXX 20181 36003 32998 01902 11240 21262 30359 40520 58011 333 11158
AAXX 20181 36152 329// 02302 11241 21288 30343 40556 57006 333 11128
AAXX 20181 36177 129// 01002 11237 21258 30293 40571 57009 69900 333 11182
AAXX 20181 36208 329// 01001 11221 21250 39486 40577 53001 333 11188
AAXX 20181 36397 329// 00000 11236 21258 39944 40576 58013 333 11166
AAXX 20181 36428 329// 00000 11271 21295 30026 40597 58004 333 11186 95090
AAXX 20181 36535 329// 00000 11325 21355 39887 40627 58006 333 11229
AAXX 20181 36639 329// 00000 11284 21312 39872 40565 57019 333 11195
AAXX 20181 36821 329// 00000 11228 21253 30004 40555 57015 333 11148
AAXX 20181 36859 129// 70101 11138 21165 39668 40515 57016 69900 84075 333 11089
AAXX 20181 36864 328// 30702 11178 21204 39545 40529 57011 83030 333 11137
AAXX 20181 36870 329// 80000 11161 21189 39405 40512 57015 80002 333 11127
AAXX 20181 38001 NIL
AAXX 20181 38062 329// 00603 11203 21244 30342 40525 57016 333 11162
AAXX 20181 38069 329// 03402 11140 21191 30277 40484 57019 333 11071
AAXX 20181 38196 NIL
AAXX 20181 38198 NIL
AAXX 20181 38222 32997 00000 11232 21257 39908 40541 57023 333 11185
AAXX 20181 38232 NIL
AAXX 20181 38328 NIL
AAXX 20181 38334 NIL
AAXX 20181 38341 32997 80000 11213 21238 39654 40538 57014 8802/ 333 11192
AAXX 20181 38343 32997 80000 11210 21228 39583 40527 58025 8801/ 333 11186
AAXX 20181 38439 NIL
AAXX 20181 56778 32968 02902 10075 20043 38108 57001 333 05102 10187
AAXX 20181 58150 31540 73601 10041 20013 30276 40280 52002 71000 875// 333 10096
AAXX 20181 58251 31540 80201 10057 20042 30264 40269 52002 71000 885// 333 10072
AAXX 20181 58457 31710 83202 10072 20058 30203 40257 57006 71000 885// 333 10080
AAXX 20181 58606 31758 70701 10083 20015 30190 40249 57005 70500 875// 333 10142
AAXX 20181 58847 32662 73202 10135 20092 30110 40212 57002 8654/ 333 10176
AAXX 20181 59287 32664 83604 10162 20084 30104 40189 57003 885// 333 10220
AAXX 20181 59431 31656 72901 10117 20099 30047 40193 57003 71000 875// 333 10218
AAXX 20181 51133 32980 00402 11202 21235 39817 40539 57021 333 05154 11120
AAXX 20181 51431 11970 70401 11143 21170 39637 40509 57020 69901 70070 80002 333 05153 11105
AAXX 20181 51747 11962 70000 11096 21121 39080 40448 52001 69901 70070 80002 333 01004 11048
AAXX 20181 52203 32980 21101 11137 21189 39518 40465 52003 80002 333 01001 11024
AAXX 20181 44203 329// 00000 11337 21351 38515 40642 54000
AAXX 20181 44207 329// 01810 11181 21240 38389 40447 54000 333 91112
AAXX 20181 44212 32999 71801 11276 21306 39378 40676 52006 87070
AAXX 20181 44213 32699 60000 11288 21317 38983 40673 57002 86500
AAXX 20181 44215 32998 00000 11265 21290 38559 40617 52002
AAXX 20181 44218 NIL
AAXX 20181 44225 329// 00000 11295 21313 38411 40673 51003
AAXX 20181 44230 329// 03604 11215 21256 38886 40510 52002
AAXX 20181 44232 329// 03306 11135 21205 39202 40406 54001
AAXX 20181 44237 32999 01805 11147 21217 38569 40425 58001
AAXX 20181 44239 329// 73601 11192 21250 38874 40415 53002 87050 555 99600 99905
AAXX 20181 44241 419// 60000 11220 21232 39359 40444 58005 70272 86080
AAXX 20181 44256 NIL
AAXX 20181 44265 NIL
AAXX 20181 44272 419// 51802 11288 21325 38369 40647 57002 70273 85030
AAXX 20181 44275 32998 03603 11208 21233 37809 40523 58001
AAXX 20181 44282 31999 03402 11132 21240 38380 40431 58002 70230
AAXX 20181 44284 32999 02904 11271 21307 37927 40635 54000
AAXX 20181 44285 32999 03205 11147 21224 38394 40438 57001 333 91111
AAXX 20181 44287 32999 00503 11211 21259 38200 40547 52008
AAXX 20181 44294 329// 02905 11220 21244 38619 40468 52001
AAXX 20181 44298 329// 03202 11230 21236 38774 40425 52009
AAXX 20181 44302 319// 02707 11225 21263 39131 40347 54000 70230
AAXX 20181 44305 32999 03206 11178 21235 39064 40305 51008
AAXX 20181 44313 NIL
AAXX 20181 44314 NIL
AAXX 20181 44317 32998 22706 11175 21217 38940 40304 52001 82040
AAXX 20181 44336 329// 03103 11201 21244 38791 40504 53010
AAXX 20181 44341 329// 23306 11194 21231 38676 40465 51014 82030 333 91112
AAXX 20181 44347 32999 03206 11170 21220 38803 40437 51017
AAXX 20181 44352 32999 23206 11170 21204 38937 40329 52013 82040
AAXX 20181 44358 329// 33202 11168 21202 39144 40377 51018 83040
AAXX 20184 08055 12665 12910 10070 20048 39237 48591 52022 60002 81502 333 10130 95090
AAXX 20181 08521 32470 60405 10186 20103 30221 40292 53004 86800 333 10192 84818 83633
AAXX 20181 08524 32465 51005 10168 20105 30198 40297 52006 85800 333 10182 83815 84630 91008 91109
AAXX 20181 52533 32980 02501 11149 21191 38659 40475 57003 333 00851 11069
AAXX 20181 52652 32965 00000 11158 21209 38667 40461 57011 333 00852 11055
AAXX 20181 52866 32968 72002 11065 21132 37752 52016 80002 333 00202 10022
AAXX 20181 52983 32962 83204 11069 21118 38200 52016 8802/ 333 00551 10017
AAXX 20181 53915 11770 83206 11028 21089 38764 40363 52017 69901 72370 885// 333 00351 11001
AAXX 20181 54342 31957 00701 11117 21134 30183 40248 52003 71000 333 11011
AAXX 20181 54401 32965 03602 11073 21205 39423 40325 52003 333 11004
AAXX 20181 54511 32975 02904 10023 21184 30237 40278 57003 333 10042
AAXX 20181 56080 32980 03602 11079 21141 37162 52009 333 00103 10053
AAXX 20181 56096 32772 82701 10063 21016 39010 40266 52006 885// 333 00102 10095
AAXX 20181 08579 32/// /2403 10135 20096 30193 40319 52012 333 10164 91105
AAXX 20181 40716 12960 10000 10020 21030 39001 40317 52005 60001 80001 333 55070 81069
AAXX 20181 40719 11530 60000 10072 20063 30280 40269 56010 60001 71020 81570 333 55006 81620 86357
AAXX 20181 40721 12960 02703 10090 21170 39725 40277 57010 60001 333 55050
AAXX 20181 40858 11958 00000 10156 20131 30210 40221 51008 60001 71000 333 55091
AAXX 20181 40872 12960 00000 10192 20084 30210 40215 52014 60001 222// 00/// 20000 333 55094
AAXX 20181 40877 12960 00000 10130 21068 39648 40199 52012 60001 333 55092
AAXX 20181 40898 12960 03504 10178 20048 30188 40197 51012 60001 222// 00241 10800 333 55094 2////
AAXX 20184 41858 31408 83010 10134 20120 30111 40161 74222 8552/ 333 56799 59011 70000 85615 88458
AAXX 20184 41863 32950 83102 10125 20120 30118 40163 8452/ 333 56999 59003 70000 84616 88458
AAXX 20184 41886 NIL
AAXX 20184 41895 32950 02702 10120 20110 30141 40164 333 59006 70000
AAXX 20184 41909 31/10 93601 10122 20120 30131 40143 74040 89/// 333 56999 59009 70000
AAXX 20184 41915 31920 00000 10092 20090 30126 40153 71044 333 59013 70000
AAXX 20184 41926 NIL
AAXX 20184 41929 31906 03401 10127 20127 30142 40152 74240 333 59005 70000
AAXX 20184 41933 31900 00000 10120 20120 30138 40147 74444 333 59011 70000
AAXX 20184 41939 NIL
AAXX 20184 41941 31440 33603 10148 20140 30143 40149 70522 83500 333 56900 59013 70000 83614
AAXX 20184 41946 31940 00000 10150 20140 30146 40150 70500 333 59004 70000
AAXX 20184 41947 31920 00000 10136 20130 30147 40149 71044 333 59004 70000
AAXX 20184 41951 NIL
AAXX 20184 41953 31920 00000 10144 20130 30143 40149 70500 333 58002 70000
AAXX 20184 41958 31930 00000 10144 20130 30144 40146 70500 333 59001 70000
AAXX 20184 41960 31935 00000 10148 20148 30153 40155 70500 333 59006 70000
AAXX 20184 41963 31915 00000 10123 20120 30137 40140 71000 333 59008 70000
AAXX 20184 41964 NIL
AAXX 20184 41965 NIL
AAXX 20184 41966 NIL
AAXX 20184 41984 31940 00000 10148 20140 30138 40140 70500 333 59005 70000
AAXX 20184 41989 NIL
AAXX 20184 41998 319// 00000 10165 20150 30129 40135 70500 333 59006 70000
BBXX MZFR9 20183 99285 50421 41498 20306 10266 20219 40104 57013 82211 22213 02260 20202 304// 40504 5//// 80234
BBXX DCHO 20184 99205 50396 41/97 70314 10260 20225 40140 54000 70322 8747/ 22253 00250 20503 308// 40803 80235
BBXX A8SO7 20184 99158 50758 41897 61415 10244 20234 40138 58/// 70322 85070 22233 21204 316// 41804 5//// 80237
BBXX SERW 20183 99269 70159 43/97 80518 10202 2//// 40218 54001 70222 8801/ 22252 06200 20403 302// 40804
BBXX PCSV 20180 99150 30622 41698 41705 10265 20215 40124 53007 70022 8242/ 22253 04284 21003 317// 41003 80230 90578
BBXX A8CI9 20184 99102 10583 41597 50324 10267 20224 40145 52010 70211 84461 22244 04276 20403 3//// 4//// 5//// 80236
BBXX A8SU4 20184 99201 10387 41998 00103 10270 20226 40120 55/// 70000 80000 22233 00270 20000 30000 40000 50000 80240
BBXX DCPX2 20183 99140 10560 41/// /0431 10245 20186 40160 70500 8//// 22234 00250 2//// 80205
BBXX A8RL4 20184 99020 50079 41498 31711 10260 40110 54000 7//// 828// 22233 00260 20301 319// 40502
BBXX PHKL 20183 99287 10329 41997 02810 10211 20155 40160 50015 70200 80000 22273 00205 20301 300// 4//// 5//// 80175
BBXX PHQW 20183 99156 70177 41698 50316 10232 20171 40114 53002 7//11 8356/ 22283 00239 20301 30333 40803 50803 80192 90578
BBXX UBAU 20181 99140 70174 41598 20605 10265 40159 52002 70100 82500 22242 04241 20200
BBXX V7LZ9 20184 99253 30467 41/98 70709 10230 20185 40080 54000 71399 8770/ 22253 29901 324// 4//04 5//// 80200
BBXX DFNB2 20183 99214 10619 41998 00521 10220 20121 40195 55015 70200 80000 22234 00240 20404 80160
BBXX SBLI 20181 99300 11715 43/98 01803 10207 40160 55009 22264 00216 2//// 4//// NNNN 426621110
BBXX SHJC 20181 99187 11160 43/97 80610 10233 40135 57017 22254 01245 2//// 4////
BBXX SMGW 20181 99350 11636 43/98 62008 10146 40139 55001 22224 00209 2//// 4////
BBXX 9V8797 20184 99087 10764 43/97 30620 10272 40098 54002 22234 00283 2//// 4////
BBXX DGBE 20183 99315 11320 41/97 89903 10158 20054 40240 57010 70222 8//// 22214 00220 2//// 80104
BBXX V7FS3 20183 99165 10724 41494 32810 10280 20229 40120 52015 70200 83400 22234 00280 20301 3//// 4//// 5//// 80245
BBXX DCAX2 20183 99061 11600 41697 70806 10270 20241 40060 54000 7//22 87778 22233 20806 3//// 4//// 5//// 80250
BBXX V2BE4 20181 99143 11424 41998 00910 10275 20239 40089 57018 70000 80000 22244 04280 20606 311// 40506 80250
BBXX VRAE3 20184 99079 11182 41497 11219 10289 20246 40080 51024 70102 80000 22223 00300 20302 3//// 4//// 5//// 80259
BBXX 3ECJ7 20184 99091 10759 41/// /1821 10280 20224 40110 54000 70000 8//// 22235 0//// 20201 3//// 4//// 5//// 6//// 80240 ICE /////
BBXX ONFE 20184 99326 11366 41399 72805 10140 2001/ 40220 57010 70322 8211/ 22254 00220 2//// 3//// 4//// 5//// 6//// 80080 ICE /////
BBXX SHIP 20184 99368 11654 41698 32415 10140 2006/ 40130 58020 70404 80404 22229 01042 20016 30401 40001 50400 62010 87100 ICE 08080
BBXX C6SI4 20184 99541 11734 43/// /0313 11010 2104/ 49960 58020 7//// 8//// 22213 0//// 20401 3//// 40502 5//// 6//// 81020 ICE 0/0//
BBXX DDZC2 20184 99346 11772 41/97 83431 10150 20133 40120 52020 76286 8//// 22264 00180 2//10 3//// 4//// 5//// 80140
BBXX VRHO2 20184 99310 11310 41997 33013 10140 20085 40240 54000 70100 80001 22255 02210 20101 303// 40401 5//// 6//// 80110 ICE /////
BBXX ZQCP3 20183 99057 10846 41398 80513 10272 20251 40089 54000 70222 887// 22263 04280 2//// 304// 40603 5//// 80257
BBXX DGDD 20181 99316 11323 41/98 71302 10140 20040 40230 56015 70322 8//// 22214 00220 2//// 3//// 4//// 5//// 80090
BBXX MGPU2 20183 99420 11350 41298 72210 11010 21043 40246 54000 70322 8/7// 22200 00033 2//// 327// 40401 5//// 81020
BBXX 46145 20181 99544 71324 46/// /30// 1//// 40228 52017 22200 0//// 1//// 70/// 333 912//
BBXX DDIG2 20184 99097 70795 41398 20916 10290 20248 40110 58010 7//00 8/6// 22254 04290 20401 309// 40803 80260
BBXX DFFA2 20183 99228 70746 41698 50918 10265 20167 40210 57010 70011 81126 22284 00260 20402 305// 40805 5//// 80200
BBXX PCBT 20183 99155 70641 41698 60725 10272 20202 40140 57026 70222 85481 22214 20604 305// 40903 80223
BBXX A8IH2 20183 99346 71276 41299 63625 10170 20128 40240 56010 7//22 86710 22214 06140 21804 336// 41806 5//// 80145
BBXX DDLK 20183 99455 70494 41298 62928 10022 21013 40010 57012 70122 8477/ 22223 20808 399// 41109 80008
BBXX 46053 20181 99342 71198 46/// /2801 10135 40186 53013 91750 22200 00135 11403 20401 328// 41403 70016 333 91202 555 11015 22016 31731 42802 61749 280014 296014 279013 277011 280008 268013
BBXX 46042 20181 99368 71224 46/// /1105 10100 40193 52013 91750 22200 00127 11406 20301 331// 41406 70030 333 91207 555 11051 22053 31706 41108 61749 107050 102050 101054 102061 099062 101061
BBXX 44022 20181 99409 70737 46/// ///02 10064 21011 40215 57004 91800 22200 00078 333 91204 555 11021 22021
BBXX C6KD6 20184 99122 70792 41598 40821 10282 20242 40104 57/// 70011 83/// 22214 02284 20907 307// 41107 80254
BBXX A8OF6 20183 99310 70409 41697 81726 10215 20200 40135 56012 76360 887// 22254 04210 20606 80205
BBXX KEY796 20183 99571 71703 41/97 42309 11017 21033 49895 52/// 702// 8//// 222// 00017 2//// 3//// 4//// 5//// 6//// 8//// ICE /////
BBXX NWS0003 20184 99539 71665 43/// /3500 10019 21054 49957 5//// 7//// 8//// 222// 0//// 2//// 3//// 4//// 5//// 6//// 8//// ICE /////
BBXX WXJ63 20183 99611 71464 41/96 83600 10001 21002 40120 52/// 771// 8//// 222// 0//// 2//// 3//// 4//// 5//// 6//// 8//// ICE /////
BBXX NWS0029 20184 99345 70609 43/// /2619 10181 20104 40205 5//// 7//// 8//// 222// 04213 2//// 3//// 4//// 5//// 6//// 8//// ICE /////
BBXX WXJ63 20183 99611 71464 41/93 80705 11001 21006 40093 5//// 702// 8//// 222// 0//// 2//// 3//// 4//// 5//// 6//// 8//// ICE /////
BBXX 41038 20181 99341 70777 46/// /1903 10165 40225 58023 91800 22200 00143 333 91204
BBXX 46001 20181 99563 71480 46/// /1913 10051 40148 56020 91750 22200 00049 11208 20805 300// 41206 70039 333 91217 555 11140 22149 31747 41917 61749 188129 187124 181119 182122 186112 193104
BBXX WE3592 20184 99472 70904 43/98 12428 11016 2//// 40102 5//// 7//// 8//// 222// 0//// 2//// 3//// 4//// 5//// 6//// 8//// ICE /////
BBXX WE3806 20184 99474 70885 41/98 62328 11011 2//// 40108 56011 70122 8//// 22252 00050 2//06 3//// 4//// 5//// 6//// 8//// ICE /////
BBXX WE4805 20184 99453 70871 41/99 82221 10000 2//// 40166 57001 70202 88/// 22253 00044 20301 3//// 4//// 5//// 6//// 8//// ICE /////
BBXX UCKZ 20181 99670 30447 42498 83504 11017 21057 49816 57031 885// 22200 01014 2//// ICE 57895
AAXX 20181 51076 32980 03601 11261 21292 39589 40598 57008 333 00552 11194
AAXX 20181 51463 11775 22002 11143 21164 39336 40546 57014 69911 77077 81502 333 00352 11107
AAXX 20181 51573 32975 00901 11072 21127 30414 40461 52006 333 01001 10008
AAXX 20181 51709 32860 82201 11057 21075 38867 40432 57004 885// 333 00900 11034
BBXX DDJS2 20183 99138 70948 41298 10203 10290 20224 40117 56010 70211 81707 22234 04250 20100 309// 40202 5//// 80245
BBXX FLAO 2018/ 99764 70847 46/// ///// 11213 40020 52005
BBXX 41037 20181 99340 70775 46/// /2603 10193 40219 58013 91800 22200 00188 333 91204
BBXX VCXF 20184 99464 70484 41597 62724 10010 2000/ 49987 52025 70322 84540 22200 02025 20403 302// 40807 80005
BBXX 42085 20181 99179 70665 46/// /1010 10269 40154 91750 333 91212
BBXX 42085 20181 99179 70665 46/// /1010 10269 40155 91740 333 91212
BBXX 44067 20181 99384 70770 46/// /2402 10111 40205 91748
BBXX 44255 20181 99473 70573 46/// /2814 10009 49954 52012 22200 00039 10705 70023 333 91216
BBXX 42085 20181 99179 70665 46/// /0909 10270 40152 57029 91800 22200 00276 10702 70012 333 91212
BBXX 41052 20181 99183 70648 46/// /0509 10255 40158 91740 333 91211
BBXX 41053 20181 99185 70661 46/// /1108 10240 40166 91750 333 91211
BBXX 41052 20181 99183 70648 46/// /0709 10259 40157 91750 333 91211
BBXX 41053 20181 99185 70661 46/// /0706 10250 40167 91740 333 91210
BBXX 41052 20181 99183 70648 46/// /0710 10258 40157 56023 91800 22200 00274 333 91211
BBXX 44032 20181 99437 70694 46/30 /3108 11012 40195 52011 91804 22200 00089 10402 70009 333 91210 555 11097 22101
BBXX 41053 20181 99185 70661 46/// /1008 10239 40165 58020 91800 22200 00274 11106 70030 333 91210
BBXX SHIP 20184 99300 71633 41697 42006 10200 2017/ 40260 5//// 7//10 8346/ 22263 00220 2//// 3//// 4//// 5//// 6//// 80180 ICE /////
BBXX C6KJ5 20184 99223 70868 41397 13311 12325 71114 10267 2023/ 40155 54000 70125 86792 22233 00255 80240
BBXX 9HA2064 20183 99426 71370 41695 83010 10110 20092 40330 54000 74722 8672/ 22274 0//// 203// 3//// 403// 5//// 6//// 80100 ICE /////
BBXX 44139 20181 99442 70571 46/// /3015 10047 40022 52012 22200 00089 10705 70027 333 91218
BBXX DHBN 20181 99329 71721 41397 82007 10205 20190 40178 50008 70286 87530 22224 00200 2//02 329// 41204 5//// 80195
BBXX C6VR5 20183 99196 70603 41498 50423 10250 20188 40171 57022 70261 84478 22224 02267 20404 302// 41005 80210
BBXX C6CU6 20183 99281 70609 41397 30416 10222 20205 40291 51010 70200 831// 22263 04230 21410 335// 41010 5//// 80211
BBXX 9HXC9 20184 99180 70630 41498 80317 10255 20132 40146 56002 7//22 88040 22200 04273 20000 3//// 40602 5//// 6//// 80178 ICE /////
BBXX DGAF 20183 99406 70687 41598 33433 10075 21007 40180 52015 70200 82550 22254 00120 20708 80040
BBXX MYSU5 20183 99465 70442 41297 82930 10048 20048 49950 52050 70222 887// 22223 00070 20610 316// 40908 5//// 80048
BBXX V7MO2 20184 99262 70914 41397 81511 10235 20205 40151 57008 7//11 8811/ 22200 00232 20301 315// 40602 5//// 6//// 80214 ICE /////
BBXX 9V7955 20183 99249 71158 41597 22713 10235 2023/ 40160 54040 7//11 82183 22274 00230 20102 33333 40103 50103 6//// 80230 ICE /////
BBXX J8PR3 20183 99099 70618 41198 70913 10320 2024/ 40120 56030 70222 87288 22262 00290 20201 30909 40201 50201 6//// 80260 ICE /////
BBXX 9HXD9 20184 99152 70786 41898 30834 10270 2//// 40100 54/// 70211 832// 22284 04290 21007 306// 4//// 5//// 6//// 8//// ICE /////
BBXX WFLH 20183 99311 71302 43498 60225 10172 20094 40235 52002 7//// 861// 22213 00161 20502 334// 41009 5//// 6//// 80128 ICE /////
BBXX WDE9193 20183 99260 70903 41797 21613 10275 2023/ 40138 57024 70100 81089 22212 0//// 20301 313// 40704 5//// 6//// 80240 ICE /////
BBXX WGAX 20184 99348 70498 43398 53124 10170 2011/ 40123 52020 7//// 85100 22263 00202 20505 333// 41211 5//// 6//// 80135 ICE /////
BBXX ELQQ4 20184 99393 70559 43/96 73230 10130 2011/ 40080 56060 7//// 8//// 22264 00210 205// 3//// 4//// 5//// 6//// 80120 ICE /////
BBXX SHIP 20184 99320 71208 41497 20509 10150 2012/ 40090 54000 7//00 82/8/ 22213 00170 2//// 303// 40704 5//// 6//// 80130 ICE /////
BBXX SLCO 20184 99149 31546 43/96 82417 10274 40013 55004 22244 00279 2//// 4////
BBXX SLKR 20183 99119 51322 43/98 10918 10308 40142 50006 22254 00269 2//// 4////
BBXX C6FS9 20184 99274 31531 46/// /0507 10230 20188 30102 40138 57004 22200 85201
BBXX VNSZ 20184 99409 31462 46/// /1219 10148 20112 30169 40196 52021 22235 04167 85127
BBXX ZMIQ 20183 99364 31736 41498 30909 10166 20136 40268 54000 70200 82145 22273 00185 20301 324// 40501 80149
BBXX 3ECI3 20184 99412 31745 41597 61613 10135 20096 40308 54000 70300 86463 22243 00130 20301 318// 40802 80115
BBXX V2OG2 20183 99273 31135 41998 01622 10225 20206 40111 53012 70000 80000 22233 20403 320// 40505 80212
BBXX PCAM 20183 99412 31732 41598 21805 10140 20105 40287 53012 70200 8154/ 22200 20100 30000 80120
BBXX VRRD 20183 99159 31569 41397 50618 10281 20254 40021 56022 72586 857/0 22253 2//// 80262
BBXX MGRH9 20183 99340 31653 41598 71114 10184 20135 40204 53001 71522 86874 22233 00201 20202 315// 40903 5//// 80156
BBXX A8YW2 20184 99135 30771 41/98 51320 10278 20214 40090 50002 70311 8//// 22214 00270 20804 80235
BBXX PHJV 20183 99067 31193 41498 32908 10270 20228 40061 58008 70211 83144 22273 02292 20201 80240
BBXX PCDE 20183 99393 31427 41297 41704 10140 20105 40200 54000 7//11 827// 22223 2//// 324// 40402 80120
BBXX DGZR2 20183 99032 11004 41/97 72714 10260 20239 40070 56010 70222 8//// 22234 00280 20201 80245
BBXX PHOB 20184 99049 10835 41/98 40524 10250 20236 40078 58008 70185 82/// 22222 00270 2//// 3//// 4//// 5//// 80240
BBXX KAOU 20184 99001 10809 43/// /3208 10272 20248 40075 5//// 7//// 8//// 222// 04289 2//// 3//// 4//// 5//// 6//// 8//// ICE /////
BBXX SBHI 20183 99579 10183 43/98 72318 10035 40101 54000 22211 06070
BBXX UANA 20181 99705 10463 41/98 91507 10023 52000 70100 8//// 22222 00029 20402
BBXX 62023 20183 99514 70079 46/96 /2323 10102 2//// 40193 5//// 22200 10503 70015 555 70028 81009
BBXX 62087 20181 99547 10068 46/// /1802 10074 20047 4//// 5//// 22270 00089
BBXX LMEL 20181 99603 10053 43/// /3402 10004 20004 40028 5//// 222/0 04090 1//// 3//// 4//// 5////
BBXX LDGJ 20181 99603 10053 43/// /3302 10008 21007 40032 5//// 222/0 04088 1//// 3//// 4//// 5////
BBXX LF4H 20184 99596 10022 46/// /3015 10061 21025 40045 52013 8//// 22200 06083 10604 70021 333 91128
BBXX LAHV 20181 99589 10057 43/// /1203 10013 21003 40045 222// 04078 1////
BBXX TFSTD 20184 99664 70234 46/// ///// 22200 10707 70034
BBXX TFKGR 20184 99657 70136 46/// ///// 22200 10402 70011
BBXX TFGRV 20184 99638 70225 46/// ///// 22200 10705 70026
BBXX TFSRT 20184 99633 70203 46/// ///// 22200 10909 70043
BBXX TFGSK 20184 99641 70229 46/// ///// 22200 10810 70050
BBXX TFHFN 20184 99642 70152 46/// ///// 22200 10705 70025
BBXX TFGRS 20184 99663 70182 46/// ///// 22200 10504 70018
BBXX TFBLK 20184 99657 70248 46/// ///// 22200 10809 70045
BBXX TFDRN 20184 99658 70212 46/// ///// 22200 10302 70008
BBXX TFBKF 20184 99635 70202 46/// ///// 22200 10806 70032
BBXX PFDH 20181 99360 70043 41/99 12704 10188 20143 40285 55000 70200 81050 22224 00167 20201 307// 40701 80160
BBXX PJFF 20184 99346 70292 41197 71120 10197 20187 40260 57010 70222 8277/ 22254 20402 310// 40904 80190
BBXX UGGA 20181 99693 10430 41/98 92212 10040 40012 54000 70222 89/// 22281 20605
BBXX C6KD7 20183 99358 70296 41598 41321 10192 20140 40270 54000 70211 80005 22214 02191 20604 327// 41003 5//// 80162
BBXX MSTM6 20183 99415 70101 41598 72708 10182 20137 40321 52020 70322 868// 22244 00156 20101 80156
BBXX UCAB 20181 99643 10054 41/98 91812 10060 49945 57032 70211 8//// 22253 00110 20605
BBXX UCAC 20181 99714 10278 41/97 60712 10030 40009 54000 70222 89/// 22233 00090 20806 306// 40806
BBXX UITJ 20181 99717 10265 41598 80611 10020 40010 52013 70222 885// 22273 00060 20805 33600 40803
BBXX NWS0020 20184 99337 70221 43/// /0923 10185 20115 40284 5//// 7//// 8//// 222// 04202 2//// 3//// 4//// 5//// 6//// 8//// ICE /////
BBXX 41029 20181 99328 70796 46/// /1502 1//// 91800 555 11032 22036
AAXX 20184 60360 12562 42008 10101 20084 40218 55007 60062 84800 333 10127 82826 83640 95990
AAXX 20184 60390 12570 62206 10119 20070 40262 56001 60002 81834 333 10157 81820 85070 95990
AAXX 20184 60402 12560 42806 10112 20069 40241 53001 60002 81232 333 10169 81820 95990
AAXX 20184 60419 12565 22504 10068 20012 40254 55002 60002 82502 333 10112 82630 95990
AAXX 20184 60475 12665 30000 10048 20019 39272 48517 58005 60002 83230 333 10086 83833 95990
AAXX 20184 60490 12980 42804 10094 20031 40281 53004 60002 80002 333 10161 84073 95990
AAXX 20184 60525 12960 03106 10115 20000 40143 56006 60002 333 10151 95990
AAXX 20184 60531 12975 10000 10104 20028 40293 53009 60002 80002 333 10166 81073 95990
AAXX 20184 60566 12960 00000 10106 21039 40282 55001 60002 333 10134
AAXX 20184 60571 12962 12905 10110 20039 39333 48576 55000 60002 81080 333 10132 81360 95990
AAXX 20184 60580 12960 00000 10110 20036 40269 53002 60002 333 10158
AAXX 20184 60590 12960 13005 10100 20004 40290 51005 60002 81030 333 10145 81360
AAXX 20184 60611 12960 30501 10113 21025 40247 52009 60002 81031 333 10152 81358 83073
AAXX 20184 60620 12960 10110 10125 21073 40266 53003 60002 81030 333 0//00 10168 81365
AAXX 20184 60630 12960 40412 10142 21040 40240 53005 60002 80002 333 10177 84075
AAXX 20184 60656 12970 00806 10186 20031 40246 53004 60002 333 10209
AAXX 20184 60670 12970 20000 10125 21011 39102 48534 51011 60002 80002 333 10186 82073 95990
AAXX 20184 60680 12970 21910 10148 21073 38661 48536 53011 60002 80002 333 10193 82073 95990
BBXX C6KD4 20183 99407 70229 41/97 81911 10160 20146 40338 54000 7//22 88/2/ 22255 02165 20902 331// 41202 80152
AAXX 20184 60351 12560 72005 10124 20075 40222 57003 60002 878// 333 10158 82823 85633 95990
AAXX 20184 60355 11560 52006 10120 20056 40217 56009 60072 70182 85900 333 0//27 10130 81930 85833 95990
AAXX 20184 60445 12560 52405 10038 21000 39067 48530 55002 60002 84202 333 10088 84826 95990
AAXX 20184 60468 12560 32508 10056 21010 39278 48523 55000 60002 83200 333 10104 83826 95990
AAXX 20184 60507 12960 30000 10074 20027 40295 53003 60002 80002 333 10126 83073 95990
AAXX 20184 60511 12960 22504 10042 20005 39136 48554 53011 60002 80002 333 10098 82071 95990
AAXX 20184 60535 12970 03616 10040 21011 38890 48545 54000 60001 333 10053 95900
AAXX 20184 60536 12960 20000 10053 20017 39391 48550 53001 60002 80002 333 10120 82073 95990
AAXX 20184 60549 11960 10000 10070 21053 38989 48572 58001 60002 70200 80002 333 10110 81073 95990
AAXX 20184 60550 12960 20000 10025 21027 38732 48563 51002 60002 80002 333 10060 82073 95990
AAXX 20184 60555 12970 50000 10100 20052 40274 56006 60002 80002 333 10138 85073
AAXX 20184 60559 12960 10000 10092 21002 40263 55001 60002 80001 333 10139 81073
AAXX 20184 60581 12960 20000 10102 20005 40271 51002 60002 80002 333 10154 82073
AAXX 20184 60602 12960 00804 10129 21007 40277 53003 60002 333 10154 95990
AAXX 20184 60607 12960 10210 10115 21069 40273 53009 60002 81030 333 10157 81362
AAXX 20184 60640 12960 43610 10135 21004 40249 53015 60002 80002 333 10165 84073
AAXX 20184 60690 NIL
BBXX 46111 20181 99481 71227 46/// /1504 10061 40261 53003 91800 22200 00055
BBXX 46112 20181 99481 71227 46/// /1602 10061 40262 53003 91800
AAXX 20184 78767 11565 80407 10236 20198 30120 40122 58030 69901 75052 88400 333 10259 20177 32/// 56000 59040 88620
AAXX 20184 78762 32570 71211 10250 20161 39084 40098 57015 8357/ 333 10261 20175 30/// 5633/ 59016 83625 85358
AAXX 20184 60351 12560 72005 10124 20075 40222 57003 60002 878// 333 10158 82823 85633 95990
AAXX 20184 60355 11560 52006 10120 20056 40217 56009 60072 70182 85900 333 0//27 10130 81930 85833 95990
AAXX 20184 60445 12560 52405 10038 21000 39067 48530 55002 60002 84202 333 10088 84826 95990
AAXX 20184 60468 12560 32508 10056 21010 39278 48523 55000 60002 83200 333 10104 83826 95990
AAXX 20184 60507 12960 30000 10074 20027 40295 53003 60002 80002 333 10126 83073 95990
AAXX 20184 60511 12960 22504 10042 20005 39136 48554 53011 60002 80002 333 10098 82071 95990
AAXX 20184 60535 12970 03616 10040 21011 38890 48545 54000 60001 333 10053 95900
AAXX 20184 60536 12960 20000 10053 20017 39391 48550 53001 60002 80002 333 10120 82073 95990
AAXX 20184 60549 11960 10000 10070 21053 38989 48572 58001 60002 70200 80002 333 10110 81073 95990
AAXX 20184 60550 12960 20000 10025 21027 38732 48563 51002 60002 80002 333 10060 82073 95990
AAXX 20184 60555 12970 50000 10100 20052 40274 56006 60002 80002 333 10138 85073
AAXX 20184 60559 12960 10000 10092 21002 40263 55001 60002 80001 333 10139 81073
AAXX 20184 60581 12960 20000 10102 20005 40271 51002 60002 80002 333 10154 82073
AAXX 20184 60602 12960 00804 10129 21007 40277 53003 60002 333 10154 95990
AAXX 20184 60607 12960 10210 10115 21069 40273 53009 60002 81030 333 10157 81362
AAXX 20184 60640 12960 43610 10135 21004 40249 53015 60002 80002 333 10165 84073
AAXX 20184 60690 NIL
AAXX 20184 60360 12562 42008 10101 20084 40218 55007 60062 84800 333 10127 82826 83640 95990
AAXX 20184 60390 12570 62206 10119 20070 40262 56001 60002 81834 333 10157 81820 85070 95990
AAXX 20184 60402 12560 42806 10112 20069 40241 53001 60002 81232 333 10169 81820 95990
AAXX 20184 60419 12565 22504 10068 20012 40254 55002 60002 82502 333 10112 82630 95990
AAXX 20184 60475 12665 30000 10048 20019 39272 48517 58005 60002 83230 333 10086 83833 95990
AAXX 20184 60490 12980 42804 10094 20031 40281 53004 60002 80002 333 10161 84073 95990
AAXX 20184 60525 12960 03106 10115 20000 40143 56006 60002 333 10151 95990
AAXX 20184 60531 12975 10000 10104 20028 40293 53009 60002 80002 333 10166 81073 95990
AAXX 20184 60566 12960 00000 10106 21039 40282 55001 60002 333 10134
AAXX 20184 60571 12962 12905 10110 20039 39333 48576 55000 60002 81080 333 10132 81360 95990
AAXX 20184 60580 12960 00000 10110 20036 40269 53002 60002 333 10158
AAXX 20184 60590 12960 13005 10100 20004 40290 51005 60002 81030 333 10145 81360
AAXX 20184 60611 12960 30501 10113 21025 40247 52009 60002 81031 333 10152 81358 83073
AAXX 20184 60620 12960 10110 10125 21073 40266 53003 60002 81030 333 0//00 10168 81365
AAXX 20184 60630 12960 40412 10142 21040 40240 53005 60002 80002 333 10177 84075
AAXX 20184 60656 12970 00806 10186 20031 40246 53004 60002 333 10209
AAXX 20184 60670 12970 20000 10125 21011 39102 48534 51011 60002 80002 333 10186 82073 95990
AAXX 20184 60680 12970 21910 10148 21073 38661 48536 53011 60002 80002 333 10193 82073 95990
AAXX 20184 91945 36/// /0812 10287 20229 30147 40152 51016
BBXX C6IO9 20184 99372 70127 41998 23407 10160 20103 40328 54000 70100 8/0/5 22243 06175 20301 334// 40502 5//// 80130
BBXX 46207 20181 99509 71299 46/// /2908 10083 40284 52026 22200 00082 11512 70062 333 91211
AAXX 20184 78762 32570 71211 10250 20161 39084 40098 57015 8357/ 333 10261 20175 30/// 5633/ 59016 83625 85358
AAXX 20181 01311 47575 81401 11004 21008 39967 40030 53014 771// 333 10016 91110
AAXX 20181 01494 17/03 93601 11035 21035 39986 40053 52004 60002 733// 333 11027 91103
AAXX 20184 78767 11565 80407 10236 20198 30120 40122 58030 69901 75052 88400 333 10259 20177 32/// 56000 59040 88620
AAXX 20184 78767 11565 80407 10236 20198 30120 40122 58030 69901 75052 88400 333 10259 20177 32/// 56000 59040 88620
AAXX 20181 01025 17770 11401 10003 21011 39989 40000 52006 6//// 700// 333 10013 91105
BBXX 3ERR2 20184 99635 10053 41598 81519 10049 20036 49964 57013 70262 885// 22200 06099 10605 70027 333 91131
BBXX LF3F 20184 99643 10078 43/// /1712 10047 21004 49992 57002 22200 04084 10602 70011 333 91116
BBXX LF3N 20184 99653 10073 41598 61913 10062 21016 49979 57003 70322 862// 22200 00089 10702 70009
BBXX LF4B 20184 99606 10037 47/98 /3111 10048 40034 52015 700// 22200 00051 10707 70034 333 91125
BBXX LF4C 20184 99584 10019 41598 63210 10062 20023 40072 52017 78081 89/// 22200 00072 10605 70023 333 91128
BBXX LF5T 20184 99660 10081 419// /2012 10058 21016 49980 52001 70222 22200 06084 10703 70013 333 91115
AAXX 20184 78762 32570 71211 10250 20161 39084 40098 57015 8357/ 333 10261 20175 30/// 5633/ 59016 83625 85358
AAXX 20181 45032 36/// /0000 10160 20142 30164 40181 52001
AAXX 20181 45035 36/// /0602 10171 20135 30136 40178 54000
AAXX 20181 45039 36/// /0601 10166 20143 30164 40178 52001
AAXX 20181 45044 36/// /0103 10165 20139 30081 40176 54000
BBXX 46207 20181 99509 71299 46/// /2908 10083 40284 52026 22200 00082 11512 70062 333 91211
AAXX 20184 87344 32562 33606 10359 20149 39516 40036 57031 81201 333 56606 57871 81830
AAXX 20184 87349 31960 00508 10367 20110 39652 40024 57043 70510
AAXX 20184 87371 32562 60912 10363 20180 30052 40072 57021 83570 333 56440 83625 84360
AAXX 20184 87374 32965 30912 10374 20107 39981 40064 57023 83070 333 56090 83360
AAXX 20184 87395 32965 22008 10383 20070 30029 40071 58012 81085 333 56086 81360
AAXX 20184 87418 32965 00905 10333 20069 39258 40009 57021
AAXX 20184 87436 32670 23210 10377 20083 39234 49991 57024 82500 333 56800 82640
AAXX 20184 87448 31556 50723 10362 20136 39473 40006 51033 70711 85200 333 56500 57852 83631 83835
AAXX 20184 87453 32565 30222 10356 20168 39562 40024 57028 81505 333 56105 81630
AAXX 20184 87467 32970 50515 10358 20160 39924 40051 57025 84076 333 56066 84360 83270
AAXX 20184 87497 32965 83204 10349 20094 30057 40084 56007 80006 333 56006 88270
AAXX 20184 87506 32670 22914 10302 21044 38521 48446 57025 82100 333 56300 82835 95000
AAXX 20184 87509 31965 00908 10310 20103 39218 40026 57031 70600 333 10082 20000
AAXX 20184 87534 31958 30525 10379 20096 39888 40042 57023 70710 81074 333 56056 81360
AAXX 20184 87548 32965 70507 10360 20134 39978 40070 57031 85076 333 56066 85360 87270
AAXX 20184 87576 32760 60512 10364 20136 30056 40079 57013 81106 333 56106 81850 86270
AAXX 20184 87582 32960 60502 10281 20216 30008 40087 57015 80006 333 56003 86270
AAXX 20184 87585 NIL
AAXX 20183 87480 31665 60909 10323 20137 30038 40067 57020 71792 81976 333 56550 57900 81945 84360 90000
AAXX 20183 87532 31665 50518 10361 20133 39874 40036 57027 70691 81372 333 57910 81940 83080
AAXX 20181 48900 32497 43403 10234 20230 30080 40090 57010 84800 333 58009 81894 83696
AAXX 20181 48917 11598 60501 10253 20201 30080 40086 57020 69971 70382 8221/ 222// 00276 333 59004 82895 8749 9
AAXX 20181 48918 32498 70502 10254 20231 30083 40094 57010 879// 222// 00258 2//// 333 59002 83894 85995
AAXX 20181 48914 32598 73601 10246 20225 30089 40091 57015 878// 333 59004 82895 86696
AAXX 20181 48919 11598 70508 10270 20250 30062 40084 58008 69911 70382 82208 22200 02275 333 58010 82895 8729 9
AAXX 20181 48916 11598 70000 10251 20215 30046 40093 57016 69961 70362 878// 333 58000 82895 87696
AAXX 20181 48806 32997 00000 10095 20089 39406 40205 58001 333 59004 96122
AAXX 20184 43466 22970 30505 10246 20225 30073 40085 80001 333 59013 60007 83080
AAXX 20181 45032 36/// /0000 10160 20142 30164 40181 52001
AAXX 20181 45035 36/// /0602 10171 20135 30136 40178 54000
AAXX 20181 45039 36/// /0601 10166 20143 30164 40178 52001
AAXX 20181 45044 36/// /0103 10165 20139 30081 40176 54000
AAXX 20183 91551 31598 30000 10250 20250 40076 53005 70212 83900 333 569// 83820 81925
AAXX 20183 91553 31598 40000 10255 20248 40078 53001 70222 82901 333 568/9 82820 81925 84080
AAXX 20183 91554 31598 80000 10240 20233 40075 53002 70222 8327/ 333 5699/ 83820 88461
AAXX 20183 91555 31598 80000 10261 20250 40075 56002 70222 8587/ 333 5699 83820 85640 88461
AAXX 20183 91557 11498 80904 10255 20248 40056 53002 69951 78022 8697/ 333 5699/ 69951 81712 83818 81925 88460
AAXX 20183 91565 31598 70508 10240 20225 40079 53009 70222 878// 333 569// 83822 87640
AAXX 20183 91568 11598 70000 10240 20228 40102 56004 69961 72521 878// 333 562// 69961 84823 87640
AAXX 20183 91551 31598 30000 10250 20250 40076 53005 70212 83900 333 569// 83820 81925
AAXX 20183 91553 31598 40000 10255 20248 40078 53001 70222 82901 333 568/9 82820 81925 84080
AAXX 20183 91554 31598 80000 10240 20233 40075 53002 70222 8327/ 333 5699/ 83820 88461
AAXX 20183 91555 31598 80000 10261 20250 40075 56002 70222 8587/ 333 5699 83820 85640 88461
AAXX 20183 91557 11498 80904 10255 20248 40056 53002 69951 78022 8697/ 333 5699/ 69951 81712 83818 81925 88460
AAXX 20183 91565 31598 70508 10240 20225 40079 53009 70222 878// 333 569// 83822 87640
AAXX 20183 91568 11598 70000 10240 20228 40102 56004 69961 72521 878// 333 562// 69961 84823 87640
AAXX 20181 34560 32597 81308 11010 21056 30064 40235 57016 885// 333 11010 88620
AAXX 20181 34720 32599 60904 10045 20031 30092 40132 58016 8660/ 333 10046
AAXX 20181 34730 31396 81007 10044 20033 30050 40142 57015 71022 886// 333 10040 88707
AAXX 20181 34740 32598 81307 10057 20040 30052 40148 57024 885// 333 10055
AAXX 20181 34824 31996 81403 10051 20033 30110 40115 55006 71022 82031 333 10071
AAXX 20181 34858 11395 81403 10044 20041 30068 40176 56012 69900 75152 886// 333 10050
AAXX 20181 34866 32998 81308 10045 20017 30208 40199 58023 8007/ 333 10049 88300
AAXX 20181 34880 31996 21004 11007 21068 30285 40258 56016 70511 80001 333 10020 82000
AAXX 20181 37018 31597 81604 10138 20055 30050 40123 56011 78082 8597/ 333 10138
AAXX 20181 37054 31496 81103 11001 21005 39789 40181 57009 71022 885// 333 10007
AAXX 20181 37472 31596 81308 10079 20059 30197 40174 57016 71022 8567/ 333 10079 91018 91119
AAXX 20181 22282 115// 82208 11003 21015 30052 40060 54000 69900 78582 889// 333 10000
AAXX 20181 22438 NIL
AAXX 20181 22471 11484 82107 10004 21019 30071 40095 52005 69960 70282 884// 333 10009 88612
AAXX 20181 22563 11496 81903 11003 21012 30082 40121 52002 60040 77177 885// 333 10005 88616
AAXX 20181 22641 11498 81803 10010 20002 30076 40092 52008 69900 78582 889// 333 10015 88914 91109
AAXX 20181 22695 12598 82306 11008 21043 30043 40198 54000 69900 885// 333 11004 88622
AAXX 20181 22867 32998 01803 11026 21059 30087 40204 58001 333 10016 91108
AAXX 20181 22939 32697 11806 11043 21055 30023 40190 58003 81500 333 10006
AAXX 20181 22996 12998 71804 11092 21108 30100 40301 57013 69900 87070 333 11054
AAXX 20181 23324 11478 82406 11053 21078 30127 40207 58005 69920 73632 886// 333 11061 88713
AAXX 20181 27008 32998 61602 11044 21046 30011 40187 58006 80002 333 10002
AAXX 20181 27051 32997 31302 11041 21064 30059 40231 58005 80001 333 10012
AAXX 20181 27225 32464 81403 11036 21054 30073 40207 57024 885// 333 10002 88619
AAXX 20181 27252 31496 81403 11048 21054 30059 40251 57022 77172 8877/ 333 11001 88716
AAXX 20181 27333 31984 81104 11021 21036 30065 40226 57021 77172 8807/ 333 11015
AAXX 20181 27369 11595 81404 11083 21097 30140 40285 57021 69900 77173 8802/ 333 11025 88520
AAXX 20181 27393 11497 81804 11092 21112 30174 40352 57025 69900 77172 8577/ 333 10097
AAXX 20181 27479 11495 81404 11090 21097 30171 40312 57014 69900 77373 8872/ 333 11070 88710
AAXX 20181 27532 11295 81403 11049 21055 39995 40217 57019 69962 77177 886// 333 11021 86703
AAXX 20181 27648 11296 81302 11065 21085 30059 40235 52012 60060 77373 8872/ 333 11018 88705
AAXX 20181 27675 11497 81405 11083 21102 30125 40305 57019 69920 77072 8872/ 333 11076 88516
AAXX 20181 27679 11498 81506 11088 21112 30074 40311 57024 69900 73632 885// 333 11088 88618
AAXX 20181 28214 12996 81603 11088 21108 30152 40377 57024 69910 8802/ 333 11094
AAXX 20184 89628 46/// /3134 11222 4//// 5////
AAXX 20181 22165 11496 81707 10006 21008 39969 40030 58001 69930 77172 8872/ 333 10009 91112
AAXX 20181 22676 12584 81806 10001 21038 30093 10172 52003 69900 885// 333 10015
AAXX 20181 22837 32984 01602 11019 21047 30088 40159 52003 333 10016
AAXX 20181 22954 32999 01805 11033 21044 39952 40208 54000 333 10003
AAXX 20181 23405 11450 81905 11011 21037 30065 40166 57004 69900 77172 885// 333 11010 88610
AAXX 20181 23412 11497 81705 11036 21054 30094 40194 57004 69930 78582 883// 333 11046 85916
AAXX 20181 23803 11599 81805 11094 21115 30121 40311 58005 69930 73632 889// 333 11064 88927
AAXX 20181 27066 32398 81904 11056 21067 30086 40271 57012 888// 333 11005 88709
AAXX 20181 27083 31584 71603 10087 21098 30062 40297 58014 70232 87500 333 11040
AAXX 20181 27113 32960 30000 11067 21075 30053 40206 58007 83030 333 10011
AAXX 20181 27242 32398 81503 11034 21042 30106 40238 57015 887// 333 11008 88708
AAXX 20181 27329 32968 81403 11020 21035 30080 40209 57025 8805/ 333 11006
AAXX 20181 27355 31496 81404 11064 21076 30085 40258 57043 77172 8872/ 333 11024
AAXX 20181 27373 31496 81505 11095 21102 30071 40302 57018 77172 8872/ 333 11059 88710 93402
AAXX 20181 27665 11496 81403 11085 21108 39992 40278 57022 60020 77172 8872/ 333 11068 86712
AAXX 20181 27835 11396 81204 11045 21054 30042 40206 57013 60050 76673 8872/ 333 11014 87709 92980 93401
AAXX 20181 28009 12498 82004 11090 21106 30142 40366 58009 69900 885// 333 11089
AAXX 20181 28411 11597 81603 11075 21101 30183 40389 57024 69900 70272 885// 333 11079
AAXX 20181 28418 11598 81606 11062 21121 30222 40397 57016 69960 73683 885// 333 11070 88624
AAXX 20184 60395 12660 50000 10110 20068 40247 56015 60002 83230 333 10145 83840 83360 95990
AAXX 20184 60421 NIL
AAXX 20184 60423 11660 60000 10063 20038 39236 48497 56005 60102 70162 86800 333 10063 82833 85640 95990
AAXX 20184 60430 12560 52811 10072 20041 40281 56004 60002 81102 333 10098 81823 85073 95990
AAXX 20184 60437 12560 42608 10040 20028 39032 48524 54000 60002 81102 333 10070 81820 84070 95990
AAXX 20184 60444 12570 32806 10061 20014 39138 48538 57001 60002 83200 333 10105 83830 95900
AAXX 20184 60452 12565 4//// 10133 20064 40271 51005 60002 81202 222// 2//// 333 10177 81820 83073 91826
AAXX 20184 60457 12970 22503 10120 20071 40273 53001 60002 80002 333 10150 82073 95990
AAXX 20184 60514 12960 30000 10054 20031 39349 48571 53007 60002 80002 333 10094 83073 95990
AAXX 20184 60518 12965 31804 10120 20048 40261 50001 60002 80002 222// 20000 333 10173 83073 91807 95990
AAXX 20184 60520 12960 20000 10080 20027 40286 53004 60002 80002 333 10137 82073 95990
AAXX 20184 60540 11960 13104 10070 21012 39109 48556 53021 60002 70200 80001 333 10106 81073 95990
AAXX 20184 60560 11960 10000 10068 21038 39027 48559 51004 60002 70200 80001 333 10121 81073 95990
AAXX 20183 64800 NIL
AAXX 20183 64820 NIL
AAXX 20183 64860 32965 50000 10280 20081 39831 40101 80002 333 10340 58001 85080
AAXX 20183 64861 NIL
AAXX 20183 64870 32960 70000 10198 20072 38915 48507 80002 333 10288 58009 87080
AAXX 20183 64871 NIL
AAXX 20183 64892 NIL
AAXX 20183 64893 NIL
AAXX 20183 64894 NIL
AAXX 20184 64910 31425 70000 10275 20251 30097 40106 70522 84963 333 10320 58011 84615 82920 84363 87080 94959 95839
AAXX 20184 64911 NIL
AAXX 20184 64950 NIL
BBXX BAREU61 20184 99040 70073 46/// /2414 10280 29074 40102 52009 22224
BBXX BATFR45 20184 99055 10553 46/// ///// 10262 20239 40129 51014 22214 00294
BBXX BATFR55 20184 99102 30464 46/// /2310 10274 20250 40120 22262 00287
BBXX BATFR19 20184 99065 30060 46/// /1915 10235 20199 40121 53013 22200 00257
BBXX DCPX2 20183 99140 10560 41/// /0431 10245 20186 40160 70500 8//// 22234 00250 2//// 80205
BBXX A8CI9 20184 99102 10583 41597 50324 10267 20224 40145 52010 70211 84461 22244 04276 20403 3//// 4//// 5//// 80236
BBXX IDDUK02 20184 99577 50409 46/// ///// 40025 222//
BBXX C6XQ2 20183 99258 50454 41798 31806 10275 20224 40103 54000 70200 80005 22213 04240 20702 32727 40902 50702 80240
BBXX BAREU05 20184 99482 70695 46/// ///// 40175 52013 22253
BBXX BAREU04 20184 99523 70408 46/// ///// 49784 57056 22253
BBXX BAREU11 20184 99264 70598 46/// ///// 40228 57014 22214
BBXX 41101 20184 99146 70562 46/// /0519 10265 20203 40124 57026 22200 00272 10704 70019
BBXX BATFR14 20184 99309 70431 44498 72909 10207 20172 40147 55004 70222 8748/ 22214 00217 202// 30913 40904 507// 60000 ICE 0/0//
BBXX BATEU05 20184 99594 70442 46/// /0807 11033 21075 49984 56022 22222
BBXX FVNM 20184 99065 70815 46/// /3110 10270 20234 40092 58026 22221 00274
BBXX BATEU08 20184 99593 70408 46/// /0115 11007 21098 49988 56021 22263
BBXX BAREU06 20184 99481 70612 46/// ///// 40009 52003 22234
BBXX PHCQ 20183 99258 70858 41597 81308 10263 20230 40177 58014 70282 884// 22273 00244 20504 3//// 4//// 5//// 80239
BBXX DDLK 20183 99455 70494 41298 62928 10022 21013 40010 57012 70122 8477/ 22223 20808 399// 41109 80008
BBXX C6CU6 20183 99281 70609 41397 30416 10222 20205 40291 51010 70200 831// 22263 04230 21410 335// 41010 5//// 80211
BBXX BATEU07 20184 99313 31137 46/// /2013 10200 40141 51004 22284
BBXX BATFR48 20184 99167 51490 46/// /1023 10237 20194 40136 51017 22252 00299
BBXX BATFR53 20184 99183 31797 44498 50509 10267 20229 40109 53017 70300 82432 22222 00282 201// 321// 404// 5//// 60/// ICE 0////
BBXX A8YW2 20184 99135 30771 41/98 51320 10278 20214 40090 50002 70311 8//// 22214 00270 20804 80235
BBXX BAREU56 20184 99347 10131 46/// ///// 40212 52005 22242
BBXX BAREU63 20184 99368 10204 46/// /1307 10126 29049 40150 52015 22262
BBXX TESTFR9 20184 99499 70041 46/// /2829 10108 29079 40234 57003 22284
BBXX BAREU08 20184 99503 70000 46/// ///// 40202 52001 22224
BBXX BAREU00 20184 99534 70030 46/// ///// 40160 22200
BBXX BAREU51 20184 99440 10092 46/// ///// 40113 52002 22285
BBXX 61001 20184 99434 10078 46/// /0521 10112 20047 40104 52008 22200 00148 10503 70014 555 1/028
BBXX BATFR02 20184 99500 70006 46/// /3122 10099 20024 40217 22284 00129
BBXX BATFR54 20184 99521 70056 46/// /2218 10102 20084 40182 56013 22283 00114
BBXX BATFR52 20184 99499 70041 46/// /2626 10112 20067 40226 58007 22283 00120
BBXX BATFR09 20184 99432 70101 44296 82607 10124 20112 40320 52022 72854 882// 22243 00152 20202 327// 41006 5//// 60//0 ICE 0/0//
BBXX BATFR46 20184 99362 70034 44/96 32610 10144 20079 40278 55002 70011 82//1 22223 00169 20000
BBXX BATFR12 20184 99482 70069 46/// /2714 10122 20109 40262 53013 22251 00142
BBXX BATFR04 20184 99582 70061 46/// /3112 10045 20017 40095 51012 22282 00105
BBXX BATEU01 20184 99506 70164 44796 82527 10135 20107 40229 53017 70022 86611 22224 00120 21004 330// 41004 5////
BBXX BATFR01 20184 99345 10293 46/// /2817 10167 20124 40164 53009 22262 00180
BBXX BATEU04 20184 99570 10102 46/// /1806 10020 21002 40056 22232
BBXX BATUK01 20184 99585 70029 46/// /2906 10034 20004 40087 53017 22200 00092
BBXX A8XY2 20184 99445 70237 41398 82216 10151 20098 40308 51004 70300 888// 22264 04130 20502 327// 40603 80121
BBXX A8FZ6 20184 99355 70142 41498 40515 10170 20119 40310 70222 84500 22225 2//03 80140
BBXX 61002 20184 99421 10047 46/// ///27 10140 2//// 40166 52006 22200 00139 10605 70026 555 1/041
AAXX 20181 33088 11595 80203 11002 21005 39899 40093 57004 60052 77377 8872/ 333 10001
AAXX 20181 60370 16/// /2102 10128 20070 69922 333 10156
AAXX 20181 60371 36/// /1904 10137 20062 333 10155
AAXX 20181 60372 36/// /2707 10108 20062 333 10127
AAXX 20181 60373 NIL
AAXX 20181 60374 NIL
AAXX 20181 60376 NIL
AAXX 20181 60379 NIL
AAXX 20181 60380 NIL
AAXX 20181 60381 NIL
AAXX 20181 60393 NIL
AAXX 20181 60394 NIL
AAXX 20181 60593 NIL
AAXX 20181 60595 NIL
AAXX 20181 60605 NIL
AAXX 20181 60613 NIL
AAXX 20181 60623 NIL
AAXX 20184 60624 36/// /0000 10185 21018 333 10211
AAXX 20184 60639 NIL
AAXX 20184 60645 36/// /0000 10148 21066 333 10179
AAXX 20181 50844 32962 02902 11168 21211 40196 54000 333 11071
AAXX 20181 50854 32970 02201 11170 21208 40199 57007 333 11078
AAXX 20181 50968 32962 00000 11196 21215 40233 57008 333 11061
AAXX 20181 51379 32770 61603 11220 21252 40565 57006 86500 333 00459 11100
AAXX 20181 51467 32980 03603 11088 21194 38375 57006 333 00700 11003
AAXX 20181 51495 32980 00207 11067 21235 40462 52006 333 00902 11040 91128 91536
AAXX 20181 53480 32980 01401 11117 21235 40339 57001 333 11050
AAXX 20181 53673 32961 02702 11047 21135 40321 52005 333 10020
AAXX 20181 53698 31957 53601 11023 21061 40296 52002 71000 80002 333 10038
AAXX 20181 53898 31917 00000 11034 21045 40296 52001 71000 333 10030
AAXX 20181 54308 32980 00000 11094 21199 40293 57001 333 11002
AAXX 20181 54602 31940 80901 11049 21073 40286 57002 71000 80007 333 10033
AAXX 20181 54725 31940 80000 11051 21061 40291 57003 71000 80007 333 10027
AAXX 20181 54751 31956 32706 10030 21015 40268 57003 71000 80002 333 10037
AAXX 20181 54916 31758 83202 11009 21036 40297 52005 71000 885// 333 10053
AAXX 20181 57014 32962 81101 10021 21030 40310 52009 8807/ 333 00201 10059
AAXX 20181 57025 31958 83201 10016 21011 40329 52010 71000 8802/ 333 10043
AAXX 20181 57046 11/00 92704 11066 21067 37983 52004 69941 77074 333 00151 11006
AAXX 20181 58208 31957 83601 10019 20015 40287 52006 71000 8807/ 333 10074
AAXX 20184 60662 36/// /0000 10101 21023 333 10134
AAXX 20184 60353 NIL
AAXX 20184 60367 11560 7//// 10120 20084 40218 56015 60074 70262 878// 333 10140 83820 85833
AAXX 20184 60369 12560 20000 10147 20017 40244 58006 60002 82200 333 10167 82826 91827
AAXX 20184 60401 NIL
AAXX 20184 60403 12660 50000 10095 20041 40234 57005 60062 70162 85200 333 10120 85840 95990
AAXX 20184 60425 12565 52604 10113 20055 40273 55002 60002 83202 333 10141 83833 84073 95990
AAXX 20184 60461 12570 50000 10139 20004 40276 51009 60002 81502 222// 20000 333 10165 81626 85073 91828 95990
AAXX 20184 60467 12670 32614 10083 20017 40260 55004 60002 83801 333 10135 83833 95990
AAXX 20184 60492 12560 22404 10102 20053 40276 53007 60002 80001 333 10150 82073 95990
AAXX 20184 60515 12660 12810 10104 20020 40269 53009 60002 81200 333 10136 81833 95990
AAXX 20184 60517 12960 21402 10123 20070 40284 53006 60002 80002 333 10160 82073 95990
AAXX 20184 60522 12970 10000 10083 20017 40292 53006 60002 80001 333 10158 81073 95990
AAXX 20184 60557 11970 10000 10038 21022 38933 48563 53005 60002 70200 80002 333 10088 81073 95990
AAXX 20184 60563 12960 23408 10065 21012 39361 48546 51001 60002 80002 333 10111 82073
AAXX 20184 60603 12960 30206 10103 21026 40290 52010 60002 80001 333 10145 83073
AAXX 20184 60638 12960 1//// 10112 21033 40258 53009 60002 80002 333 10148 81073
AAXX 20184 60686 NIL
AAXX 20184 60619 36/// /0112 10087 21058 333 10126
AAXX 20184 60663 36/// /0407 10143 21034 333 10181
AAXX 20184 60692 36/// /0901 10222 21097 333 10269
AAXX 20184 60621 36/// /0112 10123 21058 333 10163
AAXX 20184 60612 36/// /0000 10148 21049 333 10197
AAXX 20184 60664 36/// /0000 10128 21044 333 10170
AAXX 20181 89064 16/// /3303 10049 29081 49933 52003 69101
AAXX 20184 60691 36/// /0908 10212 21137 333 10268
AAXX 20184 60667 36/// /0000 10122 21020 333 10174
AAXX 20184 78922 46/// /0818 10261 20215 30100 40145 58022
AAXX 20184 60633 36/// /3113 10196 21065 333 10233
AAXX 20184 40153 11957 51212 10144 21013 39119 48525 52008 60002 70500 85080 333 10169
AAXX 20184 40179 11550 31904 10171 20158 30140 40177 52017 60002 71020 83600 333 10269
AAXX 20184 40180 12960 00802 10174 20093 30131 40180 52018 60002 333 10277
AAXX 20184 40190 16/// ///// 10171 20164 39851 40180 52017 60002 333 10279
AAXX 20184 40199 13/// /0403 10204 21007 30139 40161 52019 60002 333 10289
AAXX 20181 08501 32/// /1708 10176 20137 30222 40258 57004 333 10179 91013 91113 555 60005
AAXX 20181 08505 32575 71307 10176 20109 30241 40291 57007 87800 333 10178 81825 87640 555 60007
AAXX 20181 08506 32/// /1708 10170 20105 30227 40299 57006 333 10174 91112 555 60005
AAXX 20181 08509 32560 71505 10164 20115 30242 40307 57006 878// 333 10171 81825 87635 555 60007
AAXX 20181 08511 NIL
AAXX 20181 08512 32/// /1404 10154 20120 30225 40311 52003 333 10169 91006 91107 555 60005
AAXX 20181 08515 32584 71003 10168 20128 30186 40308 55001 878// 333 10180 81823 87636 910// 911// 555 60007 912//
AAXX 20181 08521 32470 60405 10186 20103 30221 40292 53004 86800 333 10192 84818 83633 555 60007
AAXX 20181 08522 32568 21003 10174 20080 30217 40287 52008 82500 222// 314// 40402 333 10197 82630 91007 91112 555 60005
AAXX 20181 08524 32465 51005 10168 20105 30198 40297 52006 85800 333 10182 83815 84630 91008 91109 555 60005
AAXX 20181 08530 NIL
AAXX 20181 08531 32/// /0701 10127 20099 30287 40326 52008 333 10146 555 60005
AAXX 20181 08532 NIL
AAXX 20181 08533 32/// /0205 10123 20073 30282 40311 52007 333 10152 555 60005
AAXX 20180 08534 32965 10000 10124 20103 30298 40316 52007 80001 333 10168 81070 555 60007
AAXX 20181 08535 32/// /3504 10139 20099 30227 40320 52011 333 10163 91007 91107 555 60005
AAXX 20181 08537 NIL
AAXX 20181 08540 32560 32902 10114 20099 30249 40319 52005 83550 333 10156 83625 555 60007
AAXX 20181 08541 32/// /3402 10106 20084 30197 40319 52009 333 10142 91106 555 60005
AAXX 20181 08544 32560 73601 10136 20108 30301 40322 53005 875// 333 10150 87625 555 60007
AAXX 20181 08545 11330 80902 10115 20098 30243 40327 52007 60002 72022 888// 333 10130 82707 85710 85630 96010 555 69905
AAXX 20181 08548 32/// /0000 10117 20092 30114 40322 52001 333 10131 555 60005
AAXX 20181 08551 11242 81001 10105 20096 30269 40328 52008 69912 75065 885// 333 10110 86705 87623 555 69905
AAXX 20181 08554 32965 33201 10122 20041 30301 40311 52007 80001 333 10154 83080 555 60005
AAXX 20181 08558 32/// /3303 10092 20055 30014 40314 52009 333 10157 555 60005
AAXX 20181 08560 31465 83101 10095 20079 39558 40325 52008 70322 884// 333 10119 83814 86615 555 60005
AAXX 20181 08561 32970 12804 10114 20050 30074 40310 52006 80001 333 10144 81070 91105 555 60007
AAXX 20181 08562 32/// /2702 10099 20033 30011 40310 52007 333 10138 555 60005
AAXX 20181 08567 32/// /9902 10102 20083 39653 40325 52011 333 10110 91105 555 60005
AAXX 20181 08568 32/// /3210 10048 20048 38735 48601 52004 333 10064 555 60005
AAXX 20181 08570 31975 12602 10111 20057 39844 40308 52006 70111 80001 333 10154 81099 555 60005
AAXX 20181 08571 32/// /3402 10099 20044 39603 40315 52009 333 10133 555 60005
AAXX 20181 08575 32/// /2805 10097 20072 39486 40304 52009 333 10113 91009 91109 555 60005
AAXX 20181 08579 32/// /2403 10135 20096 30193 40319 52012 333 10164 91105 555 60005
AAXX 20181 14235 12965 0//// 11068 21111 38952 48396 55001 60002 333 11056 47024
AAXX 20181 14246 11970 02001 11016 21046 39926 40137 54/// 60002 700// 333 10032
AAXX 20181 14314 12980 23101 10041 21066 30067 40133 54/// 60002 80002 333 10066 92311 92418
AAXX 20181 14323 11981 00604 10026 21052 30100 40135 53/// 60002 702// 333 10055 92322 92428
AAXX 20181 14324 12980 23202 11111 21124 38312 48426 53/// 60002 80002 333 11049 44044
AAXX 20181 14328 12960 02501 11068 21070 39734 40151 56/// 60002 333 11023 43023
AAXX 20181 14330 11556 20000 11070 21085 39454 40155 53/// 60002 710// 82600 333 10003 47018 92802
AAXX 20181 14438 11681 10305 10012 21064 30036 40130 51/// 60002 702// 81400 333 10064 923//
AAXX 20181 14443 32699 432// 10079 20020 30020 40117 52002 84600 333 10079 92323
AAXX 20181 14447 12984 03201 10052 21061 30093 40125 52/// 60002 333 10111 92311
AAXX 20181 14472 12665 20102 10062 21035 30042 40107 52011 60032 82200 333 10071 92312
AAXX 20184 60676 36/// /3406 10130 21024 333 10161
AAXX 20184 04048 21450 82725 10011 21035 49993 52005 78788 889// 333 10013 21004 69978 555 3/631
AAXX 20184 71120 11574 63210 10035 21009 39363 40011 52024 69901 70381 86500 333 10050 21025 42002 79999 90936
AAXX 20184 87593 32960 30508 10313 20125 30068 40094 55003 80006 333 56007 83270
AAXX 20184 87623 31956 13407 10357 20132 39832 40045 57023 70400 81080 333 56060 81360 96120 96104
AAXX 20184 87641 32965 63213 10342 20143 39894 40062 57021 80006 333 56006 86270
AAXX 20184 87645 32470 33212 10338 20094 39866 40066 57020 83800 333 56500 82815
AAXX 20184 87648 32960 00510 10306 20212 30076 40086 57012
AAXX 20184 87692 32560 20712 10236 20198 30061 40086 58007 82300 333 56700 57973 81828 81935
AAXX 20184 87715 32770 12306 10290 20043 39750 40057 57028 81100 333 56700 81850
AAXX 20184 87750 31757 12908 10336 20020 39953 40048 57021 70400 81100 333 56600 81850
AAXX 20184 87765 32559 73216 10167 20031 39150 48453 57004 71522 87500 333 56600 87620 96120
AAXX 20184 87784 32980 12918 10322 21050 30018 40041 57028 80001 333 56000 81070
AAXX 20184 87791 32980 52308 10293 20042 30042 40050 57007 80006 333 56006 85270
AAXX 20184 87800 11680 73616 10191 20096 39712 40104 57003 69901 70252 87500 333 56600 87640
AAXX 20184 87803 32580 52722 10140 20014 39156 40063 57005 85500 333 56600 85630
AAXX 20184 87828 32680 61112 10243 20060 39978 40029 57016 84101 333 56600 84834
AAXX 20184 87860 11575 62921 10241 21010 39952 40005 57019 69901 70786 83876 333 56766 82630 83835
AAXX 20184 87904 11680 62010 10140 21025 39705 49947 57013 69901 71481 83475 333 56666 83645
AAXX 20184 87909 31580 72718 10175 21029 39898 49972 56008 71411 87200 333 56000 57890 87830
AAXX 20184 87925 11580 50509 10128 20024 39917 49940 57016 60031 72582 84306 333 56100 57900 82925 83826
AAXX 20184 87938 32680 61805 10141 20028 39858 49926 57008 83276 333 56444 57843 83640 83845
AAXX 20183 87016 32560 61806 10368 20204 39618 40005 57021 83306 333 56608 82820 81935
AAXX 20183 87896 32580 63224 10217 20039 39893 49986 57025 85502 333 56706 85630
AAXX 20184 87078 32770 43603 10410 20124 39909 40053 57025 84100 333 56800 84850
AAXX 20184 87244 NIL
AAXX 20184 87393 31550 31816 10400 20137 30009 40069 58017 70400 83200 333 56400 57833 82623 83830
AAXX 20184 87416 32965 01805 10342 20100 39306 40011 57024
AAXX 20184 87563 NIL
AAXX 20184 87640 32965 73216 10329 20189 39954 4//// 57025 84076 333 56077 84360 85270
AAXX 20184 87688 32970 32710 10347 20091 39914 40046 57021 83070 333 56060 83360
AAXX 20184 87774 31650 62718 10220 20079 39057 48422 5//// 70722 83510 333 56690 83636 86460
AAXX 20184 87852 31582 52732 10140 21018 39518 40020 58003 71522 85900 333 56600 57887 82820 83925
AAXX 20183 NIL
AAXX 20181 23914 11498 81804 11090 21101 30097 40370 58004 69940 77173 8577/ 333 11085
AAXX 20181 23921 32997 00000 11176 21188 30221 40350 58008 333 11066
AAXX 20181 23955 41474 72305 11100 21120 30253 40318 52006 78582 87300 333 83914
AAXX 20181 23966 41496 82403 11118 21138 30141 40273 54000 78582 889//
AAXX 20181 28138 12999 62302 11108 21128 39813 40420 57009 69920 86030 333 11105
AAXX 20181 28224 12598 81603 11078 21118 30178 40404 57018 69900 8652/ 333 11077
AAXX 20181 28255 32994 82802 11081 21124 30280 40417 55007 85031 333 11057
AAXX 20181 28440 32597 72601 11052 21148 30071 40437 58008 85506 333 11051
AAXX 20181 28645 32597 42303 11057 21140 30164 40476 57006 84500
AAXX 20181 28661 32997 82004 11088 21124 30374 40472 55005 86031 333 11098
AAXX 20181 28722 31997 81807 11067 21147 30304 40443 57021 73632 83071 333 11073
AAXX 20181 28748 32965 41802 11120 21155 30252 40512 58004 80001 333 11073
AAXX 20181 28838 32996 21301 11170 21189 30006 40530 57011 82030 333 11132
AAXX 20181 29231 42998 02402 11112 21148 30252 40354 53003
AAXX 20181 29313 42998 02203 11143 21178 30265 40397 53004
AAXX 20181 29612 42998 02103 11208 21234 30299 40467 57002
AAXX 20181 29638 41596 61704 11186 21192 30303 40485 53004 77172 83501
AAXX 20181 29838 41597 81802 11163 21189 30264 40519 58003 77072 885//
AAXX 20181 29846 41450 82205 11132 21152 30093 40508 58002 77187 8562/ 333 86710
AAXX 20181 36061 41597 80000 11139 21152 30094 40537 58004 70282 885//
AAXX 20181 34357 32597 81305 11024 21034 30052 40212 58018 885// 333 11030
AAXX 20181 34363 32597 81406 11051 21084 30118 40278 58009 885// 333 11051
AAXX 20181 34545 11297 81308 10010 20010 30067 40180 57025 69900 75152 886// 333 10006
AAXX 20181 34579 32998 81106 11038 21091 30232 40277 57008 80005 333 11008
AAXX 20181 34838 32997 81503 10046 20023 30041 40137 55005 8005/ 333 10074
AAXX 20181 34927 32997 80000 10055 20025 30090 40127 57009 8805/ 333 10108
AAXX 20181 34949 32497 81406 10006 20002 39606 40159 57011 8655/ 333 10035 88611
AAXX 20181 37001 32597 81807 10134 20041 30072 40107 52005 8257/ 333 10154
AAXX 20181 37031 32997 81504 10034 20001 39942 40138 58006 8805/ 333 10065
AAXX 20181 37061 11324 81403 10053 20049 30005 40171 58017 69930 75352 886// 333 10060
AAXX 20181 37085 12596 81209 10073 20040 30214 40241 58017 69900 885// 333 10074 91015 91116
AAXX 20181 37107 NIL
AAXX 20181 37126 42999 81403 10096 21122 37946 48496 57005 85031 333 10107
AAXX 20181 37171 32996 80705 10139 20017 30110 40128 57020 84037 333 10158
AAXX 20181 37228 32997 70000 10015 21018 39320 40163 58017 87010 333 10101
AAXX 20181 37470 32596 63103 10077 20053 30203 40180 58022 86500 333 10098
AAXX 20181 37663 32996 53004 10109 21093 39023 48511 58005 80001 333 10177
AAXX 20181 23909 11998 61904 11104 21120 30088 40351 58007 69900 73632 86070 333 11082
AAXX 20181 28044 32597 82502 11078 21113 30201 40373 57006 885// 333 11070
AAXX 20181 28116 11496 81503 11093 21118 30131 40378 58016 69920 77273 8872/ 333 11089
AAXX 20181 28240 32598 82504 11074 21128 30079 40421 57009 885// 333 11073
AAXX 20181 28522 11997 81804 11075 21139 30162 40435 57017 69900 70272 8802/ 333 11073
AAXX 20181 28621 11597 81605 11075 21135 30180 40426 57018 69950 70232 885// 333 11077
AAXX 20181 29023 41998 22704 11123 21150 30210 40313 53002 70181 80001
AAXX 20181 29122 42999 02406 11122 21157 30272 40349 53006
AAXX 20181 29328 42998 82403 11148 21190 30255 40405 57001 80001
AAXX 20181 29348 41997 52104 11146 21177 30237 40393 57007 73631 80001
AAXX 20181 29405 42997 52402 11170 21212 30274 40433 54000 80001
AAXX 20181 29418 42998 02202 11174 21216 30265 40439 57001
AAXX 20181 29430 42998 12202 11167 21179 39230 40421 57002 80001
AAXX 20181 29524 42998 52304 11195 21228 30266 40446 58007 80001
AAXX 20181 29605 42998 82303 11181 21207 30308 40465 57004 80001
AAXX 20181 29631 42997 02105 11176 21188 30254 40457 58002
AAXX 20181 29645 41598 51403 11162 21181 30270 40475 58004 70282 82501
AAXX 20181 29706 42998 02705 11198 21224 30324 40487 57004
AAXX 20181 29736 42598 72204 11144 21164 30227 40498 52004 87400
AAXX 20181 29937 41997 52004 11180 21206 30297 40540 58009 73631 80005
AAXX 20181 36034 41998 02103 11207 21232 30248 40556 58009 70231
AAXX 20181 36096 41996 82201 11264 21296 39710 40590 54000 77172 8807/ 333 95090
AAXX 20184 68298 36/// /0909 1//// 2//// 39500 4//// 52012 333 1//// 2//// 91013 555 91016
AAXX 20184 89022 42465 72906 11019 21050 39791 49828 57010 87571 333 87617
AAXX 20184 89062 42586 11703 10026 21007 39895 49935 52009 81531 333 81625
AAXX 20181 44210 32999 00000 11248 21260 38706 53003
AAXX 20181 44216 32999 03202 11321 21343 39231 40692 58009
AAXX 20181 44217 32998 00000 11280 21298 37994 40704 54000
AAXX 20181 44219 329// 01402 11304 21327 38806 40683 52003
AAXX 20181 44221 329// 30000 11222 21315 38759 40652 58006 83046
AAXX 20181 44224 329// 00000 11322 21352 38189 40705 54000
AAXX 20181 44229 32999 02707 11183 21224 38008 40492 58002
AAXX 20181 44242 419// 00000 11264 21289 39425 40456 57001 70171
AAXX 20181 44243 329// 30000 11282 21313 39525 40469 52005 83030
AAXX 20181 44254 NIL
AAXX 20181 44257 319// 03206 11147 21214 38991 40431 52003 73633 333 91114
AAXX 20181 44263 32998 00000 11263 21309 38205 40677 57003
AAXX 20181 44266 NIL
AAXX 20181 44286 329// 02708 11177 21228 38712 40426 54000
AAXX 20181 44291 319// 02901 11268 21297 38803 40501 56006 70400
AAXX 20181 44325 NIL
AAXX 20181 44329 32998 03209 11154 21215 37838 40382 58001
AAXX 20181 44338 32999 02702 11157 21227 38544 40416 52005
AAXX 20181 44348 329// 03207 11182 21194 38640 40385 51018
AAXX 20181 44374 32999 02906 11156 21237 38347 40491 51005
AAXX 20181 44385 32999 22705 11137 21208 39026 40439 51005 82040
AAXX 20181 44386 329// 00000 11176 21210 39126 40406 52019
AAXX 20181 28049 32997 62104 11080 21109 30210 40383 57006 86050 333 11073
AAXX 20181 28144 32598 82303 11068 21102 30225 40391 57013 8257/ 333 11070
AAXX 20181 28319 32499 81603 11074 21108 30231 40405 57019 885// 333 11072
AAXX 20181 28321 32599 81504 11075 21097 30181 40396 57023 8653/ 333 11081
AAXX 20181 28334 31996 82102 11072 21130 30117 40438 57013 77072 8802/ 333 11075
AAXX 20181 28434 32698 81301 11066 21127 30170 40441 57014 885// 333 11064 88640
AAXX 20181 28552 32998 02503 11059 21121 30336 40454 58009 333 11062
AAXX 20181 28666 32599 82004 11097 21134 30286 40473 57005 8802/ 333 11117
AAXX 20181 28825 32597 71803 11070 21140 30282 40464 57019 87500 333 11065
AAXX 20181 29111 42998 02404 11117 21149 30265 40358 52003
AAXX 20181 29209 42998 22003 11133 21160 30270 40405 53008 80002
AAXX 20181 29551 41997 22004 11127 21162 30224 40419 57007 73631 80002
AAXX 20181 29602 42999 62103 11196 21222 30306 40461 57005 80002
AAXX 20181 29636 42998 02303 11149 21162 30227 40464 58004
AAXX 20181 29654 41498 82006 11150 21163 39811 40474 58006 78583 85971
AAXX 20181 29712 42998 52103 11205 21238 30326 40485 58005 85070
AAXX 20181 29724 42997 02403 11229 21255 30271 40499 58008
AAXX 20181 29726 41998 02303 11179 21205 30314 40498 53002 70173
AAXX 20181 29814 42999 02003 11238 21263 30343 40508 57005
AAXX 20181 29827 41697 22302 11194 21220 30346 40517 58011 70131 82500
AAXX 20181 29923 41999 32405 11174 21193 30223 40526 58004 70231 83020
AAXX 20181 29939 42997 02602 11162 21188 30230 40540 58001
AAXX 20181 35026 32997 51401 11119 21177 39838 40527 57009 82031 333 11101
AAXX 20181 36021 42999 02301 11196 21215 30334 40535 58009
AAXX 20181 36022 42997 02003 11193 21205 30248 40539 58011
AAXX 20181 36038 42999 00000 11249 21268 30076 40578 58009
AAXX 20181 36058 42999 21002 11107 21191 39984 40543 58008 80001
AAXX 20181 36064 41699 40703 11047 21104 39898 40517 58008 73683 84500 333 95090 95879
AAXX 20181 36229 42999 02201 11297 21308 39329 40683 58003
AAXX 20181 36259 42699 20000 11290 21328 38425 48702 54000 82901
AAXX 20184 71736 46/// ///// 10030 21047 6///1 333 10030 20005 7////
AAXX 20184 71737 16/// /2706 11093 21158 39663 40201 58015 60001 333 11092 21143 70000
AAXX 20184 71743 16/// /1913 11157 21187 39776 49998 58040 60001 333 11151 21249 70000
AAXX 20184 71746 16/// /1606 11001 21040 39971 40195 58033 60001 333 10015 21029 70000
AAXX 20184 71748 16/// /2311 10004 21036 39708 49992 58016 60001 333 10004 21083 70000
AAXX 20184 71832 16/// /2016 11021 21043 39725 40055 58038 60001 333 11021 21148 70000
AAXX 20184 71478 16/// /3018 10071 20033 30150 40288 53017 60001 333 10080 20067 70136
AAXX 20184 71479 16/// /3011 10070 20041 30161 40283 53008 60001 333 10085 20060 70000
AAXX 20184 71482 46/// /2009 10070 30221 40260 53021 6///1 333 10089 20027 7////
AAXX 20184 71107 16/// /3324 10063 20036 30161 40275 53019 60001 333 10068 20053 70000
AAXX 20184 71771 46/// /2506 10059 20031 30236 40257 53023 6///1 333 10082 20056 7////
AAXX 20184 71026 16/// /2807 10055 21031 39229 40075 51020 60001 333 21003 7////
AAXX 20184 71421 16/// ///// 11165 21190 39321 40049 51027 60001 333 11105 21167 70041
AAXX 20184 71300 16/// /2803 11053 21135 30103 40229 58028 60001 333 11024 21094 70000
AAXX 20184 71309 16/// /2008 11040 21069 30012 40024 56056 60001 333 11040 21206 70007
AAXX 20184 71332 16/// /0604 11255 21282 30066 40097 53022 60001 333 11254 21270 70000
AAXX 20184 71334 46/// /0209 11174 21207 39638 49969 51044 6///1 333 11063 21175 7////
AAXX 20184 71340 46/// /2813 10030 21016 6///1 333 10058 21012 7////
AAXX 20184 71341 16/// /2421 10036 21044 60001 333 10037 20013 70000
AAXX 20184 71342 16/// /3212 10042 21029 60001 333 10045 21044 70000
AAXX 20184 71344 16/// /2908 10006 21041 60001 333 10045 21044 70000
AAXX 20184 71347 16/// /2905 10001 21040 60001 333 10049 20000 70000
AAXX 20184 71348 16/// /2708 10037 21026 60001 333 10059 20018 70000
AAXX 20184 71349 46/// ///// 10021 21011 6///1 333 10049 21024 7////
AAXX 20184 71503 46/// /2805 11239 21264 39820 40100 51020 6///1 333 11172 21246 7////
AAXX 20184 71506 46/// /2610 11102 21110 39148 40041 52012 6///1 333 11100 21180 7////
AAXX 20184 71511 16/// /2812 10042 21017 39376 40006 50003 60001 333 10042 21068 70000
AAXX 20184 71514 16/// /2812 10017 21025 39341 40035 53003 60001 333 10017 21069 70000
AAXX 20184 71539 16/// /2710 10038 21019 39356 40047 51013 60001 333 10038 21044 70000
AAXX 20184 71151 16/// /2113 11036 21075 39517 40021 58021 60001 333 11036 21087 70000
AAXX 20184 71155 16/// ///// 10038 21012 60001 333 10053 21033 70008
AAXX 20184 71186 46/// /2921 11106 21168 6///1 333 11071 21114 7////
AAXX 20184 71190 46/// /2924 11078 21152 6///1 333 11030 7////
AAXX 20184 71269 16/// /2809 10024 21011 60001 333 10026 21035 70000
AAXX 20184 71271 16/// ///// 10045 21023 60001 333 10064 21020 70000
AAXX 20184 71285 46/// /2609 10027 21030 6///1 333 10049 21040 7////
AAXX 20184 71364 16/// /0000 11252 21279 39958 40097 51015 60001 333 11252 21271 70000
AAXX 20184 71374 46/// /2922 11051 21075 6///1 333 11004 21060 7////
AAXX 20184 71387 17/// /2607 11139 21188 39795 40189 56006 60021 7//4/ 333 11105 21149 70022
AAXX 20184 71550 16/// /2415 10031 21037 39596 49965 57034 60001 333 10031 21068 70000
AAXX 20184 71551 16/// /2815 10036 21017 39378 40023 50007 60001 333 10036 21032 70000
AAXX 20184 71575 16/// /0202 11198 21217 39854 49920 58012 60001 333 11188 21229 70000
AAXX 20184 71622 16/// ///// 11012 21046 39859 40202 58026 60001 333 10005 21038 70000
AAXX 20184 71667 16/// /2509 11024 21083 39845 40094 56042 60001 333 11024 21106 70000
AAXX 20184 71682 17/// /0000 11136 21142 39868 40101 53031 69961 7//4/ 333 11097 21180 70010
AAXX 20184 71120 11574 63210 10035 21009 39363 40011 52024 69901 70381 86500 333 10050 21025 42002 79999 90936
AAXX 20184 71970 16/// /3408 10012 21001 39421 40000 53022 60001 333 10052 21039 70000
AAXX 20184 71976 46/// /1817 11219 21243 39305 49946 57027 6///1 333 11219 21244 7//// 555 10010
AAXX 20184 71228 16/// /3014 10038 21037 60001 333 10045 21051 70000
AAXX 20184 71079 12874 72808 11040 21056 39638 49914 50000 60001 87070 333 11026 21069 70006
AAXX 20184 71903 47/// /3117 10056 20027 30187 40237 5/028 6///1 7//4/ 333 7////
AAXX 20184 71402 46/// /1803 11052 21068 39829 49943 56027 6///1 333 11041 21065 7////
AAXX 20184 71423 16/// /3021 11068 21103 39992 40001 53017 60001 333 11006 21070 70004
AAXX 20184 67002 11580 70805 10240 20227 30095 40129 60812 70221 86932 333 10290 58004 81920 83630 85073 924/7
AAXX 20184 67009 NIL
AAXX 20184 67025 NIL
AAXX 20184 67027 32580 22614 10280 20229 30080 40101 52021 81832 333 10320 81820 555 81640 82360
AAXX 20184 67083 41470 10000 10187 20105 38715 48489 53015 71300 81900 333 10278 81917 81917 94964 95814
AAXX 20184 67095 32475 20000 10270 20241 30084 40090 52029 82800 333 10324 81817 555 82633
AAXX 20184 67113 NIL
AAXX 20184 67117 NIL
AAXX 20184 67137 NIL
AAXX 20184 67143 NIL
AAXX 20184 67161 NIL
AAXX 20184 67197 11460 70808 10220 20205 30067 40077 60372 71386 873// 333 10297 82817 82917 85633 94962 95832=36.8
AAXX 20184 04203 46/// /1301 11110 21146 39982 40000 57001
AAXX 20184 04205 45/64 /0816 11107 21186 39981 40004 57003 333 11105 21143
AAXX 20184 04208 46/// /1717 11082 21123 39951 49997 52027
AAXX 20184 04213 46/// /1322 11102 21167 39896 40009 52006 333 11097 21111
AAXX 20184 04214 46/// /1320 11088 21141 39962 49995 52014
AAXX 20184 04224 45984 61111 11102 21170 39976 40009 52003 333 11076 21108 86/67
AAXX 20184 04228 NIL
AAXX 20184 04242 46/// /1118 11071 21119 39990 40006 57009
AAXX 20184 04253 46/// /0819 11072 21136 39971 49998 57017
AAXX 20184 04266 46/// /0917 11055 21114 39955 49993 57014
AAXX 20184 04285 46/// /0304 11048 21120 39970 49989 57030
AAXX 20184 04301 46/// ///// 11333 21382 30049 40054 52024
AAXX 20184 04313 46/// ///// 11238 21271 30051 40063 52014
AAXX 20184 04330 46/// /3044 11102 21120 39951 49969 57004 333 91057
AAXX 20184 04351 46/// /3511 11093 21172 39900 49916 52011
AAXX 20184 04373 46/// /3133 11104 21168 39844 49938 52007
AAXX 20184 04382 46/// /3206 11063 21173 39945 49994 52001
AAXX 20184 04416 46/// ///// 11426 21442 36475 54000
AAXX 20184 60686 12960 03412 10190 21039 40187 57005 60002 333 10239
AAXX 20181 13463 12568 71102 10049 20033 30056 40117 52017 69922 83820 333 10088
AAXX 20181 13459 32670 83402 11004 21006 39446 40124 52015 8587/ 333 10014 47011 85696 88498
AAXX 20181 13461 12562 80503 10061 20020 30109 40117 52015 60042 888// 333 10095 84830 92334 92447
AAXX 20181 13363 11665 72701 11024 21029 39199 48409 52006 60032 70272 87500 333 10004 43006 93103
AAXX 20184 60595 36/// /0000 11451 333 11451
AAXX 20184 62305 32960 02705 10114 20044 40209 52014 333 10186
AAXX 20184 62306 32960 02708 10148 20099 40203 52015 333 10204
AAXX 20184 62318 32560 22806 10161 20087 40192 52013 82500 333 10208
AAXX 20184 62337 NIL
AAXX 20184 62366 31956 01404 10158 20114 40194 52014 71000 333 10188
AAXX 20184 62393 32960 03004 10138 20062 40200 53018 333 10228
AAXX 20184 62405 32960 02002 10174 20075 40166 52016 333 10272
AAXX 20184 62414 32960 03508 10221 20062 40168 52014 333 10282
AAXX 20184 62417 32960 00000 10142 20091 40205 52016 333 10212
AAXX 20184 62440 31930 00000 10139 20136 40191 52019 71020 333 10184
AAXX 20184 62463 32960 03105 10192 20136 40167 52016 333 10254
AAXX 20184 62465 32960 03002 10205 20139 40149 52005 333 10252
AAXX 20184 62419 NIL
AAXX 20184 71421 16/// ///// 11165 21190 39321 40049 51027 60001 333 11105 21167 70041
AAXX 20184 71079 12874 72808 11040 21056 39638 49914 50000 60001 87070 333 11026 21069 70006
AAXX 20184 71832 16/// /2016 11021 21043 39725 40055 58038 60001 333 11021 21148 70000
AAXX 20184 71079 12874 72808 11040 21056 39638 49914 50000 60001 87070 333 11026 21069 70006
BBXX C6SI6 20184 99318 11209 46/// /0908 10074 20065 40264 56005 7//// 8//// 22200 0//// 2////
BBXX DGBE 20183 99315 11320 41/97 89903 10158 20054 40240 57010 70222 8//// 22214 00220 2//// 80104
BBXX DGDD 20181 99316 11323 41/98 71302 10140 20040 40230 56015 70322 8//// 22214 00220 2//// 3//// 4//// 5//// 80090
BBXX MGPU2 20183 99420 11350 41298 72210 11010 21043 40246 54000 70322 8/7// 22200 00033 2//// 327// 40401 5//// 81020
BBXX ONFE 20184 99326 11366 41399 72805 10140 20010 40220 57010 70322 8211/ 22254 00220 2//// 3//// 4//// 5//// 6//// 80080 ICE /////
BBXX UHFW 20180 99478 11414 42999 03406 11070 40222 52005 22232 06040
BBXX VREX8 20184 99302 11379 41597 73019 10160 20130 40220 56020 70211 872// 22264 0//// 20304 330// 40405 5//// 6//// 80140 ICE /////
BBXX VRHO2 20184 99310 11310 41997 33013 10140 20085 40240 54000 70100 80001 22255 02210 20101 303// 40401 5//// 6//// 80110 ICE /////
BBXX WDB3161 20184 99406 11467 41398 73220 11010 21040 40190 52005 70222 877// 22253 00089 20802 307// 41004 5//// 6//// 81020 ICE /////
AAXX 20181 33345 11296 80000 10020 20015 39852 40058 57010 60082 76176 8872/ 333 10027 88704
AAXX 20184 41257 36/// /0602 10180 20097 39726 40217 333 0E017 10229 59000
AAXX 20184 62309 32960 00000 10132 20075 40189 52013 333 10202
AAXX 20184 62325 32960 03003 10170 20120 40191 52014 333 10220
AAXX 20184 62332 32560 23209 10178 20143 40192 52018 82500 333 10204
AAXX 20184 62387 32960 03002 10124 20071 40199 52021 333 10234
AAXX 20184 62452 32960 02802 10146 20101 40198 52022 333 10257
AAXX 20184 62459 32960 03214 10211 20156 40163 52012 333 10236
AAXX 20181 28216 12698 71805 11090 21124 30089 40388 57018 69900 87500 333 11095
AAXX 20181 28428 31598 81905 11072 21142 30234 40430 57017 70232 885// 333 11075
AAXX 20181 28451 32996 02603 11052 21135 30273 40440 58007 333 11046
AAXX 20181 28541 31984 82603 11048 21142 39933 40449 57003 70232 8807/ 333 11049
AAXX 20181 28655 32998 22404 11063 21120 30237 40472 58012 80002 333 11064
AAXX 20181 28756 32997 72104 11106 21140 30340 40500 57006 87070 333 11103
AAXX 20181 29557 41998 62605 11115 21168 30139 40422 57001 73631 83071
AAXX 20181 29625 42998 02304 11211 21236 30276 40475 58008
AAXX 20181 29813 42999 02102 11224 21249 30291 40492 54000
AAXX 20181 29822 42997 01802 11210 21235 30327 40509 58011
AAXX 20181 29915 42998 02202 11232 21250 30344 40523 58005
AAXX 20181 36020 42998 02203 11188 21200 30312 40534 58011
AAXX 20181 13463 12568 71102 10049 20033 30056 40117 52017 69922 83820 333 10088
AAXX 20181 13459 32670 83402 11004 21006 39346 40124 52015 8587/ 333 10014 47011 85696 88498
AAXX 20181 13461 12562 80503 10061 20020 30109 40117 52015 60042 888// 333 10095 84830 92334 92447
AAXX 20181 13363 11665 72701 11024 21029 39199 48409 52006 60032 70272 87500 333 10004 43006 93103
AAXX 20181 23226 11312 82108 11072 21093 39973 40194 52005 69930 77572 887// 333 11073 86707
AAXX 20181 23701 11484 81904 11030 21064 30108 40241 55002 69940 73632 8802/ 333 11018 88517
AAXX 20181 28909 32499 81507 11078 21139 30306 40413 57016 84502 333 11062 91012 91115
AAXX 20181 10929 01470 62805 10020 20011 39615 40156 53024 60022 76076 86500 333 10020 21026 3/102 42003 55300 20000 30000 69937 82714 86631
AAXX 20184 62458 31920 03208 10200 20096 40161 52015 70500 333 10218
AAXX 20184 62455 32960 03305 10171 20133 40179 52028 333 10232
AAXX 20184 62420 32960 00000 10134 20066 40205 52026 333 10214
AAXX 20184 62432 32960 02302 10124 20054 40202 52026 333 10222
AAXX 20184 62435 32960 00204 10158 20022 40182 52015 333 10242
AAXX 20184 62476 32960 00102 10228 20196 40147 53020 333 10258
AAXX 20181 56146 32980 00000 11075 21169 36704 54000 333 05400 10094
AAXX 20181 56444 32980 02702 11041 21107 36803 57004 333 05202 10075
AAXX 20181 56492 11730 80000 10081 20057 39847 40262 52008 69901 76000 885// 333 05201 10104
AAXX 20181 56571 32980 00000 10060 21003 38376 52007 333 05200 10198
AAXX 20181 57799 32965 70000 10073 20024 30157 40248 52001 8703/ 333 10150
AAXX 20181 57866 32963 60203 10082 21008 30045 40256 52001 86040 333 10122
AAXX 20181 57957 31757 70203 10103 21014 30031 40232 57002 70500 875// 333 10126
AAXX 20181 57993 32960 00000 10081 20047 30067 40235 52006 333 10175
AAXX 20181 58027 31930 82201 10020 21009 30237 40290 52013 71000 8807/ 333 10087
AAXX 20181 58141 31920 73602 10050 20018 30262 40282 52006 71000 8704/ 333 10075
AAXX 20181 58265 11956 80902 10076 20061 30255 40263 57009 69961 71060 8802/ 333 10101
AAXX 20181 58472 11468 80406 10093 20073 30149 40245 57013 69901 76066 8277/ 333 10114
AAXX 20181 58477 32480 83602 10111 20081 30195 40240 57006 888// 333 10132
AAXX 20181 58527 32660 80000 10095 20037 30171 40248 52002 885// 333 10145
AAXX 20181 58633 31658 70902 10095 20057 30140 40241 57005 70500 875// 333 10139
AAXX 20181 58666 32670 73607 10120 20099 30122 40225 57008 875// 333 10130
AAXX 20181 58725 31958 01801 10055 20043 39968 40232 52001 71000 333 10198
AAXX 20181 58921 31440 31401 10089 20078 39969 40217 52002 71000 83600 333 10205
AAXX 20181 59082 31957 31602 10080 20058 30070 40218 52003 71000 83040 333 10199
AAXX 20181 59211 31950 80000 10143 20116 39981 40188 52002 71000 8807/ 333 10198
AAXX 20181 59265 31956 60403 10108 20079 30061 40200 54000 71000 86030 333 10199
AAXX 20181 59293 32762 80203 10167 20053 30105 40190 57004 885// 333 10214
AAXX 20181 59501 11760 80401 10169 20140 30157 40178 57007 69911 70060 885// 333 10201
AAXX 20181 59663 31658 70203 10172 20058 30072 40180 57006 70500 875// 333 10206
AAXX 20181 59838 32762 70702 10202 20139 30143 40153 57010 875// 333 10226
AAXX 20181 59948 11370 70706 10171 20149 39673 40161 57007 69901 70080 878// 333 10196
AAXX 20181 59981 11570 20405 10235 20219 30115 40122 57009 69931 70080 82200 333 10252
AAXX 20181 33088 11595 80203 11002 21005 39899 40093 57004 60052 77377 8872/ 333 10001
AAXX 20184 62357 32960 03604 10141 20087 40191 52017 333 10213
AAXX 20184 62423 32960 03202 10132 20057 40214 52014 333 10207
AAXX 20184 62403 32960 02605 10184 20070 40179 52014 333 10267
AAXX 20181 23219 31498 82510 11056 21082 30092 40201 58007 73633 8802/ 333 11050
BBXX 46249 20181 99338 71197 46/// ///// 1//// 91812 22200 00146 11403 21002 325// 41402 70013
BBXX 46248 20181 99461 71247 46/// ///// 1//// 91804 22200 00096 11407 21003 329// 41406 70034
BBXX 46244 20181 99409 71244 46/// ///// 1//// 91805 22200 00097 10807 20805 329// 41404 70033
BBXX 46241 20181 99330 71173 46/// ///// 1//// 91741 22200 00142 11401 20701 326// 41401 70007
BBXX 41115 20181 99184 70673 46/// ///// 1//// 91805 22200 11105 20804 336// 41103 70027
BBXX 41114 20181 99276 70802 46/// ///// 1//// 91816 22200 00237 11003 21003 306// 41101 70016
BBXX 46240 20181 99366 71219 46/// ///// 1//// 91812 22200 00122 11103 21002 335// 41102 70015
BBXX 46237 20181 99378 71226 46/// ///// 1//// 91810 22200 00113 11404 21002 324// 41403 70021
BBXX 46212 20181 99408 71243 46/// ///// 1//// 91812 22200 00097 11306 20805 329// 41304 70031
BBXX 46217 20181 99342 71194 46/// ///// 1//// 91812 22200 00150 11302 21001 326// 41301 70010
BBXX 46223 20181 99335 71178 46/// ///// 1//// 91800 22200 00152 11502 21001 327// 41502 70012
AAXX 20181 50353 32970 70000 11236 21264 39938 40179 57006 80002 333 11148
AAXX 20181 50557 32970 02901 11238 21267 39864 40191 57007 333 11144
AAXX 20181 50756 32960 02001 11191 21206 39892 40213 57010 333 11142
AAXX 20181 50949 32965 02203 11131 21205 30026 40206 57009 333 11051
AAXX 20181 50963 32962 00402 11212 21237 30077 40224 57007 333 11078
AAXX 20181 50978 32975 02001 11153 21190 39873 40243 57007 333 11078
AAXX 20181 51087 32980 01801 11267 21298 39501 40606 57012 333 00652 11189
AAXX 20181 51156 NIL
AAXX 20181 51644 32960 70000 11074 21111 39102 40435 57004 80002 333 00951 11017
AAXX 20181 51656 31959 20000 11080 21116 39280 40435 52001 70400 80002 333 01157 10022
AAXX 20181 51886 32980 70401 11114 21252 37121 57006 80002 333 00200 11046
AAXX 20181 52602 32980 70906 11053 21287 37260 57004 80002 333 05111 11006
AAXX 20181 52713 32980 00401 11134 21231 36894 54000 333 05100 11003
AAXX 20181 52754 32980 73201 11086 21217 36793 52005 80002 333 00003 11013
AAXX 20181 52818 32980 02702 11095 21239 37240 52001 333 00200 11021
AAXX 20181 52836 32980 01101 11129 21224 36895 52005 333 00051 10056
AAXX 20181 52955 32980 00000 11129 21205 36967 52003 333 05151 10026
AAXX 20181 53068 32980 72903 11163 21207 39138 40363 52012 80002 333 05208 11093
AAXX 20181 53276 32980 02506 11159 21213 38928 40372 52009 333 11104
AAXX 20181 54135 32980 02502 11132 21212 30005 40241 52002 333 11046
AAXX 20181 54236 32965 02703 11074 21184 30135 40245 54000 333 11017
AAXX 20181 54539 32970 03403 11024 21130 30254 40269 57004 333 10035
AAXX 20181 54662 32962 02501 10005 21080 30139 40256 57004 333 10039
AAXX 20181 54753 31930 02202 11002 21019 30269 40276 57004 71000 333 10032
AAXX 20181 54857 31920 03405 10009 21023 30185 40280 57001 71000 333 10049
AAXX 20181 57067 31920 80000 10028 21010 39605 40299 52003 71000 8807/ 333 10072
AAXX 20181 57178 31950 83601 10040 21018 30134 40297 52001 71000 8807/ 333 10073
AAXX 20181 57245 32961 82701 10067 20030 39922 40279 52002 8807/ 333 00151 10099
AAXX 20181 57297 31940 83201 10027 21018 30147 40292 52005 71000 8807/ 333 10074
BBXX 46213 20181 99403 71247 46/// ///// 1//// 91754 22200 00100 10907 20906 329// 41304 70036
BBXX 46231 20181 99327 71174 46/// ///// 1//// 91754 22200 00150 11403 21002 328// 41402 70014
BBXX 46222 20181 99336 71183 46/// ///// 1//// 91756 22200 00151 11302 21001 327// 41302 70011
BBXX 46242 20181 99332 71174 46/// ///// 1//// 91758 22200 00144 11501 20601 323// 41501 70007
BBXX 46211 20181 99469 71242 46/// ///// 1//// 91806 22200 00086 11506 20803 327// 41505 70030
AAXX 20184 89667 46/// /0201 11054 29050 39766 4//// 5////
AAXX 20184 89667 46/// /0203 11063 39764 4//// 5////
AAXX 2018/ 89799 46/// ///// 11248 4//// 5//// 91810
AAXX 2018/ 89327 46/// ///// 11008 39601 4//// 5////
AAXX 2018/ 89332 46/// ///// 10009 39152 4//// 5////
AAXX 2018/ 89769 46/// ///// 11073 39726 4//// 5////
AAXX 2018/ 89828 46/// ///// 11270 36460 4//// 5//// 91810
AAXX 2018/ 89879 46/// ///// 11006 39666 4//// 5////
AAXX 2018/ 89314 46/// ///// 11071 38205 4//// 5////
AAXX 2018/ 89872 46/// ///// 11079 39716 4//// 5////
AAXX 2018/ 89869 46/// ///// 11103 39701 4//// 5//// 91810
AAXX 2018/ 89866 46/// ///// 11023 39659 4//// 5////
AAXX 2018/ 89329 46/// ///// 11053 38700 4//// 5//// 91810
BBXX 46216 20181 99343 71198 46/// ///// 1//// 91757 22200 00147 11403 21002 327// 41402 70013
AAXX 20181 40703 11530 80000 11020 21034 39026 40355 56002 60001 71022 886// 333 55000 88720
AAXX 20181 40712 11/04 92902 11026 21029 38778 40350 50002 60001 74544 333 55000 29048 89/04
AAXX 20181 40729 12962 01203 11016 21053 38426 40330 51004 60001 333 55071 21032
AAXX 20181 40736 12960 00000 10080 20050 30290 40264 57019 60001 333 55010
AAXX 20181 40739 12965 00000 11020 21117 38790 40348 58007 60001 333 55090
AAXX 20181 40743 12965 00504 10002 21254 39192 40362 50002 60001 333 55087
AAXX 20181 40762 12962 00000 11094 21264 38661 40377 54000 60001 333 55086
AAXX 20181 40768 12960 00000 11022 21063 38344 40341 51005 60001 333 55067 21197
AAXX 20181 40769 11958 03302 10010 21044 38388 40323 50002 60001 70500 333 55083 21146
AAXX 20181 40785 12960 00000 10046 21044 39199 40328 51007 60001 333 55085
AAXX 20181 40809 12965 01002 11040 21226 38591 40348 58001 60001 333 55096 21382
AAXX 20181 40821 12962 02503 10042 21079 38890 40322 58004 60001 333 55093 21304
AAXX 20181 40831 12960 00000 10114 20058 30222 40230 51008 60001 333 55089
AAXX 20181 91945 36/// /0812 10287 20229 30147 40152 51016
AAXX 20181 89062 42586 11703 10026 21007 39895 49935 52009 81531 333 81625
BBXX 41112 20181 99307 70813 46/// ///// 1//// 91751 22200 00161 11002 21002 308// 41101 70008
AAXX 20184 41252 36/// /0510 10201 20083 39816 40106 333 0E022 10255 58009
BBXX SHIP 20184 99094 11355 41/98 20819 10282 20239 40056 56022 70200 8//// 22213 06292 10605 20102
BBXX V2NA1 20184 99446 70252 41498 82015 10156 20126 40292 53002 70222 887// 22224 04130 20503 324// 40504 80138
BBXX 63118 20183 99591 10016 41597 82722 10050 40052 76166 8/7// 22200 10605 70024
BBXX 62001 20184 99452 70050 46/// /3111 10129 20108 40284 52015 22200 00142 10604 70022
BBXX 62081 20184 99510 70134 46/// ///// 10126 20113 40208 52011 22200 00119 10707 70036
BBXX 62442 20184 99490 70164 46/// /2517 1//// 2//// 40266 52012 22200 00127
BBXX 62029 20184 99487 70125 46/// /2819 10130 20121 40264 53013 22200 00129 10605 70026 333 90710 91127
BBXX 62301 20184 99524 70047 46/// /2410 10089 20069 40178 56006 22200 00086 10503 70014
BBXX 62303 20184 99516 70051 46/// /2411 10107 20075 40192 56007 22200 00109 10603 70017
BBXX 62163 20184 99475 70084 46/// /2713 10116 20097 40276 53006 22200 00127 10604 70020
BBXX 64046 20184 99606 70049 46/// /2919 10061 20020 40050 52014 22200 00078 10809 70043
BBXX 64045 20184 99591 70117 46/// /2604 10047 20012 40076 55000 22200 00101 10909 70045
BBXX 62105 20184 99554 70122 46/// /2518 10111 20107 40074 55010 22200 00106 10908 70042
BBXX AMOUK19 20184 99571 70021 46/// ///// 10044 2//// 30108 40112 52006 91750
BBXX AMOUK14 20184 99535 70054 46/// ///// 10088 20066 30125 40159 57012 91750
BBXX AMOUK09 20184 99516 10020 46/// ///// 10074 20034 30153 40168 52020 91750
BBXX AMOUK27 20184 99579 70052 46/// ///// 11191 2//// 30086 40091 52007 91750
BBXX AMOUK03 20184 99537 70003 46/// ///// 10062 20028 30120 40151 52015 91750
BBXX AMOUK08 20184 99501 70061 46/// ///// 10114 20098 30216 40221 54001 91750
BBXX AMOUK05 20184 99537 70003 46/// ///// 10048 20024 30114 40150 52017 91750
BBXX AMOUK06 20184 99512 10014 46/// ///// 10071 20028 30159 40175 52019 91750
BBXX 63056 20184 99597 10016 47598 /2914 10056 20001 40032 52010 700// 22200 10605 70025
BBXX 63110 20184 99595 10015 47598 /3014 10059 20004 40045 52010 700// 22200 10604 70022
BBXX 63057 20184 99592 10015 47698 /2717 10064 20005 40052 53010 700// 22200 10605 70024
BBXX 62128 20184 99587 10014 47798 /2816 10053 20012 40066 51007 700// 22200 10605 70026
BBXX 64041 20184 99607 70026 47598 /2618 10042 21007 40044 53015 700// 22200 10807 70037
BBXX MWYG6 20184 99603 70040 47998 /2812 10050 700// 22200
BBXX 63115 20184 99616 10013 47999 /2712 10045 21016 40018 52013 700// 22200 10707 70034
BBXX 63117 20184 99613 10011 47599 /2909 10045 21013 40023 52014 700// 22200
BBXX 63104 20184 99612 10016 47699 /2807 10029 21005 40025 52016 700// 22200
BBXX 63103 20184 99612 10011 46/// /3210 10042 21007 40026 52011 22200 10705 70024
BBXX 63101 20184 99612 10009 46/// /3206 10052 20016 40023 52012 22200
BBXX 63107 20184 99611 10017 46/// /3210 10027 40026 52013 22200
BBXX 63112 20184 99611 10010 47698 /2808 10050 21011 40021 52009 700// 22200 10705 70026
BBXX 63113 20184 99610 10017 46/// /3311 10037 20010 40028 53010 22200 10705 70025
BBXX 63105 20184 99610 10017 47598 ///// 10052 20010 40026 52013 700// 22200
BBXX 63106 20184 99610 10017 46/// /3111 10034 40027 52013 22200
BBXX 63108 20184 99608 10017 47998 /2816 10025 21012 40025 53013 700// 22200 10704 70021
BBXX 63055 20184 99606 10016 47996 /3017 10043 21010 40031 52013 704// 22200 10604 70021
BBXX 62112 20184 99584 70002 47598 /2907 10049 20004 40081 52014 700// 22200
BBXX PJAI 20184 99581 70014 47598 /2817 10072 20011 40085 51009 762// 22200
BBXX 62111 20184 99580 70003 46/// /2919 10060 20013 40094 52006 22200 10504 70020
BBXX PJGO 20184 99571 10022 47598 /2921 10066 20019 40087 52010 700// 22200
BBXX 62133 20184 99571 10009 46/// /2915 10055 20007 40096 53013 22200 10605 70025
BBXX 62119 20184 99570 10019 47597 /3116 10064 20013 40090 52009 700// 22200 10605 70027
BBXX 62152 20184 99570 10018 47/98 /3016 10068 20014 40094 52012 700// 22200 10505 70027
BBXX 62154 20184 99564 10022 46/// /3118 10063 20020 40091 52015 22200
BBXX 62120 20184 99564 10021 47698 /3021 10057 20013 40095 52011 700// 22200
BBXX 62132 20184 99564 10020 46/// /3220 10067 20019 40107 50011 22200
BBXX 62123 20184 99563 10022 47598 /3019 10066 20016 40096 52015 762// 22200
BBXX 62165 20184 99540 10009 47598 /2912 10070 20015 40155 52013 700// 22200 10605 70026
BBXX 62127 20184 99540 10007 47998 ///// 10067 20014 40149 52015 700// 22200 10604 70022
BBXX 62131 20184 99539 10012 46/// /31// 10070 20021 40146 52017 22200
BBXX 62149 20184 99537 10011 47998 /2915 10070 20017 40154 52019 751// 22200 10604 70022
BBXX 62148 20184 99536 10015 46/// /2918 10068 20020 40157 52019 22200
BBXX 62150 20184 99536 10007 47998 /2915 10065 20016 40166 52016 700// 22200 10704 70021
BBXX 62121 20184 99535 10027 46/// ///// 22200
BBXX 62144 20184 99534 10017 47998 /2916 10066 20017 40157 53023 700// 22200 10604 70022
BBXX 62145 20184 99531 10028 47598 /3020 10072 20006 40156 52021 700// 22200 10606 70029
BBXX 62142 20184 99530 10021 47698 /3017 10069 20016 40151 52021 700// 22200 10604 70022
BBXX 62129 20184 99584 10003 46/// ///// 10050 20005 40074 52011 22200
BBXX 62113 20184 99584 10002 47698 /2816 10054 20009 40077 52014 763// 22200
BBXX ZQSD5 20184 99583 10007 46/// /2719 10058 20016 40081 52009 22200 10706 70029
BBXX 62114 20184 99583 10000 46/// /2821 10061 20015 40073 52007 22200
BBXX 62134 20184 99580 10014 47598 /2915 10064 20009 40076 52011 700// 22200 10605 70026
BBXX 62102 20184 99579 10018 46/// /3019 10072 20011 40074 52014 22200 10605 70026
BBXX 62117 20184 99579 10000 47598 /2717 10063 20017 40082 52004 700// 22200 10604 70021
BBXX 62143 20184 99577 10018 47597 /3114 10059 20002 40087 52014 751// 22200 10605 70025
BBXX 62118 20184 99577 10009 47698 /2819 10063 20009 40080 52007 700// 22200 10604 70022
BBXX 62155 20184 99577 10007 47599 /2720 10054 20009 40089 53008 751// 22200 10604 70022
BBXX 62116 20184 99576 10011 47597 /2916 10061 20010 40083 52012 700// 22200 10605 70023
BBXX 62104 20184 99574 10013 47797 /3011 10059 20004 40088 52015 700// 22200
BBXX 62153 20184 99573 10020 47598 /2606 10049 20004 40085 52015 700// 22200 10605 70025
BBXX 62122 20184 99573 10016 47598 /2920 10066 20009 40083 51014 700// 22200 10605 70026
BBXX 62140 20184 99573 10013 46/// /29// 10069 20009 40084 51009 22200
BBXX 62146 20184 99572 10021 47/98 /2909 10060 21006 40089 52014 700// 22200 10606 70028
BBXX 62164 20184 99572 10008 47598 /2814 10079 20029 40097 53009 700// 22200 00094 10605 70026
BBXX 62027 20184 99491 70022 46/// /3415 1//// 2//// 40225 52012 22200 00112 10603 332// 70016
BBXX 62170 20184 99514 10020 46/98 /3021 10081 20032 40172 52016 22200 00107 10602 70011 333 90710 91129
BBXX 62304 20184 99511 10018 46/98 /3118 10077 20032 40183 52018 22200 00110 10603 70013 333 90710 91125
BBXX 62305 20184 99504 10000 46/98 /3119 10091 20034 40205 51013 22200 00119 10602 70010 333 90710 91126
BBXX 63110 20183 99595 10015 41/98 /2918 10061 40042 700// 8//// 22200 10504 70020
BBXX 62094 20184 99517 70067 46/// /2319 10106 20097 40180 57017 22200 00105 10503 70015 333 90710 91125
BBXX 62103 20184 99499 70029 46/99 /3118 10107 20057 40210 51013 22200 00122 10703 70013 333 90710 91125
BBXX 62107 20184 99501 70061 46/// /2520 10109 20087 40221 58001 22200 00117 10703 70014
BBXX 64045 20184 99511 70117 46/// /2604 10047 20012 40076 55000 22200 00101 10909 70045
BBXX 62095 20184 99530 70159 46/// /2622 10122 20116 40156 53019 22200 00113 10809 70046 333 90710 91131
BBXX 63119 20184 99583 10009 41/97 43123 10056 20013 40065 51/// 701// 8//// 22200 2//// 331// 40604 5////
BBXX 62103 20184 99499 70029 46/99 /2919 10109 20064 40216 52012 22200 00122 10702 70012
BBXX ZCDN2 20184 99352 70149 41599 70811 10155 20108 40307 52001 700// 854// 22253 00170 2//// 302// 40403 5//// 80130
BBXX DDYZ2 20184 99495 70035 41/98 72915 10129 20083 40225 54000 7//// 8//// 22213 04130 2//// 80104
AAXX 20181 28383 31997 02304 11119 21181 30340 40430 52005 70231 333 11097
AAXX 20181 28588 32998 02503 11139 21182 30297 40470 57002 333 11148
AAXX 20181 28688 32997 62403 11134 21177 30305 40478 57007 86010 333 11135
AAXX 20181 28465 32998 82004 11123 21150 30368 40451 57004 83032 333 11130
AAXX 20181 23929 11978 22405 11089 21113 30286 40356 57004 69940 73630 80001 333 11057
BBXX 46221 20181 99339 71186 46/// ///// 1//// 91745 22200 00149 11402 21001 326// 41401 70009
BBXX 51203 20181 99208 71570 46/// ///// 1//// 91813 22200 00248 11302 20301 325// 41301 70008
BBXX 52200 20181 99134 11448 46/// ///// 1//// 91815 22200 00287 11005 21004 309// 41102 70025
BBXX 44098 20181 99428 70702 46/// ///// 1//// 91807 22200 00088 10503 20503 311// 41101 70014
BBXX 44097 20181 99410 70711 46/// ///// 1//// 91802 22200 00121 10904 20904 316// 41302 70020
BBXX 51205 20181 99210 71564 46/// ///// 1//// 91818 22200 00241 10905 20905 334// 41302 70026
AAXX 20181 28696 31997 02003 11180 21214 30321 40475 57003 70230 333 11182
AAXX 20181 28586 32997 82403 11152 21186 30303 40501 54000 8802/ 333 11151
AAXX 20181 28791 32998 22304 11170 21196 30326 40485 57003 80001 333 11159
AAXX 20181 38388 32998 00506 11078 21157 30362 40439 57007 333 11015
AAXX 20181 38392 32997 00704 11098 21177 30366 40479 57003 333 11034
AAXX 20181 38507 32996 40704 10005 21166 30200 40307 57003 80001 333 10094
AAXX 20181 38511 32998 00907 11042 21143 30231 40382 57010 333 10013
AAXX 20181 38545 32998 00703 11102 21157 30273 40464 57010 333 11044
AAXX 20181 38647 32997 00912 11023 21157 30284 40329 57011 333 10037
AAXX 20181 38656 32998 00905 11052 21097 30302 40419 57008 333 10018
AAXX 20181 38687 32996 00503 11101 21161 30197 40455 58011 333 11033
AAXX 20181 38750 32997 02702 10053 20046 30222 40293 58008 333 10110
AAXX 20181 38763 32997 00910 11022 21135 30230 40341 57011 333 10035 91018 91118
AAXX 20181 38774 32995 01404 11037 21077 30192 40401 57004 333 10034
AAXX 20181 38799 32997 00202 11092 21174 30198 40451 53003 333 11026
AAXX 20181 38806 32997 03601 11098 21139 30160 40446 58006 333 11028
AAXX 20181 38880 32997 00907 11037 21118 30125 40390 57014 333 10041
AAXX 20181 38886 32997 01003 11062 21099 30180 40426 57009 333 10015
AAXX 20181 38895 32996 00502 11075 21135 30135 40449 57011 333 11005
AAXX 20181 38911 32997 01701 11076 21085 30115 40433 57008 333 11030
AAXX 20181 38915 32997 00901 11051 21059 30083 40431 58009 333 11015
AAXX 20181 38974 32998 00000 11058 21080 30065 40426 57007 333 10007
AAXX 20181 38987 32996 00000 11065 21097 39634 40432 57013 333 11018
AAXX 20181 22438 11530 82003 10006 21002 30022 40043 52010 69960 78382 889// 333 10010
AAXX 20181 38847 3//// /2200 11068 21106 39570 40390 333 11021 777 92075
AAXX 20184 40582 32960 02104 10098 21010 40232 51008 333 55300 00000 10188 20000 30000 41099 51286 60000 55407 40000 90401 91003 91109 91205 91303
AAXX 20184 41150 NIL
AAXX 20184 41168 NIL
AAXX 20184 41170 42960 03603 10199 20163 30208 40221 333 10242 59003
AAXX 20184 41176 NIL
AAXX 20184 41184 42960 01707 10210 20081 40201 333 10272 58009
AAXX 20184 41194 12960 00709 10206 20043 30202 40207 60001 333 10270 58006
AAXX 20184 41196 42960 00906 10168 20049 30170 40211 333 10268 58007
AAXX 20184 41198 42960 02804 10191 20059 40209 333 10251 58006
AAXX 20184 41210 NIL
AAXX 20184 41216 NIL
AAXX 20184 41217 42960 00411 10201 20039 30161 40190 333 10272 59002
AAXX 20184 41218 42960 00807 10199 20015 39888 40197 333 10256 58004
AAXX 20184 41226 NIL
AAXX 20184 41244 36/// /0806 10197 20012 39848 48354 333 0E021 10249 58006
AAXX 20184 41246 32960 02105 10194 20090 30203 40208 333 10254 58006
AAXX 20184 41254 36/// /2906 10084 20040 38014 48019 333 0E010 10132 58015
AAXX 20184 41256 31958 01704 10200 20090 30200 40210 70500 333 10252 58005
AAXX 20184 41258 36/// /2402 10229 20100 30198 40202 333 0E/// 10241 58006
AAXX 20184 41268 36/// /0008 10220 20106 30182 48393 333 0E022 10253 58008
AAXX 20184 41312 36/// /0210 10237 20097 30145 40185 333 0E/// 10277 58010
AAXX 20184 41314 32960 00102 10165 20055 39697 40212 333 10227 58000
AAXX 20184 41316 32960 00203 10224 20066 30162 40188 333 10277 58010
AAXX 20184 41404 42960 00103 10112 21026 37898 48560 333 10212 59003
AAXX 20184 41407 NIL
AAXX 20184 41431 42960 01806 10254 20221 30133 40146 333 10290 59001
AAXX 20184 41466 42460 41206 10156 20140 38594 48494 82601 333 10264 58004 81720 84070
AAXX 20184 41477 NIL
AAXX 20184 41480 42460 20805 10250 20166 30175 40178 82500 333 10290 59001 82618
AAXX 20181 29998 42999 81401 11170 21212 38694 48540 57006 80002
AAXX 20181 30385 42999 33601 11237 21250 39665 40243 52024 80001
AAXX 20181 30469 429// 82502 11215 21240 39436 40249 52032 8801/
AAXX 20181 30636 419// 82402 11143 21178 39662 40302 52014 77171 85031
AAXX 20181 30650 42984 03201 11214 21268 39099 40299 52019
AAXX 20181 30664 42999 83203 11217 21242 39200 40260 52012 70272 8801/
AAXX 20181 30781 41999 00000 11271 21280 39707 40223 52014 70171
AAXX 20181 30777 42998 22503 11188 21214 39531 40223 52019 80002
AAXX 20181 30844 41999 32708 11174 21208 39294 40333 52011 73633 80001
AAXX 20181 30925 429// 53401 11215 21233 39348 40406 52002 80001
AAXX 20181 31371 42999 80905 11218 21250 39906 40191 57004 8801/
AAXX 20181 31388 42984 60501 11243 21261 39925 40212 57010 80001
AAXX 20181 31478 NIL
AAXX 20181 31532 41999 80000 11326 21342 39901 40290 57003 77171 80007
AAXX 20181 31594 42999 01203 11166 21200 30021 40202 58005
AAXX 20181 31655 42998 02002 11208 21227 30191 40242 58002
AAXX 20181 31754 42999 00000 11365 21376 39738 40319 52003
BBXX SHIP 20184 99509 11643 41597 40117 10000 21049 40995 51009 70322 84/// 91800 22214 00020 2//// 3//// 4//// 80000
BBXX A8JX9 20183 99506 11583 41/// /0222 11025 21025 40013 52031 700// 8//// 22254 2//// 3//// 4//// 5//// 81025
BBXX 3EIU9 20184 99140 11199 41297 40617 10270 20230 40107 57008 70000 829// 91735 22212 00263 1//// 2//// 306// 40403 5//// 6//// 80240 /////
BBXX DGTX 20183 99330 11649 41/98 /1209 10170 20086 40145 56005 70282 8//// 22264 00230 2//// 80123
BBXX SHIP 20184 99159 11158 41498 30520 10245 20224 40103 56019 70111 823// 22254 00267 80230
BBXX SHIP 20184 99206 11318 41397 50431 10230 20201 40169 58005 70311 8434/ 22283 00280 80210
BBXX SHIP 20184 99324 11505 41/96 63422 10130 20116 40172 51014 70301 8//// 91750 22264 00200 2//// 3//// 4//// 5//// 80110
BBXX A8JX9 20183 99506 11583 41/// /0222 11025 21025 40013 52031 700// 8//// 22254 2//// 3//// 4//// 5//// 81025
BBXX SHIP 20184 99273 11254 41898 70922 10190 20142 41019 56001 70222 87725 91800 22214 00230 1//// 2//// 3//// 4//// 5//// 6//// 80160 //////
BBXX 7JJA 20184 99359 11414 41698 10212 00 10070 20000 40220 57010 70200 81100 9//// 22200 0 2//01 3 4 5 6//// 80040 ICE /////
BBXX AVMI 20184 99309 31534 41298 21122 10204 20/// 40219 56015 70150 821// 22233 00234
BBXX SHIP 20184 99297 31117 41998 01916 10202 20146 40127 57010 70100 80000 22232 00225 10905 399// 408// 85167
BBXX 3FMH7 20184 99264 71349 41798 60717 00/// 10190 20142 40238 5//// 70211 85269 9//// 22273 0//// 1//// 20102 307// 40302 5//// 6//// 80160
BBXX H9UY 20184 99205 71583 41698 60432 00/// 10230 40146 51020 70322 86376 9//// 22273 04250 20605 308// 40706 5//// 6//// 80210
BBXX SHIP 20184 99297 31117 41998 01916 10202 20146 40127 57010 70100 80000 22232 00225 10905 399// 408// 85167
AAXX 20181 40700 11956 00000 10020 20004 30190 40282 56008 60001 71000 333 55032
AAXX 20181 40723 12960 00000 11050 21093 39025 40367 55008 60001 333 55088 21110
AAXX 20181 40726 12660 60000 10010 21011 38749 40330 52007 60001 82520 333 55042 82635 86458
AAXX 20181 40727 12960 00000 11030 21046 38572 40350 51010 60001 333 55060 20929
AAXX 20181 40734 11940 00000 10058 20049 30292 40266 57013 60001 71000 333 55061
AAXX 20181 40737 12960 09901 10040 20038 30249 40268 57018 60001 333 55033 2////
AAXX 20181 40741 12960 00000 11042 21110 30070 40431 57009 60001 333 55068
AAXX 20181 40780 12960 01202 10046 21109 38752 40254 51006 60001 333 55088 21227
AAXX 20181 40791 12960 00902 10038 21113 39467 40321 53001 60001 333 55093
AAXX 20181 40792 12970 00000 11032 21118 38823 40347 54000 60001 333 55094
AAXX 20181 40794 12960 00000 10110 20058 30131 40231 51009 60001 91745 333 55090 21208
AAXX 20181 40812 12960 00000 10152 20004 39838 40216 52011 60001 91745 333 55092
AAXX 20181 40829 11958 02906 10025 21286 39713 40314 52021 60001 70700 333 55006
AAXX 20181 40833 12960 03102 10118 20077 30199 40232 51008 60001 91745 333 55091
AAXX 20181 40835 12970 00000 10106 21011 39389 40229 51002 60001 333 55094
AAXX 20181 40845 NIL
AAXX 20181 40882 12960 00803 10206 20093 30172 40207 51012 60001 333 55093
AAXX 20181 40889 NIL
AAXX 20181 40890 NIL
AAXX 20181 40893 12960 00303 10195 20054 30198 40204 53006 60001 222// 00/// 20501 333 55093
AAXX 20181 40897 NIL
AAXX 20181 40701 11630 81202 11064 21065 38683 40370 57006 60001 71022 8552/ 333 55000 85635 88458
AAXX 20181 40704 12970 03008 10034 21030 38681 40273 58001 60001 333 55090 21038
AAXX 20181 40708 12960 31807 10050 21022 38717 40240 57009 60001 80003 333 55085 21045 83070
AAXX 20181 40710 12970 19901 11102 21119 38399 40407 54000 60001 80001 333 55053 81068
AAXX 20181 40713 11912 20000 11010 21032 38760 40336 51004 60001 71000 80002 333 55000 82070
AAXX 20181 40719 11530 60000 10072 20063 30280 40269 56010 60001 71020 81570 333 55006 81620 86357
AAXX 20181 40731 12960 00402 10016 21043 38838 40320 51001 60001 333 55087 21000
AAXX 20181 40738 11540 10078 20072 30288 40290 57014 60001 71022 83570 333 55000 82620 86458
AAXX 20181 40740 12962 00706 11066 21114 38845 40377 54000 60001 333 55088
AAXX 20181 40747 12960 00000 10000 21036 38711 40312 53007 60001 333 55087 20951
AAXX 20181 40757 12962 00000 10020 21046 39016 40336 52005 60001 333 55086 20598
AAXX 20181 40763 12965 00902 11010 21186 39034 40360 53004 60001 333 55090
AAXX 20181 40782 12960 01502 10053 21072 38944 40268 51007 60001 333 55086
AAXX 20181 40783 12965 00906 10050 21073 38059 40274 52007 60001 333 55092
AAXX 20181 40789 12965 00000 10034 21132 39326 40335 51001 60001 333 55090 21263
AAXX 20181 40798 12960 03004 11016 21098 38042 40343 51006 60001 333 55091 21277
AAXX 20181 40818 12970 00000 11020 21110 38051 40318 54000 60001 333 55093
AAXX 20181 40827 12965 00903 10008 21197 38926 40335 51005 60001 333 55095
AAXX 20181 40836 12965 00000 10034 21085 38254 40274 51006 60001 333 55094 21434
AAXX 20181 40851 12960 00303 10038 21096 38222 40256 51006 60001 333 55090
AAXX 20181 40853 12960 03605 10026 21133 37791 40237 51005 60001 333 55095
AAXX 20181 40854 12960 02903 10068 21090 39046 40276 50001 60001 333 55086
AAXX 20181 40857 11957 00302 10162 20141 30214 40224 52010 60001 71000 222// 00/// 20000 333 55086
AAXX 20181 40859 12962 00000 10070 21091 38768 40220 51005 60001 333 55096
AAXX 20181 40878 12960 00405 10040 21506 38910 40284 51005 60001 333 55093
AAXX 20181 40879 12960 00000 10107 21223 39555 40246 51018 60001 333 55097
AAXX 20181 40883 11950 00705 10194 20072 30185 40208 51006 60001 70500 333 55099
AAXX 20181 40898 12960 03504 10178 20048 30188 40197 51012 60001 222// 00241 10800 333 55094 2////
AAXX 20181 40701 11630 81202 11064 21065 38683 40370 57006 60001 71022 8552/ 333 55000 85635 88458
AAXX 20181 40704 12970 03008 10034 21030 38681 40273 58001 60001 333 55090 21038
AAXX 20181 40708 12960 31807 10050 21022 38717 40240 57009 60001 80003 333 55085 21045 83070
AAXX 20181 40710 12970 19901 11102 21119 38399 40407 54000 60001 80001 333 55053 81068
AAXX 20181 40713 11912 20000 11010 21032 38760 40336 51004 60001 71000 80002 333 55000 82070
AAXX 20181 40719 11530 60000 10072 20063 30280 40269 56010 60001 71020 81570 333 55006 81620 86357
AAXX 20181 40731 12960 00402 10016 21043 38838 40320 51001 60001 333 55087 21000
AAXX 20181 40738 11540 10078 20072 30288 40290 57014 60001 71022 83570 333 55000 82620 86458
AAXX 20181 40740 12962 00706 11066 21114 38845 40377 54000 60001 333 55088
AAXX 20181 40747 12960 00000 10000 21036 38711 40312 53007 60001 333 55087 20951
AAXX 20181 40757 12962 00000 10020 21046 39016 40336 52005 60001 333 55086 20598
AAXX 20181 40763 12965 00902 11010 21186 39034 40360 53004 60001 333 55090
AAXX 20181 40782 12960 01502 10053 21072 38944 40268 51007 60001 333 55086
AAXX 20181 40783 12965 00906 10050 21073 38059 40274 52007 60001 333 55092
AAXX 20181 40789 12965 00000 10034 21132 39326 40335 51001 60001 333 55090 21263
AAXX 20181 40798 12960 03004 11016 21098 38042 40343 51006 60001 333 55091 21277
AAXX 20181 40818 12970 00000 11020 21110 38051 40318 54000 60001 333 55093
AAXX 20181 40827 12965 00903 10008 21197 38926 40335 51005 60001 333 55095
AAXX 20181 40836 12965 00000 10034 21085 38254 40274 51006 60001 333 55094 21434
AAXX 20181 40851 12960 00303 10038 21096 38222 40256 51006 60001 333 55090
AAXX 20181 40853 12960 03605 10026 21133 37791 40237 51005 60001 333 55095
AAXX 20181 40854 12960 02903 10068 21090 39046 40276 50001 60001 333 55086
AAXX 20181 40857 11957 00302 10162 20141 30214 40224 52010 60001 71000 222// 00/// 20000 333 55086
AAXX 20181 40859 12962 00000 10070 21091 38768 40220 51005 60001 333 55096
AAXX 20181 40878 12960 00405 10040 21506 38910 40284 51005 60001 333 55093
AAXX 20181 40879 12960 00000 10107 21223 39555 40246 51018 60001 333 55097
AAXX 20181 40883 11950 00705 10194 20072 30185 40208 51006 60001 70500 333 55099
AAXX 20181 40898 12960 03504 10178 20048 30188 40197 51012 60001 222// 00241 10800 333 55094 2////
AAXX 20181 14216 12981 30202 10032 21057 39977 40132 53/// 60002 80001 333 10080 923// 924/8
AAXX 20181 14219 12880 33601 11060 21074 39101 48398 53/// 60002 81045 333 11015 47024
AAXX 20181 14232 12980 11801 11025 21034 30006 40147 54/// 60002 80001 333 10035
AAXX 20181 14234 11970 00302 11030 21036 39889 40146 56/// 60002 700// 333 10020
AAXX 20181 14236 12970 02301 10000 21038 39938 40141 54/// 60002 333 10039
AAXX 20181 14244 12960 02101 11019 21024 30016 40150 52/// 60002 333 10032 44002
AAXX 20181 14248 12960 01802 11015 21037 39964 40144 54/// 60002 333 10040 41998
AAXX 20181 14253 11950 01601 11012 21024 39960 40139 54/// 60002 710// 333 10035 43002
AAXX 20181 14256 12970 02303 11026 21040 39810 40139 56003 60002 333 10021 43019
AAXX 20181 14280 12960 02502 11060 21068 30026 40140 51005 60002 333 10008 44004 93197
AAXX 20181 14308 12980 00000 11023 21087 39774 40140 54/// 60002 333 10068
AAXX 20181 14321 12982 20000 10040 21072 30112 40137 53/// 60002 80001 333 10090 92301 92418
AAXX 20181 14370 12960 00000 11022 21036 30032 40146 55007 60002 333 10035
AAXX 20181 14382 12960 02503 11018 21031 30021 40145 52008 69922 333 10016 42003
AAXX 20181 14428 12970 00501 10030 21057 30123 40131 53/// 60002 333 10077 92301
AAXX 20181 14441 11586 21603 10060 21028 30095 40120 52/// 60002 700// 82200 333 10087 92324
AAXX 20181 14452 NIL
AAXX 20181 14454 12983 03103 10066 21042 30052 40113 51/// 60002 333 10115 92322
AAXX 20181 14462 12680 50202 10052 21039 30117 40123 52/// 60002 85500 333 10080
AAXX 20181 40701 11630 81202 11064 21065 38683 40370 57006 60001 71022 8552/ 333 55000 85635 88458
AAXX 20181 40704 12970 03008 10034 21030 38681 40273 58001 60001 333 55090 21038
AAXX 20181 40708 12960 31807 10050 21022 38717 40240 57009 60001 80003 333 55085 21045 83070
AAXX 20181 40710 12970 19901 11102 21119 38399 40407 54000 60001 80001 333 55053 81068
AAXX 20181 40713 11912 20000 11010 21032 38760 40336 51004 60001 71000 80002 333 55000 82070
AAXX 20181 40719 11530 60000 10072 20063 30280 40269 56010 60001 71020 81570 333 55006 81620 86357
AAXX 20181 40731 12960 00402 10016 21043 38838 40320 51001 60001 333 55087 21000
AAXX 20181 40738 11540 10078 20072 30288 40290 57014 60001 71022 83570 333 55000 82620 86458
AAXX 20181 40740 12962 00706 11066 21114 38845 40377 54000 60001 333 55088
AAXX 20181 40747 12960 00000 10000 21036 38711 40312 53007 60001 333 55087 20951
AAXX 20181 40757 12962 00000 10020 21046 39016 40336 52005 60001 333 55086 20598
AAXX 20181 40763 12965 00902 11010 21186 39034 40360 53004 60001 333 55090
AAXX 20181 40782 12960 01502 10053 21072 38944 40268 51007 60001 333 55086
AAXX 20181 40783 12965 00906 10050 21073 38059 40274 52007 60001 333 55092
AAXX 20181 40789 12965 00000 10034 21132 39326 40335 51001 60001 333 55090 21263
AAXX 20181 40798 12960 03004 11016 21098 38042 40343 51006 60001 333 55091 21277
AAXX 20181 40818 12970 00000 11020 21110 38051 40318 54000 60001 333 55093
AAXX 20181 40827 12965 00903 10008 21197 38926 40335 51005 60001 333 55095
AAXX 20181 40836 12965 00000 10034 21085 38254 40274 51006 60001 333 55094 21434
AAXX 20181 40851 12960 00303 10038 21096 38222 40256 51006 60001 333 55090
AAXX 20181 40853 12960 03605 10026 21133 37791 40237 51005 60001 333 55095
AAXX 20181 40854 12960 02903 10068 21090 39046 40276 50001 60001 333 55086
AAXX 20181 40857 11957 00302 10162 20141 30214 40224 52010 60001 71000 222// 00/// 20000 333 55086
AAXX 20181 40859 12962 00000 10070 21091 38768 40220 51005 60001 333 55096
AAXX 20181 40878 12960 00405 10040 21506 38910 40284 51005 60001 333 55093
AAXX 20181 40879 12960 00000 10107 21223 39555 40246 51018 60001 333 55097
AAXX 20181 40883 11950 00705 10194 20072 30185 40208 51006 60001 70500 333 55099
AAXX 20181 40898 12960 03504 10178 20048 30188 40197 51012 60001 222// 00241 10800 333 55094 2////
AAXX 20181 40700 11956 00000 10020 20004 30190 40282 56008 60001 71000 333 55032
AAXX 20181 40723 12960 00000 11050 21093 39025 40367 55008 60001 333 55088 21110
AAXX 20181 40726 12660 60000 10010 21011 38749 40330 52007 60001 82520 333 55042 82635 86458
AAXX 20181 40727 12960 00000 11030 21046 38572 40350 51010 60001 333 55060 20929
AAXX 20181 40734 11940 00000 10058 20049 30292 40266 57013 60001 71000 333 55061
AAXX 20181 40737 12960 09901 10040 20038 30249 40268 57018 60001 333 55033 2////
AAXX 20181 40741 12960 00000 11042 21110 30070 40431 57009 60001 333 55068
AAXX 20181 40780 12960 01202 10046 21109 38752 40254 51006 60001 333 55088 21227
AAXX 20181 40791 12960 00902 10038 21113 39467 40321 53001 60001 333 55093
AAXX 20181 40792 12970 00000 11032 21118 38823 40347 54000 60001 333 55094
AAXX 20181 40794 12960 00000 10110 20058 30131 40231 51009 60001 91745 333 55090 21208
AAXX 20181 40812 12960 00000 10152 20004 39838 40216 52011 60001 91745 333 55092
AAXX 20181 40829 11958 02906 10025 21286 39713 40314 52021 60001 70700 333 55006
AAXX 20181 40833 12960 03102 10118 20077 30199 40232 51008 60001 91745 333 55091
AAXX 20181 40835 12970 00000 10106 21011 39389 40229 51002 60001 333 55094
AAXX 20181 40845 NIL
AAXX 20181 40882 12960 00803 10206 20093 30172 40207 51012 60001 333 55093
AAXX 20181 40889 NIL
AAXX 20181 40890 NIL
AAXX 20181 40893 12960 00303 10195 20054 30198 40204 53006 60001 222// 00/// 20501 333 55093
AAXX 20181 40897 NIL
AAXX 20184 68383 36/// /0000 10250 20131 39903 48569 52018 333 10336 20250 91000 555 91014
AAXX 20181 21432 NIL
AAXX 20181 21824 41997 82002 11317 21330 30277 40287 52001 77872 83036
AAXX 20181 21908 41999 63203 11298 21321 30248 40337 52004 70271 80002
AAXX 20181 21921 41997 31403 11393 21422 30218 40269 52003 71000 83030
AAXX 20181 21931 42998 03602 11369 21397 30246 40282 53007
AAXX 20181 21946 41998 80102 11293 21317 30195 40283 53001 77872 8803/
AAXX 20181 21982 31994 03512 11168 21187 30115 40143 53017 73830 333 21186 48013 91121
AAXX 20181 25062 32998 42602 11297 21321 30193 40197 57005 80001 333 21303 48040 91104
AAXX 20181 25123 42996 01503 11364 21394 30203 40240 52003
AAXX 20181 25138 42699 60000 11396 21422 30110 40251 52003 82531 333 91101
AAXX 20181 25173 31494 53111 11228 21246 30151 40156 52003 73831 85500 333 21232 48064 91117
AAXX 20181 25248 42998 30000 11416 21443 39728 40248 52006 83030 333 91102
AAXX 20181 25282 11931 73511 11216 21228 30089 40096 52008 69920 73832 87030 333 21232 48009 91116
AAXX 20181 25325 NIL
AAXX 20181 25356 32999 23204 11205 21262 30018 40124 52005 80001 333 21237 48017 55000 91006
AAXX 20181 25399 11450 83405 11144 21164 39988 49997 52017 60010 77173 8872/ 333 21144 48064 55000 91108
AAXX 20181 25428 41956 60000 11446 21475 39875 40267 53007 71011 80001 333 91100
AAXX 20181 25551 32998 32902 11251 21298 30084 40117 52005 80001 333 21269 47035 55003 91104
AAXX 20181 25563 11470 80111 11143 21163 39961 40042 53006 69902 77873 885// 333 21182 48031 55000 91118
AAXX 20181 25594 31598 60109 11070 21079 39862 49912 58003 73632 86500 333 21105 49040 91114
AAXX 20181 25677 11396 83306 11142 21155 39986 49992 52006 60022 77173 8572/ 333 21153 85708 91114
AAXX 20181 31054 41999 40000 11427 21455 39965 40283 52006 70271 80006
AAXX 20181 31123 41997 80000 11364 21394 39917 40288 52013 77172 80007
AAXX 20181 60381 16/// /2302 10124 20074 69922 333 10164
AAXX 20181 60639 36/// /3510 10113 21040 333 10146
AAXX 20181 60605 36/// /0503 10141 21020 333 10167
AAXX 20181 60373 36/// /2905 10117 20072 333 10143
AAXX 20181 60623 36/// /0000 10126 21107 333 10149
AAXX 20181 60393 36/// /1902 10127 20074 333 10164
AAXX 20184 60040 02975 00510 10199 20134 30231 40255 53011 60002 333 10226 60007 92438
AAXX 20184 86330 32698 72415 10390 20106 40060 57014 86205
AAXX 20184 86360 32897 41818 10386 20048 40069 57010 81075
AAXX 20184 86460 32598 52008 10346 20108 40075 57007 81106
AAXX 20184 86490 32998 71410 10364 20057 40078 57010 82076
AAXX 20184 86530 32697 51706 10336 20110 40075 55004 81106
AAXX 20184 86545 32997 51805 10316 20168 40083 57011 80006
AAXX 20184 86565 32497 20000 10262 20187 40084 57006 81205
AAXX 20184 86580 32997 31108 10258 20198 40092 58008 80005
AAXX 20184 65528 NIL
AAXX 20184 65536 NIL
AAXX 20184 65545 32956 0//// 10274 20232 39679 40104 333 10305 58003
AAXX 20184 65548 NIL
AAXX 20184 65555 NIL
AAXX 20184 65557 32958 2//// 10288 20238 39866 40104 82002 333 10/// 59002 82076
AAXX 20184 65560 32956 0//// 10300 20222 39778 40084 333 10352 59004
AAXX 20184 65562 32458 1//// 10316 20236 3//// 4//// 81200 333 10340 5//// 81813 94903
AAXX 20184 65563 32958 03604 10297 20231 39859 40097 333 10334 58000
AAXX 20184 65578 11557 72404 10275 20239 30097 40114 69952 70296 87500 333 10300 58004 87520
AAXX 20184 65585 31458 4//// 10283 20/// 3//// 4//// 70399 81970 333 10310 5//// 81813 81923 84360 94962 95832
AAXX 20184 65592 32456 6//// 10275 20239 30073 40096 82530 333 10311 58002 82613 85360
AAXX 20184 65594 31458 61402 10277 20243 30072 40106 71799 83902 333 10304 58004 81913 85080 94908 94946 95876
AAXX 20184 65599 32458 3//// 10270 20243 30012 40086 82232 333 10305 59004 82815 94908
AAXX 20181 13160 32997 02502 11025 21030 30027 40140 53002 333 10004 4/008
AAXX 20181 13262 12997 32902 10004 21034 30001 40153 52008 69922 83030 333 10020
AAXX 20181 13272 32560 72903 10001 21025 30020 40143 52009 84730 333 10044 84720 86358
AAXX 20181 13285 11596 83002 10008 21002 30029 40134 52009 60042 72376 886// 333 10013 4/000 93197
AAXX 20181 13289 11/91 93014 11053 21059 38888 48387 53001 60012 74574 333 11038 4/013 91020 91125 93101
AAXX 20181 13376 11594 82702 11002 21009 39879 40149 53008 60032 77172 8802/ 333 10010 4/006 93102
AAXX 20181 13388 11697 82901 10007 21003 39876 40129 51003 60022 70276 885// 333 10016 93197
AAXX 20181 13462 11460 61201 10041 20026 30079 40119 52015 69992 70162 83530 333 10075 81713 85358
AAXX 20181 13473 NIL
AAXX 20181 13489 11596 60602 11005 21010 39600 40133 53007 60042 71077 86600 333 10036 4/001 93101
AAXX 20184 89514 32598 61118 10004 49774 52017 85878 333 85625 83445 84470
AAXX 20184 89514 32598 61118 10004 49774 52017 85878 333 85625 83445 84470
BBXX 46145 20181 99544 71324 46/// /30// 1//// 40228 52017 22200 0//// 1//// 70/// 333 912//
BBXX 46207 20181 99509 71299 46/// /2908 10083 40284 52026 22200 00082 11512 70062 333 91211
BBXX 9HA2064 20183 99426 71370 41695 83010 10110 20092 40330 54000 74722 8672/ 22274 0//// 203// 3//// 403// 5//// 6//// 80100 ICE /////
BBXX A8EH2 20183 99403 71394 41198 71208 10120 20090 40340 58002 86832 22274 00125 20200 329// 41206 80105
BBXX A8IH2 20183 99346 71276 41299 63625 10170 20128 40240 56010 7//22 86710 22214 06140 21804 336// 41806 5//// 80145
BBXX A8SI3 20183 99529 71432 43698 52314 10065 20020 40320 52020 85130 22274 00050 20604 324// 50702 80045
BBXX SHIP 20184 99320 71208 41497 20509 10150 20120 40090 54000 7//00 82/8/ 22213 00170 2//// 303// 40704 5//// 6//// 80130 ICE /////
BBXX WFLH 20183 99311 71302 43498 60225 10172 20094 40235 52002 7//// 861// 22213 00161 20502 334// 41009 5//// 6//// 80128 ICE /////
BBXX 46147 20181 99518 71312 46/// /2610 10077 40274 52012 22200 00080 11414 70070 333 91214
BBXX 46147 20181 99518 71312 46/// /2610 10077 40274 52012 22200 00080 11414 70070 333 91214
AAXX 20181 25703 41996 20000 11415 21449 39976 40291 52009 77671 80001
AAXX 20181 25745 NIL
AAXX 20181 25913 42999 00404 11211 21268 30006 40165 52007
AAXX 20181 25954 42998 03606 11201 21250 39947 40067 53008
AAXX 20181 25956 42598 50603 11185 21244 30017 40023 51003 85500
AAXX 20181 31088 41596 83405 11190 21223 30145 40153 52007 78582 8391/
AAXX 20181 31873 42997 00901 11228 21248 30116 40263 57007
AAXX 20181 31909 42998 02805 11136 21218 30163 40247 52002
AAXX 20181 31960 41998 01202 11094 21145 30006 40252 57008 70400
AAXX 20181 31961 42998 00000 11210 21229 30205 40256 56003
AAXX 20181 32053 42997 02403 11251 21269 30162 40216 52006 333 91004 91106
AAXX 20181 32061 42567 21103 11187 21193 30180 40222 52004 82900 333 91004 91106
AAXX 20181 32098 42998 03202 11211 21223 30213 40224 52007 333 91002 91103
AAXX 20181 32150 42996 03501 11187 21193 30191 40223 53010 333 91002 91104
AAXX 20181 32165 41597 53303 11037 21094 30145 40208 52012 78581 85900 333 91005 91106
AAXX 20181 32215 41595 73508 11062 21089 30040 40070 52008 78583 87900 333 91017 91117
AAXX 20181 32252 NIL
AAXX 20181 32389 41993 30000 11331 21348 30071 40113 52022 74840 83030
AAXX 20181 32477 42998 00302 11187 21237 30065 40099 52012
AAXX 20181 32583 42698 23506 11125 21208 30024 40055 52010 82500
AAXX 20181 32618 41698 20110 11046 21081 39986 40008 52007 70283 82500 333 91014 91114
AAXX 20184 93800 16/// /1505 10126 20114 40274 52008 60001
AAXX 20184 93805 16/// /0702 10139 20126 40274 52009 60001
AAXX 20184 93994 16/// /1111 10200 20165 40185 52015 60001
AAXX 20181 40009 32965 00000 10062 20021 40207 53003 333 10167
AAXX 20181 40016 NIL
AAXX 20181 40022 32965 40603 10152 20066 40157 51005 84050 222// 20000 333 10192 85360
AAXX 20181 40030 31/02 90000 10056 20051 40214 51007 74040 89/// 333 10112 89/02
AAXX 20181 40039 32970 00000 10079 20045 40215 51006 333 10143
AAXX 20181 40066 32970 00604 10124 20047 40163 52004 333 10152
AAXX 20181 40072 32970 00000 10088 20022 40242 53006 333 10170
AAXX 20181 40083 32970 02001 10078 20004 48513 51003 333 10150
AAXX 20184 71276 16/// ///18 10036 21037 60001 333 10048 21045 70000
AAXX 20184 71217 16/// /2007 10026 21031 60001 333 10061 21042 70000
AAXX 20184 71224 16/// /2425 10014 21039 60001 333 10045 21010 70000
AAXX 20184 89016 46/// /1810 11039 29081 39408 4//// 5////
AAXX 20184 71979 16/// ///// 11018 21071 38408 40041 58005 60001 333 10054 21026 70000
AAXX 2018/ 89767 46/// ///// 11114 39582 4//// 5////
AAXX 20184 71363 16/// /0109 11338 21374 39930 49987 51012 60001 333 11317 21355 70000
AAXX 20184 71189 46/// /2827 11098 21164 6///1 333 11050 21101 7////
AAXX 20184 71343 16/// /2618 10041 21025 60001 333 10050 21005 70000
AAXX 20184 61600 32960 73406 10265 20160 30115 40120 83082 333 10336 59002 83363 87073
AAXX 20184 61612 32960 60804 10310 21007 30115 40123 80002 333 10352 58009 86073
AAXX 20184 61627 32960 60404 10320 20062 3//// 4//// 82032 333 10354 5//// 82363 86073
AAXX 20184 61630 32960 50204 10320 20107 30099 40118 80002 333 10360 58015 85073
AAXX 20184 61641 32960 73605 10245 20187 30089 40122 84032 333 10270 58001 84363 87073
AAXX 20184 61666 32962 70000 10331 20067 30097 40106 80002 333 10360 58002 87073
AAXX 20184 61679 32965 60000 10335 20165 30109 40117 80002 333 10363 58002 86073
AAXX 20184 61687 32960 50204 10338 21027 30050 40108 333 10355 58002 85073
AAXX 20184 61695 32958 70204 10298 20127 30089 40116 80002 333 10342 58002 87073
AAXX 20184 61697 32960 60000 10267 20192 30101 40116 80002 333 10332 58008 86073
AAXX 20184 61698 32960 52202 10317 20120 30100 40111 80002 333 10365 58014 85073
AAXX 20184 61699 32958 50804 10314 20040 39905 40094 80002 333 10347 58004 85073
AAXX 20184 13625 11550 83204 10040 20015 39880 40116 52004 60032 76366 885// 333 10050 88623
AAXX 20184 91643 11599 60809 10277 20243 40075 54004 60001 70200 81107 333 562/9 81820 85180
AAXX 20181 08511 32/// /1403 10158 20105 30200 40308 57004 333 10164 91105 555 60005
AAXX 20181 60379 36/// /2202 10131 20099 333 10159
AAXX 20181 60380 36/// /2902 10104 20071 333 10159
AAXX 20184 89002 42499 12504 11030 21049 39771 49825 57012 81600
AAXX 20184 91487 NIL
AAXX 20184 91490 NIL
AAXX 20184 91533 NIL
AAXX 20184 91601 NIL
AAXX 20184 91610 11599 21118 10263 20223 40065 53008 60001 70200 82100 333 562//
AAXX 20184 91623 NIL
AAXX 20184 91629 NIL
AAXX 20184 91701 NIL
AAXX 20181 13285 11596 83002 10008 21002 30029 40134 52009 60042 72376 886// 333 10013 4/000 93197
BBXX 46183 20181 99536 71311 46/// /2709 10059 40246 52026 22200 00077 10403 70015 333 91210
BBXX 46183 20181 99536 71311 46/// /2709 10059 40246 52026 22200 00077 10403 70015 333 91210
AAXX 20181 56193 NIL
AAXX 20181 56196 31956 82901 10064 20039 40271 52007 71000 8807/ 333 00001 10097
AAXX 20181 56287 11430 80000 10058 20051 40275 52007 69971 76060 885// 333 05100 10082
AAXX 20181 56684 32560 80702 10032 20003 37893 52007 885// 333 05100 10144
AAXX 20181 56751 32780 12903 10070 20004 38009 57001 81100 333 05101 10183
AAXX 20181 56786 32966 01803 10069 20033 38096 52004 333 05102 10172
AAXX 20181 56977 32665 80000 10124 20118 40163 57003 885// 333 05104 10210
AAXX 20181 57259 32963 80000 10051 20016 40284 52001 8807/ 333 10085
AAXX 20181 57279 32961 81801 10049 20001 40286 52002 8807/ 333 10098
AAXX 20181 57348 11860 80000 10089 20067 40256 52003 69901 76060 885// 333 10101
AAXX 20181 57399 32960 63602 10046 21006 40280 52004 86030 333 10105
AAXX 20181 57554 11957 80000 10063 20040 40275 52001 69901 76000 8807/ 333 10078
AAXX 20181 57793 32960 70201 10083 20032 40255 52001 8704/ 333 10136
AAXX 20181 58345 31940 82701 10058 20036 40270 52002 71000 8807/ 333 10086
AAXX 20181 58506 32763 83601 10032 21027 40264 52002 885// 333 10067
AAXX 20181 58813 32961 00000 10060 20040 40243 52005 333 10176
AAXX 20181 58834 32964 23601 10093 20082 40224 52004 82040 333 10207
AAXX 20181 58926 32962 73401 10103 20084 40210 57003 8704/ 333 10206
AAXX 20181 58944 32461 80206 10144 20106 40200 57012 885// 333 10147
AAXX 20181 59096 32665 83201 10129 20071 40203 57004 885// 333 10198
AAXX 20181 59102 32661 82201 10114 20073 40209 54000 885// 333 10206
AAXX 20181 59278 32762 82902 10170 20074 40191 57004 885// 333 10208
AAXX 20181 59456 32866 70401 10165 20090 40178 57005 875// 333 10262
AAXX 20181 59493 11757 83601 10169 20130 40179 57008 69911 70560 885// 333 10192
AAXX 20181 59658 32660 70902 10181 20114 40175 57004 875// 333 10233
AAXX 20181 59673 32562 80203 10172 20110 40174 57011 888// 333 10199
AAXX 20181 59845 32560 71403 10180 20158 40168 57011 878// 333 10196
AAXX 20181 50434 11970 71801 11270 21301 39253 40221 57005 69911 77070 80002 333 11188
AAXX 20181 50527 11970 72708 11206 21230 39364 40221 57002 69901 70070 8707/ 333 11173
AAXX 20181 50603 32977 02906 11147 21200 39522 40250 52003 333 11141
AAXX 20181 50632 32980 72502 11165 21204 39249 40192 57010 80002 333 11116
AAXX 20181 50727 11570 70000 11199 21227 38986 40260 57001 69901 77000 875// 333 11162
AAXX 20181 50915 32980 62202 11197 21246 39214 40300 57002 80002 333 11150
AAXX 20181 51716 32965 73601 11046 21102 39059 40424 57003 80002 333 00902 11005
AAXX 20181 51765 32980 60000 11116 21163 39387 40458 52005 80002 333 01457 11005
AAXX 20181 51777 32970 62001 11099 21152 39334 40452 52007 80002 333 01400 11018
AAXX 20181 51811 11962 72501 11061 21075 38933 40434 57004 60021 72270 86032 333 00951 11027
AAXX 20181 51828 11865 72202 11066 21080 38769 40432 54000 69971 70070 82502 333 01052 11032
AAXX 20181 52267 32980 02702 11127 21217 39252 40440 52002 333 00400 11042
AAXX 20181 52323 32980 02503 11177 21222 38348 57005 333 00701 11100
AAXX 20181 52495 32980 02202 11162 21211 38805 40441 52001 333 00500 11040
AAXX 20181 53149 32980 02909 11152 21205 38855 40379 52005 333 00003 11084
AAXX 20181 53192 32980 62705 11210 21234 38919 40371 52002 80002 333 11196
AAXX 20181 53231 32980 01605 11178 21219 38585 52005 333 00352 11060
AAXX 20181 53336 32980 03202 11133 21204 38811 40394 52005 333 00202 11052
AAXX 20181 53391 32980 02908 11163 21213 38529 40344 57005 333 05301 11107
AAXX 20181 53529 32980 00403 11096 21178 38719 40384 52006 333 00201 11015
AAXX 20181 53543 32980 03402 11103 21160 38607 40363 54000 333 11038
AAXX 20181 53723 32965 52701 11104 21114 38763 40397 52013 80002 333 00354 11025
AAXX 20181 54012 32980 02706 11184 21232 39030 40304 52008 333 11131
AAXX 20181 54026 32980 22701 11099 21212 39883 40225 57003 80002 333 11031
AAXX 20181 54027 32980 00201 11103 21208 39623 40240 57002 333 11025
AAXX 20181 54208 32980 02705 11161 21213 38786 40331 52002 333 11100
AAXX 20181 54776 31956 52905 10023 21034 30209 40268 57004 71000 80002 333 10052
AAXX 20181 56004 32980 03201 11184 21311 35784 57002 333 05203 10000
AAXX 20181 56033 32680 30901 11151 21260 35988 57003 81902 333 05302 11021
AAXX 20181 56046 32980 00901 11153 21209 36230 57003 333 05351 10026
AAXX 20181 78310 11570 71206 10264 20231 30158 40168 58008 69961 70182 84202 333 10280 20216 31/// 56909 59018 70068 84820 83074 92025
AAXX 20181 78315 11572 61206 10256 20197 30108 40174 58015 60001 70511 85872 333 10271 20181 30/// 56399 59013 84820 555 11302
AAXX 20181 78318 11561 61207 10259 20193 30166 40170 57020 60001 70522 84242 333 10261 20213 31/// 56299 59018 79999 84820 555 10903
AAXX 20181 78322 11559 70605 10258 20186 30168 40185 58019 60001 70522 81244 333 10261 20180 30/// 56999 59011 81820 86080
AAXX 20181 78324 01410 51106 10272 20202 30159 40170 58019 69901 70582 84842 333 10272 20232 30/// 56299 59026 69907 79999 82817 84620 555 10903
AAXX 20181 78325 11563 71506 10275 20185 30121 40179 58022 60001 70522 82242 333 10277 20194 30/// 56399 59018 82820 83360 86080 555 11303
AAXX 20181 78328 11/61 71107 10242 20191 30189 40/// 58013 60001 70522 82802 333 10250 20223 30/// 56900 59012 818// 87073 92427
AAXX 20181 78333 11410 50903 10275 20166 30172 40179 58017 60001 70511 82242 333 10279 20203 30/// 56290 59011 82818 85071 555 10902
AAXX 20181 78344 11563 40706 10274 20182 30124 40172 58029 60001 70511 81242 333 10274 20199 30/// 56999 59015 81820 83070
AAXX 20181 78345 12465 70807 10271 20198 30181 40184 57021 60001 83842 333 10272 20180 31/// 56909 59009 70026 82816 83360
AAXX 20181 78348 11550 60706 10239 20185 30136 40189 58021 60001 70511 81278 333 10247 20212 30/// 56999 59011 81821 85274
AAXX 20181 78349 11560 60904 10266 20178 30078 40187 58025 60001 70522 83231 333 10280 20202 31/// 56299 57832 59011 70006 83820 555 10903
AAXX 20181 78351 12550 60506 10292 20167 30164 40166 58012 60001 85832 333 10292 20201 30/// 56199 58002 85830 555 10503
AAXX 20181 78353 12570 51005 10260 20158 30166 40188 58025 60001 84802 333 10260 20220 31/// 56209 59009 70021 83820 555 10903
AAXX 20181 78355 12570 70810 10256 20172 30048 40184 58020 60001 85842 333 10257 20190 31/// 56299 59005 70034 83823 83630 555 10903
AAXX 20181 78358 11540 60808 10261 20197 30171 40186 58017 60001 70522 86800 333 10266 20209 31/// 56900 58001 70064 83823 85629
AAXX 20181 78360 12570 60507 10298 20193 30157 40169 58023 60001 82836 333 10298 20206 30/// 56999 57979 59006 70002 81820 832// 92044
AAXX 20181 78363 11561 70402 10267 20169 30040 40155 57030 60001 70522 878// 333 10272 20195 30/// 56199 59004 82820 86621 555 10403
AAXX 20181 78365 11562 60915 10259 20179 30189 40194 58021 60001 70522 85862 333 10266 20233 31/// 56299 57854 58000 70001 84820 92047 555 10903
AAXX 20181 78369 11468 70708 10257 20191 30172 40181 56021 60001 70522 872// 333 10261 20223 30/// 56299 57890 59002 70016 87818 92045 555 10703
AAXX 20181 40650 12960 10000 10072 20034 40237 51006 60002 80001
AAXX 20181 40604 12960 00000 10108 21021 40233 58001 60002
AAXX 20181 40608 11958 20000 10070 20021 40236 52005 60002 70600 80002
AAXX 20181 40621 12960 00602 10120 20013 40252 52004 60002
AAXX 20181 40623 12960 00000 10095 21003 40266 53010 60002
AAXX 20181 40629 12960 00000 10062 20038 40255 54000 60002
AAXX 20181 40631 12960 00000 10090 20044 40241 53008 60002
AAXX 20181 40634 12960 02705 10074 20015 40233 51004 60002
AAXX 20181 40637 12960 00000 10096 20070 40244 52010 60002
AAXX 20181 40642 12960 00000 10096 21020 40234 54000 60002
AAXX 20181 40656 12960 00000 10103 20052 40211 55004 60002
AAXX 20181 40665 12960 00000 10116 20084 40240 51004 60002
AAXX 20181 40670 12960 00000 10116 20037 40232 53005 60002
AAXX 20181 40674 12960 00000 10115 20037 40235 53011 60002
AAXX 20181 40676 12960 00000 10110 20043 40230 53007 60002
AAXX 20181 40680 12960 03201 10114 20026 40212 53006 60002
AAXX 20181 40689 12960 00000 10118 20048 40235 52007 60002
AAXX 20181 40691 12960 00000 10122 20048 40246 51006 60002
AAXX 20181 21432 42998 00000 11289 21320 30315 40336 54000
AAXX 20184 48427 31957 40000 10218 20172 30107 40115 57007 71021 80001 333 59008
AAXX 20184 87244 32568 33608 10402 20189 39652 4//// 5//// 82209 333 56806 57823 82825
AAXX 20184 87563 32565 62310 10360 20109 30010 90051 56014 62201 333 56002 82825
AAXX 20184 65101 32960 73606 10295 20115 39708 40092 80008 333 10345 58002 87280
AAXX 20184 65112 31956 73603 10298 20100 3//// 4//// 70522 80008 333 10354 5//// 87280
AAXX 20184 65124 32970 70000 10305 20162 3//// 4//// 80008 333 10350 87280
AAXX 20184 65205 31956 72205 10292 20261 3//// 40097 70522 80008 333 10320 58008 87280
AAXX 20184 65213 32965 71704 10310 20213 3//// 4//// 80008 333 10352 5//// 87280
AAXX 20184 65215 32968 70000 10288 20179 3//// 4//// 80008 333 10341 5//// 87280
AAXX 20180 44214 32998 03601 11204 21257 38431 40615 58003
AAXX 20180 44231 329// 02902 11158 21246 38835 40499 58003
AAXX 20180 44259 NIL
AAXX 20180 44277 NIL
AAXX 20180 44288 32999 02804 11158 21238 38234 40472 52005
AAXX 20180 44292 41899 22801 11211 21229 38765 40430 58005 70171 82040
AAXX 20180 44304 329// 52704 11228 21268 39037 40386 52007 85070
AAXX 20180 44354 329// 03210 11172 21206 39166 40375 52019
AAXX 20180 44373 32999 02703 11178 21240 38628 40463 51007
AAXX 20181 08521 32470 60405 10184 20103 30221 40292 53004 86800 333 10192 84818 83633
BBXX 42362 20181 99278 70907 46/// /1807 10239 20206 40159 91815
BBXX 42363 20181 99282 70892 46/// /1806 10239 20183 40166 91815 333 91209
BBXX 42364 20181 99291 70881 46/// /1509 10228 20200 40173 91815
BBXX 46131 20181 99499 71250 46/// /2804 1//// 40269 52001 22200 00075 10200 70001 333 91204
AAXX 20181 08521 32470 60405 10184 20103 30221 40292 53004 86800 333 10192 84818 83633 555 60007
BBXX 46131 20181 99499 71250 46/// /2804 1//// 40269 52001 22200 00075 10200 70001 333 91204
AAXX 20180 44203 329// 00000 11337 21351 38515 40642 54000
AAXX 20180 44207 329// 01810 11181 21240 38389 40447 54000 333 91112
AAXX 20180 44212 32999 71801 11276 21306 39378 40676 52006 87070
AAXX 20180 44213 32699 60000 11288 21317 38983 40673 57002 86500
AAXX 20180 44215 32998 00000 11265 21290 38559 40617 52002
AAXX 20180 44218 NIL
AAXX 20180 44225 329// 00000 11295 21313 38411 40673 51003
AAXX 20180 44230 329// 03604 11215 21256 38886 40510 52002
AAXX 20180 44232 329// 03306 11135 21205 39202 40406 54001
AAXX 20180 44237 32999 01805 11147 21217 38569 40425 58001
AAXX 20180 44239 329// 73601 11192 21250 38874 40415 53002 87050 555 99600 99905
AAXX 20180 44241 419// 60000 11220 21232 39359 40444 58005 70272 86080
AAXX 20180 44256 NIL
AAXX 20180 44265 NIL
AAXX 20180 44272 419// 51802 11288 21325 38369 40647 57002 70273 85030
AAXX 20180 44275 32998 03603 11208 21233 37809 40523 58001
AAXX 20180 44282 31999 03402 11132 21240 38380 40431 58002 70230
AAXX 20180 44284 32999 02904 11271 21307 37927 40635 54000
AAXX 20180 44285 32999 03205 11147 21224 38394 40438 57001 333 91111
AAXX 20180 44287 32999 00503 11211 21259 38200 40547 52008
AAXX 20180 44294 329// 02905 11220 21244 38619 40468 52001
AAXX 20180 44298 329// 03202 11230 21236 38774 40425 52009
AAXX 20180 44302 319// 02707 11225 21263 39131 40347 54000 70230
AAXX 20180 44305 32999 03206 11178 21235 39064 40305 51008
AAXX 20180 44313 NIL
AAXX 20180 44314 NIL
AAXX 20180 44317 32998 22706 11175 21217 38940 40304 52001 82040
AAXX 20180 44336 329// 03103 11201 21244 38791 40504 53010
AAXX 20180 44341 329// 23306 11194 21231 38676 40465 51014 82030 333 91112
AAXX 20180 44347 32999 03206 11170 21220 38803 40437 51017
AAXX 20180 44352 32999 23206 11170 21204 38937 40329 52013 82040
AAXX 20180 44358 329// 33202 11168 21202 39144 40377 51018 83040
AAXX 2018/ 89828 46/// ///// 11273 36461 4//// 5////
AAXX 2018/ 89108 46/// ///// 11220 36995 4//// 5////
AAXX 2018/ 89108 46/// ///// 11219 36996 4//// 5//// 91810
AAXX 2018/ 89879 46/// ///// 11008 39666 4//// 5//// 91810
AAXX 2018/ 89868 46/// ///// 11113 39704 4//// 5////
AAXX 2018/ 89332 46/// ///// 10008 39152 4//// 5//// 91810
AAXX 20184 89667 46/// /0901 11047 29041 39766 4//// 5//// 91810
BBXX 44033 20181 99441 70690 46/30 /3208 11015 40196 51012 91804 22200 00070 10401 70007 333 91210 555 11096 22100
BBXX 44034 20181 99441 70681 46/30 /3110 11025 40184 51015 91804 22200 00084 10403 70016 333 91213 555 11119 22124
BBXX 44039 20181 99411 70727 46/// /3305 10055 21049 40222 54000 91800 22200 00093 10201 70004 333 91207
BBXX 44060 20181 99413 70721 46/// ///04 10052 40211 91815 22200 00101 333 91206 555 11036 22036
BBXX 44022 20181 99409 70737 46/// ///02 10064 21012 40216 91815 22200 00078 333 91203 555 11021 22021
BBXX 44029 20181 99425 70706 46/30 /3208 10026 40202 53006 91804 22200 00087 10301 70007 333 91210 555 11094 22098
BBXX 44030 20181 99432 70704 46/// /3006 1//// 40202 51009 91804 22200 00085 10401 70006 333 91208 555 11072 22076
AAXX 20181 51156 32980 03401 11182 21241 38897 40539 57011 333 00352 11104
AAXX 20181 26509 11537 50901 11005 21014 30119 40129 58003 69952 71022 85500 333 10041 91004 91107 555 53010
AAXX 20184 45011 47647 /3504 10160 20136 40180 57008 71011 333 59029
AAXX 20181 51243 32870 73601 11195 21218 39945 40564 57008 82502 333 00555 11118
BBXX 44039 20181 99411 70727 46/// /3306 10054 21051 40222 91745 22200 00093 10201 70004 333 91207
AAXX 20184 61202 32965 03602 10221 21034 39603 40166 333 10263 58023
AAXX 20184 61214 NIL
AAXX 20184 61223 32960 40206 10265 21017 39846 40145 80002 333 10310 58020 84075
AAXX 20184 61226 32965 13604 10280 20065 39837 40134 80002 333 10320 58009 81075
AAXX 20184 61230 32960 30606 10303 21046 39835 40106 83042 333 10323 58008 83365
AAXX 20184 61233 32960 30604 10287 21017 3//// 4//// 80002 333 10370 5//// 83075
AAXX 20184 61235 32960 30412 10310 21040 3//// 4//// 80002 333 10342 5//// 83075
AAXX 20184 61240 32960 20000 10292 20063 39797 40122 80002 333 10345 58008 82075
AAXX 20184 61250 32960 10000 10284 20104 3//// 4//// 80002 333 10320 5//// 81075
AAXX 20184 61257 32960 50406 10315 21059 30058 40152 80002 333 10346 58011 85075
AAXX 20184 61265 32965 33604 10290 20023 39810 40119 80002 333 10340 58010 83075
AAXX 20184 61270 32960 50404 10314 20080 3//// 4//// 80002 333 10345 5//// 85075
AAXX 20184 61272 32960 00000 10298 20077 39796 40123 333 10340 58013
AAXX 20184 61277 32960 00000 10306 20068 39792 40112 333 10350 58007
AAXX 20184 61285 32960 50000 10325 20077 39954 40105 80002 333 10356 58005 85075
AAXX 20184 61291 32960 50202 10290 20099 39690 40106 80002 333 10330 58006 85075
AAXX 20184 61293 32960 33604 10310 20093 3//// 4//// 80002 333 10343 5//// 83075
AAXX 20184 61296 32960 60000 10295 20149 3//// 4//// 80002 333 10344 5//// 86075
AAXX 20184 61297 32960 70404 10312 20066 3//// 4//// 80002 333 10337 5//// 87075
AAXX 20181 60394 36/// /2002 10122 20078 333 10164
AAXX 20181 60374 36/// /2510 10149 20083 333 10155
AAXX 20181 60613 36/// /3407 10098 21049 333 10142
AAXX 20181 60376 36/// /2405 10135 20075 333 10162
AAXX 20181 60593 36/// /0000 10113 333 10150
BBXX BAREU62 20184 99370 10197 46/// ///// 40160 52006 22224
BBXX BAREU12 20184 99555 10064 46/// ///// 40053 52016 22232
BBXX 46204 20181 99514 71288 46/// /2410 10081 40270 52016 22200 00084 11611 70053 333 91213
BBXX 46204 20181 99514 71288 46/// /2410 10081 40270 52016 22200 00084 11611 70053 333 91213
BBXX ZSAF 20184 99678 50036 41599 82510 11019 21059 49809 57014 70322 885// 22232 05015 2//// 30000 4//// 5//// ICE 750/7
AAXX 20181 40608 11958 20000 10070 20021 40236 52005 60002 70600 80002
AAXX 20181 40621 12960 00602 10120 20013 40252 52004 60002
AAXX 20181 40623 12960 00000 10095 21003 40266 53010 60002
AAXX 20181 40629 12960 00000 10062 20038 40255 54000 60002
AAXX 20181 40631 12960 00000 10090 20044 40241 53008 60002
AAXX 20181 40642 12960 00000 10096 21020 40234 54000 60002
AAXX 20181 40650 12960 10000 10072 20034 40237 51006 60002 80001
AAXX 20181 40604 12960 00000 10108 21021 40233 58001 60002
AAXX 20181 40634 12960 02705 10074 20015 40233 51004 60002
AAXX 20181 40637 12960 00000 10096 20070 40244 52010 60002
AAXX 20181 40656 12960 00000 10103 20052 40211 55004 60002
AAXX 20181 40665 12960 00000 10116 20084 40240 51004 60002
AAXX 20181 40670 12960 00000 10116 20037 40232 53005 60002
AAXX 20181 40674 12960 00000 10115 20037 40235 53011 60002
AAXX 20181 40680 12960 03201 10114 20026 40212 53006 60002
AAXX 20181 40691 12960 00000 10122 20048 40246 51006 60002
AAXX 20181 40676 12960 00000 10110 20043 40230 53007 60002
AAXX 20181 40689 12960 00000 10118 20048 40235 52007 60002
AAXX 20184 03896 16/// ///// 10096 60002 333 10109
BBXX VROB 20184 99391 31461 46/// /0911 10164 20134 30155 40181 57009 22274 04172 85146
BBXX VNAH 20184 99333 31157 46/// /1804 10163 20108 30102 40126 57001 22200 04217 85131
AAXX 20184 91650 NIL
AAXX 20184 91652 NIL
AAXX 20184 91656 NIL
AAXX 20184 91659 NIL
AAXX 20184 91660 NIL
AAXX 20184 91669 36/// /1206 10251 20250 40099 52006 91815
AAXX 20184 91670 36/// /0800 10244 20227 40092
AAXX 20184 91676 14/// /0604 10256 20228 30033 40093 50010 60001
AAXX 20184 91680 11698 71304 10233 20230 40097 52009 69901 78012 8587/ 333 5699/ 82830 84650 87460
AAXX 20184 91682 NIL
AAXX 20184 91683 11599 60000 10232 20229 40098 53009 60001 70312 83802 333 569/9 83824 85080
AAXX 20184 91691 14/// /1001 10254 20242 30105 40108 50011 60001
AAXX 20184 91693 11499 70000 10244 2023/ 40097 53012 60071 72166 8587/ 333 5639/ 83818 85643
AAXX 20184 91697 14/// /0901 10239 20233 30100 40105 50013 60001
AAXX 20184 91699 14/// /1308 10239 20229 30082 40114 52013 60041
AAXX 20184 83552 32498 3//// 10391 20159 39934 4//// 83300 333 59017
AAXX 20184 83623 31996 6//// 1//// 2//// 39507 4//// 58040 70544 85240
AAXX 20184 83630 32597 52304 10296 20138 3//// 4//// 57028 82242
AAXX 20184 83702 32599 83208 10337 20148 39347 40078 58025 83378
AAXX 20184 83704 32798 63602 10353 20171 39665 40060 58018 85130
AAXX 20184 83726 31597 80000 10282 20189 39170 40119 56028 70544 86372
BBXX V7HC6 20184 99273 70907 41797 31714 10280 20253 40144 56006 70200 81489 22200 00226 20301 317// 40502 5//// 6//// 80260 ICE /////
BBXX ZCDG7 20184 99249 71415 41398 80920 10193 20180 40237 54000 72586 8585/ 22264 00220 20302 311// 40503 5////
BBXX KQXZ 20184 99508 71366 41898 83029 10089 2002/ 40250 52010 7//22 84/4/ 22273 0//// 20605 328// 41207 5//// 6//// 80056 ICE /////
BBXX KCDK 20184 99273 70891 414// 61816 10250 2022/ 40150 57068 7//00 862// 22273 0//// 20202 31610 40403 50403 6//// 80228 ICE /////
BBXX C6VG7 20184 99220 70746 41598 60918 10238 2011/ 40188 57003 7//21 84241 22234 00270 20504 311// 4//// 5//// 6//// 80163 ICE /////
BBXX WHKM 20184 99146 10420 41197 11819 10260 20232 40130 52020 70500 81400 22233 0//// 2//// 3//// 4//// 5//// 6//// 80240 ICE /////
BBXX WKAE 20184 99488 70132 41498 82827 10130 20112 40255 52010 70122 884// 22254 00130 2//// 3//// 4//// 5//// 6//// 80120 ICE /////
BBXX WABS 20184 99449 71258 41697 83619 10100 20089 40285 55000 70384 886// 22283 0//// 20402 330// 41309 5//// 6///0 80094 ICE
AAXX 20184 82098 32597 50703 10334 20222 30067 40084 82304 333 59003
AAXX 20184 82246 32497 20702 10311 20249 39901 40097 82200 333 59008
AAXX 20184 82445 31598 40505 10328 20243 30051 40103 70544 82242 333 58000
AAXX 20184 82460 32597 60502 10382 20222 30047 40076 86200 333 59002
AAXX 20184 82562 32598 60902 10327 20237 39964 40071 86200 333 59001
AAXX 20184 82571 32497 40502 10348 20222 39897 40067 84200 333 59007
AAXX 20184 82765 32598 42303 10310 20244 39880 40118 82260 333 58007
AAXX 20184 83264 21796 62302 10247 20221 39668 40134 76100 83528 333 58012 69951
AAXX 20184 83358 32698 60000 10329 20218 39672 40065 83510 333 58000
AAXX 20184 82141 32598 50207 10303 20241 30080 40092 83230 333 59002
AAXX 20184 82145 32598 40905 10326 20227 30048 40089 82201 333 59011
AAXX 20184 82181 32498 50510 10327 20191 39980 40119 83201 333 58011
AAXX 20184 82198 32495 50709 10329 20232 30037 40088 84260 333 59002
AAXX 20184 82353 32598 61804 10345 20234 39995 40038 84230 333 59002
AAXX 20184 82361 32497 53604 10332 20229 30059 40096 85200 333 58003
AAXX 20184 82476 32595 30905 10364 20194 39952 40069 83100 333 59006
AAXX 20184 82861 32597 61404 10317 20237 39894 40062 86200 333 58003
AAXX 20181 21802 42999 83002 11320 21333 30312 40339 54000 8802/
AAXX 20181 24125 41998 83501 11299 21311 30007 40320 53003 70272 80001
AAXX 20181 24136 42999 02201 11453 21483 30194 40312 52003
AAXX 20181 24143 42999 00502 11464 21492 30222 40281 52002
AAXX 20181 24266 41997 80000 11435 21461 30103 40311 52007 77171 8802/
AAXX 20181 24329 NIL
AAXX 20181 24343 42997 50000 11410 21438 30147 40286 52005 87032
AAXX 20181 24382 41997 80000 11319 21343 30002 40283 52006 77177 86077
AAXX 20181 24639 41998 82301 11407 21432 30147 40327 52008 70272 83017
AAXX 20181 24641 41998 02101 11423 21455 30146 40314 52012 71200
AAXX 20181 24652 42997 00000 11457 21485 30142 40289 52013
AAXX 20181 24656 42999 20000 11457 21492 30165 40287 53014 80001
AAXX 20181 24671 42999 00000 11449 21476 39711 40312 52008
AAXX 20181 24688 41999 20000 11461 21492 39265 40348 52011 70470 80001
AAXX 20181 24724 41996 82603 11326 21355 39730 40329 54000 77372 8807/
AAXX 20181 24738 42998 81901 11390 21405 30123 40328 52007 80005
AAXX 20181 24768 41996 70000 11418 21454 30005 40279 52015 77172 80007
AAXX 20181 24923 41998 82403 11326 21361 30011 40360 52006 77172 80006
AAXX 20181 24944 41996 80000 11344 21367 39997 40331 52022 77172 84037
AAXX 20181 24951 41998 80000 11362 21390 30099 40291 52022 77177 80007
AAXX 20181 24661 41998 20000 11428 21461 39967 40279 52012 74011 80001
AAXX 20181 24959 41998 83001 11391 21417 30122 40272 52011 77172 80005
AAXX 20181 24962 41996 00801 11459 21485 30063 40286 52017 71071
AAXX 20181 24966 41998 80000 11430 21449 30011 40267 52010 77171 80007
AAXX 20181 24967 42999 20000 11433 21468 30036 40295 52015 80001
AAXX 20181 25206 42999 00000 11391 21417 30245 40277 52006
AAXX 20181 25400 42998 20000 11374 21395 30217 40280 52009 82030
AAXX 20181 30054 41998 82102 11313 21350 30118 40391 52009 77172 80007
AAXX 20181 30089 41998 80000 11298 21315 30048 40298 52021 77177 86017
AAXX 20181 30393 41998 83402 11248 21266 39122 40252 52012 77172 8802/
AAXX 20181 30493 41998 80000 11226 21226 39112 40234 52006 77172 8802/
AAXX 20181 31004 41996 80000 11259 21277 39353 40265 52014 77172 80007
AAXX 20181 31137 42999 80000 11402 21421 39125 40321 52005 80001
BBXX VROB 20184 99391 31461 46/// /0911 10164 20134 30155 40181 57009 22274 04172 85146
BBXX VNAH 20184 99333 31157 46/// /1804 10163 20108 30102 40126 57001 22200 04217 85131
AAXX 20181 28867 32598 52307 11158 21192 30236 40534 58014 85500 333 11168
AAXX 20181 28879 329// 02405 11126 21190 30209 40520 57012 333 11107
AAXX 20181 28952 329// 02303 11115 21150 30330 40537 57006 333 11116
AAXX 20181 35085 329// 32903 11210 21228 30034 40567 57011 80001 333 11153
AAXX 20181 35229 329// 31401 11155 21186 30224 40524 57008 83030 333 11096
AAXX 20181 35416 319// 51409 11124 21190 30340 40470 58011 73631 83071 333 11091 91117
AAXX 20181 35426 329// 21305 11151 21195 30202 40521 58018 80001 333 11105
AAXX 20181 35532 32998 01114 11178 21204 39984 40521 57012 73633 333 11128 91018
AAXX 20181 35925 329// 01408 11136 21156 40466 58012 333 11096
AAXX 20181 38001 32997 30513 10017 21177 30305 40275 57014 80002 333 10049 91123
AAXX 20181 38196 31996 63604 11103 21218 39417 40467 57020 73833 333 11111
AAXX 20181 38198 329// 60000 11142 21185 30200 40484 57016 86040 333 11083
AAXX 20181 38232 32998 01008 11044 21140 30289 40393 57005 333 11005
AAXX 20181 38328 319// 80000 11113 21126 39670 40456 58013 71022 8807/ 333 11045
AAXX 20181 38334 31996 20904 11158 21209 39423 40476 58019 73831 82081 333 11129 91010 91112
AAXX 20181 38439 32998 03404 11116 21169 30101 40468 58015 333 11070
AAXX 20181 28867 32598 52307 11158 21192 30236 40534 58014 85500 333 11168
AAXX 20181 28879 329// 02405 11126 21190 30209 40520 57012 333 11107
AAXX 20181 28952 329// 02303 11115 21150 30330 40537 57006 333 11116
AAXX 20181 35085 329// 32903 11210 21228 30034 40567 57011 80001 333 11153
AAXX 20181 35229 329// 31401 11155 21186 30224 40524 57008 83030 333 11096
AAXX 20181 35416 319// 51409 11124 21190 30340 40470 58011 73631 83071 333 11091 91117
AAXX 20181 35426 329// 21305 11151 21195 30202 40521 58018 80001 333 11105
AAXX 20181 35532 32998 01114 11178 21204 39984 40521 57012 73633 333 11128 91018
AAXX 20181 35925 329// 01408 11136 21156 40466 58012 333 11096
AAXX 20181 38001 32997 30513 10017 21177 30305 40275 57014 80002 333 10049 91123
AAXX 20181 38196 31996 63604 11103 21218 39417 40467 57020 73833 333 11111
AAXX 20181 38198 329// 60000 11142 21185 30200 40484 57016 86040 333 11083
AAXX 20181 38232 32998 01008 11044 21140 30289 40393 57005 333 11005
AAXX 20181 38328 319// 80000 11113 21126 39670 40456 58013 71022 8807/ 333 11045
AAXX 20181 38334 31996 20904 11158 21209 39423 40476 58019 73831 82081 333 11129 91010 91112
AAXX 20181 38439 32998 03404 11116 21169 30101 40468 58015 333 11070
AAXX 20181 30157 41998 83404 11249 21297 30063 40378 52024 70272 80007
BBXX 46088 20181 99483 71232 46/// /2708 10084 40256 91820 22200 00079 10201 20301 70004 333 91210 555 11087 22094 31812 42610 61819 266081 264076 268070 264070 261073 259064
BBXX 46088 20181 99483 71232 46/// /2708 10084 40256 91820 22200 00079 10201 20301 70004 333 91210 555 11087 22094 31812 42610 61819 266081 264076 268070 264070 261073 259064
BBXX 46087 20181 99485 71247 46/// /3007 10089 20075 40266 91820 22200 00078 333 91209 555 11076 22084 31813 43009 61819 298070 298061 299058 303057 302056 300048
BBXX 41036 20181 99342 70770 46/// ///// 10182 20118 40230 91820 22200 00194
BBXX 44060 20181 99413 70721 46/// ///04 10053 40209 91800 22200 00101 333 91206 555 11046 22046
BBXX 44022 20181 99409 70737 46/// ///02 10064 21011 40215 91800 22200 00078 333 91204 555 11021 22021
BBXX SHIP 20184 99509 11643 41597 40117 10000 21049 40995 51009 70322 84/// 91800 22214 00020 2//// 3//// 4//// 80000
BBXX 7JJA 20184 99359 11414 41698 10212 00 10070 20000 40220 57010 70200 81100 9//// 22200 0 2//01 3 4 5 6//// 80040 ICE /////
BBXX SHIP 20184 99273 11254 41898 70922 10190 20142 41019 56001 70222 87725 91800 22214 00230 1//// 2//// 3//// 4//// 5//// 6//// 80160 //////
BBXX 3EIU9 20184 99140 11199 41297 40617 10270 20230 40107 57008 70000 829// 91735 22212 00263 1//// 2//// 306// 40403 5//// 6//// 80240 /////
BBXX SHIP 20184 99159 11158 41498 30520 10245 20224 40103 56019 70111 823// 22254 00267 80230
BBXX DGTX 20183 99330 11649 41/98 /1209 10170 20086 40145 56005 70282 8//// 22264 00230 2//// 80123
BBXX SHIP 20184 99206 11318 41397 50431 10230 20201 40169 58005 70311 8434/ 22283 00280 80210
BBXX SHIP 20184 99324 11505 41/96 63422 10130 20116 40172 51014 70301 8//// 91750 22264 00200 2//// 3//// 4//// 5//// 80110
BBXX A8JX9 20183 99506 11583 41/// /0222 11025 21025 40013 52031 700// 8//// 22254 2//// 3//// 4//// 5//// 81025
BBXX SHIP 20184 99509 11643 41597 40117 10000 21049 40995 51009 70322 84/// 91800 22214 00020 2//// 3//// 4//// 80000
BBXX SHIP 20184 99094 11355 41/98 20819 10282 20239 40056 56022 70200 8//// 22213 06292 10605 20102
BBXX UHFW 20180 99478 11414 42999 03406 11070 40222 52005 22232 06040
BBXX C6XQ2 20183 99258 50454 41798 31806 10275 20224 40103 54000 70200 80005 22213 04240 20702 32727 40902 50702 80240
BBXX IDDUK02 20184 99577 50409 46/// ///// 40025 222//
BBXX PDZS 20183 99543 50362 41297 80810 10061 20033 40080 57020 70311 886// 22241 02068 20201 3//// 4//// 5//// 80048
BBXX VVZU 20184 99247 10584 41/98 /0515 10022 20206 40236 52016 70201 8//// 22263 2//06 4//07 5////
BBXX PBDH 20184 99189 10391 41/// /1111 10270 40132 51/// 7//00 8//// 22233 04283 2//02 30000
BBXX 3FMV6 20183 99071 30085 41598 82015 10250 20204 40097 53010 70222 86870 22244 06256 20902 80220
BBXX DGZT2 20183 99141 10518 41/97 /0919 10230 20161 40165 51005 70000 8//// 22265 04250 2//// 80185
BBXX WYP8657 20184 99474 70885 41/98 52430 10000 2//// 40102 57026 70301 851// 22262 00044 20706 3//// 4//// 5//// 6//// 8//// ICE /////
BBXX 46204 20181 99514 71288 46/// /2410 10081 40270 52016 22200 00084 11611 70053 333 91213
BBXX 44022 20181 99409 70737 46/// ///02 10064 21012 40216 91815 22200 00078 333 91203 555 11021 22021
BBXX 44039 20181 99411 70727 46/// /3305 10055 21049 40222 54000 91800 22200 00093 10201 70004 333 91207
BBXX 44030 20181 99432 70704 46/// /3006 1//// 40202 51009 91804 22200 00085 10401 70006 333 91208 555 11072 22076
BBXX 44029 20181 99425 70706 46/30 /3208 10026 40202 53006 91804 22200 00087 10301 70007 333 91210 555 11094 22098
BBXX 44034 20181 99441 70681 46/30 /3110 11025 40184 51015 91804 22200 00084 10403 70016 333 91213 555 11119 22124
BBXX 44060 20181 99413 70721 46/// ///04 10052 40211 91815 22200 00101 333 91206 555 11036 22036
BBXX 44033 20181 99441 70690 46/30 /3208 11015 40196 51012 91804 22200 00070 10401 70007 333 91210 555 11096 22100
BBXX 46131 20181 99499 71250 46/// /2804 1//// 40269 52001 22200 00075 10200 70001 333 91204
BBXX 42362 20181 99278 70907 46/// /1807 10239 20206 40159 91815
BBXX 42363 20181 99282 70892 46/// /1806 10239 20183 40166 91815 333 91209
BBXX 42364 20181 99291 70881 46/// /1509 10228 20200 40173 91815
BBXX 46183 20181 99536 71311 46/// /2709 10059 40246 52026 22200 00077 10403 70015 333 91210
BBXX KCDK 20184 99273 70891 414// 61816 10250 2022/ 40150 57068 7//00 862// 22273 0//// 20202 31610 40403 50403 6//// 80228 ICE /////
BBXX A8JX8 20181 99472 71788 41498 42706 10020 21005 40045 54000 70211 8416/ 22224 2//// 3//// 4//// 5//// 63023 80010
BBXX 46147 20181 99518 71312 46/// /2610 10077 40274 52012 22200 00080 11414 70070 333 91214
BBXX 3FMH7 20184 99264 71349 41798 60717 00/// 10190 20142 40238 5//// 70211 85269 9//// 22273 0//// 1//// 20102 307// 40302 5//// 6//// 80160
BBXX H9UY 20184 99205 71583 41698 60432 00/// 10230 40146 51020 70322 86376 9//// 22273 04250 20605 308// 40706 5//// 6//// 80210
BBXX 46221 20181 99339 71186 46/// ///// 1//// 91745 22200 00149 11402 21001 326// 41401 70009
BBXX 44097 20181 99410 70711 46/// ///// 1//// 91802 22200 00121 10904 20904 316// 41302 70020
BBXX 44098 20181 99428 70702 46/// ///// 1//// 91807 22200 00088 10503 20503 311// 41101 70014
BBXX 51205 20181 99210 71564 46/// ///// 1//// 91818 22200 00241 10905 20905 334// 41302 70026
BBXX 41112 20181 99307 70813 46/// ///// 1//// 91751 22200 00161 11002 21002 308// 41101 70008
BBXX 46242 20181 99332 71174 46/// ///// 1//// 91758 22200 00144 11501 20601 323// 41501 70007
BBXX 46222 20181 99336 71183 46/// ///// 1//// 91756 22200 00151 11302 21001 327// 41302 70011
BBXX 46213 20181 99403 71247 46/// ///// 1//// 91754 22200 00100 10907 20906 329// 41304 70036
BBXX 46231 20181 99327 71174 46/// ///// 1//// 91754 22200 00150 11403 21002 328// 41402 70014
BBXX 46211 20181 99469 71242 46/// ///// 1//// 91806 22200 00086 11506 20803 327// 41505 70030
BBXX 46223 20181 99335 71178 46/// ///// 1//// 91800 22200 00152 11502 21001 327// 41502 70012
BBXX 46216 20181 99343 71198 46/// ///// 1//// 91757 22200 00147 11403 21002 327// 41402 70013
BBXX 46237 20181 99378 71226 46/// ///// 1//// 91810 22200 00113 11404 21002 324// 41403 70021
BBXX 46217 20181 99342 71194 46/// ///// 1//// 91812 22200 00150 11302 21001 326// 41301 70010
BBXX 46212 20181 99408 71243 46/// ///// 1//// 91812 22200 00097 11306 20805 329// 41304 70031
BBXX 46240 20181 99366 71219 46/// ///// 1//// 91812 22200 00122 11103 21002 335// 41102 70015
BBXX 41114 20181 99276 70802 46/// ///// 1//// 91816 22200 00237 11003 21003 306// 41101 70016
BBXX 41115 20181 99184 70673 46/// ///// 1//// 91805 22200 11105 20804 336// 41103 70027
BBXX 46241 20181 99330 71173 46/// ///// 1//// 91741 22200 00142 11401 20701 326// 41401 70007
BBXX 46249 20181 99338 71197 46/// ///// 1//// 91812 22200 00146 11403 21002 325// 41402 70013
BBXX 46248 20181 99461 71247 46/// ///// 1//// 91804 22200 00096 11407 21003 329// 41406 70034
BBXX 46244 20181 99409 71244 46/// ///// 1//// 91805 22200 00097 10807 20805 329// 41404 70033
BBXX KQXZ 20184 99508 71366 41898 83029 10089 2002/ 40250 52010 7//22 84/4/ 22273 0//// 20605 328// 41207 5//// 6//// 80056 ICE /////
BBXX WCZ5535 20184 99329 70409 41597 83109 10200 2017/ 40090 54000 7//22 882// 22223 0//// 2//// 314// 40805 5//// 6//// 80180 ICE /////
BBXX DDSB2 20183 99264 70597 41598 70216 10220 20125 40228 55003 70322 8549/ 22214 20202 335// 41010 80162
BBXX ELWG7 20184 99497 71552 414// 81937 10080 2006/ 40110 54000 7//22 886// 22223 00080 20707 320// 40709 5//// 6//// 80070 ICE /////
BBXX PBKH 20184 99254 71454 41/// 70727 10200 20150 40238 51010 70311 8//// 22224 00200 20507 325// 40507 5////
BBXX ZCDG7 20184 99249 71415 41398 80920 10193 20180 40237 54000 72586 8585/ 22264 00220 20302 311// 40503 5////
BBXX 46207 20181 99509 71299 46/// /2908 10083 40284 52026 22200 00082 11512 70062 333 91211
BBXX 46112 20181 99481 71227 46/// /1602 10061 40262 53003 91800
BBXX 41029 20181 99328 70796 46/// /1502 1//// 91800 555 11032 22036
BBXX 46111 20181 99481 71227 46/// /1504 10061 40261 53003 91800 22200 00055
BBXX NWS0022 20184 99416 70714 43/// /0112 10075 21024 40197 5//// 7//// 8//// 222// 04109 2//// 3//// 4//// 5//// 6//// 8//// ICE /////
BBXX C6UA2 20184 99192 31679 41395 81219 10250 20236 40100 54000 78422 8/93/ 22214 00320 20804 309// 41202 5//// 6//// 80240 ICE /////
BBXX SHIP 20184 99297 31117 41998 01916 10202 20146 40127 57010 70100 80000 22232 00225 10905 399// 408// 85167
BBXX AVMI 20184 99309 31534 41298 21122 10204 20/// 40219 56015 70150 821// 22233 00234
BBXX DDYZ2 20184 99495 70035 41/98 72915 10129 20083 40225 54000 7//// 8//// 22213 04130 2//// 80104
BBXX ZCDN2 20184 99352 70149 41599 70811 10155 20108 40307 52001 700// 854// 22253 00170 2//// 302// 40403 5//// 80130
BBXX 63119 20184 99583 10009 41/97 43123 10056 20013 40065 51/// 701// 8//// 22200 2//// 331// 40604 5////
BBXX 62103 20184 99499 70029 46/99 /2919 10109 20064 40216 52012 22200 00122 10702 70012
BBXX 64045 20184 99511 70117 46/// /2604 10047 20012 40076 55000 22200 00101 10909 70045
BBXX 62095 20184 99530 70159 46/// /2622 10122 20116 40156 53019 22200 00113 10809 70046 333 90710 91131
BBXX 62103 20184 99499 70029 46/99 /3118 10107 20057 40210 51013 22200 00122 10703 70013 333 90710 91125
BBXX 62094 20184 99517 70067 46/// /2319 10106 20097 40180 57017 22200 00105 10503 70015 333 90710 91125
BBXX 62107 20184 99501 70061 46/// /2520 10109 20087 40221 58001 22200 00117 10703 70014
BBXX 62027 20184 99491 70022 46/// /3415 1//// 2//// 40225 52012 22200 00112 10603 332// 70016
BBXX 63110 20183 99595 10015 41/98 /2918 10061 40042 700// 8//// 22200 10504 70020
BBXX 62305 20184 99504 10000 46/98 /3119 10091 20034 40205 51013 22200 00119 10602 70010 333 90710 91126
BBXX 62116 20184 99576 10011 47597 /2916 10061 20010 40083 52012 700// 22200 10605 70023
BBXX 62170 20184 99514 10020 46/98 /3021 10081 20032 40172 52016 22200 00107 10602 70011 333 90710 91129
BBXX 62304 20184 99511 10018 46/98 /3118 10077 20032 40183 52018 22200 00110 10603 70013 333 90710 91125
BBXX 62164 20184 99572 10008 47598 /2814 10079 20029 40097 53009 700// 22200 00094 10605 70026
BBXX 62146 20184 99572 10021 47/98 /2909 10060 21006 40089 52014 700// 22200 10606 70028
BBXX 62122 20184 99573 10016 47598 /2920 10066 20009 40083 51014 700// 22200 10605 70026
BBXX 62140 20184 99573 10013 46/// /29// 10069 20009 40084 51009 22200
BBXX 62145 20184 99531 10028 47598 /3020 10072 20006 40156 52021 700// 22200 10606 70029
BBXX 62155 20184 99577 10007 47599 /2720 10054 20009 40089 53008 751// 22200 10604 70022
BBXX 62153 20184 99573 10020 47598 /2606 10049 20004 40085 52015 700// 22200 10605 70025
BBXX 62104 20184 99574 10013 47797 /3011 10059 20004 40088 52015 700// 22200
BBXX 62142 20184 99530 10021 47698 /3017 10069 20016 40151 52021 700// 22200 10604 70022
BBXX 62118 20184 99577 10009 47698 /2819 10063 20009 40080 52007 700// 22200 10604 70022
BBXX 62143 20184 99577 10018 47597 /3114 10059 20002 40087 52014 751// 22200 10605 70025
BBXX 62117 20184 99579 10000 47598 /2717 10063 20017 40082 52004 700// 22200 10604 70021
BBXX 62102 20184 99579 10018 46/// /3019 10072 20011 40074 52014 22200 10605 70026
BBXX 62134 20184 99580 10014 47598 /2915 10064 20009 40076 52011 700// 22200 10605 70026
BBXX 62114 20184 99583 10000 46/// /2821 10061 20015 40073 52007 22200
BBXX ZQSD5 20184 99583 10007 46/// /2719 10058 20016 40081 52009 22200 10706 70029
BBXX 62113 20184 99584 10002 47698 /2816 10054 20009 40077 52014 763// 22200
BBXX 62148 20184 99536 10015 46/// /2918 10068 20020 40157 52019 22200
BBXX 62129 20184 99584 10003 46/// ///// 10050 20005 40074 52011 22200
BBXX 62144 20184 99534 10017 47998 /2916 10066 20017 40157 53023 700// 22200 10604 70022
BBXX 62150 20184 99536 10007 47998 /2915 10065 20016 40166 52016 700// 22200 10704 70021
BBXX 62121 20184 99535 10027 46/// ///// 22200
BBXX 62149 20184 99537 10011 47998 /2915 10070 20017 40154 52019 751// 22200 10604 70022
BBXX 62131 20184 99539 10012 46/// /31// 10070 20021 40146 52017 22200
BBXX 62132 20184 99564 10020 46/// /3220 10067 20019 40107 50011 22200
BBXX 62123 20184 99563 10022 47598 /3019 10066 20016 40096 52015 762// 22200
BBXX 62165 20184 99540 10009 47598 /2912 10070 20015 40155 52013 700// 22200 10605 70026
BBXX 62127 20184 99540 10007 47998 ///// 10067 20014 40149 52015 700// 22200 10604 70022
BBXX 62152 20184 99570 10018 47/98 /3016 10068 20014 40094 52012 700// 22200 10505 70027
BBXX 62120 20184 99564 10021 47698 /3021 10057 20013 40095 52011 700// 22200
BBXX 62133 20184 99571 10009 46/// /2915 10055 20007 40096 53013 22200 10605 70025
BBXX 62154 20184 99564 10022 46/// /3118 10063 20020 40091 52015 22200
BBXX 62112 20184 99584 70002 47598 /2907 10049 20004 40081 52014 700// 22200
BBXX 63055 20184 99606 10016 47996 /3017 10043 21010 40031 52013 704// 22200 10604 70021
BBXX 63108 20184 99608 10017 47998 /2816 10025 21012 40025 53013 700// 22200 10704 70021
BBXX 62119 20184 99570 10019 47597 /3116 10064 20013 40090 52009 700// 22200 10605 70027
BBXX PJGO 20184 99571 10022 47598 /2921 10066 20019 40087 52010 700// 22200
BBXX 62111 20184 99580 70003 46/// /2919 10060 20013 40094 52006 22200 10504 70020
BBXX PJAI 20184 99581 70014 47598 /2817 10072 20011 40085 51009 762// 22200
BBXX 63103 20184 99612 10011 46/// /3210 10042 21007 40026 52011 22200 10705 70024
BBXX 63113 20184 99610 10017 46/// /3311 10037 20010 40028 53010 22200 10705 70025
BBXX 63112 20184 99611 10010 47698 /2808 10050 21011 40021 52009 700// 22200 10705 70026
BBXX 63105 20184 99610 10017 47598 ///// 10052 20010 40026 52013 700// 22200
BBXX 63106 20184 99610 10017 46/// /3111 10034 40027 52013 22200
BBXX 63104 20184 99612 10016 47699 /2807 10029 21005 40025 52016 700// 22200
BBXX 62128 20184 99587 10014 47798 /2816 10053 20012 40066 51007 700// 22200 10605 70026
BBXX MWYG6 20184 99603 70040 47998 /2812 10050 700// 22200
BBXX 63101 20184 99612 10009 46/// /3206 10052 20016 40023 52012 22200
BBXX 63115 20184 99616 10013 47999 /2712 10045 21016 40018 52013 700// 22200 10707 70034
BBXX 63117 20184 99613 10011 47599 /2909 10045 21013 40023 52014 700// 22200
BBXX 63107 20184 99611 10017 46/// /3210 10027 40026 52013 22200
BBXX 64041 20184 99607 70026 47598 /2618 10042 21007 40044 53015 700// 22200 10807 70037
BBXX 63057 20184 99592 10015 47698 /2717 10064 20005 40052 53010 700// 22200 10605 70024
BBXX 63110 20184 99595 10015 47598 /3014 10059 20004 40045 52010 700// 22200 10604 70022
BBXX 63056 20184 99597 10016 47598 /2914 10056 20001 40032 52010 700// 22200 10605 70025
BBXX AMOUK06 20184 99512 10014 46/// ///// 10071 20028 30159 40175 52019 91750
BBXX AMOUK05 20184 99537 70003 46/// ///// 10048 20024 30114 40150 52017 91750
BBXX AMOUK08 20184 99501 70061 46/// ///// 10114 20098 30216 40221 54001 91750
BBXX AMOUK03 20184 99537 70003 46/// ///// 10062 20028 30120 40151 52015 91750
BBXX AMOUK27 20184 99579 70052 46/// ///// 11191 2//// 30086 40091 52007 91750
BBXX AMOUK09 20184 99516 10020 46/// ///// 10074 20034 30153 40168 52020 91750
BBXX AMOUK14 20184 99535 70054 46/// ///// 10088 20066 30125 40159 57012 91750
BBXX AMOUK19 20184 99571 70021 46/// ///// 10044 2//// 30108 40112 52006 91750
BBXX 62105 20184 99554 70122 46/// /2518 10111 20107 40074 55010 22200 00106 10908 70042
BBXX 64045 20184 99591 70117 46/// /2604 10047 20012 40076 55000 22200 00101 10909 70045
BBXX 62029 20184 99487 70125 46/// /2819 10130 20121 40264 53013 22200 00129 10605 70026 333 90710 91127
BBXX 62163 20184 99475 70084 46/// /2713 10116 20097 40276 53006 22200 00127 10604 70020
BBXX 64046 20184 99606 70049 46/// /2919 10061 20020 40050 52014 22200 00078 10809 70043
BBXX 62301 20184 99524 70047 46/// /2410 10089 20069 40178 56006 22200 00086 10503 70014
BBXX 62081 20184 99510 70134 46/// ///// 10126 20113 40208 52011 22200 00119 10707 70036
BBXX BAREU12 20184 99555 10064 46/// ///// 40053 52016 22232
BBXX BAREU62 20184 99370 10197 46/// ///// 40160 52006 22224
BBXX 62303 20184 99516 70051 46/// /2411 10107 20075 40192 56007 22200 00109 10603 70017
BBXX 63118 20183 99591 10016 41597 82722 10050 40052 76166 8/7// 22200 10605 70024
BBXX 62442 20184 99490 70164 46/// /2517 1//// 2//// 40266 52012 22200 00127
BBXX 62001 20184 99452 70050 46/// /3111 10129 20108 40284 52015 22200 00142 10604 70022
BBXX V2NA1 20184 99446 70252 41498 82015 10156 20126 40292 53002 70222 887// 22224 04130 20503 324// 40504 80138
BBXX WRYD 20184 99379 10090 41498 72830 10160 2009/ 40180 57020 75022 8696/ 22225 00170 20406 328// 4//// 5//// 6//// 80120 ICE /////
BBXX BATFR02 20184 99500 70006 46/// /3122 10099 20024 40217 22284 00129
BBXX A8FZ6 20184 99355 70142 41498 40515 10170 20119 40310 70222 84500 22225 2//03 80140
BBXX BATUK01 20184 99585 70029 46/// /2906 10034 20004 40087 53017 22200 00092
BBXX A8XY2 20184 99445 70237 41398 82216 10151 20098 40308 51004 70300 888// 22264 04130 20502 327// 40603 80121
BBXX 61002 20184 99421 10047 46/// ///27 10140 2//// 40166 52006 22200 00139 10605 70026 555 1/041
BBXX BATEU04 20184 99570 10102 46/// /1806 10020 21002 40056 22232
BBXX BATFR52 20184 99499 70041 46/// /2626 10112 20067 40226 58007 22283 00120
BBXX BAREU00 20184 99534 70030 46/// ///// 40160 22200
BBXX 61001 20184 99434 10078 46/// /0521 10112 20047 40104 52008 22200 00148 10503 70014 555 1/028
BBXX BATFR54 20184 99521 70056 46/// /2218 10102 20084 40182 56013 22283 00114
BBXX BATFR01 20184 99345 10293 46/// /2817 10167 20124 40164 53009 22262 00180
BBXX BATEU01 20184 99506 70164 44796 82527 10135 20107 40229 53017 70022 86611 22224 00120 21004 330// 41004 5////
BBXX BAREU51 20184 99440 10092 46/// ///// 40113 52002 22285
BBXX BAREU56 20184 99347 10131 46/// ///// 40212 52005 22242
BBXX BAREU08 20184 99503 70000 46/// ///// 40202 52001 22224
BBXX BATFR04 20184 99582 70061 46/// /3112 10045 20017 40095 51012 22282 00105
BBXX BATFR12 20184 99482 70069 46/// /2714 10122 20109 40262 53013 22251 00142
BBXX BATFR09 20184 99432 70101 44296 82607 10124 20112 40320 52022 72854 882// 22243 00152 20202 327// 41006 5//// 60//0 ICE 0/0//
BBXX BATFR46 20184 99362 70034 44/96 32610 10144 20079 40278 55002 70011 82//1 22223 00169 20000
BBXX BAREU63 20184 99368 10204 46/// /1307 10126 29049 40150 52015 22262
BBXX TESTFR9 20184 99499 70041 46/// /2829 10108 29079 40234 57003 22284
BBXX LF3N 20184 99653 10073 41598 61913 10062 21016 49979 57003 70322 862// 22200 00089 10702 70009
BBXX LF5T 20184 99660 10081 419// /2012 10058 21016 49980 52001 70222 22200 06084 10703 70013 333 91115
BBXX LF4C 20184 99584 10019 41598 63210 10062 20023 40072 52017 78081 89/// 22200 00072 10605 70023 333 91128
BBXX LF4B 20184 99606 10037 47/98 /3111 10048 40034 52015 700// 22200 00051 10707 70034 333 91125
BBXX LF3F 20184 99643 10078 43/// /1712 10047 21004 49992 57002 22200 04084 10602 70011 333 91116
BBXX 3ERR2 20184 99635 10053 41598 81519 10049 20036 49964 57013 70262 885// 22200 06099 10605 70027 333 91131
BBXX C6IO9 20184 99372 70127 41998 23407 10160 20103 40328 54000 70100 8/0/5 22243 06175 20301 334// 40502 5//// 80130
BBXX C6KD4 20183 99407 70229 41/97 81911 10160 20146 40338 54000 7//22 88/2/ 22255 02165 20902 331// 41202 80152
AAXX 20184 42309 31995 10000 10112 20096 40142 70500 81030 333 59012
AAXX 20184 42314 31995 20000 10128 20117 40153 71040 82030 333 59004 82360
AAXX 20184 42410 31595 20000 10140 20116 40145 70500 82500 333 59008 82620
AAXX 20184 42415 31996 10000 10136 20125 40171 70500 81030 333 59009 81360
AAXX 20184 42623 31/95 00000 10068 20051 39263 40174 70500 333 59013
AAXX 20184 42706 31995 03602 10132 20097 40155 70500 333 59009
AAXX 20184 42809 31995 00000 10150 20128 40152 70500 333 59004
AAXX 20184 43333 31495 60509 10260 20208 40106 70521 85401 333 56109 59012 82616 83818
AAXX 20184 42398 NIL
AAXX 20184 42492 NIL
AAXX 20184 42587 NIL
AAXX 20184 42591 NIL
AAXX 20184 42701 NIL
AAXX 20184 42724 NIL
AAXX 20184 42798 NIL
AAXX 20184 42886 NIL
AAXX 20184 42895 NIL
AAXX 20184 42971 NIL
AAXX 20184 42977 NIL
AAXX 20184 43368 NIL
AAXX 20184 61017 32960 50000 10218 20000 39743 40154 80002 333 10273 58004 85080
AAXX 20184 61024 32960 71214 10232 21061 39573 40149 84032 333 10284 58006 84364 83080 P087
AAXX 20184 61036 32960 70000 10289 20002 39866 40104 80008 333 10338 59005 87280
AAXX 20184 61043 32960 71208 10277 21047 39673 40116 82038 333 10315 58005 82364 86280
AAXX 20184 61045 32965 50402 10230 21026 39635 40139 80002 333 10291 58013 85080
AAXX 20184 61049 32960 50000 10220 20005 39799 40122 80002 333 10299 58003 85080
AAXX 20184 61052 32960 50204 10290 20038 39863 40121 83032 333 10335 58007 83364 85080
AAXX 20184 61075 32965 70000 10270 20053 39801 40112 83032 333 10335 58002 83364 85080
AAXX 20184 61080 32960 70804 10255 20022 39700 40123 82048 333 10315 58003 82364 87280
AAXX 20184 61090 32965 50202 10256 21040 39610 40125 80002 333 10302 58004 85080
AAXX 20184 61091 32960 20000 10225 20089 39681 40145 80002 333 10315 58004 82080
AAXX 20184 61096 32965 70000 10236 20008 39746 40133 80008 333 10307 58003 87280
AAXX 20184 61099 32960 70204 10290 20072 39870 40098 85042 333 10336 58006 85364 83080
AAXX 20184 61017 32960 50000 10218 20000 39743 40154 80002 333 10273 58004 85080
AAXX 20184 61024 32960 71214 10232 21061 39573 40149 84032 333 10284 58006 84364 83080
AAXX 20184 61036 32960 70000 10289 20002 39866 40104 80008 333 10338 59005 87280
AAXX 20184 61043 32960 71208 10277 21047 39673 40116 82038 333 10315 58005 82364 86280
AAXX 20184 61045 32965 50402 10230 21026 39635 40139 80002 333 10291 58013 85080
AAXX 20184 61049 32960 50000 10220 20005 39799 40122 80002 333 10299 58003 85080
AAXX 20184 61052 32960 50204 10290 20038 39863 40121 83032 333 10335 58007 83364 85080
AAXX 20184 61075 32965 70000 10270 20053 39801 40112 83032 333 10335 58002 83364 85080
AAXX 20184 61080 32960 70804 10255 20022 39700 40123 82048 333 10315 58003 82364 87280
AAXX 20184 61090 32965 50202 10256 21040 39610 40125 80002 333 10302 58004 85080
AAXX 20184 61091 32960 20000 10225 20089 39681 40145 80002 333 10315 58004 82080
AAXX 20184 61096 32965 70000 10236 20008 39746 40133 80008 333 10307 58003 87280
AAXX 20184 61099 32960 70204 10290 20072 39870 40098 85042 333 10336 58006 85364 83080
AAXX 20184 40250 NIL
AAXX 20184 40265 32960 00000 10116 21023 39418 40214 54000 333 10156
AAXX 20184 40296 32960 00000 10178 20078 40163 52007 333 10265
AAXX 20184 40310 NIL
AAXX 20184 67765 41880 11801 10224 20151 38660 48504 71300 81963 333 10292 59007 81956
AAXX 20184 67775 42780 11306 10204 20088 38503 48507 80002 333 10270 59009 81080
AAXX 20184 67779 NIL
AAXX 20184 67853 NIL
AAXX 20184 67861 NIL
AAXX 20184 67867 42980 10000 10169 20093 38580 48507 80001 333 10260 58000 81080
AAXX 20184 67881 42980 01402 10190 20110 38582 48510 333 10257 59002
AAXX 20184 67965 42980 11604 10216 20082 38689 48514 80002 333 10292 59007 81080
AAXX 20184 67975 NIL
AAXX 20184 67977 NIL
AAXX 20184 67983 42980 10000 10186 20144 38895 48519 81062 333 10250 59001 81360
AAXX 20184 67991 42980 00000 10270 20182 39573 48485 333 10316 59001
AAXX 20184 89050 41498 60510 10037 20027 49941 54000 70182 85240
AAXX 20184 89512 32598 71226 11015 21043 39632 49779 52019 87500 333 10018
AAXX 20184 89574 42998 11013 10034 21087 49641 52013 81030
AAXX 20184 89592 42298 80912 11002 21017 49596 52044 886//
AAXX 20184 89606 42998 23308 11323 21372 36238 47813 57010 80001 333 11240
BBXX UCAD 20181 99545 10034 41/97 93111 10080 40117 52035 70221 88/// 22243 00090 20404
AAXX 20181 80001 01470 71008 10270 20238 30119 40120 69971 70352 82270 333 5630/ 59010 69977 82859
AAXX 20181 80002 NIL
AAXX 20181 80009 31560 30000 10312 20235 30088 40009 70500 82804 333 560/0 58002 82820 83070
AAXX 20181 80022 31465 13203 10294 20246 30089 40091 70500 81101 333 569/0 59009 81815
AAXX 20181 80028 NIL
AAXX 20181 80035 NIL
AAXX 20181 80036 31568 20507 10314 20180 70500 81102 333 560/0 81820
AAXX 20181 80063 NIL
AAXX 20181 80084 31570 62103 10287 20225 70522 84811 333 56199 84820
AAXX 20181 80091 31465 42702 10300 20224 70522 83288 333 56099 83815
AAXX 20181 80094 31465 72905 10224 20191 38795 70521 84831 333 56999 59007 84813 83360
AAXX 20181 80097 NIL
AAXX 20181 80099 31560 30000 10312 20235 30088 40009 70500 82804 333 560/0 58002 82820 83070
AAXX 20181 80110 31570 20304 10260 20145 38473 70510 82101 333 569/9 59016 82830
AAXX 20181 80112 31570 21005 10211 20113 37886 70520 82100 333 562// 59010 82820
AAXX 20181 80139 NIL
AAXX 20181 80144 31560 50000 10288 20225 70522 85200 333 560// 85820
AAXX 20181 80210 31463 62101 10244 20174 38649 70522 83831 333 56550 59011 83815 83358
AAXX 20181 80211 31570 62202 10248 20179 70542 84230 333 5612/ 84827 83360
AAXX 20181 80214 31560 51303 10271 20212 39105 70542 83835 333 56509 59004 83820
AAXX 20181 80222 31568 70705 10184 20078 37506 70522 85255 333 56199 57896 58003 85820
AAXX 20181 80234 NIL
AAXX 20181 80252 NIL
AAXX 20181 80259 31560 60602 10254 20254 39032 70522 84830 333 5689/ 59018 84830 83359
AAXX 20181 80315 32565 40000 10288 20211 39579 40073 83150 333 5612/ 59008 83820
AAXX 20181 80342 32565 50204 10212 20176 38201 85800 333 564// 59015 85822
AAXX 20181 80370 01462 61205 10144 20108 60011 71565 86800 333 563// 60017 86818
AAXX 20181 80372 NIL
AAXX 20181 80398 01420 80803 10254 20241 30022 40118 60071 75062 885// 333 563// 58011 60077 84710 86613
BBXX MGRX9 20184 99046 10806 41497 40626 10280 20237 40083 57005 7//// 8227/ 22233 00273 20406 3//// 4//// 5//// 80250
BBXX UFJN 20181 99708 10456 41/98 41611 11025 40017 54000 70020 84/// 22200 0//// 20301
AAXX 20184 94996 454// 30911 10201 20161 30040 40177 53010 91830
AAXX 20181 55299 32980 00000 11135 21251 35831 52002 333 05302 10048
AAXX 20181 55591 32980 00000 11044 21176 36499 52008 333 05153 10130
AAXX 20181 56739 32980 03601 10043 20020 38356 57003 333 05100 10175
AAXX 20181 56951 32970 00000 10064 20027 38513 52001 333 05151 10213
AAXX 20181 56964 32565 60000 10108 20097 38715 40153 57005 86100 333 05100 10213
AAXX 20181 57328 11857 80000 10074 20049 39838 40257 57001 69901 76000 885// 333 10092
AAXX 20181 57411 31930 83601 10079 20055 39882 40261 52002 71000 8807/ 333 10100
AAXX 20181 57447 11450 81801 10070 20061 39709 40264 54000 69911 76060 8177/ 333 10081
AAXX 20181 57662 32862 80000 10082 20004 30226 40271 52002 885// 333 10099
AAXX 20181 57745 11760 80902 10064 20021 39931 40267 54000 69901 70060 885// 333 10077
AAXX 20181 57972 32960 60000 10067 20020 30025 40253 52003 86040 333 10151
AAXX 20181 58203 31930 83602 10010 21026 30250 40293 52007 71000 8807/ 333 10087
AAXX 20181 58314 32965 81401 11013 21013 30173 40284 52009 8807/ 333 10074
AAXX 20181 58424 31956 80702 10058 21003 30246 40272 52006 70500 8807/ 333 10076
AAXX 20181 59023 32860 80701 10117 20078 39902 40215 57001 885// 333 10157
AAXX 20181 59417 32962 10000 10129 20110 30031 40185 57003 81040 333 10228
AAXX 20181 59985 11570 70406 10232 20226 30119 40124 57006 60011 78080 872// 333 10256
AAXX 20181 59995 NIL
AAXX 20184 94996 454// 30911 10201 20161 30040 40177 53010 91830
BBXX 46185 20181 99524 71298 46/// /2808 10077 40265 52022 22200 00075 11405 70023 333 91209
AAXX 20184 67765 41880 11801 10224 20151 38660 48504 71300 81963 333 10292 59007 81956
AAXX 20184 67775 42780 11306 10204 20088 38503 48507 80002 333 10270 59009 81080
AAXX 20184 67779 NIL
AAXX 20184 67853 NIL
AAXX 20184 67861 NIL
AAXX 20184 67867 42980 10000 10169 20093 38580 48507 80001 333 10260 58000 81080
AAXX 20184 67881 42980 01402 10190 20110 38582 48510 333 10257 59002
AAXX 20184 67965 42980 11604 10216 20082 38689 48514 80002 333 10292 59007 81080
AAXX 20184 67975 NIL
AAXX 20184 67977 NIL
AAXX 20184 67983 42980 10000 10186 20144 38895 48519 81062 333 10250 59001 81360
AAXX 20184 67991 42980 00000 10270 20182 39573 48485 333 10316 59001
AAXX 20181 80001 01470 71008 10270 20238 30119 40120 69971 70352 82270 333 5630/ 59010 69977 82859
AAXX 20181 80002 NIL
AAXX 20181 80009 31560 30000 10312 20235 30088 40009 70500 82804 333 560/0 58002 82820 83070
AAXX 20181 80022 31465 13203 10294 20246 30089 40091 70500 81101 333 569/0 59009 81815
AAXX 20181 80028 NIL
AAXX 20181 80035 NIL
AAXX 20181 80036 31568 20507 10314 20180 70500 81102 333 560/0 81820
AAXX 20181 80063 NIL
AAXX 20181 80084 31570 62103 10287 20225 70522 84811 333 56199 84820
AAXX 20181 80091 31465 42702 10300 20224 70522 83288 333 56099 83815
AAXX 20181 80094 31465 72905 10224 20191 38795 70521 84831 333 56999 59007 84813 83360
AAXX 20181 80097 NIL
AAXX 20181 80099 31560 30000 10312 20235 30088 40009 70500 82804 333 560/0 58002 82820 83070
AAXX 20181 80110 31570 20304 10260 20145 38473 70510 82101 333 569/9 59016 82830
AAXX 20181 80112 31570 21005 10211 20113 37886 70520 82100 333 562// 59010 82820
AAXX 20181 80139 NIL
AAXX 20181 80144 31560 50000 10288 20225 70522 85200 333 560// 85820
AAXX 20181 80210 31463 62101 10244 20174 38649 70522 83831 333 56550 59011 83815 83358
AAXX 20181 80211 31570 62202 10248 20179 70542 84230 333 5612/ 84827 83360
AAXX 20181 80214 31560 51303 10271 20212 39105 70542 83835 333 56509 59004 83820
AAXX 20181 80222 31568 70705 10184 20078 37506 70522 85255 333 56199 57896 58003 85820
AAXX 20181 80234 NIL
AAXX 20181 80252 NIL
AAXX 20181 80259 31560 60602 10254 20254 39032 70522 84830 333 5689/ 59018 84830 83359
AAXX 20181 80315 32565 40000 10288 20211 39579 40073 83150 333 5612/ 59008 83820
AAXX 20181 80342 32565 50204 10212 20176 38201 85800 333 564// 59015 85822
AAXX 20181 80370 01462 61205 10144 20108 60011 71565 86800 333 563// 60017 86818
AAXX 20181 80372 NIL
AAXX 20181 80398 01420 80803 10254 20241 30022 40118 60071 75062 885// 333 563// 58011 60077 84710 86613
BBXX 46185 20181 99524 71298 46/// /2808 10077 40265 52022 22200 00075 11405 70023 333 91209
AAXX 20184 06610 01660 82207 10021 20004 39592 40189 52025 69952 71022 887// 333 10023 43004 55300 20000 60005 88734 90766 93100 91118 91210
AAXX 20184 06670 01250 82306 10015 20001 39645 40168 53023 60052 76872 887// 333 10018 43010 55300 20000 60005 81706 84708 87613 90766 93107 91115 91209
AAXX 20184 06700 01560 42603 10009 20002 39691 40198 52023 60032 71081 84800 333 10014 43003 55300 20000 60005 81820 83645 90766 93101 91109 91206
AAXX 20184 06680 01/01 92906 11103 21103 37413 47934 52017 60512 77374 333 11095 47203 55300 20000 60045 90766 93120 91135 91208
AAXX 20184 06990 03/// /1505 11017 21017 39605 40171 52016 60062 333 11018 55300 20000 69995 91116 91209
AAXX 20184 06760 32975 33502 10015 21034 39686 40144 52007 83010 333 10041 30/// 55300 20000 83360 90766 93100 91110 91205
AAXX 20184 06720 03/// ///// 11025 21036 39596 40194 52013 60082 333 11022 55300 20000 69915
AAXX 20181 24790 41999 30000 11435 21450 39384 40335 52006 77670 80001
AAXX 20181 24988 41997 83003 11250 21281 39903 40176 52006 77071 8802/
AAXX 20181 25378 31696 73315 11134 21216 30004 40038 53010 73832 82550 333 21152 48003 91125
AAXX 20181 25503 41999 00000 11451 21471 30141 40292 52005 77670
AAXX 20181 25705 41998 81501 11370 21391 39898 40277 52010 77172 82037
AAXX 20181 25927 NIL
AAXX 20181 25932 42999 02502 11204 21253 30086 40127 52007
AAXX 20181 31152 42997 00000 11400 21434 39815 40282 58002
AAXX 20181 31174 42999 02306 11159 21186 30189 40101 52006 333 91111
AAXX 20181 31489 42997 00000 11311 21334 30104 40236 52003
AAXX 20181 31866 42999 02506 11188 21237 30225 40231 52006
AAXX 20181 31959 42998 02804 11115 21187 30191 40236 58005
AAXX 20181 31989 42999 00106 11121 21193 30191 40248 55003
AAXX 20181 32027 42999 00902 11276 21300 30211 40221 52006 333 91003 91104
AAXX 20181 32076 41996 82803 11171 21185 30203 40214 52008 77072 8801/ 333 91005 91105
AAXX 20181 32099 42998 00102 11087 21102 30200 40208 52008 333 91004 91105
AAXX 20181 32121 41597 81602 11091 21120 30192 40215 52006 70282 889// 333 91003 91105
AAXX 20181 32213 NIL
AAXX 20181 32287 42999 01403 11224 21242 30119 40130 52015
AAXX 20181 32408 42999 50103 11220 21253 30040 40081 52006 80001
AAXX 20181 32509 NIL
AAXX 20181 32594 41998 10414 11119 21191 30038 40075 52017 73630 80001 333 91019 91121
AAXX 20181 32213 41598 32915 11078 21092 39983 40049 54000 73730 83500 333 91019 91119
AAXX 20184 40250 NIL
AAXX 20184 40265 32960 00000 10116 21023 39418 40214 54000 333 10156
AAXX 20184 40296 32960 00000 10178 20078 40163 52007 333 10265
AAXX 20184 40310 NIL
AAXX 20184 89132 NIL
AAXX 20184 89542 46/// /2903 11024 20008 49823 56027
AAXX 20184 89575 NIL
AAXX 20184 89657 NIL
BBXX NIL
BBXX NIL
BBXX NIL
BBXX NIL
BBXX NIL
AAXX 20184 40255 32960 00000 10146 20017 39475 40187 52009 333 10210
AAXX 20184 40260 32960 00000 10143 21040 39416 40199 54001 333 10200
AAXX 20184 40270 31950 20000 10118 20014 39290 40196 52005 70500 80002 333 10184 82070
AAXX 20184 40272 32960 00706 10114 21019 39362 40206 52020 333 10188
AAXX 20184 40290 NIL
AAXX 20184 40340 32960 03606 10190 20033 40156 52017 333 10276
AAXX 20184 64810 32456 72604 10277 20253 30065 40091 8457/ 333 10306 55/// 58002 84613 87363
AAXX 20184 64820 NIL
BBXX A8JX8 20181 99472 71788 41498 42706 10020 21005 40045 54000 70211 8416/ 22224 2//// 3//// 4//// 5//// 63023 80010
BBXX DHBN 20181 99329 71721 41397 82007 10205 20190 40178 50008 70286 87530 22224 00200 2//02 329// 41204 5//// 80195
BBXX ELWG7 20184 99497 71552 414// 81937 10080 20060 40110 54000 7//22 886// 22223 00080 20707 320// 40709 5//// 6//// 80070 ICE /////
BBXX SHIP 20184 99300 71633 41697 42006 10200 20170 40260 5//// 7//10 8346/ 22263 00220 2//// 3//// 4//// 5//// 6//// 80180 ICE /////
AAXX 20180 44218 329// 00000 11273 21304 38779 40639 58004
AAXX 20180 44265 329// 00000 11284 21308 39036 40640 56013
AAXX 20180 44277 329// 01803 11217 21249 37917 40642 52001
AAXX 20184 63729 12480 40000 10218 20200 38868 48/// 69902 8193/ 333 0//19 10265 55300 58000 81619 81921 84359
AAXX 20184 63756 32580 60000 10222 20197 38869 48505 8293/ 333 10260 58004 82820 81921 86359
AAXX 20184 63791 32580 20915 10270 20137 39110 48501 82500 333 10346 55300 58005 82626 Q1013
AAXX 20184 63801 31580 70000 10238 20223 39202 48527 71322 8191/ 333 10294 58003 81821 81922 87459
AAXX 20184 63832 32480 70000 10202 20189 38834 48505 8293/ 333 10243 55300 59018 82818 81919 87358
AAXX 20184 63862 01480 63005 10213 20187 38902 48514 69962 71396 83973 333 0//16 10266 58013 69947 83819 81922 85357
AAXX 20184 63866 32580 20000 10247 20215 39511 48/// 82500 333 10294 58003 82625
AAXX 20184 63870 32480 40000 10266 20258 30090 40108 82230 333 10310 55300 58007 82816 84358
AAXX 20184 63881 12480 80000 10177 20156 38208 48/// 60032 8597/ 333 10216 58004 85618 81920 88357
AAXX 20184 63887 12480 50608 10201 20178 38594 48514 60162 81970 333 0//94 58010 81618 81919 85358
AAXX 20184 63894 12580 20000 10256 20252 30052 40112 60052 822000 333 0//18 10307 55300 58001 82820
AAXX 20184 63932 01470 80000 10160 20155 38314 48513 60512 79522 8292/ 333 0//62 10231 59003 60466 82619 81921 88458
AAXX 20184 63962 11580 71105 10220 20195 38951 48510 60032 71792 8592/ 333 10262 59004 85620 81923 87458
AAXX 20184 63971 12580 71805 10242 20239 39980 40110 60102 8293/ 333 0//14 10307 55300 58001 82820 81921 87358
AAXX 20184 63733 NIL
AAXX 20181 23973 41997 81805 11122 21135 30211 40276 57023 77173 8802/
AAXX 20181 23975 415// 82502 11119 21139 30165 40279 57019 78582 889//
AAXX 20181 23986 41997 81802 11155 21174 39645 40316 56007 77172 8802/
AAXX 20181 23987 41497 71504 11136 21163 30224 40302 58018 78582 87900
AAXX 20181 24606 429// 00000 11412 21438 30082 40399 58003
AAXX 20181 29253 419// 80000 11130 21155 30155 40338 57012 77172 8801/
AAXX 20181 29471 41496 82402 11120 21147 30134 40376 57012 78582 889// 333 88917
AAXX 20181 29481 41997 82601 11119 21132 30125 40125 58014 77172 8802/
AAXX 20181 29553 41975 02505 11132 21167 30015 40404 57007 73673 333 91112
AAXX 20181 29562 41584 22403 11136 21163 39965 40407 58003 70281 82900
AAXX 20181 29581 419// 82602 11113 21126 30117 40388 57011 77172 8802/
AAXX 20181 29594 41598 82201 11128 21148 39981 40390 58013 78582 889//
AAXX 20181 29653 42997 02003 11141 21161 39905 40421 58003
AAXX 20181 29675 41898 82501 11095 21121 39795 40416 58002 70272 8802/
AAXX 20181 29676 41696 83003 11073 21103 39931 40370 57015 77177 885//
AAXX 20181 29752 414// 32506 11153 21159 38950 48571 58002 78583 83900 333 91119
AAXX 20181 29759 419// 52007 11127 21162 39370 40459 58002 73873 82031 333 91116
AAXX 20181 29766 41899 81401 11130 21136 30066 40445 58001 70272 8801/
AAXX 20181 29789 42599 80201 11100 21136 39149 40379 58005 8391/
AAXX 20181 29864 429// 73205 11077 21127 39753 40431 52004 86042
AAXX 20181 29866 429// 52605 11054 21109 30102 40434 52004 85070
AAXX 20181 29869 416// 72905 11040 21085 30055 40441 52006 73673 875// 333 91113 95090
AAXX 20181 29956 41671 82506 11062 21121 39904 40487 52005 73683 889// 333 88937 91112
AAXX 20181 30337 41598 50000 11301 21326 39925 40433 52012 70282 82901
AAXX 20181 30405 419// 82201 11151 21171 39830 40394 57004 77177 82035
AAXX 20181 30504 41997 82901 11143 21163 39712 40400 58006 77172 8801/
AAXX 20181 30603 41597 83301 11137 21150 39795 40401 52001 78582 889//
AAXX 20181 30612 415// 82001 11192 21211 39833 40412 58001 78582 8691/
AAXX 20181 30622 429// 00000 11305 21324 39707 40438 51006
AAXX 20181 30627 42999 02101 11221 21247 39398 40414 52003
AAXX 20181 30703 419// 80000 11120 21126 39693 40402 58001 77172 8802/
AAXX 20181 36307 42897 83301 11276 21307 39159 48634 52001 8802/ 333 95090
AAXX 20181 23074 42997 00804 11226 21251 30194 40221 57015
AAXX 20181 23274 41497 71305 11201 21220 30179 40218 57021 77172 8452/ 333 84618
AAXX 20181 23383 42998 00000 11439 21468 39967 40389 57015
AAXX 20181 23472 41496 81004 11190 21216 30170 40222 57019 78587 889//
AAXX 20181 23678 419// 81003 11143 21163 30164 40225 57023 77177 8802/
AAXX 20181 23884 419// 81502 11125 21138 30192 40269 57023 77172 8802/
AAXX 20181 23891 42996 30000 11380 21416 30017 57015 83030
AAXX 20181 24507 419// 00000 11409 21438 30115 40402 57005 71000
AAXX 20181 24817 429// 00000 11423 21450 39963 40401 58001
AAXX 20181 24908 41996 00000 11416 21450 30036 40429 58002 71000
AAXX 20181 29263 41559 82203 11112 21132 30232 40337 57013 78587 8495/
AAXX 20181 29282 41961 82801 11225 21250 30187 40374 57015 77072 8807/
AAXX 20181 29379 41497 82503 11123 21136 30150 40371 57013 78587 889//
AAXX 20181 29570 41596 62604 11103 21139 30024 40389 57009 78583 83901
AAXX 20181 29698 415// 80000 11127 21140 39847 40390 58013 78582 889//
AAXX 20181 30230 41998 20000 11338 21368 30045 40423 52011 70271 80001
AAXX 20181 30252 419// 80000 11213 21261 30022 40365 52029 70332 8805/
AAXX 20181 30309 41998 80000 11225 21243 39831 40402 58005 77171 85031
AAXX 20181 30328 419// 80000 11292 21316 39954 40435 52009 77177 80007
AAXX 20181 30521 429// 50000 11304 21321 39842 40435 52008 80001
AAXX 20181 30710 41596 83502 11135 21150 39787 40406 54000 78582 889//
AAXX 20181 34691 31998 51106 11066 21116 30315 40302 57023 70232 80002 333 11040
AAXX 20181 35700 31996 01313 11082 21124 30401 40376 57010 70733 333 11063 91018 91121
AAXX 20181 34691 31998 51106 11066 21116 30315 40302 57023 70232 80002 333 11040
AAXX 20184 71351 16/// /2908 10041 21028 60001 333 10059 21027 70000
AAXX 20184 71353 16/// /3006 10024 21036 60001 333 10050 21019 70000
AAXX 20184 71375 46/// /3222 11076 6///1 333 11035 21089 7////
AAXX 20184 71385 46/// /2817 11079 6///1 333 11023 21091 7////
AAXX 20184 71257 17/// /2708 10028 21034 60021 7//4/ 333 10058 21069 70028
AAXX 20184 71258 16/// /3005 10023 21065 60001 333 10067 21021 70000
AAXX 20184 71259 16/// /2305 11010 21037 60001 333 10034 21087 70000
AAXX 20184 71274 16/// /2710 10026 21030 60001 333 10038 21043 7////
AAXX 20184 71275 46/// /2614 10030 21030 6///1 333 10042 21043 7////
AAXX 20184 71278 16/// /3017 10061 21031 60001 333 10063 21041 70000
AAXX 20184 71286 16/// /2813 10043 21028 60001 333 10052 21020 70000
AAXX 20184 71287 16/// /2909 10040 21016 60001 333 10064 21008 70000
AAXX 20184 71289 16/// /2709 10026 21025 60001 333 10041 21063 70000
AAXX 20183 42071 31995 00000 10090 20082 40182 71000 333 58006
AAXX 20184 42027 21595 80000 10022 20013 38447 48535 70262 8472/ 333 58019 6004/
AAXX 20184 42101 31994 00000 10110 20081 40179 71000 333 59002
AAXX 20184 42111 31995 00000 10086 20038 39388 40186 70500 333 59001
AAXX 20184 42131 32996 00902 10120 20079 40175 333 59002
AAXX 20184 42165 31995 00501 10136 20066 40165 70500 333 58023
AAXX 20184 42182 31994 00000 10104 20096 40180 71000 333 59001
AAXX 20184 42189 31/93 90000 10094 20094 40177 74544 333 58///
AAXX 20184 42328 31995 00202 10124 20046 40170 70500 333 58014
AAXX 20184 42339 31995 03602 10170 20025 40158 70500 333 58006
AAXX 20184 42348 31995 00905 10154 20088 40163 70400 333 59003
AAXX 20184 42361 31994 00000 10092 20080 40175 70500 333 59005
AAXX 20184 42369 31992 09902 10098 20090 40186 74644 333 59004
AAXX 20184 42379 31595 80901 10104 20075 40172 70542 8652/ 333 59004 86625 88458
AAXX 20184 42452 32996 00902 10170 20094 40153 333 59013
AAXX 20184 42475 31/90 00000 10086 20082 40186 74544 89/// 333 59001
AAXX 20184 42071 NIL
AAXX 20184 42260 NIL
AAXX 20184 71462 46/// /2013 11009 21051 39961 6///1 333 7////
AAXX 20184 71464 46/// ///15 10004 39976 40192 58026 6///1 333 10027 21003 7////
AAXX 20184 71466 46/// ///// 10031 39953 40193 58036 6///1 333 10032 7////
AAXX 20184 71445 16/// /2411 11009 21040 39675 49949 58014 60001 333 11009 21099 70000 555 10010
AAXX 20184 71525 16/// /2809 10040 21010 60001 333 10047 21018 70000
AAXX 20184 71535 16/// /2615 10058 21031 60001 333 10063 20017 70000
AAXX 20184 71536 16/// /2514 10040 21025 60001 333 10054 20016 70000
AAXX 20184 71537 16/// /2503 10025 21007 60001 333 10037 21055 70000
AAXX 20184 71214 16/// /2911 10043 21031 60001 333 10056 21044 70000
AAXX 20184 71223 46/// /2811 10033 21042 6///1 333 7////
AAXX 20184 71225 16/// /2617 10049 21023 60001 333 10055 21011 70000
AAXX 20184 71227 46/// /2919 10054 21030 6///1 333 10055 21058 7////
AAXX 20184 71345 16/// /2721 10059 21026 60001 333 10061 20001 70000
AAXX 20184 71916 46/// /3302 11357 21391 30046 40105 51012 6///1 333 11323 21409 7////
AAXX 20184 71683 46/// /0000 11259 39964 40079 51014 6///1 333 11259 21290 7////
AAXX 20181 10980 11/01 92916 11069 21072 38046 48404 51017 60052 77174 333 11069 21119 3/111 48040 55300 20000 30000 91121 91217 96049 96471 96449
BBXX A8JX9 20183 99506 11583 41/// /0222 11025 21025 40013 52031 700// 8//// 22254 2//// 3//// 4//// 5//// 81025
BBXX C6SI4 20184 99541 11734 43/// /0313 11010 21040 49960 58020 7//// 8//// 22213 0//// 20401 3//// 40502 5//// 6//// 81020 ICE 0/0//
BBXX DDZC2 20184 99346 11772 41/97 83431 10150 20133 40120 52020 76286 8//// 22264 00180 2//10 3//// 4//// 5//// 80140
BBXX DGTX 20183 99330 11649 41/98 /1209 10170 20086 40145 56005 70282 8//// 22264 00230 2//// 80123
BBXX SBLI 20181 99300 11715 43/98 01803 10207 40160 55009 22264 00216 2//// 4////
BBXX SHIP 20184 99324 11505 41/96 63422 10130 20116 40172 51014 70301 8//// 91750 22264 00200 2//// 3//// 4//// 5//// 80110
BBXX SHIP 20184 99509 11643 41597 40117 10000 21049 40995 51009 70322 84/// 91800 22214 00020 2//// 3//// 4//// 80000
BBXX SHIP 20184 99368 11654 41698 32415 10140 20060 40130 58020 70404 80404 22229 01042 20016 30401 40001 50400 62010 87100 ICE 08080
BBXX SMGW 20181 99350 11636 43/98 62008 10146 40139 55001 22224 00209 2//// 4////
AAXX 20181 51711 11940 80901 11078 21092 38107 57006 60021 77077 8802/ 333 00801 11070
AAXX 20181 51730 32970 70701 11060 21100 40436 54000 80002 333 01001 11018
AAXX 20181 52112 32980 03202 11123 21185 40496 52006 333 00551 11034
AAXX 20181 52737 32980 70000 11097 21240 37066 57001 80002 333 05203 10007
AAXX 20181 52787 11970 20210 11133 21146 37047 52008 69901 70070 80002 333 00252 11018 91118 91532
AAXX 20181 53352 32980 02501 11150 21220 40392 52006 333 11060
AAXX 20181 53593 32960 02903 11062 21165 40320 52002 333 11005
AAXX 20181 53705 32965 52902 11056 21130 40408 52014 80002 333 00502 11005
AAXX 20181 53863 31958 02001 11033 21063 40334 52013 71000 333 10035
AAXX 20181 53975 32960 70000 11025 21061 40319 52013 80002 333 10045
AAXX 20181 54273 11970 70000 11241 21273 40270 57008 69901 77070 80002 333 11106
AAXX 20181 54324 32970 01801 11120 21199 40255 57002 333 11001
AAXX 20181 54405 32980 03207 11045 21199 40304 52004 333 10004
AAXX 20181 54436 32980 00402 11093 21165 40278 57001 333 10039
AAXX 20181 54808 31958 00000 11038 21052 40295 52002 71000 333 10022
AAXX 20181 54826 32960 23602 11049 21177 38496 52002 80002 333 11020
AAXX 20181 54836 32960 00000 11025 21053 40292 52001 333 10048
AAXX 20181 54863 31940 82201 10003 21049 40273 57003 71000 8802/ 333 10063
AAXX 20181 56018 32980 00000 11119 21256 36144 52001 333 05502 10061
AAXX 20181 56021 32980 02501 11141 21276 36036 57003 333 05403 10030
AAXX 20181 57071 31905 73601 11006 21028 40306 52002 74644 80002 333 10054
AAXX 20184 84143 32670 41816 10176 20123 37398 84200 333 59005 555 30071
AAXX 20184 84036 31568 80904 10140 20119 71542 8661/ 555 30087
AAXX 20184 84202 31570 80902 10278 20221 30133 70544 8681/ 333 58000 555 30071
AAXX 20184 84270 31550 73604 10184 20126 71622 87700 555 30069
AAXX 20184 84135 32675 73602 10302 20217 30046 85210 333 59004 555 30059
AAXX 20184 84179 11570 80000 10232 20197 39055 60011 72056 8681/ 333 58004 555 10012 30081
AAXX 20184 84076 31565 63204 10202 20141 71544 86400 555 30068
AAXX 20184 84056 31270 72704 10160 20078 70544 87800 555 30058
AAXX 20184 84204 31675 50504 10298 20223 70544 81159 555 30064
AAXX 20184 84160 31456 71408 10154 20099 37262 74044 85830 333 58002 555 30070
AAXX 20184 84140 32580 73604 10291 20207 30003 40088 87800 333 59004 555 30061
AAXX 20184 84226 11560 70000 10132 20132 69921 74044 87400 555 10002 30100
AAXX 20184 84088 32680 50903 10166 20096 37055 85200 333 59008 555 30063
AAXX 20184 84050 31570 80904 10265 20213 70544 8611/ 555 30073
AAXX 20184 84132 11575 70906 10270 20240 39887 60071 72164 85270 333 58012 555 10067 30084
AAXX 20184 84072 31570 71402 10198 20135 37284 70544 84330 333 59015 555 30067
AAXX 20184 84008 32680 31412 10280 20198 30105 40115 83800 00214 333 59012 555 30061
AAXX 20184 84105 31562 70402 10278 20216 39999 70542 85210 333 58000 555 30069
AAXX 20184 84045 31450 60904 10133 20128 71544 86300 555 30097
AAXX 20184 84001 31565 21414 10273 20199 30092 40112 70544 82100 333 59009
AAXX 20184 84010 31980 21512 10269 20201 70142 82030
AAXX 20184 84018 11665 62912 10282 20232 30087 40094 69901 70564 83239 333 59014 555 1 T
AAXX 20184 84027 11565 71006 10142 20113 37164 47135 69951 72052 87200 333 59001 555 10005
AAXX 20184 84063 11505 71605 10250 20229 39753 40086 60071 78122 84230 333 58002 555 10070
AAXX 20184 84069 11560 82402 10240 20210 69901 70254 8621/ 555 1 T
AAXX 20184 84071 32662 81603 10191 20087 37266 47117 8517/ 333 59013
AAXX 20184 84099 11560 80000 10250 20235 3//// 40105 60101 71682 8421/ 333 5//// 555 10098
AAXX 20184 84101 31462 72710 10263 20226 30087 40101 70544 85230 333 59005
AAXX 20184 84117 31560 62911 10280 20220 30074 40097 70544 83230 333 59011
AAXX 20184 84123 31565 61816 10160 20114 37285 47122 70142 85230 333 59008
AAXX 20184 84147 11560 61805 10165 20124 69951 70254 84230 555 10005
AAXX 20184 84163 11570 72203 10227 20189 38952 48504 60031 71565 83270 333 58006 555 10032
AAXX 20184 84176 11570 50618 10177 20118 69971 70165 85200 555 10007
AAXX 20184 84200 31465 42709 10245 20203 70544 81130
AAXX 20184 84203 31460 50303 10300 20191 30081 40086 70544 82130 333 59003
AAXX 20184 84217 11580 70608 10234 20194 60101 70182 84830 555 11104
AAXX 20184 84239 31680 60705 10194 20124 37529 47140 70142 86230 333 58002
AAXX 20184 84252 31965 63206 10282 20214 30088 40096 70544 86030 333 59005
AAXX 20184 84265 11680 60000 10248 20176 38747 4//// 69921 70262 86200 333 59003 555 10002
AAXX 20181 47008 42570 43202 11064 21076 30191 40247 57006 84500
AAXX 20181 47014 42950 40000 11190 21202 39846 40285 58002 84040
AAXX 20181 47016 42970 00000 11194 21220 39381 40288 58006
AAXX 20181 47020 42965 00000 11142 21155 39890 40298 58002
AAXX 20181 47025 42960 03401 11057 21071 30215 40245 57008
AAXX 20181 47035 42970 00000 11054 21098 30244 40253 57009
AAXX 20181 47041 42970 00000 11077 21108 30225 40254 58005
AAXX 20181 47055 42965 02301 11020 21074 30211 40258 57006
AAXX 20181 47058 11560 81401 11029 21049 30215 40264 57013 69901 70272 885//
AAXX 20181 47069 42565 62701 10014 21015 30156 40258 57007 86500
AAXX 20181 47090 32970 20000 10019 21088 30220 40243 57010 80001 333 92020
AAXX 20181 47095 32560 80000 11059 21084 30066 40265 57013 8552/
AAXX 20181 47097 329// /0001 11024 21062 30169 40269 57006
AAXX 20181 47098 329// /0000 11021 21068 30116 40255 57011
AAXX 20181 47099 329// /3601 11019 21070 30219 40257 57013
AAXX 20181 47100 32962 32707 11056 21095 39311 40266 58006 80001
AAXX 20181 47102 32665 82908 10036 21025 30069 40249 56006 8552/
AAXX 20181 47104 32970 21603 11022 21098 30149 40250 58003 80001
AAXX 20181 47106 329// /2001 10007 21088 30201 40252 54000
AAXX 20181 47112 32660 81608 10018 21030 30167 40253 57012 8552/ 333 92012
AAXX 20181 47114 32662 70205 11035 21095 30078 40269 57006 85502
AAXX 20181 47119 32658 81405 10007 21018 30218 40261 57009 8552/
AAXX 20181 47121 329// /0000 11057 21089 39970 40279 57004
AAXX 20181 47127 329// /1101 11018 21069 30126 40273 55005
AAXX 20181 47129 31658 83602 10000 21016 30224 40261 57014 71022 8552/
AAXX 20181 47130 32968 62305 10013 21087 30190 40253 55004 80002 333 92022
AAXX 20181 47131 41660 82701 10001 21057 30192 40265 57010 77072 8452/
AAXX 20181 47135 329// /0201 11028 21062 39959 40270 57011
AAXX 20181 47136 32970 60000 11033 21091 30092 40272 55003 80002
AAXX 20181 47137 329// /0502 11021 21078 30145 40268 56008
AAXX 20181 47140 32962 61104 10007 21039 30233 40263 57011 80001 333 92011
AAXX 20181 47143 32965 70502 10005 21090 30193 40275 57010 80002
AAXX 20181 47145 32662 81105 10009 21069 30228 40255 57009 8452/
AAXX 20181 47146 32668 81604 10014 21076 30196 40264 57013 8552/
AAXX 20181 47150 41658 80703 10018 21034 30240 40260 55007 77072 8452/
AAXX 20181 47152 32970 60000 10021 21086 30215 40259 57007 80002
AAXX 20181 47154 329// /0001 11020 21071 30206 40269 57009
AAXX 20181 47155 32967 50901 10031 21089 30217 40264 57006 80001
AAXX 20181 47156 32970 50000 10010 21031 30178 40270 57009 80001
AAXX 20181 47157 32970 63402 11032 21084 39980 40262 57009 80001
AAXX 20181 47162 32970 50702 10020 21070 30222 40263 55004 80001 333 92021
AAXX 20181 47169 32665 61805 10064 20026 30166 40261 57007 82502 333 92022
AAXX 20181 47170 32962 22001 10018 21036 30222 40267 58005 80001 333 92021
AAXX 20181 47171 329// /0000 10007 21043 30207 40264 57013
AAXX 20181 47172 329// /0001 10010 21027 30190 40259 57011
AAXX 20181 47173 329// /3602 11027 21047 30156 40272 57010
AAXX 20181 47174 32962 60000 11018 21053 30057 40267 57007 80001
AAXX 20181 47175 32963 53408 10016 21014 39679 40264 57010 80001 333 92023
AAXX 20181 47185 32661 60214 10082 20004 30163 40254 57013 82501 333 92034
AAXX 20181 47188 32661 60503 10065 20003 30236 40258 57006 85500 333 92022
AAXX 20181 47189 32668 53603 10085 20037 30190 40250 58004 82501 333 92022
AAXX 20181 47192 32968 50000 11021 21064 30229 40268 57008 80001
AAXX 20181 47101 31563 80901 11046 21078 30170 40271 57008 72272 8552/
AAXX 20181 47105 369// /2704 10012 21086 30217 40250 57004
AAXX 20181 47108 32660 81404 10015 21054 30149 40257 57010 8552/
AAXX 20181 47115 32670 72904 10028 21061 39963 40240 57010 84502 333 92032
AAXX 20181 47133 31662 82902 10003 21055 30179 40267 57009 77072 8452/
AAXX 20181 47138 32970 62303 10027 21105 30256 40259 57008 80002 333 92022
AAXX 20181 47159 32970 60503 10031 21132 30173 40260 55006 80002 333 92022
AAXX 20181 47165 32962 41604 10016 21027 30217 40265 57007 80001 333 92022
AAXX 20181 47168 32970 50703 10035 21102 30179 40260 57008 80001 333 92022
AAXX 20181 47184 31658 61804 10058 20000 30238 40264 57007 70521 81501 333 92022
AAXX 20180 44266 329// 00503 11208 21265 37882 40568 54000
AAXX 20180 44325 329// 00000 11197 21238 38982 40503 52002
AAXX 20181 47003 11980 00000 11079 21093 30246 40250 57008 69901 70272
AAXX 20181 47005 42980 00000 11173 21192 38590 57004
AAXX 20181 47022 42975 00000 11202 21221 38840 54000
AAXX 20181 47028 42662 71801 11079 21110 30158 40258 57008 87500
AAXX 20181 47031 42970 00000 11186 21205 38937 58006
AAXX 20181 47037 42970 03602 11094 21106 30136 40266 58012
AAXX 20181 47039 42960 00000 11112 21140 30079 40283 57008
AAXX 20181 47046 42969 22301 11062 21089 30214 40238 57011 80002
AAXX 20181 47050 42965 00501 11066 21098 30223 40259 57012
AAXX 20181 47052 11560 80000 11051 21080 39914 40267 57011 69901 77072 8802/
AAXX 20181 47060 11558 80903 11022 21031 30199 40259 57008 60021 71072 885//
AAXX 20181 47061 42980 00000 10011 21061 30213 40258 54000
AAXX 20181 47065 11550 80000 11012 21025 30197 40264 57005 69921 77077 885//
AAXX 20181 47067 41960 80000 11050 21078 30160 40295 57002 71022 8801/
AAXX 20181 47068 11560 60904 11006 21030 30216 40252 57006 69901 77072 86500
AAXX 20181 47070 42570 80000 11018 21040 30176 40266 58018 885//
AAXX 20181 47075 42580 80000 11062 21081 39753 40199 57010 885//
AAXX 20184 68513 36/// /1417 10179 20140 39998 40110 53003 333 10241 20179 91024 555 91011
AAXX 20184 68514 36/// ///// 1//// 2//// 3//// 4//// 5//// 333 1//// 2//// 555
AAXX 20184 68523 36/// /2213 10294 21026 39057 48491 52013 333 10380 20294 91020 555 91011
AAXX 20184 68527 36/// /2506 10344 20001 39008 48476 52008 333 10392 20344 91008 555 91009
AAXX 20184 68572 16/// /2507 10158 20090 38442 48551 52015 60022 333 10273 20142 91011 555 20022 91024
AAXX 20184 68575 16/// /3604 10207 20139 39084 48513 52007 69942 333 10239 20205 91008 555 20004 91016
AAXX 20184 68581 36/// /0903 10211 20192 39366 48519 52021 333 10268 20210 91005 555 91014
AAXX 20184 68583 36/// /0000 10244 20205 30020 40128 53012 333 10281 20242 91002 555 91013
AAXX 20184 68589 NIL
AAXX 20184 68613 36/// /2213 10167 20134 30002 40118 55000 333 10237 20163 91023 555 91011
AAXX 20184 68647 NIL
AAXX 20184 68651 16/// /0404 10179 20113 38566 48528 52020 60142 333 10245 20166 91007 555 20142 69925 91021
AAXX 20184 68715 36/// /1906 10194 20143 39985 40111 52007 333 10319 20194 91013 555 91011
AAXX 20184 68717 36/// /1603 10224 20127 39958 40099 52011 333 10327 20224 91007 555 91010
AAXX 20184 68723 36/// /1909 10256 20104 39337 48488 52022 333 10370 20256 91017 555 91009
AAXX 20184 68737 12770 60507 10251 20107 39189 48480 57010 60032 86500 333 10321 20217 91014 555 20036 91010
AAXX 20184 68744 16/// /1402 10257 20089 39052 48481 51004 69922 333 10355 20217 91009 555 20002 91011
AAXX 20184 68747 36/// /1506 10230 20173 39567 48497 53002 333 10313 20230 91009 555 91010
AAXX 20184 68754 36/// /3310 10220 20124 39095 48491 57002 333 10267 20194 91018 555 91013
AAXX 20184 68817 NIL
AAXX 20184 68821 36/// /1512 10226 20135 39854 40088 52021 333 10332 20226 91017 555 91009
AAXX 20184 68835 NIL
AAXX 20184 68843 36/// /0912 10202 20163 39993 40091 56002 333 10240 20200 91017 555 91009
AAXX 20184 68849 36/// /1106 10190 20162 39365 48481 55000 333 10249 20190 91008 555 91011
AAXX 20184 68912 36/// /1511 10162 20127 30119 40128 52003 333 10189 20162 91015 555 91012
AAXX 20184 68918 36/// /1811 10195 20154 30110 40128 52007 333 10235 20195 91017 555 91012
AAXX 20184 68921 36/// /1806 10206 20164 30121 40124 52010 333 10241 20206 91009 555 91012
AAXX 20184 68925 36/// /1402 10177 20136 39761 40123 52005 333 10261 20175 91006 555 91012
AAXX 20184 68926 32970 02005 10213 20157 39936 40112 52018 333 10311 20213 91008 555 91011
AAXX 20184 68935 NIL
AAXX 20184 68589 NIL
AAXX 20184 68647 NIL
AAXX 20184 68817 NIL
AAXX 20184 68835 NIL
AAXX 20184 68935 NIL
AAXX 20181 50548 32980 60000 11221 21252 40193 57006 80002 333 11138
AAXX 20181 50564 32970 32003 11191 21207 40191 57012 80002 333 11128
AAXX 20181 51334 11770 80201 11131 21151 40543 57012 69901 77077 885// 333 00554 11090
AAXX 20181 51818 11865 72701 11084 21097 40439 57003 69921 70070 875// 333 00953 11039
AAXX 20181 52378 32980 02204 11122 21200 40453 52004 333 00504 11040
AAXX 20181 53487 32963 03404 11140 21188 40351 52003 333 11017
AAXX 20181 53502 32980 02706 11093 21180 40419 52006 333 00405 11017
AAXX 20181 53923 11980 83204 11021 21052 40351 52014 69901 77077 8802/ 333 11007
AAXX 20181 54049 32970 02202 11125 21225 40221 57003 333 11059
AAXX 20181 54115 32980 02505 11109 21203 40258 57007 333 11058
AAXX 20181 54157 32962 02202 11082 21125 40235 57003 333 11053
AAXX 20181 54186 32970 02201 11215 21243 40260 57009 333 11075
AAXX 20181 54311 32980 03204 11121 21191 40293 52001 333 11052
AAXX 20181 54346 32965 01102 11091 21137 40252 57003 333 11007
AAXX 20181 54377 32965 60203 11128 21155 40277 57006 80002 333 11019
AAXX 20181 54386 32970 00202 11210 21240 40293 57001 333 11073
AAXX 20181 54493 32966 70000 11096 21126 40262 57010 80002 333 11007
AAXX 20181 54587 NIL
AAXX 20181 54715 31/00 92201 11075 21087 40292 57002 74900 333 10028
AAXX 20181 54929 31930 52001 11021 21034 40289 52002 71000 80002 333 10062
AAXX 20181 54945 32960 02902 10013 21014 40281 57003 333 10071
AAXX 20181 56065 32980 30000 11131 21174 36608 52001 80002 333 05152 10026
AAXX 20181 57193 32960 03601 10005 21029 40301 52004 333 10056
AAXX 20181 57290 32960 83601 10024 21025 40296 52005 8807/ 333 10065
AAXX 20181 37107 32970 70302 10092 21007 39490 40157 58010 82540 333 10130
BBXX 46206 20181 99488 71260 46/// /3109 10088 40273 52005 22200 00091 11410 70048 333 91212
AAXX 20184 68174 31670 20509 10225 20128 38789 48516 53007 70500 81501 333 10284 20225 91012 555 91018
AAXX 20184 68191 36/// /1003 10261 20134 39630 48544 53005 333 10319 20260 91005 555 91013
AAXX 20184 68242 32880 30913 10237 20112 38697 48480 53007 83070 333 10343 20234 91018 555 91014
AAXX 20184 68262 36/// /0802 10274 20095 38688 48501 53003 333 10311 20274 91004 555 91016
AAXX 20184 68263 32880 20404 10241 20102 38476 48501 53003 81072 333 10286 20241 91005 555 91018
AAXX 20184 68267 32870 20615 10192 20118 38249 48518 52011 81031 333 10284 20192 91022 555 91022
AAXX 20184 68289 36/// /0203 10235 20132 39156 48535 53011 333 10280 20235 91005 555 91017
AAXX 20184 68350 36/// /3104 10256 20070 38661 48515 55000 333 10347 20255 91007 555 91018
AAXX 20184 68368 42980 30505 10233 20110 38319 48509 53008 80002 333 10274 555 91021
AAXX 20184 68403 36/// /2207 10182 20153 30103 40136 53012 333 10229 20182 91017 555 91013
AAXX 20184 68424 32782 42706 10344 20001 39127 48482 53001 84400 333 10422 20339 91008 555 91008
AAXX 20184 68438 32882 50909 10260 20087 38785 48486 56002 83082 333 10345 20256 91014 555 91014
AAXX 20184 68442 12680 40909 10178 20131 38653 48505 50000 60012 84560 333 10326 20176 91015 555 20012 91018
AAXX 20184 68461 12580 71013 10164 20124 38351 48537 52032 69942 8657/ 333 10294 20164 91023 555 20004 69925 91023
AAXX 20184 68512 32882 12310 10186 20086 38986 48484 53002 81080 333 10294 20186 91015 555 91013
AAXX 20184 68538 11764 60411 10240 20148 38682 48470 56005 60032 71322 81960 333 10300 20218 91017 555 20036 91013
AAXX 20184 68587 NIL
AAXX 20184 68588 36/// /3505 10247 20191 30123 40139 52015 333 10298 20243 91009 555 91013
AAXX 20184 68591 NIL
AAXX 20184 68592 NIL
AAXX 20184 68618 32980 02512 10250 20000 39015 48494 53006 333 10347 20250 91015 555 91013
AAXX 20184 68633 36/// /1612 10217 20109 38492 48486 56001 333 10309 20217 91017 555 91016
AAXX 20184 68668 12570 82110 10205 20169 39284 48514 53001 69922 885// 333 10223 20204 91014 555 20002 91015
AAXX 20184 68714 36/// /1918 10182 20129 30076 40112 52007 333 10269 20182 91025 555 91011
AAXX 20184 68727 36/// /2006 10311 20018 39059 48471 52011 333 10348 20311 91007 555 91008
AAXX 20184 68752 36/// /0908 10194 20172 39419 48481 52001 333 10233 20194 91012 555 91010
AAXX 20184 68816 32680 41819 10188 20147 30068 40122 51006 84500 333 10249 20131 91025 555 91012
AAXX 20184 68828 42470 31404 10184 20171 39880 40111 51016 83500 333 10237 555 91011
AAXX 20184 68842 32980 00912 10203 20163 30027 40096 53006 333 10230 555 91009
AAXX 20184 68858 12680 50612 10206 20181 39939 40093 58002 69902 82282 333 10246 555 91009
AAXX 20184 68906 32698 62413 10118 20061 30079 40144 57003 86500 222// 00122 318// 40501 333 10140 20118 91020 555 91014
AAXX 20184 68994 32498 83313 10099 20089 30070 40099 52003 886// 222// 00074 333 10130 20090 91023 555 91009
AAXX 20184 89004 31770 81014 11056 21065 38809 49809 58006 73622 8802/ 333 11052 21061 91016 555
AAXX 20184 60672 36/// /3004 10136 21124 333 10178
AAXX 20184 42559 32996 01102 10150 20069 40158 333 59006
AAXX 20184 42571 32996 00000 10112 20088 40172 333 59007
AAXX 20184 42667 31996 00000 10158 20083 39560 40163 70500 333 59006
AAXX 20184 42675 31996 00000 10104 20061 40178 70500 333 59006
AAXX 20184 42754 31996 01104 10174 20076 39506 40152 70500 333 59008
AAXX 20184 42779 32996 00000 10124 20024 39455 40177 333 59006
AAXX 20184 42867 31995 03602 10156 20107 40157 70500 333 59005
AAXX 20184 42874 32996 00000 10164 20086 40155 333 59002
AAXX 20184 42933 32996 00000 10172 20113 40149 333 59007
AAXX 20184 43041 32996 00000 10140 20092 39529 40166 333 59004
BBXX 46206 20181 99488 71260 46/// /3109 10088 40273 52005 22200 00091 11410 70048 333 91212
AAXX 20184 60650 36/// /0612 10143 21024 333 10167
AAXX 20184 60661 36/// /0107 10128 21039 333 10177
AAXX 20184 60679 36/// /2310 10046 21153 333 10096
AAXX 20184 68587 NIL
AAXX 20184 68591 NIL
AAXX 20184 68592 NIL
AAXX 20181 50658 31940 03601 11239 21251 40204 57007 70400 333 11150
AAXX 20181 50888 32980 01803 11135 21176 40234 57005 333 11082
AAXX 20181 50983 32970 00000 11184 21219 40254 57008 333 11099
AAXX 20181 51053 32975 00903 11244 21279 40599 57007 333 00400 11196
AAXX 20181 51542 11680 30202 11222 21246 37647 52002 69911 70070 82502 333 00753 11131
AAXX 20181 52436 32980 01102 11154 21184 38588 40458 57007 333 00852 11073
AAXX 20181 52908 32980 22503 11186 21330 35720 57003 80002 333 05352 11022
AAXX 20181 52996 11962 80206 11119 21125 37610 52008 69901 77000 8807/ 333 00354 11050
AAXX 20181 53083 32980 72203 11204 21228 40364 52004 80002 333 05410 11201
AAXX 20181 53764 32965 03202 11058 21089 40357 52018 333 10015
AAXX 20181 53787 32965 32701 11073 21108 40317 52007 80002 333 10025
AAXX 20181 54096 32970 03203 11167 21193 40247 57009 333 11090
AAXX 20181 54226 32980 02504 11069 21208 40243 57005 333 11013
AAXX 20181 54259 32962 02201 11153 21184 40260 57005 333 11038
AAXX 20181 54527 32960 02901 11036 21109 40283 52001 333 10040
AAXX 20181 54534 32965 02502 11098 21137 40276 52001 333 10033
AAXX 20181 28645 32597 42303 11057 21140 30164 40476 57006 84500 333 11050
BBXX 46132 20181 99497 71279 46/// /3006 10085 40289 52011 22200 00089 11513 70066 333 91209
BBXX 46205 20181 99542 71343 46/// /2808 10062 40251 52028 22200 00077 11410 70050 333 91210
BBXX 46132 20181 99497 71279 46/// /3006 10085 40289 52011 22200 00089 11513 70066 333 91209
BBXX 46205 20181 99542 71343 46/// /2808 10062 40251 52028 22200 00077 11410 70050 333 91210
BBXX S6OM 20184 99154 11196 41997 03305 10280 20266 40124 56010 7//// 80000 22243 00282 20302 302// 40602 5//// 80270
AAXX 20184 89020 46/// /2808 11021 21049 39785 49820 57009 91740
BBXX PJKV 20183 99307 70382 41298 61824 10220 20185 40168 58026 76022 8/7// 22254 20604 311// 41003 5//// 80198
BBXX ZCDG4 20184 99215 70764 41598 52331 10238 20175 40191 57017 70122 82568 22234 00290 20203 309// 40605 5////
BBXX ZCDF4 20183 99337 71182 41598 30000 10168 20109 40184 51008 70200 821// 22200 00150 20000 300// 40000 5//// 80136
BBXX VREX7 20183 99229 70950 41298 31417 10260 20231 40130 55010 70000 83141 22264 04240 20101 31210 40302 50302 80240
BBXX ZDLS1 20183 99599 30044 41396 81921 11007 21020 49734 52030 70222 885// 22243 05019 20101 82011 ICE 66092
BBXX AMOUK15 20184 99113 50109 46/// ///// 10227 20176 30122 40149 57007 91750
BBXX DGUG2 20184 99288 70195 41998 00832 10195 20147 40225 56010 70100 80000 22254 04220 20804 307// 41008 80165
BBXX A8AX3 20183 99221 70182 41998 20416 10215 40179 58001 70100 80005 22244 20602
BBXX A8CJ2 20184 99008 70808 41698 62510 10265 20237 40115 56005 70222 84364 22284 04254 20501 399// 41003 5//// 80245
BBXX ZDLP 20183 99577 50409 41/94 93419 10010 20005 40015 57007 74144 89/// 22283 04014 20101 335// 40502 5//// 80008
BBXX AMOUK20 20184 99229 50431 46/// ///// 10297 20219 30093 40108 57023 91750
BBXX 62141 20183 99493 50591 41697 83225 10125 20116 40002 56005 70322 8/7// 22200 20603 334// 40602 5//// 80120
BBXX VQKZ6 20183 99076 50810 41498 41510 10215 20191 40113 50010 70111 81179 22244 02172 20402 313// 40504 5//// 80200
BBXX SHIP 20181 99112 50780 41998 21904 10230 20177 40120 56010 70100 80009 22274 20201 30000 80195
BBXX 44062 20181 99386 70764 46/// /1702 1//// 91820 22200 00086 333 91203
BBXX 44062 20181 99386 70764 46/// /1702 1//// 40191 91810 22200 00086 333 91202
BBXX 44062 20181 99386 70764 46/// /1702 10088 40191 58012 91800 22200 00086 1//00 70001 333 91203
BBXX 44063 20181 99390 70764 46/// /0000 1//// 91820 333 91200
BBXX 44063 20181 99390 70764 46/// /0000 1//// 40217 91810 333 91200
BBXX 44063 20181 99390 70764 46/// /0000 10099 40215 57021 91800 22200 00079 1//00 70001 333 91200
BBXX 44041 20181 99372 70768 46/// /3402 1//// 91820 333 91202
BBXX 44041 20181 99372 70768 46/// /3402 1//// 40232 91810 333 91202
BBXX 44041 20181 99372 70768 46/// /3402 10109 40235 58015 91800 22200 00088 1//00 70000 333 91202
BBXX 44042 20181 99380 70763 46/// /0000 1//// 91820 333 91201
BBXX 44042 20181 99380 70763 46/// /1201 1//// 40211 91810 333 91201
BBXX 44042 20181 99380 70763 46/// /1201 10103 40210 58016 91800 22200 00093 1//00 70001 333 91201
BBXX 44043 20181 99392 70764 46/// /0202 1//// 91820 333 91203
BBXX 44043 20181 99392 70764 46/// /3602 1//// 40199 91810 333 91202
BBXX 44043 20181 99392 70764 46/// /3502 10101 40201 58014 91800 22200 00067 1//00 70001 333 91202
AAXX 20184 68155 36/// /3502 10278 20116 39173 48517 52010 333 10337 20278 91003 555 91014
AAXX 20184 68171 NIL
AAXX 20184 68176 36/// /0904 10232 20120 39130 48520 53006 333 10303 20232 91007 555 91016
AAXX 20184 68181 NIL
AAXX 20184 68182 36/// /3003 10221 20138 39331 48522 52005 333 10295 20217 91005 555 91015
AAXX 20184 68185 36/// /1004 10194 20138 38479 48411 58003 333 10286 20194 91008 555 91007
AAXX 20184 68253 NIL
AAXX 20184 68255 36/// /2202 10269 20127 38834 48490 53003 333 10333 20269 91003 555 91014
AAXX 20184 68271 36/// /0103 10258 20131 38901 48513 53008 333 10313 20258 91008 555 91016
AAXX 20184 68273 36/// /3205 10237 20122 38453 48506 53007 333 10300 20237 91009 555 91019
AAXX 20184 68287 36/// /0000 10164 20131 38589 48524 53006 333 10242 20163 91002 555 91020
AAXX 20184 68291 NIL
AAXX 20184 68297 NIL
AAXX 20184 68329 36/// /3102 10325 20009 39040 48494 52007 333 10412 20325 91005 555 91011
AAXX 20184 68331 36/// /2905 10304 20012 38815 48511 53001 333 10373 20304 91006 555 91016
AAXX 20184 68335 36/// /0609 10252 20136 38902 48517 53013 333 10364 20252 91019 555 91017
AAXX 20184 68341 16/// /0806 10211 20121 38523 48508 52007 69982 333 10315 20196 91013 555 20008 91019
AAXX 20184 68342 NIL
AAXX 20184 68343 16/// ///// 10198 20157 38775 48499 56002 60052 333 10346 20198 555 20050 91016
AAXX 20184 68349 36/// /2007 10252 20080 38500 48493 52007 333 10311 20229 91014 555 91017
AAXX 20184 68353 36/// /3304 10236 20130 38506 48485 53005 333 10303 20236 91005 555 91016
AAXX 20184 68355 16/// /0911 10189 20152 38596 48530 53028 60012 333 10330 20187 91018 555 20018 69965 91021
AAXX 20184 68370 32470 70000 10235 20169 38370 48516 52017 875// 333 10213 2//// 555 91021
AAXX 20184 68377 36/// /1110 10251 20147 38755 48500 53022 333 10323 20251 91014 555 91016
AAXX 20184 68380 36/// /2606 10184 20115 3//// 4//// 5//// 333 10286 20184 91013 555
AAXX 20184 68387 36/// /0504 10240 20148 38857 48522 53011 333 10286 20239 91012 555 91018
AAXX 20184 68411 36/// /1708 10286 20080 39881 40081 53011 333 10386 20286 91013 555 91009
AAXX 20184 68429 36/// /0902 10283 20098 38648 48473 53005 333 10361 20283 91004 555 91013
AAXX 20184 68449 16/// /1407 10175 20140 38403 48516 52003 60172 333 10302 20161 91011 555 20176 91020
AAXX 20184 68471 16/// /2704 10155 20135 38364 48544 53035 60102 333 10264 20152 91006 555 20100 60465 91024
AAXX 20184 68474 NIL
AAXX 20184 68479 NIL
AAXX 20184 68481 36/// /0304 10245 20166 39767 40130 52018 333 10320 20245 91007 555 91014
AAXX 20184 68487 NIL
AAXX 20184 68491 36/// /0306 10246 20201 30122 40131 52012 333 10303 20246 91011 555 91013
AAXX 20184 68497 NIL
AAXX 20184 83270 32798 50000 10307 20223 39630 40109 81038 333 59009
AAXX 20184 83309 31595 40000 10316 20255 39788 40106 70511 843// 333 58028
AAXX 20184 83319 32697 60000 10300 20230 39762 40132 83204 333 58013
AAXX 20184 83405 32597 5//// 10370 20261 39932 40065 85200 333 58002
AAXX 20184 68183 32975 03504 10240 20145 39429 48529 53002 333 10293 20240 91006 555 91014
AAXX 20184 68188 36/// /0000 10200 20165 39196 48522 53005 333 10286 20200 91002 555 91016
AAXX 20184 68268 36/// /0506 10273 20138 38866 48515 52011 333 10357 20273 91008 555 91016
AAXX 20184 68272 36/// /0302 10245 20147 39053 48507 53006 333 10338 20245 91003 555 91014
AAXX 20184 68296 36/// /1203 1//// 2//// 38915 4//// 52002 333 1//// 20589 91006 555
AAXX 20184 68322 12982 03304 10302 20028 39087 48480 52006 69962 333 10420 20302 91005 555 20006 91009
AAXX 20184 68338 32580 60807 10218 20138 38749 48484 52026 86200 333 10354 20218 91013 555 91014
AAXX 20184 68345 NIL
AAXX 20184 68362 11680 71510 10187 20136 38508 48511 52028 69922 71311 84370 333 10321 20187 91024 555 20002 91019
AAXX 20184 68400 32965 00706 10250 20168 30055 40127 52015 333 10360 20250 91011 555 91013
AAXX 20184 68408 32280 81605 10157 20137 30113 40121 52007 886// 333 10198 20157 91009 555 91012
AAXX 20184 68416 32684 42015 10312 20018 38983 48478 52008 84200 333 10370 20312 91020 555 91010
AAXX 20184 68478 NIL
AAXX 20184 68488 NIL
AAXX 20184 68494 NIL
AAXX 20184 68524 32986 31806 10306 20047 38998 48472 52013 83070 333 10392 20305 91012 555 91009
AAXX 20184 68546 NIL
AAXX 20184 68558 16/// /1005 10166 20100 38201 48515 52008 60042 333 10270 20129 91009 555 20044 91021
AAXX 20184 68570 NIL
AAXX 20184 68580 31950 80202 10194 20177 38949 48514 52006 70522 8806/ 333 10247 20193 91005 555 91017
AAXX 20184 68614 32980 02307 10201 20134 30058 40099 52010 333 10320 20201 91016 555 91009
AAXX 20184 68624 32882 12407 10281 21060 38703 48482 52010 81200 333 10356 20281 91028 555 91014
AAXX 20184 68674 36/// /0402 10222 20192 30082 48537 57010 333 10284 20222 91004 555 91011
AAXX 20184 68712 32400 11817 10148 20125 30042 40107 53003 81500 333 10201 20148 91021 555 91010
AAXX 20184 68718 36/// /1205 10214 20131 39871 40113 52021 333 10349 20214 91011 555 91012
AAXX 20184 68722 36/// /2306 10225 21071 38522 48480 52007 333 10305 20225 91015 555 91015
AAXX 20184 68814 36/// /2018 1//// 2//// 30114 4//// 53002 333 1//// 2//// 91022 555 91012
AAXX 20184 68832 32970 01307 10242 20133 39142 48480 52025 333 10345 20242 91013 555 91010
AAXX 20184 68916 36/// /3505 10169 20130 39866 40134 52006 333 10222 20169 91011 555 91013
AAXX 20184 68920 32470 61606 10203 20160 30115 40127 52007 86500 333 10234 20202 91008 555 91012
AAXX 20184 68928 36/// /1204 10202 20178 39956 40114 52011 333 10237 20201 91006 555 91011
AAXX 20181 30499 41997 80000 11227 21239 39517 40223 52003 77172 8802/
AAXX 20181 30683 419// 80000 11217 21235 39506 40200 53012 77172 8802/
AAXX 20181 30695 NIL
AAXX 20181 31253 41997 80000 11261 21292 39732 40233 58008 77172 8802/
AAXX 20181 31295 41996 80502 11217 21229 39709 40198 57009 77172 8801/
AAXX 20181 31348 42999 00000 11358 21368 30042 40245 52002
AAXX 20181 31418 42984 03201 11287 21312 39958 40241 52005
AAXX 20181 31439 42999 00000 11276 21293 30183 40233 52006
AAXX 20181 31442 42997 80000 11249 21274 39807 40192 57011 80001
AAXX 20181 31445 42984 00000 11292 21322 39913 40193 57012
AAXX 20181 31474 42998 20201 11354 21390 39744 40294 57001 80002
AAXX 20181 31521 32975 81202 11236 21255 39887 40203 57012 80007
AAXX 20181 31527 42998 11602 11212 21231 39876 40201 57008 80001
AAXX 20181 31534 NIL
AAXX 20181 31587 NIL
AAXX 20181 31632 NIL
AAXX 20181 31702 42998 50101 11245 21277 39875 40242 58006 80001
AAXX 20181 31713 42999 03601 11265 21277 30135 40243 54000
AAXX 20181 31725 42998 00000 11247 21259 30170 40244 58002
AAXX 20181 31801 42998 01601 11309 21326 30031 40289 54000
AAXX 20181 30455 20151 429// 03105 11228 21276 38883 48418 51015
AAXX 20181 30731 415// 63204 11142 21185 39697 40342 52002 73632 82932
AAXX 20181 30739 419// 12704 11170 21220 39463 40335 52014 70330 80002
AAXX 20181 30741 419// 82808 11212 21231 38696 48486 52011 73832 80007
AAXX 20181 30745 429// 12507 11205 21238 39075 40307 52012 80002
AAXX 20181 30764 42998 03004 11183 21242 39407 40251 52026
AAXX 20181 30829 41563 80000 11132 21167 39648 40375 52009 78582 84332
AAXX 20181 30838 41998 30000 11199 21225 39316 40375 52007 70173 80002
AAXX 20181 30846 42999 02705 11167 21236 39335 40297 52013
AAXX 20181 30859 41999 03206 11154 21224 39382 40261 52023 73630
AAXX 20181 30862 42984 13104 11175 21225 39445 40224 52015 81040
AAXX 20181 30957 429// 03305 11150 21230 39329 40267 52003
AAXX 20181 30967 NIL
AAXX 20181 30975 42998 02901 11320 21350 39525 40251 53001
AAXX 20181 31825 NIL
AAXX 20181 31845 42998 00000 11329 21358 30109 40297 54000
AAXX 20181 31878 42971 01701 11203 21229 30124 40259 56011
AAXX 20181 31915 42998 02804 11182 21215 39967 40251 57011
AAXX 20181 31921 42997 02001 11204 21230 30141 40247 56009
AAXX 20181 31969 42/// /3102 11092 21150 30199 40251 57007
AAXX 20181 31981 42999 02002 11236 21255 30016 40276 58007
AAXX 20181 31987 42999 00802 11166 21202 39993 40272 55004
AAXX 20181 32069 41598 81205 11180 21199 30217 40222 52005 70281 8297/ 333 91006 91108
BBXX 46092 20181 99368 71220 46/// /1107 10085 40188 52011 91757 22200 00125 555 11077 22077
BBXX 44059 20181 99368 70763 46/// /2702 1//// 91820 333 91203
BBXX 44059 20181 99368 70763 46/// /2502 1//// 40205 91810 333 91203
BBXX 44059 20181 99368 70763 46/// /2502 10130 40207 58017 91800 22200 00101 333 91203
BBXX 44057 20181 99395 70761 46/// /0903 1//// 91820 333 91203
BBXX 44057 20181 99395 70761 46/// /0902 1//// 40207 91810 333 91203
BBXX 44057 20181 99395 70761 46/// /1002 10078 40209 57011 91800 22200 00054 333 91202
BBXX 44058 20181 99376 70763 46/// /1601 1//// 91820 333 91202
BBXX 44058 20181 99376 70763 46/// /1501 1//// 40210 91810 333 91202
BBXX 44058 20181 99376 70763 46/// /1601 10095 40210 56016 91800 22200 00090 1//00 70001 333 91202
AAXX 20184 42634 32996 00000 10174 20128 40138 333 59013
AAXX 20184 42647 31996 03406 10194 20092 40144 70400 333 59011
AAXX 20184 42737 32996 00203 10174 20139 40148 333 59009
AAXX 20184 42840 32996 00000 10206 20152 40140 333 59010
AAXX 20184 42909 32996 23605 10204 20105 40137 80001 333 59010 82070
AAXX 20184 42921 32996 00000 10150 20103 40187 333 59013
AAXX 20184 43003 31995 00000 10216 20181 40126 70500 333 59010
AAXX 20184 43014 32996 00000 10160 20106 39484 40147 333 59012
AAXX 20184 43063 32996 00000 10156 20128 39506 40146 333 59007
AAXX 20184 43110 32996 00502 10230 20175 40124 333 59008
AAXX 20184 43117 32996 41402 10200 20087 40139 80001 333 59006
AAXX 20184 43192 32996 20702 10230 20189 40118 80002 333 59010
BBXX 46181 20181 99538 71288 46/// /2111 10052 40228 52027 22200 00066 10301 70003 333 91214
AAXX 20184 68171 NIL
AAXX 20184 68181 NIL
AAXX 20184 68253 NIL
AAXX 20184 68291 NIL
AAXX 20184 68297 NIL
AAXX 20184 68342 NIL
AAXX 20184 68474 NIL
AAXX 20184 68479 NIL
AAXX 20184 68487 NIL
AAXX 20184 68497 NIL
AAXX 20184 89610 46/// /0413 11029 39586 4//// 5//// 333 90700 91116
BBXX 46184 20181 99539 71389 46/// /2909 10060 40269 52044 22200 00064 11210 70048 333 91211
BBXX 46181 20181 99538 71288 46/// /2111 10052 40228 52027 22200 00066 10301 70003 333 91214
BBXX 46184 20181 99539 71389 46/// /2909 10060 40269 52044 22200 00064 11210 70048 333 91211
AAXX 20184 68345 NIL
AAXX 20184 91723 NIL
AAXX 20184 91759 NIL
AAXX 20184 91762 11598 31303 10265 20236 40102 53016 60001 71550 83101 333 83820
AAXX 20181 31913 NIL
AAXX 20181 32128 41597 71001 11076 21102 30170 40224 51007 78582 87300 333 91003 91105
AAXX 20181 24856 41996 02403 11427 21455 30101 40293 52015 71000
AAXX 20181 30679 NIL
AAXX 20181 30686 41996 81101 11213 21232 39800 40198 52013 77172 8807/
AAXX 20181 30961 42899 83206 11158 21209 39412 40238 52015 8802/
AAXX 20181 30971 42999 01801 11224 21242 39177 40233 52008
AAXX 20181 30978 42999 03304 11175 21217 39492 40211 53001
AAXX 20181 31513 42999 00000 11238 21244 39944 40189 58012
AAXX 20181 31624 NIL
AAXX 20181 31832 42965 21202 11199 21225 30164 40257 58005 80002
AAXX 20184 41515 02695 32314 10051 21067 38528 48492 60003 83500 333 56900 59027 60007 83650
AAXX 20184 41560 02696 41803 10005 21087 38205 48485 60003 82320 333 58000 60007
AAXX 20184 41571 116// 63106 10100 20035 39598 40199 69903 70522 83530 333 56990 58014
AAXX 20184 41594 31911 13604 10095 20046 39965 40190 71011 81030 333 56090 58012
AAXX 20184 41685 32993 00000 10080 21038 38924 48498 333 58003
AAXX 20184 41710 01994 03108 10045 21128 39450 40265 60003 70600 333 58007 60007
AAXX 20184 41718 11995 00000 10105 20074 30069 40177 60003 70400 333 58014
AAXX 20184 41739 01993 03106 10055 21059 39099 48533 60003 70540 333 58020 60007
AAXX 20184 41744 32996 03602 10080 21038 38798 48515 333 59001
AAXX 20184 41749 01996 00000 10130 20080 30154 40187 60003 70400 333 58012 60007
AAXX 20184 41515 02695 32314 10051 21067 38528 48492 60003 83500 333 56900 59027 60007 83650
AAXX 20184 41560 02696 41803 10005 21087 38205 48485 60003 82320 333 58000 60007
AAXX 20184 41571 116// 63106 10100 20035 39598 40199 69903 70522 83530 333 56990 58014
AAXX 20184 41594 31911 13604 10095 20046 39965 40190 71011 81030 333 56090 58012
AAXX 20184 41685 32993 00000 10080 21038 38924 48498 333 58003
AAXX 20184 41710 01994 03108 10045 21128 39450 40265 60003 70600 333 58007 60007
AAXX 20184 41718 11995 00000 10105 20074 30069 40177 60003 70400 333 58014
AAXX 20184 41739 01993 03106 10055 21059 39099 48533 60003 70540 333 58020 60007
AAXX 20184 41744 32996 03602 10080 21038 38798 48515 333 59001
AAXX 20184 41749 01996 00000 10130 20080 30154 40187 60003 70400 333 58012 60007
AAXX 20184 41506 02694 81804 10035 21003 48510 60003 8442/ 333 5699/ 58016 60007 84640 84460
AAXX 20184 41508 22696 80000 10022 10008 48542 60052 8572/ 333 5699/ 55006 60007 82725 83630 83460
AAXX 20184 41523 11695 80000 10040 20003 48527 60023 82166 8452/ 333 5699/ 58011 69907 84640 84460
AAXX 20184 41535 11697 50000 10040 20016 48495 60033 70162 82530 333 56990 58018 60017 82635 83460
AAXX 20184 41536 NIL
AAXX 20184 41573 01696 81302 10015 21023 48513 60033 8452/ 333 58008
AAXX 20184 41600 01995 00000 10130 20043 39963 40165 60003 70400 333 59010 60007
AAXX 20184 41630 11996 03604 10115 20062 40183 60003 70400 333 58019
AAXX 20184 41678 11995 00000 10125 20096 40183 60003 71000 333 58020 60007
AAXX 20184 41696 02996 00000 11050 21097 38041 48577 60003 333 58015 60007
AAXX 20184 41697 02996 03102 10161 20043 40183 60003 333 58018 60007
AAXX 20184 41700 11994 00000 10100 20057 40170 60003 70400 333 58020
AAXX 20184 41725 02996 00000 10135 20102 40161 60003 333 59001 60007
AAXX 20184 41746 02996 00502 10115 20074 40178 60003 333 59001 60007
AAXX 20184 41759 11994 03612 10165 21121 30195 40201 60002 70700 333 58013
AAXX 20184 41785 02996 00000 10150 20092 40163 60003 333 58012 60007
AAXX 20184 43086 32996 00000 10164 20132 39960 40143 333 59008
AAXX 20184 43128 31996 21404 10192 20146 39532 40148 70511 80001 333 59005 82070
AAXX 20184 43150 31996 23604 10234 20166 30072 40148 70511 80002 333 59003 82075
AAXX 20184 43185 31596 41402 10240 20206 30129 40133 70522 82530 333 59006 82620 83360
AAXX 20184 43189 32596 30000 10230 20179 30136 40145 81531 333 58002
AAXX 20184 43198 32996 40904 10186 20124 39297 40132 80001 333 59004 84075
AAXX 20184 43201 32997 00902 10194 20130 39403 40130 333 59001
AAXX 20184 43213 32996 20000 10212 20162 39817 40139 80002 333 59002
AAXX 20184 43226 32996 00902 10228 20139 30087 40117 333 59007
AAXX 20184 43233 32996 20503 10194 20155 39315 40133 80001 333 59010
AAXX 20184 43237 32996 40000 10204 20171 39739 40138 80001 333 59003 84075
AAXX 20184 43245 32596 30000 10230 20199 30106 40133 81501 333 59007
AAXX 20184 43279 31896 20504 10228 20197 30118 40136 70522 82030 333 59005 82360
AAXX 20184 43284 32996 30910 10248 20110 39989 40105 80001 333 59007 83075
AAXX 20184 43295 32396 70902 10172 20142 39113 48512 84631 333 56299 59002 82708 83616 85358
AAXX 20184 43311 32996 03602 10244 20229 40105 333 59008
AAXX 20184 43314 32596 70504 10250 20142 40107 81431 333 59007
AAXX 20184 43321 31495 50204 10218 20158 39682 40134 70521 82531 333 58000
AAXX 20184 43329 32996 10000 10234 20195 30112 40125 80001 333 59002
AAXX 20184 43344 31596 60507 10230 20189 30024 40125 70522 82530 333 58001 82620 85360
AAXX 20184 43346 32596 60508 10260 20199 30106 40114 84501 333 59003 84620 85075
AAXX 20184 43353 31496 70503 10266 20234 40105 70522 82870 333 56690 59014 82614 87458
AAXX 20184 43369 32596 43604 10272 20246 40107 84400 333 59006 83620
AAXX 20184 43371 32596 60000 10252 20216 30024 40097 83470 333 59017 83620 85360
BBXX 44039 20181 99411 70727 46/// /3305 10055 21049 40222 91800 22200 00093 10201 70004 333 91207
BBXX 44060 20181 99413 70721 46/// ///04 10052 40211 91815 22200 00101 333 91206 555 11036 22036
BBXX 44022 20181 99409 70737 46/// ///02 10064 21012 40216 91815 22200 00078 333 91203 555 11021 22021
BBXX 44040 20181 99410 70736 46/// /3605 10063 21018 40221 91815 22200 1//00 70001 333 91206 555 11057 22072
BBXX 44039 20181 99411 70727 46/// /3204 10055 21052 40224 91753 22200 00093 10201 70004 333 91207
BBXX 46004 20181 99509 71361 46/// /2911 10071 40292 52015 22200 00074 11209 70047 333 91213
AAXX 20181 56671 32980 01801 10023 21006 38195 52003 333 05251 10174
AAXX 20181 57378 31956 83403 10059 20002 40281 52001 70500 8807/ 333 10093
AAXX 20181 57426 11756 80201 10063 20059 40260 52001 69901 76060 885// 333 05100 10076
AAXX 20181 57476 32960 80203 10073 20005 40274 52004 8807/ 333 10113
AAXX 20181 57584 32960 80202 10086 20008 40271 52003 8807/ 333 10103
AAXX 20181 57598 32660 82901 10077 20041 40261 52003 885// 333 10115
AAXX 20181 57655 11960 81101 10062 20035 40273 52008 69941 76060 8802/ 333 10089
AAXX 20181 57713 NIL
AAXX 20181 57776 32570 80402 10017 21057 40268 54000 885// 333 10073
AAXX 20181 58321 31920 82901 10034 20016 40286 52004 71000 8807/ 333 10079
AAXX 20181 58437 31565 83207 10008 21002 38181 54000 70040 885// 333 10008
AAXX 20181 58445 NIL
AAXX 20181 58556 31640 83602 10088 20071 40245 57007 71000 885// 333 10150
AAXX 20181 58569 32668 23603 10111 20085 40233 57010 82500 333 10130
AAXX 20181 58646 32960 00000 10093 20057 40235 57005 333 10195
AAXX 20181 58653 NIL
AAXX 20181 58660 NIL
AAXX 20181 58715 31940 00202 10059 20029 40245 57003 71000 333 10142
AAXX 20181 58730 32962 20201 10073 20053 40232 57001 82040 333 10189
AAXX 20181 58731 32965 01801 10062 20045 40230 57005 333 10201
AAXX 20181 58754 32964 03602 10112 20071 40228 57007 333 10176
AAXX 20181 58911 32964 00701 10075 20061 40223 52002 333 10203
AAXX 20181 58931 31/00 90708 10047 20047 38368 57008 74540 333 10111
AAXX 20181 59254 32960 03201 10135 20094 40196 52002 333 10225
AAXX 20181 59632 32560 70203 10166 20083 40182 57006 878// 333 10240
AAXX 20181 59855 32468 80000 10191 20161 40164 57012 888// 333 10208
BBXX 46004 20181 99509 71361 46/// /2911 10071 40292 52015 22200 00074 11209 70047 333 91213
AAXX 20181 01380 11989 00102 11178 21195 60002 70200 333 11116 4/030 91104
AAXX 20180 44214 32998 03601 11204 21257 38431 40615 58003
AAXX 20180 44231 329// 02902 11158 21246 38835 40499 58003
AAXX 20180 44259 NIL
AAXX 20180 44277 329// 01803 11217 21249 37917 40642 52001
AAXX 20180 44288 32999 02804 11158 21238 38234 40472 52005
AAXX 20180 44292 41899 22801 11211 21229 38765 40430 58005 70171 82040
AAXX 20180 44304 329// 52704 11228 21268 39037 40386 52007 85070
AAXX 20180 44354 329// 03210 11172 21206 39166 40375 52019
AAXX 20180 44373 32999 02703 11178 21240 38628 40463 51007
BBXX A8AF6 20183 99313 70148 41598 50918 10180 20121 40280 54000 70311 855// 22243 02190 20202 306// 40604 80145
BBXX 44060 20181 99413 70721 46/// ///03 10053 40211 91830 22200 00101 333 91205 555 11036 22036
BBXX 46232 20181 99325 71174 46/// ///// 1//// 91808 22200 00152 11403 20702 327// 41402 70015
BBXX 46247 20181 99378 71228 46/// ///// 1//// 91821 22200 00111 11404 21003 328// 41403 70022
BBXX A8AF6 20183 99313 70148 41598 50918 10180 20121 40280 54000 70311 855// 22243 02190 20202 306// 40604 80145
BBXX A8CS2 20183 99244 10365 41498 13110 10260 20246 40155 52015 70200 81400 22273 21002 3//// 4//// 5//// 80250
BBXX A8CS2 20183 99244 10365 41498 13110 10260 20246 40155 52015 70200 81400 22273 21002 3//// 4//// 5//// 80250
BBXX BATFR19 20184 99065 30060 46/// /1915 10235 20199 40121 53013 22200 00257
BBXX BATFR55 20184 99102 30464 46/// /2310 10274 20250 40120 22262 00287
BBXX A8PF5 20184 99107 30100 41398 42524 10245 20182 40110 54000 70211 8387/ 22244 20402 325// 40602 5//// 80205
BBXX A8YW2 20184 99135 30771 41/98 51320 10278 20214 40090 50002 70311 8//// 22214 00270 20804 80235
BBXX PCSV 20180 99150 30622 41698 41705 10265 20215 40124 53007 70022 8242/ 22253 04284 21003 317// 41003 80230
BBXX V7LZ9 20184 99253 30467 41/98 70709 10230 20185 40080 54000 71399 8770/ 22253 29901 324// 4//04 5//// 80200
BBXX ONCE 20184 99263 30691 41497 21423 10210 2015/ 40200 5//// 70200 821// 22214 00236 2//// 3//// 4//// 5//// 6//// 80170 /////
BBXX ONDY 20184 99354 30192 41798 82218 10190 2014/ 40135 56005 70321 88900 22233 00220 2//// 3//// 4//// 5//// 6//// 80160 /////
BBXX DBBT 20181 99368 30126 46/// /2709 10162 20123 40136 54000 22213 00170
AAXX 20184 71357 16/// /0702 11220 21238 39954 49961 57007 60001 333 11207 21271 70000
AAXX 20184 71359 16/// /2810 10042 21030 60001 333 10068 21045 70000
AAXX 20184 71010 16/// /3017 10044 21036 60001 333 10047 21038 70000
AAXX 20184 71011 16/// ///// 10037 21034 60001 333 10059 21082 70000
AAXX 20184 71049 16/// /3106 11332 39933 49958 53001 60001 333 11298 21340 7////
AAXX 20184 71500 16/// /2610 10031 21036 60001 333 10065 21005 70000
AAXX 20184 71504 16/// ///// 10024 21020 60001 333 10055 21004 70000
AAXX 20184 71526 16/// /0204 10047 21039 60001 333 10061 21050 70000
AAXX 20184 71541 16/// /2606 10021 21021 60001 333 10046 20008 70000
AAXX 20184 71543 16/// /2609 10023 21022 60001 333 10047 20016 70000
AAXX 20184 71546 16/// /2712 10039 21030 60001 333 10059 20020 70000
AAXX 20184 71547 16/// /2511 10023 21040 60001 333 10044 21010 70000
AAXX 20184 71549 16/// ///// 10028 21028 60001 333 10051 7////
AAXX 20184 71888 16/// ///// 10045 21032 60001 333 10063 21060 70000
AAXX 20184 71895 16/// ///// 10037 21015 60001 333 10057 21028 70000
AAXX 20184 71894 16/// /3212 10065 20056 30263 40272 51005 60001 333 10082 20062 70256
AAXX 20184 71400 17/64 /1701 11044 21057 60021 7//4/ 333 11042 21162 70015
AAXX 20184 71411 16/// /3113 10002 21075 30112 40125 52020 60001 333 10053 21010 70014
AAXX 20184 71461 16/// /2603 10023 21019 60001 333 10064 20021 70000
AAXX 20184 71468 16/// /2214 11045 21071 39723 40048 58043 60001 333 21082 70000
AAXX 20184 71483 16/// ///// 10035 21021 60001 333 10064 21027 70000
AAXX 20184 71221 16/// /2709 10028 21030 60001 333 10049 21034 70000
AAXX 20184 71226 16/// /2511 10039 21018 60001 333 10075 20024 70000
AAXX 20184 71229 46/// /0304 11005 21012 6///1 333 10021 21021 7////
AAXX 20184 71244 16/// /2822 10045 21032 38872 40089 51020 60001 333 10059 21018 70000
AAXX 20184 71283 16/// /0401 11001 21034 60001 333 10044 21001 70000
AAXX 20184 71558 46/// ///// 11043 21065 39898 49935 56022 6///1 333 11041 21152 7////
AAXX 20184 71405 16/// ///// 10051 21033 60001 333 10064 21042 70000
AAXX 20184 71417 17/// /1413 11037 21043 39902 49936 56024 60011 7//4/ 333 11036 21109 70013
AAXX 20184 71426 46/// /3027 11090 6///1 333 11034 21094 7////
AAXX 20184 71067 16/// ///// 10038 21038 60001 333 10056 21047 70000
AAXX 20184 71770 16/// /3102 11021 21033 39443 40229 55009 60001 333 11009 21028 70000
AAXX 20184 71788 16/// /2610 10055 21027 60001 333 10060 20003 70000
AAXX 20184 71792 16/// ///// 10011 21030 60001 333 10038 21052 70000
AAXX 20184 71154 16/// /2321 10014 21050 60001 333 10023 20003 70023
AAXX 20184 71673 16/// ///// 10003 21029 60001 333 10057 21064 70000
AAXX 20184 71690 16/// ///// 10025 21016 60001 333 10047 20008 70000
AAXX 20184 71894 16/// /3212 10065 20056 30263 40272 51005 60001 333 10082 20062 70256
AAXX 20184 71400 17/64 /1701 11044 21057 60021 7//4/ 333 11042 21162 70015
AAXX 20184 71411 16/// /3113 10002 21075 30112 40125 52020 60001 333 10053 21010 70014
BBXX 46146 20181 99493 71237 46/// /3008 10069 40261 52004 22200 00066 10201 70003 333 91210
AAXX 20181 56144 32980 00000 11056 21174 36835 52003 333 05451 10097
AAXX 20181 56152 32980 00000 11143 21187 36280 57003 333 05400 10059
AAXX 20181 56167 32980 00000 11072 21109 37065 52003 333 05400 10130
AAXX 20181 56182 32980 00000 11064 21084 37188 52007 333 05151 10105
AAXX 20181 56357 32980 02701 11087 21199 36443 52004 333 05201 10121
AAXX 20181 56586 11456 83402 10002 21007 38060 52005 69901 76876 885// 333 05201 10045
AAXX 20181 56748 32980 00000 10046 20025 38358 57002 333 05151 10181
AAXX 20181 56763 32980 00000 10095 20053 40115 52005 333 05151 10262
AAXX 20181 56768 32980 03401 10068 20051 38176 54000 333 05100 10185
AAXX 20181 56838 32968 00201 10110 20098 40164 57001 333 05100 10224
AAXX 20181 56886 31750 10000 10052 20051 38296 54000 71000 81400 333 05151 10169
AAXX 20181 56946 32980 00701 10073 20066 40171 52001 333 05151 10227
AAXX 20181 56959 32965 00000 10128 20128 40155 57001 333 05100 10250
AAXX 20181 56969 31440 80000 10122 20119 40171 57002 71000 886// 333 05101 10242
AAXX 20181 57731 11460 80000 10068 20043 40255 57005 69911 76060 885// 333 05202 10070
AAXX 20181 57766 32760 81101 10076 20006 40263 52003 885// 333 10104
AAXX 20181 57845 32960 73401 10062 20009 40251 54000 8704/ 333 10097
AAXX 20181 57853 32760 80201 10075 20007 40262 52003 885// 333 10097
AAXX 20181 57916 32662 81601 10098 20074 40225 52002 885// 333 00052 10122
AAXX 20181 57922 31650 80000 10041 20029 40247 54000 71000 885// 333 05152 10057
AAXX 20181 57932 32662 82501 10082 20050 40245 57002 885// 333 05151 10111
AAXX 20181 58338 31957 83601 10047 20030 40270 52005 71000 8807/ 333 10069
AAXX 20181 59007 32963 00000 10051 20033 40187 57001 333 10168
AAXX 20181 59046 31756 73401 10112 20044 40215 57002 70500 875// 333 10179
AAXX 20181 59058 31956 73202 10108 20021 40217 54000 70500 8704/ 333 10172
AAXX 20181 59072 31958 00201 10066 20032 40231 52006 70500 333 10185
AAXX 20181 59087 32760 81601 10145 20056 40200 57001 885// 333 10191
AAXX 20181 59209 32461 82502 10133 20092 40179 57004 888// 333 10163
BBXX 46246 20181 99500 71451 46/// ///// 1//// 91759 22200 00073 11207 21005 325// 41204 70034
BBXX 46146 20181 99493 71237 46/// /3008 10069 40261 52004 22200 00066 10201 70003 333 91210
AAXX 20180 44203 329// 00000 11337 21351 38515 40642 54000
AAXX 20180 44207 329// 01810 11181 21240 38389 40447 54000 333 91112
AAXX 20180 44212 32999 71801 11276 21306 39378 40676 52006 87070
AAXX 20180 44213 32699 60000 11288 21317 38983 40673 57002 86500
AAXX 20180 44215 32998 00000 11265 21290 38559 40617 52002
AAXX 20180 44218 329// 00000 11273 21304 38779 40639 58004
AAXX 20180 44225 329// 00000 11295 21313 38411 40673 51003
AAXX 20180 44230 329// 03604 11215 21256 38886 40510 52002
AAXX 20180 44232 329// 03306 11135 21205 39202 40406 54001
AAXX 20180 44237 32999 01805 11147 21217 38569 40425 58001
AAXX 20180 44239 329// 73601 11192 21250 38874 40415 53002 87050 555 99600 99905
AAXX 20180 44241 419// 60000 11220 21232 39359 40444 58005 70272 86080
AAXX 20180 44256 NIL
AAXX 20180 44265 329// 00000 11284 21308 39036 40640 56013
AAXX 20180 44272 419// 51802 11288 21325 38369 40647 57002 70273 85030
AAXX 20180 44275 32998 03603 11208 21233 37809 40523 58001
AAXX 20180 44282 31999 03402 11132 21240 38380 40431 58002 70230
AAXX 20180 44284 32999 02904 11271 21307 37927 40635 54000
AAXX 20180 44285 32999 03205 11147 21224 38394 40438 57001 333 91111
AAXX 20180 44287 32999 00503 11211 21259 38200 40547 52008
AAXX 20180 44294 329// 02905 11220 21244 38619 40468 52001
AAXX 20180 44298 329// 03202 11230 21236 38774 40425 52009
AAXX 20180 44302 319// 02707 11225 21263 39131 40347 54000 70230
AAXX 20180 44305 32999 03206 11178 21235 39064 40305 51008
AAXX 20180 44313 NIL
AAXX 20180 44314 NIL
AAXX 20180 44317 32998 22706 11175 21217 38940 40304 52001 82040
AAXX 20180 44336 329// 03103 11201 21244 38791 40504 53010
AAXX 20180 44341 329// 23306 11194 21231 38676 40465 51014 82030 333 91112
AAXX 20180 44347 32999 03206 11170 21220 38803 40437 51017
AAXX 20180 44352 32999 23206 11170 21204 38937 40329 52013 82040
AAXX 20180 44358 329// 33202 11168 21202 39144 40377 51018 83040
BBXX 46246 20181 99500 71451 46/// ///// 1//// 91829 22200 00073 11207 21005 325// 41205 70036
BBXX 46243 20181 99462 71241 46/// ///// 1//// 91829 22200 00080 11505 21003 326// 41504 70024
BBXX 46236 20181 99368 71219 46/// ///// 1//// 91820 22200 00125 11404 21003 328// 41403 70021
BBXX 46229 20181 99438 71246 46/// ///// 1//// 91821 22200 00099 11505 21002 329// 41505 70027
BBXX 46225 20181 99329 71174 46/// ///// 1//// 91814 22200 00145 11502 20701 327// 41502 70010
BBXX 46213 20181 99403 71247 46/// ///// 1//// 91824 22200 00099 10907 20906 329// 41304 70034
BBXX 46215 20181 99352 71209 46/// ///// 1//// 91808 22200 00157 11304 21002 327// 41303 70019
AAXX 20181 45032 36/// /0000 10159 20144 30164 40181 54000
AAXX 20181 45035 36/// /0702 10170 20133 30136 40178 54000
AAXX 20181 45039 36/// /0601 10166 20146 30163 40177 57001
AAXX 20181 45044 36/// /0002 10166 20131 30081 40176 54000
AAXX 20180 44254 329// 02901 11156 21250 39045 40287 53006
AAXX 20181 45032 36/// /0000 10159 20144 30164 40181 54000
AAXX 20181 45035 36/// /0702 10170 20133 30136 40178 54000
AAXX 20181 45039 36/// /0601 10166 20146 30163 40177 57001
AAXX 20181 45044 36/// /0002 10166 20131 30081 40176 54000
BBXX 41010 20181 99289 70785 46/// /1306 10218 40230 91820 22200 00237 11003 20502 300// 41003 70017 333 91208 555 11065 22068
BBXX 41009 20181 99285 70802 46/// /1408 10228 20161 40221 91820 22200 00246 11003 20502 300// 41002 70016 333 91210 555 11086 22090
BBXX 42362 20181 99278 70907 46/// /1807 10233 20206 40156 91830
BBXX 42363 20181 99282 70892 46/// /1908 10239 20183 40163 91830 333 91209
BBXX 42364 20181 99291 70881 46/// /1608 10228 20200 40166 91830
BBXX 42361 20181 99276 70925 46/// ///08 10239 20206 40132 58017 91830 555 11062 22066
BBXX 42099 20181 99273 70842 46/// ///// 1//// 91827 22200 00231 10704 20704 70021
BBXX 41113 20181 99284 70805 46/// ///// 1//// 91821 22200 00212 10502 20502 308// 41101 70012
BBXX 41112 20181 99307 70813 46/// ///// 1//// 91821 22200 00163 11002 21002 308// 41101 70009
BBXX 42013 20181 99272 70829 46/// ///// 1//// 40205 91740 22200 00198
AAXX 20181 38844 429// 00501 11091 21153 48540 58001
BBXX 44258 20181 99445 70634 46/// /3112 10001 40097 52020 22200 00064 10903 70015 333 91214
BBXX 44258 20181 99445 70634 46/// /3112 10001 40097 52020 22200 00064 10903 70015 333 91214
AAXX 20180 44210 32999 00000 11248 21260 38706 53003
AAXX 20180 44216 32999 03202 11321 21343 39231 40692 58009
AAXX 20180 44217 32998 00000 11280 21298 37994 40704 54000
AAXX 20180 44219 329// 01402 11304 21327 38806 40683 52003
AAXX 20180 44221 329// 30000 11222 21315 38759 40652 58006 83046
AAXX 20180 44224 329// 00000 11322 21352 38189 40705 54000
AAXX 20180 44229 32999 02707 11183 21224 38008 40492 58002
AAXX 20180 44242 419// 00000 11264 21289 39425 40456 57001 70171
AAXX 20180 44243 329// 30000 11282 21313 39525 40469 52005 83030
AAXX 20180 44254 329// 02901 11156 21250 39045 40287 53006
AAXX 20180 44257 319// 03206 11147 21214 38991 40431 52003 73633 333 91114
AAXX 20180 44263 32998 00000 11263 21309 38205 40677 57003
AAXX 20180 44266 329// 00503 11208 21265 37882 40568 54000
AAXX 20180 44286 329// 02708 11177 21228 38712 40426 54000
AAXX 20180 44291 319// 02901 11268 21297 38803 40501 56006 70400
AAXX 20180 44325 329// 00000 11197 21238 38982 40503 52002
AAXX 20180 44329 32998 03209 11154 21215 37838 40382 58001
AAXX 20180 44338 32999 02702 11157 21227 38544 40416 52005
AAXX 20180 44348 329// 03207 11182 21194 38640 40385 51018
AAXX 20180 44374 32999 02906 11156 21237 38347 40491 51005
AAXX 20180 44385 32999 22705 11137 21208 39026 40439 51005 82040
AAXX 20180 44386 329// 00000 11176 21210 39126 40406 52019
BBXX 44140 20181 99429 70515 46/// /2012 10129 40033 5//// 22200 00067 11107 70033 333 91215
BBXX 44140 20181 99429 70515 46/// /2012 10129 40033 5//// 22200 00067 11107 70033 333 91215
AAXX 20184 97008 32560 60000 10274 20248 30049 40059 57004 83572 333 56000 83620
AAXX 20184 97016 32560 20000 10270 20240 30058 40060 57007 81131 333 56000 57802 81820 80860
AAXX 20184 97126 31457 70000 10262 20247 30008 40068 56015 71322 82920 333 56000 57901 81916 87460 80980
AAXX 20184 97182 32566 50000 10270 20247 30061 40065 57013 83831 333 56000 57800 82820 83360 808//
AAXX 20184 97240 32458 50000 10246 20243 39957 40072 57008 83131 333 56000 83816
AAXX 20184 97310 31558 50000 10260 20245 30048 40060 57009 71790 83921 333 56000 57901 81920 83820 84460 80950 80850
AAXX 20184 97320 31560 70000 10269 20247 30045 40058 57014 71322 84246 333 56000 57802 82820 80850
AAXX 20184 97378 NIL
AAXX 20184 97406 NIL
AAXX 20184 97570 NIL
AAXX 20184 97630 NIL
AAXX 20184 97700 32460 42206 10260 20248 30026 40041 57018 60321 70262 82232 333 56000 57804 60017 82817 80850
AAXX 20184 97722 NIL
AAXX 20184 96001 NIL
AAXX 20184 96015 01420 80000 10237 20233 30084 40091 56006 60021 72162 8657/ 333 56009 69907 86612
AAXX 20184 96033 NIL
AAXX 20184 96075 11456 80000 10240 20239 30078 40083 57008 69901 70262 8592/ 333 56009 57901 81915 84617 80965
AAXX 20184 96087 32458 50000 10254 20234 30045 40079 58011 82531 333 56000 82613 83360
AAXX 20184 96171 31440 70000 10244 20232 30057 40081 57006 70522 85522 333 56000 85615
AAXX 20184 96207 31430 70000 10204 20197 39234 40156 52004 71422 83972 333 56000 57900 81915 83460
AAXX 20184 96525 32458 62104 10248 20241 30064 40072 57009 83275 333 56000 83817
AAXX 20184 96529 32450 40000 10246 20244 30062 40086 58015 84101 333 56000 84818
AAXX 20184 96559 31430 60000 10248 20233 30047 40085 52009 71322 84930 333 56800 57982 57884 81913 85811 83362 80973 80857
AAXX 20184 96607 32458 40000 10264 20252 30057 40072 57010 82211 333 56000 82815
AAXX 20184 96615 01440 82907 10252 20242 30066 40080 57011 60101 76166 8212/ 333 56009 57803 60037 82812 88460 80856
AAXX 20184 96737 31450 70000 10250 20236 30045 40075 57004 70522 84521 333 56000 84617 83460
AAXX 20184 96739 32556 72908 10244 20232 30036 40085 57014 84522 333 56000 84620
AAXX 20184 96741 NIL
AAXX 20184 96745 32556 72404 10270 20228 30076 40081 57011 84571 333 56000 84620 87460
AAXX 20184 96751 32530 70000 10200 20183 39022 48920 52007 85510 333 56000 85620 83460
AAXX 20184 96791 32456 70000 10256 20247 30019 40094 57010 83571 333 56000 83618
AAXX 20184 96797 NIL
AAXX 20184 96837 01540 81601 10250 20241 30068 40071 58012 60071 76166 8497/ 333 56009 57900 60077 81920 83820
AAXX 20184 96925 32465 62907 10277 20248 30062 40067 56012 82232 333 56600 57860 82817 85080 80860
AAXX 20184 96933 11460 60000 10256 20247 30065 40069 57010 60011 70262 82521 333 56600 82617 85460
AAXX 20184 96937 32557 61903 10257 20245 30064 40069 57011 83111 333 56000 83820
AAXX 20184 96973 32558 50000 10262 20250 30057 40062 57011 83231 333 56000 57803 83820 80850
AAXX 20184 96987 32459 70000 10248 20009 30014 40073 57008 84511 333 56000 84618
AAXX 20184 97014 01559 61202 10244 20234 39979 40072 57013 60021 70262 84871 333 56600 83820
AAXX 20184 97028 NIL
AAXX 20184 97048 32457 50000 10259 20245 30030 40054 57008 82231 333 56000 57802 81817 83360 80860
AAXX 20184 97072 32558 40000 10254 20227 39983 40083 57005 82521 333 56000 82620
AAXX 20184 97086 NIL
AAXX 20184 97096 32460 40000 10260 20245 30060 40081 57016 81231 333 56000 57803 81816 84460 80857
AAXX 20184 97120 01459 73402 10264 20255 30028 40061 58006 60011 71562 83970 333 56000 57903 57801 60017 81917 82818 85460 80981 80860
AAXX 20184 97146 NIL
AAXX 20184 97180 01450 60504 10266 20257 30050 40068 57015 60021 76062 83271 333 56000 60027 83819 83359
AAXX 20184 97192 NIL
AAXX 20184 97230 01430 70602 10260 20249 30058 40065 57010 60041 76222 85232 333 56000 57801 60047 85814 80859
AAXX 20184 97260 NIL
AAXX 20184 97270 NIL
AAXX 20184 97300 01460 80000 10260 20248 30030 40071 57012 60031 79596 8497/ 333 56009 57901 57801 69907 81918 83820 84459 80980 80858
AAXX 20184 97340 32560 72105 10272 20264 30054 40068 55010 83232 333 56000 83820
AAXX 20184 97372 32458 60000 10264 20258 39939 40059 57014 83271 333 56000 83817
AAXX 20184 97430 32460 42804 10262 20238 30035 40064 57022 83201 333 56700 57873 83818 80860
AAXX 20184 97460 32460 50000 10242 20230 30028 40042 57015 83832 333 56000 57803 82818 80857
AAXX 20184 97502 32450 60000 10257 20247 30040 40044 58009 85531 333 56000 85615
AAXX 20184 97530 NIL
AAXX 20184 97560 32460 83104 10264 20240 30030 40045 57020 83977 333 56000 57902 57804 81917 83820 85361 88279 80980 80860
AAXX 20184 97686 NIL
AAXX 20184 97690 01457 80000 10250 20241 39939 40041 57016 69911 72162 83717 333 56000 69917 83815 88279
AAXX 20184 97724 32560 50102 10260 20239 30035 40049 57018 82232 333 56700 57872 82820 80856
AAXX 20184 97748 NIL
AAXX 20184 97760 32457 63504 10282 20242 30042 40051 57015 82202 333 56000 57801 82816 80860
AAXX 20184 97796 NIL
AAXX 20184 97810 01457 70506 10261 20247 30032 40042 57014 60021 70262 85872 333 56700 57871 60027 83819 80858
AAXX 20184 97900 01420 80000 10248 20243 30016 40044 57010 60271 79596 8692/ 333 56009 57901 60267 85914 88458 80980
AAXX 20184 97980 NIL
AAXX 20184 96009 11456 80000 10250 20241 30056 40091 57004 69921 70262 8492/ 333 56000 57904 81915 83617 87460 80965
AAXX 20184 96011 32459 61004 10250 20235 30071 40097 57007 83521 333 56000 83619
AAXX 20184 96035 32460 70000 10242 20225 30055 40093 57010 84576 333 56000 84617
AAXX 20184 96073 01450 70000 10237 20232 30068 40080 56025 60051 70562 83972 333 56000 57901 69997 83913 80959
AAXX 20184 96091 32458 10252 20243 30068 40091 57002 8352/ 333 56009 83613 88460
AAXX 20184 96109 32457 70000 10239 20233 30035 40074 58010 83532 333 56000 83615
AAXX 20184 96145 01430 80104 10260 20248 30070 40072 56004 60031 70562 8552/ 333 56809 69957 85615 88460
AAXX 20184 96147 NIL
AAXX 20184 96163 01457 70000 10236 20231 30082 40084 57019 60271 72166 84521 333 56000 60017 84618
AAXX 20184 96179 NIL
AAXX 20184 96195 31456 73104 10248 20233 30052 40088 57006 70522 83531 333 56000 83614
AAXX 20184 96221 32460 70000 10258 20240 30065 40080 50001 83576 333 56999 83615
AAXX 20184 96237 NIL
AAXX 20184 96249 32559 70000 10248 20242 30017 40078 57008 84232 333 56700 57871 84820 80863
AAXX 20184 96253 32456 60000 10244 20232 30041 40062 57008 83932 333 56000 57900 81915 84080
AAXX 20184 96295 01459 80000 10246 20237 39976 40079 56014 69941 70262 8552/ 333 56009 69947 85612 88462
AAXX 20184 96509 32457 20000 10250 20242 30069 40081 52001 82101 333 56000 82815
AAXX 20184 96581 11456 50000 10239 20230 30064 40071 58006 69901 70262 83131 333 56000 83813 80860
AAXX 20184 96633 01420 72517 10270 20255 30054 40062 57004 60121 79592 84971 333 56000 60127 82915 82620 84460
AAXX 20184 96645 NIL
AAXX 20184 96655 32456 60000 10248 20241 30058 40092 57012 84521 333 56000 84612
AAXX 20184 96685 01420 82305 10258 20247 30050 40076 58009 60021 76066 86911 333 56000 57903 60027 81916 85611 80980
AAXX 20184 96749 31558 62706 10256 20220 30071 40085 56010 70522 82531 333 56000 82621 84360
AAXX 20184 96781 NIL
AAXX 20184 96805 01457 82604 10246 20237 30082 40091 56009 60121 76166 8622/ 333 56009 57801 60117 86818 88460 80858
AAXX 20184 96839 01450 80000 10250 20241 30064 40071 57013 60061 76196 8597/ 333 56009 57901 60057 81918 85819 88460 80980
AAXX 20184 96935 11550 62603 10252 20245 30063 40069 57011 60141 71022 82501 333 56200 82620 84080
BBXX 46036 20181 99484 71339 46/// /2506 10081 40328 52009 22200 00085 11409 70046 333 91207
BBXX 46036 20181 99484 71339 46/// /2506 10081 40328 52009 22200 00085 11409 70046 333 91207
BBXX AMOUK03 20184 99537 70003 46/// ///// 10062 20028 30120 40151 52015 91750
BBXX AMOUK08 20184 99501 70061 46/// ///// 10114 20098 30216 40221 54001 91750
BBXX 63110 20184 99595 10015 47598 /3014 10059 20004 40045 52010 700// 22200 10604 70022
BBXX 63105 20184 99610 10017 47598 ///// 10052 20010 40026 52013 700// 22200
BBXX 63113 20184 99610 10017 46/// /3311 10037 20010 40028 53010 22200 10705 70025
BBXX 62103 20184 99499 70029 46/99 /3118 10107 20057 40210 51013 22200 00122 10703 70013 333 90710 91125
BBXX TBWUK34 20183 99360 10201 41598 32727 10142 20042 40152 57010 71551 838// 22263 00200 20301 329// 40502 5//// 80096
BBXX 62169 20183 99614 10014 41/98 32717 10050 20036 40024 52010 70187 83/// 22200 20605 3//// 4//// 5//// 80044
BBXX A8DH2 20183 99373 10112 41498 52921 10142 20078 40189 56008 70211 84628 22234 04180 20506 80110
AAXX 20184 82586 32598 53610 10352 20229 39832 40065 85200 333 58002
AAXX 20184 82678 32596 51803 10362 20204 39946 40083 83202 333 58000
AAXX 20184 82784 32598 30905 10342 20219 39628 40074 83100 333 59005
AAXX 20184 82791 32599 50903 10363 20189 39795 40069 85200 333 59001
AAXX 20184 82983 32598 51406 10350 20209 39670 40074 84200 333 58001
AAXX 20183 63661 32980 10000 10182 20124 48530 87040 333 10255 59008 81359
AAXX 20183 63723 12980 00000 10292 20219 40083 69992 333 10352 59002
AAXX 20183 63793 32480 13608 10260 20231 40082 81501 333 10327 58000 81618
AAXX 20184 82143 31598 60110 10300 20247 40089 7022/ 83271 222// 80260 333 58002
AAXX 20184 83117 31596 61601 10280 20253 40111 57012 7032/ 8829/ 222// 20220 20101 80260
AAXX 20184 63688 32980 41105 10129 20098 48/// 81031 333 10230 58002 81358 84077
AAXX 20184 63820 32580 10610 10276 20246 40108 81100 333 10330 58002 81821
AAXX 20184 63612 NIL
AAXX 20184 63661 NIL
AAXX 20184 63671 NIL
AAXX 20184 63695 NIL
AAXX 20184 63708 NIL
AAXX 20184 63714 NIL
AAXX 20184 63723 NIL
AAXX 20184 63740 NIL
AAXX 20184 63772 NIL
AAXX 20184 63793 NIL
AAXX 20184 61017 32960 50000 10218 20000 39743 40154 80002 333 10273 58004 85080
AAXX 20184 61024 32960 71204 10232 21061 39573 40149 84032 333 10284 58006 84364 83080
AAXX 20184 61036 32960 70000 10289 20002 39866 40104 80008 333 10338 59005 87280
AAXX 20184 61043 32960 71208 10277 21047 39673 40116 82038 333 10315 58005 82364 86280
AAXX 20184 61045 32965 50402 10230 21026 39635 40139 80002 333 10291 58013 85080
AAXX 20184 61049 32960 50000 10220 20005 39799 40122 80002 333 10299 58003 85080
AAXX 20184 61052 32960 50204 10290 20038 39863 40121 83032 333 10335 58007 83364 85080
AAXX 20184 61075 32965 70000 10270 20053 39801 40112 83032 333 10335 58002 83364 85080
AAXX 20184 61080 32960 70804 10255 20022 39700 40123 82048 333 10315 58003 82364 87280
AAXX 20184 61090 32965 50202 10256 21040 39610 40125 80002 333 10302 58004 85080
AAXX 20184 61091 NIL
AAXX 20184 61096 32965 70000 10236 20008 39746 40133 80008 333 10307 58003 87280
AAXX 20184 61099 32960 70204 10290 20072 39870 40098 85042 333 10336 58006 85364 83080
AAXX 20181 23426 12984 22103 11103 21131 30196 40221 52002 69900 80001 333 11056
AAXX 20181 23625 12998 02403 11064 21100 30240 40275 54000 69900 333 11066
AAXX 20181 28076 32997 02002 11121 21134 30299 40376 52004 333 11087
AAXX 20181 28367 32984 02102 11090 21145 30301 40437 54000 333 11051
AAXX 20181 28382 32998 72203 11114 21149 30348 40423 52002 87050 333 11090
AAXX 20181 28481 32997 82302 11130 21173 30341 40449 54000 80007 333 11140
AAXX 20181 28491 32997 82503 11135 21187 30312 40431 54000 80001 333 11114
AAXX 20181 28573 32997 62302 11135 21170 30352 40465 57001 82041 333 11142
AAXX 20181 28593 32997 02202 11189 21222 30350 40457 54000 333 11152
AAXX 20181 28786 32997 82503 11149 21183 30328 40499 57002 80002 333 11139
AAXX 20181 28797 32997 62803 11166 21192 30322 40495 54000 80001 333 11136
AAXX 20181 28799 32997 02302 11187 21213 30336 40496 57004 333 11175
AAXX 20181 20046 NIL
AAXX 20181 20069 NIL
AAXX 20181 20087 NIL
AAXX 20181 20292 NIL
AAXX 20181 20353 46/// /1409 11055 21072 30078 40082 57002 333 91113
AAXX 20181 20667 NIL
AAXX 20181 20674 NIL
AAXX 20181 20744 NIL
AAXX 20181 20891 NIL
AAXX 20181 23022 NIL
AAXX 20181 23032 NIL
AAXX 20181 23058 NIL
AAXX 20181 23242 NIL
AAXX 20181 23256 11296 81603 11100 21112 30087 40123 57008 60030 77187 885// 333 11102 85703
AAXX 20181 23330 12997 02202 11101 21114 30178 40200 52009 60020 333 11059
AAXX 20181 23445 11496 82406 11064 21072 30164 40190 52013 60050 77172 8802/ 333 11059 88516
AAXX 20181 23552 11495 82705 11063 21075 30129 40164 52004 60020 78687 889// 333 11088 88914 91112
AAXX 20181 23631 12998 02405 11105 21133 30217 40260 54000 60010 333 11070
AAXX 20181 23662 11496 82202 11110 21130 30146 40192 57003 69900 77172 8552/ 333 11090
AAXX 20181 23724 32998 82102 11080 21107 30238 40305 57005 8805/ 333 11061
AAXX 20181 23734 12998 01501 11119 21132 30209 40306 51002 69920 333 11072
AAXX 20181 23849 41996 02507 11105 21128 40312 52010 73633
AAXX 20181 23867 11996 82605 11099 21120 30206 40282 53002 69930 77173 8807/ 333 11105
AAXX 20181 23933 11997 52403 11097 21123 30277 40336 52005 69970 70232 80001 333 11070
AAXX 20181 28064 32998 82502 11086 21110 30278 40374 57002 80001 333 11064
AAXX 20181 28275 32597 42203 11118 21162 30353 40417 52001 84500 333 11077
AAXX 20181 28493 32997 62402 11150 21192 30334 40435 54000 80002 333 11133
AAXX 20181 28698 12997 80000 11171 21197 30308 40477 57008 69900 83031 333 11168
AAXX 20184 78318 11561 61207 10259 20193 30166 40170 57020 60001 70522 84242 333 10261 20213 31/// 56299 59018 79999 84820 555 10903
AAXX 20184 78325 11563 71506 10275 20185 30121 40179 58022 60001 70522 82242 333 10277 20194 30/// 56399 59018 82820 83360 86080 555 11303
AAXX 20184 78333 11410 50903 10275 20166 30172 40179 58017 60001 70511 82242 333 10279 20203 30/// 56290 59011 82818 85071 555 10902
AAXX 20184 78348 11550 60706 10239 20185 30136 40189 58021 60001 70511 81278 333 10247 20212 30/// 56999 59011 81821 85274
AAXX 20184 78349 11560 60904 10266 20178 30078 40187 58025 60001 70522 83231 333 10280 20202 31/// 56299 57832 59011 70006 83820 555 10903
AAXX 20184 78353 12570 51005 10260 20158 30166 40188 58025 60001 84802 333 10260 20220 31/// 56209 59009 70021 83820 555 10903
AAXX 20184 78360 12570 60507 10298 20193 30157 40169 58023 60001 82836 333 10298 20206 30/// 56999 57979 59006 70002 81820 832// 92044
AAXX 20184 78369 11468 70708 10257 20191 30172 40181 56021 60001 70522 872// 333 10261 20223 30/// 56299 57890 59002 70016 87818 92045 555 10703
AAXX 20184 42398 31990 99903 10116 20116 40161 74540 89/// 333 59007
AAXX 20184 42492 31/93 92702 10100 20096 40182 74540 333 58001
AAXX 20184 42587 31994 00000 10094 20073 40175 71000 333 59003
AAXX 20184 42591 31/91 90203 10092 20092 40181 74544 333 59001
AAXX 20184 42701 31995 02705 10118 20043 39416 40170 70500 333 59007
AAXX 20184 42724 31993 00000 10130 20130 40152 74240 333 59010
AAXX 20184 42798 31995 00000 10122 20066 40160 70500 333 58000
AAXX 20184 42886 31996 03601 10138 20087 40161 70500 333 59002
AAXX 20184 42971 31994 23602 10164 20132 40149 71021 80001 333 59004 82075
BBXX 46219 20181 99332 71199 46/// ///// 1//// 91828 22200 00139 11405 21003 330// 41404 70027
BBXX 46214 20181 99379 71235 46/// ///// 1//// 91825 22200 00118 11007 21005 331// 41205 70033
BBXX WDA2768 20184 99453 70870 41/98 /3334 00/// 11002 21044 40165 58026 70222 8//// 22243 0//// 2//02 3//// 4//// 5//// 6//// 81019 ICE /////
BBXX WRAH 20183 99338 70215 41598 70919 10190 2//// 40263 56005 70222 871// 22264 00198 20303 306// 40505 5//// 6//// 8//// ICE /////
BBXX WKAU 20184 99326 70792 41498 22402 10220 2017/ 40225 54000 70200 8218/ 22252 00190 20201 318// 40201 5//// 6//// 80190 ICE /////
BBXX WKPN 20184 99130 10431 41998 01528 10260 20186 40150 54000 70200 80000 22235 00290 20604 3//// 4//// 5//// 6//// 80210 ICE /////
BBXX 51204 20181 99213 71581 46/// ///// 1//// 91822 22200 00245 11303 20702 331// 41301 70013
BBXX 51201 20181 99217 71581 46/// ///// 1//// 91812 22200 00241 11304 20803 334// 41302 70019
BBXX 51202 20181 99214 71577 46/// ///// 1//// 91809 22200 00244 10905 20905 308// 41102 70026
BBXX 46238 20181 99334 71195 46/// ///// 1//// 91820 22200 00145 11304 21002 328// 41303 70018
BBXX 46239 20181 99363 71221 46/// ///// 1//// 91821 22200 00134 11506 21003 330// 41505 70031
BBXX 44099 20181 99369 70757 46/// ///// 1//// 91822 22200 00111 11201 21001 308// 41201 70007
BBXX 44022 20181 99409 70737 46/// ///02 10064 21012 40216 91830 22200 00080 333 91203 555 11015 22015
BBXX 44040 20181 99410 70736 46/// /3605 10063 21018 40221 91819 22200 1//00 70001 333 91206 555 11057 22072
BBXX WKPN 20184 99130 10431 41998 01528 10260 20186 40150 54000 70200 80000 22235 00290 20604 3//// 4//// 5//// 6//// 80210 ICE /////
BBXX A8CS2 20183 99244 10365 41498 13110 10260 20246 40155 52015 70200 81400 22273 21002 3//// 4//// 5//// 80250
BBXX DGUG2 20184 99288 70195 41998 00832 10195 20147 40225 56010 70100 80000 22254 04220 20804 307// 41008 80165
BBXX ZDLS1 20183 99599 30044 41396 81921 11007 21020 49734 52030 70222 885// 22243 05019 20101 82011 ICE 66092
BBXX A8AX3 20183 99221 70182 41998 20416 10215 40179 58001 70100 80005 22244 20602
BBXX AMOUK15 20184 99113 50109 46/// ///// 10227 20176 30122 40149 57007 91750
BBXX WHKM 20184 99146 10420 41197 11819 10260 20232 40130 52020 70500 81400 22233 0//// 2//// 3//// 4//// 5//// 6//// 80240 ICE /////
BBXX UHMW 20181 99445 11401 41/97 73303 11020 40165 54000 70172 87/// 22273 00082 20301
BBXX S6OM 20184 99154 11196 41997 03305 10280 20266 40124 56010 7//// 80000 22243 00282 20302 302// 40602 5//// 80270
BBXX VQKZ6 20183 99076 50810 41498 41510 10215 20191 40113 50010 70111 81179 22244 02172 20402 313// 40504 5//// 80200
BBXX ZDLP 20183 99577 50409 41/94 93419 10010 20005 40015 57007 74144 89/// 22283 04014 20101 335// 40502 5//// 80008
BBXX AMOUK20 20184 99229 50431 46/// ///// 10297 20219 30093 40108 57023 91750
BBXX A8CJ2 20184 99008 70808 41698 62510 10265 20237 40115 56005 70222 84364 22284 04254 20501 399// 41003 5//// 80245
BBXX 62141 20183 99493 50591 41697 83225 10125 20116 40002 56005 70322 8/7// 22200 20603 334// 40602 5//// 80120
BBXX SHIP 20181 99112 50780 41998 21904 10230 20177 40120 56010 70100 80009 22274 20201 30000 80195
BBXX 46036 20181 99484 71339 46/// /2506 10081 40328 52009 22200 00085 11409 70046 333 91207
BBXX 44140 20181 99429 70515 46/// /2012 10129 40033 5//// 22200 00067 11107 70033 333 91215
BBXX 9HJB9 20184 99125 70700 41498 60925 10275 2//// 40130 54/// 7//// 82/// 22200 00271 2//// 3//// 4//// 5//// 6//// 8//// ICE /////
BBXX WDE8265 20184 99394 70619 41297 82924 10170 2010/ 40095 57020 71062 8822/ 22224 0//// 20402 329// 40905 5//// 6//// 80130 ICE /////
BBXX WKAU 20184 99326 70792 41498 22402 10220 2017/ 40225 54000 70200 8218/ 22252 00190 20201 318// 40201 5//// 6//// 80190 ICE /////
BBXX 44258 20181 99445 70634 46/// /3112 10001 40097 52020 22200 00064 10903 70015 333 91214
BBXX 42363 20181 99282 70892 46/// /1908 10239 20183 40163 91830 333 91209
BBXX 41112 20181 99307 70813 46/// ///// 1//// 91821 22200 00163 11002 21002 308// 41101 70009
BBXX 41113 20181 99284 70805 46/// ///// 1//// 91821 22200 00212 10502 20502 308// 41101 70012
BBXX 42364 20181 99291 70881 46/// /1608 10228 20200 40166 91830
BBXX 42362 20181 99278 70907 46/// /1807 10233 20206 40156 91830
BBXX 42099 20181 99273 70842 46/// ///// 1//// 91827 22200 00231 10704 20704 70021
BBXX 41009 20181 99285 70802 46/// /1408 10228 20161 40221 91820 22200 00246 11003 20502 300// 41002 70016 333 91210 555 11086 22090
BBXX 41010 20181 99289 70785 46/// /1306 10218 40230 91820 22200 00237 11003 20502 300// 41003 70017 333 91208 555 11065 22068
BBXX 42361 20181 99276 70925 46/// ///08 10239 20206 40132 58017 91830 555 11062 22066
BBXX 42013 20181 99272 70829 46/// ///// 1//// 40205 91740 22200 00198
BBXX 46225 20181 99329 71174 46/// ///// 1//// 91814 22200 00145 11502 20701 327// 41502 70010
BBXX 46213 20181 99403 71247 46/// ///// 1//// 91824 22200 00099 10907 20906 329// 41304 70034
BBXX 46229 20181 99438 71246 46/// ///// 1//// 91821 22200 00099 11505 21002 329// 41505 70027
BBXX 46215 20181 99352 71209 46/// ///// 1//// 91808 22200 00157 11304 21002 327// 41303 70019
BBXX 46246 20181 99500 71451 46/// ///// 1//// 91829 22200 00073 11207 21005 325// 41205 70036
BBXX 46236 20181 99368 71219 46/// ///// 1//// 91820 22200 00125 11404 21003 328// 41403 70021
BBXX 46243 20181 99462 71241 46/// ///// 1//// 91829 22200 00080 11505 21003 326// 41504 70024
BBXX 46246 20181 99500 71451 46/// ///// 1//// 91759 22200 00073 11207 21005 325// 41204 70034
BBXX 46146 20181 99493 71237 46/// /3008 10069 40261 52004 22200 00066 10201 70003 333 91210
BBXX 46232 20181 99325 71174 46/// ///// 1//// 91808 22200 00152 11403 20702 327// 41402 70015
BBXX 46247 20181 99378 71228 46/// ///// 1//// 91821 22200 00111 11404 21003 328// 41403 70022
BBXX 44060 20181 99413 70721 46/// ///03 10053 40211 91830 22200 00101 333 91205 555 11036 22036
BBXX 46004 20181 99509 71361 46/// /2911 10071 40292 52015 22200 00074 11209 70047 333 91213
BBXX 44039 20181 99411 70727 46/// /3305 10055 21049 40222 91800 22200 00093 10201 70004 333 91207
BBXX 44040 20181 99410 70736 46/// /3605 10063 21018 40221 91815 22200 1//00 70001 333 91206 555 11057 22072
BBXX 44039 20181 99411 70727 46/// /3204 10055 21052 40224 91753 22200 00093 10201 70004 333 91207
BBXX 46184 20181 99539 71389 46/// /2909 10060 40269 52044 22200 00064 11210 70048 333 91211
BBXX 46181 20181 99538 71288 46/// /2111 10052 40228 52027 22200 00066 10301 70003 333 91214
BBXX 44057 20181 99395 70761 46/// /1002 10078 40209 57011 91800 22200 00054 333 91202
BBXX 44058 20181 99376 70763 46/// /1601 1//// 91820 333 91202
BBXX 44058 20181 99376 70763 46/// /1601 10095 40210 56016 91800 22200 00090 1//00 70001 333 91202
BBXX 44057 20181 99395 70761 46/// /0903 1//// 91820 333 91203
BBXX 44058 20181 99376 70763 46/// /1501 1//// 40210 91810 333 91202
BBXX 44059 20181 99368 70763 46/// /2702 1//// 91820 333 91203
BBXX 44059 20181 99368 70763 46/// /2502 1//// 40205 91810 333 91203
BBXX 44059 20181 99368 70763 46/// /2502 10130 40207 58017 91800 22200 00101 333 91203
BBXX 44057 20181 99395 70761 46/// /0902 1//// 40207 91810 333 91203
BBXX 46092 20181 99368 71220 46/// /1107 10085 40188 52011 91757 22200 00125 555 11077 22077
BBXX 44043 20181 99392 70764 46/// /3502 10101 40201 58014 91800 22200 00067 1//00 70001 333 91202
BBXX 44043 20181 99392 70764 46/// /3602 1//// 40199 91810 333 91202
BBXX 44042 20181 99380 70763 46/// /1201 1//// 40211 91810 333 91201
BBXX 44043 20181 99392 70764 46/// /0202 1//// 91820 333 91203
BBXX 44042 20181 99380 70763 46/// /1201 10103 40210 58016 91800 22200 00093 1//00 70001 333 91201
BBXX 44062 20181 99386 70764 46/// /1702 1//// 40191 91810 22200 00086 333 91202
BBXX 44063 20181 99390 70764 46/// /0000 1//// 91820 333 91200
BBXX 44042 20181 99380 70763 46/// /0000 1//// 91820 333 91201
BBXX 44063 20181 99390 70764 46/// /0000 10099 40215 57021 91800 22200 00079 1//00 70001 333 91200
BBXX 44041 20181 99372 70768 46/// /3402 1//// 91820 333 91202
BBXX 44062 20181 99386 70764 46/// /1702 10088 40191 58012 91800 22200 00086 1//00 70001 333 91203
BBXX 44063 20181 99390 70764 46/// /0000 1//// 40217 91810 333 91200
BBXX 44041 20181 99372 70768 46/// /3402 10109 40235 58015 91800 22200 00088 1//00 70000 333 91202
BBXX 44062 20181 99386 70764 46/// /1702 1//// 91820 22200 00086 333 91203
BBXX 44041 20181 99372 70768 46/// /3402 1//// 40232 91810 333 91202
BBXX VREX7 20183 99229 70950 41298 31417 10260 20231 40130 55010 70000 83141 22264 04240 20101 31210 40302 50302 80240
BBXX PJKV 20183 99307 70382 41298 61824 10220 20185 40168 58026 76022 8/7// 22254 20604 311// 41003 5//// 80198
BBXX ZCDG4 20184 99215 70764 41598 52331 10238 20175 40191 57017 70122 82568 22234 00290 20203 309// 40605 5////
BBXX 46132 20181 99497 71279 46/// /3006 10085 40289 52011 22200 00089 11513 70066 333 91209
BBXX 46205 20181 99542 71343 46/// /2808 10062 40251 52028 22200 00077 11410 70050 333 91210
BBXX 46206 20181 99488 71260 46/// /3109 10088 40273 52005 22200 00091 11410 70048 333 91212
BBXX 46185 20181 99524 71298 46/// /2808 10077 40265 52022 22200 00075 11405 70023 333 91209
BBXX A8NQ5 20183 99484 70470 41396 62923 10035 21001 49860 50030 76066 86754 22254 04070 20905 80020
BBXX 44022 20181 99409 70737 46/// ///02 10064 21011 40215 91800 22200 00078 333 91204 555 11021 22021
BBXX 44060 20181 99413 70721 46/// ///04 10053 40209 91800 22200 00101 333 91206 555 11046 22046
BBXX 41036 20181 99342 70770 46/// ///// 10182 20118 40230 91820 22200 00194
BBXX 46087 20181 99485 71247 46/// /3007 10089 20075 40266 91820 22200 00078 333 91209 555 11076 22084 31813 43009 61819 298070 298061 299058 303057 302056 300048
BBXX 46088 20181 99483 71232 46/// /2708 10084 40256 91820 22200 00079 10201 20301 70004 333 91210 555 11087 22094 31812 42610 61819 266081 264076 268070 264070 261073 259064
BBXX C6VG7 20184 99220 70746 41598 60918 10238 2011/ 40188 57003 7//21 84241 22234 00270 20504 311// 4//// 5//// 6//// 80163 ICE /////
BBXX WABS 20184 99449 71258 41697 83619 10100 20089 40285 55000 70384 886// 22283 0//// 20402 330// 41309 5//// 6///0 80094 ICE
BBXX V7HC6 20184 99273 70907 41797 31714 10280 20253 40144 56006 70200 81489 22200 00226 20301 317// 40502 5//// 6//// 80260 ICE /////
BBXX WABS 20184 99449 71258 41697 83619 10100 20089 40285 55000 70384 886// 22283 0//// 20402 330// 41309 5//// 6///0 80094 ICE 0
BBXX WDA2768 20184 99453 70870 41/98 /3334 00/// 11002 21044 40165 58026 70222 8//// 22243 0//// 2//02 3//// 4//// 5//// 6//// 81019 ICE /////
BBXX MGRX9 20184 99046 10806 41497 40626 10280 20237 40083 57005 7//// 8227/ 22233 00273 20406 3//// 4//// 5//// 80250
BBXX VNAH 20184 99333 31157 46/// /1804 10163 20108 30102 40126 57001 22200 04217 85131
BBXX VROB 20184 99391 31461 46/// /0911 10164 20134 30155 40181 57009 22274 04172 85146
BBXX MRWF2 20184 99070 31050 41498 63312 10270 2024/ 40095 54000 70322 866// 22274 00299 20401 3//// 4//// 5//// 6//// 80250 ICE /////
BBXX ZSAF 20184 99678 50036 41599 82510 11019 21059 49809 57014 70322 885// 22232 05015 2//// 30000 4//// 5//// ICE 750/7
BBXX A8AF6 20183 99313 70148 41598 50918 10180 20121 40280 54000 70311 855// 22243 02190 20202 306// 40604 80145
BBXX WRAH 20183 99338 70215 41598 70919 10190 2//// 40263 56005 70222 871// 22264 00198 20303 306// 40505 5//// 6//// 8//// ICE /////
BBXX KABL 20184 99375 10041 41598 32632 10160 2011/ 40230 57010 70200 8318/ 22214 00177 20202 326// 40404 5//// 6//// 80130 ICE /////
BBXX UFJN 20181 99708 10456 41/98 41611 11025 40017 54000 70020 84/// 22200 0//// 20301
BBXX UCAD 20181 99545 10034 41/97 93111 10080 40117 52035 70221 88/// 22243 00090 20404
BBXX BAREU62 20184 99370 10197 46/// ///// 40160 52006 22224
BBXX BAREU12 20184 99555 10064 46/// ///// 40053 52016 22232
BBXX WKAE 20184 99488 70132 41498 82827 10130 20112 40255 52010 70122 884// 22254 00130 2//// 3//// 4//// 5//// 6//// 80120 ICE /////
AAXX 20184 78792 32460 39902 10302 20203 30077 40090 57026 83260 333 010// 10313 20230 30/// 59016 83818
AAXX 20184 78793 32370 82506 10298 20226 30063 40094 57019 8324/ 333 10298 20216 30/// 568// 59002 83810 85360
AAXX 20184 78795 31465 50906 10308 20234 30001 57011 71522 85200 333 10312 20222 30/// 560// 57812 59020 85820
AAXX 20184 78792 32460 39902 10302 20203 30077 40090 57026 83260 333 010// 10313 20230 30/// 59016 83818
AAXX 20184 78793 32370 82506 10298 20226 30063 40094 57019 8324/ 333 10298 20216 30/// 568// 59002 83810 85360
AAXX 20184 78795 31465 50906 10308 20234 30001 57011 71522 85200 333 10312 20222 30/// 560// 57812 59020 85820
AAXX 20184 91723 NIL
AAXX 20184 91964 NIL
AAXX 20184 63729 12480 40000 10218 20200 38868 48/// 69902 8193/ 333 0//19 10265 55300 58000 81619 81921 84359
AAXX 20184 63756 32580 60000 10222 20197 38869 48505 8293/ 333 10260 58004 82820 81921 86359
AAXX 20184 63791 32580 20915 10270 20137 39110 48501 82500 333 10346 55300 58005 82626
AAXX 20184 63801 31580 70000 10238 20223 39202 48527 71322 8191/ 333 10294 58003 81821 81922 87459
AAXX 20184 63832 32480 70000 10202 20189 38834 48505 8293/ 333 10243 55300 59018 82818 81919 87358
AAXX 20184 63862 01480 63005 10213 20187 38902 48514 69962 71396 83973 333 0//16 10266 58013 69947 83819 81922 85357
AAXX 20184 63866 32580 20000 10247 20215 39511 48/// 82500 333 10294 58003 82625
AAXX 20184 63870 32480 40000 10266 20258 30090 40108 82230 333 10310 55300 58007 82816 84358
AAXX 20184 63881 12480 80000 10177 20156 38208 48/// 60032 8597/ 333 10216 58004 85618 81920 88357
AAXX 20184 63887 12480 50608 10201 20178 38594 48514 60162 81970 333 0//94 58010 81618 81919 85358
AAXX 20184 63894 12580 20000 10256 20252 30052 40112 60052 333 0//18 10307 55300 58001 82820
AAXX 20184 63932 01470 80000 10160 20155 38314 48513 60512 79522 8292/ 333 0//62 10231 59003 60466 82619 81921 88458
AAXX 20184 63962 11580 71105 10220 20195 38951 48510 60032 71792 8592/ 333 10262 59004 85620 81923 87458
AAXX 20184 63971 12580 71805 10242 20239 39980 40110 60102 8293/ 333 0//14 10307 55300 58001 82820 81921 87358
AAXX 20184 63733 NIL
AAXX 20184 63733 32580 40000 10221 20190 38861 48501 81930 333 10267 58001 81922 84359
AAXX 20184 63729 12480 40000 10218 20200 38868 48/// 69902 8193/ 333 0//19 10265 55300 58000 81619 81921 84359
AAXX 20184 63756 32580 60000 10222 20197 38869 48505 8293/ 333 10260 58004 82820 81921 86359
AAXX 20184 63791 32580 20915 10270 20137 39110 48501 82500 333 10346 55300 58005 82626
AAXX 20184 63801 31580 70000 10238 20223 39202 48527 71322 8191/ 333 10294 58003 81821 81922 87459
AAXX 20184 63832 32480 70000 10202 20189 38834 48505 8293/ 333 10243 55300 59018 82818 81919 87358
AAXX 20184 63862 01480 63005 10213 20187 38902 48514 69962 71396 83973 333 0//16 10266 58013 69947 83819 81922 85357
AAXX 20184 63866 32580 20000 10247 20215 39511 48/// 82500 333 10294 58003 82625
AAXX 20184 63870 32480 40000 10266 20258 30090 40108 82230 333 10310 55300 58007 82816 84358
AAXX 20184 63881 12480 80000 10177 20156 38208 48/// 60032 8597/ 333 10216 58004 85618 81920 88357
AAXX 20184 63887 12480 50608 10201 20178 38594 48514 60162 81970 333 0//94 58010 81618 81919 85358
AAXX 20184 63894 12580 20000 10256 20252 30052 40112 60052 333 0//18 10307 55300 58001 82820
AAXX 20184 63932 01470 80000 10160 20155 38314 48513 60512 79522 8292/ 333 0//62 10231 59003 60466 82619 81921 88458
AAXX 20184 63962 11580 71105 10220 20195 38951 48510 60032 71792 8592/ 333 10262 59004 85620 81923 87458
AAXX 20184 63971 12580 71805 10242 20239 39980 40110 60102 8293/ 333 0//14 10307 55300 58001 82820 81921 87358
AAXX 20184 63733 NIL
BBXX KS007 20184 99267 70801 43/// ///// 10233 40172 22200
BBXX KS098 20184 99441 71244 43/// /1403 10073 40283 22241 06000
BBXX KS094 20184 99120 70618 43/// /0612 10278 40133 22200 06271
BBXX KS089 20174 99512 10016 43/// /3221 10070 22253
BBXX KS088 20184 99267 70801 43/// /0707 10235 40210 22200 06225
BBXX 7JJA 20184 99359 11414 41698 10212 00 10070 20000 40220 57010 70200 81100 9//// 22200 0 2//01 3 4 5 6//// 80040 ICE /////
BBXX UHMW 20181 99445 11401 41/97 73303 11020 40165 54000 70172 87/// 22273 00082 20301
AAXX 20180 44256 32999 02705 11177 21218 39350 40267 53015
AAXX 20180 44313 32999 42709 11188 21229 39367 40271 54000 84080
AAXX 20180 44314 32998 33207 11154 21196 39135 40350 52006 80004
AAXX 20181 38599 11997 02404 11108 21136 39901 40465 56012 69930 333 11074
AAXX 20180 44259 32997 02804 11182 21235 39323 40289 51018
AAXX 20181 31152 42997 00000 11400 21434 39815 40282 58002
AAXX 20181 31163 NIL
AAXX 20181 31285 42999 00000 11275 21307 30143 40131 52001
AAXX 20181 31561 42999 02701 11290 21307 30212 40242 52001
AAXX 20181 31683 42999 00000 11256 21268 30171 40253 52009
AAXX 20181 32010 42998 22604 11225 21250 30154 40208 53009 80001 333 91005 91106
BBXX A8ZS7 20184 99361 30077 41498 42920 10190 20142 40135 57010 70222 82660 22264 04150 20603 322// 40805 80160
BBXX A8UA9 20184 99214 70181 41/98 /0214 10247 20193 40175 57005 70200 8///1 22243 20502 303// 40903 80210
BBXX ELWO6 20183 99401 70110 41197 79900 10170 40315 54000 70322 876// 22284 00166 20000 335// 41601
BBXX DAJT 20184 99194 30604 41397 70915 10250 20229 40100 52010 75852 8/71/ 22254 04260 80235
BBXX A8YJ9 20184 99145 50367 41698 31102 10271 20213 40131 53006 70200 834// 22244 04260 29901 80230
BBXX A8RV8 20184 99083 11088 41598 40318 10250 20236 40080 56/// 702//
BBXX A8RU5 20184 99014 11064 41/97 /3322 10250 20236 40065 58015 76062 22254 80240
BBXX A8CB7 20183 99190 30604 41397 60921 10260 20246 40140 51020 70311 86245 22254 06270 21005 80250
AAXX 20181 40001 32970 03602 10043 21001 40220 53003 333 10176
AAXX 20181 40007 32960 00602 10090 20048 40217 50002 333 10140
AAXX 20181 40025 32560 63303 10148 20083 40160 52006 81030 333 10213 81630 86360
AAXX 20181 40045 32970 00000 10052 20012 40233 53003 333 10160
AAXX 20181 40061 32970 00201 10098 20007 40219 52005 333 10163
AAXX 20181 40080 32965 00304 10116 21023 39481 40199 51005 333 10184
AAXX 20181 40087 NIL
AAXX 20181 40095 NIL
AAXX 20181 40009 32965 00000 10062 20021 40207 53003 333 10167
AAXX 20181 40016 NIL
AAXX 20181 40022 32965 40603 10152 20066 40157 51005 84050 222// 20000 333 10192 85360
AAXX 20181 40030 31/02 90000 10056 20051 40214 51007 74040 89/// 333 10112 89/02
AAXX 20181 40039 32970 00000 10079 20045 40215 51006 333 10143
AAXX 20181 40066 32970 00604 10124 20047 40163 52004 333 10152
AAXX 20181 40072 32970 00000 10088 20022 40242 53006 333 10170
AAXX 20181 40083 32970 02001 10078 20004 48513 51003 333 10150
AAXX 20181 40001 32970 03602 10043 21001 40220 53003 333 10176
AAXX 20181 40007 32960 00602 10090 20048 40217 50002 333 10140
AAXX 20181 40025 32560 63303 10148 20083 40160 52006 81030 333 10213 81630 86360
AAXX 20181 40045 32970 00000 10052 20012 40233 53003 333 10160
AAXX 20181 40061 32970 00201 10098 20007 40219 52005 333 10163
AAXX 20181 40080 32965 00304 10116 21023 39481 40199 51005 333 10184
AAXX 20181 40087 NIL
AAXX 20181 40095 NIL
AAXX 20184 71963 16/// /3405 11318 21349 39643 40064 52020 60001 333 11226 21327 7////
AAXX 20184 71592 16/// /0710 11220 21270 39952 49965 57001 60001 333 11208 21277 70000
AAXX 20184 71923 16/// ///07 11271 21294 39564 40020 51029 60001 333 11155 21272 70000
AAXX 20184 71761 16/// ///// 10031 21029 60001 333 10040 21035 70000
AAXX 20184 71490 16/// /2813 11346 21379 39736 40079 53006 60001 333 11308 21352 70000
BBXX 44138 20181 99443 70536 46/// /2714 10067 49982 57034 22200 00097 11006 70031 333 91218
BBXX 44138 20181 99443 70536 46/// /2714 10067 49982 57034 22200 00097 11006 70031 333 91218
AAXX 20184 68817 36/// /1717 10195 20139 30103 40115 52005 333 10285 20195 91033 555 91011
AAXX 20180 44277 329// 01803 11217 21249 37917 40642 52001
AAXX 20180 44259 32997 02804 11182 21235 39323 40289 51018
BBXX 46004 20181 99509 71361 46/// /2911 10071 40292 52015 22200 00074 11209 70047 333 91213
BBXX 46036 20181 99484 71339 46/// /2506 10081 40328 52009 22200 00085 11409 70046 333 91207
BBXX 46181 20181 99538 71288 46/// /2111 10052 40228 52027 22200 00066 10301 70003 333 91214
BBXX 46183 20181 99536 71311 46/// /2709 10059 40246 52026 22200 00077 10403 70015 333 91210
BBXX 46185 20181 99524 71298 46/// /2808 10077 40265 52022 22200 00075 11405 70023 333 91209
BBXX 46204 20181 99514 71288 46/// /2410 10081 40270 52016 22200 00084 11611 70053 333 91213
BBXX 46205 20181 99542 71343 46/// /2808 10062 40251 52028 22200 00077 11410 70050 333 91210
BBXX 46206 20181 99488 71260 46/// /3109 10088 40273 52005 22200 00091 11410 70048 333 91212
BBXX KQXZ 20184 99508 71366 41898 83029 10089 20020 40250 52010 7//22 84/4/ 22273 0//// 20605 328// 41207 5//// 6//// 80056 ICE /////
BBXX KS098 20184 99441 71244 43/// /1403 10073 40283 22241 06000
BBXX WABS 20184 99449 71258 41697 83619 10100 20089 40285 55000 70384 886// 22283 0//// 20402 330// 41309 5//// 6///0 80094 ICE
AAXX 20181 31587 42999 00000 11279 21291 30043 40205 57014
AAXX 20180 44218 329// 00000 11273 21304 38779 40639 58004
AAXX 20180 44265 329// 00000 11284 21308 39036 40640 56013
AAXX 20180 44256 32999 02705 11177 21218 39350 40267 53015
AAXX 20180 44313 32999 42709 11188 21229 39367 40271 54000 84080
AAXX 20180 44314 32998 33207 11154 21196 39135 40350 52006 80004
BBXX A8QJ7 20184 99132 70232 41698 30811 10255 20193 40129 58004 7//00 83400 22213 20701 3//// 4//// 5//// 80215
AAXX 2018/ 89872 46/// ///// 11073 39716 4//// 5//// 91810
AAXX 2018/ 89869 46/// ///// 11114 39701 4//// 5//// 91820
AAXX 2018/ 89866 46/// ///// 11016 39660 4//// 5//// 91810
AAXX 2018/ 89329 46/// ///// 11053 38701 4//// 5//// 91820
AAXX 2018/ 89799 46/// ///// 11244 4//// 5//// 91820
AAXX 2018/ 89327 46/// ///// 11010 39601 4//// 5//// 91810
AAXX 2018/ 89314 46/// ///// 11069 38207 4//// 5//// 91810
AAXX 20181 01494 11X06 93601 11035 21035 39986 40053 52004 60002 74544 333 11027 91103
AAXX 20184 89610 46/// /0413 11029 39586 4//// 5//// 333 90700 91116
AAXX 20184 89614 46/// /0714 11075 29098 38894 4//// 5//// 333 90700 91120
AAXX 20184 89807 46/// /1218 11021 29100 39659 4//// 5//// 333 90700 91122
AAXX 20184 94997 46/// ///// 10019 39900 49915 5////
AAXX 20184 94290 46/// /1317 10272 30054 40063 56008 91824
AAXX 20184 94290 46/// /1317 10272 30054 40063 56008 91824
AAXX 20184 89610 46/// /0413 11029 39586 4//// 5//// 333 90700 91116
AAXX 20184 89614 46/// /0714 11075 29098 38894 4//// 5//// 333 90700 91120
AAXX 20184 89807 46/// /1218 11021 29100 39659 4//// 5//// 333 90700 91122
AAXX 20184 94997 46/// ///// 10019 39900 49915 5////
AAXX 20184 83766 32597 60502 10350 20143 39463 40100 5//// 86200
AAXX 20184 83836 32497 22706 10309 20087 39131 40087 56020 82100
AAXX 20184 83881 31496 41807 10360 20087 39794 40068 57019 70540 84200
AAXX 20184 83980 31596 12306 10330 20172 39788 40058 57011 70500 81100
AAXX 20184 83997 32597 21404 10255 20199 30071 40114 51001 81101
AAXX 20184 82106 32698 60504 10315 20245 3//// 4//// 84204 333 5////
AAXX 20184 82113 32596 70506 10328 20240 3//// 4//// 85360 333 5////
AAXX 20184 82212 32697 62704 10318 20252 30018 40099 88432 333 59008
AAXX 20184 82336 32598 50502 10330 20241 3//// 4//// 83203 333 5////
AAXX 20184 82425 21192 80906 10260 20242 3//// 4//// 72106 88/// 333 5//// 60021
AAXX 20184 82533 21497 60000 10256 20238 3//// 4//// 71766 85370 333 5//// 60081
AAXX 20184 82704 32695 80000 10289 20232 39880 40074 885// 333 58009
AAXX 20184 82723 21196 80902 10285 20246 30039 40121 70262 886// 333 58024 60021
AAXX 20184 82042 32198 60504 10323 20258 3//// 4//// 83632 333 5////
AAXX 20184 82240 32596 30000 10339 20227 3//// 4//// 82202 333 5////
AAXX 20184 82317 21693 60000 10266 20241 3//// 4//// 70198 86500 333 5//// 60161
AAXX 20184 82610 32595 60000 10283 20248 3//// 4//// 84320 333 5////
AAXX 20184 82807 32595 63602 10385 20235 3//// 4//// 86600 333 5////
AAXX 20184 83437 32599 70501 10298 20156 39385 40089 84304 333 58013
AAXX 20184 83579 32599 63603 10286 20178 39002 40097 86800 333 58018
AAXX 20184 83592 32597 63605 10254 20209 39455 40133 83240 333 58015
AAXX 20184 94210 35/// /2502 10278 30036 40041 57008
AAXX 20184 94289 46/// /1318 10270 30050 40057 55008 91815
AAXX 20184 94379 46/// /1119 10254 30077 40086 55003 91826
AAXX 20184 89003 46/89 /1001 11067 29067 39018 4//// 5////
AAXX 20184 89507 46/89 /1308 11183 29057 36801 4//// 5////
BBXX A8QJ7 20184 99132 70232 41698 30811 10255 20193 40129 58004 7//00 83400 22213 20701 3//// 4//// 5//// 80215
BBXX PEBT 20183 99504 10005 41597 43220 10100 20020 40190 54000 7//00 845// 22223 02090 20502 329// 40602 5//// 80063
BBXX A8CN8 20180 99574 71699 41296 72307 10010 49940 51010 77272 877// 22263 00050 2//04 323// 4//04 5////
AAXX 20181 55228 32980 02903 11089 21309 35983 52004 333 00052 11027
AAXX 20181 55578 32980 00000 11022 21261 36366 52013 333 00001 10108
AAXX 20181 55664 32980 00000 11109 21285 36013 52002 333 00053 10083
AAXX 20181 55773 32970 00201 11101 21252 36019 52002 333 00052 10062
AAXX 20181 56116 32980 02901 11071 21165 36315 52002 333 05403 10069
AAXX 20181 56137 32980 00000 11058 21192 36765 52002 333 05500 10114
AAXX 20181 56172 32980 00000 11046 21096 37319 52003 333 05451 10121
AAXX 20181 56247 32980 02001 10002 21135 37417 52009 333 05301 10137
AAXX 20181 56312 32680 80000 10015 21070 37095 52002 884// 333 05105 10107
AAXX 20181 56462 32980 03202 11035 21080 37130 52002 333 05201 10130
AAXX 20181 56651 32980 00901 10044 21068 37625 57001 333 05152 10155
AAXX 20181 56691 11250 80203 11007 21011 37772 52002 69911 76664 887// 333 05100 10021 93427
AAXX 20181 56985 32962 01401 10097 20059 38715 40165 57005 333 05151 10163
AAXX 20181 57633 11459 83601 10044 20023 39468 40269 57002 69951 76060 887// 333 05101 10062
AAXX 20181 57902 11430 80402 10049 20049 38646 40222 52004 69941 76066 887// 333 00053 10079
AAXX 20181 32509 41998 03208 11138 21245 30030 40066 52010 73630 333 91012 91114
BBXX SHIP 20184 99128 31217 41/97 32205 10292 20284 40060 56006 71711 83/// 22223 04306 11001 80286
AAXX 20181 55279 32980 02208 11049 21355 35682 52004 333 05110 10029
AAXX 20181 55472 32980 02903 11070 21317 35724 52007 333 05106 10037
AAXX 20181 55696 32980 00000 11070 21094 36351 52012 333 00051 10125
AAXX 20181 56079 32980 00406 11060 21136 36654 54000 333 05204 10075
AAXX 20181 56106 32980 02901 11105 21255 36182 52005 333 05400 10084
AAXX 20181 56257 32980 00901 11029 21181 36259 57001 333 05306 10104
AAXX 20181 56374 32580 80903 11029 21051 37423 52001 884// 333 05100 10030
AAXX 20181 56385 31/00 90000 11073 21076 37005 52004 74944 333 05151 11035
AAXX 20181 56954 32961 00000 10090 20090 40169 57001 333 05151 10243
AAXX 20181 56966 32765 11105 10165 20097 40147 52003 81400 333 05100 10262
AAXX 20181 57237 11958 81801 10064 20028 40260 52005 69901 71060 8807/ 333 10090
AAXX 20181 57306 31950 82901 10068 20059 40266 52002 71000 8807/ 333 10087
AAXX 20181 57604 11730 83602 10074 20065 40259 52007 69901 76060 885// 333 10086
AAXX 20181 57707 11458 80000 10022 20019 38516 52003 69971 76066 887// 333 05201 10040
AAXX 20181 57832 32762 80203 10043 20022 39500 40259 57003 885// 333 05151 10051
BBXX SHIP 20184 99128 31217 41/97 32205 10292 20284 40060 56006 71711 83/// 22223 04306 11001 80286
AAXX 20181 78458 32566 70805 10264 20208 40194 57024 86804 333 10272 20208 31/// 56200 58000 86622
AAXX 20181 78460 31460 71205 10253 20189 40183 57023 70544 85201 333 10264 20177 30/// 56200 59007 85820 83080
AAXX 20181 78467 21466 71306 10232 20212 40185 57001 70182 87200 333 10260 20186 31/// 56100 58012 60026 87815
AAXX 20181 78479 21458 80708 10248 20220 40161 57019 71666 8487/ 333 10254 20205 31/// 56100 58003 60027 84618 88457
AAXX 20181 78482 32566 61305 10292 20207 40178 57033 82256 333 10302 20175 30/// 56000 58003 82822 84360 86280
AAXX 20181 78485 21558 70405 10258 20195 40175 57027 76062 86570 333 10270 20182 31/// 56100 58007 69900 86620 87457
AAXX 20181 78486 21558 53602 10262 20216 40156 57026 76062 8652/ 333 10271 20214 31/// 56209 58002 60010 86620 88457
AAXX 20181 78488 21466 70405 10230 20227 40178 57022 72166 85820 333 10257 20157 31/// 56000 58002 60025 85616 84457
AAXX 20181 78458 32566 70805 10264 20208 40194 57024 86804 333 10272 20208 31/// 56200 58000 86622
AAXX 20181 78460 31460 71205 10253 20189 40183 57023 70544 85201 333 10264 20177 30/// 56200 59007 85820 83080
AAXX 20181 78467 21466 71306 10232 20212 40185 57001 70182 87200 333 10260 20186 31/// 56100 58012 60026 87815
AAXX 20181 78479 21458 80708 10248 20220 40161 57019 71666 8487/ 333 10254 20205 31/// 56100 58003 60027 84618 88457
AAXX 20181 78482 32566 61305 10292 20207 40178 57033 82256 333 10302 20175 30/// 56000 58003 82822 84360 86280
AAXX 20181 78485 21558 70405 10258 20195 40175 57027 76062 86570 333 10270 20182 31/// 56100 58007 69900 86620 87457
AAXX 20181 78486 21558 53602 10262 20216 40156 57026 76062 8652/ 333 10271 20214 31/// 56209 58002 60010 86620 88457
AAXX 20181 78488 21466 70405 10230 20227 40178 57022 72166 85820 333 10257 20157 31/// 56000 58002 60025 85616 84457
AAXX 2018/ 48969 NIL
AAXX 2018/ 48962 NIL
AAXX 2018/ 48990 NIL
AAXX 2018/ 48986 NIL
AAXX 2018/ 48995 NIL
AAXX 2018/ 48967 NIL
AAXX 2018/ 48992 NIL
AAXX 2018/ 48965 NIL
AAXX 2018/ 48985 NIL
AAXX 2018/ 48970 NIL
AAXX 2018/ 48991 NIL
AAXX 2018/ 48964 NIL
AAXX 2018/ 48997 NIL
AAXX 2018/ 48968 NIL
AAXX 2018/ 48973 NIL
AAXX 2018/ 48966 NIL
AAXX 2018/ 48983 NIL
AAXX 2018/ 48972 NIL
AAXX 2018/ 48998 NIL
AAXX 2018/ 48993 NIL
AAXX 2018/ 48971 NIL
AAXX 2018/ 48963 NIL
AAXX 2018/ 48987 NIL
AAXX 2018/ 89327 46/// ///// 11008 39597 4//// 5////
AAXX 2018/ 89869 46/// ///// 11108 39700 4//// 5////
AAXX 2018/ 89329 46/// ///// 11050 38700 4//// 5////
AAXX 20184 71981 16/// /2904 10046 21042 60001 333 10059 20010 70000
AAXX 20184 71982 16/// /2105 10029 21055 60001 333 10082 21038 7////
AAXX 20184 71986 16/// /3505 10032 21019 60001 333 10041 7////
AAXX 20184 71990 46/// /2405 11107 21119 38470 40086 5/024 6///1 333 11094 21128 7//// 555 10010
AAXX 20184 71406 16/// /1307 11042 21073 39915 49925 56015 60001 333 11030 21087 70000
AAXX 20184 71418 46/// /2941 11030 21058 39957 49989 51013 6///1 333 10021 21042 7////
AAXX 20184 71048 16/// /3112 10046 21024 60001 333 10053 21058 70000
AAXX 20184 71354 16/// /2920 10043 21034 60001 333 10059 21047 70000
AAXX 20184 71277 46/// /2518 10021 21007 6///1 333 10051 21006 7////
AAXX 20184 71981 16/// /2904 10046 21042 60001 333 10059 20010 70000
AAXX 20184 71982 16/// /2105 10029 21055 60001 333 10082 21038 7////
AAXX 20184 71986 16/// /3505 10032 21019 60001 333 10041 7////
AAXX 20184 71990 46/// /2405 11107 21119 38470 40086 5/024 6///1 333 11094 21128 7//// 555 10010
BBXX 44056 20181 99362 70757 46/// ///// 1//// 91750 22200 00122 11302 21001 308// 41301 70008
AAXX 20184 89657 46/// /2905 11051 20002 49779 51006
AAXX 20181 98836 32460 50000 10259 20242 40068 57016 81231 333 56999 81818 83081
AAXX 20184 82863 32698 40000 10320 20235 39875 40084 83240 333 59013
AAXX 20184 83228 32799 60901 10334 20212 39807 40077 85212 333 59014
AAXX 20184 83368 32798 70000 10270 20222 39736 40099 87200 333 58021
AAXX 20184 83374 32598 62706 10287 20222 39539 40106 86800 333 58015
AAXX 20184 83526 32598 63602 10281 20190 39170 40099 86800 333 58008
AAXX 20184 83599 31997 499// 10310 20284 40067 56009 71011 8363/ 222// 0501 80290
AAXX 20184 83650 42798 50504 10295 20227 40185 57016 7//// 8509/ 222// 02265 20902 80240
AAXX 20184 83925 32099 01700 10262 20217 40082 57010 7000/ 8000/ 222// 20000 80230
AAXX 20184 83970 41697 10708 10250 20192 30090 40094 57010 7010/ 81900 222// 02240 20502 80210
AAXX 20184 83811 32497 42302 10326 20100 39215 40099 58011 84100
AAXX 20184 83844 32597 109// 10353 20117 30074 40081 56013 81100
AAXX 20184 83887 32597 32706 10293 20078 39080 40108 57013 83100
AAXX 20184 83907 32497 42706 10384 20139 39803 40071 58020 84200
AAXX 20184 83914 31596 52709 10318 20105 39340 40086 57010 70510 85200
AAXX 20184 83919 31496 32315 10276 20090 38955 40119 58008 70510 83100
AAXX 20184 83927 32597 52302 10396 20193 39972 40041 57010 85200
AAXX 20184 83936 32497 23206 10388 20139 39954 40071 56012 82100
AAXX 20184 83948 32497 20504 10267 20228 30086 40092 58009 81302
AAXX 20184 83964 31596 22302 10338 20157 39594 40065 57013 70541 82100
AAXX 20184 83995 32997 00908 10270 20203 30079 40082 58010
AAXX 20184 82594 32697 20510 10314 20227 30084 40088 83200 333 58003
AAXX 20184 82780 32598 20901 10385 20172 39836 40081 82100 333 58006
AAXX 20184 82795 32597 31411 10294 20179 39503 40105 83200 333 58006
AAXX 20184 82879 32598 20505 10372 20162 39807 40067 82200 333 58000
AAXX 20184 82893 32598 41408 10290 20178 39196 40084 84200 333 59005
AAXX 20184 83384 32597 62701 10274 20228 39540 40115 85460 333 58004
AAXX 20184 83386 32598 62302 10314 20210 39562 40082 82348 333 58013
AAXX 20184 83388 32497 60270 10302 20202 39422 40079 862// 333 58012
AAXX 20184 83393 32599 60904 10292 20189 39398 40104 82338 333 58015
AAXX 20184 83442 32597 60502 10304 20212 39742 40079 81136 333 59015
AAXX 20184 83479 31598 60904 10277 20218 39323 40113 70152 86300 333 58007
AAXX 20184 83483 32597 80503 10255 20220 39550 40113 887// 333 58020
AAXX 20184 83531 32597 83604 10256 20193 39084 40105 885// 333 58018
AAXX 20184 83538 21497 83601 10211 20189 38708 40100 76065 8372/ 333 58000 60021
AAXX 20184 83574 32794 60502 10314 20210 39550 40140 5//// 86400
AAXX 20184 83582 32597 53604 10290 20196 39340 40098 57006 85200
AAXX 20184 83595 21597 82302 10280 20236 30060 40144 70366 855// 333 58037 60011
AAXX 20184 83692 32699 51402 10278 20179 39083 40092 58010 85700
AAXX 20184 83064 32598 61804 10335 20216 39814 40078 86700 333 59006
AAXX 20184 83235 31698 50000 10302 20229 39428 40089 70392 85200 333 58016
AAXX 20184 83332 31697 70000 10255 20187 39197 40095 70392 85230 333 58005
AAXX 20184 83423 32598 63204 10298 20166 39291 40096 83539 333 58018
BBXX 42360 20181 99267 70905 46/// /1506 10239 91800 22200 00244 10704 70019 333 91208
BBXX 41052 20181 99183 70648 46/// /0509 10254 40154 91830 333 91210
BBXX 41052 20181 99183 70648 46/// /0709 10257 40156 91820 333 91212
BBXX 41052 20181 99183 70648 46/// /0710 10256 40156 91810 333 91212
BBXX 41053 20181 99185 70661 46/// /1008 10234 40164 91830 333 91209
BBXX 41053 20181 99185 70661 46/// /1007 10241 40164 91820 333 91210
BBXX 41053 20181 99185 70661 46/// /0909 10240 40165 91810 333 91211
BBXX 42085 20181 99179 70665 46/// /0909 10269 40149 91830 333 91211
BBXX 42085 20181 99179 70665 46/// /0910 10270 40151 91820 333 91212
BBXX 42085 20181 99179 70665 46/// /0910 10270 40151 91810 333 91211
BBXX 41033 20181 99323 70804 46/// /0302 10172 40232 57017 91800 555 11025 22028
BBXX A8YJ9 20184 99145 50367 41698 31102 10271 20213 40131 53006 70200 834// 22244 04260 29901 80230
BBXX A8QJ7 20184 99132 70232 41698 30811 10255 20193 40129 58004 7//00 83400 22213 20701 3//// 4//// 5//// 80215
BBXX A8CB7 20183 99190 30604 41397 60921 10260 20246 40140 51020 70311 86245 22254 06270 21005 80250
BBXX A8ZS7 20184 99361 30077 41498 42920 10190 20142 40135 57010 70222 82660 22264 04150 20603 322// 40805 80160
BBXX A8UA9 20184 99214 70181 41/98 /0214 10247 20193 40175 57005 70200 8///1 22243 20502 303// 40903 80210
BBXX DAJT 20184 99194 30604 41397 70915 10250 20229 40100 52010 75852 8/71/ 22254 04260 80235
BBXX 44056 20181 99362 70757 46/// ///// 1//// 91750 22200 00122 11302 21001 308// 41301 70008
BBXX A8CN8 20180 99574 71699 41296 72307 10010 49940 51010 77272 877// 22263 00050 2//04 323// 4//04 5////
BBXX 44138 20181 99443 70536 46/// /2714 10067 49982 57034 22200 00097 11006 70031 333 91218
BBXX KGTZ 20184 99566 71470 41697 81930 10044 2002/ 40156 52016 70222 886// 22234 00050 20503 322// 41107 5//// 6//// 80033 ICE /////
BBXX WDB9918 20184 99546 71409 41598 60924 10044 2003/ 40250 52034 70122 831/1 22273 00044 20803 327// 40806 5//// 6//// 80039 ICE /////
BBXX KS098 20184 99441 71244 43/// /1403 10073 40283 22241 06000
BBXX KS007 20184 99267 70801 43/// ///// 10233 40172 22200
BBXX KS094 20184 99120 70618 43/// /0612 10278 40133 22200 06271
BBXX KS088 20184 99267 70801 43/// /0707 10235 40210 22200 06225
BBXX 44040 20181 99410 70736 46/// /3605 10063 21018 40221 91819 22200 1//00 70001 333 91206 555 11057 22072
BBXX 46238 20181 99334 71195 46/// ///// 1//// 91820 22200 00145 11304 21002 328// 41303 70018
BBXX 46239 20181 99363 71221 46/// ///// 1//// 91821 22200 00134 11506 21003 330// 41505 70031
BBXX 44099 20181 99369 70757 46/// ///// 1//// 91822 22200 00111 11201 21001 308// 41201 70007
BBXX 44022 20181 99409 70737 46/// ///02 10064 21012 40216 91830 22200 00080 333 91203 555 11015 22015
BBXX 46214 20181 99379 71235 46/// ///// 1//// 91825 22200 00118 11007 21005 331// 41205 70033
BBXX 46219 20181 99332 71199 46/// ///// 1//// 91828 22200 00139 11405 21003 330// 41404 70027
BBXX SHIP 20184 99128 31217 41/97 32205 10292 20284 40060 56006 71711 83/// 22223 04306 11001 80286
BBXX A8RU5 20184 99014 11064 41/97 /3322 10250 20236 40065 58015 76062 22254 80240
BBXX A8RV8 20184 99083 11088 41598 40318 10250 20236 40080 56/// 702//
BBXX PEBT 20183 99504 10005 41597 43220 10100 20020 40190 54000 7//00 845// 22223 02090 20502 329// 40602 5//// 80063
BBXX ELWO6 20183 99401 70110 41197 79900 10170 40315 54000 70322 876// 22284 00166 20000 335// 41601
BBXX 62169 20183 99614 10014 41/98 32717 10050 20036 40024 52010 70187 83/// 22200 20605 3//// 4//// 5//// 80044
BBXX A8DH2 20183 99373 10112 41498 52921 10142 20078 40189 56008 70211 84628 22234 04180 20506 80110
BBXX TBWUK34 20183 99360 10201 41598 32727 10142 20042 40152 57010 71551 838// 22263 00200 20301 329// 40502 5//// 80096
AAXX 20181 47008 42570 43202 11064 21076 30191 40247 57006 84500
AAXX 20181 47014 42950 40000 11190 21202 39846 40285 58002 84040
AAXX 20181 47016 42970 00000 11194 21220 39381 40288 58006
AAXX 20181 47020 42965 00000 11142 21155 39890 40298 58002
AAXX 20181 47025 42960 03401 11057 21071 30215 40245 57008
AAXX 20181 47035 42970 00000 11054 21098 30244 40253 57009
AAXX 20181 47041 42970 00000 11077 21108 30225 40254 58005
AAXX 20181 47055 42965 02301 11020 21074 30211 40258 57006
AAXX 20181 47058 11560 81401 11029 21049 30215 40264 57013 69901 70272 885//
AAXX 20181 47069 42565 62701 10014 21015 30156 40258 57007 86500
AAXX 20181 47003 11980 00000 11079 21093 30246 40250 57008 69901 70272
AAXX 20181 47005 42980 00000 11173 21192 38590 57004
AAXX 20181 47022 42975 00000 11202 21221 38840 54000
AAXX 20181 47028 42662 71801 11079 21110 30158 40258 57008 87500
AAXX 20181 47031 42970 00000 11186 21205 38937 58006
AAXX 20181 47037 42970 03602 11094 21106 30136 40266 58012
AAXX 20181 47039 42960 00000 11112 21140 30079 40283 57008
AAXX 20181 47046 42969 22301 11062 21089 30214 40238 57011 80002
AAXX 20181 47050 42965 00501 11066 21098 30223 40259 57012
AAXX 20181 47052 11560 80000 11051 21080 39914 40267 57011 69901 77072 8802/
AAXX 20181 47060 11558 80903 11022 21031 30199 40259 57008 60021 71072 885//
AAXX 20181 47061 42980 00000 10011 21061 30213 40258 54000
AAXX 20181 47065 11550 80000 11012 21025 30197 40264 57005 69921 77077 885//
AAXX 20181 47067 41960 80000 11050 21078 30160 40295 57002 71022 8801/
AAXX 20181 47068 11560 60904 11006 21030 30216 40252 57006 69901 77072 86500
AAXX 20181 47070 42570 80000 11018 21040 30176 40266 58018 885//
AAXX 20181 47075 42580 80000 11062 21081 39753 40199 57010 885//
AAXX 20184 47678 15/70 /2907 10105 20016 30036 40225 53005 60001
BBXX MINUK03 2018/ 99549 70010 46/// ///// 10065 40146 52029
BBXX MINUK01 2018/ 99602 70012 46/// ///// 10038 40059 52014
AAXX 20181 45032 36/// /0000 10160 20143 30162 40179 57002
AAXX 20181 45035 36/// /0702 10170 20132 30136 40178 54000
AAXX 20181 45039 36/// /0501 10166 20145 30161 40176 57002
AAXX 20181 45044 36/// /0003 10165 20129 30080 40175 57001
AAXX 20181 45032 36/// /0000 10160 20143 30162 40179 57002
AAXX 20181 45035 36/// /0702 10170 20132 30136 40178 54000
AAXX 20181 45039 36/// /0501 10166 20145 30161 40176 57002
AAXX 20181 45044 36/// /0003 10165 20129 30080 40175 57001
AAXX 20184 89646 46/// /0117 11177 29092 37486 4//// 5////
AAXX 20184 89648 46/// /2308 11306 29072 37117 4//// 5////
AAXX 20184 89659 46/// /2808 11237 29070 37599 4//// 5////
AAXX 20184 89661 46/// /0409 11043 29039 39128 4//// 5////
AAXX 20184 89662 42980 41604 10017 21190 39650 49754 57010 83016 222 ICE 98015 333 21025 83464
AAXX 20184 89666 46/// /1823 11050 29081 39567 4//// 5////
AAXX 20184 71073 16/// /3103 10036 21026 60001 333 10047 21041 70000
AAXX 20184 71974 46/// /1411 11337 21368 30072 40117 53011 6///1 333 11324 21384 7////
AAXX 20184 71399 16/// ///// 10034 21030 60001 333 10034 21057 70000
AAXX 20184 71060 16/// /2406 10028 21086 38559 40113 50005 60001 333 10080 21009 70007
AAXX 20184 71565 16/// /0703 11034 21058 60001 333 10061 21090 70007
AAXX 20184 71567 16/// /2914 10043 21031 60001 333 10059 21043 70000
AAXX 20184 71322 16/// /3619 11278 21304 39959 49972 51036 60001 333 11130 21278 70028
AAXX 20184 71495 16/// /2611 10043 21063 60001 333 10055 20015 70000
AAXX 20184 71793 16/// ///// 10038 21034 60001 333 10038 21063 70000
AAXX 20184 71848 16/// ///// 10021 21032 60001 333 10050 20001 70000
AAXX 20184 71073 16/// /3103 10036 21026 60001 333 10047 21041 70000
AAXX 20184 71974 46/// /1411 11337 21368 30072 40117 53011 6///1 333 11324 21384 7////
BBXX A8UX5 20184 99076 10736 41998 03611 10272 20216 40099 50030 70111 80000 22264 04286 2//// 80234
BBXX ZQDI9 20183 99074 11085 41597 60216 10268 20247 40082 54000 70122 8361/ 22212 00258 20402 80253
BBXX VQIB9 20184 99022 10894 41/98 /0407 10270 20241 40094 54000 70200 8//// 22254 00/// 2//// 80250
BBXX VQOG5 20184 99062 10937 41/98 20616 10270 20244 40087 57009 70111 8//// 22263 00282 2//// 80252
BBXX VRDN3 20184 99083 10764 41/98 /0410 10270 20260 40110 54000 70221 8//// 22274 00/// 2//// 80230
BBXX AUYK 20184 99183 11182 44197 41030 10260 20247 4//// 54000 70112 84700 22212 00267 29902
BBXX DDZF2 20184 99095 11098 41397 80328 10265 20230 40090 53005 76022 8/777 22214 00260 20806 303// 40804 80240
BBXX A8HJ8 20183 99012 11034 41/96 /3111 10266 20246 40082 53002 70222 8//// 22200 00/// 20502 80251
BBXX DDGK2 20184 99198 11141 41397 70422 10205 20190 40140 54000 70222 8577/ 22283 00240 2//// 80195
BBXX 44100 20181 99363 70756 46/// ///// 1//// 91822 22200 00119 11202 21001 307// 41202 70010
AAXX 20181 89063 41/95 92302 10011 20011 39919 49930 52008 77075 333 44117
BBXX 46241 20181 99330 71173 46/// ///// 1//// 91811 22200 00143 11502 20701 326// 41501 70008
AAXX 20184 97270 31450 40000 10260 20245 30061 40066 56008 70500 82101 333 56000 82815
BBXX 41110 20181 99341 70777 46/// ///// 1//// 91821 22200 00143 11101 21001 310// 41101 70006
AAXX 20184 42895 31996 03602 10140 20066 40151 70500 333 59004
BBXX 46216 20181 99343 71198 46/// ///// 1//// 91827 22200 00148 11303 20802 326// 41302 70014
BBXX 46223 20181 99335 71178 46/// ///// 1//// 91830 22200 00151 11402 20801 328// 41402 70011
BBXX 46231 20181 99327 71174 46/// ///// 1//// 91824 22200 00150 11403 21002 328// 41402 70014
BBXX 46222 20181 99336 71183 46/// ///// 1//// 91826 22200 00151 11502 21001 327// 41502 70010
BBXX 46242 20181 99332 71174 46/// ///// 1//// 91828 22200 00144 11401 20701 323// 41401 70006
BBXX AMOUK05 20184 99537 70003 46/// ///// 10048 20024 30114 40150 52017 91750
BBXX 63106 20184 99610 10017 46/// /3111 10034 40027 52013 22200
BBXX 63105 20184 99610 10017 47598 ///// 10052 20010 40026 52013 700// 22200
BBXX 63110 20183 99595 10015 41/98 /2918 10061 40042 700// 8//// 22200 10504 70020
BBXX 62107 20184 99501 70061 46/// /2520 10109 20087 40221 58001 22200 00117 10703 70014
BBXX 62103 20184 99499 70029 46/99 /2919 10109 20064 40216 52012 22200 00122 10702 70012
AAXX 20184 16021 12965 03408 11088 21186 37876 48412 53004 60002 333 11060 43026 92842
AAXX 20184 78764 31560 50710 10233 20159 39018 40144 57012 71510 85500 333 10243 20177 30/// 562// 59017 85625
AAXX 20184 78764 31560 50710 10233 20159 39018 40144 57012 71510 85500 333 10243 20177 30/// 562// 59017 85625
AAXX 20184 78764 31560 50710 10233 20159 39018 40144 57012 71510 85500 333 10243 20177 30/// 562// 59017 85625
BBXX VRZK9 20184 99127 10472 41798 11302 10240 20226 40170 50005 70200 8//// 22264 00253 2//// 3//// 4//// 80230
BBXX VRZK9 20184 99127 10472 41798 11302 10240 20226 40170 50005 70200 8//// 22264 00253 2//// 3//// 4//// 80230
BBXX 46221 20181 99339 71186 46/// ///// 1//// 91815 22200 00150 11302 21001 326// 41301 70009
AAXX 20184 71383 16/// ///// 11167 21223 39526 40154 58009 60001 333 11133 21192 70008
AAXX 20184 71051 16/// ///// 10018 21020 60001 333 10030 21097 70000
AAXX 20184 71057 16/// ///// 10051 21043 60001 333 10061 21042 70000
AAXX 20184 71065 16/// ///// 10047 21034 60001 333 10078 21034 70000
AAXX 20184 71070 16/// ///// 10051 21016 60001 333 10054 20001 70000
AAXX 20184 71089 16/// ///// 10043 21026 60001 333 10062 21037 70000
AAXX 20184 71789 16/// ///// 10044 21045 60001 333 10046 20025 70000
AAXX 20184 71791 16/// /2922 10055 21035 60001 333 10064 21037 70000
AAXX 20184 71794 16/// ///// 10037 21035 60001 333 10060 21041 70000
AAXX 20184 71795 16/// ///// 10035 21020 60001 333 10049 20017 70000
AAXX 20184 71796 16/// ///// 10056 21042 60001 333 10058 21050 70000
AAXX 20184 71797 16/// ///// 10046 21025 60001 333 10050 21041 70000
AAXX 20184 71102 16/// ///// 10047 21029 60001 333 10050 21050 70000
AAXX 20184 71105 16/// ///// 10029 21018 60001 333 10041 21006 70000
AAXX 20184 71502 16/// /1805 11257 21278 30054 40071 53011 60001 333 11243 21290 70000
AAXX 20184 71509 16/// /2619 10057 21037 60001 333 10072 20029 70000
AAXX 20184 71517 16/// /2723 10048 21041 60001 333 10058 20026 70000
AAXX 20184 71518 16/// /2407 10035 21016 60001 333 10066 21028 70000
AAXX 20184 71519 16/// /2607 10051 21019 60001 333 10057 20000 70000
AAXX 20184 71520 16/// /2408 11179 21211 39444 40138 58009 60001 333 11160 21233 70000
AAXX 20184 71521 16/// ///// 11173 21222 60001 333 11125 21199 70012
AAXX 20184 71523 16/// ///// 11144 21187 39783 40171 58022 60001 333 11126 21180 70000
AAXX 20184 71528 16/// /2616 10048 21033 60001 333 10048 20013 70000
AAXX 20184 71433 46/// /2328 11004 21029 39905 40138 58041 6///1 333 11003 7////
AAXX 20184 71409 16/// ///// 10038 21015 60001 333 10044 21037 70000
AAXX 20184 71841 16/// /2306 11040 21079 39631 40031 56026 60001 333 11040 21122 70000
AAXX 20184 71006 16/// /3008 10037 21031 60001 333 10057 21042 70000
AAXX 20184 71007 16/// ///// 10041 21041 60001 333 10067 20004 70000
AAXX 20184 71008 16/// /3003 10022 21012 60001 333 10042 21067 70000
AAXX 20184 71009 16/// /1104 10001 21035 60001 333 10064 21041 70000
AAXX 20184 71012 16/// /3017 10056 21032 60001 333 10057 70000
AAXX 20184 71035 16/// ///// 10019 21040 60001 333 10062 21090 70000
AAXX 20184 71841 16/// /2306 11040 21079 39631 40031 56026 60001 333 11040 21122 70000
AAXX 20184 71433 46/// /2328 11004 21029 39905 40138 58041 6///1 333 11003 7////
AAXX 20184 89528 46/// /0418 36835 4//// 5////
BBXX 44039 20181 99411 70727 46/// /3204 10055 21052 40224 91830 22200 00093 10201 70004 333 91207
AAXX 20184 41529 12995 33102 10056 20018 39835 40235 60003 83030 333 56090 58034 83360
AAXX 20184 41598 11996 00000 10100 20044 39899 40179 60003 70400 333 58001
AAXX 20184 41620 32995 01805 10060 21204 38610 48510 333 58024
AAXX 20184 41624 02995 03102 10100 20057 39983 40191 60003 333 58019 60007
AAXX 20184 41640 01995 00000 10130 20091 39925 40179 60003 70400 333 58011 60007
AAXX 20184 41660 119// 03110 11025 21080 38474 48565 60003 70600 333 58020
AAXX 20184 41675 11994 00000 10110 20068 30031 40175 60003 70400 333 58011
AAXX 20184 41712 12996 00506 10045 21100 39286 48562 60003 333 58035
AAXX 20184 41715 01995 00000 10135 20085 30115 40183 60003 70400 333 58009 60007
AAXX 20184 41756 01994 00512 10160 20093 30134 40199 60003 70600 333 58025 60007
AAXX 20184 41764 32996 00000 10130 20043 30105 40157 60003 333 58002 60007
AAXX 20184 41768 02996 00000 10130 20091 30150 40157 60003 333 58003 60007
AAXX 20184 41780 02996 00000 10170 20012 30145 40173 333 58020 60007
AAXX 20184 89063 41/95 92302 10011 20011 39919 49930 52008 77075 333 44117
BBXX WZJC 20184 99259 70875 41398 71419 10244 2021/ 40162 57010 71522 8797/ 22272 00244 20303 310// 40904 5//// 6//// 80222 ICE /////
BBXX SHIP 20184 99085 11093 41397 53321 10260 20231 40080 54000 70300 85770 22213 04255 20606 3//// 4//// 80240
BBXX VRDW2 20184 99139 11195 41398 10521 10280 20266 40096 58010 70100 81600 22233 04280 20602 80270
BBXX ZQDI9 20183 99074 11085 41597 60216 10268 20247 40082 54000 70122 8361/ 22212 00258 20402 80253
BBXX DDGK2 20184 99198 11141 41397 70422 10205 20190 40140 54000 70222 8577/ 22283 00240 2//// 80195
BBXX A8UX5 20184 99076 10736 41998 03611 10272 20216 40099 50030 70111 80000 22264 04286 2//// 80234
BBXX VRDN3 20184 99083 10764 41/98 /0410 10270 20260 40110 54000 70221 8//// 22274 00/// 2//// 80230
BBXX AUYK 20184 99183 11182 44197 41030 10260 20247 4//// 54000 70112 84700 22212 00267 29902
BBXX DDZF2 20184 99095 11098 41397 80328 10265 20230 40090 53005 76022 8/777 22214 00260 20806 303// 40804 80240
BBXX VQOG5 20184 99062 10937 41/98 20616 10270 20244 40087 57009 70111 8//// 22263 00282 2//// 80252
BBXX 44039 20181 99411 70727 46/// /3204 10055 21052 40224 91830 22200 00093 10201 70004 333 91207
BBXX 46221 20181 99339 71186 46/// ///// 1//// 91815 22200 00150 11302 21001 326// 41301 70009
BBXX 46242 20181 99332 71174 46/// ///// 1//// 91828 22200 00144 11401 20701 323// 41401 70006
BBXX 46222 20181 99336 71183 46/// ///// 1//// 91826 22200 00151 11502 21001 327// 41502 70010
BBXX 46216 20181 99343 71198 46/// ///// 1//// 91827 22200 00148 11303 20802 326// 41302 70014
BBXX 46223 20181 99335 71178 46/// ///// 1//// 91830 22200 00151 11402 20801 328// 41402 70011
BBXX 46231 20181 99327 71174 46/// ///// 1//// 91824 22200 00150 11403 21002 328// 41402 70014
BBXX 41110 20181 99341 70777 46/// ///// 1//// 91821 22200 00143 11101 21001 310// 41101 70006
BBXX 46241 20181 99330 71173 46/// ///// 1//// 91811 22200 00143 11502 20701 326// 41501 70008
BBXX WZJC 20184 99259 70875 41398 71419 10244 2021/ 40162 57010 71522 8797/ 22272 00244 20303 310// 40904 5//// 6//// 80222 ICE /////
BBXX 44100 20181 99363 70756 46/// ///// 1//// 91822 22200 00119 11202 21001 307// 41202 70010
BBXX ZCDA9 20183 99314 71181 41398 23518 10132 20113 40160 52007 70200 82200 22224 00165 20201 333// 40402 5//// 80122
BBXX 42360 20181 99267 70905 46/// /1506 10239 91800 22200 00244 10704 70019 333 91208
BBXX 41033 20181 99323 70804 46/// /0302 10172 40232 57017 91800 555 11025 22028
BBXX 42085 20181 99179 70665 46/// /0910 10270 40151 91820 333 91212
BBXX 42085 20181 99179 70665 46/// /0910 10270 40151 91810 333 91211
BBXX 41052 20181 99183 70648 46/// /0509 10254 40154 91830 333 91210
BBXX 42085 20181 99179 70665 46/// /0909 10269 40149 91830 333 91211
BBXX 41052 20181 99183 70648 46/// /0710 10256 40156 91810 333 91212
BBXX 41053 20181 99185 70661 46/// /1008 10234 40164 91830 333 91209
BBXX 41053 20181 99185 70661 46/// /0909 10240 40165 91810 333 91211
BBXX 41052 20181 99183 70648 46/// /0709 10257 40156 91820 333 91212
BBXX 41053 20181 99185 70661 46/// /1007 10241 40164 91820 333 91210
BBXX A8HJ8 20183 99012 11034 41/96 /3111 10266 20246 40082 53002 70222 8//// 22200 00/// 20502 80251
BBXX VQIB9 20184 99022 10894 41/98 /0407 10270 20241 40094 54000 70200 8//// 22254 00/// 2//// 80250
BBXX 66022 20181 99541 10142 46/// /1609 10021 30070 22200 00037
BBXX MINUK01 2018/ 99602 70012 46/// ///// 10038 40059 52014
BBXX MINUK03 2018/ 99549 70010 46/// ///// 10065 40146 52029
BBXX SHIP 20184 99127 10472 41798 11302 10240 20226 40170 50005 70200 8//// 22264 00253 2//// 3//// 4//// 80230
OOXX AAERC 20184 99815 31639 60713 00451 46/// /1907 11068 21098 39722 49778 5//// 91740
OOXX AAVIT 20184 99785 31778 57087 00501 46/// /2908 11095 21123 39721 49784 5//// 91740
BBXX A8CN8 20180 99574 71699 41296 72307 10010 49940 51010 77272 877// 22263 00050 2//04 323// 4//04 5////
AAXX 20183 63612 32980 00903 10277 20175 40111 333 10356 59001
AAXX 20183 63671 32980 00000 10260 20212 333 10323
AAXX 20183 63695 32980 02702 10161 20146 333 10253
AAXX 20183 63708 32580 13005 10227 20187 48495 81400 333 10295 59002 81623
AAXX 20184 71249 16/// /2408 10013 21042 60001 333 10055 21061 7////
AAXX 20184 71014 16/// /2704 10024 21032 60001 333 10055 21046 70000
AAXX 20184 71346 16/// /2719 10058 21037 60001 333 10061 20023 70000
AAXX 20184 71674 16/// ///// 10042 21041 60001 333 10060 21050 70000
AAXX 20184 71857 16/// ///// 10044 21037 60001 333 10057 21040 70000
AAXX 20184 71413 16/// ///// 10044 21031 60001 333 10054 21062 70000
AAXX 20184 71414 16/// ///// 10042 21011 60001 333 10056 21035 70000
AAXX 20184 71440 16/// ///// 10028 21032 60001 333 10071 21016 70000
AAXX 20184 71481 16/// /2707 10027 21032 60001 333 10052 21031 70008
AAXX 20184 71498 16/// /0304 10039 21021 60001 333 10050 21051 70000
AAXX 20184 71055 46/// /1805 11253 21277 39739 40081 53020 6///1 333 11221 21253 7////
AAXX 20184 71360 16/// ///// 10054 21040 60001 333 10057 21028 70000
AAXX 20184 71380 16/// /2510 10002 21030 60001 333 10062 21025 70000
AAXX 20184 71540 16/// /2807 10023 21047 60001 333 10055 21115 70005
AAXX 20184 71544 16/// ///// 10025 21024 60001 333 10049 21029 70000
AAXX 20184 71548 16/// ///// 10034 21038 60001 333 10046 21022 70000
AAXX 20181 10055 01360 81503 10018 20007 30040 40051 51009 69902 72376 875// 333 10018 20009 31000 55300 20000 30000 69907 87609
AAXX 20184 65306 32960 70000 10286 20067 39780 40113 8703/ 333 10349 58005 87363
AAXX 20184 89734 46/// /0812 11218 36062 4//// 5//// 91750
AAXX 20184 89744 46/// /0115 11193 36415 4//// 5//// 91750
AAXX 20184 88903 45/// /1204 10088 20043 30060 40060 57018
BBXX MINFR00 2018/ 99257 70760 46/// ///// 10220 40226 57023
OOXX MXP44 20161 99280 71140 ///// 00041 26/// /1422 10121 29054 30137 91610 333 60000
OOXX MXP44 20161 99280 71140 ///// 00041 26/// /1422 10124 29054 30137 91620 333 60000
OOXX MXP44 20161 99280 71140 ///// 00041 26/// /1422 10127 29054 30138 91630 333 60000
OOXX MXP44 20161 99280 71140 ///// 00041 26/// /1422 10130 29054 30140 91640 333 60000
OOXX MXP44 20161 99280 71140 ///// 00041 26/// /1422 10134 29054 30140 91650 333 60000
OOXX MXP44 20171 99280 71140 ///// 00041 26/// /1422 10138 29054 30140 91700 333 60000
OOXX MXP44 20171 99280 71140 ///// 00041 26/// /1422 10140 29055 30141 91710 333 60000
OOXX MXP44 20171 99280 71140 ///// 00041 26/// /1422 10142 29055 30141 91720 333 60000
OOXX MXP44 20171 99280 71140 ///// 00041 26/// /1422 10145 29055 30141 91730 333 60000
OOXX MXP44 20171 99280 71140 ///// 00041 26/// /1422 10146 29055 30141 91740 333 60000
OOXX MXP44 20171 99280 71140 ///// 00041 26/// /1422 10149 29055 30140 91750 333 60000
OOXX MXP44 20181 99280 71140 ///// 00041 26/// /1422 10151 29055 30139 91800 333 60000
BBXX 46208 20181 99525 71327 46/// /2809 10068 40270 5//// 22200 00076 11411 70054 333 91212
BBXX 46145 20181 99544 71324 46/// /3010 10068 40238 52027 22200 00071 11408 70042 333 91213
BBXX 46145 20181 99544 71324 46/// /3010 10068 40238 52027 22200 00071 11408 70042 333 91213
BBXX 46208 20181 99525 71327 46/// /2809 10068 40270 5//// 22200 00076 11411 70054 333 91212
BBXX KGTZ 20184 99566 71470 41697 81930 10044 20020 40156 52016 70222 886// 22234 00050 20503 322// 41107 5//// 6//// 80033 ICE /////
BBXX WDB9918 20184 99546 71409 41598 60924 10044 20030 40250 52034 70122 831/1 22273 00044 20803 327// 40806 5//// 6//// 80039 ICE /////
AAXX 20184 41529 12995 33102 10056 20018 39835 40235 60003 83030 333 56090 58034 83360
AAXX 20184 41598 11996 00000 10100 20044 39899 40179 60003 70400 333 58001
AAXX 20184 41620 32995 01805 10060 21204 38610 48510 333 58024
AAXX 20184 41624 02995 03102 10100 20057 39983 40191 60003 333 58019 60007
AAXX 20184 41640 01995 00000 10130 20091 39925 40179 60003 70400 333 58011 60007
AAXX 20184 41660 119// 03110 11025 21080 38474 48565 60003 70600 333 58020
AAXX 20184 41675 11994 00000 10110 20068 30031 40175 60003 70400 333 58011
AAXX 20184 41712 12996 00506 10045 21100 39286 48562 60003 333 58035
AAXX 20184 41715 01995 00000 10135 20085 30115 40183 60003 70400 333 58009 60007
AAXX 20184 41756 01994 00512 10160 20093 30134 40199 60003 70600 333 58025 60007
AAXX 20184 41764 32996 00000 10130 20043 30105 40157 60003 333 58002 60007
AAXX 20184 41768 02996 00000 10130 20091 30150 40157 60003 333 58003 60007
AAXX 20184 41780 02996 00000 10170 20012 30145 40173 333 58020 60007
AAXX 20184 71475 16/// /3104 10035 20032 30185 40280 53012 60001 333 10039 20010 70008
AAXX 20184 91844 46/// /0703 10278 40140 22200 00280
AAXX 20184 41515 02695 32314 10051 21067 38528 48492 60003 83500 333 56900 59027 60007 83650
AAXX 20184 41560 02696 41803 10005 21087 38205 48485 60003 82320 333 58000 60007
AAXX 20184 41571 116// 63106 10100 20035 39598 40199 69903 70522 83530 333 56990 58014
AAXX 20184 41594 31911 13604 10095 20046 39965 40190 71011 81030 333 56090 58012
AAXX 20184 41685 32993 00000 10080 21038 38924 48498 333 58003
AAXX 20184 41710 01994 03108 10045 21128 39450 40265 60003 70600 333 58007 60007
AAXX 20184 41718 11995 00000 10105 20074 30069 40177 60003 70400 333 58014
AAXX 20184 41739 01993 03106 10055 21059 39099 48533 60003 70540 333 58020 60007
AAXX 20184 41744 32996 03602 10080 21038 38798 48515 333 59001
AAXX 20184 41749 01996 00000 10130 20080 30154 40187 60003 70400 333 58012 60007
AAXX 20181 59158 32660 63602 10190 20155 30062 40163 58007 86500
AAXX 20181 59562 32965 73301 10195 20168 30145 40157 57017 8705/
AAXX 20181 59567 46/// /0307 10192 20185 39777 40156 58014
AAXX 20181 58968 11530 82201 10183 20169 30165 40173 55006 69901 75152 887//
AAXX 20181 58974 46/// /3503 10186 20173 30053 40177 55011
AAXX 20181 59358 31640 60103 10179 20161 30134 40166 58010 71022 86500
AAXX 20181 59559 11565 39901 10211 20183 30120 40148 57013 69951 70161 83400
AAXX 20181 59792 11458 80310 10214 20186 30141 40146 57014 69901 75055 8562/
AAXX 20181 59997 32460 20604 10275 20266 30076 40084 57013 82200
AAXX 20184 71934 11774 72904 11152 21170 39789 40049 53026 69901 77172 83530 333 11060 21152 47021 79999 90977
AAXX 20184 41506 02694 81804 10035 21003 48510 60003 8442/ 333 5699/ 58016 60007 84640 84460
AAXX 20184 41508 22696 80000 10022 10008 48542 60052 8572/ 333 5699/ 55006 60007 82725 83630 83460
AAXX 20184 41523 11695 80000 10040 20003 48527 60023 82166 8452/ 333 5699/ 58011 69907 84640 84460
AAXX 20184 41535 11697 50000 10040 20016 48495 60033 70162 82530 333 56990 58018 60017 82635 83460
AAXX 20184 41573 01696 81302 10015 21023 48513 60033 8452/ 333 58008
AAXX 20184 41600 01995 00000 10130 20043 39963 40165 60003 70400 333 59010 60007
AAXX 20184 41630 11996 03604 10115 20062 40183 60003 70400 333 58019
AAXX 20184 41678 11995 00000 10125 20096 40183 60003 71000 333 58020 60007
AAXX 20184 41696 02996 00000 11050 21097 38041 48577 60003 333 58015 60007
AAXX 20184 41697 02996 03102 10161 20043 40183 60003 333 58018 60007
AAXX 20184 41700 11994 00000 10100 20057 40170 60003 70400 333 58020
AAXX 20184 41725 02996 00000 10135 20102 40161 60003 333 59001 60007
AAXX 20184 41746 02996 00502 10115 20074 40178 60003 333 59001 60007
AAXX 20184 41759 11994 03612 10165 21121 30195 40201 60002 70700 333 58013
AAXX 20184 41785 02996 00000 10150 20092 40163 60003 333 58012 60007
AAXX 20184 71934 11774 72904 11152 21170 39789 40049 53026 69901 77172 83530 333 11060 21152 47021 79999 90977
AAXX 20184 03227 46/// /2618 11005 2//// 91750 333 11005
AAXX 20184 03008 11484 23015 10048 20000 40055 69922 72781 82900 91750 333 10059 81912
AAXX 20184 03895 42480 73213 10099 20063 40223 52013 8683/ 333 10107 82818 86635
BBXX AMOUK03 20184 99537 70003 46/// ///// 10062 20028 30120 40151 52015 91750
BBXX AMOUK08 20184 99501 70061 46/// ///// 10114 20098 30216 40221 54001 91750
BBXX 63110 20184 99595 10015 47598 /3014 10059 20004 40045 52010 700// 22200 10604 70022
BBXX 63106 20184 99610 10017 46/// /3111 10034 40027 52013 22200
BBXX 63113 20184 99610 10017 46/// /3311 10037 20010 40028 53010 22200 10705 70025
BBXX 62103 20184 99499 70029 46/99 /3118 10107 20057 40210 51013 22200 00122 10703 70013 333 90710 91125
BBXX AMOUK04 20184 99533 70062 46/// ///// 10075 20068 30142 4//// 57006 91750
BBXX WSNB 20184 99583 71437 43198 32121 00/// 10050 2003/ 40100 51030 7//// 8826/ 22233 0//// 20904 321// 41004 5//// 6//// 80044 ICE /////
BBXX C6FY5 20183 99174 70630 41/// /0817 10260 2023/ 40150 5/010 7//// 8//// 222// 0//// 21001 3//// 42001 52002 6//// 80240 ICE /////
BBXX ONFP 20184 99233 30621 43696 70924 10240 2020/ 40170 51010 76111 87333 22213 04250 20204 30909 40204 50204 6//// 80210 ICE /////
BBXX 46208 20181 99525 71327 46/// /2809 10068 40270 5//// 22200 00076 11411 70054 333 91212
BBXX 46145 20181 99544 71324 46/// /3010 10068 40238 52027 22200 00071 11408 70042 333 91213
BBXX MINFR00 2018/ 99257 70760 46/// ///// 10220 40226 57023
BBXX WSNB 20184 99583 71437 43198 32121 00/// 10050 2003/ 40100 51030
BBXX C6FY5 20183 99174 70630 41/// /0817 10260 2023/ 40150 5/010 7//// 8//// 222// 0//// 21001 3//// 42001 52002 6//// 80240 ICE /////
BBXX BSH05 20181 99550 10079 46/// ///// 22200 20902 70012
BBXX BSH03 20181 99540 10081 46/// ///// 22200 00065 20804 70020
BBXX ONFP 20184 99233 30621 43696 70924 10240 2020/ 40170 51010 76111 87333 22213 04250 20204 30909 40204 50204 6//// 80210 ICE /////
OOXX AUP04 20171 99377 31451 ///// 00311 26/// /2102 10148 29075 30111 91706 333 60000
OOXX AUP04 20171 99377 31451 ///// 00311 26/// /2002 10147 29075 30110 91716 333 60000
OOXX AUP04 20171 99377 31451 ///// 00311 26/// /2201 10148 29074 30111 91726 333 60000
OOXX AUP04 20171 99377 31451 ///// 00311 26/// /2201 10148 29074 30111 91736 333 60000
OOXX AUP04 20171 99377 31451 ///// 00311 26/// /2101 10149 29074 30110 91746 333 60000
OOXX AUP04 20171 99377 31451 ///// 00311 26/// /2101 10149 29074 30109 91756 333 60000
OOXX AUP04 20181 99377 31451 ///// 00311 26/// /2001 10149 29073 30109 91806 333 60000
OOXX AUP04 20181 99377 31451 ///// 00311 26/// /1802 10149 29073 30109 91816 333 60000
OOXX AUP04 20181 99377 31451 ///// 00311 26/// /1902 10148 29073 30109 91826 333 60000
OOXX AUP04 20181 99377 31451 ///// 00311 26/// /1901 10147 29074 30110 91836 333 60000
OOXX AUP04 20181 99377 31451 ///// 00311 26/// /2001 10147 29074 30112 91846 333 60000
OOXX AUP04 20181 99377 31451 ///// 00311 26/// /2101 10148 29074 30113 91856 333 60000
OOXX GBP67 20161 99159 50057 ///// 04381 26/// /0803 10181 29081 39668 91620 333 60000
OOXX GBP67 20161 99159 50057 ///// 04381 26/// /0903 10180 29082 39666 91630 333 60000
OOXX GBP67 20161 99159 50057 ///// 04381 26/// /1004 10173 29086 39666 91640 333 60000
OOXX GBP67 20161 99159 50057 ///// 04381 26/// /1003 10173 29087 39667 91650 333 60000
OOXX GBP67 20171 99159 50057 ///// 04381 26/// /1003 10172 29088 39666 91700 333 60000
OOXX GBP67 20171 99159 50057 ///// 04381 26/// /1003 10168 29092 39667 91710 333 60000
OOXX GBP67 20171 99159 50057 ///// 04381 26/// /0703 10164 29093 39669 91720 333 60000
OOXX GBP67 20181 99159 50057 ///// 04381 26/// /0904 10164 29092 39669 91800 333 60000
OOXX MYP42 20161 99045 11014 ///// 15551 26/// /1402 10167 29088 38418 91605 333 60000
OOXX MYP42 20161 99045 11014 ///// 15551 26/// /0101 10168 29088 38420 91615 333 60000
OOXX MYP42 20161 99045 11014 ///// 15551 26/// /3501 10168 29089 38418 91625 333 60000
OOXX MYP42 20161 99045 11014 ///// 15551 26/// /0501 10172 29087 38421 91635 333 60000
OOXX MYP42 20161 99045 11014 ///// 15551 26/// /2104 10177 29084 38423 91645 333 60000
OOXX MYP42 20161 99045 11014 ///// 15551 26/// /1101 10177 29084 38416 91655 333 60000
OOXX MYP42 20171 99045 11014 ///// 15551 26/// /1801 10170 29087 38420 91705 333 60000
OOXX MYP42 20171 99045 11014 ///// 15551 26/// /1702 10172 29087 38407 91715 333 60000
OOXX MYP42 20171 99045 11014 ///// 15551 26/// /2101 10168 29088 38412 91725 333 60000
OOXX MYP42 20171 99045 11014 ///// 15551 26/// /2401 10174 29087 38407 91735 333 60000
OOXX MYP42 20171 99045 11014 ///// 15551 26/// /2702 10170 29088 38416 91745 333 60000
OOXX MYP42 20171 99045 11014 ///// 15551 26/// /1403 10173 29087 38405 91755 333 60000
OOXX RUP54 20161 99586 10494 ///// 01271 26/// /0603 11101 29089 30177 91627 333 60120
OOXX RUP54 20161 99586 10494 ///// 01271 26/// /0804 11101 29089 30173 91637 333 60120
OOXX RUP54 20161 99586 10494 ///// 01271 26/// /0604 11101 29089 30174 91647 333 60120
OOXX RUP54 20161 99586 10494 ///// 01271 26/// /0603 11102 29089 30171 91657 333 60120
OOXX RUP54 20171 99586 10494 ///// 01271 26/// /0805 11102 29089 30170 91707 333 60120
OOXX RUP54 20171 99586 10494 ///// 01271 26/// /0704 11102 29089 30170 91717 333 60120
OOXX RUP54 20171 99586 10494 ///// 01271 26/// /0604 11102 29089 30172 91727 333 60120
OOXX RUP54 20171 99586 10494 ///// 01271 26/// /0705 11101 29089 30172 91737 333 60120
OOXX RUP54 20171 99586 10494 ///// 01271 26/// /0605 11102 29089 30170 91747 333 60120
OOXX RUP54 20171 99586 10494 ///// 01271 26/// /0706 11102 29089 30168 91757 333 60120
OOXX RUP54 20181 99586 10494 ///// 01271 26/// /0504 11102 29089 30167 91807 333 60120
OOXX RUP54 20181 99586 10494 ///// 01271 26/// /2305 11102 29089 30167 91817 333 60120
OOXX KIP39 20161 99020 51574 ///// 00181 26/// /1005 10250 29081 30097 91630 333 60000
OOXX KIP39 20161 99020 51574 ///// 00181 26/// /1005 10250 29081 30098 91640 333 60000
OOXX KIP39 20161 99020 51574 ///// 00181 26/// /1004 10251 29081 30099 91650 333 60000
OOXX KIP39 20171 99020 51574 ///// 00181 26/// /1004 10252 29082 30099 91700 333 60000
OOXX KIP39 20171 99020 51574 ///// 00181 26/// /1004 10252 29081 30102 91710 333 60000
OOXX KIP39 20171 99020 51574 ///// 00181 26/// /1004 10256 29080 30104 91720 333 60000
OOXX KIP39 20171 99020 51574 ///// 00181 26/// /1004 10256 29079 30106 91730 333 60000
OOXX KIP39 20171 99020 51574 ///// 00181 26/// /1005 10257 29078 30105 91740 333 60000
OOXX KIP39 20171 99020 51574 ///// 00181 26/// /1004 10259 29078 30106 91750 333 60000
OOXX KIP39 20181 99020 51574 ///// 00181 26/// /1004 10261 29077 30108 91800 333 60000
OOXX KIP39 20181 99020 51574 ///// 00181 26/// /1005 10261 29077 30109 91810 333 60000
OOXX KIP39 20181 99020 51574 ///// 00181 26/// /1004 10263 29076 30109 91820 333 60000
OOXX CAP14 20161 99487 71234 ///// 00431 26/// /1201 10060 29086 30188 91630 333 60000
OOXX CAP14 20161 99487 71234 ///// 00431 26/// /0000 10060 29086 30190 91640 333 60000
OOXX CAP14 20161 99487 71234 ///// 00431 26/// /3501 10061 29086 30192 91650 333 60000
OOXX CAP14 20171 99487 71234 ///// 00431 26/// /3401 10066 29086 30193 91700 333 60000
OOXX CAP14 20171 99487 71234 ///// 00431 26/// /0000 10071 29084 30192 91710 333 60000
OOXX CAP14 20171 99487 71234 ///// 00431 26/// /2701 10067 29084 30193 91720 333 60000
OOXX CAP14 20171 99487 71234 ///// 00431 26/// /2301 10067 29084 30194 91730 333 60000
OOXX CAP14 20171 99487 71234 ///// 00431 26/// /1801 10070 29084 30193 91740 333 60000
OOXX CAP14 20171 99487 71234 ///// 00431 26/// /2801 10068 29084 30195 91750 333 60000
OOXX CAP14 20181 99487 71234 ///// 00431 26/// /2601 10070 29084 30196 91800 333 60000
OOXX CAP14 20181 99487 71234 ///// 00431 26/// /2301 10072 29083 30194 91810 333 60000
OOXX CAP14 20181 99487 71234 ///// 00431 26/// /2301 10075 29082 30191 91820 333 60000
OOXX FRP31 20151 99052 70527 ///// 00091 26/// /0408 10293 29071 30181 91557 333 60000
OOXX FRP31 20161 99052 70527 ///// 00091 26/// /0408 10293 29072 30178 91607 333 60000
OOXX FRP31 20161 99052 70527 ///// 00091 26/// /0507 10295 29072 30175 91617 333 60000
OOXX FRP31 20161 99052 70527 ///// 00091 26/// /0410 10281 29077 30175 91627 333 60010
OOXX FRP31 20161 99052 70527 ///// 00091 26/// /0509 10258 29092 30183 91637 333 60020
OOXX FRP31 20161 99052 70527 ///// 00091 26/// /0406 10260 29091 30191 91647 333 60060
OOXX FRP31 20161 99052 70527 ///// 00091 26/// /0406 10271 29083 30178 91657 333 60000
OOXX FRP31 20171 99052 70527 ///// 00091 26/// /0407 10276 29078 30181 91707 333 60000
OOXX FRP31 20171 99052 70527 ///// 00091 26/// /0407 10278 29075 30179 91717 333 60000
OOXX FRP31 20171 99052 70527 ///// 00091 26/// /0406 10278 29075 30172 91727 333 60000
OOXX FRP31 20171 99052 70527 ///// 00091 26/// /0406 10282 29075 30170 91737 333 60000
OOXX FRP31 20171 99052 70527 ///// 00091 26/// /0406 10283 29075 30167 91747 333 60000
OOXX RUP60 20161 99531 11588 ///// 00651 26/// /3202 11201 29065 39956 91652 333 60000
OOXX RUP60 20171 99531 11588 ///// 00651 26/// /3102 11205 29064 39957 91702 333 60000
OOXX RUP60 20171 99531 11588 ///// 00651 26/// /3202 11202 29062 39958 91712 333 60000
OOXX RUP60 20171 99531 11588 ///// 00651 26/// /3202 11200 29063 39959 91722 333 60000
OOXX RUP60 20171 99531 11588 ///// 00651 26/// /3106 11195 29060 39960 91732 333 60000
OOXX RUP60 20171 99531 11588 ///// 00651 26/// /3304 11186 29057 39960 91742 333 60000
OOXX RUP60 20171 99531 11588 ///// 00651 26/// /3102 11177 29053 39962 91752 333 60000
OOXX RUP60 20181 99531 11588 ///// 00651 26/// /3104 11164 29050 39961 91802 333 60000
OOXX RUP60 20181 99531 11588 ///// 00651 26/// /3002 11159 29048 39961 91812 333 60000
OOXX RUP60 20181 99531 11588 ///// 00651 26/// /3002 11158 29047 39961 91822 333 60000
OOXX RUP60 20181 99531 11588 ///// 00651 26/// /3404 11159 29047 39962 91832 333 60000
OOXX RUP60 20181 99531 11588 ///// 00651 26/// /3001 11158 29046 39962 91842 333 60000
OOXX AUP06 20161 99192 31468 ///// 00071 26/// /1303 10246 29076 30072 91653 333 60000
OOXX AUP06 20171 99192 31468 ///// 00071 26/// /1203 10247 29076 30071 91703 333 60000
OOXX AUP06 20171 99192 31468 ///// 00071 26/// /1202 10245 29076 30071 91713 333 60000
OOXX AUP06 20171 99192 31468 ///// 00071 26/// /1303 10245 29076 30071 91723 333 60000
OOXX AUP06 20171 99192 31468 ///// 00071 26/// /1403 10243 29077 30071 91733 333 60000
OOXX AUP06 20171 99192 31468 ///// 00071 26/// /1603 10242 29077 30070 91743 333 60000
OOXX AUP06 20171 99192 31468 ///// 00071 26/// /1702 10243 29077 30071 91753 333 60000
OOXX AUP06 20181 99192 31468 ///// 00071 26/// /0000 10242 29081 30072 91803 333 60000
OOXX AUP06 20181 99192 31468 ///// 00071 26/// /0000 10241 29079 30073 91813 333 60000
OOXX AUP06 20181 99192 31468 ///// 00071 26/// /0000 10239 29079 30073 91823 333 60000
OOXX AUP06 20181 99192 31468 ///// 00071 26/// /1402 10238 29079 30073 91833 333 60000
OOXX AUP06 20181 99192 31468 ///// 00071 26/// /1503 10239 29078 30073 91843 333 60000
OOXX AUP07 20161 99/// ///// ///// ///// 26/// /1407 10046 29087 30184 91649 333 60000
OOXX AUP07 20161 99/// ///// ///// ///// 26/// /1407 10045 29085 30186 91659 333 60000
OOXX AUP07 20171 99/// ///// ///// ///// 26/// /1507 10044 29084 30187 91709 333 60000
OOXX AUP07 20171 99/// ///// ///// ///// 26/// /1406 10045 29083 30187 91719 333 60000
OOXX AUP07 20171 99/// ///// ///// ///// 26/// /1406 10046 29085 30187 91729 333 60000
OOXX AUP07 20171 99/// ///// ///// ///// 26/// /1407 10047 29085 30187 91739 333 60000
OOXX AUP07 20171 99/// ///// ///// ///// 26/// /1406 10048 29086 30189 91749 333 60000
OOXX AUP07 20171 99/// ///// ///// ///// 26/// /1406 10048 29086 30190 91759 333 60000
OOXX AUP07 20181 99/// ///// ///// ///// 26/// /1406 10048 29086 30190 91809 333 60000
OOXX AUP07 20181 99/// ///// ///// ///// 26/// /1306 10049 29086 30190 91819 333 60000
OOXX AUP07 20181 99/// ///// ///// ///// 26/// /1407 10049 29085 30189 91829 333 60000
OOXX AUP07 20181 99/// ///// ///// ///// 26/// /1406 10049 29085 30190 91839 333 60000
OOXX GBP68 20161 99371 50123 ///// 00641 26/// /3507 10000 29077 30122 91610 333 60000
OOXX GBP68 20161 99371 50123 ///// 00641 26/// /3506 10000 29077 30123 91620 333 60000
OOXX GBP68 20161 99371 50123 ///// 00641 26/// /3505 10000 29075 30123 91630 333 60000
OOXX GBP68 20161 99371 50123 ///// 00641 26/// /3506 10000 29080 30123 91640 333 60000
OOXX GBP68 20161 99371 50123 ///// 00641 26/// /3506 10000 29076 30122 91650 333 60000
OOXX GBP68 20171 99371 50123 ///// 00641 26/// /3507 10000 29077 30121 91700 333 60000
OOXX GBP68 20171 99371 50123 ///// 00641 26/// /3507 10000 29075 30119 91710 333 60000
OOXX GBP68 20171 99371 50123 ///// 00641 26/// /3507 10000 29074 30121 91720 333 60000
OOXX GBP68 20171 99371 50123 ///// 00641 26/// /3507 10000 29074 30121 91730 333 60000
OOXX GBP68 20171 99371 50123 ///// 00641 26/// /3507 10000 29075 30120 91740 333 60000
OOXX GBP68 20171 99371 50123 ///// 00641 26/// /3507 10000 29078 30121 91750 333 60000
OOXX GBP68 20181 99371 50123 ///// 00641 26/// /3507 10000 29077 30120 91800 333 60000
OOXX ISP34 20161 99641 70219 ///// 01301 26/// /3305 11001 29001 39908 91610 333 6///0
OOXX ISP34 20161 99641 70219 ///// 01301 26/// /3404 11005 29001 39908 91620 333 6///0
OOXX ISP34 20161 99641 70219 ///// 01301 26/// /3303 11003 29001 39909 91630 333 6///0
OOXX ISP34 20161 99641 70219 ///// 01301 26/// /3403 11003 29001 39908 91640 333 6///0
OOXX ISP34 20161 99641 70219 ///// 01301 26/// /0302 11004 29001 39907 91650 333 6///0
OOXX ISP34 20171 99641 70219 ///// 01301 26/// /3002 11001 29001 39907 91700 333 6///0
OOXX ISP34 20171 99641 70219 ///// 01301 26/// /3202 10002 29001 39906 91710 333 6///0
OOXX ISP34 20171 99641 70219 ///// 01301 26/// /3205 10005 29001 39906 91720 333 6///0
OOXX ISP34 20171 99641 70219 ///// 01301 26/// /3104 11003 29001 39907 91730 333 6///0
OOXX ISP34 20171 99641 70219 ///// 01301 26/// /3103 11005 29001 39907 91740 333 6///0
OOXX ISP34 20171 99641 70219 ///// 01301 26/// /3202 11004 29001 39907 91750 333 6///0
OOXX ISP34 20181 99641 70219 ///// 01301 26/// /3101 11001 29001 39908 91800 333 6///0
OOXX MNP45 20161 99479 11063 ///// 17291 26/// /2904 11175 29083 38486 91621 333 60000
OOXX MNP45 20161 99479 11063 ///// 17291 26/// /2904 11173 29082 38486 91631 333 60000
OOXX MNP45 20161 99479 11063 ///// 17291 26/// /2904 11174 29082 38482 91641 333 60000
OOXX MNP45 20161 99479 11063 ///// 17291 26/// /2905 11173 29082 38483 91651 333 60000
OOXX MNP45 20171 99479 11063 ///// 17291 26/// /2904 11175 29082 38480 91701 333 60000
OOXX MNP45 20171 99479 11063 ///// 17291 26/// /2905 11175 29082 38480 91711 333 60000
OOXX MNP45 20171 99479 11063 ///// 17291 26/// /2904 11177 29082 38480 91721 333 60000
OOXX MNP45 20171 99479 11063 ///// 17291 26/// /2904 11180 29081 38481 91731 333 60000
OOXX MNP45 20171 99479 11063 ///// 17291 26/// /2804 11182 29081 38482 91741 333 60000
OOXX MNP45 20171 99479 11063 ///// 17291 26/// /2704 11184 29081 38484 91751 333 60000
OOXX MNP45 20181 99479 11063 ///// 17291 26/// /2704 11189 29081 38483 91801 333 60000
OOXX MNP45 20181 99479 11063 ///// 17291 26/// /2804 11188 29081 38484 91811 333 60000
OOXX MRP43 20161 99181 70159 ///// 00101 26/// /0705 10299 29009 30124 91640 333 60000
OOXX MRP43 20161 99181 70159 ///// 00101 26/// /0804 10299 29009 30122 91650 333 60000
OOXX MRP43 20171 99181 70159 ///// 00101 26/// /0805 10298 29009 30122 91700 333 60000
OOXX MRP43 20171 99181 70159 ///// 00101 26/// /0904 10298 29009 30123 91710 333 60000
OOXX MRP43 20171 99181 70159 ///// 00101 26/// /0804 10297 29009 30123 91720 333 60000
OOXX MRP43 20171 99181 70159 ///// 00101 26/// /0704 10295 29009 30123 91730 333 60000
OOXX MRP43 20171 99181 70159 ///// 00101 26/// /0704 10295 29009 30126 91740 333 60000
OOXX MRP43 20171 99181 70159 ///// 00101 26/// /0803 10293 29009 30127 91750 333 60000
OOXX MRP43 20181 99181 70159 ///// 00101 26/// /0704 10289 29009 30124 91800 333 60000
OOXX MRP43 20181 99181 70159 ///// 00101 26/// /0703 10286 29009 30125 91810 333 60000
OOXX MRP43 20181 99181 70159 ///// 00101 26/// /0703 10283 29009 30126 91820 333 60000
OOXX MRP43 20181 99181 70159 ///// 00101 26/// /0703 10277 29010 30129 91830 333 60000
OOXX FRP30 20161 99493 30703 ///// 00361 26/// /1902 10075 29066 30021 91657 333 60000
OOXX FRP30 20171 99493 30703 ///// 00361 26/// /2002 10076 29067 30020 91707 333 60000
OOXX FRP30 20171 99493 30703 ///// 00361 26/// /2202 10075 29067 30021 91717 333 60000
OOXX FRP30 20171 99493 30703 ///// 00361 26/// /3101 10074 29068 30022 91727 333 60000
OOXX FRP30 20171 99493 30703 ///// 00361 26/// /2801 10075 29067 30020 91737 333 60000
OOXX FRP30 20171 99493 30703 ///// 00361 26/// /2701 10076 29067 30020 91747 333 60000
OOXX FRP30 20171 99493 30703 ///// 00361 26/// /2501 10075 29067 30019 91757 333 60000
OOXX FRP30 20181 99493 30703 ///// 00361 26/// /2402 10076 29065 30013 91807 333 60000
OOXX FRP30 20181 99493 30703 ///// 00361 26/// /2702 10076 29066 30008 91817 333 60000
OOXX FRP30 20181 99493 30703 ///// 00361 26/// /2602 10076 29064 30009 91827 333 60000
OOXX FRP30 20181 99493 30703 ///// 00361 26/// /2602 10076 29065 30015 91837 333 60000
OOXX FRP30 20181 99493 30703 ///// 00361 26/// /2801 10076 29067 30014 91847 333 60000
OOXX AABRI 20184 99839 51342 60134 05251 46/// /0610 11014 21206 39211 49819 5//// 91740
OOXX AAEMI 20184 99785 31731 57083 00521 46/// /3504 11093 21149 39740 49806 5//// 91740
BBXX BAREU51 20184 99440 10092 46/// ///// 40113 52002 22285
BBXX 61001 20184 99434 10078 46/// /0521 10112 20047 40104 52008 22200 00148 10503 70014 555 1/028
BBXX 61002 20184 99421 10047 46/// ///27 10140 2//// 40166 52006 22200 00139 10605 70026 555 1/041
BBXX WRYD 20184 99379 10090 41498 72830 10160 2009/ 40180 57020 75022 8696/ 22225 00170 20406 328// 4//// 5//// 6//// 80120 /////
BBXX KABL 20184 99375 10041 41598 32632 10160 2011/ 40230 57010 70200 8318/ 22214 00177 20202 326// 40404 5//// 6//// 80130 /////
BBXX A8DH2 20183 99373 10112 41498 52921 10142 20078 40189 56008 70211 84628 22234 04180 20506 80110
BBXX BAREU62 20184 99370 10197 46/// ///// 40160 52006 22224
BBXX BAREU63 20184 99368 10204 46/// /1307 10126 29049 40150 52015 22262
BBXX WKAB 20184 99365 10153 41/98 13115 10125 20044 40189 53001 70100 8//// 22234 00169 2//// 3//// 4//// 5//// 6//// 80085 /////
BBXX TBWUK34 20183 99360 10201 41598 32727 10142 20042 40152 57010 71551 838// 22263 00200 20301 329// 40502 5//// 80096
BBXX BAREU56 20184 99347 10131 46/// ///// 40212 52005 22242
BBXX BATFR01 20184 99345 10293 46/// /2817 10167 20124 40164 53009 22262 00180
BBXX MRWF2 20184 99070 31050 41498 63312 10270 2024/ 40095 54000 70322 866// 22274 00299 20401 3//// 4//// 5//// 6//// 80250 /////
BBXX 3FMV6 20183 99071 30085 41598 82015 10250 20204 40097 53010 70222 86870 22244 06256 20902 80220
BBXX A8CB7 20183 99190 30604 41397 60921 10260 20246 40140 51020 70311 86245 22254 06270 21005 80250
BBXX DAJT 20184 99194 30604 41397 70915 10250 20229 40100 52010 75852 8/71/ 22254 04260 80235
BBXX A8ZS7 20184 99361 30077 41498 42920 10190 20142 40135 57010 70222 82660 22264 04150 20603 322// 40805 80160
BBXX ZDLS1 20183 99599 30044 41396 81921 11007 21020 49734 52030 70222 885// 22243 05019 20101 82011
OOXX AAPEG 20184 99779 31666 57186 00051 46/// /0304 11062 21135 39765 49771 5//// 91740
AAXX 20184 40100 12957 00000 10170 20108 30139 40171 51018 60001 918// 333 1//// 92426
OOXX AALAU 20184 99775 31708 57070 00371 46/// ///02 11048 21152 39724 49770 5//// 91740
OOXX AAERI 20184 99849 51288 60048 09901 46/// /0019 11045 2//// 38725 49823 5//// 91740
AAXX 20184 91559 46/// /0000 10248 40066 22200 00284
AAXX 20184 71612 16/// /2604 11049 21136 30139 40232 58020 60001 333 11026 21079 70011
AAXX 20184 71934 11774 72904 11152 21170 39789 40049 53026 69901 77172 83530 333 11047 21152 47021 79999 90977
AAXX 20184 71723 16/// /2207 11070 21145 30218 40228 58014 60001 333 11043 21089 70014
AAXX 20184 71386 17/// /3217 11107 21179 39930 40140 53013 60011 7//4/ 333 11042 21124 70061
AAXX 20184 62600 32970 03607 10220 20050 39959 40174 10280 59009
AAXX 20184 62640 32970 03607 10270 20120 39754 40108 10330 59004
AAXX 20184 62641 31962 03204 10245 20210 30109 40157 70600 10284 58006
AAXX 20184 62650 32970 03604 10240 20060 39874 40148 10305 59002
AAXX 20184 62660 32970 00000 10240 20070 39840 40140 10315 59004 62680 32970 03105 10272 20118 39702 40093 10335 59018
AAXX 20184 62721 32970 73409 10270 20030 39674 40109 80007 10340 56009 59008 87275
AAXX 20184 62730 32970 00204 10275 20115 39580 40138 10350 59003
AAXX 20184 62733 32970 03202 10285 20150 39593 40094 10350 58000
AAXX 20184 62750 32970 73206 10250 20060 39655 40082 80007 10330- 56009 59006 87275
AAXX 20184 62751 32970 73404 10238 20052 39638 40106 80007 10372 56009 59007 87275
AAXX 20184 62752 32970 70204 10292 20098 39425 40086 80007 10363 56009 59003 87275
AAXX 20184 62762 32970 73603 10215 20120 39612 40090 80007 10353 56009 59003 87275
AAXX 20184 62600 32970 03607 10220 20050 39959 40174 10280 59009
AAXX 20184 62640 32970 03607 10270 20120 39754 40108 10330 59004
AAXX 20184 62641 31962 03204 10245 20210 30109 40157 70600 10284 58006
AAXX 20184 62650 32970 03604 10240 20060 39874 40148 10305 59002
AAXX 20184 62660 32970 00000 10240 20070 39840 40140 10315 59004 62680 32970 03105 10272 20118 39702 40093 10335 59018
AAXX 20184 62721 32970 73409 10270 20030 39674 40109 80007 10340 56009 59008 87275
AAXX 20184 62730 32970 00204 10275 20115 39580 40138 10350 59003
AAXX 20184 62733 32970 03202 10285 20150 39593 40094 10350 58000
AAXX 20184 62750 32970 73206 10250 20060 39655 40082 80007 10330- 56009 59006 87275
AAXX 20184 62751 32970 73404 10238 20052 39638 40106 80007 10372 56009 59007 87275
AAXX 20184 62752 32970 70204 10292 20098 39425 40086 80007 10363 56009 59003 87275
AAXX 20184 62762 32970 73603 10215 20120 39612 40090 80007 10353 56009 59003 87275
AAXX 20184 71934 11774 72904 11152 21170 39789 40049 53026 69901 77172 83530 333 11047 21152 47021 79999 90977
AAXX 20181 76040 32960 43302 10148 20103 30164 40178 52005 84030 91745 333 10130 20056 30/// 56070 59002 84375 98660
AAXX 20181 76055 21570 83504 10118 20106 30140 40159 52009 76253 88700 91740 333 10184 20057 32/// 56600 59012 60027 88627
AAXX 20181 76056 06/// /3105 10113 20098 30144 40168 52011 60082 7//// 8//// 91750 333 0//// 10133 20098 30/// 4//// 54/// 56/// 57/// 59012 60087 8//// 8//// 8//// 9//// 9//// 9//// 44
AAXX 20181 76113 32980 02101 10128 20052 39666 40150 57006 91745 333 10135 20044 30/// 59042
AAXX 20181 76122 32970 61403 10068 21006 38517 40198 52001 84052 91750 333 10074 21032 30/// 56099 58006 84358
AAXX 20181 76123 06/// 61008 10078 21018 3//// 4//// 5//// 60002 7//// 84052 91750 333 0//// 10078 21041 56099 57/// 5//// 60007 8//// 8//// 84358 8//// 9//// 9//// 9//// 444 ///// 555
AAXX 20181 76220 32958 40000 10050 21002 38115 40204 57002 80006 91750 333 10050 21036 30/// 56006 59007
AAXX 20181 76225 32760 70901 10088 21026 38618 40177 50003 87020 91745 333 10088 20008 30/// 56050 58022 87450
AAXX 20181 76256 32980 40000 10163 20072 30150 40164 52006 80008 91745 333 10171 20081 30/// 56//5 59065 84270
AAXX 20181 76305 32670 30601 10190 20078 30150 40158 52005 82430 91740 333 10196 20100 30/// 56440 59040 82650
AAXX 20181 76323 32970 10502 10108 21017 38248 40225 58006 80008 91755 333 10116 20011 30/// 58014
AAXX 20181 76342 32962 00603 10142 20035 39495 40216 52006 91750 333 10144 20090 30/// 58059
AAXX 20181 76373 32980 00000 10112 21063 38190 40131 52004 91750 333 10200 21050 30/// 58006
AAXX 20181 76390 31956 02307 10190 21042 38205 40119 57003 70544 91737 333 10200 20065 30/// 58013
AAXX 20181 76393 32640 10301 10190 20090 39570 40147 57001 81400 91750 333 10206 20140 30/// 56300 58053 81641
AAXX 20181 76402 31560 70202 10168 20096 30106 40164 52008 70544 87700 91745 333 10168 20056 30/// 56500 59040 87633
AAXX 20181 76458 32970 12402 10206 20153 30144 40148 52003 80001 91737 333 10232 20098 30/// 56//6 59010 81072
AAXX 20181 76471 32980 02306 10158 21071 37674 40132 54000 91750 333 10163 20011 30/// 58004
AAXX 20181 76490 06/// /0204 10252 20123 39747 40126 58009 60002 7//// 8//// 91750 333 0//// 10257 20127 30/// 54/// 56/// 57/// 58025 60007 8//// 8//// 8//// 8//// 9//// 9//// 9//// 44
AAXX 20181 76491 32960 03603 10245 20145 39764 40156 57008 91750 333 10257 20147 30/// 58025
AAXX 20181 76525 32680 12112 10104 20019 37456 40142 52006 81100 91740 333 10105 20060 30/// 565// 58001 81835
AAXX 20181 76538 06/// /2207 10215 20012 38147 40070 58006 60002 7//// 8//// 91750 333 0//// 10221 20090 30/// 4//// 54/// 56/// 57/// 58001 60007 8//// 8//// 8//// 9//// 9//// 9//// 44
AAXX 20181 76539 32970 02405 10197 20061 38148 40146 54000 91750 333 10250 30031 30/// 58004
AAXX 20181 76543 31570 13402 10265 20198 30110 40142 57015 70544 81100 91745 333 10265 20142 30/// 56300 59024 81834
AAXX 20181 76547 06/// /2302 10269 20213 30110 40121 58006 60002 7//// 8//// 91750 333 0//// 10269 20195 56/// 57/// 59026 60007 8//// 8//// 8//// 8//// 9//// 9//// 9//// 444 ///// 555
AAXX 20181 76548 31472 62702 10256 20207 30124 40134 58001 70244 86400 91740 333 10262 20194 30/// 56300 59028 86618
AAXX 20181 76556 32970 00000 10232 20150 39111 40146 51005 91735 333 10240 20105 30/// 59010
AAXX 20181 76571 32680 11803 10200 20034 38159 40175 56005 81100 91750 333 10204 20050 30/// 56500 59001 81850
AAXX 20181 76577 32570 12306 10177 20131 38041 40159 50006 81400 91740 333 10187 20074 30/// 56500 59005 81628
AAXX 20181 76578 06/// /2204 10185 20036 38036 40100 58006 60002 7//// 8//// 91750 333 0//// 10185 20075 30/// 4//// 54/// 56/// 57/// 59007 60007 8//// 8//// 8//// 9//// 9//// 9//// 44
AAXX 20181 76581 32975 03501 10250 20143 39016 40126 57017 91750 333 10256 20078 30/// 59015
AAXX 20181 76585 32980 02701 10230 20199 39965 40123 58005 91735 333 10240 20124 30/// 59025
AAXX 20181 76586 06/// /2701 10267 39967 40119 58006 60002 7//// 8//// 91750 333 0//// 10268 20137 30/// 4//// 54/// 56/// 57/// 59023 60007 8//// 8//// 8//// 9//// 9//// 9//// 444 ////
AAXX 20181 76592 06/// /1312 10299 20005 30130 40130 58021 60002 7//// 8//// 91750 333 0//// 10310 20195 30/// 4//// 54/// 56/// 57/// 59039 60007 8//// 8//// 8//// 9//// 9//// 9//// 44
AAXX 20181 76593 32470 21405 10292 20246 30133 40135 57017 82200 91750 333 10310 20195 30/// 563// 59036 82820 91006 91514
AAXX 20181 76612 32662 30000 10228 20082 38467 40159 57003 83100 91750 333 10266 20070 30/// 56500 59006 83840
AAXX 20181 76625 32460 12702 10209 20068 38136 40121 57007 81100 91755 333 10211 20104 30/// 56100 59002 81818
AAXX 20181 76634 31670 11302 10216 20071 37841 40142 57011 70500 81100 91750 333 10220 20093 30/// 563// 59008 81834
AAXX 20181 76641 06/// /1002 10277 20216 30105 40116 58006 60002 7//// 8//// 91750 333 0//// 10277 20174 30/// 4//// 54/// 56/// 57/// 59033 60007 8//// 8//// 8//// 8//// 9//// 9//// 9/
AAXX 20181 76644 32465 51103 10294 20208 30119 40132 57022 85200 91750 333 10299 20199 30/// 86300 59036 85820 91007 91511
AAXX 20181 76645 06/// /1204 10298 20209 30122 40135 58022 60002 7//// 8//// 91750 333 0//// 10299 20200 30/// 4//// 54/// 56/// 57/// 59038 60007 8//// 8//// 8//// 9//// 9//// 9//// 44
AAXX 20181 76648 06/// /1303 10311 20205 30106 40136 58019 60002 7//// 8//// 91750 333 0//// 10311 20204 30/// 4//// 54/// 56/// 57/// 59035 60007 8//// 8//// 8//// 8//// 9//// 9//// 9/
AAXX 20181 76654 31430 11403 10301 20207 30140 40144 57005 70544 81200 91751 333 10301 20222 30/// 56900 59009 81820
AAXX 20181 76658 31556 13203 10272 20175 39629 40135 56012 70540 81200 91747 333 10278 20170 30/// 56100 59002 81824 94022 98924
AAXX 20181 76662 31670 12302 10220 20110 38462 40161 57005 70542 81100 91735 333 10235 20052 30/// 56/00 59005 81833
AAXX 20181 76665 32964 22102 10216 20077 38118 40156 57005 70300 82200 91750 333 10268 20065 30/// 57812 59006 82823
AAXX 20181 76675 31575 10702 10178 20005 37370 40191 57007 70540 81200 91753 333 10185 21017 30/// 569// 59009 81830 98475
AAXX 20181 76681 31950 00501 10190 20078 37774 40168 57018 70500 91745 333 10190 20032 30/// 50310 55080 59009 70000
AAXX 20181 76683 31668 10901 10194 20091 37820 40193 56012 70544 81100 91745 333 10200 20040 30/// 56200 58002 81840 9401094182
AAXX 20181 76684 06/// /1803 10210 20022 37820 40084 58013 60002 7//// 8//// 91750 333 0//// 10210 20031 30/// 4//// 54/// 56/// 57/// 59007 60007 8//// 8//// 8//// 9//// 9//// 9//// 44
AAXX 20181 76685 32970 12101 10190 20024 37860 40153 57004 81100 91750 333 10192 20052 30/// 56900 59007 81827
AAXX 20181 76687 31570 10701 10266 20030 38655 40134 58002 70100 81100 91738 333 10270 20115 30/// 563// 59029 81830
AAXX 20181 76692 31456 10702 10260 20200 30095 40114 58008 70544 81200 91745 333 10277 20179 30/// 564// 59050 81817
AAXX 20181 76693 06/// /0802 10266 20199 30092 40111 58011 60002 7//// 8//// 91750 333 0//// 10277 20178 30/// 4//// 56/// 57/// 59049 60007 8//// 8//// 8//// 8//// 9//// 9//// 9//// 44
AAXX 20181 76695 32960 01202 10296 20214 30113 40119 57018 91748 333 10300 20174 30/// 59037 91005 91513
AAXX 20181 76698 32560 61202 10298 20248 30130 40141 57011 86200 91750 333 10322 20199 30/// 56300 59035 86820
AAXX 20181 76727 06/// /1701 10234 20060 38391 40073 58006 60002 7//// 8//// 91750 333 0//// 10243 20123 30/// 4//// 54/// 56/// 57/// 59011 60007 8//// 8//// 8//// 9//// 9//// 9//// 44
AAXX 20181 76737 31480 12902 10279 20124 38745 40110 58004 70300 81100 91735 333 10282 20121 30/// 56200 59029 81813 91111 91529
AAXX 20181 76738 06/// /1101 10295 20101 38743 40055 58009 60002 7//// 8//// 333 10298 20119 30/// 56/// 57/// 59029 60007 8//// 8//// 8//// 8//// 9//// 9//// 9//// 444 ///// 555 30187
AAXX 20181 76743 31/58 01301 10280 20253 30102 40110 57014 70211 80000 1745 333 10290 20200 30/// 56000 59047
AAXX 20181 76750 32560 20903 10294 20231 30128 40138 57009 82100 91750 333 10301 20206 30/// 56200 59032 82820
AAXX 20181 76751 06/// /1103 10299 20236 30128 40138 58010 60002 7//// 8//// 91750 333 0//// 10301 20205 30/// 4//// 54/// 56/// 57/// 59033 60007 8//// 8//// 8//// 9//// 9//// 9//// 44
AAXX 20181 76762 31504 13201 10272 20218 38753 40127 57009 81200 91742 333 10274 20158 30/// 56200 59007 81830
AAXX 20181 76772 06/// /1902 10237 20079 38418 40091 58019 60002 7//// 8//// 91750 333 0//// 10247 20051 30/// 4//// 56/// 57/// 59011 60007 8//// 8//// 8//// 9//// 9//// 9//// 444 ////
AAXX 20181 76773 31568 11801 10238 20076 38416 40165 57015 7050/ 81100 91745 333 10244 20041 30/// 56900 59006 81820
AAXX 20181 76775 31970 21801 10248 20092 38513 40154 57013 70100 82100 91740 333 10270 20084 30/// 56802 59017 81824
AAXX 20181 76776 06/// /1601 10252 20084 38491 40071 58021 60002 7//// 8//// 91750 333 0//// 10253 20098 30/// 4//// 56/// 57/// 59014 60007 8//// 8//// 8//// 9//// 9//// 9//// 444 ////
AAXX 20181 76805 32570 12302 10298 20212 30113 40118 58016 81100 91750 333 10315 20230 30/// 563// 29018 81830
AAXX 20181 76806 06/// /2102 10301 20215 30118 40122 58012 60002 7//// 8//// 91750 333 10309 20222 30/// 56/// 57/// 59012 60007 8//// 8//// 8//// 8//// 9//// 9//// 9//// 555 30276
AAXX 20181 76833 32970 01403 10294 20236 30113 40115 57012 91745 333 10294 30/// 58/// 59001
AAXX 20181 76840 32450 42303 10323 20219 30060 40115 57016 84200 91740 333 10355 30/// 569// 59011 84827
AAXX 20181 76843 32665 10801 10268 20153 39474 40119 57018 81100 91740 333 10284 20160 30/// 561// 59031 81822
AAXX 20181 76848 32970 02401 10265 20100 38370 40083 56009 91750 333 10266 20093 30/// 59015
AAXX 20181 76902 06/// /2702 10311 20198 39985 40120 58017 60002 7//// 8//// 91750 333 0//// 10312 20223 30/// 4//// 54/// 56/// 57/// 59009 60007 8//// 8//// 8//// 8//// 9//// 9//// 9/
AAXX 20181 76903 31680 33001 10315 20212 39988 40118 57015 70111 82200 91745 333 10322 20224 30/// 59009 83833
AAXX 20181 76160 32862 40501 10146 20034 39901 40153 52003 83052 91730 333 10146 20070 30/// 56049 59056 83357
AAXX 20181 76243 32473 73005 10110 20029 39893 40194 54000 87400 91735 333 10116 20062 30/// 56800 58065 87616
AAXX 20181 76311 32680 60000 10184 20067 39864 40150 56008 86400 91748 333 10186 20072 30/// 56500 59037 86625
AAXX 20181 76405 32880 12202 10204 20140 30142 40163 50006 81010 91750 333 10204 20087 30/// 56050 59031 81457
AAXX 20181 76412 31966 02201 10184 20098 30127 40173 52016 70544 91740 333 10188 20060 30/// 59001
AAXX 20181 76640 31358 43201 10238 20217 30122 40134 50000 70211 84200 91740 333 10252 20172 30/// 567// 59035 84809
AAXX 20181 76647 01570 60903 10298 20219 30115 40146 58017 69901 72122 85330 91750 333 10302 20206 32/// 563/0 59038 69907 81932 84832
AAXX 20181 76656 31575 10000 10230 20082 38503 40158 58008 70344 81100 91752 333 10277 20076 30/// 56100 59008 81820
AAXX 20181 76741 31458 11702 10264 20221 30067 40086 57007 70544 81200 91735 333 10270 20176 30/// 564// 59064 81818
AAXX 20181 76855 32980 02102 10320 20244 30063 40112 50001 91745 333 10322 20216 30/// 59014 92000
AAXX 20181 76040 32960 43302 10148 20103 30164 40178 52005 84030 91745 333 10130 20056 30/// 56070 59002 84375 98660
AAXX 20181 76055 21570 83504 10118 20106 30140 40159 52009 76253 88700 91740 333 10184 20057 32/// 56600 59012 60027 88627
AAXX 20181 76056 06/// /3105 10113 20098 30144 40168 52011 60082 7//// 8//// 91750 333 0//// 10133 20098 30/// 4//// 54/// 56/// 57/// 59012 60087 8//// 8//// 8//// 9//// 9//// 9//// 44
AAXX 20181 76113 32980 02101 10128 20052 39666 40150 57006 91745 333 10135 20044 30/// 59042
AAXX 20181 76122 32970 61403 10068 21006 38517 40198 52001 84052 91750 333 10074 21032 30/// 56099 58006 84358
AAXX 20181 76123 06/// 61008 10078 21018 3//// 4//// 5//// 60002 7//// 84052 91750 333 0//// 10078 21041 56099 57/// 5//// 60007 8//// 8//// 84358 8//// 9//// 9//// 9//// 444 ///// 555
AAXX 20181 76220 32958 40000 10050 21002 38115 40204 57002 80006 91750 333 10050 21036 30/// 56006 59007
AAXX 20181 76225 32760 70901 10088 21026 38618 40177 50003 87020 91745 333 10088 20008 30/// 56050 58022 87450
AAXX 20181 76226 02/// ///// 1//// 2//// 3//// 4//// 5//// 6//// 7//// 8//// 9//// 333 0//// 1//// 2//// 30/// 4//// 54/// 56/// 57/// 5//// 6//// 8//// 8//// 8//// 9//// 9//// 9//// 44
AAXX 20181 76256 32980 40000 10163 20072 30150 40164 52006 80008 91745 333 10171 20081 30/// 56//5 59065 84270
AAXX 20181 76258 32870 61403 10168 20076 30106 40152 52004 84075 91750 333 10170 20046 30/// 56055 59047 84358
AAXX 20181 76305 32670 30601 10190 20078 30150 40158 52005 82430 91740 333 10196 20100 30/// 56440 59040 82650
AAXX 20181 76323 32970 10502 10108 21017 38248 40225 58006 80008 91755 333 10116 20011 30/// 58014
AAXX 20181 76342 32962 00603 10142 20035 39495 40216 52006 91750 333 10144 20090 30/// 58059
AAXX 20181 76373 32980 00000 10112 21063 38190 40131 52004 91750 333 10200 21050 30/// 58006
AAXX 20181 76390 31956 02307 10190 21042 38205 40119 57003 70544 91737 333 10200 20065 30/// 58013
AAXX 20181 76393 32640 10301 10190 20090 39570 40147 57001 81400 91750 333 10206 20140 30/// 56300 58053 81641
AAXX 20181 76402 31560 70202 10168 20096 30106 40164 52008 70544 87700 91745 333 10168 20056 30/// 56500 59040 87633
AAXX 20181 76458 32970 12402 10206 20153 30144 40148 52003 80001 91737 333 10232 20098 30/// 56//6 59010 81072
AAXX 20181 76471 32980 02306 10158 21071 37674 40132 54000 91750 333 10163 20011 30/// 58004
AAXX 20181 76490 06/// /0204 10252 20123 39747 40126 58009 60002 7//// 8//// 91750 333 0//// 10257 20127 30/// 54/// 56/// 57/// 58025 60007 8//// 8//// 8//// 8//// 9//// 9//// 9//// 44
AAXX 20181 76491 32960 03603 10245 20145 39764 40156 57008 91750 333 10257 20147 30/// 58025
AAXX 20181 76499 32460 30402 10255 20177 30098 40120 57005 83200 91755 333 10256 20159 30/// 56100 58010 83820
AAXX 20181 76525 32680 12112 10104 20019 37456 40142 52006 81100 91740 333 10105 20060 30/// 565// 58001 81835
AAXX 20181 76538 06/// /2207 10215 20012 38147 40070 58006 60002 7//// 8//// 91750 333 0//// 10221 20090 30/// 4//// 54/// 56/// 57/// 58001 60007 8//// 8//// 8//// 9//// 9//// 9//// 44
AAXX 20181 76539 32970 02405 10197 20061 38148 40146 54000 91750 333 10250 30031 30/// 58004
AAXX 20181 76543 31570 13402 10265 20198 30110 40142 57015 70544 81100 91745 333 10265 20142 30/// 56300 59024 81834
AAXX 20181 76547 06/// /2302 10269 20213 30110 40121 58006 60002 7//// 8//// 91750 333 0//// 10269 20195 56/// 57/// 59026 60007 8//// 8//// 8//// 8//// 9//// 9//// 9//// 444 ///// 555
AAXX 20181 76548 31472 62702 10256 20207 30124 40134 58001 70244 86400 91740 333 10262 20194 30/// 56300 59028 86618
AAXX 20181 76556 32970 00000 10232 20150 39111 40146 51005 91735 333 10240 20105 30/// 59010
AAXX 20181 76571 32680 11803 10200 20034 38159 40175 56005 81100 91750 333 10204 20050 30/// 56500 59001 81850
AAXX 20181 76577 32570 12306 10177 20131 38041 40159 50006 81400 91740 333 10187 20074 30/// 56500 59005 81628
AAXX 20181 76578 06/// /2204 10185 20036 38036 40100 58006 60002 7//// 8//// 91750 333 0//// 10185 20075 30/// 4//// 54/// 56/// 57/// 59007 60007 8//// 8//// 8//// 9//// 9//// 9//// 44
AAXX 20181 76581 32975 03501 10250 20143 39016 40126 57017 91750 333 10256 20078 30/// 59015
AAXX 20181 76585 32980 02701 10230 20199 39965 40123 58005 91735 333 10240 20124 30/// 59025
AAXX 20181 76586 06/// /2701 10267 39967 40119 58006 60002 7//// 8//// 91750 333 0//// 10268 20137 30/// 4//// 54/// 56/// 57/// 59023 60007 8//// 8//// 8//// 9//// 9//// 9//// 444 ////
AAXX 20181 76592 06/// /1312 10299 20005 30130 40130 58021 60002 7//// 8//// 91750 333 0//// 10310 20195 30/// 4//// 54/// 56/// 57/// 59039 60007 8//// 8//// 8//// 9//// 9//// 9//// 44
AAXX 20181 76593 32470 21405 10292 20246 30133 40135 57017 82200 91750 333 10310 20195 30/// 563// 59036 82820 91006 91514
AAXX 20181 76612 32662 30000 10228 20082 38467 40159 57003 83100 91750 333 10266 20070 30/// 56500 59006 83840
AAXX 20181 76625 32460 12702 10209 20068 38136 40121 57007 81100 91755 333 10211 20104 30/// 56100 59002 81818
AAXX 20181 76634 31670 11302 10216 20071 37841 40142 57011 70500 81100 91750 333 10220 20093 30/// 563// 59008 81834
AAXX 20181 76641 06/// /1002 10277 20216 30105 40116 58006 60002 7//// 8//// 91750 333 0//// 10277 20174 30/// 4//// 54/// 56/// 57/// 59033 60007 8//// 8//// 8//// 8//// 9//// 9//// 9/
AAXX 20181 76644 32465 51103 10294 20208 30119 40132 57022 85200 91750 333 10299 20199 30/// 86300 59036 85820 91007 91511
AAXX 20181 76645 06/// /1204 10298 20209 30122 40135 58022 60002 7//// 8//// 91750 333 0//// 10299 20200 30/// 4//// 54/// 56/// 57/// 59038 60007 8//// 8//// 8//// 9//// 9//// 9//// 44
AAXX 20181 76648 06/// /1303 10311 20205 30106 40136 58019 60002 7//// 8//// 91750 333 0//// 10311 20204 30/// 4//// 54/// 56/// 57/// 59035 60007 8//// 8//// 8//// 8//// 9//// 9//// 9/
AAXX 20181 76654 31430 11403 10301 20207 30140 40144 57005 70544 81200 91751 333 10301 20222 30/// 56900 59009 81820
AAXX 20181 76658 31556 13203 10272 20175 39629 40135 56012 70540 81200 91747 333 10278 20170 30/// 56100 59002 81824 94022 98924
AAXX 20181 76659 02/// ///// 1//// 2//// 3//// 4//// 5//// 6//// 7//// 8//// 9//// 333 0//// 1//// 2//// 30/// 4//// 54/// 56/// 57/// 5//// 6//// 8//// 8//// 8//// 9//// 9//// 9//// 44
AAXX 20181 76662 31670 12302 10220 20110 38462 40161 57005 70542 81100 91735 333 10235 20052 30/// 56/00 59005 81833
AAXX 20181 76665 32964 22102 10216 20077 38118 40156 57005 70300 82200 91750 333 10268 20065 30/// 57812 59006 82823
AAXX 20181 76675 31575 10702 10178 20005 37370 40191 57007 70540 81200 91753 333 10185 21017 30/// 569// 59009 81830 98475
AAXX 20181 76681 31950 00501 10190 20078 37774 40168 57018 70500 91745 333 10190 20032 30/// 50310 55080 59009 70000
AAXX 20181 76683 31668 10901 10194 20091 37820 40193 56012 70544 81100 91745 333 10200 20040 30/// 56200 58002 81840 94010 94182
AAXX 20181 76684 06/// /1803 10210 20022 37820 40084 58013 60002 7//// 8//// 91750 333 0//// 10210 20031 30/// 4//// 54/// 56/// 57/// 59007 60007 8//// 8//// 8//// 9//// 9//// 9//// 44
AAXX 20181 76685 32970 12101 10190 20024 37860 40153 57004 81100 91750 333 10192 20052 30/// 56900 59007 81827
AAXX 20181 76687 31570 10701 10266 20030 38655 40134 58002 70100 81100 91738 333 10270 20115 30/// 563// 59029 81830
AAXX 20181 76692 31456 10702 10260 20200 30095 40114 58008 70544 81200 91745 333 10277 20179 30/// 564// 59050 81817
AAXX 20181 76693 06/// /0802 10266 20199 30092 40111 58011 60002 7//// 8//// 91750 333 0//// 10277 20178 30/// 4//// 56/// 57/// 59049 60007 8//// 8//// 8//// 8//// 9//// 9//// 9//// 44
AAXX 20181 76695 32960 01202 10296 20214 30113 40119 57018 91748 333 10300 20174 30/// 59037 91005 91513
AAXX 20181 76698 32560 61202 10298 20248 30130 40141 57011 86200 91750 333 10322 20199 30/// 56300 59035 86820
AAXX 20181 76727 06/// /1701 10234 20060 38391 40073 58006 60002 7//// 8//// 91750 333 0//// 10243 20123 30/// 4//// 54/// 56/// 57/// 59011 60007 8//// 8//// 8//// 9//// 9//// 9//// 44
AAXX 20181 76737 31480 12902 10279 20124 38745 40110 58004 70300 81100 91735 333 10282 20121 30/// 56200 59029 81813 91111 91529
AAXX 20181 76738 06/// /1101 10295 20101 38743 40055 58009 60002 7//// 8//// 333 10298 20119 30/// 56/// 57/// 59029 60007 8//// 8//// 8//// 8//// 9//// 9//// 9//// 444 ///// 555 30187
AAXX 20181 76743 31/58 01301 10280 20253 30102 40110 57014 70211 80000 91745 333 10290 20200 30/// 56000 59047
AAXX 20181 76750 32560 20903 10294 20231 30128 40138 57009 82100 91750 333 10301 20206 30/// 56200 59032 82820
AAXX 20181 76751 06/// /1103 10299 20236 30128 40138 58010 60002 7//// 8//// 91750 333 0//// 10301 20205 30/// 4//// 54/// 56/// 57/// 59033 60007 8//// 8//// 8//// 9//// 9//// 9//// 44
AAXX 20181 76762 31504 13201 10272 20218 38753 40127 57009 81200 91742 333 10274 20158 30/// 56200 59007 81830
AAXX 20181 76772 06/// /1902 10237 20079 38418 40091 58019 60002 7//// 8//// 91750 333 0//// 10247 20051 30/// 4//// 56/// 57/// 59011 60007 8//// 8//// 8//// 9//// 9//// 9//// 444 ////
AAXX 20181 76773 31568 11801 10238 20076 38416 40165 57015 7050/ 81100 91745 333 10244 20041 30/// 56900 59006 81820
AAXX 20181 76775 31970 21801 10248 20092 38513 40154 57013 70100 82100 91740 333 10270 20084 30/// 56802 59017 81824
AAXX 20181 76776 06/// /1601 10252 20084 38491 40071 58021 60002 7//// 8//// 91750 333 0//// 10253 20098 30/// 4//// 56/// 57/// 59014 60007 8//// 8//// 8//// 9//// 9//// 9//// 444 ////
AAXX 20181 76805 32570 12302 10298 20212 30113 40118 58016 81100 91750 333 10315 20230 30/// 563// 29018 81830
AAXX 20181 76806 06/// /2102 10301 20215 30118 40122 58012 60002 7//// 8//// 91750 333 10309 20222 30/// 56/// 57/// 59012 60007 8//// 8//// 8//// 8//// 9//// 9//// 9//// 555 30276
AAXX 20181 76833 32970 01403 10294 20236 30113 40115 57012 91745 333 10294 30/// 58/// 59001
AAXX 20181 76840 32450 42303 10323 20219 30060 40115 57016 84200 91740 333 10355 30/// 569// 59011 84827
AAXX 20181 76843 32665 10801 10268 20153 39474 40119 57018 81100 91740 333 10284 20160 30/// 561// 59031 81822
AAXX 20181 76845 32960 02002 10210 20138 37935 40170 56018 91750 333 10222 20038 30/// 59009
AAXX 20181 76848 32970 02401 10265 20100 38370 40083 56009 91750 333 10266 20093 30/// 59015
AAXX 20181 76902 06/// /2702 10311 20198 39985 40120 58017 60002 7//// 8//// 91750 333 0//// 10312 20223 30/// 4//// 54/// 56/// 57/// 59009 60007 8//// 8//// 8//// 8//// 9//// 9//// 9/
AAXX 20181 76903 31680 33001 10315 20212 39988 40118 57015 70111 82200 91745 333 10322 20224 30/// 59009 83833
AAXX 20181 76160 32862 40501 10146 20034 39901 40153 52003 83052 91730 333 10146 20070 30/// 56049 59056 83357
AAXX 20181 76243 32473 73005 10110 20029 39893 40194 54000 87400 91735 333 10116 20062 30/// 56800 58065 87616
AAXX 20181 76311 32680 60000 10184 20067 39864 40150 56008 86400 91748 333 10186 20072 30/// 56500 59037 86625
AAXX 20181 76405 32880 12202 10204 20140 30142 40163 50006 81010 91750 333 10204 20087 30/// 56050 59031 81457
AAXX 20181 76412 31966 02201 10184 20098 30127 40173 52016 70544 91740 333 10188 20060 30/// 59001
AAXX 20181 76640 31358 43201 10238 20217 30122 40134 50000 70211 84200 91740 333 10252 20172 30/// 567// 59035 84809
AAXX 20181 76647 01570 60903 10298 20219 30115 40146 58017 69901 72122 85330 91750 333 10302 20206 32/// 563/0 59038 69907 81932 84832
AAXX 20181 76656 31575 10000 10230 20082 38503 40158 58008 70344 81100 91752 333 10277 20076 30/// 56100 59008 81820
AAXX 20181 76741 31458 11702 10264 20221 30067 40086 57007 70544 81200 91735 333 10270 20176 30/// 564// 59064 81818
AAXX 20181 76855 32980 02102 10320 20244 30063 40112 50001 91745 333 10322 20216 30/// 59014 92000
AAXX 20181 76040 32960 43302 10148 20103 30164 40178 52005 84030 91745 333 10130 20056 30/// 56070 59002 84375 98660
AAXX 20181 76055 21570 83504 10118 20106 30140 40159 52009 76253 88700 91740 333 10184 20057 32/// 56600 59012 60027 88627
AAXX 20181 76056 06/// /3105 10113 20098 30144 40168 52011 60082 7//// 8//// 91750 333 0//// 10133 20098 30/// 4//// 54/// 56/// 57/// 59012 60087 8//// 8//// 8//// 9//// 9//// 9//// 44
AAXX 20181 76113 32980 02101 10128 20052 39666 40150 57006 91745 333 10135 20044 30/// 59042
AAXX 20181 76122 32970 61403 10068 21006 38517 40198 52001 84052 91750 333 10074 21032 30/// 56099 58006 84358
AAXX 20181 76123 06/// 61008 10078 21018 3//// 4//// 5//// 60002 7//// 84052 91750 333 0//// 10078 21041 56099 57/// 5//// 60007 8//// 8//// 84358 8//// 9//// 9//// 9//// 444 ///// 555
AAXX 20181 76220 32958 40000 10050 21002 38115 40204 57002 80006 91750 333 10050 21036 30/// 56006 59007
AAXX 20181 76225 32760 70901 10088 21026 38618 40177 50003 87020 91745 333 10088 20008 30/// 56050 58022 87450
AAXX 20181 76256 32980 40000 10163 20072 30150 40164 52006 80008 91745 333 10171 20081 30/// 56//5 59065 84270
AAXX 20181 76305 32670 30601 10190 20078 30150 40158 52005 82430 91740 333 10196 20100 30/// 56440 59040 82650
AAXX 20181 76323 32970 10502 10108 21017 38248 40225 58006 80008 91755 333 10116 20011 30/// 58014
AAXX 20181 76342 32962 00603 10142 20035 39495 40216 52006 91750 333 10144 20090 30/// 58059
AAXX 20181 76373 32980 00000 10112 21063 38190 40131 52004 91750 333 10200 21050 30/// 58006
AAXX 20181 76390 31956 02307 10190 21042 38205 40119 57003 70544 91737 333 10200 20065 30/// 58013
AAXX 20181 76393 32640 10301 10190 20090 39570 40147 57001 81400 91750 333 10206 20140 30/// 56300 58053 81641
AAXX 20181 76402 31560 70202 10168 20096 30106 40164 52008 70544 87700 91745 333 10168 20056 30/// 56500 59040 87633
AAXX 20181 76458 32970 12402 10206 20153 30144 40148 52003 80001 91737 333 10232 20098 30/// 56//6 59010 81072
AAXX 20181 76471 32980 02306 10158 21071 37674 40132 54000 91750 333 10163 20011 30/// 58004
AAXX 20181 76490 06/// /0204 10252 20123 39747 40126 58009 60002 7//// 8//// 91750 333 0//// 10257 20127 30/// 54/// 56/// 57/// 58025 60007 8//// 8//// 8//// 8//// 9//// 9//// 9//// 44
AAXX 20181 76491 32960 03603 10245 20145 39764 40156 57008 91750 333 10257 20147 30/// 58025
AAXX 20181 76525 32680 12112 10104 20019 37456 40142 52006 81100 91740 333 10105 20060 30/// 565// 58001 81835
AAXX 20181 76538 06/// /2207 10215 20012 38147 40070 58006 60002 7//// 8//// 91750 333 0//// 10221 20090 30/// 4//// 54/// 56/// 57/// 58001 60007 8//// 8//// 8//// 9//// 9//// 9//// 44
AAXX 20181 76539 32970 02405 10197 20061 38148 40146 54000 91750 333 10250 30031 30/// 58004
AAXX 20181 76543 31570 13402 10265 20198 30110 40142 57015 70544 81100 91745 333 10265 20142 30/// 56300 59024 81834
AAXX 20181 76547 06/// /2302 10269 20213 30110 40121 58006 60002 7//// 8//// 91750 333 0//// 10269 20195 56/// 57/// 59026 60007 8//// 8//// 8//// 8//// 9//// 9//// 9//// 444 ///// 555
AAXX 20181 76548 31472 62702 10256 20207 30124 40134 58001 70244 86400 91740 333 10262 20194 30/// 56300 59028 86618
AAXX 20181 76556 32970 00000 10232 20150 39111 40146 51005 91735 333 10240 20105 30/// 59010
AAXX 20181 76571 32680 11803 10200 20034 38159 40175 56005 81100 91750 333 10204 20050 30/// 56500 59001 81850
AAXX 20181 76577 32570 12306 10177 20131 38041 40159 50006 81400 91740 333 10187 20074 30/// 56500 59005 81628
AAXX 20181 76578 06/// /2204 10185 20036 38036 40100 58006 60002 7//// 8//// 91750 333 0//// 10185 20075 30/// 4//// 54/// 56/// 57/// 59007 60007 8//// 8//// 8//// 9//// 9//// 9//// 44
AAXX 20181 76581 32975 03501 10250 20143 39016 40126 57017 91750 333 10256 20078 30/// 59015
AAXX 20181 76585 32980 02701 10230 20199 39965 40123 58005 91735 333 10240 20124 30/// 59025
AAXX 20181 76586 06/// /2701 10267 39967 40119 58006 60002 7//// 8//// 91750 333 0//// 10268 20137 30/// 4//// 54/// 56/// 57/// 59023 60007 8//// 8//// 8//// 9//// 9//// 9//// 444 ////
AAXX 20181 76592 06/// /1312 10299 20005 30130 40130 58021 60002 7//// 8//// 91750 333 0//// 10310 20195 30/// 4//// 54/// 56/// 57/// 59039 60007 8//// 8//// 8//// 9//// 9//// 9//// 44
AAXX 20181 76593 32470 21405 10292 20246 30133 40135 57017 82200 91750 333 10310 20195 30/// 563// 59036 82820 91006 91514
AAXX 20181 76612 32662 30000 10228 20082 38467 40159 57003 83100 91750 333 10266 20070 30/// 56500 59006 83840
AAXX 20181 76625 32460 12702 10209 20068 38136 40121 57007 81100 91755 333 10211 20104 30/// 56100 59002 81818
AAXX 20181 76634 31670 11302 10216 20071 37841 40142 57011 70500 81100 91750 333 10220 20093 30/// 563// 59008 81834
AAXX 20181 76641 06/// /1002 10277 20216 30105 40116 58006 60002 7//// 8//// 91750 333 0//// 10277 20174 30/// 4//// 54/// 56/// 57/// 59033 60007 8//// 8//// 8//// 8//// 9//// 9//// 9/
AAXX 20181 76644 32465 51103 10294 20208 30119 40132 57022 85200 91750 333 10299 20199 30/// 86300 59036 85820 91007 91511
AAXX 20181 76645 06/// /1204 10298 20209 30122 40135 58022 60002 7//// 8//// 91750 333 0//// 10299 20200 30/// 4//// 54/// 56/// 57/// 59038 60007 8//// 8//// 8//// 9//// 9//// 9//// 44
AAXX 20181 76648 06/// /1303 10311 20205 30106 40136 58019 60002 7//// 8//// 91750 333 0//// 10311 20204 30/// 4//// 54/// 56/// 57/// 59035 60007 8//// 8//// 8//// 8//// 9//// 9//// 9/
AAXX 20181 76654 31430 11403 10301 20207 30140 40144 57005 70544 81200 91751 333 10301 20222 30/// 56900 59009 81820
AAXX 20181 76658 31556 13203 10272 20175 39629 40135 56012 70540 81200 91747 333 10278 20170 30/// 56100 59002 81824 94022 98924
AAXX 20181 76662 31670 12302 10220 20110 38462 40161 57005 70542 81100 91735 333 10235 20052 30/// 56/00 59005 81833
AAXX 20181 76665 32964 22102 10216 20077 38118 40156 57005 70300 82200 91750 333 10268 20065 30/// 57812 59006 82823
AAXX 20181 76675 31575 10702 10178 20005 37370 40191 57007 70540 81200 91753 333 10185 21017 30/// 569// 59009 81830 98475
AAXX 20181 76681 31950 00501 10190 20078 37774 40168 57018 70500 91745 333 10190 20032 30/// 50310 55080 59009 70000
AAXX 20181 76683 31668 10901 10194 20091 37820 40193 56012 70544 81100 91745 333 10200 20040 30/// 56200 58002 81840 9401094182
AAXX 20181 76684 06/// /1803 10210 20022 37820 40084 58013 60002 7//// 8//// 91750 333 0//// 10210 20031 30/// 4//// 54/// 56/// 57/// 59007 60007 8//// 8//// 8//// 9//// 9//// 9//// 44
AAXX 20181 76685 32970 12101 10190 20024 37860 40153 57004 81100 91750 333 10192 20052 30/// 56900 59007 81827
AAXX 20181 76687 31570 10701 10266 20030 38655 40134 58002 70100 81100 91738 333 10270 20115 30/// 563// 59029 81830
AAXX 20181 76692 31456 10702 10260 20200 30095 40114 58008 70544 81200 91745 333 10277 20179 30/// 564// 59050 81817
AAXX 20181 76693 06/// /0802 10266 20199 30092 40111 58011 60002 7//// 8//// 91750 333 0//// 10277 20178 30/// 4//// 56/// 57/// 59049 60007 8//// 8//// 8//// 8//// 9//// 9//// 9//// 44
AAXX 20181 76695 32960 01202 10296 20214 30113 40119 57018 91748 333 10300 20174 30/// 59037 91005 91513
AAXX 20181 76698 32560 61202 10298 20248 30130 40141 57011 86200 91750 333 10322 20199 30/// 56300 59035 86820
AAXX 20181 76727 06/// /1701 10234 20060 38391 40073 58006 60002 7//// 8//// 91750 333 0//// 10243 20123 30/// 4//// 54/// 56/// 57/// 59011 60007 8//// 8//// 8//// 9//// 9//// 9//// 44
AAXX 20181 76737 31480 12902 10279 20124 38745 40110 58004 70300 81100 91735 333 10282 20121 30/// 56200 59029 81813 91111 91529
AAXX 20181 76738 06/// /1101 10295 20101 38743 40055 58009 60002 7//// 8//// 333 10298 20119 30/// 56/// 57/// 59029 60007 8//// 8//// 8//// 8//// 9//// 9//// 9//// 444 ///// 555 30187
AAXX 20181 76743 31/58 01301 10280 20253 30102 40110 57014 70211 80000 1745 333 10290 20200 30/// 56000 59047
AAXX 20181 76750 32560 20903 10294 20231 30128 40138 57009 82100 91750 333 10301 20206 30/// 56200 59032 82820
AAXX 20181 76751 06/// /1103 10299 20236 30128 40138 58010 60002 7//// 8//// 91750 333 0//// 10301 20205 30/// 4//// 54/// 56/// 57/// 59033 60007 8//// 8//// 8//// 9//// 9//// 9//// 44
AAXX 20181 76762 31504 13201 10272 20218 38753 40127 57009 81200 91742 333 10274 20158 30/// 56200 59007 81830
AAXX 20181 76772 06/// /1902 10237 20079 38418 40091 58019 60002 7//// 8//// 91750 333 0//// 10247 20051 30/// 4//// 56/// 57/// 59011 60007 8//// 8//// 8//// 9//// 9//// 9//// 444 ////
AAXX 20181 76773 31568 11801 10238 20076 38416 40165 57015 7050/ 81100 91745 333 10244 20041 30/// 56900 59006 81820
AAXX 20181 76775 31970 21801 10248 20092 38513 40154 57013 70100 82100 91740 333 10270 20084 30/// 56802 59017 81824
AAXX 20181 76776 06/// /1601 10252 20084 38491 40071 58021 60002 7//// 8//// 91750 333 0//// 10253 20098 30/// 4//// 56/// 57/// 59014 60007 8//// 8//// 8//// 9//// 9//// 9//// 444 ////
AAXX 20181 76805 32570 12302 10298 20212 30113 40118 58016 81100 91750 333 10315 20230 30/// 563// 29018 81830
AAXX 20181 76806 06/// /2102 10301 20215 30118 40122 58012 60002 7//// 8//// 91750 333 10309 20222 30/// 56/// 57/// 59012 60007 8//// 8//// 8//// 8//// 9//// 9//// 9//// 555 30276
AAXX 20181 76833 32970 01403 10294 20236 30113 40115 57012 91745 333 10294 30/// 58/// 59001
AAXX 20181 76840 32450 42303 10323 20219 30060 40115 57016 84200 91740 333 10355 30/// 569// 59011 84827
AAXX 20181 76843 32665 10801 10268 20153 39474 40119 57018 81100 91740 333 10284 20160 30/// 561// 59031 81822
AAXX 20181 76848 32970 02401 10265 20100 38370 40083 56009 91750 333 10266 20093 30/// 59015
AAXX 20181 76902 06/// /2702 10311 20198 39985 40120 58017 60002 7//// 8//// 91750 333 0//// 10312 20223 30/// 4//// 54/// 56/// 57/// 59009 60007 8//// 8//// 8//// 8//// 9//// 9//// 9/
AAXX 20181 76903 31680 33001 10315 20212 39988 40118 57015 70111 82200 91745 333 10322 20224 30/// 59009 83833
AAXX 20181 76160 32862 40501 10146 20034 39901 40153 52003 83052 91730 333 10146 20070 30/// 56049 59056 83357
AAXX 20181 76243 32473 73005 10110 20029 39893 40194 54000 87400 91735 333 10116 20062 30/// 56800 58065 87616
AAXX 20181 76311 32680 60000 10184 20067 39864 40150 56008 86400 91748 333 10186 20072 30/// 56500 59037 86625
AAXX 20181 76405 32880 12202 10204 20140 30142 40163 50006 81010 91750 333 10204 20087 30/// 56050 59031 81457
AAXX 20181 76412 31966 02201 10184 20098 30127 40173 52016 70544 91740 333 10188 20060 30/// 59001
AAXX 20181 76640 31358 43201 10238 20217 30122 40134 50000 70211 84200 91740 333 10252 20172 30/// 567// 59035 84809
AAXX 20181 76647 01570 60903 10298 20219 30115 40146 58017 69901 72122 85330 91750 333 10302 20206 32/// 563/0 59038 69907 81932 84832
AAXX 20181 76656 31575 10000 10230 20082 38503 40158 58008 70344 81100 91752 333 10277 20076 30/// 56100 59008 81820
AAXX 20181 76741 31458 11702 10264 20221 30067 40086 57007 70544 81200 91735 333 10270 20176 30/// 564// 59064 81818
AAXX 20181 76855 32980 02102 10320 20244 30063 40112 50001 91745 333 10322 20216 30/// 59014 92000
AAXX 20181 76040 32960 43302 10148 20103 30164 40178 52005 84030 91745333 10130 20056 30/// 56070 59002 84375 98660
AAXX 20181 76055 21570 83504 10118 20106 30140 40159 52009 76253 8870091740 333 10184 20057 32/// 56600 59012 60027 88627
AAXX 20181 76056 06/// /3105 10113 20098 30144 40168 52011 60082 7////8//// 91750 333 0//// 10133 20098 30/// 4//// 54/// 56///57/// 59012 60087 8//// 8//// 8//// 9//// 9//// 9//// 44
AAXX 20181 76113 32980 02101 10128 20052 39666 40150 57006 91745 33310135 20044 30/// 59042
AAXX 20181 76122 32970 61403 10068 21006 38517 40198 52001 84052 91750333 10074 21032 30/// 56099 58006 84358
AAXX 20181 76123 06/// 61008 10078 21018 3//// 4//// 5//// 60002 7////84052 91750 333 0//// 10078 21041 56099 57/// 5//// 600078//// 8//// 84358 8//// 9//// 9//// 9//// 444 ///// 555
AAXX 20181 76220 32958 40000 10050 21002 38115 40204 57002 80006 91750333 10050 21036 30/// 56006 59007
AAXX 20181 76225 32760 70901 10088 21026 38618 40177 50003 87020 91745333 10088 20008 30/// 56050 58022 87450
AAXX 20181 76256 32980 40000 10163 20072 30150 40164 52006 80008 91745333 10171 20081 30/// 56//5 59065 84270
AAXX 20181 76305 32670 30601 10190 20078 30150 40158 52005 82430 91740333 10196 20100 30/// 56440 59040 82650
AAXX 20181 76323 32970 10502 10108 21017 38248 40225 58006 80008 91755333 10116 20011 30/// 58014
AAXX 20181 76342 32962 00603 10142 20035 39495 40216 52006 91750 33310144 20090 30/// 58059
AAXX 20181 76373 32980 00000 10112 21063 38190 40131 52004 91750 33310200 21050 30/// 58006
AAXX 20181 76390 31956 02307 10190 21042 38205 40119 57003 70544 91737333 10200 20065 30/// 58013
AAXX 20181 76393 32640 10301 10190 20090 39570 40147 57001 81400 91750333 10206 20140 30/// 56300 58053 81641
AAXX 20181 76402 31560 70202 10168 20096 30106 40164 52008 70544 8770091745 333 10168 20056 30/// 56500 59040 87633
AAXX 20181 76458 32970 12402 10206 20153 30144 40148 52003 80001 91737333 10232 20098 30/// 56//6 59010 81072
AAXX 20181 76471 32980 02306 10158 21071 37674 40132 54000 91750 33310163 20011 30/// 58004
AAXX 20181 76490 06/// /0204 10252 20123 39747 40126 58009 60002 7////8//// 91750 333 0//// 10257 20127 30/// 54/// 56/// 57///58025 60007 8//// 8//// 8//// 8//// 9//// 9//// 9//// 44
AAXX 20181 76491 32960 03603 10245 20145 39764 40156 57008 91750 33310257 20147 30/// 58025
AAXX 20181 76525 32680 12112 10104 20019 37456 40142 52006 81100 91740333 10105 20060 30/// 565// 58001 81835
AAXX 20181 76538 06/// /2207 10215 20012 38147 40070 58006 60002 7////8//// 91750 333 0//// 10221 20090 30/// 4//// 54/// 56///57/// 58001 60007 8//// 8//// 8//// 9//// 9//// 9//// 44
AAXX 20181 76539 32970 02405 10197 20061 38148 40146 54000 91750 33310250 30031 30/// 58004
AAXX 20181 76543 31570 13402 10265 20198 30110 40142 57015 70544 8110091745 333 10265 20142 30/// 56300 59024 81834
AAXX 20181 76547 06/// /2302 10269 20213 30110 40121 58006 60002 7////8//// 91750 333 0//// 10269 20195 56/// 57/// 59026 600078//// 8//// 8//// 8//// 9//// 9//// 9//// 444 ///// 555
AAXX 20181 76548 31472 62702 10256 20207 30124 40134 58001 70244 8640091740 333 10262 20194 30/// 56300 59028 86618
AAXX 20181 76556 32970 00000 10232 20150 39111 40146 51005 91735 33310240 20105 30/// 59010
AAXX 20181 76571 32680 11803 10200 20034 38159 40175 56005 81100 91750333 10204 20050 30/// 56500 59001 81850
AAXX 20181 76577 32570 12306 10177 20131 38041 40159 50006 81400 91740333 10187 20074 30/// 56500 59005 81628
AAXX 20181 76578 06/// /2204 10185 20036 38036 40100 58006 60002 7////8//// 91750 333 0//// 10185 20075 30/// 4//// 54/// 56///57/// 59007 60007 8//// 8//// 8//// 9//// 9//// 9//// 44
AAXX 20181 76581 32975 03501 10250 20143 39016 40126 57017 91750 33310256 20078 30/// 59015
AAXX 20181 76585 32980 02701 10230 20199 39965 40123 58005 91735 33310240 20124 30/// 59025
AAXX 20181 76586 06/// /2701 10267 39967 40119 58006 60002 7//// 8////91750 333 0//// 10268 20137 30/// 4//// 54/// 56/// 57///59023 60007 8//// 8//// 8//// 9//// 9//// 9//// 444 ////
AAXX 20181 76592 06/// /1312 10299 20005 30130 40130 58021 60002 7////8//// 91750 333 0//// 10310 20195 30/// 4//// 54/// 56///57/// 59039 60007 8//// 8//// 8//// 9//// 9//// 9//// 44
AAXX 20181 76593 32470 21405 10292 20246 30133 40135 57017 82200 91750333 10310 20195 30/// 563// 59036 82820 91006 91514
AAXX 20181 76612 32662 30000 10228 20082 38467 40159 57003 83100 91750333 10266 20070 30/// 56500 59006 83840
AAXX 20181 76625 32460 12702 10209 20068 38136 40121 57007 81100 91755333 10211 20104 30/// 56100 59002 81818
AAXX 20181 76634 31670 11302 10216 20071 37841 40142 57011 70500 8110091750 333 10220 20093 30/// 563// 59008 81834
AAXX 20181 76641 06/// /1002 10277 20216 30105 40116 58006 60002 7////8//// 91750 333 0//// 10277 20174 30/// 4//// 54/// 56///57/// 59033 60007 8//// 8//// 8//// 8//// 9//// 9//// 9/
AAXX 20181 76644 32465 51103 10294 20208 30119 40132 57022 85200 91750333 10299 20199 30/// 86300 59036 85820 91007 91511
AAXX 20181 76645 06/// /1204 10298 20209 30122 40135 58022 60002 7////8//// 91750 333 0//// 10299 20200 30/// 4//// 54/// 56///57/// 59038 60007 8//// 8//// 8//// 9//// 9//// 9//// 44
AAXX 20181 76648 06/// /1303 10311 20205 30106 40136 58019 60002 7////8//// 91750 333 0//// 10311 20204 30/// 4//// 54/// 56///57/// 59035 60007 8//// 8//// 8//// 8//// 9//// 9//// 9/
AAXX 20181 76654 31430 11403 10301 20207 30140 40144 57005 70544 8120091751 333 10301 20222 30/// 56900 59009 81820
AAXX 20181 76658 31556 13203 10272 20175 39629 40135 56012 70540 8120091747 333 10278 20170 30/// 56100 59002 81824 94022 98924
AAXX 20181 76662 31670 12302 10220 20110 38462 40161 57005 70542 8110091735 333 10235 20052 30/// 56/00 59005 81833
AAXX 20181 76665 32964 22102 10216 20077 38118 40156 57005 70300 8220091750 333 10268 20065 30/// 57812 59006 82823
AAXX 20181 76675 31575 10702 10178 20005 37370 40191 57007 70540 8120091753 333 10185 21017 30/// 569// 59009 81830 98475
AAXX 20181 76681 31950 00501 10190 20078 37774 40168 57018 70500 91745333 10190 20032 30/// 50310 55080 59009 70000
AAXX 20181 76683 31668 10901 10194 20091 37820 40193 56012 70544 8110091745 333 10200 20040 30/// 56200 58002 81840 9401094182
AAXX 20181 76684 06/// /1803 10210 20022 37820 40084 58013 60002 7////8//// 91750 333 0//// 10210 20031 30/// 4//// 54/// 56///57/// 59007 60007 8//// 8//// 8//// 9//// 9//// 9//// 44
AAXX 20181 76685 32970 12101 10190 20024 37860 40153 57004 81100 91750333 10192 20052 30/// 56900 59007 81827
AAXX 20181 76687 31570 10701 10266 20030 38655 40134 58002 70100 8110091738 333 10270 20115 30/// 563// 59029 81830
AAXX 20181 76692 31456 10702 10260 20200 30095 40114 58008 70544 8120091745 333 10277 20179 30/// 564// 59050 81817
AAXX 20181 76693 06/// /0802 10266 20199 30092 40111 58011 60002 7////8//// 91750 333 0//// 10277 20178 30/// 4//// 56/// 57///59049 60007 8//// 8//// 8//// 8//// 9//// 9//// 9//// 44
AAXX 20181 76695 32960 01202 10296 20214 30113 40119 57018 91748 33310300 20174 30/// 59037 91005 91513
AAXX 20181 76698 32560 61202 10298 20248 30130 40141 57011 86200 91750333 10322 20199 30/// 56300 59035 86820
AAXX 20181 76727 06/// /1701 10234 20060 38391 40073 58006 60002 7////8//// 91750 333 0//// 10243 20123 30/// 4//// 54/// 56///57/// 59011 60007 8//// 8//// 8//// 9//// 9//// 9//// 44
AAXX 20181 76737 31480 12902 10279 20124 38745 40110 58004 70300 8110091735 333 10282 20121 30/// 56200 59029 81813 91111 91529
AAXX 20181 76738 06/// /1101 10295 20101 38743 40055 58009 60002 7////8//// 333 10298 20119 30/// 56/// 57/// 59029 60007 8////8//// 8//// 8//// 9//// 9//// 9//// 444 ///// 555 30187
AAXX 20181 76743 31/58 01301 10280 20253 30102 40110 57014 70211 800001745 333 10290 20200 30/// 56000 59047
AAXX 20181 76750 32560 20903 10294 20231 30128 40138 57009 82100 91750333 10301 20206 30/// 56200 59032 82820
AAXX 20181 76751 06/// /1103 10299 20236 30128 40138 58010 60002 7////8//// 91750 333 0//// 10301 20205 30/// 4//// 54/// 56///57/// 59033 60007 8//// 8//// 8//// 9//// 9//// 9//// 44
AAXX 20181 76762 31504 13201 10272 20218 38753 40127 57009 81200 91742333 10274 20158 30/// 56200 59007 81830
AAXX 20181 76772 06/// /1902 10237 20079 38418 40091 58019 60002 7////8//// 91750 333 0//// 10247 20051 30/// 4//// 56/// 57///59011 60007 8//// 8//// 8//// 9//// 9//// 9//// 444 ////
AAXX 20181 76773 31568 11801 10238 20076 38416 40165 57015 7050/ 8110091745 333 10244 20041 30/// 56900 59006 81820
AAXX 20181 76775 31970 21801 10248 20092 38513 40154 57013 70100 8210091740 333 10270 20084 30/// 56802 59017 81824
AAXX 20181 76776 06/// /1601 10252 20084 38491 40071 58021 60002 7////8//// 91750 333 0//// 10253 20098 30/// 4//// 56/// 57///59014 60007 8//// 8//// 8//// 9//// 9//// 9//// 444 ////
AAXX 20181 76805 32570 12302 10298 20212 30113 40118 58016 81100 91750333 10315 20230 30/// 563// 29018 81830
AAXX 20181 76806 06/// /2102 10301 20215 30118 40122 58012 60002 7////8//// 91750 333 10309 20222 30/// 56/// 57/// 59012 600078//// 8//// 8//// 8//// 9//// 9//// 9//// 555 30276
AAXX 20181 76833 32970 01403 10294 20236 30113 40115 57012 91745 33310294 30/// 58/// 59001
AAXX 20181 76840 32450 42303 10323 20219 30060 40115 57016 84200 91740333 10355 30/// 569// 59011 84827
AAXX 20181 76843 32665 10801 10268 20153 39474 40119 57018 81100 91740333 10284 20160 30/// 561// 59031 81822
AAXX 20181 76848 32970 02401 10265 20100 38370 40083 56009 91750 33310266 20093 30/// 59015
AAXX 20181 76902 06/// /2702 10311 20198 39985 40120 58017 60002 7////8//// 91750 333 0//// 10312 20223 30/// 4//// 54/// 56///57/// 59009 60007 8//// 8//// 8//// 8//// 9//// 9//// 9/
AAXX 20181 76903 31680 33001 10315 20212 39988 40118 57015 70111 8220091745 333 10322 20224 30/// 59009 83833
AAXX 20181 76160 32862 40501 10146 20034 39901 40153 52003 83052 91730333 10146 20070 30/// 56049 59056 83357
AAXX 20181 76243 32473 73005 10110 20029 39893 40194 54000 87400 91735333 10116 20062 30/// 56800 58065 87616
AAXX 20181 76311 32680 60000 10184 20067 39864 40150 56008 86400 91748333 10186 20072 30/// 56500 59037 86625
AAXX 20181 76405 32880 12202 10204 20140 30142 40163 50006 81010 91750333 10204 20087 30/// 56050 59031 81457
AAXX 20181 76412 31966 02201 10184 20098 30127 40173 52016 70544 91740333 10188 20060 30/// 59001
AAXX 20181 76640 31358 43201 10238 20217 30122 40134 50000 70211 8420091740 333 10252 20172 30/// 567// 59035 84809
AAXX 20181 76647 01570 60903 10298 20219 30115 40146 58017 69901 7212285330 91750 333 10302 20206 32/// 563/0 59038 69907 8193284832
AAXX 20181 76656 31575 10000 10230 20082 38503 40158 58008 70344 8110091752 333 10277 20076 30/// 56100 59008 81820
AAXX 20181 76741 31458 11702 10264 20221 30067 40086 57007 70544 8120091735 333 10270 20176 30/// 564// 59064 81818
AAXX 20181 76855 32980 02102 10320 20244 30063 40112 50001 91745 33310322 20216 30/// 59014 92000
AAXX 20181 76040 32960 43302 10148 20103 30164 40178 52005 84030 91745 333 10130 20056 30/// 56070 59002 84375 98660
AAXX 20181 76055 21570 83504 10118 20106 30140 40159 52009 76253 88700 91740 333 10184 20057 32/// 56600 59012 60027 88627
AAXX 20181 76056 06/// /3105 10113 20098 30144 40168 52011 60082 7//// 8//// 91750 333 0//// 10133 20098 30/// 4//// 54/// 56/// 57/// 59012 60087 8//// 8//// 8//// 9//// 9//// 9//// 44
AAXX 20181 76113 32980 02101 10128 20052 39666 40150 57006 91745 333 10135 20044 30/// 59042
AAXX 20181 76122 32970 61403 10068 21006 38517 40198 52001 84052 91750 333 10074 21032 30/// 56099 58006 84358
AAXX 20181 76123 06/// 61008 10078 21018 3//// 4//// 5//// 60002 7//// 84052 91750 333 0//// 10078 21041 56099 57/// 5//// 60007 8//// 8//// 84358 8//// 9//// 9//// 9//// 444 ///// 555
AAXX 20181 76220 32958 40000 10050 21002 38115 40204 57002 80006 91750 333 10050 21036 30/// 56006 59007
AAXX 20181 76225 32760 70901 10088 21026 38618 40177 50003 87020 91745 333 10088 20008 30/// 56050 58022 87450
AAXX 20181 76226 02/// ///// 1//// 2//// 3//// 4//// 5//// 6//// 7//// 8//// 9//// 333 0//// 1//// 2//// 30/// 4//// 54/// 56/// 57/// 5//// 6//// 8//// 8//// 8//// 9//// 9//// 9//// 44
AAXX 20181 76256 32980 40000 10163 20072 30150 40164 52006 80008 91745 333 10171 20081 30/// 56//5 59065 84270
AAXX 20181 76258 32870 61403 10168 20076 30106 40152 52004 84075 91750 333 10170 20046 30/// 56055 59047 84358
AAXX 20181 76305 32670 30601 10190 20078 30150 40158 52005 82430 91740 333 10196 20100 30/// 56440 59040 82650
AAXX 20181 76323 32970 10502 10108 21017 38248 40225 58006 80008 91755 333 10116 20011 30/// 58014
AAXX 20181 76342 32962 00603 10142 20035 39495 40216 52006 91750 333 10144 20090 30/// 58059
AAXX 20181 76373 32980 00000 10112 21063 38190 40131 52004 91750 333 10200 21050 30/// 58006
AAXX 20181 76390 31956 02307 10190 21042 38205 40119 57003 70544 91737 333 10200 20065 30/// 58013
AAXX 20181 76393 32640 10301 10190 20090 39570 40147 57001 81400 91750 333 10206 20140 30/// 56300 58053 81641
AAXX 20181 76402 31560 70202 10168 20096 30106 40164 52008 70544 87700 91745 333 10168 20056 30/// 56500 59040 87633
AAXX 20181 76458 32970 12402 10206 20153 30144 40148 52003 80001 91737 333 10232 20098 30/// 56//6 59010 81072
AAXX 20181 76471 32980 02306 10158 21071 37674 40132 54000 91750 333 10163 20011 30/// 58004
AAXX 20181 76490 06/// /0204 10252 20123 39747 40126 58009 60002 7//// 8//// 91750 333 0//// 10257 20127 30/// 54/// 56/// 57/// 58025 60007 8//// 8//// 8//// 8//// 9//// 9//// 9//// 44
AAXX 20181 76491 32960 03603 10245 20145 39764 40156 57008 91750 333 10257 20147 30/// 58025
AAXX 20181 76499 32460 30402 10255 20177 30098 40120 57005 83200 91755 333 10256 20159 30/// 56100 58010 83820
AAXX 20181 76525 32680 12112 10104 20019 37456 40142 52006 81100 91740 333 10105 20060 30/// 565// 58001 81835
AAXX 20181 76538 06/// /2207 10215 20012 38147 40070 58006 60002 7//// 8//// 91750 333 0//// 10221 20090 30/// 4//// 54/// 56/// 57/// 58001 60007 8//// 8//// 8//// 9//// 9//// 9//// 44
AAXX 20181 76539 32970 02405 10197 20061 38148 40146 54000 91750 333 10250 30031 30/// 58004
AAXX 20181 76543 31570 13402 10265 20198 30110 40142 57015 70544 81100 91745 333 10265 20142 30/// 56300 59024 81834
AAXX 20181 76547 06/// /2302 10269 20213 30110 40121 58006 60002 7//// 8//// 91750 333 0//// 10269 20195 56/// 57/// 59026 60007 8//// 8//// 8//// 8//// 9//// 9//// 9//// 444 ///// 555
AAXX 20181 76548 31472 62702 10256 20207 30124 40134 58001 70244 86400 91740 333 10262 20194 30/// 56300 59028 86618
AAXX 20181 76556 32970 00000 10232 20150 39111 40146 51005 91735 333 10240 20105 30/// 59010
AAXX 20181 76571 32680 11803 10200 20034 38159 40175 56005 81100 91750 333 10204 20050 30/// 56500 59001 81850
AAXX 20181 76577 32570 12306 10177 20131 38041 40159 50006 81400 91740 333 10187 20074 30/// 56500 59005 81628
AAXX 20181 76578 06/// /2204 10185 20036 38036 40100 58006 60002 7//// 8//// 91750 333 0//// 10185 20075 30/// 4//// 54/// 56/// 57/// 59007 60007 8//// 8//// 8//// 9//// 9//// 9//// 44
AAXX 20181 76581 32975 03501 10250 20143 39016 40126 57017 91750 333 10256 20078 30/// 59015
AAXX 20181 76585 32980 02701 10230 20199 39965 40123 58005 91735 333 10240 20124 30/// 59025
AAXX 20181 76586 06/// /2701 10267 39967 40119 58006 60002 7//// 8//// 91750 333 0//// 10268 20137 30/// 4//// 54/// 56/// 57/// 59023 60007 8//// 8//// 8//// 9//// 9//// 9//// 444 ////
AAXX 20181 76592 06/// /1312 10299 20005 30130 40130 58021 60002 7//// 8//// 91750 333 0//// 10310 20195 30/// 4//// 54/// 56/// 57/// 59039 60007 8//// 8//// 8//// 9//// 9//// 9//// 44
AAXX 20181 76593 32470 21405 10292 20246 30133 40135 57017 82200 91750 333 10310 20195 30/// 563// 59036 82820 91006 91514
AAXX 20181 76612 32662 30000 10228 20082 38467 40159 57003 83100 91750 333 10266 20070 30/// 56500 59006 83840
AAXX 20181 76625 32460 12702 10209 20068 38136 40121 57007 81100 91755 333 10211 20104 30/// 56100 59002 81818
AAXX 20181 76634 31670 11302 10216 20071 37841 40142 57011 70500 81100 91750 333 10220 20093 30/// 563// 59008 81834
AAXX 20181 76641 06/// /1002 10277 20216 30105 40116 58006 60002 7//// 8//// 91750 333 0//// 10277 20174 30/// 4//// 54/// 56/// 57/// 59033 60007 8//// 8//// 8//// 8//// 9//// 9//// 9/
AAXX 20181 76644 32465 51103 10294 20208 30119 40132 57022 85200 91750 333 10299 20199 30/// 86300 59036 85820 91007 91511
AAXX 20181 76645 06/// /1204 10298 20209 30122 40135 58022 60002 7//// 8//// 91750 333 0//// 10299 20200 30/// 4//// 54/// 56/// 57/// 59038 60007 8//// 8//// 8//// 9//// 9//// 9//// 44
AAXX 20181 76648 06/// /1303 10311 20205 30106 40136 58019 60002 7//// 8//// 91750 333 0//// 10311 20204 30/// 4//// 54/// 56/// 57/// 59035 60007 8//// 8//// 8//// 8//// 9//// 9//// 9/
AAXX 20181 76654 31430 11403 10301 20207 30140 40144 57005 70544 81200 91751 333 10301 20222 30/// 56900 59009 81820
AAXX 20181 76658 31556 13203 10272 20175 39629 40135 56012 70540 81200 91747 333 10278 20170 30/// 56100 59002 81824 94022 98924
AAXX 20181 76659 02/// ///// 1//// 2//// 3//// 4//// 5//// 6//// 7//// 8//// 9//// 333 0//// 1//// 2//// 30/// 4//// 54/// 56/// 57/// 5//// 6//// 8//// 8//// 8//// 9//// 9//// 9//// 44
AAXX 20181 76662 31670 12302 10220 20110 38462 40161 57005 70542 81100 91735 333 10235 20052 30/// 56/00 59005 81833
AAXX 20181 76665 32964 22102 10216 20077 38118 40156 57005 70300 82200 91750 333 10268 20065 30/// 57812 59006 82823
AAXX 20181 76675 31575 10702 10178 20005 37370 40191 57007 70540 81200 91753 333 10185 21017 30/// 569// 59009 81830 98475
AAXX 20181 76681 31950 00501 10190 20078 37774 40168 57018 70500 91745 333 10190 20032 30/// 50310 55080 59009 70000
AAXX 20181 76683 31668 10901 10194 20091 37820 40193 56012 70544 81100 91745 333 10200 20040 30/// 56200 58002 81840 94010 94182
AAXX 20181 76684 06/// /1803 10210 20022 37820 40084 58013 60002 7//// 8//// 91750 333 0//// 10210 20031 30/// 4//// 54/// 56/// 57/// 59007 60007 8//// 8//// 8//// 9//// 9//// 9//// 44
AAXX 20181 76685 32970 12101 10190 20024 37860 40153 57004 81100 91750 333 10192 20052 30/// 56900 59007 81827
AAXX 20181 76687 31570 10701 10266 20030 38655 40134 58002 70100 81100 91738 333 10270 20115 30/// 563// 59029 81830
AAXX 20181 76692 31456 10702 10260 20200 30095 40114 58008 70544 81200 91745 333 10277 20179 30/// 564// 59050 81817
AAXX 20181 76693 06/// /0802 10266 20199 30092 40111 58011 60002 7//// 8//// 91750 333 0//// 10277 20178 30/// 4//// 56/// 57/// 59049 60007 8//// 8//// 8//// 8//// 9//// 9//// 9//// 44
AAXX 20181 76695 32960 01202 10296 20214 30113 40119 57018 91748 333 10300 20174 30/// 59037 91005 91513
AAXX 20181 76698 32560 61202 10298 20248 30130 40141 57011 86200 91750 333 10322 20199 30/// 56300 59035 86820
AAXX 20181 76727 06/// /1701 10234 20060 38391 40073 58006 60002 7//// 8//// 91750 333 0//// 10243 20123 30/// 4//// 54/// 56/// 57/// 59011 60007 8//// 8//// 8//// 9//// 9//// 9//// 44
AAXX 20181 76737 31480 12902 10279 20124 38745 40110 58004 70300 81100 91735 333 10282 20121 30/// 56200 59029 81813 91111 91529
AAXX 20181 76738 06/// /1101 10295 20101 38743 40055 58009 60002 7//// 8//// 333 10298 20119 30/// 56/// 57/// 59029 60007 8//// 8//// 8//// 8//// 9//// 9//// 9//// 444 ///// 555 30187
AAXX 20181 76743 31/58 01301 10280 20253 30102 40110 57014 70211 80000 91745 333 10290 20200 30/// 56000 59047
AAXX 20181 76750 32560 20903 10294 20231 30128 40138 57009 82100 91750 333 10301 20206 30/// 56200 59032 82820
AAXX 20181 76751 06/// /1103 10299 20236 30128 40138 58010 60002 7//// 8//// 91750 333 0//// 10301 20205 30/// 4//// 54/// 56/// 57/// 59033 60007 8//// 8//// 8//// 9//// 9//// 9//// 44
AAXX 20181 76762 31504 13201 10272 20218 38753 40127 57009 81200 91742 333 10274 20158 30/// 56200 59007 81830
AAXX 20181 76772 06/// /1902 10237 20079 38418 40091 58019 60002 7//// 8//// 91750 333 0//// 10247 20051 30/// 4//// 56/// 57/// 59011 60007 8//// 8//// 8//// 9//// 9//// 9//// 444 ////
AAXX 20181 76773 31568 11801 10238 20076 38416 40165 57015 7050/ 81100 91745 333 10244 20041 30/// 56900 59006 81820
AAXX 20181 76775 31970 21801 10248 20092 38513 40154 57013 70100 82100 91740 333 10270 20084 30/// 56802 59017 81824
AAXX 20181 76776 06/// /1601 10252 20084 38491 40071 58021 60002 7//// 8//// 91750 333 0//// 10253 20098 30/// 4//// 56/// 57/// 59014 60007 8//// 8//// 8//// 9//// 9//// 9//// 444 ////
AAXX 20181 76805 32570 12302 10298 20212 30113 40118 58016 81100 91750 333 10315 20230 30/// 563// 29018 81830
AAXX 20181 76806 06/// /2102 10301 20215 30118 40122 58012 60002 7//// 8//// 91750 333 10309 20222 30/// 56/// 57/// 59012 60007 8//// 8//// 8//// 8//// 9//// 9//// 9//// 555 30276
AAXX 20181 76833 32970 01403 10294 20236 30113 40115 57012 91745 333 10294 30/// 58/// 59001
AAXX 20181 76840 32450 42303 10323 20219 30060 40115 57016 84200 91740 333 10355 30/// 569// 59011 84827
AAXX 20181 76843 32665 10801 10268 20153 39474 40119 57018 81100 91740 333 10284 20160 30/// 561// 59031 81822
AAXX 20181 76845 32960 02002 10210 20138 37935 40170 56018 91750 333 10222 20038 30/// 59009
AAXX 20181 76848 32970 02401 10265 20100 38370 40083 56009 91750 333 10266 20093 30/// 59015
AAXX 20181 76902 06/// /2702 10311 20198 39985 40120 58017 60002 7//// 8//// 91750 333 0//// 10312 20223 30/// 4//// 54/// 56/// 57/// 59009 60007 8//// 8//// 8//// 8//// 9//// 9//// 9/
AAXX 20181 76903 31680 33001 10315 20212 39988 40118 57015 70111 82200 91745 333 10322 20224 30/// 59009 83833
AAXX 20181 76160 32862 40501 10146 20034 39901 40153 52003 83052 91730 333 10146 20070 30/// 56049 59056 83357
AAXX 20181 76243 32473 73005 10110 20029 39893 40194 54000 87400 91735 333 10116 20062 30/// 56800 58065 87616
AAXX 20181 76311 32680 60000 10184 20067 39864 40150 56008 86400 91748 333 10186 20072 30/// 56500 59037 86625
AAXX 20181 76405 32880 12202 10204 20140 30142 40163 50006 81010 91750 333 10204 20087 30/// 56050 59031 81457
AAXX 20181 76412 31966 02201 10184 20098 30127 40173 52016 70544 91740 333 10188 20060 30/// 59001
AAXX 20181 76640 31358 43201 10238 20217 30122 40134 50000 70211 84200 91740 333 10252 20172 30/// 567// 59035 84809
AAXX 20181 76647 01570 60903 10298 20219 30115 40146 58017 69901 72122 85330 91750 333 10302 20206 32/// 563/0 59038 69907 81932 84832
AAXX 20181 76656 31575 10000 10230 20082 38503 40158 58008 70344 81100 91752 333 10277 20076 30/// 56100 59008 81820
AAXX 20181 76741 31458 11702 10264 20221 30067 40086 57007 70544 81200 91735 333 10270 20176 30/// 564// 59064 81818
AAXX 20181 76855 32980 02102 10320 20244 30063 40112 50001 91745 333 10322 20216 30/// 59014 92000
AAXX 20181 76040 32960 43302 10148 20103 30164 40178 52005 84030 91745333 10130 20056 30/// 56070 59002 84375 98660
AAXX 20181 76055 21570 83504 10118 20106 30140 40159 52009 76253 8870091740 333 10184 20057 32/// 56600 59012 60027 88627
AAXX 20181 76056 06/// /3105 10113 20098 30144 40168 52011 60082 7////8//// 91750 333 0//// 10133 20098 30/// 4//// 54/// 56///57/// 59012 60087 8//// 8//// 8//// 9//// 9//// 9//// 44
AAXX 20181 76113 32980 02101 10128 20052 39666 40150 57006 91745 33310135 20044 30/// 59042
AAXX 20181 76122 32970 61403 10068 21006 38517 40198 52001 84052 91750333 10074 21032 30/// 56099 58006 84358
AAXX 20181 76123 06/// 61008 10078 21018 3//// 4//// 5//// 60002 7////84052 91750 333 0//// 10078 21041 56099 57/// 5//// 600078//// 8//// 84358 8//// 9//// 9//// 9//// 444 ///// 555
AAXX 20181 76220 32958 40000 10050 21002 38115 40204 57002 80006 91750333 10050 21036 30/// 56006 59007
AAXX 20181 76225 32760 70901 10088 21026 38618 40177 50003 87020 91745333 10088 20008 30/// 56050 58022 87450
AAXX 20181 76226 02/// ///// 1//// 2//// 3//// 4//// 5//// 6//// 7////8//// 9//// 333 0//// 1//// 2//// 30/// 4//// 54/// 56///57/// 5//// 6//// 8//// 8//// 8//// 9//// 9//// 9//// 44
AAXX 20181 76256 32980 40000 10163 20072 30150 40164 52006 80008 91745333 10171 20081 30/// 56//5 59065 84270
AAXX 20181 76258 32870 61403 10168 20076 30106 40152 52004 84075 91750333 10170 20046 30/// 56055 59047 84358
AAXX 20181 76305 32670 30601 10190 20078 30150 40158 52005 82430 91740333 10196 20100 30/// 56440 59040 82650
AAXX 20181 76323 32970 10502 10108 21017 38248 40225 58006 80008 91755333 10116 20011 30/// 58014
AAXX 20181 76342 32962 00603 10142 20035 39495 40216 52006 91750 33310144 20090 30/// 58059
AAXX 20181 76373 32980 00000 10112 21063 38190 40131 52004 91750 33310200 21050 30/// 58006
AAXX 20181 76390 31956 02307 10190 21042 38205 40119 57003 70544 91737333 10200 20065 30/// 58013
AAXX 20181 76393 32640 10301 10190 20090 39570 40147 57001 81400 91750333 10206 20140 30/// 56300 58053 81641
AAXX 20181 76402 31560 70202 10168 20096 30106 40164 52008 70544 8770091745 333 10168 20056 30/// 56500 59040 87633
AAXX 20181 76458 32970 12402 10206 20153 30144 40148 52003 80001 91737333 10232 20098 30/// 56//6 59010 81072
AAXX 20181 76471 32980 02306 10158 21071 37674 40132 54000 91750 33310163 20011 30/// 58004
AAXX 20181 76490 06/// /0204 10252 20123 39747 40126 58009 60002 7////8//// 91750 333 0//// 10257 20127 30/// 54/// 56/// 57///58025 60007 8//// 8//// 8//// 8//// 9//// 9//// 9//// 44
AAXX 20181 76491 32960 03603 10245 20145 39764 40156 57008 91750 33310257 20147 30/// 58025
AAXX 20181 76499 32460 30402 10255 20177 30098 40120 57005 83200 91755333 10256 20159 30/// 56100 58010 83820
AAXX 20181 76525 32680 12112 10104 20019 37456 40142 52006 81100 91740333 10105 20060 30/// 565// 58001 81835
AAXX 20181 76538 06/// /2207 10215 20012 38147 40070 58006 60002 7////8//// 91750 333 0//// 10221 20090 30/// 4//// 54/// 56///57/// 58001 60007 8//// 8//// 8//// 9//// 9//// 9//// 44
AAXX 20181 76539 32970 02405 10197 20061 38148 40146 54000 91750 33310250 30031 30/// 58004
AAXX 20181 76543 31570 13402 10265 20198 30110 40142 57015 70544 8110091745 333 10265 20142 30/// 56300 59024 81834
AAXX 20181 76547 06/// /2302 10269 20213 30110 40121 58006 60002 7////8//// 91750 333 0//// 10269 20195 56/// 57/// 59026 600078//// 8//// 8//// 8//// 9//// 9//// 9//// 444 ///// 555
AAXX 20181 76548 31472 62702 10256 20207 30124 40134 58001 70244 8640091740 333 10262 20194 30/// 56300 59028 86618
AAXX 20181 76556 32970 00000 10232 20150 39111 40146 51005 91735 33310240 20105 30/// 59010
AAXX 20181 76571 32680 11803 10200 20034 38159 40175 56005 81100 91750333 10204 20050 30/// 56500 59001 81850
AAXX 20181 76577 32570 12306 10177 20131 38041 40159 50006 81400 91740333 10187 20074 30/// 56500 59005 81628
AAXX 20181 76578 06/// /2204 10185 20036 38036 40100 58006 60002 7////8//// 91750 333 0//// 10185 20075 30/// 4//// 54/// 56///57/// 59007 60007 8//// 8//// 8//// 9//// 9//// 9//// 44
AAXX 20181 76581 32975 03501 10250 20143 39016 40126 57017 91750 33310256 20078 30/// 59015
AAXX 20181 76585 32980 02701 10230 20199 39965 40123 58005 91735 33310240 20124 30/// 59025
AAXX 20181 76586 06/// /2701 10267 39967 40119 58006 60002 7//// 8////91750 333 0//// 10268 20137 30/// 4//// 54/// 56/// 57///59023 60007 8//// 8//// 8//// 9//// 9//// 9//// 444 ////
AAXX 20181 76592 06/// /1312 10299 20005 30130 40130 58021 60002 7////8//// 91750 333 0//// 10310 20195 30/// 4//// 54/// 56///57/// 59039 60007 8//// 8//// 8//// 9//// 9//// 9//// 44
AAXX 20181 76593 32470 21405 10292 20246 30133 40135 57017 82200 91750333 10310 20195 30/// 563// 59036 82820 91006 91514
AAXX 20181 76612 32662 30000 10228 20082 38467 40159 57003 83100 91750333 10266 20070 30/// 56500 59006 83840
AAXX 20181 76625 32460 12702 10209 20068 38136 40121 57007 81100 91755333 10211 20104 30/// 56100 59002 81818
AAXX 20181 76634 31670 11302 10216 20071 37841 40142 57011 70500 8110091750 333 10220 20093 30/// 563// 59008 81834
AAXX 20181 76641 06/// /1002 10277 20216 30105 40116 58006 60002 7////8//// 91750 333 0//// 10277 20174 30/// 4//// 54/// 56///57/// 59033 60007 8//// 8//// 8//// 8//// 9//// 9//// 9/
AAXX 20181 76644 32465 51103 10294 20208 30119 40132 57022 85200 91750333 10299 20199 30/// 86300 59036 85820 91007 91511
AAXX 20181 76645 06/// /1204 10298 20209 30122 40135 58022 60002 7////8//// 91750 333 0//// 10299 20200 30/// 4//// 54/// 56///57/// 59038 60007 8//// 8//// 8//// 9//// 9//// 9//// 44
AAXX 20181 76648 06/// /1303 10311 20205 30106 40136 58019 60002 7////8//// 91750 333 0//// 10311 20204 30/// 4//// 54/// 56///57/// 59035 60007 8//// 8//// 8//// 8//// 9//// 9//// 9/
AAXX 20181 76654 31430 11403 10301 20207 30140 40144 57005 70544 8120091751 333 10301 20222 30/// 56900 59009 81820
AAXX 20181 76658 31556 13203 10272 20175 39629 40135 56012 70540 8120091747 333 10278 20170 30/// 56100 59002 81824 94022 98924
AAXX 20181 76659 02/// ///// 1//// 2//// 3//// 4//// 5//// 6//// 7////8//// 9//// 333 0//// 1//// 2//// 30/// 4//// 54/// 56///57/// 5//// 6//// 8//// 8//// 8//// 9//// 9//// 9//// 44
AAXX 20181 76662 31670 12302 10220 20110 38462 40161 57005 70542 8110091735 333 10235 20052 30/// 56/00 59005 81833
AAXX 20181 76665 32964 22102 10216 20077 38118 40156 57005 70300 8220091750 333 10268 20065 30/// 57812 59006 82823
AAXX 20181 76675 31575 10702 10178 20005 37370 40191 57007 70540 8120091753 333 10185 21017 30/// 569// 59009 81830 98475
AAXX 20181 76681 31950 00501 10190 20078 37774 40168 57018 70500 91745333 10190 20032 30/// 50310 55080 59009 70000
AAXX 20181 76683 31668 10901 10194 20091 37820 40193 56012 70544 8110091745 333 10200 20040 30/// 56200 58002 81840 94010 94182
AAXX 20181 76684 06/// /1803 10210 20022 37820 40084 58013 60002 7////8//// 91750 333 0//// 10210 20031 30/// 4//// 54/// 56///57/// 59007 60007 8//// 8//// 8//// 9//// 9//// 9//// 44
AAXX 20181 76685 32970 12101 10190 20024 37860 40153 57004 81100 91750333 10192 20052 30/// 56900 59007 81827
AAXX 20181 76687 31570 10701 10266 20030 38655 40134 58002 70100 8110091738 333 10270 20115 30/// 563// 59029 81830
AAXX 20181 76692 31456 10702 10260 20200 30095 40114 58008 70544 8120091745 333 10277 20179 30/// 564// 59050 81817
AAXX 20181 76693 06/// /0802 10266 20199 30092 40111 58011 60002 7////8//// 91750 333 0//// 10277 20178 30/// 4//// 56/// 57///59049 60007 8//// 8//// 8//// 8//// 9//// 9//// 9//// 44
AAXX 20181 76695 32960 01202 10296 20214 30113 40119 57018 91748 33310300 20174 30/// 59037 91005 91513
AAXX 20181 76698 32560 61202 10298 20248 30130 40141 57011 86200 91750333 10322 20199 30/// 56300 59035 86820
AAXX 20181 76727 06/// /1701 10234 20060 38391 40073 58006 60002 7////8//// 91750 333 0//// 10243 20123 30/// 4//// 54/// 56///57/// 59011 60007 8//// 8//// 8//// 9//// 9//// 9//// 44
AAXX 20181 76737 31480 12902 10279 20124 38745 40110 58004 70300 8110091735 333 10282 20121 30/// 56200 59029 81813 91111 91529
AAXX 20181 76738 06/// /1101 10295 20101 38743 40055 58009 60002 7////8//// 333 10298 20119 30/// 56/// 57/// 59029 60007 8////8//// 8//// 8//// 9//// 9//// 9//// 444 ///// 555 30187
AAXX 20181 76743 31/58 01301 10280 20253 30102 40110 57014 70211 8000091745 333 10290 20200 30/// 56000 59047
AAXX 20181 76750 32560 20903 10294 20231 30128 40138 57009 82100 91750333 10301 20206 30/// 56200 59032 82820
AAXX 20181 76751 06/// /1103 10299 20236 30128 40138 58010 60002 7////8//// 91750 333 0//// 10301 20205 30/// 4//// 54/// 56///57/// 59033 60007 8//// 8//// 8//// 9//// 9//// 9//// 44
AAXX 20181 76762 31504 13201 10272 20218 38753 40127 57009 81200 91742333 10274 20158 30/// 56200 59007 81830
AAXX 20181 76772 06/// /1902 10237 20079 38418 40091 58019 60002 7////8//// 91750 333 0//// 10247 20051 30/// 4//// 56/// 57///59011 60007 8//// 8//// 8//// 9//// 9//// 9//// 444 ////
AAXX 20181 76773 31568 11801 10238 20076 38416 40165 57015 7050/ 8110091745 333 10244 20041 30/// 56900 59006 81820
AAXX 20181 76775 31970 21801 10248 20092 38513 40154 57013 70100 8210091740 333 10270 20084 30/// 56802 59017 81824
AAXX 20181 76776 06/// /1601 10252 20084 38491 40071 58021 60002 7////8//// 91750 333 0//// 10253 20098 30/// 4//// 56/// 57///59014 60007 8//// 8//// 8//// 9//// 9//// 9//// 444 ////
AAXX 20181 76805 32570 12302 10298 20212 30113 40118 58016 81100 91750333 10315 20230 30/// 563// 29018 81830
AAXX 20181 76806 06/// /2102 10301 20215 30118 40122 58012 60002 7////8//// 91750 333 10309 20222 30/// 56/// 57/// 59012 600078//// 8//// 8//// 8//// 9//// 9//// 9//// 555 30276
AAXX 20181 76833 32970 01403 10294 20236 30113 40115 57012 91745 33310294 30/// 58/// 59001
AAXX 20181 76840 32450 42303 10323 20219 30060 40115 57016 84200 91740333 10355 30/// 569// 59011 84827
AAXX 20181 76843 32665 10801 10268 20153 39474 40119 57018 81100 91740333 10284 20160 30/// 561// 59031 81822
AAXX 20181 76845 32960 02002 10210 20138 37935 40170 56018 91750 33310222 20038 30/// 59009
AAXX 20181 76848 32970 02401 10265 20100 38370 40083 56009 91750 33310266 20093 30/// 59015
AAXX 20181 76902 06/// /2702 10311 20198 39985 40120 58017 60002 7////8//// 91750 333 0//// 10312 20223 30/// 4//// 54/// 56///57/// 59009 60007 8//// 8//// 8//// 8//// 9//// 9//// 9/
AAXX 20181 76903 31680 33001 10315 20212 39988 40118 57015 70111 8220091745 333 10322 20224 30/// 59009 83833
AAXX 20181 76160 32862 40501 10146 20034 39901 40153 52003 83052 91730333 10146 20070 30/// 56049 59056 83357
AAXX 20181 76243 32473 73005 10110 20029 39893 40194 54000 87400 91735333 10116 20062 30/// 56800 58065 87616
AAXX 20181 76311 32680 60000 10184 20067 39864 40150 56008 86400 91748333 10186 20072 30/// 56500 59037 86625
AAXX 20181 76405 32880 12202 10204 20140 30142 40163 50006 81010 91750333 10204 20087 30/// 56050 59031 81457
AAXX 20181 76412 31966 02201 10184 20098 30127 40173 52016 70544 91740333 10188 20060 30/// 59001
AAXX 20181 76640 31358 43201 10238 20217 30122 40134 50000 70211 8420091740 333 10252 20172 30/// 567// 59035 84809
AAXX 20181 76647 01570 60903 10298 20219 30115 40146 58017 69901 7212285330 91750 333 10302 20206 32/// 563/0 59038 69907 8193284832
AAXX 20181 76656 31575 10000 10230 20082 38503 40158 58008 70344 8110091752 333 10277 20076 30/// 56100 59008 81820
AAXX 20181 76741 31458 11702 10264 20221 30067 40086 57007 70544 8120091735 333 10270 20176 30/// 564// 59064 81818
AAXX 20181 76855 32980 02102 10320 20244 30063 40112 50001 91745 33310322 20216 30/// 59014 92000
AAXX 20184 91531 46/// /0905 1//// 40046 22200 00272
AAXX 20184 71016 16/// ///// 10031 60001 333 10057 20014 70007
AAXX 20181 11150 01245 81604 11023 21034 39588 40145 52014 69932 77377 333 10001 69925 81706 87617
AAXX 20184 91642 46/// /0000 1//// 40068 22200 0////
BBXX 9V8797 20184 99087 10764 43/97 30620 10272 40098 54002 22234 00283 2//// 4////
AAXX 20184 87320 32970 00000 10408 20147 39439 49989 57027
BBXX WYH6327 20184 99583 71354 41598 61611 10050 2//// 40190 57/// 70222 85508 22200 04050 20101 323// 4//01 5//// 6//// 8//// ICE /////
BBXX WYX2079 20184 99606 71477 41698 32112 10028 2//// 40110 52/// 70222 82501 22200 0//// 20201 3//// 4//00 5//// 6//// 8//// ICE /////
BBXX WYL4318 20184 99608 71486 41698 89905 10006 2//// 40085 52/// 70222 83507 22200 0//// 20000 3//// 4//00 5//// 6//// 8//// ICE /////
BBXX AMOUK04 20184 99533 70062 46/// ///// 10075 20068 30142 4//// 57006 91750
BBXX WSNB 20184 99583 71437 43198 32121 00/// 10050 2003/ 40100 51030 7//// 8826/ 22233 0//// 20904 321// 41004 5//// 6//// 80044 ICE /////
AAXX 20184 89667 46/// /0401 11017 39770 4//// 5//// 91840
AAXX 20184 89667 46/// /0101 11027 39767 4//// 5//// 91820
AAXX 2018/ 89667 46/// ///// 11021 39768 4//// 5//// 91830
AAXX 2018/ 89868 46/// ///// 11104 39703 4//// 5//// 91810
AAXX 20181 08512 32480 71404 10154 20120 30225 40311 52003 878// 333 10169 82812 83820 77630 91006 91107 555 60005
AAXX 20184 89807 46/// /1218 11021 29100 4//// 5//// 91830 333 90700 91122
BBXX MINUK05 2018/ 99603 70043 46/// ///// 10063 40053 52016
AAXX 20181 08512 32480 71404 10154 20120 30225 40311 52003 878// 333 10169 82812 83820 77630 91006 91107
AAXX 20184 89807 46/// /1218 11021 29100 4//// 5//// 91830 333 90700 91122
AAXX 20184 71971 16/// /0901 11220 21239 39973 40019 52001 60001 333 11167 21239 70000
AAXX 20184 71361 16/// /3206 11110 21132 39849 40059 53025 60001 333 11097 21174 70000
AAXX 20184 71529 46/// /0803 11173 21198 39808 40040 53017 6///1 333 11161 21183 7//// 555 10030
BBXX 46208 20181 99525 71327 46/// /2809 10068 40270 5//// 22200 00076 11411 70054 333 91212
BBXX WSNB 20184 99583 71437 43198 32121 00/// 10050 20030 40100 51030 7//// 8826/ 22233 0//// 20904 321// 41004 5//// 6//// 80044 ICE /////
BBXX WYH6327 20184 99583 71354 41598 61611 10050 2//// 40190 57/// 70222 85508 22200 04050 20101 323// 4//01 5//// 6//// 8//// ICE /////
BBXX 42044 20181 99262 70971 46/// /2803 10185 20168 40117 91830 22200 00176 333 91205
BBXX 42044 20181 99262 70971 46/// /2902 10189 20171 40119 57004 91800 22200 00176 333 91204
AAXX 20184 92036 46/// /2402 10252 40033 22200 00307
BBXX 46109 20181 99481 71234 46/// /1701 10086 40259 91757 22200 00079
BBXX 46110 20181 99481 71230 46/// /1402 10068 40261 91758
BBXX 42045 20181 99262 70965 46/// /2506 10198 40112 91830 22200 00218 333 91207
BBXX 42045 20181 99262 70965 46/// /2506 10200 40122 54000 91800 22200 00218 333 91207
BBXX 46094 20181 99446 71243 46/// /1403 10074 91830
BBXX 46094 20181 99446 71243 46/// /1403 10072 91820
BBXX 46094 20181 99446 71243 46/// /1502 10071 91810
BBXX 46094 20181 99446 71243 46/// /1702 10072 91800
BBXX 46094 20181 99446 71243 46/// /1403 10070 91750
BBXX 46094 20181 99446 71243 46/// /1703 10069 91740
BBXX 44055 20181 99391 70753 46/// ///// 1//// 91830 22200 00080 1//00 70002
BBXX AMOUK05 20184 99537 70003 46/// ///// 10048 20024 30114 40150 52017 91750
BBXX 63106 20184 99610 10017 46/// /3111 10034 40027 52013 22200
BBXX 63105 20184 99610 10017 47598 ///// 10052 20010 40026 52013 700// 22200
BBXX 63110 20183 99595 10015 41/98 /2918 10061 40042 700// 8//// 22200 10504 70020
BBXX 62107 20184 99501 70061 46/// /2520 10109 20087 40221 58001 22200 00117 10703 70014
BBXX 62103 20184 99499 70029 46/99 /2919 10109 20064 40216 52012 22200 00122 10702 70012
AAXX 20184 62771 32970 73206 10260 21030 39470 40105 80007 10310 56009 59010 87275
AAXX 20184 62772 32970 03603 10242 20128 39677 40109 10348 59008
AAXX 20184 62781 32970 70302 10215 20015 39486 40122 80007 10333 56009 58000 87275
AAXX 20184 62790 32970 70504 10254 21018 39383 40100 80007 10330 56009 59018 87275
AAXX 20184 62795 32970 73605 10280 20070 39589 40082 80007 10377 56009 58002 87275
AAXX 20184 62803 32970 70000 10260 20090 39/// 40/// 80007 10315 56009 5//// 87275
AAXX 20184 62805 32970 73202 10270 20080 39350 40073 80007 10375 56009 58001 87275
AAXX 20184 62809 32970 73603 10250 20060 39598 40106 80007 10340 56009 59004 87275
AAXX 20184 62810 32970 73602 10280 20095 39/// 40/// 80007 10350 56009 5//// 87275
AAXX 20184 93713 46/// /0000 10145 40262 22200 00160
BBXX 44056 20181 99362 70757 46/// ///// 1//// 91820 22200 00121 11302 21001 307// 41302 70009
AAXX 20184 91689 46/// /0231 10248 40094 22200 00284
OOXX AAPIG 20184 99758 51003 56251 08502 46/// /0714 11078 21202 38970 49952 5//// 91800
AAXX 2018/ 89769 46/// ///// 11073 39727 4//// 5//// 91810
AAXX 2018/ 89828 46/// ///// 11268 36460 4//// 5//// 91820
AAXX 2018/ 89108 46/// ///// 11221 36995 4//// 5//// 91820
BBXX V7HP4 20184 99224 70861 41797 31622 10260 20232 40150 57010 7//22 83132 22233 04270 2//// 3//// 4//// 5//// 6//// 80240 ICE /////
BBXX FHZI 20184 99653 31447 46/// /3028 11005 21022 39874 49885 54000 22200 05014 86011
BBXX ZMENA 20184 99386 31784 46/// ///// 10153 20115 40278 222//
BBXX VRDX2 20183 99099 31364 41497 52814 10285 20261 40033 7//// 85672 22264 00320 20402
BBXX ZMENA 20184 99386 31784 46/// ///// 10153 20115 40278 222//
BBXX VRDX2 20183 99099 31364 41497 52814 10285 20261 40033 7//// 85672 22264 00320 20402
BBXX MINUK03 2018/ 99549 70010 46/// ///// 10065 40146 52029
BBXX AMOUK04 20184 99533 70062 46/// ///// 10075 20068 30142 4//// 57006 91750
BBXX PEBT 20183 99504 10005 41597 43220 10100 20020 40190 54000 7//00 845// 22223 02090 20502 329// 40602 5//// 80063
BBXX 44056 20181 99362 70757 46/// ///// 1//// 91820 22200 00121 11302 21001 307// 41302 70009
BBXX 44055 20181 99391 70753 46/// ///// 1//// 91830 22200 00080 1//00 70002
BBXX 46094 20181 99446 71243 46/// /1403 10070 91750
BBXX 46094 20181 99446 71243 46/// /1703 10069 91740
BBXX 46094 20181 99446 71243 46/// /1403 10074 91830
BBXX 46094 20181 99446 71243 46/// /1403 10072 91820
BBXX 46094 20181 99446 71243 46/// /1702 10072 91800
BBXX 46094 20181 99446 71243 46/// /1502 10071 91810
BBXX V7HP4 20184 99224 70861 41797 31622 10260 20232 40150 57010 7//22 83132 22233 04270 2//// 3//// 4//// 5//// 6//// 80240 ICE /////
BBXX 42045 20181 99262 70965 46/// /2506 10198 40112 91830 22200 00218 333 91207
BBXX 42045 20181 99262 70965 46/// /2506 10200 40122 54000 91800 22200 00218 333 91207
BBXX 46109 20181 99481 71234 46/// /1701 10086 40259 91757 22200 00079
BBXX 46110 20181 99481 71230 46/// /1402 10068 40261 91758
BBXX 42044 20181 99262 70971 46/// /2803 10185 20168 40117 91830 22200 00176 333 91205
BBXX 42044 20181 99262 70971 46/// /2902 10189 20171 40119 57004 91800 22200 00176 333 91204
BBXX WYH6327 20184 99583 71354 41598 61611 10050 2//// 40190 57/// 70222 85508 22200 04050 20101 323// 4//01 5//// 6//// 8//// ICE /////
BBXX WYL4318 20184 99608 71486 41698 89905 10006 2//// 40085 52/// 70222 83507 22200 0//// 20000 3//// 4//00 5//// 6//// 8//// ICE /////
BBXX WYX2079 20184 99606 71477 41698 32112 10028 2//// 40110 52/// 70222 82501 22200 0//// 20201 3//// 4//00 5//// 6//// 8//// ICE /////
BBXX MINUK05 2018/ 99603 70043 46/// ///// 10063 40053 52016
OOXX AAVIT 20184 99785 31778 57087 00501 46/// /3008 11086 21116 39720 49783 57008 91810
OOXX AAERC 20184 99815 31639 60713 00451 46/// /1907 11058 21099 39720 49776 52003 91810
BBXX 4XFB 20184 99362 70026 41498 02601 10160 20110 40250 54000 70000 80/// 22224 00180 20500 80110
BBXX SKEC 20181 99562 10124 46/// ///// 10021 40027 52019 22244 00075
BBXX ONFP 20184 99233 30621 43696 70924 10240 2020/ 40170 51010 76111 87333 22213 04250 20204 30909 40204 50204 6//// 80210 /////
AAXX 20184 04418 NIL
AAXX 20184 04425 NIL
AAXX 20184 04432 NIL
AAXX 20184 04436 NIL
AAXX 20184 04464 46/// /1708 11368 21404 333 553// 20004
AAXX 20184 04485 46/// /0000 11379 21404 37206 57006 333 553// 20000
AAXX 20184 04488 NIL
BBXX 4XFB 20184 99362 70026 41498 02601 10160 20110 40250 54000 70000 80/// 22224 00180 20500 80110
AAXX 20184 89257 46/// /2311 11052 21084 39904 49975 57007 91810
AAXX 20184 89314 46/// /0819 11069 38198 4//// 52013 91810
AAXX 20184 89327 46/// /0000 11010 39571 49847 52027 91810
AAXX 20184 89329 46/// /0111 11052 38696 49744 52006 91810
AAXX 20184 89376 46/// /2713 11089 39662 49729 57011 91810
AAXX 20184 89769 46/// /2506 11072 39712 49764 52008 91810
AAXX 20184 89799 46/// /1421 11244 36770 4//// 52003 91810
AAXX 20184 89834 46/// /2817 11127 38058 4//// 52004 91810
AAXX 20184 89865 46/// ///// 1//// 3//// 4//// 5//// 91810
AAXX 20184 89866 46/// /0000 11019 39630 49761 52003 91810
AAXX 20184 89869 46/// /2306 11114 39694 49774 52007 91810
AAXX 20184 89872 46/// /3003 11072 39712 49768 52005 91810
AAXX 20184 89873 46/// /1820 11031 39681 49757 5//// 91800
AAXX 20184 89879 46/// /0000 11008 39651 49687 57021 91800
BBXX AMOUK03 20184 99537 70003 46/// ///// 10062 20028 30120 40151 52015 91750
BBXX AMOUK08 20184 99501 70061 46/// ///// 10114 20098 30216 40221 54001 91750
BBXX 63110 20184 99595 10015 47598 /3014 10059 20004 40045 52010 700// 22200 10604 70022
BBXX 63106 20184 99610 10017 46/// /3111 10034 40027 52013 22200
BBXX 63113 20184 99610 10017 46/// /3311 10037 20010 40028 53010 22200 10705 70025
BBXX 62103 20184 99499 70029 46/99 /3118 10107 20057 40210 51013 22200 00122 10703 70013 333 90710 91125
BBXX 42013 20181 99272 70829 46/// ///// 1//// 40201 91820 22200 00197
BBXX 42013 20181 99272 70829 46/// ///// 1//// 40202 58019 91800 22200 00198
BBXX VRDX2 20183 99099 31364 41497 52814 10285 20261 40033 7//// 85672 22264 00320 20402
BBXX ZMENA 20184 99386 31784 46/// ///// 10153 20115 40278 222//
BBXX SKEC 20181 99562 10124 46/// ///// 10021 40027 52019 22244 00075
BBXX 4XFB 20184 99362 70026 41498 02601 10160 20110 40250 54000 70000 80/// 22224 00180 20500 80110
BBXX FHZI 20184 99653 31447 46/// /3028 11005 21022 39874 49885 54000 22200 05014 86011
OOXX AAPEG 20184 99779 31666 57186 00051 46/// ///01 11027 21160 39767 49773 52004 91820
OOXX AABRI 20184 99839 51342 60134 05251 46/// /0410 11014 21206 39214 49822 52002 91810
OOXX AALAU 20184 99775 31708 57070 00371 46/// ///01 11030 21156 39725 49770 52003 91810
OOXX AAEMI 20184 99785 31731 57083 00521 46/// /3504 11094 21153 39737 49803 57006 91820
OOXX AAERI 20184 99849 51288 60048 09901 46/// /0729 11046 2//// 38726 49825 52002 91810
AAXX 20184 71408 46/// /2827 10015 21017 39842 49921 6///1 333 10017 7////
AAXX 20181 98132 31465 80905 10220 20201 40196 58001 70544 8427/ 333 56299 84816 88357
AAXX 20181 98133 NIL
AAXX 20181 98222 31575 10901 10238 20221 40094 58010 70544 81200 333 56999 81820
AAXX 20181 98233 11565 80000 10235 20225 40109 58011 60221 76064 885// 333 56999 88620
AAXX 20181 98324 31462 30401 10260 20241 40081 58015 70544 81101 333 56999 81816 83080
AAXX 20181 98327 31665 53103 10236 20213 39925 40099 57019 70544 82108 333 56999 82842 85280
AAXX 20181 98334 11460 80000 10240 20229 39901 40105 57009 60041 76022 8227/ 333 56119 83817 88357
AAXX 20181 98425 32557 60702 10268 20230 40085 57012 82108 333 56999 82820 86280
AAXX 20181 98426 31562 20601 10249 20218 40092 58010 70544 82200 333 56999 82820
AAXX 20181 98427 32475 30000 10250 20234 39900 40077 58010 82260 333 56999 82818 83356
AAXX 20181 98428 32458 40402 10270 20249 40082 58018 81431 333 56999 81618
AAXX 20181 98432 31568 40402 10262 20232 40097 58005 70544 82202 333 56999 82820
AAXX 20181 98433 32460 50706 10220 20206 39378 40095 57009 82270 333 56999 82812 83357
AAXX 20181 98434 11459 83602 10253 20249 30087 40095 57002 60041 76166 8552/ 333 56199 85617 88457
AAXX 20181 98435 NIL
AAXX 20181 98442 NIL
AAXX 20181 98446 11465 80902 10254 20249 30049 40095 57011 60021 71582 84207 333 56299 84818 88270
AAXX 20181 98447 11465 80407 10248 20238 39822 40085 5//// 60051 76082 84807 333 56199 84816 88270
AAXX 20181 98538 32464 50202 10260 20244 30070 40075 58013 82206 333 56199 82811 84072
AAXX 20181 98546 32575 70000 10256 20246 30063 40071 57016 83208 333 56999 83820 87275
AAXX 20181 98548 32465 20000 10257 20248 30070 40076 58011 82200 333 56999 82816
AAXX 20181 98553 11464 72701 10255 20248 30071 40075 57012 60111 72164 84908 333 56999 81915 84618 87272
AAXX 20181 98558 32468 40904 10268 20258 40065 58013 82208 333 56999 82818 83272
AAXX 20181 98642 31465 20000 10265 20245 30054 40063 58016 70544 81101 333 56999 81815
AAXX 20181 98644 32464 50000 10255 20242 30063 40072 58017 81208 333 56999 81817 85272
AAXX 20181 98648 31470 50301 10260 20247 39990 40072 57020 70544 83202 333 56299 83817
AAXX 20181 98746 11462 61802 10249 20220 40070 58029 69901 70544 82276 333 56999 82818 83358 85075
AAXX 20181 98751 32465 60000 10220 20215 39396 40060 57008 83970 333 56999 83915 86356
AAXX 20181 98752 32460 10601 10247 20240 40077 58016 81200 333 56999 81818 98648 31470 50301 10260 20247 39990 40072 57020 70544 83202 333 56299 83817
AAXX 20181 98851 31470 62703 10252 20222 39916 40064 58009 70544 82270 333 56999 82818 86358
BBXX 42369 20181 99272 70903 46/// /1807 1//// 91740 22200 10603 70017
AAXX 20184 63714 32980 10000 10182 20096 48492 81030 333 10255 58000 81358
AAXX 20184 89108 46/// /2410 11221 36992 4//// 52005 91820
AAXX 20184 89332 46/// /0106 10008 39152 49744 52009 91810
AAXX 20184 89667 46/// ///01 11027 39767 49777 52004 91820
AAXX 20184 89828 46/// /1102 11268 36431 4//// 57004 91810
AAXX 20184 89832 46/// /2617 11043 39493 49786 52006 91810
BBXX 42370 20181 99273 70905 46/// ///// 10181 91740 22200 10402 70012
BBXX 42376 20181 99291 70879 46/// /1209 10241 40143 91740 22200 10805 70023
BBXX 42887 20181 99282 70885 46/// /1804 1//// 91740 22200 10605 70023
BBXX 42369 20181 99272 70903 46/// /1807 1//// 91740 22200 10603 70017
BBXX 42013 20181 99272 70829 46/// ///// 1//// 40201 91820 22200 00197
BBXX 42013 20181 99272 70829 46/// ///// 1//// 40202 58019 91800 22200 00198
BBXX CFO383 20184 99439 70602 47598 /3016 10025 2104/ 40057 5//// 740// 8//// 22200 0//// 1//// 2//// 70/// 80004 333 91031
BBXX CFO383 20184 99439 70602 47598 /3016 10025 2104/ 40057 5//// 740// 8//// 22200 0//// 1//// 2//// 70/// 80004 333 91031
AAXX 20184 71566 16/// /2705 10022 21017 60001 333 10040 21055 70000
AAXX 2018/ 89332 46/// ///// 10010 39155 4//// 5//// 91840
AAXX 2018/ 89769 46/// ///// 11073 39728 4//// 5//// 91830
AAXX 2018/ 89769 46/// ///// 11068 39731 4//// 5//// 91840
AAXX 2018/ 89314 46/// ///// 11065 38209 4//// 5//// 91840
AAXX 2018/ 89872 46/// ///// 11026 39717 4//// 5//// 91830
AAXX 2018/ 89872 46/// ///// 11054 39717 4//// 5//// 91840
AAXX 2018/ 89869 46/// ///// 11100 39702 4//// 5//// 91840
AAXX 2018/ 89866 46/// ///// 11026 39660 4//// 5//// 91840
AAXX 2018/ 89329 46/// ///// 11050 38701 4//// 5//// 91840
AAXX 2018/ 89799 46/// ///// 11244 4//// 5//// 91840
AAXX 2018/ 89868 46/// ///// 11093 39701 4//// 5//// 91840
AAXX 2018/ 89828 46/// ///// 11269 36460 4//// 5//// 91840
AAXX 2018/ 89108 46/// ///// 11221 36995 4//// 5//// 91840
AAXX 2018/ 89879 46/// ///// 11008 39664 4//// 5//// 91830
AAXX 2018/ 89879 46/// ///// 11006 39664 4//// 5//// 91840
AAXX 20184 89614 46/// /0715 11075 29098 38906 4//// 5//// 91830 333 90700 91119
AAXX 2018/ 68902 46/// ///// 40121 52002
BBXX MINFR09 2018/ 99297 31537 46/// ///// 40143 57007
AAXX 20184 89614 46/// /0715 11075 29098 38906 4//// 5//// 91830 333 90700 91119
BBXX AMOUK05 20184 99537 70003 46/// ///// 10048 20024 30114 40150 52017 91750
BBXX 63106 20184 99610 10017 46/// /3111 10034 40027 52013 22200
BBXX 63105 20184 99610 10017 47598 ///// 10052 20010 40026 52013 700// 22200
BBXX 63110 20183 99595 10015 41/98 /2918 10061 40042 700// 8//// 22200 10504 70020
BBXX 62107 20184 99501 70061 46/// /2520 10109 20087 40221 58001 22200 00117 10703 70014
BBXX 62103 20184 99499 70029 46/99 /2919 10109 20064 40216 52012 22200 00122 10702 70012
AAXX 20181 10015 01363 83509 10037 20022 30050 40060 51047 60012 72052 886// 222// 02062 333 10071 20020 31002 55300 20000 30000 69917 85708 87712
BBXX CFO383 20184 99439 70602 47598 /3016 10025 2104/ 40057 5//// 740// 8//// 22200 0//// 1//// 2//// 70/// 80004 333 91031
BBXX 42376 20181 99291 70879 46/// /1209 10241 40143 91740 22200 10805 70023
BBXX 42887 20181 99282 70885 46/// /1804 1//// 91740 22200 10605 70023
BBXX 42370 20181 99273 70905 46/// ///// 10181 91740 22200 10402 70012
BBXX MINFR09 2018/ 99297 31537 46/// ///// 40143 57007
AAXX 20181 11993 11656 89901 10001 21015 39897 40118 52004 69902 77172 885// 333 10012 43001 88633
AAXX 20184 71904 16/// ///// 10022 21037 60001 333 10067 21045 70000
AAXX 20181 20046 11497 82304 11040 21045 30061 40093 52005 69900 77172 885// 333 11038
AAXX 20181 20292 41998 22207 11222 21247 30248 40264 53002 73631 82030 333 91110 96510
AAXX 20181 20069 41474 71708 11067 21087 30127 40140 51001 73632 875// 333 87617 91112
AAXX 20184 89013 46/// /1120 11156 21185 37669 49671 5//// 91750
AAXX 20184 89272 46/// /1105 11093 21131 38144 49784 57003 91810
BBXX 42369 20181 99272 70903 46/// /1907 1//// 91800 22200 10604 70018
BBXX 42370 20181 99273 70905 46/// ///// 10181 91800 22200 10402 70012
AAXX 20184 91375 46/// /0511 10259 40063 22200 00282
BBXX 42376 20181 99291 70879 46/// /1209 10240 40138 58025 91800 22200 10805 70023
BBXX 42887 20181 99282 70885 46/// /1906 1//// 91800 22200 10604 70022
AAXX 20184 91165 31559 60417 10220 20190 30162 761// 91757
AAXX 20184 91212 32766 20810 10261 20233 31353 40088 56013 91754
AAXX 20184 91245 32566 40611 10260 20220 30150 91755
AAXX 20184 91285 12666 82504 10206 20189 30154 40168 53009 60071 91753
AAXX 20184 91334 32474 70610 10275 20236 30058 40061 56012 82171
AAXX 20184 91348 11474 80510 10267 20243 30015 40068 55007 69901 70282 8527/
AAXX 20184 91376 32474 80811 10268 20233 30061 40064 53007 86878
AAXX 20184 91408 32474 70504 10267 20243 30017 40055 57019 81101
AAXX 20184 91413 11469 70808 10266 20248 30036 40061 56025 60031 70182 83271
AAXX 20184 91610 11599 21118 10263 20223 40065 53008 60001 70200 82100
AAXX 20184 91155 NIL
AAXX 20184 91203 NIL
AAXX 20184 91217 NIL
AAXX 20184 91232 NIL
AAXX 20184 91250 NIL
AAXX 20184 91275 NIL
AAXX 20184 91317 NIL
AAXX 20184 91324 NIL
AAXX 20184 91339 NIL
AAXX 20184 91353 NIL
AAXX 20184 91356 NIL
AAXX 20184 91366 NIL
AAXX 20184 91367 NIL
AAXX 20184 91369 NIL
AAXX 20184 91371 NIL
AAXX 20184 91378 NIL
AAXX 20184 91425 NIL
AAXX 20184 91434 NIL
AAXX 20184 91601 NIL
AAXX 20181 01098 11150 83104 10023 20007 39953 49971 52005 69932 75065 8762/ 333 10029 91108
BBXX AMOUK03 20184 99537 70003 46/// ///// 10062 20028 30120 40151 52015 91750
BBXX AMOUK08 20184 99501 70061 46/// ///// 10114 20098 30216 40221 54001 91750
BBXX 63110 20184 99595 10015 47598 /3014 10059 20004 40045 52010 700// 22200 10604 70022
BBXX 63106 20184 99610 10017 46/// /3111 10034 40027 52013 22200
BBXX 63113 20184 99610 10017 46/// /3311 10037 20010 40028 53010 22200 10705 70025
BBXX 62103 20184 99499 70029 46/99 /3118 10107 20057 40210 51013 22200 00122 10703 70013 333 90710 91125
AAXX 20184 91165 31559 60417 10220 20190 30162 761// 91757
AAXX 20184 91212 32766 20810 10261 20233 31353 40088 56013 91754
AAXX 20184 91285 12666 82504 10206 20189 30154 40168 53009 60071 91753
AAXX 20184 91334 32474 70610 10275 20236 30058 40061 56012 82171
AAXX 20184 91348 11474 80510 10267 20243 30015 40068 55007 69901 70282 8527/
AAXX 20184 91376 32474 80811 10268 20233 30061 40064 53007 86878
AAXX 20184 91408 32474 70504 10267 20243 30017 40055 57019 81101
AAXX 20184 91413 11469 70808 10266 20248 30036 40061 56025 60031 70182 83271
AAXX 20184 91245 32566 40611 10260 20220 30150 91755
BBXX S6SR 20184 99160 50053 41599 21306 10210 20195 40170 56020 7//00 821// 22213 00230 2//02 32020 41505 51505 6//// 80200 ICE /////
BBXX V7QX2 20184 99234 10618 41695 82715 10220 2022/ 40170 54/// 7//// 8/64/ 22272 00270 20303 305// 4//// 5//// 6//// 80220 ICE /////
BBXX WC5932 20184 99430 70877 43/// /1212 00/// 10030 21033 40191 58017 7//// 8//// 22284 0//// 2//// 3//// 4//// 5//// 6//// 80007 ICE /////
BBXX WC5932 20184 99430 70877 43/// /1212 00/// 10030 21033 40191 58017 7//// 8//// 22284 0//// 2//// 3//// 4//// 5//// 6//// 80007 ICE /////
BBXX V7QX2 20184 99234 10618 41695 82715 10220 2022/ 40170 54/// 7//// 8/64/ 22272 00270 20303 305// 4//// 5//// 6//// 80220 ICE /////
BBXX S6SR 20184 99160 50053 41599 21306 10210 20195 40170 56020 7//00 821// 22213 00230 2//02 32020 41505 51505 6//// 80200 ICE /////
BBXX 42887 20181 99282 70885 46/// /1906 1//// 91800 22200 10604 70022
BBXX 42376 20181 99291 70879 46/// /1209 10240 40138 58025 91800 22200 10805 70023
BBXX 42370 20181 99273 70905 46/// ///// 10181 91800 22200 10402 70012
BBXX 42369 20181 99272 70903 46/// /1907 1//// 91800 22200 10604 70018
AAXX 20184 71732 16/// /1707 11038 21112 60001 333 11038 21095 70010
AAXX 20184 71732 16/// /1707 11038 21112 60001 333 11038 21095 70010
AAXX 20184 97686 01240 80000 10168 20153 38338 40060 57004 60161 76166 85827 333 56000 60167 85805 87459
AAXX 20181 22676 12584 81806 10001 21038 30093 40172 52003 69900 885// 333 10015
BBXX 42046 20181 99279 70940 46/// /1608 1//// 40120 91830 22200 00226 333 91210
BBXX 42046 20181 99279 70940 46/// /1608 1//// 40125 57010 91800 22200 00226 333 91209
BBXX 42047 20181 99279 70936 46/// /1505 10215 20207 40126 91830 22200 00227 333 91205
BBXX 42047 20181 99279 70936 46/// /1607 10217 20206 40128 91800 22200 00227 333 91208
BBXX WSM5364 20184 99583 71356 41698 82511 10044 2//// 40170 52/// 70222 87500 22200 04050 20101 3//// 4//00 5//// 6//// 8//// ICE /////
BBXX WDE4789 20184 99593 71398 41598 82715 1//// 2//// 40180 52/// 70222 885// 22232 0//// 20201 325// 4//05 5//// 6//// 8//// ICE /////
BBXX MINUK04 2018/ 99519 10012 46/// ///// 10055 4//// 57040
BBXX 42047 20181 99279 70936 46/// /1505 10215 20207 40126 91830 22200 00227 333 91205
BBXX 42047 20181 99279 70936 46/// /1607 10217 20206 40128 91800 22200 00227 333 91208
BBXX 42046 20181 99279 70940 46/// /1608 1//// 40120 91830 22200 00226 333 91210
BBXX 42046 20181 99279 70940 46/// /1608 1//// 40125 57010 91800 22200 00226 333 91209
BBXX AMOUK05 20184 99537 70003 46/// ///// 10048 20024 30114 40150 52017 91750
BBXX 63106 20184 99610 10017 46/// /3111 10034 40027 52013 22200
BBXX 63105 20184 99610 10017 47598 ///// 10052 20010 40026 52013 700// 22200
BBXX 63110 20183 99595 10015 41/98 /2918 10061 40042 700// 8//// 22200 10504 70020
BBXX 62107 20184 99501 70061 46/// /2520 10109 20087 40221 58001 22200 00117 10703 70014
BBXX 62103 20184 99499 70029 46/99 /2919 10109 20064 40216 52012 22200 00122 10702 70012
AAXX 20184 87585 32960 53607 10326 20165 30057 40086 56009 80006 333 56005 85270
BBXX 42369 20181 99272 70903 46/// /1907 1//// 91820 22200 10604 70018
BBXX 42370 20181 99273 70905 46/// ///// 10180 91820 22200 10402 70011
BBXX 42376 20181 99291 70879 46/// /1209 10240 40138 91820 22200 10805 70023
BBXX 42887 20181 99282 70885 46/// /2006 1//// 91820 22200 10604 70022
BBXX 42887 20181 99282 70885 46/// /2006 1//// 91820 22200 10604 70022
BBXX 42369 20181 99272 70903 46/// /1907 1//// 91820 22200 10604 70018
BBXX 42376 20181 99291 70879 46/// /1209 10240 40138 91820 22200 10805 70023
BBXX 42370 20181 99273 70905 46/// ///// 10180 91820 22200 10402 70011
BBXX WSM5364 20184 99583 71356 41698 82511 10044 2//// 40170 52/// 70222 87500 22200 04050 20101 3//// 4//00 5//// 6//// 8//// ICE /////
BBXX WDE4789 20184 99593 71398 41598 82715 1//// 2//// 40180 52/// 70222 885// 22232 0//// 20201 325// 4//05 5//// 6//// 8//// ICE /////
BBXX MINUK04 2018/ 99519 10012 46/// ///// 10055 4//// 57040
BBXX 52243 20181 99193 11666 46/// ///// 1//// 91800 22200 00262
BBXX 51179 20181 99143 51708 46/// ///// 1//// 91800 22200 00285
BBXX 51178 20181 99142 51695 46/// ///// 1//// 91800 22200 00283
BBXX 52246 20181 99152 11457 46/// ///// 1//// 91800 22200 00282
BBXX 51176 20181 99278 71758 46/// ///// 1//// 91800 22200 00236
BBXX 52245 20181 99181 11458 46/// ///// 1//// 91800 22200 00279
BBXX 51174 20181 99142 51697 46/// ///// 1//// 91800 22200 00285
BBXX 52244 20181 99200 11452 46/// ///// 1//// 91800 22200 00269
BBXX 51173 20181 99260 71739 46/// ///// 1//// 91800 22200 00243
BBXX 51172 20181 99284 71783 46/// ///// 1//// 91800 22200 00230
BBXX 51171 20181 99064 71623 46/// ///// 1//// 91800 22200 00276
BBXX 51170 20181 99168 71695 46/// ///// 1//// 91800 22200 00257
BBXX 51169 20181 99004 51600 46/// ///// 1//// 91800 22200 00258
BBXX 52248 20181 99135 11448 46/// ///// 1//// 91800 22200 00281
AAXX 20184 97796 11450 70000 10245 20230 30028 40079 57019 69901 70562 84532 333 56000 84613 86362
BBXX WDE4789 20184 99593 71398 41598 82715 1//// 2//// 40180 52/// 70222 885// 22232 0//// 20201 325// 4//05 5//// 6//// 8//// ICE /////
BBXX WSM5364 20184 99583 71356 41698 82511 10044 2//// 40170 52/// 70222 87500 22200 04050 20101 3//// 4//00 5//// 6//// 8//// ICE /////
BBXX AMOUK03 20184 99537 70003 46/// ///// 10062 20028 30120 40151 52015 91750
BBXX AMOUK08 20184 99501 70061 46/// ///// 10114 20098 30216 40221 54001 91750
BBXX 63110 20184 99595 10015 47598 /3014 10059 20004 40045 52010 700// 22200 10604 70022
BBXX 63106 20184 99610 10017 46/// /3111 10034 40027 52013 22200
BBXX 63113 20184 99610 10017 46/// /3311 10037 20010 40028 53010 22200 10705 70025
BBXX 62103 20184 99499 70029 46/99 /3118 10107 20057 40210 51013 22200 00122 10703 70013 333 90710 91125
BBXX 51174 20181 99142 51697 46/// ///// 1//// 91800 22200 00285
BBXX 51178 20181 99142 51695 46/// ///// 1//// 91800 22200 00283
BBXX 51179 20181 99143 51708 46/// ///// 1//// 91800 22200 00285
BBXX 51169 20181 99004 51600 46/// ///// 1//// 91800 22200 00258
BBXX 52245 20181 99181 11458 46/// ///// 1//// 91800 22200 00279
BBXX 52244 20181 99200 11452 46/// ///// 1//// 91800 22200 00269
BBXX 52243 20181 99193 11666 46/// ///// 1//// 91800 22200 00262
BBXX 52248 20181 99135 11448 46/// ///// 1//// 91800 22200 00281
BBXX 52246 20181 99152 11457 46/// ///// 1//// 91800 22200 00282
BBXX 51173 20181 99260 71739 46/// ///// 1//// 91800 22200 00243
BBXX 51176 20181 99278 71758 46/// ///// 1//// 91800 22200 00236
BBXX 51172 20181 99284 71783 46/// ///// 1//// 91800 22200 00230
BBXX 51170 20181 99168 71695 46/// ///// 1//// 91800 22200 00257
BBXX 51171 20181 99064 71623 46/// ///// 1//// 91800 22200 00276
BBXX MINFR05 2018/ 99325 70139 46/// ///// 10173 40278 52001
AAXX 20181 30252 119// 82903 11190 21258 39970 40309 52032 69902 70183 86047 333 11151
AAXX 20184 97630 31457 40106 10246 20231 39896 40056 56009 71311 83931 333 56000 57903 81910 82811 80970
AAXX 20184 97748 31460 43402 10270 20256 30054 40056 56001 70511 81132 333 56800 57800 81815 83075 80850
AAXX 20181 23032 11496 82408 11036 21047 30101 40132 52002 60010 77173 8802/ 333 11040 88510
BBXX MINFR05 2018/ 99325 70139 46/// ///// 10173 40278 52001
AAXX 20181 23022 11497 82208 11037 21048 30065 40127 53003 69900 73683 885// 333 11040 91113
AAXX 20181 23242 11295 83007 11064 21076 30119 40135 52003 60040 77183 8802/ 333 11065 88706
AAXX 20181 20744 11596 82007 11003 21015 30033 40051 52012 60020 78583 889// 333 10000 88922
AAXX 20181 23058 11396 81104 11036 21156 30134 40139 57005 69920 77073 8772/ 333 11102 87707
AAXX 20181 20667 11996 81610 11064 21072 30089 40096 57006 69900 77173 8802/ 333 11066
AAXX 20181 20891 41995 00503 11385 21407 30272 40322 57008 71000 333 91104
BBXX AMOUK05 20184 99537 70003 46/// ///// 10048 20024 30114 40150 52017 91750
BBXX 63106 20184 99610 10017 46/// /3111 10034 40027 52013 22200
BBXX 63105 20184 99610 10017 47598 ///// 10052 20010 40026 52013 700// 22200
BBXX 63110 20183 99595 10015 41/98 /2918 10061 40042 700// 8//// 22200 10504 70020
BBXX 62107 20184 99501 70061 46/// /2520 10109 20087 40221 58001 22200 00117 10703 70014
BBXX 62103 20184 99499 70029 46/99 /2919 10109 20064 40216 52012 22200 00122 10702 70012
AAXX 20181 98543 32468 60000 10267 20246 30067 40078 58010 82208 333 56999 82818 86272
AAXX 20184 97192 32450 50000 10266 20252 30038 40095 52006 84820 333 56200 57822 84816 80857
AAXX 20184 78905 11460 70805 10249 20206 30136 40159 69921 70282 87401 333 10265 20244 58009 85815 84634 90954
AAXX 20184 78905 11460 70805 10249 20206 30136 40159 69921 70282 87401 333 10265 20244 58009 85815 84634 90954
AAXX 20184 89272 46/// /1305 11095 21131 38144 49786 57002 91840
AAXX 20184 89257 46/// /2311 11055 21083 39904 49975 5//// 91840
AAXX 20181 31866 42999 02506 11189 21241 30225 40231 52005
AAXX 20184 96033 31450 80000 10248 20230 30091 40096 57009 71522 8592/ 333 56009 57903 81920 85617 88457 80980
AAXX 20181 02805 11460 83602 11012 21018 39863 49996 52013 69932 70282 8772/ 333 11007 21017 47///
AAXX 20184 78905 11460 70805 10249 20206 30136 40159 69921 70282 87401 333 10265 20244 58009 85815 84634 90954
AAXX 20181 30521 325// 81501 11241 21260 39824 40401 52025 82901 333 11147
AAXX 20184 71310 16/// /3023 11038 21087 30029 40066 52017 60001 333 10004 21052 70020 555 10030
AAXX 20184 71245 46/// /2324 11055 21114 6///1 333 11025 21068 7////
AAXX 20181 30521 42597 83005 11155 21189 39775 40330 52010 85901
AAXX 20184 71310 16/// /3023 11038 21087 30029 40066 52017 60001 333 10004 21052 70020 555 10030
AAXX 20184 71245 46/// /2324 11055 21114 6///1 333 11025 21068 7////
AAXX 20181 28586 32997 82403 11152 21186 30303 40465 54000 8802/ 333 11151
BBXX AMOUK03 20184 99537 70003 46/// ///// 10062 20028 30120 40151 52015 91750
BBXX AMOUK08 20184 99501 70061 46/// ///// 10114 20098 30216 40221 54001 91750
BBXX 63110 20184 99595 10015 47598 /3014 10059 20004 40045 52010 700// 22200 10604 70022
BBXX 63106 20184 99610 10017 46/// /3111 10034 40027 52013 22200
BBXX 63113 20184 99610 10017 46/// /3311 10037 20010 40028 53010 22200 10705 70025
BBXX 62103 20184 99499 70029 46/99 /3118 10107 20057 40210 51013 22200 00122 10703 70013 333 90710 91125
AAXX 20181 20674 41496 71911 11207 21226 30127 40191 57005 73831 8553/ 333 91114
AAXX 20181 20087 41998 61807 11190 21209 30189 40200 52005 73673 82031
AAXX 20184 97980 12460 60000 10253 20246 30037 40044 56013 69921 84842 333 56000 84817
AAXX 20181 24329 42998 30000 11390 21411 39980 40329 53002 83010
AAXX 20184 71373 16/// /2504 11059 21122 60001 333 11010 21075 70016
AAXX 20184 71388 46/// /3007 11119 21156 30006 40201 57008 6///1 333 11091 21130 7////
AAXX 20181 25745 42698 40000 11291 21329 30080 40137 52007 84500
AAXX 20181 31174 42999 02306 11159 21186 30189 40201 52006 333 91111
AAXX 20181 23058 11396 81104 11136 21156 30134 40139 57005 69920 77073 8772/ 333 11102 87707
BBXX 42043 20181 99290 70949 46/// /0408 1//// 40123 91830 22200 00171 333 91210
BBXX 42043 20181 99290 70949 46/// /0207 1//// 40134 91800 22200 00171 333 91210
BBXX 42043 20181 99290 70949 46/// /0207 1//// 40134 91800 22200 00171 333 91210
BBXX 42043 20181 99290 70949 46/// /0408 1//// 40123 91830 22200 00171 333 91210
AAXX 20181 31534 42999 80000 11268 21287 39868 40248 57015 80007
BBXX MINFR03 2018/ 99077 10694 46/// ///// 10278 40104 52003
AAXX 20184 97086 32460 62703 10271 20242 30038 40062 56012 83571 333 56000 83618
BBXX AMOUK05 20184 99537 70003 46/// ///// 10048 20024 30114 40150 52017 91750
BBXX 63106 20184 99610 10017 46/// /3111 10034 40027 52013 22200
BBXX 63105 20184 99610 10017 47598 ///// 10052 20010 40026 52013 700// 22200
BBXX 63110 20183 99595 10015 41/98 /2918 10061 40042 700// 8//// 22200 10504 70020
BBXX 62107 20184 99501 70061 46/// /2520 10109 20087 40221 58001 22200 00117 10703 70014
BBXX 62103 20184 99499 70029 46/99 /2919 10109 20064 40216 52012 22200 00122 10702 70012
AAXX 20181 38847 429// 40000 11069 21106 40434 57010 80003
AAXX 20181 30695 41996 83202 11213 21238 39837 40197 53005 77172 8802/
BBXX MINFR03 2018/ 99077 10694 46/// ///// 10278 40104 52003
AAXX 20184 63729 12480 40000 10218 20200 38868 48/// 69902 8193/ 333 0//19 10265 55300 58000 81619 81921 84359
AAXX 20184 63733 32580 40000 10221 20190 38861 48501 81930 333 10267 58001 81922 84359
AAXX 20184 63756 32580 60000 10222 20197 38869 48505 8293/ 333 10260 58004 82820 81921 86359
AAXX 20184 63791 32580 20915 10270 20137 39110 48501 82500 333 10346 55300 58005 82626
AAXX 20184 63801 31580 70000 10238 20223 39202 48527 71322 8191/ 333 10294 58003 81821 81922 87459
AAXX 20184 63832 32480 70000 10202 20189 38834 48505 8293/ 333 10243 55300 59018 82818 81919 87358
AAXX 20184 63862 01480 63005 10213 20187 38902 48514 69962 71396 83973 333 0//16 10266 58013 69947 83819 81922 85357
AAXX 20184 63866 32580 20000 10247 20215 39511 48/// 82500 333 10294 58003 82625
AAXX 20184 63870 32480 40000 10266 20258 30090 40108 82230 333 10310 55300 58007 82816 84358
AAXX 20184 63881 12480 80000 10177 20156 38208 48/// 60032 8597/ 333 10216 58004 85618 81920 88357
AAXX 20184 63887 12480 50608 10201 20178 38594 48514 60162 81970 333 0//94 58010 81618 81919 85358
AAXX 20184 63894 12580 20000 10256 20252 30052 40112 60052 333 0//18 10307 55300 58001 82820
AAXX 20184 63932 01470 80000 10160 20155 38314 48513 60512 79522 8292/ 333 0//62 10231 59003 60466 82619 81921 88458
AAXX 20184 63962 11580 71105 10220 20195 38951 48510 60032 71792 8592/ 333 10262 59004 85620 81923 87458
AAXX 20184 63971 12580 71805 10242 20239 39980 40110 60102 8293/ 333 0//14 10307 55300 58001 82820 81921 87358
AAXX 20184 63729 12480 40000 10218 20200 38868 48/// 69902 8193/ 333 0//19 10265 55300 58000 81619 81921 84359
AAXX 20184 63733 32580 40000 10221 20190 38861 48501 81930 333 10267 58001 81922 84359
AAXX 20184 63756 32580 60000 10222 20197 38869 48505 8293/ 333 10260 58004 82820 81921 86359
AAXX 20184 63791 32580 20915 10270 20137 39110 48501 82500 333 10346 55300 58005 82626
AAXX 20184 63801 31580 70000 10238 20223 39202 48527 71322 8191/ 333 10294 58003 81821 81922 87459
AAXX 20184 63832 32480 70000 10202 20189 38834 48505 8293/ 333 10243 55300 59018 82818 81919 87358
AAXX 20184 63862 01480 63005 10213 20187 38902 48514 69962 71396 83973 333 0//16 10266 58013 69947 83819 81922 85357
AAXX 20184 63866 32580 20000 10247 20215 39511 48/// 82500 333 10294 58003 82625
AAXX 20184 63870 32480 40000 10266 20258 30090 40108 82230 333 10310 55300 58007 82816 84358
AAXX 20184 63881 12480 80000 10177 20156 38208 48/// 60032 8597/ 333 10216 58004 85618 81920 88357
AAXX 20184 63887 12480 50608 10201 20178 38594 48514 60162 81970 333 0//94 58010 81618 81919 85358
AAXX 20184 63894 12580 20000 10256 20252 30052 40112 60052 333 0//18 10307 55300 58001 82820
AAXX 20184 63932 01470 80000 10160 20155 38314 48513 60512 79522 8292/ 333 0//62 10231 59003 60466 82619 81921 88458
AAXX 20184 63962 11580 71105 10220 20195 38951 48510 60032 71792 8592/ 333 10262 59004 85620 81923 87458
AAXX 20184 63971 12580 71805 10242 20239 39980 40110 60102 8293/ 333 0//14 10307 55300 58001 82820 81921 87358
AAXX 20184 97028 32560 60000 10242 20231 30056 40062 56006 83521 333 56000 83620 85460
AAXX 20184 96741 32556 72705 10274 20224 30071 40075 57010 84571 333 56000 84621
BBXX AMOUK03 20184 99537 70003 46/// ///// 10062 20028 30120 40151 52015 91750
BBXX AMOUK08 20184 99501 70061 46/// ///// 10114 20098 30216 40221 54001 91750
BBXX 63110 20184 99595 10015 47598 /3014 10059 20004 40045 52010 700// 22200 10604 70022
BBXX 63106 20184 99610 10017 46/// /3111 10034 40027 52013 22200
BBXX 63113 20184 99610 10017 46/// /3311 10037 20010 40028 53010 22200 10705 70025
BBXX 62103 20184 99499 70029 46/99 /3118 10107 20057 40210 51013 22200 00122 10703 70013 333 90710 91125
BBXX ZCBD4 20183 99174 70644 41398 62310 10250 20188 40184 54000 7//// 85720 22254 20303 3//// 4//// 5//// 80210
AAXX 20181 31825 42984 00000 11288 21306 30047 40281 51008
AAXX 20184 91925 01470 70402 10275 20211 30058 40118 51015 60041 70386 878// 333 56299 60007 81816 85818 87650 90710 91107 555 60005 10607 59010
BBXX ZCBD4 20183 99174 70644 41398 62310 10250 20188 40184 54000 7//// 85720 22254 20303 3//// 4//// 5//// 80210
BBXX MGRX9 20184 99046 10806 41497 40626 10280 20237 40083 57005 7//// 8227/ 22233 00273 20406 3//// 4//// 5//// 80250
AAXX 20184 96645 11430 70000 10249 20245 30044 40076 58003 60061 71362 85972 333 56000 57902 81912 85612 80982
AAXX 20184 48358 31958 10000 10155 20137 39963 40145 56010 71000 80005 333 59012
AAXX 20184 48481 31958 20000 10235 20189 30076 40104 57008 71000 81041 333 59010
AAXX 20184 91925 01470 70402 10275 20211 30058 40118 51015 60041 70386 878// 333 56299 60007 81816 85818 87650 90710 91107 555 60005 10607 59010
BBXX AMOUK05 20184 99537 70003 46/// ///// 10048 20024 30114 40150 52017 91750
BBXX 63106 20184 99610 10017 46/// /3111 10034 40027 52013 22200
BBXX 63105 20184 99610 10017 47598 ///// 10052 20010 40026 52013 700// 22200
BBXX 63110 20183 99595 10015 41/98 /2918 10061 40042 700// 8//// 22200 10504 70020
BBXX 62107 20184 99501 70061 46/// /2520 10109 20087 40221 58001 22200 00117 10703 70014
BBXX 62103 20184 99499 70029 46/99 /2919 10109 20064 40216 52012 22200 00122 10702 70012
AAXX 20184 91650 11599 30000 10270 2025/ 40081 53005 60001 70200 82101 333 569/9 82820
BBXX 2AGH7 20183 99202 31693 41297 60920 10260 20246 40121 54000 70322 8/2// 22223 20403 80250
BBXX 2AGH7 20183 99202 31693 41297 60920 10260 20246 40121 54000 70322 8/2// 22223 20403 80250
BBXX AMOUK03 20184 99537 70003 46/// ///// 10062 20028 30120 40151 52015 91750
BBXX AMOUK08 20184 99501 70061 46/// ///// 10114 20098 30216 40221 54001 91750
BBXX 63110 20184 99595 10015 47598 /3014 10059 20004 40045 52010 700// 22200 10604 70022
BBXX 63106 20184 99610 10017 46/// /3111 10034 40027 52013 22200
BBXX 63113 20184 99610 10017 46/// /3311 10037 20010 40028 53010 22200 10705 70025
BBXX 62103 20184 99499 70029 46/99 /3118 10107 20057 40210 51013 22200 00122 10703 70013 333 90710 91125
BBXX 2AGH7 20183 99202 31693 41297 60920 10260 20246 40121 54000 70322 8/2// 22223 20403 80250
BBXX AMOUK05 20184 99537 70003 46/// ///// 10048 20024 30114 40150 52017 91750
BBXX 63106 20184 99610 10017 46/// /3111 10034 40027 52013 22200
BBXX 63105 20184 99610 10017 47598 ///// 10052 20010 40026 52013 700// 22200
BBXX 63110 20183 99595 10015 41/98 /2918 10061 40042 700// 8//// 22200 10504 70020
BBXX 62107 20184 99501 70061 46/// /2520 10109 20087 40221 58001 22200 00117 10703 70014
BBXX 62103 20184 99499 70029 46/99 /2919 10109 20064 40216 52012 22200 00122 10702 70012
BBXX 52249 20181 99052 31503 46/// ///// 1//// 91800 22200 00305
AAXX 20184 96179 32460 70000 10242 20233 30062 40099 52004 83208 333 56000 57802 83817 80850
AAXX 20184 96179 32460 70000 10240 20234 30050 40087 57002 83208 333 56000 57802 83817 80850
BBXX AMOUK03 20184 99537 70003 46/// ///// 10062 20028 30120 40151 52015 91750
BBXX AMOUK08 20184 99501 70061 46/// ///// 10114 20098 30216 40221 54001 91750
BBXX 63110 20184 99595 10015 47598 /3014 10059 20004 40045 52010 700// 22200 10604 70022
BBXX 63106 20184 99610 10017 46/// /3111 10034 40027 52013 22200
BBXX 63113 20184 99610 10017 46/// /3311 10037 20010 40028 53010 22200 10705 70025
BBXX 62103 20184 99499 70029 46/99 /3118 10107 20057 40210 51013 22200 00122 10703 70013 333 90710 91125
BBXX 52249 20181 99052 31503 46/// ///// 1//// 91800 22200 00305
AAXX 20181 25927 42998 03103 11211 21259 30118 40125 52001
BBXX AMOUK05 20184 99537 70003 46/// ///// 10048 20024 30114 40150 52017 91750
BBXX 63106 20184 99610 10017 46/// /3111 10034 40027 52013 22200
BBXX 63105 20184 99610 10017 47598 ///// 10052 20010 40026 52013 700// 22200
BBXX 63110 20183 99595 10015 41/98 /2918 10061 40042 700// 8//// 22200 10504 70020
BBXX 62107 20184 99501 70061 46/// /2520 10109 20087 40221 58001 22200 00117 10703 70014
BBXX 62103 20184 99499 70029 46/99 /2919 10109 20064 40216 52012 22200 00122 10702 70012
AAXX 20181 78090 15/// /0000 10233 30225 40228 69901 91800 222// 00108
BBXX AMOUK03 20184 99537 70003 46/// ///// 10062 20028 30120 40151 52015 91750
BBXX AMOUK08 20184 99501 70061 46/// ///// 10114 20098 30216 40221 54001 91750
BBXX 63110 20184 99595 10015 47598 /3014 10059 20004 40045 52010 700// 22200 10604 70022
BBXX 63106 20184 99610 10017 46/// /3111 10034 40027 52013 22200
BBXX 63113 20184 99610 10017 46/// /3311 10037 20010 40028 53010 22200 10705 70025
BBXX 62103 20184 99499 70029 46/99 /3118 10107 20057 40210 51013 22200 00122 10703 70013 333 90710 91125
BBXX AMOUK05 20184 99537 70003 46/// ///// 10048 20024 30114 40150 52017 91750
BBXX 63106 20184 99610 10017 46/// /3111 10034 40027 52013 22200
BBXX 63105 20184 99610 10017 47598 ///// 10052 20010 40026 52013 700// 22200
BBXX 63110 20183 99595 10015 41/98 /2918 10061 40042 700// 8//// 22200 10504 70020
BBXX 62107 20184 99501 70061 46/// /2520 10109 20087 40221 58001 22200 00117 10703 70014
BBXX 62103 20184 99499 70029 46/99 /2919 10109 20064 40216 52012 22200 00122 10702 70012
BBXX DDDO2 20164 99059 10866 41397 80518 10284 20237 40090 51020 70322 8277/ 22224 00287 2//// 80250
BBXX DDDO2 20174 99059 10869 41397 80426 10280 20235 40085 50010 70222 83770 22224 00287 2//// 80247
BBXX TBWUK17 20183 99193 30791 41497 20912 10252 20227 40156 56020 70100 82145 22253 04279 20604 31314 40503 50602 80235
BBXX V7PW3 20183 99253 10565 41997 01115 10221 20206 40208 52005
AAXX 20184 97530 01440 80000 10248 20242 30053 40058 57007 60151 84842 333 56000 57801 60107 84814 83615 87460 80833
BBXX V7PW3 20183 99253 10565 41997 01115 10221 20206 40208 52005
BBXX TBWUK17 20183 99193 30791 41497 20912 10252 20227 40156 56020 70100 82145 22253 04279 20604 31314 40503 50602 80235
AAXX 20184 97530 01440 80000 10248 20242 30053 40058 57007 60151 76166 84842 333 56000 57801 60107 84814 83615 87460 80833
BBXX TBWUK17 20183 99193 30791 41497 20912 10252 20227 40156 56020 70100 82145 22253 04279 20604 31314 40503 50602 80235
AAXX 20194 89065 46/// /3404 10007 21022 39854 49931 57001 91850
AAXX 20194 89257 46/// /2311 11058 21086 39904 49975 5//// 91850
AAXX 20194 89266 46/// /1509 11036 21053 39837 49977 57007 91850
AAXX 20194 89272 46/// /1206 11096 21131 38143 49785 57003 91850
AAXX 20184 97530 31450 80000 10252 20244 30052 40057 57001 71544 84842 333 56000 57801 84814 83615 87460 80833
BBXX DDDO2 20174 99059 10869 41397 80426 10280 20235 40085 50010 70222 83770 22224 00287 2//// 80247
BBXX V7PW3 20183 99253 10565 41997 01115 10221 20206 40208 52005
BBXX DDDO2 20164 99059 10866 41397 80518 10284 20237 40090 51020 70322 8277/ 22224 00287 2//// 80250
BBXX TBWUK17 20183 99193 30791 41497 20912 10252 20227 40156 56020 70100 82145 22253 04279 20604 31314 40503 50602 80235
BBXX V7PW3 20183 99253 10565 41997 01115 10221 20206 40208 52005
BBXX V7PW3 20183 99253 10565 41997 01115 10221 20206 40208 52005
BBXX AMOUK03 20184 99537 70003 46/// ///// 10062 20028 30120 40151 52015 91750
BBXX AMOUK08 20184 99501 70061 46/// ///// 10114 20098 30216 40221 54001 91750
BBXX 63110 20184 99595 10015 47598 /3014 10059 20004 40045 52010 700// 22200 10604 70022
BBXX 63106 20184 99610 10017 46/// /3111 10034 40027 52013 22200
BBXX 63113 20184 99610 10017 46/// /3311 10037 20010 40028 53010 22200 10705 70025
BBXX 62103 20184 99499 70029 46/99 /3118 10107 20057 40210 51013 22200 00122 10703 70013 333 90710 91125
BBXX V7PW3 20183 99253 10565 41997 01115 10221 20206 40208 52005 NNNN
BBXX A8VL8 20184 99045 10927 41596 80424 10260 20232 40080 54000 76462 887// 22213 0//// 2//// 3//// 4//// 5//// 6//// 80240 ICE /////
BBXX A8VL8 20184 99045 10927 41596 80424 10260 20232 40080 54000 76462 887// 22213 0//// 2//// 3//// 4//// 5//// 6//// 80240 ICE /////
BBXX TBWUK17 20183 99193 30791 41497 20912 10252 20227 40156 56020 70100 82145 22253 04279 20604 31314 40503 50602 80235
AAXX 20184 91723 NIL
AAXX 20184 91964 NIL
AAXX 20184 89573 35980 11136 10032 21104 39617 49638 52013 80002
AAXX 20184 89573 35980 11136 10032 21104 39617 49638 52013 80002
BBXX AMOUK05 20184 99537 70003 46/// ///// 10048 20024 30114 40150 52017 91750
BBXX 63106 20184 99610 10017 46/// /3111 10034 40027 52013 22200
BBXX 63105 20184 99610 10017 47598 ///// 10052 20010 40026 52013 700// 22200
BBXX 63110 20183 99595 10015 41/98 /2918 10061 40042 700// 8//// 22200 10504 70020
BBXX 62107 20184 99501 70061 46/// /2520 10109 20087 40221 58001 22200 00117 10703 70014
BBXX 62103 20184 99499 70029 46/99 /2919 10109 20064 40216 52012 22200 00122 10702 70012
AAXX 20181 31532 11997 80000 11295 21313 39885 40269 57004 69900 77172 85027 333 21351 47016 55074
AAXX 20184 71618 15966 03421 11230 21256 39981 40019 51040 60001 333 11110 21230 70003
BBXX AMOUK03 20184 99537 70003 46/// ///// 10062 20028 30120 40151 52015 91750
BBXX AMOUK08 20184 99501 70061 46/// ///// 10114 20098 30216 40221 54001 91750
BBXX 63110 20184 99595 10015 47598 /3014 10059 20004 40045 52010 700// 22200 10604 70022
BBXX 63106 20184 99610 10017 46/// /3111 10034 40027 52013 22200
BBXX 63113 20184 99610 10017 46/// /3311 10037 20010 40028 53010 22200 10705 70025
BBXX 62103 20184 99499 70029 46/99 /3118 10107 20057 40210 51013 22200 00122 10703 70013 333 90710 91125
BBXX LAOW5 20184 99350 31796 41897 51320 10220 20190 40240 52030 78011 85483 22254 00200 21003 32020 41004 51004 6//// 80200 ICE /////
BBXX LAOW5 20184 99350 31796 41897 51320 10220 20190 40240 52030 78011 85483 22254 00200 21003 32020 41004 51004 6//// 80200 ICE /////
AAXX 20184 48583 31557 80000 10251 20232 30087 40093 57005 71022 82876 333 59008 70092
AAXX 20184 48581 01556 80803 10244 20228 30059 40101 57005 69923 71062 82546 333 59005 69927 70002
AAXX 20184 48001 NIL
AAXX 20184 48004 NIL
AAXX 20184 48008 31510 20000 10140 20124 40147 71044 81400 333 56800 59025
AAXX 20184 48010 NIL
AAXX 20184 48018 NIL
AAXX 20184 48019 NIL
AAXX 20184 48020 NIL
AAXX 20184 48025 NIL
AAXX 20184 48035 NIL
AAXX 20184 48037 NIL
AAXX 20184 48042 32956 00000 10172 20135 40138 333 59003
AAXX 20184 48045 NIL
AAXX 20184 48048 NIL
AAXX 20184 48053 32940 00000 10175 20135 40141 333 59017
AAXX 20184 48057 NIL
AAXX 20184 48060 32910 00000 10148 20092 40167 333 58007
AAXX 20184 48062 31540 30000 10160 20140 40133 74011 83800 333 56900 59002
AAXX 20184 48071 32920 00000 10205 20175 40132 333 58004
AAXX 20184 48077 NIL
AAXX 20184 48078 NIL
AAXX 20184 48080 NIL
AAXX 20184 48094 32950 00000 10185 20180 40126 333 59007
AAXX 20184 48097 32596 00901 10205 20180 40136 333 59005
AAXX 20184 48108 31996 70000 10210 20175 40125 70522 80005 333 56009 59007
AAXX 20184 48109 32496 40401 10263 20215 40108 70322 82531 333 56999 59003
AAXX 20184 48110 31995 31303 10235 20186 40113 705// 80005 333 56009 59009
AAXX 20184 48112 32957 70402 10260 20203 40094 82876 333 56199 59005
AAXX 20184 48001 NIL
AAXX 20184 48004 NIL
AAXX 20184 48008 31510 20000 10140 20124 40147 71044 81400 333 56800 59025
AAXX 20184 48010 NIL
AAXX 20184 48018 NIL
AAXX 20184 48019 NIL
AAXX 20184 48020 NIL
AAXX 20184 48025 NIL
AAXX 20184 48035 NIL
AAXX 20184 48037 NIL
AAXX 20184 48042 32956 00000 10172 20135 40138 333 59003
AAXX 20184 48045 NIL
AAXX 20184 48048 NIL
AAXX 20184 48053 32940 00000 10175 20135 40141 333 59017
AAXX 20184 48057 NIL
AAXX 20184 48060 32910 00000 10148 20092 40167 333 58007
AAXX 20184 48062 31540 30000 10160 20140 40133 74011 83800 333 56900 59002
AAXX 20184 48071 32920 00000 10205 20175 40132 333 58004
AAXX 20184 48077 NIL
AAXX 20184 48078 NIL
AAXX 20184 48080 NIL
AAXX 20184 48094 32950 00000 10185 20180 40126 333 59007
AAXX 20184 48097 32596 00901 10205 20180 40136 333 59005
AAXX 20184 48108 31996 70000 10210 20175 40125 70522 80005 333 56009 59007
AAXX 20184 48109 32496 40401 10263 20215 40108 70322 82531 333 56999 59003
AAXX 20184 48110 31995 31303 10235 20186 40113 705// 80005 333 56009 59009
AAXX 20184 48112 32957 70402 10260 20203 40094 82876 333 56199 59005
BBXX AMOUK05 20184 99537 70003 46/// ///// 10048 20024 30114 40150 52017 91750
BBXX 63106 20184 99610 10017 46/// /3111 10034 40027 52013 22200
BBXX 63105 20184 99610 10017 47598 ///// 10052 20010 40026 52013 700// 22200
BBXX 63110 20183 99595 10015 41/98 /2918 10061 40042 700// 8//// 22200 10504 70020
BBXX 62107 20184 99501 70061 46/// /2520 10109 20087 40221 58001 22200 00117 10703 70014
BBXX 62103 20184 99499 70029 46/99 /2919 10109 20064 40216 52012 22200 00122 10702 70012
AAXX 20184 41886 31920 00000 10142 20140 30128 40149 71044 333 59011 70000
BBXX UGSN 20181 99473 11396 42/98 /3209 11090 40224 54000 22213 00054 2////
AAXX 20184 48350 31930 00000 10148 20139 39839 40150 57006 71000 333 59005
AAXX 20184 41939 31909 00000 10145 20140 40161 74044 333 59009 70000
BBXX UGSN 20181 99473 11396 42/98 /3209 11090 40224 54000 22213 00054 2////
BBXX AMOUK03 20184 99537 70003 46/// ///// 10062 20028 30120 40151 52015 91750
BBXX AMOUK08 20184 99501 70061 46/// ///// 10114 20098 30216 40221 54001 91750
BBXX 63110 20184 99595 10015 47598 /3014 10059 20004 40045 52010 700// 22200 10604 70022
BBXX 63106 20184 99610 10017 46/// /3111 10034 40027 52013 22200
BBXX 63113 20184 99610 10017 46/// /3311 10037 20010 40028 53010 22200 10705 70025
BBXX 62103 20184 99499 70029 46/99 /3118 10107 20057 40210 51013 22200 00122 10703 70013 333 90710 91125
AAXX 20194 89262 46/// /2002 10013 21038 39924 49967 57003 91850
AAXX 20184 67002 11580 70805 10240 20227 30095 40129 60812 70221 86932 333 10290 58004 81920 83630 85073 924/7
AAXX 20184 67009 NIL
AAXX 20184 67025 NIL
AAXX 20184 67027 32580 22614 10280 20229 30080 40101 52021 81832 333 10320 81820 555 81640 82360
AAXX 20184 67083 41470 10000 10187 20105 38715 48489 53015 71300 81900 333 10278 81917 81917 94964 95814
AAXX 20184 67095 32475 20000 10270 20241 30084 40090 52029 82800 333 10324 81817 555 82633
AAXX 20184 67113 NIL
AAXX 20184 67117 NIL
AAXX 20184 67137 NIL
AAXX 20184 67143 NIL
AAXX 20184 67161 NIL
AAXX 20184 67197 11460 70808 10220 20205 30067 40077 60372 71386 873// 333 10297 82817 82917 85633 94962 95832
AAXX 20181 01321 16/// /2501 11035 21038 39772 40031 53007 69922 333 11011 91104
AAXX 20184 44454 42558 10000 10051 20042 38680 48512 81100 333 59009
AAXX 20184 67009 32580 32806 10260 20231 39980 40098 52018 83800 333 10322 81820 83640
BBXX TBWUK40 20183 99255 10566 41998 00000 10218 20091 40209 54000 702// 80000 22200 20000 305// 40501 5//// 80150
AAXX 20184 71372 16/// /2606 11051 21108 60001 333 11008 21535 70010
AAXX 20181 10578 11/01 92410 11070 21077 38671 48370 53006 69902 74974 333 11070 21089 3/109 49056 55300 20000 30000 96022
AAXX 20181 10224 01370 62805 10057 20047 30039 40045 53016 60042 76086 86800 333 10059 20003 32000 55300 20000 30000 69987 82808 84620
AAXX 20181 08545 31330 80902 10115 20098 30243 40327 52007 72022 888// 333 10130 82707 85710 85630 96010
AAXX 20181 08545 31330 80902 10115 20098 30243 40327 52007 72022 888// 333 10130 82707 85710 85630 96010 555 69905
AAXX 20181 10776 01425 81502 11016 21022 39674 40131 52014 69992 77177 875// 333 11004 21028 3/104 47001 55300 20000 30000 69957 87610
AAXX 20181 10035 01012 80302 10009 20005 39991 40051 53022 69922 76875 877// 333 10014 20007 32000 55300 20000 30000 41148 69917 87701
BBXX A8IZ2 20184 99268 70599 41698 60510 10220 20100 40220 52005 7032/ 8642/ 22214 20301 336// 41210 80150
BBXX A8IZ2 20184 99268 70599 41698 60510 10220 20100 40220 52005 7032/ 8642/ 22214 20301 336// 41210 80150
BBXX DEFY 20183 99128 70614 41598 30520 10281 20224 40126 57022 70200 83138 22242 02275 80240
BBXX DEFY 20183 99128 70614 41598 30520 10281 20224 40126 57022 70200 83138 22242 02275 80240
AAXX 20181 12982 31958 22804 11015 21032 30029 40134 52008 70111 81042 333 10008 42998
AAXX 20184 60421 12562 22412 10045 21009 39185 48516 56003 60002 86200 333 10092 86830 95990
AAXX 20184 71442 16/// /2010 10001 21035 39664 49975 58021 60001 333 10001 21076 70000
AAXX 20184 71442 16/// /2010 10001 21035 39664 49975 58021 60001 333 10001 21076 70000
AAXX 20184 71611 46/// /2508 11056 21128 6///1 333 7////
AAXX 20184 71395 71395 11674 11025 21129 39915 40094 53016 69951 70182 82500 333 10030 21048 70040 90926
AAXX 20181 02947 47484 72102 10003 21006 40082 52018 70070 87/// 91751 333 10018 20001
AAXX 20184 91772 11498 50705 10261 20236 4//// 69911 70228 8487/ 333 5619/ 82816 84640 85362
AAXX 20184 91776 31498 30000 1//// 2//// 4//// 60001 70200 83100 333 562// 83818
AAXX 20184 91779 31498 60000 10237 20233 40115 53011 60001 70201 82101 333 569/9 81816 86079
AAXX 20184 91784 11498 70000 10255 20246 40111 53012 69911 70262 8127/ 333 5699/ 81817 87461
AAXX 20184 91792 31498 70000 10249 20242 40122 53011 60001 70311 8573/ 333 5699/ 81711 85817 86362
AAXX 20181 10836 01/90 92806 11010 21010 39252 40140 52025 60072 77174 333 11009 21042 3/104 47017 55300 20000 30000 60027 89/01 96049
AAXX 20181 10544 01/01 92804 11020 21020 39015 48391 52021 60042 74974 333 11018 21053 3/105 48024 55300 69947 96045 96278 96277 96473 96436
AAXX 20181 10946 07419 82202 11002 21003 39300 40148 51024 60052 77277 333 11002 21065 3/105 4/010 55300 20000 30000 69967 81/11 83/22 88/28
