BBXX ZMFR 20054 99479 31683 43/// /22// 10110 20077 40254 52003 22213 00124
AAXX 20064 40340 32960 01101 10166 20034 40171 52016 333 20155 30013
BBXX 44172 20061 99445 70634 46/// ///// 1//// 90531 22200 00064 10705 20705 311// 41201 70026
BBXX 44097 20061 99410 70711 46/// ///// 1//// 90532 22200 00122 10808 20808 324// 41102 70039
BBXX 46218 20061 99345 71208 46/// ///// 1//// 90532 22200 00138 11407 20804 330// 41405 70033
BBXX WZP8164 20064 99436 70869 43/// /0209 10011 2//// 40237 5//// 7//// 8//// 222// 0//// 2//01 3//// 4//// 5//// 6//// 8//// ICE /////
AAXX 20064 40272 31957 00814 10076 21045 39386 40229 52006 70500 333 20045 30004
AAXX 20064 40255 32960 11304 10132 20014 39495 40211 54003 80001 333 20105 30009 81070
BBXX 42363 20061 99282 70892 46/// /1306 10222 20167 40180 90545 333 91207
BBXX 42364 20061 99291 70881 46/// /1613 10211 20183 40193 90545
BBXX WCX2417 20064 99443 70865 41/98 70615 10005 2//// 40261 5//// 70222 8//// 22283 0//// 2//04 3//// 4//// 5//// 6//// 8//// ICE /////
BBXX V7MO2 20064 99262 70914 41797 41419 10226 20187 40153 57007 70011 84/// 22200 00230 20402 3//// 40702 5//// 6//// 80200 ICE /////
BBXX C6DM2 20064 99080 10987 41999 72273 10320 20253 40080 56010 7//11 8621/ 22200 0//// 2//// 3//// 4//// 5//// 6//// 80270 ICE /////
BBXX DBBU 20061 99542 141/8 46/// /1807 10022 21406 40077 57019 22240 00052
BBXX DBKV 20061 99169 74250 46/// /0706 10219 20160 40145 57014 22250 00235
BBXX DBBT 20061 99382 34098 46/// /2911 10138 20118 40150 52008 22213 00138
AAXX 20064 08495 12580 12405 10083 20044 30268 40276 50000 60002 81500 90550 333 20083 30006 70000 81625
AAXX 20064 61902 32582 21409 10225 20187 40138 82800 333 20225 58001 81822
BBXX 46249 20061 99338 71197 46/// ///// 1//// 90542 22200 00152 11302 20702 327// 41302 70012
BBXX 46248 20061 99461 71247 46/// ///// 1//// 90534 22200 00097 11504 21002 328// 41503 70019
BBXX 46244 20061 99409 71244 46/// ///// 1//// 90535 22200 00097 10907 20906 329// 41304 70035
AAXX 20064 91334 11474 80610 10290 20246 30058 40061 55007 69931 70282 82171 333 56199 70333 555 92006
AAXX 20064 91334 11474 80610 10290 20246 30058 40061 55007 69931 70282 82171 333 56199 70333 555 92006
BBXX 46240 20061 99366 71219 46/// ///// 1//// 90542 22200 00123 11103 21002 335// 41102 70015
BBXX 46237 20061 99378 71226 46/// ///// 1//// 90540 22200 00110 11404 21003 325// 41404 70022
BBXX 46212 20061 99408 71243 46/// ///// 1//// 90542 22200 00097 11407 20805 329// 41404 70033
BBXX 46217 20061 99342 71194 46/// ///// 1//// 90542 22200 00150 11502 20602 327// 41502 70011
BBXX BAREU56 20064 99365 10123 46/// ///// 40185 52009 22232
BBXX 46211 20061 99469 71242 46/// ///// 1//// 90536 22200 00083 11303 21002 328// 41303 70017
BBXX 44098 20061 99428 70702 46/// ///// 1//// 90537 22200 00088 10604 20604 310// 41302 70020
AAXX 20064 40296 32960 00000 10156 20072 40182 57005 333 20150 30010
BBXX BAREU61 20064 99053 70101 46/// /2812 10276 29077 40111 52003 22234
AAXX 20064 16597 11562 52910 10092 20054 30088 40177 53002 60062 72581 84860 333 20066 31006 70098 83825 91121 91529
BBXX 46114 20061 99364 71222 46/// ///// 1//// 90534 22200 00124 11306 21003 330// 41305 70031
BBXX 46060 20061 99606 71468 46/// /1504 10019 40023 53014 90550 22200 00057 333 91205 555 11044 22045 30450 41907 60549 151042 175038 198022 209022 205028 195052 81806 90451
BBXX 41115 20061 99184 70673 46/// ///// 1//// 90535 22200 11103 21002 302// 41101 70013
BBXX 41114 20061 99276 70802 46/// ///// 1//// 90546 22200 00238 10803 20803 306// 41101 70014
BBXX 41012 20061 99300 70805 46/// /1708 10216 40233 58015 90550 22200 00232 10802 20402 306// 40801 70010 333 91211 555 11085 22089 30548 41611 60549 166080 158079 152079 152067 164066 164064
BBXX 44060 20061 99413 70721 46/// ///11 10086 40131 90545 22200 00100 333 91214 555 11129 22134
BBXX 44022 20061 99409 70737 46/// ///08 10083 20009 40149 90545 22200 00081 333 91210 555 11088 22093
BBXX 51203 20061 99208 71570 46/// ///// 1//// 90543 22200 00249 11102 20302 323// 41101 70009
BBXX 52200 20061 99134 11448 46/// ///// 1//// 90545 22200 00288 11005 21005 310// 41101 70025
BBXX 51201 20061 99217 71581 46/// ///// 1//// 90542 22200 00242 11204 20704 334// 41202 70020
BBXX 46088 20061 99483 71232 46/// /1408 10072 40277 55015 90550 22200 00080 10301 20301 70005 333 91209 555 11080 22084 30544 41409 60549 140076 141078 142074 142073 143072 145076
AAXX 20064 08583 31559 70611 10208 20155 40151 70622 84232 333 20206 59005 84622 86070
AAXX 20064 08589 32460 10411 10221 20188 40139 81500 333 20208 59002 81620
AAXX 20064 08594 32460 60510 10210 20173 40142 85501 333 20206 59011 85614 84070
AAXX 20064 68994 12498 2//// 10128 20050 30037 40065 52046 60144 81540 222// 00074 304// 40803 333 20086 555 10129 20142 91006
BBXX VOXS 20064 99467 70480 41196 83537 10025 2002/ 49871 56029 76162 886// 22200 04020 20707 305// 40904 80024
BBXX VOXS 20064 99467 70480 41196 83537 10025 2002/ 49871 56029 76162 886// 22200 04020 20707 305// 40904 80024
BBXX BAREU63 20064 99360 10223 46/// /1410 10155 29057 40124 52001 22262
BBXX TESTFR9 20064 99489 70040 46/// /3318 10113 29075 40215 52024 22244
AAXX 20064 61901 169// /1314 10163 20121 39667 40176 53009 60002 90550 333 20155 3/014 70008 8//99 555 7/090
AAXX 20064 41170 41950 03008 10184 20127 30220 40233 70500 333 20155 59003 555 00140
AAXX 20064 78583 32470 10000 10227 20220 40149 60001 81100 333 00100 59034 81818
BBXX V7NV4 20064 99298 71479 41497 80424 10190 20159 40265 52015 702// 84677 22263 00170 20201 330// 40406 5//// 6//// 80170 ICE /////
BBXX C6TH9 20063 99175 51498 41697 30810 10240 2021/ 40160 50010 70210 82188 22200 00260 20101 3//// 4//// 5//// 6//// 80220 ICE /////
BBXX NWS0022 20064 99416 70714 43/// /2205 10088 20030 40122 5//// 7//// 8//// 222// 04100 2//// 3//// 4//// 5//// 6//// 8//// ICE /////
BBXX WDC6698 20064 99098 71428 43/// /0521 1//// 2//// 40120 5//// 7//// 8//// 222// 04254 2//// 3//// 4//// 5//// 6//// 8//// ICE /////
BBXX LAVW4 20064 99288 70499 41798 32930 00/// 10230 2019/ 40125 54000 70200 83/// 22263 00240 20605 311// 40706 5//// 6////
AAXX 20064 78583 32470 10000 10227 20220 40149 60001 81100 333 00100 59034 81818
BBXX 41060 20061 99148 70510 46/// ///// 1//// 90550 22200 10804 70020
BBXX 41001 20061 99347 70727 46/// ///// 10178 20093 40234 58018 90550 22200 00221 11104 70019
BBXX 41049 20061 99275 70630 46/// /0207 10201 20107 40225 54000 90550 22200 00235 11309 20403 300// 41308 70044 333 91210 555 11078 22081 30453 40111 60549 018073 022052 012071 005077 015074 019087 80209 90451
BBXX 42020 20061 99270 70967 46/// /1708 10239 20204 40110 52008 90550 22200 00236 10805 20604 313// 40804 70027 333 91209 555 11082 22088 30451 41612 60549 172077 170080 169087 167089 166099 166096
BBXX 41044 20061 99217 70587 46/// /0210 10244 20179 40177 56016 90550 22200 00264 10904 20504 300// 40902 70022 333 91211 555 11101 22106 30526 40112 60549 019095 019097 017099 019103 017101 017096 80111 90502
BBXX 41048 20061 99320 70696 46/// /3202 10167 20068 40259 58007 90550 22200 00226 11106 20401 3//// 41106 70032 333 91205 555 11023 22023 30540 43505 60549 320025 313035 319035 343032 326031 323024 80104 90518
BBXX 42065 20061 99149 70750 46/// /0710 10268 20214 90550 22200 10806 20806 70028 333 91213 555 11109 22117 30546 40713 60549 074101 072102 070104 070101 070102 069101 80711 90501
BBXX 42012 20061 99301 70876 46/// /1604 10207 20192 40183 58010 90550 22200 00205 10602 20301 312// 40602 70012 333 91205 555 11047 22051 30511 41407 60549 154045 144057 143061 141062 138059 137057
BBXX 42001 20061 99259 70897 46/// /1510 10248 20193 40172 58010 90550 22200 00259 10602 20602 70010 333 91212 555 11110 22116 30529 41412 60549 151103 145101 146098 151100 152099 150097
BBXX 42035 20061 99292 70944 46/// /1508 10193 20192 40128 54000 90550 22200 00168 10703 20703 70016 333 91209 555 11083 22094 30450 41410 60549 147075 145077 145078 146076 144077 144081
BBXX 42058 20061 99149 70749 46/// /0814 10272 20207 40128 58008 90550 22200 00276 10807 20806 306// 41402 70033 333 91216 555 11146 22156 30548 40816 60549 079136 077137 082135 081136 078132 073122 80715 90537
BBXX 42060 20061 99163 70635 46/// /0409 10262 20188 40160 58013 90550 22200 00277 10503 20503 300// 41001 70017 333 91210 555 11093 22098 30527 40311 60549 040088 041084 042086 042087 042085 042086 80410 90454
BBXX 42036 20061 99285 70845 46/// /1312 10206 20158 40201 58018 90550 22200 00212 10602 20602 70012 333 91214 555 11126 22134 30450 41314 60549 129118 127110 126106 124107 126104 123098
BBXX 42056 20061 99198 70849 46/// /1111 10263 20238 40155 58009 90550 22200 00271 10805 20805 70025 333 91214 555 11121 22128 30525 41015 60549 108113 105114 103120 102117 139056 192075 81013 90525
BBXX 42059 20061 99151 70675 46/// /0710 10272 20195 40151 58009 90550 22200 00277 10705 20705 3//// 41101 70026 333 91213 555 11109 22116 30536 40713 60549 074101 072109 072105 072104 072102 070102 80812 90537
BBXX 42019 20061 99279 70954 46/// /1708 10236 20210 40114 57003 90550 22200 10805 20604 316// 40804 70027 333 91210 555 11082 22088 30451 42911 60549 186076 282079 281081 281084 282093 277093
BBXX 44005 20061 99432 70691 46/// /2612 10080 20026 40070 56006 90550 22200 00086 10806 20805 3//// 41302 70029 333 91216 555 11133 22141 30509 42617 60549 257124 255130 255127 255134 256135 257133
BBXX 42040 20061 99292 70882 46/// /1609 10203 40181 57011 90550 22200 00226 10602 20602 70010 333 91212 555 11091 22096 30523 41814 60549 160092 166097 166108 159082 157073 153071
BBXX 42003 20061 99260 70856 46/// /1211 1//// 90550 22200 10805 20805 70024 333 91213 555 11114 22121 30523 41213 60549 121103 118104 117106 118096 116096 117100 81211 90523
BBXX A8PF5 20064 99073 30094 41398 62417 10250 20204 40125 53018 70211 8587/ 22244 20301 323// 40401 5//// 80220
BBXX BAREU61 20064 99053 70101 46/// /2812 10276 29077 40111 52003 22234
BBXX SHIP 20064 99061 11076 41396 83422 10270 20241 40080 51015 76060 8/770 22213 04245 20607 3//// 4//// 80250
BBXX DGHX 20063 99333 11680 41297 82835 10190 20159 40085 54000 76586 887// 22264 00190 20208 327// 40408 80170
BBXX S6JU 20064 99461 11766 41697 62713 10035 21020 40115 51010 70312 864// 22224 04050 2//// 3//// 4//// 5//// 6//// 80015
BBXX WAHV 20064 99188 10716 41997 20517 10270 2021/ 40140 50012 7//00 80009 22224 00277 20402 3//// 4//// 5//// 6//// 80230 ICE /////
BBXX 4XIS 20063 99364 11689 43/96 83230 10120 2010/ 40070 51030 22224 80110
BBXX LAIG7 20064 99378 11621 41797 63013 10100 2006/ 40110 53010 75055 86367 22233 00171 20302 334// 41206 5//// 6//// 80080 ICE /////
BBXX WDB3161 20064 99428 11493 41497 73230 11010 2104/ 40112 52005 77277 877// 22253 00052 20802 307// 41004 5//// 6//// 81020 ICE /////
BBXX MZDL7 20063 99081 51056 41/98 /1516 10220 20190 40142 53014 70222 8//// 22243 00250 2//// 3//// 4//// 5//// 80201
BBXX VOXS 20064 99467 70480 41196 83537 10025 2002/ 49871 56029 76162 886// 22200 04020 20707 305// 40904 80024
BBXX 46088 20061 99483 71232 46/// /1408 10072 40277 55015 90550 22200 00080 10301 20301 70005 333 91209 555 11080 22084 30544 41409 60549 140076 141078 142074 142073 143072 145076
BBXX 44060 20061 99413 70721 46/// ///11 10086 40131 90545 22200 00100 333 91214 555 11129 22134
BBXX 44022 20061 99409 70737 46/// ///08 10083 20009 40149 90545 22200 00081 333 91210 555 11088 22093
BBXX 3FSB4 20064 99276 71191 436// 53209 10160 2014/ 40190 54000 7//// 85//2 22234 0//// 20501 3//// 40402 5//// 6//// 80150 ICE /////
BBXX WGAX 20064 99351 70469 41798 32624 10175 2014/ 40035 52031 7//11 831// 22263 00212 2//// 3//// 4//// 5//// 6//// 80155 ICE /////
BBXX WJBU 20064 99574 71469 41198 /1824 10022 2001/ 40083 5//// 70222 8/1// 22253 0//// 20604 3//// 4//// 5//// 6//// 80017 ICE /////
BBXX C6LU3 20063 99396 70629 41/98 /2922 10120 2008/ 40170 57040 70211 8//// 22225 20505 307// 40706 80100
BBXX C6OT4 20064 99181 71514 41397 80925 10228 20208 40158 52020 72522 887// 22222 04242 20907 306// 41006 5//// 80215
BBXX A8OU4 20064 99330 71302 41297 63606 10140 20080 40270 54000 7//22 86772 22234 00180 21006 333// 40606 5//// 80110
BBXX 46060 20061 99606 71468 46/// /1504 10019 40023 53014 90550 22200 00057 333 91205 555 11044 22045 30450 41907 60549 151042 175038 198022 209022 205028 195052 81806 90451
BBXX 41115 20061 99184 70673 46/// ///// 1//// 90535 22200 11103 21002 302// 41101 70013
BBXX 46114 20061 99364 71222 46/// ///// 1//// 90534 22200 00124 11306 21003 330// 41305 70031
BBXX 41114 20061 99276 70802 46/// ///// 1//// 90546 22200 00238 10803 20803 306// 41101 70014
BBXX 41012 20061 99300 70805 46/// /1708 10216 40233 58015 90550 22200 00232 10802 20402 306// 40801 70010 333 91211 555 11085 22089 30548 41611 60549 166080 158079 152079 152067 164066 164064
BBXX WDE9586 20063 99403 71472 43/// /1819 10155 2013/ 40270 54000 7//// 8//// 22214 00150 2//// 3//// 4//// 5//// 6//// 80140 ICE /////
BBXX ZCDF4 20063 99321 71175 41/98 72806 10126 20111 40177 55001 70222 86/// 22284 00150 20000 333// 40803 5//// 80118
BBXX 2AKI3 20064 99288 70951 41/97 /3020 10200 20192 40124 54000 72181 8//// 22200 04164 29904 300// 4//// 5//// 80195
BBXX KGTY 20064 99518 71391 43898 42722 10050 2002/ 40190 5//// 7//// 824// 22234 00050 21007 32225 41209 51412 6//// 80039 ICE /////
BBXX 44098 20061 99428 70702 46/// ///// 1//// 90537 22200 00088 10604 20604 310// 41302 70020
BBXX 46211 20061 99469 71242 46/// ///// 1//// 90536 22200 00083 11303 21002 328// 41303 70017
BBXX 46217 20061 99342 71194 46/// ///// 1//// 90542 22200 00150 11502 20602 327// 41502 70011
BBXX 46240 20061 99366 71219 46/// ///// 1//// 90542 22200 00123 11103 21002 335// 41102 70015
BBXX 46212 20061 99408 71243 46/// ///// 1//// 90542 22200 00097 11407 20805 329// 41404 70033
BBXX 46237 20061 99378 71226 46/// ///// 1//// 90540 22200 00110 11404 21003 325// 41404 70022
BBXX 46248 20061 99461 71247 46/// ///// 1//// 90534 22200 00097 11504 21002 328// 41503 70019
BBXX 46244 20061 99409 71244 46/// ///// 1//// 90535 22200 00097 10907 20906 329// 41304 70035
BBXX 46249 20061 99338 71197 46/// ///// 1//// 90542 22200 00152 11302 20702 327// 41302 70012
BBXX LAOX5 20061 99391 71500 41598 82018 00/// 10170 2012/ 40240 52020 70222 88/// 22213 00200 20503 331// 41005 5//// 6//// 80140
BBXX DMDZ 20063 99221 70505 41/98 /3008 10232 20197 40175 54000 70200 8//// 22263 00260 2//// 3//// 4//// 5//// 80208
BBXX HO7723 20064 99261 70784 41797 41013 10210 2018/ 40225 54000 70200 84/85 22273 00270 20202 31011 40303 50202 6//// 80190 ICE /////
BBXX V7NV4 20064 99298 71479 41497 80424 10190 20159 40265 52015 702// 84677 22263 00170 20201 330// 40406 5//// 6//// 80170 ICE /////
BBXX 42363 20061 99282 70892 46/// /1306 10222 20167 40180 90545 333 91207
BBXX 42364 20061 99291 70881 46/// /1613 10211 20183 40193 90545
BBXX WDC6907 20064 99497 70117 41/// /3213 10107 2010/ 40238 54000 700// 8//// 22223 00130 2//// 3//// 4//// 5//// 6//// 80102 ICE /////
BBXX SHIP 20063 99405 10270 41397 80204 10130 2009/ 40110 56005 76066 8862/ 22200 00120 2//// 3//// 4//// 5//// 6//// 80110 ICE /////
BBXX DBBU 20061 99542 141/8 46/// /1807 10022 21406 40077 57019 22240 00052
BBXX WCX2417 20064 99443 70865 41/98 70615 10005 2//// 40261 5//// 70222 8//// 22283 0//// 2//04 3//// 4//// 5//// 6//// 8//// ICE /////
BBXX 44025 20061 99402 70732 46/// /2612 10102 20036 40147 57007 90550 22200 00113 10705 20705 312// 41101 70024 333 91214 555 11125 22133 30451 42415 60549 264116 260116 255122 253117 252121 250127
BBXX 41008 20061 99314 70809 46/// /1402 10171 20162 40241 58014 90550 22200 00162 11002 20401 300// 41001 70008 333 91202 555 11018 22022 30454 41702 60549 139014 159013 164012 173012 171014 175018
BBXX 41004 20061 99325 70791 46/// /2007 10201 20123 40243 58016 90550 22200 00206 10902 20402 3//// 40901 70011 333 91208 555 11071 22075 30528 42010 60549 197068 198071 199072 196072 194077 197074
BBXX 44009 20061 99385 70747 46/// /2409 10112 40186 56016 90550 22200 00114 10603 20603 300// 41001 70015 333 91211 555 11098 22105 30503 42413 60549 236092 241099 240100 242105 243108 239110
BBXX 44014 20061 99366 70748 46/// /2411 1//// 40207 56012 90550 22200 00146 10604 20603 308// 41102 70018 333 91214 555 11113 22113 30532 42414 60549 243112 239112 238110 240114 236111 237111
BBXX 44027 20061 99443 70673 46/// /2612 10072 20020 40046 56008 90550 22200 00085 11007 21007 3//// 41302 70037 333 91214 555 11124 22131 30524 42616 60549 264118 263114 260125 261117 259112 259111
BBXX 44065 20061 99404 70737 46/// /2607 10087 20027 40153 58003 90550 22200 00094 10603 20603 317// 40702 70015 333 91208 555 11076 22081 30529 42510 60549 256072 253080 254081 254083 254081 251080 82509 90519
BBXX 41013 20061 99334 70777 46/// /2108 10193 20123 40238 58018 90550 22200 00196 10402 20401 312// 41001 70008 333 91211 555 11081 22086 30545 42111 60549 214076 211074 208068 214070 219068 216070
BBXX 44040 20061 99410 70736 46/// /2608 10086 20020 40154 90545 22200 10301 70004 333 91210 555 11098 22118
BBXX 44020 20061 99414 70702 46/// /2511 10088 20035 40114 56005 90550 22200 00077 10402 20402 70011 333 91213 555 11115 22122 30452 42515 60549 252106 257108 257110 257116 257113 257122
BBXX 32012 20061 99197 50856 46/// ///// 1//// 90550 22200 11507 70035
BBXX 46006 20061 99408 71375 46/// /2003 10118 40348 51006 90550 22200 00125 11506 3//// 41506 70032 333 91204 555 11032 22033 30541 42004 60549 201031 195029 194030 195028 200030 204027
BBXX 46002 20061 99426 71305 46/// ///// 10111 40330 52003 90550 22200 00121 11406 70028
BBXX 46084 20061 99566 71361 46/// /3011 10062 20023 40035 53065 90550 22200 00072 11108 20804 300// 41107 70040 333 91213 555 11116 22123 30458 43014 60549 297110 301109 305107 309109 309113 305113
BBXX 46078 20061 99561 71526 46/// /2409 10045 20000 40077 52035 90550 333 91212 555 11101 22107
BBXX 46075 20061 99539 71608 46/// /1714 10027 20019 40008 58029 90550 22200 00047 11107 20605 300// 41105 70036 333 91217 555 11152 22161 30520 41918 60549 166142 174138 179143 178136 177130 175117 81816 90520
BBXX 46005 20061 99461 71310 46/// ///08 10103 40293 51004 90550 22200 00100 11608 20603 3//// 41607 70040 333 91209 555 11086 22092
BBXX 46059 20061 99380 71300 46/// /0112 10114 40294 51005 90550 22200 00145 11308 20605 3//// 41306 70040 333 91214 555 11128 22135 30452 40215 60549 013120 009113 010123 006117 010121 013126
BBXX 46080 20061 99580 71500 46/// /2410 10043 21001 40044 52033 90550 22200 00051 11107 20705 3//// 41105 70036 333 91213 555 11107 22113 30503 42413 60549 240101 242099 247102 246100 239102 240100 82511 90509
BBXX 46105 20061 99590 71522 46/// ///// 1//// 90550 22200 10906 70029
BBXX 46070 20061 99551 11753 46/// /3302 11012 21058 49914 51014 90550 22200 00037 11106 20401 3//// 41106 70031 333 91202 555 11015 22016 30450 40305 60549 331015 007021 008022 019027 030026 035025 80303 90451
BBXX 46078 20061 99561 71526 46/// /2409 10045 20000 40077 52035 90550 333 91212 555 11101 22107
BBXX 42055 20061 99222 70940 46/// /1309 10245 20195 40125 58007 90550 22200 00252 10603 20603 70014 333 91210 555 11091 22096 30537 41311 60549 126084 128088 126085 128083 127081 125082 81310 90537
BBXX 41047 20061 99275 70715 46/// /0805 10205 40253 58011 90550 22200 00249 11106 20401 301// 41106 70029 333 91207 555 11047 22048 30528 40608 60549 075048 077051 059048 063040 066041 066044 80607 90528
BBXX 42002 20061 99258 70937 46/// /1511 10243 20207 40138 58003 90550 22200 00240 10704 20704 70020 333 91214 555 11113 22121 30523 41514 60549 146114 146103 144111 146107 140109 138113
BBXX 41043 20061 99211 70650 46/// /0609 10235 20195 40195 57007 90550 22200 00263 10906 20704 300// 40904 70031 333 91213 555 11097 22102 30542 40613 60549 058091 058078 059090 053103 049102 048099 80511 90503
BBXX 41036 20061 99342 70770 46/// ///// 10173 20109 40239 56014 90550 22200 00177 11002 70010
BBXX 44066 20061 99396 70726 46/// /2612 10124 20060 40152 57016 90550 22200 00128 10806 20806 3//// 41102 70031 333 91215 555 11125 22133 30510 42515 60549 256117 254116 252118 251129 253128 253120
BBXX 46014 20061 99394 71240 46/// /3605 10107 40196 51013 90550 22200 00106 11506 20402 3//// 41506 70032 333 91206 555 11055 22058 30454 40107 60549 358049 359052 007055 006052 007055 008059
BBXX 46011 20061 99350 71210 46/// /3406 10126 40187 51012 90550 22200 00137 11406 20401 330// 41406 70030 333 91207 555 11061 22064 30452 43409 60549 341058 345066 344067 348068 349068 347069
BBXX 46047 20061 99324 71195 46/// /3602 10124 40169 52003 90550 22200 00136 11505 20401 329// 41505 70024 333 91202 555 11016 22017 30539 43603 60549 002016 008019 358016 347021 352022 323015
BBXX 46086 20061 99325 71180 46/// /1403 10132 40168 54000 90550 22200 00150 11603 20401 327// 41603 70015 333 91204 555 11031 22032 30455 41404 60549 144030 145031 142028 160022 146026 138030
BBXX 46027 20061 99419 71244 46/// /3511 10090 40229 54000 90550 22200 00091 10806 20805 329// 41504 70031 333 91214 555 11119 22127 30540 43514 60549 351113 348113 348105 347106 350100 348097
BBXX 46050 20061 99442 71246 46/// /0107 10084 40301 56005 90550 22200 00097 11404 20401 328// 41404 70021 333 91208 555 11069 22072 30533 40108 60549 008065 006071 010068 012063 011063 012063
BBXX 46088 20061 99483 71232 46/// /1408 10072 40277 90550 22200 00080 10301 20301 70005 333 91209 555 11080 22084 30544 41409 60549 140076 141078 142074 142073 143072 145076
BBXX 46069 20061 99337 71202 46/// /0305 10132 40175 52011 90550 22200 00141 11405 20401 330// 41405 70026 333 91205 555 11047 22049 30537 40405 60549 025045 036042 049037 038041 041038 044035
BBXX 46012 20061 99374 71229 46/// /3004 10115 40193 51009 90550 22200 00123 11406 20401 330// 41406 70031 333 91205 555 11037 22038 30522 43005 60549 294035 293034 298031 294028 296032 302032
BBXX 46013 20061 99382 71233 46/// /2601 10107 40188 51009 90550 22200 00107 11406 20401 3//// 41406 70031 333 91202 555 11008 22009 30549 43003 60549 259008 249010 273013 298013 324014 333013
BBXX 46087 20061 99485 71247 46/// /1806 10082 20072 40286 58003 90550 22200 00077 11404 20501 327// 41404 70021 333 91207 555 11061 22066 30539 41807 60549 179057 174054 169048 164044 159037 138020
BBXX 46029 20061 99461 71245 46/// /1602 10071 20064 40303 57003 90550 22200 00077 11504 20401 329// 41504 70019 333 91202 555 11021 22021 30450 41503 60549 160020 159017 166013 173013 175010 171011
BBXX 46054 20061 99342 71204 46/// /0104 10130 40181 51013 90550 22200 00137 11505 20301 300// 41505 70027 333 91204 555 11037 22038 30534 43505 60549 004035 359038 005036 018031 023029 027031
BBXX 46028 20061 99357 71219 46/// /3203 10120 40186 51007 90550 22200 00127 11106 20401 332// 41106 70030 333 91204 555 11032 22033 30518 43205 60549 318031 318034 319036 318037 317035 315034
BBXX 46025 20061 99337 71191 46/// /1203 10139 20105 40165 52005 90550 22200 00153 11302 20401 324// 41302 70009 333 91204 555 11030 22031 30452 41105 60549 123029 112026 116028 122030 108026 107034
AAXX 20061 76040 32902 11401 10110 20081 30157 40171 52003 81004 90542 333 10128 20080 30/// 55075 59007 98602
AAXX 20061 76225 32920 00000 10040 21088 38608 40122 52017 90540 333 10158 20040 30/// 55093 58///
AAXX 20061 76323 32910 00000 10062 21118 38257 40135 52050 90540 333 10220 30/// 58001
AAXX 20061 76342 32940 01501 10125 20099 39463 40163 52011 90550 333 10240 20102 30/// 55085 20606 59022
AAXX 20061 76373 32910 00000 10040 21065 38196 40139 52015 90550 333 10220 20080 30/// 55098 21772 58015
AAXX 20061 76382 32960 03401 10140 20052 38867 40079 52012 90550 333 10282 20140 30/// 55077 2//// 58001
AAXX 20061 76458 32960 03103 10161 20122 30132 40137 50000 90540 333 10236 20125 30/// 55098 59028
AAXX 20061 76525 32960 02010 10086 20024 37454 40101 55000 90540 333 10160 20071 30/// 55094 22593 59026
AAXX 20061 76548 32460 31302 10214 20202 30112 40122 50000 81130 90535 333 10282 20172 30/// 55076 56340 59096 81810
AAXX 20061 76556 32960 00701 10141 20118 39099 40105 52001 90535 333 10256 20118 30/// 55094 59039
AAXX 20061 76577 32560 10502 10142 20121 38036 40098 52008 81400 90540 333 10227 20096 30/// 55060 56500 59023 81624
AAXX 20061 76581 32960 00502 10149 20130 39017 40096 52010 90550 333 10280 20123 30/// 55070 59073
AAXX 20061 76632 31850 40503 10106 20051 37630 40075 52006 70511 84020 90540 333 10205 30/// 55/// 56050 59021 84458
AAXX 20061 76644 32350 11203 10224 20204 30148 40160 52006 81200 90550 333 10314 20196 30/// 55090 21392 561// 59047 81810
AAXX 20061 76654 31956 03601 10237 20213 30141 40145 52010 70544 90550 333 10302 20217 30/// 55068 20781 58000
AAXX 20061 76658 31758 11401 10211 20188 39632 40130 52005 70540 81040 90549 333 10325 20172 30/// 55092 56010 58/// 81356 98914
AAXX 20061 76662 32960 00501 10140 20073 38460 40104 52008 90545 333 10272 20115 30/// 55093 21044 59015
AAXX 20061 76665 32958 01702 10130 20085 38113 40091 52002 90550 333 10268 20075 30/// 55078 28482 59022
AAXX 20061 76680 31962 01802 10134 20058 37747 40094 52005 70500 90550 333 10238 20078 30/// 55097 21092 5////
AAXX 20061 76683 31960 00000 10076 20040 37826 40138 51005 70544 90540 333 10221 20018 31019 50291 55097 21914 59028 90078 90093 90096 98260 98942
AAXX 20061 76685 32950 00000 10106 21026 37864 40100 52005 90545 333 10222 20038 30/// 55105 59033
AAXX 20061 76695 32956 01001 10206 20191 30132 40138 58002 90545 333 10316 20163 30/// 55094 59048
AAXX 20061 76750 32558 43602 10235 20217 30141 40151 57006 82130 90550 333 10310 20190 30/// 55065 56220 59039 81820
AAXX 20061 76762 31902 01201 10176 20155 38760 40107 51005 74144 90536 333 10303 20130 30/// 55093 21152 59023
AAXX 20061 76805 32960 20201 10238 20232 30131 40134 51007 80001 90550 333 10315 20228 30/// 55095 20786 56//1 59005 82059
AAXX 20061 76845 32930 00000 10076 37954 40158 51001 90535 333 10220 20030 30/// 55096 59019
AAXX 20061 76311 32920 00000 10090 39862 40139 52007 90548 333 10248 30/// 55074 59036
AAXX 20061 76412 32960 00000 10108 20078 30097 40143 52002 90545 333 10242 20108 30/// 55094 59058
BBXX WSM5364 20060 99583 71358 41/97 83115 10022 2//// 4//// 5//// 702// 8//// 222// 0//// 2//01 3//// 4//// 6////
AAXX 20064 68906 12698 42210 10102 20071 30065 40130 53007 60044 84502 222// 00119 333 20102 91019 555 10171 20042 91012
AAXX 20061 76040 32902 11401 10110 20081 30157 40171 52003 81004 90542 333 10128 20080 30/// 55075 59007 98602
AAXX 20061 76225 32920 00000 10040 21088 38608 40122 52017 90540 333 10158 20040 30/// 55093 58///
AAXX 20061 76323 32910 00000 10062 21118 38257 40135 52050 90540 333 10220 30/// 58001
AAXX 20061 76342 32940 01501 10125 20099 39463 40163 52011 90550 333 10240 20102 30/// 55085 20606 59022
AAXX 20061 76373 32910 00000 10040 21065 38196 40139 52015 90550 333 10220 20080 30/// 55098 21772 58015
AAXX 20061 76382 32960 03401 10140 20052 38867 40079 52012 90550 333 10282 20140 30/// 55077 2//// 58001
AAXX 20061 76458 32960 03103 10161 20122 30132 40137 50000 90540 333 10236 20125 30/// 55098 59028
AAXX 20061 76525 32960 02010 10086 20024 37454 40101 55000 90540 333 10160 20071 30/// 55094 22593 59026
AAXX 20061 76548 32460 31302 10214 20202 30112 40122 50000 81130 90535 333 10282 20172 30/// 55076 56340 59096 81810
AAXX 20061 76556 32960 00701 10141 20118 39099 40105 52001 90535 333 10256 20118 30/// 55094 59039
AAXX 20061 76577 32560 10502 10142 20121 38036 40098 52008 81400 90540 333 10227 20096 30/// 55060 56500 59023 81624
AAXX 20061 76581 32960 00502 10149 20130 39017 40096 52010 90550 333 10280 20123 30/// 55070 59073
AAXX 20061 76632 31850 40503 10106 20051 37630 40075 52006 70511 84020 90540 333 10205 30/// 55/// 56050 59021 84458
AAXX 20061 76644 32350 11203 10224 20204 30148 40160 52006 81200 90550 333 10314 20196 30/// 55090 21392 561// 59047 81810
AAXX 20061 76654 31956 03601 10237 20213 30141 40145 52010 70544 90550 333 10302 20217 30/// 55068 20781 58000
AAXX 20061 76658 31758 11401 10211 20188 39632 40130 52005 70540 81040 90549 333 10325 20172 30/// 55092 56010 58/// 81356 98914
AAXX 20061 76662 32960 00501 10140 20073 38460 40104 52008 90545 333 10272 20115 30/// 55093 21044 59015
AAXX 20061 76665 32958 01702 10130 20085 38113 40091 52002 90550 333 10268 20075 30/// 55078 28482 59022
AAXX 20061 76680 31962 01802 10134 20058 37747 40094 52005 70500 90550 333 10238 20078 30/// 55097 21092 5////
AAXX 20061 76683 31960 00000 10076 20040 37826 40138 51005 70544 90540 333 10221 20018 31019 50291 55097 21914 59028 90078 90093 90096 98260 98942
AAXX 20061 76685 32950 00000 10106 21026 37864 40100 52005 90545 333 10222 20038 30/// 55105 59033
AAXX 20061 76695 32956 01001 10206 20191 30132 40138 58002 90545 333 10316 20163 30/// 55094 59048
AAXX 20061 76750 32558 43602 10235 20217 30141 40151 57006 82130 90550 333 10310 20190 30/// 55065 56220 59039 81820
AAXX 20061 76762 31902 01201 10176 20155 38760 40107 51005 74144 90536 333 10303 20130 30/// 55093 21152 59023
AAXX 20061 76805 32960 20201 10238 20232 30131 40134 51007 80001 90550 333 10315 20228 30/// 55095 20786 56//1 59005 82059
AAXX 20061 76845 32930 00000 10076 37954 40158 51001 90535 333 10220 20030 30/// 55096 59019
AAXX 20061 76311 32920 00000 10090 39862 40139 52007 90548 333 10248 30/// 55074 59036
AAXX 20061 76412 32960 00000 10108 20078 30097 40143 52002 90545 333 10242 20108 30/// 55094 59058
AAXX 20061 76040 32902 11401 10110 20081 30157 40171 52003 81004 90542333 10128 20080 30/// 55075 59007 98602
AAXX 20061 76225 32920 00000 10040 21088 38608 40122 52017 90540 33310158 20040 30/// 55093 58///
AAXX 20061 76323 32910 00000 10062 21118 38257 40135 52050 90540 33310220 30/// 58001
AAXX 20061 76342 32940 01501 10125 20099 39463 40163 52011 90550 33310240 20102 30/// 55085 20606 59022
AAXX 20061 76373 32910 00000 10040 21065 38196 40139 52015 90550 33310220 20080 30/// 55098 21772 58015
AAXX 20061 76382 32960 03401 10140 20052 38867 40079 52012 90550 33310282 20140 30/// 55077 2//// 58001
AAXX 20061 76458 32960 03103 10161 20122 30132 40137 50000 90540 33310236 20125 30/// 55098 59028
AAXX 20061 76525 32960 02010 10086 20024 37454 40101 55000 90540 33310160 20071 30/// 55094 22593 59026
AAXX 20061 76548 32460 31302 10214 20202 30112 40122 50000 81130 90535333 10282 20172 30/// 55076 56340 59096 81810
AAXX 20061 76556 32960 00701 10141 20118 39099 40105 52001 90535 33310256 20118 30/// 55094 59039
AAXX 20061 76577 32560 10502 10142 20121 38036 40098 52008 81400 90540333 10227 20096 30/// 55060 56500 59023 81624
AAXX 20061 76581 32960 00502 10149 20130 39017 40096 52010 90550 33310280 20123 30/// 55070 59073
AAXX 20061 76632 31850 40503 10106 20051 37630 40075 52006 70511 8402090540 333 10205 30/// 55/// 56050 59021 84458
AAXX 20061 76644 32350 11203 10224 20204 30148 40160 52006 81200 90550333 10314 20196 30/// 55090 21392 561// 59047 81810
AAXX 20061 76654 31956 03601 10237 20213 30141 40145 52010 70544 90550333 10302 20217 30/// 55068 20781 58000
AAXX 20061 76658 31758 11401 10211 20188 39632 40130 52005 70540 8104090549 333 10325 20172 30/// 55092 56010 58/// 81356 98914
AAXX 20061 76662 32960 00501 10140 20073 38460 40104 52008 90545 33310272 20115 30/// 55093 21044 59015
AAXX 20061 76665 32958 01702 10130 20085 38113 40091 52002 90550 33310268 20075 30/// 55078 28482 59022
AAXX 20061 76680 31962 01802 10134 20058 37747 40094 52005 70500 90550333 10238 20078 30/// 55097 21092 5////
AAXX 20061 76683 31960 00000 10076 20040 37826 40138 51005 70544 90540333 10221 20018 31019 50291 55097 21914 59028 90078 9009390096 98260 98942
AAXX 20061 76685 32950 00000 10106 21026 37864 40100 52005 90545 33310222 20038 30/// 55105 59033
AAXX 20061 76695 32956 01001 10206 20191 30132 40138 58002 90545 33310316 20163 30/// 55094 59048
AAXX 20061 76750 32558 43602 10235 20217 30141 40151 57006 82130 90550333 10310 20190 30/// 55065 56220 59039 81820
AAXX 20061 76762 31902 01201 10176 20155 38760 40107 51005 74144 90536333 10303 20130 30/// 55093 21152 59023
AAXX 20061 76805 32960 20201 10238 20232 30131 40134 51007 80001 90550333 10315 20228 30/// 55095 20786 56//1 59005 82059
AAXX 20061 76845 32930 00000 10076 37954 40158 51001 90535 333 1022020030 30/// 55096 59019
AAXX 20061 76311 32920 00000 10090 39862 40139 52007 90548 333 1024830/// 55074 59036
AAXX 20061 76412 32960 00000 10108 20078 30097 40143 52002 90545 33310242 20108 30/// 55094 59058
BBXX 46002 20061 99426 71305 46/// ///// 10111 40330 52003 90550 22200 00121 11406 70028
BBXX 46005 20061 99461 71310 46/// ///08 10103 40293 51004 90550 22200 00100 11608 20603 3//// 41607 70040 333 91209 555 11086 22092
BBXX 46012 20061 99374 71229 46/// /3004 10115 40193 51009 90550 22200 00123 11406 20401 330// 41406 70031 333 91205 555 11037 22038 30522 43005 60549 294035 293034 298031 294028 296032 302032
BBXX 46013 20061 99382 71233 46/// /2601 10107 40188 51009 90550 22200 00107 11406 20401 3//// 41406 70031 333 91202 555 11008 22009 30549 43003 60549 259008 249010 273013 298013 324014 333013
BBXX 46014 20061 99394 71240 46/// /3605 10107 40196 51013 90550 22200 00106 11506 20402 3//// 41506 70032 333 91206 555 11055 22058 30454 40107 60549 358049 359052 007055 006052 007055 008059
BBXX 46028 20061 99357 71219 46/// /3203 10120 40186 51007 90550 22200 00127 11106 20401 332// 41106 70030 333 91204 555 11032 22033 30518 43205 60549 318031 318034 319036 318037 317035 315034
BBXX 46029 20061 99461 71245 46/// /1602 10071 20064 40303 57003 90550 22200 00077 11504 20401 329// 41504 70019 333 91202 555 11021 22021 30450 41503 60549 160020 159017 166013 173013 175010 171011
BBXX 46054 20061 99342 71204 46/// /0104 10130 40181 51013 90550 22200 00137 11505 20301 300// 41505 70027 333 91204 555 11037 22038 30534 43505 60549 004035 359038 005036 018031 023029 027031
BBXX A8OU4 20064 99330 71302 41297 63606 10140 20080 40270 54000 7//22 86772 22234 00180 21006 333 // 40606 5//// 80110
BBXX LAOX5 20061 99391 71500 41598 82018 00/// 10170 20120 40240 52020 70222 88/// 22213 00200 20503 331// 41005 5//// 6//// 80140
BBXX WDE9586 20063 99403 71472 43/// /1819 10155 20130 40270 54000 7//// 8//// 22214 00150 2//// 3//// 4//// 5//// 6//// 80140 ICE /////
AAXX 20064 91376 32474 80813 10283 20213 30066 40069 53012 84808 333 562/9 70000 555 92006
AAXX 20064 78705 31562 30000 10212 20200 30134 40152 58009 70544 81530 333 10265 20204 30/// 56000 59026 81626 83358
AAXX 20064 78708 31562 20000 10207 20207 30125 40156 58005 70544 81530 333 10275 20203 30/// 56000 59029 81620
AAXX 20064 78714 32560 80000 10193 20180 8422/ 333 10282 20193 30/// 56299 84826 88457
AAXX 20064 78717 31560 30000 10164 20164 38965 40157 55005 71044 83100 333 10200 20142 30/// 56100 59025 83825
AAXX 20064 78720 31560 30000 10175 20162 39049 40155 58003 70544 83500 333 10251 20181 30/// 56800 59009 83624
AAXX 20064 78724 32578 20314 10248 20199 30070 40127 54000 82500 333 10326 20248 30/// 56100 59006 82630
AAXX 20064 81405 04573 60000 10232 20229 30096 40105 60001 700// 333 3/021 55091 60007 59002 70000 555 60005
AAXX 20064 81405 04573 60000 10232 20229 30096 40105 60001 700// 333 3/021 55091 60007 59002 70000 555 60005
BBXX BAREU05 20064 99494 70650 46/// ///// 49970 57024 22264
AAXX 20064 85574 12960 01404 10174 20033 39578 40126 58008 60001
AAXX 20064 85577 12965 00000 10168 20034 39530 40134 58010 60001
AAXX 20064 85682 12465 41501 10141 20128 40154 58010 60001 84500 333 56400 84615
AAXX 20064 85743 12560 80000 10146 20116 40152 58006 60001 885// 333 56600 88620
AAXX 20064 85799 11557 83504 10122 20117 40129 57003 69901 76022 885// 333 56899 88620
BBXX BAREU04 20064 99533 70358 46/// ///// 49991 57012 22263
BBXX BAREU11 20064 99237 70628 46/// ///// 40200 57007 22214
BBXX 61001 20064 99434 10078 46/// /2208 10101 20000 40160 5//// 22200 00146 10502 70009
BBXX DBND 20061 99/// ///// 46/// +//// 1/006 2000/ 40026 57026 22220 0005/
BBXX DBEA 20061 99540 10083 46/// /1714 10014 20006 40020 57027 22261 00056
BBXX DBBC 20061 99539 10091 46/// /1609 10007 2//// 40040 57026 22220 00043
BBXX DBFH 20061 99535 14086 46/// /1706 10007 20401 400/5 57026 22210 00045
BBXX BAREU51 20064 99393 10124 46/// ///// 40137 57008 22275
BBXX DBJM 20061 99540 10085 46/// /1612 10009 20401 40024 57/36 22240 000/9
BBXX BAREU08 20064 99491 70061 46/// ///// 40199 57009 22214
AAXX 20064 91376 32474 80813 10283 20213 30066 40069 53012 84808 333 562/9 70000 555 92006
BBXX DBFR 20061 99541 10078 46/// /1814 10012 20011 40008 57028 22251 00073
BBXX DBKR 20061 99541 10121 46/// /1703 10003 21017 40079 57017 22200 00051
AAXX 20061 13586 11420 80000 10016 20011 39808 40104 55002 69932 72062 8672/ 333 20012 31/// 82713 86640 88458
BBXX 41101 20064 99146 70562 46/// /0417 10261 20225 40124 57018 22200 00271 10804 70020
BBXX DBCK 20061 99/// ///// 46/// ///// 10008 20007 40023 57028 22220 00040
AAXX 20064 85406 12570 83402 10202 20146 40131 58019 60001 885// 333 56099 88626
AAXX 20064 85418 12565 72202 10193 20139 40141 50010 60001 87500 333 56000 87625
AAXX 20064 85442 12470 31804 10178 200139 40131 57010 60001 83500 333 56400 83615
AAXX 20064 85469 42565 31207 10199 20138 40239 52005 83200 333 56200 83820
AAXX 20064 85488 12960 03501 10141 20128 40120 58010 60001
AAXX 20064 48001 NIL
AAXX 20064 48004 32563 13201 10190 20135 81100 333 56900
AAXX 20064 48008 32558 23602 10230 20134 40125 82200 333 56800 59000
AAXX 20064 48010 31060 00000 10205 20130 40150 70244 333 59010
AAXX 20064 48018 32360 13201 10235 20155 40152 81200 333 56900 59010
AAXX 20064 48019 32960 03202 10228 20124 40156 333 59007
AAXX 20064 48020 31460 10000 10210 20160 70144 81200 333 56500
AAXX 20064 48025 31458 33601 10210 20160 40162 70144 83800 333 56700 59006
AAXX 20064 48035 31560 12202 10229 20124 40109 70500 81200 333 56900 59008
AAXX 20064 48037 32564 10401 10252 20150 40147 81100 333 56900 59005
AAXX 20064 48042 32958 02201 10267 20172 40140 333 59017
AAXX 20064 48045 NIL
AAXX 20064 48048 32962 10401 10253 20167 40150 81500 333 56900 59011
AAXX 20064 48053 32956 03603 10260 20138 40144 333 59013
AAXX 20064 48057 32457 22201 10218 20111 82800 333 56600
AAXX 20064 48060 32440 10000 10190 20139 40155 81100 333 56500 58005
AAXX 20064 48062 32956 03602 10240 20170 40135 333 59016
AAXX 20064 48071 /2960 03603 10255 20203 40140 333 59015
AAXX 20064 48077 32960 00403 10280 20158 40134 333 59010
AAXX 20064 48078 32558 23203 10273 20167 40119 81101 333 56909 59022
AAXX 20064 48080 32961 00000 10300 20166 40114 333 58000
AAXX 20064 48094 32962 00402 10280 20190 40122 333 59011
AAXX 20064 48097 32957 21302 10310 20146 40124 70511 80006 333 56009 59001
AAXX 20064 48108 31996 60501 10310 20203 40111 70522 80005 333 56009 59002
AAXX 20064 48109 NIL
AAXX 20064 48110 31996 43205 10285 20179 40106 70522 80006 333 56009 59004
AAXX 20064 48112 NIL
AAXX 20064 48001 NIL
AAXX 20064 48004 32563 13201 10190 20135 81100 333 56900
AAXX 20064 48008 32558 23602 10230 20134 40125 82200 333 56800 59000
AAXX 20064 48010 31060 00000 10205 20130 40150 70244 333 59010
AAXX 20064 48018 32360 13201 10235 20155 40152 81200 333 56900 59010
AAXX 20064 48019 32960 03202 10228 20124 40156 333 59007
AAXX 20064 48020 31460 10000 10210 20160 70144 81200 333 56500
AAXX 20064 48025 31458 33601 10210 20160 40162 70144 83800 333 56700 59006
AAXX 20064 48035 31560 12202 10229 20124 40109 70500 81200 333 56900 59008
AAXX 20064 48037 32564 10401 10252 20150 40147 81100 333 56900 59005
AAXX 20064 48042 32958 02201 10267 20172 40140 333 59017
AAXX 20064 48045 NIL
AAXX 20064 48048 32962 10401 10253 20167 40150 81500 333 56900 59011
AAXX 20064 48053 32956 03603 10260 20138 40144 333 59013
AAXX 20064 48057 32457 22201 10218 20111 82800 333 56600
AAXX 20064 48060 32440 10000 10190 20139 40155 81100 333 56500 58005
AAXX 20064 48062 32956 03602 10240 20170 40135 333 59016
AAXX 20064 48071 /2960 03603 10255 20203 40140 333 59015
AAXX 20064 48077 32960 00403 10280 20158 40134 333 59010
AAXX 20064 48078 32558 23203 10273 20167 40119 81101 333 56909 59022
AAXX 20064 48080 32961 00000 10300 20166 40114 333 58000
AAXX 20064 48094 32962 00402 10280 20190 40122 333 59011
AAXX 20064 48097 32957 21302 10310 20146 40124 70511 80006 333 56009 59001
AAXX 20064 48108 31996 60501 10310 20203 40111 70522 80005 333 56009 59002
AAXX 20064 48109 NIL
AAXX 20064 48110 31996 43205 10285 20179 40106 70522 80006 333 56009 59004
AAXX 20064 48112 NIL
AAXX 20064 85874 11982 /3115 10058 20013 39431 40056 58003 69921 7006/
AAXX 20064 85934 12580 32910 10069 20022 49951 58002 60001 83500 333 56600 83620
AAXX 20064 89056 11108 83607 10008 20005 49918 52008 60001 74442 886// 333 56699 88702
AAXX 20064 89057 11208 80000 10016 20013 49915 52005 60001 74444 886// 333 56099 88705
AAXX 20064 89058 11550 83205 10016 20009 39896 49917 52009 69931 76060 885//
AAXX 20064 89059 11460 81502 10009 20002 49918 52004 60001 70342 886// 333 73099 88716
AAXX 20064 89251 31358 81807 10024 20012 49904 52004 71022 8452/
AAXX 20064 91631 11599 10910 10284 20242 40069 60001 70200 81100 333 562//
AAXX 20064 91636 11599 31007 10290 20251 40071 60001 70200 83200 333 562//
AAXX 20064 91643 11499 31012 10295 20238 40071 53003 60001 70200 83200 333 562// 83819
AAXX 20064 91648 11499 70000 10279 20284 40075 60001 70222 82208 333 562/9
AAXX 20064 91631 11599 10910 10284 20242 40069 60001 70200 81100 333 562//
AAXX 20064 91636 11599 31007 10290 20251 40071 60001 70200 83200 333 562//
AAXX 20064 91643 11499 31012 10295 20238 40071 53003 60001 70200 83200 333 562// 83819
AAXX 20064 91648 11499 70000 10279 20284 40075 60001 70222 82208 333 562/9
AAXX 20064 91348 11474 80410 10284 20248 30014 40066 55002 69901 70282 8522/ 333 56199 70003 555 92006
AAXX 20064 91408 32574 70509 10311 20235 30024 40062 57014 83201 333 569/9 70003 555 92006
AAXX 20064 91413 32469 60710 10301 20243 30041 40066 57017 83271 333 56299 70003 555 92006
AAXX 20064 91413 32469 60710 10301 20243 30041 40066 57017 83271 333 56299 70003 555 92006
AAXX 20064 91348 11474 80410 10284 20248 30014 40066 55002 69901 70282 8522/ 333 56199 70003 555 92006
AAXX 20064 91408 32574 70509 10311 20235 30024 40062 57014 83201 333 569/9 70003 555 92006
AAXX 20064 91772 31498 60000 10284 20249 4//// 60001 70222 82202 333 569/9 82818 86080
AAXX 20064 91776 31498 40907 1//// 2//// 4//// 60001 70110 84200 333 562// 84818
AAXX 20064 91779 31498 70104 10274 20238 40115 53007 60001 70222 8217/ 333 5689/ 82818 87362
AAXX 20064 91784 11398 80000 10251 20250 40115 52011 60311 70288 887// 333 569// 82708 85817 88635
AAXX 20064 91792 11397 82304 10256 20246 40125 53010 60011 78082 84279 333 56599 82709 84817 86362 88074
AAXX 20064 91376 32474 80813 10283 20213 30066 40069 53012 84808 333 562/9 70000 555 92006 /
BBXX BATFR32 20064 99428 10095 46/// /2409 10089 21007 40169 56007 7//// 8//// 22224 00169
AAXX 20064 40270 31940 00000 10070 21024 39327 40230 57007 70500 333 20055 30000
AAXX 20064 78925 14686 /0510 10240 20223 40141 58018 60011 700// 333 10293 20201 55095 22007 58003 70014
AAXX 20064 78925 14686 /0510 10240 20223 40141 58018 60011 700// 333 10293 20201 55095 22007 58003 70014
AAXX 20064 97180 01460 62910 10308 20252 30036 40054 56026 69921 70262 82232 333 56000 82819
AAXX 20064 85406 12570 83402 10202 20146 40131 58019 60001 885// 333 56099 88626
AAXX 20064 85418 12565 72202 10193 20139 40141 50010 60001 87500 333 56000 87625
AAXX 20064 85442 12470 31804 10178 200139 40131 57010 60001 83500 333 56400 83615
AAXX 20064 85469 42565 31207 10199 20138 40239 52005 83200 333 56200 83820
AAXX 20064 85488 12960 03501 10141 20128 40120 58010 60001
AAXX 20064 85874 11982 /3115 10058 20013 39431 40056 58003 69921 7006/
AAXX 20064 85934 12580 32910 10069 20022 49951 58002 60001 83500 333 56600 83620
AAXX 20064 89056 11108 83607 10008 20005 49918 52008 60001 74442 886// 333 56699 88702
AAXX 20064 89057 11208 80000 10016 20013 49915 52005 60001 74444 886// 333 56099 88705
AAXX 20064 89058 11550 83205 10016 20009 39896 49917 52009 69931 76060 885//
AAXX 20064 89059 11460 81502 10009 20002 49918 52004 60001 70342 886// 333 73099 88716
AAXX 20064 89251 31358 81807 10024 20012 49904 52004 71022 8452/
AAXX 20064 85574 12960 01404 10174 20033 39578 40126 58008 60001
AAXX 20064 85577 12965 00000 10168 20034 39530 40134 58010 60001
AAXX 20064 85682 12465 41501 10141 20128 40154 58010 60001 84500 333 56400 84615
AAXX 20064 85743 12560 80000 10146 20116 40152 58006 60001 885// 333 56600 88620
AAXX 20064 85799 11557 83504 10122 20117 40129 57003 69901 76022 885// 333 56899 88620
AAXX 20064 96315 32470 60108 10313 20254 40051 81968 333 81817 81918 85080
AAXX 20064 96323 NIL
BBXX BATFR16 20064 99430 70195 46/// /3114 10144 20142 40307 51014 22264 00152
BBXX BATFR55 20064 99112 30485 44598 32813 10282 20249 40117 70100 82142 22262 00282 20802 30808 410// 510//
BBXX BATFR33 20064 99394 10080 46/// /3227 10119 20020 40203 53006 22234 00164
BBXX BATFR14 20064 99286 70465 44598 12417 10227 20184 40133 56011 70200 812// 22214 00234 201// 60000 ICE 0/0//
BBXX FVNM 20064 99062 70828 46/// /2606 10252 20227 40113 58008 22221 00269
BBXX BATFR45 20064 99024 10534 46/// ///// 10277 20242 40119 50005 22214 00292
AAXX 20063 78970 12470 70000 10234 20217 30099 40124 60001 83842 333 01299 10316 20229 58005 81815 83635 85078
AAXX 20063 78962 12470 60610 10254 20224 30123 40131 60001 85832 333 01299 10298 20232 58002 81816 85640
BBXX BAREU62 20064 99380 10156 46/// ///// 40144 52018 22244
BBXX BATFR09 20064 99451 70065 44597 83021 10134 20115 40252 53019 72052 887// 22253 00147 20614 60//0 ICE 0/0//
AAXX 20064 85201 32370 71403 10047 20022 36295 57009 81532 333 56000 59001 81607 83357 86070
AAXX 20064 85223 32570 71305 10158 20105 37508 47139 57002 82531 333 56000 59009 82627 84070
AAXX 20064 85244 32970 03306 10248 20222 39657 40084 57007 333 58000
AAXX 20061 33815 11596 80103 10030 20027 39875 40084 57020 60102 76186 8852/ 333 20019 555 80010
AAXX 20061 12772 31562 73103 11002 21021 39846 40138 57006 72272 8257/ 333 21002 43000 55000 82630
AAXX 20061 12822 36/// /3003 11017 21052 30014 40163 57007 333 21019
AAXX 20061 12843 31968 73202 10002 21032 39965 40140 58006 70172 84078 333 20002 4/000 55000
AAXX 20061 12882 31570 83501 10004 21009 39988 40123 57007 70372 8557/ 333 20002 41998 55001 85620
AAXX 20061 12925 16/// /0302 11008 21054 39994 40171 55003 69912 333 21008 70017
AAXX 20061 12942 11965 63204 11016 21032 39904 40158 57002 60022 70122 83041 333 21016 43009 55000 70053
AAXX 20061 12982 11450 83304 10000 21007 30031 40135 57001 60012 77077 8802/ 333 21001 43002 55000 70034 88516
AAXX 20064 67665 11460 30702 10248 20235 48536 69904 72844 83832 333 10270 20160 59004 81815 82815 81360 81080
AAXX 20061 01003 NIL
AAXX 20061 01007 11660 82402 11051 21092 30060 40069 52001 60002 77022 886// 333 21060 47006 70000 91103
AAXX 20061 01028 NIL
AAXX 20061 01047 11650 80000 11006 21013 39586 49958 52005 60032 77172 8802/ 333 21015 47027 70037
AAXX 20061 01049 NIL
AAXX 20061 01078 16/// /0308 10037 20003 39944 49957 57002 6//// 333 20026 91114
AAXX 20061 01102 46/// /1805 10031 20016 39942 49962 52005 333 20027 91108
AAXX 20061 01160 NIL
AAXX 20061 01218 NIL
AAXX 20061 01238 41989 00903 11100 21129 38865 49997 53002 70200 333 21127 91107
AAXX 20061 01241 NIL
AAXX 20061 01281 NIL
AAXX 20061 01338 16/// /2101 10019 21012 39951 40018 52005 60002 333 20010 70002 91107
AAXX 20061 01359 NIL
AAXX 20061 01397 NIL
AAXX 20061 01400 NIL
AAXX 20061 01427 16/// /0603 11010 21027 39995 40011 53004 60002 333 21018 70013 91104
AAXX 20061 01447 NIL
AAXX 20061 01448 46/// /0204 11020 21045 30009 40019 53003 333 21020 91106
AAXX 20061 01001 NIL
AAXX 20061 01008 11485 71103 11054 21084 30037 40072 54000 69902 70272 875// 333 21062 44010 70001 91104
AAXX 20061 01010 11789 62104 11008 21029 39951 49967 52002 60002 70222 81578 333 21010 91104
AAXX 20061 01026 NIL
AAXX 20061 01055 NIL
AAXX 20061 01062 NIL
AAXX 20061 01098 11370 82804 10019 20007 39927 49945 57001 69922 75065 8762/ 333 20016 41999 70020 91104
AAXX 20061 01115 16/// /2005 10032 21017 39940 49961 52003 6//// 333 20026 91107
AAXX 20061 01152 11688 60905 11002 21027 39953 49969 52005 60002 70211 84572 333 21008 70000 91107
AAXX 20061 01205 NIL
AAXX 20061 01212 NIL
AAXX 20061 01271 16/// /2404 10025 21020 39969 49990 52008 60012 333 21018 42005 70080 91110
AAXX 20061 01288 11980 22204 11047 21085 39247 40005 52004 60002 70121 80001 333 21048 47016 70010 91109
AAXX 20061 01300 NIL
AAXX 20061 01317 NIL
AAXX 20061 01367 NIL
AAXX 20061 01384 11785 40302 11054 21064 39771 40022 53005 60002 70100 845// 333 21063 91103
AAXX 20061 01403 11882 2//// 10018 21009 39934 40003 54001 60002 70211 82031 333 20017 70000
AAXX 20061 01415 16/// /1204 11007 21021 39996 40007 52001 6//// 333 21018 91105
AAXX 20061 01482 46/// /0204 10008 21014 30009 40016 53006 333 20007 91105
AAXX 20061 01492 NIL
AAXX 20064 78897 12480 70407 10247 20189 40153 58016 69981 87800 333 021// 10286 20187 58009 70008 81816 86657
AAXX 20064 78897 12480 70407 10247 20189 40153 58016 69981 87800 333 021// 10286 20187 58009 70008 81816 86657
AAXX 20064 89009 42761 13005 11269 36841 53013 333 81256
AAXX 20061 78221 NIL
AAXX 20061 78224 31559 20905 10202 20171 30125 40200 58009 70544 82500 333 82630
AAXX 20061 78229 32559 41001 10194 20169 30126 40201 52010 83800 333 83820
AAXX 20061 78239 41559 50808 10236 20181 30197 40200 57010 70500 85800 333 85820
AAXX 20061 78244 NIL
AAXX 20061 78243 12559 30804 10210 20177 30086 40210 57008 60044 83200 333 83820
AAXX 20061 78255 12459 60903 10203 20190 30055 40204 57010 60073 86801 333 85818
AAXX 20061 78264 31559 20204 10223 20177 30108 40184 57010 70500 82200 333 82820
AAXX 20061 78265 31558 70704 10210 20188 30089 40189 57010 70222 83220 333 83820 87458
AAXX 20061 78256 NIL
AAXX 20061 78259 NIL
AAXX 20061 78268 NIL
AAXX 20063 78970 12470 70000 10234 20217 30099 40124 60001 83842 333 01299 10316 20229 58005 81815 83635 85078
AAXX 20063 78962 12470 60610 10254 20224 30123 40131 60001 85832 333 01299 10298 20232 58002 81816 85640
AAXX 20064 87692 31357 80000 10174 20161 30065 40090 57005 71022 886// 333 56399 88708 555 10089
AAXX 20061 10004 46/59 /2407 10072 20058 39987 49987 56025 222// 00080 333 10074 20033 55031 55300 91118 91215
AAXX 20061 10015 01356 81813 10021 20006 30001 40011 57026 60012 76366 885// 222// 02063 333 10046 20020 31002 55035 55300 20000 30000 69977 70012 87708 88613 91118 91215 96010
AAXX 20061 10020 07358 81810 10023 20015 39981 40014 56016 60012 75776 333 10048 20021 3/002 55023 55300 20000 30000 69907 70019 85/08 88/13 91117 91212
AAXX 20061 10035 01358 81805 10009 21003 39980 40040 56020 69942 72672 876// 333 10017 20003 3/100 43001 55028 55300 20000 30000 41123 69927 70012 87709
AAXX 20061 10055 12470 71808 10012 21009 30048 40059 57016 60002 875// 333 10035 20010 31000 55047 55300 20000 30000 79999 83616 87656
AAXX 20061 10147 01360 81706 10010 21001 30039 40058 56022 69902 77072 875// 333 10022 20010 32100 55022 55300 20000 30000 41127 69907 79999 85708 87612
AAXX 20061 10162 12565 61703 11002 21026 39991 40076 57021 60002 86500 333 10014 21004 34102 55000 55300 20000 30000 79999 86623
AAXX 20061 10184 12960 31603 11002 21019 30090 40098 58013 60002 83031 333 10028 21003 34102 55005 55300 20000 30000 79999 83364
AAXX 20061 10200 01258 81807 10008 20006 30019 40017 56024 60032 76875 8572/ 333 10027 20003 3/000 43001 55043 55300 20000 30000 60027 70032 85705 88515
AAXX 20061 10224 01235 81705 10006 20001 30039 40045 56026 69942 77377 8572/ 333 10018 20006 32100 55040 55300 20000 30000 69947 70004 85705 88508
AAXX 20061 10270 16960 01806 10011 21016 30052 40108 57021 60002 222// 06039 333 10026 20004 3/101 55000 55300 79999
AAXX 20061 10338 01445 81706 10010 21003 39991 40065 56026 69902 77171 8652/ 333 10020 20005 31102 55000 55300 20000 30000 69907 70007 84715 85620 88550
AAXX 20061 10361 12870 81704 11001 21026 39991 40097 57024 60002 8801/ 333 10026 21004 34102 55001 55300 20000 30000 70004 88458
AAXX 20061 10393 12962 41903 10000 21018 39997 40127 56018 69902 80004 333 10016 21001 31101 55002 55300 20000 30000 79999 84070
AAXX 20061 10400 01235 81505 10007 20006 30013 40064 56014 60052 76977 886// 333 10029 20000 3/000 44002 55000 55300 20000 30000 60037 70051 85704 88710 91114 96010 96473
AAXX 20061 10438 07208 81705 11008 21011 39800 40087 56026 69932 77276 333 10007 21008 3/103 4/001 55000 55300 69937 70008 85/06 87/12 88/20 91113
AAXX 20061 10469 12883 71706 11001 21044 39946 40115 56026 60002 83054 333 10017 21003 34101 55003 55300 79999 83358 87080
AAXX 20061 10488 12980 11604 11025 21055 39851 40143 56018 69912 80001 333 10012 21025 34106 4/998 55012 55300 20000 30000 40782 70001 81078
AAXX 20061 10506 01460 82404 11011 21022 39491 40086 56013 60012 77077 8452/ 333 11005 21020 3/102 48007 55004 55300 20000 30000 69907 70013 84613 88530 91113 96473
AAXX 20061 10548 01356 81707 11021 21037 39562 40119 56026 69902 77172 887// 333 11009 21021 3/102 47997 55000 55300 20000 30000 69907 70001 88708
AAXX 20061 10637 01116 82005 11004 21009 39970 40112 56026 60022 77372 8672/ 333 10022 21004 3/101 44005 55012 55300 60027 70021 83702 86705 88508 96010
AAXX 20061 10685 11775 71704 11033 21061 39437 40133 56026 69902 70371 8553/ 333 11019 21035 3/106 47006 55003 55300 20000 30000 79999 85650 84360
AAXX 20061 10738 01256 81703 11015 21032 39650 40134 56032 69922 77372 8272/ 333 10000 21020 3/107 47001 55011 55300 69927 70002 82705 87540
AAXX 20061 10763 12675 71705 11012 21043 39746 40140 56029 69902 8157/ 333 10002 21016 34102 55004 55300 20000 30000 79999 81645 83358 87460
AAXX 20061 10788 17957 01703 11052 21058 39718 40171 58024 60002 71000 333 11003 21053 3/108 55052 55300 20000 30000 79999
AAXX 20061 10852 12983 71703 11049 21067 39570 40164 56030 69902 8707/ 333 11007 21049 34106 4/998 55044 55300 20000 30000 79999 86359
AAXX 20061 10946 15885 81402 11066 21091 39300 40171 56031 69912 333 11022 21109 3/108 4/004 55035 55300 20000 30000 70001 86/57 87/58 88/65
BBXX WSM5364 20060 99583 71358 41/97 83115 10022 2//// 4//// 5//// 702// 8//// 222// 00061 2//01 3//// 4//// 6////
AAXX 20064 89009 42761 13005 11269 36841 53013 333 81256
BBXX PHCQ 20063 99242 70826 41998 00911 10232 20195 40196 57025 70211 80000 22264 00244 20302 30000 40000 5//// 80207
AAXX 20061 10007 NIL
AAXX 20061 10044 46/// /1811 10009 21008 30012 40044 58016 222// 00047 333 10031 20007 55053 55300 91119 91216
AAXX 20061 10046 11357 81804 10011 21008 30010 40050 57018 69922 72376 877// 333 10018 20010 32101 55048 70004 87709
AAXX 20061 10091 12965 72008 10006 21011 30035 40087 56012 69902 83018 222// 06057 333 10038 20003 31101 55015 55300 20000 30000 79999 83465 87268 91113
AAXX 20061 10113 01257 81806 10010 20005 39991 40010 56024 60032 76076 886// 222// 06041 333 10032 20004 3/000 42997 55049 55300 20000 30000 60037 70034 88705 91114
AAXX 20061 10124 46/// ///// 10009 2//// 39975 40013 56026 222// 00058 333 10031 20007 55/// 553// 911// 912//
AAXX 20061 10131 01220 81706 10004 21003 30018 40033 56024 69942 77376 877// 222// 02037 333 10021 20004 31000 55043 55300 20000 30000 69927 70010 87706 96010 98020
AAXX 20061 10170 12972 71704 10006 21023 30061 40077 58017 60002 8705/ 333 10025 20006 34101 55024 55300 20000 30000 70000 82363 87366
AAXX 20061 10264 12965 71805 11003 21026 39975 40084 58022 60002 8703/ 333 10023 21005 34102 55000 55300 20000 30000 79999 87363
AAXX 20061 10291 12770 71703 10010 21024 30050 40119 56015 69902 875// 333 10027 20004 34101 55000 55300 20000 30000 79999 87650
AAXX 20061 10315 01258 81803 10005 20005 39987 40052 56018 60032 72277 877// 333 10023 20001 3/000 44003 55002 55300 20000 30000 60027 70031 87705
AAXX 20061 10379 12680 11705 11004 21027 39987 40112 57022 60002 81530 333 10022 21004 34103 55002 55300 20000 30000 40816 70001 81646
AAXX 20061 10382 12681 11804 10010 21022 30071 40117 56018 69902 81500 333 10030 20008 34101 55000 55300 20000 30000 70001 81646
AAXX 20061 10384 16/// /1703 10008 21020 30056 40117 56019 69902 333 10031 20008 3/102 55000 55300 20000 30000 70001
AAXX 20061 10427 01/06 92110 11044 21044 39047 48347 56021 60032 77374 333 11036 21045 3/105 48048 55000 55300 20000 30000 60027 70034 91117 91212 96041
AAXX 20061 10430 01212 81903 11001 21005 39873 40069 56024 60022 77372 885// 333 10013 21005 3/103 47004 55000 55300 20000 30000 60027 70038 85706 85618 88623
AAXX 20061 10439 NIL
AAXX 20061 10453 11/90 92021 11069 21070 38706 48339 56030 60022 77174 333 11055 21069 3/107 49118 55000 55300 70070 91126 91222 96049 96038
AAXX 20061 10496 12967 41703 11004 21026 30048 40136 56016 69902 80001 333 10019 21004 34104 55001 55300 20000 30000 79999 84070
AAXX 20061 10499 11775 82004 11008 21032 39846 40145 56016 69902 70172 83507 333 10010 21008 34102 55021 55300 20000 30000 79999 83650 88270
AAXX 20061 10505 01262 82405 10019 20017 39787 40072 56007 60012 76872 887// 333 10019 21001 3/100 42001 55000 55300 20000 30000 69997 70014 87704 91118 91212
AAXX 20061 10513 01225 81404 10002 20002 39956 40080 56019 60052 77177 8172/ 333 10022 21001 3/101 43006 55000 55300 20000 30000 60027 70045 81705 88516 96010 96273 96473
AAXX 20061 10532 07225 81605 11007 21008 39840 40094 56026 60022 77170 333 10012 21007 3/101 4/001 55000 55300 20000 30000 60017 70017 82/03 87/11 88/31
AAXX 20061 10544 01/08 91814 11053 21054 38995 48368 56027 69932 77374 333 11039 21057 3/106 48020 55000 55300 69927 70003 91119 91215 96049 96036
AAXX 20061 10554 01975 82106 10001 21039 39708 40104 56026 69902 77811 8702/ 333 10003 21017 34103 4/998 55008 55300 20000 30000 69907 79999 87460
AAXX 20061 10567 12882 72007 11010 21050 39736 40122 56026 60002 8707/ 333 10002 21015 3/102 42997 55024 55300 20000 30000 79999 81357 87460
AAXX 20061 10578 11075 32115 11087 21095 38691 48386 56024 69942 73674 83530 333 11064 21087 3/109 49056 55001 55300 20000 30000 70004 83600 96477 96449
AAXX 20061 10609 01230 82305 11002 21006 39761 40099 56016 60012 72272 887// 333 10010 21009 3/101 43003 55000 55300 20000 30000 69937 70012 88706 96479
AAXX 20061 10616 033// 82404 11009 21022 39480 40093 56020 69952 8//// 333 11008 21019 3/103 55000 55300 69907 70005 82/08 87/11 88/15
AAXX 20061 10641 07312 81602 11003 21008 39961 40112 56026 60022 77174 333 10022 21003 3/100 4/003 55010 55300 60027 70021 85/06 87/11 88/18
AAXX 20061 10655 01458 81705 11007 21032 39788 40126 56027 69902 77122 875// 333 10005 21007 31102 55012 55300 20000 30000 69907 79999 83616 87628
AAXX 20061 10675 15666 81504 11007 21039 39836 40136 56027 69902 333 10005 21008 3/101 55004 55300 20000 30000 79999 88/49
AAXX 20061 10688 17968 01803 11021 21048 39612 40152 56026 69902 70070 333 11007 21022 3/103 55006 55300 20000 30000 79999
AAXX 20061 10708 01135 82006 11008 21009 39713 40109 56026 60032 77172 886// 333 10000 21012 3/101 43009 55000 55300 20000 30000 60017 70035 82702 87704
AAXX 20061 10729 07240 81507 11005 21007 30000 40126 56028 60032 77170 333 10020 21006 3/101 4/004 55005 55300 20000 30000 60037 70030 81/05 87/22 88/37
AAXX 20061 10731 01356 82105 11002 21008 39969 40116 56029 69932 77172 877// 333 10020 21004 3/100 43001 55000 55300 20000 30000 69937 70003 87707
AAXX 20061 10742 07562 72103 10000 21042 39789 40129 56030 69902 77170 333 10007 21001 3/101 55000 55300 20000 30000 69907 79999 83/22 85/33 87/49
AAXX 20061 10776 12963 71603 11027 21045 39700 40161 56024 60002 82032 333 11005 21027 34105 4/998 55053 55300 20000 30000 79999 82363 87073
AAXX 20061 10791 01/00 92106 11101 21110 38453 48403 58026 69902 77874 333 11085 21102 49087 55021 55300 69907 70008 96049 96241
AAXX 20061 10805 01435 82005 10004 21008 39933 40129 56029 69962 77172 8552/ 333 10019 21004 3/100 43001 55005 55300 20000 30000 69967 70006 85613 88513 91113
AAXX 20061 10815 01/08 92104 11046 21049 39163 48388 56030 60022 77372 333 11034 21048 3/105 48022 55003 55300 20000 30000 60027 70024 93103 96473 96471 96470
AAXX 20061 10836 12585 82006 11042 21058 39245 40144 56027 69902 875// 333 11031 21059 3/112 47008 55021 55300 20000 30000 79999 86630
AAXX 20061 10870 12975 51803 11043 21065 39612 40169 57027 69902 85030 333 11002 21082 34111 41998 55049 55300 70002 85363
AAXX 20061 10895 12959 01403 11047 21053 39584 40179 58019 60002 333 11018 21048 3/108 42002 55024 55300 20000 30000 79999
AAXX 20061 10908 01210 82218 11072 21072 38389 48393 56024 69932 77374 8802/ 333 11072 21096 3/110 49054 55005 55300 20000 30000 69927 70019 88504 91123 90216 91218 91218 96038 96271 96249
AAXX 20061 10929 01474 82202 11017 21046 39613 40162 56025 69902 77171 885// 222// 06060 333 11006 21034 3/107 43001 55003 55300 20000 30000 69907 70005 84616 88630
AAXX 20061 10948 12975 80501 11088 21092 39187 48405 56032 69902 86037 333 11042 21139 3/117 47030 55009 55300 20000 30000 79999 86359 88270
AAXX 20061 10961 12589 52508 11186 21285 36954 47911 56014 69912 81042 333 11185 21204 49125 55044 55300 20000 40663 70012 81330 85066 91113
AAXX 20061 10962 12884 41604 11054 21120 38974 48409 56028 69902 83072 333 11045 21071 3/110 48004 55050 55300 20000 30000 79999 82358 83464
AAXX 20061 10980 12988 02307 11118 21151 38058 48424 56016 60002 333 11108 21124 3/113 48035 55011 55300 20000 30000 70008
AAXX 20064 78862 12480 60311 10247 20174 30134 40157 60001 86800 333 10281 20226 58012 84818 83636
AAXX 20064 KN015 BKN035
AAXX 20064 TAF TKPN 181600Z 1818/1918 05014KT 9999 SCT022 BKN036 PROB40 TEMPO 1818/1918 5000 SHRA BKN015 BKN035
AAXX 20064 TAF TQPF 181600Z 1818/1918 05014KT 9999 SCT022 BKN036 PROB40 TEMPO 1818/1918 5000 SHRA BKN015 BKN035
AAXX 20064 TAF TUPJ 181600Z 1818/1918 05014KT 9999 SCT022 BKN036 PROB40 TEMPO 1818/1918 5000 SHRA BKN015 BKN035
AAXX 20064 EMPO 0600/0624 SHRA BKN015=+TSRA SCT012CB
AAXX 20064 TAF TUPJ 041000Z 04012/0512 07008KT 9999 SCT016 BKN038 SCT270 TEMPO 0412/0512 SHRA BKN015 PROB40 TEMPO 0418/0512 5000 SHRA BKN014 BKN036 PROB30 0420/0512 4000 TSRA FEW012CB
AAXX 20064 918 4000 TSRA FEW012CB
AAXX 20064 N015 BKN036 PROB40 TEMPO 0704/0724 3000 +TSRA SCT011CB BKN012 BECMG 0712/0714 14008KT
AAXX 20064 21/2712 07017G28KT 5000 SHRA BKN015 BKN036 PROB TEMPO 2700/2712 4000 TSRA FEW013CB
AAXX 20064 PROB30 TEMPO 0800/0806 4000 TSRA FEW012CB PROB40 TEMPO 0800/0824 2000 +SHRA/TSRA SCT010CB BKN012 BKN250
AAXX 20064 78862 12480 60311 10247 20174 30134 40157 60001 86800 333 10281 20226 58012 84818 83636
AAXX 20064 KN015 BKN035
AAXX 20064 TAF TKPN 181600Z 1818/1918 05014KT 9999 SCT022 BKN036 PROB40 TEMPO 1818/1918 5000 SHRA BKN015 BKN035
AAXX 20064 TAF TQPF 181600Z 1818/1918 05014KT 9999 SCT022 BKN036 PROB40 TEMPO 1818/1918 5000 SHRA BKN015 BKN035
AAXX 20064 TAF TUPJ 181600Z 1818/1918 05014KT 9999 SCT022 BKN036 PROB40 TEMPO 1818/1918 5000 SHRA BKN015 BKN035
AAXX 20064 EMPO 0600/0624 SHRA BKN015=+TSRA SCT012CB
AAXX 20064 TAF TUPJ 041000Z 04012/0512 07008KT 9999 SCT016 BKN038 SCT270 TEMPO 0412/0512 SHRA BKN015 PROB40 TEMPO 0418/0512 5000 SHRA BKN014 BKN036 PROB30 0420/0512 4000 TSRA FEW012CB
AAXX 20064 918 4000 TSRA FEW012CB
AAXX 20064 N015 BKN036 PROB40 TEMPO 0704/0724 3000 +TSRA SCT011CB BKN012 BECMG 0712/0714 14008KT
AAXX 20064 21/2712 07017G28KT 5000 SHRA BKN015 BKN036 PROB TEMPO 2700/2712 4000 TSRA FEW013CB
AAXX 20064 PROB30 TEMPO 0800/0806 4000 TSRA FEW012CB PROB40 TEMPO 0800/0824 2000 +SHRA/TSRA SCT010CB BKN012 BKN250
AAXX 20064 78862 12480 60311 10247 20174 30134 40157 60001 86800 333 10281 20226 58012 84818 83636
AAXX 20064 KN015 BKN035
AAXX 20064 TAF TKPN 181600Z 1818/1918 05014KT 9999 SCT022 BKN036 PROB40 TEMPO 1818/1918 5000 SHRA BKN015 BKN035
AAXX 20064 TAF TQPF 181600Z 1818/1918 05014KT 9999 SCT022 BKN036 PROB40 TEMPO 1818/1918 5000 SHRA BKN015 BKN035
AAXX 20064 TAF TUPJ 181600Z 1818/1918 05014KT 9999 SCT022 BKN036 PROB40 TEMPO 1818/1918 5000 SHRA BKN015 BKN035
AAXX 20064 EMPO 0600/0624 SHRA BKN015=+TSRA SCT012CB
AAXX 20064 TAF TUPJ 041000Z 04012/0512 07008KT 9999 SCT016 BKN038 SCT270 TEMPO 0412/0512 SHRA BKN015 PROB40 TEMPO 0418/0512 5000 SHRA BKN014 BKN036 PROB30 0420/0512 4000 TSRA FEW012CB
AAXX 20064 918 4000 TSRA FEW012CB
AAXX 20064 N015 BKN036 PROB40 TEMPO 0704/0724 3000 +TSRA SCT011CB BKN012 BECMG 0712/0714 14008KT
AAXX 20064 21/2712 07017G28KT 5000 SHRA BKN015 BKN036 PROB TEMPO 2700/2712 4000 TSRA FEW013CB
AAXX 20064 PROB30 TEMPO 0800/0806 4000 TSRA FEW012CB PROB40 TEMPO 0800/0824 2000 +SHRA/TSRA SCT010CB BKN012 BKN250
BBXX VEP717 20064 99467 70487 41296 80152 10027 2003/ 49886 57035 76162 886// 22200 06027 20708 302// 40703 80026
AAXX 20061 01015 NIL
AAXX 20061 01023 NIL
AAXX 20061 01033 NIL
AAXX 20061 01059 11583 63504 10011 21002 39955 49964 53002 60002 70122 84570 333 20006 91108
AAXX 20061 01089 16/// /2003 11026 21027 39849 49956 54000 6//// 333 21030 91105
AAXX 20061 01167 31988 12701 11011 21021 39958 49963 52003 70100 80001 333 21011 70000 91103
AAXX 20061 01180 NIL
AAXX 20061 01210 11685 51703 10024 21005 39976 40003 54000 60024 70282 83261 333 20024 70020 91111
AAXX 20061 01228 NIL
AAXX 20061 01240 16/// /2705 10047 20021 39955 49974 52008 6//// 333 20037 91115
AAXX 20061 01304 46/// /1206 10033 21014 39968 49999 57003 333 20032 91110
AAXX 20061 01311 46/// /1201 11018 21035 39943 40007 58001 333 21020 91104
AAXX 20061 01340 NIL
AAXX 20061 01355 16/// ///// 11008 21014 30016 40021 53003 60002 333 21013 70002
AAXX 20061 01360 NIL
AAXX 20061 01392 16/// /0000 11079 21087 39797 40032 53009 60002 333 21079 70000 91102
AAXX 20061 01406 NIL
AAXX 20061 01411 16/// /0805 10021 21017 39980 40005 52001 6//// 333 20019 91108
AAXX 20061 01425 NIL
AAXX 20061 01433 46/// /0000 11099 21125 38743 40039 57001 333 21116 91105
AAXX 20061 01442 NIL
AAXX 20061 01450 NIL
AAXX 20061 01452 11986 10602 11059 21067 30000 40022 53002 60002 70200 80001 333 21060 70000 91103
AAXX 20061 01473 16/// /2901 11088 21099 39818 40035 53008 6//// 333 21097 91103
AAXX 20061 01494 11885 20101 11059 21063 39953 40020 53003 60002 70200 82031 333 21060 70000 91103
AAXX 20061 01037 NIL
AAXX 20061 01046 11688 82701 11013 21022 39966 49973 52002 69952 70222 885// 333 21027 44002 70005 91103
AAXX 20061 01058 16/// /3504 11012 21022 39504 49966 52002 69942 333 21014 4/016 70017 91107
AAXX 20061 01065 NIL
AAXX 20061 01092 NIL
AAXX 20061 01107 16/// /2004 10034 2//// 39956 49960 52004 60002 333 20023 70002 91105
AAXX 20061 01114 NIL
AAXX 20061 01144 46/// /1205 10019 21008 333 20018 91107
AAXX 20061 01199 NIL
AAXX 20061 01245 NIL
AAXX 20061 01259 16/// /2908 10056 20019 39942 49964 50005 60062 333 20037 70066 91113
AAXX 20061 01262 NIL
AAXX 20061 01278 11470 82903 10017 20008 39877 49980 52009 60032 78082 8292/ 333 21026 43004 70073
AAXX 20061 01293 16/// /0301 10008 21002 39777 49984 52008 60022 333 21048 70056 91103
AAXX 20061 01329 NIL
AAXX 20061 01337 NIL
AAXX 20061 01344 NIL
AAXX 20061 01364 NIL
AAXX 20061 01373 16/// /0000 11137 21152 39844 40052 53011 60002 333 21140 70000 91101
AAXX 20061 01374 NIL
AAXX 20061 01380 16/// /2801 11117 21134 6//// 333 21156 4/027 91104
AAXX 20061 01389 NIL
AAXX 20061 01393 NIL
AAXX 20061 01424 11880 3//// 11059 21074 30026 40030 53005 60002 70211 83030 333 21060 70025
AAXX 20061 01431 16/// /0201 11163 21177 39355 40066 53003 60002 333 21164 70000 91102
AAXX 20061 01436 NIL
AAXX 20061 01465 11980 13303 11023 21048 30004 40023 53002 60002 70200 80001 333 21023 70000 91105
AAXX 20061 01471 NIL
AAXX 20061 01483 NIL
AAXX 20061 01025 16/// /1601 10006 21011 39959 49970 54001 69902 333 20002 43025 79999 91103
AAXX 20061 01052 16/// /0305 10016 21002 39872 49969 50000 60002 333 20014 70000 91110
AAXX 20061 01122 NIL
AAXX 20061 01132 NIL
AAXX 20061 01156 NIL
AAXX 20061 01203 46/// /1704 10028 21046 39950 49999 57002 333 20019 91114
AAXX 20061 01233 16/// /0101 11108 21117 60002 333 21112 70000 91101
AAXX 20061 01265 NIL
AAXX 20061 01273 NIL
AAXX 20061 01307 46/// /1107 10021 21028 39972 40000 57003 333 20017 91109
AAXX 20061 01321 16/// /0901 11011 21012 39757 40013 55000 69932 333 21015 70113 91102
AAXX 20061 01327 16/// /0000 11078 21093 60002 333 21088 70000 91102
AAXX 20061 01350 16/// /2701 11196 21206 38604 40013 53003 60002 333 21198 70000 91104
AAXX 20061 01361 NIL
AAXX 20061 01375 NIL
AAXX 20061 01378 NIL
AAXX 20061 01385 16/// /3401 11083 21096 39752 40034 53009 60002 333 21087 70000 91105
AAXX 20061 01412 16/// /1004 10007 21027 39975 40004 52001 60002 333 21012 70000 91107
AAXX 20061 01422 NIL
AAXX 20061 01440 NIL
AAXX 20061 01441 NIL
AAXX 20061 01467 NIL
AAXX 20061 01469 NIL
AAXX 20061 01477 NIL
AAXX 20061 01480 16/// /3401 11053 21064 60002 333 21053 70000 91104
AAXX 20061 01484 16/// /0201 11049 21061 39865 40025 53004 60002 333 21077 70000 91102
AAXX 20061 01490 16/// /0601 11028 21050 60002 333 21029 70002 91104
AAXX 20061 01495 16/// /0503 11016 21027 30005 40018 53006 60002 333 21021 70000 91104
AAXX 20061 01121 46/// /1304 10026 21035 39955 49967 52003 333 20008 91105
AAXX 20061 01135 NIL
AAXX 20061 01143 16/// /2104 11061 21069 60002 333 21065 70000 91105
AAXX 20061 01150 NIL
AAXX 20061 01192 NIL
AAXX 20061 01225 46/// /2505 10041 20018 39985 49989 53001 333 20033 91114
AAXX 20061 01230 NIL
AAXX 20061 01232 NIL
AAXX 20061 01234 16/// /2402 11008 21025 60002 333 21008 70004 91108
AAXX 20061 01253 NIL
AAXX 20061 01254 NIL
AAXX 20061 01257 NIL
AAXX 20061 01277 NIL
AAXX 20061 01291 NIL
AAXX 20061 01332 16/// /0201 11024 21034 69982 333 21037 70053 91103
AAXX 20061 01366 46/// /0602 11158 21178 38380 40070 55000 333 21166 91105
AAXX 20061 01370 NIL
AAXX 20061 01376 16/// /3501 11071 21082 60002 333 21086 70000 91102
AAXX 20061 01383 46/// /0501 11141 21150 39714 40046 52010 333 21144 91102
AAXX 20061 01386 NIL
AAXX 20061 01416 16/// ///// 11002 21037 60002 333 21006 70005
AAXX 20061 01419 NIL
AAXX 20061 01430 16/// ///// 11028 21047 60002 333 21029 70000
AAXX 20061 01434 16/// /0000 11168 21185 39047 40030 52003 60022 333 21183 70015 91102
AAXX 20061 01455 NIL
AAXX 20061 01468 16/// /0000 11076 21084 60002 333 21076 70000 91103
AAXX 20061 01470 NIL
AAXX 20061 01476 NIL
AAXX 20061 01481 NIL
AAXX 20061 01488 NIL
AAXX 20061 11816 12965 10102 11006 21072 39998 40167 57005 60002 81070 333 21008 31103 70000 81360
AAXX 20061 11826 12960 29902 11037 21058 39958 40166 57004 60002 82040 333 21044 34107 70000 82360
AAXX 20061 11903 12765 50000 11033 21033 39756 40150 57006 60002 81530 333 21037 34104 70000 81656 85360
AAXX 20061 11934 11357 82703 11038 21059 39304 42742 57006 69902 77022 8757/ 333 21049 3/106 42001 79999 81706 84643 88359
AAXX 20061 11968 11665 70107 10005 21038 39846 40133 56007 69902 77172 875// 333 20000 3/100 43997 79999 84646 87657
BBXX VCXF 20064 99464 70484 41295 83641 10030 2003/ 49864 57035 76162 886// 22200 02030 20506 301// 40802 80030
AAXX 20064 78397 112570 71104 10254 20198 30143 40159 60001 86801 333 00909 10316 20225 58006 81822 86640 86074
AAXX 20064 03005 11675 73117 10047 21015 39886 49986 53021 60062 70262 8557/ 90550 333 20032 31001 55001 55300 20000 70058 81630 85645 87361 90710 91125
AAXX 20064 03017 16982 /3012 10036 21003 39997 40029 51021 60052 90550 333 20027 3/001 55000 55300 20000 70072 82/58
AAXX 20064 03023 15965 /3114 10059 20004 30087 40092 51007 69962 90550 333 20043 3/002 70090 87/66 90710 91125
AAXX 20064 03026 15980 /2610 10025 21007 30054 40073 51013 60022 90550 333 20022 3/000 55002 55300 20000 70134 8//99
AAXX 20064 03063 17983 /1803 10013 21030 39799 40080 53016 60092 724// 90550 333 20010 3/102 4/004 55000 55300 20000 70096 81/61
AAXX 20064 03066 17682 /2617 10031 20008 30063 40069 53020 69942 723// 90550 333 20027 3/000 55000 55300 20000 70048 81/37 86/50 90710 91126
AAXX 20064 03075 17670 /2912 10023 20007 39999 40043 53023 60042 741// 90550 333 20019 3/000 70100 84/33 90710 91131
AAXX 20064 03091 15980 /3015 10036 21005 39975 40055 53025 69942 90550 333 20021 3/001 55000 55300 20000 70040 8//99 90710 91125
AAXX 20064 03100 17672 /3112 10054 20023 30092 40108 51012 69982 723// 90550 333 20041 3/003 55010 55300 20000 70114 81/32 87/65 90710 91134
AAXX 20064 03111 16976 /3119 10061 20022 30103 40115 52015 60022 90550 333 20050 3/004 70100 82/67 90710 91126
AAXX 20064 03134 15980 /3109 10041 20006 30024 40097 53020 69902 90550 333 20039 3/002 55001 55300 20000 70064 83/71
AAXX 20064 03136 15973 /3011 10062 20012 30069 40103 53015 69922 90550 333 20044 3/002 55000 55300 20000 70066 8//99 91021
AAXX 20064 03162 15983 /3209 10029 21017 39812 40103 53023 69922 90550 333 20027 3/101 55000 55300 20000 70060 8//99
AAXX 20064 03166 15983 /2509 10029 21010 30019 40090 53021 60002 90550 333 20027 3/001 55000 55300 20000 70016 83/74
AAXX 20064 03171 12682 22911 10041 21022 30068 40080 53023 60002 81501 90550 333 20007 34103 55000 55300 20000 70034 81645
AAXX 20064 03204 12580 13015 10065 20015 30108 40128 53019 60002 81100 90550 333 20064 31004 55008 55300 20000 70110 81825 90710 91134
AAXX 20064 03240 15982 /2718 10044 21004 30043 40072 53020 60002 90550 333 20044 3/003 55000 55300 20000 70028 8//99 90710 91125
AAXX 20064 03257 15973 /2909 10038 20003 30054 40095 53020 60002 90550 333 20037 3/000 55000 55300 20000 70022 8//99
AAXX 20064 03292 169// /2912 10035 20011 30051 40070 53021 69922 90550 333 20027 3/001 70016 8//99
AAXX 20064 03302 15666 /3011 10074 20037 30130 40143 52012 60002 90550 333 20072 3/006 55005 55300 20000 70090 81/37 86/70
AAXX 20064 03354 15784 /2909 10054 20018 39964 40108 53019 60002 90550 333 20043 3/002 55000 55300 20000 7//// 86/50
AAXX 20064 03377 12784 22811 10051 20021 30010 40095 53018 60002 81532 90550 333 20042 31003 55000 55300 20000 70036 81650
AAXX 20064 03414 15680 /2706 10057 20026 30043 40132 53022 69922 90550 333 20044 3/001 55000 55300 20000 70038 81/30 85/42
AAXX 20064 03462 17776 /2711 10049 20028 30013 40103 53016 69902 723// 90550 333 20040 3/002 55000 55300 20000 70032 83/56
AAXX 20064 03482 15972 /2914 10053 20027 30059 40085 53010 69962 90550 333 20030 3/001 70040 8//99
AAXX 20064 03502 17461 /3020 10074 20059 39996 40159 51013 69982 751// 90550 333 20074 3/006 55000 55300 20000 70106 82/10 86/18 90710 91128
AAXX 20064 03535 15980 /2911 10055 20026 30000 40119 53017 69902 90550 333 20045 3/001 55001 55300 20000 70042 8//99
AAXX 20064 03590 11981 22813 10047 20032 39977 40088 53005 60022 70161 80002 90550 333 20036 31002 55000 55300 20000 70038 82070
AAXX 20064 03649 12680 52807 10058 20034 30028 40129 53016 69902 82501 90550 333 20052 31002 55000 55300 2//// 70034 82645 85075
AAXX 20064 03716 15575 /3016 10080 20059 30086 40146 53011 60002 90550 333 20076 3/006 55000 55300 20000 70142 82/22 83/71
AAXX 20064 03740 16578 /2911 10053 20034 39962 40140 53016 60002 90550 333 20051 3/003 55000 55300 2//// 70000 81/27
AAXX 20064 03746 15980 /2910 10054 20042 39984 40139 53016 60002 90550 333 20052 3/002 70054 8//99
AAXX 20064 03772 15876 /2607 10049 20031 30091 40122 53014 69902 90550 333 20046 3/000 55000 55300 20000 70050 81/57
AAXX 20064 03796 46/// /3118 10063 20041 39956 40099 53005 90550 333 20053 90710 91128
AAXX 20064 03803 NIL
AAXX 20064 03808 12673 73416 10093 20050 30079 40185 51014 69922 84572 90550 333 20092 31008 55000 55300 20000 70050 84635 86369 87072 90710 91126
AAXX 20064 03809 12670 73310 10091 20060 30093 40186 52018 69902 85501 90550 333 20087 31007 7//// 85630 87070
AAXX 20064 03827 15665 /3109 10088 20054 30107 40169 52011 69902 90550 333 20087 3/006 70036 85/38 87/72
AAXX 20064 03840 15675 /3110 10066 20050 39850 40157 53014 69922 90550 333 20065 3/004 70056 87/31
AAXX 20064 03853 15665 /3014 10079 20058 30126 40151 53015 60002 90550 333 20073 3/005 55000 55300 20000 70056 86/41
AAXX 20064 03874 46/// /2815 10073 20059 30123 40134 53012 90550 333 20072
AAXX 20064 03882 15675 /2703 10047 20038 30056 40121 52013 69982 90550 333 20047 3/000 55000 55300 20000 70066 82/38
AAXX 20064 03894 12481 33116 10093 20048 40166 52010 60012 81832 333 20093 31007 81816 83075 90710 91127
AAXX 20064 03917 15677 /2509 10045 20017 30058 40136 51011 69902 90550 333 20036 3/001 55011 55300 20000 70042 81/43 85/67
AAXX 20064 07005 01470 82811 10074 20057 30025 40115 53007 60032 76162 888// 333 10080 20040 32004 55006 69947 70050 84810 88630 90710 91117 555 69925
AAXX 20064 07015 01565 82911 10064 20050 30038 40096 53006 60022 760// 888// 333 10070 20021 32002 55009 69927 70065 87629 90710 91118 93100 555 69925
AAXX 20064 07020 02564 83121 10109 20070 30138 40165 51019 69922 885// 333 10122 20108 55/// 60007 70060 88626 90710 91128 555 60005
AAXX 20064 07027 02480 72814 10089 20078 30066 40148 53011 60012 8117/ 333 10100 20069 32007 55001 69907 70074 81815 87361 90710 91119 93100 555 60005
AAXX 20064 07037 01480 73010 10069 20063 39943 40128 53011 60042 72586 875// 333 10084 20039 32004 55000 69927 70103 85616 87621 90710 91119 93100 555 69925
AAXX 20064 07070 04468 82807 10060 20051 39998 40109 53003 60042 700// 333 10061 20009 31000 55033 69907 70040 90710 91111 555 69905
AAXX 20064 07110 01465 83110 10098 20077 30079 40195 53011 69922 70365 885// 333 10112 20093 32009 55000 69907 70034 87617 90710 91116 93100 555 60005
AAXX 20064 07117 01462 83112 10105 20064 30111 40182 53013 69942 70162 88700 333 10115 20104 69907 90710 91125 92447 555 69905
AAXX 20064 07130 04261 83109 10098 20093 30117 40169 53005 69942 751// 333 10109 20077 32007 55000 69927 70042 90710 91114 555 69925
AAXX 20064 07139 02470 72910 10093 20067 39969 40143 53002 60022 875// 333 10096 20052 31005 55000 60007 70050 86710 86640 90710 91117 93100 555 60005
AAXX 20064 07149 01462 72807 10073 20073 30019 40129 53009 60042 70362 875// 333 10073 20029 31003 55006 60007 70056 83611 86630 90710 91111 93100 555 60005
AAXX 20064 07168 02462 82506 10063 20054 39983 40127 53004 60022 875// 333 10063 20010 32001 55046 60007 70020 85616 87633 90710 91113 93100 555 60005
AAXX 20064 07181 04369 82313 10006 20000 39699 40120 55010 69962 700// 333 10007 21012 3/102 55/// 69967 70014 90710 91119 555 69905
AAXX 20064 07190 04316 81813 11003 21014 39934 40123 56027 69902 771// 333 10015 21004 3/100 43/// 55000 69907 70002 90710 91124 555 69905
AAXX 20064 07207 02558 83419 10109 20086 69962 885// 222// 327// 333 10124 20109 60007 91032 90710 91132 92446 555 60005
AAXX 20064 07222 01470 72907 10105 20091 30140 40172 55000 69902 703// 85501 333 10117 20076 31007 55006 60007 70046 85618 87071 90710 91116 555 60005
AAXX 20064 07240 01465 82709 10098 20086 30015 40151 53002 60052 701// 875// 333 10103 20052 32005 55000 60007 70089 85610 86650 90710 91115 93100 555 60005
AAXX 20064 07255 01150 82808 10090 20085 39940 40140 56004 60102 75055 887// 333 10090 20037 32003 55011 69947 70111 88703 90710 91117 93100 555 69945
AAXX 20064 07280 04249 81910 10002 21001 39866 40148 56016 60022 710// 333 10005 21007 3/102 42/// 55048 60017 70022 90710 91117 555 69905
AAXX 20064 07299 01230 81405 11007 21015 39804 40143 56024 69942 77172 888// 333 10008 21019 3/104 43001 55011 69947 70004 82805 86614 87619 90710 91110 93101 555 69945
AAXX 20064 07314 06/// /3117 10120 20111 30161 40189 55001 60002 333 10127 20110 55/// 60007 70040 90710 91123 555 60005
AAXX 20064 07335 02480 72907 10104 20088 30024 40169 53002 60012 875// 333 10108 20052 31005 55021 60007 70054 81616 87628 90710 91114 555 60005
AAXX 20064 07434 01103 82709 10084 20081 39687 40168 55012 60102 75165 887// 333 10084 20027 32003 55008 60027 70107 88703 90710 91115 93100 555 69945
AAXX 20064 07460 01570 52713 10082 20046 39761 40152 56009 69962 701// 83530 333 10084 20013 31001 55027 69907 70006 82626 83656 90710 91120 93100 555 60005
AAXX 20064 07471 01575 82607 10034 20016 39183 48774 55013 60042 72176 875// 333 10034 21031 3/104 43006 55029 60017 70038 87623 90710 91117 555 69905
AAXX 20064 07481 01220 81404 11003 21009 39882 40182 56019 60022 75675 886// 333 10006 21008 3/102 44002 55/// 60017 70020 86705 87629 90710 91108 93100 555 69925
AAXX 20064 07510 01460 82913 10125 20112 30131 40196 55009 60042 72165 887// 333 10128 20079 32007 55024 69987 70050 85714 83616 86623 90710 91127 93100 555 69905
AAXX 20064 07535 01350 82407 10086 20085 39867 40182 56020 60062 76166 877// 333 10086 20037 32003 55000 60037 70062 87706 90710 91114 93100 555 60015
AAXX 20064 07558 01358 82309 10039 20039 39339 40190 56013 60022 76166 885// 333 10039 21003 32101 55028 60017 70028 88606 90710 91117 93100 555 60015
AAXX 20064 07577 01325 80000 10005 21004 30104 40197 56013 69962 72376 8775/ 333 10025 20002 3/101 41001 55039 69967 70008 82706 87556 90710 91102 93101 555 69925
AAXX 20064 07591 04/// /2102 11078 21120 39157 4//// 56012 60002 700// 333 11047 21085 3/111 55073 60007 70000 90710 91108 555 60005
AAXX 20064 07607 01235 82410 10081 20077 30145 40218 56018 60022 76162 887// 333 10097 20080 32008 55012 60027 70062 87704 90710 91121 93100 555 69965
AAXX 20064 07621 01558 82608 10077 20062 39794 40234 56012 60022 760// 885// 333 10087 20057 32005 55003 69927 70022 85626 87650 90710 91112 93100 555 69925
AAXX 20064 07627 01558 81403 10063 20036 39730 40227 58018 60012 75865 885// 333 10082 20043 32003 55001 69947 70014 88623 90710 91111 93100 555 60005
AAXX 20064 07630 01570 82515 10090 20052 30026 40209 56021 60022 72162 875// 333 10090 20068 32006 55002 69947 70018 81621 83633 87648 90710 91125 93100 555 69905
AAXX 20064 07643 04682 73603 10028 21007 30179 40189 56022 60002 700// 333 10040 20016 3/000 55072 60007 70000 90710 91107 555 60005
AAXX 20064 07650 01570 80804 10029 21009 30152 40192 57014 69962 76062 875// 333 10054 20025 32001 55083 69967 70006 85630 87646 90710 91110 93100 555 69945
AAXX 20064 07661 02875 62714 10052 21013 30016 40181 56007 60002 86020 333 10059 20047 55/// 60007 70000 86456 90710 91126 555 60005
AAXX 20064 07690 02684 13410 10034 21106 30132 40167 56013 60002 81501 333 10056 20033 30002 55086 60007 70000 81633 90710 91116 93100 555 60005
AAXX 20064 07747 02675 42110 10120 20027 30139 40192 58022 69922 82532 333 10120 20077 30006 55022 60007 70004 82645 83070 90710 91118 93100 555 60005
AAXX 20064 07761 02680 20508 10002 21044 30171 40182 51003 60002 82500 333 10051 21001 30101 55066 60007 70000 82640 90710 91111 93100 555 60005
AAXX 20064 07790 02665 22109 10031 21037 30156 40171 58002 60002 82501 333 10057 20010 30102 55/// 60007 70000 81640 90710 91113 93100 555 60005
BBXX VCXF 20064 99464 70484 41295 83641 10030 2003/ 49864 57035 76162 886// 22200 02030 20506 301// 40802 80030
AAXX 20064 61901 169// /1314 10163 20121 39667 40176 53009 60002 90550 333 20155 3/014 70008 8//99 555 7/090
AAXX 20064 61902 32582 21409 10225 20187 40138 82800 333 20225 58001 81822
AAXX 20064 88878 46/// /1002 10090 20080 49981 57003
AAXX 20064 88883 46/// /3207 10094 20090 49983 57001
AAXX 20064 88889 12582 50305 10092 20055 39913 49996 58002 60001 81532 90550 333 81620 84365
AAXX 20061 02741 17499 72403 11001 21007 39992 40008 52019 60022 70087 83/// 90539 333 10020 21002 3/101
AAXX 20061 02755 37565 81302 11003 21005 39876 49972 52010 70087 88/// 90539 333 10006 21004 3//// 4/010
AAXX 20061 02805 17157 71501 11008 21014 39823 49955 54001 69992 77170 87/// 90539 333 10005 21008 3/102
AAXX 20061 02807 47781 82501 11058 21061 39783 49968 785// 88/// 90600 333 11037 21075 3////
AAXX 20061 02836 17416 70000 11044 21046 39745 49971 52005 60012 77187 87/// 90539 333 11024 21061 3/110 4/035
AAXX 20061 02845 47550 82301 11011 21011 39720 49968 52006 74187 88/// 90539 333 11009 21022 3/102 4/039
AAXX 20061 02849 47533 81702 11019 21020 39698 49973 52005 77174 88/// 90539 333 11013 21023 3////
AAXX 20061 02866 17182 81702 10000 20000 39825 49974 52005 69932 72287 88/// 90539 333 10002 21009 3/102 4/022
AAXX 20061 02897 47399 81201 11003 21007 39799 49981 700// 88/// 90600 333 10004 21005 3////
AAXX 20061 02913 47125 81601 10006 20003 39911 49963 761// 88/// 333 10013 20005 3////
AAXX 20061 02917 47270 81202 10002 20002 39859 49982 781// 88/// 90600 333 10009 20000 3////
AAXX 20061 02924 47161 81901 10001 20001 39775 49972 52014 78087 88/// 90539 333 10006 21001 3/101
AAXX 20061 02926 17459 82202 10021 20020 39966 49978 52018 60012 781// 88/// 90600 333 10023 20006 3////
AAXX 20061 02935 17028 81501 10000 21001 39803 49977 52014 69972 77170 88/// 90539 333 10008 21001 3/100 4/009
AAXX 20061 02939 17114 71804 10001 20001 39806 40000 54002 60022 77187 87/// 90539 333 10005 21003 3/102 4/012
AAXX 20061 02944 47282 82004 10005 20004 39837 49984 777// 88/// 90600 333 10008 20003 3////
AAXX 20061 02947 47356 81902 10016 20012 49996 52016 76186 88/// 90551 333 10017 20002
AAXX 20061 02974 11370 82205 10015 20006 39945 40012 52018 60032 76186 885// 333 10027 20015 32001
AAXX 20061 02976 46/// /2211 10035 20029 30002 40018 52015 90539 333 10039 20027 3////
AAXX 20061 02981 17359 72512 10025 20011 30004 40014 52019 60022 78186 85/// 90539 333 10039 20019 3////
AAXX 20061 02982 46/// /2614 10025 20013 30007 40015 52020 90539 333 10039 20022 3////
AAXX 20061 02963 NIL
BBXX 44007 20061 99435 70701 46/// /2411 10062 20009 40075 50000 90550 22200 00080 10703 20703 3//// 41002 70015 333 91213 555 11116 22123 30451 42414 60549 242109 241109 241109 241109 241110 240107
AAXX 20064 48698 01464 80306 10281 20250 30060 40078 69941 70586 83848 333 69947 82816 87276
BBXX 42039 20061 99288 70860 46/// /1410 10222 40188 58015 90550 22200 00224 10704 20704 70020 333 91212 555 11108 22115 30503 41313 60549 141102 143100 139103 136103 136104 135095 81411 90512
BBXX 41040 20061 99145 70530 46/// /0409 10267 20238 40129 58019 90550 22200 00280 11004 20703 3//// 41003 70021 333 91211 555 11096 22101 30529 40311 60549 035090 031093 032090 030081 031084 034081 80310 90537
BBXX 46072 20061 99517 71722 46/// /3310 10025 21029 49904 53040 90550 22200 00047 11108 20704 3//// 41106 70038 333 91213 555 11104 22110 30513 43413 60549 331098 336105 333105 338106 340108 343106 83412 90501
BBXX 46026 20061 99378 71228 46/// /3201 10109 40191 53008 90550 22200 00111 11305 20401 330// 41305 70024 333 91202 555 11015 22015 30514 42904 60549 317014 307019 297021 302027 309019 298019
BBXX 46041 20061 99474 71247 46/// /1805 10081 40294 55000 90550 22200 00085 11204 20301 3//// 41204 70019 333 91206 555 11056 22059 30520 41706 60549 177053 175053 170056 167051 169048 172049
AAXX 20064 78397 112570 71104 10254 20198 30143 40159 60001 86801 333 00909 10316 20225 58006 81822 86640 86074
BBXX 46082 20061 99597 71434 46/// ///// 10051 20051 40040 53029 90550 22200 00064 11207 70034
BBXX 46072 20061 99517 71722 46/// /3310 10025 21029 49904 53040 90550 22200 00047 11108 20704 3//// 41106 70038 333 91213 555 11104 22110 30513 43413 60549 331098 336105 333105 338106 340108 343106 83412 90501
BBXX 46035 20061 99571 71778 46/// /3201 1//// 49857 51009 90550 22200 11007 20401 300// 41007 70036 333 91202 555 11009 22010 30508 43308 60549 323009 346013 331029 326034 344046 358044 83307 90508
BBXX 46077 20061 99579 71543 46/// /2607 10026 21015 40015 53027 90550 22200 00051 10904 20602 3//// 40903 70019 333 91208 555 11074 22077 30526 42510 60549 258070 256068 252076 252072 254075 256078 82608 90455
BBXX 51004 20061 99175 71524 46/// /0809 10228 20199 90550 555 11097 22104
BBXX 51002 20061 99171 71578 46/// /0610 10230 40143 53008 90550 22200 00251 333 91212 555 11107 22113 30502 40513 60549 062101 070102 067098 057101 053102 049105
BBXX 51100 20061 99236 71539 46/// /0711 10223 40212 53014 90550 22200 00233 10906 20805 309// 40904 70032 333 91214 555 11117 22125 30540 40714 60549 074112 071111 069111 071113 068107 066110
AAXX 20064 48698 01464 80306 10281 20250 30060 40078 69941 70586 83848 333 69947 82816 87276
AAXX 20061 02741 17499 72403 11001 21007 39992 40008 52019 60022 70087 83/// 90539 333 10020 21002 3/101
AAXX 20061 02755 37565 81302 11003 21005 39876 49972 52010 70087 88/// 90539 333 10006 21004 3//// 4/010
AAXX 20061 02805 17157 71501 11008 21014 39823 49955 54001 69992 77170 87/// 90539 333 10005 21008 3/102
AAXX 20061 02807 47781 82501 11058 21061 39783 49968 785// 88/// 90600 333 11037 21075 3////
AAXX 20061 02836 17416 70000 11044 21046 39745 49971 52005 60012 77187 87/// 90539 333 11024 21061 3/110 4/035
AAXX 20061 02845 47550 82301 11011 21011 39720 49968 52006 74187 88/// 90539 333 11009 21022 3/102 4/039
AAXX 20061 02849 47533 81702 11019 21020 39698 49973 52005 77174 88/// 90539 333 11013 21023 3////
AAXX 20061 02866 17182 81702 10000 20000 39825 49974 52005 69932 72287 88/// 90539 333 10002 21009 3/102 4/022
AAXX 20061 02897 47399 81201 11003 21007 39799 49981 700// 88/// 90600 333 10004 21005 3////
AAXX 20061 02913 47125 81601 10006 20003 39911 49963 761// 88/// 333 10013 20005 3////
AAXX 20061 02917 47270 81202 10002 20002 39859 49982 781// 88/// 90600 333 10009 20000 3////
AAXX 20061 02924 47161 81901 10001 20001 39775 49972 52014 78087 88/// 90539 333 10006 21001 3/101
AAXX 20061 02926 17459 82202 10021 20020 39966 49978 52018 60012 781// 88/// 90600 333 10023 20006 3////
AAXX 20061 02935 17028 81501 10000 21001 39803 49977 52014 69972 77170 88/// 90539 333 10008 21001 3/100 4/009
AAXX 20061 02939 17114 71804 10001 20001 39806 40000 54002 60022 77187 87/// 90539 333 10005 21003 3/102 4/012
AAXX 20061 02944 47282 82004 10005 20004 39837 49984 777// 88/// 90600 333 10008 20003 3////
AAXX 20061 02947 47356 81902 10016 20012 49996 52016 76186 88/// 90551 333 10017 20002
AAXX 20061 02974 11370 82205 10015 20006 39945 40012 52018 60032 76186 885// 333 10027 20015 32001
AAXX 20061 02976 46/// /2211 10035 20029 30002 40018 52015 90539 333 10039 20027 3////
AAXX 20061 02981 17359 72512 10025 20011 30004 40014 52019 60022 78186 85/// 90539 333 10039 20019 3////
AAXX 20061 02982 46/// /2614 10025 20013 30007 40015 52020 90539 333 10039 20022 3////
AAXX 20061 02963 NIL
BBXX BATEU06 20064 99493 70671 46/// /2826 11043 21090 49999 53041 22254 00014
BBXX BATFR19 20064 99065 30060 46/// /2212 10237 20199 40139 53015 22200 00255
BBXX BATFR42 20064 99506 70019 46/// /2913 10082 20054 40151 53023 22283 00114
AAXX 20061 76040 32902 11401 10110 20081 30157 40171 52003 81004 90542 333 10128 20080 30/// 55075 59007 98602
AAXX 20061 76225 32920 00000 10040 21088 38608 40122 52017 90540 333 10158 20040 30/// 55093 58///
AAXX 20061 76323 32910 00000 10062 21118 38257 40135 52050 90540 333 10220 30/// 58001
AAXX 20061 76342 32940 01501 10125 20099 39463 40163 52011 90550 333 10240 20102 30/// 55085 20606 59022
AAXX 20061 76373 32910 00000 10040 21065 38196 40139 52015 90550 333 10220 20080 30/// 55098 21772 58015
AAXX 20061 76382 32960 03401 10140 20052 38867 40079 52012 90550 333 10282 20140 30/// 55077 2//// 58001
AAXX 20061 76390 31950 02103 10135 21020 38198 40063 52011 70544 90530 333 10245 20120 30/// 55087 21297 59024
AAXX 20061 76393 31510 60601 10172 20123 39538 40106 52015 70544 86500 90550 333 10228 20110 30/// 55055 56500 59049 86620
AAXX 20061 76423 32960 03101 10108 20015 38137 40083 52010 90557 333 10250 20070 30/// 55095 21433 59018
AAXX 20061 76458 32960 03103 10161 20122 30132 40137 50000 90540 333 10236 20125 30/// 55098 59028
AAXX 20061 76525 32960 02010 10086 20024 37454 40101 55000 90540 333 10160 20071 30/// 55094 22593 59026
AAXX 20061 76548 32460 31302 10214 20202 30112 40122 50000 81130 90535 333 10282 20172 30/// 55076 56340 59096 81810
AAXX 20061 76556 32960 00701 10141 20118 39099 40105 52001 90535 333 10256 20118 30/// 55094 59039
AAXX 20061 76571 32910 01201 10138 20038 38154 40091 54002 90550 333 10254 30/// 55083 59024
AAXX 20061 76577 32560 10502 10142 20121 38036 40098 52008 81400 90540 333 10227 20096 30/// 55060 56500 59023 81624
AAXX 20061 76581 32960 00502 10149 20130 39017 40096 52010 90550 333 10280 20123 30/// 55070 59073
AAXX 20061 76593 32350 11403 10208 20199 30160 40162 52006 81200 90550 333 10290 20189 30/// 55090 2//// 56300 59040 81820 91005 91514
AAXX 20061 76632 31850 40503 10106 20051 37630 40075 52006 70511 84020 90540 333 10205 30/// 55/// 56050 59021 84458
AAXX 20061 76644 32350 11203 10224 20204 30148 40160 52006 81200 90550 333 10314 20196 30/// 55090 21392 561// 59047 81810
AAXX 20061 76654 31956 03601 10237 20213 30141 40145 52010 70544 90550 333 10302 20217 30/// 55068 20781 58000
AAXX 20061 76658 31758 11401 10211 20188 39632 40130 52005 70540 81040 90549 333 10325 20172 30/// 55092 56010 58/// 81356 98914
AAXX 20061 76662 32960 00501 10140 20073 38460 40104 52008 90545 333 10272 20115 30/// 55093 21044 59015
AAXX 20061 76665 32958 01702 10130 20085 38113 40091 52002 90550 333 10268 20075 30/// 55078 28482 59022
AAXX 20061 76675 32960 01802 10041 20002 37377 40090 54001 90551 333 10209 21011 30/// 55095 2//// 59020
AAXX 20061 76680 31962 01802 10134 20058 37747 40094 52005 70500 90550 333 10238 20078 30/// 55097 21092 5////
AAXX 20061 76683 31960 00000 10076 20040 37826 40138 51005 70544 90540 333 10221 20018 31019 50291 55097 21914 59028 90078 90093 90096 98260 98942
AAXX 20061 76685 32950 00000 10106 21026 37864 40100 52005 90545 333 10222 20038 30/// 55105 59033
AAXX 20061 76695 32956 01001 10206 20191 30132 40138 58002 90545 333 10316 20163 30/// 55094 59048
AAXX 20061 76743 31930 01801 10225 20201 30116 40124 57003 70000 90550 333 10290 20203 30/// 55067 59073
AAXX 20061 76750 32558 43602 10235 20217 30141 40151 57006 82130 90550 333 10310 20190 30/// 55065 56220 59039 81820
AAXX 20061 76762 31902 01201 10176 20155 38760 40107 51005 74144 90536 333 10303 20130 30/// 55093 21152 59023
AAXX 20061 76805 32960 20201 10238 20232 30131 40134 51007 80001 90550 333 10315 20228 30/// 55095 20786 56//1 59005 82059
AAXX 20061 76845 32930 00000 10076 37954 40158 51001 90535 333 10220 20030 30/// 55096 59019
AAXX 20061 76848 32950 00000 10118 20097 38384 40096 56005 90550 333 10217 20096 30/// 55071 59024
AAXX 20061 76311 32920 00000 10090 39862 40139 52007 90548 333 10248 30/// 55074 59036
AAXX 20061 76405 32940 00000 10156 20135 30136 40158 50001 90550 333 10224 20110 30/// 55089 2//// 59031
AAXX 20061 76412 32960 00000 10108 20078 30097 40143 52002 90545 333 10242 20108 30/// 55094 59058
AAXX 20061 76647 32365 40902 10221 20207 30138 40169 57004 84200 90550 333 10304 20174 30/// 55076 56200 59057 84808
BBXX BATFR48 20064 99149 51479 46/// /1211 10262 20224 40138 22242 00297
BBXX BATEU09 20064 99415 10126 46/// /3418 10057 20007 40160 52010 22232 00167
BBXX BATFR04 20064 99591 70083 44498 52822 10059 21003 40062 53008 70122 852// 22222 00104 330// 40308 5////
BBXX BATFR54 20064 99489 70061 46/// /3232 10109 20060 40193 50002 22283 00119
BBXX BATEU07 20064 99347 31153 46/// /1612 10199 40134 58023 22264
BBXX BATFR52 20064 99489 70040 46/// /3317 10119 20067 40203 53025 22243 00132
BBXX BATFR46 20064 99350 70066 44/97 00409 10147 20060 40270 52008 700// 22213 00174
BBXX BATFR11 20064 99360 10155 46/// /1509 10124 20065 40158 53008 22262 00175
BBXX BATFR35 20064 99175 51496 46/// /0820 10275 20204 40128 22242 00289
BBXX BATEU01 20064 99507 70222 44/96 /2425 10122 20114 40187 51011 700// 22224 00119 21004 328// 41004 5////
BBXX BATFR60 20064 99471 70024 46/// /3021 10117 20094 40183 56003 22223 00099
BBXX BATFR21 20064 99426 10089 46/// /2012 40170 57009 22261
BBXX BATFR12 20064 99482 70074 46/// /3115 10117 20087 40224 53002 22281 00142
BBXX BATEU08 20064 99598 70357 46/// /2931 10004 21051 40030 52002 22252
BBXX CGDS 20064 99450 70747 46/// /3309 11011 21066 4//// 5//// 7//// 8//// 22200 0//// 2////
AAXX 20064 48601 11560 70209 10306 20235 30071 40075 60001 70522 82231 333 82820 87078
AAXX 20064 48615 11462 70110 10285 20235 30080 40086 69941 70562 82241 333 82818 85364 86074
AAXX 20064 48620 11465 73401 10312 20242 30067 40076 6///1 70522 83932 333 81917 83365 87078
AAXX 20064 48647 11465 73203 10324 20254 30050 40074 69921 71522 83948 333 81917 83819 87275
AAXX 20064 48657 11468 73411 10279 20235 30061 40079 60021 70562 86938 333 81917 84624 86276
AAXX 20064 48665 11568 70304 10291 20247 30074 40084 6///1 70522 82272 333 82821 87364
AAXX 20064 96413 12575 70407 10307 20255 30029 40055 60001 85131 333 85822 84365 86080
AAXX 20064 96421 12470 71903 10310 20250 30019 40054 60001 84931 333 81915 84818 85080
AAXX 20064 96441 12480 73105 10317 20263 30022 40048 60001 83241 333 83816 87080
AAXX 20064 96449 11456 70709 10295 20264 30029 40048 69921 78122 83963 333 83814 81915 83365 85080
AAXX 20064 96465 12478 70208 10314 20253 30015 40048 60001 81842 333 81814 87080
AAXX 20064 96471 12477 73003 10332 20271 30044 40047 60001 83948 333 82814 81917 83364 87277
AAXX 20064 96481 11460 71406 10311 20261 30039 40058 69961 71582 83941 333 81916 84364 86080
AAXX 20064 96491 11465 60705 10302 20246 30050 40062 60011 70562 82831 333 82816 86080
AAXX 20061 76040 32902 11401 10110 20081 30157 40171 52003 81004 90542 333 10128 20080 30/// 55075 59007 98602
AAXX 20061 76225 32920 00000 10040 21088 38608 40122 52017 90540 333 10158 20040 30/// 55093 58///
AAXX 20061 76323 32910 00000 10062 21118 38257 40135 52050 90540 333 10220 30/// 58001
AAXX 20061 76342 32940 01501 10125 20099 39463 40163 52011 90550 333 10240 20102 30/// 55085 20606 59022
AAXX 20061 76373 32910 00000 10040 21065 38196 40139 52015 90550 333 10220 20080 30/// 55098 21772 58015
AAXX 20061 76382 32960 03401 10140 20052 38867 40079 52012 90550 333 10282 20140 30/// 55077 2//// 58001
AAXX 20061 76390 31950 02103 10135 21020 38198 40063 52011 70544 90530 333 10245 20120 30/// 55087 21297 59024
AAXX 20061 76393 31510 60601 10172 20123 39538 40106 52015 70544 86500 90550 333 10228 20110 30/// 55055 56500 59049 86620
AAXX 20061 76423 32960 03101 10108 20015 38137 40083 52010 90557 333 10250 20070 30/// 55095 21433 59018
AAXX 20061 76458 32960 03103 10161 20122 30132 40137 50000 90540 333 10236 20125 30/// 55098 59028
AAXX 20061 76525 32960 02010 10086 20024 37454 40101 55000 90540 333 10160 20071 30/// 55094 22593 59026
AAXX 20061 76548 32460 31302 10214 20202 30112 40122 50000 81130 90535 333 10282 20172 30/// 55076 56340 59096 81810
AAXX 20061 76556 32960 00701 10141 20118 39099 40105 52001 90535 333 10256 20118 30/// 55094 59039
AAXX 20061 76571 32910 01201 10138 20038 38154 40091 54002 90550 333 10254 30/// 55083 59024
AAXX 20061 76577 32560 10502 10142 20121 38036 40098 52008 81400 90540 333 10227 20096 30/// 55060 56500 59023 81624
AAXX 20061 76581 32960 00502 10149 20130 39017 40096 52010 90550 333 10280 20123 30/// 55070 59073
AAXX 20061 76593 32350 11403 10208 20199 30160 40162 52006 81200 90550 333 10290 20189 30/// 55090 2//// 56300 59040 81820 91005 91514
AAXX 20061 76632 31850 40503 10106 20051 37630 40075 52006 70511 84020 90540 333 10205 30/// 55/// 56050 59021 84458
AAXX 20061 76644 32350 11203 10224 20204 30148 40160 52006 81200 90550 333 10314 20196 30/// 55090 21392 561// 59047 81810
AAXX 20061 76654 31956 03601 10237 20213 30141 40145 52010 70544 90550 333 10302 20217 30/// 55068 20781 58000
AAXX 20061 76658 31758 11401 10211 20188 39632 40130 52005 70540 81040 90549 333 10325 20172 30/// 55092 56010 58/// 81356 98914
AAXX 20061 76662 32960 00501 10140 20073 38460 40104 52008 90545 333 10272 20115 30/// 55093 21044 59015
AAXX 20061 76665 32958 01702 10130 20085 38113 40091 52002 90550 333 10268 20075 30/// 55078 28482 59022
AAXX 20061 76675 32960 01802 10041 20002 37377 40090 54001 90551 333 10209 21011 30/// 55095 2//// 59020
AAXX 20061 76680 31962 01802 10134 20058 37747 40094 52005 70500 90550 333 10238 20078 30/// 55097 21092 5////
AAXX 20061 76683 31960 00000 10076 20040 37826 40138 51005 70544 90540 333 10221 20018 31019 50291 55097 21914 59028 90078 90093 90096 98260 98942
AAXX 20061 76685 32950 00000 10106 21026 37864 40100 52005 90545 333 10222 20038 30/// 55105 59033
AAXX 20061 76695 32956 01001 10206 20191 30132 40138 58002 90545 333 10316 20163 30/// 55094 59048
AAXX 20061 76743 31930 01801 10225 20201 30116 40124 57003 70000 90550 333 10290 20203 30/// 55067 59073
AAXX 20061 76750 32558 43602 10235 20217 30141 40151 57006 82130 90550 333 10310 20190 30/// 55065 56220 59039 81820
AAXX 20061 76762 31902 01201 10176 20155 38760 40107 51005 74144 90536 333 10303 20130 30/// 55093 21152 59023
AAXX 20061 76805 32960 20201 10238 20232 30131 40134 51007 80001 90550 333 10315 20228 30/// 55095 20786 56//1 59005 82059
AAXX 20061 76845 32930 00000 10076 37954 40158 51001 90535 333 10220 20030 30/// 55096 59019
AAXX 20061 76848 32950 00000 10118 20097 38384 40096 56005 90550 333 10217 20096 30/// 55071 59024
AAXX 20061 76311 32920 00000 10090 39862 40139 52007 90548 333 10248 30/// 55074 59036
AAXX 20061 76405 32940 00000 10156 20135 30136 40158 50001 90550 333 10224 20110 30/// 55089 2//// 59031
AAXX 20061 76412 32960 00000 10108 20078 30097 40143 52002 90545 333 10242 20108 30/// 55094 59058
AAXX 20061 76647 32365 40902 10221 20207 30138 40169 57004 84200 90550 333 10304 20174 30/// 55076 56200 59057 84808
AAXX 20064 48300 31562 12402 10232 20154 39819 40133 57035 70140 81101 333 59001
AAXX 20064 48327 32962 01902 10270 20123 39791 40144 57038 333 58003
AAXX 20064 48331 NIL
AAXX 20064 48353 31650 22804 10257 20132 39845 40135 57036 70500 82200 333 59006
AAXX 20064 48356 31950 30303 10267 20141 39942 40139 57032 70500 83030 333 59008
AAXX 20064 48375 NIL
AAXX 20064 48378 31557 22203 10285 20167 30079 40131 57029 70500 81505 333 59004
AAXX 20064 48381 32560 30310 10270 20135 39916 40133 56034 82135 333 59010
AAXX 20064 48407 31959 63403 10276 20153 39973 40114 57030 70522 81035 333 59008
AAXX 20064 48431 32960 20205 10271 20155 39909 40122 57038 80005 333 59013
AAXX 20064 48456 NIL
AAXX 20064 48480 32960 30204 10301 20171 30093 40097 57031 81035 333 59003
AAXX 20064 48500 31956 33505 10286 20206 30094 40101 57030 70511 80005 333 59010
AAXX 20064 48551 31557 60208 10285 20218 30089 40097 57022 71022 83876 333 59003
AAXX 20064 48565 32560 60608 10311 20213 30075 40084 57017 81146 333 59006
AAXX 20064 48569 11459 70310 10285 20239 30050 40090 57023 60021 71062 85846 333 59004 70024
AAXX 20064 48583 01558 80606 10259 20226 30081 40087 57018 60091 72162 82876 333 59008 60045 70092
AAXX 20064 48310 32560 23204 10252 20143 39683 40138 57032 82500 333 59012
AAXX 20064 48325 31565 30000 10269 20152 39877 40119 57044 70141 81241 333 59007
AAXX 20064 48329 31558 20000 10260 20134 39795 40133 57030 70500 81205 333 58002
AAXX 20064 48352 32558 33404 10257 20145 39940 40141 57037 81146 333 59001
AAXX 20064 48357 31557 60403 10275 20143 39968 40136 57033 70510 82506 333 59011
AAXX 20064 48380 NIL
AAXX 20064 48383 31557 40910 10255 20156 39968 40128 57031 70511 84500 333 59013
AAXX 20064 48403 31956 20208 10268 20155 39918 40128 57035 70511 80005 333 59009
AAXX 20064 48405 31958 30506 10260 20153 39962 40125 57031 70511 80005 333 59007
AAXX 20064 48420 31956 70404 10290 20171 30103 40108 57031 70522 82056 333 59012
AAXX 20064 48421 31956 20000 10302 20178 39998 40110 57035 70500 80005 333 59010
AAXX 20064 48425 31957 20805 10279 20157 30117 40127 57030 70500 80005 333 59008
AAXX 20064 48426 NIL
AAXX 20064 48429 NIL
AAXX 20064 48430 31959 20807 10300 20150 30114 40121 56017 70500 80005 333 58000
AAXX 20064 48450 31957 00705 10290 20140 30088 40121 57032 70500 333 59003
AAXX 20064 48459 32960 30406 10300 20174 30101 40104 57033 82055 333 59010
AAXX 20064 48465 31958 20405 10294 20168 30105 40110 57029 70500 80005 333 59010
AAXX 20064 48550 31558 60906 10292 20223 30091 40098 57019 71022 82146 333 58000
AAXX 20064 48552 NIL
AAXX 20064 48566 32560 50303 10305 20216 30076 40084 57023 82145 333 59010
AAXX 20064 48568 11461 30306 10294 20234 30084 40091 57020 60051 70161 82201 333 59007 70092
AAXX 20061 76040 32902 11401 10110 20081 30157 40171 52003 81004 90542333 10128 20080 30/// 55075 59007 98602
AAXX 20061 76225 32920 00000 10040 21088 38608 40122 52017 90540 33310158 20040 30/// 55093 58///
AAXX 20061 76323 32910 00000 10062 21118 38257 40135 52050 90540 33310220 30/// 58001
AAXX 20061 76342 32940 01501 10125 20099 39463 40163 52011 90550 33310240 20102 30/// 55085 20606 59022
AAXX 20061 76373 32910 00000 10040 21065 38196 40139 52015 90550 33310220 20080 30/// 55098 21772 58015
AAXX 20061 76382 32960 03401 10140 20052 38867 40079 52012 90550 33310282 20140 30/// 55077 2//// 58001
AAXX 20061 76390 31950 02103 10135 21020 38198 40063 52011 70544 90530333 10245 20120 30/// 55087 21297 59024
AAXX 20061 76393 31510 60601 10172 20123 39538 40106 52015 70544 8650090550 333 10228 20110 30/// 55055 56500 59049 86620
AAXX 20061 76423 32960 03101 10108 20015 38137 40083 52010 90557 33310250 20070 30/// 55095 21433 59018
AAXX 20061 76458 32960 03103 10161 20122 30132 40137 50000 90540 33310236 20125 30/// 55098 59028
AAXX 20061 76525 32960 02010 10086 20024 37454 40101 55000 90540 33310160 20071 30/// 55094 22593 59026
AAXX 20061 76548 32460 31302 10214 20202 30112 40122 50000 81130 90535333 10282 20172 30/// 55076 56340 59096 81810
AAXX 20061 76556 32960 00701 10141 20118 39099 40105 52001 90535 33310256 20118 30/// 55094 59039
AAXX 20061 76571 32910 01201 10138 20038 38154 40091 54002 90550 33310254 30/// 55083 59024
AAXX 20061 76577 32560 10502 10142 20121 38036 40098 52008 81400 90540333 10227 20096 30/// 55060 56500 59023 81624
AAXX 20061 76581 32960 00502 10149 20130 39017 40096 52010 90550 33310280 20123 30/// 55070 59073
AAXX 20061 76593 32350 11403 10208 20199 30160 40162 52006 81200 90550333 10290 20189 30/// 55090 2//// 56300 59040 81820 9100591514
AAXX 20061 76632 31850 40503 10106 20051 37630 40075 52006 70511 8402090540 333 10205 30/// 55/// 56050 59021 84458
AAXX 20061 76644 32350 11203 10224 20204 30148 40160 52006 81200 90550333 10314 20196 30/// 55090 21392 561// 59047 81810
AAXX 20061 76654 31956 03601 10237 20213 30141 40145 52010 70544 90550333 10302 20217 30/// 55068 20781 58000
AAXX 20061 76658 31758 11401 10211 20188 39632 40130 52005 70540 8104090549 333 10325 20172 30/// 55092 56010 58/// 81356 98914
AAXX 20061 76662 32960 00501 10140 20073 38460 40104 52008 90545 33310272 20115 30/// 55093 21044 59015
AAXX 20061 76665 32958 01702 10130 20085 38113 40091 52002 90550 33310268 20075 30/// 55078 28482 59022
AAXX 20061 76675 32960 01802 10041 20002 37377 40090 54001 90551 33310209 21011 30/// 55095 2//// 59020
AAXX 20061 76680 31962 01802 10134 20058 37747 40094 52005 70500 90550333 10238 20078 30/// 55097 21092 5////
AAXX 20061 76683 31960 00000 10076 20040 37826 40138 51005 70544 90540333 10221 20018 31019 50291 55097 21914 59028 90078 9009390096 98260 98942
AAXX 20061 76685 32950 00000 10106 21026 37864 40100 52005 90545 33310222 20038 30/// 55105 59033
AAXX 20061 76695 32956 01001 10206 20191 30132 40138 58002 90545 33310316 20163 30/// 55094 59048
AAXX 20061 76743 31930 01801 10225 20201 30116 40124 57003 70000 90550333 10290 20203 30/// 55067 59073
AAXX 20061 76750 32558 43602 10235 20217 30141 40151 57006 82130 90550333 10310 20190 30/// 55065 56220 59039 81820
AAXX 20061 76762 31902 01201 10176 20155 38760 40107 51005 74144 90536333 10303 20130 30/// 55093 21152 59023
AAXX 20061 76805 32960 20201 10238 20232 30131 40134 51007 80001 90550333 10315 20228 30/// 55095 20786 56//1 59005 82059
AAXX 20061 76845 32930 00000 10076 37954 40158 51001 90535 333 1022020030 30/// 55096 59019
AAXX 20061 76848 32950 00000 10118 20097 38384 40096 56005 90550 33310217 20096 30/// 55071 59024
AAXX 20061 76311 32920 00000 10090 39862 40139 52007 90548 333 1024830/// 55074 59036
AAXX 20061 76405 32940 00000 10156 20135 30136 40158 50001 90550 33310224 20110 30/// 55089 2//// 59031
AAXX 20061 76412 32960 00000 10108 20078 30097 40143 52002 90545 33310242 20108 30/// 55094 59058
AAXX 20061 76647 32365 40902 10221 20207 30138 40169 57004 84200 90550333 10304 20174 30/// 55076 56200 59057 84808
AAXX 20064 48302 32960 21202 10156 20096 38485 40122 57013 80005 333 59012
AAXX 20064 48304 32965 00000 10248 20178 39678 40137 57033 333 59011
AAXX 20064 48334 31958 00000 10250 20129 39771 40133 57034 70500 333 59004
AAXX 20064 48360 NIL
AAXX 20064 48372 31558 33305 10276 20180 30085 40142 57023 70511 82235 333 58003
AAXX 20064 48373 NIL
AAXX 20064 48386 31530 22005 10278 20156 30080 40123 57034 70500 81105 333 59008
AAXX 20064 48387 NIL
AAXX 20064 48408 32960 40504 10290 20177 39963 40111 57034 82035 333 59008
AAXX 20064 48415 32960 10412 10298 20155 30105 40116 57037 80005 333 59009
AAXX 20064 48433 NIL
AAXX 20064 48437 31958 83505 10267 20163 39918 40127 57028 70522 80006 333 59012
AAXX 20064 48440 NIL
AAXX 20064 48451 32962 13608 10267 20161 30115 40126 57030 80001 333 59005
AAXX 20064 48454 NIL
AAXX 20064 48457 31940 60000 10255 20166 30099 40116 57027 70522 80006 333 59011
AAXX 20064 48463 31940 63615 10295 20173 30027 40120 58033 70522 80006 333 59007
AAXX 20064 48464 31958 00109 10286 20164 30098 40111 57024 70500 333 59005
AAXX 20064 48479 31958 50507 10288 20159 30053 40105 57027 70511 80006 333 59002
AAXX 20064 48520 31959 40608 10300 20207 30085 40100 55023 70511 80005 333 59004
AAXX 20064 48554 31458 73610 10295 20229 30098 40102 57010 71022 85876 333 58007 70062
AAXX 20064 48563 32560 50309 10295 20215 30046 40081 57017 83245 333 59004
AAXX 20064 48571 11560 60209 10295 20229 30080 40091 57027 60031 70162 82846 333 59002 70038
BBXX CGDS 20064 99450 70747 46/// /3309 11011 21066 4//// 5//// 7//// 8//// 22200 0//// 2////
AAXX 20064 81401 06/// /0000 10228 20220 30101 40107 60001 333 55/// 60007 59001 7//// 555 60005
AAXX 20064 81408 06/// /0000 10227 2//// 30094 40102 60001 333 55/// 60007 59002 7//// 555 60005
BBXX CGDG 20064 99447 70636 46/// /2412 10048 20111 40038 56040 7//// 8//// 22200 0//// 2////
BBXX VRYO3 20064 99505 70003 46/// /0720 10100 20111 40116 51023 7//// 8//// 22254 00121 2////
BBXX CGSB 20064 99492 70681 46/// /3114 11055 21103 40032 53027 7//// 8//// 22200 0//// 2////
BBXX VOLG 20064 99466 70529 46/// /3122 11017 21034 40020 58029 7//// 8//// 22223 0//// 2////
BBXX CG2958 20064 99517 71281 46/// /2105 10081 20075 40227 51021 7//// 8//// 22200 0//// 2////
BBXX CGDX 20064 99490 70669 46/// /3017 11028 21078 40019 53024 7//// 8//// 22200 0//// 2////
BBXX 3FZK3 20064 99523 71392 46/// /2514 10064 20027 40179 53056 7//// 8//// 22223 0//// 2////
BBXX CGJK 20064 99484 71234 46/// /3603 10081 20060 40286 55008 7//// 8//// 22200 0//// 2////
BBXX VCLM 20064 99499 70612 46/// /1728 11014 21016 49950 56090 7//// 8//// 22263 00014 2////
BBXX VOKF 20064 99490 70669 46/// /2924 11031 21085 40011 53021 7//// 8//// 22200 0//// 2////
BBXX CZ9742 20064 99506 70969 46/// /1918 11065 21090 40126 57054 7//// 8//// 22200 0//// 2////
BBXX CG2960 20064 99423 70830 46/// /0209 10017 21039 4//// 5//// 7//// 8//// 22200 0//// 2////
BBXX C6SI6 20064 99318 11209 46/// /1006 10091 20051 40257 56027 7//// 8//// 22200 0//// 2////
BBXX CGBR 20064 99543 71303 46/// /1210 10075 20069 40090 51014 7//// 8//// 22200 0//// 2////
BBXX VCRG 20064 99474 70619 46/// /2003 10001 21002 40005 56050 7//// 8//// 22200 0//// 2////
BBXX CG2350 20064 99433 70798 46/// /3406 10024 21028 40202 52032 7//// 8//// 22200 0//// 2////
BBXX VAAZ 20064 99545 70531 46/// /2409 11051 21087 40063 56022 7//// 8//// 22241 0//// 2////
BBXX CGTF 20064 99476 70527 46/// /2803 11002 21019 40036 58011 7//// 8//// 22200 0//// 2////
BBXX VOKJ 20064 99478 70526 46/// /3326 11003 21025 40022 58023 7//// 8//// 22281 0//// 2////
BBXX VCWL 20064 99456 70735 46/// /3304 11023 21090 40142 51049 7//// 8//// 22200 0//// 2////
BBXX VOFG 20064 99456 70614 46/// /1907 10013 20003 40036 56066 7//// 8//// 22200 0//// 2////
BBXX CGDT 20064 99468 70712 46/// /2306 11030 21084 40100 51033 7//// 8//// 22200 0//// 2////
BBXX CGBN 20064 99447 70636 46/// /2508 10053 20039 40026 56040 7//// 8//// 22200 0//// 2////
BBXX VOPP 20064 99456 70735 46/// /3109 11028 21091 4//// 5//// 7//// 8//// 22200 0//// 2////
BBXX CGBY 20064 99487 71235 46/// /1504 10076 20047 40288 55001 7//// 8//// 22200 0//// 2////
BBXX VCBW 20064 99468 70712 46/// /2613 11025 21087 40080 51018 7//// 8//// 22200 0//// 2////
AAXX 20064 48307 32562 10000 10274 20136 39761 40138 57032 81100 333 59009
AAXX 20064 48324 31557 20613 10270 20132 39922 40141 57027 71000 81105 333 59003
AAXX 20064 48333 NIL
AAXX 20064 48350 32664 23205 10259 20163 39836 40136 57034 82200 333 59002
AAXX 20064 48355 NIL
AAXX 20064 48358 31559 20802 10270 20147 39963 40138 56031 70500 81105 333 59015
AAXX 20064 48384 31558 20903 10275 20152 39944 40133 56033 70500 82505 333 59008
AAXX 20064 48401 31958 23604 10288 20189 30024 40131 57032 70500 80005 333 59003
AAXX 20064 48404 31558 20513 10270 20155 39944 40122 58034 70510 81105 333 59012
AAXX 20064 48409 NIL
AAXX 20064 48419 31959 50104 10290 20161 30108 40116 56028 70511 80005 333 59010
AAXX 20064 48427 32961 20608 10276 20165 30115 40123 57032 80002 333 58006
AAXX 20064 48435 32960 10816 10255 20136 39687 40124 57024 80001 333 59009
AAXX 20064 48453 32960 30503 10297 20170 30107 40110 57031 80001 333 59006
AAXX 20064 48458 32960 60504 10285 20165 30043 40123 57033 80001 333 59008
AAXX 20064 48474 31957 30115 10295 20143 39983 40105 57032 70500 80005 333 59010
AAXX 20064 48481 NIL
AAXX 20064 48555 31558 60000 10288 20225 30083 40125 55016 71022 83276 333 59002
AAXX 20064 48556 32560 60112 10300 20230 30071 40087 57019 82106 333 59004
AAXX 20064 48557 32562 40410 10315 20229 30058 40093 57016 82101 333 58001
AAXX 20064 48560 31558 60905 10292 20232 30094 40099 56016 71022 82846 333 59004 70549
AAXX 20064 48574 11560 70304 10287 20230 30059 40088 57020 69901 70162 86836 333 58000 79999
AAXX 20064 48581 31558 81007 10280 20243 30050 40091 57029 71022 85246 333 59008 70002
AAXX 20061 11423 01982 12403 11056 21072 39242 42741 56024 69902 702// 81041 333 21058 3/111 48014 60005 79999 81359
AAXX 20061 11487 01677 52002 11040 21062 39522 40169 57016 60002 703// 84504 333 21040 3/109 41998 60005 70000 84633
AAXX 20061 11518 02680 31803 11043 21063 39706 40164 57013 69902 83500 333 21045 3/106 43001 60005 79999 83646
AAXX 20061 11603 01462 71103 11016 21038 39657 40154 57015 69902 770// 87500 333 21016 3/102 47001 69905 79999 87610
AAXX 20061 11659 02662 81102 11032 21040 39508 40170 57012 60002 885// 333 21055 3/110 42001 60005 70000 88639
AAXX 20061 11723 02665 72902 11041 21070 39865 40176 57010 60002 87500 333 21062 34110 60005 70000 87643
AAXX 20061 11782 01956 22402 11082 21095 39858 40182 56007 60002 71000 80002 333 21097 34112 60005 70000 82075
AAXX 20061 01427 11584 10603 11010 21027 39995 40011 53004 60002 70200 81400 333 21018 70013 91104
BBXX VCSZ 20064 99455 70735 46/// /3310 11017 21053 40135 51049 7//// 8//// 22200 0//// 2////
BBXX VXKF 20064 99471 70594 46/// /1921 11014 21030 40036 56055 7//// 8//// 22214 0//// 2////
BBXX VAAP 20064 99446 70636 46/// /2509 10055 20043 40031 56039 7//// 8//// 22200 0//// 2////
BBXX CG2958 20064 99517 71281 46/// /2105 10081 20075 40227 51021 7//// 8//// 22200 0//// 2////
BBXX CZ9742 20064 99506 70969 46/// /1918 11065 21090 40126 57054 7//// 8//// 22200 0//// 2////
BBXX CGDX 20064 99490 70669 46/// /3017 11028 21078 40019 53024 7//// 8//// 22200 0//// 2////
BBXX VCLM 20064 99499 70612 46/// /1728 11014 21016 49950 56090 7//// 8//// 22263 00014 2////
BBXX CGBR 20064 99543 71303 46/// /1210 10075 20069 40090 51014 7//// 8//// 22200 0//// 2////
BBXX VAAZ 20064 99545 70531 46/// /2409 11051 21087 40063 56022 7//// 8//// 22241 0//// 2////
BBXX VRYO3 20064 99505 70003 46/// /0720 10100 20111 40116 51023 7//// 8//// 22254 00121 2////
BBXX VOKF 20064 99490 70669 46/// /2924 11031 21085 40011 53021 7//// 8//// 22200 0//// 2////
BBXX 3FZK3 20064 99523 71392 46/// /2514 10064 20027 40179 53056 7//// 8//// 22223 0//// 2////
BBXX CGDT 20064 99468 70712 46/// /2306 11030 21084 40100 51033 7//// 8//// 22200 0//// 2////
BBXX CGBN 20064 99447 70636 46/// /2508 10053 20039 40026 56040 7//// 8//// 22200 0//// 2////
BBXX CGSB 20064 99492 70681 46/// /3114 11055 21103 40032 53027 7//// 8//// 22200 0//// 2////
AAXX 20064 81401 06/// /0000 10228 20220 30101 40107 60001 333 55/// 60007 59001 7//// 555 60005
AAXX 20064 81408 06/// /0000 10227 2//// 30094 40102 60001 333 55/// 60007 59002 7//// 555 60005
BBXX C6SI6 20064 99318 11209 46/// /1006 10091 20051 40257 56027 7//// 8//// 22200 0//// 2////
BBXX CGTF 20064 99476 70527 46/// /2803 11002 21019 40036 58011 7//// 8//// 22200 0//// 2////
BBXX CG2350 20064 99433 70798 46/// /3406 10024 21028 40202 52032 7//// 8//// 22200 0//// 2////
BBXX CG2960 20064 99423 70830 46/// /0209 10017 21039 4//// 5//// 7//// 8//// 22200 0//// 2////
BBXX VCRG 20064 99474 70619 46/// /2003 10001 21002 40005 56050 7//// 8//// 22200 0//// 2////
BBXX VCBW 20064 99468 70712 46/// /2613 11025 21087 40080 51018 7//// 8//// 22200 0//// 2////
BBXX VOFG 20064 99456 70614 46/// /1907 10013 20003 40036 56066 7//// 8//// 22200 0//// 2////
BBXX VOLG 20064 99466 70529 46/// /3122 11017 21034 40020 58029 7//// 8//// 22223 0//// 2////
BBXX VOKJ 20064 99478 70526 46/// /3326 11003 21025 40022 58023 7//// 8//// 22281 0//// 2////
BBXX CGBY 20064 99487 71235 46/// /1504 10076 20047 40288 55001 7//// 8//// 22200 0//// 2////
BBXX VOPP 20064 99456 70735 46/// /3109 11028 21091 4//// 5//// 7//// 8//// 22200 0//// 2////
BBXX CGJK 20064 99484 71234 46/// /3603 10081 20060 40286 55008 7//// 8//// 22200 0//// 2////
BBXX CGDG 20064 99447 70636 46/// /2412 10048 20111 40038 56040 7//// 8//// 22200 0//// 2////
BBXX VCWL 20064 99456 70735 46/// /3304 11023 21090 40142 51049 7//// 8//// 22200 0//// 2////
AAXX 20063 91502 01451 80000 10250 20244 40057 53006 60261 78188 889// 333 56799 60267 87814 81915
AAXX 20063 91507 01475 70000 10285 20264 40052 53001 60021 78022 84976 333 56909 60027 82816 81917 85360
AAXX 20063 91520 31475 80000 10296 20253 40052 55000 70522 8487/ 333 56909 81818 83630 87360
AAXX 20063 91541 32480 70504 10303 20251 40071 57006 81297 333 56199 81818 87280
AAXX 20064 78958 11468 49902 10245 20217 30122 40132 70611 82802 333 10304 20216 58001 81817 84077
AAXX 20063 91502 01451 80000 10250 20244 40057 53006 60261 78188 889// 333 56799 60267 87814 81915
AAXX 20063 91507 01475 70000 10285 20264 40052 53001 60021 78022 84976 333 56909 60027 82816 81917 85360
AAXX 20063 91520 31475 80000 10296 20253 40052 55000 70522 8487/ 333 56909 81818 83630 87360
AAXX 20063 91541 32480 70504 10303 20251 40071 57006 81297 333 56199 81818 87280
AAXX 20064 78016 32664 63506 10166 20071 30234 40238 57005 86800 333 10168 20122 70030
AAXX 20064 78016 32664 63506 10166 20071 30234 40238 57005 86800 333 10168 20122 70030
AAXX 20064 78958 11468 49902 10245 20217 30122 40132 70611 82802 333 10304 20216 58001 81817 84077
AAXX 20064 78016 32664 63506 10166 20071 30234 40238 57005 86800 333 10168 20122 70030
AAXX 20064 64500 31358 83606 10255 20232 30099 40112 71799 889// 333 02300 20224 50021 55030 58006 85608 81920 88628 94947 95837
AAXX 20061 02947 47/56 81902 10016 20012 49996 52016 76186 88/// 90551 333 10017 20002 3////
AAXX 20064 60265 32970 20000 10049 21020 38955 48564 53005 80002 333 20027
AAXX 20064 60060 NIL
AAXX 20064 60105 NIL
AAXX 20064 60106 NIL
AAXX 20064 60107 NIL
AAXX 20064 60127 NIL
AAXX 20064 60141 NIL
AAXX 20064 60185 NIL
AAXX 20064 60190 NIL
AAXX 20064 60191 NIL
AAXX 20064 60195 NIL
AAXX 20064 60210 NIL
AAXX 20064 60220 NIL
AAXX 20064 60318 NIL
AAXX 20064 89642 41365 80809 11006 21010 39747 49799 56002 77077 887// 333 01244 55000 21645 85708 88626 91144
BBXX DBLK 20061 99705 50081 41399 12507 11056 21082 49830 51001 70200 81640 22200 05017 ICE 38792
AAXX 20064 60150 32960 01305 10058 20040 39601 40277 50002 333 20032 31001
AAXX 20064 60096 NIL
AAXX 20064 60101 NIL
AAXX 20064 60115 NIL
AAXX 20064 60135 NIL
AAXX 20064 60155 NIL
AAXX 20064 60156 NIL
AAXX 20064 60230 NIL
AAXX 20064 60252 NIL
AAXX 20061 11812 36/// /3210 11047 21081 39442 42746 57006 333 21050 3////
AAXX 20061 11813 12982 23105 11020 21071 39807 40168 57004 60002 81041 333 21028 34104 70000 81360 91010
AAXX 20061 11816 12965 10102 11006 21072 39998 40167 57005 60002 81070 333 21008 31103 70000 81360
AAXX 20061 11819 36/// /3205 11034 21058 39944 40169 57004 333 21035 3/105
AAXX 20061 11826 12960 29902 11037 21058 39958 40166 57004 60002 82040 333 21044 34107 70000 82360
AAXX 20061 11841 11550 50000 11056 21066 39777 40171 58008 60002 71041 81531 333 21066 34109 79999 81630 84360
AAXX 20061 11855 12865 23106 11019 21047 39983 40155 57004 60002 81042 333 21027 34104 70000 81358
AAXX 20061 11856 36/// /3402 11029 21053 39821 40151 57008 333 21031 3/106
AAXX 20061 11858 12965 43103 11023 21046 39998 40155 57005 60002 80004 333 21023 34104 70000 84070
AAXX 20061 11867 11958 20000 11042 21062 39828 40158 58008 60002 71011 82040 333 21044 34106 70000 82359
AAXX 20061 11880 11650 60000 11042 21047 39973 40152 58006 60002 71022 81541 333 21043 34108 70000 81640 83070
AAXX 20061 11900 16/// /0000 11030 21048 39811 40158 57005 60002 333 21030 3//// 70000
AAXX 20061 11903 12765 50000 11033 21033 39756 40150 57006 60002 81530 333 21037 34104 70000 81656 85360
AAXX 20061 11916 11/01 90506 11127 21147 37856 48386 58004 60012 74974 333 21127 3//// 48046 70013 89/00 93598
AAXX 20061 11918 11640 89901 11050 21058 39317 42750 57008 69992 77122 885// 333 21074 3/110 43008 70009 88643
AAXX 20061 11927 11765 72401 11006 21014 39871 40140 57008 69902 70272 875// 333 21014 3/102 43997 79999 87650
AAXX 20061 11930 11/00 93406 11163 21168 37227 47881 57006 60022 77174 333 21165 3//// 48046 70020 89/00 93562
AAXX 20061 11933 11/03 90000 11080 21083 38586 48403 58007 69972 77074 333 21080 3/109 48040 70007 89/00
AAXX 20061 11934 11357 82703 11038 21059 39304 42742 57006 69902 77022 8757/ 333 21049 3/106 42001 79999 81706 84643 88359
AAXX 20061 11938 11340 80408 11050 21073 39047 42729 58006 60012 77077 885// 333 21050 3/105 44016 70012 84708 88626
AAXX 20061 11952 16/// /3503 11037 21050 39295 42742 57008 60002 333 21043 3/106 70000
AAXX 20061 11958 36/// /3508 11075 21086 38665 48398 57007 333 21075 3////
AAXX 20061 11968 11665 70107 10005 21038 39846 40133 56007 69902 77172 875// 333 20000 3/100 43997 79999 84646 87657
AAXX 20061 11976 11667 83503 11003 21027 39874 40145 57010 69912 70272 885// 333 21007 3/101 43997 70001 88633
AAXX 20061 11978 11665 83407 10002 21012 39996 40130 56005 69912 72222 885// 333 20001 3/000 43997 70001 88646
AAXX 20061 11993 11640 70000 11007 21007 39917 40140 57010 69952 77122 87500 333 21020 3/103 47001 70005 87649
AAXX 20064 60285 32458 21005 10120 20100 40222 5//// 82500 333 20118 82616
AAXX 20064 60340 32965 32204 10017 20005 40294 58007 83070 333 20013 83360
AAXX 20061 14648 12765 23207 10044 21031 39989 40111 53005 60002 81540 333 20028 32001 55000 70175 81650
AAXX 20061 14652 11000 93411 11120 21123 37813 48398 51001 60022 74574 333 21120 3//// 49072 55000 70244 89/00
AAXX 20061 14542 NIL
AAXX 20061 14528 11660 70000 11013 21021 39874 40183 54000 60133 70272 84570 333 10004 21013 3/102 47033 55000 70261 84633 87460
AAXX 20061 14537 11320 82902 11008 21013 39982 40176 54000 60093 77377 8802/ 333 10009 21010 3/101 43019 55000 70163 88506
AAXX 20061 14544 11656 83602 11018 21030 39476 40164 51002 60023 77172 885// 333 10015 21020 3/103 43016 55000 70020 88640
AAXX 20061 14557 11456 80000 11006 21010 39786 40165 53004 60032 778// 887// 333 10045 21006 3/102 47009 55000 70078 88713
AAXX 20061 14640 11665 53204 11016 21046 39261 48407 51004 60033 70272 85200 333 10039 21021 3/103 47008 55000 70045 85836
BBXX CGDR 20064 99492 71239 46/// /0101 10070 20069 40284 53002 7//// 8//// 22200 0//// 2////
BBXX CG2965 20064 99487 71235 46/// /1604 10073 20045 40290 55001 7//// 8//// 22200 0//// 2////
BBXX CG2965 20064 99487 71235 46/// /1604 10073 20045 40290 55001 7//// 8//// 22200 0//// 2////
BBXX CGDR 20064 99492 71239 46/// /0101 10070 20069 40284 53002 7//// 8//// 22200 0//// 2////
AAXX 20064 86033 NIL
AAXX 20064 86086 32970 00000 10250 20204 39976 40065 52007
AAXX 20064 86097 32970 00505 10220 20088 39469 40112 54000
AAXX 20064 86134 32970 01205 10240 20154 39984 40070 56004
AAXX 20064 86170 NIL
AAXX 20064 86192 32970 00000 10244 20133 39887 40105 51001
AAXX 20064 86210 32970 01802 10250 20129 39735 40073 52010
AAXX 20064 86218 32970 00000 10212 20141 39984 40081 56004
AAXX 20064 86221 32970 00000 10228 20183 39960 40094 52005
AAXX 20064 86233 32970 00000 10210 20157 39896 40085 56004
AAXX 20064 86246 NIL
AAXX 20064 86255 NIL
AAXX 20064 86260 32970 00704 10256 20168 39914 40064 57016
AAXX 20064 86268 32970 03604 10200 20131 39925 40092 54000
AAXX 20064 86297 NIL
AAXX 20061 89061 379// 00501 10021 20008 39888 49895 52008 72164 333 91002 91105
AAXX 20061 45032 NIL
AAXX 20061 45035 36/// /0701 10199 20099 30142 40184 57001
AAXX 20061 45039 36/// /3302 10180 20093 30167 40182 57002
AAXX 20061 45044 36/// /1206 10182 20120 30089 40182 57002
AAXX 20061 45032 NIL
AAXX 20061 45035 36/// /0701 10199 20099 30142 40184 57001
AAXX 20061 45039 36/// /3302 10180 20093 30167 40182 57002
AAXX 20061 45044 36/// /1206 10182 20120 30089 40182 57002
AAXX 20061 89061 379// 00501 10021 20008 39888 49895 52008 72164 333 91002 91105
BBXX 41010 20061 99289 70785 46/// /1406 10203 40247 58012 90550 22200 00237 10903 20502 300// 40903 70016 333 91208 555 11057 22059
BBXX 41009 20061 99285 70802 46/// /1208 10217 20135 40237 58015 90550 22200 00250 10803 20602 300// 40802 70015 333 91210 555 11084 22088
BBXX 42057 20061 99168 70815 46/// /0810 10275 20219 40152 58006 90550 22200 00279 10804 20804 70020 333 91212 555 11095 22101 30450 40712 60549 076094 088082 090086 086087 083082 083092 80711 90550
BBXX 44011 20061 99411 70666 46/// /2411 10110 20081 40106 56024 90550 22200 00094 10807 20806 3//// 41102 70033 333 91213 555 11115 22125 30502 40514 60549 239106 238109 237107 236106 235115 235112
BBXX 41046 20061 99238 70683 46/// /0509 10229 20139 40216 58009 90550 22200 00257 11107 20604 300// 41106 70034 333 91211 555 11096 22101 30544 40511 60549 052091 050089 049088 055085 055079 048077 80510 90544
BBXX 46089 20061 99459 71258 46/// /2105 10088 20065 40303 57007 90550 22200 00092 11504 20501 327// 41504 70022 333 91206 555 11054 22057 30540 42106 60549 208052 208049 206047 203048 202045 199042
AAXX 20064 71805 04486 83604 11048 21077 30060 40069 58019 60002 700// 333 11026 21048 30106 55001 60007 70000 90710 91112 555 60005
BBXX CGCC 20064 99460 70731 46/// /3509 11044 21101 40142 51050 7//// 8//// 22200 0//// 2////
BBXX 51101 20061 99243 71621 46/// /0709 10237 20181 40213 53017 90550 22200 00240 11304 20603 335// 41303 70022 333 91211 555 11099 22106 30539 40711 60549 072093 070092 076089 074088 071090 073093
BBXX 46061 20061 99602 71468 46/// /2205 10029 40022 53015 90550 22200 00061 11105 20401 300// 41104 70023 333 91206 555 11048 22049 30505 42010 60549 219047 207056 200065 200066 204079 217071
BBXX 46083 20061 99582 71380 46/// /3109 10052 20013 40032 53038 90550 22200 00064 11409 20704 300// 41408 70045 333 91210 555 11093 22099 30518 43211 60549 313087 313086 312090 314089 315086 312090 83110 90523
AAXX 20064 16021 12960 03504 11108 21187 37898 48438 56005 60002 333 21112 43026 55/// 2//// 92842
AAXX 20064 16022 12980 02103 11108 21246 37769 48432 57006 60002 333 21122 48016 55078 2//// 92835
AAXX 20064 16033 12965 02202 11146 21177 38754 48448 57007 60002 333 21148 43020 55/// 2//// 92822
AAXX 20064 16040 13965 30000 11088 21097 39235 42765 5//// 60002 80001 333 21088 42998 55/// 2//// 92832
AAXX 20064 16052 11/01 90118 11150 21168 36519 47946 58003 60002 74741 333 21238 49999 55027 22832 89/01
AAXX 20064 16061 12984 01703 11008 21110 39322 42772 57016 60002 333 21008 30/// 55072 2////
AAXX 20064 16098 12980 03404 11028 21075 30115 40169 58002 60002 333 21036 34/// 55/// 2////
AAXX 20064 16138 11965 00000 11038 21055 30158 40170 56002 60002 702// 333 21038 34/// 55/// 2//// 92601
AAXX 20064 16148 12975 02604 11010 21017 30160 40173 58001 69922 333 21010 34/// 55025 2//// 55300
AAXX 20064 16168 12984 00114 10010 21124 39395 42756 53002 60002 333 20004 30/// 55/// 2////
AAXX 20064 16172 12965 00000 11048 21056 39871 40187 51000 60002 333 21048 32/// 55/// 2//// 92611
AAXX 20064 16179 11575 22108 11010 21035 39470 42761 55000 60022 70274 82100 333 21012 43012 55/// 2//// 82820 92842 93102
AAXX 20064 16224 12960 03514 10034 21010 39833 40159 53008 60002 333 20028 30/// 55067 2////
AAXX 20064 16232 NIL
AAXX 20064 16245 12965 03512 10014 21010 30133 40160 53011 60002 333 20012 30/// 55/// 2////
AAXX 20064 16253 NIL
AAXX 20064 16258 11/00 93422 11010 21040 39079 42698 55001 60012 74574 333 21016 44005 55/// 2//// 89/00
AAXX 20064 16263 12465 53108 11012 21026 38851 48414 53002 60002 85800 333 21014 44006 55/// 2//// 82810 84615 92822
AAXX 20064 16294 NIL
AAXX 20064 16337 11498 71215 10044 20021 39538 40118 52008 60042 795// 87000 333 20036 32/// 55/// 2//// 82918 83621 555 0436/
AAXX 20064 16344 11/00 91808 11040 21040 38218 48410 52004 60112 77074 333 21040 47040 55000 20605 89/00 95090 95190
AAXX 20064 16434 NIL
AAXX 20064 16450 11/00 93004 10002 20002 39035 48489 52005 69922 74541 333 20002 32/// 89/00
AAXX 20064 16459 12560 22708 10048 20025 30123 40159 52015 60002 82200 333 20042 30/// 55/// 2//// 82820
AAXX 20064 16546 12566 50000 10030 20017 30161 40191 53006 60032 84801 333 20026 31/// 55/// 2//// 82830 83640
AAXX 20064 16564 12598 42710 10090 20026 30037 40181 53005 60002 82231 333 20066 30/// 55/// 2//// 82820 555 0////
AAXX 20064 16232 11597 72928 10070 20052 30067 40121 52007 60032 70396 86870 333 20044 32/// 55041 20436 55300 82820 84626 555 0657/
AAXX 20064 13600 11650 80902 10050 20028 30042 40095 57010 60122 78088 883// 333 20044 32/// 81933 87646
AAXX 20064 13610 11540 70000 10050 20028 39665 40092 54002 60002 71022 87500 333 20026 31/// 87620
AAXX 20064 13611 11660 82204 10082 20079 39986 40077 57006 60082 76066 885// 333 20070 32/// 88633
AAXX 20064 13619 11910 00000 10018 20018 39317 42715 57020 60062 74562 333 21010 32///
AAXX 20064 13622 11665 80404 10076 20064 30068 40075 54004 60212 76066 885// 333 20065 32/// 88633
AAXX 20064 13624 11660 81404 10062 20045 30047 40086 54002 60122 76062 8252/ 333 20056 32/// 82646 86460
AAXX 20064 13625 NIL
AAXX 20064 13629 11656 82200 10008 20008 39027 42693 57017 60092 77076 885// 333 21004 41002 88636
AAXX 20064 13601 11558 80000 10062 20055 39961 40062 56010 60032 76166 8551/ 333 20062 32/// 85626 83460
AAXX 20064 13602 NIL
AAXX 20064 13623 11550 80000 10040 20040 30082 40088 54000 60252 76266 885// 333 20040 32/// 88626
AAXX 20061 10338 01445 81706 10010 21003 39991 40065 56026 69902 77171 8652/ 333 10020 20005 31102 55000 55300 20000 30000 69907 70007 84715 85620 88550 96010
AAXX 20064 16008 12960 03603 11112 21143 38459 48424 58016 60002 333 21112 43013 55/// 2//// 92830
AAXX 20064 16084 12975 12607 11046 21064 30000 40176 57004 60002 81030 333 21046 34/// 55079 20570 81363
AAXX 20064 16088 12970 43401 11062 21062 30051 40176 58002 60002 80001 333 21062 34/// 55/// 2//// 92600
AAXX 20064 16110 12998 00401 10016 21065 30159 40163 58006 60002 333 20014 30/// 55003 20296 555 0////
AAXX 20064 16134 12970 00305 11064 21096 37740 48435 53004 60002 333 21082 44004 55000 2//// 92845
AAXX 20064 16153 12999 01908 10060 21072 39909 40179 57006 60002 333 20060 30/// 55078 2//// 555 0////
AAXX 20064 16158 12960 01507 11022 21023 30164 40172 56005 60002 333 21032 34/// 55075 2////
AAXX 20064 16206 12982 00901 11034 21048 30163 40172 53001 60002 333 21036 34/// 55/// 2////
AAXX 20064 16219 42265 40329 11084 21089 38024 48426 53/// 6///2 81440 333 21086 43008 55000 2//// 81605 84356 92811 9500/ 9510/
AAXX 20064 16252 12962 03108 11004 21077 39170 42737 53004 60002 333 21010 45997 55020 2////
AAXX 20064 16280 12998 03612 10068 20015 39905 40130 53004 60002 333 20066 30/// 55052 2//// 555 0////
AAXX 20064 16310 12598 23503 10050 20035 39890 40116 52009 60002 82500 333 20040 30/// 55023 2//// 82630 555 0////
AAXX 20064 16320 12560 52710 10040 20031 30094 40107 53003 60002 81170 333 20038 31001 55043 20744 55300 81820 83358 555 0216/
AAXX 20064 16325 12598 42814 10052 20015 30087 40101 53007 60002 84500 333 20052 30/// 55/// 2//// 84630 98070 555 0100/
AAXX 20064 16360 12498 43111 10068 20053 39960 40096 52003 60032 82201 333 20060 31/// 55028 2//// 82814 555 0218/
AAXX 20064 16400 13497 63112 10082 21004 39860 40154 53006 69982 84270 333 20068 30/// 55000 2//// 84815 83358 555 0327/
AAXX 20064 16420 11497 72804 10090 20030 30070 40136 53008 60132 71796 86970 333 20072 32/// 55053 2//// 55300 85615 81920 85358 90945 96496 96562 555 0100/
AAXX 20064 16429 12565 53506 10086 20066 30157 40168 51007 69942 84270 333 20076 32/// 55016 2//// 55300 81820 83725 85359
AAXX 20064 16470 12560 72814 10108 20058 39940 40178 53005 60022 86570 333 20086 31/// 55043 2//// 55300 22/// 86620 85350 95000
AAXX 20064 16480 12498 23207 10058 20033 30086 40149 52009 60002 82200 333 20050 31/// 55025 2//// 55300 82815 555 0200/
AAXX 20064 16522 12598 23506 10100 20037 39929 40176 53007 60002 82200 333 20098 30/// 55035 2//// 55300 82820 555 0////
AAXX 20064 16539 13498 60305 10074 20068 30071 40188 53005 60022 82202 333 20060 32/// 55/// 2//// 82815 555 0////
AAXX 20064 16550 12998 03010 10068 20007 39980 40163 52008 60002 333 20058 30/// 55081 2//// 555 0////
AAXX 20064 16045 NIL
AAXX 20064 16090 12970 03103 11030 21038 30087 40174 58003 60002 333 21034 34/// 55063 20598 92600
AAXX 20064 16149 12565 32506 11009 21025 30153 40169 57001 60002 82130 333 21009 30/// 55/// 2//// 82830
AAXX 20064 16261 11558 72520 10034 20019 30045 40120 53001 69922 7616/ 83530 333 20030 31/// 55010 20297 83625 86358
AAXX 20064 16453 11997 20502 10072 20033 30090 40170 51009 60002 702// 82030 333 20070 30/// 55028 2//// 55300 82360 555 0100/
AAXX 20064 16560 12260 40102 10034 20008 30186 40193 53006 60042 84100 333 20026 32002 55052 20847 82705 83818
BBXX 51000 20061 99235 71541 46/// /0711 10224 40208 53014 90550 22200 00232 10907 20805 310// 40904 70033 333 91214 555 11121 22128 30528 40714 60549 071112 069111 071109 069112 068114 068109
BBXX 44008 20061 99405 70692 46/// /2613 10118 20073 40123 58015 90550 22200 00115 10909 20908 309// 41204 70044 333 91216 555 11142 22152 30452 42622 60549 259130 259129 258129 257134 253140 259154
BBXX 44172 20061 99445 70634 46/// ///// 1//// 90601 22200 00064 10805 20805 311// 41102 70026
BBXX 44097 20061 99410 70711 46/// ///// 1//// 90602 22200 00122 10807 20807 315// 41302 70036
AAXX 20064 61972 16/// /2012 10293 20181 40114 60004 333 20239 55/// 59006 90710 91124 555 60005
AAXX 20064 61980 12562 60914 10287 20220 40125 60514 81832 333 02037 20216 55026 58020 81823 85657 90710 91120 92437 555 60005
AAXX 20064 67005 12570 69901 10285 20236 40116 60114 84832 333 02400 20251 55064 58008 82822 83359 90710 91110 555 60005
BBXX 46232 20061 99325 71174 46/// ///// 1//// 90538 22200 00153 11403 20601 328// 41402 70013
BBXX 46247 20061 99378 71228 46/// ///// 1//// 90551 22200 00112 11305 21003 329// 41304 70026
BBXX 46243 20061 99462 71241 46/// ///// 1//// 90559 22200 00077 11303 21002 326// 41303 70017
BBXX 46236 20061 99368 71219 46/// ///// 1//// 90550 22200 00125 11305 21003 328// 41304 70023
BBXX 46229 20061 99438 71246 46/// ///// 1//// 90551 22200 00099 11405 21003 328// 41404 70023
BBXX 46225 20061 99329 71174 46/// ///// 1//// 90544 22200 00147 11402 21001 327// 41401 70008
BBXX 46213 20061 99403 71247 46/// ///// 1//// 90554 22200 00100 11108 21006 331// 41105 70038
BBXX 46215 20061 99352 71209 46/// ///// 1//// 90538 22200 00132 11105 21003 327// 41104 70023
AAXX 20061 01160 41989 00502 10021 21022 39948 49965 52005 70200 333 20021 91107
AAXX 20061 01241 11484 62510 10029 20006 39976 49987 52008 60022 71522 84962 333 20024 70053 91113
AAXX 20064 48380 32560 30502 10287 20157 30036 40129 57034 82105 333 59005
AAXX 20064 48383 31557 40910 10255 20156 39968 40128 57031 70510 84500 333 59013
AAXX 20064 48426 32962 20505 10296 20157 30103 40116 57035 80001 333 59012
BBXX 46218 20061 99345 71208 46/// ///// 1//// 90602 22200 00138 11406 20904 329// 41405 70032
AAXX 20064 48331 32560 10000 10264 20141 39910 40140 57036 81100 333 58000
AAXX 20064 48375 32965 00903 10285 20144 39880 40103 57038 333 59010
AAXX 20061 01001 11565 81306 10022 21002 39911 49923 57013 69912 70262 885// 333 20004 70002 91111
AAXX 20061 01055 46/// /0313 10039 20002 39960 49977 50002 333 20032 91119
AAXX 20061 01317 11983 01402 11020 21034 39992 40008 54001 60002 70110 333 21022 42998 70021 91103
AAXX 20064 48433 31959 53604 10271 20164 39954 40119 57035 70500 80006 333 59009
AAXX 20064 48440 31958 30000 10300 20184 30047 40096 57044 70500 80004 333 59016
BBXX 46219 20061 99332 71199 46/// ///// 1//// 90558 22200 00137 11505 20703 329// 41504 70025
BBXX 46214 20061 99379 71235 46/// ///// 1//// 90555 22200 00118 11207 21004 331// 41205 70034
BBXX 44099 20061 99369 70757 46/// ///// 1//// 90552 22200 00112 11102 20502 309// 41101 70011
BBXX 44039 20061 99411 70727 46/// /2511 10093 20034 40146 90545 22200 00094 10503 70014 333 91214
AAXX 20064 91503 31475 83608 10290 20240 40051 53001 70522 81237 333 56809 81819 88281
AAXX 20064 91517 11475 70000 10295 20254 40055 54000 69901 70522 8387/ 333 56799 82817 83628 87360
AAXX 20064 91503 31475 83608 10290 20240 40051 53001 70522 81237 333 56809 81819 88281
AAXX 20064 91517 11475 70000 10295 20254 40055 54000 69901 70522 8387/ 333 56799 82817 83628 87360
BBXX 44100 20061 99363 70756 46/// ///// 1//// 90552 22200 00114 11002 21002 308// 41101 70011
BBXX 41110 20061 99341 70777 46/// ///// 1//// 90551 22200 00139 11001 21001 310// 41101 70007
BBXX 42099 20061 99273 70842 46/// ///// 1//// 90557 22200 00231 10603 20603 70017
BBXX 41113 20061 99284 70805 46/// ///// 1//// 90551 22200 00212 10502 20502 308// 41201 70011
BBXX 41112 20061 99307 70813 46/// ///// 1//// 90551 22200 00157 10402 20402 70009
BBXX 42362 20061 99278 70907 46/// /1608 10228 20183 40166 90545
AAXX 20064 48355 31540 13603 10262 20145 39914 40133 57032 70500 81100 333 59008
AAXX 20064 89664 32461 13412 11028 21087 39770 49812 58029 81800 333 56300 81615
AAXX 20064 48601 11560 70209 10306 20235 30071 40075 60001 70522 82231 333 82820 87078
AAXX 20064 48615 11462 70110 10285 20235 30080 40086 69941 70562 82241 333 82818 85364 86074
AAXX 20064 48620 11465 73401 10312 20242 30067 40076 6///1 70522 83932 333 81917 83365 87078
AAXX 20064 48647 11465 73203 10324 20254 30050 40074 69921 71522 83948 333 81917 83819 87275
AAXX 20064 48650 11462 72005 10296 20254 30059 40077 69921 70522 83942 333 81917 83818 87078
AAXX 20064 48657 11468 73411 10279 20235 30061 40079 60021 70562 86938 333 81917 84624 86276
AAXX 20064 48665 11568 70304 10291 20247 30074 40084 6///1 70522 82272 333 82821 87364
AAXX 20064 96413 12575 70407 10307 20255 30029 40055 60001 85131 333 85822 84365 86080
AAXX 20064 96421 12470 71903 10310 20250 30019 40054 60001 84931 333 81915 84818 85080
AAXX 20064 96441 12480 73105 10317 20263 30022 40048 60001 83241 333 83816 87080
AAXX 20064 96449 11456 70709 10295 20264 30029 40048 69921 78122 83963 333 83814 81915 83365 85080
AAXX 20064 96465 12478 70208 10314 20253 30015 40048 60001 81842 333 81814 87080
AAXX 20064 96471 12477 73003 10332 20271 30044 40047 60001 83948 333 82814 81917 83364 87277
AAXX 20064 96481 11460 71406 10311 20261 30039 40058 69961 71582 83941 333 81916 84364 86080
AAXX 20064 96491 11465 60705 10302 20246 30050 40062 60011 70562 82831 333 82816 86080
BBXX 51204 20061 99213 71581 46/// ///// 1//// 90552 22200 00245 11503 20702 331// 41502 70014
BBXX 51202 20061 99214 71577 46/// ///// 1//// 90539 22200 00245 10906 20906 308// 41102 70029
AAXX 20064 61401 NIL
AAXX 20064 61404 32960 01406 10145 20093 39768 40165 333 0//00 20145 5//// 55/// 59013
AAXX 20064 61415 32958 03616 10166 20142 30160 40165 333 20166 50434 55070 59012
AAXX 20064 61421 NIL
AAXX 20064 61437 NIL
AAXX 20064 61442 32957 00305 10167 20053 30140 40144 333 01500 20167 51014 55105 59001
AAXX 20064 61450 NIL
AAXX 20064 61461 NIL
AAXX 20064 61489 NIL
AAXX 20064 61492 NIL
AAXX 20064 61497 NIL
AAXX 20064 61498 33960 00000 10140 20080 39991 40124 333 0//00 20140 5//// 55/// 58001
AAXX 20064 61499 32960 00406 10160 21050 39877 40134 333 0//00 20150 50764 55/// 58001
AAXX 20064 61510 NIL
AAXX 20061 06206 47462 82917 10083 20043 39959 40012 53004 78165 8//// 333 20057 81/10 83/17 85/24 91021 91122 91217
AAXX 20061 06207 47566 8//12 10071 20030 39954 40007 53001 70386 8//// 333 20022 85/33 88/37 91016 91118 91215
AAXX 20061 06239 47470 83515 10075 20044 3//// 4//// 5//// 70286 8//// 333 20053 81/10 83/12 85/16 91017 91117 91215
AAXX 20061 06252 46/// /3113 10084 20051 39984 40030 53009 222// 00095 10604 333 20062 91015 91116 91213
AAXX 20061 06260 17350 82302 10055 20050 30043 40045 55005 60052 78185 8//// 333 20008 3/000 70056 83/09 84/10 85/13 91004 91109 91205
AAXX 20061 06270 17662 42706 10059 20055 30018 40018 55006 60062 72387 8//// 333 20004 3/000 70066 83/39 84/46 91008 91111 91207
AAXX 20061 06290 17150 82005 10010 20009 30001 40042 56017 60052 71087 8//// 333 20000 3/000 70052 88/03 91008 91111 91206
AAXX 20061 06201 47565 83117 10083 20045 39964 40016 53010 70280 8//// 333 20055 83/29 87/32 88/50 91022 91122 91217
AAXX 20061 06203 47466 83011 10085 20048 39997 40048 53004 70385 8//// 333 20056 81/15 85/31 88/36 91014 91117 91213
AAXX 20061 06204 47467 73010 10085 20053 39982 40033 53010 72100 8//// 333 20062 81/15 83/20 85/36 91013 91117 91213
AAXX 20061 06205 47370 83210 10067 20047 39916 49975 53013 78186 8//// 333 20055 82/07 83/09 85/16 91011 91116 91213
AAXX 20061 06208 47562 82909 10079 20063 39958 40007 56010 70286 8//// 333 20012 82/20 84/25 85/28 91010 91116 91213
AAXX 20061 06211 45566 82915 10082 20041 39968 40024 53007 8//// 333 20050 81/29 84/34 88/39 91017 91119 91216
AAXX 20061 06212 47469 83113 10066 20034 39968 40031 53007 70385 8//// 333 2//// 83/13 85/16 85/21 91015 91115 91213
AAXX 20061 06235 17565 73007 10078 20056 30031 40031 53002 60042 70185 8//// 333 20012 3/001 70095 82/24 85/29 85/37 91010 91111 91209
AAXX 20061 06240 17461 83007 10075 20062 30047 40042 55000 60032 78185 8//// 333 20006 3/001 70036 85/13 87/18 88/26 91009 91111 91208
AAXX 20061 06251 17665 82808 10075 20053 30014 40015 55001 60032 70386 8//// 333 20021 3/002 70048 88/37 91012 91116 91213
AAXX 20061 06258 46/// /2505 333 91006 91115 91213
AAXX 20061 06269 17443 82304 10042 20042 30043 40037 55005 60042 72387 8//// 333 20004 3/000 70047 86/14 87/16 87/37 91005 91112 91208
AAXX 20061 06280 17138 82105 10015 20014 30016 40020 56017 60042 72387 8//// 333 20003 3/000 70039 84/02 87/04 88/05 91008 91111 91208
AAXX 20061 06310 17460 82909 10077 20058 30059 40069 53002 60042 78185 8//// 333 20025 3/002 70052 81/19 85/25 86/32 91013 91113 91209
AAXX 20061 06344 17467 82906 10076 20056 30060 40053 53003 60052 70386 8//// 333 20013 3/001 70068 81/16 83/30 88/42 91009 91112 91208
AAXX 20061 06370 17248 82404 10046 20042 30033 40059 55006 60052 78186 8//// 333 20004 3/000 70048 84/04 87/06 87/08 91005 91111 91207
AAXX 20061 06380 17156 82204 10032 20029 39932 40073 55009 60032 75187 8//// 333 20000 3/000 70031 86/03 88/04 91006 91114 91210
AAXX 20064 91574 46/// ///// 29094 39944 49950 56027
AAXX 20064 91570 NIL
AAXX 20064 91598 NIL
AAXX 20064 89664 32461 13412 11028 21087 39770 49812 58029 81800 333 56300 81615
AAXX 20064 91573 06/// /0516 10237 20229 39995 40092 55003 60261 333 58006 60237
AAXX 20064 91577 06/// /1601 10232 20213 30071 40092 55003 60171 333 58010 60177
AAXX 20064 91579 06/// /1014 10260 20199 30098 40106 55003 60001 333 58015 60007
AAXX 20064 91582 04970 61111 10254 20183 30074 40108 55004 60002 700// 333 10287 20241 3/024 55/// 60007 70000 90710 91120 555 60005
AAXX 20064 91583 06/// /1406 10250 20187 30089 40104 56006 60001 333 58012 60007
AAXX 20064 91587 06/// /1110 10256 20147 30071 40116 55004 60001 333 58020 60007
AAXX 20064 91590 04786 /0208 1//// 2//// 30055 4//// 55007 6///2 700// 333 1//// 2//// 55082 6///7 7//// 90710 91114 555 6///5
AAXX 20064 91592 06/// /0516 10263 20165 30026 40110 55002 60001 333 58009 60007
AAXX 20064 91596 06/// /0912 10244 20130 30013 40122 55006 60001 333 58018 60007
AAXX 20061 10439 11345 81803 11003 21011 39867 40092 57025 69932 77177 875// 333 10012 21004 3/101 44003 70004 85708 86612
AAXX 20064 78862 12480 60311 10247 20174 30134 40157 60001 86800 333 10281 20226 58012 84818 83636
AAXX 20064 KN015 BKN035
AAXX 20064 TAF TKPN 181600Z 1818/1918 05014KT 9999 SCT022 BKN036 PROB40 TEMPO 1818/1918 5000 SHRA BKN015 BKN035
AAXX 20064 TAF TQPF 181600Z 1818/1918 05014KT 9999 SCT022 BKN036 PROB40 TEMPO 1818/1918 5000 SHRA BKN015 BKN035
AAXX 20064 TAF TUPJ 181600Z 1818/1918 05014KT 9999 SCT022 BKN036 PROB40 TEMPO 1818/1918 5000 SHRA BKN015 BKN035
AAXX 20064 EMPO 0600/0624 SHRA BKN015=+TSRA SCT012CB
AAXX 20064 TAF TUPJ 041000Z 04012/0512 07008KT 9999 SCT016 BKN038 SCT270 TEMPO 0412/0512 SHRA BKN015 PROB40 TEMPO 0418/0512 5000 SHRA BKN014 BKN036 PROB30 0420/0512 4000 TSRA FEW012CB
AAXX 20064 918 4000 TSRA FEW012CB
AAXX 20064 N015 BKN036 PROB40 TEMPO 0704/0724 3000 +TSRA SCT011CB BKN012 BECMG 0712/0714 14008KT
AAXX 20064 21/2712 07017G28KT 5000 SHRA BKN015 BKN036 PROB TEMPO 2700/2712 4000 TSRA FEW013CB
AAXX 20064 PROB30 TEMPO 0800/0806 4000 TSRA FEW012CB PROB40 TEMPO 0800/0824 2000 +SHRA/TSRA SCT010CB BKN012 BKN250
AAXX 20063 61701 31959 20205 10155 20137 40117 71000 80002 333 20140 50451 55100 59002 82070
AAXX 20063 61705 NIL
AAXX 20063 61707 NIL
AAXX 20063 61711 NIL
AAXX 20063 61712 32960 02707 10135 20116 4//// 80000 333 20115 50401 55005 5////
AAXX 20063 61717 NIL
AAXX 20063 61720 NIL
AAXX 20063 61721 NIL
AAXX 20063 61722 NIL
AAXX 20063 61731 NIL
AAXX 20063 61733 NIL
AAXX 20061 03951 17960 /2906 10088 20056 30172 40198 50002 60002 7011/ 81/// 333 20087 3/007 81/64
AAXX 20061 03953 12670 82703 10090 20071 30165 40202 50000 69902 885// 333 20085 31006 55000 88632 92428
AAXX 20061 03955 11475 82804 10072 20049 39994 40193 53007 69902 75052 885// 333 20046 31005 55000 82712 85620 87640
AAXX 20061 03956 15466 /1802 10063 20046 30096 40174 50009 60002 88/// 333 20054 3/003 88/16
AAXX 20061 03962 11670 72703 10077 20057 30159 40183 52006 69902 70262 875// 333 20066 3/004 55000 87636
AAXX 20061 03963 17663 /2908 10088 20046 30152 40181 53008 69912 7038/ 87/// 333 20078 3/007 87/42
AAXX 20061 03966 15669 /2603 10057 20042 30084 40178 51010 60002 87/// 333 20052 3/004 83/33 87/40
AAXX 20061 03967 11480 72406 10050 20042 30045 40160 53007 69942 70362 81502 333 20048 31002 55000 81718 87070
AAXX 20061 03969 11480 72707 10046 20037 30050 40156 53006 69902 70261 82502 333 20046 31003 55016 81715 87070
AAXX 20061 03973 11575 62906 10053 20029 39911 40169 52005 69922 70261 85532 333 20045 31003 55018 85623 86360 86069
AAXX 20061 03976 11568 82704 10079 20059 30153 40165 58002 60012 72582 883// 333 20070 31006 55007 81920 81820 88636
AAXX 20061 03980 17572 /3110 10070 20026 30106 40131 53009 60022 72285 87/// 333 20060 3/005 81/28 82/32 84/40
AAXX 20064 89664 32461 13412 11028 21087 39770 49812 58029 81800 333 56300 81615
AAXX 20061 45007 12559 73302 10202 20087 30174 40183 57029 60001 83531 333 59019 81630 83360 85080
AAXX 20061 45007 12559 73302 10202 20087 30174 40183 57029 60001 83531 333 59019 81630 83360 85080
AAXX 20064 89532 41/25 80430 11010 21018 39871 49898 51033 77173 885// 333 00555 55092 22360 92972
AAXX 20061 01023 11689 70000 11060 21064 39879 49976 52002 60002 70222 85578 333 21078 48007 70000 91101
AAXX 20061 01392 11982 00000 11079 21087 39797 40032 53009 60002 70200 333 21079 41002 70000 91102
AAXX 20064 41859 31330 83102 10147 20130 30129 40168 70542 8562/ 333 56799 58001 70000 83710 85618 88458
AAXX 20064 41883 31308 80000 10145 20125 30145 40166 74244 8662/ 333 56699 58000 70000 84709 83615 88458
AAXX 20064 41891 31940 01202 10218 20110 30106 40146 70521 333 59010 70000
AAXX 20064 41907 NIL
AAXX 20064 41923 NIL
AAXX 20064 41936 NIL
AAXX 20064 41943 NIL
AAXX 20064 41950 NIL
AAXX 20064 41978 NIL
AAXX 20064 41992 NIL
AAXX 20061 01373 11989 00000 11137 21152 39844 40052 53011 60002 70200 333 21140 43015 70000 91101
AAXX 20061 01344 16/// ///// 11085 21105 60002 333 21085 4/075 70002
AAXX 20061 01471 16/// /3002 11077 21095 60002 333 21084 70000 91104
AAXX 20061 01150 16/// /0501 11061 21083 60002 333 21072 70000 91105
AAXX 20061 01230 16/// /0901 11091 21103 60002 333 21093 4/039 70006 91104
AAXX 20061 01232 16/// /1702 11017 21040 39936 40017 53003 60002 333 21023 4/029 70035 91107
AAXX 20061 01254 16/// /1801 11040 21046 60002 333 21041 4/022 70032 91102
AAXX 20061 01291 16/// /0000 11044 21051 60022 333 21060 4/022 70038 91102
AAXX 20061 01386 16/// ///// 11113 21127 60002 333 21113 70000
AAXX 20061 01470 16/// /0502 11071 21078 39912 40031 53007 60002 333 21072 4/006 70000 91105
AAXX 20061 01122 16/// /1401 11040 21049 39887 49978 52004 60002 333 21073 70000 91102
AAXX 20061 01132 16/// /0301 11054 21064 39588 49984 52005 69942 333 21071 70013 91102
AAXX 20061 01361 16/// /3501 11136 21154 38982 40057 55000 60002 333 21180 70014 91103
AAXX 20061 01378 16/// /3603 11088 21105 39729 40032 52008 60002 333 21089 70000 91105
AAXX 20061 01422 16/// /0904 11006 21039 60002 333 21008 70000 91106
AAXX 20061 01477 16/// /0000 11077 21085 69932 333 21077 4/018 70003 91102
OOXX AAUNI 20064 99798 50833 56093 07671 46/// /2105 11089 21185 39045 49942 52007 90600
BBXX DBBH 20061 99368 70115 41/98 20307 10146 20071 40306 53001 702// 22211 04178
AAXX 20064 65338 32956 70000 10235 20222 39925 40111 83032 333 02300 20235 50504 55072 58002 83361 85076
AAXX 20061 76040 32902 11401 10110 20081 30157 40171 52003 81004 90542 333 10128 20080 30/// 55075 59007 98602
AAXX 20061 76225 32920 00000 10040 21088 38608 40122 52017 90540 333 10158 20040 30/// 55093 58///
AAXX 20061 76323 32910 00000 10062 21118 38257 40135 52050 90540 333 10220 30/// 58001
AAXX 20061 76342 32940 01501 10125 20099 39463 40163 52011 90550 333 10240 20102 30/// 55085 20606 59022
AAXX 20061 76373 32910 00000 10040 21065 38196 40139 52015 90550 333 10220 20080 30/// 55098 21772 58015
AAXX 20061 76382 32960 03401 10140 20052 38867 40079 52012 90550 333 10282 20140 30/// 55077 2//// 58001
AAXX 20061 76390 31950 02103 10135 21020 38198 40063 52011 70544 90530 333 10245 20120 30/// 55087 21297 59024
AAXX 20061 76393 31510 60601 10172 20123 39538 40106 52015 70544 86500 90550 333 10228 20110 30/// 55055 56500 59049 86620
AAXX 20061 76423 32960 03101 10108 20015 38137 40083 52010 90557 333 10250 20070 30/// 55095 21433 59018
AAXX 20061 76458 32960 03103 10161 20122 30132 40137 50000 90540 333 10236 20125 30/// 55098 59028
AAXX 20061 76525 32960 02010 10086 20024 37454 40101 55000 90540 333 10160 20071 30/// 55094 22593 59026
AAXX 20061 76548 32460 31302 10214 20202 30112 40122 50000 81130 90535 333 10282 20172 30/// 55076 56340 59096 81810
AAXX 20061 76556 32960 00701 10141 20118 39099 40105 52001 90535 333 10256 20118 30/// 55094 59039
AAXX 20061 76571 32910 01201 10138 20038 38154 40091 54002 90550 333 10254 30/// 55083 59024
AAXX 20061 76577 32560 10502 10142 20121 38036 40098 52008 81400 90540 333 10227 20096 30/// 55060 56500 59023 81624
AAXX 20061 76581 32960 00502 10149 20130 39017 40096 52010 90550 333 10280 20123 30/// 55070 59073
AAXX 20061 76593 32350 11403 10208 20199 30160 40162 52006 81200 90550 333 10290 20189 30/// 55090 2//// 56300 59040 81820 91005 91514
AAXX 20061 76632 31850 40503 10106 20051 37630 40075 52006 70511 84020 90540 333 10205 30/// 55/// 56050 59021 84458
AAXX 20061 76644 32350 11203 10224 20204 30148 40160 52006 81200 90550 333 10314 20196 30/// 55090 21392 561// 59047 81810
AAXX 20061 76654 31956 03601 10237 20213 30141 40145 52010 70544 90550 333 10302 20217 30/// 55068 20781 58000
AAXX 20061 76658 31758 11401 10211 20188 39632 40130 52005 70540 81040 90549 333 10325 20172 30/// 55092 56010 58/// 81356 98914
AAXX 20061 76662 32960 00501 10140 20073 38460 40104 52008 90545 333 10272 20115 30/// 55093 21044 59015
AAXX 20061 76665 32958 01702 10130 20085 38113 40091 52002 90550 333 10268 20075 30/// 55078 28482 59022
AAXX 20061 76675 32960 01802 10041 20002 37377 40090 54001 90551 333 10209 21011 30/// 55095 2//// 59020
AAXX 20061 76680 31962 01802 10134 20058 37747 40094 52005 70500 90550 333 10238 20078 30/// 55097 21092 5////
AAXX 20061 76683 31960 00000 10076 20040 37826 40138 51005 70544 90540 333 10221 20018 31019 50291 55097 21914 59028 90078 90093 90096 98260 98942
AAXX 20061 76685 32950 00000 10106 21026 37864 40100 52005 90545 333 10222 20038 30/// 55105 59033
AAXX 20061 76687 31240 21801 10122 20107 38660 40136 57005 74040 82600 90545 333 10220 20084 30/// 55091 563// 59061 82708
AAXX 20061 76692 31920 01502 10228 20213 30112 40131 50001 71044 90545 333 10274 20179 30/// 55088 59082
AAXX 20061 76695 32956 01001 10206 20191 30132 40138 58002 90545 333 10316 20163 30/// 55094 59048
AAXX 20061 76737 32980 02901 10132 20106 38756 40128 57003 90535 333 10218 20129 30/// 55067 59060 91104 91529
AAXX 20061 76743 31930 01801 10225 20201 30116 40124 57003 70000 90550 333 10290 20203 30/// 55067 59073
AAXX 20061 76750 32558 43602 10235 20217 30141 40151 57006 82130 90550 333 10310 20190 30/// 55065 56220 59039 81820
AAXX 20061 76762 31902 01201 10176 20155 38760 40107 51005 74144 90536 333 10303 20130 30/// 55093 21152 59023
AAXX 20061 76805 32960 20201 10238 20232 30131 40134 51007 80001 90550 333 10315 20228 30/// 55095 20786 56//1 59005 82059
AAXX 20061 76833 31958 00000 10217 20192 30127 40129 52003 71000 90545 333 10320 20217 30/// 55095 59016 92040
AAXX 20061 76845 32930 00000 10076 37954 40158 51001 90535 333 10220 20030 30/// 55096 59019
AAXX 20061 76848 32950 00000 10118 20097 38384 40096 56005 90550 333 10217 20096 30/// 55071 59024
AAXX 20061 76311 32920 00000 10090 39862 40139 52007 90548 333 10248 30/// 55074 59036
AAXX 20061 76405 32940 00000 10156 20135 30136 40158 50001 90550 333 10224 20110 30/// 55089 2//// 59031
AAXX 20061 76412 32960 00000 10108 20078 30097 40143 52002 90545 333 10242 20108 30/// 55094 59058
AAXX 20061 76640 31010 31401 10204 20201 30114 40126 57005 70200 836// 90540 333 10258 20164 31/// 55037 566// 59068 83701
AAXX 20061 76647 32365 40902 10221 20207 30138 40169 57004 84200 90550 333 10304 20174 30/// 55076 56200 59057 84808
AAXX 20061 76741 31340 23201 10222 20206 30096 40115 52007 70544 82200 90535 333 10276 20193 30/// 55090 568// 58/// 82807
AAXX 20061 76855 32980 03402 10238 20200 30066 40125 52006 90545 333 10325 20210 30/// 55101 58/// 92000
AAXX 20061 11010 32657 30000 11041 21041 39792 40187 57017 333 21046 3/109 45997 82633
AAXX 20061 11012 12985 22103 11034 21051 39697 40185 58016 60002 82010 333 11008 21037 3/106 55300 92601
AAXX 20061 11022 12562 82904 11014 21062 39775 40174 58011 60002 885// 333 11001 21044 3/107 55300 88628
AAXX 20061 11035 32770 72903 10001 21061 39913 40173 57010 875// 333 10013 21003 87656
AAXX 20061 11036 32684 63303 11019 21060 39946 40177 57008 333 21038 30105 86645
AAXX 20061 11101 11565 51605 11024 21077 39629 40175 57026 69912 72272 85600 333 11012 21029 85625 91114
AAXX 20061 11120 12980 29901 11081 21088 39469 40215 57016 69902 333 21090 3/112 47001 81360 93197
AAXX 20061 11126 16/// /1602 11131 21230 37637 48428 58014 69902 333 11131 21160 55300
AAXX 20061 11130 12965 22502 11070 21084 39579 40199 57020 69912 80001 333 11035 21078 47011 82080 93102 555 10001 6993/
AAXX 20061 11146 NIL
AAXX 20061 11150 32980 11404 11053 21075 39625 40190 57018 333 21061 3/107 47002 81080
AAXX 20061 11155 17989 02606 11115 21149 38288 48427 58019 69902 7//8/ 333 11100 21119 3/113 48027 55300 93102
AAXX 20061 11157 31902 29901 11137 21148 39401 40232 56009 74840 80001 333 21160 3/118 44019 82077
AAXX 20061 11172 NIL
AAXX 20061 11190 12665 13004 11001 21076 39929 40170 56003 60002 81100 333 10023 21003 3/103 55300 91114
AAXX 20061 11204 32975 03103 11083 21134 39386 40223 57006 333 11048 21088 43002 555 11018 6000/
AAXX 20061 11212 31989 12902 1114721171 37749 48452 56008 70230 81500 333 21147 44018 81620 92610
AAXX 20061 11231 32380 12802 11075 21084 39601 40203 56006 333 21077 34110 81709
AAXX 20061 11240 32984 12102 11065 21084 39722 40183 55004 333 21066 34110 81361
AAXX 20061 11244 16/// /3501 11071 21080 39835 40182 57006 60002 333 10014 21072 55300
AAXX 20061 11389 12550 62303 11021 21033 39849 40187 56013 60002 865// 333 10002 21032 3/105 55300
AAXX 20061 37682 32997 23301 11076 21085 38213 48611 57004 82040 333 21120 7000/
AAXX 20061 37717 32595 61301 11036 21044 38169 48599 54000 84530 333 21048 7000/
AAXX 20061 37788 41495 60000 11028 21052 39355 40409 52006 71072 866// 333 21030 86710
AAXX 20061 13579 11460 83501 10017 20007 39256 40101 57004 60052 70226 885// 333 20015 32/// 83713 88630
AAXX 20061 06407 11458 72910 10078 20055 30080 40086 53002 60022 78086 878// 333 20028 32003 82817 86626 91114 91211
AAXX 20061 06447 NIL
AAXX 20061 06400 11466 72808 10081 20058 30080 40091 53002 60022 76152 878// 333 20034 31003 82818 86634 91116 91210
AAXX 20061 06428 NIL
AAXX 20061 06451 11256 82605 10054 20043 30009 40076 55001 60032 76186 878// 333 20009 32001 81706 83815 86628 91111 91208
AAXX 20061 06456 11014 82905 10034 20034 39719 40089 55005 60042 72174 886// 333 20001 3/100 42002 87701 91111 91208
AAXX 20061 06476 17/01 9//// 11004 21008 39421 40096 56007 60032 77177 333 21027 3/000 911// 912//
AAXX 20061 06479 11233 72404 10035 20034 39989 40069 56009 60072 75055 877// 333 20004 30100 85703 87707 91109 91206
AAXX 20061 06490 17157 82503 10005 21006 39506 40085 56009 60072 74177 333 21020 3/002 88/02 91115 91210
AAXX 20061 06590 11013 82203 11005 21005 39637 40099 57017 69902 77177 877// 333 21017 3/102 43004 87701 91110 91206
AAXX 20061 06431 NIL
AAXX 20061 06432 NIL
AAXX 20061 06449 11224 82804 10048 20041 39857 40086 55005 60052 75876 877// 333 20004 32000 87704 91112 91209
AAXX 20061 06450 11458 82605 10061 20047 30054 40070 55004 60062 72586 888// 333 20015 32001 82818 87624 91111 91207
AAXX 20061 06458 NIL
AAXX 20061 06465 NIL
AAXX 20061 06478 11142 82306 10027 20020 39855 40077 56009 60032 75087 867// 333 21002 32100 84703 86704 91114 91209
AAXX 20061 06496 NIL
AAXX 20061 76040 32902 11401 10110 20081 30157 40171 52003 81004 90542333 10128 20080 30/// 55075 59007 98602
AAXX 20061 76225 32920 00000 10040 21088 38608 40122 52017 90540 33310158 20040 30/// 55093 58///
AAXX 20061 76323 32910 00000 10062 21118 38257 40135 52050 90540 33310220 30/// 58001
AAXX 20061 76342 32940 01501 10125 20099 39463 40163 52011 90550 33310240 20102 30/// 55085 20606 59022
AAXX 20061 76373 32910 00000 10040 21065 38196 40139 52015 90550 33310220 20080 30/// 55098 21772 58015
AAXX 20061 76382 32960 03401 10140 20052 38867 40079 52012 90550 33310282 20140 30/// 55077 2//// 58001
AAXX 20061 76390 31950 02103 10135 21020 38198 40063 52011 70544 90530333 10245 20120 30/// 55087 21297 59024
AAXX 20061 76393 31510 60601 10172 20123 39538 40106 52015 70544 8650090550 333 10228 20110 30/// 55055 56500 59049 86620
AAXX 20061 76423 32960 03101 10108 20015 38137 40083 52010 90557 33310250 20070 30/// 55095 21433 59018
AAXX 20061 76458 32960 03103 10161 20122 30132 40137 50000 90540 33310236 20125 30/// 55098 59028
AAXX 20061 76525 32960 02010 10086 20024 37454 40101 55000 90540 33310160 20071 30/// 55094 22593 59026
AAXX 20061 76548 32460 31302 10214 20202 30112 40122 50000 81130 90535333 10282 20172 30/// 55076 56340 59096 81810
AAXX 20061 76556 32960 00701 10141 20118 39099 40105 52001 90535 33310256 20118 30/// 55094 59039
AAXX 20061 76571 32910 01201 10138 20038 38154 40091 54002 90550 33310254 30/// 55083 59024
AAXX 20061 76577 32560 10502 10142 20121 38036 40098 52008 81400 90540333 10227 20096 30/// 55060 56500 59023 81624
AAXX 20061 76581 32960 00502 10149 20130 39017 40096 52010 90550 33310280 20123 30/// 55070 59073
AAXX 20061 76593 32350 11403 10208 20199 30160 40162 52006 81200 90550333 10290 20189 30/// 55090 2//// 56300 59040 81820 9100591514
AAXX 20061 76632 31850 40503 10106 20051 37630 40075 52006 70511 8402090540 333 10205 30/// 55/// 56050 59021 84458
AAXX 20061 76644 32350 11203 10224 20204 30148 40160 52006 81200 90550333 10314 20196 30/// 55090 21392 561// 59047 81810
AAXX 20061 76654 31956 03601 10237 20213 30141 40145 52010 70544 90550333 10302 20217 30/// 55068 20781 58000
AAXX 20061 76658 31758 11401 10211 20188 39632 40130 52005 70540 8104090549 333 10325 20172 30/// 55092 56010 58/// 81356 98914
AAXX 20061 76662 32960 00501 10140 20073 38460 40104 52008 90545 33310272 20115 30/// 55093 21044 59015
AAXX 20061 76665 32958 01702 10130 20085 38113 40091 52002 90550 33310268 20075 30/// 55078 28482 59022
AAXX 20061 76675 32960 01802 10041 20002 37377 40090 54001 90551 33310209 21011 30/// 55095 2//// 59020
AAXX 20061 76680 31962 01802 10134 20058 37747 40094 52005 70500 90550333 10238 20078 30/// 55097 21092 5////
AAXX 20061 76683 31960 00000 10076 20040 37826 40138 51005 70544 90540333 10221 20018 31019 50291 55097 21914 59028 90078 9009390096 98260 98942
AAXX 20061 76685 32950 00000 10106 21026 37864 40100 52005 90545 33310222 20038 30/// 55105 59033
AAXX 20061 76687 31240 21801 10122 20107 38660 40136 57005 74040 8260090545 333 10220 20084 30/// 55091 563// 59061 82708
AAXX 20061 76692 31920 01502 10228 20213 30112 40131 50001 71044 90545333 10274 20179 30/// 55088 59082
AAXX 20061 76695 32956 01001 10206 20191 30132 40138 58002 90545 33310316 20163 30/// 55094 59048
AAXX 20061 76737 32980 02901 10132 20106 38756 40128 57003 90535 33310218 20129 30/// 55067 59060 91104 91529
AAXX 20061 76743 31930 01801 10225 20201 30116 40124 57003 70000 90550333 10290 20203 30/// 55067 59073
AAXX 20061 76750 32558 43602 10235 20217 30141 40151 57006 82130 90550333 10310 20190 30/// 55065 56220 59039 81820
AAXX 20061 76762 31902 01201 10176 20155 38760 40107 51005 74144 90536333 10303 20130 30/// 55093 21152 59023
AAXX 20061 76805 32960 20201 10238 20232 30131 40134 51007 80001 90550333 10315 20228 30/// 55095 20786 56//1 59005 82059
AAXX 20061 76833 31958 00000 10217 20192 30127 40129 52003 71000 90545333 10320 20217 30/// 55095 59016 92040
AAXX 20061 76845 32930 00000 10076 37954 40158 51001 90535 333 1022020030 30/// 55096 59019
AAXX 20061 76848 32950 00000 10118 20097 38384 40096 56005 90550 33310217 20096 30/// 55071 59024
AAXX 20061 76311 32920 00000 10090 39862 40139 52007 90548 333 1024830/// 55074 59036
AAXX 20061 76405 32940 00000 10156 20135 30136 40158 50001 90550 33310224 20110 30/// 55089 2//// 59031
AAXX 20061 76412 32960 00000 10108 20078 30097 40143 52002 90545 33310242 20108 30/// 55094 59058
AAXX 20061 76640 31010 31401 10204 20201 30114 40126 57005 70200 836//90540 333 10258 20164 31/// 55037 566// 59068 83701
AAXX 20061 76647 32365 40902 10221 20207 30138 40169 57004 84200 90550333 10304 20174 30/// 55076 56200 59057 84808
AAXX 20061 76741 31340 23201 10222 20206 30096 40115 52007 70544 8220090535 333 10276 20193 30/// 55090 568// 58/// 82807
AAXX 20061 76855 32980 03402 10238 20200 30066 40125 52006 90545 33310325 20210 30/// 55101 58/// 92000
AAXX 20061 76040 32902 11401 10110 20081 30157 40171 52003 81004 90542 333 10128 20080 30/// 55075 59007 98602
AAXX 20061 76225 32920 00000 10040 21088 38608 40122 52017 90540 333 10158 20040 30/// 55093 58///
AAXX 20061 76323 32910 00000 10062 21118 38257 40135 52050 90540 333 10220 30/// 58001
AAXX 20061 76342 32940 01501 10125 20099 39463 40163 52011 90550 333 10240 20102 30/// 55085 20606 59022
AAXX 20061 76373 32910 00000 10040 21065 38196 40139 52015 90550 333 10220 20080 30/// 55098 21772 58015
AAXX 20061 76382 32960 03401 10140 20052 38867 40079 52012 90550 333 10282 20140 30/// 55077 2//// 58001
AAXX 20061 76390 31950 02103 10135 21020 38198 40063 52011 70544 90530 333 10245 20120 30/// 55087 21297 59024
AAXX 20061 76393 31510 60601 10172 20123 39538 40106 52015 70544 86500 90550 333 10228 20110 30/// 55055 56500 59049 86620
AAXX 20061 76423 32960 03101 10108 20015 38137 40083 52010 90557 333 10250 20070 30/// 55095 21433 59018
AAXX 20061 76458 32960 03103 10161 20122 30132 40137 50000 90540 333 10236 20125 30/// 55098 59028
AAXX 20061 76525 32960 02010 10086 20024 37454 40101 55000 90540 333 10160 20071 30/// 55094 22593 59026
AAXX 20061 76548 32460 31302 10214 20202 30112 40122 50000 81130 90535 333 10282 20172 30/// 55076 56340 59096 81810
AAXX 20061 76556 32960 00701 10141 20118 39099 40105 52001 90535 333 10256 20118 30/// 55094 59039
AAXX 20061 76571 32910 01201 10138 20038 38154 40091 54002 90550 333 10254 30/// 55083 59024
AAXX 20061 76577 32560 10502 10142 20121 38036 40098 52008 81400 90540 333 10227 20096 30/// 55060 56500 59023 81624
AAXX 20061 76581 32960 00502 10149 20130 39017 40096 52010 90550 333 10280 20123 30/// 55070 59073
AAXX 20061 76593 32350 11403 10208 20199 30160 40162 52006 81200 90550 333 10290 20189 30/// 55090 2//// 56300 59040 81820 91005 91514
AAXX 20061 76632 31850 40503 10106 20051 37630 40075 52006 70511 84020 90540 333 10205 30/// 55/// 56050 59021 84458
AAXX 20061 76644 32350 11203 10224 20204 30148 40160 52006 81200 90550 333 10314 20196 30/// 55090 21392 561// 59047 81810
AAXX 20061 76654 31956 03601 10237 20213 30141 40145 52010 70544 90550 333 10302 20217 30/// 55068 20781 58000
AAXX 20061 76658 31758 11401 10211 20188 39632 40130 52005 70540 81040 90549 333 10325 20172 30/// 55092 56010 58/// 81356 98914
AAXX 20061 76662 32960 00501 10140 20073 38460 40104 52008 90545 333 10272 20115 30/// 55093 21044 59015
AAXX 20061 76665 32958 01702 10130 20085 38113 40091 52002 90550 333 10268 20075 30/// 55078 28482 59022
AAXX 20061 76675 32960 01802 10041 20002 37377 40090 54001 90551 333 10209 21011 30/// 55095 2//// 59020
AAXX 20061 76680 31962 01802 10134 20058 37747 40094 52005 70500 90550 333 10238 20078 30/// 55097 21092 5////
AAXX 20061 76683 31960 00000 10076 20040 37826 40138 51005 70544 90540 333 10221 20018 31019 50291 55097 21914 59028 90078 90093 90096 98260 98942
AAXX 20061 76685 32950 00000 10106 21026 37864 40100 52005 90545 333 10222 20038 30/// 55105 59033
AAXX 20061 76687 31240 21801 10122 20107 38660 40136 57005 74040 82600 90545 333 10220 20084 30/// 55091 563// 59061 82708
AAXX 20061 76692 31920 01502 10228 20213 30112 40131 50001 71044 90545 333 10274 20179 30/// 55088 59082
AAXX 20061 76695 32956 01001 10206 20191 30132 40138 58002 90545 333 10316 20163 30/// 55094 59048
AAXX 20061 76737 32980 02901 10132 20106 38756 40128 57003 90535 333 10218 20129 30/// 55067 59060 91104 91529
AAXX 20061 76743 31930 01801 10225 20201 30116 40124 57003 70000 90550 333 10290 20203 30/// 55067 59073
AAXX 20061 76750 32558 43602 10235 20217 30141 40151 57006 82130 90550 333 10310 20190 30/// 55065 56220 59039 81820
AAXX 20061 76762 31902 01201 10176 20155 38760 40107 51005 74144 90536 333 10303 20130 30/// 55093 21152 59023
AAXX 20061 76805 32960 20201 10238 20232 30131 40134 51007 80001 90550 333 10315 20228 30/// 55095 20786 56//1 59005 82059
AAXX 20061 76833 31958 00000 10217 20192 30127 40129 52003 71000 90545 333 10320 20217 30/// 55095 59016 92040
AAXX 20061 76845 32930 00000 10076 37954 40158 51001 90535 333 10220 20030 30/// 55096 59019
AAXX 20061 76848 32950 00000 10118 20097 38384 40096 56005 90550 333 10217 20096 30/// 55071 59024
AAXX 20061 76311 32920 00000 10090 39862 40139 52007 90548 333 10248 30/// 55074 59036
AAXX 20061 76405 32940 00000 10156 20135 30136 40158 50001 90550 333 10224 20110 30/// 55089 2//// 59031
AAXX 20061 76412 32960 00000 10108 20078 30097 40143 52002 90545 333 10242 20108 30/// 55094 59058
AAXX 20061 76640 31010 31401 10204 20201 30114 40126 57005 70200 836// 90540 333 10258 20164 31/// 55037 566// 59068 83701
AAXX 20061 76647 32365 40902 10221 20207 30138 40169 57004 84200 90550 333 10304 20174 30/// 55076 56200 59057 84808
AAXX 20061 76741 31340 23201 10222 20206 30096 40115 52007 70544 82200 90535 333 10276 20193 30/// 55090 568// 58/// 82807
AAXX 20061 76855 32980 03402 10238 20200 30066 40125 52006 90545 333 10325 20210 30/// 55101 58/// 92000
AAXX 20061 33135 11597 80603 10003 21018 39997 40180 57023 69902 72522 8332/ 333 21009
AAXX 20061 33317 11496 81202 11007 21014 39799 40144 57021 69922 78588 889// 333 21019 88912
AAXX 20061 33345 11296 80703 10011 20003 39947 40156 57026 69992 76165 8872/ 333 20004 88705
AAXX 20061 33393 NIL
AAXX 20061 33506 11/93 90504 10023 20023 39974 40173 57020 60032 78084 333 20007 96047
AAXX 20061 33587 11396 80602 10019 20016 39860 40126 57025 60052 76162 8802/ 333 20010 88007 555 32000
AAXX 20061 33631 11697 82702 10013 21019 39977 40123 57010 69902 70282 885// 333 20001 88640
AAXX 20061 33663 11497 80000 10018 20013 30021 40118 57025 60022 76176 8672/ 333 20014 86717
AAXX 20061 33658 11/07 93104 11018 21017 39825 40133 57010 60042 78584 333 21018 47003 96045
AAXX 20061 33711 11396 81305 10039 20034 39925 40136 57020 60102 78082 883// 333 20017 88707
AAXX 20061 33791 NIL
AAXX 20061 33837 11/06 91605 10080 20080 30051 40102 56012 60172 76386 333 20058 96045
AAXX 20061 33924 NIL
AAXX 20061 33946 32997 81303 10115 20034 39901 40117 56012 8805/ 333 20044
AAXX 20061 34300 11/04 91106 10016 20016 30005 40200 57022 60012 75165 333 20012 96045
AAXX 20061 34504 11232 81406 10038 20033 39986 40166 56014 60022 76362 8772/ 333 20019 87705
AAXX 20061 34519 11118 81307 10019 20014 39917 40197 57014 69982 71042 886// 333 20019 88702
AAXX 20061 34601 11348 81306 10043 20036 30032 40169 57014 69972 71022 886// 333 20032 88708
AAXX 20064 68392 36/// /2502 10205 20142 30146 4//// 57021 333 20148 91005 555 10258
AAXX 20064 68382 36/// /0604 10206 20148 39391 48570 58001 333 20157 91008 555 10274 91021
BBXX 51205 20061 99210 71564 46/// ///// 1//// 90548 22200 00242 10906 20905 309// 41102 70029
BBXX 46238 20061 99334 71195 46/// ///// 1//// 90550 22200 00144 11404 20802 328// 41403 70019
BBXX 46239 20061 99363 71221 46/// ///// 1//// 90551 22200 00131 11207 21004 331// 41206 70034
BBXX UFTA 20061 99849 71236 12596 82602 11184 21207 40032 54000 69942 8653/ 555 48043
AAXX 20061 01367 11289 13004 11144 21163 39596 40065 53009 60002 70200 81700 333 21144 47024 70000 91107
AAXX 20061 01028 11685 80505 10001 21016 30029 40049 58001 69902 70222 87500 333 21028 79999 91108
AAXX 20061 01049 16/// /3402 10015 21009 39967 49970 54001 60002 333 21018 70005 91106
AAXX 20061 01397 16/// /1001 11063 21068 39576 40024 52012 60002 333 21065 70000 91103
AAXX 20061 15015 02598 72601 11028 21044 39503 42717 56007 60002 87500 333 11013 21041 3/103 42998 60007 70000 91002 91102 92600
AAXX 20061 15020 01596 83001 11001 21001 39917 40120 57016 60022 77172 8657/ 333 10007 21005 3/101 43001 60027 70020 91002 91103 92801 96010
AAXX 20061 15090 01495 82901 10017 20017 30010 40104 57021 60042 76155 8662/ 333 10021 20013 31101 55300 10005 20000 30001 60037 70038 91003 91103 96010
AAXX 20061 15108 01/91 90000 11046 21046 38003 48433 57015 60052 77174 333 11045 21079 3//// 47012 60047 70051 92727 92800 93537
AAXX 20061 15120 01597 82302 11008 21025 39611 40119 57003 69902 77172 8457/ 333 11004 21011 34103 55300 10044 2//// 3//// 69907 79999 91002 91103
AAXX 20061 15150 01597 83101 10003 20003 39894 40112 56015 60022 76872 8557/ 333 10005 21003 31103 6///7 70018 91002 91103
AAXX 20061 15170 01496 81801 11021 21021 39310 42714 57010 60032 77172 8802/ 333 11021 21033 3/102 47006 60027 70035 91001 91101 96010 92800
AAXX 20061 15200 01594 83201 10004 20004 39973 40121 57002 69922 71072 885// 333 10013 20003 31001 60007 70002 91002 91102
AAXX 20061 15230 02997 80201 10001 21021 39823 40124 57002 60002 8807/ 333 10016 21005 34101 55300 10027 20001 3//// 60007 70000 91001 91102
AAXX 20061 15260 02998 82401 11008 21017 39570 40119 57005 60002 8807/ 333 10050 21012 31104 60007 70000 91001 91101 95000
AAXX 20061 15280 01/93 72002 11076 21093 37383 47905 57009 60012 74174 83532 333 11062 21087 3//// 48031 69947 70027 92825
AAXX 20061 15292 02597 80201 10013 20008 39821 40121 53002 60002 885// 333 10044 20013 31001 60007 70000 91002 91102
AAXX 20061 15310 01492 83102 10035 20035 30006 40093 56007 60022 74254 886// 333 10041 20025 31002 55300 10003 20001 3//// 69927 70042 91004 91104
AAXX 20061 15335 01497 81803 10096 20096 30080 40086 56012 60072 7616/ 8672/ 333 10096 20052 31104 6///7 70107 91005 91107
AAXX 20061 15346 01597 83501 10027 20022 39813 40107 57003 60022 70262 885// 333 10035 20022 31002 69977 70018 91001 91102
AAXX 20061 15350 02597 80702 10038 20026 39981 40103 56003 60012 885// 333 10046 20032 31002 60007 70019 91003 91104
AAXX 20061 15360 01497 81607 10092 20090 30075 40089 57012 60022 70262 886// 222// 06078 20301 333 10100 20083 3//// 60007 70017 91008 91109 92427
AAXX 20061 15410 01597 82601 10029 20024 30017 40114 57004 60032 76162 8802/ 333 10029 20020 31001 69937 70053 91001 91101
AAXX 20061 15420 01496 81001 10036 20035 39992 40105 55000 60032 75155 886// 333 10039 20020 31002 55300 0//// 20000 3//// 69917 70051 91002 91102 96010
AAXX 20061 15450 01493 83101 10017 20017 39868 40107 57006 60032 74474 886// 333 10019 20010 31002 55300 10014 20000 30000 60007 70036 91002 91102
AAXX 20061 15460 01492 83401 10033 20033 30069 40094 58007 69922 75342 886// 333 10043 20033 31003 69927 70076 91001 91102 96044
AAXX 20061 15470 01493 82901 10027 20027 39976 40105 57004 60002 7462/ 886// 333 10028 20021 31002 60007 70013 91002 91102
AAXX 20061 15480 01497 81502 10100 20100 30073 40090 56011 60102 76162 8672/ 222// 06073 2//// 333 10102 20088 31007 60037 70209 91005 91106 92427
AAXX 20064 91487 NIL
AAXX 20064 91490 11599 21208 10250 2022/ 40100 60001 70200 82100 333 563//
AAXX 20064 91533 NIL
AAXX 20064 91601 NIL
AAXX 20064 91610 11599 41018 10280 20232 40059 53008 60001 70211 82801 333 562/9
AAXX 20064 82820 86140 83080
AAXX 20064 91623 NIL
AAXX 20064 91629 NIL
AAXX 20064 91701 NIL
AAXX 20064 91487 NIL
AAXX 20064 91490 11599 21208 10250 2022/ 40100 60001 70200 82100 333 563//
AAXX 20064 91533 NIL
AAXX 20064 91601 NIL
AAXX 20064 91610 11599 41018 10280 20232 40059 53008 60001 70211 82801 333 562/9
AAXX 20064 82820 86140 83080
AAXX 20064 91623 NIL
AAXX 20064 91629 NIL
AAXX 20064 91701 NIL
AAXX 20064 91930 36/// ///// 10277 20224
AAXX 20064 91943 16/// /0909 10271 20221 30129 40131 51015 60054 333 20241 59003
AAXX 20064 89061 379// 00501 10021 20008 39888 49895 52008 72164 333 91002 91105
AAXX 20064 68024 32960 10506 10253 20111 48520 52010 80002 333 20172
AAXX 20064 68026 12960 60000 10223 20210 48503 52010 60044 86080 333 20198
AAXX 20064 68029 12960 21107 10235 20207 48527 52014 60994 82080 333 20202
AAXX 20064 68032 32960 20503 10267 20201 48529 52013 81082 333 20183
AAXX 20064 68038 42960 10305 10232 20149 48523 52015 80001 333 20169
AAXX 20064 68070 32960 11113 10230 20152 48544 52026 81080 333 20184
AAXX 20064 68234 32960 33609 10274 20090 48529 50009 83080 333 20186
AAXX 20064 68240 32960 30508 10254 20150 48532 52019 83080 333 20200
AAXX 20064 68320 32960 33604 10286 20121 48533 52012 82082 333 20195
AAXX 20064 68328 32960 23505 10267 20125 48520 52012 81082 333 20229
AAXX 20064 78958 11468 49902 10245 20217 30122 40132 70611 82802 333 10304 20216 58001 81817 84077
AAXX 20061 26554 32960 11904 11021 21042 30016 40184 52001 81030 333 21021 555 90011
AAXX 20061 26666 31232 81804 11023 21029 39986 40209 57004 71022 886// 333 21024 88704 555 90011
AAXX 20061 26850 32960 61301 11034 21048 39910 40192 57010 86030 333 21040 555 90010
AAXX 20061 26863 31230 81504 11012 21019 39964 40207 57011 72842 886// 333 21027 88704 93401
AAXX 20061 26941 32960 70801 11024 21033 39937 40182 57009 87070 333 21034 555 90010
AAXX 20061 26951 31312 81102 11023 21026 39979 40185 57013 71022 886// 333 21033 88707 555 90010
AAXX 20061 33008 11656 80402 11012 21028 39981 40164 57010 69902 77171 885// 333 21041 41997 88650 555 90010
AAXX 20061 33019 31936 70302 11030 21034 39989 40170 57013 71022 8705/ 333 21032 555 90010
AAXX 20061 33036 32962 71103 11007 21025 39945 40182 57016 8707/ 333 21009 555 90011
AAXX 20061 33041 32960 70801 11008 21026 30037 40197 57019 80004 333 21012 555 90011
AAXX 20064 03008 16/// /3024 10051 20000 39931 40000 53026 60052 90550 333 20046 70048 90710 91138 91036
AAXX 20064 03010 46/// /2926 10064 21005 40037 52015 333 90710 91135
AAXX 20064 03014 46/// /3026 10024 21021 40001 51021 90550 333 8//// 90710 91137
AAXX 20064 03031 17979 /3015 10012 21012 39750 40081 51021 60062 721// 90550 333 20011 3/100 55/// 553// 20000 70058 8//99
AAXX 20064 03034 15680 /2711 10052 20010 30068 40082 53014 69942 90550 333 20043 3/003 70094 83/38
AAXX 20064 03037 17774 /3207 10047 20015 30071 40093 50011 60012 723// 90550 333 20040 3/000 70106 87/50
AAXX 20064 03039 46/// /3121 11017 21047 90550 333 21023 90710 91131
AAXX 20064 03041 46/// /2611 11042 21044 90550 333 21054 90710 91128
AAXX 20064 03044 17780 /3109 10019 21007 39960 40060 52015 60052 721// 90550 333 20007 3/102 55/// 553// 20000 70148 81/50
AAXX 20064 03047 15/82 /2603 10025 21019 39795 40102 51018 60042 90550 333 20019 3/000 55/// 553// 20000 70104
AAXX 20064 03062 17679 /2613 10024 21004 30063 40068 52020 60022 721// 90550 333 20019 3/100 55/// 553// 20000 70060 82/32
AAXX 20064 03065 46/// /3608 11057 21063 90550 333 21058 90710 91136 91030
AAXX 20064 03068 11580 32816 10034 20004 30055 40064 53021 69942 70181 82830 90550 333 20029 31101 70054 81822 90710 91127
AAXX 20064 03072 46/// ///// 11039 21043 90550 333 21039 91000
AAXX 20064 03080 17883 /2609 10023 21009 39895 40068 52025 69922 721// 90550 333 20021 3/001 70002 84/57
AAXX 20064 03088 15980 /3018 10026 21005 39895 40061 53021 69902 90550 333 20007 3/000 55/// 553// 20000 70046 8//99 90710 91129
AAXX 20064 03094 15/63 /3029 10062 20017 30035 40040 51028 60052 90550 333 20025 3/002 70064 90710 91138
AAXX 20064 03105 17980 /3312 10043 20024 30103 40121 53014 60042 723// 90550 333 20043 3/003 70110 87/65
AAXX 20064 03132 17670 /3114 10059 20032 30100 40114 53010 60032 723// 90550 333 20052 3/003 70144 83/34 84/43 90710 91132
AAXX 20064 03144 15984 /2811 10034 21024 30046 40089 53025 60002 90550 333 20022 3/000 55/// 553// 20000 70046 8//99
AAXX 20064 03148 46/// /3223 10004 21026 90550 333 21002 90710 91127
AAXX 20064 03153 15771 /2808 10040 20019 39972 40111 53023 69922 90550 333 20032 3/001 55/// 553// 20000 70094 85/50
AAXX 20064 03155 16980 /2709 10012 21002 39801 40104 53020 69922 90550 333 20012 3/100 70026 8//99
AAXX 20064 03158 15984 /2917 10034 21004 39935 40074 53018 60002 90550 333 20032 3/001 55/// 553// 20000 70038 8//99 90710 91128
AAXX 20064 03210 16969 /3021 10053 20023 39956 40108 51012 60002 90550 333 20051 3/004 70096 8//99 90710 91130
AAXX 20064 03212 15677 /3103 10044 20020 30010 40110 53019 69922 90550 333 20044 3/002 70068 87/34
AAXX 20064 03214 15567 /3115 10068 20040 30095 40113 53025 60012 90550 333 20059 3/005 70112 81/23 90710 91127
AAXX 20064 03220 16182 ///// 10044 20016 30065 40100 50017 69922 90550 333 20039 3/002 70060 81/02
AAXX 20064 03225 16973 /3211 10035 21008 39798 40108 53024 69922 90550 333 20026 3/000 55/// 553// 20000 70046 8//99
AAXX 20064 03226 15582 /3310 10027 20007 39818 40098 53023 69942 90550 333 20023 3/001 70044 84/26
AAXX 20064 03227 46/// /3130 11019 2//// 90550 333 21019 90710 91140 91040
AAXX 20064 03230 16980 /3111 10026 21008 39822 40081 53017 60002 90550 333 20024 3/000 70030 8//99 91021
AAXX 20064 03238 15982 /2813 10029 21003 39907 40083 53022 69902 90550 333 20027 3/001 70046 8//99
AAXX 20064 03261 16975 /2910 10038 21003 30056 40097 53023 60002 90550 333 20022 3/101 70036 8//99
AAXX 20064 03265 15983 /3307 10039 20005 30066 40097 53024 69902 90550 333 20003 3/102 70038 8//99
AAXX 20064 03266 16983 /3011 10045 21001 30078 40095 53023 60002 90550 333 20038 3/001 70048 8//99
AAXX 20064 03275 15976 /2714 10029 21002 39885 40080 53024 60002 90550 333 20029 3/001 70006 8//99 90710 91128
AAXX 20064 03281 16/// /3021 10030 20003 69922 90550 333 20015 70014 90710 91130
AAXX 20064 03903 16672 /2806 10058 20028 30092 40150 53006 60012 90550 333 20040 3/001 55/// 553// 20000 70056 82/45 87/69
AAXX 20064 03904 15668 /1002 10029 20012 30085 40146 53006 60022 90550 333 20029 3/001 70040 81/35 87/66
AAXX 20064 03907 17568 /2509 10053 20033 30130 40137 51012 60032 781// 90550 333 20034 3/001 55000 55300 20000 70058 85/26 84/56
AAXX 20064 03911 16481 /2503 10028 20013 39866 40144 53017 69942 90550 333 20024 3/000 70056 82/19 84/32
AAXX 20064 03915 16580 /2809 10044 20035 30055 40134 53013 60012 90550 333 20030 3/000 70058 85/29 86/67
AAXX 20064 03916 16589 /3105 10044 20018 39941 40133 53019 60032 90550 333 20038 3/002 55/// 553// 20000 70080 81/25 83/56
AAXX 20064 03923 15970 /3106 10039 20011 39942 40141 53013 69902 90550 333 20039 3/001 70062 86/69
BBXX A8JK4 20064 99074 30822 41297 82616 10250 20236 40075 57015 75052 847// 22214 20402 3//// 4//// 5//// 80240 46379 1473201224
BBXX PHOB 20064 99050 10814 41398 83517 10265 20258 40083 50005 75085 847// 22222 00270 2//04 3//// 4//// 5//// 80260
BBXX PHJV 20063 99076 31217 41398 32612 10294 20270 40049 57024 70211 83262 22263 02302 20201 80276
BBXX PFBF 20063 99118 31525 41398 82614 10280 20193 40042 58005 70282 85720 22223 02282 20303 31500 40909 5//// 80220
BBXX PCDE 20063 99395 31391 41297 41103 10185 20136 40200 52010 7//00 83763 22223 2//// 324// 40602 80155
AAXX 20064 03301 16768 /3009 10062 20038 30071 40145 52014 60002 90550 333 20062 70120 81/50
AAXX 20064 03305 15580 /2721 10064 20006 39878 40142 50011 60072 90550 333 20063 3/005 70210 81/27 83/70 90710 91137 91033
AAXX 20064 03313 16571 /3012 10066 20032 30039 40134 51016 60012 90550 333 20064 3/004 70068 81/27 90710 91127
AAXX 20064 03316 17560 /3020 10062 20045 30114 40125 52016 60052 723// 90550 333 20056 3/005 70136 82/24 86/42 90710 91132
AAXX 20064 03318 16/// /3014 10067 20038 69982 90550 333 20063 70104
AAXX 20064 03321 16975 /3112 10071 20029 30115 40128 53021 69962 90550 333 20070 3/005 55/// 553// 20000 70062 8//99 91022
AAXX 20064 03330 17472 /3211 10035 20024 39751 40117 53016 60052 723// 90550 333 20034 3/003 70194 85/10 83/20 90710 91125 91023
AAXX 20064 03344 15779 /2808 10031 20012 39788 40110 53029 60012 90550 333 20031 3/001 70034 81/56
AAXX 20064 03346 16/// /2919 10035 20022 69922 90550 333 20035 3/002 70006 90710 91126
AAXX 20064 03348 17780 /3008 10050 20035 30010 40118 52022 60032 723// 90550 333 20049 3/003 55000 55300 20000 70098 84/50
AAXX 20064 03355 15981 /3009 10045 20016 30085 40096 53022 69902 90550 333 20045 3/001 55000 55300 20000 70028 8//99
AAXX 20064 03373 16975 /2813 10044 20020 30020 40090 53020 60002 90550 333 20029 3/002 70040 8//99
AAXX 20064 03379 16880 /2712 10049 20027 30021 40099 53020 60002 90550 333 20044 3/003 70046 84/57
AAXX 20064 03382 15983 /2813 10042 20018 30071 40079 53020 69902 90550 333 20035 3/002 55000 55300 20000 70012 8//99
AAXX 20064 03385 46980 /2815 10046 20027 30067 40077 53019 90550 333 20034 8//99
AAXX 20064 03391 11980 22913 10058 20016 30080 40087 53018 69902 70161 80002 90550 333 20029 31000 70026 82074
AAXX 20064 03392 16972 /2913 10044 20027 30078 40082 53017 69922 90550 333 20018 3/001 70022 8//99
AAXX 20064 03405 16480 /3118 10073 20053 30041 40157 50014 69942 90550 333 20073 3/006 55/// 553// 20000 70074 85/19 83/27 90710 91131 91028
AAXX 20064 03409 16/// /2710 10064 20019 60002 90550 333 20062 3/003 55000 55300 2//// 70008
AAXX 20064 03410 16674 /2905 10044 20022 39693 40132 53010 60012 90550 333 20044 3/001 55/// 553// 20000 70098 84/41
AAXX 20064 03469 15982 /2812 10044 20027 30083 40087 53015 69922 90550 333 20029 3/001 55/// 553// 20000 70016 8//99
AAXX 20064 03488 15980 /2716 10049 20034 30048 40074 53015 60012 90550 333 20036 70024 81/71 90710 91127
AAXX 20064 03503 17571 /3110 10078 20052 30074 40151 52014 60032 723// 90550 333 20073 3/006 70142 81/23 86/38
AAXX 20064 03507 17474 /3003 10054 20046 39776 40150 53012 60012 723// 90550 333 20051 3/003 70140 84/13 86/20
AAXX 20064 03520 16663 /3114 10066 20038 30016 40138 53018 69962 90550 333 20046 3/000 55/// 553// 20000 70030 81/31 86/41
AAXX 20064 03522 15681 /2809 10068 20039 30046 40139 52012 60002 90550 333 20061 3/003 70022 81/35
AAXX 20064 03529 15683 /3105 10043 20025 30092 40136 52021 69902 90550 333 20043 3/000 70030 81/30
AAXX 20064 03544 15575 /2809 10053 20033 39984 40116 52013 69922 90550 333 20045 3/003 55/// 553// 20000 70046 83/23
AAXX 20064 03560 15580 /2817 10054 20038 30002 40106 52010 60002 90550 333 20039 3/003 55/// 553// 20000 70036 82/24
AAXX 20064 03604 16980 /3212 10082 20053 30112 40166 52014 60002 90550 333 20080 3/007 70100 85/63 87/71
AAXX 20064 03605 16979 /3017 10080 20056 30150 40159 51011 60002 90550 333 20080 70090 85/66 87/71
AAXX 20064 03609 16/// /2611 10078 20057 30103 40156 50011 60002 90550 333 20076 3/006 70094 91022
AAXX 20064 03628 17680 /2909 10081 20043 30073 40146 53019 69902 723// 90550 333 20066 3/004 55000 55300 20000 70044 83/39 84/67
AAXX 20064 03647 16467 /3007 10047 20035 39872 40130 52019 60002 90550 333 20044 3/002 55/// 553// 20000 70018 82/19 86/27
AAXX 20064 03658 16680 /2807 10057 20032 30059 40129 53018 60002 90550 333 20047 3/000 70036 82/33
AAXX 20064 03660 15572 /3008 10048 20034 39874 40124 53016 69922 90550 333 20046 3/000 70046 84/23 85/50
AAXX 20064 03672 13682 72908 10059 20024 30081 40121 53014 69902 82501 90550 333 20053 31002 70048 82635 87075
AAXX 20064 03684 15978 /2915 10057 20032 39987 40093 52005 69982 90550 333 20033 3/002 70036 8//99
AAXX 20064 03693 16980 /2811 10063 20041 30096 40099 53006 69982 90550 333 20054 3/004 70034 8//99
AAXX 20064 03707 15571 /3219 10096 20058 30158 40166 53014 60002 90550 333 20089 3/007 70094 81/21 87/40 90710 91127
AAXX 20064 03710 16468 /3111 10060 20053 39740 40163 53020 60002 90550 333 20058 3/005 55/// 553// 20000 70112 83/11 87/29
AAXX 20064 03743 16980 /2707 10059 20042 39978 40140 53017 60002 90550 333 20058 3/004 70060 8//99
AAXX 20064 03749 16980 /2808 10054 20036 30026 40137 53014 60002 90550 333 20050 3/001 70064 8//99
AAXX 20064 03761 11982 72711 10057 20031 39983 40129 53011 69902 70262 82031 90550 333 20056 31003 55000 55300 20000 70022 82360 87075
AAXX 20064 03768 16964 /3007 10058 20033 30046 40126 53014 60002 90550 333 20056 3/002 70048 8//99
AAXX 20064 03769 15680 /2804 10062 20042 30041 40123 53015 60012 90550 333 20035 3/000 55000 55300 20000 70070 85/37
AAXX 20064 03770 16/// ///// 10063 20042 69922 90550 333 20054 3/001 70040
AAXX 20064 03781 15580 /2711 10049 20035 39913 40122 52014 69922 90550 333 20048 3/003 55/// 553// 20000 70068 81/27
AAXX 20064 03784 46/// /2711 10072 20035 30103 40107 51011 90550 333 20058
AAXX 20064 03797 15676 /2815 10065 20037 30040 40100 53006 60012 90550 333 20048 3/003 55000 55300 20000 70046 81/38
AAXX 20064 03823 15565 /3114 10074 20054 39927 40172 52013 60002 90550 333 20072 3/006 55/// 553// 20000 70136 82/20 87/24
AAXX 20064 03839 16/// ///// 10081 20059 60002 90550 333 20079 55/// 553// 20000 70036
AAXX 20064 03857 15666 /3119 10095 20065 30085 40149 52013 69902 90550 333 20094 3/008 70040 87/35 83/72 90710 91130
AAXX 20064 03862 15670 /2910 10071 20056 30132 40145 53014 69902 90550 333 20051 3/003 55000 55300 20000 70044 81/36
AAXX 20064 03866 16/// /2817 10088 20061 30113 40138 53013 60002 90550 333 20087 3/007 70068
AAXX 20064 03872 15975 /2811 10070 20056 30127 40132 53011 60002 90550 333 20067 3/005 55/// 553// 20000 70094 8//99
AAXX 20064 03876 16/// /2706 10046 20038 30123 40126 53010 60002 90550 333 20044 70066
AAXX 20064 03895 42480 43118 10100 20071 40163 53013 84800 333 20099 83815 90710 91125
AAXX 20064 03896 16/// ///// 10095 60012 333 20093 55000
BBXX C6KD7 20063 99342 70336 41598 41423 10195 20170 40246 54000 70211 83141 22214 02195 20705 311// 41105 5//// 80180
BBXX UCAC 20061 99713 10208 41/98 60614 10045 49984 54000 70222 89/// 22213 00090 20808
BBXX PJFF 20064 99363 70252 41/97 62905 10175 20134 40308 54000 70022 8//// 22254 20300 30000 80150
BBXX DILE 20063 99476 70283 41/98 /2033 10133 20124 40208 52005 7//22 8//// 22224 2//// 80128
BBXX OWFD2 20061 99323 70342 41/97 /1010 10210 20192 40240 55010 700// 8//// 22254 04210 2//// 80198
BBXX PFDH 20061 99365 70091 41998 00212 10158 20106 40292 58011 70200 80000 22234 00180 2//// 80128
BBXX MSTM6 20063 99453 70085 41/98 22512 10135 20116 40257 51020 70200 8//// 22254 00136 20202 80125
BBXX UGGA 20061 99693 10430 41/98 92012 10035 49998 57030 70222 89/// 22241 20706
BBXX UCAB 20061 99665 10078 41/98 92003 10060 49924 52004 70011 8//// 22253 00100 20402
BBXX WE4805 20064 99430 70874 43/99 80422 10022 2//// 40224 50000 70002 88/// 22283 00056 2//// 3//// 4//// 5//// 6//// 8//// ICE /////
BBXX NWS0003 20064 99539 71665 43/// /0000 10011 20001 49840 5//// 7//// 8//// 222// 0//// 2//// 3//// 4//// 5//// 6//// 8//// ICE /////
BBXX KAOU 20064 99001 10808 43/// /32// 10255 20238 40081 5//// 7//// 8//// 222// 04289 2//// 3//// 4//// 5//// 6//// 8//// ICE /////
BBXX NWS0020 20064 99342 70192 43/// /0813 10168 20107 40286 5//// 7//// 8//// 222// 04196 2//// 3//// 4//// 5//// 6//// 8//// ICE /////
BBXX NWS0029 20064 99335 70590 43/// /3417 10169 20078 40191 5//// 7//// 8//// 222// 04221 2//// 3//// 4//// 5//// 6//// 8//// ICE /////
BBXX C6XC2 20064 99024 31327 41498 32812 10310 20256 40040 57040 70111 82288 22200 00300 2//// 3//// 4//// 5//// 6//// 80270 ICE /////
BBXX WBO3345 20064 99217 70765 41697 70530 10233 20210 40170 54/// 70122 87473 22232 0//// 204// 3//// 404// 5//// 6//// 80217 ICE /////
BBXX WCZ5238 20063 99190 11719 41798 50921 10280 20224 40150 51010 7//22 854// 22263 00280 20805 30935 41206 51407 6//// 80240 ICE /////
BBXX C6FY5 20063 99174 70630 41/// /0613 10220 2019/ 40160 5/020 7//// 8//// 222// 0//// 22001 3//// 42501 53002 6//// 80200 ICE /////
BBXX WHKM 20064 99173 10403 41397 61213 10322 20206 40148 52022 70222 84105 22233 0//// 20502 312// 4//// 5//// 6//// 80240 ICE /////
BBXX C6XP7 20063 99181 70645 412// 40724 10250 20236 40140 56/// 7//10 831// 22224 0//// 20303 323// 4//// 5//// 6//// 80240 ICE /////
BBXX PBIG 20064 99096 70813 413// 53006 10254 20206 40140 54000 70311 8/77/ 22224 00280 20705 305// 40705
BBXX ONDE 20063 99194 11470 41897 20915 10260 20217 40110 54000 7//00 82/89 22233 00270 21005 310// 4//// 5//// 6//// 80230 ICE /////
BBXX PHEO 20064 99347 50577 41998 00514 10200 40060 54000 70200 80000 22263 00160 20102 3//// 4//// 5////
BBXX 46001 20061 99563 71480 46/// /2408 10042 40087 53021 90550 22200 00049 11206 20603 300// 41205 70029 333 91210 555 11087 22092 30508 42514 60549 242083 240090 241096 245104 242110 230099
BBXX 46042 20061 99368 71224 46/// /0102 10116 40191 51009 90550 22200 00127 11406 20401 330// 41406 70030 333 91203 555 11020 22020 30507 43506 60549 008019 001028 359038 000041 354046 356044
BBXX 46053 20061 99342 71198 46/// /3403 10134 40179 51011 90550 22200 00139 11503 327// 41503 70016 333 91203 555 11027 22028 30517 43403 60549 335026 342027 342025 349027 348021 348023
BBXX 44060 20061 99413 70721 46/// ///12 10086 40131 57005 90600 22200 00101 333 91214 555 11129 22139
BBXX 44022 20061 99409 70737 46/// ///07 10084 20008 40149 57006 90600 22200 00081 333 91209 555 11082 22088
BBXX 51003 20061 99193 71606 46/// /0509 10249 40166 51023 90550 22200 00258 10905 20804 3//// 40903 70025 333 91211 555 11096 22101 30457 40411 60549 050089 048090 051089 050087 050091 047088
BBXX 42363 20061 99282 70892 46/// /1406 10222 20167 40180 58013 90600 333 91206
BBXX 42364 20061 99291 70881 46/// /1715 10200 20183 40197 55003 90600
BBXX 41041 20061 99142 70460 46/// /1107 10262 20219 40134 58016 90550 22200 00265 10904 20602 3//// 40903 70019 333 91209 555 11076 22081 30456 41009 60549 106072 108068 104068 105067 103068 097071 81008 90457
AAXX 20064 70026 NIL
AAXX 20064 70133 NIL
AAXX 20064 70174 NIL
AAXX 20064 70200 NIL
AAXX 20064 70219 NIL
AAXX 20064 70231 NIL
AAXX 20064 70261 NIL
AAXX 20064 70267 NIL
AAXX 20064 70271 NIL
AAXX 20064 70273 NIL
AAXX 20064 70308 NIL
AAXX 20064 70316 NIL
AAXX 20064 70326 NIL
AAXX 20064 70340 NIL
AAXX 20064 70350 NIL
AAXX 20064 70361 NIL
AAXX 20064 70381 NIL
AAXX 20064 70398 NIL
AAXX 20064 70414 NIL
AAXX 20064 16434 12165 83608 11008 21011 38949 48444 53006 60022 888// 333 21010 42002 55/// 2//// 84802 87604 95080 95100
AAXX 20064 78016 32664 63506 10166 20071 30234 40238 57005 86800 333 10168 20122 70030
AAXX 20064 07181 01/// /2313 10006 20000 39699 40120 55010 69962 700// 333 10007 21012 3/102 43003 55/// 69967 70014 90710 91119 93101 555 69905
AAXX 20064 63980 32482 52809 10301 20235 40119 60004 85802 333 20270 50540 55104 58002 85816 943// 91122
BBXX 3FMV6 20063 99039 30079 41698 71816 10250 20220 40107 52010 40107 52010 70162 57070 22244 06258 20501 80230
BBXX ELZU2 20064 99268 70150 41998 10510 00/// 10190 2019/ 40210 56010 70222 81//9 22253 0//// 20303 3//// 4//// 5//// 6//// 80190
BBXX WHKM 20064 99173 10403 41397 61213 10322 20206 40148 52022 70222 84105 22233 0//// 20502 312// 4//// 5//// 6//// 80240 ICE /////
BBXX A8SU4 20064 99225 10372 41298 63109 10250 20204 40150 52/// 70511 84671 22235 00240 20000 30000 40000 50000 80220
BBXX OVYB2 20061 99241 30511 41598 60507 10291 20236 40124 52010 70222 8446/ 22253 00270 20502 30800 41004 5//// 80253
BBXX BATFR19 20064 99065 30060 46/// /2212 10237 20199 40139 53015 22200 00255
BBXX BATFR45 20064 99024 10534 46/// ///// 10277 20242 40119 50005 22214 00292
BBXX BATFR55 20064 99112 30485 44598 32813 10282 20249 40117 70100 82142 22262 00282 20802 30808 410// 510//
BBXX TBWUK18 20064 99316 50059 41598 71205 10190 20190 40339 54000 70222 874// 2229/ 20501 319// 41402 5//// 80190
BBXX CGCC 20064 99460 70731 46/// /3509 11044 21101 40142 51050 7//// 8//// 22200 0//// 2////
BBXX 46089 20061 99459 71258 46/// /2105 10088 20065 40303 57007 90550 22200 00092 11504 20501 327// 41504 70022 333 91206 555 11054 22057 30540 42106 60549 208052 208049 206047 203048 202045 199042
BBXX 41046 20061 99238 70683 46/// /0509 10229 20139 40216 58009 90550 22200 00257 11107 20604 300// 41106 70034 333 91211 555 11096 22101 30544 40511 60549 052091 050089 049088 055085 055079 048077 80510 90544
BBXX 42057 20061 99168 70815 46/// /0810 10275 20219 40152 58006 90550 22200 00279 10804 20804 70020 333 91212 555 11095 22101 30450 40712 60549 076094 088082 090086 086087 083082 083092 80711 90550
BBXX 44011 20061 99411 70666 46/// /2411 10110 20081 40106 56024 90550 22200 00094 10807 20806 3//// 41102 70033 333 91213 555 11115 22125 30502 40514 60549 239106 238109 237107 236106 235115 235112
BBXX 41010 20061 99289 70785 46/// /1406 10203 40247 58012 90550 22200 00237 10903 20502 300// 40903 70016 333 91208 555 11057 22059
BBXX 41009 20061 99285 70802 46/// /1208 10217 20135 40237 58015 90550 22200 00250 10803 20602 300// 40802 70015 333 91210 555 11084 22088
BBXX CG2965 20064 99487 71235 46/// /1604 10073 20045 40290 55001 7//// 8//// 22200 0//// 2////
BBXX CGDR 20064 99492 71239 46/// /0101 10070 20069 40284 53002 7//// 8//// 22200 0//// 2////
BBXX PBIG 20064 99096 70813 413// 53006 10254 20206 40140 54000 70311 8/77/ 22224 00280 20705 305// 40705
BBXX WDC6736 20064 99329 70589 41598 53237 10170 2010/ 40185 52025 70222 84/// 22264 00230 20609 332// 40810 5//// 6//// 80130 ICE /////
BBXX SHIP 20064 99314 71342 41397 80314 10170 2012/ 40310 54000 78022 8899/ 22223 00180 2//// 3//// 4//// 5//// 6//// 80140 ICE /////
BBXX DEDM 20064 99436 70584 41997 02715 10025 21013 40105 57025 70200 80000 22214 04080 20502 30000 80010
BBXX DDZC2 20064 99353 71778 41598 33217 10170 20119 40130 52030 7//// 8256/ 22264 00170 2//04 3//// 4//// 5//// 80140
BBXX C6FY5 20063 99174 70630 41/// /0613 10220 2019/ 40160 5/020 7//// 8//// 222// 0//// 22001 3//// 42501 53002 6//// 80200 ICE /////
BBXX C6XP7 20063 99181 70645 412// 40724 10250 20236 40140 56/// 7//10 831// 22224 0//// 20303 323// 4//// 5//// 6//// 80240 ICE /////
BBXX 9HXD9 20064 99118 70766 41998 10632 10265 2//// 40070 54/// 70210 80//8 22284 04290 21006 305// 4//// 5//// 6//// 8//// ICE /////
BBXX VXKF 20064 99471 70594 46/// /1921 11014 21030 40036 56055 7//// 8//// 22214 0//// 2////
BBXX VAAP 20064 99446 70636 46/// /2509 10055 20043 40031 56039 7//// 8//// 22200 0//// 2////
BBXX VCSZ 20064 99455 70735 46/// /3310 11017 21053 40135 51049 7//// 8//// 22200 0//// 2////
BBXX VCRG 20064 99474 70619 46/// /2003 10001 21002 40005 56050 7//// 8//// 22200 0//// 2////
BBXX CGDT 20064 99468 70712 46/// /2306 11030 21084 40100 51033 7//// 8//// 22200 0//// 2////
BBXX VOKF 20064 99490 70669 46/// /2924 11031 21085 40011 53021 7//// 8//// 22200 0//// 2////
BBXX CGTF 20064 99476 70527 46/// /2803 11002 21019 40036 58011 7//// 8//// 22200 0//// 2////
BBXX VCLM 20064 99499 70612 46/// /1728 11014 21016 49950 56090 7//// 8//// 22263 00014 2////
BBXX CGBY 20064 99487 71235 46/// /1504 10076 20047 40288 55001 7//// 8//// 22200 0//// 2////
BBXX CGDX 20064 99490 70669 46/// /3017 11028 21078 40019 53024 7//// 8//// 22200 0//// 2////
BBXX CGSB 20064 99492 70681 46/// /3114 11055 21103 40032 53027 7//// 8//// 22200 0//// 2////
BBXX CGJK 20064 99484 71234 46/// /3603 10081 20060 40286 55008 7//// 8//// 22200 0//// 2////
BBXX VCWL 20064 99456 70735 46/// /3304 11023 21090 40142 51049 7//// 8//// 22200 0//// 2////
BBXX ONDE 20063 99194 11470 41897 20915 10260 20217 40110 54000 7//00 82/89 22233 00270 21005 310// 4//// 5//// 6//// 80230 ICE /////
BBXX C6SI6 20064 99318 11209 46/// /1006 10091 20051 40257 56027 7//// 8//// 22200 0//// 2////
BBXX WCZ5238 20063 99190 11719 41798 50921 10280 20224 40150 51010 7//22 854// 22263 00280 20805 30935 41206 51407 6//// 80240 ICE /////
BBXX V7SY6 20064 99131 10715 41897 50316 10280 20224 40260 54000 70311 85721 22223 00230 20502 30505 40502 50401 6//// 80240 ICE /////
BBXX 46070 20061 99551 11753 46/// /3302 11012 21058 49914 51014 90550 22200 00037 11106 20401 3//// 41106 70031 333 91202 555 11015 22016 30450 40305 60549 331015 007021 008022 019027 030026 035025 80303 90451
BBXX CZ9742 20064 99506 70969 46/// /1918 11065 21090 40126 57054 7//// 8//// 22200 0//// 2////
BBXX CGBR 20064 99543 71303 46/// /1210 10075 20069 40090 51014 7//// 8//// 22200 0//// 2////
BBXX VOKJ 20064 99478 70526 46/// /3326 11003 21025 40022 58023 7//// 8//// 22281 0//// 2////
BBXX VOFG 20064 99456 70614 46/// /1907 10013 20003 40036 56066 7//// 8//// 22200 0//// 2////
BBXX VAAZ 20064 99545 70531 46/// /2409 11051 21087 40063 56022 7//// 8//// 22241 0//// 2////
BBXX VCBW 20064 99468 70712 46/// /2613 11025 21087 40080 51018 7//// 8//// 22200 0//// 2////
BBXX VOLG 20064 99466 70529 46/// /3122 11017 21034 40020 58029 7//// 8//// 22223 0//// 2////
BBXX CG2958 20064 99517 71281 46/// /2105 10081 20075 40227 51021 7//// 8//// 22200 0//// 2////
BBXX CGDG 20064 99447 70636 46/// /2412 10048 20111 40038 56040 7//// 8//// 22200 0//// 2////
BBXX VOPP 20064 99456 70735 46/// /3109 11028 21091 4//// 5//// 7//// 8//// 22200 0//// 2////
BBXX 3FZK3 20064 99523 71392 46/// /2514 10064 20027 40179 53056 7//// 8//// 22223 0//// 2////
BBXX CGBN 20064 99447 70636 46/// /2508 10053 20039 40026 56040 7//// 8//// 22200 0//// 2////
BBXX CGDS 20064 99450 70747 46/// /3309 11011 21066 4//// 5//// 7//// 8//// 22200 0//// 2////
BBXX BATEU08 20064 99598 70357 46/// /2931 10004 21051 40030 52002 22252
BBXX BATEU06 20064 99493 70671 46/// /2826 11043 21090 49999 53041 22254 00014
BBXX 46077 20061 99579 71543 46/// /2607 10026 21015 40015 53027 90550 22200 00051 10904 20602 3//// 40903 70019 333 91208 555 11074 22077 30526 42510 60549 258070 256068 252076 252072 254075 256078 82608 90455
BBXX 46035 20061 99571 71778 46/// /3201 1//// 49857 51009 90550 22200 11007 20401 300// 41007 70036 333 91202 555 11009 22010 30508 43308 60549 323009 346013 331029 326034 344046 358044 83307 90508
BBXX 46082 20061 99597 71434 46/// ///// 10051 20051 40040 53029 90550 22200 00064 11207 70034
BBXX 46026 20061 99378 71228 46/// /3201 10109 40191 53008 90550 22200 00111 11305 20401 330// 41305 70024 333 91202 555 11015 22015 30514 42904 60549 317014 307019 297021 302027 309019 298019
BBXX 46041 20061 99474 71247 46/// /1805 10081 40294 55000 90550 22200 00085 11204 20301 3//// 41204 70019 333 91206 555 11056 22059 30520 41706 60549 177053 175053 170056 167051 169048 172049
BBXX 42039 20061 99288 70860 46/// /1410 10222 40188 58015 90550 22200 00224 10704 20704 70020 333 91212 555 11108 22115 30503 41313 60549 141102 143100 139103 136103 136104 135095 81411 90512
BBXX 41040 20061 99145 70530 46/// /0409 10267 20238 40129 58019 90550 22200 00280 11004 20703 3//// 41003 70021 333 91211 555 11096 22101 30529 40311 60549 035090 031093 032090 030081 031084 034081 80310 90537
BBXX 46072 20061 99517 71722 46/// /3310 10025 21029 49904 53040 90550 22200 00047 11108 20704 3//// 41106 70038 333 91213 555 11104 22110 30513 43413 60549 331098 336105 333105 338106 340108 343106 83412 90501
BBXX 44007 20061 99435 70701 46/// /2411 10062 20009 40075 50000 90550 22200 00080 10703 20703 3//// 41002 70015 333 91213 555 11116 22123 30451 42414 60549 242109 241109 241109 241109 241110 240107
BBXX VCXF 20064 99464 70484 41295 83641 10030 2003/ 49864 57035 76162 886// 22200 02030 20506 301// 40802 80030
BBXX PHCQ 20063 99242 70826 41998 00911 10232 20195 40196 57025 70211 80000 22264 00244 20302 30000 40000 5//// 80207
BBXX BATFR14 20064 99286 70465 44598 12417 10227 20184 40133 56011 70200 812// 22214 00234 201// 60000 ICE 0/0//
BBXX A8EH2 20063 99387 71352 41197 80713 10110 20056 40345 52020 887// 22274 00136 20301 80085
BBXX PHEO 20064 99347 50577 41998 00514 10200 40060 54000 70200 80000 22263 00160 20102 3//// 4//// 5////
BBXX WCX7445 20064 99531 50709 43/// /3003 10079 2//// 49894 5//// 7//// 8//// 22200 00079 2//// 3//// 4//// 5//// 6//// ICE /////
BBXX 32012 20061 99197 50856 46/// ///// 1//// 90550 22200 11507 70035
BBXX 46088 20061 99483 71232 46/// /1408 10072 40277 90550 22200 00080 10301 20301 70005 333 91209 555 11080 22084 30544 41409 60549 140076 141078 142074 142073 143072 145076
BBXX 46080 20061 99580 71500 46/// /2410 10043 21001 40044 52033 90550 22200 00051 11107 20705 3//// 41105 70036 333 91213 555 11107 22113 30503 42413 60549 240101 242099 247102 246100 239102 240100 82511 90509
BBXX 44025 20061 99402 70732 46/// /2612 10102 20036 40147 57007 90550 22200 00113 10705 20705 312// 41101 70024 333 91214 555 11125 22133 30451 42415 60549 264116 260116 255122 253117 252121 250127
BBXX 46005 20061 99461 71310 46/// ///08 10103 40293 51004 90550 22200 00100 11608 20603 3//// 41607 70040 333 91209 555 11086 22092
BBXX 46006 20061 99408 71375 46/// /2003 10118 40348 51006 90550 22200 00125 11506 3//// 41506 70032 333 91204 555 11032 22033 30541 42004 60549 201031 195029 194030 195028 200030 204027
BBXX 46084 20061 99566 71361 46/// /3011 10062 20023 40035 53065 90550 22200 00072 11108 20804 300// 41107 70040 333 91213 555 11116 22123 30458 43014 60549 297110 301109 305107 309109 309113 305113
BBXX 46059 20061 99380 71300 46/// /0112 10114 40294 51005 90550 22200 00145 11308 20605 3//// 41306 70040 333 91214 555 11128 22135 30452 40215 60549 013120 009113 010123 006117 010121 013126
BBXX 44020 20061 99414 70702 46/// /2511 10088 20035 40114 56005 90550 22200 00077 10402 20402 70011 333 91213 555 11115 22122 30452 42515 60549 252106 257108 257110 257116 257113 257122
BBXX 44040 20061 99410 70736 46/// /2608 10086 20020 40154 90545 22200 10301 70004 333 91210 555 11098 22118
BBXX 44065 20061 99404 70737 46/// /2607 10087 20027 40153 58003 90550 22200 00094 10603 20603 317// 40702 70015 333 91208 555 11076 22081 30529 42510 60549 256072 253080 254081 254083 254081 251080 82509 90519
BBXX 41013 20061 99334 70777 46/// /2108 10193 20123 40238 58018 90550 22200 00196 10402 20401 312// 41001 70008 333 91211 555 11081 22086 30545 42111 60549 214076 211074 208068 214070 219068 216070
BBXX 46075 20061 99539 71608 46/// /1714 10027 20019 40008 58029 90550 22200 00047 11107 20605 300// 41105 70036 333 91217 555 11152 22161 30520 41918 60549 166142 174138 179143 178136 177130 175117 81816 90520
BBXX 44014 20061 99366 70748 46/// /2411 1//// 40207 56012 90550 22200 00146 10604 20603 308// 41102 70018 333 91214 555 11113 22113 30532 42414 60549 243112 239112 238110 240114 236111 237111
BBXX 44027 20061 99443 70673 46/// /2612 10072 20020 40046 56008 90550 22200 00085 11007 21007 3//// 41302 70037 333 91214 555 11124 22131 30524 42616 60549 264118 263114 260125 261117 259112 259111
BBXX 46002 20061 99426 71305 46/// ///// 10111 40330 52003 90550 22200 00121 11406 70028
BBXX 44009 20061 99385 70747 46/// /2409 10112 40186 56016 90550 22200 00114 10603 20603 300// 41001 70015 333 91211 555 11098 22105 30503 42413 60549 236092 241099 240100 242105 243108 239110
BBXX 41004 20061 99325 70791 46/// /2007 10201 20123 40243 58016 90550 22200 00206 10902 20402 3//// 40901 70011 333 91208 555 11071 22075 30528 42010 60549 197068 198071 199072 196072 194077 197074
BBXX 41008 20061 99314 70809 46/// /1402 10171 20162 40241 58014 90550 22200 00162 11002 20401 300// 41001 70008 333 91202 555 11018 22022 30454 41702 60549 139014 159013 164012 173012 171014 175018
BBXX 41047 20061 99275 70715 46/// /0805 10205 40253 58011 90550 22200 00249 11106 20401 301// 41106 70029 333 91207 555 11047 22048 30528 40608 60549 075048 077051 059048 063040 066041 066044 80607 90528
BBXX WABS 20064 99424 71259 41998 00230 10094 2007/ 40280 52020 70200 80000 22283 0//// 2//// 3//// 4//// 5//// 6//// 80083 ICE /////
BBXX WBO3345 20064 99217 70765 41697 70530 10233 20210 40170 54/// 70122 87473 22232 0//// 204// 3//// 404// 5//// 6//// 80217 ICE /////
BBXX KRGB 20064 99424 71249 41/98 00128 10089 2006/ 40248 56022 7//00 80/// 22244 00089 20706 329// 41405 5//// 6//// 80078 ICE /////
BBXX 41101 20064 99146 70562 46/// /0417 10261 20225 40124 57018 22200 00271 10804 70020
BBXX BAREU11 20064 99237 70628 46/// ///// 40200 57007 22214
BBXX BAREU04 20064 99533 70358 46/// ///// 49991 57012 22263
BBXX BAREU05 20064 99494 70650 46/// ///// 49970 57024 22264
BBXX WSM5364 20060 99583 71358 41/97 83115 10022 2//// 4//// 5//// 702// 8//// 222// 0//// 2//01 3//// 4//// 6////
BBXX 46028 20061 99357 71219 46/// /3203 10120 40186 51007 90550 22200 00127 11106 20401 332// 41106 70030 333 91204 555 11032 22033 30518 43205 60549 318031 318034 319036 318037 317035 315034
BBXX 46087 20061 99485 71247 46/// /1806 10082 20072 40286 58003 90550 22200 00077 11404 20501 327// 41404 70021 333 91207 555 11061 22066 30539 41807 60549 179057 174054 169048 164044 159037 138020
BBXX 46029 20061 99461 71245 46/// /1602 10071 20064 40303 57003 90550 22200 00077 11504 20401 329// 41504 70019 333 91202 555 11021 22021 30450 41503 60549 160020 159017 166013 173013 175010 171011
BBXX 46025 20061 99337 71191 46/// /1203 10139 20105 40165 52005 90550 22200 00153 11302 20401 324// 41302 70009 333 91204 555 11030 22031 30452 41105 60549 123029 112026 116028 122030 108026 107034
BBXX 46054 20061 99342 71204 46/// /0104 10130 40181 51013 90550 22200 00137 11505 20301 300// 41505 70027 333 91204 555 11037 22038 30534 43505 60549 004035 359038 005036 018031 023029 027031
BBXX 46012 20061 99374 71229 46/// /3004 10115 40193 51009 90550 22200 00123 11406 20401 330// 41406 70031 333 91205 555 11037 22038 30522 43005 60549 294035 293034 298031 294028 296032 302032
BBXX 46014 20061 99394 71240 46/// /3605 10107 40196 51013 90550 22200 00106 11506 20402 3//// 41506 70032 333 91206 555 11055 22058 30454 40107 60549 358049 359052 007055 006052 007055 008059
BBXX 46013 20061 99382 71233 46/// /2601 10107 40188 51009 90550 22200 00107 11406 20401 3//// 41406 70031 333 91202 555 11008 22009 30549 43003 60549 259008 249010 273013 298013 324014 333013
BBXX 46069 20061 99337 71202 46/// /0305 10132 40175 52011 90550 22200 00141 11405 20401 330// 41405 70026 333 91205 555 11047 22049 30537 40405 60549 025045 036042 049037 038041 041038 044035
BBXX 46011 20061 99350 71210 46/// /3406 10126 40187 51012 90550 22200 00137 11406 20401 330// 41406 70030 333 91207 555 11061 22064 30452 43409 60549 341058 345066 344067 348068 349068 347069
BBXX 46086 20061 99325 71180 46/// /1403 10132 40168 54000 90550 22200 00150 11603 20401 327// 41603 70015 333 91204 555 11031 22032 30455 41404 60549 144030 145031 142028 160022 146026 138030
BBXX 46047 20061 99324 71195 46/// /3602 10124 40169 52003 90550 22200 00136 11505 20401 329// 41505 70024 333 91202 555 11016 22017 30539 43603 60549 002016 008019 358016 347021 352022 323015
BBXX 46050 20061 99442 71246 46/// /0107 10084 40301 56005 90550 22200 00097 11404 20401 328// 41404 70021 333 91208 555 11069 22072 30533 40108 60549 008065 006071 010068 012063 011063 012063
BBXX 46027 20061 99419 71244 46/// /3511 10090 40229 54000 90550 22200 00091 10806 20805 329// 41504 70031 333 91214 555 11119 22127 30540 43514 60549 351113 348113 348105 347106 350100 348097
BBXX 42055 20061 99222 70940 46/// /1309 10245 20195 40125 58007 90550 22200 00252 10603 20603 70014 333 91210 555 11091 22096 30537 41311 60549 126084 128088 126085 128083 127081 125082 81310 90537
BBXX 41043 20061 99211 70650 46/// /0609 10235 20195 40195 57007 90550 22200 00263 10906 20704 300// 40904 70031 333 91213 555 11097 22102 30542 40613 60549 058091 058078 059090 053103 049102 048099 80511 90503
BBXX 42002 20061 99258 70937 46/// /1511 10243 20207 40138 58003 90550 22200 00240 10704 20704 70020 333 91214 555 11113 22121 30523 41514 60549 146114 146103 144111 146107 140109 138113
BBXX 41036 20061 99342 70770 46/// ///// 10173 20109 40239 56014 90550 22200 00177 11002 70010
BBXX 44066 20061 99396 70726 46/// /2612 10124 20060 40152 57016 90550 22200 00128 10806 20806 3//// 41102 70031 333 91215 555 11125 22133 30510 42515 60549 256117 254116 252118 251129 253128 253120
BBXX 46078 20061 99561 71526 46/// /2409 10045 20000 40077 52035 90550 333 91212 555 11101 22107
BBXX 46105 20061 99590 71522 46/// ///// 1//// 90550 22200 10906 70029
BBXX 42003 20061 99260 70856 46/// /1211 1//// 90550 22200 10805 20805 70024 333 91213 555 11114 22121 30523 41213 60549 121103 118104 117106 118096 116096 117100 81211 90523
BBXX 44005 20061 99432 70691 46/// /2612 10080 20026 40070 56006 90550 22200 00086 10806 20805 3//// 41302 70029 333 91216 555 11133 22141 30509 42617 60549 257124 255130 255127 255134 256135 257133
BBXX 42040 20061 99292 70882 46/// /1609 10203 40181 57011 90550 22200 00226 10602 20602 70010 333 91212 555 11091 22096 30523 41814 60549 160092 166097 166108 159082 157073 153071
BBXX 42036 20061 99285 70845 46/// /1312 10206 20158 40201 58018 90550 22200 00212 10602 20602 70012 333 91214 555 11126 22134 30450 41314 60549 129118 127110 126106 124107 126104 123098
BBXX 42056 20061 99198 70849 46/// /1111 10263 20238 40155 58009 90550 22200 00271 10805 20805 70025 333 91214 555 11121 22128 30525 41015 60549 108113 105114 103120 102117 139056 192075 81013 90525
BBXX 42059 20061 99151 70675 46/// /0710 10272 20195 40151 58009 90550 22200 00277 10705 20705 3//// 41101 70026 333 91213 555 11109 22116 30536 40713 60549 074101 072109 072105 072104 072102 070102 80812 90537
BBXX 42019 20061 99279 70954 46/// /1708 10236 20210 40114 57003 90550 22200 10805 20604 316// 40804 70027 333 91210 555 11082 22088 30451 42911 60549 186076 282079 281081 281084 282093 277093
BBXX 42001 20061 99259 70897 46/// /1510 10248 20193 40172 58010 90550 22200 00259 10602 20602 70010 333 91212 555 11110 22116 30529 41412 60549 151103 145101 146098 151100 152099 150097
BBXX 41060 20061 99148 70510 46/// ///// 1//// 90550 22200 10804 70020
BBXX 42058 20061 99149 70749 46/// /0814 10272 20207 40128 58008 90550 22200 00276 10807 20806 306// 41402 70033 333 91216 555 11146 22156 30548 40816 60549 079136 077137 082135 081136 078132 073122 80715 90537
BBXX 42060 20061 99163 70635 46/// /0409 10262 20188 40160 58013 90550 22200 00277 10503 20503 300// 41001 70017 333 91210 555 11093 22098 30527 40311 60549 040088 041084 042086 042087 042085 042086 80410 90454
BBXX 42035 20061 99292 70944 46/// /1508 10193 20192 40128 54000 90550 22200 00168 10703 20703 70016 333 91209 555 11083 22094 30450 41410 60549 147075 145077 145078 146076 144077 144081
BBXX 41044 20061 99217 70587 46/// /0210 10244 20179 40177 56016 90550 22200 00264 10904 20504 300// 40902 70022 333 91211 555 11101 22106 30526 40112 60549 019095 019097 017099 019103 017101 017096 80111 90502
BBXX 41001 20061 99347 70727 46/// ///// 10178 20093 40234 58018 90550 22200 00221 11104 70019
BBXX WSM5364 20060 99583 71358 41/97 83115 10022 2//// 4//// 5//// 702// 8//// 222// 00061 2//01 3//// 4//// 6////
BBXX UFTA 20061 99849 71236 12596 82602 11184 21207 40032 54000 69942 8653/ 555 48043
BBXX 51205 20061 99210 71564 46/// ///// 1//// 90548 22200 00242 10906 20905 309// 41102 70029
BBXX 46238 20061 99334 71195 46/// ///// 1//// 90550 22200 00144 11404 20802 328// 41403 70019
BBXX 46239 20061 99363 71221 46/// ///// 1//// 90551 22200 00131 11207 21004 331// 41206 70034
BBXX A8CN9 20060 99431 71351 41397 72408 10112 20108 40320 51020 70322 85875 22234 04110 20905 320// 40705 5//// 80110
BBXX A8AJ4 20064 99545 71793 41597 42730 10010 2//// 49900 52010 7//// 847// 222// 0//// 2//// 327// 4//// 5//// 6//// 8//// ICE /////
BBXX J8PE4 20063 99137 70603 415// 52121 10250 2019/ 40150 56010 70311 85188 22234 00280 20704 321// 40402 5//// 6//// 80210 ICE /////
BBXX MYSU5 20064 99462 70483 41/96 80239 10032 20027 49864 56038 76365 8//// 22223 00050 20813 3//// 4//// 5//// 80030
BBXX 42099 20061 99273 70842 46/// ///// 1//// 90557 22200 00231 10603 20603 70017
BBXX 41110 20061 99341 70777 46/// ///// 1//// 90551 22200 00139 11001 21001 310// 41101 70007
BBXX 42362 20061 99278 70907 46/// /1608 10228 20183 40166 90545
BBXX 44100 20061 99363 70756 46/// ///// 1//// 90552 22200 00114 11002 21002 308// 41101 70011
BBXX 41112 20061 99307 70813 46/// ///// 1//// 90551 22200 00157 10402 20402 70009
BBXX 41113 20061 99284 70805 46/// ///// 1//// 90551 22200 00212 10502 20502 308// 41201 70011
BBXX 44099 20061 99369 70757 46/// ///// 1//// 90552 22200 00112 11102 20502 309// 41101 70011
BBXX 44039 20061 99411 70727 46/// /2511 10093 20034 40146 90545 22200 00094 10503 70014 333 91214
BBXX 46218 20061 99345 71208 46/// ///// 1//// 90602 22200 00138 11406 20904 329// 41405 70032
BBXX 46214 20061 99379 71235 46/// ///// 1//// 90555 22200 00118 11207 21004 331// 41205 70034
BBXX 46219 20061 99332 71199 46/// ///// 1//// 90558 22200 00137 11505 20703 329// 41504 70025
BBXX 46215 20061 99352 71209 46/// ///// 1//// 90538 22200 00132 11105 21003 327// 41104 70023
BBXX 46243 20061 99462 71241 46/// ///// 1//// 90559 22200 00077 11303 21002 326// 41303 70017
BBXX 46213 20061 99403 71247 46/// ///// 1//// 90554 22200 00100 11108 21006 331// 41105 70038
BBXX 46229 20061 99438 71246 46/// ///// 1//// 90551 22200 00099 11405 21003 328// 41404 70023
BBXX 46236 20061 99368 71219 46/// ///// 1//// 90550 22200 00125 11305 21003 328// 41304 70023
BBXX 46247 20061 99378 71228 46/// ///// 1//// 90551 22200 00112 11305 21003 329// 41304 70026
BBXX 46225 20061 99329 71174 46/// ///// 1//// 90544 22200 00147 11402 21001 327// 41401 70008
BBXX 46232 20061 99325 71174 46/// ///// 1//// 90538 22200 00153 11403 20601 328// 41402 70013
BBXX 44008 20061 99405 70692 46/// /2613 10118 20073 40123 58015 90550 22200 00115 10909 20908 309// 41204 70044 333 91216 555 11142 22152 30452 42622 60549 259130 259129 258129 257134 253140 259154
BBXX 44097 20061 99410 70711 46/// ///// 1//// 90602 22200 00122 10807 20807 315// 41302 70036
BBXX 44172 20061 99445 70634 46/// ///// 1//// 90601 22200 00064 10805 20805 311// 41102 70026
BBXX 46061 20061 99602 71468 46/// /2205 10029 40022 53015 90550 22200 00061 11105 20401 300// 41104 70023 333 91206 555 11048 22049 30505 42010 60549 219047 207056 200065 200066 204079 217071
BBXX 51101 20061 99243 71621 46/// /0709 10237 20181 40213 53017 90550 22200 00240 11304 20603 335// 41303 70022 333 91211 555 11099 22106 30539 40711 60549 072093 070092 076089 074088 071090 073093
BBXX 46083 20061 99582 71380 46/// /3109 10052 20013 40032 53038 90550 22200 00064 11409 20704 300// 41408 70045 333 91210 555 11093 22099 30518 43211 60549 313087 313086 312090 314089 315086 312090 83110 90523
BBXX DBBH 20061 99368 70115 41/98 20307 10146 20071 40306 53001 702// 22211 04178
BBXX WDD3826 20064 99494 70119 41398 73219 10140 2006/ 40250 54000 7//22 878// 22224 00100 20301 318// 40603 5//// 6//// 80100 ICE /////
BBXX VRYO3 20064 99505 70003 46/// /0720 10100 20111 40116 51023 7//// 8//// 22254 00121 2////
BBXX DBBC 20061 99539 10091 46/// /1609 10007 2//// 40040 57026 22220 00043
BBXX DBEA 20061 99540 10083 46/// /1714 10014 20006 40020 57027 22261 00056
BBXX DBKR 20061 99541 10121 46/// /1703 10003 21017 40079 57017 22200 00051
BBXX DBJM 20061 99540 10085 46/// /1612 10009 20401 40024 57/36 22240 000/9
BBXX DBFR 20061 99541 10078 46/// /1814 10012 20011 40008 57028 22251 00073
BBXX DK7210 20061 99540 10066 46/// /2009 10063 20063 39971
BBXX 42020 20061 99270 70967 46/// /1708 10239 20204 40110 52008 90550 22200 00236 10805 20604 313// 40804 70027 333 91209 555 11082 22088 30451 41612 60549 172077 170080 169087 167089 166099 166096
BBXX 41048 20061 99320 70696 46/// /3202 10167 20068 40259 58007 90550 22200 00226 11106 20401 3//// 41106 70032 333 91205 555 11023 22023 30540 43505 60549 320025 313035 319035 343032 326031 323024 80104 90518
BBXX 42065 20061 99149 70750 46/// /0710 10268 20214 90550 22200 10806 20806 70028 333 91213 555 11109 22117 30546 40713 60549 074101 072102 070104 070101 070102 069101 80711 90501
BBXX 42012 20061 99301 70876 46/// /1604 10207 20192 40183 58010 90550 22200 00205 10602 20301 312// 40602 70012 333 91205 555 11047 22051 30511 41407 60549 154045 144057 143061 141062 138059 137057
BBXX 41049 20061 99275 70630 46/// /0207 10201 20107 40225 54000 90550 22200 00235 11309 20403 300// 41308 70044 333 91210 555 11078 22081 30453 40111 60549 018073 022052 012071 005077 015074 019087 80209 90451
BBXX NWS0022 20064 99416 70714 43/// /2205 10088 20030 40122 5//// 7//// 8//// 222// 04100 2//// 3//// 4//// 5//// 6//// 8//// ICE /////
BBXX LAVW4 20064 99288 70499 41798 32930 00/// 10230 2019/ 40125 54000 70200 83/// 22263 00240 20605 311// 40706 5//// 6////
BBXX SHIP 20064 99322 71239 41298 43421 10130 2009/ 40120 54000 7//11 84/// 22233 00170 2//// 3//// 4//// 5//// 6//// 80110 ICE /////
BBXX PBFM 20063 99172 70610 41497 61410 10246 20169 40160 57015 70311 86800 22254 20502 80195
BBXX WSLH 20064 99267 71531 41498 10712 10220 2012/ 40220 52020 70200 811// 22215 00160 2//// 3//// 4//// 5//// 6//// 80160 ICE /////
BBXX LEQZ3 20063 99546 71668 41/96 /2019 10040 2002/ 49930 57030 77277 22273 00100 00030
BBXX PGQI 20063 99282 70733 41497 33611 10178 20141 40255 56011 70100 83100 22273 2//// 80155
BBXX A8CN8 20060 99542 71645 41296 81414 10030 49920 57080 76022 887// 22264 00050 2//06 323// 4//06 5////
BBXX HZRX 20063 99272 70797 41797 81718 /// 10210 20180 40222 55018 70322 88000 22253 10170 20303 31717 40202 5//// 6//// 80160 ///// /////
BBXX DDAC2 20060 99144 70970 41/98 /1104 10250 20222 40110 54000 7//00 8/105 22272 04260 2//// 305// 4//04 5//// 80230
BBXX 3FBC9 20064 99112 71169 41798 60624 10250 40095 51010 70322 85339 9//// 22233 00270 20306 305// 40508 5//// 6//// 80240
BBXX FVNM 20064 99062 70828 46/// /2606 10252 20227 40113 58008 22221 00269
BBXX WDC6698 20064 99098 71428 43/// /0521 1//// 2//// 40120 5//// 7//// 8//// 222// 04254 2//// 3//// 4//// 5//// 6//// 8//// ICE /////
BBXX CG2960 20064 99423 70830 46/// /0209 10017 21039 4//// 5//// 7//// 8//// 22200 0//// 2////
BBXX CG2350 20064 99433 70798 46/// /3406 10024 21028 40202 52032 7//// 8//// 22200 0//// 2////
BBXX BATFR48 20064 99149 51479 46/// /1211 10262 20224 40138 22242 00297
BBXX BATEU07 20064 99347 31153 46/// /1612 10199 40134 58023 22264
BBXX BATFR35 20064 99175 51496 46/// /0820 10275 20204 40128 22242 00289
BBXX C6XC2 20064 99024 31327 41498 32812 10310 20256 40040 57040 70111 82288 22200 00300 2//// 3//// 4//// 5//// 6//// 80270 ICE /////
BBXX C6TH9 20063 99175 51498 41697 30810 10240 2021/ 40160 50010 70210 82188 22200 00260 20101 3//// 4//// 5//// 6//// 80220 ICE /////
BBXX DBLK 20061 99705 50081 41399 12507 11056 21082 49830 51001 70200 81640 22200 05017 ICE 38792
BBXX TFBKF 20064 99635 70202 46/// ///// 22200 10807 70036
BBXX TFBLK 20064 99657 70248 46/// ///// 22200 10913 70063
BBXX TFDRN 20064 99658 70212 46/// ///// 22200 10402 70011
BBXX TFGRS 20064 99663 70182 46/// ///// 22200 10603 70013
BBXX TFGRV 20064 99638 70225 46/// ///// 22200 10808 70038
BBXX TFGSK 20064 99641 70229 46/// ///// 22200 10913 70064
BBXX TFHFN 20064 99642 70152 46/// ///// 22200 10805 70023
BBXX TFKGR 20064 99657 70136 46/// ///// 22200 10503 70013
BBXX TFSRT 20064 99633 70203 46/// ///// 22200 10911 70057
BBXX TFSTD 20064 99664 70234 46/// ///// 22200 10708 70039
AAXX 20064 78526 NIL
AAXX 20064 78543 NIL
AAXX 20064 78255 12459 60903 10203 20190 30055 40204 57010 60073 86801 333 85818
AAXX 20064 78317 NIL
AAXX 20064 78318 NIL
AAXX 20064 78325 NIL
AAXX 20064 78333 NIL
AAXX 20064 78338 NIL
AAXX 20064 78348 NIL
AAXX 20064 78349 NIL
AAXX 20064 78353 NIL
AAXX 20064 78360 NIL
AAXX 20064 78367 NIL
AAXX 20064 78369 NIL
BBXX C6IO9 20064 99396 70118 41898 30411 10144 20094 40313 53010 70100 8/065 22243 06157 20801 333// 40503 5//// 80188
AAXX 20064 91925 06/// /0602 10256 20204 30058 40119 51021 60001 333 55081 60007 90710 91108 555 60005 11320 59013
AAXX 20064 91929 04586 /1108 10271 20225 30131 40134 53016 60002 700// 333 10318 20271 55/// 60007 70002 90710 91115 555 60005
AAXX 20064 91938 02570 31003 10276 20209 30136 40138 52022 60002 81202 333 10317 20276 30/// 55100 60007 70000 81820 83080 90710 91106 555 60005 12709 58000
AAXX 20064 91943 16/// /0909 10271 20221 30129 40131 51015 60054 333 20241 59003
AAXX 20064 91944 06/// /0812 10267 20210 30146 40149 51016 60002 333 10299 20264 55120 60007 70002 90710 91120 555 60005
AAXX 20064 91948 06/// /0105 10242 20197 30091 40194 53012 60001 333 55090 60007 90710 91113 555 60005 10213 58013
AAXX 20064 91954 06/// /1304 10251 20214 30164 40167 51014 60001 333 55/// 60007 555 58010
AAXX 20064 91958 06/// /0709 10242 20199 30199 40201 51015 60001 333 55099 60007 90710 91118 555 60005 10818 58011
AAXX 20064 91945 NIL
BBXX PJKV 20063 99327 70346 41/98 41322 10205 20155 40238 57024 70222 8//// 22254 20603 309// 41003 5//// 80175
BBXX MGRH9 20063 99325 31627 41598 61112 10200 20149 40173 54000 70311 85884 22233 00192 20101 31519 41003 50802 80170
BBXX A8QR9 20064 99033 11003 41697 704// 10295 20275 40090 5/010 702// 85472 22234 20000 80280
BBXX 3FZK3 20064 99523 71392 46/// /2514 10064 20027 40179 53056 7//// 8//// 22223 0//// 2////
BBXX 46006 20061 99408 71375 46/// /2003 10118 40348 51006 90550 22200 00125 11506 3//// 41506 70032 333 91204 555 11032 22033 30541 42004 60549 201031 195029 194030 195028 200030 204027
BBXX 46026 20061 99378 71228 46/// /3201 10109 40191 53008 90550 22200 00111 11305 20401 330// 41305 70024 333 91202 555 11015 22015 30514 42904 60549 317014 307019 297021 302027 309019 298019
BBXX 46050 20061 99442 71246 46/// /0107 10084 40301 56005 90550 22200 00097 11404 20401 328// 41404 70021 333 91208 555 11069 22072 30533 40108 60549 008065 006071 010068 012063 011063 012063
BBXX CG2958 20064 99517 71281 46/// /2105 10081 20075 40227 51021 7//// 8//// 22200 0//// 2////
BBXX CG2965 20064 99487 71235 46/// /1604 10073 20045 40290 55001 7//// 8//// 22200 0//// 2////
BBXX CGBR 20064 99543 71303 46/// /1210 10075 20069 40090 51014 7//// 8//// 22200 0//// 2////
BBXX CGBY 20064 99487 71235 46/// /1504 10076 20047 40288 55001 7//// 8//// 22200 0//// 2////
BBXX CGDR 20064 99492 71239 46/// /0101 10070 20069 40284 53002 7//// 8//// 22200 0//// 2////
BBXX CGJK 20064 99484 71234 46/// /3603 10081 20060 40286 55008 7//// 8//// 22200 0//// 2////
BBXX KGTY 20064 99518 71391 43898 42722 10050 20020 40190 5//// 7//// 824// 22234 00050 21007 32225 41209 51412 6//// 80039 ICE /////
BBXX WJBU 20064 99574 71469 41198 /1824 10022 20010 40083 5//// 70222 8/1// 22253 0//// 20604 3//// 4//// 5//// 6//// 80017 ICE /////
BBXX WSM5364 20060 99583 71358 41/97 83115 10022 2//// 4//// 5//// 702// 8//// 222// 0//// 2//01 3//// 4//// 6////
AAXX 20064 91165 NIL
AAXX 20064 91182 NIL
AAXX 20064 91190 NIL
AAXX 20064 91212 NIL
AAXX 20064 91217 NIL
AAXX 20064 91285 NIL
AAXX 20064 91317 NIL
AAXX 20064 91334 11474 80610 10290 20246 30058 40061 55007 69931 70282 82171 333 56199 70333 555 92006
AAXX 20064 91348 11474 80410 10284 20248 30014 40066 55002 69901 70282 8522/ 333 56199 70003 555 92006
AAXX 20064 91356 NIL
AAXX 20064 91366 NIL
AAXX 20064 91369 NIL
AAXX 20064 91371 NIL
AAXX 20064 91376 32474 80813 10283 20213 30066 40069 53012 84808 333 562/9 70000 555 92006 /
AAXX 20064 91376 32474 80813 10283 20213 30066 40069 53012 84808 333 562/9 70000 555 92006
AAXX 20064 91376 32474 80813 10283 20213 30066 40069 53012 84808 333 562/9 70000 555 92006
AAXX 20064 91408 32574 70509 10311 20235 30024 40062 57014 83201 333 569/9 70003 555 92006
AAXX 20064 91413 32469 60710 10301 20243 30041 40066 57017 83271 333 56299 70003 555 92006
AAXX 20064 91425 NIL
AAXX 20064 91434 NIL
AAXX 20064 91765 NIL
AAXX 20064 47101 32975 20903 10025 21133 30172 40270 57033 80001
AAXX 20064 47105 369// /0504 10055 21151 30220 40253 57021
AAXX 20064 47108 32968 63403 10029 21100 30163 40271 57023 82031
AAXX 20064 47115 42575 60505 10038 21041 39971 40247 57010 85800 333 92032
AAXX 20064 47133 32970 01103 10045 21079 30190 40276 57026
AAXX 20064 47138 32968 12305 10076 21221 30253 40256 57022 80001 333 92022
AAXX 20064 47159 32975 33408 10069 21145 30171 40257 57016 80001 333 92023
AAXX 20064 47165 32968 63604 10056 21037 30223 40271 57023 80002 333 92022
AAXX 20064 47168 32970 42304 10063 21104 30182 40262 57021 80001 333 92022
AAXX 20064 47184 32670 53405 10088 21010 30249 40274 57018 81502 333 92022
AAXX 20064 91222 NIL
AAXX 20064 91245 NIL
AAXX 20064 91323 NIL
AAXX 20064 91339 NIL
AAXX 20064 91343 NIL
AAXX 20064 91353 NIL
AAXX 20064 91442 NIL
AAXX 20064 93004 16/// /0714 10168 20147 40205 52006 60001
AAXX 20064 93023 16/// /0906 10172 20132 40222 52008 60001
AAXX 20064 93069 16/// /0912 10174 20118 40221 52004 60001
AAXX 20064 93110 17/98 /0205 10171 20148 40218 52008 60031
AAXX 20064 93186 17/98 /0105 10186 20095 40222 52009 60001
AAXX 20064 93196 16/// /1515 10159 20108 40228 52010 60001
AAXX 20064 93245 16798 /1111 10177 20074 40213 52012 60001
AAXX 20064 93292 17798 /1607 10157 20105 40240 52007 60001
AAXX 20064 93309 17/98 /2806 10194 20119 40217 52002 60001
AAXX 20064 93334 16/// /1405 10154 20088 39270 52009 60001
AAXX 20064 93339 16/// /1809 10146 20091 39276 52009 60001
AAXX 20064 93373 17698 /1109 10158 20098 40245 52006 60001
AAXX 20064 93404 17698 /1311 10176 20091 40234 52001 60001
AAXX 20064 93420 17/98 /1911 10191 20083 40228 52003 60001
AAXX 20064 93439 17/98 /1612 10142 20095 40251 52004 60001
AAXX 20064 93498 16/// /1909 10134 20105 40249 52004 60001
AAXX 20064 93515 17698 /2711 10178 20141 40237 54000 60001
AAXX 20064 93527 16/// /0505 10162 20107 40242 54000 60001
AAXX 20064 93546 17/98 /0309 10176 20123 40236 52002 60001
AAXX 20064 93597 16/// /1307 10135 20106 40254 52005 60001
AAXX 20064 93615 17497 /2708 10184 20139 40234 57003 60001
AAXX 20064 93678 16498 /1306 10127 20100 40258 52006 60001
AAXX 20064 93709 16/// /2707 10188 20139 40239 54000 60001
AAXX 20064 93773 17498 /0906 10135 20099 40254 52010 60001
AAXX 20064 93781 17498 /0509 10140 20100 40255 52010 60001
AAXX 20064 93800 NIL
AAXX 20064 93805 NIL
AAXX 20064 93831 17998 /1817 10220 20078 40198 52010 60001
AAXX 20064 93845 17/98 /1610 10159 20106 40245 52008 60001
AAXX 20064 93891 17498 /1606 10153 20103 40245 57001 60001
AAXX 20064 93909 16/// /1304 10170 20094 40241 52001 60001
AAXX 20064 93929 16/// /9901 10101 20066 40243 57003 60001
AAXX 20064 93947 16/// /3007 10106 20072 40239 57003 60001
AAXX 20064 93987 16/// /2011 10118 20038 40209 52013 60001
AAXX 20064 93994 NIL
AAXX 20064 68396 32680 30000 10236 20165 39489 48551 50001 83500 333 20178 555 10284 91019
AAXX 20061 26038 01258 82104 10019 20010 39993 40034 52016 60022 78186 887// 333 10025 20012 60017 88506 91112 555 11002 20012 31001 50018 52001
AAXX 20061 26045 NIL
AAXX 20061 26058 NIL
AAXX 20061 26115 NIL
AAXX 20061 26135 01481 72205 10032 20020 39990 40064 53020 60092 70161 87600 333 10032 20002 60027 87712 91011 91112 555 12002 20002 32000 50010 52100
AAXX 20061 26141 01283 72107 10007 20003 39910 40059 52018 60062 71087 87300 333 10016 20001 43001 60037 87905 91010 91112 555 1/100 20001 3/100 50005 52100
AAXX 20061 26231 01462 82210 10033 20016 30058 40073 53023 60072 78086 883// 333 10043 20018 60007 88920 91015 91116 555 12002 20018 32002 50029
AAXX 20061 26242 01483 72005 10026 21004 30006 40093 52020 60022 70262 87500 333 10029 20008 60007 87620 91010 91114 555 12001 20008 32000 50016 52000
AAXX 20061 26247 NIL
AAXX 20064 47090 32970 03204 10049 21168 30229 40252 57021 333 92022
AAXX 20064 47095 32970 22705 10023 21139 30077 40270 57028 80001
AAXX 20064 47097 329// /1602 10026 21113 30176 40274 57028
AAXX 20064 47098 329// /2508 10028 21088 30130 40267 57025
AAXX 20064 47099 329// /2902 10036 21101 30235 40272 57026
AAXX 20064 47100 32970 22509 11016 21177 39316 40257 56023 80001
AAXX 20064 47102 32967 71602 10030 21027 30083 40264 57023 85031
AAXX 20064 47104 32970 13604 10045 21148 30154 40252 57021 80001
AAXX 20064 47106 329// /0205 10052 21132 30202 40252 57018
AAXX 20064 47112 32966 42003 10046 21078 30186 40271 57024 82031 333 92012
AAXX 20064 47114 32970 23403 10023 21127 30084 40271 57026 80001
AAXX 20064 47119 32968 52702 10034 21074 30230 40273 57025 83031
AAXX 20064 47121 329// /2502 10030 21133 39966 40265 57031
AAXX 20064 47127 329// /2302 10025 21129 30130 40275 57028
AAXX 20064 47129 32670 61603 10046 21052 30241 40277 57023 82501
AAXX 20064 47130 32975 00503 10058 21100 30190 40252 57019 333 92021
AAXX 20064 47131 32965 01403 10033 21103 30203 40275 57026
AAXX 20064 47135 329// /2511 10028 21119 39966 40270 57024
AAXX 20064 47136 32973 02704 10048 21146 30088 40262 57028
AAXX 20064 47137 329// /2706 10045 21159 30146 40266 57023
AAXX 20064 47140 32968 33403 10042 21053 30247 40276 57024 80001 333 92011
AAXX 20064 47143 32970 02906 10058 21161 30193 40273 57021
AAXX 20064 47145 32970 22301 10043 21094 30242 40269 57025 80001
AAXX 20064 47146 32972 63203 10050 21075 30208 40275 57021 80006
AAXX 20064 47150 32968 32003 10049 21041 30252 40271 57024 80001
AAXX 20064 47152 32975 30705 10071 21126 30211 40254 57019 80001
AAXX 20064 47154 329// /2705 10050 21144 30206 40267 57025
AAXX 20064 47155 32977 41404 10064 21127 30215 40261 57016 80001
AAXX 20064 47156 32972 43602 10057 21050 30185 40275 57023 80002
AAXX 20064 47157 32975 20703 10051 21149 39978 40251 57023 80001
AAXX 20064 47162 32975 40001 10070 21094 30220 40261 57019 80001 333 92021
AAXX 20064 47169 32965 61103 10068 20008 30176 40271 57023 80002 333 92021
AAXX 20064 47170 32968 63404 10074 21063 30225 40269 57020 80002 333 92022
AAXX 20064 47171 329// /3603 10051 21067 30220 40276 57021
AAXX 20064 47172 329// /3204 10049 21052 30203 40271 57021
AAXX 20064 47173 329// /0901 10053 21101 30159 40272 57024
AAXX 20064 47174 32970 63206 10053 21085 30060 40265 56019 80001
AAXX 20064 47175 32970 61403 10036 21030 39686 40266 57021 80002 333 92022
AAXX 20064 47185 32665 63613 10077 20000 30179 40271 57017 81502 333 92024
AAXX 20064 47188 32670 63405 10084 21011 30241 40263 57020 82502 333 92022
AAXX 20064 47189 32670 61805 10108 20037 30195 40255 57016 83501 333 92022
AAXX 20064 47192 32970 32703 10067 21124 30226 40264 57022 80001
BBXX LAHV 20061 99589 10057 43/// /0903 10016 21034 40008 222// 04075 1////
BBXX LDGJ 20061 99603 10053 43/// /1601 10000 21026 40008 5//// 222/0 04088 1//// 3//// 4//// 5////
BBXX LF4H 20064 99596 10022 46/98 11614 10056 20032 49980 57002 8//// 22200 06082 10502 70012 333 91118
BBXX LMEL 20061 99603 10053 43/// /1301 11010 21023 40005 5//// 222/0 04090 1//// 3//// 4//// 5////
AAXX 20061 15502 11550 80000 10026 20026 30087 40127 56005 69932 71022 885// 333 10028 20022 55000 70018 555 32101 500//
AAXX 20061 15525 11540 83202 10018 20018 39840 40110 57006 60002 71022 885// 333 10024 20017 70004 555 31102 500//
AAXX 20061 15528 11/05 92701 10018 20018 39886 40079 57008 60002 74544 333 10028 20014 55000 70003 555 31000 500//
AAXX 20061 15535 11/02 92003 10030 20025 30047 40094 56004 69912 74544 333 10030 20026 55000 70029 555 31/// 596//
AAXX 20061 15549 11/02 92702 10024 20011 39688 40110 57003 60002 74544 333 10038 20023 70052 555 31002 591//
AAXX 20061 15552 11440 81602 10098 20096 30044 40092 57006 60092 74064 886// 222// 2//01 309// 4//01 333 10102 20095 55000 70234 555 32009 59903 69699 70657 92022 92425
AAXX 20061 15614 11650 80000 10008 20003 39391 40107 57008 69902 78582 883// 333 10019 20002 55000 70003 555 31103 596// 66299 70600
AAXX 20061 15615 11/01 91810 11098 21110 37000 47925 57007 69932 77144 333 11070 21100 48999 55000 70010 555 591// 66299 70600 92711
AAXX 20061 15626 12670 70000 10016 20011 39907 40099 57013 60002 87500 333 10030 20014 55000 70059 555 31000 596//
AAXX 20061 15627 11/00 91606 11054 21061 37530 47956 56001 60022 74974 333 11042 21054 48005 50000 70030 93507 555 595// 60499 92713
AAXX 20061 15640 11520 80000 10055 20034 39790 40104 57002 60042 71062 886// 333 10076 20048 55000 70193 555 32002 586// 706//
AAXX 20061 15655 11508 82701 10087 20081 30060 40093 57002 60092 74662 885// 222// 00085 309// 40602 333 10100 20080 70236 555 32/// 59601 69499 70650 92032 92433
AAXX 20061 15712 11957 80000 10046 20034 39846 40098 57002 69922 76162 8802/ 333 10053 20034 55000 70002 555 31003 59200 62699 70600
AAXX 20061 15730 11/00 90000 10029 20027 39706 40103 57002 60042 74764 333 10032 20020 55000 70123 555 31002 598// 70600
AAXX 20061 14240 12975 33401 11018 21040 30016 40178 55001 69902 82031 333 21018 34107 70012
AAXX 20061 14258 NIL
AAXX 20061 14445 12675 70608 10050 21059 39949 40106 52009 60012 85870 222// 00150 333 20038 31001 70069 85696 82499 92312
AAXX 20061 38353 42597 83102 11177 21210 39550 40561 52007 885// 333 21211
AAXX 20061 38613 42999 21801 11060 21134 40436 58003 80002 333 21092
AAXX 20061 38616 42597 60000 11072 21159 39357 40444 58002 82501 333 21113
AAXX 20061 38345 32998 60000 11192 21241 38958 48607 52002 80006 333 21252
AAXX 20061 36911 42998 80000 11151 21185 39471 40539 52008 8802/ 333 21237
AAXX 20061 36974 12798 71101 11152 21194 38023 48599 54000 60020 85601 333 21175
AAXX 20061 36982 11596 80000 11169 21203 36526 47184 52015 60012 70272 8802/ 333 21200
AAXX 20064 16622 11257 79901 10070 20070 30094 40105 57011 60002 71022 85670 333 20060 30/// 5///0 55000 70002 82706 84625 86358 90730 91112 555 10000 30080 20000 89077 99097 30000 10082 2//// 30092 4//// 5//// 40000 47602 44225 50000 50070 70000 77Y// 7/Y//
AAXX 20064 16641 11460 70000 10062 20058 30078 40083 55007 60032 71792 85958 333 20060 32/// 55000 70216 84710 82918 85625 87268 90730 91107 555 10000 30116 20000 89066 99092 40000 47587 44195 50000 50060 60000 60030 60224 70000 77VP/ 7TVP/
AAXX 20064 16682 11460 51505 10086 20065 30087 40106 55000 60032 72196 83840 333 20086 31/// 5///0 55003 70049 81818 83620 90730 91131 555 10000 30118 20000 89069 99097 30000 10096 20110 30114 40126 50142 60184 40000 47597 44210 50000 50076 60000 60028 60100 70000 77/// 7TR//
AAXX 20064 16716 12560 30000 10096 20075 30091 40110 57019 60042 83801 333 20096 31/// 55000 70100 81825 83635 555 10000 30132 20000 89079 99088 40000 47595 44170 50000 50086 60000 60043 60600
AAXX 20064 16734 17/// /2107 10124 20063 30063 40124 52005 60032 7414/ 333 20104 90730 91131 555 10000 30142 20000 89066 99095 60000 60031 60447
AAXX 20064 16743 NIL
AAXX 20064 16749 12360 69902 10168 20125 30131 40146 53005 60002 84770 333 20164 30/// 55000 70000 81707 84620 86358 90730 91114 555 10000 30182 20000 89064 99080 40000 47631 44220 50000 50144
AAXX 20064 16754 11565 61404 10142 20120 30091 40138 53006 69902 70262 85850 333 20142 30/// 50520 55034 79999 83825 83635 86358 90730 91107 555 10000 30166 20000 89055 99073 40000 47599 44195 50000 50130 60000 65555 60040 70000 77/// 7R///
AAXX 20064 78762 32070 01207 10189 20133 39095 40117 57002 333 10262 20189 30/// 59006
AAXX 20064 78762 32070 01207 10189 20133 39095 40117 57002 333 10262 20189 30/// 59006
AAXX 20064 78762 32070 01207 10189 20133 39095 40117 57002 333 10262 20189 30/// 59006
AAXX 20061 26645 32697 11702 11032 21039 39912 40180 54000 81500 333 21032 42001 555 90010
AAXX 20061 26659 32963 61702 11036 21054 39978 40201 57004 80001 333 21036 555 90010
AAXX 20061 26763 31350 81504 11013 21023 39977 40212 57008 71022 886// 333 21032 88708 555 90010
AAXX 20061 26825 31956 60000 11038 21043 39982 40172 57006 71022 86030 333 21038
AAXX 20061 26832 31657 60000 11035 21046 39981 40182 57009 71011 86500 333 21037 86643 555 90010
AAXX 20061 26887 31897 80603 11025 21038 30000 40213 57030 71011 8807/ 333 21025 555 90011
AAXX 20061 26961 31218 80802 11017 21024 39998 40196 57010 71011 886// 333 21034 88705 555 90011
AAXX 20061 33027 31996 80000 11021 21027 30008 40181 57018 71011 86077 333 21035 555 90013
AAXX 20064 08001 12465 6//// 10130 20104 30195 40277 54000 60002 83870 333 20100 30008 50154 55/// 70000 924/7
AAXX 20064 08015 11760 81802 10082 20051 39865 40276 57003 60002 702// 8807/ 333 20055 30004 50154 55061 70000
AAXX 20064 08023 11560 82410 10112 20104 30179 40251 57010 69982 72052 888// 333 20084 50143 55029 70027
AAXX 20064 08027 11475 82613 10098 20082 39933 40246 58009 60012 70262 886// 333 20070 32005 50070 55005 70154
AAXX 20064 08045 01457 82307 10067 20050 39993 40311 55005 60002 71022 887// 333 20062 30005 55080 60007 70000
AAXX 20064 08141 12960 41705 11014 21033 39420 40322 53001 60002 80002 333 21022 34104 55059 70000
AAXX 20064 08160 12670 32310 10048 21002 39950 40268 56005 60002 81545 333 20028 55062 70000
AAXX 20064 08181 02568 23607 10037 21007 30220 40227 56011 60002 82800 333 20033 3/006 55018 60007 70000
AAXX 20064 08221 02969 20401 11034 21050 39601 40328 53004 60002 80002 333 21034 31104 55084 60007 70000
AAXX 20064 08231 NIL
AAXX 20064 08261 12970 02502 10042 20005 39821 40320 56005 60002 333 20026 31000 55064 70000
AAXX 20064 08284 02965 62408 10056 21016 30182 40260 55002 60002 80008 333 20040 3//// 50244 55/// 60007 70000
AAXX 20064 08306 12570 22804 10115 20056 30235 40241 54000 60002 81108 333 20100 55083 70000
AAXX 20064 08314 02570 60000 10081 20043 30128 40234 55000 60002 8583/ 333 20078 3//// 55063 60007 70000
AAXX 20064 08430 12980 02504 10072 21028 30207 40284 52003 60002 333 20060 30002 50151 55088 70000
AAXX 20064 08482 12970 03108 10062 21007 30275 40284 52001 60002 333 20040 55053 70000
BBXX BATUK01 20064 99585 70059 46/// /2823 10062 20002 40060 50010 22222 00105
AAXX 20064 60135 32450 31305 10069 20058 40266 53005 83500 333 20053 83615
AAXX 20064 60156 17203 31104 10041 20041 40282 53008 60004 73010 83600 333 20033 83704
AAXX 20064 60230 15956 31303 10063 20059 40263 53001 60004 83082 333 20062 83360 83070
AAXX 20064 60252 12960 00907 10094 20067 40231 53002 333 20079 95800
AAXX 20064 60106 32965 02403 10000 21015 40306 53003 333 21002
AAXX 20064 60318 32558 22808 10044 20029 40278 56001 82200 333 20040 82820
AAXX 20061 26509 11570 62305 10033 20018 30117 40126 52005 60082 72582 86500 333 20020 31/// 86626 91010 91114 555 53019 7011/
AAXX 20061 26518 11359 82004 10000 21008 40137 52003 69902 71022 8872/ 333 20000 48016 88508 91007 91111 555 53016 7002/
AAXX 20061 26524 32498 62003 10008 21003 30004 40139 52006 885// 333 20008 32/// 88614 91006 91112 555 53016 7003/
AAXX 20061 26531 32461 72103 10005 21009 40147 52007 87600 333 20003 34/// 87712 91007 91111 555 53016 7990/
AAXX 20061 26629 31896 20000 11025 21031 30063 40162 54000 71011 82030 333 21026 34/// 91003 91110 555 53013 7990/
AAXX 20061 26633 31558 11502 11027 21040 30031 40166 53002 71000 81500 333 21028 34/// 91004 91107 555 53014 7990/
AAXX 20061 26730 31950 11502 11040 21045 39979 40179 54000 71000 81500 333 21041 91003 91105 555 53014 7990/
AAXX 20061 14008 12699 13202 11164 21208 37378 47909 58003 60002 81040 333 21177 49110 55000 70019 92838 95120
AAXX 20061 14015 11112 81401 11026 21032 39809 40182 56004 60002 7284/ 886// 333 21027 34105 55000 70014 88701 555 20014 30022
AAXX 20061 14024 12899 23504 11077 21082 39037 48414 55002 69902 81041 333 21082 3/012 48024 55000 70033 92805 93100 95140 95000 444 66056
AAXX 20061 14026 11093 10000 11081 21090 39845 40185 55004 60002 74174 81630 333 21084 3/112 42002 55000 70011 81701 92800 93101 555 20008 30018
AAXX 20061 14031 11996 30000 11050 21056 39940 40180 55004 60002 71000 83030 333 21051 34108 55000 70000 555 21004 30007
AAXX 20061 14105 11999 01204 11014 21061 30161 40166 55000 60002 702// 333 21014 30105 55000 70000 555 20018 30035
AAXX 20061 14106 12999 01102 11045 21051 30093 40165 55001 60002 333 21055 34108 55000 70000 92611 95000 555 20002 30011
AAXX 20061 14112 12/97 00000 11066 29098 60034 333 10000 21080 3/113 4/005 70028 93105 14009 12/98 00000 11082 29065 69984 333 11030 21087 48014 70008 93102
AAXX 20061 14121 11495 82801 11026 21029 39902 40180 52001 69922 72844 886// 333 21026 3/103 42004 55000 60036 88717 92821 93100 555 20017 30026
AAXX 20061 14122 11/06 92501 11023 21024 39978 40183 55001 60002 74544 333 21025 34/// 70006 89/01
AAXX 20064 62010 12660 42507 10059 20027 40240 53011 69924 84800 333 018 20059 50404 55050 83835 83640
AAXX 20061 06414 16/// /2806 10067 20048 30052 40084 53003 60022 333 20024 91110 91207
AAXX 20061 06459 16/// /2806 10048 20048 39894 40087 55005 60042 333 20006 3/000 91111 91208
AAXX 20061 06494 16/// /2402 11013 21018 39272 40084 55009 60092 333 21037 4/031 91107 91205
AAXX 20064 16643 11460 70411 10088 20071 30098 40103 55002 60142 72992 85970 333 20082 31/// 70170 82710 83918 87358 90730 91115 555 10000 30104 20000 89076 99092 40000 47604 44210 50000 50080 60000 60140 60520 70000 77TR/ 7T///
AAXX 20064 16648 11203 60000 10056 20051 30018 40109 57013 60002 74442 85650 333 20056 31/// 50020 55000 70000 83705 83630 86358 90730 91104 555 10000 30078 20000 89089 99094 30000 10070 2//// 30074 40078 5//// 6//// 40000 47544 44210 50000 50054 70000 77F// 7FY//
AAXX 20064 16650 12360 49902 10090 20082 30083 40087 57002 60092 82651 333 20088 30/// 55000 70594 82708 83358 90730 91104 555 10000 30130 20000 89090 99098 30000 10090 20100 30108 40104 50126 60140 40000 47593 44220 50000 50086 60000 60094 60700
AAXX 20064 16684 NIL
AAXX 20064 16732 11470 62116 10154 20101 30116 40129 56002 69962 70162 82260 333 20148 31/// 55003 70006 82818 85358 90730 91122 555 10000 30172 20000 89054 99078 40000 47613 44160 50000 50126 60000 60006 6//// 70000 77/// 7R///
AAXX 20061 14241 12880 52902 11024 21047 30040 40176 55000 69922 85500 333 21025 31/// 70031
AAXX 20061 14284 11360 83204 10001 21004 30037 40149 51002 60052 77177 887// 333 20001 3/100 43002 70088 92810 93102
AAXX 20061 14307 32980 00302 11002 21078 30082 40161 56002 333 21032 30///
AAXX 20061 14317 NIL
AAXX 20061 14431 12680 20401 11001 21048 30043 40140 53008 60002 81830 333 21017 34/// 70023 81840
AAXX 20061 14444 13770 63103 10047 21036 30089 40119 52011 60012 82530 333 20042 30/// 70112
AAXX 20061 14474 11675 70107 10052 20005 39891 40084 55000 60062 70262 82220 333 20042 31/// 70241
AAXX 20061 10948 12975 80501 11088 21092 39187 48405 56032 69902 86037 333 11042 21139 3/117 47030 55022 55300 20000 30000 79999 86359 88270
AAXX 20064 16614 11460 80000 10022 20015 39314 40103 58002 60032 70262 885// 333 20015 32/// 55000 70066 90730 91105 555 10000 30030 20000 89093 99096 60000 60027 60300 70000 77/// 7R///
AAXX 20064 16627 11460 60000 10086 20082 30095 40099 53002 60272 70162 83650 333 20084 32/// 50000 55000 70874 83715 85357 90730 91106 555 10000 30122 20000 89094 99100 30000 10094 20096 30102 40104 50110 6//// 40000 47600 44200 50000 50084 60000 60268 60600 70000 77/// 7R///
AAXX 20064 16667 11560 81715 10148 20103 30110 40115 55004 60122 76062 8682/ 333 20126 31/// 55000 70123 82820 85625 88458 90730 91128 555 10000 30176 20000 89053 99090 30000 20126 30134 40000 47612 44200 50000 50124 60000 60117 60620 70000 77R// 7R///
AAXX 20064 16675 NIL
AAXX 20064 16710 36/// /2308 10066 20026 39350 40122 52003 333 20050 90730 91120 555 10000 30070 20000 89071 99095
AAXX 20064 16723 11460 82010 10158 20118 30113 40129 53006 60252 76162 8582/ 333 20158 32/// 55//// 70250 82818 84625 88458 90730 91125 555 10000 30170 20000 89071 99086 40000 47618 44230 50000 50136 60000 60250 60430 70000 77R// 7R///
AAXX 20064 16738 17/// /9904 10124 20094 39928 40127 52002 60032 741// 333 20116 90730 91111 555 10000 30156 20000 89063 99088 60000 60032 60341
AAXX 20064 16746 12560 42510 10130 20078 39956 40138 53011 69972 82230 333 20122 30/// 55013 70007 82820 84358 90730 91117 555 10000 30148 20000 89053 99093 40000 47498 44200 50000 50104 60000 60007 60020
AAXX 20064 04005 NIL
AAXX 20064 04018 41457 72322 11020 21042 49948 52010 78588 85260 555 3//31 82812 84631 85644
AAXX 20064 04030 41570 62211 11014 21034 49949 52012 78681 85930 555 3//19 83922 85628
AAXX 20064 04048 NIL
AAXX 20064 04063 42680 71209 11018 21053 49915 57001 86520 555 3//12
AAXX 20064 04077 NIL
AAXX 20064 04082 NIL
AAXX 20064 04097 42689 13206 10006 21087 49922 54000 81200 555 3/313
AAXX 20063 04013 41210 82318 11009 21025 49918 52016 77377 83620 555 3//18
AAXX 20063 04064 41650 30202 11050 21064 49962 52005 78500 82942 555 3//05
AAXX 20061 13160 12697 83303 10000 21003 30035 40145 54000 60072 885// 333 20000 3/000 43009 55000 70130 93103
AAXX 20061 13262 11596 82901 10007 21000 39995 40147 52005 69982 77177 8802/ 333 20006 3/000 42997 55000 70078 93197
AAXX 20061 13272 11240 83002 10003 21003 30010 40133 52008 60042 77176 8672/ 333 20001 32000 55000 84703 85710 88457
AAXX 20061 13285 11596 82502 10014 20006 30017 40122 55000 60022 77166 8802/ 333 20014 31001 55006 70018 93100
AAXX 20061 13289 11/92 93007 11040 21045 38888 48389 55000 60022 77374 333 21040 3/105 47012 55000 70048 93102
AAXX 20061 13376 11594 82601 10001 21002 39870 40140 52007 60072 77177 8802/ 333 20000 3/000 43005 93105 55000 70070
AAXX 20061 13388 11696 83303 10013 20006 39864 40117 51008 69962 77176 885// 333 20013 31001 55000 70007 93197
AAXX 20061 13462 11460 63501 10047 20037 30056 40096 55001 60162 76066 84520 333 20044 32004 55/// 82710 84630 86457
AAXX 20061 13473 NIL
AAXX 20061 13489 11495 80201 10035 20031 39577 40101 53001 60032 76162 887// 333 20035 32003 55000 70029
AAXX 20061 01492 16/// /0403 11007 21037 39897 40016 52004 6//// 333 21026 91103
AAXX 20061 01359 11989 02101 11133 21149 39106 40066 52006 60002 70200 333 21146 48040 70000 91105
AAXX 20064 17026 12970 51607 10173 20024 30094 40132 56001 60002 85030 333 20122 30009 55027 20025 85360 91115 92418
AAXX 20064 17034 12970 62004 10117 21004 30121 40167 56002 60002 86030 333 20101 30005 86360 92428
AAXX 20064 17070 12565 70402 10103 20011 39286 40147 58004 60002 85520 333 20075 32005 50124 55011 20352 85630 87460 91110
AAXX 20064 17084 12959 53501 11010 21013 39292 40223 53002 60002 85050 333 21016 30102 55003 85360 91102
AAXX 20064 17090 3//// /0000 10003 21047 38774 40274 5//// 60002 333 21025 3//// 4////
AAXX 20064 17098 12960 40000 11125 21141 38299 48612 52005 60002 80002 333 21167 3/117 41001 50024 55020 21026 84070
AAXX 20064 17150 11660 71708 10119 20099 39999 40121 50002 60072 78088 84250 333 20107 32010 50081 55002 20322 70068 84835 86360
AAXX 20064 17160 12670 80000 10013 21005 39031 48497 57004 60002 8452/ 333 21004 31101 55017 84640 88460 91107
AAXX 20064 17184 11670 81301 10115 20112 30018 40128 57002 60122 72162 8452/ 333 20114 32011 55000 70116 84638 88460 91107
AAXX 20064 17189 12560 62403 10064 20015 39005 48476 51001 60002 83550 333 20037 30003 83630 86360
AAXX 20064 17210 11/01 90000 11019 21019 39231 40309 52018 60002 74544 333 21024 34105 55013 89/04
AAXX 20064 17234 11660 70401 10131 20119 30072 40139 53008 60052 78011 84270 333 20131 32012 50104 55001 70050 84834 87360 91108
AAXX 20064 17260 12960 02703 10014 20008 39431 40275 52001 60002 333 21014 30104
AAXX 20064 17290 12670 71916 10171 20127 30113 40144 52005 60002 84270 333 20164 30015 50404 55000 84835 87360 91125 92448
AAXX 20064 17370 12965 51307 10156 20038 30201 40205 53006 60002 85030 333 20134 30009 50164 55064 2//// 85360 92427
AAXX 20064 17022 12662 71808 10172 20003 39954 40115 57005 60002 85570 333 20168 30011 55000 85634 87360 91120 92437
AAXX 20064 17031 12970 51703 10079 20022 30150 40156 53001 60002 83031 333 20055 30004 83360 85070
AAXX 20064 17038 12958 40000 10105 20019 30117 40168 57006 60002 84030 333 20087 30006 55008 20523 84360 92416
AAXX 20064 17050 1//// /1802 10046 20044 30040 40104 50008 60122 333 20042 3//// 4//// 70320
AAXX 20064 17060 11557 72407 10118 20115 30080 40119 53001 60032 78022 85270 333 20116 32010 50221 55003 20264 70042 85830 86358
AAXX 20064 17096 11856 41504 11133 21133 38324 48597 51005 60002 71000 84040 333 21187 3/120 47006 55027 20222 84358
AAXX 20064 17124 12660 71306 10052 20024 39245 40164 55000 60002 82507 333 20048 31003 50144 55002 20368 82640 87270
AAXX 20064 17128 11656 69902 10009 20009 39090 40209 53003 60002 71022 81101 333 20006 30000 50124 55021 20163 81840 85068
AAXX 20064 17170 NIL
AAXX 20064 17195 11958 62302 10013 21026 38999 48515 52002 60002 71011 86030 333 21037 30105 50044 55024 20787 86362
AAXX 20064 17199 3//// /1601 10009 21017 39185 40320 5//// 60002 333 20006 3//// 4////
AAXX 20064 17219 11465 72312 10122 20089 39989 40132 53009 60282 78098 86950 333 20122 32010 55000 20134 70308 82915 84825 87360 91127
AAXX 20064 17240 12570 61405 10099 20017 39022 40160 55004 60002 83250 333 20079 31008 55000 20188 79999 83830 86360 91123
AAXX 20064 17244 12670 62206 10042 20002 38993 48489 57007 60002 82501 333 21007 31/// 55/// 2//// 82640 86070
AAXX 20064 17280 11/01 91102 11025 21022 39483 40316 52011 60002 74544 333 21032 31104 50041 55049 20251
AAXX 20064 17350 12960 53404 10086 20047 30123 40202 51002 60002 85030 333 20084 30/// 85360
AAXX 20061 26106 12/97 81906 10029 21003 40124 52016 69902 885// 333 20028 91010 91113
AAXX 20061 26313 11/96 62103 10023 20014 40085 52018 60082 78082 86900 333 20005 91113
AAXX 20061 26346 32497 82005 10005 21013 40135 52015 886// 333 20003 88716 91114
AAXX 20061 26406 11597 52307 10036 21003 40110 52013 69902 78082 83950 333 20036 91012 91116
AAXX 20061 26416 33/// /2104 10010 20001 40117 52012 333 20008 91115
AAXX 20061 26424 12497 62304 10013 21002 40123 52011 60022 83540 333 20013 91112
AAXX 20061 26544 32997 21902 11030 21042 40170 52006 81031 333 21030 91110
AAXX 20064 48429 31960 20506 10282 20155 30103 40110 56031 70500 80001 333 59011
AAXX 20064 48552 31458 60508 10285 20221 30083 40090 57023 71022 83206 333 59005 70018
AAXX 20064 48387 32560 20908 10210 20121 39166 40124 57026 81501 333 59012
AAXX 20064 48440 31958 30000 10300 20184 30057 40106 57035 70500 80004 333 59006
AAXX 20061 15015 02598 72601 11028 21044 39503 42717 56007 60002 87500 333 11013 21041 3/103 42998 60007 70000 91002 91102 92600
AAXX 20061 15020 01596 83001 11001 21001 39917 40120 57016 60022 77172 8657/ 333 10007 21005 3/101 43001 60027 70020 91002 91103 92801 96010
AAXX 20061 15090 01495 82901 10017 20017 30010 40104 57021 60042 76155 8662/ 333 10021 20013 31101 55300 10005 20000 30001 60037 70038 91003 91103 96010
AAXX 20061 15108 01/91 90000 11046 21046 38003 48433 57015 60052 77174 333 11045 21079 3//// 47012 60047 70051 92727 92800 93537
AAXX 20061 15120 01597 82302 11008 21025 39611 40119 57003 69902 77172 8457/ 333 11004 21011 34103 55300 10044 2//// 3//// 69907 79999 91002 91103
AAXX 20061 15150 01597 83101 10003 20003 39894 40112 56015 60022 76872 8557/ 333 10005 21003 31103 6///7 70018 91002 91103
AAXX 20061 15170 01496 81801 11021 21021 39310 42714 57010 60032 77172 8802/ 333 11021 21033 3/102 47006 60027 70035 91001 91101 96010 92800
AAXX 20061 15200 01594 83201 10004 20004 39973 40121 57002 69922 71072 885// 333 10013 20003 31001 60007 70002 91002 91102
AAXX 20061 15230 02997 80201 10001 21021 39823 40124 57002 60002 8807/ 333 10016 21005 34101 55300 10027 20001 3//// 60007 70000 91001 91102
AAXX 20061 15260 02998 82401 11008 21017 39570 40119 57005 60002 8807/ 333 10050 21012 31104 60007 70000 91001 91101 95000
AAXX 20061 15280 01/93 72002 11076 21093 37383 47905 57009 60012 74174 83532 333 11062 21087 3//// 48031 69947 70027 92825
AAXX 20061 15292 02597 80201 10013 20008 39821 40121 53002 60002 885// 333 10044 20013 31001 60007 70000 91002 91102
AAXX 20061 15310 01492 83102 10035 20035 30006 40093 56007 60022 74254 886// 333 10041 20025 31002 55300 10003 20001 3//// 69927 70042 91004 91104
AAXX 20061 15335 01497 81803 10096 20096 30080 40086 56012 60072 7616/ 8672/ 333 10096 20052 31104 6///7 70107 91005 91107
AAXX 20061 15346 01597 83501 10027 20022 39813 40107 57003 60022 70262 885// 333 10035 20022 31002 69977 70018 91001 91102
AAXX 20061 15350 02597 80702 10038 20026 39981 40103 56003 60012 885// 333 10046 20032 31002 60007 70019 91003 91104
AAXX 20061 15360 01497 81607 10092 20090 30075 40089 57012 60022 70262 886// 222// 06078 20301 333 10100 20083 3//// 60007 70017 91008 91109 92427
AAXX 20061 15410 01597 82601 10029 20024 30017 40114 57004 60032 76162 8802/ 333 10029 20020 31001 69937 70053 91001 91101
AAXX 20061 15420 01496 81001 10036 20035 39992 40105 55000 60032 75155 886// 333 10039 20020 31002 55300 0//// 20000 3//// 69917 70051 91002 91102 96010
AAXX 20061 15450 01493 83101 10017 20017 39868 40107 57006 60032 74474 886// 333 10019 20010 31002 55300 10014 20000 30000 60007 70036 91002 91102
AAXX 20061 15460 01492 83401 10033 20033 30069 40094 58007 69922 75342 886// 333 10043 20033 31003 69927 70076 91001 91102 96044
AAXX 20061 15470 01493 82901 10027 20027 39976 40105 57004 60002 7462/ 886// 333 10028 20021 31002 60007 70013 91002 91102
AAXX 20061 15480 01497 81502 10100 20100 30073 40090 56011 60102 76162 8672/ 222// 06073 2//// 333 10102 20088 31007 60037 70209 91005 91106 92427
AAXX 20064 06030 01257 80903 10015 20008 30005 40021 56006 69912 71021 8563/ 333 10029 20008 31101 6///7 70002 85705 86358
AAXX 20064 06060 01140 71907 10024 20020 39952 40017 57007 60022 76866 87600 333 10025 20004 31101 60027 70020 81703 87705
AAXX 20064 06070 27241 82005 10017 20005 30006 40036 57008 76176 333 10034 20014 60037 83/05 87/07 88/09 91120
AAXX 20064 06120 NIL
AAXX 20064 06180 02475 82016 10027 20003 30058 40064 57010 6///2 885// 333 10038 20015 31001 6///7 70001 88616 91127
AAXX 20064 06193 05/67 02011 10022 21011 30081 40093 57007 6///2 333 10051 20020 55300 20000 6///7 70001 91120 91222
AAXX 20064 71950 17666 81613 10040 20012 39431 40058 53009 60001 761// 333 10038 21050 70043 555 31619 40061
AAXX 20064 71952 16/// /2203 10031 21021 39230 40075 51018 60001 333 10052 21056 70000 555 32120 40221
AAXX 20064 71954 NIL
AAXX 20064 71956 NIL
AAXX 20064 71959 NIL
AAXX 20064 71960 460// /0704 11291 39906 40044 53019 6///1 333 11232 21307 7//// 555 30421 40081
AAXX 20064 71962 16/// /2306 11059 21083 39794 40228 56011 60001 333 11019 21073 70000 555 10010 33121 40071
AAXX 20064 71963 NIL
AAXX 20064 71967 16/// /3417 11041 21091 30045 40151 53049 60001 333 10023 21114 70000 555 33428 40052
AAXX 20064 71970 NIL
AAXX 20064 71971 NIL
AAXX 20064 71972 460// ///// 11133 39497 49962 53002 6///1 333 11132 21155 7////
AAXX 20064 71973 46/// /1102 11080 21113 39852 40042 58042 6///1 333 11061 21179 7////
AAXX 20064 71974 NIL
AAXX 20064 71975 460// /1904 11168 39207 49936 53013 6///1 333 11149 21188 7//// 555 32732 40192
AAXX 20064 71976 NIL
AAXX 20064 71977 NIL
AAXX 20064 71978 NIL
AAXX 20064 71979 NIL
AAXX 20064 71980 NIL
AAXX 20064 71981 NIL
AAXX 20064 71982 NIL
AAXX 20064 71983 NIL
AAXX 20064 71984 16/// /2708 11249 21274 30000 40009 52014 60001 333 11178 21287 70000 555 10010
AAXX 20064 71985 NIL
AAXX 20064 71986 NIL
AAXX 20064 71987 16/// /2721 10004 21021 39990 49999 55018 60001 333 10011 21065 70000 555 32433 40052
AAXX 20064 71988 NIL
AAXX 20064 71989 NIL
AAXX 20064 71990 NIL
AAXX 20064 71999 46/// ///// 10069 6///1 333 10074 21016 7////
AAXX 20064 71114 160// /2406 10056 20040 30232 40281 55008 60001 333 10067 20008 70015
AAXX 20064 71120 12674 62509 10019 21023 39360 40011 56021 60001 86501 333 10024 21131 70000 555 10000 20000 32618 40230
AAXX 20064 71122 16/// /2309 11030 21064 38558 40181 58015 60001 333 7////
AAXX 20064 71123 11874 82006 10004 21019 39173 40036 56028 60001 71422 87072 333 10028 21151 70000 555 10000 20000
AAXX 20064 71125 NIL
AAXX 20064 71129 12674 62006 11025 21049 39242 40079 56026 60001 82501 333 11012 21142 70000 555 10000 20000 32118 40190
AAXX 20064 71131 16/// /2513 11062 21066 38853 40123 56024 60001 333 11047 21138 70000 555 32317 40011
AAXX 20064 71135 16/// /2516 11030 21072 39037 40133 56020 60001 333 11022 21149 70000 555 32226 40001
AAXX 20064 71137 16/// /2008 11052 21070 39176 40135 56022 60001 333 11041 21215 70000 555 31917 40221
AAXX 20064 71140 11974 72224 11034 21070 39625 40134 5/041 60001 73611 82072 333 11034 21145 70000 555 10000 20000 32228 40061
AAXX 20064 71145 11574 82311 11048 21074 39711 40007 56050 69901 73677 84570 333 11048 21171 48040 70010 90933 555 10010 20010 32228 40021
AAXX 20064 71148 NIL
AAXX 20064 71185 16964 00000 11056 30005 40029 56042 60001 333 11056 21145 70005
AAXX 20064 71188 11574 22904 11067 21104 39943 49986 57020 69901 70171 82500 333 11050 21260 43013 70004 90933 555 10004 20004
AAXX 20064 71200 16/// /0702 10065 20046 60001 333 10077 20048 70000
AAXX 20064 71207 17/// /2104 10043 30218 40283 53011 60041 7//4/ 333 10048 21007 70041
AAXX 20064 71260 13/// ///// 11053 21086 39996 40238 50000 60001 333 10040 21054 79999 555 19999 29999
AAXX 20064 71900 46/// /25// 11142 21173 30030 40043 56016 6///1 333 11134 21156 7////
AAXX 20064 71903 NIL
AAXX 20064 71904 NIL
AAXX 20064 71914 16/// /2601 10053 20036 30065 40290 53004 60001 333 10056 20025 70000
AAXX 20064 71916 NIL
AAXX 20064 71918 460// ///// 11346 6///1 333 7////
AAXX 20064 71920 NIL
AAXX 20064 71921 NIL
AAXX 20064 71923 NIL
AAXX 20064 71927 16/// /0000 10056 20040 30229 40288 55000 60001 333 10077 20008 70000
AAXX 20064 71941 15566 83108 11118 21149 39780 40207 51018 60001 333 10005 21118 70033
AAXX 20064 71947 15564 83010 11156 21183 39838 40197 51020 60001 333 11028 21156 70031
AAXX 20064 71102 NIL
AAXX 20064 71105 NIL
AAXX 20064 71107 NIL
AAXX 20064 71110 NIL
AAXX 20064 71111 17561 82326 10067 20039 30082 40090 53012 69981 7614/ 333 10108 20058 70109
AAXX 20064 71112 16/// ///// 60001 333 70002
AAXX 20064 71113 17/// /0202 10053 20046 30260 40284 55008 69941 7//4/ 333 10073 20037 70004
AAXX 20064 71115 NIL
AAXX 20064 71116 16/// /3503 11013 21054 39037 40142 56017 60001 333 10008 21100 70000 555 10010
AAXX 20064 71118 16/// /2108 11007 21049 39222 40048 56024 60001 333 10011 21130 70000
AAXX 20064 71121 17664 82309 10025 21047 39215 40034 56019 60001 743// 333 10027 21097 70005 555 32624 40201
AAXX 20064 71127 16/// /2606 10022 21016 39128 40025 56020 60001 333 10025 21091 70000 555 32418 40191
AAXX 20064 71130 15966 82212 11004 21052 39567 40026 56014 60001 333 11004 21146 70000
AAXX 20064 71132 15666 62706 11061 21072 39584 49895 56003 60001 333 11042 21135 70000
AAXX 20064 71133 46/// /2512 10007 21057 39313 40015 56023 6///1 333 10008 21146 7//// 555 32330 40202
AAXX 20064 71139 NIL
AAXX 20064 71141 NIL
AAXX 20064 71142 15966 32122 11017 21049 39118 40092 58030 60001 333 11015 21141 70000
AAXX 20064 71143 NIL
AAXX 20064 71144 NIL
AAXX 20064 71147 16/// /2117 11027 21069 60001 333 11025 21127 70000 555 32222 40061
AAXX 20064 71149 16/// /2422 11004 21070 60001 333 11001 21080 70000 555 32437 40063
AAXX 20064 71864 NIL
AAXX 20064 71865 16/// /2517 11006 21055 39377 40058 58025 60001 333 10000 21135 70000 555 32233 40002
AAXX 20064 71866 46964 02409 11033 21064 39447 40064 56020 6///1 333 11004 21151 7//// 555 32125 40231
AAXX 20064 71867 12974 02714 11010 21046 39657 49991 55022 60001 333 11008 21112 70000 555 10000 20000 32024 40001
AAXX 20064 71868 16/// /2509 11002 21050 39577 40016 56024 60001 333 10006 21101 70000 555 32321 40041
AAXX 20064 71869 12874 32410 11020 21059 39509 40035 57016 60001 81071 333 11014 21148 70000 555 10000 20000
AAXX 20064 71871 15866 82311 10014 21039 39232 40035 57023 60001 333 10026 21124 70000
AAXX 20064 71877 12974 72522 10073 21037 38821 40076 57031 60001 84022 333 10080 21100 70000 555 10000 20000 32728 40221
AAXX 20064 71878 12974 62204 10023 21031 38997 40073 56022 60001 82071 333 10030 21169 70000 555 10000 20000 31820 40110
AAXX 20064 71879 16664 82303 10009 21025 39239 40041 55015 60001 333 10034 21091 70000
AAXX 20064 71880 12782 81507 11007 21061 39132 40257 55004 60001 86502 333 10008 21035 70000 555 10000 20000 31519 40040
AAXX 20064 71882 160// /1610 10009 21010 39718 40266 55008 60001 333 10019 21034 70000 555 31617 40051
AAXX 20064 71883 46/// /0000 11025 21028 39389 40222 58017 6///1 333 11021 21102 7////
AAXX 20064 71887 12986 60706 10006 21032 39798 40227 58011 60001 86070 333 10019 21054 70000 555 10000 20000
AAXX 20064 71889 12874 81820 11007 21044 39852 40280 50009 60001 8807/ 333 10019 21068 70000 555 10000 20000 31734 40031
AAXX 20064 71891 16764 32023 10064 20013 39947 40224 50002 60001 333 10078 21006 70000 555 31941 40013
AAXX 20064 71892 12474 80806 10064 20043 30285 40290 55001 60001 885// 333 10076 20037 70004 555 10000 20000
AAXX 20064 71401 16/// /1703 11030 21049 39599 40303 58007 60001 333 11025 21050 70007
AAXX 20064 71402 NIL
AAXX 20064 71404 NIL
AAXX 20064 71405 NIL
AAXX 20064 71406 NIL
AAXX 20064 71407 NIL
AAXX 20064 71408 NIL
AAXX 20064 71409 NIL
AAXX 20064 71410 15766 82216 11038 21064 39708 49987 56036 60001 333 11038 21149 70000
AAXX 20064 71413 NIL
AAXX 20064 71414 NIL
AAXX 20064 71415 17/// /2210 10012 20003 30014 40017 56034 60011 7//4/ 333 10012 21036 7//// 555 10010
AAXX 20064 71417 NIL
AAXX 20064 71418 NIL
AAXX 20064 71419 46/// /2017 10030 20016 30028 40038 56066 6///1 333 10030 21034 7//// 555 32127 40061
AAXX 20064 71423 NIL
AAXX 20064 71424 46/// /2708 6///1 333 7//// 555 32220 40011
AAXX 20064 71425 16/// /2914 11033 21059 39950 49986 55003 60001 333 11029 21172 70010 555 31945 40213
AAXX 20064 71426 NIL
AAXX 20064 71427 17/// /2713 11057 21096 30012 40019 52028 60011 7//4/ 333 11016 21080 70030 555 32032 40212
AAXX 20064 71428 16/// /2826 11033 21080 30008 40014 53025 60001 333 11012 21175 70000 555 32532 40042
AAXX 20064 71429 NIL
AAXX 20064 71434 NIL
AAXX 20064 71436 15966 03109 11016 21056 39956 40193 51033 60001 333 10059 21016 70000
AAXX 20064 71437 46/// /3411 10025 21040 30103 40199 51028 6///1 333 10078 20025 7//// 555 32024 40131
AAXX 20064 71438 NIL
AAXX 20064 71439 NIL
AAXX 20064 71440 NIL
AAXX 20064 71442 NIL
AAXX 20064 71445 NIL
AAXX 20064 71446 16/// /2214 11019 21058 39109 40091 58027 60001 333 11019 21131 70007 555 32131 40222
AAXX 20064 71448 NIL
AAXX 20064 71449 16/// /2107 11061 21085 39786 40198 58024 60001 333 11044 21065 70000 555 33323 40091
AAXX 20064 71250 NIL
AAXX 20064 71251 16/// /2516 10030 21051 39181 40106 57023 60001 333 10040 21059 70000 555 32625 40061
AAXX 20064 71252 NIL
AAXX 20064 71253 46/// /2704 11057 21067 6///1 333 11013 21239 7////
AAXX 20064 71254 16/// /2308 10033 21013 60001 333 10036 21113 70000 555 10010 32417 40211
AAXX 20064 71255 16/// /1505 11014 21043 60001 333 10007 21180 70006 555 10010 20006 32727 40181
AAXX 20064 71256 46/// /2402 10016 21017 39101 40030 58005 6///1 333 10028 21090 7////
AAXX 20064 71257 NIL
AAXX 20064 71258 NIL
AAXX 20064 71259 NIL
AAXX 20064 71261 16/// /0210 11006 21047 39948 40211 51016 60001 333 10057 21006 70000 555 32031 40102
AAXX 20064 71263 11560 33408 10001 21031 39912 40204 53024 69901 70181 813// 333 10064 20001 79999 909/4 555 33319 40132
AAXX 20064 71264 17/// /2510 10051 20039 30005 40036 56038 69991 7//4/ 333 10056 21067 70009 555 32525 40061
AAXX 20064 71265 15566 83411 10012 21047 30105 40200 52027 60001 333 10073 20012 70000
AAXX 20064 71266 NIL
AAXX 20064 71267 15966 62632 10054 21056 39029 40118 58015 60001 333 10054 21086 70000
AAXX 20064 71268 NIL
AAXX 20064 71269 NIL
AAXX 20064 71270 NIL
AAXX 20064 71271 16/// ///// 10021 21030 60001 333 10047 21072 70000
AAXX 20064 71272 15466 82808 11062 21076 39514 49865 55009 60001 333 11062 21210 70000
AAXX 20064 71273 16/// /2408 10028 21028 39354 40007 56021 60001 333 10028 21112 70000 555 32325 40181
AAXX 20064 71274 NIL
AAXX 20064 71275 NIL
AAXX 20064 71276 NIL
AAXX 20064 71277 NIL
AAXX 20064 71278 NIL
AAXX 20064 71279 NIL
AAXX 20064 71281 NIL
AAXX 20064 71282 46/// /3510 11028 21052 39937 40210 52033 6///1 333 10047 21028 7//// 555 32031 40062
AAXX 20064 71283 NIL
AAXX 20064 71284 16/// ///// 10012 21023 60001 333 10029 21113 70000
AAXX 20064 71285 NIL
AAXX 20064 71286 NIL
AAXX 20064 71287 NIL
AAXX 20064 71288 NIL
AAXX 20064 71289 NIL
AAXX 20064 71290 17466 61412 10010 21003 39230 40057 55006 69981 7004/ 333 10011 21046 70008 555 31525 40131
AAXX 20064 71291 16/// /1801 11148 21161 39918 40222 58019 60001 333 11018 21152 70000 555 33322 40121
AAXX 20064 71292 15966 82321 11015 21040 39457 40070 56034 60001 333 11015 21125 70000
AAXX 20064 71294 16/// /0307 11059 21098 39787 40195 51036 60001 333 10035 70008 555 32322 40131
AAXX 20064 71295 NIL
AAXX 20064 71296 NIL
AAXX 20064 71297 16/// /3404 10016 21025 60001 333 10076 20016 70000 555 32719 40181
AAXX 20064 71298 16/// /0212 10015 21030 39981 40213 51021 60001 333 10089 20015 70000 555 32522 40181
AAXX 20064 71299 NIL
AAXX 20064 71001 15966 62802 11200 21224 39072 40060 51013 60001 333 10017 21206 70000
AAXX 20064 71002 17540 81103 11121 21137 39435 49982 56016 69951 771// 333 11120 21206 70005
AAXX 20064 71003 17666 82612 11158 21175 39701 40093 53023 60001 771// 333 11126 21182 70000
AAXX 20064 71005 16/// ///// 11004 21043 60001 333 10036 21134 70000
AAXX 20064 71006 NIL
AAXX 20064 71007 NIL
AAXX 20064 71008 NIL
AAXX 20064 71009 NIL
AAXX 20064 71010 NIL
AAXX 20064 71011 NIL
AAXX 20064 71012 NIL
AAXX 20064 71013 NIL
AAXX 20064 71014 NIL
AAXX 20064 71015 NIL
AAXX 20064 71016 NIL
AAXX 20064 71017 NIL
AAXX 20064 71018 NIL
AAXX 20064 71019 NIL
AAXX 20064 71020 NIL
AAXX 20064 71021 NIL
AAXX 20064 71022 17566 81913 10080 20046 30045 40089 53013 69981 7004/ 333 10088 20033 70451 555 31233 40162
AAXX 20064 71023 16664 82306 11032 21056 39239 40006 56018 60001 333 11009 21141 70000 555 32522 40211
AAXX 20064 71024 NIL
AAXX 20064 71026 NIL
AAXX 20064 71027 17/// /2203 11026 21037 30016 40026 56049 69961 7//4/ 333 11016 21081 70013 555 32919 40041
AAXX 20064 71028 16/// /2008 10080 21029 39105 40128 58013 60001 333 10088 21020 70000 555 31438 40013
AAXX 20064 71029 17/// /0509 11255 21281 30001 40042 51013 69941 7//4/ 333 11232 21262 70004 555 10030 20004 31025 40181
AAXX 20064 71030 16/64 /2608 10043 21010 39952 40041 55005 60001 333 10054 21076 70000
AAXX 20064 71032 46/// /0000 11033 21049 39420 40274 56008 6///1 333 11025 21091 7////
AAXX 20064 71033 46/// /2607 11054 21069 39320 49946 50000 6///1 333 11026 21136 7//// 555 32124 40181
AAXX 20064 71035 NIL
AAXX 20064 71036 15966 82425 11003 21059 39688 40064 56047 60001 333 10000 21064 70000
AAXX 20064 71039 46/// /0000 11163 6///1 333 11013 21163 7////
AAXX 20064 71040 46/// /2917 11094 21140 39901 40104 53034 6///1 333 11010 21131 7//// 555 31334 40213
AAXX 20064 71041 17362 81910 10000 21007 39889 40031 56060 69951 7004/ 333 10003 21073 70005 555 33418 40111
AAXX 20064 71042 16/// /1301 10057 20046 30289 40293 55002 60001 333 10072 20019 70000
AAXX 20064 71044 16/// /1601 11223 21247 39701 40028 53005 60001 333 11175 21242 70032 555 10050 20032 30517 40131
AAXX 20064 71046 460// /3206 11247 30032 40050 51013 6///1 333 11217 21261 7////
AAXX 20064 71047 16/// ///// 10017 21029 60001 333 10030 21123 70000
AAXX 20064 71048 NIL
AAXX 20064 71049 NIL
AAXX 20064 71060 NIL
AAXX 20064 71063 NIL
AAXX 20064 71550 NIL
AAXX 20064 71551 NIL
AAXX 20064 71552 46/// /2025 11054 21083 6///1 333 11043 21069 7//// 555 32132 40062
AAXX 20064 71553 NIL
AAXX 20064 71554 16/// /3011 11021 21071 30044 40050 52025 60001 333 10001 21122 70016 555 31829 40152
AAXX 20064 71555 NIL
AAXX 20064 71556 16/// /2612 11009 21042 39462 40070 56027 60001 333 11002 21170 70000 555 32225 40011
AAXX 20064 71557 46/// /2310 10063 21011 6///1 333 10064 21073 7//// 555 32422 40031
AAXX 20064 71558 46/// ///// 11104 21114 30016 40053 56031 6///1 333 11067 21204 7////
AAXX 20064 71559 46/// /2217 11031 21074 39432 40140 56031 6///1 333 11012 21129 7//// 555 32126 40051
AAXX 20064 71560 16/// /1916 11077 21100 39876 40186 56036 60001 333 11023 21089 70000 555 33421 40141
AAXX 20064 71563 NIL
AAXX 20064 71564 NIL
AAXX 20064 71565 NIL
AAXX 20064 71566 NIL
AAXX 20064 71567 NIL
AAXX 20064 71568 17/// /1014 10054 20031 30255 40268 55002 60081 7//4/ 333 10061 20038 70104 555 31218 40011
AAXX 20064 71569 16/// /2114 11015 21051 39383 40086 56030 60001 333 11007 21146 70000 555 32121 40021
AAXX 20064 71570 NIL
AAXX 20064 71571 NIL
AAXX 20064 71572 NIL
AAXX 20064 71573 16/// /3507 10012 21023 39910 40194 53019 60001 333 10071 20012 70000 555 32223 40151
AAXX 20064 71574 11674 22709 11021 21049 39938 40011 57002 69901 70177 82500 333 11021 21240 47020 79999 90923 555 19999 29999 31817 40220
AAXX 20064 71575 16/// /3106 11219 21243 39855 49921 51006 60001 333 11134 21224 70000 555 33130 40072
AAXX 20064 71576 16/// /1012 11170 21220 39855 49940 53003 60001 333 11158 21221 70000 555 30530 40012
AAXX 20064 71577 46/// /2117 11061 21088 6///1 333 11039 21080 7//// 555 31925 40051
AAXX 20064 71578 16/// /2507 11042 21097 60001 333 11016 21126 70063 555 32817 40051
AAXX 20064 71579 NIL
AAXX 20064 71580 NIL
AAXX 20064 71581 NIL
AAXX 20064 71582 17456 82110 10071 20057 30161 40214 53016 60081 7614/ 333 10078 20037 70569
AAXX 20064 71583 NIL
AAXX 20064 71584 17540 82405 11044 21058 39922 49969 56024 60001 771// 333 11037 21149 70000
AAXX 20064 71585 NIL
AAXX 20064 71586 16/// /2604 11020 21053 39519 49981 58010 60001 333 11009 21136 70000 555 32217 40221
AAXX 20064 71587 NIL
AAXX 20064 71588 16/// /1508 11085 21117 60001 333 11048 21187 70000
AAXX 20064 71589 16/// /3302 11065 21087 39919 40053 56015 60001 333 11047 21071 70000 555 30018 40191
AAXX 20064 71590 16/// /3207 11045 21072 39851 40044 53014 60001 333 11045 21241 70008 555 10010 20008
AAXX 20064 71592 NIL
AAXX 20064 71593 NIL
AAXX 20064 71596 NIL
AAXX 20064 71598 16/64 /2608 11042 21055 39996 40002 58008 60001 333 11030 21150 70000 555 31720 40191
AAXX 20064 71599 17/// /2702 10018 20018 39847 40049 56019 69971 7//4/ 333 10020 21104 70007
AAXX 20064 71500 NIL
AAXX 20064 71501 NIL
AAXX 20064 71502 NIL
AAXX 20064 71503 NIL
AAXX 20064 71504 NIL
AAXX 20064 71505 46/// /0201 11197 21223 39322 40061 51024 6///1 333 10032 21202 7////
AAXX 20064 71506 NIL
AAXX 20064 71507 16/// /2004 10004 21009 60001 333 10031 21119 70000 555 31922 40071
AAXX 20064 71508 16/// ///// 10009 21036 30063 40202 51025 60001 333 10075 20009 70000
AAXX 20064 71509 NIL
AAXX 20064 71511 16/// /2611 11007 21045 39425 40064 58016 60001 333 11002 21149 70000 555 32426 40031
AAXX 20064 71512 17/// /2902 11051 21054 39957 49971 56020 60011 7//4/ 333 11033 21155 70023 555 31622 40211
AAXX 20064 71513 17236 82609 11034 21041 39953 49968 56041 60011 7714/ 333 11017 21138 70013
AAXX 20064 71514 NIL
AAXX 20064 71515 NIL
AAXX 20064 71516 16/// /1103 11032 21067 60001 333 11014 21152 70006 555 32121 40211
AAXX 20064 71517 NIL
AAXX 20064 71518 NIL
AAXX 20064 71519 NIL
AAXX 20064 71520 NIL
AAXX 20064 71521 NIL
AAXX 20064 71522 NIL
AAXX 20064 71523 NIL
AAXX 20064 71524 16/// /3208 11046 21094 30134 40161 53049 60001 333 10032 21077 70010 555 31622 40141
AAXX 20064 71525 NIL
AAXX 20064 71526 NIL
AAXX 20064 71527 15366 82117 11075 21089 39670 40189 58033 60001 333 11043 21086 70000
AAXX 20064 71528 NIL
AAXX 20064 71529 46/// /0808 11163 21188 39713 49941 51028 6///1 333 11083 21184 7//// 555 10050
AAXX 20064 71532 15566 63604 11056 21089 39861 40210 51033 60001 333 10048 21056 70000
AAXX 20064 71534 16564 83309 11013 21061 39934 40208 51025 60001 333 10052 21013 70000 555 32334 40083
AAXX 20064 71535 NIL
AAXX 20064 71536 NIL
AAXX 20064 71537 NIL
AAXX 20064 71539 NIL
AAXX 20064 71540 NIL
AAXX 20064 71541 NIL
AAXX 20064 71542 16/// /2609 10008 21043 60001 333 10027 21073 70000 555 32326 40151
AAXX 20064 71543 NIL
AAXX 20064 71544 NIL
AAXX 20064 71545 16/// ///// 10023 21023 60001 333 10040 21102 70000
AAXX 20064 71546 NIL
AAXX 20064 71547 NIL
AAXX 20064 71548 NIL
AAXX 20064 71549 NIL
AAXX 20064 71450 NIL
AAXX 20064 71451 16/// /2608 11032 21053 39522 49946 58006 60001 333 11026 21126 70006 555 32519 40001
AAXX 20064 71452 NIL
AAXX 20064 71453 16/// /2509 10030 21049 39190 40101 56021 60001 333 10031 21093 70000 555 32130 40192
AAXX 20064 71454 NIL
AAXX 20064 71455 46/// /2412 10002 21034 39278 40078 58025 6///1 333 10004 21146 7//// 555 32225 40221
AAXX 20064 71456 16/// /2314 11025 21054 39441 40041 57011 60001 333 11006 21150 70000 555 32129 40002
AAXX 20064 71457 16/// /2206 10003 21034 39191 40082 56019 60001 333 10018 21122 70000
AAXX 20064 71458 16/// /2104 10001 21024 39265 40031 56023 60001 333 10022 21128 70000 555 32317 40201
AAXX 20064 71459 NIL
AAXX 20064 71460 16/// /0103 11072 21110 39996 40243 50016 60001 333 10049 21072 70000 555 32333 40082
AAXX 20064 71461 NIL
AAXX 20064 71462 NIL
AAXX 20064 71463 46/// /0211 10019 21038 39978 40203 53028 6///1 333 10066 20019 7//// 555 32340 40103
AAXX 20064 71464 NIL
AAXX 20064 71465 NIL
AAXX 20064 71466 NIL
AAXX 20064 71468 NIL
AAXX 20064 71470 NIL
AAXX 20064 71471 15966 02322 10059 21013 39212 49989 58008 60001 333 10066 21018 70000
AAXX 20064 71473 16/// /2215 10054 20030 30251 40281 55000 60001 333 10071 20029 70000 555 32225 40051
AAXX 20064 71475 17/// /0000 10034 20031 30191 40286 51007 69921 7//4/ 333 10042 20022 70002
AAXX 20064 71476 NIL
AAXX 20064 71477 17/// /2013 10056 20037 69921 7//4/ 333 10087 20050 70176 555 31640 40073
AAXX 20064 71478 NIL
AAXX 20064 71479 NIL
AAXX 20064 71480 NIL
AAXX 20064 71481 NIL
AAXX 20064 71482 NIL
AAXX 20064 71483 NIL
AAXX 20064 71484 NIL
AAXX 20064 71485 17/// /1415 10063 20048 30222 40243 53019 60051 7//4/ 333 10063 20052 70180 555 31240 40183
AAXX 20064 71486 16/// /1605 10022 21028 38926 40127 56013 60001 333 10041 21090 70000 555 32022 40031
AAXX 20064 71487 NIL
AAXX 20064 71489 16/// /2106 11039 21062 39257 40058 57025 60001 333 11017 21145 70000 555 32122 40201
AAXX 20064 71490 NIL
AAXX 20064 71491 16/// /2301 11209 21231 60001 333 11017 21274 70006
AAXX 20064 71492 NIL
AAXX 20064 71493 17/// /2706 10019 20010 39986 40024 56019 60051 7//4/ 333 10023 21104 7////
AAXX 20064 71494 NIL
AAXX 20064 71495 NIL
AAXX 20064 71496 NIL
AAXX 20064 71497 46/// /2107 11034 21090 39698 49958 53008 6///1 333 10052 21099 7//// 555 32636 40203
AAXX 20064 71498 NIL
AAXX 20064 71499 15966 32608 11052 21068 39320 49944 50000 60001 333 11024 21127 70000
AAXX 20064 71665 16/// /2704 11177 21213 30035 40045 56016 60001 333 11135 21203 70000 555 32422 40131
AAXX 20064 71666 17/// /2711 11002 21023 39975 40020 55004 60011 7//4/ 333 10008 21151 70010 555 10010 20010 32719 40061
AAXX 20064 71667 NIL
AAXX 20064 71668 16/// /2903 11006 21036 39993 40036 55002 60001 333 10009 21157 70000 555 10010 32020 40191
AAXX 20064 71669 NIL
AAXX 20064 71670 16/// ///// 11019 21033 60001 333 11004 21170 70000
AAXX 20064 71671 NIL
AAXX 20064 71672 16/// /3104 11019 21066 39923 40189 51032 60001 333 10054 21020 70000 555 32320 40121
AAXX 20064 71673 NIL
AAXX 20064 71674 NIL
AAXX 20064 71675 17456 82217 11084 21098 39770 40053 56055 60031 77144 333 11084 21204 70157
AAXX 20064 71679 16/// /2413 10038 21008 39082 40087 51021 60001 333 10056 21005 70010 555 32434 40233
AAXX 20064 71680 NIL
AAXX 20064 71681 46/// /0902 11004 21031 6///1 333 10001 21048 7////
AAXX 20064 71682 NIL
AAXX 20064 71683 NIL
AAXX 20064 71684 17566 83011 11095 21137 39915 40224 50011 60001 771// 333 10015 21097 70013
AAXX 20064 71685 17466 81610 10010 21004 39717 40266 55008 60001 771// 333 10015 21028 70000
AAXX 20064 71686 469// /0703 11051 21055 39046 49996 53018 6///1 333 11026 21147
AAXX 20064 71687 16/// /1803 10012 20003 39470 40262 53008 60001 333 10020 21016 70000
AAXX 20064 71688 16/// /2601 10000 21002 39207 40254 51007 60001 333 10006 21026 70000
AAXX 20064 71689 15966 82208 10015 21025 39524 49973 56016 60001 333 10016 21168 70000
AAXX 20064 71690 NIL
AAXX 20064 71691 15966 02709 11069 21100 30011 40039 53032 60001 333 11019 21090 70000
AAXX 20064 71692 NIL
AAXX 20064 71694 16/// /3407 11061 21103 39857 40226 51031 60001 333 10049 21061 70000 555 32221 40131
AAXX 20064 71695 16/// /2613 11010 21054 39654 49987 55020 60001 333 11006 21110 70000 555 31925 40001
AAXX 20064 71696 NIL
AAXX 20064 71697 15966 03314 11001 21055 30020 40193 51027 60001 333 10068 21001 70000
AAXX 20064 71699 16/// /2808 10033 21013 30034 40041 55005 60001 333 10049 21128 70015
AAXX 20064 71604 17/// /2410 11039 21039 60021 7//4/ 333 11039 21100 70016 555 10010 20016 32321 40031
AAXX 20064 71605 17/// /3503 10054 20054 30134 40286 53006 60021 7//4/ 333 10064 20045 70042
AAXX 20064 71611 NIL
AAXX 20064 71612 16/// /3609 11026 21094 30062 40153 53048 60001 333 10053 21057 70011
AAXX 20064 71614 16/// /3009 11019 21072 30074 40140 53043 60001 333 10060 21061 70004 555 32521 40201
AAXX 20064 71616 16/// /3011 11044 21094 30015 40137 53046 60001 333 10023 21127 70027 555 33123 40051
AAXX 20064 71617 16/// /2920 11098 21140 39943 40116 53037 60001 333 11012 21113 70076 555 33032 40062
AAXX 20064 71618 NIL
AAXX 20064 71619 NIL
AAXX 20064 71622 NIL
AAXX 20064 71632 46/// /2813 11036 21055 39480 49916 55007 6///1 333 11036 21127 7//// 555 10030 32028 40222
AAXX 20064 71634 16/// /2402 11060 21067 39866 40021 55000 60001 333 11046 21235 70000 555 10010 32017 40211
AAXX 20064 71638 16/// /3303 10055 20036 30174 40281 53010 60001 333 10068 20029 70005
AAXX 20064 71639 12574 23309 11010 21075 39955 40199 51026 60001 81501 333 10065 21010 79999 555 10000 20000 32221 40110
AAXX 20064 71642 NIL
AAXX 20064 71816 11659 80506 11107 21127 39952 40014 57033 69961 77188 885// 333 11107 21199 47045 70006 90973 93101 555 10006 20006
AAXX 20064 71817 NIL
AAXX 20064 71818 12574 71904 11130 21145 30039 40057 57031 60001 82506 333 11100 21163 70000 555 10000 20000 32321 40101
AAXX 20064 71822 11532 82808 11145 21162 39662 40174 52028 69961 77177 885// 333 11034 21145 47043 70098 90983 93101 555 10098 20098
AAXX 20064 71825 11466 62604 11205 21244 39311 49999 53007 69981 77177 86700 333 11137 21210 47084 70046 90983 555 10098 20046
AAXX 20064 71827 11569 82808 11173 21205 39881 40134 51015 69921 77177 885// 333 11142 21203 47020 70004 90973 555 10004 20004
AAXX 20064 71828 17559 83406 11236 21270 39365 40023 53005 60001 745// 333 11155 21246 70000
AAXX 20064 71831 11674 82303 11104 21130 39925 40215 50001 69901 77177 885// 333 11016 21105 48039 70022 90983 555 10022 20022 33118 40120
AAXX 20064 71832 NIL
AAXX 20064 71834 11374 82306 11107 21120 39760 40202 58015 69901 77111 887// 333 11041 21175 48023 79999 90931 555 19999 29999 33423 40090
AAXX 20064 71841 NIL
AAXX 20064 71842 11374 82113 11090 21099 39705 40189 58030 69901 77177 885// 333 11050 21097 48015 79999 90983 555 19999 29999 33418 40090
AAXX 20064 71844 17458 82216 11083 21099 39773 40056 56054 69951 74544 333 11083 21203 70005 555 30226 40061
AAXX 20064 71845 NIL
AAXX 20064 71850 11474 82114 11058 21083 39675 40186 58032 69901 77177 887// 333 11044 21087 48007 70006 90983 555 10006 20006
AAXX 20064 71852 16964 02017 11061 21093 39854 40154 58035 60001 333 11039 21082 70000 555 31928 40052
AAXX 20064 71854 NIL
AAXX 20064 71858 16/// /2411 11019 21059 39717 49997 56037 60001 333 11019 21094 70000 555 32325 40041
AAXX 20064 71861 46/// /2317 11019 21059 39369 40101 57033 6///1 333 11011 21145 7//// 555 32228 40032
AAXX 20064 71862 12974 02214 11033 21079 39434 40145 57032 60001 333 11015 21124 70000 555 10000 20000 32225 40060
AAXX 20064 71863 46964 02107 11020 21058 39400 40105 56028 6///1 333 11015 21166 7//// 555 32120 40231
AAXX 20064 71893 NIL
AAXX 20064 71894 NIL
AAXX 20064 71896 15666 81915 10023 21015 39281 40111 51023 60001 333 10025 21031 70000
AAXX 20064 71897 12166 82325 10052 20037 3//// 4//// 52016 60121 888XX 333 10070 20052 70788
AAXX 20064 71898 160// ///// 10076 53012 60011 333 10090 20033 70420
AAXX 20064 71899 11462 82738 10065 20065 3//// 4//// 51019 60011 72162 888// 333 10083 20060 70190 90925 555 32738 40063
AAXX 20064 71902 NIL
AAXX 20064 71905 NIL
AAXX 20064 71906 12974 20000 11236 21276 39993 40045 55005 60001 82070 333 11141 21239 79999 555 19999 29999
AAXX 20064 71907 16462 82513 11166 21191 30010 40043 56001 60001 333 11117 21169 70000 555 32627 40091
AAXX 20064 71909 16964 02214 11111 21157 39886 49929 51007 60001 333 11095 21134 70000 555 32228 40072
AAXX 20064 71910 47561 62906 11221 21231 39861 49924 52005 6///1 745// 333 11135 21225 7//// 555 32932 40082
AAXX 20064 71911 46564 82506 11331 39883 49942 51007 6///1 333 11300 21338 7//// 555 32827 40161
AAXX 20064 71912 11474 72314 11042 21066 39730 49913 56040 60011 77177 87500 333 11042 21218 47014 70012 90983 93101 555 10012 20012 32130 40032
AAXX 20064 71915 NIL
AAXX 20064 71917 11974 00000 11397 21436 30020 40035 51010 69901 7767/ 333 11373 21408 43013 79999 90999 555 19999 29999
AAXX 20064 71922 12874 22706 11018 21055 39521 49985 58009 60001 82070 333 11008 21137 47032 79999 555 19999 29999
AAXX 20064 71924 NIL
AAXX 20064 71925 11969 00000 11350 21393 39980 40023 50002 69901 77677 333 11329 21370 42021 79999 90983 555 19999 29999
AAXX 20064 71926 11974 90112 11306 21361 39933 49958 50001 69901 70171 81500 333 11306 21361 46043 79999 90943 555 19999 29999 33020 40091
AAXX 20064 71928 16/// /2709 10059 21038 38898 40057 56021 60001 333 10068 21192 70003 555 10010 20003
AAXX 20064 71051 NIL
AAXX 20064 71055 NIL
AAXX 20064 71057 NIL
AAXX 20064 71059 460// ///// 11260 39939 40033 53015 6///1 333 11226 21267 7//// 555 31025 40121
AAXX 20064 71061 16/// /2306 10024 21017 39237 40006 56015 60001 333 10039 21092 70000 555 32118 40181
AAXX 20064 71062 46/// /2210 10030 21022 38956 40014 56020 6///1 333 10048 21090 7//// 555 32217 40171
AAXX 20064 71064 460// /3413 11334 39813 40040 53004 6///1 333 11309 21344 7//// 555 33520 40031
AAXX 20064 71065 NIL
AAXX 20064 71067 NIL
AAXX 20064 71070 NIL
AAXX 20064 71073 NIL
AAXX 20064 71074 NIL
AAXX 20064 71075 16/// /2608 11049 21060 39304 49904 50000 60001 333 11038 21141 7////
AAXX 20064 71078 15566 32713 11036 21053 39478 49918 55007 60001 333 11035 21125 70000
AAXX 20064 71084 460// ///// 11342 39933 49983 58001 6///1 333 11325 21346 7////
AAXX 20064 71085 15966 82731 10018 21061 38764 40145 58017 60001 333 10029 21107 70000
AAXX 20064 71087 NIL
AAXX 20064 71088 460// /0707 11235 51006 6///1 333 11206 21245 7//// 555 30319 40121
AAXX 20064 71089 NIL
AAXX 20064 71096 460// ///// 11219 39177 49915 52017 6///1 333 11184 21225 7////
AAXX 20064 71097 46064 /2609 11137 39479 49954 53011 6///1 333 11129 21152 7//// 555 32533 40142
AAXX 20064 71098 43/// /2010 11061 21081 39679 40042 56066 6///1 333 11060 21133 7//// 555 32225 40031
AAXX 20064 71099 43/// /2015 11134 21164 39978 49999 58066 6///1 333 11134 21226 7//// 555 32821 40151
AAXX 20064 71150 46/// /2019 11042 21069 39413 40102 56041 6///1 333 11042 21138 7//// 555 32124 40061
AAXX 20064 71151 NIL
AAXX 20064 71152 NIL
AAXX 20064 71153 NIL
AAXX 20064 71154 16/// /2330 10011 21072 60001 333 10027 21169 70000 555 32349 40063
AAXX 20064 71155 NIL
AAXX 20064 71156 NIL
AAXX 20064 71157 46/// ///// 10005 21007 6///1 333 10031 21092 7//// 555 10180
AAXX 20064 71158 NIL
AAXX 20064 71159 NIL
AAXX 20064 71160 NIL
AAXX 20064 71161 16/// /3511 11023 21070 30021 40170 53041 60001 333 10060 21023 70000 555 32031 40152
AAXX 20064 71162 NIL
AAXX 20064 71163 46/// /0302 11152 21165 39624 49969 51017 6///1 333 11092 21221 7////
AAXX 20064 71164 NIL
AAXX 20064 71165 NIL
AAXX 20064 71166 NIL
AAXX 20064 71167 15966 13003 10015 21021 38946 40041 56014 60001 333 10045 21159 70000
AAXX 20064 71168 16/// /0000 11079 21091 39662 40265 56012 60001 333 10044 21089 70000 555 33526 40101
AAXX 20064 71170 NIL
AAXX 20064 71171 16/// /3613 10023 21022 30095 40192 53029 60001 333 10077 20023 70000 555 32332 40092
AAXX 20064 71172 16/// ///// 11053 21099 39992 40212 51025 60001 333 10057 21055 70000 555 10130
AAXX 20064 71175 NIL
AAXX 20064 71176 460// /2325 11180 39305 40001 51008 6///1 333 11163 21200 7//// 555 32256 40073
AAXX 20064 71177 460// /1907 11189 38985 40012 55011 6///1 333 11168 21208 7//// 555 33331 40202
AAXX 20064 71178 16/// /0217 11016 21048 30011 40043 58012 60001 333 11014 21035 70000 555 30131 40162
AAXX 20064 71179 460// ///// 11167 39180 40025 56019 6///1 333 11150 21211 7////
AAXX 20064 71180 16/// /1420 11025 21060 39991 40030 56060 60001 333 11024 21114 7////
AAXX 20064 71181 16964 03406 11075 21100 30010 40047 56015 60001 333 11033 21089 70000 555 30125 40131
AAXX 20064 71183 16/// /3212 30110 53047 60001 333 70000 555 32324 40191
AAXX 20064 71184 46/// /3312 11026 21082 6///1 333 10049 21074 7//// 555 31828 40132
AAXX 20064 71186 NIL
AAXX 20064 71187 17564 82406 10056 20043 30231 40280 55008 60001 761// 333 10066 20009 70000
AAXX 20064 71189 NIL
AAXX 20064 71190 NIL
AAXX 20064 71191 17/// ///// 10019 20003 60101 7//4/ 333 10019 21124 70104 555 10010 20104
AAXX 20064 71192 15966 01414 10028 21014 39479 40141 55005 60001 333 10030 21025 70000
AAXX 20064 71193 NIL
AAXX 20064 71196 16/// /3314 11060 21113 30001 40203 51031 60001 333 10048 21060 70009
AAXX 20064 71197 16564 61613 11009 21055 39995 40045 57049 60001 333 11008 21113 7////
AAXX 20064 71198 46/// /3115 11036 21107 6///1 333 10018 21079 7//// 555 31831 40142
AAXX 20064 71199 46/// /2602 11109 21123 39182 40029 53013 6///1 333 11061 21192 7////
AAXX 20064 71300 NIL
AAXX 20064 71301 16/// ///// 11104 21120 39802 40212 50009 60001 333 10006 21105 70053 555 10080 20053
AAXX 20064 71302 16/// /1914 10024 21012 39292 40108 51022 60001 333 10028 21031 70000 555 31828 40032
AAXX 20064 71303 46/// ///// 10022 21024 6///1 333 10072 20022 7////
AAXX 20064 71305 15966 62609 11049 21077 39648 49936 56003 60001 333 10000 21141 70000
AAXX 20064 71306 17461 82514 11140 21157 30010 40043 53001 60001 771// 333 11098 21143 70000 555 32531 40092
AAXX 20064 71307 16/// /3508 10013 21021 39960 40212 51016 60001 333 10082 20012 70000 555 32125 40091
AAXX 20064 71308 16/// /1913 10009 20000 39944 40028 56062 60001 333 10009 21068 70000 555 33319 40081
AAXX 20064 71309 NIL
AAXX 20064 71310 NIL
AAXX 20064 71311 NIL
AAXX 20064 71312 16/// /2411 11004 21052 39564 40021 56014 60001 333 11004 21160 70000 555 32127 40001
AAXX 20064 71314 16/// /3308 11031 21072 39847 40203 51029 60001 333 10043 21033 70000 555 32927 40201
AAXX 20064 71315 NIL
AAXX 20064 71316 16/// /2205 10027 21007 39328 40004 56021 60001 333 10035 21121 70000 555 32317 40171
AAXX 20064 71317 NIL
AAXX 20064 71318 16/// /2310 11011 21046 39110 40057 58024 60001 333 11011 21145 70000 555 10010 32021 40181
AAXX 20064 71319 16/// /3211 11098 21129 39189 40061 53019 60001 333 11044 21145 70051 555 32121 40161
AAXX 20064 71320 NIL
AAXX 20064 71321 NIL
AAXX 20064 71322 NIL
AAXX 20064 71323 NIL
AAXX 20064 71331 16/// /2707 11030 21067 60001 333 11021 21106 70000 555 32919 40121
AAXX 20064 71332 NIL
AAXX 20064 71334 NIL
AAXX 20064 71335 46964 02509 11165 58006 6///1 333 11153 21187 7//// 555 32644 40113
AAXX 20064 71336 46/// ///22 11005 21027 39994 40016 58014 6///1 333 11004 21019 7////
AAXX 20064 71337 46/// /1301 11089 21102 39812 40052 56026 6///1 333 11059 21130 7////
AAXX 20064 71338 46964 31603 11259 21301 39922 49929 51019 6///1 333 11134 21275 7//// 555 32127 40011
AAXX 20064 71339 16964 02502 11141 21187 30046 40061 57036 60001 333 11061 21209 70005
AAXX 20064 71340 NIL
AAXX 20064 71341 NIL
AAXX 20064 71342 NIL
AAXX 20064 71343 NIL
AAXX 20064 71344 NIL
AAXX 20064 71345 NIL
AAXX 20064 71346 NIL
AAXX 20064 71347 NIL
AAXX 20064 71348 NIL
AAXX 20064 71349 NIL
AAXX 20064 71397 11358 82508 10025 20020 30004 40039 56017 60051 76187 885// 333 10026 21061 70052 90973 555 10004 20004 32317 40000
AAXX 20064 71400 16/64 /1301 11122 21130 60001 333 11071 21162 70000
AAXX 20064 71403 46/// /2130 10053 20043 30006 40026 56058 6///1 333 10053 21041 7//// 555 32137 40053
AAXX 20064 71411 16/// /2612 10053 20042 30037 40049 56025 60001 333 10062 21073 70000 555 32230 40032
AAXX 20064 71412 17/// /2316 10007 20005 39999 40009 56046 60031 7//4/ 333 10008 21037 70033 555 10020 20033 32128 40042
AAXX 20064 71421 NIL
AAXX 20064 71430 16/// /3309 10020 21023 30078 40175 53032 60001 333 10072 20020 70000 555 32135 40133
AAXX 20064 71431 16/// /3206 10005 21054 30084 40180 51034 60001 333 10061 20005 70000 555 32226 40111
AAXX 20064 71432 16/// /3321 10028 21016 30099 40196 51031 60001 333 10072 20027 70005 555 32231 40122
AAXX 20064 71433 NIL
AAXX 20064 71435 NIL
AAXX 20064 71441 46/// /1913 11059 21095 39862 40176 58035 6///1 333 11025 21078 7//// 555 33529 40062
AAXX 20064 71443 16/// /2318 11003 21049 39620 40033 56036 60001 333 11002 21075 70000 555 32330 40052
AAXX 20064 71444 16/// /2209 11038 21074 39337 40102 56037 60001 333 11033 21134 70000 555 32120 40061
AAXX 20064 71447 16/// /1912 11037 21075 39592 40144 58032 60001 333 11029 21127 70000 555 31919 40051
AAXX 20064 71467 NIL
AAXX 20064 71472 NIL
AAXX 20064 71474 16864 31907 11014 21047 38938 40191 58010 60001 333 10002 21092 70000 555 31921 40031
AAXX 20064 71510 16/// /2508 11034 21055 39359 40071 56021 60001 333 11001 21157 70000 555 32121 40201
AAXX 20064 71538 11674 80213 10014 21050 39989 40221 51020 69901 70252 8817/ 333 10106 20014 79999 90941 555 10000 20000 32220 40111
AAXX 20064 71600 16564 82319 10042 21005 30082 40088 56035 60001 333 10042 21016 70000 555 30135 40083
AAXX 20064 71601 NIL
AAXX 20064 71812 NIL
AAXX 20064 71819 15966 80604 11108 21116 30019 40061 56031 60001 333 11074 21202 70000
AAXX 20064 71820 16/// /3408 11015 21045 30060 40175 51034 60001 333 10066 21016 70000 555 31930 40122
AAXX 20064 71823 17564 62710 11173 21189 39702 40094 53023 69951 7//44 333 11131 21200 70005 555 30317 40061
AAXX 20064 71824 NIL
AAXX 20064 71826 16/// /1204 11168 21218 39898 49941 53012 60001 333 11117 21200 70031 555 31029 40082
AAXX 20064 71829 17/// /2611 11073 21107 39863 40026 52028 60011 7//4/ 333 11041 21121 70113 555 31223 40191
AAXX 20064 71833 46/// /3507 11005 21037 6///1 333 10048 21007 7//// 555 32523 40141
AAXX 20064 71835 17/// /2316 11095 21107 39645 40135 58040 69931 7//4/ 333 11090 21112 70003 555 32325 40051
AAXX 20064 71837 NIL
AAXX 20064 71839 NIL
AAXX 20064 71840 46/// /2219 11023 21073 6///1 333 11023 21079 7//// 555 32328 40062
AAXX 20064 71846 16/// /2211 11094 21105 39799 40121 58045 60001 333 11093 21143 70000 555 32321 40061
AAXX 20064 71847 NIL
AAXX 20064 71848 NIL
AAXX 20064 71849 NIL
AAXX 20064 71726 17/// /2810 11128 21150 39608 40159 51026 69951 7//4/ 333 11008 21129 70076 555 10100 20076 33020 40221
AAXX 20064 71727 NIL
AAXX 20064 71728 11580 43015 11098 21154 39906 40131 52038 69901 70277 84500 333 11011 21102 46997 70002 90962 555 10002 20002
AAXX 20064 71730 11574 83210 11097 21129 39798 40233 51014 69921 77177 885// 333 10024 21098 41001 70004 90973 555 10004 20002 32128 40091
AAXX 20064 71731 11469 83608 11096 21134 39763 40224 51023 69901 77177 885// 333 10026 21097 46997 70014 90973 555 10006 29999 33524 40200
AAXX 20064 71735 NIL
AAXX 20064 71738 NIL
AAXX 20064 71739 41574 82806 11106 21135 39845 40220 50005 6//// 77177 885// 333 10002 21106 7//// 90983 555 31525 40141
AAXX 20064 71749 16464 82404 11087 21106 39983 40236 55012 60001 333 10004 21107 70000 555 33322 40091
AAXX 20064 71799 11469 81505 10072 20046 30263 40287 55002 69901 75122 885// 333 10081 20039 79999 90910 555 10000 20000
AAXX 20064 71800 16/// /3317 11021 21031 39996 40029 55007 60001 333 10011 21034 70000 555 30446 40083
AAXX 20064 71801 11369 83512 11019 21027 39860 40034 58012 69901 78522 887// 333 11018 21030 47007 70006 90921 555 10014 20006 30329 40091
AAXX 20064 71803 12580 73206 11073 21098 39875 40064 58017 60001 87500 333 11059 21107 79999 555 19999 29999
AAXX 20064 71807 NIL
AAXX 20064 71808 11574 21014 11078 21101 30000 40047 57034 69901 70271 82500 333 11077 21186 44017 79999 90961 555 19999 29999
AAXX 20064 71809 12974 80705 11115 21136 30032 40060 57040 60001 8807/ 333 11075 21200 70000 555 10000 20000
AAXX 20064 71810 NIL
AAXX 20064 71811 NIL
AAXX 20064 71813 NIL
AAXX 20064 71814 16/// /1511 11038 21046 39997 40007 56047 60001 333 11035 21207 70000 555 31417 40061
AAXX 20064 71815 12474 41011 11068 21129 30009 40040 58044 60001 84500 333 11045 21132 70000 555 10000 20000 31018 40060
AAXX 20064 71603 11569 82718 10068 20030 30008 40061 56015 69921 78082 885// 333 10073 21064 70002 90962 555 19999 29999 32327 40231
AAXX 20064 71607 16/// /2903 10012 21033 30015 40048 55003 60001 333 10023 21160 70000
AAXX 20064 71609 11574 82906 10012 21018 39909 40043 55006 60041 70276 885// 333 10034 21135 70051 90913 555 10006 20006 32128 40221
AAXX 20064 71610 17566 83113 11018 21051 39817 40115 53036 60021 7714/ 333 10013 21160 70018
AAXX 20064 71621 16564 33407 10002 21030 30076 40183 51034 60001 333 10069 20000 70000 555 32629 40162
AAXX 20064 71623 NIL
AAXX 20064 71624 12574 63417 11002 21060 39986 40200 52023 60001 82532 333 10068 21002 79999 555 10000 20000 33427 40061
AAXX 20064 71625 17564 83314 11058 21139 30044 40207 51030 60001 745// 333 10048 21060 70010 555 33525 40011
AAXX 20064 71627 11674 73110 11016 21079 30108 40153 52047 69901 70361 87500 333 10057 21061 79999 90960 555 19999 29999
AAXX 20064 71628 13560 73315 11040 21095 30037 40179 53042 69981 87500 333 10051 21060 70008 555 10000 20000 33225 40002
AAXX 20064 71630 NIL
AAXX 20064 71631 16/// /3510 11030 21060 39700 40206 51021 60001 333 10033 21030 70000 555 32026 40071
AAXX 20064 71633 12574 73506 11029 21073 39952 40228 52021 60001 87500 333 10055 21029 70002 555 10000 20000 32029 40071
AAXX 20064 71705 11269 82712 10003 21006 39938 40026 55009 60021 72272 885// 333 10006 21140 43002 70024 90973 93102 555 10022 20024 31819 40200
AAXX 20064 71706 11248 82508 10004 20000 39958 40018 56030 60041 77187 887// 333 10005 21073 43002 70040 90973 93102 555 10040 20040 31920 40010
AAXX 20064 71707 11448 81807 11031 21049 39967 40044 56052 69941 78511 885// 333 11018 21092 44003 70004 90910 555 10004 20004 33619 40140
AAXX 20064 71709 NIL
AAXX 20064 71711 NIL
AAXX 20064 71714 17/// /2508 11046 21086 30030 40123 53037 69941 7//4/ 333 11008 21134 70052 555 10040 20052 32820 40011
AAXX 20064 71715 16/// /2904 11051 21108 39888 40071 51032 60001 333 11011 21117 70010 555 10010 20010 32122 40001
AAXX 20064 71718 11583 63016 11032 21085 39980 40046 51030 69901 70277 86500 333 11012 21136 46002 70024 90953 555 10024 20024
AAXX 20064 71719 16/// /2715 11027 21049 39991 49997 56013 60001 333 11022 21132 70000 555 10020 31827 40211
AAXX 20064 71930 NIL
AAXX 20064 71931 NIL
AAXX 20064 71934 12574 62806 11045 21073 39677 49931 52013 60001 86500 333 11004 21192 79999 555 19999 29999
AAXX 20064 71935 12974 23106 11101 21123 39756 49962 53025 60001 82075 333 10018 21104 79999 555 19999 29999 31926 40091
AAXX 20064 71936 11474 63110 11139 21151 39696 49956 53024 69901 77187 86500 333 11065 21194 48022 70016 90916 555 10026 20016
AAXX 20064 71937 NIL
AAXX 20064 71938 11969 80808 11265 21293 30001 40031 53032 69901 77677 8807/ 333 11203 21295 48025 70002 90983 555 10010 20002
AAXX 20064 71940 12882 42528 10040 21004 39224 40019 58003 60001 82071 333 10048 21078 70000 555 10000 20000 32528 40061
AAXX 20064 71943 12774 32410 10037 21025 39165 49988 55004 60001 81501 333 10046 21026 70000 555 10000 20000 32330 40041
AAXX 20064 71944 160// ///// 10012 55005 69951 333 10012 21049 70005
AAXX 20064 71945 12674 80000 11077 21121 39512 49986 52007 60001 8557/ 333 11074 21171 70000 555 10000 20000
AAXX 20064 71946 12974 22803 11161 21174 39756 49969 53013 60001 80001 333 10016 21175 70000 555 10000 20000
AAXX 20064 71948 46064 /0717 11262 39899 40016 51013 6///1 333 11241 21272 7//// 555 30627 40131
AAXX 20064 71949 NIL
AAXX 20064 71951 11158 81921 10040 20029 39816 40082 50009 60021 78088 885// 333 10043 21019 43040 70263 90983 555 10020 20027 31632 40201
AAXX 20064 71957 46564 80000 11253 21324 39948 40040 51009 6///1 333 11212 21265 7////
AAXX 20064 71964 NIL
AAXX 20064 71966 16/// /0000 11206 21230 39586 40058 53018 60001 333 11122 21208 70000
AAXX 20064 71968 470// /0405 11244 39967 40033 50006 6///1 745// 333 11210 21262 7////
AAXX 20064 71851 16/// /2111 11017 21069 39799 40139 58041 60001 333 11017 21086 70000 555 32220 40061
AAXX 20064 71857 NIL
AAXX 20064 71860 NIL
AAXX 20064 71876 15866 62405 11015 21047 39386 40051 58025 60001 333 10003 21153 70000
AAXX 20064 71885 NIL
AAXX 20064 71886 16/// /2319 11015 21050 39458 40070 56031 60001 333 11015 21128 70000 555 32230 40042
AAXX 20064 71888 NIL
AAXX 20064 71890 17/// /0509 11076 21116 30008 40035 53032 69931 7//4/ 333 11020 21090 70030 555 10030 20030 30323 40211
AAXX 20064 71895 NIL
AAXX 20064 71043 11756 82811 11191 21242 39937 40032 52021 60021 78588 8757/ 333 11146 21195 48025 70039 90983 93102 555 10043 20039
AAXX 20064 71045 16/// /0401 11129 21140 39170 40039 53020 60001 333 10001 21135 70000 555 32023 40091
AAXX 20064 71050 NIL
AAXX 20064 71051 NIL
AAXX 20064 71052 NIL
AAXX 20064 71066 12974 80000 11003 21102 39543 49956 58009 60001 8807/ 333 10039 21199 70000 555 10000 20000
AAXX 20064 71068 12974 02511 10028 21017 39293 49973 58023 60001 333 10038 21127 70000 555 10000 20000 32630 40161
AAXX 20064 71069 16764 30000 10011 20009 39297 49991 58022 60001 333 10063 21128 70000 555 32636 40203
AAXX 20064 71076 16/// /2603 11095 21110 39525 49916 53002 60001 333 11059 21153 70000
AAXX 20064 71077 16/// /2104 11013 21043 39455 49990 58013 60001 333 11001 21161 70006
AAXX 20064 71079 NIL
AAXX 20064 71081 46964 03314 11261 21301 39874 49886 52007 6///1 333 11181 21286 7//// 555 33130 40102
AAXX 20064 71082 NIL
AAXX 20064 71083 11558 80615 11228 21265 39878 49921 57020 60021 77177 885// 333 11210 21313 48054 70024 90983 93102 555 10024 20024 33225 40071
AAXX 20064 71090 46061 83116 11199 21231 39853 49888 53013 6///1 333 11196 21354 7//// 555 33032 40032
AAXX 20064 71091 460// /0720 11235 39658 49868 53003 6///1 333 7//// 555 30536 40153
AAXX 20064 71092 46959 01313 11252 39228 49901 52016 6///1 333 11209 21258 7////
AAXX 20064 71093 460// /2619 11222 39397 49898 50018 6///1 333 11199 21236 7//// 555 32434 40033
AAXX 20064 71094 46004 /0304 11203 38991 49893 51021 6///1 333 11173 21210 7//// 555 32045 40233
AAXX 20064 71095 46964 01011 11170 21228 39859 49939 53002 6///1 333 11160 21222 7////
AAXX 20064 71101 160// /2328 30086 53012 60001 333 70175 555 32450 40233
AAXX 20064 71104 NIL
AAXX 20064 71108 11566 83304 10054 20034 30217 40291 55004 69901 76162 885// 333 10073 20046 70004 90916 555 10000 20000
AAXX 20064 71109 11366 80000 10057 20042 30218 40245 53004 60101 76166 885// 333 10066 20039 70196 90983 555 10000 20000 31218 40040
AAXX 20064 71201 16/// ///// 10068 20045 60001 333 10071 20054 70014
AAXX 20064 71202 16/// ///// 10029 21025 60001 333 10030 21132 70007
AAXX 20064 71203 15966 81609 10005 21034 39732 40263 58001 60001 333 10018 21089 70000
AAXX 20064 71209 46/// /1610 10073 6///1 333 10073 20045 7////
AAXX 20064 71211 46/// /3605 10055 20046 30276 40288 53007 6///1 333 10059 20043 7////
AAXX 20064 71212 16/// /3211 11092 21124 39258 40071 53017 60001 333 11038 21210 70087 555 10070 20087 33223 40061
AAXX 20064 71213 46/// /3110 11093 21130 39915 40224 50012 6///1 333 10018 21096 7//// 555 33028 40022
AAXX 20064 71214 NIL
AAXX 20064 71215 46/// /1605 11011 21043 39939 40292 56007 6///1 333 10012 21055 7////
AAXX 20064 71216 16/// /0302 10005 21025 39638 40264 57009 60001 333 10023 21018 70000
AAXX 20064 71217 NIL
AAXX 20064 71218 16/// /1602 11012 21027 39814 40250 58006 60001 333 10025 21056 70000
AAXX 20064 71219 46/// /2026 10082 20035 30085 40091 53015 6///1 333 10106 20045 7//// 555 31443 40103
AAXX 20064 71220 46/// /1928 10072 20038 6///1 333 10090 20039 7////
AAXX 20064 71221 NIL
AAXX 20064 71222 17/// /1001 11057 21062 39046 40010 53019 69991 7//4/ 333 11030 21168 70065 555 10140 20065
AAXX 20064 71223 NIL
AAXX 20064 71224 NIL
AAXX 20064 71225 NIL
AAXX 20064 71226 NIL
AAXX 20064 71227 NIL
AAXX 20064 71228 NIL
AAXX 20064 71229 NIL
AAXX 20064 71230 16/// /2522 10046 21008 39131 40008 51003 60001 333 10059 21059 70000 555 32631 40062
AAXX 20064 71231 16/// /2716 10032 21044 60001 333 10038 21068 70006 555 32727 40051
AAXX 20064 71232 16/// /2413 10036 21060 38623 40117 50000 60001 333 10044 21154 70014 555 32530 40062
AAXX 20064 71233 16/// /2006 10054 21032 60001 333 10054 21093 70000
AAXX 20064 71234 16/// /2722 10053 21064 38927 40103 56026 60001 333 10068 21092 70000 555 32636 40053
AAXX 20064 71235 16/// /2912 10059 21033 60001 333 10070 21092 70000 555 32926 40041
AAXX 20064 71236 46/// /3013 11009 21084 6///1 333 10015 21131 7//// 555 33040 40053
AAXX 20064 71237 46/// /1506 11040 21060 39248 40072 58030 6///1 333 11025 21170 7////
AAXX 20064 71238 16/// /2402 10042 21026 60001 333 10042 21098 70000 555 10480
AAXX 20064 71239 16/// /2217 11029 21070 39677 40146 58036 60001 333 11026 21123 70000 555 32123 40051
AAXX 20064 71240 16/// ///// 10019 21050 39220 40065 58028 60001 333 10024 21105 70000
AAXX 20064 71241 NIL
AAXX 20064 71242 16/// /1906 10014 21027 60001 333 10026 21155 70000
AAXX 20064 71243 NIL
AAXX 20064 71244 NIL
AAXX 20064 71245 46/// /2455 11046 21074 6///1 333 11026 21121 7//// 555 32293 40023
AAXX 20064 71246 NIL
AAXX 20064 71247 15966 32109 10010 21040 39249 40102 56023 60001 333 10034 21080 70000
AAXX 20064 71248 16/// /2411 10079 21048 38775 40071 56021 60001 333 10079 21160 70012 555 32519 40061
AAXX 20064 71249 NIL
AAXX 20064 71350 17/// /2308 10002 21003 39943 40008 56028 69981 7//4/ 333 10003 21065 70008 555 10020 20008 31823 40001
AAXX 20064 71351 NIL
AAXX 20064 71352 16/// /3509 11010 21040 39741 40200 51022 60001 333 10037 21010 70000 555 32522 40161
AAXX 20064 71353 NIL
AAXX 20064 71354 NIL
AAXX 20064 71355 16/// /3201 11274 21302 39915 40003 55002 60001 333 11260 21338 70000
AAXX 20064 71356 NIL
AAXX 20064 71357 NIL
AAXX 20064 71358 17/// /3215 11198 21217 39852 49887 53013 69931 7//4/ 333 11195 21363 70036 555 10060 20036 33030 40032
AAXX 20064 71359 NIL
AAXX 20064 71360 NIL
AAXX 20064 71361 NIL
AAXX 20064 71362 NIL
AAXX 20064 71363 NIL
AAXX 20064 71364 NIL
AAXX 20064 71365 NIL
AAXX 20064 71368 15566 63211 11007 21052 39810 40203 51023 60001 333 10053 21007 70000
AAXX 20064 71369 15766 81602 10014 21002 39298 49993 58021 60001 333 10063 21119 70000
AAXX 20064 71370 46/// /3011 11058 21110 39993 40131 53040 6///1 333 11003 21105 7//// 555 33322 40031
AAXX 20064 71371 15666 13315 11026 21089 30114 40149 53050 60001 333 10053 21078 70000
AAXX 20064 71372 NIL
AAXX 20064 71373 NIL
AAXX 20064 71374 NIL
AAXX 20064 71375 NIL
AAXX 20064 71376 NIL
AAXX 20064 71377 16/// /3114 11026 21077 30103 40152 53046 60001 333 10054 21058 70000 555 32326 40181
AAXX 20064 71378 NIL
AAXX 20064 71379 16/// /3215 11114 21169 39944 40118 51037 60001 333 11005 21114 70000 555 33034 40033
AAXX 20064 71380 NIL
AAXX 20064 71381 NIL
AAXX 20064 71382 NIL
AAXX 20064 71383 NIL
AAXX 20064 71384 16/// /2101 11058 21084 30081 40089 53037 60001 333 11006 21113 70070
AAXX 20064 71385 NIL
AAXX 20064 71386 17/// /3010 11042 21090 39815 40023 53017 60031 7//4/ 333 11027 21223 70051 555 33024 40061
AAXX 20064 71387 NIL
AAXX 20064 71388 46/// /3017 11091 21133 39916 40108 53039 6///1 333 11010 21119 7//// 555 33032 40062
AAXX 20064 71389 NIL
AAXX 20064 71390 46/// /2809 11074 6///1 333 11034 21130 7////
AAXX 20064 71391 16/// ///// 11055 21106 60001 333 10025 21065 70022
AAXX 20064 71392 16/// /2406 11052 21086 60001 333 11014 21132 70060 555 33018 40051
AAXX 20064 71393 NIL
AAXX 20064 71395 11332 82412 10031 20027 39857 40035 56033 60011 76188 88700 333 10034 21085 70013 90931 555 19999 29999 32021 41041
AAXX 20064 71398 15966 02207 11174 21195 30186 40198 51003 60001 333 11057 21174 70000
AAXX 20064 71399 NIL
AAXX 20064 71700 15566 82605 11003 21030 30014 40040 55002 60001 333 10009 21169 70003
AAXX 20064 71701 11574 82605 10003 21031 39977 40039 56004 69901 70272 885// 333 10011 21167 43997 70004 90930 555 10004 20004 32118 40010
AAXX 20064 71702 17/// /2812 10004 21006 39993 40008 56017 69941 7//4/ 333 10005 21106 70004 555 32029 40002
AAXX 20064 71703 NIL
AAXX 20064 71704 15566 83515 10011 21028 39993 40216 50013 60001 333 10086 20011 70000
AAXX 20064 71710 NIL
AAXX 20064 71712 16/// /3109 11013 21063 30099 40160 53043 60001 333 10059 21073 70012 555 32626 40171
AAXX 20064 71713 NIL
AAXX 20064 71716 NIL
AAXX 20064 71717 NIL
AAXX 20064 71720 16/// /0906 10054 20036 30126 40281 50012 60001 333 10058 20039 70000 555 31122 40041
AAXX 20064 71721 16/// /3308 11071 21116 39938 40188 52033 60001 333 10026 21071 70030 555 31722 40101
AAXX 20064 71723 16/// /3008 11044 21108 30133 40143 52050 60001 333 10017 21097 70000 555 33322 40041
AAXX 20064 71724 NIL
AAXX 20064 71732 NIL
AAXX 20064 71733 16/// /3106 11100 21130 39790 40231 51013 60001 333 10023 21100 70000 555 31929 40082
AAXX 20064 71734 NIL
AAXX 20064 71736 NIL
AAXX 20064 71737 NIL
AAXX 20064 71741 16/// /0706 10003 21035 39794 40223 56012 60001 333 10013 21053 70000
AAXX 20064 71742 NIL
AAXX 20064 71743 NIL
AAXX 20064 71744 NIL
AAXX 20064 71745 NIL
AAXX 20064 71746 NIL
AAXX 20064 71747 NIL
AAXX 20064 71748 NIL
AAXX 20064 71744 NIL
AAXX 20064 71750 16/// /0402 11094 21109 39973 40214 58018 60001 333 10009 21112 70000 555 30317 40151
AAXX 20064 71751 NIL
AAXX 20064 71752 NIL
AAXX 20064 71753 17/// /2604 10024 20017 39994 40023 56041 60011 7//4/ 333 10024 21103 70010
AAXX 20064 71754 16/// /2505 11018 21058 39383 40046 57025 60001 333 10001 21175 70003 555 32522 40221
AAXX 20064 71755 43/// /2216 11071 21088 39695 40045 58064 6///1 333 11071 21157 7//// 555 32229 40042
AAXX 20064 71756 16/// /0401 11006 21007 39153 40261 53008 60001 333 10004 21026 70000
AAXX 20064 71758 NIL
AAXX 20064 71760 NIL
AAXX 20064 71761 NIL
AAXX 20064 71762 NIL
AAXX 20064 71763 NIL
AAXX 20064 71765 16/// /1921 10063 20008 39945 40222 50002 60001 333 10077 21007 70000 555 31838 40023
AAXX 20064 71766 16/// /1503 10054 20039 30197 40269 53009 60001 333 10064 20006 70000
AAXX 20064 71767 16/// /3605 11048 21085 39970 40236 51016 60001 333 10050 21049 70000 555 32226 40111
AAXX 20064 71768 46/// /1503 11017 21052 39714 40276 51007 6///1 333 10029 21054 7////
AAXX 20064 71769 16/// /1018 10069 20055 30251 40267 53010 60001 333 10069 20042 70000 555 31025 40051
AAXX 20064 71770 16/// /2903 11016 21035 39497 40286 56011 60001 333 10017 21032 70000
AAXX 20064 71771 NIL
AAXX 20064 71772 16/// /1012 10070 20057 30263 40269 53004 60001 333 10074 20046 70000
AAXX 20064 71773 16/// /2901 11130 21140 39179 40041 51019 60001 333 10009 21147 70000 555 31620 40091
AAXX 20064 71774 46/// ///// 10038 6///1 333 10049 20033 7////
AAXX 20064 71775 46/// /1901 10052 20045 30289 40295 55002 6///1 333 10066 20047 7////
AAXX 20064 71776 46/// /2910 11017 21043 39635 40292 55006 6///1 333 11003 21024 7//// 555 32722 40181
AAXX 20064 71777 16/// ///// 10004 20002 30007 40263 53002 60001 333 10019 21012 70000
AAXX 20064 71778 46/// /3205 6///1 333 7////
AAXX 20064 71779 16/// /1313 10029 21014 39476 40137 55005 60001 333 10030 21027 70000 555 31223 40041
AAXX 20064 71780 16/// /2912 10071 20042 30261 40289 55006 60001 333 10071 20057 70000
AAXX 20064 71781 46/// /1117 10070 20045 30238 40263 50010 6///1 333 10071 20049 7//// 555 31030 40042
AAXX 20064 71782 46/// /1708 11018 21063 38892 40241 53001 6///1 333 11001 21075 7//// 555 32020 40041
AAXX 20064 71783 16/// /1603 10066 20047 30209 40283 55004 60001 333 10078 20046 70002
AAXX 20064 71784 16/// /0501 10051 20043 30077 40284 53001 60001 333 10058 20042 70014
AAXX 20064 71785 16/// /1201 10071 20044 30280 40296 55001 60001 333 10081 20046 70000
AAXX 20064 71786 46/// /2625 11071 21080 38371 40241 55005 6///1 333 11068 21120 7//// 555 32632 40042
AAXX 20064 71787 17/// /2812 11016 21016 39537 40024 56009 60031 7//4/ 333 11002 21138 70058 555 10060 20058 32427 40041
AAXX 20064 71788 NIL
AAXX 20064 71789 NIL
AAXX 20064 71791 NIL
AAXX 20064 71792 NIL
AAXX 20064 71793 NIL
AAXX 20064 71794 NIL
AAXX 20064 71795 NIL
AAXX 20064 71796 NIL
AAXX 20064 71797 NIL
AAXX 20064 48333 32960 10000 10260 20143 39741 40039 57132 81040 333 59107
AAXX 20064 48409 32960 30202 10275 20171 39965 40112 57034 80001 333 59010
AAXX 20064 48481 32960 13304 10314 20180 30067 40095 57030 80001 333 59009
AAXX 20064 71603 11569 82718 10068 20030 30008 40061 56015 69921 78082 885// 333 10073 21064 70002 90962 555 19999 29999 32327 40231
AAXX 20064 71607 16/// /2903 10012 21033 30015 40048 55003 60001 333 10023 21160 70000
AAXX 20064 71609 11574 82906 10012 21018 39909 40043 55006 60041 70276 885// 333 10034 21135 70051 90913 555 10006 20006 32128 40221
AAXX 20064 71610 17566 83113 11018 21051 39817 40115 53036 60021 7714/ 333 10013 21160 70018
AAXX 20064 71621 16564 33407 10002 21030 30076 40183 51034 60001 333 10069 20000 70000 555 32629 40162
AAXX 20064 71623 NIL
AAXX 20064 71624 12574 63417 11002 21060 39986 40200 52023 60001 82532 333 10068 21002 79999 555 10000 20000 33427 40061
AAXX 20064 71625 17564 83314 11058 21139 30044 40207 51030 60001 745// 333 10048 21060 70010 555 33525 40011
AAXX 20064 71627 11674 73110 11016 21079 30108 40153 52047 69901 70361 87500 333 10057 21061 79999 90960 555 19999 29999
AAXX 20064 71628 13560 73315 11040 21095 30037 40179 53042 69981 87500 333 10051 21060 70008 555 10000 20000 33225 40002
AAXX 20064 71630 NIL
AAXX 20064 71631 16/// /3510 11030 21060 39700 40206 51021 60001 333 10033 21030 70000 555 32026 40071
AAXX 20064 71633 12574 73506 11029 21073 39952 40228 52021 60001 87500 333 10055 21029 70002 555 10000 20000 32029 40071
AAXX 20064 71705 11269 82712 10003 21006 39938 40026 55009 60021 72272 885// 333 10006 21140 43002 70024 90973 93102 555 10022 20024 31819 40200
AAXX 20064 71706 11248 82508 10004 20000 39958 40018 56030 60041 77187 887// 333 10005 21073 43002 70040 90973 93102 555 10040 20040 31920 40010
AAXX 20064 71707 11448 81807 11031 21049 39967 40044 56052 69941 78511 885// 333 11018 21092 44003 70004 90910 555 10004 20004 33619 40140
AAXX 20064 71709 NIL
AAXX 20064 71711 NIL
AAXX 20064 71714 17/// /2508 11046 21086 30030 40123 53037 69941 7//4/ 333 11008 21134 70052 555 10040 20052 32820 40011
AAXX 20064 71715 16/// /2904 11051 21108 39888 40071 51032 60001 333 11011 21117 70010 555 10010 20010 32122 40001
AAXX 20064 71718 11583 63016 11032 21085 39980 40046 51030 69901 70277 86500 333 11012 21136 46002 70024 90953 555 10024 20024
AAXX 20064 71719 16/// /2715 11027 21049 39991 49997 56013 60001 333 11022 21132 70000 555 10020 31827 40211
AAXX 20064 71726 17/// /2810 11128 21150 39608 40159 51026 69951 7//4/ 333 11008 21129 70076 555 10100 20076 33020 40221
AAXX 20064 71727 NIL
AAXX 20064 71728 11580 43015 11098 21154 39906 40131 52038 69901 70277 84500 333 11011 21102 46997 70002 90962 555 10002 20002
AAXX 20064 71730 11574 83210 11097 21129 39798 40233 51014 69921 77177 885// 333 10024 21098 41001 70004 90973 555 10004 20002 32128 40091
AAXX 20064 71731 11469 83608 11096 21134 39763 40224 51023 69901 77177 885// 333 10026 21097 46997 70014 90973 555 10006 29999 33524 40200
AAXX 20064 71735 NIL
AAXX 20064 71738 NIL
AAXX 20064 71739 41574 82806 11106 21135 39845 40220 50005 6//// 77177 885// 333 10002 21106 7//// 90983 555 31525 40141
AAXX 20064 71749 16464 82404 11087 21106 39983 40236 55012 60001 333 10004 21107 70000 555 33322 40091
AAXX 20064 71799 11469 81505 10072 20046 30263 40287 55002 69901 75122 885// 333 10081 20039 79999 90910 555 10000 20000
AAXX 20064 71800 16/// /3317 11021 21031 39996 40029 55007 60001 333 10011 21034 70000 555 30446 40083
AAXX 20064 71801 11369 83512 11019 21027 39860 40034 58012 69901 78522 887// 333 11018 21030 47007 70006 90921 555 10014 20006 30329 40091
AAXX 20064 71803 12580 73206 11073 21098 39875 40064 58017 60001 87500 333 11059 21107 79999 555 19999 29999
AAXX 20064 71807 NIL
AAXX 20064 71808 11574 21014 11078 21101 30000 40047 57034 69901 70271 82500 333 11077 21186 44017 79999 90961 555 19999 29999
AAXX 20064 71809 12974 80705 11115 21136 30032 40060 57040 60001 8807/ 333 11075 21200 70000 555 10000 20000
AAXX 20064 71810 NIL
AAXX 20064 71811 NIL
AAXX 20064 71813 NIL
AAXX 20064 71814 16/// /1511 11038 21046 39997 40007 56047 60001 333 11035 21207 70000 555 31417 40061
AAXX 20064 71815 12474 41011 11068 21129 30009 40040 58044 60001 84500 333 11045 21132 70000 555 10000 20000 31018 40060
AAXX 20064 71816 11659 80506 11107 21127 39952 40014 57033 69961 77188 885// 333 11107 21199 47045 70006 90973 93101 555 10006 20006
AAXX 20064 71817 NIL
AAXX 20064 71818 12574 71904 11130 21145 30039 40057 57031 60001 82506 333 11100 21163 70000 555 10000 20000 32321 40101
AAXX 20064 71822 11532 82808 11145 21162 39662 40174 52028 69961 77177 885// 333 11034 21145 47043 70098 90983 93101 555 10098 20098
AAXX 20064 71825 11466 62604 11205 21244 39311 49999 53007 69981 77177 86700 333 11137 21210 47084 70046 90983 555 10098 20046
AAXX 20064 71827 11569 82808 11173 21205 39881 40134 51015 69921 77177 885// 333 11142 21203 47020 70004 90973 555 10004 20004
AAXX 20064 71828 17559 83406 11236 21270 39365 40023 53005 60001 745// 333 11155 21246 70000
AAXX 20064 71831 11674 82303 11104 21130 39925 40215 50001 69901 77177 885// 333 11016 21105 48039 70022 90983 555 10022 20022 33118 40120
AAXX 20064 71832 NIL
AAXX 20064 71834 11374 82306 11107 21120 39760 40202 58015 69901 77111 887// 333 11041 21175 48023 79999 90931 555 19999 29999 33423 40090
AAXX 20064 71841 NIL
AAXX 20064 71842 11374 82113 11090 21099 39705 40189 58030 69901 77177 885// 333 11050 21097 48015 79999 90983 555 19999 29999 33418 40090
AAXX 20064 71844 17458 82216 11083 21099 39773 40056 56054 69951 74544 333 11083 21203 70005 555 30226 40061
AAXX 20064 71845 NIL
AAXX 20064 71850 11474 82114 11058 21083 39675 40186 58032 69901 77177 887// 333 11044 21087 48007 70006 90983 555 10006 20006
AAXX 20064 71852 16964 02017 11061 21093 39854 40154 58035 60001 333 11039 21082 70000 555 31928 40052
AAXX 20064 71854 NIL
AAXX 20064 71858 16/// /2411 11019 21059 39717 49997 56037 60001 333 11019 21094 70000 555 32325 40041
AAXX 20064 71861 46/// /2317 11019 21059 39369 40101 57033 6///1 333 11011 21145 7//// 555 32228 40032
AAXX 20064 71862 12974 02214 11033 21079 39434 40145 57032 60001 333 11015 21124 70000 555 10000 20000 32225 40060
AAXX 20064 71863 46964 02107 11020 21058 39400 40105 56028 6///1 333 11015 21166 7//// 555 32120 40231
AAXX 20064 71043 11756 82811 11191 21242 39937 40032 52021 60021 78588 8757/ 333 11146 21195 48025 70039 90983 93102 555 10043 20039
AAXX 20064 71045 16/// /0401 11129 21140 39170 40039 53020 60001 333 10001 21135 70000 555 32023 40091
AAXX 20064 71050 NIL
AAXX 20064 71051 NIL
AAXX 20064 71052 NIL
AAXX 20064 71066 12974 80000 11003 21102 39543 49956 58009 60001 8807/ 333 10039 21199 70000 555 10000 20000
AAXX 20064 71068 12974 02511 10028 21017 39293 49973 58023 60001 333 10038 21127 70000 555 10000 20000 32630 40161
AAXX 20064 71069 16764 30000 10011 20009 39297 49991 58022 60001 333 10063 21128 70000 555 32636 40203
AAXX 20064 71076 16/// /2603 11095 21110 39525 49916 53002 60001 333 11059 21153 70000
AAXX 20064 71077 16/// /2104 11013 21043 39455 49990 58013 60001 333 11001 21161 70006
AAXX 20064 71079 NIL
AAXX 20064 71081 46964 03314 11261 21301 39874 49886 52007 6///1 333 11181 21286 7//// 555 33130 40102
AAXX 20064 71082 NIL
AAXX 20064 71083 11558 80615 11228 21265 39878 49921 57020 60021 77177 885// 333 11210 21313 48054 70024 90983 93102 555 10024 20024 33225 40071
AAXX 20064 71090 46061 83116 11199 21231 39853 49888 53013 6///1 333 11196 21354 7//// 555 33032 40032
AAXX 20064 71091 460// /0720 11235 39658 49868 53003 6///1 333 7//// 555 30536 40153
AAXX 20064 71092 46959 01313 11252 39228 49901 52016 6///1 333 11209 21258 7////
AAXX 20064 71093 460// /2619 11222 39397 49898 50018 6///1 333 11199 21236 7//// 555 32434 40033
AAXX 20064 71094 46004 /0304 11203 38991 49893 51021 6///1 333 11173 21210 7//// 555 32045 40233
AAXX 20064 71095 46964 01011 11170 21228 39859 49939 53002 6///1 333 11160 21222 7////
AAXX 20064 71101 160// /2328 30086 53012 60001 333 70175 555 32450 40233
AAXX 20064 71104 NIL
AAXX 20064 71108 11566 83304 10054 20034 30217 40291 55004 69901 76162 885// 333 10073 20046 70004 90916 555 10000 20000
AAXX 20064 71109 11366 80000 10057 20042 30218 40245 53004 60101 76166 885// 333 10066 20039 70196 90983 555 10000 20000 31218 40040
AAXX 20064 71930 NIL
AAXX 20064 71931 NIL
AAXX 20064 71934 12574 62806 11045 21073 39677 49931 52013 60001 86500 333 11004 21192 79999 555 19999 29999
AAXX 20064 71935 12974 23106 11101 21123 39756 49962 53025 60001 82075 333 10018 21104 79999 555 19999 29999 31926 40091
AAXX 20064 71936 11474 63110 11139 21151 39696 49956 53024 69901 77187 86500 333 11065 21194 48022 70016 90916 555 10026 20016
AAXX 20064 71937 NIL
AAXX 20064 71938 11969 80808 11265 21293 30001 40031 53032 69901 77677 8807/ 333 11203 21295 48025 70002 90983 555 10010 20002
AAXX 20064 71940 12882 42528 10040 21004 39224 40019 58003 60001 82071 333 10048 21078 70000 555 10000 20000 32528 40061
AAXX 20064 71943 12774 32410 10037 21025 39165 49988 55004 60001 81501 333 10046 21026 70000 555 10000 20000 32330 40041
AAXX 20064 71944 160// ///// 10012 55005 69951 333 10012 21049 70005
AAXX 20064 71945 12674 80000 11077 21121 39512 49986 52007 60001 8557/ 333 11074 21171 70000 555 10000 20000
AAXX 20064 71946 12974 22803 11161 21174 39756 49969 53013 60001 80001 333 10016 21175 70000 555 10000 20000
AAXX 20064 71948 46064 /0717 11262 39899 40016 51013 6///1 333 11241 21272 7//// 555 30627 40131
AAXX 20064 71949 NIL
AAXX 20064 71951 11158 81921 10040 20029 39816 40082 50009 60021 78088 885// 333 10043 21019 43040 70263 90983 555 10020 20027 31632 40201
AAXX 20064 71957 46564 80000 11253 21324 39948 40040 51009 6///1 333 11212 21265 7////
AAXX 20064 71964 NIL
AAXX 20064 71966 16/// /0000 11206 21230 39586 40058 53018 60001 333 11122 21208 70000
AAXX 20064 71968 470// /0405 11244 39967 40033 50006 6///1 745// 333 11210 21262 7////
AAXX 20064 71893 NIL
AAXX 20064 71894 NIL
AAXX 20064 71896 15666 81915 10023 21015 39281 40111 51023 60001 333 10025 21031 70000
AAXX 20064 71897 12166 82325 10052 20037 3//// 4//// 52016 60121 888XX 333 10070 20052 70788
AAXX 20064 71898 160// ///// 10076 53012 60011 333 10090 20033 70420
AAXX 20064 71899 11462 82738 10065 20065 3//// 4//// 51019 60011 72162 888// 333 10083 20060 70190 90925 555 32738 40063
AAXX 20064 71902 NIL
AAXX 20064 71905 NIL
AAXX 20064 71906 12974 20000 11236 21276 39993 40045 55005 60001 82070 333 11141 21239 79999 555 19999 29999
AAXX 20064 71907 16462 82513 11166 21191 30010 40043 56001 60001 333 11117 21169 70000 555 32627 40091
AAXX 20064 71909 16964 02214 11111 21157 39886 49929 51007 60001 333 11095 21134 70000 555 32228 40072
AAXX 20064 71910 47561 62906 11221 21231 39861 49924 52005 6///1 745// 333 11135 21225 7//// 555 32932 40082
AAXX 20064 71911 46564 82506 11331 39883 49942 51007 6///1 333 11300 21338 7//// 555 32827 40161
AAXX 20064 71912 11474 72314 11042 21066 39730 49913 56040 60011 77177 87500 333 11042 21218 47014 70012 90983 93101 555 10012 20012 32130 40032
AAXX 20064 71915 NIL
AAXX 20064 71917 11974 00000 11397 21436 30020 40035 51010 69901 7767/ 333 11373 21408 43013 79999 90999 555 19999 29999
AAXX 20064 71922 12874 22706 11018 21055 39521 49985 58009 60001 82070 333 11008 21137 47032 79999 555 19999 29999
AAXX 20064 71924 NIL
AAXX 20064 71925 11969 00000 11350 21393 39980 40023 50002 69901 77677 333 11329 21370 42021 79999 90983 555 19999 29999
AAXX 20064 71926 11974 90112 11306 21361 39933 49958 50001 69901 70171 81500 333 11306 21361 46043 79999 90943 555 19999 29999 33020 40091
AAXX 20064 71928 16/// /2709 10059 21038 38898 40057 56021 60001 333 10068 21192 70003 555 10010 20003
AAXX 20064 71397 11358 82508 10025 20020 30004 40039 56017 60051 76187 885// 333 10026 21061 70052 90973 555 10004 20004 32317 40000
AAXX 20064 71400 16/64 /1301 11122 21130 60001 333 11071 21162 70000
AAXX 20064 71403 46/// /2130 10053 20043 30006 40026 56058 6///1 333 10053 21041 7//// 555 32137 40053
AAXX 20064 71411 16/// /2612 10053 20042 30037 40049 56025 60001 333 10062 21073 70000 555 32230 40032
AAXX 20064 71412 17/// /2316 10007 20005 39999 40009 56046 60031 7//4/ 333 10008 21037 70033 555 10020 20033 32128 40042
AAXX 20064 71421 NIL
AAXX 20064 71430 16/// /3309 10020 21023 30078 40175 53032 60001 333 10072 20020 70000 555 32135 40133
AAXX 20064 71431 16/// /3206 10005 21054 30084 40180 51034 60001 333 10061 20005 70000 555 32226 40111
AAXX 20064 71432 16/// /3321 10028 21016 30099 40196 51031 60001 333 10072 20027 70005 555 32231 40122
AAXX 20064 71433 NIL
AAXX 20064 71435 NIL
AAXX 20064 71441 46/// /1913 11059 21095 39862 40176 58035 6///1 333 11025 21078 7//// 555 33529 40062
AAXX 20064 71443 16/// /2318 11003 21049 39620 40033 56036 60001 333 11002 21075 70000 555 32330 40052
AAXX 20064 71444 16/// /2209 11038 21074 39337 40102 56037 60001 333 11033 21134 70000 555 32120 40061
AAXX 20064 71447 16/// /1912 11037 21075 39592 40144 58032 60001 333 11029 21127 70000 555 31919 40051
AAXX 20064 71467 NIL
AAXX 20064 71472 NIL
AAXX 20064 71474 16864 31907 11014 21047 38938 40191 58010 60001 333 10002 21092 70000 555 31921 40031
AAXX 20064 71510 16/// /2508 11034 21055 39359 40071 56021 60001 333 11001 21157 70000 555 32121 40201
AAXX 20064 71538 11674 80213 10014 21050 39989 40221 51020 69901 70252 8817/ 333 10106 20014 79999 90941 555 10000 20000 32220 40111
AAXX 20064 71600 16564 82319 10042 21005 30082 40088 56035 60001 333 10042 21016 70000 555 30135 40083
AAXX 20064 71601 NIL
AAXX 20064 71864 NIL
AAXX 20064 71865 16/// /2517 11006 21055 39377 40058 58025 60001 333 10000 21135 70000 555 32233 40002
AAXX 20064 71866 46964 02409 11033 21064 39447 40064 56020 6///1 333 11004 21151 7//// 555 32125 40231
AAXX 20064 71867 12974 02714 11010 21046 39657 49991 55022 60001 333 11008 21112 70000 555 10000 20000 32024 40001
AAXX 20064 71868 16/// /2509 11002 21050 39577 40016 56024 60001 333 10006 21101 70000 555 32321 40041
AAXX 20064 71869 12874 32410 11020 21059 39509 40035 57016 60001 81071 333 11014 21148 70000 555 10000 20000
AAXX 20064 71871 15866 82311 10014 21039 39232 40035 57023 60001 333 10026 21124 70000
AAXX 20064 71877 12974 72522 10073 21037 38821 40076 57031 60001 84022 333 10080 21100 70000 555 10000 20000 32728 40221
AAXX 20064 71878 12974 62204 10023 21031 38997 40073 56022 60001 82071 333 10030 21169 70000 555 10000 20000 31820 40110
AAXX 20064 71879 16664 82303 10009 21025 39239 40041 55015 60001 333 10034 21091 70000
AAXX 20064 71880 12782 81507 11007 21061 39132 40257 55004 60001 86502 333 10008 21035 70000 555 10000 20000 31519 40040
AAXX 20064 71882 160// /1610 10009 21010 39718 40266 55008 60001 333 10019 21034 70000 555 31617 40051
AAXX 20064 71883 46/// /0000 11025 21028 39389 40222 58017 6///1 333 11021 21102 7////
AAXX 20064 71887 12986 60706 10006 21032 39798 40227 58011 60001 86070 333 10019 21054 70000 555 10000 20000
AAXX 20064 71889 12874 81820 11007 21044 39852 40280 50009 60001 8807/ 333 10019 21068 70000 555 10000 20000 31734 40031
AAXX 20064 71891 16764 32023 10064 20013 39947 40224 50002 60001 333 10078 21006 70000 555 31941 40013
AAXX 20064 71892 12474 80806 10064 20043 30285 40290 55001 60001 885// 333 10076 20037 70004 555 10000 20000
AAXX 20064 71114 160// /2406 10056 20040 30232 40281 55008 60001 333 10067 20008 70015
AAXX 20064 71120 12674 62509 10019 21023 39360 40011 56021 60001 86501 333 10024 21131 70000 555 10000 20000 32618 40230
AAXX 20064 71122 16/// /2309 11030 21064 38558 40181 58015 60001 333 7////
AAXX 20064 71123 11874 82006 10004 21019 39173 40036 56028 60001 71422 87072 333 10028 21151 70000 555 10000 20000
AAXX 20064 71125 NIL
AAXX 20064 71129 12674 62006 11025 21049 39242 40079 56026 60001 82501 333 11012 21142 70000 555 10000 20000 32118 40190
AAXX 20064 71131 16/// /2513 11062 21066 38853 40123 56024 60001 333 11047 21138 70000 555 32317 40011
AAXX 20064 71135 16/// /2516 11030 21072 39037 40133 56020 60001 333 11022 21149 70000 555 32226 40001
AAXX 20064 71137 16/// /2008 11052 21070 39176 40135 56022 60001 333 11041 21215 70000 555 31917 40221
AAXX 20064 71140 11974 72224 11034 21070 39625 40134 5/041 60001 73611 82072 333 11034 21145 70000 555 10000 20000 32228 40061
AAXX 20064 71145 11574 82311 11048 21074 39711 40007 56050 69901 73677 84570 333 11048 21171 48040 70010 90933 555 10010 20010 32228 40021
AAXX 20064 71148 NIL
AAXX 20064 71185 16964 00000 11056 30005 40029 56042 60001 333 11056 21145 70005
AAXX 20064 71188 11574 22904 11067 21104 39943 49986 57020 69901 70171 82500 333 11050 21260 43013 70004 90933 555 10004 20004
AAXX 20064 71200 16/// /0702 10065 20046 60001 333 10077 20048 70000
AAXX 20064 71207 17/// /2104 10043 30218 40283 53011 60041 7//4/ 333 10048 21007 70041
AAXX 20064 71260 13/// ///// 11053 21086 39996 40238 50000 60001 333 10040 21054 79999 555 19999 29999
AAXX 20064 17024 12970 71808 10177 21007 30044 40119 57003 60002 87070 333 20132 31010 55001 87360 91120 92428
AAXX 20064 17056 11565 71205 10110 20109 30106 40110 55000 60082 78088 85270 333 20109 32010 55000 20080 70126 85829 87358 91109 92437
AAXX 20064 17067 12670 62807 10136 20079 30095 40117 53008 60002 86200 333 20136 30011 55000 79999 86840 91127 92428
AAXX 20064 17092 11656 40000 11059 21062 38954 48562 52004 60002 71000 82530 333 21089 34110 50034 55068 20791 82640 84360
AAXX 20064 17112 11658 72107 10122 20107 30091 40093 57010 60262 78082 85270 333 20117 33012 50124 55006 20046 70482 85835 87360 91120 92426
AAXX 20064 17115 11657 71608 10115 20101 30058 40108 58001 60052 78022 84250 333 20114 32010 50074 55010 20373 70054 84835 87360
AAXX 20064 17116 12660 63204 10122 20090 30002 40122 52014 60002 84250 333 20109 31009 55000 20025 84835 86360 91115
AAXX 20064 17188 12660 60605 10081 20036 39092 40149 57002 60002 84250 333 20065 30004 84837 85360 91113
AAXX 20064 17202 11459 82503 11002 21014 39266 40331 52005 60002 71022 886// 333 21010 3/102 44001 88711
AAXX 20064 17248 12975 50202 10043 21010 38987 48496 57009 60002 85050 333 20008 31101 55068 2//// 85360
AAXX 20064 17292 11558 71502 10101 20099 39398 40149 55002 60112 79582 85970 333 20101 32010 50094 55000 20310 70112 81927 84830 87359 91116
AAXX 20064 17300 12460 63305 10120 20102 30102 40173 51003 60002 86900 333 20112 31008 50251 55/// 2//// 79999 81915 85825
AAXX 20064 17310 NIL
AAXX 20064 17330 12670 63001 10124 20064 30183 40201 51002 60002 82250 333 20110 32007 50161 55071 82840 86360
AAXX 20064 17500 12560 51114 10147 20113 30132 40193 54000 60002 81150 333 20130 30011 50501 55086 20548 81825 85360
AAXX 20064 17501 12560 42005 10138 20058 30159 40178 53006 60002 81130 333 20123 30011 55078 21119 81830 84360 92437
AAXX 20064 17505 12560 40706 10138 20096 30076 40190 52005 60002 81130 333 20114 30009 55078 21112 81830 84360
AAXX 20064 17507 12560 51304 10149 20077 30078 40198 52003 60002 81150 333 20112 30009 5///1 55/// 2//// 81825 85360
AAXX 20064 17510 12560 40000 10155 20095 30160 40170 55005 60002 81130 333 20140 30012 50121 55069 20630 81830 83360 92417
AAXX 20064 17515 12560 40000 10087 20067 30035 40214 57007 60002 81130 333 20057 30005 50181 55079 21068 81830 84360
AAXX 20064 17521 12560 32403 10107 20090 30052 40192 53007 60002 81130 333 20096 30007 50151 55081 21094 81830 83360
AAXX 20064 17530 12560 40610 10147 20108 30140 40197 52008 60002 81130 333 20130 30011 55078 21119 81830 84360
AAXX 20064 17535 12560 40406 10149 20108 30147 40183 52009 60002 81130 333 20140 30011 55025 21121 81830 84360
AAXX 20064 17540 12560 60514 10182 20149 30185 40209 5//// 60002 81130 333 20123 30010 50111 55/// 2//// 81830 86360 92437
AAXX 20064 17547 12560 61016 10152 20100 39953 40195 5//// 60002 81130 333 20142 30011 55076 20129 81830 86360 92437
AAXX 20064 17550 12560 40711 10152 20096 30044 40189 52006 60002 81130 333 20135 30011 55071 21129 81830 843360 92437
AAXX 20064 17572 12560 4//// 10161 20106 30173 40197 53002 60002 81130 333 20156 30013 81830 83360 92417
AAXX 20064 65201 31940 60103 10240 20234 30075 40130 71022 84508 333 20236 56500 57632 58003 84608 85280 91105 94463
AAXX 20064 16253 12565 20103 10010 21012 30132 40144 53014 60002 81130 333 20010 30/// 555.7 20753 81820
AAXX 20064 17042 12670 51217 10186 21099 30128 40167 57004 60002 83250 333 20067 30006 55037 83835 85360 92428
AAXX 20064 17074 11620 51601 10016 20015 39239 40189 55002 60002 71011 82506 333 20015 31000 55000 20239 82635 85270 91103
AAXX 20064 17086 12970 40907 10021 21024 39481 40210 50003 60002 84040 333 20003 30101 55013 20490 84360
AAXX 20064 17088 12670 62302 10013 21056 38857 48551 51001 60002 84550 333 21002 34102 55009 20272 84640 86360
AAXX 20064 17140 12665 52205 10088 21039 38712 48500 58002 60002 85200 333 20020 32101 55021 2//// 85840
AAXX 20064 17155 12670 61705 10084 20024 39030 40138 56005 60002 84550 333 20052 31003 55000 84640 86360 91116
AAXX 20064 17203 12670 60000 11016 21071 38977 48611 52007 60002 84250 333 21044 3/106 46997 55057 2//// 84840 86360
AAXX 20064 17237 12670 61808 10157 20048 39637 40131 52002 60002 86270 333 20119 31/// 55027 83835 86360 91110
AAXX 20064 17250 12975 50604 10060 21023 38822 48514 56002 60002 82054 333 20021 34101 55068 82360 85070
AAXX 20064 17270 12970 03003 10071 21022 39607 40266 52010 60002 333 20049 30001 55054
AAXX 20064 17295 12560 61616 10185 20095 30140 40147 57008 60002 83250 333 20111 31010 50324 55009 70002 83830 86360
AAXX 20064 17320 12670 63505 10134 20074 30195 40200 53005 60002 83230 333 20120 32010 50101 55075 83836 86360 92448
AAXX 20064 17375 12570 70603 10153 20124 30171 40173 56004 60002 84270 333 20135 32012 50141 55012 70004 84830 87359 91105 92427
AAXX 20064 06011 07657 72615 10025 21007 39925 49994 52011 60022 78186 333 10049 20024 55300 20000 69907 70085 81/34 83/57 85/59 87/61 91129
AAXX 20061 12120 12568 71902 10012 20003 30119 40126 58002 69982 8453/ 333 10030 20012 31100 70023 93000
AAXX 20061 12250 12761 81602 10002 21014 30059 40150 57008 60002 885// 333 10021 20002 31100 55014 93000
AAXX 20061 12295 11931 40000 11046 21046 39975 40167 57010 60002 71011 82031 333 11011 21051 34107 55010 93000
AAXX 20061 12330 12360 81902 10007 21008 30036 40147 57011 60002 886// 333 10014 20007 31000 55004 88709 93000
AAXX 20061 12375 11960 20000 11063 21064 30029 40167 57008 60002 71111 80002 333 11013 21075 34110 55052 93000
AAXX 20061 12424 12681 71502 11008 21022 30000 40157 56012 60002 875// 333 10008 21008 34102 55039 79999 93000
AAXX 20061 06428 11462 72703 10066 20054 30035 40084 53002 60042 76062 875// 333 20014 32000 81616 83623 87630 91109 91206
AAXX 20061 06432 11563 82805 10060 20047 30014 40091 53001 60032 70262 875// 333 20013 31001 82624 85630 87640 91111 91209
AAXX 20061 06458 11235 82503 10048 20048 39926 40081 55004 60032 76162 875// 333 20009 32001 82703 84612 85625 91113 91210
AAXX 20061 06465 11247 72604 10048 20044 30004 40071 55006 60042 76166 877// 333 20006 31000 81704 83706 85710 91110 91206
AAXX 20061 06496 11212 89902 11017 21020 39396 40085 55011 69922 77377 875// 333 21029 3/001 43033 81703 83710 87615 91111 91206
AAXX 20064 08055 NIL
AAXX 20064 08075 12570 62006 10008 21011 39236 48555 54000 60002 86501 333 21015 55064 70000
AAXX 20064 08084 02660 72814 10068 20005 39826 40269 56005 60002 86550 333 20045 3/002 55023 60007 70000
AAXX 20064 08171 NIL
AAXX 20064 08184 02960 32002 10009 21009 30052 40214 56013 60002 80003 333 20007 3/000 55015 60007 70000
AAXX 20064 08202 02965 40000 11030 21038 39364 42891 53005 60002 80001 333 21036 34106 55087 60007 70000
AAXX 20064 08235 NIL
AAXX 20064 08238 12680 53306 10104 20009 30170 40231 58006 60002 82542 333 20102 55073 70000
AAXX 20064 08280 12980 12506 11008 21032 39457 40321 53003 60002 80001 333 21024 50184 55070 70000
AAXX 20064 08330 11950 00000 11014 21028 30071 40316 57002 60002 71000 333 21014 30103 50114 55062 70000
AAXX 20064 08348 12970 00801 11017 21025 39552 40331 51003 60002 333 21017 50084 55084 70000
AAXX 20064 08360 02970 02712 10085 21028 30227 40265 53001 60002 333 20077 3/008 55072 60007 70000
AAXX 20064 08373 02965 03207 10084 20057 30231 40253 53006 60002 333 20067 3/005 55074 60007 79999
AAXX 20064 08410 02970 00000 10002 21009 30192 40309 53004 60002 333 20000 35000 55090 60007 70000
AAXX 20064 08419 02965 10000 11031 21042 39615 40328 53003 60002 80002 333 21032 3/104 55044 60007 70000
AAXX 20064 08451 02970 00306 10047 20012 30253 40288 53001 60002 333 20041 3/002 55/// 60007 70000
AAXX 20064 08487 02981 03412 10066 21034 30252 40279 53002 60002 333 20064 3/007 55048 60007 70000
AAXX 20061 15501 11512 80000 10023 20020 30076 40121 54000 69942 71022 885// 333 10027 20021 70022 555 31/// 598//
AAXX 20061 15505 11445 80000 10005 20002 39730 40110 57007 60002 71022 886// 333 10007 20000 70000 555 31100 598//
AAXX 20061 15511 11550 82702 10025 20020 30086 40126 57009 69992 71022 885// 333 10025 20014 55000 70031 555 31/// 596//
AAXX 20061 15514 11540 80000 10028 20023 30064 40100 57017 69942 71054 885// 333 10034 20026 70004 555 31/// 596//
AAXX 20061 15530 11/06 93602 10030 20022 39874 40115 54000 69932 74764 333 10050 20030 70041 555 31101 595// 70600
AAXX 20061 15533 11518 82303 10031 20026 30045 40077 56001 69922 71054 885// 333 10032 20026 70015 555 31/// 59700 68199
AAXX 20061 15550 11/02 92701 10035 20033 30069 40089 57006 69982 74554 333 10042 20035 70077 555 59800 67199
AAXX 20061 15561 11468 81606 10106 20088 30079 40086 57013 60102 76166 8802/ 222// 00093 2//02 333 10108 20100 70229 555 31001 58804 69999 70670 92034 92437
AAXX 20061 15562 11450 81406 10100 20084 30024 40095 57003 60102 76166 8802/ 222// 2//02 333 10106 20098 55000 70218 555 31002 59002 69999 70650 92034 92436 96010
AAXX 20061 15600 11/00 90000 11020 21023 38202 48407 57007 69952 74944 333 11018 21055 44011 55000 70011 555 598// 92712
AAXX 20061 15601 11505 80000 10002 21008 39464 40094 57007 60012 77172 885// 333 10004 21004 47003 55000 70029 555 3/102 59201 61899 70600
AAXX 20061 15605 11666 80000 10009 20006 39246 40099 57006 69932 78022 889// 333 10012 20003 70009 555 31100 59800 66299 70658
AAXX 20061 15613 11/01 91808 11056 21060 37596 47933 57008 60032 77177 333 11046 21058 48042 55000 70040 555 597// 70653
AAXX 20061 15628 12665 80000 10022 20012 39843 40104 57004 60002 885// 333 10024 20010 55000 70027 555 31002 593//
AAXX 20061 15642 11515 80000 10042 20040 39934 40103 53002 60132 71062 885// 333 10044 20030 55000 70287 555 32002 598// 70661
AAXX 20061 15661 11570 80902 10098 20090 30054 40089 57008 60022 70262 885// 222// 20000 333 10106 20098 70050 555 32008 595// 70654 92012 92418
AAXX 20061 15726 11257 72104 11020 21023 38162 48426 57003 69922 70142 86630 333 11002 21022 43010 55000 70067 555 598//
AAXX 20061 13168 11697 82903 10004 21003 30031 40141 53002 60022 77077 885// 333 20000 31100 55000 70076 93197
AAXX 20061 13174 11695 83404 10001 21001 30020 40123 55001 60042 77172 885// 333 20000 3/100 43002 55000 70074 93102
AAXX 20061 13269 12597 83004 10010 21010 39922 40142 53008 69952 885// 333 20010 31001 55000 70005
AAXX 20061 13274 11697 82902 10005 21006 39970 40135 52009 60032 76872 8652/ 333 20005 31000 55000 70033
AAXX 20061 13278 NIL
AAXX 20061 13378 NIL
AAXX 20061 13397 NIL
AAXX 20061 13457 12565 80000 10041 20035 30076 40083 55006 60032 8223/ 333 20037 32003 55/// 82833 88459
AAXX 20061 13481 NIL
AAXX 20064 71726 17/// /2810 11128 21150 39608 40159 51026 69951 7//4/ 333 11008 21129 70076 555 10100 20076 33020 40221
AAXX 20064 71727 NIL
AAXX 20064 71728 11580 43015 11098 21154 39906 40131 52038 69901 70277 84500 333 11011 21102 46997 70002 90962 555 10002 20002
AAXX 20064 71730 11574 83210 11097 21129 39798 40233 51014 69921 77177 885// 333 10024 21098 41001 70004 90973 555 10004 20002 32128 40091
AAXX 20064 71731 11469 83608 11096 21134 39763 40224 51023 69901 77177 885// 333 10026 21097 46997 70014 90973 555 10006 29999 33524 40200
AAXX 20064 71735 NIL
AAXX 20064 71738 NIL
AAXX 20064 71739 41574 82806 11106 21135 39845 40220 50005 6//// 77177 885// 333 10002 21106 7//// 90983 555 31525 40141
AAXX 20064 71749 16464 82404 11087 21106 39983 40236 55012 60001 333 10004 21107 70000 555 33322 40091
AAXX 20064 71799 11469 81505 10072 20046 30263 40287 55002 69901 75122 885// 333 10081 20039 79999 90910 555 10000 20000
AAXX 20064 71800 16/// /3317 11021 21031 39996 40029 55007 60001 333 10011 21034 70000 555 30446 40083
AAXX 20064 71801 11369 83512 11019 21027 39860 40034 58012 69901 78522 887// 333 11018 21030 47007 70006 90921 555 10014 20006 30329 40091
AAXX 20064 71803 12580 73206 11073 21098 39875 40064 58017 60001 87500 333 11059 21107 79999 555 19999 29999
AAXX 20064 71807 NIL
AAXX 20064 71808 11574 21014 11078 21101 30000 40047 57034 69901 70271 82500 333 11077 21186 44017 79999 90961 555 19999 29999
AAXX 20064 71809 12974 80705 11115 21136 30032 40060 57040 60001 8807/ 333 11075 21200 70000 555 10000 20000
AAXX 20064 71810 NIL
AAXX 20064 71811 NIL
AAXX 20064 71813 NIL
AAXX 20064 71814 16/// /1511 11038 21046 39997 40007 56047 60001 333 11035 21207 70000 555 31417 40061
AAXX 20064 71815 12474 41011 11068 21129 30009 40040 58044 60001 84500 333 11045 21132 70000 555 10000 20000 31018 40060
AAXX 20064 78922 46/// /0519 10241 20214 30098 40143 57018
BBXX 62087 20061 99547 10068 46/// /3402 10065 20053 4//// 5//// 22270 00082
AAXX 20064 71043 11756 82811 11191 21242 39937 40032 52021 60021 78588 8757/ 333 11146 21195 48025 70039 90983 93102 555 10043 20039
AAXX 20064 71045 16/// /0401 11129 21140 39170 40039 53020 60001 333 10001 21135 70000 555 32023 40091
AAXX 20064 71050 NIL
AAXX 20064 71051 NIL
AAXX 20064 71052 NIL
AAXX 20064 71066 12974 80000 11003 21102 39543 49956 58009 60001 8807/ 333 10039 21199 70000 555 10000 20000
AAXX 20064 71068 12974 02511 10028 21017 39293 49973 58023 60001 333 10038 21127 70000 555 10000 20000 32630 40161
AAXX 20064 71069 16764 30000 10011 20009 39297 49991 58022 60001 333 10063 21128 70000 555 32636 40203
AAXX 20064 71076 16/// /2603 11095 21110 39525 49916 53002 60001 333 11059 21153 70000
AAXX 20064 71077 16/// /2104 11013 21043 39455 49990 58013 60001 333 11001 21161 70006
AAXX 20064 71079 NIL
AAXX 20064 71081 46964 03314 11261 21301 39874 49886 52007 6///1 333 11181 21286 7//// 555 33130 40102
AAXX 20064 71082 NIL
AAXX 20064 71083 11558 80615 11228 21265 39878 49921 57020 60021 77177 885// 333 11210 21313 48054 70024 90983 93102 555 10024 20024 33225 40071
AAXX 20064 71090 46061 83116 11199 21231 39853 49888 53013 6///1 333 11196 21354 7//// 555 33032 40032
AAXX 20064 71091 460// /0720 11235 39658 49868 53003 6///1 333 7//// 555 30536 40153
AAXX 20064 71092 46959 01313 11252 39228 49901 52016 6///1 333 11209 21258 7////
AAXX 20064 71093 460// /2619 11222 39397 49898 50018 6///1 333 11199 21236 7//// 555 32434 40033
AAXX 20064 71094 46004 /0304 11203 38991 49893 51021 6///1 333 11173 21210 7//// 555 32045 40233
AAXX 20064 71095 46964 01011 11170 21228 39859 49939 53002 6///1 333 11160 21222 7////
AAXX 20064 71101 160// /2328 30086 53012 60001 333 70175 555 32450 40233
AAXX 20064 71104 NIL
AAXX 20064 71108 11566 83304 10054 20034 30217 40291 55004 69901 76162 885// 333 10073 20046 70004 90916 555 10000 20000
AAXX 20064 71109 11366 80000 10057 20042 30218 40245 53004 60101 76166 885// 333 10066 20039 70196 90983 555 10000 20000 31218 40040
AAXX 20061 12105 11457 81703 10019 20001 30081 40124 57008 69902 71022 885// 333 10029 20019 31001 70002 93000
AAXX 20061 12195 11928 20000 11047 21050 39930 40168 57004 60002 71011 80001 333 10011 21047 34107 93000
AAXX 20061 12235 11350 81804 10005 21001 39923 40138 56005 60002 71022 886// 333 10013 20005 31000 70001 88707 93000
AAXX 20061 12270 11550 71602 11014 21020 39973 40161 56004 60002 71022 875// 333 10011 21017 34103 55024 79999 93000
AAXX 20061 12280 11657 61703 11007 21018 39998 40159 56001 60002 71011 86500 333 10020 21007 34102 55013 93000
AAXX 20061 12300 11758 71801 10004 21003 30041 40133 57013 60002 71022 875// 333 10017 20004 31100 93000
AAXX 20061 12400 11660 71602 11006 21014 39901 40143 56015 69902 70182 875// 333 10005 21006 34101 55016 70001 93097
AAXX 20061 12435 11556 71502 11003 21035 39981 40158 57009 60002 71022 875// 333 10011 21003 34103 55054 93000
AAXX 20061 12495 11756 83603 11025 21032 39856 40159 57009 60002 71022 885// 333 11023 21055 34106 55035 93000
AAXX 20061 12530 11625 81701 11041 21045 39960 40168 57010 60002 71011 885// 333 11029 21077 34110 55065 93000
AAXX 20061 12570 11930 83401 11029 21032 39834 40164 57010 60002 71041 8807/ 333 11028 21049 34105 55049 93000
AAXX 20061 12580 11640 83002 11016 21023 39886 40154 57009 69902 77111 8657/ 333 11008 21022 3/103 47997 55002 79999 93097
AAXX 20064 71864 NIL
AAXX 20064 71865 16/// /2517 11006 21055 39377 40058 58025 60001 333 10000 21135 70000 555 32233 40002
AAXX 20064 71866 46964 02409 11033 21064 39447 40064 56020 6///1 333 11004 21151 7//// 555 32125 40231
AAXX 20064 71867 12974 02714 11010 21046 39657 49991 55022 60001 333 11008 21112 70000 555 10000 20000 32024 40001
AAXX 20064 71868 16/// /2509 11002 21050 39577 40016 56024 60001 333 10006 21101 70000 555 32321 40041
AAXX 20064 71869 12874 32410 11020 21059 39509 40035 57016 60001 81071 333 11014 21148 70000 555 10000 20000
AAXX 20064 71871 15866 82311 10014 21039 39232 40035 57023 60001 333 10026 21124 70000
AAXX 20064 71877 12974 72522 10073 21037 38821 40076 57031 60001 84022 333 10080 21100 70000 555 10000 20000 32728 40221
AAXX 20064 71878 12974 62204 10023 21031 38997 40073 56022 60001 82071 333 10030 21169 70000 555 10000 20000 31820 40110
AAXX 20064 71879 16664 82303 10009 21025 39239 40041 55015 60001 333 10034 21091 70000
AAXX 20064 71880 12782 81507 11007 21061 39132 40257 55004 60001 86502 333 10008 21035 70000 555 10000 20000 31519 40040
AAXX 20064 71882 160// /1610 10009 21010 39718 40266 55008 60001 333 10019 21034 70000 555 31617 40051
AAXX 20064 71883 46/// /0000 11025 21028 39389 40222 58017 6///1 333 11021 21102 7////
AAXX 20064 71887 12986 60706 10006 21032 39798 40227 58011 60001 86070 333 10019 21054 70000 555 10000 20000
AAXX 20064 71889 12874 81820 11007 21044 39852 40280 50009 60001 8807/ 333 10019 21068 70000 555 10000 20000 31734 40031
AAXX 20064 71891 16764 32023 10064 20013 39947 40224 50002 60001 333 10078 21006 70000 555 31941 40013
AAXX 20064 71892 12474 80806 10064 20043 30285 40290 55001 60001 885// 333 10076 20037 70004 555 10000 20000
AAXX 20064 71893 NIL
AAXX 20064 71894 NIL
AAXX 20064 71896 15666 81915 10023 21015 39281 40111 51023 60001 333 10025 21031 70000
AAXX 20064 71897 12166 82325 10052 20037 3//// 4//// 52016 60121 888XX 333 10070 20052 70788
AAXX 20064 71898 160// ///// 10076 53012 60011 333 10090 20033 70420
AAXX 20064 71899 11462 82738 10065 20065 3//// 4//// 51019 60011 72162 888// 333 10083 20060 70190 90925 555 32738 40063
AAXX 20064 71902 NIL
AAXX 20064 71905 NIL
AAXX 20064 71906 12974 20000 11236 21276 39993 40045 55005 60001 82070 333 11141 21239 79999 555 19999 29999
AAXX 20064 71907 16462 82513 11166 21191 30010 40043 56001 60001 333 11117 21169 70000 555 32627 40091
AAXX 20064 71909 16964 02214 11111 21157 39886 49929 51007 60001 333 11095 21134 70000 555 32228 40072
AAXX 20064 71910 47561 62906 11221 21231 39861 49924 52005 6///1 745// 333 11135 21225 7//// 555 32932 40082
AAXX 20064 71911 46564 82506 11331 39883 49942 51007 6///1 333 11300 21338 7//// 555 32827 40161
AAXX 20064 71912 11474 72314 11042 21066 39730 49913 56040 60011 77177 87500 333 11042 21218 47014 70012 90983 93101 555 10012 20012 32130 40032
AAXX 20064 71915 NIL
AAXX 20064 71917 11974 00000 11397 21436 30020 40035 51010 69901 7767/ 333 11373 21408 43013 79999 90999 555 19999 29999
AAXX 20064 71922 12874 22706 11018 21055 39521 49985 58009 60001 82070 333 11008 21137 47032 79999 555 19999 29999
AAXX 20064 71924 NIL
AAXX 20064 71925 11969 00000 11350 21393 39980 40023 50002 69901 77677 333 11329 21370 42021 79999 90983 555 19999 29999
AAXX 20064 71926 11974 90112 11306 21361 39933 49958 50001 69901 70171 81500 333 11306 21361 46043 79999 90943 555 19999 29999 33020 40091
AAXX 20064 71928 16/// /2709 10059 21038 38898 40057 56021 60001 333 10068 21192 70003 555 10010 20003
AAXX 20064 71930 NIL
AAXX 20064 71931 NIL
AAXX 20064 71934 12574 62806 11045 21073 39677 49931 52013 60001 86500 333 11004 21192 79999 555 19999 29999
AAXX 20064 71935 12974 23106 11101 21123 39756 49962 53025 60001 82075 333 10018 21104 79999 555 19999 29999 31926 40091
AAXX 20064 71936 11474 63110 11139 21151 39696 49956 53024 69901 77187 86500 333 11065 21194 48022 70016 90916 555 10026 20016
AAXX 20064 71937 NIL
AAXX 20064 71938 11969 80808 11265 21293 30001 40031 53032 69901 77677 8807/ 333 11203 21295 48025 70002 90983 555 10010 20002
AAXX 20064 71940 12882 42528 10040 21004 39224 40019 58003 60001 82071 333 10048 21078 70000 555 10000 20000 32528 40061
AAXX 20064 71943 12774 32410 10037 21025 39165 49988 55004 60001 81501 333 10046 21026 70000 555 10000 20000 32330 40041
AAXX 20064 71944 160// ///// 10012 55005 69951 333 10012 21049 70005
AAXX 20064 71945 12674 80000 11077 21121 39512 49986 52007 60001 8557/ 333 11074 21171 70000 555 10000 20000
AAXX 20064 71946 12974 22803 11161 21174 39756 49969 53013 60001 80001 333 10016 21175 70000 555 10000 20000
AAXX 20064 71948 46064 /0717 11262 39899 40016 51013 6///1 333 11241 21272 7//// 555 30627 40131
AAXX 20064 71949 NIL
AAXX 20064 71951 11158 81921 10040 20029 39816 40082 50009 60021 78088 885// 333 10043 21019 43040 70263 90983 555 10020 20027 31632 40201
AAXX 20064 71957 46564 80000 11253 21324 39948 40040 51009 6///1 333 11212 21265 7////
AAXX 20064 71964 NIL
AAXX 20064 71966 16/// /0000 11206 21230 39586 40058 53018 60001 333 11122 21208 70000
AAXX 20064 71968 470// /0405 11244 39967 40033 50006 6///1 745// 333 11210 21262 7////
AAXX 20064 71812 NIL
AAXX 20064 71819 15966 80604 11108 21116 30019 40061 56031 60001 333 11074 21202 70000
AAXX 20064 71820 16/// /3408 11015 21045 30060 40175 51034 60001 333 10066 21016 70000 555 31930 40122
AAXX 20064 71823 17564 62710 11173 21189 39702 40094 53023 69951 7//44 333 11131 21200 70005 555 30317 40061
AAXX 20064 71824 NIL
AAXX 20064 71826 16/// /1204 11168 21218 39898 49941 53012 60001 333 11117 21200 70031 555 31029 40082
AAXX 20064 71829 17/// /2611 11073 21107 39863 40026 52028 60011 7//4/ 333 11041 21121 70113 555 31223 40191
AAXX 20064 71833 46/// /3507 11005 21037 6///1 333 10048 21007 7//// 555 32523 40141
AAXX 20064 71835 17/// /2316 11095 21107 39645 40135 58040 69931 7//4/ 333 11090 21112 70003 555 32325 40051
AAXX 20064 71837 NIL
AAXX 20064 71839 NIL
AAXX 20064 71840 46/// /2219 11023 21073 6///1 333 11023 21079 7//// 555 32328 40062
AAXX 20064 71846 16/// /2211 11094 21105 39799 40121 58045 60001 333 11093 21143 70000 555 32321 40061
AAXX 20064 71847 NIL
AAXX 20064 71848 NIL
AAXX 20064 71849 NIL
AAXX 20064 71250 NIL
AAXX 20064 71251 16/// /2516 10030 21051 39181 40106 57023 60001 333 10040 21059 70000 555 32625 40061
AAXX 20064 71252 NIL
AAXX 20064 71253 46/// /2704 11057 21067 6///1 333 11013 21239 7////
AAXX 20064 71254 16/// /2308 10033 21013 60001 333 10036 21113 70000 555 10010 32417 40211
AAXX 20064 71255 16/// /1505 11014 21043 60001 333 10007 21180 70006 555 10010 20006 32727 40181
AAXX 20064 71256 46/// /2402 10016 21017 39101 40030 58005 6///1 333 10028 21090 7////
AAXX 20064 71257 NIL
AAXX 20064 71258 NIL
AAXX 20064 71259 NIL
AAXX 20064 71261 16/// /0210 11006 21047 39948 40211 51016 60001 333 10057 21006 70000 555 32031 40102
AAXX 20064 71263 11560 33408 10001 21031 39912 40204 53024 69901 70181 813// 333 10064 20001 79999 909/4 555 33319 40132
AAXX 20064 71264 17/// /2510 10051 20039 30005 40036 56038 69991 7//4/ 333 10056 21067 70009 555 32525 40061
AAXX 20064 71265 15566 83411 10012 21047 30105 40200 52027 60001 333 10073 20012 70000
AAXX 20064 71266 NIL
AAXX 20064 71267 15966 62632 10054 21056 39029 40118 58015 60001 333 10054 21086 70000
AAXX 20064 71268 NIL
AAXX 20064 71269 NIL
AAXX 20064 71270 NIL
AAXX 20064 71271 16/// ///// 10021 21030 60001 333 10047 21072 70000
AAXX 20064 71272 15466 82808 11062 21076 39514 49865 55009 60001 333 11062 21210 70000
AAXX 20064 71273 16/// /2408 10028 21028 39354 40007 56021 60001 333 10028 21112 70000 555 32325 40181
AAXX 20064 71274 NIL
AAXX 20064 71275 NIL
AAXX 20064 71276 NIL
AAXX 20064 71277 NIL
AAXX 20064 71278 NIL
AAXX 20064 71279 NIL
AAXX 20064 71281 NIL
AAXX 20064 71282 46/// /3510 11028 21052 39937 40210 52033 6///1 333 10047 21028 7//// 555 32031 40062
AAXX 20064 71283 NIL
AAXX 20064 71284 16/// ///// 10012 21023 60001 333 10029 21113 70000
AAXX 20064 71285 NIL
AAXX 20064 71286 NIL
AAXX 20064 71287 NIL
AAXX 20064 71288 NIL
AAXX 20064 71289 NIL
AAXX 20064 71290 17466 61412 10010 21003 39230 40057 55006 69981 7004/ 333 10011 21046 70008 555 31525 40131
AAXX 20064 71291 16/// /1801 11148 21161 39918 40222 58019 60001 333 11018 21152 70000 555 33322 40121
AAXX 20064 71292 15966 82321 11015 21040 39457 40070 56034 60001 333 11015 21125 70000
AAXX 20064 71294 16/// /0307 11059 21098 39787 40195 51036 60001 333 10035 70008 555 32322 40131
AAXX 20064 71295 NIL
AAXX 20064 71296 NIL
AAXX 20064 71297 16/// /3404 10016 21025 60001 333 10076 20016 70000 555 32719 40181
AAXX 20064 71298 16/// /0212 10015 21030 39981 40213 51021 60001 333 10089 20015 70000 555 32522 40181
AAXX 20064 71299 NIL
AAXX 20064 71051 NIL
AAXX 20064 71055 NIL
AAXX 20064 71057 NIL
AAXX 20064 71059 460// ///// 11260 39939 40033 53015 6///1 333 11226 21267 7//// 555 31025 40121
AAXX 20064 71061 16/// /2306 10024 21017 39237 40006 56015 60001 333 10039 21092 70000 555 32118 40181
AAXX 20064 71062 46/// /2210 10030 21022 38956 40014 56020 6///1 333 10048 21090 7//// 555 32217 40171
AAXX 20064 71064 460// /3413 11334 39813 40040 53004 6///1 333 11309 21344 7//// 555 33520 40031
AAXX 20064 71065 NIL
AAXX 20064 71067 NIL
AAXX 20064 71070 NIL
AAXX 20064 71073 NIL
AAXX 20064 71074 NIL
AAXX 20064 71075 16/// /2608 11049 21060 39304 49904 50000 60001 333 11038 21141 7////
AAXX 20064 71078 15566 32713 11036 21053 39478 49918 55007 60001 333 11035 21125 70000
AAXX 20064 71084 460// ///// 11342 39933 49983 58001 6///1 333 11325 21346 7////
AAXX 20064 71085 15966 82731 10018 21061 38764 40145 58017 60001 333 10029 21107 70000
AAXX 20064 71087 NIL
AAXX 20064 71088 460// /0707 11235 51006 6///1 333 11206 21245 7//// 555 30319 40121
AAXX 20064 71089 NIL
AAXX 20064 71096 460// ///// 11219 39177 49915 52017 6///1 333 11184 21225 7////
AAXX 20064 71097 46064 /2609 11137 39479 49954 53011 6///1 333 11129 21152 7//// 555 32533 40142
AAXX 20064 71098 43/// /2010 11061 21081 39679 40042 56066 6///1 333 11060 21133 7//// 555 32225 40031
AAXX 20064 71099 43/// /2015 11134 21164 39978 49999 58066 6///1 333 11134 21226 7//// 555 32821 40151
AAXX 20064 71300 NIL
AAXX 20064 71301 16/// ///// 11104 21120 39802 40212 50009 60001 333 10006 21105 70053 555 10080 20053
AAXX 20064 71302 16/// /1914 10024 21012 39292 40108 51022 60001 333 10028 21031 70000 555 31828 40032
AAXX 20064 71303 46/// ///// 10022 21024 6///1 333 10072 20022 7////
AAXX 20064 71305 15966 62609 11049 21077 39648 49936 56003 60001 333 10000 21141 70000
AAXX 20064 71306 17461 82514 11140 21157 30010 40043 53001 60001 771// 333 11098 21143 70000 555 32531 40092
AAXX 20064 71307 16/// /3508 10013 21021 39960 40212 51016 60001 333 10082 20012 70000 555 32125 40091
AAXX 20064 71308 16/// /1913 10009 20000 39944 40028 56062 60001 333 10009 21068 70000 555 33319 40081
AAXX 20064 71309 NIL
AAXX 20064 71310 NIL
AAXX 20064 71311 NIL
AAXX 20064 71312 16/// /2411 11004 21052 39564 40021 56014 60001 333 11004 21160 70000 555 32127 40001
AAXX 20064 71314 16/// /3308 11031 21072 39847 40203 51029 60001 333 10043 21033 70000 555 32927 40201
AAXX 20064 71315 NIL
AAXX 20064 71316 16/// /2205 10027 21007 39328 40004 56021 60001 333 10035 21121 70000 555 32317 40171
AAXX 20064 71317 NIL
AAXX 20064 71318 16/// /2310 11011 21046 39110 40057 58024 60001 333 11011 21145 70000 555 10010 32021 40181
AAXX 20064 71319 16/// /3211 11098 21129 39189 40061 53019 60001 333 11044 21145 70051 555 32121 40161
AAXX 20064 71320 NIL
AAXX 20064 71321 NIL
AAXX 20064 71322 NIL
AAXX 20064 71323 NIL
AAXX 20064 71331 16/// /2707 11030 21067 60001 333 11021 21106 70000 555 32919 40121
AAXX 20064 71332 NIL
AAXX 20064 71334 NIL
AAXX 20064 71335 46964 02509 11165 58006 6///1 333 11153 21187 7//// 555 32644 40113
AAXX 20064 71336 46/// ///22 11005 21027 39994 40016 58014 6///1 333 11004 21019 7////
AAXX 20064 71337 46/// /1301 11089 21102 39812 40052 56026 6///1 333 11059 21130 7////
AAXX 20064 71338 46964 31603 11259 21301 39922 49929 51019 6///1 333 11134 21275 7//// 555 32127 40011
AAXX 20064 71339 16964 02502 11141 21187 30046 40061 57036 60001 333 11061 21209 70005
AAXX 20064 71340 NIL
AAXX 20064 71341 NIL
AAXX 20064 71342 NIL
AAXX 20064 71343 NIL
AAXX 20064 71344 NIL
AAXX 20064 71345 NIL
AAXX 20064 71346 NIL
AAXX 20064 71347 NIL
AAXX 20064 71348 NIL
AAXX 20064 71349 NIL
AAXX 20064 71500 NIL
AAXX 20064 71501 NIL
AAXX 20064 71502 NIL
AAXX 20064 71503 NIL
AAXX 20064 71504 NIL
AAXX 20064 71505 46/// /0201 11197 21223 39322 40061 51024 6///1 333 10032 21202 7////
AAXX 20064 71506 NIL
AAXX 20064 71507 16/// /2004 10004 21009 60001 333 10031 21119 70000 555 31922 40071
AAXX 20064 71508 16/// ///// 10009 21036 30063 40202 51025 60001 333 10075 20009 70000
AAXX 20064 71509 NIL
AAXX 20064 71511 16/// /2611 11007 21045 39425 40064 58016 60001 333 11002 21149 70000 555 32426 40031
AAXX 20064 71512 17/// /2902 11051 21054 39957 49971 56020 60011 7//4/ 333 11033 21155 70023 555 31622 40211
AAXX 20064 71513 17236 82609 11034 21041 39953 49968 56041 60011 7714/ 333 11017 21138 70013
AAXX 20064 71514 NIL
AAXX 20064 71515 NIL
AAXX 20064 71516 16/// /1103 11032 21067 60001 333 11014 21152 70006 555 32121 40211
AAXX 20064 71517 NIL
AAXX 20064 71518 NIL
AAXX 20064 71519 NIL
AAXX 20064 71520 NIL
AAXX 20064 71521 NIL
AAXX 20064 71522 NIL
AAXX 20064 71523 NIL
AAXX 20064 71524 16/// /3208 11046 21094 30134 40161 53049 60001 333 10032 21077 70010 555 31622 40141
AAXX 20064 71525 NIL
AAXX 20064 71526 NIL
AAXX 20064 71527 15366 82117 11075 21089 39670 40189 58033 60001 333 11043 21086 70000
AAXX 20064 71528 NIL
AAXX 20064 71529 46/// /0808 11163 21188 39713 49941 51028 6///1 333 11083 21184 7//// 555 10050
AAXX 20064 71532 15566 63604 11056 21089 39861 40210 51033 60001 333 10048 21056 70000
AAXX 20064 71534 16564 83309 11013 21061 39934 40208 51025 60001 333 10052 21013 70000 555 32334 40083
AAXX 20064 71535 NIL
AAXX 20064 71536 NIL
AAXX 20064 71537 NIL
AAXX 20064 71539 NIL
AAXX 20064 71540 NIL
AAXX 20064 71541 NIL
AAXX 20064 71542 16/// /2609 10008 21043 60001 333 10027 21073 70000 555 32326 40151
AAXX 20064 71543 NIL
AAXX 20064 71544 NIL
AAXX 20064 71545 16/// ///// 10023 21023 60001 333 10040 21102 70000
AAXX 20064 71546 NIL
AAXX 20064 71547 NIL
AAXX 20064 71548 NIL
AAXX 20064 71549 NIL
AAXX 20064 71550 NIL
AAXX 20064 71551 NIL
AAXX 20064 71552 46/// /2025 11054 21083 6///1 333 11043 21069 7//// 555 32132 40062
AAXX 20064 71553 NIL
AAXX 20064 71554 16/// /3011 11021 21071 30044 40050 52025 60001 333 10001 21122 70016 555 31829 40152
AAXX 20064 71555 NIL
AAXX 20064 71556 16/// /2612 11009 21042 39462 40070 56027 60001 333 11002 21170 70000 555 32225 40011
AAXX 20064 71557 46/// /2310 10063 21011 6///1 333 10064 21073 7//// 555 32422 40031
AAXX 20064 71558 46/// ///// 11104 21114 30016 40053 56031 6///1 333 11067 21204 7////
AAXX 20064 71559 46/// /2217 11031 21074 39432 40140 56031 6///1 333 11012 21129 7//// 555 32126 40051
AAXX 20064 71560 16/// /1916 11077 21100 39876 40186 56036 60001 333 11023 21089 70000 555 33421 40141
AAXX 20064 71563 NIL
AAXX 20064 71564 NIL
AAXX 20064 71565 NIL
AAXX 20064 71566 NIL
AAXX 20064 71567 NIL
AAXX 20064 71568 17/// /1014 10054 20031 30255 40268 55002 60081 7//4/ 333 10061 20038 70104 555 31218 40011
AAXX 20064 71569 16/// /2114 11015 21051 39383 40086 56030 60001 333 11007 21146 70000 555 32121 40021
AAXX 20064 71570 NIL
AAXX 20064 71571 NIL
AAXX 20064 71572 NIL
AAXX 20064 71573 16/// /3507 10012 21023 39910 40194 53019 60001 333 10071 20012 70000 555 32223 40151
AAXX 20064 71574 11674 22709 11021 21049 39938 40011 57002 69901 70177 82500 333 11021 21240 47020 79999 90923 555 19999 29999 31817 40220
AAXX 20064 71575 16/// /3106 11219 21243 39855 49921 51006 60001 333 11134 21224 70000 555 33130 40072
AAXX 20064 71576 16/// /1012 11170 21220 39855 49940 53003 60001 333 11158 21221 70000 555 30530 40012
AAXX 20064 71577 46/// /2117 11061 21088 6///1 333 11039 21080 7//// 555 31925 40051
AAXX 20064 71578 16/// /2507 11042 21097 60001 333 11016 21126 70063 555 32817 40051
AAXX 20064 71579 NIL
AAXX 20064 71580 NIL
AAXX 20064 71581 NIL
AAXX 20064 71582 17456 82110 10071 20057 30161 40214 53016 60081 7614/ 333 10078 20037 70569
AAXX 20064 71583 NIL
AAXX 20064 71584 17540 82405 11044 21058 39922 49969 56024 60001 771// 333 11037 21149 70000
AAXX 20064 71585 NIL
AAXX 20064 71586 16/// /2604 11020 21053 39519 49981 58010 60001 333 11009 21136 70000 555 32217 40221
AAXX 20064 71587 NIL
AAXX 20064 71588 16/// /1508 11085 21117 60001 333 11048 21187 70000
AAXX 20064 71589 16/// /3302 11065 21087 39919 40053 56015 60001 333 11047 21071 70000 555 30018 40191
AAXX 20064 71590 16/// /3207 11045 21072 39851 40044 53014 60001 333 11045 21241 70008 555 10010 20008
AAXX 20064 71592 NIL
AAXX 20064 71593 NIL
AAXX 20064 71596 NIL
AAXX 20064 71598 16/64 /2608 11042 21055 39996 40002 58008 60001 333 11030 21150 70000 555 31720 40191
AAXX 20064 71599 17/// /2702 10018 20018 39847 40049 56019 69971 7//4/ 333 10020 21104 70007
AAXX 20064 71401 16/// /1703 11030 21049 39599 40303 58007 60001 333 11025 21050 70007
AAXX 20064 71402 NIL
AAXX 20064 71404 NIL
AAXX 20064 71405 NIL
AAXX 20064 71406 NIL
AAXX 20064 71407 NIL
AAXX 20064 71408 NIL
AAXX 20064 71409 NIL
AAXX 20064 71410 15766 82216 11038 21064 39708 49987 56036 60001 333 11038 21149 70000
AAXX 20064 71413 NIL
AAXX 20064 71414 NIL
AAXX 20064 71415 17/// /2210 10012 20003 30014 40017 56034 60011 7//4/ 333 10012 21036 7//// 555 10010
AAXX 20064 71417 NIL
AAXX 20064 71418 NIL
AAXX 20064 71419 46/// /2017 10030 20016 30028 40038 56066 6///1 333 10030 21034 7//// 555 32127 40061
AAXX 20064 71423 NIL
AAXX 20064 71424 46/// /2708 6///1 333 7//// 555 32220 40011
AAXX 20064 71425 16/// /2914 11033 21059 39950 49986 55003 60001 333 11029 21172 70010 555 31945 40213
AAXX 20064 71426 NIL
AAXX 20064 71427 17/// /2713 11057 21096 30012 40019 52028 60011 7//4/ 333 11016 21080 70030 555 32032 40212
AAXX 20064 71428 16/// /2826 11033 21080 30008 40014 53025 60001 333 11012 21175 70000 555 32532 40042
AAXX 20064 71429 NIL
AAXX 20064 71434 NIL
AAXX 20064 71436 15966 03109 11016 21056 39956 40193 51033 60001 333 10059 21016 70000
AAXX 20064 71437 46/// /3411 10025 21040 30103 40199 51028 6///1 333 10078 20025 7//// 555 32024 40131
AAXX 20064 71438 NIL
AAXX 20064 71439 NIL
AAXX 20064 71440 NIL
AAXX 20064 71442 NIL
AAXX 20064 71445 NIL
AAXX 20064 71446 16/// /2214 11019 21058 39109 40091 58027 60001 333 11019 21131 70007 555 32131 40222
AAXX 20064 71448 NIL
AAXX 20064 71449 16/// /2107 11061 21085 39786 40198 58024 60001 333 11044 21065 70000 555 33323 40091
AAXX 20064 71665 16/// /2704 11177 21213 30035 40045 56016 60001 333 11135 21203 70000 555 32422 40131
AAXX 20064 71666 17/// /2711 11002 21023 39975 40020 55004 60011 7//4/ 333 10008 21151 70010 555 10010 20010 32719 40061
AAXX 20064 71667 NIL
AAXX 20064 71668 16/// /2903 11006 21036 39993 40036 55002 60001 333 10009 21157 70000 555 10010 32020 40191
AAXX 20064 71669 NIL
AAXX 20064 71670 16/// ///// 11019 21033 60001 333 11004 21170 70000
AAXX 20064 71671 NIL
AAXX 20064 71672 16/// /3104 11019 21066 39923 40189 51032 60001 333 10054 21020 70000 555 32320 40121
AAXX 20064 71673 NIL
AAXX 20064 71674 NIL
AAXX 20064 71675 17456 82217 11084 21098 39770 40053 56055 60031 77144 333 11084 21204 70157
AAXX 20064 71679 16/// /2413 10038 21008 39082 40087 51021 60001 333 10056 21005 70010 555 32434 40233
AAXX 20064 71680 NIL
AAXX 20064 71681 46/// /0902 11004 21031 6///1 333 10001 21048 7////
AAXX 20064 71682 NIL
AAXX 20064 71683 NIL
AAXX 20064 71684 17566 83011 11095 21137 39915 40224 50011 60001 771// 333 10015 21097 70013
AAXX 20064 71685 17466 81610 10010 21004 39717 40266 55008 60001 771// 333 10015 21028 70000
AAXX 20064 71686 469// /0703 11051 21055 39046 49996 53018 6///1 333 11026 21147
AAXX 20064 71687 16/// /1803 10012 20003 39470 40262 53008 60001 333 10020 21016 70000
AAXX 20064 71688 16/// /2601 10000 21002 39207 40254 51007 60001 333 10006 21026 70000
AAXX 20064 71689 15966 82208 10015 21025 39524 49973 56016 60001 333 10016 21168 70000
AAXX 20064 71690 NIL
AAXX 20064 71691 15966 02709 11069 21100 30011 40039 53032 60001 333 11019 21090 70000
AAXX 20064 71692 NIL
AAXX 20064 71694 16/// /3407 11061 21103 39857 40226 51031 60001 333 10049 21061 70000 555 32221 40131
AAXX 20064 71695 16/// /2613 11010 21054 39654 49987 55020 60001 333 11006 21110 70000 555 31925 40001
AAXX 20064 71696 NIL
AAXX 20064 71697 15966 03314 11001 21055 30020 40193 51027 60001 333 10068 21001 70000
AAXX 20064 71699 16/// /2808 10033 21013 30034 40041 55005 60001 333 10049 21128 70015
AAXX 20064 71150 46/// /2019 11042 21069 39413 40102 56041 6///1 333 11042 21138 7//// 555 32124 40061
AAXX 20064 71151 NIL
AAXX 20064 71152 NIL
AAXX 20064 71153 NIL
AAXX 20064 71154 16/// /2330 10011 21072 60001 333 10027 21169 70000 555 32349 40063
AAXX 20064 71155 NIL
AAXX 20064 71156 NIL
AAXX 20064 71157 46/// ///// 10005 21007 6///1 333 10031 21092 7//// 555 10180
AAXX 20064 71158 NIL
AAXX 20064 71159 NIL
AAXX 20064 71160 NIL
AAXX 20064 71161 16/// /3511 11023 21070 30021 40170 53041 60001 333 10060 21023 70000 555 32031 40152
AAXX 20064 71162 NIL
AAXX 20064 71163 46/// /0302 11152 21165 39624 49969 51017 6///1 333 11092 21221 7////
AAXX 20064 71164 NIL
AAXX 20064 71165 NIL
AAXX 20064 71166 NIL
AAXX 20064 71167 15966 13003 10015 21021 38946 40041 56014 60001 333 10045 21159 70000
AAXX 20064 71168 16/// /0000 11079 21091 39662 40265 56012 60001 333 10044 21089 70000 555 33526 40101
AAXX 20064 71170 NIL
AAXX 20064 71171 16/// /3613 10023 21022 30095 40192 53029 60001 333 10077 20023 70000 555 32332 40092
AAXX 20064 71172 16/// ///// 11053 21099 39992 40212 51025 60001 333 10057 21055 70000 555 10130
AAXX 20064 71175 NIL
AAXX 20064 71176 460// /2325 11180 39305 40001 51008 6///1 333 11163 21200 7//// 555 32256 40073
AAXX 20064 71177 460// /1907 11189 38985 40012 55011 6///1 333 11168 21208 7//// 555 33331 40202
AAXX 20064 71178 16/// /0217 11016 21048 30011 40043 58012 60001 333 11014 21035 70000 555 30131 40162
AAXX 20064 71179 460// ///// 11167 39180 40025 56019 6///1 333 11150 21211 7////
AAXX 20064 71180 16/// /1420 11025 21060 39991 40030 56060 60001 333 11024 21114 7////
AAXX 20064 71181 16964 03406 11075 21100 30010 40047 56015 60001 333 11033 21089 70000 555 30125 40131
AAXX 20064 71183 16/// /3212 30110 53047 60001 333 70000 555 32324 40191
AAXX 20064 71184 46/// /3312 11026 21082 6///1 333 10049 21074 7//// 555 31828 40132
AAXX 20064 71186 NIL
AAXX 20064 71187 17564 82406 10056 20043 30231 40280 55008 60001 761// 333 10066 20009 70000
AAXX 20064 71189 NIL
AAXX 20064 71190 NIL
AAXX 20064 71191 17/// ///// 10019 20003 60101 7//4/ 333 10019 21124 70104 555 10010 20104
AAXX 20064 71192 15966 01414 10028 21014 39479 40141 55005 60001 333 10030 21025 70000
AAXX 20064 71193 NIL
AAXX 20064 71196 16/// /3314 11060 21113 30001 40203 51031 60001 333 10048 21060 70009
AAXX 20064 71197 16564 61613 11009 21055 39995 40045 57049 60001 333 11008 21113 7////
AAXX 20064 71198 46/// /3115 11036 21107 6///1 333 10018 21079 7//// 555 31831 40142
AAXX 20064 71199 46/// /2602 11109 21123 39182 40029 53013 6///1 333 11061 21192 7////
AAXX 20064 71851 16/// /2111 11017 21069 39799 40139 58041 60001 333 11017 21086 70000 555 32220 40061
AAXX 20064 71857 NIL
AAXX 20064 71860 NIL
AAXX 20064 71876 15866 62405 11015 21047 39386 40051 58025 60001 333 10003 21153 70000
AAXX 20064 71885 NIL
AAXX 20064 71886 16/// /2319 11015 21050 39458 40070 56031 60001 333 11015 21128 70000 555 32230 40042
AAXX 20064 71888 NIL
AAXX 20064 71890 17/// /0509 11076 21116 30008 40035 53032 69931 7//4/ 333 11020 21090 70030 555 10030 20030 30323 40211
AAXX 20064 71895 NIL
AAXX 20064 71900 46/// /25// 11142 21173 30030 40043 56016 6///1 333 11134 21156 7////
AAXX 20064 71903 NIL
AAXX 20064 71904 NIL
AAXX 20064 71914 16/// /2601 10053 20036 30065 40290 53004 60001 333 10056 20025 70000
AAXX 20064 71916 NIL
AAXX 20064 71918 460// ///// 11346 6///1 333 7////
AAXX 20064 71920 NIL
AAXX 20064 71921 NIL
AAXX 20064 71923 NIL
AAXX 20064 71927 16/// /0000 10056 20040 30229 40288 55000 60001 333 10077 20008 70000
AAXX 20064 71941 15566 83108 11118 21149 39780 40207 51018 60001 333 10005 21118 70033
AAXX 20064 71947 15564 83010 11156 21183 39838 40197 51020 60001 333 11028 21156 70031
AAXX 20064 71201 16/// ///// 10068 20045 60001 333 10071 20054 70014
AAXX 20064 71202 16/// ///// 10029 21025 60001 333 10030 21132 70007
AAXX 20064 71203 15966 81609 10005 21034 39732 40263 58001 60001 333 10018 21089 70000
AAXX 20064 71209 46/// /1610 10073 6///1 333 10073 20045 7////
AAXX 20064 71211 46/// /3605 10055 20046 30276 40288 53007 6///1 333 10059 20043 7////
AAXX 20064 71212 16/// /3211 11092 21124 39258 40071 53017 60001 333 11038 21210 70087 555 10070 20087 33223 40061
AAXX 20064 71213 46/// /3110 11093 21130 39915 40224 50012 6///1 333 10018 21096 7//// 555 33028 40022
AAXX 20064 71214 NIL
AAXX 20064 71215 46/// /1605 11011 21043 39939 40292 56007 6///1 333 10012 21055 7////
AAXX 20064 71216 16/// /0302 10005 21025 39638 40264 57009 60001 333 10023 21018 70000
AAXX 20064 71217 NIL
AAXX 20064 71218 16/// /1602 11012 21027 39814 40250 58006 60001 333 10025 21056 70000
AAXX 20064 71219 46/// /2026 10082 20035 30085 40091 53015 6///1 333 10106 20045 7//// 555 31443 40103
AAXX 20064 71220 46/// /1928 10072 20038 6///1 333 10090 20039 7////
AAXX 20064 71221 NIL
AAXX 20064 71222 17/// /1001 11057 21062 39046 40010 53019 69991 7//4/ 333 11030 21168 70065 555 10140 20065
AAXX 20064 71223 NIL
AAXX 20064 71224 NIL
AAXX 20064 71225 NIL
AAXX 20064 71226 NIL
AAXX 20064 71227 NIL
AAXX 20064 71228 NIL
AAXX 20064 71229 NIL
AAXX 20064 71230 16/// /2522 10046 21008 39131 40008 51003 60001 333 10059 21059 70000 555 32631 40062
AAXX 20064 71231 16/// /2716 10032 21044 60001 333 10038 21068 70006 555 32727 40051
AAXX 20064 71232 16/// /2413 10036 21060 38623 40117 50000 60001 333 10044 21154 70014 555 32530 40062
AAXX 20064 71233 16/// /2006 10054 21032 60001 333 10054 21093 70000
AAXX 20064 71234 16/// /2722 10053 21064 38927 40103 56026 60001 333 10068 21092 70000 555 32636 40053
AAXX 20064 71235 16/// /2912 10059 21033 60001 333 10070 21092 70000 555 32926 40041
AAXX 20064 71236 46/// /3013 11009 21084 6///1 333 10015 21131 7//// 555 33040 40053
AAXX 20064 71237 46/// /1506 11040 21060 39248 40072 58030 6///1 333 11025 21170 7////
AAXX 20064 71238 16/// /2402 10042 21026 60001 333 10042 21098 70000 555 10480
AAXX 20064 71239 16/// /2217 11029 21070 39677 40146 58036 60001 333 11026 21123 70000 555 32123 40051
AAXX 20064 71240 16/// ///// 10019 21050 39220 40065 58028 60001 333 10024 21105 70000
AAXX 20064 71241 NIL
AAXX 20064 71242 16/// /1906 10014 21027 60001 333 10026 21155 70000
AAXX 20064 71243 NIL
AAXX 20064 71244 NIL
AAXX 20064 71245 46/// /2455 11046 21074 6///1 333 11026 21121 7//// 555 32293 40023
AAXX 20064 71246 NIL
AAXX 20064 71247 15966 32109 10010 21040 39249 40102 56023 60001 333 10034 21080 70000
AAXX 20064 71248 16/// /2411 10079 21048 38775 40071 56021 60001 333 10079 21160 70012 555 32519 40061
AAXX 20064 71249 NIL
AAXX 20064 71950 17666 81613 10040 20012 39431 40058 53009 60001 761// 333 10038 21050 70043 555 31619 40061
AAXX 20064 71952 16/// /2203 10031 21021 39230 40075 51018 60001 333 10052 21056 70000 555 32120 40221
AAXX 20064 71954 NIL
AAXX 20064 71956 NIL
AAXX 20064 71959 NIL
AAXX 20064 71960 460// /0704 11291 39906 40044 53019 6///1 333 11232 21307 7//// 555 30421 40081
AAXX 20064 71962 16/// /2306 11059 21083 39794 40228 56011 60001 333 11019 21073 70000 555 10010 33121 40071
AAXX 20064 71963 NIL
AAXX 20064 71967 16/// /3417 11041 21091 30045 40151 53049 60001 333 10023 21114 70000 555 33428 40052
AAXX 20064 71970 NIL
AAXX 20064 71971 NIL
AAXX 20064 71972 460// ///// 11133 39497 49962 53002 6///1 333 11132 21155 7////
AAXX 20064 71973 46/// /1102 11080 21113 39852 40042 58042 6///1 333 11061 21179 7////
AAXX 20064 71974 NIL
AAXX 20064 71975 460// /1904 11168 39207 49936 53013 6///1 333 11149 21188 7//// 555 32732 40192
AAXX 20064 71976 NIL
AAXX 20064 71977 NIL
AAXX 20064 71978 NIL
AAXX 20064 71979 NIL
AAXX 20064 71980 NIL
AAXX 20064 71981 NIL
AAXX 20064 71982 NIL
AAXX 20064 71983 NIL
AAXX 20064 71984 16/// /2708 11249 21274 30000 40009 52014 60001 333 11178 21287 70000 555 10010
AAXX 20064 71985 NIL
AAXX 20064 71986 NIL
AAXX 20064 71987 16/// /2721 10004 21021 39990 49999 55018 60001 333 10011 21065 70000 555 32433 40052
AAXX 20064 71988 NIL
AAXX 20064 71989 NIL
AAXX 20064 71990 NIL
AAXX 20064 71999 46/// ///// 10069 6///1 333 10074 21016 7////
AAXX 20064 71350 17/// /2308 10002 21003 39943 40008 56028 69981 7//4/ 333 10003 21065 70008 555 10020 20008 31823 40001
AAXX 20064 71351 NIL
AAXX 20064 71352 16/// /3509 11010 21040 39741 40200 51022 60001 333 10037 21010 70000 555 32522 40161
AAXX 20064 71353 NIL
AAXX 20064 71354 NIL
AAXX 20064 71355 16/// /3201 11274 21302 39915 40003 55002 60001 333 11260 21338 70000
AAXX 20064 71356 NIL
AAXX 20064 71357 NIL
AAXX 20064 71358 17/// /3215 11198 21217 39852 49887 53013 69931 7//4/ 333 11195 21363 70036 555 10060 20036 33030 40032
AAXX 20064 71359 NIL
AAXX 20064 71360 NIL
AAXX 20064 71361 NIL
AAXX 20064 71362 NIL
AAXX 20064 71363 NIL
AAXX 20064 71364 NIL
AAXX 20064 71365 NIL
AAXX 20064 71368 15566 63211 11007 21052 39810 40203 51023 60001 333 10053 21007 70000
AAXX 20064 71369 15766 81602 10014 21002 39298 49993 58021 60001 333 10063 21119 70000
AAXX 20064 71370 46/// /3011 11058 21110 39993 40131 53040 6///1 333 11003 21105 7//// 555 33322 40031
AAXX 20064 71371 15666 13315 11026 21089 30114 40149 53050 60001 333 10053 21078 70000
AAXX 20064 71372 NIL
AAXX 20064 71373 NIL
AAXX 20064 71374 NIL
AAXX 20064 71375 NIL
AAXX 20064 71376 NIL
AAXX 20064 71377 16/// /3114 11026 21077 30103 40152 53046 60001 333 10054 21058 70000 555 32326 40181
AAXX 20064 71378 NIL
AAXX 20064 71379 16/// /3215 11114 21169 39944 40118 51037 60001 333 11005 21114 70000 555 33034 40033
AAXX 20064 71380 NIL
AAXX 20064 71381 NIL
AAXX 20064 71382 NIL
AAXX 20064 71383 NIL
AAXX 20064 71384 16/// /2101 11058 21084 30081 40089 53037 60001 333 11006 21113 70070
AAXX 20064 71385 NIL
AAXX 20064 71386 17/// /3010 11042 21090 39815 40023 53017 60031 7//4/ 333 11027 21223 70051 555 33024 40061
AAXX 20064 71387 NIL
AAXX 20064 71388 46/// /3017 11091 21133 39916 40108 53039 6///1 333 11010 21119 7//// 555 33032 40062
AAXX 20064 71389 NIL
AAXX 20064 71390 46/// /2809 11074 6///1 333 11034 21130 7////
AAXX 20064 71391 16/// ///// 11055 21106 60001 333 10025 21065 70022
AAXX 20064 71392 16/// /2406 11052 21086 60001 333 11014 21132 70060 555 33018 40051
AAXX 20064 71393 NIL
AAXX 20064 71395 11332 82412 10031 20027 39857 40035 56033 60011 76188 88700 333 10034 21085 70013 90931 555 19999 29999 32021 41041
AAXX 20064 71398 15966 02207 11174 21195 30186 40198 51003 60001 333 11057 21174 70000
AAXX 20064 71399 NIL
AAXX 20064 71450 NIL
AAXX 20064 71451 16/// /2608 11032 21053 39522 49946 58006 60001 333 11026 21126 70006 555 32519 40001
AAXX 20064 71452 NIL
AAXX 20064 71453 16/// /2509 10030 21049 39190 40101 56021 60001 333 10031 21093 70000 555 32130 40192
AAXX 20064 71454 NIL
AAXX 20064 71455 46/// /2412 10002 21034 39278 40078 58025 6///1 333 10004 21146 7//// 555 32225 40221
AAXX 20064 71456 16/// /2314 11025 21054 39441 40041 57011 60001 333 11006 21150 70000 555 32129 40002
AAXX 20064 71457 16/// /2206 10003 21034 39191 40082 56019 60001 333 10018 21122 70000
AAXX 20064 71458 16/// /2104 10001 21024 39265 40031 56023 60001 333 10022 21128 70000 555 32317 40201
AAXX 20064 71459 NIL
AAXX 20064 71460 16/// /0103 11072 21110 39996 40243 50016 60001 333 10049 21072 70000 555 32333 40082
AAXX 20064 71461 NIL
AAXX 20064 71462 NIL
AAXX 20064 71463 46/// /0211 10019 21038 39978 40203 53028 6///1 333 10066 20019 7//// 555 32340 40103
AAXX 20064 71464 NIL
AAXX 20064 71465 NIL
AAXX 20064 71466 NIL
AAXX 20064 71468 NIL
AAXX 20064 71470 NIL
AAXX 20064 71471 15966 02322 10059 21013 39212 49989 58008 60001 333 10066 21018 70000
AAXX 20064 71473 16/// /2215 10054 20030 30251 40281 55000 60001 333 10071 20029 70000 555 32225 40051
AAXX 20064 71475 17/// /0000 10034 20031 30191 40286 51007 69921 7//4/ 333 10042 20022 70002
AAXX 20064 71476 NIL
AAXX 20064 71477 17/// /2013 10056 20037 69921 7//4/ 333 10087 20050 70176 555 31640 40073
AAXX 20064 71478 NIL
AAXX 20064 71479 NIL
AAXX 20064 71480 NIL
AAXX 20064 71481 NIL
AAXX 20064 71482 NIL
AAXX 20064 71483 NIL
AAXX 20064 71484 NIL
AAXX 20064 71485 17/// /1415 10063 20048 30222 40243 53019 60051 7//4/ 333 10063 20052 70180 555 31240 40183
AAXX 20064 71486 16/// /1605 10022 21028 38926 40127 56013 60001 333 10041 21090 70000 555 32022 40031
AAXX 20064 71487 NIL
AAXX 20064 71489 16/// /2106 11039 21062 39257 40058 57025 60001 333 11017 21145 70000 555 32122 40201
AAXX 20064 71490 NIL
AAXX 20064 71491 16/// /2301 11209 21231 60001 333 11017 21274 70006
AAXX 20064 71492 NIL
AAXX 20064 71493 17/// /2706 10019 20010 39986 40024 56019 60051 7//4/ 333 10023 21104 7////
AAXX 20064 71494 NIL
AAXX 20064 71495 NIL
AAXX 20064 71496 NIL
AAXX 20064 71497 46/// /2107 11034 21090 39698 49958 53008 6///1 333 10052 21099 7//// 555 32636 40203
AAXX 20064 71498 NIL
AAXX 20064 71499 15966 32608 11052 21068 39320 49944 50000 60001 333 11024 21127 70000
AAXX 20064 71102 NIL
AAXX 20064 71105 NIL
AAXX 20064 71107 NIL
AAXX 20064 71110 NIL
AAXX 20064 71111 17561 82326 10067 20039 30082 40090 53012 69981 7614/ 333 10108 20058 70109
AAXX 20064 71112 16/// ///// 60001 333 70002
AAXX 20064 71113 17/// /0202 10053 20046 30260 40284 55008 69941 7//4/ 333 10073 20037 70004
AAXX 20064 71115 NIL
AAXX 20064 71116 16/// /3503 11013 21054 39037 40142 56017 60001 333 10008 21100 70000 555 10010
AAXX 20064 71118 16/// /2108 11007 21049 39222 40048 56024 60001 333 10011 21130 70000
AAXX 20064 71121 17664 82309 10025 21047 39215 40034 56019 60001 743// 333 10027 21097 70005 555 32624 40201
AAXX 20064 71127 16/// /2606 10022 21016 39128 40025 56020 60001 333 10025 21091 70000 555 32418 40191
AAXX 20064 71130 15966 82212 11004 21052 39567 40026 56014 60001 333 11004 21146 70000
AAXX 20064 71132 15666 62706 11061 21072 39584 49895 56003 60001 333 11042 21135 70000
AAXX 20064 71133 46/// /2512 10007 21057 39313 40015 56023 6///1 333 10008 21146 7//// 555 32330 40202
AAXX 20064 71139 NIL
AAXX 20064 71141 NIL
AAXX 20064 71142 15966 32122 11017 21049 39118 40092 58030 60001 333 11015 21141 70000
AAXX 20064 71143 NIL
AAXX 20064 71144 NIL
AAXX 20064 71147 16/// /2117 11027 21069 60001 333 11025 21127 70000 555 32222 40061
AAXX 20064 71149 16/// /2422 11004 21070 60001 333 11001 21080 70000 555 32437 40063
AAXX 20064 71604 17/// /2410 11039 21039 60021 7//4/ 333 11039 21100 70016 555 10010 20016 32321 40031
AAXX 20064 71605 17/// /3503 10054 20054 30134 40286 53006 60021 7//4/ 333 10064 20045 70042
AAXX 20064 71611 NIL
AAXX 20064 71612 16/// /3609 11026 21094 30062 40153 53048 60001 333 10053 21057 70011
AAXX 20064 71614 16/// /3009 11019 21072 30074 40140 53043 60001 333 10060 21061 70004 555 32521 40201
AAXX 20064 71616 16/// /3011 11044 21094 30015 40137 53046 60001 333 10023 21127 70027 555 33123 40051
AAXX 20064 71617 16/// /2920 11098 21140 39943 40116 53037 60001 333 11012 21113 70076 555 33032 40062
AAXX 20064 71618 NIL
AAXX 20064 71619 NIL
AAXX 20064 71622 NIL
AAXX 20064 71632 46/// /2813 11036 21055 39480 49916 55007 6///1 333 11036 21127 7//// 555 10030 32028 40222
AAXX 20064 71634 16/// /2402 11060 21067 39866 40021 55000 60001 333 11046 21235 70000 555 10010 32017 40211
AAXX 20064 71638 16/// /3303 10055 20036 30174 40281 53010 60001 333 10068 20029 70005
AAXX 20064 71639 12574 23309 11010 21075 39955 40199 51026 60001 81501 333 10065 21010 79999 555 10000 20000 32221 40110
AAXX 20064 71642 NIL
AAXX 20064 71001 15966 62802 11200 21224 39072 40060 51013 60001 333 10017 21206 70000
AAXX 20064 71002 17540 81103 11121 21137 39435 49982 56016 69951 771// 333 11120 21206 70005
AAXX 20064 71003 17666 82612 11158 21175 39701 40093 53023 60001 771// 333 11126 21182 70000
AAXX 20064 71005 16/// ///// 11004 21043 60001 333 10036 21134 70000
AAXX 20064 71006 NIL
AAXX 20064 71007 NIL
AAXX 20064 71008 NIL
AAXX 20064 71009 NIL
AAXX 20064 71010 NIL
AAXX 20064 71011 NIL
AAXX 20064 71012 NIL
AAXX 20064 71013 NIL
AAXX 20064 71014 NIL
AAXX 20064 71015 NIL
AAXX 20064 71016 NIL
AAXX 20064 71017 NIL
AAXX 20064 71018 NIL
AAXX 20064 71019 NIL
AAXX 20064 71020 NIL
AAXX 20064 71021 NIL
AAXX 20064 71022 17566 81913 10080 20046 30045 40089 53013 69981 7004/ 333 10088 20033 70451 555 31233 40162
AAXX 20064 71023 16664 82306 11032 21056 39239 40006 56018 60001 333 11009 21141 70000 555 32522 40211
AAXX 20064 71024 NIL
AAXX 20064 71026 NIL
AAXX 20064 71027 17/// /2203 11026 21037 30016 40026 56049 69961 7//4/ 333 11016 21081 70013 555 32919 40041
AAXX 20064 71028 16/// /2008 10080 21029 39105 40128 58013 60001 333 10088 21020 70000 555 31438 40013
AAXX 20064 71029 17/// /0509 11255 21281 30001 40042 51013 69941 7//4/ 333 11232 21262 70004 555 10030 20004 31025 40181
AAXX 20064 71030 16/64 /2608 10043 21010 39952 40041 55005 60001 333 10054 21076 70000
AAXX 20064 71032 46/// /0000 11033 21049 39420 40274 56008 6///1 333 11025 21091 7////
AAXX 20064 71033 46/// /2607 11054 21069 39320 49946 50000 6///1 333 11026 21136 7//// 555 32124 40181
AAXX 20064 71035 NIL
AAXX 20064 71036 15966 82425 11003 21059 39688 40064 56047 60001 333 10000 21064 70000
AAXX 20064 71039 46/// /0000 11163 6///1 333 11013 21163 7////
AAXX 20064 71040 46/// /2917 11094 21140 39901 40104 53034 6///1 333 11010 21131 7//// 555 31334 40213
AAXX 20064 71041 17362 81910 10000 21007 39889 40031 56060 69951 7004/ 333 10003 21073 70005 555 33418 40111
AAXX 20064 71042 16/// /1301 10057 20046 30289 40293 55002 60001 333 10072 20019 70000
AAXX 20064 71044 16/// /1601 11223 21247 39701 40028 53005 60001 333 11175 21242 70032 555 10050 20032 30517 40131
AAXX 20064 71046 460// /3206 11247 30032 40050 51013 6///1 333 11217 21261 7////
AAXX 20064 71047 16/// ///// 10017 21029 60001 333 10030 21123 70000
AAXX 20064 71048 NIL
AAXX 20064 71049 NIL
AAXX 20064 71060 NIL
AAXX 20064 71063 NIL
AAXX 20061 33088 32997 80802 11018 21021 39966 40163 57017 8807/ 333 21026
AAXX 20061 33177 11560 83302 11007 21016 39907 40150 57015 69962 78581 889// 333 21025 47997
AAXX 20061 33261 NIL
AAXX 20061 33275 11297 81005 10008 20000 39967 40195 57027 60022 78082 873// 333 21004 86705
AAXX 20061 33301 32497 80803 11013 21018 39862 40151 57019 885// 333 21027 88610
AAXX 20061 33325 NIL
AAXX 20061 33377 11216 81002 10009 20006 39962 40159 57029 60102 78582 883// 333 20009 43002 87705
AAXX 20061 33415 11295 80502 11009 21012 39733 40140 57015 60022 77372 8672/ 333 21020 47002 86705
AAXX 20061 33429 11295 80504 11004 21007 39698 40129 57021 69962 78582 8635/ 333 21018 47002 85703
AAXX 20061 33466 NIL
AAXX 20061 33526 11429 82801 11028 21038 39793 40143 57011 69922 78582 883// 333 21077 45001 85911
AAXX 20061 33562 NIL
AAXX 20061 33614 11396 81104 10040 20033 30039 40144 57032 60082 78082 883// 333 20020 88909
AAXX 20061 33761 11445 80903 10042 20037 39884 40108 57025 60092 76166 8872/ 333 20016
AAXX 20061 33902 11595 82803 10055 20048 30058 40124 57014 60032 71082 885// 333 20042
AAXX 20061 33983 32997 71204 10084 20041 30095 40156 57012 8703/ 333 20057
AAXX 20061 34415 11358 81404 10032 20024 30104 40202 57020 69912 71052 886// 333 20009
AAXX 20061 34523 NIL
AAXX 20061 34712 12460 81007 10034 20031 30107 40194 57013 69972 886// 333 20033 88716
AAXX 20064 60020 11560 70703 10178 20127 30188 40233 56002 69904 702// 87500 333 20174 55044 924/7
AAXX 20064 60030 02560 43514 10171 20128 30155 40211 55002 69924 84800 333 017// 20169 55022 60007 924/7
AAXX 20064 60040 02580 10312 10170 20131 30202 40227 52003 69934 81800 333 016// 20170 55037 60007 924//
AAXX 20064 60338 12980 03002 10074 20051 30208 40277 58003 60004 333 20074 55075 92418
AAXX 20061 33393 11308 83102 11025 21034 39745 40148 57012 69952 78581 889// 333 21036 86707 96047
AAXX 20061 33791 11222 81408 10045 20043 39986 40138 57017 60072 76164 8772/ 333 20023 87704
AAXX 20061 33924 31596 60702 10064 20055 30106 40118 57015 71022 86100 333 20060
AAXX 20061 01033 46/// /0105 10043 21004 39937 49968 54000 333 20041 91113
AAXX 20061 01406 46/// /1504 10016 21011 39983 40001 57003 333 20013 91108
AAXX 20061 01442 11989 03303 11043 21064 39768 40032 53006 69922 70200 333 21044 70003 91106
AAXX 20061 01473 11985 02901 11088 21099 39818 40035 53008 60002 70200 333 21097 43017 70000 91103
AAXX 2006/ 89872 46/// ///// 11031 39770 4//// 5////
AAXX 2006/ 89869 46/// ///// 11044 39713 4//// 5////
AAXX 2006/ 89329 46/// ///// 11065 38662 4//// 5////
AAXX 2006/ 89799 46/// ///// 11221 4//// 5////
AAXX 2006/ 89769 46/// ///// 11036 39787 4//// 5////
AAXX 2006/ 89108 46/// ///// 11223 36943 4//// 5////
AAXX 2006/ 89314 46/// ///// 11118 38158 4//// 5////
AAXX 20064 17600 12760 51010 10189 20086 30166 40175 53008 60002 82580 333 10208 20178 30012 50561 55089 70000 82656 85358 92437
AAXX 20064 17601 12964 70715 10179 20115 30146 40177 53006 60002 8707/ 90550 333 20168 30012 70000 87360
AAXX 20064 17607 11965 42002 10124 20109 30002 40196 52/// 60004 701// 84080 333 20107 70000 84362
AAXX 20064 17609 12960 23205 10148 20123 30187 40191 53007 60002 82030 333 10148 20122 31010 50241 55090 70000 82360
AAXX 20061 01037 16/// /1401 11003 21012 39965 49971 52002 60002 333 21013 70000 91103
AAXX 20061 01065 11650 80000 11017 21022 39798 49960 52004 60022 78588 888// 333 21022 70033 91102
AAXX 20061 01114 16/// /0602 10000 21017 39954 49965 52004 60002 333 21036 70000 91103
AAXX 20061 01245 11980 01002 11053 21114 39298 40017 53004 60002 70100 333 21055 48033 70000 91105
AAXX 20061 01364 16/// /0803 11085 21094 38890 40039 50005 60002 333 21087 4/040 70000 91105
AAXX 20061 01389 11885 43501 11119 21130 39718 40045 52009 60002 70242 84030 333 21152 43020 70000 91102
AAXX 20061 01135 16/// /0000 11030 21038 39823 49977 52006 60002 333 21055 70000 91103
AAXX 20061 01192 16/// /2201 11008 21043 60002 333 21014 4/006 70000 91103
AAXX 20061 01253 16/// /2103 11019 21055 60002 333 21032 4/030 70003 91107
AAXX 20061 01455 16/// /0601 11077 21091 39714 40036 53007 60002 333 21079 70000 91102
AAXX 20061 01481 16/// /0101 11055 21063 39989 40022 53006 60002 333 21061 70000 91102
AAXX 20061 01156 16/// /0902 10010 21014 39954 49964 52005 60002 333 20007 70000 91105
AAXX 20061 01273 16/// /1601 11002 21023 39797 49994 53006 60002 333 21032 70060 91107
AAXX 20064 68325 32960 43310 10250 20128 48529 52012 83084 333 20213
AAXX 20064 68148 32960 30508 10237 20150 48540 52018 81071 333 20165
AAXX 20061 02019 07/62 /2202 11038 21047 39348 49972 52003 69912 78587 333 11024 21072 69905 70001 90710 91103
AAXX 20061 02081 07/21 /3100 11036 21037 39559 49964 52005 60022 77177 333 11024 21036 69905 70034 90710 91101
AAXX 20061 02095 07281 /2100 11050 21057 39770 49975 52009 69992 70075 333 11024 21077 60005 70053 88/04 90710 91102
AAXX 20061 02101 47484 /0000 11085 21096 39424 49992 51008 722// 8//// 333 11050 21095 88/16
AAXX 20061 02119 07561 /3301 11083 21087 39585 49977 52003 69952 77177 333 11060 21091 69915 70049 88/29 90710 91102
AAXX 20061 02124 07558 /2701 11086 21094 39449 49982 52004 69962 77177 333 11043 21086 69915 70024 89/20 90710 91101
AAXX 20061 02126 05699 /3202 11045 21050 39639 49980 52006 69902 333 11035 21050 60005 70035 88/36 90710 91102
AAXX 20061 02151 36/// ///// 1//// 2//// 3//// 4//// 5//// 6///2 333 1//// 2//// 6///5 7//// 910// 90710 911// 90710 912//
AAXX 20061 02186 15383 83302 11021 21025 39946 49971 51008 69922 333 11002 21021 60005 70014 88/07 91003 90710 91103 90710 91202
AAXX 20061 02197 07/31 /1801 11003 21003 39950 49969 52009 69912 71087 333 10003 21004 60005 70015 90710 91102
AAXX 20061 02207 07427 ///// 11015 21018 39280 49978 52008 60022 77187 333 11011 21029 69935 70059 88/16
AAXX 20061 02219 07/37 /0701 11046 21049 39308 49978 52007 60032 77177 333 11038 21057 69925 70063 90710 91102
AAXX 20061 02226 47460 /1001 11032 21034 39525 49982 52007 771// 8//// 333 11026 21035 81/11
AAXX 20061 02243 07/59 /2701 11064 21068 39711 49982 52010 69922 71071 333 11039 21066 60005 70046 90710 91102
AAXX 20061 02269 07499 /3202 11001 21005 69912 72487 333 10007 21002 69905 70005 88/12 90710 91104
AAXX 20061 02287 07264 /0004 10012 20007 39955 49965 52011 69962 70087 333 10021 20011 60005 70019 88/04 90710 91106
AAXX 20061 02297 07150 /3507 10006 20006 39921 49966 52011 69972 76787 333 10017 20006 69925 70024 87/03 90710 91109
AAXX 20061 02308 07564 /2901 11030 21044 39128 49991 52009 69982 77187 333 11025 21041 69905 70029 85/22 90710 91107
AAXX 20061 02327 07/48 /2702 11010 21013 39551 49987 52009 60022 77177 333 11010 21036 69925 70024 90710 91104
AAXX 20061 02355 05999 /2803 11016 21023 39976 49989 52013 69932 333 10003 21016 60005 70019 87/59 90710 91105
AAXX 20061 02366 45584 /3002 11031 21042 39978 49984 51011 8//// 333 11002 21032 87/33
AAXX 20061 02407 07799 /0600 11019 21040 39639 40011 52011 69902 70087 333 11001 21032 60005 70005 87/50 90710 91102
AAXX 20061 02418 45782 /1901 11018 21029 39892 40025 52009 8//// 333 10006 21049 88/56
AAXX 20061 02435 45984 /2202 11002 21026 39821 40009 52013 8//// 333 11002 21031
AAXX 20061 02440 05799 /0000 11046 21051 69912 333 11016 21058 60005 70012 88/56 90710 91101
AAXX 20061 02452 07269 /2505 10005 20005 60002 70010 333 10005 21022 60005 70007 84/04 87/50 90710 91110
AAXX 20061 02456 07233 /2102 11014 21019 39969 40012 52016 60022 78587 333 10000 21022 69905 70065 84/06 86/20 87/34 90710 91104
AAXX 20061 02469 05/81 /2404 10006 20000 60002 333 10007 21018 60005 70007 90710 91107
AAXX 20061 02498 07499 /2409 10018 20003 30008 40025 52018 69912 70070 333 10018 20008 60005 70025 82/10 87/56 90710 91112
AAXX 20061 02518 46/// /2208 10045 20027 333 10049 20036 90710 91110
AAXX 20061 02520 35978 01603 11010 21022 39966 40034 52003 60002 333 10014 21018 60005 70000 91003 90710 91104 90710 91203
AAXX 20061 02550 45369 /1704 10006 20006 39769 40046 52001 8//// 333 10017 21003 81/07 88/10
AAXX 20061 02562 31582 72204 10007 21002 39931 40047 53011 60002 77820 875// 333 10021 21007 43002 60005 70017 87626 91006 90710 91106 90710 91204
AAXX 20061 02563 05/83 /2207 10016 20005 30030 40052 53017 69902 333 10020 20011 60005 70001 90710 91111
AAXX 20061 02565 07572 /2003 10021 21017 39946 40067 52006 69902 70060 333 10030 20014 60005 70000 88/27 90710 91106
AAXX 20061 02589 07580 /2512 10039 20013 30031 40052 52021 69932 70060 333 10043 20021 60005 70017 87/20 90710 91117
AAXX 20061 02590 45482 /2307 10028 20004 30014 40075 52016 8//// 333 10042 20024 87/18 88/25
AAXX 20061 02618 07/20 /1804 10002 20002 39883 40049 57005 60022 76787 333 10039 20002 69925 70022 90710 91109
AAXX 20061 02664 32575 42103 10019 21013 30012 40084 58002 60002 84500 333 10047 20016 31/// 60005 70000 84620 91007 90710 91107 90710 91204
AAXX 20061 02679 05483 /2410 10030 20004 30043 40088 51008 60002 333 10044 20029 60005 70022 83/18 90710 91115
AAXX 20064 17024 12970 71808 10177 21007 30044 40119 57003 60002 87070 333 20132 31010 55001 87360 91120 92428
AAXX 20064 17056 11565 71205 10110 20109 30106 40110 55000 60082 78088 85270 333 20109 32010 55000 20080 70126 85829 87358 91109 92437
AAXX 20064 17067 12670 62807 10136 20079 30095 40117 53008 60002 86200 333 20136 30011 55000 79999 86840 91127 92428
AAXX 20064 17092 11656 40000 11059 21062 38954 48562 52004 60002 71000 82530 333 21089 34110 50034 55068 2079 1 82640 84360
AAXX 20064 17112 11658 72107 10122 20107 30091 40093 57010 60262 78082 85270 333 20117 33012 50124 55006 20046 70482 85835 87360 91120 92426
AAXX 20064 17115 11657 71608 10115 20101 30058 40108 58001 60052 78022 84250 333 20114 32010 50074 55010 20373 70054 84835 87360
AAXX 20064 17116 12660 63204 10122 20090 30002 40122 52014 60002 84250 333 20109 31009 55000 20025 84835 86360 91115
AAXX 20064 17188 12660 60605 10081 20036 39092 40149 57002 60002 84250 333 20065 30004 84837 85360 91113
AAXX 20064 17202 11459 82503 11002 21014 39266 40331 52005 60002 71022 886// 333 21010 3/102 44001 88711
AAXX 20064 17248 12975 50202 10043 21010 38987 48496 57009 60002 85050 333 20008 31101 55068 2//// 85360
AAXX 20064 17292 11558 71502 10101 20099 39398 40149 55002 60112 79582 85970 333 20101 32010 50094 55000 20310 70112 81927 84830 87359 91116
AAXX 20064 17300 12460 63305 10120 20102 30102 40173 51003 60002 86900 333 20112 31008 50251 55/// 2//// 79999 81915 85825
AAXX 20064 17310 NIL
AAXX 20064 17330 12670 63001 10124 20064 30183 40201 51002 60002 82250 333 20110 32007 50161 55071 82840 86360
AAXX 20061 12160 12460 81603 10010 21006 30091 40145 57004 60002 885// 333 10027 20009 31001 93000
AAXX 20061 12205 12960 51704 10005 21006 30111 40119 57012 60002 82032 333 10029 20005 32101 79999 93000
AAXX 20061 12465 11625 71002 11042 21047 39922 40166 56009 60002 71011 875// 333 11015 21072 34110 55054 20315 93000
AAXX 20061 12566 11918 60000 11044 21048 39863 40170 57009 60002 71011 82031 333 11022 21048 34106 93000
AAXX 20064 60715 11558 72408 10086 20072 30199 40206 53002 60244 70362 8328/ 333 20076 58031 70237 83820 85358 91012 91119
AAXX 20064 60723 11558 72902 10078 20072 30041 40235 55000 60294 7606/ 8428/ 333 20067 70286 84823 84360
AAXX 20064 60725 11558 72314 10069 2//// 30057 40240 51003 60144 72582 879// 333 20063 70138 84820 84630
AAXX 20064 60735 12560 12404 10102 20021 30133 40216 53002 60004 81800 333 20082 81823
AAXX 20064 60745 12960 02006 10045 21026 39871 40256 53002 60004 333 20019 58051 91000 91109
AAXX 20064 60748 13965 02106 10056 21011 39811 40243 57002 60004 333 20046
AAXX 20064 60750 12560 12713 10073 21024 30205 40231 53004 60004 81500 333 20050 81630
AAXX 20064 60760 12960 02507 10031 21066 30148 40257 53003 60004 333 20022 91008 91110
AAXX 20064 60765 13958 02506 10072 20006 30258 40262 53004 60004 333 20062 92436 925//
AAXX 20064 60767 12560 12208 10042 21024 30102 40253 53005 60004 81500 333 20016 81630
AAXX 20064 60769 12458 22810 10119 20026 30228 40232 53004 60004 82800 333 20116 81816
AAXX 20064 60715 11558 72408 10086 20072 30199 40206 53002 60244 70362 8328/ 333 20076 58031 70237 83820 85358 91012 91119
AAXX 20064 60723 11558 72902 10078 20072 30041 40235 55000 60294 7606/ 8428/ 333 20067 70286 84823 84360
AAXX 20064 60725 11558 72314 10069 2//// 30057 40240 51003 60144 72582 879// 333 20063 70138 84820 84630
AAXX 20064 60735 12560 12404 10102 20021 30133 40216 53002 60004 81800 333 20082 81823
AAXX 20064 60745 12960 02006 10045 21026 39871 40256 53002 60004 333 20019 58051 91000 91109
AAXX 20064 60748 13965 02106 10056 21011 39811 40243 57002 60004 333 20046
AAXX 20064 60750 12560 12713 10073 21024 30205 40231 53004 60004 81500 333 20050 81630
AAXX 20064 60760 12960 02507 10031 21066 30148 40257 53003 60004 333 20022 91008 91110
AAXX 20064 60765 13958 02506 10072 20006 30258 40262 53004 60004 333 20062 92436 925//
AAXX 20064 60767 12560 12208 10042 21024 30102 40253 53005 60004 81500 333 20016 81630
AAXX 20064 60769 12458 22810 10119 20026 30228 40232 53004 60004 82800 333 20116 81816
AAXX 20064 89578 46/// /0708 11345 36898 4//// 5////
AAXX 20064 78954 12582 50712 10250 20208 30059 40123 82801 333 10295 20227 58000 82822 85080
AAXX 20061 13397 32698 81101 10017 20009 39562 40107 57006 885// 333 20014 31000 55000 70008
AAXX 20061 13278 11593 80000 10004 21006 39904 40136 53006 60062 77377 885// 333 20004 3/000 43003 55000 70056 93103
AAXX 20061 13378 11/93 90102 11058 21066 38156 48376 57009 60062 77174 333 21058 3/105 47016 55000 70056 93106
AAXX 20064 60619 36/// /0106 11012 21059 333 21013
AAXX 20061 13180 11596 83202 10001 20001 30015 40129 53004 60012 77376 8802/ 333 20001 32000 55007 70018
AAXX 20061 13383 11596 82301 10006 20004 39919 40127 52010 60022 77176 8802/ 333 20006 31000 55000 70018 93197
AAXX 20061 13173 11597 83202 10002 21003 30026 40129 51002 60032 76866 8802/ 333 20002 30000 55000 70075
AAXX 20061 13266 11697 83304 10009 20002 30037 40141 52006 60022 70262 885// 333 20006 31001 55000 70104
AAXX 20061 13384 11594 83601 10001 21002 39979 40135 52009 60022 77376 887// 333 20001 3/101 43002 55000 70024 93102
AAXX 20061 13389 11596 83404 10016 20006 39816 40102 55000 60022 76162 888// 333 20016 31150 55000 70016
AAXX 20061 13369 11495 83202 11036 21040 38893 48372 53005 60052 77177 8802/ 333 21036 3/104 43007 55005 70047 93105
AAXX 20064 60710 11558 82825 10100 20067 30140 40221 53007 60164 78086 889// 333 20074 70160 84820 81923 86630
AAXX 20064 60714 11458 63216 1//// 2//// 30209 40215 53006 60114 72562 86800 333 2//// 70111 84816 83630
AAXX 20064 60720 NIL
AAXX 20064 60728 11558 72708 10075 20075 30117 40213 58004 60134 7808/ 878// 333 20064 70132 85823 83626
AAXX 20064 60729 NIL
AAXX 20064 60731 05960 /2612 10079 20034 30211 40218 53005 69944 333 10093 20072 3//// 58034 5///4 60007 70004 91015 91119
AAXX 20064 60732 13558 72408 10038 20000 39618 40247 55000 60034 879// 333 20033 70026 83820 81923 85626
AAXX 20064 60734 13558 43208 10050 20029 39694 40231 53003 60024 82582 333 20045 70018 82630
AAXX 20064 60738 NIL
AAXX 20064 60739 13556 23008 10058 21007 39397 40237 55003 69904 82582 333 20040 79999 82630 94224
AAXX 20064 60740 12960 12908 10097 20026 30216 40218 52010 60004 81080 333 20077 81360
AAXX 20064 60742 NIL
AAXX 20064 60764 NIL
AAXX 20064 60770 13975 02606 10042 20011 30106 40250 53005 60004 333 20042
AAXX 20064 60772 13965 01704 10053 21003 39991 40257 53001 60004 333 20049
AAXX 20064 60775 13975 02302 10055 21036 39892 40260 53004 60004 333 20046 55076
AAXX 20064 60780 13960 00000 10017 21015 39955 40278 53001 60004 333 20017
AAXX 20064 60645 36/// /0000 10068 21045 333 20068
AAXX 20064 64600 31956 80000 10180 20164 39470 40121 71022 84032 333 01500 20161 55059 58010 84365 88080
AAXX 20064 64601 32960 73610 10180 20040 39007 48516 80002 333 01600 20168 58004 87080
AAXX 20064 64605 32965 80000 10170 20129 39368 40110 80002 333 01200 20145 58005 88080
AAXX 20064 64610 32970 70000 10145 20132 3//// 4//// 80002 333 01000 20130 5//// 87080
AAXX 20064 64650 31930 63202 10182 20162 39705 40118 71011 80002 333 01600 20174 55097 58000
AAXX 20064 64654 32970 40804 10175 20116 39555 40129 80002 333 01400 20152 58005 84080
AAXX 20064 64655 32965 40000 10145 20127 39473 40127 80002 333 01000 20123 58003 84080
AAXX 20064 64656 31901 10000 10175 20157 39560 40116 74644 80002 333 01300 20145 58006 81080
AAXX 20064 64659 NIL
AAXX 20064 64660 31904 00000 10145 20136 39583 40115 74244 333 01100 20130 58003
AAXX 20064 64662 32965 00000 10150 20138 39604 40106 333 01400 20143 58001
AAXX 20064 64665 32956 30000 10180 20170 3//// 4//// 80002 333 00600 20165 55/// 5//// 83080
AAXX 20064 60621 36/// /0310 10037 21042 333 20033
AAXX 20064 60612 36/// /0000 10068 21067 333 20066
AAXX 20064 60663 36/// /1407 10074 21045 333 20074
BBXX 61002 20064 99421 10047 46/// ///20 10122 2//// 40204 57014 22200 00139 10604 70020 555 1/026
AAXX 20061 10488 12980 11604 11025 21055 39851 40143 56018 69912 80001 333 10012 21025 34106 41998 55012 55300 20000 30000 40782 70001 81078
AAXX 20061 11146 32989 03204 11185 21230 36814 47913 58007 69902 333 11162 21214 49172 55300 92612 93102
AAXX 20064 78954 12582 50712 10250 20208 30059 40123 82801 333 10295 20227 58000 82822 85080
AAXX 20064 68352 36/// /1426 10226 20017 39101 48553 58005 333 20184 91129 555 10324 91020
AAXX 20061 01062 11X20 80403 11025 21028 30057 40070 55001 69901 71042 886// 333 21025 91105
AAXX 20061 01205 46/// /1808 10035 21007 39952 49998 57002 333 20029 91113
AAXX 20061 01212 16/// /2207 10038 20015 39985 40001 53002 6//// 333 20019 91113
AAXX 20061 01300 43/// /1808 10050 21016 49977 57010 22200 02067 10603 70013 333 91111
AAXX 20061 01400 41599 63303 10061 20044 49995 52020 70162 86800 22200 06080 10704 70020 333 91107
AAXX 20064 71145 11574 82311 11048 21074 39711 40007 56050 69901 73677 8457/ 333 11048 21171 48040 70010 90933 555 10010 20010 32228 40021
AAXX 20064 61974 12580 31905 10313 20242 40120 60004 83901 333 20265 58008 819// 82820 94326
AAXX 20064 61986 12580 30706 10303 20259 40122 60004 83802 333 20266 58008 83820 94322
AAXX 20064 61988 12475 60914 10266 20217 40146 60064 86842 333 0//19 20236 50402 58007 85818 91130
AAXX 20064 61989 11475 31015 10278 20222 40155 60044 70182 82842 333 0//13 20232 58009 82818
AAXX 20064 61990 12575 30611 10287 20250 40128 69904 83200 333 02219 20235 55502 58017 83820 94322
AAXX 20064 61995 12575 40809 10270 20215 39651 60004 84200 333 02000 20216 50532 58014 84820 94322
AAXX 20064 71145 11574 82311 11048 21074 39711 40007 56050 69901 73677 8457/ 333 11048 21171 48040 70010 90933 555 10010 20010 32228 40021
AAXX 20064 65352 31940 70402 10207 20048 3//// 4//// 70522 80002 333 20205 5//// 87076
AAXX 20064 65361 32960 70000 10172 20114 3//// 4//// 80002 333 20170 5//// 87076
AAXX 20064 65376 31940 72806 10225 20178 39654 40113 70522 80002 333 20218 58010 87076
AAXX 20064 65387 31420 70000 10250 20250 30080 40098 71022 83502 333 20250 58007 83610 87073
BBXX A8QJ7 20064 99108 70242 41/98 10711 10255 20202 40112 58013 7//00 81/00 22213 2//// 3//// 4//// 5//// 80220
AAXX 20061 02464 45282 /2304 10008 20000 30012 40030 51016 8//// 333 10008 21006 81/06 88/08
AAXX 20061 02500 05/99 /2404 10029 21011 39975 40017 52003 60002 333 10049 20025 60005 70000 90710 91107
AAXX 20061 02513 NIL
AAXX 20061 02615 05467 /2012 10028 20003 30064 40069 57010 60002 333 10044 20026 60005 70000 88/15 90710 91115
AAXX 20061 02635 07/63 /2004 10025 21001 60002 70010 333 10039 20019 60005 70000 90710 91109
AAXX 20064 60060 32956 01602 10140 20095 40225 5//// 333 20137 30010
AAXX 20061 14023 12699 12701 11093 21102 39877 40192 55003 60002 81500 333 21097 3/113 42003 55000 70025 81638 92811 555 20008 30014
AAXX 20064 65351 31950 70404 10230 20054 3//// 4//// 70522 80002 333 20210 5//// 87076
AAXX 20064 65355 31958 70806 10216 20030 39608 40122 70522 81042 333 20175 58018 81360 87073
AAXX 20064 65357 31945 70804 10205 20083 39723 40112 70522 85042 333 20190 59002 85363 87076
AAXX 20064 65380 31903 70000 10218 20212 3//// 4//// 74642 80002 333 20213 5//// 87076
AAXX 20061 14112 12/97 00000 11066 29098 60034 333 10000 21080 3/113 4/005 70028 93105
AAXX 20064 64500 31358 83606 10255 20232 30099 40112 71799 889// 333 02300 20224 50021 55030 58006 85608 81920 88628 94947 95837
AAXX 20064 64501 32360 72008 10260 20239 3//// 4//// 8583/ 333 0//00 20254 50394 55063 5//// 83608 83811 86360 94909 95839
AAXX 20064 64510 31340 8//// 10210 20207 3//// 4//// 710// 885// 333 0//00 2//// 5///4 55/// 5//// 88607
AAXX 20064 64550 11358 8//// 10235 20215 30/// 40/// 60114 70162 885// 333 01008 20225 50124 55/// 5//// 84606 88623
AAXX 20064 64551 31240 80000 10240 20232 30093 40122 60054 71022 885// 333 0//33 20214 50034 55/// 58005 82703 83610 88626
AAXX 20064 64556 32460 8//// 10227 20225 39538 40130 885// 333 0//00 20225 50024 55010 58004 88610
AAXX 20064 64560 32158 7//// 10225 20222 39578 40114 8393/ 333 0//00 20218 50104 55/// 58001 82702 83615 81916 87360 94942 95832
AAXX 20064 64570 32560 81802 10230 20221 39626 40135 885// 333 02200 20262 50124 55/// 58004 88626
AAXX 20061 10616 01358 82404 11009 21022 39480 40093 56020 69952 77172 878// 333 11008 21019 3/103 44004 55000 55300 69907 70005 82807 87610 87623 96475
AAXX 20061 48820 32798 73601 10214 20126 30170 40178 57042 875// 333 59011 87697
AAXX 20061 48823 32598 63601 10217 20134 30181 40184 57028 868// 333 59004 81895 85696
AAXX 20061 48845 32498 83201 10187 20148 30180 40187 57024 888// 333 59010 85894 88697
AAXX 20061 48840 32498 80000 10196 20125 30173 40179 57028 888// 333 59006 83894 88696
AAXX 20061 02947 47/56 81902 10016 20012 49996 52016 76186 88/// 90551 333 10017 20002 3////
AAXX 20061 48855 01560 80201 10207 20200 30142 40150 58030 60093 76066 888// 333 59021 60051 85895 88697 96160 555 20194
AAXX 20061 48848 32565 83203 10186 20151 30160 40168 57026 888// 333 59018 82895 88697
AAXX 20061 02947 47/56 81902 10016 20012 49996 52016 76186 88/// 90551 333 10017 20002 3////
AAXX 20061 48852 01460 82901 10184 20179 30147 40157 57031 60043 76166 888// 333 59012 60021 86894 88697 96160
AAXX 20061 48917 32598 60506 10282 20191 30090 40096 57012 8421/ 222// 00301 2//01 333 58000 84895 85499
AAXX 20061 48918 01468 80202 10254 20236 30074 40085 58020 60013 76086 8492/ 222// 00265 2//01 333 59006 60011 81894 83995 88499 96025 96160
AAXX 20061 48900 32497 63305 10292 20210 30069 40079 57026 868// 333 58000 81894 85696
AAXX 20061 48914 32698 73602 10274 20204 30082 40084 57025 875// 333 59003 87696
AAXX 20061 48919 12598 70505 10280 20254 30051 40073 58020 69913 82208 22200 02273 2//02 333 58000 81895 87299
AAXX 20061 48916 32698 73603 10280 20210 30044 40091 57017 82508 333 58002 82696 87299
AAXX 20064 91925 06/// /0602 10256 20204 30058 40119 51021 60001 333 55081 60007 90710 91108 555 60005 11320 59013
AAXX 20064 91929 04586 /1108 10271 20225 30131 40134 53016 60002 700// 333 10318 20271 55/// 60007 70002 90710 91115 555 60005
AAXX 20064 91938 02570 31003 10276 20209 30136 40138 52022 60002 81202 333 10317 20276 30/// 55100 60007 70000 81820 83080 90710 91106 555 60005 12709 58000
AAXX 20064 91943 16/// /0909 10271 20221 30129 40131 51015 60054 333 20241 59003
AAXX 20064 91944 06/// /0812 10267 20210 30146 40149 51016 60002 333 10299 20264 55120 60007 70002 90710 91120 555 60005
AAXX 20064 91948 06/// /0105 10242 20197 30091 40194 53012 60001 333 55090 60007 90710 91113 555 60005 10213 58013
AAXX 20064 91954 06/// /1304 10251 20214 30164 40167 51014 60001 333 55/// 60007 555 58010
AAXX 20064 91958 06/// /0709 10242 20199 30199 40201 51015 60001 333 55099 60007 90710 91118 555 60005 10818 58011
AAXX 20064 91945 36/// /0810 10266 20218 30151 40156 53016 555 58004 60024
AAXX 20064 94299 46/// /1516 10282 20216 30046 40056
AAXX 20064 94300 46/// /2115 10279 20157 30073 40083
AAXX 20064 94302 46/// /0911 10405 21090 30044 40050
AAXX 20064 94312 46/// /3317 10349 20215 30022 40031
AAXX 20064 94313 NIL
AAXX 20064 94317 46/// /2007 10421 20027 39459 40026
AAXX 20064 94319 46/// /2105 10449 20048 39684 40004
AAXX 20064 94324 NIL
AAXX 20064 94326 46/// /1209 10386 20073 39437 40035
AAXX 20064 94327 46/// /1408 10380 20136 39682 40045
AAXX 20064 94332 46/// /1007 10357 20173 39661 40036
AAXX 20064 94333 NIL
AAXX 20064 94341 46/// /1108 10357 20159 39817 40046
AAXX 20064 94346 46/// /3016 10313 20182 39844 40058
AAXX 20064 94363 46/// /0507 10313 20179 39860 40072
AAXX 20064 94366 NIL
AAXX 20064 94367 46/// /1208 10270 20191 30046 40087
AAXX 20064 94374 46/// /1108 10289 20172 30074 40090
AAXX 20064 94388 46/// /1209 10268 20183 30103 40108
AAXX 20064 94393 46/// /1222 10260 30062 40074 56008
AAXX 20064 94394 46/// /1217 10252 30094 40102 56008
AAXX 20064 94403 46/// /2014 10262 20131 30057 40098
AAXX 20064 94429 46/// /3207 10355 20058 39608 40060
AAXX 20064 94430 46/// /2707 10386 20026 39484 40051
AAXX 20064 94449 46/// /1006 10335 20108 39555 40072
AAXX 20064 94451 NIL
AAXX 20064 94461 46/// /3008 10386 20080 39384 40034
AAXX 20064 94462 46/// /2805 10396 20132 39497 40036
AAXX 20064 94477 NIL
AAXX 20064 94488 NIL
AAXX 20064 94500 NIL
AAXX 20064 94510 46/// /2503 10326 20145 39732 40070
AAXX 20064 94515 46/// /1606 10318 20169 39728 40069
AAXX 20064 94552 46/// /0908 10278 20161 39636 40093
AAXX 20064 94578 46/// /0214 10253 20156 30102 40113
AAXX 20064 94584 46/// /0710 10263 20154 30003 40111
AAXX 20064 94601 46/// /1510 10222 20114 30108 40125
AAXX 20064 94610 46/// /2512 10304 20107 30067 40090
AAXX 20064 94637 46/// /1606 10312 20072 39670 40086
AAXX 20064 94638 46/// /1515 10223 20143 30108 40139
AAXX 20064 94642 NIL
AAXX 20064 94643 NIL
AAXX 20064 94647 46/// /1612 10237 20163 39979 40098
AAXX 20064 94651 46/// /1912 10310 20162 39991 40066
AAXX 20064 94653 46/// /0814 10332 20059 30065 40083
AAXX 20064 94659 46/// /0605 10333 20051 39907 40098
AAXX 20064 94672 46/// /2310 10214 20113 30142 40152
AAXX 20064 94691 46/// /1910 10306 20058 39792 40112
AAXX 20064 94693 46/// /1306 10276 20057 30072 40133
AAXX 20064 94700 NIL
AAXX 20064 94703 46/// /1508 10302 20102 39971 40093
AAXX 20064 94710 46/// /2706 10314 20050 39848 40095
AAXX 20064 94729 46/// /2405 10253 20092 39269 40102
AAXX 20064 94750 46/// /1506 10195 20150 30020 40143
AAXX 20064 94767 46/// /1814 10209 20161 30137 40143
AAXX 20064 94776 46/// /1716 10221 20164 30128 40138
AAXX 20064 94791 NIL
AAXX 20064 94802 46/// /1313 10217 20136 30047 40129
AAXX 20064 94804 46/// /1212 10208 20140 30107 40144
AAXX 20064 94807 NIL
AAXX 20064 94821 46/// /1713 10213 20120 30092 40174
AAXX 20064 94842 46/// /2103 10171 20114 30088 40187
AAXX 20064 94847 NIL
AAXX 20064 94850 46/// /2017 10164 20095 30134 40180
AAXX 20064 94865 46/// /1714 10184 20112 30152 40176
AAXX 20064 94866 46/// /1715 10188 20089 30032 40171
AAXX 20064 94875 46/// /1815 10258 20079 39991 40124
AAXX 20064 94102 46/// /2514 10327 20260 30032 40041
AAXX 20064 94103 NIL
AAXX 20064 94120 46/// /2304 10274 20258 39993 40033
AAXX 20064 94122 46/// /2507 10305 20249 30024 40032
AAXX 20064 94131 46/// /1210 10346 20223 39866 40016
AAXX 20064 94132 NIL
AAXX 20064 94147 NIL
AAXX 20064 94150 46/// /1605 10263 20249 39976 40035
AAXX 20064 94151 46/// /1005 10304 20236 30019 4////
AAXX 20064 94170 46/// /1110 10255 20246 30034 40056
AAXX 20064 94200 NIL
AAXX 20064 94203 46/// /3014 10322 20245 30036 40046
AAXX 20064 94206 46/// /2404 10422 21246 39889 40016
AAXX 20064 94207 46/// /2710 10293 30044 40052 56015
AAXX 20064 94211 NIL
AAXX 20064 94212 46/// /1105 10376 20177 39564 40024
AAXX 20064 94216 46/// /0503 10362 20223 39975 40025
AAXX 20064 94236 NIL
AAXX 20064 94238 46/// /0907 10349 20196 39625 40037
AAXX 20064 94248 NIL
AAXX 20064 94255 46/// /1106 10361 20182 39781 40036
AAXX 20064 94268 46/// /1106 10317 20225 30028 40040
AAXX 20064 94287 46/// /1314 10293 20217 30056 40065
AAXX 20064 94290 NIL
AAXX 20064 94294 46/// /0614 10282 20203 30064 40074
AAXX 20064 94296 35/// /1616 10270 30036 40046 57009
AAXX 20064 94298 46/// /1419 10265 30057 40063 56011
AAXX 20064 95641 NIL
AAXX 20064 89564 43/// /2810 10024 21067 39799 49819 56038
AAXX 20064 89570 46/// /0926 11043 21099 38987 56065
AAXX 20064 89571 41975 13506 10039 21101 39603 49631 56076 70200 81031
AAXX 20064 89573 NIL
AAXX 20064 89610 NIL
AAXX 20064 89611 41303 80338 11007 21015 39493 49543 53069 77373 8472/
AAXX 20064 89614 NIL
AAXX 20064 89615 46/01 /0541 11040 21061 38703 53051
AAXX 20064 89807 NIL
AAXX 20064 89809 NIL
BBXX SHIP 20064 99104 31057 41/95 81211 10261 20260 40007 76262 222// 0//// 20101 301// 40101 5////
BBXX 3ECI3 20064 99391 31737 41998 01414 10175 20121 40210 54000 70200 80000 22253 00170 20201 317// 80145
BBXX VNSZ 20044 99378 31449 46/// /1818 10175 20117 30149 40175 57001 22200 04203 85141
BBXX 9HA2479 20044 99299 31567 46/// /0220 10218 20158 30117 40146 52004 22214 04223 85179
BBXX C6FS9 20044 99274 31531 46/// /0110 10252 20155 30093 40129 57012 22200 04256 85189
BBXX PCAM 20063 99412 31732 41998 23610 10170 20116 40243 52001 70111 8204/ 22200 20201 80138
BBXX VNSZ 20054 99378 31449 46/// /1817 10179 20116 30152 40178 57006 22200 04202 85141
BBXX 9HA2479 20054 99298 31570 46/// /0220 10218 20151 30110 40139 57003 22214 04224 85175
BBXX C6FS9 20054 99274 31531 46/// /0312 10247 20174 30086 40122 57017 22200 04255 85198
BBXX VROB 20054 99378 31498 46/// /2528 10168 20118 30126 40152 52005 22253 04167 85139
BBXX VNAH 20054 99333 31157 46/// /2411 10229 20108 30092 40115 57025 22200 85157
BBXX B2M1303 20063 99354 31309 41598 71113 10205 20178 40142 57015 702// 875// 22264 00160 20402 32424 41004 52506 80187
BBXX VROB 20044 99376 31500 46/// /2421 10167 20116 30122 40148 52002 22253 04161 85137
BBXX VNAH 20044 99333 31157 46/// /2905 10235 20105 30095 40118 57028 22200 85157
BBXX VNSZ 20064 99378 31449 46/// /1817 10183 20129 30154 40180 57001 22200 04203 85151
AAXX 20064 94893 NIL
AAXX 20064 94907 46/// /1413 10193 20121 30147 40157
AAXX 20064 94910 46/// /0705 10273 20094 39860 40105
AAXX 20064 94926 46/// ///// 10234 20135 39455 40111
AAXX 20064 94935 46/// /2211 10195 20118 30128 40154
AAXX 20064 94954 46/// /2030 10155 20093 30060 40171
AAXX 20064 94956 46/// /2019 10185 20101 30150 40176
AAXX 20064 94975 46/// /1621 10167 20101 30146 40179
AAXX 20064 94983 46/// /1620 10168 20129 30138 40163
AAXX 20064 94995 46/// /0511 10214 20153 30149 40157
AAXX 20064 94996 46/// /1108 10205 20158 30039 40167
AAXX 20064 94997 NIL
AAXX 20064 94998 46/// /3226 10078 20063 30141 40152
AAXX 20064 95111 46/// /2704 10323 20256 39985 40020
AAXX 20064 95205 46/// /3115 10407 20191 30018 40025
AAXX 20064 95322 NIL
AAXX 20064 95448 46/// /2405 10362 20045 39501 40048
AAXX 20064 95458 46/// /0707 10390 21012 39805 40058
AAXX 20064 95480 46/// /1207 10365 20047 30028 40086
AAXX 20064 95481 46/// /1708 10365 20025 30036 40080
AAXX 20064 95482 46/// /1208 10385 20073 30003 40057
AAXX 20064 95485 46/// /1308 10314 2//// 39900 40099
AAXX 20064 95492 46/// /1708 10333 20094 39934 40085
AAXX 20064 95527 46/// /1804 10298 20168 39844 40092
AAXX 20064 95634 46/// /3410 10310 20087 39694 40086
AAXX 20064 95637 46/// /0406 10283 20079 39777 40104
AAXX 20064 95646 46/// /1919 10287 20134 39899 40082
AAXX 20064 95666 NIL
AAXX 20064 95719 46/// /2005 10283 20114 39778 40101
AAXX 20064 95762 46/// /2204 10286 20121 39648 40095
AAXX 20064 95826 NIL
AAXX 20064 95839 46/// /1811 10249 20075 39991 40148
AAXX 20064 95864 NIL
AAXX 20064 95909 NIL
AAXX 20064 95954 NIL
AAXX 20064 95966 46/// /1514 10235 20115 39948 40147
AAXX 20064 96995 46/// /1307 10255 20230 39777 40071
AAXX 20064 96996 41566 71311 10284 20217 30070 40074 58013 70282 81808
AAXX 20064 91203 11474 40911 10316 20264 30080 40085 56019 69981 70382 82271 333 56299 70008 82818 84080 555 92006
AAXX 20063 NIL
AAXX 20064 88963 11330 82006 10021 21019 39904 49933 52008 69901 76664 8472/ 333 56779 84708 88540 90005 90095 90245 90283 92405 94075 95065 96010
AAXX 20064 88968 31358 83218 10014 20009 30004 40019 58007 71022 8667/ 333 56809 86708 86360 90011 90091 92416 92731 92851 94075 95065
AAXX 20064 89034 31360 81808 11020 21041 39614 49929 56012 71072 8467/ 333 56379 84708 88360 90017 90078 92417 92840 97514
AAXX 20064 89053 31330 82508 10040 20015 39914 49927 52009 71022 8471/ 333 56779 84708 85457 90015 90084 92415 94076 94477 95096 97516 98530
AAXX 20064 89055 31340 71814 11019 21024 39697 49941 53005 71022 84670 333 56440 84708 87540 90045 90083 92760 95190
AAXX 20064 89066 32970 40912 10024 21066 39914 49923 51008 84070 333 56020 84360 92407 94030
AAXX 20064 94102 46/// /2514 10327 20260 30032 40041
AAXX 20064 94103 NIL
AAXX 20064 94120 46/// /2304 10274 20258 39993 40033
AAXX 20064 94122 46/// /2507 10305 20249 30024 40032
AAXX 20064 94131 46/// /1210 10346 20223 39866 40016
AAXX 20064 94132 NIL
AAXX 20064 94147 NIL
AAXX 20064 94150 46/// /1605 10263 20249 39976 40035
AAXX 20064 94151 46/// /1005 10304 20236 30019 4////
AAXX 20064 94170 46/// /1110 10255 20246 30034 40056
AAXX 20064 94200 NIL
AAXX 20064 94203 46/// /3014 10322 20245 30036 40046
AAXX 20064 94206 46/// /2404 10422 21246 39889 40016
AAXX 20064 94207 46/// /2710 10293 30044 40052 56015
AAXX 20064 94211 NIL
AAXX 20064 94212 46/// /1105 10376 20177 39564 40024
AAXX 20064 94216 46/// /0503 10362 20223 39975 40025
AAXX 20064 94236 NIL
AAXX 20064 94238 46/// /0907 10349 20196 39625 40037
AAXX 20064 94248 NIL
AAXX 20064 94255 46/// /1106 10361 20182 39781 40036
AAXX 20064 94268 46/// /1106 10317 20225 30028 40040
AAXX 20064 94287 46/// /1314 10293 20217 30056 40065
AAXX 20064 94290 NIL
AAXX 20064 94294 46/// /0614 10282 20203 30064 40074
AAXX 20064 94296 35/// /1616 10270 30036 40046 57009
AAXX 20064 94298 46/// /1419 10265 30057 40063 56011
AAXX 20064 95641 NIL
AAXX 20064 89564 43/// /2810 10024 21067 39799 49819 56038
AAXX 20064 89570 46/// /0926 11043 21099 38987 56065
AAXX 20064 89571 41975 13506 10039 21101 39603 49631 56076 70200 81031
AAXX 20064 89573 NIL
AAXX 20064 89610 NIL
AAXX 20064 89611 41303 80338 11007 21015 39493 49543 53069 77373 8472/
AAXX 20064 89614 NIL
AAXX 20064 89615 46/01 /0541 11040 21061 38703 53051
AAXX 20064 89807 NIL
AAXX 20064 89809 NIL
AAXX 20064 94299 46/// /1516 10282 20216 30046 40056
AAXX 20064 94300 46/// /2115 10279 20157 30073 40083
AAXX 20064 94302 46/// /0911 10405 21090 30044 40050
AAXX 20064 94312 46/// /3317 10349 20215 30022 40031
AAXX 20064 94313 NIL
AAXX 20064 94317 46/// /2007 10421 20027 39459 40026
AAXX 20064 94319 46/// /2105 10449 20048 39684 40004
AAXX 20064 94324 NIL
AAXX 20064 94326 46/// /1209 10386 20073 39437 40035
AAXX 20064 94327 46/// /1408 10380 20136 39682 40045
AAXX 20064 94332 46/// /1007 10357 20173 39661 40036
AAXX 20064 94333 NIL
AAXX 20064 94341 46/// /1108 10357 20159 39817 40046
AAXX 20064 94346 46/// /3016 10313 20182 39844 40058
AAXX 20064 94363 46/// /0507 10313 20179 39860 40072
AAXX 20064 94366 NIL
AAXX 20064 94367 46/// /1208 10270 20191 30046 40087
AAXX 20064 94374 46/// /1108 10289 20172 30074 40090
AAXX 20064 94388 46/// /1209 10268 20183 30103 40108
AAXX 20064 94393 46/// /1222 10260 30062 40074 56008
AAXX 20064 94394 46/// /1217 10252 30094 40102 56008
AAXX 20064 94403 46/// /2014 10262 20131 30057 40098
AAXX 20064 94429 46/// /3207 10355 20058 39608 40060
AAXX 20064 94430 46/// /2707 10386 20026 39484 40051
AAXX 20064 94449 46/// /1006 10335 20108 39555 40072
AAXX 20064 94451 NIL
AAXX 20064 94461 46/// /3008 10386 20080 39384 40034
AAXX 20064 94462 46/// /2805 10396 20132 39497 40036
AAXX 20064 94477 NIL
AAXX 20064 94488 NIL
AAXX 20064 94893 NIL
AAXX 20064 94907 46/// /1413 10193 20121 30147 40157
AAXX 20064 94910 46/// /0705 10273 20094 39860 40105
AAXX 20064 94926 46/// ///// 10234 20135 39455 40111
AAXX 20064 94935 46/// /2211 10195 20118 30128 40154
AAXX 20064 94954 46/// /2030 10155 20093 30060 40171
AAXX 20064 94956 46/// /2019 10185 20101 30150 40176
AAXX 20064 94975 46/// /1621 10167 20101 30146 40179
AAXX 20064 94983 46/// /1620 10168 20129 30138 40163
AAXX 20064 94995 46/// /0511 10214 20153 30149 40157
AAXX 20064 94996 46/// /1108 10205 20158 30039 40167
AAXX 20064 94997 NIL
AAXX 20064 94998 46/// /3226 10078 20063 30141 40152
AAXX 20064 95111 46/// /2704 10323 20256 39985 40020
AAXX 20064 95205 46/// /3115 10407 20191 30018 40025
AAXX 20064 95322 NIL
AAXX 20064 95448 46/// /2405 10362 20045 39501 40048
AAXX 20064 95458 46/// /0707 10390 21012 39805 40058
AAXX 20064 95480 46/// /1207 10365 20047 30028 40086
AAXX 20064 95481 46/// /1708 10365 20025 30036 40080
AAXX 20064 95482 46/// /1208 10385 20073 30003 40057
AAXX 20064 95485 46/// /1308 10314 2//// 39900 40099
AAXX 20064 95492 46/// /1708 10333 20094 39934 40085
AAXX 20064 95527 46/// /1804 10298 20168 39844 40092
AAXX 20064 95634 46/// /3410 10310 20087 39694 40086
AAXX 20064 95637 46/// /0406 10283 20079 39777 40104
AAXX 20064 95646 46/// /1919 10287 20134 39899 40082
AAXX 20064 95666 NIL
AAXX 20064 95719 46/// /2005 10283 20114 39778 40101
AAXX 20064 95762 46/// /2204 10286 20121 39648 40095
AAXX 20064 95826 NIL
AAXX 20064 95839 46/// /1811 10249 20075 39991 40148
AAXX 20064 95864 NIL
AAXX 20064 95909 NIL
AAXX 20064 95954 NIL
AAXX 20064 95966 46/// /1514 10235 20115 39948 40147
AAXX 20064 96995 46/// /1307 10255 20230 39777 40071
AAXX 20064 96996 41566 71311 10284 20217 30070 40074 58013 70282 81808
AAXX 20064 41241 32960 00303 10243 20057 30191 40226 333 00025 20177 58014
AAXX 20064 41242 26/// /0704 10249 20064 30215 40240 333 0E017 20149 58016 70022
AAXX 20064 41244 NIL
AAXX 20064 41246 31958 01012 10247 20113 30224 40228 70600 333 20186 3/020 58017
AAXX 20064 41251 32/67 /2004 10098 20024 36150 47819 90611 333 20060 3/007 59100
AAXX 20064 41252 31958 00613 10223 20069 39836 40209 70500 333 20192 58015
AAXX 20064 41253 36/// /0102 10211 20099 39852 40237 333 0E018 20169 58016
AAXX 20064 41254 NIL
AAXX 20064 41255 36/// /0402 10215 20087 39676 40230 333 0E019 20132 58011
AAXX 20064 41256 32558 50411 10238 20118 30214 40224 85530 333 20198 58015 85625
AAXX 20064 41257 36/// /0408 10214 20100 39742 40233 333 0E017 20170 58015
AAXX 20064 41258 36/// /0609 10240 20132 30211 40216 333 0E/// 20234 58016
AAXX 20064 41259 36/// /2504 10077 21207 37139 40315 333 0E/// 20040 59008
AAXX 20064 41262 NIL
AAXX 20064 41263 36/// /9902 10194 20109 39534 40228 333 0E014 20134 58014
AAXX 20064 41264 36/70 /0706 10215 20074 39831 40201 333 0E018 20152 58012
AAXX 20064 41265 36/// /0208 10221 20117 39667 40221 333 0E021 20138 58003
AAXX 20064 41267 35/60 /0514 10237 20131 30200 40216 333 0E022 20232 58014
AAXX 20064 41268 32560 60514 10247 20130 30196 40212 86500 333 20226 3/022 58010 86625
AAXX 20064 41270 36/64 /0518 10241 20130 30155 40167 333 0E020 20211 58010
AAXX 20064 41275 NIL
AAXX 20064 41287 36/// /0106 10221 20142 30163 40231 333 0E018 20161 58007
AAXX 20064 41288 31958 00217 10249 20150 30184 40206 70500 333 20207 58005
AAXX 20064 41290 NIL
AAXX 20064 41295 36/// /3109 10207 20118 30020 40201 333 0E009 20088 58004
AAXX 20064 41304 NIL
AAXX 20064 41312 36/// /0013 10236 20052 30155 40195 333 0E/// 20220 58005
AAXX 20064 41314 32960 43213 10183 20059 39712 40224 80001 333 2012558000 84075
AAXX 20064 41315 36/// /3425 10146 20032 39189 42826 333 0E/// 20129 59006
AAXX 20064 41316 32960 53613 10240 20034 30172 40198 80001 333 20210 58006 85075
AAXX 20064 94500 NIL
AAXX 20064 94510 46/// /2503 10326 20145 39732 40070
AAXX 20064 94515 46/// /1606 10318 20169 39728 40069
AAXX 20064 94552 46/// /0908 10278 20161 39636 40093
AAXX 20064 94578 46/// /0214 10253 20156 30102 40113
AAXX 20064 94584 46/// /0710 10263 20154 30003 40111
AAXX 20064 94601 46/// /1510 10222 20114 30108 40125
AAXX 20064 94610 46/// /2512 10304 20107 30067 40090
AAXX 20064 94637 46/// /1606 10312 20072 39670 40086
AAXX 20064 94638 46/// /1515 10223 20143 30108 40139
AAXX 20064 94642 NIL
AAXX 20064 94643 NIL
AAXX 20064 94647 46/// /1612 10237 20163 39979 40098
AAXX 20064 94651 46/// /1912 10310 20162 39991 40066
AAXX 20064 94653 46/// /0814 10332 20059 30065 40083
AAXX 20064 94659 46/// /0605 10333 20051 39907 40098
AAXX 20064 94672 46/// /2310 10214 20113 30142 40152
AAXX 20064 94691 46/// /1910 10306 20058 39792 40112
AAXX 20064 94693 46/// /1306 10276 20057 30072 40133
AAXX 20064 94700 NIL
AAXX 20064 94703 46/// /1508 10302 20102 39971 40093
AAXX 20064 94710 46/// /2706 10314 20050 39848 40095
AAXX 20064 94729 46/// /2405 10253 20092 39269 40102
AAXX 20064 94750 46/// /1506 10195 20150 30020 40143
AAXX 20064 94767 46/// /1814 10209 20161 30137 40143
AAXX 20064 94776 46/// /1716 10221 20164 30128 40138
AAXX 20064 94791 NIL
AAXX 20064 94802 46/// /1313 10217 20136 30047 40129
AAXX 20064 94804 46/// /1212 10208 20140 30107 40144
AAXX 20064 94807 NIL
AAXX 20064 94821 46/// /1713 10213 20120 30092 40174
AAXX 20064 94842 46/// /2103 10171 20114 30088 40187
AAXX 20064 94847 NIL
AAXX 20064 94850 46/// /2017 10164 20095 30134 40180
AAXX 20064 94865 46/// /1714 10184 20112 30152 40176
AAXX 20064 94866 46/// /1715 10188 20089 30032 40171
AAXX 20064 94875 46/// /1815 10258 20079 39991 40124
AAXX 20064 94310 46/// /3118 10320 20244 30029 40040 57013
AAXX 20064 95283 46/// /1213 10293 20224 30051 40058
AAXX 20064 95288 46/// /1615 10278 30040 40055 58012
AAXX 20064 95675 46/// /2009
AAXX 20064 95872 46/// /1717
AAXX 20064 95961 35/// /1713 10174 30151 40193 52003
BBXX SHIP 20064 99104 31057 41/95 81211 10261 20260 40007 76262 222// 0//// 20101 301// 40101 5////
BBXX 3ECI3 20064 99391 31737 41998 01414 10175 20121 40210 54000 70200 80000 22253 00170 20201 317// 80145
BBXX VNSZ 20044 99378 31449 46/// /1818 10175 20117 30149 40175 57001 22200 04203 85141
BBXX 9HA2479 20044 99299 31567 46/// /0220 10218 20158 30117 40146 52004 22214 04223 85179
BBXX C6FS9 20044 99274 31531 46/// /0110 10252 20155 30093 40129 57012 22200 04256 85189
BBXX PCAM 20063 99412 31732 41998 23610 10170 20116 40243 52001 70111 8204/ 22200 20201 80138
BBXX VNSZ 20054 99378 31449 46/// /1817 10179 20116 30152 40178 57006 22200 04202 85141
BBXX 9HA2479 20054 99298 31570 46/// /0220 10218 20151 30110 40139 57003 22214 04224 85175
BBXX C6FS9 20054 99274 31531 46/// /0312 10247 20174 30086 40122 57017 22200 04255 85198
BBXX VROB 20054 99378 31498 46/// /2528 10168 20118 30126 40152 52005 22253 04167 85139
BBXX VNAH 20054 99333 31157 46/// /2411 10229 20108 30092 40115 57025 22200 85157
BBXX B2M1303 20063 99354 31309 41598 71113 10205 20178 40142 57015 702// 875// 22264 00160 20402 32424 41004 52506 80187
BBXX VROB 20044 99376 31500 46/// /2421 10167 20116 30122 40148 52002 22253 04161 85137
BBXX VNAH 20044 99333 31157 46/// /2905 10235 20105 30095 40118 57028 22200 85157
BBXX VNSZ 20064 99378 31449 46/// /1817 10183 20129 30154 40180 57001 22200 04203 85151
AAXX 20064 91375 NIL
AAXX 20064 91519 NIL
AAXX 20064 91531 NIL
AAXX 20064 91532 45/// /0711 10288 20228 30048 40056 52006
AAXX 20064 91559 NIL
AAXX 20064 91611 NIL
AAXX 20064 91642 NIL
AAXX 20064 91679 NIL
AAXX 20064 91689 NIL
AAXX 20064 91756 NIL
AAXX 20064 91844 NIL
AAXX 20064 92036 NIL
AAXX 20064 93713 NIL
AAXX 20061 38141 32998 11303 11158 21209 30347 40523 53002 80001 333 21198
AAXX 20061 38149 42998 00304 11136 21188 30434 40520 57001 333 21188
AAXX 20061 38178 42998 00303 11178 21269 30209 40531 58003 333 21213
AAXX 20061 38262 32998 00503 11118 21117 30428 40517 53002 333 21166
AAXX 20061 38264 42998 00705 11143 21186 30415 40518 52004 333 21178
AAXX 20061 38396 42997 00603 11118 21180 30382 40520 53005 333 21160
AAXX 20061 38403 42997 00204 11129 21212 30375 40508 52003 333 21153
AAXX 20061 38413 42998 00902 11136 21152 30180 40501 58001 333 21183
AAXX 20061 38457 11997 33601 11069 21111 39838 40470 52008 69932 70271 82041 333 21124
AAXX 20061 38462 12999 00000 11099 21171 38891 48600 52003 6990/ 333 21190
AAXX 20061 38565 32998 00303 11142 21169 39851 40497 53002 333 21171
AAXX 20061 38579 11597 72703 11115 21143 30034 40493 52012 69932 77172 85510 333 21114
AAXX 20061 38583 32997 82701 11123 21148 30144 40500 52010 83041 333 21143
AAXX 20061 38611 12997 32302 11051 21096 39844 40454 51001 69912 83080 333 21100
AAXX 20061 38618 32997 62501 11071 21114 39704 40444 57002 83049 333 21095
AAXX 20061 38683 42997 00207 11074 21185 30173 40472 52005 333 21150
AAXX 20061 38696 41597 60904 11110 21149 39525 40450 52006 78580 84970 333 21128
AAXX 20061 38812 42997 02203 11074 21104 39966 40456 52018 333 21097
AAXX 20061 38927 41760 72606 11052 21106 30468 52018 78538 87900 333 21080 86953
BBXX UCKZ 20061 99670 30447 41598 83503 11011 21038 49936 54000 70272 885// 22200 01015 2//// ICE 57895
BBXX FHZI 20054 99648 31464 46/// /2927 10004 21009 39845 49856 52028 22252 05016 86001
BBXX FHZI 20044 99647 31466 46/// /2828 10003 21003 39833 49844 52016 22251 05016 85001
AAXX 20060 67586 12580 41003 10213 20157 38800 48522 60274 81230 333 20169 50931 55049 59003 70271 81822 83359 555 10263 7//96
AAXX 20060 67693 32980 12603 10231 20157 39282 48527 80001 333 20179 5//// 55/// 59001 81080 555 10278 7//00
AAXX 20060 67585 12980 21501 10220 20/// 69994 82030 333 20164 5//// 55/// 70002 82358 555 10272 7//62
AAXX 20060 67591 11580 73401 10244 20208 60344 70322 8153/ 333 20209 5//// 55/// 70341 81620 87360 555 10276 7//96
AAXX 20060 67690 32980 41802 10259 20186 81031 333 20224 5//// 55/// 81360 83080 555 10290 7//11
AAXX 20060 67791 32580 12301 10210 20141 81100 333 20142 5//// 55118 81825 555 10252 7//00
AAXX 20060 67796 32980 21301 10274 20170 80002 333 20189 5//// 55/// 82080 555 10331 7//00
BBXX V2BE4 20061 99175 11419 41698 40909 10295 20238 40095 57018 70300 84470 22244 04290 20504 80255
BBXX VRAE3 20064 99073 11155 41497 50719 10300 20257 40075 53002 70301 83775 22214 00300 20303 305// 40503 5//// 80269
AAXX 20064 41024 42960 00704 10260 20090 30136 40155 333 20210 58004
AAXX 20064 41030 42960 00000 10230 20120 39877 40149 333 20218 58002
AAXX 20064 41036 42960 01604 10140 20030 38604 48552 333 20080 58003 555 04410 50183
AAXX 20064 41055 42960 01203 10120 20020 38410 48559 333 20075 59003 555 04410 50216
AAXX 20064 41061 NIL
AAXX 20064 41084 42960 00000 10143 20030 38917 48564 333 20073 59003 555 04410 50205
AAXX 20064 41112 42960 00000 10147 20020 37984 48557 333 20074 59002 555 04410 50206
AAXX 20064 41114 42960 00000 10152 20040 38015 48552 333 20072 59004 555 04410 50196
AAXX 20064 41128 42960 01204 10151 20020 38880 48579 333 20075 59005 555 04410 50233
AAXX 20064 41136 42960 00000 10150 20020 39399 40228 333 20090 59001
AAXX 20064 41140 42560 11310 10256 20220 30155 40163 81100 333 20230 59006 81830
AAXX 20064 40356 42960 01106 10060 20020 39254 48543 333 20020 59022 555 04410 50251
AAXX 20064 40357 42960 02703 10053 20020 39610 40268 333 20014 59018
AAXX 20064 40360 42960 00000 10048 21040 39639 40234 333 20030 59017
AAXX 20064 40361 42960 00905 10080 20010 39468 40256 333 20052 59015
AAXX 20064 40362 42960 00000 10076 21010 39731 40262 333 20016 59012
AAXX 20064 40373 42960 03004 10085 20020 39827 40257 333 20030 59010
AAXX 20064 40375 42660 21506 10111 21040 39321 40200 82400 333 20096 59010 82640
AAXX 20064 40377 42960 03505 10085 20040 39775 40268 333 20030 59008
AAXX 20064 40394 42960 01704 10092 21020 39098 48563 333 20034 59015 555 04410 50245
AAXX 20064 40400 42660 50703 10214 20110 30143 40171 85500 333 20162 58002 85640
AAXX 20064 40401 42960 00000 10150 21020 39502 40204 333 20108 59010
AAXX 20064 40405 42960 00302 10090 20020 39505 40268 333 20040 59007
AAXX 20064 40416 42960 03111 10150 20100 30200 40220 333 20090 59002
AAXX 20064 40417 43960 03009 10136 20034 30223 40238 333 20093 58000
AAXX 20064 40420 41956 03314 10140 20010 30023 40236 70700 333 20077 59008
AAXX 20064 40430 42960 00809 10176 20000 39492 40214 333 20130 59001
AAXX 20064 40435 42960 01210 10130 20040 39190 40220 333 20090 58002
AAXX 20064 40437 42960 03207 10120 20020 39544 40266 333 20053 59006
AAXX 20064 40439 42960 00404 10200 20080 30143 40153 333 20170 58002
AAXX 20061 37395 32999 30920 10132 21005 30074 40212 57005 83030 333 20120 91125
AAXX 20061 37409 31/91 90920 11026 21026 38834 48543 57026 74544 333 21031 95090
AAXX 20061 37432 32997 00000 11020 21045 39057 48576 57024 333 21040
AAXX 20061 37514 32699 50000 11048 21061 39132 40345 57001 85401 333 21084
AAXX 20061 37545 32594 81602 10032 20022 39807 40335 57004 71022 8802/ 555 20000 7000/
AAXX 20061 37621 32698 72701 10023 21035 39679 40340 57002 87500 333 21013
AAXX 20061 37484 NIL
AAXX 20064 17260 12960 02703 10014 20008 39431 40275 52001 60002 333 21014 30104 51004 55060 20084
AAXX 20064 08055 12660 22912 10032 20021 39207 48556 56003 60002 82800 333 21020 30104 55082 70000 95090
AAXX 20061 33088 32997 80802 11018 21021 39966 40163 57017 8807/ 333 21026
AAXX 20061 33177 11560 83302 11007 21016 39907 40150 57015 69962 78581 889// 333 21025 47997
AAXX 20061 33261 NIL
AAXX 20061 33275 11297 81005 10008 20000 39967 40195 57027 60022 78082 873// 333 21004 86705
AAXX 20061 33301 32497 80803 11013 21018 39862 40151 57019 885// 333 21027 88610
AAXX 20061 33325 NIL
AAXX 20061 33377 11216 81002 10009 20006 39962 40159 57029 60102 78582 883// 333 20009 43002 87705
AAXX 20061 33415 11295 80502 11009 21012 39733 40140 57015 60022 77372 8672/ 333 21020 47002 86705
AAXX 20061 33429 11295 80504 11004 21007 39698 40129 57021 69962 78582 8635/ 333 21018 47002 85703
AAXX 20061 33466 NIL
AAXX 20061 33526 11429 82801 11028 21038 39793 40143 57011 69922 78582 883// 333 21077 45001 85911
AAXX 20061 33562 NIL
AAXX 20061 33614 11396 81104 10040 20033 30039 40144 57032 60082 78082 883// 333 20020 88909
AAXX 20061 33761 11445 80903 10042 20037 39884 40108 57025 60092 76166 8872/ 333 20016
AAXX 20061 33902 11595 82803 10055 20048 30058 40124 57014 60032 71082 885// 333 20042
AAXX 20061 33983 32997 71204 10084 20041 30095 40156 57012 8703/ 333 20057
AAXX 20061 34415 11358 81404 10032 20024 30104 40202 57020 69912 71052 886// 333 20009
AAXX 20061 34523 NIL
AAXX 20061 34712 12460 81007 10034 20031 30107 40194 57013 69972 886// 333 20033 88716
AAXX 20064 41907 31330 83603 10152 20130 30147 40163 70544 8672/ 333 56899 58002 70000 85710 88458
AAXX 20064 41923 31/25 90201 10173 20130 30144 40154 74344 89/// 333 56999 59007 70000
AAXX 20064 41936 31410 43404 10174 20130 40163 70544 82530 333 56990 59008 70000 82615 83362
AAXX 20064 41943 31430 83102 10148 20140 30146 40158 70542 8662/ 333 56999 59007 70000 83710 84615 88458
AAXX 20064 41950 31940 03204 10210 20120 30142 40145 70521 333 59008 70000
AAXX 20064 41978 31412 30000 10170 20140 30139 40145 72844 83500 333 56900 59010 70000 83615
AAXX 20064 41992 31920 03303 10204 20160 30132 40134 70544 333 59016 70000
AAXX 20064 17280 11/01 91102 11025 21028 39483 40316 52011 60002 74544 333 21032 31104 50041 55049 20251 89/03
AAXX 20064 40550 35/62 /3507 10103 20012 40250 51016 333 55307 00343 10000 21015 30329 40970 51306 61344 55407 40685 90069 90401 91011 91111 91207 91303
AAXX 20064 40551 36/// /2614 10104 20011 333 90400 91017 91117 91213 91309
AAXX 20064 40552 35/68 /3111 10107 20010 40249 51014 333 55310 90069 90401 91013 91117 91215 91313
AAXX 20064 40553 35/65 /3211 10101 20012 40248 51015 333 55309 90069 90401 91013 91113 91211 91307
AAXX 20064 40568 36/// /3110 10118 20035 333 90401 91011 91113 91209 91307
AAXX 20064 40569 NIL
AAXX 20064 40570 35/70 /3010 10088 20003 40263 51011 333 55310 90069 90400 91011 91113 91209 91307
AAXX 20064 40571 NIL
AAXX 20064 40572 NIL
AAXX 20064 40573 36/// /3010 10093 20010 333 90400 91013 91113 91209 91309
AAXX 20064 40580 46/// ///// 1//// 2//// 333 553// 00279 10019 20743 30181 40864 51169 60924 55407 40562 90460 910// 91105 91201 91301
AAXX 20064 40581 36/// /3002 10134 20050 333 90400 91005 91113 91205 91301
AAXX 20064 40582 31957 02704 10110 20004 40249 51016 70500 333 55301 00479 10000 21078 30339 41058 51312 61417 55407 40739 90401 91005 91109 91207 91303
AAXX 20064 40583 NIL
AAXX 20064 40585 36/// /3011 10126 20049 222// 1//// 3//// 4//// 70/// 333 90400 91015 91119 91213 91309
AAXX 20064 40586 36/// /2706 10124 20010 333 90401 91011 91111 91207 91305
AAXX 20064 40587 36/// /2907 10125 20009 333 553// 00431 10000 21117 30357 40980 51304 61474 55407 40760 90400 91009 91111 91209 91307
AAXX 20064 40588 35/63 /3310 10116 20036 40247 51018 333 55304 90069 90401 91011 91117 91213 91309
AAXX 20064 40589 NIL
AAXX 20064 40590 36/// /3011 10106 20007 333 90400 91013 91113 91211 91309
AAXX 20064 40591 NIL
AAXX 20064 40592 35/65 /3308 10142 20008 40250 51014 333 55310 00483 10000 21108 30278 41017 51356 61386 55407 40830 90069 90400 91011 91113 91209 91307
AAXX 20064 40593 36/// /3408 10137 20044 333 90401 91011 91113 91209 91307
AAXX 20064 40594 36/// /3305 10132 20015 333 90400 91009 91111 91205 91305
AAXX 20064 40596 46/// /3314 10158 20083 333 90400 91017 91121 91215 91313
BBXX EIPT 20064 99548 70058 41/97 52916 10080 20038 40137 52015 70222 8//// 22200 20201 3//// 4//// 5//// 80060
AAXX 20064 60764 13962 00000 11008 21047 30205 40260 53007 60004 333 21014
AAXX 20064 65306 32960 70000 10177 20064 39789 40122 85032 333 01100 20175 50604 55095 58005 85363 84076
AAXX 20064 65319 32958 70000 10193 20060 39603 40116 83032 333 01700 20192 50634 55083 58003 83361 85076
AAXX 20064 65330 31915 71404 10214 20062 39671 40107 70522 80008 333 01800 20206 50674 55082 00386 58001 87276
AAXX 20064 65335 32958 50000 10225 20202 39889 40111 80002 333 01800 20221 50334 55081 58003 85076
AAXX 20064 65344 31432 50000 10250 20241 30094 40105 71022 81502 333 02300 20249 50354 55078 58006 81612 85076
AAXX 20064 91203 11474 40911 10316 20264 30080 40085 56019 69981 70382 82271 333 56299 70008 82818 84080 555 92006
AAXX 20061 48921 31458 31401 10173 20112 38570 48072 57017 71044 83200 333 59018
AAXX 20061 48924 31557 21801 10195 20137 39511 40140 57011 71044 82100 333 59015
AAXX 20061 48925 31458 13602 10205 20121 39402 40134 57036 70544 81100 333 59008
AAXX 20061 48926 32560 10904 10239 20130 39678 40146 57034 81100 333 59012
AAXX 20061 48927 31340 80402 10134 20079 39192 48647 57004 71044 888// 333 58013
AAXX 20061 48928 31450 80903 10136 20097 39088 48561 57031 71044 868// 333 59006
AAXX 20061 48930 32370 23601 10230 20125 39812 40164 57036 82100 333 59008
AAXX 20061 48935 32468 10404 10196 20070 38966 48467 57034 81100 333 59013
AAXX 20061 48938 31557 12402 10234 20130 39817 40151 57028 70544 81100 333 59001
AAXX 20061 48940 31658 22701 10258 20176 39937 40135 57028 70544 82200 333 58003
AAXX 20061 48941 31460 23603 10256 20142 3//// 4//// 5//// 70544 82100 333 5////
AAXX 20061 48944 31558 10907 10214 20118 39528 40121 57002 70544 81500 333 58001
AAXX 20061 48945 31940 00402 10256 20120 39971 40150 57034 70544 333 59006
AAXX 20061 48946 31557 40903 10270 20206 39969 40133 57019 70544 82110 333 59012
AAXX 20061 48947 32461 50902 10260 20164 30001 40167 57008 83260 333 59024
AAXX 20061 48948 32461 30904 10232 20136 39913 40126 57027 83100 333 59022
AAXX 20061 48952 31558 61402 10299 20184 39915 40103 57022 70544 82830 333 59018
AAXX 20061 48953 31558 63203 10293 20180 39906 40069 57026 70544 82830 333 59010
AAXX 20061 48955 31758 53603 10294 20169 39988 40104 57035 70544 83502 333 59014
AAXX 20061 48957 31565 83601 10295 20177 39979 40085 57021 70544 8687/ 333 59010
AAXX 20064 71893 11469 81405 10069 20049 30238 40270 50010 69921 78022 8557/ 333 10075 20015 70002 90921 555 10000 20000 31425 40011
AAXX 20061 48921 31458 31401 10173 20112 38570 48072 57017 71044 83200 333 59018
AAXX 20061 48924 31557 21801 10195 20137 39511 40140 57011 71044 82100 333 59015
AAXX 20061 48925 31458 13602 10205 20121 39402 40134 57036 70544 81100 333 59008
AAXX 20061 48926 32560 10904 10239 20130 39678 40146 57034 81100 333 59012
AAXX 20061 48927 31340 80402 10134 20079 39192 48647 57004 71044 888// 333 58013
AAXX 20061 48928 31450 80903 10136 20097 39088 48561 57031 71044 868// 333 59006
AAXX 20061 48930 32370 23601 10230 20125 39812 40164 57036 82100 333 59008
AAXX 20061 48935 32468 10404 10196 20070 38966 48467 57034 81100 333 59013
AAXX 20061 48938 31557 12402 10234 20130 39817 40151 57028 70544 81100 333 59001
AAXX 20061 48940 31658 22701 10258 20176 39937 40135 57028 70544 82200 333 58003
AAXX 20061 48941 31460 23603 10256 20142 3//// 4//// 5//// 70544 82100 333 5////
AAXX 20061 48944 31558 10907 10214 20118 39528 40121 57002 70544 81500 333 58001
AAXX 20061 48945 31940 00402 10256 20120 39971 40150 57034 70544 333 59006
AAXX 20061 48946 31557 40903 10270 20206 39969 40133 57019 70544 82110 333 59012
AAXX 20061 48947 32461 50902 10260 20164 30001 40167 57008 83260 333 59024
AAXX 20061 48948 32461 30904 10232 20136 39913 40126 57027 83100 333 59022
AAXX 20061 48952 31558 61402 10299 20184 39915 40103 57022 70544 82830 333 59018
AAXX 20061 48953 31558 63203 10293 20180 39906 40069 57026 70544 82830 333 59010
AAXX 20061 48955 31758 53603 10294 20169 39988 40104 57035 70544 83502 333 59014
AAXX 20061 48957 31565 83601 10295 20177 39979 40085 57021 70544 8687/ 333 59010
AAXX 20064 71893 11469 81405 10069 20049 30238 40270 50010 69921 78022 8557/ 333 10075 20015 70002 90921 555 10000 20000 31425 40011
AAXX 20061 33261 11496 80803 10008 20003 30000 40187 57026 69932 78588 889// 333 20005 87710
AAXX 20061 33325 11396 80402 10004 21007 39871 40143 57028 69932 77172 8772/ 333 20001 47001 87707
AAXX 20061 33466 11247 80603 10015 20010 39954 40144 56025 60072 76166 8872/ 333 20009 88706
AAXX 20061 33562 11322 80704 10002 21007 39757 40125 57028 60022 78588 889// 333 21006 47002 86707
AAXX 20061 34523 11497 81206 10031 20016 30150 40228 57012 60012 70362 8772/ 333 20031 88717
BBXX DPLE 20063 99530 10043 41/98 83125 10085 20055 40035 57015 70286 8//// 22214 00090 20505 80070
AAXX 20061 50468 32970 51402 11138 21181 39976 40202 57019 80002 333 21234
AAXX 20061 50953 32965 02203 11068 21157 30043 40233 57023 333 21181
AAXX 20061 51076 NIL
AAXX 20061 51243 NIL
AAXX 20061 51288 32980 01601 11136 21176 38478 52005 333 00951 21196
AAXX 20061 51463 NIL
AAXX 20061 51573 NIL
AAXX 20061 51709 NIL
AAXX 20061 52533 NIL
AAXX 20061 52652 NIL
AAXX 20061 52866 32970 01801 10003 21152 37680 57039 333 00152 21135
AAXX 20061 52983 NIL
AAXX 20061 53463 32970 62002 11044 21145 39020 40325 57028 80002 333 00152 21116
AAXX 20061 53513 32965 40901 11050 21138 39058 40353 57018 80002 333 00251 21159
AAXX 20061 53588 NIL
AAXX 20061 53772 NIL
AAXX 20061 53915 NIL
AAXX 20061 54218 32780 62503 11030 21234 39429 40272 57029 86500 333 21166
AAXX 20061 54337 32960 02001 10005 21125 30167 40254 57034 333 21115
AAXX 20061 54342 NIL
AAXX 20061 54401 NIL
AAXX 20061 54471 32560 62002 10007 21104 30253 40259 57027 86800 333 21105
AAXX 20061 54497 32970 01602 10000 21136 30253 40270 57030 333 21107
AAXX 20061 54511 NIL
AAXX 20061 54823 31956 83402 10037 21071 30058 40275 57029 70500 80007 333 21025
AAXX 20061 56080 NIL
AAXX 20061 56096 NIL
AAXX 20061 57083 31930 20401 10032 21057 30136 40278 57039 70500 80002 333 21021
AAXX 20061 33466 11247 80603 10015 20010 39954 40144 56025 60072 76166 8872/ 333 20009 87706
AAXX 20064 64560 32158 7//// 10225 20222 39578 40114 8393/ 333 0//00 20218 50104 55/// 58001 82702 83615 81916 87360 94942 95832
AAXX 20061 56187 32961 81801 10089 20018 39575 40235 57043 8807/ 333 00102 20049
AAXX 20061 56778 NIL
AAXX 20061 57265 NIL
AAXX 20061 57461 31956 81401 10107 21001 30096 40262 57040 70500 8807/ 333 20059
AAXX 20061 57494 NIL
AAXX 20061 57516 31720 80000 10086 20046 39922 40239 57047 71000 885// 333 00101 20077
AAXX 20061 57687 32762 83203 10090 20005 30174 40260 57027 885// 333 20080
AAXX 20061 57816 11615 80702 10024 20020 38821 40252 57034 69911 72864 885// 333 00351 20014
AAXX 20061 58040 31958 70701 10072 21005 30254 40268 57027 70500 82042 333 21035
AAXX 20061 58102 NIL
AAXX 20061 58150 NIL
AAXX 20061 58221 NIL
AAXX 20061 58238 NIL
AAXX 20061 58251 NIL
AAXX 20061 58362 NIL
AAXX 20061 58457 11720 83601 10079 20055 30191 40245 57027 69921 71060 885// 333 20050
AAXX 20061 58606 NIL
AAXX 20061 58752 NIL
AAXX 20061 58847 NIL
AAXX 20061 59117 32765 70901 10197 20068 30085 40192 57041 875// 333 20094
AAXX 20061 59134 32678 80402 10185 20098 30032 40200 57035 885// 333 20133
AAXX 20061 59287 NIL
AAXX 20061 59316 32962 71102 10201 20099 30183 40188 57035 87040 333 20148
AAXX 20061 59431 NIL
AAXX 20061 59644 NIL
AAXX 20061 59758 NIL
AAXX 20061 01492 11789 70403 11007 21037 39897 40016 52004 60002 70322 875// 333 21026 42998 70000 91103
AAXX 20061 01281 16/// /0401 11047 21058 39806 49984 52005 60012 333 21068 70022 91102
BBXX 41038 20061 99341 70777 46/// /2403 10142 40236 56015 90600 22200 00139 333 91203
BBXX 46035 20061 99571 71778 46/// /3201 1//// 49857 51009 90550 22200 11007 20401 300// 41007 70036 333 91202 555 11009 22010 30508 43308 60549 323009 346013 331029 326034 344046 358044 83307 90508
BBXX A8AJ4 20064 99545 71793 41597 42730 10010 2//// 49900 52010 7//// 847// 222// 0//// 2//// 327// 4//// 5//// 6//// 8//// ICE /////
BBXX A8CN8 20060 99542 71645 41296 81414 10030 49920 57080 76022 887// 22264 00050 2//06 323// 4//06 5////
BBXX DDZC2 20064 99353 71778 41598 33217 10170 20119 40130 52030 7//// 8256/ 22264 00170 2//04 3//// 4//// 5//// 80140
BBXX LAOX5 20061 99391 71500 41598 82018 00/// 10170 20120 40240 52020 70222 88/// 22213 00200 20503 331// 41005 5//// 6//// 80140
BBXX LEQZ3 20063 99546 71668 41/96 /2019 10040 20020 49930 57030 77277 22273 00100 00030
BBXX NWS0003 20064 99539 71665 43/// /0000 10011 20001 49840 5//// 7//// 8//// 222// 0//// 2//// 3//// 4//// 5//// 6//// 8//// ICE /////
AAXX 20064 60720 11557 72004 10089 20080 30161 40195 53004 60124 78082 878// 333 20079 70115 84820 86630
AAXX 20064 06670 31562 81906 11017 21049 39632 40161 57/// 77071 8352/ 333 21048 3/111 46005 55006 55300 20000 70007 83623 88550 90768 93101 91117 91210
AAXX 20064 06700 01204 82407 11019 21032 39677 40189 56/// 60012 77387 8372/ 333 21045 3/107 47003 55014 55300 20000 69955 70017 83706 88520 90768 93102 91114 91208
AAXX 20064 06680 01/01 92621 11109 21109 37397 47916 57/// 69962 77074 333 21174 47183 55001 55300 20000 69955 70009 90768 93101 91141 91231
AAXX 20064 06990 31450 81205 11024 21100 39610 40178 56/// 70541 886// 333 21071 3/110 41/// 55006 55300 20000 70000 88715 91115 91208
AAXX 20064 06760 32982 80701 11008 21107 39717 40181 57/// 8801/ 333 21009 30104 55059 55300 20000 70000 88465 90768 93100 91108 91204
AAXX 20064 06720 03/// ///// 11037 21056 39610 40212 57/// 69922 333 21071 3/103 55027 55300 20000 69925 70002
AAXX 20064 06610 01415 82305 11016 21026 39569 40173 57/// 69932 77381 887// 333 21067 3/110 47004 55018 55300 20000 69935 70009 88717 90768 93103 91113 91208
AAXX 20064 89002 41999 11502 11077 21094 39772 49826 52002 70230 80001
AAXX 20061 26058 01358 82005 10025 20016 30060 40068 53015 60062 76162 8672/ 333 10026 20014 60017 86510 91012 91114 555 12002 20014 32000 50018 52001
BBXX 4XIS 20063 99364 11689 43/96 83230 10120 20100 40070 51030 22224 80110
BBXX DGHX 20063 99333 11680 41297 82835 10190 20159 40085 54000 76586 887// 22264 00190 20208 327// 40408 80170
BBXX LAIG7 20064 99378 11621 41797 63013 10100 20060 40110 53010 75055 86367 22233 00171 20302 334// 41206 5//// 6//// 80080 ICE /////
BBXX S6JU 20064 99461 11766 41697 62713 10035 21020 40115 51010 70312 864// 22224 04050 2//// 3//// 4//// 5//// 6//// 80015
BBXX C6SI6 20064 99318 11209 46/// /1006 10091 20051 40257 56027 7//// 8//// 22200 0//// 2////
BBXX WDB3161 20064 99428 11493 41497 73230 11010 21040 40112 52005 77277 877// 22253 00052 20802 307// 41004 5//// 6//// 81020 ICE /////
AAXX 20061 37985 41493 60000 10065 20042 40351 54000 74644 86600
AAXX 20061 37989 42497 60000 10063 20047 40349 53003 86700
AAXX 20061 37749 42598 83602 10069 20031 40366 57004 885//
AAXX 20061 37925 41598 83204 10052 20040 40343 53009 70252 886// 333 20051
AAXX 20061 37740 42597 80201 10049 21027 40329 57004 885//
AAXX 20061 37675 42999 60000 10043 21021 40251 57002 86008
AAXX 20061 37864 31496 81509 10082 20048 40333 52002 71022 885// 333 20073 555 30///
AAXX 20061 37661 42597 83301 10050 20006 40335 57002 875//
AAXX 20061 37851 42695 82603 10082 20058 40342 56000 885//
AAXX 20061 26045 27472 72006 10028 20020 30042 40044 52015 72388 87/// 333 10028 20013 69967 87/14 91011 91112 555 1/001 20013 3/001 50018
AAXX 20061 26247 27/72 /2106 10025 20000 30029 40109 52019 70080 333 10029 20012 60007 91011 91114 555 1/001 20012 3/000 50018
AAXX 20064 08231 12870 13502 11013 21041 39173 48549 56007 60002 81010 333 21016 34102 5//// 55/// 70000
AAXX 20061 26115 27566 72308 10052 20019 30030 40038 52020 72388 84/// 333 10054 20032 60007 84/25 91013 91118 555 1/003 20032 3/002 50037
AAXX 20061 01065 11650 80000 11017 21022 39798 49960 52004 60022 78588 888// 333 21022 4/023 70033 91102
AAXX 20061 01144 41886 21205 10019 21008 70200 82040 333 20018 91107
AAXX 20061 01293 11356 80301 10008 21002 39777 49984 52008 60022 77172 887// 333 21048 70056 91103
AAXX 20061 01471 11989 33002 11077 21095 60002 70300 83030 333 21084 70000 91104
AAXX 20061 01092 46/// /0303 10024 20006 333 20011 91105
AAXX 20061 01199 11460 80000 11047 21052 39497 49966 52004 60052 77172 887// 333 21047 47036 70061 91102
AAXX 20061 01262 46/// /1103 10043 20025 333 20032 91106
AAXX 20061 01329 11985 00302 10001 21038 39956 40018 52002 60002 70221 333 21007 70000 91107
AAXX 20061 01337 16/// /0801 11017 21028 39956 40023 53003 60002 333 21017 70000 91102
AAXX 20061 01374 31889 10000 11155 21164 70200 81040 333 21155 43036 70000
AAXX 20061 01436 11475 60305 10001 21028 60002 70311 82576 333 20001 70005 91107
AAXX 20061 01265 16/// /0000 11117 21130 39430 40038 53009 60002 333 21117 70000 91102
AAXX 20061 01375 16/// /3205 11088 21112 6//// 333 21089 91110
AAXX 20061 01440 46/// /1001 11135 21148 38716 40055 50001 333 21137 91104
AAXX 20061 01469 16/// /3403 11058 21074 39856 40033 53007 60002 333 21058 70000 91105
AAXX 20061 01015 46/// /1605 10023 21001 333 20020 91106
AAXX 20061 01228 46/// /2506 10043 20015 39979 49986 52005 333 20036 91114
AAXX 20061 01340 16/// /1103 11065 21092 39145 40036 53005 69922 333 21065 70005 91107
AAXX 20061 01425 16/// /0000 11044 21054 39941 40023 53003 60002 333 21050 70000 91103
AAXX 20061 01450 16/// /1101 11119 21133 38862 40051 53002 60002 333 21121 70000 91103
AAXX 20061 01277 16/// /0000 11010 21016 60022 333 21024 70041 91100
AAXX 20061 01370 16/// /1802 11126 21144 38916 40143 52003 69922 333 21128 4/026 70002 91104
AAXX 20061 01419 16/// /0403 11044 21061 60002 333 21047 70011 91104
AAXX 20061 01476 16/// /3102 11019 21044 30014 40020 53005 6//// 333 21020 91105
AAXX 20063 91551 31598 80000 10290 20256 40081 53005 70282 8227/ 333 5699/ 82820 88461
AAXX 20063 91553 11598 80000 10270 20257 40087 53002 60141 72929 8397/ 333 5689/ 60141 83820 81925 88461
AAXX 20063 91554 31498 80305 10280 20252 40084 53007 71629 8697/ 333 5689/ 85818 81922 88461
AAXX 20063 91555 31598 80000 10286 20257 40057 53005 70222 83907 333 569/9 82825 81928 88278
AAXX 20063 91557 11498 80806 10266 20245 40066 56001 60031 70228 8597/ 333 5699/ 60031 81715 84820 81923 88460
AAXX 20063 91565 31598 80509 10270 20226 40086 53003 70222 83207 333 561/9 83822 88278
AAXX 20063 91568 31598 60812 10268 20219 40107 56003 70222 85801 333 563/9 82825 84640 85080
AAXX 20063 91551 31598 80000 10290 20256 40081 53005 70282 8227/ 333 5699/ 82820 88461
AAXX 20063 91553 11598 80000 10270 20257 40087 53002 60141 72929 8397/ 333 5689/ 60141 83820 81925 88461
AAXX 20063 91554 31498 80305 10280 20252 40084 53007 71629 8697/ 333 5689/ 85818 81922 88461
AAXX 20063 91555 31598 80000 10286 20257 40057 53005 70222 83907 333 569/9 82825 81928 88278
AAXX 20063 91557 11498 80806 10266 20245 40066 56001 60031 70228 8597/ 333 5699/ 60031 81715 84820 81923 88460
AAXX 20063 91565 31598 80509 10270 20226 40086 53003 70222 83207 333 561/9 83822 88278
AAXX 20063 91568 31598 60812 10268 20219 40107 56003 70222 85801 333 563/9 82825 84640 85080
AAXX 20064 78948 12584 30716 10250 20217 30123 40131 60001 70300 81801 333 00105 10293 20236 59001 81824
AAXX 20064 91324 11474 81310 10283 20252 30055 40057 60021 70262 8423/ 333 56399 70023 84818 88362 555 92006
AAXX 20064 91329 NIL
AAXX 20064 91336 11474 80717 10289 20239 30096 40101 69951 70282 83101 333 562/9 70043 83818 88075 555 92006
AAXX 20064 91339 11474 80804 10283 20246 30044 40050 69951 70282 8637/ 333 56299 70005 86918 88362 555 92006
AAXX 20064 91320 11474 80712 10294 20272 30081 40086 60011 70262 8221/ 333 56299 70622 82815 86463 555 92006
AAXX 20064 91324 11474 81310 10283 20252 30055 40057 60021 70262 8423/ 333 56399 70023 84818 88362 555 92006
AAXX 20064 91329 NIL
AAXX 20064 91336 11474 80717 10289 20239 30096 40101 69951 70282 83101 333 562/9 70043 83818 88075 555 92006
AAXX 20064 91339 11474 80804 10283 20246 30044 40050 69951 70282 8637/ 333 56299 70005 86918 88362 555 92006
AAXX 20064 91320 11474 80712 10294 20272 30081 40086 60011 70262 8221/ 333 56299 70622 82815 86463 555 92006
AAXX 20064 91753 02582 51008 10282 20238 30059 40091 53006 60052 82206 333 10310 20256 30024 55088 60007 70045 82821 84273 90710 91112 555 60005
AAXX 20064 91754 06/// /0302 10280 20238 30051 40092 53011 60001 333 60007 555 10305 20253 60084 60005
AAXX 20064 91324 11474 81310 10283 20252 30055 40057 60021 70262 8423/ 333 56399 70023 84818 88362 555 92006
AAXX 20064 91329 NIL
AAXX 20064 91336 11474 80717 10289 20239 30096 40101 69951 70282 83101 333 562/9 70043 83818 88075 555 92006
AAXX 20064 91339 11474 80804 10283 20246 30044 40050 69951 70282 8637/ 333 56299 70005 86918 88362 555 92006
AAXX 20064 91320 11474 80712 10294 20272 30081 40086 60011 70262 8221/ 333 56299 70622 82815 86463 555 92006
BBXX 46110 20061 99481 71230 46/// /0901 10074 40277 90531
AAXX 20064 71727 11548 53017 11095 21136 39910 40111 53037 60031 77173 85500 333 11009 21124 48029 70082 90983 555 10164 20082 33032 40051
AAXX 20064 71807 16/// /0208 11021 21050 30039 40058 56012 60001 333 11013 21026 70000 555 30632 40162
AAXX 20064 71810 16/// /0000 11065 21077 39900 49967 56021 60001 333 11047 21186 70000 555 31627 40211
AAXX 20064 71837 16/// ///// 10026 60001 333 10039 21095 70000
AAXX 20064 71839 17/// ///// 10033 69951 7//4/ 333 10043 21137 70005
AAXX 20064 71849 16/// /1917 11063 21090 39853 40156 58036 60001 333 11041 21082 70000 555 10010 31927 40051
AAXX 20064 71311 17/// /2207 10010 20004 30001 40026 56015 60041 7//4/ 333 10011 21123 70049 555 10020 20049 31824 40001
AAXX 20064 71320 16/// /3213 11262 21286 39878 49879 52007 60001 333 11180 21286 70000 555 33027 40101
AAXX 20064 71323 17/// /2806 11037 21071 39806 40089 53030 60021 7//4/ 333 10012 21160 70040
AAXX 20064 71334 46/// /2810 11063 21085 39539 49865 55010 6///1 333 11063 21213 7//// 555 32019 40191
AAXX 20064 71407 16/// /2409 11335 21375 39915 49937 53009 60001 333 11295 21337 70000 555 32729 40122
AAXX 20064 71429 16/// /2609 11049 21077 39961 49980 56015 60001 333 11027 21144 70011 555 32033 40212
AAXX 20064 71110 16/// /3508 11082 21093 30003 40064 58011 60001 333 11030 21083 70000 555 30123 40141
AAXX 20064 71139 16/// /2404 11010 21050 38647 40114 56016 60001 333 10005 21104 70000 555 32219 40041
AAXX 20064 71141 16/// /3512 11305 21336 39949 49977 53005 60001 333 11305 21351 70000
AAXX 20064 71954 46/// /2510 11033 21060 39608 49984 55007 6///1 333 11028 21115 7//// 555 32023 40221
AAXX 20064 71956 16/// /3504 11059 21089 39996 40233 50008 60001 333 10042 21064 70000 555 32424 40111
AAXX 20064 71959 17/// ///// 10009 20000 60021 7//4/ 333 10009 21065 70019 555 10030 20019
AAXX 20064 71977 46/// /3001 11205 21205 39283 40004 51007 6///1 333 11165 21209 7//// 555 10020
AAXX 20064 71989 16/// /0000 11350 21386 30078 40095 53010 60001 333 11295 21370 70000 555 31919 40091
AAXX 20064 71885 16/// ///// 10044 60001 333 10060 21108 70000
AAXX 20064 71087 46/// /0000 11137 21156 39764 49967 53028 6///1 333 10014 21138 7//// 555 32618 40201
AAXX 20064 71015 16/// ///// 10037 60001 333 7////
AAXX 20064 71017 16/// /3305 11299 21330 30017 40032 53005 60001 333 11292 21363 70000
AAXX 20064 71018 16/// ///04 11237 21269 39903 49992 53010 60001 333 11220 21344 70000
AAXX 20064 71019 46/// /3008 11044 21049 39739 40044 53007 6///1 333 11043 21219 7//// 555 31623 40181
AAXX 20064 71020 46/// /1403 11042 21096 39690 49938 5/010 6///1 333 10051 21051 7////
AAXX 20064 71021 46/// /0000 11158 21170 39625 49974 51011 6///1 333 10034 21160 7////
AAXX 20064 71515 16/// /2317 11017 21051 39383 40089 56034 60001 333 11017 21167 7////
AAXX 20064 71250 16/// /3308 11017 21026 39888 40024 58012 60001 333 11014 21027 70008 555 30126 40181
AAXX 20064 71270 17/// /3416 11016 21057 39993 40215 51029 69931 7//4/ 333 10061 21016 70006 555 32028 40082
AAXX 20064 71279 17/// /3004 11100 21114 39924 49990 53006 60011 7//4/ 333 11047 21198 70053 555 31417 40191
AAXX 20064 71295 16/// /2107 11073 21089 39707 40162 56042 60001 333 11057 21090 70000 555 33218 40091
AAXX 20064 71296 16/// /3507 11015 21049 39893 40202 51028 60001 333 10050 70000 555 32023 40091
AAXX 20064 71454 16/// /2607 11008 21063 39325 40012 56015 60001 333 10008 21143 70000 555 32024 40201
AAXX 20064 71459 16/// /2413 11020 21052 39271 40082 58023 60001 333 10005 21146 70000 555 32423 40231
AAXX 20064 71465 46/// /3410 10022 21021 39990 40208 51020 6///1 333 10071 20022 7//// 555 31934 40093
AAXX 20064 71470 16/// /0905 11217 21239 39347 49984 52021 60001 333 11194 21235 70000
AAXX 20064 71487 16/// /2415 11009 21049 39237 40108 56025 60001 333 11009 21138 70000 555 32225 40001
AAXX 20064 71492 46/// ///03 11190 21212 39269 49969 52015 6///1 333 11175 21210 7//// 555 10020
AAXX 20064 71496 16/// /2509 11032 21053 39445 40058 56020 60001 333 11005 21152 70000 555 32226 40001
AAXX 20064 71669 16/// /2607 10034 21056 38504 40113 56024 60001 333 10038 21149 70003 555 32521 40051
AAXX 20064 71671 17/// /2507 10024 20021 39969 40029 56015 60031 7//4/ 333 10024 21103 7////
AAXX 20064 71920 17/// /2623 10061 20051 30055 40061 56021 69981 7//4/ 333 10073 21077 70008 555 32735 40063
AAXX 20064 71724 16/// /3012 11043 21099 30129 40137 51046 60001 333 10010 21099 70010 555 33322 40041
AAXX 20064 71736 46/// ///// 10017 21064 6///1 333 10030 21110 7////
AAXX 20064 71742 46/// /3205 11073 21089 39877 40066 58017 6///1 333 11059 21108 7////
AAXX 20064 71744 16/// /2506 11034 21049 39978 40019 55002 60001 333 11023 21180 70000 555 32224 40221
AAXX 20064 71747 16/// /2308 11088 21101 39741 40231 55010 60001 333 10016 21088 70000
AAXX 20064 71364 16/// /0702 11255 21282 39896 40034 51010 60001 333 11218 21261 70005 555 10050 20005
AAXX 20064 71365 16/// /3003 11156 21167 39751 49962 53013 60001 333 10019 21175 70000 555 10010
AAXX 20064 71378 17/// /3309 11085 21132 39930 40143 53033 60011 7//4/ 333 11020 21102 70050 555 10030 20050 31821 40111
AAXX 20064 71758 16/// /1708 11035 21040 39967 40045 56052 60001 333 11034 21096 70000 555 33521 40141
AAXX 20064 71553 16/// /2214 11025 21053 60001 333 11025 21108 70000 555 32124 40021
AAXX 20064 71564 16/// /2412 11024 21078 39794 40168 56037 60001 333 11021 21102 70000 555 32322 40061
AAXX 20064 71570 16/// /2008 11052 21095 39832 40150 56045 60001 333 11049 21078 70000 555 32322 40021
AAXX 20064 71580 11474 10000 11317 21370 39905 49943 52012 69921 70171 81500 333 11296 21326 45030 70014 90932 555 10014 20014 33137 40123
AAXX 20064 71581 16/// /3102 11071 21106 39709 40198 51027 60001 333 10029 70007 555 32417 40101
AAXX 20064 71159 16/// /0907 11075 21127 39962 40035 56045 60001 333 11050 21146 70003
AAXX 20064 71160 16/// /0301 11173 21196 39732 49947 51038 60001 333 11088 21189 70015
AAXX 20064 71162 16/// /3411 11112 21132 39725 49933 53026 60001 333 11041 21141 70000 555 33128 40232
AAXX 20064 71164 46/// /0000 11243 21271 39966 40049 51021 6///1 333 11185 21243 7////
AAXX 20064 71166 46/// /0901 39358 53011 6///1 333 7//// 555 32230 40142
AAXX 20064 71175 17/// /1911 10004 20004 30006 40041 56058 69961 7//4/ 333 10004 21059 7//// 555 32222 40041
AAXX 20064 71964 12986 22603 11152 21174 39183 40046 52019 60001 82070 333 10013 21162 70000 555 10000 20000 31820 40090
AAXX 20064 71893 11469 81405 10069 20049 30238 40270 50010 69921 78022 8557/ 333 10075 20015 70002 90921 555 10000 20000 31425 40011
AAXX 20064 71894 17/// /0704 10076 20076 30258 40267 53007 60191 7//4/ 333 10077 20031 70242 555 31329 40012
AAXX 20064 71915 11974 03405 11354 21407 39857 49942 58004 69901 77677 333 11194 21359 48044 79999 90983 555 19999 29999 33239 40121
AAXX 20064 71924 11774 40714 11242 21288 39902 49994 52010 69901 77671 81530 333 11218 21343 48038 79999 90952 555 19999 29999 30429 40012
AAXX 20061 01026 11589 71801 10007 21007 39828 49969 54001 60002 70222 84578 333 20002 43021 91103
AAXX 20061 01218 16/// /1801 11033 21038 39990 40012 55002 60002 333 21035 70034 91109
AAXX 20061 01447 16/// /3601 11134 21147 39349 40057 53005 60002 333 21157 70000 91104
AAXX 20064 71727 11548 53017 11095 21136 39910 40111 53037 60031 77173 85500 333 11009 21124 48029 70082 90983 555 10164 20082 33032 40051
AAXX 20064 71807 16/// /0208 11021 21050 30039 40058 56012 60001 333 11013 21026 70000 555 30632 40162
AAXX 20064 71810 16/// /0000 11065 21077 39900 49967 56021 60001 333 11047 21186 70000 555 31627 40211
AAXX 20064 71837 16/// ///// 10026 60001 333 10039 21095 70000
AAXX 20064 71839 17/// ///// 10033 69951 7//4/ 333 10043 21137 70005
AAXX 20064 71849 16/// /1917 11063 21090 39853 40156 58036 60001 333 11041 21082 70000 555 10010 31927 40051
AAXX 20064 71964 12986 22603 11152 21174 39183 40046 52019 60001 82070 333 10013 21162 70000 555 10000 20000 31820 40090
AAXX 20064 71893 11469 81405 10069 20049 30238 40270 50010 69921 78022 8557/ 333 10075 20015 70002 90921 555 10000 20000 31425 40011
AAXX 20064 71894 17/// /0704 10076 20076 30258 40267 53007 60191 7//4/ 333 10077 20031 70242 555 31329 40012
AAXX 20064 71915 11974 03405 11354 21407 39857 49942 58004 69901 77677 333 11194 21359 48044 79999 90983 555 19999 29999 33239 40121
AAXX 20064 71924 11774 40714 11242 21288 39902 49994 52010 69901 77671 81530 333 11218 21343 48038 79999 90952 555 19999 29999 30429 40012
AAXX 20064 48373 31558 20000 10280 20148 30064 40126 57036 70500 81101 333 59005
BBXX SERW 20063 99280 70153 43/98 70213 10184 2//// 40221 58008 70222 8//// 22200 06200 2//// 3//// 4////
AAXX 20061 37279 32999 70901 10146 20058 30044 40185 57013 80006 555 20075
AAXX 20061 37308 32799 72703 11004 21022 39613 40286 58037 83532 333 21050
AAXX 20061 37531 32998 61210 10021 21007 39590 40336 57005 80050 333 20012 555 91115
AAXX 20061 37553 32699 80901 10045 20006 39677 40339 53015 885// 333 21005
AAXX 20061 37651 16/// ///00 10031 20003 3//// 4//// 5//// 60002 333 20007
AAXX 20061 37492 NIL
BBXX SBLW 20063 99116 70771 43/98 30628 10267 40128 58014 22254 00277 2//// 4////
BBXX 9V8797 20064 99111 10737 43/97 40111 10284 40120 52012 22234 00287 2//// 4////
BBXX SBLI 20061 99300 11752 43/98 62310 10221 40161 53005 22264 00215 2//// 4//// 426621110
BBXX SHJC 20061 99212 11180 43/97 80315 10212 40157 58043 22254 01250 2//// 4////
BBXX SMGW 20061 99351 11593 43/98 22907 10134 40143 53002 22224 00199 20504 40705
AAXX 20064 60190 32970 00604 10061 20056 40266 53009 333 20057 30004
AAXX 20064 04211 45/83 /0716 11110 21171 39794 49956 54000 333 11085 21113
AAXX 20064 04220 05984 81422 11079 21141 39913 49965 52008 60022 333 11077 21104 55300 20000 69947 70024 81/62 88/64
AAXX 20064 04221 45984 71022 11117 21221 39940 49978 52009 333 11111 21128 85/59 87/61
AAXX 20064 04231 12984 70610 11118 21219 39932 40008 52013 6///2 8707/ 333 11097 21124 87466
AAXX 20064 04234 474// 81013 11081 21110 39960 49970 52012 77177 333 11068 21091 88/13 91138
AAXX 20064 04241 47438 80916 11086 21101 39946 49986 52006 75477 333 11060 21088 81/15 85/24 88/30
AAXX 20064 04250 07/06 91614 11075 21085 39880 49987 52001 60052 77287 333 11067 21081 55300 20000 60027 70088 89/03 91120
AAXX 20064 04254 47/04 91711 11079 21117 39885 40002 52013 77277 333 11067 21083 89/06 91223
AAXX 20064 04260 45682 71905 11054 21142 39976 40020 52004 333 11048 21076 81/34 81/45 87/58 91125 91220
AAXX 20064 04270 45684 11802 11100 21184 30015 40055 52004 333 11085 21120 81/43
AAXX 20064 04272 05784 5//// 11070 21096 39972 40046 52002 60012 333 11068 21096 6///7 70016 85/50
AAXX 20064 04312 46/// ///// 11325 21368 39963 40005 57004
AAXX 20064 04320 NIL
AAXX 20064 04339 47/58 ///// 11084 21089 39791 49882 57005 77170 333 11082 21096 55300 20000
AAXX 20064 04360 06/// /2001 11107 21167 39823 49895 52003 6///2 333 11075 21114 55300 20000 6///7 70000
AAXX 20064 04361 46/// /2405 11102 21179 39843 49896 52004 333 11056 21115
AAXX 20064 04390 05/84 02605 11063 21126 39936 40032 52006 60172 333 11026 21065 60067 70297
AAXX 20061 06447 16/// /2704 10048 20040 39954 40079 55002 60052 333 20009 3/000 91111 91206
AAXX 20061 33261 11496 80803 10008 20003 30000 40187 57026 69932 78588 889// 333 20005 87710
AAXX 20061 33325 11396 80402 10004 21007 39871 40143 57028 69932 77172 8772/ 333 20001 47001 87707
AAXX 20061 33466 11247 80603 10015 20010 39954 40144 56025 60072 76166 8872/ 333 20009 88706
AAXX 20061 33562 11322 80704 10002 21007 39757 40125 57028 60022 78588 889// 333 21006 47002 86707
AAXX 20061 34523 11497 81206 10031 20016 30150 40228 57012 60012 70362 8772/ 333 20031 88717
AAXX 20061 33466 11247 80603 10015 20010 39954 40144 56025 60072 76166 8872/ 333 20009 87706
AAXX 20061 50136 32970 70401 11181 21222 39602 40185 57023 80002 333 21315
AAXX 20061 50745 32967 21801 11076 21158 30015 40212 57024 80002 333 21203
AAXX 20061 50774 32963 01401 11117 21181 39908 40236 57022 333 21276
AAXX 20061 50788 32969 52502 11114 21168 30155 40247 57009 80002 333 21227
AAXX 20061 51133 NIL
AAXX 20061 51431 NIL
AAXX 20061 51747 NIL
AAXX 20061 52203 NIL
AAXX 20061 52418 NIL
AAXX 20061 52681 NIL
AAXX 20061 53564 NIL
AAXX 20061 53614 31920 73602 11032 21083 38974 40330 57022 71000 81032 333 00151 21090
AAXX 20061 53646 32970 73203 11013 21104 38911 40310 57021 80002 333 00251 21122
AAXX 20061 53798 NIL
AAXX 20061 53845 32765 80000 11003 21061 39143 40303 57020 8557/ 333 00353 21030
AAXX 20061 53959 NIL
AAXX 20061 54094 32970 02001 11087 21172 39946 40269 57025 333 21219
AAXX 20061 54102 32980 62205 11160 21205 39059 40355 57016 81032 333 21227
AAXX 20061 54161 32965 02203 11049 21156 39934 40243 57028 333 21148
AAXX 20061 54292 32975 02501 11055 21164 39926 40263 57027 333 21178
AAXX 20061 54374 32970 01401 11084 21158 39792 40291 57035 333 21207
AAXX 20061 54423 NIL
AAXX 20061 54618 NIL
AAXX 20061 54843 31956 83601 10035 21029 30243 40272 57029 71000 8802/ 333 21060
AAXX 20061 54909 32961 73401 10044 21027 30203 40269 57037 82032 333 21033
AAXX 20061 56029 32980 01401 10016 21257 36423 57041 333 00100 21179
AAXX 20061 57127 32960 80701 10087 20045 39627 40242 57037 8807/ 333 20056
AAXX 20061 57131 31956 80703 10044 21010 39775 40283 57029 71000 8807/ 333 20011
AAXX 20061 40706 11/00 90000 11054 21061 38781 40405 53008 60001 74700 333 3/108 42002 70000 89/01
AAXX 20061 40718 11550 60000 10098 20094 30360 40331 51006 60001 71022 85570 222// 00098 20102 333 30003 50061 70000 85625 84360
AAXX 20061 40732 12560 20000 10116 20072 30347 40322 51002 60001 82400 333 30003 50041 70000 82625
AAXX 20061 40745 12962 01002 11026 21137 39223 40446 52005 60001 333 30114 70000
AAXX 20061 40754 11956 01603 10078 21037 38970 40346 52014 60001 70500 333 30102 5//// 70000
AAXX 20061 40766 12960 00000 10070 21048 38788 40297 52008 60001 333 30104 70000
AAXX 20061 40800 11940 00000 10026 21015 38573 40344 53009 60001 70500 333 30106 5///1 70000
AAXX 20061 40811 11930 00000 10132 20065 30210 40237 52021 60001 70500 333 30002 50161 70000
AAXX 20061 40841 12965 00000 10018 21074 38367 40345 51012 60001 333 30110 5//// 70000
AAXX 20061 40848 12962 00000 10082 21065 38614 40292 51004 60001 333 30106 5////1 70000
AAXX 20061 40856 12962 03402 10061 21262 38730 40297 50016 60001 333 30112 5///1 70000
AAXX 20061 40875 11957 00709 10213 21086 30229 40241 52020 60001 70500 333 30011 50701 70000
AAXX 20064 47401 11/20 70410 11027 21052 30160 40175 53009 69951 78582 873//
AAXX 20064 47412 12/75 33103 11018 21114 30151 40184 53007 60001 83200
AAXX 20064 47420 15/70 /3214 11016 21088 30119 40153 53012 60001
AAXX 20064 47426 15/70 /3009 11005 21131 30127 40176 53005 60001
AAXX 20064 47582 11/10 82814 11004 21039 30195 40223 53007 69901 78582 883//
AAXX 20064 47590 11/65 70207 10014 21015 30157 40212 53008 69901 78582 873//
AAXX 20064 47600 17/70 /3305 10041 21009 30236 40244 55005 69901 76760
AAXX 20064 47648 12/80 10107 10084 21028 30172 40207 55002 60001 81202
AAXX 20064 47662 12/82 13504 10101 21076 30157 40202 55005 60001 81800
AAXX 20064 47678 17/70 /2909 10113 20045 30014 40202 55007 60051 70060
AAXX 20064 47740 17/76 /3107 10078 20010 30202 40237 56009 69901 78186
AAXX 20064 47778 15/70 /3007 10115 21023 30133 40217 55011 69901
AAXX 20064 47807 12/70 73504 10103 20001 30236 40254 55016 60001 81101
AAXX 20064 47827 12982 13601 10145 21033 30201 40239 56018 60001 81031
AAXX 20064 47843 15/80 /3405 10117 20005 30226 40259 55009 60001
AAXX 20064 47893 12/80 71504 10120 21030 30222 40228 55013 60001 81108
AAXX 20064 47909 12/75 33506 10181 20084 30211 40221 56017 60001 82130
AAXX 20064 47918 11/65 81215 10215 20151 30158 40175 56026 69951 70262 8487/
AAXX 20064 47936 12/80 70611 10199 20114 30141 40200 56020 60001 8213/
AAXX 20064 47945 12/65 80709 10194 20087 30174 40198 56020 60001 888//
AAXX 20064 47971 12/75 73506 10192 20085 30189 40199 55000 60001 8223/
AAXX 20064 47991 16/// /2304 10255 20203 30134 40144 55000 69901
AAXX 20064 47407 12/65 41403 11066 21110 30006 40187 53003 60001 84300
AAXX 20064 47409 11/65 53007 11029 21080 30118 40174 53015 69951 72600 85200
AAXX 20064 47418 12/86 10107 11009 21125 30117 40168 53011 60001 81100
AAXX 20064 47421 17/61 /3103 11033 21062 30150 40195 53004 60031 77177
AAXX 20064 47430 11/65 72714 11027 21072 30141 40197 53008 69901 78511 873//
AAXX 20064 47570 17/70 /2907 10013 21030 39962 40229 53001 69951 77176
AAXX 20064 47575 11/60 72809 11016 21051 30200 40205 53004 69901 78582 873//
AAXX 20064 47584 11/60 3//// 11005 21091 30012 40208 53009 69901 78582 83300
AAXX 20064 47604 11/60 73208 10035 21027 30231 40240 55000 69901 78381 872//
AAXX 20064 47605 11/70 70710 10052 20002 30198 40240 55008 69901 70282 82230
AAXX 20064 47610 11/60 70809 10012 21012 39719 40237 55003 69951 78582 87200
AAXX 20064 47624 12/81 23510 10064 21065 30065 40206 55001 60001 82201
AAXX 20064 47629 12/80 20205 10081 21064 30167 40206 55004 60001 82200
AAXX 20064 47636 12/70 12912 10083 21010 30151 40220 56014 60001 81201
AAXX 20064 47651 12/82 53211 10091 21016 30204 40227 55005 60001 82201
AAXX 20064 47655 15/70 /2715 10103 21014 30140 40197 55011 60001
AAXX 20064 47675 15/70 /2702 10109 20003 30101 40193 55008 60001
AAXX 20064 47741 11/60 72203 10062 20044 30217 40245 55008 60021 78081 8723/
AAXX 20064 47746 11/65 72706 10069 20030 30222 40242 55008 69951 78081 872//
AAXX 20064 47750 11380 72303 10063 20038 30211 40239 55013 60021 70282 86201
AAXX 20064 47765 12/80 72204 10101 21029 30175 40241 56013 60001 82801
AAXX 20064 47772 11/82 73402 10096 21011 30131 40233 56014 69901 72522 85231
AAXX 20064 47800 15/83 /3405 10090 21042 30251 40256 56014 60001
AAXX 20064 47815 12/70 70108 10108 21016 30228 40245 56016 60001 81101
AAXX 20064 47817 12970 70501 10106 20014 30208 40252 55012 60001 82032
AAXX 20064 47830 12/84 31505 10127 21002 30219 40237 56015 60001 81102
AAXX 20064 47887 12/75 73503 10105 21032 30202 40244 55013 60001 82102
AAXX 20064 47891 12/75 72708 10104 21033 30220 40237 56014 60001 81802
AAXX 20064 47895 12/80 73310 10107 21027 30225 40233 56011 60001 81102
AAXX 20064 47927 11/65 81209 10203 20151 30132 40181 56023 69901 72186 8682/
AAXX 20064 41244 36/// /0916 10219 20047 39863 48525 333 0E018 20178 58004
AAXX 20064 40101 12956 43205 10137 20010 39150 48554 53003 60004 80005 906// 333 20065 31/// 50294 55077 20919 84070
AAXX 20064 40103 32960 51402 10106 20055 40187 52007 80004 333 20093 30/// 50304 20951 85070 555 10188
AAXX 20064 40100 NIL
AAXX 20064 40102 NIL
BBXX 44139 20061 99442 70571 46/// /3007 10011 40104 57006 22200 00095 10805 70025 333 91210
AAXX 20064 60115 32970 02102 11004 21021 40308 58003 333 21004
AAXX 20061 08501 32/// /1808 10175 20108 30239 40275 57011 333 20167 30016 5//// 55013 20475 91014 91115
AAXX 20061 08505 NIL
AAXX 20061 08509 32660 71704 10149 20100 30254 40318 57009 875// 333 20152 50354 55021 87635
AAXX 20061 08512 32575 70502 10147 20085 30230 40316 57009 87800 333 20147 30013 5//// 55000 20406 81825 87635 91105
AAXX 20061 08515 32580 70703 10153 20100 30194 40317 57008 876// 333 20154 30013 50264 55/// 87633 910// 911//
AAXX 20061 08533 32/// /0501 10033 20004 30269 40300 54000 333 20033 30000 5//// 55063 20978
AAXX 20061 08541 32/// /0304 10069 20027 30182 40305 57005 333 20061 30002 5//// 55052 20842
AAXX 20061 08545 31560 81003 10070 20034 30227 40313 57002 70222 885// 333 20054 30000 50254 55068 20777 82625 87630
AAXX 20061 08548 32/// /0701 10038 20026 30101 40314 57004 333 20035 30000 5//// 55071 20891
AAXX 20061 08554 32970 23602 10087 20000 30288 40298 57002 80001 333 20044 30007 5//// 55076 21049 82080
AAXX 20061 08558 32/// /0101 10008 21001 30000 40309 57005 333 20008 30104 5//// 55002 20923
AAXX 20061 08560 32/// /3403 10045 20004 39535 40315 57003 333 20027 30102 5//// 55061 20870 91105
AAXX 20061 08567 32/// /0000 10029 20012 39633 40321 54000 333 20022 30000 5//// 55063 20809
AAXX 20061 08570 32/// /2902 10034 21004 39833 40309 57004 333 20006 30101 5//// 55062 20844
AAXX 20061 08575 32/// /9901 11014 21024 39475 40327 54000 333 21019 30103 5//// 55069 20880
AAXX 20061 08579 32/// /2401 10083 20050 30179 40307 57005 333 20071 30006 5//// 55067 20910
BBXX 44139 20061 99442 70571 46/// /3007 10011 40104 57006 22200 00095 10805 70025 333 91210
BBXX 44150 20061 99425 70640 46/// /2614 10096 40079 57052 22200 00108 10706 70030 333 91217
AAXX 20061 48803 32460 81802 10194 20132 30068 40182 57037 888// 333 59002 84894 88696
BBXX 44255 20061 99473 70573 46/// /1603 11025 40057 57031 22200 00039 11101 70007 333 91205
BBXX 44150 20061 99425 70640 46/// /2614 10096 40079 57052 22200 00108 10706 70030 333 91217
BBXX 44255 20061 99473 70573 46/// /1603 11025 40057 57031 22200 00039 11101 70007 333 91205
AAXX 20060 44214 NIL
AAXX 20060 44231 31999 52906 11134 21226 38795 40436 58002 73632 84049 333 91112
AAXX 20060 44259 NIL
AAXX 20060 44277 32999 22703 11153 21234 37884 40521 58001 80002
AAXX 20060 44288 32899 43410 11076 21189 38174 40275 57011 83044 333 91114
AAXX 20060 44292 31891 72602 11202 21243 38722 40376 57006 70422 84018
AAXX 20060 44304 32999 62304 11205 21245 38994 40312 57009 82046
AAXX 20060 44354 32999 00000 11256 21281 39143 40388 58005
AAXX 20060 44373 NIL
BBXX ONAR 20063 99337 30438 41598 40919 10240 2020/ 40200 54000 78062 8348/ 22263 00210 21205 306// 4//// 5//// 6//// 80210 ICE /////
AAXX 20061 52533 32980 50401 11080 21187 38613 40415 57004 81042 333 00553 21164
AAXX 20061 53588 11975 02509 11095 21166 37771 57023 69911 70080 333 21131
AAXX 20061 53772 31920 72201 10024 21075 39329 40283 57039 70400 80002 333 21065
AAXX 20061 54342 32965 02203 11013 21148 30192 40257 57033 333 21163
AAXX 20061 54511 32970 21802 10039 21164 30219 40261 57038 80002 333 21065
AAXX 20061 56080 32980 03602 10032 21154 37110 57038 333 00100 21141
AAXX 20061 51076 32980 01401 11207 21254 39581 40585 52004 333 01355 21276
AAXX 20061 51243 32965 02201 11122 21164 39938 40550 52002 333 01100 21189
AAXX 20061 51463 11765 73601 11114 21140 39332 40536 57002 69961 77077 86502 333 01100 21132
AAXX 20061 51573 32975 01402 11004 21112 30361 40407 52003 333 00704 21077
AAXX 20061 51709 11860 70202 11041 21072 38841 40400 52019 60011 77077 875// 333 00900 21060
AAXX 20061 52652 32965 73403 11063 21168 38607 40382 57012 80002 333 00553 21146
AAXX 20061 52983 32961 10701 10004 21076 38103 57031 80002 333 05102 21106
AAXX 20061 53915 32762 81101 11003 21049 38691 40274 57029 885// 333 00002 21043
AAXX 20061 54401 32980 22503 11004 21163 39390 40292 57034 80002 333 21107
AAXX 20061 56096 32772 72002 10078 21022 38954 40207 57045 875// 333 00002 20023
AAXX 20064 82143 NIL
AAXX 20064 82599 32570 41704 10247 20224 30057 40117 82230 333 59006
AAXX 20064 82824 42370 60902 10256 20240 39986 40086 82530 333 59002
AAXX 20064 82899 21570 40708 10261 20222 30115 40127 70181 84200 333 58008 60011
AAXX 20064 83117 NIL
AAXX 20064 83248 32470 30608 10267 20228 30112 40134 83200 333 59004
AAXX 20064 83746 32970 00000 10228 20213 30088 40098 57007
AAXX 20064 41061 42960 00908 10160 20040 39520 40240 333 20070 59004
AAXX 20064 NIL
AAXX 20064 NIL
AAXX 20064 NIL
AAXX 20064 NIL
AAXX 20064 NIL
AAXX 20064 NIL
AAXX 20064 82022 32970 00605 10251 20211 30001 40097 333 59000
AAXX 20064 82193 32970 00609 10249 20239 30080 40098 333 58000
AAXX 20064 82281 32970 00606 10259 20205 30035 40097 333 58004
AAXX 20064 82332 32970 30802 10252 20235 39999 40091 80001 333 59001
AAXX 20064 82398 32470 41007 10254 20228 30082 40111 84500 333 58004
AAXX 20064 82400 NIL
AAXX 20064 82579 42970 03303 10264 20227 30017 40093 333 58009
AAXX 20064 82917 42970 40000 10268 20263 39868 4//// 84030 333 59000 60031
AAXX 20064 82965 NIL
AAXX 20064 82993 32570 30802 10233 20227 39997 40133 83100 333 59008
AAXX 20064 83208 NIL
AAXX 20064 83349 NIL
AAXX 20064 83362 32970 03605 10243 20204 39878 40090 333 58008
AAXX 20064 83378 32570 50000 10189 20160 38959 48520 81530 333 58010
AAXX 20064 83460 32970 00102 10224 20211 30079 40136 333 58008
AAXX 20064 83497 NIL
AAXX 20064 83566 21257 70000 10173 20170 39210 48520 76162 86710 333 58020 60051
AAXX 20064 83599 NIL
AAXX 20064 83612 32870 30504 10255 20145 39464 48520 57005 83030
AAXX 20064 83649 32570 43607 10256 20213 30128 40133 58006 84500
AAXX 20064 83650 NIL
AAXX 20064 83780 32970 00202 10224 20126 39210 48510 56011
AAXX 20064 83827 32970 00000 10172 20153 39810 40082 58006
AAXX 20064 83840 32970 00602 10161 20153 39097 48500 55003
AAXX 20064 83899 32370 23005 10238 20219 30070 40076 58008 82500
AAXX 20064 83925 NIL
AAXX 20064 83970 NIL
AAXX 20064 83971 32970 00802 10192 20185 30076 40080 55005
AAXX 20064 87022 NIL
AAXX 20064 87046 32962 22705 10216 20134 39060 48464 56009 80001 333 56009 82070
AAXX 20064 87047 32968 00502 10178 20136 38759 48481 56003
AAXX 20064 87097 32960 00505 10193 20183 39788 40093 58001
AAXX 20064 87121 NIL
AAXX 20064 87129 32965 00504 10260 20090 39801 40020 57007
AAXX 20064 87155 32965 00205 10226 20138 39998 40057 57008
AAXX 20064 87162 31960 00205 10246 20132 39999 40066 58006 70400
AAXX 20064 87166 32960 00206 10251 20149 39986 40057 57008
AAXX 20064 87178 31960 01103 10228 20175 39928 40069 57007 70400
AAXX 20064 87217 NIL
AAXX 20064 87222 32970 00212 10292 20099 39486 49974 56008
AAXX 20064 87257 NIL
AAXX 20064 87270 32965 03602 10251 20147 39989 40048 58001
AAXX 20064 87289 NIL
AAXX 20064 87311 32965 32008 10264 20096 39358 49998 54000 83070 333 56000 83360
AAXX 20064 87320 NIL
AAXX 20064 87328 11980 01810 10282 20078 39410 40023 52004 69901 70290 333 95000
AAXX 20064 NIL
BBXX C6CL6 20064 99489 70063 41498 83219 10120 2008/ 40200 52040 70322 8872/ 22263 00100 2//// 3//// 4//// 5//// 6//// 80100 0/0/0
BBXX WXJ63 20063 99611 71464 41/92 90503 11008 21011 40022 52/// 745// 8//// 222// 00056 2//// 3//// 4//// 5//// 6//// 8//// ICE /////
BBXX VRHO2 20064 99329 11351 41998 43019 10120 20038 40200 57030 70200 81181 22254 00220 20301 303// 40603 50000 6/00/ 80080 ICE /////
BBXX C6VG7 20064 99249 70760 41698 21020 10218 2011/ 40223 57002 7//00 82/3/ 22244 00250 20304 309// 4//// 5//// 6//// 80155 ICE /////
BBXX WDF7020 20064 99446 70828 41/97 80115 1//// 2//// 40227 54/// 70002 8//// 22243 0//// 20302 3//// 4//// 5//// 6//// 8//// ICE /////
BBXX C6FN4 20064 99189 70798 41797 21020 10250 20191 40160 54020 7//11 82200 22274 04270 20204 39999 40102 50000 6//// 80210 ICE /////
BBXX PBWQ 20064 99224 70723 41/98 /0540 10237 20152 40210 57010 70022 8//// 22234 00267 20409
BBXX WNBE 20064 99209 71564 41498 20730 10230 2//// 40180 54000 75051 821// 22222 0//// 2//// 3//// 4//// 5//// 6//// 8//// ICE /////
BBXX WKAB 20064 99375 10106 41/98 83321 10105 20076 40201 52008 75052 8//// 22224 00164 2//// 3//// 4//// 5//// 6//// 80090 ICE /////
AAXX 20064 NIL
AAXX 20061 30372 41999 81401 11184 21203 39250 40167 51004 70272 8802/
AAXX 20061 30433 42699 52705 11150 21243 39618 40245 52025 82530 333 91115
AAXX 20061 30554 42698 52802 11114 21176 39029 40145 53004 82101
AAXX 20061 30635 41896 83002 11102 21138 39643 40234 51007 77187 8802/
AAXX 20061 30673 41996 80000 11224 21224 39347 40172 57017 77172 8802/
AAXX 20061 30692 41996 80504 11188 21207 39658 40185 57/// 77172 8802/
AAXX 20061 30758 42699 82605 11108 21192 39337 40183 57010 83501
AAXX 20061 30802 41698 82707 11091 21186 38733 48510 52004 71522 82331 333 95702
AAXX 20061 30823 41996 72605 11124 21144 39611 40276 57003 77177 8702/
AAXX 20061 30879 42999 70501 11212 21245 39396 40213 57026 8707/
AAXX 20061 30935 41699 82402 11154 21188 39324 40316 57011 70372 82541
AAXX 20061 30949 42699 60000 11190 21202 39104 40272 57023 83530
AAXX 20061 30965 42999 72503 11161 21203 39340 40209 57024 83042
AAXX 20061 31168 42999 02302 11132 21226 30135 40147 53005
AAXX 20061 31300 42999 80000 11204 21210 39903 40214 58016 70241 82042
AAXX 20061 31329 42999 00000 11294 21339 39533 40280 57010
AAXX 20061 31369 42999 22602 11199 21232 30098 40189 57006 80002
AAXX 20061 31416 42998 01802 11201 21227 30108 40204 57006
AAXX 20061 31484 42999 02502 11146 21227 39836 40191 57014
AAXX 20061 31512 429// 51602 11130 21182 30019 40193 56019 80001
AAXX 20061 31538 42999 00000 11226 21266 39787 40259 57006
AAXX 20061 31707 42999 82003 11109 21193 30140 40236 57015 86071
AAXX 20061 31735 42997 02002 11158 21230 30149 40242 55003
AAXX 20061 31770 42999 03402 11113 21222 30172 40203 57001
AAXX 20061 22028 12581 62306 11030 21047 39929 49967 53007 69942 84540 333 21052 48013 91007
AAXX 20061 22106 11497 80000 11044 21053 39887 49966 53006 60032 77172 8872/ 333 21044 47018 84711
AAXX 20061 22127 11598 61603 11016 21024 39773 49973 53003 69932 70282 83930 333 21026 47029 91006
AAXX 20061 22324 11470 82003 10005 20002 39940 49989 52004 60012 78582 889// 333 21003 43015 91004
AAXX 20061 22621 11450 81905 10005 20002 39883 40022 51001 69932 78582 889// 333 20003 43012 88612
AAXX 20061 22831 11496 81804 10006 21008 30042 40102 52010 60032 78582 889// 333 20005 43022 91113
AAXX 20061 22892 11497 82111 10027 20019 30019 40035 52014 60072 76162 8802/ 333 20015 88510 91013 91118
AAXX 20061 26275 32998 31805 10007 21039 30127 40158 52009 80001 333 20007
AAXX 20061 26389 31996 01802 11020 21035 39934 40206 52006 71011 333 21022
AAXX 20061 26499 32497 81804 11014 21031 30003 40239 54000 886// 333 21018 43006 88710
AAXX 20061 26695 31996 31602 11024 21033 39931 40249 58015 71011 82031 333 21026 43004
AAXX 20061 26882 32965 61203 11025 21034 39949 40234 57014 84035 333 21025
AAXX 20061 20107 11597 71405 11059 21109 39978 40075 53001 69902 78582 87900 333 21059 91006
AAXX 20061 22113 11580 72001 11027 21030 39904 49967 53006 60032 72682 87900 333 21025 47014 91003
AAXX 20061 22217 11231 81702 11002 21005 39951 49983 52004 60042 77172 8872/ 333 21012 43030 86706 91003 93727
AAXX 20061 22235 11333 81601 11005 21005 39799 49993 54000 60022 78682 889// 333 21030 47031 87708 91002
AAXX 20061 22349 11496 72009 10016 20002 30018 40030 53003 69962 78582 87900 333 20005 42001 91011 91116
AAXX 20061 22408 11584 81702 11015 21017 39848 49998 54000 60022 70272 885// 333 21016 43017 88622
AAXX 20061 22602 11358 81701 11008 21012 39774 49998 52005 60012 77172 8872/ 333 21010 47013 88707
AAXX 20061 22619 11481 71903 10008 21003 39859 40019 53008 60012 72682 87500 333 20002 44005 87616
AAXX 20061 22721 11497 81702 10008 21000 39942 40043 52006 60022 78582 889// 333 20004 43027 88916
AAXX 20061 22802 11565 82005 10024 20005 30009 40032 53014 60022 78082 889// 333 20017 91011 91112
AAXX 20061 22820 11957 82105 10002 21009 39924 40063 52004 60032 77172 8802/ 333 20001 47006 91011 91111
AAXX 20061 26059 11697 82006 10037 21009 30051 40076 52014 60032 70282 885// 333 20010 88633 91112
AAXX 20061 26063 11497 82106 10027 21003 30071 40079 52014 69942 72162 885// 333 20017 88613 91113
AAXX 20061 26094 32580 61905 10016 21046 30056 40133 52013 86500 333 20014 42001 86627 91116
AAXX 20061 26157 32597 71911 10030 21002 30045 40094 52016 87500 333 20024 87630 91015 91118
AAXX 20061 26167 12969 42006 10013 21032 30009 40122 52014 69902 84030 333 20009 91114
AAXX 20061 26258 32598 72103 10018 21019 30079 40134 52007 86530 333 20015
AAXX 20061 26298 32997 22004 11011 21037 39957 40193 52007 81081 333 21012 47005
AAXX 20061 26359 32999 11704 11010 21042 30029 40166 52008 81040 333 21014 91115
AAXX 20061 26702 31596 72402 10013 21009 30118 40145 58002 71022 87500 333 20011 91003 91105
AAXX 20061 26781 31596 71501 11035 21040 39923 40228 57010 71011 82501 333 21036
AAXX 20061 27208 32297 42005 11017 21039 30036 40218 52008 82101 333 21019 43007
AAXX 20061 27402 32497 71702 11012 21025 30054 40239 51004 83631 333 21016 43003
AAXX 20061 40703 11520 80000 11038 21043 39062 40400 51001 60001 71022 886// 333 34108 70000 88720
AAXX 20061 40712 11/05 92402 11032 21033 38806 40390 53009 60001 74344 333 34113 70000 89/03
AAXX 20061 40729 12960 00000 11004 21050 38457 40366 53009 60001 333 34109 70000
AAXX 20061 40736 12960 70000 10104 20070 30354 40328 55001 60001 87070 333 30102 50121 70000 87359
AAXX 20061 40739 12665 10604 10012 21107 38829 40375 53005 60001 81500 333 30105 70000 81640
AAXX 20061 40743 12970 10806 10008 21229 39233 40404 51010 60001 80001 333 30106 70000
AAXX 20061 40762 12965 01302 10016 21270 38687 40384 51018 60001 333 30114 70000
AAXX 20061 40768 11958 00000 11013 21046 38370 40376 50006 60001 70500 333 30112 70000
AAXX 20061 40769 11950 00000 10004 21040 38415 40356 53007 60001 70500 333 30108 5//// 70000
AAXX 20061 40785 12960 22202 10048 21015 39230 40363 52014 60001 80001 333 30102 5///1 70000 82070
AAXX 20061 40809 12965 01103 11004 21239 38619 40367 51013 60001 333 30113 70000
AAXX 20061 40821 12965 00000 10060 21056 38930 40361 51012 60001 333 30104 50271 70000
AAXX 20061 40831 11950 03302 10092 20036 30240 40248 52019 60001 70500 333 30000 50381 70000
AAXX 20064 NIL
AAXX 20061 51133 11980 01601 11125 21183 39843 40561 52001 69901 70070 333 01000 21179
AAXX 20061 53564 32980 00000 11006 21113 39255 40310 57031 333 00252 21099
AAXX 20061 53959 31957 70000 10060 21042 39823 40278 57034 70500 80002 333 21029
BBXX 44067 20061 99384 70770 46/// /3406 10112 40177 58009 90600
BBXX 41029 20061 99328 70796 46/// /0000 1//// 90600
BBXX 44032 20061 99437 70694 46/30 /2611 10074 40065 55000 90604 22200 00089 10805 70025 333 91214 555 11139 22148
AAXX 20064 88897 46/// /3304 10087 20080 49974 54000
BBXX 46111 20061 99481 71227 46/// /1608 10075 40281 56012 90600 22200 00059
BBXX 46112 20061 99481 71227 46/// /1406 10073 40285 55009 90600
BBXX 41037 20061 99340 70775 46/// /2705 10164 40222 57006 90600 22200 00178 333 91206
AAXX 20064 70133 11556 81713 11022 21039 39909 49916 53026 69951 771// 90553 333 11022 21067 96010 555 92006
AAXX 20064 70174 12566 83503 11139 21161 39749 49998 53015 69931 90553 333 11039 21144 4/074 555 92006
AAXX 20064 70200 12466 80812 11061 21072 39893 49900 51018 69901 90553 333 11017 21067 4/066 555 92006
AAXX 20064 70219 32966 01618 11033 21050 39898 49954 51015 90553 555 92006
AAXX 20064 70231 35566 80000 11106 21117 39871 40002 51016 90553 333 10000 21111 555 92006
AAXX 20064 70261 32466 60000 11122 21133 39838 40015 51010 90553 333 11011 21150 555 92006
AAXX 20064 70267 32666 61705 11083 21083 39540 40026 53005 90553 333 11028 21089 555 92006
AAXX 20064 70271 32966 82903 11106 21122 39428 40021 52005 90553 333 10011 21111 555 92006
AAXX 20064 70273 11558 83407 11011 21056 39936 49995 53013 69901 771// 90553 333 10028 21011 4/041 555 92006
AAXX 20064 70316 35666 61312 10022 21017 39921 49956 58031 90553 333 10022 21067 555 92006
AAXX 20064 70326 12566 41807 11039 21050 30001 40015 51024 69901 90554 333 10011 21050 4/008 555 92006
AAXX 20064 70340 11566 22710 10000 21033 39955 40016 53049 60031 710// 90553 333 10028 21006 555 92006
AAXX 20064 70350 32566 40000 10006 21072 30003 40044 51034 90553 333 10028 21028 555 92006
AAXX 20064 70361 35666 20000 11017 21022 30029 40040 53030 90553 333 10044 21022 555 92006
AAXX 20064 70381 11458 80000 10011 20011 30004 40012 53036 69951 761// 90553 333 10033 20006 96010 555 92006
AAXX 20064 70414 35666 22807 11033 21094 39900 49936 51015 90556 555 92006
AAXX 20063 87007 11465 71805 10070 20049 36748 47152 58009 60061 71562 87800 333 56000 84618 83820
AAXX 20063 87148 32970 00505 10243 20115 39946 40050 58001
AAXX 20064 78526 12566 40708 10250 20167 30153 40175 58013 69901 90556 333 10256 20233 555 92006
AAXX 20064 78543 15666 40405 10244 20167 30092 40173 58009 69901 90553 333 10256 20239 555 92006
AAXX 20061 26997 31950 80902 11005 21014 39998 40223 57015 71022 8807/ 333 21010
AAXX 20061 27595 11598 81503 11108 21128 30251 40411 58006 69940 70272 885// 333 21116
AAXX 20061 27612 32997 82001 11005 21029 30072 40270 57004 8805/ 333 21005 43005
AAXX 20061 27707 31950 81402 11029 21036 39946 40248 57017 71011 80009 333 21029 42004
AAXX 20061 27719 31496 80803 11030 21037 30018 40278 57017 71022 8572/ 333 21030 43002
AAXX 20061 27786 11497 81204 11102 21122 30232 40405 58010 60010 77172 885// 333 21121 88613
AAXX 20061 27857 31996 81303 11063 21079 30154 40326 57007 77172 8802/ 333 21054
AAXX 20061 27906 11495 80805 11009 21016 39996 40244 57022 69902 78522 883// 333 21011
AAXX 20061 27928 31496 81103 11009 21013 30046 40258 57019 77172 885// 333 21037 42003
AAXX 20061 27947 31497 81105 11042 21058 30141 40308 56010 77172 8872/ 333 21043 47008 88711
AAXX 20061 27962 11597 81206 11080 21103 40365 57013 69900 77177 885// 333 21090 88620
AAXX 20061 27983 11397 81203 11105 21118 30279 40418 58005 60030 77172 8872/ 333 21116 88709
AAXX 20061 27995 11498 81002 11090 21115 40430 57002 69970 70287 8872/ 333 21107
AAXX 20061 28506 12997 81803 11087 21130 30216 40437 52007 60010 8807/ 333 21099
AAXX 20061 28704 11498 81706 11098 21129 30330 40434 58003 60020 70232 8802/ 333 21109 88517
AAXX 20061 28711 31698 81707 11098 21140 30058 40460 52018 73632 8555/ 333 21111 85640 91012 91112
AAXX 20061 28807 11/94 81505 11087 21130 30389 40445 52004 69900 77172 333 21102
AAXX 20061 34009 11395 81003 11005 21011 39909 40221 57027 60012 78582 889// 333 21007 43997 93400
AAXX 20061 34110 11489 81304 10000 21003 39961 40245 57009 69902 70272 886// 333 21032 88712
AAXX 20061 34123 11458 81005 11012 21022 30072 40261 56013 69990 78582 889// 333 21020 47001
AAXX 20061 34152 11498 81105 11056 21070 30113 40319 57009 60010 70282 889// 333 21049 88914 93400
AAXX 20061 34163 11498 80806 11098 21110 40361 57019 60020 70288 885// 333 88620
AAXX 20061 34171 31460 81206 11094 21110 30164 40370 57009 60040 70272 886// 333 21086 88716
AAXX 20061 34186 11998 81507 11094 21129 30253 40401 57006 69970 73673 8802/ 333 21112
AAXX 20061 34247 11350 81204 11014 21019 30163 40280 57009 60010 71072 885// 333 21010 85709
AAXX 20061 34336 11460 81203 10003 20000 30158 40265 57014 60020 70282 8272/ 333 20001
AAXX 20061 34391 32597 71605 11080 21102 30358 40391 57018 87500 333 21101 87624
AAXX 20061 35011 32999 81204 11080 21154 40480 53006 8802/ 333 21115
AAXX 20061 35121 32998 81803 11110 21161 30365 40524 53006 8802/ 333 21136
AAXX 20064 NIL
AAXX 20061 40703 11520 80000 11038 21043 39062 40400 51001 60001 71022 886// 333 34108 70000 88720
AAXX 20061 40712 11/05 92402 11032 21033 38806 40390 53009 60001 74344 333 34113 70000 89/03
AAXX 20061 40729 12960 00000 11004 21050 38457 40366 53009 60001 333 34109 70000
AAXX 20061 40736 12960 70000 10104 20070 30354 40328 55001 60001 87070 333 30102 50121 70000 87359
AAXX 20061 40739 12665 10604 10012 21107 38829 40375 53005 60001 81500 333 30105 70000 81640
AAXX 20061 40743 12970 10806 10008 21229 39233 40404 51010 60001 80001 333 30106 70000
AAXX 20061 40762 12965 01302 10016 21270 38687 40384 51018 60001 333 30114 70000
AAXX 20061 40768 11958 00000 11013 21046 38370 40376 50006 60001 70500 333 30112 70000
AAXX 20061 40769 11950 00000 10004 21040 38415 40356 53007 60001 70500 333 30108 5//// 70000
AAXX 20061 40785 12960 22202 10048 21015 39230 40363 52014 60001 80001 333 30102 5///1 70000 82070
AAXX 20061 40809 12965 01103 11004 21239 38619 40367 51013 60001 333 30113 70000
AAXX 20061 40821 12965 00000 10060 21056 38930 40361 51012 60001 333 30104 50271 70000
AAXX 20061 40831 11950 03302 10092 20036 30240 40248 52019 60001 70500 333 30000 50381 70000
AAXX 20061 28676 32997 61702 11194 21235 30374 40516 57003 83031 333 21231
AAXX 20061 28766 31996 72204 11166 21192 30312 40521 54000 71011 87030 333 21226
AAXX 20061 28867 32998 52305 11194 21227 30255 40557 58003 80002 333 21242
AAXX 20061 28879 32997 52203 11137 21191 30232 40545 58001 80001 333 21196
AAXX 20061 28952 32999 61805 11175 21201 30349 40561 53005 80001 333 21201
AAXX 20061 28966 32998 31804 11220 21248 30266 40586 58008 80001 333 21279
AAXX 20061 29802 32997 02404 11197 21232 30348 40507 52010 333 21213
AAXX 20061 29807 32997 02602 11191 21223 30388 40519 58001 333 21213
AAXX 20061 34691 NIL
AAXX 20061 35067 32998 22102 11206 21236 30289 40599 58001 80005 333 21296
AAXX 20061 35078 32998 42402 11236 21265 30171 40601 54000 80002 333 21290
AAXX 20061 35085 32998 20000 11208 21253 30049 40582 52006 80001 333 21273
AAXX 20061 35108 31597 82005 11088 21150 30403 40452 55006 73633 885// 333 21111
AAXX 20061 35188 32998 02601 11225 21257 30108 40599 57003 333 21265
AAXX 20061 35217 31998 71510 11100 21143 30425 40467 57004 73632 87010 333 21129
AAXX 20061 35229 32998 81602 11142 21162 30260 40559 58004 8807/ 333 21209
AAXX 20061 35302 32998 61707 11096 21144 30416 40437 57003 80008 333 21124
AAXX 20061 35357 32997 02001 11239 21264 30116 40611 52005 333 21319
AAXX 20061 35394 32998 02201 11212 21243 39844 40603 52006 333 21265
AAXX 20061 35406 31597 81516 11090 21153 30445 40447 57006 73633 885// 333 21118
AAXX 20061 35416 31997 81407 11114 21184 30381 40511 58005 73631 8801/ 333 21169
AAXX 20061 35426 32999 80903 11152 21196 30247 40568 52001 83037 333 21219
AAXX 20061 35497 32998 10000 11179 21214 39713 40594 52007 80001 333 21263
AAXX 20061 35532 31998 71112 11140 21183 30021 40556 52022 73631 80003 333 21193 91016
AAXX 20061 35671 32998 03302 11218 21249 30132 40617 52004 333 21277
AAXX 20061 35700 32998 81108 11088 21160 30459 40434 57001 82035 333 21121 91118
AAXX 20061 35746 32998 03403 11224 21256 30518 40593 52011 333 21250
AAXX 20061 35796 32998 00403 11236 21272 30109 40602 52005 333 21259
AAXX 20061 35849 32998 00703 11178 21219 30479 40576 54000 333 21215
AAXX 20061 35925 32998 51607 11148 21175 40517 53006 80002 333 21177
AAXX 20061 35953 32999 00704 11188 21229 30436 40581 52009 333 21196
AAXX 20061 35969 32999 00704 11226 21266 30388 40485 58001 333 21266
AAXX 20061 36003 32999 22703 11167 21207 30367 40534 52004 80001 333 21188
AAXX 20061 36152 32598 72502 11142 21199 30346 40551 52003 87500 333 21200
AAXX 20061 36177 11996 81204 11198 21222 30300 40574 52002 69950 77177 8802/ 333 21283
AAXX 20061 36208 32999 22701 11234 21262 39481 40578 52008 80002 333 21313
AAXX 20061 36397 31999 50000 11198 21242 39954 40578 51001 77622 82041 333 21266
AAXX 20061 36428 32999 00202 11217 21239 30020 40578 51004 333 21290 95000
AAXX 20061 36535 32999 00000 11263 21301 39879 40598 52011 333 21351
AAXX 20061 36639 32999 00000 11214 21251 39901 40576 52006 333 21323
AAXX 20061 36821 32999 00000 11188 21221 30034 40578 52003 333 21263
AAXX 20061 36859 32999 80000 11106 21150 39691 40467 52004 8807/ 333 21138
AAXX 20061 36864 32598 51102 11162 21212 39568 40549 52003 83731 333 21200
AAXX 20061 36870 32597 70301 11148 21192 39432 40537 52004 82932 333 21175
AAXX 20061 38001 32997 30214 11006 21066 30366 40336 53003 83030 333 21027 91014 91019
AAXX 20061 38062 32999 00504 11202 21260 30380 40564 52002 333 21228
AAXX 20061 38069 32998 03101 11138 21190 30320 40527 52002 333 21189
AAXX 20061 38196 31996 03407 11117 21218 39444 40502 51001 73833 333 21165 91016 91118
AAXX 20061 38198 31993 02701 11143 21178 30232 40517 58001 74440 333 21205
AAXX 20061 38222 32998 82002 11227 21259 39944 40577 52006 80003 333 21279
AAXX 20061 38232 32998 71208 11059 21136 30340 40445 57010 80006 333 21089
AAXX 20061 38328 32998 00901 11103 21156 39696 40482 53009 333 21177
AAXX 20061 38334 11997 00604 11178 21219 39401 40460 57011 69940 70230 333 21215
AAXX 20061 38341 11996 00000 11216 21241 39682 40570 58003 69900 71000 333 21300
AAXX 20061 38343 32998 80000 11192 21211 39617 40559 52005 8801/ 333 21260
AAXX 20061 38439 32998 23101 11130 21175 30129 40500 52009 81041 333 21170
AAXX 20061 51431 11975 72702 11113 21157 39660 40528 54000 69901 70070 80002 333 00852 21121
AAXX 20061 51747 11962 81401 11065 21094 39042 40416 52017 69901 77070 8802/ 333 00854 21145
AAXX 20061 52418 32962 70707 11037 21169 38966 40365 52017 80002 333 00401 21132
AAXX 20061 52681 32980 63403 11039 21128 38693 40337 57023 80002 333 00200 21147
AAXX 20061 53798 31958 71101 10034 21071 30174 40274 57041 70400 8703/ 333 21031
AAXX 20061 54423 32980 11402 11015 21195 39740 40283 57041 80002 333 21161
AAXX 20061 54618 32962 71101 10035 21049 30249 40267 57036 8703/ 333 21028
AAXX 20061 52203 32980 13403 11042 21161 39466 40409 54000 80002 333 00601 21159
AAXX 20061 22271 31496 81808 11006 21027 30036 40046 53001 78583 883// 333 21027
AAXX 20061 22520 NIL
AAXX 20061 22550 11459 81904 10011 21006 30063 40073 53007 60010 78082 889// 333 21008 88916
AAXX 20061 22583 11458 71602 11015 21026 30059 40140 57004 69920 78582 8697/ 333 21046
AAXX 20061 22768 32697 81807 10018 20002 30102 40159 52006 885// 333 21003 91113
AAXX 20061 22845 NIL
AAXX 20061 22887 11699 81705 11002 21029 30157 40228 52004 69960 72682 84531 333 21042 91111
AAXX 20061 23205 NIL
AAXX 20061 23219 NIL
AAXX 20061 23418 NIL
AAXX 20061 23606 11462 81905 11064 21083 30059 40238 52002 69930 72272 885// 333 21071 88611
AAXX 20061 23711 11598 81804 11078 21109 30107 40289 53010 69920 72682 889// 333 21083
AAXX 20061 23804 11498 82005 11054 21072 30114 40268 52006 69920 73673 885// 333 21071 88611
AAXX 20061 27037 12598 71905 11002 21033 30053 40217 52008 69930 87500 333 20006 87623
AAXX 20061 27199 11559 81802 11096 21108 30153 40363 58001 69920 77173 8652/ 333 21096
AAXX 20061 27271 12597 71605 11015 21029 30149 40309 52007 69900 87500 333 21047
AAXX 20061 27459 32398 81604 11048 21058 30130 40335 58002 886// 333 21032 88709
AAXX 20061 27730 31496 81202 11032 21031 30092 40292 57018 71022 885// 333 21044 47004 88611
AAXX 20061 38598 41596 82502 11085 21117 40480 52007 77172 8872/
AAXX 20061 38599 NIL
AAXX 20061 38725 41691 50903 11107 21249 48570 52032 70282 82501
AAXX 20061 38734 NIL
AAXX 20061 38744 42697 82202 11108 21170 38076 48610 52015 8695/
AAXX 20061 38836 11595 80000 11050 21078 39455 40457 52020 60120 78588 889// 333 21065
AAXX 20061 38838 41496 80000 11051 21076 39725 40442 52030 78582 889//
AAXX 20061 38844 NIL
AAXX 20061 38846 NIL
AAXX 20061 38847 NIL
AAXX 20061 38932 NIL
AAXX 20061 38933 11986 81402 11038 21128 39931 40483 52033 60020 71072 8805/ 333 31046
AAXX 20061 38944 12997 31308 11024 21046 39733 40295 52003 69900 83030 333 21041
AAXX 20061 38954 32899 72701 11065 21234 37963 48570 52018 81501 333 21060
AAXX 20061 57265 32961 81102 10086 21010 30154 40268 57037 8807/ 333 20031
AAXX 20061 57494 32965 70201 10101 20012 30227 40257 57032 8703/ 333 20024
AAXX 20061 58362 11480 80904 10108 20040 30241 40249 57025 69901 76060 8277/ 333 20034
AAXX 20061 56778 32970 02005 10165 20018 38101 57035 333 00001 20018
AAXX 20061 58102 32961 73601 10075 21031 30223 40273 57031 87040 333 21025
AAXX 20061 58150 32560 71103 10088 20022 30263 40267 57029 8554/ 333 21002
AAXX 20061 58221 31658 21101 10090 20023 30230 40259 57032 70500 82500 333 21001
AAXX 20061 58238 31950 80903 10086 20028 30207 40253 57026 70500 8807/ 333 20035
AAXX 20061 58251 11530 80703 10071 20041 30256 40261 57026 69901 76060 885// 333 20011
AAXX 20061 58606 31957 50401 10140 20013 30183 40242 57030 70500 85040 333 20057
AAXX 20061 58752 32665 81102 10161 20076 30184 40230 57038 885// 333 20097
AAXX 20061 58847 32673 73601 10175 20067 30109 40211 57040 875// 333 20124
AAXX 20061 59287 32668 70202 10212 20081 30102 40188 57033 85542 333 20096
AAXX 20061 59758 32466 70405 10193 20126 30101 40177 57026 878// 333 20171
AAXX 20061 38598 41596 82502 11085 21117 40480 52007 77172 8872/
AAXX 20061 38599 NIL
AAXX 20061 38725 41691 50903 11107 21249 48570 52032 70282 82501
AAXX 20061 38734 NIL
AAXX 20061 38744 42697 82202 11108 21170 38076 48610 52015 8695/
AAXX 20061 38836 11595 80000 11050 21078 39455 40457 52020 60120 78588 889// 333 21065
AAXX 20061 38838 41496 80000 11051 21076 39725 40442 52030 78582 889//
AAXX 20061 38844 NIL
AAXX 20061 38846 NIL
AAXX 20061 38847 NIL
AAXX 20061 38932 NIL
AAXX 20061 38933 11986 81402 11038 21128 39931 40483 52033 60020 71072 8805/ 333 31046
AAXX 20061 38944 12997 31308 11024 21046 39733 40295 52003 69900 83030 333 21041
AAXX 20061 38954 32899 72701 11065 21234 37963 48570 52018 81501 333 21060
AAXX 20061 28676 32997 61702 11194 21235 30374 40516 57003 83031 333 21231
AAXX 20061 28766 31996 72204 11166 21192 30312 40521 54000 71011 87030 333 21226
AAXX 20061 28867 32998 52305 11194 21227 30255 40557 58003 80002 333 21242
AAXX 20061 28879 32997 52203 11137 21191 30232 40545 58001 80001 333 21196
AAXX 20061 28952 32999 61805 11175 21201 30349 40561 53005 80001 333 21201
AAXX 20061 28966 32998 31804 11220 21248 30266 40586 58008 80001 333 21279
AAXX 20061 29802 32997 02404 11197 21232 30348 40507 52010 333 21213
AAXX 20061 29807 32997 02602 11191 21223 30388 40519 58001 333 21213
AAXX 20061 34691 NIL
AAXX 20061 35067 32998 22102 11206 21236 30289 40599 58001 80005 333 21296
AAXX 20061 35078 32998 42402 11236 21265 30171 40601 54000 80002 333 21290
AAXX 20061 35085 32998 20000 11208 21253 30049 40582 52006 80001 333 21273
AAXX 20061 35108 31597 82005 11088 21150 30403 40452 55006 73633 885// 333 21111
AAXX 20061 35188 32998 02601 11225 21257 30108 40599 57003 333 21265
AAXX 20061 35217 31998 71510 11100 21143 30425 40467 57004 73632 87010 333 21129
AAXX 20061 35229 32998 81602 11142 21162 30260 40559 58004 8807/ 333 21209
AAXX 20061 35302 32998 61707 11096 21144 30416 40437 57003 80008 333 21124
AAXX 20061 35357 32997 02001 11239 21264 30116 40611 52005 333 21319
AAXX 20061 35394 32998 02201 11212 21243 39844 40603 52006 333 21265
AAXX 20061 35406 31597 81516 11090 21153 30445 40447 57006 73633 885// 333 21118
AAXX 20061 35416 31997 81407 11114 21184 30381 40511 58005 73631 8801/ 333 21169
AAXX 20061 35426 32999 80903 11152 21196 30247 40568 52001 83037 333 21219
AAXX 20061 35497 32998 10000 11179 21214 39713 40594 52007 80001 333 21263
AAXX 20061 35532 31998 71112 11140 21183 30021 40556 52022 73631 80003 333 21193 91016
AAXX 20061 35671 32998 03302 11218 21249 30132 40617 52004 333 21277
AAXX 20061 35700 32998 81108 11088 21160 30459 40434 57001 82035 333 21121 91118
AAXX 20061 35746 32998 03403 11224 21256 30518 40593 52011 333 21250
AAXX 20061 35796 32998 00403 11236 21272 30109 40602 52005 333 21259
AAXX 20061 35849 32998 00703 11178 21219 30479 40576 54000 333 21215
AAXX 20061 35925 32998 51607 11148 21175 40517 53006 80002 333 21177
AAXX 20061 35953 32999 00704 11188 21229 30436 40581 52009 333 21196
AAXX 20061 35969 32999 00704 11226 21266 30388 40485 58001 333 21266
AAXX 20061 36003 32999 22703 11167 21207 30367 40534 52004 80001 333 21188
AAXX 20061 36152 32598 72502 11142 21199 30346 40551 52003 87500 333 21200
AAXX 20061 36177 11996 81204 11198 21222 30300 40574 52002 69950 77177 8802/ 333 21283
AAXX 20061 36208 32999 22701 11234 21262 39481 40578 52008 80002 333 21313
AAXX 20061 36397 31999 50000 11198 21242 39954 40578 51001 77622 82041 333 21266
AAXX 20061 36428 32999 00202 11217 21239 30020 40578 51004 333 21290 95000
AAXX 20061 36535 32999 00000 11263 21301 39879 40598 52011 333 21351
AAXX 20061 36639 32999 00000 11214 21251 39901 40576 52006 333 21323
AAXX 20061 36821 32999 00000 11188 21221 30034 40578 52003 333 21263
AAXX 20061 36859 32999 80000 11106 21150 39691 40467 52004 8807/ 333 21138
AAXX 20061 36864 32598 51102 11162 21212 39568 40549 52003 83731 333 21200
AAXX 20061 36870 32597 70301 11148 21192 39432 40537 52004 82932 333 21175
AAXX 20061 38001 32997 30214 11006 21066 30366 40336 53003 83030 333 21027 91014 91019
AAXX 20061 38062 32999 00504 11202 21260 30380 40564 52002 333 21228
AAXX 20061 38069 32998 03101 11138 21190 30320 40527 52002 333 21189
AAXX 20061 38196 31996 03407 11117 21218 39444 40502 51001 73833 333 21165 91016 91118
AAXX 20061 38198 31993 02701 11143 21178 30232 40517 58001 74440 333 21205
AAXX 20061 38222 32998 82002 11227 21259 39944 40577 52006 80003 333 21279
AAXX 20061 38232 32998 71208 11059 21136 30340 40445 57010 80006 333 21089
AAXX 20061 38328 32998 00901 11103 21156 39696 40482 53009 333 21177
AAXX 20061 38334 11997 00604 11178 21219 39401 40460 57011 69940 70230 333 21215
AAXX 20061 38341 11996 00000 11216 21241 39682 40570 58003 69900 71000 333 21300
AAXX 20061 38343 32998 80000 11192 21211 39617 40559 52005 8801/ 333 21260
AAXX 20061 38439 32998 23101 11130 21175 30129 40500 52009 81041 333 21170
AAXX 20064 91165 32566 40621 10233 20178 30165 40199 53023 90553 333 91025 555 92006
AAXX 20064 91182 32566 40508 10244 20172 30181 40185 51024 90553 555 92006
AAXX 20064 91190 32766 60512 10233 20167 30175 40194 51027 90554 555 92006
AAXX 20064 91212 12566 40714 10289 20244 31346 40084 56015 69901 90554 333 10311 20272 555 92006
AAXX 20064 91285 11566 80000 10211 20000 30171 40184 53017 60261 761// 90553 555 92006
AAXX 2006/ 41858 NIL
AAXX 2006/ 41863 NIL
AAXX 2006/ 41886 NIL
AAXX 2006/ 41895 NIL
AAXX 2006/ 41909 NIL
AAXX 2006/ 41915 NIL
AAXX 2006/ 41926 NIL
AAXX 2006/ 41929 NIL
AAXX 2006/ 41933 NIL
AAXX 2006/ 41939 NIL
AAXX 2006/ 41941 NIL
AAXX 2006/ 41946 NIL
AAXX 2006/ 41947 NIL
AAXX 2006/ 41951 NIL
AAXX 2006/ 41953 NIL
AAXX 2006/ 41958 NIL
AAXX 2006/ 41960 NIL
AAXX 2006/ 41963 NIL
AAXX 2006/ 41964 NIL
AAXX 2006/ 41965 NIL
AAXX 2006/ 41966 NIL
AAXX 2006/ 41984 NIL
AAXX 2006/ 41989 NIL
AAXX 2006/ 41998 NIL
BBXX DCHO 20064 99172 50381 41/98 50810 10240 20188 40140 58020 70322 8//// 22224 00260 2//// 80205
BBXX SHJC 20061 99212 11180 43/97 80315 10212 40157 58043 22254 01250 2//// 4////
BBXX SMGW 20061 99351 11593 43/98 22907 10134 40143 53002 22224 00199 20504 40705
BBXX SBLI 20061 99300 11752 43/98 62310 10221 40161 53005 22264 00215 2//// 4//// NNNN 426621110
BBXX 9V8797 20064 99111 10737 43/97 40111 10284 40120 52012 22234 00287 2//// 4////
BBXX DGWE2 20063 99192 11122 41398 80530 10205 20182 40140 58020 70022 887// 22213 00250 21207 399// 41006 80190
BBXX MNYF6 20064 99057 10858 41597 80506 10260 20246 40128 53004 70280 8779/ 22223 00290 20301 309// 40403 5//// 80250
BBXX V2BE4 20061 99175 11419 41698 40909 10295 20238 40095 57018 70300 84470 22244 04290 20504 80255
BBXX VRAE3 20064 99073 11155 41497 50719 10300 20257 40075 53002 70301 83775 22214 00300 20303 305// 40503 5//// 80269
BBXX DQXQ 20064 99376 11654 41597 63325 10120 20043 40110 51017 70322 86100 22224 00160 20504 329// 41006 80082
BBXX VSJG7 20064 99533 11667 43/95 ///// 1//// 2//// 4//// 5//// 7//// 8//// 22211 0//// 2//// 3//// 4//// 5//// 6//// ICE /////
BBXX VRHO2 20064 99329 11351 41998 43019 10120 20038 40200 57030 70200 81181 22254 00220 20301 303// 40603 50000 6/00/ 80080 ICE /////
BBXX C6SI3 20063 99457 11727 41898 62719 10030 2001/ 40030 53010 70211 86465 22213 0//// 20303 326// 4//// 5//// 6//// 80020 ICE /////
BBXX MGRX9 20064 99063 10791 41397 80720 10270 20234 40095 52005 72588 897// 22233 00260 20306 3//// 4//// 5//// 80245
BBXX V7FS3 20063 99188 10701 41396 40310 10290 20240 40150 52010 70000 84700 22234 00260 20301 3//// 4//// 5//// 80255
BBXX A8UU2 20064 99138 11198 41398 60512 10270 20249 40060 54000 7//11 8/774 22283 04300 20504 80255
BBXX DCDO2 20063 99127 11284 41698 60717 10290 20263 40080 56010 70322 86464 22274 00290 20302 304// 40804 5//// 80270
BBXX PHOB 20064 99050 10814 41398 83517 10265 20258 40083 50005 75085 847// 22222 00270 2//04 3//// 4//// 5//// 80260
BBXX OZ2049 20060 99622 70093 42/98 22517 10065 49985
BBXX WKAB 20064 99375 10106 41/98 83321 10105 20076 40201 52008 75052 8//// 22224 00164 2//// 3//// 4//// 5//// 6//// 80090 ICE /////
BBXX DPLE 20063 99530 10043 41/98 83125 10085 20055 40035 57015 70286 8//// 22214 00090 20505 80070
BBXX EIPT 20064 99548 70058 41/97 52916 10080 20038 40137 52015 70222 8//// 22200 20201 3//// 4//// 5//// 80060
BBXX MGSG6 20063 99602 70000 41297 73332 10070 20021 49975 54000 70222 8677/ 22243 04170 20401 333// 40502 5//// 80050
BBXX 62023 20063 99514 70079 46/96 /2914 10100 2//// 40205 5//// 22200 10504 70018 555 70029 81012
BBXX 62087 20061 99547 10068 46/// /3402 10065 20053 4//// 5//// 22270 00082
BBXX C6CL6 20064 99489 70063 41498 83219 0/// 10120 2008/ 40200 52040 70322 8872/ 22263 00100 2//// 3//// 4//// 5//// 6//// 80100 0/0/0
BBXX LMEL 20061 99603 10053 43/// /1301 11010 21023 40005 5//// 222/0 04090 1//// 3//// 4//// 5////
BBXX LDGJ 20061 99603 10053 43/// /1601 10000 21026 40008 5//// 222/0 04088 1//// 3//// 4//// 5////
BBXX LAHV 20061 99589 10057 43/// /0903 10016 21034 40008 222// 04075 1////
BBXX LF4H 20064 99596 10022 46/98 11614 10056 20032 49980 57002 8//// 22200 06082 10502 70012 333 91118
BBXX C6IO9 20064 99396 70118 41898 30411 10144 20094 40313 53010 70100 8/065 22243 06157 20801 333// 40503 5//// 80188
BBXX PJKV 20063 99327 70346 41/98 41322 10205 20155 40238 57024 70222 8//// 22254 20603 309// 41003 5//// 80175
BBXX TFSTD 20064 99664 70234 46/// ///// 22200 10708 70039
BBXX TFDRN 20064 99658 70212 46/// ///// 22200 10402 70011
BBXX TFGRS 20064 99663 70182 46/// ///// 22200 10603 70013
BBXX TFGRV 20064 99638 70225 46/// ///// 22200 10808 70038
BBXX TFBKF 20064 99635 70202 46/// ///// 22200 10807 70036
BBXX TFBLK 20064 99657 70248 46/// ///// 22200 10913 70063
BBXX TFGSK 20064 99641 70229 46/// ///// 22200 10913 70064
BBXX TFSRT 20064 99633 70203 46/// ///// 22200 10911 70057
BBXX TFHFN 20064 99642 70152 46/// ///// 22200 10805 70023
BBXX TFKGR 20064 99657 70136 46/// ///// 22200 10503 70013
BBXX NWS0020 20064 99342 70192 43/// /0813 10168 20107 40286 5//// 7//// 8//// 222// 04196 2//// 3//// 4//// 5//// 6//// 8//// ICE /////
BBXX PJFF 20064 99363 70252 41/97 62905 10175 20134 40308 54000 70022 8//// 22254 20300 30000 80150
BBXX UCAB 20061 99665 10078 41/98 92003 10060 49924 52004 70011 8//// 22253 00100 20402
BBXX UGGA 20061 99693 10430 41/98 92012 10035 49998 57030 70222 89/// 22241 20706
BBXX UCAC 20061 99713 10208 41/98 60614 10045 49984 54000 70222 89/// 22213 00090 20808
BBXX C6KD7 20063 99342 70336 41598 41423 10195 20170 40246 54000 70211 83141 22214 02195 20705 311// 41105 5//// 80180
BBXX OWFD2 20061 99323 70342 41/97 /1010 10210 20192 40240 55010 700// 8//// 22254 04210 2//// 80198
BBXX MSTM6 20063 99453 70085 41/98 22512 10135 20116 40257 51020 70200 8//// 22254 00136 20202 80125
BBXX DILE 20063 99476 70283 41/98 /2033 10133 20124 40208 52005 7//22 8//// 22224 2//// 80128
BBXX PFDH 20061 99365 70091 41998 00212 10158 20106 40292 58011 70200 80000 22234 00180 2//// 80128
BBXX ONAR 20063 99337 30438 41598 40919 10240 2020/ 40200 54000 78062 8348/ 22263 00210 21205 306// 4//// 5//// 6//// 80210 ICE /////
BBXX SERW 20063 99280 70153 43/98 70213 10184 2//// 40221 58008 70222 8//// 22200 06200 2//// 3//// 4////
BBXX WDE8264 20063 99182 10400 41798 71705 10270 20243 40170 52/// 7//22 87276 22234 00220 20802 314// 41502 5//// 6//// 80205 ICE /////
BBXX A8QJ7 20064 99108 70242 41/98 10711 10255 20202 40112 58013 7//00 81/00 22213 2//// 3//// 4//// 5//// 80220
BBXX A8UU3 20064 99290 70345 41998 01319 10220 20158 40260 51010 70100 80000 22233 2//04 80180
BBXX PHKL 20061 99263 10350 41997 02604 10275 20182 40163 52013 70100 80000 22273 00235 20100 3//// 4//// 5//// 80212
BBXX A8RL4 20064 99004 70099 41/97 /1710 10240 40110 57017 7//// 8//// 22233 00280 20301 299// 80235
BBXX PHQW 20063 99132 70177 419// 00312 10241 20173 40102 53002 7//00 80000 22283 00251 2//// 80196 90553
BBXX UBQE6 20061 99256 70165 41998 00506 10140 2//// 40150 56004 70200 80000 22283 00015 29999 39999 49999 59999
BBXX DEIR 20063 99261 30525 41498 40322 10265 20230 40125 53/// 70200 8426/ 22224 20903 80240
BBXX 2BLY2 20063 99162 70235 41/97 /0321 10230 40129 58010 702// 8//// 22284 04240 20603 304// 40802 5////
BBXX PCSV 20063 99134 30635 41398 41310 10270 20254 40116 52010 70311 821/6 22253 04281 20602 314// 41403 80258 90553
BBXX DGZT2 20063 99140 10561 41598 50235 10265 20192 40170 51015 70322 83144 22265 04260 21005 307// 41006 80215
BBXX UBAU 20061 99158 70169 41598 60410 10260 40151 57002 70222 85570 22211 04235 20402
BBXX A8HR7 20060 99035 70278 41598 60904 10255 20234 40105 58/// 70362 8357/ 22214 20502 80240
BBXX 44255 20061 99473 70573 46/// /1603 11025 40057 57031 22200 00039 11101 70007 333 91205
BBXX 44150 20061 99425 70640 46/// /2614 10096 40079 57052 22200 00108 10706 70030 333 91217
BBXX 44139 20061 99442 70571 46/// /3007 10011 40104 57006 22200 00095 10805 70025 333 91210
BBXX SBLW 20063 99116 70771 43/98 30628 10267 40128 58014 22254 00277 2//// 4////
BBXX WNBE 20064 99209 71564 41498 20730 10230 2//// 40180 54000 75051 821// 22222 0//// 2//// 3//// 4//// 5//// 6//// 8//// ICE /////
BBXX 46110 20061 99481 71230 46/// /0901 10074 40277 90531
BBXX 41038 20061 99341 70777 46/// /2403 10142 40236 56015 90600 22200 00139 333 91203
BBXX A8NQ5 20063 99504 70416 41293 53314 10060 20002 49940 55040 74866 85722 22254 04070 21004 80035
BBXX PBWQ 20064 99224 70723 41/98 /0540 10237 20152 40210 57010 70022 8//// 22234 00267 20409
BBXX C6KJ5 20064 99240 70886 41497 13712 12230 41118 10239 2020/ 40170 52005 70311 83000 22233 00250 80215
BBXX V7DI7 20064 99404 70613 41698 32724 10095 2005/ 40100 57020 70111 832// 22200 0//// 20306 327// 40608 5//// 6//// 80070 ICE /////
BBXX C6FN4 20064 99189 70798 41797 21020 10250 20191 40160 54020 7//11 82200 22274 04270 20204 39999 40102 50000 6//// 80210 ICE /////
BBXX PBKH 20064 99241 71491 41297 60719 10205 20111 40238 54000 70288 8672/ 22224 00240 299// 3//// 40605 5//// 80153
BBXX C6SA3 20064 99181 70640 41/// /0622 10260 20232 40150 54/// 7//// 8//// 22223 00280 2//// 3//// 4//// 5//// 6//// 80240 ICE /////
BBXX SHIP 20064 99413 71635 41697 72024 10120 2006/ 40184 51021 70311 8747/ 22224 00150 20308 319// 40308 5//// 6//// 80090 ICE /////
BBXX C6SE3 20064 99108 70755 41697 80732 10284 20267 40140 54/// 70322 889// 22213 00305 20804 307// 41506 5//// 6//// 80271 ICE /////
BBXX PCBT 20063 99140 70669 41598 30825 10268 20194 40133 58013 70200 82181 22214 20604 306// 40903 80217
BBXX DGDD 20061 99322 71288 41598 72804 10130 20026 40260 57020 70222 8656/ 22234 00200 20401 3//// 4//// 5//// 80080
BBXX 42363 20061 99282 70892 46/// /1406 10222 20167 40180 58013 90600 333 91206
BBXX 42364 20061 99291 70881 46/// /1715 10200 20183 40197 55003 90600
BBXX 41041 20061 99142 70460 46/// /1107 10262 20219 40134 58016 90550 22200 00265 10904 20602 3//// 40903 70019 333 91209 555 11076 22081 30456 41009 60549 106072 108068 104068 105067 103068 097071 81008 90457
BBXX 46053 20061 99342 71198 46/// /3403 10134 40179 51011 90550 22200 00139 11503 327// 41503 70016 333 91203 555 11027 22028 30517 43403 60549 335026 342027 342025 349027 348021 348023
BBXX 46042 20061 99368 71224 46/// /0102 10116 40191 51009 90550 22200 00127 11406 20401 330// 41406 70030 333 91203 555 11020 22020 30507 43506 60549 008019 001028 359038 000041 354046 356044
BBXX 46001 20061 99563 71480 46/// /2408 10042 40087 53021 90550 22200 00049 11206 20603 300// 41205 70029 333 91210 555 11087 22092 30508 42514 60549 242083 240090 241096 245104 242110 230099
BBXX 44022 20061 99409 70737 46/// ///07 10084 20008 40149 57006 90600 22200 00081 333 91209 555 11082 22088
BBXX 44060 20061 99413 70721 46/// ///12 10086 40131 57005 90600 22200 00101 333 91214 555 11129 22139
BBXX NWS0003 20064 99539 71665 43/// /0000 10011 20001 49840 5//// 7//// 8//// 222// 0//// 2//// 3//// 4//// 5//// 6//// 8//// ICE /////
BBXX NWS0029 20064 99335 70590 43/// /3417 10169 20078 40191 5//// 7//// 8//// 222// 04221 2//// 3//// 4//// 5//// 6//// 8//// ICE /////
BBXX PECF 20064 99177 70734 41398 20511 10260 20232 40160 54000 70200 81125 22263 02280 20704 309// 40903 80240
BBXX A8OF6 20063 99326 70373 41598 21423 10220 20175 40190 58030 70111 824// 22254 04210 20404 80190
BBXX UCKZ 20061 99670 30447 41598 83503 11011 21038 49936 54000 70272 885// 22200 01015 2//// ICE 57895
BBXX SLCO 20064 99114 31546 43/96 82916 10247 40050 55012 22244 00280 20303 40604
BBXX SLKR 20063 99108 51290 43/97 21018 10251 40142 52014 22254 00266 2//// 4////
BBXX VNSZ 20064 99378 31449 46/// /1817 10183 20129 30154 40180 57001 22200 04203 85151
BBXX B2M1303 20063 99354 31309 41598 71113 10205 20178 40142 57015 702// 875// 22264 00160 20402 32424 41004 52506 80187
BBXX PCAM 20063 99412 31732 41998 23610 10170 20116 40243 52001 70111 8204/ 22200 20201 80138
BBXX 3ECI3 20064 99391 31737 41998 01414 10175 20121 40210 54000 70200 80000 22253 00170 20201 317// 80145
BBXX SHIP 20064 99104 31057 41/95 81211 10261 20260 40007 76262 222// 0//// 20101 301// 40101 5////
BBXX MGRH9 20063 99325 31627 41598 61112 10200 20149 40173 54000 70311 85884 22233 00192 20101 31519 41003 50802 80170
BBXX A8QR9 20064 99033 11003 41697 704// 10295 20275 40090 5/010 702// 85472 22234 20000 80280
BBXX KAOU 20064 99001 10808 43/// /32// 10255 20238 40081 5//// 7//// 8//// 222// 04289 2//// 3//// 4//// 5//// 6//// 8//// ICE /////
BBXX A8JK4 20064 99074 30822 41297 82616 10250 20236 40075 57015 75052 847// 22214 20402 3//// 4//// 5//// 80240 46379 1473201224
BBXX PHJV 20063 99076 31217 41398 32612 10294 20270 40049 57024 70211 83262 22263 02302 20201 80276
BBXX PFBF 20063 99118 31525 41398 82614 10280 20193 40042 58005 70282 85720 22223 02282 20303 31500 40909 5//// 80220
BBXX PCDE 20063 99395 31391 41297 41103 10185 20136 40200 52010 7//00 83763 22223 2//// 324// 40602 80155
BBXX WE4805 20064 99430 70874 43/99 80422 10022 2//// 40224 50000 70002 88/// 22283 00056 2//// 3//// 4//// 5//// 6//// 8//// ICE /////
BBXX DFFA2 20063 99192 70744 41/98 10830 10270 20213 40165 50000 70161 81400 22214 00270 2//// 399// 4//06 5//// 80230
AAXX 20060 44203 32599 70000 11303 21327 38485 40552 52002 82570
AAXX 20060 44207 32999 63206 11124 21207 38351 40345 52011 82046
AAXX 20060 44212 NIL
AAXX 20060 44213 NIL
AAXX 20060 44215 NIL
AAXX 20060 44218 NIL
AAXX 20060 44225 41998 70000 11278 21296 38378 40608 58003 70272 84041
AAXX 20060 44230 32698 60000 11154 21210 38842 40416 53001 82518
AAXX 20060 44232 NIL
AAXX 20060 44237 NIL
AAXX 20060 44239 NIL
AAXX 20060 44241 41997 81801 11199 21218 39310 40370 57002 77172 8802/
AAXX 20060 44256 NIL
AAXX 20060 44265 NIL
AAXX 20060 44272 32998 70000 11231 21287 38336 40548 58003 85077
AAXX 20060 44275 32998 50000 11114 21187 37770 40388 57003 83044
AAXX 20060 44282 31999 73211 11105 21221 38326 40342 57007 73632 87070
AAXX 20060 44284 32899 70000 11225 21266 37893 40540 56005 85034
AAXX 20060 44285 32699 63407 11094 21184 38347 40335 56006 83542 333 91112
AAXX 20060 44287 32899 41604 11160 21232 38159 40445 58006 81042
AAXX 20060 44294 NIL
AAXX 20060 44298 NIL
AAXX 20060 44302 31999 62708 11198 21244 39113 40312 56006 70231 81048
AAXX 20060 44305 32999 32905 11206 21248 39049 40301 57015 80004
AAXX 20060 44313 NIL
AAXX 20060 44314 NIL
AAXX 20060 44317 32998 22705 11137 21189 38925 40259 57020 80001
AAXX 20060 44336 32999 02604 11117 21185 38731 40373 57014
AAXX 20060 44341 32999 13010 11118 21193 38611 40331 57019 81040 333 91114
AAXX 20060 44347 NIL
AAXX 20060 44352 32999 02709 11190 21216 38908 40306 57013
AAXX 20060 44358 32998 00000 11180 21214 39140 40382 54000
AAXX 20061 40701 11520 80000 11072 21074 38715 40406 53001 60001 71022 8562/ 333 30107 70000 85720 88459
AAXX 20061 40704 12970 33008 10040 21049 38708 40316 54000 60001 80001 333 3/108 42002 70000 83070
AAXX 20061 40708 12960 32010 10050 21007 38766 40317 52005 60001 80002 333 3/104 41999 70000 83069
AAXX 20061 40710 11459 30000 11118 21133 38428 40444 51006 60001 71000 81601 333 3/119 48007 70000 83068
AAXX 20061 40713 11411 80000 11006 21030 38788 40368 51011 60001 71022 886XX 3333 34104 70000 88715
AAXX 20061 40719 11/08 90000 10086 20082 30338 40327 50003 60001 74344 333 31003 50041 70000 89/02
AAXX 20061 40731 11950 01502 10062 21008 38873 40353 52010 60001 70500 333 30105 70000
AAXX 20061 40738 11515 80000 10076 20076 30342 40344 50003 60001 71021 8562/ 333 31105 50101 70000 85720 88457
AAXX 20061 40740 12962 01207 11058 21126 38879 40410 51005 60001 333 3/118 47003 70000
AAXX 20061 40747 12960 00000 11006 21048 38746 40353 51013 60001 333 31109 70000
AAXX 20061 40757 12965 02201 10064 21088 39046 40361 51013 60001 333 30102 70000
AAXX 20061 40763 12968 01203 10008 21168 39073 40401 51011 60001 333 30108 70000
AAXX 20061 40782 12962 01204 10086 21072 38964 40286 51010 60001 333 30104 5//// 70000
AAXX 20061 40783 12965 11010 10030 21059 38074 40297 51008 60001 80001 333 30104 5///1 70000 81070
AAXX 20061 40789 12965 00000 10056 21070 39357 40363 52014 60001 333 30104 50171 70000
AAXX 20061 40798 12960 00000 11028 21123 38067 40378 51012 60001 333 30112 70000
AAXX 20061 40818 12970 03502 10004 21066 38082 40344 51014 60001 333 30107 5///1 70000
AAXX 20061 40827 12970 00107 10090 21194 38948 40352 51012 60001 333 30104 70000
AAXX 20061 40836 12965 00000 10038 21056 38278 40301 52011 60001 333 30108 5///1 70000
AAXX 20061 40851 12965 02704 10058 21063 38349 40287 51009 60001 333 30107 5//// 70000
AAXX 20061 40853 12965 00306 10054 21110 37800 40243 52011 60001 333 30104 5//// 70000
AAXX 20061 40854 12960 02904 10104 21085 39073 40301 52023 60001 333 30001 50351 70000
AAXX 20061 40857 12960 00000 10162 20083 30228 40238 52023 60001 222// 00174 20000 333 30007 50151 70000
AAXX 20061 40859 12962 02603 10112 21054 38790 40239 51016 60001 333 30104 50261 70000
AAXX 20061 40878 12965 00106 10102 21215 38914 40302 51012 60001 333 30002 50751 70000
AAXX 20061 40879 12960 03302 10162 21403 39576 40266 51009 60001 333 30004 50481 70000
AAXX 20061 40883 11956 00609 10222 21009 30201 40224 52020 60001 70700 222// 00216 20302 333 30016 50311 70000
AAXX 20061 40898 12960 00202 10230 21017 30201 40210 51020 60001 222// 00240 10500 333 30009 50391 70000
AAXX 20064 60360 11560 62615 10083 20077 40234 53003 60124 72162 86800 333 00411 20068 82830 81933 85640 95990
AAXX 20064 60390 12565 52405 10060 20043 40283 53004 60024 81850 333 00319 20056 81820 85359 95990
AAXX 20064 60402 12560 22614 10078 20035 40264 53002 60014 82230 333 00300 20055 82820 95990
AAXX 20064 60419 11458 61103 10013 21013 40267 58005 60034 70162 86900 333 05212 20013 83813 81920 84630 95990
AAXX 20064 60475 12560 33208 10004 21012 39281 48523 58004 60004 83800 333 05600 21009 82820 95990
AAXX 20064 60490 12670 31806 10033 20022 40280 58001 60004 81502 333 00000 20027 81633 83073 95990
AAXX 20064 60525 12960 23308 10060 21006 40252 53001 60004 82032 333 05100 20055 82360 95900
AAXX 20064 60531 12970 20000 10016 21015 40299 55002 60004 80002 333 05300 20013 82073 95990
AAXX 20064 60566 12960 33308 10040 21012 40289 53004 60004 82032 333 05300 20035 82360 83073
AAXX 20064 60571 12560 30000 10080 20038 39331 48574 53007 60024 82280 333 0//19 20078 82830 95990
AAXX 20064 60580 12960 00000 10015 21023 40274 53007 60004 333 05100 20009
AAXX 20064 60590 12960 03108 10007 21013 40289 53006 60004 333 0//00 20000
AAXX 20064 60611 12960 00000 10027 21022 40269 53009 60004 333 00100 20022
AAXX 20064 60620 12958 20108 10033 21069 40245 53004 60004 80002 333 0//00 20027 82075
AAXX 20064 60630 12960 00313 10077 21004 40244 53002 60004 333 00500 20074
AAXX 20064 60656 12960 00306 10077 20000 40229 52008 60004 333 00500 20055
AAXX 20064 60670 12980 20000 10045 20016 39095 48528 53007 60004 80002 333 05100 20021 82073 95900
AAXX 20064 60680 12970 20000 10063 21100 38655 48526 58001 60004 80002 333 00000 20058 82073 95900
AAXX 20064 60351 11560 42210 10094 20050 40240 56002 60044 70261 84800 333 00455 20065 82820 83633 95990
AAXX 20064 60355 11556 82306 10089 20060 40231 58003 60104 79598 889// 333 0//11 20078 81920 87826 95990
AAXX 20064 60445 12560 53602 11015 21021 39074 48534 55004 69934 82232 333 05600 21017 82826 83073 95990
AAXX 20064 60468 12960 40000 11035 21048 39284 48521 56005 60004 84032 333 06100 21050 84360 95990
AAXX 20064 60507 12960 10000 10015 20010 40292 58001 60004 80002 333 05200 20015 81073 95990
AAXX 20064 60511 12560 42202 11002 21013 39121 48541 55005 69964 84200 333 05419 21005 84820 95990
AAXX 20064 60535 11565 63606 11005 21005 38888 48542 54000 60014 700// 86700 333 05200 21010 86720 95900
AAXX 20064 60536 12960 00000 10000 21005 39391 48549 54000 60004 333 05500 20000 95990
AAXX 20064 60549 11960 20000 11032 21039 38984 48556 51009 60004 700// 80002 333 05500 21030 82073 95990
AAXX 20064 60550 12960 20000 11029 21032 38726 48557 56002 60004 80002 333 05600 21032 82073 95990
AAXX 20064 60555 12970 20000 10023 21004 40272 53006 60004 80002 333 05200 20014 82073
AAXX 20064 60559 12960 20000 10016 21025 40268 53005 60004 80002 333 20005 82073
AAXX 20064 60581 12960 00000 10020 21023 40266 53004 60004 333 05200 20011
AAXX 20064 60602 NIL
AAXX 20064 60607 12960 00208 10032 21035 40252 56002 60004 333 0//00 20030
AAXX 20064 60640 12960 00000 10025 20012 40253 53008 60004 333 00000 20020
AAXX 20064 60690 NIL
AAXX 20061 40701 11520 80000 11072 21074 38715 40406 53001 60001 71022 8562/ 333 30107 70000 85720 88459
AAXX 20061 40704 12970 33008 10040 21049 38708 40316 54000 60001 80001 333 3/108 42002 70000 83070
AAXX 20061 40708 12960 32010 10050 21007 38766 40317 52005 60001 80002 333 3/104 41999 70000 83069
AAXX 20061 40710 11459 30000 11118 21133 38428 40444 51006 60001 71000 81601 333 3/119 48007 70000 83068
AAXX 20061 40713 11411 80000 11006 21030 38788 40368 51011 60001 71022 886XX 3333 34104 70000 88715
AAXX 20061 40719 11/08 90000 10086 20082 30338 40327 50003 60001 74344 333 31003 50041 70000 89/02
AAXX 20061 40731 11950 01502 10062 21008 38873 40353 52010 60001 70500 333 30105 70000
AAXX 20061 40738 11515 80000 10076 20076 30342 40344 50003 60001 71021 8562/ 333 31105 50101 70000 85720 88457
AAXX 20061 40740 12962 01207 11058 21126 38879 40410 51005 60001 333 3/118 47003 70000
AAXX 20061 40747 12960 00000 11006 21048 38746 40353 51013 60001 333 31109 70000
AAXX 20061 40757 12965 02201 10064 21088 39046 40361 51013 60001 333 30102 70000
AAXX 20061 40763 12968 01203 10008 21168 39073 40401 51011 60001 333 30108 70000
AAXX 20061 40782 12962 01204 10086 21072 38964 40286 51010 60001 333 30104 5//// 70000
AAXX 20061 40783 12965 11010 10030 21059 38074 40297 51008 60001 80001 333 30104 5///1 70000 81070
AAXX 20061 40789 12965 00000 10056 21070 39357 40363 52014 60001 333 30104 50171 70000
AAXX 20061 40798 12960 00000 11028 21123 38067 40378 51012 60001 333 30112 70000
AAXX 20061 40818 12970 03502 10004 21066 38082 40344 51014 60001 333 30107 5///1 70000
AAXX 20061 40827 12970 00107 10090 21194 38948 40352 51012 60001 333 30104 70000
AAXX 20061 40836 12965 00000 10038 21056 38278 40301 52011 60001 333 30108 5///1 70000
AAXX 20061 40851 12965 02704 10058 21063 38349 40287 51009 60001 333 30107 5//// 70000
AAXX 20061 40853 12965 00306 10054 21110 37800 40243 52011 60001 333 30104 5//// 70000
AAXX 20061 40854 12960 02904 10104 21085 39073 40301 52023 60001 333 30001 50351 70000
AAXX 20061 40857 12960 00000 10162 20083 30228 40238 52023 60001 222// 00174 20000 333 30007 50151 70000
AAXX 20061 40859 12962 02603 10112 21054 38790 40239 51016 60001 333 30104 50261 70000
AAXX 20061 40878 12965 00106 10102 21215 38914 40302 51012 60001 333 30002 50751 70000
AAXX 20061 40879 12960 03302 10162 21403 39576 40266 51009 60001 333 30004 50481 70000
AAXX 20061 40883 11956 00609 10222 21009 30201 40224 52020 60001 70700 222// 00216 20302 333 30016 50311 70000
AAXX 20061 40898 12960 00202 10230 21017 30201 40210 51020 60001 222// 00240 10500 333 30009 50391 70000
AAXX 20061 40701 11520 80000 11072 21074 38715 40406 53001 60001 71022 8562/ 333 30107 70000 85720 88459
AAXX 20061 40704 12970 33008 10040 21049 38708 40316 54000 60001 80001 333 3/108 42002 70000 83070
AAXX 20061 40708 12960 32010 10050 21007 38766 40317 52005 60001 80002 333 3/104 41999 70000 83069
AAXX 20061 40710 11459 30000 11118 21133 38428 40444 51006 60001 71000 81601 333 3/119 48007 70000 83068
AAXX 20061 40713 11411 80000 11006 21030 38788 40368 51011 60001 71022 886XX 3333 34104 70000 88715
AAXX 20061 40719 11/08 90000 10086 20082 30338 40327 50003 60001 74344 333 31003 50041 70000 89/02
AAXX 20061 40731 11950 01502 10062 21008 38873 40353 52010 60001 70500 333 30105 70000
AAXX 20061 40738 11515 80000 10076 20076 30342 40344 50003 60001 71021 8562/ 333 31105 50101 70000 85720 88457
AAXX 20061 40740 12962 01207 11058 21126 38879 40410 51005 60001 333 3/118 47003 70000
AAXX 20061 40747 12960 00000 11006 21048 38746 40353 51013 60001 333 31109 70000
AAXX 20061 40757 12965 02201 10064 21088 39046 40361 51013 60001 333 30102 70000
AAXX 20061 40763 12968 01203 10008 21168 39073 40401 51011 60001 333 30108 70000
AAXX 20061 40782 12962 01204 10086 21072 38964 40286 51010 60001 333 30104 5//// 70000
AAXX 20061 40783 12965 11010 10030 21059 38074 40297 51008 60001 80001 333 30104 5///1 70000 81070
AAXX 20061 40789 12965 00000 10056 21070 39357 40363 52014 60001 333 30104 50171 70000
AAXX 20061 40798 12960 00000 11028 21123 38067 40378 51012 60001 333 30112 70000
AAXX 20061 40818 12970 03502 10004 21066 38082 40344 51014 60001 333 30107 5///1 70000
AAXX 20061 40827 12970 00107 10090 21194 38948 40352 51012 60001 333 30104 70000
AAXX 20061 40836 12965 00000 10038 21056 38278 40301 52011 60001 333 30108 5///1 70000
AAXX 20061 40851 12965 02704 10058 21063 38349 40287 51009 60001 333 30107 5//// 70000
AAXX 20061 40853 12965 00306 10054 21110 37800 40243 52011 60001 333 30104 5//// 70000
AAXX 20061 40854 12960 02904 10104 21085 39073 40301 52023 60001 333 30001 50351 70000
AAXX 20061 40857 12960 00000 10162 20083 30228 40238 52023 60001 222// 00174 20000 333 30007 50151 70000
AAXX 20061 40859 12962 02603 10112 21054 38790 40239 51016 60001 333 30104 50261 70000
AAXX 20061 40878 12965 00106 10102 21215 38914 40302 51012 60001 333 30002 50751 70000
AAXX 20061 40879 12960 03302 10162 21403 39576 40266 51009 60001 333 30004 50481 70000
AAXX 20061 40883 11956 00609 10222 21009 30201 40224 52020 60001 70700 222// 00216 20302 333 30016 50311 70000
AAXX 20061 40898 12960 00202 10230 21017 30201 40210 51020 60001 222// 00240 10500 333 30009 50391 70000
AAXX 20064 60351 11560 42210 10094 20050 40240 56002 60044 70261 84800 333 00455 20065 82820 83633 95990
AAXX 20064 60355 11556 82306 10089 20060 40231 58003 60104 79598 889// 333 0//11 20078 81920 87826 95990
AAXX 20064 60445 12560 53602 11015 21021 39074 48534 55004 69934 82232 333 05600 21017 82826 83073 95990
AAXX 20064 60468 12960 40000 11035 21048 39284 48521 56005 60004 84032 333 06100 21050 84360 95990
AAXX 20064 60507 12960 10000 10015 20010 40292 58001 60004 80002 333 05200 20015 81073 95990
AAXX 20064 60511 12560 42202 11002 21013 39121 48541 55005 69964 84200 333 05419 21005 84820 95990
AAXX 20064 60535 11565 63606 11005 21005 38888 48542 54000 60014 700// 86700 333 05200 21010 86720 95900
AAXX 20064 60536 12960 00000 10000 21005 39391 48549 54000 60004 333 05500 20000 95990
AAXX 20064 60549 11960 20000 11032 21039 38984 48556 51009 60004 700// 80002 333 05500 21030 82073 95990
AAXX 20064 60550 12960 20000 11029 21032 38726 48557 56002 60004 80002 333 05600 21032 82073 95990
AAXX 20064 60555 12970 20000 10023 21004 40272 53006 60004 80002 333 05200 20014 82073
AAXX 20064 60559 12960 20000 10016 21025 40268 53005 60004 80002 333 20005 82073
AAXX 20064 60581 12960 00000 10020 21023 40266 53004 60004 333 05200 20011
AAXX 20064 60602 NIL
AAXX 20064 60607 12960 00208 10032 21035 40252 56002 60004 333 0//00 20030
AAXX 20064 60640 12960 00000 10025 20012 40253 53008 60004 333 00000 20020
AAXX 20064 60690 NIL
AAXX 20064 60360 11560 62615 10083 20077 40234 53003 60124 72162 86800 333 00411 20068 82830 81933 85640 95990
AAXX 20064 60390 12565 52405 10060 20043 40283 53004 60024 81850 333 00319 20056 81820 85359 95990
AAXX 20064 60402 12560 22614 10078 20035 40264 53002 60014 82230 333 00300 20055 82820 95990
AAXX 20064 60419 11458 61103 10013 21013 40267 58005 60034 70162 86900 333 05212 20013 83813 81920 84630 95990
AAXX 20064 60475 12560 33208 10004 21012 39281 48523 58004 60004 83800 333 05600 21009 82820 95990
AAXX 20064 60490 12670 31806 10033 20022 40280 58001 60004 81502 333 00000 20027 81633 83073 95990
AAXX 20064 60525 12960 23308 10060 21006 40252 53001 60004 82032 333 05100 20055 82360 95900
AAXX 20064 60531 12970 20000 10016 21015 40299 55002 60004 80002 333 05300 20013 82073 95990
AAXX 20064 60566 12960 33308 10040 21012 40289 53004 60004 82032 333 05300 20035 82360 83073
AAXX 20064 60571 12560 30000 10080 20038 39331 48574 53007 60024 82280 333 0//19 20078 82830 95990
AAXX 20064 60580 12960 00000 10015 21023 40274 53007 60004 333 05100 20009
AAXX 20064 60590 12960 03108 10007 21013 40289 53006 60004 333 0//00 20000
AAXX 20064 60611 12960 00000 10027 21022 40269 53009 60004 333 00100 20022
AAXX 20064 60620 12958 20108 10033 21069 40245 53004 60004 80002 333 0//00 20027 82075
AAXX 20064 60630 12960 00313 10077 21004 40244 53002 60004 333 00500 20074
AAXX 20064 60656 12960 00306 10077 20000 40229 52008 60004 333 00500 20055
AAXX 20064 60670 12980 20000 10045 20016 39095 48528 53007 60004 80002 333 05100 20021 82073 95900
AAXX 20064 60680 12970 20000 10063 21100 38655 48526 58001 60004 80002 333 00000 20058 82073 95900
AAXX 20064 91945 36/// /0810 10266 20218 30151 40156 53016 555 58004 60024
BBXX A8CG7 20060 99039 31100 41397 53109 10290 20242 40062 56010 70211 83770 22235 04306 2//// 3//// 4//// 5//// 80255
BBXX UCJL 20061 99665 10079 41598 63006 10050 40943 57010 70222 862// 22213 00050 20401 33400 40503
BBXX 46207 20061 99509 71299 46/// /2711 10088 40223 52034 22200 00082 11310 70050 333 91215
BBXX 3ERR2 20064 99635 10053 41599 42411 10049 21015 49987 52003 70222 84500 22200 06098 10703 70013 333 91121
BBXX LF3F 20064 99643 10078 41698 22611 10049 21019 49978 52006 70200 822// 22200 04083 10603 70015 333 91122
BBXX LF3N 20064 99653 10073 41597 72913 10055 20006 49964 52004 70222 8//// 22200 00088 10603 70015
BBXX LF4B 20064 99606 10037 47/98 /1813 10038 49998 57005 761// 22200 00051 10602 70011 333 91122
BBXX LF4C 20064 99584 10019 41498 83111 10065 20055 49983 52009 780// 89/// 22200 00074 10703 70015 333 91119
BBXX LF5T 20064 99660 10081 41598 52608 10057 20019 49953 52002 70222 85/// 22200 10703 70013 333 91110
AAXX 20061 14258 11665 40000 11020 21023 39973 40168 52001 60032 70172 84500 333 21020 3/105 43009 70119 93109
AAXX 20061 01380 11784 22801 11117 21134 60002 70200 82500 333 21156 49027 79999 91104
AAXX 20061 01257 16/// /2102 10008 21029 39831 49993 52007 60022 333 20004 70044 91107
AAXX 20061 01488 16/// /2801 11050 21062 60002 333 21078 4/012 70000 91103
AAXX 20061 01441 16/// /0202 11189 21208 39026 40083 52005 60002 333 21228 70000 91103
AAXX 20061 01180 11980 02501 11015 21033 39911 49968 52004 60002 70200 333 21015 70000 91104
AAXX 20061 01393 16/// /2901 11100 21109 39198 40027 52007 6//// 333 21102 91104
BBXX 46207 20061 99509 71299 46/// /2711 10088 40223 52034 22200 00082 11310 70050 333 91215
AAXX 20064 78866 32480 60612 10252 20164 30164 40169 57012 86800 333 58017 86818
AAXX 20064 78988 01481 50916 10266 20223 30124 40135 57010 69911 70382 83201 333 58002 69917 83815 83081
AAXX 20064 78990 01/// /0000 10266 20215 30135 57011 60001 70000 333 58002 60007
AAXX 20064 78873 NIL
AAXX 20061 34560 11497 81208 11039 21069 30137 40311 57009 69930 70262 885// 333 21043 41997 88616 93401
AAXX 20061 34720 12497 81005 10043 20032 30165 40205 56017 69970 886// 333 20031
AAXX 20061 34730 11230 81008 10035 20032 30125 40218 57014 60020 71042 886// 333 20023 88704
AAXX 20061 34740 31495 81106 10031 20029 30132 40230 57007 71022 886// 333 20037
AAXX 20061 34824 31996 81104 10033 20020 30175 40180 58014 71022 8807/ 333 20036
AAXX 20061 34858 11495 81304 10038 20034 30139 40248 57011 69900 71054 886// 333 20038
AAXX 20061 34866 12998 81107 10015 21004 30291 40283 58002 69930 8005/ 333 20007
AAXX 20061 34880 32997 70802 11022 21072 30356 40329 57007 80001 333 21032 87000
AAXX 20061 37018 32998 80602 10109 20002 30098 40173 58011 8007/ 333 20079
AAXX 20061 37054 31496 81203 11007 21011 39856 40252 57008 71022 885// 333 21006
AAXX 20061 37472 31596 81103 10069 20054 30269 40247 57003 71022 8267/ 333 20067
AAXX 20064 41254 36/// /3204 10111 20020 38219 48224 333 0E004 20050 58020
AAXX 20061 22282 NIL
AAXX 20061 22438 NIL
AAXX 20061 22471 11461 81806 10000 21008 30047 40071 57002 69900 77172 8802/ 333 21025 88510
AAXX 20061 22563 11396 82104 10002 21001 30057 40096 53001 60030 77377 8872/ 333 21019 86707
AAXX 20061 22641 31398 81705 10015 20007 30042 40058 53010 76162 885// 333 21004 86709 91110
AAXX 20061 22695 11497 81404 11027 21043 30037 40193 53001 69930 77172 8652/ 333 21056 86614
AAXX 20061 22867 11598 81906 10014 21045 30072 40187 52010 69900 70282 8653/ 333 20000 86632 91112
AAXX 20061 22939 12697 21908 11004 21071 30006 40170 52007 69900 82500 333 20006
AAXX 20061 22996 11598 82005 11063 21075 30108 40307 52009 69900 70282 8452/ 333 21083
AAXX 20061 23324 11578 82406 11071 21100 30114 40194 53001 69930 73632 885// 333 21074 88620
AAXX 20061 27051 12597 72006 10005 21031 30050 40220 52005 69900 86530 333 21010 86626
AAXX 20061 27225 12965 32106 11002 21049 30103 40237 52002 69900 80001 333 20001 91012 91112
AAXX 20061 27252 11970 81806 11030 21061 30095 40287 52010 69900 73632 85075 333 21014 91012
AAXX 20061 27333 32980 62604 11020 21045 30110 40271 52006 82039 333 21019 47002
AAXX 20061 27369 32980 81604 11050 21063 30197 40341 52001 8801/ 333 21045
AAXX 20061 27393 11497 82304 11103 21116 30212 40391 52007 69930 77173 8577/ 333 21107
AAXX 20061 27479 11466 81503 11085 21092 30225 40367 54000 69900 70272 886// 333 21071 88710
AAXX 20061 27532 31295 81805 11036 21041 30079 40302 53000 71022 886// 333 21027 88704
AAXX 20061 27648 32297 81803 11027 21040 30143 40318 57023 886// 333 21027 88706
AAXX 20061 27675 32497 81406 11092 21103 30191 40371 58015 885// 333 21095 88616
AAXX 20061 27679 32598 81404 11101 21114 30134 40374 58018 885// 333 21105 88621
AAXX 20061 28214 11596 81904 11100 21113 30179 40406 52008 60010 77173 8872/ 333 21101
AAXX 20061 11101 11565 51605 11024 21077 39629 40175 57026 69912 72272 85600 333 11012 21029 47009 85625 91114
AAXX 20061 22165 11496 81510 10005 21003 39963 40024 53009 69910 77072 8872/ 333 21023 91117
AAXX 20061 22676 11482 72006 10012 21017 30073 40152 53006 69900 70282 87900 333 21031
AAXX 20061 22954 12581 82006 10002 21043 39937 40189 52009 69900 885// 333 20002 88627
AAXX 20061 23405 12475 81904 11040 21074 30073 40136 58003 69900 885// 333 21056 88612
AAXX 20061 23412 11498 81704 11059 21078 30090 40190 57006 69900 77187 8872/ 333 21070 86516
AAXX 20061 23803 11599 82104 11072 21093 30113 40301 53006 69930 70282 889// 333 21086 88929
AAXX 20061 27066 11598 71904 11006 21027 30086 40268 52005 69920 70273 87500 333 21048 87620
AAXX 20061 27083 11499 81704 11050 21060 30069 40301 52010 69900 73673 885// 333 21076
AAXX 20061 27113 12560 82106 10005 21049 30050 40198 52008 69900 8633/ 333 20010 84927
AAXX 20061 27242 32877 62403 11015 21035 30128 40260 52006 86050 333 21009
AAXX 20061 27329 32984 31802 11025 21047 30143 40273 58002 82031 333 21022
AAXX 20061 27355 32497 81806 11028 21041 30140 40310 52005 885// 333 21025
AAXX 20061 27373 11298 81606 11068 21073 30117 40346 51001 69930 70252 886// 333 21074 88704 93402
AAXX 20061 27665 32396 81502 11074 21080 30067 40353 57011 71022 886// 333 21072 88709
AAXX 20061 27835 31245 81103 11016 21021 30134 40298 57012 71042 886// 333 21046 88706
AAXX 20061 28009 11427 82105 11089 21113 30147 40371 52013 69990 77373 8802/ 333 21097
AAXX 20061 28411 11497 82005 11095 21130 30225 40433 52002 60020 77172 8657/ 333 21100 88612
AAXX 20061 28418 12573 81803 11086 21129 30261 40438 52001 69940 885// 333 21095 88628
AAXX 20063 64800 NIL
AAXX 20063 64820 NIL
AAXX 20063 64860 31958 60000 10180 20113 39857 40128 80002 333 00600 20178 50580 55074 58006 85080
AAXX 20063 64861 NIL
AAXX 20063 64870 NIL
AAXX 20063 64871 NIL
AAXX 20063 64892 NIL
AAXX 20063 64893 NIL
AAXX 20063 64894 NIL
AAXX 20064 64910 31420 70000 10245 20242 30111 40120 71022 87300 333 02100 20242 50321 55010 58010 87616 81920 94945 95835
AAXX 20064 64911 NIL
AAXX 20064 64950 NIL
AAXX 20061 40716 11958 00000 11014 21052 39093 40370 52009 60001 70500 333 30108 70000
AAXX 20061 40719 11/08 90000 10086 20082 30338 40327 50003 60001 74344 333 31003 50041 70000 89/02
AAXX 20061 40721 12960 10904 10104 21225 39776 40329 50002 60001 80001 333 30101 50441 70000 81070
AAXX 20061 40858 12960 00302 10156 20085 30228 40239 52027 60001 333 30006 50601 70000
AAXX 20061 40872 12960 03502 10208 20091 30222 40227 52023 60001 222// 00224 20301 333 30011 50511 70000
AAXX 20061 40877 12960 00000 10144 21022 39620 40167 52024 60001 333 30004 50351 70000
AAXX 20061 40898 12960 00202 10230 21017 30201 40210 51020 60001 222// 00240 10500 333 30009 50391 70000
AAXX 20061 08521 32465 60306 10170 20088 30202 40273 58003 86800 333 20170 30/// 55008 85816
AAXX 20061 08524 32465 60805 10160 20085 30182 40280 57002 86800 333 20159 30015 5//// 55005 20354 85815 91009 91109
AAXX 20061 10439 11345 81803 11003 21011 39867 40092 57025 69942 77177 875// 333 10012 21004 3/101 44003 70004 85708 86612
AAXX 20064 78988 01481 50916 10266 20223 30124 40135 57010 69911 70382 83201 333 58002 69917 83815 83081
AAXX 20064 78990 01/// /0000 10266 20215 30135 57011 60001 70000 333 58002 60007
AAXX 20064 78873 NIL
AAXX 20064 78866 32480 60612 10252 20164 30164 40169 57012 86800 333 58017 86818
AAXX 20064 78866 32480 60612 10252 20164 30164 40169 57012 86800 333 58017 86818
AAXX 20061 50844 32962 02703 11073 21159 40214 57027 333 21220
AAXX 20061 50854 32970 02503 11079 21163 40222 57025 333 21183
AAXX 20061 50968 32962 02203 11062 21147 40255 57026 333 21208
AAXX 20061 51379 32970 22201 11105 21164 40542 52001 80002 333 01201 21222
AAXX 20061 51467 32980 20901 11021 21170 38334 57004 80002 333 00704 21107
AAXX 20061 51495 32980 13623 11048 21179 40384 57030 80002 333 00500 21091 91134 91536
AAXX 20061 53480 32970 02906 11052 21197 40326 57022 333 21173
AAXX 20061 53673 31958 00000 10018 21092 40279 57032 70500 333 21075
AAXX 20061 53698 31956 71401 10037 21086 40270 57038 70500 80002 333 21019
AAXX 20061 53898 31940 01401 10027 21047 40274 57039 71000 333 21048
AAXX 20061 54308 32980 03401 11003 21200 40285 57035 333 21187
AAXX 20061 54602 32960 82201 10030 21129 40269 57038 80007 333 21093
AAXX 20061 54725 31956 80901 10026 21063 40273 57035 70500 80007 333 21032
AAXX 20061 54751 31950 02507 10034 21014 40266 57025 71000 333 20013
AAXX 20061 54916 31957 80000 10050 21048 40275 57031 70500 80007 333 21047
AAXX 20061 57014 32962 81601 10051 21022 40237 57041 8807/ 333 00101 20004
AAXX 20061 57025 32762 81102 10041 21034 40267 57029 885// 333 20002
AAXX 20061 57046 32462 52001 11013 21032 37948 57023 85500 333 00151 21061
AAXX 20061 58208 31958 62702 10065 20004 40265 57031 71000 86040 333 20007
AAXX 20064 68399 36/// /0804 10252 20182 30076 40184 58005 333 20179 91029 555 10328 91018
AAXX 20064 68383 36/// /0000 10246 20162 39946 48607 58003 333 20195 91000 555 10329 91019
AAXX 20064 68299 36/// /2502 10143 20105 38972 48557 58001 333 20110 91004 555 10206 91023
AAXX 20064 60395 11/01 90000 10032 20032 40275 53002 60034 74541 333 00119 20032 89///
AAXX 20064 60421 NIL
AAXX 20064 60423 11658 80000 10035 20017 39238 48494 54000 60134 76000 888// 333 0//// 20010 83833 87640 95990
AAXX 20064 60430 11460 72803 10051 20027 40282 56003 69964 700// 8583/ 333 05119 20034 82816 86633 95990
AAXX 20064 60437 11560 22804 10011 21000 39032 48522 56002 60054 700// 82500 333 05159 20011 82630 95990
AAXX 20064 60444 12960 50000 10003 21005 39138 48535 58006 60004 80002 333 05200 21009 85073 95990
AAXX 20064 60452 12565 4//// 10092 20060 40279 55002 69944 84200 222// 2//// 333 0//00 20088 84820 91836
AAXX 20064 60457 12962 00000 10022 20017 40279 54000 60004 333 05300 20020 95990
AAXX 20064 60514 NIL
AAXX 20064 60518 11965 11408 10087 20042 40264 53001 60004 700// 80002 222// 20000 333 00400 20081 81073 91807 95990
AAXX 20064 60520 11960 00000 11008 21017 40287 56001 60004 700// 333 05400 21012 95990
AAXX 20064 60540 11560 10000 11016 21040 39079 48522 5//// 60004 700// 81200 333 05500 11016 81830 95990
AAXX 20064 60560 11960 00000 11028 21040 39032 48527 54000 60004 700// 333 05500 21030 95990
AAXX 20064 62305 32960 02209 10082 20040 40191 52007 333 20076
AAXX 20064 62306 32960 12311 10098 20050 40185 52011 80001 333 20083
AAXX 20064 62318 31530 20000 10104 20093 40185 52007 74100 82100 333 20092
AAXX 20064 62337 NIL
AAXX 20064 62366 31915 02204 10119 20099 40193 52018 71000 333 20116
AAXX 20064 62393 32960 02001 10082 20021 40205 53015 333 20066
AAXX 20064 62405 31956 00000 10120 20058 40185 52018 70500 333 20084
AAXX 20064 62414 32960 03604 10155 20060 40190 52016 333 20140
AAXX 20064 62417 32960 01002 10052 20026 40190 52011 333 20030
AAXX 20064 62419 NIL
AAXX 20064 62440 31910 02602 10102 20102 40183 52015 71000 333 20095
AAXX 20064 62463 32960 03010 10172 20075 40177 52015 333 20146
AAXX 20064 62465 32960 03005 10180 20136 40164 52013 333 20154
BBXX BATFR48 20064 99149 51479 46/// /1211 10262 20224 40138 22242 00297
BBXX BATEU07 20064 99347 31153 46/// /1612 10199 40134 58023 22264
BBXX BATFR35 20064 99175 51496 46/// /0820 10275 20204 40128 22242 00289
BBXX BAREU05 20064 99494 70650 46/// ///// 49970 57024 22264
BBXX BAREU11 20064 99237 70628 46/// ///// 40200 57007 22214
BBXX BAREU04 20064 99533 70358 46/// ///// 49991 57012 22263
BBXX 41101 20064 99146 70562 46/// /0417 10261 20225 40124 57018 22200 00271 10804 70020
BBXX FVNM 20064 99062 70828 46/// /2606 10252 20227 40113 58008 22221 00269
BBXX BATFR14 20064 99286 70465 44598 12417 10227 20184 40133 56011 70200 812// 22214 00234 201// 60000 ICE 0/0//
BBXX PHCQ 20063 99242 70826 41998 00911 10232 20195 40196 57025 70211 80000 22264 00244 20302 30000 40000 5//// 80207
BBXX BATEU06 20064 99493 70671 46/// /2826 11043 21090 49999 53041 22254 00014
BBXX BATEU08 20064 99598 70357 46/// /2931 10004 21051 40030 52002 22252
AAXX 20064 16253 12565 20103 10010 21012 30132 40144 53014 60002 81130 333 20010 30/// 555.7 20753 81820
BBXX BAREU61 20064 99053 70101 46/// /2812 10276 29077 40111 52003 22234
BBXX BATFR55 20064 99112 30485 44598 32813 10282 20249 40117 70100 82142 22262 00282 20802 30808 410// 510//
BBXX BATFR45 20064 99024 10534 46/// ///// 10277 20242 40119 50005 22214 00292
BBXX BATFR19 20064 99065 30060 46/// /2212 10237 20199 40139 53015 22200 00255
BBXX A8QJ7 20064 99108 70242 41/98 10711 10255 20202 40112 58013 7//00 81/00 22213 2//// 3//// 4//// 5//// 80220
BBXX BAREU56 20064 99365 10123 46/// ///// 40185 52009 22232
BBXX BAREU63 20064 99360 10223 46/// /1410 10155 29057 40124 52001 22262
BBXX TESTFR9 20064 99489 70040 46/// /3318 10113 29075 40215 52024 22244
BBXX BAREU08 20064 99491 70061 46/// ///// 40199 57009 22214
BBXX BAREU51 20064 99393 10124 46/// ///// 40137 57008 22275
BBXX 61001 20064 99434 10078 46/// /2208 10101 20000 40160 5//// 22200 00146 10502 70009
BBXX BATFR32 20064 99428 10095 46/// /2409 10089 21007 40169 56007 7//// 8//// 22224 00169
BBXX BAREU62 20064 99380 10156 46/// ///// 40144 52018 22244
BBXX BATFR09 20064 99451 70065 44597 83021 10134 20115 40252 53019 72052 887// 22253 00147 20614 60//0 ICE 0/0//
BBXX BATFR16 20064 99430 70195 46/// /3114 10144 20142 40307 51014 22264 00152
BBXX BATFR33 20064 99394 10080 46/// /3227 10119 20020 40203 53006 22234 00164
BBXX BATFR21 20064 99426 10089 46/// /2012 40170 57009 22261
BBXX BATFR42 20064 99506 70019 46/// /2913 10082 20054 40151 53023 22283 00114
BBXX BATFR12 20064 99482 70074 46/// /3115 10117 20087 40224 53002 22281 00142
BBXX BATFR46 20064 99350 70066 44/97 00409 10147 20060 40270 52008 700// 22213 00174
BBXX BATFR52 20064 99489 70040 46/// /3317 10119 20067 40203 53025 22243 00132
BBXX BATFR11 20064 99360 10155 46/// /1509 10124 20065 40158 53008 22262 00175
BBXX BATEU09 20064 99415 10126 46/// /3418 10057 20007 40160 52010 22232 00167
BBXX BATFR54 20064 99489 70061 46/// /3232 10109 20060 40193 50002 22283 00119
BBXX BATFR60 20064 99471 70024 46/// /3021 10117 20094 40183 56003 22223 00099
BBXX BATEU01 20064 99507 70222 44/96 /2425 10122 20114 40187 51011 700// 22224 00119 21004 328// 41004 5////
BBXX BATFR04 20064 99591 70083 44498 52822 10059 21003 40062 53008 70122 852// 22222 00104 330// 40308 5////
BBXX BATUK01 20064 99585 70059 46/// /2823 10062 20002 40060 50010 22222 00105
BBXX 61002 20064 99421 10047 46/// ///20 10122 2//// 40204 57014 22200 00139 10604 70020 555 1/026
AAXX 20064 60353 11565 72411 10110 20053 40240 53005 60044 700// 878// 333 003// 20074 83820 86630 91857 95990
AAXX 20064 60367 11560 7//// 10090 20070 40230 53002 60154 700// 878// 333 0//// 20082 83820 85833
AAXX 20064 60369 12560 41910 10107 20010 40264 53001 60054 81280 333 0//00 20101 81826 83360 91837
AAXX 20064 60401 NIL
AAXX 20064 60403 11656 70000 10071 20021 40243 55000 60044 761// 878// 333 051// 20037 82833 86840 95990
AAXX 20064 60425 12960 20000 10052 20030 40287 53002 69964 80002 333 00119 20046 82073 95990
AAXX 20064 60461 13560 31715 10079 20037 40276 53008 60004 700// 83500 222// 20000 333 20074 83620 91837 95990
AAXX 20064 60467 11660 32812 10017 20004 40270 58005 60004 700// 81830 333 00100 20014 81833 95990
AAXX 20064 60492 11960 00000 10048 20043 40284 56008 60004 700// 333 05100 20041 95990
AAXX 20064 60515 NIL
AAXX 20064 60517 11960 01405 10056 20032 40282 58005 60004 700// 333 0//00 20056 95990
AAXX 20064 60522 11970 00000 11011 21023 40304 5//// 60004 700// 333 05500 21011 95990
AAXX 20064 60557 11965 00000 11034 21043 38925 48556 54000 60004 700// 333 05600 21041 95990
AAXX 20064 60563 NIL
AAXX 20064 60603 12960 00000 10011 21038 40283 52029 60004 333 0//00 20000
AAXX 20064 60638 12960 0//// 10031 21027 40259 53016 60004 333 05200 20024
AAXX 20064 60686 NIL
AAXX 20061 60370 36/// /2503 10089 20035 333 20079
AAXX 20061 60371 16/// /1803 10084 20045 60084 333 20078
AAXX 20061 60372 16/// /2603 10068 20037 60114 333 20063
AAXX 20061 60373 NIL
AAXX 20061 60374 NIL
AAXX 20061 60376 NIL
AAXX 20061 60379 NIL
AAXX 20061 60380 NIL
AAXX 20061 60381 NIL
AAXX 20061 60393 NIL
AAXX 20061 60394 NIL
AAXX 20061 60593 NIL
AAXX 20061 60595 NIL
AAXX 20061 60605 NIL
AAXX 20061 60613 NIL
AAXX 20061 60623 NIL
AAXX 20064 60624 36/// /0000 10118 21005 333 20116
AAXX 20064 60639 NIL
AAXX 20064 60645 36/// /0000 10068 21045 333 20068
BBXX IDDUK02 20064 99597 50433 46/// ///// 40032 222//
AAXX 20061 01003 11356 80807 11036 21043 30050 40062 57003 69901 75622 885// 333 43001 91109
AAXX 20061 08501 32/// /1808 10175 20108 30239 40275 57011 333 20167 30016 5//// 55013 20475 91014 91115 555 60005
AAXX 20061 08505 NIL
AAXX 20061 08506 32/// /1706 10162 20087 30241 40314 57011 333 20159 30015 5//// 55031 20636 91010 91110 555 60005
AAXX 20061 08509 32660 71704 10149 20100 30254 40318 57009 875// 333 20152 50354 55021 87635 555 60007
AAXX 20061 08511 32/// /1702 10151 20082 30209 40318 57010 333 20151 30013 5//// 55015 25712 91005 91106 555 60005
AAXX 20061 08512 32575 70502 10147 20085 30230 40316 57009 87800 333 20147 30013 5//// 55000 20406 81825 87635 91105 555 60005
AAXX 20061 08515 32580 70703 10153 20100 30194 40317 57008 876// 333 20154 30013 50264 55/// 87633 910// 911// 555 60007 912//
AAXX 20061 08521 32465 60306 10170 20088 30202 40273 58003 86800 333 20170 30/// 55008 85816 555 60007
AAXX 20061 08522 32/// /1003 10161 20071 30202 40271 54000 333 20159 30013 5//// 55059 21013 91007 91110 555 60005
AAXX 20061 08524 32465 60805 10160 20085 30182 40280 57002 86800 333 20159 30015 5//// 55005 20354 85815 91009 91109 555 60005
AAXX 20061 08530 NIL
AAXX 20061 08531 32/// /0902 10085 20055 30270 40309 57005 333 20080 30004 5//// 55068 20912 555 60005
AAXX 20061 08532 NIL
AAXX 20061 08533 32/// /0501 10033 20004 30269 40300 54000 333 20033 30000 5//// 55063 20978 555 60005
AAXX 20061 08534 32965 00000 10038 20034 30288 40306 58006 333 20036 50184 55076 555 60007
AAXX 20061 08535 32/// /9901 10076 20055 30212 40308 57006 333 20075 30004 5//// 55072 21066 555 60005
AAXX 20061 08537 NIL
AAXX 20061 08540 31956 01601 10020 20010 30238 40311 58004 71000 333 20018 50094 55073 555 60007
AAXX 20061 08541 32/// /0304 10069 20027 30182 40305 57005 333 20061 30002 5//// 55052 20842 555 60005
AAXX 20061 08544 32660 61802 10046 20042 30282 40304 57007 86500 333 20022 50074 55067 86640 555 60007
AAXX 20061 08545 31560 81003 10070 20034 30227 40313 57002 70222 885// 333 20054 30000 50254 55068 20777 82625 87630 555 60005
AAXX 20061 08548 32/// /0701 10038 20026 30101 40314 57004 333 20035 30000 5//// 55071 20891 555 60005
AAXX 20061 08551 32/// /1102 10069 20050 30252 40311 57004 333 20041 30002 5//// 55074 21241 555 60005
AAXX 20061 08554 32970 23602 10087 20000 30288 40298 57002 80001 333 20044 30007 5//// 55076 21049 82080 555 60005
AAXX 20061 08558 32/// /0101 10008 21001 30000 40309 57005 333 20008 30104 5//// 55002 20923 555 60005
AAXX 20061 08560 32/// /3403 10045 20004 39535 40315 57003 333 20027 30102 5//// 55061 20870 91105 555 60005
AAXX 20061 08561 32970 03302 10026 20003 30064 40307 55006 333 20020 50254 55061 555 60007
AAXX 20061 08562 32/// /3501 10056 20008 39997 40301 57008 333 20049 30103 5//// 55073 21020 555 60005
AAXX 20061 08567 32/// /0000 10029 20012 39633 40321 54000 333 20022 30000 5//// 55063 20809 555 60005
AAXX 20061 08568 NIL
AAXX 20061 08570 32/// /2902 10034 21004 39833 40309 57004 333 20006 30101 5//// 55062 20844 555 60005
AAXX 20061 08571 32/// /1601 10061 21020 39582 40302 57003 333 20056 30003 5//// 55056 20799 555 60005
AAXX 20061 08575 32/// /9901 11014 21024 39475 40327 54000 333 21019 30103 5//// 55069 20880 555 60005
AAXX 20061 08579 32/// /2401 10083 20050 30179 40307 57005 333 20071 30006 5//// 55067 20910 555 60005
AAXX 20061 14235 12965 0//// 11079 21086 38979 48418 55001 69942 333 47024 70135 93110
AAXX 20061 14246 12670 42502 11024 21050 39965 40177 55002 60002 81530 333 21025 34106 41998 70001
AAXX 20061 14314 12680 20306 10048 21056 30080 40146 53007 60002 81870 333 20046 31000 70058 92323 92438
AAXX 20061 14323 12680 10805 10019 21038 30115 40150 53002 69912 81600 333 20019 31001 70064 92322 92428
AAXX 20061 14324 NIL
AAXX 20061 14328 11656 12401 11054 21058 39765 40181 58004 60012 710// 81500 333 21054 3/108 43024 70106 93122
AAXX 20061 14330 11560 80102 11026 21064 39474 40165 53003 69912 7027/ 885// 333 21026 3/104 47023 70055 92802
AAXX 20061 14438 12680 33406 10025 21049 30030 40123 53010 69912 82442 222// 00150 333 20024 31000 70019 9232/
AAXX 20061 14443 31699 734// 10078 20060 30000 40097 52004 71392 87260 333 20077 92334
AAXX 20061 14447 NIL
AAXX 20061 14472 11670 40905 10071 21009 30014 40079 53007 69962 717// 84900 222// 00165 333 20063 32/// 70304 92312
AAXX 20064 62305 32960 02209 10082 20040 40191 52007 333 20076
AAXX 20064 62306 32960 12311 10098 20050 40185 52011 80001 333 20083
AAXX 20064 62318 31530 20000 10104 20093 40185 52007 74100 82100 333 20092
AAXX 20064 62337 NIL
AAXX 20064 62366 31915 02204 10119 20099 40193 52018 71000 333 20116
AAXX 20064 62393 32960 02001 10082 20021 40205 53015 333 20066
AAXX 20064 62405 31956 00000 10120 20058 40185 52018 70500 333 20084
AAXX 20064 62414 32960 03604 10155 20060 40190 52016 333 20140
AAXX 20064 62417 32960 01002 10052 20026 40190 52011 333 20030
AAXX 20064 62419 NIL
AAXX 20064 62440 31910 02602 10102 20102 40183 52015 71000 333 20095
AAXX 20064 62463 32960 03010 10172 20075 40177 52015 333 20146
AAXX 20064 62465 32960 03005 10180 20136 40164 52013 333 20154
AAXX 20064 04203 46/// /2702 11118 21140 39977 49995 52004
AAXX 20064 04205 47/37 /3206 11132 21161 39970 49992 52010 77777 333 11108 21133
AAXX 20064 04208 46/// /1030 11114 21173 39908 49954 57006
AAXX 20064 04213 46/// /1425 11109 21188 39855 49967 52001 333 11096 21113
AAXX 20064 04214 46/// /1431 11075 21141 39888 49921 57010 333 91044
AAXX 20064 04224 45984 71314 11079 21170 39931 49964 52009 333 11078 21107 87/61 91128
AAXX 20064 04228 NIL
AAXX 20064 04242 46/// /1218 11072 21095 39977 49993 52008
AAXX 20064 04253 46/// /2207 11054 21111 39989 40016 52008
AAXX 20064 04266 46/// /1012 11057 21076 39995 40033 52001
AAXX 20064 04285 46/// /2704 11042 21084 30022 40041 52005
AAXX 20064 04301 46/// ///// 11306 21351 39996 40001 52001
AAXX 20064 04313 46/// ///// 11259 21294 30012 40024 52008
AAXX 20064 04330 46/// /0121 11067 21085 39932 49950 57013 333 91039
AAXX 20064 04351 46/// /0406 11055 21061 39863 49879 52002
AAXX 20064 04373 46/// /3143 11107 21175 39814 49907 52002 333 91059
AAXX 20064 04382 46/// /2624 11056 21176 39955 40004 57001
AAXX 20064 04416 NIL
AAXX 20064 89022 46/// /2403 11058 21067 39862 49900 57022
AAXX 20064 89062 46/// /2604 10019 21016 39868 49908 52006 333 55008
AAXX 20064 71361 16/// /3306 11099 21119 39749 49954 53026 60001 333 10019 21109 70000 555 32823 40191
AAXX 20064 71362 16/// /2705 11041 21074 39669 49920 52013 60001 333 10005 21170 70000
AAXX 20064 71363 16/// /3213 11328 21363 39890 49947 50002 60001 333 11322 21355 70000 555 33123 40211
AAXX 20064 71381 46/// /3116 11101 21157 6///1 333 21101 70000
AAXX 20064 71387 16/// /3010 11105 21129 39705 40089 53031 60001 333 11036 21108 70000 555 33119 40021
AAXX 20064 71393 16/// ///// 10062 21032 38814 40069 58031 60001 333 10073 21090 70000
AAXX 20064 71435 16/// /2008 11100 21106 39599 40210 57019 60001 333 11035 21101 70000 555 32919 40101
AAXX 20064 71472 17/// /2923 10068 20051 30102 40119 53022 60011 7//4/ 333 10085 20064 7////
AAXX 20064 71269 16/// /2317 11007 21045 60001 333 10014 21102 70004 555 32225 40211
AAXX 20064 71285 46/// /2508 10007 21029 6///1 333 10034 21149 7//// 555 32318 40181
AAXX 20064 71288 16/// /3110 11346 21381 39991 40017 50003 60001 333 11329 21369 70000
AAXX 20064 71299 16/// /2306 11107 21125 39926 40210 58002 60001 333 11015 21108 70016 555 10010 20016 33227 40131
AAXX 20064 71107 16/// /3238 10068 20038 30063 40176 53032 60001 333 10084 20063 70000 555 33254 40043
AAXX 20064 71228 16/// /2108 10004 21041 60001 333 10015 21137 70000 555 32217 40171
AAXX 20064 71243 16/// /2628 10052 21066 39042 40113 58020 60001 333 10057 21079 70000 555 32645 40053
AAXX 20064 71246 16/// /2104 10013 20006 39321 49973 58022 60001 333 10027 21101 70000 555 32420 40181
AAXX 20064 71832 16/// /2005 11137 21150 39864 40202 58013 60001 333 11021 21148 70000 555 32722 40101
AAXX 20064 71752 16/// /3612 10018 21022 39977 40195 53025 60001 333 10069 20018 70000
AAXX 20064 71771 46/// /2628 10078 20036 30075 40095 53010 6///1 333 10132 20069 7////
AAXX 20064 71063 16/// /3215 11035 21086 30079 40178 51043 60001 333 10054 21048 70013 555 33324 40061
AAXX 20064 71667 16/// /2404 11085 21110 39977 40230 55013 60001 333 10004 21106 70000 555 33324 40091
AAXX 20064 71682 17/// /0502 11100 21112 39736 49961 51013 69941 7//4/ 333 10047 21102 70004 555 32520 40161
AAXX 20064 71696 16/// /2206 11086 21094 39810 49847 56041 60001 333 11086 21267 70000 555 32123 40021
AAXX 20064 71148 16/// /2218 11045 21079 39577 40168 58039 60001 333 11030 21116 70000 555 32125 40051
AAXX 20064 71622 16/// ///// 10005 21034 39864 40204 51017 60001 333 10068 20005 70000
AAXX 20064 71970 16/// /2410 11006 21043 39428 40010 56022 60001 333 11005 21136 70000 555 32231 40162
AAXX 20064 71978 46/// /0208 11260 21286 39689 40011 51012 6///1 333 11227 21271 7//// 555 10010
AAXX 20064 71300 16/// /3212 11024 21080 30050 40174 51041 60001 333 10060 21028 70000 555 31925 40141
AAXX 20064 71309 16/// /2102 11175 21199 30184 40196 51003 60001 333 11058 21176 70000 555 10010 33121 40161
AAXX 20064 71317 17/// /2507 10011 20003 39981 40028 56031 60021 7//4/ 333 10012 21093 7////
AAXX 20064 71321 16/// /2108 11110 21153 39903 49946 51008 60001 333 11094 21132 70000 555 32120 40071
AAXX 20064 71341 16/// /2429 10024 21062 60001 333 10032 21123 70000 555 32658 40033
AAXX 20064 71342 16/// /2314 11014 21049 60001 333 11007 21124 70033 555 32322 40201
AAXX 20064 71344 16/// /2414 10023 21039 60001 333 10037 21110 70000 555 32421 40181
AAXX 20064 71347 16/// /2307 10010 21018 60001 333 10038 21095 70000 555 32534 40003
AAXX 20064 71348 16/// /2416 10056 21006 60001 333 10061 21103 70004 555 32427 40131
AAXX 20064 71349 46/// ///// 10021 21022 6///1 333 10024 21113 7////
AAXX 20064 71402 46/// /0804 11052 21098 39945 40061 56022 6///1 333 11051 21075 7//// 555 30119 40131
AAXX 20064 71434 16/// /1911 11194 21213 39997 40065 56055 60001 333 11146 70000 555 32923 40191
AAXX 20061 34357 12598 81203 11039 21042 30128 40290 58004 60040 885// 333 21031
AAXX 20061 34363 11997 71004 11077 21084 30188 40351 55013 60100 70282 87050 333 21077 93608
AAXX 20061 34545 12498 81206 11005 21012 30148 40262 58010 60070 886// 333 21005
AAXX 20061 34579 32998 61105 11055 21101 30278 40325 52004 80001 333 21054
AAXX 20061 34838 32997 81204 10036 20017 30107 40205 55008 80009 333 20036
AAXX 20061 34927 31696 80802 10025 20004 30145 40183 58014 71022 8651/ 333 20024
AAXX 20061 34949 31112 81405 10006 20004 39676 40233 58008 71042 886// 333 21001 88702
AAXX 20061 37001 32997 80803 10124 20034 30118 40158 56011 8007/ 333 20082
AAXX 20061 37031 32997 81304 10026 20001 30005 40203 55010 80005 333 20008
AAXX 20061 37061 11395 81103 10047 20044 30075 40243 58008 69960 75152 886// 333 20046
AAXX 20061 37085 31497 81108 10061 20042 30285 40312 57003 76162 8872/ 333 20058 91113
AAXX 20061 37107 32999 81001 10054 20008 39527 40207 57002 8801/ 333 20037
AAXX 20061 37126 32999 81905 10039 11110 37976 48537 57006 86031 333 20010 48003
AAXX 20061 37171 32996 80605 10087 20029 30156 40174 57012 80005 333 20062
AAXX 20061 37228 32999 71501 10021 21038 39390 40237 58002 80006 333 21011
AAXX 20061 37470 32598 73402 10076 20039 30265 40243 57003 83531 333 20050
AAXX 20061 37663 32999 73205 10117 21099 39065 48550 57005 87004 333 21009
AAXX 20061 13463 11565 83601 10050 20045 30033 40094 57002 60182 76162 8582/ 333 20046 32003 55000
AAXX 20061 13459 11670 83404 10001 20001 39329 40106 57004 60112 70262 8587/ 333 20002 3/000 47012 55000 85696 88498 93107
AAXX 20061 13461 11670 80504 10071 20042 30074 40082 58004 60092 70296 8222/ 333 20061 32005 55007 82840 88458 92344 92448 92513
AAXX 20061 13363 12665 82701 11017 21021 39195 48407 52010 60062 885// 333 21017 3/104 43003 55000 93102
AAXX 20064 71501 17/// /3304 11262 21289 30036 40038 51012 69931 7//4/ 333 11220 21331 70006
AAXX 20064 71503 46/// /2710 11172 21198 39728 40003 51023 6///1 333 11151 21175 7//// 555 30621 40071
AAXX 20064 71506 46/// /1602 11165 21178 39095 49990 52015 6///1 333 11060 21180 7////
AAXX 20064 71903 47/// /2629 10066 20063 39998 40047 6///1 7//4/ 333 7////
AAXX 20061 28049 NIL
AAXX 20061 28144 NIL
AAXX 20061 28319 NIL
AAXX 20061 28321 NIL
AAXX 20061 28334 NIL
AAXX 20061 28434 NIL
AAXX 20061 28552 NIL
AAXX 20061 28666 NIL
AAXX 20061 28825 32597 81804 11080 21143 30317 40501 53010 885// 333 21105
AAXX 20061 29111 42999 72304 11122 21154 30269 40362 58016 82079
AAXX 20061 29209 42998 62503 11136 21163 30274 40409 52003 80002
AAXX 20061 29551 41497 82104 11119 21154 30224 40421 52007 78583 883//
AAXX 20061 29602 42999 22004 11170 21189 30315 40469 52001 80001
AAXX 20061 29636 41596 82503 11137 21157 30213 40449 52005 78582 883//
AAXX 20061 29654 41497 82105 11153 21172 39788 40449 52003 78583 8695/ 333 83710
AAXX 20061 29712 42998 22303 11183 21209 30322 40480 51004 82070
AAXX 20061 29724 41598 72304 11163 21189 30259 40480 52011 78582 82379
AAXX 20061 29726 41698 72304 11136 21163 30295 40475 52008 73673 83530
AAXX 20061 29814 42999 22305 11195 21221 30345 40508 51005 80009
AAXX 20061 29827 41697 42507 11142 21169 30337 40504 52010 73683 82530
AAXX 20061 29923 41998 82507 11139 21159 30204 40503 52006 73673 86078
AAXX 20061 29939 41497 82604 11124 21151 30205 40509 52004 77173 8802/ 333 88516
AAXX 20061 35026 32997 82301 11141 21174 39866 40563 53005 8807/ 333 21167
AAXX 20061 36021 42999 12602 11149 21183 30333 40529 52004 81030
AAXX 20061 36022 41498 52005 11152 21172 30248 40534 52002 70272 83601
AAXX 20061 36038 41998 51503 11186 21227 30083 40573 52007 72682 85030
AAXX 20061 36058 42699 71902 11090 21209 39978 40533 52003 87900
AAXX 20061 36064 41696 80603 11065 21111 39887 40510 52002 78683 889// 333 95000 95879
AAXX 20061 36229 42999 00000 11270 21284 39324 40661 58002
AAXX 20061 36259 42599 50000 11264 21311 38409 48684 54000 83902
AAXX 20064 71450 16/// /2209 10001 21036 39356 40075 58028 60001 333 10003 21118 70000 555 32220 40011
AAXX 20064 71452 46/// /2008 11028 21068 39409 40128 56022 6///1 333 11003 21125 7//// 555 32118 40041
AAXX 20064 71476 17/// /1931 30054 53010 60021 7//4/ 333 70342 555 31542 40213
AAXX 20064 71478 16/// /2821 10079 20045 30099 40236 52023 60001 333 10087 20056 70306 555 31749 40143
AAXX 20064 71479 16/// /1806 10083 20081 30132 40254 53015 60001 333 10088 20053 70000 555 31147 40183
AAXX 20064 71480 17/// /3005 11194 21220 39903 40027 51021 69991 7//4/ 333 11146 21198 70018 555 10040 20018
AAXX 20064 71482 46/// /2219 10079 30159 40197 53010 6///1 333 10086 20010 7//// 555 32330 40062
AAXX 20064 71484 16/// /2318 10083 20035 30088 40106 53020 60001 333 10097 20056 70000 555 31742 40083
AAXX 20064 71079 11420 82310 11043 21046 39655 49934 56032 69921 77177 885// 333 10040 20212 48010 70006 90983 555 10006 20004 31123 40010
AAXX 20061 23909 NIL
AAXX 20061 28044 NIL
AAXX 20061 28116 NIL
AAXX 20061 28240 NIL
AAXX 20061 28522 32998 81804 11086 21144 30190 40465 52015 8805/ 333 21099
AAXX 20061 28621 32998 81805 11082 21146 30211 40459 53011 8805/ 333 21105
AAXX 20061 29023 41998 82301 11113 21133 30224 40326 57004 70282 82032
AAXX 20061 29122 42999 32205 11105 21125 30273 40350 56002 80001
AAXX 20061 29328 42998 82203 11117 21137 30252 40400 52001 81031
AAXX 20061 29348 41497 82304 11108 21137 30241 40395 51004 77187 8272/
AAXX 20061 29405 42997 62503 11163 21182 30278 40437 52005 80001
AAXX 20061 29418 42998 02404 11142 21177 30270 40442 52004
AAXX 20061 29430 41998 82202 11124 21137 30222 40410 52005 77172 8802/
AAXX 20061 29524 42998 22404 11158 21177 30266 40443 52007 80001
AAXX 20061 29605 42998 22403 11164 21190 30321 40477 52004 80001
AAXX 20061 29631 41597 72305 11154 21173 30245 40447 52013 72682 87400
AAXX 20061 29645 41596 81703 11136 21163 30250 40461 52010 78582 889// 333 87924
AAXX 20061 29706 42998 02604 11200 21219 30330 40493 52003
AAXX 20061 29736 41497 82302 11141 21168 30203 40472 52007 70282 884//
AAXX 20061 29937 41997 82107 11167 21193 30283 40526 52006 73673 8805/
AAXX 20061 36034 41998 82007 11175 21201 30247 40550 54000 73673 83034
AAXX 20061 36096 41995 80000 11270 21302 39698 40579 52001 77177 8807/ 333 95090
AAXX 20064 71746 16/// /3513 10012 21034 39987 40209 50013 60001 333 10087 20012 70000 555 30125 40051
AAXX 20064 71748 16/// /2017 11057 21086 39834 40126 58048 60001 333 11040 21083 70000 555 32023 40061
AAXX 20061 23914 NIL
AAXX 20061 23921 NIL
AAXX 20061 23955 42998 82505 11112 21140 30252 40317 57008 86042
AAXX 20061 23966 41496 72402 11100 21117 30156 40287 57005 78581 87900
AAXX 20061 28138 NIL
AAXX 20061 28224 NIL
AAXX 20061 28255 NIL
AAXX 20061 28440 NIL
AAXX 20061 28645 NIL
AAXX 20061 28661 NIL
AAXX 20061 28722 11997 81806 11082 21146 30336 40476 52008 73632 8807/ 333 21107
AAXX 20061 28748 NIL
AAXX 20061 28838 NIL
AAXX 20061 29231 41698 82201 11116 21136 30264 40366 54000 70272 82539
AAXX 20061 29313 42998 62303 11111 21145 30263 40393 53002 82041
AAXX 20061 29612 42998 32203 11179 21198 30302 40468 52006 80001
AAXX 20061 29638 41559 82003 11147 21160 30280 40460 52008 78582 86901
AAXX 20061 29838 41597 62103 11143 21170 30238 40491 52008 72272 83530
AAXX 20061 29846 41357 82107 11145 21179 30067 40483 52009 77187 8572/ 333 85708
AAXX 20061 36061 41699 80000 11129 21149 30078 40519 52009 70282 885//
AAXX 20064 71550 16/// /2322 11001 21059 39694 40069 56043 60001 333 10000 21068 70000 555 32335 40063
AAXX 20064 71551 16/// /2511 10002 21033 39406 40059 58023 60001 333 10011 21118 70000 555 32426 40011
AAXX 20064 71579 16/// /2207 11057 21095 39864 40153 58035 60001 333 11035 21074 70000 555 32118 40051
AAXX 20064 71585 16/// /2208 10015 21023 39515 49961 56016 60001 333 7////
AAXX 20064 71151 16/// /2117 11058 21079 39663 40177 57034 60001 333 11045 21087 70000 555 31925 40061
AAXX 20064 71155 16/// ///// 10004 21003 60001 333 10028 21151 70008 555 10040 20008
AAXX 20064 71156 16/// /2803 10008 21007 38944 40036 56014 60001 333 10040 21151 70011
AAXX 20064 71158 16/// /1813 11057 21080 39761 40039 56063 60001 333 11046 21108 70000 555 31725 40051
AAXX 20064 71165 46/// ///03 11162 21180 39695 49981 51019 6///1 333 11144 21216 7////
AAXX 20063 68452 NIL
AAXX 20063 68454 12589 40000 10210 20126 38416 48/// 54000 69904 84050 333 20174 555 10300 20000
AAXX 20063 68456 NIL
AAXX 20061 37575 42597 80202 10049 21020 40347 54000 885//
AAXX 20061 37675 42999 60000 10043 21021 40251 57002 86008
AAXX 20061 37735 42696 82902 10050 21003 39882 40264 57006 885//
AAXX 20061 37749 42598 83602 10069 20031 40366 57004 885//
AAXX 20061 37756 41597 82405 10035 20021 40378 57011 70242 887//
AAXX 20061 37864 31496 81509 10082 20048 40333 52002 71022 885// 333 20073 555 30///
AAXX 20061 37985 41493 60000 10063 20042 40351 54000 74644 86600
AAXX 20064 71148 16/// /2218 11045 21079 39577 40168 58039 60001 333 11030 21116 70000 555 32125 40051
AAXX 20064 71435 16/// /2008 11100 21106 39599 40210 57019 60001 333 11035 21101 70000 555 32919 40101
AAXX 20064 71472 17/// /2923 10068 20051 30102 40119 53022 60011 7//4/ 333 10085 20064 7////
AAXX 20061 12772 31562 73103 11002 21021 39846 40138 57006 72272 8257/ 333 21002 42997 55000 82630
AAXX 20064 71832 16/// /2005 11137 21150 39864 40202 58013 60001 333 11021 21148 70000 555 32722 40101
AAXX 20064 61017 32960 50416 10164 21028 39745 40159 80002 333 05300 20041 50444 55098 58010 85080
AAXX 20064 61024 32960 31004 10110 21051 39574 40150 80002 333 00800 20108 50881 55/// 58010 83080
AAXX 20064 61036 32965 70402 10192 21019 39880 40119 81038 333 01700 20190 50821 50754 55100 59001 81365 87280
AAXX 20064 61043 32960 70606 10148 21058 39683 40125 81036 333 0//00 20148 50901 5///4 55105 58008 81364 87280
AAXX 20064 61045 32965 70000 10130 21030 39643 40148 80008 333 00800 20130 5//// 5/624 55105 58010 87280
AAXX 20064 61049 32960 70000 10126 21021 39813 40139 80008 333 00800 20114 50601 50474 55105 58009 87280
AAXX 20064 61052 32960 23606 10160 21002 39871 40129 80002 333 01300 20156 50771 55101 58008 82080
AAXX 20064 61075 32960 70000 10162 21009 39816 40127 82048 333 01200 20155 50751 50564 55101 58013 82365 86280
AAXX 20064 61080 32960 71006 10150 21035 39713 40134 80008 333 01300 20148 50841 50794 55093 58013 87280
AAXX 20064 61090 32962 70000 10130 21008 39625 40142 80008 333 00900 20125 50761 50614 55101 58010 87280
AAXX 20064 61091 32965 50000 10094 20033 39689 40153 80002 333 00700 20090 50491 50414 55098 58005 85080
AAXX 20064 61096 32965 73602 10136 21026 39761 40149 80008 333 01200 20134 51011 50664 55100 58011 87280
AAXX 20064 61099 32960 70000 10200 20048 39881 40110 87052 333 01500 20193 50701 55092 58006 87364
AAXX 20064 60595 36/// /0000 11451 333 21451
AAXX 20064 71079 11420 82310 11043 21046 39655 49934 56032 69921 77177 885// 333 10040 20212 48010 70006 90983 555 10006 20004 31123 40010
AAXX 20064 71501 17/// /3304 11262 21289 30036 40038 51012 69931 7//4/ 333 11220 21331 70006
AAXX 20064 71503 46/// /2710 11172 21198 39728 40003 51023 6///1 333 11151 21175 7//// 555 30621 40071
AAXX 20064 71506 46/// /1602 11165 21178 39095 49990 52015 6///1 333 11060 21180 7////
AAXX 20064 71903 47/// /2629 10066 20063 39998 40047 6///1 7//4/ 333 7////
AAXX 20064 61968 16/// /2604 10305 20239 40114 60024 333 20259 55/// 58007 90710 91109 555 60005
AAXX 20064 61970 16/// ///// 10300 20197 40118 60074 333 20264 55/// 58013 555 60005
AAXX 20063 68452 NIL
AAXX 20063 68454 12589 40000 10210 20126 38416 48/// 54000 69904 84050 333 20174 555 10300 20000
AAXX 20063 68456 NIL
AAXX 20061 40700 11558 82504 10040 21016 30247 40339 56001 60001 70522 85520 333 30000 70000 85630
AAXX 20061 40723 11958 10000 11014 21059 39074 40411 50001 60001 70500 80001 333 30112 70000 81068
AAXX 20061 40726 11620 80000 11016 21029 38780 40367 52011 60001 71022 8352/ 333 34102 70000 83635 88458
AAXX 20061 40727 11/08 90000 11028 21032 38600 40381 53010 60001 74544 333 30105 70000 89/15
AAXX 20061 40734 12560 60000 10092 20051 30354 40328 58001 60001 84830 333 3000 50130 70000 82820 83633 85359
AAXX 20061 40737 11420 80000 10094 20075 30313 40332 53002 60001 71022 8562/ 333 30007 50101 70000 85715 88458
AAXX 20061 40741 12962 00000 11020 21113 30117 40476 58007 60001 333 30109 70000
AAXX 20061 40780 12965 00000 10106 21073 38764 40266 52016 60001 333 34100 5//// 70000
AAXX 20061 40791 12962 00000 10064 21076 39515 40365 52019 60001 333 30102 50251 70000
AAXX 20061 40792 12970 00000 10020 21102 38852 40365 51012 60001 333 30108 70000
AAXX 20061 40794 12960 00000 10104 20056 30145 40245 52024 60001 90545 333 30003 50121 70000
AAXX 20061 40812 12960 00000 10132 20024 39842 40222 52008 60001 333 30004 50221 70000
AAXX 20061 40829 11901 03217 10043 21293 39712 40309 51003 60001 70730 333 36102 5//// 70000
AAXX 20061 40833 12960 00000 10106 20043 30215 40248 53018 60001 90542 333 30003 50291 70000
AAXX 20061 40835 12970 00000 10154 21057 39406 40249 52015 60001 333 30101 50321 70000
AAXX 20061 40845 12960 00102 10180 20118 30220 40227 52019 60003 90545 333 30013 50321 70000
AAXX 20061 40882 12960 00704 10222 20086 30188 40223 52020 60001 333 30013 50631 70000
AAXX 20061 40889 12660 10615 10236 20153 30220 40226 52027 6000 81200 222// 00250 20303 333 30021 5060 70000 81835
AAXX 20061 40890 11557 10610 10238 20084 30207 40215 52024 60003 70700 81100 222// 00232 20303 333 30016 50540 70000 81825
AAXX 20061 40893 12962 00403 10219 21035 30216 40222 52017 60001 222// 00210 20501 333 30017 50721 70000
AAXX 20061 40897 NIL
AAXX 20061 34949 31112 81405 10006 20004 39676 40233 58008 71042 886// 333 21001 88702
AAXX 20060 44210 NIL
AAXX 20060 44216 NIL
AAXX 20060 44217 NIL
AAXX 20060 44219 32998 00000 11260 21291 38779 40615 56005
AAXX 20060 44221 41995 80000 11278 21309 38739 40620 58003 77172 8802/
AAXX 20060 44224 32998 40000 11253 21277 38156 40588 58002 81048
AAXX 20060 44229 NIL
AAXX 20060 44242 41997 80000 11239 21265 39381 40396 52003 77172 8802/
AAXX 20060 44243 41999 70000 11240 21269 39483 40407 51001 70272 87070
AAXX 20060 44254 32998 72503 11137 21202 39018 40254 56012 87050
AAXX 20060 44257 32598 73205 11119 21200 38961 40281 58007 86540
AAXX 20060 44263 NIL
AAXX 20060 44266 32999 00000 11178 21219 37853 40492 52002
AAXX 20060 44286 NIL
AAXX 20060 44291 31895 70000 11238 21270 38761 40428 58006 70421 84074
AAXX 20060 44325 32999 00902 11136 21188 38957 40442 57003
AAXX 20060 44329 32998 03410 11128 21211 37809 40396 50000
AAXX 20060 44338 32999 01801 11114 21176 38528 40365 57007
AAXX 20060 44348 31997 02912 11162 21188 38695 40323 58017 73630 333 91114
AAXX 20060 44374 NIL
AAXX 20060 44385 NIL
AAXX 20060 44386 32999 02710 11128 21180 39084 40322 57019
AAXX 20064 13600 11650 80902 10050 20028 30042 40095 57010 60122 78088 883// 333 20044 32/// 81933 87646
AAXX 20064 13610 11540 70000 10050 20028 39665 40092 54002 60002 71022 87500 333 20026 31/// 87620
AAXX 20064 13611 11660 82204 10082 20079 39986 40077 57006 60082 76066 885// 333 20070 32/// 88633
AAXX 20064 13619 11910 00000 10018 20018 39317 42715 57020 60062 74562 333 21010 32///
AAXX 20064 13622 11665 80404 10076 20064 30068 40075 54004 60212 76066 885// 333 20065 32/// 88633
AAXX 20064 13624 11660 81404 10062 20045 30047 40086 54002 60122 76062 8252/ 333 20056 32/// 82646 86460
AAXX 20064 13625 NIL
AAXX 20064 13629 11656 82200 10008 20008 39027 42693 57017 60092 77076 885// 333 21004 41002 88636
AAXX 20064 13601 11558 80000 10062 20055 39961 40062 56010 60032 76166 8551/ 333 20062 32/// 85626 83460
AAXX 20064 13602 NIL
AAXX 20064 13623 11550 80000 10040 20040 30082 40088 54000 60252 76266 885// 333 20040 32/// 88626
AAXX 20061 28216 NIL
AAXX 20061 28428 NIL
AAXX 20061 28451 NIL
AAXX 20061 28541 NIL
AAXX 20061 28655 NIL
AAXX 20061 28756 NIL
AAXX 20061 29557 41598 82606 11119 21163 30138 40422 52004 78583 8437/
AAXX 20061 29625 42998 22505 11176 21195 30268 40464 52008 82030
AAXX 20061 29813 42999 32404 11177 21196 30288 40486 52008 81032
AAXX 20061 29822 42997 82503 11135 21162 30311 40489 52011 8807/
AAXX 20061 29915 42998 22504 11170 21196 30339 40512 52007 81032
AAXX 20061 36020 42498 82205 11150 21163 30308 40527 52006 889// 333 86915
AAXX 20061 40700 11558 82504 10040 21016 30247 40339 56001 60001 70522 85520 333 30000 70000 85630
AAXX 20061 40723 11958 10000 11014 21059 39074 40411 50001 60001 70500 80001 333 30112 70000 81068
AAXX 20061 40726 11620 80000 11016 21029 38780 40367 52011 60001 71022 8352/ 333 34102 70000 83635 88458
AAXX 20061 40727 11/08 90000 11028 21032 38600 40381 53010 60001 74544 333 30105 70000 89/15
AAXX 20061 40734 12560 60000 10092 20051 30354 40328 58001 60001 84830 333 3000 50130 70000 82820 83633 85359
AAXX 20061 40737 11420 80000 10094 20075 30313 40332 53002 60001 71022 8562/ 333 30007 50101 70000 85715 88458
AAXX 20061 40741 12962 00000 11020 21113 30117 40476 58007 60001 333 30109 70000
AAXX 20061 40780 12965 00000 10106 21073 38764 40266 52016 60001 333 34100 5//// 70000
AAXX 20061 40791 12962 00000 10064 21076 39515 40365 52019 60001 333 30102 50251 70000
AAXX 20061 40792 12970 00000 10020 21102 38852 40365 51012 60001 333 30108 70000
AAXX 20061 40794 12960 00000 10104 20056 30145 40245 52024 60001 90545 333 30003 50121 70000
AAXX 20061 40812 12960 00000 10132 20024 39842 40222 52008 60001 333 30004 50221 70000
AAXX 20061 40829 11901 03217 10043 21293 39712 40309 51003 60001 70730 333 36102 5//// 70000
AAXX 20061 40833 12960 00000 10106 20043 30215 40248 53018 60001 90542 333 30003 50291 70000
AAXX 20061 40835 12970 00000 10154 21057 39406 40249 52015 60001 333 30101 50321 70000
AAXX 20061 40845 12960 00102 10180 20118 30220 40227 52019 60003 90545 333 30013 50321 70000
AAXX 20061 40882 12960 00704 10222 20086 30188 40223 52020 60001 333 30013 50631 70000
AAXX 20061 40889 12660 10615 10236 20153 30220 40226 52027 6000 81200 222// 00250 20303 333 30021 5060 70000 81835
AAXX 20061 40890 11557 10610 10238 20084 30207 40215 52024 60003 70700 81100 222// 00232 20303 333 30016 50540 70000 81825
AAXX 20061 40893 12962 00403 10219 21035 30216 40222 52017 60001 222// 00210 20501 333 30017 50721 70000
AAXX 20061 40897 NIL
AAXX 20061 89064 36/// /2704 10021 29090 49912 52006
AAXX 20064 60667 36/// /0000 10048 21039 333 20047
AAXX 20064 60664 36/// /0000 10060 21044 333 20060
AAXX 20064 60633 36/// /0305 10089 21067 333 20081
AAXX 20064 60676 36/// /3409 10078 21018 333 20075
AAXX 20064 60672 36/// /1404 10053 21031 333 20053
AAXX 20064 60692 36/// /3608 10111 21106 333 20108
AAXX 20064 60691 36/// /0113 10119 21142 333 20111
BBXX 46249 20061 99338 71197 46/// ///// 1//// 90612 22200 00152 11502 20702 326// 41502 70012
BBXX 46248 20061 99461 71247 46/// ///// 1//// 90604 22200 00098 11504 21002 327// 41503 70020
BBXX 46244 20061 99409 71244 46/// ///// 1//// 90605 22200 00097 10907 20906 329// 41505 70037
AAXX 20064 60563 12660 53408 10013 20000 39369 48554 53011 60004 85200 333 05700 20006 85830
AAXX 20061 23226 11459 82106 11081 21108 39956 40179 57002 69930 77172 885// 333 21082 88613
AAXX 20061 23701 11462 82104 11046 21062 30097 40231 54000 69940 77173 8671/ 333 21064 86714
AAXX 20061 28909 32497 81606 11077 21137 30349 40456 53001 8352/ 333 21101
AAXX 20064 60677 36/// /0000 10066 21044 333 20048
AAXX 20061 11101 11565 51605 11024 21077 39629 40175 57026 69912 72272 85600 333 11012 21029 47009 85625 93197 91114
BBXX 46241 20061 99330 71173 46/// ///// 1//// 90541 22200 00142 11502 20601 327// 41501 70009
AAXX 20064 60662 36/// /0000 10041 21046 333 20041
AAXX 20064 60661 36/// /0107 10032 21055 333 20032
BBXX 46240 20061 99366 71219 46/// ///// 1//// 90612 22200 00123 11303 21002 336// 41303 70016
BBXX 46237 20061 99378 71226 46/// ///// 1//// 90610 22200 00111 11504 21002 326// 41503 70021
BBXX 46212 20061 99408 71243 46/// ///// 1//// 90612 22200 00097 11107 20905 330// 41104 70033
BBXX 46217 20061 99342 71194 46/// ///// 1//// 90612 22200 00150 11402 20702 327// 41402 70011
AAXX 20061 56146 32980 21403 10038 21171 36705 57050 80002 333 00001 21112
AAXX 20061 56444 32980 02902 10061 21094 36798 57026 333 00000 21080
AAXX 20061 56492 32760 80000 10102 20037 39820 40235 57050 885// 333 00103 20071
AAXX 20061 56571 32980 00701 10172 20012 38372 57051 333 00251 20026
AAXX 20061 57799 32970 03203 10135 20002 30145 40236 57038 333 20035
AAXX 20061 57866 32865 70205 10112 21016 30036 40247 57033 875// 333 20059
AAXX 20061 57957 NIL
AAXX 20061 57993 32960 02501 10164 20017 30048 40217 57043 333 20037
AAXX 20061 58027 31957 80000 10085 20002 30210 40263 57030 70500 80007 333 21024
AAXX 20061 58141 31940 81103 10072 20021 30245 40265 57030 70540 8807/ 333 21007
AAXX 20061 58265 11956 80903 10089 20053 30250 40258 57026 69901 76000 8802/ 333 20014
AAXX 20061 58472 11980 81104 10107 20050 30152 40248 57029 69901 76060 8807/ 333 20080
AAXX 20061 58477 11480 70702 10132 20068 30195 40240 57030 69981 70060 878// 333 20068
AAXX 20061 58527 32960 70000 10145 20024 30160 40237 57029 8704/ 333 20064
AAXX 20061 58633 31957 71402 10134 20046 30127 40229 57033 70500 8704/ 333 20066
AAXX 20061 58666 32665 73605 10122 20090 30127 40230 57033 875// 333 20097
AAXX 20061 58725 32968 03602 10193 20050 39944 40206 57042 333 20077
AAXX 20061 58921 32664 12701 10197 20068 39955 40202 57044 81100 333 20089
AAXX 20061 59082 32968 02902 10181 20007 30058 40207 57043 333 20036
AAXX 20061 59211 NIL
AAXX 20061 59265 NIL
AAXX 20061 59293 32870 70202 10203 20044 30101 40187 57042 875// 333 20092
AAXX 20061 59501 32767 80402 10198 20094 30161 40182 57030 885// 333 20152
AAXX 20061 59663 32964 70403 10203 20044 30075 40183 57028 8704/ 333 20129
AAXX 20061 59838 32962 70706 10221 20150 30148 40158 57030 83042 333 20164
AAXX 20061 59948 32380 70707 10192 20161 39669 40156 57027 878// 333 20162
AAXX 20061 59981 11576 80708 10247 20218 30111 40118 57030 69941 70060 888// 333 20221
BBXX 46216 20061 99343 71198 46/// ///// 1//// 90557 22200 00142 11503 20702 327// 41502 70013
BBXX 46223 20061 99335 71178 46/// ///// 1//// 90600 22200 00150 11502 21001 326// 41502 70010
BBXX 46231 20061 99327 71174 46/// ///// 1//// 90554 22200 00148 11503 20601 327// 41502 70013
BBXX 46222 20061 99336 71183 46/// ///// 1//// 90556 22200 00152 11502 20701 327// 41502 70011
BBXX 46242 20061 99332 71174 46/// ///// 1//// 90558 22200 00144 11501 20601 324// 41501 70007
AAXX 20063 87480 32965 00000 10215 20124 30029 40057 50003
AAXX 20063 87532 31970 33608 10244 20119 39880 40042 52001 71300 80006 333 56006 83280
AAXX 20064 87344 32965 12909 10223 20114 39528 40048 57012 81070 333 56000 81360
AAXX 20064 87349 NIL
AAXX 20064 87371 32962 80905 10268 20157 30038 40059 58001 8807/ 333 56009 88360
AAXX 20064 87374 32965 60000 10264 20161 39974 40058 51008 84076 333 56000 84360 84270
AAXX 20064 87395 32965 00000 10228 20163 30008 40051 56003
AAXX 20064 87418 32665 31804 10284 20070 39272 40023 52021 83500 333 56600 83645
AAXX 20064 87436 NIL
AAXX 20064 87448 NIL
AAXX 20064 87453 NIL
AAXX 20064 87467 32970 00916 10260 20087 39914 40042 57012
AAXX 20064 87497 NIL
AAXX 20064 87506 NIL
AAXX 20064 87509 32670 11807 10248 21008 39226 40032 52004 81400 333 56500 81640
AAXX 20064 87534 31960 00000 10197 20112 39890 40045 58004 70290
AAXX 20064 87548 32962 00506 10194 20154 39965 40057 57004
AAXX 20064 87576 32960 00703 10208 20184 30052 40075 55007
AAXX 20064 87582 32960 00908 10220 20200 30069 40076 58004
AAXX 20064 87585 32960 00903 10216 20204 30042 40072 58004
BBXX 46211 20061 99469 71242 46/// ///// 1//// 90606 22200 00084 11203 21002 327// 41203 70017
AAXX 20064 62357 NIL
AAXX 20064 62423 32960 02203 10049 20025 40207 52015 333 20038
AAXX 20064 62403 32960 03602 10114 20044 40190 52018 333 20088
AAXX 20063 87016 32560 23604 10239 20201 39637 40026 57009 81106 333 81820
AAXX 20063 NIL
AAXX 20064 87349 31960 02702 10239 20121 39696 40071 57008 70500
AAXX 20064 87453 31565 63610 10251 20110 39574 40037 57004 71791 83925 333 56556 57960 81630 82940
AAXX 20064 NIL
AAXX 20064 62357 NIL
AAXX 20064 62423 32960 02203 10049 20025 40207 52015 333 20038
AAXX 20064 62403 32960 03602 10114 20044 40190 52018 333 20088
AAXX 20064 87593 NIL
AAXX 20064 87623 31959 42305 10240 20125 39837 40051 53008 70600 84072 333 56066 84360
AAXX 20064 87641 32965 01404 10164 20161 39905 40074 58001
AAXX 20064 87645 32965 01105 10147 20144 39878 40079 57003
AAXX 20064 87648 NIL
AAXX 20064 87692 31357 80000 10174 20161 30065 40090 57005 71022 886// 333 56399 88708
AAXX 20064 87715 32970 32309 10190 20037 39776 40082 57003 80006 333 56009 83270
AAXX 20064 87750 32965 00508 10186 20122 39948 40043 57009
AAXX 20064 87765 11559 83209 10105 20065 39142 48449 57017 69901 71565 8457/ 333 56669 84625 86360 96015 96120
AAXX 20064 87784 NIL
AAXX 20064 87791 NIL
AAXX 20064 87800 NIL
AAXX 20064 87803 11565 70000 10104 20059 39148 40051 57017 69901 76062 86770 333 56660 86730 83360
AAXX 20064 87828 NIL
AAXX 20064 87860 32980 42710 10171 20067 39980 40033 52013 84070 333 56070 84360
AAXX 20064 87904 NIL
AAXX 20064 87909 NIL
AAXX 20064 87925 11580 32503 10067 20026 39945 49968 51005 69971 70280 83500 333 56000 83630
AAXX 20064 87938 NIL
AAXX 20061 23219 31998 82510 11060 21087 30078 40187 53003 73633 8807/ 333 47044
AAXX 20061 22520 11497 71502 11004 21010 30002 40011 52005 69952 70381 85550 333 21009 85617
AAXX 20061 23205 11297 82005 11037 21066 30107 40122 53001 69920 78582 889// 333 21055 87706 91109
AAXX 20061 22845 11596 82007 10007 21005 39985 40143 52013 69930 78583 889// 333 20001 88928
AAXX 20061 23418 11208 82005 11059 21085 30137 40213 54000 69950 77572 8672/ 333 21072 86703
AAXX 20060 67687 32580 11502 10225 20172 81101 333 20154 5//// 55/// 82820 555 10258 7//00
AAXX 20060 67699 32580 11501 10245 20159 81500 333 20153 5//// 55/// 81625 555 10289 7//11
AAXX 20061 40009 32965 00000 10010 21005 40248 53004 333 21010 34///
AAXX 20061 40016 32970 03001 10014 21002 40290 52014 333 20006 31/// 55086 70000
AAXX 20061 40022 32965 00505 10136 20033 40182 51006 222// 20000 333 20126 30///
AAXX 20061 40030 31/01 90000 10044 20042 40251 52007 74044 89/// 333 20036 31/// 50004 55025 89/01
AAXX 20061 40039 32970 00000 10011 20003 40254 51008 333 20000 30/// 55071 70000
AAXX 20061 40066 32970 30605 10110 20035 40187 53003 80001 333 20072 30/// 83070
AAXX 20061 40072 32970 00000 10060 20010 40284 54000 333 20030 30///
AAXX 20061 40083 32970 52001 10066 21019 48537 52008 80002 333 20032 30/// 85070
BBXX C6CU6 20063 99285 70588 41497 41324 10190 20156 40217 51015 70322 8319/ 22262 04233 21011 334// 41309 5//// 80170
AAXX 20061 60381 16/// /2001 10060 20048 60074 333 20057
AAXX 20061 60639 36/// /0904 10023 21046 333 20023
AAXX 20061 60605 36/// /1207 10088 21008 333 20077
AAXX 20064 78988 01481 50916 10266 20223 30124 40135 57010 69911 70382 83201 333 58002 69917 83815 83081
AAXX 20064 78990 01/// /0000 10266 20215 30135 57011 60001 70000 333 58002 60007
AAXX 20064 78873 NIL
AAXX 20064 16245 12965 03512 10014 21010 30131 40158 53009 60002 333 20008 30/// 55/// 2////
BBXX DGUG2 20064 99320 70178 41598 20822 10175 20106 40265 56005 70122 81870 22254 04210 20704 80135
BBXX DDLK 20063 99451 70533 41/97 73633 10026 21011 40035 57005 70122 8//// 22223 20807 301// 41210 80011
AAXX 20061 13492 ///// 5//// 11044 333 21051
AAXX 20061 13584 NIL
AAXX 20061 13585 12595 80000 10024 20023 39290 40091 56005 60012 886// 333 20022 31001
AAXX 20061 13597 12695 80000 10062 20062 30013 40087 54000 60012 71044 885// 333 20059 31004
AAXX 20061 13598 11598 80000 10004 20001 48375 56005 60032 70262 886// 333 20004 32001 90731
BBXX A8IQ2 20060 99136 30671 41598 61407 10290 20247 40110 5/000 70322 8/748 22253 04290 20403 316// 40603 5//// 80258
AAXX 20064 48360 32960 20000 10250 20134 39872 40133 57032 80005 333 59008
BBXX DGPT2 20064 99071 70339 41598 11920 10265 20215 40100 54000 70200 811// 22214 00270 2//// 80230
AAXX 20061 50353 32970 01601 11150 21216 39951 40193 57017 333 21270
AAXX 20061 50557 32970 02202 11148 21194 39885 40213 57024 333 21274
AAXX 20061 50756 32960 01402 11144 21182 39919 40245 57021 333 21248
AAXX 20061 50949 32965 02503 11053 21184 30051 40232 57024 333 21166
AAXX 20061 50963 32960 01804 11080 21148 30097 40245 57027 333 21255
AAXX 20061 50978 32975 02504 11079 21170 39888 40260 57014 333 21179
AAXX 20061 51087 32980 00000 11203 21237 39491 40591 54000 333 01255 21280
AAXX 20061 51156 32980 00701 11121 21193 38897 40533 52005 333 00953 21182
AAXX 20061 51644 32960 72002 11024 21100 39076 40403 52013 82032 333 00902 21075
AAXX 20061 51656 32980 30903 10008 21136 39238 40373 52009 81032 333 00704 21056
AAXX 20061 51886 32880 71601 11083 21240 37099 57008 82502 333 00052 21154
AAXX 20061 52602 32980 73404 11038 21260 37246 57017 80002 333 00051 21197
AAXX 20061 52713 32680 72901 11046 21208 36877 57018 83502 333 00002 21178
AAXX 20061 52754 32980 81601 11020 21173 36761 57024 80007 333 00051 21147
AAXX 20061 52818 32980 72704 11054 21219 37207 57017 80002 333 05100 21128
AAXX 20061 52836 32980 71603 10029 21198 36848 57029 80002 333 00100 21124
AAXX 20061 52955 32780 73402 10010 21183 36935 57030 82502 333 00101 21158
AAXX 20061 53068 32980 02703 11098 21169 39105 40344 57028 333 05409 21244
AAXX 20061 53276 32980 02506 11108 21172 38906 40360 57019 333 21205
AAXX 20061 54135 32980 02504 11049 21202 30016 40252 57026 333 21181
AAXX 20061 54236 32965 01804 11019 21137 30143 40255 57032 333 21178
AAXX 20061 54539 32970 02703 10031 21136 30248 40263 57036 333 21068
AAXX 20061 54662 32570 22203 10034 21041 30148 40266 57026 82100 333 21031
AAXX 20061 54753 31940 02703 10032 21021 30264 40271 57023 71000 333 21023
AAXX 20061 54857 31930 83401 10045 21030 30177 40272 57025 70400 80007 333 21003
AAXX 20061 57067 31920 71601 10062 21027 39569 40263 57041 71000 8703/ 333 21019
AAXX 20061 57178 31957 71401 10072 21028 30112 40275 57033 70500 80002 333 20017
AAXX 20061 57245 32961 80202 10094 20008 39891 40246 57040 8807/ 333 00251 20069
AAXX 20061 57297 31958 70901 10067 21022 30125 40270 57032 71000 8703/ 333 20009
AAXX 20061 48826 31956 60000 10226 20149 30043 40179 58030 71022 80008 333 59006 86299
AAXX 20061 48839 32697 80208 10194 20132 30111 40177 57031 885// 222// 00199 2//03 333 59012 88696
AAXX 20061 38599 11497 62605 11091 21121 39917 40477 50006 69900 77172 86500 333 21101 83711 83635
AAXX 20061 48806 32760 21603 10193 20095 39400 40171 57043 82500 333 59003 82697
AAXX 20061 48808 32470 23602 10222 20121 39897 40180 57043 82100 333 59006 82894
AAXX 20061 48830 31960 03601 10205 20088 39876 40184 57038 70241 333 59007
AAXX 20064 89514 32698 71218 11004 49811 57009 86028 333 86447 86270
AAXX 20064 89514 32698 71218 11004 49811 57009 86028 333 86447 86270
AAXX 20061 78458 32466 50000 10224 20209 40197 57009 82230 333 10283 20190 31/// 56000 58012 82818 84357
AAXX 20061 78460 21458 40000 10197 20182 40186 56014 70564 84500 333 10301 20165 30/// 56000 60015 84618
AAXX 20061 78479 32466 50706 10234 20194 40160 57005 83270 333 10272 20220 30/// 56100 58025 83818 83457
AAXX 20061 78485 32466 40303 10192 20173 40181 57009 82230 333 10280 20172 30/// 56000 58012 82818 83358
AAXX 20061 78486 21466 60000 10214 20199 40160 57010 70380 83220 333 10324 20200 30/// 56000 58015 69906 83816 83457
AAXX 20061 89062 46/// /2604 10019 21016 39868 49908 52006 333 55008
AAXX 20061 91945 36/// /0810 10266 20218 30151 40156 53016 555 58004 60024
BBXX 42362 20061 99278 70907 46/// /1608 10228 20183 40166 56017 90600
BBXX 42362 20061 99278 70907 46/// /1708 10228 20183 40166 90615
BBXX 42363 20061 99282 70892 46/// /1406 10222 20167 40173 90630 333 91206
BBXX 42364 20061 99291 70881 46/// /1616 10200 20183 40190 90615
BBXX 41115 20061 99184 70673 46/// ///// 1//// 90605 22200 11203 20602 302// 41201 70013
BBXX 41114 20061 99276 70802 46/// ///// 1//// 90616 22200 00238 10403 20403 306// 41101 70014
AAXX 20064 67767 NIL
AAXX 20064 67843 32980 60704 10246 20201 38961 48522 81031 333 20177 59008 81359 86080
AAXX 20064 67969 31970 30501 10244 20148 3//// 48/// 70500 81032 333 20157 5//// 81360 83080
AAXX 20064 40582 31957 02704 10110 20004 40249 51016 70500 333 55301 00479 10000 21078 30339 41058 51312 61417 55407 40739 90401 91005 91109 91207 91303
AAXX 20064 41150 NIL
AAXX 20064 41168 NIL
AAXX 20064 41170 41950 03008 10184 20127 30220 40233 70500 333 20155 59003 555 00140
AAXX 20064 41176 NIL
AAXX 20064 41184 NIL
AAXX 20064 41194 NIL
AAXX 20064 41196 NIL
AAXX 20064 41198 NIL
AAXX 20064 41210 NIL
AAXX 20064 41216 NIL
AAXX 20064 41217 NIL
AAXX 20064 41218 NIL
AAXX 20064 41226 NIL
AAXX 20064 41244 36/// /0916 10219 20047 39863 48525 333 0E018 20178 58004
AAXX 20064 41246 31958 01012 10247 20113 30224 40228 70600 333 20186 3/020 58017
AAXX 20064 41254 36/// /3204 10111 20020 38219 48224 333 0E004 20050 58020
AAXX 20064 41256 32558 50411 10238 20118 30214 40224 85530 333 20198 58015 85625
AAXX 20064 41258 36/// /0609 10240 20132 30211 40216 333 0E/// 20234 58016
AAXX 20064 41268 32560 60514 10247 20130 30196 40212 86500 333 20226 3/022 58010 86625
AAXX 20064 41312 36/// /0013 10236 20052 30155 40195 333 0E/// 20220 58005
AAXX 20064 41314 32960 43213 10183 20059 39712 40224 80001 333 2012558000 84075
AAXX 20064 41316 32960 53613 10240 20034 30172 40198 80001 333 20210 58006 85075
AAXX 20064 41404 42960 02303 10116 21029 37910 48572 333 20020 30130 59001
AAXX 20064 41407 42970 00806 10166 20017 39001 48552 333 20076 30/// 58002
AAXX 20064 41431 41958 01608 10256 20212 30147 40160 70544 333 20216 30/// 58000
AAXX 20064 41466 42560 11609 10184 20102 38603 48502 81600 333 20136 30/// 58005 81715
AAXX 20064 41477 NIL
AAXX 20064 41480 42560 30910 10264 20178 30184 40187 83500 333 20222 30/// 58000 83620
BBXX 63110 20063 99595 10015 41/96 /1918 10056 49978 700// 8//// 22200 10503 70015
BBXX 62442 20064 99490 70164 46/// /2415 1//// 2//// 40244 58004 22200 00126
BBXX 62301 20064 99524 70047 46/// /3117 10087 20055 40158 52019 22200 00088 10504 70021
BBXX 62303 20064 99516 70051 46/// /3119 10103 20063 40170 52015 22200 00109 10605 70023 333 90710 91126
BBXX 62081 20064 99510 70134 46/// ///// 10110 20093 40218 58004 22200 00120 10705 70025
BBXX 64046 20064 99606 70049 46/// /3022 10058 20006 40012 52015 22200 00079 10708 70040
BBXX 62001 20064 99453 70050 46/// /3015 10139 20133 40228 55001 22200 00142 10605 70027
BBXX 62029 20064 99487 70125 46/// /2810 10121 20093 40248 50003 22200 00130 10604 70022
BBXX 62105 20064 99554 70122 46/// /2913 10086 20033 40146 57003 22200 00106 10708 70042
BBXX 64045 20064 99591 70117 46/// /2924 10053 20024 40070 52006 22200 00101 10910 70049 333 90710 91134
BBXX 62163 20064 99475 70084 46/// /3214 10115 20088 40240 53008 22200 00128 10605 70023
BBXX V2NA1 20064 99436 70293 41/98 31921 10150 20142 40265 54000 70200 8//// 22224 04140 20405 80145
BBXX AMOUK09 20064 99517 10018 46/// ///// 10079 20054 30067 40082 52015 90550
BBXX AMOUK10 20064 99508 10003 46/// ///// 10075 20044 30121 40117 52006 90550
BBXX AMOUK14 20064 99536 70039 46/// ///// 10084 20040 30085 40119 52008 90550
BBXX AMOUK08 20064 99501 70061 46/// ///// 10112 20064 30190 40195 52012 90550
BBXX AMOUK27 20064 99582 70064 46/// ///// 11192 2//// 30074 40078 52018 90550
BBXX AMOUK05 20064 99532 10013 46/// ///// 10072 20034 39994 40030 52017 90550
BBXX AMOUK06 20064 99512 10014 46/// ///// 10082 20044 30072 40088 54000 90550
BBXX AMOUK03 20064 99535 10005 46/// ///// 10063 20038 30029 40058 54002 90550
BBXX AMOUK19 20064 99573 70019 46/// ///// 10044 20010 30033 40037 52039 90550
BBXX 62027 20064 99491 70022 46/// /3519 1//// 2//// 40165 53018 22200 00112 10904 331// 70018
BBXX 63056 20064 99597 10016 47495 /1614 10054 20026 49969 56004 771// 22200 10503 70015
BBXX 63110 20064 99595 10015 47495 /1914 10053 20031 49978 53001 763// 22200 10503 70015
BBXX 63057 20064 99592 10015 46/// ///// 22200
BBXX 62128 20064 99587 10014 47496 /3014 10054 20034 49986 53014 762// 22200 10603 70017
BBXX 62111 20064 99580 70003 46/// /3327 10062 20017 40022 52030 22200 10606 70031
BBXX PJAI 20064 99581 70014 47998 /3123 10068 20000 40025 52025 700// 22200
BBXX 62112 20064 99584 70002 47597 /3020 10073 20014 40001 52026 700// 22200
BBXX 63055 20064 99606 10016 47397 /1415 10056 20015 49968 56010 762// 22200 10502 70012
BBXX 63108 20064 99608 10017 47296 /1817 10039 20007 49965 57008 762// 22200 10503 70013
BBXX 63106 20064 99610 10017 46/// /1616 10051 49973 57008 22200
BBXX 63105 20064 99610 10017 47498 ///// 10059 20013 49973 56009 700// 22200
BBXX 63113 20064 99610 10017 46/// /1617 10054 20013 49972 57008 22200 10503 70015
BBXX 63112 20064 99611 10010 47497 /1715 10060 20011 49964 57007 761// 22200 10503 70016
BBXX 63107 20064 99611 10017 46/// /1717 10053 49972 56008 22200
BBXX 63101 20064 99612 10009 46/// /1914 10047 20021 49971 56004 22200
BBXX 63103 20064 99612 10011 46/// /1818 10054 20010 49966 57009 22200 10503 70015
BBXX 63104 20064 99612 10016 47497 /1617 10055 20008 49971 56008 762// 22200
BBXX 63117 20064 99613 10011 47496 /1817 10051 21002 49974 56005 762// 22200
BBXX 63115 20064 99616 10013 47398 /1618 10085 20015 49964 57008 761// 22200 10503 70017
BBXX MWYG6 20064 99603 70040 47998 /3021 10052 700// 22200
BBXX 64041 20064 99607 70026 47898 /2823 10054 21009 49988 52015 700// 22200 10707 70034
BBXX PJGO 20064 99571 10022 47596 /3106 10065 20047 49997 53015 762// 22200
BBXX 62133 20064 99571 10009 46/// /3130 10079 20011 40003 52018 22200
BBXX 62119 20064 99570 10019 47497 /3323 10070 20048 49997 53016 700// 22200 10604 70018
BBXX 62152 20064 99570 10018 47/98 /3229 10075 20044 40000 53016 700// 22200 10504 70021
BBXX 62154 20064 99564 10022 46/// /3320 10068 20050 49995 53019 22200
BBXX 62120 20064 99564 10021 47597 /3430 10065 20045 40009 53025 761// 22200
BBXX 62132 20064 99564 10020 46/// /0000 10072 20048 40019 53030 22200
BBXX 62123 20064 99563 10022 47597 /3226 10069 20045 49996 53016 762// 22200
BBXX 62165 20064 99540 10009 47598 /3120 10077 20023 40073 52020 700// 22200 10605 70026
BBXX 62127 20064 99540 10007 47598 ///// 10075 20018 40063 52019 700// 22200 10605 70025
BBXX 62131 20064 99539 10012 46/// /33// 10077 20028 40055 52018 22200
BBXX 62149 20064 99537 10011 47598 /3024 10075 20035 40063 52019 751// 22200 10605 70023
BBXX 62148 20064 99536 10015 46/// /3027 10076 20032 40068 52017 22200
BBXX 62150 20064 99536 10007 47998 /2924 10068 20024 40081 52018 700// 22200 10604 70018
BBXX 62121 20064 99535 10027 46/// ///// 22200
BBXX 62144 20064 99534 10017 47598 /3022 10071 20032 40064 53008 700// 22200 10505 70024
BBXX 62145 20064 99531 10028 47598 /3022 10079 20038 40060 52010 700// 22200 10504 70021
BBXX 62142 20064 99530 10021 47697 /3023 10076 20038 40055 52012 700// 22200 10504 70019
BBXX 62129 20064 99584 10003 46/// ///// 10073 20028 49988 52018 22200
BBXX 62113 20064 99584 10002 47698 /3226 10084 20032 49986 52016 700// 22200
BBXX ZQSD5 20064 99583 10007 46/// /3230 10071 20039 49999 52019 22200 10703 70015
BBXX 62114 20064 99583 10000 46/// /3131 10076 20002 49997 51025 22200
BBXX 62134 20064 99580 10014 47498 /3226 10066 20042 49984 53008 762// 22200 10503 70016
BBXX 62102 20064 99579 10018 46/// /3016 10069 20037 49981 53003 22200 10603 70015
BBXX 62117 20064 99579 10000 47697 /3233 10069 20034 40003 52023 700// 22200 10606 70032
BBXX 62143 20064 99577 10018 47398 /3217 10065 20044 49991 53010 700// 22200 10503 70016
BBXX 62118 20064 99577 10009 47596 /3226 10072 20035 49993 53019 700// 22200 10505 70025
BBXX 62155 20064 99577 10007 47597 /3131 10078 20031 40002 53020 751// 22200 10505 70023
BBXX 62116 20064 99576 10011 47497 /3223 10073 20040 49991 53012 700// 22200 10504 70021
BBXX 62104 20064 99574 10013 47497 /3232 10069 20046 49991 52012 700// 22200
BBXX 62153 20064 99573 10020 47498 /3217 10070 20050 49991 53011 762// 22200 10603 70017
BBXX 62122 20064 99573 10016 47497 /3126 10073 20041 49987 52005 763// 22200 10504 70018
BBXX 62140 20064 99573 10013 46/// /32// 10069 20037 49987 52006 22200
BBXX 62146 20064 99572 10021 47/98 /3108 10062 20039 49993 53015 700// 22200 10603 70017
BBXX 62164 20064 99572 10008 47597 /3227 10086 20039 40005 53020 700// 22200 00094 10607 70035
BBXX 62103 20064 99499 70029 46/99 /3325 10107 20062 40158 52018 22200 00122 10703 70015 333 90710 91131
BBXX 62105 20064 99561 70122 46/// ///13 10086 20033 40146 57003 22200 00106 10708 70042
BBXX 64045 20064 99591 70117 46/// /2924 10053 20026 40070 52006 22200 00101 10910 70049 333 90710 91134
BBXX 62094 20064 99517 70067 46/// /2919 1//// 2//// 40184 53011 22200 00105 10504 70019 333 90710 91125
BBXX 62170 20064 99514 10020 46/97 /3032 10087 20053 40086 53001 22200 00109 10502 70010 333 90710 91142
BBXX 62304 20064 99511 10018 46/98 /3133 10087 20049 40093 55003 22200 00111 10502 70010
BBXX 62304 20064 99511 10018 46/98 /3130 10087 20048 40093 55003 22200 00112 10502 70010 333 90710 91138
BBXX 62305 20064 99504 10000 46/98 /3128 10100 20058 40137 53012 22200 00120 10703 70013 333 90710 91133
BBXX 62094 20064 99517 70067 46/// /2919 10097 20064 40184 53011 22200 00105 18504 70019 333 90710 91125
BBXX 62107 20064 99501 70061 46/// /3321 10108 20051 40195 51018 22200 00116 10704 70019 333 90710 91129
BBXX 62095 20064 99530 70159 46/// /2113 10106 20080 40172 56020 22200 00113 10806 70029
BBXX 2AUO5 20063 99606 10016 41397 81517 10064 20043 49970 57010 76366 8/7// 22200 02081 20701 315// 40703 80055
BBXX DAXJ 20063 99345 10217 41598 52821 10149 20070 40160 52010 72582 8329/ 22224 00174 20504 332// 40705 5//// 80107
BBXX SHIP 20063 99358 70124 41/97 50316 10149 40300 53001 70011 8//7/ 22283 20304
BBXX 62103 20064 99499 70029 46/99 /3223 10105 20051 40164 52019 22200 00122 10703 70015 333 90710 91135
BBXX 51205 20061 99210 71564 46/// ///// 1//// 90618 22200 00242 10906 20905 309// 41102 70029
BBXX 46114 20061 99364 71222 46/// ///// 1//// 90604 22200 00124 11307 21004 330// 41305 70034
BBXX 46221 20061 99339 71186 46/// ///// 1//// 90545 22200 00150 11502 21001 327// 41501 70008
BBXX 44098 20061 99428 70702 46/// ///// 1//// 90607 22200 00088 10604 20603 310// 41202 70019
BBXX 51203 20061 99208 71570 46/// ///// 1//// 90613 22200 00249 11202 20301 324// 41201 70009
BBXX 52200 20061 99134 11448 46/// ///// 1//// 90615 22200 00287 10905 20905 311// 41101 70025
BBXX 51201 20061 99217 71581 46/// ///// 1//// 90612 22200 00242 10804 20804 333// 41202 70022
AAXX 20061 28791 32999 52204 11203 21236 30341 40503 57001 80001 333 21208
AAXX 20061 28588 32982 52303 11191 21224 30309 40486 53001 80005 333 21195
AAXX 20061 23929 31556 82506 11069 21111 30266 40336 52014 73883 83931 333 21094
AAXX 20061 22282 325// 82010 11007 21024 30051 40059 53001 885// 333 21024
AAXX 20061 28383 32970 82102 11129 21172 30330 40420 57007 82074 333 21156
AAXX 20061 28465 32999 82007 11176 21202 30367 40451 57005 83032 333 21204
AAXX 20061 28586 32998 72406 11172 21214 30309 40472 57001 87050 333 21188
AAXX 20061 28688 32998 62203 11192 21225 30326 40504 54000 80002 333 21220
AAXX 20061 78458 32466 50000 10224 20209 40197 57009 82230 333 10283 20190 31/// 56000 58012 82818 84357
AAXX 20061 78460 21458 40000 10197 20182 40186 56014 70564 84500 333 10301 20165 30/// 56000 60015 84618
AAXX 20061 78479 32466 50706 10234 20194 40160 57005 83270 333 10272 20220 30/// 56100 58025 83818 83457
AAXX 20061 78485 32466 40303 10192 20173 40181 57009 82230 333 10280 20172 30/// 56000 58012 82818 83358
AAXX 20061 78486 21466 60000 10214 20199 40160 57010 70380 83220 333 10324 20200 30/// 56000 58015 69906 83816 83457
AAXX 20061 38388 32998 00904 11098 21157 30412 40489 53002 333 21148
AAXX 20061 38392 32998 00904 11108 21170 30402 40515 53003 333 21143
AAXX 20061 38507 32999 20702 10014 21186 30386 40359 53005 80008 333 21014
AAXX 20061 38511 NIL
AAXX 20061 38545 32998 00802 11104 21166 30311 40503 52012 333 21142
AAXX 20061 38647 32997 20916 11051 21148 30342 40387 52004 80001 333 21069 91018 91120
AAXX 20061 38656 32998 00704 11066 21116 30354 40472 53010 333 21102
AAXX 20061 38687 32997 00206 11073 21143 30230 40485 52009 333 21123
AAXX 20061 38750 31993 00702 10038 20038 30371 40342 53003 74444 333 20004
AAXX 20061 38763 32998 00909 11066 21137 30296 40409 54000 333 21076
AAXX 20061 38774 32999 00904 11040 21094 30238 40448 58001 333 21091
AAXX 20061 38799 32997 00000 11091 21146 30238 40492 52007 333 21140
AAXX 20061 38806 32997 03602 11079 21135 30189 40473 52002 333 21116
AAXX 20061 38880 32997 01105 11037 21099 30182 40455 51004 333 21088
AAXX 20061 38886 32997 01501 11043 21089 30225 40470 53008 333 21101
AAXX 20061 38895 32996 00401 11070 21133 30178 40493 51008 333 21105
AAXX 20061 38911 32998 01804 11076 21098 30149 40469 52002 333 21107
AAXX 20061 38915 32999 00000 11057 21075 30120 40468 52005 333 21094
AAXX 20061 38974 32998 02701 11029 21096 30116 40474 52005 333 21077
AAXX 20061 38987 32996 00802 11051 21061 39677 40475 57020 333 21085
AAXX 20061 28696 32980 82003 11182 21215 30334 40488 52004 80001 333 21212
AAXX 20061 38847 3//// /1500 11037 21121 39630 40450 333 21075 777 92052
AAXX 20061 78458 32466 50000 10224 20209 40197 57009 82230 333 10283 20190 31/// 56000 58012 82818 84357
AAXX 20061 78460 21458 40000 10197 20182 40186 56014 70564 84500 333 10301 20165 30/// 56000 60015 84618
AAXX 20061 78479 32466 50706 10234 20194 40160 57005 83270 333 10272 20220 30/// 56100 58025 83818 83457
AAXX 20061 78485 32466 40303 10192 20173 40181 57009 82230 333 10280 20172 30/// 56000 58012 82818 83358
AAXX 20061 78486 21466 60000 10214 20199 40160 57010 70380 83220 333 10324 20200 30/// 56000 58015 69906 83816 83457
AAXX 20061 29998 42799 63103 11136 21230 38683 48535 52007 84531
AAXX 20061 30385 41999 80000 11241 21254 39618 40193 53004 70272 8802/
AAXX 20061 30469 41997 82002 11186 21198 39364 40161 56009 77177 8802/
AAXX 20061 30636 419// 82502 11103 21156 39576 40200 58003 77173 86037
AAXX 20061 30650 42999 52302 11176 21210 39027 40199 57003 82041
AAXX 20061 30664 42999 82304 11132 21167 39125 40141 57012 83045
AAXX 20061 30781 42999 80000 11189 21215 39683 40181 57025 8807/
AAXX 20061 30777 41943 80000 11179 21198 39490 40177 57019 77172 85077
AAXX 20061 30844 41999 62707 11138 21181 39243 40261 57003 73631 85041
AAXX 20061 30925 42899 80901 11164 21190 39311 40343 52004 86075
AAXX 20061 31371 42999 30000 11194 21235 39919 40200 57021 80005
AAXX 20061 31388 42999 00701 11214 21239 39950 40237 57017
AAXX 20061 31478 NIL
AAXX 20061 31532 42999 00203 11296 21326 39904 40288 57010
AAXX 20061 31594 42999 80901 11161 21203 30041 40222 57021 8805/
AAXX 20061 31655 42998 02004 11162 21204 30182 40232 57006
AAXX 20061 31754 42999 31603 11169 21211 39413 40246 57008 83030
BBXX DHSI 20064 99195 70176 41898 30219 10220 20175 40140 55010 70100 82071 22284 21005 334// 41205 80190
BBXX DCPX2 20064 99140 10520 41997 40322 10255 20155 40175 70511 80002 22224 06240 20404 80190
BBXX A8CI9 20064 99134 10571 41697 50125 10265 20208 40170 52005 70322 85476 22234 04269 20303 3//// 4//// 5//// 80225
BBXX A8SF7 20061 99126 70755 41098 20912 10270 20241 40125 56015 7//00 82100 22244 04260 21004 309// 41204 5//// 80250
BBXX A8VL5 20064 99251 10359 41997 09904 10230 20199 40280 53010 70500 80000 22274 00260 20100 30000 80210
BBXX MGGK4 20061 99108 70170 41/98 13505 10257 20187 40112 70200 8//// 22274 00290 2//// 3//// 4//// 5//// 80212
BBXX DGPT2 20064 99071 70339 41598 11920 10265 20215 40100 54000 70200 811// 22214 00270 2//// 80230
BBXX A8IQ2 20060 99136 30671 41598 61407 10290 20247 40110 5/000 70322 8/748 22253 04290 20403 316// 40603 5//// 80258
BBXX DCPX2 20064 99140 10520 41997 40322 10255 20155 40175 70511 80002 22224 06240 20404 80190
BBXX A8CI9 20064 99134 10571 41697 50125 10265 20208 40170 52005 70322 85476 22234 04269 20303 3//// 4//// 5//// 80225
BBXX A8VL5 20064 99251 10359 41997 09904 10230 20199 40280 53010 70500 80000 22274 00260 20100 30000 80210
BBXX MGGK4 20061 99108 70170 41/98 13505 10257 20187 40112 70200 8//// 22274 00290 2//// 3//// 4//// 5//// 80212
BBXX DHSI 20064 99195 70176 41898 30219 10220 20175 40140 55010 70100 82071 22284 21005 334// 41205 80190
AAXX 20063 64400 32457 71606 10245 20230 30102 40121 8387/ 333 02400 20230 50114 55003 58006 81810 83623 87362
AAXX 20063 64401 32460 61804 10240 20215 39745 40117 86530 333 01800 20223 50194 55017 59001 81616 86640
AAXX 20063 64450 32457 83004 10244 20225 39763 40116 8687/ 333 02000 20234 50144 55013 58005 82813 86620 88463 94904 95834
AAXX 20063 64453 31360 72202 10210 20203 39/// 40/// 71792 8597/ 333 0//00 20173 50144 55021 5//// 84706 81930 87363 94941 95831
AAXX 20063 64456 41904 61802 10228 20228 39/// 40/// 74244 80080 333 0//00 20221 50154 55080 5//// 86360
AAXX 20063 64458 31440 60000 10215 20207 39711 40099 71011 83530 333 01600 20198 50244 55/// 58002 83610 86363
AAXX 20063 64459 11930 50000 10245 20235 39762 40122 69914 71092 80002 333 02059 20215 50244 55/// 59010 85080
BBXX C6XQ2 20063 99276 50469 41998 13513 10250 20235 40088 54000 70200 80006 22213 04250 21002 32422 40802 50601 80240
AAXX 20064 08231 12870 13502 11013 21041 39173 48549 56007 60002 81010 333 21016 34102 5//// 55079 70000
BBXX DGUG2 20064 99320 70178 41598 20822 10175 20106 40265 56005 70122 81870 22254 04210 20704 80135
BBXX C6CU6 20063 99285 70588 41497 41324 10190 20156 40217 51015 70322 8319/ 22262 04233 21011 334// 41309 5//// 80170
BBXX DDLK 20063 99451 70533 41/97 73633 10026 21011 40035 57005 70122 8//// 22223 20807 301// 41210 80011
BBXX A8SF7 20061 99126 70755 41098 20912 10270 20241 40125 56015 7//00 82100 22244 04260 21004 309// 41204 5//// 80250
AAXX 20064 04048 41465 62736 11002 21026 49947 57010 72688 84960 555 3/639
BBXX 3FMH7 20064 99257 11323 41798 70716 00/// 10190 20159 40232 5//// 70222 87/// 9//// 22273 0//// 1//// 2//// 3//// 4//// 5//// 6//// 80170
BBXX SHIP 20064 99189 11186 41397 80532 10240 20226 40135 57023 70222 8771/ 22254 00259 20303 308// 40507 80230
BBXX 3EIU9 20064 99128 11206 41198 22405 10310 20250 40090 56025 70301 82241 90540 22273 00268 1//// 2//// 331// 40402 5//// 6//// 80270 /////
BBXX A8JX8 20061 99465 11758 41598 63211 10040 20017 40020 5/015 75151 86125 22224 2//// 3//// 4//// 5//// 80030
BBXX SHIP 20064 99473 71509 41698 32317 10070 20049 40311 52030 70200 83131 22223 06080 20406 318// 40406 80060
BBXX SHIP 20064 99227 71581 41/97 20726 10234 20185 40204 52025 70111 8//// 22200 04237
BBXX SHIP 20064 99287 31101 41498 21308 10219 20143 40126 55001 70100 81135 22232 00226 11206 20101 32115 41307 50803 85171
AAXX 20064 71395 11332 82412 10031 20027 39857 40035 56033 60011 76188 88700 333 10034 21085 41997 70013 90931 555 19999 29999 32021 41041
BBXX SHIP 20064 99287 31101 41498 21308 10219 20143 40126 55001 70100 81135 22232 00226 11206 20101 32115 41307 50803 85171
AAXX 20064 87121 32965 03210 10272 20130 39512 49994 57016
AAXX 20061 78310 12501 60506 10230 20212 30169 40179 58007 60001 82202 333 10277 20194 30/// 56909 59027 82820 86074 92025
AAXX 20061 78315 12464 10801 10198 20184 30120 40186 56008 60001 81102 333 10270 20181 30/// 56909 59014 81818
AAXX 20061 78318 12565 41006 10216 20188 30186 40190 58009 60001 81802 333 10270 20198 31/// 56909 59011 79999 81820 84073
AAXX 20061 78322 12956 30401 10190 20177 30186 40203 58004 60001 80002 333 10278 20172 30/// 56009 59002 83080
AAXX 20061 78324 12400 30906 10236 20208 30171 40182 58007 60001 82201 333 10249 20223 30/// 56209 59012 79999 82817 555 10802
AAXX 20061 78325 11930 11306 10212 20182 30138 40196 56011 60001 70400 81030 333 10254 20191 30/// 56090 59005 79999 81360
AAXX 20061 78328 12462 41106 10230 20192 30199 40/// 58011 60001 83801 333 10249 20225 30/// 56309 59001 82818 555 11203
AAXX 20061 78333 12910 40702 10210 20178 30187 40194 56007 60001 80002 333 10270 20178 30/// 56000 59004 84070
AAXX 20061 78344 12550 50703 10215 20182 30146 40195 58009 60001 84840 333 10268 20185 30/// 56990 58003 82820 84630
AAXX 20061 78345 01465 60502 30129 40199 58009 69981 70286 86800 333 10272 20197 32/// 56000 58006 69987 70008 85816 83623
AAXX 20061 78348 11550 70604 10212 20188 30151 40204 58009 60001 70522 87800 333 10248 20212 30/// 56200 57854 58006 70052 81820 87630 555 10702
AAXX 20061 78349 12430 70501 10210 20198 30092 40201 58010 60001 878// 333 10270 20196 30/// 56299 57822 58003 83819 85625 555 10903
AAXX 20061 78351 NIL
AAXX 20061 78353 11560 60806 10236 20180 30178 40200 58007 60011 70186 85802 333 10260 20215 31/// 56909 58004 70030 82820 83626
AAXX 20061 78355 01560 70703 10210 20203 30056 40198 58005 60021 72586 878// 333 10252 20195 32/// 56999 58008 69987 70110 82820 87633
AAXX 20061 78358 11530 30607 10239 20193 30175 40190 58005 69991 70186 83800 333 10273 20209 31/// 56900 58011 70079 82823
AAXX 20061 78360 01/60 10403 10216 20206 30171 40183 58004 69921 70160 81200 333 10300 20216 31/// 56900 58011 69907 70005 818// 92023
AAXX 20061 78363 12956 00000 10201 20187 30056 40171 56006 60001 333 10282 20201 30/// 56/// 58008
AAXX 20061 78365 11550 50917 10250 20186 30193 40198 58004 69911 70182 85800 333 10264 20238 31/// 56200 57844 59014 70009 84820 92057 555 10903
AAXX 20061 78369 01464 70608 10229 20209 30179 40188 56005 60011 72586 872// 333 10272 20223 31/// 56999 57860 58012 60017 70014 87818
AAXX 20061 21432 42698 20902 11262 21287 30304 40325 53002 82500
AAXX 20061 21824 41996 80703 11254 21267 30263 40273 52007 77173 8807/
AAXX 20061 21908 NIL
AAXX 20061 21921 42999 61202 11372 21407 30201 40251 53006 86030
AAXX 20061 21931 41998 30202 11303 21327 30217 40252 52004 72271 83030
AAXX 20061 21946 41498 80303 11325 21348 30182 40270 53005 77872 8353/
AAXX 20061 21982 NIL
AAXX 20061 25062 32998 52702 11241 21266 30171 40175 53005 85030 333 11237 91104
AAXX 20061 25123 42996 31302 11369 21397 30186 40223 52007 83030
AAXX 20061 25138 42999 20000 11419 21448 30086 40228 52003 80001 333 91102
AAXX 20061 25173 31494 23111 11230 21249 30129 40134 53007 73831 82500 333 11224 91119
AAXX 20061 25248 42998 30000 11415 21443 39703 40222 52008 83030 333 91101
AAXX 20061 25282 11/07 93513 11213 21225 30048 40054 53010 60010 73932 333 11200 91119 92992
AAXX 20061 25325 NIL
AAXX 20061 25356 31999 53204 11236 21284 39992 40099 52005 73202 80001 333 11222 91010
AAXX 20061 25399 11418 83305 11125 21138 39911 49920 52019 60040 77573 8872/ 333 1//// 91108
AAXX 20061 25428 41971 80000 11379 21415 39849 40228 53006 77872 82537 333 91100
AAXX 20061 25551 32998 82902 11229 21269 30063 40096 52013 86031 333 11/// 91103
AAXX 20061 25563 12984 73005 11180 21206 39939 40021 52005 69902 87030 333 11160 91111
AAXX 20061 25594 11498 70107 11102 21108 39832 49883 52015 69922 73673 86530 333 11095 91112
AAXX 20061 25677 31494 83612 11148 21154 39961 49967 52002 73832 885// 333 11146 88617 91118
AAXX 20061 31054 42999 20000 11392 21494 39938 40251 57001 80006
AAXX 20061 31123 42999 80401 11357 21386 39891 40261 56004 82017
AAXX 20064 41515 02697 82308 10043 21020 38528 48491 60001 8552/ 333 5699/ 59012 60007 85650 83458
AAXX 20064 41560 22696 61803 10030 21051 38253 48485 60001 83830 333 59003 60007
AAXX 20064 41571 11995 40000 10155 20030 39590 40179 60001 70511 81031 333 56099 59013
AAXX 20064 41594 31994 20904 10145 20056 39963 40184 70500 81031 333 56099 59013
AAXX 20064 41685 32997 03106 10125 21057 38926 48507 333 59014
AAXX 20064 41710 01994 03106 10115 21106 39462 40257 60001 70600 333 58047 60007
AAXX 20064 41718 11993 00502 10140 20091 30070 40177 60001 70400 333 59006
AAXX 20064 41739 01993 03108 10050 21067 39072 48507 60001 70540 333 59021 60007
AAXX 20064 41744 32996 02702 10100 21024 38796 48515 333 59003
AAXX 20064 41749 01995 00000 10190 20096 30156 40189 70400 333 59010 60007
AAXX 20064 41515 02697 82308 10043 21020 38528 48491 60001 8552/ 333 5699/ 59012 60007 85650 83458
AAXX 20064 41560 22696 61803 10030 21051 38253 48485 60001 83830 333 59003 60007
AAXX 20064 41571 11995 40000 10155 20030 39590 40179 60001 70511 81031 333 56099 59013
AAXX 20064 41594 31994 20904 10145 20056 39963 40184 70500 81031 333 56099 59013
AAXX 20064 41685 32997 03106 10125 21057 38926 48507 333 59014
AAXX 20064 41710 01994 03106 10115 21106 39462 40257 60001 70600 333 58047 60007
AAXX 20064 41718 11993 00502 10140 20091 30070 40177 60001 70400 333 59006
AAXX 20064 41739 01993 03108 10050 21067 39072 48507 60001 70540 333 59021 60007
AAXX 20064 41744 32996 02702 10100 21024 38796 48515 333 59003
AAXX 20064 41749 01995 00000 10190 20096 30156 40189 70400 333 59010 60007
BBXX ZMFR 20064 99478 31685 43/// /22// 10102 20074 40254 52001 22213 00123
AAXX 20064 93800 16/// /0205 10196 20127 40241 52002 60001
AAXX 20064 93805 16/// /2502 10176 20126 40242 52002 60001
AAXX 20064 93994 16/// /1304 10207 20155 40159 52008 60001
AAXX 20061 38618 32997 62501 11071 21114 39704 40444 57002 83049 333 21095
BBXX ZMFR 20064 99478 31685 43/// /22// 10102 20074 40254 52001 22213 00123
AAXX 20064 65528 NIL
AAXX 20064 65536 NIL
AAXX 20064 65545 32456 5//// 10227 20218 39691 40116 82030 333 20221 58003 85613
AAXX 20064 65548 NIL
AAXX 20064 65555 NIL
AAXX 20064 65557 32456 7//// 10239 20226 39874 40112 875// 333 20229 59003 87611
AAXX 20064 65560 31440 8//// 10227 20227 39806 40114 71011 885// 333 20200 58008 88613
AAXX 20064 65562 NIL
AAXX 20064 65563 31230 82804 10225 20225 39875 40114 71011 886// 333 20190 58003 88703
AAXX 20064 65578 32557 73204 10270 20250 30104 40121 87500 333 20267 58008 87620
AAXX 20064 65585 32456 6//// 10235 20219 3//// 4//// 82270 333 20225 82813 86360 94930
AAXX 20064 65592 32904 0//// 10228 20228 30082 40105 74644 333 20220 58004
AAXX 20064 65594 32456 23202 10241 20232 30080 40114 82500 333 20230 58004 82613
AAXX 20064 65599 31460 3//// 10242 20236 30029 40103 71799 83900 333 20240 58003 83913 94964 95834
AAXX 20064 60141 32560 20000 10020 20011 39591 40288 50003 80002 333 20015 31001 82070
AAXX 20061 60373 16/// /2604 10076 20053 60074 333 20070
AAXX 20061 60623 36/// /0000 10032 21071 333 20028
AAXX 20061 60393 16/// /1802 10072 20044 60054 333 20071
AAXX 20064 61600 32960 20204 10170 20115 30121 40126 80002 333 20166 50524 55063 59005 82073
AAXX 20064 61612 32960 00000 10170 20012 30122 40130 333 01600 20165 50671 55098 59005
AAXX 20064 61627 32958 30402 10160 20022 3//// 4//// 83080 333 00700 20148 50754 55078 5//// 83363
AAXX 20064 61630 32960 00000 10166 20059 30101 40121 333 01300 20160 50532 55094 59002
AAXX 20064 61641 32958 10211 10230 20181 30091 40124 81030 333 02000 20225 50794 55070 59009 81363
AAXX 20064 61666 32958 10000 10150 20069 30110 40119 81030 333 01600 20110 50364 55049 59010 81363
AAXX 20064 61679 32958 13206 10155 20088 30118 40126 81030 333 01500 20155 50724 55075 59003 81363
AAXX 20064 61687 32960 00604 10153 20039 30059 40117 333 00600 20137 50751 55083 59003
AAXX 20064 61695 32960 03604 10150 20147 30089 40116 333 01100 20150 50334 55092 59008
AAXX 20064 61697 32960 03606 10170 20162 30099 40114 333 01500 20162 50374 55102 59004
AAXX 20064 61698 32958 00000 10102 20081 30106 40117 333 00700 20100 50404 55081 59007
AAXX 20064 61699 NIL
AAXX 20061 14324 11/00 90908 11108 21121 38339 48451 53003 60022 74974 333 21111 3/112 44044 70218
AAXX 20061 14216 12682 10301 10003 21084 30005 40162 51002 60002 81100 333 20002 34106 79999 923// 924/8
AAXX 20061 14219 11865 12301 11078 21094 39129 48418 56/// 69952 70177 81040 333 21080 3/111 47027 70080 93108
AAXX 20061 14232 12980 12302 11019 21024 30037 40177 54000 69912 81030 333 21019 34106 41998 70039
AAXX 20061 14234 12975 23301 11028 21036 39925 40182 53003 69902 82031 333 21030 34107 70012
AAXX 20061 14236 12665 23001 10001 21037 39970 40174 54/// 69902 82500 333 20000 31104 70008
AAXX 20061 14244 NIL
AAXX 20061 14248 12660 23202 11010 21041 39994 40175 54/// 69902 82500 333 21011 3/105 41998 70047
AAXX 20061 14253 12960 23201 11007 21047 39992 40171 53002 69962 333 21008 3/101 43004 70121 93104
AAXX 20061 14256 12570 43204 11027 21045 39837 40168 55000 60022 82530 333 21027 43019 70108
AAXX 20061 14280 12960 83103 10000 21005 30031 40143 54002 60062 8807/ 333 20000 3/106 43007 70101 93106
AAXX 20061 14308 12980 00000 11048 21063 39797 40168 54000 60002 333 21048 34109 92611
AAXX 20061 14321 12984 00301 10037 21058 30124 40149 53/// 60002 222// 00111 333 20033 30101 92301 92419
AAXX 20061 14370 11550 82801 10004 21011 30043 40155 52005 60032 72272 886// 333 20002 3/100 47002 70041 93102
AAXX 20061 14382 11560 83004 10000 21002 30025 40149 53006 60072 77072 887// 333 20000 3/000 43005 70091 93103
AAXX 20061 14428 12570 20302 10030 21053 30129 40137 53007 60002 82830 222// 00144 333 20030 31000 70063 92312
AAXX 20061 14441 12589 20504 10061 21014 30077 40101 53013 69932 82200 222// 00166 333 20059 31002 70313 92312
AAXX 20061 14452 NIL
AAXX 20061 14454 12780 70307 10076 21044 30024 40084 53004 60002 82870 333 20065 31003 70098 91013 91503 92312
AAXX 20061 14462 12680 80107 10052 21029 30091 40097 54/// 8282/ 333 20046 32002 70089
BBXX 46001 20061 99563 71480 46/// /2408 10042 40087 53021 90550 22200 00049 11206 20603 300// 41205 70029 333 91210 555 11087 22092 30508 42514 60549 242083 240090 241096 245104 242110 230099
BBXX 46042 20061 99368 71224 46/// /0102 10116 40191 51009 90550 22200 00127 11406 20401 330// 41406 70030 333 91203 555 11020 22020 30507 43506 60549 008019 001028 359038 000041 354046 356044
BBXX 46207 20061 99509 71299 46/// /2711 10088 40223 52034 22200 00082 11310 70050 333 91215
BBXX A8CN9 20060 99431 71351 41397 72408 10112 20108 40320 51020 70322 85875 22234 04110 20905 320// 40705 5//// 80110
BBXX A8EH2 20063 99387 71352 41197 80713 10110 20056 40345 52020 887// 22274 00136 20301 80085
BBXX DGDD 20061 99322 71288 41598 72804 10130 20026 40260 57020 70222 8656/ 22234 00200 20401 3//// 4//// 5//// 80080
BBXX KRGB 20064 99424 71249 41/98 00128 10089 20060 40248 56022 7//00 80/// 22244 00089 20706 329// 41405 5//// 6//// 80078 ICE /////
BBXX SHIP 20064 99314 71342 41397 80314 10170 20120 40310 54000 78022 8899/ 22223 00180 2//// 3//// 4//// 5//// 6//// 80140 ICE /////
BBXX SHIP 20064 99322 71239 41298 43421 10130 20090 40120 54000 7//11 84/// 22233 00170 2//// 3//// 4//// 5//// 6//// 80110 ICE /////
BBXX WABS 20064 99424 71259 41998 00230 10094 20070 40280 52020 70200 80000 22283 0//// 2//// 3//// 4//// 5//// 6//// 80083 ICE /////
BBXX WSM5364 20060 99583 71358 41/97 83115 10022 2//// 4//// 5//// 702// 8//// 222// 00061 2//01 3//// 4//// 6////
AAXX 20064 41506 02696 81804 10060 21016 48493 60001 8442/ 333 5699/ 59048 60007 84640 84460
AAXX 20064 41508 01596 80000 10069 21019 48542 60011 76062 8572/ 333 5699/ 59022 60017 82725 83630 83560
AAXX 20064 41523 12696 80000 10085 20016 48533 60001 8351/ 333 5699/ 59008 60007 83640 85460
AAXX 20064 41535 12697 63102 10075 21012 48491 60001 83520 333 56990 59003 83635 83460
AAXX 20064 41536 02997 83603 10100 20008 48517 60001 8802/ 333 5609/ 59004 60007 88462
AAXX 20064 41573 12997 61304 10040 21022 48505 60001 86010 333 59011
AAXX 20064 41600 01695 60000 10160 20081 39871 40170 60001 70422 83570 333 59026 60007
AAXX 20064 41630 11995 30904 10160 20081 40179 60001 70400 83030 333 56090 59019 83360
AAXX 20064 41678 02997 00000 10130 20068 40181 60001 333 59032
AAXX 20064 41696 31996 03102 10020 21032 38034 48555 60001 70500 333 58004 60007
AAXX 20064 41697 02997 03102 10202 20086 40176 60001 333 59018 60007
AAXX 20064 41700 11994 03602 10120 20079 40169 60001 70440 333 59010
AAXX 20064 41725 01996 00502 10170 20043 40133 60001 70500 333 59012 60007
AAXX 20064 41746 02996 03602 10160 20081 40190 60001 333 58007 60007
AAXX 20064 41759 11994 03612 10185 21061 30201 40207 60001 70600 333 58024
AAXX 20064 41785 02997 00504 10200 20086 40173 60001 333 59004 60007
BBXX 46147 20061 99518 71312 46/// /2515 10083 40175 52020 22200 00081 11415 70077 333 91221
AAXX 20060 44212 32999 70000 11285 21315 39349 40642 51000 8701/
AAXX 20060 44213 32999 70401 11273 21309 38958 40632 57004 87010
AAXX 20060 44215 32998 40000 11196 21229 38539 40538 54000 82042
AAXX 20060 44218 32998 03301 11219 21259 38760 40575 52003
AAXX 20060 44232 32999 62001 11172 21216 39161 40378 54002 86010
AAXX 20060 44239 32999 73406 11103 21177 38825 40298 50004 87070 333 91113 555 99807
AAXX 20060 44256 32699 82509 11117 21161 39307 40200 57026 8351/
AAXX 20060 44265 32999 00000 11159 21210 39018 40537 51005
AAXX 20060 44313 32999 02004 11153 21223 39385 40268 57021
AAXX 20060 44314 32998 42908 11156 21207 39113 40264 57021 82044
AAXX 20060 44347 31997 02710 11127 21199 38748 40353 57020 70900
AAXX 20060 44214 32998 12805 11174 21259 38416 40569 58002 81040
AAXX 20060 44259 31997 73107 11165 21215 39291 40249 58014 73630 87070 333 91112
AAXX 20060 44292 31891 72602 11202 21243 38722 40376 57006 70422 84018
AAXX 20060 44354 32999 00000 11219 21244 39126 40356 57017
AAXX 20060 44373 32999 22903 11120 21194 38580 40361 58008 80004
BBXX 46147 20061 99518 71312 46/// /2515 10083 40175 52020 22200 00081 11415 70077 333 91221
BBXX 41053 20061 99185 70661 46/// /0708 10264 40165 58012 90600 22200 00274 11103 70016 333 91210
BBXX 41052 20061 99183 70648 46/// /0508 10262 40159 90550 333 91210
BBXX 41052 20061 99183 70648 46/// /0408 10261 40160 90540 333 91212
BBXX 41052 20061 99183 70648 46/// /0509 10262 40159 58011 90600 22200 00275 333 91211
BBXX 41053 20061 99185 70661 46/// /0808 10264 40166 90550 333 91210
BBXX 41053 20061 99185 70661 46/// /0807 10262 40167 90540 333 91209
AAXX 20061 25703 61697 80000 11315 21345 39945 40245 53008 77072 82537
AAXX 20061 25745 41698 41302 11214 21271 30040 40094 52016 70231 84500
AAXX 20061 25913 42999 00503 11192 21241 39973 40130 53010
AAXX 20061 25954 42998 30604 11176 21235 39909 40028 52014 80001
AAXX 20061 25956 42699 50803 11201 21250 39985 49991 53008 85500
AAXX 20061 31088 42599 20104 11198 21239 30117 40125 52004 81530
AAXX 20061 31873 42998 02303 11117 21196 30123 40264 56009
AAXX 20061 31909 42999 02907 11087 21212 30137 40218 55006 333 91114
AAXX 20061 31960 42998 03402 11077 21168 30017 40262 57019
AAXX 20061 31961 42998 01001 11067 21171 30214 40262 57021
AAXX 20061 32053 42999 22702 11152 21194 30139 40191 53008 80001 333 91004 91106
AAXX 20061 32061 41597 70901 11135 21148 30160 40201 52004 78582 84902 333 91002 91103
AAXX 20061 32098 42998 53603 11089 21144 30174 40184 53010 81043 333 91004 91107
AAXX 20061 32150 42599 33603 11049 21094 30147 40177 53012 83300 333 91005 91110
AAXX 20061 32165 41592 83107 11032 21042 30081 40143 53012 78683 889// 333 91012 91114
AAXX 20061 32215 41579 43306 11044 21104 30001 40031 52012 78583 84900 333 91011 91114
AAXX 20061 32252 NIL
AAXX 20061 32389 41993 31102 11275 21293 30023 40063 53014 74840 83030
AAXX 20061 32477 42999 20103 11151 21212 30014 40047 53017 80001
AAXX 20061 32583 42999 03502 11114 21158 39988 40019 53010
AAXX 20061 32618 41596 73610 11066 21103 39954 49976 52014 73883 87900 333 91013 91115
AAXX 20064 71340 16/// /2309 10021 21022 60001 333 10038 21125 7////
AAXX 20064 71343 16/// /2621 10037 21040 60001 333 10037 21082 70000 555 32630 40042
AAXX 20064 71345 16/// /2210 10023 21039 60001 333 10025 21072 70000 555 31826 40201
AAXX 20064 71217 16/// /2409 10025 21041 60001 333 10060 21091 70000 555 32523 40051
AAXX 20064 71224 16/// /2621 10024 21032 60001 333 10028 21128 70000 555 32729 40042
AAXX 20064 71225 16/// /2413 10028 21034 60001 333 10028 21084 70000 555 32022 40191
AAXX 20064 71421 17/// ///// 11105 21114 39264 49983 56021 60021 7//4/ 333 11096 21182 7////
AAXX 20064 71537 16/// /1808 10005 21027 60001 333 10017 21130 70000
AAXX 20064 71115 16/// /0801 11016 21027 39661 40255 58002 60001 333 10010 21064 70000
AAXX 20064 71976 46/// /2311 11230 21255 39329 49971 51007 6///1 333 11198 21240 7//// 555 10020 32534 40103
AAXX 20064 71979 16/// ///// 10053 21064 38365 49980 56024 60001 333 7////
AAXX 20064 71356 16/// /0216 11312 21347 39891 49960 50002 60001 333 11274 21316 70000 555 33221 40081
AAXX 20064 71374 46/// /1623 11027 21034 6///1 333 11026 21124 7//// 555 31628 40052
AAXX 20064 71375 46/// /2608 11036 6///1 333 11031 21086 7//// 555 31734 40213
AAXX 20064 71186 46/// /3025 11071 21115 6///1 333 11022 21100 7//// 555 32837 40063
AAXX 20064 71189 46/// /2827 11050 21090 6///1 333 11016 21128 7//// 555 32937 40053
AAXX 20064 71190 46/// /3021 11031 21084 6///1 333 10004 21088 7////
AAXX 20064 71193 16/// /2806 11110 21130 39844 40219 50005 60001 333 11003 21110 70039 555 10080 20039 33126 40161
AAXX 20064 71276 16/// ///08 10014 21034 60001 333 10021 21131 70004
AAXX 20064 71423 16/// /2027 11006 21012 39953 49962 56050 60001 333 11005 21137 70000 555 31835 40023
AAXX 20064 71737 16/// /3208 11101 21132 39615 40144 53029 60001 333 10007 21102 70048 555 10040 20048 33127 40051
AAXX 20064 71743 16/// /2507 11191 21212 39816 40038 53019 60001 333 11134 21191 70000 555 32217 40191
AAXX 20064 71421 17/// ///// 11105 21114 39264 49983 56021 60021 7//4/ 333 11096 21182 7////
AAXX 20064 89002 41999 11502 11077 21094 39772 49826 52002 70230 80001
AAXX 20064 08171 12960 00403 11010 21016 30006 40258 54000 60002 333 21010 34104 5//// 55056 70000
AAXX 20061 38511 32998 31106 11072 21153 30287 40440 53009 80001 333 21089
AAXX 20060 44294 32998 73208 11175 21223 38561 40362 56008 87070
AAXX 20060 44298 32999 03205 11172 21184 38713 40319 57010
AAXX 20061 21908 41999 53201 11297 21321 30206 40295 52003 70272 80002
AAXX 20064 41529 12997 30000 10100 20031 39812 40204 60001 83030 333 56090 59003 83360
AAXX 20064 41598 11995 40000 10150 20069 39907 40183 60001 70411 84070 333 59009
AAXX 20064 41620 31996 02309 10095 21098 38601 48503 70500 333 59001
AAXX 20064 41624 01996 00000 10130 20068 39984 40190 60001 70400 333 59003 60007
AAXX 20064 41640 01795 60502 10155 20087 39918 40170 60001 70420 82530 333 56990 59024 60007 82650 84362
AAXX 20064 41660 11993 23112 10020 21041 38476 38567 60007 70600 82030 333 56090 58012 82362
AAXX 20064 41675 11993 03608 10130 20080 30026 40170 60001 70400 333 59015
AAXX 20064 41712 11997 00910 10070 21054 39283 48565 60001 70700 333 58037
AAXX 20064 41715 01996 03106 10170 20012 30117 40184 60001 70500 333 59011 60007
AAXX 20064 41756 01990 03620 10205 20164 30144 40209 60001 73103 333 58027 60007
AAXX 20064 41764 31995 03604 10200 20061 30125 40175 60001 70400 333 58004 60007
AAXX 20064 41768 02996 00502 10210 20100 30169 40176 60001 333 58000 60007
AAXX 20064 41780 02996 00506 10230 21021 40180 60002 333 59006 60007
AAXX 20064 41529 12997 30000 10100 20031 39812 40204 60001 83030 333 56090 59003 83360
AAXX 20064 41598 11995 40000 10150 20069 39907 40183 60001 70411 84070 333 59009
AAXX 20064 41620 31996 02309 10095 21098 38601 48503 70500 333 59001
AAXX 20064 41624 01996 00000 10130 20068 39984 40190 60001 70400 333 59003 60007
AAXX 20064 41640 01795 60502 10155 20087 39918 40170 60001 70420 82530 333 56990 59024 60007 82650 84362
AAXX 20064 41660 11993 23112 10020 21041 38476 38567 60007 70600 82030 333 56090 58012 82362
AAXX 20064 41675 11993 03608 10130 20080 30026 40170 60001 70400 333 59015
AAXX 20064 41712 11997 00910 10070 21054 39283 48565 60001 70700 333 58037
AAXX 20064 41715 01996 03106 10170 20012 30117 40184 60001 70500 333 59011 60007
AAXX 20064 41756 01990 03620 10205 20164 30144 40209 60001 73103 333 58027 60007
AAXX 20064 41764 31995 03604 10200 20061 30125 40175 60001 70400 333 58004 60007
AAXX 20064 41768 02996 00502 10210 20100 30169 40176 60001 333 58000 60007
AAXX 20064 41780 02996 00506 10230 21021 40180 60002 333 59006 60007
AAXX 20061 50434 32980 03202 11188 21236 39266 40247 57018 333 21343
AAXX 20061 50527 32980 12206 11214 21245 39389 40258 57019 80002 333 21264
AAXX 20061 50603 32980 62505 11182 21228 39510 40252 57021 80002 333 21261
AAXX 20061 50632 32980 22503 11120 21201 39266 40212 57015 82032 333 21194
AAXX 20061 50727 32980 00000 11168 21229 38995 40293 57022 333 21303
AAXX 20061 50915 32980 02203 11152 21216 39209 40302 57026 333 21261
AAXX 20061 51716 32965 73601 11029 21086 39029 40395 52014 80002 333 00900 21082
AAXX 20061 51765 32980 73201 11025 21120 39340 40392 52003 80002 333 00801 21134
AAXX 20061 51777 32970 73401 11039 21128 39290 40403 52014 81032 333 00952 21115
AAXX 20061 51811 11962 70201 11040 21068 38902 40396 52017 69911 77070 85032 333 01051 21078
AAXX 20061 51828 11865 72703 11048 21079 38731 40381 52011 69921 72277 82502 333 00952 21068
AAXX 20061 52267 32980 22905 11052 21205 39204 40386 57014 80002 333 00201 21168
AAXX 20061 52323 32980 23405 11110 21167 38310 57007 80002 333 00600 21199
AAXX 20061 52495 32980 23402 11049 21153 38744 40369 57013 80002 333 00251 21208
AAXX 20061 53149 32980 02709 11091 21186 38818 40346 57025 333 05151 21203
AAXX 20061 53192 32980 12704 11200 21231 38915 40391 57020 80002 333 21291
AAXX 20061 53231 32980 72903 11069 21198 38533 57016 80002 333 00151 21188
AAXX 20061 53336 32980 22503 11059 21167 38766 40347 57023 80002 333 00151 21171
AAXX 20061 53391 32980 02907 11113 21188 38522 40340 57020 333 05253 21188
AAXX 20061 53529 11980 60701 11033 21102 38675 40335 57015 69901 70074 80002 333 00251 21133 93434
AAXX 20061 53543 32980 03202 11046 21147 38575 40318 57017 333 21108
AAXX 20061 53723 11970 10402 11028 21081 38697 40308 57023 69901 70070 80002 333 00101 21095
AAXX 20061 54012 32980 12709 11134 21203 39021 40304 57027 80002 333 21251
AAXX 20061 54026 32580 12702 11034 21221 39887 40231 57030 81100 333 21151
AAXX 20061 54027 32980 02701 11025 21213 39622 40245 57031 333 21191
AAXX 20061 54208 32980 12703 11103 21205 38778 40353 57020 80002 333 21279
AAXX 20061 54776 32962 82901 10048 21047 30208 40267 57027 8801/ 333 20023
AAXX 20061 56004 32680 10903 11071 21317 35783 57026 81100 333 05253 21253
AAXX 20061 56033 32980 72202 11052 21241 35982 57028 80002 333 00004 21201
AAXX 20061 56046 32980 00903 11036 21179 36220 57041 333 00003 21187
AAXX 20061 56193 NIL
AAXX 20061 56196 31957 81402 10096 20034 40234 57042 71000 8807/ 333 00102 20053
AAXX 20061 56287 31958 80000 10079 20050 40240 57042 71000 8807/ 333 00102 20053
AAXX 20061 56684 32980 01101 10104 20018 37880 57044 333 00253 20007
AAXX 20061 56751 32978 11102 10150 20008 38006 57037 80001 333 00151 20036
AAXX 20061 56786 32580 11803 10156 20010 38091 57038 81100 333 00100 20030
AAXX 20061 56977 32580 20000 10192 20107 40160 57035 82100 333 05204 20070
AAXX 20061 57259 32962 80201 10084 20018 40258 57041 8807/ 333 20031
AAXX 20061 57279 32961 03402 10094 21019 40267 57034 333 20019
AAXX 20061 57348 11858 81401 10101 20061 40237 57044 69901 72160 885// 333 20085
AAXX 20061 57399 32962 81801 10099 21012 40259 57033 8807/ 333 20025
AAXX 20061 57554 31958 82901 10074 20013 40264 57042 71000 8807/ 333 20052
AAXX 20061 57793 31957 83202 10124 21015 40245 57030 70500 8803/ 333 20050
AAXX 20061 58345 31957 80901 10083 20047 40252 57023 71000 8807/ 333 20025
AAXX 20061 58506 32765 82701 10038 21042 40256 57021 885// 333 20013
AAXX 20061 58813 32968 03401 10169 20049 40217 57042 333 20031
AAXX 20061 58834 32980 00902 10190 20065 40209 57047 333 20096
AAXX 20061 58926 32980 22002 10190 20071 40201 57051 82040 333 20076
AAXX 20061 58944 32567 83605 10140 20086 40209 57034 885// 333 20125
AAXX 20061 59096 32665 73401 10194 20044 40196 57039 875// 333 20064
AAXX 20061 59102 32967 20403 10203 20063 40197 57042 82030 333 20031
AAXX 20061 59278 32561 70401 10206 20038 40192 57035 8114/ 333 20125
AAXX 20061 59456 32980 73602 10255 20040 40169 57039 8703/ 333 20136
AAXX 20061 59493 31758 80201 10191 20078 40185 57028 70500 885// 333 20149
AAXX 20061 59658 32962 01403 10228 20078 40176 57035 333 20122
AAXX 20061 59673 32764 80405 10198 20072 40183 57031 885// 333 20147
AAXX 20061 59845 11562 70702 10177 20142 40182 57029 69901 70060 878// 333 20157
BBXX 46183 20061 99536 71311 46/// /2211 10074 40096 52012 22200 00079 10805 70024 333 91213
BBXX 46183 20061 99536 71311 46/// /2211 10074 40096 52012 22200 00079 10805 70024 333 91213
AAXX 20060 44216 32999 50000 11277 21301 39208 40644 51005 82038
AAXX 20060 44286 31998 52708 11119 21170 38671 40334 57003 73631 81044
AAXX 20060 44374 32999 03406 11075 21244 38302 40363 58005
AAXX 20060 44385 32999 12703 11070 21170 38966 40330 58008 80004
AAXX 20060 44210 32999 60000 11200 21233 38679 51005 84030
AAXX 20060 44217 32998 00000 11210 21250 37977 40604 51003
AAXX 20060 44263 32998 00000 11217 21274 38184 40607 58004
AAXX 20063 64800 NIL
AAXX 20063 64820 NIL
AAXX 20063 64860 31958 60000 10180 20113 39857 40128 80002 333 00600 20178 50580 55074 58006 85080
AAXX 20063 64861 NIL
AAXX 20063 64870 NIL
AAXX 20063 64871 NIL
AAXX 20063 64892 NIL
AAXX 20063 64893 NIL
AAXX 20063 64894 NIL
AAXX 20063 64910 31420 70000 10245 20242 30111 40120 71022 87300 333 02100 20242 50321 55010 58010 87616 81920 94945 95835
AAXX 20063 64911 NIL
AAXX 20063 64950 NIL
AAXX 20064 67002 11575 70404 10250 20235 30101 40135 69964 72996 8397/ 333 20238 58008 83920 85630 86460 92408
AAXX 20064 67009 32582 32812 10295 20246 39990 40108 51006 82902 333 02300 10310 20235 50324 55070 82820 81920 94978 95838 555 82075
AAXX 20064 67012 12582 52606 10300 20247 30099 40110 51011 60034 84232 333 0//19 10290 20225 50094 55/// 84820 555 81360 81075=3.1 67025 12580 10000 10317 20229 39989 40087 51005 60054 81800 333 0//// 10324 20234 50234 55/// 81820 555 81640
AAXX 20064 67027 32582 11810 10299 20203 30085 40106 52015 81232 333 02000 10310 20250 50374 55035 81820 555 81360 81073
AAXX 20064 67045 NIL
AAXX 20064 67072 12681 60208 10284 20229 30094 40097 51006 60104 86500 333 02509 10325 20271 50434 55/// 86640 92428=10.0 67073 11580 5//// 10282 20220 30081 40107 51014 60024 71500 85800 333 0//19 10317 20232 50//4 55/// 84820 555 82633=1.6 67083 32582 40000 10220 20146 38719 48494 51006 84200 333 0//00 20151 50484 55112 84820
AAXX 20064 67095 32480 50802 10302 20250 30079 40085 50010 83802 333 02200 10318 20225 50284 55/// 82817 83073 555 82633
AAXX 20064 67113 333 67117 NIL
AAXX 20064 67137 32480 1//04 10229 20144 38865 48472 51007 81202 333 0//00 10267 20145 50184 55/// 81817 555 81073
AAXX 20064 67143 32582 1//// 10/// 20/// 30084 40091 52008 81200 333 0//00 10/// 20/// 50//4 55/// 81820 92438
AAXX 20064 67152 32982 2//// 10220 20190 39162 48469 51006 82032 333 01400 10265 20147 50504 55/// 82360 555 81073
AAXX 20064 67157 11581 4//// 10/// 20/// 30086 40093 52016 60084 70162 84802 333 0//16 10/// 20/// 50//4 55/// 82820 84640 555 81073=8.2 67161 11565 60000 10242 20224 30072 40081 58002 60154 71562 86200 333 0//14 10308 20185 50504 55/// 86820=5.2 67197 11580 60000 10256 20197 30056 40066 51009 60044 70162 84870 333 01113 10223 20204 50174 55003 82820 83633 555 83460=3.7
AAXX 20061 60379 16/// /1903 10073 20073 60034 333 20073
AAXX 20061 60380 16/// /3402 10061 20041 60044 333 20055
AAXX 20061 60394 16/// /2101 10051 20050 60074 333 20050
AAXX 20061 60374 16/// /1804 10097 20054 60054 333 20090
AAXX 20061 60613 36/// /1204 10013 21047 333 20009
AAXX 20064 61017 32960 50416 10164 21028 39745 40159 80002 333 05300 20041 50444 55098 58010 85080
AAXX 20064 61024 32960 31004 10110 21051 39574 40150 80002 333 00800 20108 50881 55/// 58010 83080
AAXX 20064 61036 32965 70402 10192 21019 39880 40119 81038 333 01700 20190 50821 50754 55100 59001 81365 87280
AAXX 20064 61043 32960 70606 10148 21058 39683 40125 81036 333 0//00 20148 50901 5///4 55105 58008 81364 87280
AAXX 20064 61045 32965 70000 10130 21030 39643 40148 80008 333 00800 20130 5//// 5/624 55105 58010 87280
AAXX 20064 61049 32960 70000 10126 21021 39813 40139 80008 333 00800 20114 50601 50474 55105 58009 87280
AAXX 20064 61052 32960 23606 10160 21002 39871 40129 80002 333 01300 20156 50771 55101 58008 82080
AAXX 20064 61075 32960 70000 10162 21009 39816 40127 82048 333 01200 20155 50751 50564 55101 58013 82365 86280
AAXX 20064 61080 32960 71006 10150 21035 39713 40134 80008 333 01300 20148 50841 50794 55093 58013 87280
AAXX 20064 61090 32962 70000 10130 21008 39625 40142 80008 333 00900 20125 50761 50614 55101 58010 87280
AAXX 20064 61091 32965 50000 10094 20033 39689 40153 80002 333 00700 20090 50491 50414 55098 58005 85080
AAXX 20064 61096 32965 73602 10136 21026 39761 40149 80008 333 01200 20134 51011 50664 55100 58011 87280
AAXX 20064 61099 32960 70000 10200 20048 39881 40110 87052 333 01500 20193 50701 55092 58006 87364
AAXX 20064
AAXX 20064 61017 32960 50416 10164 21028 39745 40159 80002 333 05300 20041 50444 55098 58010 85080
AAXX 20064 61024 32960 31004 10110 21051 39574 40150 80002 333 00800 20108 50881 55/// 58010 83080
AAXX 20064 61036 32965 70402 10192 21019 39880 40119 81038 333 01700 20190 50821 50754 55100 59001 81365 87280
AAXX 20064 61043 32960 70606 10148 21058 39683 40125 81036 333 0//00 20148 50901 5///4 55105 58008 81364 87280
AAXX 20064 61045 32965 70000 10130 21030 39643 40148 80008 333 00800 20130 5//// 5/624 55105 58010 87280
AAXX 20064 61049 32960 70000 10126 21021 39813 40139 80008 333 00800 20114 50601 50474 55105 58009 87280
AAXX 20064 61052 32960 23606 10160 21002 39871 40129 80002 333 01300 20156 50771 55101 58008 82080
AAXX 20064 61075 32960 70000 10162 21009 39816 40127 82048 333 01200 20155 50751 50564 55101 58013 82365 86280
AAXX 20064 61080 32960 71006 10150 21035 39713 40134 80008 333 01300 20148 50841 50794 55093 58013 87280
AAXX 20064 61090 32962 70000 10130 21008 39625 40142 80008 333 00900 20125 50761 50614 55101 58010 87280
AAXX 20064 61091 32965 50000 10094 20033 39689 40153 80002 333 00700 20090 50491 50414 55098 58005 85080
AAXX 20064 61096 32965 73602 10136 21026 39761 40149 80008 333 01200 20134 51011 50664 55100 58011 87280
AAXX 20064 61099 32960 70000 10200 20048 39881 40110 87052 333 01500 20193 50701 55092 58006 87364
BBXX 46131 20061 99499 71250 46/// /1108 1//// 40273 52011 22200 00076 10502 70008 333 91209
BBXX 46131 20061 99499 71250 46/// /1108 1//// 40273 52011 22200 00076 10502 70008 333 91209
AAXX 20061 22438 12570 61809 10010 21004 39992 40013 53004 69900 83570 333 20003
AAXX 20064 67017 NIL
AAXX 20064 67020 11580 60000 10271 20238 30080 40107 50012 60034 71522 83806 333 02269 10303 20229 50144 55/// 83820 83640 85273=2.8 67023 32582 10206 10318 20245 30084 40090 50000 81230 333 02000 10326 20206 50344 55/// 81820 555 81360
AAXX 20064 67037 NIL
AAXX 20064 67067 31570 4//// 10245 20175 39235 48/// 51006 7100/ 84802 333 0//00 10310 20186 50634 55/// 83823 555 81630 81073
AAXX 20064 67107 NIL
AAXX 20064 67131 32582 42606 10/// 20/// 30083 40088 51005 83202 333 0//00 10/// 20/// 50//4 55/// 83820 555 81073
AAXX 20061 48887 32570 71404 10282 20225 30079 40085 57017 8381/ 333 58001 82895 87499
AAXX 20061 48920 12598 50704 10308 20268 30059 40062 57025 60013 82208 222// 00284 2//01 333 58012 82895 85299
AAXX 20061 48870 01490 83203 10228 20200 30110 40117 58023 60153 76066 888// 333 59020 60041 84894 88696 96160
AAXX 20061 48877 01470 83408 10245 20210 30100 40105 57022 60103 70362 8422/ 333 59018 60051 82894 88499
AAXX 20061 59431 31960 61101 10210 20058 30048 40196 57041 70040 86040 333 20059
AAXX 20061 59644 31957 23202 10223 20101 30166 40183 57038 70500 82040 333 20120
BBXX 46204 20061 99514 71288 46/// /1908 10090 40221 52021 22200 00085 11210 70049 333 91211
AAXX 20061 57957 31758 80202 10121 21007 30031 40232 57032 70500 885// 333 20099
AAXX 20061 59211 31956 71801 10194 20081 39978 40185 57044 70500 8703/ 333 20138
AAXX 20061 59265 31957 71102 10188 20053 30058 40197 57037 70500 8703/ 333 20094
AAXX 20061 48892 12598 60503 10316 20275 30065 40070 57024 69913 82208 333 59002 82895 86299
BBXX 46204 20061 99514 71288 46/// /1908 10090 40221 52021 22200 00085 11210 70049 333 91211
AAXX 20061 80402 NIL
AAXX 20061 80412 NIL
AAXX 20061 80416 NIL
AAXX 20061 80420 11459 41402 10228 20220 30119 40125 60051 75065 845// 333 31/// 569// 58004 84813 555 10138
AAXX 20061 80425 32460 10901 10252 20241 30083 40114 81400 333 30/// 56900 59003 81613 555 10115
AAXX 20061 80426 32560 43401 10215 20179 39489 40133 84500 333 30/// 56900 58007 84620 555 10164
AAXX 20061 80427 32960 03601 10234 20220 39851 40103 333 30/// 59004 555 10120
AAXX 20061 80431 32960 3//// 10220 20194 39630 40104 83030 333 30/// 56090 58008 555 10132
AAXX 20061 80434 NIL
AAXX 20061 80437 32460 52901 10230 20225 30022 40107 855// 333 31/// 569// 58006 555 10114
AAXX 20061 80440 32960 00701 10237 20188 39902 40112 333 30/// 58003 555 10122
AAXX 20061 80442 NIL
AAXX 20061 80472 32460 70502 10224 20192 39646 40122 8151/ 333 30/// 5699/ 58000 81616 86460 555 10148
AAXX 20061 80475 NIL
AAXX 20061 80476 32960 0//// 10246 20200 30099 40129 333 30/// 59001
AAXX 20061 80478 NIL
AAXX 20061 80479 NIL
AAXX 20061 80400 NIL
AAXX 20061 80403 32960 00000 10230 20221 30111 40130 333 30/// 59003 555 10133
AAXX 20061 80405 NIL
AAXX 20061 80407 NIL
AAXX 20061 80410 32460 11801 10172 20169 39455 40137 81600 333 30/// 56900 58001 81716 555 10168
AAXX 20061 80413 32460 40000 10194 20139 39641 40125 83530 333 30/// 56990 59003 83613 555 10160
AAXX 20061 80415 NIL
AAXX 20061 80419 NIL
AAXX 20061 80421 NIL
AAXX 20061 80423 NIL
AAXX 20061 80428 32460 00000 10234 20196 39919 40102 333 30/// 58005 555 10115
AAXX 20061 80432 NIL
AAXX 20061 80435 32960 33603 10244 20239 30014 40089 80003 333 30/// 56009 58000 555 10089
AAXX 20061 80438 NIL
AAXX 20061 80444 NIL
AAXX 20061 80447 11560 60000 10202 20196 39683 40105 60021 70262 765// 333 31/// 569// 58010 86620 555 10155
AAXX 20061 80448 32960 00000 10227 20223 3//// 4//// 333 30/// 5////
AAXX 20061 80450 32960 41102 10241 20227 30077 40132 80008 333 30/// 56009 58007 555 10129
AAXX 20061 80453 NIL
AAXX 20061 80457 11460 3//// 10256 20235 30014 40100 60011 70255 82520 333 31/// 56990 59002 82613 555 10099
AAXX 20061 80462 NIL
AAXX 20064 62309 32960 02305 10084 20080 40184 52014 333 20077
AAXX 20064 62325 NIL
AAXX 20064 62332 31912 32405 10149 20134 40182 52014 71000 83030 333 20142
AAXX 20064 62387 31920 01703 10089 20064 40196 52014 71000 333 20066
AAXX 20064 62459 32960 00108 10146 20029 40174 52017 333 20137
AAXX 20064 62452 32960 01803 10076 21007 40211 52011 333 20052
AAXX 20064 62458 32960 00000 10150 20048 40164 52011 333 20121
AAXX 20064 62420 31958 00000 10073 20055 40202 52011 71000 333 20052
AAXX 20064 62432 32960 02903 10074 20019 40192 52012 333 20043
AAXX 20064 62435 32960 10401 10096 20028 40195 52015 80001 333 20042
AAXX 20064 62455 32960 00502 10132 20028 40172 52014 333 20111
AAXX 20064 62476 32560 32904 10198 20170 40162 52017 83200 333 20176
AAXX 20064 62309 32960 02305 10084 20080 40184 52014 333 20077
AAXX 20064 62325 NIL
AAXX 20064 62332 31912 32405 10149 20134 40182 52014 71000 83030 333 20142
AAXX 20064 62387 31920 01703 10089 20064 40196 52014 71000 333 20066
AAXX 20064 62459 32960 00108 10146 20029 40174 52017 333 20137
AAXX 20064 62452 32960 01803 10076 21007 40211 52011 333 20052
AAXX 20064 67002 11575 70404 10250 20235 30101 40135 69964 72996 8397/ 333 20238 58008 83920 85630 86460 92408
AAXX 20064 67009 32582 32812 10295 20246 39990 40108 51006 82902 333 02300 10310 20235 50324 55070 82820 81920 94978 95838 555 82075
AAXX 20064 67012 12582 52606 10300 20247 30099 40110 51011 60034 84232 333 0//19 10290 20225 50094 55/// 84820 555 81360 81075
AAXX 20064 67025 12580 10000 10317 20229 39989 40087 51005 60054 81800 333 0//// 10324 20234 50234 55/// 81820 555 81640
AAXX 20064 67027 32582 11810 10299 20203 30085 40106 52015 81232 333 02000 10310 20250 50374 55035 81820 555 81360 81073
AAXX 20064 67045 NIL
AAXX 20064 67072 12681 60208 10284 20229 30094 40097 51006 60104 86500 333 02509 10325 20271 50434 55/// 86640 92428
AAXX 20064 67073 11580 5//// 10282 20220 30081 40107 51014 60024 71500 85800 333 0//19 10317 20232 50//4 55/// 84820 555 82633
AAXX 20064 67083 32582 40000 10220 20146 38719 48494 51006 84200 333 0//00 20151 50484 55112 84820
AAXX 20064 67095 32480 50802 10302 20250 30079 40085 50010 83802 333 02200 10318 20225 50284 55/// 82817 83073 555 82633
AAXX 20064 67113 NIL
AAXX 20064 67117 NIL
AAXX 20064 67137 32480 1//04 10229 20144 38865 48472 51007 81202 333 0//00 10267 20145 50184 55/// 81817 555 81073
AAXX 20064 67143 32582 1//// 10/// 20/// 30084 40091 52008 81200 333 0//00 10/// 20/// 50//4 55/// 81820 92438
AAXX 20064 67152 32982 2//// 10220 20190 39162 48469 51006 82032 333 01400 10265 20147 50504 55/// 82360 555 81073
AAXX 20064 67157 11581 4//// 10/// 20/// 30086 40093 52016 60084 70162 84802 333 0//16 10/// 20/// 50//4 55/// 82820 84640 555 81073
AAXX 20064 67161 11565 60000 10242 20224 30072 40081 58002 60154 71562 86200 333 0//14 10308 20185 50504 55/// 86820
AAXX 20064 67197 11580 60000 10256 20197 30056 40066 51009 60044 70162 84870 333 01113 10223 20204 50174 55003 82820 83633 555 83460
AAXX 20064 68398 36/// /3202 10234 20172 39407 48559 58000 333 20182 91006 555 10282 91018
AAXX 20064 67755 12475 30201 10271 20227 3//// 48/// 60024 81101 333 20219 5//// 81818 83075
AAXX 20064 67771 NIL
AAXX 20064 67773 NIL
AAXX 20064 67774 NIL
AAXX 20064 67785 NIL
AAXX 20064 67789 NIL
AAXX 20064 67855 31970 50604 10220 20130 3//// 48/// 70511 80001 333 20102 5//// 84080
AAXX 20064 67857 NIL
AAXX 20064 67863 32980 31501 10208 20137 3//// 48/// 80002 333 20126 5//// 83080
AAXX 20064 67871 NIL
AAXX 20064 67875 NIL
AAXX 20064 67891 NIL
AAXX 20064 67895 NIL
AAXX 20064 67897 NIL
AAXX 20064 67899 32583 11503 10195 20141 3//// 48/// 81102 333 20131 5//// 81822
AAXX 20064 67951 32980 11206 10244 20080 3//// 48/// 80001 333 20157 5//// 81080
AAXX 20064 67963 32980 10809 10217 20115 3//// 48/// 80032 333 20156 5//// 81360
AAXX 20064 67967 NIL
AAXX 20064 67971 32975 10204 10217 20138 3//// 48/// 80002 333 20155 5//// 81080
AAXX 20064 67976 NIL
AAXX 20064 67979 NIL
AAXX 20064 67765 NIL
AAXX 20064 67775 32980 10506 10193 20140 38527 48531 80001 333 20133 59004 81080
AAXX 20064 67779 32975 70703 10225 20156 39072 48528 80002 333 20171 59004 87080
AAXX 20064 67853 NIL
AAXX 20064 67861 32980 30506 10221 20094 38740 48521 81088 333 20179 59006 81359 83280
AAXX 20064 67867 32980 11506 10203 20106 38604 48532 80001 333 20084 59001 81080
AAXX 20064 67881 NIL
AAXX 20064 67965 32975 11209 10237 20102 38709 48536 80002 333 20152 59011 81080
AAXX 20064 67975 NIL
AAXX 20064 67977 32980 10000 10241 20170 39698 48570 80001 333 20150 59004 81080
AAXX 20064 67983 32675 61003 10205 20114 38912 48537 81101 333 20140 58001 81836 86080
AAXX 20064 67991 32980 11105 10242 20170 39625 48537 81030 333 20205 59001 81360
AAXX 20063 67775 32980 10506 10193 20140 38527 48531 80001 333 20133 81080
AAXX 20063 67779 32975 70703 10225 20156 39072 48528 80002 333 20171 87080
AAXX 20063 67861 32980 30506 10221 20094 38740 48521 81088 333 20179 81359 83280
AAXX 20063 67867 32980 11506 10203 20106 38604 48532 80001 333 20084 81080
AAXX 20063 67965 32975 11209 10237 20102 38709 48536 80002 333 20152 81080
AAXX 20063 67977 32980 10000 10241 20170 39698 48570 80001 333 20150 81080
AAXX 20063 67983 32675 61003 10205 20114 38912 48537 81101 333 20140 81836 86080
AAXX 20063 67991 32980 11105 10242 20170 39625 48537 81030 333 20205 81360
BBXX 41036 20061 99342 70770 46/// ///// 10175 20108 40237 90620 22200 00180
AAXX 20061 30157 41698 83406 11187 21255 39950 40253 52023 73687 84903
BBXX ZSAF 20064 99672 50026 41499 70000 11027 21047 49861 52004 70322 875// 22243 05003 2//// 300// 40000 5//// ICE 58498
AAXX 20064 45011 47557 /0305 10183 20085 40186 57029 71010 333 59015
AAXX 20061 47003 42980 01403 11012 21116 30252 40256 57023
AAXX 20061 47005 42980 01402 11100 21153 38590 57026
AAXX 20061 47022 42475 11101 11055 21126 38834 57029 81500
AAXX 20061 47028 42967 02001 11002 21066 30168 40265 57029
AAXX 20061 47031 42970 00000 11055 21116 38936 57029
AAXX 20061 47037 42970 00901 10002 21134 30149 40275 57028
AAXX 20061 47039 42960 00000 10003 21116 30075 40270 57033
AAXX 20061 47046 42969 31802 10029 21055 30228 40251 57025 80002
AAXX 20061 47050 42965 00000 10018 21090 30242 40277 57033
AAXX 20061 47052 42965 03204 10000 21090 39921 40267 57043
AAXX 20061 47060 41550 80501 10011 21006 30216 40275 57025 71000 884//
AAXX 20061 47061 42980 00000 10057 21076 30218 40262 57020
AAXX 20061 47065 42565 80000 10018 21043 30216 40282 57021 87502
AAXX 20061 47067 42965 80502 10018 21073 30182 40305 57020 80001
AAXX 20061 47068 42570 80000 10027 21050 30230 40266 57026 84502
AAXX 20061 47070 42970 20000 10036 21066 30191 40279 57019 82030
AAXX 20061 47075 42980 02302 10008 21113 39773 40207 57022
AAXX 20061 47008 42570 20000 11006 21054 30209 40264 57017 82550
AAXX 20061 47014 42950 00000 11081 21155 39865 40286 57010
AAXX 20061 47016 42970 00000 11071 21179 39373 40279 57047
AAXX 20061 47020 42965 00000 11040 21117 39892 40274 57033
AAXX 20061 47025 42577 71104 10008 21006 30231 40261 57014 87500
AAXX 20061 47035 42970 00000 10002 21103 30261 40270 57031
AAXX 20061 47041 42970 00000 10018 21101 30223 40251 57023
AAXX 20061 47055 42965 00000 10024 21063 30220 40266 57027
AAXX 20061 47058 42960 22901 10024 21089 30231 40280 57026 80002
AAXX 20061 47069 42665 80901 10012 21005 30178 40280 58025 885//
AAXX 20061 47101 32975 20903 10025 21133 30172 40270 57033 80001
AAXX 20061 47105 369// /0504 10055 21151 30220 40253 57021
AAXX 20061 47108 32968 63403 10029 21100 30163 40271 57023 82031
AAXX 20061 47115 42575 60505 10038 21041 39971 40247 57010 85800 333 92032
AAXX 20061 47133 32970 01103 10045 21079 30190 40276 57026
AAXX 20061 47138 32968 12305 10076 21221 30253 40256 57022 80001 333 92022
AAXX 20061 47159 32975 33408 10069 21145 30171 40257 57016 80001 333 92023
AAXX 20061 47165 32968 63604 10056 21037 30223 40271 57023 80002 333 92022
AAXX 20061 47168 32970 42304 10063 21104 30182 40262 57021 80001 333 92022
AAXX 20061 47184 32670 53405 10088 21010 30249 40274 57018 81502 333 92022
AAXX 20061 47090 32970 03204 10049 21168 30229 40252 57021 333 92022
AAXX 20061 47095 32970 22705 10023 21139 30077 40270 57028 80001
AAXX 20061 47097 329// /1602 10026 21113 30176 40274 57028
AAXX 20061 47098 329// /2508 10028 21088 30130 40267 57025
AAXX 20061 47099 329// /2902 10036 21101 30235 40272 57026
AAXX 20061 47100 32970 22509 11016 21177 39316 40257 56023 80001
AAXX 20061 47102 32967 71602 10030 21027 30083 40264 57023 85031
AAXX 20061 47104 32970 13604 10045 21148 30154 40252 57021 80001
AAXX 20061 47106 329// /0205 10052 21132 30202 40252 57018
AAXX 20061 47112 32966 42003 10046 21078 30186 40271 57024 82031 333 92012
AAXX 20061 47114 32970 23403 10023 21127 30084 40271 57026 80001
AAXX 20061 47119 32968 52702 10034 21074 30230 40273 57025 83031
AAXX 20061 47121 329// /2502 10030 21133 39966 40265 57031
AAXX 20061 47127 329// /2302 10025 21129 30130 40275 57028
AAXX 20061 47129 32670 61603 10046 21052 30241 40277 57023 82501
AAXX 20061 47130 32975 00503 10058 21100 30190 40252 57019 333 92021
AAXX 20061 47131 32965 01403 10033 21103 30203 40275 57026
AAXX 20061 47135 329// /2511 10028 21119 39966 40270 57024
AAXX 20061 47136 32973 02704 10048 21146 30088 40262 57028
AAXX 20061 47137 329// /2706 10045 21159 30146 40266 57023
AAXX 20061 47140 32968 33403 10042 21053 30247 40276 57024 80001 333 92011
AAXX 20061 47143 32970 02906 10058 21161 30193 40273 57021
AAXX 20061 47145 32970 22301 10043 21094 30242 40269 57025 80001
AAXX 20061 47146 32972 63203 10050 21075 30208 40275 57021 80006
AAXX 20061 47150 32968 32003 10049 21041 30252 40271 57024 80001
AAXX 20061 47152 32975 30705 10071 21126 30211 40254 57019 80001
AAXX 20061 47154 329// /2705 10050 21144 30206 40267 57025
AAXX 20061 47155 32977 41404 10064 21127 30215 40261 57016 80001
AAXX 20061 47156 32972 43602 10057 21050 30185 40275 57023 80002
AAXX 20061 47157 32975 20703 10051 21149 39978 40251 57023 80001
AAXX 20061 47162 32975 40001 10070 21094 30220 40261 57019 80001 333 92021
AAXX 20061 47169 32965 61103 10068 20008 30176 40271 57023 80002 333 92021
AAXX 20061 47170 32968 63404 10074 21063 30225 40269 57020 80002 333 92022
AAXX 20061 47171 329// /3603 10051 21067 30220 40276 57021
AAXX 20061 47172 329// /3204 10049 21052 30203 40271 57021
AAXX 20061 47173 329// /0901 10053 21101 30159 40272 57024
AAXX 20061 47174 32970 63206 10053 21085 30060 40265 56019 80001
AAXX 20061 47175 32970 61403 10036 21030 39686 40266 57021 80002 333 92022
AAXX 20061 47185 32665 63613 10077 20000 30179 40271 57017 81502 333 92024
AAXX 20061 47188 32670 63405 10084 21011 30241 40263 57020 82502 333 92022
AAXX 20061 47189 32670 61805 10108 20037 30195 40255 57016 83501 333 92022
AAXX 20061 47192 32970 32703 10067 21124 30226 40264 57022 80001
AAXX 20064 91650 11599 30000 10275 2025/ 40083 53008 60001 70121 83101 333 569/9 83820
AAXX 20064 91652 NIL
AAXX 20064 91656 NIL
AAXX 20064 91659 NIL
AAXX 20064 91660 NIL
AAXX 20064 91669 36/// /1306 10271 20268 40104 52006 90615
AAXX 20064 91670 36/// /3500 10254 20236 40096
AAXX 20064 91676 14/// /3502 10271 20240 30031 40091 50008 60001
AAXX 20064 91680 11398 80805 10250 20244 40102 51011 60101 72126 8577/ 333 5699/ 81708 83918 87460
AAXX 20064 91682 NIL
AAXX 20064 91683 11498 80000 10244 20238 40105 53005 60671 70296 888// 333 569// 85820 86645
AAXX 20064 91691 14/// /2202 10268 20244 30105 40108 50012 60071
AAXX 20064 91693 11498 81802 10246 2024/ 40100 53006 60251 76366 8687/ 333 5699/ 83815 85642 88460
AAXX 20064 91697 14/// /1301 10244 20227 30102 40107 50001 60231
AAXX 20064 91699 14/// /1107 10250 20228 30085 40117 50005 60001
BBXX V2OG2 20063 99253 31126 41998 01922 10250 20196 40090 56018 70000 80000 22233 20403 318// 40505 80213
BBXX 9HA2479 20064 99296 31572 46/// /0317 10219 20143 30112 40141 57001 22214 04219 85171
BBXX C6FS9 20064 99274 31531 46/// /0211 10248 20165 30084 40120 57013 22200 04244 85193
BBXX VROB 20064 99380 31496 46/// /2417 10169 20126 30127 40153 52007 22253 04172 85143
BBXX VNAH 20064 99333 31157 46/// /2412 10227 20113 30087 40110 57021 22200 04227 85158
AAXX 20061 21802 42999 63503 11300 21314 30295 40322 52006 80001
AAXX 20061 24125 41998 80000 11349 21359 39989 40309 52002 77172 80007
AAXX 20061 24136 41999 30000 11400 21427 30172 40287 53002 70271 83070
AAXX 20061 24143 42999 00502 11449 21483 30199 40258 53002
AAXX 20061 24266 41999 60000 11443 21469 30076 40283 53006 70272 86030
AAXX 20061 24329 41998 80000 11362 21384 39966 40311 52002 77171 86017
AAXX 20061 24343 42999 43402 11400 21427 30122 40260 52003 82032
AAXX 20061 24382 41997 80000 11345 21374 39983 40268 53002 77072 86077
AAXX 20061 24639 41998 80301 11380 21409 30096 40272 52012 77172 85019
AAXX 20061 24641 42999 70000 11391 21424 30093 40258 52013 80001
AAXX 20061 24652 42999 80000 11400 21427 30095 40237 54000 80001
AAXX 20061 24656 41999 80000 11384 21420 30122 40240 53002 72272 82036
AAXX 20061 24671 42999 30000 11419 21448 39683 40273 52001 82501
AAXX 20061 24688 41998 80000 11324 21355 39236 40252 54000 77172 8802/
AAXX 20061 24724 41997 83302 11315 21345 39698 40292 52015 77172 8807/
AAXX 20061 24738 41998 83202 11352 21367 30064 40264 52022 77072 83037
AAXX 20061 24768 42997 70000 11402 21439 39955 40225 57003 82011
AAXX 20061 24923 41598 83102 11292 21329 39927 40268 52032 77172 86506 333 86625
AAXX 20061 24944 41997 80701 11279 21296 39888 40208 52014 77172 84037
AAXX 20061 24951 41999 70000 11381 21415 30027 40218 52005 70271 86032
AAXX 20061 24661 41998 50000 11418 21449 39930 40241 55000 74011 80001
AAXX 20061 24959 41995 80201 11389 21417 30075 40224 53002 71074 80005
AAXX 20061 24962 41996 50000 11447 21476 30016 40237 53002 71071 82031
AAXX 20061 24966 41996 60000 11409 21438 39978 40232 53001 72272 80001
AAXX 20061 24967 42999 80000 11415 21449 39986 40241 57002 80005
AAXX 20061 25206 41997 50000 11410 21438 30219 40251 52004 70411 80001
AAXX 20061 25400 41498 83602 11265 21290 30182 40243 52009 77172 8572/ 333 85717
AAXX 20061 30054 41597 82903 11215 21263 30006 40266 52030 77172 82547
AAXX 20061 30089 41997 80000 11242 21260 39964 40207 52005 77177 8802/
AAXX 20061 30393 41998 80000 11288 21305 39080 40227 54000 72272 84037
AAXX 20061 30493 41998 80000 11262 21287 39086 40223 57008 77172 8802/
AAXX 20061 31004 41999 80000 11228 21246 39289 40183 53011 70272 86037
AAXX 20061 31137 42999 50000 11334 21369 39112 40271 57006 80001
AAXX 20061 34691 32998 51406 11062 21126 30387 40374 57012 80002 333 21082
BBXX V2OG2 20063 99253 31126 41998 01922 10250 20196 40090 56018 70000 80000 22233 20403 318// 40505 80213
BBXX 9HA2479 20064 99296 31572 46/// /0317 10219 20143 30112 40141 57001 22214 04219 85171
BBXX C6FS9 20064 99274 31531 46/// /0211 10248 20165 30084 40120 57013 22200 04244 85193
BBXX VROB 20064 99380 31496 46/// /2417 10169 20126 30127 40153 52007 22253 04172 85143
BBXX VNAH 20064 99333 31157 46/// /2412 10227 20113 30087 40110 57021 22200 04227 85158
BBXX FHZI 20064 99648 31464 46/// /2926 10022 21006 39853 49864 52027 22231 05017 85011
BBXX 46088 20061 99483 71232 46/// /1506 10072 40280 90620 22200 00079 10401 20401 70005 333 91207 555 11059 22062 30544 41409 60619 152058 144061 141061 140076 141078 142074
BBXX 46088 20061 99483 71232 46/// /1506 10072 40280 90620 22200 00079 10401 20401 70005 333 91207 555 11059 22062 30544 41409 60619 152058 144061 141061 140076 141078 142074
BBXX 46087 20061 99485 71247 46/// /1908 10080 20073 40282 90620 22200 00078 333 91210 555 11082 22087 30616 41910 60619 186075 182066 180063 179057 174054 169048
BBXX 44039 20061 99411 70727 46/// /2511 10092 20032 40147 57005 90600 22200 00094 10503 70014 333 91215
BBXX 44060 20061 99413 70721 46/// ///12 10085 40131 90615 22200 00100 333 91214 555 11129 22139
BBXX 44033 20061 99441 70690 46/30 /2707 10063 40065 54000 90604 22200 00068 10802 70011 333 91208 555 11087 22092
BBXX 44034 20061 99441 70681 46/30 /2611 10070 40055 57005 90604 22200 00085 10807 70034 333 91213 555 11138 22146
BBXX 44022 20061 99409 70737 46/// ///07 10085 20013 40150 90615 22200 00081 333 91209 555 11077 22088
AAXX 20064 67765 NIL
AAXX 20064 67775 32980 10506 10193 20140 38527 48531 80001 333 20133 59004 81080
AAXX 20064 67779 32975 70703 10225 20156 39072 48528 80002 333 20171 59004 87080
AAXX 20064 67853 NIL
AAXX 20064 67861 32980 30506 10221 20094 38740 48521 81088 333 20179 59006 81359 83280
AAXX 20064 67867 32980 11506 10203 20106 38604 48532 80001 333 20084 59001 81080
AAXX 20064 67881 NIL
AAXX 20064 67965 32975 11209 10237 20102 38709 48536 80002 333 20152 59011 81080
AAXX 20064 67975 NIL
AAXX 20064 67977 32980 10000 10241 20170 39698 48570 80001 333 20150 59004 81080
AAXX 20064 67983 32675 61003 10205 20114 38912 48537 81101 333 20140 58001 81836 86080
AAXX 20064 67991 32980 11105 10242 20170 39625 48537 81030 333 20205 59001 81360
BBXX C6TQ6 20064 99209 70865 41697 41034 10260 20232 40160 55020 70311 8446/ 22244 00270 20308 32121 40306 50206 6//// 80240 ICE /////
BBXX WFLH 20063 99303 71334 43/// 70319 10161 20124 40283 52005 7//// 877// 22213 00178 20501 332// 41205 5//// 6//// 80139 ICE /////
BBXX WFLG 20064 99288 71385 41498 30413 10161 20133 40280 52010 70200 831// 22264 00156 20302 330// 40805 5//// 6//// 80144 ICE /////
AAXX 20064 67755 12475 30201 10271 20227 3//// 48/// 60024 81101 333 20219 5//// 81818 83075
AAXX 20064 67771 NIL
AAXX 20064 67773 NIL
AAXX 20064 67774 NIL
AAXX 20064 67785 NIL
AAXX 20064 67789 NIL
AAXX 20064 67855 31970 50604 10220 20130 3//// 48/// 70511 80001 333 20102 5//// 84080
AAXX 20064 67857 NIL
AAXX 20064 67863 32980 31501 10208 20137 3//// 48/// 80002 333 20126 5//// 83080
AAXX 20064 67871 NIL
AAXX 20064 67875 NIL
AAXX 20064 67891 NIL
AAXX 20064 67895 NIL
AAXX 20064 67897 NIL
AAXX 20064 67899 32583 11503 10195 20141 3//// 48/// 81102 333 20131 5//// 81822
AAXX 20064 67951 32980 11206 10244 20080 3//// 48/// 80001 333 20157 5//// 81080
AAXX 20064 67963 32980 10809 10217 20115 3//// 48/// 80032 333 20156 5//// 81360
AAXX 20064 67967 NIL
AAXX 20064 67971 32975 10204 10217 20138 3//// 48/// 80002 333 20155 5//// 81080
AAXX 20064 67976 NIL
AAXX 20064 67979 NIL
AAXX 20064 40250 NIL
AAXX 20064 40265 NIL
AAXX 20064 40296 32960 00000 10156 20072 40182 57005 333 20150 30010
AAXX 20064 40310 NIL
AAXX 20061 60376 16/// /1603 10068 20068 60044 333 20065
AAXX 20061 60593 36/// /0000 10041 333 20041
AAXX 20064 61017 32960 50416 10164 21028 39745 40159 80002 333 05300 20041 50444 55098 58010 85080
AAXX 20064 61024 32960 31004 10110 21051 39574 40150 80002 333 00800 20108 50881 55/// 58010 83080 P 035
AAXX 20064 61036 32965 70402 10192 21019 39880 40119 81038 333 01700 20190 50821 50754 55100 59001 81365 87280
AAXX 20064 61043 32960 70606 10148 21058 39683 40125 81036 333 0//00 20148 50901 5///4 55105 58008 81364 87280
AAXX 20064 61045 32965 70000 10130 21030 39643 40148 80008 333 00800 20130 5//// 5/624 55105 58010 87280
AAXX 20064 61049 32960 70000 10126 21021 39813 40139 80008 333 00800 20114 50601 50474 55105 58009 87280
AAXX 20064 61052 32960 23606 10160 21002 39871 40129 80002 333 01300 20156 50771 55101 58008 82080
AAXX 20064 61075 32960 70000 10162 21009 39816 40127 82048 333 01200 20155 50751 50564 55101 58013 82365 86280
AAXX 20064 61080 32960 71006 10150 21035 39713 40134 80008 333 01300 20148 50841 50794 55093 58013 87280
AAXX 20064 61090 32962 70000 10130 21008 39625 40142 80008 333 00900 20125 50761 50614 55101 58010 87280
AAXX 20064 61091 32965 50000 10094 20033 39689 40153 80002 333 00700 20090 50491 50414 55098 58005 85080
AAXX 20064 61096 32965 73602 10136 21026 39761 40149 80008 333 01200 20134 51011 50664 55100 58011 87280
AAXX 20064 61099 32960 70000 10200 20048 39881 40110 87052 333 01500 20193 50701 55092 58006 87364
BBXX MGGK4 20061 99108 70170 41/98 13505 10257 20187 40112 70200 8//// 22274 00290 2//// 3//// 4//// 5//// 80212
BBXX A8CI9 20064 99134 10571 41697 50125 10265 20208 40170 52005 70322 85476 22234 04269 20303 3//// 4//// 5//// 80225
BBXX A8VL5 20064 99251 10359 41997 09904 10230 20199 40280 53010 70500 80000 22274 00260 20100 30000 80210
BBXX DCPX2 20064 99140 10520 41997 40322 10255 20155 40175 70511 80002 22224 06240 20404 80190
BBXX DHSI 20064 99195 70176 41898 30219 10220 20175 40140 55010 70100 82071 22284 21005 334// 41205 80190
BBXX A8IQ2 20060 99136 30671 41598 61407 10290 20247 40110 5/000 70322 8/748 22253 04290 20403 316// 40603 5//// 80258
BBXX DGPT2 20064 99071 70339 41598 11920 10265 20215 40100 54000 70200 811// 22214 00270 2//// 80230
BBXX SHIP 20064 99361 11684 41597 89940 10110 2009/ 40080 53050 78165 883// 22273 00170 20707 327// 40807 5//// 6//// 80100 ICE /////
BBXX SHIP 20064 99189 11186 41397 80532 10240 20226 40135 57023 70222 8771/ 22254 00259 20303 308// 40507 80230
BBXX A8JX8 20061 99465 11758 41598 63211 10040 20017 40020 5/015 75151 86125 22224 2//// 3//// 4//// 5//// 80030
BBXX 3EIU9 20064 99128 11206 41198 22405 10310 20250 40090 56025 70301 82241 90540 22273 00268 1//// 2//// 331// 40402 5//// 6//// 80270 /////
BBXX 3FMH7 20064 99257 11323 41798 70716 00/// 10190 20159 40232 5//// 70222 87/// 9//// 22273 0//// 1//// 2//// 3//// 4//// 5//// 6//// 80170
BBXX ZQCP3 20063 99058 10874 41398 80618 10272 20252 40090 50000 76282 8479/ 22263 00280 20201 305// 40703 5//// 80258
BBXX HZGN 20063 99079 11176 41497 50715 12290 20263 40088 58/// 70322 8324/ 22224 02270 20601 307// 40804 5//// 80270
BBXX 4XFX 20064 99531 11659 41/98 43641 00/// 11046 2109/ 49950 52025 772// 84/// 22264 0//// 2//// 3//// 4//// 5//// 6//// 81030 ICE /////
BBXX A8UT8 20064 99143 11197 41697 50812 10300 20258 40080 56020 70311 84476 22243 20802 302// 41002 80270
BBXX DGBE 20063 99293 11278 41597 70515 10170 20068 40230 57011 70222 8672/ 22214 00240 2//// 80115
BBXX DGUG2 20064 99320 70178 41598 20822 10175 20106 40265 56005 70122 81870 22254 04210 20704 80135
BBXX 62095 20064 99530 70159 46/// /2113 10106 20080 40172 56020 22200 00113 10806 70029
BBXX 2AUO5 20063 99606 10016 41397 81517 10064 20043 49970 57010 76366 8/7// 22200 02081 20701 315// 40703 80055
BBXX SHIP 20063 99358 70124 41/97 50316 10149 40300 53001 70011 8//7/ 22283 20304
BBXX 62103 20064 99499 70029 46/99 /3223 10105 20051 40164 52019 22200 00122 10703 70015 333 90710 91135
BBXX DAXJ 20063 99345 10217 41598 52821 10149 20070 40160 52010 72582 8329/ 22224 00174 20504 332// 40705 5//// 80107
BBXX 62305 20064 99504 10000 46/98 /3128 10100 20058 40137 53012 22200 00120 10703 70013 333 90710 91133
BBXX 62094 20064 99517 70067 46/// /2919 10097 20064 40184 53011 22200 00105 18504 70019 333 90710 91125
BBXX 62107 20064 99501 70061 46/// /3321 10108 20051 40195 51018 22200 00116 10704 70019 333 90710 91129
BBXX 62304 20064 99511 10018 46/98 /3130 10087 20048 40093 55003 22200 00112 10502 70010 333 90710 91138
BBXX 62304 20064 99511 10018 46/98 /3133 10087 20049 40093 55003 22200 00111 10502 70010
BBXX 62170 20064 99514 10020 46/97 /3032 10087 20053 40086 53001 22200 00109 10502 70010 333 90710 91142
BBXX 62116 20064 99576 10011 47497 /3223 10073 20040 49991 53012 700// 22200 10504 70021
BBXX 62155 20064 99577 10007 47597 /3131 10078 20031 40002 53020 751// 22200 10505 70023
BBXX 62094 20064 99517 70067 46/// /2919 1//// 2//// 40184 53011 22200 00105 10504 70019 333 90710 91125
BBXX 62104 20064 99574 10013 47497 /3232 10069 20046 49991 52012 700// 22200
BBXX 64045 20064 99591 70117 46/// /2924 10053 20026 40070 52006 22200 00101 10910 70049 333 90710 91134
BBXX 62103 20064 99499 70029 46/99 /3325 10107 20062 40158 52018 22200 00122 10703 70015 333 90710 91131
BBXX 62146 20064 99572 10021 47/98 /3108 10062 20039 49993 53015 700// 22200 10603 70017
BBXX 62105 20064 99561 70122 46/// ///13 10086 20033 40146 57003 22200 00106 10708 70042
BBXX 62164 20064 99572 10008 47597 /3227 10086 20039 40005 53020 700// 22200 00094 10607 70035
BBXX 62122 20064 99573 10016 47497 /3126 10073 20041 49987 52005 763// 22200 10504 70018
BBXX 62140 20064 99573 10013 46/// /32// 10069 20037 49987 52006 22200
BBXX 62118 20064 99577 10009 47596 /3226 10072 20035 49993 53019 700// 22200 10505 70025
BBXX 62153 20064 99573 10020 47498 /3217 10070 20050 49991 53011 762// 22200 10603 70017
BBXX 62143 20064 99577 10018 47398 /3217 10065 20044 49991 53010 700// 22200 10503 70016
BBXX 62102 20064 99579 10018 46/// /3016 10069 20037 49981 53003 22200 10603 70015
BBXX 62117 20064 99579 10000 47697 /3233 10069 20034 40003 52023 700// 22200 10606 70032
BBXX 62114 20064 99583 10000 46/// /3131 10076 20002 49997 51025 22200
BBXX 62129 20064 99584 10003 46/// ///// 10073 20028 49988 52018 22200
BBXX ZQSD5 20064 99583 10007 46/// /3230 10071 20039 49999 52019 22200 10703 70015
BBXX 62113 20064 99584 10002 47698 /3226 10084 20032 49986 52016 700// 22200
BBXX 62134 20064 99580 10014 47498 /3226 10066 20042 49984 53008 762// 22200 10503 70016
BBXX 62144 20064 99534 10017 47598 /3022 10071 20032 40064 53008 700// 22200 10505 70024
BBXX 62145 20064 99531 10028 47598 /3022 10079 20038 40060 52010 700// 22200 10504 70021
BBXX 62142 20064 99530 10021 47697 /3023 10076 20038 40055 52012 700// 22200 10504 70019
BBXX 62121 20064 99535 10027 46/// ///// 22200
BBXX 62148 20064 99536 10015 46/// /3027 10076 20032 40068 52017 22200
BBXX 62149 20064 99537 10011 47598 /3024 10075 20035 40063 52019 751// 22200 10605 70023
BBXX 62150 20064 99536 10007 47998 /2924 10068 20024 40081 52018 700// 22200 10604 70018
BBXX C6XQ2 20063 99276 50469 41998 13513 10250 20235 40088 54000 70200 80006 22213 04250 21002 32422 40802 50601 80240
BBXX IDDUK02 20064 99597 50433 46/// ///// 40032 222//
BBXX WFLH 20063 99303 71334 43/// 70319 10161 20124 40283 52005 7//// 877// 22213 00178 20501 332// 41205 5//// 6//// 80139 ICE /////
BBXX WKPF 20063 99402 70639 43/97 /2524 10142 2007/ 40140 57025 7//// 8//// 22265 00163 2//// 3//// 4//// 5//// 6//// 80105 ICE /////
BBXX 46207 20061 99509 71299 46/// /2711 10088 40223 52034 22200 00082 11310 70050 333 91215
BBXX A8IP3 20063 99276 70636 41497 40322 10200 20096 40220 58010 70011 82279 22214 04240 20402 80140
BBXX 46111 20061 99481 71227 46/// /1608 10075 40281 56012 90600 22200 00059
BBXX 46112 20061 99481 71227 46/// /1406 10073 40285 55009 90600
BBXX 41029 20061 99328 70796 46/// /0000 1//// 90600
BBXX 41037 20061 99340 70775 46/// /2705 10164 40222 57006 90600 22200 00178 333 91206
BBXX 44032 20061 99437 70694 46/30 /2611 10074 40065 55000 90604 22200 00089 10805 70025 333 91214 555 11139 22148
BBXX 44067 20061 99384 70770 46/// /3406 10112 40177 58009 90600
BBXX C6VG7 20064 99249 70760 41698 21020 10218 2011/ 40223 57002 7//00 82/3/ 22244 00250 20304 309// 4//// 5//// 6//// 80155 ICE /////
BBXX WXJ63 20063 99611 71464 41/92 90503 11008 21011 40022 52/// 745// 8//// 222// 00056 2//// 3//// 4//// 5//// 6//// 8//// ICE /////
BBXX WDF7020 20064 99446 70828 41/97 80115 1//// 2//// 40227 54/// 70002 8//// 22243 0//// 20302 3//// 4//// 5//// 6//// 8//// ICE /////
BBXX 46204 20061 99514 71288 46/// /1908 10090 40221 52021 22200 00085 11210 70049 333 91211
BBXX 46131 20061 99499 71250 46/// /1108 1//// 40273 52011 22200 00076 10502 70008 333 91209
BBXX 46183 20061 99536 71311 46/// /2211 10074 40096 52012 22200 00079 10805 70024 333 91213
BBXX 41053 20061 99185 70661 46/// /0807 10262 40167 90540 333 91209
BBXX 41053 20061 99185 70661 46/// /0808 10264 40166 90550 333 91210
BBXX WDB9918 20064 99534 71385 41496 72837 10061 2005/ 40160 52060 76062 879// 22272 00067 20611 328// 4//// 5//// 6//// 80056 ICE /////
BBXX 41052 20061 99183 70648 46/// /0408 10261 40160 90540 333 91212
BBXX 41052 20061 99183 70648 46/// /0508 10262 40159 90550 333 91210
BBXX 41053 20061 99185 70661 46/// /0708 10264 40165 58012 90600 22200 00274 11103 70016 333 91210
BBXX 41052 20061 99183 70648 46/// /0509 10262 40159 58011 90600 22200 00275 333 91211
BBXX 46147 20061 99518 71312 46/// /2515 10083 40175 52020 22200 00081 11415 70077 333 91221
BBXX SHIP 20064 99473 71509 41698 32317 10070 20049 40311 52030 70200 83131 22223 06080 20406 318// 40406 80060
BBXX SHIP 20064 99227 71581 41/97 20726 10234 20185 40204 52025 70111 8//// 22200 04237
BBXX A8SF7 20061 99126 70755 41098 20912 10270 20241 40125 56015 7//00 82100 22244 04260 21004 309// 41204 5//// 80250
BBXX 46114 20061 99364 71222 46/// ///// 1//// 90604 22200 00124 11307 21004 330// 41305 70034
BBXX 46221 20061 99339 71186 46/// ///// 1//// 90545 22200 00150 11502 21001 327// 41501 70008
BBXX 51205 20061 99210 71564 46/// ///// 1//// 90618 22200 00242 10906 20905 309// 41102 70029
BBXX 44098 20061 99428 70702 46/// ///// 1//// 90607 22200 00088 10604 20603 310// 41202 70019
BBXX 41114 20061 99276 70802 46/// ///// 1//// 90616 22200 00238 10403 20403 306// 41101 70014
BBXX 42362 20061 99278 70907 46/// /1708 10228 20183 40166 90615
BBXX 42362 20061 99278 70907 46/// /1608 10228 20183 40166 56017 90600
BBXX 42364 20061 99291 70881 46/// /1616 10200 20183 40190 90615
BBXX 42363 20061 99282 70892 46/// /1406 10222 20167 40173 90630 333 91206
BBXX 41115 20061 99184 70673 46/// ///// 1//// 90605 22200 11203 20602 302// 41201 70013
BBXX DDLK 20063 99451 70533 41/97 73633 10026 21011 40035 57005 70122 8//// 22223 20807 301// 41210 80011
BBXX C6CU6 20063 99285 70588 41497 41324 10190 20156 40217 51015 70322 8319/ 22262 04233 21011 334// 41309 5//// 80170
BBXX 46211 20061 99469 71242 46/// ///// 1//// 90606 22200 00084 11203 21002 327// 41203 70017
BBXX 46222 20061 99336 71183 46/// ///// 1//// 90556 22200 00152 11502 20701 327// 41502 70011
BBXX 46242 20061 99332 71174 46/// ///// 1//// 90558 22200 00144 11501 20601 324// 41501 70007
BBXX 46231 20061 99327 71174 46/// ///// 1//// 90554 22200 00148 11503 20601 327// 41502 70013
BBXX 46216 20061 99343 71198 46/// ///// 1//// 90557 22200 00142 11503 20702 327// 41502 70013
BBXX 46223 20061 99335 71178 46/// ///// 1//// 90600 22200 00150 11502 21001 326// 41502 70010
BBXX 46212 20061 99408 71243 46/// ///// 1//// 90612 22200 00097 11107 20905 330// 41104 70033
BBXX 46237 20061 99378 71226 46/// ///// 1//// 90610 22200 00111 11504 21002 326// 41503 70021
BBXX 46217 20061 99342 71194 46/// ///// 1//// 90612 22200 00150 11402 20702 327// 41402 70011
BBXX 46240 20061 99366 71219 46/// ///// 1//// 90612 22200 00123 11303 21002 336// 41303 70016
BBXX 46241 20061 99330 71173 46/// ///// 1//// 90541 22200 00142 11502 20601 327// 41501 70009
BBXX 46244 20061 99409 71244 46/// ///// 1//// 90605 22200 00097 10907 20906 329// 41505 70037
BBXX 46249 20061 99338 71197 46/// ///// 1//// 90612 22200 00152 11502 20702 326// 41502 70012
BBXX 46248 20061 99461 71247 46/// ///// 1//// 90604 22200 00098 11504 21002 327// 41503 70020
BBXX ZMFR 20064 99478 31685 43/// /22// 10102 20074 40254 52001 22213 00123
BBXX SHIP 20064 99287 31101 41498 21308 10219 20143 40126 55001 70100 81135 22232 00226 11206 20101 32115 41307 50803 85171
BBXX MRWF2 20064 99105 31063 41498 51416 10325 2024/ 40060 50010 70322 8574/ 22274 00298 20401 318// 40903 5//// 6//// 80265 ICE /////
BBXX A8CG7 20060 99039 31100 41397 53109 10290 20242 40062 56010 70211 83770 22235 04306 2//// 3//// 4//// 5//// 80255
BBXX 62127 20064 99540 10007 47598 ///// 10075 20018 40063 52019 700// 22200 10605 70025
BBXX 62131 20064 99539 10012 46/// /33// 10077 20028 40055 52018 22200
BBXX 62165 20064 99540 10009 47598 /3120 10077 20023 40073 52020 700// 22200 10605 70026
BBXX 62132 20064 99564 10020 46/// /0000 10072 20048 40019 53030 22200
BBXX 62120 20064 99564 10021 47597 /3430 10065 20045 40009 53025 761// 22200
BBXX 62123 20064 99563 10022 47597 /3226 10069 20045 49996 53016 762// 22200
BBXX 62119 20064 99570 10019 47497 /3323 10070 20048 49997 53016 700// 22200 10604 70018
BBXX PJAI 20064 99581 70014 47998 /3123 10068 20000 40025 52025 700// 22200
BBXX 62111 20064 99580 70003 46/// /3327 10062 20017 40022 52030 22200 10606 70031
BBXX 62128 20064 99587 10014 47496 /3014 10054 20034 49986 53014 762// 22200 10603 70017
BBXX 62154 20064 99564 10022 46/// /3320 10068 20050 49995 53019 22200
BBXX 62152 20064 99570 10018 47/98 /3229 10075 20044 40000 53016 700// 22200 10504 70021
BBXX 64041 20064 99607 70026 47898 /2823 10054 21009 49988 52015 700// 22200 10707 70034
BBXX 62133 20064 99571 10009 46/// /3130 10079 20011 40003 52018 22200
BBXX MWYG6 20064 99603 70040 47998 /3021 10052 700// 22200
BBXX 63115 20064 99616 10013 47398 /1618 10085 20015 49964 57008 761// 22200 10503 70017
BBXX 63117 20064 99613 10011 47496 /1817 10051 21002 49974 56005 762// 22200
BBXX PJGO 20064 99571 10022 47596 /3106 10065 20047 49997 53015 762// 22200
BBXX 63104 20064 99612 10016 47497 /1617 10055 20008 49971 56008 762// 22200
BBXX 63103 20064 99612 10011 46/// /1818 10054 20010 49966 57009 22200 10503 70015
BBXX 63105 20064 99610 10017 47498 ///// 10059 20013 49973 56009 700// 22200
BBXX 63112 20064 99611 10010 47497 /1715 10060 20011 49964 57007 761// 22200 10503 70016
BBXX 63101 20064 99612 10009 46/// /1914 10047 20021 49971 56004 22200
BBXX 63107 20064 99611 10017 46/// /1717 10053 49972 56008 22200
BBXX 63106 20064 99610 10017 46/// /1616 10051 49973 57008 22200
BBXX 63108 20064 99608 10017 47296 /1817 10039 20007 49965 57008 762// 22200 10503 70013
BBXX 63113 20064 99610 10017 46/// /1617 10054 20013 49972 57008 22200 10503 70015
BBXX 63055 20064 99606 10016 47397 /1415 10056 20015 49968 56010 762// 22200 10502 70012
BBXX 62112 20064 99584 70002 47597 /3020 10073 20014 40001 52026 700// 22200
BBXX 63110 20064 99595 10015 47495 /1914 10053 20031 49978 53001 763// 22200 10503 70015
BBXX 63057 20064 99592 10015 46/// ///// 22200
BBXX AMOUK19 20064 99573 70019 46/// ///// 10044 20010 30033 40037 52039 90550
BBXX 62027 20064 99491 70022 46/// /3519 1//// 2//// 40165 53018 22200 00112 10904 331// 70018
BBXX 63056 20064 99597 10016 47495 /1614 10054 20026 49969 56004 771// 22200 10503 70015
BBXX AMOUK03 20064 99535 10005 46/// ///// 10063 20038 30029 40058 54002 90550
BBXX AMOUK06 20064 99512 10014 46/// ///// 10082 20044 30072 40088 54000 90550
BBXX AMOUK05 20064 99532 10013 46/// ///// 10072 20034 39994 40030 52017 90550
BBXX AMOUK27 20064 99582 70064 46/// ///// 11192 2//// 30074 40078 52018 90550
BBXX AMOUK08 20064 99501 70061 46/// ///// 10112 20064 30190 40195 52012 90550
BBXX AMOUK14 20064 99536 70039 46/// ///// 10084 20040 30085 40119 52008 90550
BBXX AMOUK10 20064 99508 10003 46/// ///// 10075 20044 30121 40117 52006 90550
BBXX AMOUK09 20064 99517 10018 46/// ///// 10079 20054 30067 40082 52015 90550
BBXX V2NA1 20064 99436 70293 41/98 31921 10150 20142 40265 54000 70200 8//// 22224 04140 20405 80145
BBXX 62303 20064 99516 70051 46/// /3119 10103 20063 40170 52015 22200 00109 10605 70023 333 90710 91126
BBXX 64045 20064 99591 70117 46/// /2924 10053 20024 40070 52006 22200 00101 10910 70049 333 90710 91134
BBXX 62105 20064 99554 70122 46/// /2913 10086 20033 40146 57003 22200 00106 10708 70042
BBXX 62163 20064 99475 70084 46/// /3214 10115 20088 40240 53008 22200 00128 10605 70023
BBXX 62442 20064 99490 70164 46/// /2415 1//// 2//// 40244 58004 22200 00126
BBXX 62301 20064 99524 70047 46/// /3117 10087 20055 40158 52019 22200 00088 10504 70021
BBXX 62029 20064 99487 70125 46/// /2810 10121 20093 40248 50003 22200 00130 10604 70022
BBXX 62001 20064 99453 70050 46/// /3015 10139 20133 40228 55001 22200 00142 10605 70027
BBXX 64046 20064 99606 70049 46/// /3022 10058 20006 40012 52015 22200 00079 10708 70040
BBXX 62081 20064 99510 70134 46/// ///// 10110 20093 40218 58004 22200 00120 10705 70025
BBXX 63110 20063 99595 10015 41/96 /1918 10056 49978 700// 8//// 22200 10503 70015
BBXX BATEU01 20064 99507 70222 44/96 /2425 10122 20114 40187 51011 700// 22224 00119 21004 328// 41004 5////
BBXX BATFR16 20064 99430 70195 46/// /3114 10144 20142 40307 51014 22264 00152
BBXX 61002 20064 99421 10047 46/// ///20 10122 2//// 40204 57014 22200 00139 10604 70020 555 1/026
BBXX BATUK01 20064 99585 70059 46/// /2823 10062 20002 40060 50010 22222 00105
BBXX BATFR04 20064 99591 70083 44498 52822 10059 21003 40062 53008 70122 852// 22222 00104 330// 40308 5////
BBXX BATFR60 20064 99471 70024 46/// /3021 10117 20094 40183 56003 22223 00099
BBXX BATFR54 20064 99489 70061 46/// /3232 10109 20060 40193 50002 22283 00119
BBXX BATEU09 20064 99415 10126 46/// /3418 10057 20007 40160 52010 22232 00167
BBXX BATFR46 20064 99350 70066 44/97 00409 10147 20060 40270 52008 700// 22213 00174
BBXX BATFR11 20064 99360 10155 46/// /1509 10124 20065 40158 53008 22262 00175
BBXX BATFR12 20064 99482 70074 46/// /3115 10117 20087 40224 53002 22281 00142
BBXX BATFR52 20064 99489 70040 46/// /3317 10119 20067 40203 53025 22243 00132
BBXX BATFR42 20064 99506 70019 46/// /2913 10082 20054 40151 53023 22283 00114
BBXX BATFR09 20064 99451 70065 44597 83021 10134 20115 40252 53019 72052 887// 22253 00147 20614 60//0 ICE 0/0//
BBXX BATFR33 20064 99394 10080 46/// /3227 10119 20020 40203 53006 22234 00164
BBXX BATFR21 20064 99426 10089 46/// /2012 40170 57009 22261
BBXX BAREU62 20064 99380 10156 46/// ///// 40144 52018 22244
BBXX BATFR32 20064 99428 10095 46/// /2409 10089 21007 40169 56007 7//// 8//// 22224 00169
BBXX BAREU51 20064 99393 10124 46/// ///// 40137 57008 22275
BBXX 61001 20064 99434 10078 46/// /2208 10101 20000 40160 5//// 22200 00146 10502 70009
BBXX TESTFR9 20064 99489 70040 46/// /3318 10113 29075 40215 52024 22244
BBXX BAREU08 20064 99491 70061 46/// ///// 40199 57009 22214
BBXX BAREU63 20064 99360 10223 46/// /1410 10155 29057 40124 52001 22262
BBXX BAREU56 20064 99365 10123 46/// ///// 40185 52009 22232
BBXX 3ERR2 20064 99635 10053 41599 42411 10049 21015 49987 52003 70222 84500 22200 06098 10703 70013 333 91121
BBXX LF4B 20064 99606 10037 47/98 /1813 10038 49998 57005 761// 22200 00051 10602 70011 333 91122
BBXX LF4C 20064 99584 10019 41498 83111 10065 20055 49983 52009 780// 89/// 22200 00074 10703 70015 333 91119
BBXX LF3F 20064 99643 10078 41698 22611 10049 21019 49978 52006 70200 822// 22200 04083 10603 70015 333 91122
BBXX LF5T 20064 99660 10081 41598 52608 10057 20019 49953 52002 70222 85/// 22200 10703 70013 333 91110
BBXX LF3N 20064 99653 10073 41597 72913 10055 20006 49964 52004 70222 8//// 22200 00088 10603 70015
BBXX UCJL 20061 99665 10079 41598 63006 10050 40943 57010 70222 862// 22213 00050 20401 33400 40503
BBXX C6CL6 20064 99489 70063 41498 83219 10120 2008/ 40200 52040 70322 8872/ 22263 00100 2//// 3//// 4//// 5//// 6//// 80100 0/0/0
AAXX 20061 45032 NIL
AAXX 20061 45035 36/// /0601 10196 20101 30140 40182 57002
AAXX 20061 45039 36/// /3302 10181 20095 30167 40182 54000
AAXX 20061 45044 36/// /1206 10180 20119 30087 40181 57002
AAXX 20064 04005 41/20 92714 11004 21029 49866 54000 78688 555 3/315
AAXX 20061 45032 NIL
AAXX 20061 45035 36/// /0601 10196 20101 30140 40182 57002
AAXX 20061 45039 36/// /3302 10181 20095 30167 40182 54000
AAXX 20061 45044 36/// /1206 10180 20119 30087 40181 57002
BBXX UANA 20061 99698 10433 41/93 91911 10016 40002 52001 76972 8//// 22222 00036 20605
AAXX 20061 55299 32980 02508 10030 21312 35827 57030 333 05304 21198
AAXX 20061 55591 32980 03201 10065 21230 36511 57030 333 00151 21058
AAXX 20061 56739 32580 12503 10169 21008 38351 57030 81102 333 00001 20021
AAXX 20061 56951 32780 11101 10195 20010 38500 57038 81100 333 00000 20043
AAXX 20061 56964 32580 12503 10194 20090 38712 40151 57032 81101 333 05101 20088
AAXX 20061 57328 32960 80201 10088 20030 39822 40240 57040 8807/ 333 20072
AAXX 20061 57411 31940 80000 10097 20055 39862 40241 57040 71000 8807/ 333 20065
AAXX 20061 57447 11962 81101 10080 20049 39693 40247 57044 69901 70060 8807/ 333 20061
AAXX 20061 57662 11863 80000 10093 21003 30216 40261 57036 69901 70060 885// 333 20073
AAXX 20061 57745 32960 80703 10075 20007 39927 40262 57032 8807/ 333 20069
AAXX 20061 57972 32968 00204 10148 21017 30007 40235 57037 333 20044
AAXX 20061 58203 32968 73403 10083 21021 30226 40269 57031 80002 333 21020
AAXX 20061 58314 32960 82701 10065 20012 30155 40266 57026 8807/ 333 21017
AAXX 20061 58424 31956 80902 10072 21003 30234 40260 57021 70500 8807/ 333 20045
AAXX 20061 59023 32862 70902 10151 20056 39900 40213 57037 875// 333 20109
AAXX 20061 59417 32962 02501 10215 20073 30033 40188 57046 333 20080
AAXX 20061 59985 11580 80406 10240 20227 30115 40120 57028 69941 70080 882// 333 20219
AAXX 20061 59995 NIL
BBXX C6KD4 20063 99426 70192 41297 83211 10135 20126 40308 52005 7//52 897// 22254 02151 20803 328// 41003 80130
AAXX 20064 89050 41294 80108 10008 20008 49919 52006 74264 8662/
AAXX 20064 89512 32598 81320 10002 21037 39673 49820 57002 885// 333 21007
AAXX 20064 89574 42998 11015 10005 21086 49633 57093 81030
AAXX 20064 89592 42998 71009 10019 21030 49560 57006 80005
AAXX 20064 89606 41998 22408 11254 21304 36304 47760 58014 70271 80001 333 21280
AAXX 20064 42309 32596 10902 10224 20165 40141 81100 333 59015
AAXX 20064 42314 31596 10206 10226 20116 40150 81100 333 59007 81825
AAXX 20064 42410 31995 00000 10226 20164 40150 70500 333 59014
AAXX 20064 42415 32996 00501 10234 20139 40162 333 59013
AAXX 20064 42623 31/95 01602 10184 20089 39271 40144 70540 80000 333 59010
AAXX 20064 42706 31995 03202 10230 20062 40157 70500 333 59007
AAXX 20064 42724 31494 70000 10180 20134 40160 71000 85630 333 59007 83710 83618 83360
AAXX 20064 42809 31995 03601 10204 20134 40160 70511 333 59003
AAXX 20064 42398 NIL
AAXX 20064 42492 NIL
AAXX 20064 42587 NIL
AAXX 20064 42591 NIL
AAXX 20064 42701 NIL
AAXX 20064 42798 NIL
AAXX 20064 42886 NIL
AAXX 20064 42895 NIL
AAXX 20064 42971 NIL
AAXX 20064 42977 NIL
AAXX 20064 43333 NIL
AAXX 20064 43368 NIL
BBXX 46185 20061 99524 71298 46/// /2312 10083 40165 52016 22200 00075 10907 70036 333 91216
BBXX 46185 20061 99524 71298 46/// /2312 10083 40165 52016 22200 00075 10907 70036 333 91216
AAXX 20064 67017 NIL
AAXX 20064 67020 11580 60000 10271 20238 30080 40107 50012 60034 71522 83806 333 02269 10303 20229 50144 55/// 83820 83640 85273
AAXX 20064 67023 32582 10206 10318 20245 30084 40090 50000 81230 333 02000 10326 20206 50344 55/// 81820 555 81360
AAXX 20064 67037 NIL
AAXX 20064 67067 31570 4//// 10245 20175 39235 48/// 51006 7100/ 84802 333 0//00 10310 20186 50634 55/// 83823 555 81630 81073
AAXX 20064 67107 NIL
AAXX 20064 67131 32582 42606 10/// 20/// 30083 40088 51005 83202 333 0//00 10/// 20/// 50//4 55/// 83820 555 81073
AAXX 20064 85500 12998 03306 1010160 20143 30100 40131 57005 60001
AAXX 20064 85558 12997 01908 10146 20117 40135 54003 60001
AAXX 20064 85564 12998 00708 10127 20110 40156 57014 60001
AAXX 20064 85680 12597 41602 10158 20144 40161 57007 60001 84500 333 56400 84613
AAXX 20064 85732 12597 83603 10156 20143 40120 57010 60001 885// 333 56799 88620
AAXX 20064 85802 11496 83606 10139 20096 40121 54001 69911 78022 887// 333 56899 88713
AAXX 20064 85834 12597 83315 10098 20082 40061 57015 60001 887// 333 56199 88720
AAXX 20064 85889 11595 83618 10084 20055 40030 57021 60031 78288 887// 333 56799 88720
AAXX 20064 85896 11496 83005 10086 20065 40005 57016 60011 76062 88700 333 56700 88718
AAXX 20064 85930 12596 83115 10072 20046 49952 57008 60021 75082 887// 333 56899 88723
AAXX 20064 85931 12597 83611 10094 20066 49949 57006 60001 885// 333 56899 88622
AAXX 20064 85935 12897 49296 10078 20041 49950 58005 60001 84030 333 56070 84357
AAXX 20064 85969 12997 03316 10080 20060 49957 52/// 60001
AAXX 20064 85970 12998 03010 10070 21016 49922 52/// 60041
AAXX 20064 85972 11997 03025 10072 20056 49909 57008
AAXX 20064 89057 11208 80000 10016 20013 49915 52005 60001 74444 886// 333 56099 88705
AAXX 20064 67773 32980 10602 10228 20157 3//// 48/// 80001 333 20167 5//// 81080
AAXX 20064 17248 12975 50202 10043 21010 38987 48496 57009 60002 85050 333 20008 32101 55068 2//// 85360
AAXX 20061 24790 41999 30000 11400 21415 39367 40303 52001 77670 80001
AAXX 20061 24988 42999 13102 11233 21265 39867 40137 52003 81040
AAXX 20061 25378 31696 73315 11150 21231 39967 40001 53013 73832 82531 333 11146 91126
AAXX 20061 25503 42999 00000 11404 21426 30107 40255 52010
AAXX 20061 25705 41698 81401 11297 21321 39863 40229 53004 77172 83537
AAXX 20061 25927 NIL
AAXX 20061 25932 42999 02703 11202 21280 30049 40089 53014
AAXX 20061 31152 42998 40000 11360 21397 39785 40242 57006 80002
AAXX 20061 31174 41599 22506 11150 21170 30163 40177 53001 70230 82500 333 91010 91115
AAXX 20061 31489 42997 01402 11206 21239 30090 40216 57003
AAXX 20061 31866 42999 03204 11085 21238 30197 40203 55001
AAXX 20061 31959 42998 02603 11069 21182 30176 40221 56003 333 91113
AAXX 20061 31989 42999 02702 11036 21203 30184 40239 56015
AAXX 20061 32027 42999 01802 11159 21193 30182 40191 53002 333 91003 91104
AAXX 20061 32076 42999 50000 11122 21142 30168 40179 53008 82071 333 91000 91102
AAXX 20061 32099 41598 73607 11078 21096 30156 40164 52002 70232 87900 333 91008 91111
AAXX 20061 32121 41598 53504 11072 21093 30158 40181 52004 78582 85900 333 91005 91106
AAXX 20061 32213 41598 23212 11064 21080 39951 40015 53014 73631 82500 333 91015 91115
AAXX 20061 32287 41497 80503 11122 21142 30069 40080 52008 78583 889// 333 86712
AAXX 20061 32408 42999 23603 11223 21249 30005 40046 52013 80001
AAXX 20061 32509 42699 33105 11105 21270 39987 40022 53010 83500
AAXX 20061 32594 41599 10305 11102 21146 39992 40029 52015 70281 81400
AAXX 20064 06670 31562 81906 11017 21049 39632 40161 57026 77071 8352/ 333 21048 3/111 46005 55006 55300 20000 70007 83623 88550 90768 93101 91117 91210
AAXX 20064 06700 01204 82407 11019 21032 39677 40189 56021 60012 77387 8372/ 333 21045 3/107 47003 55014 55300 20000 69955 70017 83706 88520 90768 93102 91114 91208
AAXX 20064 06680 01/01 92621 11109 21109 37397 47916 57011 69962 77074 333 21174 47183 55001 55300 20000 69955 70009 90768 93101 91141 91231
AAXX 20064 06990 31450 81205 11024 21100 39610 40178 56026 70541 886// 333 21071 3/110 41/// 55006 55300 20000 70000 88715 91115 91208
AAXX 20064 06760 32982 80701 11008 21107 39717 40181 57008 8801/ 333 21009 30104 55059 55300 20000 70000 88465 90768 93100 91108 91204
AAXX 20064 06720 01050 8//// 11037 21056 39610 40212 57018 69922 77171 887// 333 21071 3/103 43009 55027 55300 20000 69925 70002 88701 90768 93101
AAXX 20064 06610 01415 82305 11016 21026 39569 40173 57021 69932 77381 887// 333 21067 3/110 47004 55018 55300 20000 69935 70009 88717 90768 93103 91113 91208
AAXX 20060 44259 31997 73107 11165 21215 39291 40249 58014 73630 87070 333 91112
AAXX 20060 44292 31891 72602 11202 21243 38722 40376 57006 70422 84018
AAXX 20060 44354 32999 00000 11219 21244 39126 40356 57017
AAXX 20060 44373 32999 22903 11120 21194 38580 40361 58008 80004
AAXX 20064 85500 12998 03306 1010160 20143 30100 40131 57005 60001
AAXX 20064 85558 12997 01908 10146 20117 40135 54003 60001
AAXX 20064 85564 12998 00708 10127 20110 40156 57014 60001
AAXX 20064 85680 12597 41602 10158 20144 40161 57007 60001 84500 333 56400 84613
AAXX 20064 85732 12597 83603 10156 20143 40120 57010 60001 885// 333 56799 88620
AAXX 20064 85802 11496 83606 10139 20096 40121 54001 69911 78022 887// 333 56899 88713
AAXX 20064 85834 12597 83315 10098 20082 40061 57015 60001 887// 333 56199 88720
AAXX 20064 85889 11595 83618 10084 20055 40030 57021 60031 78288 887// 333 56799 88720
AAXX 20064 85896 11496 83005 10086 20065 40005 57016 60011 76062 88700 333 56700 88718
AAXX 20064 85930 12596 83115 10072 20046 49952 57008 60021 75082 887// 333 56899 88723
AAXX 20064 85931 12597 83611 10094 20066 49949 57006 60001 885// 333 56899 88622
AAXX 20064 85935 12897 49296 10078 20041 49950 58005 60001 84030 333 56070 84357
AAXX 20064 85969 12997 03316 10080 20060 49957 52/// 60001
AAXX 20064 85970 12998 03010 10070 21016 49922 52/// 60041
AAXX 20064 85972 11997 03025 10072 20056 49909 57008
AAXX 20064 89057 11208 80000 10016 20013 49915 52005 60001 74444 886// 333 56099 88705
BBXX NIL
BBXX NIL
BBXX NIL
BBXX NIL
BBXX NIL
AAXX 20064 67017 NIL
AAXX 20064 67020 11580 60000 10271 20238 30080 40107 50012 60034 71522 83806 333 02269 10303 20229 50144 55/// 83820 83640 85273
AAXX 20064 67023 32582 10206 10318 20245 30084 40090 50000 81230 333 02000 10326 20206 50344 55/// 81820 555 81360
AAXX 20064 67037 NIL
AAXX 20064 67067 31570 4//// 10245 20175 39235 48/// 51006 7100/ 84802 333 0//00 10310 20186 50634 55/// 83823 555 81630 81073
AAXX 20064 67107 NIL
AAXX 20064 67131 32582 42606 10/// 20/// 30083 40088 51005 83202 333 0//00 10/// 20/// 50//4 55/// 83820 555 81073
AAXX 20063 41150 42962 02809 10169 20117 40235 333 20151 30013 58005
AAXX 20064 86330 32998 00000 10224 20134 40058 58003
AAXX 20064 86360 NIL
AAXX 20064 86460 NIL
AAXX 20064 86490 NIL
AAXX 20064 86530 NIL
AAXX 20064 86545 32997 01505 10176 20166 40075 52///
AAXX 20064 86565 32497 80000 10184 20174 40069 57004 885//
AAXX 20064 86580 42997 00000 10186 20176 40073 50000
AAXX 20064 40255 32960 11304 10132 20014 39495 40211 54003 80001 333 20105 30009 81070
AAXX 20064 40260 NIL
AAXX 20064 40270 31940 00000 10070 21024 39327 40230 57007 70500 333 20055 30000
AAXX 20064 40272 31957 00814 10076 21045 39386 40229 52006 70500 333 20045 30004
AAXX 20064 40290 NIL
AAXX 20064 40340 32960 01101 10166 20034 40171 52016 333 20155 30013
AAXX 20064 40250 NIL
AAXX 20064 40265 NIL
AAXX 20064 40296 32960 00000 10156 20072 40182 57005 333 20150 30010
AAXX 20064 40310 NIL
AAXX 20061 38846 41996 62102 11062 21070 38612 48570 52009 71072 82033
AAXX 20060 44214 32998 12805 11174 21259 38416 40569 58002 81040
AAXX 20060 44237 32999 82706 11111 21184 38534 40345 58002 8802/
AAXX 20060 44282 31999 73211 11105 21221 38326 40342 57007 73632 87070 333 91116
AAXX 20060 44298 32999 03205 11172 21184 38713 40319 57010
AAXX 20060 44305 32999 32905 11206 21248 39049 40301 57015 80004
AAXX 20060 44317 32998 22705 11137 21189 38925 40259 57020 80001
AAXX 20060 44352 32999 02709 11190 21216 38908 40306 57013
AAXX 20063 91802 NIL
AAXX 20063 91809 NIL
AAXX 20063 91831 36/// /0706 10263 20224 40155 52005
AAXX 20063 91841 36/// /0704 10258 20211 40142 52013
AAXX 20063 91843 31498 30706 10274 20229 40130 51016 60001 70300 83101 333 561// 83818
AAXX 20063 91848 36/// /1203 10252 20233 40179 57033
AAXX 20064 85500 12998 03306 1010160 20143 30100 40131 57005 60001
AAXX 20064 85558 12997 01908 10146 20117 40135 54003 60001
AAXX 20064 85564 12998 00708 10127 20110 40156 57014 60001
AAXX 20064 85680 12597 41602 10158 20144 40161 57007 60001 84500 333 56400 84613
AAXX 20064 85732 12597 83603 10156 20143 40120 57010 60001 885// 333 56799 88620
AAXX 20064 85802 11496 83606 10139 20096 40121 54001 69911 78022 887// 333 56899 88713
AAXX 20064 85834 12597 83315 10098 20082 40061 57015 60001 887// 333 56199 88720
AAXX 20064 85889 11595 83618 10084 20055 40030 57021 60031 78288 887// 333 56799 88720
AAXX 20064 85896 11496 83005 10086 20065 40005 57016 60011 76062 88700 333 56700 88718
AAXX 20064 85930 12596 83115 10072 20046 49952 57008 60021 75082 887// 333 56899 88723
AAXX 20064 85931 12597 83611 10094 20066 49949 57006 60001 885// 333 56899 88622
AAXX 20064 85935 12897 49296 10078 20041 49950 58005 60001 84030 333 56070 84357
AAXX 20064 85969 12997 03316 10080 20060 49957 52/// 60001
AAXX 20064 85970 12998 03010 10070 21016 49922 52/// 60041
AAXX 20064 85972 11997 03025 10072 20056 49909 57008
AAXX 20064 89057 11208 80000 10016 20013 49915 52005 60001 74444 886// 333 56099 88705
AAXX 20061 36859 32999 80000 11106 21150 39691 40529 52004 8807/ 333 21138
AAXX 20061 23074 42998 10804 11272 21296 30250 40278 57012 80001
AAXX 20061 23274 42998 61403 11240 21265 30240 40279 57012 82031
AAXX 20061 23383 42998 00000 11434 21468 39988 40408 52007
AAXX 20061 23472 41597 80903 11207 21232 30233 40285 57012 77172 86507
AAXX 20061 23678 41997 81002 11177 21203 30237 40300 57007 77177 8802/
AAXX 20061 23884 41567 80000 11186 21198 30249 40329 57004 77187 8652/
AAXX 20061 23891 42998 21701 11335 21372 30030 52010 81044
AAXX 20061 24507 42998 03001 11361 21390 30110 40391 52010
AAXX 20061 24817 41999 00000 11288 21312 39913 40324 52021 70171
AAXX 20061 24908 42981 00000 11325 21362 39999 40376 52017
AAXX 20061 29263 41596 72102 11131 21151 30259 40366 58002 78582 83935
AAXX 20061 29282 41997 80301 11236 21255 30191 40379 52015 70472 80001
AAXX 20061 29379 41898 83004 11121 21148 30158 40379 52006 72287 8802/
AAXX 20061 29570 41598 82503 11117 21152 30037 40405 52003 78582 889//
AAXX 20061 29698 41598 83404 11109 21153 39835 40374 52011 78582 889//
AAXX 20061 30230 41696 82904 11206 21255 39958 40313 52019 77072 86546
AAXX 20061 30252 41696 82703 11168 21237 39908 40242 52024 78583 86907
AAXX 20061 30309 41999 83201 11153 21187 39798 40351 51012 70287 81031
AAXX 20061 30328 41698 83402 11175 21225 39882 40337 52016 72272 81527
AAXX 20061 30521 42597 83005 11155 21189 39775 40330 52010 85901
AAXX 20061 30710 41596 82903 11113 21131 39741 40352 52009 78582 889//
AAXX 20064 63733 32580 70000 10210 20174 38877 48509 81930 333 20194 50261 55081 55300 59001 81920 87359
AAXX 20064 63756 12480 70310 10226 20203 38881 48518 69954 81931 333 0//19 20175 50351 55057 5504 59005 81819 81920 85360
AAXX 20064 6379112580 30308 10270 20157 39135 48525 60064 81201 333 0//19 20204 50501 55100 55310 59004 81829 83076
AAXX 20064 63832 32580 40000 10215 20193 38837 48506 81131 333 20192 51051 55105 55300 58002 81820 83072 Q1019
AAXX 20064 63870 11465 82905 10250 20243 30111 40129 69924 76196 8593/ 333 0//51 20250 50571 55111 55300 58015 85824 81916 88358
AAXX 20064 63881 12480 52902 10195 20137 38213 48/// 60014 81530 333 0//11 20143 50271 55058 55310 58005 81618 83356
AAXX 20064 63887 31480 80000 10192 20174 38602 48525 70352 8587/ 333 20182 50401 55063 55300 58000 85617 87358
AAXX 20064 63894 01460 50000 10225 20225 30077 40137 60604 79597 8594/ 333 0//11 20220 50181 55098 55300 58013 85818 81919 87457
AAXX 20064 63932 12580 80000 10190 20167 38321 48518 60054 8493/ 333 0//29 50321 55034 55300 58000 84821 81923 86359
AAXX 20064 63962 13580 60000 10223 20193 38965 48524 60254 85970 333 0//94 20185 50431 55046 55300 58012 85820 81922 84458
AAXX 20064 63971 12580 42310 10275 20231 39993 40121 60224 82932 333 0//29 20225 50371 55005 55310 58012 82823 81924 83358
AAXX 20064 63729 NIL
AAXX 20064 63801 NIL
AAXX 20064 63862 NIL
AAXX 20064 63866 NIL
AAXX 20061 23973 41996 81804 11164 21183 30262 40329 57006 77172 8802/
AAXX 20061 23975 41598 82102 11126 21146 30215 40330 57001 77172 8872/
AAXX 20061 23986 41498 81901 11170 21182 39670 40349 52002 77187 8472/
AAXX 20061 23987 41495 71303 11173 21199 30264 40343 58004 78582 85930
AAXX 20061 24606 42999 00000 11314 21336 30062 40365 52013
AAXX 20061 29253 41998 80000 11110 21138 30176 40358 58001 77172 8802/
AAXX 20061 29471 41998 82703 11115 21143 30147 40388 52002 70282 8801/
AAXX 20061 29481 42999 83003 11119 21154 30129 40382 52004 8802/
AAXX 20061 29553 41537 82503 11131 21151 30021 40410 58001 78582 889//
AAXX 20061 29562 41596 82603 11131 21151 39968 40410 52004 78582 889//
AAXX 20061 29581 42998 82604 11111 21147 30119 40390 52003 85035
AAXX 20061 29594 41597 82904 11122 21149 39972 40379 52008 78583 889//
AAXX 20061 29653 41996 82001 11114 21134 39900 40410 58001 77187 8802/
AAXX 20061 29675 42898 82601 11111 21147 39789 40412 52003 8802/
AAXX 20061 29676 41696 83502 11104 21148 39942 40387 52001 77172 885//
AAXX 20061 29752 41494 82406 11144 21157 38918 48555 52003 78683 889// 333 91115
AAXX 20061 29759 41996 81405 11127 21154 39339 40424 52004 77173 8807/ 333 91114
AAXX 20061 29766 41862 80000 11123 21136 30052 40428 58006 77172 8802/
AAXX 20061 29789 42598 82502 11093 21162 39131 40356 52004 889//
AAXX 20061 29864 42699 82201 11071 21109 39729 40404 52001 8257/
AAXX 20061 29866 41997 82604 11062 21085 30082 40414 52005 77372 8802/
AAXX 20061 29869 41514 82906 11055 21066 30038 40425 52005 77373 8872/ 333 91112 95090
AAXX 20061 29956 41697 82705 11056 21082 39871 40451 52003 78582 889//
AAXX 20061 30337 41598 83202 11181 21240 39840 40320 52014 70282 85907
AAXX 20061 30405 41498 73001 11134 21169 39803 40360 51013 78583 86930
AAXX 20061 30504 41998 83403 11129 21172 39684 40366 51007 77173 8801/
AAXX 20061 30603 41597 83105 11119 21146 39753 40351 51011 78583 889//
AAXX 20061 30612 41598 83305 11129 21164 39788 40350 52010 70283 8297/
AAXX 20061 30622 42998 83204 11158 21209 39635 40317 52011 83033
AAXX 20061 30627 41999 12904 11149 21209 39333 40312 52016 70131 80001
AAXX 20061 30703 41997 83204 11104 21124 39654 40355 51009 77172 83077
AAXX 20061 36307 41899 71101 11302 21345 39012 48584 57002 77172 84032 333 95000
AAXX 20064 71445 16/// /2022 11042 21075 39743 40022 56051 60001 333 11042 21133 70000 555 31940 40043
AAXX 20064 71683 46/// /2802 11279 39905 40019 51008 6///1 333 11207 21290 7////
AAXX 20064 71214 16/// /2104 11035 21062 60001 333 11001 21142 70004 555 32127 40191
AAXX 20064 71223 16/// /2212 11035 21064 60001 333 11021 21143 70004 555 32225 40181
AAXX 20064 71227 46/// /2109 11005 21032 6///1 333 10015 21139 7//// 555 32318 40211
AAXX 20064 71257 17/// /2209 10035 21037 69961 7//4/ 333 10035 21149 70006
AAXX 20064 71258 16/// /2315 10044 21039 60001 333 10054 21127 70000 555 32321 40051
AAXX 20064 71259 16/// /2108 11037 21055 60001 333 11037 21177 70000
AAXX 20064 71274 16/// /2406 10005 21030 60001 333 7////
AAXX 20064 71275 46/// /2109 10006 21028 6///1 333 10021 21138 7//// 555 32024 40161
AAXX 20064 71278 16/// /2204 10021 21034 60001 333 10033 21126 70000 555 32224 40181
AAXX 20064 71286 16/// /2004 11001 21028 60001 333 10028 21144 70000 555 32419 40221
AAXX 20064 71287 16/// /2304 10013 21016 60001 333 10024 21116 70000 555 32217 40181
AAXX 20064 71289 16/// /2209 10034 21030 60001 333 10040 21132 70000 555 31922 40151
AAXX 20064 71464 46/// ///15 10026 39972 40187 51026 6///1 333 10069 20026 7////
AAXX 20064 71466 46/// ///// 10027 39977 40216 6///1 333 7////
AAXX 20064 71949 46/// /1302 11173 21195 39155 40040 52017 6///1 333 11007 21186 7////
AAXX 20064 71525 16/// /2212 10018 21035 60001 333 10018 21082 70000 555 32026 40181
AAXX 20064 71535 16/// /2521 10052 21053 60001 333 10054 21069 70000 555 32533 40062
AAXX 20064 71536 16/// /2418 10035 21036 60001 333 10042 21074 70000 555 32532 40042
AAXX 20064 71916 46/// /2102 11387 21425 39993 40052 53015 6///1 333 11377 21409 7////
AAXX 20064 71351 16/// /2505 10033 21017 60001 333 10040 21093 70004
AAXX 20064 71353 16/// /2317 10039 21034 60001 333 10056 21105 70004 555 32322 40061
AAXX 20064 71385 46/// /2922 11024 6///1 333 10003 21090 7//// 555 31933 40222
AAXX 20064 85500 12998 03306 1010160 20143 30100 40131 57005 60001
AAXX 20064 85558 12997 01908 10146 20117 40135 54003 60001
AAXX 20064 85564 12998 00708 10127 20110 40156 57014 60001
AAXX 20064 85680 12597 41602 10158 20144 40161 57007 60001 84500 333 56400 84613
AAXX 20064 85732 12597 83603 10156 20143 40120 57010 60001 885// 333 56799 88620
AAXX 20064 85802 11496 83606 10139 20096 40121 54001 69911 78022 887// 333 56899 88713
AAXX 20064 85834 12597 83315 10098 20082 40061 57015 60001 887// 333 56199 88720
AAXX 20064 85889 11595 83618 10084 20055 40030 57021 60031 78288 887// 333 56799 88720
AAXX 20064 85896 11496 83005 10086 20065 40005 57016 60011 76062 88700 333 56700 88718
AAXX 20064 85930 12596 83115 10072 20046 49952 57008 60021 75082 887// 333 56899 88723
AAXX 20064 85931 12597 83611 10094 20066 49949 57006 60001 885// 333 56899 88622
AAXX 20064 85935 12897 49296 10078 20041 49950 58005 60001 84030 333 56070 84357
AAXX 20064 85969 12997 03316 10080 20060 49957 52/// 60001
AAXX 20064 85970 12998 03010 10070 21016 49922 52/// 60041
AAXX 20064 85972 11997 03025 10072 20056 49909 57008
AAXX 20064 89057 11208 80000 10016 20013 49915 52005 60001 74444 886// 333 56099 88705
AAXX 20064 71949 46/// /1302 11173 21195 39155 40040 52017 6///1 333 11007 21186 7////
BBXX 4XFX 20064 99531 11659 41/98 43641 00/// 11046 21090 49950 52025 772// 84/// 22264 0//// 2//// 3//// 4//// 5//// 6//// 81030 ICE /////
BBXX A8JX8 20061 99465 11758 41598 63211 10040 20017 40020 5/015 75151 86125 22224 2//// 3//// 4//// 5//// 80030
BBXX C6SI3 20063 99457 11727 41898 62719 10030 20010 40030 53010 70211 86465 22213 0//// 20303 326// 4//// 5//// 6//// 80020 ICE /////
BBXX DQXQ 20064 99376 11654 41597 63325 10120 20043 40110 51017 70322 86100 22224 00160 20504 329// 41006 80082
BBXX SBLI 20061 99300 11752 43/98 62310 10221 40161 53005 22264 00215 2//// 4////
BBXX SHIP 20064 99361 11684 41597 89940 10110 20090 40080 53050 78165 883// 22273 00170 20707 327// 40807 5//// 6//// 80100 ICE /////
BBXX SMGW 20061 99351 11593 43/98 22907 10134 40143 53002 22224 00199 20504 40705
BBXX VSJG7 20064 99533 11667 43/95 ///// 1//// 2//// 4//// 5//// 7//// 8//// 22211 0//// 2//// 3//// 4//// 5//// 6//// ICE /////
AAXX 20064 71916 46/// /2102 11387 21425 39993 40052 53015 6///1 333 11377 21409 7////
AAXX 20064 71525 16/// /2212 10018 21035 60001 333 10018 21082 70000 555 32026 40181
AAXX 20064 71535 16/// /2521 10052 21053 60001 333 10054 21069 70000 555 32533 40062
AAXX 20064 71536 16/// /2418 10035 21036 60001 333 10042 21074 70000 555 32532 40042
AAXX 20064 71445 16/// /2022 11042 21075 39743 40022 56051 60001 333 11042 21133 70000 555 31940 40043
AAXX 20064 71351 16/// /2505 10033 21017 60001 333 10040 21093 70004
AAXX 20064 71353 16/// /2317 10039 21034 60001 333 10056 21105 70004 555 32322 40061
AAXX 20064 71385 46/// /2922 11024 6///1 333 10003 21090 7//// 555 31933 40222
AAXX 20064 71257 17/// /2209 10035 21037 69961 7//4/ 333 10035 21149 70006
AAXX 20064 71258 16/// /2315 10044 21039 60001 333 10054 21127 70000 555 32321 40051
AAXX 20064 71259 16/// /2108 11037 21055 60001 333 11037 21177 70000
AAXX 20064 71274 16/// /2406 10005 21030 60001 333 7////
AAXX 20064 71275 46/// /2109 10006 21028 6///1 333 10021 21138 7//// 555 32024 40161
AAXX 20064 71278 16/// /2204 10021 21034 60001 333 10033 21126 70000 555 32224 40181
AAXX 20064 71286 16/// /2004 11001 21028 60001 333 10028 21144 70000 555 32419 40221
AAXX 20064 71287 16/// /2304 10013 21016 60001 333 10024 21116 70000 555 32217 40181
AAXX 20064 71289 16/// /2209 10034 21030 60001 333 10040 21132 70000 555 31922 40151
AAXX 20064 71464 46/// ///15 10026 39972 40187 51026 6///1 333 10069 20026 7////
AAXX 20064 71466 46/// ///// 10027 39977 40216 6///1 333 7////
AAXX 20064 71214 16/// /2104 11035 21062 60001 333 11001 21142 70004 555 32127 40191
AAXX 20064 71223 16/// /2212 11035 21064 60001 333 11021 21143 70004 555 32225 40181
AAXX 20064 71227 46/// /2109 11005 21032 6///1 333 10015 21139 7//// 555 32318 40211
AAXX 20064 71683 46/// /2802 11279 39905 40019 51008 6///1 333 11207 21290 7////
AAXX 20061 51711 11940 80702 11080 21098 38093 52017 69991 77070 8802/ 333 00903 21108
AAXX 20061 51730 32970 70203 11034 21086 40397 52017 80002 333 00851 21083
AAXX 20061 52112 32970 02902 11064 21169 40461 57010 333 00801 21138
AAXX 20061 52737 32780 82001 11004 21225 37041 57028 82507 333 00100 21138
AAXX 20061 52787 32980 73410 11024 21176 36993 57018 80002 333 00003 21143
AAXX 20061 53352 32980 22504 11067 21172 40365 57025 80002 333 21235
AAXX 20061 53593 32760 21401 11018 21114 40297 57032 82500 333 21133
AAXX 20061 53705 32965 00703 11017 21064 40307 57028 333 00002 21089
AAXX 20061 53863 31920 03201 10026 21046 40292 57035 71040 333 21066
AAXX 20061 53975 32964 71801 10028 21051 40277 57040 80002 333 21047
AAXX 20061 54273 32965 01101 11113 21179 40289 57030 333 21269
AAXX 20061 54324 32970 02002 11003 21206 40257 57035 333 21164
AAXX 20061 54405 32970 02908 10001 21167 40283 57033 333 21105
AAXX 20061 54436 32980 00903 10029 21167 40262 57040 333 21140
AAXX 20061 54808 32960 82901 10021 21044 40276 57033 8801/ 333 21042
AAXX 20061 54826 32965 82703 11026 21081 38477 57026 80007 333 21060
AAXX 20061 54836 31950 71101 10035 21038 40273 57034 70500 80002 333 21056
AAXX 20061 54863 31957 22503 10059 21084 40266 57028 70500 80002 333 21019
AAXX 20061 56018 32980 01401 11014 21263 36146 57041 333 00053 21191
AAXX 20061 56021 32580 10000 11025 21242 36036 57028 81100 333 00051 21218
AAXX 20061 57071 31930 02701 10044 21027 40270 57037 71000 333 21016
AAXX 20064 60679 36/// /2313 10037 21277 333 20012
AAXX 20064 60650 36/// /0917 10108 21035 333 20105
AAXX 20064 67002 11575 70404 10250 20235 30101 40135 69964 72996 8397/ 333 20238 58008 83920 85630 86460 92408
AAXX 20064 67009 32582 32812 10295 20246 39990 40108 51006 82902 333 02300 10310 20235 50324 55070 82820 81920 94978 95838 555 82075
AAXX 20064 67012 12582 52606 10300 20247 30099 40110 51011 60034 84232 333 0//19 10290 20225 50094 55/// 84820 555 81360 81075
AAXX 20064 67025 12580 10000 10317 20229 39989 40087 51005 60054 81800 333 0//// 10324 20234 50234 55/// 81820 555 81640
AAXX 20064 67027 32582 11810 10299 20203 30085 40106 52015 81232 333 02000 10310 20250 50374 55035 81820 555 81360 81073
AAXX 20064 67045 NIL
AAXX 20064 67072 12681 60208 10284 20229 30094 40097 51006 60104 86500 333 02509 10325 20271 50434 55/// 86640 92428
AAXX 20064 67073 11580 5//// 10282 20220 30081 40107 51014 60024 71500 85800 333 0//19 10317 20232 50//4 55/// 84820 555 82633
AAXX 20064 67083 32582 40000 10220 20146 38719 48494 51006 84200 333 0//00 20151 50484 55112 84820
AAXX 20064 67095 32480 50802 10302 20250 30079 40085 50010 83802 333 02200 10318 20225 50284 55/// 82817 83073 555 82633
AAXX 20064 67113 NIL
AAXX 20064 67117 NIL
AAXX 20064 67137 32480 1//04 10229 20144 38865 48472 51007 81202 333 0//00 10267 20145 50184 55/// 81817 555 81073
AAXX 20064 67143 32582 1//// 10/// 20/// 30084 40091 52008 81200 333 0//00 10/// 20/// 50//4 55/// 81820 92438
AAXX 20064 67152 32982 2//// 10220 20190 39162 48469 51006 82032 333 01400 10265 20147 50504 55/// 82360 555 81073
AAXX 20064 67157 11581 4//// 10/// 20/// 30086 40093 52016 60084 70162 84802 333 0//16 10/// 20/// 50//4 55/// 82820 84640 555 81073
AAXX 20064 67161 11565 60000 10242 20224 30072 40081 58002 60154 71562 86200 333 0//14 10308 20185 50504 55/// 86820
AAXX 20064 67197 11580 60000 10256 20197 30056 40066 51009 60044 70162 84870 333 01113 10223 20204 50174 55003 82820 83633 555 83460
AAXX 20063 42071 31695 61104 10160 20076 40178 70522 82430 333 59015 82640 84360
AAXX 20064 42027 31595 62501 10064 20006 38432 48519 70521 84410 333 59017
AAXX 20064 42101 31994 01402 10134 20086 40184 71000 333 59014
AAXX 20064 42111 31996 12302 10172 20083 39400 40174 70510 81030 333 59003 81360
AAXX 20064 42131 32996 01104 10180 20068 40167 333 59027
AAXX 20064 42165 31995 01801 10196 20042 40155 70500 333 59015
AAXX 20064 42182 31994 00506 10146 20091 40184 70441 333 59015
AAXX 20064 42260 31993 91103 10084 20084 40192 74344 89/// 333 59018
AAXX 20064 42328 31995 03204 10184 20047 40163 70500 333 59006
AAXX 20064 42339 31995 00000 10220 21003 40153 70500 333 59021
AAXX 20064 42348 31995 01804 10202 20027 40162 70500 333 59021
AAXX 20064 42361 31994 00000 10182 20117 40181 71044 333 59011
AAXX 20064 42369 31/93 99902 10094 20082 40201 74344 89/// 333 59001
AAXX 20064 42379 31/93 93202 10102 20073 40188 74344 89/// 333 58000
AAXX 20064 42452 31995 02302 10200 20065 40169 70500 333 59018
AAXX 20064 42475 31/93 00000 10110 20098 40194 74544 89/// 333 59004
AAXX 20064 42071 NIL
AAXX 20064 42189 NIL
AAXX 20064 40153 12960 01020 10107 21028 39138 48534 52001 60002 333 20096 70000
AAXX 20064 40179 12965 00904 10171 20035 30137 40174 52011 60002 333 20146 50431 55085 70000
AAXX 20064 40180 12960 03601 10170 20024 30128 40177 53012 60002 333 20158 70000
AAXX 20064 40190 16/// ///// 10155 20007 39848 40179 52009 60002 333 20142 70000
AAXX 20064 40199 12975 00305 10188 21008 30152 40175 52014 60002 222// 00226 333 20154 50451 55085 70000
AAXX 20060 44212 32999 70000 11285 21315 39349 40642 51000 8701/
AAXX 20060 44213 32999 70401 11273 21309 38958 40632 57004 87010
AAXX 20060 44215 32998 40000 11196 21229 38539 40538 54000 82042
AAXX 20060 44218 32998 03301 11219 21259 38760 40575 52003
AAXX 20060 44232 32999 62001 11172 21216 39161 40378 54002 86010
AAXX 20060 44239 32999 73406 11103 21177 38825 40298 50004 87070 333 91113 555 99807
AAXX 20060 44256 32699 82509 11117 21161 39307 40200 57026 8351/
AAXX 20060 44265 32999 00000 11159 21210 39018 40537 51005
AAXX 20060 44313 32999 02004 11153 21223 39385 40268 57021
AAXX 20060 44314 32998 42908 11156 21207 39113 40264 57021 82044
AAXX 20060 44347 31997 02710 11127 21199 38748 40353 57020 70900
AAXX 20061 38507 32998 30904 10012 21087 30256 40363 52008 80001 333 21035
AAXX 20061 21982 31995 23513 11184 21203 30096 40125 58001 73831 82030 333 11172 91116
AAXX 20060 44229 41997 82705 11166 21200 37975 40442 58013 77073 8802/
AAXX 20064 68513 16/// /1313 10179 20128 30015 40127 52006 69924 333 20132 91018 555 10236 20002 91012
AAXX 20064 68514 NIL
AAXX 20064 68523 36/// /2205 10219 20027 39097 48516 53004 333 20181 91008 555 10337 91016
AAXX 20064 68527 36/// /1803 10265 20120 39072 48525 52017 333 20221 91009 555 10361 91016
AAXX 20064 68572 11480 52002 10198 20135 38425 48533 52007 60044 70355 81650 333 20136 91004 555 10314 20042 91022
AAXX 20064 68575 16/// /1603 10170 20160 39127 48547 53007 60034 333 20162 91006 555 10321 20038 69925 91020
AAXX 20064 68581 36/// /0203 10227 20183 39397 48553 52003 333 20176 91007 555 10307 91018
AAXX 20064 68583 36/// /2003 10244 20184 30054 40163 53006 333 20213 91007 555 10283 91016
AAXX 20064 68589 16/// /0303 10166 20131 38283 48543 50000 60274 333 20126 91005 555 10314 20274 91024
AAXX 20064 68613 16/// /0000 10177 20126 30028 40144 55000 69924 333 20094 91003 555 10224 20002 91014
AAXX 20064 68647 36/// /1302 10159 20124 38935 48529 51005 333 20140 91004 555 10320 91019
AAXX 20064 68651 16/// /0303 10144 20126 38584 48545 51005 60164 333 20125 91012 555 10294 20166 91023
AAXX 20064 68715 36/// /1602 10213 20123 30006 40132 52002 333 20117 91003 555 10256 91013
AAXX 20064 68717 36/// /3605 10189 20115 39987 40130 54000 333 20129 91008 555 10272 91013
AAXX 20064 68723 36/// /0910 10210 20106 39393 48528 51000 333 20141 91015 555 10290 91015
AAXX 20064 68737 32875 11806 10193 20101 39244 48518 57006 81500 333 20156 91010 555 10349 91016
AAXX 20064 68744 16/// /3506 10181 20126 39110 48522 57003 69964 333 20125 91009 555 10346 20006 91017
AAXX 20064 68747 36/// /1406 10214 20129 39631 48551 58006 333 20169 91010 555 10266 91016
AAXX 20064 68754 16/// /0306 10167 20145 39161 48542 58001 60014 333 20135 91010 555 10246 20012 91020
AAXX 20064 68817 NIL
AAXX 20064 68821 36/// /1206 10192 20113 39901 40139 57001 333 20140 91010 555 10279 91014
AAXX 20064 68835 36/// /1802 10178 20100 30043 40157 58004 333 20123 91004 555 10246 91015
AAXX 20064 68843 36/// /1302 10192 20145 30063 40162 58004 333 20165 91004 555 10237 91016
AAXX 20064 68849 36/// /1309 10167 20132 39426 48532 57005 333 20137 91013 555 10208 91017
AAXX 20064 68912 32370 21511 10172 20133 30127 40136 52004 82500 333 20156 91014 555 10214 91013
AAXX 20064 68918 36/// /1206 10202 20146 30126 40144 58005 333 20170 91007 555 10224 91014
AAXX 20064 68921 36/// /0908 10211 20161 30146 40149 57006 333 20182 91010 555 10235 91014
AAXX 20064 68925 36/// /1603 10165 20121 39774 40138 58002 333 20120 91005 555 10215 91014
AAXX 20064 68926 32070 10704 10195 20133 39968 40146 57006 80000 333 20121 91006 555 10250 91014
AAXX 20064 68935 36/// /2702 10194 20138 30085 40148 57006 333 20122 91004 555 10204 91014
AAXX 20060 67421 11358 80000 10190 20177 38739 48523 60064 76066 8377/ 333 20181 5//// 55066 58004 70064 83706 85615 88458 555 10271 7//96
AAXX 20064 87436 31670 60904 10294 20056 39284 40013 52009 71322 86900 333 56800 57954 84640 82950
AAXX 20064 68514 NIL
AAXX 20064 68817 NIL
AAXX 20061 50548 32980 10000 11148 21212 40210 57025 80002 333 21293
AAXX 20061 50564 32970 22204 11135 21185 40213 57020 80002 333 21259
AAXX 20061 51334 11970 70201 11095 21133 40540 52001 69901 72277 80002 333 01000 21109
AAXX 20061 51818 11865 72903 11043 21063 40389 52015 69931 77077 875// 333 00951 21071
AAXX 20061 52378 32980 32703 11071 21207 40410 57004 80002 333 00301 21190
AAXX 20061 53487 31558 63202 11022 21117 40304 57030 70400 82102 333 21136
AAXX 20061 53502 32980 00402 11036 21156 40355 57016 333 00102 21183
AAXX 20061 53923 32980 81601 11011 21043 40283 57025 8807/ 333 21030
AAXX 20061 54049 32970 02205 11062 21195 40241 57026 333 21160
AAXX 20061 54115 32980 12507 11066 21217 40269 57021 80002 333 21151
AAXX 20061 54157 32968 02204 11055 21167 40259 57026 333 21178
AAXX 20061 54186 32965 00401 11079 21160 40276 57024 333 21244
AAXX 20061 54311 32980 03205 11056 21250 40292 57028 333 21212
AAXX 20061 54346 32965 02701 11009 21167 40263 57034 333 21148
AAXX 20061 54377 32970 00000 11031 21139 40279 57033 333 21165
AAXX 20061 54386 32970 00000 11079 21178 40287 57032 333 21239
AAXX 20061 54493 32974 02202 11011 21150 40274 57029 333 21162
AAXX 20061 54587 NIL
AAXX 20061 54715 31915 80000 10026 21031 40271 57036 71000 80007 333 21042
AAXX 20061 54929 31958 70701 10061 21015 40271 57031 70500 80002 333 21037
AAXX 20061 54945 32960 81801 10068 21004 40270 57029 8801/ 333 21002
AAXX 20061 56065 32680 70701 11019 21143 36587 57032 81108 333 00101 21179
AAXX 20061 57193 31956 60401 10054 21027 40273 57036 70500 86040 333 21009
AAXX 20061 57290 32960 72901 10064 21027 40274 57034 8703/ 333 21005
AAXX 20064 41858 31420 72707 10150 20130 30122 40170 71040 85520 333 56690 58007 70000 85612 87458
AAXX 20064 41863 31940 02702 10145 20130 30123 40169 70540 333 58003 70000
AAXX 20064 41886 31420 80000 10165 20150 30136 40158 71042 8352/ 333 56999 59009 70000 83618 88460
AAXX 20064 41895 31440 80503 10135 20120 30147 40170 70542 8351/ 333 56199 58004 70000 83614 88457
AAXX 20064 41909 31418 83201 10160 20140 30147 40159 71042 8152/ 333 56999 58003 70000 81615 88458
AAXX 20064 41915 31000 70502 10170 20130 30131 40157 70544 87600 333 56900 59014 70000 85708 86615
AAXX 20064 41926 31950 03602 10140 20120 30151 40165 70540 333 59005 70000
AAXX 20064 41929 31/30 93601 10160 20140 30152 40162 71040 89/// 333 59001 70000
AAXX 20064 41933 31920 03602 10166 20140 30145 40154 71000 333 59011 70000
AAXX 20064 41941 31440 63604 10182 20140 30147 40153 70522 84520 333 56990 59007 70000 84614 86460
AAXX 20064 41946 31950 03602 10172 20140 30159 40164 70540 333 58002 70000
AAXX 20064 41947 31920 03601 10155 20150 30158 40160 71044 333 59007 70000
AAXX 20064 41951 32958 03502 10195 20140 30149 40154 333 59010 70000
AAXX 20064 41953 31320 83104 10156 20140 30146 40152 71022 886// 333 56999 59003 70000 88706
AAXX 20064 41958 31940 00000 10185 20160 30147 40149 70500 333 59006 70000
AAXX 20064 41960 31950 03302 10210 20130 30150 40152 70522 333 59007 70000
AAXX 20064 41963 31425 83602 10169 20140 30144 40147 70540 8452/ 333 56999 59016 70000 84618 88458
AAXX 20064 41964 31/09 93602 10164 20140 30163 40166 74344 89/// 333 59004 70000
AAXX 20064 41984 32958 03606 10203 20120 30147 40149 333 59009 70000
AAXX 20064 41998 32956 02903 10257 20160 30127 40133 333 59002 70000
BBXX BAREU06 20064 99494 70657 46/// ///// 49990 52002 22224
BBXX 46208 20061 99525 71327 46/// /2715 10079 40148 52035 22200 00077 11315 70074 333 91220
BBXX BAREU12 20064 99573 10082 46/// ///// 40002 57007 22253
BBXX BAREU12 20064 99573 10082 46/// ///// 40002 57007 22253
AAXX 20061 01212 16/// /2207 10038 20015 39985 40001 53002 60004 333 20019 70000 91113
BBXX BAREU06 20064 99494 70657 46/// ///// 49990 52002 22224
BBXX 46208 20061 99525 71327 46/// /2715 10079 40148 52035 22200 00077 11315 70074 333 91220
BBXX 46206 20061 99488 71260 46/// /2304 10092 40269 52004 22200 00090 11206 70031 333 91205
AAXX 20064 68174 31570 50408 10184 20126 38821 48543 52011 70511 85500 333 20155 91012 555 10306 91021
AAXX 20064 68191 36/// /1704 10227 20168 39681 48579 52010 333 20205 91008 555 10340 91019
AAXX 20064 68242 32880 40517 10254 20117 38734 48519 53010 84070 333 20220 91022 555 10336 91018
AAXX 20064 68262 36/// /0804 10228 20147 38732 48542 52011 333 20209 91010 555 10334 91021
AAXX 20064 68263 32880 50913 10201 20141 38513 48539 52007 85070 333 20180 91019 555 10310 91023
AAXX 20064 68267 NIL
AAXX 20064 68289 36/// /0103 10203 20133 39192 48562 52007 333 20169 91021 555 10268 91021
AAXX 20064 68350 36/// /0911 10248 20153 38690 48544 52007 333 20190 91015 555 10364 91022
AAXX 20064 68368 42970 41012 10196 20136 38351 48547 51008 84080 333 20172 555 10299 91025
AAXX 20064 68403 36/// /2009 10163 20134 30122 40155 53004 333 20138 91012 555 10244 91015
AAXX 20064 68424 31875 32002 10303 20059 39184 48530 52013 70500 82072 333 20229 91005 555 10392 91014
AAXX 20064 68438 12882 60315 10235 20129 38823 48521 50000 69924 85082 333 20202 91021 555 10340 20002 91018
AAXX 20064 68442 12882 40210 10218 20140 38681 48535 53003 69984 84070 333 20169 91015 555 10329 20008 91021
AAXX 20064 68461 12480 40407 10188 20143 38355 48540 52007 69964 81572 333 20149 91010 555 10308 20006 91024
AAXX 20064 68512 32882 31505 10207 20067 39004 48505 52006 83080 333 20173 91008 555 10288 91015
AAXX 20064 68538 31764 50310 10249 20136 38722 48511 53004 71522 82973 333 20172 91019 555 10346 91018
AAXX 20064 68587 NIL
AAXX 20064 68588 16/// /2104 10237 20170 30158 40174 53000 60014 333 20202 91006 555 10299 20012 91017
AAXX 20064 68591 36/// /2009 10251 20186 39994 40171 52006 333 20219 91014 555 10276 91017
AAXX 20064 68592 NIL
AAXX 20064 68618 32780 10504 10218 20045 39041 48514 53003 81180 333 20102 91006 555 10294 91016
AAXX 20064 68633 36/// /0210 10228 20123 38517 48512 53002 333 20156 91018 555 10319 91019
AAXX 20064 68668 12360 81006 10178 20154 39322 48543 51001 69984 846// 333 20157 91009 555 10337 20008 91019
AAXX 20064 68714 36/// /0000 10193 20114 30094 40130 52003 333 20133 91002 555 10240 91013
AAXX 20064 68727 36/// /0802 10176 20088 39122 48506 52004 333 20141 91005 555 10318 91015
AAXX 20064 68752 36/// /0613 10191 20152 39486 48543 57006 333 20164 91016 555 10248 91017
AAXX 20064 68816 32975 02305 10198 20125 30076 40130 53003 333 20131 91010 555 10230 91013
AAXX 20064 68828 32970 01110 10186 20138 39915 40146 57007 333 20108 555 10203 91014
AAXX 20064 68842 32570 60503 10197 20125 30093 40163 58006 86500 333 10158 555 10238 91016
AAXX 20064 68858 11350 80203 10181 20163 30018 40174 54000 69904 75362 885// 333 20172 555 10253 20000 91017
AAXX 20064 68906 12698 42210 10102 20071 30065 40130 53007 60044 84502 222// 00119 333 20102 91019 555 10171 20042 91012
AAXX 20064 68994 12498 2//// 10128 20050 30037 40065 52046 60144 81540 222// 00074 304// 40803 333 20086 555 10129 20142 91006
AAXX 20064 89004 31780 11124 11099 21132 38837 49857 5//// 73600 81031 333 2//// 555 1////
AAXX 20064 67771 32980 50603 10213 20159 3//// 48/// 81501 333 20169 5//// 81650 85080
BBXX 46206 20061 99488 71260 46/// /2304 10092 40269 52004 22200 00090 11206 70031 333 91205
AAXX 20064 63733 32580 70000 10210 20174 38877 48509 81930 333 20194 50261 55081 55300 59001 81920 87359
AAXX 20064 63756 12480 70310 10226 20203 38881 48518 69954 81931 333 0//19 20175 50351 55057 59005 81819 81920 85360
AAXX 20064 63791 12580 30308 10270 20157 39135 48525 60064 81201 333 0//19 20204 50501 55100 55310 59004 81829 83076
AAXX 20064 63832 32580 40000 10215 20193 38837 48506 81131 333 20192 51051 55105 55300 58002 81820 83072 91019
AAXX 20064 63870 11465 82905 10250 20243 30111 40129 69924 76196 8593/ 333 0//51 20250 50571 55111 55300 58015 85824 81916 88358
AAXX 20064 63881 12480 52902 10195 20137 38213 48/// 60014 81530 333 0//11 20143 50271 55058 55310 58005 81618 83356
AAXX 20064 63887 31480 80000 10192 20174 38602 48525 70352 8587/ 333 20182 50401 55063 55300 58000 85617 87358
AAXX 20064 63894 01460 50000 10225 20225 30077 40137 60604 79597 8594/ 333 0//11 20220 50181 55098 55300 58013 85818 81919 87457
AAXX 20064 63932 12580 80000 10190 20167 38321 48518 60054 8493/ 333 0//29 50321 55034 55300 58000 84821 81923 86359
AAXX 20064 63962 13580 60000 10223 20193 38965 48524 60254 85970 333 0//94 20185 50431 55046 55300 58012 85820 81922 84458
AAXX 20064 63971 12580 42310 10275 20231 39993 40121 60224 82932 333 0//29 20225 50371 55005 55310 58012 82823 81924 83358
AAXX 20064 63729 NIL
AAXX 20064 63801 NIL
AAXX 20064 63862 NIL
AAXX 20064 63866 NIL
BBXX MINUK05 2006/ 99604 70044 46/// ///// 10058 40008 52012
BBXX FLAO 2006/ 99764 70847 46/// ///// 11180 40000 52008
BBXX MINUK03 2006/ 99546 70005 46/// ///// 10068 49995 57021
BBXX MINUK01 2006/ 99598 70012 46/// ///// 10068 49981 52013
BBXX MINUK04 2006/ 99531 10030 46/// ///// 10083 4//// 57004
BBXX MINFR05 2006/ 99339 70134 46/// ///// 10155 40286 57009
AAXX 20061 50658 31956 01102 11153 21184 40231 57018 70400 333 21278
AAXX 20061 50888 32970 61103 11089 21163 40252 57007 80002 333 21178
AAXX 20061 50983 32970 22201 11103 21176 40267 57008 82032 333 21221
AAXX 20061 51053 32975 01101 11223 21271 40597 52004 333 01153 21275
AAXX 20061 51542 11868 80000 11138 21174 37628 52007 69961 77077 8802/ 333 01051 21205
AAXX 20061 52436 32980 60906 11086 21169 38544 40398 57001 81032 333 00553 21151
AAXX 20061 52908 32980 22707 11039 21301 35719 57017 80002 333 00001 21198
AAXX 20061 52996 31470 71601 11054 21055 37546 57021 70040 875// 333 00001 21078
AAXX 20061 53083 32980 02002 11222 21257 40390 57018 333 05451 21316
AAXX 20061 53764 32968 31803 10005 21073 40297 57027 80002 333 21044
AAXX 20061 53787 32962 63402 10022 21100 40272 57035 80002 333 21073
AAXX 20061 54096 32970 02703 11092 21170 40266 57011 333 21169
AAXX 20061 54226 32980 02704 11018 21243 40261 57027 333 21185
AAXX 20061 54259 32980 02704 11042 21170 40271 57033 333 21215
AAXX 20061 54527 31957 02902 10039 21139 40272 57037 70500 333 21054
AAXX 20061 54534 32965 02703 10027 21131 40265 57035 333 21120
AAXX 20064 68267 NIL
AAXX 20064 68587 NIL
AAXX 20064 68592 NIL
AAXX 20064 61017 32960 50416 10164 21028 39745 40159 80002 333 05300 20041 50444 55098 58010 85080
AAXX 20064 61024 32960 31004 10110 21051 39574 40150 80002 333 00800 20108 50881 55/// 58010 83080
AAXX 20064 61036 32965 70402 10192 21019 39880 40119 81038 333 01700 20190 50821 50754 55100 59001 81365 87280
AAXX 20064 61043 32960 70606 10148 21058 39683 40125 81036 333 0//00 20148 50901 5///4 55105 58008 81364 87280
AAXX 20064 61045 32965 70000 10130 21030 39643 40148 80008 333 00800 20130 5//// 5/624 55105 58010 87280
AAXX 20064 61049 32960 70000 10126 21021 39813 40139 80008 333 00800 20114 50601 50474 55105 58009 87280
AAXX 20064 61052 32960 23606 10160 21002 39871 40129 80002 333 01300 20156 50771 55101 58008 82080
AAXX 20064 61075 32960 70000 10162 21009 39816 40127 82048 333 01200 20155 50751 50564 55101 58013 82365 86280
AAXX 20064 61080 32960 71006 10150 21035 39713 40134 80008 333 01300 20148 50841 50794 55093 58013 87280
AAXX 20064 61090 32962 70000 10130 21008 39625 40142 80008 333 00900 20125 50761 50614 55101 58010 87280
AAXX 20064 61091 32965 50000 10094 20033 39689 40153 80002 333 00700 20090 50491 50414 55098 58005 85080
AAXX 20064 61096 32965 73602 10136 21026 39761 40149 80008 333 01200 20134 51011 50664 55100 58011 87280
AAXX 20064 61099 32960 70000 10200 20048 39881 40110 87052 333 01500 20193 50701 55092 58006 87364
BBXX 46205 20061 99542 71343 46/// /3015 10070 40086 52081 22200 00078 11416 70079 333 91219
BBXX 46132 20061 99497 71279 46/// /2305 10095 40257 52017 22200 00092 11110 70051 333 91206
AAXX 20064 42559 32996 41402 10244 20097 40149 80002 333 59010 84075
AAXX 20064 42571 31996 30000 10196 20054 40171 70500 80002 333 59010
AAXX 20064 42667 31996 41608 10234 20115 39572 40158 70500 80001 333 59010 84075
AAXX 20064 42779 32996 00000 10220 20028 39463 40162 333 59004
AAXX 20064 42867 31995 30905 10248 20095 40158 70500 80001 333 59004 83075
AAXX 20064 42874 32996 10202 10244 20084 40160 80001 333 59001 81075
AAXX 20064 42933 32997 31403 10274 20094 40155 80001 333 59007 83075
AAXX 20064 43041 31995 20502 10246 20081 39539 40153 70540 80001 333 59003 82075
AAXX 20064 42675 NIL
AAXX 20064 42754 NIL
BBXX 46205 20061 99542 71343 46/// /3015 10070 40086 52081 22200 00078 11416 70079 333 91219
BBXX 46132 20061 99497 71279 46/// /2305 10095 40257 52017 22200 00092 11110 70051 333 91206
AAXX 20061 80022 31463 41301 10256 20233 30088 40090 70510 81431 333 56399 59013 81615 83070
AAXX 20061 80028 31960 03502 10269 20214 30074 40109 70500 333 59007
AAXX 20061 80112 01364 80000 10140 20133 37902 69941 70552 8477/ 333 5699/ 59002 69947 84708 86358
AAXX 20061 80222 31465 70303 10130 20107 37517 71522 83555 333 56999 58002 83617 84357
AAXX 20061 80259 31559 80000 10200 20190 39058 70552 8267/ 333 5629/ 59004 82620 87459
AAXX 20061 40650 12960 03303 10082 20035 40258 52013 60002
AAXX 20061 40604 12960 20000 10088 21033 40260 53001 60002= 80001
AAXX 20061 40608 11956 00000 10034 20013 40265 52010 60002 71000
AAXX 20061 40621 12960 00602 10094 20005 40275 52005 60002
AAXX 20061 40629 12960 02402 10024 20008 40284 53004 60002
AAXX 20061 40631 12960 00000 10068 20010 40263 53008 60002
AAXX 20061 40634 12960 02702 10040 21004 40275 52015 60002
AAXX 20061 40637 12960 00000 10105 20070 40250 54000 60002
AAXX 20061 40642 12960 00000 10034 21005 40299 52003 60002
AAXX 20061 40656 12960 02903 10070 20034 40240 52009 60002
AAXX 20061 40665 12960 03002 10085 20036 40257 52016 60002
AAXX 20061 40670 12960 03603 10100 20045 40252 53011 60002
AAXX 20061 40674 12960 03505 10090 20024 40257 52016 60002
AAXX 20061 40676 12960 02604 10082 20012 40255 52017 60002
AAXX 20061 40680 12960 03201 10075 20003 40232 52015 60002
AAXX 20061 40689 12960 03004 10082 20030 40253 52017 60002
AAXX 20061 40691 12960 02102 10104 20031 40266 52016 60002
AAXX 20064 88900 46/// /0616 10052 20044 30070 40073 58002 333 55009
BBXX MZFC6 20063 99085 10716 41297 73604 10315 20255 40120 51039 70122 85618 22264 04289 20101 309// 40302 5//// 80272
BBXX A8PK8 20063 99094 10722 41397 60312 10298 20220 40116 54000 70222 83720 22224 04299 20401 300// 4//// 5//// 80245
BBXX S6OM 20064 99176 11196 41997 00325 10170 20144 40125 57021 7//// 80000 22243 00273 29901 304// 40605 5//// 80155
AAXX 20064 89020 46/// /2506 11059 21069 39855 49890 57021 90550
BBXX LAVN4 20064 99386 50530 41697 82212 10171 2015/ 40068 51004 70203 8872/ 22213 00100 20401 309// 40903 NNNN
BBXX AMOUK20 20064 99229 50431 46/// ///// 10240 20227 30102 40116 57010 90550
BBXX ZDLP 20063 99596 50433 41298 43413 10018 20004 40025 53006 70222 8116/ 22223 04005 20101 336// 40302 5//// 80013
BBXX VQKZ6 20063 99041 50816 41398 31915 10200 20184 40106 54000 70111 8114/ 22244 02210 20403 319// 40504 5//// 80190
BBXX 62141 20063 99493 50591 41/92 /3517 10102 40022 57004 74622 8//// 22200 20604 33535 40402 50604
BBXX AMOUK17 20064 99340 30261 46/// ///// 10189 20174 30156 40159 54000 90550
BBXX AMOUK15 20064 99097 50126 46/// ///// 10229 20177 30118 40137 57005 90550
BBXX ZDLS1 20063 99578 30048 41195 81913 11018 21020 49648 52005 72672 886// 22233 05019 20402 33421 40506 50503 82018
BBXX A8AX3 20063 99254 70172 41/98 40617 10205 40191 58008 70100 8//// 22244 20503
BBXX ZCDF4 20063 99321 71175 41/98 72806 10126 20111 40177 55001 70222 86/// 22284 00150 20000 333// 40803 5//// 80118
BBXX PBHZ 20063 99298 70720 41597 50412 10202 20111 40260 57014 70211 854// 22223 04266 20301 303// 40703 80148
BBXX VREX7 20063 99236 70910 41298 41221 10230 20215 40160 55010 70200 84408 22264 04230 20000 30708 40301 50301 80220
AAXX 20064 68155 36/// /0706 10256 20119 39216 48554 52017 333 20208 91015 555 10347 91018
AAXX 20064 68171 NIL
AAXX 20064 68176 36/// /0703 10199 20141 39174 48555 52017 333 20169 91008 555 10350 91020
AAXX 20064 68181 NIL
AAXX 20064 68182 36/// /0602 10200 20163 39381 48563 52013 333 20174 91007 555 10312 91020
AAXX 20064 68185 36/// /1202 10205 20128 38467 48399 55000 333 20140 91005 555 10283 91006
AAXX 20064 68253 36/// /1004 10272 20115 39067 48550 53014 333 20234 91010 555 10348 91019
AAXX 20064 68255 36/// /0905 10252 20129 38880 48534 52011 333 20238 91011 555 10341 91019
AAXX 20064 68271 36/// /3605 10227 20122 38938 48545 52008 333 20201 91010 555 10332 91020
AAXX 20064 68273 16/// /1112 10195 20130 38488 48542 52005 60014 333 20171 91016 555 10311 20010 91023
AAXX 20064 68287 36/// /2603 10149 20120 38613 48547 52001 333 20123 91006 555 10237 91023
AAXX 20064 68291 NIL
AAXX 20064 68297 NIL
AAXX 20064 68329 36/// /0505 10280 20105 39085 48530 53006 333 20212 91011 555 10396 91016
AAXX 20064 68331 36/// /3605 10262 20106 38833 48524 53003 333 20180 91008 555 10363 91018
AAXX 20064 68335 36/// /0206 10264 20126 38939 48555 52010 333 20213 91010 555 10371 91021
AAXX 20064 68341 16/// /0508 10239 20120 38551 48537 53007 60014 333 20201 91017 555 10326 20014 91022
AAXX 20064 68342 NIL
AAXX 20064 68343 36/// ///// 10240 20148 38796 48524 52003 333 20192 555 10347 91019
AAXX 20064 68349 36/// /0412 10239 20124 38527 48521 53003 333 20186 91020 555 10328 91020
AAXX 20064 68353 16/// /0608 10213 20143 38548 48527 52008 69964 333 20183 91012 555 10318 20006 91021
AAXX 20064 68355 16/// /0615 10221 20143 38603 48538 53006 60014 333 20183 91020 555 10340 20016 91022
AAXX 20064 68370 NIL
AAXX 20064 68377 36/// /0604 10216 20159 38788 48529 51000 333 20193 91006 555 10365 91020
AAXX 20064 68380 36/// /2704 10187 20113 3//// 4//// 5//// 333 20134 91010 555 10332
AAXX 20064 68387 36/// /2612 10216 20174 38886 48548 51002 333 20186 91023 555 10315 91021
AAXX 20064 68411 36/// /0602 10270 20087 39912 40114 53005 333 20237 91003 555 10384 91012
AAXX 20064 68429 36/// /0000 10258 20102 38686 48511 52011 333 20196 91005 555 10348 91018
AAXX 20064 68449 36/// /0104 10201 20134 38412 48524 51003 333 20162 91005 555 10322 91021
AAXX 20064 68471 36/// /0104 10174 20131 38352 48531 51001 333 20145 91007 555 10300 91022
AAXX 20064 68474 11458 80000 10169 20134 38654 48544 57005 60044 70266 8/100 333 20147 91002 555 10325 20048 91023
AAXX 20064 68479 36/// /0303 10229 20156 38977 48545 50000 333 20192 91010 555 10353 91020
AAXX 20064 68481 36/// /0902 10246 20179 39805 40169 58002 333 20191 91005 555 10317 91018
AAXX 20064 68487 36/// /0503 10205 20157 39022 48545 58000 333 20173 91006 555 10322 91020
AAXX 20064 68491 36/// /1003 10260 20208 30153 40162 58002 333 20192 91006 555 10310 91016
AAXX 20064 68497 36/// /0000 10263 20185 30123 40166 57003 333 20215 91003 555 10326 91016
BBXX HZDD 20063 99042 11118 41498 51610 10292 20247 40059 50012 70322 83942 22264 04280 20205 33199 40205 5//// 80260
AAXX 20064 68183 32578 70705 10208 20160 39482 48569 52009 87500 333 20193 91009 555 10306 91020
AAXX 20064 68188 NIL
AAXX 20064 68268 36/// /0406 10249 20126 38910 48556 52007 333 20203 91011 555 10352 91021
AAXX 20064 68272 NIL
AAXX 20064 68296 31460 82504 10240 20240 38919 4//// 58001 75022 886// 333 20482 91006 555 10335
AAXX 20064 68322 32982 03504 10302 20064 39130 48523 52007 333 20185 91007 555 10403 91014
AAXX 20064 68338 32578 50308 10250 20117 38781 48519 52007 85900 333 20163 91011 555 10346 91018
AAXX 20064 68345 36/// /0416 10234 20155 38693 48538 52005 333 20199 91021 555 10347 91021
AAXX 20064 68362 31680 20608 10210 20135 38535 48538 51002 70199 81150 333 20174 91014 555 10342 91022
AAXX 20064 68400 32280 40704 10270 20192 30087 40159 58000 82505 333 20185 91007 555 10352 91016
AAXX 20064 68408 32580 61307 10150 20130 30132 40140 53005 86200 333 20123 91010 555 10215 91014
AAXX 20064 68416 32684 41107 10261 20030 39018 48504 57005 84200 333 20209 91012 555 10342 91014
AAXX 20064 68478 12470 83002 10199 20165 38903 48543 58001 69944 885// 333 20167 91004 555 10346 20004 91021
AAXX 20064 68488 36/// /1003 10228 20166 39296 48555 58005 333 20182 91007 555 10293 91019
AAXX 20064 68494 36/// /2102 10242 20187 30032 40161 54000 333 20210 91003 555 10334 91016
AAXX 20064 68524 32986 50705 10271 20088 39049 48517 52010 85070 333 20203 91007 555 10365 91015
AAXX 20064 68546 16/// /0803 10240 20134 38675 48524 52007 60104 333 20152 91008 555 10330 20100 91020
AAXX 20064 68558 16/// /3605 10211 20110 38213 48523 52003 60134 333 20121 91011 555 10282 20136 91023
AAXX 20064 68570 11370 41005 10209 20129 38531 48524 50000 60064 70199 84110 333 20143 91010 555 10317 20068 91021
AAXX 20064 68580 36/// /0302 10201 20151 38977 48543 52004 333 20140 91006 555 10292 91020
AAXX 20064 68614 36/// /3602 10187 20118 30094 40135 52003 333 20113 91003 555 10281 91013
AAXX 20064 68624 32882 20703 10210 20100 38742 48516 53001 82200 333 20134 91006 555 10335 91018
AAXX 20064 68674 16/// /3602 10233 20208 30140 48595 51010 69964 333 20187 91005 555 10258 20006 91017
AAXX 20064 68712 12970 02009 10164 20139 30066 40131 52006 69924 333 20134 91011 555 10210 20002 91013
AAXX 20064 68718 36/// /2202 10203 20123 39901 40145 57005 333 20128 91005 555 10287 91015
AAXX 20064 68722 32980 03004 10197 20085 38548 48506 50000 333 20067 91010 555 10280 91018
AAXX 20064 68814 16/// /2304 1//// 2//// 30133 4//// 53001 69924 333 2//// 91006 555 1//// 20002 91014
AAXX 20064 68832 36/// /0609 10168 20072 39195 48514 50000 333 20140 91014 555 10273 91016
AAXX 20064 68916 32370 11011 10165 20140 39874 40142 53005 81200 333 20154 91027 555 10216 91014
AAXX 20064 68920 12470 10805 10212 20156 30138 40150 57005 69924 81800 333 20184 91010 555 10224 20002 91015
AAXX 20064 68928 36/// /0503 10207 20151 39995 40154 57001 333 20149 91006 555 10238 91015
BBXX 44063 20061 99390 70764 46/// /0000 1//// 90610 333 91203
BBXX 44063 20061 99390 70764 46/// /0000 10091 40194 55000 90600 22200 00074 333 91203
BBXX 44041 20061 99372 70768 46/// /2704 10093 90600 22200 00085 333 91206
AAXX 20061 31825 NIL
AAXX 20061 31845 42999 02501 11127 21199 30088 40261 57013
AAXX 20061 31878 42998 02201 11109 21186 30139 40269 56011
AAXX 20061 31915 42699 12803 11053 21164 39976 40248 56018 81100
AAXX 20061 31921 42698 11503 11080 21167 30157 40260 56013 81500
AAXX 20061 31969 42998 03004 11031 21141 30206 40257 57025
AAXX 20061 31981 42999 02201 11085 21183 30015 40259 56020
AAXX 20061 31987 42999 00202 11082 21197 39988 40258 56018
AAXX 20061 32069 42598 81102 11116 21136 30190 40195 53005 8597/ 333 91003 91105
AAXX 20061 30455 41696 83105 11159 21193 38817 48376 52008 78582 889//
AAXX 20061 30731 41597 83204 11113 21157 39633 40266 52017 78583 8495/
AAXX 20061 30739 41696 82504 11123 21158 39393 40241 53004 77073 8247/
AAXX 20061 30741 41996 82909 11170 21189 38642 48425 53016 73873 80006
AAXX 20061 30745 41998 62507 11180 21206 39018 40230 54000 73632 83032
AAXX 20061 30764 42999 82404 11118 21171 39335 40151 57012 82041
AAXX 20061 30829 41561 80000 11186 21212 39599 40338 57002 78582 84302
AAXX 20061 30838 41597 72307 11179 21198 39262 40306 57005 78583 85940
AAXX 20061 30846 41699 42607 11116 21188 39276 40213 57007 73633 81503
AAXX 20061 30859 42699 82804 11113 21175 39325 40185 57006 81541
AAXX 20061 30862 42699 32406 11131 21192 39398 40159 57022 81132
AAXX 20061 30957 42699 73009 11105 21178 39288 40207 57021 82232
AAXX 20061 30975 42899 61403 11229 21269 39534 40233 58028 83031
AAXX 20061 30499 41978 80701 11262 21274 39501 40216 57008 77172 8802/
AAXX 20061 30683 41997 80000 11210 21229 39495 40186 57013 77172 8802/
AAXX 20061 30695 42999 83401 11218 21250 39833 40193 57020 80001
AAXX 20061 31253 42999 80000 11273 21312 39737 40240 57005 86031
AAXX 20061 31295 42999 80504 11224 21256 39724 40214 57012 80006
AAXX 20061 31348 42999 00000 11225 21250 30004 40214 57007
AAXX 20061 31418 42999 00201 11235 21268 39939 40215 56001
AAXX 20061 31439 42999 01602 11204 21229 30162 40210 54000
AAXX 20061 31442 42999 61303 11172 21222 39827 40201 57017 86030
AAXX 20061 31445 42999 01001 11198 21239 39935 40207 57021
AAXX 20061 31474 42999 00000 11239 21304 39744 40269 57009
AAXX 20061 31521 32982 21304 11197 21230 39911 40223 57017 80001
AAXX 20061 31527 42998 21403 11192 21225 39897 40220 57019 80001
AAXX 20061 31534 42999 00000 11216 21256 39878 40250 57027
AAXX 20061 31587 42999 81202 11171 21213 30063 40217 57022 80009
AAXX 20061 31632 NIL
AAXX 20061 31702 42998 80000 11147 21228 39882 40236 58018 86017
AAXX 20061 31713 42999 20000 11141 21202 30132 40236 57009 82030
AAXX 20061 31725 42998 02502 11142 21193 30169 40240 57006
AAXX 20061 31801 42998 00000 11148 21218 30007 40248 57012
AAXX 20064 17260 12970 02703 10013 20008 39432 40277 52010 60002 333 21014 34104 50054 55078 21172
BBXX 42085 20061 99179 70665 46/// /0405 10254 40162 90610 333 91207
BBXX 44058 20061 99376 70763 46/// /2508 1//// 90610 333 91211
BBXX 44058 20061 99376 70763 46/// /2509 10107 40185 58011 90600 22200 00087 10201 70005 333 91211
BBXX 44029 20061 99425 70706 46/30 /2411 10076 40098 51004 90604 22200 00088 333 91213 555 11132 22140
BBXX 44040 20061 99410 70736 46/// /2708 10086 20019 40154 90615 22200 10301 70004 333 91209 555 11093 22113
BBXX 46092 20061 99368 71220 46/// /3502 10113 40187 51011 90557 22200 00124 555 11015 22015
AAXX 20061 80022 31463 41301 10256 20233 30088 40090 70510 81431 333 56399 59013 81615 83070
AAXX 20061 80028 31960 03502 10269 20214 30074 40109 70500 333 59007
AAXX 20061 80112 01364 80000 10140 20133 37902 69941 70552 8477/ 333 5699/ 59002 69947 84708 86358
AAXX 20061 80222 31465 70303 10130 20107 37517 71522 83555 333 56999 58002 83617 84357
AAXX 20061 80259 31559 80000 10200 20190 39058 70552 8267/ 333 5629/ 59004 82620 87459
BBXX 46181 20061 99538 71288 46/// /2010 10076 40112 52023 22200 00065 10301 70005 333 91212
AAXX 20061 26730 31650 11502 11040 21045 39979 40179 54000 71000 81500 333 21041 91003 91105 555 53014 7990/
AAXX 20064 16684 12460 32007 10112 20079 30056 40085 56009 60032 82141 333 20108 31/// 55003 70195 90730 91115 555 10000 30130 20000 89081 99093 40000 47571 44190 50000 50096 60000 60027 61200
BBXX 46181 20061 99538 71288 46/// /2010 10076 40112 52023 22200 00065 10301 70005 333 91212
AAXX 20064 68171 NIL
AAXX 20064 68181 NIL
AAXX 20064 68291 NIL
AAXX 20064 68297 NIL
AAXX 20064 68342 NIL
AAXX 20064 68370 NIL
BBXX 46184 20061 99539 71389 46/// /2714 10059 40162 52076 22200 00065 11413 70065 333 91217
AAXX 20064 42737 32996 20203 10240 20093 40161 80001 333 59006 82070
AAXX 20064 42921 31996 20903 10246 20096 40180 70142 80001 333 59009 82075
AAXX 20064 43003 31995 20000 10304 20139 40134 70400 80001 333 59013 82075
AAXX 20064 43014 31996 30906 10256 20118 39498 40139 70540 80001 333 59009 83075
AAXX 20064 43063 32996 30903 10256 20105 39516 40135 80001 333 59009 83070
AAXX 20064 43117 32997 51802 10272 20152 40135 80005 333 59009
AAXX 20064 43192 31996 60705 10300 20150 40124 70522 80032 333 59009
AAXX 20064 42634 NIL
AAXX 20064 42647 NIL
AAXX 20064 42840 NIL
AAXX 20064 42909 NIL
AAXX 20064 43110 NIL
BBXX 46184 20061 99539 71389 46/// /2714 10059 40162 52076 22200 00065 11413 70065 333 91217
AAXX 20061 38847 42899 70000 11040 21123 40487 52019 81576
AAXX 20064 91723 NIL
AAXX 20064 91759 11598 40905 10274 20230 40097 53012 60001 70522 82101 333 82822 83078
AAXX 20064 91762 11598 50909 10287 20240 40094 53007 60001 70500 82203 333 82820 83078
AAXX 20064 68188 NIL
AAXX 20064 87828 32980 00000 10158 20060 39989 40039 50000
AAXX 20061 31913 43/// /3101 11073 21173 30135 40257 56013
AAXX 20061 32128 42599 60201 11053 21094 30138 40191 51008 86800 333 91004 91106
AAXX 20061 24856 41996 23301 11416 21443 30044 40225 52002 71040 80001
AAXX 20061 30679 NIL
AAXX 20061 30686 42999 80000 11243 21268 39793 40195 57022 8807/
AAXX 20061 30961 42899 81304 11191 21197 39375 40210 57026 8801/
AAXX 20061 30971 42999 72902 11143 21186 39159 40178 57024 80008
AAXX 20061 30978 42999 42405 11219 21252 39500 40233 58024 80001
AAXX 20061 31513 42999 21403 11166 21192 39966 40204 57018 80001
AAXX 20061 31624 NIL
AAXX 20061 31832 42998 01202 11144 21195 30169 40260 57008
AAXX 20061 14244 12470 30000 11007 21017 30044 40178 50000 60012 82570 333 21007 3/104 43003 70103 93197
AAXX 20064 60421 11560 42710 10014 21002 39195 48523 54000 69924 700// 84200 333 05400 21005 84830 95900
BBXX 46004 20061 99509 71361 46/// /2713 10073 40234 52045 22200 00075 11415 70076 333 91216
BBXX UFML 20061 99447 11372 42998 03007 11060 40179 54000 22253 00023 20302
BBXX UGSN 20061 99450 11371 42598 13108 11060 40218 57009 81200 22213 00048 20403 61010
BBXX VRHO2 20064 99329 11351 41998 43019 10120 20038 40200 57030 70200 81181 22254 00220 20301 303// 40603 50000 6/00/ 80080 ICE /////
BBXX SHIP 20064 99473 71509 41698 32317 10070 20049 40311 52030 70200 83131 22223 06080 20406 318// 40406 80060
BBXX SHIP 20064 99413 71635 41697 72024 10120 20060 40184 51021 70311 8747/ 22224 00150 20308 319// 40308 5//// 6//// 80090 ICE /////
BBXX 46004 20061 99509 71361 46/// /2713 10073 40234 52045 22200 00075 11415 70076 333 91216
AAXX 20061 56671 32780 11803 10165 20006 38188 57042 81100 333 00100 20004
AAXX 20061 57378 31958 83403 10076 20006 40264 57032 71000 8807/ 333 20045
AAXX 20061 57426 31558 83401 10074 20049 40242 57040 71000 888// 333 00251 20058
AAXX 20061 57476 32960 73201 10109 20017 40257 57039 8703/ 333 20053
AAXX 20061 57584 11962 80201 10096 21009 40264 57029 69901 72160 8807/ 333 20068
AAXX 20061 57598 32762 80000 10101 20007 40255 57028 885// 333 20055
AAXX 20061 57655 32960 80902 10086 21002 40259 57037 8807/ 333 20072
AAXX 20061 57713 NIL
AAXX 20061 57776 32768 82902 10013 21054 40255 57022 885// 333 21013
AAXX 20061 58321 31950 83401 10077 20022 40263 57029 71000 8807/ 333 20001
AAXX 20061 58437 11662 73204 11002 21018 38171 57020 69901 70074 875// 333 21013
AAXX 20061 58445 NIL
AAXX 20061 58556 32965 70702 10150 20055 40229 57038 8704/ 333 20052
AAXX 20061 58569 32680 80204 10117 20078 40239 57031 885// 333 20080
AAXX 20061 58646 32968 30901 10186 20058 40217 57041 80002 333 20062
AAXX 20061 58653 NIL
AAXX 20061 58660 NIL
AAXX 20061 58715 31958 03403 10141 20020 40231 57032 70500 333 20058
AAXX 20061 58730 32680 21802 10184 20066 40213 57041 82100 333 20091
AAXX 20061 58731 32978 31803 10192 20060 40209 57042 83040 333 20074
AAXX 20061 58754 32580 10203 10175 20064 40225 57037 81100 333 20106
AAXX 20061 58911 32666 12903 10193 20074 40203 57040 81100 333 20034
AAXX 20061 58931 31375 23602 10088 20064 38377 57023 70040 82100 333 20007
AAXX 20061 59254 31958 11601 10216 20051 40192 57036 70500 81030 333 20133
AAXX 20061 59632 32960 00202 10230 20075 40186 57039 333 20135
AAXX 20061 59855 32472 80202 10197 20158 40173 57025 888// 333 20171
AAXX 20060 44294 32998 73208 11175 21223 38561 40362 56008 87070
AAXX 20060 44298 32999 03205 11172 21184 38713 40319 57010
AAXX 20064 43086 32997 10903 10274 20104 39968 40144 80001 333 59009
AAXX 20064 43128 31996 00503 10272 20098 39539 40138 70510 333 59010
AAXX 20064 43150 31996 10504 10284 20154 30077 40151 70500 80002 333 59005 81070
AAXX 20064 43185 31596 50504 10280 20187 30140 40143 70522 83530 333 59005 83620 85360
AAXX 20064 43189 32997 30703 10276 20189 30141 40150 81032 333 59003
AAXX 20064 43198 32996 50911 10254 20124 39307 40122 80008 333 59008 85270
AAXX 20064 43201 32997 50910 10250 20162 39413 40129 80002 333 59006 85075
AAXX 20064 43213 32997 40903 10270 20156 39826 40142 81032 333 59007
AAXX 20064 43226 32997 50904 10300 20142 30098 40127 80008 333 59010
AAXX 20064 43233 32997 20506 10244 20124 39327 40130 80001 333 58001
AAXX 20064 43237 32597 40903 10260 20170 39748 40141 81501 333 59004 81620 83075
AAXX 20064 43245 32597 83603 10276 20213 30113 40140 82578 333 59009
AAXX 20064 43279 32597 70505 10278 20195 30122 40140 82438 333 59003 82620 83360 87270
AAXX 20064 43284 32896 41110 10304 20134 39999 40113 81031 333 59004 81358 83075
AAXX 20064 43295 31396 70504 10198 20102 39119 48522 70522 83631 333 56299 58003 82710 83616 85358
AAXX 20064 43311 32597 43602 10314 20227 40117 81501 333 59004 81625 83075
AAXX 20064 43314 32997 72902 10310 20219 40111 83031 333 59012
AAXX 20064 43321 31496 50509 10252 20128 39692 40138 70520 82530 333 56990 58002
AAXX 20064 43329 32597 50503 10286 20201 30113 40126 81531 333 59004
AAXX 20064 43344 31496 70710 10274 20208 30027 40126 70522 82531 333 59004 82618 87358
AAXX 20064 43346 32497 80510 10260 20221 30110 40118 85728 333 56199 59001 84710 84615 88270
AAXX 20064 43353 31496 51005 10302 20212 40106 70522 82871 333 56699 59008 82614 85458
AAXX 20064 43369 32597 43604 10310 20244 40111 83430 333 59007 83620
AAXX 20064 43371 31597 73603 10290 20219 30033 40105 70352 84330 333 59013 82620 81925 86360
AAXX 20060 44237 32999 82706 11111 21184 38534 40345 58002 8802/
AAXX 20061 45032 NIL
AAXX 20061 45035 36/// /0501 10195 20098 30140 40182 54000
AAXX 20061 45039 36/// /3402 10181 20101 30165 40180 57002
AAXX 20061 45044 36/// /1206 10178 20125 30085 40178 57002
AAXX 20061 45032 NIL
AAXX 20061 45035 36/// /0501 10195 20098 30140 40182 54000
AAXX 20061 45039 36/// /3402 10181 20101 30165 40180 57002
AAXX 20061 45044 36/// /1206 10178 20125 30085 40178 57002
AAXX 20064 71067 16/// ///// 10014 21035 60001 333 10034 21128 70000
AAXX 20064 71315 17/// /0000 11039 21061 39959 40013 55006 69941 7//4/ 333 11039 21241 70019 555 10040 20019
AAXX 20064 71332 16/// /0608 11266 21294 39985 40015 51027 60001 333 11204 21296 70000 555 10010
AAXX 20064 71971 16/// /0303 11176 21208 39945 49991 50003 60001 333 11153 21264 70000
AAXX 20064 71221 16/// /2514 10043 21006 60001 333 10043 21172 7////
AAXX 20064 71226 16/// /2514 10054 21007 60001 333 10054 21053 70000 555 32233 40152
AAXX 20064 71229 46/// /1603 11011 21024 6///1 333 10040 21094 7//// 555 32535 40173
AAXX 20064 71244 16/// /2709 10032 21036 38891 40115 56020 60001 333 10039 21102 70000 555 32727 40051
AAXX 20064 71010 16/// /2302 10023 21038 60001 333 10030 21118 70000 555 31824 40151
AAXX 20064 71011 16/// ///// 10027 21042 60001 333 10030 21149 70000
AAXX 20064 71024 16/// /0303 11051 21077 60001 333 10021 21209 70007 555 10010 20007
AAXX 20064 71049 46/// /3602 11315 39926 49951 5/004 6///1 333 7////
AAXX 20064 71405 16/// ///// 11002 21030 60001 333 10017 21137 70000
AAXX 20064 71417 16/// /3403 11091 21096 30023 40058 57031 60001 333 11042 21129 70000
AAXX 20064 71426 46/// /3025 11035 6///1 333 10006 21071 7//// 555 32137 40183
AAXX 20064 71461 16/// /2521 10063 21009 60001 333 10065 21061 70000 555 32540 40143
AAXX 20064 71468 16/// /2406 11080 21086 39872 40203 58019 60001 333 21081 70000 555 30127 40081
AAXX 20064 71483 16/// ///// 10015 21021 60001 333 10042 21104 70000
AAXX 20064 71500 16/// /2608 10049 21018 60001 333 10049 21088 70000 555 32719 40191
AAXX 20064 71504 16/// ///// 10049 21025 60001 333 10055 21097 70000
AAXX 20064 71526 16/// /2207 10029 21031 60001 333 10048 21101 70000
AAXX 20064 71541 16/// /2415 10020 21019 60001 333 10032 21077 70000 555 32533 40172
AAXX 20064 71543 16/// /2515 10041 21003 60001 333 10052 21094 70000 555 32430 40052
AAXX 20064 71546 16/// /2316 10045 21009 60001 333 10051 21041 70000 555 32433 40132
AAXX 20064 71547 16/// /2512 10028 21023 60001 333 10033 21028 70000 555 32538 40193
AAXX 20064 71549 16/// ///// 10007 21032 60001 333 7////
AAXX 20064 71357 16/// /1603 11256 21292 39925 49932 51019 60001 333 11135 21271 70000 555 32325 40011
AAXX 20064 71359 16/// /2305 10012 21030 60001 333 10032 21109 70000 555 32318 40181
AAXX 20064 71283 16/// /2408 10020 21015 60001 333 10035 21108 70000 555 32437 40143
AAXX 20064 71788 16/// /2521 10046 21050 60001 333 10053 21068 70000 555 32430 40062
AAXX 20064 71792 16/// ///// 10018 21036 60001 333 10020 21121 70000
AAXX 20064 71673 16/// ///// 10030 21026 60001 333 10038 21152 70000
AAXX 20064 71690 16/// ///// 10038 21009 60001 333 10048 21056 70000
AAXX 20064 71888 16/// ///// 10000 21036 60001 333 10028 21141 70004
AAXX 20064 71895 16/// ///// 10030 21024 60001 333 10049 21140 70000
AAXX 20064 71152 16/// /0809 11054 21081 30053 40066 56033 60001 333 11041 21089 70000 555 30329 40102
AAXX 20064 71153 16/// /2724 10051 21036 60001 333 10062 21151 70000 555 32637 40063
AAXX 20064 71555 16/// /2719 10034 21060 38553 40106 56028 60001 333 10053 21073 70000 555 32734 40043
BBXX EIPT 20064 99518 70058 41/97 52916 10080 20038 40137 52015 70222 8/// 22200 20201 3//// 4//// 5/// 80060
AAXX 20064 71221 16/// /2514 10043 21006 60001 333 10043 21172 7////
AAXX 20064 71226 16/// /2514 10054 21007 60001 333 10054 21053 70000 555 32233 40152
AAXX 20064 71229 46/// /1603 11011 21024 6///1 333 10040 21094 7//// 555 32535 40173
AAXX 20064 71244 16/// /2709 10032 21036 38891 40115 56020 60001 333 10039 21102 70000 555 32727 40051
AAXX 20064 71315 17/// /0000 11039 21061 39959 40013 55006 69941 7//4/ 333 11039 21241 70019 555 10040 20019
AAXX 20064 71332 16/// /0608 11266 21294 39985 40015 51027 60001 333 11204 21296 70000 555 10010
AAXX 20064 71971 16/// /0303 11176 21208 39945 49991 50003 60001 333 11153 21264 70000
AAXX 20064 71067 16/// ///// 10014 21035 60001 333 10034 21128 70000
AAXX 20064 71461 16/// /2521 10063 21009 60001 333 10065 21061 70000 555 32540 40143
AAXX 20064 71468 16/// /2406 11080 21086 39872 40203 58019 60001 333 21081 70000 555 30127 40081
AAXX 20064 71483 16/// ///// 10015 21021 60001 333 10042 21104 70000
AAXX 20064 71010 16/// /2302 10023 21038 60001 333 10030 21118 70000 555 31824 40151
AAXX 20064 71011 16/// ///// 10027 21042 60001 333 10030 21149 70000
AAXX 20064 71024 16/// /0303 11051 21077 60001 333 10021 21209 70007 555 10010 20007
AAXX 20064 71049 46/// /3602 11315 39926 49951 5/004 6///1 333 7////
AAXX 20064 71283 16/// /2408 10020 21015 60001 333 10035 21108 70000 555 32437 40143
AAXX 20061 56144 32980 01602 10031 21189 36835 57050 333 00052 21090
AAXX 20061 56152 32980 00000 10016 21129 36282 57037 333 00103 21188
AAXX 20061 56167 32980 20701 10082 21154 37054 57064 80001 333 00001 21105
AAXX 20061 56182 32980 02002 10060 21103 37159 57057 333 00101 21096
AAXX 20061 56357 32980 00901 10070 21196 36423 57045 333 00001 21143
AAXX 20061 56586 31456 80000 10029 21006 38049 57037 71000 885// 333 00355 21009
AAXX 20061 56748 32580 11403 10163 20050 38352 57035 81400 333 00000 20021
AAXX 20061 56763 32980 00902 10228 20000 40100 57050 333 00001 20062
AAXX 20061 56768 32980 02204 10170 20026 38169 57035 333 05103 20037
AAXX 20061 56838 31665 12202 10180 20118 40167 57030 70040 81100 333 00001 20096
AAXX 20061 56886 32670 12204 10153 20076 38289 57038 81100 333 00151 20047
AAXX 20061 56946 31680 11101 10198 20094 40160 57039 70040 81100 333 00051 20055
AAXX 20061 56959 32775 10701 10227 20138 40149 57042 81100 333 05151 20116
AAXX 20061 56969 32580 12501 10221 20118 40160 57044 81100 333 05100 20110
AAXX 20061 57731 11462 80000 10068 20036 40255 57039 69911 76066 885// 333 00201 20051
AAXX 20061 57766 32760 82901 10102 20002 40256 57031 885// 333 20059
AAXX 20061 57845 32960 83602 10097 21002 40243 57033 8807/ 333 20068
AAXX 20061 57853 32760 80202 10095 21015 40254 57032 885// 333 20068
AAXX 20061 57916 32662 82902 10107 20070 40226 57031 885// 333 00353 20107
AAXX 20061 57922 31650 83402 10044 20029 40247 57029 71000 885// 333 00253 20039
AAXX 20061 57932 31657 80703 10108 20031 40241 57035 70500 885// 333 00100 20089
AAXX 20061 58338 32960 82703 10067 20026 40252 57022 8807/ 333 20033
AAXX 20061 59007 32567 70703 10150 20071 40176 57039 878// 333 20037
AAXX 20061 59046 31958 33202 10169 20046 40211 57035 70500 83030 333 20117
AAXX 20061 59058 32962 73204 10162 20029 40206 57038 8704/ 333 20108
AAXX 20061 59072 32962 00203 10178 20009 40208 57047 333 20043
AAXX 20061 59087 32764 72903 10182 20025 40197 57036 875// 333 20077
AAXX 20061 59209 32565 82202 10160 20087 40183 57035 888// 333 20104
BBXX 46146 20061 99493 71237 46/// /0906 10069 40283 52005 22200 00066 10301 70006 333 91208
BBXX 46146 20061 99493 71237 46/// /0906 10069 40283 52005 22200 00066 10301 70006 333 91208
BBXX 3EIZ7 20064 99445 70618 41/// /2135 10070 2003/ 40020 57050 700// 8//// 22265 0//// 2//// 3//// 4//// 5//// 6//// 80050 ICE /////
AAXX 20060 44229 41997 82705 11166 21200 37975 40442 58013 77073 8802/
AAXX 20064 61699 33958 01408 10162 20073 39914 40104 333 01200 20147 50554 55094 58001
BBXX CFO383 20064 99439 70602 47598 /2317 10046 2101/ 40082 5//// 700// 8//// 22200 00074 10603 2//// 3//// 70015 80026 91024
BBXX CFO383 20064 99439 70602 47598 /2317 10046 2101/ 40082 5//// 700// 8//// 22200 00074 10603 2//// 3//// 70015 80026 91024
BBXX 44258 20061 99445 70634 46/// /2512 10064 40033 57040 22200 00063 10805 70027 333 91214
BBXX 44258 20061 99445 70634 46/// /2512 10064 40033 57040 22200 00063 10805 70027 333 91214
AAXX 20064 96009 32458 80807 10298 20232 30051 40086 57014 84871 333 56000 57803 81815 83617 85360 80860
AAXX 20064 96011 01457 70603 10282 20238 30059 40086 57014 60011 76062 84932 333 56000 57903 60017 81919 83620 80960
AAXX 20064 96035 01450 80204 10250 20233 30055 40093 57012 60011 76162 8692/ 333 56009 57901 69977 81917 85618 80956
AAXX 20064 96073 32460 70000 10298 20241 30059 40070 56023 84972 333 56000 57901 84913 80959
AAXX 20064 96091 01450 83405 10260 20249 30066 40089 57014 60251 76166 8552/ 333 56009 60077 85613 88460
AAXX 20064 96109 01458 80000 10265 20234 30033 40072 57019 60021 72162 84572 333 56000 60027 84615
AAXX 20064 96145 NIL
AAXX 20064 96147 NIL
AAXX 20064 96163 01430 82703 10258 20246 30087 40089 57017 60061 76062 8652/ 333 56009 60067 86618
AAXX 20064 96179 01456 80000 10245 20240 30059 40096 57005 60591 79196 8452/ 333 56709 60247 84617
AAXX 20064 96195 32460 73308 10280 20234 30049 40086 57021 85131 333 56000 57805 85813 80830
AAXX 20064 96221 32460 73012 10309 20246 30057 40072 52005 85132 333 56999 85815
AAXX 20064 96237 01456 82705 10262 20242 30030 40072 57021 60021 76166 8511/ 333 56009 60027 85815 88459
AAXX 20064 96249 01456 83014 10276 20246 30010 40071 57009 69901 76062 85972 333 56700 57971 57871 69907 81917 84820 80981
AAXX 20064 96253 12460 73109 10294 20248 30035 40055 57020 69981 85972 333 56000 57900 57800 81915 83320 83360
AAXX 20064 96295 32460 73410 10310 20224 39965 40067 56020 85221 333 56000 57800 85815 80800
AAXX 20064 96509 01458 82803 10272 20247 30051 40063 57034 60041 72166 85271 333 56000 57801 60027 85815 80859
AAXX 20064 96581 31458 73504 10312 20250 30045 40052 57023 71522 86970 333 56700 57972 81911 85812 80980 80860
AAXX 20064 96633 32460 61504 10325 20269 30038 40046 57032 83931 333 56000 57901 81918 82818 80980
AAXX 20064 96645 11457 73008 10306 20267 30024 40056 57023 60071 70262 85232 333 56000 57801 85812 80858
AAXX 20064 96655 01458 72909 10316 20249 30046 40081 57021 60041 76162 86572 333 56000 60047 81811 85611
AAXX 20064 96685 32460 62605 10310 20245 30028 40054 57032 84511 333 56000 84615
AAXX 20064 96749 01559 72610 10298 20231 30056 40070 56019 60011 76062 83121 333 56600 69907 83821 86460 80850
AAXX 20064 96781 31458 71715 10273 20195 39250 48732 57023 70522 84231 333 56000 57801 84818 80858
AAXX 20064 96805 01559 72705 10298 20245 30067 40076 56016 60021 71462 84220 333 56000 57802 60027 84820 85460 80860
AAXX 20064 96839 32458 73313 10310 20241 30053 40060 57017 84972 333 56000 57901 82919 83820 80980
AAXX 20064 96935 32460 60509 10318 20241 30043 40050 57025 84901 333 56000 57901 57801 82920 82818 80980 80860
AAXX 20064 97008 11458 63307 10294 20251 30050 40061 57010 60031 71562 85231 333 56000 57801 85818 80860
AAXX 20064 97016 32562 52710 10331 20238 30047 40050 57020 83231 333 56000 57801 83820 80860
AAXX 20064 97126 32458 71504 10324 20250 39990 40050 57023 83920 333 56000 57901 81916 82616 85460 80980
AAXX 20064 97142 NIL
AAXX 20064 97182 11568 63005 10301 20258 30044 40048 57026 60031 70162 82831 333 56000 57801 82820 83360 80878
AAXX 20064 97240 11457 81402 10258 20250 39945 40059 57020 60031 72996 87931 333 56000 57901 81915 87815 80980 80860
AAXX 20064 97284 32460 63505 10248 20211 38839 40077 57018 85231 333 56000 57801 85812 80837
AAXX 20064 97310 32568 21807 10324 20247 30039 40051 57021 82101 333 56000 82820
AAXX 20064 97320 32565 51706 10332 20263 30031 40044 57026 83206 333 56000 57801 83820 80850
AAXX 20064 97378 NIL
AAXX 20064 97380 32564 43005 10330 20264 30033 40053 57016 81131 333 56000 81820 83360
AAXX 20064 97406 01460 52605 10292 20266 30022 40047 57025 60201 72162 83231 333 56600 57861 60207 83818 80860
AAXX 20064 97570 NIL
AAXX 20064 97630 31463 51810 10310 20252 39879 40039 57026 70522 84942 333 56000 57901 81912 83813 80978
AAXX 20064 97682 32465 33405 10338 20273 30011 40019 57030 83203 333 56000 57804 82816 80850
AAXX 20064 97698 32460 80305 10322 20248 30037 40040 57020 84942 333 56000 57901 57802 81916 83817 86078 80980 80865
AAXX 20064 97700 32462 50505 10308 20266 30025 40040 58017 82232 333 56000 57804 82818 80856
AAXX 20064 97722 32564 52104 10316 20245 30031 40046 57018 83232 333 56600 57862 83820 80856
AAXX 20064 97780 NIL
AAXX 20064 97790 32563 53107 10310 20256 30008 40028 57012 82131 333 56600 57862 82820 80858
AAXX 20064 96001 01456 80910 10260 20251 39949 40097 57024 60161 70522 84522 333 56200 69987 84619
AAXX 20064 96015 32463 52006 10300 20260 30066 40073 57013 82272 333 56000 57804 82820 80860
AAXX 20064 96033 01450 80304 10252 20240 30092 40097 57008 60101 76166 8492/ 333 56009 57903 60107 81920 84615 88457 80980
AAXX 20064 96075 01457 70204 10288 20260 30073 40078 57016 69911 76062 85971 333 56000 57902 69917 81915 84816 80965 80857
AAXX 20064 96087 01458 83305 10272 20240 30047 40080 56015 60031 70262 84528 333 56700 60037 84615 87460 85280
AAXX 20064 96171 32457 80000 10280 20245 30057 40081 57013 85222 333 56000 57801 85813 80850
AAXX 20064 96207 31460 73205 10269 20210 39225 40146 57002 71422 84931 333 56000 57901 81915 83820 80960
AAXX 20064 96505 NIL
AAXX 20064 96525 01458 73403 10290 20247 30058 40065 57033 60111 70262 84971 333 56000 57901 69957 81914 84614 80980
AAXX 20064 96529 01460 50000 10302 20259 30056 40080 57030 60021 70162 83131 333 56000 60027 83818
AAXX 20064 96535 01457 70106 10305 20257 30049 40070 58018 69911 70262 84231 333 56000 57802 69917 84814 83362 80867
AAXX 20064 96557 32460 73204 10321 20255 39996 40046 57030 85971 333 56600 57961 57861 81912 84813 85460 80980 80857
AAXX 20064 96559 32459 60905 10316 20245 30021 40058 57022 85231 333 56400 57843 85812 84362 80858
AAXX 20064 96565 32360 63005 10324 20263 30017 40069 57028 83231 333 56000 57802 83808 80840
AAXX 20064 96595 31462 72605 10316 20245 30014 40066 57027 71422 86846 333 56000 57801 82816 85613 80860
AAXX 20064 96607 32460 73405 10326 20237 30047 40062 57027 86921 333 56000 57960 81915 86814 809//
AAXX 20064 96615 32460 72510 10306 20248 30052 40066 56015 85131 333 56300 57833 85812 80856
AAXX 20064 96695 32458 53003 10332 20244 30040 40045 56028 84211 333 56000 57802 84618 80862
AAXX 20064 96737 01450 82605 10274 20245 30035 40065 56016 69901 76162 85221 333 56000 57801 69907 85815 84460 80862
AAXX 20064 96739 11460 82409 10270 20230 30027 40076 57017 69901 70262 85322 333 56000 57902 81917 84620 80975
AAXX 20064 96741 11560 83407 10302 20252 30060 40064 57018 69901 70262 81572 333 56000 81620 85460
AAXX 20064 96745 11559 82805 10314 20229 30062 40066 57019 69901 70262 8452/ 333 56609 57862 84820 88460 80825
AAXX 20064 96751 31558 82803 10232 20208 39013 48920 57012 71622 8621/ 333 56609 57861 82820 84620 80880
AAXX 20064 96791 32460 73406 10308 20250 30006 40081 57017 84971 333 56000 57901 81918 83818 80980
AAXX 20064 96797 32460 73213 10292 20246 30063 40069 57018 83971 333 56000 57902 81918 82620 85360 80980
AAXX 20064 96837 32560 73307 10304 20243 30057 40060 57018 83972 333 56000 57900 81922 82822
AAXX 20064 96925 11465 82804 10294 20245 30057 40062 56019 60011 70262 83272 333 56600 57860 83817 86460 80860
AAXX 20064 96933 31460 82904 10320 20255 30051 40055 57019 71721 83921 333 56600 57961 81917 82618 87460 80965
AAXX 20064 96937 01557 70218 10293 20253 30052 40057 56019 69901 79521 85971 333 56000 57900 69907 82920 83820 80960
AAXX 20064 96973 01462 70000 10294 20268 30051 40057 57018 60031 70396 84971 333 56000 57902 60037 81918 80976 83820 80850
AAXX 20064 96987 32459 60000 10296 20253 39995 40055 57025 83321 333 56000 57900 57801 81918 82819 84459 80980 80859
AAXX 20064 97014 32560 52105 10284 20248 39969 40062 57025 83271 333 56700 57873 83821 80860
AAXX 20064 97028 31462 63002 10305 20254 30049 40055 56017 71521 84321 333 56000 57901 57802 81918 83818 85459 80959 80859
AAXX 20064 97048 32460 43408 10320 20233 30016 40040 57024 83231 333 56000 57801 83818 80860
AAXX 20064 97072 32460 53611 10348 20227 39953 40053 57032 82271 333 56800 57883 82820 80858
AAXX 20064 97086 32560 31805 10312 20262 30056 40080 56012 82271 333 56000 57805 82820 80860
AAXX 20064 97096 32560 20210 10318 20250 30046 40067 57025 81231 333 56000 57803 81820 80857
AAXX 20064 97120 32462 62710 10310 20255 30009 40042 57030 83231 333 56600 57862 83818 80860
AAXX 20064 97146 32459 50000 10314 20253 39978 40038 57031 83271 333 56000 57801 83816 80860
AAXX 20064 97180 01460 62910 10308 20252 30036 40054 56026 69921 70262 82232 333 56000 82819
AAXX 20064 97192 31460 70000 10304 20260 30011 40068 57022 71792 85910 333 56200 57921 57821 82917 83816 80958 80858
AAXX 20064 97230 31460 82704 10288 20245 30047 40054 57023 71792 84972 333 56000 57901 57801 81915 83816 85359 80980 80859
AAXX 20064 97260 NIL
AAXX 20064 97270 32460 63605 10324 20245 30045 40050 58020 83211 333 56000 57801 83815 80858
AAXX 20064 97300 32562 60305 10318 20250 30018 40059 57020 83231 333 56800 57881 83820 80858
AAXX 20064 97340 32570 80112 10324 20279 30035 40050 57020 81132 333 56000 81820 87080
AAXX 20064 97372 32465 43207 10310 20269 39931 40051 57020 83931 333 56000 81919 82820
AAXX 20064 97430 01460 63316 10288 20250 30023 40053 57027 60041 71562 84932 333 56700 57971 57872 60047 81915 83818 80980 80860
AAXX 20064 97460 01458 73304 10310 20244 30018 40032 55026 69941 76062 84376 333 56400 57941 69947 81917 83818 80959 80858
AAXX 20064 97502 32460 42806 10320 20238 30031 40034 56027 82231 333 56000 57801 82812 80856
AAXX 20064 97530 01420 73004 10292 20259 30028 40033 57023 60021 76164 86842 333 56000 57802 60027 84814 84460 80833
AAXX 20064 97560 32460 72307 10313 20256 30022 40037 57024 84948 333 56000 57901 57803 81917 82818 84361 87279 80980 80860
AAXX 20064 97580 NIL
AAXX 20064 97600 32460 73404 10320 20246 20241 30047 57020 83271 333 56800 57882 83817 86459 80858
AAXX 20064 97686 31462 71416 10254 20159 38292 40024 57018 71622 85844 333 56000 57802 84815 86361 80859
AAXX 20064 97690 32465 72714 10308 20242 39921 40022 57020 83844 333 56000 57802 82816 86080 80858
AAXX 20064 97724 NIL
AAXX 20064 97748 NIL
AAXX 20064 97760 32465 63004 10339 20241 30031 40040 57021 82902 333 56000 57901 81915 82816 80960
AAXX 20064 97796 31459 62008 10326 20259 39993 40044 57019 70522 85932 333 56000 57903 81911 85612 80980
AAXX 20064 97810 32464 73214 10311 20251 30022 40031 58029 84232 333 56700 57871 84819 80856
AAXX 20064 97876 32460 50503 10326 20240 30031 40061 57032 84231 333 56000 57803 84810 80857
AAXX 20064 97900 01459 82607 10283 20256 30003 40031 58023 60041 79522 8592/ 333 56609 57961 60047 84614 88458 80975
AAXX 20064 97980 32460 72007 10307 20233 30028 40035 57024 85842 333 56000 82817 83620
AAXX 20064 94996 41480 71010 10204 20157 30035 40171 53003 70222 82238 90630
BBXX 44030 20061 99432 70704 46/// /2509 1//// 40086 53004 90604 22200 00085 333 91211 555 11110 22117
BBXX MINFR00 2006/ 99286 70780 46/// ///// 10190 40248 57015
BBXX 46232 20061 99325 71174 46/// ///// 1//// 90608 22200 00153 11303 20601 328// 41302 70013
BBXX 46247 20061 99378 71228 46/// ///// 1//// 90621 22200 00112 11405 21003 329// 41403 70025
BBXX 46246 20061 99500 71451 46/// ///// 1//// 90629 22200 00073 11110 21007 325// 41107 70050
AAXX 20064 94996 41480 71010 10204 20157 30035 40171 53003 70222 82238 90630
BBXX 46246 20061 99500 71451 46/// ///// 1//// 90559 22200 00073 11310 20906 326// 41308 70049
BBXX 46036 20061 99484 71339 46/// /2707 10086 40283 52025 22200 00085 11508 70042 333 91209
BBXX 46036 20061 99484 71339 46/// /2707 10086 40283 52025 22200 00085 11508 70042 333 91209
BBXX 46243 20061 99462 71241 46/// ///// 1//// 90629 22200 00072 11403 21002 326// 41403 70017
BBXX 46229 20061 99438 71246 46/// ///// 1//// 90621 22200 00099 11305 21003 328// 41304 70024
BBXX 46225 20061 99329 71174 46/// ///// 1//// 90614 22200 00147 11502 21001 327// 41502 70010
BBXX 46213 20061 99403 71247 46/// ///// 1//// 90624 22200 00099 10908 20907 329// 41405 70042
BBXX 46215 20061 99352 71209 46/// ///// 1//// 90608 22200 00144 11205 21003 328// 41204 70023
AAXX 20061 40604 12960 20000 10088 21033 40260 53001 60002/ 80001
AAXX 20061 40608 11956 00000 10034 20013 40265 52010 60002 71000
AAXX 20061 40621 12960 00602 10094 20005 40275 52005 60002
AAXX 20061 40629 12960 02402 10024 20008 40284 53004 60002
AAXX 20061 40631 12960 00000 10068 20010 40263 53008 60002
AAXX 20061 40634 12960 02702 10040 21004 40275 52015 60002
AAXX 20061 40637 12960 00000 10105 20070 40250 54000 60002
AAXX 20061 40642 12960 00000 10034 21005 40299 52003 60002
AAXX 20061 40650 12960 03303 10082 20035 40258 52013 60002
AAXX 20061 40656 12960 02903 10070 20034 40240 52009 60002
AAXX 20061 40665 12960 03002 10085 20036 40257 52016 60002
AAXX 20061 40670 12960 03603 10100 20045 40252 53011 60002
AAXX 20061 40674 12960 03505 10090 20024 40257 52016 60002
AAXX 20061 40676 12960 02604 10082 20012 40255 52017 60002
AAXX 20061 40680 12960 03201 10075 20003 40232 52015 60002
AAXX 20061 40689 12960 03004 10082 20030 40253 52017 60002
AAXX 20061 40691 12960 02102 10104 20031 40266 52016 60002
AAXX 20061 88900 46/// /0616 10052 20044 30070 40073 58002 333 55009
BBXX 63110 20063 99595 10015 41/96 /1918 10056 49978 700// 8//// 22200 10503 70015
BBXX 64045 20064 99591 70117 46/// /2924 10053 20024 40070 52006 22200 00101 10910 70049 333 90710 91134
BBXX AMOUK08 20064 99501 70061 46/// ///// 10112 20064 30190 40195 52012 90550
BBXX 63055 20064 99606 10016 47397 /1415 10056 20015 49968 56010 762// 22200 10502 70012
BBXX 63106 20064 99610 10017 46/// /1616 10051 49973 57008 22200
BBXX 63105 20064 99610 10017 47498 ///// 10059 20013 49973 56009 700// 22200
BBXX 62304 20064 99511 10018 46/98 /3133 10087 20049 40093 55003 22200 00111 10502 70010
BBXX 62094 20064 99517 70067 46/// /2919 1//// 2//// 40184 53011 22200 00105 10504 70019 333 90710 91125
BBXX 62103 20064 99499 70029 46/99 /3325 10107 20062 40158 52018 22200 00122 10703 70015 333 90710 91131
BBXX 63119 20064 99583 10009 41698 83532 10067 20028 49982 52012 70222 885// 22200 20302 335// 40503 5////
BBXX UASP 20061 99692 10352 41/97 90000 11026 49984 54000 70371 8//// 222// 2////
BBXX TBWUK35 20064 99555 70106 41/// 82926 10082 20030 40132 52010 70222 8//// 22283 00120 2//// 80060
AAXX 20061 20046 32498 72103 11050 21060 30051 40083 57005 875// 333 21077
AAXX 20061 20069 NIL
AAXX 20061 20087 NIL
AAXX 20061 20292 NIL
AAXX 20061 20353 46/// /1410 11049 21069 30113 40117 57007 333 91113
AAXX 20061 20667 NIL
AAXX 20061 20674 NIL
AAXX 20061 20744 NIL
AAXX 20061 20891 NIL
AAXX 20061 23022 NIL
AAXX 20061 23032 NIL
AAXX 20061 23058 NIL
AAXX 20061 23242 NIL
AAXX 20061 23256 11496 81304 11116 21129 30144 40180 57013 60030 78587 883// 333 21113 84711
AAXX 20061 23330 11296 82902 11065 21073 30151 40172 52001 69950 77372 8802/ 333 21140 88505
AAXX 20061 23445 32697 82005 11064 21092 30143 40169 57018 885// 333 21111 88640
AAXX 20061 23552 32997 81902 11115 21128 30163 40199 57016 8805/ 333 21111
AAXX 20061 23631 11997 82605 11070 21103 30181 40223 52002 69960 73673 83031 333 21080
AAXX 20061 23662 11499 82202 11094 21106 30194 40240 57009 60020 70272 8552/ 333 21183
AAXX 20061 23724 11999 62202 11100 21128 30218 40285 52009 69930 70272 82041 333 21083
AAXX 20061 23734 11998 82802 11076 21094 30169 40265 57005 69930 72271 8807/ 333 21102
AAXX 20061 23849 42996 62306 11116 21154 40293 57011 86030
AAXX 20061 23867 12999 83202 11108 21128 30220 40296 57010 69900 84011 333 21108
AAXX 20061 23933 32997 82103 11101 21147 30240 40299 57006 86077 333 21113
AAXX 20061 28064 32599 82703 11064 21129 30252 40348 52007 86541 333 21097
AAXX 20061 28275 32998 82204 11106 21159 30332 40395 57007 83032 333 21180
AAXX 20061 28493 32998 81901 11157 21176 30339 40440 58005 80006 333 21201
AAXX 20061 28698 11998 82002 11178 21219 30323 40493 53003 69900 70271 80001 333 21190
AAXX 20061 23426 11989 82402 11062 21074 30167 40192 52004 69940 70272 8807/ 333 21121
AAXX 20061 23625 11999 22502 11075 21119 30215 40250 52013 69920 70272 82040 333 21070
AAXX 20061 28076 32997 72304 11097 21133 30267 40343 57004 86051 333 21143
AAXX 20061 28367 32996 82204 11102 21186 30290 40427 57003 86032 333 21131
AAXX 20061 28382 32984 81901 11199 21218 30338 40416 57013 8807/ 333 21211
AAXX 20061 28481 32997 62003 11178 21204 30341 40451 57005 86070 333 21184
AAXX 20061 28491 32969 32203 11142 21185 30321 40440 57005 82031 333 21164
AAXX 20061 28573 32998 82204 11205 21230 30361 40477 57004 83049 333 21212
AAXX 20061 28593 32998 82101 11183 21202 30351 40458 58004 80001 333 21212
AAXX 20061 28786 32998 82904 11191 21224 30340 40515 57002 80002 333 21218
AAXX 20061 28797 12997 82503 11204 21229 30345 40521 52010 69900 80002 333 21220
AAXX 20061 28799 32998 22503 11205 21230 30350 40511 52007 80001 333 21227
AAXX 20064 78318 12565 41006 10216 20188 30186 40190 58009 60001 81802 333 10270 20198 31/// 56909 59011 79999 81820 84073
AAXX 20064 78325 11930 11306 10212 20182 30138 40196 56011 60001 70400 81030 333 10254 20191 30/// 56090 59005 79999 81360
AAXX 20064 78333 12910 40702 10210 20178 30187 40194 56007 60001 80002 333 10270 20178 30/// 56000 59004 84070
AAXX 20064 78348 11550 70604 10212 20188 30151 40204 58009 60001 70522 87800 333 10248 20212 30/// 56200 57854 58006 70052 81820 87630 555 10702
AAXX 20064 78349 12430 70501 10210 20198 30092 40201 58010 60001 878// 333 10270 20196 30/// 56299 57822 58003 83819 85625 555 10903
AAXX 20064 78353 11560 60806 10236 20180 30178 40200 58007 60011 70186 85802 333 10260 20215 31/// 56909 58004 70030 82820 83626
AAXX 20064 78360 01/60 10403 10216 20206 30171 40183 58004 69921 70160 81200 333 10300 20216 31/// 56900 58011 69907 70005 818// 92023
AAXX 20064 78369 01464 70608 10229 20209 30179 40188 56005 60011 72586 872// 333 10272 20223 31/// 56999 57860 58012 60017 70014 87818
AAXX 20063 63671 32480 80908 10245 20224 885// 333 20218 88616
AAXX 20063 63723 32582 70000 10275 20232 40116 875// 333 20243 58003 87623
AAXX 20063 63793 32380 40508 10260 20216 40103 84240 333 20226 58000 81709 84816
BBXX WDA2768 20064 99458 70871 43/// /0401 00/// 11026 21072 40243 52007 7//// 8//// 22200 0//// 2//// 3//// 4//// 5//// 6//// 81042 ICE /////
BBXX WC5932 20064 99417 70874 43/// /0415 00/// 10039 21022 40229 5//// 7//// 8//// 22200 0//// 2//// 3//// 4//// 5//// 6//// 80016 ICE /////
BBXX KCDK 20064 99295 70861 41398 61319 10217 2019/ 40190 56015 70322 868// 22274 0//// 20302 314// 40804 5//// 6//// 80200 ICE /////
BBXX WKDY 20064 99360 10160 41298 62919 10110 20072 40160 54000 78388 8626/ 22234 00182 20304 329// 40504 5//// 6//// 80090 ICE /////
BBXX WRAH 20063 99355 70168 41698 10713 10170 2//// 40272 56003 70200 814// 22264 00189 20202 30229 40605 50805 6//// 8//// ICE /////
BBXX ZCDM8 20063 99057 70133 41597 51511 10265 20232 40110 54000 70511 83149 22233 00287 20101 313// 40303 5//// 80242
BBXX WKPN 20064 99167 10408 41497 31713 10270 20228 40155 54000 70500 80080 22235 00302 20201 3//// 4//// 5//// 6//// 80240 ICE /////
BBXX 42013 20061 99272 70829 46/// ///// 1//// 40220 90540 22200 00197
BBXX 41010 20061 99289 70785 46/// /1406 10203 40244 90620 22200 00237 11003 20602 300// 41003 70016 333 91209 555 11067 22070
BBXX 41009 20061 99285 70802 46/// /1309 10218 20137 40234 90620 22200 00250 10803 20602 300// 40802 70015 333 91211 555 11095 22100
BBXX 42361 20061 99276 70925 46/// ///13 10228 20183 40149 56007 90630 555 11104 22111
BBXX 44100 20061 99363 70756 46/// ///// 1//// 90622 22200 00114 11102 21002 308// 41101 70011
BBXX 41110 20061 99341 70777 46/// ///// 1//// 90621 22200 00139 11001 21001 310// 41101 70006
BBXX 42099 20061 99273 70842 46/// ///// 1//// 90627 22200 00231 10603 20603 70017
BBXX 41113 20061 99284 70805 46/// ///// 1//// 90621 22200 00212 10502 20502 70011
BBXX 41112 20061 99307 70813 46/// ///// 1//// 90621 22200 00157 11102 20402 309// 41101 70009
BBXX ZCDM8 20063 99057 70133 41597 51511 10265 20232 40110 54000 70511 83149 22233 00287 20101 313// 40303 5//// 80242
BBXX WKPN 20064 99167 10408 41497 31713 10270 20228 40155 54000 70500 80080 22235 00302 20201 3//// 4//// 5//// 6//// 80240 ICE /////
BBXX AMOUK15 20064 99097 50126 46/// ///// 10229 20177 30118 40137 57005 90550
BBXX AMOUK17 20064 99340 30261 46/// ///// 10189 20174 30156 40159 54000 90550
BBXX A8AX3 20063 99254 70172 41/98 40617 10205 40191 58008 70100 8//// 22244 20503
BBXX ZDLS1 20063 99578 30048 41195 81913 11018 21020 49648 52005 72672 886// 22233 05019 20402 33421 40506 50503 82018
BBXX VVZU 20064 99247 10601 41/97 /0515 10023 20216 40246 52026 70201 8//// 22263 2//06 4//07 5////
BBXX UFML 20061 99447 11372 42998 03007 11060 40179 54000 22253 00023 20302
BBXX UGSN 20061 99450 11371 42598 13108 11060 40218 57009 81200 22213 00048 20403 61010
BBXX S6OM 20064 99176 11196 41997 00325 10170 20144 40125 57021 7//// 80000 22243 00273 29901 304// 40605 5//// 80155
BBXX MZFC6 20063 99085 10716 41297 73604 10315 20255 40120 51039 70122 85618 22264 04289 20101 309// 40302 5//// 80272
BBXX A8PK8 20063 99094 10722 41397 60312 10298 20220 40116 54000 70222 83720 22224 04299 20401 300// 4//// 5//// 80245
BBXX 62141 20063 99493 50591 41/92 /3517 10102 40022 57004 74622 8//// 22200 20604 33535 40402 50604
BBXX AMOUK20 20064 99229 50431 46/// ///// 10240 20227 30102 40116 57010 90550
BBXX VQKZ6 20063 99041 50816 41398 31915 10200 20184 40106 54000 70111 8114/ 22244 02210 20403 319// 40504 5//// 80190
BBXX LAVN4 20064 99386 50530 41697 82212 10171 2015/ 40068 51004 70203 8872/ 22213 00100 20401 309// 40903 NNNN
BBXX ZDLP 20063 99596 50433 41298 43413 10018 20004 40025 53006 70222 8116/ 22223 04005 20101 336// 40302 5//// 80013
BBXX 46243 20061 99462 71241 46/// ///// 1//// 90629 22200 00072 11403 21002 326// 41403 70017
BBXX 46213 20061 99403 71247 46/// ///// 1//// 90624 22200 00099 10908 20907 329// 41405 70042
BBXX 46225 20061 99329 71174 46/// ///// 1//// 90614 22200 00147 11502 21001 327// 41502 70010
BBXX 46215 20061 99352 71209 46/// ///// 1//// 90608 22200 00144 11205 21003 328// 41204 70023
BBXX 46229 20061 99438 71246 46/// ///// 1//// 90621 22200 00099 11305 21003 328// 41304 70024
BBXX 46036 20061 99484 71339 46/// /2707 10086 40283 52025 22200 00085 11508 70042 333 91209
BBXX 46246 20061 99500 71451 46/// ///// 1//// 90559 22200 00073 11310 20906 326// 41308 70049
BBXX 46247 20061 99378 71228 46/// ///// 1//// 90621 22200 00112 11405 21003 329// 41403 70025
BBXX 46246 20061 99500 71451 46/// ///// 1//// 90629 22200 00073 11110 21007 325// 41107 70050
BBXX 46232 20061 99325 71174 46/// ///// 1//// 90608 22200 00153 11303 20601 328// 41302 70013
BBXX MINFR00 2006/ 99286 70780 46/// ///// 10190 40248 57015
BBXX 44030 20061 99432 70704 46/// /2509 1//// 40086 53004 90604 22200 00085 333 91211 555 11110 22117
BBXX WCZ5535 20064 99330 70441 41/97 32224 10220 2019/ 40040 55020 79598 832// 22223 0//// 2//// 3//// 4//// 5//// 6//// 80200 ICE /////
BBXX 44258 20061 99445 70634 46/// /2512 10064 40033 57040 22200 00063 10805 70027 333 91214
BBXX CFO383 20064 99439 70602 47598 /2317 10046 2101/ 40082 5//// 700// 8//// 22200 00074 10603 2//// 3//// 70015 80026 91024
BBXX 3EIZ7 20064 99445 70618 41/// /2135 10070 2003/ 40020 57050 700// 8//// 22265 0//// 2//// 3//// 4//// 5//// 6//// 80050 ICE /////
BBXX 46146 20061 99493 71237 46/// /0906 10069 40283 52005 22200 00066 10301 70006 333 91208
BBXX 46004 20061 99509 71361 46/// /2713 10073 40234 52045 22200 00075 11415 70076 333 91216
BBXX 9HXC9 20064 99183 70651 41598 30528 10246 20132 40147 56003 7//11 83540 22234 04277 20502 3//// 40802 5//// 6//// 80175 ICE /////
BBXX 46184 20061 99539 71389 46/// /2714 10059 40162 52076 22200 00065 11413 70065 333 91217
BBXX 46181 20061 99538 71288 46/// /2010 10076 40112 52023 22200 00065 10301 70005 333 91212
BBXX 46092 20061 99368 71220 46/// /3502 10113 40187 51011 90557 22200 00124 555 11015 22015
BBXX 44040 20061 99410 70736 46/// /2708 10086 20019 40154 90615 22200 10301 70004 333 91209 555 11093 22113
BBXX 44029 20061 99425 70706 46/30 /2411 10076 40098 51004 90604 22200 00088 333 91213 555 11132 22140
BBXX 42085 20061 99179 70665 46/// /0405 10254 40162 90610 333 91207
BBXX 44058 20061 99376 70763 46/// /2509 10107 40185 58011 90600 22200 00087 10201 70005 333 91211
BBXX 44058 20061 99376 70763 46/// /2508 1//// 90610 333 91211
BBXX 44063 20061 99390 70764 46/// /0000 10091 40194 55000 90600 22200 00074 333 91203
BBXX 44063 20061 99390 70764 46/// /0000 1//// 90610 333 91203
BBXX 44041 20061 99372 70768 46/// /2704 10093 90600 22200 00085 333 91206
BBXX PBHZ 20063 99298 70720 41597 50412 10202 20111 40260 57014 70211 854// 22223 04266 20301 303// 40703 80148
BBXX VREX7 20063 99236 70910 41298 41221 10230 20215 40160 55010 70200 84408 22264 04230 20000 30708 40301 50301 80220
BBXX 46132 20061 99497 71279 46/// /2305 10095 40257 52017 22200 00092 11110 70051 333 91206
BBXX 46205 20061 99542 71343 46/// /3015 10070 40086 52081 22200 00078 11416 70079 333 91219
BBXX FLAO 2006/ 99764 70847 46/// ///// 11180 40000 52008
BBXX 46206 20061 99488 71260 46/// /2304 10092 40269 52004 22200 00090 11206 70031 333 91205
BBXX 46208 20061 99525 71327 46/// /2715 10079 40148 52035 22200 00077 11315 70074 333 91220
BBXX BAREU06 20064 99494 70657 46/// ///// 49990 52002 22224
AAXX 20064 65562 31420 6//// 10230 20223 3//// 4//// 71011 86500 333 20224 5//// 86613
BBXX KCDK 20064 99295 70861 41398 61319 10217 2019/ 40190 56015 70322 868// 22274 0//// 20302 314// 40804 5//// 6//// 80200 ICE /////
BBXX 46185 20061 99524 71298 46/// /2312 10083 40165 52016 22200 00075 10907 70036 333 91216
BBXX C6TQ6 20064 99209 70865 41697 41034 10260 20232 40160 55020 70311 8446/ 22244 00270 20308 32121 40306 50206 6//// 80240 ICE /////
BBXX 44060 20061 99413 70721 46/// ///12 10085 40131 90615 22200 00100 333 91214 555 11129 22139
BBXX 44033 20061 99441 70690 46/30 /2707 10063 40065 54000 90604 22200 00068 10802 70011 333 91208 555 11087 22092
BBXX 44034 20061 99441 70681 46/30 /2611 10070 40055 57005 90604 22200 00085 10807 70034 333 91213 555 11138 22146
BBXX 44022 20061 99409 70737 46/// ///07 10085 20013 40150 90615 22200 00081 333 91209 555 11077 22088
BBXX 44039 20061 99411 70727 46/// /2511 10092 20032 40147 57005 90600 22200 00094 10503 70014 333 91215
BBXX 46088 20061 99483 71232 46/// /1506 10072 40280 90620 22200 00079 10401 20401 70005 333 91207 555 11059 22062 30544 41409 60619 152058 144061 141061 140076 141078 142074
BBXX 46087 20061 99485 71247 46/// /1908 10080 20073 40282 90620 22200 00078 333 91210 555 11082 22087 30616 41910 60619 186075 182066 180063 179057 174054 169048
BBXX 41036 20061 99342 70770 46/// ///// 10175 20108 40237 90620 22200 00180
BBXX WFLG 20064 99288 71385 41498 30413 10161 20133 40280 52010 70200 831// 22264 00156 20302 330// 40805 5//// 6//// 80144 ICE /////
BBXX HZDD 20063 99042 11118 41498 51610 10292 20247 40059 50012 70322 83942 22264 04280 20205 33199 40205 5//// 80260
BBXX VROB 20064 99380 31496 46/// /2417 10169 20126 30127 40153 52007 22253 04172 85143
BBXX C6FS9 20064 99274 31531 46/// /0211 10248 20165 30084 40120 57013 22200 04244 85193
BBXX VNAH 20064 99333 31157 46/// /2412 10227 20113 30087 40110 57021 22200 04227 85158
BBXX 9HA2479 20064 99296 31572 46/// /0317 10219 20143 30112 40141 57001 22214 04219 85171
BBXX V2OG2 20063 99253 31126 41998 01922 10250 20196 40090 56018 70000 80000 22233 20403 318// 40505 80213
BBXX WC5932 20064 99417 70874 43/// /0415 00/// 10039 21022 40229 5//// 7//// 8//// 22200 0//// 2//// 3//// 4//// 5//// 6//// 80016 ICE /////
BBXX WDA2768 20064 99458 70871 43/// /0401 00/// 11026 21072 40243 52007 7//// 8//// 22200 0//// 2//// 3//// 4//// 5//// 6//// 81042 ICE /////
BBXX FHZI 20064 99648 31464 46/// /2926 10022 21006 39853 49864 52027 22231 05017 85011
BBXX ZSAF 20064 99672 50026 41499 70000 11027 21047 49861 52004 70322 875// 22243 05003 2//// 300// 40000 5//// ICE 58498
BBXX EIPT 20064 99518 70058 41/97 52916 10080 20038 40137 52015 70222 8/// 22200 20201 3//// 4//// 5/// 80060
BBXX MINUK04 2006/ 99531 10030 46/// ///// 10083 4//// 57004
BBXX MINFR05 2006/ 99339 70134 46/// ///// 10155 40286 57009
BBXX MINUK03 2006/ 99546 70005 46/// ///// 10068 49995 57021
BBXX MINUK05 2006/ 99604 70044 46/// ///// 10058 40008 52012
BBXX MINUK01 2006/ 99598 70012 46/// ///// 10068 49981 52013
BBXX BAREU12 20064 99573 10082 46/// ///// 40002 57007 22253
BBXX WKDY 20064 99360 10160 41298 62919 10110 20072 40160 54000 78388 8626/ 22234 00182 20304 329// 40504 5//// 6//// 80090 ICE /////
BBXX KABL 20064 99367 70003 41598 23111 10150 2008/ 40270 56005 70200 821// 22214 00170 20201 331// 40402 5//// 6//// 80110 ICE /////
BBXX WRAH 20063 99355 70168 41698 10713 10170 2//// 40272 56003 70200 814// 22264 00189 20202 30229 40605 50805 6//// 8//// ICE /////
BBXX C6KD4 20063 99426 70192 41297 83211 10135 20126 40308 52005 7//52 897// 22254 02151 20803 328// 41003 80130
BBXX UANA 20061 99698 10433 41/93 91911 10016 40002 52001 76972 8//// 22222 00036 20605
BBXX 44099 20061 99369 70757 46/// ///// 1//// 90622 22200 00113 11102 21002 310// 41101 70012
BBXX 44039 20061 99411 70727 46/// /2511 10091 20033 40147 90553 22200 00094 10503 70014 333 91215
BBXX 42362 20061 99278 70907 46/// /1708 10228 20183 40166 90630
BBXX 42364 20061 99291 70881 46/// /1610 10200 20183 40190 90630
BBXX 44060 20061 99413 70721 46/// ///11 10084 40132 90630 22200 00099 333 91214 555 11124 22129
BBXX 44022 20061 99409 70737 46/// ///07 10086 20014 40150 90630 22200 00080 333 91209 555 11072 22077
BBXX 44040 20061 99410 70736 46/// /2708 10086 20019 40154 90619 22200 10301 70004 333 91209 555 11093 22113
BBXX 46238 20061 99334 71195 46/// ///// 1//// 90620 22200 00144 11503 20702 329// 41503 70017
BBXX 46239 20061 99363 71221 46/// ///// 1//// 90621 22200 00131 11407 21004 331// 41406 70036
BBXX 46219 20061 99332 71199 46/// ///// 1//// 90628 22200 00136 11405 20803 330// 41404 70024
BBXX 46214 20061 99379 71235 46/// ///// 1//// 90625 22200 00118 11107 20904 331// 41105 70033
BBXX 51204 20061 99213 71581 46/// ///// 1//// 90622 22200 00245 11203 20702 331// 41202 70014
BBXX 51202 20061 99214 71577 46/// ///// 1//// 90609 22200 00245 10906 20906 307// 41102 70030
AAXX 20064 91723 NIL
AAXX 20064 91964 NIL
AAXX 20064 42492 31994 02702 10106 20073 40191 71144 333 59004
AAXX 20064 42587 31995 02704 10182 20066 40177 70500 333 59005
AAXX 20064 42591 31994 02905 10126 20095 40190 71000 333 59003
AAXX 20064 42701 31995 03205 10206 20022 39421 40151 70500 333 59008
AAXX 20064 42798 31995 00000 10226 20024 40154 70500 333 59007
AAXX 20064 42886 31996 01401 10244 20044 40162 70500 333 59001
AAXX 20064 42971 31995 10506 10236 20097 40161 70500 80001 333 59003 81075
AAXX 20064 43333 31496 30909 10302 20188 40103 70511 82401 333 56209 59021 81620 83070
AAXX 20061 31825 42999 00000 11123 21206 30005 40222 56008
AAXX 20060 67597 32580 31205 10272 20179 39552 48531 81132 333 20251 5//// 55/// 59007 81820 83080 555 10300 7//91
AAXX 2006/ 89327 46/// ///// 11023 39647 4//// 5////
AAXX 20064 63729 11480 70000 10192 20177 38886 48/// 60074 71422 8297/ 333 0//59 20175 50181 55033 55300 59002 82616 81918 86358
AAXX 20064 63801 12580 20000 10230 20200 39220 48543 69904 81931 333 0//19 20194 50301 55048 55310 58002 81820 81921
AAXX 20064 63862 01380 80910 10210 20197 38917 48522 60124 76162 8491/ 333 0//59 20205 50521 55076 55300 58002 60047 70117 81708 84621 81922 88458
AAXX 20064 63866 12480 70000 10225 20216 39535 48000 60124 875// 333 20212 55300 59004 87615
AAXX 20061 01025 17/66 71601 10006 21011 39959 49970 54001 69902 700// 333 20002 43025 79999 91103
AAXX 20061 01271 17969 82404 10025 21020 39969 49990 52008 60012 700// 333 21018 42005 70080 91110
AAXX 20061 01415 17684 81204 11007 21021 39996 40007 52001 6//// 700// 333 21018 91105
BBXX 44137 20061 99423 70620 46/// /2612 10095 40101 5//// 22200 00105 11206 70031 333 91218
AAXX 20060 44214 32998 12805 11174 21259 38416 40569 58002 81040
AAXX 20060 44231 31999 52906 11134 21226 38795 40436 58002 73632 84049 333 91112
AAXX 20060 44259 31997 73107 11165 21215 39291 40249 58014 73630 87070 333 91112
AAXX 20060 44277 32999 22703 11153 21234 37884 40521 58001 80002
AAXX 20060 44288 32899 43410 11076 21189 38174 40275 57011 83044 333 91114
AAXX 20060 44292 31891 72602 11202 21243 38722 40376 57006 70422 84018
AAXX 20060 44304 32999 62304 11205 21245 38994 40312 57009 82046
AAXX 20060 44354 32999 00000 11219 21244 39126 40356 57017
AAXX 20060 44373 32999 22903 11120 21194 38580 40361 58008 80004
AAXX 20064 63705 12560 333203 10226 20196 38871 48526 60164 81103 333 20184 59004 81823 83270 555 10204
BBXX 44137 20061 99423 70620 46/// /2612 10095 40101 5//// 22200 00105 11206 70031 333 91218
AAXX 20061 31152 42998 40000 11360 21397 39785 40242 57006 80002
AAXX 20061 31163 NIL
AAXX 20061 31285 42999 02001 11221 21278 30133 40218 57002
AAXX 20061 31561 42999 01804 11196 21222 30200 40230 57005
AAXX 20061 31683 42999 00000 11117 21200 30134 40211 56001
AAXX 20061 32010 42998 22704 11194 21227 30128 40180 53010 80001 333 91005 91107
AAXX 20064 71923 16/// ///13 11164 21177 39429 49872 53014 60001 333 11121 21262 70000
AAXX 20064 71963 46/// /0413 11226 21247 39540 49949 6///1 333 11177 21310 7////
AAXX 20064 71490 16/// /0310 11308 21336 39672 40006 51023 60001 333 7////
AAXX 20064 71277 46/// /2307 10031 21003 6///1 333 10045 21097 7//// 555 31822 40091
AAXX 20064 71592 16/// /1203 11253 21309 39939 49952 53014 60001 333 11191 21277 70000
AAXX 20064 71761 16/// ///// 10017 21028 60001 333 10023 21116 70000
AAXX 20064 63688 32580 30906 10175 20127 48/// 82931 333 20074 59002 81921 83076
AAXX 20064 63695 32980 00000 10214 20128 33 20116
AAXX 20064 63708 32580 30000 10218 20182 48510 81230 48510 81230 333 20172 20172 58000 81822 83359
AAXX 20064 63772 42580 60910 10294 20253 862// 333 20259 86821
AAXX 20064 63820 32580 60310 10297 20230 40125 861// 333 20204 58001 86821
AAXX 20064 63612 NIL
AAXX 20064 63661 NIL
AAXX 20064 63671 NIL
AAXX 20064 63714 NIL
AAXX 20064 63723 NIL
AAXX 20064 63740 NIL
AAXX 20064 63793 NIL
AAXX 20064 89577 46/// /2607 11235 35828 4//// 5////
AAXX 2006/ 89767 46/// ///// 11123 39652 4//// 5////
AAXX 20060 44203 32599 70000 11303 21327 38485 40552 52002 82570
AAXX 20060 44207 32999 63206 11124 21207 38351 40345 52011 82046
AAXX 20060 44212 32999 70000 11285 21315 39349 40642 51000 8701/
AAXX 20060 44213 32999 70401 11273 21309 38958 40632 57004 87010
AAXX 20060 44215 32998 40000 11196 21229 38539 40538 54000 82042
AAXX 20060 44218 32998 03301 11219 21259 38760 40575 52003
AAXX 20060 44225 41998 70000 11278 21296 38378 40608 58003 70272 84041
AAXX 20060 44230 32698 60000 11154 21210 38842 40416 53001 82518
AAXX 20060 44232 32999 62001 11172 21216 39161 40378 54002 86010
AAXX 20060 44237 32999 82706 11111 21184 38534 40345 58002 8802/
AAXX 20060 44239 32999 73406 11103 21177 38825 40298 50004 87070 333 91113 555 99807
AAXX 20060 44241 41997 81801 11199 21218 39310 40370 57002 77172 8802/
AAXX 20060 44256 32699 82509 11117 21161 39307 40200 57026 8351/
AAXX 20060 44265 32999 00000 11159 21210 39018 40537 51005
AAXX 20060 44272 32998 70000 11231 21287 38336 40548 58003 85077
AAXX 20060 44275 32998 50000 11114 21187 37770 40388 57003 83044
AAXX 20060 44282 31999 73211 11105 21221 38326 40342 57007 73632 87070 333 91116
AAXX 20060 44284 32899 70000 11225 21266 37893 40540 56005 85034
AAXX 20060 44285 32699 63407 11094 21184 38347 40335 56006 83542 333 91112
AAXX 20060 44287 32899 41604 11160 21232 38159 40445 58006 81042
AAXX 20060 44294 32998 73208 11175 21223 38561 40362 56008 87070
AAXX 20060 44298 32999 03205 11172 21184 38713 40319 57010
AAXX 20060 44302 31999 62708 11198 21244 39113 40312 56006 70231 81048
AAXX 20060 44305 32999 32905 11206 21248 39049 40301 57015 80004
AAXX 20060 44313 32999 02004 11153 21223 39385 40268 57021
AAXX 20060 44314 32998 42908 11156 21207 39113 40264 57021 82044
AAXX 20060 44317 32998 22705 11137 21189 38925 40259 57020 80001
AAXX 20060 44336 32999 02604 11117 21185 38731 40373 57014
AAXX 20060 44341 32999 13010 11118 21193 38611 40331 57019 81040 333 91114
AAXX 20060 44347 31997 02710 11127 21199 38748 40353 57020 70900
AAXX 20060 44352 32999 02709 11190 21216 38908 40306 57013
AAXX 20060 44358 32998 02507 11111 21164 39117 40324 57023
AAXX 20064 71963 46/// /0413 11226 21247 39540 49949 6///1 333 11177 21310 7////
AAXX 20064 71490 16/// /0310 11308 21336 39672 40006 51023 60001 333 7////
AAXX 20064 71277 46/// /2307 10031 21003 6///1 333 10045 21097 7//// 555 31822 40091
AAXX 20064 71592 16/// /1203 11253 21309 39939 49952 53014 60001 333 11191 21277 70000
AAXX 20064 71923 16/// ///13 11164 21177 39429 49872 53014 60001 333 11121 21262 70000
AAXX 20064 42189 31/92 90000 10092 20092 40198 74344 89/// 333 58000
BBXX 44138 20061 99443 70536 46/// /3314 10028 40043 52014 22200 00096 11109 70047 333 91217
BBXX 44138 20061 99443 70536 46/// /3314 10028 40043 52014 22200 00096 11109 70047 333 91217
AAXX 2006/ 89866 46/// ///// 11036 39695 4//// 5//// 90620
AAXX 20060 44210 32999 60000 11200 21233 38679 51005 84030
AAXX 20060 44216 32999 50000 11277 21301 39208 40644 51005 82038
AAXX 20060 44217 32998 00000 11210 21250 37977 40604 51003
AAXX 20060 44219 32998 00000 11260 21291 38779 40615 56005
AAXX 20060 44221 41995 80000 11278 21309 38739 40620 58003 77172 8802/
AAXX 20060 44224 32998 40000 11253 21277 38156 40588 58002 81048
AAXX 20060 44229 41997 82705 11166 21200 37975 40442 58013 77073 8802/
AAXX 20060 44242 41997 80000 11239 21265 39381 40396 52003 77172 8802/
AAXX 20060 44243 41999 70000 11240 21269 39483 40407 51001 70272 87070
AAXX 20060 44254 32998 72503 11137 21202 39018 40254 56012 87050
AAXX 20060 44257 32598 73205 11119 21200 38961 40281 58007 86540
AAXX 20060 44263 32998 00000 11217 21274 38184 40607 58004
AAXX 20060 44266 32999 00000 11178 21219 37853 40492 52002
AAXX 20060 44286 31998 52708 11119 21170 38671 40334 57003 73631 81044
AAXX 20060 44291 31895 70000 11238 21270 38761 40428 58006 70421 84074
AAXX 20060 44325 32999 00902 11136 21188 38957 40442 57003
AAXX 20060 44329 32998 03410 11128 21211 37809 40396 50000
AAXX 20060 44338 32999 01801 11114 21176 38528 40365 57007
AAXX 20060 44348 31997 02912 11162 21188 38695 40323 58017 73630 333 91114
AAXX 20060 44374 32999 03406 11075 21244 38302 40363 58005
AAXX 20060 44385 32999 12703 11070 21170 38966 40330 58008 80004
AAXX 20060 44386 32999 02710 11128 21180 39084 40322 57019
AAXX 20061 10400 01235 81505 10007 20006 30013 40064 56014 60052 76976 886// 333 10029 20000 3/000 44002 55000 55300 20000 30000 60037 70051 85704 88710 91114 96010 96473
AAXX 20064 67002 11575 70404 10250 20235 30101 40135 69964 72996 8397/ 333 20238 58008 83920 85630 86460 92408
AAXX 20064 67009 32582 32812 10295 20246 39990 40108 51006 82902 333 02300 10310 20235 50324 55070 82820 81920 94978 95838 555 82075
AAXX 20064 67012 12582 52606 10300 20247 30099 40110 51011 60034 84232 333 0//19 10290 20225 50094 55/// 84820 555 81360 81075=3.1 67025 12580 10000 10317 20229 39989 40087 51005 60054 81800 333 0//// 10324 20234 50234 55/// 81820 555 81640
AAXX 20064 67027 32582 11810 10299 20203 30085 40106 52015 81232 333 02000 10310 20250 50374 55035 81820 555 81360 81073
AAXX 20064 67045 NIL
BBXX 46004 20061 99509 71361 46/// /2713 10073 40234 52045 22200 00075 11415 70076 333 91216
BBXX 46036 20061 99484 71339 46/// /2707 10086 40283 52025 22200 00085 11508 70042 333 91209
BBXX 46181 20061 99538 71288 46/// /2010 10076 40112 52023 22200 00065 10301 70005 333 91212
BBXX 46183 20061 99536 71311 46/// /2211 10074 40096 52012 22200 00079 10805 70024 333 91213
BBXX 46185 20061 99524 71298 46/// /2312 10083 40165 52016 22200 00075 10907 70036 333 91216
BBXX 46204 20061 99514 71288 46/// /1908 10090 40221 52021 22200 00085 11210 70049 333 91211
BBXX 46205 20061 99542 71343 46/// /3015 10070 40086 52081 22200 00078 11416 70079 333 91219
BBXX 46206 20061 99488 71260 46/// /2304 10092 40269 52004 22200 00090 11206 70031 333 91205
BBXX 46208 20061 99525 71327 46/// /2715 10079 40148 52035 22200 00077 11315 70074 333 91220
BBXX WDB9918 20064 99534 71385 41496 72837 10061 20050 40160 52060 76062 879// 22272 00067 20611 328// 4//// 5//// 6//// 80056 ICE /////
BBXX WFLH 20063 99303 71334 43/// 70319 10161 20124 40283 52005 7//// 877// 22213 00178 20501 332// 41205 5//// 6//// 80139 ICE /////
AAXX 20064 68040 32960 10237 20097 48526 52011 83580 333 20175
AAXX 20064 68054 32960 01502 10227 20136 48539 52007 333 20146
AAXX 20064 68226 32960 20208 10260 20065 48520 52010 81084 333 20185
AAXX 20064 67072 12681 60208 10284 20229 30094 40097 51006 60104 86500 333 02509 10325 20271 50434 55/// 86640 92428=10.0 67073 11580 5//// 10282 20220 30081 40107 51014 60024 71500 85800 333 0//19 10317 20232 50//4 55/// 84820 555 82633=1.6 67083 32582 40000 10220 20146 38719 48494 51006 84200 333 0//00 20151 50484 55112 84820
AAXX 20064 67095 32480 50802 10302 20250 30079 40085 50010 83802 333 02200 10318 20225 50284 55/// 82817 83073 555 82633
AAXX 20064 67113 333 67117 NIL
AAXX 20064 67137 32480 1//04 10229 20144 38865 48472 51007 81202 333 0//00 10267 20145 50184 55/// 81817 555 81073
AAXX 20064 67143 32582 1//// 10/// 20/// 30084 40091 52008 81200 333 0//00 10/// 20/// 50//4 55/// 81820 92438
AAXX 20064 67152 32982 2//// 10220 20190 39162 48469 51006 82032 333 01400 10265 20147 50504 55/// 82360 555 81073
AAXX 20064 67157 11581 4//// 10/// 20/// 30086 40093 52016 60084 70162 84802 333 0//16 10/// 20/// 50//4 55/// 82820 84640 555 81073=8.2 67161 11565 60000 10242 20224 30072 40081 58002 60154 71562 86200 333 0//14 10308 20185 50504 55/// 86820=5.2 67197 11580 60000 10256 20197 30056 40066 51009 60044 70162 84870 333 01113 10223 20204 50174 55003 82820 83633 555 83460=3.7
AAXX 20061 14121 11495 82801 11026 21029 39902 40180 52001 69922 72844 886// 333 21026 3/103 42004 55000 70036 88717 92821 93100 555 20017 30026
AAXX 20064 42675 31996 53602 10210 20059 40169 70521 80001 333 59012 85070
AAXX 20064 42754 31996 41610 10254 20088 39511 40179 70511 80001 333 59015 84075
AAXX 20061 01311 47/84 01201 11018 21035 39943 40007 58001 700// 333 21020 91104
AAXX 2006/ 89667 46/// ///// 11040 39811 4//// 5////
AAXX 20061 98134 11450 80907 10210 20204 39946 40138 5//// 60041 76064 8552/ 333 56299 85617 88456
AAXX 20061 98223 31462 23607 10291 20240 40072 57038 70544 81866 333 56999 81619
AAXX 20061 98232 31570 80405 10255 20232 40129 58016 71542 8557/ 222// 20105 333 56199 85620 88358
AAXX 20061 98325 31462 53603 10315 20257 40067 58048 70544 82270 333 56999 82817 84359
AAXX 20061 98328 31459 31101 10252 20197 38501 40055 58019 74044 82201 333 56999 83814
AAXX 20061 98330 31475 60402 10320 20258 30050 40082 57034 70544 83230 333 56999 83818 85358
AAXX 20061 98336 11465 83603 10250 20246 30099 40104 57032 60211 72162 82527 333 56899 82615 83457 88275
AAXX 20061 98429 31560 63102 10294 20248 40080 57029 70544 84930 333 56999 81922 83823 85360
AAXX 20061 98430 11457 63601 10273 20252 40084 57024 60021 78086 84870 333 56999 84618 86358
AAXX 20061 98431 11470 30601 10290 20252 30033 40080 57032 60041 70564 81201 333 56999 81818
AAXX 20061 98440 11465 60000 10267 20251 30081 40086 57028 60061 72164 84230 333 56299 84815 84359
AAXX 20061 98444 11463 70401 10280 20260 30058 40077 58035 60221 78082 84378 333 56999 82918 84459 87270
AAXX 20061 98526 32575 81202 10325 20272 40068 57039 81107 333 56299 81820 88274 98315
AAXX 20061 98531 31570 62903 10318 20271 30059 40063 58040 70544 82202 333 56699 82820 85075
AAXX 20061 98536 NIL
AAXX 20061 98543 11475 70903 10298 20258 30060 40071 57028 69921 71482 83208 333 56299 83818 86272
AAXX 20061 98550 11460 60901 10304 20265 40065 57026 69941 72511 83972 333 56299 82915 83357
AAXX 20061 98618 32580 60906 10306 20261 40067 58035 82268 333 56299 82820 86274
AAXX 20061 98630 32575 30203 10314 20262 40124 58009 82201 222// 2//02 333 56199 82820
AAXX 20061 98637 NIL
AAXX 20061 98646 32460 60404 10298 20248 30064 40092 57025 81932 333 56999 81918 85359
AAXX 20061 98653 11462 70000 10289 20271 30010 40055 57029 69981 78084 83270 333 56999 83818 87358
AAXX 20061 98741 31470 20402 10308 20266 40079 57005 70544 82900 333 56199 82917
AAXX 20061 98747 31460 43202 10311 20258 39856 40058 57038 70544 83230 333 56999 83818
AAXX 20061 98753 31468 33602 10323 20264 40061 57027 70544 82201 333 56999 82816
AAXX 20061 98755 11575 60902 10287 20256 40064 58026 60091 70188 82270 333 56999 82820 86359
AAXX 20061 98836 32462 10402 10332 20258 40066 57029 81300 333 56999 81918
AAXX 2006/ 89872 46/// ///// 11035 39767 4//// 5//// 90610
AAXX 2006/ 89872 46/// ///// 11034 39765 4//// 5//// 90620
AAXX 2006/ 89869 46/// ///// 11043 39708 4//// 5//// 90620
AAXX 2006/ 89866 46/// ///// 11039 39698 4//// 5//// 90610
AAXX 2006/ 89329 46/// ///// 11063 38666 4//// 5//// 90620
AAXX 2006/ 89799 46/// ///// 11233 4//// 5//// 90620
AAXX 2006/ 89868 46/// ///// 11073 39730 4//// 5//// 90610
AAXX 2006/ 89868 46/// ///// 11066 39729 4//// 5//// 90620
AAXX 2006/ 89327 46/// ///// 11025 39832 4//// 5//// 90620
AAXX 2006/ 89332 46/// ///// 11034 39125 4//// 5//// 90620
AAXX 2006/ 89769 46/// ///// 11035 39783 4//// 5//// 90620
AAXX 2006/ 89769 46/// ///// 11035 39781 4//// 5//// 90630
AAXX 2006/ 89828 46/// ///// 11180 36500 4//// 5//// 90620
AAXX 2006/ 89108 46/// ///// 11224 36945 4//// 5//// 90610
AAXX 2006/ 89108 46/// ///// 11226 36946 4//// 5//// 90620
AAXX 2006/ 89879 46/// ///// 10039 39775 4//// 5//// 90620
AAXX 2006/ 89314 46/// ///// 11115 38157 4//// 5//// 90610
AAXX 2006/ 89314 46/// ///// 11114 38159 4//// 5//// 90620
AAXX 20064 89667 46/// /3316 11041 29076 39808 4//// 5//// 90620
AAXX 20064 89667 46/// /3316 11041 39809 4//// 5//// 90610
AAXX 20064 89667 46/// /3315 11041 39810 4//// 5////
AAXX 20064 94997 46/// ///// 10036 39878 49893 5////
AAXX 20064 94290 46/// /1516 10268 30056 40065 56011 90624
AAXX 20064 89807 46/// /1228 11017 29100 39435 4//// 5//// 90630 333 90700 91140
AAXX 20064 89807 46/// /1228 11017 29100 39435 4//// 5//// 90630 333 90700 91140
AAXX 20064 94997 46/// ///// 10036 39878 49893 5////
AAXX 20064 94290 46/// /1516 10268 30056 40065 56011 90624
AAXX 20064 94210 35/// /2711 10343 30041 40046 57018
AAXX 20064 94289 46/// /1415 10278 30049 40056 56011 90615
AAXX 20064 94379 46/// /1319 10260 30080 40089 56008 90626
AAXX 20064 71123 11874 82006 10004 21019 39173 40036 56028 60001 71422 87052 333 10028 21151 70000 555 10000 20000
AAXX 20064 67871 31970 20502 10192 20124 38567 48525 70500 80002 333 20103 59001 82075
AAXX 20064 71123 11874 82006 10004 21019 39173 40036 56028 60001 71422 87052 333 10028 21151 70000 555 10000 20000
BBXX 7JJA 20064 99360 11412 41698 10312 00 10070 20000 40205 57005 70200 81100 9//// 22200 00140 2//01 334 4//02 5 6//// 80040 ICE /////
AAXX 20061 55279 32980 02211 10014 21365 35682 57014 333 05304 21181 91123 91522
AAXX 20061 55472 32980 02213 10026 21356 35717 57013 333 05304 21148 91124 91525
AAXX 20061 55696 32980 03601 10044 21134 36338 57035 333 00102 21116
AAXX 20061 56079 32980 21601 10044 21155 36648 57033 80002 333 00004 21152
AAXX 20061 56106 32980 00201 11012 21253 36187 57038 333 05154 21176
AAXX 20061 56257 32980 02201 10074 21184 36249 57045 333 00004 21133
AAXX 20061 56374 32980 00706 10025 21049 37393 57050 333 00100 21052
AAXX 20061 56385 31/02 92702 11038 21038 36988 57034 74544 333 00201 21073
AAXX 20061 56954 32680 10000 10212 20115 40154 57039 81102 333 00051 20091
AAXX 20061 56966 32765 11105 10246 20101 40129 57056 81100 333 05102 20144
AAXX 20061 57237 32965 82001 10086 20020 40238 57037 8807/ 333 20050
AAXX 20061 57306 32961 81801 10084 20059 40242 57037 8807/ 333 20066
AAXX 20061 57604 31740 81601 10085 20053 40240 57047 71000 885// 333 20062
AAXX 20061 57707 31450 81102 10037 20014 38510 57039 71000 886// 333 00301 20011
AAXX 20061 57832 32665 80402 10047 20014 39501 40259 57032 885// 333 00251 20040
AAXX 20061 55228 32780 12705 11054 21313 35985 57005 81100 333 05400 21122
AAXX 20061 55578 32980 13602 10067 21268 36369 57022 80001 333 00053 21118
AAXX 20061 55664 32980 30000 10040 21239 36003 57021 80002 333 05151 21141
AAXX 20061 55773 32970 02205 10053 21264 36009 57020 333 05101 21134
AAXX 20061 56116 32980 02001 10023 21196 36319 57034 333 05101 21135
AAXX 20061 56137 32980 11601 10048 21205 36769 57050 80002 333 05152 21113
AAXX 20061 56172 32980 02201 10084 21077 37308 57062 333 00102 21067
AAXX 20061 56247 32980 00201 10098 21148 37409 57060 333 05100 21044
AAXX 20061 56312 32980 01102 10065 21082 37083 57039 333 00052 21079
AAXX 20061 56462 32980 01603 10117 21118 37090 57062 333 00101 21070
AAXX 20061 56651 32980 02706 10139 21087 37622 57038 333 00101 21017
AAXX 20061 56691 11/06 91402 10014 20008 37768 57034 69901 76064 333 00354 21014 93428
AAXX 20061 56985 32960 02003 10159 20069 38709 40156 57039 333 00000 20087
AAXX 20061 57633 11465 81401 10059 20022 39457 40258 57037 69901 70060 887// 333 00100 20037
AAXX 20061 57902 11440 80402 10051 20051 38651 40219 57031 69951 76066 887// 333 00353 20049
AAXX 20064 42634 32996 00503 10234 20180 40153 333 59013
AAXX 20064 42647 32996 20000 10244 20122 40157 80001 333 59012 82075
AAXX 20064 42840 31995 00000 10276 20139 40152 70500 333 59016
AAXX 20064 42909 32997 60505 10282 20096 40147 80002 222// 20000 333 59013 86070
AAXX 20061 01218 11989 01801 11033 21038 39990 40012 55002 60002 70120 333 21035 43017 70034 91109
AAXX 20061 01115 11886 72005 10032 21017 39940 49961 52003 60002 70211 87070 333 20026 70000 91107
AAXX 20064 60514 11960 32606 10012 20004 39341 48559 53001 60004 700// 80002 333 05400 20009 83073 95990
AAXX 2006/ 48969 NIL
AAXX 2006/ 48962 NIL
AAXX 2006/ 48990 NIL
AAXX 2006/ 48986 NIL
AAXX 2006/ 48995 NIL
AAXX 2006/ 48967 NIL
AAXX 2006/ 48992 NIL
AAXX 2006/ 48965 NIL
AAXX 2006/ 48985 NIL
AAXX 2006/ 48970 NIL
AAXX 2006/ 48991 NIL
AAXX 2006/ 48964 NIL
AAXX 2006/ 48997 NIL
AAXX 2006/ 48968 NIL
AAXX 2006/ 48973 NIL
AAXX 2006/ 48966 NIL
AAXX 2006/ 48983 NIL
AAXX 2006/ 48972 NIL
AAXX 2006/ 48998 NIL
AAXX 2006/ 48993 NIL
AAXX 2006/ 48971 NIL
AAXX 2006/ 48963 NIL
AAXX 2006/ 48987 NIL
AAXX 20064 41184 42960 01009 10240 20089 40217 333 20158 58010
AAXX 20064 41194 12960 00810 10237 20062 30218 40223 60001 333 20177 58008
AAXX 20064 41196 42960 00809 10233 20063 30187 40226 333 20118 30011 58010
AAXX 20064 41198 42960 01011 10241 20069 40229 333 20218 58019
AAXX 20064 41217 42960 00707 10207 20103 30180 40209 333 20144 30012 58001
AAXX 20064 41218 41945 01019 10223 20063 39901 40208 70600 333 20158 30015 59002
AAXX 20064 62002 32960 00402 10060 20003 39513 48544 53006 333 20055 50184 55095
AAXX 20064 62010 12660 42507 10059 20027 40244 53011 69924 84800 333 0XX18 20059 50404 55050 83535 83460
AAXX 20064 62012 12560 22712 10103 20050 30192 40223 53008 60014 82100 333 0XX29 20100 20041 502184 82825
AAXX 20064 62016 32558 42610 10100 20041 40244 53010 84900 333 20090 50484 55032 81920 84625
AAXX 20064 62124 32960 01518 10077 20021 39702 40216 52025 333 20070 50674 550906
AAXX 20064 62161 32970 22603 10093 20078 40190 52017 82030 333 20079 50374 55096 82360
AAXX 20064 62259 32970 00000 10043 21015 40218 53012 333 20041 50604 55102
AAXX 20064 62271 32970 03105 10100 21009 40224 53012 333 20092 50564 55XXX
AAXX 20064 64700 32960 63606 10167 21018 39795 40137 80002 333 01200 20165 51191 55081 58010 86075
AAXX 20064 64701 NIL
AAXX 20064 64702 NIL
AAXX 20064 64705 NIL
AAXX 20064 64706 33960 72204 10160 20121 39648 40126 80002 333 01000 20157 51034 55085 58004 84075
AAXX 20064 64708 NIL
AAXX 20064 64709 NIL
AAXX 20064 64710 NIL
AAXX 20064 64713 NIL
AAXX 20064 64722 33960 60000 10160 20084 3//// 4//// 80002 90555 333 0//00 20125 50534 ///// 55/// 5////
AAXX 20064 64750 NIL
AAXX 20064 64751 NIL
AAXX 20064 64753 33960 20000 10150 21018 3//// 4//// 80002 88550 333 0//00 20135 5//// 55/// 5//// 82075
AAXX 20064 64754 NIL
AAXX 20064 64756 NIL
AAXX 20064 64757 NIL
AAXX 20064 64758 NIL
AAXX 20064 64761 NIL
AAXX 20064 71050 46/// /3204 10011 21012 39048 40127 58021 6///1 333 10034 21102 7////
AAXX 20064 71981 16/// /2408 10041 21038 60001 333 10052 21096 70000 555 32424 40041
AAXX 20064 71982 46/// /2808 10010 21039 6///1 333 7////
AAXX 20064 71986 16/// /1607 11015 21051 60001 333 10001 21156 7////
AAXX 20064 71990 17/// /1907 11097 21109 38391 49985 53008 69931 7//4/ 333 7////
AAXX 20064 71406 16/// /1105 11076 21105 30026 40036 58035 60001 333 11065 21087 70000
AAXX 20064 71418 46/// /1713 11014 21026 39979 40012 56059 6///1 333 11013 21044 7//// 555 30123 40091
AAXX 20064 71048 16/// /2407 10011 21043 60001 333 10011 21141 70000 555 32421 40221
AAXX 20064 71354 16/// /2307 10003 21031 60001 333 10032 21134 70000 555 32317 40211
BBXX 44056 20061 99362 70757 46/// ///// 1//// 90550 22200 00114 11102 21001 307// 41101 70008
AAXX 20064 71050 46/// /3204 10011 21012 39048 40127 58021 6///1 333 10034 21102 7////
AAXX 20061 13389 11596 83404 10016 20006 39816 40102 55000 60022 76162 888// 333 20016 31000 55000 70016
AAXX 20064 64700 32960 63606 10167 21018 39795 40137 80002 333 01200 20165 51191 55081 58010 86075
AAXX 20064 64701 NIL
AAXX 20064 64702 NIL
AAXX 20064 64705 NIL
AAXX 20064 64706 33960 72204 10160 20121 39648 40126 80002 333 01000 20157 51034 55085 58004 84075
AAXX 20064 64708 NIL
AAXX 20064 64709 NIL
AAXX 20064 64710 NIL
AAXX 20064 64713 NIL
AAXX 20064 64722 33960 60000 10160 20084 3//// 4//// 80002 90555 333 0//00 20125 50534 ///// 55/// 5////
AAXX 20064 64750 32965 60000 10190 20074 39693 40104 80002 90600 333 01200 20160 50661 ///// 55064 59006 86075
AAXX 20064 64751 NIL
AAXX 20064 64753 33960 20000 10150 21018 3//// 4//// 80002 88550 333 0//00 20135 5//// 55/// 5//// 82075
AAXX 20064 64754 NIL
AAXX 20064 64756 33962 40406 10177 21018 39509 4//// 80002 90600 333 0//00 20168 5//// ///// 55/// 58000 84075
AAXX 20064 64757 NIL
AAXX 20064 64758 NIL
AAXX 20064 64761 NIL
AAXX 20064 62002 32960 00402 10060 20003 39513 48544 53006 333 20055 50184 55095
AAXX 20064 62010 12660 42507 10059 20027 40244 53011 69924 84800 333 0//18 20059 50404 55050 83535 83460
AAXX 20064 62012 12560 22712 10103 20050 30192 40223 53008 60014 82100 333 0//29 20100 20041 52184 82825
AAXX 20064 62016 32558 42610 10100 20041 40244 53010 84900 333 20090 50484 55032 81920 84625
AAXX 20064 62124 32960 01518 10077 20021 39702 40216 52025 333 20070 50674 55090
AAXX 20064 62161 32970 22603 10093 20078 40190 52017 82030 333 20079 50374 55096 82360
AAXX 20064 62259 32970 00000 10043 21015 40218 53012 333 20041 50604 55102
AAXX 20064 62271 32970 03105 10100 21009 40224 53012 333 20092 50564 55///
AAXX 20064 71406 16/// /1105 11076 21105 30026 40036 58035 60001 333 11065 21087 70000
AAXX 20064 71418 46/// /1713 11014 21026 39979 40012 56059 6///1 333 11013 21044 7//// 555 30123 40091
AAXX 20064 71048 16/// /2407 10011 21043 60001 333 10011 21141 70000 555 32421 40221
AAXX 20064 71981 16/// /2408 10041 21038 60001 333 10052 21096 70000 555 32424 40041
AAXX 20064 71982 46/// /2808 10010 21039 6///1 333 7////
AAXX 20064 71986 16/// /1607 11015 21051 60001 333 10001 21156 7////
AAXX 20064 71990 17/// /1907 11097 21109 38391 49985 53008 69931 7//4/ 333 7////
AAXX 20064 71354 16/// /2307 10003 21031 60001 333 10032 21134 70000 555 32317 40211
AAXX 20064 16294 11997 03600 10040 21020 39933 40131 51001 69982 70191 333 20020 32/// 55/// 2//// 555 0216/
AAXX 20064 89657 46/// /3003 11006 20065 49900 57030
AAXX 20064 43110 31996 51405 10306 20103 40133 70544 80001 333 59004 85080
BBXX KS007 20064 99267 70801 43/// ///// 10218 40179 22200
BBXX KS089 20064 99533 10045 43/// /3230 10082 22243
BBXX KS044 20064 99315 31654 43/// /0914 10197 40181 22233 06211
BBXX KS098 20064 99443 71242 43/// /0516 10067 40298 22242 06000
AAXX 20064 67785 32980 60000 10191 20149 3//// 48/// 80001 333 20118 5//// 86080
AAXX 2006/ 89799 46/// ///// 11235 4//// 5//// 90610
AAXX 2006/ 89327 46/// ///// 11023 39868 4//// 5//// 90610
AAXX 20064 17237 12670 61808 10157 20048 39637 40131 57002 60002 86270 333 20119 31008 55027 83835 86360 91110
AAXX 20061 33393 11308 81302 11025 21034 39745 40148 57012 69952 78581 889// 333 21036 47001 86707 96047
AAXX 20061 98536 31470 40402 10278 20246 39878 40083 58045 70544 82260 222// 20000 333 56199 82818
BBXX A8MV6 20063 99171 10705 41396 10117 10280 20280 40130 54000 70022 81772 22273 04300 20602 315// 40801 5//// 80280
BBXX DCPL2 20064 99276 11225 41296 70515 10170 20128 40210 57/// 75855 86610 22254 00190 20602 309// 40803 80145
BBXX A8IP4 20063 99052 50814 41798 61510 10190 20159 40130 52020 70222 85464 22284 06180 20000 321// 40803 80170
BBXX UGWJ 20061 99003 30883 42398 63004 10302 40103 54000 86260 22252 00285 20201 32300 40602
BBXX UGWJ 20061 99003 30883 42398 63004 10302 40103 54000 86260 22252 00285 20201 32300 40602
BBXX WBS5272 20064 99425 70827 41/97 83617 10044 2//// 40271 5//// 70222 8//// 22252 0//// 20101 3//// 4//// 5//// 6//// 8//// ICE /////
BBXX 41052 20061 99183 70648 46/// /0609 10262 40155 90630 333 91211
BBXX 41052 20061 99183 70648 46/// /0609 10262 40156 90620 333 91211
BBXX 41052 20061 99183 70648 46/// /0508 10262 40157 90610 333 91210
BBXX 41053 20061 99185 70661 46/// /0708 10265 40161 90630 333 91210
BBXX 41053 20061 99185 70661 46/// /0708 10265 40162 90620 333 91210
BBXX 41053 20061 99185 70661 46/// /0708 10264 40164 90610 333 91209
BBXX 42085 20061 99179 70665 46/// /0506 10256 40160 90630 333 91207
BBXX 42085 20061 99179 70665 46/// /0606 10256 40161 90620 333 91208
BBXX 44024 20061 99423 70659 46/26 /2713 10089 40075 56029 90604 22200 00087 11107 70036 333 91217 555 11169 22181
BBXX 42360 20061 99267 70905 46/// /1508 10233 90600 22200 00241 10602 70012 333 91210
BBXX WRYW 20064 99245 10660 43/// /0222 10230 2007/ 40170 5//// 7//// 8//// 22215 00257 20505 303// 40705 5//// 6//// 80140 ICE /////
BBXX 7JJA 20064 99360 11412 41698 10312 00 10070 20000 40205 57005 70200 81100 9//// 22200 00140 2//01 334 4//02 5 6//// 80040 ICE /////
BBXX KS098 20064 99443 71242 43/// /0516 10067 40298 22242 06000
BBXX KS007 20064 99267 70801 43/// ///// 10218 40179 22200
BBXX 44056 20061 99362 70757 46/// ///// 1//// 90550 22200 00114 11102 21001 307// 41101 70008
BBXX 44138 20061 99443 70536 46/// /3314 10028 40043 52014 22200 00096 11109 70047 333 91217
BBXX DDSB2 20063 99237 70626 41698 60419 10230 20124 40200 54000 70311 8426/ 22214 20305 399// 40306 80165
BBXX 44137 20061 99423 70620 46/// /2612 10095 40101 5//// 22200 00105 11206 70031 333 91218
BBXX 46214 20061 99379 71235 46/// ///// 1//// 90625 22200 00118 11107 20904 331// 41105 70033
BBXX 46219 20061 99332 71199 46/// ///// 1//// 90628 22200 00136 11405 20803 330// 41404 70024
BBXX 46239 20061 99363 71221 46/// ///// 1//// 90621 22200 00131 11407 21004 331// 41406 70036
BBXX 44060 20061 99413 70721 46/// ///11 10084 40132 90630 22200 00099 333 91214 555 11124 22129
BBXX 44040 20061 99410 70736 46/// /2708 10086 20019 40154 90619 22200 10301 70004 333 91209 555 11093 22113
BBXX 46238 20061 99334 71195 46/// ///// 1//// 90620 22200 00144 11503 20702 329// 41503 70017
BBXX 44022 20061 99409 70737 46/// ///07 10086 20014 40150 90630 22200 00080 333 91209 555 11072 22077
BBXX 42364 20061 99291 70881 46/// /1610 10200 20183 40190 90630
BBXX 42362 20061 99278 70907 46/// /1708 10228 20183 40166 90630
BBXX 44039 20061 99411 70727 46/// /2511 10091 20033 40147 90553 22200 00094 10503 70014 333 91215
BBXX 44099 20061 99369 70757 46/// ///// 1//// 90622 22200 00113 11102 21002 310// 41101 70012
BBXX 42013 20061 99272 70829 46/// ///// 1//// 40220 90540 22200 00197
BBXX 41113 20061 99284 70805 46/// ///// 1//// 90621 22200 00212 10502 20502 70011
BBXX 42099 20061 99273 70842 46/// ///// 1//// 90627 22200 00231 10603 20603 70017
BBXX 41110 20061 99341 70777 46/// ///// 1//// 90621 22200 00139 11001 21001 310// 41101 70006
BBXX 44100 20061 99363 70756 46/// ///// 1//// 90622 22200 00114 11102 21002 308// 41101 70011
BBXX 41112 20061 99307 70813 46/// ///// 1//// 90621 22200 00157 11102 20402 309// 41101 70009
BBXX 42361 20061 99276 70925 46/// ///13 10228 20183 40149 56007 90630 555 11104 22111
BBXX 41009 20061 99285 70802 46/// /1309 10218 20137 40234 90620 22200 00250 10803 20602 300// 40802 70015 333 91211 555 11095 22100
BBXX 41010 20061 99289 70785 46/// /1406 10203 40244 90620 22200 00237 11003 20602 300// 41003 70016 333 91209 555 11067 22070
BBXX KS044 20064 99315 31654 43/// /0914 10197 40181 22233 06211
BBXX KS089 20064 99533 10045 43/// /3230 10082 22243
BBXX TBWUK35 20064 99555 70106 41/// 82926 10082 20030 40132 52010 70222 8//// 22283 00120 2//// 80060
BBXX UASP 20061 99692 10352 41/97 90000 11026 49984 54000 70371 8//// 222// 2////
BBXX 63119 20064 99583 10009 41698 83532 10067 20028 49982 52012 70222 885// 22200 20302 335// 40503 5////
AAXX 20061 28440 32599 82504 11060 21157 30072 40440 53013 86307 333 21086
AAXX 20061 28044 32599 22303 11084 21125 30192 40364 53006 82500 333 21082
AAXX 20061 28255 32599 82802 11076 21144 30263 40399 52012 82531 333 21109
AAXX 20061 28334 11499 82403 11082 21163 30128 40451 52007 69900 70273 888// 333 21084
AAXX 20061 28049 11999 22206 11089 21127 30196 40369 52010 69900 70271 82050 333 21094
AAXX 20061 28661 32997 82105 11160 21195 30388 40489 55002 83031 333 21198
AAXX 20061 28838 32997 82102 11180 21192 30025 40555 53002 8807/ 333 21233
AAXX 20061 23921 32699 31402 11087 21125 30205 40330 53010 83500 333 21108
AAXX 20061 28434 32699 81603 11079 21144 30184 40458 52006 885// 333 21100 88636
AAXX 20061 28138 11996 82304 11112 21125 39815 40423 52011 60010 77173 8802/ 333 21126
AAXX 20061 28216 11698 82005 11099 21120 30101 40402 52001 60020 77172 885// 333 21115
AAXX 20061 28541 31984 72705 11059 21169 39937 40455 53008 73632 87030 333 21105
AAXX 20061 28748 32960 82304 11129 21164 30257 40518 53001 8807/ 333 21183
AAXX 20061 28666 32998 61904 11162 21199 30298 40490 54001 84011 333 21203
AAXX 20061 28645 32967 81602 11087 21147 30168 40484 53001 8807/ 333 21168
AAXX 20061 28451 32998 82405 11073 21154 30264 40432 53004 8805/ 333 21101
AAXX 20061 28552 32597 72305 11101 21166 30340 40461 57004 85502 333 21173
AAXX 20061 28144 32499 32504 11083 21123 30226 40393 53009 82331 333 21089
AAXX 20061 28240 32598 72504 11079 21133 30081 40423 53014 87500 333 21074
AAXX 20061 28655 32998 72405 11126 21175 30249 40490 53003 84032 333 21188
AAXX 20061 28756 32998 72005 11158 21197 30356 40519 51006 82025 333 21196
BBXX A8RH4 20064 99050 11065 41395 83530 10260 20246 40050 5/020 71022 87627 22253 04270 20908 30302 41006 51005 80250
BBXX A8CG7 20060 99039 31100 41397 53109 10290 20242 40062 56010 70211 83770 22235 04306 2//// 80255
BBXX A8HJ8 20063 99012 11034 41396 83202 10288 20250 40088 54000 70122 83720 22200 00/// 20502 80260
BBXX DDZF2 20064 99064 11075 41397 70322 10270 20243 40070 58010 78022 85774 22214 00260 20605 301// 40804 80250
BBXX ELZU8 20063 99014 11044 41498 83622 10285 20237 40070 56005 70222 86248 22200 00/// 20305 336// 40406 80250
BBXX VQOG5 20064 99061 10965 41598 80612 10290 20241 40088 52020 70222 8427/ 22263 00277 20503 336// 40702 80256
BBXX VQIB9 20063 99042 10921 41/96 /0414 10260 20246 40084 54000 78086 8/720 22254 00/// 2//// 304// 40601 80250
BBXX VRDN3 20064 99061 10797 41398 80812 10270 20240 40130 53010 72162 8872/ 22265 00285 20504 333// 40504 80250
BBXX 9VDD3 20064 99346 71227 41698 53519 10120 20100 40200 54010 7//22 85/7/ 22234 00150 2//// 80110
BBXX 9MCN8 20064 99263 11264 41598 81317 10202 20128 40198 5//// 70321 88434 22253 00250 20601 333// 40908 80160
BBXX A8RH4 20064 99050 11065 41395 83530 10260 20246 40050 5/020 71022 87627 22253 04270 20908 30302 41006 51005 80250
BBXX A8CG7 20060 99039 31100 41397 53109 10290 20242 40062 56010 70211 83770 22235 04306 2//// 80255
BBXX A8HJ8 20063 99012 11034 41396 83202 10288 20250 40088 54000 70122 83720 22200 00/// 20502 80260
BBXX DDZF2 20064 99064 11075 41397 70322 10270 20243 40070 58010 78022 85774 22214 00260 20605 301// 40804 80250
BBXX ELZU8 20063 99014 11044 41498 83622 10285 20237 40070 56005 70222 86248 22200 00/// 20305 336// 40406 80250
BBXX VQOG5 20064 99061 10965 41598 80612 10290 20241 40088 52020 70222 8427/ 22263 00277 20503 336// 40702 80256
BBXX VQIB9 20063 99042 10921 41/96 /0414 10260 20246 40084 54000 78086 8/720 22254 00/// 2//// 304// 40601 80250
BBXX VRDN3 20064 99061 10797 41398 80812 10270 20240 40130 53010 72162 8872/ 22265 00285 20504 333// 40504 80250
BBXX 9VDD3 20064 99346 71227 41698 53519 10120 20100 40200 54010 7//22 85/7/ 22234 00150 2//// 80110
BBXX 9MCN8 20064 99263 11264 41598 81317 10202 20128 40198 5//// 70321 88434 22253 00250 20601 333// 40908 80160
AAXX 20061 47003 42980 01403 11012 21116 30252 40256 57023
AAXX 20061 47005 42980 01402 11100 21153 38590 57026
AAXX 20061 47022 42475 11101 11055 21126 38834 57029 81500
AAXX 20061 47028 42967 02001 11002 21066 30168 40265 57029
AAXX 20061 47031 42970 00000 11055 21116 38936 57029
AAXX 20061 47037 42970 00901 10002 21134 30149 40275 57028
AAXX 20061 47039 42960 00000 10003 21116 30075 40270 57033
AAXX 20061 47046 42969 31802 10029 21055 30228 40251 57025 80002
AAXX 20061 47050 42965 00000 10018 21090 30242 40277 57033
AAXX 20061 47052 42965 03204 10000 21090 39921 40267 57043
AAXX 20061 47060 41550 80501 10011 21006 30216 40275 57025 71000 884//
AAXX 20061 47061 42980 00000 10057 21076 30218 40262 57020
AAXX 20061 47065 42565 80000 10018 21043 30216 40282 57021 87502
AAXX 20061 47067 42965 80502 10018 21073 30182 40305 57020 80001
AAXX 20061 47068 42570 80000 10027 21050 30230 40266 57026 84502
AAXX 20061 47070 42970 20000 10036 21066 30191 40279 57019 82030
AAXX 20061 47075 42980 02302 10008 21113 39773 40207 57022
AAXX 20061 47008 42570 20000 11006 21054 30209 40264 57017 82550
AAXX 20061 47014 42950 00000 11081 21155 39865 40286 57010
AAXX 20061 47016 42970 00000 11071 21179 39373 40279 57047
AAXX 20061 47020 42965 00000 11040 21117 39892 40274 57033
AAXX 20061 47025 42577 71104 10008 21006 30231 40261 57014 87500
AAXX 20061 47035 42970 00000 10002 21103 30261 40270 57031
AAXX 20061 47041 42970 00000 10018 21101 30223 40251 57023
AAXX 20061 47055 42965 00000 10024 21063 30220 40266 57027
AAXX 20061 47058 42960 22901 10024 21089 30231 40280 57026 80002
AAXX 20061 47069 42665 80901 10012 21005 30178 40280 58025 885//
AAXX 20064 60602 11960 31006 10086 21016 40268 53010 60004 700// 83030 333 0//00 20083 83360 95990
AAXX 20064 60602 11960 31006 10086 21016 40268 53010 60004 700// 83030 333 0//00 20083 83360 95990
AAXX 20064 47778 15/70 /3007 10115 21023 30133 40217 55011 60001
AAXX 20064 47575 11/60 72809 11016 21051 30200 40205 53004 69901 72682 873//
AAXX 20064 64005 NIL
AAXX 20064 64006 NIL
AAXX 20064 64008 NIL
AAXX 20064 64018 NIL
AAXX 20064 64040 31110 51604 10238 20220 39644 40104 69924 71044 83530 333 0//00 20335 50/// 55521 58013 83603 85360
AAXX 20064 64062 NIL
AAXX 20064 64076 NIL
AAXX 20064 64108 NIL
AAXX 20064 64115 NIL
AAXX 20064 64115 NIL
AAXX 20064 64126 NIL
AAXX 20064 64146 NIL
AAXX 20064 64155 NIL
AAXX 20064 64180 31556 80000 10209 20/// 38301 4//// 70511 81108 333 0//00 20136 50/// 55/// 58013 81820 87281
AAXX 20064 64184 NIL
AAXX 20064 64207 NIL
AAXX 20064 64210 32457 73202 10246 20230 39765 40114 875// 333 0//00 20237 50/// 55/// 58003 81612 87616
AAXX 20064 64220 NIL
AAXX 20064 64222 NIL
AAXX 20064 64228 NIL
AAXX 20064 64235 NIL
AAXX 20064 64247 32458 50000 10227 20216 39386 48/// 8355/ 333 0//00 20214 50/// 55025 58005 83612 85362
AAXX 20064 64276 NIL
AAXX 20064 64282 NIL
AAXX 20064 64285 NIL
AAXX 20064 64315 NIL
AAXX 20064 64328 NIL
AAXX 20064 64360 12280 71804 10194 20169 38725 48502 69904 8157/ 333 0//00 20175 50/// 55/// 58000 81606 87360
AAXX 20064 65030 31958 70000 10145 20050 39088 40147 70522 80008 333 20142 58009 87280
AAXX 20064 65028 32960 60706 10145 20038 39580 40171 80008 333 20122 58009 87280
AAXX 20064 65046 32960 40306 10124 20043 39605 40171 80008 333 20124 58005 84280
AAXX 20064 65125 31940 60103 10240 20236 30075 40139 70522 80008 333 20157 58002 86280
AAXX 20064 65157 31950 70000 10190 20107 30930 40149 70522 80008 333 20178 59003 87280
AAXX 20064 65252 31905 70000 10217 20212 39979 40117 74442 80008 333 20121 58018 87280
AAXX 20064 65271 31950 60000 10166 20138 30024 40127 70522 80008 333 20148 58005 86280
AAXX 20064 89016 46/89 /1412 11063 29067 39423 4//// 5////
AAXX 20064 89003 46/89 /3210 11079 29066 39033 4//// 5////
AAXX 20064 89507 46/89 /1210 11209 29075 36836 4//// 5////
AAXX 20064 71848 16/// ///// 10029 21046 60001 333 10038 21093 70000
AAXX 20064 71399 16/// ///// 11028 21055 60001 333 11028 21141 70000
AAXX 20064 71565 17/// /1607 10016 21037 69971 7//4/ 333 10067 21167 70018 555 33019 40011
AAXX 20064 71566 16/// /2404 11005 21017 60001 333 11005 21102 70005
AAXX 20064 71567 16/// /2406 10002 21033 60001 333 10027 21125 70000 555 32219 40181
AAXX 20064 71073 16/// /2213 10034 21039 60001 333 10041 21097 70000 555 32626 40041
AAXX 20064 71012 16/// /2108 11027 21058 60001 333 11003 21137 70000 555 32222 40171
AAXX 20064 71013 46/// ///// 10018 21032 6///1 333 10023 21131 7////
AAXX 20064 71060 16/// /3303 10020 21038 38534 40088 58026 60001 333 10050 21127 70007 555 32724 40231
AAXX 20064 71495 16/// /2624 10049 21042 60001 333 10052 21095 70000 555 32735 40213
AAXX 20064 71793 16/// ///// 11030 21054 60001 333 11029 21169 70000
AAXX 20064 71974 46/// /1305 11355 21388 30021 40066 52011 6///1 333 11345 21384 7////
AAXX 20064 89646 46/// /0110 11153 29071 37620 4//// 5////
AAXX 20064 89648 46/// /2310 11212 29069 37181 4//// 5////
AAXX 20064 89659 46/// /2610 11154 29059 37687 4//// 5////
AAXX 20064 89661 46/// /0501 11058 29067 39232 4//// 5////
AAXX 20064 89662 42980 02718 10021 21150 39736 49840 57029 222 ICE 98015 333 10029
AAXX 20064 89666 46/// /3216 11042 29083 39639 4//// 5////
BBXX A8HD5 20061 99057 10845 41397 80211 10270 20241 40110 54000 76162 85997 22223 04270 20302 304// 40503 5//// 80250
BBXX TBWUK17 20063 99183 30814 41497 20910 10187 20239 40147 54000 70100 82145 22253 04280 20603 31312 40502 50603 80251
BBXX A8UQ2 20064 99252 10548 41597 20821 10245 20123 40190 51/// 70022 81//8 22253 00220 20302 304// 40203 5//// 80170
AAXX 20063 64400 32457 71606 10245 20230 30102 40121 8387/ 333 02400 20230 50114 55003 58006 81810 83623 87362
AAXX 20063 64401 32460 61804 10240 20215 39745 40117 86530 333 01800 20223 50194 55017 59001 81616 86640
AAXX 20064 64450 32457 83004 10244 20225 39763 40116 8687/ 333 02000 20234 50144 55013 58005 82813 86620 88463 94904 95834
AAXX 20063 64453 31360 72202 10210 20203 39/// 40/// 71792 8597/ 333 0//00 20173 50144 55021 5//// 84706 81930 87363 94941 95831
AAXX 20063 64456 41904 61802 10228 20228 39/// 40/// 74244 80080 333 0//00 20221 50154 55080 5//// 86360
AAXX 20063 64458 31440 60000 10215 20207 39711 40099 71011 83530 333 01600 20198 50244 55/// 58002 83610 86363
AAXX 20063 64459 11930 50000 10245 20235 39762 40122 69914 71092 80002 333 02059 20215 50244 55/// 59010 85080
AAXX 20063 64460 NIL
AAXX 20064 64402 31440 72804 10224 20215 39533 40106 71042 8653/ 333 02100 20220 50124 55026 59003 86610 83363
AAXX 20064 64403 32960 50000 10235 20225 39/// 40/// 85030 333 0//00 20210 50094 55/// 5//// 85363
AAXX 20064 64405 11105 80000 10212 20212 39/// 40/// 69954 74254 886// 333 0//62 20200 50174 55/// 5//// 88702
AAXX 20064 64406 32460 70000 10240 20233 39/// 40/// 8357/ 333 0//00 20/// 50/// 55/// 5//// 83613 87363
AAXX 20064 64452 32460 72202 10232 20228 39/// 40/// 8393/ 333 02300 20210 50074 55/// 5//// 83710 81930 85360 94947 95837
AAXX 20064 64454 11560 60000 10218 20198 39702 40120 60014 70196 81983 333 0//52 20200 50164 55/// 58024 81930 86080 94946 95836
AAXX 20064 64462 31906 50000 10225 20219 39/// 40/// 74244 80001 333 02100 20213 50184 55/// 5//// 85080
AAXX 20064 64463 31460 82804 10234 20228 39/// 40/// 71799 8392/ 333 0//00 20/// 50344 55/// 5//// 83810 81930 88460 94963 95833
AAXX 20064 64402 31440 72804 10224 20215 39533 40106 71042 8653/ 333 02100 20220 50124 55026 59003 86610 83363
AAXX 20063 64403 32960 50000 10235 20225 39/// 40/// 85030 333 0//00 20210 50094 55/// 5//// 85363
AAXX 20063 64405 11105 80000 10212 20212 39/// 40/// 69954 74254 886// 333 0//62 20200 50174 55/// 5//// 88702
AAXX 20063 64406 32460 70000 10240 20233 39/// 40/// 8357/ 333 0//00 20/// 50/// 55/// 5//// 83613 87363
AAXX 20063 64452 32460 72202 10232 20228 39/// 40/// 8393/ 333 02300 20210 50074 55/// 5//// 83710 81930 85360 94947 95837
AAXX 20063 64454 11560 60000 10218 20198 39702 40120 60014 70196 81983 333 0//52 20200 50164 55/// 58024 81930 86080 94946 95836
AAXX 20063 64462 31906 50000 10225 20219 39/// 40/// 74244 80001 333 02100 20213 50184 55/// 5//// 85080
AAXX 20063 64463 31460 82804 10234 20228 39/// 40/// 71799 8392/ 333 0//00 20/// 50344 55/// 5//// 83810 81930 88460 94963 95833
AAXX 20061 45032 NIL
AAXX 20061 45035 36/// /0102 10190 20104 30137 40180 57003
AAXX 20061 45039 36/// /0403 10179 20119 30165 40180 54000
AAXX 20061 45044 36/// /1206 10175 20127 30085 40178 54000
AAXX 20061 45032 NIL
AAXX 20061 45035 36/// /0102 10190 20104 30137 40180 57003
AAXX 20061 45039 36/// /0403 10179 20119 30165 40180 54000
AAXX 20061 45044 36/// /1206 10175 20127 30085 40178 54000
AAXX 20064 71848 16/// ///// 10029 21046 60001 333 10038 21093 70000
AAXX 20064 71495 16/// /2624 10049 21042 60001 333 10052 21095 70000 555 32735 40213
AAXX 20064 71012 16/// /2108 11027 21058 60001 333 11003 21137 70000 555 32222 40171
AAXX 20064 71013 46/// ///// 10018 21032 6///1 333 10023 21131 7////
AAXX 20064 71060 16/// /3303 10020 21038 38534 40088 58026 60001 333 10050 21127 70007 555 32724 40231
AAXX 20064 71565 17/// /1607 10016 21037 69971 7//4/ 333 10067 21167 70018 555 33019 40011
AAXX 20064 71566 16/// /2404 11005 21017 60001 333 11005 21102 70005
AAXX 20064 71567 16/// /2406 10002 21033 60001 333 10027 21125 70000 555 32219 40181
AAXX 20064 63688 32580 30906 10175 20127 48/// 82931 333 20074 59002 81921 83076
AAXX 20064 63695 32980 00000 10214 20128 333 20116
AAXX 20064 63708 32580 30000 10218 20182 48510 81230 333 20172 58000 81822 83359
AAXX 20064 63772 42580 60910 10294 20253 862// 333 20259 86821
AAXX 20064 63820 32580 60310 10297 20230 40125 861// 333 20204 58001 86821
AAXX 20064 63612 NIL
AAXX 20064 63661 NIL
AAXX 20064 63671 NIL
AAXX 20064 63714 NIL
AAXX 20064 63723 NIL
AAXX 20064 63740 NIL
AAXX 20064 63793 NIL
AAXX 20064 71399 16/// ///// 11028 21055 60001 333 11028 21141 70000
AAXX 20064 71073 16/// /2213 10034 21039 60001 333 10041 21097 70000 555 32626 40041
AAXX 20064 63705 12560 33203 10226 20196 38871 48526 60164 81103 333 20184 59004 81823 83270 555 10204
AAXX 20064 63688 32580 30906 10175 20127 48/// 82931 333 20074 59002 81921 83076
AAXX 20064 63695 32980 00000 10214 20128 333 20116
AAXX 20064 63708 32580 30000 10218 20182 48510 81230 333 20172 58000 81822 83359
AAXX 20064 63772 42580 60910 10294 20253 862// 333 20259 86821
AAXX 20064 63820 32580 60310 10297 20230 40125 861// 333 20204 58001 86821
AAXX 20064 63612 NIL
AAXX 20064 63661 NIL
AAXX 20064 63671 NIL
AAXX 20064 63714 NIL
AAXX 20064 63723 NIL
AAXX 20064 63740 NIL
AAXX 20064 63793 NIL
AAXX 20064 67002 11575 70404 10250 20235 30101 40135 69964 72996 8397/ 333 20238 58008 83920 85630 86460 92408
AAXX 20064 67009 32582 32812 10295 20246 39990 40108 51006 82902 333 02300 10310 20235 50324 55070 82820 81920 94978 95838 555 82075
AAXX 20064 67012 12582 52606 10300 20247 30099 40110 51011 60034 84232 333 0//19 10290 20225 50094 55/// 84820 555 81360 81075
AAXX 20064 67025 12580 10000 10317 20229 39989 40087 51005 60054 81800 333 0//// 10324 20234 50234 55/// 81820 555 81640
AAXX 20064 67027 32582 11810 10299 20203 30085 40106 52015 81232 333 02000 10310 20250 50374 55035 81820 555 81360 81073
AAXX 20064 67045 NIL
AAXX 20064 67072 12681 60208 10284 20229 30094 40097 51006 60104 86500 333 02509 10325 20271 50434 55/// 86640 92428
AAXX 20064 67073 11580 5//// 10282 20220 30081 40107 51014 60024 71500 85800 333 0//19 10317 20232 50//4 55/// 84820 555 82633
AAXX 20064 67083 32582 40000 10220 20146 38719 48494 51006 84200 333 0//00 20151 50484 55112 84820
AAXX 20064 67095 32480 50802 10302 20250 30079 40085 50010 83802 333 02200 10318 20225 50284 55/// 82817 83073 555 82633
AAXX 20064 67113 NIL
AAXX 20064 67117 NIL
AAXX 20064 67137 32480 1//04 10229 20144 38865 48472 51007 81202 333 0//00 10267 20145 50184 55/// 81817 555 81073
AAXX 20064 67143 32582 1//// 10/// 20/// 30084 40091 52008 81200 333 0//00 10/// 20/// 50//4 55/// 81820 92438
AAXX 20064 67152 32982 2//// 10220 20190 39162 48469 51006 82032 333 01400 10265 20147 50504 55/// 82360 555 81073
AAXX 20064 67157 11581 4//// 10/// 20/// 30086 40093 52016 60084 70162 84802 333 0//16 10/// 20/// 50//4 55/// 82820 84640 555 81073
AAXX 20064 67161 11565 60000 10242 20224 30072 40081 58002 60154 71562 86200 333 0//14 10308 20185 50504 55/// 86820
AAXX 20064 67197 11580 60000 10256 20197 30056 40066 51009 60044 70162 84870 333 01113 10223 20204 50174 55003 82820 83633 555 83460
BBXX 46241 20061 99330 71173 46/// ///// 1//// 90611 22200 00142 11402 20601 327// 41401 70009
AAXX 20064 89614 46/// /0626 11059 29100 38718 4//// 5//// 90630 333 90700 91133
AAXX 20064 89614 46/// /0626 11059 29100 38718 4//// 5//// 90630 333 90700 91133
BBXX 46216 20061 99343 71198 46/// ///// 1//// 90627 22200 00142 11503 20702 327// 41502 70013
BBXX 46223 20061 99335 71178 46/// ///// 1//// 90630 22200 00150 11502 21001 326// 41502 70009
BBXX 46231 20061 99327 71174 46/// ///// 1//// 90624 22200 00148 11402 20601 328// 41402 70012
BBXX 46222 20061 99336 71183 46/// ///// 1//// 90626 22200 00152 11502 20601 327// 41502 70010
BBXX 46242 20061 99332 71174 46/// ///// 1//// 90628 22200 00144 11301 20601 324// 41301 70007
AAXX 20061 89063 41597 83201 10009 20004 39888 49899 52007 76062 885//
AAXX 20064 67072 12681 60208 10284 20229 30094 40097 51006 60104 86500 333 02509 10325 20271 50434 55/// 86640 92428
AAXX 20064 67073 11580 5//// 10282 20220 30081 40107 51014 60024 71500 85800 333 0//19 10317 20232 50//4 55/// 84820 555 82633
AAXX 20064 67083 32582 40000 10220 20146 38719 48494 51006 84200 333 0//00 20151 50484 55112 84820
AAXX 20064 67095 32480 50802 10302 20250 30079 40085 50010 83802 333 02200 10318 20225 50284 55/// 82817 83073 555 82633
AAXX 20064 67113 NIL
AAXX 20064 67117 NIL
AAXX 20064 67137 32480 1//04 10229 20144 38865 48472 51007 81202 333 0//00 10267 20145 50184 55/// 81817 555 81073
AAXX 20064 67143 32582 1//// 10/// 20/// 30084 40091 52008 81200 333 0//00 10/// 20/// 50//4 55/// 81820 92438
AAXX 20064 67152 32982 2//// 10220 20190 39162 48469 51006 82032 333 01400 10265 20147 50504 55/// 82360 555 81073
AAXX 20064 67157 11581 4//// 10/// 20/// 30086 40093 52016 60084 70162 84802 333 0//16 10/// 20/// 50//4 55/// 82820 84640 555 81073
AAXX 20064 67161 11565 60000 10242 20224 30072 40081 58002 60154 71562 86200 333 0//14 10308 20185 50504 55/// 86820
AAXX 20064 67197 11580 60000 10256 20197 30056 40066 51009 60044 70162 84870 333 01113 10223 20204 50174 55003 82820 83633 555 83460
AAXX 20064 67002 11575 70404 10250 20235 30101 40135 69964 72996 8397/ 333 20238 58008 83920 85630 86460 92408
AAXX 20064 67009 32582 32812 10295 20246 39990 40108 51006 82902 333 02300 10310 20235 50324 55070 82820 81920 94978 95838 555 82075
AAXX 20064 67012 12582 52606 10300 20247 30099 40110 51011 60034 84232 333 0//19 10290 20225 50094 55/// 84820 555 81360 81075
AAXX 20064 67025 12580 10000 10317 20229 39989 40087 51005 60054 81800 333 0//// 10324 20234 50234 55/// 81820 555 81640
AAXX 20064 67027 32582 11810 10299 20203 30085 40106 52015 81232 333 02000 10310 20250 50374 55035 81820 555 81360 81073
AAXX 20064 67045 NIL
AAXX 20061 02924 11161 81901 10001 20001 39775 49972 52014 60024 783// 88/// 333 10006 21001 3/101 4/012
AAXX 20061 02981 11359 72512 10025 20011 30004 40014 52019 60032 780// 85/// 333 10039 20019 3////
AAXX 20061 02849 11533 81702 11019 21020 39698 49973 52005 60064 771// 88/// 333 11013 21023 3//// 4/025
BBXX 63110 20064 99595 10015 47495 /1914 10053 20031 49978 53001 763// 22200 10503 70015
BBXX 63106 20064 99610 10017 46/// /1616 10051 49973 57008 22200
BBXX 63113 20064 99610 10017 46/// /1617 10054 20013 49972 57008 22200 10503 70015
BBXX 62304 20064 99511 10018 46/98 /3130 10087 20048 40093 55003 22200 00112 10502 70010 333 90710 91138
BBXX 64045 20064 99591 70117 46/// /2924 10053 20026 40070 52006 22200 00101 10910 70049 333 90710 91134
BBXX 62107 20064 99501 70061 46/// /3321 10108 20051 40195 51018 22200 00116 10704 70019 333 90710 91129
BBXX 62094 20064 99517 70067 46/// /2919 10097 20064 40184 53011 22200 00105 18504 70019 333 90710 91125
BBXX 2AUO5 20063 99606 10016 41397 81517 10064 20043 49970 57010 76366 8/7// 22200 02081 20701 315// 40703 80055
BBXX 62103 20064 99499 70029 46/99 /3223 10105 20051 40164 52019 22200 00122 10703 70015 333 90710 91135
BBXX DDYZ2 20064 99476 70065 41/98 63528 10136 20089 40215 53005 7//// 8//// 22213 04130 2//// 80110
BBXX A8DH2 20063 99373 10060 41598 63028 10136 20082 40251 53009 76066 85728 22224 04178 20508 399// 40508 80109
BBXX V2BK8 20073 99400 70101 41/98 79904 10155 20102 40300 54000 7//// 8//7/ 22253 20000 331// 40902 80125
BBXX A8XY2 20064 99455 70194 41/92 /2813 10122 20122 40282 52004 74544 8//// 22254 04130 2//// 80122
BBXX 61001 20064 99434 10078 46/// /2208 10101 20000 40160 5//// 22200 00146 10502 70009
BBXX BATFR32 20064 99428 10095 46/// /2409 10089 21007 40169 56007 7//// 8//// 22224 00169
BBXX BATFR21 20064 99426 10089 46/// /2012 40170 57009 22261
BBXX 61002 20064 99421 10047 46/// ///20 10122 2//// 40204 57014 22200 00139 10604 70020 555 1/026
BBXX BATEU09 20064 99415 10126 46/// /3418 10057 20007 40160 52010 22232 00167
BBXX SHIP 20063 99405 10270 41397 80204 10130 2009/ 40110 56005 76066 8862/ 22200 00120 2//// 3//// 4//// 5//// 6//// 80110 ICE /////
BBXX BATFR33 20064 99394 10080 46/// /3227 10119 20020 40203 53006 22234 00164
BBXX BAREU51 20064 99393 10124 46/// ///// 40137 57008 22275
BBXX BAREU62 20064 99380 10156 46/// ///// 40144 52018 22244
BBXX WKAB 20064 99375 10106 41/98 83321 10105 20076 40201 52008 75052 8//// 22224 00164 2//// 3//// 4//// 5//// 6//// 80090 ICE /////
BBXX KABL 20064 99367 70003 41598 23111 10150 2008/ 40270 56005 70200 821// 22214 00170 20201 331// 40402 5//// 6//// 80110 ICE /////
BBXX BAREU56 20064 99365 10123 46/// ///// 40185 52009 22232
BBXX BATFR11 20064 99360 10155 46/// /1509 10124 20065 40158 53008 22262 00175
BBXX WKDY 20064 99360 10160 41298 62919 10110 20072 40160 54000 78388 8626/ 22234 00182 20304 329// 40504 5//// 6//// 80090 ICE /////
BBXX BAREU63 20064 99360 10223 46/// /1410 10155 29057 40124 52001 22262
BBXX DAXJ 20063 99345 10217 41598 52821 10149 20070 40160 52010 72582 8329/ 22224 00174 20504 332// 40705 5//// 80107
BBXX MINUK01 2006/ 99598 70012 46/// ///// 10068 49981 52013
BBXX 64045 20064 99591 70117 46/// /2924 10053 20024 40070 52006 22200 00101 10910 70049 333 90710 91134
BBXX BATFR04 20064 99591 70083 44498 52822 10059 21003 40062 53008 70122 852// 22222 00104 330// 40308 5////
BBXX BATUK01 20064 99585 70059 46/// /2823 10062 20002 40060 50010 22222 00105
BBXX 62112 20064 99584 70002 47597 /3020 10073 20014 40001 52026 700// 22200
BBXX 62113 20064 99584 10002 47698 /3226 10084 20032 49986 52016 700// 22200
BBXX 62129 20064 99584 10003 46/// ///// 10073 20028 49988 52018 22200
BBXX 62114 20064 99583 10000 46/// /3131 10076 20002 49997 51025 22200
BBXX AMOUK27 20064 99582 70064 46/// ///// 11192 2//// 30074 40078 52018 90550
BBXX PJAI 20064 99581 70014 47998 /3123 10068 20000 40025 52025 700// 22200
BBXX 62111 20064 99580 70003 46/// /3327 10062 20017 40022 52030 22200 10606 70031
BBXX 62117 20064 99579 10000 47697 /3233 10069 20034 40003 52023 700// 22200 10606 70032
BBXX AMOUK19 20064 99573 70019 46/// ///// 10044 20010 30033 40037 52039 90550
BBXX 62105 20064 99561 70122 46/// ///13 10086 20033 40146 57003 22200 00106 10708 70042
BBXX TBWUK35 20064 99555 70106 41/// 82926 10082 20030 40132 52010 70222 8//// 22283 00120 2//// 80060
BBXX 62105 20064 99554 70122 46/// /2913 10086 20033 40146 57003 22200 00106 10708 70042
BBXX EIPT 20064 99548 70058 41/97 52916 10080 20038 40137 52015 70222 8//// 22200 20201 3//// 4//// 5//// 80060
BBXX MINUK03 2006/ 99546 70005 46/// ///// 10068 49995 57021
BBXX AMOUK14 20064 99536 70039 46/// ///// 10084 20040 30085 40119 52008 90550
BBXX AMOUK03 20064 99535 10005 46/// ///// 10063 20038 30029 40058 54002 90550
BBXX 62095 20064 99530 70159 46/// /2113 10106 20080 40172 56020 22200 00113 10806 70029
BBXX 62301 20064 99524 70047 46/// /3117 10087 20055 40158 52019 22200 00088 10504 70021
BBXX EIPT 20064 99518 70058 41/97 52916 10080 20038 40137 52015 70222 8/// 22200 20201 3//// 4//// 5/// 80060
BBXX 62094 20064 99517 70067 46/// /2919 1//// 2//// 40184 53011 22200 00105 10504 70019 333 90710 91125
BBXX 62303 20064 99516 70051 46/// /3119 10103 20063 40170 52015 22200 00109 10605 70023 333 90710 91126
BBXX 62023 20063 99514 70079 46/96 /2914 10100 2//// 40205 5//// 22200 10504 70018 555 70029 81012
BBXX 62081 20064 99510 70134 46/// ///// 10110 20093 40218 58004 22200 00120 10705 70025
BBXX AMOUK10 20064 99508 10003 46/// ///// 10075 20044 30121 40117 52006 90550
BBXX BATEU01 20064 99507 70222 44/96 /2425 10122 20114 40187 51011 700// 22224 00119 21004 328// 41004 5////
BBXX BATFR42 20064 99506 70019 46/// /2913 10082 20054 40151 53023 22283 00114
BBXX VRYO3 20064 99505 70003 46/// /0720 10100 20111 40116 51023 7//// 8//// 22254 00121 2////
BBXX 62305 20064 99504 10000 46/98 /3128 10100 20058 40137 53012 22200 00120 10703 70013 333 90710 91133
BBXX AMOUK08 20064 99501 70061 46/// ///// 10112 20064 30190 40195 52012 90550
BBXX 62103 20064 99499 70029 46/99 /3325 10107 20062 40158 52018 22200 00122 10703 70015 333 90710 91131
BBXX WDC6907 20064 99497 70117 41/// /3213 10107 2010/ 40238 54000 700// 8//// 22223 00130 2//// 3//// 4//// 5//// 6//// 80102 ICE /////
BBXX WDD3826 20064 99494 70119 41398 73219 10140 2006/ 40250 54000 7//22 878// 22224 00100 20301 318// 40603 5//// 6//// 80100 ICE /////
BBXX BAREU08 20064 99491 70061 46/// ///// 40199 57009 22214
BBXX 62027 20064 99491 70022 46/// /3519 1//// 2//// 40165 53018 22200 00112 10904 331// 70018
BBXX 62442 20064 99490 70164 46/// /2415 1//// 2//// 40244 58004 22200 00126
BBXX C6CL6 20064 99489 70063 41498 83219 0/// 10120 2008/ 40200 52040 70322 8872/ 22263 00100 2//// 3//// 4//// 5//// 6//// 80100 0/0/0
BBXX BATFR54 20064 99489 70061 46/// /3232 10109 20060 40193 50002 22283 00119
BBXX TESTFR9 20064 99489 70040 46/// /3318 10113 29075 40215 52024 22244
BBXX 62029 20064 99487 70125 46/// /2810 10121 20093 40248 50003 22200 00130 10604 70022
BBXX BATFR12 20064 99482 70074 46/// /3115 10117 20087 40224 53002 22281 00142
BBXX DILE 20063 99476 70283 41/98 /2033 10133 20124 40208 52005 7//22 8//// 22224 2//// 80128
BBXX 62163 20064 99475 70084 46/// /3214 10115 20088 40240 53008 22200 00128 10605 70023
BBXX BATFR60 20064 99471 70024 46/// /3021 10117 20094 40183 56003 22223 00099
BBXX MSTM6 20063 99453 70085 41/98 22512 10135 20116 40257 51020 70200 8//// 22254 00136 20202 80125
BBXX 62001 20064 99453 70050 46/// /3015 10139 20133 40228 55001 22200 00142 10605 70027
BBXX BATFR09 20064 99451 70065 44597 83021 10134 20115 40252 53019 72052 887// 22253 00147 20614 60//0 ICE 0/0//
BBXX V2NA1 20064 99436 70293 41/98 31921 10150 20142 40265 54000 70200 8//// 22224 04140 20405 80145
BBXX BATFR16 20064 99430 70195 46/// /3114 10144 20142 40307 51014 22264 00152
BBXX C6KD4 20063 99426 70192 41297 83211 10135 20126 40308 52005 7//52 897// 22254 02151 20803 328// 41003 80130
BBXX C6IO9 20064 99396 70118 41898 30411 10144 20094 40313 53010 70100 8/065 22243 06157 20801 333// 40503 5//// 80188
BBXX DBBH 20061 99368 70115 41/98 20307 10146 20071 40306 53001 702// 22211 04178
BBXX KABL 20064 99367 70003 41598 23111 10150 2008/ 40270 56005 70200 821// 22214 00170 20201 331// 40402 5//// 6//// 80110 ICE /////
BBXX PFDH 20061 99365 70091 41998 00212 10158 20106 40292 58011 70200 80000 22234 00180 2//// 80128
BBXX PJFF 20064 99363 70252 41/97 62905 10175 20134 40308 54000 70022 8//// 22254 20300 30000 80150
BBXX SHIP 20063 99358 70124 41/97 50316 10149 40300 53001 70011 8//7/ 22283 20304
BBXX WRAH 20063 99355 70168 41698 10713 10170 2//// 40272 56003 70200 814// 22264 00189 20202 30229 40605 50805 6//// 8//// ICE /////
BBXX BATFR46 20064 99350 70066 44/97 00409 10147 20060 40270 52008 700// 22213 00174
BBXX 3FMV6 20063 99039 30079 41698 71816 10250 20220 40107 52010 40107 52010 70162 57070 22244 06258 20501 80230
BBXX BATFR19 20064 99065 30060 46/// /2212 10237 20199 40139 53015 22200 00255
BBXX A8PF5 20064 99073 30094 41398 62417 10250 20204 40125 53018 70211 8587/ 22244 20301 323// 40401 5//// 80220
BBXX A8JK4 20064 99074 30822 41297 82616 10250 20236 40075 57015 75052 847// 22214 20402 3//// 4//// 5//// 80240 46379 1473201224
BBXX SHIP 20064 99104 31057 41/95 81211 10261 20260 40007 76262 222// 0//// 20101 301// 40101 5////
BBXX BATFR55 20064 99112 30485 44598 32813 10282 20249 40117 70100 82142 22262 00282 20802 30808 410// 510//
BBXX PCSV 20063 99134 30635 41398 41310 10270 20254 40116 52010 70311 821/6 22253 04281 20602 314// 41403 80258 90553
BBXX A8IQ2 20060 99136 30671 41598 61407 10290 20247 40110 5/000 70322 8/748 22253 04290 20403 316// 40603 5//// 80258
BBXX OVYB2 20061 99241 30511 41598 60507 10291 20236 40124 52010 70222 8446/ 22253 00270 20502 30800 41004 5//// 80253
BBXX DEIR 20063 99261 30525 41498 40322 10265 20230 40125 53/// 70200 8426/ 22224 20903 80240
BBXX ONAR 20063 99337 30438 41598 40919 10240 2020/ 40200 54000 78062 8348/ 22263 00210 21205 306// 4//// 5//// 6//// 80210 ICE /////
BBXX PEBT 20063 99498 70027 41497 43224 10105 20077 40160 53010 7//22 845// 22213 02100 20503 329// 41104 5//// 80090
AAXX 20064 64700 32960 63606 10167 21018 39795 40137 80002 333 01200 20165 51191 55081 58010 86075
AAXX 20064 64701 NIL
AAXX 20064 64702 NIL
AAXX 20064 64705 NIL
AAXX 20064 64706 33960 72204 10160 20121 39648 40126 80002 333 01000 20157 51034 55085 58004 84075
AAXX 20064 64708 NIL
AAXX 20064 64709 NIL
AAXX 20064 64710 NIL
AAXX 20064 64713 NIL
AAXX 20064 64722 33960 60000 10160 20084 3//// 4//// 80002 90555 333 0//00 20125 50534 55/// 5////
AAXX 20064 64750 NIL
AAXX 20064 64751 NIL
AAXX 20064 64753 33960 20000 10150 21018 3//// 4//// 80002 333 0//00 20135 5//// 55/// 5//// 82075
AAXX 20064 64754 NIL
AAXX 20064 64756 NIL
AAXX 20064 64757 NIL
AAXX 20064 64758 NIL
AAXX 20064 64761 NIL
AAXX 20064 64700 32960 63606 10167 21018 39795 40137 80002 333 01200 20165 51191 55081 58010 86075
AAXX 20064 64701 NIL
AAXX 20064 64702 NIL
AAXX 20064 64705 NIL
AAXX 20064 64706 33960 72204 10160 20121 39648 40126 80002 333 01000 20157 51034 55085 58004 84075
AAXX 20064 64708 NIL
AAXX 20064 64709 NIL
AAXX 20064 64710 NIL
AAXX 20064 64713 NIL
AAXX 20064 64722 33960 60000 10160 20084 3//// 4//// 80002 90555 333 0//00 20125 50534 55/// 5////
AAXX 20064 64750 NIL
AAXX 20064 64751 NIL
AAXX 20064 64753 33960 20000 10150 21018 3//// 4//// 80002 333 0//00 20135 5//// 55/// 5//// 82075
AAXX 20064 64754 NIL
AAXX 20064 64756 NIL
AAXX 20064 64757 NIL
AAXX 20064 64758 NIL
AAXX 20064 64761 NIL
AAXX 20064 64700 32960 63606 10167 21018 39795 40137 80002 333 01200 20165 51191 55081 58010 86075
AAXX 20064 64701 NIL
AAXX 20064 64702 NIL
AAXX 20064 64705 NIL
AAXX 20064 64706 33960 72204 10160 20121 39648 40126 80002 333 01000 20157 51034 55085 58004 84075
AAXX 20064 64708 NIL
AAXX 20064 64709 NIL
AAXX 20064 64710 NIL
AAXX 20064 64713 NIL
AAXX 20064 64722 33960 60000 10160 20084 3//// 4//// 80002 90555 333 0//00 20125 50534 55/// 5////
AAXX 20064 64750 32965 60000 10190 20074 39693 40104 80002 90600 333 01200 20160 50661 55064 59006 86075
AAXX 20064 64751 NIL
AAXX 20064 64753 33960 20000 10150 21018 3//// 4//// 80002 333 0//00 20135 5//// 55/// 5//// 82075
AAXX 20064 64754 NIL
AAXX 20064 64756 33962 40406 10177 21018 39509 4//// 80002 90600 333 0//00 20168 5//// 55/// 58000 84075
AAXX 20064 64757 NIL
AAXX 20064 64758 NIL
AAXX 20064 64761 NIL
AAXX 20064 64700 32960 63606 10167 21018 39795 40137 80002 333 01200 20165 51191 55081 58010 86075
AAXX 20064 64701 NIL
AAXX 20064 64702 NIL
AAXX 20064 64705 NIL
AAXX 20064 64706 33960 72204 10160 20121 39648 40126 80002 333 01000 20157 51034 55085 58004 84075
AAXX 20064 64708 NIL
AAXX 20064 64709 NIL
AAXX 20064 64710 NIL
AAXX 20064 64713 NIL
AAXX 20064 64722 33960 60000 10160 20084 3//// 4//// 80002 90555 333 0//00 20125 50534 55/// 5////
AAXX 20064 64750 32965 60000 10190 20074 39693 40104 80002 90600 333 01200 20160 50661 55064 59006 86075
AAXX 20064 64751 NIL
AAXX 20064 64753 33960 20000 10150 21018 3//// 4//// 80002 333 0//00 20135 5//// 55/// 5//// 82075
AAXX 20064 64754 NIL
AAXX 20064 64756 33962 40406 10177 21018 39509 4//// 80002 90600 333 0//00 20168 5//// 55/// 58000 84075
AAXX 20064 64757 NIL
AAXX 20064 64758 NIL
AAXX 20064 64761 NIL
BBXX 46221 20061 99339 71186 46/// ///// 1//// 90615 22200 00150 11502 20601 326// 41501 70009
AAXX 20064 71502 16/// /1304 11286 21310 39999 40015 53010 60001 333 11213 21290 70000
AAXX 20064 71509 16/// /2527 10053 21053 60001 333 10055 21084 7////
AAXX 20064 71517 16/// /2730 10048 21049 60001 333 10053 21100 70000 555 32843 40023
AAXX 20064 71518 16/// /2417 10040 21033 60001 333 10052 21085 70000 555 32623 40051
AAXX 20064 71519 16/// /2514 10043 21043 60001 333 10043 21070 70004 555 32423 40061
AAXX 20064 71520 16/// /3114 11161 21179 39372 40054 53029 60001 333 11104 21190 70000
AAXX 20064 71521 16/// ///// 11125 21153 60001 333 11093 21144 70043
AAXX 20064 71522 46/// /2912 11117 21166 39591 40086 53033 6///1 333 21130 7////
AAXX 20064 71523 16/// ///// 11126 21158 39740 40121 51029 60001 333 11021 21126 70000
AAXX 20064 71528 16/// /2628 10037 21057 60001 333 10051 21079 70004 555 32638 40063
AAXX 20064 71102 16/// ///// 11007 21048 60001 333 10011 21143 70000
AAXX 20064 71105 16/// ///// 10022 21043 60001 333 10046 21089 70000
AAXX 20064 71383 16/// ///// 11133 21170 39448 40065 53030 60001 333 11078 21133 7////
AAXX 20064 71841 16/// /2205 11098 21113 39778 40187 58025 60001 333 11053 21122 70000 555 10010 33418 40071
AAXX 20064 71789 16/// ///// 10036 21062 60001 333 10058 21098 70000
AAXX 20064 71791 16/// /2310 10018 21041 60001 333 10032 21119 70000 555 32224 40171
AAXX 20064 71794 16/// ///// 11024 21055 60001 333 11003 21155 70000
AAXX 20064 71795 16/// ///// 10034 21047 60001 333 10041 21059 70000
AAXX 20064 71796 16/// ///// 11010 21049 60001 333 11001 21132 70000
AAXX 20064 71433 46/// /3305 11020 21066 39989 40224 58006 6///1 333 7////
AAXX 20064 71051 16/// ///// 11083 21097 60001 333 11009 21097 70000
AAXX 20064 71057 16/// ///// 10029 21033 60001 333 10047 21144 70000
AAXX 20064 71070 16/// ///// 10022 21037 60001 333 10038 21081 70004
AAXX 20064 71089 16/// ///// 10001 21046 60001 333 10010 21144 70000
AAXX 20064 71409 16/// ///// 11032 21057 60001 333 10022 21110 70004
AAXX 20064 71006 16/// /2412 10034 21027 60001 333 10034 21113 70000 555 32227 40171
AAXX 20064 71007 16/// ///// 10052 21058 60001 333 10066 21080 70005
AAXX 20064 71008 16/// /2411 10019 21027 60001 333 10028 21139 70000 555 32720 40061
AAXX 20064 71009 16/// /2516 10051 21021 60001 333 10056 21191 70000 555 32524 40051
AAXX 20064 71035 16/// ///// 10051 21025 60001 333 10054 21177 70000
AAXX 20064 71433 46/// /3305 11020 21066 39989 40224 58006 6///1 333 7////
AAXX 20064 71841 16/// /2205 11098 21113 39778 40187 58025 60001 333 11053 21122 70000 555 10010 33418 40071
AAXX 20063 63612 32980 02704 10266 20206 40136 333 20210 58004
AAXX 20063 63661 12980 00203 10184 20135 48543 60064 333 20110 58002
AAXX 20064 71383 16/// ///// 11133 21170 39448 40065 53030 60001 333 11078 21133 7////
AAXX 20064 71409 16/// ///// 11032 21057 60001 333 10022 21110 70004
AAXX 20064 71102 16/// ///// 11007 21048 60001 333 10011 21143 70000
AAXX 20064 71105 16/// ///// 10022 21043 60001 333 10046 21089 70000
AAXX 20064 71051 16/// ///// 11083 21097 60001 333 11009 21097 70000
AAXX 20064 71057 16/// ///// 10029 21033 60001 333 10047 21144 70000
AAXX 20064 71070 16/// ///// 10022 21037 60001 333 10038 21081 70004
AAXX 20064 71089 16/// ///// 10001 21046 60001 333 10010 21144 70000
AAXX 20064 71502 16/// /1304 11286 21310 39999 40015 53010 60001 333 11213 21290 70000
AAXX 20064 71509 16/// /2527 10053 21053 60001 333 10055 21084 7////
AAXX 20064 71517 16/// /2730 10048 21049 60001 333 10053 21100 70000 555 32843 40023
AAXX 20064 71518 16/// /2417 10040 21033 60001 333 10052 21085 70000 555 32623 40051
AAXX 20064 71519 16/// /2514 10043 21043 60001 333 10043 21070 70004 555 32423 40061
AAXX 20064 71520 16/// /3114 11161 21179 39372 40054 53029 60001 333 11104 21190 70000
AAXX 20064 71521 16/// ///// 11125 21153 60001 333 11093 21144 70043
AAXX 20064 71522 46/// /2912 11117 21166 39591 40086 53033 6///1 333 21130 7////
AAXX 20064 71523 16/// ///// 11126 21158 39740 40121 51029 60001 333 11021 21126 70000
AAXX 20064 71528 16/// /2628 10037 21057 60001 333 10051 21079 70004 555 32638 40063
AAXX 20064 71789 16/// ///// 10036 21062 60001 333 10058 21098 70000
AAXX 20064 71791 16/// /2310 10018 21041 60001 333 10032 21119 70000 555 32224 40171
AAXX 20064 71794 16/// ///// 11024 21055 60001 333 11003 21155 70000
AAXX 20064 71795 16/// ///// 10034 21047 60001 333 10041 21059 70000
AAXX 20064 71796 16/// ///// 11010 21049 60001 333 11001 21132 70000
AAXX 20064 71006 16/// /2412 10034 21027 60001 333 10034 21113 70000 555 32227 40171
AAXX 20064 71007 16/// ///// 10052 21058 60001 333 10066 21080 70005
AAXX 20064 71008 16/// /2411 10019 21027 60001 333 10028 21139 70000 555 32720 40061
AAXX 20064 71009 16/// /2516 10051 21021 60001 333 10056 21191 70000 555 32524 40051
AAXX 20064 71035 16/// ///// 10051 21025 60001 333 10054 21177 70000
AAXX 20064 87648 31950 00000 10155 20152 30070 40081 51001 71000 333 90005
AAXX 20064 07015 01565 82911 10064 20050 30038 40096 53006 60022 760// 885// 333 10070 20021 32002 55009 69927 70065 87629 90710 91118 93100 555 69925
BBXX VRZK9 20064 99139 10511 41698 10415 10240 20164 40170 53020 70200 8102/ 22264 00256 20504 304// 4//// 80190
BBXX VRZK9 20064 99139 10511 41698 10415 10240 20164 40170 53020 70200 8102/ 22264 00256 20504 304// 4//// 80190
AAXX 20061 14031 11996 30000 11050 21056 39940 40180 55004 60002 71000 83030 333 21051 34108 55000 79999 555 21004 30007
AAXX 20064 13625 11660 80000 10040 20012 39886 40122 54003 60092 76066 885// 333 20020 32/// 88633
AAXX 20061 89063 41597 83201 10009 20004 39888 49899 52007 76062 885//
BBXX VREN5 20063 99348 31741 41297 70916 10195 20144 40210 54000 70211 8/760 22273 20303 80165
BBXX VREN5 20063 99348 31741 41297 70916 10195 20144 40210 54000 70211 8/760 22273 20303 80165
BBXX S6SR 20064 99178 50065 41599 81013 10200 20185 40170 56020 7//22 88/4/ 22213 00230 2//02 32020 41505 51505 6//// 80190 ICE /////
AAXX 20064 60127 32960 00000 10040 20015 39676 40297 5/004 333 20035 30022
AAXX 20064 60210 32970 00000 10031 20012 39061 48560 53002 333 20029 34104
BBXX VQGQ4 20064 99336 11368 41697 33410 10130 20042 40210 51030 70211 8/1// 22293 00195 20000 80090
BBXX VRDW2 20064 99166 11179 41397 10425 10255 20241 40096 57023 70200 81600 22234 04240 20804 307// 40603 80245
BBXX VRIB2 20064 99058 10855 41398 80608 10270 20243 40107 50020 70226 88/// 22224 0//// 20302 318// 41603 80250
BBXX VRFJ6 20064 99182 11469 41898 10819 10355 20270 40121 54000 70200 8138/ 22274 00290 20503 306// 40502 80290
BBXX SHIP 20064 99263 11264 41598 81317 10202 20128 40198 5//// 70321 88434 22253 00250 20601 333 // 40908 80160
BBXX VRDN3 20064 99061 10797 41398 80812 10270 20240 40130 53010 72162 8872/ 22265 00285 20504 333 // 40504 80250
BBXX A8HD5 20061 99057 10845 41397 80211 10270 20241 40110 54000 76162 85997 22223 04270 20302 304// 40503 5//// 80250
BBXX VRDN3 20064 99061 10797 41398 80812 10270 20240 40130 53010 72162 8872/ 22265 00285 20504 333// 40504 80250
BBXX VQOG5 20064 99061 10965 41598 80612 10290 20241 40088 52020 70222 8427/ 22263 00277 20503 336// 40702 80256
BBXX DDZF2 20064 99064 11075 41397 70322 10270 20243 40070 58010 78022 85774 22214 00260 20605 301// 40804 80250
BBXX A8RH4 20064 99050 11065 41395 83530 10260 20246 40050 5/020 71022 87627 22253 04270 20908 30302 41006 51005 80250
BBXX SHIP 20064 99263 11264 41598 81317 10202 20128 40198 5//// 70321 88434 22253 00250 20601 333// 40908 80160
BBXX DCPL2 20064 99276 11225 41296 70515 10170 20128 40210 57/// 75855 86610 22254 00190 20602 309// 40803 80145
BBXX A8MV6 20063 99171 10705 41396 10117 10280 20280 40130 54000 70022 81772 22273 04300 20602 315// 40801 5//// 80280
BBXX A8IP4 20063 99052 50814 41798 61510 10190 20159 40130 52020 70222 85464 22284 06180 20000 321// 40803 80170
BBXX WBS5272 20064 99425 70827 41/97 83617 10044 2//// 40271 5//// 70222 8//// 22252 0//// 20101 3//// 4//// 5//// 6//// 8//// ICE /////
BBXX PEBT 20063 99498 70027 41497 43224 10105 20077 40160 53010 7//22 845// 22213 02100 20503 329// 41104 5//// 80090
BBXX A8DH2 20063 99373 10060 41598 63028 10136 20082 40251 53009 76066 85728 22224 04178 20508 399// 40508 80109
BBXX DDYZ2 20064 99476 70065 41/98 63528 10136 20089 40215 53005 7//// 8//// 22213 04130 2//// 80110
BBXX TBWUK17 20063 99183 30814 41497 20910 10187 20239 40147 54000 70100 82145 22253 04280 20603 31312 40502 50603 80251
BBXX A8HJ8 20063 99012 11034 41396 83202 10288 20250 40088 54000 70122 83720 22200 00/// 20502 80260
BBXX ELZU8 20063 99014 11044 41498 83622 10285 20237 40070 56005 70222 86248 22200 00/// 20305 336// 40406 80250
BBXX A8CG7 20060 99039 31100 41397 53109 10290 20242 40062 56010 70211 83770 22235 04306 2//// 80255
BBXX VQIB9 20063 99042 10921 41/96 /0414 10260 20246 40084 54000 78086 8/720 22254 00/// 2//// 304// 40601 80250
BBXX UGWJ 20061 99003 30883 42398 63004 10302 40103 54000 86260 22252 00285 20201 32300 40602
BBXX 46221 20061 99339 71186 46/// ///// 1//// 90615 22200 00150 11502 20601 326// 41501 70009
BBXX 46223 20061 99335 71178 46/// ///// 1//// 90630 22200 00150 11502 21001 326// 41502 70009
BBXX 46242 20061 99332 71174 46/// ///// 1//// 90628 22200 00144 11301 20601 324// 41301 70007
BBXX 46231 20061 99327 71174 46/// ///// 1//// 90624 22200 00148 11402 20601 328// 41402 70012
BBXX 46222 20061 99336 71183 46/// ///// 1//// 90626 22200 00152 11502 20601 327// 41502 70010
BBXX 46216 20061 99343 71198 46/// ///// 1//// 90627 22200 00142 11503 20702 327// 41502 70013
BBXX 46241 20061 99330 71173 46/// ///// 1//// 90611 22200 00142 11402 20601 327// 41401 70009
BBXX 9VDD3 20064 99346 71227 41698 53519 10120 20100 40200 54010 7//22 85/7/ 22234 00150 2//// 80110
BBXX 42085 20061 99179 70665 46/// /0506 10256 40160 90630 333 91207
BBXX 41053 20061 99185 70661 46/// /0708 10265 40162 90620 333 91210
BBXX 42085 20061 99179 70665 46/// /0606 10256 40161 90620 333 91208
BBXX 41053 20061 99185 70661 46/// /0708 10265 40161 90630 333 91210
BBXX 41052 20061 99183 70648 46/// /0508 10262 40157 90610 333 91210
BBXX 44024 20061 99423 70659 46/26 /2713 10089 40075 56029 90604 22200 00087 11107 70036 333 91217 555 11169 22181
BBXX 41053 20061 99185 70661 46/// /0708 10264 40164 90610 333 91209
BBXX 41052 20061 99183 70648 46/// /0609 10262 40156 90620 333 91211
BBXX 41052 20061 99183 70648 46/// /0609 10262 40155 90630 333 91211
BBXX 42360 20061 99267 70905 46/// /1508 10233 90600 22200 00241 10602 70012 333 91210
BBXX A8UQ2 20064 99252 10548 41597 20821 10245 20123 40190 51/// 70022 81//8 22253 00220 20302 304// 40203 5//// 80170
AAXX 2006/ 89828 46/// ///// 11186 36501 4//// 5//// 90610
BBXX A8ZS7 20064 99360 30117 41498 32715 10180 20121 40210 56005 70322 82660 22264 04170 20502 324// 40705 80145
BBXX DAJT 20064 99180 30636 41598 41216 10275 20219 40091 54000 70100 8/14/ 22254 04260 311// 4//03 80235
BBXX A8RV8 20064 99114 11105 41397 80524 10250 20236 40090 56/// 76222
BBXX A8YJ9 20064 99112 50355 41798 21314 10260 20218 40120 54000 70200 8/2// 22244 04250 20502 30000 80230
BBXX A8UA9 20064 99237 70171 41/98 20515 10175 20167 40192 54000 70200 8///6 22253 20402 80170
BBXX DBPG 20061 99536 10080 41/// /1711 10015 20003 40015 57010 769// 22200 02045 80010
BBXX A8RU5 20064 99045 11091 41397 80907 10250 20236 40060 58020 70382 8/6// 22254 04280 20401 302// 41006 80240
BBXX V2AM5 20064 99182 10401 41597 31312 10290 20220 40160 53010 7//00 81146 22274 80240
BBXX 7JJA 20064 99360 11412 41698 10312 00 10070 20000 40205 57005 70200 81100 9//// 22200 00140 2//01 334 4//02 5 6//// 80040 ICE /////
BBXX VQGQ4 20064 99336 11368 41697 33410 10130 20042 40210 51030 70211 8/1// 22293 00195 20000 80090
AAXX 20064 68296 31460 82504 10240 20240 38919 4//// 58001 75022 886// 333 20205 91006 555 10335
AAXX 20064 65030 31958 70000 10145 20050 39088 40147 70522 80008 333 20142 58009 87280
AAXX 20064 65028 32960 60706 10145 20038 39580 40171 80008 333 20122 58009 87280
AAXX 20064 65046 32960 40306 10124 20043 39605 40171 80008 333 20124 58005 84280
AAXX 20064 65125 31940 60103 10240 20236 30075 40139 70522 80008 333 20157 58002 86280
AAXX 20064 65252 31905 70000 10217 20212 39979 40117 74442 80008 333 20121 58018 87280
AAXX 20064 65271 31950 60000 10166 20138 30024 40127 70522 80008 333 20148 58005 86280
AAXX 20064 64402 31440 72804 10224 20215 39533 40106 71042 8653/ 333 02100 20220 50124 55026 59003 86610 83363
AAXX 20064 64403 32960 50000 10235 20225 39/// 40/// 85030 333 0//00 20210 50094 55/// 5//// 85363
AAXX 20064 64405 11105 80000 10212 20212 39/// 40/// 69954 74254 886// 333 0//62 20200 50174 55/// 5//// 88702
AAXX 20064 64406 32460 70000 10240 20233 39/// 40/// 8357/ 333 0//00 20/// 50/// 55/// 5//// 83613 87363
AAXX 20064 64452 32460 72202 10232 20228 39/// 40/// 8393/ 333 02300 20210 50074 55/// 5//// 83710 81930 85360 94947 95837
AAXX 20064 64454 11560 60000 10218 20198 39702 40120 60014 70196 81983 333 0//52 20200 50164 55/// 58024 81930 86080 94946 95836
AAXX 20064 64462 31906 50000 10225 20219 39/// 40/// 74244 80001 333 02100 20213 50184 55/// 5//// 85080
AAXX 20064 64463 31460 82804 10234 20228 39/// 40/// 71799 8392/ 333 0//00 20/// 50344 55/// 5//// 83810 81930 88460 94963 95833
AAXX 20064 64402 31440 72804 10224 20215 39533 40106 71042 8653/ 333 02100 20220 50124 55026 59003 86610 83363
AAXX 20064 64403 32960 50000 10235 20225 39/// 40/// 85030 333 0//00 20210 50094 55/// 5//// 85363
AAXX 20064 64405 11105 80000 10212 20212 39/// 40/// 69954 74254 886// 333 0//62 20200 50174 55/// 5//// 88702
AAXX 20064 64406 32460 70000 10240 20233 39/// 40/// 8357/ 333 0//00 20/// 50/// 55/// 5//// 83613 87363
AAXX 20064 64452 32460 72202 10232 20228 39/// 40/// 8393/ 333 02300 20210 50074 55/// 5//// 83710 81930 85360 94947 95837
AAXX 20064 64454 11560 60000 10218 20198 39702 40120 60014 70196 81983 333 0//52 20200 50164 55/// 58024 81930 86080 94946 95836
AAXX 20064 64462 31906 50000 10225 20219 39/// 40/// 74244 80001 333 02100 20213 50184 55/// 5//// 85080
AAXX 20064 64463 31460 82804 10234 20228 39/// 40/// 71799 8392/ 333 0//00 20/// 50344 55/// 5//// 83810 81930 88460 94963 95833
AAXX 20064 71413 16/// ///// 10032 21033 60001 333 10037 21137 70000
AAXX 20064 71414 16/// ///// 10023 21019 60001 333 10029 21116 70000
AAXX 20064 71440 16/// ///// 10038 21019 60001 333 10050 21095 70000
AAXX 20064 71540 17/// /2401 11003 21047 69951 7//4/ 333 10046 21193 70005
AAXX 20064 71544 16/// ///// 10046 21016 60001 333 10049 21095 70000
AAXX 20064 71548 16/// ///// 10019 21029 60001 333 10030 21095 7////
AAXX 20064 71797 16/// ///// 10009 21036 60001 333 10028 21124 70000
AAXX 20064 71360 16/// ///// 11007 21052 60001 333 10018 21148 70000
AAXX 20064 71380 16/// /2416 10050 21023 60001 333 10065 21108 70000 555 32423 40211
AAXX 20064 71055 46/// /2003 11225 21246 39660 49997 53023 6///1 333 11176 21225 7////
AAXX 20064 71065 16/// ///// 10011 21034 60001 333 10030 21156 70000
AAXX 20064 71674 16/// ///// 10038 21028 60001 333 10038 21131 70000
AAXX 20064 71481 16/// /2803 10025 21014 60001 333 10035 21143 70008
AAXX 20064 71498 16/// /2212 10022 21025 60001 333 10028 21104 70000 555 32218 40041
AAXX 20064 71249 16/// /2417 10035 21025 60001 333 10046 21124 7//// 555 32427 40061
AAXX 20064 71904 16/// ///// 10031 21030 60001 333 10053 21111 70000
AAXX 20064 71014 16/// /2110 10044 21038 60001 333 10056 21107 70000 555 31718 40141
AAXX 20064 71346 16/// /2520 10044 21057 60001 333 10055 21059 70000 555 32431 40052
AAXX 20064 71857 16/// ///// 10017 21036 60001 333 10022 21152 70000
AAXX 20064 60515 11660 32812 10052 20007 40279 56008 60004 700// 81230 333 05100 20037 81840 95990
AAXX 20064 89610 46/// /0415 11019 39464 4//// 5//// 333 90700 91117
AAXX 20064 89610 46/// /0415 11019 39464 4//// 5//// 333 90700 91117
AAXX 20064 89610 46/// /0415 11019 39464 4//// 5//// 333 90700 91117
AAXX 20061 28319 11499 82304 11084 21132 30263 40437 52013 69950 70273 885// 333 21103 88614
AAXX 20061 28224 11598 82104 11085 21123 30196 40423 52010 69990 70373 885// 333 21099
AAXX 20064 17038 11958 40000 10105 20019 30117 40168 57006 60002 70400 84030 333 20087 30006 55008 20523 84360 92416
BBXX UGWJ 20061 99003 30883 42398 63004 10302 40103 54000 86260 22252 00285 20201 32300 40602
BBXX DAJT 20064 99180 30636 41598 41216 10275 20219 40091 54000 70100 8/14/ 22254 04260 311// 4//03 80235
BBXX A8ZS7 20064 99360 30117 41498 32715 10180 20121 40210 56005 70322 82660 22264 04170 20502 324// 40705 80145
AAXX 20064 60686 12960 20108 10075 21037 40195 52011 60004 80002 333 00500 20072 82073
AAXX 20061 22217 11241 81702 11002 21005 39951 49983 52004 60042 77172 8872/ 333 21012 43030 86706 91003 93725
BBXX V2AJ8 20063 99167 11137 41497 70425 10260 20231 40071 57014 76022 85676 22214 20606 306// 40808 5//// 80240
BBXX A8CJ2 20064 99028 50813 41297 21909 10195 20180 40115 57005 70200 821// 22284 04194 299// 3//// 4//// 5//// 80185
BBXX 9VDD3 20064 99346 71227 41698 53519 10120 20100 40200 54010 7//22 85/7/ 22234 00150 2//// 80110
BBXX KS098 20064 99443 71242 43/// /0516 10067 40298 22242 06000
BBXX UCAD 20061 99569 10037 41/97 91810 10060 40997 57002 70221 88/// 22243 00080 20303
OOXX SEP63 20041 99594 10180 ///// 00401 26/// /1102 10004 29090 39970 90410 333 60000
OOXX SEP63 20041 99594 10180 ///// 00401 26/// /1101 10004 29090 39970 90420 333 60000
OOXX SEP63 20041 99594 10180 ///// 00401 26/// /1101 10004 29090 39970 90430 333 60000
OOXX SEP63 20041 99594 10180 ///// 00401 26/// /1101 10004 29090 39970 90440 333 60000
OOXX SEP63 20041 99594 10180 ///// 00401 26/// /1101 10004 29090 39970 90450 333 60000
OOXX SEP63 20051 99594 10180 ///// 00401 26/// /1102 10005 29091 39970 90500 333 60000
OOXX SEP63 20051 99594 10180 ///// 00401 26/// /1102 10005 29091 39970 90510 333 60000
OOXX SEP63 20051 99594 10180 ///// 00401 26/// /0703 10006 29091 39970 90520 333 60000
OOXX SEP63 20051 99594 10180 ///// 00401 26/// /0803 10006 29091 39970 90530 333 60000
OOXX SEP63 20051 99594 10180 ///// 00401 26/// /1102 10007 29091 39970 90540 333 60000
OOXX SEP63 20051 99594 10180 ///// 00401 26/// /1002 10008 29091 39980 90550 333 60000
OOXX SEP63 20061 99594 10180 ///// 00401 26/// /1302 10008 29091 39980 90600 333 60000
AAXX 2006/ 89866 46/// ///// 11039 39698 4//// 5////
AAXX 2006/ 89868 46/// ///// 11058 39733 4//// 5////
AAXX 2006/ 89327 46/// ///// 11023 39562 4//// 5////
AAXX 2006/ 89828 46/// ///// 11189 36502 4//// 5////
AAXX 2006/ 89879 46/// ///// 10035 39779 4//// 5////
AAXX 2006/ 89332 46/// ///// 11033 39125 4//// 5////
AAXX 2006/ 89872 46/// ///// 11031 39769 4//// 5////
AAXX 2006/ 89869 46/// ///// 11043 39711 4//// 5////
AAXX 2006/ 89866 46/// ///// 11039 39697 4//// 5////
AAXX 2006/ 89329 46/// ///// 11064 38664 4//// 5////
AAXX 2006/ 89799 46/// ///// 11235 4//// 5////
AAXX 2006/ 89868 46/// ///// 11059 39732 4//// 5////
AAXX 2006/ 89108 46/// ///// 11225 36943 4//// 5////
AAXX 2006/ 89879 46/// ///// 10035 39778 4//// 5////
AAXX 2006/ 89332 46/// ///// 11033 39125 4//// 5////
AAXX 2006/ 89769 46/// ///// 11043 39787 4//// 5////
AAXX 2006/ 89314 46/// ///// 11115 38159 4//// 5////
AAXX 20064 71310 17/// /2109 11004 21008 39973 40010 56032 60021 7//4/ 333 11004 21052 70015 555 10010 20015 31720 40031
AAXX 20064 91844 46/// /0504 10277 40139 22200 00286
AAXX 20061 58968 11565 80904 10196 20172 30167 40175 57030 69941 70365 885//
AAXX 20061 58974 11460 80606 10178 20164 30063 40187 57034 60031 76166 887//
AAXX 20061 59358 31650 80103 10211 20160 30143 40175 57029 70522 885//
AAXX 20061 59559 11563 80402 10211 20185 30133 40161 58027 60011 72162 8372/
AAXX 20061 59792 11458 80409 10214 20184 30143 40148 57035 69901 71025 8542/
AAXX 20061 59997 32460 50705 10307 20269 30065 40073 57029 83206
AAXX 20061 59158 32662 73503 10218 20154 30062 40162 57034 875//
AAXX 20061 59562 11561 80502 10212 20192 30156 40167 57036 69951 76062 887//
AAXX 20061 59567 11258 80406 10182 20178 39787 40167 57028 60041 71062 885//
AAXX 20061 23914 11397 82306 11088 21103 30087 40360 52003 60020 77173 8872/ 333 21103
AAXX 20064 89573 35980 01139 10008 21122 39608 49629 57093
AAXX 20064 89573 35980 01139 10008 21122 39608 49629 57093
BBXX 63110 20063 99595 10015 41/96 /1918 10056 49978 700// 8//// 22200 10503 70015
BBXX 64045 20064 99591 70117 46/// /2924 10053 20024 40070 52006 22200 00101 10910 70049 333 90710 91134
BBXX AMOUK08 20064 99501 70061 46/// ///// 10112 20064 30190 40195 52012 90550
BBXX 63055 20064 99606 10016 47397 /1415 10056 20015 49968 56010 762// 22200 10502 70012
BBXX 63106 20064 99610 10017 46/// /1616 10051 49973 57008 22200
BBXX 63105 20064 99610 10017 47498 ///// 10059 20013 49973 56009 700// 22200
BBXX 62304 20064 99511 10018 46/98 /3133 10087 20049 40093 55003 22200 00111 10502 70010
BBXX 62094 20064 99517 70067 46/// /2919 1//// 2//// 40184 53011 22200 00105 10504 70019 333 90710 91125
BBXX 62103 20064 99499 70029 46/99 /3325 10107 20062 40158 52018 22200 00122 10703 70015 333 90710 91131
BBXX AMOUK04 20064 99533 70062 46/// ///// 10068 20040 30127 4//// 54001 90550
BBXX ONFP 20064 99245 30602 43596 70737 10240 2021/ 40170 54/// 7//11 87333 22213 04240 20808 30707 40808 50808 6//// 80220 ICE /////
BBXX WDE6434 20063 99580 71533 41698 32328 10011 2//// 40050 52035 70200 81508 22222 04044 20202 323// 4//03 5//// 6//// 8//// ICE /////
BBXX WDE4789 20064 99595 71437 41598 82717 10050 2//// 40030 52014 71582 885// 22222 0//// 20201 323// 4//05 5//// 6//// 8//// ICE /////
BBXX WSM5364 20064 99583 71357 41597 83113 10017 2//// 40020 52/// 70222 885// 22200 04057 20101 3//// 4//00 5//// 6//// 8//// ICE /////
BBXX WYX2079 20064 99600 71478 41397 82118 10028 2//// 40019 52/// 76976 8762/ 22222 0//// 20201 321// 4//02 5//// 6//// 8//// ICE /////
BBXX WYL4318 20064 99608 71487 41/93 90911 11006 2//// 40010 52/// 77372 89/// 22200 0//// 20000 3//// 4//00 5//// 6//// 8//// ICE /////
BBXX WCN3586 20064 99606 71477 41698 61415 10022 2//// 40024 52/// 70222 85508 22200 0//// 20201 3//// 4//00 5//// 6//// 8//// ICE /////
BBXX WDD7412 20064 99582 71369 41598 42725 1//// 2//// 49960 57/// 70211 83508 22231 0//// 20202 332// 4//06 5//// 6//// 8//// ICE /////
BBXX A8RU5 20064 99045 11091 41397 80907 10250 20236 40060 58020 70382 8/6// 22254 04280 20401 302// 41006 80240
BBXX VREN5 20063 99348 31741 41297 70916 10195 20144 40210 54000 70211 8/760 22273 20303 80165
BBXX ONFP 20064 99245 30602 43596 70737 10240 2021/ 40170 54/// 7//11 87333 22213 04240 20808 30707 40808 50808 6//// 80220 ICE /////
BBXX SHIP 20064 99139 10511 41698 10415 10240 20164 40170 53020 70200 8102/ 22264 00256 20504 304// 4//// 80190
BBXX A8ZS7 20064 99360 30117 41498 32715 10180 20121 40210 56005 70322 82660 22264 04170 20502 324// 40705 80145
BBXX DAJT 20064 99180 30636 41598 41216 10275 20219 40091 54000 70100 8/14/ 22254 04260 311// 4//03 80235
BBXX V2AM5 20064 99182 10401 41597 31312 10290 20220 40160 53010 7//00 81146 22274 80240
BBXX A8UA9 20064 99237 70171 41/98 20515 10175 20167 40192 54000 70200 8///6 22253 20402 80170
BBXX S6SR 20064 99178 50065 41599 81013 10200 20185 40170 56020 7//22 88/4/ 22213 00230 2//02 32020 41505 51505 6//// 80190 ICE /////
BBXX V2AJ8 20063 99167 11137 41497 70425 10260 20231 40071 57014 76022 85676 22214 20606 306// 40808 5//// 80240
BBXX A8RV8 20064 99114 11105 41397 80524 10250 20236 40090 56/// 76222
BBXX WDB9949 20064 99508 71486 41797 62623 10060 2002/ 40190 51010 70122 86710 22273 00050 21004 326// 41410 5//// 6//// 80040 ICE /////
BBXX A8CJ2 20064 99028 50813 41297 21909 10195 20180 40115 57005 70200 821// 22284 04194 299// 3//// 4//// 5//// 80185
BBXX A8YJ9 20064 99112 50355 41798 21314 10260 20218 40120 54000 70200 8/2// 22244 04250 20502 30000 80230
BBXX BSH05 20061 99550 10079 46/// ///// 22200 20604 70019
BBXX BSH03 20061 99540 10081 46/// ///// 22200 00064 20703 70017
BBXX UCAD 20061 99569 10037 41/97 91810 10060 40997 57002 70221 88/// 22243 00080 20303
BBXX DBPG 20061 99536 10080 41/// /1711 10015 20003 40015 57010 769// 22200 02045 80010
OOXX ARP01 20041 99345 50585 ///// 00311 26/// /0000 10098 29042 30053 90420 333 60000
OOXX ARP01 20041 99345 50585 ///// 00311 26/// /0000 10097 29042 30053 90430 333 60000
OOXX ARP01 20041 99345 50585 ///// 00311 26/// /0000 10097 29042 30054 90440 333 60000
OOXX ARP01 20041 99345 50585 ///// 00311 26/// /0000 10096 29042 30054 90450 333 60000
OOXX ARP01 20051 99345 50585 ///// 00311 26/// /0000 10096 29042 30054 90500 333 60000
OOXX ARP01 20051 99345 50585 ///// 00311 26/// /0000 10097 29042 30053 90510 333 60000
OOXX ARP01 20051 99345 50585 ///// 00311 26/// /0000 10096 29042 30052 90520 333 60000
OOXX ARP01 20051 99345 50585 ///// 00311 26/// /0000 10096 29042 30052 90530 333 60000
OOXX ARP01 20051 99345 50585 ///// 00311 26/// /0000 10096 29042 30050 90540 333 60000
OOXX ARP01 20051 99345 50585 ///// 00311 26/// /0000 10096 29042 30050 90550 333 60000
OOXX ARP01 20061 99345 50585 ///// 00311 26/// /0000 10095 29042 30050 90600 333 60000
OOXX MYP42 20041 99045 11014 ///// 15551 26/// /1808 10215 29077 38405 90405 333 60000
OOXX MYP42 20041 99045 11014 ///// 15551 26/// /1904 10219 29072 38421 90415 333 60000
OOXX MYP42 20041 99045 11014 ///// 15551 26/// /1702 10232 29070 38407 90425 333 60000
OOXX MYP42 20041 99045 11014 ///// 15551 26/// /1701 10216 29077 38412 90435 333 60000
OOXX MYP42 20041 99045 11014 ///// 15551 26/// /2704 10212 29079 38434 90445 333 60000
OOXX MYP42 20041 99045 11014 ///// 15551 26/// /2605 10214 29077 38425 90455 333 60000
OOXX MYP42 20051 99045 11014 ///// 15551 26/// /0304 10220 29075 38418 90505 333 60000
OOXX MYP42 20051 99045 11014 ///// 15551 26/// /1301 10220 29075 38407 90515 333 60000
OOXX MYP42 20051 99045 11014 ///// 15551 26/// /3602 10216 29077 38418 90525 333 60000
OOXX MYP42 20051 99045 11014 ///// 15551 26/// /1401 10216 29079 38412 90535 333 60000
OOXX MYP42 20051 99045 11014 ///// 15551 26/// /2202 10216 29079 38418 90545 333 60000
OOXX MYP42 20051 99045 11014 ///// 15551 26/// /1501 10217 29079 38425 90555 333 60000
OOXX NOP49 20041 99782 10154 ///// 04691 26/// /0000 11086 29087 39489 90410 333 6///0
OOXX NOP49 20041 99782 10154 ///// 04691 26/// /0000 11086 29086 39488 90420 333 6///0
OOXX NOP49 20041 99782 10154 ///// 04691 26/// /0000 11086 29087 39488 90430 333 6///0
OOXX NOP49 20041 99782 10154 ///// 04691 26/// /0000 11086 29087 39488 90440 333 6///0
OOXX NOP49 20041 99782 10154 ///// 04691 26/// /0000 11086 29087 39488 90450 333 6///0
OOXX NOP49 20051 99782 10154 ///// 04691 26/// /0000 11086 29087 39488 90500 333 6///0
OOXX NOP49 20051 99782 10154 ///// 04691 26/// /0000 11086 29087 39488 90510 333 6///0
OOXX NOP49 20051 99782 10154 ///// 04691 26/// /0000 11088 29088 39488 90520 333 6///0
OOXX NOP49 20051 99782 10154 ///// 04691 26/// /0000 11086 29086 39488 90530 333 6///0
OOXX NOP49 20051 99782 10154 ///// 04691 26/// /0000 11089 29087 39487 90540 333 6///0
OOXX NOP49 20051 99782 10154 ///// 04691 26/// /0000 11087 29087 39488 90550 333 6///0
OOXX NOP49 20061 99782 10154 ///// 04691 26/// /0000 11086 29085 39488 90600 333 6///0
OOXX CAP14 20041 99487 71234 ///// 00431 26/// /1502 10072 29075 30213 90430 333 60000
OOXX CAP14 20041 99487 71234 ///// 00431 26/// /1501 10071 29075 30215 90440 333 60000
OOXX CAP14 20041 99487 71234 ///// 00431 26/// /1501 10071 29075 30214 90450 333 60000
OOXX CAP14 20051 99487 71234 ///// 00431 26/// /1501 10072 29074 30214 90500 333 60000
OOXX CAP14 20051 99487 71234 ///// 00431 26/// /1501 10071 29074 30213 90510 333 60000
OOXX CAP14 20051 99487 71234 ///// 00431 26/// /1402 10072 29074 30213 90520 333 60000
OOXX CAP14 20051 99487 71234 ///// 00431 26/// /1501 10070 29076 30214 90530 333 60000
OOXX CAP14 20051 99487 71234 ///// 00431 26/// /1401 10069 29077 30214 90540 333 60000
OOXX CAP14 20051 99487 71234 ///// 00431 26/// /1401 10071 29078 30217 90550 333 60000
OOXX CAP14 20061 99487 71234 ///// 00431 26/// /1401 10070 29078 30216 90600 333 60000
OOXX CAP14 20061 99487 71234 ///// 00431 26/// /1501 10071 29079 30217 90610 333 60000
OOXX CAP14 20061 99487 71234 ///// 00431 26/// /1301 10070 29080 30217 90620 333 60000
OOXX MRP43 20041 99181 70159 ///// 00101 26/// /3602 10137 29048 30131 90440 333 60000
OOXX MRP43 20041 99181 70159 ///// 00101 26/// /3602 10134 29049 30131 90450 333 60000
OOXX MRP43 20051 99181 70159 ///// 00101 26/// /3201 10134 29051 30132 90500 333 60000
OOXX MRP43 20051 99181 70159 ///// 00101 26/// /3301 10136 29051 30132 90510 333 60000
OOXX MRP43 20051 99181 70159 ///// 00101 26/// /3101 10135 29051 30132 90520 333 60000
OOXX MRP43 20051 99181 70159 ///// 00101 26/// /3102 10133 29051 30133 90530 333 60000
OOXX MRP43 20051 99181 70159 ///// 00101 26/// /3301 10131 29051 30135 90540 333 60000
OOXX MRP43 20051 99181 70159 ///// 00101 26/// /3202 10126 29051 30133 90550 333 60000
OOXX MRP43 20061 99181 70159 ///// 00101 26/// /3102 10123 29051 30138 90600 333 60000
OOXX MRP43 20061 99181 70159 ///// 00101 26/// /3302 10122 29051 30138 90610 333 60000
OOXX MRP43 20061 99181 70159 ///// 00101 26/// /3502 10121 29051 30137 90620 333 60000
OOXX MRP43 20061 99181 70159 ///// 00101 26/// /3502 10118 29053 30138 90630 333 60000
OOXX RUP54 20041 99586 10494 ///// 01271 26/// /0605 11096 29090 30204 90427 333 60120
OOXX RUP54 20041 99586 10494 ///// 01271 26/// /0606 11096 29090 30204 90437 333 60120
OOXX RUP54 20041 99586 10494 ///// 01271 26/// /3504 11096 29090 30205 90447 333 60120
OOXX RUP54 20041 99586 10494 ///// 01271 26/// /0606 11096 29090 30205 90457 333 60120
OOXX RUP54 20051 99586 10494 ///// 01271 26/// /0705 11097 29090 30204 90507 333 60120
OOXX RUP54 20051 99586 10494 ///// 01271 26/// /0605 11097 29090 30204 90517 333 60120
OOXX RUP54 20051 99586 10494 ///// 01271 26/// /0705 11098 29090 30203 90527 333 60120
OOXX RUP54 20051 99586 10494 ///// 01271 26/// /0606 11098 29090 30202 90537 333 60120
OOXX RUP54 20051 99586 10494 ///// 01271 26/// /0705 11098 29090 30201 90547 333 60120
OOXX RUP54 20051 99586 10494 ///// 01271 26/// /0704 11099 29090 30201 90557 333 60120
OOXX RUP54 20061 99586 10494 ///// 01271 26/// /0605 11099 29090 30201 90607 333 60120
OOXX RUP54 20061 99586 10494 ///// 01271 26/// /0706 11099 29090 30202 90617 333 60120
OOXX AUP07 20041 99/// ///// ///// ///// 26/// /3213 10085 29086 30145 90449 333 60000
OOXX AUP07 20041 99/// ///// ///// ///// 26/// /3213 10086 29086 30145 90459 333 60000
OOXX AUP07 20051 99/// ///// ///// ///// 26/// /3212 10085 29086 30145 90509 333 60000
OOXX AUP07 20051 99/// ///// ///// ///// 26/// /3212 10083 29087 30146 90519 333 60000
OOXX AUP07 20051 99/// ///// ///// ///// 26/// /3212 10082 29088 30145 90529 333 60000
OOXX AUP07 20051 99/// ///// ///// ///// 26/// /3213 10081 29089 30144 90539 333 60000
OOXX AUP07 20051 99/// ///// ///// ///// 26/// /3212 10080 29089 30144 90549 333 60000
OOXX AUP07 20051 99/// ///// ///// ///// 26/// /3213 10079 29089 30144 90559 333 60000
OOXX AUP07 20061 99/// ///// ///// ///// 26/// /3213 10078 29090 30143 90609 333 60000
OOXX AUP07 20061 99/// ///// ///// ///// 26/// /3213 10078 29090 30142 90619 333 60000
OOXX AUP07 20061 99/// ///// ///// ///// 26/// /3213 10078 29090 30142 90629 333 60000
OOXX AUP07 20061 99/// ///// ///// ///// 26/// /3212 10078 29090 30141 90639 333 60000
OOXX RUP59 20041 99539 10848 ///// 02121 26/// /0903 11162 29073 30161 90440 333 60000
OOXX RUP59 20041 99539 10848 ///// 02121 26/// /0903 11162 29073 30163 90450 333 60000
OOXX RUP59 20051 99539 10848 ///// 02121 26/// /0903 11162 29073 30163 90500 333 60000
OOXX RUP59 20051 99539 10848 ///// 02121 26/// /0803 11159 29073 30164 90510 333 60000
OOXX RUP59 20051 99539 10848 ///// 02121 26/// /0903 11159 29073 30165 90520 333 60000
OOXX RUP59 20051 99539 10848 ///// 02121 26/// /0902 11160 29073 30164 90530 333 60000
OOXX RUP59 20051 99539 10848 ///// 02121 26/// /0902 11159 29072 30163 90540 333 60000
OOXX RUP59 20051 99539 10848 ///// 02121 26/// /0802 11157 29072 30163 90550 333 60000
OOXX RUP59 20061 99539 10848 ///// 02121 26/// /0903 11156 29072 30163 90600 333 60000
OOXX RUP59 20061 99539 10848 ///// 02121 26/// /0902 11155 29072 30164 90610 333 60000
OOXX RUP59 20061 99539 10848 ///// 02121 26/// /0902 11152 29072 30165 90620 333 60000
OOXX RUP59 20061 99539 10848 ///// 02121 26/// /0903 11150 29072 30162 90630 333 60000
OOXX MNP45 20041 99479 11063 ///// 17291 26/// /2809 11210 29071 38435 90421 333 60000
OOXX MNP45 20041 99479 11063 ///// 17291 26/// /2909 11208 29071 38435 90431 333 60000
OOXX MNP45 20041 99479 11063 ///// 17291 26/// /2910 11201 29068 38433 90441 333 60000
OOXX MNP45 20041 99479 11063 ///// 17291 26/// /2909 11196 29066 38436 90451 333 60000
OOXX MNP45 20051 99479 11063 ///// 17291 26/// /2809 11200 29067 38435 90501 333 60000
OOXX MNP45 20051 99479 11063 ///// 17291 26/// /2810 11199 29067 38435 90511 333 60000
OOXX MNP45 20051 99479 11063 ///// 17291 26/// /2911 11195 29066 38433 90521 333 60000
OOXX MNP45 20051 99479 11063 ///// 17291 26/// /2911 11190 29064 38434 90531 333 60000
OOXX MNP45 20051 99479 11063 ///// 17291 26/// /2911 11189 29065 38433 90541 333 60000
OOXX MNP45 20051 99479 11063 ///// 17291 26/// /2911 11189 29065 38432 90551 333 60000
OOXX MNP45 20061 99479 11063 ///// 17291 26/// /2910 11193 29066 38435 90601 333 60000
OOXX MNP45 20061 99479 11063 ///// 17291 26/// /2910 11193 29066 38435 90611 333 60000
OOXX FRP31 20031 99052 70527 ///// 00091 26/// /0000 10243 29092 30175 90357 333 60000
OOXX FRP31 20041 99052 70527 ///// 00091 26/// /0000 10245 29092 30173 90407 333 60000
OOXX FRP31 20041 99052 70527 ///// 00091 26/// /1401 10244 29092 30173 90417 333 60000
OOXX FRP31 20041 99052 70527 ///// 00091 26/// /1301 10240 29092 30169 90427 333 60000
OOXX FRP31 20041 99052 70527 ///// 00091 26/// /0000 10240 29092 30169 90437 333 60000
OOXX FRP31 20041 99052 70527 ///// 00091 26/// /0000 10240 29092 30168 90447 333 60000
OOXX FRP31 20041 99052 70527 ///// 00091 26/// /0000 10240 29092 30166 90457 333 60000
OOXX FRP31 20051 99052 70527 ///// 00091 26/// /0701 10241 29093 30165 90507 333 60000
OOXX FRP31 20051 99052 70527 ///// 00091 26/// /0503 10254 29088 30165 90517 333 60000
OOXX FRP31 20051 99052 70527 ///// 00091 26/// /0502 10259 29084 30165 90527 333 60000
OOXX FRP31 20051 99052 70527 ///// 00091 26/// /0601 10259 29084 30165 90537 333 60000
OOXX FRP31 20051 99052 70527 ///// 00091 26/// /1401 10251 29085 30163 90547 333 60000
OOXX AUP09 20041 99124 31309 ///// 00321 26/// ///// 1//// 29/// 3//// 90414 333 6///0
OOXX AUP09 20041 99124 31309 ///// 00321 26/// ///// 1//// 29/// 3//// 90424 333 6///0
OOXX AUP09 20041 99124 31309 ///// 00321 26/// ///// 1//// 29/// 3//// 90434 333 6///0
OOXX AUP09 20041 99124 31309 ///// 00321 26/// ///// 1//// 29/// 3//// 90444 333 6///0
OOXX AUP09 20041 99124 31309 ///// 00321 26/// ///// 1//// 29/// 3//// 90454 333 6///0
OOXX AUP09 20051 99124 31309 ///// 00321 26/// ///// 1//// 29/// 3//// 90504 333 6///0
OOXX AUP09 20051 99124 31309 ///// 00321 26/// ///// 1//// 29/// 3//// 90514 333 6///0
OOXX AUP09 20051 99124 31309 ///// 00321 26/// ///// 1//// 29/// 3//// 90524 333 6///0
OOXX AUP09 20051 99124 31309 ///// 00321 26/// ///// 1//// 29/// 3//// 90534 333 6///0
OOXX AUP09 20051 99124 31309 ///// 00321 26/// ///// 1//// 29/// 3//// 90544 333 6///0
OOXX AUP09 20051 99124 31309 ///// 00321 26/// ///// 1//// 29/// 3//// 90554 333 6///0
OOXX AUP09 20061 99124 31309 ///// 00321 26/// ///// 1//// 29/// 3//// 90604 333 6///0
OOXX KIP39 20041 99020 51574 ///// 00181 26/// /1204 10256 29076 30096 90430 333 60000
OOXX KIP39 20041 99020 51574 ///// 00181 26/// /1204 10256 29076 30097 90440 333 60000
OOXX KIP39 20041 99020 51574 ///// 00181 26/// /1203 10255 29076 30100 90450 333 60000
OOXX KIP39 20051 99020 51574 ///// 00181 26/// /1203 10254 29076 30099 90500 333 60000
OOXX KIP39 20051 99020 51574 ///// 00181 26/// /1203 10254 29077 30101 90510 333 60000
OOXX KIP39 20051 99020 51574 ///// 00181 26/// /1303 10254 29077 30100 90520 333 60000
OOXX KIP39 20051 99020 51574 ///// 00181 26/// /1203 10255 29077 30102 90530 333 60000
OOXX KIP39 20051 99020 51574 ///// 00181 26/// /1203 10254 29078 30103 90540 333 60000
OOXX KIP39 20051 99020 51574 ///// 00181 26/// /1203 10254 29078 30103 90550 333 60000
OOXX KIP39 20061 99020 51574 ///// 00181 26/// /1203 10254 29078 30105 90600 333 60000
OOXX KIP39 20061 99020 51574 ///// 00181 26/// /1203 10252 29079 30106 90610 333 60000
OOXX KIP39 20061 99020 51574 ///// 00181 26/// /1203 10252 29079 30107 90620 333 60000
OOXX GBP67 20041 99159 50057 ///// 04381 26/// /0704 10163 29083 39666 90420 333 60000
OOXX GBP67 20041 99159 50057 ///// 04381 26/// /0704 10163 29085 39667 90430 333 60000
OOXX GBP67 20041 99159 50057 ///// 04381 26/// /0804 10162 29085 39668 90440 333 60000
OOXX GBP67 20041 99159 50057 ///// 04381 26/// /0804 10162 29082 39670 90450 333 60000
OOXX GBP67 20051 99159 50057 ///// 04381 26/// /0804 10163 29081 39670 90500 333 60000
OOXX GBP67 20051 99159 50057 ///// 04381 26/// /0804 10164 29078 39669 90510 333 60000
OOXX GBP67 20051 99159 50057 ///// 04381 26/// /0804 10164 29076 39671 90520 333 60000
OOXX GBP67 20051 99159 50057 ///// 04381 26/// /1003 10164 29077 39672 90530 333 60000
OOXX GBP67 20051 99159 50057 ///// 04381 26/// /1004 10165 29078 39672 90540 333 60000
OOXX GBP67 20051 99159 50057 ///// 04381 26/// /0904 10164 29080 39673 90550 333 60000
OOXX GBP67 20061 99159 50057 ///// 04381 26/// /0904 10163 29087 39674 90600 333 60000
OOXX GBP67 20061 99159 50057 ///// 04381 26/// /0804 10163 29085 39676 90610 333 60000
OOXX FRP30 20041 99493 30703 ///// 00361 26/// /2113 10093 29074 30001 90457 333 60000
OOXX FRP30 20051 99493 30703 ///// 00361 26/// /2113 10094 29074 30002 90507 333 60000
OOXX FRP30 20051 99493 30703 ///// 00361 26/// /2114 10091 29076 30002 90517 333 60000
OOXX FRP30 20051 99493 30703 ///// 00361 26/// /2114 10090 29075 30002 90527 333 60000
OOXX FRP30 20051 99493 30703 ///// 00361 26/// /2115 10089 29077 30002 90537 333 60000
OOXX FRP30 20051 99493 30703 ///// 00361 26/// /1608 10090 29076 30003 90547 333 60000
OOXX FRP30 20051 99493 30703 ///// 00361 26/// /2014 10088 29075 30001 90557 333 60000
OOXX FRP30 20061 99493 30703 ///// 00361 26/// /2215 10091 29074 30004 90607 333 60000
OOXX FRP30 20061 99493 30703 ///// 00361 26/// /2214 10089 29074 30008 90617 333 60000
OOXX FRP30 20061 99493 30703 ///// 00361 26/// /2214 10091 29072 30007 90627 333 60000
OOXX FRP30 20061 99493 30703 ///// 00361 26/// /2213 10093 29070 30007 90637 333 60000
OOXX FRP30 20061 99493 30703 ///// 00361 26/// /2213 10093 29070 30007 90647 333 60000
OOXX GBP68 20041 99371 50123 ///// 00641 26/// /3509 10000 29000 30097 90410 333 60000
OOXX GBP68 20041 99371 50123 ///// 00641 26/// /3509 10000 29000 30097 90420 333 60000
OOXX GBP68 20041 99371 50123 ///// 00641 26/// /3509 10000 29000 30097 90430 333 60000
OOXX GBP68 20041 99371 50123 ///// 00641 26/// /3509 10000 29000 30098 90440 333 60000
OOXX GBP68 20041 99371 50123 ///// 00641 26/// /3509 10000 29000 30099 90450 333 60000
OOXX GBP68 20051 99371 50123 ///// 00641 26/// /3508 10000 29000 30098 90500 333 60000
OOXX GBP68 20051 99371 50123 ///// 00641 26/// /3508 10000 29000 30099 90510 333 60000
OOXX GBP68 20051 99371 50123 ///// 00641 26/// /3509 10000 29000 30101 90520 333 60000
OOXX GBP68 20051 99371 50123 ///// 00641 26/// /3509 10000 29000 30101 90530 333 60000
OOXX GBP68 20051 99371 50123 ///// 00641 26/// /3509 10000 29000 30102 90540 333 60000
OOXX GBP68 20051 99371 50123 ///// 00641 26/// /3509 10425 29000 30104 90550 333 60000
OOXX GBP68 20061 99371 50123 ///// 00641 26/// /3509 10394 29000 30102 90600 333 60000
OOXX ISP34 20041 99641 70219 ///// 01301 26/// /3005 11001 29001 39870 90410 333 6///0
OOXX ISP34 20041 99641 70219 ///// 01301 26/// /3004 11002 29001 39870 90420 333 6///0
OOXX ISP34 20041 99641 70219 ///// 01301 26/// /3205 11001 29001 39873 90430 333 6///0
OOXX ISP34 20041 99641 70219 ///// 01301 26/// /3107 11001 29001 39873 90440 333 6///0
OOXX ISP34 20041 99641 70219 ///// 01301 26/// /3306 11004 29001 39875 90450 333 6///0
OOXX ISP34 20051 99641 70219 ///// 01301 26/// /3207 11002 29001 39874 90500 333 6///0
OOXX ISP34 20051 99641 70219 ///// 01301 26/// /3106 11004 29001 39874 90510 333 6///0
OOXX ISP34 20051 99641 70219 ///// 01301 26/// /3204 11001 29001 39876 90520 333 6///0
OOXX ISP34 20051 99641 70219 ///// 01301 26/// /3205 11001 29001 39877 90530 333 6///0
OOXX ISP34 20051 99641 70219 ///// 01301 26/// /3205 11005 29001 39877 90540 333 6///0
OOXX ISP34 20051 99641 70219 ///// 01301 26/// /3106 11006 29001 39877 90550 333 6///0
OOXX ISP34 20061 99641 70219 ///// 01301 26/// /3203 11008 29001 39881 90600 333 6///0
OOXX RUP60 20041 99531 11588 ///// 00651 26/// /3105 11114 29057 39919 90452 333 60000
OOXX RUP60 20051 99531 11588 ///// 00651 26/// /3305 11119 29059 39920 90502 333 60000
OOXX RUP60 20051 99531 11588 ///// 00651 26/// /0105 11121 29059 39921 90512 333 60000
OOXX RUP60 20051 99531 11588 ///// 00651 26/// /2901 11127 29059 39922 90522 333 60000
OOXX RUP60 20051 99531 11588 ///// 00651 26/// /3302 11138 29061 39922 90532 333 60000
OOXX RUP60 20051 99531 11588 ///// 00651 26/// /0000 11148 29064 39923 90542 333 60000
OOXX RUP60 20051 99531 11588 ///// 00651 26/// /2706 11153 29066 39924 90552 333 60000
OOXX RUP60 20061 99531 11588 ///// 00651 26/// /3101 11163 29070 39925 90602 333 60000
OOXX RUP60 20061 99531 11588 ///// 00651 26/// /2702 11170 29070 39925 90612 333 60000
OOXX RUP60 20061 99531 11588 ///// 00651 26/// /3102 11170 29074 39926 90622 333 60000
OOXX RUP60 20061 99531 11588 ///// 00651 26/// /2606 11175 29072 39926 90632 333 60000
OOXX RUP60 20061 99531 11588 ///// 00651 26/// /2801 11179 29071 39927 90642 333 60000
OOXX AUP04 20051 99377 31451 ///// 00311 26/// /2203 10212 29045 30110 90506 333 60000
OOXX AUP04 20051 99377 31451 ///// 00311 26/// /2203 10207 29046 30109 90516 333 60000
OOXX AUP04 20051 99377 31451 ///// 00311 26/// /2003 10209 29046 30109 90526 333 60000
OOXX AUP04 20051 99377 31451 ///// 00311 26/// /2202 10217 29043 30109 90536 333 60000
OOXX AUP04 20051 99377 31451 ///// 00311 26/// /2002 10217 29045 30109 90546 333 60000
OOXX AUP04 20051 99377 31451 ///// 00311 26/// /2002 10215 29047 30109 90556 333 60000
OOXX AUP04 20061 99377 31451 ///// 00311 26/// /2003 10211 29049 30110 90606 333 60000
OOXX AUP04 20061 99377 31451 ///// 00311 26/// /1803 10203 29050 30109 90616 333 60000
OOXX AUP04 20061 99377 31451 ///// 00311 26/// /1903 10201 29050 30110 90626 333 60000
OOXX AUP04 20061 99377 31451 ///// 00311 26/// /1803 10198 29052 30109 90636 333 60000
OOXX AUP04 20061 99377 31451 ///// 00311 26/// /2003 10199 29053 30109 90646 333 60000
OOXX AUP04 20061 99377 31451 ///// 00311 26/// /2202 10202 29052 30109 90656 333 60000
OOXX NZP46 20041 99438 51765 ///// 00221 26/// /1908 10126 29059 30186 90430 333 60000
OOXX NZP46 20041 99438 51765 ///// 00221 26/// /1906 10122 29060 30186 90440 333 60000
OOXX NZP46 20041 99438 51765 ///// 00221 26/// /1907 10121 29057 30187 90450 333 60000
OOXX NZP46 20051 99438 51765 ///// 00221 26/// /1907 10119 29058 30189 90500 333 60000
OOXX NZP46 20051 99438 51765 ///// 00221 26/// /1907 10118 29059 30188 90510 333 60000
OOXX NZP46 20051 99438 51765 ///// 00221 26/// /2006 10117 29059 30189 90520 333 60000
OOXX NZP46 20051 99438 51765 ///// 00221 26/// /1906 10117 29060 30190 90530 333 60000
OOXX NZP46 20051 99438 51765 ///// 00221 26/// /1905 10112 29061 30191 90540 333 60000
OOXX NZP46 20051 99438 51765 ///// 00221 26/// /1906 10113 29062 30191 90550 333 60000
OOXX NZP46 20061 99438 51765 ///// 00221 26/// /1805 10116 29064 30193 90600 333 60000
OOXX NZP46 20061 99438 51765 ///// 00221 26/// /1806 10117 29064 30194 90610 333 60000
OOXX NZP46 20061 99438 51765 ///// 00221 26/// /1806 10114 29063 30195 90620 333 60000
BBXX MDGV9 20064 99556 70009 41698 33020 10050 20025 40075 52020 70200 83800 22233 11003 70015 80040
BBXX VRAC9 20064 99056 10844 41297 80916 10270 2026/ 40090 54/// 78166 889// 22223 00300 2//// 3//// 4//// 5//// 6//// 80260 ICE /////
AAXX 20064 40100 12958 30302 10179 20102 30147 40179 51008 60004 80004 906// 333 20143 30/// 50374 55032 20789 83070 92426
AAXX 20064 91559 46/// /0000 10259 40076 22200 00285
AAXX 20064 71373 17/// /3507 11010 21055 60021 7//4/ 333 10028 21092 70026 555 31925 40151
AAXX 20064 71389 46/// /3109 11060 21104 6///1 333 11014 21135 7//// 555 33118 40051
AAXX 20064 71710 17/// /2213 11005 21009 39984 49993 56049 60031 7//4/ 333 11005 21053 70030 555 31928 40022
AAXX 20064 71713 16/// /3407 11025 21099 60001 333 10000 21115 70022 555 32127 40001
AAXX 20064 71732 16/// /3207 11081 21126 60001 333 10037 21083 70022 555 33422 40211
AAXX 20064 71734 16/// /2907 11114 21144 39808 40211 51015 60001 333 10005 21117 70088 555 33127 40171
AAXX 20064 71710 17/// /2213 11005 21009 39984 49993 56049 60031 7//4/ 333 11005 21053 70030 555 31928 40022
AAXX 20064 71713 16/// /3407 11025 21099 60001 333 10000 21115 70022 555 32127 40001
AAXX 20064 71732 16/// /3207 11081 21126 60001 333 10037 21083 70022 555 33422 40211
AAXX 20064 71734 16/// /2907 11114 21144 39808 40211 51015 60001 333 10005 21117 70088 555 33127 40171
AAXX 20064 71373 17/// /3507 11010 21055 60021 7//4/ 333 10028 21092 70026 555 31925 40151
AAXX 20064 71389 46/// /3109 11060 21104 6///1 333 11014 21135 7//// 555 33118 40051
AAXX 20064 91531 46/// /0608 1//// 40041 22200 00279
AAXX 20061 08568 32/// /3109 10044 20034 38714 48581 57005 333 20011 30101 5//// 55071 21102 555 60005
AAXX 20061 28116 11496 82005 11090 21115 30141 40388 52008 69980 77173 8872/ 333 21105
AAXX 20061 23909 11996 82305 11084 21103 30086 40347 52012 69980 77173 8802/ 333 21100
AAXX 20063 63658 32980 63905 10228 20185 38891 48521 82225 3/3 20185 5900 86280 5/5 10200
AAXX 20063 63684 32470 60903 10204 20160 38846 48/// 64935 3/3 20/// 59001 84820 81922 83275 5/5 10175
AAXX 20063 63680 12560 23507 10217 20174 38850 48/// 60144 82900 3/3 20169 59002 82821 81923 5/5 10188
AAXX 20063 63674 32560 21306 10220 20173 39981 48574 84371/ 3/3 20174 58002 81818 5/5 10198
AAXX 20063 63702 11520 70506 10190 20174 60024 71044 81658 3/3 20151 87620 86363 5/5 10180
AAXX 20063 63630 12980 30904 10245 201733//// 48/// 60034 80001 3/3 20176 5//// 83080 5/5 10198
AAXX 20063 63682 32582 40000 10240 20189 3//// 48/// 82920 3/3 20160 5//// 81820 81923 83361 5/5 10192
AAXX 20063 63602 12970 31403 10245 20165 38809 48/// 69954 83030 3/3 20177 59005 85312 5/5 10192
AAXX 20063 63654 12965 12502 10203 20183 48/// 60044 81001 3/3 81080 5/5 10190
BBXX 44056 20061 99362 70757 46/// ///// 1//// 90620 22200 00115 11102 21001 308// 41101 70008
AAXX 20064 71016 16/// ///// 10039 60001 333 10054 21146 70004
BBXX 46110 20061 99481 71230 46/// /2303 10066 40282 90628
BBXX 46109 20061 99481 71234 46/// /2001 10061 40285 90557 22200 00079
BBXX 44055 20061 99391 70753 46/// ///// 1//// 90630 22200 00080 10301 70004
AAXX 20064 71016 16/// ///// 10039 60001 333 10054 21146 70004
AAXX 20064 91642 46/// /0000 1//// 40066 22200 0////
AAXX 20061 28428 31698 82105 11082 21140 30260 40458 52010 73632 885// 333 21106
AAXX 20061 28321 11499 81704 11089 21123 30208 40425 52010 69950 70283 883// 333 21101
AAXX 20064 89667 46/// /3316 11041 29077 39806 4//// 5//// 90630
AAXX 2006/ 89869 46/// ///// 11046 39707 4//// 5//// 90630
AAXX 2006/ 89329 46/// ///// 11064 38667 4//// 5//// 90630
AAXX 2006/ 89332 46/// ///// 11030 39125 4//// 5//// 90630
AAXX 2006/ 89327 46/// ///// 11025 39940 4//// 5//// 90630
AAXX 2006/ 89879 46/// ///// 10043 39773 4//// 5//// 90630
AAXX 20064 89528 46/// /2928 11183 4//// 5////
AAXX 20064 89628 46/// /3214 4//// 5////
AAXX 20064 60107 32965 01802 10153 20050 40000 333 20050 31003
AAXX 20060 64700 32960 63606 10167 21018 39795 40137 80002 333 01200 20165 51191 55081 58010 86075
AAXX 20060 64701 NIL
AAXX 20060 64702 NIL
AAXX 20060 64705 NIL
AAXX 20060 64706 33960 72204 10160 20121 39648 40126 80002 333 01000 20157 51034 55085 58004 84075
AAXX 20060 64708 NIL
AAXX 20060 64709 NIL
AAXX 20060 64710 NIL
AAXX 20060 64713 NIL
AAXX 20060 64722 33960 60000 10160 20084 3//// 4//// 80002 90555 333 0//00 20125 50534 ///// 55/// 5////
AAXX 20060 64750 32965 60000 10190 20074 39693 40104 80002 90600 333 01200 20160 50661 ///// 55064 59006 86075
AAXX 20060 64751 NIL
AAXX 20060 64753 33960 20000 10150 21018 3//// 4//// 80002 88550 333 0//00 20135 5//// 55/// 5//// 82075
AAXX 20060 64754 NIL
AAXX 20060 64756 33962 40406 10177 21018 39509 4//// 80002 90600 333 0//00 20168 5//// ///// 55/// 58000 84075
AAXX 20060 64757 NIL
AAXX 20060 64758 NIL
AAXX 20060 64761 NIL
BBXX WKAE 20064 99496 70073 41398 83219 10110 20072 40200 52015 70222 884// 22264 00110 2//// 3//// 4//// 5//// 6//// 80090 ICE /////
BBXX VRAC9 20064 99056 10844 41297 80916 10270 2026/ 40090 54/// 78166 889// 22223 00300 2//// 3//// 4//// 5//// 6//// 80260 ICE /////
BBXX 44055 20061 99391 70753 46/// ///// 1//// 90630 22200 00080 10301 70004
BBXX 46109 20061 99481 71234 46/// /2001 10061 40285 90557 22200 00079
BBXX 46110 20061 99481 71230 46/// /2303 10066 40282 90628
BBXX 44056 20061 99362 70757 46/// ///// 1//// 90620 22200 00115 11102 21001 308// 41101 70008
BBXX WDE8265 20063 99386 70652 41398 63019 10180 2017/ 40153 56007 70222 8613/ 22224 0//// 20303 306// 40805 5//// 6//// 80175 ICE /////
BBXX WSM5364 20064 99583 71357 41597 83113 10017 2//// 40020 52/// 70222 885// 22200 04057 20101 3//// 4//00 5//// 6//// 8//// ICE /////
BBXX WDE4789 20064 99595 71437 41598 82717 10050 2//// 40030 52014 71582 885// 22222 0//// 20201 323// 4//05 5//// 6//// 8//// ICE /////
BBXX WDD7412 20064 99582 71369 41598 42725 1//// 2//// 49960 57/// 70211 83508 22231 0//// 20202 332// 4//06 5//// 6//// 8//// ICE /////
BBXX WCN3586 20064 99606 71477 41698 61415 10022 2//// 40024 52/// 70222 85508 22200 0//// 20201 3//// 4//00 5//// 6//// 8//// ICE /////
BBXX WYL4318 20064 99608 71487 41/93 90911 11006 2//// 40010 52/// 77372 89/// 22200 0//// 20000 3//// 4//00 5//// 6//// 8//// ICE /////
BBXX WYX2079 20064 99600 71478 41397 82118 10028 2//// 40019 52/// 76976 8762/ 22222 0//// 20201 321// 4//02 5//// 6//// 8//// ICE /////
BBXX WDE6434 20063 99580 71533 41698 32328 10011 2//// 40050 52035 70200 81508 22222 04044 20202 323// 4//03 5//// 6//// 8//// ICE /////
BBXX WKAE 20064 99496 70073 41398 83219 10110 20072 40200 52015 70222 884// 22264 00110 2//// 3//// 4//// 5//// 6//// 80090 ICE /////
BBXX 66022 20061 99541 10142 46/// /1709 10019 30100 22200 00038
BBXX MDGV9 20064 99556 70009 41698 33020 10050 20025 40075 52020 70200 83800 22233 11003 70015 80040
BBXX AMOUK04 20064 99533 70062 46/// ///// 10068 20040 30127 4//// 54001 90550
BBXX A8CG7 20060 99039 31100 41397 53109 10290 20242 40062 56010 70211 83770 22235 04306 2//// 3//// 4//// 5//// 80255
BBXX MRWF2 20064 99105 31063 41498 51416 10325 2024/ 40060 50010 70322 8574/ 22274 00298 20401 318// 40903 5//// 6//// 80265 ICE /////
BBXX TBWUK17 20063 99183 30814 41497 20910 10187 20239 40147 54000 70100 82145 22253 04280 20603 31312 40502 50603 80251
BBXX AMOUK17 20064 99340 30261 46/// ///// 10189 20174 30156 40159 54000 90550
BBXX ZDLS1 20063 99578 30048 41195 81913 11018 21020 49648 52005 72672 886// 22233 05019 20402 33421 40506 50503 82018
AAXX 20064 71026 16/// /2311 10001 21046 39242 40095 56023 60001 333 7////
AAXX 20064 71170 16/// /2217 11018 21071 60001 333 11018 21142 70000 555 32225 40061
AAXX 20064 71514 16/// /2106 11019 21056 39400 40103 56028 60001 333 11015 21165 70000 555 32120 40231
AAXX 20064 71539 16/// /2519 11004 21048 39395 40094 56029 60001 333 11002 21140 7////
AAXX 20064 71467 16/// /1102 11241 21264 39917 40035 51012 60001 333 11238 21317 70000
AAXX 20064 71467 16/// /1102 11241 21264 39917 40035 51012 60001 333 11238 21317 70000
BBXX ONFP 20064 99245 30602 43596 70737 10240 2021/ 40170 54/// 7//11 87333 22213 04240 20808 30707 40808 50808 6//// 80220
AAXX 20064 92036 46/// /2103 10283 40040 22200 00310
BBXX A8XY2 20064 99455 70194 41/92 /2813 10122 20122 40282 52004 74544 8//// 22254 04130 2//// 80122
BBXX 42043 20061 99290 70949 46/// /1604 1//// 40121 90630 22200 00174 333 91205
BBXX 42043 20061 99290 70949 46/// /1705 1//// 40125 90600 22200 00174 333 91206
BBXX 63110 20064 99595 10015 47495 /1914 10053 20031 49978 53001 763// 22200 10503 70015
BBXX 63106 20064 99610 10017 46/// /1616 10051 49973 57008 22200
BBXX 63113 20064 99610 10017 46/// /1617 10054 20013 49972 57008 22200 10503 70015
BBXX 62304 20064 99511 10018 46/98 /3130 10087 20048 40093 55003 22200 00112 10502 70010 333 90710 91138
BBXX 64045 20064 99591 70117 46/// /2924 10053 20026 40070 52006 22200 00101 10910 70049 333 90710 91134
BBXX 62107 20064 99501 70061 46/// /3321 10108 20051 40195 51018 22200 00116 10704 70019 333 90710 91129
BBXX 62094 20064 99517 70067 46/// /2919 10097 20064 40184 53011 22200 00105 18504 70019 333 90710 91125
BBXX 2AUO5 20063 99606 10016 41397 81517 10064 20043 49970 57010 76366 8/7// 22200 02081 20701 315// 40703 80055
BBXX 62103 20064 99499 70029 46/99 /3223 10105 20051 40164 52019 22200 00122 10703 70015 333 90710 91135
BBXX 42045 20061 99262 70965 46/// /1611 10220 40100 90630 22200 00220 333 91213
BBXX 42045 20061 99262 70965 46/// /1611 10221 40103 90600 22200 00220 333 91212
AAXX 20064 93713 46/// /0000 10175 40220 22200 00174
BBXX 42047 20061 99279 70936 46/// /1609 10214 20196 40137 90630 22200 00227 333 91210
BBXX 42047 20061 99279 70936 46/// /1609 10215 20194 40137 90600 22200 00227 333 91210
AAXX 20061 15108 01/91 90000 11046 21046 38003 48433 57015 60052 77174 333 11045 21079 3//// 47012 60047 70051 92727 92800 93537 96045
BBXX 42085 20061 99179 70665 46/// /0405 10254 40163 57010 90600 22200 00277 10601 70006 333 91206
BBXX 46094 20061 99446 71243 46/// /0602 10072 90630
BBXX 46094 20061 99446 71243 46/// /0802 10071 90620
BBXX 46094 20061 99446 71243 46/// /0503 10071 90610
BBXX 46094 20061 99446 71243 46/// /0801 10073 90600
BBXX 46094 20061 99446 71243 46/// /3401 10072 90550
BBXX 46094 20061 99446 71243 46/// /0101 10071 90540
BBXX WDE6434 20063 99580 71533 41698 32328 10011 2//// 40050 52035 70200 81508 22222 04044 20202 323// 4//03 5//// 6//// 8//// ICE /////
BBXX WDB9949 20064 99508 71486 41797 62623 10060 20020 40190 51010 70122 86710 22273 00050 21004 326// 41410 5//// 6//// 80040 ICE /////
BBXX WDD7412 20064 99582 71369 41598 42725 1//// 2//// 49960 57/// 70211 83508 22231 0//// 20202 332// 4//06 5//// 6//// 8//// ICE /////
BBXX WDE4789 20064 99595 71437 41598 82717 10050 2//// 40030 52014 71582 885// 22222 0//// 20201 323// 4//05 5//// 6//// 8//// ICE /////
BBXX WSM5364 20064 99583 71357 41597 83113 10017 2//// 40020 52/// 70222 885// 22200 04057 20101 3//// 4//00 5//// 6//// 8//// ICE /////
BBXX WYX2079 20064 99600 71478 41397 82118 10028 2//// 40019 52/// 76976 8762/ 22222 0//// 20201 321// 4//02 5//// 6//// 8//// ICE /////
OOXX AAPIG 20064 99758 51003 56251 08502 46/// /0910 11102 21209 38965 49955 52007 90550
AAXX 20064 91689 46/// /1404 10257 40098 22200 00283
AAXX 20064 64500 31358 83606 10255 20232 30099 40112 71799 889// 333 02300 20224 50021 55030 58006 85608 81920 88628 94947 95837
AAXX 20064 64501 32360 72008 10260 20239 3//// 4//// 8583/ 333 0//00 20254 50394 55063 5//// 83608 83811 86360 94909 95839
AAXX 20064 64510 31340 8//// 10210 20207 3//// 4//// 710// 885// 333 0//00 2//// 5///4 55/// 5//// 88607
AAXX 20064 64550 11358 8//// 10235 20215 30/// 40/// 60114 70162 885// 333 01008 20225 50124 55/// 5//// 84606 88623
AAXX 20064 64551 31240 80000 10240 20232 30093 40122 60054 71022 885// 333 0//33 20214 50034 55/// 58005 82703 83610 88626
AAXX 20064 64556 32460 8//// 10227 20225 39538 40130 885// 333 0//00 20225 50024 55010 58004 88610
AAXX 20064 64560 32158 7//// 10225 20222 39578 40114 8393/ 333 0//00 20218 50104 55/// 58001 82702 83615 81916 87360 94942 95832
AAXX 20064 64570 32560 81802 10230 20221 39626 40135 885// 333 02200 20262 50124 55/// 58004 88626
AAXX 2006/ 89667 46/// ///// 11041 39805 4//// 5//// 90640
BBXX A8DH2 20063 99373 10060 41598 63028 10136 20082 40251 53009 76066 85728 22224 04178 20508 399// 40508 80109
BBXX 46094 20061 99446 71243 46/// /0101 10071 90540
BBXX 46094 20061 99446 71243 46/// /3401 10072 90550
BBXX 46094 20061 99446 71243 46/// /0802 10071 90620
BBXX 46094 20061 99446 71243 46/// /0602 10072 90630
BBXX 46094 20061 99446 71243 46/// /0503 10071 90610
BBXX 46094 20061 99446 71243 46/// /0801 10073 90600
BBXX 42085 20061 99179 70665 46/// /0405 10254 40163 57010 90600 22200 00277 10601 70006 333 91206
BBXX 42047 20061 99279 70936 46/// /1609 10215 20194 40137 90600 22200 00227 333 91210
BBXX 42047 20061 99279 70936 46/// /1609 10214 20196 40137 90630 22200 00227 333 91210
BBXX 42045 20061 99262 70965 46/// /1611 10220 40100 90630 22200 00220 333 91213
BBXX 42045 20061 99262 70965 46/// /1611 10221 40103 90600 22200 00220 333 91212
BBXX 42043 20061 99290 70949 46/// /1604 1//// 40121 90630 22200 00174 333 91205
BBXX 42043 20061 99290 70949 46/// /1705 1//// 40125 90600 22200 00174 333 91206
BBXX A8XY2 20064 99455 70194 41/92 /2813 10122 20122 40282 52004 74544 8//// 22254 04130 2//// 80122
AAXX 20064 89262 46/// /1307 11015 21033 39909 49953 52009 90600
AAXX 20064 89065 46/// /9902 11014 21028 39841 49919 52012 90610
AAXX 20064 89257 46/// /1206 11049 21055 39905 49976 52007 90610
AAXX 20064 89272 46/// /0000 11131 21148 38145 49810 52005 90620
AAXX 20064 89257 46/// /1106 1//// 2//// 39904 4//// 52006 90620
AAXX 20064 89272 46/// /9901 11132 21149 38144 49809 52005 90600
AAXX 20064 89257 46/// /1106 11049 21054 39906 49977 52008 90620
AAXX 20064 89257 46/// /1206 11048 21057 39905 49976 52008 90600
AAXX 20064 04418 NIL
AAXX 20064 04425 NIL
AAXX 20064 04432 NIL
AAXX 20064 04436 NIL
AAXX 20064 04464 46/// /1808 11376 21413 333 553// 20004
AAXX 20064 04485 46/// /0000 11399 21426 37188 52001 333 553// 20000
AAXX 20064 04488 NIL
AAXX 20064 64810 31458 60000 10230 20199 30080 40106 83530 333 20226 58009 84614 86365
AAXX 20064 89013 46/// /0511 11197 21220 37729 49779 52012 90550
AAXX 20064 89065 46/// /1804 11012 21031 39839 49917 52012 90550
AAXX 20064 89257 46/// /1105 11047 21057 39905 49976 52008 90550
AAXX 20064 89262 46/// /1306 11014 21031 39909 49953 52009 90550
AAXX 20064 89266 46/// /2805 11049 21063 39804 49944 57024 90550
AAXX 20064 65001 31925 73502 10136 20074 3//// 4//// 70522 80008 333 20132 5//// 87280
AAXX 20064 65101 31940 70000 10192 20176 39699 40097 70522 80008 333 20186 59025 87280
AAXX 20064 65112 31956 72004 10170 20109 3//// 4//// 70522 80008 333 20170 5//// 87280
AAXX 20064 65145 32962 70000 10175 20135 3//// 4//// 80008 333 5//// 87280
AAXX 20064 65123 32960 70515 10220 20085 30087 40116 80008 333 20194 58007 87280
AAXX 20064 65213 32460 70000 10254 20238 3//// 4//// 81511 333 20244 5//// 87610
AAXX 20064 65215 11440 70000 10213 20205 3//// 4//// 60001 70522 86508 333 20196 5//// 86610
AAXX 20064 71988 16/// /2624 10072 20040 30035 40054 56013 60001 333 10075 21028 70006 555 32733 40062
AAXX 20064 17310 12970 40602 10141 20092 30174 40181 50006 60002 84030 333 20132 31009 55056 84360 91104 92428
AAXX 20064 65201 31340 60103 10240 20234 30075 40130 71022 84508 333 20236 56500 57632 58003 84608 85280 91105 94463
AAXX 20064 89065 46/// /1804 11012 21031 39839 49917 52012 90550
BBXX 63110 20063 99595 10015 41/96 /1918 10056 49978 700// 8//// 22200 10503 70015
BBXX 64045 20064 99591 70117 46/// /2924 10053 20024 40070 52006 22200 00101 10910 70049 333 90710 91134
BBXX AMOUK08 20064 99501 70061 46/// ///// 10112 20064 30190 40195 52012 90550
BBXX 63055 20064 99606 10016 47397 /1415 10056 20015 49968 56010 762// 22200 10502 70012
BBXX 63106 20064 99610 10017 46/// /1616 10051 49973 57008 22200
BBXX 63105 20064 99610 10017 47498 ///// 10059 20013 49973 56009 700// 22200
BBXX 62304 20064 99511 10018 46/98 /3133 10087 20049 40093 55003 22200 00111 10502 70010
BBXX 62094 20064 99517 70067 46/// /2919 1//// 2//// 40184 53011 22200 00105 10504 70019 333 90710 91125
BBXX 62103 20064 99499 70029 46/99 /3325 10107 20062 40158 52018 22200 00122 10703 70015 333 90710 91131
BBXX 42013 20061 99272 70829 46/// ///// 1//// 40218 90620 22200 00197
BBXX 42013 20061 99272 70829 46/// ///// 1//// 40219 58008 90600 22200 00197
BBXX UHMI 20061 99451 11382 42298 23208 11060 40213 52020 82200 22233 06020 20301 33200 40502
AAXX 20061 02935 11028 81501 10000 21001 39803 49977 52014 60022 771// 88/// 333 10008 21001 3/100 4/009
AAXX 20061 98132 11445 80906 10210 20207 40185 57016 60031 76164 8622/ 333 56299 86816 88457
AAXX 20061 98133 31467 70705 10/// 20/// 40120 5//// 70544 83270 222// 20703 333 56299 83818 87359
AAXX 20061 98222 31575 13603 10300 20239 40084 57027 70544 81100 333 56899 81823
AAXX 20061 98233 11568 80000 10253 20230 40109 57028 60081 70564 8557/ 333 56899 85620 88358
AAXX 20061 98324 31465 63203 10305 20257 40073 57023 70544 83271 333 56999 83816 86280
AAXX 20061 98327 31668 70901 10307 20218 39915 40088 57033 70544 82270 333 56999 82842 87360
AAXX 20061 98334 11460 80000 10260 20233 39900 40105 57032 69991 76062 8387/ 333 56999 83817 88457
AAXX 20061 98425 11560 83604 10280 20240 40085 57022 69951 78084 8687/ 333 56999 86620 88457
AAXX 20061 98426 31570 40705 10307 20223 40084 57027 70544 84200 333 56999 84820
AAXX 20061 98427 11472 30404 10292 20258 39898 40075 57025 69901 70186 83270 333 56199 83818
AAXX 20061 98428 31462 63604 10300 20261 40084 57030 71544 83968 333 56699 81917 83359
AAXX 20061 98432 11568 50403 10323 20257 40077 57029 69901 70564 83202 333 56999 83820
AAXX 20061 98433 31462 70207 10243 20223 39381 40098 57019 71544 85273 333 56999 85812
AAXX 20061 98434 11465 73603 10266 20258 30087 40095 57022 60021 71686 84870 333 56199 84817 86358
AAXX 20061 98435 32475 60402 10280 20246 40081 5//// 83270 333 56199 83818 85358
AAXX 20061 98442 NIL
AAXX 20061 98446 11475 60904 10280 20267 30050 40096 57025 60051 71562 83202 333 56299 83818 85070
AAXX 20061 98447 11475 80905 10260 20253 39820 40083 5//// 60011 71582 84807 333 56299 84816 88270
AAXX 20061 98538 31466 63602 10295 20263 30075 40080 58030 70544 82206 333 56199 82811 84072
AAXX 20061 98546 21575 40405 10297 20275 30058 40066 57033 69901 70182 82201 333 56199 82820 83075
AAXX 20061 98548 11480 50402 10320 20255 30060 40066 58037 60021 70381 8//// 333 56299 84816 98323
AAXX 20061 98553 11465 60404 10296 20262 30076 40080 57023 60081 71584 83901 333 56199 82915 85074
AAXX 20061 98558 11468 40607 10292 20271 40059 58033 60061 70584 83378 222// 20600 333 56299 82515
AAXX 20061 98642 32465 30403 10310 20255 30052 40061 57031 82270 333 56199 82815
AAXX 20061 98644 11465 73401 10290 20271 30057 40066 57030 60071 78084 83360 333 56199 83916 87358
AAXX 20061 98648 11470 60000 10300 20274 39992 40074 57028 69981 71584 84922 333 56229 81912 83817 85072
AAXX 20061 98746 31462 63602 10325 20258 40069 58025 70544 83206 333 56599 83818 85075
AAXX 20061 98751 11475 70901 10310 20244 39367 40031 57033 69921 72584 84970 333 56299 84915 85356
AAXX 20061 98752 11465 73301 10289 20255 40071 57026 60051 72584 82970 333 56999 82916 87358
AAXX 20061 98851 31570 31403 10324 20251 39902 40049 57028 70544 82361 333 56399 82920
AAXX 20064 78982 01480 40711 10254 20226 30124 40129 57010 60021 70188 82201 333 59001 60017 82816 84081
BBXX 42369 20061 99272 70903 46/// /1907 1//// 90540 22200 10402 70012
BBXX 42370 20061 99273 70905 46/// ///// 10218 90540 22200 10502 70010
BBXX 42376 20061 99291 70879 46/// /1213 10216 40166 90540 22200 10603 70017
BBXX 42887 20061 99282 70885 46/// /1908 1//// 90540 22200 10503 70015
AAXX 20064 62010 12660 42507 10059 20027 40240 53011 69924 84800 333 20059 50404 55050 83835 83640
AAXX 20061 01047 11650 80000 11006 21013 39586 49958 52005 60032 77172 8802/ 333 47027 70037
BBXX 42370 20061 99273 70905 46/// ///// 10218 90540 22200 10502 70010
BBXX 42369 20061 99272 70903 46/// /1907 1//// 90540 22200 10402 70012
BBXX 42376 20061 99291 70879 46/// /1213 10216 40166 90540 22200 10603 70017
BBXX 42887 20061 99282 70885 46/// /1908 1//// 90540 22200 10503 70015
BBXX 42013 20061 99272 70829 46/// ///// 1//// 40218 90620 22200 00197
BBXX 42013 20061 99272 70829 46/// ///// 1//// 40219 58008 90600 22200 00197
BBXX DQVN 20064 99062 10937 41598 60715 10285 20234 40080 58020 70322 83248 22264 00295 2//// 80248
AAXX 20064 60105 32960 01206 10064 20019 40268 5//// 333 20060 31002
BBXX 63110 20064 99595 10015 47495 /1914 10053 20031 49978 53001 763// 22200 10503 70015
BBXX 63106 20064 99610 10017 46/// /1616 10051 49973 57008 22200
BBXX 63113 20064 99610 10017 46/// /1617 10054 20013 49972 57008 22200 10503 70015
BBXX 62304 20064 99511 10018 46/98 /3130 10087 20048 40093 55003 22200 00112 10502 70010 333 90710 91138
BBXX 64045 20064 99591 70117 46/// /2924 10053 20026 40070 52006 22200 00101 10910 70049 333 90710 91134
BBXX 62107 20064 99501 70061 46/// /3321 10108 20051 40195 51018 22200 00116 10704 70019 333 90710 91129
BBXX 62094 20064 99517 70067 46/// /2919 10097 20064 40184 53011 22200 00105 18504 70019 333 90710 91125
BBXX 2AUO5 20063 99606 10016 41397 81517 10064 20043 49970 57010 76366 8/7// 22200 02081 20701 315// 40703 80055
BBXX 62103 20064 99499 70029 46/99 /3223 10105 20051 40164 52019 22200 00122 10703 70015 333 90710 91135
BBXX UGSN 20061 99450 11371 42598 13108 11060 40218 57009 81200 22213 00048 20403 61010
BBXX UHMI 20061 99451 11382 42298 23208 11060 40213 52020 82200 22233 06020 20301 33200 40502
AAXX 20064 64390 32565 60505 10235 20191 39248 48512 81131 333 20196 58004 81825 85080 1015
AAXX 20061 08509 32660 71704 10149 20100 30254 40318 57009 875// 333 20149 50354 55021 87635
AAXX 20061 08515 32580 70703 10153 20100 30194 40317 57008 876// 333 20153 30013 50264 55/// 87633 910// 911//
AAXX 20061 08515 32580 70703 10153 20100 30194 40317 57008 876// 333 20153 30013 50264 55/// 87633 910// 911// 555 60007 912//
AAXX 20061 08509 32660 71704 10149 20100 30254 40318 57009 875// 333 20149 50354 55021 87635 555 60007
BBXX WZJC 20063 99250 70852 41/98 71125 10244 2021/ 40176 57013 70222 8//// 22273 00267 2//// 3//// 4//// 5//// 6//// 80217 ICE /////
AAXX 20064 62600 32970 03603 10170 20070 39967 40178 333 10260 20130 59001
AAXX 20064 62640 32970 03608 10205 20105 39772 40135 333 10317 20165 59003
AAXX 20064 62641 31962 33412 10245 20210 30127 40174 70720 83040 333 10276 20223 56090 58008 83365
AAXX 20064 62650 32970 03507 10150 21020 3978 40157 333 10288 20130 59005
AAXX 20064 62680 31968 03504 10210 20110 39732 40132 70600 333 10335 20185 58002
AAXX 20064 62721 31962 73407 10210 20050 39692 40139 70622 80007 333 19335 20194 56009 5004 87275
AAXX 20064 62730 32970 00405 10253 20187 39586 40149 333 10350 20222 59008
AAXX 20064 62750 32970 73408 10210 20100 39685 40122 80007 333 10340 20170 56009 58011 87275
AAXX 20064 62751 32970 70204 10210 20000 39675 40139 80007 333 10365 20135 56009 59003 87275
AAXX 20064 62752 32970 70203 10244 20156 39443 40188 80007 333 10365 20202 56009 59002 87275
AAXX 20064 62760 31965 70503 10146 21042 39329 40162 70622 80007 333 10305 20125 56009 59002 87275
AAXX 20064 62770 31965 70902 10150 21020 39231 40147 70622 80007 333 10327 20135 56009 58005 87275
AAXX 20064 62771 32970 73506 10273 20010 39404 40161 80007 333 10310 20140 56009 58005 87275
BBXX WZJC 20063 99250 70852 41/98 71125 10244 2021/ 40176 57013 70222 8//// 22273 00267 2//// 3//// 4//// 5//// 6//// 80217 ICE /////
BBXX DQVN 20064 99062 10937 41598 60715 10285 20234 40080 58020 70322 83248 22264 00295 2//// 80248
AAXX 20064 87257 32965 61109 10250 20131 39940 40037 58016 86070 333 56040 86360
BBXX MDGV9 20064 99556 70009 41698 33020 10050 20025 40075 52020 70200 83800 22233 11003 70015 80040
BBXX AMOUK04 20064 99533 70062 46/// ///// 10068 20040 30127 4//// 54001 90550
BBXX PEBT 20063 99498 70027 41497 43224 10105 20077 40160 53010 7//22 845// 22213 02100 20503 329// 41104 5//// 80090
BBXX WKAE 20064 99496 70073 41398 83219 10110 20072 40200 52015 70222 884// 22264 00110 2//// 3//// 4//// 5//// 6//// 80090 ICE /////
BBXX DDYZ2 20064 99476 70065 41/98 63528 10136 20089 40215 53005 7//// 8//// 22213 04130 2//// 80110
BBXX A8XY2 20064 99455 70194 41/92 /2813 10122 20122 40282 52004 74544 8//// 22254 04130 2//// 80122
BBXX V2BK8 20073 99400 70101 41/98 79904 10155 20102 40300 54000 7//// 8//7/ 22253 20000 331// 40902 80125
AAXX 20061 11212 31589 12902 11147 21171 37749 48452 56008 70230 81500 333 21147 44018 81620 92610
AAXX 2006/ 68902 46/// ///// 40100 52006
AAXX 20064 91375 46/// /0610 10284 40069 22200 00283
AAXX 20064 87416 32965 10000 10259 20078 39314 40018 53009 81070 333 56050 81365
AAXX 20064 60185 32960 /1007 10088 20082 40255 5//// 8//// 333 20084 30005 8////
BBXX 42369 20061 99272 70903 46/// /1906 1//// 90600 22200 10402 70012
BBXX 42370 20061 99273 70905 46/// ///// 10218 90600 22200 10402 70010
BBXX 42376 20061 99291 70879 46/// /1212 10213 40164 90600 22200 10704 70018
BBXX 42887 20061 99282 70885 46/// /1807 1//// 90600 22200 10503 70016
AAXX 20064 91165 32566 40621 10233 20178 30165 40199 53023 90553
AAXX 20064 91203 11474 40911 10316 20264 30080 40085 56019 69981 70382 82271
AAXX 20064 91212 12566 40714 10289 20244 31346 40084 56015 69901 90554
AAXX 20064 91285 11566 80000 10211 20000 30171 40184 53017 60261 761// 90553
AAXX 20064 91317 11473 80910 10283 20268 30049 40053 5//// 60011 70282 82952
AAXX 20064 91324 11474 81310 10283 20252 30055 40057 60021 70262 8423/
AAXX 20064 91334 11474 80610 10290 20246 30058 40061 55007 69931 70282 82171
AAXX 20064 91348 11474 80410 10284 20248 30014 40066 55002 69901 70282 8522/
AAXX 20064 91376 32474 80813 10283 20213 30066 40069 53012 84808
AAXX 20064 91408 32574 70509 10311 20235 30024 40062 57014 83201
AAXX 20064 91413 32469 60710 10301 20243 30041 40066 57017 83271
AAXX 20064 91155 NIL
AAXX 20064 91217 NIL
AAXX 20064 91232 NIL
AAXX 20064 91245 NIL
AAXX 20064 91250 NIL
AAXX 20064 91275 NIL
AAXX 20064 91339 NIL
AAXX 20064 91353 NIL
AAXX 20064 91356 NIL
AAXX 20064 91366 NIL
AAXX 20064 91367 NIL
AAXX 20064 91369 NIL
AAXX 20064 91371 NIL
AAXX 20064 91378 NIL
AAXX 20064 91425 NIL
AAXX 20064 91434 NIL
AAXX 20064 91601 NIL
AAXX 20064 91610 NIL
AAXX 20061 26509 11570 62305 10033 20018 30117 40126 52005 60082 72588 86500 333 20020 31/// 86626 91010 91114 555 53019 7011/
AAXX 20064 03008 11482 33024 10051 20000 40001 60052 70386 83200 90550 333 20046 31/// 70048 83818 90710 91138 91036
BBXX 63110 20063 99595 10015 41/96 /1918 10056 49978 700// 8//// 22200 10503 70015
BBXX 64045 20064 99591 70117 46/// /2924 10053 20024 40070 52006 22200 00101 10910 70049 333 90710 91134
BBXX AMOUK08 20064 99501 70061 46/// ///// 10112 20064 30190 40195 52012 90550
BBXX 63055 20064 99606 10016 47397 /1415 10056 20015 49968 56010 762// 22200 10502 70012
BBXX 63106 20064 99610 10017 46/// /1616 10051 49973 57008 22200
BBXX 63105 20064 99610 10017 47498 ///// 10059 20013 49973 56009 700// 22200
BBXX 62304 20064 99511 10018 46/98 /3133 10087 20049 40093 55003 22200 00111 10502 70010
BBXX 62094 20064 99517 70067 46/// /2919 1//// 2//// 40184 53011 22200 00105 10504 70019 333 90710 91125
BBXX 62103 20064 99499 70029 46/99 /3325 10107 20062 40158 52018 22200 00122 10703 70015 333 90710 91131
AAXX 20064 91165 32566 40621 10233 20178 30165 40199 53023 90553
AAXX 20064 91212 12566 40714 10289 20244 31346 40084 56015 69901 90554
AAXX 20064 91285 11566 80000 10211 20000 30171 40184 53017 60261 761// 90553
AAXX 20064 91317 11473 80910 10283 20268 30049 40053 5//// 60011 70282 82952
AAXX 20064 91334 11474 80610 10290 20246 30058 40061 55007 69931 70282 82171
AAXX 20064 91348 11474 80410 10284 20248 30014 40066 55002 69901 70282 8522/
AAXX 20064 91376 32474 80813 10283 20213 30066 40069 53012 84808
AAXX 20064 91408 32574 70509 10311 20235 30024 40062 57014 83201
AAXX 20064 91413 32469 60710 10301 20243 30041 40066 57017 83271
BBXX 42887 20061 99282 70885 46/// /1807 1//// 90600 22200 10503 70016
BBXX 42376 20061 99291 70879 46/// /1212 10213 40164 90600 22200 10704 70018
BBXX 42369 20061 99272 70903 46/// /1906 1//// 90600 22200 10402 70012
BBXX 42370 20061 99273 70905 46/// ///// 10218 90600 22200 10402 70010
AAXX 20064 71382 16/// /3606 11111 21136 39126 40080 53018 60001 333 11050 21170 70100
AAXX 20064 71494 17/// /3108 11054 21069 39573 40098 53028 60021 7//4/ 333 10000 21162 70040 555 10020 20040 32124 40171
AAXX 20064 71812 46464 83307 11171 21201 39845 49859 6///1 333 11130 21301 7////
AAXX 20064 71824 46/// /2906 11149 21167 6///1 333 11035 21149 7//// 555 32920 40191
AAXX 20064 71619 16/// /2811 11034 21056 39941 40000 57008 60001 333 11034 21160 70000 555 31918 40001
AAXX 20063 63658 32980 10228 20185 38891 48521 82225 333 20185 86280 555 10200
AAXX 20063 63684 32470 60903 10204 20160 38846 48/// 64935 333 20/// 59001 84820 81922 83275 555 10175
AAXX 20063 63680 12560 23507 10217 20174 38850 48/// 60144 82900 333 20169 59002 82821 81923 555 10188
AAXX 20063 63674 32560 21306 10220 20173 39981 48574 84371 333 20174 58002 81818 555 10198
AAXX 20063 63702 11520 70506 10190 20174 60024 71044 81658 333 20151 87620 86363 555 10180
AAXX 20063 63630 12980 30904 10245 20173 3//// 48/// 60034 80001 333 20176 5//// 83080 555 10198
AAXX 20063 63682 32582 40000 10240 20189 3//// 48/// 82920 333 20160 5//// 81820 81923 83361 555 10192
AAXX 20063 63602 12970 31403 10245 20165 38809 48/// 69954 83030 333 20177 59005 85312 555 10192
AAXX 20063 63654 12965 12502 10203 20183 48/// 60044 81001 333 81080 555 10190
AAXX 20063 63658 32980 10228 20185 38891 48521 82225 333 20185 86280 555 10200
AAXX 20063 63684 32470 60903 10204 20160 38846 48/// 64935 333 20/// 59001 84820 81922 83275 555 10175
AAXX 20063 63680 12560 23507 10217 20174 38850 48/// 60144 82900 333 20169 59002 82821 81923 555 10188
AAXX 20063 63674 32560 21306 10220 20173 39981 48574 84371 333 20174 58002 81818 555 10198
AAXX 20063 63702 11520 70506 10190 20174 60024 71044 81658 333 20151 87620 86363 555 10180
AAXX 20063 63630 12980 30904 10245 20173 3//// 48/// 60034 80001 333 20176 5//// 83080 555 10198
AAXX 20063 63682 32582 40000 10240 20189 3//// 48/// 82920 333 20160 5//// 81820 81923 83361 555 10192
AAXX 20063 63602 12970 31403 10245 20165 38809 48/// 69954 83030 333 20177 59005 85312 555 10192
AAXX 20063 63654 12965 12502 10203 20183 48/// 60044 81001 333 81080 555 10190
AAXX 20060 64700 32960 63606 10167 21018 39795 40137 80002 333 01200 20165 51191 55081 58010 86075
AAXX 20060 64701 NIL
AAXX 20060 64702 NIL
AAXX 20060 64705 NIL
AAXX 20060 64706 33960 72204 10160 20121 39648 40126 80002 333 01000 20157 51034 55085 58004 84075
AAXX 20060 64708 NIL
AAXX 20060 64709 NIL
AAXX 20060 64710 NIL
AAXX 20060 64713 NIL
AAXX 20060 64722 33960 60000 10160 20084 3//// 4//// 80002 90555 333 0//00 20125 50534 55/// 5////
AAXX 20060 64750 32965 60000 10190 20074 39693 40104 80002 90600 333 01200 20160 50661 55064 59006 86075
AAXX 20060 64751 NIL
AAXX 20060 64753 33960 20000 10150 21018 3//// 4//// 80002 333 0//00 20135 5//// 55/// 5//// 82075
AAXX 20060 64754 NIL
AAXX 20060 64756 33962 40406 10177 21018 39509 4//// 80002 90600 333 0//00 20168 5//// 55/// 58000 84075
AAXX 20060 64757 NIL
AAXX 20060 64758 NIL
AAXX 20060 64761 NIL
AAXX 20060 64700 32960 63606 10167 21018 39795 40137 80002 333 01200 20165 51191 55081 58010 86075
AAXX 20060 64701 NIL
AAXX 20060 64702 NIL
AAXX 20060 64705 NIL
AAXX 20060 64706 33960 72204 10160 20121 39648 40126 80002 333 01000 20157 51034 55085 58004 84075
AAXX 20060 64708 NIL
AAXX 20060 64709 NIL
AAXX 20060 64710 NIL
AAXX 20060 64713 NIL
AAXX 20060 64722 33960 60000 10160 20084 3//// 4//// 80002 90555 333 0//00 20125 50534 55/// 5////
AAXX 20060 64750 32965 60000 10190 20074 39693 40104 80002 90600 333 01200 20160 50661 55064 59006 86075
AAXX 20060 64751 NIL
AAXX 20060 64753 33960 20000 10150 21018 3//// 4//// 80002 333 0//00 20135 5//// 55/// 5//// 82075
AAXX 20060 64754 NIL
AAXX 20060 64756 33962 40406 10177 21018 39509 4//// 80002 90600 333 0//00 20168 5//// 55/// 58000 84075
AAXX 20060 64757 NIL
AAXX 20060 64758 NIL
AAXX 20060 64761 NIL
AAXX 20061 11101 11565 51605 11024 21077 39629 40175 57026 69912 72272 85600 333 11012 21029 47009 85625 91114 93101 91114
BBXX MINFR09 2006/ 99327 31525 46/// ///// 40137 57012
BBXX 42046 20061 99279 70940 46/// /1610 1//// 40129 90630 22200 00224 333 91212
BBXX 42046 20061 99279 70940 46/// /1609 1//// 40135 90600 22200 00224 333 91211
BBXX MINFR09 2006/ 99327 31525 46/// ///// 40137 57012
BBXX 42046 20061 99279 70940 46/// /1610 1//// 40129 90630 22200 00224 333 91212
BBXX 42046 20061 99279 70940 46/// /1609 1//// 40135 90600 22200 00224 333 91211
AAXX 20064 62325 31956 60000 10144 20138 40183 52017 71020 86020 333 20140
AAXX 20064 16172 12965 00000 11048 21056 39871 40187 51000 60002 333 21048 34/// 55/// 2//// 92611
BBXX 63110 20064 99595 10015 47495 /1914 10053 20031 49978 53001 763// 22200 10503 70015
BBXX 63106 20064 99610 10017 46/// /1616 10051 49973 57008 22200
BBXX 63113 20064 99610 10017 46/// /1617 10054 20013 49972 57008 22200 10503 70015
BBXX 62304 20064 99511 10018 46/98 /3130 10087 20048 40093 55003 22200 00112 10502 70010 333 90710 91138
BBXX 64045 20064 99591 70117 46/// /2924 10053 20026 40070 52006 22200 00101 10910 70049 333 90710 91134
BBXX 62107 20064 99501 70061 46/// /3321 10108 20051 40195 51018 22200 00116 10704 70019 333 90710 91129
BBXX 62094 20064 99517 70067 46/// /2919 10097 20064 40184 53011 22200 00105 18504 70019 333 90710 91125
BBXX 2AUO5 20063 99606 10016 41397 81517 10064 20043 49970 57010 76366 8/7// 22200 02081 20701 315// 40703 80055
BBXX 62103 20064 99499 70029 46/99 /3223 10105 20051 40164 52019 22200 00122 10703 70015 333 90710 91135
AAXX 20064 61202 NIL
AAXX 20064 61214 NIL
AAXX 20064 61223 32960 20206 10135 21049 39838 40150 80002 333 00800 20130 50614 55064 58009 82075
AAXX 20064 61226 32960 53602 10155 20038 39841 40140 80002 333 01200 20150 50594 55095 58005 85075
AAXX 20064 61230 NIL
AAXX 20064 61233 32960 60604 10153 21006 3//// 4//// 80002 333 00700 20153 50494 55/// 5//// 86075
AAXX 20064 61235 32960 40604 10206 20048 3//// 4//// 80002 333 0//00 20206 51524 55096 5//// 84075
AAXX 20064 61240 32960 70000 10188 20004 39803 40129 80002 333 01200 20170 50724 55102 58011 87075
AAXX 20064 61250 32960 50000 10140 20025 3//// 4//// 80002 333 01000 20140 50734 55109 5//// 85075
AAXX 20064 61257 32960 41406 10164 21008 30061 40155 80002 333 00900 20164 50664 55101 59007 84075
AAXX 20064 61265 32960 50806 10130 20060 39810 40120 82042 333 00950 20128 50670 55095 58003 82365 83075
AAXX 20064 61270 32960 30000 10160 20031 3//// 4//// 80002 333 01100 20155 50654 55085 5//// 83075
AAXX 20064 61272 32960 40404 10161 20052 39795 40123 80002 333 01400 20160 5//// 55096 58003 84075
AAXX 20064 61277 32960 20404 10173 20051 39800 40120 80002 333 01200 20170 50601 55101 58006 82075
AAXX 20064 61285 32960 40000 10135 20061 39971 40123 80002 333 00800 20133 50484 55073 58001 84075
AAXX 20064 61291 32960 40404 10109 20046 39703 40121 80002 333 00300 20103 50411 55089 58013 84075
AAXX 20064 61293 32960 30000 10160 20071 3//// 4//// 80002 333 01000 20160 50540 55088 5//// 83075
AAXX 20064 61296 32960 50000 10143 20098 3//// 4//// 80002 333 00700 20138 50480 55084 5//// 85075
AAXX 20064 61297 31956 60000 10180 20074 3//// 4//// 70422 80002 333 01000 20167 50701 55100 5//// 86075
AAXX 20061 03955 11475 82804 10072 20049 39994 40193 53007 69902 75052 885// 333 20066 31005 55000 82712 85620 87640
BBXX 42369 20061 99272 70903 46/// /1906 1//// 90620 22200 10402 70012
BBXX 42370 20061 99273 70905 46/// ///// 10218 90620 22200 10402 70011
BBXX 42376 20061 99291 70879 46/// /1212 10213 40164 90620 22200 10704 70018
BBXX 42887 20061 99282 70885 46/// /1906 1//// 90620 22200 10604 70019
BBXX UGOD 20061 99454 11395 42698 43410 11051 40201 54000 84200 22212 00053 20503 30100 40402
BBXX 42887 20061 99282 70885 46/// /1906 1//// 90620 22200 10604 70019
BBXX 42376 20061 99291 70879 46/// /1212 10213 40164 90620 22200 10704 70018
BBXX 42370 20061 99273 70905 46/// ///// 10218 90620 22200 10402 70011
BBXX 42369 20061 99272 70903 46/// /1906 1//// 90620 22200 10402 70012
BBXX 52243 20061 99193 11666 46/// ///// 1//// 90600 22200 00269
BBXX 51179 20061 99143 51708 46/// ///// 1//// 90600 22200 00287
BBXX 51178 20061 99142 51695 46/// ///// 1//// 90600 22200 00285
BBXX 52246 20061 99152 11457 46/// ///// 1//// 90600 22200 00282
BBXX 51176 20061 99278 71758 46/// ///// 1//// 90600 22200 00238
BBXX 52245 20061 99181 11458 46/// ///// 1//// 90600 22200 00287
BBXX 51174 20061 99142 51697 46/// ///// 1//// 90600 22200 00289
BBXX 52244 20061 99200 11452 46/// ///// 1//// 90600 22200 00271
BBXX 51173 20061 99260 71739 46/// ///// 1//// 90600 22200 00245
BBXX 51172 20061 99284 71783 46/// ///// 1//// 90600 22200 00233
BBXX 51171 20061 99064 71623 46/// ///// 1//// 90600 22200 00278
BBXX 51170 20061 99168 71695 46/// ///// 1//// 90600 22200 00260
BBXX 51169 20061 99004 51600 46/// ///// 1//// 90600 22200 00259
BBXX 52248 20061 99135 11448 46/// ///// 1//// 90600 22200 00281
AAXX 20061 01257 11470 22102 10008 21029 39831 49993 52007 60022 70210 81460 333 20004 70044 91107
BBXX UGOD 20061 99454 11395 42698 43410 11051 40201 54000 84200 22212 00053 20503 30100 40402
BBXX 63110 20063 99595 10015 41/96 /1918 10056 49978 700// 8//// 22200 10503 70015
BBXX 64045 20064 99591 70117 46/// /2924 10053 20024 40070 52006 22200 00101 10910 70049 333 90710 91134
BBXX AMOUK08 20064 99501 70061 46/// ///// 10112 20064 30190 40195 52012 90550
BBXX 63055 20064 99606 10016 47397 /1415 10056 20015 49968 56010 762// 22200 10502 70012
BBXX 63106 20064 99610 10017 46/// /1616 10051 49973 57008 22200
BBXX 63105 20064 99610 10017 47498 ///// 10059 20013 49973 56009 700// 22200
BBXX 62304 20064 99511 10018 46/98 /3133 10087 20049 40093 55003 22200 00111 10502 70010
BBXX 62094 20064 99517 70067 46/// /2919 1//// 2//// 40184 53011 22200 00105 10504 70019 333 90710 91125
BBXX 62103 20064 99499 70029 46/99 /3325 10107 20062 40158 52018 22200 00122 10703 70015 333 90710 91131
BBXX 52248 20061 99135 11448 46/// ///// 1//// 90600 22200 00281
BBXX 52246 20061 99152 11457 46/// ///// 1//// 90600 22200 00282
BBXX 52245 20061 99181 11458 46/// ///// 1//// 90600 22200 00287
BBXX 52244 20061 99200 11452 46/// ///// 1//// 90600 22200 00271
BBXX 52243 20061 99193 11666 46/// ///// 1//// 90600 22200 00269
BBXX 51176 20061 99278 71758 46/// ///// 1//// 90600 22200 00238
BBXX 51173 20061 99260 71739 46/// ///// 1//// 90600 22200 00245
BBXX 51172 20061 99284 71783 46/// ///// 1//// 90600 22200 00233
BBXX 51169 20061 99004 51600 46/// ///// 1//// 90600 22200 00259
BBXX 51174 20061 99142 51697 46/// ///// 1//// 90600 22200 00289
BBXX 51179 20061 99143 51708 46/// ///// 1//// 90600 22200 00287
BBXX 51178 20061 99142 51695 46/// ///// 1//// 90600 22200 00285
BBXX 51170 20061 99168 71695 46/// ///// 1//// 90600 22200 00260
BBXX 51171 20061 99064 71623 46/// ///// 1//// 90600 22200 00278
AAXX 20064 87448 31562 60515 10198 20109 39508 40043 52009 71792 84970 333 56880 57992 82630 82940
AAXX 20061 02805 11357 81601 11008 21014 39823 49955 54001 69992 77372 887// 333 10005 21008 3/102 47029
BBXX 63110 20064 99595 10015 47495 /1914 10053 20031 49978 53001 763// 22200 10503 70015
BBXX 63106 20064 99610 10017 46/// /1616 10051 49973 57008 22200
BBXX 63113 20064 99610 10017 46/// /1617 10054 20013 49972 57008 22200 10503 70015
BBXX 62304 20064 99511 10018 46/98 /3130 10087 20048 40093 55003 22200 00112 10502 70010 333 90710 91138
BBXX 64045 20064 99591 70117 46/// /2924 10053 20026 40070 52006 22200 00101 10910 70049 333 90710 91134
BBXX 62107 20064 99501 70061 46/// /3321 10108 20051 40195 51018 22200 00116 10704 70019 333 90710 91129
BBXX 62094 20064 99517 70067 46/// /2919 10097 20064 40184 53011 22200 00105 18504 70019 333 90710 91125
BBXX 2AUO5 20063 99606 10016 41397 81517 10064 20043 49970 57010 76366 8/7// 22200 02081 20701 315// 40703 80055
BBXX 62103 20064 99499 70029 46/99 /3223 10105 20051 40164 52019 22200 00122 10703 70015 333 90710 91135
AAXX 20061 02963 11130 82104 10003 20000 49992 52020 60044 77172 887// 333 1//// 2//// 3/000 42001
AAXX 20061 02963 11130 82104 10003 20000 49992 52020 60044 77172 887// 333 1//// 2//// 3/000 42001
AAXX 20064 97748 31460 63505 10315 20249 30055 40057 54000 71792 83932 333 56800 57982 81914 82815 84075 80940 80850
AAXX 20064 65501 32960 70000 10134 20009 39812 40131 80002 333 01000 20134 50914 55103 58010 87076
AAXX 20064 65502 32960 60000 10170 21035 39734 40113 81042 333 01200 20170 50744 55098 58004 81363 85076
AAXX 20064 65503 31956 70000 10162 20061 39775 40122 70622 80002 333 01100 20162 50680 55100 51630 58010 87076
AAXX 20064 65505 32960 53002 10169 20047 39777 40116 80002 333 01200 20165 50734 55100 58005 85076
AAXX 20064 65507 32960 70802 10176 20035 39773 40123 80002 333 01100 20176 50854 55091 58011 87076
AAXX 20064 65510 31958 50000 10198 20048 39598 40110 70622 80002 333 01600 20197 50650 55089 58007 85076
AAXX 20064 65516 32960 50000 10172 20044 39805 40111 80002 333 01200 20167 50684 55092 58007 85076
AAXX 20064 65518 32965 73604 10188 20031 39738 40102 80002 333 01100 20180 50964 55092 58002 87076
AAXX 20064 65522 32960 70000 10155 20095 39783 40112 80002 333 01300 20155 50884 55089 58002 87076
AAXX 20064 DUPE
AAXX 20064 65338 32956 70000 10235 20222 39925 40111 83032 333 02300 20235 50504 55072 58002 83361 85076
AAXX 20064 DUPE
AAXX 20064 65352 31940 70402 10207 20048 3//// 4//// 70522 80002 333 20205 5//// 87076
AAXX 20064 65361 32960 70000 10172 20114 3//// 4//// 80002 333 20170 5//// 87076
AAXX 20064 65376 31940 72806 10225 20178 39654 40113 70522 80002 333 20218 58010 87076
AAXX 20064 65387 31420 70000 10250 20250 30080 40098 71022 83502 333 20250 58007 83610 87073
AAXX 20064 DUPE
AAXX 20061 10200 01258 81807 10008 20006 30019 40017 56024 60032 76876 8572/ 333 10027 20003 3/000 43001 55043 55300 20000 30000 60027 70032 85705 88515
AAXX 20064 65306 32960 70000 10177 20064 39789 40122 85032 333 01100 20175 50604 55095 58005 85363 84076
AAXX 20064 65319 32958 70000 10193 20060 39603 40116 83032 333 01700 20192 50634 55083 58003 83361 85076
AAXX 20064 65330 31915 71404 10214 20062 39671 40107 70522 80008 333 01800 20206 50674 55082 00386 58001 87276
AAXX 20064 65335 32958 50000 10225 20202 39889 40111 80002 333 01800 20221 50334 55081 58003 85076
AAXX 20064 65344 31432 50000 10250 20241 30094 40105 71022 81502 333 02300 20249 50354 55078 58006 81612 85076
AAXX 20064 DUPE
AAXX 20064 60195 12560 70000 10020 21034 38574 48586 5//// 69984 877// 333 20019 31002 87720 95560
AAXX 20061 38974 32998 02701 11029 21096 30116 40475 52005 333 21077
AAXX 20061 34247 11350 81204 11014 21019 30163 40280 57009 60010 71072 885// 333 21015 85709
AAXX 20061 31253 42999 80000 11273 21273 21312 39737 40240 57005 85031
BBXX 63110 20063 99595 10015 41/96 /1918 10056 49978 700// 8//// 22200 10503 70015
BBXX 64045 20064 99591 70117 46/// /2924 10053 20024 40070 52006 22200 00101 10910 70049 333 90710 91134
BBXX AMOUK08 20064 99501 70061 46/// ///// 10112 20064 30190 40195 52012 90550
BBXX 63055 20064 99606 10016 47397 /1415 10056 20015 49968 56010 762// 22200 10502 70012
BBXX 63106 20064 99610 10017 46/// /1616 10051 49973 57008 22200
BBXX 63105 20064 99610 10017 47498 ///// 10059 20013 49973 56009 700// 22200
BBXX 62304 20064 99511 10018 46/98 /3133 10087 20049 40093 55003 22200 00111 10502 70010
BBXX 62094 20064 99517 70067 46/// /2919 1//// 2//// 40184 53011 22200 00105 10504 70019 333 90710 91125
BBXX 62103 20064 99499 70029 46/99 /3325 10107 20062 40158 52018 22200 00122 10703 70015 333 90710 91131
AAXX 20064 64700 32960 63606 10167 21018 39795 40137 80002 333 01200 20165 51191 55081 58010 86075
AAXX 20064 64701 NIL
AAXX 20064 64702 NIL
AAXX 20064 64705 NIL
AAXX 20064 64706 33960 72204 10160 20121 39648 40126 80002 333 01000 20157 51034 55085 58004 84075
AAXX 20064 64708 NIL
AAXX 20064 64709 NIL
AAXX 20064 64710 NIL
AAXX 20064 64713 NIL
AAXX 20064 64722 33960 60000 10160 20084 3//// 4//// 80002 90555 333 0//00 20125 50534 55/// 5////
AAXX 20064 64750 NIL
AAXX 20064 64751 NIL
AAXX 20064 64753 33960 20000 10150 21018 3//// 4//// 80002 333 0//00 20135 5//// 55/// 5//// 82075
AAXX 20064 64754 NIL
AAXX 20064 64756 NIL
AAXX 20064 64757 NIL
AAXX 20064 64758 NIL
AAXX 20064 64761 NIL
AAXX 20064 87022 32960 03604 10254 20152 39534 40018 57008
AAXX 20064 87022 32960 03604 10254 20152 39534 40018 57008 555 10059
BBXX 46145 20061 99544 71324 46/// /2613 1//// 40056 52027 22200 0//// 1//// 70/// 333 91217
BBXX 46145 20061 99544 71324 46/// /2613 1//// 40056 52027 22200 0//// 1//// 70/// 333 91217
AAXX 20061 25428 41671 80000 11379 21415 39849 40228 53006 77872 82537 333 91100
BBXX 42044 20061 99262 70971 46/// /1704 10191 20173 40104 90630 22200 00174 333 91205
BBXX 42044 20061 99262 70971 46/// /1705 10193 20172 40103 90600 22200 00175 333 91206
BBXX ONAN 20064 99142 11765 41898 40519 10270 2024/ 40120 54/// 7//22 842// 22273 04270 20606 302// 40806 5//// 6//// 80250 ICE /////
BBXX A8CB7 20063 99171 30633 41598 40920 10290 20249 40120 51010 70211 84142 22254 06300 21005 80260
BBXX A8CB7 20063 99171 30633 41598 40920 10290 20249 40120 51010 70211 84142 22254 06300 21005 80260
AAXX 20064 61450 33960 20804 10120 21010 39696 40149 80002 333 0//00 20105 5//// 55/// 58002 82073
AAXX 20064 61461 32960 30804 10170 21020 30052 40139 80002 333 0//00 20165 5//// 55/// 59013 83073
AAXX 20064 61489 32960 50000 10158 20005 30134 40141 85070 333 0//00 20154 50774 55/// 59010 85363
AAXX 20064 61492 32960 20808 10180 21020 30125 40148 82070 333 0//00 20180 5//// 59001 82363
BBXX ONAN 20064 99142 11765 41898 40519 10270 2024/ 40120 54/// 7//22 842// 22273 04270 20606 302// 40806 5//// 6//// 80250 ICE /////
BBXX 42044 20061 99262 70971 46/// /1704 10191 20173 40104 90630 22200 00174 333 91205
BBXX 42044 20061 99262 70971 46/// /1705 10193 20172 40103 90600 22200 00175 333 91206
BBXX 46145 20061 99544 71324 46/// /2613 1//// 40056 52027 22200 0//// 1//// 70/// 333 91217
BBXX 63110 20064 99595 10015 47495 /1914 10053 20031 49978 53001 763// 22200 10503 70015
BBXX 63106 20064 99610 10017 46/// /1616 10051 49973 57008 22200
BBXX 63113 20064 99610 10017 46/// /1617 10054 20013 49972 57008 22200 10503 70015
BBXX 62304 20064 99511 10018 46/98 /3130 10087 20048 40093 55003 22200 00112 10502 70010 333 90710 91138
BBXX 64045 20064 99591 70117 46/// /2924 10053 20026 40070 52006 22200 00101 10910 70049 333 90710 91134
BBXX 62107 20064 99501 70061 46/// /3321 10108 20051 40195 51018 22200 00116 10704 70019 333 90710 91129
BBXX 62094 20064 99517 70067 46/// /2919 10097 20064 40184 53011 22200 00105 18504 70019 333 90710 91125
BBXX 2AUO5 20063 99606 10016 41397 81517 10064 20043 49970 57010 76366 8/7// 22200 02081 20701 315// 40703 80055
BBXX 62103 20064 99499 70029 46/99 /3223 10105 20051 40164 52019 22200 00122 10703 70015 333 90710 91135
BBXX 46145 20061 99544 71324 46/// /2613 1//// 40056 52027 22200 0//// 1//// 70/// 333 91217
AAXX 20061 23966 41496 72402 11100 21117 30156 40287 57005 78582 87900
AAXX 20064 17210 11/01 90000 11019 21019 39231 40309 52018 60002 74542 333 21024 34105 55013 89/04
BBXX A8CB7 20063 99171 30633 41598 40920 10290 20249 40120 51010 70211 84142 22254 06300 21005 80260
AAXX 20064 60096 32458 20412 10152 20128 40187 5//// 82500 333 20145 82616
AAXX 20061 29645 41596 81703 11136 21163 30250 40451 52010 78582 889// 333 87924
AAXX 20061 20292 41498 62006 11275 21299 30250 40271 57005 73631 82570 333 91109
AAXX 20061 20069 41458 82106 11027 21034 30109 40122 53003 77373 8452/ 333 84611
AAXX 20064 97580 32462 50000 10286 20272 30031 40048 56018 53901 333 56000 57901 81915 83816 80960 80870
BBXX MINFR03 2006/ 99050 10684 46/// ///// 10293 40114 52006
BBXX A8IZ2 20064 99252 70626 43598 13510 10210 20130 40210 54010 70010 81/// 22214 80150
AAXX 20064 67113 32581 1//// 10296 20236 30/// 40/// 5//// 81200 333 0//00 10296 20231 50644 55/// 81820
AAXX 20064 67037 32582 4//// 10/// 20/// 30060 40101 5/017 84800 333 0//00 10/// 20/// 50//4 55/// 84820 555 81640
AAXX 20064 64700 32960 63606 10167 21018 39795 40137 80002 333 01200 20165 51191 55081 58010 86075
AAXX 20064 64701 NIL
AAXX 20064 64702 NIL
AAXX 20064 64705 NIL
AAXX 20064 64706 33960 72204 10160 20121 39648 40126 80002 333 01000 20157 51034 55085 58004 84075
AAXX 20064 64708 NIL
AAXX 20064 64709 NIL
AAXX 20064 64710 NIL
AAXX 20064 64713 NIL
AAXX 20064 64722 33960 60000 10160 20084 3//// 4//// 80002 90555 333 0//00 20125 50534 55/// 5////
AAXX 20064 64750 32965 60000 10190 20074 39693 40104 80002 90600 333 01200 20160 50661 55064 59006 86075
AAXX 20064 64751 NIL
AAXX 20064 64753 33960 20000 10150 21018 3//// 4//// 80002 333 0//00 20135 5//// 55/// 5//// 82075
AAXX 20064 64754 NIL
AAXX 20064 64756 33962 40406 10177 21018 39509 4//// 80002 90600 333 0//00 20168 5//// 55/// 58000 84075
AAXX 20064 64757 NIL
AAXX 20064 64758 NIL
AAXX 20064 64761 NIL
BBXX 63110 20063 99595 10015 41/96 /1918 10056 49978 700// 8//// 22200 10503 70015
BBXX 64045 20064 99591 70117 46/// /2924 10053 20024 40070 52006 22200 00101 10910 70049 333 90710 91134
BBXX AMOUK08 20064 99501 70061 46/// ///// 10112 20064 30190 40195 52012 90550
BBXX 63055 20064 99606 10016 47397 /1415 10056 20015 49968 56010 762// 22200 10502 70012
BBXX 63106 20064 99610 10017 46/// /1616 10051 49973 57008 22200
BBXX 63105 20064 99610 10017 47498 ///// 10059 20013 49973 56009 700// 22200
BBXX 62304 20064 99511 10018 46/98 /3133 10087 20049 40093 55003 22200 00111 10502 70010
BBXX 62094 20064 99517 70067 46/// /2919 1//// 2//// 40184 53011 22200 00105 10504 70019 333 90710 91125
BBXX 62103 20064 99499 70029 46/99 /3325 10107 20062 40158 52018 22200 00122 10703 70015 333 90710 91131
BBXX A8IZ2 20064 99252 70626 43598 13510 10210 20130 40210 54010 70010 81/// 22214 80150
BBXX MINFR03 2006/ 99050 10684 46/// ///// 10293 40114 52006
BBXX 63110 20064 99595 10015 47495 /1914 10053 20031 49978 53001 763// 22200 10503 70015
BBXX 63106 20064 99610 10017 46/// /1616 10051 49973 57008 22200
BBXX 63113 20064 99610 10017 46/// /1617 10054 20013 49972 57008 22200 10503 70015
BBXX 62304 20064 99511 10018 46/98 /3130 10087 20048 40093 55003 22200 00112 10502 70010 333 90710 91138
BBXX 64045 20064 99591 70117 46/// /2924 10053 20026 40070 52006 22200 00101 10910 70049 333 90710 91134
BBXX 62107 20064 99501 70061 46/// /3321 10108 20051 40195 51018 22200 00116 10704 70019 333 90710 91129
BBXX 62094 20064 99517 70067 46/// /2919 10097 20064 40184 53011 22200 00105 18504 70019 333 90710 91125
BBXX 2AUO5 20063 99606 10016 41397 81517 10064 20043 49970 57010 76366 8/7// 22200 02081 20701 315// 40703 80055
BBXX 62103 20064 99499 70029 46/99 /3223 10105 20051 40164 52019 22200 00122 10703 70015 333 90710 91135
AAXX 20061 10506 01460 82404 11011 21022 39491 40086 56013 60012 77072 8452/ 333 11005 21020 3/102 48007 55004 55300 20000 30000 69907 70013 84613 88530 91113 96473
AAXX 20064 71854 43/// ///// 333 11063 21099 48017 70002 555 10006 20002
AAXX 20064 71854 43/// ///// 333 11063 21099 48017 70002 555 10006 20002
AAXX 20061 26524 32498 82003 10008 21003 30004 40139 52006 885// 333 20008 32/// 88614 91006 91112 555 53016 7003/
AAXX 20061 01062 11120 80403 11025 21028 30057 40070 55001 60002 71042 886// 333 21025 70002 91105
AAXX 20064 48454 32962 50000 10300 20162 30106 40113 57026 81046 333 59002
AAXX 20064 48333 32960 10000 10260 20143 39840 40142 57033 81040 333 59004
BBXX 63110 20063 99595 10015 41/96 /1918 10056 49978 700// 8//// 22200 10503 70015
BBXX 64045 20064 99591 70117 46/// /2924 10053 20024 40070 52006 22200 00101 10910 70049 333 90710 91134
BBXX AMOUK08 20064 99501 70061 46/// ///// 10112 20064 30190 40195 52012 90550
BBXX 63055 20064 99606 10016 47397 /1415 10056 20015 49968 56010 762// 22200 10502 70012
BBXX 63106 20064 99610 10017 46/// /1616 10051 49973 57008 22200
BBXX 63105 20064 99610 10017 47498 ///// 10059 20013 49973 56009 700// 22200
BBXX 62304 20064 99511 10018 46/98 /3133 10087 20049 40093 55003 22200 00111 10502 70010
BBXX 62094 20064 99517 70067 46/// /2919 1//// 2//// 40184 53011 22200 00105 10504 70019 333 90710 91125
BBXX 62103 20064 99499 70029 46/99 /3325 10107 20062 40158 52018 22200 00122 10703 70015 333 90710 91131
AAXX 20061 10430 01212 81903 11001 21005 39873 40069 56024 60022 77375 885// 333 10013 21005 3/103 47004 55000 55300 20000 30000 60027 70038 85706 85618 88623
BBXX 63110 20064 99595 10015 47495 /1914 10053 20031 49978 53001 763// 22200 10503 70015
BBXX 63106 20064 99610 10017 46/// /1616 10051 49973 57008 22200
BBXX 63113 20064 99610 10017 46/// /1617 10054 20013 49972 57008 22200 10503 70015
BBXX 62304 20064 99511 10018 46/98 /3130 10087 20048 40093 55003 22200 00112 10502 70010 333 90710 91138
BBXX 64045 20064 99591 70117 46/// /2924 10053 20026 40070 52006 22200 00101 10910 70049 333 90710 91134
BBXX 62107 20064 99501 70061 46/// /3321 10108 20051 40195 51018 22200 00116 10704 70019 333 90710 91129
BBXX 62094 20064 99517 70067 46/// /2919 10097 20064 40184 53011 22200 00105 18504 70019 333 90710 91125
BBXX 2AUO5 20063 99606 10016 41397 81517 10064 20043 49970 57010 76366 8/7// 22200 02081 20701 315// 40703 80055
BBXX 62103 20064 99499 70029 46/99 /3223 10105 20051 40164 52019 22200 00122 10703 70015 333 90710 91135
BBXX 52249 20061 99052 31503 46/// ///// 1//// 90600 22200 00305
BBXX 63110 20063 99595 10015 41/96 /1918 10056 49978 700// 8//// 22200 10503 70015
BBXX 64045 20064 99591 70117 46/// /2924 10053 20024 40070 52006 22200 00101 10910 70049 333 90710 91134
BBXX AMOUK08 20064 99501 70061 46/// ///// 10112 20064 30190 40195 52012 90550
BBXX 63055 20064 99606 10016 47397 /1415 10056 20015 49968 56010 762// 22200 10502 70012
BBXX 63106 20064 99610 10017 46/// /1616 10051 49973 57008 22200
BBXX 63105 20064 99610 10017 47498 ///// 10059 20013 49973 56009 700// 22200
BBXX 62304 20064 99511 10018 46/98 /3133 10087 20049 40093 55003 22200 00111 10502 70010
BBXX 62094 20064 99517 70067 46/// /2919 1//// 2//// 40184 53011 22200 00105 10504 70019 333 90710 91125
BBXX 62103 20064 99499 70029 46/99 /3325 10107 20062 40158 52018 22200 00122 10703 70015 333 90710 91131
BBXX 52249 20061 99052 31503 46/// ///// 1//// 90600 22200 00305
BBXX 63110 20064 99595 10015 47495 /1914 10053 20031 49978 53001 763// 22200 10503 70015
BBXX 63106 20064 99610 10017 46/// /1616 10051 49973 57008 22200
BBXX 63113 20064 99610 10017 46/// /1617 10054 20013 49972 57008 22200 10503 70015
BBXX 62304 20064 99511 10018 46/98 /3130 10087 20048 40093 55003 22200 00112 10502 70010 333 90710 91138
BBXX 64045 20064 99591 70117 46/// /2924 10053 20026 40070 52006 22200 00101 10910 70049 333 90710 91134
BBXX 62107 20064 99501 70061 46/// /3321 10108 20051 40195 51018 22200 00116 10704 70019 333 90710 91129
BBXX 62094 20064 99517 70067 46/// /2919 10097 20064 40184 53011 22200 00105 18504 70019 333 90710 91125
BBXX 2AUO5 20063 99606 10016 41397 81517 10064 20043 49970 57010 76366 8/7// 22200 02081 20701 315// 40703 80055
BBXX 62103 20064 99499 70029 46/99 /3223 10105 20051 40164 52019 22200 00122 10703 70015 333 90710 91135
AAXX 20061 78090 15/// /0000 10200 30232 40235 69901 90600 222// 00050
AAXX 20061 01078 11375 80308 10037 20003 39944 49957 57002 6//// 76062 87367 333 20026 91114
AAXX 20064 62357 31930 02403 10104 20087 40184 52009 71000 333 20098
BBXX 63110 20063 99595 10015 41/96 /1918 10056 49978 700// 8//// 22200 10503 70015
BBXX 64045 20064 99591 70117 46/// /2924 10053 20024 40070 52006 22200 00101 10910 70049 333 90710 91134
BBXX AMOUK08 20064 99501 70061 46/// ///// 10112 20064 30190 40195 52012 90550
BBXX 63055 20064 99606 10016 47397 /1415 10056 20015 49968 56010 762// 22200 10502 70012
BBXX 63106 20064 99610 10017 46/// /1616 10051 49973 57008 22200
BBXX 63105 20064 99610 10017 47498 ///// 10059 20013 49973 56009 700// 22200
BBXX 62304 20064 99511 10018 46/98 /3133 10087 20049 40093 55003 22200 00111 10502 70010
BBXX 62094 20064 99517 70067 46/// /2919 1//// 2//// 40184 53011 22200 00105 10504 70019 333 90710 91125
BBXX 62103 20064 99499 70029 46/99 /3325 10107 20062 40158 52018 22200 00122 10703 70015 333 90710 91131
AAXX 20064 43400 NIL
AAXX 20064 43404 21470 8//// 10260 20243 30107 40117 75055 8527/ 333 58002 69927 70642 85818 88458
AAXX 20064 43410 NIL
AAXX 20064 43413 21460 80509 10262 20245 30115 40119 72582 84977 333 58003 69907 70348 82920 86458
AAXX 20064 43415 22470 70501 10258 20241 30005 40113 84170 333 59003 60007 70274 84818 84460
AAXX 20064 43418 21470 82302 10247 20239 3//// 4//// 75165 8492/ 333 5//// 60027 70861 83818 81920 88460
AAXX 20064 43421 21470 83602 10253 20239 30008 40110 78082 8662/ 333 59001 69947 70131 84712 84818 88460
AAXX 20064 43422 21469 805// 10260 20240 39978 40108 70286 8672/ 333 59001 69927 70098 82710 84818 88458
AAXX 20064 43424 22478 70508 10279 20227 30097 40100 8577/ 333 59002 60007 70102 83710 83818 85458
AAXX 20064 43436 21470 70502 10276 20244 30100 40104 70386 82876 333 59001 69927 70427 82818 86458
AAXX 20064 43441 21470 805// 10260 20231 39962 40091 76055 8562/ 333 59004 69917 70039 82716 83818 88460
AAXX 20064 43444 21470 80903 10223 20211 39569 40103 78082 8712/ 333 58005 69967 70177 87818 88460
AAXX 20064 43467 21466 80507 10280 20243 30083 40088 70282 8672/ 333 59012 69907 70048 81714 85816 88460
AAXX 20064 43473 21260 80909 10142 20139 38125 48492 76186 8672/ 333 59003 60047 70389 83706 85808 87456
AAXX 20064 43475 21468 80505 10262 20251 30092 40101 78088 8577/ 333 58001 60077 70518 82712 83818 88460
AAXX 20064 43476 21440 80704 10179 20173 38777 48519 76086 8522/ 333 58000 60117 70031 85811 88459
AAXX 20064 43479 21430 80501 10206 20200 39270 78088 8677/ 333 58004 60107 70483 86714 87450
AAXX 20064 43486 21360 70000 10260 20249 39998 40092 78082 85720 333 58000 69917 70041 83708 83810 86450
AAXX 20064 43495 21460 8//// 10264 20238 30085 40101 78085 8497/ 333 59005 69927 70264 82818 82920 88458
AAXX 20064 43497 21460 80507 10241 20235 30082 40099 76166 8512/ 333 59001 60037 70207 85818 88458
AAXX 20061 25356 31999 53204 11236 21284 39992 40099 52005 70232 80001 333 11222 91010
BBXX 63110 20064 99595 10015 47495 /1914 10053 20031 49978 53001 763// 22200 10503 70015
BBXX 63106 20064 99610 10017 46/// /1616 10051 49973 57008 22200
BBXX 63113 20064 99610 10017 46/// /1617 10054 20013 49972 57008 22200 10503 70015
BBXX 62304 20064 99511 10018 46/98 /3130 10087 20048 40093 55003 22200 00112 10502 70010 333 90710 91138
BBXX 64045 20064 99591 70117 46/// /2924 10053 20026 40070 52006 22200 00101 10910 70049 333 90710 91134
BBXX 62107 20064 99501 70061 46/// /3321 10108 20051 40195 51018 22200 00116 10704 70019 333 90710 91129
BBXX 62094 20064 99517 70067 46/// /2919 10097 20064 40184 53011 22200 00105 18504 70019 333 90710 91125
BBXX 2AUO5 20063 99606 10016 41397 81517 10064 20043 49970 57010 76366 8/7// 22200 02081 20701 315// 40703 80055
BBXX 62103 20064 99499 70029 46/99 /3223 10105 20051 40164 52019 22200 00122 10703 70015 333 90710 91135
AAXX 20064 43466 21470 80505 10282 20236 30077 40089 72058 8477/ 333 59005 69907 70029 82712 83816 88458
AAXX 20061 03953 12670 82703 10090 20071 30165 40202 50000 69902 885// 333 20085 31006 55001 88632 92428
BBXX 63110 20063 99595 10015 41/96 /1918 10056 49978 700// 8//// 22200 10503 70015
BBXX 64045 20064 99591 70117 46/// /2924 10053 20024 40070 52006 22200 00101 10910 70049 333 90710 91134
BBXX AMOUK08 20064 99501 70061 46/// ///// 10112 20064 30190 40195 52012 90550
BBXX 63055 20064 99606 10016 47397 /1415 10056 20015 49968 56010 762// 22200 10502 70012
BBXX 63106 20064 99610 10017 46/// /1616 10051 49973 57008 22200
BBXX 63105 20064 99610 10017 47498 ///// 10059 20013 49973 56009 700// 22200
BBXX 62304 20064 99511 10018 46/98 /3133 10087 20049 40093 55003 22200 00111 10502 70010
BBXX 62094 20064 99517 70067 46/// /2919 1//// 2//// 40184 53011 22200 00105 10504 70019 333 90710 91125
BBXX 62103 20064 99499 70029 46/99 /3325 10107 20062 40158 52018 22200 00122 10703 70015 333 90710 91131
AAXX 20061 15460 01492 83401 10033 20033 30069 40094 58007 69922 7534/ 886// 333 10043 20033 31003 69927 70076 91001 91102 96044
AAXX 20064 91723 NIL
AAXX 20064 91964 NIL
AAXX 20064 17112 11558 72107 10122 20108 30091 40093 57010 60262 78082 85270 333 20117 33012 50124 55006 20046 70482 85830 87359 91120 92426
BBXX 63110 20064 99595 10015 47495 /1914 10053 20031 49978 53001 763// 22200 10503 70015
BBXX 63106 20064 99610 10017 46/// /1616 10051 49973 57008 22200
BBXX 63113 20064 99610 10017 46/// /1617 10054 20013 49972 57008 22200 10503 70015
BBXX 62304 20064 99511 10018 46/98 /3130 10087 20048 40093 55003 22200 00112 10502 70010 333 90710 91138
BBXX 64045 20064 99591 70117 46/// /2924 10053 20026 40070 52006 22200 00101 10910 70049 333 90710 91134
BBXX 62107 20064 99501 70061 46/// /3321 10108 20051 40195 51018 22200 00116 10704 70019 333 90710 91129
BBXX 62094 20064 99517 70067 46/// /2919 10097 20064 40184 53011 22200 00105 18504 70019 333 90710 91125
BBXX 2AUO5 20063 99606 10016 41397 81517 10064 20043 49970 57010 76366 8/7// 22200 02081 20701 315// 40703 80055
BBXX 62103 20064 99499 70029 46/99 /3223 10105 20051 40164 52019 22200 00122 10703 70015 333 90710 91135
AAXX 20061 01001 11560 81306 10022 21002 39911 49923 57013 69912 70262 885// 333 20004 44999 70002 91111
AAXX 20061 28909 42497 81506 11065 21136 30328 40433 57015 84502 333 91012 91115
AAXX 20064 71618 15366 83418 11112 21124 39820 49857 53011 60001 333 11084 21264 70003
AAXX 20064 71268 43/// ///// 333 10025 21090 70007 555 10010 20007
BBXX 63110 20063 99595 10015 41/96 /1918 10056 49978 700// 8//// 22200 10503 70015
BBXX 64045 20064 99591 70117 46/// /2924 10053 20024 40070 52006 22200 00101 10910 70049 333 90710 91134
BBXX AMOUK08 20064 99501 70061 46/// ///// 10112 20064 30190 40195 52012 90550
BBXX 63055 20064 99606 10016 47397 /1415 10056 20015 49968 56010 762// 22200 10502 70012
BBXX 63106 20064 99610 10017 46/// /1616 10051 49973 57008 22200
BBXX 63105 20064 99610 10017 47498 ///// 10059 20013 49973 56009 700// 22200
BBXX 62304 20064 99511 10018 46/98 /3133 10087 20049 40093 55003 22200 00111 10502 70010
BBXX 62094 20064 99517 70067 46/// /2919 1//// 2//// 40184 53011 22200 00105 10504 70019 333 90710 91125
BBXX 62103 20064 99499 70029 46/99 /3325 10107 20062 40158 52018 22200 00122 10703 70015 333 90710 91131
AAXX 20064 71376 16/// /3106 11063 21102 39870 40169 53038 60001 333 10011 21063 70070
AAXX 20064 71376 16/// /3106 11063 21102 39870 40169 53038 60001 333 10011 21063 70070
AAXX 20064 71845 43/// ///// 333 11091 21113 44018 70002 90999 555 10004 20002 32123 40060
AAXX 20064 71845 43/// ///// 333 11091 21113 44018 70002 90999 555 10004 20002 32123 40060
BBXX DEFY 20063 99136 70613 41598 20418 10266 20241 40120 57026 70200 22242 02275 80248
BBXX 63110 20064 99595 10015 47495 /1914 10053 20031 49978 53001 763// 22200 10503 70015
BBXX 63106 20064 99610 10017 46/// /1616 10051 49973 57008 22200
BBXX 63113 20064 99610 10017 46/// /1617 10054 20013 49972 57008 22200 10503 70015
BBXX 62304 20064 99511 10018 46/98 /3130 10087 20048 40093 55003 22200 00112 10502 70010 333 90710 91138
BBXX 64045 20064 99591 70117 46/// /2924 10053 20026 40070 52006 22200 00101 10910 70049 333 90710 91134
BBXX 62107 20064 99501 70061 46/// /3321 10108 20051 40195 51018 22200 00116 10704 70019 333 90710 91129
BBXX 62094 20064 99517 70067 46/// /2919 10097 20064 40184 53011 22200 00105 18504 70019 333 90710 91125
BBXX 2AUO5 20063 99606 10016 41397 81517 10064 20043 49970 57010 76366 8/7// 22200 02081 20701 315// 40703 80055
BBXX 62103 20064 99499 70029 46/99 /3223 10105 20051 40164 52019 22200 00122 10703 70015 333 90710 91135
AAXX 20061 10805 01435 82005 10004 21008 39933 40129 56029 69962 77172 8552/ 333 10019 21004 3/100 43001 55005 55300 20000 30000 69967 70006 85613 88525 91113
BBXX DEFY 20063 99136 70613 41598 20418 10266 20241 40120 57026 70200 22242 02275 80248
AAXX 20074 89065 46/// /9901 11010 21028 39844 49922 52012 90650
AAXX 20064 89065 46/// /9902 11014 21028 39841 49919 52014 90610
AAXX 20064 42895 32996 03603 10260 20053 40158 333 59008
BBXX 63110 20063 99595 10015 41/96 /1918 10056 49978 700// 8//// 22200 10503 70015
BBXX 64045 20064 99591 70117 46/// /2924 10053 20024 40070 52006 22200 00101 10910 70049 333 90710 91134
BBXX AMOUK08 20064 99501 70061 46/// ///// 10112 20064 30190 40195 52012 90550
BBXX 63055 20064 99606 10016 47397 /1415 10056 20015 49968 56010 762// 22200 10502 70012
BBXX 63106 20064 99610 10017 46/// /1616 10051 49973 57008 22200
BBXX 63105 20064 99610 10017 47498 ///// 10059 20013 49973 56009 700// 22200
BBXX 62304 20064 99511 10018 46/98 /3133 10087 20049 40093 55003 22200 00111 10502 70010
BBXX 62094 20064 99517 70067 46/// /2919 1//// 2//// 40184 53011 22200 00105 10504 70019 333 90710 91125
BBXX 62103 20064 99499 70029 46/99 /3325 10107 20062 40158 52018 22200 00122 10703 70015 333 90710 91131
AAXX 20061 22113 11580 72001 11027 21030 39904 49967 53006 60032 72682 87900 333 21027 47014 91003
AAXX 20064 43424 22478 70508 10259 20221 30097 40100 8577/ 333 59002 60007 70102 83710 83818 85458
BBXX MYNJ6 20063 99092 70857 415// 62719 10260 20246 40120 54000 7//22 86467 22273 00270 20504 32727 40504 50504 6//// 80250 ICE /////
BBXX MYNJ6 20063 99092 70857 415// 62719 10260 20246 40120 54000 7//22 86467 22273 00270 20504 32727 40504 50504 6//// 80250 ICE /////
AAXX 20061 10035 01358 81805 10009 21003 39980 40040 56020 69942 72272 876// 333 10017 20003 3/100 43001 55028 55300 20000 30000 41123 69927 70012 87709
BBXX WDC 20064 99474 70871 41/97 91115 11020 40220 70222 22223
BBXX SHIP 20064 99474 70871 41/97 91115 11020 40220 70222 22222 0 702
AAXX 20064 71322 16/// /3407 11169 21182 39846 49859 56021 60001 333 11127 21302 70030 555 10010 20030 33326 40071
AAXX 20064 71642 13/// ///// 11130 69901 333 10000 21140 70018 555 10022 20018
AAXX 20064 71322 16/// /3407 11169 21182 39846 49859 56021 60001 333 11127 21302 70030 555 10010 20030 33326 40071
BBXX WDC 20064 99474 70871 41/97 91115 11020 40220 70222 22223
AAXX 20061 15627 11/00 91606 11054 21061 37530 47956 56001 60022 74974 333 11042 21054 48006 50000 70030 93507 555 595// 60499 92713
AAXX 20064 89262 46/// /1307 11015 21033 39909 49953 5//// 90600
BBXX A8VL8 20064 99025 10911 41598 30405 10290 20249 40080 54/// 70222 8329/ 22213 00310 2//// 3//// 4//// 5//// 6//// 80260 ICE /////
BBXX A8VL8 20064 99025 10911 41598 30405 10290 20249 40080 54/// 70222 8329/ 22213 00310 2//// 3//// 4//// 5//// 6//// 80260 ICE /////
AAXX 20064 89065 46/// /9902 11014 21028 39841 49919 5//// 90610
AAXX 20064 67243 32570 11407 10276 20197 4//// 81100 333 20234 50/// 55/// 5//// 94310 555 10000
AAXX 20064 67280 32575 2//// 10255 20205 40140 81201 333 20195 50650 55101 59008 94323 555 10000
AAXX 20064 67291 32580 4//// 10230 20182 3//// 48/// 84200 333 20210 50/// 55073 5//// 94320 555 10000
AAXX 20064 67327 32580 21707 10250 20197 40161 52012 82200 333 20196 50500 55107 94324 555 10000
AAXX 20064 67331 32580 60000 10246 20194 40160 52005 86200 333 20210 50/// 55/// 94320 555 10000
AAXX 20064 67346 32580 50000 10240 20/// 40176 52001 85200 333 20200 50730 55084 94320 555 10000
AAXX 20064 67341 32575 31607 10257 20195 40168 52005 83100 333 20212 5///0 55/// 94310 555 10000
AAXX 20064 67201 12580 70000 10218 20205 38/// 48/// 60274 8695/ 333 20190 5///0 94390 555 00267 10234
AAXX 20064 67205 12580 80000 10266 20245 40104 60074 8598/ 333 20240 50430 55000 94390 555 00072 10246
AAXX 20064 67215 32575 72006 10266 20230 40129 8225/ 333 20239 5///0 55/// 59008 94320 555 10466
AAXX 20064 67217 11370 71206 10194 20174 38690 48553 60084 70292 8697/ 333 20155 50490 55011 59004 94363 555 00077 10065
AAXX 20064 67237 32570 32307 10249 20191 40146 83100 333 20207 5///0 55043 58004 94315 555 10085
AAXX 20064 67283 32580 32306 10215 20167 40138 82230 333 20141 5///0 55118 59002 94320 555 10034
AAXX 20064 67297 32475 2//// 10264 20217 40146 82800 333 20228 50880 55119 59000 94380 555 10000
AAXX 20064 67335 32580 30000 10265 20196 40145 50010 83200 333 20/// 50/// 55126 94320 555 10000
AAXX 20064 67315 32580 31813 10270 20206 40148 52012 83200 333 20197 5///0 55126 94320 555 10000
BBXX WDE4430 20063 99336 71190 41698 32609 10133 20093 40170 56006 70100 82839 22263 0//// 20401 31015 40602 50702 6//// 80111 ICE /////
BBXX WDE4430 20063 99336 71190 41698 32609 10133 20093 40170 56006 70100 82839 22263 0//// 20401 31015 40602 50702 6//// 80111 ICE /////
AAXX 20064 71448 16/// /2006 11053 21091 39816 40152 58037 60001 333 11049 21071 70000 555 33320 40071
BBXX 3FCA9 20064 99515 71419 41799 12820 00/// 10010 20010 40280 54000 70200 81/65 22225 01048 20804 32222 41005 51005 6//// 80010 ///// /////
BBXX 3FCA9 20064 99515 71419 41799 12820 00/// 10010 20010 40280 54000 70200 81/65 22225 01048 20804 32222 41005 51005 6//// 80010 ///// /////
BBXX WCZ5238 20063 99201 11690 41/// 00818 10250 20222 40140 54/// 7//00 80/// 22263 00270 20703 309// 41005 5//// 6//// 80230 ICE /////
BBXX WCZ5238 20063 99201 11690 41/// 00818 10250 20222 40140 54/// 7//00 80/// 22263 00270 20703 309// 41005 5//// 6//// 80230 ICE /////
AAXX 20061 31866 42999 03104 11087 21232 30197 40203 55001
AAXX 20061 24639 41998 80301 11380 21409 30096 40272 52012 77172 85017
AAXX 20064 71372 16/// /3405 11008 21059 60001 333 10044 21059 70010 555 31733 40142
AAXX 20064 71372 16/// /3405 11008 21059 60001 333 10044 21059 70010 555 31733 40142
BBXX MGSM5 20063 99543 10046 41697 82915 10075 20027 40160 53002 70222 877// 22253 04190 20401 328// 40804 5//// 80055
AAXX 20061 10929 01474 82202 11017 21046 39613 40162 56025 69902 77111 885// 222// 06060 333 11006 21034 3/107 43001 55003 55300 20000 30000 69907 70005 84616 88630
AAXX 20064 71442 16/// /2118 11030 21079 39779 40096 57053 60001 333 7////
AAXX 20064 71442 16/// /2118 11030 21079 39779 40096 57053 60001 333 7////
AAXX 20061 10948 12975 80501 11088 21092 39187 48405 56032 69902 86037 333 11042 21139 3/117 47030 55009 55300 20000 30000 79999 86359 88270
AAXX 20064 91772 31498 60000 10284 20249 4//// 60001 70222 82202 333 569/9 82818 86080
AAXX 20064 91776 31498 40907 1//// 2//// 4//// 60001 70110 84200 333 562// 84818
AAXX 20064 91779 31498 70104 10274 20238 40115 53007 60001 70222 8217/ 333 5689/ 82818 87362
AAXX 20064 91784 11398 80000 10251 20250 40115 52011 60311 70288 887// 333 569// 82708 85817 88635
AAXX 20064 91792 11397 82304 10256 20246 40125 53010 60011 78082 84279 333 56599 82709 84817 86362 88074
