BBXX ZMFR 14054 99491 31665 43/// /04// 10115 20113 49968 57027 22271 00113
BBXX ZMENA 14054 99377 31762 46/// ///// 10181 20156 40170 57011 22200
BBXX 44097 14061 99410 70711 46/// ///// 1//// 90532 22200 00125 11102 20502 316// 41101 70012
AAXX 14064 40272 31958 60000 10062 21022 39357 40203 54000 70500 80001 333 20038 30002 86070
AAXX 14064 40255 32660 50000 10070 21012 39494 40217 54001 83130 333 20060 30004 83830 83360
BBXX A8EH3 14063 99542 71671 41/97 31715 10050 21026 49900 52050 701// 83/// 22225 04050 2//// 80020
AAXX 14064 40340 31940 83609 10104 20023 40190 52009 70700 80007 333 88270
AAXX 14064 40340 31940 83609 10104 20023 40190 52009 70700 80007 333 20094 30008 88270
AAXX 14064 78954 12480 60605 10255 20240 30037 40101 60001 82802 333 10301 20250 59010 82818 86080
AAXX 14064 78954 12480 60605 10255 20240 30037 40101 60001 82802 333 10301 20250 59010 82818 86080
AAXX 14064 08495 12580 32404 10158 20129 30238 40246 56006 60002 83500 90550 333 20138 30010 70000 81625 83656
BBXX 46244 14061 99409 71244 46/// ///// 1//// 90535 22200 00095 11203 21002 329// 41202 70013
BBXX BAREU61 14064 99167 70178 46/// /0217 10244 29055 40139 57012 22243
BBXX BAREU56 14064 99444 10089 46/// ///// 40151 22200
BBXX 51203 14061 99208 71570 46/// ///// 1//// 90543 22200 00252 11101 20501 324// 41101 70006
BBXX 52200 14061 99134 11448 46/// ///// 1//// 90545 22200 00288 10906 20906 309// 41102 70030
BBXX 46240 14061 99366 71219 46/// ///// 1//// 90542 22200 00127 11002 21001 335// 41101 70008
BBXX 46217 14061 99342 71194 46/// ///// 1//// 90542 22200 00142 11202 20802 327// 41201 70011
BBXX 46218 14061 99345 71208 46/// ///// 1//// 90532 22200 00140 11204 21003 332// 41202 70021
BBXX 46211 14061 99469 71242 46/// ///// 1//// 90536 22200 00082 11404 21002 328// 41404 70021
AAXX 14064 68392 36/// /0000 10209 20197 30050 4//// 52013 333 20187 91001 555 10267
AAXX 14064 68382 36/// /3403 10219 20187 39323 48509 53008 333 20202 91006 555 10271 91013
AAXX 14064 68994 32398 83606 10095 20087 30165 40194 58002 886// 222// 00064 333 20074 91009 555 10126 91019
AAXX 14064 08583 31550 70623 10227 20180 40146 70522 8253/ 333 20227 58002 82620 87360
AAXX 14064 08589 31944 60415 10232 20222 40136 70522 86031 333 20225 58001 86360
AAXX 14064 08594 31435 50513 10228 20195 40151 70510 82530 333 58010 20220 82614 84360
AAXX 14064 91334 11474 60412 10297 20236 30064 40067 57014 69981 70282 82101 333 561/9 70008 555 91406
AAXX 14064 91334 11474 60412 10297 20236 30064 40067 57014 69981 70282 82101 333 561/9 70008 555 91406
BBXX 44060 14061 99413 70721 46/// ///03 10041 40273 90545 22200 00109 333 91204 555 11031 22036
BBXX 44022 14061 99409 70737 46/// ///05 10052 20002 40281 90545 22200 00090 333 91206 555 11051 22051
BBXX 42362 14061 99278 70907 46/// /0911 10217 20167 40251 90545
BBXX 42363 14061 99282 70892 46/// /0912 10206 20161 40264 90545 333 91212
BBXX 42364 14061 99291 70881 46/// /0908 10200 20156 40268 90545
BBXX 46088 14061 99483 71232 46/// /1302 10060 40192 51011 90550 22200 00079 1//00 70001 333 91203 555 11016 22017 30549 41103 60549 134016 150012 163013 172018 166021 183016
BBXX 46114 14061 99364 71222 46/// ///// 1//// 90534 22200 00122 11004 21003 322// 41302 70018
BBXX 46060 14061 99606 71468 46/// /1109 10014 40071 52007 90550 22200 00056 333 91211 555 11099 22104
AAXX 14064 68906 11498 73018 10163 20136 39966 40029 57016 60154 75066 85672 222// 00123 20501 333 20133 91034 555 10167 20150 69925 91003
AAXX 14064 89664 32561 50505 11039 21091 39765 49806 55000 82572 333 56444 82625 83065
AAXX 14064 89664 32561 50505 11039 21091 39765 49806 55000 82572 333 56444 82625 83065
AAXX 14064 78705 11560 73102 10213 20205 30155 40173 58005 60021 72055 84470 333 10281 20201 31/// 56700 59005 84820 87357
AAXX 14064 78708 11550 72405 10211 20211 30151 40181 52001 60071 75044 83570 333 10270 20204 31/// 56880 58001 83620 87458
AAXX 14064 78714 32560 60000 10194 20188 82130 333 10283 20172 30/// 56110 82828 84358
AAXX 14064 78717 11356 80105 10160 20160 38990 40186 54000 60031 71555 885// 333 10182 20151 32/// 56899 58002 83706 88620
AAXX 14064 78720 31560 43407 10169 20153 39055 40164 58007 70544 82531 333 10233 20161 30/// 56000 59003 82622 83075
AAXX 14064 78724 32578 70314 10270 20211 30071 40128 54000 82556 333 10344 20256 30/// 56110 58001 82630 83357 87075
BBXX TESTFR9 14064 99489 70023 46/// /2523 10076 29077 49988 52020 22234
AAXX 14064 40310 32960 52904 10080 21038 38971 48514 54002 85032 333 20052 30002 83360 82070
AAXX 14064 89664 32561 50505 11039 21091 39765 49806 55000 82572 333 56444 82625 83065
AAXX 14064 86033 NIL
AAXX 14064 86086 NIL
AAXX 14064 86097 32870 71912 10202 20129 39465 40113 57010 87030 333 87357
AAXX 14064 86134 32970 01804 10202 20129 30018 40106 56008
AAXX 14064 86170 NIL
AAXX 14064 86192 32970 00000 10224 20150 39895 40114 52002
AAXX 14064 86210 32870 82715 10206 20121 39732 40074 58010 8807/ 333 88357
AAXX 14064 86218 32970 00000 10163 20136 30015 40114 57015
AAXX 14064 86221 32970 00000 10178 20129 30011 40148 51005
AAXX 14064 86233 32970 01802 10174 20124 39930 40122 54000
AAXX 14064 86246 32870 32406 10194 20137 39814 40103 54000 83050 333 83357
AAXX 14064 86255 32970 02704 10190 20172 30066 40134 58004
AAXX 14064 86260 32970 00000 10176 20148 39945 40099 57015
AAXX 14064 86268 32970 00000 10180 20147 39946 40113 56005
AAXX 14064 86297 32970 00903 10186 20141 39981 40086 57012
AAXX 14064 68352 36/// /2618 10243 20032 39040 48497 52012 333 20195 91046 555 10327 91013
BBXX DBKR 14061 99541 10142 46/// /2011 10057 20032 40000 52014 22200 00042
BBXX DBKV 14061 99172 70219 46/// /0409 10239 20171 40151 57007 22220 00244
BBXX DBEA 14061 99540 10084 46/// /2015 10049 20026 49933 52005 22230 00045
BBXX DBFR 14061 99547 10137 46/// /2112 10057 20036 49977 52002 22262 00061
BBXX DBFH 14061 99539 10087 46/// /2107/10060 20027 49942 52002 22200 00050
BBXX DBJM 14061 99542 10081 46/// /2016 10057 20033 49923 57008 22211 00062
BBXX DBBT 14061 99442 30031 46/////3011 10082 20060 44094 17025 22273 000/9
BBXX DBBU 14061 99542 10133 46/// //108 10044 20022 49994 52015 22252 00038
BBXX 41101 14064 99146 70562 46/// /1113 10267 20236 40092 57018 22200 00274 10905 70025
BBXX DBBA 14061 99536 10086 46/// +1807 10052 20026 49947 57004 22220 00051
BBXX DBBC 14061 99535 10086 46/// /1807 10049 2//// 49950 57004 22250 00064
BBXX DCPY2 14063 99130 10487 41497 31017 10265 20188 40182 52032 71011 83180 22224 00260 20204 310// 40605 80215
BBXX MHNL6 14063 99338 70107 41298 32703 10180 20127 40268 54000 70200 83701 22233 2//// 3//// 4//// 5//// 80150
BBXX ELWD5 14063 99116 11109 41396 80223 10265 20244 40100 58010 70522 8/71/ 22214 2//06 80250
BBXX 44025 14061 99402 70732 46/// /3509 10078 20020 40268 50000 90550 22200 00113 11102 20402 312// 41101 70011 333 91211 555 11094 22099 30549 43511 60549 353088 348084 351087 348086 348085 001069
BBXX 41008 14061 99314 70809 46/// /0205 10171 20130 40286 54000 90550 22200 00166 11002 20401 300// 41002 70011 333 91206 555 11051 22056 30540 40306 60549 024048 024047 021047 023043 023044 024043
BBXX 44014 14061 99366 70748 46/// ///// 1//// 90550 22200 11104 20401 311// 41104 70021
BBXX 41004 14061 99325 70791 46/// /0105 10177 20089 40285 50000 90550 22200 00220 11003 20401 3//// 41003 70015 333 91206 555 11050 22051 30512 43507 60549 006048 004048 000048 356053 356054 354050
BBXX 44009 14061 99385 70747 46/// /0208 10087 40285 58003 90550 22200 00125 10503 20503 300// 41102 70015 333 91210 555 11084 22088 30515 40111 60549 016079 013083 011082 010086 008082 011079
AAXX 14064 91376 32480 40508 10283 20222 30075 40078 53005 82101 333 561/9 70000 555 91406
AAXX 14064 91376 32480 40508 10283 20222 30075 40078 53005 82101 333 561/9 70000 555 91406
AAXX 14064 61902 32484 21312 10226 20185 40126 81801 333 20225 58000 81818
AAXX 14064 16597 32665 42903 10125 20101 30165 40253 53009 84800 333 20120 30009 70000 81830 84656
BBXX BAREU08 14064 99247 70587 46/// ///// 40108 57016 22214
AAXX 14064 61901 169// /1409 10150 20134 39660 40171 55001 69942 90550 333 20148 3/013 70012 8//99 555 7/090
BBXX 46006 14061 99408 71375 46/// /2703 10106 40206 52011 90550 22200 00126 11107 20401 3//// 41107 70037 333 91206 555 11035 22036 30500 43006 60549 274035 273040 276031 279042 290040 299043
BBXX 32012 14061 99197 50856 46/// ///// 1//// 90550 22200 11204 70020
BBXX 46002 14061 99426 71305 46/// ///// 10111 40180 51007 90550 22200 00121 11507 70033
BBXX 46084 14061 99566 71361 46/// /1904 10050 21010 40145 54000 90550 22200 00071 11106 20401 300// 41106 70028 333 91205 555 11037 22038 30456 42105 60549 187035 191034 198034 198030 202031 207034
BBXX 46075 14061 99539 71608 46/// /2509 10044 20013 49958 52031 90550 22200 00048 11615 20605 300// 41614 70077 333 91212 555 11100 22107 30530 42513 60549 246094 245093 247094 252090 249095 253095 82511 90451
BBXX 46005 14061 99461 71310 46/// ///06 10099 40173 55000 90550 22200 00101 11307 20401 3//// 41306 70033 333 91208 555 11064 22067
BBXX 46059 14061 99380 71300 46/// /3207 10128 40189 53016 90550 22200 00145 10803 20603 3//// 40802 70017 333 91208 555 11075 22079 30453 43209 60549 315071 320068 328069 330064 325065 317071
BBXX 46080 14061 99580 71500 46/// /1112 10030 20012 49999 57026 90550 22200 00052 10504 20504 3//// 40802 70021 333 91214 555 11125 22132 30535 41114 60549 104117 110116 113115 111114 112111 110104 81113 90534
BBXX 41012 14061 99300 70805 46/// /0707 10221 40264 55000 90550 22200 00232 10905 20502 309// 40904 70023 333 91208 555 11074 22078 30453 40610 60549 064070 061067 067069 067069 063073 064077
BBXX 41049 14061 99275 70630 46/// /3511 10234 20191 40110 58007 90550 22200 00248 11005 20504 300// 41003 70026 333 91213 555 11119 22127 30450 43514 60549 350112 346108 350104 343095 340092 336094 83513 90550
BBXX 41001 14061 99347 70727 46/// ///// 10161 20065 40239 54000 90550 22200 00221 11006 70029
BBXX 42020 14061 99270 70967 46/// /1410 10241 20211 40190 58009 90550 22200 00242 10703 20703 70017 333 91212 555 11104 22111 30521 41413 60549 142095 139098 138105 136105 135101 133103
BBXX 41060 14061 99148 70510 46/// ///// 1//// 90550 22200 11006 70030
BBXX 41044 14061 99217 70587 46/// /2005 10256 20223 40116 57012 90550 22200 00267 11104 20401 300// 41104 70021 333 91206 555 11049 22051 30452 41907 60549 200047 191049 189051 189050 189049 189055 81906 90454
BBXX 41060 14061 99148 70510 46/// ///// 1//// 90550 22200 11006 70030
BBXX 41048 14061 99320 70696 46/// /0108 10195 20140 40194 57004 90550 22200 00228 10906 20604 3//// 40905 70032 333 91210 555 11082 22086 30451 43313 60549 009083 009096 357100 350101 346095 338093 83312 90452
BBXX 42065 14061 99149 70750 46/// /0608 10271 20232 90550 22200 10603 20603 3//// 41101 70013 333 91209 555 11082 22088 30549 40509 60549 062077 061072 062072 064068 060069 065066 80608 90548
BBXX 42001 14061 99259 70897 46/// /0909 10240 20188 40240 58004 90550 22200 00243 10804 20804 70022 333 91210 555 11092 22097 30457 40811 60549 085087 088085 088086 087089 083087 084088
BBXX 42012 14061 99301 70876 46/// /0603 10178 20157 40264 58011 90550 22200 00192 10801 20401 317// 40801 70005 333 91204 555 11035 22036 30540 40604 60549 058034 060036 049031 041029 034031 031033
BBXX 42035 14061 99292 70944 46/// /1005 10171 20170 40225 58008 90550 22200 00156 10502 20502 314// 40601 70010 333 91206 555 11057 22065 30452 41008 60549 101051 100054 099054 099059 096065 098070
BBXX 42060 14061 99163 70635 46/// /0403 10267 20227 40119 58011 90550 22200 00284 11002 20301 300// 41002 70011 333 91204 555 11031 22032 30520 40304 60549 044030 039031 034032 038034 034030 028030 80304 90521
BBXX 42058 14061 99149 70749 46/// /0608 10274 20219 40112 58009 90550 22200 00279 10602 20602 305// 40901 70012 333 91210 555 11087 22093 30529 40610 60549 063082 065081 063085 060078 060080 058081 80609 90529
BBXX 42036 14061 99285 70845 46/// /0709 10188 20166 40255 50000 90550 22200 00217 10503 20503 70015 333 91210 555 11093 22098 30450 40711 60549 068087 066089 068090 068091 070094 071096
BBXX 42056 14061 99198 70849 46/// /0609 10267 20228 40174 57009 90550 22200 00273 10704 20704 70020 333 91211 555 11097 22103 30526 40612 60549 058091 060098 062095 067089 068094 067100 80710 90550
BBXX 42019 14061 99279 70954 46/// /1510 10231 20199 40201 58012 90550 22200 10604 20604 70018 333 91212 555 11109 22117 30519 42814 60549 160102 281107 281101 280107 281108 278106
BBXX 42059 14061 99151 70675 46/// /0606 10275 20230 40115 58010 90550 22200 00286 11102 20402 3//// 41101 70011 333 91207 555 11068 22071 30503 40510 60549 059064 055071 054074 051073 049078 060068 80508 90503
BBXX 44005 14061 99432 70691 46/// /0309 10049 21001 40253 55000 90550 22200 00088 10603 20603 3//// 41101 70015 333 91211 555 11097 22102 30457 40411 60549 033091 030093 033093 027091 025095 030094
BBXX 42040 14061 99292 70882 46/// /0909 10201 40260 58008 90550 22200 00225 10502 20502 70011 333 91210 555 11085 22089 30456 40910 60549 090084 090083 090084 088077 091081 091082
AAXX 14064 91413 11469 80708 10281 20246 30042 40068 56017 69901 71682 84378 333 56299 70056 555 91406
BBXX 44022 14061 99409 70737 46/// ///05 10052 20002 40281 90545 22200 00090 333 91206 555 11051 22051
BBXX 44027 14061 99443 70673 46/// /0210 10038 21007 40246 58005 90550 22200 00089 10603 20603 3//// 40901 70015 333 91212 555 11100 22105 30500 40213 60549 019097 020094 020098 018095 017098 018102
BBXX 41013 14061 99334 70777 46/// /0207 10158 20080 40281 50000 90550 22200 00213 11003 20501 313// 41003 70016 333 91209 555 11071 22074 30543 40309 60549 020066 017069 011064 012061 019056 021055
BBXX 44065 14061 99404 70737 46/// /3507 10071 20020 40278 50000 90550 22200 00101 11102 20301 312// 41101 70008 333 91209 555 11077 22080 30453 43510 60549 350074 348079 352081 353075 354077 354085 83509 90459
BBXX 44040 14061 99410 70736 46/// /0106 10059 20006 40287 90545 22200 1//00 70002 333 91208 555 11077 22093
BBXX 44020 14061 99414 70702 46/// /3607 10069 20033 40251 54000 90550 22200 00091 11001 20501 70005 333 91209 555 11077 22082 30541 43609 60549 349073 255069 254068 253069 252065 254064
BBXX 46001 14061 99563 71480 46/// /1513 10039 49991 56025 90550 22200 00050 10706 20706 300// 41101 70032 333 91216 555 11143 22153 30508 42318 60549 153135 149139 147139 145144 144139 142144
BBXX 42002 14061 99258 70937 46/// /1109 10239 20199 40225 58004 90550 22200 00246 10803 20803 70014 333 91211 555 11091 22097 30509 41011 60549 106091 104089 102088 098094 097089 094087
BBXX 42055 14061 99222 70940 46/// /0907 10249 20208 40203 58003 90550 22200 00253 10803 20602 304// 40802 70014 333 91208 555 11072 22076 30530 40909 60549 092069 095074 091068 090070 087073 086064 80908 90530
BBXX 42003 14061 99260 70856 46/// /0910 1//// 90550 22200 10704 20704 70018 333 91211 555 11102 22108 30457 40812 60549 086095 085093 079090 073096 071095 074097 80710 90517
BBXX 41047 14061 99275 70715 46/// /0210 10226 40197 58007 90550 22200 00252 11007 20805 306// 41005 70033 333 91213 555 11102 22107 30506 40114 60549 020101 013100 019102 014101 016105 013103 80112 90506
BBXX 41043 14061 99211 70650 46/// /3503 10254 20219 40129 58005 90550 22200 00270 11004 20401 300// 41004 70021 333 91204 555 11029 22030 30454 43504 60549 350028 350026 347026 355024 354029 346034 83504 90455
BBXX 41036 14061 99342 70770 46/// ///// 10134 20035 40282 50000 90550 22200 00191 11102 70012
BBXX 46105 14061 99590 71522 46/// ///// 1//// 90550 22200 10503 70015
BBXX 46070 14061 99551 11753 46/// /0208 10027 20020 49676 54000 90550 22200 00042 11113 20806 3//// 41111 70063 333 91210 555 11088 22093 30520 40312 60549 018084 018090 015092 019084 011075 002074 80210 90520
AAXX 14064 91413 11469 80708 10281 20246 30042 40068 56017 69901 71682 84378 333 56299 70056 555 91406
BBXX 46014 14061 99394 71240 46/// /0902 10092 40205 51015 90550 22200 00105 11602 20301 3//// 41602 70012 333 91203 555 11024 22024 30542 41103 60549 090022 098021 101019 108019 104017 107013
BBXX 46011 14061 99350 71210 46/// /3308 10126 40191 52015 90550 22200 00134 11104 20502 332// 41103 70019 333 91210 555 11086 22091 30541 43410 60549 334082 332083 337079 337080 335077 335079
BBXX 46047 14061 99324 71195 46/// /3205 10132 40195 51020 90550 22200 00135 11104 20401 330// 41104 70020 333 91206 555 11047 22050 30531 43306 60549 320045 331048 328048 331048 333048 334041
BBXX 46088 14061 99483 71232 46/// /1302 10060 40192 90550 22200 00079 1//00 70001 333 91203 555 11016 22017 30549 41103 60549 134016 150012 163013 172018 166021 183016
BBXX 46086 14061 99325 71180 46/// /3302 10138 40189 53019 90550 22200 00148 11303 20401 326// 41303 70017 333 91203 555 11020 22020 30456 43504 60549 328019 335023 333026 339026 338031 336034
BBXX 46027 14061 99419 71244 46/// /1704 10088 40204 51018 90550 22200 00092 11503 20301 329// 41503 70013 333 91205 555 11041 22043 30533 41805 60549 165038 177042 178034 187029 191032 185037
BBXX 46050 14061 99442 71246 46/// /1903 10075 40199 53014 90550 22200 00100 11404 20301 331// 41404 70021 333 91204 555 11031 22032 30549 41508 60549 193029 173035 163044 162053 161058 151061
BBXX 46069 14061 99337 71202 46/// /3108 10128 40185 51015 90550 22200 00133 11104 20702 331// 41103 70020 333 91210 555 11087 22093 30545 43110 60549 312081 315081 314080 313082 317083 316079
BBXX 46013 14061 99382 71233 46/// /2903 10102 40200 51013 90550 22200 00108 10802 20401 3//// 40802 70012 333 91204 555 11034 22036 30531 42905 60549 288033 290036 310033 306034 306033 306035
BBXX 46012 14061 99374 71229 46/// /3204 10108 40202 51012 90550 22200 00123 10903 20401 332// 40903 70014 333 91205 555 11038 22040 30546 43105 60549 315036 288029 308025 329026 323029 330029
BBXX 46087 14061 99485 71247 46/// /0903 10063 20027 40196 52005 90550 22200 00077 11205 329// 41205 70025 333 91204 555 11026 22026 30514 41005 60549 087025 088025 091026 092025 087026 083023
BBXX 46029 14061 99461 71245 46/// /0103 10066 20015 40199 51022 90550 22200 00073 11305 328// 41305 70025 333 91204 555 11033 22035 30537 40204 60549 015032 013033 021029 027027 015029 014028
BBXX 46054 14061 99342 71204 46/// /3310 10130 40181 51013 90550 22200 00138 11004 20502 300// 41003 70018 333 91211 555 11101 22107 30545 43311 60549 328094 327088 326082 327087 329089 329089
BBXX 46028 14061 99357 71219 46/// /3207 10120 40192 52015 90550 22200 00132 11004 20502 333// 41003 70019 333 91209 555 11078 22082 30452 43309 60549 321075 328076 326077 326076 324078 323078
BBXX 46025 14061 99337 71191 46/// /2904 10140 20109 40174 51017 90550 22200 00153 11202 20401 326// 41202 70011 333 91205 555 11040 22041 30456 42807 60549 288038 283048 279051 283052 283055 277058
BBXX WCX2417 14064 99458 70849 41/96 81108 10038 2//// 40254 5//// 70222 8//// 22263 0//// 2//01 3//// 4//// 5//// 6//// 8//// ICE /////
BBXX 3FPQ9 14063 99194 70802 41598 40528 10240 2021/ 40160 54000 70111 84263 222// 04250 20504 30499 40504 50000 6//// 80220 ICE /////
BBXX V7MO2 14064 99262 70914 41/97 /1017 10228 20181 40232 52006 7//// 8//// 22200 00236 20302 310// 40503 5//// 6//// 80197 ICE /////
BBXX NWS0022 14064 99416 70714 43/// /3403 10039 21011 40262 5//// 7//// 8//// 222// 04132 2//// 3//// 4//// 5//// 6//// 8//// ICE /////
BBXX VYNG 14064 99452 70831 41/97 81806 10005 21177 41004 56020 70202 88080 22273 00030 20201 3//// 4//// 5//// 6//// 8//// ICE /////
BBXX WDC6698 14064 99090 71466 43/// /0518 10305 20300 40100 5//// 7//// 8//// 222// 04270 2//// 3//// 4//// 5//// 6//// 8//// ICE /////
BBXX LAVW4 14064 99357 70148 41696 83224 00/// 10170 2014/ 40240 54000 70221 868// 22253 00167 21203 332// 41811
BBXX WFLG 14064 99316 71278 41498 73520 10144 20083 40241 51017 70222 878// 22224 00150 20304 335// 40507 5//// 6//// 80111 ICE /////
BBXX DCPY2 14063 99130 10487 41497 31017 10265 20188 40182 52032 71011 83180 22224 00260 20204 310// 40605 80215
BBXX DBBT 14061 99442 30031 46/////3011 10082 20060 44094 17025 22273 000/9
BBXX DBKV 14061 99172 70219 46/// /0409 10239 20171 40151 57007 22220 00244
BBXX TBWUK47 14064 99249 10584 41998 00310 10245 40216 51026 70222 80000 22264 04263 20201 30000
BBXX BAREU61 14064 99167 70178 46/// /0217 10244 29055 40139 57012 22243
BBXX C6OM7 14063 99148 30018 41398 81416 10193 20151 40155 54000 70322 87560 22273 00180 20502 31400 40702 50000 80168
BBXX ELWD5 14063 99116 11109 41396 80223 10265 20244 40100 58010 70522 8/71/ 22214 2//06 80250
BBXX LADR4 14064 99237 11700 41898 72408 00/// 10240 2023/ 40175 53010 70222 87228 22263 00280 20403 3//// 4//// 5//// 6//// 80230
BBXX WDE9586 14063 99347 11647 41598 53022 10130 2007/ 40185 51005 7//22 84461 22224 00190 204// 3//// 408// 5//// 6//// 80100 ICE /////
BBXX V7DI8 14063 99341 11278 41997 13315 10110 2007/ 40230 54000 70100 80001 22253 00170 20502 334// 40402 5//// 6//// 80090 ICE /////
BBXX LAOX5 14064 99303 11719 41397 82818 10200 2013/ 40160 54000 70222 8884/ 22223 0//// 21009 303// 41407 5//// 6//// 80160
BBXX 32012 14061 99197 50856 46/// ///// 1//// 90550 22200 11204 70020
BBXX DGPT2 14064 99238 50447 41296 82519 10225 20219 40080 54000 74142 8/7// 22224 00220 2//// 80221
BBXX 42001 14061 99259 70897 46/// /0909 10240 20188 40240 58004 90550 22200 00243 10804 20804 70022 333 91210 555 11092 22097 30457 40811 60549 085087 088085 088086 087089 083087 084088
BBXX 42040 14061 99292 70882 46/// /0909 10201 40260 58008 90550 22200 00225 10502 20502 70011 333 91210 555 11085 22089 30456 40910 60549 090084 090083 090084 088077 091081 091082
BBXX 44005 14061 99432 70691 46/// /0309 10049 21001 40253 55000 90550 22200 00088 10603 20603 3//// 41101 70015 333 91211 555 11097 22102 30457 40411 60549 033091 030093 033093 027091 025095 030094
BBXX 42059 14061 99151 70675 46/// /0606 10275 20230 40115 58010 90550 22200 00286 11102 20402 3//// 41101 70011 333 91207 555 11068 22071 30503 40510 60549 059064 055071 054074 051073 049078 060068 80508 90503
BBXX 42019 14061 99279 70954 46/// /1510 10231 20199 40201 58012 90550 22200 10604 20604 70018 333 91212 555 11109 22117 30519 42814 60549 160102 281107 281101 280107 281108 278106
BBXX 42060 14061 99163 70635 46/// /0403 10267 20227 40119 58011 90550 22200 00284 11002 20301 300// 41002 70011 333 91204 555 11031 22032 30520 40304 60549 044030 039031 034032 038034 034030 028030 80304 90521
BBXX 42056 14061 99198 70849 46/// /0609 10267 20228 40174 57009 90550 22200 00273 10704 20704 70020 333 91211 555 11097 22103 30526 40612 60549 058091 060098 062095 067089 068094 067100 80710 90550
BBXX 42036 14061 99285 70845 46/// /0709 10188 20166 40255 50000 90550 22200 00217 10503 20503 70015 333 91210 555 11093 22098 30450 40711 60549 068087 066089 068090 068091 070094 071096
BBXX 42058 14061 99149 70749 46/// /0608 10274 20219 40112 58009 90550 22200 00279 10602 20602 305// 40901 70012 333 91210 555 11087 22093 30529 40610 60549 063082 065081 063085 060078 060080 058081 80609 90529
BBXX 42035 14061 99292 70944 46/// /1005 10171 20170 40225 58008 90550 22200 00156 10502 20502 314// 40601 70010 333 91206 555 11057 22065 30452 41008 60549 101051 100054 099054 099059 096065 098070
BBXX 42020 14061 99270 70967 46/// /1410 10241 20211 40190 58009 90550 22200 00242 10703 20703 70017 333 91212 555 11104 22111 30521 41413 60549 142095 139098 138105 136105 135101 133103
BBXX 42012 14061 99301 70876 46/// /0603 10178 20157 40264 58011 90550 22200 00192 10801 20401 317// 40801 70005 333 91204 555 11035 22036 30540 40604 60549 058034 060036 049031 041029 034031 031033
BBXX 41044 14061 99217 70587 46/// /2005 10256 20223 40116 57012 90550 22200 00267 11104 20401 300// 41104 70021 333 91206 555 11049 22051 30452 41907 60549 200047 191049 189051 189050 189049 189055 81906 90454
BBXX 41001 14061 99347 70727 46/// ///// 10161 20065 40239 54000 90550 22200 00221 11006 70029
BBXX 41048 14061 99320 70696 46/// /0108 10195 20140 40194 57004 90550 22200 00228 10906 20604 3//// 40905 70032 333 91210 555 11082 22086 30451 43313 60549 009083 009096 357100 350101 346095 338093 83312 90452
BBXX 41012 14061 99300 70805 46/// /0707 10221 40264 55000 90550 22200 00232 10905 20502 309// 40904 70023 333 91208 555 11074 22078 30453 40610 60549 064070 061067 067069 067069 063073 064077
BBXX 42065 14061 99149 70750 46/// /0608 10271 20232 90550 22200 10603 20603 3//// 41101 70013 333 91209 555 11082 22088 30549 40509 60549 062077 061072 062072 064068 060069 065066 80608 90548
BBXX 41060 14061 99148 70510 46/// ///// 1//// 90550 22200 11006 70030
BBXX 41049 14061 99275 70630 46/// /3511 10234 20191 40110 58007 90550 22200 00248 11005 20504 300// 41003 70026 333 91213 555 11119 22127 30450 43514 60549 350112 346108 350104 343095 340092 336094 83513 90550
BBXX 46075 14061 99539 71608 46/// /2509 10044 20013 49958 52031 90550 22200 00048 11615 20605 300// 41614 70077 333 91212 555 11100 22107 30530 42513 60549 246094 245093 247094 252090 249095 253095 82511 90451
BBXX 46059 14061 99380 71300 46/// /3207 10128 40189 53016 90550 22200 00145 10803 20603 3//// 40802 70017 333 91208 555 11075 22079 30453 43209 60549 315071 320068 328069 330064 325065 317071
BBXX 46084 14061 99566 71361 46/// /1904 10050 21010 40145 54000 90550 22200 00071 11106 20401 300// 41106 70028 333 91205 555 11037 22038 30456 42105 60549 187035 191034 198034 198030 202031 207034
BBXX 46005 14061 99461 71310 46/// ///06 10099 40173 55000 90550 22200 00101 11307 20401 3//// 41306 70033 333 91208 555 11064 22067
BBXX 46002 14061 99426 71305 46/// ///// 10111 40180 51007 90550 22200 00121 11507 70033
BBXX 46006 14061 99408 71375 46/// /2703 10106 40206 52011 90550 22200 00126 11107 20401 3//// 41107 70037 333 91206 555 11035 22036 30500 43006 60549 274035 273040 276031 279042 290040 299043
BBXX 46080 14061 99580 71500 46/// /1112 10030 20012 49999 57026 90550 22200 00052 10504 20504 3//// 40802 70021 333 91214 555 11125 22132 30535 41114 60549 104117 110116 113115 111114 112111 110104 81113 90534
BBXX BAREU08 14064 99247 70587 46/// ///// 40108 57016 22214
BBXX 41004 14061 99325 70791 46/// /0105 10177 20089 40285 50000 90550 22200 00220 11003 20401 3//// 41003 70015 333 91206 555 11050 22051 30512 43507 60549 006048 004048 000048 356053 356054 354050
BBXX 44009 14061 99385 70747 46/// /0208 10087 40285 58003 90550 22200 00125 10503 20503 300// 41102 70015 333 91210 555 11084 22088 30515 40111 60549 016079 013083 011082 010086 008082 011079
BBXX 41008 14061 99314 70809 46/// /0205 10171 20130 40286 54000 90550 22200 00166 11002 20401 300// 41002 70011 333 91206 555 11051 22056 30540 40306 60549 024048 024047 021047 023043 023044 024043
BBXX 44025 14061 99402 70732 46/// /3509 10078 20020 40268 50000 90550 22200 00113 11102 20402 312// 41101 70011 333 91211 555 11094 22099 30549 43511 60549 353088 348084 351087 348086 348085 001069
BBXX 44014 14061 99366 70748 46/// ///// 1//// 90550 22200 11104 20401 311// 41104 70021
BBXX 41101 14064 99146 70562 46/// /1113 10267 20236 40092 57018 22200 00274 10905 70025
BBXX HO7723 14064 99262 70787 41797 50624 10220 2019/ 40215 54000 70222 85/88 22233 00270 20306 30809 40407 50306 6//// 80200 ICE /////
BBXX C6FY8 14064 99555 71557 41796 62333 10040 2121/ 49910 55010 70311 8676/ 22252 00060 20305 32120 40408 50408 6//// 81020 ICE /////
BBXX DQVG 14063 99326 71741 41297 82636 10210 20185 49968 53020 76362 8/7// 22264 20308 3//// 4//// 5//// 80194
BBXX ZCBP5 14064 99442 70352 41/97 81501 10080 20058 40200 51010 70222 8//// 22264 20509 3//// 4//// 5//// 80070
BBXX 44060 14061 99413 70721 46/// ///03 10041 40273 90545 22200 00109 333 91204 555 11031 22036
BBXX 44022 14061 99409 70737 46/// ///05 10052 20002 40281 90545 22200 00090 333 91206 555 11051 22051
BBXX 46060 14061 99606 71468 46/// /1109 10014 40071 52007 90550 22200 00056 333 91211 555 11099 22104
BBXX 46088 14061 99483 71232 46/// /1302 10060 40192 51011 90550 22200 00079 1//00 70001 333 91203 555 11016 22017 30549 41103 60549 134016 150012 163013 172018 166021 183016
BBXX 42362 14061 99278 70907 46/// /0911 10217 20167 40251 90545
BBXX 42363 14061 99282 70892 46/// /0912 10206 20161 40264 90545 333 91212
BBXX 42364 14061 99291 70881 46/// /0908 10200 20156 40268 90545
BBXX 46114 14061 99364 71222 46/// ///// 1//// 90534 22200 00122 11004 21003 322// 41302 70018
BBXX 9HA2583 14064 99304 70727 41797 63530 10230 2//// 40240 57/// 70211 86246 22244 04237 2//// 3//// 4//// 5//// 6//// 8//// ICE /////
BBXX SHIP 14064 99345 71607 41598 31824 10190 2018/ 40160 56010 70120 839// 22263 00180 20704 328// 41004 5//// 6//// 80180 ICE /////
BBXX DGTX 14063 99330 71412 41597 52709 10170 20146 40272 52012 70200 855// 22264 00220 20201 80155
BBXX 3FSB4 14064 99407 71731 437// 32544 10130 2009/ 49850 52010 7//// 83//5 22224 0//// 20808 3//// 40710 5//// 6//// 80110 ICE /////
BBXX WDB3161 14064 99542 71637 41698 12513 10040 2121/ 49933 52020 70200 81100 22263 00065 20302 314// 40809 5//// 6//// 81020 ICE /////
BBXX V7MO2 14064 99262 70914 41/97 /1017 10228 20181 40232 52006 7//// 8//// 22200 00236 20302 310// 40503 5//// 6//// 80197 ICE /////
BBXX 46211 14061 99469 71242 46/// ///// 1//// 90536 22200 00082 11404 21002 328// 41404 70021
BBXX 46218 14061 99345 71208 46/// ///// 1//// 90532 22200 00140 11204 21003 332// 41202 70021
BBXX 46240 14061 99366 71219 46/// ///// 1//// 90542 22200 00127 11002 21001 335// 41101 70008
BBXX 46217 14061 99342 71194 46/// ///// 1//// 90542 22200 00142 11202 20802 327// 41201 70011
BBXX 46244 14061 99409 71244 46/// ///// 1//// 90535 22200 00095 11203 21002 329// 41202 70013
BBXX 9HJF9 14064 99189 70859 41/// /0518 10250 2//// 40180 5//// 7//// 8//// 22244 04280 2//// 3//// 4//// 5//// 6//// 8//// ICE /////
BBXX 3FPQ9 14063 99194 70802 41598 40528 10240 2021/ 40160 54000 70111 84263 222// 04250 20504 30499 40504 50000 6//// 80220 ICE /////
BBXX A8EH3 14063 99542 71671 41/97 31715 10050 21026 49900 52050 701// 83/// 22225 04050 2//// 80020
BBXX DBBA 14061 99536 10086 46/// +1807 10052 20026 49947 57004 22220 00051
BBXX DBBC 14061 99535 10086 46/// /1807 10049 2//// 49950 57004 22250 00064
BBXX DBJM 14061 99542 10081 46/// /2016 10057 20033 49923 57008 22211 00062
BBXX DBFH 14061 99539 10087 46/// /2107/10060 20027 49942 52002 22200 00050
BBXX DBKR 14061 99541 10142 46/// /2011 10057 20032 40000 52014 22200 00042
BBXX DBBU 14061 99542 10133 46/// //108 10044 20022 49994 52015 22252 00038
BBXX DBFR 14061 99547 10137 46/// /2112 10057 20036 49977 52002 22262 00061
BBXX DBEA 14061 99540 10084 46/// /2015 10049 20026 49933 52005 22230 00045
BBXX SHIP 14064 99386 70210 41697 63319 10150 20077 40300 56005 70311 8663/ 90545 22224 0//// 1//// 20607 331// 40507 5//// 6//// 80130 /////
BBXX LAVW4 14064 99357 70148 41696 83224 00/// 10170 2014/ 40240 54000 70221 868// 22253 00167 21203 332// 41811
BBXX WDC6736 14064 99466 70103 41/// /2252 10100 2004/ 40050 52020 781// 8//// 22211 00160 2//// 3//// 4//// 5//// 6//// 80070 ICE /////
BBXX WGAX 14064 99453 70068 41698 42661 10104 2008/ 40058 52032 78186 8414/ 22243 00142 2//// 3//// 4//// 5//// 6//// 80091 ICE /////
BBXX MCUV3 14063 99480 70100 41497 62918 10070 20047 40018 57001 75252 83248 22223 2//12 329// 4//12 5//// 80060
BBXX ZCDF4 14063 99090 70844 41/98 71804 10255 20242 40120 54000 70222 86/// 22273 00280 20301 321// 40703 5//// 80246
AAXX 14061 76225 32920 01802 10154 20029 38602 40058 52006 90535 333 10259 20148 30/// 55072 59008
AAXX 14061 76323 32950 61604 10162 21012 38291 40151 52020 80002 90540 333 10273 20120 30/// 55042 56005 58012 86268
AAXX 14061 76342 31430 82701 10142 20123 39490 40200 54000 70222 887// 90550 333 10180 20096 30/// 55012 20175 561// 59043 88710
AAXX 14061 76382 32960 30901 10170 20125 38888 40095 52004 80008 90550 333 10288 20130 30/// 55006 2//// 56008 59012 83270
AAXX 14061 76390 31950 13404 10165 20028 38241 40108 57005 70544 90530 333 10254 20090 30/// 55093 21360 56001 59005 81070
AAXX 14061 76393 31202 52201 10158 20142 39589 40164 57007 70411 85600 90545 333 10196 20110 30/// 55001 56500 59034 85706
AAXX 14061 76402 32550 50000 10156 20133 30135 40192 52012 85500 90545 333 10226 20168 30/// 55000 2//// 56500 58030 85628
AAXX 14061 76423 32960 02402 10142 20082 38168 40104 54000 90555 333 10270 20073 30/// 55069 21111 59010
AAXX 14061 76458 32960 13202 10202 20184 30161 40166 51002 80005 90546 333 10276 20148 30/// 55061 56//9 58004 81071
AAXX 14061 76525 32960 01907 10123 20054 37493 40115 52002 90540 333 10190 20105 30/// 55095 22773 59001
AAXX 14061 76539 32958 00901 10104 20089 38195 40186 52013 90550 333 10250 20050 30/// 55050 59010
AAXX 14061 76556 32960 01001 10163 20143 39133 40136 52005 90534 333 10272 20121 30/// 55094 58000
AAXX 14061 76571 32910 00000 10114 20071 38187 40139 54008 90550 333 10252 20060 30/// 55086 59003
AAXX 14061 76577 32960 00000 10134 20117 38068 40135 52009 90540 333 10256 20083 30/// 55068 58006
AAXX 14061 76581 32960 03001 10160 20129 39093 40184 52001 90550 333 10270 20138 30/// 55073 59022
AAXX 14061 76634 31950 00201 10086 20079 37880 40171 57001 71040 90550 333 10228 20028 30/// 55095 21803 59006
AAXX 14061 76644 32350 10703 10220 20205 30196 40208 52009 81200 90550 333 10322 20210 30/// 55094 20874 561// 58007 81810
AAXX 14061 76658 31956 00902 10186 20156 39642 40138 54003 70544 90544 333 10330 20170 30/// 55094 59029
AAXX 14061 76680 31960 02002 10134 20014 37780 40131 52001 70500 90550 333 10254 20084 30/// 55091 21442 59000
AAXX 14061 76685 32950 03601 10108 20077 37908 40149 52016 90550 333 10242 20052 30/// 55106 58004
AAXX 14061 76775 31960 00301 10137 20075 38554 40167 52006 70200 90545 333 10275 20080 30/// 55082 58///
AAXX 14061 76843 32965 00201 10209 20176 39512 40149 57003 90530 333 10297 20160 30/// 55100 59032
AAXX 14061 76845 32330 20601 10106 20089 37974 40199 58001 82600 90545 333 10170 20082 30/// 55046 56200 58001 82708
AAXX 14061 76848 32450 43601 10133 20092 38402 40122 57002 84500 90550 333 10204 20120 30/// 55076 56100 59006 84617
AAXX 14061 76243 32365 81102 10162 20156 39878 40172 57021 887// 90530 333 10170 20073 31/// 55000 563// 59044 88709
AAXX 14061 76412 32960 02201 10182 20160 30144 40190 52001 90550 333 10290 20160 30/// 55075 58022
AAXX 14061 76225 32920 01802 10154 20029 38602 40058 52006 90535 333 10259 20148 30/// 55072 59008
AAXX 14061 76323 32950 61604 10162 21012 38291 40151 52020 80002 90540 333 10273 20120 30/// 55042 56005 58012 86268
AAXX 14061 76342 31430 82701 10142 20123 39490 40200 54000 70222 887// 90550 333 10180 20096 30/// 55012 20175 561// 59043 88710
AAXX 14061 76382 32960 30901 10170 20125 38888 40095 52004 80008 90550 333 10288 20130 30/// 55006 2//// 56008 59012 83270
AAXX 14061 76390 31950 13404 10165 20028 38241 40108 57005 70544 90530 333 10254 20090 30/// 55093 21360 56001 59005 81070
AAXX 14061 76393 31202 52201 10158 20142 39589 40164 57007 70411 85600 90545 333 10196 20110 30/// 55001 56500 59034 85706
AAXX 14061 76402 32550 50000 10156 20133 30135 40192 52012 85500 90545 333 10226 20168 30/// 55000 2//// 56500 58030 85628
AAXX 14061 76423 32960 02402 10142 20082 38168 40104 54000 90555 333 10270 20073 30/// 55069 21111 59010
AAXX 14061 76458 32960 13202 10202 20184 30161 40166 51002 80005 90546 333 10276 20148 30/// 55061 56//9 58004 81071
AAXX 14061 76525 32960 01907 10123 20054 37493 40115 52002 90540 333 10190 20105 30/// 55095 22773 59001
AAXX 14061 76539 32958 00901 10104 20089 38195 40186 52013 90550 333 10250 20050 30/// 55050 59010
AAXX 14061 76556 32960 01001 10163 20143 39133 40136 52005 90534 333 10272 20121 30/// 55094 58000
AAXX 14061 76571 32910 00000 10114 20071 38187 40139 54008 90550 333 10252 20060 30/// 55086 59003
AAXX 14061 76577 32960 00000 10134 20117 38068 40135 52009 90540 333 10256 20083 30/// 55068 58006
AAXX 14061 76581 32960 03001 10160 20129 39093 40184 52001 90550 333 10270 20138 30/// 55073 59022
AAXX 14061 76634 31950 00201 10086 20079 37880 40171 57001 71040 90550 333 10228 20028 30/// 55095 21803 59006
AAXX 14061 76644 32350 10703 10220 20205 30196 40208 52009 81200 90550 333 10322 20210 30/// 55094 20874 561// 58007 81810
AAXX 14061 76658 31956 00902 10186 20156 39642 40138 54003 70544 90544 333 10330 20170 30/// 55094 59029
AAXX 14061 76680 31960 02002 10134 20014 37780 40131 52001 70500 90550 333 10254 20084 30/// 55091 21442 59000
AAXX 14061 76685 32950 03601 10108 20077 37908 40149 52016 90550 333 10242 20052 30/// 55106 58004
AAXX 14061 76775 31960 00301 10137 20075 38554 40167 52006 70200 90545 333 10275 20080 30/// 55082 58///
AAXX 14061 76843 32965 00201 10209 20176 39512 40149 57003 90530 333 10297 20160 30/// 55100 59032
AAXX 14061 76845 32330 20601 10106 20089 37974 40199 58001 82600 90545 333 10170 20082 30/// 55046 56200 58001 82708
AAXX 14061 76848 32450 43601 10133 20092 38402 40122 57002 84500 90550 333 10204 20120 30/// 55076 56100 59006 84617
AAXX 14061 76243 32365 81102 10162 20156 39878 40172 57021 887// 90530 333 10170 20073 31/// 55000 563// 59044 88709
AAXX 14061 76412 32960 02201 10182 20160 30144 40190 52001 90550 333 10290 20160 30/// 55075 58022
AAXX 14061 13586 31539 80000 10048 20039 39940 40236 53004 71022 886// 333 20042 31/// 85716 88633
AAXX 14061 76225 32920 01802 10154 20029 38602 40058 52006 90535 33310259 20148 30/// 55072 59008
AAXX 14061 76323 32950 61604 10162 21012 38291 40151 52020 80002 90540333 10273 20120 30/// 55042 56005 58012 86268
AAXX 14061 76342 31430 82701 10142 20123 39490 40200 54000 70222 887//90550 333 10180 20096 30/// 55012 20175 561// 59043 88710
AAXX 14061 76382 32960 30901 10170 20125 38888 40095 52004 80008 90550333 10288 20130 30/// 55006 2//// 56008 59012 83270
AAXX 14061 76390 31950 13404 10165 20028 38241 40108 57005 70544 90530333 10254 20090 30/// 55093 21360 56001 59005 81070
AAXX 14061 76393 31202 52201 10158 20142 39589 40164 57007 70411 8560090545 333 10196 20110 30/// 55001 56500 59034 85706
AAXX 14061 76402 32550 50000 10156 20133 30135 40192 52012 85500 90545333 10226 20168 30/// 55000 2//// 56500 58030 85628
AAXX 14061 76423 32960 02402 10142 20082 38168 40104 54000 90555 33310270 20073 30/// 55069 21111 59010
AAXX 14061 76458 32960 13202 10202 20184 30161 40166 51002 80005 90546333 10276 20148 30/// 55061 56//9 58004 81071
AAXX 14061 76525 32960 01907 10123 20054 37493 40115 52002 90540 33310190 20105 30/// 55095 22773 59001
AAXX 14061 76539 32958 00901 10104 20089 38195 40186 52013 90550 33310250 20050 30/// 55050 59010
AAXX 14061 76556 32960 01001 10163 20143 39133 40136 52005 90534 33310272 20121 30/// 55094 58000
AAXX 14061 76571 32910 00000 10114 20071 38187 40139 54008 90550 33310252 20060 30/// 55086 59003
AAXX 14061 76577 32960 00000 10134 20117 38068 40135 52009 90540 33310256 20083 30/// 55068 58006
AAXX 14061 76581 32960 03001 10160 20129 39093 40184 52001 90550 33310270 20138 30/// 55073 59022
AAXX 14061 76634 31950 00201 10086 20079 37880 40171 57001 71040 90550333 10228 20028 30/// 55095 21803 59006
AAXX 14061 76644 32350 10703 10220 20205 30196 40208 52009 81200 90550333 10322 20210 30/// 55094 20874 561// 58007 81810
AAXX 14061 76658 31956 00902 10186 20156 39642 40138 54003 70544 90544333 10330 20170 30/// 55094 59029
AAXX 14061 76680 31960 02002 10134 20014 37780 40131 52001 70500 90550333 10254 20084 30/// 55091 21442 59000
AAXX 14061 76685 32950 03601 10108 20077 37908 40149 52016 90550 33310242 20052 30/// 55106 58004
AAXX 14061 76775 31960 00301 10137 20075 38554 40167 52006 70200 90545333 10275 20080 30/// 55082 58///
AAXX 14061 76843 32965 00201 10209 20176 39512 40149 57003 90530 33310297 20160 30/// 55100 59032
AAXX 14061 76845 32330 20601 10106 20089 37974 40199 58001 82600 90545333 10170 20082 30/// 55046 56200 58001 82708
AAXX 14061 76848 32450 43601 10133 20092 38402 40122 57002 84500 90550333 10204 20120 30/// 55076 56100 59006 84617
AAXX 14061 76243 32365 81102 10162 20156 39878 40172 57021 887// 90530333 10170 20073 31/// 55000 563// 59044 88709
AAXX 14061 76412 32960 02201 10182 20160 30144 40190 52001 90550 33310290 20160 30/// 55075 58022
BBXX 46001 14061 99563 71480 46/// /1513 10039 49991 56025 90550 22200 00050 10706 20706 300// 41101 70032 333 91216 555 11143 22153 30508 42318 60549 153135 149139 147139 145144 144139 142144
BBXX 46002 14061 99426 71305 46/// ///// 10111 40180 51007 90550 22200 00121 11507 70033
BBXX 46005 14061 99461 71310 46/// ///06 10099 40173 55000 90550 22200 00101 11307 20401 3//// 41306 70033 333 91208 555 11064 22067
BBXX 46006 14061 99408 71375 46/// /2703 10106 40206 52011 90550 22200 00126 11107 20401 3//// 41107 70037 333 91206 555 11035 22036 30500 43006 60549 274035 273040 276031 279042 290040 299043
BBXX 46012 14061 99374 71229 46/// /3204 10108 40202 51012 90550 22200 00123 10903 20401 332// 40903 70014 333 91205 555 11038 22040 30546 43105 60549 315036 288029 308025 329026 323029 330029
BBXX 46014 14061 99394 71240 46/// /0902 10092 40205 51015 90550 22200 00105 11602 20301 3//// 41602 70012 333 91203 555 11024 22024 30542 41103 60549 090022 098021 101019 108019 104017 107013
BBXX 46028 14061 99357 71219 46/// /3207 10120 40192 52015 90550 22200 00132 11004 20502 333// 41003 70019 333 91209 555 11078 22082 30452 43309 60549 321075 328076 326077 326076 324078 323078
BBXX 46029 14061 99461 71245 46/// /0103 10066 20015 40199 51022 90550 22200 00073 11305 328// 41305 70025 333 91204 555 11033 22035 30537 40204 60549 015032 013033 021029 027027 015029 014028
BBXX 46050 14061 99442 71246 46/// /1903 10075 40199 53014 90550 22200 00100 11404 20301 331// 41404 70021 333 91204 555 11031 22032 30549 41508 60549 193029 173035 163044 162053 161058 151061
BBXX 46054 14061 99342 71204 46/// /3310 10130 40181 51013 90550 22200 00138 11004 20502 300// 41003 70018 333 91211 555 11101 22107 30545 43311 60549 328094 327088 326082 327087 329089 329089
AAXX 14064 81405 04184 80000 10233 20230 30078 40087 60031 700// 333 3/023 55028 60017 58000 70130 555 60005
AAXX 14064 81405 04184 80000 10233 20230 30078 40087 60031 700// 333 3/023 55028 60017 58000 70130 555 60005
AAXX 14064 48001 31340 82301 10150 20145 40154 72822 8477/ 333 5656/ 59019
AAXX 14064 48004 32563 10401 10196 20168 81100 333 56900
AAXX 14064 48008 32558 23601 10220 20136 40163 82200 333 56800 58002
AAXX 14064 48010 32560 11801 10215 20173 40158 81100 333 56900 58000
AAXX 14064 48018 32360 13601 10227 20163 40175 81100 333 56900 58020
AAXX 14064 48019 32960 00402 10220 20156 40151 333 59008
AAXX 14064 48020 32960 03201 10213 20143 333
AAXX 14064 48025 31456 23601 10210 20175 40169 70144 82500 333 56900 58001
AAXX 14064 48035 31560 30000 10212 20091 40127 70544 83900 333 56500 59001
AAXX 14064 48037 32962 03601 10250 20150 40155 333 58007
AAXX 14064 48042 32958 02201 10265 20166 40147 333 59001
AAXX 14064 48045 NIL
AAXX 14064 48048 32960 00401 10260 20160 40165 333 58016
AAXX 14064 48053 32956 03602 10270 20154 40145 333 58016
AAXX 14064 48057 32457 12201 10218 20087 81500 333 56900
AAXX 14064 48060 32440 30000 10238 20155 40127 83900 333 56500 59017
AAXX 14064 48062 31960 03607 10260 20140 40150 70522 333 58000
AAXX 14064 48071 /2960 03203 10258 20203 40157 333 58001
AAXX 14064 48077 32960 00401 10297 20166 40155 333 58015
AAXX 14064 48078 32557 12701 10285 20160 40139 81101 333 56909 58002
AAXX 14064 48080 32961 02701 10300 20124 40134 333 58004
AAXX 14064 48094 32960 03602 10295 20220 40139 333 58006
AAXX 14064 48097 32457 40902 10310 20189 40138 84800 333 56900 58005
AAXX 14064 48108 31997 30501 10315 20184 40126 70511 80005 333 56009 59009
AAXX 14064 48109 32496 50401 10290 20230 40135 83506 333 56509 58001
AAXX 14064 48110 31996 53203 10295 20182 40121 705// 80006 333 56009 59007
AAXX 14064 48112 NIL
AAXX 14064 48001 31340 82301 10150 20145 40154 72822 8477/ 333 5656/ 59019
AAXX 14064 48004 32563 10401 10196 20168 81100 333 56900
AAXX 14064 48008 32558 23601 10220 20136 40163 82200 333 56800 58002
AAXX 14064 48010 32560 11801 10215 20173 40158 81100 333 56900 58000
AAXX 14064 48018 32360 13601 10227 20163 40175 81100 333 56900 58020
AAXX 14064 48019 32960 00402 10220 20156 40151 333 59008
AAXX 14064 48020 32960 03201 10213 20143 333
AAXX 14064 48025 31456 23601 10210 20175 40169 70144 82500 333 56900 58001
AAXX 14064 48035 31560 30000 10212 20091 40127 70544 83900 333 56500 59001
AAXX 14064 48037 32962 03601 10250 20150 40155 333 58007
AAXX 14064 48042 32958 02201 10265 20166 40147 333 59001
AAXX 14064 48045 NIL
AAXX 14064 48048 32960 00401 10260 20160 40165 333 58016
AAXX 14064 48053 32956 03602 10270 20154 40145 333 58016
AAXX 14064 48057 32457 12201 10218 20087 81500 333 56900
AAXX 14064 48060 32440 30000 10238 20155 40127 83900 333 56500 59017
AAXX 14064 48062 31960 03607 10260 20140 40150 70522 333 58000
AAXX 14064 48071 /2960 03203 10258 20203 40157 333 58001
AAXX 14064 48077 32960 00401 10297 20166 40155 333 58015
AAXX 14064 48078 32557 12701 10285 20160 40139 81101 333 56909 58002
AAXX 14064 48080 32961 02701 10300 20124 40134 333 58004
AAXX 14064 48094 32960 03602 10295 20220 40139 333 58006
AAXX 14064 48097 32457 40902 10310 20189 40138 84800 333 56900 58005
AAXX 14064 48108 31997 30501 10315 20184 40126 70511 80005 333 56009 59009
AAXX 14064 48109 32496 50401 10290 20230 40135 83506 333 56509 58001
AAXX 14064 48110 31996 53203 10295 20182 40121 705// 80006 333 56009 59007
AAXX 14064 48112 NIL
BBXX BAREU05 14064 99388 70125 46/// ///// 40240 52010 22263
BBXX BAREU62 14064 99395 10151 46/// ///// 40228 54000 22284
BBXX BAREU51 14064 99419 10107 46/// ///// 40158 52002 22235
BBXX BAREU00 14064 99445 70626 46/// ///// 40206 57021 22223
BBXX BAREU54 14064 99115 70803 46/// ///// 40110 57009 22253
BBXX 44066 14061 99396 70726 46/// /0108 10098 20028 40261 50000 90550 22200 00129 11104 20603 3//// 41102 70018 333 91209 555 11081 22085 30520 40110 60549 010077 015078 009082 012080 017080 015083
AAXX 14064 85934 12580 52907 10109 20076 40145 54000 60001 82530 333 56660 82626 85360
AAXX 14064 89056 11/04 92824 10007 20003 49927 58003 60001 74542 333 89/01
AAXX 14064 89057 11456 62416 10011 20005 49920 54000 60001 71022 86500 333 56600 86615
AAXX 14064 89058 31557 82707 10009 21001 39909 49930 54000 71000 885//
AAXX 14064 89059 11535 82116 10005 21016 49885 52007 69901 71022 885// 333 75099 88620
AAXX 14064 89251 31256 82918 10015 20001 49926 52010 71022 8672/
AAXX 14064 85574 12960 01608 10142 20099 39582 40136 56004 60001
AAXX 14064 85577 12960 10000 10158 20123 39529 40133 58005 60001 80001 333 56006 81075
AAXX 14064 85585 339// 91814 10151 20101 30160 40196 58005
AAXX 14064 85682 12960 00404 10124 20118 40131 58010 60001
AAXX 14064 85743 11450 82904 10114 20106 40149 58010 60001 71011 886// 333 56699 88710
AAXX 14064 85799 11960 02102 10087 20087 40185 58005 60001 70400
AAXX 14064 85418 12570 31702 10192 20123 40152 58016 60001 83500 333 56000 83625
AAXX 14064 85442 12570 89901 10181 20138 40150 58014 60001 885// 333 56499 88627
AAXX 14064 85469 42560 42811 10221 20185 40185 52007 84100 333 56600 84820
AAXX 14064 85488 12460 82904 10146 20120 40148 58006 60001 885// 333 56699 88613
AAXX 14064 91772 11498 30204 10266 20231 4//// 69921 70128 81201 333 561/9 81817 83080
AAXX 14064 91776 31498 40000 1//// 2//// 4//// 60001 70110 8323/ 333 5699/ 83818 84361
AAXX 14064 91779 11398 60000 10239 20227 40109 53006 60131 78088 867// 333 567// 83708 85816
AAXX 14064 91784 31498 52505 10267 20246 40100 53002 60001 70222 83208 333 565/9 83817 85277
AAXX 14064 91792 11498 40803 10271 20242 40110 53002 60021 78021 82201 333 562/9 81717 82630 84078
AAXX 14064 85874 32982 /2604 10059 20013 39568 40202 52004
AAXX 14064 96315 32470 73207 10304 20247 40084 83968 333 83817 81918 86080
AAXX 14064 96323 NIL
AAXX 14064 89578 46/// /0510 11353 36762 4//// 5////
AAXX 14064 78925 14969 /1003 10229 20226 40112 57012 60001 700// 333 10302 20229 55085 21742 59006 70069
AAXX 14064 78862 11480 49902 10220 20209 30092 40115 69961 70286 81802 333 10291 20219 59010 81816 84078
AAXX 14064 SHRA FEW012CB BKN015 BECMG 1312/1314 10008KT
AAXX 14064 TAF TQPF 121600Z 1218/1318 VRB04KT 9999 SCT016 PROB30 TEMPO 1218/1318 SHRA FEW012CB BKN015 BECMG 1312/1314 10008KT
AAXX 14064 TAF TKPN 121600Z 1218/1318 VRB04KT 9999 SCT016 PROB30 TEMPO 1218/1318 SHRA FEW012CB BKN015 BECMG 1312/1314 10008KT
AAXX 14064 TAF TUPJ 121600Z 1218/1318 VRB04KT 9999 SCT016 PROB30 TEMPO 1218/1318 SHRA FEW012CB BKN015 BECMG 1312/1314 10008KT
AAXX 14064 EMPO 0600/0624 SHRA BKN015=+TSRA SCT012CB
AAXX 14064 TAF TUPJ 041000Z 04012/0512 07008KT 9999 SCT016 BKN038 SCT270 TEMPO 0412/0512 SHRA BKN015 PROB40 TEMPO 0418/0512 5000 SHRA BKN014 BKN036 PROB30 0420/0512 4000 TSRA FEW012CB
AAXX 14064 918 4000 TSRA FEW012CB
AAXX 14064 N015 BKN036 PROB40 TEMPO 0704/0724 3000 +TSRA SCT011CB BKN012 BECMG 0712/0714 14008KT
AAXX 14064 21/2712 07017G28KT 5000 SHRA BKN015 BKN036 PROB TEMPO 2700/2712 4000 TSRA FEW013CB
AAXX 14064 PROB30 TEMPO 0800/0806 4000 TSRA FEW012CB PROB40 TEMPO 0800/0824 2000 +SHRA/TSRA SCT010CB BKN012 BKN250
AAXX 14064 78925 14969 /1003 10229 20226 40112 57012 60001 700// 333 10302 20229 55085 21742 59006 70069
AAXX 14064 78862 11480 49902 10220 20209 30092 40115 69961 70286 81802 333 10291 20219 59010 81816 84078
AAXX 14064 SHRA FEW012CB BKN015 BECMG 1312/1314 10008KT
AAXX 14064 TAF TQPF 121600Z 1218/1318 VRB04KT 9999 SCT016 PROB30 TEMPO 1218/1318 SHRA FEW012CB BKN015 BECMG 1312/1314 10008KT
AAXX 14064 TAF TKPN 121600Z 1218/1318 VRB04KT 9999 SCT016 PROB30 TEMPO 1218/1318 SHRA FEW012CB BKN015 BECMG 1312/1314 10008KT
AAXX 14064 TAF TUPJ 121600Z 1218/1318 VRB04KT 9999 SCT016 PROB30 TEMPO 1218/1318 SHRA FEW012CB BKN015 BECMG 1312/1314 10008KT
AAXX 14064 EMPO 0600/0624 SHRA BKN015=+TSRA SCT012CB
AAXX 14064 TAF TUPJ 041000Z 04012/0512 07008KT 9999 SCT016 BKN038 SCT270 TEMPO 0412/0512 SHRA BKN015 PROB40 TEMPO 0418/0512 5000 SHRA BKN014 BKN036 PROB30 0420/0512 4000 TSRA FEW012CB
AAXX 14064 918 4000 TSRA FEW012CB
AAXX 14064 N015 BKN036 PROB40 TEMPO 0704/0724 3000 +TSRA SCT011CB BKN012 BECMG 0712/0714 14008KT
AAXX 14064 21/2712 07017G28KT 5000 SHRA BKN015 BKN036 PROB TEMPO 2700/2712 4000 TSRA FEW013CB
AAXX 14064 PROB30 TEMPO 0800/0806 4000 TSRA FEW012CB PROB40 TEMPO 0800/0824 2000 +SHRA/TSRA SCT010CB BKN012 BKN250
AAXX 14061 12772 31401 41603 10029 20023 39896 40186 50002 74442 84600 333 20028 4/000 55000 70004 84713
AAXX 14061 12822 36/// /1002 10012 20011 30015 40162 51004 333 20010
AAXX 14061 12843 31/05 91302 10033 20030 30003 40177 52001 74744 333 20016 4/000 55056 89/03
AAXX 14061 12882 31420 81401 10052 20048 30062 40196 52005 71022 886// 333 20047 4/000 55000 70002 88713
AAXX 14061 12925 36/// /1801 10019 20010 39986 40162 50003 333 20019
AAXX 14061 12942 31901 10802 10003 20003 39933 40186 52004 74640 80002 333 21003 4/000 55027
AAXX 14061 12982 31/01 91603 10035 20029 30089 40192 52008 74744 333 20018 4/000 55003 70001 89/02
AAXX 14064 91643 11599 60815 10285 20247 40080 56003 60001 70200 83260 333 5629/ 83819 86361
AAXX 14064 91636 11599 61013 10283 20251 40077 60001 71422 83208 333 562/9
AAXX 14064 78862 11480 49902 10220 20209 30092 40115 69961 70286 81802 333 10291 20219 59010 81816 84078
AAXX 14064 SHRA FEW012CB BKN015 BECMG 1312/1314 10008KT
AAXX 14064 TAF TQPF 121600Z 1218/1318 VRB04KT 9999 SCT016 PROB30 TEMPO 1218/1318 SHRA FEW012CB BKN015 BECMG 1312/1314 10008KT
AAXX 14064 TAF TKPN 121600Z 1218/1318 VRB04KT 9999 SCT016 PROB30 TEMPO 1218/1318 SHRA FEW012CB BKN015 BECMG 1312/1314 10008KT
AAXX 14064 TAF TUPJ 121600Z 1218/1318 VRB04KT 9999 SCT016 PROB30 TEMPO 1218/1318 SHRA FEW012CB BKN015 BECMG 1312/1314 10008KT
AAXX 14064 EMPO 0600/0624 SHRA BKN015=+TSRA SCT012CB
AAXX 14064 TAF TUPJ 041000Z 04012/0512 07008KT 9999 SCT016 BKN038 SCT270 TEMPO 0412/0512 SHRA BKN015 PROB40 TEMPO 0418/0512 5000 SHRA BKN014 BKN036 PROB30 0420/0512 4000 TSRA FEW012CB
AAXX 14064 918 4000 TSRA FEW012CB
AAXX 14064 N015 BKN036 PROB40 TEMPO 0704/0724 3000 +TSRA SCT011CB BKN012 BECMG 0712/0714 14008KT
AAXX 14064 21/2712 07017G28KT 5000 SHRA BKN015 BKN036 PROB TEMPO 2700/2712 4000 TSRA FEW013CB
AAXX 14064 PROB30 TEMPO 0800/0806 4000 TSRA FEW012CB PROB40 TEMPO 0800/0824 2000 +SHRA/TSRA SCT010CB BKN012 BKN250
AAXX 14064 97180 01459 71703 10274 20252 30068 40086 58028 60171 72162 82271 333 56000 60087 82819 85360
AAXX 14064 48698 01466 70409 10310 20249 30068 40087 60001 70522 85832 333 60007 83818 85080
AAXX 14064 48698 01466 70409 10310 20249 30068 40087 60001 70522 85832 333 60007 83818 85080
AAXX 14064 64500 11308 83602 10235 20223 30097 40111 60024 79596 8692/ 333 02422 20227 50281 55090 58004 84606 85626 88460 94959 95839
AAXX 14064 85418 12570 31702 10192 20123 40152 58016 60001 83500 333 56000 83625
AAXX 14064 85442 12570 89901 10181 20138 40150 58014 60001 885// 333 56499 88627
AAXX 14064 85469 42560 42811 10221 20185 40185 52007 84100 333 56600 84820
AAXX 14064 85488 12460 82904 10146 20120 40148 58006 60001 885// 333 56699 88613
AAXX 14064 85574 12960 01608 10142 20099 39582 40136 56004 60001
AAXX 14064 85577 12960 10000 10158 20123 39529 40133 58005 60001 80001 333 56006 81075
AAXX 14064 85585 339// 91814 10151 20101 30160 40196 58005
AAXX 14064 85682 12960 00404 10124 20118 40131 58010 60001
AAXX 14064 85743 11450 82904 10114 20106 40149 58010 60001 71011 886// 333 56699 88710
AAXX 14064 85799 11960 02102 10087 20087 40185 58005 60001 70400
BBXX 44007 14061 99435 70701 46/// /0408 10044 20005 40268 52003 90550 22200 00084 10402 20402 3//// 41101 70009 333 91209 555 11085 22089 30502 40311 60549 037081 041079 040078 040079 036083 039089
AAXX 14064 89009 41261 60503 11321 36743 55000 70277 81608 333 81705 85258
AAXX 14064 78982 01484 40507 10265 20246 30096 40101 57010 60021 72581 84201 333 59004 60027 84817
BBXX BATFR50 14064 99424 10066 46/// /2407 10147 20115 40150 55004 22272 00147
BBXX BATFR22 14064 99427 10095 46/// /2506 10149 40161 51004 22262 00175
BBXX BATFR13 14064 99321 70400 44797 61720 10209 20177 40250 58005 70222 8432/ 22214 00222
BBXX BATFR52 14064 99488 70023 46/// /2429 10079 20034 49970 53023 22233 00125
BBXX BATFR19 14064 99039 30092 46/// /1717 10254 20220 40111 53009 22242 00254
AAXX 14064 78970 11464 20000 10249 20234 30069 40094 60001 70511 81202 333 01209 10336 20242 59008 81815
AAXX 14064 78962 12470 10000 10252 20218 30094 40102 60001 81202 333 02209 10310 20237 59008 81816
BBXX BATFR04 14064 99594 70119 46/// /3119 10060 20024 49694 53026 22251 00102
AAXX 14061 10004 NIL
AAXX 14061 10015 12465 32016 10059 20030 39908 49918 50000 60002 83800 222// 02063 333 10074 20058 31005 55008 55300 20000 30000 70026 82815 91126 91218 90313 91220 96407
AAXX 14061 10020 07566 72114 10060 20043 39860 49892 55000 60092 72387 333 10071 20047 3/003 55007 55300 20000 30000 60027 70142 85/20 86/31 87/40 91128 90258 91218 91220
AAXX 14061 10035 12580 22108 10045 20016 39876 49934 50000 60002 82500 333 10063 20043 32003 55000 55300 20000 30000 40930 70080 82622 91116
AAXX 14061 10055 12982 12109 10054 20021 39943 49953 53007 69902 81030 333 10069 20054 31004 55000 55300 20000 30000 70035 81363 91117 91212
AAXX 14061 10147 12980 22006 10056 20020 39950 49968 58001 60002 80001 333 10074 20052 31003 55000 55300 20000 30000 40909 70017 82075 91115
AAXX 14061 10162 12982 02005 10045 20015 39903 49986 50006 60002 333 10067 20045 31003 55000 55300 20000 30000 70031 91113
AAXX 14061 10184 12685 11904 10049 20019 39992 40000 53018 60002 81500 333 10076 20048 31003 55000 55300 20000 30000 70037 81640 91113
AAXX 14061 10200 12984 81807 10049 20026 39935 49933 58012 60002 8807/ 333 10066 20045 31003 55010 55300 20000 30000 70025 87360 91114
AAXX 14061 10224 12980 82006 10056 20021 39957 49963 58011 60002 83056 333 10076 20054 31004 55000 55300 20000 30000 70039 83362 87272 91115
AAXX 14061 10270 NIL
AAXX 14061 10338 12981 61808 10061 20014 39919 49991 58009 60002 84031 333 10082 20060 31004 55000 55300 20000 30000 70021 84365 86073 91114
AAXX 14061 10361 12986 22003 10035 20004 39920 40024 58005 69932 80005 333 10083 20035 31100 55000 55300 20000 30000 70009 82273
AAXX 14061 10393 12986 12004 10056 20028 39924 40050 53011 69972 80001 333 10067 20049 31003 55000 55300 20000 30000 70025 81076
AAXX 14061 10400 01475 81406 10062 20033 39908 49957 58047 60012 76161 8552/ 333 10073 20046 31003 55000 55300 20000 30000 69907 70038 81710 85640 87456
AAXX 14061 10438 15581 71802 10040 20022 39736 40016 58023 60002 333 10057 20039 3/002 55000 55300 70051 85/29 86/34 87/68
AAXX 14061 10469 12983 21806 10042 20022 39882 40048 50005 69922 80002 333 10082 20032 31100 55000 55300 70002 82073 91113
AAXX 14061 10488 12982 41604 10052 20007 39789 40071 53003 69912 82031 333 10094 20052 31001 55003 55300 20000 30000 40934 70002 82363 83076 91113
AAXX 14061 10506 01268 81806 10043 20025 39403 49980 58047 69912 76311 8472/ 333 10047 20034 31002 55000 55300 20000 30000 69917 70066 84706 88523 91114
AAXX 14061 10548 12381 71504 10034 20023 39513 40055 58008 69982 86502 333 10063 20034 31002 55000 55300 20000 30000 70045 83708 85626
AAXX 14061 10637 12582 71805 10077 20032 39886 40022 58035 69942 8257/ 333 10088 20063 31003 55000 55300 70039 81628 83360 87465
AAXX 14061 10685 12983 71804 10044 20017 39395 40067 55000 60052 80002 333 10055 20041 31003 55001 55300 20000 30000 70057 87075 91114
AAXX 14061 10738 01986 31703 10059 20027 39596 40064 57022 69982 70161 83030 333 10087 20030 31101 55007 55300 69907 70008 83363
AAXX 14061 10763 01575 81304 10054 20036 39697 40079 58013 69902 72111 875// 333 10079 20049 31003 55000 55300 20000 30000 69907 70003 81630 85650 87657
AAXX 14061 10788 15963 00904 10025 20020 39676 40113 58006 69902 333 10033 20010 3/100 55005 55300 20000 30000 70014
AAXX 14061 10852 12888 81602 10062 20036 39527 40094 56015 69902 8707/ 333 10089 20044 31001 55000 55300 20000 30000 70003 81357 87359
AAXX 14061 10946 07688 71804 10063 20029 39280 40106 55004 69932 72365 333 10084 20020 3/101 55007 55300 20000 30000 69907 70010 83/36 87/56 87/57 91113
BBXX BATFR54 14064 99365 70077 46/// /2914 10169 20142 40247 55003 22223 00175
BBXX BATFR15 14064 99341 70268 44698 13005 10184 20134 40291 58001 70200 81//1 22264 00200 336// 40704 5////
BBXX BAREU06 14064 99439 70503 46/// ///// 40176 57040 22274
BBXX BATFR29 14064 99509 10015 46/// /2705 10059 20032 49937 55010 22284 00115
BBXX BATFR21 14064 99433 10053 46/// /0711 20215 40143 57003 22283
BBXX FVNM 14064 99063 70969 46/// /0210 10265 20229 40127 58002 22222 00272
BBXX BATEU06 14064 99556 10037 46/// /2622 10077 20010 49794 50/// 22261 00090
BBXX BATFR42 14064 99507 70020 46/// /2613 10069 20029 49924 56027 22272 00122
BBXX BATEU00 14064 99584 30211 46/// /3119 11015 21016 49988 56012 22243
BBXX BATFR35 14064 99171 51504 46/// /0916 10272 20224 40139 51014 22272 00287
BBXX BATEU04 14064 99597 70342 46/// /0204 10034 20002 49871 56004 22222
BBXX BATFR09 14064 99384 10069 44497 62630 10172 20104 40223 51010 70222 86700 22263 00187 20510 60//0 ICE 0/0//
BBXX BATFR03 14064 99508 70011 46/// /2412 10064 20032 49926 56013 22283
BBXX BATFR11 14064 99365 10132 46/// /2705 10170 20124 40249 53005 22223 00192
BBXX BATFR46 14064 99384 10002 46/// /2316 10162 20092 40209 56016 22213 00179
BBXX BATFR27 14064 99505 70012 46/// /2520 10134 20077 49922 56019 22213 00119
BBXX BATEU09 14064 99428 10058 46/// /2208 10152 20110 40145 52010 22241 00174
AAXX 14064 78925 14969 /1003 10229 20226 40112 57012 60001 700// 333 10302 20229 55085 21742 59006 70069
AAXX 14064 89009 41261 60503 11321 36743 55000 70277 81608 333 81705 85258
AAXX 14064 41170 42960 02805 10168 20105 30224 40237 333 20140 58014 555 00135
AAXX 14064 85934 12580 52907 10109 20076 40145 54000 60001 82530 333 56660 82626 85360
AAXX 14064 89056 11/04 92824 10007 20003 49927 58003 60001 74542 333 89/01
AAXX 14064 89057 11456 62416 10011 20005 49920 54000 60001 71022 86500 333 56600 86615
AAXX 14064 89058 31557 82707 10009 21001 39909 49930 54000 71000 885//
AAXX 14064 89059 11535 82116 10005 21016 49885 52007 69901 71022 885// 333 75099 88620
AAXX 14064 89251 31256 82918 10015 20001 49926 52010 71022 8672/
AAXX 14064 85874 32982 /2604 10059 20013 39568 40202 52004
AAXX 14064 91203 11474 80713 10300 20258 30075 40080 5//// 60021 70328 84976 333 56299 70015 84917 83368 88080 555 91406
AAXX 14064 78970 11464 20000 10249 20234 30069 40094 60001 70511 81202 333 01209 10336 20242 59008 81815
AAXX 14064 78962 12470 10000 10252 20218 30094 40102 60001 81202 333 02209 10310 20237 59008 81816
AAXX 14061 78221 NIL
AAXX 14061 78224 33560 29901 10172 20156 30136 40212 50001 82100 333 82840
AAXX 14061 78229 42559 20605 10219 20171 30136 40211 54000 82200 333 82820
AAXX 14061 78239 NIL
AAXX 14061 78244 NIL
AAXX 14061 78243 12559 30605 10210 20166 30080 40204 57005 60004 83100 333 83820
AAXX 14061 78255 42559 50406 10221 20187 30037 40186 54000 85500 333 85620
AAXX 14061 78264 31559 20204 10235 20198 30077 40152 57010 70500 82100 333 83820
AAXX 14061 78265 41559 60000 10218 20199 30065 40165 57010 76166 85200 333 85820
AAXX 14061 78256 NIL
AAXX 14061 78259 NIL
AAXX 14061 78268 NIL
AAXX 14061 01001 NIL
AAXX 14061 01008 NIL
AAXX 14061 01010 11989 51212 10033 21037 39750 49766 58028 60002 70222 85031 333 21001 70000 91115
AAXX 14061 01026 11688 72302 10020 21034 39674 49812 57013 60002 70320 8557/ 333 21050 47031 70000 91108
AAXX 14061 01055 NIL
AAXX 14061 01062 NIL
AAXX 14061 01098 11475 71908 10020 21002 39918 49936 51005 69912 70172 86720 333 21006 70015 91113
AAXX 14061 01115 11880 81514 10063 21004 39674 49694 57015 60002 70222 8807/ 333 20041 70001 91120
AAXX 14061 01152 NIL
AAXX 14061 01205 NIL
AAXX 14061 01212 NIL
AAXX 14061 01271 16/// /1606 10044 21046 39681 49701 55008 6//// 333 20026 91116
AAXX 14061 01288 16/// /2204 11003 21039 39008 49734 58003 6//// 333 21015 91114
AAXX 14061 01300 NIL
AAXX 14061 01317 NIL
AAXX 14061 01367 NIL
AAXX 14061 01384 11260 71606 10012 20006 39541 49785 52001 69962 70222 876// 333 20005 91110
AAXX 14061 01403 11560 6//// 10066 20044 39601 49667 53010 60032 78182 86900 333 20036 70200
AAXX 14061 01415 16/// /2111 10069 20035 39691 49701 52004 6//// 333 20023 91121
AAXX 14061 01482 46/// /2015 1//// 2//// 39789 49796 52008 333 91132
AAXX 14061 01492 NIL
AAXX 14061 01003 NIL
AAXX 14061 01007 16/// /0000 11075 21120 30016 40025 52003 60002 333 21104 70000 91103
AAXX 14061 01028 NIL
AAXX 14061 01047 11588 81805 11014 21027 39507 49876 58018 69922 70272 885// 333 21045 48023 70032
AAXX 14061 01049 NIL
AAXX 14061 01078 NIL
AAXX 14061 01102 46/// /1613 10041 20018 39674 49693 52011 333 20029 91121
AAXX 14061 01160 NIL
AAXX 14061 01218 NIL
AAXX 14061 01238 46/// /1515 11035 21045 38591 49688 58013 333 21045 91120
AAXX 14061 01241 NIL
AAXX 14061 01281 NIL
AAXX 14061 01338 16/// /0905 10039 20013 39603 49667 56010 69972 333 20029 70014 91114
AAXX 14061 01359 NIL
AAXX 14061 01397 NIL
AAXX 14061 01400 NIL
AAXX 14061 01427 16/// /2118 10071 20042 39736 49752 53002 60022 333 20055 70090 91128
AAXX 14061 01447 NIL
AAXX 14061 01448 46/// ///// 10067 20033 39772 49782 53004 333 20054
AAXX 14061 33815 31/91 92002 10046 20043 39977 40187 52010 74541 333 20046 555 80011
AAXX 14064 78897 11565 30000 10225 20217 40114 58012 69921 70186 83800 333 023// 10301 20219 59009 70006 81820
AAXX 14064 91203 11474 80713 10300 20258 30075 40080 5//// 60021 70328 84976 333 56299 70015 84917 83368 88080 555 91406
AAXX 14064 78897 11565 30000 10225 20217 40114 58012 69921 70186 83800 333 023// 10301 20219 59009 70006 81820
AAXX 14061 10609 01459 81913 10068 20045 39664 49989 58050 69932 76362 8172/ 333 10075 20054 31003 55000 55300 20000 30000 69937 70105 81710 88533 91120 91214
AAXX 14061 10616 01470 81808 10051 20029 39408 40002 58041 69902 76011 8682/ 333 10053 20038 31002 55004 55300 69907 70094 83811 85625 88458 91114
AAXX 14061 10641 15986 71504 10068 20031 39880 40026 58034 69942 333 10089 20062 3/004 55000 55300 70037 81/69 87/71
AAXX 14061 10655 12984 31707 10039 20025 39728 40058 58019 60022 81011 333 10105 20036 31002 55001 55300 20000 30000 70021 81466 83080
AAXX 14061 10675 15888 81605 10063 20035 39782 40073 58011 69942 333 10094 20050 3/003 55000 55300 20000 30000 70011 88/56
AAXX 14061 10688 15782 81503 10057 20035 39567 40088 58008 69902 333 10067 20041 3/003 55001 55300 20000 30000 70025 88/50
AAXX 14061 10708 01580 81806 10066 20042 39642 40024 56035 60012 76162 8257/ 333 10076 20053 31003 55002 55300 20000 30000 69907 70072 82624 87462
AAXX 14061 10729 15782 61506 10070 20033 39921 40042 58034 69952 333 10106 20045 3/001 55000 55300 20000 30000 70010 84/50 84/57 86/58
AAXX 14061 10731 11678 51201 10025 20018 39892 40037 58035 60022 70161 83501 333 10114 20010 31000 55000 55300 20000 30000 70024 83640 83075
AAXX 14061 10742 17788 71803 10074 20034 39727 40055 58026 69922 70065 333 10108 20059 3/002 55000 55300 20000 30000 70003 87/56 91114
AAXX 14061 10776 11780 71404 10034 20021 39658 40106 56006 69902 70262 8357/ 333 10042 20026 31001 55000 55300 20000 30000 70013 83656 87358
AAXX 14061 10791 01/90 91807 10000 20000 38468 48416 55000 60032 74974 333 10005 21019 44054 55005 55300 69927 70045
AAXX 14061 10805 12883 71904 10096 20042 39854 40042 58038 69932 85072 333 10112 20075 31005 55000 55300 20000 30000 70008 83358 83078
AAXX 14061 10815 01183 62105 10039 20027 39125 48374 56026 60082 70162 81532 333 10058 20032 31002 4/998 55000 55300 20000 30000 69927 70162 81603 85074 91115 96458
AAXX 14061 10836 01688 32108 10044 20027 39210 40076 58019 69952 72161 82531 333 10066 20029 31001 55004 55300 20000 30000 69907 70007 82642 91114
AAXX 14061 10870 12584 73402 10055 20019 39572 40106 56010 69902 8453/ 333 10099 20035 31001 55006 55300 79999 82630 83656 86359
AAXX 14061 10895 01975 81602 10030 20012 39551 40127 55001 69932 72864 8707/ 333 10035 20011 31100 55015 55300 20000 30000 69907 70003 87359 96261
AAXX 14061 10908 01488 72117 10000 20000 38382 48384 56018 60092 72874 8153/ 333 10013 21003 3/100 49010 55000 55300 20000 30000 69917 70163 81616 87360 91124 91218
AAXX 14061 10929 01782 81103 10067 20048 39558 40086 57025 69902 72161 8257/ 222// 06059 333 10072 20050 31002 55005 55300 20000 30000 69907 70021 82656 88459
AAXX 14061 10948 01782 71903 10018 20015 39175 48419 56004 69972 76162 875// 333 10043 20000 32102 41998 55007 55300 20000 30000 69977 70007 87656
AAXX 14061 10961 11/20 81608 11073 21081 37009 47970 55012 69942 77174 8457/ 333 11047 21077 49085 55014 55300 20000 41056 70004 846// 86320 91123 91213 95199 96041
AAXX 14061 10962 01483 72310 10045 20020 38966 48418 55009 69912 76362 875// 333 10075 20037 3/002 42001 55003 55300 20000 30000 69917 70001 87610 91120 91213
AAXX 14061 10980 12589 70603 10001 21031 38079 48426 58008 60002 8553/ 333 10045 20001 3/101 44025 55008 55300 20000 30000 70000 85630 87357
AAXX 14061 10007 NIL
AAXX 14061 10044 46/// /2016 10053 20017 39906 49938 50001 222// 00058 333 10073 20051 55000 55300 91124 91219
AAXX 14061 10046 12570 21906 10049 20014 39912 49951 50001 60002 81531 333 10068 20049 31003 55001 70081 81630 91115
AAXX 14061 10091 12584 12110 10043 20020 39929 49980 53016 60002 81501 222// 06062 333 10058 20042 31003 55003 55300 20000 30000 70025 81631 91117 91213
AAXX 14061 10113 12983 21909 10050 20028 39904 49923 58010 60002 80002 222// 06050 333 10065 20048 31004 55024 55300 20000 30000 70024 82075 91119 91211
AAXX 14061 10124 46/// ///// 10052 2//// 39886 49923 58002 222// 00058 333 10067 20050 55/// 553// 911// 912//
AAXX 14061 10131 12570 52007 10052 20020 39929 49944 58002 60002 81531 222// 02041 333 10068 20051 31004 55004 55300 20000 30000 70045 81623 83073 91117
AAXX 14061 10170 12985 02007 10057 20019 39963 49979 51013 60002 333 10073 20050 31004 55000 55300 20000 30000 70033 91113
AAXX 14061 10264 12984 02005 10046 20012 39893 49999 50006 69902 333 10074 20045 31002 55000 55300 20000 30000 70022
AAXX 14061 10291 12984 02006 10046 20018 39965 40033 52015 69902 333 10066 20043 31003 55000 55300 20000 30000 70035
AAXX 14061 10315 12882 81705 10062 20022 39906 49970 58022 69902 8807/ 333 10078 20059 31005 55000 55300 20000 30000 70013 81358 88462 91115
AAXX 14061 10379 12983 11906 10034 20016 39911 40033 52008 69922 81030 333 10075 20034 34100 55000 55300 20000 30000 40879 70031 81362 91113
AAXX 14061 10382 12982 11904 10045 20017 39991 40036 53011 69912 81030 333 10083 20044 31002 55000 55300 20000 30000 70034 81362
AAXX 14061 10384 16/// /1904 10051 20024 39978 40038 51010 69942 333 10083 20049 3/002 55000 55300 20000 30000 70037
AAXX 14061 10427 11/02 91810 10003 20003 38999 48314 58029 69912 74142 333 10013 21001 3/101 44012 55000 55300 20000 30000 70165 91118 91213
AAXX 14061 10430 11984 81703 10049 20015 39804 49995 58022 60012 70262 8807/ 333 10065 20032 31002 55000 55300 20000 30000 70089 85360 87466
AAXX 14061 10439 12675 71703 10045 20020 39798 40018 57026 60002 82536 333 10068 20041 31001 70018 82635 83366 87270
AAXX 14061 10453 11/90 92121 11017 21017 38672 48312 58004 60062 74943 333 11004 21019 3/102 49062 55000 55300 70217 91132 91225 96038 96449 96438
AAXX 14061 10496 12984 61903 10059 20022 39974 40059 53006 69902 80008 333 10095 20059 31003 55001 55300 20000 30000 70011 86271 91114
AAXX 14061 10499 12981 82010 10071 20030 39785 40073 53001 69902 84077 333 10077 20046 31003 55011 55300 20000 30000 70003 84465 88273 91114
AAXX 14061 10505 03/77 /1810 10063 20037 39662 49939 58064 60022 8//// 333 10064 20043 3/004 55000 55300 20000 30000 69957 70061 91117 91212
AAXX 14061 10513 12582 71305 10070 20028 39858 49978 58051 69902 8257/ 333 10071 20034 31001 55000 55300 20000 30000 70015 82630 87462
AAXX 14061 10532 15582 81404 10058 20032 39766 40012 58035 69902 333 10067 20046 3/002 55000 55300 20000 30000 70056 86/21 86/47 88/64
AAXX 14061 10544 11/03 91814 10010 20010 38962 48349 58018 60022 74142 333 10029 20008 3/000 41998 55000 55300 70064 91120 91214
AAXX 14061 10554 12984 52105 10050 20015 39651 40038 58011 69902 81036 333 10080 20040 31000 55004 55300 20000 30000 79999 81360 85280 91115 91211
AAXX 14061 10567 12986 12108 10048 20019 39683 40059 58002 69942 80001 333 10073 20041 31003 55003 55300 20000 30000 70004 81071
AAXX 14061 10578 11/01 92214 11001 21001 38674 48377 58001 60032 74974 333 10001 21005 3/101 44031 55000 55300 20000 30000 70043
AAXX 14061 11816 11035 80803 10022 20012 39997 40164 53002 60002 71022 886// 333 20022 31002 70000 81701 86703 87704
AAXX 14061 11826 11457 71803 10043 20022 39956 40158 58001 60002 71022 84548 333 20038 31101 70000 84615 86358
AAXX 14061 11903 11450 89901 10016 20013 39796 40185 53005 60002 71042 886// 333 20003 31101 70000 88712
AAXX 14061 11934 12782 79901 10004 21014 39331 42766 53003 60002 81542 333 20004 31101 70003 81650 85363
AAXX 14061 11968 11109 72402 10035 20028 39896 40181 51005 60002 74222 87600 333 20033 31003 70002 87702
AAXX 14061 02741 17470 32108 10049 20033 39892 49907 52016 60052 70065 83/// 90539 333 10059 20041 3/003
AAXX 14061 02755 17228 81407 10006 20003 39812 49906 57017 60012 77176 88/// 90539 333 10018 20006 3//// 4/008
AAXX 14061 02805 17599 81704 11011 21022 39787 49918 54001 69922 72187 88/// 90539 333 11011 21047 3/106
AAXX 14061 02807 47599 81604 10004 21015 39748 49929 700// 88/// 90600 333 10006 21028 3////
AAXX 14061 02836 17361 81404 10001 21004 39707 49927 57013 69952 72187 88/// 90539 333 10002 21017 3/102 4/025
AAXX 14061 02845 47256 81406 10000 20000 39671 49917 57021 77187 88/// 90539 333 10000 21007 3/101 4/026
AAXX 14061 02849 47474 81404 11001 21012 39682 49955 57015 74187 88/// 90539 333 10001 21018 3////
AAXX 14061 02866 37499 81505 10014 20003 39792 49939 57020 70082 88/// 90539 333 10015 20004 3/001 4/023
AAXX 14061 02897 47457 71506 10008 21005 39775 49956 761// 87/// 90600 333 10013 20003 3////
AAXX 14061 02913 47382 71607 10016 20006 39831 49882 761// 87/// 333 10030 20014 3////
AAXX 14061 02924 47221 81503 10004 20004 39717 49913 57008 77187 88/// 90539 333 10017 20003 3/000
AAXX 14061 02926 17376 71703 10039 20037 39894 49906 53016 60022 700// 87/// 90600 333 10039 20020 3//// 4/005
AAXX 14061 02935 17116 81604 10004 20002 39768 49941 57013 60022 77176 88/// 90539 333 10019 20003 3/100 4/018
AAXX 14061 02939 17381 71707 10006 21005 39833 40027 57010 69922 70086 87/// 90539 333 10009 20002 3/100 4/018
AAXX 14061 02944 47299 81704 10014 20011 39781 49927 700// 88/// 90600 333 10026 20006 3////
AAXX 14061 02947 47245 71404 10008 20005 49981 57014 77107 87/// 90551 333 10023 20007
AAXX 14061 02963 11280 81805 10016 20014 49933 53001 60054 75076 886// 333 1//// 2//// 3/000 43004
AAXX 14061 02974 11258 81908 10031 20022 39899 49965 57004 60092 76176 886// 333 10044 20009 3/000 41///
AAXX 14061 02976 46/// /1911 10031 20028 39973 49990 57012 90539 333 10046 20026 3////
AAXX 14061 02981 47564 12113 10060 20039 39925 49934 52024 700// 81/// 90539 333 10065 20041 3////
AAXX 14061 02982 46/// /2314 10065 20042 39937 49944 52012 90539 333 10066 20029 3////
AAXX 14061 02917 NIL
AAXX 14061 02741 17470 32108 10049 20033 39892 49907 52016 60052 70065 83/// 90539 333 10059 20041 3/003
AAXX 14061 02755 17228 81407 10006 20003 39812 49906 57017 60012 77176 88/// 90539 333 10018 20006 3//// 4/008
AAXX 14061 02805 17599 81704 11011 21022 39787 49918 54001 69922 72187 88/// 90539 333 11011 21047 3/106
AAXX 14061 02807 47599 81604 10004 21015 39748 49929 700// 88/// 90600 333 10006 21028 3////
AAXX 14061 02836 17361 81404 10001 21004 39707 49927 57013 69952 72187 88/// 90539 333 10002 21017 3/102 4/025
AAXX 14061 02845 47256 81406 10000 20000 39671 49917 57021 77187 88/// 90539 333 10000 21007 3/101 4/026
AAXX 14061 02849 47474 81404 11001 21012 39682 49955 57015 74187 88/// 90539 333 10001 21018 3////
AAXX 14061 02866 37499 81505 10014 20003 39792 49939 57020 70082 88/// 90539 333 10015 20004 3/001 4/023
AAXX 14061 02897 47457 71506 10008 21005 39775 49956 761// 87/// 90600 333 10013 20003 3////
AAXX 14061 02913 47382 71607 10016 20006 39831 49882 761// 87/// 333 10030 20014 3////
AAXX 14061 02924 47221 81503 10004 20004 39717 49913 57008 77187 88/// 90539 333 10017 20003 3/000
AAXX 14061 02926 17376 71703 10039 20037 39894 49906 53016 60022 700// 87/// 90600 333 10039 20020 3//// 4/005
AAXX 14061 02935 17116 81604 10004 20002 39768 49941 57013 60022 77176 88/// 90539 333 10019 20003 3/100 4/018
AAXX 14061 02939 17381 71707 10006 21005 39833 40027 57010 69922 70086 87/// 90539 333 10009 20002 3/100 4/018
AAXX 14061 02944 47299 81704 10014 20011 39781 49927 700// 88/// 90600 333 10026 20006 3////
AAXX 14061 02947 47245 71404 10008 20005 49981 57014 77107 87/// 90551 333 10023 20007
AAXX 14061 02963 11280 81805 10016 20014 49933 53001 60054 75076 886// 333 1//// 2//// 3/000 43004
AAXX 14061 02974 11258 81908 10031 20022 39899 49965 57004 60092 76176 886// 333 10044 20009 3/000 41///
AAXX 14061 02976 46/// /1911 10031 20028 39973 49990 57012 90539 333 10046 20026 3////
AAXX 14061 02981 47564 12113 10060 20039 39925 49934 52024 700// 81/// 90539 333 10065 20041 3////
AAXX 14061 02982 46/// /2314 10065 20042 39937 49944 52012 90539 333 10066 20029 3////
AAXX 14061 02917 NIL
AAXX 14064 68906 11498 73018 10163 20136 39966 40029 57016 60174 75066 85672 222// 00123 20501 333 20133 91034 555 10167 20178 69925 91003
AAXX 14064 78958 11570 11003 10254 20242 30091 40101 60001 70600 81200 333 10312 20237 59006 81822
BBXX CGDS 14064 99447 70755 46/// /3002 10038 20028 4//// 5//// 7//// 8//// 22200 0//// 2////
BBXX VOXS 14064 99467 70480 41498 81105 10022 2001/ 40225 56019 70222 88/// 22200 04024 20301 336// 40906 80018
AAXX 14061 01015 NIL
AAXX 14061 01023 NIL
AAXX 14061 01033 NIL
AAXX 14061 01059 11589 71507 10004 21035 39881 49890 55000 60002 70220 875// 333 21023 70006 91120
AAXX 14061 01089 16/// /1605 11006 21015 39834 49940 51006 6//// 333 21036 91111
AAXX 14061 01167 41787 81206 10051 21055 39750 49753 57027 70222 8555/ 333 21010 91113
AAXX 14061 01180 NIL
AAXX 14061 01210 11587 81309 10077 21040 39591 49616 56026 60004 70222 8287/ 333 20053 41998 91113
AAXX 14061 01228 NIL
AAXX 14061 01240 16/// /1416 10054 21011 39650 49669 58005 6//// 333 20046 91118
AAXX 14061 01304 46/// /1416 10046 20030 39566 49596 56015 333 20036 91124
AAXX 14061 01311 NIL
AAXX 14061 01340 NIL
AAXX 14061 01355 16/// ///// 10071 21024 60002 333 20018 70155
AAXX 14061 01360 NIL
AAXX 14061 01392 16/// /1705 10019 20001 39577 49798 52002 69932 333 20015 70046 91110
AAXX 14061 01406 NIL
AAXX 14061 01411 16/// /2017 10071 20044 39655 49680 53006 6//// 333 20041 91128
AAXX 14061 01425 NIL
AAXX 14061 01433 46/// /1809 11013 21028 38491 49705 53004 333 21037 91118
AAXX 14061 01442 NIL
AAXX 14061 01450 NIL
AAXX 14061 01452 NIL
AAXX 14061 01473 11561 61804 10031 20005 39563 49765 55002 60002 70122 86600 333 21010 43013 70125 91111
AAXX 14061 01494 16/// /1808 10043 20025 39732 49795 53003 60042 333 20018 70253 91120
AAXX 14064 85201 11160 89902 10049 20035 36290 57011 60081 76066 8472/ 333 56200 58000 81703 83612 87457
AAXX 14064 85223 11570 70000 10138 20117 37513 47135 58008 69921 70461 82571 333 56000 58010 82620 87357
AAXX 14064 85244 32570 81815 10240 20181 39683 40112 56006 84530 333 56440 58020 84625 88357 91025
AAXX 14064 03005 17671 /2910 10043 20025 39452 49548 53026 60022 781// 90550 333 20020 3/100 55022 55300 20000 70060 81/35 86/56
AAXX 14064 03017 15985 /2715 10054 20033 39572 49603 53051 60062 90550 333 20037 3/003 55000 55300 20000 70066 87/65 90710 91126
AAXX 14064 03023 17661 /2826 10064 20026 39702 49706 53025 60012 723// 90550 333 20051 3/003 70062 81/32 90710 91143
AAXX 14064 03026 15968 /2622 10062 20027 39644 49662 51030 69962 90550 333 20050 3/003 55000 55300 20000 70094 81/60 90710 91134 91034
AAXX 14064 03063 15980 /2210 10032 20000 39424 49694 53022 60132 90550 333 20014 3/100 4/003 55016 55300 20000 70272 87/68
AAXX 14064 03066 15980 /2419 10056 21001 39662 49668 52029 60022 90550 333 20039 3/003 55025 55300 20000 70030 8//99 90710 91132
AAXX 14064 03075 17563 /2417 10048 20033 39584 49626 53039 60012 781// 90550 333 20021 3/001 70040 81/20 86/30 90710 91131
AAXX 14064 03091 15681 /2311 10054 21002 39607 49683 53028 69942 90550 333 20026 3/002 55003 55300 20000 70022 81/45 83/66 86/72
AAXX 14064 03100 17766 /3019 10071 20017 39717 49732 53025 60052 723// 90550 333 20052 3/003 55000 55300 20000 70154 83/50 90710 91132
AAXX 14064 03111 16450 /2422 10038 20027 39761 49773 53029 60052 90550 333 20036 3/003 70058 87/10 90710 91139
AAXX 14064 03134 17559 /2417 10034 20017 39681 49752 51031 60212 761// 90550 333 20030 3/003 55000 55300 20000 70244 81/20 86/50 90710 91129 91029
AAXX 14064 03136 17460 /2425 10051 20032 39733 49766 53025 60032 761// 90550 333 20043 3/003 55000 55300 20000 70036 84/16 87/20 90710 91142 91035
AAXX 14064 03162 17456 /2216 10020 20007 39501 49784 53010 60032 751// 90550 333 20018 3/000 55000 55300 20000 70034 87/11 90710 91130 91026
AAXX 14064 03166 17457 /2317 10029 20019 39676 49744 53031 60122 762// 90550 333 20022 3/001 55006 55300 20000 70140 87/17 84/25 90710 91132
AAXX 14064 03171 11686 72422 10030 20008 39700 49712 53025 60072 70162 82531 90550 333 20027 31001 55012 55300 20000 70078 82630 84359 87072 90710 91140
AAXX 14064 03204 12582 62524 10053 21009 39802 49822 52004 60002 8183/ 90550 333 20052 31004 55017 55300 20000 70000 81825 86363 90710 91135 91034
AAXX 14064 03240 17583 /2225 10040 20014 39737 49764 53018 69902 723// 90550 333 20033 3/002 55028 55300 20000 70006 85/21 90710 91141 91035
AAXX 14064 03257 17669 /2416 10048 21014 39778 49817 53004 69902 781// 90550 333 20042 3/003 55024 55300 20000 70026 84/45 86/68 90710 91134
AAXX 14064 03292 169// /2212 10032 21003 39814 49832 53004 60002 90550 333 20032 3/002 70000 8//99 90710 91126
AAXX 14064 03302 12580 22424 10051 21006 39840 49852 55000 60002 82800 90550 333 20050 30004 55023 55300 20000 70000 82825 90710 91133
AAXX 14064 03354 15975 /2210 10023 20003 39726 49868 55001 60002 90550 333 20021 3/001 55047 55300 20000 70002 8//99
AAXX 14064 03377 12983 12215 10029 20001 39784 49867 55004 60002 80002 90550 333 20025 31001 55048 55300 20000 79999 81075
AAXX 14064 03414 17782 /2317 10043 21014 39778 49865 56010 69902 723// 90550 333 20028 3/101 55018 55300 20000 70010 81/50 90710 91131
AAXX 14064 03462 15984 /2117 10034 20007 39788 49876 57011 60002 90550 333 20025 3/001 55043 55300 20000 70004 81/69 90710 91126
AAXX 14064 03482 13980 61706 10025 20005 39863 49889 56010 60002 82032 90550 333 20017 31102 70010 82363 85072
AAXX 14064 03502 15771 /2421 10031 21011 39725 49886 52005 69962 90550 333 20028 3/001 55021 55300 20000 70010 81/50 90710 91135
AAXX 14064 03535 15982 /1912 10023 20012 39764 49881 55008 69902 90550 333 20021 3/000 55035 55300 20000 70002 87/66
AAXX 14064 03590 12983 82109 10040 20023 39790 49899 56013 69902 80007 90550 333 20031 31001 55053 55300 20000 70004 88269
AAXX 14064 03649 12580 62506 10030 20007 39805 49905 55007 60012 83554 90550 333 20026 31101 55016 55300 2//// 70090 82620 84360 86075
AAXX 14064 03716 17680 /2417 10059 20028 39841 49900 55006 60032 723// 90550 333 20037 3/002 55008 55300 20000 70122 81/42 86/50 90710 91134
AAXX 14064 03740 16680 /2006 10025 20010 39732 49908 55007 69982 90550 333 20018 3/100 55020 55300 2//// 70056 82/40 83/50
AAXX 14064 03746 15983 /1908 10022 20010 39764 49918 55007 69922 90550 333 20016 3/101 70012 86/62
AAXX 14064 03772 15984 /2207 10040 20012 39881 49911 55007 69902 90550 333 20039 3/100 55047 55300 20000 70002 85/70
AAXX 14064 03796 46/// /2306 10038 20030 39782 49924 55015 90550 333 20035
AAXX 14064 03803 17584 /2623 10058 20021 39908 49946 51011 60032 723// 90550 333 20042 3/002 70060 81/26 83/63 90710 91132
AAXX 14064 03808 11980 62410 10045 21006 39824 49930 58003 60042 72582 84032 90550 333 20034 31002 55015 55300 20000 70058 84358 84070 90710 91129
AAXX 14064 03809 11465 72614 10061 20012 39842 49934 52003 69902 70582 85910 90550 333 20044 31002 70002 81710 81912 83818 90710 91144 91029
AAXX 14064 03827 15970 /2618 10064 20025 39874 49935 53007 60032 90550 333 20037 3/001 70048 86/68 90710 91133
AAXX 14064 03840 15481 /2108 10024 20011 39620 49925 53002 69962 90550 333 20008 3/101 70062 83/18
AAXX 14064 03853 NIL
AAXX 14064 03874 46/// /2513 10068 20042 39909 49920 55008 90550 333 20041
AAXX 14064 03882 17984 /1904 10027 20021 39862 49925 58008 60062 723// 90550 333 20025 3/001 55014 55300 20000 70062 86/61 83/68
AAXX 14064 03894 41480 52522 10071 20011 49952 53002 60122 72786 84902 333 20044 32004 81915 83632 90710 91132
AAXX 14064 03917 17369 /2219 10023 20005 39724 49801 52006 60012 761// 90550 333 20023 3/002 55019 55300 20000 70012 85/09 87/16 90710 91133 91029
AAXX 14061 01037 NIL
AAXX 14061 01046 NIL
AAXX 14061 01058 16/// /1404 11030 21042 39425 49887 57013 69922 333 21057 4/020 70014 91114
AAXX 14061 01065 NIL
AAXX 14061 01092 NIL
AAXX 14061 01107 16/// /1306 10059 20059 39700 49704 56019 60002 333 20043 70023 91116
AAXX 14061 01114 NIL
AAXX 14061 01144 46/// /1212 10060 21018 333 20023 91122
AAXX 14061 01199 NIL
AAXX 14061 01245 NIL
AAXX 14061 01259 16/// /1513 10046 21016 39658 49680 56004 60002 333 20037 70000 91118
AAXX 14061 01262 NIL
AAXX 14061 01278 11985 11507 10034 21040 39611 49709 54001 69902 70281 81042 333 20028 42006 79999
AAXX 14061 01293 11865 71607 10029 21038 39516 49717 58008 60002 70222 87031 333 20024 70000 91113
AAXX 14061 01329 NIL
AAXX 14061 01337 NIL
AAXX 14061 01344 NIL
AAXX 14061 01364 NIL
AAXX 14061 01373 16/// /0702 10015 21003 39539 49737 56007 60002 333 21032 70067 91107
AAXX 14061 01374 11462 80903 11004 21005 69992 78587 887// 333 21025 43040 70117
AAXX 14061 01380 16/// /1507 11033 21042 6//// 333 21039 4/032 91115
AAXX 14061 01389 NIL
AAXX 14061 01393 NIL
AAXX 14061 01424 11350 8//// 10055 20027 39699 49702 53005 60212 76362 887// 333 20009 70332
AAXX 14061 01431 16/// /1906 10009 21002 39089 49734 53003 60142 333 21007 70263 91116
AAXX 14061 01436 NIL
AAXX 14061 01465 11470 72121 10071 20034 39763 49780 58001 60012 72582 873// 333 20038 70138 91130
AAXX 14061 01471 11586 40000 10000 21007 60002 70222 84700 333 21016 70092 91100
AAXX 14061 01483 NIL
AAXX 14064 07335 01480 72214 10080 20069 39908 40053 53004 60112 72162 8557/ 333 10100 20061 32005 55004 60037 70263 84713 83636 87360 90710 91124 93100 555 69945
AAXX 14064 07005 01457 82414 10065 20051 39856 49945 55004 60042 78086 888// 333 10071 20055 32004 55019 60027 70130 86813 88633 90710 91127 555 69945
AAXX 14064 07015 01482 82512 10062 20050 39879 49936 55025 60092 721// 875// 333 10067 20046 32004 55019 60087 70216 83713 87630 90710 91117 93100 555 60015
AAXX 14064 07020 06/// ///// 1//// 2//// 39923 4//// 6///2 333 1//// 2//// 55/// 6///7 7//// 555 6///5
AAXX 14064 07027 01460 72314 10068 20051 39889 49970 53014 60052 78086 878// 333 10074 20056 32004 55032 69987 70139 83816 86826 87643 90710 91122 93100 555 69905
AAXX 14064 07037 02470 62312 10066 20048 39784 49966 52014 60012 85830 333 10071 20053 30003 55022 69907 70060 84819 83650 85362 90710 91127 93100 555 60005
AAXX 14064 07070 04570 72419 10092 20059 39870 49979 55021 69922 700// 333 10093 20057 31003 55004 69927 70107 90710 91134 555 69905
AAXX 14064 07110 01575 62611 10055 20033 39875 49990 53011 60102 72586 85902 333 10096 20049 32004 55032 60027 70131 81920 84826 90710 91144 93100 555 69965
AAXX 14064 07117 01550 82414 10050 20043 39910 49981 53019 60122 71662 885// 333 10079 20043 60047 90710 91140 92446 555 60025
AAXX 14064 07130 04586 /2311 10061 20039 39947 49999 53012 60092 700// 333 10085 20057 3/005 55054 60027 70124 90710 91128 555 69985
AAXX 14064 07139 02570 72513 10071 20041 39818 49991 53009 60032 8583/ 333 10084 20065 31005 55043 60007 70086 81830 85650 85360 90710 91124 93100 555 60005
AAXX 14064 07149 01470 72211 10083 20058 39876 49984 56002 60032 72161 878// 333 10091 20068 3/005 55023 69927 70088 84716 85640 90710 91128 555 69925
AAXX 14064 07168 02575 72121 10092 20061 39876 40017 55010 60012 875// 333 10092 20043 32003 55010 60017 70032 87630 91031 90710 91131 93100 555 60005
AAXX 14064 07181 04558 82219 10070 20056 39623 40031 56021 60022 761// 333 10075 20055 3/005 55/// 60027 70042 90710 91134 555 60015
AAXX 14064 07190 04781 71906 10060 20046 39860 40043 56034 69922 700// 333 10107 20050 31002 55001 60007 7//// 90710 91113 555 60005
AAXX 14064 07207 01860 62835 10099 20034 60082 70282 86060 222// 327// 333 10123 20086 69987 91052 90710 91153 92467 555 60005
AAXX 14064 07222 01670 52613 10084 20059 39996 40027 51015 60092 727// 83232 333 10113 20074 32006 55037 69967 70114 83840 83363 90710 91133 555 69925
AAXX 14064 07240 01670 72210 10085 20059 39885 40019 51004 60062 701// 8257/ 333 10095 20075 32006 55017 60027 70131 82643 87359 90710 91124 93100 555 60005
AAXX 14064 07255 01668 72314 10097 20060 39845 40043 56006 69902 76062 875// 333 10101 20062 32005 55000 69907 70018 87643 90710 91126 93100 555 69905
AAXX 14064 07280 04482 /1915 10076 20061 39791 40063 57009 69982 700// 333 10094 20053 32001 55000 69907 70016 90710 91126 555 60005
AAXX 14064 07299 02770 71906 10099 20034 39738 40062 56027 60022 8157/ 333 10109 20057 32003 55000 60007 70028 81650 87358 90710 91117 93100 555 60005
AAXX 14064 07314 06/// /2929 10125 20072 30033 40061 53013 60072 333 10142 20104 55/// 60037 70110 91039 90710 91144 555 60005
AAXX 14064 07434 01465 72215 10084 20072 39605 40082 50002 60022 72586 878// 333 10093 20078 32007 55000 60017 70038 85810 85633 90710 91126 93100 555 69905
AAXX 14064 07460 01670 42419 10114 20053 39692 40076 56010 69982 701// 84400 333 10119 20073 31006 55016 69947 70008 84640 91032 90710 91136 93100 555 60005
AAXX 14064 07471 01558 81903 10059 20044 39152 48746 53007 6///2 72162 878// 333 10089 20036 32002 55033 6///7 7//// 85823 87640 90710 91113 93100 555 6///5
AAXX 14064 07481 01769 71916 10107 20063 39820 40106 55006 69922 72162 8554/ 333 10107 20090 30008 55/// 69907 70002 85650 87357 90710 91126 93100 555 69905
AAXX 14064 07510 01570 82518 10122 20075 30045 40110 53014 60112 78086 873// 333 10126 20104 32010 55000 69967 70133 81930 83831 87656 91029 90710 91137 93100 555 69905
AAXX 14064 07535 01557 41910 10084 20076 39812 40125 51012 60072 72161 84100 333 10099 20084 3/007 55002 60037 70074 84823 90710 91117 93100 555 69905
AAXX 14064 07577 02665 32302 10048 20027 30052 40143 55003 60002 82570 333 10078 20048 30002 55012 60007 70000 82633 90710 91104 93100 555 60005
AAXX 14064 07591 04/// /0000 10027 20004 39140 4//// 55002 69902 700// 333 10053 20023 3/001 55006 69907 79999 90710 91107 555 60005
AAXX 14064 07607 04456 82706 10115 20101 30064 40135 53018 60022 760// 333 10126 20105 3/008 55000 60027 70020 90710 91113 555 69985
AAXX 14064 07621 01980 22911 10122 20032 39701 40130 53013 60002 702// 80001 333 10126 20033 30002 55014 60007 70000 82075 90710 91118 93100 555 60005
AAXX 14064 07627 02/65 61603 10028 20002 39651 40151 53011 60002 80002 333 10098 20024 31102 55037 60007 70000 86070 90710 91105 555 60005
AAXX 14064 07630 02870 32504 10065 20051 39962 40145 53017 60002 81502 333 10107 20059 30004 55032 60007 79999 81657 83076 90710 91113 93100 555 60005
AAXX 14064 07643 01970 73404 10060 20045 30133 40143 55000 60002 703// 83031 333 10092 20044 30003 55014 60007 70000 83359 87073 90710 91108 555 60005
AAXX 14064 07650 02981 60805 10090 20063 30104 40143 55002 60002 80009 333 10125 20070 30004 55009 60007 70000 86175 90710 91107 93100 555 60005
AAXX 14064 07661 02568 50407 10113 20092 39986 40147 53003 60002 82220 333 10130 20105 55/// 60007 70000 82826 83358 90710 91109 555 60005
AAXX 14064 07690 02780 73309 10109 21006 30116 40150 55002 69902 82502 333 10115 20101 30009 55020 60007 79999 82650 87075 90710 91111 93100 555 60005
AAXX 14064 07747 02565 72602 10089 20078 30091 40145 53001 60002 875// 333 10089 20049 30003 55009 60007 70000 87620 90710 91104 555 60005
AAXX 14064 07761 02570 71103 10143 20109 30166 40177 51002 69902 875// 333 10163 20113 31011 55034 69907 79999 85626 85650 90710 91116 93100 555 60005
AAXX 14064 07790 02680 52004 10076 20038 30144 40159 56005 60002 82502 333 10088 20061 30002 55/// 60007 70000 82633 85073 90710 91107 93100 555 60005
BBXX 42039 14061 99288 70860 46/// /0809 10211 40254 50000 90550 22200 00231 10603 20603 70016 333 91210 555 11097 22102 30451 40711 60549 075090 078091 075090 072090 073092 073090 80710 90519
BBXX 41040 14061 99145 70530 46/// /1008 10262 20238 40107 58019 90550 22200 00278 11005 20603 3//// 41004 70025 333 91209 555 11084 22088 30451 41210 60549 099080 101081 103083 104077 108075 109077 81209 90451
AAXX 14064 61901 169// /1409 10150 20134 39660 40171 55001 69942 90550 333 20148 3/013 70012 8//99 555 7/090
AAXX 14064 61902 32484 21312 10226 20185 40126 81801 333 20225 58000 81818
AAXX 14064 88889 12582 32303 10124 20082 30056 40140 53005 60001 81532 90550 333 81620 83075
AAXX 1406/ 89866 46/// ///// 10005 39719 4//// 5////
AAXX 1406/ 89769 46/// ///// 11029 39780 4//// 5////
AAXX 1406/ 89828 46/// ///// 11223 36432 4//// 5////
AAXX 1406/ 89314 46/// ///// 11168 38124 4//// 5////
AAXX 14064 89667 46/// /0305 11025 29064 39808 4//// 5////
BBXX 46026 14061 99378 71228 46/// /3104 10103 40201 51014 90550 22200 00111 10802 20401 330// 40802 70012 333 91205 555 11039 22040 30451 42705 60549 304037 290033 294033 287033 286030 290036
BBXX 46041 14061 99474 71247 46/// /0802 10064 40192 50008 90550 22200 00079 11305 3//// 41305 70024 333 91203 555 11016 22017 30522 40904 60549 081016 079020 087019 068018 046018 032024
BBXX 46072 14061 99517 71722 46/// /2212 10032 21043 49844 52024 90550 22200 00052 11317 20807 3//// 41316 70085 333 91214 555 11126 22133 30507 42217 60549 217119 222115 222123 220125 217132 215138 82114 90457
BBXX 44060 14061 99413 70721 46/// ///03 10041 40273 90545 22200 00109 333 91204 555 11031 22036
BBXX VOXS 14064 99467 70480 41498 81105 10022 2001/ 40225 56019 70222 88/// 22200 04024 20301 336// 40906 80018
BBXX 46082 14061 99597 71434 46/// ///// 10017 20017 40090 54000 90550 22200 00060 11204 70022
BBXX 46072 14061 99517 71722 46/// /2212 10032 21043 49844 52024 90550 22200 00052 11317 20807 3//// 41316 70085 333 91214 555 11126 22133 30507 42217 60549 217119 222115 222123 220125 217132 215138 82114 90457
BBXX 46035 14061 99571 71778 46/// /0921 1//// 49623 55004 90550 22200 11317 20709 300// 41314 70084 333 91226 555 11211 22226 30533 41127 60549 092211 097217 081213 083200 091197 083205 81023 90533
BBXX 46077 14061 99579 71543 46/// /0415 10029 21005 49969 58026 90550 22200 00053 10504 20504 70019 333 91218 555 11158 22168 30451 40321 60549 042148 042152 045152 044155 044153 046147 80417 90451
AAXX 14064 78958 11570 11003 10254 20242 30091 40101 60001 70600 81200 333 10312 20237 59006 81822
BBXX 45008 14061 99443 70824 46/// /2204 10056 30048 40266 56013 90550 22200 00062 10301 20301 70003 333 91205 555 11042 22044 60549 222040 225038 225038 222035 222036 224037
BBXX 51004 14061 99175 71524 46/// /0608 10238 20202 90550 555 11089 22095
BBXX 51002 14061 99171 71578 46/// /0807 10250 40158 51019 90550 22200 00252 333 91208 555 11075 22079 30513 40710 60549 077070 080073 076075 071078 074075 080078
BBXX 51100 14061 99236 71539 46/// /1009 10229 40196 52015 90550 22200 00235 11005 20704 311// 41003 70026 333 91211 555 11097 22103 30533 41012 60549 101091 102101 097096 098098 095094 099091
AAXX 14061 01025 16/// /2207 10026 21027 39803 49814 57013 60002 333 21069 43025 91111
AAXX 14061 01052 16/// /1909 11006 21040 39757 49854 55001 60002 333 21015 91117
AAXX 14061 01122 NIL
AAXX 14061 01132 NIL
AAXX 14061 01156 NIL
AAXX 14061 01203 NIL
AAXX 14061 01233 16/// /1406 11012 21027 69982 333 21019 70019 91116
AAXX 14061 01265 NIL
AAXX 14061 01273 NIL
AAXX 14061 01307 46/// /1918 10081 20043 39592 49618 53007 333 20040 91128
AAXX 14061 01321 NIL
AAXX 14061 01327 16/// /1305 10009 21002 60142 333 21009 70347 91115
AAXX 14061 01350 16/// /1512 11029 21035 38346 49684 53000 69982 333 21055 70067 91119
AAXX 14061 01361 NIL
AAXX 14061 01375 NIL
AAXX 14061 01378 NIL
AAXX 14061 01385 16/// /1403 10016 20000 39514 49779 53002 60002 333 20012 70022 91110
AAXX 14061 01412 16/// /2117 10070 20045 39677 49706 53004 60062 333 20034 70245 91127
AAXX 14061 01422 NIL
AAXX 14061 01440 NIL
AAXX 14061 01441 NIL
AAXX 14061 01467 NIL
AAXX 14061 01469 NIL
AAXX 14061 01477 NIL
AAXX 14061 01480 16/// /0104 10036 20005 69942 333 20006 70299 91108
AAXX 14061 01484 16/// /1507 10013 21005 39650 49803 53004 60042 333 20005 70113 91110
AAXX 14061 01490 16/// /1805 11001 21001 60032 333 21008 70147 91113
AAXX 14061 01495 NIL
AAXX 14064 78792 32460 70000 10241 20224 30092 40105 57009 83130 333 010// 10307 20229 31/// 59007 83818 84359
AAXX 14064 78016 11564 43412 10199 20156 30126 40130 50001 69901 72581 84500 333 10234 20192 70003 90916
AAXX 14061 13579 32460 82801 10043 20034 39399 40248 52006 886// 333 20018 31/// 88716
AAXX 14061 14648 12770 20000 10082 20068 30097 40219 53007 60002 82500 333 20080 32005 55026 70019 82650
AAXX 14061 14652 11/02 92023 11028 21030 37909 48476 57003 60002 74544 333 21028 3//// 44012 55000 70000 89///
AAXX 14061 14542 11/02 92001 10006 20004 30003 40199 52006 60002 74544 333 20006 31101 55000 70002 89/01 95990
AAXX 14061 76122 32535 42002 10102 20048 38504 40097 5//// 83520 90550 333 10180 20090 31/// 55039 56590 58002 83635
AAXX 14061 76225 32920 01802 10154 20029 38602 40058 52006 90535 333 10259 20148 30/// 55072 59008
AAXX 14061 76323 32950 61604 10162 21012 38291 40151 52020 80002 90540 333 10273 20120 30/// 55042 56005 58012 86268
AAXX 14061 76342 31430 82701 10142 20123 39490 40200 54000 70222 887// 90550 333 10180 20096 30/// 55012 20175 561// 59043 88710
AAXX 14061 76373 32910 00000 10095 20038 38227 40178 52018 90550 333 10240 20020 30/// 55068 21458 58027
AAXX 14061 76382 32960 30901 10170 20125 38888 40095 52004 80008 90550 333 10288 20130 30/// 55006 2//// 56008 59012 83270
AAXX 14061 76390 31950 13404 10165 20028 38241 40108 57005 70544 90530 333 10254 20090 30/// 55093 21360 56001 59005 81070
AAXX 14061 76393 31202 52201 10158 20142 39589 40164 57007 70411 85600 90545 333 10196 20110 30/// 55001 56500 59034 85706
AAXX 14061 76402 32550 50000 10156 20133 30135 40192 52012 85500 90545 333 10226 20168 30/// 55000 2//// 56500 58030 85628
AAXX 14061 76423 32960 02402 10142 20082 38168 40104 54000 90555 333 10270 20073 30/// 55069 21111 59010
AAXX 14061 76458 32960 13202 10202 20184 30161 40166 51002 80005 90546 333 10276 20148 30/// 55061 56//9 58004 81071
AAXX 14061 76525 32960 01907 10123 20054 37493 40115 52002 90540 333 10190 20105 30/// 55095 22773 59001
AAXX 14061 76539 32958 00901 10104 20089 38195 40186 52013 90550 333 10250 20050 30/// 55050 59010
AAXX 14061 76556 32960 01001 10163 20143 39133 40136 52005 90534 333 10272 20121 30/// 55094 58000
AAXX 14061 76571 32910 00000 10114 20071 38187 40139 54008 90550 333 10252 20060 30/// 55086 59003
AAXX 14061 76577 32960 00000 10134 20117 38068 40135 52009 90540 333 10256 20083 30/// 55068 58006
AAXX 14061 76581 32960 03001 10160 20129 39093 40184 52001 90550 333 10270 20138 30/// 55073 59022
AAXX 14061 76634 31950 00201 10086 20079 37880 40171 57001 71040 90550 333 10228 20028 30/// 55095 21803 59006
AAXX 14061 76644 32350 10703 10220 20205 30196 40208 52009 81200 90550 333 10322 20210 30/// 55094 20874 561// 58007 81810
AAXX 14061 76654 31956 00301 10232 20156 30146 40150 52002 70544 90550 333 10308 20208 30/// 55093 21248 59018
AAXX 14061 76658 31956 00902 10186 20156 39642 40138 54003 70544 90544 333 10330 20170 30/// 55094 59029
AAXX 14061 76662 32690 00000 10128 20087 38482 40127 52006 90545 333 10285 20064 30/// 55085 21493 59004
AAXX 14061 76680 31960 02002 10134 20014 37780 40131 52001 70500 90550 333 10254 20084 30/// 55091 21442 59000
AAXX 14061 76683 32965 00000 10083 20064 37860 40170 50006 90550 333 10243 20018 30/// 50341 55105 21948 58000
AAXX 14061 76685 32950 03601 10108 20077 37908 40149 52016 90550 333 10242 20052 30/// 55106 58004
AAXX 14061 76695 32456 50302 10220 20208 30182 40188 50004 85500 90545 333 10302 20185 31/// 55078 562// 58001 85614
AAXX 14061 76743 32930 00901 10226 20190 30181 40189 52006 90545 333 10280 20210 30/// 55047 59008
AAXX 14061 76775 31960 00301 10137 20075 38554 40167 52006 70200 90545 333 10275 20080 30/// 55082 58///
AAXX 14061 76843 32965 00201 10209 20176 39512 40149 57003 90530 333 10297 20160 30/// 55100 59032
AAXX 14061 76845 32330 20601 10106 20089 37974 40199 58001 82600 90545 333 10170 20082 30/// 55046 56200 58001 82708
AAXX 14061 76848 32450 43601 10133 20092 38402 40122 57002 84500 90550 333 10204 20120 30/// 55076 56100 59006 84617
AAXX 14061 76243 32365 81102 10162 20156 39878 40172 57021 887// 90530 333 10170 20073 31/// 55000 563// 59044 88709
AAXX 14061 76311 32620 70000 10192 20171 39894 40169 52011 87600 90555 333 10232 20167 30/// 55000 56400 58015 87625
AAXX 14061 76405 32840 51901 10202 20166 30155 40177 50003 85050 90550 333 10252 20199 30/// 55004 2//// 56050 58025 85357
AAXX 14061 76412 32960 02201 10182 20160 30144 40190 52001 90550 333 10290 20160 30/// 55075 58022
AAXX 14061 76647 32965 00202 10210 20205 30179 40210 50000 90550 333 10314 20208 30/// 55084 58///
AAXX 14064 89642 42982 23010 10002 21052 39821 49874 52005 82030 333 55205 23570 82358
BBXX BATFR23 14064 99372 10032 44998 32529 10164 20120 40207 53018 70211 83200 22245 00095 22919 304// 40922 51457 60651 ICE 10899
BBXX BATFR31 14064 99432 10053 46/// /1114 10140 40141 51001 22284 00159
AAXX 14061 02947 47/45 71404 10008 20005 49981 57014 77107 87/// 90551 333 10023 20007 3////
AAXX 14064 78792 32460 70000 10241 20224 30092 40105 57009 83130 333 010// 10307 20229 31/// 59007 83818 84359
AAXX 14064 78016 11564 43412 10199 20156 30126 40130 50001 69901 72581 84500 333 10234 20192 70003 90916
AAXX 14061 76122 32535 42002 10102 20048 38504 40097 5//// 83520 90550 333 10180 20090 31/// 55039 56590 58002 83635
AAXX 14061 76225 32920 01802 10154 20029 38602 40058 52006 90535 333 10259 20148 30/// 55072 59008
AAXX 14061 76323 32950 61604 10162 21012 38291 40151 52020 80002 90540 333 10273 20120 30/// 55042 56005 58012 86268
AAXX 14061 76342 31430 82701 10142 20123 39490 40200 54000 70222 887// 90550 333 10180 20096 30/// 55012 20175 561// 59043 88710
AAXX 14061 76373 32910 00000 10095 20038 38227 40178 52018 90550 333 10240 20020 30/// 55068 21458 58027
AAXX 14061 76382 32960 30901 10170 20125 38888 40095 52004 80008 90550 333 10288 20130 30/// 55006 2//// 56008 59012 83270
AAXX 14061 76390 31950 13404 10165 20028 38241 40108 57005 70544 90530 333 10254 20090 30/// 55093 21360 56001 59005 81070
AAXX 14061 76393 31202 52201 10158 20142 39589 40164 57007 70411 85600 90545 333 10196 20110 30/// 55001 56500 59034 85706
AAXX 14061 76402 32550 50000 10156 20133 30135 40192 52012 85500 90545 333 10226 20168 30/// 55000 2//// 56500 58030 85628
AAXX 14061 76423 32960 02402 10142 20082 38168 40104 54000 90555 333 10270 20073 30/// 55069 21111 59010
AAXX 14061 76458 32960 13202 10202 20184 30161 40166 51002 80005 90546 333 10276 20148 30/// 55061 56//9 58004 81071
AAXX 14061 76525 32960 01907 10123 20054 37493 40115 52002 90540 333 10190 20105 30/// 55095 22773 59001
AAXX 14061 76539 32958 00901 10104 20089 38195 40186 52013 90550 333 10250 20050 30/// 55050 59010
AAXX 14061 76556 32960 01001 10163 20143 39133 40136 52005 90534 333 10272 20121 30/// 55094 58000
AAXX 14061 76571 32910 00000 10114 20071 38187 40139 54008 90550 333 10252 20060 30/// 55086 59003
AAXX 14061 76577 32960 00000 10134 20117 38068 40135 52009 90540 333 10256 20083 30/// 55068 58006
AAXX 14061 76581 32960 03001 10160 20129 39093 40184 52001 90550 333 10270 20138 30/// 55073 59022
AAXX 14061 76634 31950 00201 10086 20079 37880 40171 57001 71040 90550 333 10228 20028 30/// 55095 21803 59006
AAXX 14061 76644 32350 10703 10220 20205 30196 40208 52009 81200 90550 333 10322 20210 30/// 55094 20874 561// 58007 81810
AAXX 14061 76654 31956 00301 10232 20156 30146 40150 52002 70544 90550 333 10308 20208 30/// 55093 21248 59018
AAXX 14061 76658 31956 00902 10186 20156 39642 40138 54003 70544 90544 333 10330 20170 30/// 55094 59029
AAXX 14061 76662 32690 00000 10128 20087 38482 40127 52006 90545 333 10285 20064 30/// 55085 21493 59004
AAXX 14061 76680 31960 02002 10134 20014 37780 40131 52001 70500 90550 333 10254 20084 30/// 55091 21442 59000
AAXX 14061 76683 32965 00000 10083 20064 37860 40170 50006 90550 333 10243 20018 30/// 50341 55105 21948 58000
AAXX 14061 76685 32950 03601 10108 20077 37908 40149 52016 90550 333 10242 20052 30/// 55106 58004
AAXX 14061 76695 32456 50302 10220 20208 30182 40188 50004 85500 90545 333 10302 20185 31/// 55078 562// 58001 85614
AAXX 14061 76743 32930 00901 10226 20190 30181 40189 52006 90545 333 10280 20210 30/// 55047 59008
AAXX 14061 76775 31960 00301 10137 20075 38554 40167 52006 70200 90545 333 10275 20080 30/// 55082 58///
AAXX 14061 76843 32965 00201 10209 20176 39512 40149 57003 90530 333 10297 20160 30/// 55100 59032
AAXX 14061 76845 32330 20601 10106 20089 37974 40199 58001 82600 90545 333 10170 20082 30/// 55046 56200 58001 82708
AAXX 14061 76848 32450 43601 10133 20092 38402 40122 57002 84500 90550 333 10204 20120 30/// 55076 56100 59006 84617
AAXX 14061 76243 32365 81102 10162 20156 39878 40172 57021 887// 90530 333 10170 20073 31/// 55000 563// 59044 88709
AAXX 14061 76311 32620 70000 10192 20171 39894 40169 52011 87600 90555 333 10232 20167 30/// 55000 56400 58015 87625
AAXX 14061 76405 32840 51901 10202 20166 30155 40177 50003 85050 90550 333 10252 20199 30/// 55004 2//// 56050 58025 85357
AAXX 14061 76412 32960 02201 10182 20160 30144 40190 52001 90550 333 10290 20160 30/// 55075 58022
AAXX 14061 76647 32965 00202 10210 20205 30179 40210 50000 90550 333 10314 20208 30/// 55084 58///
BBXX 3FSB4 14064 99407 71731 437// 32544 10130 20090 49850 52010 7//// 83//5 22224 0//// 20808 3//// 40710 5//// 6//// 80110 ICE /////
BBXX A8EH3 14063 99542 71671 41/97 31715 10050 21026 49900 52050 701// 83/// 22225 04050 2//// 80020
BBXX C6FY8 14064 99555 71557 41796 62333 10040 21210 49910 55010 70311 8676/ 22252 00060 20305 32120 40408 50408 6//// 81020 ICE /////
BBXX DQVG 14063 99326 71741 41297 82636 10210 20185 49968 53020 76362 8/7// 22264 20308 3//// 4//// 5//// 80194
BBXX SHIP 14064 99345 71607 41598 31824 10190 20180 40160 56010 70120 839// 22263 00180 20704 328// 41004 5//// 6//// 80180 ICE /////
BBXX WDB3161 14064 99542 71637 41698 12513 10040 21210 49933 52020 70200 81100 22263 00065 20302 314// 40809 5//// 6//// 81020 ICE /////
AAXX 14061 76122 32535 42002 10102 20048 38504 40097 5//// 83520 90550333 10180 20090 31/// 55039 56590 58002 83635
AAXX 14061 76225 32920 01802 10154 20029 38602 40058 52006 90535 33310259 20148 30/// 55072 59008
AAXX 14061 76323 32950 61604 10162 21012 38291 40151 52020 80002 90540333 10273 20120 30/// 55042 56005 58012 86268
AAXX 14061 76342 31430 82701 10142 20123 39490 40200 54000 70222 887//90550 333 10180 20096 30/// 55012 20175 561// 59043 88710
AAXX 14061 76373 32910 00000 10095 20038 38227 40178 52018 90550 33310240 20020 30/// 55068 21458 58027
AAXX 14061 76382 32960 30901 10170 20125 38888 40095 52004 80008 90550333 10288 20130 30/// 55006 2//// 56008 59012 83270
AAXX 14061 76390 31950 13404 10165 20028 38241 40108 57005 70544 90530333 10254 20090 30/// 55093 21360 56001 59005 81070
AAXX 14061 76393 31202 52201 10158 20142 39589 40164 57007 70411 8560090545 333 10196 20110 30/// 55001 56500 59034 85706
AAXX 14061 76402 32550 50000 10156 20133 30135 40192 52012 85500 90545333 10226 20168 30/// 55000 2//// 56500 58030 85628
AAXX 14061 76423 32960 02402 10142 20082 38168 40104 54000 90555 33310270 20073 30/// 55069 21111 59010
AAXX 14061 76458 32960 13202 10202 20184 30161 40166 51002 80005 90546333 10276 20148 30/// 55061 56//9 58004 81071
AAXX 14061 76525 32960 01907 10123 20054 37493 40115 52002 90540 33310190 20105 30/// 55095 22773 59001
AAXX 14061 76539 32958 00901 10104 20089 38195 40186 52013 90550 33310250 20050 30/// 55050 59010
AAXX 14061 76556 32960 01001 10163 20143 39133 40136 52005 90534 33310272 20121 30/// 55094 58000
AAXX 14061 76571 32910 00000 10114 20071 38187 40139 54008 90550 33310252 20060 30/// 55086 59003
AAXX 14061 76577 32960 00000 10134 20117 38068 40135 52009 90540 33310256 20083 30/// 55068 58006
AAXX 14061 76581 32960 03001 10160 20129 39093 40184 52001 90550 33310270 20138 30/// 55073 59022
AAXX 14061 76634 31950 00201 10086 20079 37880 40171 57001 71040 90550333 10228 20028 30/// 55095 21803 59006
AAXX 14061 76644 32350 10703 10220 20205 30196 40208 52009 81200 90550333 10322 20210 30/// 55094 20874 561// 58007 81810
AAXX 14061 76654 31956 00301 10232 20156 30146 40150 52002 70544 90550333 10308 20208 30/// 55093 21248 59018
AAXX 14061 76658 31956 00902 10186 20156 39642 40138 54003 70544 90544333 10330 20170 30/// 55094 59029
AAXX 14061 76662 32690 00000 10128 20087 38482 40127 52006 90545 33310285 20064 30/// 55085 21493 59004
AAXX 14061 76680 31960 02002 10134 20014 37780 40131 52001 70500 90550333 10254 20084 30/// 55091 21442 59000
AAXX 14061 76683 32965 00000 10083 20064 37860 40170 50006 90550 33310243 20018 30/// 50341 55105 21948 58000
AAXX 14061 76685 32950 03601 10108 20077 37908 40149 52016 90550 33310242 20052 30/// 55106 58004
AAXX 14061 76695 32456 50302 10220 20208 30182 40188 50004 85500 90545333 10302 20185 31/// 55078 562// 58001 85614
AAXX 14061 76743 32930 00901 10226 20190 30181 40189 52006 90545 33310280 20210 30/// 55047 59008
AAXX 14061 76775 31960 00301 10137 20075 38554 40167 52006 70200 90545333 10275 20080 30/// 55082 58///
AAXX 14061 76843 32965 00201 10209 20176 39512 40149 57003 90530 33310297 20160 30/// 55100 59032
AAXX 14061 76845 32330 20601 10106 20089 37974 40199 58001 82600 90545333 10170 20082 30/// 55046 56200 58001 82708
AAXX 14061 76848 32450 43601 10133 20092 38402 40122 57002 84500 90550333 10204 20120 30/// 55076 56100 59006 84617
AAXX 14061 76243 32365 81102 10162 20156 39878 40172 57021 887// 90530333 10170 20073 31/// 55000 563// 59044 88709
AAXX 14061 76311 32620 70000 10192 20171 39894 40169 52011 87600 90555333 10232 20167 30/// 55000 56400 58015 87625
AAXX 14061 76405 32840 51901 10202 20166 30155 40177 50003 85050 90550333 10252 20199 30/// 55004 2//// 56050 58025 85357
AAXX 14061 76412 32960 02201 10182 20160 30144 40190 52001 90550 33310290 20160 30/// 55075 58022
AAXX 14061 76647 32965 00202 10210 20205 30179 40210 50000 90550 33310314 20208 30/// 55084 58///
AAXX 14061 14528 12670 71403 10120 20033 39879 40173 54000 60003 87500 333 10132 20037 30003 55001 70000 87640
AAXX 14061 14537 11630 70000 10008 20003 39997 40190 54000 60003 71022 83530 333 10095 21002 32000 55006 70003 83640 86360
AAXX 14061 14544 12670 51802 10074 20049 39530 40198 51002 60003 84530 333 10120 20015 31000 55021 70028 84646
AAXX 14061 14557 11910 80801 10021 20018 39831 40208 54000 60002 710// 8807/ 333 10132 20020 32002 55000 70009 86360 88461
AAXX 14061 14640 12360 70701 10054 20048 39354 48506 54000 69933 87500 333 10100 20024 31103 55030 70065 87606
AAXX 14064 78792 32460 70000 10241 20224 30092 40105 57009 83130 333 010// 10307 20229 31/// 59007 83818 84359
AAXX 14064 78016 11564 43412 10199 20156 30126 40130 50001 69901 72581 84500 333 10234 20192 70003 90916
AAXX 14061 01121 46/// /1411 10060 21023 39684 49696 56014 333 20028 91121
AAXX 14061 01135 NIL
AAXX 14061 01143 16/// /1107 10047 21026 60002 333 21007 70000 91116
AAXX 14061 01150 NIL
AAXX 14061 01192 NIL
AAXX 14061 01225 46/// /1106 10052 21038 39648 49652 57017 333 20050 91110
AAXX 14061 01230 NIL
AAXX 14061 01232 NIL
AAXX 14061 01234 16/// /2501 10019 21044 60002 333 20002 70000 91109
AAXX 14061 01253 NIL
AAXX 14061 01254 NIL
AAXX 14061 01257 NIL
AAXX 14061 01277 NIL
AAXX 14061 01291 NIL
AAXX 14061 01332 16/// /1201 10025 21002 60012 333 20008 70126 91111
AAXX 14061 01366 46/// /1314 11061 21077 38119 49693 56011 333 21070 91120
AAXX 14061 01370 NIL
AAXX 14061 01376 16/// /0704 10018 20004 60052 333 20002 70129 91106
AAXX 14061 01383 46/// /1210 10010 20003 39456 49761 58005 333 21001 91113
AAXX 14061 01386 NIL
AAXX 14061 01416 16/// ///// 10057 20052 60072 333 20018 70180
AAXX 14061 01419 NIL
AAXX 14061 01430 16/// ///// 10062 20034 60052 333 20030 70195
AAXX 14061 01434 16/// /1903 11004 21015 38778 49712 53002 60032 333 21046 70070 91110
AAXX 14061 01455 NIL
AAXX 14061 01468 16/// /1503 10014 20001 60022 333 20008 70099 91108
AAXX 14061 01470 NIL
AAXX 14061 01476 NIL
AAXX 14061 01481 NIL
AAXX 14061 01488 NIL
AAXX 14064 81401 06/// /1601 10231 20224 30079 40085 60001 333 55/// 60007 59002 7//// 555 60005
AAXX 14064 81408 06/// /3402 10235 2//// 30072 40080 60001 333 55/// 60007 59006 7//// 555 60005
BBXX VAAP 14064 99446 70625 46/// /0121 10039 20023 40203 56008 7//// 8//// 22252 0//// 2////
BBXX CGDX 14064 99468 70712 46/// /0412 10006 21012 40297 54000 7//// 8//// 22200 0//// 2////
BBXX CZ9742 14064 99506 70969 46/// /1810 11030 21032 40155 56018 7//// 8//// 22200 0//// 2////
BBXX CGBY 14064 99487 71235 46/// /0000 10029 20010 40197 53012 7//// 8//// 22200 0//// 2////
BBXX VOKF 14064 99455 70735 46/// /0303 10010 20003 4//// 5//// 7//// 8//// 22200 0//// 2////
BBXX CGJV 14064 99446 70627 46/// /0220 10041 20021 40215 56006 7//// 8//// 22252 00072 2////
BBXX CG2958 14064 99488 71230 46/// /1504 10057 21001 40205 53011 7//// 8//// 22241 0//// 2////
BBXX VCLM 14064 99621 70747 46/// /2213 11056 21087 49908 51020 7//// 8//// 22200 0//// 2////
BBXX CGDR 14064 99505 71277 46/// /0705 10049 20048 40172 51006 7//// 8//// 22200 0//// 2////
BBXX VCBW 14064 99502 70607 46/// /3509 11137 21167 40298 55003 7//// 8//// 22200 0//// 2////
BBXX CG2350 14064 99433 70798 46/// /2604 10041 20006 40282 58007 7//// 8//// 22200 0//// 2////
BBXX C6SI6 14064 99347 11385 46/// /2109 10143 20069 40185 56020 7//// 8//// 22242 0//// 2////
BBXX CG2965 14064 99487 71235 46/// /2401 10026 20007 40199 53013 7//// 8//// 22200 0//// 2////
BBXX CGTF 14064 99476 70527 46/// /2902 11026 21064 40258 53004 7//// 8//// 22200 0//// 2////
BBXX 3FZK3 14064 99537 71766 46/// /2321 10021 20004 49684 51061 7//// 8//// 22223 0//// 2////
BBXX VCRG 14064 99474 70619 46/// /0322 10000 21036 40268 51004 7//// 8//// 22200 0//// 2////
BBXX VCSZ 14064 99467 70716 46/// /0807 10006 20006 40287 51004 7//// 8//// 22213 0//// 2////
BBXX VOPP 14064 99456 70735 46/// /0303 10005 20006 4//// 5//// 7//// 8//// 22200 0//// 2////
BBXX CGSB 14064 99468 70712 46/// /0410 10003 21014 40298 54000 7//// 8//// 22200 0//// 2////
BBXX VRYO3 14064 99493 70105 46/// /2620 10060 20069 49970 55006 7//// 8//// 22224 00129 2////
BBXX VCWL 14064 99466 70719 46/// /0706 10005 21007 40298 51001 7//// 8//// 22262 00043 2////
BBXX CG2960 14064 99447 70813 46/// /1508 10038 20012 40274 56008 7//// 8//// 22200 0//// 2////
BBXX CGDG 14064 99447 70636 46/// /3408 10015 20028 40231 58003 7//// 8//// 22200 0//// 2////
BBXX CGBN 14064 99447 70636 46/// /3214 10020 20002 40214 58005 7//// 8//// 22200 0//// 2////
BBXX CGBR 14064 99541 71305 46/// /1006 10010 20009 40178 51006 7//// 8//// 22200 0//// 2////
AAXX 14064 81401 06/// /1601 10231 20224 30079 40085 60001 333 55/// 60007 59002 7//// 555 60005
AAXX 14064 81408 06/// /3402 10235 2//// 30072 40080 60001 333 55/// 60007 59006 7//// 555 60005
AAXX 14061 11423 NIL
AAXX 14061 11487 01986 71702 10044 20021 39483 40107 58003 69902 702// 8707/ 333 20036 31101 60005 70002 82360 87465 91112
AAXX 14061 11518 02981 61603 10045 20015 39657 40098 50001 60002 83046 333 20045 31002 60005 79999 83363 86073
AAXX 14061 11603 01575 71203 10052 20017 39617 40099 53009 60002 701// 85578 333 20031 31002 60005 70007 81620 85626
AAXX 14061 11659 01846 71106 10013 20013 39484 40133 52002 69902 710// 87050 333 20010 31000 60005 79999 87358
AAXX 14061 11723 01356 83301 10024 20011 39847 40150 50007 69902 71022 886// 333 20019 31101 60005 79999 85707 88713
AAXX 14061 11782 02975 59901 10032 20010 39829 40138 53007 69902 83042 333 20016 31103 60005 79999 83364
BBXX VCXF 14064 99464 70484 41598 81207 10031 2001/ 40219 57021 70222 885// 22200 02030 20300 334// 40805 80021
AAXX 14064 91408 11473 80706 10267 20252 30024 40062 57019 60101 78082 8692/ 333 56199 70122 555 91406
AAXX 14064 78583 32470 73604 10225 20215 40179 60001 87800 333 01100 59005 83817
AAXX 14061 01078 16/// ///// 11008 21036 39894 49907 53006 6//// 333 21029 91113
BBXX CGDT 14064 99490 70669 46/// /1003 11041 21053 40309 56001 7//// 8//// 22200 0//// 2////
AAXX 14061 01152 11788 71211 10062 21026 39706 49721 56015 60002 70122 84572 333 20010 79999 91123
BBXX VAAZ 14064 99544 70531 46/// /2922 11053 21093 40190 51007 7//// 8//// 22271 0//// 2////
BBXX 41010 14061 99289 70785 46/// /0510 10217 40248 54000 90550 22200 00240 11106 20804 300// 41103 70028 333 91212 555 11104 22110
BBXX 41009 14061 99285 70802 46/// /0610 10233 20170 40247 58005 90550 22200 00249 10906 20704 300// 40904 70029 333 91212 555 11107 22114
BBXX 42057 14061 99168 70815 46/// /0409 10275 20217 40147 58006 90550 22200 00281 10704 20704 70019 333 91211 555 11093 22098 30458 40413 60549 043094 047101 051102 052104 050103 045105 80612 90511
BBXX VOKJ 14064 99486 70687 46/// /0210 11024 21059 40309 58005 7//// 8//// 22254 0//// 2////
BBXX VEP717 14064 99467 70487 41398 80206 10016 2002/ 40223 57019 70322 886// 22200 06029 334// 40805 80015
BBXX CGJK 14064 99484 71234 46/// /0202 10047 20018 40196 53013 7//// 8//// 22200 0//// 2////
BBXX CGCC 14064 99460 70731 46/// /0102 10002 20001 40290 53003 7//// 8//// 22200 0//// 2////
BBXX VXKF 14064 99467 70598 46/// /0627 10017 20005 40208 56013 7//// 8//// 22212 0//// 2////
AAXX 14064 91408 11473 80706 10267 20252 30024 40062 57019 60101 78082 8692/ 333 56199 70122 555 91406
AAXX 14064 78583 32470 73604 10225 20215 40179 60001 87800 333 01100 59005 83817
AAXX 14061 89061 379// 03206 10012 20003 39887 49894 52015 70070 333 91008 91111
BBXX VRZT9 14063 99252 70895 41698 61513 10230 2020/ 40230 54000 7//22 86949 22233 0//// 20501 312// 40501 5//// 6//// 80210 ICE /////
AAXX 14064 60105 32950 41207 10097 20092 40268 5//// 84030 333 20093 30004 84360
AAXX 14064 60127 32960 00000 10076 20051 39666 40279 5/002 333 20070 30051
AAXX 14064 60141 32960 02008 10041 20028 39597 40289 53002 333 20036 31002
AAXX 14064 60210 32970 30000 10076 21014 39069 48576 58001 80002 333 20055 83070 31104
AAXX 14064 60265 32970 00000 10038 21039 38970 48575 55000 333 20032
AAXX 14064 60060 NIL
AAXX 14064 60106 NIL
AAXX 14064 60107 NIL
AAXX 14064 60185 NIL
AAXX 14064 60190 NIL
AAXX 14064 60191 NIL
AAXX 14064 60195 NIL
AAXX 14064 60220 NIL
AAXX 14064 60318 NIL
BBXX DBLK 14061 99625 30000 41397 80108 11017 21019 49692 57033 77172 885// 22242 05019 ICE 35692
AAXX 14064 60150 32960 01403 10070 20058 39608 40281 55001 333 20056 30003
AAXX 14064 60096 NIL
AAXX 14064 60101 NIL
AAXX 14064 60115 NIL
AAXX 14064 60135 NIL
AAXX 14064 60155 NIL
AAXX 14064 60156 NIL
AAXX 14064 60230 NIL
AAXX 14064 60252 NIL
AAXX 14064 60285 31405 50402 10116 20115 40248 5//// 746// 83630 333 20113 83706 83360
AAXX 14064 60340 NIL
AAXX 14061 11812 36/// /1007 10002 20002 39449 42755 52001 333 20001 3////
AAXX 14061 11813 11001 89902 10016 20013 39809 40165 52005 60002 74622 886// 333 20016 31001 79999 88701
AAXX 14061 11816 11035 80803 10022 20012 39997 40164 53002 60002 71022 886// 333 20022 31002 70000 81701 86703 87704
AAXX 14061 11819 36/// /1502 10028 20019 39946 40166 52002 333 20025 3/001
AAXX 14061 11826 11457 71803 10043 20022 39956 40158 58001 60002 71022 84548 333 20038 31101 70000 84615 86358
AAXX 14061 11841 11204 49901 11002 21008 39779 40165 53001 60002 74411 84600 333 21003 31102 70000 84704
AAXX 14061 11855 11457 81004 10036 20026 39999 40167 52002 60002 71022 886// 333 20025 31001 70000 88712
AAXX 14061 11856 36/// /1007 10036 20022 39847 40169 52002 333 20024 3/000
AAXX 14061 11858 11904 01103 10019 20016 30012 40167 52005 60002 74611 333 20016 31103 70000
AAXX 14061 11867 12960 60000 10008 21008 39842 40166 50000 60002 83041 333 20004 31100 70000 83364 86066
AAXX 14061 11880 11513 89902 10032 20030 30005 40180 52006 60002 71022 885// 333 21001 31103 70000 88623
AAXX 14061 11900 16/// /9901 10028 20016 39841 40182 52003 60002 333 20019 3//// 70000
AAXX 14061 11903 11450 89901 10016 20013 39796 40185 53005 60002 71042 886// 333 20003 31101 70000 88712
AAXX 14061 11916 12689 62608 11021 21037 37933 48441 53013 60002 83072 333 21070 3//// 44025 79900 83333 84061 93598 444 26149 47071
AAXX 14061 11918 12686 62406 10018 20000 39324 42758 51001 60002 81572 333 20015 3/001 41998 70000 81643 85361
AAXX 14061 11927 11240 80000 10028 20024 39917 40184 53004 60002 71022 885// 333 20023 31002 70000 83704 88613
AAXX 14061 11930 12589 72911 11044 21059 37332 47009 52002 60002 84072 333 21055 3//// 44041 70000 84330 83060 91019 444 27083
AAXX 14061 11933 12680 79902 10025 21020 38634 48452 52001 60002 85540 333 21022 3/103 44031 79999 85633
AAXX 14061 11934 12782 79901 10004 21014 39331 42766 53003 60002 81542 333 20004 31101 70003 81650 85363
AAXX 14061 11938 12670 62102 11018 21022 39099 42773 50004 60002 84542 333 21027 3/104 42006 70000 84636
AAXX 14061 11952 16/// /1303 10016 21002 39323 42767 52003 60002 333 20015 3/001 70003
AAXX 14061 11958 36/// /2112 11007 21011 38721 48454 52004 333 21017 3////
AAXX 14061 11968 11109 72402 10035 20028 39896 40181 51005 60002 74222 87600 333 20033 31003 70002 87702
AAXX 14061 11976 11325 81603 10048 20039 39909 40175 50006 60002 71022 885// 333 20048 31004 70014 82708 88626
AAXX 14061 11978 11230 81504 10053 20044 30054 40186 52008 60002 71022 886// 333 20043 31002 70019 88704
AAXX 14061 11993 11450 71803 10057 20042 39969 40187 52004 60002 71022 87600 333 20051 31004 70038 87710
AAXX 14064 78862 11480 49902 10220 20209 30092 40115 69961 70286 81802 333 10291 20219 59010 81816 84078
AAXX 14064 SHRA FEW012CB BKN015 BECMG 1312/1314 10008KT
AAXX 14064 TAF TQPF 121600Z 1218/1318 VRB04KT 9999 SCT016 PROB30 TEMPO 1218/1318 SHRA FEW012CB BKN015 BECMG 1312/1314 10008KT
AAXX 14064 TAF TKPN 121600Z 1218/1318 VRB04KT 9999 SCT016 PROB30 TEMPO 1218/1318 SHRA FEW012CB BKN015 BECMG 1312/1314 10008KT
AAXX 14064 TAF TUPJ 121600Z 1218/1318 VRB04KT 9999 SCT016 PROB30 TEMPO 1218/1318 SHRA FEW012CB BKN015 BECMG 1312/1314 10008KT
AAXX 14064 EMPO 0600/0624 SHRA BKN015=+TSRA SCT012CB
AAXX 14064 TAF TUPJ 041000Z 04012/0512 07008KT 9999 SCT016 BKN038 SCT270 TEMPO 0412/0512 SHRA BKN015 PROB40 TEMPO 0418/0512 5000 SHRA BKN014 BKN036 PROB30 0420/0512 4000 TSRA FEW012CB
AAXX 14064 918 4000 TSRA FEW012CB
AAXX 14064 N015 BKN036 PROB40 TEMPO 0704/0724 3000 +TSRA SCT011CB BKN012 BECMG 0712/0714 14008KT
AAXX 14064 21/2712 07017G28KT 5000 SHRA BKN015 BKN036 PROB TEMPO 2700/2712 4000 TSRA FEW013CB
AAXX 14064 PROB30 TEMPO 0800/0806 4000 TSRA FEW012CB PROB40 TEMPO 0800/0824 2000 +SHRA/TSRA SCT010CB BKN012 BKN250
AAXX 14061 89061 379// 03206 10012 20003 39887 49894 52015 70070 333 91008 91111
AAXX 14061 11723 01356 83301 10024 20011 39847 40150 53007 69902 71022 886// 333 20019 31101 60005 79999 85707 88713
AAXX 14061 11423 01782 72305 10035 20027 39205 42708 58008 69902 702// 8157/ 333 20022 3/001 42003 60005 70023 81650 87366 91010 91115
BBXX VOLG 14064 99/// ///// 46/// /3611 10016 20003 40224 53005 7//// 8//// 22200 0//// 2////
BBXX 42362 14061 99278 70907 46/// /0911 10217 20167 40247 58011 90600
BBXX 42363 14061 99282 70892 46/// /0914 10206 20161 40261 58010 90600 333 91214
BBXX 42364 14061 99291 70881 46/// /0808 10200 20156 40264 58011 90600
BBXX 44011 14061 99411 70666 46/// /0209 10084 20044 40207 58005 90550 22200 00099 10904 20503 3//// 40903 70018 333 91210 555 11092 22097 30528 41912 60549 017086 008086 011091 014093 012091 012089
BBXX 41046 14061 99238 70683 46/// /0211 10245 20199 40142 57006 90550 22200 00261 10906 20605 300// 40903 70029 333 91213 555 11112 22118 30512 40313 60549 018103 015098 024094 033103 025103 021101 80312 90514
BBXX 51101 14061 99243 71621 46/// /1207 10239 20201 40181 52013 90550 22200 00242 11105 20502 310// 41104 70023 333 91209 555 11077 22081 30452 41109 60549 115073 107072 106070 112064 113066 109068
BBXX 46061 14061 99602 71468 46/// /1008 10022 40066 52003 90550 22200 00063 10803 20602 300// 40802 70013 333 91209 555 11084 22088 30526 40910 60549 097079 098078 096084 100077 104064 109069
BBXX 46083 14061 99582 71380 46/// /1709 10038 20000 40124 54000 90550 22200 00062 11206 20804 300// 41204 70028 333 91211 555 11095 22102 30543 41711 60549 168090 176075 163062 197037 231026 161049 81709 90542
BBXX 46089 14061 99459 71258 46/// /0403 10073 20013 40200 51015 90550 22200 00095 11305 20401 330// 41305 70024 333 91204 555 11033 22034 30526 40504 60549 037032 049030 035031 034031 033030 030033
BBXX 46042 14061 99368 71224 46/// /3605 10113 40199 53014 90550 22200 00116 10903 20401 330// 40903 70016 333 91206 555 11054 22057 30524 43507 60549 355050 354054 356056 355054 351055 349058
AAXX 14064 48601 11560 60107 10311 20237 30086 40090 60001 70522 81141 333 81820 85078
AAXX 14064 48615 11465 73408 10286 20249 30096 40102 60001 70522 82142 333 82818 87074
AAXX 14064 48620 11465 72905 10302 20245 30080 40089 60001 70522 83942 333 81917 83825 87078
AAXX 14064 48647 11459 72307 10315 20259 30063 40087 69921 71522 84942 333 81917 83818 87078
AAXX 14064 48657 11471 70204 10308 20242 30070 40087 60001 70522 83232 333 81917 83819 86078
AAXX 14064 48665 11467 72303 10300 20244 30081 40091 6///1 70522 84942 333 81917 83821 86078
AAXX 14064 96413 11475 73308 10305 20243 30056 40082 6///1 72582 84931 333 81915 84820 85080
AAXX 14064 96421 12480 73004 10319 20239 30040 40075 60001 85231 333 85818 83365 85080
AAXX 14064 96441 12480 73007 10313 20243 30052 40079 6///1 84931 333 81915 83816 86080
AAXX 14064 96449 11465 72708 10305 20245 30056 40075 60001 71522 83931 333 83814 81915 83365 86080
AAXX 14064 96465 12480 73505 10305 20254 30045 40078 60001 81841 333 81812 86080
AAXX 14064 96471 11470 70106 10313 20244 30075 40078 60001 71522 82932 333 82814 81917 87079
AAXX 14064 96481 12462 71806 10317 20249 30054 40073 69921 82841 333 82817 83364 86080
AAXX 14064 96491 11467 70406 10307 20243 30070 40082 69961 70198 86942 333 83816 81917 87079
BBXX 51000 14061 99235 71541 46/// /1009 10230 40193 53017 90550 22200 00233 10906 20704 310// 40904 70029 333 91210 555 11095 22101 30455 41012 60549 097089 093093 092096 091095 093093 094096
AAXX 14064 16021 11450 81818 11038 21045 37942 48467 58008 60002 71011 887// 333 21048 43010 55/// 2//// 88710 92802
AAXX 14064 16022 11/01 92125 11021 21021 37806 48448 56004 69902 77174 333 21050 48005 55021 2//// 89/01 92805 93101
AAXX 14064 16033 12668 50802 11040 21061 38751 48455 58004 60002 85500 333 21044 43007 55/// 2//// 85635 92822
AAXX 14064 16040 13465 61902 10020 20005 39243 42772 5//// 60002 82270 333 20010 31/// 55/// 2//// 82815 85356
AAXX 14064 16052 11/01 92326 11080 21085 36557 47977 56005 69902 77042 333 21086 49999 55022 23138 89/01 93199
AAXX 14064 16061 12584 50000 10044 20005 39317 42769 56002 60002 83530 333 20042 30/// 55045 2//// 83630
AAXX 14064 16098 11550 83502 10072 20050 30123 40175 58004 69962 76062 885// 333 20022 32/// 55/// 2//// 84720 86630
AAXX 14064 16138 11756 60403 10050 20038 30154 40165 56005 60002 710// 86080 333 20030 31/// 55/// 2//// 86356
AAXX 14064 16148 11650 71203 10068 20053 30153 40165 56009 60002 71022 84501 333 20058 32/// 55033 2//// 55300 84640
AAXX 14064 16168 11265 71823 10112 20107 39436 42796 56008 60002 72842 81270 333 20082 31/// 81804 86357
AAXX 14064 16172 12561 70000 10068 20068 39890 40193 56010 69902 87500 333 20060 30/// 55/// 2//// 83627 85640
AAXX 14064 16179 NIL
AAXX 14064 16224 NIL
AAXX 14064 16232 12898 61804 1//// 2//// 30140 4//// 56011 60002 84035 333 2//// 30/// 55048 20587 55300 84358 555 0100/
AAXX 14064 16245 12562 71210 10132 20095 30173 40199 55007 60002 83550 333 20088 30/// 55/// 2//// 83630 86356
AAXX 14064 16253 12560 70302 10098 20063 30208 40220 58002 60002 84230 333 20052 30/// 55066 20797 84820 84357
AAXX 14064 16258 12965 32209 10058 21018 39204 42807 56003 60002 83030 333 20048 30/// 55/// 2//// 83360
AAXX 14064 16263 11/00 92515 10056 20044 38946 48509 53003 60002 74541 333 20044 32/// 55/// 2//// 89/00
AAXX 14064 16294 NIL
AAXX 14064 16337 12798 12106 10100 20067 39651 40226 53002 60002 81030 333 20094 32/// 55/// 2//// 81356 555 0326/
AAXX 14064 16344 12960 02808 10018 20017 38342 48525 54000 60002 333 20006 30/// 55000 20701 95000 95100
AAXX 14064 16434 11056 22405 10058 20051 39031 48527 52001 60002 710// 82100 333 20058 30/// 55/// 2//// 82800 95010 95100
AAXX 14064 16450 NIL
AAXX 14064 16459 12968 01802 10052 20052 30201 40237 51001 60002 333 20050 30/// 55/// 2////
AAXX 14064 16546 12460 62102 10144 20121 30180 40209 55001 60002 86800 333 20108 30/// 55/// 2//// 82710 84650
AAXX 14064 16564 12598 62526 10154 20125 30062 40203 56005 60002 83431 333 20148 30/// 55/// 2//// 83627 555 0////
AAXX 14064 71805 04586 80425 11016 21048 30227 40236 53008 6///2 700// 333 10046 21016 34102 55041 6///7 7//// 90710 91135 555 6///5
AAXX 14064 16008 NIL
AAXX 14064 16084 11420 80000 10036 20029 39995 40166 56000 60002 71052 886// 333 20006 32/// 55039 20417 83710 85620
AAXX 14064 16088 11525 80103 10054 20047 30056 40176 55000 60032 76162 888// 333 20017 32/// 55/// 2//// 84824 85635
AAXX 14064 16110 NIL
AAXX 14064 16134 11/00 92216 11004 21008 37790 48471 55004 60002 74944 333 21008 44004 55037 2//// 89/00 92710 92835 95090 95190
AAXX 14064 16153 11498 83605 10091 20071 39892 40159 56007 69942 72162 8423/ 333 20090 31/// 55043 2//// 84818 84359 555 0////
AAXX 14064 16158 12562 70501 10120 20087 30159 40167 55006 69902 82130 333 20110 30/// 55033 2//// 82830 86356
AAXX 14064 16206 11565 70303 10106 20080 30162 40171 57007 69902 72162 85830 333 20044 31/// 55/// 2//// 82820 84630
AAXX 14064 16219 NIL
AAXX 14064 16252 12875 52103 10090 20063 39263 42819 51001 60002 82031 333 20064 30/// 55064 2//// 82358
AAXX 14064 16280 12598 72108 10152 20127 39988 40208 53001 60002 84550 333 20132 30/// 55066 2//// 84630 84356 555 0225/
AAXX 14064 16310 12898 43206 10118 20081 39998 40221 5???? 60002 84050 333 20106 30/// 55070 2//// 55300 84358 555 0316/
AAXX 14064 16320 12960 02208 10064 20061 30209 40222 55000 60002 333 20060 30003 55035 20481 55300 555 0100/
AAXX 14064 16325 12998 02910 10052 20024 30196 40210 53005 60002 333 20052 31/// 55/// 2//// 98070 555 0100/
AAXX 14064 16360 12998 03305 10128 20040 30084 40219 53005 60002 333 20100 30/// 55061 2//// 555 0100/
AAXX 14064 16400 13497 42016 10144 20114 39947 40237 55001 60002 84130 333 20144 30/// 55064 2//// 55300 84817 555 0324/
AAXX 14064 16420 12597 60000 10148 20118 30162 40228 55001 69922 84570 333 20144 32/// 55021 2//// 84625 85358 555 0100/
AAXX 14064 16429 11462 71302 10114 20106 30229 40240 53007 69902 76021 87800 333 20094 30/// 55075 2//// 84818 86640
AAXX 14064 16470 12560 33600 10142 20117 30006 40243 54000 60002 83100 333 20140 30000 40997 55069 2//// 55300 22/// 83826 95010
AAXX 14064 16480 12998 03104 10118 20069 30161 40223 54000 60002 333 20104 30/// 55083 2//// 55300 555 0200/
AAXX 14064 16522 12598 73515 10162 20139 39930 40171 55000 60002 85204 333 20158 30/// 55042 2//// 55300 85825 555 0////
AAXX 14064 16539 13497 62318 10162 20154 30087 40200 56005 60002 85801 333 20152 31/// 55/// 2//// 82815 83625 555 0////
AAXX 14064 16550 12598 71915 10142 20117 30000 40179 56011 60002 85830 333 20130 30/// 55007 2//// 83830 83635 555 0////
AAXX 14064 16045 NIL
AAXX 14064 16090 11257 73603 10054 20051 30086 40170 58005 69942 72162 84530 333 20018 32/// 55032 20420 84605 84357
AAXX 14064 16149 12665 61809 10120 20077 30153 40169 58002 60002 84530 333 20042 30/// 55/// 2//// 84640
AAXX 14064 16261 11559 33302 10038 20018 30131 40206 50000 60002 7100/ 81530 333 20008 31/// 55057 20519 55300 81625 83360
AAXX 14064 16453 11997 20601 10116 20079 30162 40241 51006 60002 702// 80001 333 20108 30/// 55085 2//// 55300 555 0100/
AAXX 14064 16560 12565 60103 10132 20104 30204 40210 54000 60002 86800 333 20104 30009 55045 20680 82820 85640
BBXX DBND 14061 99/// ///// 46/// ///// 10051 20026 49940 57004 22220 00075
AAXX 14064 65338 31930 53204 10207 20145 39934 40122 70644 80002 333 02000 20207 50764 55000 58007 85076
AAXX 14064 16179 11575 81907 10100 20076 39491 42786 57009 69902 76062 8527/ 333 20092 32/// 85825 83357
BBXX DBBI 14061 99536 10086 46/// /1908 10051 20040 49948 57004 22210 00053
BBXX BATFR56 14064 99108 30715 44498 31210 10284 40111 50001 70200 83392 22252 00295 20802 316// 40802 5////
BBXX DBCK 14061 99/// ///// 46/// ///// 10053 20051 49939 57005 22220 00061
BBXX BATFR55 14064 99155 30532 44598 62016 10279 20262 40100 70322 84142 22232 00280 207// 30000 411// 511//
BBXX 61001 14064 99434 10078 46/// /2213 10146 20109 40144 54000 22200 00154 10603 70013
BBXX 44039 14061 99411 70727 46/// /3505 10060 21006 40284 54000 90600 22200 00103 1//00 70002 333 91206
BBXX 44060 14061 99413 70721 46/// ///03 10038 40272 50000 90600 22200 00109 333 91204 555 11031 22031
BBXX 44008 14061 99405 70692 46/// /0209 10087 20046 40232 53004 90550 22200 00117 10604 20603 312// 41002 70019 333 91211 555 11093 22098 30515 43613 60549 017089 021089 015097 017100 019099 024099
BBXX 44172 14061 99445 70634 46/// ///// 1//// 90601 22200 00067 11102 21002 317// 41101 70010
AAXX 14064 60645 36/// /0000 10106 20012 333 20102
BBXX 62087 14061 99547 10068 46/// /0605 10085 20024 4//// 5//// 22220 00090
BBXX 46232 14061 99325 71174 46/// ///// 1//// 90538 22200 00148 11303 21002 327// 41302 70014
BBXX 46249 14061 99338 71197 46/// ///// 1//// 90545 22200 00142 11302 21002 321// 41301 70010
BBXX 46247 14061 99378 71228 46/// ///// 1//// 90551 22200 00113 10903 20902 321// 41401 70013
BBXX 46248 14061 99461 71247 46/// ///// 1//// 90534 22200 00087 11404 20802 329// 41404 70022
BBXX 46237 14061 99378 71226 46/// ///// 1//// 90540 22200 00112 11302 20802 325// 41301 70010
BBXX 46229 14061 99438 71246 46/// ///// 1//// 90551 22200 00102 11403 20902 330// 41402 70015
BBXX 46225 14061 99329 71174 46/// ///// 1//// 90544 22200 00155 11202 21001 327// 41201 70010
BBXX 46213 14061 99403 71247 46/// ///// 1//// 90554 22200 00100 11503 20702 329// 41502 70015
BBXX 46215 14061 99352 71209 46/// ///// 1//// 90538 22200 00158 11103 21002 329// 41101 70013
BBXX 44100 14061 99363 70756 46/// ///// 1//// 90552 22200 00133 11104 20603 311// 41101 70019
BBXX 41115 14061 99184 70673 46/// ///// 1//// 90535 22200 11003 21002 336// 41101 70013
BBXX 41110 14061 99341 70777 46/// ///// 1//// 90551 22200 00141 11102 21002 311// 41101 70009
BBXX 42099 14061 99273 70842 46/// ///// 1//// 90557 22200 00233 10603 20603 70016
BBXX 41113 14061 99284 70805 46/// ///// 1//// 90551 22200 00224 11103 20902 310// 41101 70013
BBXX 41114 14061 99276 70802 46/// ///// 1//// 90546 22200 00230 10904 20904 307// 41102 70020
BBXX 41112 14061 99307 70813 46/// ///// 1//// 90551 22200 00165 10903 20902 311// 41101 70013
BBXX 46218 14061 99345 71208 46/// ///// 1//// 90602 22200 00140 11105 21003 331// 41103 70023
AAXX 14064 91631 11498 60814 10281 20241 40074 60001 71412 81208 333 562/9
AAXX 14064 61968 16/// ///// 10294 20241 40116 60004 333 20251 55/// 59006 90710 91110 555 60005
AAXX 14064 61980 12565 40716 10297 20229 40120 69964 82831 333 02519 20252 55100 59005 82826 83078 90710 91120 92437 555 60005
AAXX 14064 67005 12570 59901 10297 20234 40118 60034 82205 333 02500 20260 55056 59008 82822 85279 90710 91105 555 60005
BBXX 51204 14061 99213 71581 46/// ///// 1//// 90552 22200 00248 11402 20401 331// 41401 70009
BBXX 51201 14061 99217 71581 46/// ///// 1//// 90542 22200 00242 11403 20903 333// 41401 70015
BBXX 51202 14061 99214 71577 46/// ///// 1//// 90539 22200 00245 11004 21004 308// 41101 70021
BBXX 44098 14061 99428 70702 46/// ///// 1//// 90537 22200 00092 11002 21002 313// 41101 70012
BBXX 44099 14061 99369 70757 46/// ///// 1//// 90552 22200 00126 11203 21002 310// 41201 70013
BBXX 46224 14061 99332 71175 46/// ///// 1//// 90536 22200 00154 11302 21001 322// 41301 70008
BBXX 46214 14061 99379 71235 46/// ///// 1//// 90555 22200 00117 10803 20803 324// 41302 70016
AAXX 14064 48601 11560 60107 10311 20237 30086 40090 60001 70522 81141 333 81820 85078
AAXX 14064 48615 11465 73408 10286 20249 30096 40102 60001 70522 82142 333 82818 87074
AAXX 14064 48620 11465 72905 10302 20245 30080 40089 60001 70522 83942 333 81917 83825 87078
AAXX 14064 48647 11459 72307 10315 20259 30063 40087 69921 71522 84942 333 81917 83818 87078
AAXX 14064 48650 11460 72205 10298 20257 30068 40086 69921 71522 83942 333 81917 83364 86078
AAXX 14064 48657 11471 70204 10308 20242 30070 40087 60001 70522 83232 333 81917 83819 86078
AAXX 14064 48665 11467 72303 10300 20244 30081 40091 6///1 70522 84942 333 81917 83821 86078
AAXX 14064 96413 11475 73308 10305 20243 30056 40082 6///1 72582 84931 333 81915 84820 85080
AAXX 14064 96421 12480 73004 10319 20239 30040 40075 60001 85231 333 85818 83365 85080
AAXX 14064 96441 12480 73007 10313 20243 30052 40079 6///1 84931 333 81915 83816 86080
AAXX 14064 96449 11465 72708 10305 20245 30056 40075 60001 71522 83931 333 83814 81915 83365 86080
AAXX 14064 96465 12480 73505 10305 20254 30045 40078 60001 81841 333 81812 86080
AAXX 14064 96471 11470 70106 10313 20244 30075 40078 60001 71522 82932 333 82814 81917 87079
AAXX 14064 96481 12462 71806 10317 20249 30054 40073 69921 82841 333 82817 83364 86080
AAXX 14064 96491 11467 70406 10307 20243 30070 40082 69961 70198 86942 333 83816 81917 87079
AAXX 14061 01241 11586 41408 10042 21035 39662 49673 58007 60002 70222 81872 333 20032 91113
AAXX 14061 01008 11585 61302 11046 21076 39983 40017 52002 69902 70272 8155/ 333 21088 47015 79999 91106
AAXX 14061 01055 46/// /1610 10005 21034 39845 49862 55001 333 21002 91119
AAXX 14061 01317 11474 71606 10064 20025 39641 49655 53009 60122 72582 8696/ 333 20027 70197 91118
AAXX 14061 06206 45574 62215 10077 20013 39828 49880 56005 8//// 333 20071 81/25 83/33 86/68 91017 91124 91220
AAXX 14061 06207 47466 6//15 10062 20025 39839 49892 55003 78000 8//// 333 20057 81/19 83/32 86/65 91017 91125 91220
AAXX 14061 06239 45569 6//17 10076 20006 3//// 4//// 5//// 8//// 333 20067 84/30 86/35 86/40 91020 91129 91223
AAXX 14061 06252 46/// /2412 10082 20022 39843 49888 55011 222// 00100 10706 333 20073 91013 91123 91219
AAXX 14061 06260 17464 81905 10057 20039 39931 49933 56030 69982 78100 8//// 333 20052 3/004 70035 81/16 85/24 86/30 91008 91112 91208
AAXX 14061 06270 17674 72106 10052 20032 39917 49917 56018 60002 70185 8//// 333 20045 3/004 70060 81/47 84/57 87/61 91010 91116 91211
AAXX 14061 06290 17574 71705 10061 20025 39910 49950 58028 60002 78100 8//// 333 20053 3/005 70022 81/28 83/49 87/50 91008 91114 91209
AAXX 14064 91574 46/// ///// 29082 30209 40215 53065
AAXX 14064 91570 NIL
AAXX 14064 91598 NIL
AAXX 14064 91573 06/// /0408 10288 20246 39984 40079 55004 60001 333 59002 60007
AAXX 14064 91577 06/// /0206 10307 20206 30050 40070 55003 60001 333 59007 60007
AAXX 14064 91579 06/// /0308 10296 20249 30068 40076 55008 60001 333 59013 60007
AAXX 14064 91582 04470 /0408 10294 20243 30042 40076 55008 60002 700// 333 10313 20244 3/024 55/// 60007 70004 90710 91112 555 60005
AAXX 14064 91583 06/// /0000 10280 20238 30065 40080 55006 60001 333 59007 60007
AAXX 14064 91590 04585 81306 10299 20229 30031 40072 55002 60002 700// 333 10339 20243 55048 60007 70000 90710 91114 555 60005
AAXX 14064 91592 06/// /2007 10297 20250 39995 40078 55001 60001 333 59005 60007
AAXX 14064 91596 06/// /0208 10277 20235 39974 40081 55005 60001 333 59014 60007
AAXX 14064 91587 NIL
AAXX 14061 06201 47933 02314 10070 20015 39799 49850 53005 78184 333 20064 91017 91123 91218
AAXX 14061 06203 45578 8//13 10079 20032 39849 49899 58017 8//// 333 20079 83/22 84/25 85/29 91015 91122 91218
AAXX 14061 06204 45581 82313 10085 20019 39849 49899 56016 8//// 333 20077 82/25 83/29 88/65 91016 91123 91220
AAXX 14061 06205 45567 82219 10071 20010 39758 49815 51014 8//// 333 20068 81/26 84/31 85/39 91023 91129 91224
AAXX 14061 06208 47670 72110 10056 20030 39868 49917 55005 70280 8//// 333 20054 81/35 83/48 87/58 91013 91121 91214
AAXX 14061 06211 469// 82215 10073 20015 39818 49873 56006 8//// 333 20066 88/68 91018 91126 91220
AAXX 14061 06212 47775 72112 1//// 2//// 39837 49899 56019 72385 8//// 333 2//// 82/50 87/61 91015 91123 91219
AAXX 14061 06235 17469 82109 10064 20039 39910 49910 56022 6///2 70280 8//// 333 20062 3/006 7//// 83/14 85/16 86/19 91013 91120 91214
AAXX 14061 06240 17459 82207 10053 20044 39937 49932 56022 60022 76285 8//// 333 20046 3/004 70053 81/16 88/21 91009 91115 91211
AAXX 14061 06251 17676 72011 10059 20038 39908 49909 56013 69942 72386 8//// 333 20059 3/006 70049 81/37 87/50 91013 91122 91216
AAXX 14061 06258 46/// /2010 333 91012 91121 91218
AAXX 14061 06269 17565 81906 10056 20036 39937 49931 58026 69902 75850 8//// 333 20045 3/004 70056 83/22 83/26 88/43 91008 91115 91211
AAXX 14061 06280 15980 71805 10050 20027 39925 49929 58019 60002 8//// 333 20045 3/004 70058 83/61 87/64 87/68 91009 91115 91211
AAXX 14061 06310 17461 82306 10055 20045 39917 49927 56030 60062 76285 8//// 333 20055 3/005 70075 81/11 84/13 86/16 91008 91114 91210
AAXX 14061 06344 17356 82504 10051 20040 39937 49931 56029 60052 76380 8//// 333 20049 3/004 70068 81/07 85/10 86/13 91006 91118 91212
AAXX 14061 06370 17450 82002 10055 20042 39910 49935 56046 60082 76385 8//// 333 20044 3/004 70121 81/13 83/18 87/22 91003 91112 91208
AAXX 14061 06380 17564 81808 10070 20043 39798 49936 58065 60042 76285 8//// 333 20037 3/004 70074 85/22 88/27 91011 91113 91209
AAXX 14064 13600 11950 80000 10086 20064 30167 40220 54000 60002 71022 8803/ 333 20070 31/// 88360
AAXX 14064 13610 12760 21806 10078 20046 39797 40225 52005 60002 82200 333 20066 31/// 82850
AAXX 14064 13611 12665 61408 10110 20073 30113 40205 52005 60002 84530 333 20082 31/// 84636
AAXX 14064 13619 12665 21402 10034 20024 39452 42831 52007 60002 82500 333 20002 31/// 82643
AAXX 14064 13622 12665 30000 10096 20074 30206 40214 54004 60002 83500 333 20086 30/// 83640
AAXX 14064 13624 12970 11408 10072 20048 30183 40223 54002 60002 81030 333 20068 30/// 81360
AAXX 14064 13625 11/07 90000 10070 20045 39993 40228 54004 60002 74544 333 20068 31///
AAXX 14064 13629 12966 00402 10014 20014 39158 42808 54002 60002 333 20002 31///
AAXX 14064 13601 12965 30000 10080 20068 30099 40201 54004 60002 83031 333 20080 30/// 81360
AAXX 14064 13602 NIL
AAXX 14064 13623 11960 40000 10072 20069 30208 40214 54004 60052 70160 84030 333 20070 31/// 84360
AAXX 14061 10505 01562 81810 10063 20037 39662 49939 58064 60022 76161 887// 333 10064 20043 32004 55000 55300 20000 30000 69957 70061 87825 91117 91212
AAXX 14061 11813 11001 89902 10016 20013 39809 40165 52005 69902 74622 886// 333 20016 31001 79999 88701
BBXX DBBH 14061 99405 70106 41598 82910 10150 20096 40218 52016 70182 83807 22242 04166
AAXX 14064 63980 12470 73510 10288 20233 40116 60074 84932 333 20247 50520 55078 58007 81914 84816 85358 943// 91120
AAXX 14061 03951 17958 /2612 10057 20015 39874 49900 50008 60022 71085 82/// 333 20039 3/001 81/61 82/65 87/67
AAXX 14061 03953 11580 62509 10051 21025 39857 49893 53006 60022 78982 85902 333 20032 31000 55003 84920 83068 92448 90710 91122 96487
AAXX 14061 03955 11470 52406 10003 21001 39701 49899 52011 69982 72581 83370 333 20002 31102 55031 83918 84459 92600
AAXX 14061 03956 15984 /2507 10014 21019 39804 49881 50004 60002 80/// 333 20010 3/101 81/66 83/68
AAXX 14061 03962 11475 72305 10037 20003 39848 49871 52008 60022 70381 85302 333 20015 3/100 55015 81918 84642 85070 96485 96487
AAXX 14061 03963 17666 /2815 10050 21002 39822 49850 52015 69942 7018/ 83/// 333 20040 3/001 82/30 83/50 85/61 90710 91122
AAXX 14061 03966 17682 /2306 10007 21006 39775 49868 53013 69922 7818/ 83/// 333 20005 3/101 81/32 83/47
AAXX 14061 03967 12682 22210 10009 21012 39738 49852 53002 69902 82500 333 20008 31101 55017 82640
AAXX 14061 03969 12575 42311 10011 21007 39743 49847 55002 69902 81802 333 20009 31100 55041 81822 83070
AAXX 14061 03973 11270 72408 10003 20000 39585 49839 52011 60022 72681 873// 333 20002 3/100 41998 55012 83703 86707 83918
AAXX 14061 03976 11470 73007 10039 20008 39814 49826 50009 60112 72782 879// 333 20028 32001 55000 83716 86920 96489 96483 90710 91120
AAXX 14061 03980 17462 /2310 10043 20031 39750 49775 52026 60082 78186 87/// 333 20039 3/003 81/12 84/24 87/33
AAXX 14064 17600 12970 70208 10129 20067 30200 40210 50001 60002 82088 333 10144 20118 30010 50261 55067 70000 82362 87275 92428
AAXX 14064 17601 12981 83103 10130 20048 30176 40207 51004 60002 85037 90550 333 20112 30005 70000 85365 88272
AAXX 14064 17607 11580 72303 10104 20066 30026 40222 52/// 60004 703// 81186 333 20096 70000 81825 87072
AAXX 14064 17609 12970 73205 10138 20078 30211 40215 53007 60002 81086 333 10139 20118 31010 50171 55071 70000 81362 87275
AAXX 14064 89532 41/80 20215 11078 21100 39804 49832 53011 70270 82500 333 55058 23030
AAXX 14063 91502 31470 60000 10300 20238 40062 55007 71592 83976 333 56999 83816 81917 83360 86280
AAXX 14063 91507 01470 83604 10260 20246 40065 55005 60011 79582 8697/ 333 10292 56709 60017 82814 82915 85628 86358
AAXX 14063 91520 01470 80205 10295 20254 40057 55007 69921 78022 8597/ 333 56299 69927 82819 81920 83630 87360
AAXX 14063 91541 01475 80000 10265 20243 40071 57003 60021 71582 8397/ 333 56699 60027 83818 81919 88360
AAXX 14063 91502 31470 60000 10300 20238 40062 55007 71592 83976 333 56999 83816 81917 83360 86280
AAXX 14063 91507 01470 83604 10260 20246 40065 55005 60011 79582 8697/ 333 10292 56709 60017 82814 82915 85628 86358
AAXX 14063 91520 01470 80205 10295 20254 40057 55007 69921 78022 8597/ 333 56299 69927 82819 81920 83630 87360
AAXX 14063 91541 01475 80000 10265 20243 40071 57003 60021 71582 8397/ 333 56699 60027 83818 81919 88360
AAXX 14061 11010 31858 70901 10008 20008 39753 40140 55004 70242 333 21005 31103 81657 87364
AAXX 14061 11012 12782 60801 10013 20002 39662 40139 57001 60002 865// 333 10038 20008 3/000 55300
AAXX 14061 11022 12545 72502 10025 20012 39751 40143 53005 60002 875// 333 10043 20014 3/101 55300 87623
AAXX 14061 11035 31227 82003 10023 20020 39895 40152 52005 71022 886// 333 10063 20020 88706
AAXX 14061 11036 31143 81404 10024 20018 39928 40155 50001 71011 333 20012 31101 83702 87703
AAXX 14061 11101 11675 81207 10093 20037 39581 40100 58014 69922 72065 885// 333 10101 20053 88640 91115
AAXX 14061 11120 32865 72403 11007 21022 39437 40160 57007 333 21022 34105 83658 85362
AAXX 14061 11126 16/// /1617 11050 21054 37665 48431 55011 60002 333 10003 21050 55300 91122
AAXX 14061 11130 16/// /0000 10002 21005 39543 40143 58009 60002 333 10033 21008 3/102 55300
AAXX 14061 11146 32689 32414 11079 21113 36884 47984 55009 69902 82032 333 11047 21079 49117 55300 82340 83070 91117
AAXX 14061 11150 32882 71506 10033 21018 39584 40129 57008 333 20025 31002 81658 86463
AAXX 14061 11155 12689 71901 10013 21015 38315 48444 57004 60002 8157/ 333 10037 20010 3/101 44027 55300 87358
AAXX 14061 11157 31/02 99901 11025 21026 39384 40177 58004 74944 333 21050 3/106 43006 89/03
AAXX 14061 11172 NIL
AAXX 14061 11190 11/06 90702 10021 20015 39922 40160 53007 60002 74544 333 10063 20011 3/101 55300
AAXX 14061 11204 32980 13201 11032 21045 39384 40204 57005 81031 333 11007 21039 81359 555 10035 6000/
AAXX 14061 11212 31/03 62514 11043 21053 37787 48462 55000 74132 865// 333 21057 42004 816// 85630 91121 92611 93199 444 26072
AAXX 14061 11231 31108 89901 10003 20003 39601 40186 50006 74142 333 20001 31101 88703
AAXX 14061 11240 31958 59901 11018 21018 39708 40160 54000 70242 333 21026 34105 85366
AAXX 14061 11244 16/// /0000 11012 21020 39824 40162 52006 60002 333 10031 21016 55300
AAXX 14061 11389 12650 80000 10007 20000 39813 40146 53001 60002 885// 333 10042 20007 3/101 55300
AAXX 14061 01033 46/// /1511 10042 21046 39773 49803 58017 333 20003 91115
AAXX 14061 01311 46/// /1813 10058 20038 39596 49655 53013 333 91123
AAXX 14061 01452 11380 72211 10053 20027 39761 49782 53007 60052 72998 879// 333 20018 70197 91122
AAXX 14061 01132 16/// /1506 10019 21020 39354 49730 53012 60012 333 21005 4/040 70011 91112
AAXX 14061 01203 46/// /1310 10047 20003 39554 49601 55020 333 20038 91124
AAXX 14061 01321 16/// /1703 10045 21026 39405 49647 55009 60002 333 20016 70000 91112
AAXX 14061 01361 16/// /0906 11030 21047 38681 49678 58019 60002 333 21035 70012 91112
AAXX 14061 01378 16/// /1205 10019 21002 39467 49751 50001 69952 333 20012 70110 91110
AAXX 14061 01422 16/// /2008 10060 20032 60052 333 20029 70085 91121
AAXX 14061 01477 16/// /1803 10026 20011 60002 333 21003 4/019 70218 91108
AAXX 14061 01495 16/// ///// 10047 20018 39788 49800 53008 60042 333 20036 70179 91124
AAXX 14061 01046 11889 81312 10012 21044 39838 49845 58007 60002 70322 8807/ 333 21021 44022 70000 91119
AAXX 14061 01344 16/// ///// 11002 21010 60082 333 21020 4/063 70157
AAXX 14064 78397 111570 13201 10255 20210 30113 40129 60001 70500 81802 333 00209 10318 20228 59005 81822
AAXX 14064 78397 111570 13201 10255 20210 30113 40129 60001 70500 81802 333 00209 10318 20228 59005 81822
AAXX 14061 76040 32902 01801 10082 20078 30162 40176 52022 90545 333 10115 20079 31/// 55000 58063 98602
AAXX 14061 76122 32535 42002 10102 20048 38504 40097 5//// 83520 90550 333 10180 20090 31/// 55039 56590 58002 83635
AAXX 14061 76225 32920 01802 10154 20029 38602 40058 52006 90535 333 10259 20148 30/// 55072 59008
AAXX 14061 76323 32950 61604 10162 21012 38291 40151 52020 80002 90540 333 10273 20120 30/// 55042 56005 58012 86268
AAXX 14061 76342 31430 82701 10142 20123 39490 40200 54000 70222 887// 90550 333 10180 20096 30/// 55012 20175 561// 59043 88710
AAXX 14061 76373 32910 00000 10095 20038 38227 40178 52018 90550 333 10240 20020 30/// 55068 21458 58027
AAXX 14061 76382 32960 30901 10170 20125 38888 40095 52004 80008 90550 333 10288 20130 30/// 55006 2//// 56008 59012 83270
AAXX 14061 76390 31950 13404 10165 20028 38241 40108 57005 70544 90530 333 10254 20090 30/// 55093 21360 56001 59005 81070
AAXX 14061 76393 31202 52201 10158 20142 39589 40164 57007 70411 85600 90545 333 10196 20110 30/// 55001 56500 59034 85706
AAXX 14061 76402 32550 50000 10156 20133 30135 40192 52012 85500 90545 333 10226 20168 30/// 55000 2//// 56500 58030 85628
AAXX 14061 76423 32960 02402 10142 20082 38168 40104 54000 90555 333 10270 20073 30/// 55069 21111 59010
AAXX 14061 76458 32960 13202 10202 20184 30161 40166 51002 80005 90546 333 10276 20148 30/// 55061 56//9 58004 81071
AAXX 14061 76525 32960 01907 10123 20054 37493 40115 52002 90540 333 10190 20105 30/// 55095 22773 59001
AAXX 14061 76539 32958 00901 10104 20089 38195 40186 52013 90550 333 10250 20050 30/// 55050 59010
AAXX 14061 76548 01560 81103 10228 20217 30202 40212 51004 69901 75052 8212/ 90540 333 10262 20180 30/// 55012 56330 59016 69907 82623 86456
AAXX 14061 76556 32960 01001 10163 20143 39133 40136 52005 90534 333 10272 20121 30/// 55094 58000
AAXX 14061 76571 32910 00000 10114 20071 38187 40139 54008 90550 333 10252 20060 30/// 55086 59003
AAXX 14061 76577 32960 00000 10134 20117 38068 40135 52009 90540 333 10256 20083 30/// 55068 58006
AAXX 14061 76581 32960 03001 10160 20129 39093 40184 52001 90550 333 10270 20138 30/// 55073 59022
AAXX 14061 76593 32950 00905 10228 20222 30205 40207 55001 90850 333 10277 20214 30/// 55096 21150 58/// 91006 91509
AAXX 14061 76634 31950 00201 10086 20079 37880 40171 57001 71040 90550 333 10228 20028 30/// 55095 21803 59006
AAXX 14061 76644 32350 10703 10220 20205 30196 40208 52009 81200 90550 333 10322 20210 30/// 55094 20874 561// 58007 81810
AAXX 14061 76654 31956 00301 10232 20156 30146 40150 52002 70544 90550 333 10308 20208 30/// 55093 21248 59018
AAXX 14061 76658 31956 00902 10186 20156 39642 40138 54003 70544 90544 333 10330 20170 30/// 55094 59029
AAXX 14061 76662 32690 00000 10128 20087 38482 40127 52006 90545 333 10285 20064 30/// 55085 21493 59004
AAXX 14061 76675 32960 01402 10036 21026 37405 40140 54001 90550 333 10225 21028 34/// 55100 2//// 58001
AAXX 14061 76680 31960 02002 10134 20014 37780 40131 52001 70500 90550 333 10254 20084 30/// 55091 21442 59000
AAXX 14061 76683 32965 00000 10083 20064 37860 40170 50006 90550 333 10243 20018 30/// 50341 55105 21948 58000
AAXX 14061 76685 32950 03601 10108 20077 37908 40149 52016 90550 333 10242 20052 30/// 55106 58004
AAXX 14061 76687 01/05 91801 10152 20144 38726 40206 50006 69901 75055 89/// 90535 333 10235 20100 31/// 55074 59006 69907
AAXX 14061 76692 31920 01201 10232 20217 30185 40204 50006 71044 90545 333 10274 20203 30/// 55033 59004
AAXX 14061 76695 32456 50302 10220 20208 30182 40188 50004 85500 90545 333 10302 20185 31/// 55078 562// 58001 85614
AAXX 14061 76737 31470 80000 10154 20138 38819 40195 52004 70222 886// 90535 333 10243 20148 30/// 55059 562// 59010 88713 91102 91532
AAXX 14061 76743 32930 00901 10226 20190 30181 40189 52006 90545 333 10280 20210 30/// 55047 59008
AAXX 14061 76775 31960 00301 10137 20075 38554 40167 52006 70200 90545 333 10275 20080 30/// 55082 58///
AAXX 14061 76833 32958 03608 10265 20168 30136 40138 52005 90545 333 10324 20232 30/// 55098 59009 92023
AAXX 14061 76843 32965 00201 10209 20176 39512 40149 57003 90530 333 10297 20160 30/// 55100 59032
AAXX 14061 76845 32330 20601 10106 20089 37974 40199 58001 82600 90545 333 10170 20082 30/// 55046 56200 58001 82708
AAXX 14061 76848 32450 43601 10133 20092 38402 40122 57002 84500 90550 333 10204 20120 30/// 55076 56100 59006 84617
AAXX 14061 76243 32365 81102 10162 20156 39878 40172 57021 887// 90530 333 10170 20073 31/// 55000 563// 59044 88709
AAXX 14061 76311 32620 70000 10192 20171 39894 40169 52011 87600 90555 333 10232 20167 30/// 55000 56400 58015 87625
AAXX 14061 76405 32840 51901 10202 20166 30155 40177 50003 85050 90550 333 10252 20199 30/// 55004 2//// 56050 58025 85357
AAXX 14061 76412 32960 02201 10182 20160 30144 40190 52001 90550 333 10290 20160 30/// 55075 58022
AAXX 14061 76640 21010 82201 10222 20219 30193 40205 52015 75055 8472/ 90545 333 10272 20172 31/// 55016 5699/ 59034 69907 84701 84440
AAXX 14061 76647 32965 00202 10210 20205 30179 40210 50000 90550 333 10314 20208 30/// 55084 58///
AAXX 14061 76741 31340 33602 10231 20212 30161 40179 51006 70544 83200 90535 333 10274 20205 30/// 55078 568// 59007 83810
AAXX 14061 76855 32980 03203 10232 20194 30081 40130 51005 90535 333 10335 20198 30/// 55103 59007 92000
AAXX 14061 01150 16/// /1404 10031 21034 60002 333 21073 70000 91114
AAXX 14061 01230 16/// /1005 10005 21051 60002 333 21007 4/023 70000 91114
AAXX 14061 01232 16/// /1506 10060 21050 39581 49657 58024 60002 333 20045 4/018 70000 91121
AAXX 14061 01254 16/// /1303 10037 21033 60002 333 20007 4/019 70002 91116
AAXX 14061 01291 16/// /1405 10031 21027 69972 333 20002 4/018 70007 91111
AAXX 14061 01386 16/// ///// 10023 20000 60002 333 20018 70031
AAXX 14061 01470 16/// /1605 10034 20013 39657 49768 53003 60002 333 20018 4/003 70101 91111
AAXX 14061 37682 32997 03301 11083 21111 38182 48581 54000 333 21145 7000/
AAXX 14061 37717 32599 60000 11084 21107 38128 48569 52001 81501 333 21096 7000/
AAXX 14061 37788 41495 60000 11032 21063 39332 40383 52008 71022 866// 333 21036 86713
AAXX 14061 33135 11294 81603 10027 20022 39998 40179 54000 69932 75152 886// 333 20017 88704
AAXX 14061 33317 11295 81803 10048 20046 39830 40168 52009 69902 71022 886// 333 20048 88705
AAXX 14061 33345 11195 81703 10039 20037 39979 40186 53001 69932 72842 886// 333 20025 88702
AAXX 14061 33393 32960 52005 10044 20017 39770 40164 52010 85030 333 21001
AAXX 14061 33506 NIL
AAXX 14061 33587 NIL
AAXX 14061 33631 31496 81103 10058 20039 30051 40196 52005 71022 885// 333 20050 88617
AAXX 14061 33663 NIL
AAXX 14061 33658 31/01 90000 10010 20010 39881 40187 52010 74544 333 20000
AAXX 14061 33711 11/91 91603 10029 20029 39998 40211 53004 69932 74565 333 20014
AAXX 14061 33791 31/09 91404 10024 20024 30062 40216 53002 74542 333 20013
AAXX 14061 33837 31319 82201 10069 20065 30146 40198 53010 71042 886// 333 20069 88707
AAXX 14061 33924 32597 71905 10102 20084 30196 40208 52005 82530 333 20085
AAXX 14061 33946 11350 81403 10086 20077 30001 40221 52006 60022 78082 8636/ 333 20075 86930
AAXX 14061 34300 11219 81304 11002 21008 30055 40253 54000 69902 75652 886// 333 21012 88704 93400
AAXX 14061 34504 11433 81503 10019 20014 30050 40233 52002 60032 71064 886// 333 21001 88711
AAXX 14061 34519 11125 81305 10004 21004 39973 40256 53003 69962 72465 886// 333 21014 88703
AAXX 14061 34601 11734 71403 10023 20011 30099 40238 52007 60022 71082 87500 333 20004
AAXX 14061 03953 11580 62509 10051 21025 39857 49893 53006 60022 78982 85902 333 20032 31000 55003 84920 83068 92448 90710 91122 96487
AAXX 14061 76040 32902 01801 10082 20078 30162 40176 52022 90545 333 10115 20079 31/// 55000 58063 98602
AAXX 14061 76122 32535 42002 10102 20048 38504 40097 5//// 83520 90550 333 10180 20090 31/// 55039 56590 58002 83635
AAXX 14061 76225 32920 01802 10154 20029 38602 40058 52006 90535 333 10259 20148 30/// 55072 59008
AAXX 14061 76323 32950 61604 10162 21012 38291 40151 52020 80002 90540 333 10273 20120 30/// 55042 56005 58012 86268
AAXX 14061 76342 31430 82701 10142 20123 39490 40200 54000 70222 887// 90550 333 10180 20096 30/// 55012 20175 561// 59043 88710
AAXX 14061 76373 32910 00000 10095 20038 38227 40178 52018 90550 333 10240 20020 30/// 55068 21458 58027
AAXX 14061 76382 32960 30901 10170 20125 38888 40095 52004 80008 90550 333 10288 20130 30/// 55006 2//// 56008 59012 83270
AAXX 14061 76390 31950 13404 10165 20028 38241 40108 57005 70544 90530 333 10254 20090 30/// 55093 21360 56001 59005 81070
AAXX 14061 76393 31202 52201 10158 20142 39589 40164 57007 70411 85600 90545 333 10196 20110 30/// 55001 56500 59034 85706
AAXX 14061 76402 32550 50000 10156 20133 30135 40192 52012 85500 90545 333 10226 20168 30/// 55000 2//// 56500 58030 85628
AAXX 14061 76423 32960 02402 10142 20082 38168 40104 54000 90555 333 10270 20073 30/// 55069 21111 59010
AAXX 14061 76458 32960 13202 10202 20184 30161 40166 51002 80005 90546 333 10276 20148 30/// 55061 56//9 58004 81071
AAXX 14061 76525 32960 01907 10123 20054 37493 40115 52002 90540 333 10190 20105 30/// 55095 22773 59001
AAXX 14061 76539 32958 00901 10104 20089 38195 40186 52013 90550 333 10250 20050 30/// 55050 59010
AAXX 14061 76548 01560 81103 10228 20217 30202 40212 51004 69901 75052 8212/ 90540 333 10262 20180 30/// 55012 56330 59016 69907 82623 86456
AAXX 14061 76556 32960 01001 10163 20143 39133 40136 52005 90534 333 10272 20121 30/// 55094 58000
AAXX 14061 76571 32910 00000 10114 20071 38187 40139 54008 90550 333 10252 20060 30/// 55086 59003
AAXX 14061 76577 32960 00000 10134 20117 38068 40135 52009 90540 333 10256 20083 30/// 55068 58006
AAXX 14061 76581 32960 03001 10160 20129 39093 40184 52001 90550 333 10270 20138 30/// 55073 59022
AAXX 14061 76593 32950 00905 10228 20222 30205 40207 55001 90850 333 10277 20214 30/// 55096 21150 58/// 91006 91509
AAXX 14061 76634 31950 00201 10086 20079 37880 40171 57001 71040 90550 333 10228 20028 30/// 55095 21803 59006
AAXX 14061 76644 32350 10703 10220 20205 30196 40208 52009 81200 90550 333 10322 20210 30/// 55094 20874 561// 58007 81810
AAXX 14061 76654 31956 00301 10232 20156 30146 40150 52002 70544 90550 333 10308 20208 30/// 55093 21248 59018
AAXX 14061 76658 31956 00902 10186 20156 39642 40138 54003 70544 90544 333 10330 20170 30/// 55094 59029
AAXX 14061 76662 32690 00000 10128 20087 38482 40127 52006 90545 333 10285 20064 30/// 55085 21493 59004
AAXX 14061 76675 32960 01402 10036 21026 37405 40140 54001 90550 333 10225 21028 34/// 55100 2//// 58001
AAXX 14061 76680 31960 02002 10134 20014 37780 40131 52001 70500 90550 333 10254 20084 30/// 55091 21442 59000
AAXX 14061 76683 32965 00000 10083 20064 37860 40170 50006 90550 333 10243 20018 30/// 50341 55105 21948 58000
AAXX 14061 76685 32950 03601 10108 20077 37908 40149 52016 90550 333 10242 20052 30/// 55106 58004
AAXX 14061 76687 01/05 91801 10152 20144 38726 40206 50006 69901 75055 89/// 90535 333 10235 20100 31/// 55074 59006 69907
AAXX 14061 76692 31920 01201 10232 20217 30185 40204 50006 71044 90545 333 10274 20203 30/// 55033 59004
AAXX 14061 76695 32456 50302 10220 20208 30182 40188 50004 85500 90545 333 10302 20185 31/// 55078 562// 58001 85614
AAXX 14061 76737 31470 80000 10154 20138 38819 40195 52004 70222 886// 90535 333 10243 20148 30/// 55059 562// 59010 88713 91102 91532
AAXX 14061 76743 32930 00901 10226 20190 30181 40189 52006 90545 333 10280 20210 30/// 55047 59008
AAXX 14061 76775 31960 00301 10137 20075 38554 40167 52006 70200 90545 333 10275 20080 30/// 55082 58///
AAXX 14061 76833 32958 03608 10265 20168 30136 40138 52005 90545 333 10324 20232 30/// 55098 59009 92023
AAXX 14061 76843 32965 00201 10209 20176 39512 40149 57003 90530 333 10297 20160 30/// 55100 59032
AAXX 14061 76845 32330 20601 10106 20089 37974 40199 58001 82600 90545 333 10170 20082 30/// 55046 56200 58001 82708
AAXX 14061 76848 32450 43601 10133 20092 38402 40122 57002 84500 90550 333 10204 20120 30/// 55076 56100 59006 84617
AAXX 14061 76243 32365 81102 10162 20156 39878 40172 57021 887// 90530 333 10170 20073 31/// 55000 563// 59044 88709
AAXX 14061 76311 32620 70000 10192 20171 39894 40169 52011 87600 90555 333 10232 20167 30/// 55000 56400 58015 87625
AAXX 14061 76405 32840 51901 10202 20166 30155 40177 50003 85050 90550 333 10252 20199 30/// 55004 2//// 56050 58025 85357
AAXX 14061 76412 32960 02201 10182 20160 30144 40190 52001 90550 333 10290 20160 30/// 55075 58022
AAXX 14061 76640 21010 82201 10222 20219 30193 40205 52015 75055 8472/ 90545 333 10272 20172 31/// 55016 5699/ 59034 69907 84701 84440
AAXX 14061 76647 32965 00202 10210 20205 30179 40210 50000 90550 333 10314 20208 30/// 55084 58///
AAXX 14061 76741 31340 33602 10231 20212 30161 40179 51006 70544 83200 90535 333 10274 20205 30/// 55078 568// 59007 83810
AAXX 14061 76855 32980 03203 10232 20194 30081 40130 51005 90535 333 10335 20198 30/// 55103 59007 92000
AAXX 14061 15015 01/91 90401 10048 20047 39588 42796 52005 60002 7474/ 333 10084 20047 31004 60007 70000 91001 91102
AAXX 14061 15020 01593 70902 10007 20007 39976 40180 52005 69902 74451 85570 333 10047 21002 31101 69907 79999 91003 91104
AAXX 14061 15090 01993 30701 10031 20031 30092 40187 51010 60002 74611 83040 333 10090 20021 30001 55300 10340 20004 3//// 60007 70000 91003 91103
AAXX 14061 15108 01/91 92704 11006 21006 38072 48488 54000 60002 74544 333 11001 21009 3//// 43006 60007 70000 92860
AAXX 14061 15120 01492 82601 10041 20041 39700 40203 52009 60002 74641 886// 333 10065 20023 30000 55300 10001 2//// 3//// 60007 70000 91002 91102
AAXX 14061 15150 01293 81801 10031 20031 39976 40194 52010 69922 74454 886// 333 10060 20031 31004 69927 70004 91003 91104
AAXX 14061 15170 01/92 91601 11012 21012 39413 42801 52002 60002 74742 333 10004 21012 31101 60007 70000 91002 91102
AAXX 14061 15200 01596 81901 10065 20065 30051 40197 53005 60002 72842 885// 333 10074 20062 31006 60007 70000 91002 91104 96010
AAXX 14061 15230 01996 72201 10040 20040 39907 40206 53007 60002 71011 87070 333 10104 20037 30001 55300 10092 20003 3//// 60007 70000 91002 91102
AAXX 14061 15260 02997 01201 11012 21012 39665 40219 53008 60002 333 10058 21020 34103 60007 70000 91002 91103 92600
AAXX 14061 15280 01998 00000 11052 21092 37497 47036 53004 60002 72841 333 11042 21062 3//// 48034 60007 70000 92815
AAXX 14061 15292 02998 00500 10032 20032 39903 40204 52007 60002 333 10088 20027 31000 60007 70000 91001 91103 95000
AAXX 14061 15310 01491 82102 10043 20043 30113 40201 52009 69922 72054 886// 333 10068 20043 31005 55300 10013 20000 3//// 69927 70002 91005 91105 96044
AAXX 14061 15335 01491 83101 10044 20044 30194 40201 52011 60002 7464/ 886// 333 10086 20043 31/// 60007 70000 91001 91102
AAXX 14061 15346 01/91 91401 10012 20012 39914 40213 53005 60002 74544 333 10055 20012 31003 60007 70000 91001 91102
AAXX 14061 15350 01593 82302 10031 20031 30081 40205 52012 60002 74444 886// 333 10067 20031 31003 60007 70000 91005 91105
AAXX 14061 15360 01492 83002 10048 20047 30183 40197 52009 60002 74422 886// 222// 06084 20000 333 10083 20048 3//// 60007 70002 91003 91104 92412
AAXX 14061 15410 01594 80000 10047 20045 30111 40209 53002 69912 71062 8802/ 333 10060 20047 31005 6///7 70001 91001 91101
AAXX 14061 15420 01/92 92403 10043 20042 30090 40204 52008 69922 74554 333 10059 20041 31004 55300 0//// 20000 3//// 69917 70002 91005 91106 96020
AAXX 14061 15450 01492 83101 10038 20038 39969 40209 53005 69922 75154 886// 333 10055 20038 31005 55300 10012 20000 3//// 69917 70002 91002 91102 96044
AAXX 14061 15460 01492 82403 10043 20043 30182 40207 52008 69932 74454 886// 333 10065 20043 31004 60007 70003 91005 91105
AAXX 14061 15470 01493 82602 10041 20041 30078 40207 52005 69912 7444/ 886// 333 10054 20039 31003 60007 70002 91003 91104
AAXX 14061 15480 01492 83004 10048 20048 30187 40206 52008 60002 74444 886// 222// 06070 2//// 333 10072 20046 31005 60007 70000 91007 91107 92412
AAXX 14061 76040 32902 01801 10082 20078 30162 40176 52022 90545 33310115 20079 31/// 55000 58063 98602
AAXX 14061 76122 32535 42002 10102 20048 38504 40097 5//// 83520 90550333 10180 20090 31/// 55039 56590 58002 83635
AAXX 14061 76225 32920 01802 10154 20029 38602 40058 52006 90535 33310259 20148 30/// 55072 59008
AAXX 14061 76323 32950 61604 10162 21012 38291 40151 52020 80002 90540333 10273 20120 30/// 55042 56005 58012 86268
AAXX 14061 76342 31430 82701 10142 20123 39490 40200 54000 70222 887//90550 333 10180 20096 30/// 55012 20175 561// 59043 88710
AAXX 14061 76373 32910 00000 10095 20038 38227 40178 52018 90550 33310240 20020 30/// 55068 21458 58027
AAXX 14061 76382 32960 30901 10170 20125 38888 40095 52004 80008 90550333 10288 20130 30/// 55006 2//// 56008 59012 83270
AAXX 14061 76390 31950 13404 10165 20028 38241 40108 57005 70544 90530333 10254 20090 30/// 55093 21360 56001 59005 81070
AAXX 14061 76393 31202 52201 10158 20142 39589 40164 57007 70411 8560090545 333 10196 20110 30/// 55001 56500 59034 85706
AAXX 14061 76402 32550 50000 10156 20133 30135 40192 52012 85500 90545333 10226 20168 30/// 55000 2//// 56500 58030 85628
AAXX 14061 76423 32960 02402 10142 20082 38168 40104 54000 90555 33310270 20073 30/// 55069 21111 59010
AAXX 14061 76458 32960 13202 10202 20184 30161 40166 51002 80005 90546333 10276 20148 30/// 55061 56//9 58004 81071
AAXX 14061 76525 32960 01907 10123 20054 37493 40115 52002 90540 33310190 20105 30/// 55095 22773 59001
AAXX 14061 76539 32958 00901 10104 20089 38195 40186 52013 90550 33310250 20050 30/// 55050 59010
AAXX 14061 76548 01560 81103 10228 20217 30202 40212 51004 69901 750528212/ 90540 333 10262 20180 30/// 55012 56330 59016 6990782623 86456
AAXX 14061 76556 32960 01001 10163 20143 39133 40136 52005 90534 33310272 20121 30/// 55094 58000
AAXX 14061 76571 32910 00000 10114 20071 38187 40139 54008 90550 33310252 20060 30/// 55086 59003
AAXX 14061 76577 32960 00000 10134 20117 38068 40135 52009 90540 33310256 20083 30/// 55068 58006
AAXX 14061 76581 32960 03001 10160 20129 39093 40184 52001 90550 33310270 20138 30/// 55073 59022
AAXX 14061 76593 32950 00905 10228 20222 30205 40207 55001 90850 33310277 20214 30/// 55096 21150 58/// 91006 91509
AAXX 14061 76634 31950 00201 10086 20079 37880 40171 57001 71040 90550333 10228 20028 30/// 55095 21803 59006
AAXX 14061 76644 32350 10703 10220 20205 30196 40208 52009 81200 90550333 10322 20210 30/// 55094 20874 561// 58007 81810
AAXX 14061 76654 31956 00301 10232 20156 30146 40150 52002 70544 90550333 10308 20208 30/// 55093 21248 59018
AAXX 14061 76658 31956 00902 10186 20156 39642 40138 54003 70544 90544333 10330 20170 30/// 55094 59029
AAXX 14061 76662 32690 00000 10128 20087 38482 40127 52006 90545 33310285 20064 30/// 55085 21493 59004
AAXX 14061 76675 32960 01402 10036 21026 37405 40140 54001 90550 33310225 21028 34/// 55100 2//// 58001
AAXX 14061 76680 31960 02002 10134 20014 37780 40131 52001 70500 90550333 10254 20084 30/// 55091 21442 59000
AAXX 14061 76683 32965 00000 10083 20064 37860 40170 50006 90550 33310243 20018 30/// 50341 55105 21948 58000
AAXX 14061 76685 32950 03601 10108 20077 37908 40149 52016 90550 33310242 20052 30/// 55106 58004
AAXX 14061 76687 01/05 91801 10152 20144 38726 40206 50006 69901 7505589/// 90535 333 10235 20100 31/// 55074 59006 69907
AAXX 14061 76692 31920 01201 10232 20217 30185 40204 50006 71044 90545333 10274 20203 30/// 55033 59004
AAXX 14061 76695 32456 50302 10220 20208 30182 40188 50004 85500 90545333 10302 20185 31/// 55078 562// 58001 85614
AAXX 14061 76737 31470 80000 10154 20138 38819 40195 52004 70222 886//90535 333 10243 20148 30/// 55059 562// 59010 88713 9110291532
AAXX 14061 76743 32930 00901 10226 20190 30181 40189 52006 90545 33310280 20210 30/// 55047 59008
AAXX 14061 76775 31960 00301 10137 20075 38554 40167 52006 70200 90545333 10275 20080 30/// 55082 58///
AAXX 14061 76833 32958 03608 10265 20168 30136 40138 52005 90545 33310324 20232 30/// 55098 59009 92023
AAXX 14061 76843 32965 00201 10209 20176 39512 40149 57003 90530 33310297 20160 30/// 55100 59032
AAXX 14061 76845 32330 20601 10106 20089 37974 40199 58001 82600 90545333 10170 20082 30/// 55046 56200 58001 82708
AAXX 14061 76848 32450 43601 10133 20092 38402 40122 57002 84500 90550333 10204 20120 30/// 55076 56100 59006 84617
AAXX 14061 76243 32365 81102 10162 20156 39878 40172 57021 887// 90530333 10170 20073 31/// 55000 563// 59044 88709
AAXX 14061 76311 32620 70000 10192 20171 39894 40169 52011 87600 90555333 10232 20167 30/// 55000 56400 58015 87625
AAXX 14061 76405 32840 51901 10202 20166 30155 40177 50003 85050 90550333 10252 20199 30/// 55004 2//// 56050 58025 85357
AAXX 14061 76412 32960 02201 10182 20160 30144 40190 52001 90550 33310290 20160 30/// 55075 58022
AAXX 14061 76640 21010 82201 10222 20219 30193 40205 52015 75055 8472/90545 333 10272 20172 31/// 55016 5699/ 59034 69907 8470184440
AAXX 14061 76647 32965 00202 10210 20205 30179 40210 50000 90550 33310314 20208 30/// 55084 58///
AAXX 14061 76741 31340 33602 10231 20212 30161 40179 51006 70544 8320090535 333 10274 20205 30/// 55078 568// 59007 83810
AAXX 14061 76855 32980 03203 10232 20194 30081 40130 51005 90535 33310335 20198 30/// 55103 59007 92000
AAXX 14064 48300 31562 20000 10246 20163 39828 40141 57027 70240 82100 333 58005
AAXX 14064 48327 32560 12203 10280 20158 39793 40145 57028 81200 333 59010
AAXX 14064 48331 31560 10000 10265 20159 39914 40143 57032 70140 81100 333 59001
AAXX 14064 48353 31650 41602 10260 20140 39853 40142 57027 70541 82230 333 59001
AAXX 14064 48356 31950 60902 10252 20153 39947 40144 57026 70522 86050 333 59009
AAXX 14064 48375 32960 00000 10285 20144 39898 40121 57024 333 58005
AAXX 14064 48378 31557 20104 10285 20174 30091 40143 57023 70500 81205 333 59002
AAXX 14064 48381 31559 83604 10260 20145 39926 40143 56025 70522 82556 333 59016
AAXX 14064 48407 31558 73304 10261 20169 39979 40121 57032 70522 81146 333 59012
AAXX 14064 48431 31959 60605 10270 20157 39922 40135 57029 70522 86035 333 59010
AAXX 14064 48456 NIL
AAXX 14064 48480 31558 70305 10275 20168 30107 40111 57020 70522 84856 333 59011
AAXX 14064 48500 31556 80000 10283 20197 30117 40123 57014 70522 8225/ 333 59004
AAXX 14064 48551 32560 20305 10295 20221 30108 40116 57010 82205 333 58001
AAXX 14064 48565 32560 50706 10322 20226 30089 40099 57011 82245 333 59010
AAXX 14064 48569 01460 70308 10285 20239 30067 40106 56012 69901 70362 83876 333 59005 69907 79999
AAXX 14064 48583 32560 60108 10294 20230 30097 40103 57009 82246 333 59006 70011
AAXX 14064 48310 31556 20000 10252 20153 39689 40144 57025 70540 82100 333 59004
AAXX 14064 48325 31665 20000 10270 20175 39888 40130 57036 70140 82500 333 58001
AAXX 14064 48329 31558 10000 10277 20158 39800 40136 57024 70500 81200 333 59003
AAXX 14064 48352 31956 60703 10265 20147 39948 40148 57024 70521 86030 333 59002
AAXX 14064 48357 31958 30702 10279 20159 39970 40138 57029 70510 82031 333 59016
AAXX 14064 48380 32960 00000 10286 20174 30048 40141 57025 333 59002
AAXX 14064 48383 31557 70305 10255 20156 39973 40133 57026 70522 85506 333 59009
AAXX 14064 48403 NIL
AAXX 14064 48405 32560 60304 10263 20166 39973 40136 57025 83536 333 59005
AAXX 14064 48420 31950 80604 10288 20168 30118 40123 57019 70522 86056 333 59009
AAXX 14064 48421 31957 20000 10310 20181 30013 40125 57031 70540 80005 333 59005
AAXX 14064 48425 31950 40508 10272 20175 30130 40140 57019 70521 82035 333 59003
AAXX 14064 48426 31559 60605 10302 20159 30118 40131 58024 70522 82256 333 59007
AAXX 14064 48429 31659 70408 10298 20134 30118 40125 57017 70522 82536 333 59008
AAXX 14064 48430 31559 50905 10302 20157 30116 40123 56017 70522 82245 333 59010
AAXX 14064 48450 31958 20805 10300 20132 30096 40129 57023 70500 80005 333 59010
AAXX 14064 48459 32962 70000 10284 20175 30121 40123 57017 87070 333 59005
AAXX 14064 48465 31558 50210 10290 20163 30119 40123 57020 70511 82506 333 59016
AAXX 14064 48550 32460 40605 10294 20227 30104 40111 57011 82845 333 59006
AAXX 14064 48552 31459 20407 10300 20224 30100 40106 57014 70510 82205 333 59008 70005
AAXX 14064 48566 32560 50809 10300 20219 30091 40099 57011 82145 333 59003
AAXX 14064 48568 32461 70504 10282 20226 30102 40110 57008 83856 333 59003
AAXX 14064 48302 31558 31104 10168 20136 38493 40125 57012 71011 82205 333 58001
AAXX 14064 48304 31558 20000 10255 20170 39684 40142 57024 70541 82100 333 59003
AAXX 14064 48334 31558 10000 10267 20167 39781 40141 57026 70500 81500 333 59001
AAXX 14064 48360 NIL
AAXX 14064 48372 31958 20000 10272 20183 30085 40143 57022 70500 80001 333 58005
AAXX 14064 48373 31958 20000 10280 20158 30074 40137 57028 70500 80001 333 58000
AAXX 14064 48386 31950 72803 10267 20175 30095 40139 57020 70522 86036 333 58008
AAXX 14064 48387 NIL
AAXX 14064 48408 31559 63502 10278 20179 39976 40124 57024 70522 82535 333 59009
AAXX 14064 48415 31958 70514 10300 20143 30115 40126 57025 70522 84055 333 59010
AAXX 14064 48433 31559 50404 10264 20164 39967 40133 57029 70511 82546 333 59012
AAXX 14064 48437 31958 70302 10270 20175 39930 40139 57021 70522 83036 333 59011
AAXX 14064 48440 31958 80906 10291 20170 30077 40126 57015 70510 86056 333 59002
AAXX 14064 48451 32961 60404 10270 20167 30127 40138 57021 80006 333 59006
AAXX 14064 48454 32960 70803 10302 20175 30116 40122 56021 81046 333 59011
AAXX 14064 48457 31530 70303 10263 20172 30113 40130 57014 70521 81136 333 59010
AAXX 14064 48463 31530 63610 10295 20175 30044 40136 58015 70522 82546 333 59006
AAXX 14064 48464 31557 83310 10285 20184 30106 40119 57019 70522 85556 333 59007
AAXX 14064 48479 31558 80202 10298 20155 30067 40118 57020 70522 83506 333 59011
AAXX 14064 48520 31559 50505 10298 20203 30100 40115 55014 70511 82506 333 59010
AAXX 14064 48554 31458 60514 10297 20236 30105 40109 57011 71022 82246 333 59003 70001
AAXX 14064 48563 32560 40404 10304 20212 30064 40100 57014 82245 333 59004
AAXX 14064 48571 32560 60404 10284 20225 30094 40105 57010 82846 333 59010
BBXX UFTA 14061 99851 71230 11996 80901 11298 21330 40048 52012 69972 77172 8802/ 555 48045
AAXX 14061 10004 46/60 /2116 10079 20053 39896 49896 58002 222// 00091 333 10093 20062 55019 55300 91127 91222
AAXX 14064 48307 32562 10000 10280 20148 39764 40141 57028 81100 333 58001
AAXX 14064 48324 NIL
AAXX 14064 48333 32562 13602 10264 20160 39845 40146 57026 81100 333 59001
AAXX 14064 48350 31658 62303 10258 20148 39843 40142 57028 70541 86500 333 58003
AAXX 14064 48355 NIL
AAXX 14064 48358 31958 50000 10255 20125 39964 40140 57028 70521 83035 333 59016
AAXX 14064 48384 NIL
AAXX 14064 48401 31958 20000 10280 20177 30048 40155 57012 70500 81045 333 58009
AAXX 14064 48404 31558 60206 10255 20168 39952 40131 57026 70522 83556 333 59008
AAXX 14064 48409 NIL
AAXX 14064 48419 31959 80407 10295 20158 30119 40127 56022 70522 80005 333 59014
AAXX 14064 48427 NIL
AAXX 14064 48435 31558 80910 10254 20147 39695 40133 57020 70522 885// 333 59004
AAXX 14064 48453 31959 80305 10305 20165 30115 40118 57023 70522 84036 333 59012
AAXX 14064 48458 31558 80000 10271 20164 30059 40140 57020 70522 885// 333 59006
AAXX 14064 48474 31958 83606 10294 20152 39999 40121 57022 70522 8807/ 333 59009
AAXX 14064 48481 NIL
AAXX 14064 48555 31457 60000 10288 20225 30092 40134 55014 71022 84106 333 58000
AAXX 14064 48556 32560 60305 10302 20226 30089 40105 57014 82106 333 59005
AAXX 14064 48557 31562 40402 10307 20227 30067 40102 57017 70341 82105 333 59004
AAXX 14064 48560 31558 70000 10292 20246 30104 40109 56007 71022 82875 333 59004 70002
AAXX 14064 48574 01560 80000 10283 20250 30078 40107 57006 69901 72122 86836 333 59001 69905 79999
AAXX 14064 48581 01558 80000 10268 20242 30070 40111 57010 60021 72162 82256 333 59001 60026 70178
AAXX 14061 01001 11430 80116 11014 21024 39852 49864 55007 69902 78582 8786/ 333 21014 42999 79999 91124
AAXX 14061 89061 379// 03206 10012 20003 39887 49894 52015 70070 333 91008 91111
AAXX 14064 91930 36/// ///// 10270 20215 555 69964
AAXX 14064 91943 36/// /0908 10269 20212 30140 40142 52017 333 20269 58000
AAXX 14064 48657 11471 70204 10308 20242 30070 40087 60001 70522 83932 333 81917 83819 86078
AAXX 14064 03008 16/// /2821 10061 20027 39497 49563 53034 60032 90550 333 20047 70030 90710 91131 91031
AAXX 14064 03010 46/// /2923 10078 20043 49609 51052 333 90710 91130
AAXX 14064 03014 46/// /2918 10067 20041 49561 53032 90550 333 8//// 90710 91125
AAXX 14064 03031 17558 /2728 10029 20005 39364 49680 52026 60092 781// 90550 333 20018 3/100 55/// 553// 20000 70268 81/24 85/30 90710 91138
AAXX 14064 03034 17668 /2718 10076 20028 39668 49680 51026 69942 723// 90550 333 20064 3/005 70112 81/31 90710 91127
AAXX 14064 03037 15677 /2811 10069 20013 39691 49712 53027 60012 90550 333 20049 3/003 70172 84/40 85/72 90710 91125
AAXX 14064 03039 46/// /2831 11001 21013 90550 333 21003 90710 91141 91041
AAXX 14064 03041 46/// /2532 11030 21030 90550 333 21038 90710 91143
AAXX 14064 03044 17556 /2827 10045 20030 39553 49649 52049 60062 762// 90550 333 20014 3/000 55/// 553// 20000 70060 86/23 85/32 90710 91140 91038
AAXX 14064 03047 17682 /2509 10046 21007 39426 49719 51029 60052 723// 90550 333 20030 3/000 55/// 553// 20000 70354 82/43
AAXX 14064 03062 15980 /2424 10054 21003 39653 49658 53029 60032 90550 333 20037 3/002 55/// 553// 20000 70054 8//99 90710 91135
AAXX 14064 03065 46/// /2655 11040 21044 90550 333 21042 90710 91175 91066
AAXX 14064 03068 12680 42525 10053 20001 39652 49660 53030 60042 81532 90550 333 20036 31001 70040 81640 84070 90710 91134
AAXX 14064 03072 46/// ///// 11022 21022 90550 333 21023 91000
AAXX 14064 03080 15980 /2513 10049 21005 39513 49678 52025 69942 90550 333 20036 3/001 70042 86/70 90710 91126
AAXX 14064 03088 15983 /2323 10028 20016 39538 49697 51040 60022 90550 333 20021 3/001 55/// 553// 20000 70020 83/63 85/68 90710 91138
AAXX 14064 03094 15776 /2419 10060 20004 39652 49657 52024 60042 90550 333 20034 3/003 70042 81/50 84/72 90710 91127
AAXX 14064 03105 17458 /2422 10059 20046 39741 49757 51020 60102 781// 90550 333 20038 3/001 70204 81/13 85/18 90710 91133 91032
AAXX 14064 03132 17580 /2428 10042 20009 39780 49793 53013 69902 781// 90550 333 20042 3/003 70002 84/20 83/26 85/50 90710 91140
AAXX 14064 03144 17784 /2316 10028 20013 39684 49726 51028 60312 723// 90550 333 20023 3/002 55/// 553// 20000 70364 82/56 87/61 90710 91126
AAXX 14064 03148 46/// /2714 11001 21001 90550 333 21008
AAXX 14064 03153 17460 /2429 10036 20006 39656 49791 53013 60022 761// 90550 333 20033 3/002 55/// 553// 20000 70020 85/18 87/28 90710 91151 91042
AAXX 14064 03155 16341 /2321 10014 20014 39472 49764 53023 60072 90550 333 20009 3/000 70082 88/08 90710 91138
AAXX 14064 03158 17460 /2326 10033 20012 39606 49740 52020 69922 761// 90550 333 20027 3/002 55/// 553// 20000 70002 85/18 85/50 90710 91139 91039
AAXX 14064 03210 16568 /2526 10043 20008 39663 49812 52008 69962 90550 333 20033 3/002 70006 83/22 86/29 90710 91137
AAXX 14064 03212 17535 /2810 10026 20010 39715 49812 50001 60142 762// 90550 333 20024 3/001 70150 87/23 90710 91133 91023
AAXX 14064 03214 15668 /2523 10058 20004 39808 49826 51001 69902 90550 333 20058 3/005 70006 81/32 87/67 90710 91135
AAXX 14064 03220 16473 ///// 10039 20023 39759 49793 51009 60172 90550 333 20032 3/003 70186 85/15 83/20
AAXX 14064 03224 17228 /2527 10006 20003 39445 49787 53007 60082 775// 90550 333 20002 3/000 70096 87/03 84/13 90710 91144 91038
AAXX 14064 03225 16565 /2423 10029 21013 39502 49803 58005 60102 90550 333 20014 3/000 55/// 553// 20000 70160 82/27 84/35 90710 91139 91036
AAXX 14064 03226 17678 /2517 10030 21012 39534 49805 57007 60062 723// 90550 333 20009 3/000 70094 84/40 90710 91133
AAXX 14064 03227 46/// /2548 11028 2//// 90550 333 21031 90710 91159
AAXX 14064 03230 16445 /2427 10023 20012 39511 49763 53016 60102 90550 333 20014 3/000 70148 81/13 85/16 85/37 90710 91149 91043
AAXX 14064 03238 17457 /2520 10017 20004 39604 49775 53015 69962 762// 90550 333 20017 3/001 70008 85/12 84/22 90710 91135 91035
AAXX 14064 03261 12670 72314 10042 21025 39784 49824 55004 69902 8122/ 90550 333 20038 31002 70010 81835 87468
AAXX 14064 03265 15672 /2218 10050 21012 39795 49825 50000 69902 90550 333 20046 3/003 70008 82/36 87/70 90710 91125
AAXX 14064 03266 12782 52216 10043 21028 39811 49828 57002 60002 81502 90550 333 20042 31003 70002 81656 85070 90710 91126 91026
AAXX 14064 03275 15971 /2423 10041 21019 39613 49801 53018 69902 90550 333 20030 3/002 70010 87/67 90710 91143 91035
AAXX 14064 03281 16/// /2325 10020 21015 60002 90550 333 20017 70012 90710 91137 91035
AAXX 14064 03903 16457 /2410 10016 20002 39757 49814 53010 60022 90550 333 20016 3/001 55/// 553// 20000 70026 83/10 85/50
AAXX 14064 03904 17463 /2313 10017 20005 39742 49801 53013 60212 761// 90550 333 20011 3/001 70272 87/16 84/50
AAXX 14064 03907 17350 /2320 10022 20011 39778 49785 52018 60172 782// 90550 333 20021 3/001 55000 55300 20000 70238 84/08 85/50 90710 91130
AAXX 14064 03911 16308 /2411 10005 20002 39533 49804 52017 60072 90550 333 20004 3/000 4/002 70098 88/07
AAXX 14064 03915 16359 /2009 10009 20009 39713 49790 53006 60082 90550 333 20009 3/000 70092 87/07 83/23
AAXX 14064 03916 16269 /2508 10015 20011 39594 49782 53016 60132 90550 333 20006 3/000 55/// 553// 20000 70190 88/05 91020
AAXX 14064 03923 17560 /2512 10015 21005 39617 49811 51009 69922 762// 90550 333 20013 3/000 70008 87/20 84/57 91023
AAXX 14064 03853 12770 52205 10038 20009 49920 60002 83831 90550 333 20021 32101 55027 55300 20000 70050 81850 85362
AAXX 14061 80001 32470 80606 10272 20240 30119 40120 8227/ 333 5620/ 58004 82816 88358
AAXX 14061 80002 NIL
AAXX 14061 80009 NIL
AAXX 14061 80022 31461 50000 10264 20250 30096 40098 70511 81431 333 56299 59009 81615 84357
AAXX 14061 80028 41460 30304 10268 20249 30069 40104 70585 82570 333 5619/ 58006 82610
AAXX 14061 80035 NIL
AAXX 14061 80036 NIL
AAXX 14061 80063 NIL
AAXX 14061 80084 NIL
AAXX 14061 80091 NIL
AAXX 14061 80094 NIL
AAXX 14061 80097 NIL
AAXX 14061 80099 NIL
AAXX 14061 80110 NIL
AAXX 14061 80112 01356 80000 10142 20137 37897 69951 75052 8457/ 333 56009 59002 69957 84608 85358
AAXX 14061 80139 NIL
AAXX 14061 80144 NIL
AAXX 14061 80149 NIL
AAXX 14061 80210 NIL
AAXX 14061 80211 NIL
AAXX 14061 80214 NIL
AAXX 14061 80222 41250 63002 10124 20116 37516 71052 81530 333 59003 81703 86360
AAXX 14061 80234 NIL
AAXX 14061 80241 NIL
AAXX 14061 80259 41560 63102 10208 20196 39052 71552 82870 333 5684/ 58003 82820 85458
AAXX 14061 80315 NIL
AAXX 14061 80342 NIL
AAXX 14061 80370 NIL
AAXX 14061 80398 NIL
AAXX 14064 03301 16573 /2518 10044 21009 39784 49856 53002 60002 90550 333 20041 70000 82/28 90710 91128
AAXX 14064 03305 15682 /2324 10041 21026 39598 49857 53003 60002 90550 333 20037 3/002 70004 85/34 83/64 90710 91141
AAXX 14064 03313 16980 /2407 10040 21024 39761 49854 58001 60002 90550 333 20031 3/101 70002 81/66
AAXX 14064 03316 15981 /2529 10060 21005 39837 49848 55005 60002 90550 333 20060 3/005 70000 8//99 90710 91137
AAXX 14064 03318 16/// /2425 10057 20008 60002 90550 333 20056 70004 90710 91136
AAXX 14064 03321 16781 /2006 10027 21003 39845 49857 57002 60002 90550 333 20007 3/103 55/// 553// 20000 70000 81/50
AAXX 14064 03330 15571 /2311 10009 21015 39509 49868 55005 60002 90550 333 20000 3/102 70010 81/24 85/66
AAXX 14064 03344 15976 /2215 10011 21029 39517 49833 53002 69902 90550 333 20009 3/100 79999 81/68 90710 91128
AAXX 14064 03346 16/// /2319 10016 21014 60002 90550 333 20015 3/100 70000 90710 91131
AAXX 14064 03348 17780 /2114 10027 20001 39749 49855 56008 69902 741// 90550 333 20018 3/101 55040 55300 20000 79999 83/50 84/68
AAXX 14064 03355 15980 /2216 10038 21019 39824 49835 57003 60002 90550 333 20038 3/002 55040 55300 20000 79999 8//99 90710 91125
AAXX 14064 03373 16975 /2115 10026 20001 39792 49861 53001 60002 90550 333 20019 3/001 70002 8//99
AAXX 14064 03379 12982 22217 10028 20001 39795 49871 55005 60002 81031 90550 333 20026 31001 70006 81360
AAXX 14064 03382 15985 /2217 10033 21001 39824 49832 55001 60002 90550 333 20028 3/001 55053 55300 20000 79999 8//99 90710 91129
AAXX 14064 03385 46980 /2018 10021 20005 39849 49859 55002 90550 333 20021 8//99
AAXX 14064 03391 12984 12111 10020 20001 39864 49872 55004 60002 80002 90550 333 20019 31000 70002 81075
AAXX 14064 03392 16974 /2112 10024 20010 39873 49876 55002 60002 90550 333 20023 3/001 70002 8//99
AAXX 14064 03405 16680 /2527 10055 20003 39754 49868 53003 60002 90550 333 20053 3/004 55/// 553// 20000 70000 83/30 90710 91138
AAXX 14064 03409 16/// /2217 10025 21002 69942 90550 333 20025 3/001 55003 55300 2//// 70018 90710 91134 91027
AAXX 14064 03410 16345 /2520 10006 20000 39435 49868 55003 69922 90550 333 20006 3/100 55/// 553// 20000 70022 85/07 83/28 90710 91137 91031
AAXX 14064 03469 15981 /2109 10020 20008 39876 49879 56007 60002 90550 333 20018 3/101 55/// 553// 20000 70008 8//99
AAXX 14064 03488 15983 /2213 10037 20010 39857 49882 56010 60002 90550 333 20034 70010 84/70
AAXX 14064 03503 17580 /2207 10041 20008 39807 49883 55002 60022 723// 90550 333 20019 3/101 70022 83/21
AAXX 14064 03507 17366 /2314 10009 20002 39528 49899 53001 69902 786// 90550 333 20004 3/102 70006 85/07
AAXX 14064 03520 16980 /2515 10039 21006 39760 49880 56011 60002 90550 333 20010 3/101 55/// 553// 20000 70012 87/63
AAXX 14064 03522 15984 /2206 10046 21012 39796 49888 56012 69902 90550 333 20023 3/101 70006 87/59 91016
AAXX 14064 03529 15982 /2110 10037 20018 39852 49895 55008 60012 90550 333 20027 3/001 70014 81/59 87/66
AAXX 14064 03544 15581 /2006 10029 20018 39759 49889 55007 69922 90550 333 20016 3/000 55/// 553// 20000 70002 81/27 87/62
AAXX 14064 03560 15980 /2210 10033 20013 39787 49890 56010 69942 90550 333 20023 3/001 55/// 553// 20000 70012 81/65
AAXX 14064 03604 16685 /2721 10062 20014 39837 49890 55001 60012 90550 333 20039 3/002 70044 85/33 83/69 90710 91132 91032
AAXX 14064 03605 16965 /2716 10058 20025 39890 49898 53001 60052 90550 333 20045 70062 87/62 90710 91129
AAXX 14064 03609 16/// /2519 10057 20022 39848 49900 55000 60022 90550 333 20049 3/002 70070 90710 91146
AAXX 14064 03628 17465 /3005 10042 20025 39837 49908 53004 60022 781// 90550 333 20024 3/001 55015 55300 20000 70092 82/11 85/24
AAXX 14064 03647 16566 /2412 10018 20013 39646 49901 55006 60032 90550 333 20010 3/100 55/// 553// 20000 70080 84/27 83/69
AAXX 14064 03658 12981 71905 10023 20004 39837 49907 55010 69942 84021 90550 333 20012 3/101 70046 84464 87070
AAXX 14064 03660 15983 /2406 10029 20011 39662 49909 55009 69942 90550 333 20024 3/101 70044 8//99
AAXX 14064 03672 13982 52202 10035 20004 39871 49911 55005 60002 81031 90550 333 20034 31101 70006 81362 85070
AAXX 14064 03684 15981 /2208 10036 20013 39796 49902 55011 69902 90550 333 20030 3/001 70026 81/64 83/70
AAXX 14064 03693 16981 /2210 10055 20020 39905 49908 56014 60002 90550 333 20052 3/004 70002 84/64
AAXX 14064 03707 17783 /2425 10054 20003 39910 49918 53006 60102 781// 90550 333 20028 3/002 70162 87/50 90710 91139
AAXX 14064 03710 16974 /2411 10017 20017 39497 49916 55000 60062 90550 333 20008 3/000 55/// 553// 2//// 70104 86/59
AAXX 14064 03743 16983 /2204 10026 20010 39755 49916 55006 60002 90550 333 20021 3/001 70012 87/62
AAXX 14064 03749 13983 82207 10030 20011 39804 49914 55010 69942 8807/ 90550 333 20019 31000 70014 83360 88466
AAXX 14064 03761 12783 72313 10034 20015 39768 49912 55011 69902 81531 90550 333 20026 31001 55039 55300 20000 70006 81656 83365 87070
AAXX 14064 03768 16967 /2311 10039 20013 39834 49913 55009 60002 90550 333 20029 3/001 70008 81/68
AAXX 14064 03769 15984 /2106 10026 20020 39835 49917 55011 69902 90550 333 20025 3/101 55045 55300 20000 70004 85/72
AAXX 14064 03770 16/// ///// 10047 20017 60002 90550 333 20045 3/101 70002
AAXX 14064 03781 15984 /1909 10023 20015 39709 49916 55007 69942 90550 333 20022 3/000 55/// 553// 20000 70012 8//99
AAXX 14064 03797 17984 /2009 10039 20024 39858 49918 57011 69922 723// 90550 333 20038 3/001 55037 55300 20000 70024 87/63
AAXX 14064 03823 17982 /2609 10016 21001 39685 49929 50001 60032 741// 90550 333 20016 3/100 55/// 553// 20000 70082 81/60 84/65 90710 91135
AAXX 14064 03839 16/// ///// 10033 20012 69942 90550 333 20016 55/// 553// 20000 70076
AAXX 14064 03857 15573 /2724 10081 20036 39860 49923 55003 60042 90550 333 20053 3/003 70046 81/26 87/62 90710 91132
AAXX 14064 03862 15981 /2306 10040 20027 39908 49920 55006 60042 90550 333 20019 3/101 55031 55300 20000 70054 87/61 85/67
AAXX 14064 03866 16/// /2620 10087 20039 39898 49922 55010 60082 90550 333 20043 3/002 70086 90710 91127
AAXX 14064 03872 15982 /2310 10063 20046 39916 49921 55012 60072 90550 333 20031 3/100 55/// 553// 20000 70076 82/62
AAXX 14064 03876 16/// /2306 10039 20035 39921 49923 55014 60072 90550 333 20014 70072
AAXX 14064 03895 41481 72617 10075 20045 49958 53005 72586 8597/ 333 20044 82918 84645 87360 90710 91133
BBXX DGWD2 14063 99344 10223 41/98 32706 10175 20132 40205 57002 70100 8134/ 22224 00180 2//01 80149
BBXX PGRQ 14064 99364 10163 41/98 13006 10170 2//// 40240 54000 7//// 81100 22232 00192 20803 399// 40902
BBXX PCIH 14063 99377 70116 41297 83511 10165 20149 40225 58015 76262 22284 00200 20202 334// 40907 80155
BBXX UGGA 14061 99691 10408 41/98 92114 10030 40002 57010 70222 89/// 22221 20807
BBXX A8PX4 14064 99361 10156 41498 13413 10165 20088 40236 52010 70200 81100 22264 00182 2//// 80122
BBXX PHJV 14063 99104 31450 41398 31313 10285 20262 40037 57026 70211 83144 22283 06304 20201 80268
BBXX PCBU 14064 99008 31073 41698 33512 10325 20244 40090 57010 70100 82181 22233 02307 20602 336// 40802 80265
BBXX PCDE 14063 99399 30966 41597 30901 10180 20148 40220 51020 7//// 83593 22223 20701 30000 80160
BBXX PCCL 14063 99275 31555 41/98 21215 10265 40112 58007 70200 81102 22222 04240 20402 316// 41004
AAXX 14061 26554 31357 81805 10045 20028 39920 40082 56005 71022 886// 333 20016 88709 555 90011 95300
AAXX 14061 26666 11225 81704 10028 20020 39903 40118 57005 69912 76165 8872/ 333 20017 88703 555 90012 95300
AAXX 14061 26850 11357 82002 10047 20033 39840 40112 57002 69902 71054 885// 333 20026 88707 555 90010 95300
AAXX 14061 26863 11/06 91704 10025 20025 39897 40135 58002 69942 74754 333 20022
AAXX 14061 26941 31459 82103 10046 20036 39877 40115 53005 71022 887// 333 20025 555 90010
AAXX 14061 26951 31458 82105 10056 20049 39927 40126 53004 71042 886// 333 20038 88716 555 90011
AAXX 14061 33008 32962 72002 10048 20019 39938 40116 53009 87030 333 20032 555 90010
AAXX 14061 33019 31937 31201 10018 20013 39958 40135 52007 71011 82031 333 20016 555 90010
AAXX 14061 33036 11/08 91803 10048 20048 39925 40157 53006 69902 74354 333 20041 89/01 555 90010 95300
AAXX 14061 33041 11122 81703 10028 20025 30013 40170 53003 69972 71065 886// 333 20017 88703 555 90011 95300
BBXX 44022 14061 99409 70737 46/// ///05 10051 21002 40282 54000 90600 22200 00090 333 91206 555 11051 22051
BBXX 41041 14061 99142 70460 46/// /1010 10260 20216 40117 58017 90550 22200 00266 10906 20804 3//// 40904 70028 333 91211 555 11102 22108 30458 40913 60549 101095 095094 090096 092096 092102 098109 80912 90458
BBXX PFRO 14064 99227 70734 41497 60435 10250 20220 40153 7//22 86200 22234 20408 308// 40408 80230
BBXX KAOU 14064 99078 10984 43/// /0312 10278 20215 40096 5//// 7//// 8//// 222// 04292 2//// 3//// 4//// 5//// 6//// 8//// ICE /////
BBXX NWS0003 14064 99579 71684 43/// /1123 10024 20014 49888 5//// 7//// 8//// 222// 04032 2//// 3//// 4//// 5//// 6//// 8//// ICE /////
BBXX NWS0029 14064 99196 70327 43/// /0822 10236 20165 40173 5//// 7//// 8//// 222// 04251 2//// 3//// 4//// 5//// 6//// 8//// ICE /////
BBXX WBN3015 14064 99273 70706 41/// /3622 10222 2//// 40159 52003 7//// 8//// 22272 0//// 20707 33603 41006 50702 6//// 8//// ICE /////
BBXX NWS0020 14064 99365 10147 43/// /3111 10158 20107 40236 5//// 7//// 8//// 222// 04201 2//// 3//// 4//// 5//// 6//// 8//// ICE /////
BBXX C6FR6 14064 99169 10409 41/// /1516 10280 2//// 40170 5//// 7//// 8//// 22233 0//// 2//// 3//// 4//// 5//// 6//// 8//// ICE /////
BBXX WUR8857 14064 99470 70914 41/// /0000 11177 2//// 40000 5//// 70200 8//// 222// 01178 2//00 3//// 4//// 5//// 6//// 8//// ICE /////
BBXX C6VV8 14063 99202 70705 41/// /0315 10250 2022/ 40140 5/010 7//// 8//// 222// 0//// 2//// 3//// 4//// 5//// 6//// 80230 ICE /////
BBXX C6XC2 14064 99033 11243 41498 73408 10280 20253 40060 57040 70222 8627/ 22241 00300 20301 3//// 4//// 5//// 6//// 80260 ICE /////
BBXX WQZ9670 14064 99470 70855 43/98 /1413 10050 2//// 40247 5//// 7//// 8//// 22223 0//// 2//02 3//// 4//// 5//// 6//// 8//// ICE /////
BBXX PBWQ 14064 99251 70685 41498 40325 10258 20208 40139 58005 70300 842// 22234 00278 20402
BBXX WKAU 14064 99555 70376 41598 52836 10030 2003/ 49980 52030 7//62 85/// 22263 00070 21212 329// 4//// 5//// 6//// 80030 ICE /////
BBXX 51205 14061 99210 71564 46/// ///// 1//// 90548 22200 00242 11005 21005 307// 41102 70026
BBXX 46238 14061 99334 71195 46/// ///// 1//// 90550 22200 00150 11303 21003 326// 41302 70016
BBXX 46053 14061 99342 71198 46/// /3203 10135 40177 51017 90550 22200 00136 11202 20301 326// 41202 70011 333 91204 555 11035 22036 30450 43007 60549 317033 300034 308037 312045 298051 294057
AAXX 14064 68383 36/// /0000 10281 20205 39861 48544 52003 333 20235 91000 555 10346 91010
AAXX 14064 68379 36/// /3307 10293 20216 39778 48542 52002 333 20235 91017 555 10367 91010
AAXX 14064 68299 16/// /0204 10212 20149 38909 48506 53003 69924 333 20155 91008 555 10238 20002 91016
BBXX 51003 14061 99193 71606 46/// /0704 10250 40166 53023 90550 22200 00260 11003 20401 3//// 41003 70016 333 91205 555 11043 22044 30503 40706 60549 071041 071043 076043 075048 072051 072046
AAXX 14064 70026 NIL
AAXX 14064 70133 NIL
AAXX 14064 70174 NIL
AAXX 14064 70200 NIL
AAXX 14064 70219 NIL
AAXX 14064 70231 NIL
AAXX 14064 70261 NIL
AAXX 14064 70267 NIL
AAXX 14064 70271 NIL
AAXX 14064 70273 NIL
AAXX 14064 70308 NIL
AAXX 14064 70316 NIL
AAXX 14064 70326 NIL
AAXX 14064 70340 NIL
AAXX 14064 70350 NIL
AAXX 14064 70361 NIL
AAXX 14064 70381 NIL
AAXX 14064 70398 NIL
AAXX 14064 70414 NIL
AAXX 14064 78583 32470 73604 10225 20215 40179 60001 87800 333 01100 59005 83817 86640
AAXX 14064 78762 12970 71005 10206 20167 39095 40111 56008 60021 840770 333 10250 20207 31/// 56/2/ 58004 83458 85368
AAXX 14064 78948 11576 40508 10256 20233 30100 40108 60001 71511 84200 333 02200 10307 20254 59008 84822
BBXX VQKZ5 14063 99109 50796 41998 21618 10211 20165 40135 54000 70200 80001 22244 02228 20302 317// 40302 5//// 80183
BBXX 5BDK2 14064 99013 50809 41498 32013 10230 2022/ 40170 54000 70110 82485 22283 00260 21402 3//// 41102 5//// 6//// 80220 ICE /////
BBXX A8DE3 14064 99240 50743 41/98 81608 10175 20143 40213 52003 70222 8/4// 22283 00190 2//// 80155
BBXX TBWUK50 14063 99188 10697 41497 30715 10270 20226 40148 50005 70311 82144 22234 04280 21002 80240
BBXX BATFR55 14064 99155 30532 44598 62016 10279 20262 40100 70322 84142 22232 00280 207// 30000 411// 511//
BBXX OVYB2 14061 99060 10683 41498 61503 10282 20236 40146 54000 70322 83264 22244 00310 20301 30000 4//// 5//// 80250
BBXX BATEU00 14064 99584 30211 46/// /3119 11015 21016 49988 56012 22243
BBXX BATFR19 14064 99039 30092 46/// /1717 10254 20220 40111 53009 22242 00254
BBXX C6FR6 14064 99169 10409 41/// /1516 10280 2//// 40170 5//// 7//// 8//// 22233 0//// 2//// 3//// 4//// 5//// 6//// 8//// ICE /////
BBXX ONAI 14064 99065 50343 41598 41118 10260 2023/ 40090 56015 70311 84240 22244 00281 2//// 3//// 4//// 5//// 6//// 80240 ICE /////
BBXX C6VF5 14064 99261 10536 41997 01405 10230 2017/ 40200 5//// 70500 8/000 22214 00250 2//// 3//// 4//// 5//// 6//// 80190 ICE /////
BBXX DQXQ 14064 99312 11256 41998 00218 10160 20066 40220 56010 70200 80000 22214 00180 20302 305// 40503 80110
BBXX SHIP 14063 99104 11273 41498 70716 10280 2024/ 40110 54000 70322 8728/ 22283 00300 20102 306// 40304 5//// 6//// 80250 ICE /////
BBXX C6SI6 14064 99347 11385 46/// /2109 10143 20069 40185 56020 7//// 8//// 22242 0//// 2////
BBXX 46070 14061 99551 11753 46/// /0208 10027 20020 49676 54000 90550 22200 00042 11113 20806 3//// 41111 70063 333 91210 555 11088 22093 30520 40312 60549 018084 018090 015092 019084 011075 002074 80210 90520
BBXX 4XFV 14063 99495 11529 41197 82842 00/// 11045 21065 40055 52025 77272 88923 22253 0//// 20408 330// 40610 5//// 6//// 81050
BBXX UFTA 14061 99851 71230 11996 80901 11298 21330 40048 52012 69972 77172 8802/ 555 48045
BBXX ICGU 14064 99177 70660 41797 30421 10260 20202 40160 54/// 70311 83/8/ 22215 04260 21001 31010 41202 51502 6//// 85220 ICE /////
BBXX 46224 14061 99332 71175 46/// ///// 1//// 90536 22200 00154 11302 21001 322// 41301 70008
BBXX 46214 14061 99379 71235 46/// ///// 1//// 90555 22200 00117 10803 20803 324// 41302 70016
BBXX 44098 14061 99428 70702 46/// ///// 1//// 90537 22200 00092 11002 21002 313// 41101 70012
BBXX 44099 14061 99369 70757 46/// ///// 1//// 90552 22200 00126 11203 21002 310// 41201 70013
BBXX 41112 14061 99307 70813 46/// ///// 1//// 90551 22200 00165 10903 20902 311// 41101 70013
BBXX 41115 14061 99184 70673 46/// ///// 1//// 90535 22200 11003 21002 336// 41101 70013
BBXX 41114 14061 99276 70802 46/// ///// 1//// 90546 22200 00230 10904 20904 307// 41102 70020
BBXX 41113 14061 99284 70805 46/// ///// 1//// 90551 22200 00224 11103 20902 310// 41101 70013
BBXX 42099 14061 99273 70842 46/// ///// 1//// 90557 22200 00233 10603 20603 70016
BBXX 44100 14061 99363 70756 46/// ///// 1//// 90552 22200 00133 11104 20603 311// 41101 70019
BBXX 41110 14061 99341 70777 46/// ///// 1//// 90551 22200 00141 11102 21002 311// 41101 70009
BBXX 46218 14061 99345 71208 46/// ///// 1//// 90602 22200 00140 11105 21003 331// 41103 70023
BBXX 46225 14061 99329 71174 46/// ///// 1//// 90544 22200 00155 11202 21001 327// 41201 70010
BBXX 46237 14061 99378 71226 46/// ///// 1//// 90540 22200 00112 11302 20802 325// 41301 70010
BBXX 46213 14061 99403 71247 46/// ///// 1//// 90554 22200 00100 11503 20702 329// 41502 70015
BBXX 46215 14061 99352 71209 46/// ///// 1//// 90538 22200 00158 11103 21002 329// 41101 70013
BBXX 46249 14061 99338 71197 46/// ///// 1//// 90545 22200 00142 11302 21002 321// 41301 70010
BBXX 46229 14061 99438 71246 46/// ///// 1//// 90551 22200 00102 11403 20902 330// 41402 70015
BBXX 46248 14061 99461 71247 46/// ///// 1//// 90534 22200 00087 11404 20802 329// 41404 70022
BBXX 46247 14061 99378 71228 46/// ///// 1//// 90551 22200 00113 10903 20902 321// 41401 70013
BBXX 46232 14061 99325 71174 46/// ///// 1//// 90538 22200 00148 11303 21002 327// 41302 70014
BBXX 44172 14061 99445 70634 46/// ///// 1//// 90601 22200 00067 11102 21002 317// 41101 70010
BBXX 44060 14061 99413 70721 46/// ///03 10038 40272 50000 90600 22200 00109 333 91204 555 11031 22031
BBXX 44008 14061 99405 70692 46/// /0209 10087 20046 40232 53004 90550 22200 00117 10604 20603 312// 41002 70019 333 91211 555 11093 22098 30515 43613 60549 017089 021089 015097 017100 019099 024099
BBXX 44039 14061 99411 70727 46/// /3505 10060 21006 40284 54000 90600 22200 00103 1//00 70002 333 91206
BBXX 46042 14061 99368 71224 46/// /3605 10113 40199 53014 90550 22200 00116 10903 20401 330// 40903 70016 333 91206 555 11054 22057 30524 43507 60549 355050 354054 356056 355054 351055 349058
BBXX 46089 14061 99459 71258 46/// /0403 10073 20013 40200 51015 90550 22200 00095 11305 20401 330// 41305 70024 333 91204 555 11033 22034 30526 40504 60549 037032 049030 035031 034031 033030 030033
BBXX 46061 14061 99602 71468 46/// /1008 10022 40066 52003 90550 22200 00063 10803 20602 300// 40802 70013 333 91209 555 11084 22088 30526 40910 60549 097079 098078 096084 100077 104064 109069
BBXX 46083 14061 99582 71380 46/// /1709 10038 20000 40124 54000 90550 22200 00062 11206 20804 300// 41204 70028 333 91211 555 11095 22102 30543 41711 60549 168090 176075 163062 197037 231026 161049 81709 90542
BBXX WBDS 14063 99361 70129 43498 42913 10170 2014/ 40268 5//// 7//// 8416/ 22264 00189 20302 332// 41206 5//// 6//// 80150 ICE /////
BBXX DBBH 14061 99405 70106 41598 82910 10150 20096 40218 52016 70182 83807 22242 04166
BBXX 62087 14061 99547 10068 46/// /0605 10085 20024 4//// 5//// 22220 00090
BBXX DBBI 14061 99536 10086 46/// /1908 10051 20040 49948 57004 22210 00053
BBXX VRYO3 14064 99493 70105 46/// /2620 10060 20069 49970 55006 7//// 8//// 22224 00129 2////
BBXX WDF6832 14063 99360 70219 41498 83511 10170 2014/ 40310 52020 70222 884// 22265 0//// 20203 332// 40807 5//// 6//// 80150 ICE /////
BBXX DBBA 14061 99536 10086 46/// /1807 10052 20026 49947 57004 22220 00051
BBXX WDE8264 14063 99375 10099 41298 33205 10160 20144 40240 54000 70200 8283/ 22224 00190 20202 332// 40402 5//// 6//// 80150 ICE /////
BBXX 51101 14061 99243 71621 46/// /1207 10239 20201 40181 52013 90550 22200 00242 11105 20502 310// 41104 70023 333 91209 555 11077 22081 30452 41109 60549 115073 107072 106070 112064 113066 109068
BBXX 41046 14061 99238 70683 46/// /0211 10245 20199 40142 57006 90550 22200 00261 10906 20605 300// 40903 70029 333 91213 555 11112 22118 30512 40313 60549 018103 015098 024094 033103 025103 021101 80312 90514
BBXX 44011 14061 99411 70666 46/// /0209 10084 20044 40207 58005 90550 22200 00099 10904 20503 3//// 40903 70018 333 91210 555 11092 22097 30528 41912 60549 017086 008086 011091 014093 012091 012089
BBXX 42363 14061 99282 70892 46/// /0914 10206 20161 40261 58010 90600 333 91214
BBXX 42362 14061 99278 70907 46/// /0911 10217 20167 40247 58011 90600
BBXX 42364 14061 99291 70881 46/// /0808 10200 20156 40264 58011 90600
BBXX VRZT9 14063 99252 70895 41698 61513 10230 2020/ 40230 54000 7//22 86949 22233 0//// 20501 312// 40501 5//// 6//// 80210 ICE /////
BBXX CGDT 14064 99490 70669 46/// /1003 11041 21053 40309 56001 7//// 8//// 22200 0//// 2////
BBXX VXKF 14064 99467 70598 46/// /0627 10017 20005 40208 56013 7//// 8//// 22212 0//// 2////
BBXX VOKJ 14064 99486 70687 46/// /0210 11024 21059 40309 58005 7//// 8//// 22254 0//// 2////
BBXX CGCC 14064 99460 70731 46/// /0102 10002 20001 40290 53003 7//// 8//// 22200 0//// 2////
BBXX CGJK 14064 99484 71234 46/// /0202 10047 20018 40196 53013 7//// 8//// 22200 0//// 2////
BBXX VAAZ 14064 99544 70531 46/// /2922 11053 21093 40190 51007 7//// 8//// 22271 0//// 2////
BBXX 41009 14061 99285 70802 46/// /0610 10233 20170 40247 58005 90550 22200 00249 10906 20704 300// 40904 70029 333 91212 555 11107 22114
BBXX 42057 14061 99168 70815 46/// /0409 10275 20217 40147 58006 90550 22200 00281 10704 20704 70019 333 91211 555 11093 22098 30458 40413 60549 043094 047101 051102 052104 050103 045105 80612 90511
BBXX 41010 14061 99289 70785 46/// /0510 10217 40248 54000 90550 22200 00240 11106 20804 300// 41103 70028 333 91212 555 11104 22110
BBXX 3FBC9 14064 99238 71447 41797 60921 10200 40200 51010 70222 85165 9//// 22223 00230 20306 309// 41208 5//// 6//// 80180
BBXX KGTX 14063 99549 71410 41798 81930 10056 2000/ 40098 56004 70222 8856/ 22234 00061 20806 325// 41405 5//// 6//// 80033 ICE /////
BBXX C6JT 14063 99443 70515 41/98 81419 10055 2002/ 40185 56015 70322 8//// 22215 2//// 3//// 4//// 80040
BBXX PHBO 14063 99217 70517 41598 31125 10255 20205 40135 58026 70100 82105 22254 20604 311// 41506 80222
BBXX PBWQ 14064 99251 70685 41498 40325 10258 20208 40139 58005 70300 842// 22234 00278 20402
BBXX VREX8 14064 99326 71674 41496 41119 10180 2016/ 40180 56020 7//22 842// 22254 0//// 20506 311// 4//// 5//// 6//// 80170 ICE /////
BBXX C6QK 14063 99317 70591 41597 52625 10220 2019/ 40050 56030 70322 82132 22254 40504 80200
BBXX WKAU 14064 99555 70376 41598 52836 10030 2003/ 49980 52030 7//62 85/// 22263 00070 21212 329// 4//// 5//// 6//// 80030 ICE /////
BBXX VCXF 14064 99464 70484 41598 81207 10031 2001/ 40219 57021 70222 885// 22200 02030 20300 334// 40805 80021
BBXX CGJV 14064 99446 70627 46/// /0220 10041 20021 40215 56006 7//// 8//// 22252 00072 2////
BBXX CGBN 14064 99447 70636 46/// /3214 10020 20002 40214 58005 7//// 8//// 22200 0//// 2////
BBXX CGDG 14064 99447 70636 46/// /3408 10015 20028 40231 58003 7//// 8//// 22200 0//// 2////
BBXX CG2958 14064 99488 71230 46/// /1504 10057 21001 40205 53011 7//// 8//// 22241 0//// 2////
BBXX VCLM 14064 99621 70747 46/// /2213 11056 21087 49908 51020 7//// 8//// 22200 0//// 2////
BBXX CGSB 14064 99468 70712 46/// /0410 10003 21014 40298 54000 7//// 8//// 22200 0//// 2////
BBXX CGDX 14064 99468 70712 46/// /0412 10006 21012 40297 54000 7//// 8//// 22200 0//// 2////
BBXX VOPP 14064 99456 70735 46/// /0303 10005 20006 4//// 5//// 7//// 8//// 22200 0//// 2////
BBXX CGDR 14064 99505 71277 46/// /0705 10049 20048 40172 51006 7//// 8//// 22200 0//// 2////
BBXX VAAP 14064 99446 70625 46/// /0121 10039 20023 40203 56008 7//// 8//// 22252 0//// 2////
BBXX 3FZK3 14064 99537 71766 46/// /2321 10021 20004 49684 51061 7//// 8//// 22223 0//// 2////
BBXX CZ9742 14064 99506 70969 46/// /1810 11030 21032 40155 56018 7//// 8//// 22200 0//// 2////
BBXX VCSZ 14064 99467 70716 46/// /0807 10006 20006 40287 51004 7//// 8//// 22213 0//// 2////
BBXX VCBW 14064 99502 70607 46/// /3509 11137 21167 40298 55003 7//// 8//// 22200 0//// 2////
BBXX VCWL 14064 99466 70719 46/// /0706 10005 21007 40298 51001 7//// 8//// 22262 00043 2////
BBXX CGTF 14064 99476 70527 46/// /2902 11026 21064 40258 53004 7//// 8//// 22200 0//// 2////
BBXX CG2965 14064 99487 71235 46/// /2401 10026 20007 40199 53013 7//// 8//// 22200 0//// 2////
BBXX CGBY 14064 99487 71235 46/// /0000 10029 20010 40197 53012 7//// 8//// 22200 0//// 2////
BBXX CGBR 14064 99541 71305 46/// /1006 10010 20009 40178 51006 7//// 8//// 22200 0//// 2////
BBXX VOKF 14064 99455 70735 46/// /0303 10010 20003 4//// 5//// 7//// 8//// 22200 0//// 2////
BBXX VCRG 14064 99474 70619 46/// /0322 10000 21036 40268 51004 7//// 8//// 22200 0//// 2////
BBXX 46041 14061 99474 71247 46/// /0802 10064 40192 50008 90550 22200 00079 11305 3//// 41305 70024 333 91203 555 11016 22017 30522 40904 60549 081016 079020 087019 068018 046018 032024
BBXX 46026 14061 99378 71228 46/// /3104 10103 40201 51014 90550 22200 00111 10802 20401 330// 40802 70012 333 91205 555 11039 22040 30451 42705 60549 304037 290033 294033 287033 286030 290036
BBXX 46077 14061 99579 71543 46/// /0415 10029 21005 49969 58026 90550 22200 00053 10504 20504 70019 333 91218 555 11158 22168 30451 40321 60549 042148 042152 045152 044155 044153 046147 80417 90451
BBXX 46035 14061 99571 71778 46/// /0921 1//// 49623 55004 90550 22200 11317 20709 300// 41314 70084 333 91226 555 11211 22226 30533 41127 60549 092211 097217 081213 083200 091197 083205 81023 90533
BBXX 46072 14061 99517 71722 46/// /2212 10032 21043 49844 52024 90550 22200 00052 11317 20807 3//// 41316 70085 333 91214 555 11126 22133 30507 42217 60549 217119 222115 222123 220125 217132 215138 82114 90457
BBXX 46082 14061 99597 71434 46/// ///// 10017 20017 40090 54000 90550 22200 00060 11204 70022
BBXX 42039 14061 99288 70860 46/// /0809 10211 40254 50000 90550 22200 00231 10603 20603 70016 333 91210 555 11097 22102 30451 40711 60549 075090 078091 075090 072090 073092 073090 80710 90519
BBXX 41040 14061 99145 70530 46/// /1008 10262 20238 40107 58019 90550 22200 00278 11005 20603 3//// 41004 70025 333 91209 555 11084 22088 30451 41210 60549 099080 101081 103083 104077 108075 109077 81209 90451
BBXX VOXS 14064 99467 70480 41498 81105 10022 2001/ 40225 56019 70222 88/// 22200 04024 20301 336// 40906 80018
BBXX BAREU06 14064 99439 70503 46/// ///// 40176 57040 22274
BBXX BATFR13 14064 99321 70400 44797 61720 10209 20177 40250 58005 70222 8432/ 22214 00222
BBXX 44007 14061 99435 70701 46/// /0408 10044 20005 40268 52003 90550 22200 00084 10402 20402 3//// 41101 70009 333 91209 555 11085 22089 30502 40311 60549 037081 041079 040078 040079 036083 039089
BBXX C6VV8 14063 99202 70705 41/// /0315 10250 2022/ 40140 5/010 7//// 8//// 222// 0//// 2//// 3//// 4//// 5//// 6//// 80230 ICE /////
BBXX VQAJ8 14063 99321 71194 41498 43310 10130 20091 40196 52022 70322 8326/ 22251 00160 20000 334// 40703 5//// 80110
BBXX BATFR56 14064 99108 30715 44498 31210 10284 40111 50001 70200 83392 22252 00295 20802 316// 40802 5////
BBXX ZCBH7 14064 99064 31141 41297 33515 10292 20280 40120 53022 70322 8/272 22233 04301 20201 334// 40201 5//// 80283
BBXX BATFR35 14064 99171 51504 46/// /0916 10272 20224 40139 51014 22272 00287
BBXX A8ID9 14064 99264 31771 41498 30615 10240 20196 40130 57010 70100 82145 22284 00240 20302 30600 40503 5//// 80210
BBXX 46086 14061 99325 71180 46/// /3302 10138 40189 53019 90550 22200 00148 11303 20401 326// 41303 70017 333 91203 555 11020 22020 30456 43504 60549 328019 335023 333026 339026 338031 336034
BBXX 44027 14061 99443 70673 46/// /0210 10038 21007 40246 58005 90550 22200 00089 10603 20603 3//// 40901 70015 333 91212 555 11100 22105 30500 40213 60549 019097 020094 020098 018095 017098 018102
BBXX 44040 14061 99410 70736 46/// /0106 10059 20006 40287 90545 22200 1//00 70002 333 91208 555 11077 22093
BBXX 44065 14061 99404 70737 46/// /3507 10071 20020 40278 50000 90550 22200 00101 11102 20301 312// 41101 70008 333 91209 555 11077 22080 30453 43510 60549 350074 348079 352081 353075 354077 354085 83509 90459
BBXX 44020 14061 99414 70702 46/// /3607 10069 20033 40251 54000 90550 22200 00091 11001 20501 70005 333 91209 555 11077 22082 30541 43609 60549 349073 255069 254068 253069 252065 254064
BBXX 46001 14061 99563 71480 46/// /1513 10039 49991 56025 90550 22200 00050 10706 20706 300// 41101 70032 333 91216 555 11143 22153 30508 42318 60549 153135 149139 147139 145144 144139 142144
BBXX 41047 14061 99275 70715 46/// /0210 10226 40197 58007 90550 22200 00252 11007 20805 306// 41005 70033 333 91213 555 11102 22107 30506 40114 60549 020101 013100 019102 014101 016105 013103 80112 90506
BBXX 41013 14061 99334 70777 46/// /0207 10158 20080 40281 50000 90550 22200 00213 11003 20501 313// 41003 70016 333 91209 555 11071 22074 30543 40309 60549 020066 017069 011064 012061 019056 021055
BBXX 46105 14061 99590 71522 46/// ///// 1//// 90550 22200 10503 70015
BBXX 42055 14061 99222 70940 46/// /0907 10249 20208 40203 58003 90550 22200 00253 10803 20602 304// 40802 70014 333 91208 555 11072 22076 30530 40909 60549 092069 095074 091068 090070 087073 086064 80908 90530
BBXX 42003 14061 99260 70856 46/// /0910 1//// 90550 22200 10704 20704 70018 333 91211 555 11102 22108 30457 40812 60549 086095 085093 079090 073096 071095 074097 80710 90517
BBXX 41036 14061 99342 70770 46/// ///// 10134 20035 40282 50000 90550 22200 00191 11102 70012
BBXX 42002 14061 99258 70937 46/// /1109 10239 20199 40225 58004 90550 22200 00246 10803 20803 70014 333 91211 555 11091 22097 30509 41011 60549 106091 104089 102088 098094 097089 094087
BBXX 41043 14061 99211 70650 46/// /3503 10254 20219 40129 58005 90550 22200 00270 11004 20401 300// 41004 70021 333 91204 555 11029 22030 30454 43504 60549 350028 350026 347026 355024 354029 346034 83504 90455
BBXX A8LL8 14064 99332 70438 41599 51727 10210 20188 40210 57020 70111 84262 22214 21008 322// 41008 80195
BBXX PDXQ 14063 99334 70641 41/96 /0130 10193 20175 40131 58004 76466 8//// 22222 04243 21008 304// 41009 80181
BBXX KFMV 14063 99310 71701 41/// /2130 10222 2019/ 40155 54000 7//22 8//// 22225 00222 20505 325// 40904 5//// 6//// 80200 ICE /////
BBXX WABS 14064 99383 71248 41698 63203 10100 2004/ 40215 52020 70122 865// 22233 0//// 2//// 3//// 4//// 5//// 6//// 80072 ICE /////
BBXX LEQZ3 14063 99507 71325 41/97 80211 10075 20032 40184 57011 70311 22262 00120 21003 41503 80055
BBXX DGHJ 14063 99225 71153 41598 13517 10190 20142 40185 52005 70211 8/1// 22263 00200 2//// 3//// 4//// 5//// 80160
BBXX WFLG 14064 99316 71278 41498 73520 10144 20083 40241 51017 70222 878// 22224 00150 20304 335// 40507 5//// 6//// 80111 ICE /////
BBXX PFRO 14064 99227 70734 41497 60435 10250 20220 40153 7//22 86200 22234 20408 308// 40408 80230
BBXX A8FU7 14061 99088 70794 41/98 93203 10250 20235 40115 54000 70211 8//// 22200 00268 299// 300// 4//// 5//// 80240
BBXX FVNM 14064 99063 70969 46/// /0210 10265 20229 40127 58002 22222 00272
BBXX 3FMH7 14064 99148 71031 41898 20404 00/// 10270 20228 40149 5//// 70200 9//// 22223 0//// 1//// 2//// 3//// 4//// 5//// 6//// 80240
BBXX WDC6698 14064 99090 71466 43/// /0518 10305 20300 40100 5//// 7//// 8//// 222// 04270 2//// 3//// 4//// 5//// 6//// 8//// ICE /////
BBXX DDJS2 14063 99363 71377 41597 62814 10164 20143 40245 52010 70211 864// 22224 00170 2//// 3//// 4//// 5//// 80152
BBXX A8JX9 14063 99438 71312 41297 83610 10130 20094 40180 54000 70311 877// 22274 20301 3//// 4//// 5//// 80110
BBXX WBN3015 14064 99273 70706 41/// /3622 10222 2//// 40159 52003 7//// 8//// 22272 0//// 20707 33603 41006 50702 6//// 8//// ICE /////
BBXX 44066 14061 99396 70726 46/// /0108 10098 20028 40261 50000 90550 22200 00129 11104 20603 3//// 41102 70018 333 91209 555 11081 22085 30520 40110 60549 010077 015078 009082 012080 017080 015083
BBXX BAREU00 14064 99445 70626 46/// ///// 40206 57021 22223
BBXX BAREU54 14064 99115 70803 46/// ///// 40110 57009 22253
BBXX NWS0022 14064 99416 70714 43/// /3403 10039 21011 40262 5//// 7//// 8//// 222// 04132 2//// 3//// 4//// 5//// 6//// 8//// ICE /////
BBXX 46054 14061 99342 71204 46/// /3310 10130 40181 51013 90550 22200 00138 11004 20502 300// 41003 70018 333 91211 555 11101 22107 30545 43311 60549 328094 327088 326082 327087 329089 329089
BBXX 46025 14061 99337 71191 46/// /2904 10140 20109 40174 51017 90550 22200 00153 11202 20401 326// 41202 70011 333 91205 555 11040 22041 30456 42807 60549 288038 283048 279051 283052 283055 277058
BBXX 46028 14061 99357 71219 46/// /3207 10120 40192 52015 90550 22200 00132 11004 20502 333// 41003 70019 333 91209 555 11078 22082 30452 43309 60549 321075 328076 326077 326076 324078 323078
BBXX 46029 14061 99461 71245 46/// /0103 10066 20015 40199 51022 90550 22200 00073 11305 328// 41305 70025 333 91204 555 11033 22035 30537 40204 60549 015032 013033 021029 027027 015029 014028
BBXX 46087 14061 99485 71247 46/// /0903 10063 20027 40196 52005 90550 22200 00077 11205 329// 41205 70025 333 91204 555 11026 22026 30514 41005 60549 087025 088025 091026 092025 087026 083023
BBXX 46012 14061 99374 71229 46/// /3204 10108 40202 51012 90550 22200 00123 10903 20401 332// 40903 70014 333 91205 555 11038 22040 30546 43105 60549 315036 288029 308025 329026 323029 330029
BBXX 46027 14061 99419 71244 46/// /1704 10088 40204 51018 90550 22200 00092 11503 20301 329// 41503 70013 333 91205 555 11041 22043 30533 41805 60549 165038 177042 178034 187029 191032 185037
BBXX 46050 14061 99442 71246 46/// /1903 10075 40199 53014 90550 22200 00100 11404 20301 331// 41404 70021 333 91204 555 11031 22032 30549 41508 60549 193029 173035 163044 162053 161058 151061
BBXX 46014 14061 99394 71240 46/// /0902 10092 40205 51015 90550 22200 00105 11602 20301 3//// 41602 70012 333 91203 555 11024 22024 30542 41103 60549 090022 098021 101019 108019 104017 107013
BBXX 46011 14061 99350 71210 46/// /3308 10126 40191 52015 90550 22200 00134 11104 20502 332// 41103 70019 333 91210 555 11086 22091 30541 43410 60549 334082 332083 337079 337080 335077 335079
BBXX 46013 14061 99382 71233 46/// /2903 10102 40200 51013 90550 22200 00108 10802 20401 3//// 40802 70012 333 91204 555 11034 22036 30531 42905 60549 288033 290036 310033 306034 306033 306035
BBXX 46047 14061 99324 71195 46/// /3205 10132 40195 51020 90550 22200 00135 11104 20401 330// 41104 70020 333 91206 555 11047 22050 30531 43306 60549 320045 331048 328048 331048 333048 334041
BBXX 46088 14061 99483 71232 46/// /1302 10060 40192 90550 22200 00079 1//00 70001 333 91203 555 11016 22017 30549 41103 60549 134016 150012 163013 172018 166021 183016
BBXX 46069 14061 99337 71202 46/// /3108 10128 40185 51015 90550 22200 00133 11104 20702 331// 41103 70020 333 91210 555 11087 22093 30545 43110 60549 312081 315081 314080 313082 317083 316079
BBXX CG2960 14064 99447 70813 46/// /1508 10038 20012 40274 56008 7//// 8//// 22200 0//// 2////
BBXX CG2350 14064 99433 70798 46/// /2604 10041 20006 40282 58007 7//// 8//// 22200 0//// 2////
BBXX 45008 14061 99443 70824 46/// /2204 10056 30048 40266 56013 90550 22200 00062 10301 20301 70003 333 91205 555 11042 22044 60549 222040 225038 225038 222035 222036 224037
BBXX CGDS 14064 99447 70755 46/// /3002 10038 20028 4//// 5//// 7//// 8//// 22200 0//// 2////
BBXX VYNG 14064 99452 70831 41/97 81806 10005 21177 41004 56020 70202 88080 22273 00030 20201 3//// 4//// 5//// 6//// 8//// ICE /////
BBXX WCX2417 14064 99458 70849 41/96 81108 10038 2//// 40254 5//// 70222 8//// 22263 0//// 2//01 3//// 4//// 5//// 6//// 8//// ICE /////
BBXX DBLK 14061 99625 30000 41397 80108 11017 21019 49692 57033 77172 885// 22242 05019 ICE 35692
BBXX WCX7445 14064 99628 50599 43/// /2927 10015 2//// 49844 5//// 7//// 8//// 22212 00005 2//// 3//// 4//// 5//// 6//// ICE /////
AAXX 14064 78526 NIL
AAXX 14064 78543 NIL
AAXX 14061 06407 11457 82706 10048 20025 39926 49933 56025 60062 76362 875// 333 20044 32004 83711 85616 87620 91113 91209
AAXX 14061 06447 NIL
AAXX 14064 78255 42559 50406 10221 20187 30037 40186 54000 85500 333 85620
AAXX 14064 78317 NIL
AAXX 14064 78318 NIL
AAXX 14064 78325 NIL
AAXX 14064 78333 NIL
AAXX 14064 78338 NIL
AAXX 14064 78348 NIL
AAXX 14064 78349 NIL
AAXX 14064 78353 NIL
AAXX 14064 78360 NIL
AAXX 14064 78367 NIL
AAXX 14064 78369 NIL
AAXX 14064 78583 32470 73604 10225 20215 40179 60001 87800 333 01100 59005 83817 86640
BBXX MCCN6 14064 99292 31127 41298 81828 10215 20200 40107 57012 70322 8/7// 22233 00214 20405 318// 41208 5//// 80205
AAXX 14064 78762 12970 71005 10206 20167 39095 40111 56008 60021 840770 333 10250 20207 31/// 56/2/ 58004 83458 85368
BBXX UANA 14061 99699 10385 41/97 82210 10033 49972 57001 70221 8/4// 22222 04039 20405
BBXX TBWAA05 14063 99558 10160 41497 52014 10070 20026 49980 53016 70222 82141 22263 2//// 3//// 4//// 5//// 80050 00/87 1/764 5989300/ 871/7 64598 93931/65 1/626 /807
AAXX 14064 78762 12970 71005 10206 20167 39095 40111 56008 60021 840770 333 10250 20207 31/// 56/2/ 58004 83458 85368
AAXX 14061 26038 01258 81805 10026 20022 39942 49983 53013 69982 76165 8872/ 333 10035 20012 69957 88505 91009 91112 555 11002 20012 31001 50026 52001
AAXX 14061 26045 NIL
AAXX 14061 26058 NIL
AAXX 14061 26115 NIL
AAXX 14061 26135 01261 82004 10021 20015 39933 40008 53007 60022 75155 886// 333 10021 20007 69967 88706 91110 555 12002 20007 32000 50020 52000
AAXX 14061 26141 01262 81906 10012 20008 39861 40009 52004 60022 72176 875// 333 10015 20002 42997 60017 87606 91010 91113 555 1/100 20002 3/100 50011 52100
AAXX 14061 26231 NIL
AAXX 14061 26242 01465 81805 10026 20010 39939 40026 52001 60012 72162 875// 333 10026 20014 69967 87611 91009 91112 555 12002 20014 32100 50020 52000
AAXX 14061 26247 NIL
AAXX 14061 14240 12665 40000 10012 20010 30009 40168 51003 60002 83530 333 20000 31103
AAXX 14061 14258 12670 61503 10079 20030 39978 40166 54000 60002 83570 333 20045 32001
AAXX 14061 14445 12670 70601 10112 20074 30051 40206 50007 60002 87500 222// 00160 333 20104 31003 87696 92311
AAXX 14061 15502 11515 80000 10050 20050 30166 40206 51002 60002 71022 885// 333 10058 20050 55000 70000 555 31005 500//
AAXX 14061 15525 11/00 90000 10012 20007 39931 40204 54000 60002 74544 333 10054 20012 70000 555 31102 596//
AAXX 14061 15528 11/01 90000 10030 20025 30001 40195 53005 69922 74754 333 10046 20026 55000 70002 555 31004 597// 70600
AAXX 14061 15535 11/02 92002 10040 20040 30153 40200 53011 60002 74544 333 10059 20037 55000 70000 555 31/// 500//
AAXX 14061 15549 11/02 91602 10007 21004 39785 40214 53001 60002 74544 333 10079 20007 70000 555 30001 592//
AAXX 14061 15552 11903 02704 10060 20055 30148 40198 52008 60002 74600 222// 2//00 314// 4//00 333 10078 20050 55043 70000 555 31002 597// 92013 92412
AAXX 14061 15614 11/04 90000 10006 20001 39508 40233 52005 60002 74544 333 10055 20002 55034 70000 555 31101 596//
AAXX 14061 15615 11986 22702 11066 21098 37129 47069 53007 60002 70200 80001 333 11061 21074 47999 55059 70000 555 578//
AAXX 14061 15626 11/02 90000 10050 20045 30021 40213 53005 60002 74542 333 10060 20020 55015 70000 555 30101 597//
AAXX 14061 15627 11989 12306 11033 21037 37643 47080 51003 60002 70300 81040 333 11020 21035 42003 55060 70001 555 597//
AAXX 14061 15640 11420 80000 10054 20032 39898 40215 52004 60002 71022 886// 333 10080 20052 55004 70000 555 30003 586//
AAXX 14061 15655 12562 82704 10096 20075 30167 40200 52006 60002 885// 222// 00080 20000 333 10098 20080 70000 555 31/// 587// 92013 92417
AAXX 14061 15712 12670 73202 10063 20052 39973 40227 53007 60002 87500 333 10083 20052 55053 70000 555 31101 592//
AAXX 14061 15730 11/02 90000 10029 20029 39821 40222 52006 60002 74342 333 10118 20027 55002 70000 555 31101 500//
AAXX 14064 91165 NIL
AAXX 14064 91182 NIL
AAXX 14064 91190 NIL
AAXX 14064 91212 NIL
AAXX 14064 91217 NIL
AAXX 14064 91285 NIL
AAXX 14064 91317 NIL
AAXX 14064 91334 11474 60412 10297 20236 30064 40067 57014 69981 70282 82101 333 561/9 70008 555 91406
AAXX 14064 91348 NIL
AAXX 14064 91356 NIL
AAXX 14064 91366 NIL
AAXX 14064 91369 NIL
AAXX 14064 91371 NIL
AAXX 14064 91376 32480 40508 10283 20222 30075 40078 53005 82101 333 561/9 70000 555 91406
AAXX 14064 91408 11473 80706 10267 20252 30024 40062 57019 60101 78082 8692/ 333 56199 70122 555 91406
AAXX 14064 91413 11469 80708 10281 20246 30042 40068 56017 69901 71682 84378 333 56299 70056 555 91406
AAXX 14064 91425 NIL
AAXX 14064 91434 NIL
AAXX 14064 91765 NIL
AAXX 14064 78016 11564 43412 10199 20156 30126 40130 50001 69901 72581 84500 333 10234 20192 70003 90916
AAXX 14061 06431 NIL
AAXX 14061 06432 11460 82113 10079 20056 39851 49926 56052 60052 76166 875// 333 20048 32003 81712 84622 86635 91118 91213
AAXX 14061 06449 11270 82110 10069 20052 39715 49939 56053 60062 76162 878// 333 20050 32003 81705 83710 85630 91115 91210
AAXX 14061 06450 11440 81904 10056 20038 39916 49932 56048 60172 76362 885// 333 20042 32004 83612 88618 91113 91208
AAXX 14061 06458 17460 71910 10071 20056 39778 49929 58063 60062 76162 878// 333 20040 32002 81818 83824 87628 91113 91210
AAXX 14061 06465 11456 81804 10057 20050 39865 49930 58059 60062 7636/ 875// 333 20047 31002 81711 83615 85620 91112 91207
AAXX 14061 06478 11458 81809 10063 20043 39721 49938 58064 60022 76161 875// 333 20050 32004 82712 86618 91115 91210
AAXX 14061 06496 11460 81808 10040 20027 39291 49957 58057 60012 76362 885// 333 20019 32000 81710 83614 85618 91114 91208
AAXX 14061 06400 11457 82504 10044 20037 39927 49938 56019 60062 76366 885// 333 20044 32005 83613 85620 87635 91112 91209
AAXX 14061 06428 11460 82406 10057 20045 39884 49932 56039 60132 76162 875// 333 20032 32002 81713 84630 87638 91111 91207
AAXX 14061 06451 11258 81904 10058 20046 39857 49924 58063 60062 76162 877// 333 20040 32004 82706 83708 85712 91113 91209
AAXX 14061 06456 11362 72309 10065 20055 39589 49949 56049 60052 76166 875// 333 20045 32002 83709 85713 87620 91116 91211
AAXX 14061 06476 162// 82107 10043 20035 39306 49960 56058 60042 333 20020 3/001 88/03 91114 91207
AAXX 14061 06479 11556 79901 10052 20048 39856 49935 58062 60072 76162 875// 333 20043 30002 81620 85624 87629 91112 91208
AAXX 14061 06490 17364 81809 10046 20031 39392 49955 58057 69972 761// 333 20029 3/002 82/09 87/10 88/13 91114 91209
AAXX 14061 06590 11357 81908 10051 20044 39548 49996 57045 69902 76062 875// 333 20042 31003 85707 87614 91113 91207
AAXX 14064 91222 NIL
AAXX 14064 91245 NIL
AAXX 14064 91323 NIL
AAXX 14064 91339 NIL
AAXX 14064 91343 NIL
AAXX 14064 91353 NIL
AAXX 14064 91442 NIL
AAXX 14061 38353 42998 20901 10055 21084 39387 40294 57002 82030 333 21046
AAXX 14061 38613 42999 71901 10032 21040 40336 51006 80002 333 21018
AAXX 14061 38616 42597 50000 10018 21040 39295 40336 51005 83501 333 21025
AAXX 14061 38345 31996 80601 11048 21076 38861 48542 58001 71022 8802/ 333 21089
AAXX 14061 36911 42999 20901 10022 21031 39318 40299 58007 82080 333 21056
AAXX 14061 36974 32998 72702 11076 21131 38052 48666 54000 80002 333 21170
AAXX 14061 36982 42999 62403 11159 21215 36546 47204 52002 82034 333 21257
AAXX 14064 16622 11/01 90000 10084 20080 30216 40227 52007 60002 74544 333 20060 31/// 50010 55018 70000 89/01 90730 91104 555 10000 30120 20000 89086 99097 30000 10100 2//// 30106 4//// 5//// 40000 47695 44230 50000 50082 70000 77F// 7FY//
AAXX 14064 16641 12570 10000 10056 20056 30213 40218 53006 60002 81200 333 20056 32/// 55000 70310 90730 91104 555 10000 30128 20000 89077 99100 40000 47688 44190 50000 50056
AAXX 14064 16682 12560 20000 10068 20068 30185 40203 52011 60002 82130 333 20062 30/// 53310 55008 70228 90730 91104 555 10000 30132 20000 89080 99100 30000 10090 20105 30110 40130 50142 60190 40000 47672 44220 50000 50068
AAXX 14064 16716 12960 00000 10076 20067 30194 40213 53014 60002 333 20074 30/// 55024 70000 555 10000 30144 20000 89045 99092 40000 47672 44165 50000 50072 70000 77/I/ 7/I//
AAXX 14064 16734 16/// /0407 10106 20091 30155 40217 52011 60032 333 20091 90730 91109 555 10000 30152 20000 89055 99094 60000 60033 60101
AAXX 14064 16743 NIL
AAXX 14064 16749 12460 69901 10128 20124 30196 40211 50002 60002 85855 333 20098 31/// 55003 70000 82818 83620 86068 90730 91106 555 10000 30154 20000 89085 99093 40000 47681 44220 50000 50126
AAXX 14064 16754 12565 20000 10112 20079 30163 40211 52014 60002 81205 333 20112 30/// 50290 55000 70000 90730 91110 555 10000 30132 20000 89065 99089 40000 47655 44210 50000 50096
AAXX 14064 04005 NIL
AAXX 14064 04018 42586 50322 11005 21043 49820 52009 84801 555 3//31 81820 84626 85068
AAXX 14064 04030 42889 52802 11023 21080 49816 52009 83032 555 3//04 83358
AAXX 14064 04048 NIL
AAXX 14064 04063 41570 83205 10004 21025 49814 57007 77072 8672/ 555 3//13
AAXX 14064 04077 NIL
AAXX 14064 04082 NIL
AAXX 14064 04097 41584 83622 10033 21005 49773 52010 71522 883// 555 3/422
AAXX 14064 91925 06/// /3501 10236 20201 30076 40137 51025 60001 333 55086 60007 90710 91105 555 60005 11016 58004
AAXX 14064 91929 04/70 /1011 10274 20224 30137 40140 53014 60002 700// 333 10314 20274 55/// 60007 70012 90710 91117 555 60005
AAXX 14064 91938 02570 21202 10276 20209 30142 40144 52016 60002 81202 333 10314 20276 30/// 55072 60007 70000 81820 90710 91104 555 60005 12411 59011
AAXX 14064 91944 06/// /0911 10262 20203 30154 40157 51015 60032 333 10300 20252 55119 60037 70036 90710 91114 555 60005
AAXX 14064 91954 06/// /1802 1//// 2//// 30161 4//// 51015 60001 333 55/// 60007 555 58003
AAXX 14064 91958 06/// /0513 10221 20200 30183 40185 53012 69941 333 55001 69947 90710 91129 555 60005 10537 58011
AAXX 14064 91943 NIL
AAXX 14064 91945 NIL
AAXX 14064 91948 NIL
AAXX 14063 04013 NIL
AAXX 14063 04064 42784 22905 11028 21110 49777 52014 81540 555 3//09
BBXX TFBKF 14064 99635 70202 46/// ///// 22200 10703 70014
BBXX TFBLK 14064 99657 70248 46/// ///// 22200 10607 70033
BBXX TFDRN 14064 99658 70212 46/// ///// 22200 10707 70037
BBXX TFGRS 14064 99663 70182 46/// ///// 22200 10807 70033
BBXX TFGRV 14064 99638 70225 46/// ///// 22200 10803 70016
BBXX TFGSK 14064 99641 70229 46/// ///// 22200 10605 70023
BBXX TFHFN 14064 99642 70152 46/// ///// 22200 10803 70016
BBXX TFKGR 14064 99657 70136 46/// ///// 22200 10606 70028
BBXX TFSRT 14064 99633 70203 46/// ///// 22200 10805 70027
BBXX TFSTD 14064 99664 70234 46/// ///// 22200 10710 70051
AAXX 14064 08001 11560 82413 10099 20070 30091 40173 53019 60062 78162 8802/ 333 20094 32006 50224 55000 70210 924/7
AAXX 14064 08015 11560 72612 10102 20046 39743 40146 52022 69902 70282 87800 333 20088 31007 50354 55009 70031
AAXX 14064 08023 11560 73025 10133 20099 30070 40140 52017 69912 78011 8587/ 333 20110 50343 55006 70025
AAXX 14064 08027 12675 62909 10130 20083 39836 40142 53023 60002 868// 333 20119 31010 50050 55000 70000
AAXX 14064 08045 01560 72701 10103 20082 39892 40203 51013 60072 72162 8787/ 333 20099 3/010 55000 60037 70343
AAXX 14064 08141 NIL
AAXX 14064 08160 12670 52213 10132 20070 39867 40173 57010 60002 84575 333 20110 55012 70000
AAXX 14064 08181 02680 42610 10138 20044 30160 40166 53003 60002 81808 333 20106 3/012 55017 60007 70000
AAXX 14064 08221 02480 72008 10102 20080 39525 40209 55001 60002 877// 333 20090 30009 55026 60007 70000
AAXX 14064 08231 12470 82503 10076 20064 39127 48529 55002 69922 887// 333 20068 31007 50114 55004 70002
AAXX 14064 08261 NIL
AAXX 14064 08284 02982 52519 10147 20068 30124 40199 55002 60002 82035 333 20134 3//// 50354 55036 60007 70000
AAXX 14064 08306 12565 22509 10151 20113 30190 40196 53001 60002 81501 333 20128 55054 70000
AAXX 14064 08314 02575 62412 10145 20109 30086 40188 53004 60002 81108 333 20142 3//// 55/// 60007 70000
AAXX 14064 08430 12970 30000 10050 20035 30158 40235 57005 60002 80004 333 20046 30002 50071 55061 70000
AAXX 14064 08482 12770 22904 10098 20069 30234 40243 53001 60002 82030 333 20094 55084 70000
AAXX 14061 26509 11462 81807 10057 20045 30016 40025 52008 60052 70262 885// 333 20030 31/// 88611 91012 91114 555 53019 7005/
AAXX 14061 26518 11227 82005 10026 20026 40039 52008 60062 71062 886// 333 20001 42010 88704 91007 91109 555 53014 7007/
AAXX 14061 26524 11296 82003 10031 20028 39909 40041 52007 60011 71065 886// 333 20009 32/// 88705 91006 91111 555 53015 7001/
AAXX 14061 26531 11357 82003 10037 20030 40048 53005 69972 72165 886// 333 20012 31/// 88709 91006 91110 555 53011 7002/
AAXX 14061 26629 11496 82105 10045 20033 39971 40066 53008 69942 71062 885// 333 20013 31/// 88616 91007 91112 555 53014 7998/
AAXX 14061 26633 11356 81903 10040 20030 39934 40065 53005 69962 75165 886// 333 20021 31/// 88708 91006 91111 555 53011 7001/
AAXX 14061 26730 31457 71904 10039 20027 39885 40076 53001 69902 71062 876// 333 20019 31/// 87714 91007 91109 555 53011 7990/
AAXX 14061 38353 42998 20901 10055 21084 39387 40294 57002 82030 333 21046
AAXX 14061 38613 42999 71901 10032 21040 40336 51006 80002 333 21018
AAXX 14061 38616 42597 50000 10018 21040 39295 40336 51005 83501 333 21025
AAXX 14061 38345 31996 80601 11048 21076 38861 48542 58001 71022 8802/ 333 21089
AAXX 14061 36911 42999 20901 10022 21031 39318 40299 58007 82080 333 21056
AAXX 14061 36974 32998 72702 11076 21131 38052 48666 54000 80002 333 21170
AAXX 14061 36982 42999 62403 11159 21215 36546 47204 52002 82034 333 21257
AAXX 14064 16643 12960 00105 10090 20073 30226 40231 51001 60002 333 20090 30/// 70245 90730 91110 555 10000 30120 20000 89071 99095 40000 47702 44220 50000 50082
AAXX 14064 16648 11101 50000 10012 20006 30133 40226 52010 60002 74440 85600 333 20004 30/// 50020 55035 70000 90730 91104 555 10000 30096 20000 89058 99097 30000 10054 2//// 30068 40078 5//// 6//// 40000 47630 44210 50000 50010 70000 77F// 7FY//
AAXX 14064 16650 11457 70000 10096 20088 30202 40206 52012 60002 71040 87600 333 20090 30/// 55011 70000 82710 87620 90730 91104 555 10000 30130 20000 89085 99098 30000 10092 20100 30108 40104 50128 60140 40000 47684 44230 50000 50092 70000 77Y// 7FY//
AAXX 14064 16684 11056 30000 10098 20086 30173 40200 53010 60002 71040 83600 333 20096 30/// 55011 70000 90730 91103 555 10000 30138 20000 89066 99090 40000 47660 44210 50000 50092 70000 77Y// 7FY//
AAXX 14064 16732 11470 31306 10138 20116 30202 40214 53004 60012 701// 82260 333 20134 31/// 55008 70010 90730 91112 555 10000 30156 20000 89065 99090 40000 47677 44160 50000 50126 60000 60010 6////
AAXX 14064 16614 11/01 90000 10006 20002 39450 40255 52004 69922 74554 333 21006 31/// 55032 70009 89/03 90730 91106 555 10000 30062 20000 89050 99096 60000 60002 60400 70000 77F// 7DF//
AAXX 14064 16627 11457 60000 10114 20110 30209 40213 52011 60002 71022 86500 333 20104 31/// 50010 55004 79999 90730 91107 555 10000 30132 20000 89080 99095 30000 10110 20108 30114 40112 50116 6//// 40000 47690 44240 50000 50112 70000 77Y// 7/Y//
AAXX 14064 16667 11459 71305 10130 20111 30206 40211 51003 60062 76196 85850 333 20130 31/// 55009 70075 82818 84625 90730 91110 555 10000 30152 20000 89063 99089 30000 20130 30138 40000 47684 44200 50000 50120 60000 60055 60300 70000 77RY/ 7TRVY
AAXX 14064 16675 NIL
AAXX 14064 16710 36/// /9901 10014 20008 39460 40257 52011 333 20007 90730 91106 555 10000 30086 20000 89067 99///
AAXX 14064 16723 11557 70000 10126 20122 30210 40226 52015 60062 76366 83870 333 20126 32/// 55/// 70055 82820 83630 87357 90730 91110 555 10000 30136 20000 89077 99093 40000 47692 44235 50000 50124 60000 60055 60250 70000 77R// 7R///
AAXX 14064 16738 17/// /2603 10135 20118 30016 40215 52010 69912 741// 333 20132 90730 91106 555 10000 30147 20000 89064 99/// 60000 60001 60029
AAXX 14064 16746 12560 20000 10108 20092 30029 40214 52007 60002 82100 333 20098 31/// 55009 70000 90730 91105 555 10000 30122 20000 89068 99090 40000 47553 44205 50000 50100
AAXX 14064 47101 32565 70202 10021 21046 30122 40220 57018 87500
AAXX 14064 47105 369// /2309 10080 21032 30153 40185 56009
AAXX 14064 47108 31656 62502 10069 21022 30106 40212 57015 70522 86500
AAXX 14064 47115 32980 02905 10104 21019 39913 40181 55014 333 92032
AAXX 14064 47133 32663 81601 10074 21040 30142 40227 55013 8552/
AAXX 14064 47138 32970 12906 10131 21024 30202 40205 55015 80001 333 92022
AAXX 14064 47159 32975 02504 10140 21042 30124 40207 57015 333 92022
AAXX 14064 47165 32670 52504 10096 20009 30185 40231 57010 85500 333 92022
AAXX 14064 47168 32670 22507 10125 21042 30138 40216 55014 82500 333 92023
AAXX 14064 47184 32975 02905 10135 21013 30208 40233 55011 333 92022
AAXX 14064 47090 32668 63207 10079 21030 30161 40183 57012 85500 333 92023
AAXX 14064 47095 32562 72505 10032 21021 30021 40212 57012 87500
AAXX 14064 47097 329// /0001 10035 21042 30126 40223 57016
AAXX 14064 47098 329// /2004 10042 21028 30074 40209 57017
AAXX 14064 47099 329// /0001 10056 21020 30176 40213 55014
AAXX 14064 47100 32470 22718 10011 21033 39264 40188 57006 82500
AAXX 14064 47102 31658 83206 10033 21005 30047 40227 53003 71022 8552/
AAXX 14064 47104 32670 21805 10096 21040 30083 40179 57014 82500
AAXX 14064 47106 329// /2706 10090 21029 30139 40188 55009
AAXX 14064 47112 31658 51805 10079 20014 30129 40213 55012 70522 85500 333 92012
AAXX 14064 47114 32662 60702 10045 21093 30034 40218 57014 86500
AAXX 14064 47119 31657 61803 10063 21009 30176 40218 57013 70522 86500
AAXX 14064 47121 329// /2505 10063 21050 39921 40215 55014
AAXX 14064 47127 329// /2701 10055 21080 30080 40223 55012
AAXX 14064 47129 32662 71809 10071 20031 30190 40226 55007 87500
AAXX 14064 47130 32972 22507 10118 21020 30129 40189 55015 80001 333 92023
AAXX 14064 47131 32660 22503 10077 21057 30149 40219 57019 82500
AAXX 14064 47135 329// /2706 10080 21026 39921 40218 55011
AAXX 14064 47136 32668 22707 10101 21039 30039 40209 55019 81500
AAXX 14064 47137 329// /2507 10085 21040 30098 40216 55011
AAXX 14064 47140 41665 81102 10070 21009 30201 40230 57009 72162 8352/ 333 92012
AAXX 14064 47143 32670 52904 10114 21055 30143 40221 55013 85500
AAXX 14064 47145 32663 60702 10082 21039 30186 40212 56013 85500
AAXX 14064 47146 32665 82703 10094 21028 30163 40228 55007 8452/
AAXX 14064 47150 41657 73401 10050 20031 30206 40225 57006 72162 87500
AAXX 14064 47152 32975 13207 10127 21009 30162 40204 57014 80001
AAXX 14064 47154 329// /2907 10099 21009 30157 40217 55013
AAXX 14064 47155 32970 01604 10126 21041 30165 40210 57015
AAXX 14064 47156 32670 22306 10112 21012 30143 40231 57014 82500
AAXX 14064 47157 32670 32507 10104 21010 39936 40202 55014 83500
AAXX 14064 47162 32975 02905 10120 21042 30176 40216 55011 333 92022
AAXX 14064 47169 32675 33208 10117 20055 30138 40231 55005 83500 333 92023
AAXX 14064 47170 32675 62907 10113 21011 30186 40229 55012 85500 333 92023
AAXX 14064 47171 329// /2704 10100 21011 30175 40230 55007
AAXX 14064 47172 329// /2506 10104 20012 30159 40225 55009
AAXX 14064 47173 329// /1602 10105 21028 30116 40226 56014
AAXX 14064 47174 32675 22705 10121 21014 30017 40215 57014 82500
AAXX 14064 47175 32573 62908 10077 20001 39658 40227 55005 86500 333 92023
AAXX 14064 47185 32970 03210 10131 20020 30143 40232 56012 333 92033
AAXX 14064 47188 32975 03605 10135 21005 30202 40223 55014 333 92022
AAXX 14064 47189 32970 01807 10146 20036 30160 40219 55011 333 92022
AAXX 14064 47192 32678 21603 10122 21078 30179 40216 57013 82500
AAXX 14061 33506 11/93 90000 10006 20006 30029 40230 53001 60012 74584 333 21013
AAXX 14061 33587 11/93 91501 10046 20046 39931 40196 52005 69932 74544 333 20034 555 31002
AAXX 14061 33663 11496 81401 10066 20057 30088 40184 53010 69902 75152 886// 333 20066 88713
AAXX 14061 33088 11596 82203 10050 20045 39958 40150 52006 69932 71082 885// 333 20042
AAXX 14061 33177 32575 61801 10038 20020 39904 40143 52008 86500 333 20023
AAXX 14061 33261 11/07 91603 10010 20010 30021 40207 53003 69912 74554 333 20004
AAXX 14061 33275 31194 81606 10004 20001 39995 40224 57002 71022 886// 333 21006 43003 88702
AAXX 14061 33301 12997 62004 10036 20029 39876 40160 53010 69952 86030 333 20033
AAXX 14061 33325 11296 82202 10062 20053 39903 40171 52008 69912 71052 885// 333 20045 87706
AAXX 14061 33377 11/01 91702 10016 20016 30018 40216 53005 60012 74764 333 20004
AAXX 14061 33415 31/93 90000 10022 20022 39770 40175 52010 74544 333 20020
AAXX 14061 33429 31/92 91904 10040 20040 39751 40177 52009 74542 333 20040
AAXX 14061 33466 NIL
AAXX 14061 33526 31226 62101 11009 21011 39833 40182 52014 71042 86600 333 21015 86706
AAXX 14061 33562 11218 82003 10058 20049 39818 40180 52005 69932 71052 886// 333 20043 88704
AAXX 14061 33614 11494 81402 10032 20022 30111 40217 53003 69902 71052 886// 333 20016 88710
AAXX 14061 33761 11/01 91901 10059 20059 39969 40193 53007 60012 75154 333 20045 96047
AAXX 14061 33902 11594 81101 10061 20059 30136 40202 53003 60032 71022 885// 333 20042
AAXX 14061 33983 32997 72302 10032 20014 30170 40232 53003 85031 333 20018
AAXX 14061 34415 11317 80000 10003 21003 30161 40261 53002 69992 76365 8772/ 333 21016
AAXX 14061 34523 NIL
AAXX 14061 34712 NIL
AAXX 14064 78388 112575 51203 10250 20204 30129 40138 60001 82201 333 01109 10302 20232 59003 82820 83076
AAXX 14064 93004 16/// /0533 10173 20173 40086 57013 60181
AAXX 14064 93023 16/// /0511 10184 20178 40128 57012 60011
AAXX 14064 93069 16/// /0621 10180 20171 40138 57012 60001
AAXX 14064 93110 17496 /0517 10183 20171 40133 57012 60011
AAXX 14064 93186 17497 /0510 10185 20164 40166 57010 60001
AAXX 14064 93196 16/// /0111 10174 20148 40189 57007 60001
AAXX 14064 93245 16497 /0408 10148 20137 40165 57005 60021
AAXX 14064 93292 17698 /0308 10189 20134 40170 57002 60001
AAXX 14064 93309 17697 /0615 10170 20160 40126 57013 60021
AAXX 14064 93334 16/// /0207 10132 20112 39192 57014 60001
AAXX 14064 93339 16/// /0126 10128 20109 39196 57011 60001
AAXX 14064 93373 17698 /0311 10218 20135 40141 57007 60001
AAXX 14064 93404 17798 /2104 10199 20166 40122 52003 60001
AAXX 14064 93420 17596 /0408 10172 20149 40127 54000 60021
AAXX 14064 93439 17496 /3517 10170 20146 40120 54000 69921
AAXX 14064 93498 16/// /0218 10154 20146 40122 57011 60001
AAXX 14064 93515 17496 /0615 10167 20167 40066 57012 60421
AAXX 14064 93527 16/// /0322 10158 20158 40093 57018 60141
AAXX 14064 93546 17496 /0605 10157 20156 40122 57005 60561
AAXX 14064 93597 16/// /3520 10155 20142 40105 57002 60011
AAXX 14064 93615 17496 /0417 10172 20166 40049 57011 60361
AAXX 14064 93678 16797 /0510 10158 20145 40053 57005 60001
AAXX 14064 93709 16/// /0514 10168 20159 40017 57009 60171
AAXX 14064 93773 17998 /2302 10185 20167 49987 57032 60001
AAXX 14064 93781 17997 /0812 10171 20149 40025 57013 69981
AAXX 14064 93800 NIL
AAXX 14064 93805 NIL
AAXX 14064 93831 17898 /0305 10233 20137 49946 57012 60001
AAXX 14064 93845 17497 /2108 10167 20156 49962 57006 60031
AAXX 14064 93891 17/98 /0706 10198 20164 49967 57015 60001
AAXX 14064 93909 16/// /0902 10187 20139 49969 57001 60021
AAXX 14064 93929 16/// /1410 10089 20088 49994 57023 60131
AAXX 14064 93947 16/// /0917 10088 20087 49998 57058 60061
AAXX 14064 93987 16/// /0414 10140 20088 40254 57007 60001
AAXX 14064 93994 NIL
BBXX 46013 14061 99382 71233 46/// /2903 10102 40200 51013 90550 22200 00108 10802 20401 3//// 40802 70012 333 91204 555 11034 22036 30531 42905 60549 288033 290036 310033 306034 306033 306035
BBXX 46026 14061 99378 71228 46/// /3104 10103 40201 51014 90550 22200 00111 10802 20401 330// 40802 70012 333 91205 555 11039 22040 30451 42705 60549 304037 290033 294033 287033 286030 290036
BBXX 46042 14061 99368 71224 46/// /3605 10113 40199 53014 90550 22200 00116 10903 20401 330// 40903 70016 333 91206 555 11054 22057 30524 43507 60549 355050 354054 356056 355054 351055 349058
BBXX A8JX9 14063 99438 71312 41297 83610 10130 20094 40180 54000 70311 877// 22274 20301 3//// 4//// 5//// 80110
BBXX CG2958 14064 99488 71230 46/// /1504 10057 21001 40205 53011 7//// 8//// 22241 0//// 2////
BBXX CG2965 14064 99487 71235 46/// /2401 10026 20007 40199 53013 7//// 8//// 22200 0//// 2////
BBXX CGBR 14064 99541 71305 46/// /1006 10010 20009 40178 51006 7//// 8//// 22200 0//// 2////
BBXX CGBY 14064 99487 71235 46/// /0000 10029 20010 40197 53012 7//// 8//// 22200 0//// 2////
BBXX CGDR 14064 99505 71277 46/// /0705 10049 20048 40172 51006 7//// 8//// 22200 0//// 2////
BBXX CGJK 14064 99484 71234 46/// /0202 10047 20018 40196 53013 7//// 8//// 22200 0//// 2////
BBXX DGTX 14063 99330 71412 41597 52709 10170 20146 40272 52012 70200 855// 22264 00220 20201 80155
BBXX LEQZ3 14063 99507 71325 41/97 80211 10075 20032 40184 57011 70311 22262 00120 21003 41503 80055
BBXX WFLG 14064 99316 71278 41498 73520 10144 20083 40241 51017 70222 878// 22224 00150 20304 335// 40507 5//// 6//// 80111 ICE /////
AAXX 14064 78866 01481 10404 10247 20214 30115 40120 57010 60001 81100 333 59009 60007 81819
BBXX LDGJ 14061 99603 10053 43/// /1508 10066 20032 49655 5//// 222/1 04098 1//// 3//// 4//// 5////
BBXX LF4H 14064 99596 10022 46/// /2135 10078 20045 49588 52011 8//// 22200 06087 10813 70064 333 91143
BBXX LGWS 14061 99334 70090 43/// /0304 10171 20118 40252 5//// 222/0 04185 1//// 3//// 4//// 5////
BBXX LMEL 14061 99603 10053 43/// /1510 10057 20047 49654 5//// 222/2 04100 1//// 3//// 4//// 5////
AAXX 14064 78388 112575 51203 10250 20204 30129 40138 60001 82201 333 01109 10302 20232 59003 82820 83076
AAXX 14064 78988 02482 30809 10271 20242 30092 40102 57011 60001 83200 333 59006 60007 83817
AAXX 14064 78990 01/// /0100 10257 20244 30104 57010 69911 70000 333 59004 69917
AAXX 14061 26645 11396 82003 10034 20027 39821 40080 52002 69902 76162 8872/ 333 20013 41998 88709 555 90010 95300
AAXX 14061 26659 31358 81903 10046 20044 39889 40102 56005 71042 886// 333 20022 88708 555 90010 95300
AAXX 14061 26763 11334 81704 10020 20017 39899 40128 57008 69932 71054 886// 333 20019 88707 555 90010 95300
AAXX 14061 26825 31558 71904 10044 20024 39907 40088 53011 71022 875// 333 20029 87620
AAXX 14061 26832 31459 81903 10043 20023 39904 40097 53006 71022 8667/ 333 20028 86710 555 90010 95000
AAXX 14061 26887 11294 81603 10015 20012 39965 40174 54000 60022 71062 886// 333 20012 88704 555 90011 95300
AAXX 14061 26961 11218 81902 10045 20039 39942 40135 54000 69932 71054 886// 333 20035 88705 555 90011
AAXX 14061 33027 11395 81903 10061 20056 39976 40143 53002 69942 71022 886// 333 20046 555 90012 95300
AAXX 14064 78988 02482 30809 10271 20242 30092 40102 57011 60001 83200 333 59006 60007 83817
AAXX 14064 78990 01/// /0100 10257 20244 30104 57010 69911 70000 333 59004 69917
AAXX 14064 78988 02482 30809 10271 20242 30092 40102 57011 60001 83200 333 59006 60007 83817
AAXX 14064 78990 01/// /0100 10257 20244 30104 57010 69911 70000 333 59004 69917
AAXX 14064 78866 01481 10404 10247 20214 30115 40120 57010 60001 81100 333 59009 60007 81819
AAXX 14064 78866 01481 10404 10247 20214 30115 40120 57010 60001 81100 333 59009 60007 81819
AAXX 14061 12120 12670 72206 10050 20033 30010 40017 52010 60032 8357/ 333 10054 20040 31003 55024 70033 91111 93000
AAXX 14061 12250 12981 22104 10052 20024 39980 40069 53017 69912 82030 333 10062 20047 31003 55034 70001 93000
AAXX 14061 12295 11659 71902 10043 20026 39908 40093 52009 69902 71065 875// 333 10046 20015 31001 79999 93097
AAXX 14061 12330 12970 12104 10050 20018 39964 40072 51017 69922 80001 333 10072 20044 31003 55011 70007 93000
AAXX 14061 12375 12970 12001 10039 20014 39966 40098 52013 60002 81030 333 10060 20031 31002 55031 91107 93000
AAXX 14061 12424 12999 71402 10035 20010 39941 40095 52007 69902 8707/ 333 10084 20035 31001 55038 70001 93000
AAXX 14061 12160 11560 71603 10048 20031 39994 40047 52011 69992 70262 875// 333 10059 20039 31003 55040 70009 93091
AAXX 14061 12205 12683 22106 10055 20021 30023 40031 52019 60002 82500 333 10072 20054 31004 70025 91112 93000
AAXX 14061 12465 12969 02104 10041 20020 39867 40102 52014 69902 333 10071 20037 31001 55048 20353 79999 93000
AAXX 14061 12566 12965 32201 10012 21007 39839 40139 53009 60002 82052 333 10058 21016 34103 93000
AAXX 14061 14241 12670 40000 10010 20003 30033 40167 50003 60002 84500 333 20004 31///
AAXX 14061 14284 NIL
AAXX 14061 14307 32770 71501 10106 20083 30099 40175 54000 84570 333 20035 31///
AAXX 14061 14317 NIL
AAXX 14061 14431 12660 61304 10092 20079 30098 40192 58003 60002 82570 333 20049 31/// 70005
AAXX 14061 14444 33765 63402 10095 20085 30183 40212 52005 84530 333 20071 30000
AAXX 14061 14474 12760 10903 10088 20075 30026 40218 53007 60042 81030 333 20088 31/// 70104 91136 91510
AAXX 14061 12105 12981 71905 10059 20029 39982 40024 52014 60002 8707/ 333 10061 20043 31004 55005 70035 91109 93000
AAXX 14061 12195 11447 82104 10040 20028 39846 40074 53010 69922 72152 885// 333 10041 20018 31001 55001 70002 91111 93092
AAXX 14061 12235 12466 62207 10034 20027 39833 40044 52012 60022 8253/ 333 10045 20026 31002 55009 70025 93000
AAXX 14061 12270 11480 32105 10044 20024 39894 40076 52014 69952 70261 82530 333 10051 20038 31003 55026 70005 93092
AAXX 14061 12280 11560 72106 10049 20034 39909 40066 53005 69982 70162 875// 333 10050 20032 31002 55029 70008 91112 93097
AAXX 14061 12300 12981 12201 10033 20018 39963 40053 52016 69982 81031 333 10062 20033 31101 55004 70031 93000
AAXX 14061 12400 12682 72004 10056 20024 39833 40068 51011 69932 82506 333 10069 20042 31003 55006 70013 93000
AAXX 14061 12435 12975 22004 10048 20009 39923 40095 53017 69902 80004 333 10068 20043 31001 55049 79999 93000
AAXX 14061 12495 12967 71903 10038 20025 39832 40127 51009 60002 8707/ 333 10043 20029 31003 70009 93000
AAXX 14061 12530 12963 71803 10045 20024 39916 40117 53009 60002 83032 333 10061 20044 31002 55041 70001 93000
AAXX 14061 12570 12970 20000 10007 21003 39809 40134 52009 60002 80008 333 10031 20003 34102 55015 93000
AAXX 14061 12580 12970 71903 10056 20028 39885 40146 53009 60002 8703/ 333 10065 20031 31001 70020 93000
AAXX 14064 60106 32965 00000 10036 20020 40292 56002 333 20034
AAXX 14064 60318 32560 32004 10105 20083 40259 58007 83200 333 20105 83820
BBXX BATUK01 14064 99583 70062 46/// /2702 10072 20004 49657 51030 22200 00099
AAXX 14064 64510 32258 8//// 10218 20215 3//// 4//// 885// 333 0//00 20218 5///4 55/// 5//// 85703 88610
AAXX 14064 64550 32358 8//// 10235 20222 30/// 40/// 885// 333 0//00 20225 50114 55/// 5//// 84608 88623
AAXX 14064 64560 32360 3//// 10220 20214 39576 40113 83500 333 0//00 20216 50134 55/// 58001 83608
AAXX 14061 14008 12/97 73207 11036 21041 37429 47983 58012 60002 87800 333 21041 49075 55013 70000 91125 92848 95175 444 78288
AAXX 14061 14015 12665 80901 10040 20027 39812 40176 52006 60002 8657/ 333 20023 31101 55010 70000 86640 555 20038 30046
AAXX 14061 14023 12598 72501 10028 20023 39869 40169 52005 60002 85531 333 20002 31102 55020 70000 85630 555 20026 30033
AAXX 14061 14026 12998 23301 11001 21004 39828 40158 50004 60002 82030 333 21011 34104 55027 70000 555 20021 30036
AAXX 14061 14031 11596 33301 11015 21017 39925 40161 52006 60002 71000 81530 333 21016 34104 55034 70000 81630 555 20007 30022
AAXX 14061 14105 11698 82101 10098 20078 30166 40171 56003 69902 760// 885// 333 20053 31004 55021 79999 84633 88643 555 20086 30088
AAXX 14061 14106 11696 81401 10063 20057 30104 40173 55000 69902 71062 886// 333 20038 31002 55001 79999 88737 95090 555 20067 30070
AAXX 14061 14112 12/97 82302 10072 29098 60004 333 10091 20050 3/004 70000
AAXX 14061 14121 12698 60000 10016 20009 39894 40167 51002 60002 84530 333 20016 31101 55014 70000 84640 555 20032 30044
AAXX 14061 14122 12780 53601 10001 21001 39969 40172 53003 60002 85530 333 21002 31/// 70000 85650
AAXX 14061 06414 16/// /2704 10051 20030 39897 49930 55029 60142 333 20038 91111 91208
AAXX 14061 06459 16/// /2009 10069 20067 39750 49940 55057 60062 333 20050 3/003 91115 91209
AAXX 14061 06494 16/// /1910 10030 20025 39168 49957 58054 69962 333 20009 91116 91210
AAXX 14061 13160 11/92 91802 10021 20019 30083 40195 53006 69912 74344 333 20005 31102 55020 70001
AAXX 14061 13262 31595 80000 10034 20030 30045 40197 53008 71022 886// 333 20034 31004 55000 70002
AAXX 14061 13272 31103 81401 10063 20058 30072 40193 52006 74442 886// 333 20060 31005 55016 88702
AAXX 14061 13285 31/91 90902 10040 20038 30098 40203 53006 74744 333 20029 31101 55017 70000
AAXX 14061 13289 32898 32103 10053 21003 38993 48497 53005 81032 333 20050 31003 55061 70000
AAXX 14061 13376 31/91 90000 10025 20025 39947 40216 53007 74544 333 20024 31100 55000 70001
AAXX 14061 13388 31996 10000 10025 20023 39964 40219 52011 71000 81030 333 20025 31100 55003 70002
AAXX 14061 13462 31304 70000 10076 20076 30187 40227 52009 74444 83570 333 20061 32005 55/// 82706 83640 87459
AAXX 14061 13473 NIL
AAXX 14061 13489 31496 70601 10042 20033 39705 40234 53010 71022 87600 333 20041 32003 55014 70000
AAXX 14063 61701 31958 60906 10205 20105 40122 70522 83032 333 20178 50281 55037 58005 83360 84071
AAXX 14063 61705 NIL
AAXX 14063 61707 NIL
AAXX 14063 61711 NIL
AAXX 14063 61712 NIL
AAXX 14063 61717 NIL
AAXX 14063 61720 NIL
AAXX 14063 61721 NIL
AAXX 14063 61722 NIL
AAXX 14063 61731 NIL
AAXX 14063 61733 NIL
AAXX 14061 13168 31691 70701 10011 20011 30083 40193 53005 74640 87500 333 20006 31101 55000 70000
AAXX 14061 13174 31/92 91404 10059 20057 30092 40194 53007 74544 333 20038 31001 55001 70001
AAXX 14061 13269 11/93 92301 10027 20027 39980 40200 53004 69912 74542 333 20027 31003 55024 70002
AAXX 14061 13274 31/91 90000 10062 20058 30033 40196 55005 74544 333 20062 31006 55020 70000
AAXX 14061 13278 32997 22302 10038 20024 39975 40205 50001 82030 333 21037 31001 55000 70000
AAXX 14061 13378 32898 32404 11008 21022 38279 48502 55002 83030 333 21008 31103 55006 70000
AAXX 14061 13397 32497 61104 10010 20006 39678 40232 53003 84530 333 20003 31000 55058 70000
AAXX 14061 13457 11560 40000 10093 20089 30212 40219 52008 60022 70161 84800 333 20064 32006 55/// 81826 83636
AAXX 14061 13481 NIL
AAXX 14061 13173 31694 81402 10058 20054 30087 40188 53003 71042 885// 333 20050 31003 55005 70000
AAXX 14061 13180 31695 82002 10060 20058 30084 40196 53004 71042 885// 333 20059 31005 55015 70000
AAXX 14061 13266 31/91 91102 10061 20055 30092 40194 52007 74742 333 20033 31001 55000 70004
AAXX 14061 13369 32698 22201 11023 21029 39000 48468 53005 81501 333 21026 3/105 43007 55003 70000
AAXX 14061 13383 31/91 90000 10012 20012 39999 40209 53009 74544 333 20011 31100 55006 70000
AAXX 14061 13384 31994 00000 10002 20001 30054 40211 51010 71000 333 21001 31102 50000 70000
AAXX 14061 13389 32998 10000 10003 21002 39929 40220 53003 81030 333 20003 31002 55025 70000
AAXX 14061 13477 NIL
AAXX 14061 26106 11/96 81604 10036 20022 40035 52010 60012 72582 886// 333 20024 91113
AAXX 14061 26313 12/97 62103 10043 20032 40001 52016 60032 86900 333 20020 91111
AAXX 14061 26346 11497 81905 10019 20016 40048 57001 69982 76162 8872/ 333 20007 42001 86710 91110
AAXX 14061 26406 11597 62005 10064 20050 40011 52014 60092 70282 83530 333 20024 91111
AAXX 14061 26416 33/// /2004 10032 20024 40021 52007 333 20015 91110
AAXX 14061 26424 11497 82104 10035 20027 40030 52009 60022 78082 889// 333 20014 86913 91110
AAXX 14061 26544 11596 81904 10038 20030 40066 57003 69982 78082 889// 333 20021 85920 91111
AAXX 14064 17024 12670 61911 10105 20031 30144 40222 53006 60002 83550 333 20089 31008 55061 83635 86360 91118 92438
AAXX 14064 17056 11957 42801 10093 20092 30210 40214 52006 60002 71022 84030 333 20088 31007 55040 20620 84360 91104 92416
AAXX 14064 17067 12970 51602 10075 20059 30199 40222 52008 60002 85030 333 20069 30006 55000 85360 91105 92408
AAXX 14064 17092 12670 40000 11049 21080 38955 48563 51004 60002 82550 333 21091 34110 50034 55076 21080 82640 84360
AAXX 14064 17112 11958 00102 10096 20089 30212 40214 52012 60002 71000 333 20095 31007 50094 55010 20046 91107 92406
AAXX 14064 17115 11656 60000 10097 20088 30164 40215 53006 69962 71082 84230 333 20085 32007 50144 55038 20653 70006 84835 86360
AAXX 14064 17116 12660 60701 10092 20052 30106 40229 52008 60002 84250 333 20092 31008 55010 20025 79999 84835 86360 91104
AAXX 14064 17188 11650 52701 10041 20028 39164 40241 52006 60002 71022 82532 333 20040 30002 82640 83360 85070 91104
AAXX 14064 17202 11229 82106 11037 21043 39256 40334 52007 60002 71022 886// 333 21041 3/106 43003 88706
AAXX 14064 17248 12970 60000 10003 21014 39031 48529 53006 60002 86050 333 21002 34103 55063 2//// 86360
AAXX 14064 17292 11920 51101 10035 20034 39468 40237 52010 60002 71011 83031 333 20032 31002 50054 55007 20389 83360 85070 91103
AAXX 14064 17300 12560 23406 10063 20021 30145 40218 53002 60002 82100 333 20055 30000 50221 55/// 2//// 82830
AAXX 14064 17310 12970 40603 10124 20023 30213 40220 52003 60002 84030 333 20112 30007 55053 84360 91105 92418
AAXX 14064 17330 12970 62902 10117 20021 30205 40223 51004 60002 83031 333 20107 31007 50161 55062 83360 86070
AAXX 14064 17022 12962 51203 10110 20035 30062 40228 52009 60002 83039 333 20099 30008 55009 83360 85170 91106 92427
AAXX 14064 17031 12670 51502 10076 20021 30210 40216 51004 60002 82130 333 20055 30004 82836 85360
AAXX 14064 17038 11959 39901 10103 20002 30168 40220 58001 60002 70400 83030 333 20074 30001 55075 20825 83360 92426
AAXX 14064 17050 11640 82902 10091 20090 30153 40216 52010 60002 71042 8552/ 333 20085 31007 55000 85635 88460 91107
AAXX 14064 17060 11660 52105 10118 20098 30178 40218 52007 69902 70282 83130 333 20111 32007 50311 55051 20682 79999 83835 85360
AAXX 14064 17096 11804 43501 11184 21184 38310 48588 51006 60002 74840 84030 333 21241 3/125 47008 50014 55029 20226 84358
AAXX 14064 17124 11612 50000 11006 21011 39318 40262 52005 60002 74022 81550 333 21010 34102 50074 55060 208 12 81640 85360
AAXX 14064 17128 11617 59902 11001 21003 39142 40276 52007 60002 71000 83130 333 21008 34102 50084 55037 20268 83840 85360
AAXX 14064 17170 NIL
AAXX 14064 17195 11658 60000 11013 21031 39033 48538 52012 60002 71011 82550 333 21028 34104 50084 55022 21063 82640 85360
AAXX 14064 17199 11558 81802 11003 21029 39172 40312 51003 60002 71011 8572/ 333 21026 3/105 46002 55082 20724 82720 84635 88459
AAXX 14064 17219 11520 62503 10100 20094 30077 40223 51009 60062 78022 84250 333 20085 32008 55006 20163 7011 0 84830 86360 96010
AAXX 14064 17240 3//// /0201 11020 21042 39084 40265 52007 60002 333 21029 3/104 4//// 70000
AAXX 14064 17244 11940 20302 11005 21028 39047 48531 52007 60002 71000 80001 333 21023 30/// 55/// 2//// 82070
AAXX 14064 17280 12970 33202 11002 21028 39464 40287 52007 60002 80001 333 21030 34105 50121 55074 20339 83070
AAXX 14064 17350 12960 60404 10078 20031 30139 40219 51002 60002 83031 333 20056 30/// 83360 86070
AAXX 14064 08055 11460 72514 10068 20036 39104 48474 53005 69902 76062 87700 333 20050 31005 55000 70003 95090
AAXX 14064 08075 11581 42215 10070 20040 39136 48483 52004 60012 70286 84500 333 20070 55000 70010
AAXX 14064 08084 01659 21401 10036 20023 39731 40174 53005 60002 71000 81570 333 20031 3/002 55038 60007 70000
AAXX 14064 08171 12760 62502 10054 20045 39950 40195 56002 60002 86056 333 20046 31001 50120 55039 70000
AAXX 14064 08184 02980 22402 10103 20053 39983 40138 53005 60002 80008 333 20060 3/004 55037 60007 70000
AAXX 14064 08202 01565 32416 10082 20048 39277 42818 53011 69922 70151 82130 333 20081 30007 55018 69907 70002
AAXX 14064 08235 NIL
AAXX 14064 08238 11756 70903 10086 20060 30111 40172 57007 60002 71022 81106 333 20075 55037 70000
AAXX 14064 08280 12565 62609 10092 20063 39404 40230 54000 60002 83507 333 20080 50324 55003 70000
AAXX 14064 08330 12560 82106 10125 20106 30000 40231 54000 60002 85572 333 20121 30008 50104 55012 79999
AAXX 14064 08348 11570 72302 10100 20094 39505 40245 56004 69922 72152 85550 333 20094 50084 55001 70002
AAXX 14064 08360 02965 02508 10083 20037 30181 40219 55001 60002 333 20072 3/009 55029 60007 70000
AAXX 14064 08373 02965 02409 10151 20105 30178 40199 55002 60002 333 20139 3/012 55053 60007 70000
AAXX 14064 08410 01340 81101 10106 20094 30140 40252 55002 69922 72052 8762/ 333 20099 31008 55029 69927 70002
AAXX 14064 08419 02660 70000 10047 20038 39585 40274 55002 60002 87800 333 20026 3/002 55011 60007 70000
AAXX 14064 08451 01250 71002 10135 20135 30214 40247 55005 60032 71061 8677/ 333 20104 3/008 55/// 60037 70029
AAXX 14064 08487 02980 00205 10097 20055 30203 40229 53001 60002 333 20091 3/009 55070 60007 70000
AAXX 14064 17026 12970 50201 10097 20054 30187 40226 52009 60002 83034 333 20085 30006 55056 20833 83359 85070 91103 92418
AAXX 14064 17034 12970 62102 10111 20004 30183 40230 52010 60002 86030 333 20089 30004 86360 92428
AAXX 14064 17070 12965 51502 10014 20006 39370 40264 53006 60002 85040 333 20010 3/101 45998 50084 55028 20599 85360 91103
AAXX 14064 17084 11610 60101 10005 20003 39337 40275 51003 60002 71022 83550 333 21009 34102 55042 83635 86360 91103
AAXX 14064 17090 12965 71801 11035 21060 38784 48545 52007 60002 83046 333 21047 3/105 45998 55062 83360 87270
AAXX 14064 17098 12660 20000 11165 21170 38273 48591 52006 60002 82400 333 21208 3/122 43002 50034 55028 21197 82640
AAXX 14064 17150 11604 60000 10066 20062 30102 40227 52007 69922 74442 83250 333 20062 32006 50051 55015 2048 1 70008 83835 85360
AAXX 14064 17160 12670 33603 11003 21014 39076 48532 53007 60002 83500 333 21008 34101 55071 83640 91109
AAXX 14064 17184 11640 50000 10064 20062 30115 40228 52005 69922 71022 83205 333 20063 32004 55000 70022 83840 85070 91102
AAXX 14064 17189 11420 42303 11022 21027 39073 48523 52004 60002 71011 84500 333 21034 34105 81710 84630
AAXX 14064 17210 12670 42101 10039 21039 39217 40279 52009 60002 81101 333 20018 34102 55068 81840 84070
AAXX 14064 17234 12970 60802 10082 20059 30161 40230 52011 69962 86050 333 20077 32007 50084 55003 70006 86360 91108
AAXX 14064 17260 12660 53406 10053 20003 39420 40261 53005 60002 82130 333 20003 30101 50064 55079 21256 8284 0 85360
AAXX 14064 17290 12970 30301 10133 20107 30190 40222 52009 60002 83030 333 20128 30010 50104 55003 83360 9110 6 92408
AAXX 14064 17370 12965 60000 10135 20007 30218 40222 52007 60002 80001 333 20120 30005 50144 55071 2//// 86070 92417
AAXX 14063 91487 NIL
AAXX 14063 91490 11599 21310 10264 2023/ 40104 60001 70200 82100 563//
AAXX 14063 91533 NIL
AAXX 14063 91601 NIL
AAXX 14063 91610 11599 30809 10283 20234 40068 53008 60001 70200 82108 333 562/9 82818 81280
AAXX 14063 91623 NIL
AAXX 14063 91629 NIL
AAXX 14063 91701 NIL
AAXX 14064 41859 31/07 90000 10147 20140 30136 40175 74542 89/// 333 56999 58001 70000 89///
AAXX 14064 41883 31307 80000 10148 20130 30155 40177 74244 8662/ 333 56699 58006 70000 84709 83615 88458
AAXX 14064 41891 31940 00802 10220 20120 30126 40165 70510 333 58003 70000
AAXX 14064 41907 31940 42704 10190 20130 30161 40176 70544 333 58014 70000
AAXX 14064 41923 NIL
AAXX 14064 41936 NIL
AAXX 14064 41943 NIL
AAXX 14064 41950 NIL
AAXX 14064 41978 NIL
AAXX 14064 41992 NIL
AAXX 14061 01028 11330 8//// 10001 21008 39885 49905 55001 69972 78582 883// 333 21005 70007
AAXX 14061 01397 16/// /1204 10002 21001 39359 49786 52003 60052 333 20001 70188 91108
AAXX 14061 01400 41598 62319 10067 20026 49751 52016 72582 8596/ 22200 06084 10915 70076 333 91129
AAXX 14061 01212 16/// /1112 10069 21017 39610 49626 58027 6//// 333 20060 91115
AAXX 14061 01300 41497 72014 10071 20047 49544 52009 76162 879// 22200 02071 10913 70064 333 91118
AAXX 14061 01367 11470 61303 10003 21011 39304 49735 56011 60002 70122 86600 333 21019 47028 70085 91105
AAXX 14061 01238 41X00 91515 11035 21045 38591 49688 58013 73882 333 21045 49014 91120
AAXX 14061 01427 11/00 /2118 10071 20042 39736 49752 53002 60022 780// 333 20055 70090 91128
AAXX 14064 17042 12970 01218 10137 21065 30185 40224 54000 60002 333 20129 30012 55063 92438
AAXX 14064 17074 11557 42102 11005 21007 39305 40269 52006 60002 71011 82570 333 21006 31102 55036 20561 82630 84460 91105
AAXX 14064 17086 11658 60000 10014 21016 39525 40266 52011 60002 71000 84550 333 21002 30101 2//// 84635 86360
AAXX 14064 17088 12670 50000 11021 21066 38867 48555 50003 60002 83550 333 21038 34105 55010 20163 83640 85360
AAXX 14064 17140 12665 70401 10015 21008 38751 48532 52007 60002 87200 333 20002 3/101 45998 55065 2//// 87840
AAXX 14064 17155 11604 72901 10013 20003 39111 40250 53004 60002 74442 84550 333 20008 31000 55019 84635 87359 91103
AAXX 14064 17203 12670 60000 11060 21082 38962 48593 52008 60002 84250 333 21068 3/107 47004 55075 2//// 84840 86360
AAXX 14064 17237 12965 22202 10061 20048 39727 40239 52011 60002 80001 333 20050 31001 55037 82070 91104
AAXX 14064 17250 3//// /0403 10012 21019 38852 40268 5//// 60002 333 2//// 3//// 4////
AAXX 14064 17270 12670 32803 10064 21025 39597 40258 52008 60002 81130 333 20043 31101 55062 81840 83360
AAXX 14064 17295 11560 50405 10078 20070 30219 40226 52009 60012 70282 82140 333 20068 32006 50244 55051 70010 82830 85360
AAXX 14064 17320 3//// /3302 10124 20042 30215 40222 5//// 60002 333 2//// 3//// 4////
AAXX 14064 17375 12970 30102 10106 20035 30217 40219 55000 60002 83030 333 20092 30006 50221 55052 83360 91106 92408
AAXX 14064 08261 11470 82406 10120 20109 39757 40237 53001 69922 75052 8477/ 333 20114 31011 55013 70008
AAXX 14064 17500 12560 71304 10086 20048 30170 40231 54000 60002 81170 333 20074 30005 50401 55072 20654 81825 87360
AAXX 14064 17501 12960 81705 10129 20023 30197 40216 52006 60002 80007 333 20123 30011 55068 21033 88270 92427
AAXX 14064 17505 12960 81103 10121 20066 30113 40227 53006 60002 80007 333 20105 30008 55/// 2//// 88270
AAXX 14064 17507 12560 72107 10127 20007 30117 40238 52005 60002 81170 333 20100 30008 5///1 55/// 2//// 81825 87360
AAXX 14064 17510 12960 80000 10143 20087 30188 40198 55002 60002 80007 333 20125 30010 50101 55064 20766 88270 92417
AAXX 14064 17515 12960 80000 10084 20057 21043 40239 53006 60002 80007 333 20075 30006 50201 55067 21043 88270
AAXX 14064 17521 125560 72708 10115 20067 30074 40214 52006 60002 81108 333 20093 30007 50101 55066 21070 81825 87270
AAXX 14064 17530 12960 80104 10108 20087 30163 40221 55001 60002 80007 333 20083 30007 55070 21096 88270
AAXX 14064 17535 12960 80207 10122 20082 30162 40199 56003 60002 80007 333 20103 30008 55016 21087 88270
AAXX 14064 17540 12560 80111 10174 20090 30204 40228 5//// 60002 81107 333 20109 30008 50171 55/// 2//// 81830 88270 92437
AAXX 14064 17547 12560 80609 10144 20070 39970 40213 5//// 60002 81107 333 20131 30010 5///1 55/// 2//// 81830 88270 92437
AAXX 14064 17550 12960 80707 10145 20060 30063 40209 51001 60002 80007 333 20118 30009 55071 21118 88270 92427
AAXX 14064 17572 12960 8//// 10136 20079 30203 40228 55004 60002 80007 333 20124 30010 88270 92417
AAXX 14061 33466 11/04 91502 10032 20032 30008 40198 52004 69942 74754 333 20024
AAXX 14061 34523 32497 81203 10006 21011 30196 40274 53002 886// 333 21036 88710
AAXX 14061 34712 31430 81105 10016 20013 30168 40256 53003 71022 886// 333 20010 88712
AAXX 14061 33506 11/93 90000 10006 20006 30029 40230 53001 60012 74384 333 21013 93403
AAXX 14064 06030 01565 72022 10040 20012 39835 49850 51006 60012 78082 82962 333 10053 20035 32002 69907 70046 82925 85356 91134
AAXX 14064 06060 01360 62213 10034 20013 39804 49868 51006 60062 78081 85931 333 10055 20022 32001 60027 70138 83709 85920 91035 91147
AAXX 14064 06070 NIL
AAXX 14064 06120 36580 72020 10054 20026 39891 49916 52009 333 10063 20054 3/003 81/22 83/26 87/31 91031 91142
AAXX 14064 06180 02580 62116 10052 20025 39937 49944 52009 69912 81531 333 10067 20052 31003 6///7 70057 81626 85067
AAXX 14064 06193 05681 32115 10057 20031 39969 49980 52014 6///2 333 10065 20056 55300 20000 6///7 70092 81/33 83/65 91026 91130
AAXX 14064 07181 01/// /2219 10070 20056 39623 40031 56021 60022 761// 333 10075 20055 32005 55/// 60027 70042 90710 91134 93100 555 60015
AAXX 14064 71401 16/// /1803 11044 21068 39516 40217 53008 60001 333 11040 21092 70007
AAXX 14064 71402 NIL
AAXX 14064 71404 NIL
AAXX 14064 71405 NIL
AAXX 14064 71406 NIL
AAXX 14064 71407 NIL
AAXX 14064 71408 NIL
AAXX 14064 71409 NIL
AAXX 14064 71410 15466 82006 11043 21057 39835 40118 56012 60001 333 11042 21151 70000
AAXX 14064 71413 NIL
AAXX 14064 71414 NIL
AAXX 14064 71415 16/// /0323 10030 20010 30228 40231 53003 60001 333 10052 20003 70000 555 30227 40061
AAXX 14064 71417 NIL
AAXX 14064 71418 NIL
AAXX 14064 71419 46/// /0411 10038 20022 30204 40214 55003 6///1 333 10070 20012 7//// 555 30317 40051
AAXX 14064 71423 NIL
AAXX 14064 71424 NIL
AAXX 14064 71425 16/// /3204 11043 21077 30270 40307 50002 60001 333 11023 21044 70050 555 30821 40151
AAXX 14064 71426 NIL
AAXX 14064 71427 16/// /3605 11064 21085 30301 40309 58001 60001 333 11018 21072 70000 555 30624 40081
AAXX 14064 71428 16/// /1003 11040 21077 30296 40302 58001 60001 333 11011 21041 70000 555 30519 40091
AAXX 14064 71429 16/// /3606 11027 21042 30266 40286 55001 60001 333 10007 21032 70040 555 30527 40151
AAXX 14064 71434 NIL
AAXX 14064 71436 17958 81503 11001 21007 30042 40280 56007 60001 710// 333 10069 21056 70000
AAXX 14064 71437 46/// /2702 10043 21003 30181 40277 58008 6///1 333 10080 20006 7////
AAXX 14064 71438 NIL
AAXX 14064 71439 NIL
AAXX 14064 71440 NIL
AAXX 14064 71442 16/// /1904 11054 21059 39834 40154 58019 60001 333 11051 21171 70000 555 32022 40191
AAXX 14064 71445 NIL
AAXX 14064 71446 16/// /2117 11076 21088 39100 40091 56015 60001 333 11062 21081 70003 555 31927 40081
AAXX 14064 71448 NIL
AAXX 14064 71449 NIL
AAXX 14064 71726 16/// /2501 11053 21061 39742 40296 56002 60001 333 11005 21054 70000
AAXX 14064 71727 11466 82904 11026 21046 30101 40303 56001 69901 78582 885// 333 10010 21030 47021 70010 90957 555 10030 20010
AAXX 14064 71728 11682 72702 11052 21090 30082 40310 56004 69901 72222 87500 333 10012 21052 42997 79999 90962 555 19999 29999
AAXX 14064 71730 11004 91204 11002 21002 39845 40277 58010 69901 74554 333 10020 21003 41997 70012 90951 555 19999 29999
AAXX 14064 71731 11016 81406 10000 21001 39822 40281 58005 60001 71022 886// 333 10023 20000 70052 555 19999 29999
AAXX 14064 71735 NIL
AAXX 14064 71738 NIL
AAXX 14064 71739 41566 81805 11037 21044 39900 40273 57013 6//// 77177 885// 333 11029 21062 4//// 7//// 90973 555 1//// 2////
AAXX 14064 71749 16328 80905 11030 21042 39990 40242 58023 60001 333 11029 21058 70000
AAXX 14064 71799 12983 72702 10004 21009 30173 40197 51010 60001 87070 333 10048 21027 70000 555 10000 20000
AAXX 14064 71800 17/// /0428 11008 21017 30189 40222 55001 60011 7//4/ 333 10032 21031 70014 555 30436 40053
AAXX 14064 71801 11474 80415 11050 21075 30078 40255 53005 60021 77177 885// 333 10007 21050 48003 70016 90973 93102 555 10026 20016 30422 40060
AAXX 14064 71803 12880 23208 11103 21136 30080 40273 58002 60001 82070 333 11038 21103 79999 555 19999 29999
AAXX 14064 71807 NIL
AAXX 14064 71808 12974 00000 11168 21210 30228 40277 55004 60001 333 11118 21168 70000 555 10000 20000
AAXX 14064 71809 12974 00000 11152 21162 30266 40295 53003 60001 333 11028 21153 70020
AAXX 14064 71810 NIL
AAXX 14064 71811 NIL
AAXX 14064 71813 NIL
AAXX 14064 71814 16/// /3306 11160 21178 30287 40297 55001 60001 333 11090 21161 70000
AAXX 14064 71815 NIL
AAXX 14064 71140 11366 82312 11042 21045 39642 40152 5/015 69901 77177 886// 333 11042 21103 41997 79999 90973 555 19999 29999 32317 40020
AAXX 14064 71500 NIL
AAXX 14064 71501 NIL
AAXX 14064 71502 NIL
AAXX 14064 71503 NIL
AAXX 14064 71504 NIL
AAXX 14064 71505 NIL
AAXX 14064 71506 NIL
AAXX 14064 71507 16/// /3104 11052 21105 60001 333 11025 21078 7////
AAXX 14064 71508 16/// ///// 10049 21005 30145 40285 58005 60001 333 10072 20009 70000
AAXX 14064 71509 NIL
AAXX 14064 71511 NIL
AAXX 14064 71512 NIL
AAXX 14064 71513 15566 60209 11160 21184 30288 40304 58002 60001 333 11099 21172 70000
AAXX 14064 71514 NIL
AAXX 14064 71515 NIL
AAXX 14064 71516 16/// /2103 11060 21068 60001 333 11049 21075 70000
AAXX 14064 71517 NIL
AAXX 14064 71518 NIL
AAXX 14064 71519 NIL
AAXX 14064 71520 NIL
AAXX 14064 71521 NIL
AAXX 14064 71522 NIL
AAXX 14064 71523 NIL
AAXX 14064 71524 16/// /0202 10000 21002 30275 40302 53004 60001 333 10002 21031 70010
AAXX 14064 71525 NIL
AAXX 14064 71526 NIL
AAXX 14064 71527 15362 81708 11021 21022 39680 40196 57020 60001 333 11021 21107 70000
AAXX 14064 71528 NIL
AAXX 14064 71529 46/// /1003 11222 21259 39906 40141 51018 6///1 333 11006 21256 7//// 555 33136 40113
AAXX 14064 71532 17428 82401 11001 21001 39927 40277 58006 69931 710// 333 10047 21015 70046
AAXX 14064 71534 16858 81903 10008 21017 30003 40278 57007 60001 333 10085 21028 70000
AAXX 14064 71535 NIL
AAXX 14064 71536 NIL
AAXX 14064 71537 NIL
AAXX 14064 71539 NIL
AAXX 14064 71540 NIL
AAXX 14064 71541 NIL
AAXX 14064 71542 16/// /0402 11077 21091 60001 333 10005 21092 70000 555 32526 40091
AAXX 14064 71543 NIL
AAXX 14064 71544 NIL
AAXX 14064 71545 16/// ///// 11032 21089 60001 333 11006 21093 70012
AAXX 14064 71546 NIL
AAXX 14064 71547 NIL
AAXX 14064 71548 NIL
AAXX 14064 71549 NIL
AAXX 14064 71864 NIL
AAXX 14064 71865 16/// /2208 11049 21064 39425 40113 58013 60001 333 11049 21067 70000 555 32021 40091
AAXX 14064 71866 46964 02106 11062 21085 39483 40103 56010 6///1 333 11017 21077 7//// 555 31920 40071
AAXX 14064 71867 12574 82005 11057 21069 39769 40107 56010 60001 88500 333 11037 21097 70000 555 10000 20000 32618 40230
AAXX 14064 71868 16/// /2206 11047 21068 39667 40112 55010 60001 333 11042 21064 70000 555 32221 40091
AAXX 14064 71869 12974 81904 11049 21063 39567 40095 57009 60001 8802/ 333 11028 21075 70000 555 10000 20000
AAXX 14064 71871 15866 81909 11056 21091 39257 40072 55014 60001 333 11038 21096 70000
AAXX 14064 71877 12974 62818 10039 21061 38797 40066 53001 60001 80002 333 10040 21152 70000 555 10000 20000 32824 40061
AAXX 14064 71878 12974 61804 11125 21143 39005 40103 53015 60001 81071 333 11029 21173 70000 555 10000 20000
AAXX 14064 71879 16964 83011 11008 21070 39263 40069 51021 60001 333 10006 21097 70000
AAXX 14064 71880 12582 80000 11072 21086 39072 40205 53010 60001 885// 333 11065 21099 79999 555 19999 29999
AAXX 14064 71882 16564 80000 11033 21060 39656 40206 53008 60001 333 11027 21077 70000
AAXX 14064 71883 46/// /0000 11069 21076 39359 40199 53011 6///1 333 11064 21145 7////
AAXX 14064 71887 12986 72102 11036 21066 39767 40197 51019 60001 86071 333 11007 21074 70000 555 10000 20000
AAXX 14064 71889 12574 81711 11018 21054 39793 40220 53019 60001 88500 333 11017 21098 70000 555 10000 20000 31826 40201
AAXX 14064 71891 16964 00304 11022 21071 39907 40187 53019 60001 333 11001 21061 70000
AAXX 14064 71892 12680 61006 10008 21016 30194 40199 51010 60001 82570 333 10040 21013 70000 555 10000 20000
AAXX 14064 71744 NIL
AAXX 14064 71750 16/// /0603 11062 21069 30017 40258 56009 60001 333 11036 21068 70000
AAXX 14064 71751 NIL
AAXX 14064 71752 NIL
AAXX 14064 71753 16/// /3407 10025 20007 30192 40221 58003 60001 333 10069 21030 70000 555 10010 30019 40011
AAXX 14064 71754 NIL
AAXX 14064 71755 43/// /2514 11039 21061 39802 40153 56007 6///1 333 11039 21239 7//// 555 32327 40201
AAXX 14064 71756 16/// /0402 11022 21046 39074 40177 51013 60001 333 11006 21052 70000
AAXX 14064 71758 NIL
AAXX 14064 71760 NIL
AAXX 14064 71761 NIL
AAXX 14064 71762 NIL
AAXX 14064 71763 NIL
AAXX 14064 71765 16/// /0303 11024 21071 39904 40183 51019 60001 333 11002 21064 70000
AAXX 14064 71766 16/// /2301 11007 21013 30118 40191 53007 60001 333 10035 21008 70000
AAXX 14064 71767 16/// /1403 10021 20017 30004 40268 58010 60001 333 10056 20011 70000
AAXX 14064 71768 46/// /1603 11047 21071 39658 40219 53018 6///1 333 11022 21075 7//// 555 31517 40041
AAXX 14064 71769 16/// /1209 10041 20014 30166 40182 53007 60001 333 10041 20023 70002
AAXX 14064 71770 16/// /0000 11030 21052 39421 40207 53009 60001 333 11020 21050 70000
AAXX 14064 71771 NIL
AAXX 14064 71772 16/// /1408 10039 20019 30177 40183 52007 60001 333 10043 20023 70000
AAXX 14064 71773 16/// /0000 11163 21174 39262 40137 53009 60001 333 11019 21166 70000
AAXX 14064 71774 46/// ///// 10006 6///1 333 10024 21014 7////
AAXX 14064 71775 46/// /1301 10002 21008 30197 40203 51013 6///1 333 10027 21038 7////
AAXX 14064 71776 46/// /2707 11020 21054 39552 40206 53007 6///1 333 11016 21083 7////
AAXX 14064 71777 16/// ///// 11041 21045 39945 40203 51014 60001 333 11032 21090 70000
AAXX 14064 71778 46/// /3602 6///1 333 7////
AAXX 14064 71779 16/// /1601 11023 21043 39506 40174 52016 60001 333 10007 21035 70000 555 10010 31318 40171
AAXX 14064 71780 16/// /2903 10043 21005 30170 40198 51006 60001 333 10065 20024 70000
AAXX 14064 71781 46/// /1004 10034 20014 30162 40187 53007 6///1 333 10040 20028 7////
AAXX 14064 71782 46/// /0000 38828 55000 6///1 333 7////
AAXX 14064 71783 NIL
AAXX 14064 71784 16/// /0301 10008 21036 39984 40191 51011 60001 333 10032 21008 70000
AAXX 14064 71785 NIL
AAXX 14064 71786 46/// /2620 11119 21133 38305 40182 51006 6///1 333 11111 21166 7//// 555 32629 40042
AAXX 14064 71787 16/// /0209 11022 21026 39755 40251 58001 60001 333 10043 21022 70000 555 30319 40041
AAXX 14064 71788 NIL
AAXX 14064 71789 NIL
AAXX 14064 71791 NIL
AAXX 14064 71792 NIL
AAXX 14064 71793 NIL
AAXX 14064 71794 NIL
AAXX 14064 71795 NIL
AAXX 14064 71796 NIL
AAXX 14064 71797 NIL
AAXX 14064 71550 NIL
AAXX 14064 71551 NIL
AAXX 14064 71552 NIL
AAXX 14064 71553 16/// /2409 11074 21081 60001 333 11059 21098 70000
AAXX 14064 71554 16/// /0501 11027 21043 30300 40306 55003 60001 333 10011 21030 70000
AAXX 14064 71555 NIL
AAXX 14064 71556 NIL
AAXX 14064 71557 46/// /0000 11066 21080 6///1 333 11010 21108 7////
AAXX 14064 71558 NIL
AAXX 14064 71559 46/// /2209 11062 21070 39426 40138 57016 6///1 333 11050 21064 7////
AAXX 14064 71560 16/// /1911 11022 21034 39856 40162 56017 60001 333 11019 21103 70000
AAXX 14064 71563 NIL
AAXX 14064 71564 NIL
AAXX 14064 71565 NIL
AAXX 14064 71566 NIL
AAXX 14064 71567 NIL
AAXX 14064 71568 17/// /1110 10022 20009 30179 40192 51008 60011 7//4/ 333 10037 20014 70020 555 31517 40131
AAXX 14064 71569 16/// /2010 11054 21065 39398 40107 56013 60001 333 11045 21061 70000 555 31919 40121
AAXX 14064 71570 16/// /1905 11014 21036 39852 40169 56019 60001 333 11014 21118 70000
AAXX 14064 71571 NIL
AAXX 14064 71572 NIL
AAXX 14064 71573 16/// /1801 10017 21002 39986 40272 58009 60001 333 10070 21063 70000
AAXX 14064 71574 11474 80000 11020 21028 30219 40294 55001 69961 77177 885// 333 10004 21022 43022 70026 90983 93101 555 10024 20026
AAXX 14064 71575 16/// /2415 11057 21070 39769 49832 56014 60001 333 11050 21163 70013 555 31734 40223
AAXX 14064 71576 16/// /1706 11247 21293 39918 40006 56015 60001 333 11237 21310 70000
AAXX 14064 71577 NIL
AAXX 14064 71578 17/// /0611 10002 21025 60011 7//4/ 333 10009 21013 70010 555 30617 40061
AAXX 14064 71579 NIL
AAXX 14064 71580 11516 70714 11130 21150 39720 49755 50001 60011 77177 87700 333 11130 21228 46032 70044 90983 93101 555 10044 20044 31039 40183
AAXX 14064 71581 NIL
AAXX 14064 71582 15366 82701 11003 21003 30132 40186 51006 60001 333 10058 21006 70145
AAXX 14064 71583 NIL
AAXX 14064 71584 15966 00203 11156 21172 30260 40310 50000 60001 333 11086 21156 70000
AAXX 14064 71585 NIL
AAXX 14064 71586 16/// /1803 11079 21089 39611 40080 56008 60001 333 11033 21107 70000 555 31917 40121
AAXX 14064 71587 NIL
AAXX 14064 71588 16/// /0504 11151 21163 60001 333 11044 21151 70000
AAXX 14064 71589 16/// /3505 11073 21119 30129 40265 53007 60001 333 10030 21728 70000 555 31478 40153
AAXX 14064 71590 16/// /2801 11030 21053 30097 40293 57003 60001 333 10010 21085 70000
AAXX 14064 71592 NIL
AAXX 14064 71593 NIL
AAXX 14064 71596 NIL
AAXX 14064 71598 17/64 /0903 11019 21051 30287 40293 55001 69931 7//4/ 333 10011 21020 70007 555 30324 40191
AAXX 14064 71599 16/// /0404 10001 21016 30037 40242 58005 60001 333 10068 21016 70006
AAXX 14064 71114 16764 81202 10007 21034 30152 40201 51017 60001 333 10025 21025 70000
AAXX 14064 71120 NIL
AAXX 14064 71122 16/// /2208 11082 21108 38515 40145 51010 60001 333 11064 21129 70000 555 32425 40011
AAXX 14064 71123 12974 72805 11032 21076 39206 40078 52019 60001 85071 333 11014 21137 70000 555 10000 20000
AAXX 14064 71125 NIL
AAXX 14064 71129 12974 61503 11108 21121 39249 40096 57016 60001 80001 333 11038 21132 70000 555 10000 20000
AAXX 14064 71131 16/// /2405 11088 21094 38820 40091 57012 60001 333 11070 21089 70000
AAXX 14064 71135 NIL
AAXX 14064 71137 NIL
AAXX 14064 71140 11366 82312 11042 21045 39642 40152 57015 69901 77177 886// 333 11042 21103 41997 79999 90973 555 19999 29999 32317 40020
AAXX 14064 71145 11374 82207 11062 21082 39845 40145 57008 69901 77177 885// 333 11061 21189 48031 70002 90983 555 10002 20002 32220 40200
AAXX 14064 71148 NIL
AAXX 14064 71182 16964 02402 11255 21302 39726 40301 56006 60001 333 11165 21294 70000
AAXX 14064 71185 16964 00000 11127 30256 40281 55006 60001 333 11057 21152 70000
AAXX 14064 71188 NIL
AAXX 14064 71200 16/// /0000 10033 21004 60001 333 10056 20004 70000
AAXX 14064 71207 16/// /0201 11011 21023 30129 40194 51012 60001 333 10014 21034 70000
AAXX 14064 71260 13/// ///// 10021 20019 30030 40270 56009 60001 333 10026 20005 70004 555 10000 20000
AAXX 14064 71397 12474 80508 10020 21004 30213 40248 58004 60001 885// 333 10069 21019 70000 555 10000 20000
AAXX 14064 71400 16/64 /3402 11145 21154 60001 333 11029 21145 70000
AAXX 14064 71403 46/// /3618 10037 20037 30192 40212 56006 6///1 333 10069 20036 7//// 555 33523 40061
AAXX 14064 71411 16/// /3508 10008 21007 30217 40230 58002 60001 333 10096 20006 70000 555 33519 40041
AAXX 14064 71412 16/// /0425 10018 21010 30228 40238 51007 60001 333 10048 21024 70000 555 30430 40062
AAXX 14064 71421 NIL
AAXX 14064 71430 16/// /2603 10040 20029 30181 40279 56009 60001 333 10063 20017 70000 555 32817 40081
AAXX 14064 71431 16/// /1401 10016 20001 30173 40270 58008 60001 333 10059 21020 70000
AAXX 14064 71432 16/// /2302 10043 20017 30182 40280 58007 60001 333 10085 20009 70000
AAXX 14064 71433 NIL
AAXX 14064 71435 NIL
AAXX 14064 71441 46/// /1909 11028 21043 39845 40159 56017 6///1 333 11028 21112 7////
AAXX 14064 71443 16/// /2310 11049 21064 39703 40120 56013 60001 333 11038 21068 70000 555 32428 40202
AAXX 14064 71444 NIL
AAXX 14064 71447 16/// /2207 11042 21050 39594 40147 56015 60001 333 11042 21073 70000 555 31817 40141
AAXX 14064 71467 16/// /2812 11274 21300 30039 40160 55001 60001 333 11272 21360 70000
AAXX 14064 71472 NIL
AAXX 14064 71474 16564 82602 11063 21088 38922 40184 51022 60001 333 11048 21094 70000 555 31718 40211
AAXX 14064 71510 16/// /2204 11083 21099 39377 40093 58009 60001 333 11022 21099 70000 555 32020 40071
AAXX 14064 71538 12562 80000 10033 20001 30047 40281 58001 60001 885// 333 10057 21025 70000 555 10000 20000
AAXX 14064 71600 17564 80116 10057 20032 30181 40187 58010 60001 743// 333 10089 20055 70000 555 30020 40061
AAXX 14064 71601 NIL
AAXX 14064 71201 16/// ///// 10035 21004 60001 333 10049 20005 70000
AAXX 14064 71202 16/// ///// 11081 21113 60001 333 11028 21116 70000
AAXX 14064 71203 15566 81904 11030 21063 39679 40209 53011 60001 333 11006 21105 70000
AAXX 14064 71209 46/// /1208 10036 6///1 333 10042 20016 7////
AAXX 14064 71211 46/// /3402 10028 21001 30182 40194 52010 6///1 333 10037 20021 7////
AAXX 14064 71212 16/// /1702 11035 21040 39455 40273 55001 60001 333 11001 21038 70000
AAXX 14064 71213 46/// /1601 11020 21020 39973 40280 57012 6///1 333 10002 21026 7////
AAXX 14064 71214 NIL
AAXX 14064 71215 46/// /1403 11021 21059 39865 40218 53010 6///1 333 11019 21088 7////
AAXX 14064 71216 16/// /0501 11019 21054 39569 40195 53007 60001 333 11011 21056 70000
AAXX 14064 71217 NIL
AAXX 14064 71218 16/// /1403 11015 21060 39760 40194 53014 60001 333 11002 21073 70000
AAXX 14064 71219 46/// /0607 10026 20005 30159 40165 50000 6///1 333 10047 20019 7//// 555 33420 40171
AAXX 14064 71220 46/// /1107 10026 21001 6///1 333 10057 20022 7////
AAXX 14064 71221 NIL
AAXX 14064 71222 16/// /0000 11129 21142 39188 40181 53009 60001 333 11089 21165 70000
AAXX 14064 71223 NIL
AAXX 14064 71224 NIL
AAXX 14064 71225 NIL
AAXX 14064 71226 NIL
AAXX 14064 71227 NIL
AAXX 14064 71228 NIL
AAXX 14064 71229 NIL
AAXX 14064 71230 16/// /3106 11049 21080 39221 40122 51027 60001 333 10002 21060 70060 555 10090 20060 32628 40072
AAXX 14064 71231 16/// /1712 11097 21124 60001 333 11066 21152 70000 555 31518 40011
AAXX 14064 71232 16/// /2514 11043 21105 38593 40104 51008 60001 333 11026 21096 70000 555 32429 40182
AAXX 14064 71233 16/// /3202 11022 21080 60001 333 10019 21108 7////
AAXX 14064 71234 16/// /3002 11082 21121 38882 40091 53006 60001 333 11037 21260 70000
AAXX 14064 71235 16/// /3111 10001 21066 60001 333 10009 21084 70000 555 33218 40161
AAXX 14064 71236 46/// /3114 11050 21106 6///1 333 11034 21137 7//// 555 33433 40032
AAXX 14064 71237 46/// /1404 11163 21182 39253 40093 56001 6///1 333 11100 21176 7////
AAXX 14064 71238 16/// /2703 11015 21096 60001 333 11003 21115 70000
AAXX 14064 71239 16/// /2311 11028 21043 39683 40151 56017 60001 333 11028 21110 70000 555 32422 40201
AAXX 14064 71240 16/// ///// 11084 21099 39232 40091 58013 60001 333 11050 21148 70000
AAXX 14064 71241 NIL
AAXX 14064 71242 16/// /1302 11105 21127 60001 333 11037 21152 70000
AAXX 14064 71243 NIL
AAXX 14064 71244 16/// /2801 11086 21111 38839 40086 56010 60001 333 11068 21196 70000
AAXX 14064 71245 46/// /2312 11072 21105 6///1 333 11029 21079 7//// 555 32448 40013
AAXX 14064 71246 NIL
AAXX 14064 71247 15966 00602 11112 21122 39221 40092 56013 60001 333 11026 21124 70000
AAXX 14064 71248 17/// /0000 11102 21116 38765 40086 51012 69961 7//4/ 333 11025 21172 70006
AAXX 14064 71249 NIL
AAXX 14064 71950 15366 83302 11050 21054 39547 40189 53020 60001 333 11026 21070 70088
AAXX 14064 71952 16/// /3101 11190 21209 39313 40189 53019 60001 333 11020 21190 70099 555 10140 20099
AAXX 14064 71954 NIL
AAXX 14064 71956 NIL
AAXX 14064 71959 NIL
AAXX 14064 71960 460// /2506 11301 30083 40224 51009 6///1 333 11254 21307 7//// 555 30119 40071
AAXX 14064 71962 16/// /1606 10002 21011 39766 40194 56019 60001 333 10002 21101 70000
AAXX 14064 71963 NIL
AAXX 14064 71967 16/// /0801 11002 21002 30193 40301 51001 60001 333 10003 21052 70008
AAXX 14064 71970 NIL
AAXX 14064 71971 16/// /0712 11196 21258 39999 40046 58007 60001 333 11193 21293 70000 555 30718 40061
AAXX 14064 71972 460// ///// 11075 39576 40042 56038 6///1 333 11075 21136 7////
AAXX 14064 71973 46/// /0000 11127 21141 30090 40285 53004 6///1 333 11025 21127 7////
AAXX 14064 71974 NIL
AAXX 14064 71975 460// /1315 11199 39295 40040 58020 6///1 333 11198 21223 7//// 555 32733 40072
AAXX 14064 71976 NIL
AAXX 14064 71977 NIL
AAXX 14064 71978 NIL
AAXX 14064 71979 NIL
AAXX 14064 71980 NIL
AAXX 14064 71981 NIL
AAXX 14064 71982 NIL
AAXX 14064 71983 NIL
AAXX 14064 71984 16/// /2208 11288 21316 30195 40204 51010 60001 333 11236 21290 70000
AAXX 14064 71985 NIL
AAXX 14064 71986 NIL
AAXX 14064 71987 16/// /0419 10004 21030 30262 40272 51007 60001 333 10027 21029 70000 555 30426 40001
AAXX 14064 71988 NIL
AAXX 14064 71989 NIL
AAXX 14064 71990 NIL
AAXX 14064 71999 46/// ///// 11034 6///1 333 11010 21053 7////
AAXX 14064 71603 12574 70508 10013 21009 30187 40241 58002 60001 87500 333 10091 21003 70000 555 10000 20000
AAXX 14064 71607 16/// /3203 11003 21028 30236 40269 56004 60001 333 10063 21072 70000
AAXX 14064 71609 12474 70311 10007 21031 30125 40261 58001 60001 87500 333 10048 21036 70000 555 10000 20000
AAXX 14064 71610 17112 83601 11009 21010 39983 40285 56001 60001 771// 333 10008 21097 70000
AAXX 14064 71621 16730 60000 10010 20004 30175 40283 58005 60001 333 10143 21050 7////
AAXX 14064 71623 NIL
AAXX 14064 71624 12974 72505 10027 21017 30064 40279 58007 60001 87070 333 10086 21026 70000 555 10000 20000
AAXX 14064 71625 16358 80000 10006 21021 30126 40290 56001 60001 333 10031 20005 70025
AAXX 14064 71627 11248 80404 10013 21008 30245 40290 53002 69901 71075 885// 333 10015 21011 70002 90941 555 19999 20002
AAXX 14064 71628 11232 80000 10016 20013 30145 40288 54000 69941 71066 81500 333 10030 21014 70008 909/7
AAXX 14064 71630 NIL
AAXX 14064 71631 16/// /1603 10008 21027 39766 40273 58008 60001 333 10039 21029 70000
AAXX 14064 71633 12862 71505 10020 21005 39996 40271 58009 60001 87030 333 10060 20014 70002 555 10000 20000
AAXX 14064 71705 11374 70311 11001 21018 30176 40265 51005 69941 72672 87500 333 10050 21047 42001 70004 90936 93101 555 10006 20004 30219 40040
AAXX 14064 71706 11459 80413 10007 21014 30196 40257 52010 69941 77165 885// 333 10030 21061 70004 90952 555 10002 20002 30324 40061
AAXX 14064 71707 12574 80409 10030 20002 30148 40225 55001 60001 885// 333 10036 21056 70002 555 10000 20000
AAXX 14064 71709 NIL
AAXX 14064 71711 NIL
AAXX 14064 71714 16/// /0705 11001 21022 30217 40311 58001 60001 333 10011 21026 70000
AAXX 14064 71715 16/// /0102 11030 21050 30113 40299 55004 60001 333 10002 21030 70000
AAXX 14064 71718 11448 80802 11036 21041 30239 40306 57004 60021 77177 885// 333 10012 21043 47013 70022 90983 93102 555 10022 20022
AAXX 14064 71719 NIL
AAXX 14064 71300 NIL
AAXX 14064 71301 16/// ///// 11033 21033 39869 40277 58010 60001 333 11008 21052 70000
AAXX 14064 71302 16/// /2103 11068 21077 39339 40170 51017 60001 333 11010 21068 70008 555 32026 40211
AAXX 14064 71303 46/// ///// 10044 20015 6///1 333 10055 21039 7////
AAXX 14064 71305 15466 80306 11088 21103 39799 40101 53018 60001 333 10006 21115 70000
AAXX 14064 71306 17404 82532 11040 21053 39985 40017 58016 60001 773// 333 11027 21090 70000
AAXX 14064 71307 NIL
AAXX 14064 71308 17/// /0311 10029 20020 30139 40224 55001 60011 7//4/ 333 10062 20001 70011
AAXX 14064 71309 NIL
AAXX 14064 71310 16/// /0212 10004 21025 30215 40252 52011 60001 333 10027 21044 70000 555 30321 40061
AAXX 14064 71311 NIL
AAXX 14064 71312 NIL
AAXX 14064 71314 NIL
AAXX 14064 71315 NIL
AAXX 14064 71316 16/// /2004 11034 21078 39361 40044 58001 60001 333 11005 21100 70000
AAXX 14064 71317 NIL
AAXX 14064 71318 16/// /1909 11131 21152 39119 40084 58006 60001 333 11074 21146 70000 555 10020 31917 40071
AAXX 14064 71319 16/// /0403 11060 21062 39397 40278 57001 60001 333 11007 21060 70000
AAXX 14064 71320 NIL
AAXX 14064 71321 16/// /1323 11076 21086 39914 49957 56060 60001 333 11073 21254 70000 555 31332 40062
AAXX 14064 71322 NIL
AAXX 14064 71323 NIL
AAXX 14064 71331 16/// /2102 11058 21077 60001 333 11032 21097 70000 555 10020 32219 40191
AAXX 14064 71332 NIL
AAXX 14064 71334 NIL
AAXX 14064 71335 46964 02314 11113 56022 6///1 333 11103 21152 7//// 555 32743 40093
AAXX 14064 71336 46/// ///20 11034 21085 30216 40239 53004 6///1 333 10007 21036 7////
AAXX 14064 71337 46/// /2903 11107 21130 30020 40267 55003 6///1 333 11058 21107 7//// 555 33122 40001
AAXX 14064 71338 46964 01904 11263 21302 30032 40039 56020 6///1 333 11190 21285 7////
AAXX 14064 71339 16964 03112 11136 21203 30243 40258 55001 60001 333 11124 21173 70005 555 32818 40111
AAXX 14064 71340 NIL
AAXX 14064 71341 NIL
AAXX 14064 71342 NIL
AAXX 14064 71343 NIL
AAXX 14064 71344 NIL
AAXX 14064 71345 NIL
AAXX 14064 71346 NIL
AAXX 14064 71347 NIL
AAXX 14064 71348 NIL
AAXX 14064 71349 NIL
AAXX 14064 17026 12970 50201 10097 20054 30187 40226 52009 60002 83034 333 20085 30006 55056 20833 83359 85070 91103 92418
AAXX 14064 17034 12970 62102 10111 20004 30183 40230 52010 60002 86030 333 20089 30004 86360 92428
AAXX 14064 17070 12965 51502 10014 20006 39370 40264 53006 60002 85040 333 20010 3/101 45998 50084 55028 20599 85360 91103
AAXX 14064 17084 11610 60101 10005 20003 39337 40275 51003 60002 71022 83550 333 21009 34102 55042 83635 86360 91103
AAXX 14064 17090 12965 71801 11035 21060 38784 48545 52007 60002 83046 333 21047 3/105 45998 55062 83360 87270
AAXX 14064 17098 12660 20000 11165 21170 38273 48591 52006 60002 82400 333 21208 3/122 43002 50034 55028 21197 82640
AAXX 14064 17150 11604 60000 10066 20062 30102 40227 52007 69922 74442 83250 333 20062 32006 50051 55015 20481 70008 83835 85360
AAXX 14064 17160 12670 33603 11003 21014 39076 48532 53007 60002 83500 333 21008 34101 55071 83640 91109
AAXX 14064 17184 11640 50000 10064 20062 30115 40228 52005 69922 71022 83205 333 20063 32004 55000 70022 83840 85070 91102
AAXX 14064 17189 11420 42303 11022 21027 39073 48523 52004 60002 71011 84500 333 21034 34105 81710 84630
AAXX 14064 17210 12670 42101 10039 21039 39217 40279 52009 60002 81101 333 20018 34102 55068 81840 84070
AAXX 14064 17234 12970 60802 10082 20059 30161 40230 52011 69962 86050 333 20077 32007 50084 55003 70006 86360 91108
AAXX 14064 17260 12660 53406 10053 20003 39420 40261 53005 60002 82130 333 20003 30101 50064 55079 21256 82840 85360
AAXX 14064 17290 12970 30301 10133 20107 30190 40222 52009 60002 83030 333 20128 30010 50104 55003 83360 91106 92408
AAXX 14064 17370 12965 60000 10135 20007 30218 40222 52007 60002 80001 333 20120 30005 50144 55071 2//// 86070 92417
AAXX 14064 71043 11674 70802 11199 21224 30097 40194 51015 69901 77177 82570 333 11102 21208 48021 70007 90973 555 10007 20007 33019 40070
AAXX 14064 71045 16/// /0000 11171 21188 39270 40155 51010 60001 333 11037 21174 70006
AAXX 14064 71050 NIL
AAXX 14064 71051 NIL
AAXX 14064 71052 NIL
AAXX 14064 71066 11859 83505 11072 21101 39681 40107 51027 69941 77172 8807/ 333 11044 21146 44016 70004 90942 93101 555 10008 20004
AAXX 14064 71068 11874 42804 11053 21074 39408 40105 52022 60041 70288 84070 333 11003 21053 47006 70043 90942 93105 555 10060 20043
AAXX 14064 71069 17464 82914 11022 21031 39375 40083 51033 60011 74544 333 11007 21117 70010 555 30319 40061
AAXX 14064 71076 16/// /3503 11099 21123 39697 40093 53011 60001 333 11013 21106 70000 555 32129 40112
AAXX 14064 71077 16/// /1501 11047 21061 39537 40080 56003 60001 333 11032 21070 70000 555 31918 40081
AAXX 14064 71079 11474 82105 11036 21059 39813 40094 53002 69901 70277 885// 333 11035 21142 48003 70002 90933 555 10002 20002 32225 40110
AAXX 14064 71081 47440 91129 11133 21147 39843 49855 55008 6///1 745// 333 11132 21318 7//// 555 31248 40003
AAXX 14064 71082 NIL
AAXX 14064 71083 11404 83125 11233 21281 39911 49953 52050 69901 73977 885// 333 11044 21234 48052 70020 90952 555 10020 20020 33040 40032
AAXX 14064 71090 46264 81507 11212 21244 30004 40040 56015 6///1 333 11177 21302 7////
AAXX 14064 71091 460// /0930 11212 39729 49941 56021 6///1 333 7//// 555 30938 40053
AAXX 14064 71092 47408 81129 11239 39307 49990 58026 6///1 745// 333 11239 21292 7//// 555 30134 40063
AAXX 14064 71093 460// /1212 11233 39512 40022 56017 6///1 333 11219 21249 7//// 555 32632 40072
AAXX 14064 71094 46002 /2111 11225 39087 40003 56013 6///1 333 11172 21228 7//// 555 32220 40021
AAXX 14064 71095 46964 01805 11249 21305 39923 40006 56015 6///1 333 11236 21309 7////
AAXX 14064 71101 160// /2503 30166 54000 60001 333 70000 555 33017 40121
AAXX 14064 71104 11574 71303 11052 21067 39051 40179 51017 69921 77172 83570 333 11016 21061 44014 70002 90926 555 10004 20002 31519 40200
AAXX 14064 71108 12674 83202 10007 21016 30129 40203 51013 60001 8653/ 333 10034 21024 70000 555 10000 20000
AAXX 14064 71109 11259 81108 10037 20026 30147 40174 51003 60021 70288 887// 333 10053 20028 70060 90942 555 10000 20000 31120 40130
AAXX 14064 71812 NIL
AAXX 14064 71819 15966 02707 11141 21155 30228 40271 55000 60001 333 11103 21175 70000
AAXX 14064 71820 16/// /3402 10017 20010 30168 40284 56002 60001 333 10051 21028 70000
AAXX 14064 71823 16964 02116 11129 21158 39866 40262 57024 60001 333 11122 21218 70005 555 30224 40061
AAXX 14064 71824 NIL
AAXX 14064 71826 16/// /1106 11183 21232 39982 40026 58028 60001 333 11183 21232 70000
AAXX 14064 71829 16/// /3007 11087 21099 30137 40304 56001 60001 333 11033 21087 70000 555 30617 40071
AAXX 14064 71833 46/// /3101 10001 21017 6///1 333 10074 21057 7////
AAXX 14064 71835 16/// /1910 11049 21055 39703 40193 58016 60001 333 11048 21177 70000
AAXX 14064 71837 NIL
AAXX 14064 71839 NIL
AAXX 14064 71840 NIL
AAXX 14064 71846 16/// /2416 11040 21054 39874 40197 56011 60001 333 11040 21274 70000 555 10010 32226 40061
AAXX 14064 71847 NIL
AAXX 14064 71848 NIL
AAXX 14064 71849 16/// /1909 11022 21031 39858 40160 56020 60001 333 11022 21103 70000
AAXX 14064 71930 NIL
AAXX 14064 71931 16/// /3311 11080 21130 30236 40248 55000 60001 333 10000 21080 70000 555 33322 40041
AAXX 14064 71934 11474 83305 11119 21138 39856 40117 51020 69901 77177 885// 333 11007 21123 47020 79999 90973 555 19999 29999
AAXX 14064 71935 11558 80207 11127 21162 39933 40144 52024 69901 77177 885// 333 10015 21128 44013 79999 90973 555 10002 29999
AAXX 14064 71936 12974 13406 11252 21294 39890 40162 52017 60001 80001 333 11019 21253 79999 555 19999 29999 33136 40091
AAXX 14064 71937 NIL
AAXX 14064 71938 12974 02515 11271 21299 30128 40159 51012 60001 333 11192 21287 79999 555 10014 29999 33530 40090
AAXX 14064 71940 11682 22810 11057 21081 39313 40128 51025 69961 70271 82500 333 11004 21075 47011 70056 90922 93102 555 10070 20056 32520 40100
AAXX 14064 71943 11108 82406 11056 21074 39283 40127 52024 69901 74387 885// 333 11016 21062 44010 70036 90933 555 10036 20030 32420 40071
AAXX 14064 71944 160// ///// 11082 51021 60001 333 11032 21118 70000
AAXX 14064 71945 12874 60000 11127 21165 39652 40135 52027 60001 85071 333 11077 21166 70000 555 10000 20000
AAXX 14064 71946 11674 63309 11157 21181 39952 40171 52022 69921 70172 83510 333 10018 21159 48034 70002 90923 555 10004 20002
AAXX 14064 71948 46256 62914 11273 30074 40193 51012 6///1 333 11249 21284 7//// 555 32820 40051
AAXX 14064 71949 46/// /0000 11139 21153 39247 40132 52009 6///1 333 11020 21144 7////
AAXX 14064 71951 11124 83103 11017 21017 39921 40192 53011 69901 71074 886// 333 11005 21025 47040 70196 90926 555 10200 20196
AAXX 14064 71957 46964 00804 11298 21365 30117 40211 53006 6///1 333 11190 21310 7////
AAXX 14064 71958 43/// /0000 11129 21141 39199 40165 53009 6///1 333 11086 21162 7////
AAXX 14064 71964 12986 02103 11169 21192 39266 40142 52009 60001 333 11033 21176 79999 555 19999 29999
AAXX 14064 71966 16/// /0602 11218 21242 39669 40144 51008 60001 333 11111 21236 70000
AAXX 14064 71968 46064 /1205 11313 30123 40191 51002 6///1 333 11202 21314 7////
AAXX 14064 71604 NIL
AAXX 14064 71605 16/// /2401 10022 21010 30040 40191 52011 60001 333 10041 20004 70000
AAXX 14064 71611 NIL
AAXX 14064 71612 16/// /0802 10011 21002 30202 40294 53004 60001 333 10016 20010 70000
AAXX 14064 71614 16/// /0000 10003 21006 30213 40280 53003 60001 333 10029 21061 70000
AAXX 14064 71616 16/// /0604 10002 20001 30175 40298 50001 60001 333 10009 21037 70010
AAXX 14064 71617 16/// /2706 11030 21050 30135 40307 56001 60001 333 10009 21030 70019
AAXX 14064 71618 15466 33212 11086 21110 30024 40062 51038 60001 333 11031 21132 70000
AAXX 14064 71619 16/// /0303 11032 21056 30233 40292 55000 60001 333 10005 21035 70000
AAXX 14064 71622 NIL
AAXX 14064 71632 46/// /2402 11082 21094 39628 40070 58001 6///1 333 11043 21123 7//// 555 32228 40082
AAXX 14064 71634 16/// /3401 11027 21035 30138 58001 60001 333 7////
AAXX 14064 71638 16/// /3401 11002 21015 30081 40188 52010 60001 333 10037 21020 70000
AAXX 14064 71639 12969 82503 10034 21033 30036 40281 58005 60001 8807/ 333 10071 21036 70000 555 10000 20000
AAXX 14064 71642 NIL
AAXX 14064 71001 NIL
AAXX 14064 71002 NIL
AAXX 14064 71003 NIL
AAXX 14064 71005 16/// ///// 11073 21113 60001 333 11039 21123 70000
AAXX 14064 71006 NIL
AAXX 14064 71007 NIL
AAXX 14064 71008 NIL
AAXX 14064 71009 NIL
AAXX 14064 71010 NIL
AAXX 14064 71011 NIL
AAXX 14064 71012 NIL
AAXX 14064 71013 NIL
AAXX 14064 71014 NIL
AAXX 14064 71015 NIL
AAXX 14064 71016 NIL
AAXX 14064 71017 NIL
AAXX 14064 71018 NIL
AAXX 14064 71019 NIL
AAXX 14064 71020 NIL
AAXX 14064 71021 NIL
AAXX 14064 71022 15966 00606 10000 21004 30129 40173 50002 60001 333 10042 20002 70043 555 33420 40161
AAXX 14064 71023 17011 81004 11047 21053 39284 40058 58018 60021 74544 333 11028 21104 70015 555 32226 40081
AAXX 14064 71024 17/// /0302 11084 21087 69981 7//4/ 333 11020 21117 70008 555 10010 20008
AAXX 14064 71026 NIL
AAXX 14064 71027 16/// /0108 10012 20002 30229 40239 53008 60001 333 10057 21031 70000
AAXX 14064 71028 16/// /3402 11022 21033 39135 40184 52020 60001 333 10062 21089 70000 555 31522 40181
AAXX 14064 71029 17/// /3313 11254 21280 30082 40123 53014 69931 7//4/ 333 11251 21305 70003 555 30027 40111
AAXX 14064 71030 16/64 /0412 10017 21017 30160 40251 56004 60001 333 10057 21027 70000
AAXX 14064 71032 46/// /0901 11068 21091 39343 40194 52009 6///1 333 11031 21127 7////
AAXX 14064 71033 46/// /3002 11085 21096 39440 40075 55000 6///1 333 11048 21093 7//// 555 32125 40111
AAXX 14064 71035 NIL
AAXX 14064 71036 15466 82510 11039 21059 39757 40137 56013 60001 333 11036 21105 70000
AAXX 14064 71039 46/// /1301 11215 6///1 333 11027 21222 7////
AAXX 14064 71040 46/// /3005 11030 21051 30091 40295 56002 6///1 333 10010 21030 7//// 555 33534 40093
AAXX 14064 71041 15466 80205 10020 20014 30078 40221 55000 69951 333 10050 21028 70005
AAXX 14064 71042 16/// /0601 11006 21015 30190 40194 51011 60001 333 10035 21048 70000
AAXX 14064 71044 16/// /2702 11253 21281 39828 40162 51005 60001 333 11144 21289 70000 555 30617 40121
AAXX 14064 71046 460// /1023 11265 30157 40175 53002 6///1 333 11210 21275 7//// 555 30132 40062
AAXX 14064 71047 16/// ///// 11049 21095 60001 333 11036 21110 70000
AAXX 14064 71048 NIL
AAXX 14064 71049 NIL
AAXX 14064 71060 NIL
AAXX 14064 71063 NIL
AAXX 14064 71893 12580 62802 10003 21009 30165 40197 53012 60001 84570 333 10034 21013 70022 555 19999 29999
AAXX 14064 71894 17/// /0909 10051 20051 30172 40181 53004 69961 7//4/ 333 10051 20028 70048
AAXX 14064 71896 15566 12103 11083 21094 39329 40175 51018 60001 333 11011 21083 70005
AAXX 14064 71897 12174 63210 10032 20007 3//// 4//// 52012 86550 333 10046 20028 70170
AAXX 14064 71898 160// ///// 10001 50002 60001 333 10042 21002 70060
AAXX 14064 71899 12474 12404 10016 20010 3//// 4//// 54000 60001 81400 333 10051 20016 70012 555 19999 20012
AAXX 14064 71902 NIL
AAXX 14064 71905 NIL
AAXX 14064 71906 11974 82120 11097 21164 30089 40140 57020 69901 77177 885// 333 11085 21200 48008 70004 90983 555 10004 20004
AAXX 14064 71907 17402 82428 11051 21061 39985 40017 56014 69951 745// 333 11038 21107 70030 555 32149 40013
AAXX 14064 71909 17111 81324 11078 21088 39899 49942 56060 60011 74544 333 11074 21255 70010 555 30133 40062
AAXX 14064 71910 47416 92217 11057 21067 39777 49838 57015 6///1 745// 333 11049 21165 7//// 555 31538 40223
AAXX 14064 71911 47406 82118 11170 39702 49757 53016 6///1 745// 333 11128 21217 7//// 555 30935 40143
AAXX 14064 71912 11459 82109 11045 21062 39906 40091 50003 69901 77172 885// 333 11043 21159 47012 79999 90946 555 19999 29999 32127 40111
AAXX 14064 71915 NIL
AAXX 14064 71917 11974 00000 11406 21442 30081 40096 57001 69901 7767/ 333 11367 21412 43013 79999 90999 555 19999 29999
AAXX 14064 71922 12974 71903 11078 21087 39613 40083 57008 60001 80002 333 11032 21112 70000 555 10000 20000
AAXX 14064 71924 NIL
AAXX 14064 71925 11500 83235 11261 21304 39907 49949 51025 60001 73933 885// 333 11130 21267 48018 70004 555 10005 20004 33242 40043
AAXX 14064 71926 NIL
AAXX 14064 71928 16/// /3106 11069 21097 38914 40092 53022 60001 333 11054 21168 70000
AAXX 14064 71900 46/// /25// 11126 21167 30213 40226 58013 6///1 333 11118 21148 7////
AAXX 14064 71903 NIL
AAXX 14064 71904 NIL
AAXX 14064 71914 16/// /0000 10013 21014 39973 40197 51008 60001 333 10033 21004 70000
AAXX 14064 71916 NIL
AAXX 14064 71918 460// ///// 11160 6///1 333 7////
AAXX 14064 71920 NIL
AAXX 14064 71921 NIL
AAXX 14064 71923 NIL
AAXX 14064 71927 NIL
AAXX 14064 71941 15266 31604 11072 21075 39864 40293 57014 60001 333 11003 21081 70000
AAXX 14064 71947 15466 31804 11138 21147 39934 40296 56009 60001 333 11076 21171 70000
AAXX 14064 71700 15666 83607 10002 21025 30249 40275 58004 60001 333 10046 21083 70000
AAXX 14064 71701 12674 83606 10000 21027 30212 40275 57003 60001 885// 333 10037 21074 70000 555 10000 20000
AAXX 14064 71702 16/// /0415 10003 21034 30241 40256 50008 60001 333 10038 21069 70000 555 30525 40041
AAXX 14064 71703 NIL
AAXX 14064 71704 17658 82005 10021 20003 30053 40277 57007 60001 710// 333 10054 21022 70008
AAXX 14064 71710 NIL
AAXX 14064 71712 16/// /0000 10011 20006 30225 40287 51001 60001 333 10034 21030 70000
AAXX 14064 71713 16/// /0405 11014 21032 60001 333 10014 21015 70000
AAXX 14064 71716 NIL
AAXX 14064 71717 NIL
AAXX 14064 71720 16/// /0801 11005 21009 30046 40201 53012 60001 333 10032 21008 70000
AAXX 14064 71721 16/// /0102 11002 21006 30037 40288 54000 60001 333 10015 21006 70020
AAXX 14064 71723 NIL
AAXX 14064 71724 16/// /0104 10002 21003 30285 40293 53003 60001 333 10008 21007 70012
AAXX 14064 71732 16/// /1703 10012 20004 60001 333 10021 20010 70014
AAXX 14064 71733 16/// /1004 11001 21001 39838 40271 58010 60001 333 10018 21003 70000
AAXX 14064 71734 NIL
AAXX 14064 71736 NIL
AAXX 14064 71737 NIL
AAXX 14064 71741 16/// /2002 11038 21067 39763 40193 51019 60001 333 11014 21073 70000
AAXX 14064 71742 NIL
AAXX 14064 71743 NIL
AAXX 14064 71744 NIL
AAXX 14064 71745 NIL
AAXX 14064 71746 NIL
AAXX 14064 71747 NIL
AAXX 14064 71748 NIL
AAXX 14064 71150 46/// /2301 11065 21071 39446 40138 56016 6///1 333 11061 21103 7//// 555 32017 40161
AAXX 14064 71151 NIL
AAXX 14064 71152 16/// /0522 11045 21086 30236 40249 51006 60001 333 10031 21046 7////
AAXX 14064 71153 16/// /2719 10000 21067 60001 333 10013 21172 70000 555 32729 40062
AAXX 14064 71154 17/// /2326 11022 21094 69981 7//4/ 333 11022 21056 70008 555 32444 40063
AAXX 14064 71155 NIL
AAXX 14064 71156 NIL
AAXX 14064 71157 NIL
AAXX 14064 71158 NIL
AAXX 14064 71159 NIL
AAXX 14064 71160 NIL
AAXX 14064 71161 16/// /3202 10020 20010 30130 40281 53001 60001 333 10036 21033 70000
AAXX 14064 71162 NIL
AAXX 14064 71163 46/// /3403 11254 21289 39814 40170 53018 6///1 333 11021 21254 7//// 555 33228 40072
AAXX 14064 71164 NIL
AAXX 14064 71165 NIL
AAXX 14064 71166 NIL
AAXX 14064 71167 15866 63211 11012 21044 38997 40098 51027 60001 333 11005 21083 70000
AAXX 14064 71168 NIL
AAXX 14064 71170 16/// /2306 11040 21054 60001 333 11040 21114 70000 555 32019 40211
AAXX 14064 71171 46/// /2203 10040 20008 30174 40271 58007 6///1 333 10081 21003 7////
AAXX 14064 71172 16/// ///// 10021 20018 30045 40265 57005 60001 333 10050 20020 70003 555 10010 20003
AAXX 14064 71175 16/// /0203 10031 20017 30187 40222 55003 60001 333 7////
AAXX 14064 71176 460// /2335 11118 39378 40072 58025 6///1 333 11117 21168 7//// 555 30254 40063
AAXX 14064 71177 460// /3108 11111 39116 40146 50001 6///1 333 11111 21200 7//// 555 33249 40033
AAXX 14064 71178 16/// /3418 11047 21114 30231 40264 53006 60001 333 11006 21048 70000 555 33330 40052
AAXX 14064 71179 460// /2525 11159 39346 40206 56004 6///1 333 11157 21208 7//// 555 32742 40213
AAXX 14064 71180 17/// /0212 11049 21063 30214 40254 53004 69961 7//4/ 333 10040 21049 70006 555 30318 40031
AAXX 14064 71181 16564 60515 11044 21099 30187 40224 53006 60001 333 10050 21044 70000 555 30024 40061
AAXX 14064 71183 16/// /0404 30246 53001 60001 333 70000
AAXX 14064 71184 46/// /0503 10004 21002 6///1 333 10010 21016 7////
AAXX 14064 71186 NIL
AAXX 14064 71187 15766 81202 10008 21026 30152 40201 51017 60001 333 10023 21025 70000
AAXX 14064 71189 NIL
AAXX 14064 71190 NIL
AAXX 14064 71191 16/// ///// 10013 21014 60001 333 10074 21010 70000
AAXX 14064 71192 15766 82802 11020 21036 39509 40179 51016 60001 333 10007 21035 70000 555 31418 40171
AAXX 14064 71193 16/// /1903 11039 21040 39899 40271 56013 60001 333 11033 21066 7////
AAXX 14064 71196 16/// /0000 10002 20002 30086 40288 50000 60001 333 10028 20002 70024
AAXX 14064 71197 16464 80812 11033 21071 30207 40257 53008 60001 333 10043 21033 70000 555 30320 40041
AAXX 14064 71198 46/// /0510 10014 20003 6///1 333 10019 21004 7////
AAXX 14064 71199 46/// /1001 11125 21134 39290 40143 53017 6///1 333 11037 21141 7////
AAXX 14064 71250 NIL
AAXX 14064 71251 16/// /3103 11162 21187 39153 40115 53003 60001 333 11105 21246 70000
AAXX 14064 71252 NIL
AAXX 14064 71253 46/// /0304 11074 21085 6///1 333 11038 21103 7//// 555 10010
AAXX 14064 71254 16/// /2804 11057 21091 60001 333 11028 21103 70000
AAXX 14064 71255 17/// /3605 11058 21073 69931 7//4/ 333 11024 21070 70003 555 32319 40071
AAXX 14064 71256 46/// /2810 11022 21036 39156 40098 51031 6///1 333 11022 21098 7//// 555 33125 40041
AAXX 14064 71257 NIL
AAXX 14064 71258 NIL
AAXX 14064 71259 NIL
AAXX 14064 71261 16/// /1505 10023 21011 30007 40272 55009 60001 333 10045 20002 70000
AAXX 14064 71263 12974 72103 10015 21003 39989 40282 58008 60001 87050 333 10075 21042 70000 555 10000 20000
AAXX 14064 71264 16/// /3509 10012 21002 30194 40226 58004 60001 333 10093 21005 70000 555 30017 40021
AAXX 14064 71265 15966 82507 10043 21001 30186 40281 58006 60001 333 10057 21001 70000
AAXX 14064 71266 NIL
AAXX 14064 71267 15966 02725 11014 21070 38985 40096 53002 60001 333 11009 21204 70000
AAXX 14064 71268 NIL
AAXX 14064 71269 NIL
AAXX 14064 71270 NIL
AAXX 14064 71271 16/// ///// 11020 21055 60001 333 10001 21073 70000
AAXX 14064 71272 15566 83305 11074 21109 39714 40069 53023 60001 333 11036 21111 70000
AAXX 14064 71273 16/// /1605 11046 21071 39402 40066 56014 60001 333 11046 21081 70000 555 32119 40091
AAXX 14064 71274 NIL
AAXX 14064 71275 NIL
AAXX 14064 71276 NIL
AAXX 14064 71277 NIL
AAXX 14064 71278 NIL
AAXX 14064 71279 16/// /0206 11152 21171 30241 40310 57007 60001 333 11075 21155 70000
AAXX 14064 71281 NIL
AAXX 14064 71282 46/// /1201 10011 20011 30008 40282 58005 6///1 333 10050 20009 7////
AAXX 14064 71283 NIL
AAXX 14064 71284 16/// ///// 11023 21056 60001 333 11001 21118 70000
AAXX 14064 71285 NIL
AAXX 14064 71286 NIL
AAXX 14064 71287 NIL
AAXX 14064 71288 NIL
AAXX 14064 71289 NIL
AAXX 14064 71290 17510 82101 11080 21087 39324 40170 52021 60001 710// 333 11034 21123 70000 555 31417 40101
AAXX 14064 71291 16/// /1101 11032 21046 39949 40246 58015 60001 333 11032 21061 70000
AAXX 14064 71292 16366 82111 11062 39514 40131 58013 60001 333 11051 21076 70000
AAXX 14064 71294 16/// /0000 10002 39870 40278 58004 60001 333 10036 21014 70000
AAXX 14064 71295 NIL
AAXX 14064 71296 NIL
AAXX 14064 71297 NIL
AAXX 14064 71298 16/// /1803 10025 20011 30041 40276 58004 60001 333 10042 21031 70000
AAXX 14064 71299 NIL
AAXX 14064 71665 16/// /1806 11115 21159 30197 40207 56013 60001 333 11112 21155 70000 555 33036 40143
AAXX 14064 71666 16/// /0308 11002 21009 30223 40268 50005 60001 333 10038 21069 70000 555 30421 40031
AAXX 14064 71667 NIL
AAXX 14064 71668 16/// /3506 10003 21027 30229 40273 58003 60001 333 10041 21064 70000
AAXX 14064 71669 NIL
AAXX 14064 71670 16/// ///// 11009 21017 60001 333 10019 21079 70000
AAXX 14064 71671 16/// /0107 10018 20000 30177 40238 58005 60001 333 10082 21001 70000
AAXX 14064 71672 16/// /0501 10002 21013 30009 40277 58006 60001 333 10067 21049 70000
AAXX 14064 71673 NIL
AAXX 14064 71674 NIL
AAXX 14064 71675 17466 82411 11043 21060 39869 40153 56003 60041 70044 333 11043 21182 70156
AAXX 14064 71679 17/// /0603 11058 21065 39138 40166 51019 69951 7//4/ 333 10006 21060 70008 555 10020 20008 33120 40211
AAXX 14064 71680 NIL
AAXX 14064 71681 46/// /1601 11043 21074 6///1 333 11005 21068 7////
AAXX 14064 71682 NIL
AAXX 14064 71683 NIL
AAXX 14064 71684 15261 81502 11022 21025 39976 40284 57012 60001 333 10001 21028 70000
AAXX 14064 71685 15566 83203 11031 21050 39654 40204 53007 60001 333 11027 21076 70000
AAXX 14064 71686 NIL
AAXX 14064 71687 16/// /3201 11016 21037 39392 40185 51014 60001 333 11001 21073 70000
AAXX 14064 71688 16/// /1101 11028 21050 39126 40170 51011 60001 333 11011 21049 70000
AAXX 14064 71689 17420 80902 11052 21057 39613 40070 51007 69951 7714/ 333 11015 21074 70005
AAXX 14064 71690 NIL
AAXX 14064 71691 15666 83005 11070 21080 30281 40309 56003 60001 333 11020 21070 70000
AAXX 14064 71692 NIL
AAXX 14064 71694 16/// /0000 10001 21001 39920 40289 58005 60001 333 10037 21003 70000
AAXX 14064 71695 16/// /1905 11055 21076 39765 40102 56010 60001 333 11036 21096 70000 555 32419 40001
AAXX 14064 71696 NIL
AAXX 14064 71697 17948 83601 10005 20005 30106 40280 58006 60001 710// 333 10072 21056 70000
AAXX 14064 71699 16/// /3603 11001 21024 30253 40261 53001 60001 333 10062 21016 70000
AAXX 14064 71350 17/// /0315 10008 21025 30185 40252 51010 69951 7//4/ 333 10024 21042 70005 555 30321 40061
AAXX 14064 71351 NIL
AAXX 14064 71352 16/// /1203 10005 21016 39815 40276 58005 60001 333 10054 21044 70000
AAXX 14064 71353 NIL
AAXX 14064 71354 NIL
AAXX 14064 71355 16/// /3002 11349 21386 30015 40105 53009 60001 333 11337 21374 70000
AAXX 14064 71356 17/// /2925 11258 21285 39911 49978 53040 69961 7//4/ 333 11058 21258 70009 555 33044 40003
AAXX 14064 71357 16/// /1904 11260 21296 30036 40043 56020 60001 333 11191 21275 70000
AAXX 14064 71358 16/// /1608 11210 21231 30003 40039 56015 60001 333 11177 21306 70000 555 31717 40051
AAXX 14064 71359 NIL
AAXX 14064 71360 NIL
AAXX 14064 71361 NIL
AAXX 14064 71362 NIL
AAXX 14064 71363 NIL
AAXX 14064 71364 NIL
AAXX 14064 71365 NIL
AAXX 14064 71368 17859 81101 10005 21016 39884 40279 58007 60001 704// 333 10075 21054 70000
AAXX 14064 71369 17466 82916 11022 21039 39375 40084 51033 60001 771// 333 11003 21108 70000
AAXX 14064 71370 46/// /0503 11002 21014 30149 40288 51004 6///1 333 10010 21013 7////
AAXX 14064 71371 17216 80403 10001 20000 30255 40290 53002 60001 710// 333 10017 21030 70003
AAXX 14064 71372 16/// /0101 10004 20002 60001 333 10013 21026 70000
AAXX 14064 71373 16/// /2901 10001 21012 60001 333 10019 21064 70000
AAXX 14064 71374 NIL
AAXX 14064 71375 NIL
AAXX 14064 71376 16/// /0000 11001 21001 39993 40291 51002 60001 333 10016 21026 70020
AAXX 14064 71377 16/// /0202 10007 21001 30237 40286 53001 60001 333 10014 21006 70000
AAXX 14064 71378 16/// /3504 11022 21050 30085 40298 51001 60001 333 10028 21022 70000
AAXX 14064 71379 16/// /3402 11062 21090 30118 40293 56003 60001 333 11003 21063 70000
AAXX 14064 71380 NIL
AAXX 14064 71381 NIL
AAXX 14064 71382 NIL
AAXX 14064 71383 NIL
AAXX 14064 71384 NIL
AAXX 14064 71385 NIL
AAXX 14064 71386 NIL
AAXX 14064 71387 NIL
AAXX 14064 71388 46/// /2805 11023 21036 30106 40298 56002 6///1 333 10011 21023 7////
AAXX 14064 71389 46/// /0702 11001 21009 6///1 333 10010 21026 7////
AAXX 14064 71390 NIL
AAXX 14064 71391 16/// ///// 10003 20000 60001 333 10013 21015 70013
AAXX 14064 71392 16/// /0608 11004 21020 60001 333 10006 21020 70000
AAXX 14064 71393 NIL
AAXX 14064 71395 12366 73408 10000 21009 30048 40229 58005 60001 87600 333 10056 21007 70000 555 10000 20000
AAXX 14064 71398 15466 82007 11059 21070 30234 40246 56024 60001 333 11059 21210 70000
AAXX 14064 71399 NIL
AAXX 14064 71450 NIL
AAXX 14064 71451 16/// /2401 11078 21090 39652 40082 53002 60001 333 11036 21114 70000 555 32219 40201
AAXX 14064 71452 46/// /2108 11063 21074 39412 40134 56013 6///1 333 11054 21066 7//// 555 31821 40071
AAXX 14064 71453 16/// /2106 11060 21098 39164 40086 56015 60001 333 11035 21124 70000
AAXX 14064 71454 16/// /1502 11066 21088 39386 40082 56010 60001 333 11041 21085 70000 555 32022 40151
AAXX 14064 71455 NIL
AAXX 14064 71456 16/// /2111 11058 21070 39499 40103 56009 60001 333 11054 21074 70000 555 32325 40161
AAXX 14064 71457 16/// /0000 11188 21204 39174 40097 55001 60001 333 11150 21228 70000
AAXX 14064 71458 16/// /2104 11039 21069 39292 40067 53005 60001 333 11028 21113 70000 555 31917 40081
AAXX 14064 71459 16/// /1303 11151 21170 39262 40089 58022 60001 333 11068 21172 70000
AAXX 14064 71460 16/// /0706 10019 20016 30031 40276 58011 60001 333 10044 20019 70000 555 32617 40081
AAXX 14064 71461 NIL
AAXX 14064 71462 NIL
AAXX 14064 71463 46/// /2207 10056 20008 30062 40289 58009 6///1 333 10056 20014 7////
AAXX 14064 71464 NIL
AAXX 14064 71465 NIL
AAXX 14064 71466 NIL
AAXX 14064 71468 NIL
AAXX 14064 71470 NIL
AAXX 14064 71471 15966 03205 11060 21089 39330 40128 51023 60001 333 11006 21070 70000
AAXX 14064 71473 16/// /1704 10027 21032 30162 40192 51008 60001 333 10030 20002 70000
AAXX 14064 71475 16/// /3003 11002 21004 30107 40202 53006 60001 333 10010 21015 70012
AAXX 14064 71476 NIL
AAXX 14064 71477 16/// /2404 10001 21012 60001 333 10048 20001 70020 555 33118 40211
AAXX 14064 71478 NIL
AAXX 14064 71479 NIL
AAXX 14064 71480 NIL
AAXX 14064 71481 NIL
AAXX 14064 71482 NIL
AAXX 14064 71483 NIL
AAXX 14064 71484 NIL
AAXX 14064 71485 17/// /1314 10044 20035 30151 40171 53005 69941 7//4/ 333 10052 20025 70042 555 31137 40133
AAXX 14064 71486 16/// /1903 11028 21076 38911 40121 53016 60001 333 11005 21112 70000
AAXX 14064 71487 NIL
AAXX 14064 71489 NIL
AAXX 14064 71490 NIL
AAXX 14064 71491 16/// /0000 11287 21319 60001 333 10092 21344 70006
AAXX 14064 71492 NIL
AAXX 14064 71493 16/// /3608 10014 21001 30204 40243 51004 60001 333 10071 21010 70000 555 32331 40032
AAXX 14064 71494 16/// /0402 11021 21022 39749 40280 55001 60001 333 11004 21066 70000
AAXX 14064 71495 NIL
AAXX 14064 71496 NIL
AAXX 14064 71497 46/// /0511 11093 21122 39882 40151 53027 6///1 333 10043 21093 7//// 555 32527 40071
AAXX 14064 71498 NIL
AAXX 14064 71499 15966 82902 11079 21091 39441 40074 53001 60001 333 11046 21090 70000
AAXX 14064 71851 16/// /2203 11022 21034 39814 40154 56017 60001 333 11020 21161 70000 555 31918 40201
AAXX 14064 71857 NIL
AAXX 14064 71860 NIL
AAXX 14064 71876 15966 81804 11054 21069 39425 40097 58006 60001 333 11031 21093 70000
AAXX 14064 71885 NIL
AAXX 14064 71886 16/// /2110 11063 21070 39513 40129 58012 60001 333 7////
AAXX 14064 71888 NIL
AAXX 14064 71890 17/// /0605 11070 21087 30277 40305 56002 69961 7//4/ 333 7////
AAXX 14064 71895 NIL
AAXX 14064 17022 12962 51203 10110 20035 30062 40228 52009 60002 83039 333 20099 30008 55009 83360 85170 91106 92427
AAXX 14064 17031 12670 51502 10076 20021 30210 40216 51004 60002 82130 333 20055 30004 82836 85360
AAXX 14064 17038 11959 39901 10103 20002 30168 40220 58001 60002 70400 83030 333 20074 30001 55075 20825 83360 92426
AAXX 14064 17050 11640 82902 10091 20090 30153 40216 52010 60002 71042 8552/ 333 20085 31007 55000 85635 88460 91107
AAXX 14064 17060 11660 52105 10118 20098 30178 40218 52007 69902 70282 83130 333 20111 32007 50311 55051 20682 79999 83835 85360
AAXX 14064 17096 11804 43501 11184 21184 38310 48588 51006 60002 74840 84030 333 21241 3/125 47008 50014 55029 20226 84358
AAXX 14064 17124 11612 50000 11006 21011 39318 40262 52005 60002 74022 81550 333 21010 34102 50074 55060 20812 81640 85360
AAXX 14064 17128 11617 59902 11001 21003 39142 40276 52007 60002 71000 83130 333 21008 34102 50084 55037 20268 83840 85360
AAXX 14064 17170 NIL
AAXX 14064 17195 11658 60000 11013 21031 39033 48538 52012 60002 71011 82550 333 21028 34104 50084 55022 21063 82640 85360
AAXX 14064 17199 11558 81802 11003 21029 39172 40312 51003 60002 71011 8572/ 333 21026 3/105 46002 55082 20724 82720 84635 88459
AAXX 14064 17219 11520 62503 10100 20094 30077 40223 51009 60062 78022 84250 333 20085 32008 55006 20163 70110 84830 86360 96010
AAXX 14064 17240 3//// /0201 11020 21042 39084 40265 52007 60002 333 21029 3/104 4//// 70000
AAXX 14064 17244 11940 20302 11005 21028 39047 48531 52007 60002 71000 80001 333 21023 30/// 55/// 2//// 82070
AAXX 14064 17280 12970 33202 11002 21028 39464 40287 52007 60002 80001 333 21030 34105 50121 55074 20339 83070
AAXX 14064 17350 12960 60404 10078 20031 30139 40219 51002 60002 83031 333 20056 30/// 83360 86070
AAXX 14064 71816 12974 22505 11150 21214 30220 40284 55002 60001 80001 333 11128 21197 70000 555 10000 20000 32724 40161
AAXX 14064 71817 NIL
AAXX 14064 71818 12974 02612 11120 21139 30233 40252 55000 60001 333 11095 21144 70000 555 10000 20000 32725 40100
AAXX 14064 71822 11574 80000 11126 21142 39807 40301 58008 69901 77171 885// 333 11039 21200 43028 79999 90952 555 19999 29999
AAXX 14064 71825 12974 01904 11254 21297 39593 40306 58009 60001 333 11129 21275 70000 555 10000 20000
AAXX 14064 71827 11474 81912 11116 21125 39970 40222 57031 69901 77171 885// 333 11093 21162 47018 79999 90927 555 19999 29999
AAXX 14064 71828 16464 32407 11156 21197 39590 40256 56012 60001 333 11133 21197 70000 555 32717 40231
AAXX 14064 71831 12269 82108 11034 21048 39978 40266 57010 60001 886// 333 11033 21082 70000 555 10000 20000
AAXX 14064 71832 NIL
AAXX 14064 71834 12574 82106 11036 21054 39808 40247 57014 60001 885// 333 11036 21095 79999 555 19999 29999
AAXX 14064 71841 NIL
AAXX 14064 71842 11374 81604 11034 21039 39723 40204 58020 69901 70277 886// 333 11034 21107 47003 79999 90961 555 19999 29999
AAXX 14064 71844 16464 82411 11042 21063 39870 40154 56003 60001 333 11041 21183 70000 555 32320 40221
AAXX 14064 71845 NIL
AAXX 14064 71850 11258 81807 11014 21019 39672 40181 58020 69901 77172 887// 333 11014 21115 48002 79999 90927 555 19999 29999
AAXX 14064 71852 16556 81909 11021 21029 39859 40158 56020 60001 333 11020 21103 70005
AAXX 14064 71854 43/// ///// 333 11040 21167 48009 70002 555 10002 20002
AAXX 14064 71858 NIL
AAXX 14064 71861 NIL
AAXX 14064 71862 11259 82205 11062 21074 39428 40141 57017 69901 77177 886// 333 11050 21066 42002 79999 90983 555 19999 29999
AAXX 14064 71863 46361 82211 11054 21078 39414 40122 56012 6///1 333 11045 21062 7//// 555 31824 40111
AAXX 14061 11916 12689 62608 11021 21037 37933 48441 53013 60002 83072 333 21070 3//// 44025 79999 83333 84061 93598 444 26149 47071
AAXX 14064 71051 NIL
AAXX 14064 71055 NIL
AAXX 14064 71057 NIL
AAXX 14064 71059 460// ///// 11247 30069 40164 51012 6///1 333 11237 21280 7////
AAXX 14064 71061 16/// /2604 11036 21062 39284 40070 53030 60001 333 11024 21111 70000
AAXX 14064 71062 46/// /3310 11006 21048 38989 40053 51025 6///1 333 10011 21090 7//// 555 32017 40021
AAXX 14064 71064 460// /3237 11286 39785 40008 53038 6///1 333 11176 21287 7////
AAXX 14064 71065 NIL
AAXX 14064 71067 NIL
AAXX 14064 71070 NIL
AAXX 14064 71073 NIL
AAXX 14064 71074 NIL
AAXX 14064 71075 16/// /3304 11089 21103 39460 40069 52006 60001 333 11036 21091 70000 555 32029 40082
AAXX 14064 71078 15966 82403 11082 21091 39627 40073 58001 60001 333 11041 21122 70000
AAXX 14064 71084 460// ///// 11203 39805 49852 53018 6///1 333 11149 21232 7////
AAXX 14064 71085 15966 32616 11039 21091 38724 40118 53012 60001 333 11021 21076 70000
AAXX 14064 71087 NIL
AAXX 14064 71088 460// /1023 11169 58016 6///1 333 11159 21285 7//// 555 31244 40023
AAXX 14064 71089 NIL
AAXX 14064 71096 460// ///// 11218 39273 40021 58020 6///1 333 11211 21234 7////
AAXX 14064 71097 47104 81922 11125 39544 40025 58044 6///1 745// 333 11125 21185 7//// 555 30230 40062
AAXX 14064 71098 43/// /2407 11041 21053 39787 40154 58008 6///1 333 11041 21225 7//// 555 32318 40031
AAXX 14064 71099 NIL
AAXX 14064 71102 NIL
AAXX 14064 71105 NIL
AAXX 14064 71107 NIL
AAXX 14064 71110 NIL
AAXX 14064 71111 15966 02505 10011 20001 30166 40174 51001 60001
AAXX 14064 71112 16/// ///// 60001 333 70000
AAXX 14064 71113 16/// /1405 10009 21012 30175 40199 51014 60001 333 10031 21002 70002
AAXX 14064 71115 16/// /3303 11031 21056 39604 40196 53012 60001 333 11006 21076 70003
AAXX 14064 71116 16/// /1004 11104 21113 38994 40110 56013 60001 333 11058 21116 70000
AAXX 14064 71118 16/// /2209 11086 21126 39239 40076 55006 60001 333 11033 21129 70000 555 32019 40071
AAXX 14064 71121 16964 82913 11012 21099 39242 40067 51019 60001 333 11005 21092 70000 555 30318 40061
AAXX 14064 71127 16/// /3113 11004 21046 39163 40074 53028 60001 333 10004 21082 70000 555 33126 40061
AAXX 14064 71130 15966 81808 11050 21063 39640 40102 57011 60001 333 11042 21092 70000
AAXX 14064 71132 17566 81901 11105 21114 39772 40087 53019 60001 771// 333 11013 21124 70000
AAXX 14064 71133 46/// /1002 11057 21085 39357 40068 57013 6///1 333 11039 21072 7//// 555 32020 40091
AAXX 14064 71139 NIL
AAXX 14064 71141 NIL
AAXX 14064 71142 15266 82017 11077 21080 39114 40095 56014 60001 333 11060 21080 70000
AAXX 14064 71143 NIL
AAXX 14064 71144 NIL
AAXX 14064 71147 NIL
AAXX 14064 71149 16/// /2406 11049 21070 60001 333 11041 21168 70000 555 32417 40141
AAXX 14064 06011 07568 73110 10043 20018 39545 49611 52018 60082 72186 333 10060 20037 55300 20000 69957 70256 81/25 83/40 87/68
AAXX 14061 15501 11530 80000 10052 20050 30167 40212 53002 60002 71042 885// 333 10056 20051 70000 555 31/// 598//
AAXX 14061 15505 11/03 90000 10002 20002 39827 40211 52009 69912 74742 333 10038 21002 70001 555 31102 50000 66399 70600
AAXX 14061 15511 11511 80000 10040 20038 30177 40217 53003 69912 71054 885// 333 10056 20038 55000 70001 555 31/// 598//
AAXX 14061 15514 11511 80000 10038 20033 30160 40196 57009 69922 71022 885// 333 10056 20035 70004 555 31/// 597//
AAXX 14061 15530 11/02 90000 10013 20008 39973 40218 53004 60002 74544 333 10057 20013 70000 555 31002 596//
AAXX 14061 15533 11556 80000 10034 20032 30153 40186 52014 69912 75152 886// 333 10058 20032 70001 555 31/// 59800 66399
AAXX 14061 15550 11/06 90000 10043 20038 30177 40197 52008 60002 74744 333 10069 20042 70000 555 30/// 597//
AAXX 14061 15561 11901 23202 10008 20000 30193 40201 53012 60002 74444 80001 222// 00096 2//01 333 10076 20005 70000 555 31002 594// 92022 92421
AAXX 14061 15562 11/01 90503 10048 20046 30131 40204 52008 60002 74541 222// 2//00 333 10100 20047 55010 70000 555 31005 598// 92011 92410
AAXX 14061 15600 11989 12312 10006 21008 38322 48521 53004 60002 70200 80001 333 10020 20006 55082 555 31/// 590//
AAXX 14061 15601 11701 80000 11004 21014 39594 40234 52007 60002 74444 885// 333 10020 21012 55000 70000 555 31101 592//
AAXX 14061 15605 11/03 93401 11008 21010 39369 40239 52005 60002 74541 333 10031 21025 70000 555 34104 598//
AAXX 14061 15613 11989 12004 11030 21040 37728 47078 51004 60002 70240 81031 333 11012 21031 44014 55000 70002 555 593//
AAXX 14061 15628 11901 00000 11018 21021 39958 40226 51004 60002 74440 333 10040 21034 55055 70000 555 30106 598// 92601
AAXX 14061 15642 11515 80000 10078 20076 30046 40215 52002 60002 71022 885// 333 10102 20072 55000 70000 555 30004 599//
AAXX 14061 15661 12965 02702 10066 20062 30160 40196 52002 60002 222// 20000 333 10095 20060 70000 555 31002 597// 92012 92417
AAXX 14061 15726 11981 01101 10010 21025 38276 48535 52004 60002 70200 333 10024 20010 41999 55033 70000 555 577//
AAXX 14064 84782 31965 00000 10156 20109 39631 40140 70112 333 58010
AAXX 14064 84515 31460 80000 10240 20226 39921 40099 70222 884// 333 569// 58012 88613
AAXX 14064 84691 31960 32108 10197 20175 30124 40131 70204 80001 333 56000 58004 83073
AAXX 14064 84377 31960 62503 10248 20240 39979 40086 70222 86030 333 56090 59001 86360
AAXX 14064 84628 34960 41609 10200 20172 30122 40138 70310 84030 333 56010 58007 84360
AAXX 14064 84401 31960 31904 10213 20161 30094 40139 70202 83030 333 56000 59014 83360
AAXX 14064 84501 31957 21406 10175 20150 30106 40133 71000 82600 333 56000 58000 82658
AAXX 14064 84752 32960 50000 10109 20037 37523 70122 8503/ 333 5609/ 58000 85365
AAXX 14064 84686 21560 80803 10083 20061 36879 76166 885// 333 56900 58008 60051 81620 83636 88650
AAXX 14064 84452 31860 52007 10190 20167 30107 40138 70220 8507/ 333 5600/ 59007 85358
AAXX 14064 71114 16764 81202 10007 21034 30152 40201 51017 60001 333 10025 21025 70000
AAXX 14064 71120 NIL
AAXX 14064 71122 16/// /2208 11082 21108 38515 40145 51010 60001 333 11064 21129 70000 555 32425 40011
AAXX 14064 71123 12974 72805 11032 21076 39206 40078 52019 60001 85071 333 11014 21137 70000 555 10000 20000
AAXX 14064 71125 NIL
AAXX 14064 71129 12974 61503 11108 21121 39249 40096 57016 60001 80001 333 11038 21132 70000 555 10000 20000
AAXX 14064 71131 16/// /2405 11088 21094 38820 40091 57012 60001 333 11070 21089 70000
AAXX 14064 71135 NIL
AAXX 14064 71137 NIL
AAXX 14064 71140 11366 82312 11042 21045 39642 40152 57015 69901 77177 886// 333 11042 21103 41997 79999 90973 555 19999 29999 32317 40020
AAXX 14064 71145 11374 82207 11062 21082 39845 40145 57008 69901 77177 885// 333 11061 21189 48031 70002 90983 555 10002 20002 32220 40200
AAXX 14064 71148 NIL
AAXX 14064 71182 16964 02402 11255 21302 39726 40301 56006 60001 333 11165 21294 70000
AAXX 14064 71185 16964 00000 11127 30256 40281 55006 60001 333 11057 21152 70000
AAXX 14064 71188 NIL
AAXX 14064 71200 16/// /0000 10033 21004 60001 333 10056 20004 70000
AAXX 14064 71207 16/// /0201 11011 21023 30129 40194 51012 60001 333 10014 21034 70000
AAXX 14064 71260 13/// ///// 10021 20019 30030 40270 56009 60001 333 10026 20005 70004 555 10000 20000
AAXX 14064 71726 16/// /2501 11053 21061 39742 40296 56002 60001 333 11005 21054 70000
AAXX 14064 71727 11466 82904 11026 21046 30101 40303 56001 69901 78582 885// 333 10010 21030 47021 70010 90957 555 10030 20010
AAXX 14064 71728 11682 72702 11052 21090 30082 40310 56004 69901 72222 87500 333 10012 21052 42997 79999 90962 555 19999 29999
AAXX 14064 71730 11004 91204 11002 21002 39845 40277 58010 69901 74554 333 10020 21003 41997 70012 90951 555 19999 29999
AAXX 14064 71731 11016 81406 10000 21001 39822 40281 58005 60001 71022 886// 333 10023 20000 70052 555 19999 29999
AAXX 14064 71735 NIL
AAXX 14064 71738 NIL
AAXX 14064 71739 41566 81805 11037 21044 39900 40273 57013 6//// 77177 885// 333 11029 21062 4//// 7//// 90973 555 1//// 2////
AAXX 14064 71749 16328 80905 11030 21042 39990 40242 58023 60001 333 11029 21058 70000
AAXX 14064 71799 12983 72702 10004 21009 30173 40197 51010 60001 87070 333 10048 21027 70000 555 10000 20000
AAXX 14064 71800 17/// /0428 11008 21017 30189 40222 55001 60011 7//4/ 333 10032 21031 70014 555 30436 40053
AAXX 14064 71801 11474 80415 11050 21075 30078 40255 53005 60021 77177 885// 333 10007 21050 48003 70016 90973 93102 555 10026 20016 30422 40060
AAXX 14064 71803 12880 23208 11103 21136 30080 40273 58002 60001 82070 333 11038 21103 79999 555 19999 29999
AAXX 14064 71807 NIL
AAXX 14064 71808 12974 00000 11168 21210 30228 40277 55004 60001 333 11118 21168 70000 555 10000 20000
AAXX 14064 71809 12974 00000 11152 21162 30266 40295 53003 60001 333 11028 21153 70020
AAXX 14064 71810 NIL
AAXX 14064 71811 NIL
AAXX 14064 71813 NIL
AAXX 14064 71814 16/// /3306 11160 21178 30287 40297 55001 60001 333 11090 21161 70000
AAXX 14064 71815 NIL
AAXX 14064 71397 12474 80508 10020 21004 30213 40248 58004 60001 885// 333 10069 21019 70000 555 10000 20000
AAXX 14064 71400 16/64 /3402 11145 21154 60001 333 11029 21145 70000
AAXX 14064 71403 46/// /3618 10037 20037 30192 40212 56006 6///1 333 10069 20036 7//// 555 33523 40061
AAXX 14064 71411 16/// /3508 10008 21007 30217 40230 58002 60001 333 10096 20006 70000 555 33519 40041
AAXX 14064 71412 16/// /0425 10018 21010 30228 40238 51007 60001 333 10048 21024 70000 555 30430 40062
AAXX 14064 71421 NIL
AAXX 14064 71430 16/// /2603 10040 20029 30181 40279 56009 60001 333 10063 20017 70000 555 32817 40081
AAXX 14064 71431 16/// /1401 10016 20001 30173 40270 58008 60001 333 10059 21020 70000
AAXX 14064 71432 16/// /2302 10043 20017 30182 40280 58007 60001 333 10085 20009 70000
AAXX 14064 71433 NIL
AAXX 14064 71435 NIL
AAXX 14064 71441 46/// /1909 11028 21043 39845 40159 56017 6///1 333 11028 21112 7////
AAXX 14064 71443 16/// /2310 11049 21064 39703 40120 56013 60001 333 11038 21068 70000 555 32428 40202
AAXX 14064 71444 NIL
AAXX 14064 71447 16/// /2207 11042 21050 39594 40147 56015 60001 333 11042 21073 70000 555 31817 40141
AAXX 14064 71467 16/// /2812 11274 21300 30039 40160 55001 60001 333 11272 21360 70000
AAXX 14064 71472 NIL
AAXX 14064 71474 16564 82602 11063 21088 38922 40184 51022 60001 333 11048 21094 70000 555 31718 40211
AAXX 14064 71510 16/// /2204 11083 21099 39377 40093 58009 60001 333 11022 21099 70000 555 32020 40071
AAXX 14064 71538 12562 80000 10033 20001 30047 40281 58001 60001 885// 333 10057 21025 70000 555 10000 20000
AAXX 14064 71600 17564 80116 10057 20032 30181 40187 58010 60001 743// 333 10089 20055 70000 555 30020 40061
AAXX 14064 71601 NIL
AAXX 14064 71864 NIL
AAXX 14064 71865 16/// /2208 11049 21064 39425 40113 58013 60001 333 11049 21067 70000 555 32021 40091
AAXX 14064 71866 46964 02106 11062 21085 39483 40103 56010 6///1 333 11017 21077 7//// 555 31920 40071
AAXX 14064 71867 12574 82005 11057 21069 39769 40107 56010 60001 88500 333 11037 21097 70000 555 10000 20000 32618 40230
AAXX 14064 71868 16/// /2206 11047 21068 39667 40112 55010 60001 333 11042 21064 70000 555 32221 40091
AAXX 14064 71869 12974 81904 11049 21063 39567 40095 57009 60001 8802/ 333 11028 21075 70000 555 10000 20000
AAXX 14064 71871 15866 81909 11056 21091 39257 40072 55014 60001 333 11038 21096 70000
AAXX 14064 71877 12974 62818 10039 21061 38797 40066 53001 60001 80002 333 10040 21152 70000 555 10000 20000 32824 40061
AAXX 14064 71878 12974 61804 11125 21143 39005 40103 53015 60001 81071 333 11029 21173 70000 555 10000 20000
AAXX 14064 71879 16964 83011 11008 21070 39263 40069 51021 60001 333 10006 21097 70000
AAXX 14064 71880 12582 80000 11072 21086 39072 40205 53010 60001 885// 333 11065 21099 79999 555 19999 29999
AAXX 14064 71882 16564 80000 11033 21060 39656 40206 53008 60001 333 11027 21077 70000
AAXX 14064 71883 46/// /0000 11069 21076 39359 40199 53011 6///1 333 11064 21145 7////
AAXX 14064 71887 12986 72102 11036 21066 39767 40197 51019 60001 86071 333 11007 21074 70000 555 10000 20000
AAXX 14064 71889 12574 81711 11018 21054 39793 40220 53019 60001 88500 333 11017 21098 70000 555 10000 20000 31826 40201
AAXX 14064 71891 16964 00304 11022 21071 39907 40187 53019 60001 333 11001 21061 70000
AAXX 14064 71892 12680 61006 10008 21016 30194 40199 51010 60001 82570 333 10040 21013 70000 555 10000 20000
AAXX 14064 71140 11366 82312 11042 21045 39642 40152 5/015 69901 77177 886// 333 11042 21103 41997 79999 90973 555 19999 29999 32317 40020
AAXX 14064 71726 16/// /2501 11053 21061 39742 40296 56002 60001 333 11005 21054 70000
AAXX 14064 71727 11466 82904 11026 21046 30101 40303 56001 69901 78582 885// 333 10010 21030 47021 70010 90957 555 10030 20010
AAXX 14064 71728 11682 72702 11052 21090 30082 40310 56004 69901 72222 87500 333 10012 21052 42997 79999 90962 555 19999 29999
AAXX 14064 71730 11004 91204 11002 21002 39845 40277 58010 69901 74554 333 10020 21003 41997 70012 90951 555 19999 29999
AAXX 14064 71731 11016 81406 10000 21001 39822 40281 58005 60001 71022 886// 333 10023 20000 70052 555 19999 29999
AAXX 14064 71735 NIL
AAXX 14064 71738 NIL
AAXX 14064 71739 41566 81805 11037 21044 39900 40273 57013 6//// 77177 885// 333 11029 21062 4//// 7//// 90973 555 1//// 2////
AAXX 14064 71749 16328 80905 11030 21042 39990 40242 58023 60001 333 11029 21058 70000
AAXX 14064 71799 12983 72702 10004 21009 30173 40197 51010 60001 87070 333 10048 21027 70000 555 10000 20000
AAXX 14064 71800 17/// /0428 11008 21017 30189 40222 55001 60011 7//4/ 333 10032 21031 70014 555 30436 40053
AAXX 14064 71801 11474 80415 11050 21075 30078 40255 53005 60021 77177 885// 333 10007 21050 48003 70016 90973 93102 555 10026 20016 30422 40060
AAXX 14064 71803 12880 23208 11103 21136 30080 40273 58002 60001 82070 333 11038 21103 79999 555 19999 29999
AAXX 14064 71807 NIL
AAXX 14064 71808 12974 00000 11168 21210 30228 40277 55004 60001 333 11118 21168 70000 555 10000 20000
AAXX 14064 71809 12974 00000 11152 21162 30266 40295 53003 60001 333 11028 21153 70020
AAXX 14064 71810 NIL
AAXX 14064 71811 NIL
AAXX 14064 71813 NIL
AAXX 14064 71814 16/// /3306 11160 21178 30287 40297 55001 60001 333 11090 21161 70000
AAXX 14064 71815 NIL
AAXX 14064 71604 NIL
AAXX 14064 71605 16/// /2401 10022 21010 30040 40191 52011 60001 333 10041 20004 70000
AAXX 14064 71611 NIL
AAXX 14064 71612 16/// /0802 10011 21002 30202 40294 53004 60001 333 10016 20010 70000
AAXX 14064 71614 16/// /0000 10003 21006 30213 40280 53003 60001 333 10029 21061 70000
AAXX 14064 71616 16/// /0604 10002 20001 30175 40298 50001 60001 333 10009 21037 70010
AAXX 14064 71617 16/// /2706 11030 21050 30135 40307 56001 60001 333 10009 21030 70019
AAXX 14064 71618 15466 33212 11086 21110 30024 40062 51038 60001 333 11031 21132 70000
AAXX 14064 71619 16/// /0303 11032 21056 30233 40292 55000 60001 333 10005 21035 70000
AAXX 14064 71622 NIL
AAXX 14064 71632 46/// /2402 11082 21094 39628 40070 58001 6///1 333 11043 21123 7//// 555 32228 40082
AAXX 14064 71634 16/// /3401 11027 21035 30138 58001 60001 333 7////
AAXX 14064 71638 16/// /3401 11002 21015 30081 40188 52010 60001 333 10037 21020 70000
AAXX 14064 71639 12969 82503 10034 21033 30036 40281 58005 60001 8807/ 333 10071 21036 70000 555 10000 20000
AAXX 14064 71642 NIL
AAXX 14064 71744 NIL
AAXX 14064 71750 16/// /0603 11062 21069 30017 40258 56009 60001 333 11036 21068 70000
AAXX 14064 71751 NIL
AAXX 14064 71752 NIL
AAXX 14064 71753 16/// /3407 10025 20007 30192 40221 58003 60001 333 10069 21030 70000 555 10010 30019 40011
AAXX 14064 71754 NIL
AAXX 14064 71755 43/// /2514 11039 21061 39802 40153 56007 6///1 333 11039 21239 7//// 555 32327 40201
AAXX 14064 71756 16/// /0402 11022 21046 39074 40177 51013 60001 333 11006 21052 70000
AAXX 14064 71758 NIL
AAXX 14064 71760 NIL
AAXX 14064 71761 NIL
AAXX 14064 71762 NIL
AAXX 14064 71763 NIL
AAXX 14064 71765 16/// /0303 11024 21071 39904 40183 51019 60001 333 11002 21064 70000
AAXX 14064 71766 16/// /2301 11007 21013 30118 40191 53007 60001 333 10035 21008 70000
AAXX 14064 71767 16/// /1403 10021 20017 30004 40268 58010 60001 333 10056 20011 70000
AAXX 14064 71768 46/// /1603 11047 21071 39658 40219 53018 6///1 333 11022 21075 7//// 555 31517 40041
AAXX 14064 71769 16/// /1209 10041 20014 30166 40182 53007 60001 333 10041 20023 70002
AAXX 14064 71770 16/// /0000 11030 21052 39421 40207 53009 60001 333 11020 21050 70000
AAXX 14064 71771 NIL
AAXX 14064 71772 16/// /1408 10039 20019 30177 40183 52007 60001 333 10043 20023 70000
AAXX 14064 71773 16/// /0000 11163 21174 39262 40137 53009 60001 333 11019 21166 70000
AAXX 14064 71774 46/// ///// 10006 6///1 333 10024 21014 7////
AAXX 14064 71775 46/// /1301 10002 21008 30197 40203 51013 6///1 333 10027 21038 7////
AAXX 14064 71776 46/// /2707 11020 21054 39552 40206 53007 6///1 333 11016 21083 7////
AAXX 14064 71777 16/// ///// 11041 21045 39945 40203 51014 60001 333 11032 21090 70000
AAXX 14064 71778 46/// /3602 6///1 333 7////
AAXX 14064 71779 16/// /1601 11023 21043 39506 40174 52016 60001 333 10007 21035 70000 555 10010 31318 40171
AAXX 14064 71780 16/// /2903 10043 21005 30170 40198 51006 60001 333 10065 20024 70000
AAXX 14064 71781 46/// /1004 10034 20014 30162 40187 53007 6///1 333 10040 20028 7////
AAXX 14064 71782 46/// /0000 38828 55000 6///1 333 7////
AAXX 14064 71783 NIL
AAXX 14064 71784 16/// /0301 10008 21036 39984 40191 51011 60001 333 10032 21008 70000
AAXX 14064 71785 NIL
AAXX 14064 71786 46/// /2620 11119 21133 38305 40182 51006 6///1 333 11111 21166 7//// 555 32629 40042
AAXX 14064 71787 16/// /0209 11022 21026 39755 40251 58001 60001 333 10043 21022 70000 555 30319 40041
AAXX 14064 71788 NIL
AAXX 14064 71789 NIL
AAXX 14064 71791 NIL
AAXX 14064 71792 NIL
AAXX 14064 71793 NIL
AAXX 14064 71794 NIL
AAXX 14064 71795 NIL
AAXX 14064 71796 NIL
AAXX 14064 71797 NIL
AAXX 14064 71950 15366 83302 11050 21054 39547 40189 53020 60001 333 11026 21070 70088
AAXX 14064 71952 16/// /3101 11190 21209 39313 40189 53019 60001 333 11020 21190 70099 555 10140 20099
AAXX 14064 71954 NIL
AAXX 14064 71956 NIL
AAXX 14064 71959 NIL
AAXX 14064 71960 460// /2506 11301 30083 40224 51009 6///1 333 11254 21307 7//// 555 30119 40071
AAXX 14064 71962 16/// /1606 10002 21011 39766 40194 56019 60001 333 10002 21101 70000
AAXX 14064 71963 NIL
AAXX 14064 71967 16/// /0801 11002 21002 30193 40301 51001 60001 333 10003 21052 70008
AAXX 14064 71970 NIL
AAXX 14064 71971 16/// /0712 11196 21258 39999 40046 58007 60001 333 11193 21293 70000 555 30718 40061
AAXX 14064 71972 460// ///// 11075 39576 40042 56038 6///1 333 11075 21136 7////
AAXX 14064 71973 46/// /0000 11127 21141 30090 40285 53004 6///1 333 11025 21127 7////
AAXX 14064 71974 NIL
AAXX 14064 71975 460// /1315 11199 39295 40040 58020 6///1 333 11198 21223 7//// 555 32733 40072
AAXX 14064 71976 NIL
AAXX 14064 71977 NIL
AAXX 14064 71978 NIL
AAXX 14064 71979 NIL
AAXX 14064 71980 NIL
AAXX 14064 71981 NIL
AAXX 14064 71982 NIL
AAXX 14064 71983 NIL
AAXX 14064 71984 16/// /2208 11288 21316 30195 40204 51010 60001 333 11236 21290 70000
AAXX 14064 71985 NIL
AAXX 14064 71986 NIL
AAXX 14064 71987 16/// /0419 10004 21030 30262 40272 51007 60001 333 10027 21029 70000 555 30426 40001
AAXX 14064 71988 NIL
AAXX 14064 71989 NIL
AAXX 14064 71990 NIL
AAXX 14064 71999 46/// ///// 11034 6///1 333 11010 21053 7////
AAXX 14064 71500 NIL
AAXX 14064 71501 NIL
AAXX 14064 71502 NIL
AAXX 14064 71503 NIL
AAXX 14064 71504 NIL
AAXX 14064 71505 NIL
AAXX 14064 71506 NIL
AAXX 14064 71507 16/// /3104 11052 21105 60001 333 11025 21078 7////
AAXX 14064 71508 16/// ///// 10049 21005 30145 40285 58005 60001 333 10072 20009 70000
AAXX 14064 71509 NIL
AAXX 14064 71511 NIL
AAXX 14064 71512 NIL
AAXX 14064 71513 15566 60209 11160 21184 30288 40304 58002 60001 333 11099 21172 70000
AAXX 14064 71514 NIL
AAXX 14064 71515 NIL
AAXX 14064 71516 16/// /2103 11060 21068 60001 333 11049 21075 70000
AAXX 14064 71517 NIL
AAXX 14064 71518 NIL
AAXX 14064 71519 NIL
AAXX 14064 71520 NIL
AAXX 14064 71521 NIL
AAXX 14064 71522 NIL
AAXX 14064 71523 NIL
AAXX 14064 71524 16/// /0202 10000 21002 30275 40302 53004 60001 333 10002 21031 70010
AAXX 14064 71525 NIL
AAXX 14064 71526 NIL
AAXX 14064 71527 15362 81708 11021 21022 39680 40196 57020 60001 333 11021 21107 70000
AAXX 14064 71528 NIL
AAXX 14064 71529 46/// /1003 11222 21259 39906 40141 51018 6///1 333 11006 21256 7//// 555 33136 40113
AAXX 14064 71532 17428 82401 11001 21001 39927 40277 58006 69931 710// 333 10047 21015 70046
AAXX 14064 71534 16858 81903 10008 21017 30003 40278 57007 60001 333 10085 21028 70000
AAXX 14064 71535 NIL
AAXX 14064 71536 NIL
AAXX 14064 71537 NIL
AAXX 14064 71539 NIL
AAXX 14064 71540 NIL
AAXX 14064 71541 NIL
AAXX 14064 71542 16/// /0402 11077 21091 60001 333 10005 21092 70000 555 32526 40091
AAXX 14064 71543 NIL
AAXX 14064 71544 NIL
AAXX 14064 71545 16/// ///// 11032 21089 60001 333 11006 21093 70012
AAXX 14064 71546 NIL
AAXX 14064 71547 NIL
AAXX 14064 71548 NIL
AAXX 14064 71549 NIL
AAXX 14064 71201 16/// ///// 10035 21004 60001 333 10049 20005 70000
AAXX 14064 71202 16/// ///// 11081 21113 60001 333 11028 21116 70000
AAXX 14064 71203 15566 81904 11030 21063 39679 40209 53011 60001 333 11006 21105 70000
AAXX 14064 71209 46/// /1208 10036 6///1 333 10042 20016 7////
AAXX 14064 71211 46/// /3402 10028 21001 30182 40194 52010 6///1 333 10037 20021 7////
AAXX 14064 71212 16/// /1702 11035 21040 39455 40273 55001 60001 333 11001 21038 70000
AAXX 14064 71213 46/// /1601 11020 21020 39973 40280 57012 6///1 333 10002 21026 7////
AAXX 14064 71214 NIL
AAXX 14064 71215 46/// /1403 11021 21059 39865 40218 53010 6///1 333 11019 21088 7////
AAXX 14064 71216 16/// /0501 11019 21054 39569 40195 53007 60001 333 11011 21056 70000
AAXX 14064 71217 NIL
AAXX 14064 71218 16/// /1403 11015 21060 39760 40194 53014 60001 333 11002 21073 70000
AAXX 14064 71219 46/// /0607 10026 20005 30159 40165 50000 6///1 333 10047 20019 7//// 555 33420 40171
AAXX 14064 71220 46/// /1107 10026 21001 6///1 333 10057 20022 7////
AAXX 14064 71221 NIL
AAXX 14064 71222 16/// /0000 11129 21142 39188 40181 53009 60001 333 11089 21165 70000
AAXX 14064 71223 NIL
AAXX 14064 71224 NIL
AAXX 14064 71225 NIL
AAXX 14064 71226 NIL
AAXX 14064 71227 NIL
AAXX 14064 71228 NIL
AAXX 14064 71229 NIL
AAXX 14064 71230 16/// /3106 11049 21080 39221 40122 51027 60001 333 10002 21060 70060 555 10090 20060 32628 40072
AAXX 14064 71231 16/// /1712 11097 21124 60001 333 11066 21152 70000 555 31518 40011
AAXX 14064 71232 16/// /2514 11043 21105 38593 40104 51008 60001 333 11026 21096 70000 555 32429 40182
AAXX 14064 71233 16/// /3202 11022 21080 60001 333 10019 21108 7////
AAXX 14064 71234 16/// /3002 11082 21121 38882 40091 53006 60001 333 11037 21260 70000
AAXX 14064 71235 16/// /3111 10001 21066 60001 333 10009 21084 70000 555 33218 40161
AAXX 14064 71236 46/// /3114 11050 21106 6///1 333 11034 21137 7//// 555 33433 40032
AAXX 14064 71237 46/// /1404 11163 21182 39253 40093 56001 6///1 333 11100 21176 7////
AAXX 14064 71238 16/// /2703 11015 21096 60001 333 11003 21115 70000
AAXX 14064 71239 16/// /2311 11028 21043 39683 40151 56017 60001 333 11028 21110 70000 555 32422 40201
AAXX 14064 71240 16/// ///// 11084 21099 39232 40091 58013 60001 333 11050 21148 70000
AAXX 14064 71241 NIL
AAXX 14064 71242 16/// /1302 11105 21127 60001 333 11037 21152 70000
AAXX 14064 71243 NIL
AAXX 14064 71244 16/// /2801 11086 21111 38839 40086 56010 60001 333 11068 21196 70000
AAXX 14064 71245 46/// /2312 11072 21105 6///1 333 11029 21079 7//// 555 32448 40013
AAXX 14064 71246 NIL
AAXX 14064 71247 15966 00602 11112 21122 39221 40092 56013 60001 333 11026 21124 70000
AAXX 14064 71248 17/// /0000 11102 21116 38765 40086 51012 69961 7//4/ 333 11025 21172 70006
AAXX 14064 71249 NIL
AAXX 14064 71864 NIL
AAXX 14064 71865 16/// /2208 11049 21064 39425 40113 58013 60001 333 11049 21067 70000 555 32021 40091
AAXX 14064 71866 46964 02106 11062 21085 39483 40103 56010 6///1 333 11017 21077 7//// 555 31920 40071
AAXX 14064 71867 12574 82005 11057 21069 39769 40107 56010 60001 88500 333 11037 21097 70000 555 10000 20000 32618 40230
AAXX 14064 71868 16/// /2206 11047 21068 39667 40112 55010 60001 333 11042 21064 70000 555 32221 40091
AAXX 14064 71869 12974 81904 11049 21063 39567 40095 57009 60001 8802/ 333 11028 21075 70000 555 10000 20000
AAXX 14064 71871 15866 81909 11056 21091 39257 40072 55014 60001 333 11038 21096 70000
AAXX 14064 71877 12974 62818 10039 21061 38797 40066 53001 60001 80002 333 10040 21152 70000 555 10000 20000 32824 40061
AAXX 14064 71878 12974 61804 11125 21143 39005 40103 53015 60001 81071 333 11029 21173 70000 555 10000 20000
AAXX 14064 71879 16964 83011 11008 21070 39263 40069 51021 60001 333 10006 21097 70000
AAXX 14064 71880 12582 80000 11072 21086 39072 40205 53010 60001 885// 333 11065 21099 79999 555 19999 29999
AAXX 14064 71882 16564 80000 11033 21060 39656 40206 53008 60001 333 11027 21077 70000
AAXX 14064 71883 46/// /0000 11069 21076 39359 40199 53011 6///1 333 11064 21145 7////
AAXX 14064 71887 12986 72102 11036 21066 39767 40197 51019 60001 86071 333 11007 21074 70000 555 10000 20000
AAXX 14064 71889 12574 81711 11018 21054 39793 40220 53019 60001 88500 333 11017 21098 70000 555 10000 20000 31826 40201
AAXX 14064 71891 16964 00304 11022 21071 39907 40187 53019 60001 333 11001 21061 70000
AAXX 14064 71892 12680 61006 10008 21016 30194 40199 51010 60001 82570 333 10040 21013 70000 555 10000 20000
AAXX 14064 71001 NIL
AAXX 14064 71002 NIL
AAXX 14064 71003 NIL
AAXX 14064 71005 16/// ///// 11073 21113 60001 333 11039 21123 70000
AAXX 14064 71006 NIL
AAXX 14064 71007 NIL
AAXX 14064 71008 NIL
AAXX 14064 71009 NIL
AAXX 14064 71010 NIL
AAXX 14064 71011 NIL
AAXX 14064 71012 NIL
AAXX 14064 71013 NIL
AAXX 14064 71014 NIL
AAXX 14064 71015 NIL
AAXX 14064 71016 NIL
AAXX 14064 71017 NIL
AAXX 14064 71018 NIL
AAXX 14064 71019 NIL
AAXX 14064 71020 NIL
AAXX 14064 71021 NIL
AAXX 14064 71022 15966 00606 10000 21004 30129 40173 50002 60001 333 10042 20002 70043 555 33420 40161
AAXX 14064 71023 17011 81004 11047 21053 39284 40058 58018 60021 74544 333 11028 21104 70015 555 32226 40081
AAXX 14064 71024 17/// /0302 11084 21087 69981 7//4/ 333 11020 21117 70008 555 10010 20008
AAXX 14064 71026 NIL
AAXX 14064 71027 16/// /0108 10012 20002 30229 40239 53008 60001 333 10057 21031 70000
AAXX 14064 71028 16/// /3402 11022 21033 39135 40184 52020 60001 333 10062 21089 70000 555 31522 40181
AAXX 14064 71029 17/// /3313 11254 21280 30082 40123 53014 69931 7//4/ 333 11251 21305 70003 555 30027 40111
AAXX 14064 71030 16/64 /0412 10017 21017 30160 40251 56004 60001 333 10057 21027 70000
AAXX 14064 71032 46/// /0901 11068 21091 39343 40194 52009 6///1 333 11031 21127 7////
AAXX 14064 71033 46/// /3002 11085 21096 39440 40075 55000 6///1 333 11048 21093 7//// 555 32125 40111
AAXX 14064 71035 NIL
AAXX 14064 71036 15466 82510 11039 21059 39757 40137 56013 60001 333 11036 21105 70000
AAXX 14064 71039 46/// /1301 11215 6///1 333 11027 21222 7////
AAXX 14064 71040 46/// /3005 11030 21051 30091 40295 56002 6///1 333 10010 21030 7//// 555 33534 40093
AAXX 14064 71041 15466 80205 10020 20014 30078 40221 55000 69951 333 10050 21028 70005
AAXX 14064 71042 16/// /0601 11006 21015 30190 40194 51011 60001 333 10035 21048 70000
AAXX 14064 71044 16/// /2702 11253 21281 39828 40162 51005 60001 333 11144 21289 70000 555 30617 40121
AAXX 14064 71046 460// /1023 11265 30157 40175 53002 6///1 333 11210 21275 7//// 555 30132 40062
AAXX 14064 71047 16/// ///// 11049 21095 60001 333 11036 21110 70000
AAXX 14064 71048 NIL
AAXX 14064 71049 NIL
AAXX 14064 71060 NIL
AAXX 14064 71063 NIL
AAXX 14064 71550 NIL
AAXX 14064 71551 NIL
AAXX 14064 71552 NIL
AAXX 14064 71553 16/// /2409 11074 21081 60001 333 11059 21098 70000
AAXX 14064 71554 16/// /0501 11027 21043 30300 40306 55003 60001 333 10011 21030 70000
AAXX 14064 71555 NIL
AAXX 14064 71556 NIL
AAXX 14064 71557 46/// /0000 11066 21080 6///1 333 11010 21108 7////
AAXX 14064 71558 NIL
AAXX 14064 71559 46/// /2209 11062 21070 39426 40138 57016 6///1 333 11050 21064 7////
AAXX 14064 71560 16/// /1911 11022 21034 39856 40162 56017 60001 333 11019 21103 70000
AAXX 14064 71563 NIL
AAXX 14064 71564 NIL
AAXX 14064 71565 NIL
AAXX 14064 71566 NIL
AAXX 14064 71567 NIL
AAXX 14064 71568 17/// /1110 10022 20009 30179 40192 51008 60011 7//4/ 333 10037 20014 70020 555 31517 40131
AAXX 14064 71569 16/// /2010 11054 21065 39398 40107 56013 60001 333 11045 21061 70000 555 31919 40121
AAXX 14064 71570 16/// /1905 11014 21036 39852 40169 56019 60001 333 11014 21118 70000
AAXX 14064 71571 NIL
AAXX 14064 71572 NIL
AAXX 14064 71573 16/// /1801 10017 21002 39986 40272 58009 60001 333 10070 21063 70000
AAXX 14064 71574 11474 80000 11020 21028 30219 40294 55001 69961 77177 885// 333 10004 21022 43022 70026 90983 93101 555 10024 20026
AAXX 14064 71575 16/// /2415 11057 21070 39769 49832 56014 60001 333 11050 21163 70013 555 31734 40223
AAXX 14064 71576 16/// /1706 11247 21293 39918 40006 56015 60001 333 11237 21310 70000
AAXX 14064 71577 NIL
AAXX 14064 71578 17/// /0611 10002 21025 60011 7//4/ 333 10009 21013 70010 555 30617 40061
AAXX 14064 71579 NIL
AAXX 14064 71580 11516 70714 11130 21150 39720 49755 50001 60011 77177 87700 333 11130 21228 46032 70044 90983 93101 555 10044 20044 31039 40183
AAXX 14064 71581 NIL
AAXX 14064 71582 15366 82701 11003 21003 30132 40186 51006 60001 333 10058 21006 70145
AAXX 14064 71583 NIL
AAXX 14064 71584 15966 00203 11156 21172 30260 40310 50000 60001 333 11086 21156 70000
AAXX 14064 71585 NIL
AAXX 14064 71586 16/// /1803 11079 21089 39611 40080 56008 60001 333 11033 21107 70000 555 31917 40121
AAXX 14064 71587 NIL
AAXX 14064 71588 16/// /0504 11151 21163 60001 333 11044 21151 70000
AAXX 14064 71589 16/// /3505 11073 21119 30129 40265 53007 60001 333 10030 21728 70000 555 31478 40153
AAXX 14064 71590 16/// /2801 11030 21053 30097 40293 57003 60001 333 10010 21085 70000
AAXX 14064 71592 NIL
AAXX 14064 71593 NIL
AAXX 14064 71596 NIL
AAXX 14064 71598 17/64 /0903 11019 21051 30287 40293 55001 69931 7//4/ 333 10011 21020 70007 555 30324 40191
AAXX 14064 71599 16/// /0404 10001 21016 30037 40242 58005 60001 333 10068 21016 70006
AAXX 14064 71043 11674 70802 11199 21224 30097 40194 51015 69901 77177 82570 333 11102 21208 48021 70007 90973 555 10007 20007 33019 40070
AAXX 14064 71045 16/// /0000 11171 21188 39270 40155 51010 60001 333 11037 21174 70006
AAXX 14064 71050 NIL
AAXX 14064 71051 NIL
AAXX 14064 71052 NIL
AAXX 14064 71066 11859 83505 11072 21101 39681 40107 51027 69941 77172 8807/ 333 11044 21146 44016 70004 90942 93101 555 10008 20004
AAXX 14064 71068 11874 42804 11053 21074 39408 40105 52022 60041 70288 84070 333 11003 21053 47006 70043 90942 93105 555 10060 20043
AAXX 14064 71069 17464 82914 11022 21031 39375 40083 51033 60011 74544 333 11007 21117 70010 555 30319 40061
AAXX 14064 71076 16/// /3503 11099 21123 39697 40093 53011 60001 333 11013 21106 70000 555 32129 40112
AAXX 14064 71077 16/// /1501 11047 21061 39537 40080 56003 60001 333 11032 21070 70000 555 31918 40081
AAXX 14064 71079 11474 82105 11036 21059 39813 40094 53002 69901 70277 885// 333 11035 21142 48003 70002 90933 555 10002 20002 32225 40110
AAXX 14064 71081 47440 91129 11133 21147 39843 49855 55008 6///1 745// 333 11132 21318 7//// 555 31248 40003
AAXX 14064 71082 NIL
AAXX 14064 71083 11404 83125 11233 21281 39911 49953 52050 69901 73977 885// 333 11044 21234 48052 70020 90952 555 10020 20020 33040 40032
AAXX 14064 71090 46264 81507 11212 21244 30004 40040 56015 6///1 333 11177 21302 7////
AAXX 14064 71091 460// /0930 11212 39729 49941 56021 6///1 333 7//// 555 30938 40053
AAXX 14064 71092 47408 81129 11239 39307 49990 58026 6///1 745// 333 11239 21292 7//// 555 30134 40063
AAXX 14064 71093 460// /1212 11233 39512 40022 56017 6///1 333 11219 21249 7//// 555 32632 40072
AAXX 14064 71094 46002 /2111 11225 39087 40003 56013 6///1 333 11172 21228 7//// 555 32220 40021
AAXX 14064 71095 46964 01805 11249 21305 39923 40006 56015 6///1 333 11236 21309 7////
AAXX 14064 71101 160// /2503 30166 54000 60001 333 70000 555 33017 40121
AAXX 14064 71104 11574 71303 11052 21067 39051 40179 51017 69921 77172 83570 333 11016 21061 44014 70002 90926 555 10004 20002 31519 40200
AAXX 14064 71108 12674 83202 10007 21016 30129 40203 51013 60001 8653/ 333 10034 21024 70000 555 10000 20000
AAXX 14064 71109 11259 81108 10037 20026 30147 40174 51003 60021 70288 887// 333 10053 20028 70060 90942 555 10000 20000 31120 40130
AAXX 14064 71300 NIL
AAXX 14064 71301 16/// ///// 11033 21033 39869 40277 58010 60001 333 11008 21052 70000
AAXX 14064 71302 16/// /2103 11068 21077 39339 40170 51017 60001 333 11010 21068 70008 555 32026 40211
AAXX 14064 71303 46/// ///// 10044 20015 6///1 333 10055 21039 7////
AAXX 14064 71305 15466 80306 11088 21103 39799 40101 53018 60001 333 10006 21115 70000
AAXX 14064 71306 17404 82532 11040 21053 39985 40017 58016 60001 773// 333 11027 21090 70000
AAXX 14064 71307 NIL
AAXX 14064 71308 17/// /0311 10029 20020 30139 40224 55001 60011 7//4/ 333 10062 20001 70011
AAXX 14064 71309 NIL
AAXX 14064 71310 16/// /0212 10004 21025 30215 40252 52011 60001 333 10027 21044 70000 555 30321 40061
AAXX 14064 71311 NIL
AAXX 14064 71312 NIL
AAXX 14064 71314 NIL
AAXX 14064 71315 NIL
AAXX 14064 71316 16/// /2004 11034 21078 39361 40044 58001 60001 333 11005 21100 70000
AAXX 14064 71317 NIL
AAXX 14064 71318 16/// /1909 11131 21152 39119 40084 58006 60001 333 11074 21146 70000 555 10020 31917 40071
AAXX 14064 71319 16/// /0403 11060 21062 39397 40278 57001 60001 333 11007 21060 70000
AAXX 14064 71320 NIL
AAXX 14064 71321 16/// /1323 11076 21086 39914 49957 56060 60001 333 11073 21254 70000 555 31332 40062
AAXX 14064 71322 NIL
AAXX 14064 71323 NIL
AAXX 14064 71331 16/// /2102 11058 21077 60001 333 11032 21097 70000 555 10020 32219 40191
AAXX 14064 71332 NIL
AAXX 14064 71334 NIL
AAXX 14064 71335 46964 02314 11113 56022 6///1 333 11103 21152 7//// 555 32743 40093
AAXX 14064 71336 46/// ///20 11034 21085 30216 40239 53004 6///1 333 10007 21036 7////
AAXX 14064 71337 46/// /2903 11107 21130 30020 40267 55003 6///1 333 11058 21107 7//// 555 33122 40001
AAXX 14064 71338 46964 01904 11263 21302 30032 40039 56020 6///1 333 11190 21285 7////
AAXX 14064 71339 16964 03112 11136 21203 30243 40258 55001 60001 333 11124 21173 70005 555 32818 40111
AAXX 14064 71340 NIL
AAXX 14064 71341 NIL
AAXX 14064 71342 NIL
AAXX 14064 71343 NIL
AAXX 14064 71344 NIL
AAXX 14064 71345 NIL
AAXX 14064 71346 NIL
AAXX 14064 71347 NIL
AAXX 14064 71348 NIL
AAXX 14064 71349 NIL
AAXX 14064 71603 12574 70508 10013 21009 30187 40241 58002 60001 87500 333 10091 21003 70000 555 10000 20000
AAXX 14064 71607 16/// /3203 11003 21028 30236 40269 56004 60001 333 10063 21072 70000
AAXX 14064 71609 12474 70311 10007 21031 30125 40261 58001 60001 87500 333 10048 21036 70000 555 10000 20000
AAXX 14064 71610 17112 83601 11009 21010 39983 40285 56001 60001 771// 333 10008 21097 70000
AAXX 14064 71621 16730 60000 10010 20004 30175 40283 58005 60001 333 10143 21050 7////
AAXX 14064 71623 NIL
AAXX 14064 71624 12974 72505 10027 21017 30064 40279 58007 60001 87070 333 10086 21026 70000 555 10000 20000
AAXX 14064 71625 16358 80000 10006 21021 30126 40290 56001 60001 333 10031 20005 70025
AAXX 14064 71627 11248 80404 10013 21008 30245 40290 53002 69901 71075 885// 333 10015 21011 70002 90941 555 19999 20002
AAXX 14064 71628 11232 80000 10016 20013 30145 40288 54000 69941 71066 81500 333 10030 21014 70008 909/7
AAXX 14064 71630 NIL
AAXX 14064 71631 16/// /1603 10008 21027 39766 40273 58008 60001 333 10039 21029 70000
AAXX 14064 71633 12862 71505 10020 21005 39996 40271 58009 60001 87030 333 10060 20014 70002 555 10000 20000
AAXX 14064 71705 11374 70311 11001 21018 30176 40265 51005 69941 72672 87500 333 10050 21047 42001 70004 90936 93101 555 10006 20004 30219 40040
AAXX 14064 71706 11459 80413 10007 21014 30196 40257 52010 69941 77165 885// 333 10030 21061 70004 90952 555 10002 20002 30324 40061
AAXX 14064 71707 12574 80409 10030 20002 30148 40225 55001 60001 885// 333 10036 21056 70002 555 10000 20000
AAXX 14064 71709 NIL
AAXX 14064 71711 NIL
AAXX 14064 71714 16/// /0705 11001 21022 30217 40311 58001 60001 333 10011 21026 70000
AAXX 14064 71715 16/// /0102 11030 21050 30113 40299 55004 60001 333 10002 21030 70000
AAXX 14064 71718 11448 80802 11036 21041 30239 40306 57004 60021 77177 885// 333 10012 21043 47013 70022 90983 93102 555 10022 20022
AAXX 14064 71719 NIL
AAXX 14064 71893 12580 62802 10003 21009 30165 40197 53012 60001 84570 333 10034 21013 70022 555 19999 29999
AAXX 14064 71894 17/// /0909 10051 20051 30172 40181 53004 69961 7//4/ 333 10051 20028 70048
AAXX 14064 71896 15566 12103 11083 21094 39329 40175 51018 60001 333 11011 21083 70005
AAXX 14064 71897 12174 63210 10032 20007 3//// 4//// 52012 86550 333 10046 20028 70170
AAXX 14064 71898 160// ///// 10001 50002 60001 333 10042 21002 70060
AAXX 14064 71899 12474 12404 10016 20010 3//// 4//// 54000 60001 81400 333 10051 20016 70012 555 19999 20012
AAXX 14064 71902 NIL
AAXX 14064 71905 NIL
AAXX 14064 71906 11974 82120 11097 21164 30089 40140 57020 69901 77177 885// 333 11085 21200 48008 70004 90983 555 10004 20004
AAXX 14064 71907 17402 82428 11051 21061 39985 40017 56014 69951 745// 333 11038 21107 70030 555 32149 40013
AAXX 14064 71909 17111 81324 11078 21088 39899 49942 56060 60011 74544 333 11074 21255 70010 555 30133 40062
AAXX 14064 71910 47416 92217 11057 21067 39777 49838 57015 6///1 745// 333 11049 21165 7//// 555 31538 40223
AAXX 14064 71911 47406 82118 11170 39702 49757 53016 6///1 745// 333 11128 21217 7//// 555 30935 40143
AAXX 14064 71912 11459 82109 11045 21062 39906 40091 50003 69901 77172 885// 333 11043 21159 47012 79999 90946 555 19999 29999 32127 40111
AAXX 14064 71915 NIL
AAXX 14064 71917 11974 00000 11406 21442 30081 40096 57001 69901 7767/ 333 11367 21412 43013 79999 90999 555 19999 29999
AAXX 14064 71922 12974 71903 11078 21087 39613 40083 57008 60001 80002 333 11032 21112 70000 555 10000 20000
AAXX 14064 71924 NIL
AAXX 14064 71925 11500 83235 11261 21304 39907 49949 51025 60001 73933 885// 333 11130 21267 48018 70004 555 10005 20004 33242 40043
AAXX 14064 71926 NIL
AAXX 14064 71928 16/// /3106 11069 21097 38914 40092 53022 60001 333 11054 21168 70000
AAXX 14064 71812 NIL
AAXX 14064 71819 15966 02707 11141 21155 30228 40271 55000 60001 333 11103 21175 70000
AAXX 14064 71820 16/// /3402 10017 20010 30168 40284 56002 60001 333 10051 21028 70000
AAXX 14064 71823 16964 02116 11129 21158 39866 40262 57024 60001 333 11122 21218 70005 555 30224 40061
AAXX 14064 71824 NIL
AAXX 14064 71826 16/// /1106 11183 21232 39982 40026 58028 60001 333 11183 21232 70000
AAXX 14064 71829 16/// /3007 11087 21099 30137 40304 56001 60001 333 11033 21087 70000 555 30617 40071
AAXX 14064 71833 46/// /3101 10001 21017 6///1 333 10074 21057 7////
AAXX 14064 71835 16/// /1910 11049 21055 39703 40193 58016 60001 333 11048 21177 70000
AAXX 14064 71837 NIL
AAXX 14064 71839 NIL
AAXX 14064 71840 NIL
AAXX 14064 71846 16/// /2416 11040 21054 39874 40197 56011 60001 333 11040 21274 70000 555 10010 32226 40061
AAXX 14064 71847 NIL
AAXX 14064 71848 NIL
AAXX 14064 71849 16/// /1909 11022 21031 39858 40160 56020 60001 333 11022 21103 70000
AAXX 14064 71401 16/// /1803 11044 21068 39516 40217 53008 60001 333 11040 21092 70007
AAXX 14064 71402 NIL
AAXX 14064 71404 NIL
AAXX 14064 71405 NIL
AAXX 14064 71406 NIL
AAXX 14064 71407 NIL
AAXX 14064 71408 NIL
AAXX 14064 71409 NIL
AAXX 14064 71410 15466 82006 11043 21057 39835 40118 56012 60001 333 11042 21151 70000
AAXX 14064 71413 NIL
AAXX 14064 71414 NIL
AAXX 14064 71415 16/// /0323 10030 20010 30228 40231 53003 60001 333 10052 20003 70000 555 30227 40061
AAXX 14064 71417 NIL
AAXX 14064 71418 NIL
AAXX 14064 71419 46/// /0411 10038 20022 30204 40214 55003 6///1 333 10070 20012 7//// 555 30317 40051
AAXX 14064 71423 NIL
AAXX 14064 71424 NIL
AAXX 14064 71425 16/// /3204 11043 21077 30270 40307 50002 60001 333 11023 21044 70050 555 30821 40151
AAXX 14064 71426 NIL
AAXX 14064 71427 16/// /3605 11064 21085 30301 40309 58001 60001 333 11018 21072 70000 555 30624 40081
AAXX 14064 71428 16/// /1003 11040 21077 30296 40302 58001 60001 333 11011 21041 70000 555 30519 40091
AAXX 14064 71429 16/// /3606 11027 21042 30266 40286 55001 60001 333 10007 21032 70040 555 30527 40151
AAXX 14064 71434 NIL
AAXX 14064 71436 17958 81503 11001 21007 30042 40280 56007 60001 710// 333 10069 21056 70000
AAXX 14064 71437 46/// /2702 10043 21003 30181 40277 58008 6///1 333 10080 20006 7////
AAXX 14064 71438 NIL
AAXX 14064 71439 NIL
AAXX 14064 71440 NIL
AAXX 14064 71442 16/// /1904 11054 21059 39834 40154 58019 60001 333 11051 21171 70000 555 32022 40191
AAXX 14064 71445 NIL
AAXX 14064 71446 16/// /2117 11076 21088 39100 40091 56015 60001 333 11062 21081 70003 555 31927 40081
AAXX 14064 71448 NIL
AAXX 14064 71449 NIL
AAXX 14064 71603 12574 70508 10013 21009 30187 40241 58002 60001 87500 333 10091 21003 70000 555 10000 20000
AAXX 14064 71607 16/// /3203 11003 21028 30236 40269 56004 60001 333 10063 21072 70000
AAXX 14064 71609 12474 70311 10007 21031 30125 40261 58001 60001 87500 333 10048 21036 70000 555 10000 20000
AAXX 14064 71610 17112 83601 11009 21010 39983 40285 56001 60001 771// 333 10008 21097 70000
AAXX 14064 71621 16730 60000 10010 20004 30175 40283 58005 60001 333 10143 21050 7////
AAXX 14064 71623 NIL
AAXX 14064 71624 12974 72505 10027 21017 30064 40279 58007 60001 87070 333 10086 21026 70000 555 10000 20000
AAXX 14064 71625 16358 80000 10006 21021 30126 40290 56001 60001 333 10031 20005 70025
AAXX 14064 71627 11248 80404 10013 21008 30245 40290 53002 69901 71075 885// 333 10015 21011 70002 90941 555 19999 20002
AAXX 14064 71628 11232 80000 10016 20013 30145 40288 54000 69941 71066 81500 333 10030 21014 70008 909/7
AAXX 14064 71630 NIL
AAXX 14064 71631 16/// /1603 10008 21027 39766 40273 58008 60001 333 10039 21029 70000
AAXX 14064 71633 12862 71505 10020 21005 39996 40271 58009 60001 87030 333 10060 20014 70002 555 10000 20000
AAXX 14064 71705 11374 70311 11001 21018 30176 40265 51005 69941 72672 87500 333 10050 21047 42001 70004 90936 93101 555 10006 20004 30219 40040
AAXX 14064 71706 11459 80413 10007 21014 30196 40257 52010 69941 77165 885// 333 10030 21061 70004 90952 555 10002 20002 30324 40061
AAXX 14064 71707 12574 80409 10030 20002 30148 40225 55001 60001 885// 333 10036 21056 70002 555 10000 20000
AAXX 14064 71709 NIL
AAXX 14064 71711 NIL
AAXX 14064 71714 16/// /0705 11001 21022 30217 40311 58001 60001 333 10011 21026 70000
AAXX 14064 71715 16/// /0102 11030 21050 30113 40299 55004 60001 333 10002 21030 70000
AAXX 14064 71718 11448 80802 11036 21041 30239 40306 57004 60021 77177 885// 333 10012 21043 47013 70022 90983 93102 555 10022 20022
AAXX 14064 71719 NIL
AAXX 14064 71893 12580 62802 10003 21009 30165 40197 53012 60001 84570 333 10034 21013 70022 555 19999 29999
AAXX 14064 71894 17/// /0909 10051 20051 30172 40181 53004 69961 7//4/ 333 10051 20028 70048
AAXX 14064 71896 15566 12103 11083 21094 39329 40175 51018 60001 333 11011 21083 70005
AAXX 14064 71897 12174 63210 10032 20007 3//// 4//// 52012 86550 333 10046 20028 70170
AAXX 14064 71898 160// ///// 10001 50002 60001 333 10042 21002 70060
AAXX 14064 71899 12474 12404 10016 20010 3//// 4//// 54000 60001 81400 333 10051 20016 70012 555 19999 20012
AAXX 14064 71902 NIL
AAXX 14064 71905 NIL
AAXX 14064 71906 11974 82120 11097 21164 30089 40140 57020 69901 77177 885// 333 11085 21200 48008 70004 90983 555 10004 20004
AAXX 14064 71907 17402 82428 11051 21061 39985 40017 56014 69951 745// 333 11038 21107 70030 555 32149 40013
AAXX 14064 71909 17111 81324 11078 21088 39899 49942 56060 60011 74544 333 11074 21255 70010 555 30133 40062
AAXX 14064 71910 47416 92217 11057 21067 39777 49838 57015 6///1 745// 333 11049 21165 7//// 555 31538 40223
AAXX 14064 71911 47406 82118 11170 39702 49757 53016 6///1 745// 333 11128 21217 7//// 555 30935 40143
AAXX 14064 71912 11459 82109 11045 21062 39906 40091 50003 69901 77172 885// 333 11043 21159 47012 79999 90946 555 19999 29999 32127 40111
AAXX 14064 71915 NIL
AAXX 14064 71917 11974 00000 11406 21442 30081 40096 57001 69901 7767/ 333 11367 21412 43013 79999 90999 555 19999 29999
AAXX 14064 71922 12974 71903 11078 21087 39613 40083 57008 60001 80002 333 11032 21112 70000 555 10000 20000
AAXX 14064 71924 NIL
AAXX 14064 71925 11500 83235 11261 21304 39907 49949 51025 60001 73933 885// 333 11130 21267 48018 70004 555 10005 20004 33242 40043
AAXX 14064 71926 NIL
AAXX 14064 71928 16/// /3106 11069 21097 38914 40092 53022 60001 333 11054 21168 70000
AAXX 14064 71930 NIL
AAXX 14064 71931 16/// /3311 11080 21130 30236 40248 55000 60001 333 10000 21080 70000 555 33322 40041
AAXX 14064 71934 11474 83305 11119 21138 39856 40117 51020 69901 77177 885// 333 11007 21123 47020 79999 90973 555 19999 29999
AAXX 14064 71935 11558 80207 11127 21162 39933 40144 52024 69901 77177 885// 333 10015 21128 44013 79999 90973 555 10002 29999
AAXX 14064 71936 12974 13406 11252 21294 39890 40162 52017 60001 80001 333 11019 21253 79999 555 19999 29999 33136 40091
AAXX 14064 71937 NIL
AAXX 14064 71938 12974 02515 11271 21299 30128 40159 51012 60001 333 11192 21287 79999 555 10014 29999 33530 40090
AAXX 14064 71940 11682 22810 11057 21081 39313 40128 51025 69961 70271 82500 333 11004 21075 47011 70056 90922 93102 555 10070 20056 32520 40100
AAXX 14064 71943 11108 82406 11056 21074 39283 40127 52024 69901 74387 885// 333 11016 21062 44010 70036 90933 555 10036 20030 32420 40071
AAXX 14064 71944 160// ///// 11082 51021 60001 333 11032 21118 70000
AAXX 14064 71945 12874 60000 11127 21165 39652 40135 52027 60001 85071 333 11077 21166 70000 555 10000 20000
AAXX 14064 71946 11674 63309 11157 21181 39952 40171 52022 69921 70172 83510 333 10018 21159 48034 70002 90923 555 10004 20002
AAXX 14064 71948 46256 62914 11273 30074 40193 51012 6///1 333 11249 21284 7//// 555 32820 40051
AAXX 14064 71949 46/// /0000 11139 21153 39247 40132 52009 6///1 333 11020 21144 7////
AAXX 14064 71951 11124 83103 11017 21017 39921 40192 53011 69901 71074 886// 333 11005 21025 47040 70196 90926 555 10200 20196
AAXX 14064 71957 46964 00804 11298 21365 30117 40211 53006 6///1 333 11190 21310 7////
AAXX 14064 71958 43/// /0000 11129 21141 39199 40165 53009 6///1 333 11086 21162 7////
AAXX 14064 71964 12986 02103 11169 21192 39266 40142 52009 60001 333 11033 21176 79999 555 19999 29999
AAXX 14064 71966 16/// /0602 11218 21242 39669 40144 51008 60001 333 11111 21236 70000
AAXX 14064 71968 46064 /1205 11313 30123 40191 51002 6///1 333 11202 21314 7////
AAXX 14064 71816 12974 22505 11150 21214 30220 40284 55002 60001 80001 333 11128 21197 70000 555 10000 20000 32724 40161
AAXX 14064 71817 NIL
AAXX 14064 71818 12974 02612 11120 21139 30233 40252 55000 60001 333 11095 21144 70000 555 10000 20000 32725 40100
AAXX 14064 71822 11574 80000 11126 21142 39807 40301 58008 69901 77171 885// 333 11039 21200 43028 79999 90952 555 19999 29999
AAXX 14064 71825 12974 01904 11254 21297 39593 40306 58009 60001 333 11129 21275 70000 555 10000 20000
AAXX 14064 71827 11474 81912 11116 21125 39970 40222 57031 69901 77171 885// 333 11093 21162 47018 79999 90927 555 19999 29999
AAXX 14064 71828 16464 32407 11156 21197 39590 40256 56012 60001 333 11133 21197 70000 555 32717 40231
AAXX 14064 71831 12269 82108 11034 21048 39978 40266 57010 60001 886// 333 11033 21082 70000 555 10000 20000
AAXX 14064 71832 NIL
AAXX 14064 71834 12574 82106 11036 21054 39808 40247 57014 60001 885// 333 11036 21095 79999 555 19999 29999
AAXX 14064 71841 NIL
AAXX 14064 71842 11374 81604 11034 21039 39723 40204 58020 69901 70277 886// 333 11034 21107 47003 79999 90961 555 19999 29999
AAXX 14064 71844 16464 82411 11042 21063 39870 40154 56003 60001 333 11041 21183 70000 555 32320 40221
AAXX 14064 71845 NIL
AAXX 14064 71850 11258 81807 11014 21019 39672 40181 58020 69901 77172 887// 333 11014 21115 48002 79999 90927 555 19999 29999
AAXX 14064 71852 16556 81909 11021 21029 39859 40158 56020 60001 333 11020 21103 70005
AAXX 14064 71854 43/// ///// 333 11040 21167 48009 70002 555 10002 20002
AAXX 14064 71858 NIL
AAXX 14064 71861 NIL
AAXX 14064 71862 11259 82205 11062 21074 39428 40141 57017 69901 77177 886// 333 11050 21066 42002 79999 90983 555 19999 29999
AAXX 14064 71863 46361 82211 11054 21078 39414 40122 56012 6///1 333 11045 21062 7//// 555 31824 40111
AAXX 14064 71051 NIL
AAXX 14064 71055 NIL
AAXX 14064 71057 NIL
AAXX 14064 71059 460// ///// 11247 30069 40164 51012 6///1 333 11237 21280 7////
AAXX 14064 71061 16/// /2604 11036 21062 39284 40070 53030 60001 333 11024 21111 70000
AAXX 14064 71062 46/// /3310 11006 21048 38989 40053 51025 6///1 333 10011 21090 7//// 555 32017 40021
AAXX 14064 71064 460// /3237 11286 39785 40008 53038 6///1 333 11176 21287 7////
AAXX 14064 71065 NIL
AAXX 14064 71067 NIL
AAXX 14064 71070 NIL
AAXX 14064 71073 NIL
AAXX 14064 71074 NIL
AAXX 14064 71075 16/// /3304 11089 21103 39460 40069 52006 60001 333 11036 21091 70000 555 32029 40082
AAXX 14064 71078 15966 82403 11082 21091 39627 40073 58001 60001 333 11041 21122 70000
AAXX 14064 71084 460// ///// 11203 39805 49852 53018 6///1 333 11149 21232 7////
AAXX 14064 71085 15966 32616 11039 21091 38724 40118 53012 60001 333 11021 21076 70000
AAXX 14064 71087 NIL
AAXX 14064 71088 460// /1023 11169 58016 6///1 333 11159 21285 7//// 555 31244 40023
AAXX 14064 71089 NIL
AAXX 14064 71096 460// ///// 11218 39273 40021 58020 6///1 333 11211 21234 7////
AAXX 14064 71097 47104 81922 11125 39544 40025 58044 6///1 745// 333 11125 21185 7//// 555 30230 40062
AAXX 14064 71098 43/// /2407 11041 21053 39787 40154 58008 6///1 333 11041 21225 7//// 555 32318 40031
AAXX 14064 71099 NIL
AAXX 14064 60020 11560 22806 10157 20115 30213 40258 56006 60004 702// 82500 333 20156 55065 924/7
AAXX 14064 60030 02560 43613 10176 20116 30191 40247 55004 60004 84500 333 017// 20174 55074 60007 924/7
AAXX 14064 60040 02580 13408 10155 20113 30234 40259 55002 60004 81800 333 014// 20152 55067 60007 924//
AAXX 14064 60338 12980 00000 10138 20099 30183 40249 57001 60004 333 20132 55089 92418
AAXX 14064 71665 16/// /1806 11115 21159 30197 40207 56013 60001 333 11112 21155 70000 555 33036 40143
AAXX 14064 71666 16/// /0308 11002 21009 30223 40268 50005 60001 333 10038 21069 70000 555 30421 40031
AAXX 14064 71667 NIL
AAXX 14064 71668 16/// /3506 10003 21027 30229 40273 58003 60001 333 10041 21064 70000
AAXX 14064 71669 NIL
AAXX 14064 71670 16/// ///// 11009 21017 60001 333 10019 21079 70000
AAXX 14064 71671 16/// /0107 10018 20000 30177 40238 58005 60001 333 10082 21001 70000
AAXX 14064 71672 16/// /0501 10002 21013 30009 40277 58006 60001 333 10067 21049 70000
AAXX 14064 71673 NIL
AAXX 14064 71674 NIL
AAXX 14064 71675 17466 82411 11043 21060 39869 40153 56003 60041 70044 333 11043 21182 70156
AAXX 14064 71679 17/// /0603 11058 21065 39138 40166 51019 69951 7//4/ 333 10006 21060 70008 555 10020 20008 33120 40211
AAXX 14064 71680 NIL
AAXX 14064 71681 46/// /1601 11043 21074 6///1 333 11005 21068 7////
AAXX 14064 71682 NIL
AAXX 14064 71683 NIL
AAXX 14064 71684 15261 81502 11022 21025 39976 40284 57012 60001 333 10001 21028 70000
AAXX 14064 71685 15566 83203 11031 21050 39654 40204 53007 60001 333 11027 21076 70000
AAXX 14064 71686 NIL
AAXX 14064 71687 16/// /3201 11016 21037 39392 40185 51014 60001 333 11001 21073 70000
AAXX 14064 71688 16/// /1101 11028 21050 39126 40170 51011 60001 333 11011 21049 70000
AAXX 14064 71689 17420 80902 11052 21057 39613 40070 51007 69951 7714/ 333 11015 21074 70005
AAXX 14064 71690 NIL
AAXX 14064 71691 15666 83005 11070 21080 30281 40309 56003 60001 333 11020 21070 70000
AAXX 14064 71692 NIL
AAXX 14064 71694 16/// /0000 10001 21001 39920 40289 58005 60001 333 10037 21003 70000
AAXX 14064 71695 16/// /1905 11055 21076 39765 40102 56010 60001 333 11036 21096 70000 555 32419 40001
AAXX 14064 71696 NIL
AAXX 14064 71697 17948 83601 10005 20005 30106 40280 58006 60001 710// 333 10072 21056 70000
AAXX 14064 71699 16/// /3603 11001 21024 30253 40261 53001 60001 333 10062 21016 70000
AAXX 14064 71450 NIL
AAXX 14064 71451 16/// /2401 11078 21090 39652 40082 53002 60001 333 11036 21114 70000 555 32219 40201
AAXX 14064 71452 46/// /2108 11063 21074 39412 40134 56013 6///1 333 11054 21066 7//// 555 31821 40071
AAXX 14064 71453 16/// /2106 11060 21098 39164 40086 56015 60001 333 11035 21124 70000
AAXX 14064 71454 16/// /1502 11066 21088 39386 40082 56010 60001 333 11041 21085 70000 555 32022 40151
AAXX 14064 71455 NIL
AAXX 14064 71456 16/// /2111 11058 21070 39499 40103 56009 60001 333 11054 21074 70000 555 32325 40161
AAXX 14064 71457 16/// /0000 11188 21204 39174 40097 55001 60001 333 11150 21228 70000
AAXX 14064 71458 16/// /2104 11039 21069 39292 40067 53005 60001 333 11028 21113 70000 555 31917 40081
AAXX 14064 71459 16/// /1303 11151 21170 39262 40089 58022 60001 333 11068 21172 70000
AAXX 14064 71460 16/// /0706 10019 20016 30031 40276 58011 60001 333 10044 20019 70000 555 32617 40081
AAXX 14064 71461 NIL
AAXX 14064 71462 NIL
AAXX 14064 71463 46/// /2207 10056 20008 30062 40289 58009 6///1 333 10056 20014 7////
AAXX 14064 71464 NIL
AAXX 14064 71465 NIL
AAXX 14064 71466 NIL
AAXX 14064 71468 NIL
AAXX 14064 71470 NIL
AAXX 14064 71471 15966 03205 11060 21089 39330 40128 51023 60001 333 11006 21070 70000
AAXX 14064 71473 16/// /1704 10027 21032 30162 40192 51008 60001 333 10030 20002 70000
AAXX 14064 71475 16/// /3003 11002 21004 30107 40202 53006 60001 333 10010 21015 70012
AAXX 14064 71476 NIL
AAXX 14064 71477 16/// /2404 10001 21012 60001 333 10048 20001 70020 555 33118 40211
AAXX 14064 71478 NIL
AAXX 14064 71479 NIL
AAXX 14064 71480 NIL
AAXX 14064 71481 NIL
AAXX 14064 71482 NIL
AAXX 14064 71483 NIL
AAXX 14064 71484 NIL
AAXX 14064 71485 17/// /1314 10044 20035 30151 40171 53005 69941 7//4/ 333 10052 20025 70042 555 31137 40133
AAXX 14064 71486 16/// /1903 11028 21076 38911 40121 53016 60001 333 11005 21112 70000
AAXX 14064 71487 NIL
AAXX 14064 71489 NIL
AAXX 14064 71490 NIL
AAXX 14064 71491 16/// /0000 11287 21319 60001 333 10092 21344 70006
AAXX 14064 71492 NIL
AAXX 14064 71493 16/// /3608 10014 21001 30204 40243 51004 60001 333 10071 21010 70000 555 32331 40032
AAXX 14064 71494 16/// /0402 11021 21022 39749 40280 55001 60001 333 11004 21066 70000
AAXX 14064 71495 NIL
AAXX 14064 71496 NIL
AAXX 14064 71497 46/// /0511 11093 21122 39882 40151 53027 6///1 333 10043 21093 7//// 555 32527 40071
AAXX 14064 71498 NIL
AAXX 14064 71499 15966 82902 11079 21091 39441 40074 53001 60001 333 11046 21090 70000
AAXX 14064 71150 46/// /2301 11065 21071 39446 40138 56016 6///1 333 11061 21103 7//// 555 32017 40161
AAXX 14064 71151 NIL
AAXX 14064 71152 16/// /0522 11045 21086 30236 40249 51006 60001 333 10031 21046 7////
AAXX 14064 71153 16/// /2719 10000 21067 60001 333 10013 21172 70000 555 32729 40062
AAXX 14064 71154 17/// /2326 11022 21094 69981 7//4/ 333 11022 21056 70008 555 32444 40063
AAXX 14064 71155 NIL
AAXX 14064 71156 NIL
AAXX 14064 71157 NIL
AAXX 14064 71158 NIL
AAXX 14064 71159 NIL
AAXX 14064 71160 NIL
AAXX 14064 71161 16/// /3202 10020 20010 30130 40281 53001 60001 333 10036 21033 70000
AAXX 14064 71162 NIL
AAXX 14064 71163 46/// /3403 11254 21289 39814 40170 53018 6///1 333 11021 21254 7//// 555 33228 40072
AAXX 14064 71164 NIL
AAXX 14064 71165 NIL
AAXX 14064 71166 NIL
AAXX 14064 71167 15866 63211 11012 21044 38997 40098 51027 60001 333 11005 21083 70000
AAXX 14064 71168 NIL
AAXX 14064 71170 16/// /2306 11040 21054 60001 333 11040 21114 70000 555 32019 40211
AAXX 14064 71171 46/// /2203 10040 20008 30174 40271 58007 6///1 333 10081 21003 7////
AAXX 14064 71172 16/// ///// 10021 20018 30045 40265 57005 60001 333 10050 20020 70003 555 10010 20003
AAXX 14064 71175 16/// /0203 10031 20017 30187 40222 55003 60001 333 7////
AAXX 14064 71176 460// /2335 11118 39378 40072 58025 6///1 333 11117 21168 7//// 555 30254 40063
AAXX 14064 71177 460// /3108 11111 39116 40146 50001 6///1 333 11111 21200 7//// 555 33249 40033
AAXX 14064 71178 16/// /3418 11047 21114 30231 40264 53006 60001 333 11006 21048 70000 555 33330 40052
AAXX 14064 71179 460// /2525 11159 39346 40206 56004 6///1 333 11157 21208 7//// 555 32742 40213
AAXX 14064 71180 17/// /0212 11049 21063 30214 40254 53004 69961 7//4/ 333 10040 21049 70006 555 30318 40031
AAXX 14064 71181 16564 60515 11044 21099 30187 40224 53006 60001 333 10050 21044 70000 555 30024 40061
AAXX 14064 71183 16/// /0404 30246 53001 60001 333 70000
AAXX 14064 71184 46/// /0503 10004 21002 6///1 333 10010 21016 7////
AAXX 14064 71186 NIL
AAXX 14064 71187 15766 81202 10008 21026 30152 40201 51017 60001 333 10023 21025 70000
AAXX 14064 71189 NIL
AAXX 14064 71190 NIL
AAXX 14064 71191 16/// ///// 10013 21014 60001 333 10074 21010 70000
AAXX 14064 71192 15766 82802 11020 21036 39509 40179 51016 60001 333 10007 21035 70000 555 31418 40171
AAXX 14064 71193 16/// /1903 11039 21040 39899 40271 56013 60001 333 11033 21066 7////
AAXX 14064 71196 16/// /0000 10002 20002 30086 40288 50000 60001 333 10028 20002 70024
AAXX 14064 71197 16464 80812 11033 21071 30207 40257 53008 60001 333 10043 21033 70000 555 30320 40041
AAXX 14064 71198 46/// /0510 10014 20003 6///1 333 10019 21004 7////
AAXX 14064 71199 46/// /1001 11125 21134 39290 40143 53017 6///1 333 11037 21141 7////
AAXX 14064 71250 NIL
AAXX 14064 71251 16/// /3103 11162 21187 39153 40115 53003 60001 333 11105 21246 70000
AAXX 14064 71252 NIL
AAXX 14064 71253 46/// /0304 11074 21085 6///1 333 11038 21103 7//// 555 10010
AAXX 14064 71254 16/// /2804 11057 21091 60001 333 11028 21103 70000
AAXX 14064 71255 17/// /3605 11058 21073 69931 7//4/ 333 11024 21070 70003 555 32319 40071
AAXX 14064 71256 46/// /2810 11022 21036 39156 40098 51031 6///1 333 11022 21098 7//// 555 33125 40041
AAXX 14064 71257 NIL
AAXX 14064 71258 NIL
AAXX 14064 71259 NIL
AAXX 14064 71261 16/// /1505 10023 21011 30007 40272 55009 60001 333 10045 20002 70000
AAXX 14064 71263 12974 72103 10015 21003 39989 40282 58008 60001 87050 333 10075 21042 70000 555 10000 20000
AAXX 14064 71264 16/// /3509 10012 21002 30194 40226 58004 60001 333 10093 21005 70000 555 30017 40021
AAXX 14064 71265 15966 82507 10043 21001 30186 40281 58006 60001 333 10057 21001 70000
AAXX 14064 71266 NIL
AAXX 14064 71267 15966 02725 11014 21070 38985 40096 53002 60001 333 11009 21204 70000
AAXX 14064 71268 NIL
AAXX 14064 71269 NIL
AAXX 14064 71270 NIL
AAXX 14064 71271 16/// ///// 11020 21055 60001 333 10001 21073 70000
AAXX 14064 71272 15566 83305 11074 21109 39714 40069 53023 60001 333 11036 21111 70000
AAXX 14064 71273 16/// /1605 11046 21071 39402 40066 56014 60001 333 11046 21081 70000 555 32119 40091
AAXX 14064 71274 NIL
AAXX 14064 71275 NIL
AAXX 14064 71276 NIL
AAXX 14064 71277 NIL
AAXX 14064 71278 NIL
AAXX 14064 71279 16/// /0206 11152 21171 30241 40310 57007 60001 333 11075 21155 70000
AAXX 14064 71281 NIL
AAXX 14064 71282 46/// /1201 10011 20011 30008 40282 58005 6///1 333 10050 20009 7////
AAXX 14064 71283 NIL
AAXX 14064 71284 16/// ///// 11023 21056 60001 333 11001 21118 70000
AAXX 14064 71285 NIL
AAXX 14064 71286 NIL
AAXX 14064 71287 NIL
AAXX 14064 71288 NIL
AAXX 14064 71289 NIL
AAXX 14064 71290 17510 82101 11080 21087 39324 40170 52021 60001 710// 333 11034 21123 70000 555 31417 40101
AAXX 14064 71291 16/// /1101 11032 21046 39949 40246 58015 60001 333 11032 21061 70000
AAXX 14064 71292 16366 82111 11062 39514 40131 58013 60001 333 11051 21076 70000
AAXX 14064 71294 16/// /0000 10002 39870 40278 58004 60001 333 10036 21014 70000
AAXX 14064 71295 NIL
AAXX 14064 71296 NIL
AAXX 14064 71297 NIL
AAXX 14064 71298 16/// /1803 10025 20011 30041 40276 58004 60001 333 10042 21031 70000
AAXX 14064 71299 NIL
AAXX 14064 71930 NIL
AAXX 14064 71931 16/// /3311 11080 21130 30236 40248 55000 60001 333 10000 21080 70000 555 33322 40041
AAXX 14064 71934 11474 83305 11119 21138 39856 40117 51020 69901 77177 885// 333 11007 21123 47020 79999 90973 555 19999 29999
AAXX 14064 71935 11558 80207 11127 21162 39933 40144 52024 69901 77177 885// 333 10015 21128 44013 79999 90973 555 10002 29999
AAXX 14064 71936 12974 13406 11252 21294 39890 40162 52017 60001 80001 333 11019 21253 79999 555 19999 29999 33136 40091
AAXX 14064 71937 NIL
AAXX 14064 71938 12974 02515 11271 21299 30128 40159 51012 60001 333 11192 21287 79999 555 10014 29999 33530 40090
AAXX 14064 71940 11682 22810 11057 21081 39313 40128 51025 69961 70271 82500 333 11004 21075 47011 70056 90922 93102 555 10070 20056 32520 40100
AAXX 14064 71943 11108 82406 11056 21074 39283 40127 52024 69901 74387 885// 333 11016 21062 44010 70036 90933 555 10036 20030 32420 40071
AAXX 14064 71944 160// ///// 11082 51021 60001 333 11032 21118 70000
AAXX 14064 71945 12874 60000 11127 21165 39652 40135 52027 60001 85071 333 11077 21166 70000 555 10000 20000
AAXX 14064 71946 11674 63309 11157 21181 39952 40171 52022 69921 70172 83510 333 10018 21159 48034 70002 90923 555 10004 20002
AAXX 14064 71948 46256 62914 11273 30074 40193 51012 6///1 333 11249 21284 7//// 555 32820 40051
AAXX 14064 71949 46/// /0000 11139 21153 39247 40132 52009 6///1 333 11020 21144 7////
AAXX 14064 71951 11124 83103 11017 21017 39921 40192 53011 69901 71074 886// 333 11005 21025 47040 70196 90926 555 10200 20196
AAXX 14064 71957 46964 00804 11298 21365 30117 40211 53006 6///1 333 11190 21310 7////
AAXX 14064 71958 43/// /0000 11129 21141 39199 40165 53009 6///1 333 11086 21162 7////
AAXX 14064 71964 12986 02103 11169 21192 39266 40142 52009 60001 333 11033 21176 79999 555 19999 29999
AAXX 14064 71966 16/// /0602 11218 21242 39669 40144 51008 60001 333 11111 21236 70000
AAXX 14064 71968 46064 /1205 11313 30123 40191 51002 6///1 333 11202 21314 7////
AAXX 14064 71102 NIL
AAXX 14064 71105 NIL
AAXX 14064 71107 NIL
AAXX 14064 71110 NIL
AAXX 14064 71111 15966 02505 10011 20001 30166 40174 51001 60001
AAXX 14064 71112 16/// ///// 60001 333 70000
AAXX 14064 71113 16/// /1405 10009 21012 30175 40199 51014 60001 333 10031 21002 70002
AAXX 14064 71115 16/// /3303 11031 21056 39604 40196 53012 60001 333 11006 21076 70003
AAXX 14064 71116 16/// /1004 11104 21113 38994 40110 56013 60001 333 11058 21116 70000
AAXX 14064 71118 16/// /2209 11086 21126 39239 40076 55006 60001 333 11033 21129 70000 555 32019 40071
AAXX 14064 71121 16964 82913 11012 21099 39242 40067 51019 60001 333 11005 21092 70000 555 30318 40061
AAXX 14064 71127 16/// /3113 11004 21046 39163 40074 53028 60001 333 10004 21082 70000 555 33126 40061
AAXX 14064 71130 15966 81808 11050 21063 39640 40102 57011 60001 333 11042 21092 70000
AAXX 14064 71132 17566 81901 11105 21114 39772 40087 53019 60001 771// 333 11013 21124 70000
AAXX 14064 71133 46/// /1002 11057 21085 39357 40068 57013 6///1 333 11039 21072 7//// 555 32020 40091
AAXX 14064 71139 NIL
AAXX 14064 71141 NIL
AAXX 14064 71142 15266 82017 11077 21080 39114 40095 56014 60001 333 11060 21080 70000
AAXX 14064 71143 NIL
AAXX 14064 71144 NIL
AAXX 14064 71147 NIL
AAXX 14064 71149 16/// /2406 11049 21070 60001 333 11041 21168 70000 555 32417 40141
AAXX 14064 71700 15666 83607 10002 21025 30249 40275 58004 60001 333 10046 21083 70000
AAXX 14064 71701 12674 83606 10000 21027 30212 40275 57003 60001 885// 333 10037 21074 70000 555 10000 20000
AAXX 14064 71702 16/// /0415 10003 21034 30241 40256 50008 60001 333 10038 21069 70000 555 30525 40041
AAXX 14064 71703 NIL
AAXX 14064 71704 17658 82005 10021 20003 30053 40277 57007 60001 710// 333 10054 21022 70008
AAXX 14064 71710 NIL
AAXX 14064 71712 16/// /0000 10011 20006 30225 40287 51001 60001 333 10034 21030 70000
AAXX 14064 71713 16/// /0405 11014 21032 60001 333 10014 21015 70000
AAXX 14064 71716 NIL
AAXX 14064 71717 NIL
AAXX 14064 71720 16/// /0801 11005 21009 30046 40201 53012 60001 333 10032 21008 70000
AAXX 14064 71721 16/// /0102 11002 21006 30037 40288 54000 60001 333 10015 21006 70020
AAXX 14064 71723 NIL
AAXX 14064 71724 16/// /0104 10002 21003 30285 40293 53003 60001 333 10008 21007 70012
AAXX 14064 71732 16/// /1703 10012 20004 60001 333 10021 20010 70014
AAXX 14064 71733 16/// /1004 11001 21001 39838 40271 58010 60001 333 10018 21003 70000
AAXX 14064 71734 NIL
AAXX 14064 71736 NIL
AAXX 14064 71737 NIL
AAXX 14064 71741 16/// /2002 11038 21067 39763 40193 51019 60001 333 11014 21073 70000
AAXX 14064 71742 NIL
AAXX 14064 71743 NIL
AAXX 14064 71744 NIL
AAXX 14064 71745 NIL
AAXX 14064 71746 NIL
AAXX 14064 71747 NIL
AAXX 14064 71748 NIL
AAXX 14064 71900 46/// /25// 11126 21167 30213 40226 58013 6///1 333 11118 21148 7////
AAXX 14064 71903 NIL
AAXX 14064 71904 NIL
AAXX 14064 71914 16/// /0000 10013 21014 39973 40197 51008 60001 333 10033 21004 70000
AAXX 14064 71916 NIL
AAXX 14064 71918 460// ///// 11160 6///1 333 7////
AAXX 14064 71920 NIL
AAXX 14064 71921 NIL
AAXX 14064 71923 NIL
AAXX 14064 71927 NIL
AAXX 14064 71941 15266 31604 11072 21075 39864 40293 57014 60001 333 11003 21081 70000
AAXX 14064 71947 15466 31804 11138 21147 39934 40296 56009 60001 333 11076 21171 70000
AAXX 14064 71851 16/// /2203 11022 21034 39814 40154 56017 60001 333 11020 21161 70000 555 31918 40201
AAXX 14064 71857 NIL
AAXX 14064 71860 NIL
AAXX 14064 71876 15966 81804 11054 21069 39425 40097 58006 60001 333 11031 21093 70000
AAXX 14064 71885 NIL
AAXX 14064 71886 16/// /2110 11063 21070 39513 40129 58012 60001 333 7////
AAXX 14064 71888 NIL
AAXX 14064 71890 17/// /0605 11070 21087 30277 40305 56002 69961 7//4/ 333 7////
AAXX 14064 71895 NIL
AAXX 14064 71350 17/// /0315 10008 21025 30185 40252 51010 69951 7//4/ 333 10024 21042 70005 555 30321 40061
AAXX 14064 71351 NIL
AAXX 14064 71352 16/// /1203 10005 21016 39815 40276 58005 60001 333 10054 21044 70000
AAXX 14064 71353 NIL
AAXX 14064 71354 NIL
AAXX 14064 71355 16/// /3002 11349 21386 30015 40105 53009 60001 333 11337 21374 70000
AAXX 14064 71356 17/// /2925 11258 21285 39911 49978 53040 69961 7//4/ 333 11058 21258 70009 555 33044 40003
AAXX 14064 71357 16/// /1904 11260 21296 30036 40043 56020 60001 333 11191 21275 70000
AAXX 14064 71358 16/// /1608 11210 21231 30003 40039 56015 60001 333 11177 21306 70000 555 31717 40051
AAXX 14064 71359 NIL
AAXX 14064 71360 NIL
AAXX 14064 71361 NIL
AAXX 14064 71362 NIL
AAXX 14064 71363 NIL
AAXX 14064 71364 NIL
AAXX 14064 71365 NIL
AAXX 14064 71368 17859 81101 10005 21016 39884 40279 58007 60001 704// 333 10075 21054 70000
AAXX 14064 71369 17466 82916 11022 21039 39375 40084 51033 60001 771// 333 11003 21108 70000
AAXX 14064 71370 46/// /0503 11002 21014 30149 40288 51004 6///1 333 10010 21013 7////
AAXX 14064 71371 17216 80403 10001 20000 30255 40290 53002 60001 710// 333 10017 21030 70003
AAXX 14064 71372 16/// /0101 10004 20002 60001 333 10013 21026 70000
AAXX 14064 71373 16/// /2901 10001 21012 60001 333 10019 21064 70000
AAXX 14064 71374 NIL
AAXX 14064 71375 NIL
AAXX 14064 71376 16/// /0000 11001 21001 39993 40291 51002 60001 333 10016 21026 70020
AAXX 14064 71377 16/// /0202 10007 21001 30237 40286 53001 60001 333 10014 21006 70000
AAXX 14064 71378 16/// /3504 11022 21050 30085 40298 51001 60001 333 10028 21022 70000
AAXX 14064 71379 16/// /3402 11062 21090 30118 40293 56003 60001 333 11003 21063 70000
AAXX 14064 71380 NIL
AAXX 14064 71381 NIL
AAXX 14064 71382 NIL
AAXX 14064 71383 NIL
AAXX 14064 71384 NIL
AAXX 14064 71385 NIL
AAXX 14064 71386 NIL
AAXX 14064 71387 NIL
AAXX 14064 71388 46/// /2805 11023 21036 30106 40298 56002 6///1 333 10011 21023 7////
AAXX 14064 71389 46/// /0702 11001 21009 6///1 333 10010 21026 7////
AAXX 14064 71390 NIL
AAXX 14064 71391 16/// ///// 10003 20000 60001 333 10013 21015 70013
AAXX 14064 71392 16/// /0608 11004 21020 60001 333 10006 21020 70000
AAXX 14064 71393 NIL
AAXX 14064 71395 12366 73408 10000 21009 30048 40229 58005 60001 87600 333 10056 21007 70000 555 10000 20000
AAXX 14064 71398 15466 82007 11059 21070 30234 40246 56024 60001 333 11059 21210 70000
AAXX 14064 71399 NIL
AAXX 14064 91648 11498 31308 10277 20241 40087 69931 70218 83200 333 563//
AAXX 14061 33088 11596 82203 10050 20045 39958 40150 52006 69932 71082 885// 333 20042
AAXX 14061 33177 32575 61801 10038 20020 39904 40143 52008 86500 333 20023
AAXX 14061 33261 11/07 91603 10010 20010 30021 40207 53003 69912 74554 333 20004
AAXX 14061 33275 31194 81606 10004 20001 39995 40224 57002 71022 886// 333 21006 43003 88702
AAXX 14061 33301 12997 62004 10036 20029 39876 40160 53010 69952 86030 333 20033
AAXX 14061 33325 11296 82202 10062 20053 39903 40171 52008 69912 71052 885// 333 20045 87706
AAXX 14061 33377 11/01 91702 10016 20016 30018 40216 53005 60012 74764 333 20004
AAXX 14061 33415 31/93 90000 10022 20022 39770 40175 52010 74544 333 20020
AAXX 14061 33429 31/92 91904 10040 20040 39751 40177 52009 74542 333 20040
AAXX 14061 33466 NIL
AAXX 14061 33526 31226 62101 11009 21011 39833 40182 52014 71042 86600 333 21015 86706
AAXX 14061 33562 11218 82003 10058 20049 39818 40180 52005 69932 71052 886// 333 20043 88704
AAXX 14061 33614 11494 81402 10032 20022 30111 40217 53003 69902 71052 886// 333 20016 88710
AAXX 14061 33761 11/01 91901 10059 20059 39969 40193 53007 60012 75154 333 20045 96047
AAXX 14061 33902 11594 81101 10061 20059 30136 40202 53003 60032 71022 885// 333 20042
AAXX 14061 33983 32997 72302 10032 20014 30170 40232 53003 85031 333 20018
AAXX 14061 34415 11317 80000 10003 21003 30161 40261 53002 69992 76365 8772/ 333 21016
AAXX 14061 34523 NIL
AAXX 14061 34712 NIL
AAXX 14064 91648 11498 31308 10277 20241 40087 69931 70218 83200 333 563//
AAXX 14061 45032 36/// /3402 10216 20079 30160 40177 57001
AAXX 14061 45035 36/// /3201 10203 20089 30134 40176 57001
AAXX 14061 45039 36/// /0302 10209 20103 30157 40172 57002
AAXX 14061 45044 36/// /3301 10213 20124 30081 40173 54000
AAXX 14061 45032 36/// /3402 10216 20079 30160 40177 57001
AAXX 14061 45035 36/// /3201 10203 20089 30134 40176 57001
AAXX 14061 45039 36/// /0302 10209 20103 30157 40172 57002
AAXX 14061 45044 36/// /3301 10213 20124 30081 40173 54000
AAXX 14064 91317 32474 60506 10306 20291 30072 40076 5//// 82101 333 561/9 70023 82815 85080 555 91406
AAXX 14064 08141 11465 12510 10078 20053 39324 40185 51008 69952 70261 81600 333 20078 31006 55003 70005
AAXX 14061 01373 11687 60702 10015 21003 39539 49737 56007 60002 70222 84501 333 21032 43021 70067 91107
AAXX 14061 01114 16/// /1203 10060 21039 39699 49709 55007 60002 333 21019 70000 91113
AAXX 14061 01364 16/// /1207 11022 21046 38619 49705 50008 60002 333 21068 4/031 70022 91112
AAXX 14061 01122 16/// /1904 10037 21009 39630 49716 55001 60002 333 21045 70000 91107
AAXX 14061 01023 16/// /1602 10008 21036 39715 49808 57024 6//// 333 21137 91110
AAXX 14061 01406 46/// /1815 10068 20045 39638 49655 53014 333 20034 91129
AAXX 14061 01442 11460 81412 10029 20015 39506 49756 52003 60102 76376 887// 333 20009 70237 91117
AAXX 14061 01135 16/// /1606 10042 21021 39567 49713 56013 60002 333 21019 4/003 70000 91112
AAXX 14061 01192 16/// /1308 10028 21045 60002 333 21042 4/008 70000 91115
AAXX 14061 01253 16/// /2002 10019 21035 60002 333 21002 4/029 70000 91109
AAXX 14061 01455 16/// /1203 10024 20006 39464 49766 53003 60022 333 20009 70162 91108
AAXX 14061 01481 16/// /2004 10046 20013 39759 49790 52003 60032 333 20030 70241 91115
AAXX 14061 02019 07/34 /0908 11027 21034 39184 49798 56027 69952 77187 333 11015 21143 69945 70006 90710 91124
AAXX 14061 02081 07/30 /1303 11010 21010 39472 49871 56020 69922 78587 333 11010 21067 69905 70030 90710 91108
AAXX 14061 02095 07243 /1304 10003 20000 39680 49881 57021 69952 77187 333 10004 21008 69915 70018 88/06 90710 91110
AAXX 14061 02101 45581 /1410 10011 21032 39211 49755 53002 8//// 333 10013 21036 84/25 88/32
AAXX 14061 02119 07318 /0001 11083 21089 39425 49810 57027 60052 77177 333 11083 21129 69945 70053 88/07 90710 91102
AAXX 14061 02124 07450 /1204 11004 21015 39279 49794 57005 60032 77177 333 11001 21069 69905 70044 87/10 88/16 90710 91109
AAXX 14061 02126 07499 /1203 10006 20004 39464 49795 52003 60022 70076 333 10006 21047 60005 70025 81/12 87/20 90710 91106
AAXX 14061 02151 16/// ///// 1//// 2//// 3//// 4//// 5//// 60032 333 10000 21075 6///5 70043 910// 90710 911// 90710 912//
AAXX 14061 02186 01363 81611 10021 20012 39826 49851 56020 60012 76162 877// 333 10031 20010 43020 69955 70047 87708 91015 90710 91117 90710 91213
AAXX 14061 02197 07/59 /1505 10012 20010 39867 49885 57025 60012 76161 333 10023 20012 69985 70050 90710 91115
AAXX 14061 02207 07599 /1707 11001 21045 39046 49725 55001 69922 70087 333 10011 21009 60005 70003 82/27 84/31 87/68 90710 91114
AAXX 14061 02219 07/59 /1205 11005 21024 39099 49750 51008 69992 72487 333 11002 21029 69905 70009 90710 91110
AAXX 14061 02226 45984 /1508 11001 21028 39324 49769 51011 8//// 333 10008 21001
AAXX 14061 02243 07/60 /1302 10006 20002 39538 49802 52009 60022 78187 333 10010 20003 69905 70023 90710 91106
AAXX 14061 02269 07457 /2012 10044 20031 60032 72386 333 10049 20039 69905 70028 87/13 90710 91115
AAXX 14061 02287 07373 /1805 10032 20025 39833 49843 55004 60032 70086 333 10037 20023 60005 70049 87/07 90710 91114
AAXX 14061 02297 07399 /1711 10020 20018 39798 49842 57010 60032 72386 333 10030 20017 69935 70039 87/09 90710 91120
AAXX 14061 02308 07482 /2004 11017 21034 38919 49760 50001 60012 70070 333 11011 21021 60005 70014 85/17 87/21 88/26 90710 91109
AAXX 14061 02327 05/82 /1201 11004 21012 39374 49802 52014 69982 333 10011 21032 60005 70011 90710 91104
AAXX 14061 02355 05580 /1909 10027 20010 39827 49839 51013 69962 333 10037 20026 60005 70006 81/24 90710 91112
AAXX 14061 02366 45484 /1505 10018 20008 39825 49831 53011 8//// 333 10032 20014 81/16 88/22
AAXX 14061 02407 07460 /1605 10012 20002 39456 49818 53005 60012 78087 333 10019 20003 69905 70046 88/10 90710 91111
AAXX 14061 02418 45470 /1806 10037 20017 39715 49843 52006 8//// 333 10046 20014 81/15 83/18 85/21 87/28
AAXX 14061 02435 47480 /1905 10019 21004 39664 49849 51009 722// 8//// 333 10026 20012 81/16 83/19
AAXX 14061 02440 07480 /2004 10020 20004 60022 70040 333 10026 20013 60005 70031 87/15 88/19 90710 91109
AAXX 14061 02452 07271 /1903 10004 20004 69982 70086 333 10024 20004 60005 70043 87/06 90710 91109
AAXX 14061 02456 05476 /2004 10027 20013 39840 49882 53013 60032 333 10044 20024 60005 70028 87/16 90710 91109
AAXX 14061 02469 05/70 /2005 10036 20018 60052 333 10043 20029 60005 70062 90710 91109
AAXX 14061 02498 07466 /2113 10054 20033 39901 49917 52012 60032 70060 333 10057 20046 60005 70032 90710 91118
AAXX 14061 02518 46/// /2214 10063 20029 333 10070 20020 90710 91121
AAXX 14061 02520 01470 41909 10033 20014 39789 49855 53003 69972 72500 84900 333 10050 20021 32/// 69905 70014 81615 81930 83640 91013 90710 91113 90710 91210
AAXX 14061 02550 47384 /1806 10012 20012 39623 49895 50008 723// 8//// 333 10040 20007 81/08 83/11 85/20
AAXX 14061 02562 01450 82210 10028 20015 39789 49904 53010 60022 78386 879// 333 10041 20013 31/// 69935 70022 86610 82920 91014 90710 91114 90710 91210
AAXX 14061 02563 05/67 /1908 10035 20028 39897 49919 53012 60022 333 10044 20030 60005 70021 90710 91111
AAXX 14061 02565 07863 /1804 10041 20019 39808 49925 50006 69982 70010 333 10052 20030 60005 70024 82/56 90710 91108
AAXX 14061 02589 05465 /2007 10050 20035 39923 49945 52013 69982 333 10057 20044 60005 70008 87/13 90710 91115
AAXX 14061 02590 45469 /2009 10047 20035 39892 49953 51013 8//// 333 10057 20038 81/11
AAXX 14061 02618 07/// ///// 10037 20029 39742 49904 50008 60042 7//86 333 10057 20016 60005 70176
AAXX 14061 02664 11570 72007 10055 20032 39889 49960 53011 69922 72162 875// 333 10061 20048 32/// 60005 70045 83623 87650 91011 90710 91111 90710 91207
AAXX 14061 02679 05780 /2110 10053 20043 39924 49968 52010 60022 333 10059 20043 60005 70023 81/50 90710 91114
AAXX 14064 91317 32474 60506 10306 20291 30072 40076 5//// 82101 333 561/9 70023 82815 85080 555 91406
AAXX 14064 60715 12560 21705 10095 20071 30237 40244 55000 60004 82200 333 20094 58007 82823 91006 91108
AAXX 14064 60723 13958 00000 10036 20036 30073 40270 53008 60004 333 20032
AAXX 14064 60725 12962 00000 10032 2//// 30080 40266 54000 60004 333 20032
AAXX 14064 60735 12958 00000 10082 20046 30170 40254 52001 60004 333 20081
AAXX 14064 60745 12960 00505 10019 20007 39894 40284 53005 60004 333 20019
AAXX 14064 60748 32965 02602 10087 20029 39837 40265 53006 60004 333 20079
AAXX 14064 60750 12560 22403 10079 20039 30238 40264 53008 60004 82200 333 20079 82826
AAXX 14064 60760 12958 00000 10079 20030 30165 40273 53007 60004 333 20068 91003 91108
AAXX 14064 60765 13960 02506 10116 20085 30278 40282 53008 60004 333 20107 92436 925//
AAXX 14064 60767 12560 12804 10061 20046 30123 40273 53004 60004 81500 333 20061 81630
AAXX 14064 60769 12456 12104 10097 20085 30258 40262 52007 60004 81200 333 20095 81816
AAXX 14064 91317 32474 60506 10306 20291 30072 40076 5//// 82101 333 561/9 70023 82815 85080 555 91406
AAXX 14064 60715 12560 21705 10095 20071 30237 40244 55000 60004 82200 333 20094 58007 82823 91006 91108
AAXX 14064 60723 13958 00000 10036 20036 30073 40270 53008 60004 333 20032
AAXX 14064 60725 12962 00000 10032 2//// 30080 40266 54000 60004 333 20032
AAXX 14064 60735 12958 00000 10082 20046 30170 40254 52001 60004 333 20081
AAXX 14064 60745 12960 00505 10019 20007 39894 40284 53005 60004 333 20019
AAXX 14064 60748 32965 02602 10087 20029 39837 40265 53006 60004 333 20079
AAXX 14064 60750 12560 22403 10079 20039 30238 40264 53008 60004 82200 333 20079 82826
AAXX 14064 60760 12958 00000 10079 20030 30165 40273 53007 60004 333 20068 91003 91108
AAXX 14064 60765 13960 02506 10116 20085 30278 40282 53008 60004 333 20107 92436 925//
AAXX 14064 60767 12560 12804 10061 20046 30123 40273 53004 60004 81500 333 20061 81630
AAXX 14064 60769 12456 12104 10097 20085 30258 40262 52007 60004 81200 333 20095 81816
AAXX 14061 80001 32470 80606 10272 20240 30119 40120 8227/ 333 5620/ 58004 82816 88358
AAXX 14061 80002 NIL
AAXX 14061 80009 NIL
AAXX 14061 80022 31461 50000 10264 20250 30096 40098 70511 81431 333 56299 59009 81615 84357
AAXX 14061 80028 41460 30304 10268 20249 30069 40104 70585 82570 333 5619/ 58006 82610
AAXX 14061 80035 NIL
AAXX 14061 80036 NIL
AAXX 14061 80063 NIL
AAXX 14061 80084 NIL
AAXX 14061 80091 NIL
AAXX 14061 80094 NIL
AAXX 14061 80097 NIL
AAXX 14061 80099 NIL
AAXX 14061 80110 NIL
AAXX 14061 80112 01356 80000 10142 20137 37897 69951 75052 8457/ 333 56009 59002 69957 84608 85358
AAXX 14061 80139 NIL
AAXX 14061 80144 NIL
AAXX 14061 80149 NIL
AAXX 14061 80210 NIL
AAXX 14061 80211 NIL
AAXX 14061 80214 NIL
AAXX 14061 80222 41250 63002 10124 20116 37516 71052 81530 333 59003 81703 86360
AAXX 14061 80234 NIL
AAXX 14061 80241 NIL
AAXX 14061 80259 41560 63102 10208 20196 39052 71552 82870 333 5684/ 58003 82820 85458
AAXX 14061 80315 NIL
AAXX 14061 80342 NIL
AAXX 14061 80370 NIL
AAXX 14061 80398 NIL
AAXX 14064 64600 31930 23606 10153 20136 39466 40120 71000 80002 333 01300 20140 55084 58002 82080
AAXX 14064 64601 31940 03616 10174 20018 39002 48511 70500 333 01500 20165 58006
AAXX 14064 64605 32965 00000 10150 20115 39367 40111 333 00900 20116 58004
AAXX 14064 64610 31930 00000 10135 20126 3//// 4//// 71000 333 00700 20115 5////
AAXX 14064 64650 31930 00000 10155 20146 39705 40120 333 01400 20145 55013 58007
AAXX 14064 64654 32970 00804 10150 20104 39552 40129 333 01100 20139 58005
AAXX 14064 64655 32965 20000 10152 20126 39463 40111 80002 333 01000 20130 58000 82080
AAXX 14064 64656 31920 60000 10185 20167 39558 40113 71000 86030 333 01400 20160 58005 86364
AAXX 14064 64659 NIL
AAXX 14064 64660 32960 20000 10160 20141 39581 40111 82030 333 01100 20136 58002 82365
AAXX 14064 64662 32965 50402 10155 20138 39605 40107 85032 333 01300 20142 58002 85365 83080
AAXX 14064 64665 32970 80000 10182 20162 3//// 4//// 83072 333 00600 20162 5//// 83365 88080
AAXX 14063 91487 NIL
AAXX 14063 91490 11599 21310 10264 2023/ 40104 60001 70200 82100 333 563//
AAXX 14063 91533 NIL
AAXX 14063 91601 NIL
AAXX 14063 91610 11599 30809 10283 20234 40068 53008 60001 70200 82108 333 562/9 82818 81280
AAXX 14063 91623 NIL
AAXX 14063 91629 NIL
AAXX 14063 91701 NIL
AAXX 14061 06458 11460 71910 10071 20056 39778 49929 58063 60062 76162 878// 333 20040 32002 81818 83824 87628 91113 91210
AAXX 14061 33506 11/93 90000 10006 20006 30029 40230 53001 60012 74584 333 21013
AAXX 14061 33466 11/04 91502 10032 20032 30008 40198 52004 69942 74754 333 20024
AAXX 14061 34523 32497 81203 10006 21011 30196 40274 53002 886// 333 21036 88710
AAXX 14061 34712 31430 81105 10016 20013 30168 40256 53003 71022 886// 333 20010 88712
AAXX 14063 91551 11498 80105 10257 20247 4//// 5//// 60151 72929 8492/ 333 5689/ 60151 83818 81922 88460
AAXX 14063 91553 NIL
AAXX 14063 91554 31598 39903 10293 20254 40058 57013 70222 82101 333 563/9 82825
AAXX 14063 91555 31598 11107 10300 20263 40061 56009 70111 81101 333 563/9 81828
AAXX 14063 91557 31598 30608 10296 20246 40044 56008 69921 70122 83800 333 561// 69921 83820
AAXX 14063 91565 31598 10310 10296 20239 40062 57009 70121 81103 333 561/9 81828
AAXX 14063 91568 31598 21008 10310 20251 40081 56005 70122 82201 333 563/9 82825
AAXX 14061 02464 45972 /1705 10038 20017 39889 49907 52012 8//// 333 10045 20036
AAXX 14061 02500 07560 /1916 10051 20028 39769 49810 55000 60082 72386 333 10061 20027 69925 70194 81/20 90710 91122
AAXX 14061 02513 NIL
AAXX 14061 02615 05576 /2213 10057 20027 39948 49952 53010 60002 333 10067 20057 60005 70034 81/30 90710 91117
AAXX 14061 02635 05/78 /2204 10054 20025 60002 333 10065 20051 60005 70065 90710 91110
AAXX 14063 91551 11498 80105 10257 20247 4//// 5//// 60151 72929 8492/ 333 5689/ 60151 83818 81922 88460
AAXX 14063 91553 NIL
AAXX 14063 91554 31598 39903 10293 20254 40058 57013 70222 82101 333 563/9 82825
AAXX 14063 91555 31598 11107 10300 20263 40061 56009 70111 81101 333 563/9 81828
AAXX 14063 91557 31598 30608 10296 20246 40044 56008 69921 70122 83800 333 561// 69921 83820
AAXX 14063 91565 31598 10310 10296 20239 40062 57009 70121 81103 333 561/9 81828
AAXX 14063 91568 31598 21008 10310 20251 40081 56005 70122 82201 333 563/9 82825
AAXX 14064 41923 31940 03102 10224 20110 30154 40164 70500 333 58002 70000
AAXX 14064 41936 31916 02904 10230 20210 40173 70500 333 58006 70000
AAXX 14064 41943 31940 00000 10232 20150 30151 40159 70500 333 58004 70000
AAXX 14064 41950 31940 00000 10236 20150 30163 40166 70540 333 58008 70000
AAXX 14064 41978 31932 00000 10246 20140 30153 40159 70500 333 58006 70000
AAXX 14064 41992 31930 00403 10258 20160 30154 40156 70500 333 58011 70000
AAXX 14061 01049 16/// /1304 10002 21040 39881 49885 58007 69982 333 21018 70009 91113
AAXX 14061 01492 16/// /1703 10036 20016 39669 49784 55001 6//// 333 20026 91113
AAXX 14064 68298 36/// /0409 1//// 2//// 39457 4//// 52005 333 2//// 91014 555 1//// 91012
BBXX PHQX 14063 99476 70317 41/97 22915 10068 20017 40170 57030 70100 823// 22224 20607 328// 40812 5//// 80045
AAXX 14064 78988 02482 30809 10271 20242 30092 40102 57011 60001 83200 333 59006 60007 83817
AAXX 14064 78990 01/// /0100 10257 20244 30104 57010 69911 70000 333 59004 69917
AAXX 14064 16429 11462 71302 10114 20106 30229 40240 53007 69902 76021 87800 333 20094 31/// 55075 2//// 84818 86640
AAXX 14061 14024 12398 72508 10037 20014 39060 48456 53007 60002 84878 333 20021 31001 55000 70000 81806 83612 91114 95050
AAXX 14064 60710 12960 00505 10070 20055 30158 40240 53005 60004 333 20070
AAXX 14064 60714 12560 20000 10074 2//// 30247 40253 58003 60044 81202 333 20069 70042 81820
AAXX 14064 60720 13558 22502 10098 20081 30211 40245 55000 60004 82200 333 20097 82820
AAXX 14064 60728 13962 02902 10105 20100 30155 40250 53001 60004 333 20105
AAXX 14064 60729 13950 00000 10051 20051 30070 40264 58007 60004 333 20043
AAXX 14064 60731 NIL
AAXX 14064 60732 13958 00000 10018 20003 39644 40279 58002 60004 333 20011
AAXX 14064 60734 13960 01802 10044 20035 39728 40268 58002 60004 333 20042
AAXX 14064 60738 NIL
AAXX 14064 60739 13958 01904 10043 20013 39436 40284 53006 60004 333 20026
AAXX 14064 60740 12958 01304 10082 20058 30249 40251 53004 60004 333 20082
AAXX 14064 60742 NIL
AAXX 14064 60764 NIL
AAXX 14064 60770 13975 00000 10084 20073 30129 40272 53006 60004 333 20084
AAXX 14064 60772 13965 01802 10099 20087 30014 40275 53008 60004 333 20094
AAXX 14064 60775 13975 02804 10078 20056 39918 40280 53008 60004 333 20077 55079
AAXX 14064 60780 13960 00802 10068 20050 39974 40291 53006 60004 333 20068
AAXX 14061 02947 47/45 71404 10008 20005 49981 57014 77107 87/// 90551 333 10023 20007 3////
AAXX 14061 33506 11/93 90000 10006 20006 30029 40230 53001 60012 74384 333 21013 93403
AAXX 14061 78458 21466 40000 10230 20223 40153 57006 70262 84200 333 10289 20205 31/// 56000 58006 60066 84818
AAXX 14061 78460 31458 20000 10199 20189 40142 56007 70544 82500 333 10311 20180 30/// 56000 59004 82616
AAXX 14061 78479 32566 30000 10224 20212 40120 57012 83200 333 10290 20205 30/// 56100 58002 83820
AAXX 14061 78485 32466 33603 10210 20195 40131 55009 82201 333 10315 20202 30/// 56100 59007 82816
AAXX 14061 78486 32466 13503 10230 20207 40120 57010 81200 333 10317 20222 30/// 56000 59002 81818
AAXX 14061 91925 06/// /3501 10236 20201 30076 40137 51025 60001 333 55086 60007 90710 91105 555 60005 11016 58004
AAXX 14061 91938 02570 21202 10276 20209 30142 40144 52016 60002 81202 333 10314 20276 30/// 55072 60007 70000 81820 90710 91104 555 60005 12411 59011
AAXX 14061 91944 06/// /0911 10262 20203 30154 40157 51015 60032 333 10300 20252 55119 60037 70036 90710 91114 555 60005
AAXX 14061 91954 06/// /1802 1//// 2//// 30161 4//// 51015 60001 333 55/// 60007 555 58003
AAXX 14061 91958 06/// /0513 10221 20200 30183 40185 53012 69941 333 55001 69947 90710 91129 555 60005 10537 58011
AAXX 14061 91929 04/70 /1011 10274 20224 30137 40140 53014 60002 700// 333 10314 20274 55/// 60007 70012 90710 91117 555 60005
AAXX 14061 91945 36/// /0710 10262 20218 30156 40161 51014 555 59007
AAXX 14061 78239 41559 40509 10237 20167 30187 40190 57010 70520 84800 333 84820
AAXX 14064 78615 11982 00000 10202 20199 30058 40201 50000 60091 70261 333 10300 20194 31/// 59005
AAXX 14064 78627 32982 60000 10104 20074 38194 50004 80004 333 10224 20056 30/// 56009 59001 86070
AAXX 14064 78637 11482 80000 10210 20207 30162 40182 51004 60131 70362 8452/ 333 10266 20200 32/// 5689/ 59001 84614 88458
AAXX 14064 78641 32982 33614 10146 20117 38565 40158 58002 80001 333 10232 20130 30/// 56009 59007 83070
AAXX 14064 78647 32982 30000 10210 20204 30129 40136 50000 80001 333 10322 20190 30/// 56009 59006 83070
AAXX 14064 06610 01669 82303 10057 20041 39517 40101 57/// 69922 76062 8807/ 333 20050 32003 55003 55300 20000 69915 70025 88544 90768 93100 91133 91213
AAXX 14064 89564 41681 41304 11040 21144 39776 49796 53004 70300 81506
AAXX 14064 89570 NIL
AAXX 14064 89571 41470 43510 11013 21072 39767 49795 52012 71500 83952
AAXX 14064 89573 NIL
AAXX 14064 89610 NIL
AAXX 14064 89611 41370 70417 10010 21048 39751 49803 58003 71622 84818
AAXX 14064 89614 NIL
AAXX 14064 89615 46736 80725 11054 21096 38910 57006
AAXX 14064 89807 NIL
AAXX 14064 89809 46/// /0722 11031 21062 39349 58005
AAXX 14064 41024 42960 02304 10240 20080 30126 40146 333 20176 58005
AAXX 14064 41030 42960 00000 10222 20090 39869 40142 333 20204 58002
AAXX 14064 41036 42960 01506 10140 21040 38589 48537 333 20060 59005 555 04410 50172
AAXX 14064 41055 42960 01306 10118 21010 38400 48550 333 20070 59002 555 04410 50210
AAXX 14064 41061 41957 01404 10134 20040 39515 40238 70500 333 20070 59005
AAXX 14064 41084 42960 01506 10146 21010 38912 48557 333 20066 59004 555 04410 50206
AAXX 14064 41112 42960 00000 10110 21070 37977 48557 333 20039 58002 555 04410 50227
AAXX 14064 41114 42960 00000 10110 21010 38011 48555 333 20034 58003 555 04410 50222
AAXX 14064 41128 42960 02104 10150 21020 38878 48574 333 20040 58000 555 04410 50238
AAXX 14064 41136 41957 02405 10103 21030 39400 40239 70500 333 20030 59002
AAXX 14064 41140 42960 01411 10265 20170 30152 40163 333 20210 58003
AAXX 14064 94893 46/// /1604 10165 20092 30063 40179
AAXX 14064 94907 46/// /0911 10194 20081 30158 40168
AAXX 14064 94910 46/// /0805 10243 20037 39872 40117
AAXX 14064 94926 46/// /0706 10189 20054 39474 40131
AAXX 14064 94935 46/// /1911 10169 20103 30153 40180
AAXX 14064 94954 46/// /2127 10146 20078 30076 40187
AAXX 14064 94956 46/// /2012 10152 20075 30168 40195
AAXX 14064 94975 46/// /1413 10186 20086 30137 40169
AAXX 14064 94983 46/// /0703 10163 20056 30158 40183
AAXX 14064 94995 46/// /2316 10218 20141 30095 40103
AAXX 14064 94996 46/// /2107 10197 20189 39958 40085
AAXX 14064 94997 NIL
AAXX 14064 94998 46/// /2723 10063 20054 39993 40004
AAXX 14064 95111 46/// /2907 10327 20245 39999 40035
AAXX 14064 95205 46/// /3314 10374 20226 30020 40027
AAXX 14064 95322 NIL
AAXX 14064 95448 46/// /1406 10292 20130 39486 40032
AAXX 14064 95458 46/// /0407 10268 20062 39838 40092
AAXX 14064 95480 46/// /1009 10304 20026 30041 40099
AAXX 14064 95481 46/// /1712 10322 20003 30043 40087
AAXX 14064 95482 46/// /2113 10360 21004 30011 40065
AAXX 14064 95485 46/// /1606 10312 21040 39892 40091
AAXX 14064 95492 46/// /1407 10331 20030 39929 40080
AAXX 14064 95527 46/// /2409 10284 20085 39849 40097
AAXX 14064 95634 46/// /1008 10207 20153 39703 40095
AAXX 14064 95637 46/// /1108 10200 20140 39792 40119
AAXX 14064 95646 46/// /1415 10242 20131 39913 40096
AAXX 14064 95666 NIL
AAXX 14064 95719 46/// /1710 10265 20065 39780 40103
AAXX 14064 95762 46/// /2307 10264 20084 39654 40101
AAXX 14064 95826 NIL
AAXX 14064 95839 46/// /1507 10244 20019 39988 40145
AAXX 14064 95864 NIL
AAXX 14064 95909 NIL
AAXX 14064 95954 NIL
AAXX 14064 95966 46/// /3408 10201 20091 39962 40161
AAXX 14064 96995 46/// /3304 10258 20229 39796 40090
AAXX 14064 96996 41570 60803 10290 20235 30092 40096 58010 70282 85802
AAXX 14064 94102 46/// /2716 10330 20275 30035 40044
AAXX 14064 94103 NIL
AAXX 14064 94120 46/// /0415 10253 20222 30018 40058
AAXX 14064 94122 46/// /3503 10312 20251 30034 40042
AAXX 14064 94131 46/// /0310 10373 20163 39872 40022
AAXX 14064 94132 NIL
AAXX 14064 94147 NIL
AAXX 14064 94150 46/// /3607 10340 20229 39973 40032
AAXX 14064 94151 46/// /3305 10330 20242 30016 4////
AAXX 14064 94170 46/// /3604 10284 20234 30019 40041
AAXX 14064 94200 NIL
AAXX 14064 94203 46/// /2713 10315 20242 30040 40050
AAXX 14064 94206 46/// /2910 10391 21264 39887 40014
AAXX 14064 94207 /6/// /2512 10283 30045 40053
AAXX 14064 94211 NIL
AAXX 14064 94212 46/// /3410 10308 20203 39555 40015
AAXX 14064 94216 46/// /0107 10372 20209 39975 40025
AAXX 14064 94236 NIL
AAXX 14064 94238 46/// /0501 10356 20129 39627 40039
AAXX 14064 94248 NIL
AAXX 14064 94255 46/// /2004 10370 20061 39781 40036
AAXX 14064 94268 46/// /2911 10337 20260 30012 40024
AAXX 14064 94287 46/// /0508 10309 20258 30042 40051
AAXX 14064 94290 NIL
AAXX 14064 94294 46/// /0716 10313 20251 30051 40061
AAXX 14064 94296 35/// /1203 10290 30052 40062 57007
AAXX 14064 94298 46/// /1216 10278 30065 40071 56003
AAXX 14064 95641 NIL
AAXX 14064 94299 46/// /0607 10305 20256 30050 40060
AAXX 14064 94300 46/// /2115 10270 20173 30074 40084
AAXX 14064 94302 46/// /1916 10323 20111 30057 40063
AAXX 14064 94312 46/// /3120 10348 20196 30022 40031
AAXX 14064 94313 NIL
AAXX 14064 94317 46/// /2913 10389 20119 39429 49995
AAXX 14064 94319 46/// /3017 10421 20120 39675 49995
AAXX 14064 94324 NIL
AAXX 14064 94326 46/// /3608 10233 20124 39469 40069
AAXX 14064 94327 46/// /1110 10366 21009 39689 40052
AAXX 14064 94332 46/// /1607 10356 20041 39657 40032
AAXX 14064 94333 NIL
AAXX 14064 94341 46/// /2403 10383 20050 39796 40024
AAXX 14064 94346 46/// /1805 10361 20089 39823 40037
AAXX 14064 94363 46/// /0304 10337 20127 39845 40057
AAXX 14064 94366 NIL
AAXX 14064 94367 46/// /1007 10285 20233 30037 40078
AAXX 14064 94374 46/// /1110 10300 20198 30061 40077
AAXX 14064 94388 46/// /0914 10266 20212 30092 40097
AAXX 14064 94393 46/// /1318 10266 30066 40078 56004
AAXX 14064 94394 46/// /1219 10252 30087 40095 56005
AAXX 14064 94403 46/// /2017 10265 20159 30033 40074
AAXX 14064 94429 46/// /0405 10305 20115 39588 40039
AAXX 14064 94430 46/// /3503 10320 20070 39460 40026
AAXX 14064 94449 46/// /1509 10247 20159 39555 40072
AAXX 14064 94451 NIL
AAXX 14064 94461 46/// /3207 10317 20125 39381 40031
AAXX 14064 94462 46/// /3406 10305 20105 39504 40043
AAXX 14064 94477 NIL
AAXX 14064 94488 NIL
AAXX 14064 94500 NIL
AAXX 14064 94510 46/// /1307 10318 20077 39729 40067
AAXX 14064 94515 46/// /0806 10305 20088 39734 40075
AAXX 14064 94552 46/// /1707 10284 20087 39634 40090
AAXX 14064 94578 46/// /1212 10245 20185 30102 40113
AAXX 14064 94584 46/// /1014 10251 20190 39994 40102
AAXX 14064 94601 46/// /1326 10207 20164 30122 40139
AAXX 14064 94610 46/// /1112 10268 20130 30069 40092
AAXX 14064 94637 46/// /1109 10198 20133 39680 40097
AAXX 14064 94638 46/// /1215 10223 20145 30110 40141
AAXX 14064 94642 NIL
AAXX 14064 94643 NIL
AAXX 14064 94647 46/// /1313 10205 20150 30000 40119
AAXX 14064 94651 46/// /1422 10197 20143 30023 40099
AAXX 14064 94653 46/// /1716 10245 20121 30080 40098
AAXX 14064 94659 46/// /0912 10296 20001 39912 40103
AAXX 14064 94672 46/// /2316 10216 20111 30134 40144
AAXX 14064 94691 46/// /1811 10248 20003 39806 40126
AAXX 14064 94693 46/// /1709 10258 21048 30077 40138
AAXX 14064 94700 NIL
AAXX 14064 94703 46/// /1405 10295 20019 39973 40096
AAXX 14064 94710 46/// /2107 10284 21037 39851 40098
AAXX 14064 94729 46/// /1604 10205 20068 39277 40110
AAXX 14064 94750 46/// /1413 10190 20086 30040 40163
AAXX 14064 94767 46/// /1717 10190 20100 30158 40164
AAXX 14064 94776 46/// /1714 10203 20092 30149 40159
AAXX 14064 94791 NIL
AAXX 14064 94802 46/// /1015 10203 20160 30063 40145
AAXX 14064 94804 46/// /1612 10181 20110 30119 40156
AAXX 14064 94807 NIL
AAXX 14064 94821 46/// /1716 10187 20059 30101 40183
AAXX 14064 94842 46/// /2207 10159 20077 30097 40196
AAXX 14064 94847 NIL
AAXX 14064 94850 46/// /2016 10154 20063 30144 40190
AAXX 14064 94865 46/// /1915 10175 20092 30157 40181
AAXX 14064 94866 46/// /1714 10175 20072 30039 40178
AAXX 14064 94875 46/// /1810 10247 20039 30001 40134
AAXX 14064 06670 01780 72207 10072 20022 39575 40083 57/// 69912 70281 8707/ 333 20058 31004 55001 55300 20000 60005 70029 81356 87361 90768 93100 91114 91209
AAXX 14064 06700 01564 82608 10068 20051 39615 40107 57/// 60022 76062 887// 333 20057 32004 55004 55300 20000 69995 70036 82630 88650 90768 93100 91124 91217
AAXX 14064 06680 01/02 92506 11052 21055 37430 47960 57/// 60022 77074 333 21053 47110 55007 55300 20000 60005 70049 90768 93106 91147 91226
AAXX 14064 06990 31656 82101 10070 21029 39567 40112 58/// 75255 886// 333 20065 32004 55017 55300 20000 70000 88739 91114 91208
AAXX 14064 06760 01565 80604 10032 20010 39727 40184 52/// 69962 75152 887// 333 20038 31001 55050 55300 20000 69915 70006 85721 87741 90768 93100 91116 91208
AAXX 14064 06720 03/// /0402 10032 20024 39567 40150 57/// 60062 333 20009 3/000 55002 55300 20000 60035 70098 91108 91205
AAXX 14064 40356 42660 71009 10060 21050 39226 48517 84120 333 20030 59022 84840 85460 555 04410 50220
AAXX 14064 40357 42960 40606 10073 21010 39584 40238 84060 333 20033 59016 84360
AAXX 14064 40360 42960 52902 10052 21050 39609 40203 80006 333 20020 59024 85270
AAXX 14064 40361 42960 01105 10086 21050 39440 40223 333 20066 59019
AAXX 14064 40362 NIL
AAXX 14064 40373 42960 03602 10085 21020 39823 40253 333 20030 58000
AAXX 14064 40375 42960 20000 10090 21050 39310 40198 80002 333 20052 59018 82070
AAXX 14064 40377 42960 00000 10118 20040 39764 40255 333 20050 59008
AAXX 14064 40394 42960 02308 10118 20000 39089 48556 333 20036 59004 555 04410 50233
AAXX 14064 40400 42960 00604 10182 20060 30136 40164 333 20156 59014
AAXX 14064 40401 42960 00000 10120 21080 39489 40104 333 20055 59014
AAXX 14064 40405 42960 00000 10130 20050 39490 40241 333 59007
AAXX 14064 40416 42960 02911 10120 20020 30198 40219 333 20080 58005
AAXX 14064 40417 42960 02811 10120 20000 30224 40239 333 20075 58006
AAXX 14064 40420 41956 03408 10123 21020 30028 40243 70600 333 20055 58003
AAXX 14064 40430 42960 00000 10140 21010 39476 40203 333 20100 59015
AAXX 14064 40435 NIL
AAXX 14064 40437 42960 03403 10145 21020 39537 40255 333 20053 59002
AAXX 14064 40439 42960 00000 10170 20070 30136 40155 333 20145 59008
AAXX 14064 91503 NIL
AAXX 14064 91517 31480 72903 10300 20237 40057 57010 71522 86933 333 56799 82818 81920 86630
AAXX 14060 67586 32580 73003 10234 20183 38789 48514 84138 333 20178 50611 55053 58002 84822 87280 555 10283 7//92
AAXX 14060 67693 32580 70205 10254 20171 39261 48518 81538 333 20230 5//// 55/// 58004 81625 84359 86280 555 10339 7//22
AAXX 14064 94102 46/// /2716 10330 20275 30035 40044
AAXX 14064 94103 NIL
AAXX 14064 94120 46/// /0415 10253 20222 30018 40058
AAXX 14064 94122 46/// /3503 10312 20251 30034 40042
AAXX 14064 94131 46/// /0310 10373 20163 39872 40022
AAXX 14064 94132 NIL
AAXX 14064 94147 NIL
AAXX 14064 94150 46/// /3607 10340 20229 39973 40032
AAXX 14064 94151 46/// /3305 10330 20242 30016 4////
AAXX 14064 94170 46/// /3604 10284 20234 30019 40041
AAXX 14064 94200 NIL
AAXX 14064 94203 46/// /2713 10315 20242 30040 40050
AAXX 14064 94206 46/// /2910 10391 21264 39887 40014
AAXX 14064 94207 /6/// /2512 10283 30045 40053
AAXX 14064 94211 NIL
AAXX 14064 94212 46/// /3410 10308 20203 39555 40015
AAXX 14064 94216 46/// /0107 10372 20209 39975 40025
AAXX 14064 94236 NIL
AAXX 14064 94238 46/// /0501 10356 20129 39627 40039
AAXX 14064 94248 NIL
AAXX 14064 94255 46/// /2004 10370 20061 39781 40036
AAXX 14064 94268 46/// /2911 10337 20260 30012 40024
AAXX 14064 94287 46/// /0508 10309 20258 30042 40051
AAXX 14064 94290 NIL
AAXX 14064 94294 46/// /0716 10313 20251 30051 40061
AAXX 14064 94296 35/// /1203 10290 30052 40062 57007
AAXX 14064 94298 46/// /1216 10278 30065 40071 56003
AAXX 14064 95641 NIL
AAXX 14060 67585 12580 60101 10231 20198 60094 82208 333 20188 5//// 70093 82820 86270 555 10279 7//98
AAXX 14064 89564 41681 41304 11040 21144 39776 49796 53004 70300 81506
AAXX 14064 89570 NIL
AAXX 14064 89571 41470 43510 11013 21072 39767 49795 52012 71500 83952
AAXX 14064 89573 NIL
AAXX 14064 89610 NIL
AAXX 14064 89611 41370 70417 10010 21048 39751 49803 58003 71622 84818
AAXX 14064 89614 NIL
AAXX 14064 89615 46736 80725 11054 21096 38910 57006
AAXX 14064 89807 NIL
AAXX 14064 89809 46/// /0722 11031 21062 39349 58005
AAXX 14064 94893 46/// /1604 10165 20092 30063 40179
AAXX 14064 94907 46/// /0911 10194 20081 30158 40168
AAXX 14064 94910 46/// /0805 10243 20037 39872 40117
AAXX 14064 94926 46/// /0706 10189 20054 39474 40131
AAXX 14064 94935 46/// /1911 10169 20103 30153 40180
AAXX 14064 94954 46/// /2127 10146 20078 30076 40187
AAXX 14064 94956 46/// /2012 10152 20075 30168 40195
AAXX 14064 94975 46/// /1413 10186 20086 30137 40169
AAXX 14064 94983 46/// /0703 10163 20056 30158 40183
AAXX 14064 94995 46/// /2316 10218 20141 30095 40103
AAXX 14064 94996 46/// /2107 10197 20189 39958 40085
AAXX 14064 94997 NIL
AAXX 14064 94998 46/// /2723 10063 20054 39993 40004
AAXX 14064 95111 46/// /2907 10327 20245 39999 40035
AAXX 14064 95205 46/// /3314 10374 20226 30020 40027
AAXX 14064 95322 NIL
AAXX 14064 95448 46/// /1406 10292 20130 39486 40032
AAXX 14064 95458 46/// /0407 10268 20062 39838 40092
AAXX 14064 95480 46/// /1009 10304 20026 30041 40099
AAXX 14064 95481 46/// /1712 10322 20003 30043 40087
AAXX 14064 95482 46/// /2113 10360 21004 30011 40065
AAXX 14064 95485 46/// /1606 10312 21040 39892 40091
AAXX 14064 95492 46/// /1407 10331 20030 39929 40080
AAXX 14064 95527 46/// /2409 10284 20085 39849 40097
AAXX 14064 95634 46/// /1008 10207 20153 39703 40095
AAXX 14064 95637 46/// /1108 10200 20140 39792 40119
AAXX 14064 95646 46/// /1415 10242 20131 39913 40096
AAXX 14064 95666 NIL
AAXX 14064 95719 46/// /1710 10265 20065 39780 40103
AAXX 14064 95762 46/// /2307 10264 20084 39654 40101
AAXX 14064 95826 NIL
AAXX 14064 95839 46/// /1507 10244 20019 39988 40145
AAXX 14064 95864 NIL
AAXX 14064 95909 NIL
AAXX 14064 95954 NIL
AAXX 14064 95966 46/// /3408 10201 20091 39962 40161
AAXX 14064 96995 46/// /3304 10258 20229 39796 40090
AAXX 14064 96996 41570 60803 10290 20235 30092 40096 58010 70282 85802
AAXX 14064 94500 NIL
AAXX 14064 94510 46/// /1307 10318 20077 39729 40067
AAXX 14064 94515 46/// /0806 10305 20088 39734 40075
AAXX 14064 94552 46/// /1707 10284 20087 39634 40090
AAXX 14064 94578 46/// /1212 10245 20185 30102 40113
AAXX 14064 94584 46/// /1014 10251 20190 39994 40102
AAXX 14064 94601 46/// /1326 10207 20164 30122 40139
AAXX 14064 94610 46/// /1112 10268 20130 30069 40092
AAXX 14064 94637 46/// /1109 10198 20133 39680 40097
AAXX 14064 94638 46/// /1215 10223 20145 30110 40141
AAXX 14064 94642 NIL
AAXX 14064 94643 NIL
AAXX 14064 94647 46/// /1313 10205 20150 30000 40119
AAXX 14064 94651 46/// /1422 10197 20143 30023 40099
AAXX 14064 94653 46/// /1716 10245 20121 30080 40098
AAXX 14064 94659 46/// /0912 10296 20001 39912 40103
AAXX 14064 94672 46/// /2316 10216 20111 30134 40144
AAXX 14064 94691 46/// /1811 10248 20003 39806 40126
AAXX 14064 94693 46/// /1709 10258 21048 30077 40138
AAXX 14064 94700 NIL
AAXX 14064 94703 46/// /1405 10295 20019 39973 40096
AAXX 14064 94710 46/// /2107 10284 21037 39851 40098
AAXX 14064 94729 46/// /1604 10205 20068 39277 40110
AAXX 14064 94750 46/// /1413 10190 20086 30040 40163
AAXX 14064 94767 46/// /1717 10190 20100 30158 40164
AAXX 14064 94776 46/// /1714 10203 20092 30149 40159
AAXX 14064 94791 NIL
AAXX 14064 94802 46/// /1015 10203 20160 30063 40145
AAXX 14064 94804 46/// /1612 10181 20110 30119 40156
AAXX 14064 94807 NIL
AAXX 14064 94821 46/// /1716 10187 20059 30101 40183
AAXX 14064 94842 46/// /2207 10159 20077 30097 40196
AAXX 14064 94847 NIL
AAXX 14064 94850 46/// /2016 10154 20063 30144 40190
AAXX 14064 94865 46/// /1915 10175 20092 30157 40181
AAXX 14064 94866 46/// /1714 10175 20072 30039 40178
AAXX 14064 94875 46/// /1810 10247 20039 30001 40134
BBXX VRZN7 14064 99165 31761 416// 42010 10300 2025/ 40100 52005 7//11 8418/ 22253 04300 20303 304// 4//// 5//// 85260
BBXX YJZC5 14064 99243 31661 41497 62210 10270 20226 40088 50/// 70322 85778 22223 02285 2//// 30000 80240
BBXX VRAE4 14063 99009 31388 41498 62514 10290 20248 40045 57025 70311 85106 22273 04300 20602 304// 40804 80260
BBXX VNSZ 14054 99378 31449 46/// /1914 10163 20076 30159 40185 57008 22200 04203 85115
BBXX VNSZ 14044 99378 31449 46/// /2012 10168 20063 30162 40188 57004 22200 04200 85112
BBXX 9HA2479 14044 99223 31664 46/// /2115 10290 20225 30050 40078 57007 22200 04293 85243
BBXX C6FS9 14044 99228 31619 46/// /2707 10251 20223 30055 40090 57009 22263 04263 85231
BBXX VROB 14044 99067 31470 46/// /0001 10289 20229 30028 40052 57038 22200 04296 85245
BBXX 9HA2479 14054 99223 31664 46/// /1807 10294 20227 30047 40075 57010 22200 04293 85245
BBXX C6FS9 14054 99228 31616 46/// /2112 10254 20222 30051 40086 57011 22263 04266 85231
BBXX FHZI 14054 99429 31473 46/// /2008 10188 20056 30159 40170 57002 22200 04165 85118
BBXX VROB 14054 99068 31470 46/// /0001 10305 20214 30021 40045 57034 22200 04299 85240
BBXX 9HA2479 14064 99223 31664 46/// /2109 10286 20233 30053 40081 57001 22200 04291 85247
BBXX FHZI 14044 99429 31473 46/// /2009 10184 20055 30160 40171 57004 22200 04164 85116
BBXX C6FS9 14064 99228 31613 46/// /2013 10252 20221 30054 40089 57004 22263 04268 85230
BBXX 3ECI3 14064 99453 31713 41297 83415 10155 20150 40004 50000 70222 887// 22282 00130 20402 307// 41106 80152
BBXX VRWS4 14063 99244 31534 41499 31118 10255 20210 40098 57005 70200 83186 22244 04250 20505 313// 41004 80225
AAXX 14064 91503 NIL
AAXX 14064 91517 31480 72903 10300 20237 40057 57010 71522 86933 333 56799 82818 81920 86630
AAXX 14064 94299 46/// /0607 10305 20256 30050 40060
AAXX 14064 94300 46/// /2115 10270 20173 30074 40084
AAXX 14064 94302 46/// /1916 10323 20111 30057 40063
AAXX 14064 94312 46/// /3120 10348 20196 30022 40031
AAXX 14064 94313 NIL
AAXX 14064 94317 46/// /2913 10389 20119 39429 49995
AAXX 14064 94319 46/// /3017 10421 20120 39675 49995
AAXX 14064 94324 NIL
AAXX 14064 94326 46/// /3608 10233 20124 39469 40069
AAXX 14064 94327 46/// /1110 10366 21009 39689 40052
AAXX 14064 94332 46/// /1607 10356 20041 39657 40032
AAXX 14064 94333 NIL
AAXX 14064 94341 46/// /2403 10383 20050 39796 40024
AAXX 14064 94346 46/// /1805 10361 20089 39823 40037
AAXX 14064 94363 46/// /0304 10337 20127 39845 40057
AAXX 14064 94366 NIL
AAXX 14064 94367 46/// /1007 10285 20233 30037 40078
AAXX 14064 94374 46/// /1110 10300 20198 30061 40077
AAXX 14064 94388 46/// /0914 10266 20212 30092 40097
AAXX 14064 94393 46/// /1318 10266 30066 40078 56004
AAXX 14064 94394 46/// /1219 10252 30087 40095 56005
AAXX 14064 94403 46/// /2017 10265 20159 30033 40074
AAXX 14064 94429 46/// /0405 10305 20115 39588 40039
AAXX 14064 94430 46/// /3503 10320 20070 39460 40026
AAXX 14064 94449 46/// /1509 10247 20159 39555 40072
AAXX 14064 94451 NIL
AAXX 14064 94461 46/// /3207 10317 20125 39381 40031
AAXX 14064 94462 46/// /3406 10305 20105 39504 40043
AAXX 14064 94477 NIL
AAXX 14064 94488 NIL
AAXX 14064 88963 32960 22730 10033 21027 39812 49841 52001 82070 333 56070 82360 92427 94030 95000
AAXX 14064 88968 41456 82720 10020 21008 39886 49902 52008 69901 72052 887// 333 56699 88710 90068 90092 90121 90931 92436 92731 92851 93000 94070 95060 96010
AAXX 14064 89034 32970 01804 11074 21091 39498 49814 52001 333 92408 92851
AAXX 14064 89053 31320 82730 10014 20000 39926 49941 55000 71022 887// 333 88708 90068 90084 92435 92851 94070 94479 95090 97536 98520
AAXX 14064 89055 32968 72713 10028 21041 39586 49822 53003 87070 333 56060 87360 95177
AAXX 14064 89066 11550 83204 10004 21002 39813 49822 51016 60061 77377 886// 333 88720 90565 90973 92406 92731 92801 93196 94070 95090 97511
AAXX 14063 NIL
AAXX 14061 38141 32998 00000 11085 21108 30176 40345 53003 333 21102
AAXX 14061 38149 41/93 92701 11084 21099 30270 40353 52014 74540 89/// 333 21090
AAXX 14061 38178 42598 50000 11008 21131 30037 40334 52006 85500 333 21015
AAXX 14061 38262 32698 83202 11050 21095 30258 40345 52012 885// 333 21073
AAXX 14061 38264 42398 83402 11019 21037 30248 40346 52012 886// 333 21024 88708
AAXX 14061 38396 41596 70401 10002 21009 30215 40345 52010 71041 875// 333 21058 87620
AAXX 14061 38403 41/92 90000 11018 21023 30198 40324 53004 74744 333 21033
AAXX 14061 38413 42998 82702 10006 21011 30041 40342 52012 8808/ 333 21024
AAXX 14061 38457 32997 13601 10012 21030 39731 40337 52008 81030 333 21015
AAXX 14061 38462 42699 60000 11008 21065 38844 48568 52013 83550 333 21062
AAXX 14061 38565 32998 00000 10014 21021 39731 40333 53003 333 21046
AAXX 14061 38579 31595 80402 10010 21004 39907 40338 52003 71042 885// 333 21018
AAXX 14061 38583 31996 40000 10005 21001 30014 40347 52010 71012 80001 333 21036
AAXX 14061 38611 41796 62501 10034 21013 39762 40347 52002 71011 83301 333 21002
AAXX 14061 38618 32997 81201 10016 21000 39621 40331 52004 8802/ 333 21001
AAXX 14061 38683 41996 03604 10023 21010 30049 40334 52008 71000 333 21025
AAXX 14061 38696 32999 50701 10037 21026 39448 40322 58002 85080 333 21031
AAXX 14061 38812 42997 03202 10048 21002 39851 40315 52003 333 21016
AAXX 14061 38927 31118 91503 10018 20013 39938 40326 52006 71044 89/// 333 21019 89/02
BBXX UCKZ 14061 99535 30207 41296 83007 10007 20000 40080 57015 71042 886// 22243 00007 20301 323// 40904 ICE 0/1/0
AAXX 14064 40550 35/66 /3506 10099 21003 40251 52010 333 55308 00417 10000 21168 30383 40933 51295 61551 55407 40785 90069 90400 91011 91111 91205 91303
AAXX 14064 40551 36/// /2610 10100 21004 333 90401 91011 91113 91209 91309
AAXX 14064 40552 35/68 /3113 10104 21001 40249 50007 333 55310 90069 90400 91015 91115 91213 91311
AAXX 14064 40553 35/65 /3211 10095 21001 40248 51009 333 55309 90069 90400 91013 91113 91211 91307
AAXX 14064 40568 36/// /3009 10114 20020 333 90401 91011 91111 91209 91305
AAXX 14064 40569 NIL
AAXX 14064 40570 35/69 /2503 10094 21021 40258 51005 333 55310 90069 90401 91003 91109 91209 91305
AAXX 14064 40571 NIL
AAXX 14064 40572 NIL
AAXX 14064 40573 36/// /3206 10094 21011 333 90401 91007 91113 91209 91305
AAXX 14064 40580 46/// /3204 10123 20020 333 553// 00441 10025 21011 30236 40956 51305 61247 55407 40774 90401 91007 91107 91201 91301
AAXX 14064 40581 36/// /2903 10120 20024 333 90400 91009 91111 91201 91301
AAXX 14064 40582 31958 03105 10106 21011 40250 51011 70500 333 55310 00501 10000 21165 30381 41012 51290 61546 55407 40785 90401 91007 91107 91205 91303
AAXX 14064 40583 NIL
AAXX 14064 40585 36/// /2911 10120 20038 222// 1//// 3//// 4//// 70/// 333 90401 91015 91119 91213 91311
AAXX 14064 40586 36/// /2703 10116 20003 333 90400 91005 91109 91205 91301
AAXX 14064 40587 36/// /2905 10115 21006 333 553// 00459 10000 21204 30390 40928 51278 61594 55407 40814 90400 91007 91109 91207 91305
AAXX 14064 40588 35/62 /3111 10105 20014 40245 51010 333 55308 90069 90401 91013 91115 91211 91309
AAXX 14064 40589 NIL
AAXX 14064 40590 36/// /3105 10090 21014 333 90401 91007 91111 91209 91305
AAXX 14064 40591 NIL
AAXX 14064 40592 35/68 /3307 10139 21013 40249 51008 333 55310 00558 10000 21249 30315 40964 51332 61564 55407 40933 90069 90401 91011 91113 91207 91305
AAXX 14064 40593 36/// /3207 10120 21001 333 90400 91013 91113 91209 91307
AAXX 14064 40594 36/// /3305 10124 21010 333 90401 91011 91113 91205 91305
AAXX 14064 40596 36/// /3215 10150 20050 333 90400 91021 91123 91217 91315
BBXX VRZN7 14064 99165 31761 416// 42010 10300 2025/ 40100 52005 7//11 8418/ 22253 04300 20303 304// 4//// 5//// 85260
BBXX YJZC5 14064 99243 31661 41497 62210 10270 20226 40088 50/// 70322 85778 22223 02285 2//// 30000 80240
BBXX VRAE4 14063 99009 31388 41498 62514 10290 20248 40045 57025 70311 85106 22273 04300 20602 304// 40804 80260
BBXX VNSZ 14054 99378 31449 46/// /1914 10163 20076 30159 40185 57008 22200 04203 85115
BBXX VNSZ 14044 99378 31449 46/// /2012 10168 20063 30162 40188 57004 22200 04200 85112
BBXX 9HA2479 14044 99223 31664 46/// /2115 10290 20225 30050 40078 57007 22200 04293 85243
BBXX C6FS9 14044 99228 31619 46/// /2707 10251 20223 30055 40090 57009 22263 04263 85231
BBXX VROB 14044 99067 31470 46/// /0001 10289 20229 30028 40052 57038 22200 04296 85245
BBXX 9HA2479 14054 99223 31664 46/// /1807 10294 20227 30047 40075 57010 22200 04293 85245
BBXX C6FS9 14054 99228 31616 46/// /2112 10254 20222 30051 40086 57011 22263 04266 85231
BBXX FHZI 14054 99429 31473 46/// /2008 10188 20056 30159 40170 57002 22200 04165 85118
BBXX VROB 14054 99068 31470 46/// /0001 10305 20214 30021 40045 57034 22200 04299 85240
BBXX 9HA2479 14064 99223 31664 46/// /2109 10286 20233 30053 40081 57001 22200 04291 85247
BBXX FHZI 14044 99429 31473 46/// /2009 10184 20055 30160 40171 57004 22200 04164 85116
BBXX C6FS9 14064 99228 31613 46/// /2013 10252 20221 30054 40089 57004 22263 04268 85230
BBXX 3ECI3 14064 99453 31713 41297 83415 10155 20150 40004 50000 70222 887// 22282 00130 20402 307// 41106 80152
BBXX VRWS4 14063 99244 31534 41499 31118 10255 20210 40098 57005 70200 83186 22244 04250 20505 313// 41004 80225
AAXX 14061 78458 21466 40000 10230 20223 40153 57006 70262 84200 333 10289 20205 31/// 56000 58006 60066 84818
AAXX 14061 78460 31458 20000 10199 20189 40142 56007 70544 82500 333 10311 20180 30/// 56000 59004 82616
AAXX 14061 78479 32566 30000 10224 20212 40120 57012 83200 333 10290 20205 30/// 56100 58002 83820
AAXX 14061 78485 32466 33603 10210 20195 40131 55009 82201 333 10315 20202 30/// 56100 59007 82816
AAXX 14061 78486 32466 13503 10230 20207 40120 57010 81200 333 10317 20222 30/// 56000 59002 81818
AAXX 14064 94310 46/// /2819 10309 20236 30027 40038 57013
AAXX 14064 95283 46/// /0706 10293 20258 30035 40042
AAXX 14064 95288 46/// /3606 10321 30035 40050 56011
AAXX 14064 95675 46/// /2118
AAXX 14064 95872 46/// /1818
AAXX 14064 95961 35/// /2607 10162 30153 40195 57001
AAXX 14061 78239 41559 40509 10237 20167 30187 40190 57010 70520 84800 333 84820
AAXX 14061 78458 21466 40000 10230 20223 40153 57006 70262 84200 333 10289 20205 31/// 56000 58006 60066 84818
AAXX 14061 78460 31458 20000 10199 20189 40142 56007 70544 82500 333 10311 20180 30/// 56000 59004 82616
AAXX 14061 78479 32566 30000 10224 20212 40120 57012 83200 333 10290 20205 30/// 56100 58002 83820
AAXX 14061 78485 32466 33603 10210 20195 40131 55009 82201 333 10315 20202 30/// 56100 59007 82816
AAXX 14061 78486 32466 13503 10230 20207 40120 57010 81200 333 10317 20222 30/// 56000 59002 81818
AAXX 14061 37395 32999 30906 10084 21019 30120 40261 53007 83030 333 20056
AAXX 14061 37409 32598 40906 11026 21037 38830 48543 52001 83540 333 21040 95000
AAXX 14061 37432 32997 00000 11055 21081 39057 48569 57008 333 21070
AAXX 14061 37514 32999 00000 11049 21077 39137 40354 53001 333 21084
AAXX 14061 37545 32997 73402 11012 21015 39780 40317 52003 87015 555 21028 7000/
AAXX 14061 37621 32699 20000 11010 21053 39639 40309 57006 80031 333 21035
AAXX 14061 37484 NIL
AAXX 14064 78615 11982 00000 10202 20199 30058 40201 50000 60091 70261 333 10300 20194 31/// 59005
AAXX 14064 78627 32982 60000 10104 20074 38194 50004 80004 333 10224 20056 30/// 56009 59001 86070
AAXX 14064 78637 11482 80000 10210 20207 30162 40182 51004 60131 70362 8452/ 333 10266 20200 32/// 5689/ 59001 84614 88458
AAXX 14064 78641 32982 33614 10146 20117 38565 40158 58002 80001 333 10232 20130 30/// 56009 59007 83070
AAXX 14064 78647 32982 30000 10210 20204 30129 40136 50000 80001 333 10322 20190 30/// 56009 59006 83070
AAXX 14064 65352 31904 70406 10175 20006 3//// 4//// 70544 80002 333 20174 5//// 87076
AAXX 14064 65361 31920 70000 10185 20010 3//// 4//// 70522 80002 333 20182 5//// 87076
AAXX 14064 65376 31925 73602 10225 20088 39661 40121 70522 80002 333 20209 58000 87076
AAXX 14064 65387 31920 70102 10220 20205 30083 40101 71022 80002 333 20220 58004 87073
BBXX UFJN 14061 99726 10369 41/96 41712 11000 49947 54000 72176 88/// 22200 0//// 20401
BBXX A8MW6 14064 99390 70098 41597 73121 10170 20119 40220 54000 70322 878// 22282 00200 2//// 331// 4//10 5//// 80140
BBXX MGRH9 14063 99295 31610 41598 42116 10226 20151 40101 52009 70311 83140 22273 00221 20303 325// 41005 5//// 80181
AAXX 14061 56187 32562 61602 10134 20001 39606 40262 57029 81141 333 00304 20052
AAXX 14061 56778 NIL
AAXX 14061 57265 NIL
AAXX 14061 57461 NIL
AAXX 14061 57494 NIL
AAXX 14061 57516 11740 80000 10098 20058 39962 40279 57024 69931 76066 885// 333 00500 20084
AAXX 14061 57687 11458 83204 10093 20031 30182 40268 57016 69911 72166 8772/ 333 20076
AAXX 14061 57816 NIL
AAXX 14061 58040 31956 03603 10071 21021 30260 40274 57002 70500 333 21018
AAXX 14061 58102 32965 80203 10083 20005 30238 40288 57008 80007 333 21008
AAXX 14061 58150 31935 53404 10099 20015 30257 40261 57013 70500 80002 333 21001
AAXX 14061 58221 NIL
AAXX 14061 58238 NIL
AAXX 14061 58251 NIL
AAXX 14061 58362 NIL
AAXX 14061 58457 31930 73201 10122 21013 30197 40251 57015 70500 8704/ 333 20028
AAXX 14061 58606 NIL
AAXX 14061 58752 NIL
AAXX 14061 58847 NIL
AAXX 14061 59117 32662 73401 10203 20083 30086 40193 57031 875// 333 20080
AAXX 14061 59134 NIL
AAXX 14061 59287 NIL
AAXX 14061 59316 31657 70901 10223 20139 30174 40179 57029 70500 875// 333 20167
AAXX 14061 59431 NIL
AAXX 14061 59644 NIL
AAXX 14061 59758 NIL
AAXX 14061 50468 32970 03402 11159 21227 30012 40239 57004 333 21236
AAXX 14061 50953 NIL
AAXX 14061 51076 NIL
AAXX 14061 51243 NIL
AAXX 14061 51288 32980 21401 11020 21123 38412 57006 80002 333 00103 21120
AAXX 14061 51463 NIL
AAXX 14061 51573 NIL
AAXX 14061 51709 NIL
AAXX 14061 52533 NIL
AAXX 14061 52652 NIL
AAXX 14061 52866 NIL
AAXX 14061 52983 NIL
AAXX 14061 53463 32980 03205 11100 21229 39079 40415 57011 333 01058 21139
AAXX 14061 53513 32970 02002 11065 21182 39106 40412 57022 333 00856 21158
AAXX 14061 53588 NIL
AAXX 14061 53772 NIL
AAXX 14061 53915 NIL
AAXX 14061 54218 32980 03207 11061 21244 39488 40339 57016 333 21129
AAXX 14061 54337 32970 03605 11015 21234 30214 40300 57009 333 21061
AAXX 14061 54342 NIL
AAXX 14061 54401 NIL
AAXX 14061 54471 32960 03606 11028 21180 30292 40298 57003 333 21055
AAXX 14061 54497 32575 13405 11012 21144 30228 40245 57005 81500 333 21028
AAXX 14061 54511 NIL
AAXX 14061 54823 32975 20203 10019 21119 30100 40316 57009 80001 333 21007
AAXX 14061 56080 NIL
AAXX 14061 56096 NIL
AAXX 14061 57083 31958 00403 10055 21055 30166 40306 57013 70500 333 20007
BBXX PFBF 14063 99074 31206 41398 72905 10290 20196 40077 55019 75082 83718 22233 02294 20302 30000 4//// 5//// 80225
AAXX 14061 10270 16960 01904 10037 20018 39971 40026 51011 69902 222// 06047 333 10078 20037 3/001 55000 55300 70047
AAXX 14061 01288 11680 82204 11003 21039 39008 49734 58003 60022 70283 8551/ 333 21015 47019 70025 91114
AAXX 14061 01492 11475 81703 10036 20016 39669 49784 55001 69942 70282 8567/ 333 20026 41998 70064 91113
AAXX 14061 01062 11489 80606 11022 21039 39994 40007 54001 60002 70222 885// 333 21029 48999 79999 91110
BBXX 44139 14061 99442 70571 46/// /0410 10069 40184 57021 22200 0//// 1//// 70/// 333 912//
AAXX 14061 01359 11459 51805 10002 21042 38833 49716 55002 60002 78588 85300 333 21070 48042 70056 91111
AAXX 14064 16219 41/00 92924 10012 20008 38134 48520 51/// 6///2 763// 333 21012 32/// 55056 2//// 89/00 9509/ 9519/
AAXX 14064 65351 31930 70412 10194 20027 3//// 4//// 70522 80002 333 20190 5//// 87076
AAXX 14064 65355 31956 70608 10197 21036 39604 40121 70522 80002 333 20180 59003 87073
AAXX 14064 65357 31930 70806 10190 21019 39738 40130 70522 80002 333 20185 59003 87076
AAXX 14064 65380 32958 70000 10191 20176 3//// 4//// 80002 333 20188 5//// 87076
AAXX 14064 89577 46/// /0704 11343 35694 4//// 5////
AAXX 14064 89002 41499 60817 11062 21077 39704 49758 52008 73633 86500 333 92911
AAXX 14064 60340 32965 02008 10069 20058 40269 55000 333 20064
AAXX 14064 64560 32360 3//// 10220 20214 39576 40113 83500 333 0//00 20216 50134 55/// 58001 83608
AAXX 14064 65306 31956 50000 10140 20030 39797 40133 70522 80002 333 01500 20140 50754 55087 59005 85076
AAXX 14064 65319 32958 50000 10170 20020 39609 40126 80002 333 01900 20169 50554 55081 59006 85076
AAXX 14064 65330 31906 50406 10194 21008 39677 40116 70544 80002 333 01800 20190 50884 55090 00404 59001 85076
AAXX 14064 65335 31920 50404 10190 20108 39897 40122 70522 80002 333 01500 20186 50484 55076 58004 85076
AAXX 14064 65344 31918 43604 10222 20202 30103 40114 71000 81502 333 02100 20220 50644 55063 58009 81610 84076
BBXX 44139 14061 99442 70571 46/// /0410 10069 40184 57021 22200 0//// 1//// 70/// 333 912//
AAXX 14064 60060 32956 00000 10145 20087 40249 5//// 333 20145 30008
AAXX 14064 48356 31950 60902 10252 20153 39947 40144 57026 70522 86050 333 59009
AAXX 14064 48403 31557 70505 10270 20155 39924 40134 57032 70511 82536 333 59003
AAXX 14064 48355 31940 00703 10250 20154 39920 40137 57025 70522 87050 333 59010
AAXX 14064 48384 31558 70000 10215 20185 39953 40147 57024 71022 86806 333 58000
AAXX 14064 48427 31558 50509 10278 20162 30126 40134 57022 70521 82131 333 59006
AAXX 14064 48387 32960 00904 10227 20144 39176 40129 57015 333 59006
BBXX C6SI6 14064 99347 11385 46/// /2109 10143 20069 40185 56020 7//// 8//// 22242 0//// 2////
BBXX DGDD 14061 99327 11345 41297 80407 10165 20104 40185 56015 75152 886// 22254 00230 20401 311// 42003 5//// 80130
BBXX DQXQ 14064 99312 11256 41998 00218 10160 20066 40220 56010 70200 80000 22214 00180 20302 305// 40503 80110
BBXX OXOR2 14064 99332 11279 41998 03106 10120 21018 40217 56009 702// 80000 22244 00159 20402 30000 80060
BBXX TBWUK14 14063 99344 11236 41/97 33616 10120 20062 40254 52020 70200 83//2 22283 06140 20302 30000 80090
BBXX V7DI8 14063 99341 11278 41997 13315 10110 20070 40230 54000 70100 80001 22253 00170 20502 334// 40402 5//// 6//// 80090 ICE /////
BBXX 4XFV 14063 99495 11529 41197 82842 00/// 11045 21065 40055 52025 77272 88923 22253 0//// 20408 330// 40610 5//// 6//// 81050
BBXX LAOX5 14064 99303 11719 41397 82818 10200 20130 40160 54000 70222 8884/ 22223 0//// 21009 303// 41407 5//// 6//// 80160
BBXX WDE9586 14063 99347 11647 41598 53022 10130 20070 40185 51005 7//22 84461 22224 00190 204// 3//// 408// 5//// 6//// 80100 ICE /////
BBXX SKWI 14064 99407 70238 43/98 63028 10134 40264 53015 22263 00175 2//// 4////
AAXX 14061 26045 01463 81806 10021 20016 39998 40000 55001 60012 76162 8802/ 333 10027 20015 60017 88/11 91010 91112 555 11001 20015 31100 50021
AAXX 14061 26231 27463 71908 10042 20031 39989 40004 53011 70086 87/// 333 10042 20011 60017 87/11 91013 91114 555 1/003 20011 3/000 50033
AAXX 14061 26247 27/62 /1804 10025 20019 39952 40032 52004 75285 333 10025 20014 69967 91108 555 1/002 20014 3/100 50020
AAXX 14061 26058 27250 71703 10018 20010 30019 40026 56011 76160 87/// 333 10024 20015 69997 87/06 91009 91109 555 1/001 20015 3/100 50018 52000
AAXX 14061 26115 27464 12108 10065 20040 39958 49966 53021 70000 81/// 333 10068 20029 60007 81/14 91013 91113 555 1/004 20029 3/003 50053
AAXX 14061 01228 46/// /1507 10044 21020 39654 49661 56014 333 20044 91110
AAXX 14061 01156 16/// /1112 10049 21020 39725 49735 56027 60002 333 20015 70000 91117
AAXX 14061 01273 16/// /1507 10034 21040 39520 49709 58003 60002 333 20026 70000 91116
AAXX 14061 01037 16/// /1605 10018 21034 39836 49842 58017 60002 333 21036 70000 91117
AAXX 14061 01065 11689 80902 11008 21023 39748 49909 57006 60002 70282 888// 333 21035 70017 91106
AAXX 14061 01092 46/// /2203 11007 21040 333 21025 91112
AAXX 14061 01245 11680 72004 10009 21064 39017 49698 56015 60002 70222 875// 333 21003 48033 70000 91110
AAXX 14061 01337 16/// /0402 10026 20002 39615 49679 55000 60122 333 20015 70171 91108
AAXX 14061 01389 11810 81607 10012 21004 39476 49779 54001 69992 76162 8272/ 333 20005 47025 70080 91114
AAXX 14061 01023 41689 71602 10008 21036 39715 49808 57024 70220 83578 333 21137 47009 91110
AAXX 14061 01257 11470 51808 10039 21042 39538 49693 58005 60002 70322 83430 333 20025 70000 91115
AAXX 14061 01370 16/// /1703 11034 21043 38659 49808 58014 60012 333 21055 4/034 70070 91110
AAXX 14061 01419 16/// /2108 10040 20022 60162 333 20007 70275 91118
AAXX 14064 91753 02582 50903 10271 20231 30073 40105 53007 60002 82806 333 10307 20250 30025 55034 60007 70000 81822 85273 90710 91109 555 60005
AAXX 14064 91754 06/// /0702 10279 20219 30058 40099 53004 60001 333 60007 555 10316 20233 60004 60005
BBXX 41037 14061 99340 70775 46/// /0205 10146 40248 50000 90600 22200 00183 333 91206
AAXX 14064 71807 16/// /0319 11035 21072 30233 40252 53007 60001 333 10028 21036 70000 555 30526 40061
AAXX 14064 71810 16/// /0202 11090 21105 30233 40302 51001 60001 333 11059 21121 70000 555 30518 40101
AAXX 14064 71815 11574 50505 11074 21108 30245 40277 52002 69921 70382 85500 333 10002 21075 44008 70016 90941 555 10018 20016 30620 40020
AAXX 14064 71450 16/// /2108 11052 21069 39380 40106 56011 60001 333 11042 21067 70000 555 31819 40081
AAXX 14064 71455 46/// /2010 11067 21073 39292 40097 56014 6///1 333 11040 21085 7//// 555 32020 40091
AAXX 14064 71465 46/// /1906 10058 20025 30055 40274 58009 6///1 333 10061 20001 7////
AAXX 14064 71470 16/// /2915 11304 21335 39473 40131 51018 60001 333 11112 21308 70005 555 33240 40133
AAXX 14064 71476 16/// /0811 30165 50006 60001 333 7////
AAXX 14064 71478 16/// /0415 10048 20032 30032 40169 50004 60001 333 10081 20046 70064 555 31653 40123
AAXX 14064 71479 16/// /1024 10058 20049 30034 40155 53005 60001 333 10059 20040 70000 555 31243 40123
AAXX 14064 71482 46/// /0803 10022 30143 40182 53010 6///1 333 10050 20000 7////
AAXX 14064 71484 16/// /0902 10030 20009 30148 40166 50003 60001 333 10060 20018 70000 555 30031 40162
AAXX 14064 71487 16/// /2207 11059 21067 39233 40109 56015 60001 333 11045 21078 70000 555 31917 40121
AAXX 14064 71489 16/// /1906 11078 21093 39275 40089 58014 60001 333 11046 21114 70000
AAXX 14064 71492 46/// ///06 11334 21368 39438 40180 53014 6///1 333 11264 21343 7////
AAXX 14064 71920 16/// /0214 10015 20002 30222 40228 58005 60001 333 10096 20003 70000 555 30323 40061
AAXX 14064 71110 16/// /0315 11037 21072 30171 40232 53007 60001 333 10034 21037 70000 555 30423 40041
AAXX 14064 71139 16/// /2302 11105 21117 38603 40081 57013 60001 333 11082 21111 70000
AAXX 14064 71141 16/// /0118 11180 21196 39819 49845 52011 60001 333 11167 21191 70000 555 31432 40072
AAXX 14064 71243 16/// /2716 11010 21081 39001 40105 53005 60001 333 11006 21177 70000 555 32627 40061
AAXX 14064 71246 17/// /2402 11050 21061 39420 40088 51016 69961 7//4/ 333 11028 21094 70006
AAXX 14064 71087 46/// /0502 11136 21171 39946 40155 51022 6///1 333 10010 21136 7//// 555 32720 40081
AAXX 14064 71719 16/// /0408 11010 21055 30286 40292 56003 60001 333 10018 21013 70004 555 10010 20004 30424 40201
AAXX 14064 71858 16/// /2303 11043 21060 39835 40119 58009 60001 333 11039 21154 70000 555 32222 40181
AAXX 14064 71861 46/// /2306 11066 21073 39396 40132 56013 6///1 333 11056 21085 7//// 555 32117 40131
AAXX 14064 71435 16/// /1403 11026 21026 39614 40219 58016 60001 333 11026 21088 70000
AAXX 14064 71444 16/// /2203 11072 21077 39368 40138 56014 60001 333 11069 21104 70000
AAXX 14064 71472 17/// /1404 10029 20009 30159 40177 53002 69941 7//4/ 333 10057 20029 70006 555 30131 40152
AAXX 14064 71151 16/// /1808 11014 21016 39664 40176 58020 60001 333 11014 21114 70000
AAXX 14064 71155 16/// ///// 11032 21063 60001 333 11014 21135 70000
AAXX 14064 71156 16/// /3005 11010 21044 38995 40093 52027 60001 333 10003 21078 70000
AAXX 14064 71157 46/// ///// 11010 21050 6///1 333 10003 21096 7////
AAXX 14064 71158 16/// /1908 11062 21072 39865 40146 56014 60001 333 11061 21202 70000 555 31821 40181
AAXX 14064 71159 16/// /0505 11074 21106 30197 40271 53003 60001 333 11004 21075 70005 555 30617 40021
AAXX 14064 71160 16/// /0105 11246 21283 39923 40145 51024 60001 333 11013 21257 7////
AAXX 14064 71162 16/// /0113 11203 21235 39926 40142 53023 60001 333 10000 21203 70000 555 33146 40103
AAXX 14064 71164 46/// /3001 11299 21332 30143 40229 53011 6///1 333 11150 21301 7////
AAXX 14064 71165 46/// ///00 11284 21312 39888 40186 53022 6///1 333 11068 21293 7////
AAXX 14064 71166 46/// /3604 39520 51026 6///1 333 7////
AAXX 14064 71168 16/// /1206 10019 20019 39570 40158 58026 60001 333 10022 21036 70000
AAXX 14064 71954 46/// /2106 11050 21063 39720 40099 56006 6///1 333 11039 21084 7//// 555 32027 40111
AAXX 14064 71956 16/// /1104 10027 20027 30024 40259 58014 60001 333 10037 20023 70000
AAXX 14064 71959 16/// ///// 10018 21012 60001 333 10057 21022 70006
AAXX 14064 71970 16/// /1403 11051 21072 39481 40071 58012 60001 333 11036 21087 70000 555 32322 40111
AAXX 14064 71977 46/// /0000 11297 21297 39418 40166 50002 6///1 333 11154 21302 7////
AAXX 14064 71978 46/// /2003 11311 21343 39835 40167 54000 6///1 333 11202 21321 7////
AAXX 14064 71989 16/// /0503 11333 21367 30083 40100 53004 60001 333 11318 21358 70000
AAXX 14064 71015 17/// ///// 11016 69931 7//4/ 333 11006 21150 70006
AAXX 14064 71017 16/// /0112 11218 21240 39998 40013 53018 60001 333 11214 21237 70000 555 30426 40151
AAXX 14064 71018 16/// ///20 11266 21294 39921 40010 53001 60001 333 11222 21269 70056
AAXX 14064 71019 46/// /3601 11036 21058 39981 40290 58004 6///1 333 10015 21083 7////
AAXX 14064 71020 46/// /3602 11111 21131 39879 40137 51020 6///1 333 10044 21111 7//// 555 32427 40071
AAXX 14064 71021 46/// /1102 11098 21132 39781 40135 51022 6///1 333 10031 21098 7//// 555 32526 40071
AAXX 14064 71551 16/// /2104 11064 21069 39436 40101 57011 60001 333 11014 21090 70000 555 31917 40111
AAXX 14064 71552 46/// /1708 11020 21037 6///1 333 11020 21139 7//// 555 32318 40221
AAXX 14064 71556 16/// /2205 11054 21064 39504 40116 55010 60001 333 11048 21063 70000 555 31922 40091
AAXX 14064 71564 16/// /2208 11019 21041 39785 40158 56017 60001 333 11018 21156 70000 555 32018 40191
AAXX 14064 71579 16/// /2104 11018 21035 39866 40154 56020 60001 333 11016 21095 70000
AAXX 14064 71581 16/// /0000 10002 21001 39788 40278 58003 60001 333 10024 21003 70000
AAXX 14064 71585 17/// /0902 11053 21056 39605 40063 51008 69991 7//4/ 333 11013 21087 70009 555 32417 40071
AAXX 14064 71311 16/// /0115 10008 21005 30227 40252 53003 60001 333 10072 21048 70005 555 30120 40061
AAXX 14064 71317 16/// /0410 10023 20002 30187 40234 55002 60001 333 10038 21029 70000 555 30417 40061
AAXX 14064 71322 16/// /3125 11220 21239 30022 40035 51046 60001 333 11035 21220 70029 555 33241 40013
AAXX 14064 71334 46/// /3303 11075 21116 39739 40069 51023 6///1 333 11037 21112 7//// 555 32332 40152
AAXX 14064 71723 16/// /0702 10000 21005 30283 40293 53003 60001 333 10006 21011 70014
AAXX 14064 71736 46/// ///// 11040 21099 6///1 333 11018 21075 7////
AAXX 14064 71742 46/// /3207 11112 21133 30081 40274 56001 6///1 333 11037 21112 7////
AAXX 14064 71744 16/// /0205 11012 21038 30246 40288 54000 60001 333 10015 21080 70000
AAXX 14064 71667 16/// /0804 11029 21044 39985 40236 58023 60001 333 11029 21057 70000
AAXX 14064 71669 16/// /2903 11004 21063 38465 40089 53012 60001 333 10018 21197 70000
AAXX 14064 71696 16/// /3111 11087 21112 30017 40054 51039 60001 333 11030 21132 70000 555 32236 40143
AAXX 14064 71812 46308 93026 11220 21258 30021 40035 5/045 6///1 333 7////
AAXX 14064 71837 16/// ///// 11030 60001 333 11018 21148 70003
AAXX 14064 71839 16/// ///// 11016 60001 333 11002 21189 7////
AAXX 14064 71840 46/// /2009 11025 21040 6///1 333 11019 21139 7//// 555 31825 40171
AAXX 14064 71752 16/// /1402 10010 20002 30060 40280 58008 60001 333 10072 21039 70000
AAXX 14064 71754 16/// /1804 11060 21084 39422 40093 58005 60001 333 11031 21107 70000
AAXX 14064 71758 16/// /0311 10023 20008 30148 40226 55001 60001 333 7////
AAXX 14064 71771 46/// /2606 10022 20005 30154 40175 51002 6///1 333 10056 20022 7////
AAXX 14064 71783 16/// /2701 10015 21004 30120 40194 51010 60001 333 10049 21022 70000
AAXX 14064 71120 11374 82208 11040 21057 39410 40073 55011 60011 77122 887// 333 11019 21100 44004 70005 90952 93101 555 10010 20005
AAXX 14064 71148 16/// /2211 11036 21043 39569 40157 56019 60001 333 11031 21121 70000 555 32021 40181
AAXX 14064 71188 11462 83605 11043 21070 30256 40300 53001 60011 77177 885// 333 11020 21070 47020 70058 90983 93101 555 10058 20058
AAXX 14064 71501 16/// /1211 11262 21289 30188 40190 53001 60001 333 11224 21276 70000
AAXX 14064 71505 46/// /2301 11224 21251 39397 40148 53012 6///1 333 11025 21226 7////
AAXX 14064 71512 16/// /0104 11148 21160 30297 40312 58001 60001 333 11082 21174 70000
AAXX 14064 71515 16/// /2108 11062 21065 39414 40125 56012 60001 333 11059 21072 70000 555 33137 40063
AAXX 14064 71522 46/// /3104 11146 21170 39805 40311 56006 6///1 333 11038 21146 70000
AAXX 14064 71402 46/// /3413 11062 21137 30150 40268 55002 6///1 333 11046 21066 7//// 555 33428 40032
AAXX 14064 71407 16/// /2516 11144 21163 39757 49777 53013 60001 333 11121 21244 70018 555 31344 40143
AAXX 14064 71434 16/// /2311 11064 21086 30056 40123 53005 60001 333 11064 70000 555 31929 40012
AAXX 14064 71361 16/// /0307 11124 21160 39932 40143 53024 60001 333 10016 21124 70000 555 32722 40071
AAXX 14064 71362 16/// /3504 11119 21139 39849 40108 51020 60001 333 11008 21119 70000 555 32118 40061
AAXX 14064 71364 16/// /0907 11288 21319 30063 40204 53006 60001 333 11195 21292 70000
AAXX 14064 71365 16/// /3511 11156 21187 39947 40165 53022 60001 333 10030 21156 70000 555 30019 40031
AAXX 14064 71381 47/// /3305 6///1 7//4/ 333 21043 7////
AAXX 14064 71382 16/// /0000 11050 21058 39318 40269 56002 60001 333 11018 21050 70010
AAXX 14064 71393 16/// ///// 10031 21056 38791 40056 53001 60001 333 10034 21130 70000
AAXX 14064 71885 16/// ///// 11019 60001 333 10002 21137 70000
AAXX 14064 71250 16/// /0112 11044 21072 30103 40242 53003 60001 333 10008 21049 70000 555 33520 40061
AAXX 14064 71270 16/// /2102 10035 21010 30050 40271 56007 60001 333 10073 20031 70000
AAXX 14064 71296 16/// /1804 10015 21012 39964 40273 57006 60001 333 10077 21012 70000
AAXX 14064 71297 16/// /2902 10024 20004 60001 333 10088 21023 70000
AAXX 1406/ 89872 46/// ///// 11029 39758 4//// 5////
AAXX 1406/ 89869 46/// ///// 11035 39739 4//// 5////
AAXX 1406/ 89329 46/// ///// 11130 38659 4//// 5////
AAXX 1406/ 89799 46/// ///// 11275 4//// 5////
AAXX 1406/ 89327 46/// ///// 11041 39540 4//// 5////
AAXX 1406/ 89332 46/// ///// 11089 39127 4//// 5////
AAXX 1406/ 89108 46/// ///// 11240 36837 4//// 5////
AAXX 1406/ 89879 46/// ///// 10006 39743 4//// 5////
BBXX 44150 14061 99425 70640 46/// /0310 10076 40200 57009 22200 00107 11002 70012 333 91212
AAXX 14064 71807 16/// /0319 11035 21072 30233 40252 53007 60001 333 10028 21036 70000 555 30526 40061
AAXX 14064 71810 16/// /0202 11090 21105 30233 40302 51001 60001 333 11059 21121 70000 555 30518 40101
AAXX 14064 71815 11574 50505 11074 21108 30245 40277 52002 69921 70382 85500 333 10002 21075 44008 70016 90941 555 10018 20016 30620 40020
AAXX 14064 71719 16/// /0408 11010 21055 30286 40292 56003 60001 333 10018 21013 70004 555 10010 20004 30424 40201
AAXX 14064 71435 16/// /1403 11026 21026 39614 40219 58016 60001 333 11026 21088 70000
AAXX 14064 71444 16/// /2203 11072 21077 39368 40138 56014 60001 333 11069 21104 70000
AAXX 14064 71472 17/// /1404 10029 20009 30159 40177 53002 69941 7//4/ 333 10057 20029 70006 555 30131 40152
AAXX 14064 71858 16/// /2303 11043 21060 39835 40119 58009 60001 333 11039 21154 70000 555 32222 40181
AAXX 14064 71861 46/// /2306 11066 21073 39396 40132 56013 6///1 333 11056 21085 7//// 555 32117 40131
AAXX 14064 71450 16/// /2108 11052 21069 39380 40106 56011 60001 333 11042 21067 70000 555 31819 40081
AAXX 14064 71455 46/// /2010 11067 21073 39292 40097 56014 6///1 333 11040 21085 7//// 555 32020 40091
AAXX 14064 71465 46/// /1906 10058 20025 30055 40274 58009 6///1 333 10061 20001 7////
AAXX 14064 71470 16/// /2915 11304 21335 39473 40131 51018 60001 333 11112 21308 70005 555 33240 40133
AAXX 14064 71476 16/// /0811 30165 50006 60001 333 7////
AAXX 14064 71478 16/// /0415 10048 20032 30032 40169 50004 60001 333 10081 20046 70064 555 31653 40123
AAXX 14064 71479 16/// /1024 10058 20049 30034 40155 53005 60001 333 10059 20040 70000 555 31243 40123
AAXX 14064 71482 46/// /0803 10022 30143 40182 53010 6///1 333 10050 20000 7////
AAXX 14064 71484 16/// /0902 10030 20009 30148 40166 50003 60001 333 10060 20018 70000 555 30031 40162
AAXX 14064 71487 16/// /2207 11059 21067 39233 40109 56015 60001 333 11045 21078 70000 555 31917 40121
AAXX 14064 71489 16/// /1906 11078 21093 39275 40089 58014 60001 333 11046 21114 70000
AAXX 14064 71492 46/// ///06 11334 21368 39438 40180 53014 6///1 333 11264 21343 7////
AAXX 14064 71920 16/// /0214 10015 20002 30222 40228 58005 60001 333 10096 20003 70000 555 30323 40061
AAXX 14064 71151 16/// /1808 11014 21016 39664 40176 58020 60001 333 11014 21114 70000
AAXX 14064 71155 16/// ///// 11032 21063 60001 333 11014 21135 70000
AAXX 14064 71156 16/// /3005 11010 21044 38995 40093 52027 60001 333 10003 21078 70000
AAXX 14064 71157 46/// ///// 11010 21050 6///1 333 10003 21096 7////
AAXX 14064 71158 16/// /1908 11062 21072 39865 40146 56014 60001 333 11061 21202 70000 555 31821 40181
AAXX 14064 71159 16/// /0505 11074 21106 30197 40271 53003 60001 333 11004 21075 70005 555 30617 40021
AAXX 14064 71160 16/// /0105 11246 21283 39923 40145 51024 60001 333 11013 21257 7////
AAXX 14064 71162 16/// /0113 11203 21235 39926 40142 53023 60001 333 10000 21203 70000 555 33146 40103
AAXX 14064 71164 46/// /3001 11299 21332 30143 40229 53011 6///1 333 11150 21301 7////
AAXX 14064 71165 46/// ///00 11284 21312 39888 40186 53022 6///1 333 11068 21293 7////
AAXX 14064 71166 46/// /3604 39520 51026 6///1 333 7////
AAXX 14064 71168 16/// /1206 10019 20019 39570 40158 58026 60001 333 10022 21036 70000
AAXX 14064 71243 16/// /2716 11010 21081 39001 40105 53005 60001 333 11006 21177 70000 555 32627 40061
AAXX 14064 71246 17/// /2402 11050 21061 39420 40088 51016 69961 7//4/ 333 11028 21094 70006
AAXX 14064 71361 16/// /0307 11124 21160 39932 40143 53024 60001 333 10016 21124 70000 555 32722 40071
AAXX 14064 71362 16/// /3504 11119 21139 39849 40108 51020 60001 333 11008 21119 70000 555 32118 40061
AAXX 14064 71364 16/// /0907 11288 21319 30063 40204 53006 60001 333 11195 21292 70000
AAXX 14064 71365 16/// /3511 11156 21187 39947 40165 53022 60001 333 10030 21156 70000 555 30019 40031
AAXX 14064 71381 47/// /3305 6///1 7//4/ 333 21043 7////
AAXX 14064 71382 16/// /0000 11050 21058 39318 40269 56002 60001 333 11018 21050 70010
AAXX 14064 71393 16/// ///// 10031 21056 38791 40056 53001 60001 333 10034 21130 70000
AAXX 14064 71402 46/// /3413 11062 21137 30150 40268 55002 6///1 333 11046 21066 7//// 555 33428 40032
AAXX 14064 71407 16/// /2516 11144 21163 39757 49777 53013 60001 333 11121 21244 70018 555 31344 40143
AAXX 14064 71434 16/// /2311 11064 21086 30056 40123 53005 60001 333 11064 70000 555 31929 40012
AAXX 14064 71551 16/// /2104 11064 21069 39436 40101 57011 60001 333 11014 21090 70000 555 31917 40111
AAXX 14064 71552 46/// /1708 11020 21037 6///1 333 11020 21139 7//// 555 32318 40221
AAXX 14064 71556 16/// /2205 11054 21064 39504 40116 55010 60001 333 11048 21063 70000 555 31922 40091
AAXX 14064 71564 16/// /2208 11019 21041 39785 40158 56017 60001 333 11018 21156 70000 555 32018 40191
AAXX 14064 71579 16/// /2104 11018 21035 39866 40154 56020 60001 333 11016 21095 70000
AAXX 14064 71581 16/// /0000 10002 21001 39788 40278 58003 60001 333 10024 21003 70000
AAXX 14064 71585 17/// /0902 11053 21056 39605 40063 51008 69991 7//4/ 333 11013 21087 70009 555 32417 40071
AAXX 14064 71501 16/// /1211 11262 21289 30188 40190 53001 60001 333 11224 21276 70000
AAXX 14064 71505 46/// /2301 11224 21251 39397 40148 53012 6///1 333 11025 21226 7////
AAXX 14064 71512 16/// /0104 11148 21160 30297 40312 58001 60001 333 11082 21174 70000
AAXX 14064 71515 16/// /2108 11062 21065 39414 40125 56012 60001 333 11059 21072 70000 555 33137 40063
AAXX 14064 71522 46/// /3104 11146 21170 39805 40311 56006 6///1 333 11038 21146 70000
AAXX 14064 71752 16/// /1402 10010 20002 30060 40280 58008 60001 333 10072 21039 70000
AAXX 14064 71754 16/// /1804 11060 21084 39422 40093 58005 60001 333 11031 21107 70000
AAXX 14064 71758 16/// /0311 10023 20008 30148 40226 55001 60001 333 7////
AAXX 14064 71771 46/// /2606 10022 20005 30154 40175 51002 6///1 333 10056 20022 7////
AAXX 14064 71783 16/// /2701 10015 21004 30120 40194 51010 60001 333 10049 21022 70000
AAXX 14064 71015 17/// ///// 11016 69931 7//4/ 333 11006 21150 70006
AAXX 14064 71017 16/// /0112 11218 21240 39998 40013 53018 60001 333 11214 21237 70000 555 30426 40151
AAXX 14064 71018 16/// ///20 11266 21294 39921 40010 53001 60001 333 11222 21269 70056
AAXX 14064 71019 46/// /3601 11036 21058 39981 40290 58004 6///1 333 10015 21083 7////
AAXX 14064 71020 46/// /3602 11111 21131 39879 40137 51020 6///1 333 10044 21111 7//// 555 32427 40071
AAXX 14064 71021 46/// /1102 11098 21132 39781 40135 51022 6///1 333 10031 21098 7//// 555 32526 40071
AAXX 14064 71120 11374 82208 11040 21057 39410 40073 55011 60011 77122 887// 333 11019 21100 44004 70005 90952 93101 555 10010 20005
AAXX 14064 71148 16/// /2211 11036 21043 39569 40157 56019 60001 333 11031 21121 70000 555 32021 40181
AAXX 14064 71188 11462 83605 11043 21070 30256 40300 53001 60011 77177 885// 333 11020 21070 47020 70058 90983 93101 555 10058 20058
AAXX 14064 71311 16/// /0115 10008 21005 30227 40252 53003 60001 333 10072 21048 70005 555 30120 40061
AAXX 14064 71317 16/// /0410 10023 20002 30187 40234 55002 60001 333 10038 21029 70000 555 30417 40061
AAXX 14064 71322 16/// /3125 11220 21239 30022 40035 51046 60001 333 11035 21220 70029 555 33241 40013
AAXX 14064 71334 46/// /3303 11075 21116 39739 40069 51023 6///1 333 11037 21112 7//// 555 32332 40152
AAXX 14064 71110 16/// /0315 11037 21072 30171 40232 53007 60001 333 10034 21037 70000 555 30423 40041
AAXX 14064 71139 16/// /2302 11105 21117 38603 40081 57013 60001 333 11082 21111 70000
AAXX 14064 71141 16/// /0118 11180 21196 39819 49845 52011 60001 333 11167 21191 70000 555 31432 40072
AAXX 14064 71087 46/// /0502 11136 21171 39946 40155 51022 6///1 333 10010 21136 7//// 555 32720 40081
AAXX 14064 71723 16/// /0702 10000 21005 30283 40293 53003 60001 333 10006 21011 70014
AAXX 14064 71736 46/// ///// 11040 21099 6///1 333 11018 21075 7////
AAXX 14064 71742 46/// /3207 11112 21133 30081 40274 56001 6///1 333 11037 21112 7////
AAXX 14064 71744 16/// /0205 11012 21038 30246 40288 54000 60001 333 10015 21080 70000
AAXX 14064 71812 46308 93026 11220 21258 30021 40035 5/045 6///1 333 7////
AAXX 14064 71837 16/// ///// 11030 60001 333 11018 21148 70003
AAXX 14064 71839 16/// ///// 11016 60001 333 11002 21189 7////
AAXX 14064 71840 46/// /2009 11025 21040 6///1 333 11019 21139 7//// 555 31825 40171
AAXX 14064 71885 16/// ///// 11019 60001 333 10002 21137 70000
AAXX 14064 71667 16/// /0804 11029 21044 39985 40236 58023 60001 333 11029 21057 70000
AAXX 14064 71669 16/// /2903 11004 21063 38465 40089 53012 60001 333 10018 21197 70000
AAXX 14064 71696 16/// /3111 11087 21112 30017 40054 51039 60001 333 11030 21132 70000 555 32236 40143
AAXX 14064 71954 46/// /2106 11050 21063 39720 40099 56006 6///1 333 11039 21084 7//// 555 32027 40111
AAXX 14064 71956 16/// /1104 10027 20027 30024 40259 58014 60001 333 10037 20023 70000
AAXX 14064 71959 16/// ///// 10018 21012 60001 333 10057 21022 70006
AAXX 14064 71970 16/// /1403 11051 21072 39481 40071 58012 60001 333 11036 21087 70000 555 32322 40111
AAXX 14064 71977 46/// /0000 11297 21297 39418 40166 50002 6///1 333 11154 21302 7////
AAXX 14064 71978 46/// /2003 11311 21343 39835 40167 54000 6///1 333 11202 21321 7////
AAXX 14064 71989 16/// /0503 11333 21367 30083 40100 53004 60001 333 11318 21358 70000
AAXX 14064 71250 16/// /0112 11044 21072 30103 40242 53003 60001 333 10008 21049 70000 555 33520 40061
AAXX 14064 71270 16/// /2102 10035 21010 30050 40271 56007 60001 333 10073 20031 70000
AAXX 14064 71296 16/// /1804 10015 21012 39964 40273 57006 60001 333 10077 21012 70000
AAXX 14064 71297 16/// /2902 10024 20004 60001 333 10088 21023 70000
AAXX 14061 37279 32999 20000 10053 21018 30087 40234 58004 80001 555 20022
AAXX 14061 37308 32999 02703 11043 21057 39632 40317 58016 333 21066
AAXX 14061 37531 32999 20000 11058 21065 39589 40358 52007 80050 333 21075
AAXX 14061 37553 32999 81801 10016 21012 39639 40306 53012 80031 333 21032
AAXX 14061 37651 16/// ///00 11015 21020 3//// 4//// 5//// 60002 333 21050
AAXX 14061 37492 NIL
BBXX SBLI 14061 99300 71420 43/98 70505 10170 40277 52018 22264 00202 2//// 4//// 426621110
BBXX SBLW 14063 99326 70396 43/98 71425 10194 40263 56019 22254 00212 2//// 4////
BBXX SLKQ 14061 99062 10917 43/98 60209 10281 40095 58014 22264 00289 2////4////
BBXX SLCO 14064 99246 11329 43/97 80215 10217 40163 56027 22234 00229 20303 40504
BBXX SLKR 14063 99030 70916 43/98 81814 10239 40136 52003 22254 00261 2//// 4////
AAXX 14064 04211 47/63 /0707 11132 21142 39854 40019 54000 78587 333 11129 21138
AAXX 14064 04220 07484 81502 11088 21095 39972 40025 52007 69912 78587 333 11088 21116 55300 20004 69907 70001 83/17 87/21 88/28
AAXX 14064 04221 47580 71011 11106 21171 39990 40029 52009 78587 333 11089 21122 85/22 87/26
AAXX 14064 04231 12584 80704 11176 21211 39982 40060 52007 6///2 885// 333 11176 21235 82622 88646
AAXX 14064 04234 47446 82810 11077 21121 30033 40043 52008 77177 333 11056 21082 88/14 91219 91014
AAXX 14064 04241 47210 80905 11093 21125 30006 40047 52007 77177 333 11081 21093 83/06 87/19 88/22
AAXX 14064 04250 07/05 93109 11066 21074 39927 40034 52005 60102 78787 333 11062 21071 55300 20000 60027 70095 89/02
AAXX 14064 04254 47/05 93105 11067 21086 39931 40048 52005 78687 333 11056 21076 89/07
AAXX 14064 04260 47458 13421 11054 21093 39984 40028 52010 78087 333 11046 21059 81/17 91134
AAXX 14064 04270 45884 80403 11087 21110 39923 49962 52002 333 11072 21093 88/58
AAXX 14064 04272 07384 7//// 11061 21066 39887 49960 54000 60022 70087 333 11060 21078 69927 70019 81/08 85/61 87/62
AAXX 14064 04312 46/// ///// 11345 21390 30076 40119 52005
AAXX 14064 04320 45580 70114 11143 21196 30069 40085 52006 333 11104 21198 81/24 87/35
AAXX 14064 04339 47/80 ///// 11103 21144 39915 40008 52007 78587 333 11102 21125 55300 20000
AAXX 14064 04360 06/// /2705 11091 21156 39892 49964 52001 6///2 333 11067 21104 55300 20000 6///7 70000
AAXX 14064 04361 469// 52002 11077 21163 39913 49967 52001 333 11036 21099 85/68
AAXX 14064 04390 07434 83217 11021 21040 39822 49915 52004 60072 77177 333 11021 21031 69997 70117 83/19 85/26 88/34
AAXX 14061 89064 36/// /2103 10012 29093 49922 57004
AAXX 14064 60621 36/// /0411 10085 20007 333 20080
AAXX 14064 60667 36/// /0000 10048 21063 333 20040
AAXX 14064 65501 32960 70000 10118 20039 39824 40144 80002 333 01000 20118 50674 55100 59001 87076
AAXX 14064 65502 32960 70000 10155 21009 39744 40126 80002 333 01300 20155 50754 55096 59010 87076
AAXX 14064 65503 31958 70000 10168 20034 39783 40130 70622 80002 333 01000 20158 50820 55100 51826 59007 87076
AAXX 14064 65505 32960 60406 10180 21015 39784 40123 80002 333 01600 20176 51074 55100 59011 86076
AAXX 14064 65507 32960 70000 10157 20021 39775 40127 80002 333 01100 20157 51044 55089 59009 87076
AAXX 14064 65510 31958 50606 10182 21009 39605 40120 70622 80002 333 01800 20179 51210 55094 59009 85076
AAXX 14064 65516 31958 60000 10150 20016 39814 40123 70622 80002 333 01200 20146 50784 55096 59009 86076
AAXX 14064 65518 32960 73602 10167 20005 39753 40119 80002 333 01200 20152 50754 55097 59003 87076
AAXX 14064 65522 31940 70000 10145 20052 39793 40124 70622 80002 333 01300 20145 50894 55092 59004 87076
AAXX 14064 60663 36/// /1405 10108 21036 333 20106
AAXX 14064 60619 36/// /0000 10025 21018 333 20025
AAXX 14064 60612 36/// /0109 10063 21119 333 20062
AAXX 14064 60664 36/// /0000 10064 21035 333 20063
BBXX 61002 14064 99421 10047 46/// ///19 10153 2//// 40138 57006 22200 00153 10604 70018
AAXX 14064 60662 36/// /0000 10069 21049 333 20068
AAXX 14064 60691 36/// /0414 10109 21119 333 20104
AAXX 14064 60692 36/// /0109 10128 21084 333 20124
AAXX 14061 48921 31456 52201 10182 20109 38583 48081 57007 71044 85200 333 59001
AAXX 14061 48924 31556 31802 10208 20158 39519 40145 57021 71044 82101 333 59005
AAXX 14061 48925 31456 23602 10195 20133 39407 40141 57024 71044 82200 333 58002
AAXX 14061 48926 32560 10902 10256 20159 39686 40152 57020 81200 333 59001
AAXX 14061 48927 32970 01402 10212 20109 39167 48646 57025 333 59003
AAXX 14061 48928 32965 02701 10198 20113 39081 48563 57034 333 59001
AAXX 14061 48930 32470 23401 10210 20151 39817 40171 57026 82100 333 58007
AAXX 14061 48935 32964 03201 10215 20061 38974 48470 57026 333 58005
AAXX 14061 48938 31556 21801 10212 20162 39834 40173 57010 70544 82100 333 58013
AAXX 14061 48940 31656 31801 10249 20161 39947 40143 57013 70544 83500 333 58006
AAXX 14061 48941 31962 01804 10260 20163 3//// 4//// 5//// 70544 333 5////
AAXX 14061 48944 31558 10805 10224 20122 39528 40119 57002 70544 81500 333 59002
AAXX 14061 48945 31657 13601 10265 20130 39973 40152 57024 70544 81501 333 59005
AAXX 14061 48946 31557 42402 10268 20227 39977 40142 57020 70544 82110 333 59009
AAXX 14061 48947 32461 50901 10260 20169 39981 40147 57024 83260 333 59031
AAXX 14061 48948 32462 60603 10245 20144 39930 40141 57020 82130 333 59018
AAXX 14061 48952 31558 43602 10285 20184 39920 40109 57012 70544 84800 333 59014
AAXX 14061 48953 31559 62701 10300 20197 39916 40079 57016 70544 82131 333 59010
AAXX 14061 48955 31750 43602 10280 20176 30005 40121 57018 70544 83500 333 59010
AAXX 14061 48957 31565 70901 10290 20199 39986 40092 57037 70544 8587/ 333 59010
AAXX 14061 48921 31456 52201 10182 20109 38583 48081 57007 71044 85200 333 59001
AAXX 14061 48924 31556 31802 10208 20158 39519 40145 57021 71044 82101 333 59005
AAXX 14061 48925 31456 23602 10195 20133 39407 40141 57024 71044 82200 333 58002
AAXX 14061 48926 32560 10902 10256 20159 39686 40152 57020 81200 333 59001
AAXX 14061 48927 32970 01402 10212 20109 39167 48646 57025 333 59003
AAXX 14061 48928 32965 02701 10198 20113 39081 48563 57034 333 59001
AAXX 14061 48930 32470 23401 10210 20151 39817 40171 57026 82100 333 58007
AAXX 14061 48935 32964 03201 10215 20061 38974 48470 57026 333 58005
AAXX 14061 48938 31556 21801 10212 20162 39834 40173 57010 70544 82100 333 58013
AAXX 14061 48940 31656 31801 10249 20161 39947 40143 57013 70544 83500 333 58006
AAXX 14061 48941 31962 01804 10260 20163 3//// 4//// 5//// 70544 333 5////
AAXX 14061 48944 31558 10805 10224 20122 39528 40119 57002 70544 81500 333 59002
AAXX 14061 48945 31657 13601 10265 20130 39973 40152 57024 70544 81501 333 59005
AAXX 14061 48946 31557 42402 10268 20227 39977 40142 57020 70544 82110 333 59009
AAXX 14061 48947 32461 50901 10260 20169 39981 40147 57024 83260 333 59031
AAXX 14061 48948 32462 60603 10245 20144 39930 40141 57020 82130 333 59018
AAXX 14061 48952 31558 43602 10285 20184 39920 40109 57012 70544 84800 333 59014
AAXX 14061 48953 31559 62701 10300 20197 39916 40079 57016 70544 82131 333 59010
AAXX 14061 48955 31750 43602 10280 20176 30005 40121 57018 70544 83500 333 59010
AAXX 14061 48957 31565 70901 10290 20199 39986 40092 57037 70544 8587/ 333 59010
AAXX 14064 61974 12581 30304 10308 20237 40111 60004 82801 333 20221 59003 82820 94323
AAXX 14064 61986 12580 30506 10301 20258 40113 60314 82202 333 0//29 20248 58005 83820 83075 94321
AAXX 14064 61988 11465 70310 10268 20230 40133 60004 71522 85836 333 0//00 20247 50602 58000 85817 86275
AAXX 14064 61989 12475 70206 10281 20222 40139 60004 84847 333 0//00 20230 59001 83817 87273
AAXX 14064 61990 11258 71102 10257 20248 40123 60214 72582 87342 333 02221 20233 50632 59005 81705 81914 84815 84322
AAXX 14064 61995 11475 61306 10265 20216 39644 60234 86200 333 01929 20208 50072 59002 86818 94323
AAXX 14060 67584 12580 50402 10226 20189 60024 83160 333 20192 5//// 55/// 70022 83820 85360 555 10236 7//98
AAXX 14060 67690 11480 70302 10260 20229 60254 70396 84538 333 20214 5//// 55/// 70254 84615 87280 555 10299 7//96
AAXX 14060 67695 32580 43303 10270 20212 81130 333 20224 81525 84360 555 210305 7//92
AAXX 14060 67699 32580 70601 10270 20228 82238 333 20202 5//// 55/// 82820 85360 87275 555 10336 7//92
AAXX 14061 01007 11989 00000 11075 21120 30016 40025 52003 60002 70200 333 21104 48004 70000 91103
AAXX 14061 01205 46/// ///// 10061 20013 39556 49599 56022 333 20059
AAXX 14064 68399 36/// /0603 10283 20224 39992 40098 52011 333 20223 91016 555 10352 91010
AAXX 14030 44214 32998 71501 11163 21230 38360 40487 58007 82048
AAXX 14030 44231 31996 30000 11237 21297 38838 40563 58008 70421
AAXX 14030 44259 32997 12804 11166 21218 39375 40352 58005 80002
AAXX 14030 44277 32999 00201 11139 21191 37866 40479 58004
AAXX 14030 44288 32999 02904 11121 21291 38225 40425 58011
AAXX 14030 44292 41995 02603 11211 21236 38786 40466 58008 77671 333 96004
AAXX 14030 44304 32999 42308 11208 21248 39066 40410 58017 84081
AAXX 14030 44354 32999 02905 11163 21214 39206 40415 58003
AAXX 14030 44373 32999 02902 11141 21196 38624 40430 56009
BBXX DCAX2 14063 99266 11329 41298 70311 10250 20220 40176 57024 70200 87174 22233 20502 3//// 4//// 5//// 80230
BBXX PBEO 14063 99460 70077 41397 62634 10105 20062 40078 53008 70022 867// 22212 02125 20506 328// 40807 80083
BBXX A8UT7 14064 99401 70109 41598 63015 10160 20127 40189 52009 70322 85817 22282 20604 329// 41012 80140
BBXX C6OM8 14060 99064 70292 41697 30705 10261 20230 40103 56020 70211 834// 22243 06274 20402 307// 40402 5//// 80240
AAXX 14064 78922 46/// /1006 10258/20221 30066/40110 56014
BBXX A8AX3 14063 99412 70089 41/98 62531 10144 40219 51028 72582 8//// 22234 20404 329// 40707
BBXX C6CU6 14063 99363 70282 41698 30110 10165 20120 40300 51010 70200 81141 22263 04190 20000 335// 41506 5//// 80140
BBXX 44255 14061 99473 70573 46/// /0411 11016 40240 5//// 22200 00041 10503 70017 333 91213
AAXX 14064 48409 31956 60000 10270 20178 39976 40124 57028 70522 80005 333 59011
AAXX 14060 44203 32599 50000 11328 21351 38521 40632 54000 82541
AAXX 14060 44207 32999 50000 11229 21261 38388 40492 56004 82044
AAXX 14060 44212 32999 70000 11232 21257 39304 40559 58003 80008
AAXX 14060 44213 32999 50000 11226 21265 38936 40571 57005 80004
AAXX 14060 44215 31997 70000 11246 21270 38532 40570 52009 77610 80008 333 96010
AAXX 14060 44218 31696 73001 11186 21219 38727 40518 58004 74144 84710
AAXX 14060 44225 31993 03204 11362 21378 38387 40705 58015 74244
AAXX 14060 44230 32998 13502 11215 21265 38903 40530 58008 81040
AAXX 14060 44232 32999 12602 11228 21264 39238 40494 57010 80001
AAXX 14060 44237 32999 20000 11209 21257 38564 40460 57008 82041
AAXX 14060 44239 32999 11701 11199 21257 38892 40444 56007 80004
AAXX 14060 44241 32999 61801 11203 21236 39378 40449 58011 86080
AAXX 14060 44256 32999 43205 11148 21191 39400 40310 56003 82540
AAXX 14060 44265 32999 30000 11153 21204 38947 40449 58007 80008
AAXX 14060 44272 32998 00000 11205 21272 38308 40481 57006
AAXX 14060 44275 32998 03401 11210 21250 37776 40483 57005
AAXX 14060 44282 32999 12303 11125 21269 38369 40410 58008 80001
AAXX 14060 44284 32999 02701 11245 21277 37918 40599 58003
AAXX 14060 44285 32999 00000 11203 21222 38392 40486 58013
AAXX 14060 44287 32999 02101 11174 21244 38191 40499 58006
AAXX 14060 44294 32998 03305 11200 21238 38630 40466 57006
AAXX 14060 44298 32899 23205 11212 21218 38787 40434 58012 82040
AAXX 14060 44302 32999 22704 11184 21246 39169 40370 57023 80009
AAXX 14060 44305 32999 22705 11177 21237 39116 40362 58009 82040
AAXX 14060 44313 41999 73203 11162 21196 39445 40337 54000 70371 87700
AAXX 14060 44314 32998 03207 11144 21195 39203 40356 57001
AAXX 14060 44317 31998 03207 11165 21215 38995 40370 57008 70230
AAXX 14060 44336 32999 00000 11164 21206 38794 40437 58005
AAXX 14060 44341 32999 03104 11161 21212 38686 40452 58008
AAXX 14060 44347 32999 22705 11134 21186 38812 40421 58010 82040
AAXX 14060 44352 32999 02707 11161 21203 38984 40370 56013
AAXX 14060 44358 32998 02906 11152 21186 39182 40409 57012
AAXX 14060 44214 32998 71501 11163 21230 38360 40487 58007 82048
AAXX 14060 44231 31996 30000 11237 21297 38838 40563 58008 70421
AAXX 14060 44259 32997 12804 11166 21218 39375 40352 58005 80002
AAXX 14060 44277 32999 00201 11139 21191 37866 40479 58004
AAXX 14060 44288 32999 02904 11121 21291 38225 40425 58011
AAXX 14060 44292 41995 02603 11211 21236 38786 40466 58008 77671 333 96004
AAXX 14060 44304 32999 42308 11208 21248 39066 40410 58017 84081
AAXX 14060 44354 32999 02905 11163 21214 39206 40415 58003
AAXX 14060 44373 32999 02902 11141 21196 38624 40430 56009
AAXX 14061 50136 32970 73402 11191 21257 39719 40318 57006 81032 333 21364
AAXX 14061 50745 32968 13603 11111 21188 30069 40266 52003 81030 333 21160
AAXX 14061 50774 11660 20000 11125 21170 39888 40210 52014 69981 72277 81502 333 21132
AAXX 14061 50788 11960 82903 11115 21128 30075 40165 52016 69921 77070 8802/ 333 21128
AAXX 14061 51133 NIL
AAXX 14061 51431 NIL
AAXX 14061 51747 NIL
AAXX 14061 52203 NIL
AAXX 14061 52418 NIL
AAXX 14061 52681 NIL
AAXX 14061 53564 NIL
AAXX 14061 53614 32980 03602 11039 21128 39027 40385 57018 333 00853 21113
AAXX 14061 53646 32975 02704 11042 21170 38964 40387 57011 333 00855 21149
AAXX 14061 53798 NIL
AAXX 14061 53845 32968 70902 10011 21110 39183 40350 57024 80002 333 00756 21069
AAXX 14061 53959 NIL
AAXX 14061 54094 11965 12904 11078 21157 39895 40210 52015 69911 70080 80002 333 21124
AAXX 14061 54102 32980 02506 11167 21217 39108 40403 57009 333 21240
AAXX 14061 54161 32565 13204 11082 21173 39960 40270 54000 81100 333 21142
AAXX 14061 54292 NIL
AAXX 14061 54374 11970 03204 11059 21154 39769 40254 52009 69901 70070 333 21092
AAXX 14061 54423 NIL
AAXX 14061 54618 NIL
AAXX 14061 54843 32780 83205 10028 21033 30270 40299 52002 885// 333 21004
AAXX 14061 54909 32966 73605 10040 21055 30235 40301 57004 80002 333 21009
AAXX 14061 56029 32980 02501 10019 21245 36433 57029 333 00102 21162
AAXX 14061 57127 NIL
AAXX 14061 57131 NIL
BBXX 44255 14061 99473 70573 46/// /0411 11016 40240 5//// 22200 00041 10503 70017 333 91213
AAXX 14061 50953 11770 62703 11091 21152 30049 40237 52014 69901 70070 86500 333 21129
AAXX 14061 53588 32980 02510 11134 21216 37792 57005 333 21156 91118 91525
AAXX 14061 53772 32965 01601 10011 21145 39374 40328 57018 333 21040
AAXX 14061 54342 32575 12904 11053 21168 30229 40293 57006 81100 333 21084
AAXX 14030 44203 32599 50000 11328 21351 38521 40632 54000 82541
AAXX 14030 44207 32999 50000 11229 21261 38388 40492 56004 82044
AAXX 14030 44212 32999 70000 11232 21257 39304 40559 58003 80008
AAXX 14030 44213 32999 50000 11226 21265 38936 40571 57005 80004
AAXX 14030 44215 31997 70000 11246 21270 38532 40570 52009 77610 80008 333 96010
AAXX 14030 44218 31696 73001 11186 21219 38727 40518 58004 74144 84710
AAXX 14030 44225 31993 03204 11362 21378 38387 40705 58015 74244
AAXX 14030 44230 32998 13502 11215 21265 38903 40530 58008 81040
AAXX 14030 44232 32999 12602 11228 21264 39238 40494 57010 80001
AAXX 14030 44237 32999 20000 11209 21257 38564 40460 57008 82041
AAXX 14030 44239 32999 11701 11199 21257 38892 40444 56007 80004
AAXX 14030 44241 32999 61801 11203 21236 39378 40449 58011 86080
AAXX 14030 44256 32999 43205 11148 21191 39400 40310 56003 82540
AAXX 14030 44265 32999 30000 11153 21204 38947 40449 58007 80008
AAXX 14030 44272 32998 00000 11205 21272 38308 40481 57006
AAXX 14030 44275 32998 03401 11210 21250 37776 40483 57005
AAXX 14030 44282 32999 12303 11125 21269 38369 40410 58008 80001
AAXX 14030 44284 32999 02701 11245 21277 37918 40599 58003
AAXX 14030 44285 32999 00000 11203 21222 38392 40486 58013
AAXX 14030 44287 32999 02101 11174 21244 38191 40499 58006
AAXX 14030 44294 32998 03305 11200 21238 38630 40466 57006
AAXX 14030 44298 32899 23205 11212 21218 38787 40434 58012 82040
AAXX 14030 44302 32999 22704 11184 21246 39169 40370 57023 80009
AAXX 14030 44305 32999 22705 11177 21237 39116 40362 58009 82040
AAXX 14030 44313 41999 73203 11162 21196 39445 40337 54000 70371 87700
AAXX 14030 44314 32998 03207 11144 21195 39203 40356 57001
AAXX 14030 44317 31998 03207 11165 21215 38995 40370 57008 70230
AAXX 14030 44336 32999 00000 11164 21206 38794 40437 58005
AAXX 14030 44341 32999 03104 11161 21212 38686 40452 58008
AAXX 14030 44347 32999 22705 11134 21186 38812 40421 58010 82040
AAXX 14030 44352 32999 02707 11161 21203 38984 40370 56013
AAXX 14030 44358 32998 02906 11152 21186 39182 40409 57012
AAXX 14061 56778 32565 72902 10134 20056 38118 57019 874// 333 00101 20042
AAXX 14061 57461 31958 80901 10114 20048 30113 40279 57021 71000 8807/ 333 20059
AAXX 14061 57816 11456 83603 10036 20036 38840 40264 57016 69991 76064 885// 333 00354 20031
AAXX 14061 58221 31958 20402 10107 21020 30241 40270 57018 70500 82040 333 21011
AAXX 14061 58238 31956 03603 10112 21045 30218 40264 57018 70500 333 21008
AAXX 14061 58251 31956 13404 10101 21010 30248 40253 57017 70540 80002 333 21011
AAXX 14061 58606 11757 70902 10114 21001 30194 40253 57017 69911 70560 875// 333 20066
AAXX 14061 58752 32961 01104 10175 20064 30174 40220 57026 333 20104
AAXX 14061 58847 32763 21602 10211 20077 30102 40203 57027 82540 333 20137
AAXX 14061 59287 32675 70203 10217 20064 30100 40186 57029 875// 333 20099
AAXX 14061 59758 32468 80404 10199 20140 30094 40170 57024 888// 333 20185
AAXX 14061 54401 32680 53405 11067 21210 39459 40383 57011 85500 333 21122
AAXX 14061 51133 32680 50202 11006 21076 39675 40350 57017 82502 333 05404 21059
AAXX 14061 52418 32970 71103 11023 21101 38998 40389 57020 80002 333 00351 21113
AAXX 14061 52681 32980 61802 11008 21133 38731 40372 57025 80002 333 00552 21128
AAXX 14061 53798 32960 50403 10013 21105 30232 40332 57016 80002 333 21009
AAXX 14061 54423 32980 03205 11043 21229 39797 40340 57016 333 21099
AAXX 14061 54618 32964 33603 10013 21192 30312 40330 57011 80002 333 21032
AAXX 14061 53564 32980 02904 11037 21184 39309 40388 57019 333 01057 21131
AAXX 14061 53959 32962 70903 10063 21104 39872 40329 57023 80002 333 21043
AAXX 14061 54292 11580 52905 11047 21157 39876 40208 52014 69901 70070 85100 333 21110
AAXX 14061 57127 32960 71101 10100 20019 39662 40279 57031 83032 333 20023
AAXX 14061 57131 32960 70402 10049 21020 39826 40337 57022 80002 333 21017
AAXX 14061 51076 32980 70201 11072 21145 39457 40408 57005 80002 333 00203 21177
AAXX 14061 52533 32980 71101 11021 21133 38627 40400 57008 82042 333 00553 21121
AAXX 14061 52652 32980 73601 11020 21129 38629 40387 57021 80002 333 00454 21162
AAXX 14061 52866 32970 71602 11030 21163 37739 57023 80002 333 00353 21142
AAXX 14061 52983 31957 72201 11012 21122 38166 57024 70500 80002 333 00301 21111
AAXX 14061 53915 32980 82901 10033 21114 38742 40331 57027 80007 333 00552 21063
AAXX 14061 54511 32980 03206 10006 21198 30288 40330 57016 333 21039
AAXX 14061 56080 32980 70901 11010 21186 37145 57038 80002 333 00252 21141
AAXX 14061 56096 32970 21601 10085 21047 39005 40272 57043 80002 333 00304 21009
AAXX 14061 57265 32962 70704 10126 20046 30163 40277 57020 80008 333 20011
AAXX 14061 57494 32965 73401 10120 20022 30234 40265 57022 8703/ 333 21001
AAXX 14061 58362 31959 33203 10114 20032 30240 40248 57009 70500 80002 333 20032
AAXX 14061 59134 11765 70202 10211 20123 30026 40192 57025 69901 70060 875// 333 20162
AAXX 14061 51431 31958 02901 11054 21064 39512 40347 57010 72844 333 05554 21088
AAXX 14061 51747 32970 02001 10000 21108 39043 40404 57005 333 00202 21199
AAXX 14061 52203 32980 71102 11006 21103 39454 40379 57018 80002 333 00202 21095
AAXX 14061 51243 11965 62202 11084 21125 39800 40398 57011 69901 70070 80002 333 00103 21140
AAXX 14061 51463 32980 40402 11033 21104 39211 40366 57013 80002 333 00001 21088
AAXX 14061 51573 32975 61401 11002 21107 30350 40396 57010 80002 333 00401 21069
AAXX 14061 51709 32965 22502 11019 21070 38840 40387 52002 81032 333 00500 21074
AAXX 14061 59431 32962 70202 10197 20054 30052 40200 57026 8703/ 333 20062
AAXX 14061 59644 32760 73403 10232 20089 30163 40180 57024 875// 333 20149
AAXX 14064 91324 32474 81308 10289 20248 30048 40050 83211 333 56399 70000 83819 84463 555 01406 91329 32474 80910 10300 20278 30112 40115 83201 333 562/9 70000 83818 88075 555 91406
AAXX 14064 91336 32474 80815 10306 20256 30105 40108 82101 333 562/9 70000 82818 88075 555 91406
AAXX 14064 91339 32474 80807 10283 20246 30058 40064 83202 333 562/9 70000 83818 88075 555 91406
AAXX 14064 91320 11474 80810 10306 20267 30081 40086 60011 70282 82209 333 562/9 70030 82816 86274 555 91406
AAXX 14060 44210 32999 60000 11180 21206 38630 58007 83011
AAXX 14060 44216 32999 50000 11236 21261 39165 40563 58003 82047
AAXX 14060 44217 32998 30000 11130 21173 37921 40436 51006 80001
AAXX 14060 44219 32998 00000 11238 21270 38750 40563 58005
AAXX 14060 44221 31998 00000 11302 21325 38730 40624 58008 70242
AAXX 14060 44224 32998 00000 11273 21298 38141 40584 58001
AAXX 14060 44229 32999 10000 11262 21294 37996 40568 58007 81040
AAXX 14060 44242 32998 71602 11190 21234 39440 40441 57009 87070
AAXX 14060 44243 32999 20000 11255 21284 39535 40469 58012 82040
AAXX 14060 44254 32998 32302 11126 21228 39083 40317 58015 80004
AAXX 14060 44257 32698 22905 11136 21227 39024 40363 58016 82709
AAXX 14060 44263 32998 20000 11188 21246 38143 40523 57002 80001
AAXX 14060 44266 32999 10000 11114 21176 37827 40386 54000 80001
AAXX 14060 44286 32998 02706 11178 21226 38728 40450 58007
AAXX 14060 44291 32998 20000 11219 21241 38825 40490 58009 80004
AAXX 14060 44325 32999 00000 11155 21189 38967 40466 58004
AAXX 14060 44329 32998 03403 11107 21191 37820 40387 50000
AAXX 14060 44338 32999 03201 11123 21175 38570 40422 58005
AAXX 14060 44348 32997 03207 11174 21200 38780 40425 58009
AAXX 14060 44374 32999 20503 11107 21202 38335 40431 58007 80008
AAXX 14060 44385 32999 22504 11112 21185 39025 40410 57014 80004
AAXX 14060 44386 32999 03204 11167 21209 39156 40434 58011
AAXX 14064 47407 12/80 71907 10007 21066 39988 40164 56017 60001 86201
AAXX 14064 47409 12/75 61905 10004 21076 30105 40160 56010 60001 81502
AAXX 14064 47418 12/82 42210 10021 21051 30126 40176 55008 60001 83032
AAXX 14064 47421 17/30 /1510 10011 21010 30110 40154 56021 69901 76776
AAXX 14064 47430 11/65 60804 10031 20007 30108 40163 57024 69901 78011 86200
AAXX 14064 47570 17/70 /1503 10076 21006 39939 40199 56010 60001 70030
AAXX 14064 47575 11/80 70808 10051 21014 30159 40164 58020 69901 72161 875//
AAXX 14064 47584 12/81 71808 10054 21029 39994 40185 56021 60001 81230
AAXX 14064 47604 12/70 52009 10123 20022 30176 40185 56012 60001 81270
AAXX 14064 47605 11/80 62012 10135 20036 30151 40192 58007 69901 70281 86200
AAXX 14064 47610 12/80 10907 10095 21010 39681 40181 56011 60001 81100
AAXX 14064 47624 12/63 11604 10108 20008 30049 40187 55016 60001 81500
AAXX 14064 47629 12/70 83503 10086 20030 30154 40193 56015 60001 8557/
AAXX 14064 47636 12/80 13107 10143 21005 30124 40192 56014 60001 81100
AAXX 14064 47651 11/65 13205 10150 20008 30172 40194 56014 69901 70281 81101
AAXX 14064 47655 15/70 /2609 10150 20050 30125 40181 56014 60001
AAXX 14064 47675 17/66 /0409 10110 20073 30092 40184 56015 69901 70060
AAXX 14064 47741 12/70 22508 10147 20068 30164 40191 56016 60001 82830
AAXX 14064 47746 12/80 73405 10145 20036 30175 40194 55013 60001 8227/
AAXX 14064 47750 12/80 20201 10110 20062 30169 40197 56022 60001 81130
AAXX 14064 47765 12/70 12803 10149 20043 30135 40200 56020 60001 81230
AAXX 14064 47772 12/70 11804 10144 20003 30099 40198 56018 60001 81101
AAXX 14064 47800 15/80 /2704 10136 21024 30203 40208 56015 60001
AAXX 14064 47815 12/65 10608 10158 20065 30184 40200 55015 60001 81100
AAXX 14064 47817 11/65 42804 10157 20067 30164 40207 56015 69901 70281 84200
AAXX 14064 47830 12/75 10905 10168 20054 30178 40196 56015 60001 81500
AAXX 14064 47887 12/70 12704 10159 20020 30160 40201 55016 60001 81200
AAXX 14064 47891 12970 13404 10142 20063 30186 40203 56018 60001 80001
AAXX 14064 47895 12/75 13403 10149 20054 30190 40198 56020 60001 81100
AAXX 14064 47927 11/65 80908 10229 20178 30125 40173 56020 60021 76062 8227/
AAXX 14064 47401 11/70 72507 10009 21062 30126 40141 56015 69901 70282 872//
AAXX 14064 47412 12/70 61611 10028 21035 30126 40159 57017 60001 83230
AAXX 14064 47420 15/70 /1403 10011 21053 30135 40169 56016 60001
AAXX 14064 47426 15/70 /3603 10026 21041 30132 40180 56013 60001
AAXX 14064 47582 12/82 61309 10065 21007 30147 40174 56025 60001 81830
AAXX 14064 47590 12/84 11510 10084 20002 30136 40190 56016 60001 81100
AAXX 14064 47600 17/70 /2206 10125 20061 30177 40185 56005 60021 70060
AAXX 14064 47648 11/50 80206 10121 20112 30148 40182 55014 60011 76066 888//
AAXX 14064 47662 12/60 83204 10092 20006 30147 40192 56016 60001 8357/
AAXX 14064 47678 17/70 /0305 10160 20120 39979 40163 55008 69951 70060
AAXX 14064 47740 17/77 /2504 10118 20087 30153 40187 55012 69901 72386
AAXX 14064 47778 15/70 /2102 10161 20054 30105 40187 56013 60001
AAXX 14064 47807 12/65 73606 10141 20079 30190 40208 56013 60001 872//
AAXX 14064 47827 12/75 23308 10185 20060 30165 40203 56016 60001 82100
AAXX 14064 47843 15/80 /3209 10152 20049 30181 40213 56010 60001
AAXX 14064 47893 12/65 20703 10169 20058 30183 40189 56019 60001 81130
AAXX 14064 47909 11/65 70204 10208 20138 30184 40194 56017 69901 70262 8117/
AAXX 14064 47918 11/75 80808 10215 20189 30154 40171 56020 60071 72162 8117/
AAXX 14064 47936 11/65 80711 10227 20151 30124 40182 56018 69901 70262 8387/
AAXX 14064 47945 11/65 80309 10220 20151 30156 40180 55013 69901 72162 8117/
AAXX 14064 47971 11/65 70205 10205 20179 30159 40169 56010 60011 72588 872//
AAXX 14064 47991 16/// /0905 10260 20196 30157 40167 55000 60001
AAXX 14064 91324 32474 81308 10289 20248 30048 40050 83211 333 56399 70000 83819 84463 555 01406 91329 32474 80910 10300 20278 30112 40115 83201 333 562/9 70000 83818 88075 555 91406
AAXX 14064 91336 32474 80815 10306 20256 30105 40108 82101 333 562/9 70000 82818 88075 555 91406
AAXX 14064 91339 32474 80807 10283 20246 30058 40064 83202 333 562/9 70000 83818 88075 555 91406
AAXX 14064 91320 11474 80810 10306 20267 30081 40086 60011 70282 82209 333 562/9 70030 82816 86274 555 91406
AAXX 14064 91324 32474 81308 10289 20248 30048 40050 83211 333 56399 70000 83819 84463 555 01406 91329 32474 80910 10300 20278 30112 40115 83201 333 562/9 70000 83818 88075 555 91406
AAXX 14064 91336 32474 80815 10306 20256 30105 40108 82101 333 562/9 70000 82818 88075 555 91406
AAXX 14064 91339 32474 80807 10283 20246 30058 40064 83202 333 562/9 70000 83818 88075 555 91406
AAXX 14064 91320 11474 80810 10306 20267 30081 40086 60011 70282 82209 333 562/9 70030 82816 86274 555 91406
AAXX 14061 40703 11656 80000 11024 21052 39028 40353 50004 60001 71022 8352/ 333 34103 70000 83640 88458
AAXX 14061 40712 11625 82603 11036 21066 38778 40355 53005 60001 70522 8352/ 333 34106 70000 83635 88459
AAXX 14061 40729 11958 30000 11032 21074 38412 40335 51009 60001 70500 80001 333 34114 70000 83069
AAXX 14061 40736 12960 00000 10076 20038 30326 40300 52004 60001 333 30100 50061 70000
AAXX 14061 40739 12965 00000 10034 21058 38766 40299 50011 60001 333 30107 70000
AAXX 14061 40743 12965 00805 10046 21067 39154 40306 53010 60001 333 30103 70000
AAXX 14061 40762 12965 00000 10050 21084 38618 40276 52006 60001 333 30107 70000
AAXX 14061 40768 12960 20000 10008 21051 38327 40312 50002 60001 80001 333 34112 70000 82070
AAXX 14061 40769 11950 00000 11024 21051 38366 40314 51006 60001 71000 333 30109 5//// 70000
AAXX 14061 40785 12960 00000 10052 21022 39174 40303 52009 60001 333 30105 5///1 70000
AAXX 14061 40809 12968 01102 10066 21154 38567 40289 50004 60001 333 30109 70000
AAXX 14061 40821 12962 00000 10060 21050 38880 40309 52011 60001 333 30105 50211 70000
AAXX 14061 40831 12960 13003 10096 20013 30239 40247 52014 60001 80001 333 30101 50421 70000 81070
AAXX 14061 40706 11406 80703 11056 21077 38753 40388 51007 69901 74252 886XX 333 3/111 43003 79999 88715
AAXX 14061 40718 12562 40000 10078 20065 30336 40306 52010 60001 83530 222// O0080 20000 333 30002 50161 70006 83625
AAXX 14061 40732 12975 30000 10096 20061 30318 40293 52006 60001 80001 333 31101 50041 70000 83070
AAXX 14061 40745 11957 00000 10044 21025 39130 40310 52009 60001 70500 333 30106 70000
AAXX 14061 40754 11958 02502 10060 21056 38906 40284 52007 60001 70500 333 30105 5//// 70000
AAXX 14061 40766 12960 40000 10022 21063 38767 40298 52010 60001 80002 333 30110 70000 84068
AAXX 14061 40800 11920 00000 10020 21011 38526 40294 52011 60001 71000 333 30106 5///1 70000
AAXX 14061 40811 11958 03002 10100 20012 30205 40233 52013 60001 70500 333 30000 50161 70000
AAXX 14061 40841 12965 00000 10040 21092 38321 40276 51004 60001 333 30109 5//// 70000
AAXX 14061 40848 12965 00000 10072 21029 38586 40263 52013 60001 333 30107 50111 70000
AAXX 14061 40856 12965 00000 10112 21130 38704 40264 50016 60001 333 30109 5///1 70000
AAXX 14061 40875 12970 03604 10219 21092 30203 40215 52013 60001 333 30004 50701 70000
AAXX 14061 37575 42999 00502 10007 21010 39712 40319 52015
AAXX 14061 37675 42999 00000 10021 21019 39638 40316 52008
AAXX 14061 37735 42996 30000 10002 21019 39857 40246 53001 83070
AAXX 14061 37749 41596 83602 10043 20026 32298 40349 53005 71022 885//
AAXX 14061 37756 41496 82803 10002 21017 39432 40165 57012 71011 887//
AAXX 14061 37864 31996 00000 10029 20023 40316 52011 71000 333 21006 555 30///
AAXX 14061 37985 42597 83201 10061 20045 30328 40313 58005 885//
BBXX A8YW2 14064 99320 30366 41398 70319 10250 20221 40100 52020 70322 86718 22224 00220 20905
BBXX SHIP 14064 99424 10070 41597 72430 10155 20113 40150 57020 70200 84860 22253 00160 20302 80130 333 82826 84358
AAXX 14061 08501 32/// /2502 10120 20081 30259 40296 54000 333 20108 30009 5//// 55025 20608
AAXX 14061 08505 NIL
AAXX 14061 08509 32560 70000 10127 20110 30230 40295 50005 878// 333 20117 50234 55029 83820 86637
AAXX 14061 08512 32575 73602 10121 20083 30207 40293 52005 85838 333 20103 30009 5//// 55030 20547 81820 85640 85270
AAXX 14061 08515 32575 63602 10124 20095 30171 40294 50003 82806 333 20114 3007 50264 55/// 81820 86280 910// 911//
AAXX 14061 08533 12/// /2904 10163 20136 30221 40250 57001 69932 333 20155 30013 5//// 55057 21003 91006 91106
AAXX 14061 08541 NIL
AAXX 14061 08545 NIL
AAXX 14061 08548 12/// /0000 10112 20109 30017 40223 54000 60052 333 20112 30007 5//// 55010 20299
AAXX 14061 08554 12358 23001 10127 20115 30241 40251 57002 60052 82800 333 20120 30012 5//// 55037 20605 82708
AAXX 14061 08558 12/// /2203 10122 20122 39937 40232 57004 69912 333 20121 30012 5//// 55001 20420 91106
AAXX 14061 08560 12/// /2403 10084 20064 39457 40219 52011 60142 333 20077 30006 5//// 55001 20190 91006 91110
AAXX 14061 08567 12/// /2605 10093 20076 39539 40204 52001 60042 333 20088 31008 5//// 55003 20132 91008 91108
AAXX 14061 08570 NIL
AAXX 14061 08575 12/// /9902 10075 20055 39376 40191 52002 60072 333 20074 31007 5//// 55000 20191 91107
AAXX 14061 08579 12/// /2402 10138 20131 30105 40230 52003 60042 333 20138 31013 5//// 55063 20653
BBXX PCPR 14063 99373 10063 41498 22615 10162 20141 40230 54000 7//11 82100 22263 04170 20402 328// 40503 80149
BBXX 2ALE5 14063 99302 70119 41598 60417 10185 20132 40247 55001 70322 86100 22214 20506 80155
AAXX 14061 06447 16/// /2009 10065 20053 39798 49921 57062 60052 333 20040 3/003 91117 91209
BBXX OVSB2 14060 99103 50015 41598 81306 10218 20168 40139 54000 70222 888// 22234 00234 299// 317// 40503 5//// 80187
AAXX 14061 06431 16/// /2405 10050 20038 39918 49930 56037 60162 333 20044 3/004 91112 91207
AAXX 14061 45032 36/// /3401 10219 20072 30158 40175 57002
AAXX 14061 45035 36/// /3002 10204 20092 30133 40175 57001
AAXX 14061 45039 36/// /0102 10210 20108 30156 40171 57001
AAXX 14061 45044 36/// /3302 10213 20129 30079 40171 57002
AAXX 14061 45032 36/// /3401 10219 20072 30158 40175 57002
AAXX 14061 45035 36/// /3002 10204 20092 30133 40175 57001
AAXX 14061 45039 36/// /0102 10210 20108 30156 40171 57001
AAXX 14061 45044 36/// /3302 10213 20129 30079 40171 57002
AAXX 14061 45007 12650 73205 10199 20110 30170 40178 58024 60001 8153/ 333 59012 81635 85359
AAXX 14061 45007 12650 73205 10199 20110 30170 40178 58024 60001 8153/ 333 59012 81635 85359
AAXX 14061 01218 16/// /1608 10070 21048 39633 49653 56022 60002 333 20038 70000 91116
AAXX 14061 01281 16/// /1604 10038 21034 39559 49728 53014 69942 333 21002 70004 91112
AAXX 14061 01447 16/// /1403 10007 21004 39093 49745 53003 60012 333 21011 70075 91108
AAXX 14064 87022 32960 30000 10188 20169 39619 40126 57016 83070 333 56099 83360
AAXX 14064 87046 32662 23203 10164 20148 39130 48512 57015 82500 333 56600 82635
AAXX 14064 87047 31562 70000 10155 20145 38818 48533 57012 71011 87500 333 56000 87630
AAXX 14064 87097 32970 02306 10200 20128 39789 40094 57012
AAXX 14064 87121 32965 23208 10188 20159 38620 40128 57016 80006 333 56008 82280
AAXX 14064 87129 32965 00503 10179 20162 39901 40130 57016
AAXX 14064 87155 32965 02302 10151 20124 30050 40112 57013
AAXX 14064 87162 32970 03203 10151 20126 30038 40107 58011
AAXX 14064 87166 32960 00000 10186 20132 30034 40106 57016
AAXX 14064 87178 32970 02503 10204 20139 39946 40090 57016
AAXX 14064 87217 NIL
AAXX 14064 87222 32970 00208 10195 20150 39598 40108 58012
AAXX 14064 87257 32965 01803 10186 20110 30045 40147 52004
AAXX 14064 87270 32965 02304 10165 20097 30049 40111 57013
AAXX 14064 87289 NIL
AAXX 14064 87311 42965 02304 10192 20102 39448 40108 58003
AAXX 14064 87320 NIL
AAXX 14064 87328 32980 00000 10148 20091 39476 40117 58027 333 95090
AAXX 14064 03896 16/// ///// 10075 60132 333 20049 55024
AAXX 14064 88878 46/// /2923 10118 20099 40125 57006 555 1//34
AAXX 14064 88883 46/// /2904 10098 20097 40137 52005
AAXX 14064 88897 46/// /3110 10092 20086 40114 52001
AAXX 14064 40362 42960 01306 10101 21040 39712 40238 333 20036 59014
AAXX 14061 20107 11597 50201 11062 21085 39926 40022 52002 69902 70281 83530 333 21072 91003
AAXX 14061 22113 11484 71808 10013 21025 39908 49971 52006 69992 70283 87930 333 21016 47010 85916 91013 91113
AAXX 14061 22217 11584 71705 10004 21010 39971 40003 54000 69992 73632 87500 333 21006 47019 87632 91009 91110
AAXX 14061 22235 11581 81903 11003 21015 39841 40036 52012 60012 70282 885// 333 21011 47019 88624 91005 91110
AAXX 14061 22349 11598 82011 10012 20004 30064 40076 52011 69952 70282 885// 333 20001 43002 91014 91116
AAXX 14061 22408 11457 81504 10004 21005 39859 40007 58004 69932 78582 883// 333 21003 43009 88911
AAXX 14061 22602 12474 81805 10007 21013 39790 40014 57015 69942 885// 333 20001 43014 88619 91011 91112
AAXX 14061 22619 12380 81804 10009 21008 39894 40055 58012 69952 886// 333 20002 44008 88706 91111
AAXX 14061 22721 11498 81401 10003 20000 39974 40075 57004 69992 70272 886// 333 21002 43031 88711 93700
AAXX 14061 22802 12584 81605 10018 21010 30026 40049 57010 69942 885// 333 20014 43001
AAXX 14061 22820 12584 71502 10002 21004 39939 40079 58009 69942 83530 333 21003 47009
AAXX 14061 26059 11596 81604 10023 20001 30013 40038 57010 69932 78382 889// 333 20018 86920
AAXX 14061 26063 32497 81804 10023 21004 30045 40053 57011 885// 333 20015 41997 88614
AAXX 14061 26094 12481 61303 10003 21003 30012 40089 58018 69972 84730 333 20000 43009
AAXX 14061 26157 11496 81807 10024 20014 39988 40037 57009 60012 78082 889// 333 20016 87614 91113
AAXX 14061 26167 32467 81804 10019 20006 39955 40068 57010 69902 886// 333 20000 42001 88710
AAXX 14061 26258 11597 81904 10032 20014 30003 40058 57014 69902 76162 886// 333 20016
AAXX 14061 26298 11496 81703 10005 21003 39896 40129 58005 60022 71022 886// 333 21006 47008
AAXX 14061 26359 11562 71804 10037 20027 39944 40078 57010 69902 76162 875// 333 20014
AAXX 14061 26702 11596 72601 10045 20028 30014 40040 52007 69982 76210 87500 333 20043 91005 91107
AAXX 14061 26781 11/93 91804 10008 20008 39855 40153 58007 69952 76164 333 20002 43002 96045
AAXX 14061 27208 11496 81803 10006 20003 39966 40144 58001 60022 71072 886// 333 21007 43009
AAXX 14061 27402 11295 81602 10009 20004 39982 40164 52003 60042 71022 886// 333 21002 43004 88704
AAXX 14064 70133 32261 82403 11083 21094 30085 40093 53005 90553 333 11072 21117 555 91406
AAXX 14064 70174 11556 83203 11111 21128 39842 40093 53008 60011 771// 90553 333 11106 21167 4/074 96010 555 91406
AAXX 14064 70200 32664 60000 11111 21122 30069 40075 53006 90553 333 11044 21122 555 91406
AAXX 14064 70219 32966 00308 11128 21150 39962 40020 51007 90553 333 11061 21133 555 91406
AAXX 14064 70231 17761 80000 11111 21128 39931 40065 56006 60021 771// 90553 333 11044 21161 555 91406
AAXX 14064 70261 11461 80000 11067 21078 39894 40071 56007 69931 771// 90553 333 11028 21072 555 91406
AAXX 14064 70267 12666 81109 11106 21122 39589 40086 58006 69901 90553 333 11050 21117 555 91406
AAXX 14064 70271 32866 60000 11161 21167 39483 40094 56002 90553 333 11044 21172 4/010 555 91406
AAXX 14064 70273 11058 8//05 11083 21094 30003 40064 53002 69901 710// 90553 333 11017 21083 4/051 555 91406
AAXX 14064 70316 35966 01303 10006 21028 39898 49932 51026 90553 333 10039 20000 555 91406
AAXX 14064 70326 32866 40110 11072 21106 39950 49965 56013 90554 333 11039 21111 555 91406
AAXX 14064 70340 32666 23614 11061 21106 39962 40026 56008 90553 333 11050 21117 555 91406
AAXX 14064 70350 11361 80520 10022 20006 39929 49971 58026 60011 771// 90553 333 10028 21039 91024 555 91406
AAXX 14064 70361 15666 80905 11017 21022 30111 40120 52002 60011 90553 333 10000 21022 555 91406
AAXX 14064 70381 12266 81003 10000 20000 30142 40151 53011 69901 90553 333 10022 20000 555 91406
AAXX 14064 70414 35559 82832 11028 21067 39771 49807 56002 90556 333 11011 21033 91046 555 91406
AAXX 14064 NIL
AAXX 14064 82022 32970 50807 10266 20223 39983 40078 85060 333 59008
AAXX 14064 82193 32970 00703 10256 20233 30060 40078 333 59009
AAXX 14064 82281 32470 30706 10263 20199 30019 40081 83500 333 59005
AAXX 14064 82332 32470 21002 10274 20244 39984 40075 82500 333 59008
AAXX 14064 82398 32470 40910 10254 20214 30059 40088 84500 333 59007
AAXX 14064 82400 NIL
AAXX 14064 82579 32870 63202 10261 20240 30000 40076 86050 333 59007
AAXX 14064 82917 21550 70000 10253 20249 39877 40096 76162 83210 333 59007 60051
AAXX 14064 82965 NIL
AAXX 14064 82993 32470 30103 10204 20200 39970 40106 83100 333 59004
AAXX 14064 83208 NIL
AAXX 14064 83349 21456 62103 10243 20236 30106 40112 76062 86800 333 59002 60061
AAXX 14064 83362 22970 01405 10227 20214 39862 40077 333 59003 69941
AAXX 14064 83378 32470 72703 10186 20170 38928 48480 85630 333 59003
AAXX 14064 83460 32570 33103 10220 20212 30054 40111 83100 333 58001
AAXX 14064 83497 NIL
AAXX 14064 83566 32570 71004 10177 20165 39180 48490 85230 333 59005
AAXX 14064 83599 NIL
AAXX 14064 83612 21457 71305 10209 20192 39454 48500 58016 76162 83830 333 60071
AAXX 14064 83649 22470 60106 10232 20215 30114 40119 57013 83550 333 69901
AAXX 14064 83650 NIL
AAXX 14064 83780 NIL
AAXX 14064 83827 32970 42503 10178 20112 39815 40087 55011 84030
AAXX 14064 83840 21465 70404 10166 20156 39075 48480 57022 71092 85550 333 69931
AAXX 14064 83899 32470 62603 10202 20192 30088 40094 58013 86500
AAXX 14064 83925 NIL
AAXX 14064 83970 NIL
AAXX 14064 83971 32970 00302 10184 20182 30074 40078 58009
AAXX 14064 NIL
AAXX 14064 82143 NIL
AAXX 14064 82599 32570 41306 10249 20218 30039 40099 84100 333 59011
AAXX 14064 82824 21430 72702 10261 20244 39988 40088 76061 85230 333 59007 60041
AAXX 14064 82899 32570 30708 1//// 2//// 30089 4//// 83200 333 59009
AAXX 14064 83117 NIL
AAXX 14064 83248 32470 20101 10253 20228 30086 40108 82200 333 59001
AAXX 14064 83746 31562 51004 10248 20212 40080 55010 71011 81530
AAXX 14064 NIL
AAXX 14064 NIL
AAXX 14064 NIL
AAXX 14064 NIL
AAXX 14064 NIL
AAXX 14064 NIL
AAXX 14064 03008 11475 72821 10061 20027 49563 60032 72162 878// 90550 333 20047 32/// 70030 85818 84640 90710 91131 91031
AAXX 14064 78526 12566 40000 10244 20217 30105 40126 58010 69901 90556 333 10261 20222 555 91406
AAXX 14064 78543 35566 60000 10239 20217 30041 40123 58010 90553 333 10256 20211 555 91406
AAXX 14061 30372 41998 80000 11244 21269 39447 40407 58001 77172 84017
AAXX 14061 30433 42999 50103 11177 21236 39768 40411 52010 80001
AAXX 14061 30554 42998 42001 11193 21261 39202 40377 52015 80001
AAXX 14061 30635 41597 81303 11157 21227 39774 40386 52009 73673 8297/
AAXX 14061 30673 42999 60104 11169 21211 39498 40317 58001 80008
AAXX 14061 30692 NIL
AAXX 14061 30758 41998 20000 11208 21248 39477 40372 54000 70411 80001
AAXX 14061 30802 41699 82706 11088 21181 38781 48554 58001 71522 83901
AAXX 14061 30823 41699 43202 11104 21177 39693 40359 52005 70371 84900
AAXX 14061 30879 41999 00000 11213 21238 39492 40316 58002 70271
AAXX 14061 30935 41997 82901 11135 21162 39371 40360 57013 77172 8807/
AAXX 14061 30949 42999 63202 11130 21182 39180 40329 58006 83531
AAXX 14061 30965 42999 22702 11214 21247 39445 40344 58003 81042
AAXX 14061 31168 42999 12302 11198 21276 30157 40169 53002 80001
AAXX 14061 31300 42999 83403 11175 21244 39930 40239 52007 84035
AAXX 14061 31329 42999 10000 11284 21329 39497 40239 57007 80002
AAXX 14061 31369 42999 32902 11196 21237 30082 40173 53002 80002
AAXX 14061 31416 42999 03201 11200 21241 30092 40188 57004
AAXX 14061 31484 NIL
AAXX 14061 31512 429// 53002 11155 21225 30055 40232 57004 80005
AAXX 14061 31538 42999 62101 11216 21248 39737 40205 57007 80001
AAXX 14061 31707 41998 83403 11132 21184 30077 40175 53006 72272 8807/
AAXX 14061 31735 41996 80103 11151 21210 30057 40150 57010 77172 83037
AAXX 14061 31770 42998 80000 11107 21191 30126 40157 57006 85021
AAXX 14064 NIL
AAXX 14064 NIL
AAXX 14064 91245 32666 60810 10270 20220 30144 90559 555 91406
AAXX 14061 22028 11581 72309 10010 21010 39946 49984 53017 69922 70273 85532 333 21011 48007 91012 91116
AAXX 14061 22106 11598 82002 10008 21028 39893 49971 51004 69932 70282 885// 333 21028 47009 88628 91004
AAXX 14061 22127 11998 61605 11009 21044 39800 40001 52008 69922 70231 82031 333 21017 47017 91008 91110
AAXX 14061 22324 12580 81505 10011 21006 39979 40029 51006 60012 889// 333 21002 43012 91008 91111
AAXX 14061 22621 11382 81705 10002 21009 39923 40063 58002 69952 70282 886// 333 20001 47012 86709 91011 91112
AAXX 14061 22831 11497 81201 11008 21012 30046 40106 58003 60022 70282 889// 333 21011 47031
AAXX 14061 22892 11396 81606 10014 20006 30007 40023 57017 69992 77176 8872/ 333 20013 86707 91111
AAXX 14061 26275 32298 81504 10025 20017 30060 40090 57015 886// 333 20007 88606
AAXX 14061 26389 11258 81702 10010 20002 39862 40127 57005 69942 71022 886// 333 20001 43004
AAXX 14061 26499 11294 81603 10007 20004 39928 40161 58002 60032 71054 886// 333 21002 43003 88705
AAXX 14061 26695 11195 81703 10004 20001 39863 40175 54000 60032 71052 886// 333 20001 43005 88703
AAXX 14061 26882 11/92 91804 10008 20008 39893 40172 57001 60042 74754 333 20006 42001
AAXX 14064 41858 31312 83005 10152 20130 30133 40181 72842 8562/ 333 56699 58006 70000 85708 88458
AAXX 14064 41863 NIL
AAXX 14064 41886 31956 00000 10220 20110 30143 40164 70500 333 59003 70000
AAXX 14064 41895 31950 02703 10172 20120 30153 40177 70500 333 58000 70000
AAXX 14064 41909 NIL
AAXX 14064 41915 NIL
AAXX 14064 41926 NIL
AAXX 14064 41929 31950 03402 10212 20130 30169 40179 70540 333 58010 70000
AAXX 14064 41933 31950 03102 10221 20140 30160 40169 70500 333 58010 70000
AAXX 14064 41939 NIL
AAXX 14064 41941 NIL
AAXX 14064 41946 32956 03601 10218 20130 30170 40175 333 58020 70000
AAXX 14064 41947 31950 00000 10222 20130 30169 40171 70540 333 58008 70000
AAXX 14064 41951 32957 00000 10242 20130 30166 40171 333 58014 70000
AAXX 14064 41953 31950 03104 10236 20160 30157 40163 70500 333 58005 70000
AAXX 14064 41958 31930 00000 10227 20150 30164 40167 70500 333 58010 70000
AAXX 14064 41960 NIL
AAXX 14064 41963 NIL
AAXX 14064 41964 NIL
AAXX 14064 41965 NIL
AAXX 14064 41966 NIL
AAXX 14064 41984 NIL
AAXX 14064 41989 31956 03102 10250 20160 30154 40158 70500 333 58007 70000
AAXX 14064 41998 32956 02903 10262 20120 30141 40147 333 58011 70000
AAXX 14064 91165 12466 60611 10230 20206 30142 40177 53021 69901 90553 555 91406
AAXX 14064 91182 12566 40903 10233 20211 30164 40168 53020 69981 90553 555 91406
AAXX 14064 91190 32966 00806 10228 20183 30154 40174 53020 90554 333 10283 20200 555 91406
AAXX 14064 91212 12566 40617 10289 20233 31353 40088 56016 69901 90554 333 10300 20256 91023 555 91406
AAXX 14064 91285 31258 81005 10200 20190 30171 763// 90612 333 96010 555 91406
AAXX 14064 91317 32474 60506 10306 20291 30072 40076 5//// 82101 333 561/9 70023 82815 85080 555 91406
AAXX 14064 91376 32474 40618 10290 20230 30074 90552 555 91406
AAXX 14063 87007 11580 30000 10078 20050 36752 47157 58008 60011 70196 83400 333 56000 83625
AAXX 14063 87148 32970 02708 10170 20103 30005 40113 58009
AAXX 14061 26997 11218 81801 10005 20002 39976 40200 57002 69912 75152 886// 333 20003 42001 88706
AAXX 14061 27595 32997 71503 11091 21111 30159 40316 57005 87080 333 21099
AAXX 14061 27612 11496 82101 10010 21001 39994 40190 52004 60052 76162 887// 333 20003 43007
AAXX 14061 27707 11415 82002 10000 21003 39893 40190 57001 69942 71085 886// 333 21003 43002 88711
AAXX 14061 27719 11597 81903 10011 21021 39961 40215 57002 69902 70282 885// 333 20003 43002
AAXX 14061 27786 32697 81701 11053 21063 30147 40315 58003 885// 333 21071 88634
AAXX 14061 27857 32998 81904 11030 21047 30117 40286 53004 8802/ 333 21030
AAXX 14061 27906 NIL
AAXX 14061 27928 32997 71901 11039 21051 30038 40254 54000 85031 333 21041 43005
AAXX 14061 27947 32497 71704 11025 21047 30115 40280 56002 875// 333 21027 47009 87613
AAXX 14061 27962 32497 81605 11030 21047 40309 51002 885// 333 21034 88619
AAXX 14061 27983 32397 81402 11096 21104 30198 40335 52004 886// 333 21110 88709 93506
AAXX 14061 27995 32998 70902 11149 21162 40350 52008 83051 333 21132
AAXX 14061 28506 31996 80000 11196 21215 30220 40346 52003 71011 8801/ 333 21212
AAXX 14061 28704 31995 80501 11227 21252 30245 40354 52007 71042 80001 333 21230 93505
AAXX 14061 28711 32998 20000 11175 21187 39945 40355 52008 80001 333 21204 93513
AAXX 14061 28807 31997 20000 11193 21212 30304 40361 52011 71000 80005 333 21169
AAXX 14061 34009 32597 81703 11002 21019 39922 40235 57001 885// 333 21017 47004
AAXX 14061 34110 32897 71703 11019 21034 39963 40250 57003 87030 333 21038 43001
AAXX 14061 34123 32960 51203 11023 21035 30077 40268 57003 85030 333 21023 42001
AAXX 14061 34152 32399 80000 11020 21032 30111 40314 53011 886// 333 21033 88708
AAXX 14061 34163 31497 80801 11055 21059 40329 52008 71044 885// 333 88620
AAXX 14061 34171 31/01 99902 11065 21066 30129 40332 52006 74544 333 21075 89/02
AAXX 14061 34186 31996 71803 11070 21079 30202 40348 52013 71022 87030 333 21065
AAXX 14061 34247 31556 81703 11025 21031 30184 40303 53008 71022 885// 333 21031 88623
AAXX 14061 34336 31956 81402 11024 21027 30189 40297 53003 71022 8802/ 333 21045
AAXX 14061 34391 31993 01602 11123 21136 30314 40347 52013 74241 333 21121
AAXX 14061 35011 12997 00000 11222 21240 40370 52017 69900 333 21223
AAXX 14061 35121 11997 80000 11221 21238 30204 40368 52021 69900 70271 80007 333 21213 93507
AAXX 14061 22271 11496 82012 11008 21021 30056 40066 54000 69960 77173 8872/ 333 21042
AAXX 14061 22520 12598 81404 10006 21005 30037 40046 54000 69902 885// 333 20001 88620
AAXX 14061 22550 11470 81803 11010 21039 30111 40121 54000 60010 70282 885// 333 21020 88612
AAXX 14061 22583 32484 71804 11044 21067 30107 40190 53003 875// 333 21066 87612
AAXX 14061 22768 11396 81503 11017 21022 30107 40164 58001 69900 77173 8872/ 333 21020 86709
AAXX 14061 22845 11396 81703 11013 21021 39973 40131 58004 69950 77177 8672/ 333 21021 86708
AAXX 14061 22887 32499 71705 11043 21074 30144 40217 57005 875// 333 21055 88615 91110
AAXX 14061 23205 NIL
AAXX 14061 23219 11498 82008 11070 21091 30159 40269 52001 69902 73633 886// 333 47039
AAXX 14061 23418 11665 81503 11089 21118 30206 40284 52006 69900 70272 885// 333 21092 88641
AAXX 14061 23606 12562 81704 11070 21099 30098 40278 54000 69930 885// 333 21090 88631
AAXX 14061 23711 11597 81401 11111 21131 30131 40315 54000 69900 77172 8457/ 333 21131
AAXX 14061 23804 32598 81702 11058 21088 30107 40261 57018 885// 333 21076 88626
AAXX 14061 27037 11497 81702 11014 21025 39996 40160 54000 60020 77172 8672/ 333 21018 86712
AAXX 14061 27199 32498 81603 11095 21102 30087 40296 57005 885// 333 21140
AAXX 14061 27271 11994 81204 11035 21043 30070 40231 57003 69900 77387 8802/ 333 21041
AAXX 14061 27459 11296 81703 11032 21042 30037 40238 57001 60040 77372 8872/ 333 21029 88706
AAXX 14061 27730 11498 81904 11007 21028 30028 40227 53003 60030 70276 885// 333 21019 43010 88613
AAXX 14061 28676 11596 83402 11191 21213 30183 40322 57001 69920 77177 8572/ 333 21256
AAXX 14061 28766 31995 33401 11240 21249 30122 40333 52001 71011 80001 333 21248
AAXX 14061 28867 NIL
AAXX 14061 28879 31696 82801 11230 21251 30008 40326 52007 77171 8252/ 333 21259
AAXX 14061 28952 NIL
AAXX 14061 28966 31598 50000 11242 21269 30016 40331 52008 70271 83501 333 21285
AAXX 14061 29802 32997 51201 11218 21238 30152 40310 57004 80001 333 21262
AAXX 14061 29807 32997 80000 11211 21242 30179 40308 58003 8802/ 333 21270
AAXX 14061 34691 31993 80000 11096 21112 30359 40346 52016 74441 8802/ 333 21093
AAXX 14061 35067 11998 00000 11236 21265 30024 40330 52011 69970 70171 333 21250
AAXX 14061 35078 11998 23401 11253 21279 39912 40334 52005 69930 70271 80001 333 21279
AAXX 14061 35085 31998 60000 11178 21194 39798 40311 52003 70172 82034 333 21266
AAXX 14061 35108 32997 30000 11203 21224 30314 40365 52017 83010 333 21205
AAXX 14061 35188 11997 51301 11148 21172 39846 40309 58001 69950 77672 82031 333 21207
AAXX 14061 35217 32998 00000 11192 21211 30315 40359 52016 333 21222
AAXX 14061 35229 11998 00000 11139 21159 30055 40347 52022 69940 77671 333 21190
AAXX 14061 35302 32998 01101 11171 21190 30336 40357 52013 333 21164
AAXX 14061 35357 32997 21801 11141 21161 39834 40296 58004 80001 333 21190
AAXX 14061 35394 11996 72401 11092 21108 39599 40303 54000 60010 71072 87010 333 21156
AAXX 14061 35406 32997 00000 11130 21150 30351 40353 52018 333 21105 93502
AAXX 14061 35416 32997 03401 11195 21211 30224 40357 52020 333 21176
AAXX 14061 35426 12999 43302 11183 21212 30032 40350 52022 60010 82031 333 21202
AAXX 14061 35497 11997 81102 11055 21080 39470 40287 57008 60030 77172 8802/ 333 21101
AAXX 14061 35532 11998 00000 11181 21222 39806 40336 52026 60030 70141 333 21179
AAXX 14061 35671 11996 80000 11071 21088 39853 40297 53003 69920 71022 8807/ 333 21103
AAXX 14061 35700 31992 90000 11078 21084 30375 40350 52015 74944 333 21103
AAXX 14061 35746 11598 52905 11059 21078 30235 40304 52021 69940 72273 82550 333 21079
AAXX 14061 35796 11594 81105 11058 21065 39872 40320 57014 60010 77577 8802/ 333 21124
AAXX 14061 35849 11597 82703 11040 21052 30228 40317 52013 69970 77072 8872/ 333 21113
AAXX 14061 35925 NIL
AAXX 14061 35953 11599 82403 11095 21098 30183 40319 52005 69920 70273 885// 333 21098
AAXX 14061 35969 12999 82502 11057 21079 30151 40331 52009 60020 8802/ 333 21060
AAXX 14061 36003 11999 61801 11184 21203 30149 40313 54000 60010 70172 84035 333 21218
AAXX 14061 36152 32598 71804 11084 21143 30115 40311 57003 85502 333 21240
AAXX 14061 36177 32997 72104 11052 21102 30086 40339 58004 85031 333 21211
AAXX 14061 36208 11599 70802 11044 21085 39340 40340 53002 60020 70277 82775 333 21083
AAXX 14061 36397 12699 71402 11078 21118 39773 40356 51001 69940 87500 333 21108
AAXX 14061 36428 32798 80702 11061 21096 39866 40382 58003 8257/ 333 21105 95040
AAXX 14061 36535 11599 70000 11114 21149 39733 40400 58001 60060 70272 86530 333 21123
AAXX 14061 36639 11999 50901 11042 21083 39725 40344 57013 60030 70272 85050 333 21060
AAXX 14061 36821 12599 71202 10011 21028 39814 40305 57016 60020 84930 333 21030
AAXX 14061 36859 31/91 90000 11056 21067 39543 40352 57007 74941 333 21084
AAXX 14061 36864 NIL
AAXX 14061 36870 31496 80000 11016 21039 39275 40305 58008 71022 8567/ 333 21043
AAXX 14061 38001 NIL
AAXX 14061 38062 31694 22301 11061 21084 30157 40327 52006 71040 82400 333 21054 93501
AAXX 14061 38069 12998 22801 11020 21066 30134 40331 52011 69940 80001 333 21025
AAXX 14061 38196 NIL
AAXX 14061 38198 NIL
AAXX 14061 38222 32998 63201 11036 21058 39752 40327 53007 86080 333 21079
AAXX 14061 38232 NIL
AAXX 14061 38328 NIL
AAXX 14061 38334 NIL
AAXX 14061 38341 32697 82201 10010 21029 39519 40316 52004 8347/ 333 21038
AAXX 14061 38343 32998 73202 11001 21038 39458 40316 52006 84031 333 21105
AAXX 14061 38439 NIL
AAXX 14061 28676 11596 83402 11191 21213 30183 40322 57001 69920 77177 8572/ 333 21256
AAXX 14061 28766 31995 33401 11240 21249 30122 40333 52001 71011 80001 333 21248
AAXX 14061 28867 NIL
AAXX 14061 28879 31696 82801 11230 21251 30008 40326 52007 77171 8252/ 333 21259
AAXX 14061 28952 NIL
AAXX 14061 28966 31598 50000 11242 21269 30016 40331 52008 70271 83501 333 21285
AAXX 14061 29802 32997 51201 11218 21238 30152 40310 57004 80001 333 21262
AAXX 14061 29807 32997 80000 11211 21242 30179 40308 58003 8802/ 333 21270
AAXX 14061 34691 31993 80000 11096 21112 30359 40346 52016 74441 8802/ 333 21093
AAXX 14061 35067 11998 00000 11236 21265 30024 40330 52011 69970 70171 333 21250
AAXX 14061 35078 11998 23401 11253 21279 39912 40334 52005 69930 70271 80001 333 21279
AAXX 14061 35085 31998 60000 11178 21194 39798 40311 52003 70172 82034 333 21266
AAXX 14061 35108 32997 30000 11203 21224 30314 40365 52017 83010 333 21205
AAXX 14061 35188 11997 51301 11148 21172 39846 40309 58001 69950 77672 82031 333 21207
AAXX 14061 35217 32998 00000 11192 21211 30315 40359 52016 333 21222
AAXX 14061 35229 11998 00000 11139 21159 30055 40347 52022 69940 77671 333 21190
AAXX 14061 35302 32998 01101 11171 21190 30336 40357 52013 333 21164
AAXX 14061 35357 32997 21801 11141 21161 39834 40296 58004 80001 333 21190
AAXX 14061 35394 11996 72401 11092 21108 39599 40303 54000 60010 71072 87010 333 21156
AAXX 14061 35406 32997 00000 11130 21150 30351 40353 52018 333 21105 93502
AAXX 14061 35416 32997 03401 11195 21211 30224 40357 52020 333 21176
AAXX 14061 35426 12999 43302 11183 21212 30032 40350 52022 60010 82031 333 21202
AAXX 14061 35497 11997 81102 11055 21080 39470 40287 57008 60030 77172 8802/ 333 21101
AAXX 14061 35532 11998 00000 11181 21222 39806 40336 52026 60030 70141 333 21179
AAXX 14061 35671 11996 80000 11071 21088 39853 40297 53003 69920 71022 8807/ 333 21103
AAXX 14061 35700 31992 90000 11078 21084 30375 40350 52015 74944 333 21103
AAXX 14061 35746 11598 52905 11059 21078 30235 40304 52021 69940 72273 82550 333 21079
AAXX 14061 35796 11594 81105 11058 21065 39872 40320 57014 60010 77577 8802/ 333 21124
AAXX 14061 35849 11597 82703 11040 21052 30228 40317 52013 69970 77072 8872/ 333 21113
AAXX 14061 35925 NIL
AAXX 14061 35953 11599 82403 11095 21098 30183 40319 52005 69920 70273 885// 333 21098
AAXX 14061 35969 12999 82502 11057 21079 30151 40331 52009 60020 8802/ 333 21060
AAXX 14061 36003 11999 61801 11184 21203 30149 40313 54000 60010 70172 84035 333 21218
AAXX 14061 36152 32598 71804 11084 21143 30115 40311 57003 85502 333 21240
AAXX 14061 36177 32997 72104 11052 21102 30086 40339 58004 85031 333 21211
AAXX 14061 36208 11599 70802 11044 21085 39340 40340 53002 60020 70277 82775 333 21083
AAXX 14061 36397 12699 71402 11078 21118 39773 40356 51001 69940 87500 333 21108
AAXX 14061 36428 32798 80702 11061 21096 39866 40382 58003 8257/ 333 21105 95040
AAXX 14061 36535 11599 70000 11114 21149 39733 40400 58001 60060 70272 86530 333 21123
AAXX 14061 36639 11999 50901 11042 21083 39725 40344 57013 60030 70272 85050 333 21060
AAXX 14061 36821 12599 71202 10011 21028 39814 40305 57016 60020 84930 333 21030
AAXX 14061 36859 31/91 90000 11056 21067 39543 40352 57007 74941 333 21084
AAXX 14061 36864 NIL
AAXX 14061 36870 31496 80000 11016 21039 39275 40305 58008 71022 8567/ 333 21043
AAXX 14061 38001 NIL
AAXX 14061 38062 31694 22301 11061 21084 30157 40327 52006 71040 82400 333 21054 93501
AAXX 14061 38069 12998 22801 11020 21066 30134 40331 52011 69940 80001 333 21025
AAXX 14061 38196 NIL
AAXX 14061 38198 NIL
AAXX 14061 38222 32998 63201 11036 21058 39752 40327 53007 86080 333 21079
AAXX 14061 38232 NIL
AAXX 14061 38328 NIL
AAXX 14061 38334 NIL
AAXX 14061 38341 32697 82201 10010 21029 39519 40316 52004 8347/ 333 21038
AAXX 14061 38343 32998 73202 11001 21038 39458 40316 52006 84031 333 21105
AAXX 14061 38439 NIL
BBXX 44067 14061 99384 70770 46/// /0202 10054 40290 58009 90600
BBXX 41029 14061 99328 70796 46/// /3501 1//// 90600 555 11015 22017
BBXX 44032 14061 99437 70694 46/30 /0208 10045 40258 52004 90604 22200 00089 10402 70009 333 91209 555 11092 22096
BBXX 46111 14061 99481 71227 46/// /1504 10056 40193 51015 90600 22200 00059
BBXX 46112 14061 99481 71227 46/// /1203 10050 40194 51015 90600
BBXX WDF5483 14064 99438 70865 41/98 /1412 10050 2//// 40247 53013 70022 8//// 22242 0//// 2//02 3//// 4//// 5//// 6//// 8//// ICE /////
BBXX WFLH 14063 99237 71497 43698 20910 10222 20180 40221 50004 7//// 82/3/ 22254 00222 20801 3//// 4//// 5//// 6//// 80194 ICE /////
BBXX C6XP7 14063 99180 70642 41298 30110 10260 20246 40110 54/// 7//10 828// 22262 00260 20401 321// 4//// 5//// 6//// 80250 ICE /////
BBXX C6SW3 14064 99131 10430 41897 21426 10270 20213 40140 52010 7//11 82440 22234 00260 20202 3//// 40202 50202 6//// 80230 ICE /////
BBXX C6YA5 14064 99549 50651 41595 82010 10085 2//// 40110 54/// 75155 8587/ 22213 00100 20401 322// 40602 5//// 6//// 8//// ICE /////
BBXX V7NV4 14064 99202 71093 41898 73318 10240 20226 40160 52010 70221 86435 22273 00280 20202 33333 40202 50202 6//// 80230 ICE /////
BBXX C6XC6 14064 99289 70377 41498 31221 10210 2//// 40240 56020 7//00 831// 22264 04220 2//// 30909 41504 51504 6//// 8//// ICE /////
BBXX WXJ63 14063 99611 71464 41/97 80204 11019 21034 40076 50/// 702// 8//// 222// 00042 2//// 3//// 4//// 5//// 6//// 8//// ICE /////
BBXX VRHO2 14064 99506 11679 41798 50320 11015 21031 49950 52030 7//// 85700 222// 00040 20507 30404 40507 50407 6//// 81020 ICE /////
BBXX WKAB 14063 99414 70514 41/// ///// 1//// 2//// 4//// 5//// 7//// 8//// 222// 0//// 2//// 3//// 4//// 5//// 6//// 8//// ICE /////
BBXX WNBE 14064 99195 71547 41/// /0111 10210 2//// 40180 5//// 7//// 8//// 222// 0//// 2//// 3//// 4//// 5//// 6//// 8//// ICE /////
BBXX WZJC 14064 99203 70717 41598 30516 10256 2021/ 40134 58008 71611 829/1 22233 00267 2//// 3//// 4//// 5//// 6//// 80222 ICE /////
AAXX 14064 60360 12962 01804 10074 20064 40240 53004 60004 333 00400 20064 95900
AAXX 14064 60390 12960 02004 10061 20054 40254 53004 60004 333 00200 20053 95990
AAXX 14064 60402 12960 00000 10100 20073 40240 53004 60004 333 00500 20090 95900
AAXX 14064 60419 12965 02108 10040 20011 40265 55001 60004 333 05100 20032 95990
AAXX 14064 60475 12960 01404 10011 20001 39302 48552 56001 60004 333 05400 21005 95990
AAXX 14064 60490 12970 22304 10085 20074 40254 53004 60004 80002 333 00100 20072 82073 95990
AAXX 14064 60525 12960 00000 10069 20028 40256 52002 60004 333 05200 20064 95990
AAXX 14064 60531 12970 00000 10057 20052 40272 53004 60004 333 00100 20050 95990
AAXX 14064 60566 12960 00000 10089 20038 40279 55004 60004 333 00000 20063
AAXX 14064 60571 12962 40000 10058 20046 39232 48578 58003 60004 82082 333 0//00 20052 82360 95990
AAXX 14064 60580 12960 00000 10040 20035 40274 55004 60004 333 00200 20035
AAXX 14064 60590 12960 13205 10025 21002 40285 56001 60004 80002 333 0//00 20022 81083
AAXX 14064 60611 12960 20507 10045 20003 40273 53004 60004 80001 333 00300 20044 82073
AAXX 14064 60620 12760 70312 10090 21006 40248 55005 60004 82204 333 0//00 20085 82850 86075
AAXX 14064 60630 12960 50614 10130 20054 40225 56006 60004 82032 333 01100 20124 82362 84075
AAXX 14064 60656 12660 70308 10126 21002 40231 56006 60004 8328/ 333 00800 20120 83846 85360
AAXX 14064 60670 12980 30000 10060 21023 39109 48545 53007 60004 82032 333 00300 20054 82360 95900
AAXX 14064 60680 12980 50809 10117 21082 38675 48548 58004 60004 80002 333 00100 20084 85073 95900
BBXX 41053 14061 99185 70661 46/// /2103 10246 40116 58010 90600 22200 00279 11003 70016 333 91204
AAXX 14064 60351 12960 00000 10064 20055 40228 53004 60004 333 00300 20056 95990
AAXX 14064 60355 12960 02208 10111 20057 40229 53007 60004 333 0//00 20104 95990
AAXX 14064 60445 12960 22003 10018 20002 39088 48555 53001 60004 80002 333 05400 20010 82073 95990
AAXX 14064 60468 12960 00000 11007 21030 39293 48544 53002 60004 333 04000 21010 95900
AAXX 14064 60507 12960 00000 10040 20030 40268 51003 60004 333 00100 20036 95990
AAXX 14064 60511 12965 02210 10042 20026 39123 48552 53001 60004 333 05200 20024 95990
AAXX 14064 60535 12970 00000 10015 20015 38900 48556 58008 60004 700// 333 05100 20010 95900
AAXX 14064 60536 12960 00000 10028 20018 39380 48553 50006 60004 333 05100 20020 95990
AAXX 14064 60549 11960 21808 10030 20010 38986 48578 58008 60004 700// 81032 333 00000 20027 81360 95990
AAXX 14064 60550 12960 00000 10010 20001 38739 48572 55000 60004 333 05300 20008 95990
AAXX 14064 60555 12965 00000 10048 20021 40274 53001 60004 333 00000 20046
AAXX 14064 60559 12960 00000 10053 20034 40278 53004 60004 333 0//00 20047
AAXX 14064 60581 12960 00000 10025 21002 40269 57003 60004 333 05100 20024
AAXX 14064 60602 11960 51006 10081 20025 40261 55000 60004 700// 80004 333 0//00 20050 85073 95990
AAXX 14064 60607 12960 40510 10068 21001 40258 55000 60004 80004 333 0//00 20064 84075
AAXX 14064 60640 12960 20000 10055 20019 40258 53011 60004 80002 333 00200 20045 82073
AAXX 14064 60690 NIL
AAXX 14064 60360 12962 01804 10074 20064 40240 53004 60004 333 00400 20064 95900
AAXX 14064 60390 12960 02004 10061 20054 40254 53004 60004 333 00200 20053 95990
AAXX 14064 60402 12960 00000 10100 20073 40240 53004 60004 333 00500 20090 95900
AAXX 14064 60419 12965 02108 10040 20011 40265 55001 60004 333 05100 20032 95990
AAXX 14064 60475 12960 01404 10011 20001 39302 48552 56001 60004 333 05400 21005 95990
AAXX 14064 60490 12970 22304 10085 20074 40254 53004 60004 80002 333 00100 20072 82073 95990
AAXX 14064 60525 12960 00000 10069 20028 40256 52002 60004 333 05200 20064 95990
AAXX 14064 60531 12970 00000 10057 20052 40272 53004 60004 333 00100 20050 95990
AAXX 14064 60566 12960 00000 10089 20038 40279 55004 60004 333 00000 20063
AAXX 14064 60571 12962 40000 10058 20046 39232 48578 58003 60004 82082 333 0//00 20052 82360 95990
AAXX 14064 60580 12960 00000 10040 20035 40274 55004 60004 333 00200 20035
AAXX 14064 60590 12960 13205 10025 21002 40285 56001 60004 80002 333 0//00 20022 81083
AAXX 14064 60611 12960 20507 10045 20003 40273 53004 60004 80001 333 00300 20044 82073
AAXX 14064 60620 12760 70312 10090 21006 40248 55005 60004 82204 333 0//00 20085 82850 86075
AAXX 14064 60630 12960 50614 10130 20054 40225 56006 60004 82032 333 01100 20124 82362 84075
AAXX 14064 60656 12660 70308 10126 21002 40231 56006 60004 8328/ 333 00800 20120 83846 85360
AAXX 14064 60670 12980 30000 10060 21023 39109 48545 53007 60004 82032 333 00300 20054 82360 95900
AAXX 14064 60680 12980 50809 10117 21082 38675 48548 58004 60004 80002 333 00100 20084 85073 95900
AAXX 14061 40716 11958 20000 11046 21065 39018 40354 51008 60001 71000 80001 333 30110 70000 82069
AAXX 14061 40719 11930 40000 10060 20041 30314 40303 53007 60001 71000 80004 333 31001 50041 79999 84069
AAXX 14061 40721 12960 10000 10062 20001 39753 40315 50003 60001 81030 333 31000 50061 70000 81360
AAXX 14061 40858 11950 00602 10144 20055 30215 40226 52013 60001 70500 333 30006 50431 70000
AAXX 14061 40872 12960 00000 10192 20046 30207 40212 52016 60001 222// 00230 20000 333 30007 50241 70000
AAXX 14061 40877 12960 00000 10122 21057 39656 40211 52010 60001 333 30000 50351 70000
AAXX 14061 40898 12960 03602 10240 20060 30188 40197 51023 60001 222// 00246 10700 333 30014 50461 70000
BBXX DPLE 14063 99418 70258 41/98 52825 10125 20068 40265 54000 70222 8//// 22212 00160 2//// 331// 41210 80095
AAXX 14064 60351 12960 00000 10064 20055 40228 53004 60004 333 00300 20056 95990
AAXX 14064 60355 12960 02208 10111 20057 40229 53007 60004 333 0//00 20104 95990
AAXX 14064 60445 12960 22003 10018 20002 39088 48555 53001 60004 80002 333 05400 20010 82073 95990
AAXX 14064 60468 12960 00000 11007 21030 39293 48544 53002 60004 333 04000 21010 95900
AAXX 14064 60507 12960 00000 10040 20030 40268 51003 60004 333 00100 20036 95990
AAXX 14064 60511 12965 02210 10042 20026 39123 48552 53001 60004 333 05200 20024 95990
AAXX 14064 60535 12970 00000 10015 20015 38900 48556 58008 60004 700// 333 05100 20010 95900
AAXX 14064 60536 12960 00000 10028 20018 39380 48553 50006 60004 333 05100 20020 95990
AAXX 14064 60549 11960 21808 10030 20010 38986 48578 58008 60004 700// 81032 333 00000 20027 81360 95990
AAXX 14064 60550 12960 00000 10010 20001 38739 48572 55000 60004 333 05300 20008 95990
AAXX 14064 60555 12965 00000 10048 20021 40274 53001 60004 333 00000 20046
AAXX 14064 60559 12960 00000 10053 20034 40278 53004 60004 333 0//00 20047
AAXX 14064 60581 12960 00000 10025 21002 40269 57003 60004 333 05100 20024
AAXX 14064 60602 11960 51006 10081 20025 40261 55000 60004 700// 80004 333 0//00 20050 85073 95990
AAXX 14064 60607 12960 40510 10068 21001 40258 55000 60004 80004 333 0//00 20064 84075
AAXX 14064 60640 12960 20000 10055 20019 40258 53011 60004 80002 333 00200 20045 82073
AAXX 14064 60690 NIL
BBXX UCSJ 14061 99692 10372 41/97 91914 11013 49972 54000 70282 89/// 22272 20403
BBXX A8IN8 14064 99494 70051 41596 62945 10075 20053 49940 58010 78965 83/2/ 22214 04120 20908 325// 41407 80065
BBXX AUTQ 14064 99351 10183 41497 63615 10170 20138 40119 54000 86011 22274 00200
BBXX 46207 14061 99509 71299 46/// /0505 10070 40167 57003 22200 00085 11406 70029 333 91207
AAXX 14064 40100 12858 70703 10155 20022 30161 40193 50001 60004 87070 906// 333 20117 30/// 50334 55030 20766 87357 92426
AAXX 14064 40101 11940 70000 10049 20029 39138 48525 55000 60004 71044 85074 906// 333 20030 31/// 50154 55073 20904 85359
AAXX 14064 40103 32858 70000 10110 20063 40204 50002 83034 333 20091 30/// 50294 20802 83358 85070
AAXX 14064 40102 NIL
BBXX DAJC 14063 99307 71415 41598 89904 10190 20124 40280 51020 70222 8742/ 22224 04200 20902 307// 41004 5//// 80150
AAXX 14064 91943 36/// /0908 10269 20212 30140 40142 52017 333 20269 58000
AAXX 14064 91945 36/// /0710 10262 20218 30156 40161 51014 555 59007
AAXX 14064 91948 06/// /0103 10227 20187 30079 40182 52007 60001 333 55086 60007 90710 91106 555 60005 10406 59008
AAXX 14061 08521 32470 32801 10159 20122 30207 40278 55003 83800 333 20151 30/// 55070 82816
AAXX 14061 08524 12470 33201 10142 20136 30178 40277 57003 69922 83800 333 20140 3/011 40/// 5//// 55074 21290 82815 91106
AAXX 14064 65201 31910 63602 10201 20184 30077 40133 70522 80008 333 20200 56000 59002 86280 91104
AAXX 14064 60353 11975 00000 10096 20084 40238 56003 60004 700// 333 00400 20088 91838 95990
AAXX 14064 60367 11965 0//// 10119 20081 40220 58004 60014 700// 333 0//// 20108
AAXX 14064 60369 12960 10000 10140 20079 40240 51006 60004 80002 333 20138 81070 91827
AAXX 14064 60401 NIL
AAXX 14064 60403 11962 00000 10045 20033 40251 55000 60004 700// 333 00000 20036 95900
AAXX 14064 60425 12975 00000 10086 20082 40257 55000 60004 333 00300 20081 95990
AAXX 14064 60461 13970 02410 10130 20091 40245 53005 60004 222// 20000 333 20130 91828 95990
AAXX 14064 60467 11960 00000 10034 20027 40274 56003 60004 700// 333 00000 20003 95990
AAXX 14064 60492 11965 01610 10096 20084 40255 58003 60004 700// 333 00500 20074 95990
AAXX 14064 60515 NIL
AAXX 14064 60517 11960 01604 10107 20086 40259 58002 60004 700// 333 0//00 20106 95990
AAXX 14064 60522 11970 00000 10037 20024 40279 5//// 60004 700// 333 00000 20035 95990
AAXX 14064 60557 11965 20000 10012 20002 38929 48567 55002 60004 700// 80002 333 05300 20011 82073 95990
AAXX 14064 60563 12960 00000 10017 20015 39372 48563 53003 60004 333 05500 20005
AAXX 14064 60603 12960 20000 10042 21022 40284 53006 60004 80002 333 0//00 20044 82073
AAXX 14064 60638 12960 2//// 10076 20030 40262 53011 60004 80002 333 00400 20074 82073
AAXX 14064 60686 NIL
AAXX 14061 14235 12460 2//// 10032 20028 39004 48458 51004 60002 82100 333 20015 31///
AAXX 14061 14246 12980 11904 10074 20024 39948 40152 52004 60002 81032 333 20051 31102
AAXX 14061 14314 12670 61906 10139 20073 30115 40179 53002 60002 84870 333 20100 31008 70000 92323 92437
AAXX 14061 14323 12670 81803 10136 20100 30141 40175 54000 60002 885// 333 20106 31009 92322 92428
AAXX 14061 14324 11/00 92706 10018 20018 38394 48496 55003 60002 74542 333 21019 31102 41998 70000
AAXX 14061 14328 11558 72103 10113 20069 39761 40150 53004 69902 760// 87500 333 20048 31003 70001
AAXX 14061 14330 12560 82002 10090 20065 39512 40175 53002 60002 885// 333 20049 32002 70000
AAXX 14061 14438 12780 71203 10121 20082 30104 40195 53002 60002 87500 222// 00160 333 20088 31005 79999 9231/
AAXX 14061 14443 32698 418// 10130 20110 30115 40206 52001 84140 333 20120 92312
AAXX 14061 14447 12684 10602 10100 20071 30179 40210 53/// 60002 81100 222// 00174 333 20082 31005 92311
AAXX 14061 14472 12670 23302 10107 20084 30139 40204 50000 60022 82200 222// 00174 333 20107 32/// 70098 92312
AAXX 14063 64400 32458 71806 10251 20225 30100 40119 8687/ 333 02100 20243 50144 55020 58004 83810 84620 87363
AAXX 14063 64401 32460 80000 10236 20221 39751 40124 8557/ 333 01800 20225 50224 55070 58003 85616 88363
AAXX 14064 64450 12560 72604 10235 20220 39759 40111 69904 875// 333 01859 20227 50224 55068 58008 87623
AAXX 14063 64453 31360 60000 10197 20191 39/// 40/// 70199 83630 333 01900 20183 50134 55064 5//// 83705 86362
AAXX 14063 64456 NIL
AAXX 14063 64458 31430 30000 10175 20165 39719 40110 71000 83500 333 01600 20160 50314 55/// 58011 83610
AAXX 14063 64459 NIL
AAXX 14063 64460 NIL
BBXX BAREU56 14064 99444 10089 46/// ///// 40151 22200
BBXX TESTFR9 14064 99489 70023 46/// /2523 10076 29077 49988 52020 22234
BBXX MHNL6 14063 99338 70107 41298 32703 10180 20127 40268 54000 70200 83701 22233 2//// 3//// 4//// 5//// 80150
BBXX BAREU05 14064 99388 70125 46/// ///// 40240 52010 22263
BBXX BAREU51 14064 99419 10107 46/// ///// 40158 52002 22235
BBXX BAREU62 14064 99395 10151 46/// ///// 40228 54000 22284
BBXX BATFR15 14064 99341 70268 44698 13005 10184 20134 40291 58001 70200 81//1 22264 00200 336// 40704 5////
BBXX BATFR21 14064 99433 10053 46/// /0711 20215 40143 57003 22283
BBXX BATFR29 14064 99509 10015 46/// /2705 10059 20032 49937 55010 22284 00115
BBXX BATFR04 14064 99594 70119 46/// /3119 10060 20024 49694 53026 22251 00102
BBXX BATFR52 14064 99488 70023 46/// /2429 10079 20034 49970 53023 22233 00125
BBXX BATFR50 14064 99424 10066 46/// /2407 10147 20115 40150 55004 22272 00147
BBXX BATFR22 14064 99427 10095 46/// /2506 10149 40161 51004 22262 00175
BBXX BATFR54 14064 99365 70077 46/// /2914 10169 20142 40247 55003 22223 00175
BBXX BATEU06 14064 99556 10037 46/// /2622 10077 20010 49794 50/// 22261 00090
BBXX BATFR42 14064 99507 70020 46/// /2613 10069 20029 49924 56027 22272 00122
BBXX BATFR27 14064 99505 70012 46/// /2520 10134 20077 49922 56019 22213 00119
BBXX BATEU09 14064 99428 10058 46/// /2208 10152 20110 40145 52010 22241 00174
BBXX BATEU04 14064 99597 70342 46/// /0204 10034 20002 49871 56004 22222
BBXX BATFR11 14064 99365 10132 46/// /2705 10170 20124 40249 53005 22223 00192
BBXX BATFR46 14064 99384 10002 46/// /2316 10162 20092 40209 56016 22213 00179
BBXX BATFR03 14064 99508 70011 46/// /2412 10064 20032 49926 56013 22283
BBXX BATFR09 14064 99384 10069 44497 62630 10172 20104 40223 51010 70222 86700 22263 00187 20510 60//0 ICE 0/0//
BBXX BATFR23 14064 99372 10032 44998 32529 10164 20120 40207 53018 70211 83200 22245 00095 22919 304// 40922 51457 60651 ICE 10899
BBXX BATFR31 14064 99432 10053 46/// /1114 10140 40141 51001 22284 00159
BBXX 61001 14064 99434 10078 46/// /2213 10146 20109 40144 54000 22200 00154 10603 70013
BBXX BATUK01 14064 99583 70062 46/// /2702 10072 20004 49657 51030 22200 00099
BBXX PHQX 14063 99476 70317 41/97 22915 10068 20017 40170 57030 70100 823// 22224 20607 328// 40812 5//// 80045
BBXX 61002 14064 99421 10047 46/// ///19 10153 2//// 40138 57006 22200 00153 10604 70018
BBXX C6CU6 14063 99363 70282 41698 30110 10165 20120 40300 51010 70200 81141 22263 04190 20000 335// 41506 5//// 80140
BBXX A8UT7 14064 99401 70109 41598 63015 10160 20127 40189 52009 70322 85817 22282 20604 329// 41012 80140
BBXX PBEO 14063 99460 70077 41397 62634 10105 20062 40078 53008 70022 867// 22212 02125 20506 328// 40807 80083
BBXX A8AX3 14063 99412 70089 41/98 62531 10144 40219 51028 72582 8//// 22234 20404 329// 40707
BBXX SHIP 14064 99424 10070 41597 72430 10155 20113 40150 57020 70200 84860 22253 00160 20302 80130 333 82826 84358
BBXX PCPR 14063 99373 10063 41498 22615 10162 20141 40230 54000 7//11 82100 22263 04170 20402 328// 40503 80149
BBXX 2ALE5 14063 99302 70119 41598 60417 10185 20132 40247 55001 70322 86100 22214 20506 80155
AAXX 14061 38598 41696 80905 10028 20001 40357 52009 71022 885//
AAXX 14064 60395 12960 00000 10075 20071 40242 55000 60004 333 00400 20075 95900
AAXX 14064 60421 11960 00000 11000 21000 39217 48551 53008 60004 700// 333 05300 21008 95900
AAXX 14064 60423 11965 00000 10076 20021 39260 48526 58003 60004 700// 333 0//00 20062 95900
AAXX 14064 60430 11960 02810 10100 20072 40255 55005 60004 700// 333 00800 20096 95990
AAXX 14064 60437 11970 02204 10055 20040 39033 48532 56001 60004 700// 333 00400 20055 95900
AAXX 14064 60444 12965 00000 10049 20042 39148 48555 58001 60004 333 00100 20020 95990
AAXX 14064 60452 12565 4//// 10122 20076 40244 50000 60004 81202 222// 20000 333 0//// 20118 81820 83073 91826
AAXX 14064 60457 12960 02205 10108 20084 40253 58002 60004 333 00300 20086 95990
AAXX 14064 60514 11960 00000 10024 20011 39339 48581 53008 60004 700// 333 05200 20021 95990
AAXX 14064 60518 11965 02408 10130 20095 40237 58002 60004 700// 222// 29902 333 00900 20124 91837 95900
AAXX 14064 60520 11960 10000 10030 20020 40255 56006 60004 700// 80002 333 05200 20026 81073 95990
AAXX 14064 60540 11960 02404 10022 20007 39086 48543 5//// 60004 700// 333 05100 20022 95990
AAXX 14064 60560 11960 50000 10012 20004 39026 48566 53011 60004 700// 82032 333 05100 20010 82360 85073 95990
BBXX BATFR35 14064 99171 51504 46/// /0916 10272 20224 40139 51014 22272 00287
BBXX BATFR56 14064 99108 30715 44498 31210 10284 40111 50001 70200 83392 22252 00295 20802 316// 40802 5////
BBXX A8QJ7 14064 99170 50363 41398 60711 10250 20235 40121 55006 70322 8/77/ 22213 06250 2//// 3//// 4//// 5//// 80240
AAXX 14064 04048 42689 20121 11006 21052 49778 52006 81508 555 3/421
AAXX 14061 60370 36/// /2402 10105 20085 333 20093
AAXX 14061 60371 16/// /1703 10097 20084 69944 333 20097
AAXX 14061 60372 36/// /2602 10105 20074 333 20102
AAXX 14061 60373 NIL
AAXX 14061 60374 NIL
AAXX 14061 60376 NIL
AAXX 14061 60379 NIL
AAXX 14061 60380 NIL
AAXX 14061 60381 NIL
AAXX 14061 60393 NIL
AAXX 14061 60394 NIL
AAXX 14061 60593 NIL
AAXX 14061 60595 NIL
AAXX 14061 60605 NIL
AAXX 14061 60613 NIL
AAXX 14061 60623 NIL
AAXX 14064 60624 36/// /0000 10147 21038 333 20146
AAXX 14064 60639 NIL
AAXX 14064 60645 36/// /0000 10106 20012 333 20102
AAXX 14061 38838 41998 60000 10000 21017 39625 40322 53016 70241 83032
AAXX 14061 38598 NIL
AAXX 14061 38599 NIL
AAXX 14061 38725 NIL
AAXX 14061 38734 NIL
AAXX 14061 38744 42999 80000 11084 21148 38088 48620 53006 82032
AAXX 14061 38836 NIL
AAXX 14061 38838 NIL
AAXX 14061 38844 NIL
AAXX 14061 38846 NIL
AAXX 14061 38847 41/92 90000 11021 21024 40347 52007 74544
AAXX 14061 38932 NIL
AAXX 14061 38933 NIL
AAXX 14061 38944 32697 80000 10027 20014 39690 40240 58005 885// 333 20011
AAXX 14061 38954 NIL
AAXX 14063 04013 42689 50218 11008 21030 49849 52002 82510 555 3//24
AAXX 14061 38734 42699 50502 11067 21151 47080 56002 83503
AAXX 14061 13492 ///// 5//// 10010 333 21020
AAXX 14061 13584 NIL
AAXX 14061 13585 42998 20702 10011 20009 39419 40234 52006 80001 333 20003 31104 92000
AAXX 14061 13597 42698 00000 10034 20034 30135 40209 54000 20031 30101
AAXX 14061 13598 41/91 90000 11005 21009 48463 56003 74542 333 21027 34104 90430
BBXX BAREU61 14064 99167 70178 46/// /0217 10244 29055 40139 57012 22243
BBXX DCPY2 14063 99130 10487 41497 31017 10265 20188 40182 52032 71011 83180 22224 00260 20204 310// 40605 80215
BBXX BATFR19 14064 99039 30092 46/// /1717 10254 20220 40111 53009 22242 00254
BBXX BATEU00 14064 99584 30211 46/// /3119 11015 21016 49988 56012 22243
BBXX BATFR55 14064 99155 30532 44598 62016 10279 20262 40100 70322 84142 22232 00280 207// 30000 411// 511//
BBXX C6OM8 14060 99064 70292 41697 30705 10261 20230 40103 56020 70211 834// 22243 06274 20402 307// 40402 5//// 80240
BBXX A8YW2 14064 99320 30366 41398 70319 10250 20221 40100 52020 70322 86718 22224 00220 20905
BBXX OVSB2 14060 99103 50015 41598 81306 10218 20168 40139 54000 70222 888// 22234 00234 299// 317// 40503 5//// 80187
AAXX 14061 38846 42999 62102 10020 21041 38569 48530 58001 84033
BBXX A8EH3 14063 99542 71671 41/97 31715 10050 21026 49900 52050 701// 83/// 22225 04050 2//// 80020
BBXX 41101 14064 99146 70562 46/// /1113 10267 20236 40092 57018 22200 00274 10905 70025
BBXX BAREU08 14064 99247 70587 46/// ///// 40108 57016 22214
BBXX BAREU54 14064 99115 70803 46/// ///// 40110 57009 22253
BBXX BAREU00 14064 99445 70626 46/// ///// 40206 57021 22223
BBXX BAREU06 14064 99439 70503 46/// ///// 40176 57040 22274
BBXX BATFR13 14064 99321 70400 44797 61720 10209 20177 40250 58005 70222 8432/ 22214 00222
BBXX FVNM 14064 99063 70969 46/// /0210 10265 20229 40127 58002 22222 00272
BBXX DAJC 14063 99307 71415 41598 89904 10190 20124 40280 51020 70222 8742/ 22224 04200 20902 307// 41004 5//// 80150
AAXX 14061 01015 46/// /1712 10030 21024 333 21011 91124
AAXX 14061 01340 16/// /1705 10013 21032 38854 49691 50002 69952 333 21024 70019 91116
AAXX 14061 01425 16/// /1807 10049 20029 39664 49741 53003 60242 333 20018 70607 91120
AAXX 14061 01450 16/// /1810 11021 21032 38613 49725 55001 60012 333 21041 70086 91117
AAXX 14063 87480 32965 01807 10169 20130 30102 40132 58003
AAXX 14063 87532 32970 00902 10160 20143 30002 40170 57005
AAXX 14061 22165 11598 61612 10012 20001 39972 40033 56004 69960 70282 86500 333 21015 91116
AAXX 14061 22676 32482 81705 11037 21055 30103 40184 53001 885// 333 21045
AAXX 14061 22954 11360 81703 11022 21031 39903 40157 56001 77172 887// 333 21025 85707
AAXX 14061 23405 32979 21305 11088 21112 30114 40218 57008 80001 333 21092
AAXX 14061 23412 12698 81705 11083 21102 30163 40266 52003 69900 8655/ 333 21086 86646
AAXX 14061 23803 12699 81302 11107 21120 30112 40303 58008 69900 885// 333 21109 88637
AAXX 14061 27066 11496 81503 11038 21056 30036 40219 57003 69900 77177 8672/ 333 21053 86712
AAXX 14061 27083 32599 81703 11072 21093 30029 40263 57005 87500 333 21072
AAXX 14061 27113 11259 81702 11001 21007 39999 40146 53004 60010 77172 8872/ 333 21012 86705
AAXX 14061 27242 11460 82503 11016 21021 30049 40180 57001 69960 78582 889// 333 21019 87712
AAXX 14061 27329 11561 82102 10004 21004 30050 40177 52005 60050 70272 885// 333 21012
AAXX 14061 27355 11496 81604 11016 21018 30045 40214 57001 60020 77172 8872/ 333 21019
AAXX 14061 27373 11396 81506 11043 21059 30029 40255 57004 69920 77173 8872/ 333 21052 88709 9298/
AAXX 14061 27665 31396 81502 11040 21055 39996 40277 57001 77122 8872/ 333 21041 86707
AAXX 14061 27835 11997 72003 11018 21036 30093 40256 58001 69920 70273 87050 333 21026
AAXX 14061 28009 11998 81501 11151 21164 30098 40326 53008 69900 77172 8801/ 333 21125
AAXX 14061 28411 31996 80000 11228 21246 30135 40353 52006 77171 8802/ 333 21226
AAXX 14061 28418 31957 80000 11212 21231 30167 40352 52014 71011 80007 333 21211
AAXX 14064 87344 32960 02703 10158 20079 39616 40155 57015
AAXX 14064 87349 NIL
AAXX 14064 87371 32962 01806 10164 20138 30113 40134 58011
AAXX 14064 87374 32965 01806 10170 20139 30038 40124 55000
AAXX 14064 87395 32965 02006 10170 20129 30052 40096 57015
AAXX 14064 87418 32965 01803 10218 20056 39348 40118 58003
AAXX 14064 87436 32970 01110 10193 20038 39338 40126 58011
AAXX 14064 87448 NIL
AAXX 14064 87453 32965 02303 10140 20086 39674 40158 57009
AAXX 14064 87467 NIL
AAXX 14064 87497 NIL
AAXX 14064 87506 NIL
AAXX 14064 87509 32970 01802 10148 20049 39321 40134 58001
AAXX 14064 87534 32960 01406 10161 20125 30002 40162 58008
AAXX 14064 87548 32962 11408 10158 20139 30054 40149 57001 81060 333 56030 81360
AAXX 14064 87576 32360 71809 10175 20158 30110 40134 57009 87600 333 56400 85708 83712
AAXX 14064 87582 32560 11813 10181 20156 30118 40125 57012 81500 333 56400 81620
AAXX 14064 87585 32460 61806 10176 20163 30097 40126 57009 86600 333 56400 86715
AAXX 14061 80402 NIL
AAXX 14061 80412 NIL
AAXX 14061 80416 NIL
AAXX 14061 80420 32960 01601 10234 20213 30087 40093 333 30/// 59006 5//// 555 10106
AAXX 14061 80425 NIL
AAXX 14061 80426 11355 82301 10216 20215 39466 40107 60091 70252 887// 333 31/// 569// 59003 88710 555 10141
AAXX 14061 80427 32960 00202 10240 20228 39850 40102 333 30/// 59002 5//// 555 10119
AAXX 14061 80431 NIL
AAXX 14061 80434 NIL
AAXX 14061 80437 11460 40000 1243 2240 39994 40068 60031 70255 84500 333 32/// 56900 59008 84613 10085
AAXX 14061 80440 32960 03601 10251 20214 39878 40086 333 30/// 59004 5//// 555 10098
AAXX 14061 80442 32960 0//// 10245 2//// 39986 4//// 333 30/// 59003 5//// 555 10097
AAXX 14061 80472 32460 70701 10246 20215 39618 40092 85208 333 30/// 56909 59006 85816 555 10120
AAXX 14061 80475 32560 80000 10238 20220 39636 40093 885// 333 31/// 569// 58003 88620 555 10118
AAXX 14061 80476 NIL
AAXX 14061 80478 NIL
AAXX 14061 80479 NIL
AAXX 14061 01199 11580 81509 11011 21024 39420 49880 57020 60002 70221 885// 333 21047 47030 70085 91112
AAXX 14061 01262 46/// /1613 10048 20001 333 20034 91116
AAXX 14061 01329 16/// /0604 10031 20018 39625 49684 53012 60132 333 20017 70172 91115
AAXX 14061 01393 16/// /1606 11011 21030 38977 49758 55009 6//// 333 21017 91114
AAXX 14061 01436 11365 72219 10060 20037 60032 78098 86963 333 20045 70071 91129
AAXX 14061 80400 NIL
AAXX 14061 80403 32460 20903 10254 20243 30083 40102 82500 333 30/// 56900 58003 555 10105
AAXX 14061 80405 NIL
AAXX 14061 80407 NIL
AAXX 14061 80410 32460 50000 10219 20208 39431 40100 857// 333 30/// 569// 58000 85716 555 10143
AAXX 14061 80413 32460 53601 10231 20202 39624 40104 856// 333 30/// 569// 59003 85716 555 10141
AAXX 14061 80415 NIL
AAXX 14061 80419 NIL
AAXX 14061 80421 NIL
AAXX 14061 80423 32460 1//// 10230 20216 30077 40094 81200 333 30/// 56200 59006 81810 555 10093
AAXX 14061 80428 32960 00000 10247 20228 39900 40082 333 30/// 59004 5//// 555 10096
AAXX 14061 80432 NIL
AAXX 14061 80435 32960 33402 10244 20244 30009 40083 80003 333 30/// 56009 59006 555 10082
AAXX 14061 80438 11220 82302 10174 20170 38534 48531 60091 75055 887// 333 32/// 569// 58020 88707 555 10219
AAXX 14061 80444 32960 0//// 10240 2//// 30045 4//// 333 30/// 58002 5//// 555 10093
AAXX 14061 80447 32556 60000 10225 20215 39664 40082 333 30/// 58008 599// 84220 555 10106
AAXX 14061 80448 32960 20000 10234 20230 3//// 4//// 80008 333 30/// 56009 5////
AAXX 14061 80450 NIL
AAXX 14061 80453 NIL
AAXX 14061 80457 32460 5//// 10254 20249 30005 40089 83520 333 30/// 56990 58012 83613 555 10103
AAXX 14061 80462 NIL
AAXX 14061 01494 11457 71808 10043 20025 39732 49795 53003 60042 78882 8296/ 333 20018 70253 91120
AAXX 14061 22282 11/// 92215 11018 21029 30078 40086 53002 69920 73933 333 21018 91120
AAXX 14061 22438 NIL
AAXX 14061 22471 11484 81907 11019 21034 30103 40127 52006 69900 70283 885// 333 21032 88610 91112
AAXX 14061 22563 32497 82003 11018 21036 30104 40143 51003 885// 333 21046 88612
AAXX 14061 22641 11499 81202 11006 21018 30083 40099 58001 60030 70272 886// 333 21011 88714 91106
AAXX 14061 22695 32598 71504 11062 21085 30061 40220 57008 85530 333 21085 85624
AAXX 14061 22867 11597 81502 11017 21031 30049 40164 57006 69900 78582 8693/ 333 21025 86921 91108
AAXX 14061 22939 11496 81604 11008 21012 39970 40134 54000 60010 71072 8802/ 333 21016 88510
AAXX 14061 22996 32598 81603 11080 21098 30079 40279 57005 8252/ 333 21073
AAXX 14061 23324 32681 82003 11059 21085 30199 40279 52005 885// 333 21078 88640
AAXX 14061 27051 11496 81502 11022 21037 30008 40178 54000 69930 77173 8652/ 333 21027 84711
AAXX 14061 27225 11461 82002 10003 21005 30032 40165 53005 60050 70272 885// 333 21014 88617
AAXX 14061 27252 11450 81603 11020 21026 30001 40191 57012 69940 77177 8877/ 333 21025 88713
AAXX 14061 27333 11942 82104 11004 21010 30023 40182 52002 60030 77373 8802/ 333 21018 47008
AAXX 14061 27369 11495 81704 11027 21037 30099 40240 57004 69980 77172 8802/ 333 21035
AAXX 14061 27393 32498 80000 11116 21129 30138 40317 54000 82631 333 21110
AAXX 14061 27479 31332 81905 11034 21048 30131 40269 57001 77322 8872/ 333 21041 88708
AAXX 14061 27532 11295 82004 11010 21014 39986 40203 52004 60040 77177 8872/ 333 21020 86704
AAXX 14061 27648 11997 81904 11021 21043 30073 40246 53003 60020 73673 8803/ 333 21026
AAXX 14061 27675 32497 81804 11027 21043 30111 40286 58001 885// 333 21047
AAXX 14061 27679 32598 81503 11043 21049 30064 40296 58002 885// 333 21065 88620
AAXX 14061 28214 11994 81201 11241 21254 30114 40352 52003 71041 80007 333 21265
AAXX 14061 01265 16/// /2003 11001 21022 39168 49733 56009 60022 333 21004 70039 91110
AAXX 14061 01375 16/// /1702 11040 21044 6//// 333 21047 91103
AAXX 14061 01440 46/// /1910 11023 21025 38470 49714 51006 333 21047 91118
AAXX 14061 01469 16/// /1605 10035 21005 39599 49766 58001 60002 333 20010 70058 91113
AAXX 14061 34560 31/09 91303 11041 21042 30153 40327 52008 74342 333 21063 41997 89/02
AAXX 14061 34720 31496 80602 10014 20010 30225 40266 52002 71022 886// 333 20006
AAXX 14061 34730 31/03 90805 10010 20010 30179 40274 52006 74342 333 21002
AAXX 14061 34740 31596 81204 10017 20010 30175 40274 52005 71022 8658/ 333 20003
AAXX 14061 34824 31596 81103 10036 20019 30239 40244 52002 71022 8850/ 333 20035
AAXX 14061 34858 31495 81504 10013 20005 30181 40292 50003 71022 886// 333 20005
AAXX 14061 34866 32998 81104 11006 21017 30325 40316 52006 8007/ 333 21049
AAXX 14061 34880 31/93 90901 11064 21066 30363 40335 52009 74341 333 21082
AAXX 14061 37018 32698 70503 10066 20006 30160 40236 54000 82805 333 20057
AAXX 14061 37054 31996 81402 10005 21005 39898 40293 52004 71022 8001/ 333 20001
AAXX 14061 37472 32597 71203 10051 20017 30327 40304 52003 82581 333 21003
AAXX 14061 40701 11640 80000 11070 21082 38692 40380 53007 60001 71022 885// 333 30108 70000 88640
AAXX 14061 40704 12970 73004 11036 21092 38686 40339 53007 60001 80005 333 3/115 43012 70000 87270
AAXX 14061 40708 12960 50000 11092 21096 38738 40354 52008 60001 80002 333 3/114 43003 70000 85068
AAXX 14061 40710 11610 70000 11126 21142 38403 40453 51005 69911 74074 83520 333 3/121 48009 70001 83635 87457
AAXX 14061 40713 11622 80000 11016 21062 38759 40338 52008 60001 70522 8252X 333 34103 70000 82635 88459
AAXX 14061 40719 11930 40000 10060 20041 30314 40303 53007 60001 71000 80004 333 31001 50041 79999 84069
AAXX 14061 40731 11935 30000 10046 21019 38815 40304 50008 60001 70500 80001 333 30108 70000 83070
AAXX 14061 40738 12960 00000 10056 20056 30318 40320 52008 60001 333 31104 5///1 70000
AAXX 14061 40740 12960 40000 11048 21071 38803 40320 53005 60001 84050 333 3/113 47003 70000 84359
AAXX 14061 40747 12960 30000 11018 21057 38713 40322 51009 60001 80009 333 34111 70000 83168
AAXX 14061 40757 12965 00000 10066 21027 38979 40291 53005 60001 333 30104 5///1 70000
AAXX 14061 40763 12965 00000 10068 21070 38992 40285 53006 60001 333 30/// 70000
AAXX 14061 40782 12962 00000 10038 2107 38949 40290 53010 60001 333 30109 5//// 70000
AAXX 14061 40783 12970 21504 10036 21079 38044 40269 51006 60001 80001 333 30106 5//// 70000 82069
AAXX 14061 40789 12965 00000 10056 21038 39298 40301 52012 60001 333 30104 50231 70000
AAXX 14061 40798 12960 00000 11002 21128 38030 40325 52103 60001 333 30112 70000
AAXX 14061 40818 12975 00103 10038 21093 38037 40277 52011 60001 333 30106 5///1 70000
AAXX 14061 40827 12970 00000 10050 21109 38917 40329 53017 60001 333 30106 70000
AAXX 14061 40836 12965 00000 10050 21088 38257 40269 52012 60001 333 30109 5///1 70000
AAXX 14061 40851 12960 02402 10056 21102 38328 40265 52015 60001 333 30109 5//// 70000
AAXX 14061 40853 12965 00000 10086 21171 37802 40238 52012 60001 333 30107 5//// 70000
AAXX 14061 40854 12960 00000 10124 21060 39029 40253 52011 60001 333 30000 50311 70000
AAXX 14061 40857 11956 00102 10144 20065 30219 40229 52015 60001 70500 222// 00170 331// 40402 333 30009 50181 70000
AAXX 14061 40859 12962 00000 10112 21030 38767 40224 52013 60001 333 30104 50271 70000
AAXX 14061 40878 12965 00106 10125 21125 38909 40264 51011 60001 333 30001 5///1 70000
AAXX 14061 40879 12965 10000 10161 21105 39556 40246 51010 60001 80001 333 30003 50381 70000 81070
AAXX 14061 40883 12960 00903 10234 21016 30184 40207 52015 60001 222// 00220 20500 333 30012 50541 70000
AAXX 14061 40898 12960 03602 10240 20060 30188 40197 51023 60001 222// 00246 10700 333 30014 50461 70000
AAXX 14061 01277 16/// /1403 10037 21035 69942 333 20010 70004 91108
AAXX 14061 01476 16/// /2216 10069 20030 39770 49776 55000 6//// 333 20038 91123
BBXX 3ERR2 14064 99635 10053 41598 71223 10078 49617 57024 70222 8551x 22200 06098 11005 70025 333 91126
BBXX LF3F 14064 99643 10078 43/// /1314 10064 21009 49656 57010 22200 04088 10704 70022 333 91116
BBXX LF3N 14064 99653 10073 41497 61812 10069 20029 49653 57002 70122 86/// 22200 00089 10706 70032
BBXX LF4B 14064 99606 10037 47/97 /1936 10079 49590 52016 700// 22200 00072 10914 70071 333 91148
BBXX LF4C 14064 99584 10019 41597 82332 10080 20046 49648 52017 702// 89/// 22200 00081 10811 70057 333 91146
BBXX LF5T 14064 99660 10081 41497 81910 10048 20031 49655 54000 78882 88/// 22200 333 91129
AAXX 14061 08501 32/// /2502 10120 20081 30259 40296 54000 333 20108 30009 5//// 55025 20608 555 60005
AAXX 14061 08505 NIL
AAXX 14061 08506 32/// /3402 10131 20074 30233 40306 52003 333 20120 30013 5//// 55057 20838 555 60005
AAXX 14061 08509 32560 70000 10127 20110 30230 40295 50005 878// 333 20117 50234 55029 83820 86637 555 60007
AAXX 14061 08511 32/// /3601 10119 20085 30185 40294 52003 333 20119 30009 5//// 55050 26090 555 60005
AAXX 14061 08512 32575 73602 10121 20083 30207 40293 52005 85838 333 20103 30009 5//// 55030 20547 81820 85640 85270 555 60007
AAXX 14061 08515 32575 63602 10124 20095 30171 40294 50003 82806 333 20114 3007 50264 55/// 81820 86280 910// 911// 555 60007 912//
AAXX 14061 08521 32470 32801 10159 20122 30207 40278 55003 83800 333 20151 30/// 55070 82816 555 60007
AAXX 14061 08522 32/// /0202 10156 20106 30209 40279 57003 333 20155 30013 5//// 55044 20886 555 60005
AAXX 14061 08524 12470 33201 10142 20136 30178 40277 57003 69922 83800 333 20140 3/011 40/// 5//// 55074 21290 82815 91106 555 69925
AAXX 14061 08530 NIL
AAXX 14061 08531 12/// /3005 10156 20121 30192 40230 52006 60032 333 20149 30013 5//// 55025 20545 91009 91109 555 60005
AAXX 14061 08532 NIL
AAXX 14061 08533 12/// /2904 10163 20136 30221 40250 57001 69932 333 20155 30013 5//// 55057 21003 91006 91106 555 60005
AAXX 14061 08534 11457 82903 10142 20139 30213 40231 53003 60042 76162 85871 333 20138 50094 55048 81816 85625 85357 555 60047
AAXX 14061 08535 12/// /9902 10138 20133 30139 40232 52004 60072 333 20137 31012 5//// 55062 20841 555 60055
AAXX 14061 08537 NIL
AAXX 14061 08540 11457 72001 10122 20119 30150 40219 50001 60082 71052 878// 333 20122 50124 55011 82815 87630 555 60007
AAXX 14061 08541 NIL
AAXX 14061 08544 12560 83305 10130 20105 30189 40210 53004 60142 888// 333 20128 50134 55000 82820 87630 91110 555 60007
AAXX 14061 08545 NIL
AAXX 14061 08548 12/// /0000 10112 20109 30017 40223 54000 60052 333 20112 30007 5//// 55010 20299 555 60005
AAXX 14061 08551 12/// /3102 10115 20094 30152 40210 52006 60042 333 20113 31010 5//// 55002 20314 91109 555 69915
AAXX 14061 08554 12358 23001 10127 20115 30241 40251 57002 60052 82800 333 20120 30012 5//// 55037 20605 82708 555 60005
AAXX 14061 08558 12/// /2203 10122 20122 39937 40232 57004 69912 333 20121 30012 5//// 55001 20420 91106 555 60005
AAXX 14061 08560 12/// /2403 10084 20064 39457 40219 52011 60142 333 20077 30006 5//// 55001 20190 91006 91110 555 60005
AAXX 14061 08561 11140 72103 10114 20114 30004 40238 55005 69912 74082 86601 333 20112 50134 55033 82702 84706 555 69917 96640
AAXX 14061 08562 12/// /2304 10121 20116 39943 40238 57004 69942 333 20119 30011 5//// 55020 20522 91106 555 60005
AAXX 14061 08567 12/// /2605 10093 20076 39539 40204 52001 60042 333 20088 31008 5//// 55003 20132 91008 91108 555 69915
AAXX 14061 08568 12/// /2807 10031 20031 38641 48513 54000 60212 333 20031 30003 5//// 55014 20589 91014 91119 555 60005
AAXX 14061 08570 NIL
AAXX 14061 08571 12/// /2905 10099 20099 39526 40232 54000 60052 333 20099 31010 5//// 55000 20171 91008 91109 555 60025
AAXX 14061 08575 12/// /9902 10075 20055 39376 40191 52002 60072 333 20074 31007 5//// 55000 20191 91107 555 60005
AAXX 14061 08579 12/// /2402 10138 20131 30105 40230 52003 60042 333 20138 31013 5//// 55063 20653 555 60035
AAXX 14064 60764 13962 00000 10035 20019 30224 40278 52014 60004 333 20025
AAXX 14064 48324 31556 13604 10289 20154 39929 40146 57022 70500 81100 333 58002
AAXX 14064 48481 31558 73302 10295 20257 30083 40110 57021 71022 83556 333 59011
BBXX 3FZK3 14064 99537 71766 46/// /2321 10021 20004 49684 51061 7//// 8//// 22223 0//// 2////
BBXX 46035 14061 99571 71778 46/// /0921 1//// 49623 55004 90550 22200 11317 20709 300// 41314 70084 333 91226 555 11211 22226 30533 41127 60549 092211 097217 081213 083200 091197 083205 81023 90533
BBXX DMRX 14064 99464 71726 41296 80625 10031 20020 49780 57100 76876 84778 22224 00080 20306 30532 40408 50612 80026
BBXX KFMV 14063 99310 71701 41/// /2130 10222 20190 40155 54000 7//22 8//// 22225 00222 20505 325// 40904 5//// 6//// 80200 ICE /////
BBXX NWS0003 14064 99579 71684 43/// /1123 10024 20014 49888 5//// 7//// 8//// 222// 04032 2//// 3//// 4//// 5//// 6//// 8//// ICE /////
BBXX VREX8 14064 99326 71674 41496 41119 10180 20160 40180 56020 7//22 842// 22254 0//// 20506 311// 4//// 5//// 6//// 80170 ICE /////
AAXX 14061 01271 16/// /1606 10044 21046 39681 49701 55008 60002 333 20026 43004 70000 91116
AAXX 14063 87016 32962 53202 10192 20186 39725 40130 58019 80006
AAXX 14064 89022 46/// /0905 11065 21082 39774 49812 52003
AAXX 14064 89062 46/// /3425 10015 21041 39761 49801 5//// 333 55002
AAXX 14063 NIL
AAXX 14064 87593 NIL
AAXX 14064 87623 32980 00906 10150 20125 39958 40182 58004
AAXX 14064 87641 NIL
AAXX 14064 87645 32165 71408 10163 20151 39973 40177 57011 87600 333 56300 87703
AAXX 14064 87648 NIL
AAXX 14064 87692 NIL
AAXX 14064 87715 32965 01402 10194 20035 39858 40167 53004
AAXX 14064 87750 32565 80914 10165 20133 30097 40195 57011 886// 333 56099 88720
AAXX 14064 87765 31950 01611 10139 20038 39217 48532 58004 70400 333 96104 96120 99359
AAXX 14064 87784 NIL
AAXX 14064 87791 NIL
AAXX 14064 87800 NIL
AAXX 14064 87803 31965 00000 10148 20047 39258 40146 51004 70400 333 96104
AAXX 14064 87828 31965 53616 10176 20079 30110 40160 57015 70411 81042 333 56000 57300 81360 84070
AAXX 14064 87860 31970 11605 10170 20111 30077 40131 53005 70600 80006 333 56006 81270
AAXX 14064 87904 NIL
AAXX 14064 87909 NIL
AAXX 14064 87925 32980 32702 10097 20051 30142 40165 51008 80004 333 56000 83070
AAXX 14064 87938 NIL
AAXX 14061 23914 31/93 91802 11199 21216 30063 40347 52010 74540 333 21188 96045
AAXX 14061 23921 32664 70000 11278 21303 30215 40350 52006 82501 333 21285
AAXX 14061 23955 42498 21201 11217 21233 30324 40392 52000 82600
AAXX 14061 23966 42997 00000 11228 21247 30256 40396 53005
AAXX 14061 28138 32999 30000 11204 21224 39724 40349 52006 80001 333 21246
AAXX 14061 28224 31601 11217 21231 30110 40347 52006 71022 84075 333 21213
AAXX 14061 28255 32999 80000 11195 21213 30212 40354 51004 8802/ 333 21220
AAXX 14061 28440 11496 51601 11206 21229 39965 40352 52005 69900 71071 85300 333 21218
AAXX 14061 28645 11963 80000 11226 21238 30037 40367 53038 69930 70272 80001 333 21222
AAXX 14061 28661 11996 00000 11239 21264 30242 40345 52003 69900 71072 333 21256
AAXX 14061 28722 32996 52301 11184 21201 30205 40349 52012 71072 85070 333 21213
AAXX 14061 28748 12960 82901 11235 21254 30097 40365 52011 69900 8807/ 333 21239
AAXX 14061 28838 12997 01201 11235 21260 39843 40374 52014 69920 333 21260
AAXX 14061 29231 42998 40601 11213 21238 30294 40400 54000 80001
AAXX 14061 29313 42998 30501 11214 21230 30242 40377 54000 80002
AAXX 14061 29612 41997 70803 11172 21183 30170 40334 57005 77171 87070
AAXX 14061 29638 41937 80000 11122 21135 30191 40367 57001 71022 80001
AAXX 14061 29838 42697 62601 11116 21144 30113 40359 53002 83131
AAXX 14061 29846 41912 62401 11168 21174 39970 40387 57007 71022 83031
AAXX 14061 36061 42599 80000 11159 21178 39949 40389 58006 86531
AAXX 14061 28049 32999 61502 11234 21257 30167 40350 54001 80002 333 21232
AAXX 14061 28144 32998 51201 11245 21265 30171 40348 55000 80001 333 21267
AAXX 14061 28319 31896 80000 11209 21225 30162 40344 52006 77171 8802/ 333 21226
AAXX 14061 28321 31997 01701 11232 21257 30122 40350 57007 71011 333 21222
AAXX 14061 28334 32998 30000 11279 21296 30026 40372 52011 80005 333 21278
AAXX 14061 28434 32998 20000 11248 21270 30072 40361 52010 80001 333 21279
AAXX 14061 28552 11496 82901 11201 21224 30231 40356 52007 69920 77172 8671/ 333 21220
AAXX 14061 28666 31949 73102 11238 21262 30136 40330 57003 77171 87010 333 21270
AAXX 14061 28825 11996 70000 11177 21191 30168 40356 52013 69930 71072 80005 333 21178
AAXX 14061 29111 42999 01101 11246 21268 30294 40392 54000
AAXX 14061 29209 42998 00000 11245 21264 30234 40374 54000
AAXX 14061 29551 41996 80000 11217 21235 30211 40413 58001 71011 80001
AAXX 14061 29602 41998 80603 11206 21225 30168 40322 57008 72271 8801/
AAXX 14061 29636 42998 61402 11189 21195 30143 40381 57006 83032
AAXX 14061 29654 42999 70000 11137 21164 39729 40381 57002 80005
AAXX 14061 29712 41997 81103 11151 21164 30167 40320 56003 77171 8802/
AAXX 14061 29724 41598 81202 11138 21158 30125 40343 57004 70282 83372
AAXX 14061 29726 41596 80902 11105 21118 30175 40352 57005 78587 83308
AAXX 14061 29814 41499 80904 11160 21187 30159 40316 58006 72682 83302
AAXX 14061 29827 41998 21605 11121 21148 30172 40334 57001 70181 80002
AAXX 14061 29923 41999 11504 11083 21106 30060 40348 57003 70271 80001
AAXX 14061 29939 42598 80801 11125 21160 30067 40368 57003 84531
AAXX 14061 35026 12997 00000 11234 21261 39671 40380 52020 69900 333 21227
AAXX 14061 36021 42999 31701 11166 21192 30130 40324 57004 80002
AAXX 14061 36022 42998 21704 11117 21152 30058 40335 58002 80009
AAXX 14061 36038 41999 61805 11054 21087 39894 40349 52007 73673 86010
AAXX 14061 36058 42699 80000 11102 21115 39832 40379 58006 85532
AAXX 14061 36064 42999 80802 11036 21116 39755 40365 57004 83028
AAXX 14061 36229 41598 80000 11157 21175 39174 40428 58002 78582 8697/ 333 83931
AAXX 14061 36259 42599 80000 11218 21258 38320 48603 57001 84902
AAXX 14064 87078 NIL
AAXX 14064 87244 NIL
AAXX 14064 87393 NIL
AAXX 14064 87416 32965 01805 10193 20071 39409 40133 51003
AAXX 14064 87563 NIL
AAXX 14064 87640 NIL
AAXX 14064 87688 NIL
AAXX 14064 87774 NIL
AAXX 14064 87852 NIL
AAXX 14064 87896 NIL
AAXX 14063 91802 NIL
AAXX 14063 91809 NIL
AAXX 14063 91831 36/// /0803 10258 20224 40166 52005
AAXX 14063 91841 36/// /0000 10257 20214 40151 52016
AAXX 14063 91843 31498 60305 10275 20239 40146 52018 60001 70222 83207 333 561/9 83818 86279
AAXX 14063 91848 36/// /0304 10258 20232 40212 57035
AAXX 14061 40700 12960 00000 10004 21019 30220 40317 51005 60001 333 30105 70000
AAXX 14061 40723 11956 30000 10006 21039 39004 40325 50006 60001 70500 80001 333 31108 70000 83068
AAXX 14061 40726 11656 80000 11020 21066 38747 40335 51007 60001 70522 8452/ 333 34105 70000 84635 88458
AAXX 14061 40727 11956 80000 11016 21047 38566 40331 51006 60001 70522 80008 333 34104 70000 88270
AAXX 14061 40734 12965 10000 10082 20055 30235 40299 53005 60001 81130 333 30101 50130 70000 81830 81360
AAXX 14061 40737 12970 00000 10074 20046 30285 40303 54000 60001 333 31103 50041 70000
AAXX 14061 40741 12960 00000 10057 20023 39987 40335 53009 60001 333 30102 70000
AAXX 14061 40780 12960 30802 10070 21135 38746 40263 52010 60001 80001 333 30101 70000 83070
AAXX 14061 40791 12965 00000 10068 21068 39441 40288 52008 60001 333 30103 50241 70000
AAXX 14061 40792 12970 00000 10050 21075 38790 40283 52016 60001 333 30105 70000
AAXX 14061 40794 11956 00000 10086 20058 30133 40233 53004 60001 71000 90545 333 30100 40211 70000
AAXX 14061 40812 12960 00000 10110 20044 39840 40222 52011 60001 90545 333 30002 50191 70000
AAXX 14061 40829 12965 03504 10082 21063 39690 40280 51005 60001 333 30108 5///1 70000
AAXX 14061 40833 12960 00000 10086 20023 30208 40242 52014 60001 90550 333 30003 50121 70000
AAXX 14061 40835 12970 00000 10128 21010 39394 40240 52016 60001 333 30103 50261 70000
AAXX 14061 40845 12960 03505 10166 20106 30223 40228 52015 60003 90545 333 30013 50451 70000
AAXX 14061 40882 12962 01102 10236 20157 30175 40210 52017 60001 333 30012 50401 70000
AAXX 14061 40889 12960 00506 10240 20142 30205 40211 52017 60003 333 30017 222// 00252 20401 333 30017 50541 70000
AAXX 14061 40890 12960 10606 10244 20122 30191 40199 51017 60003 80001 222// 00240 20302 333 30019 50670 70000 81070
AAXX 14061 40893 12960 10000 10230 20098 30201 40207 52021 60001 80001 222// 00210 20600 333 30016 50421 70000 81068
AAXX 14061 40897 NIL
AAXX 14064 40153 11950 60812 10111 21024 39126 48524 52003 60002 70500 80008 333 20102 70000
AAXX 14064 40179 12960 70902 10103 20065 30157 40195 52003 60002 85086 333 20092 50101 55075 70000
AAXX 14064 40180 12960 70000 10096 20054 30149 40199 58005 60002 82036 333 20089 70000
AAXX 14064 40190 16/// ///// 10091 20035 39862 40201 52005 60002 333 20064 70000
AAXX 14064 40199 13/// /0205 10145 20021 30167 40190 52008 60002 333 20131 55087 70000
AAXX 14064 04203 46/// /1909 11166 21203 30036 40054 52001
AAXX 14064 04205 45/84 /3201 11230 21285 30039 40063 54000 333 11194 21231
AAXX 14064 04208 46/// ///// 11145 21165 39981 40028 54000
AAXX 14064 04213 46/// /1413 11083 21182 39894 40006 52007 333 11063 21100
AAXX 14064 04214 46/// /1316 11060 21144 39971 40004 52002
AAXX 14064 04224 47461 81101 11084 21107 39990 40023 52008 77188 333 11084 21109 88/19
AAXX 14064 04228 NIL
AAXX 14064 04242 46/// /0510 11080 21121 30035 40052 52010
AAXX 14064 04253 46/// /3520 11052 21060 30008 40035 52010
AAXX 14064 04266 46/// /3243 11042 21057 39959 49997 52008 333 91056
AAXX 14064 04285 46/// /3123 11039 21047 39926 49945 57002
AAXX 14064 04301 NIL
AAXX 14064 04313 46/// /3604 11239 21272 30106 40118 52009
AAXX 14064 04330 46/// /3419 11135 21184 30037 40055 52005
AAXX 14064 04351 46/// /0617 11101 21127 39950 49966 52017
AAXX 14064 04373 46/// /3317 11069 21155 39861 49955 52004
AAXX 14064 04382 46/// /3004 11037 21112 39894 49943 54000
AAXX 14064 04416 NIL
AAXX 14061 13463 32662 70702 10087 20085 30163 40224 52009 85830 333 20080 32005 55000
AAXX 14061 13459 12670 82301 10058 20058 39458 40229 53001 69972 8587/ 333 20052 32005 55000 85696 88498
AAXX 14061 13461 32670 61102 10104 20096 30215 40223 52006 84830 333 20089 32006 55000 82840 83650 92322 92428 92515
AAXX 14061 13363 31/01 91801 11017 21017 39288 48488 52006 74744 333 21022 31105 55025
AAXX 14061 38725 42699 60000 10009 21167 48560 52004 84501
AAXX 14061 34357 31597 81202 11037 21038 30144 40306 52008 70241 885// 333 21049
AAXX 14061 34363 31/92 90702 11060 21061 30175 40336 52005 74944 333 21077 93510
AAXX 14061 34545 31395 81403 11003 21045 30180 40299 52003 71042 886// 333 21054
AAXX 14061 34579 31995 81001 11047 21050 30291 40336 52009 71011 8005/ 333 21072
AAXX 14061 34838 32/97 81102 10033 20013 30160 40258 52003 8005/ 333 20023
AAXX 14061 34927 31696 70501 10040 20027 30212 40249 52003 71022 82530 333 20035
AAXX 14061 34949 32997 81003 10004 21001 39716 40276 57005 8805/ 333 21005
AAXX 14061 37001 32997 81102 10097 20004 30192 40233 52004 83032 333 20069
AAXX 14061 37031 32997 81303 10040 20003 30059 40257 54000 87031 333 20027
AAXX 14061 37061 31496 81204 10010 20007 30124 40295 54000 71052 886// 333 20009
AAXX 14061 37085 31596 30802 10010 20006 30338 40366 52006 72841 82501 333 21012
AAXX 14061 37107 32999 80000 10017 21011 39575 40268 52001 8004/ 333 20002
AAXX 14061 37126 32999 82004 11033 21106 37981 48552 54000 87031 333 21067 48006
AAXX 14061 37171 32998 80506 10071 20011 30216 40235 53004 80001 333 20049
AAXX 14061 37228 32999 41503 10039 21102 39434 40279 52004 80009 333 21050
AAXX 14061 37470 32998 03302 10082 20008 30329 40306 52007 333 20048
AAXX 14061 37663 32999 02601 11005 21052 39095 48552 51010 333 21068
AAXX 14061 23909 32998 40000 11201 21221 30062 40335 52005 80002 333 21200
AAXX 14061 28044 32997 20000 11264 21291 30163 40348 51003 80001 333 21272
AAXX 14061 28116 31896 80000 11240 21265 30091 40352 52009 71022 83017 333 21239
AAXX 14061 28240 32998 80000 11243 21270 39989 40351 54001 80004 333 21264
AAXX 14061 28522 31996 20000 11225 21234 30071 40358 52015 71000 80003 333 21235
AAXX 14061 28621 11996 32301 11177 21191 30091 40345 52015 69920 71071 80001 333 21170
AAXX 14061 29023 42998 00000 11191 21216 30302 40409 58007
AAXX 14061 29122 42999 00000 11205 21216 30320 40400 54000
AAXX 14061 29328 42998 80501 11183 21201 30230 40382 58005 80001
AAXX 14061 29348 42997 10000 11190 21206 30243 40402 58004 80001
AAXX 14061 29405 42997 00702 11201 21220 30191 40352 58004
AAXX 14061 29418 41596 80502 11188 21207 30180 40353 57006 78581 85905
AAXX 14061 29430 42998 80000 11189 21208 30199 40392 57002 80001
AAXX 14061 29524 41497 80801 11152 21165 30180 40356 57007 78587 87932
AAXX 14061 29605 42998 20502 11225 21237 30168 40325 58004 80001
AAXX 14061 29631 42997 70502 11140 21153 30168 40366 57001 80009
AAXX 14061 29645 41996 80000 11222 21240 30191 40399 57003 70422 82071
AAXX 14061 29706 41997 80902 11173 21192 30154 40312 57005 77172 8802/
AAXX 14061 29736 42997 80000 11163 21189 30101 40370 57009 84031
AAXX 14061 29937 41597 81601 11062 21093 30120 40349 58001 70282 885//
AAXX 14061 36034 42998 31804 11080 21121 30055 40343 58007 80004
AAXX 14061 36096 41997 50000 11291 21316 39704 40593 58005 77672 80001
AAXX 14064 71550 16/// /2410 11043 21063 39757 40137 56013 60001 333 11040 21115 70000 555 32217 40221
AAXX 14064 71577 46/// /2009 11028 21040 6///1 333 11027 21158 7//// 555 32218 40221
AAXX 14064 71269 16/// /0000 11174 21191 60001 333 11064 21210 70000
AAXX 14064 71285 46/// /2807 11041 21097 6///1 333 11032 21156 7////
AAXX 14064 71832 16/// /1903 11052 21060 39923 40258 58006 60001 333 11049 21091 70000
AAXX 14064 71622 16/// ///// 10021 21004 39936 40278 56011 60001 333 10069 21046 70000
AAXX 14064 71026 16/// /0401 11123 21141 39214 40082 56014 60001 333 7////
AAXX 14064 71063 16/// /3301 10020 20016 30185 40284 54000 60001 333 10033 21005 70000
AAXX 14064 71903 16/// /1902 10014 20003 30108 40158 50000 60001 333 10050 20013 7////
AAXX 14064 71135 16/// /2204 11070 21085 39014 40113 56016 60001 333 11059 21089 70000 555 32017 40141
AAXX 14064 71137 16/// /1707 11060 21066 39149 40105 56015 60001 333 11053 21072 70000
AAXX 14064 71503 46/// /2705 11267 21302 39912 40197 53017 6///1 333 11097 21267 7//// 555 32830 40092
AAXX 14064 71506 46/// /3403 11222 21239 39204 40121 51003 6///1 333 11157 21224 7//// 555 31124 40131
AAXX 14064 71511 16/// /2108 11059 21069 39466 40112 56014 60001 333 11050 21066 70000 555 32020 40081
AAXX 14064 71514 16/// /2110 11053 21072 39415 40123 56011 60001 333 11045 21061 70000 555 31920 40111
AAXX 14064 71107 16/// /0907 10032 20006 30062 40176 58002 60001 333 7////
AAXX 14064 71147 16/// /1906 11027 21043 60001 333 11027 21166 70000
AAXX 14064 71186 46/// /0607 11016 21037 6///1 333 10002 21016 7//// 555 30917 40021
AAXX 14064 71190 46/// /3402 11005 21023 6///1 333 10015 21005 7////
AAXX 14064 71228 16/// /1904 11081 21110 60001 333 11039 21135 7////
AAXX 14064 71423 16/// /0209 11041 21087 30286 40296 53003 60001 333 11012 21050 70000 555 30523 40161
AAXX 14064 71480 16/// /1103 11203 21224 30062 40188 51015 60001 333 11104 21243 70000 555 33118 40071
AAXX 14064 71496 16/// /2206 11063 21077 39480 40097 56010 60001 333 11018 21077 70000 555 32120 40071
AAXX 14064 71421 16/// ///// 11255 21281 39570 40330 58002 60001 333 11140 21301 70000
AAXX 14064 71976 46/// /2229 11096 21107 39309 49935 58018 6///1 333 11086 21203 7//// 555 32249 40033
AAXX 14064 71363 16/// /2818 11187 21206 39716 49769 53013 60001 333 11137 21190 70000 555 31333 40122
AAXX 14064 71374 46/// /0106 11089 21136 6///1 333 11075 21113 7//// 555 30018 40071
AAXX 14064 71387 16/// /0302 11077 21085 39906 40293 56003 60001 333 11005 21077 70000
AAXX 14064 71309 16/// /1803 11059 21076 30231 40243 56025 60001 333 11059 21220 70015
AAXX 14064 71312 16/// /2008 11051 21067 39638 40100 56010 60001 333 11044 21101 70000 555 32325 40161
AAXX 14064 71320 16/// /1027 11132 21144 39847 49849 56008 60001 333 11130 21317 70000 555 10270 31242 40023
AAXX 14064 71332 16/// /2612 11268 21296 30118 40149 51013 60001 333 11191 21284 70000 555 33332 40132
AAXX 14064 71340 16/// /2707 11061 21085 60001 333 11022 21130 70000
AAXX 14064 71341 16/// /2627 11027 21081 60001 333 11019 21103 70000 555 32647 40003
AAXX 14064 71342 17/// /2206 11095 21110 60021 7//4/ 333 11075 21142 70066 555 32318 40221
AAXX 14064 71344 16/// /2703 11087 21101 60001 333 11062 21173 70004
AAXX 14064 71347 17/// /2904 11069 21072 60021 7//4/ 333 11003 21094 70037 555 32726 40071
AAXX 14064 71348 17/// /2802 11066 21074 60021 7//4/ 333 10007 21066 70080 555 32922 40071
AAXX 14064 71349 16/// ///// 11032 21082 60001 333 11003 21092 70000
AAXX 14064 71737 16/// /0701 11020 21025 39750 40281 51003 60001 333 10012 21021 70000
AAXX 14064 71743 16/// /2122 11099 21125 39869 40088 58034 60001 333 11078 21140 70000 555 32437 40043
AAXX 14064 71746 46/// /2004 10021 20000 30047 40271 57008 6///1 333 10057 21026 7////
AAXX 14064 71747 16/// /1704 11010 21019 39729 40212 58018 60001 333 10014 21082 70000
AAXX 14064 71748 16/// /1908 11032 21044 39866 40158 56015 60001 333 11032 21190 70000 555 32017 40221
AAXX 14064 71682 16/// /0802 11122 21131 39934 40167 51023 60001 333 10037 21122 70013
AAXX 14064 71832 16/// /1903 11052 21060 39923 40258 58006 60001 333 11049 21091 70000
AAXX 14060 67591 32580 70401 10275 20/// 81230 333 20234 81820 86358 555 10284 7//22
AAXX 14060 67597 32580 73203 10276 20223 39521 48503 86208 333 20233 5//// 55/// 58004 86825 87280 555 10315 7//92
AAXX 14064 71135 16/// /2204 11070 21085 39014 40113 56016 60001 333 11059 21089 70000 555 32017 40141
AAXX 14064 71137 16/// /1707 11060 21066 39149 40105 56015 60001 333 11053 21072 70000
AAXX 14064 61970 16/// ///// 10310 20246 40124 60004 333 20255 55/// 58001 555 60005
AAXX 14064 61972 16/// /0607 10302 20246 40123 60004 333 20252 55/// 58002 90710 91112 555 60005
AAXX 14064 71421 16/// ///// 11255 21281 39570 40330 58002 60001 333 11140 21301 70000
AAXX 14064 71682 16/// /0802 11122 21131 39934 40167 51023 60001 333 10037 21122 70013
AAXX 14064 71363 16/// /2818 11187 21206 39716 49769 53013 60001 333 11137 21190 70000 555 31333 40122
AAXX 14064 71374 46/// /0106 11089 21136 6///1 333 11075 21113 7//// 555 30018 40071
AAXX 14064 71387 16/// /0302 11077 21085 39906 40293 56003 60001 333 11005 21077 70000
AAXX 14064 71309 16/// /1803 11059 21076 30231 40243 56025 60001 333 11059 21220 70015
AAXX 14064 71312 16/// /2008 11051 21067 39638 40100 56010 60001 333 11044 21101 70000 555 32325 40161
AAXX 14064 71320 16/// /1027 11132 21144 39847 49849 56008 60001 333 11130 21317 70000 555 10270 31242 40023
AAXX 14064 71332 16/// /2612 11268 21296 30118 40149 51013 60001 333 11191 21284 70000 555 33332 40132
AAXX 14064 71340 16/// /2707 11061 21085 60001 333 11022 21130 70000
AAXX 14064 71341 16/// /2627 11027 21081 60001 333 11019 21103 70000 555 32647 40003
AAXX 14064 71342 17/// /2206 11095 21110 60021 7//4/ 333 11075 21142 70066 555 32318 40221
AAXX 14064 71344 16/// /2703 11087 21101 60001 333 11062 21173 70004
AAXX 14064 71347 17/// /2904 11069 21072 60021 7//4/ 333 11003 21094 70037 555 32726 40071
AAXX 14064 71348 17/// /2802 11066 21074 60021 7//4/ 333 10007 21066 70080 555 32922 40071
AAXX 14064 71349 16/// ///// 11032 21082 60001 333 11003 21092 70000
AAXX 14064 71737 16/// /0701 11020 21025 39750 40281 51003 60001 333 10012 21021 70000
AAXX 14064 71743 16/// /2122 11099 21125 39869 40088 58034 60001 333 11078 21140 70000 555 32437 40043
AAXX 14064 71746 46/// /2004 10021 20000 30047 40271 57008 6///1 333 10057 21026 7////
AAXX 14064 71747 16/// /1704 11010 21019 39729 40212 58018 60001 333 10014 21082 70000
AAXX 14064 71748 16/// /1908 11032 21044 39866 40158 56015 60001 333 11032 21190 70000 555 32017 40221
AAXX 14064 61974 12581 30304 10308 20237 40111 60004 82801 333 20221 59003 82820 94323
AAXX 14064 61986 12580 30506 10301 20258 40113 60314 82202 333 0//29 20248 58005 83820 83075 94321
AAXX 14064 61988 11465 70310 10268 20230 40133 60004 71522 85836 333 0//00 20247 50602 58000 85817 86275
AAXX 14064 61989 12475 70206 10281 20222 40139 60004 84847 333 0//00 20230 59001 83817 87273
AAXX 14064 61990 11258 71102 10257 20248 40123 60214 72582 87342 333 02221 20233 50632 59005 81705 81914 84815 84322
AAXX 14064 61995 11475 61306 10265 20216 39644 60244 86200 333 01929 20208 50172 59002 86818 94323
AAXX 14061 28216 32999 00000 11228 21251 30032 40346 52004 333 21221
AAXX 14061 28428 32997 00000 11246 21265 30148 40356 52012 333 21239
AAXX 14061 28451 11996 80000 11217 21239 30181 40357 52007 69900 71072 80007 333 21253
AAXX 14061 28541 31959 00000 11257 21268 39813 40367 52009 71011 333 21268
AAXX 14061 28655 32998 03301 11221 21244 30106 40353 52007 333 21252
AAXX 14061 28756 11998 00201 11213 21237 30180 40344 52006 69900 70271 333 21257
AAXX 14061 29557 42998 70000 11176 21202 30107 40397 57009 80001
AAXX 14061 29625 41996 81204 11127 21140 30156 40346 57004 77172 8802/
AAXX 14061 29813 41999 81406 11143 21163 30117 40308 57002 72272 85026
AAXX 14061 29822 41996 21405 11136 21156 30167 40342 57005 71071 80008
AAXX 14061 29915 41998 81704 11153 21172 30144 40314 58003 77072 8802/
AAXX 14061 36020 42998 21604 11136 21163 30122 40335 58001 80001
AAXX 14063 64456 32959 60000 10226 20217 39/// 40/// 85030 333 0//00 20207 50514 55085 5//// 85362
AAXX 14063 64459 31420 52202 10200 20192 39762 40126 71011 81532 333 01700 20185 50264 55/// 58010 81610 84078
AAXX 14061 23226 11660 82196 11063 21086 30042 40266 54000 69900 70272 885// 333 21090 88636
AAXX 14061 23701 12699 71603 11052 21085 30121 40255 56005 69900 86530 333 21071 86637
AAXX 14061 28909 31995 20000 11234 21252 30252 40366 52015 71011 82040 333 21235 93507
AAXX 14064 62305 NIL
AAXX 14064 62306 32560 72704 10144 20109 40226 57001 87500 333 20140
AAXX 14064 62318 32560 60000 10130 20113 40211 52006 84820 333 20110
AAXX 14064 62337 NIL
AAXX 14064 62366 31830 20303 10121 20097 40209 52010 71000 82030 333 20113
AAXX 14064 62393 31901 03105 10068 20056 40210 52012 74640 333 20060
AAXX 14064 62405 31956 00000 10110 20062 40183 52017 70500 333 20084
AAXX 14064 62414 32960 03602 10146 20024 40179 52010 333 20128
AAXX 14064 62417 32960 62602 10122 20093 40227 52006 86030 333 20112
AAXX 14064 62419 NIL
AAXX 14064 62440 31520 40000 10100 20087 40205 54000 71000 84200 333 20090
AAXX 14064 62463 32960 03012 10166 20069 40185 52011 333 20131
AAXX 14064 62465 32960 23005 10162 20069 40174 52011 80002 333 20140
AAXX 14061 37985 42597 83201 10061 20045 30328 40313 58005 885//
AAXX 14061 37923 42997 60000 10034 20011 40301 53010 86030 333 20016
AAXX 14061 37905 42997 00000 11013 21028 40273 57019
AAXX 14061 37740 41/90 90901 11017 21017 39480 40320 52003 74540
AAXX 14061 37864 31996 00000 10029 20023 40316 52011 71000 333 21006 555 30///
AAXX 14061 37749 41596 83602 10043 20026 30229 40349 53005 71022 885//
AAXX 14061 37661 42597 73501 10002 21007 38532 40318 53002 875//
AAXX 14061 37675 42999 00000 10021 21019 39638 40316 52008
AAXX 14061 37851 42998 00000 10060 20039 30253 40326 53001 555 20048
AAXX 14061 37925 42598 52701 10046 20039 30346 40310 53012 85200 333 20031
AAXX 14061 37832 31996 72501 10005 21001 40318 52003 71010 87/20 333 21017
AAXX 14061 37735 42996 30000 10002 21019 39857 40246 53001 83070
AAXX 14064 60595 36/// /0000 11451 333 21451
AAXX 14064 60381 16/// /2101 10085 20077 69924 333 20083
AAXX 14064 60639 36/// /0807 10068 20001 333 20068
AAXX 14064 60605 36/// /2703 10110 21001 333 20110
AAXX 14064 71120 11374 82208 11040 21057 39410 40073 55011 69951 77122 887// 333 11019 21100 44004 70005 90952 93101 555 10010 20005
AAXX 14064 71120 11374 82208 11040 21057 39410 40073 55011 69951 77122 887// 333 11019 21100 44004 70005 90952 93101 555 10010 20005
AAXX 14064 86330 32598 72603 10168 20132 40090 58013 81550
AAXX 14064 86360 NIL
AAXX 14064 86460 NIL
AAXX 14064 86490 NIL
AAXX 14064 86530 NIL
AAXX 14064 86545 32497 61507 10156 20146 40118 52/// 86400
AAXX 14064 86565 31496 20000 10146 20135 40103 58009 71011 81670
AAXX 14064 86580 42597 21209 10186 20159 40109 57010 82700
AAXX 14061 01003 11575 30608 11015 21056 39980 49992 52001 69901 73873 83500 333 48004 91119
AAXX 14061 23205 11998 52107 11063 21108 21040 40155 57011 69900 73683 83032 333 21054 91113
AAXX 14064 62357 32560 43506 10125 20096 40207 57003 84500 333 20105
AAXX 14064 62423 31958 03602 10090 20079 40225 52011 71000 333 20073
AAXX 14064 62403 32960 03104 10112 20060 40190 52011 333 20089
AAXX 14064 62357 32560 43506 10125 20096 40207 57003 84500 333 20105
AAXX 14064 62423 31958 03602 10090 20079 40225 52011 71000 333 20073
AAXX 14064 62403 32960 03104 10112 20060 40190 52011 333 20089
AAXX 14061 91943 36/// /0908 10269 20212 30140 40142 52017 333 20269 58000
AAXX 14061 91945 36/// /0710 10262 20218 30156 40161 51014 555 59007
AAXX 14061 91948 06/// /0103 10227 20187 30079 40182 52007 60001 333 55086 60007 90710 91106 555 60005 10406 59008
AAXX 14061 89062 46/// /3425 10015 21041 39761 49801 5//// 333 55002
BBXX 62123 14064 99563 10022 41/97 /2345 10069 20042 49760 52009 7//// 8//// 22200 20912 323// 40916 5////
BBXX 64045 14064 99591 70117 46/// /3220 10067 20026 49694 53017 22200 00102 10811 70055 333 90710 91128
BBXX 62105 14064 99554 70122 46/// /2823 10080 20024 49792 53009 22200 00108 11014 70068 333 90710 91132
BBXX 62081 14064 99510 70134 46/// ///// 10075 20018 49904 58005 22200 00119 11015 70076
BBXX 62442 14064 99490 70163 46/// /2731 1//// 2//// 49988 56002 22200 00129 333 90710 91150
BBXX 62029 14064 99487 70125 46/// /2731 10089 20037 49992 53008 22200 00134 11014 70071 333 90710 91143
BBXX 62163 14064 99475 70084 46/// /2834 10080 20037 40028 52019 22200 00131 11115 70074 333 90710 91147
BBXX 62001 14064 99452 70050 46/// /2731 10126 20069 40096 53021 22200 00148 10916 70079 333 90710 91144
BBXX 64046 14064 99605 70049 46/// /3517 10073 20033 49590 52036 22200 00091 11009 70047
BBXX 62301 14064 99524 70047 46/// /2423 10066 21003 49872 51001 22200 00102 10606 70031 333 90710 91136
BBXX 62303 14064 99516 70051 46/// /2620 10082 20027 49894 50000 22200 00116 10707 70035 333 90710 91129
BBXX 62305 14064 99504 10000 46/97 /2718 10070 20028 49947 53007 22200 00124 10703 70015
BBXX 62170 14064 99514 10020 46/97 /2122 10073 20036 49918 58011 22200 00116 10701 70007 333 90710 91131
BBXX AMOUK11 14064 99533 70059 46/// ///// 10035 21010 39781 49808 57020 90550
BBXX AMOUK19 14064 99578 70018 46/// ///// 10071 20016 39644 49646 52055 90550
BBXX AMOUK06 14064 99509 70014 46/// ///// 10047 20029 39900 49924 57005 90550
BBXX AMOUK05 14064 99535 10002 46/// ///// 10039 20008 39794 49835 57034 90550
BBXX AMOUK08 14064 99501 70061 46/// ///// 10076 20021 39930 49935 54002 90550
BBXX AMOUK03 14064 99535 10006 46/// ///// 10046 20027 39799 49832 57045 90550
BBXX AMOUK13 14064 99521 10012 46/// ///// 10058 20033 39891 49899 57023 90550
BBXX AMOUK09 14064 99505 70022 46/// ///// 10090 20031 39904 49922 57007 90550
BBXX AMOUK16 14064 99521 70054 46/// ///// 10064 21018 39870 49876 57015 90550
BBXX AMOUK21 14064 99564 70055 46/// ///// 10073 20019 39736 49736 52034 90550
BBXX AMOUK12 14064 99533 70054 46/// ///// 10058 20006 39820 49859 52004 90550
BBXX AMOUK14 14064 99535 70030 46/// ///// 10054 21011 39817 49851 52008 90550
BBXX AMOUK27 14064 99582 70064 46/// ///// 1//// 2//// 39661 49661 52029 90550
BBXX 62131 14064 99539 10012 46/// /21// 10060 20016 49856 53003 22200
BBXX 62127 14064 99540 10007 47998 ///// 10056 20010 49849 53011 700// 22200 10605 70024
BBXX 62149 14064 99537 10011 47998 /2228 10062 20018 49862 55000 700// 22200 10504 70020
BBXX 62111 14064 99580 70003 46/// /2532 10077 20026 49670 52023 22200 10709 70043
BBXX PJAI 14064 99581 70014 47697 /2526 10084 20014 49644 53027 700// 22200
BBXX 62112 14064 99584 70002 47597 /2334 10077 20029 49630 52017 700// 22200
BBXX 63055 14064 99606 10016 47797 /2121 10076 20055 49552 53003 700// 22200 10912 70059
BBXX 63108 14064 99608 10017 47997 /2132 10068 20034 49546 53004 700// 22200 10911 70056
BBXX 62150 14064 99536 10007 47998 /2128 10056 20012 49869 55003 700// 22200 10503 70014
BBXX 62148 14064 99536 10015 46/// /2230 10058 20016 49874 56009 22200
BBXX 62142 14064 99530 10021 46998 /2324 10064 20018 49884 57014 22200 10504 70018
BBXX 62145 14064 99531 10028 47598 /2121 10074 20006 49892 56012 700// 22200 10506 70029
BBXX 64041 14064 99607 70026 47597 /3118 10066 20027 49560 52026 762// 22200 11007 70037
BBXX 62144 14064 99534 10017 47998 /2226 10060 20015 49881 56013 700// 22200 10504 70021
BBXX MWYG6 14064 99603 70040 47998 /3017 10072 700// 22200
BBXX 63115 14064 99616 10013 47598 /1914 10111 20029 49533 53003 762// 22200 11014 70068
BBXX 63117 14064 99613 10011 47498 /2014 10100 20043 49537 53002 761// 22200
BBXX 63104 14064 99612 10016 47497 /1917 10065 20039 49540 51007 762// 22200
BBXX 63103 14064 99612 10011 46/// /2116 10067 20031 49533 50006 22200 10911 70054
BBXX 63101 14064 99612 10009 46/// /2314 10058 20039 49536 51008 22200
BBXX 63107 14064 99611 10017 46/// /2025 10065 49538 51004 22200
BBXX 63112 14064 99611 10010 47/97 /2113 10067 20027 49532 52006 700// 22200 10912 70060
BBXX 63113 14064 99610 10017 46/// /2327 10063 20036 49549 52014 22200 10912 70058
BBXX 63105 14064 99610 10017 47596 ///// 10067 20037 49540 51006 763// 22200
BBXX 63106 14064 99610 10017 46/// /2130 10059 49540 51005 22200
BBXX 62116 14064 99576 10011 47497 /2435 10075 20037 49674 52019 700// 22200 10915 70073
BBXX 62104 14064 99574 10013 47497 /2435 10071 20032 49683 52017 700// 22200
BBXX 62153 14064 99573 10020 47597 /2240 10070 20033 49700 52016 700// 22200 11016 70078
BBXX 62122 14064 99573 10016 47497 /2234 10088 20030 49711 53014 762// 22200 10915 70073
BBXX 62140 14064 99573 10013 46/// /24// 10059 20052 49687 52017 22200
BBXX 62146 14064 99572 10021 47/97 /2338 10070 20019 49716 52013 700// 22200 11015 70077
BBXX 62164 14064 99572 10008 47497 /2227 10078 20040 49696 53015 700// 22200 00098 10914 70072
BBXX PJGO 14064 99571 10022 47196 /2136 10068 20029 49727 52021 762// 22200
BBXX 62133 14064 99571 10009 46/// /2238 10060 20024 49692 52014 22200
BBXX 62119 14064 99570 10019 47497 /2438 10069 20021 49730 52013 700// 22200 10914 70071
BBXX 62152 14064 99570 10018 47/96 /2027 10068 20021 49733 52012 761// 22200 10813 70066
BBXX 62154 14064 99564 10022 46/// /2336 10068 20015 49753 52010 22200
BBXX 62120 14064 99564 10021 47997 /2439 10071 20016 49741 52011 700// 22200
BBXX 62132 14064 99564 10020 46/// /2634 10069 20012 49764 52015 22200
BBXX 62123 14064 99563 10022 47597 /2337 10069 20037 49739 52012 700// 22200
BBXX 62121 14064 99535 10027 46/// /2225 10065 20006 49890 56012 22200
BBXX 62165 14064 99540 10009 47998 /2225 10061 20012 49854 53009 700// 22200 10606 70028
BBXX 63056 14064 99597 10016 47497 /2038 10075 20046 49593 52015 700// 22200 10813 70066
BBXX 63110 14064 99595 10015 47496 /2135 10076 20046 49577 51009 762// 22200 10912 70061
BBXX 63057 14064 99592 10015 47597 /2242 10077 20039 49599 52011 762// 22200 10912 70060
BBXX 62128 14064 99587 10014 47597 /2236 10075 20032 49628 52014 700// 22200 10911 70057
BBXX 62129 14064 99584 10003 46/// ///// 10077 20023 49656 52017 22200
BBXX 62113 14064 99584 10002 47598 /2134 10076 20023 49652 52018 700// 22200
BBXX ZQSD5 14064 99583 10007 46/// /2332 10079 20030 49646 52020 22200 11015 70073
BBXX 62114 14064 99583 10000 46/// /2337 10076 20023 49632 52017 22200
BBXX 62134 14064 99580 10014 47997 /2332 10076 20033 49665 52021 700// 22200 10813 70066
BBXX 62102 14064 99579 10018 46/// /2331 10077 20031 49668 52016 22200 10914 70072
BBXX 62117 14064 99579 10000 47097 /2229 10075 20039 49661 52022 700// 22200 10709 70044
BBXX 62143 14064 99577 10018 47497 /2320 10071 20044 49674 53011 700// 22200 10915 70077
BBXX 62118 14064 99577 10009 47997 /2333 10082 20039 49670 52021 700// 22200 10913 70066
BBXX 62155 14064 99577 10007 47498 /2435 10073 20039 49683 52017 751// 22200 10812 70060
BBXX 63110 14063 99595 10015 41/97 /2150 10075 20044 49569 78186 8//// 22200 11012 70060
BBXX 62027 14064 99491 70022 46/// /2424 1//// 2//// 49958 55004 22200 00118 11406 325// 70028 333 90710 91132
BBXX 62107 14064 99501 70061 46/// /2530 10071 20012 49937 52007 22200 00116 11010 70048 333 90710 91147
BBXX 62304 14064 99511 10018 46/98 /2311 10064 20026 49929 57011 22200 00120 10702 70008
BBXX 62304 14064 99511 10018 46/98 /2313 10063 20024 49949 56012 22200 00119 10702 70008 333 90710 91126
BBXX 62103 14064 99499 70029 46/99 /2727 10094 20030 49928 57005 22200 00126 10906 70030 333 90710 91135
BBXX 62094 14064 99517 70067 46/// /2724 10077 20021 49892 50000 22200 00111 10708 70039 333 90710 91137
BBXX 64049 14063 99571 10022 41/97 82350 10080 20074 49777 52010 70722 8//// 22200 04092 20814 323// 40816 5//// 80077
BBXX 62103 14064 99499 70029 46/99 /2727 10089 20031 49928 55003 22200 00125 11007 70034 333 90710 91142
BBXX 62095 14064 99531 70159 46/// /2720 10060 20037 49824 57015 22200 00114 11012 70058 333 90710 91129
BBXX 2AAY7 14063 99576 70024 41297 62425 10069 20009 49676 52030 70322 8577/ 22221 02074 20402 80045
AAXX 14064 40435 42960 01607 10154 20030 39182 40215 333 20060 59004
AAXX 14061 29998 42999 21401 11234 21282 38734 48570 58010 80001
AAXX 14061 30385 41998 80000 11248 21260 39757 40343 57006 77172 8802/
AAXX 14061 30469 42999 82501 11271 21295 39542 40383 51006 8801/
AAXX 14061 30636 42998 00000 11215 21240 39740 40405 52003
AAXX 14061 30650 42999 00000 11191 21232 39173 40370 52006
AAXX 14061 30664 42999 80000 11218 21250 39293 40365 52001 84041
AAXX 14061 30781 42999 00000 11218 21266 39833 40347 58009
AAXX 14061 30777 42998 10000 11245 21277 39640 40357 58002 80002
AAXX 14061 30844 41998 82705 11142 21162 39317 40345 58006 77177 80007
AAXX 14061 30925 42899 71602 11148 21199 39359 40390 58010 86071
AAXX 14061 31371 42999 82703 11178 21237 39966 40252 57002 8801/
AAXX 14061 31388 42999 60000 11226 21251 39938 40223 57005 83031
AAXX 14061 31478 NIL
AAXX 14061 31532 42999 20000 11258 21289 39849 40224 57011 80001
AAXX 14061 31594 42999 32803 11155 21206 30021 40201 54000 80001
AAXX 14061 31655 42997 60000 11150 21184 30106 40156 56005
AAXX 14061 31754 41597 80000 11128 21148 39628 40147 57017 78587 889//
BBXX JGQH 14064 99237 11323 41/97 80520 10222 20210 40159 55013 70222 882// 22261 00243 1//// 20604 306// 40803
BBXX JGQH 14064 99237 11323 41/97 80520 10222 20210 40159 55013 70222 882// 22261 00243 1//// 20604 306// 40803
BBXX JPBN 14064 99326 11423 41/97 12518 10193 20074 40155 56013 70211 81231 22271 00207 1//04 20402 30105 40803 50803 70019
BBXX JPBN 14064 99326 11423 41/97 12518 10193 20074 40155 56013 70211 81231 22271 00207 1//04 20402 30105 40803 50803 70019
BBXX 41053 14061 99185 70661 46/// /2103 10246 40117 90550 333 91204
BBXX 41053 14061 99185 70661 46/// /2103 10246 40118 90540 333 91204
BBXX 42362 14061 99278 70907 46/// /0911 10217 20172 40247 90615
BBXX 42363 14061 99282 70892 46/// /1011 10206 20161 40261 90615 333 91212
BBXX 42363 14061 99282 70892 46/// /0913 10206 20161 40258 90630 333 91213
BBXX 42364 14061 99291 70881 46/// /0907 10200 20156 40264 90615
BBXX 46088 14061 99483 71232 46/// /1103 10058 40196 90620 22200 00079 1//00 70001 333 91203 555 11027 22027 30610 41004 60619 107026 104023 106023 134016 150012 163013
AAXX 14061 01329 11343 80604 10031 20018 39625 49684 53012 60132 78182 888// 333 20017 41998 70172 91115
AAXX 14061 01380 11010 81507 11033 21042 60052 77173 886// 333 21039 49032 70141 91115
AAXX 14061 01441 16/// /1709 11008 21019 38752 49707 50002 60092 333 21027 70119 91115
AAXX 14061 01180 11675 81306 10038 21039 39716 49771 56025 60002 70222 885// 333 21025 70000 91111
AAXX 14061 01488 16/// /1402 10026 20011 69942 333 20016 4/018 70093 91109
AAXX 14061 28588 11982 50401 11233 21248 30149 40326 52004 69900 72271 80002 333 21260
AAXX 14061 28465 32999 83401 11215 21233 30258 40343 57002 8803/ 333 21251
AAXX 14061 28696 11956 00302 11246 21263 30169 40324 58002 69900 71011 333 21249
AAXX 14061 23929 32978 81201 11245 21263 30276 40350 54000 8807/ 333 21270
AAXX 14061 28383 11930 80000 11220 21238 30253 40347 52004 69900 77177 80007 333 21290
AAXX 14061 38388 32598 80000 10010 21025 30271 40345 52009 886// 333 21038
AAXX 14061 38392 31596 79901 10010 21007 30237 40343 52007 71022 87500 333 21024 87620
AAXX 14061 38507 32998 71502 10064 20014 30215 40319 53009 87030 333 20045
AAXX 14061 38511 31993 40000 11013 21021 30185 40333 53008 74244 80001 333 21024
AAXX 14061 38545 32998 00000 10029 21010 30154 40334 52003 333 21047
AAXX 14061 38647 31/93 90904 11030 21034 30275 40320 52008 74942 89/// 333 21033
AAXX 14061 38656 32998 00910 10007 21013 30216 40329 52005 333 21041
AAXX 14061 38687 32997 03603 10022 21012 30098 40341 52008 333 21037
AAXX 14061 38750 32997 00901 10052 20027 30342 40313 53002 333 20023
AAXX 14061 38763 31993 00901 11031 21031 30216 40325 52008 74440 333 21037
AAXX 14061 38774 32998 01402 10031 20028 30141 40343 52010 333 21033
AAXX 14061 38799 31997 00000 10014 21003 30107 40348 53016 72840 333 21056
AAXX 14061 38806 32997 03401 10021 21010 30069 40339 52012 333 21032
AAXX 14061 38880 31996 20201 10044 20024 30064 40326 50004 71000 82030 333 21024
AAXX 14061 38886 31993 00000 10000 21008 30092 40330 52004 74440 333 21035
AAXX 14061 38895 32996 01102 10038 20012 30041 40339 52008 333 21013
AAXX 14061 38911 32998 00000 10043 20004 30023 40325 52013 333 21009
AAXX 14061 38915 32997 51002 10020 20001 39992 40327 52004 85050 333 21005
AAXX 14061 38974 32998 01601 10038 20012 39978 40321 52002 333 20000
AAXX 14061 38987 32496 81902 10016 21003 39566 40334 53007 886// 333 20010
AAXX 14061 28688 11998 40301 11214 21233 30144 40320 52002 69900 70271 84010 333 21248
AAXX 14061 22438 12569 71708 10004 21010 30035 40056 51002 69960 87400 333 20002
AAXX 14061 28586 11998 80601 11213 21231 30162 40326 52003 69900 72271 80005 333 21285
AAXX 14061 38836 3//// /1101 10190 21096 39220 40140 333 20042 777 92013
AAXX 14064 40582 31958 03105 10106 21011 40250 51011 70500 333 55310 00501 10000 21165 30381 41012 51290 61546 55407 40785 90401 91007 91107 91205 91303
AAXX 14064 41150 NIL
AAXX 14064 41168 NIL
AAXX 14064 41170 42960 02805 10168 20105 30224 40237 333 20140 58014 555 00135
AAXX 14064 41176 NIL
AAXX 14064 41184 NIL
AAXX 14064 41194 NIL
AAXX 14064 41196 NIL
AAXX 14064 41198 NIL
AAXX 14064 41210 NIL
AAXX 14064 41216 NIL
AAXX 14064 41217 NIL
AAXX 14064 41218 NIL
AAXX 14064 41226 NIL
AAXX 14064 41244 NIL
AAXX 14064 41246 NIL
AAXX 14064 41254 NIL
AAXX 14064 41256 NIL
AAXX 14064 41258 NIL
AAXX 14064 41268 NIL
AAXX 14064 41312 NIL
AAXX 14064 41314 NIL
AAXX 14064 41316 NIL
AAXX 14064 41404 42962 09902 10102 21089 37902 48567 333 20002 30105 58003
AAXX 14064 41407 42970 00908 10160 21044 39000 48549 333 20060 30/// 59007
AAXX 14064 41431 42960 01612 10260 20199 30145 40158 333 20200 30/// 58005
AAXX 14064 41466 42960 01206 10184 20070 38590 48491 333 20090 30/// 58001
AAXX 14064 41477 42960 01608 10256 20178 333 20224 30///
AAXX 14064 41480 42460 30510 10266 20179 30178 40181 83500 333 20201 30/// 58008 73618
AAXX 14061 28791 11999 50301 11224 21236 30155 40315 52003 69900 72272 80001 333 21244
AAXX 14061 78310 12503 70805 10236 20209 30191 40201 58001 60001 878// 333 10268 20207 30/// 56999 58012 81820 86622 92034
AAXX 14061 78315 12964 00801 10202 20188 30138 40204 50002 60001 333 10279 20202 30/// 58013 79999
AAXX 14061 78318 12565 41003 10218 20196 30199 40203 50002 60001 84800 333 10258 20217 32/// 56900 58012 70060 83820
AAXX 14061 78322 12956 00000 10190 20168 30193 40210 58001 60001 333 10293 20182 30/// 58014
AAXX 14061 78324 12/00 20506 10235 20192 30175 40186 58004 60001 82200 333 10271 20233 30/// 56900 58012 828//
AAXX 14061 78325 11430 40903 10237 20167 30147 40205 58001 60001 70411 84400 333 10259 20216 30/// 56100 58012 70086 84817 555 10503
AAXX 14061 78328 12/62 20707 10238 20171 30205 40/// 58003 60001 82800 333 10270 20234 30/// 56900 58015 818//
AAXX 14061 78333 12910 00302 10202 20186 30189 40196 56001 60001 333 10287 20199 30/// 58017
AAXX 14061 78344 12550 30402 10215 20189 30142 40190 58001 60001 83240 333 10287 20199 31/// 56990 58016 83820
AAXX 14061 78345 12565 10203 10211 20194 30182 40185 58004 60001 81500 333 10282 20203 31/// 56900 58009 70006 81623
AAXX 14061 78348 11557 60408 10229 20174 30140 40192 58002 60001 70522 86800 333 10262 20226 30/// 56100 57842 58014 70032 82820 84630 555 10503
AAXX 14061 78349 11530 33602 10208 20189 30081 40190 58004 69941 70281 83200 333 10276 20204 31/// 56800 58010 70025 83820 555 10203
AAXX 14061 78351 01550 73604 10220 20213 30164 40166 55000 60021 76161 875// 333 10302 20193 31/// 56999 58011 60017 70018 87630
AAXX 14061 78353 01560 30504 10244 20204 30154 40176 58010 69901 83800 333 10266 20232 31/// 56900 59002 70104 82820
AAXX 14061 78355 01560 30204 10222 20198 30037 40173 58002 69921 70181 83800 333 10262 20205 31/// 56900 58013 69927 70002 82820
AAXX 14061 78358 12530 60507 10253 20196 30140 40155 58005 60001 86800 333 10281 20229 31/// 56900 59005 70037 84823 86629
AAXX 14061 78360 12560 50208 10235 20220 30143 40154 58003 60001 85400 333 10307 20220 30/// 56900 57879 58001 83820 92035
AAXX 14061 78363 01557 70301 10223 20213 30030 40144 58004 60021 72162 875// 333 10284 20198 31/// 56999 58002 69967 70027 87621
AAXX 14061 78365 01550 60710 10258 20217 30160 40165 58003 60081 70182 86260 333 10278 20234 32/// 56290 57864 58001 60027 70186 86820 92045 555 10703
AAXX 14061 78369 01464 60307 10247 20218 30136 40145 56005 69941 70381 86200 333 10280 20241 31/// 56900 57880 59003 69917 70023 86818
AAXX 14061 60373 36/// /2804 10123 20092 333 20121
AAXX 14061 60623 36/// /0000 10063 21051 333 20063
AAXX 14061 60393 16/// /1502 10090 20071 69924 333 20083
AAXX 14064 62002 32960 00000 10100 20061 39545 48588 51001 333 20093 50184 55080
AAXX 14064 62012 32560 42508 10138 20104 30234 40264 53009 84800 333 20135 50294 82825 83630
AAXX 14064 62016 32558 60000 10119 20093 40278 53005 86800 333 20100 50334 55084 82820 86626
AAXX 14064 62124 32960 00000 10050 20000 39725 40233 52002 333 20048 50574 55095
AAXX 14064 62161 32970 00000 10067 20044 40225 53006 333 20067 50204 55042
AAXX 14064 62271 32970 00405 10085 20039 40252 53017 333 20075 50604
AAXX 14064 93800 16/// /0423 10183 20163 49954 57009 60001
AAXX 14064 93805 16/// /1407 10143 20135 49957 57010 60011
AAXX 14064 93994 16/// /1209 10208 20168 40149 57003 60001
AAXX 14064 41863 31920 02502 10140 20130 30128 40173 70544 333 59006 70000
AAXX 14064 41909 31950 02701 10205 20130 30152 40164 70540 333 58005 70000
AAXX 14064 41915 31956 02902 10225 20150 30143 40169 70240 333 59001 70000
AAXX 14064 41926 31940 03602 10170 20150 30168 40181 70544 333 58015 70000
AAXX 14064 41941 32956 03603 10237 20140 30161 40167 333 58005 70000
AAXX 14064 41963 31940 03602 10252 20180 30157 40160 70500 333 58008 70000
AAXX 14064 41964 31956 03601 10240 20150 30159 40161 70500 333 59008 70000
AAXX 14064 41984 32957 03607 10237 20130 30159 40161 333 58007 70000
BBXX PDWT 14063 99236 11246 41297 80615 10230 20185 40180 56005 75151 886// 22283 06260 20403 307// 40704 5//// 80200
BBXX A8XD5 14064 99398 11359 41297 32611 10100 20061 40160 57/// 70311 82161 22213 04110 20302 323// 40302 80080
BBXX DDYL2 14063 99226 11164 41997 80427 10198 20151 40165 57030 70522 8805/ 22251 00190 20506 80168
BBXX DQVJ 14061 99521 11607 41698 51311 10030 21003 49940 51010 7//77 85900 22263 00026 20803 331// 41005 5////
BBXX SHIP 14064 99291 11315 41397 63415 10200 20153 40188 50019 70222 85657 22213 00238 20203 301// 40304 80170
BBXX SHIP 14064 99271 11256 41496 60418 10230 20186 40187 57028 70528 8557/ 22254 00245 20302 305// 40403 802000
BBXX SHIP 14064 99216 11357 41497 41009 10256 40147 57011 70122 82201 9//// 22283 02275 20301 30904 40706 50704 6//// 80251
BBXX 3EDA4 14063 99099 11491 41598 30530 10290 20250 50/// 70011 83273 22226 20502 30505 40502 50502 80260
BBXX SHIP 14064 99219 11327 41498 30515 10290 20235 40144 56015 70111 83200 22243 00240 20402 304// 40603 80250
BBXX 7JJA 14064 99243 11275 41697 80624 00 10230 20201 40165 57010 70222 886// 9//// 22213 00270 2//06 304 4//08 5 6//// 80210 IC E/////
BBXX SHIP 14064 99269 11285 41697 70609 10260 20186 40196 53020 70222 86556 22253 00240 20101 306// 40101 80210
BBXX S6CW 14063 99096 11423 41/98 70922 10302 20223 40051 55011 70222 84774 22274 00296 20303 308// 40303 80248
BBXX H9UY 14064 99181 71243 41798 60421 00/// 10210 40200 51/// 70322 85893 9//// 22263 04230 20302 332// 40403 5//// 6//// 80180
BBXX DGHX 14063 99407 71418 41/98 /2523 10125 20107 40170 57005 76162 8//// 22254 00130 2//// 80115
BBXX SHIP 14064 99318 71604 41/96 81727 10210 20195 40174 56005 70202 8//// 90555 22264 00200 2//// 3//// 4//// 5//// 80200
BBXX UCKG 14061 99720 10088 41/97 91308 10040 49804 54000 70222 22213 00090 20202
AAXX 14061 21432 NIL
AAXX 14061 21824 41998 82205 11160 21194 30195 40204 57028 73632 86071 333 1/122
AAXX 14061 21908 41599 81401 11225 21243 30142 40228 57021 70272 85507
AAXX 14061 21921 42999 70000 11355 21383 30226 40276 57010 87030
AAXX 14061 21931 42998 21602 11386 21420 30226 40263 57014 80001
AAXX 14061 21946 41298 81902 11373 21395 30222 40313 56001 77872 886// 333 88705
AAXX 14061 21982 31998 50209 11192 21233 30190 40219 52009 73731 82031 333 11192 91111
AAXX 14061 25062 31997 81003 11287 21318 30203 40207 52009 70232 80005 333 11206 91109
AAXX 14061 25123 41996 80000 11185 21211 30147 40181 52006 77172 8805/
AAXX 14061 25138 41597 82702 11179 21198 30052 40180 52008 77172 86537 333 91104
AAXX 14061 25173 32999 60000 11284 21302 30209 40214 52012 86030 333 11217 91102
AAXX 14061 25248 41998 80000 11205 21230 39702 40175 53011 70272 8805/ 333 91101
AAXX 14061 25282 32980 23202 11263 21274 30186 40193 52016 80001 333 11180 91106
AAXX 14061 25325 NIL
AAXX 14061 25356 11599 80202 11092 21142 30020 40122 52013 69962 70272 885// 333 11085 91006
AAXX 14061 25399 11458 83405 11144 21157 30138 40148 52011 69900 78583 889// 333 1//// 91107
AAXX 14061 25428 41659 82904 11233 21265 39812 40167 53006 77172 86537 333 91109
AAXX 14061 25551 11496 80505 11078 21096 30036 40067 52017 60050 77173 8472/ 333 11/// 91112
AAXX 14061 25563 11470 60811 11104 21132 39998 40077 52017 69902 70232 84930 333 11029 91119
AAXX 14061 25594 31598 20308 11080 21098 30052 40104 52015 73630 82500 333 11034 91116
AAXX 14061 25677 31496 60712 11025 21041 30019 40025 52015 73833 84530 333 11004 84617 91114
AAXX 14061 31054 42999 51101 11395 21422 30016 40332 52004 80006
AAXX 14061 31123 41999 30701 11309 21338 39929 40292 51001 70271 80001
BBXX ZMFR 14064 99490 31665 43/// /25// 10114 20112 49972 57011 22281 00113
BBXX ZMENA 14064 99377 31762 46/// ///// 10177 20159 40168 57009 22200
BBXX ZMFR 14064 99490 31665 43/// /25// 10114 20112 49972 57011 22281 00113
BBXX ZMENA 14064 99377 31762 46/// ///// 10177 20159 40168 57009 22200
AAXX 14061 38836 32699 60000 10036 21038 39347 40305 52009 86501 333 21045
AAXX 14061 14216 11450 80701 10109 20094 30019 40170 56005 69922 761// 8472/ 333 20089 31005 70002 923// 924/6
AAXX 14061 14219 11565 72003 10066 20035 39156 48471 53/// 69912 76066 87500 333 20038 31001 70001
AAXX 14061 14232 12770 80901 10018 20013 30033 40172 52005 60002 885// 333 20000 31102
AAXX 14061 14234 12680 22302 10033 20022 39916 40167 51005 60002 82530 333 20022 34101
AAXX 14061 14236 11665 61101 10063 20035 39962 40161 54/// 60002 703// 84530 333 20049 31001
AAXX 14061 14244 12481 81203 10034 20027 30038 40170 54000 60002 885// 333 20026 32102
AAXX 14061 14248 12660 21602 10009 20002 39989 40168 54/// 60002 82500 333 20008 31102
AAXX 14061 14253 12960 00000 10030 20023 39989 40166 54001 60002 333 20029 31001
AAXX 14061 14256 12570 22702 10060 20025 39838 40158 57003 60002 82530 333 20041 31///
AAXX 14061 14280 11901 01502 10025 20023 30069 40181 50003 60002 7444/ 333 20025 32001
AAXX 14061 14308 11658 80000 10084 20078 39819 40171 54003 60002 71044 885// 333 20048 31001
AAXX 14061 14321 12670 81305 10126 20085 30159 40183 54/// 60002 885// 222// 00143 333 20096 32007 92323 92438
AAXX 14061 14370 11/01 90000 10046 20042 30072 40183 53007 60002 74544 333 20028 31003 70001
AAXX 14061 14382 11/01 91901 10025 20023 30068 40191 53009 60002 7474/ 333 20008 32000 70004
AAXX 14061 14428 12470 61204 10125 20096 30177 40184 58003 60002 85850 222// 00149 333 20091 31007 70001 92312
AAXX 14061 14441 12580 20202 10108 20075 30172 40197 53002 60002 81206 222// 00175 333 20092 30005 92312
AAXX 14061 14452 12598 31802 10121 20086 39980 40204 51/// 60002 83200 333 20120 92311
AAXX 14061 14454 12675 61201 10124 20075 30143 40203 53005 60002 81638 333 20111 31006 70024 92312
AAXX 14061 14462 12670 10000 10065 20057 30211 40217 53/// 60002 81200 333 20065 31002 79999
AAXX 14061 08545 11460 83104 10118 20097 30131 40215 52009 60072 72582 888// 333 20118 30010 50194 55003 20238 82813 87630 91006 91107 555 69915
AAXX 14064 61600 32960 70604 10200 20052 30133 40138 83082 333 10194 51074 55042 58009 83363 86073
AAXX 14064 61612 32958 40602 10196 20017 30139 40147 80002 333 02000 20193 50571 55000 58007 84073
AAXX 14064 61627 32958 60804 10210 20042 3//// 4//// 80002 333 01100 20205 50564 55000 5//// 86073
AAXX 14064 61630 32958 50404 10216 20057 30115 40134 80002 333 01900 20212 50692 55000 58004 85073
AAXX 14064 61641 32956 30409 10231 20134 30095 40128 80002 333 02000 20230 50594 55006 58005 83073
AAXX 14064 61666 32956 70000 10200 20086 30120 40128 80002 333 01900 20265 50504 55000 58007 87073
AAXX 14064 61679 32957 70408 10225 20084 30123 40131 80006 333 02000 20220 50834 55021 58000 87273
AAXX 14064 61687 31948 20406 10194 20034 30066 40123 70500 80002 333 01500 20172 50971 55020 58006 82073
AAXX 14064 61695 31920 70408 10218 20104 30092 40118 70622 80002 333 01600 20184 50304 55000 59004 87073
AAXX 14064 61697 31956 03604 10195 20187 30102 40117 70500 333 01700 20185 50354 55000 59004
AAXX 14064 61698 32958 30000 10134 20117 30108 40119 80002 333 01300 20130 50474 55000 59006 83073
AAXX 14064 61699 32958 51406 10176 20129 39913 40102 80002 333 01500 20162 50714 55060 59003 85073
AAXX 14064 65528 NIL
AAXX 14064 65536 NIL
AAXX 14064 65545 NIL
AAXX 14064 65548 NIL
AAXX 14064 65555 NIL
AAXX 14064 65557 NIL
AAXX 14064 65560 NIL
AAXX 14064 65562 NIL
AAXX 14064 65563 NIL
AAXX 14064 65578 32956 00404 10226 20220 30097 40106 80000 333 20226 58001
AAXX 14064 65585 NIL
AAXX 14064 65592 NIL
AAXX 14064 65594 NIL
AAXX 14064 65599 NIL
AAXX 14061 08570 12/// /2503 10107 20088 39763 40224 52009 69942 333 20104 30009 5//// 55002 20285 91105 555 60005
AAXX 14061 08541 32/// /2404 10151 20136 30122 40241 57002 333 20140 30012 5//// 55032 20717 91106 555 60005
AAXX 14061 08541 32/// /2404 10151 20136 30122 40241 57002 333 20140 30012 5//// 55032 20717 91106
AAXX 14061 08545 11460 83104 10118 20097 30131 40215 52009 60072 72582 888// 333 20118 30010 50194 55003 20238 82813 87630 91006 91107
AAXX 14061 38954 32999 20000 11023 21168 38047 48640 52016 80001 333 21056
BBXX OVSB2 14060 99103 50015 41598 81306 10218 20168 40139 54000 70222 888// 22234 00234 299// 317// 40503 5//// 80187
BBXX A8YW2 14064 99320 30366 41398 70319 10250 20221 40100 52020 70322 86718 22224 00220 20905
BBXX C6OM8 14060 99064 70292 41697 30705 10261 20230 40103 56020 70211 834// 22243 06274 20402 307// 40402 5//// 80240
BBXX 3FMV6 14063 99002 10041 41498 81810 10250 20228 40099 53010 71052 86770 22200 06276 20501 80235
BBXX UCKZ 14061 99535 30207 41296 83007 10007 20000 40080 57015 71042 886// 22243 00007 20301 323// 40904 ICE 0/1/0
BBXX C6SW3 14064 99131 10430 41897 21426 10270 20213 40140 52010 7//11 82440 22234 00260 20202 3//// 40202 50202 6//// 80230 ICE /////
BBXX PHKL 14061 99103 10663 41297 80206 10289 20272 40123 50004 72165 87670 22264 00284 20401 336// 40402 5//// 80276
BBXX DDDI2 14064 99242 30501 41/98 10410 10260 20218 40140 51010 70200 8/200 22254 04270 2//// 318// 40705 5//// 80230
BBXX A8KH9 14064 99124 30100 41497 81720 10205 20141 40090 54000 7//// 87770 22243 20405 31899 40504 5//// 80165
BBXX NWS0029 14064 99196 70327 43/// /0822 10236 20165 40173 5//// 7//// 8//// 222// 04251 2//// 3//// 4//// 5//// 6//// 8//// ICE /////
BBXX DGZL 14063 99129 10481 41498 60812 10275 20241 40185 56015 70342 85144 22264 00260 2//// 311// 41203 80250
BBXX A8OY9 14064 99121 10604 44369 70324 10265 20201 40146 53010 86782 22224 00286 21206 30535 41106 51703 80221
BBXX DGZR2 14063 99221 10612 41397 50413 10240 20164 40170 54000 70211 8/44/ 22235 00270 20101 80190
BBXX DCHO 14064 99235 70187 41/98 /0612 10201 20140 40228 54000 70200 8//// 22254 04210 20901 30000 80163
BBXX PCIM 14064 99223 10373 41997 03410 10250 20196 40160 51005 701// 80000 22233 00250 29902 30000 80213
AAXX 14061 08570 12/// /2503 10107 20088 39763 40224 52009 69942 333 20104 30009 5//// 55002 20285 91105
BBXX DCAX2 14063 99266 11329 41298 70311 10250 20220 40176 57024 70200 87174 22233 20502 3//// 4//// 5//// 80230
BBXX HZGN 14063 99057 10809 41698 80619 10265 20245 40112 50011 70222 8549/ 22234 02260 20301 306// 40504 5//// 80250
BBXX SLKQ 14061 99062 10917 43/98 60209 10281 40095 58014 22264 00289 2////4////
BBXX SLCO 14064 99246 11329 43/97 80215 10217 40163 56027 22234 00229 20303 40504
BBXX MIBR 14063 99219 11156 41297 80522 10197 20157 40166 58018 70222 887// 22224 00229 20704 307// 40806 5//// 80173
BBXX VRHO2 14064 99506 11679 41798 50320 11015 21031 49950 52030 7//// 85700 222// 00040 20507 30404 40507 50407 6//// 81020 ICE /////
BBXX C6OT4 14064 99253 11784 41398 22716 10249 20205 40164 52012 70200 82100 22223 04261 20905 334// 41405 5//// 80220
BBXX ZCBZ5 14063 99186 10701 41797 40619 10291 20236 40136 52021 70111 84/46 22274 02308 20303 307// 40304 5//// 80253
BBXX TBWUK14 14063 99344 11236 41/97 33616 10120 20062 40254 52020 70200 83//2 22283 06140 20302 30000 80090
BBXX KAOU 14064 99078 10984 43/// /0312 10278 20215 40096 5//// 7//// 8//// 222// 04292 2//// 3//// 4//// 5//// 6//// 8//// ICE /////
BBXX PHPP 14064 99058 10860 41197 60309 10270 20243 40098 58003 70222 86390 22223 00300 20804 80250
BBXX OXOR2 14064 99332 11279 41998 03106 10120 21018 40217 56009 702// 80000 22244 00159 20402 30000 80060
BBXX DPCK 14063 99195 11134 41397 80630 10240 20196 40140 57010 70222 887// 22214 00240 20610 304// 40506 5//// 80210
BBXX DGDD 14061 99327 11345 41297 80407 10165 20104 40185 56015 75152 886// 22254 00230 20401 311// 42003 5//// 80130
BBXX A8PK9 14063 99070 10789 41598 70518 10283 20235 40107 50000 70222 82161 22223 00315 20304 303// 40406 5//// 80250
BBXX A8SG3 14064 99210 50749 41597 71407 10190 20133 40160 57015 70311 86878 22283 04200 29902 80155
BBXX DDAC2 14060 99045 70778 41/97 /2404 10240 20211 40090 54000 7//22 8/860 22245 04280 2//// 320// 4//00 5//// 80220
BBXX C6YA5 14064 99549 50651 41595 82010 10085 2//// 40110 54/// 75155 8587/ 22213 00100 20401 322// 40602 5//// 6//// 8//// ICE /////
BBXX PDZS 14063 99524 50469 41798 62810 10055 20042 40138 58010 70011 86060 22231 02039 20301 322// 40705 5//// 80049
BBXX PCVX 14063 99139 50353 41/98 40315 10251 20191 40120 54000 70200 84/// 22253 2//// 80210
BBXX DFFA2 14063 99014 70813 41/98 81708 10215 20177 40130 58005 70322 8//// 22284 00240 2//// 322// 40802 5//// 80190
BBXX 46207 14061 99509 71299 46/// /0505 10070 40167 57003 22200 00085 11406 70029 333 91207
BBXX DAJC 14063 99307 71415 41598 89904 10190 20124 40280 51020 70222 8742/ 22224 04200 20902 307// 41004 5//// 80150
BBXX DDJS2 14063 99363 71377 41597 62814 10164 20143 40245 52010 70211 864// 22224 00170 2//// 3//// 4//// 5//// 80152
BBXX DGHX 14063 99407 71418 41/98 /2523 10125 20107 40170 57005 76162 8//// 22254 00130 2//// 80115
BBXX KGTX 14063 99549 71410 41798 81930 10056 20000 40098 56004 70222 8856/ 22234 00061 20806 325// 41405 5//// 6//// 80033 ICE /////
BBXX SBLI 14061 99300 71420 43/98 70505 10170 40277 52018 22264 00202 2//// 4////
BBXX WABS 14064 99383 71248 41698 63203 10100 20040 40215 52020 70122 865// 22233 0//// 2//// 3//// 4//// 5//// 6//// 80072 ICE /////
BBXX 46147 14061 99518 71312 46/// /0604 10059 40175 54000 22200 00081 11206 70029 333 91206
BBXX 46147 14061 99518 71312 46/// /0604 10059 40175 54000 22200 00081 11206 70029 333 91206
AAXX 14061 31484 42999 22002 11170 21250 39817 40182 57006 82070
BBXX 46238 14061 99334 71195 46/// ///// 1//// 90550 22200 00150 11303 21003 326// 41302 70016
BBXX NWS0003 14064 99579 71684 43/// /1123 10024 20014 49888 5//// 7//// 8//// 222// 04032 2//// 3//// 4//// 5//// 6//// 8//// ICE /////
BBXX 46053 14061 99342 71198 46/// /3203 10135 40177 51017 90550 22200 00136 11202 20301 326// 41202 70011 333 91204 555 11035 22036 30450 43007 60549 317033 300034 308037 312045 298051 294057
BBXX 41041 14061 99142 70460 46/// /1010 10260 20216 40117 58017 90550 22200 00266 10906 20804 3//// 40904 70028 333 91211 555 11102 22108 30458 40913 60549 101095 095094 090096 092096 092102 098109 80912 90458
BBXX 44022 14061 99409 70737 46/// ///05 10051 21002 40282 54000 90600 22200 00090 333 91206 555 11051 22051
BBXX DMRX 14064 99464 71726 41296 80625 10031 20020 49780 57100 76876 84778 22224 00080 20306 30532 40408 50612 80026
BBXX DHDE 14063 99405 70721 41598 10122 10090 20038 40260 53010 70200 81100 22263 00160 2//// 80065
BBXX A8OH4 14063 99185 71038 41398 23207 10230 20208 40125 52005 70100 8/1/5 22234 04300 20401 327// 40602 80215
BBXX PHIN 14064 99473 70387 41598 82525 10035 20002 40176 57015 72522 887// 22223 00130 20506 399// 40607 80021
BBXX PDVN 14063 99159 70541 41499 31119 10258 20227 40110 57016 70200 83200 22262 02266 20503 308// 40807 80236
BBXX C6VR4 14063 99255 70442 41/98 71126 10238 20191 40191 54000 70322 85465 22224 04245 20706 311// 41205 5//// 80208
BBXX PCBT 14063 99123 70702 41698 50716 10272 20250 40100 58011 70222 84341 22264 20502 307// 40902 80256
BBXX A8UU3 14064 99481 70613 41597 70415 11020 40310 58010 70322 875// 22233 29902
BBXX 44255 14061 99473 70573 46/// /0411 11016 40240 5//// 22200 00041 10503 70017 333 91213
BBXX WKAB 14063 99414 70514 41/// ///// 1//// 2//// 4//// 5//// 7//// 8//// 222// 0//// 2//// 3//// 4//// 5//// 6//// 8//// ICE /////
BBXX WNBE 14064 99195 71547 41/// /0111 10210 2//// 40180 5//// 7//// 8//// 222// 0//// 2//// 3//// 4//// 5//// 6//// 8//// ICE /////
BBXX WZJC 14064 99203 70717 41598 30516 10256 2021/ 40134 58008 71611 829/1 22233 00267 2//// 3//// 4//// 5//// 6//// 80222 ICE /////
BBXX 4XFX 14064 99469 71408 41597 72410 00/// 10070 2005/ 40130 57015 70312 83/// 22274 04/// 20306 327// 40712 5//// 6//// 80060 ICE /////
BBXX SBLW 14063 99326 70396 43/98 71425 10194 40263 56019 22254 00212 2//// 4////
BBXX SBLI 14061 99300 71420 43/98 70505 10170 40277 52018 22264 00202 2//// 4//// NNNN 426621110
BBXX 44150 14061 99425 70640 46/// /0310 10076 40200 57009 22200 00107 11002 70012 333 91212
BBXX 41037 14061 99340 70775 46/// /0205 10146 40248 50000 90600 22200 00183 333 91206
BBXX 44139 14061 99442 70571 46/// /0410 10069 40184 57021 22200 0//// 1//// 70/// 333 912//
BBXX ELVL8 14063 99152 70604 41697 50515 10270 20210 40120 55030 70222 8546/ 22263 04280 20203 305// 40303 5//// 80230
BBXX 2AKI3 14064 99181 70814 41/98 /0412 10270 20213 40145 54000 70211 8//// 22274 04276 2//// 3//// 4//// 5//// 80232
BBXX DDIG2 14064 99334 70352 41598 62007 10170 20155 40300 54000 7//11 865// 22254 04190 20301 336// 41206 80161
BBXX DDSD2 14063 99243 70586 41/97 61812 10240 20211 40110 56020 70311 85/9/ 22214 00260 20403 308// 40706 5//// 80220
BBXX WRYD 14064 99378 70541 41597 82025 10200 2019/ 49979 57041 78022 886// 22224 00208 20405 312// 40604 5//// 6//// 80190 ICE /////
BBXX WDD3826 14064 99376 70702 41698 63424 10130 2007/ 40220 57010 7//22 861// 22224 00220 20303 336// 40604 5//// 6//// 80100 ICE /////
BBXX SHIP 14064 99402 71499 41698 52812 10140 20105 40214 51020 70122 854// 22233 00160 80120
BBXX J8PR3 14063 99092 70601 41398 30513 10280 2027/ 40110 55020 70111 83885 22271 00290 20302 30505 40302 50302 6//// 80270 ICE /////
BBXX WDBH 14064 99525 71360 41798 31612 1//// 2//// 40139 54000 7//00 832// 22253 0//// 2//// 3//// 42505 5//// 6//// ICE /////
BBXX WJBJ 14063 99299 70803 41398 30720 10220 2015/ 40254 57006 70200 83100 22234 00256 20404 308// 40605 5//// 6//// 80175 ICE /////
BBXX C6XC6 14064 99289 70377 41498 31221 10210 2//// 40240 56020 7//00 831// 22264 04220 2//// 30909 41504 51504 6//// 8//// ICE /////
BBXX WDC6907 14064 99423 70556 41/// /0537 10095 2009/ 40101 57031 76022 8//// 22213 00180 2//// 3//// 4//// 5//// 6//// 80090 ICE /////
BBXX HZRX 14063 99367 70678 41697 83216 /// 10180 20140 40158 55012 70211 88000 22263 10180 20404 33232 40202 5//// 6//// 80110 ///// /////
BBXX V2NA1 14064 99310 70754 41598 43617 10195 20120 40245 55005 70222 84578 22224 04220 21204 30000 80150
BBXX WDD3825 14064 99335 70737 41398 40813 10170 2010/ 40248 52014 70200 841// 22264 00240 2//// 3//// 4//// 5//// 6//// 80130 ICE /////
BBXX V7NV4 14064 99202 71093 41898 73318 10240 20226 40160 52010 70221 86435 22273 00280 20202 33333 40202 50202 6//// 80230 ICE /////
BBXX C6XP7 14063 99180 70642 41298 30110 10260 20246 40110 54/// 7//10 828// 22262 00260 20401 321// 4//// 5//// 6//// 80250 ICE /////
BBXX WFLH 14063 99237 71497 43698 20910 10222 20180 40221 50004 7//// 82/3/ 22254 00222 20801 3//// 4//// 5//// 6//// 80194 ICE /////
BBXX WKAP 14063 99437 70578 41398 70413 10070 2005/ 40170 57010 7//22 87040 22214 00070 20402 306// 40603 5//// 6//// 80060 ICE /////
BBXX 51205 14061 99210 71564 46/// ///// 1//// 90548 22200 00242 11005 21005 307// 41102 70026
BBXX WQZ9670 14064 99470 70855 43/98 /1413 10050 2//// 40247 5//// 7//// 8//// 22223 0//// 2//02 3//// 4//// 5//// 6//// 8//// ICE /////
BBXX WUR8857 14064 99470 70914 41/// /0000 11177 2//// 40000 5//// 70200 8//// 222// 01178 2//00 3//// 4//// 5//// 6//// 8//// ICE /////
AAXX 14061 21432 41996 32010 11248 21280 30166 40187 57008 73830 83040
AAXX 14061 25703 41995 80303 11226 21258 39935 40224 57003 77373 8802/
AAXX 14061 25745 41495 80708 11074 21087 39934 49985 52009 78583 889// 333 91014 91117 92983
AAXX 14061 25913 42699 71004 11173 21242 39925 40080 53010 82531
AAXX 14061 25954 41698 80212 11047 21087 39779 49890 54000 73683 885// 333 91015 91116
AAXX 14061 25956 41/94 90514 11011 21026 39872 49878 53019 73833 333 91016 91118 92982
AAXX 14061 31088 42999 63402 11166 21235 30112 40119 53002 83041
AAXX 14061 31873 41996 83003 11083 21093 39996 40133 53002 77172 8807/
AAXX 14061 31909 42999 83301 11040 21123 30044 40123 56029 83087
AAXX 14061 31960 42999 23307 10014 21075 39906 40140 57011 80001
AAXX 14061 31961 41698 33310 11007 21083 30107 40154 53007 70281 82401 333 91012 91114
AAXX 14061 32053 42999 02702 11167 21236 30105 40158 53004 333 91003 91106
AAXX 14061 32061 41523 71201 11148 21161 30129 40170 53006 78582 87900 333 91002 91104
AAXX 14061 32098 42598 23502 11131 21174 30156 40166 53004 82900 333 91005 91108
AAXX 14061 32150 41594 80000 11049 21070 30113 40143 56006 78682 889// 333 91103
AAXX 14061 32165 42599 82106 10002 21057 30107 40168 56011 8552/ 333 91009 91112
AAXX 14061 32215 41521 82908 11053 21071 39991 40021 54000 78683 889// 333 91012 91116
AAXX 14061 32252 NIL
AAXX 14061 32389 41999 31501 11272 21284 39929 49969 58018 74000 80001
AAXX 14061 32477 42999 60901 11203 21222 39958 49992 53004 86070
AAXX 14061 32583 42599 23403 11084 21142 39933 49964 54000 81531
AAXX 14061 32618 41598 73409 11060 21118 39885 49907 57005 70232 87400 333 91013 91113
BBXX PFBF 14063 99074 31206 41398 72905 10290 20196 40077 55019 75082 83718 22233 02294 20302 30000 4//// 5//// 80225
BBXX MGRH9 14063 99295 31610 41598 42116 10226 20151 40101 52009 70311 83140 22273 00221 20303 325// 41005 5//// 80181
BBXX 3ECI3 14064 99453 31713 41297 83415 10155 20150 40004 50000 70222 887// 22282 00130 20402 307// 41106 80152
BBXX C6FS9 14064 99228 31613 46/// /2013 10252 20221 30054 40089 57004 22263 04268 85230
BBXX VRWS4 14063 99244 31534 41499 31118 10255 20210 40098 57005 70200 83186 22244 04250 20505 313// 41004 80225
BBXX 9HA2479 14064 99223 31664 46/// /2109 10286 20233 30053 40081 57001 22200 04291 85247
BBXX VRAE4 14063 99009 31388 41498 62514 10290 20248 40045 57025 70311 85106 22273 04300 20602 304// 40804 80260
BBXX VRZN7 14064 99165 31761 416// 42010 10300 2025/ 40100 52005 7//11 8418/ 22253 04300 20303 304// 4//// 5//// 85260
BBXX YJZC5 14064 99243 31661 41497 62210 10270 20226 40088 50/// 70322 85778 22223 02285 2//// 30000 80240
BBXX MCCN6 14064 99292 31127 41298 81828 10215 20200 40107 57012 70322 8/7// 22233 00214 20405 318// 41208 5//// 80205
BBXX C6XC2 14064 99033 11243 41498 73408 10280 20253 40060 57040 70222 8627/ 22241 00300 20301 3//// 4//// 5//// 6//// 80260 ICE /////
BBXX PCBU 14064 99008 31073 41698 33512 10325 20244 40090 57010 70100 82181 22233 02307 20602 336// 40802 80265
BBXX PCCL 14063 99275 31555 41/98 21215 10265 40112 58007 70200 81102 22222 04240 20402 316// 41004
BBXX PCDE 14063 99399 30966 41597 30901 10180 20148 40220 51020 7//// 83593 22223 20701 30000 80160
BBXX PHJV 14063 99104 31450 41398 31313 10285 20262 40037 57026 70211 83144 22283 06304 20201 80268
BBXX 46183 14061 99536 71311 46/// /3000 10049 40175 52002 22200 00077 10802 70009 333 91201
BBXX A8JH8 14064 99326 70294 41/97 /0613 10185 20170 40295 54000 7//// 8//// 22224 00210 20201 334//
BBXX SKWI 14064 99407 70238 43/98 63028 10134 40264 53015 22263 00175 2//// 4////
BBXX A8MW6 14064 99390 70098 41597 73121 10170 20119 40220 54000 70322 878// 22282 00200 2//// 331// 4//10 5//// 80140
BBXX UFJN 14061 99726 10369 41/96 41712 11000 49947 54000 72176 88/// 22200 0//// 20401
BBXX OXBB2 14061 99349 70202 41/98 /2805 10187 20144 40260 57010 70022 8//// 22224 00190 299// 80160
BBXX MGSG6 14063 99612 70013 41297 73320 10070 20021 49534 54000 70252 8679/ 22200 04116 20405 330// 40506 5//// 80050
BBXX 62023 14063 99514 70079 46/97 /2820 10050 2//// 49917 5//// 22200 10709 70044 333 91151 555 70073 80015
BBXX LGWS 14061 99334 70090 43/// /0304 10171 20118 40252 5//// 222/0 04185 1//// 3//// 4//// 5////
BBXX LF4H 14064 99596 10022 46/// /2135 10078 20045 49588 52011 8//// 22200 06087 10813 70064 333 91143
BBXX LMEL 14061 99603 10053 43/// /1510 10057 20047 49654 5//// 222/2 04100 1//// 3//// 4//// 5////
BBXX LDGJ 14061 99603 10053 43/// /1508 10066 20032 49655 5//// 222/1 04098 1//// 3//// 4//// 5////
BBXX TFSTD 14064 99664 70234 46/// ///// 22200 10710 70051
BBXX TFSRT 14064 99633 70203 46/// ///// 22200 10805 70027
BBXX TFKGR 14064 99657 70136 46/// ///// 22200 10606 70028
BBXX TFGSK 14064 99641 70229 46/// ///// 22200 10605 70023
BBXX TFHFN 14064 99642 70152 46/// ///// 22200 10803 70016
BBXX TFGRV 14064 99638 70225 46/// ///// 22200 10803 70016
BBXX TFGRS 14064 99663 70182 46/// ///// 22200 10807 70033
BBXX TFDRN 14064 99658 70212 46/// ///// 22200 10707 70037
BBXX TFBLK 14064 99657 70248 46/// ///// 22200 10607 70033
BBXX TFBKF 14064 99635 70202 46/// ///// 22200 10703 70014
BBXX TBWAA05 14063 99558 10160 41497 52014 10070 20026 49980 53016 70222 82141 22263 2//// 3//// 4//// 5//// 80050 00/87 1/764 5989300/ 871/7 64598 93931/65 1/626 /807
BBXX UANA 14061 99699 10385 41/97 82210 10033 49972 57001 70221 8/4// 22222 04039 20405
BBXX NWS0020 14064 99365 10147 43/// /3111 10158 20107 40236 5//// 7//// 8//// 222// 04201 2//// 3//// 4//// 5//// 6//// 8//// ICE /////
BBXX UGGA 14061 99691 10408 41/98 92114 10030 40002 57010 70222 89/// 22221 20807
BBXX PCIH 14063 99377 70116 41297 83511 10165 20149 40225 58015 76262 22284 00200 20202 334// 40907 80155
BBXX A8PX4 14064 99361 10156 41498 13413 10165 20088 40236 52010 70200 81100 22264 00182 2//// 80122
BBXX PGRQ 14064 99364 10163 41/98 13006 10170 2//// 40240 54000 7//// 81100 22232 00192 20803 399// 40902
BBXX DGWD2 14063 99344 10223 41/98 32706 10175 20132 40205 57002 70100 8134/ 22224 00180 2//01 80149
AAXX 14064 89002 41499 60817 11062 21077 39704 49758 52008 73633 86500 333 92911
AAXX 14064 60677 36/// /0000 10101 21045 333 20084
AAXX 14064 60676 36/// /0409 10091 21048 333 20081
AAXX 14064 60650 36/// /0000 10075 21035 333 20072
AAXX 14064 60633 36/// /3412 10139 21085 333 20139
AAXX 14064 60679 36/// /0316 10049 21213 333 20049
AAXX 14064 60672 36/// /1101 10080 21063 333 20080
AAXX 14064 60661 36/// /0210 10078 21042 333 20058
AAXX 14064 71343 16/// /2721 11018 21068 60001 333 11017 21161 70000 555 32827 40061
AAXX 14064 71345 16/// /2111 11070 21108 60001 333 11058 21152 70000 555 31920 40081
AAXX 14064 71979 16/// ///// 11050 21093 38424 40088 51023 60001 333 11012 21082 70000
AAXX 14064 71189 46/// /0503 11017 21041 6///1 333 11002 21018 7////
AAXX 14064 71375 46/// /0114 11108 6///1 333 11072 21114 7//// 555 30619 40151
AAXX 14064 71217 16/// /2810 11126 21149 60001 333 11029 21252 70000
AAXX 14064 71224 46/// /2719 11032 21076 6///1 333 7////
AAXX 14064 71276 16/// ///10 11056 21090 60001 333 11020 21118 70000
AAXX 14064 71299 16/// /2106 11034 21040 39979 40258 56010 60001 333 11033 21080 70000 555 10010
AAXX 14064 41960 31950 03101 10238 20150 30171 40179 70500 333 58011 70000
BBXX 46183 14061 99536 71311 46/// /3000 10049 40175 52002 22200 00077 10802 70009 333 91201
AAXX 14064 71375 46/// /0114 11108 6///1 333 11072 21114 7//// 555 30619 40151
AAXX 14064 71276 16/// ///10 11056 21090 60001 333 11020 21118 70000
AAXX 14064 71299 16/// /2106 11034 21040 39979 40258 56010 60001 333 11033 21080 70000 555 10010
AAXX 14064 71189 46/// /0503 11017 21041 6///1 333 11002 21018 7////
AAXX 14064 71979 16/// ///// 11050 21093 38424 40088 51023 60001 333 11012 21082 70000
AAXX 14064 71217 16/// /2810 11126 21149 60001 333 11029 21252 70000
AAXX 14064 71224 46/// /2719 11032 21076 6///1 333 7////
AAXX 14064 71343 16/// /2721 11018 21068 60001 333 11017 21161 70000 555 32827 40061
AAXX 14064 71345 16/// /2111 11070 21108 60001 333 11058 21152 70000 555 31920 40081
AAXX 14064 48481 31558 73302 10295 20173 30083 40110 57021 70522 83556 333 59011
BBXX 46088 14061 99483 71232 46/// /1103 10058 40196 90620 22200 00079 1//00 70001 333 91203 555 11027 22027 30610 41004 60619 107026 104023 106023 134016 150012 163013
BBXX 46087 14061 99485 71247 46/// /0803 10063 20030 40196 90620 22200 00077 333 91204 555 11027 22028 30542 41004 60619 080025 082027 085025 087025 088025 091026
BBXX 46248 14061 99461 71247 46/// ///// 1//// 90604 22200 00087 11305 21002 329// 41304 70024
BBXX 46244 14061 99409 71244 46/// ///// 1//// 90605 22200 00095 11303 20702 329// 41302 70013
BBXX 46243 14061 99462 71241 46/// ///// 1//// 90559 22200 00081 11304 21002 326// 41303 70019
BBXX 46241 14061 99330 71173 46/// ///// 1//// 90541 22200 00146 11302 21001 326// 41301 70008
AAXX 14061 01427 11460 82118 10071 20042 39736 49752 53002 60022 78082 889// 333 20055 70090 91128
AAXX 14061 27906 32597 81403 10002 21015 39971 40218 54000 883// 333 20002 41997
BBXX 46240 14061 99366 71219 46/// ///// 1//// 90612 22200 00127 11002 21001 335// 41201 70009
BBXX 46236 14061 99368 71219 46/// ///// 1//// 90550 22200 00124 11003 21002 329// 41101 70013
BBXX 46237 14061 99378 71226 46/// ///// 1//// 90610 22200 00112 11202 21002 325// 41201 70010
BBXX 46223 14061 99335 71178 46/// ///// 1//// 90600 22200 00152 11302 20502 321// 41301 70010
BBXX 46216 14061 99343 71198 46/// ///// 1//// 90557 22200 00139 11202 21002 326// 41201 70010
AAXX 14063 64800 NIL
AAXX 14063 64820 NIL
AAXX 14063 64860 31930 71206 10172 20048 39860 40133 70522 80002 333 00500 20163 50690 55089 58000 87080
AAXX 14063 64861 NIL
AAXX 14063 64870 NIL
AAXX 14063 64871 NIL
AAXX 14063 64892 NIL
AAXX 14063 64893 NIL
AAXX 14063 64894 NIL
AAXX 14064 64910 31412 71402 10248 20244 30110 40119 71022 84502 333 021// 20245 50421 55072 58008 84616 87080
AAXX 14064 64911 NIL
AAXX 14064 64950 NIL
BBXX 46231 14061 99327 71174 46/// ///// 1//// 90554 22200 00145 11302 20901 325// 41302 70012
BBXX 46222 14061 99336 71183 46/// ///// 1//// 90556 22200 00156 10502 20502 327// 41201 70012
BBXX 46219 14061 99332 71199 46/// ///// 1//// 90558 22200 00136 11105 21003 331// 41103 70023
BBXX 46242 14061 99332 71174 46/// ///// 1//// 90558 22200 00154 11301 20801 323// 41301 70007
BBXX 46131 14061 99499 71250 46/// /2202 1//// 40200 52017 22200 00065 10300 70000 333 91202
AAXX 14061 60379 16/// /1701 10085 20085 69924 333 20081
AAXX 14061 60380 16/// /0701 10067 20067 69924 333 20057
AAXX 14061 60394 16/// /0000 10063 20063 69924 333 20059
AAXX 14061 60374 36/// /1302 10103 20099 333 20103
AAXX 14061 60613 36/// /0905 10069 20013 333 20067
AAXX 14061 63330 32980 01208 10144 20045 37807 40280 333 20095 58013
AAXX 14061 63331 32875 30202 10198 20100 38061 40242 83030 333 20118 58006 83359
AAXX 14061 63332 NIL
AAXX 14061 63333 32980 10000 10148 20062 38187 40216 80001 333 20055 58001 81070
AAXX 14061 63334 NIL
AAXX 14061 63340 32580 62101 10155 20123 37955 40180 85830 333 20115 58008 82324 83825
AAXX 14061 63402 31520 10000 10122 20119 38361 4//// 7104/ 81100 333 20078 58009 81824
AAXX 14061 63403 11060 70902 10170 20136 60104 7102/ 85570 333 20132 81700 84624 87360
AAXX 14061 63450 NIL
AAXX 14061 63451 32980 00000 10148 20104 38163 40157 333 20030 58004
AAXX 14061 63453 31975 02701 10186 2//// 39098 7050/ 333 20090
AAXX 14061 63460 32980 00201 10160 20070 333 20072
AAXX 14061 63471 32980 00000 10224 20125 38883 40135 333 20145 58001
AAXX 14061 63474 32580 10402 10144 20048 81100 333 20050 81823
AAXX 14061 63478 32880 11004 10285 2186 39813 40192 81040 333 20224 58006 81358
AAXX 14061 63500 31570 10000 10212 20134 7050/ 81100 333 20130 82820
AAXX 14061 63533 NIL
BBXX 46211 14061 99469 71242 46/// ///// 1//// 90606 22200 00084 11404 21002 328// 41404 70022
BBXX 46131 14061 99499 71250 46/// /2202 1//// 40200 52017 22200 00065 10300 70000 333 91202
AAXX 14064 07255 01668 82314 10097 20060 39845 40043 56006 69902 76062 875// 333 10101 20062 32005 55000 69907 70018 87643 90710 91126 93100 555 69905
AAXX 14064 91367 32474 30810 10294 20249 83100 333 562// 83815 70000 555 91406 91369 32474 30918 10294 20254 30075 40078 83100 333 562// 83815 70000 555 91406
AAXX 14061 01392 11474 81705 10019 20001 39577 49798 52002 69932 76062 888// 333 20015 43008 70046 91110
AAXX 14064 91367 32474 30810 10294 20249 83100 333 562// 83815 70000 555 91406 91369 32474 30918 10294 20254 30075 40078 83100 333 562// 83815 70000 555 91406
BBXX DBPG 14061 99537 10080 41/98 12015 10040 49930 54000 7//22 22200
BBXX A8ZS7 14064 99217 30555 41698 11112 10280 20239 40125 51010 70200 81100 22254 04250 29901 319// 41002 80250
BBXX A8UA9 14064 99376 10100 41/98 42112 10155 20121 40240 57010 70200 84/4/ 22263 20401 80135
BBXX A8SG4 14064 99219 51440 41498 20710 10260 20218 40160 53015 70122 81141 22214 04270 80230
BBXX DFVY2 14064 99177 50380 41698 40510 10250 20222 40122 57006 70211 845// 22243 00250 80230
AAXX 14061 60376 36/// /1703 10094 20094 333 20087
AAXX 14061 60593 36/// /0204 10063 333 20063
BBXX 46204 14061 99514 71288 46/// /3504 10064 40174 52003 22200 00082 11405 70023 333 91205
BBXX 46204 14061 99514 71288 46/// /3504 10064 40174 52003 22200 00082 11405 70023 333 91205
AAXX 14061 35925 31596 32303 11046 21053 40343 52008 72841 83600 333 21076
AAXX 14061 36864 31495 80201 11028 21035 39406 40320 57009 71022 886// 333 21032
AAXX 14061 38001 32997 80901 10007 21022 30363 40333 53003 8807/ 333 21007
AAXX 14061 38196 11596 81402 11033 21050 39312 40320 53003 69940 77177 8802/ 333 21062
AAXX 14061 38198 11597 81502 11011 21021 30070 40336 52003 69900 72272 885// 333 21032
AAXX 14061 38232 31495 80202 11032 21035 30245 40348 52010 71022 886// 333 21044
AAXX 14061 38328 31595 82003 10003 21014 39588 40332 51004 71022 8553/ 333 21040
AAXX 14061 38334 11496 62602 11004 21045 39343 40326 52004 69900 71022 8662/ 333 21040
AAXX 14061 38439 31593 51304 10000 21006 39993 40340 52003 74644 80001 333 21009
AAXX 14061 21802 32999 62405 11162 21174 30162 40187 57015 85040
AAXX 14061 24125 41998 80000 11291 21303 39978 40290 57014 72272 80007
AAXX 14061 24136 42999 81501 11361 21390 30182 40295 57021 85031
AAXX 14061 24143 42999 40503 11386 21420 30235 40293 57011 82025
AAXX 14061 24266 41998 10000 11485 21505 30160 40374 57002 70400 80001
AAXX 14061 24329 42999 70000 11390 21417 30017 40367 57015 87010
AAXX 14061 24343 42999 53301 11330 21353 30173 40307 57002 83032
AAXX 14061 24382 41996 50000 11397 21422 30049 40341 57003 71022 82031
AAXX 14061 24639 41999 52403 11342 21371 30195 40371 57002 70272 80001
AAXX 14061 24641 42999 02402 11335 21365 30179 40342 53006
AAXX 14061 24652 42999 00000 11373 21401 30165 40305 52007
AAXX 14061 24656 42999 10301 11397 21429 30191 40310 52007 80001
AAXX 14061 24671 42999 63601 11313 21342 39718 40283 56001 80002
AAXX 14061 24688 41999 20801 11445 21475 39286 40364 52001 70400 80001
AAXX 14061 24724 41999 02406 11298 21328 39811 40408 58007 73630
AAXX 14061 24738 41999 82002 11298 21315 30187 40386 53001 70272 86035
AAXX 14061 24768 41996 20000 11422 21458 30045 40320 53005 71000 80001
AAXX 14061 24923 41696 72204 11295 21326 30095 40443 53001 77172 86501 333 86633
AAXX 14061 24944 41697 82703 11275 21293 30055 40380 53003 77172 82537
AAXX 14061 24951 41999 62803 11293 21324 30156 40343 54000 70231 80001
AAXX 14061 24661 42999 00000 11382 21423 39996 40303 53009
AAXX 14061 24959 42999 32401 11335 21372 30166 40313 53008 80001
AAXX 14061 24962 41996 00000 11408 21438 30110 40329 52005 71041
AAXX 14061 24966 42999 10000 11417 21443 30063 40318 52006 80001
AAXX 14061 24967 42999 40000 11384 21420 30095 40350 52004 80001
AAXX 14061 25206 41796 82903 11268 21300 30227 40257 53006 77177 8802/
AAXX 14061 25400 41598 83404 11253 21277 30211 40272 53001 77173 8372/
AAXX 14061 30054 41997 81602 11323 21352 30208 40485 52003 77172 83047
AAXX 14061 30089 41999 22501 11252 21284 30139 40387 56001 70271 80001
AAXX 14061 30393 41997 83405 11274 21298 39196 40350 52002 77172 8802/
AAXX 14061 30493 41298 83603 11250 21288 39175 40317 58005 77172 8261/
AAXX 14061 31004 41999 62301 11285 21308 39428 40358 52003 70272 82031
AAXX 14061 31137 41998 70000 11267 21298 39148 40279 52002 77172 82025
BBXX ZDLP 14064 99645 50626 41/97 50209 10021 21023 49884 51009 70142 84440 22212 04003 20101 30000 40000 50000 80006 ICE //5//
AAXX 14061 35925 31596 32303 11046 21053 40343 52008 72841 83600 333 21076
AAXX 14061 36864 31495 80201 11028 21035 39406 40320 57009 71022 886// 333 21032
AAXX 14061 38001 32997 80901 10007 21022 30363 40333 53003 8807/ 333 21007
AAXX 14061 38196 11596 81402 11033 21050 39312 40320 53003 69940 77177 8802/ 333 21062
AAXX 14061 38198 11597 81502 11011 21021 30070 40336 52003 69900 72272 885// 333 21032
AAXX 14061 38232 31495 80202 11032 21035 30245 40348 52010 71022 886// 333 21044
AAXX 14061 38328 31595 82003 10003 21014 39588 40332 51004 71022 8553/ 333 21040
AAXX 14061 38334 11496 62602 11004 21045 39343 40326 52004 69900 71022 8662/ 333 21040
AAXX 14061 38439 31593 51304 10000 21006 39993 40340 52003 74644 80001 333 21009
BBXX JPAT 14064 99164 30903 41697 61026 10265 20227 40102 58001 70161 84443 22233 00277 11205 20301 31023 40406 50505 85238
BBXX FHZI 14064 99429 31473 46/// /2108 10189 20049 30159 40170 54000 22200 04165 85116
BBXX VROB 14064 99068 31470 46/// /1104 10291 20210 30019 40043 57023 22200 04287 85233
BBXX 44029 14061 99425 70706 46/30 /0206 10066 40257 54000 90604 22200 00085 10502 70009 333 91208 555 11078 22082
BBXX 44030 14061 99432 70704 46/// /0408 1//// 40263 51004 90604 22200 00091 11103 70013 333 91210 555 11101 22108
BBXX 44097 14061 99410 70711 46/// ///// 1//// 90602 22200 00125 10902 20902 318// 41201 70012
BBXX 44040 14061 99410 70736 46/// /3605 10054 20004 40289 90615 22200 1//00 70002 333 91206 555 11067 22082
AAXX 14064 91650 11599 20000 10274 2025/ 40090 55004 60001 70110 82101 333 569/9 82820
AAXX 14064 91652 NIL
AAXX 14064 91656 NIL
AAXX 14064 91659 NIL
AAXX 14064 91660 NIL
AAXX 14064 91669 36/// /2002 10272 20258 40104 52004 90620
AAXX 14064 91670 36/// /2200 10289 20225 40095
AAXX 14064 91676 14/// /0101 10265 20235 30028 40088 50004 60081
AAXX 14064 91680 11399 71107 10234 20233 40104 51012 60261 79199 879// 333 569// 81706 82925 85827
AAXX 14064 91682 NIL
AAXX 14064 91683 11599 63105 10275 20239 40098 53011 60001 70222 86800 333 569// 84824 85650
AAXX 14064 91691 14/// /0101 10277 20252 30098 40101 50005 60201
AAXX 14064 91693 11599 30000 10276 2024/ 40094 53007 60001 70110 82101 333 563/9 82825
AAXX 14064 91697 14/// /1301 10260 20225 30096 40101 50006 60001
AAXX 14064 91699 14/// /1101 10252 20216 30074 40106 50004 60051
BBXX 51205 14061 99210 71564 46/// ///// 1//// 90618 22200 00242 11005 21005 308// 41102 70025
BBXX 46114 14061 99364 71222 46/// ///// 1//// 90604 22200 00121 10903 20903 323// 41302 70015
BBXX JPAT 14064 99164 30903 41697 61026 10265 20227 40102 58001 70161 84443 22233 00277 11205 20301 31023 40406 50505 85238
BBXX FHZI 14064 99429 31473 46/// /2108 10189 20049 30159 40170 54000 22200 04165 85116
BBXX VROB 14064 99068 31470 46/// /1104 10291 20210 30019 40043 57023 22200 04287 85233
AAXX 14063 67765 12980 70000 10211 20177 38663 48506 69904 87072 333 20186 87360
AAXX 14063 67867 12380 70506 10182 20182 38574 48501 60324 8177/ 333 20165 81708 87459
BBXX PHET 14061 99225 70709 41/98 80322 10247 20182 40140 70222 8//// 22234 20106 334// 40307 5////
BBXX C6VG7 14064 99192 70754 41698 30415 10258 2019/ 40138 57001 7//00 831// 22254 00280 20202 305// 4//// 5//// 6//// 80210 ICE /////
BBXX LAOW5 14064 99155 51298 41497 61012 10240 20211 40166 52026 70222 862// 22254 00255 20304 310// 40305 5//// 6//// 80220 ICE /////
AAXX 14061 30157 42998 50000 11295 21326 30157 40481 51003 80001
BBXX 46221 14061 99339 71186 46/// ///// 1//// 90545 22200 00152 11302 20502 321// 41301 70010
BBXX 52200 14061 99134 11448 46/// ///// 1//// 90615 22200 00288 11006 21005 309// 41101 70029
BBXX 51201 14061 99217 71581 46/// ///// 1//// 90612 22200 00242 11403 21003 334// 41401 70015
BBXX SHIP 14064 99291 11315 41397 63415 10200 20153 40188 50019 70222 85657 22213 00238 20203 301// 40304 80170
BBXX SHIP 14064 99216 11357 41497 41009 10256 40147 57011 70122 82201 9//// 22283 02275 20301 30904 40706 50704 6//// 80251
BBXX 3EDA4 14063 99099 11491 41598 30530 10290 20250 50/// 70011 83273 22226 20502 30505 40502 50502 80260
BBXX 7JJA 14064 99243 11275 41697 80624 00 10230 20201 40165 57010 70222 886// 9//// 22213 00270 2//06 304 4//08 5 6//// 80210 IC E/////
BBXX SHIP 14064 99219 11327 41498 30515 10290 20235 40144 56015 70111 83200 22243 00240 20402 304// 40603 80250
BBXX SHIP 14064 99271 11256 41496 60418 10230 20186 40187 57028 70528 8557/ 22254 00245 20302 305// 40403 802000
BBXX DQVJ 14061 99521 11607 41698 51311 10030 21003 49940 51010 7//77 85900 22263 00026 20803 331// 41005 5////
BBXX A8XD5 14064 99398 11359 41297 32611 10100 20061 40160 57/// 70311 82161 22213 04110 20302 323// 40302 80080
BBXX PDWT 14063 99236 11246 41297 80615 10230 20185 40180 56005 75151 886// 22283 06260 20403 307// 40704 5//// 80200
BBXX SHIP 14063 99096 11423 41/98 70922 10302 20223 40051 55011 70222 84774 22274 00296 20303 308// 40303 80248
BBXX SHIP 14064 99269 11285 41697 70609 10260 20186 40196 53020 70222 86556 22253 00240 20101 306// 40101 80210
BBXX DDYL2 14063 99226 11164 41997 80427 10198 20151 40165 57030 70522 8805/ 22251 00190 20506 80168
BBXX JGQH 14064 99237 11323 41/97 80520 10222 20210 40159 55013 70222 882// 22261 00243 1//// 20604 306// 40803
BBXX JPBN 14064 99326 11423 41/97 12518 10193 20074 40155 56013 70211 81231 22271 00207 1//04 20402 30105 40803 50803 70019
BBXX ONFE 14064 99159 11162 41298 50422 10270 2022/ 40135 58015 71622 85200 22214 00270 20303 303// 40609 5//// 6//// 80235 ICE /////
BBXX C6YA7 14064 99213 11545 41198 60610 10260 2023/ 40140 54000 70211 861// 22263 0//// 2//// 314// 40403 5//// 6//// 80240 ICE /////
BBXX DGBE 14063 99267 11229 41697 80317 10196 20134 40195 57020 70222 86720 22254 00220 20502 302// 40603 80158
BBXX DHEB 14063 99508 11627 41598 52820 11020 21066 5/010 70122 85144 22224 2//// 3//// 4//// 5//// 81035
BBXX DFVY2 14064 99177 50380 41698 40510 10250 20222 40122 57006 70211 845// 22243 00250 80230
BBXX A8QJ7 14064 99170 50363 41398 60711 10250 20235 40121 55006 70322 8/77/ 22213 06250 2//// 3//// 4//// 5//// 80240
BBXX DFCX2 14063 99103 70889 41197 81220 10270 20221 40122 51002 7//00 81819 22234 06267 20803 80235
BBXX A8SG4 14064 99219 51440 41498 20710 10260 20218 40160 53015 70122 81141 22214 04270 80230
BBXX ZMFR 14064 99490 31665 43/// /25// 10114 20112 49972 57011 22281 00113
BBXX ZMENA 14064 99377 31762 46/// ///// 10177 20159 40168 57009 22200
BBXX A8ZS7 14064 99217 30555 41698 11112 10280 20239 40125 51010 70200 81100 22254 04250 29901 319// 41002 80250
BBXX WDE8288 14063 99220 10674 41398 /0618 10260 2025/ 40158 54000 70200 8//// 22233 0//// 20403 303// 40704 5//// 6//// 80250 ICE /////
BBXX A8PK8 14063 99204 10384 41297 71502 10272 20192 40152 51010 70522 84710 22233 04282 20000 315// 40401 5//// 80220
BBXX A8EY5 14064 99027 70274 41597 11218 10260 20218 40090 57/// 7//66 815// 22255 00275 20703 313// 40904 5//// 80230
BBXX PDHO 14063 99272 10349 41/98 23111 10246 20157 40170 54000 70200 81101 22235 00232 29902 80188
BBXX 62153 14064 99573 10020 47597 /2240 10070 20033 49700 52016 700// 22200 11016 70078
BBXX 63106 14064 99610 10017 46/// /2130 10059 49540 51005 22200
BBXX 63112 14064 99611 10010 47/97 /2113 10067 20027 49532 52006 700// 22200 10912 70060
BBXX 62116 14064 99576 10011 47497 /2435 10075 20037 49674 52019 700// 22200 10915 70073
BBXX 63105 14064 99610 10017 47596 ///// 10067 20037 49540 51006 763// 22200
BBXX 63113 14064 99610 10017 46/// /2327 10063 20036 49549 52014 22200 10912 70058
BBXX 63101 14064 99612 10009 46/// /2314 10058 20039 49536 51008 22200
BBXX 62104 14064 99574 10013 47497 /2435 10071 20032 49683 52017 700// 22200
BBXX 63103 14064 99612 10011 46/// /2116 10067 20031 49533 50006 22200 10911 70054
BBXX 63107 14064 99611 10017 46/// /2025 10065 49538 51004 22200
BBXX 63104 14064 99612 10016 47497 /1917 10065 20039 49540 51007 762// 22200
BBXX 63115 14064 99616 10013 47598 /1914 10111 20029 49533 53003 762// 22200 11014 70068
BBXX 63117 14064 99613 10011 47498 /2014 10100 20043 49537 53002 761// 22200
BBXX MWYG6 14064 99603 70040 47998 /3017 10072 700// 22200
BBXX 62144 14064 99534 10017 47998 /2226 10060 20015 49881 56013 700// 22200 10504 70021
BBXX 64041 14064 99607 70026 47597 /3118 10066 20027 49560 52026 762// 22200 11007 70037
BBXX 62142 14064 99530 10021 46998 /2324 10064 20018 49884 57014 22200 10504 70018
BBXX 62148 14064 99536 10015 46/// /2230 10058 20016 49874 56009 22200
BBXX 62145 14064 99531 10028 47598 /2121 10074 20006 49892 56012 700// 22200 10506 70029
BBXX 63108 14064 99608 10017 47997 /2132 10068 20034 49546 53004 700// 22200 10911 70056
BBXX 62111 14064 99580 70003 46/// /2532 10077 20026 49670 52023 22200 10709 70043
BBXX 62150 14064 99536 10007 47998 /2128 10056 20012 49869 55003 700// 22200 10503 70014
BBXX PJAI 14064 99581 70014 47697 /2526 10084 20014 49644 53027 700// 22200
BBXX 63055 14064 99606 10016 47797 /2121 10076 20055 49552 53003 700// 22200 10912 70059
BBXX 62112 14064 99584 70002 47597 /2334 10077 20029 49630 52017 700// 22200
BBXX 62149 14064 99537 10011 47998 /2228 10062 20018 49862 55000 700// 22200 10504 70020
BBXX 62127 14064 99540 10007 47998 ///// 10056 20010 49849 53011 700// 22200 10605 70024
BBXX AMOUK27 14064 99582 70064 46/// ///// 1//// 2//// 39661 49661 52029 90550
BBXX 62131 14064 99539 10012 46/// /21// 10060 20016 49856 53003 22200
BBXX AMOUK14 14064 99535 70030 46/// ///// 10054 21011 39817 49851 52008 90550
BBXX AMOUK12 14064 99533 70054 46/// ///// 10058 20006 39820 49859 52004 90550
BBXX AMOUK13 14064 99521 10012 46/// ///// 10058 20033 39891 49899 57023 90550
BBXX AMOUK21 14064 99564 70055 46/// ///// 10073 20019 39736 49736 52034 90550
BBXX AMOUK09 14064 99505 70022 46/// ///// 10090 20031 39904 49922 57007 90550
BBXX AMOUK16 14064 99521 70054 46/// ///// 10064 21018 39870 49876 57015 90550
BBXX AMOUK05 14064 99535 10002 46/// ///// 10039 20008 39794 49835 57034 90550
BBXX AMOUK19 14064 99578 70018 46/// ///// 10071 20016 39644 49646 52055 90550
BBXX 62303 14064 99516 70051 46/// /2620 10082 20027 49894 50000 22200 00116 10707 70035 333 90710 91129
BBXX 62029 14064 99487 70125 46/// /2731 10089 20037 49992 53008 22200 00134 11014 70071 333 90710 91143
BBXX AMOUK03 14064 99535 10006 46/// ///// 10046 20027 39799 49832 57045 90550
BBXX AMOUK08 14064 99501 70061 46/// ///// 10076 20021 39930 49935 54002 90550
BBXX AMOUK11 14064 99533 70059 46/// ///// 10035 21010 39781 49808 57020 90550
BBXX 62301 14064 99524 70047 46/// /2423 10066 21003 49872 51001 22200 00102 10606 70031 333 90710 91136
BBXX AMOUK06 14064 99509 70014 46/// ///// 10047 20029 39900 49924 57005 90550
BBXX WDF5483 14064 99438 70865 41/98 /1412 10050 2//// 40247 53013 70022 8//// 22242 0//// 2//02 3//// 4//// 5//// 6//// 8//// ICE /////
BBXX 46204 14061 99514 71288 46/// /3504 10064 40174 52003 22200 00082 11405 70023 333 91205
BBXX 46211 14061 99469 71242 46/// ///// 1//// 90606 22200 00084 11404 21002 328// 41404 70022
BBXX 46131 14061 99499 71250 46/// /2202 1//// 40200 52017 22200 00065 10300 70000 333 91202
BBXX 46219 14061 99332 71199 46/// ///// 1//// 90558 22200 00136 11105 21003 331// 41103 70023
BBXX 46242 14061 99332 71174 46/// ///// 1//// 90558 22200 00154 11301 20801 323// 41301 70007
BBXX 46222 14061 99336 71183 46/// ///// 1//// 90556 22200 00156 10502 20502 327// 41201 70012
BBXX 46231 14061 99327 71174 46/// ///// 1//// 90554 22200 00145 11302 20901 325// 41302 70012
BBXX 46216 14061 99343 71198 46/// ///// 1//// 90557 22200 00139 11202 21002 326// 41201 70010
BBXX 46223 14061 99335 71178 46/// ///// 1//// 90600 22200 00152 11302 20502 321// 41301 70010
BBXX 46237 14061 99378 71226 46/// ///// 1//// 90610 22200 00112 11202 21002 325// 41201 70010
BBXX 46236 14061 99368 71219 46/// ///// 1//// 90550 22200 00124 11003 21002 329// 41101 70013
BBXX 46240 14061 99366 71219 46/// ///// 1//// 90612 22200 00127 11002 21001 335// 41201 70009
BBXX 46241 14061 99330 71173 46/// ///// 1//// 90541 22200 00146 11302 21001 326// 41301 70008
BBXX 46243 14061 99462 71241 46/// ///// 1//// 90559 22200 00081 11304 21002 326// 41303 70019
BBXX 46087 14061 99485 71247 46/// /0803 10063 20030 40196 90620 22200 00077 333 91204 555 11027 22028 30542 41004 60619 080025 082027 085025 087025 088025 091026
BBXX 46248 14061 99461 71247 46/// ///// 1//// 90604 22200 00087 11305 21002 329// 41304 70024
BBXX 46244 14061 99409 71244 46/// ///// 1//// 90605 22200 00095 11303 20702 329// 41302 70013
BBXX 46183 14061 99536 71311 46/// /3000 10049 40175 52002 22200 00077 10802 70009 333 91201
BBXX 9HXC9 14064 99180 70637 41598 20208 10249 20184 40101 54000 7//11 82200 22222 04285 20602 3//// 40702 5//// 6//// 80205 ICE /////
BBXX 46147 14061 99518 71312 46/// /0604 10059 40175 54000 22200 00081 11206 70029 333 91206
BBXX DGHX 14063 99407 71418 41/98 /2523 10125 20107 40170 57005 76162 8//// 22254 00130 2//// 80115
BBXX SHIP 14064 99318 71604 41/96 81727 10210 20195 40174 56005 70202 8//// 90555 22264 00200 2//// 3//// 4//// 5//// 80200
BBXX H9UY 14064 99181 71243 41798 60421 00/// 10210 40200 51/// 70322 85893 9//// 22263 04230 20302 332// 40403 5//// 6//// 80180
BBXX C6KD7 14063 99146 70738 41598 50714 10270 20226 40114 54000 70211 82441 22214 02291 20503 307// 41002 5//// 80240
BBXX 46088 14061 99483 71232 46/// /1103 10058 40196 90620 22200 00079 1//00 70001 333 91203 555 11027 22027 30610 41004 60619 107026 104023 106023 134016 150012 163013
BBXX 42362 14061 99278 70907 46/// /0911 10217 20172 40247 90615
BBXX 42363 14061 99282 70892 46/// /0913 10206 20161 40258 90630 333 91213
BBXX 42364 14061 99291 70881 46/// /0907 10200 20156 40264 90615
BBXX 42363 14061 99282 70892 46/// /1011 10206 20161 40261 90615 333 91212
BBXX 41053 14061 99185 70661 46/// /2103 10246 40118 90540 333 91204
BBXX 41053 14061 99185 70661 46/// /2103 10246 40117 90550 333 91204
BBXX C6UB2 14064 99484 71273 41499 51812 10090 2007/ 40190 52020 70121 8413/ 22223 00090 20201 318// 40402 5//// 6//// 80080 ICE /////
BBXX PHET 14061 99225 70709 41/98 80322 10247 20182 40140 70222 8//// 22234 20106 334// 40307 5////
BBXX C6SE5 14064 99189 70796 41/// /0334 1//// 2//// 40160 54/// 7//// 8//// 22224 0//// 2//// 3//// 4//// 5//// 6//// 8//// ICE /////
BBXX DAJC 14063 99307 71415 41598 89904 10190 20124 40280 51020 70222 8742/ 22224 04200 20902 307// 41004 5//// 80150
BBXX 46207 14061 99509 71299 46/// /0505 10070 40167 57003 22200 00085 11406 70029 333 91207
BBXX DBPG 14061 99537 10080 41/98 12015 10040 49930 54000 7//22 22200
BBXX A8UA9 14064 99376 10100 41/98 42112 10155 20121 40240 57010 70200 84/4/ 22263 20401 80135
BBXX UCKG 14061 99720 10088 41/97 91308 10040 49804 54000 70222 22213 00090 20202
BBXX 2AAY7 14063 99576 70024 41297 62425 10069 20009 49676 52030 70322 8577/ 22221 02074 20402 80045
BBXX 62095 14064 99531 70159 46/// /2720 10060 20037 49824 57015 22200 00114 11012 70058 333 90710 91129
BBXX 62103 14064 99499 70029 46/99 /2727 10089 20031 49928 55003 22200 00125 11007 70034 333 90710 91142
BBXX 64049 14063 99571 10022 41/97 82350 10080 20074 49777 52010 70722 8//// 22200 04092 20814 323// 40816 5//// 80077
BBXX 62094 14064 99517 70067 46/// /2724 10077 20021 49892 50000 22200 00111 10708 70039 333 90710 91137
BBXX 62103 14064 99499 70029 46/99 /2727 10094 20030 49928 57005 22200 00126 10906 70030 333 90710 91135
BBXX 62118 14064 99577 10009 47997 /2333 10082 20039 49670 52021 700// 22200 10913 70066
BBXX 62143 14064 99577 10018 47497 /2320 10071 20044 49674 53011 700// 22200 10915 70077
BBXX 62155 14064 99577 10007 47498 /2435 10073 20039 49683 52017 751// 22200 10812 70060
BBXX 62117 14064 99579 10000 47097 /2229 10075 20039 49661 52022 700// 22200 10709 70044
BBXX 62165 14064 99540 10009 47998 /2225 10061 20012 49854 53009 700// 22200 10606 70028
BBXX 62304 14064 99511 10018 46/98 /2313 10063 20024 49949 56012 22200 00119 10702 70008 333 90710 91126
BBXX 62304 14064 99511 10018 46/98 /2311 10064 20026 49929 57011 22200 00120 10702 70008
BBXX 62107 14064 99501 70061 46/// /2530 10071 20012 49937 52007 22200 00116 11010 70048 333 90710 91147
BBXX 63110 14063 99595 10015 41/97 /2150 10075 20044 49569 78186 8//// 22200 11012 70060
BBXX 62027 14064 99491 70022 46/// /2424 1//// 2//// 49958 55004 22200 00118 11406 325// 70028 333 90710 91132
BBXX 62102 14064 99579 10018 46/// /2331 10077 20031 49668 52016 22200 10914 70072
BBXX 62134 14064 99580 10014 47997 /2332 10076 20033 49665 52021 700// 22200 10813 70066
BBXX ZQSD5 14064 99583 10007 46/// /2332 10079 20030 49646 52020 22200 11015 70073
BBXX 62114 14064 99583 10000 46/// /2337 10076 20023 49632 52017 22200
BBXX 62113 14064 99584 10002 47598 /2134 10076 20023 49652 52018 700// 22200
BBXX 62129 14064 99584 10003 46/// ///// 10077 20023 49656 52017 22200
BBXX 63057 14064 99592 10015 47597 /2242 10077 20039 49599 52011 762// 22200 10912 70060
BBXX 62128 14064 99587 10014 47597 /2236 10075 20032 49628 52014 700// 22200 10911 70057
BBXX 62121 14064 99535 10027 46/// /2225 10065 20006 49890 56012 22200
BBXX 63110 14064 99595 10015 47496 /2135 10076 20046 49577 51009 762// 22200 10912 70061
BBXX 63056 14064 99597 10016 47497 /2038 10075 20046 49593 52015 700// 22200 10813 70066
BBXX 62123 14064 99563 10022 47597 /2337 10069 20037 49739 52012 700// 22200
BBXX 62154 14064 99564 10022 46/// /2336 10068 20015 49753 52010 22200
BBXX 62132 14064 99564 10020 46/// /2634 10069 20012 49764 52015 22200
BBXX 62120 14064 99564 10021 47997 /2439 10071 20016 49741 52011 700// 22200
BBXX 62164 14064 99572 10008 47497 /2227 10078 20040 49696 53015 700// 22200 00098 10914 70072
BBXX 62152 14064 99570 10018 47/96 /2027 10068 20021 49733 52012 761// 22200 10813 70066
BBXX 62133 14064 99571 10009 46/// /2238 10060 20024 49692 52014 22200
BBXX PJGO 14064 99571 10022 47196 /2136 10068 20029 49727 52021 762// 22200
BBXX 62140 14064 99573 10013 46/// /24// 10059 20052 49687 52017 22200
BBXX 62119 14064 99570 10019 47497 /2438 10069 20021 49730 52013 700// 22200 10914 70071
BBXX 62122 14064 99573 10016 47497 /2234 10088 20030 49711 53014 762// 22200 10915 70073
BBXX 62146 14064 99572 10021 47/97 /2338 10070 20019 49716 52013 700// 22200 11015 70077
BBXX C6KD9 14060 99222 70605 41597 62006 10255 20230 40108 58009 70122 86494 22254 02264 20903 309// 40904 5//// 80238
BBXX 41053 14061 99185 70661 46/// /2103 10246 40116 58010 90600 22200 00279 11003 70016 333 91204
BBXX WXJ63 14063 99611 71464 41/97 80204 11019 21034 40076 50/// 702// 8//// 222// 00042 2//// 3//// 4//// 5//// 6//// 8//// ICE /////
BBXX 41029 14061 99328 70796 46/// /3501 1//// 90600 555 11015 22017
BBXX 44032 14061 99437 70694 46/30 /0208 10045 40258 52004 90604 22200 00089 10402 70009 333 91209 555 11092 22096
BBXX 44067 14061 99384 70770 46/// /0202 10054 40290 58009 90600
BBXX 46111 14061 99481 71227 46/// /1504 10056 40193 51015 90600 22200 00059
BBXX 46112 14061 99481 71227 46/// /1203 10050 40194 51015 90600
BBXX IDDUK02 14064 99646 50626 46/// ///// 49887 222//
BBXX 62170 14064 99514 10020 46/97 /2122 10073 20036 49918 58011 22200 00116 10701 70007 333 90710 91131
BBXX 64046 14064 99605 70049 46/// /3517 10073 20033 49590 52036 22200 00091 11009 70047
BBXX 62001 14064 99452 70050 46/// /2731 10126 20069 40096 53021 22200 00148 10916 70079 333 90710 91144
BBXX 62305 14064 99504 10000 46/97 /2718 10070 20028 49947 53007 22200 00124 10703 70015
BBXX 62442 14064 99490 70163 46/// /2731 1//// 2//// 49988 56002 22200 00129 333 90710 91150
BBXX 62163 14064 99475 70084 46/// /2834 10080 20037 40028 52019 22200 00131 11115 70074 333 90710 91147
BBXX 62105 14064 99554 70122 46/// /2823 10080 20024 49792 53009 22200 00108 11014 70068 333 90710 91132
BBXX 62081 14064 99510 70134 46/// ///// 10075 20018 49904 58005 22200 00119 11015 70076
BBXX 64045 14064 99591 70117 46/// /3220 10067 20026 49694 53017 22200 00102 10811 70055 333 90710 91128
BBXX 62123 14064 99563 10022 41/97 /2345 10069 20042 49760 52009 7//// 8//// 22200 20912 323// 40916 5////
BBXX 3ERR2 14064 99635 10053 41598 71223 10078 49617 57024 70222 8551x 22200 06098 11005 70025 333 91126
BBXX LF3N 14064 99653 10073 41497 61812 10069 20029 49653 57002 70122 86/// 22200 00089 10706 70032
BBXX LF5T 14064 99660 10081 41497 81910 10048 20031 49655 54000 78882 88/// 22200 333 91129
BBXX LF4C 14064 99584 10019 41597 82332 10080 20046 49648 52017 702// 89/// 22200 00081 10811 70057 333 91146
BBXX LF4B 14064 99606 10037 47/97 /1936 10079 49590 52016 700// 22200 00072 10914 70071 333 91148
BBXX LF3F 14064 99643 10078 43/// /1314 10064 21009 49656 57010 22200 04088 10704 70022 333 91116
BBXX SHIP 14064 99424 10070 41597 72430 10155 20113 40150 57020 70200 84860 22253 00160 20302 80130 333 82826 84358
BBXX 2ALE5 14063 99302 70119 41598 60417 10185 20132 40247 55001 70322 86100 22214 20506 80155
BBXX PBEO 14063 99460 70077 41397 62634 10105 20062 40078 53008 70022 867// 22212 02125 20506 328// 40807 80083
BBXX PCPR 14063 99373 10063 41498 22615 10162 20141 40230 54000 7//11 82100 22263 04170 20402 328// 40503 80149
BBXX A8AX3 14063 99412 70089 41/98 62531 10144 40219 51028 72582 8//// 22234 20404 329// 40707
BBXX 61002 14064 99421 10047 46/// ///19 10153 2//// 40138 57006 22200 00153 10604 70018
BBXX BATFR31 14064 99432 10053 46/// /1114 10140 40141 51001 22284 00159
BBXX A8UT7 14064 99401 70109 41598 63015 10160 20127 40189 52009 70322 85817 22282 20604 329// 41012 80140
BBXX C6CU6 14063 99363 70282 41698 30110 10165 20120 40300 51010 70200 81141 22263 04190 20000 335// 41506 5//// 80140
BBXX BATFR23 14064 99372 10032 44998 32529 10164 20120 40207 53018 70211 83200 22245 00095 22919 304// 40922 51457 60651 ICE 10899
BBXX BATUK01 14064 99583 70062 46/// /2702 10072 20004 49657 51030 22200 00099
BBXX PHQX 14063 99476 70317 41/97 22915 10068 20017 40170 57030 70100 823// 22224 20607 328// 40812 5//// 80045
BBXX 61001 14064 99434 10078 46/// /2213 10146 20109 40144 54000 22200 00154 10603 70013
BBXX BATFR46 14064 99384 10002 46/// /2316 10162 20092 40209 56016 22213 00179
BBXX BATFR09 14064 99384 10069 44497 62630 10172 20104 40223 51010 70222 86700 22263 00187 20510 60//0 ICE 0/0//
BBXX BATFR11 14064 99365 10132 46/// /2705 10170 20124 40249 53005 22223 00192
BBXX BATEU04 14064 99597 70342 46/// /0204 10034 20002 49871 56004 22222
BBXX BATFR03 14064 99508 70011 46/// /2412 10064 20032 49926 56013 22283
BBXX BATEU09 14064 99428 10058 46/// /2208 10152 20110 40145 52010 22241 00174
BBXX BATFR27 14064 99505 70012 46/// /2520 10134 20077 49922 56019 22213 00119
BBXX BATFR42 14064 99507 70020 46/// /2613 10069 20029 49924 56027 22272 00122
BBXX BATFR54 14064 99365 70077 46/// /2914 10169 20142 40247 55003 22223 00175
BBXX BATEU06 14064 99556 10037 46/// /2622 10077 20010 49794 50/// 22261 00090
BBXX BATFR22 14064 99427 10095 46/// /2506 10149 40161 51004 22262 00175
BBXX BATFR50 14064 99424 10066 46/// /2407 10147 20115 40150 55004 22272 00147
BBXX BATFR52 14064 99488 70023 46/// /2429 10079 20034 49970 53023 22233 00125
BBXX BATFR29 14064 99509 10015 46/// /2705 10059 20032 49937 55010 22284 00115
BBXX BATFR04 14064 99594 70119 46/// /3119 10060 20024 49694 53026 22251 00102
BBXX BAREU62 14064 99395 10151 46/// ///// 40228 54000 22284
BBXX BATFR15 14064 99341 70268 44698 13005 10184 20134 40291 58001 70200 81//1 22264 00200 336// 40704 5////
BBXX BATFR21 14064 99433 10053 46/// /0711 20215 40143 57003 22283
BBXX BAREU51 14064 99419 10107 46/// ///// 40158 52002 22235
BBXX BAREU05 14064 99388 70125 46/// ///// 40240 52010 22263
BBXX MHNL6 14063 99338 70107 41298 32703 10180 20127 40268 54000 70200 83701 22233 2//// 3//// 4//// 5//// 80150
BBXX TESTFR9 14064 99489 70023 46/// /2523 10076 29077 49988 52020 22234
BBXX BAREU56 14064 99444 10089 46/// ///// 40151 22200
BBXX A8IN8 14064 99494 70051 41596 62945 10075 20053 49940 58010 78965 83/2/ 22214 04120 20908 325// 41407 80065
BBXX UCSJ 14061 99692 10372 41/97 91914 11013 49972 54000 70282 89/// 22272 20403
BBXX AUTQ 14064 99351 10183 41497 63615 10170 20138 40119 54000 86011 22274 00200
BBXX DPLE 14063 99418 70258 41/98 52825 10125 20068 40265 54000 70222 8//// 22212 00160 2//// 331// 41210 80095
AAXX 14064 91367 32474 30810 10294 20249 83100 333 562// 83815 70000 555 91406 91369 32474 30918 10294 20254 30075 40078 83100 333 562// 83815 70000 555 91406
BBXX A8SG2 14061 99212 51465 41498 10205 10265 20213 40150 54000 70200 811// 22254 00290 20602 318// 40903 5//// 80230
BBXX A8SG2 14061 99212 51465 41498 10205 10265 20213 40150 54000 70200 811// 22254 00290 20602 318// 40903 5//// 80230
AAXX 14064 61017 NIL
AAXX 14064 61024 32960 51008 10120 21063 39586 40163 80002 333 06000 20095 51031 55/// 59005 85080 P030
AAXX 14064 61036 NIL
AAXX 14064 61043 NIL
AAXX 14064 61045 NIL
AAXX 14064 61049 NIL
AAXX 14064 61052 NIL
AAXX 14064 61075 NIL
AAXX 14064 61080 NIL
AAXX 14064 61090 NIL
AAXX 14064 61091 NIL
AAXX 14064 61096 NIL
AAXX 14064 61099 NIL
AAXX 14064 89050 41192 83618 10007 20006 49927 58006 74442 886//
AAXX 14064 89512 32998 82002 11075 21147 39666 49817 52008 80001 333 21092
AAXX 14064 89574 42598 20704 11027 21092 49797 52009 81531
AAXX 14064 89592 42498 71003 11026 21075 49788 57002 87500
AAXX 14064 89606 42998 22604 11302 21365 36204 47859 52002 80001 333 21385
AAXX 14064 40250 NIL
AAXX 14064 40265 NIL
AAXX 14064 40296 NIL
AAXX 14064 40310 32960 52904 10080 21038 38971 48514 54002 85032 333 20052 30002 83360 82070
AAXX 14064 42309 31596 20702 10226 20175 40158 70500 82400 333 59001
AAXX 14064 42314 31596 10503 10230 20134 40164 70500 81100 333 59003 81825
AAXX 14064 42410 31595 10903 10224 20146 40164 70500 81500 333 59014 81620
AAXX 14064 42415 31996 23602 10222 20159 40185 70544 82030 333 58005 82360
AAXX 14064 42492 31/92 90000 10138 20131 40190 74744 89/// 333 59007
AAXX 14064 42587 31996 00903 10222 20071 40181 70500 333 58000
AAXX 14064 42591 31995 02506 10206 20108 40186 70500 333 58014
AAXX 14064 42623 31395 20000 10178 20081 39281 40158 70540 82600 333 58002 82708
AAXX 14064 42701 31995 02705 10204 20074 40165 70500 333 58002
AAXX 14064 42724 31995 03201 10232 20163 40168 71044 333 58004
AAXX 14064 42798 31994 03603 10230 20103 40167 70400 333 58004
AAXX 14064 42809 31995 33402 10226 20120 40177 70500 81031 333 58011 81360 83070
AAXX 14064 42886 31995 00501 10244 20135 40171 70540 333 58008
AAXX 14064 42895 31996 10503 10250 20130 40172 70521 81030 333 58013 81360
AAXX 14064 42971 31595 20206 10260 20155 40167 70511 81601 333 58009 81620
AAXX 14064 43333 31496 60704 10290 20202 40116 70521 85401 333 56109 58004 82616 83818
AAXX 14064 42398 NIL
AAXX 14064 42706 NIL
AAXX 14064 42977 NIL
AAXX 14064 43368 NIL
BBXX PIAG 14063 99550 10062 41/98 /2440 10100 20081 49853 51010 70366 8//// 22242 00100 2//// 80090
AAXX 14061 50434 32980 50401 11206 21258 39339 40336 57008 80002 333 21379
AAXX 14061 50527 32970 02501 11233 21256 39466 40346 52002 333 21304
AAXX 14061 50603 32980 02904 11155 21206 39595 40329 57002 333 21218
AAXX 14061 50632 32980 42704 11176 21233 39328 40291 57001 81032 333 21209
AAXX 14061 50727 32580 62902 11193 21235 39046 40342 52001 86500 333 21308
AAXX 14061 50915 32980 02906 11141 21225 39271 40361 57014 333 21227
AAXX 14061 51716 32965 02701 11004 21062 39029 40389 52001 333 00401 21096
AAXX 14061 51765 32980 01801 11003 21087 39338 40393 57004 333 00201 21136
AAXX 14061 51777 32975 03402 10000 21094 39289 40386 57006 333 00100 21093
AAXX 14061 51811 32965 03204 11022 21073 38900 40386 57002 333 00451 21084
AAXX 14061 51828 32968 42703 10000 21080 38733 40355 57003 80002 333 00453 21067
AAXX 14061 52267 32980 70703 11072 21201 39237 40425 57014 80002 333 00752 21147
AAXX 14061 52323 32980 70401 11049 21115 38300 57015 80002 333 00454 21146
AAXX 14061 52495 32980 23202 11043 21162 38780 40402 57018 80002 333 00652 21192
AAXX 14061 53149 32980 02906 11137 21217 38884 40442 57014 333 00851 21228
AAXX 14061 53192 32980 02707 11200 21234 38974 40443 57008 333 21274
AAXX 14061 53231 32980 03401 11089 21201 38572 57015 333 00501 21200
AAXX 14061 53336 32980 03205 11114 21212 38817 40430 57015 333 00753 21182
AAXX 14061 53391 32980 12905 11168 21210 38573 40425 57005 80002 333 00960 21191
AAXX 14061 53529 32980 02901 11048 21190 38717 40401 57015 333 00756 21167
AAXX 14061 53543 32980 02903 11079 21217 38616 40398 57009 333 21158
AAXX 14061 53723 32975 10402 11041 21137 38751 40390 57014 80002 333 00756 21134
AAXX 14061 54012 32980 02706 11166 21225 39085 40374 57007 333 21215
AAXX 14061 54026 32580 12904 11055 21207 39947 40293 57010 81100 333 21126
AAXX 14061 54027 32980 03204 11074 21213 39689 40317 57010 333 21121
AAXX 14061 54208 32980 22906 11149 21204 38823 40399 57009 80002 333 21198
AAXX 14061 54776 32570 73411 10034 21014 30198 40256 52010 874// 333 20034
AAXX 14061 56004 32680 52904 11083 21311 35815 57008 82102 333 00300 21217
AAXX 14061 56033 32580 12709 11067 21277 35990 57015 81100 333 00001 21205
AAXX 14061 56046 32980 31401 11043 21162 36231 57018 80002 333 00003 21196
AAXX 14061 56146 32780 11401 10041 21142 36704 57032 81100 333 05102 21096
AAXX 14061 56444 11680 70903 10012 21076 36799 57016 69901 70080 874// 333 00001 21061
AAXX 14061 56492 11760 81802 10110 20038 39861 40276 57032 69961 70060 885// 333 00402 20077
AAXX 14061 56571 11562 81101 10062 20035 38438 57013 60011 76060 885// 333 00558 20044
AAXX 14061 57799 32973 73203 10146 20005 30152 40243 57023 87030 333 20042
AAXX 14061 57866 32965 73604 10132 21015 30037 40247 57024 8704/ 333 20073
AAXX 14061 57957 32963 70403 10176 21026 30023 40222 57029 87040 333 20099
AAXX 14061 57993 32980 01601 10175 20015 30052 40220 57029 333 20055
AAXX 14061 58027 32960 83402 10083 21010 30221 40274 57008 80007 333 21021
AAXX 14061 58141 31950 00404 10093 21003 30246 40266 57017 70500 333 21014
AAXX 14061 58265 31930 03205 10098 20048 30249 40257 57003 70540 333 20017
AAXX 14061 58472 31956 03405 10109 20054 30147 40243 57013 70500 333 20081
AAXX 14061 58477 31930 13405 10127 20023 30193 40238 57016 70500 81040 333 20057
AAXX 14061 58527 11660 80000 10100 20024 30174 40252 57018 69901 76060 885// 333 20032
AAXX 14061 58633 11730 82201 10102 20028 30142 40245 57020 69901 72160 8757/ 333 20030
AAXX 14061 58666 31957 03606 10134 20080 30119 40222 57024 70500 333 20099
AAXX 14061 58725 32965 73602 10182 20061 39950 40214 57033 8704/ 333 20029
AAXX 14061 58921 31960 00203 10179 20098 39957 40206 57039 70040 333 20077
AAXX 14061 59082 32975 02902 10186 21018 30060 40208 57031 333 20038
AAXX 14061 59211 31956 71101 10177 20080 39997 40207 57029 70500 8703/ 333 20093
AAXX 14061 59265 31958 53601 10197 20034 30059 40198 57030 70500 85030 333 20082
AAXX 14061 59293 32968 70702 10204 20044 30106 40192 57032 85042 333 20083
AAXX 14061 59501 32960 70901 10222 20113 30152 40173 57027 8704/ 333 20154
AAXX 14061 59663 32968 70702 10221 20051 30072 40179 57023 8704/ 333 20160
AAXX 14061 59838 32965 70405 10239 20162 30143 40153 57024 8704/ 333 20187
AAXX 14061 59948 32375 70708 10199 20173 39670 40156 57024 878// 333 20174
AAXX 14061 59981 11580 60404 10261 20232 30120 40127 57024 69941 70080 86200 333 20235
AAXX 14061 55299 32780 12705 11025 21290 35844 57015 81100 333 00251 21191
AAXX 14061 55591 32980 03601 10065 21209 36497 57025 333 00102 21057
AAXX 14061 56739 32578 41802 10144 20006 38357 57018 84400 333 00051 20052
AAXX 14061 56951 32680 62004 10174 20047 38505 57022 86200 333 00001 20075
AAXX 14061 56964 11580 52203 10180 20122 38718 40153 57019 69911 70080 85200 333 00001 20133
AAXX 14061 57328 11860 80000 10105 20042 39854 40273 57019 69901 76060 885// 333 20067
AAXX 14061 57411 11956 81801 10095 20045 39894 40273 57023 69901 76000 8807/ 333 20079
AAXX 14061 57447 11958 82201 10087 20062 39721 40276 57021 69901 72166 8807/ 333 20054
AAXX 14061 57662 11861 80701 10102 20002 30229 40273 57024 69901 76060 885// 333 20085
AAXX 14061 57745 11758 80401 10074 20040 39942 40278 57017 69971 76060 885// 333 20065
AAXX 14061 57972 32968 00201 10155 21007 30013 40240 57022 333 20051
AAXX 14061 58203 32962 83604 10103 20003 30234 40277 57015 80007 333 21034
AAXX 14061 58314 32965 50403 10127 21002 30153 40263 57023 85040 333 21027
AAXX 14061 58424 31758 80902 10114 21028 30235 40261 57016 70500 885// 333 20017
AAXX 14061 59023 32865 72201 10164 20065 39908 40221 57023 875// 333 20103
AAXX 14061 59417 32564 81801 10201 20065 30037 40193 57036 888// 333 20076
AAXX 14061 59985 11580 60406 10258 20241 30119 40124 57026 60041 70080 86200 333 20227
AAXX 14061 59995 NIL
AAXX 14064 45011 47957 /0207 10204 20095 40178 57025 71011 333 59011
AAXX 14064 06610 01669 82303 10057 20041 39517 40101 57020 69922 76062 8807/ 333 20050 32003 55003 55300 20000 69915 70025 88544 90768 93100 91133 91213
AAXX 14064 48360 32960 80602 10250 20129 39884 40145 57021 83076 333 58001
AAXX 14061 56193 NIL
AAXX 14061 56196 31956 71101 10112 20022 40268 57029 71000 8703/ 333 00304 20049
AAXX 14061 56287 32580 22702 10139 21013 40265 57036 81140 333 00405 20063
AAXX 14061 56684 32560 80402 10024 21014 37919 57020 885// 333 00358 20011
AAXX 14061 56751 32778 20903 10131 21009 38024 57020 82400 333 00100 20022
AAXX 14061 56786 11530 81603 10080 20061 38116 57017 69901 78080 884// 333 00257 20038
AAXX 14061 56977 32575 81102 10165 20134 40170 57020 888// 333 00001 20124
AAXX 14061 57259 32970 70201 10109 20030 40280 57032 87030 333 21005
AAXX 14061 57279 31959 70204 10125 21042 40281 57020 70500 81048 333 20012
AAXX 14061 57348 32860 71602 10127 20063 40260 57025 875// 333 20087
AAXX 14061 57399 32962 31602 10133 21018 40260 57030 82031 333 20002
AAXX 14061 57554 11550 82502 10080 20058 40284 57014 69981 76060 885// 333 20072
AAXX 14061 57793 32962 72001 10139 20002 40250 57023 8704/ 333 20067
AAXX 14061 58345 31958 03202 10116 21045 40262 57018 70500 333 21011
AAXX 14061 58506 32875 73601 10045 21053 40270 57013 875// 333 20017
AAXX 14061 58813 32974 70204 10155 20036 40227 57027 87040 333 20029
AAXX 14061 58834 32975 03601 10209 20101 40203 57037 333 20096
AAXX 14061 58926 11670 61101 10200 20101 40196 57040 69901 70054 81140 333 20095
AAXX 14061 58944 32565 80202 10153 20103 40205 57020 885// 333 20138
AAXX 14061 59096 32970 40902 10219 20031 40195 57031 84040 333 20060
AAXX 14061 59102 32675 71402 10197 20071 40204 57029 8653/ 333 20031
AAXX 14061 59278 32961 00201 10215 20032 40189 57029 333 20105
AAXX 14061 59456 32980 72001 10251 20053 40175 57029 87030 333 20133
AAXX 14061 59493 32761 73402 10214 20083 40176 57028 875// 333 20163
AAXX 14061 59658 32768 80702 10224 20082 40175 57025 885// 333 20149
AAXX 14061 59673 32764 70405 10199 20098 40175 57026 875// 333 20158
AAXX 14061 59845 11560 70902 10210 20158 40170 57030 69921 70060 878// 333 20165
BBXX 46185 14061 99524 71298 46/// /0204 10057 40177 52004 22200 00071 11403 70014 333 91205
AAXX 14061 50353 32970 33201 11173 21255 30003 40249 57005 80002 333 21313
AAXX 14061 50557 32970 13403 11146 21225 39933 40257 52001 80002 333 21195
AAXX 14061 50756 32970 03203 11152 21201 39924 40241 52020 333 21153
AAXX 14061 50949 32965 03404 11084 21199 30082 40264 52003 333 21136
AAXX 14061 50963 11960 82511 11111 21143 30065 40209 52017 69901 72270 8802/ 333 21113
AAXX 14061 50978 11572 32707 11076 21155 39809 40171 52024 69911 70070 82202 333 21101
AAXX 14061 51087 32980 71801 11103 21166 39375 40426 57009 80002 333 00151 21203
AAXX 14061 51156 32780 70701 11007 21088 38805 40364 57006 83502 333 00101 21099
AAXX 14061 51644 32960 72701 11026 21077 39069 40393 57003 80002 333 00300 21094
AAXX 14061 51656 31959 02702 11026 21069 39241 40395 57001 70400 333 00203 21101
AAXX 14061 51886 32780 10201 11057 21231 37152 57011 81102 333 00303 21169
AAXX 14061 52602 32980 71601 11042 21233 37302 57005 80002 333 00200 21184
AAXX 14061 52713 32980 61802 11057 21263 36931 57007 80002 333 00251 21207
AAXX 14061 52754 32580 71802 11060 21160 36789 57015 82102 333 00152 21171
AAXX 14061 52818 32980 02703 11025 21242 37279 57010 333 00304 21138
AAXX 14061 52836 32980 22705 11079 21245 36933 57004 80002 333 00456 21151
AAXX 14061 52955 32980 03403 11016 21200 36954 57027 333 00051 21181
AAXX 14061 53068 32980 02905 11142 21207 39181 40428 57013 333 00902 21226
AAXX 14061 53276 32980 22707 11156 21207 38968 40433 57008 82030 333 21206
AAXX 14061 54135 32980 03204 11058 21218 30060 40296 57007 333 21130
AAXX 14061 54236 32980 03605 11042 21209 30182 40293 57007 333 21097
AAXX 14061 54539 32970 03203 10006 21163 30296 40311 57007 333 21032
AAXX 14061 54662 32975 00206 11031 21148 30168 40286 52007 333 21033
AAXX 14061 54753 32562 70405 10007 21040 30284 40291 52007 874// 333 20007
AAXX 14061 54857 31530 23406 10046 20007 30176 40270 57005 71000 82100 333 20024
AAXX 14061 57067 32965 70401 10088 21070 39608 40306 57027 8703/ 333 21048
AAXX 14061 57178 32961 70702 10104 20002 30123 40286 57014 80002 333 20003
AAXX 14061 57245 32963 72701 10103 20009 39921 40279 57028 8703/ 333 00301 20039
AAXX 14061 57297 32962 53605 10112 21045 30130 40274 57021 80002 333 20007
AAXX 14061 50844 32662 23403 11084 21180 40265 57003 82100 333 21146
AAXX 14061 50854 32970 03204 11107 21198 40253 52006 333 21139
AAXX 14061 50968 11662 12505 11114 21142 40237 52013 69901 70087 81502 333 21130
AAXX 14061 51379 32980 02901 11026 21121 40379 57012 333 00002 21133
AAXX 14061 51467 32980 21101 11024 21165 38327 57016 80002 333 00151 21093
AAXX 14061 51495 32980 71602 10006 21102 40380 57018 80002 333 00203 21079
AAXX 14061 53480 32980 02902 11115 21236 40404 57011 333 21177
AAXX 14061 53673 32961 02902 11025 21155 40343 57015 333 21084
AAXX 14061 53698 32962 01402 10019 21116 40334 57015 333 21012
AAXX 14061 53898 32963 00403 10027 21069 40322 57016 333 20006
AAXX 14061 54308 32680 13408 11080 21215 40364 57012 81100 333 21132
AAXX 14061 54602 32970 00703 10016 21168 40331 57014 333 21091
AAXX 14061 54725 32965 03405 10013 21144 40324 57005 333 21023
AAXX 14061 54751 32565 73608 10006 21058 40288 52007 87400 333 20004
AAXX 14061 54916 32962 33603 10055 21049 40297 57004 80002 333 21027
AAXX 14061 57014 32961 61601 10031 21048 40329 57036 86030 333 00401 21057
AAXX 14061 57025 32770 62702 10053 21097 40325 57024 86500 333 21034
AAXX 14061 57046 32967 72705 11053 21129 37987 57014 8703/ 333 00454 21064
AAXX 14061 58208 32965 63602 10106 20019 40267 57021 86040 333 21014
AAXX 14064 06670 01780 72207 10072 20022 39575 40083 57018 69912 70281 8707/ 333 20058 31004 55001 55300 20000 60005 70029 81356 87361 90768 93100 91114 91209
AAXX 14064 06700 01564 82608 10068 20051 39615 40107 57025 60022 76062 887// 333 20057 32004 55004 55300 20000 69995 70036 82630 88650 90768 93100 91124 91217
AAXX 14064 06680 01/02 92506 11052 21055 37430 47960 57008 60022 77074 333 21053 47110 55007 55300 20000 60005 70049 90768 93106 91147 91226
AAXX 14064 06990 31656 82101 10070 21029 39567 40112 58006 75255 886// 333 20065 32004 55017 55300 20000 70000 88739 91114 91208
AAXX 14064 06760 01565 80604 10032 20010 39727 40184 52009 69962 75152 887// 333 20038 31001 55050 55300 20000 69915 70006 85721 87741 90768 93100 91116 91208
AAXX 14064 06720 03/// /0402 10032 20024 39567 40150 57009 60062 333 20009 3/000 55002 55300 20000 60035 70098 91108 91205
BBXX 46185 14061 99524 71298 46/// /0204 10057 40177 52004 22200 00071 11403 70014 333 91205
AAXX 14061 24790 41999 71003 11205 21245 39358 40218 53008 73632 82031 333 91113
AAXX 14061 24988 42999 03203 11177 21256 39865 40129 53006
AAXX 14061 25378 31798 73508 11102 21186 30107 40141 52014 73632 82531 333 11100 91113
AAXX 14061 25503 41696 82802 11249 21281 30097 40236 54000 77073 8352/
AAXX 14061 25705 41696 80000 11238 21256 39864 40221 58002 77172 8552/
AAXX 14061 25927 42698 53105 11180 21230 30059 40066 52002 85900 333 91111
AAXX 14061 25932 42999 83605 11109 21153 39935 49974 54000 8805/
AAXX 14061 31152 42998 80000 11350 21387 39844 40302 52006 84036
AAXX 14061 31174 42599 23503 11173 21232 30173 40186 52002 81501
AAXX 14061 31489 42997 20000 11218 21266 30065 40191 57006 80002
AAXX 14061 31866 42998 80403 11036 21116 30124 40130 57018 80005
AAXX 14061 31959 42598 80000 11024 21088 30071 40114 57035 8552/
AAXX 14061 31989 41599 22602 10017 21005 30078 40132 56016 70281 82260
AAXX 14061 32027 42999 33104 11159 21229 30167 40176 53009 80002 333 91006 91108
AAXX 14061 32076 42599 23302 11125 21208 30142 40153 53004 82901 333 91003 91104
AAXX 14061 32099 41598 80104 11083 21097 30148 40156 56002 72282 889// 333 91005 91107
AAXX 14061 32121 42999 30202 11083 21147 30126 40149 56003 82032 333 91003 91106
AAXX 14061 32213 41495 82912 11055 21059 39938 40002 57001 78583 87903 333 91015 91119 92982
AAXX 14061 32287 41295 81301 11170 21182 39980 49991 52011 78582 889// 333 88704
AAXX 14061 32408 42999 21302 11217 21249 39915 49956 53002 80001
AAXX 14061 32509 42999 03105 11103 21213 39917 49952 53002 333 91112
AAXX 14061 32594 41497 63011 11050 21091 39955 49991 57002 78583 86901 333 91015 91118
AAXX 14064 62458 32960 60000 10104 20030 40176 52006 80008 333 20082
AAXX 14064 62420 31958 70000 10107 20087 40219 52007 71020 80008 333 20096
AAXX 14064 62432 32960 03102 10116 20079 40217 52011 333 20063
AAXX 14064 62435 31957 30402 10110 20072 40197 52013 70500 83400 333 20066
AAXX 14064 62455 32960 03406 10109 20085 40191 52010 333 20105
AAXX 14064 62476 32960 02102 10197 20144 40156 52008 333 20148
AAXX 14064 62309 32560 63602 10168 20113 40214 52008 86800 333 20160
AAXX 14064 62325 32560 50103 10162 20121 40211 52006 85800 333 20140
AAXX 14064 62332 32560 50406 10174 20135 40202 52011 82104 333 20165
AAXX 14064 62387 31910 43407 10106 20103 40199 52009 71000 84030 333 20092
AAXX 14064 62459 32960 60210 10122 20035 40181 52009 86010 333 20069
AAXX 14064 62452 32960 62406 10034 20003 40231 52005 80008 333 20018
BBXX 41036 14061 99342 70770 46/// ///// 10135 20020 40281 90620 22200 00189
AAXX 14064 62309 32560 63602 10168 20113 40214 52008 86800 333 20160
AAXX 14064 62325 32560 50103 10162 20121 40211 52006 85800 333 20140
AAXX 14064 62332 32560 50406 10174 20135 40202 52011 82104 333 20165
AAXX 14064 62387 31910 43407 10106 20103 40199 52009 71000 84030 333 20092
AAXX 14064 62459 32960 60210 10122 20035 40181 52009 86010 333 20069
AAXX 14064 62452 32960 62406 10034 20003 40231 52005 80008 333 20018
BBXX V7SY6 14064 99168 10403 41798 51312 10280 20267 40280 54000 7//21 85102 22233 0//// 20402 31414 40402 50301 6//// 80270 /////
BBXX 42085 14061 99179 70665 46/// /0403 10257 40114 58011 90600 22200 00283 11001 70004 333 91204
BBXX 41052 14061 99183 70648 46/// /0401 10260 40110 58011 90600 22200 00278 333 91202
BBXX 41052 14061 99183 70648 46/// /0401 10260 40111 90550 333 91202
BBXX 41052 14061 99183 70648 46/// /0101 10260 40111 90540 333 91202
AAXX 14061 38599 31496 80707 10020 21005 39807 40337 50002 71022 8697/ 333 20011 84711
AAXX 14061 38844 42999 70503 11021 21067 48520 52007 83032
BBXX NIL
BBXX NIL
AAXX 14061 38599 31496 80707 10020 21005 39807 40337 50002 71022 8697/ 333 20011 84711
BBXX PCBU 14064 99008 31073 41698 33512 10325 20244 40090 57010 70100 82181 22233 02307 20602 336// 40802 80265
BBXX BATFR19 14064 99039 30092 46/// /1717 10254 20220 40111 53009 22242 00254
BBXX BATFR56 14064 99108 30715 44498 31210 10284 40111 50001 70200 83392 22252 00295 20802 316// 40802 5////
BBXX A8KH9 14064 99124 30100 41497 81720 10205 20141 40090 54000 7//// 87770 22243 20405 31899 40504 5//// 80165
BBXX C6OM7 14063 99148 30018 41398 81416 10193 20151 40155 54000 70322 87560 22273 00180 20502 31400 40702 50000 80168
BBXX BATFR55 14064 99155 30532 44598 62016 10279 20262 40100 70322 84142 22232 00280 207// 30000 411// 511//
BBXX A8ZS7 14064 99217 30555 41698 11112 10280 20239 40125 51010 70200 81100 22254 04250 29901 319// 41002 80250
BBXX DDDI2 14064 99242 30501 41/98 10410 10260 20218 40140 51010 70200 8/200 22254 04270 2//// 318// 40705 5//// 80230
BBXX A8YW2 14064 99320 30366 41398 70319 10250 20221 40100 52020 70322 86718 22224 00220 20905
BBXX PCDE 14063 99399 30966 41597 30901 10180 20148 40220 51020 7//// 83593 22223 20701 30000 80160
BBXX DBBT 14061 99442 30031 10082 20060 44094 17025 22273 000/9
BBXX UCKZ 14061 99535 30207 41296 83007 10007 20000 40080 57015 71042 886// 22243 00007 20301 323// 40904 ICE 0/1/0
BBXX BATEU00 14064 99584 30211 46/// /3119 11015 21016 49988 56012 22243
BBXX NIL
AAXX 14064 40255 32660 50000 10070 21012 39494 40217 54001 83130 333 20060 30004 83830 83360
AAXX 14064 40260 NIL
AAXX 14064 40270 NIL
AAXX 14064 40272 31958 60000 10062 21022 39357 40203 54000 70500 80001 333 20038 30002 86070
AAXX 14064 40290 NIL
AAXX 14064 40340 31940 83609 10104 20023 40190 52009 70700 80007 333 20094 30008 88270
BBXX NIL
AAXX 14064 40250 NIL
AAXX 14064 40265 NIL
AAXX 14064 40296 NIL
AAXX 14064 40310 32960 52904 10080 21038 38971 48514 54002 85032 333 20052 30002 83360 82070
BBXX NIL
AAXX 14064 67779 11280 70801 10204 20194 39049 48502 60674 72196 81672 333 20181 58003 81705 87359
AAXX 14063 67779 11280 70801 10204 20194 39049 48502 60674 72196 81672 333 20181 81705 87359
BBXX VRCZ7 14063 99333 10269 41598 12710 10180 20106 40221 54000 70200 811// 22264 2//// 3//// 4//// 5//// 80140
BBXX TBWUK17 14063 99048 31075 41597 72915 10283 20268 40119 57005 70222 87776 22253 04300 20301 32928 40402 50502 80272
BBXX DDDO2 14064 99154 10417 41997 01316 10255 20208 40145 52015 70200 80000 22234 00280 20501 316// MGGK4 14063 99240 30096 41598 71616 10175 20121 40175 53007 70222 87500 22274 00184 20301 399// 4//// 5//// 80145
AAXX 14064 71214 16/// /2005 11085 21102 60001 333 11030 21115 7////
AAXX 14064 71223 16/// /2309 11108 21125 60001 333 11063 21125 70000
AAXX 14064 71225 16/// /1609 11123 21141 60001 333 11066 21181 70000
AAXX 14064 71227 46/// /2104 11053 21075 6///1 333 11037 21111 7////
AAXX 14064 71916 46/// /3010 11283 21306 30039 40097 55001 6///1 333 11276 21336 7////
AAXX 14064 71257 17/// /2103 11145 21162 69951 7//4/ 333 11094 21179 7////
AAXX 14064 71258 16/// /2810 11020 21069 60001 333 11009 21139 70000
AAXX 14064 71259 16/// /0000 11194 21218 60001 333 11140 21199 70000
AAXX 14064 71274 16/// /2304 11053 21091 60001 333 11037 21135 70000
AAXX 14064 71275 46/// /1806 11049 21077 6///1 333 11031 21118 7//// 555 31721 40071
AAXX 14064 71278 16/// /2407 11044 21093 60001 333 11039 21112 7////
AAXX 14064 71286 16/// /2104 11045 21075 60001 333 11028 21132 70000
AAXX 14064 71287 16/// /2509 11028 21082 60001 333 11012 21086 70000
AAXX 14064 71289 16/// /2308 11106 21133 60001 333 11025 21136 70000 555 31917 40071
AAXX 14064 71464 46/// ///11 10061 30051 40267 58009 6///1 333 10062 20021 7////
AAXX 14064 71466 46/// ///// 10046 30042 40283 6///1 333 7////
AAXX 14064 71525 16/// /2309 11083 21102 60001 333 11049 21120 7////
AAXX 14064 71535 16/// /2904 11094 21115 60001 333 11070 21198 7////
AAXX 14064 71536 16/// /2414 11018 21067 60001 333 11008 21184 7////
AAXX 14064 71537 16/// /2901 11212 21233 60001 333 11091 21218 70000
AAXX 14064 71351 16/// /3107 11011 21067 60001 333 10002 21094 70007
AAXX 14064 71353 16/// /2909 11050 21106 60001 333 11010 21129 70000
AAXX 14064 71385 46/// /0803 11020 6///1 333 10019 21020 7//// 555 30420 40151
AAXX 14064 71683 46/// /2501 11329 30070 40188 51003 6///1 333 11214 21336 7////
AAXX 14064 71445 16/// /1920 11055 21073 39854 40136 56014 60001 333 11054 21148 70017 555 10040 20017 31930 40012
AAXX 14061 23973 42699 70301 11138 21151 30375 40442 57004 87500
AAXX 14061 23975 42599 83101 11136 21156 30318 40435 58007 885//
AAXX 14061 23986 42999 60000 11142 21155 39773 40450 50000 86030
AAXX 14061 23987 42599 71702 11174 21193 30360 40440 54000 83430
AAXX 14061 24606 42899 80000 11316 21339 30113 40418 57005 82042
AAXX 14061 29253 42999 20000 11220 21246 30249 40439 58002 80001
AAXX 14061 29471 41996 20000 11256 21275 30196 40453 57006 71011 80001
AAXX 14061 29481 41999 80301 11174 21186 30190 40449 58001 70272 8801/
AAXX 14061 29553 42976 21403 11167 21180 30023 40418 57007 80001
AAXX 14061 29562 42998 00000 11201 21234 39977 40433 57009
AAXX 14061 29581 41996 53501 11197 21216 30176 40459 58003 72272 85010
AAXX 14061 29594 41598 80000 11139 21166 30029 40442 51001 78582 82931
AAXX 14061 29653 42997 11902 11232 21257 39911 40448 57001 80001
AAXX 14061 29675 42998 00000 11234 21266 39812 40469 58001
AAXX 14061 29676 42998 00000 11202 21235 39978 40443 58004
AAXX 14061 29752 42999 73501 11073 21175 38907 48546 58008 80009
AAXX 14061 29759 42999 70000 11171 21183 39323 40426 58013 82035
AAXX 14061 29766 42999 00000 11269 21281 30076 40477 58007
AAXX 14061 29789 42999 80000 11115 21159 39175 40417 57010 81030
AAXX 14061 29864 42999 83302 11232 21264 39735 40455 57007 85032
AAXX 14061 29866 41995 80000 11242 21260 30109 40467 58002 71022 80001
AAXX 14061 29869 41943 00000 11241 21254 30051 40468 58008 71011
AAXX 14061 29956 41996 50000 11238 21263 39863 40463 58011 71022 80006
AAXX 14061 30337 42998 60000 11296 21320 39979 40490 52002 80001
AAXX 14061 30405 41598 70000 11152 21172 39879 40445 52008 77177 87500
AAXX 14061 30504 41998 83501 11134 21147 39750 40439 52002 77177 86037
AAXX 14061 30603 41698 60701 11145 21165 39828 40438 52004 70172 82501
AAXX 14061 30612 41599 73202 11151 21178 39869 40441 52006 70282 82535
AAXX 14061 30622 42998 00000 11231 21264 39748 40459 52010
AAXX 14061 30627 42999 00501 11185 21218 39430 40434 52011
AAXX 14061 30703 41997 80502 11107 21135 39722 40429 50001 77172 80007
AAXX 14061 36307 42999 52002 11244 21292 39126 48631 58012 80002
AAXX 14061 23074 41998 81706 11141 21176 30271 40297 52004 73673 8802/
AAXX 14061 23274 41998 71703 11170 21189 30312 40350 58001 70272 83038
AAXX 14061 23383 41598 80000 11281 21304 30025 40421 57002 77172 81507
AAXX 14061 23472 42999 71803 11178 21197 30355 40408 58003 80001
AAXX 14061 23678 42998 50501 11200 21219 30381 40445 53001 85030
AAXX 14061 23884 42570 80000 11144 21157 30368 40448 58004 885//
AAXX 14061 23891 42998 20000 11250 21281 30103 52004 82030
AAXX 14061 24507 42998 60000 11320 21344 30149 40427 53001 80001
AAXX 14061 24817 42999 50000 11379 21403 30033 40464 57005 80001
AAXX 14061 24908 41981 80000 11282 21312 30086 40458 58002 70271 81035
AAXX 14061 29263 41496 20000 11227 21252 30338 40450 58002 71074 81602
AAXX 14061 29282 42997 00000 11259 21284 30272 40464 52005
AAXX 14061 29379 42997 62401 11216 21248 30226 40458 52002 80001
AAXX 14061 29570 41996 00000 11227 21245 30062 40448 58005 71000
AAXX 14061 29698 42998 80000 11151 21173 39890 40441 53001 85031
AAXX 14061 30230 42999 30000 11328 21358 30123 40501 80001
AAXX 14061 30252 42999 60000 11265 21297 30122 40476 51005 80001
AAXX 14061 30309 41999 80000 11147 21174 39884 40441 52009 70287 86035
AAXX 14061 30328 42998 80000 11276 21293 30019 40501 52008 80005
AAXX 14061 30521 42997 50000 11234 21259 39889 40468 51004 80001
AAXX 14061 30710 41596 72802 11133 21165 39813 40433 52008 78582 85930
AAXX 14064 65557 32956 0//// 10180 20172 39876 40117 333 20176 58013
AAXX 14064 65560 31930 3//// 10182 20141 39799 40109 71000 83030 333 20158 59001 83360
AAXX 14064 65562 32950 0//// 10175 20165 3//// 4//// 333 20170 5////
AAXX 14064 65563 31430 70000 10148 20145 39871 40114 71011 875//
AAXX 14064 65585 32956 0//// 10220 20204 3//// 4//// 333 20218 5////
AAXX 14064 65592 31940 0//// 10225 20225 30076 40099 71011 333 20225 59003
AAXX 14064 65594 31205 43602 10227 20244 30075 40109 74444 83702 333 20224 59002 83705 83080
AAXX 14064 65599 31940 0//// 10222 20219 30022 40096 71000 333 20220 59001
BBXX V7SY6 14064 99168 10403 41798 51312 10280 20267 40280 54000 7//21 85102 22233 0//// 20402 31414 40402 50301 6//// 80270 /////
AAXX 14064 60101 32458 61905 10138 20115 40263 58003 86800 333 20099 83813 85616
AAXX 14064 60115 32965 02603 10068 20068 40274 53002 333 20049 30001
AAXX 14064 60135 32450 21405 10094 20086 40266 58002 82500 333 20055 30006 82615
AAXX 14064 60156 17357 21402 10048 20039 40283 55000 60004 70031 82600 333 20043 82708
AAXX 14064 60230 15958 01403 10064 20041 40269 58001 60004 333 20048
AAXX 14064 60252 12960 20706 10063 20034 40248 55000 60004 82030 333 20059 82360 95800
AAXX 14063 41150 42968 02811 10155 20086 40231 333 20140 30012 58006
AAXX 14063 42071 31995 02907 10173 20037 40183 70444 333 59015
AAXX 14064 42027 31995 00000 10052 21029 38476 48562 71000 333 59001
AAXX 14064 42101 31995 00000 10170 20070 40183 71000 333 59005
AAXX 14064 42111 31996 00000 10162 20075 39392 40169 70500 333 58000
AAXX 14064 42131 32996 02302 10186 20056 40192 333 59002
AAXX 14064 42165 31995 01401 10214 20029 40183 70500 333 59003
AAXX 14064 42182 31995 02708 10188 20064 40190 70410 333 59002
AAXX 14064 42189 31594 50000 10150 20113 40187 71000 83501 333 59005 83625 85070
AAXX 14064 42260 31995 03203 10204 20061 40184 70540 333 59007
AAXX 14064 42328 32996 29902 10216 21020 40186 82030 333 58003 82360
AAXX 14064 42339 31995 30502 10214 20024 40186 70500 80001 333 59001 83070
AAXX 14064 42348 31996 01804 10216 21020 40181 70500 333 59011
AAXX 14064 42369 31994 00203 10146 20116 40197 71144 333 59002
AAXX 14064 42379 31993 02701 10142 20104 40183 74244 333 59004
AAXX 14064 42452 31995 22302 10208 20050 40190 70411 80002 333 59003
AAXX 14064 42475 31995 02301 10190 20096 40189 70500 333 59011
AAXX 14064 42071 NIL
AAXX 14064 42361 NIL
AAXX 14064 63729 11475 82603 10180 20180 38900 48/// 60384 79596 8392/ 333 0//61 20185 50141 55016 55300 58022 83614 81916 88258
AAXX 14064 63733 12580 70906 10206 20174 38887 48523 69994 8193/ 333 0//17 20176 50581 55088 55300 58016 81920 87359
AAXX 14064 63756 12480 71210 10204 20167 38892 48525 60034 8293/ 33 0//19 20190 50181 55060 55300 58016 82819 81920 87359
AAXX 14064 63791 32580 52105 10252 20184 39143 48528 85200 333 20210 50801 55075 55305 58010 85826
AAXX 14064 63801 11480 70804 10215 20192 39226 48548 60064 72022 8193/ 333 0//59 20189 50131 55001 55300 59002 81819 81920 87358
AAXX 14064 63832 32480 50000 10199 20171 38844 48513 81131 333 20170 50701 55050 55305 58009 81817 84358
AAXX 14064 63862 12580 70000 10213 20181 38917 48524 60224 82572 333 0//98 20181 50671 55045 55300 58003 70217 82620 86358
AAXX 14064 63866 32580 30310 10255 20215 39534 48/// 83200 333 20223 50301 55026 55310 58011 83822
AAXX 14064 63870 32475 73305 10290 20248 30109 40127 879// 333 20245 50601 55087 55310 58011 87818 81920
AAXX 14064 63881 12480 70000 10165 20137 38212 48/// 60074 82922 333 0//13 20137 50311 55018 55300 58003 82616 81918 87456
AAXX 14064 63887 12480 83610 10195 20172 38606 48525 60014 84930 333 20175 50301 55038 55300 58005 84819 81920 88358
AAXX 14064 63894 01580 53008 10270 20257 30070 40130 60034 72162 83940 333 0//51 20249 50301 55073 55300 58008 83821 81922 83358
AAXX 14064 63932 12580 70000 10177 20153 38320 48518 60124 8253/ 333 0//29 20125 50161 55000 55300 58000 82622 87359
AAXX 14064 63962 12480 30909 10226 20175 38965 48526 60094 81930 333 20184 50391 55042 55310 58003 81818 81921 83358
AAXX 14064 63971 12580 43610 10276 20253 39990 40119 60024 84200 333 0//19 20225 50211 55058 55310 58000 84823
AAXX 14061 51711 32980 32502 11040 21162 38082 57001 80002 333 00451 21147
AAXX 14061 51730 31965 70701 11025 21039 40404 57001 70040 82032 333 00451 21124
AAXX 14061 52112 32980 70401 11055 21170 40409 57013 80002 333 00500 21124
AAXX 14061 52737 32980 32002 11072 21244 37112 52004 80002 333 00355 21136
AAXX 14061 52787 32980 71606 11058 21195 37037 57020 80002 333 00253 21140
AAXX 14061 53352 32980 02703 11123 21211 40434 57014 333 21235
AAXX 14061 53593 32780 13204 11065 21201 40371 57017 81500 333 21133
AAXX 14061 53705 32970 22202 10013 21128 40360 57025 80002 333 00653 21089
AAXX 14061 53863 32980 02504 10026 21137 40334 57012 333 21038
AAXX 14061 53975 32980 73202 10071 21163 40295 57022 80002 333 21005
AAXX 14061 54273 32670 22704 11094 21151 40271 57002 82500 333 21113
AAXX 14061 54324 32970 03203 11026 21231 40308 57013 333 21075
AAXX 14061 54405 32980 02908 11055 21207 40362 57016 333 21111
AAXX 14061 54436 32980 00203 11014 21194 40314 57011 333 21055
AAXX 14061 54808 32964 40205 10027 21099 40315 57010 80001 333 21017
AAXX 14061 54826 32965 33607 11062 21162 38492 57010 80002 333 21063
AAXX 14061 54836 32965 43203 10030 21075 40296 57005 80002 333 21017
AAXX 14061 54863 32560 63404 10041 21025 40266 52003 86400 333 20010
AAXX 14061 56018 32980 22201 11015 21264 36163 57026 80002 333 00200 21172
AAXX 14061 56021 32580 22902 11050 21229 36061 57013 81102 333 00200 21214
AAXX 14061 57071 32960 71802 10087 21017 40295 57015 80002 333 20007
BBXX 44033 14061 99441 70690 46/30 /0408 10041 40264 54000 90604 22200 00084 11101 70006 333 91209 555 11098 22103
BBXX 44034 14061 99441 70681 46/30 /0210 10034 40254 57005 90604 22200 00089 10503 70013 333 91212 555 11119 22125
BBXX 44060 14061 99413 70721 46/// ///04 10037 40272 90615 22200 00110 333 91205 555 11041 22041
BBXX 44022 14061 99409 70737 46/// ///04 10050 21001 40282 90615 22200 00090 333 91206 555 11046 22046
BBXX 42085 14061 99179 70665 46/// /0303 10258 40115 90550 333 91204
BBXX 42085 14061 99179 70665 46/// /0303 10257 40117 90540 333 91204
AAXX 14064 68513 16/// /2902 10149 20115 30020 40133 52008 60014 333 20134 91004 555 10200 20010 91013
AAXX 14064 68514 32/// /3208 10171 20078 39664 48515 52007 333 20140 91014 555 10236 91014
AAXX 14064 68523 36/// /3208 10120 20047 39088 48487 52010 333 20078 91012 555 10248 91015
AAXX 14064 68527 36/// /2505 10170 21005 39047 48483 52014 333 20147 91008 555 10329 91013
AAXX 14064 68572 NIL
AAXX 14064 68575 16/// /2805 10208 20152 39039 48470 56006 60044 333 20182 91009 555 10312 20044 69925 91011
AAXX 14064 68581 16/// /0302 10220 20195 39321 48479 53005 60184 333 20193 91004 555 10324 20186 91010
AAXX 14064 68583 16/// /0000 10251 20220 39950 40057 57003 60024 333 20231 91003 555 10276 20028 91006
AAXX 14064 68589 NIL
AAXX 14064 68613 16/// /3603 10133 20092 30020 40137 56001 60014 333 20121 91006 555 10216 20016 91013
AAXX 14064 68647 36/// /1003 10178 20135 38863 48462 52015 333 20141 91005 555 10340 91011
AAXX 14064 68651 NIL
AAXX 14064 68715 16/// /3106 10146 20077 39985 40113 52007 60014 333 20136 91016 555 10233 20018 91011
AAXX 14064 68717 16/// /3206 10136 20076 39977 40122 52007 60034 333 20134 91010 555 10219 20030 91012
AAXX 14064 68723 36/// /2911 10123 20089 39344 48457 53002 333 20117 91018 555 10252 91010
AAXX 14064 68737 32875 11808 10175 20011 39194 48467 52006 81500 333 20134 91013 555 10357 91010
AAXX 14064 68744 32580 61503 10198 20144 39035 48453 57001 86400 333 20152 91006 555 10361 91009
AAXX 14064 68747 36/// /3103 10227 20161 39545 48475 52012 333 20187 91008 555 10331 91007
AAXX 14064 68754 36/// /1403 10228 20164 39069 48467 52013 333 20155 91006 555 10337 91010
AAXX 14064 68817 NIL
AAXX 14064 68821 16/// /3023 10147 20050 39848 40088 53005 69924 333 20123 91033 555 10235 20002 91008
AAXX 14064 68835 NIL
AAXX 14064 68843 16/// /2808 10206 20164 39974 40071 53020 60034 333 20183 91013 555 10264 20030 91007
AAXX 14064 68849 36/// /2407 10179 20150 39348 48462 52018 333 20158 91012 555 10289 91009
AAXX 14064 68912 11360 62919 10137 20095 30085 40094 52005 60044 72588 86800 333 20121 91023 555 10197 20046 60105 91009
AAXX 14064 68918 16/// /3114 10141 20076 30070 40089 56003 60044 333 20129 91024 555 10247 20040 91008
AAXX 14064 68921 16/// /2913 10168 20078 30075 40078 52002 60014 333 20127 91021 555 10231 20018 91007
AAXX 14064 68925 16/// /3109 10110 20069 39720 40089 55000 60144 333 20102 91023 555 10210 20142 91008
AAXX 14064 68926 32170 52604 10176 20100 39907 40085 52004 85500 333 20128 91009 555 10261 91008
AAXX 14064 68935 16/// /2805 10176 20143 30026 40089 52015 69984 333 20156 91008 555 10236 20008 91009
AAXX 14061 47101 32565 70202 10021 21046 30122 40220 57018 87500
AAXX 14061 47105 369// /2309 10080 21032 30153 40185 56009
AAXX 14061 47108 31656 62502 10069 21022 30106 40212 57015 70522 86500
AAXX 14061 47115 32980 02905 10104 21019 39913 40181 55014 333 92032
AAXX 14061 47133 32663 81601 10074 21040 30142 40227 55013 8552/
AAXX 14061 47138 32970 12906 10131 21024 30202 40205 55015 80001 333 92022
AAXX 14061 47159 32975 02504 10140 21042 30124 40207 57015 333 92022
AAXX 14061 47165 32670 52504 10096 20009 30185 40231 57010 85500 333 92022
AAXX 14061 47168 32670 22507 10125 21042 30138 40216 55014 82500 333 92023
AAXX 14061 47184 32975 02905 10135 21013 30208 40233 55011 333 92022
AAXX 14061 47008 42570 63204 10036 21076 30105 40159 57011 82550
AAXX 14061 47014 12650 23601 11060 21151 39824 40240 52012 60011 82500
AAXX 14061 47016 11770 60000 11033 21084 39318 40205 57024 69901 77177 86010
AAXX 14061 47020 11560 80000 11022 21040 39855 40243 53004 60011 77177 8802/
AAXX 14061 47025 42968 01803 10085 21005 30115 40144 57026
AAXX 14061 47035 42965 03202 11006 21027 30233 40242 57002
AAXX 14061 47041 42970 12307 10067 21058 30126 40153 57031 80002
AAXX 14061 47055 NIL
AAXX 14061 47058 11558 83202 10004 21002 30183 40231 57003 69931 71072 8652/
AAXX 14061 47069 41656 83202 10055 20000 30116 40216 57010 71022 885//
AAXX 14061 45007 12650 73205 10199 20110 30170 40178 58024 60001 8153/ 333 59012 81635 85359
AAXX 14061 47090 32668 63207 10079 21030 30161 40183 57012 85500 333 92023
AAXX 14061 47095 32562 72505 10032 21021 30021 40212 57012 87500
AAXX 14061 47097 329// /0001 10035 21042 30126 40223 57016
AAXX 14061 47098 329// /2004 10042 21028 30074 40209 57017
AAXX 14061 47099 329// /0001 10056 21020 30176 40213 55014
AAXX 14061 47100 32470 22718 10011 21033 39264 40188 57006 82500
AAXX 14061 47102 31658 83206 10033 21005 30047 40227 53003 71022 8552/
AAXX 14061 47104 32670 21805 10096 21040 30083 40179 57014 82500
AAXX 14061 47106 329// /2706 10090 21029 30139 40188 55009
AAXX 14061 47112 31658 51805 10079 20014 30129 40213 55012 70522 85500 333 92012
AAXX 14061 47114 32662 60702 10045 21093 30034 40218 57014 86500
AAXX 14061 47119 31657 61803 10063 21009 30176 40218 57013 70522 86500
AAXX 14061 47121 329// /2505 10063 21050 39921 40215 55014
AAXX 14061 47127 329// /2701 10055 21080 30080 40223 55012
AAXX 14061 47129 32662 71809 10071 20031 30190 40226 55007 87500
AAXX 14061 47130 32972 22507 10118 21020 30129 40189 55015 80001 333 92023
AAXX 14061 47131 32660 22503 10077 21057 30149 40219 57019 82500
AAXX 14061 47135 329// /2706 10080 21026 39921 40218 55011
AAXX 14061 47136 32668 22707 10101 21039 30039 40209 55019 81500
AAXX 14061 47137 329// /2507 10085 21040 30098 40216 55011
AAXX 14061 47140 41665 81102 10070 21009 30201 40230 57009 72162 8352/ 333 92012
AAXX 14061 47143 32670 52904 10114 21055 30143 40221 55013 85500
AAXX 14061 47145 32663 60702 10082 21039 30186 40212 56013 85500
AAXX 14061 47146 32665 82703 10094 21028 30163 40228 55007 8452/
AAXX 14061 47150 41657 73401 10050 20031 30206 40225 57006 72162 87500
AAXX 14061 47152 32975 13207 10127 21009 30162 40204 57014 80001
AAXX 14061 47154 329// /2907 10099 21009 30157 40217 55013
AAXX 14061 47155 32970 01604 10126 21041 30165 40210 57015
AAXX 14061 47156 32670 22306 10112 21012 30143 40231 57014 82500
AAXX 14061 47157 32670 32507 10104 21010 39936 40202 55014 83500
AAXX 14061 47162 32975 02905 10120 21042 30176 40216 55011 333 92022
AAXX 14061 47169 32675 33208 10117 20055 30138 40231 55005 83500 333 92023
AAXX 14061 47170 32675 62907 10113 21011 30186 40229 55012 85500 333 92023
AAXX 14061 47171 329// /2704 10100 21011 30175 40230 55007
AAXX 14061 47172 329// /2506 10104 20012 30159 40225 55009
AAXX 14061 47173 329// /1602 10105 21028 30116 40226 56014
AAXX 14061 47174 32675 22705 10121 21014 30017 40215 57014 82500
AAXX 14061 47175 32573 62908 10077 20001 39658 40227 55005 86500 333 92023
AAXX 14061 47185 32970 03210 10131 20020 30143 40232 56012 333 92033
AAXX 14061 47188 32975 03605 10135 21005 30202 40223 55014 333 92022
AAXX 14061 47189 32970 01807 10146 20036 30160 40219 55011 333 92022
AAXX 14061 47192 32678 21603 10122 21078 30179 40216 57013 82500
AAXX 14061 47003 42580 43207 10028 21069 30153 40157 57007 83520
AAXX 14061 47005 11680 31804 11106 21142 38558 53006 69961 70174 83200
AAXX 14061 47022 42475 23205 11022 21108 38787 57013 82500
AAXX 14061 47028 42969 03602 10008 21102 30126 40222 58007
AAXX 14061 47031 42570 32704 11032 21067 38890 57007 83500
AAXX 14061 47037 42970 00000 10031 21034 30099 40223 58016
AAXX 14061 47039 12560 80000 10009 21027 30022 40216 57019 69911 885//
AAXX 14061 47046 41950 02308 10073 21041 30124 40146 57024 71022
AAXX 14061 47050 42965 42501 10013 21029 30179 40214 57018 80002
AAXX 14061 47052 11560 80000 10002 21015 39866 40210 57020 60011 77177 8802/
AAXX 14061 47060 11550 82702 10007 21001 30168 40227 57004 60011 71062 885//
AAXX 14061 47061 42980 42305 10077 20004 30136 40179 57018 83030
AAXX 14061 47065 11540 83202 10006 21002 30165 40231 57002 69921 75855 887//
AAXX 14061 47067 11560 80000 11010 21023 30117 40241 57020 69931 77077 8802/
AAXX 14061 47068 41540 83604 10031 20002 30181 40216 57005 71022 885//
AAXX 14061 47070 12960 80000 10043 21005 30133 40222 57016 69901 8803/
AAXX 14061 47075 NIL
AAXX 14061 45007 12650 73205 10199 20110 30170 40178 58024 60001 8153/ 333 59012 81635 85359
AAXX 14061 50548 32980 32201 11144 21215 40262 57008 80002 333 21221
AAXX 14061 50564 32970 03402 11138 21225 40237 57002 333 21187
AAXX 14061 51334 11770 80201 11077 21092 40396 57009 69901 77070 885// 333 00152 21118
AAXX 14061 51818 32968 03204 11012 21069 40376 57004 333 00455 21080
AAXX 14061 52378 32980 30201 11078 21171 40434 57015 80002 333 00655 21184
AAXX 14061 53487 32977 33403 11085 21188 40384 57017 80002 333 21148
AAXX 14061 53502 32980 31401 11054 21191 40409 57020 80002 333 00757 21163
AAXX 14061 53923 32980 73402 10002 21109 40333 57026 80002 333 21042
AAXX 14061 54049 32970 03205 11072 21201 40276 57003 333 21155
AAXX 14061 54115 32980 12506 11096 21222 40341 57008 80002 333 21151
AAXX 14061 54157 32970 02702 11073 21169 40283 57006 333 21131
AAXX 14061 54186 11570 22704 11103 21170 40236 52010 69901 70070 82100 333 21103
AAXX 14061 54311 32980 02906 11097 21240 40354 57006 333 21182
AAXX 14061 54346 32970 03602 11059 21173 40289 57006 333 21083
AAXX 14061 54377 11580 13205 11024 21114 40241 52006 69921 70070 81100 333 21065
AAXX 14061 54386 11570 21803 11037 21119 40200 52001 69991 72277 82100 333 21124
AAXX 14061 54493 32974 03205 11022 21153 40244 57001 333 21033
AAXX 14061 54587 NIL
AAXX 14061 54715 32970 00203 10018 21148 40326 57010 333 21020
AAXX 14061 54929 31958 53202 10074 21015 40281 57007 70500 80002 333 21008
AAXX 14061 54945 32960 23208 10046 21008 40282 52002 80002 333 20023
AAXX 14061 56065 32680 61602 11032 21152 36602 57027 81102 333 00151 21159
AAXX 14061 57193 32960 70203 10072 20000 40289 57010 80002 333 21001
AAXX 14061 57290 32962 70401 10089 21004 40286 57009 80002 333 20019
AAXX 14064 68572 NIL
AAXX 14064 68589 NIL
AAXX 14064 68651 NIL
AAXX 14064 68817 NIL
AAXX 14064 68835 NIL
AAXX 14061 28867 31598 83202 11235 21260 30037 40337 52008 70271 885// 333 21240
AAXX 14061 28952 11999 53601 11226 21244 30140 40353 52014 69920 70272 85040 333 21247
AAXX 14061 28867 31598 83202 11235 21260 30037 40337 52008 70271 885// 333 21240
AAXX 14061 28952 11999 53601 11226 21244 30140 40353 52014 69920 70272 85040 333 21247
AAXX 14061 28867 31598 83202 11235 21260 30037 40337 52008 70271 885// 333 21240
AAXX 14061 28867 31598 83202 11235 21260 30037 40337 52008 70271 885// 333 21240
AAXX 14064 68174 11565 80000 10170 20152 38770 48492 58001 60154 72166 8157/ 333 20163 91002 555 10302 20154 69945 91016
AAXX 14064 68191 36/// /3406 10271 20180 39608 48527 52012 333 20245 91012 555 10365 91011
AAXX 14064 68242 12680 63611 10180 20151 38686 48465 53006 60044 82572 333 20155 91019 555 10302 20048 91013
AAXX 14064 68262 16/// /0102 10196 20157 38689 48496 56003 69984 333 20184 91005 555 10302 20008 91016
AAXX 14064 68263 12780 71205 10172 20145 38467 48492 55000 60244 8707/ 333 20159 91007 555 10281 20245 69925 91017
AAXX 14064 68267 NIL
AAXX 14064 68289 36/// /0603 10238 20187 39125 48505 52007 333 20199 91005 555 10296 91014
AAXX 14064 68350 16/// /0605 10204 20156 38632 48483 52013 60044 333 20162 91008 555 10342 20048 91015
AAXX 14064 68368 11970 71006 10161 20156 38305 48502 51010 60181 72162 8707/ 333 20146 555 10270 20180 91019
AAXX 14064 68403 16/// /2807 10161 20143 30129 40162 53002 60034 333 20157 91010 555 10210 20030 91016
AAXX 14064 68424 12782 12108 10155 20046 39190 48501 53015 69924 81570 333 20128 91011 555 10304 20002 91015
AAXX 14064 68438 32882 32310 10203 20013 38769 48464 52006 81071 333 20118 91015 555 10345 91012
AAXX 14064 68442 12482 83410 10174 20145 38622 48474 53012 60024 8657/ 333 20145 91014 555 10314 20024 91014
AAXX 14064 68461 11480 80510 10161 20139 38300 48486 52003 60204 70266 8157/ 333 20147 91013 555 10294 20200 91017
AAXX 14064 68512 12382 82907 10089 20076 38999 48480 53001 60014 886// 333 20085 91011 555 10140 20012 91015
AAXX 14064 68538 32882 12911 10179 20002 38669 48454 52006 81080 333 20150 91015 555 10331 91012
AAXX 14064 68587 36/// /0506 10244 20199 30016 40028 53008 333 20227 91013 555 10272 91002
AAXX 14064 68588 16/// /3408 10265 20204 30048 40064 53000 60014 333 20231 91013 555 10288 20010 91006
AAXX 14064 68591 36/// /0505 10263 20205 39862 40036 53002 333 20236 91008 555 10276 91004
AAXX 14064 68592 NIL
AAXX 14064 68618 31380 72611 10094 20059 39022 48474 53006 70255 875// 333 20092 91017 555 10190 91014
AAXX 14064 68633 36/// /3204 10163 20041 38457 48452 53002 333 20092 91007 555 10319 91012
AAXX 14064 68668 12670 72107 10239 20144 39223 48465 53013 60024 83570 333 20195 91009 555 10341 20020 91008
AAXX 14064 68714 16/// /2906 10144 20075 30076 40113 52010 60014 333 20123 91012 555 10208 20016 91011
AAXX 14064 68727 16/// /2710 10158 20016 39075 48457 52011 69924 333 20092 91014 555 10304 20002 91010
AAXX 14064 68752 16/// /2511 10216 20180 39395 48465 52015 60014 333 20185 91017 555 10309 20014 91008
AAXX 14064 68816 11640 73119 10109 20088 30050 40105 50002 60064 78162 875// 333 20120 91024 555 10216 20064 91010
AAXX 14064 68828 32470 49903 10168 20137 39854 40085 51013 84500 333 20130 555 10216 91008
AAXX 14064 68842 12580 42519 10206 20152 30005 40074 53020 69902 84500 333 20176 555 10242 20000 91007
AAXX 14064 68858 12482 62411 10229 20186 39908 40060 53017 69944 81152 333 20194 555 10262 20004 91006
AAXX 14064 68906 11498 73018 10163 20136 39966 40029 57016 60174 75066 85672 222// 00123 20501 333 20133 91034 555 10167 20178 69925 91003
AAXX 14064 68994 32398 83606 10095 20087 30165 40194 58002 886// 222// 00064 333 20074 91009 555 10126 91019
AAXX 14064 89004 31760 81127 11119 21143 38754 49772 57001 73733 8807/ 333 21121 91031 555 11096
BBXX 46206 14061 99488 71260 46/// /1207 10061 40189 52002 22200 00084 11404 70022 333 91208
AAXX 14064 61017 32960 50414 10142 21016 39757 40174 80002 333 02300 20056 50404 55098 59005 85080
AAXX 14064 61036 32960 70000 10150 20001 39896 40137 80008 333 01200 20149 51041 50744 55091 59001 87280
AAXX 14064 61043 32960 50806 10125 21065 39699 40147 80002 333 0//00 20124 51441 55102 59001 85080
AAXX 14064 61045 32965 70000 10100 21080 39660 40171 80008 333 00700 20100 50684 55098 58002 87280
AAXX 14064 61049 32960 70000 10086 21058 39825 40154 80008 333 00700 20082 50861 50734 55101 58002 87280
AAXX 14064 61052 32960 50404 10150 21021 39883 40143 80002 333 00800 20145 51081 55096 59008 85080
AAXX 14064 61075 32960 50000 10149 20015 39830 40144 80002 333 01000 20136 50871 50644 55102 59001 85080
AAXX 14064 61080 32960 70804 10112 21052 39730 40160 80008 333 00400 20110 50881 50934 55099 58002 87280
AAXX 14064 61090 32960 50204 10129 21080 39636 40155 80002 333 01000 20120 51051 50834 55102 59005 87280
AAXX 14064 61091 32965 50000 10100 21010 39702 40155 80002 333 00800 20082 50561 50444 55091 59010 85080
AAXX 14064 61096 31940 70402 10130 21080 39767 40156 70522 80008 333 01100 20125 50891 50714 55082 59004 87280
AAXX 14064 61099 32960 70406 10180 20003 39892 40123 80008 333 01400 20175 50941 55081 59005 87280
AAXX 14064 61017 32960 50414 10142 21016 39757 40174 80002 333 02300 20056 50404 55098 59005 85080
AAXX 14064 61024 32960 51008 10120 21063 39586 40163 80002 333 00600 20095 51031 59005 85080
AAXX 14064 61036 32960 70000 10150 20001 39896 40137 80008 333 01200 20149 51041 50744 55091 59001 87280
AAXX 14064 61043 32960 50806 10125 21065 39699 40147 80002 333 0//00 20124 51441 55102 59001 85080
AAXX 14064 61045 32965 70000 10100 21080 39660 40171 80008 333 00700 20100 50684 55098 58002 87280
AAXX 14064 61049 32960 70000 10086 21058 39825 40154 80008 333 00700 20082 50861 50734 55101 58002 87280
AAXX 14064 61052 32960 50404 10150 21021 39883 40143 80002 333 00800 20145 51081 55096 59008 85080
AAXX 14064 61075 32960 50000 10149 20015 39830 40144 80002 333 01000 20136 50871 50644 55102 59001 85080
AAXX 14064 61080 32960 70804 10112 21052 39730 40160 80008 333 00400 20110 50881 50934 55099 58002 87280
AAXX 14064 61090 32960 50204 10129 21080 39636 40155 80002 333 01000 20120 51051 50834 55102 59005 87280
AAXX 14064 61091 32965 50000 10100 21010 39702 40155 80002 333 00800 20082 50561 50444 55091 59010 85080
AAXX 14064 61096 31940 70402 10130 21080 39767 40156 70522 80008 333 01100 20125 50891 50714 55082 59004 87280
AAXX 14064 61099 32960 70406 10180 20003 39892 40123 80008 333 01400 20175 50941 55081 59005 87280
BBXX 46206 14061 99488 71260 46/// /1207 10061 40189 52002 22200 00084 11404 70022 333 91208
AAXX 14064 42571 31996 00000 10216 20051 40181 70500 333 58002
AAXX 14064 42754 31996 00705 10226 20061 39530 40166 70510 333 58000
AAXX 14064 42779 32996 03601 10204 20074 39473 40177 333 58002
AAXX 14064 42874 32996 00505 10240 20117 40173 333 58008
AAXX 14064 43041 32996 00502 10244 20111 39550 40166 333 58009
AAXX 14064 42559 NIL
AAXX 14064 42667 NIL
AAXX 14064 42675 NIL
AAXX 14064 42867 NIL
AAXX 14064 42933 NIL
AAXX 14064 68267 NIL
AAXX 14064 68592 NIL
AAXX 14064 61401 NIL
AAXX 14064 61404 32958 61206 10158 21018 39806 40201 81038 333 0//00 20158 5//// 55/// 58009 81363 86273
AAXX 14064 61415 NIL
AAXX 14064 61421 NIL
AAXX 14064 61437 NIL
AAXX 14064 61442 31940 70506 10224 21064 30157 40161 70622 8707/ 333 01800 20200 50214 55104 58004 87463
AAXX 14064 61450 NIL
AAXX 14064 61461 NIL
AAXX 14064 61489 NIL
AAXX 14064 61492 NIL
AAXX 14064 61497 NIL
AAXX 14064 61498 31940 50406 10182 20056 30012 40147 705// 80008 333 0//00 20182 5//// 55/// 58006 85273
AAXX 14064 61499 32958 73604 10180 21025 39895 40151 80007 333 0//00 20180 50984 55/// 59003 87273
AAXX 14061 50658 32975 02905 11150 21199 40247 52007 333 21157
AAXX 14061 50888 11962 83206 11103 21125 40159 52021 69921 77070 8801/ 333 21103
AAXX 14061 50983 11965 83204 11084 21108 40148 52015 60011 72270 83037 333 21108
AAXX 14061 51053 32980 70903 11096 21149 40396 57004 80002 333 00100 21129
AAXX 14061 51542 11675 72002 11121 21156 37611 57008 69911 72270 82502 333 00154 21237
AAXX 14061 52436 32980 72903 11032 21119 38565 40387 57011 82032 333 00454 21131
AAXX 14061 52908 32980 12709 11089 21309 35746 57010 80002 333 00252 21193 91117 91529
AAXX 14061 52996 32480 70704 11038 21145 37599 57023 81502 333 00300 21087
AAXX 14061 53083 32980 02204 11187 21231 40420 57007 333 01054 21280
AAXX 14061 53764 32970 02003 11024 21133 40369 57011 333 21080
AAXX 14061 53787 32980 23602 10017 21153 40311 57017 80002 333 21092
AAXX 14061 54096 11568 12710 11087 21157 40168 52017 69911 70087 81100 333 21118 91117 91527
AAXX 14061 54226 32980 02906 11065 21212 40315 57007 333 21109
AAXX 14061 54259 32680 12903 11065 21160 40282 57004 81500 333 21099
AAXX 14061 54527 32975 03409 10000 21197 40331 57012 333 21039
AAXX 14061 54534 32975 03404 10001 21171 40317 57011 333 21056
BBXX 46132 14061 99497 71279 46/// /2102 10074 40167 52008 22200 00081 11306 70028 333 91203
BBXX 46205 14061 99542 71343 46/// /1602 10055 40169 52001 22200 00076 11105 70026 333 91203
BBXX 46205 14061 99542 71343 46/// /1602 10055 40169 52001 22200 00076 11105 70026 333 91203
BBXX 46132 14061 99497 71279 46/// /2102 10074 40167 52008 22200 00081 11306 70028 333 91203
BBXX 46181 14061 99538 71288 46/// /3401 10013 40191 52012 22200 00030 10300 70000 333 91202
AAXX 14064 88900 46/// /2310 10041 20032 30054 40056 58008 333 55068
AAXX 14064 68183 11670 82103 10225 20185 39411 48507 52011 69944 72166 8252/ 333 20213 91004 555 10324 20004 91012
AAXX 14064 68188 36/// /0000 10209 20186 39172 48501 53004 333 20195 91002 555 10313 91014
AAXX 14064 68268 16/// /3603 10187 20175 38879 48517 52011 60094 333 20184 91005 555 10327 20094 60805 91018
AAXX 14064 68272 NIL
AAXX 14064 68296 12/// /0000 10255 20204 39782 48515 52006 69924 333 20215 91002 555 10370 20002 91009
AAXX 14064 68322 32982 02208 10172 20046 39134 48499 52006 333 20136 91014 555 10359 91015
AAXX 14064 68338 11470 80604 10187 20165 38728 48460 53002 60024 70255 886// 333 20160 91006 555 10326 20024 69925 91012
AAXX 14064 68345 16/// /0303 10178 20151 38642 48484 53012 60074 333 20160 91005 555 10311 20072 91015
AAXX 14064 68362 11480 70607 10191 20144 38479 48481 50000 60014 70366 85550 333 20160 91013 555 10328 20016 91016
AAXX 14064 68400 32675 80104 10272 20229 30006 40077 52006 85222 333 20231 91007 555 10340 91008
AAXX 14064 68408 11202 83402 10140 20133 30146 40154 52007 60014 74600 886// 333 20128 91003 555 10158 20016 91015
AAXX 14064 68416 32684 52908 10119 20058 39026 48487 52008 85500 333 20094 91012 555 10244 91015
AAXX 14064 68478 12470 71602 10201 20169 38844 48486 52006 60064 875// 333 20179 91003 555 10326 20066 91014
AAXX 14064 68488 12480 71103 10260 20197 39225 48494 52003 69924 82210 333 20210 91006 555 10290 20002 91011
AAXX 14064 68494 16/// /3406 10248 20236 39951 40079 53001 60184 333 20228 91010 555 10316 20180 91008
AAXX 14064 68524 32986 12408 10144 20030 39041 48485 52008 81080 333 20093 91014 555 10311 91014
AAXX 14064 68546 16/// /2502 10188 20139 38611 48458 52011 60094 333 20122 91004 555 10319 20090 91012
AAXX 14064 68558 16/// /3410 10184 20115 38151 48462 52003 60154 333 20102 91015 555 10275 20152 91015
AAXX 14064 68570 12370 81902 10173 20132 38471 48463 57001 60054 885// 333 20141 91002 555 10310 20050 91014
AAXX 14064 68580 NIL
AAXX 14064 68614 12570 83303 10164 20122 30087 40128 52007 60034 885// 333 20146 91007 555 10234 20036 91012
AAXX 14064 68624 32380 82811 10104 20039 38705 48472 52002 886// 333 20059 91016 555 10291 91014
AAXX 14064 68674 36/// /2309 10255 20206 30022 48499 53021 333 20230 91016 555 10295 91005
AAXX 14064 68712 12470 60803 10144 20072 30043 40108 52006 60044 86500 333 20130 91013 555 10185 20040 91010
AAXX 14064 68718 36/// /2811 10163 20056 39843 40089 55000 333 20140 91019 555 10250 91009
AAXX 14064 68722 31720 82612 10072 20043 38499 48457 52008 76000 8802/ 333 20066 91019 555 10206 91013
AAXX 14064 68814 16/// /3312 1//// 2//// 30102 4//// 52007 60034 333 2//// 91023 555 1//// 20036 91011
AAXX 14064 68832 36/// /2409 10144 20033 39140 48457 52007 333 20091 91015 555 10277 91010
AAXX 14064 68916 11260 82822 10128 20064 39823 40093 52003 60034 76162 885// 333 20106 91028 555 10199 20032 91009
AAXX 14064 68920 12470 42608 10166 20076 30070 40083 55000 60034 84500 333 20134 91017 555 10225 20038 91008
AAXX 14064 68928 36/// /2505 10192 20120 39928 40086 53007 333 20148 91009 555 10223 91008
BBXX A8OU4 14064 99440 11739 41598 42724 10030 21046 49960 52030 77271 8247/ 22224 00090 21008 3//// 4//// 5//// 80005
BBXX ZCBZ4 14063 99170 11266 41/98 30410 10300 20258 40146 56010 70100 83100 22244 20403 31414 40302 50201 80270
BBXX A8UL5 14063 99127 30690 41798 20910 10290 20235 40090 54000 70100 81461 22214 20201 310// 40403 5//// 80250
BBXX ZDLS1 14063 99358 30168 41497 72312 10112 2//// 40067 54000 70311 8646/ 22252 04194 20407 324// 40407
BBXX AMOUK01 14064 99358 30169 46/// ///// 10119 20059 30070 40081 52004 90550
BBXX AMOUK17 14064 99327 30573 46/// ///// 10187 20098 30215 40231 52008 90550
BBXX AMOUK15 14064 99081 50143 46/// ///// 10234 20196 30105 40134 57014 90550
BBXX DMDZ 14063 99289 70187 41498 40713 10180 20139 40280 54000 7//11 83143 22263 04200 2//// 336// 4//04 5//// 80155
BBXX DHTK 14061 99124 70301 41397 30309 10252 20203 40120 56010 70111 837// 22214 00260 2//05 80218
AAXX 14061 30455 42999 82801 11243 21282 38977 48498 51001 82032
AAXX 14061 30731 41996 81003 11128 21163 39726 40369 52010 77173 8802/
AAXX 14061 30739 42699 80204 11141 21212 39493 40357 52007 8697/
AAXX 14061 30741 42998 00403 11198 21239 38741 48521 52009
AAXX 14061 30745 41699 60402 11206 21239 39135 40376 52011 70272 82402
AAXX 14061 30764 42999 01601 11215 21255 39496 40360 58003
AAXX 14061 30829 41599 60000 11131 21166 39661 40389 57001 72682 83302
AAXX 14061 30838 41596 82304 11152 21172 39327 40367 58003 77173 8672/
AAXX 14061 30846 41699 60202 11138 21199 39379 40334 52003 70372 82503
AAXX 14061 30859 42899 23203 11156 21226 39447 40334 52002 81041
AAXX 14061 30862 42999 03202 11199 21248 39551 40347 52002
AAXX 14061 30957 41697 80000 11132 21159 39386 40325 58005 78581 883//
AAXX 14061 30975 42999 21601 11261 21293 39630 40345 58001 80001
BBXX A8CJ2 14064 99363 50732 41598 52010 10130 20113 40140 56010 70100 83445 22284 04140 21004 323// 41206 5//// 80120
AAXX 14061 30499 41599 70301 11198 21256 39581 40283 58007 70272 83570
AAXX 14061 30683 42999 73402 11181 21240 39609 40300 52001 84044
AAXX 14061 30695 41999 83204 11200 21241 39920 40281 56005 70271 8807/
AAXX 14061 31253 42999 80000 11257 21296 39741 40242 53001 85031
AAXX 14061 31295 41999 83204 11182 21241 39765 40249 54000 70172 80007
AAXX 14061 31348 42999 20000 11198 21256 39993 40201 57006 80001
AAXX 14061 31418 42999 00000 11185 21275 39926 40196 52001
AAXX 14061 31439 41999 00000 11216 21248 30135 40182 54000 70270
AAXX 14061 31442 42999 83103 11192 21241 39855 40233 54000 82037
AAXX 14061 31445 42999 83204 11174 21243 39954 40222 57003 80002
AAXX 14061 31474 42999 00000 11230 21287 39690 40211 57006
AAXX 14061 31521 32999 02802 11189 21222 39907 40218 57003
AAXX 14061 31527 42998 03203 11185 21226 39894 40216 58002
AAXX 14061 31534 42999 21401 11196 21229 39834 40202 57012 80001
AAXX 14061 31587 42999 13202 11180 21230 30073 40228 54000 80001
AAXX 14061 31632 NIL
AAXX 14061 31702 42998 83303 11153 21234 39838 40191 54000 80009
AAXX 14061 31713 42999 80901 11139 21191 30057 40161 57009 84071
AAXX 14061 31725 42998 83602 11130 21182 30082 40152 57013 82042
AAXX 14061 31801 41997 80201 11117 21137 39895 40130 57026 77172 83037
AAXX 14061 31825 42999 60000 11143 21194 39943 40161 56021 82039
AAXX 14061 31845 41996 80502 11111 21131 39955 40124 57027 77372 8802/
AAXX 14061 31878 41663 83205 11048 21071 30015 40141 53010 77173 8357/
AAXX 14061 31915 41998 02907 11049 21157 39887 40156 53021 70281 333 91013 91114
AAXX 14061 31921 41598 22904 11021 21135 30049 40147 53021 70181 82200
AAXX 14061 31969 42598 52911 11003 21109 30112 40161 55000 82502 333 91123 91020 91123
AAXX 14061 31981 41595 82703 11023 21032 39905 40139 55002 78682 889//
AAXX 14061 31987 41599 81702 11006 21037 39880 40140 56015 70272 8354/
AAXX 14061 32069 41565 63202 11129 21164 30160 40165 58001 78583 86900 333 91003 91108
BBXX ZQCP3 14063 99024 11048 41598 40214 10332 20269 40087 58010 70311 8486/ 22253 00280 20101 336// 40201 5//// 80286
BBXX ZCDF4 14063 99090 70844 41/98 71804 10255 20242 40120 54000 70222 86/// 22273 00280 20301 321// 40703 5//// 80246
BBXX PENR 14063 99359 70419 41998 11225 10210 20151 40221 703// 80003 22224 20302 80175
BBXX ZCDG4 14064 99097 70789 41498 80805 10264 20231 40100 58001 70322 887// 22264 00300 20301 307// 40602 5////
BBXX VQKZ6 14063 99209 70630 41498 11409 10250 20212 40121 54000 70100 81100 22254 02235 20301 314// 40504 5//// 80225
BBXX PGQI 14063 99259 70362 41497 40920 10215 20185 40225 58011 70161 83140 22264 20603 309// 41004 80195
BBXX DFRZ 14063 99138 70584 41698 40914 10275 20255 40115 54000 70322 84444 22254 00280 20801 80260
BBXX ZCEE2 14064 99146 70694 41698 30426 10259 20227 40134 58013 70111 81470 22284 00280 20301 303// 40303 5//// 80237
AAXX 14064 68155 16/// /1603 10223 20206 39168 48499 52011 60044 333 20216 91005 555 10345 20046 91013
AAXX 14064 68171 NIL
AAXX 14064 68176 16/// /1502 10219 20183 39112 48500 55000 60084 333 20188 91004 555 10334 20088 91014
AAXX 14064 68181 NIL
AAXX 14064 68182 16/// /2102 10224 20190 39314 48507 53010 60014 333 20199 91004 555 10331 20018 91013
AAXX 14064 68185 36/// /0000 10208 20172 38472 48404 53002 333 20171 91002 555 10274 91007
AAXX 14064 68253 NIL
AAXX 14064 68255 16/// /0404 10191 20156 38840 48487 55000 60044 333 20174 91007 555 10315 20042 91014
AAXX 14064 68271 16/// /3502 10200 20172 38892 48496 51001 60054 333 20186 91005 555 10331 20050 91015
AAXX 14064 68273 16/// /0306 10155 20153 38453 48508 53008 60374 333 20152 91009 555 10307 20376 60585 91019
AAXX 14064 68287 36/// /0107 10188 20168 38560 48496 52007 333 20162 91015 555 10258 91017
AAXX 14064 68291 16/// /3203 10251 20218 39504 48513 52007 60024 333 20224 91004 555 10370 20020 91011
AAXX 14064 68297 NIL
AAXX 14064 68329 36/// /2010 10190 20052 39069 48497 52010 333 20151 91016 555 10355 91014
AAXX 14064 68331 36/// /1908 10188 20035 38819 48502 53003 333 20143 91012 555 10335 91016
AAXX 14064 68335 16/// /1805 10180 20066 38891 48496 52007 69944 333 20150 91011 555 10331 20004 91015
AAXX 14064 68341 16/// /3605 10177 20162 38500 48484 53002 60094 333 20159 91007 555 10311 20096 60245 91016
AAXX 14064 68342 NIL
AAXX 14064 68343 16/// ///// 10187 20168 38744 48467 52012 60024 333 20178 555 10323 20022 91013
AAXX 14064 68349 16/// /3608 10200 20150 38472 48465 53005 60174 333 20160 91012 555 10319 20178 91014
AAXX 14064 68353 16/// /0410 10189 20146 38494 48472 53001 60034 333 20159 91013 555 10290 20036 91015
AAXX 14064 68355 16/// /0512 10181 20142 38543 48477 53003 69924 333 20170 91017 555 10316 20002 91015
AAXX 14064 68370 NIL
AAXX 14064 68377 36/// /3306 10231 20150 38727 48470 52012 333 20203 91010 555 10346 91013
AAXX 14064 68380 36/// /3104 10165 20143 3//// 4//// 5//// 333 20161 91007 555 10287
AAXX 14064 68387 36/// /2902 10239 20177 38828 48493 52012 333 20219 91015 555 10315 91015
AAXX 14064 68411 36/// /0202 10189 20092 39944 40152 53002 333 20165 91006 555 10240 91015
AAXX 14064 68429 NIL
AAXX 14064 68449 16/// /0507 10174 20139 38364 48477 52008 60054 333 20150 91010 555 10293 20052 91016
AAXX 14064 68471 16/// /3414 10152 20120 38302 48481 52011 69944 333 20152 91023 555 10288 20004 91016
AAXX 14064 68474 16/// /0000 10184 20131 38607 48498 52008 60064 333 20138 91006 555 10315 20068 91017
AAXX 14064 68479 36/// /3505 10233 20136 38922 48492 53009 333 20205 91011 555 10346 91014
AAXX 14064 68481 36/// /0000 10261 20224 39727 40086 52006 333 20227 91003 555 10318 91010
AAXX 14064 68487 16/// /3404 10213 20163 38957 48483 52012 60194 333 20160 91006 555 10321 20190 91013
AAXX 14064 68491 36/// /3610 10280 20243 30066 40075 52006 333 20246 91017 555 10308 91007
AAXX 14064 68497 16/// /0504 10251 20230 30031 40074 52013 69964 333 20243 91006 555 10332 20006 91007
BBXX 46181 14061 99538 71288 46/// /3401 10013 40191 52012 22200 00030 10300 70000 333 91202
BBXX 41010 14061 99289 70785 46/// /0510 10217 40248 90620 22200 00240 10805 20704 300// 40804 70027 333 91212 555 11101 22106
BBXX 41009 14061 99285 70802 46/// /0510 10232 20164 40248 90620 22200 00249 10905 20604 300// 40904 70027 333 91212 555 11110 22116
BBXX 44040 14061 99410 70736 46/// /0106 10059 20006 40287 90545 22200 1//00 70002 333 91208 555 11077 22093
AAXX 14064 42634 32996 20503 10230 20088 40171 80001 333 58002 82070
AAXX 14064 42647 32996 30505 10244 20104 40174 80001 333 58002 83075
AAXX 14064 42737 32996 30508 10260 20124 40164 80002 333 58007 83070
AAXX 14064 42840 32997 13602 10278 20141 40163 80001 333 58010 81075
AAXX 14064 42909 32997 30206 10294 20099 40169 80001 222// 20000 333 58010 83070
AAXX 14064 42921 32996 01403 10254 20111 40188 333 58004
AAXX 14064 43003 31995 10503 10310 20160 40144 70400 80001 333 58011 81075
AAXX 14064 43014 31996 03403 10268 20130 39506 40145 70540 333 58000
AAXX 14064 43063 32997 11404 10262 20122 39528 40145 80001 333 58008 81070
AAXX 14064 43110 31996 21406 10304 20164 40134 70544 80001 333 58005 82078
AAXX 14064 43117 32997 01402 10290 20118 40145 333 58009
AAXX 14064 43192 31996 20705 10298 20176 40131 70500 80002 333 58005
AAXX 14064 68171 NIL
AAXX 14064 68181 NIL
AAXX 14064 68253 NIL
AAXX 14064 68297 NIL
AAXX 14064 68342 NIL
AAXX 14064 68370 NIL
AAXX 14064 68429 NIL
BBXX CFO383 14064 99439 70602 47698 /0211 10058 2003/ 40187 5//// 700// 8/ // 22200 00082 10602 2//// 3//// 70010 80048 333 91017
BBXX 46184 14061 99539 71389 46/// /1808 10055 40142 57006 22200 00066 11305 70026 333 91209
BBXX CFO383 14064 99439 70602 47698 /0211 10058 2003/ 40187 5//// 700// 8/ // 22200 00082 10602 2//// 3//// 70010 80048 333 91017
BBXX 46184 14061 99539 71389 46/// /1808 10055 40142 57006 22200 00066 11305 70026 333 91209
AAXX 14061 01028 11330 80613 10001 21008 39885 49905 55001 69972 78582 883// 333 21005 70007
AAXX 14061 31913 43/// /3304 11064 21097 30035 40156 53022
AAXX 14061 32128 41598 73403 11039 21076 30096 40149 57010 78583 87300 333 91006 91110
AAXX 14061 24856 42999 02402 11333 21362 30144 40320 53006
AAXX 14061 30679 NIL
AAXX 14061 30686 41999 82904 11195 21236 39908 40307 57002 72271 8802/
AAXX 14061 30961 42999 50102 11186 21219 39496 40340 52002 80005
AAXX 14061 30971 42999 00000 11189 21222 39267 40317 58002
AAXX 14061 30978 42999 00000 11210 21235 39591 40328 50000
AAXX 14061 31513 42999 03201 11186 21219 39983 40224 58003
AAXX 14061 31624 NIL
AAXX 14061 31832 41595 83301 11092 21108 30040 40128 57015 77372 8802/
AAXX 14064 91723 NIL
AAXX 14064 91759 NIL
AAXX 14064 91762 11598 71304 10259 20224 40105 51005 6////
BBXX 46004 14061 99509 71361 46/// /1307 10064 40158 57013 22200 00079 11206 70028 333 91208
AAXX 14064 43086 32997 00502 10270 20112 39987 40165 333 58007
AAXX 14064 43128 32996 01803 10274 20138 39553 40153 333 58009
AAXX 14064 43150 31596 20504 10296 20214 30085 40159 70500 81501 333 58006 81620
AAXX 14064 43185 31596 20906 10300 20203 30147 40150 70500 81501 333 58005 81620
AAXX 14064 43189 32597 30903 10292 20192 30151 40160 82501 333 58010
AAXX 14064 43198 32996 00912 10258 20125 39314 40131 333 58008
AAXX 14064 43201 32997 30905 10254 20160 39421 40135 80001 333 58007 83075
AAXX 14064 43213 32597 50902 10286 20148 39834 40149 82538 333 58008
AAXX 14064 43226 32997 10904 10310 20187 30105 40134 80001 333 58009
AAXX 14064 43233 32997 20204 10248 20149 39325 40129 80001 333 58001
AAXX 14064 43237 32597 40905 10270 20156 39758 40150 83430 333 56290 58008 82620
AAXX 14064 43245 32597 43203 10296 20219 30122 40149 83801 333 58008
AAXX 14064 43279 32597 73606 10286 20227 30126 40143 84532 333 58004 84620 85360
AAXX 14064 43284 32996 71108 10305 20183 30004 40118 80001 333 58006 87075
AAXX 14064 43295 32997 20904 10250 20135 39121 48534 80001 333 58000 82075
AAXX 14064 43314 32597 42503 10328 20223 40123 82402 333 58006
AAXX 14064 43321 31496 60708 10282 20182 39691 40133 70542 82531 333 58001
AAXX 14064 43329 32597 70000 10294 20214 30120 40134 82531 333 58003
AAXX 14064 43344 21495 60911 10266 20205 30044 40143 75022 83531 333 58008 6990/ 83615 86360
AAXX 14064 43346 21496 83604 10248 20233 30125 40132 76065 8672/ 333 58010 6002/ 86718 84460
AAXX 14064 43353 31496 42706 10308 20220 40122 70500 82831 333 56699 58014 82614 84072
AAXX 14064 43369 32597 60905 10300 20246 40121 84430 333 58010 83618 83825 86360
AAXX 14064 43371 32597 73203 10314 20217 30044 40116 84330 333 57982 58013 82618 83822 81925
AAXX 14064 43311 NIL
BBXX A8OU4 14064 99440 11739 41598 42724 10030 21046 49960 52030 77271 8247/ 22224 00090 21008 3//// 4//// 5//// 80005
BBXX DHEB 14063 99508 11627 41598 52820 11020 21066 5/010 70122 85144 22224 2//// 3//// 4//// 5//// 81035
BBXX DQVJ 14061 99521 11607 41698 51311 10030 21003 49940 51010 7//77 85900 22263 00026 20803 331// 41005 5////
BBXX VRHO2 14064 99506 11679 41798 50320 11015 21031 49950 52030 7//// 85700 222// 00040 20507 30404 40507 50407 6//// 81020 ICE /////
BBXX 44059 14061 99368 70763 46/// /0103 1//// 90620 333 91204
BBXX 44059 14061 99368 70763 46/// /0403 1//// 40276 90610 333 91204
BBXX 44059 14061 99368 70763 46/// /0303 10073 40275 58009 90600 22200 00103 333 91204
BBXX 44057 14061 99395 70761 46/// /3505 1//// 90620 333 91206
BBXX 44057 14061 99395 70761 46/// /3506 1//// 40293 90610 333 91206
BBXX 44057 14061 99395 70761 46/// /3506 10036 40295 55000 90600 22200 00055 333 91206
BBXX 44058 14061 99376 70763 46/// /0205 1//// 90620 333 91206
BBXX 44058 14061 99376 70763 46/// /0205 1//// 40283 90610 333 91206
BBXX 44058 14061 99376 70763 46/// /0205 10071 40283 58009 90600 22200 00094 10301 70004 333 91206
BBXX 46004 14061 99509 71361 46/// /1307 10064 40158 57013 22200 00079 11206 70028 333 91208
AAXX 14061 56671 32780 61601 10133 21007 38209 57027 86100 333 00000 20008
AAXX 14061 57378 32960 72902 10123 20030 40272 57024 8703/ 333 20029
AAXX 14061 57426 11558 82202 10085 20060 40277 57014 69911 76060 885// 333 00451 20069
AAXX 14061 57476 32960 83201 10098 20046 40273 57021 8807/ 333 20049
AAXX 14061 57584 11958 80202 10099 20005 40275 57018 69901 70560 8807/ 333 20080
AAXX 14061 57598 11962 70000 10102 20030 40263 57019 69901 76060 8703/ 333 20034
AAXX 14061 57655 11960 80701 10082 20060 40275 57021 69981 76060 8802/ 333 20073
AAXX 14061 57713 NIL
AAXX 14061 57776 32670 73604 10014 21015 40266 57017 875// 333 20007
AAXX 14061 58321 31950 03202 10118 21024 40272 57022 70500 333 21014
AAXX 14061 58437 32980 83202 10037 21178 38185 57013 8807/ 333 20001
AAXX 14061 58445 NIL
AAXX 14061 58556 32960 80204 10121 21004 40240 57021 8807/ 333 20030
AAXX 14061 58569 32962 40405 10156 20034 40228 57022 84030 333 20077
AAXX 14061 58646 32960 50000 10168 20031 40219 57036 85040 333 20046
AAXX 14061 58653 NIL
AAXX 14061 58660 NIL
AAXX 14061 58715 32965 73406 10139 20005 40242 57016 8704/ 333 20045
AAXX 14061 58730 32775 71802 10176 20079 40216 57029 875// 333 20057
AAXX 14061 58731 32972 73201 10161 20063 40218 57031 8703/ 333 20040
AAXX 14061 58754 32964 31802 10200 20056 40208 57031 83030 333 20105
AAXX 14061 58911 32963 02704 10189 20074 40207 57028 333 20039
AAXX 14061 58931 32380 61102 10122 20087 38385 57015 86100 333 20099
AAXX 14061 59254 32960 60402 10215 20037 40196 57034 86030 333 20097
AAXX 14061 59632 32568 63602 10224 20062 40183 57033 82140 333 20136
AAXX 14061 59855 32568 83601 10211 20173 40165 57028 888// 333 20180
BBXX 46092 14061 99368 71220 46/// /3505 10108 40195 53016 90557 22200 00125 555 11051 22051
AAXX 14064 67976 11470 73305 10235 20198 3//// 48/// 69904 78022 875// 333 20215 5//// 87615
AAXX 14063 67975 11460 83603 10192 20180 38919 48507 60034 76196 8557/ 333 20190 85610 88459
AAXX 14063 67991 11675 80901 10229 20214 38556 48466 60024 76096 8157/ 333 20211 81640 88460
AAXX 14063 67977 32980 72102 10258 20204 39647 48531 83072 333 20231 83359
AAXX 14060 67421 12970 73201 10204 20170 38731 48515 60074 8707/ 333 20180 5//// 55027 58002 70066 87458 555 10248 7//96
AAXX 14060 67692 32580 73302 10256 20179 82138 333 20211 5//// 55/// 82828 85358 87280 555 10301 7//22
AAXX 14060 67791 31570 72501 10254 20196 70522 82108 333 20194 5//// 55085 82820 87275 555 10304 7//22
AAXX 14060 67796 32680 43302 10327 20219 40033 82102 333 20257 5//// 55/// 58004 82830 83070 555 10405 7//11
AAXX 14064 67975 11460 83603 10192 20180 38919 48507 60034 76196 8557/ 333 20190 58013 85610 88459
AAXX 14064 67991 11675 80901 10229 20214 38556 48466 60024 76096 8157/ 333 20211 58009 81640 88460
AAXX 14064 67977 32980 72102 10258 20204 39647 48531 83072 333 20231 58001 83359 97080
BBXX 46232 14061 99325 71174 46/// ///// 1//// 90608 22200 00148 11303 21002 328// 41302 70013
BBXX 46249 14061 99338 71197 46/// ///// 1//// 90615 22200 00142 11302 21002 319// 41301 70010
AAXX 14061 45032 36/// /3301 10220 20075 30158 40175 54000
AAXX 14061 45035 36/// /2802 10204 20098 30133 40175 54000
AAXX 14061 45039 36/// /0102 10210 20104 30155 40170 57001
AAXX 14061 45044 36/// /2702 10206 20134 30079 40171 54000
AAXX 14061 45032 36/// /3301 10220 20075 30158 40175 54000
AAXX 14061 45035 36/// /2802 10204 20098 30133 40175 54000
AAXX 14061 45039 36/// /0102 10210 20104 30155 40170 57001
AAXX 14061 45044 36/// /2702 10206 20134 30079 40171 54000
BBXX 46246 14061 99500 71451 46/// ///// 1//// 90559 22200 00075 10808 20807 327// 41203 70040
BBXX 46246 14061 99500 71451 46/// ///// 1//// 90629 22200 00075 10808 20807 325// 41103 70038
AAXX 14061 01144 41886 81212 10060 21018 70222 82048 333 20023 91122
AAXX 14064 71500 16/// /3011 11025 21050 60001 333 10003 21064 70000 555 33024 40061
AAXX 14064 71504 16/// ///// 11022 21071 60001 333 10012 21115 70000
AAXX 14064 71526 16/// /2710 11058 21074 60001 333 11015 21210 7////
AAXX 14064 71541 17/// /2504 11061 21072 69991 7//4/ 333 11017 21064 70027
AAXX 14064 71543 17/// /2605 11072 21080 69971 7//4/ 333 11003 21072 70086 555 32722 40071
AAXX 14064 71546 17/// /2806 11039 21045 60021 7//4/ 333 10011 21046 70068 555 32636 40073
AAXX 14064 71547 17/// /2606 11040 21048 60011 7//4/ 333 11016 21062 70032 555 32530 40072
AAXX 14064 71549 16/// ///// 11037 21081 60001 333 7////
AAXX 14064 71283 17/// /3007 11063 21070 60011 7//4/ 333 11007 21063 70032 555 32421 40071
AAXX 14064 71461 17/// /2607 11057 21060 69971 7//4/ 333 10001 21059 70042 555 32726 40071
AAXX 14064 71468 16/// /2109 11010 21018 39909 40238 57014 60001 333 21065 70000 555 32017 40061
AAXX 14064 71483 16/// ///// 11015 21052 60001 333 11012 21113 70000
AAXX 14064 71010 16/// /1907 11093 21128 60001 333 11030 21124 70000 555 31620 40021
AAXX 14064 71011 16/// ///// 11136 21154 60001 333 11068 21170 70000
AAXX 14064 71049 16/// /3023 11166 39801 49824 53045 60001 333 11103 21196 70000 555 31338 40103
AAXX 14064 71988 16/// /0218 10045 20012 30231 40251 58003 60001 333 10092 20041 70000 555 30028 40022
AAXX 14064 71673 16/// ///// 11086 21116 60001 333 11029 21129 70000
AAXX 14064 71690 17/// ///// 11031 21040 69991 7//4/ 333 11007 21057 70070
AAXX 14064 71888 16/// ///// 11071 21095 60001 333 7////
AAXX 14064 71895 16/// ///// 11054 21104 60001 333 11029 21125 7////
BBXX 44039 14061 99411 70727 46/// /3505 10059 21001 40283 90553 22200 00103 1//00 70002 333 91207
AAXX 14064 71221 17/// /2808 11060 21061 69991 7//4/ 333 11012 21096 70025 555 32724 40071
AAXX 14064 71226 17/// /2707 11032 21041 69991 7//4/ 333 10002 21045 70023
AAXX 14064 71229 46/// /2605 11070 21103 6///1 333 11021 21110 7//// 555 32417 40081
AAXX 14064 71067 16/// ///// 11035 21099 60001 333 11028 21119 70000
AAXX 14064 71359 16/// /2403 11043 21071 60001 333 11043 21098 70000
AAXX 14064 71405 16/// ///// 11047 21076 60001 333 11009 21108 70000
AAXX 14064 71417 16/// /2615 11087 21104 30237 40273 56004 60001 333 11077 21105 70000 555 33024 40171
AAXX 14064 71426 46/// /0207 11011 6///1 333 10015 21015 7//// 555 30419 40211
AAXX 14064 71449 16/// /1704 10005 21006 39761 40168 56018 60001 333 10005 21082 70000
AAXX 14064 71315 17/// /3104 11023 21045 30243 40298 55000 60011 7//4/ 333 10005 21028 7//// 555 10020
AAXX 14064 71555 16/// /2815 10023 21084 38510 40061 51007 60001 333 10054 21080 70020 555 32821 40031
AAXX 14064 71558 46/// ///// 11137 21155 30226 40264 53001 6///1 333 11101 21176 7////
AAXX 14064 71761 16/// ///// 11042 21080 60001 333 11010 21113 70000
AAXX 14064 71788 16/// /1708 11099 21118 60001 333 11073 21149 70004 555 31519 40041
AAXX 14064 71792 16/// ///// 11126 21143 60001 333 11032 21159 70000
BBXX 46146 14061 99493 71237 46/// /1005 10048 40199 52009 22200 00059 10200 70002 333 91206
BBXX 46243 14061 99462 71241 46/// ///// 1//// 90629 22200 00078 11304 21002 327// 41303 70018
BBXX 46236 14061 99368 71219 46/// ///// 1//// 90620 22200 00124 11003 21002 328// 41201 70013
BBXX 46212 14061 99408 71243 46/// ///// 1//// 90612 22200 00096 11503 20802 330// 41502 70013
BBXX 46225 14061 99329 71174 46/// ///// 1//// 90614 22200 00155 11302 21001 324// 41301 70010
BBXX 46213 14061 99403 71247 46/// ///// 1//// 90624 22200 00101 11503 20902 330// 41502 70016
BBXX 46215 14061 99352 71209 46/// ///// 1//// 90608 22200 00143 11103 21002 328// 41102 70013
AAXX 14064 71221 17/// /2808 11060 21061 69991 7//4/ 333 11012 21096 70025 555 32724 40071
AAXX 14064 71226 17/// /2707 11032 21041 69991 7//4/ 333 10002 21045 70023
AAXX 14064 71229 46/// /2605 11070 21103 6///1 333 11021 21110 7//// 555 32417 40081
AAXX 14064 71067 16/// ///// 11035 21099 60001 333 11028 21119 70000
AAXX 14064 64810 31450 50000 10230 20215 30076 40102 70522 83530 333 20229 55/// 58008 83614 84364
AAXX 14064 64820 11460 50000 10246 20243 30106 40115 60634 70166 82502 333 20240 58004 82613 85070
AAXX 14061 56144 32780 21801 10052 21137 36833 57043 82400 333 05101 21086
AAXX 14061 56152 32780 10000 10000 21140 36284 57020 81100 333 00000 21189
AAXX 14061 56167 32780 12701 10075 21098 37051 57049 81100 333 05102 21077
AAXX 14061 56182 32680 12001 10028 21148 37196 57036 81100 333 00453 21044
AAXX 14061 56357 32980 00000 10028 21131 36430 57029 333 00152 21105
AAXX 14061 56586 11458 81102 10020 21018 38085 57023 69941 77077 885// 333 00559 21014
AAXX 14061 56748 32580 22004 10155 20013 38360 57019 82200 333 00001 20049
AAXX 14061 56763 32680 20703 10207 20025 40142 57036 82400 333 05105 20045
AAXX 14061 56768 32680 62203 10133 20042 38186 57022 86400 333 00002 20046
AAXX 14061 56838 31668 12201 10189 20102 40173 57025 70040 81100 333 00001 20086
AAXX 14061 56886 11758 81802 10097 20076 38310 57020 69901 71060 884// 333 00152 20067
AAXX 14061 56946 31680 33202 10208 20084 40155 57027 70040 83400 333 00002 20078
AAXX 14061 56959 32768 50702 10236 20166 40142 57030 85100 333 05102 20151
AAXX 14061 56969 32580 22202 10243 20152 40150 57036 82100 333 05204 20130
AAXX 14061 57731 11465 81802 10086 20048 40264 57023 69921 70060 885// 333 00353 20072
AAXX 14061 57766 11460 80202 10107 20028 40263 57017 69901 76000 885// 333 20070
AAXX 14061 57845 32962 83603 10101 20010 40255 57017 8807/ 333 20073
AAXX 14061 57853 11760 83201 10094 20011 40264 57017 69931 72160 885// 333 20063
AAXX 14061 57916 32664 82703 10129 20084 40235 57021 885// 333 00252 20084
AAXX 14061 57922 32661 83403 10073 20030 40250 57017 885// 333 00251 20051
AAXX 14061 57932 11664 82501 10120 20045 40248 57021 69901 70060 885// 333 00251 20085
AAXX 14061 58338 32962 63403 10117 21025 40262 57014 86040 333 20003
AAXX 14061 59007 32971 70202 10164 20065 40178 57026 87030 333 20076
AAXX 14061 59046 32964 00402 10201 20029 40207 57032 333 20085
AAXX 14061 59058 32968 13402 10196 20016 40205 57035 81040 333 20052
AAXX 14061 59072 32961 13202 10186 20012 40211 57035 81040 333 20039
AAXX 14061 59087 32970 12001 10214 20011 40194 57029 80002 333 20087
AAXX 14061 59209 32578 12902 10195 20082 40185 57032 81100 333 20065
BBXX 46146 14061 99493 71237 46/// /1005 10048 40199 52009 22200 00059 10200 70002 333 91206
AAXX 14061 38933 31/92 93201 10004 21016 39802 40337 52008 74544 333 21002
AAXX 14064 71359 16/// /2403 11043 21071 60001 333 11043 21098 70000
AAXX 14064 71555 16/// /2815 10023 21084 38510 40061 51007 60001 333 10054 21080 70020 555 32821 40031
AAXX 14064 71558 46/// ///// 11137 21155 30226 40264 53001 6///1 333 11101 21176 7////
AAXX 14064 71405 16/// ///// 11047 21076 60001 333 11009 21108 70000
AAXX 14064 71417 16/// /2615 11087 21104 30237 40273 56004 60001 333 11077 21105 70000 555 33024 40171
AAXX 14064 71426 46/// /0207 11011 6///1 333 10015 21015 7//// 555 30419 40211
AAXX 14064 71449 16/// /1704 10005 21006 39761 40168 56018 60001 333 10005 21082 70000
AAXX 14064 71315 17/// /3104 11023 21045 30243 40298 55000 60011 7//4/ 333 10005 21028 7//// 555 10020
AAXX 14064 71761 16/// ///// 11042 21080 60001 333 11010 21113 70000
AAXX 14064 71788 16/// /1708 11099 21118 60001 333 11073 21149 70004 555 31519 40041
AAXX 14064 71792 16/// ///// 11126 21143 60001 333 11032 21159 70000
AAXX 14061 40650 11958 80101 10050 20002 40261 52011 60002 70500 80007
AAXX 14061 40608 11940 70000 10014 20000 40269 52009 60002 71111 80008
AAXX 14061 40621 12960 21201 10078 21022 40278 52017 60002 80001
AAXX 14061 40634 12960 32702 10008 21042 40257 51012 60002 83040
AAXX 14061 40642 12960 30000 10028 21032 40235 52002 60002 83100
AAXX 14061 40656 12960 63002 10043 21003 40243 52012 60002 80006
AAXX 14061 40665 12960 52702 10068 20025 40263 52011 60002 80005
AAXX 14061 40670 12960 50000 10078 20008 40255 52009 60002 80005
AAXX 14061 40672 12960 20000 10076 20012 40265 52008 60002 80001
AAXX 14061 40676 11958 22702 10058 21019 40259 52010 60002 70600 80001
AAXX 14061 40680 12960 23002 10082 21024 40232 53011 60002 80002
AAXX 14061 40690 12960 02804 10072 20028 40248 52012 60002
AAXX 14061 40691 12960 12102 10100 20026 40264 52010 60002 80001
AAXX 14061 26730 31457 71904 10039 20032 39885 40076 53001 69902 71062 876// 333 20019 31/// 87714 91007 91109 555 53011 7990/
BBXX 44062 14061 99386 70764 46/// /3605 1//// 90620 22200 00089 333 91207
BBXX 44062 14061 99386 70764 46/// /0205 1//// 40275 90610 22200 00089 333 91206
BBXX 44062 14061 99386 70764 46/// /0205 10067 40274 58004 90600 22200 00089 1//00 70001 333 91206
BBXX 44063 14061 99390 70764 46/// /0000 1//// 90620 333 91203
BBXX 44063 14061 99390 70764 46/// /0000 1//// 40303 90610 333 91202
BBXX 44063 14061 99390 70764 46/// /0102 10053 40300 50000 90600 22200 00068 1//00 70001 333 91204
BBXX 44041 14061 99372 70768 46/// /0202 1//// 90620 333 91202
BBXX 44041 14061 99372 70768 46/// /3503 1//// 40311 90610 333 91203
BBXX 44041 14061 99372 70768 46/// /3403 10079 40314 55000 90600 22200 00095 1//00 70001 333 91203
BBXX 44042 14061 99380 70763 46/// /3502 1//// 90620 333 91203
BBXX 44042 14061 99380 70763 46/// /3502 1//// 40289 90610 333 91203
BBXX 44042 14061 99380 70763 46/// /3602 10064 40289 58004 90600 22200 00095 1//00 70002 333 91203
BBXX 44043 14061 99392 70764 46/// /0404 1//// 90620 333 91205
BBXX 44043 14061 99392 70764 46/// /0504 1//// 40289 90610 333 91205
BBXX 44043 14061 99392 70764 46/// /0503 10058 40288 50000 90600 22200 00068 1//00 70001 333 91204
BBXX 42361 14061 99276 70925 46/// ///12 10228 20178 40227 58013 90630 555 11100 22106
BBXX 44100 14061 99363 70756 46/// ///// 1//// 90622 22200 00133 11104 20603 310// 41101 70019
BBXX 41115 14061 99184 70673 46/// ///// 1//// 90605 22200 10902 20902 336// 41101 70012
BBXX 41110 14061 99341 70777 46/// ///// 1//// 90621 22200 00141 11102 20902 311// 41101 70010
BBXX 42099 14061 99273 70842 46/// ///// 1//// 90627 22200 00233 10603 20603 70016
BBXX 41113 14061 99284 70805 46/// ///// 1//// 90621 22200 00225 11003 21003 311// 41101 70014
BBXX 41114 14061 99276 70802 46/// ///// 1//// 90616 22200 00230 10904 20904 308// 41201 70019
BBXX 41112 14061 99307 70813 46/// ///// 1//// 90621 22200 00164 11103 20902 310// 41101 70013
BBXX 42362 14061 99278 70907 46/// /0910 10217 20172 40244 90630
BBXX 42364 14061 99291 70881 46/// /0907 10200 20156 40261 90630
BBXX 42013 14061 99272 70829 46/// ///// 1//// 40245 90540 22200 00200
BBXX 44258 14061 99445 70634 46/// /3608 10026 40221 57001 22200 00066 10802 70009 333 91210
BBXX 44258 14061 99445 70634 46/// /3608 10026 40221 57001 22200 00066 10802 70009 333 91210
BBXX 44140 14061 99429 70515 46/// /0613 10121 40131 57048 22200 00091 10705 70025 333 91216
AAXX 14064 96001 31558 70911 10296 20275 39966 40114 57011 70522 84272 333 56000 57802 84820 80860
AAXX 14064 96015 32460 50000 10300 20257 30086 40093 56020 83272 333 56000 57801 82817 81617 80860
AAXX 14064 96033 31450 60000 10284 20263 30089 40094 57010 70522 83926 333 56000 57903 81920 83617 80980
AAXX 14064 96075 01460 60905 10296 20253 30087 40092 57019 69901 70262 83271 333 56000 57802 69907 83816 80856
AAXX 14064 96087 32460 60712 10304 20237 30054 40087 56017 83231 333 56100 57813 83815 83360 85080 80857
AAXX 14064 96171 32458 70000 10304 20243 30059 40084 56015 85222 333 56000 57801 85816 80858
AAXX 14064 96207 NIL
AAXX 14064 96505 32462 61504 10300 20230 39036 4//// 57028 84131 333 56000 84817
AAXX 14064 96525 32460 50808 10326 20237 30066 40073 57025 84215 333 56400 84817
AAXX 14064 96529 01460 50000 10310 20252 30060 40084 57018 69971 70361 83121 333 56000 69977 83818
AAXX 14064 96535 32460 53203 10318 20256 30075 40096 57013 82231 333 56800 57883 82814 80864
AAXX 14064 96557 32460 62704 10321 20236 30031 40081 57020 84371 333 56600 57961 57861 81912 83813 80980 80857
AAXX 14064 96559 32457 72704 10316 20235 30056 40093 57019 85231 333 56600 57864 85812 83362 80858
AAXX 14064 96565 32459 62404 10322 20254 30039 40091 57016 84231 333 56000 57803 84810 83357 80840
AAXX 14064 96595 32463 50505 10325 20242 30029 40081 57026 84531 333 56600 84614
AAXX 14064 96607 32460 60608 10324 20244 30066 40081 57021 85221 333 56000 85815
AAXX 14064 96615 32460 32806 10304 20234 30077 40092 56015 82931 333 56000 57901 57801 81917 81815 80967 80858
AAXX 14064 96695 32458 62404 10321 20249 30061 40067 58023 84211 333 56000 57803 84617 80860
AAXX 14064 96737 01457 72608 10306 20246 30041 40071 58015 69901 70162 83211 333 56000 57801 69907 83815 84460 80860
AAXX 14064 96739 32459 62915 10314 20239 30035 40084 57019 84310 333 56000 57901 82917 82618 80980
AAXX 14064 96741 32560 73206 10308 20249 30078 40082 57017 82571 333 56000 82623 84362
AAXX 14064 96745 32560 73004 10316 20225 30077 40081 57022 84221 333 56000 57801 84820 87460 80823
AAXX 14064 96751 31558 83105 10242 20205 39025 48920 57011 70522 86221 333 56200 57822 86820 80880
AAXX 14064 96791 32458 71804 10314 20251 30005 40079 57038 84211 333 56000 57802 84818
AAXX 14064 96797 32562 63412 10310 20252 30070 40075 57015 82231 333 56000 57802 82820 84080 80860
AAXX 14064 96837 32560 63511 10306 20262 30067 40070 56019 83231 333 56000 57800 83823
AAXX 14064 96925 01465 72706 10280 20250 30072 40077 57019 60111 72161 84272 333 56600 57860 60117 84817 80860
AAXX 14064 96933 32460 73006 10314 20234 30072 40075 57018 84921 333 56200 57921 81919 82819 86460 80973
AAXX 14064 96937 32560 63412 10325 20250 30070 40075 57019 84111 333 56000 84820
AAXX 14064 96973 01458 82808 10278 20252 30070 40075 57014 60011 79196 85971 333 56000 57901 60017 82917 80977 83818 80850
AAXX 14064 96987 NIL
AAXX 14064 96009 NIL
AAXX 14064 96011 32460 73603 10299 20217 30078 40104 57011 84932 333 56000 57903 81919 83620 80960
AAXX 14064 96035 31457 83605 10290 20232 30060 40089 57015 70522 84267 333 56000 57802 84818 80850
AAXX 14064 96073 32460 73107 10306 20252 30068 40080 56027 83972 333 56000 57901 83915 80959
AAXX 14064 96091 32459 50406 10310 20236 30069 40092 57017 84231 333 56000 57801 84817 80860
AAXX 14064 96109 32460 73305 10308 20242 30040 40079 57021 84221 333 56000 57801 84815 80840
AAXX 14064 96145 32456 63511 10288 20239 30088 40091 58013 85801 333 56800 57882 82616 83817 80857
AAXX 14064 96147 31457 73610 10300 20245 30085 40090 56021 70522 83831 333 56800 57805 81816 84360 80857
AAXX 14064 96163 32560 42504 10308 20245 30101 40103 52007 82221 333 56000 57802 82820 80840
AAXX 14064 96179 01460 73511 10288 20251 30058 40095 57009 69991 72162 85206 333 56700 57872 69997 85817 80840
AAXX 14064 96195 32462 73304 10300 20236 30056 40092 57021 84231 333 56000 57804 84814 80850
AAXX 14064 96221 32460 73007 10302 20232 30068 40083 57023 84132 333 56999 84815 86080
AAXX 14064 96237 01456 82406 10259 20244 30053 40094 56004 69941 76062 86572 333 56000 69947 86616 85460
AAXX 14064 96249 11558 73008 10262 20241 30023 40082 69931 71796 84932 333 56600 57961 57861 81920 83820 80981
AAXX 14064 96253 32560 62808 10312 20237 30052 40072 57012 83832 333 56000 57800 82820 84360
AAXX 14064 96295 32460 73003 10306 20226 39979 40081 56026 85271 333 56000 57800 85815 80800
AAXX 14064 96509 32460 41904 10313 20241 30062 40073 57026 82131 333 56000 82815
AAXX 14064 96581 01450 70103 10281 20238 30079 40086 57012 69901 76062 86970 333 56200 57922 69907 81912 86908 80850
AAXX 14064 96633 32460 70713 10304 20253 30064 40072 57009 84972 333 56100 57910 81918 83618 85460 809//
AAXX 14064 96645 32458 72805 10322 20263 30045 40077 57020 85232 333 56000 57801 85813 80858
AAXX 14064 96655 31458 72309 10297 20234 30063 40097 57015 71522 86221 333 56000 57802 81811 85611 80864
AAXX 14064 96685 32560 72606 10316 20243 30048 40075 57026 85431 333 56000 84620
AAXX 14064 96749 32560 73015 10310 20235 30070 40083 57018 83971 333 56000 57962 81920 82622 86361 80980
AAXX 14064 96781 NIL
AAXX 14064 96805 32562 52104 10308 20245 30081 40090 56015 83271 333 56000 57802 83820 80860
AAXX 14064 96839 32558 63611 10312 20249 30066 40073 57016 83231 333 56000 57803 83820 80860
AAXX 14064 96935 NIL
AAXX 14064 97014 32560 62706 10294 20231 39979 40072 57021 84271 333 56700 57873 84822 80860
AAXX 14064 97028 32563 70000 10286 20243 30066 40072 56012 83221 333 56000 57802 83820 86460 80860
AAXX 14064 97048 32460 60106 10313 20229 30035 40059 57019 83271 333 56700 57874 83817 80860
AAXX 14064 97072 32560 43408 10336 20216 39975 40075 57027 82211 333 56000 57804 82820 80858
AAXX 14064 97086 01560 72605 10294 20262 30054 40078 56012 69981 72196 83271 333 56000 57803 69987 82820 85460 80860
AAXX 14064 97096 32460 50108 10306 20237 30065 40086 57013 82231 333 56000 57803 82817 80857
AAXX 14064 97120 32462 72703 10314 20239 30035 40068 57020 81236 333 56000 57803 81818 83360 80860
AAXX 14064 97146 31457 71505 10292 20234 30007 40067 58023 71799 85971 333 56000 57902 57801 81912 83814 80980 80860
AAXX 14064 97180 01459 71703 10274 20252 30068 40086 58028 60171 72162 82271 333 56000 60087 82819 85360
AAXX 14064 97192 01462 70000 10258 20244 30037 40094 57024 60061 72162 84520 333 56000 60067 84616 87460
AAXX 14064 97230 31460 72410 10306 20256 30056 40063 57020 71792 84932 333 56000 57901 57801 82916 82817 84080 80980 80859
AAXX 14064 97260 01458 62706 10272 20230 30058 40065 57011 69901 76092 84921 333 56000 57902 69907 81918 80980 83817
AAXX 14064 97270 31430 83610 10306 20246 30059 40063 58015 71792 8692/ 333 56009 57900 81913 82817 85617 88460 809//
AAXX 14064 97300 01458 80000 10271 20246 30055 40096 52004 60061 71796 85971 333 56000 57901 57801 60067 81918 84820 83460 80980 80858
AAXX 14064 97340 31570 83512 10320 20271 30037 40052 56019 71792 86932 333 56000 57900 81920 86820 80980
AAXX 14064 97372 01450 80000 10236 20232 39952 40073 57020 60281 79596 8592/ 333 56009 60067 81915 84816 88459
AAXX 14064 97430 NIL
AAXX 14064 97460 32459 52707 10306 20247 30027 40041 57025 84336 333 56100 57911 81917 83818 80959 80858
AAXX 14064 97502 32460 52606 10322 20249 30039 40043 57031 83231 333 56000 57802 83812 80857
AAXX 14064 97530 32458 31405 10312 20249 30044 40048 57024 84832 333 56000 57801 83814 83360 80860
AAXX 14064 97560 32460 72509 10304 20242 30037 40052 57026 82849 333 56000 57802 82818 83361 86279 80860
AAXX 14064 97580 32462 63006 10316 20281 30045 40051 56051 81208 333 56000 57802 81814 80858
AAXX 14064 97600 32560 52702 10330 20250 30054 40060 57014 83231 333 56600 57861 83820 80860
AAXX 14064 97686 31460 72806 10211 20136 38322 40053 57001 71622 85856 333 56000 57801 84811 86361 80858
AAXX 14064 97690 32465 72605 10322 20235 39937 40039 57026 83842 333 56000 57802 83816 87080
AAXX 14064 97724 32462 60000 10313 20240 30048 40065 57012 84872 333 56700 57872 83817 80850
AAXX 14064 97748 31462 51605 10314 20245 30057 40058 57001 70522 82232 333 56400 57843 82815 84075 80850
AAXX 14064 97760 32460 62708 10317 20253 30051 40060 57023 83932 333 56000 57901 81915 82816 80960
AAXX 14064 97796 31457 70000 10300 20242 30009 40060 57040 70522 85932 333 56000 57901 82912 85613 80980
AAXX 14064 97810 32462 72815 10297 20250 30036 40045 57016 84832 333 56700 57871 82819 84360 80850
AAXX 14064 97876 11460 73303 10284 20243 30053 40083 57035 60021 70262 86831 333 56000 57800 82810 84611
AAXX 14064 97900 31468 72907 10311 20242 30023 40052 57015 72992 84970 333 56600 57961 83917 86460 80975
AAXX 14064 97980 12458 70000 10276 20244 30036 40043 56015 60181 85842 333 56000 83816 82617
AAXX 14061 40001 32970 00404 10033 21003 40239 53006 333 20018 30///
AAXX 14061 40007 31950 70000 10025 20012 40261 51006 71022 84048 333 20017 31/// 50084 84360 87370 87270
AAXX 14061 40025 32960 60703 10080 20022 40201 53001 83032 333 20083 31/// 51/// 83360 85070
AAXX 14061 40045 32970 00000 10020 21031 40260 53006 333 21005 30/// 55060
AAXX 14061 40061 32970 80000 10022 21011 40247 53007 80007 333 20002 31/// 50064 55059 88270 40080 32965 60401 10038 21043 39502 40234 55000 82032 333 20008 82360 85070
AAXX 14061 40087 NIL
AAXX 14061 40095 NIL
AAXX 14064 97008 01450 73604 10270 20254 30056 40067 57012 60231 76062 84272 333 56000 57801 60057 84818 86460 80860
AAXX 14064 97016 32562 30111 10332 20238 30050 40053 57029 333 56000 57801 83820 80860
AAXX 14064 97126 32460 51306 10318 20250 30010 40070 57024 82211 333 56000 57803 82817 85460 80858
AAXX 14064 97142 11560 83303 10310 20248 30042 40056 58030 60080 70262 8122/ 333 56009 57802 81820 88549 80858
AAXX 14064 97182 01466 81103 10265 20244 30074 40078 57026 60771 76166 8287/ 333 56009 57802 60047 82819 86459 80859
AAXX 14064 97240 31460 31458 72108 10274 20227 39960 40075 57010 71792 85931 333 56000 57901 81915 85816 80980 80860
AAXX 14064 97284 01/20 80000 10192 20192 38856 40094 57005 60201 79596 8692/ 333 56009 5790/ 60207 83910 85810 88450
AAXX 14064 97310 01440 80000 10244 20237 30069 40081 57014 60321 76062 8492/ 333 56009 60327 84317 88457
AAXX 14064 97320 01462 70000 10278 20248 30064 40077 57020 60021 70166 85422 333 56000 60017 84615 87460
AAXX 14064 97378 11465 82906 10220 20211 39918 40081 56006 60271 79596 82971 333 56000 81918 81818 88458
AAXX 14064 97380 32464 60000 10301 20274 30048 40068 57010 83121 333 56000 83818
AAXX 14064 97406 31460 62406 10318 20244 30032 40058 57011 71722 85932 333 56000 57901 57801 81917 84818 80975 80860
AAXX 14064 97570 32460 62407 10316 20238 30046 40053 57029 81102 333 56000 81815 86080
AAXX 14064 97630 31464 70000 10288 20242 29899 40058 56023 71522 85972 333 56000 57901 82912 83614 85361 80978
AAXX 14064 97682 32465 53405 10325 20265 30038 40045 57025 82842 333 56000 57802 82816 85362 80858
AAXX 14064 97698 31462 70708 10316 20241 30055 40062 71542 86842 333 56000 57801 84817 83618 86077 80878
AAXX 14064 97700 12460 60204 10308 20260 30033 40047 57016 60011 82232 333 56000 57804 82818 84074 80856
AAXX 14064 97722 32462 71303 10307 20247 30058 40073 57010 85972 333 56600 57961 57861 81917 83818 80971 80857
AAXX 14064 97780 32460 52704 10238 20151 38216 40229 57016 84963 333 56000 57902 82913 82813 84360 80980
AAXX 14064 97790 32561 62905 10304 20248 30020 40040 57012 83831 333 56600 57862 82820 80858
BBXX 44140 14061 99429 70515 46/// /0613 10121 40131 57048 22200 00091 10705 70025 333 91216
AAXX 14064 89514 32997 62004 11082 49812 52009 86006 333 86273
AAXX 14064 89514 32997 62004 11082 49812 52009 86006 333 86273
BBXX 46036 14061 99484 71339 46/// /0908 10073 40148 57012 22200 00084 11206 70030 333 91210
BBXX 46036 14061 99484 71339 46/// /0908 10073 40148 57012 22200 00084 11206 70030 333 91210
AAXX 14064 40608 11940 70000 10014 20000 40269 52009 60002 71111 80008
AAXX 14064 40621 12960 21201 10078 21022 40278 52017 60002 80001
AAXX 14064 40634 12960 32702 10008 21042 40257 51012 60002 83040
AAXX 14064 40642 12960 30000 10028 21032 40235 52002 60002 83100
AAXX 14064 40650 11958 80101 10050 20002 40261 52011 60002 70500 80007
AAXX 14061 88900 46/// /2310 10041 20032 30054 40056 58008 333 55068
AAXX 14064 40656 12960 63002 10043 21003 40243 52012 60002 80006
AAXX 14064 40665 12960 52702 10068 20025 40263 52011 60002 80005
AAXX 14064 40670 12960 50000 10078 20008 40255 52009 60002 80005
AAXX 14064 40672 12960 20000 10076 20012 40265 52008 60002 80001
AAXX 14064 40676 11958 22702 10058 21019 40259 52010 60002 70600 80001
AAXX 14064 40680 12960 23002 10082 21024 40232 53011 60002 80002
AAXX 14064 40690 12960 02804 10072 20028 40248 52012 60002
AAXX 14064 40691 12960 12102 10100 20026 40264 52010 60002 80001
AAXX 14064 41184 42960 00000 10239 20134 40201 333 20116 58011
AAXX 14064 41194 12960 11604 10233 20102 30204 40209 60001 80001 333 20167 58010 81075
AAXX 14064 41196 42960 09902 10226 20081 30172 40211 333 20108 30010 58009
AAXX 14064 41198 42960 03103 10244 20114 40208 333 20178 58011
AAXX 14064 41217 41958 00502 10219 20165 30173 40202 70500 333 20159 30014 58009
AAXX 14064 41218 42960 13303 10199 20120 39897 40206 80001 333 20126 30012 58006 81075
AAXX 14064 87448 32965 00000 10124 20009 39606 40161 57013
AAXX 14064 87467 32970 01805 10145 20123 30008 40141 58001
AAXX 14061 01415 16/// /2111 10069 20035 39691 49701 52004 6//// 333 20023 70156 91121
BBXX 62123 14064 99563 10022 41/97 /2345 10069 20042 49760 52009 7//// 8//// 22200 20912 323// 40916 5////
BBXX AMOUK08 14064 99501 70061 46/// ///// 10076 20021 39930 49935 54002 90550
BBXX PJGO 14064 99571 10022 47196 /2136 10068 20029 49727 52021 762// 22200
BBXX 63110 14064 99595 10015 47496 /2135 10076 20046 49577 51009 762// 22200 10912 70061
BBXX 63105 14064 99610 10017 47596 ///// 10067 20037 49540 51006 763// 22200
BBXX 63113 14064 99610 10017 46/// /2327 10063 20036 49549 52014 22200 10912 70058
BBXX 62304 14064 99511 10018 46/98 /2311 10064 20026 49929 57011 22200 00120 10702 70008
BBXX 62103 14064 99499 70029 46/99 /2727 10094 20030 49928 57005 22200 00126 10906 70030 333 90710 91135
BBXX A8RL4 14064 99309 70145 41/98 /0112 10190 40270 54000 7//// 8//// 22244 00270 299// 334// 40601
AAXX 14061 20046 12998 72404 11096 21108 30025 40057 52003 69900 8705/ 333 21106
AAXX 14061 20069 41877 73205 11081 21113 30035 40048 52011 70272 8707/
AAXX 14061 20087 41497 82002 11072 21081 30002 40012 58003 77172 8552/ 333 85615
AAXX 14061 20292 41495 82211 11105 21111 30021 40040 56007 73873 8357/ 333 91115
AAXX 14061 20353 NIL
AAXX 14061 20667 41996 81804 11036 21041 30091 40098 52003 77173 8802/
AAXX 14061 20674 41296 82105 11054 21058 30068 40128 52010 77373 8872/ 333 86704 91112
AAXX 14061 20744 11996 81809 11010 21026 30056 40074 58012 69900 77183 8807/ 333 21035
AAXX 14061 20891 41397 72409 11128 21148 30163 40198 57004 78583 879// 333 86709 91115
AAXX 14061 23022 11596 72112 11071 21084 30120 40182 58013 69900 73832 84530 333 21072 91017 91113
AAXX 14061 23032 11997 82209 11058 21076 30184 40215 52008 69900 73633 83031 333 21072 91114
AAXX 14061 23058 31598 82204 11128 21148 30258 40263 52001 70232 885// 333 21160 88621
AAXX 14061 23242 31997 62306 11183 21209 30268 40285 51001 73631 84031 333 21182
AAXX 14061 23256 31497 82408 11152 21172 30277 40315 52009 77172 84506 333 21151 84612 91112
AAXX 14061 23330 32698 82103 11163 21174 30289 40311 52005 87531 333 21198 87639 93544
AAXX 14061 23445 32997 21704 11212 21237 30319 40347 52009 80001 333 21200
AAXX 14061 23552 32997 81902 11200 21219 30335 40373 52004 80004 333 21192
AAXX 14061 23631 32999 12002 11237 21261 30302 40348 52007 80001 333 21232
AAXX 14061 23662 32999 51001 11230 21249 30363 40412 57005 80001 333 21250
AAXX 14061 23724 32999 00701 11262 21287 30261 40333 52004 333 21261
AAXX 14061 23734 11396 81701 11229 21254 30254 40356 53004 69900 77172 8802/ 333 21225
AAXX 14061 23849 41156 80000 11242 21270 40374 57003 71022 886// 333 88701
AAXX 14061 23867 32999 00401 11217 21242 30327 40407 53001 333 21266
AAXX 14061 23933 11997 60000 11272 21293 30298 40362 57001 69900 77672 80004 333 21262
AAXX 14061 28064 11999 80000 11215 21233 30265 40367 52005 69900 70272 82021 333 21234
AAXX 14061 28275 11998 00000 11246 21270 30275 40342 53002 69900 70271 333 21241
AAXX 14061 28493 11998 81001 11201 21220 30239 40341 52002 69900 70271 80001 333 21233
AAXX 14061 28698 11998 80902 11229 21248 30154 40325 53007 69920 77677 82031 333 21277
AAXX 14061 23426 32986 52102 11218 21243 30296 40323 52008 85030 333 21213
AAXX 14061 23625 32999 01101 11249 21274 30296 40334 52005 333 21239
AAXX 14061 28076 32997 01001 11279 21296 30267 40349 54000 333 21299
AAXX 14061 28367 11996 83201 11199 21218 30207 40348 54000 69900 77172 8802/ 333 21235
AAXX 14061 28382 31960 80000 11266 21283 30266 40346 54000 77171 8801/ 333 21323
AAXX 14061 28481 31996 63601 11263 21280 30227 40338 53002 77172 80005 333 21267
AAXX 14061 28491 32968 00701 11216 21241 30213 40335 52001 333 21303
AAXX 14061 28573 11998 00301 11231 21249 30214 40329 54000 69920 71071 333 21256
AAXX 14061 28593 11998 10000 11219 21237 30227 40335 58004 69900 70271 80001 333 21255
AAXX 14061 28786 11998 80301 11219 21237 40316 52003 69920 70272 8801/ 333 21224
AAXX 14061 28797 11997 20501 11228 21246 30139 40314 53002 69900 77677 81011 333 21255
AAXX 14061 28799 11998 20801 11229 21254 30150 40309 54000 69920 72271 80001 333 21275
AAXX 14064 87641 32365 71411 10162 20145 30005 40178 58007 87600 333 56300 87709
BBXX 46238 14061 99334 71195 46/// ///// 1//// 90620 22200 00150 11303 20903 326// 41302 70016
BBXX 44098 14061 99428 70702 46/// ///// 1//// 90607 22200 00092 11003 21002 313// 41101 70013
BBXX 44039 14061 99411 70727 46/// /3505 10060 21006 40284 90600 22200 00103 1//00 70002 333 91206
BBXX 44060 14061 99413 70721 46/// ///05 10037 40273 90630 22200 00102 333 91205 555 11046 22046
BBXX 44040 14061 99410 70736 46/// /3605 10054 20004 40289 90615 22200 1//00 70002 333 91206 555 11067 22082
BBXX 44022 14061 99409 70737 46/// ///04 10049 20000 40281 90630 22200 00090 333 91205 555 11041 22041
AAXX 14064 78318 12565 41003 10218 20196 30199 40203 50002 60001 84800 333 10258 20217 32/// 56900 58012 70060 83820
AAXX 14064 78325 11430 40903 10237 20167 30147 40205 58001 60001 70411 84400 333 10259 20216 30/// 56100 58012 70086 84817 555 10503
AAXX 14064 78333 12910 00302 10202 20186 30189 40196 56001 60001 333 10287 20199 30/// 58017
AAXX 14064 78348 11557 60408 10229 20174 30140 40192 58002 60001 70522 86800 333 10262 20226 30/// 56100 57842 58014 70032 82820 84630 555 10503
AAXX 14064 78349 11530 33602 10208 20189 30081 40190 58004 69941 70281 83200 333 10276 20204 31/// 56800 58010 70025 83820 555 10203
AAXX 14064 78353 01560 30504 10244 20204 30154 40176 58010 69901 83800 333 10266 20232 31/// 56900 59002 70104 82820
AAXX 14064 78360 12560 50208 10235 20220 30143 40154 58003 60001 85400 333 10307 20220 30/// 56900 57879 58001 83820 92035
AAXX 14064 78369 01464 60307 10247 20218 30136 40145 56005 69941 70381 86200 333 10280 20241 31/// 56900 57880 59003 69917 70023 86818
AAXX 14063 63671 32580 10907 10267 20221 81500 333 20218 81621
AAXX 14063 63793 12480 73208 10250 20208 40105 60044 82542 333 20219 58000 82616 87077
AAXX 14064 63708 11580 70000 10220 20179 48512 69954 70222 8116/ 333 20185 58017 81820 87358
AAXX 14064 63772 32580 40000 10295 20247 84200 333 20229 84822
AAXX 14064 63820 12580 50101 10284 20229 40130 60014 85201 333 20240 58008 85822
AAXX 14064 63612 NIL
AAXX 14064 63661 NIL
AAXX 14064 63671 NIL
AAXX 14064 63688 NIL
AAXX 14064 63695 NIL
AAXX 14064 63714 NIL
AAXX 14064 63723 NIL
AAXX 14064 63740 NIL
AAXX 14064 63793 NIL
AAXX 14064 91369 32474 30918 10294 20254 30075 40078 83100 333 562// 83815 70000 555 91406
BBXX 3FFL8 14064 99135 70602 41598 40519 10260 2020/ 40080 58020 7//// 83203 22232 04290 20603 30505 40603 50702 6//// 80220 ICE /////
BBXX WDA2768 14064 99451 70870 43/// /0619 00/// 10042 20022 40232 55015 7//// 8//// 22243 0//// 2//// 3//// 4//// 5//// 6//// 80034 ICE /////
BBXX H3WD 14063 99207 70849 41498 50919 10250 2017/ 40220 54000 7//11 852// 22233 0//// 20503 30808 40503 51005 6//// 80200 ICE /////
BBXX WCF3012 14064 99467 70866 41/98 81515 10030 40240 70222 22223 00060 20302
BBXX C6TQ6 14064 99179 70876 41797 20524 10270 20228 40170 52020 70111 82967 22242 00270 20306 33132 40206 50204 6//// 80240 ICE /////
BBXX PDGS 14064 99129 70887 41/98 80330 10271 40132 53020 70222 8//// 22264 00271 2////
BBXX V7HC6 14064 99273 70907 41/// /0298 10210 20195 40236 57006 700// 8//// 222// 00222 2//// 3//// 4//// 5//// 6//// 80200 ICE /////
BBXX 9V7645 14063 99332 70739 419// 33623 10170 20119 40245 51025 70200 8313/ 22284 04230 2//// 3//// 4//// 5//// 6//// 80140 ICE /////
BBXX 51204 14061 99213 71581 46/// ///// 1//// 90622 22200 00248 11402 20402 331// 41401 70009
BBXX 51202 14061 99214 71577 46/// ///// 1//// 90609 22200 00244 10904 20904 308// 41101 70022
BBXX 46219 14061 99332 71199 46/// ///// 1//// 90628 22200 00136 11105 21003 331// 41103 70023
BBXX 46224 14061 99332 71175 46/// ///// 1//// 90606 22200 00154 11302 21001 322// 41301 70008
AAXX 14064 67979 11970 83404 10226 20185 3//// 48/// 69906 79596 8870/ 333 20218 5//// 88458
BBXX 46036 14061 99484 71339 46/// /0908 10073 40148 57012 22200 00084 11206 70030 333 91210
BBXX 44140 14061 99429 70515 46/// /0613 10121 40131 57048 22200 00091 10705 70025 333 91216
BBXX SHIP 14064 99354 71470 41597 62315 10180 20165 40236 52028 70222 8//// 90552 22224 00175 1//// 2//// 3//// 4//// 5//// 6//// 80170
BBXX 9V7645 14063 99332 70739 419// 33623 10170 20119 40245 51025 70200 8313/ 22284 04230 2//// 3//// 4//// 5//// 6//// 80140 ICE /////
BBXX 44258 14061 99445 70634 46/// /3608 10026 40221 57001 22200 00066 10802 70009 333 91210
BBXX 42013 14061 99272 70829 46/// ///// 1//// 40245 90540 22200 00200
BBXX 44043 14061 99392 70764 46/// /0504 1//// 40289 90610 333 91205
BBXX 44043 14061 99392 70764 46/// /0404 1//// 90620 333 91205
BBXX 41112 14061 99307 70813 46/// ///// 1//// 90621 22200 00164 11103 20902 310// 41101 70013
BBXX 42362 14061 99278 70907 46/// /0910 10217 20172 40244 90630
BBXX 42364 14061 99291 70881 46/// /0907 10200 20156 40261 90630
BBXX 41113 14061 99284 70805 46/// ///// 1//// 90621 22200 00225 11003 21003 311// 41101 70014
BBXX 42099 14061 99273 70842 46/// ///// 1//// 90627 22200 00233 10603 20603 70016
BBXX 41114 14061 99276 70802 46/// ///// 1//// 90616 22200 00230 10904 20904 308// 41201 70019
BBXX 41110 14061 99341 70777 46/// ///// 1//// 90621 22200 00141 11102 20902 311// 41101 70010
BBXX 44043 14061 99392 70764 46/// /0503 10058 40288 50000 90600 22200 00068 1//00 70001 333 91204
BBXX 44100 14061 99363 70756 46/// ///// 1//// 90622 22200 00133 11104 20603 310// 41101 70019
BBXX 41115 14061 99184 70673 46/// ///// 1//// 90605 22200 10902 20902 336// 41101 70012
BBXX 42361 14061 99276 70925 46/// ///12 10228 20178 40227 58013 90630 555 11100 22106
BBXX 44042 14061 99380 70763 46/// /3602 10064 40289 58004 90600 22200 00095 1//00 70002 333 91203
BBXX 44042 14061 99380 70763 46/// /3502 1//// 40289 90610 333 91203
BBXX 44041 14061 99372 70768 46/// /3503 1//// 40311 90610 333 91203
BBXX 44063 14061 99390 70764 46/// /0102 10053 40300 50000 90600 22200 00068 1//00 70001 333 91204
BBXX 44041 14061 99372 70768 46/// /0202 1//// 90620 333 91202
BBXX 44062 14061 99386 70764 46/// /3605 1//// 90620 22200 00089 333 91207
BBXX 44063 14061 99390 70764 46/// /0000 1//// 40303 90610 333 91202
BBXX 44041 14061 99372 70768 46/// /3403 10079 40314 55000 90600 22200 00095 1//00 70001 333 91203
BBXX 44062 14061 99386 70764 46/// /0205 10067 40274 58004 90600 22200 00089 1//00 70001 333 91206
BBXX 44062 14061 99386 70764 46/// /0205 1//// 40275 90610 22200 00089 333 91206
BBXX 44042 14061 99380 70763 46/// /3502 1//// 90620 333 91203
BBXX 44063 14061 99390 70764 46/// /0000 1//// 90620 333 91203
BBXX 46215 14061 99352 71209 46/// ///// 1//// 90608 22200 00143 11103 21002 328// 41102 70013
BBXX 46243 14061 99462 71241 46/// ///// 1//// 90629 22200 00078 11304 21002 327// 41303 70018
BBXX 46236 14061 99368 71219 46/// ///// 1//// 90620 22200 00124 11003 21002 328// 41201 70013
BBXX 46225 14061 99329 71174 46/// ///// 1//// 90614 22200 00155 11302 21001 324// 41301 70010
BBXX 46212 14061 99408 71243 46/// ///// 1//// 90612 22200 00096 11503 20802 330// 41502 70013
BBXX 46213 14061 99403 71247 46/// ///// 1//// 90624 22200 00101 11503 20902 330// 41502 70016
BBXX 46146 14061 99493 71237 46/// /1005 10048 40199 52009 22200 00059 10200 70002 333 91206
BBXX 44039 14061 99411 70727 46/// /3505 10059 21001 40283 90553 22200 00103 1//00 70002 333 91207
BBXX 46246 14061 99500 71451 46/// ///// 1//// 90559 22200 00075 10808 20807 327// 41203 70040
BBXX 46246 14061 99500 71451 46/// ///// 1//// 90629 22200 00075 10808 20807 325// 41103 70038
BBXX DMDZ 14063 99289 70187 41498 40713 10180 20139 40280 54000 7//11 83143 22263 04200 2//// 336// 4//04 5//// 80155
BBXX AMOUK17 14064 99327 30573 46/// ///// 10187 20098 30215 40231 52008 90550
BBXX ZDLS1 14063 99358 30168 41497 72312 10112 2//// 40067 54000 70311 8646/ 22252 04194 20407 324// 40407
BBXX DHTK 14061 99124 70301 41397 30309 10252 20203 40120 56010 70111 837// 22214 00260 2//05 80218
BBXX AMOUK15 14064 99081 50143 46/// ///// 10234 20196 30105 40134 57014 90550
BBXX AMOUK01 14064 99358 30169 46/// ///// 10119 20059 30070 40081 52004 90550
BBXX A8UL5 14063 99127 30690 41798 20910 10290 20235 40090 54000 70100 81461 22214 20201 310// 40403 5//// 80250
BBXX DDDO2 14064 99154 10417 41997 01316 10255 20208 40145 52015 70200 80000 22234 00280 20501 316// MGGK4 14063 99240 30096 41598 71616 10175 20121 40175 53007 70222 87500 22274 00184 20301 399// 4//// 5//// 80145
BBXX V7SY6 14064 99168 10403 41798 51312 10280 20267 40280 54000 7//21 85102 22233 0//// 20402 31414 40402 50301 6//// 80270 /////
BBXX UINM 14061 99465 11451 41497 73007 11015 40160 56013 71572 8532/ 22213 00048 20402 33400 40604
BBXX A8OU4 14064 99440 11739 41598 42724 10030 21046 49960 52030 77271 8247/ 22224 00090 21008 3//// 4//// 5//// 80005
BBXX ZCBZ4 14063 99170 11266 41/98 30410 10300 20258 40146 56010 70100 83100 22244 20403 31414 40302 50201 80270
BBXX DCLH2 14060 99027 50926 41798 41804 10230 20216 40130 54000 70011 84/// 22273 06220 2//// 3//// 4//// 5//// 80220
BBXX 3EDI6 14063 99022 70428 41397 40714 10270 20241 40080 54000 70122 84211 22283 04280 20203 308// 40506 5//// 80250
BBXX A8CJ2 14064 99363 50732 41598 52010 10130 20113 40140 56010 70100 83445 22284 04140 21004 323// 41206 5//// 80120
BBXX 46185 14061 99524 71298 46/// /0204 10057 40177 52004 22200 00071 11403 70014 333 91205
BBXX ZCBD3 14063 99406 70357 41/97 /2318 10140 20080 40270 56/// 7//22 8//// 22224 21806 3////4//5/8
BBXX 46221 14061 99339 71186 46/// ///// 1//// 90545 22200 00152 11302 20502 321// 41301 70010
BBXX C6VG7 14064 99192 70754 41698 30415 10258 2019/ 40138 57001 7//00 831// 22254 00280 20202 305// 4//// 5//// 6//// 80210 ICE /////
BBXX 44097 14061 99410 70711 46/// ///// 1//// 90602 22200 00125 10902 20902 318// 41201 70012
BBXX 44040 14061 99410 70736 46/// /3605 10054 20004 40289 90615 22200 1//00 70002 333 91206 555 11067 22082
BBXX 44030 14061 99432 70704 46/// /0408 1//// 40263 51004 90604 22200 00091 11103 70013 333 91210 555 11101 22108
BBXX 44029 14061 99425 70706 46/30 /0206 10066 40257 54000 90604 22200 00085 10502 70009 333 91208 555 11078 22082
BBXX 46114 14061 99364 71222 46/// ///// 1//// 90604 22200 00121 10903 20903 323// 41302 70015
BBXX 51205 14061 99210 71564 46/// ///// 1//// 90618 22200 00242 11005 21005 308// 41102 70025
BBXX 3FFL8 14064 99135 70602 41598 40519 10260 2020/ 40080 58020 7//// 83203 22232 04290 20603 30505 40603 50702 6//// 80220 ICE /////
BBXX WCF3012 14064 99467 70866 41/98 81515 10030 40240 70222 22223 00060 20302
BBXX WDA2768 14064 99451 70870 43/// /0619 00/// 10042 20022 40232 55015 7//// 8//// 22243 0//// 2//// 3//// 4//// 5//// 6//// 80034 ICE /////
BBXX VRCZ7 14063 99333 10269 41598 12710 10180 20106 40221 54000 70200 811// 22264 2//// 3//// 4//// 5//// 80140
BBXX PIAG 14063 99550 10062 41/98 /2440 10100 20081 49853 51010 70366 8//// 22242 00100 2//// 80090
BBXX WQVY 14064 99344 70274 41999 03109 10180 2015/ 40290 5//// 70200 80000 22264 0//// 20701 334// 41606 5//// 6//// 80160 ICE /////
BBXX UGWJ 14061 99022 11049 42498 53406 10335 40116 54000 8433/ 22252 00282 20301
BBXX ZQCP3 14063 99024 11048 41598 40214 10332 20269 40087 58010 70311 8486/ 22253 00280 20101 336// 40201 5//// 80286
BBXX TBWUK17 14063 99048 31075 41597 72915 10283 20268 40119 57005 70222 87776 22253 04300 20301 32928 40402 50502 80272
BBXX A8SG2 14061 99212 51465 41498 10205 10265 20213 40150 54000 70200 811// 22254 00290 20602 318// 40903 5//// 80230
BBXX FHZI 14064 99429 31473 46/// /2108 10189 20049 30159 40170 54000 22200 04165 85116
BBXX VROB 14064 99068 31470 46/// /1104 10291 20210 30019 40043 57023 22200 04287 85233
BBXX SHIP 14064 99164 30903 41697 61026 10265 20227 40102 58001 70161 84443 22233 00277 11205 20301 31023 40406 50505 85238
BBXX LAOW5 14064 99155 51298 41497 61012 10240 20211 40166 52026 70222 862// 22254 00255 20304 310// 40305 5//// 6//// 80220 ICE /////
BBXX ZDLP 14064 99645 50626 41/97 50209 10021 21023 49884 51009 70142 84440 22212 04003 20101 30000 40000 50000 80006 ICE //5//
BBXX 46232 14061 99325 71174 46/// ///// 1//// 90608 22200 00148 11303 21002 328// 41302 70013
BBXX 46249 14061 99338 71197 46/// ///// 1//// 90615 22200 00142 11302 21002 319// 41301 70010
BBXX 46092 14061 99368 71220 46/// /3505 10108 40195 53016 90557 22200 00125 555 11051 22051
BBXX 44059 14061 99368 70763 46/// /0303 10073 40275 58009 90600 22200 00103 333 91204
BBXX 44058 14061 99376 70763 46/// /0205 1//// 40283 90610 333 91206
BBXX 44059 14061 99368 70763 46/// /0403 1//// 40276 90610 333 91204
BBXX 44058 14061 99376 70763 46/// /0205 10071 40283 58009 90600 22200 00094 10301 70004 333 91206
BBXX 44057 14061 99395 70761 46/// /3506 1//// 40293 90610 333 91206
BBXX 44057 14061 99395 70761 46/// /3506 10036 40295 55000 90600 22200 00055 333 91206
BBXX 44059 14061 99368 70763 46/// /0103 1//// 90620 333 91204
BBXX 44058 14061 99376 70763 46/// /0205 1//// 90620 333 91206
BBXX 44057 14061 99395 70761 46/// /3505 1//// 90620 333 91206
BBXX 46004 14061 99509 71361 46/// /1307 10064 40158 57013 22200 00079 11206 70028 333 91208
BBXX CFO383 14064 99439 70602 47698 /0211 10058 2003/ 40187 5//// 700// 8/ // 22200 00082 10602 2//// 3//// 70010 80048 333 91017
BBXX 46184 14061 99539 71389 46/// /1808 10055 40142 57006 22200 00066 11305 70026 333 91209
BBXX 41009 14061 99285 70802 46/// /0510 10232 20164 40248 90620 22200 00249 10905 20604 300// 40904 70027 333 91212 555 11110 22116
BBXX 41010 14061 99289 70785 46/// /0510 10217 40248 90620 22200 00240 10805 20704 300// 40804 70027 333 91212 555 11101 22106
BBXX ZCDG4 14064 99097 70789 41498 80805 10264 20231 40100 58001 70322 887// 22264 00300 20301 307// 40602 5////
BBXX DFRZ 14063 99138 70584 41698 40914 10275 20255 40115 54000 70322 84444 22254 00280 20801 80260
BBXX ZCEE2 14064 99146 70694 41698 30426 10259 20227 40134 58013 70111 81470 22284 00280 20301 303// 40303 5//// 80237
BBXX VQKZ6 14063 99209 70630 41498 11409 10250 20212 40121 54000 70100 81100 22254 02235 20301 314// 40504 5//// 80225
BBXX PGQI 14063 99259 70362 41497 40920 10215 20185 40225 58011 70161 83140 22264 20603 309// 41004 80195
BBXX PENR 14063 99359 70419 41998 11225 10210 20151 40221 703// 80003 22224 20302 80175
BBXX 46181 14061 99538 71288 46/// /3401 10013 40191 52012 22200 00030 10300 70000 333 91202
BBXX 46132 14061 99497 71279 46/// /2102 10074 40167 52008 22200 00081 11306 70028 333 91203
BBXX 46205 14061 99542 71343 46/// /1602 10055 40169 52001 22200 00076 11105 70026 333 91203
BBXX 46206 14061 99488 71260 46/// /1207 10061 40189 52002 22200 00084 11404 70022 333 91208
BBXX H3WD 14063 99207 70849 41498 50919 10250 2017/ 40220 54000 7//11 852// 22233 0//// 20503 30808 40503 51005 6//// 80200 ICE /////
BBXX 44060 14061 99413 70721 46/// ///04 10037 40272 90615 22200 00110 333 91205 555 11041 22041
BBXX 44034 14061 99441 70681 46/30 /0210 10034 40254 57005 90604 22200 00089 10503 70013 333 91212 555 11119 22125
BBXX 44022 14061 99409 70737 46/// ///04 10050 21001 40282 90615 22200 00090 333 91206 555 11046 22046
BBXX 42085 14061 99179 70665 46/// /0303 10257 40117 90540 333 91204
BBXX 42085 14061 99179 70665 46/// /0303 10258 40115 90550 333 91204
BBXX 44033 14061 99441 70690 46/30 /0408 10041 40264 54000 90604 22200 00084 11101 70006 333 91209 555 11098 22103
BBXX 41052 14061 99183 70648 46/// /0101 10260 40111 90540 333 91202
BBXX 41052 14061 99183 70648 46/// /0401 10260 40110 58011 90600 22200 00278 333 91202
BBXX 42085 14061 99179 70665 46/// /0403 10257 40114 58011 90600 22200 00283 11001 70004 333 91204
BBXX 41052 14061 99183 70648 46/// /0401 10260 40111 90550 333 91202
BBXX 41036 14061 99342 70770 46/// ///// 10135 20020 40281 90620 22200 00189
BBXX PDGS 14064 99129 70887 41/98 80330 10271 40132 53020 70222 8//// 22264 00271 2////
AAXX 14064 42398 31995 09902 10176 20135 40175 71044 333 59003
AAXX 14064 94996 41240 72104 10196 20188 39947 40082 50001 78088 878// 90630
BBXX A8XD5 14064 99398 11359 41297 32611 10100 20061 40160 57/// 70311 82161 22213 04110 20302 323// 40302 80080
BBXX JPBN 14064 99326 11423 41/97 12518 10193 20074 40155 56013 70211 81231 22271 00207 1//04 20402 30105 40803 50803 70019
BBXX UINM 14061 99465 11451 41497 73007 11015 40160 56013 71572 8532/ 22213 00048 20402 33400 40604
AAXX 14064 94996 41240 72104 10196 20188 39947 40082 50001 78088 878// 90630
AAXX 14064 91723 NIL
AAXX 14064 91964 NIL
AAXX 14064 64551 32360 70000 10235 20228 30088 40117 8353/ 333 0//00 20220 50084 55/// 59004 83608 87360
AAXX 14061 31152 42998 80000 11350 21387 39844 40302 52006 84036
AAXX 14061 31163 NIL
AAXX 14061 31285 42999 21801 11228 21294 30141 40228 53006 80009
AAXX 14061 31561 42998 70203 11155 21215 30147 40176 56007 80001
AAXX 14061 31683 42999 60000 11172 21214 30095 40173 57010 80001
AAXX 14061 32010 41498 22906 11143 21149 30087 40138 53005 70283 82900 333 91008 91112
BBXX 44137 14061 99423 70620 46/// /0212 10086 40177 57005 22200 00114 10504 70019 333 91214
BBXX KS088 14064 99267 70801 43/// /0701 10233 40226 22200 06237
BBXX KS098 14064 99446 71240 43/// /3101 10043 40191 22200 06000
BBXX KS044 14064 99274 31531 43/// /1011 10239 40117 22252 06258
BBXX KS094 14064 99133 70596 43/// /0804 10251 40111 22200 06272
AAXX 14061 40009 32965 30000 10030 21018 40236 53004 80002 333 20004 30/// 83070
AAXX 14061 40016 32970 32801 10004 21007 40283 51004 80001 333 21008 30/// 55089 70000 83070
AAXX 14061 40022 32965 60303 10118 20025 40207 52009 80002 222// 20000 333 20108 30/// 86070
AAXX 14061 40030 32970 60000 10028 20012 40243 53006 80008 333 20027 31/// 50084 55081 86270
AAXX 14061 40039 32970 40000 10010 20001 40251 51007 84050 333 20000 30/// 55075 70000 84360
AAXX 14061 40066 32970 50603 10100 21003 40197 58001 80008 333 20096 30/// 85070
AAXX 14061 40072 32570 60000 10018 21076 40270 53004 83550 333 20000 30/// 83630 86360
AAXX 14061 40083 32570 40000 10038 21028 48524 51001 82205 333 20030 30/// 82826 84270
BBXX SHIP 14064 99318 71604 41/96 81727 10210 20195 40174 56005 70202 8//// 90555 22264 00200 2//// 3//// 4//// 5//// 80200
BBXX 44137 14061 99423 70620 46/// /0212 10086 40177 57005 22200 00114 10504 70019 333 91214
AAXX 14064 64551 32360 70000 10235 20228 30088 40117 8353/ 333 0//00 20220 50084 55/// 59004 83608 87360
AAXX 14061 11155 32689 71901 10013 21015 38315 48444 57004 8157/ 333 10037 20010 3/101 44027 55300 81640 87358
BBXX 44039 14061 99411 70727 46/// /3505 10059 21001 40283 90553 22200 00103 1//00 70002 333 91207
AAXX 14064 71277 46/// /2505 11031 21035 6///1 333 10000 21043 7////
AAXX 14064 71963 16/// /3013 11279 21305 39682 40100 51022 60001 333 11048 21279 70000 555 33236 40183
AAXX 14064 71490 16/// /3029 11277 21301 39722 40054 51015 60001 333 11059 21278 70000 555 33246 40183
AAXX 14064 71923 16/// ///11 11234 21261 39630 40082 51025 60001 333 11039 21236 70000
AAXX 14064 71592 16/// /0822 11188 21245 39951 49964 58010 60001 333 11187 21283 7////
AAXX 14064 71923 16/// ///11 11234 21261 39630 40082 51025 60001 333 11039 21236 70000
AAXX 14064 71592 16/// /0822 11188 21245 39951 49964 58010 60001 333 11187 21283 7////
AAXX 14064 71277 46/// /2505 11031 21035 6///1 333 10000 21043 7////
AAXX 14064 71490 16/// /3029 11277 21301 39722 40054 51015 60001 333 11059 21278 70000 555 33246 40183
AAXX 14064 71963 16/// /3013 11279 21305 39682 40100 51022 60001 333 11048 21279 70000 555 33236 40183
AAXX 14064 42361 31994 02302 10200 20138 40192 71044 333 59003
AAXX 14061 48806 32960 02702 10212 20093 39395 40161 57030 333 59002
AAXX 14061 48808 31470 71401 10203 20085 39902 40187 57035 70241 878// 333 59003 81894 87696
AAXX 14061 48830 32770 73602 10201 20067 39871 40178 57027 875// 333 59004 87697
BBXX 44138 14061 99443 70536 46/// /0806 10076 40167 57033 22200 00082 10903 70014 333 91207
BBXX 44138 14061 99443 70536 46/// /0806 10076 40167 57033 22200 00082 10903 70014 333 91207
AAXX 14061 48845 32798 83202 10214 20120 30171 40178 57024 885// 333 59011 88697
AAXX 14061 48820 32798 10501 10220 20110 30170 40187 57028 81500 333 59008 81697
AAXX 14061 48855 32560 82301 10219 20186 30144 40152 58026 888// 333 59015 83895 88697
AAXX 14061 48848 32565 82903 10203 20147 30160 40168 57025 888// 333 59015 82895 88697
AAXX 14061 48840 32498 80000 10204 20120 30170 40176 57023 888// 333 59006 83894 88696
AAXX 14061 48826 31556 60501 10216 20140 30041 40177 58028 71022 888// 333 59007 82895 86697
AAXX 14061 48839 32497 83607 10201 20151 30110 40176 57024 888// 222// 00209 2//02 333 59011 82894 88696
AAXX 14061 48823 32498 83201 10212 20118 30177 40180 57025 888// 333 59006 82894 88696
AAXX 14061 48803 32670 21402 10212 20124 30067 40181 57034 82500 333 59008 82696
AAXX 14061 80425 11460 30502 10260 20257 30077 40102 69941 70252 83400 31/// 56900 58007 83613 555 10109
AAXX 14061 48852 01560 80000 10184 20181 30153 40163 58026 60033 76166 888// 333 59013 60021 86895 88697 96160
AAXX 14061 48892 12598 70504 10310 20270 30089 40094 57020 60283 84908 333 58004 84995 87299
AAXX 14061 48870 01474 83202 10246 20203 30117 40124 58025 69933 70262 888// 333 59009 69931 83894 88696
AAXX 14061 48887 12770 70505 10306 20211 30091 40097 58017 69913 875// 333 59006 87697
AAXX 14061 48920 12598 60505 10301 20260 30083 40086 57021 60173 83208 222// 00289 2//01 333 58012 83895 8629 9
AAXX 14061 48877 01570 83201 10244 20215 30113 40118 58024 60183 70362 8422/ 333 58003 69991 84895 88499
AAXX 14064 42706 31995 03401 10220 20121 40174 70510 333 58009
AAXX 14061 48916 32498 70203 10269 20219 30055 40102 58010 878// 333 59011 82894 87696
AAXX 14061 48919 12598 70905 10285 20243 30071 40093 58018 60023 82908 22200 02276 2//02 333 58013 81894 82995 87299
AAXX 14061 48917 32598 60505 10300 20200 30100 40106 57010 82208 222// 00300 2//00 333 59009 82895 86299
AAXX 14061 48918 12470 80204 10266 20234 30089 40100 58017 60013 889// 222// 00276 2//01 333 59007 81894 8299 5 86696
AAXX 14061 48914 32498 70202 10290 20219 30096 40098 57017 878// 333 59011 83894 87696
AAXX 14061 48900 32497 50404 10306 20212 30082 40092 57019 85800 333 59005 83894 83696
BBXX 46004 14061 99509 71361 46/// /1307 10064 40158 57013 22200 00079 11206 70028 333 91208
BBXX 46036 14061 99484 71339 46/// /0908 10073 40148 57012 22200 00084 11206 70030 333 91210
BBXX 46181 14061 99538 71288 46/// /3401 10013 40191 52012 22200 00030 10300 70000 333 91202
BBXX 46183 14061 99536 71311 46/// /3000 10049 40175 52002 22200 00077 10802 70009 333 91201
BBXX 46185 14061 99524 71298 46/// /0204 10057 40177 52004 22200 00071 11403 70014 333 91205
BBXX 46204 14061 99514 71288 46/// /3504 10064 40174 52003 22200 00082 11405 70023 333 91205
BBXX 46205 14061 99542 71343 46/// /1602 10055 40169 52001 22200 00076 11105 70026 333 91203
BBXX 46206 14061 99488 71260 46/// /1207 10061 40189 52002 22200 00084 11404 70022 333 91208
BBXX 4XFX 14064 99469 71408 41597 72410 00/// 10070 20050 40130 57015 70312 83/// 22274 04/// 20306 327// 40712 5//// 6//// 80060 ICE /////
BBXX C6UB2 14064 99484 71273 41499 51812 10090 20070 40190 52020 70121 8413/ 22223 00090 20201 318// 40402 5//// 6//// 80080 ICE /////
BBXX KS098 14064 99446 71240 43/// /3101 10043 40191 22200 06000
BBXX SHIP 14064 99402 71499 41698 52812 10140 20105 40214 51020 70122 854// 22233 00160 80120
BBXX SHIP 14064 99354 71470 41597 62315 10180 20165 40236 52028 70222 8//// 90552 22224 00175 1//// 2//// 3//// 4//// 5//// 6//// 80170
BBXX WDBH 14064 99525 71360 41798 31612 1//// 2//// 40139 54000 7//00 832// 22253 0//// 2//// 3//// 42505 5//// 6//// ICE /////
AAXX 14064 67002 32581 33206 10298 20236 30095 40129 82802 333 20239 58000 81822 92408
AAXX 14064 67009 NIL
AAXX 14064 67012 NIL
AAXX 14064 67025 NIL
AAXX 14064 67027 31582 62208 10300 20248 30090 40111 52008 70192 82808 333 02300 10320 20267 50314 55106 81820 85273 555 82640
AAXX 14064 67045 NIL
AAXX 14064 67072 32582 22812 10282 20230 30132 40135 51016 82202 333 02000 10300 20240 50324 55/// 82820 92428 555 81073
AAXX 14064 67073 32582 3//// 10304 20251 30090 40116 51011 81832 333 0//00 10338 20263 50//4 55/// 81820
AAXX 14064 67083 32575 30000 10233 20174 38762 48538 52024 83800 333 00500 20176 50324 55072 83820
AAXX 14064 67095 32481 42006 10297 20214 30123 40129 51014 84802 333 02000 10317 20204 50304 55/// 84817 555 81633 81073
AAXX 14064 67113 NIL
AAXX 14064 67117 NIL
AAXX 14064 67137 11470 30000 10234 20194 38901 48506 51007 60104 71011 83200 333 0//29 10292 20164 50134 55/// 83817
AAXX 14064 67143 32582 1//// 10/// 20/// 30122 40129 52012 81231 333 0//00 10/// 20/// 50//4 55/// 81820 92438 555 81360 81073
AAXX 14064 67152 32982 1//// 10270 20221 39203 48521 52012 80002 333 02000 10325 20203 50704 55/// 81073
AAXX 14064 67157 12580 6//// 10/// 20/// 30142 40149 52003 69944 86802 333 0//19 10/// 20/// 50//4 55/// 83820 83073 555 82640
AAXX 14064 67161 NIL
AAXX 14064 67197 32582 51606 10270 20226 30112 40122 51008 85800 333 01600 10312 20234 50314 55100 83820 83633
AAXX 14064 67017 NIL
AAXX 14064 67020 11580 60602 10286 20247 30087 40114 51002 60034 70192 85805 333 02300 10358 20230 50434 55/// 83820 84640 555 82273
AAXX 14064 67023 32582 61412 10316 20233 30098 40104 51002 81102 333 01900 10320 20203 50604 55/// 81820 86075
AAXX 14064 67037 32582 6//// 10/// 20/// 30065 40106 5/012 85202 333 0//00 10/// 20/// 50//4 55/// 85820 555 82073
AAXX 14064 67067 31565 1//// 10245 20175 39261 48/// 51014 7100/ 81200 333 0//00 10319 20177 50594 55/// 81820
AAXX 14064 67107 NIL
AAXX 14064 67131 32982 12006 10/// 20/// 30090 40095 51013 80002 333 0//00 10/// 20/// 50//4 55/// 81073
AAXX 14061 01212 16/// /1112 10069 21017 39610 49626 58027 60004 333 20060 70000 91115
AAXX 14064 89016 46/// /1011 29065 39368 4//// 5////
AAXX 14064 89003 46/89 /3222 11113 29062 38958 4//// 5////
AAXX 14064 64700 32960 20406 10135 21049 39798 40144 80002 333 00700 20130 50761 ///// 55103 58001 82075
AAXX 14064 64701 NIL 64702 NIL
AAXX 14064 64705 33960 03606 10139 20015 3//// 4//// 90600 333 0//00 2//// 50604 55/// ///// 5////
AAXX 14064 64706 33960 32204 10146 20107 39652 40132 80002 333 01000 20129 51114 ///// 55101 58005 83075
AAXX 14064 64708 33960 30000 10153 21002 3//// 4//// 80002 90600 333 0//00 20140 51194 ///// 55/// 5//// 83075
AAXX 14064 64709 31958 33606 10170 21001 3//// 4//// 705// 80002 90600 333 0//00 20132 5//// ///// 55/// 5//// 83075
AAXX 14064 64710 NIL
AAXX 14064 64713 NIL
AAXX 14064 64722 33960 10000 10170 20074 3//// 4//// 80002 90600 333 0//00 20110 50504 55/// 5//// 81075
AAXX 14064 64750 32960 50000 10170 20059 39704 40118 80002 90558 333 01100 20145 50761 ///// 55095 58003 85075
AAXX 14064 64751 33960 43604 10134 21030 3//// 4//// 83032 90600 333 0//00 20117 50704 5//// 55/// 5//// 83365
AAXX 14064 64753 33960 00410 10130 21051 3//// 4//// 90552 333 0//00 20120 51024 ///// 55/// 5////
AAXX 14064 64754 NIL
AAXX 14064 64756 33962 41004 10185 200001 39514 4//// 80002 90600 333 0//00 20155 5//// ///// 55/// 59001 84075
AAXX 14064 64757 NIL
AAXX 14064 64758 NIL
AAXX 14064 64761 NIL
AAXX 14064 42559 32996 00902 10222 20070 40167 333 59007
AAXX 14064 42667 31996 10904 10210 20101 39584 40177 70500 80001 333 59003 81075
AAXX 14064 42675 31996 03603 10202 20074 40184 70500 333 59001
AAXX 14064 42933 32997 01102 10264 20099 40167 333 58004
AAXX 14061 98134 11450 80402 10234 20224 39941 40132 5//// 60191 76066 8552/ 333 56999 85617 88456
AAXX 14061 98223 31562 23605 10312 20258 40086 57026 70544 81206 333 56999 81820
AAXX 14061 98232 31570 50402 10275 20244 40115 57019 70242 82270 222// 20100 333 56999 82820 83358
AAXX 14061 98325 31462 33603 10320 20251 40095 58020 70544 81201 333 56999 81817
AAXX 14061 98328 31460 41602 10238 20199 38517 40077 58018 74044 84201 333 56999 84814
AAXX 14061 98330 31470 60803 10327 20275 30068 40100 57022 71744 84330 333 56999 84918
AAXX 14061 98336 32475 40404 10292 20266 30110 40115 58022 82271 333 56199 82818
AAXX 14061 98429 11560 70204 10285 20254 40098 57020 69951 78044 84970 333 56999 81922 83823 86460
AAXX 14061 98430 11558 53601 10278 20252 40090 57011 60011 70596 82871 333 56999 82620 83358
AAXX 14061 98431 31468 50901 10295 20259 30045 40092 58020 70544 82231 333 56999 82818 83359
AAXX 14061 98440 11465 50406 10290 20264 30096 57018 60111 71564 84231 333 56299 84815
AAXX 14061 98444 11465 30404 10312 20264 30065 40084 58021 69921 72582 83302 333 56999 81918 82820
AAXX 14061 98526 32570 13601 10325 20280 40089 57026 81200 33301 56999 81820 98315
AAXX 14061 98531 31570 62401 10314 20268 30083 40087 58016 70544 82232 333 56599 82820 83358
AAXX 14061 98536 31470 20402 10282 20241 39893 40091 58023 70544 82260 222// 20000 333 56199 82818
AAXX 14061 98543 32480 51202 10326 20262 30063 40074 57023 82201 333 56399 82818 84075
AAXX 14061 98550 31460 61601 10294 20249 40079 57016 71522 84972 333 56999 82915 84357
AAXX 14061 98618 32480 40904 10308 20252 40086 58015 83901 333 56999 82917 82820
AAXX 14061 98630 32575 30202 10314 20265 40125 58013 82201 222// 2//01 333 56199 82820
AAXX 14061 98637 NIL
AAXX 14061 98646 32560 40404 10300 20261 30076 40104 57016 81201 333 56999 81820 84080
AAXX 14061 98653 11460 81602 10320 20262 30040 40085 57010 70544 82271 333 56999 82818 83358
AAXX 14061 98741 11470 60402 10304 20256 40076 57009 69981 70584 82902 333 56199 82917 86075
AAXX 14061 98747 31462 33603 10311 20259 39865 40068 57023 70544 83201 333 56999 82818
AAXX 14061 98753 31465 70202 10298 20256 40064 57035 70544 82278 333 56999 82816 85359 86279
AAXX 14061 98755 32575 53602 10302 20262 40073 58018 82905 333 56999 82920 84080
AAXX 14061 98836 31460 71802 10321 20257 40078 57020 70544 82906 333 56999 82918 85081
AAXX 14064 67969 11980 70401 10208 20190 3//// 48/// 60214 72162 8707/ 333 20190 5//// 87459
AAXX 14063 67965 11580 71104 10194 20178 38705 48529 60474 70262 8158/ 333 20172 81620 87360
AAXX 14064 67965 11580 71104 10194 20178 38705 48529 60474 70262 8158/ 333 20172 58024 81620 87360
AAXX 14064 67855 11970 70602 10226 20196 3//// 48/// 60014 70522 82031 333 20198 5//// 82360 87080
AAXX 14064 67971 11475 83403 10255 20194 3//// 48/// 60214 71596 8657/ 333 20188 5//// 86610 88460
AAXX 14064 94210 35/// /2511 10330 30039 40044 57018
AAXX 14064 94289 46/// /1007 10298 30043 40050 56012 90615
AAXX 14064 94379 46/// /1218 10269 30078 40087 56003 90626
AAXX 14064 95287 41/98 70603 10310 20237 3//// 4//// 70222 83398
AAXX 14064 94290 46/// /0902 10311 30046 40055 56011 90624
AAXX 14064 94290 46/// /0902 10311 30046 40055 56011 90624
BBXX 44040 14061 99410 70736 46/// /3605 10054 20004 40289 90619 22200 1//00 70002 333 91206 555 11067 22082
BBXX 44056 14061 99362 70757 46/// ///// 1//// 90550 22200 00118 11103 21002 309// 41102 70014
AAXX 14061 37470 32998 03302 10082 20008 30329 40306 52007 333 20048
AAXX 14061 37472 32597 71203 10051 20017 30327 40304 52003 82581 333 21003
AAXX 14061 38111 32997 20703 11021 21064 30361 40331 52006 82030 333 21040
AAXX 14061 38750 32997 00901 10052 20027 30342 40313 53002 333 20023
BBXX SHIP 14064 99228 11798 41/97 23407 10253 20190 40159 52008 70200 8//// 22200 04257
AAXX 14064 89667 46/// /0506 11036 29067 39809 4//// 5//// 90620
AAXX 14064 89667 46/// /0406 11033 39809 4//// 5//// 90610
AAXX 14064 89667 46/// /0405 11029 39809 4//// 5////
AAXX 14064 89667 46/// /0506 11036 29068 39809 4//// 5//// 90630
AAXX 1406/ 89327 46/// ///// 11045 39536 4//// 5//// 90620
AAXX 1406/ 89327 46/// ///// 11045 39536 4//// 5//// 90630
AAXX 1406/ 89828 46/// ///// 11219 36432 4//// 5//// 90620
AAXX 1406/ 89828 46/// ///// 11219 36432 4//// 5//// 90630
AAXX 1406/ 89108 46/// ///// 11240 36838 4//// 5//// 90620
AAXX 1406/ 89108 46/// ///// 11240 36838 4//// 5//// 90630
AAXX 1406/ 89879 46/// ///// 10006 39744 4//// 5//// 90620
AAXX 1406/ 89872 46/// ///// 11034 39759 4//// 5//// 90620
AAXX 1406/ 89869 46/// ///// 11053 39740 4//// 5//// 90620
AAXX 1406/ 89866 46/// ///// 10000 39724 4//// 5//// 90630
AAXX 1406/ 89329 46/// ///// 11140 38658 4//// 5//// 90620
AAXX 1406/ 89329 46/// ///// 11145 38657 4//// 5//// 90630
AAXX 1406/ 89799 46/// ///// 11281 4//// 5//// 90620
AAXX 1406/ 89868 46/// ///// 11040 39747 4//// 5//// 90620
AAXX 1406/ 89332 46/// ///// 11091 39124 4//// 5//// 90620
AAXX 1406/ 89769 46/// ///// 11034 39783 4//// 5//// 90620
AAXX 1406/ 89769 46/// ///// 11031 39783 4//// 5//// 90630
AAXX 1406/ 89314 46/// ///// 11175 38123 4//// 5//// 90620
AAXX 1406/ 89314 46/// ///// 11176 38122 4//// 5//// 90630
AAXX 14061 55228 32780 13201 11033 21330 36024 57007 81100 333 00151 21172
AAXX 14061 55578 32980 02703 10093 21339 36355 57019 333 00203 21090
AAXX 14061 55664 32980 02008 10066 21305 35991 57016 333 00152 21115
AAXX 14061 55773 31970 02006 10055 21130 35987 57019 70040 333 00002 21133
AAXX 14061 56116 32680 11802 10005 21143 36328 57024 81100 333 00102 21116
AAXX 14061 56137 32980 12501 10073 21176 36773 57037 80002 333 00002 21095
AAXX 14061 56172 32680 22904 10067 21081 37332 57036 82100 333 00100 21058
AAXX 14061 56247 32980 00201 10102 21106 37413 57046 333 00001 21021
AAXX 14061 56312 32680 11603 10077 21101 37076 57031 81100 333 00001 21052
AAXX 14061 56462 11580 61403 10063 21066 37116 57028 69901 70080 86400 333 00253 21002
AAXX 14061 56651 32680 62903 10092 21047 37639 57020 86400 333 00001 21034
AAXX 14061 56691 11470 83604 11009 21028 37799 57017 69901 70076 886// 333 00461 21029 93429
AAXX 14061 56985 32561 61803 10160 20082 38717 40160 57026 86400 333 00000 20104
AAXX 14061 57633 11463 80702 10059 20031 39480 40278 57018 60041 76066 8772/ 333 00354 20059
AAXX 14061 57902 11458 80902 10058 20058 38668 40241 57017 60051 76060 887// 333 00252 20057
AAXX 14061 55279 32980 03202 11035 21280 35697 57009 333 00253 21129
AAXX 14061 55472 32980 02712 11002 21306 35730 57009 333 00251 21116 91120 91527
AAXX 14061 55696 32980 02001 10019 21113 36320 57035 333 00100 21119
AAXX 14061 56079 32780 32004 11011 21150 36669 57027 83100 333 00254 21111
AAXX 14061 56106 32780 13602 11004 21264 36200 57024 81100 333 00202 21151
AAXX 14061 56257 32980 02501 10016 21126 36254 57028 333 00152 21111
AAXX 14061 56374 11580 31403 10005 21077 37437 57029 69921 70080 82402 333 00454 21045
AAXX 14061 56385 11/00 93602 11080 21083 37023 57015 69921 77074 333 00457 21103
AAXX 14061 56954 32580 52502 10205 20122 40151 57027 85200 333 00000 20125
AAXX 14061 56966 11765 72902 10188 20106 40167 57026 69901 70080 874// 333 00000 20137
AAXX 14061 57237 32965 81601 10115 21030 40262 57021 8807/ 333 20048
AAXX 14061 57306 32962 80000 10111 20043 40266 57024 8807/ 333 20067
AAXX 14061 57604 11730 81603 10078 20075 40282 57027 60021 76066 885// 333 20063
AAXX 14061 57707 11470 83402 10022 21007 38547 57018 69911 70070 886// 333 00553 20004
AAXX 14061 57832 11463 80402 10056 20033 39514 40270 57017 69971 76060 885// 333 00354 20047
AAXX 14064 68183 11670 82103 10225 20185 39411 48507 52011 69934 72166 8252/ 333 20213 91004 555 10324 20003 91012
AAXX 1406/ 48969 NIL
AAXX 1406/ 48962 NIL
AAXX 1406/ 48990 NIL
AAXX 1406/ 48986 NIL
AAXX 1406/ 48995 NIL
AAXX 1406/ 48967 NIL
AAXX 1406/ 48992 NIL
AAXX 1406/ 48965 NIL
AAXX 1406/ 48985 NIL
AAXX 1406/ 48970 NIL
AAXX 1406/ 48991 NIL
AAXX 1406/ 48964 NIL
AAXX 1406/ 48997 NIL
AAXX 1406/ 48968 NIL
AAXX 1406/ 48973 NIL
AAXX 1406/ 48966 NIL
AAXX 1406/ 48983 NIL
AAXX 1406/ 48972 NIL
AAXX 1406/ 48998 NIL
AAXX 1406/ 48993 NIL
AAXX 1406/ 48971 NIL
AAXX 1406/ 48963 NIL
AAXX 1406/ 48987 NIL
AAXX 14061 80425 11460 30502 10260 20257 30077 40102 69941 70252 83400 31/// 56900 58007 83613 555 10109
AAXX 14061 0000008101SAVN21 SVMR 140600 RRA METAR SVMN 140600Z 05004KT 9999 SCT013 26/26 Q1010 REDZ
AAXX 14064 16429 11462 71302 10114 20106 30229 40240 53007 69902 72161 87800 333 20094 31/// 55075 2//// 84818 86640
AAXX 14064 67951 12580 70306 10205 20177 3//// 48/// 60104 81138 333 20167 5//// 81820 83360 87280
AAXX 14064 67983 11360 72701 10230 20204 38879 48509 69914 71792 83773 333 20199 59001 81957 83708 87458
AAXX 14063 67983 11860 72701 10230 20204 38879 48509 69914 71792 83773 333 20199 81957 83708 87458
AAXX 14060 67423 32582 63303 10275 20195 39518 48536 83230 333 20225 5//// 55/// 59011 82825 819// 86359 555 10295 7//92
AAXX 14064 71406 16/// /2908 11072 21127 30264 40274 55004 60001 333 11071 21090 70000 555 33022 40151
AAXX 14064 71418 46/// /0324 10001 21022 30202 40235 52005 6///1 333 10044 20001 7//// 555 30329 40032
AAXX 14064 71981 16/// /2706 11012 21066 60001 333 10002 21145 70000
AAXX 14064 71982 16/// /2609 11010 21067 60001 333 11010 21184 70000
AAXX 14064 71986 16/// /0000 11122 21134 60001 333 11082 21163 70004
AAXX 14064 71990 17/// /2106 11119 21133 38474 40093 53015 69931 7//4/ 333 11061 21127 70012 555 10010 20012 32318 40101
AAXX 14064 71354 16/// /2509 11039 21077 60001 333 11014 21102 70004 555 32018 40081
AAXX 14064 71824 46/// /1801 11132 21142 6///1 333 11039 21178 7////
AAXX 14064 71048 16/// /2102 11141 21157 60001 333 11057 21166 70000
AAXX 14064 61017 NIL
AAXX 14064 61024 32960 51008 10120 21063 39586 40163 80002 333 06000 20095 51031 55/// 59005 85080
AAXX 14064 61036 NIL
AAXX 14064 61043 NIL
AAXX 14064 61045 NIL
AAXX 14064 61049 NIL
AAXX 14064 61052 NIL
AAXX 14064 61075 NIL
AAXX 14064 61080 NIL
AAXX 14064 61090 NIL
AAXX 14064 61091 NIL
AAXX 14064 61096 NIL
AAXX 14064 61099 NIL
BBXX 42360 14061 99267 70905 46/// /0808 10230 90600 22200 00243 10703 70016 333 91211
AAXX 14064 89528 46/// /3618 11183 36671 4//// 5////
AAXX 14061 48826 31556 60501 10216 20140 30041 40177 58028 71022 888// 333 59007 82895 86697
AAXX 14061 48839 32497 83607 10201 20151 30110 40176 57024 888// 222// 00209 2//02 333 59011 82894 88696
AAXX 14064 16008 11558 81907 11030 21077 38496 48457 58004 60002 77011 8372/ 333 21034 43009 55/// 2//// 83720 88458 92810 93197
AAXX 14061 48845 32798 83202 10214 20120 30171 40178 57024 885// 333 59011 88697
AAXX 14064 42867 31996 01403 10244 20078 40170 70500 333 58004
AAXX 14064 89657 46/// /3105 11025 20021 49860 52004
AAXX 14064 61230 32960 00000 10165 20006 39835 40104 333 0//00 20165 51104 55086 58008
AAXX 14061 48870 01474 83202 10246 20203 30117 40124 58025 69933 70262 888// 333 59009 69931 83894 88696
AAXX 14061 48887 12770 70505 10306 20211 30091 40097 58017 69913 875// 333 59006 87697
AAXX 14061 48920 12598 60505 10301 20260 30083 40086 57021 60173 83208 222// 00289 2//01 333 58012 83895 86299
AAXX 14061 48877 01570 83201 10244 20215 30113 40118 58024 60183 70362 8422/ 333 58003 69991 84895 88499
BBXX MGSM3 14064 99134 31525 41498 80409 10300 20230 40030 57015 70322 88480 22243 04280 20200 31010 40701 50701 80250
BBXX VQHO7 14064 99010 70421 41498 20814 10260 20231 40076 54000 70200 812// 22274 00275 29903 310// 40404 5//// 80240
BBXX ZCDP8 14063 99156 70618 41598 30715 10270 20210 40120 52012 70211 831// 22274 00270 20302 310// 40402 5//// 80230
BBXX ZSAF 14064 99515 30000 41397 83434 10046 20033 49838 57089 75155 886// 22243 04023 2//// 334// 40812 5////
BBXX 41053 14061 99185 70661 46/// /2203 10249 40112 90630 333 91204
BBXX 41053 14061 99185 70661 46/// /2203 10248 40114 90620 333 91204
BBXX 41053 14061 99185 70661 46/// /2102 10246 40116 90610 333 91204
BBXX 42085 14061 99179 70665 46/// /0303 10256 40110 90630 333 91203
BBXX 42085 14061 99179 70665 46/// /0302 10256 40112 90620 333 91203
BBXX 42085 14061 99179 70665 46/// /0302 10256 40113 90610 333 91203
BBXX 44024 14061 99423 70659 46/30 /0209 10060 40210 50000 90604 22200 00089 10604 70018 333 91211 555 11112 22118
AAXX 14061 48917 32598 60505 10300 20200 30100 40106 57010 82208 222// 00300 2//00 333 59009 82895 86299
AAXX 14061 48918 12470 80204 10266 20234 30089 40100 58017 60013 889// 222// 00276 2//01 333 59007 81894 82995 86696
AAXX 14061 48914 32498 70202 10290 20219 30096 40098 57017 878// 333 59011 83894 87696
AAXX 14061 48900 32497 50404 10306 20212 30082 40092 57019 85800 333 59005 83894 83696
BBXX WRAH 14064 99303 10324 41396 73509 10150 2//// 40168 54/// 7//22 84427 22272 00192 20201 3//// 4//// 5//// 6//// 8//// ICE /////
BBXX WCZ5238 14064 99027 71548 41998 01314 10260 20217 40114 54000 70200 80/// 22273 00250 20302 328// 40802 5//// 6//// 80230 ICE /////
BBXX WCZ5238 14064 99027 71548 41998 01314 10260 20217 40114 54000 70200 80/// 22273 00250 20302 328// 40802 5//// 6//// 80230 ICE /////
BBXX KS044 14064 99274 31531 43/// /1011 10239 40117 22252 06258
BBXX PHOB 14064 99135 10426 41998 01627 10270 20213 40141 51028 70000 80000 22234 00250 20805 3//// 4//// 5//// 80230
BBXX SHIP 14064 99228 11798 41/97 23407 10253 20190 40159 52008 70200 8//// 22200 04257
BBXX 42360 14061 99267 70905 46/// /0808 10230 90600 22200 00243 10703 70016 333 91211
BBXX 44056 14061 99362 70757 46/// ///// 1//// 90550 22200 00118 11103 21002 309// 41102 70014
BBXX 44040 14061 99410 70736 46/// /3605 10054 20004 40289 90619 22200 1//00 70002 333 91206 555 11067 22082
BBXX 44138 14061 99443 70536 46/// /0806 10076 40167 57033 22200 00082 10903 70014 333 91207
BBXX KS094 14064 99133 70596 43/// /0804 10251 40111 22200 06272
BBXX KS088 14064 99267 70801 43/// /0701 10233 40226 22200 06237
BBXX KS098 14064 99446 71240 43/// /3101 10043 40191 22200 06000
BBXX 44137 14061 99423 70620 46/// /0212 10086 40177 57005 22200 00114 10504 70019 333 91214
BBXX 46224 14061 99332 71175 46/// ///// 1//// 90606 22200 00154 11302 21001 322// 41301 70008
BBXX 46219 14061 99332 71199 46/// ///// 1//// 90628 22200 00136 11105 21003 331// 41103 70023
BBXX C6TQ6 14064 99179 70876 41797 20524 10270 20228 40170 52020 70111 82967 22242 00270 20306 33132 40206 50204 6//// 80240 ICE /////
BBXX V7HC6 14064 99273 70907 41/// /0298 10210 20195 40236 57006 700// 8//// 222// 00222 2//// 3//// 4//// 5//// 6//// 80200 ICE /////
BBXX 46238 14061 99334 71195 46/// ///// 1//// 90620 22200 00150 11303 20903 326// 41302 70016
BBXX 44022 14061 99409 70737 46/// ///04 10049 20000 40281 90630 22200 00090 333 91205 555 11041 22041
BBXX 44060 14061 99413 70721 46/// ///05 10037 40273 90630 22200 00102 333 91205 555 11046 22046
BBXX 44039 14061 99411 70727 46/// /3505 10060 21006 40284 90600 22200 00103 1//00 70002 333 91206
BBXX 44098 14061 99428 70702 46/// ///// 1//// 90607 22200 00092 11003 21002 313// 41101 70013
BBXX WRAH 14064 99303 10324 41396 73509 10150 2//// 40168 54/// 7//22 84427 22272 00192 20201 3//// 4//// 5//// 6//// 8//// ICE /////
BBXX A8RL4 14064 99309 70145 41/98 /0112 10190 40270 54000 7//// 8//// 22244 00270 299// 334// 40601
BBXX PEBT 14063 99375 10056 41598 22519 10170 20147 40220 54000 7//00 82500 22263 02147 20402 329// 40603 5//// 80156
AAXX 14061 22217 12584 71705 10004 21010 39971 40003 54000 69992 87500 333 21006 43019 87632 91009 91110
AAXX 14061 47008 42570 63204 10036 21076 30105 40159 57011 82550
AAXX 14061 47014 12650 23601 11060 21151 39824 40240 52012 60011 82500
AAXX 14061 47016 11770 60000 11033 21084 39318 40205 57024 69901 77177 86010
AAXX 14061 47020 11560 80000 11022 21040 39855 40243 53004 60011 77177 8802/
AAXX 14061 47025 42968 01803 10085 21005 30115 40144 57026
AAXX 14061 47035 42965 03202 11006 21027 30233 40242 57002
AAXX 14061 47041 42970 12307 10067 21058 30126 40153 57031 80002
AAXX 14061 47058 11558 83202 10004 21002 30183 40231 57003 69931 71072 8652/
AAXX 14061 47069 41656 83202 10055 20000 30116 40216 57010 71022 885//
AAXX 14061 47003 42580 43207 10028 21069 30153 40157 57007 83520
AAXX 14061 47005 11680 31804 11106 21142 38558 53006 69961 70174 83200
AAXX 14061 47022 42475 23205 11022 21108 38787 57013 82500
AAXX 14061 47028 42969 03602 10008 21102 30126 40222 58007
AAXX 14061 47031 42570 32704 11032 21067 38890 57007 83500
AAXX 14061 47037 42970 00000 10031 21034 30099 40223 58016
AAXX 14061 47039 12560 80000 10009 21027 30022 40216 57019 69911 885//
AAXX 14061 47046 41950 02308 10073 21041 30124 40146 57024 71022
AAXX 14061 47050 42965 42501 10013 21029 30179 40214 57018 80002
AAXX 14061 47052 11560 80000 10002 21015 39866 40210 57020 60011 77177 8802/
AAXX 14061 47060 11550 82702 10007 21001 30168 40227 57004 60011 71062 885//
AAXX 14061 47061 42980 42305 10077 20004 30136 40179 57018 83030
AAXX 14061 47065 11540 83202 10006 21002 30165 40231 57002 69921 75855 887//
AAXX 14061 47067 11560 80000 11010 21023 30117 40241 57020 69931 77077 8802/
AAXX 14061 47068 41540 83604 10031 20002 30181 40216 57005 71022 885//
AAXX 14061 47070 12960 80000 10043 21005 30133 40222 57016 69901 8803/
BBXX DSNX5 14023 99155 31525 43/// 33618 10320 40130 222// 2//03
BBXX DSNX5 14023 99155 31525 43/// 33618 10320 40130 222// 2//03
AAXX 14064 47407 12/80 71907 10007 21066 39988 40164 56017 60001 86202
AAXX 14063 63602 32570 72907 10220 20166 38814 81231 333 20175 58013 81823 87362 555 10184
AAXX 14063 63631 32670 71303 20/// 48/// 81105 333 20145 81630 86275 555 10///
AAXX 14063 53554 12459 61792 19189 29164 48/// 60394 8597/ 333 20/// 85817 81918 86080 555 10180
BBXX BAREU56 14064 99444 10089 46/// ///// 40151 22200
BBXX 61001 14064 99434 10078 46/// /2213 10146 20109 40144 54000 22200 00154 10603 70013
BBXX BATFR21 14064 99433 10053 46/// /0711 20215 40143 57003 22283
BBXX BATFR31 14064 99432 10053 46/// /1114 10140 40141 51001 22284 00159
BBXX BATEU09 14064 99428 10058 46/// /2208 10152 20110 40145 52010 22241 00174
BBXX BATFR22 14064 99427 10095 46/// /2506 10149 40161 51004 22262 00175
BBXX BATFR50 14064 99424 10066 46/// /2407 10147 20115 40150 55004 22272 00147
BBXX SHIP 14064 99424 10070 41597 72430 10155 20113 40150 57020 70200 84860 22253 00160 20302 80130 333 82826 84358
BBXX 61002 14064 99421 10047 46/// ///19 10153 2//// 40138 57006 22200 00153 10604 70018
BBXX BAREU51 14064 99419 10107 46/// ///// 40158 52002 22235
BBXX BAREU62 14064 99395 10151 46/// ///// 40228 54000 22284
BBXX BATFR46 14064 99384 10002 46/// /2316 10162 20092 40209 56016 22213 00179
BBXX BATFR09 14064 99384 10069 44497 62630 10172 20104 40223 51010 70222 86700 22263 00187 20510 60//0 ICE 0/0//
BBXX A8UA9 14064 99376 10100 41/98 42112 10155 20121 40240 57010 70200 84/4/ 22263 20401 80135
BBXX WDE8264 14063 99375 10099 41298 33205 10160 20144 40240 54000 70200 8283/ 22224 00190 20202 332// 40402 5//// 6//// 80150 /////
BBXX PCPR 14063 99373 10063 41498 22615 10162 20141 40230 54000 7//11 82100 22263 04170 20402 328// 40503 80149
BBXX BATFR23 14064 99372 10032 44998 32529 10164 20120 40207 53018 70211 83200 22245 00095 22919 304// 40922 51457 60651 ICE 10899
BBXX BATFR11 14064 99365 10132 46/// /2705 10170 20124 40249 53005 22223 00192
BBXX NWS0020 14064 99365 10147 43/// /3111 10158 20107 40236 5//// 7//// 8//// 222// 04201 2//// 3//// 4//// 5//// 6//// 8//// ICE /////
BBXX PGRQ 14064 99364 10163 41/98 13006 10170 2//// 40240 54000 7//// 81100 22232 00192 20803 399// 40902
BBXX A8PX4 14064 99361 10156 41498 13413 10165 20088 40236 52010 70200 81100 22264 00182 2//// 80122
BBXX AUTQ 14064 99351 10183 41497 63615 10170 20138 40119 54000 86011 22274 00200
BBXX DGWD2 14063 99344 10223 41/98 32706 10175 20132 40205 57002 70100 8134/ 22224 00180 2//01 80149
BBXX VRCZ7 14063 99333 10269 41598 12710 10180 20106 40221 54000 70200 811// 22264 2//// 3//// 4//// 5//// 80140
BBXX BATFR04 14064 99594 70119 46/// /3119 10060 20024 49694 53026 22251 00102
BBXX 64045 14064 99591 70117 46/// /3220 10067 20026 49694 53017 22200 00102 10811 70055 333 90710 91128
BBXX 62112 14064 99584 70002 47597 /2334 10077 20029 49630 52017 700// 22200
BBXX 62113 14064 99584 10002 47598 /2134 10076 20023 49652 52018 700// 22200
BBXX 62129 14064 99584 10003 46/// ///// 10077 20023 49656 52017 22200
BBXX BATUK01 14064 99583 70062 46/// /2702 10072 20004 49657 51030 22200 00099
BBXX 62114 14064 99583 10000 46/// /2337 10076 20023 49632 52017 22200
BBXX AMOUK27 14064 99582 70064 46/// ///// 1//// 2//// 39661 49661 52029 90550
BBXX PJAI 14064 99581 70014 47697 /2526 10084 20014 49644 53027 700// 22200
BBXX 62111 14064 99580 70003 46/// /2532 10077 20026 49670 52023 22200 10709 70043
BBXX 62117 14064 99579 10000 47097 /2229 10075 20039 49661 52022 700// 22200 10709 70044
BBXX AMOUK19 14064 99578 70018 46/// ///// 10071 20016 39644 49646 52055 90550
BBXX 2AAY7 14063 99576 70024 41297 62425 10069 20009 49676 52030 70322 8577/ 22221 02074 20402 80045
BBXX AMOUK21 14064 99564 70055 46/// ///// 10073 20019 39736 49736 52034 90550
BBXX 62105 14064 99554 70122 46/// /2823 10080 20024 49792 53009 22200 00108 11014 70068 333 90710 91132
BBXX AMOUK14 14064 99535 70030 46/// ///// 10054 21011 39817 49851 52008 90550
BBXX AMOUK05 14064 99535 10002 46/// ///// 10039 20008 39794 49835 57034 90550
BBXX AMOUK11 14064 99533 70059 46/// ///// 10035 21010 39781 49808 57020 90550
BBXX AMOUK12 14064 99533 70054 46/// ///// 10058 20006 39820 49859 52004 90550
BBXX 62095 14064 99531 70159 46/// /2720 10060 20037 49824 57015 22200 00114 11012 70058 333 90710 91129
BBXX 62301 14064 99524 70047 46/// /2423 10066 21003 49872 51001 22200 00102 10606 70031 333 90710 91136
BBXX AMOUK16 14064 99521 70054 46/// ///// 10064 21018 39870 49876 57015 90550
BBXX 62094 14064 99517 70067 46/// /2724 10077 20021 49892 50000 22200 00111 10708 70039 333 90710 91137
BBXX 62303 14064 99516 70051 46/// /2620 10082 20027 49894 50000 22200 00116 10707 70035 333 90710 91129
BBXX 62023 14063 99514 70079 46/97 /2820 10050 2//// 49917 5//// 22200 10709 70044 333 91151 555 70073 80015
BBXX 62081 14064 99510 70134 46/// ///// 10075 20018 49904 58005 22200 00119 11015 70076
BBXX AMOUK06 14064 99509 70014 46/// ///// 10047 20029 39900 49924 57005 90550
BBXX BATFR03 14064 99508 70011 46/// /2412 10064 20032 49926 56013 22283
BBXX BATFR42 14064 99507 70020 46/// /2613 10069 20029 49924 56027 22272 00122
BBXX AMOUK09 14064 99505 70022 46/// ///// 10090 20031 39904 49922 57007 90550
BBXX BATFR27 14064 99505 70012 46/// /2520 10134 20077 49922 56019 22213 00119
BBXX 62305 14064 99504 10000 46/97 /2718 10070 20028 49947 53007 22200 00124 10703 70015
BBXX AMOUK08 14064 99501 70061 46/// ///// 10076 20021 39930 49935 54002 90550
BBXX 62103 14064 99499 70029 46/99 /2727 10094 20030 49928 57005 22200 00126 10906 70030 333 90710 91135
BBXX A8IN8 14064 99494 70051 41596 62945 10075 20053 49940 58010 78965 83/2/ 22214 04120 20908 325// 41407 80065
BBXX VRYO3 14064 99493 70105 46/// /2620 10060 20069 49970 55006 7//// 8//// 22224 00129 2////
BBXX 62027 14064 99491 70022 46/// /2424 1//// 2//// 49958 55004 22200 00118 11406 325// 70028 333 90710 91132
BBXX 62442 14064 99490 70163 46/// /2731 1//// 2//// 49988 56002 22200 00129 333 90710 91150
BBXX TESTFR9 14064 99489 70023 46/// /2523 10076 29077 49988 52020 22234
BBXX BATFR52 14064 99488 70023 46/// /2429 10079 20034 49970 53023 22233 00125
BBXX 62029 14064 99487 70125 46/// /2731 10089 20037 49992 53008 22200 00134 11014 70071 333 90710 91143
BBXX MCUV3 14063 99480 70100 41497 62918 10070 20047 40018 57001 75252 83248 22223 2//12 329// 4//12 5//// 80060
BBXX 62163 14064 99475 70084 46/// /2834 10080 20037 40028 52019 22200 00131 11115 70074 333 90710 91147
BBXX WDC6736 14064 99466 70103 41/// /2252 10100 2004/ 40050 52020 781// 8//// 22211 00160 2//// 3//// 4//// 5//// 6//// 80070 /////
BBXX PBEO 14063 99460 70077 41397 62634 10105 20062 40078 53008 70022 867// 22212 02125 20506 328// 40807 80083
BBXX WGAX 14064 99453 70068 41698 42661 10104 2008/ 40058 52032 78186 8414/ 22243 00142 2//// 3//// 4//// 5//// 6//// 80091 ICE /////
BBXX 62001 14064 99452 70050 46/// /2731 10126 20069 40096 53021 22200 00148 10916 70079 333 90710 91144
BBXX DPLE 14063 99418 70258 41/98 52825 10125 20068 40265 54000 70222 8//// 22212 00160 2//// 331// 41210 80095
BBXX A8AX3 14063 99412 70089 41/98 62531 10144 40219 51028 72582 8//// 22234 20404 329// 40707
BBXX SKWI 14064 99407 70238 43/98 63028 10134 40264 53015 22263 00175 2//// 4////
BBXX DBBH 14061 99405 70106 41598 82910 10150 20096 40218 52016 70182 83807 22242 04166
BBXX A8UT7 14064 99401 70109 41598 63015 10160 20127 40189 52009 70322 85817 22282 20604 329// 41012 80140
BBXX A8MW6 14064 99390 70098 41597 73121 10170 20119 40220 54000 70322 878// 22282 00200 2//// 331// 4//10 5//// 80140
BBXX BAREU05 14064 99388 70125 46/// ///// 40240 52010 22263
BBXX SHIP 14064 99386 70210 41697 63319 10150 20077 40300 56005 70311 8663/ 90545 22224 0//// 1//// 20607 331// 40507 5//// 6//// 80130 /////
BBXX BATFR46 14064 99384 10002 46/// /2316 10162 20092 40209 56016 22213 00179
BBXX PCIH 14063 99377 70116 41297 83511 10165 20149 40225 58015 76262 22284 00200 20202 334// 40907 80155
BBXX BATFR54 14064 99365 70077 46/// /2914 10169 20142 40247 55003 22223 00175
BBXX C6CU6 14063 99363 70282 41698 30110 10165 20120 40300 51010 70200 81141 22263 04190 20000 335// 41506 5//// 80140
BBXX WBDS 14063 99361 70129 43498 42913 10170 2014/ 40268 5//// 7//// 8416/ 22264 00189 20302 332// 41206 5//// 6//// 80150 ICE /////
BBXX WDF6832 14063 99360 70219 41498 83511 10170 2014/ 40310 52020 70222 884// 22265 0//// 20203 332// 40807 5//// 6//// 80150 ICE /////
BBXX LAVW4 14064 99357 70148 41696 83224 00/// 10170 2014/ 40240 54000 70221 868// 22253 00167 21203 332// 41811
AAXX 14061 47075 11560 83201 11008 21036 39720 40156 57014 69901 77772 8802/
AAXX 14061 47055 NIL
AAXX 14061 20353 46/// /1603 11037 21059 30058 40062 52001
AAXX 14064 71073 46/// /1403 11098 21138 6///1 333 11058 21223 7////
AAXX 14064 71565 16/// /2002 11098 21118 60001 333 11046 21159 70008
AAXX 14064 71566 16/// /3216 11004 21047 60001 333 10004 21093 70000 555 33122 40061
AAXX 14064 71567 16/// /2105 11050 21071 60001 333 11050 21114 70000
AAXX 14064 71793 16/// ///// 11128 21143 60001 333 11078 21150 7////
AAXX 14064 71012 16/// /2008 11089 21113 60001 333 11039 21123 7////
AAXX 14064 71013 16/// ///// 11147 21161 60001 333 11049 21172 7////
AAXX 14064 71060 16/// /2803 11017 21074 38552 40121 53013 60001 333 10024 21066 70000
AAXX 14064 71848 16/// ///// 11058 21106 60001 333 11057 21226 7////
AAXX 14064 71924 12974 70616 11265 21309 39920 40012 52001 60001 85034 333 11221 21275 48038 70026 555 10026 20026 33338 40192
AAXX 14064 71974 46/// /2304 11272 21294 30065 40109 53008 6///1 333 11250 21332 7//// 555 33023 40231
AAXX 14064 71495 16/// /2816 10001 21064 60001 333 10007 21096 70000 555 32821 40061
AAXX 14064 71399 16/// ///// 11126 21141 60001 333 11065 21139 7////
AAXX 14061 45032 36/// /3301 10219 20081 30156 40173 57002
AAXX 14061 45035 36/// /2501 10206 20116 30132 40174 57001
AAXX 14061 45039 36/// /0002 10212 20108 30155 40170 54000
AAXX 14061 45044 36/// /2503 10200 20131 30078 40171 57001
AAXX 14061 45032 36/// /3301 10219 20081 30156 40173 57002
AAXX 14061 45035 36/// /2501 10206 20116 30132 40174 57001
AAXX 14061 45039 36/// /0002 10212 20108 30155 40170 54000
AAXX 14061 45044 36/// /2503 10200 20131 30078 40171 57001
AAXX 14064 89646 46/// /0107 11180 29077 37547 4//// 5////
AAXX 14064 89648 46/// /2407 11235 29068 37108 4//// 5////
AAXX 14064 89659 46/// /2505 11183 29060 37615 4//// 5////
AAXX 14064 89661 46/// /1202 11054 29071 39189 4//// 5////
AAXX 14064 89662 42980 43606 11008 21107 39716 49820 52007 80001 222 ICE 98015 333 10000
AAXX 14064 89666 46/// /0202 11029 29060 39629 4//// 5////
AAXX 14064 71924 12974 70616 11265 21309 39920 40012 52001 60001 85034 333 11221 21275 48038 70026 555 10026 20026 33338 40192
AAXX 14064 67771 11470 81203 10193 20176 3//// 48/// 69984 71796 85773 333 20193 5//// 81920 85710 88459
BBXX A8CQ5 14063 99050 30795 41598 62910 10310 20/// 40100 54000 70100 85283 22214 04300 2////
BBXX VVPG 14063 99191 10726 41798 53504 10290 20269 40122 51006 70201 85021 22200 00/// 2////
BBXX 9MEZ2 14064 99041 11134 41497 32210 10239 20230 40072 54000 70302 8313/ 22244 00298 2//// 80251
BBXX DDZF2 14064 99066 10771 41697 70427 10290 20249 40120 51010 72562 8636/ 22224 00280 20404 80260
BBXX A8SZ5 14064 99138 11195 41598 /0512 10290 20249 40080 57020 703// 8/1// 22233 00/// 2//03 80260
BBXX S6JT 14064 99528 11796 41/96 92748 11010 21011 49715 58008 70274 897// 22223 04040 20610 81010
BBXX DDYY2 14064 99120 10619 41698 60521 10/// 20/// 40150 51020 70211 85466 22264 00/// 20305 302// 40304
BBXX ZQDI9 14060 99059 10874 41/96 73607 10305 20249 40144 57004 79598 8687/ 22223 00287 20201 325// 40202 80265
BBXX ZCBV4 14064 99058 30844 41398 32304 10307 20282 40140 52012 70111 82462 22253 00294 20401 316// 41204 80288
BBXX VRBQ6 14064 99335 71733 41297 82520 10195 20172 40039 50010 70226 885// 22225 00209 20607 323// 41008 80180
BBXX ELZU8 14063 99015 11044 41598 63515 10305 20244 40090 54000 70222 84245 22200 00/// 20202 303// 40505 80260
BBXX 9MCN8 14064 99264 11255 41498 81112 10235 20169 40183 5//// 70222 8872/ 22213 00250 20301 325// 40506 80194
BBXX A8CQ5 14063 99050 30795 41598 62910 10310 20/// 40100 54000 70100 85283 22214 04300 2////
BBXX VVPG 14063 99191 10726 41798 53504 10290 20269 40122 51006 70201 85021 22200 00/// 2////
BBXX 9MEZ2 14064 99041 11134 41497 32210 10239 20230 40072 54000 70302 8313/ 22244 00298 2//// 80251
BBXX DDZF2 14064 99066 10771 41697 70427 10290 20249 40120 51010 72562 8636/ 22224 00280 20404 80260
BBXX A8SZ5 14064 99138 11195 41598 /0512 10290 20249 40080 57020 703// 8/1// 22233 00/// 2//03 80260
BBXX S6JT 14064 99528 11796 41/96 92748 11010 21011 49715 58008 70274 897// 22223 04040 20610 81010
BBXX DDYY2 14064 99120 10619 41698 60521 10/// 20/// 40150 51020 70211 85466 22264 00/// 20305 302// 40304
BBXX ZQDI9 14060 99059 10874 41/96 73607 10305 20249 40144 57004 79598 8687/ 22223 00287 20201 325// 40202 80265
BBXX ZCBV4 14064 99058 30844 41398 32304 10307 20282 40140 52012 70111 82462 22253 00294 20401 316// 41204 80288
BBXX VRBQ6 14064 99335 71733 41297 82520 10195 20172 40039 50010 70226 885// 22225 00209 20607 323// 41008 80180
BBXX ELZU8 14063 99015 11044 41598 63515 10305 20244 40090 54000 70222 84245 22200 00/// 20202 303// 40505 80260
BBXX 9MCN8 14064 99264 11255 41498 81112 10235 20169 40183 5//// 70222 8872/ 22213 00250 20301 325// 40506 80194
BBXX 46241 14061 99330 71173 46/// ///// 1//// 90611 22200 00146 11302 21001 326// 41301 70008
BBXX 46229 14061 99438 71246 46/// ///// 1//// 90621 22200 00102 11403 20902 330// 41403 70017
BBXX MINUK05 1406/ 99605 70045 46/// ///// 10068 49587 52041
BBXX FLAO 1406/ 99764 70847 46/// ///// 11208 40051 57008
BBXX MINUK03 1406/ 99544 70003 46/// ///// 10053 49830 57034
BBXX MINUK01 1406/ 99589 70014 46/// ///// 10078 49599 57021
AAXX 14064 89628 46/// /3120 11281 36718 4//// 5////
AAXX 1406/ 89872 46/// ///// 11035 39759 4//// 5//// 90630
AAXX 1406/ 89869 46/// ///// 11053 39740 4//// 5//// 90630
AAXX 1406/ 89866 46/// ///// 10000 39725 4//// 5//// 90640
AAXX 1406/ 89868 46/// ///// 11044 39748 4//// 5//// 90630
AAXX 1406/ 89332 46/// ///// 11091 39124 4//// 5//// 90630
AAXX 1406/ 89769 46/// ///// 11020 39785 4//// 5//// 90640
AAXX 1406/ 89879 46/// ///// 10001 39744 4//// 5//// 90630
AAXX 14061 02981 12564 12113 10060 20039 39925 49934 52024 60072 700// 81/// 333 10065 20041 3////
AAXX 14061 02849 11474 81404 11001 21012 39682 49955 57015 60044 773// 88/// 333 10001 21018 3//// 4/013
AAXX 14061 02924 11221 81503 10004 20004 39717 49913 57008 60084 771// 88/// 333 10017 20003 3/000 4/019
AAXX 14061 48826 31556 60501 10216 20140 30041 40177 58028 71022 888// 333 59007 82895 86697
AAXX 14061 48839 32497 83607 10201 20151 30110 40176 57024 888// 222// 00209 2//02 333 59011 82894 88696
AAXX 14064 96935 32560 63312 10326 20231 30063 40069 57022 82931 333 56000 57901 81920 81820 84080 80975
BBXX 46239 14061 99363 71221 46/// ///// 1//// 90621 22200 00131 10904 20903 332// 41102 70018
BBXX 42023 14061 99261 70831 46/// /0605 1//// 90630 333 91210
BBXX 42023 14061 99261 70831 46/// /0605 1//// 90600 333 91210
BBXX 44039 14061 99411 70727 46/// /3505 10059 21001 40283 90630 22200 00103 1//00 70002 333 91207
BBXX 46216 14061 99343 71198 46/// ///// 1//// 90627 22200 00139 11202 20802 326// 41201 70009
BBXX 46223 14061 99335 71178 46/// ///// 1//// 90630 22200 00152 11302 20502 321// 41301 70009
BBXX 46231 14061 99327 71174 46/// ///// 1//// 90624 22200 00145 11302 21002 326// 41302 70011
BBXX 46222 14061 99336 71183 46/// ///// 1//// 90626 22200 00156 10503 20502 324// 41401 70013
BBXX 46242 14061 99332 71174 46/// ///// 1//// 90628 22200 00154 11301 21001 322// 41301 70007
BBXX 46221 14061 99339 71186 46/// ///// 1//// 90615 22200 00151 11302 20502 322// 41301 70010
BBXX 62123 14064 99563 10022 47597 /2337 10069 20037 49739 52012 700// 22200
BBXX 63106 14064 99610 10017 46/// /2130 10059 49540 51005 22200
BBXX 63105 14064 99610 10017 47596 ///// 10067 20037 49540 51006 763// 22200
BBXX 63110 14063 99595 10015 41/97 /2150 10075 20044 49569 78186 8//// 22200 11012 70060
BBXX 62304 14064 99511 10018 46/98 /2313 10063 20024 49949 56012 22200 00119 10702 70008 333 90710 91126
BBXX 62107 14064 99501 70061 46/// /2530 10071 20012 49937 52007 22200 00116 11010 70048 333 90710 91147
BBXX 64049 14063 99571 10022 41/97 82350 10080 20074 49777 52010 70722 8//// 22200 04092 20814 323// 40816 5//// 80077
BBXX 62103 14064 99499 70029 46/99 /2727 10089 20031 49928 55003 22200 00125 11007 70034 333 90710 91142
BBXX ZCBF3 14063 99388 70126 41297 52923 10160 20143 40249 7//// 8/778 22264 00180 20104 329// 40206 5//// 80150
AAXX 14064 87349 32970 02302 10145 20086 39769 40157 58005
AAXX 14063 63661 12580 30603 10205 20143 48538 69904 81141 333 58006 81820
AAXX 14063 63695 32580 30000 10201 20137 82130 333 20120 82820 83359
AAXX 14063 63723 32582 70000 10260 20223 40114 875// 333 20240 59003 87624
BBXX MINFR00 1406/ 99427 70548 46/// ///// 10078 40121 57055
AAXX 14064 63705 11458 81605 10190 20180 38881 48534 60264 76396 8592/ 333 20180 58016 85618 81920 88460 555 10183
AAXX 14064 89807 46/// /1516 11036 29100 39729 4//// 5//// 90630 333 90700 91119
AAXX 14064 16110 12697 80702 10102 20069 30167 40172 57004 60002 83580 333 20090 31/// 55021 24308 83640 86358 555 0////
AAXX 14064 89614 46/// /0824 11053 29076 38941 4//// 5//// 90630 333 90700 91127
AAXX 14064 89614 46/// /0824 11053 29076 38941 4//// 5//// 90630 333 90700 91127
AAXX 14064 89807 46/// /1516 11036 29100 39729 4//// 5//// 90630 333 90700 91119
BBXX A8CI9 14064 99316 10320 41497 60211 10185 20118 40201 52005 70322 84478 22234 04203 20101 3//// 4//// 5//// 80145
AAXX 14064 71841 16/// /1803 11040 21058 39822 40228 56018 60001 333 11039 21105 7////
AAXX 14064 71383 16/// ///// 11293 21334 39674 40317 56006 60001 333 11063 21301 70000
AAXX 14064 71789 16/// ///// 11030 21079 60001 333 11017 21246 7////
AAXX 14064 71791 16/// /1808 11055 21107 60001 333 11034 21109 7////
AAXX 14064 71794 16/// ///// 11094 21120 60001 333 11040 21135 70000
AAXX 14064 71795 16/// ///// 11124 21134 60001 333 11008 21155 7////
AAXX 14064 71796 16/// ///// 11097 21129 60001 333 11045 21125 70000
AAXX 14064 71797 16/// ///// 11047 21090 60001 333 7////
AAXX 14064 71051 16/// ///// 11086 21095 60001 333 11054 21096 7////
AAXX 14064 71057 16/// ///// 11105 21153 60001 333 11067 21235 7////
AAXX 14064 71070 16/// ///// 11133 21144 60001 333 7////
AAXX 14064 71089 16/// ///// 11077 21108 60001 333 11039 21131 7////
AAXX 14064 71102 16/// ///// 11067 21095 60001 333 11041 21115 7////
AAXX 14064 71105 16/// ///// 11170 21188 60001 333 11112 21250 7////
AAXX 14064 71006 16/// /1002 11092 21121 60001 333 11014 21136 70000 555 31917 40071
AAXX 14064 71007 16/// ///// 11138 21156 60001 333 11058 21269 7////
AAXX 14064 71008 16/// /2602 11210 21229 60001 333 11139 21237 7////
AAXX 14064 71009 16/// /0102 11098 21110 60001 333 11039 21233 7////
AAXX 14064 71035 16/// ///// 11140 21151 60001 333 11064 21213 70000
AAXX 14064 71404 46/// ///// 6///1 333 7////
AAXX 14064 71409 16/// ///// 11094 21104 60001 333 11048 21122 7////
AAXX 14064 71502 16/// /1008 11280 21303 30165 40182 57001 60001 333 11244 21289 7////
AAXX 14064 71509 16/// /2619 11011 21067 60001 333 11008 21187 7////
AAXX 14064 71517 16/// /2723 11014 21070 60001 333 11007 21172 7////
AAXX 14064 71518 16/// /3106 11154 21165 60001 333 11094 21248 7////
AAXX 14064 71519 16/// /1711 11088 21104 60001 333 11060 21126 7////
AAXX 14064 71520 16/// /0000 11326 21360 39594 40307 58009 60001 333 11098 21326 70000
AAXX 14064 71521 16/// ///// 11287 21325 60001 333 11076 21287 70000
AAXX 14064 71523 46/// ///// 11085 21092 39903 40289 56003 6///1 333 11019 21085 7////
AAXX 14064 71528 16/// /2611 11098 21116 60001 333 11041 21225 7////
AAXX 14064 71433 46/// /1408 10030 20018 30018 40252 56015 6///1 333 10035 20011 7////
AAXX 14064 71841 16/// /1803 11040 21058 39822 40228 56018 60001 333 11039 21105 7////
AAXX 14064 71433 46/// /1408 10030 20018 30018 40252 56015 6///1 333 10035 20011 7////
AAXX 14064 71404 46/// ///// 6///1 333 7////
AAXX 14064 71409 16/// ///// 11094 21104 60001 333 11048 21122 7////
AAXX 14064 71789 16/// ///// 11030 21079 60001 333 11017 21246 7////
AAXX 14064 71791 16/// /1808 11055 21107 60001 333 11034 21109 7////
AAXX 14064 71794 16/// ///// 11094 21120 60001 333 11040 21135 70000
AAXX 14064 71795 16/// ///// 11124 21134 60001 333 11008 21155 7////
AAXX 14064 71796 16/// ///// 11097 21129 60001 333 11045 21125 70000
AAXX 14064 71797 16/// ///// 11047 21090 60001 333 7////
AAXX 14064 71383 16/// ///// 11293 21334 39674 40317 56006 60001 333 11063 21301 70000
AAXX 14064 71006 16/// /1002 11092 21121 60001 333 11014 21136 70000 555 31917 40071
AAXX 14064 71007 16/// ///// 11138 21156 60001 333 11058 21269 7////
AAXX 14064 71008 16/// /2602 11210 21229 60001 333 11139 21237 7////
AAXX 14064 71009 16/// /0102 11098 21110 60001 333 11039 21233 7////
AAXX 14064 71035 16/// ///// 11140 21151 60001 333 11064 21213 70000
AAXX 14064 71051 16/// ///// 11086 21095 60001 333 11054 21096 7////
AAXX 14064 71057 16/// ///// 11105 21153 60001 333 11067 21235 7////
AAXX 14064 71070 16/// ///// 11133 21144 60001 333 7////
AAXX 14064 71089 16/// ///// 11077 21108 60001 333 11039 21131 7////
AAXX 14064 71102 16/// ///// 11067 21095 60001 333 11041 21115 7////
AAXX 14064 71105 16/// ///// 11170 21188 60001 333 11112 21250 7////
AAXX 14064 71502 16/// /1008 11280 21303 30165 40182 57001 60001 333 11244 21289 7////
AAXX 14064 71509 16/// /2619 11011 21067 60001 333 11008 21187 7////
AAXX 14064 71517 16/// /2723 11014 21070 60001 333 11007 21172 7////
AAXX 14064 71518 16/// /3106 11154 21165 60001 333 11094 21248 7////
AAXX 14064 71519 16/// /1711 11088 21104 60001 333 11060 21126 7////
AAXX 14064 71520 16/// /0000 11326 21360 39594 40307 58009 60001 333 11098 21326 70000
AAXX 14064 71521 16/// ///// 11287 21325 60001 333 11076 21287 70000
AAXX 14064 71523 46/// ///// 11085 21092 39903 40289 56003 6///1 333 11019 21085 7////
AAXX 14064 71528 16/// /2611 11098 21116 60001 333 11041 21225 7////
AAXX 14064 67789 11370 81202 10174 20166 3//// 48/// 60324 76162 8477/ 333 20166 5//// 84708 88459
AAXX 14064 64390 32575 73608 10229 20199 39250 48514 83230 A 333 20209 58003 83825 86360 1015
AAXX 14064 64390 32575 73608 10229 20199 39250 48514 83230 333 20209 58003 83825 86360 1015
AAXX 14061 26531 11357 82003 10037 20030 40048 53005 69972 72165 886// 333 20012 31/// 88709 91006 91110 555 53014 7002/
AAXX 14064 17088 12670 50000 11021 21066 38867 48555 50003 60002 83550 333 21038 34106 55010 20163 83640 85360
AAXX 1406/ 89828 46/// ///// 11219 36433 4//// 5//// 90640
AAXX 1406/ 89866 46/// ///// 11005 39720 4//// 5////
AAXX 1406/ 89329 46/// ///// 11135 38659 4//// 5////
AAXX 1406/ 89799 46/// ///// 11275 4//// 5////
AAXX 1406/ 89769 46/// ///// 11038 39782 4//// 5////
AAXX 1406/ 89314 46/// ///// 11171 38123 4//// 5////
AAXX 1406/ 89327 46/// ///// 11041 39540 4//// 5////
BBXX VRFN8 14063 99378 31400 41698 61614 10230 20183 40135 7//// 83173 22274 00170 20401 323// 41006 80200
BBXX VRFN8 14063 99378 31400 41698 61614 10230 20183 40135 7//// 83173 22274 00170 20401 323// 41006 80200
BBXX VCYP 14064 99470 70853 41/98 81510 10003 20003 40999 57005 70222 8//// 22273 0//// 2//01 3//// 4//// 5//// 6//// 8//// ICE /////
BBXX DDYY2 14064 99120 10619 41698 60521 10/// 20/// 40150 51020 70211 85466 22264 00/// 20305 302// 40304
BBXX ZSAF 14064 99515 30000 41397 83434 10046 20033 49838 57089 75155 886// 22243 04023 2//// 334// 40812 5////
BBXX VRGO8 14064 99157 11131 41498 30527 10280 20239 40178 56010 70222 838// 22215 00250 20503 305// 40503 80250
BBXX SHIP 14061 99195 11135 41597 50910 10252 20221 40174 51010 70122 858// 22284 00215 20403 303// 40405 80230
BBXX S6JT 14064 99528 11796 41/96 92748 11010 21011 49715 58008 70274 897// 22223 04040 20610 81010
BBXX ZQDI9 14060 99059 10874 41/96 73607 10305 20249 40144 57004 79598 8687/ 22223 00287 20201 325// 40202 80265
BBXX VVPG 14063 99191 10726 41798 53504 10290 20269 40122 51006 70201 85021 22200 00/// 2////
BBXX A8SZ5 14064 99138 11195 41598 /0512 10290 20249 40080 57020 703// 8/1// 22233 00/// 2//03 80260
BBXX DDZF2 14064 99066 10771 41697 70427 10290 20249 40120 51010 72562 8636/ 22224 00280 20404 80260
BBXX SHIP 14064 99264 11255 41498 81112 10235 20169 40183 5//// 70222 8872/ 22213 00250 20301 325// 40506 80194
BBXX VQHO7 14064 99010 70421 41498 20814 10260 20231 40076 54000 70200 812// 22274 00275 29903 310// 40404 5//// 80240
BBXX ZCBV4 14064 99058 30844 41398 32304 10307 20282 40140 52012 70111 82462 22253 00294 20401 316// 41204 80288
BBXX SHIP 14064 99041 11134 41497 32210 10239 20230 40072 54000 70302 8313/ 22244 00298 2//// 80251
BBXX ELZU8 14063 99015 11044 41598 63515 10305 20244 40090 54000 70222 84245 22200 00/// 20202 303// 40505 80260
BBXX A8CQ5 14063 99050 30795 41598 62910 10310 20/// 40100 54000 70100 85283 22214 04300 2////
BBXX MGSM3 14064 99134 31525 41498 80409 10300 20230 40030 57015 70322 88480 22243 04280 20200 31010 40701 50701 80250
BBXX MINFR00 1406/ 99427 70548 46/// ///// 10078 40121 57055
BBXX 46242 14061 99332 71174 46/// ///// 1//// 90628 22200 00154 11301 21001 322// 41301 70007
BBXX 46221 14061 99339 71186 46/// ///// 1//// 90615 22200 00151 11302 20502 322// 41301 70010
BBXX 46222 14061 99336 71183 46/// ///// 1//// 90626 22200 00156 10503 20502 324// 41401 70013
BBXX 46223 14061 99335 71178 46/// ///// 1//// 90630 22200 00152 11302 20502 321// 41301 70009
BBXX 42023 14061 99261 70831 46/// /0605 1//// 90600 333 91210
BBXX 46231 14061 99327 71174 46/// ///// 1//// 90624 22200 00145 11302 21002 326// 41302 70011
BBXX 46216 14061 99343 71198 46/// ///// 1//// 90627 22200 00139 11202 20802 326// 41201 70009
BBXX 42023 14061 99261 70831 46/// /0605 1//// 90630 333 91210
BBXX 44039 14061 99411 70727 46/// /3505 10059 21001 40283 90630 22200 00103 1//00 70002 333 91207
BBXX 46239 14061 99363 71221 46/// ///// 1//// 90621 22200 00131 10904 20903 332// 41102 70018
BBXX FLAO 1406/ 99764 70847 46/// ///// 11208 40051 57008
BBXX 46229 14061 99438 71246 46/// ///// 1//// 90621 22200 00102 11403 20902 330// 41403 70017
BBXX 46241 14061 99330 71173 46/// ///// 1//// 90611 22200 00146 11302 21001 326// 41301 70008
BBXX SHIP 14064 99335 71733 41297 82520 10195 20172 40039 50010 70226 885// 22225 00209 20607 323// 41008 80180
BBXX ZCDA9 14063 99213 71578 41298 70908 10230 20215 40167 53009 75052 872// 22200 00260 20100 300// 40000 5//// 80220
BBXX 44024 14061 99423 70659 46/30 /0209 10060 40210 50000 90604 22200 00089 10604 70018 333 91211 555 11112 22118
BBXX 42085 14061 99179 70665 46/// /0302 10256 40113 90610 333 91203
BBXX 41053 14061 99185 70661 46/// /2102 10246 40116 90610 333 91204
BBXX 42085 14061 99179 70665 46/// /0302 10256 40112 90620 333 91203
BBXX 41053 14061 99185 70661 46/// /2203 10249 40112 90630 333 91204
BBXX 41053 14061 99185 70661 46/// /2203 10248 40114 90620 333 91204
BBXX 42085 14061 99179 70665 46/// /0303 10256 40110 90630 333 91203
BBXX ZCDP8 14063 99156 70618 41598 30715 10270 20210 40120 52012 70211 831// 22274 00270 20302 310// 40402 5//// 80230
BBXX A8CI9 14064 99316 10320 41497 60211 10185 20118 40201 52005 70322 84478 22234 04203 20101 3//// 4//// 5//// 80145
BBXX ZCBF3 14063 99388 70126 41297 52923 10160 20143 40249 7//// 8/778 22264 00180 20104 329// 40206 5//// 80150
BBXX MINUK01 1406/ 99589 70014 46/// ///// 10078 49599 57021
BBXX MINUK03 1406/ 99544 70003 46/// ///// 10053 49830 57034
BBXX MINUK05 1406/ 99605 70045 46/// ///// 10068 49587 52041
BBXX PEBT 14063 99375 10056 41598 22519 10170 20147 40220 54000 7//00 82500 22263 02147 20402 329// 40603 5//// 80156
AAXX 14064 68424 32782 12108 10155 20046 39190 48501 53015 81570 333 20128 91011 555 10304 91015
AAXX 14061 47055 41556 62302 10062 21030 30137 40183 57014 71022 83550
AAXX 14064 16224 11557 81505 10096 20081 39872 40192 55007 60002 76062 8681/ 333 20090 32/// 55053 2//// 82820 84625 86458
BBXX TBWUK17 14063 99048 31075 41597 72915 10283 20268 40119 57005 70222 87776 22253 04300 20301 32928 40402 50502 80272
BBXX A8UL5 14063 99127 30690 41798 20910 10290 20235 40090 54000 70100 81461 22214 20201 310// 40403 5//// 80250
BBXX JPAT 14064 99164 30903 41697 61026 10265 20227 40102 58001 70161 84443 22233 00277 11205 20301 31023 40406 50505 85238
BBXX AMOUK17 14064 99327 30573 46/// ///// 10187 20098 30215 40231 52008 90550
BBXX ZDLS1 14063 99358 30168 41497 72312 10112 2//// 40067 54000 70311 8646/ 22252 04194 20407 324// 40407
BBXX AMOUK01 14064 99358 30169 46/// ///// 10119 20059 30070 40081 52004 90550
BBXX ZSAF 14064 99515 30000 41397 83434 10046 20033 49838 57089 75155 886// 22243 04023 2//// 334// 40812 5////
AAXX 14064 71055 46/// /0000 11343 21378 39850 40202 53016 6///1 333 11181 21343 7////
AAXX 14064 71065 16/// ///// 11047 21080 60001 333 11030 21117 7////
AAXX 14064 71540 16/// /2805 11079 21094 60001 333 11068 21170 7////
AAXX 14064 71544 16/// ///// 11017 21051 60001 333 11001 21087 7////
AAXX 14064 71548 16/// ///// 11036 21076 60001 333 11009 21088 7////
AAXX 14064 71360 16/// ///// 11073 21111 60001 333 11029 21124 7////
AAXX 14064 71380 16/// /3314 11004 21059 60001 333 11004 21130 7////
AAXX 14064 71857 16/// ///// 11052 21076 60001 333 11048 21123 7////
AAXX 14064 71481 16/// /3108 11024 21057 60001 333 10009 21078 7////
AAXX 14064 71498 16/// /3001 11126 21134 60001 333 11072 21229 7////
AAXX 14064 71904 16/// ///// 11131 21141 60001 333 11067 21195 7////
AAXX 14064 71413 16/// ///// 11140 21154 60001 333 11077 21160 7////
AAXX 14064 71414 16/// ///// 11039 21054 60001 333 11015 21109 7////
AAXX 14064 71424 46/// /0316 6///1 333 7//// 555 30523 40001
AAXX 14064 71440 16/// ///// 11057 21095 60001 333 11053 21194 7////
AAXX 14064 71249 16/// /2507 11119 21130 60001 333 11054 21187 7////
AAXX 14064 71014 16/// /1502 11100 21126 60001 333 7////
AAXX 14064 71346 16/// /3106 11126 21141 60001 333 11040 21229 7////
AAXX 14064 71674 16/// ///// 11092 21121 60001 333 11021 21132 7////
AAXX 14064 71360 16/// ///// 11073 21111 60001 333 11029 21124 7////
AAXX 14064 71380 16/// /3314 11004 21059 60001 333 11004 21130 7////
AAXX 14064 71904 16/// ///// 11131 21141 60001 333 11067 21195 7////
AAXX 14064 71413 16/// ///// 11140 21154 60001 333 11077 21160 7////
AAXX 14064 71414 16/// ///// 11039 21054 60001 333 11015 21109 7////
AAXX 14064 71424 46/// /0316 6///1 333 7//// 555 30523 40001
AAXX 14064 71440 16/// ///// 11057 21095 60001 333 11053 21194 7////
AAXX 14064 71674 16/// ///// 11092 21121 60001 333 11021 21132 7////
AAXX 14064 71857 16/// ///// 11052 21076 60001 333 11048 21123 7////
AAXX 14064 71055 46/// /0000 11343 21378 39850 40202 53016 6///1 333 11181 21343 7////
AAXX 14064 71065 16/// ///// 11047 21080 60001 333 11030 21117 7////
AAXX 14064 71346 16/// /3106 11126 21141 60001 333 11040 21229 7////
AAXX 14064 71540 16/// /2805 11079 21094 60001 333 11068 21170 7////
AAXX 14064 71544 16/// ///// 11017 21051 60001 333 11001 21087 7////
AAXX 14064 71548 16/// ///// 11036 21076 60001 333 11009 21088 7////
AAXX 14064 71014 16/// /1502 11100 21126 60001 333 7////
AAXX 14064 71481 16/// /3108 11024 21057 60001 333 10009 21078 7////
AAXX 14064 71498 16/// /3001 11126 21134 60001 333 11072 21229 7////
AAXX 14064 71249 16/// /2507 11119 21130 60001 333 11054 21187 7////
AAXX 14064 41241 32960 11504 10233 20062 30174 40209 80001 333 00027 20180 58012 81070
AAXX 14064 41242 36/// /3502 10250 20111 30199 40223 333 0E017 20140 58012
AAXX 14064 41244 NIL
AAXX 14064 41246 32960 33603 10241 20151 30204 40208 80001 333 20190 3/020 58012 83070
AAXX 14064 41251 32965 22002 10158 21200 38073 48168 80001 333 20081 3/006 58006 82075
AAXX 14064 41252 31958 21101 10223 20108 39828 40200 70500 80002 333 20131 58004 82075
AAXX 14064 41253 36/// /0000 10220 20153 39836 40221 333 0E016 20150 58011
AAXX 14064 41254 36/// /3204 10165 21194 38283 48288 333 0E003 20049 5////
AAXX 14064 41255 36/// /2001 10235 20069 39666 40217 333 0E018 20118 58005
AAXX 14064 41256 32560 30502 10248 20170 30202 40212 83500 333 20181 58012 83620
AAXX 14064 41257 36/// /2002 10214 20155 39730 40221 333 0E015 20150 58010
AAXX 14064 41258 36/// /0402 10244 20152 30201 40205 333 0E/// 20217 58014
AAXX 14064 41259 NIL
AAXX 14064 41262 NIL
AAXX 14064 41263 NIL
AAXX 14064 41264 NIL
AAXX 14064 41265 NIL
AAXX 14064 41267 35/80 /3516 10244 20159 30192 40208 333 0E021 20220 58017
AAXX 14064 41268 32560 10113 10250 20154 30190 40206 81500 333 20180 3/020 58016 81625
AAXX 14064 41270 NIL
AAXX 14064 41275 NIL
AAXX 14064 41287 NIL
AAXX 14064 41288 32460 40716 10258 20185 30181 40203 81501 333 20224 58009 81610 83070
AAXX 14064 41290 NIL
AAXX 14064 41295 36/// /3110 10201 20133 30019 40199 333 0E018 20146 58009
AAXX 14064 41304 NIL
AAXX 14064 41312 36/// /0104 10235 20072 30154 40194 333 0E/// 20194 58014
AAXX 14064 41314 NIL
AAXX 14064 41315 36/// /3319 10128 20026 39202 42839 333 0E/// 20095 58009
AAXX 14064 41316 31957 53314 10230 20040 30170 40197 70611 80001 333 20186 58014 85075
AAXX 14064 41264 36/70 /1203 10215 20098 39822 40192 333 0E017 20121 58006
AAXX 14064 41270 36/70 /0113 10249 20158 30149 40160 333 0E020 20213 58017
AAXX 14064 41287 36/// /0306 10224 20146 30160 40229 333 0E017 20144 58009
AAXX 14064 41263 36/// /0000 10221 20046 39524 40218 333 0E012 20124 58006
AAXX 14064 41259 36/// /2202 10109 21219 37160 40343 333 0E/// 20062 58006
AAXX 14064 41265 36/// /1204 10216 20126 39660 40215 333 0E021 20131 58009
AAXX 14064 41244 36/// /3303 10213 20105 39856 48461 333 0E014 20113 58009
AAXX 14061 40001 32970 00404 10033 21003 40239 53006 333 20018 30///
AAXX 14061 40007 31950 70000 10025 20012 40261 51006 71022 84048 333 20017 31/// 50084 84360 87370 87270
AAXX 14061 40025 32960 60703 10080 20022 40201 53001 83032 333 20083 31/// 51/// 83360 85070
AAXX 14061 40045 32970 00000 10020 21031 40260 53006 333 21005 30/// 55060
AAXX 14061 40061 32970 80000 10022 21011 40247 53007 80007 333 20002 31/// 50064 55059 88270 40080 32965 60401 10038 21043 39502 40234 55000 82032 333 20008 82360 85070
AAXX 14061 40087 NIL
AAXX 14061 40095 NIL
AAXX 14061 40009 32965 30000 10030 21018 40236 53004 80002 333 20004 30/// 83070
AAXX 14061 40016 32970 32801 10004 21007 40283 51004 80001 333 21008 30/// 55089 70000 83070
AAXX 14061 40022 32965 60303 10118 20025 40207 52009 80002 222// 20000 333 20108 30/// 86070
AAXX 14061 40030 32970 60000 10028 20012 40243 53006 80008 333 20027 31/// 50084 55081 86270
AAXX 14061 40039 32970 40000 10010 20001 40251 51007 84050 333 20000 30/// 55075 70000 84360
AAXX 14061 40066 32970 50603 10100 21003 40197 58001 80008 333 20096 30/// 85070
AAXX 14061 40072 32570 60000 10018 21076 40270 53004 83550 333 20000 30/// 83630 86360
AAXX 14061 40083 32570 40000 10038 21028 48524 51001 82205 333 20030 30/// 82826 84270
AAXX 14064 64500 11308 83602 10235 20223 30097 40111 60024 79596 8692/ 333 02422 20227 50281 55090 58004 84606 85626 88460 94959 95839
AAXX 14063 64501 12300 80000 10260 20237 3//// 4//// 60114 76566 889// 333 0//81 20252 50294 55077 5//// 84605 81916 88623 94941 95831
AAXX 14063 64507 NIL
AAXX 14064 64510 32258 8//// 10218 20215 3//// 4//// 885// 333 0//00 20218 5///4 55/// 5//// 85703 88610
AAXX 14064 64550 32358 8//// 10235 20222 30/// 40/// 885// 333 0//00 20225 50114 55/// 5//// 84608 88623
AAXX 14064 64551 NIL
AAXX 14064 64556 NIL
AAXX 14064 64570 32457 80000 10225 20218 39622 40131 8353/ 333 02100 20220 50174 55/// 58002 83610 88363
BBXX A8CQ5 14063 99050 30795 41598 62910 10310 20/// 40100 54000 70100 85283 22214 04300 2////
BBXX ZCBV4 14064 99058 30844 41398 32304 10307 20282 40140 52012 70111 82462 22253 00294 20401 316// 41204 80288
AAXX 14064 96987 32560 50407 10320 20233 30007 40065 57024 83231 333 56000 57802 83820 80860
AAXX 14064 41244 36/// /3303 10213 20105 39856 48461 333 0E014 20113 58009
AAXX 14064 41246 32960 33603 10241 20151 30204 40208 80001 333 20190 3/020 58012 83070
AAXX 14064 41254 36/// /3204 10165 21194 38283 48288 333 0E003 20049 5////
AAXX 14064 41256 32560 30502 10248 20170 30202 40212 83500 333 20181 58012 83620
AAXX 14064 41258 36/// /0402 10244 20152 30201 40205 333 0E/// 20217 58014
AAXX 14064 41268 32560 10113 10250 20154 30190 40206 81500 333 20180 3/020 58016 81625
AAXX 14064 41312 36/// /0104 10235 20072 30154 40194 333 0E/// 20194 58014
AAXX 14064 41316 31957 53314 10230 20040 30170 40197 70611 80001 333 20186 58014 85075
AAXX 14064 60515 11960 00000 10040 20033 40283 55003 60004 700// 333 00000 20025 95990
AAXX 14061 38656 32998 00901 10007 21013 30216 40329 52005 333 21041
AAXX 1406/ 89767 46/// ///// 11070 39694 4//// 5////
AAXX 14064 71710 16/// /0315 11017 21058 30255 40265 51007 60001 333 10042 21017 70000 555 30525 40011
AAXX 14064 91844 46/// /0106 10272 40141 22200 00280
AAXX 14064 71710 16/// /0315 11017 21058 30255 40265 51007 60001 333 10042 21017 70000 555 30525 40011
AAXX 14064 60590 12960 13205 10025 21002 40285 56001 60002 80002 333 0//00 20022 81083
BBXX SHIP 14064 99335 71733 41297 82520 10195 20172 40039 50010 70226 885// 22225 00209 20607 323// 41008 80180
BBXX VRBQ6 14064 99335 71733 41297 82520 10195 20172 40039 50010 70226 885// 22225 00209 20607 323// 41008 80180
BBXX S6JT 14064 99528 11796 41/96 92748 11010 21011 49715 58008 70274 897// 22223 04040 20610 81010
BBXX 62123 14064 99563 10022 41/97 /2345 10069 20042 49760 52009 7//// 8//// 22200 20912 323// 40916 5////
BBXX AMOUK08 14064 99501 70061 46/// ///// 10076 20021 39930 49935 54002 90550
BBXX PJGO 14064 99571 10022 47196 /2136 10068 20029 49727 52021 762// 22200
BBXX 63110 14064 99595 10015 47496 /2135 10076 20046 49577 51009 762// 22200 10912 70061
BBXX 63106 14064 99610 10017 46/// /2130 10059 49540 51005 22200
BBXX 63113 14064 99610 10017 46/// /2327 10063 20036 49549 52014 22200 10912 70058
BBXX 62304 14064 99511 10018 46/98 /2311 10064 20026 49929 57011 22200 00120 10702 70008
BBXX 62103 14064 99499 70029 46/99 /2727 10094 20030 49928 57005 22200 00126 10906 70030 333 90710 91135
BBXX AMOUK04 14064 99533 70062 46/// ///// 10029 2//// 39848 4//// 52038 90550
BBXX C6FY5 14064 99029 70466 41598 21116 10240 2020/ 40110 54/// 7//00 821// 22273 04280 2//// 309// 40804 5//// 6//// 80210 ICE /////
BBXX ONFP 14064 99365 30326 43696 30719 10210 2018/ 40070 55010 70311 83134 22223 04180 20806 30909 40806 50806 6//// 80190 ICE /////
AAXX 14064 87692 31257 81409 10170 20150 30165 40190 57011 71022 887// 333 56399 88706 555 10189
AAXX 14064 87692 31257 81409 10170 20150 30165 40190 57011 71022 887// 333 56399 88706
BBXX C6FY5 14064 99029 70466 41598 21116 10240 2020/ 40110 54/// 7//00 821// 22273 04280 2//// 309// 40804 5//// 6//// 80210 ICE /////
BBXX ONFP 14064 99365 30326 43696 30719 10210 2018/ 40070 55010 70311 83134 22223 04180 20806 30909 40806 50806 6//// 80190 ICE /////
BBXX VRFN8 14063 99378 31400 41698 61614 10230 20183 40135 7//// 83173 22274 00170 20401 323// 41006 80200
BBXX VCYP 14064 99470 70853 41/98 81510 10003 20003 40999 57005 70222 8//// 22273 0//// 2//01 3//// 4//// 5//// 6//// 8//// ICE /////
BBXX BSH05 14061 99550 10079 46/// ///// 22200 21107 70034
BBXX BSH02 14061 99542 10079 46/// ///// 22200 00081 21107 70037
BBXX BSH03 14061 99540 10081 46/// ///// 22200 00067 1//05 70027
OOXX MYP42 14041 99045 11014 ///// 15551 26/// /2601 10212 29087 38431 90403 333 60000
OOXX MYP42 14041 99045 11014 ///// 15551 26/// /3501 10208 29088 38436 90413 333 60000
OOXX MYP42 14041 99045 11014 ///// 15551 26/// /2901 10211 29085 38434 90423 333 60000
OOXX MYP42 14041 99045 11014 ///// 15551 26/// /2404 10204 29088 38429 90433 333 60000
OOXX MYP42 14041 99045 11014 ///// 15551 26/// /3501 10210 29087 38414 90443 333 60000
OOXX MYP42 14041 99045 11014 ///// 15551 26/// /3001 10214 29085 38425 90453 333 60000
OOXX MYP42 14051 99045 11014 ///// 15551 26/// /2701 10216 29086 38420 90503 333 60000
OOXX MYP42 14051 99045 11014 ///// 15551 26/// /1705 10224 29075 38438 90513 333 60000
OOXX MYP42 14051 99045 11014 ///// 15551 26/// /3001 10228 29076 38440 90523 333 60000
OOXX MYP42 14051 99045 11014 ///// 15551 26/// /3101 10222 29083 38414 90533 333 60000
OOXX MYP42 14051 99045 11014 ///// 15551 26/// /2401 10228 29077 38425 90543 333 60000
OOXX MYP42 14051 99045 11014 ///// 15551 26/// /0801 10244 29074 38423 90553 333 60000
OOXX RUP58 14041 99442 11320 ///// 01121 26/// /0305 11018 29067 39971 90442 333 60000
OOXX RUP58 14041 99442 11320 ///// 01121 26/// /0303 11016 29063 39971 90452 333 60000
OOXX RUP58 14051 99442 11320 ///// 01121 26/// /0304 11015 29055 39972 90502 333 60000
OOXX RUP58 14051 99442 11320 ///// 01121 26/// /0203 11015 29052 39973 90512 333 60000
OOXX RUP58 14051 99442 11320 ///// 01121 26/// /0204 11017 29053 39975 90522 333 60000
OOXX RUP58 14051 99442 11320 ///// 01121 26/// /0205 11020 29051 39975 90532 333 60000
OOXX RUP58 14051 99442 11320 ///// 01121 26/// /0105 11022 29050 39977 90542 333 60000
OOXX RUP58 14051 99442 11320 ///// 01121 26/// /0304 11023 29050 39978 90552 333 60000
OOXX RUP58 14061 99442 11320 ///// 01121 26/// /0104 11024 29049 39981 90602 333 60000
OOXX RUP58 14061 99442 11320 ///// 01121 26/// /3605 11028 29048 39983 90612 333 60000
OOXX RUP58 14061 99442 11320 ///// 01121 26/// /0103 11029 29048 39986 90622 333 60000
OOXX RUP58 14061 99442 11320 ///// 01121 26/// /0204 11034 29046 39988 90632 333 60000
OOXX CKP23 14041 99212 51598 ///// 00051 26/// /0303 10275 29084 30129 90450 333 60000
OOXX CKP23 14051 99212 51598 ///// 00051 26/// /0303 10274 29084 30130 90500 333 60000
OOXX CKP23 14051 99212 51598 ///// 00051 26/// /0203 10274 29084 30130 90510 333 60000
OOXX CKP23 14051 99212 51598 ///// 00051 26/// /0203 10273 29085 30131 90520 333 60000
OOXX CKP23 14051 99212 51598 ///// 00051 26/// /0204 10273 29084 30131 90530 333 60000
OOXX CKP23 14051 99212 51598 ///// 00051 26/// /0304 10274 29084 30132 90540 333 60000
OOXX CKP23 14051 99212 51598 ///// 00051 26/// /0305 10274 29082 30133 90550 333 60000
OOXX CKP23 14061 99212 51598 ///// 00051 26/// /0305 10274 29081 30133 90600 333 60000
OOXX CKP23 14061 99212 51598 ///// 00051 26/// /0305 10274 29081 30134 90610 333 60000
OOXX CKP23 14061 99212 51598 ///// 00051 26/// /0204 10274 29081 30135 90620 333 60000
OOXX CKP23 14061 99212 51598 ///// 00051 26/// /0205 10274 29082 30135 90630 333 60000
OOXX CKP23 14061 99212 51598 ///// 00051 26/// /0205 10274 29081 30135 90640 333 60000
OOXX FRP31 14031 99052 70527 ///// 00091 26/// /1401 10242 29094 30158 90357 333 60000
OOXX FRP31 14041 99052 70527 ///// 00091 26/// /0502 10241 29095 30158 90407 333 69980
OOXX FRP31 14041 99052 70527 ///// 00091 26/// /0503 10238 29094 30162 90417 333 69940
OOXX FRP31 14041 99052 70527 ///// 00091 26/// /0701 10237 29093 30156 90427 333 69920
OOXX FRP31 14041 99052 70527 ///// 00091 26/// /1001 10237 29093 30156 90437 333 60000
OOXX FRP31 14041 99052 70527 ///// 00091 26/// /0000 10237 29094 30155 90447 333 60000
OOXX FRP31 14041 99052 70527 ///// 00091 26/// /0000 10236 29094 30157 90457 333 69920
OOXX FRP31 14051 99052 70527 ///// 00091 26/// /0000 10236 29095 30157 90507 333 60000
OOXX FRP31 14051 99052 70527 ///// 00091 26/// /0000 10236 29095 30154 90517 333 69920
OOXX FRP31 14051 99052 70527 ///// 00091 26/// /1501 10237 29095 30153 90527 333 69920
OOXX FRP31 14051 99052 70527 ///// 00091 26/// /0000 10237 29095 30151 90537 333 60000
OOXX FRP31 14051 99052 70527 ///// 00091 26/// /1201 10237 29095 30149 90547 333 60000
OOXX AUP04 14051 99377 31451 ///// 00311 26/// /2303 10194 29045 30114 90506 333 60000
OOXX AUP04 14051 99377 31451 ///// 00311 26/// /2103 10191 29045 30116 90516 333 60000
OOXX AUP04 14051 99377 31451 ///// 00311 26/// /2003 10185 29047 30115 90526 333 60000
OOXX AUP04 14051 99377 31451 ///// 00311 26/// /2103 10186 29048 30115 90536 333 60000
OOXX AUP04 14051 99377 31451 ///// 00311 26/// /1903 10185 29048 30115 90546 333 60000
OOXX AUP04 14051 99377 31451 ///// 00311 26/// /1903 10180 29049 30116 90556 333 60000
OOXX AUP04 14061 99377 31451 ///// 00311 26/// /1902 10178 29051 30116 90606 333 60000
OOXX AUP04 14061 99377 31451 ///// 00311 26/// /2003 10185 29051 30116 90616 333 60000
OOXX AUP04 14061 99377 31451 ///// 00311 26/// /1903 10181 29053 30115 90626 333 60000
OOXX AUP04 14061 99377 31451 ///// 00311 26/// /2103 10185 29053 30116 90636 333 60000
OOXX AUP04 14061 99377 31451 ///// 00311 26/// /2203 10183 29054 30114 90646 333 60000
OOXX AUP04 14061 99377 31451 ///// 00311 26/// /2103 10179 29055 30114 90656 333 60000
OOXX KIP39 14041 99020 51574 ///// 00181 26/// /1203 10262 29077 30095 90430 333 60000
OOXX KIP39 14041 99020 51574 ///// 00181 26/// /1204 10260 29077 30097 90440 333 60000
OOXX KIP39 14041 99020 51574 ///// 00181 26/// /1204 10262 29077 30097 90450 333 60000
OOXX KIP39 14051 99020 51574 ///// 00181 26/// /1204 10261 29076 30100 90500 333 60000
OOXX KIP39 14051 99020 51574 ///// 00181 26/// /1203 10260 29078 30100 90510 333 60000
OOXX KIP39 14051 99020 51574 ///// 00181 26/// /1104 10260 29076 30101 90520 333 60000
OOXX KIP39 14051 99020 51574 ///// 00181 26/// /1204 10260 29078 30101 90530 333 60000
OOXX KIP39 14051 99020 51574 ///// 00181 26/// /1104 10260 29078 30103 90540 333 60000
OOXX KIP39 14051 99020 51574 ///// 00181 26/// /1203 10260 29078 30103 90550 333 60000
OOXX KIP39 14061 99020 51574 ///// 00181 26/// /1204 10259 29078 30105 90600 333 60000
OOXX KIP39 14061 99020 51574 ///// 00181 26/// /1204 10260 29078 30106 90610 333 60000
OOXX KIP39 14061 99020 51574 ///// 00181 26/// /1104 10261 29078 30107 90620 333 60000
OOXX NOP49 14041 99782 10154 ///// 04691 26/// /1004 11063 29086 39439 90410 333 6///0
OOXX NOP49 14041 99782 10154 ///// 04691 26/// /1004 11060 29084 39439 90420 333 6///0
OOXX NOP49 14041 99782 10154 ///// 04691 26/// /1105 11064 29087 39438 90430 333 6///0
OOXX NOP49 14041 99782 10154 ///// 04691 26/// /1105 11062 29087 39439 90440 333 6///0
OOXX NOP49 14041 99782 10154 ///// 04691 26/// /1005 11065 29087 39438 90450 333 6///0
OOXX NOP49 14051 99782 10154 ///// 04691 26/// /1005 11069 29090 39439 90500 333 6///0
OOXX NOP49 14051 99782 10154 ///// 04691 26/// /0904 11061 29088 39439 90510 333 6///0
OOXX NOP49 14051 99782 10154 ///// 04691 26/// /0904 11065 29086 39440 90520 333 6///0
OOXX NOP49 14051 99782 10154 ///// 04691 26/// /1003 11061 29084 39441 90530 333 6///0
OOXX NOP49 14051 99782 10154 ///// 04691 26/// /1105 11064 29087 39441 90540 333 6///0
OOXX NOP49 14051 99782 10154 ///// 04691 26/// /1104 11072 29088 39441 90550 333 6///0
OOXX NOP49 14061 99782 10154 ///// 04691 26/// /1105 11076 29088 39441 90600 333 6///0
OOXX MRP43 14041 99181 70159 ///// 00101 26/// /0502 10217 29014 30147 90440 333 60000
OOXX MRP43 14041 99181 70159 ///// 00101 26/// /0303 10220 29014 30148 90450 333 60000
OOXX MRP43 14051 99181 70159 ///// 00101 26/// /0403 10222 29014 30145 90500 333 60000
OOXX MRP43 14051 99181 70159 ///// 00101 26/// /0404 10223 29014 30145 90510 333 60000
OOXX MRP43 14051 99181 70159 ///// 00101 26/// /0404 10223 29014 30147 90520 333 60000
OOXX MRP43 14051 99181 70159 ///// 00101 26/// /0404 10222 29014 30147 90530 333 60000
OOXX MRP43 14051 99181 70159 ///// 00101 26/// /0404 10222 29014 30147 90540 333 60000
OOXX MRP43 14051 99181 70159 ///// 00101 26/// /0404 10223 29014 30147 90550 333 60000
OOXX MRP43 14061 99181 70159 ///// 00101 26/// /0503 10220 29014 30147 90600 333 60000
OOXX MRP43 14061 99181 70159 ///// 00101 26/// /0403 10221 29014 30148 90610 333 60000
OOXX MRP43 14061 99181 70159 ///// 00101 26/// /0303 10220 29014 30151 90620 333 60000
OOXX MRP43 14061 99181 70159 ///// 00101 26/// /0203 10215 29015 30151 90630 333 60000
OOXX GBP67 14041 99159 50057 ///// 04381 26/// /0902 10158 29078 39663 90410 333 60000
OOXX GBP67 14041 99159 50057 ///// 04381 26/// /0902 10158 29080 39663 90420 333 60000
OOXX GBP67 14041 99159 50057 ///// 04381 26/// /0903 10158 29082 39664 90430 333 60000
OOXX GBP67 14041 99159 50057 ///// 04381 26/// /1003 10157 29081 39663 90440 333 60000
OOXX GBP67 14041 99159 50057 ///// 04381 26/// /0903 10157 29078 39662 90450 333 60000
OOXX GBP67 14051 99159 50057 ///// 04381 26/// /0903 10158 29076 39665 90500 333 60000
OOXX GBP67 14051 99159 50057 ///// 04381 26/// /0903 10157 29084 39665 90510 333 60000
OOXX GBP67 14051 99159 50057 ///// 04381 26/// /1003 10155 29091 39665 90520 333 60000
OOXX GBP67 14051 99159 50057 ///// 04381 26/// /1003 10150 29094 39666 90530 333 60000
OOXX GBP67 14051 99159 50057 ///// 04381 26/// /1003 10151 29094 39665 90540 333 60000
OOXX GBP67 14051 99159 50057 ///// 04381 26/// /1003 10152 29093 39667 90550 333 60000
OOXX GBP67 14061 99159 50057 ///// 04381 26/// /1003 10151 29093 39670 90600 333 60000
OOXX AUP09 14041 99124 31309 ///// 00321 26/// ///// 1//// 29/// 3//// 90414 333 6///0
OOXX AUP09 14041 99124 31309 ///// 00321 26/// ///// 1//// 29/// 3//// 90424 333 6///0
OOXX AUP09 14041 99124 31309 ///// 00321 26/// ///// 1//// 29/// 3//// 90434 333 6///0
OOXX AUP09 14041 99124 31309 ///// 00321 26/// ///// 1//// 29/// 3//// 90444 333 6///0
OOXX AUP09 14041 99124 31309 ///// 00321 26/// ///// 1//// 29/// 3//// 90454 333 6///0
OOXX AUP09 14051 99124 31309 ///// 00321 26/// ///// 1//// 29/// 3//// 90504 333 6///0
OOXX AUP09 14051 99124 31309 ///// 00321 26/// ///// 1//// 29/// 3//// 90514 333 6///0
OOXX AUP09 14051 99124 31309 ///// 00321 26/// ///// 1//// 29/// 3//// 90524 333 6///0
OOXX AUP09 14051 99124 31309 ///// 00321 26/// ///// 1//// 29/// 3//// 90534 333 6///0
OOXX AUP09 14051 99124 31309 ///// 00321 26/// ///// 1//// 29/// 3//// 90544 333 6///0
OOXX AUP09 14051 99124 31309 ///// 00321 26/// ///// 1//// 29/// 3//// 90554 333 6///0
OOXX AUP09 14061 99124 31309 ///// 00321 26/// ///// 1//// 29/// 3//// 90604 333 6///0
OOXX PTP53 14041 99377 70257 ///// 00121 26/// /3304 10112 29001 30225 90410 333 60000
OOXX PTP53 14041 99377 70257 ///// 00121 26/// /3404 10112 29001 30227 90420 333 60000
OOXX PTP53 14041 99377 70257 ///// 00121 26/// /3404 10115 29001 30227 90430 333 60000
OOXX PTP53 14041 99377 70257 ///// 00121 26/// /3404 10114 29001 30229 90440 333 60000
OOXX PTP53 14041 99377 70257 ///// 00121 26/// /3504 10116 29001 30229 90450 333 60000
OOXX PTP53 14051 99377 70257 ///// 00121 26/// /3404 10117 29001 30229 90500 333 60000
OOXX PTP53 14051 99377 70257 ///// 00121 26/// /3404 10116 29001 30231 90510 333 60000
OOXX PTP53 14051 99377 70257 ///// 00121 26/// /3504 10119 29001 30231 90520 333 60000
OOXX PTP53 14051 99377 70257 ///// 00121 26/// /3404 10124 29001 30231 90530 333 60000
OOXX PTP53 14051 99377 70257 ///// 00121 26/// /3504 10127 29001 30230 90540 333 60000
OOXX PTP53 14051 99377 70257 ///// 00121 26/// /3504 10129 29001 30230 90550 333 60000
OOXX PTP53 14061 99377 70257 ///// 00121 26/// /3403 10130 29001 30230 90600 333 60000
OOXX FJP26 14041 99178 31775 ///// 00311 26/// /0902 10251 29093 30066 90410 333 60000
OOXX FJP26 14041 99178 31775 ///// 00311 26/// /1104 10243 29094 30067 90420 333 60000
OOXX FJP26 14041 99178 31775 ///// 00311 26/// /1103 10238 29096 30069 90430 333 60000
OOXX FJP26 14041 99178 31775 ///// 00311 26/// /1403 10234 29096 30069 90440 333 60000
OOXX FJP26 14041 99178 31775 ///// 00311 26/// /1204 10231 29096 30070 90450 333 60000
OOXX FJP26 14051 99178 31775 ///// 00311 26/// /0702 10231 29096 30070 90500 333 60000
OOXX FJP26 14051 99178 31775 ///// 00311 26/// /0902 10232 29096 30066 90510 333 60000
OOXX FJP26 14051 99178 31775 ///// 00311 26/// /1302 10233 29096 30069 90520 333 60000
OOXX FJP26 14051 99178 31775 ///// 00311 26/// /1101 10233 29097 30068 90530 333 60000
OOXX FJP26 14051 99178 31775 ///// 00311 26/// /1102 10234 29097 30068 90540 333 60000
OOXX FJP26 14051 99178 31775 ///// 00311 26/// /1003 10234 29096 30069 90550 333 60000
OOXX FJP26 14061 99178 31775 ///// 00311 26/// /1003 10235 29096 30068 90600 333 60000
OOXX CAP14 14041 99487 71234 ///// 00431 26/// /0000 10023 29079 30121 90420 333 60000
OOXX CAP14 14041 99487 71234 ///// 00431 26/// /0000 10018 29080 30121 90430 333 60000
OOXX CAP14 14041 99487 71234 ///// 00431 26/// /0000 10019 29080 30122 90440 333 60000
OOXX CAP14 14041 99487 71234 ///// 00431 26/// /0000 10021 29080 30121 90450 333 60000
OOXX CAP14 14051 99487 71234 ///// 00431 26/// /0000 10021 29079 30122 90500 333 60000
OOXX CAP14 14051 99487 71234 ///// 00431 26/// /2801 10026 29081 30124 90510 333 60000
OOXX CAP14 14051 99487 71234 ///// 00431 26/// /2701 10021 29078 30122 90520 333 60000
OOXX CAP14 14051 99487 71234 ///// 00431 26/// /1501 10009 29083 30123 90530 333 60000
OOXX CAP14 14051 99487 71234 ///// 00431 26/// /0000 10009 29084 30124 90540 333 60000
OOXX CAP14 14051 99487 71234 ///// 00431 26/// /0000 10005 29084 30124 90550 333 60000
OOXX CAP14 14061 99487 71234 ///// 00431 26/// /0000 10005 29085 30124 90600 333 60000
OOXX CAP14 14061 99487 71234 ///// 00431 26/// /0000 11002 29085 30125 90610 333 60000
OOXX RUP59 14041 99539 10848 ///// 02121 26/// /3502 11127 29069 30058 90440 333 60000
OOXX RUP59 14041 99539 10848 ///// 02121 26/// /3302 11128 29069 30056 90450 333 60000
OOXX RUP59 14051 99539 10848 ///// 02121 26/// /3501 11129 29068 30057 90500 333 60000
OOXX RUP59 14051 99539 10848 ///// 02121 26/// /3401 11127 29067 30056 90510 333 60000
OOXX RUP59 14051 99539 10848 ///// 02121 26/// /3501 11127 29068 30056 90520 333 60000
OOXX RUP59 14051 99539 10848 ///// 02121 26/// /0102 11127 29069 30059 90530 333 60000
OOXX RUP59 14051 99539 10848 ///// 02121 26/// /3602 11125 29068 30058 90540 333 60000
OOXX RUP59 14051 99539 10848 ///// 02121 26/// /3502 11122 29067 30057 90550 333 60000
OOXX RUP59 14061 99539 10848 ///// 02121 26/// /3503 11121 29067 30057 90600 333 60000
OOXX RUP59 14061 99539 10848 ///// 02121 26/// /3602 11119 29066 30056 90610 333 60000
OOXX RUP59 14061 99539 10848 ///// 02121 26/// /3401 11115 29064 30055 90620 333 60000
OOXX RUP59 14061 99539 10848 ///// 02121 26/// /3401 11111 29061 30054 90630 333 60000
OOXX MXP44 14041 99280 71140 ///// 00041 26/// /1422 10125 29054 30167 90410 333 60000
OOXX MXP44 14041 99280 71140 ///// 00041 26/// /1422 10124 29054 30170 90420 333 60000
OOXX MXP44 14041 99280 71140 ///// 00041 26/// /1422 10122 29054 30171 90430 333 60000
OOXX MXP44 14041 99280 71140 ///// 00041 26/// /1422 10123 29054 30171 90440 333 60000
OOXX MXP44 14041 99280 71140 ///// 00041 26/// /1422 10124 29054 30173 90450 333 60000
OOXX MXP44 14051 99280 71140 ///// 00041 26/// /1422 10124 29054 30175 90500 333 60000
OOXX MXP44 14051 99280 71140 ///// 00041 26/// /1422 10122 29054 30175 90510 333 60000
OOXX MXP44 14051 99280 71140 ///// 00041 26/// /1422 10122 29054 30176 90520 333 60000
OOXX MXP44 14051 99280 71140 ///// 00041 26/// /1422 10118 29054 30177 90530 333 60000
OOXX MXP44 14051 99280 71140 ///// 00041 26/// /1422 10116 29054 30179 90540 333 60000
OOXX MXP44 14051 99280 71140 ///// 00041 26/// /1422 10116 29054 30180 90550 333 60000
OOXX MXP44 14061 99280 71140 ///// 00041 26/// /1422 10114 29054 30178 90600 333 60000
OOXX RUP54 14041 99586 10494 ///// 01271 26/// /0102 11100 29090 30133 90427 333 60120
OOXX RUP54 14041 99586 10494 ///// 01271 26/// /0302 11100 29090 30132 90437 333 60120
OOXX RUP54 14041 99586 10494 ///// 01271 26/// /0104 11100 29090 30133 90447 333 60120
OOXX RUP54 14041 99586 10494 ///// 01271 26/// /0203 11099 29090 30133 90457 333 60120
OOXX RUP54 14051 99586 10494 ///// 01271 26/// /0403 11099 29090 30133 90507 333 60120
OOXX RUP54 14051 99586 10494 ///// 01271 26/// /0303 11098 29090 30132 90517 333 60120
OOXX RUP54 14051 99586 10494 ///// 01271 26/// /0203 11098 29090 30132 90527 333 60120
OOXX RUP54 14051 99586 10494 ///// 01271 26/// /3604 11098 29090 30131 90537 333 60120
OOXX RUP54 14051 99586 10494 ///// 01271 26/// /0203 11099 29090 30131 90547 333 60120
OOXX RUP54 14051 99586 10494 ///// 01271 26/// /0103 11098 29090 30131 90557 333 60120
OOXX RUP54 14061 99586 10494 ///// 01271 26/// /0203 11098 29090 30131 90607 333 60120
OOXX RUP54 14061 99586 10494 ///// 01271 26/// /0203 11098 29090 30131 90617 333 60120
OOXX NZP46 14041 99438 51765 ///// 00221 26/// /0409 10158 29065 30242 90430 333 60000
OOXX NZP46 14041 99438 51765 ///// 00221 26/// /0409 10159 29066 30242 90440 333 60000
OOXX NZP46 14041 99438 51765 ///// 00221 26/// /0408 10160 29066 30241 90450 333 60000
OOXX NZP46 14051 99438 51765 ///// 00221 26/// /0309 10160 29065 30241 90500 333 60000
OOXX NZP46 14051 99438 51765 ///// 00221 26/// /0409 10158 29066 30240 90510 333 60000
OOXX NZP46 14051 99438 51765 ///// 00221 26/// /0409 10153 29068 30240 90520 333 60000
OOXX NZP46 14051 99438 51765 ///// 00221 26/// /0408 10153 29068 30238 90530 333 60000
OOXX NZP46 14051 99438 51765 ///// 00221 26/// /0409 10152 29068 30237 90540 333 60000
OOXX NZP46 14051 99438 51765 ///// 00221 26/// /0409 10153 29066 30237 90550 333 60000
OOXX NZP46 14061 99438 51765 ///// 00221 26/// /0509 10147 29069 30237 90600 333 60000
OOXX NZP46 14061 99438 51765 ///// 00221 26/// /0409 10145 29070 30237 90610 333 60000
OOXX NZP46 14061 99438 51765 ///// 00221 26/// /0409 10142 29072 30236 90620 333 60000
OOXX FRP30 14041 99493 30703 ///// 00361 26/// /2109 10086 29077 30109 90457 333 60000
OOXX FRP30 14051 99493 30703 ///// 00361 26/// /2108 10084 29078 30110 90507 333 60000
OOXX FRP30 14051 99493 30703 ///// 00361 26/// /2208 10083 29076 30111 90517 333 60000
OOXX FRP30 14051 99493 30703 ///// 00361 26/// /2108 10086 29076 30111 90527 333 60000
OOXX FRP30 14051 99493 30703 ///// 00361 26/// /2108 10085 29075 30106 90537 333 60000
OOXX FRP30 14051 99493 30703 ///// 00361 26/// /2208 10088 29074 30110 90547 333 60000
OOXX FRP30 14051 99493 30703 ///// 00361 26/// /2209 10090 29073 30112 90557 333 60000
OOXX FRP30 14061 99493 30703 ///// 00361 26/// /2109 10092 29072 30112 90607 333 60000
OOXX FRP30 14061 99493 30703 ///// 00361 26/// /2109 10090 29073 30112 90617 333 60000
OOXX FRP30 14061 99493 30703 ///// 00361 26/// /2109 10089 29072 30112 90627 333 60000
OOXX FRP30 14061 99493 30703 ///// 00361 26/// /2109 10091 29070 30111 90637 333 60000
OOXX FRP30 14061 99493 30703 ///// 00361 26/// /2109 10094 29068 30112 90647 333 60000
AAXX 14061 58968 11540 80903 10199 20184 30166 40174 57027 60051 76166 887//
AAXX 14061 58974 11460 80509 10192 20161 30058 40182 57030 69951 70262 886//
AAXX 14061 59358 31930 73303 10243 20189 30127 40158 57023 70522 8707/
AAXX 14061 59559 32568 70406 10238 20193 30118 40146 57023 874//
AAXX 14061 59792 11459 70408 10238 20206 30144 40149 57025 69901 71052 84410
AAXX 14061 59997 11458 80503 10276 20254 30090 40101 57022 60041 72582 8342/
AAXX 14061 59158 32660 73503 10225 20172 30053 40153 57021 87500
AAXX 14061 59562 32565 60405 10232 20196 30153 40164 57022 84730
AAXX 14061 59567 11260 80208 10206 20196 39780 40157 56021 69951 72162 885//
AAXX 14064 91559 46/// /9901 10288 40055 22200 00284
AAXX 14064 16224 11557 81505 10096 20081 39872 40192 55007 60012 76062 8681/ 333 20090 32/// 55053 2//// 82820 84625 86458
AAXX 14063 63702 31420 80508 20173 71044 8257/ 333 20156 82618 88462 555 10177
AAXX 14063 63674 31458 80206 10217 20183 39082 48528 70542 8257/ 333 20184 58020 83618 88461 555 10195
AAXX 14063 63630 32980 80905 10250 10250 20168 48/// 80007 333 20185 88080 555 10200
AAXX 14063 63682 12480 82604 10192 20173 48/// 60014 8297/ 333 20185 82819 81921 88461 555 10180
AAXX 14064 71323 16/// /3204 11008 21012 39991 40278 50000 60001 333 10003 21078 70000
AAXX 14064 71384 16/// /3203 10002 21034 30288 40296 58002 60001 333 10023 21012 70000 555 30821 40011
AAXX 14064 71386 16/// /1401 11074 21087 30083 40295 56005 60001 333 11005 21074 70010
AAXX 14064 71050 46/// /2301 11058 21078 39086 40182 52021 6///1 333 11005 21131 7////
AAXX 14064 71323 16/// /3204 11008 21012 39991 40278 50000 60001 333 10003 21078 70000
AAXX 14064 71050 46/// /2301 11058 21078 39086 40182 52021 6///1 333 11005 21131 7////
AAXX 14064 71384 16/// /3203 10002 21034 30288 40296 58002 60001 333 10023 21012 70000 555 30821 40011
AAXX 14064 71386 16/// /1401 11074 21087 30083 40295 56005 60001 333 11005 21074 70010
AAXX 14064 89610 46/// /0415 11026 39628 4//// 5//// 333 90700 91118
AAXX 14064 89610 46/// /0415 11026 39628 4//// 5//// 333 90700 91118
AAXX 14061 03976 11470 73007 10039 20008 39814 49826 50009 60122 72782 879// 333 20028 32001 55000 83716 86920 96489 96483 90710 91120
AAXX 14064 89610 46/// /0415 11026 39628 4//// 5//// 333 90700 91118
AAXX 1406/ 89799 46/// ///// 11280 4//// 5//// 90630
AAXX 1406/ 89879 46/// ///// 10011 39743 4//// 5//// 90640
AAXX 14064 91531 46/// /0707 1//// 40054 22200 00281
AAXX 14064 91532 45/// /0708 10289 20238 30065 40073 52002
AAXX 14063 63612 32980 00908 10290 20174 40082 333 20212 59038
AAXX 14064 43533 11460 80504 10289 20249 30114 40117 60001 71722 82977 333 58002 82818 81919 83362 88275
AAXX 14064 43555 12460 70507 10295 20252 30113 40116 60001 82278 333 58000 82818 83362 87276
AAXX 14064 43577 12468 32705 10316 20260 30115 40117 60001 82942 333 58001 82818 81919
AAXX 14064 43588 12465 52908 10298 20262 30112 40114 60001 84932 333 58004 83818 81919
AAXX 14064 43599 11465 42709 10295 20249 30115 40117 69901 70282 82232 333 58004 82818
AAXX 14064 43400 NIL
AAXX 14064 43404 22470 7//// 10288 20239 30108 40118 862// 333 58000 60007 70127 86818
AAXX 14064 43410 NIL
AAXX 14064 43413 22470 40504 10290 20259 30117 40120 84300 333 58003 60007 70004 84919
AAXX 14064 43415 22470 40000 10300 20240 30009 40117 84200 333 58001 60007 70176 84818
AAXX 14064 43418 22470 60207 10296 20243 3//// 4//// 86332 333 5//// 60007 70227 85818 82920
AAXX 14064 43421 22470 60000 10287 20237 30015 40117 86901 333 58001 60007 70051 85818 82920
AAXX 14064 43422 21470 509// 10286 20243 39986 40116 70341 84176 333 58001 60007 70001 84818 83280
AAXX 14064 43424 22478 40505 10306 20240 30102 40105 84200 333 58007 60007 70000 84816
AAXX 14064 43436 21470 30707 10287 20241 30113 40116 70382 82130 333 58005 60147 70149 82817
AAXX 14064 43441 22470 70000 10294 20218 39977 40106 8412/ 333 58014 60007 70001 84818 87460
AAXX 14064 43444 21470 71403 10244 20215 39583 40116 78082 8417/ 333 58009 69927 70006 84818 86460
AAXX 14064 43467 22460 80505 10286 20249 30101 40106 8111/ 333 58011 60007 70615 81816 88456
AAXX 14064 43473 21360 80905 10147 20139 38136 48503 76165 882// 333 59003 69997 70020 83705 88808
AAXX 14064 43475 21470 80502 10260 20240 30103 40112 78082 8792/ 333 59005 60017 70164 87818 82919 88460
AAXX 14064 43476 21460 83607 10181 20175 38786 48529 78086 882// 333 58002 60037 70076 88811
AAXX 14064 43479 21440 80000 10219 20205 39281 76062 8427/ 333 58004 60027 70071 84816 87458
AAXX 14064 43486 22460 80000 10266 20246 30006 40100 8422/ 333 58009 60007 79999 84814 87460
AAXX 14064 43495 21464 8//// 10262 20239 30092 40108 72582 8422/ 333 58001 69957 79999 84818 83358 88460
AAXX 14064 43497 21470 70208 10258 20246 30081 40098 76086 8297/ 333 58000 60057 70051 81818 81920 87460
AAXX 14064 43533 11460 80504 10289 20249 30114 40117 60001 71722 82977 333 58002 82818 81919 83362 88275
AAXX 14064 43555 12460 70507 10295 20252 30113 40116 60001 82278 333 58000 82818 83362 87276
AAXX 14064 43577 12468 32705 10316 20260 30115 40117 60001 82942 333 58001 82818 81919
AAXX 14064 43588 12465 52908 10298 20262 30112 40114 60001 84932 333 58004 83818 81919
AAXX 14064 43599 11465 42709 10295 20249 30115 40117 69901 70282 82232 333 58004 82818
AAXX 14064 43466 22470 70502 10285 20243 30090 40102 8512/ 333 58012 60007 70017 85818 86460
AAXX 14064 43400 NIL
AAXX 14064 43404 22470 7//// 10288 20239 30108 40118 862// 333 58000 60007 70127 86818
AAXX 14064 43410 NIL
AAXX 14064 43413 22470 40504 10290 20259 30117 40120 84300 333 58003 60007 70004 84919
AAXX 14064 43415 22470 40000 10300 20240 30009 40117 84200 333 58001 60007 70176 84818
AAXX 14064 43418 22470 60207 10296 20243 3//// 4//// 86332 333 5//// 60007 70227 85818 82920
AAXX 14064 43421 22470 60000 10287 20237 30015 40117 86901 333 58001 60007 70051 85818 82920
AAXX 14064 43422 21470 509// 10286 20243 39986 40116 70341 84176 333 58001 60007 70001 84818 83280
AAXX 14064 43424 22478 40505 10306 20240 30102 40105 84200 333 58007 60007 70000 84816
AAXX 14064 43436 21470 30707 10287 20241 30113 40116 70382 82130 333 58005 60147 70149 82817
AAXX 14064 43441 22470 70000 10294 20218 39977 40106 8412/ 333 58014 60007 70001 84818 87460
AAXX 14064 43444 21470 71403 10244 20215 39583 40116 78082 8417/ 333 58009 69927 70006 84818 86460
AAXX 14064 43467 22460 80505 10286 20249 30101 40106 8111/ 333 58011 60007 70615 81816 88456
AAXX 14064 43473 21360 80905 10147 20139 38136 48503 76165 882// 333 59003 69997 70020 83705 88808
AAXX 14064 43475 21470 80502 10260 20240 30103 40112 78082 8792/ 333 59005 60017 70164 87818 82919 88460
AAXX 14064 43476 21460 83607 10181 20175 38786 48529 78086 882// 333 58002 60037 70076 88811
AAXX 14064 43479 21440 80000 10219 20205 39281 76062 8427/ 333 58004 60027 70071 84816 87458
AAXX 14064 43486 22460 80000 10266 20246 30006 40100 8422/ 333 58009 60007 79999 84814 87460
AAXX 14064 43495 21464 8//// 10262 20239 30092 40108 72582 8422/ 333 58001 69957 79999 84818 83358 88460
AAXX 14064 43497 21470 70208 10258 20246 30081 40098 76086 8297/ 333 58000 60057 70051 81818 81920 87460
BBXX MINFR03 1406/ 99227 30522 46/// ///// 10265 40132 52006
AAXX 14061 30692 42999 83206 11184 21243 39746 40276 57/// 8805/ 333 91010
AAXX 14064 60107 32560 20602 10099 20047 40253 56003 82500 333 20092 31006 82626 95300
AAXX 14064 89507 46/89 /1206 11309 29063 36746 4//// 5////
AAXX 14063 67775 11350 83411 10164 20149 38519 48523 60294 76496 8277/ 333 82708 88458
AAXX 14064 67775 11350 83411 10164 20149 38519 48523 60294 76496 8277/ 333 58016 82708 88458
BBXX 44056 14061 99362 70757 46/// ///// 1//// 90620 22200 00118 11203 20903 310// 41201 70014
AAXX 14064 71295 16/// /1402 11028 21039 39732 40186 56019 60001 333 11028 21140 70000
AAXX 14064 71016 16/// ///// 11007 60001 333 11007 21115 70000
BBXX 46109 14061 99481 71234 46/// /1702 10051 40195 90557 22200 00079
BBXX 46110 14061 99481 71230 46/// /0901 10057 40193 90558
BBXX 41052 14061 99183 70648 46/// /0202 10259 40106 90630 333 91202
BBXX 41052 14061 99183 70648 46/// /3601 10259 40107 90620 333 91202
BBXX 41052 14061 99183 70648 46/// /3401 10259 40108 90610 333 91201
BBXX 41038 14061 99341 70777 46/// /0304 10140 40285 54000 90600 22200 00141 333 91205
BBXX 44055 14061 99391 70753 46/// ///// 1//// 90630 22200 00090 10301 70006
AAXX 14064 91642 46/// /0000 1//// 40075 22200 0////
AAXX 14061 03976 11470 73007 10039 20008 39814 49826 50009 60122 72782 879// 333 20028 32001 55000 83716 86920 96489 96483 90710 91120
BBXX 42044 14061 99262 70971 46/// /1505 10205 20190 40185 90600 22200 00192 333 91207
AAXX 1406/ 89108 46/// ///// 11240 36838 4//// 5//// 90640
AAXX 1406/ 89329 46/// ///// 11149 38657 4//// 5//// 90640
AAXX 1406/ 89799 46/// ///// 11281 4//// 5//// 90640
AAXX 1406/ 89314 46/// ///// 11178 38122 4//// 5//// 90640
BBXX MINFR03 1406/ 99227 30522 46/// ///// 10265 40132 52006
BBXX SHIP 14061 99195 11135 41597 50910 10252 20221 40174 51010 70122 858// 22284 00215 20403 30
BBXX 42044 14061 99262 70971 46/// /1505 10205 20190 40185 90600 22200 00192 333 91207
BBXX 44055 14061 99391 70753 46/// ///// 1//// 90630 22200 00090 10301 70006
BBXX 41038 14061 99341 70777 46/// /0304 10140 40285 54000 90600 22200 00141 333 91205
BBXX 46109 14061 99481 71234 46/// /1702 10051 40195 90557 22200 00079
BBXX 41052 14061 99183 70648 46/// /3601 10259 40107 90620 333 91202
BBXX 41052 14061 99183 70648 46/// /3401 10259 40108 90610 333 91201
BBXX 41052 14061 99183 70648 46/// /0202 10259 40106 90630 333 91202
BBXX 46110 14061 99481 71230 46/// /0901 10057 40193 90558
BBXX 44056 14061 99362 70757 46/// ///// 1//// 90620 22200 00118 11203 20903 310// 41201 70014
BBXX AMOUK04 14064 99533 70062 46/// ///// 10029 2//// 39848 4//// 52038 90550
BBXX 42047 14061 99279 70936 46/// /1410 10211 20180 40219 90600 22200 00228 333 91211
AAXX 14063 64402 11405 80000 10210 20207 39535 40108 60084 76194 8597/ 333 02051 20206 50154 55052 59001 84610 81926 88462 94943 95813
AAXX 14063 64403 11558 83604 10222 20215 39/// 40/// 60154 79596 8292/ 333 0//11 20210 50014 55/// 5//// 82926 88462 94959 95879
AAXX 14063 64405 11102 80000 10212 20209 39/// 40/// 60014 74696 889// 333 0//53 20200 50164 55/// 5//// 85702 87605 81926 94947 95837
AAXX 14063 64406 32458 70000 10240 20234 39/// 40/// 875// 333 0//00 20/// 50/// 55/// 5//// 87613
AAXX 14063 64452 32460 72202 10228 20213 39/// 40/// 84970 333 01800 20205 50184 55/// 5//// 84610 81926 86460 94945 95835
AAXX 14063 64454 32960 60000 10230 20216 39700 40120 86080 333 0//00 20219 50184 55/// 58008 86363
AAXX 14063 64462 31903 00000 10202 20199 39/// 40/// 74644 333 01800 20195 50154 55/// 5////
AAXX 14063 64463 32960 12802 10224 20211 39/// 40/// 81030 333 0//00 20/// 50314 55/// 5//// 81360
AAXX 14063 64402 11405 80000 10210 20207 39535 40108 60084 76194 8597/ 333 02051 20206 50154 55052 59001 84610 81926 88462 94943 95813
AAXX 14063 64403 11558 83604 10222 20215 39/// 40/// 60154 79596 8292/ 333 0//11 20210 50014 55/// 5//// 82926 88462 94959 95879
AAXX 14063 64405 11102 80000 10212 20209 39/// 40/// 60014 74696 889// 333 0//53 20200 50164 55/// 5//// 85702 87605 81926 94947 95837
AAXX 14063 64406 32458 70000 10240 20234 39/// 40/// 875// 333 0//00 20/// 50/// 55/// 5//// 87613
AAXX 14063 64452 32460 72202 10228 20213 39/// 40/// 84970 333 01800 20205 50184 55/// 5//// 84610 81926 86460 94945 95835
AAXX 14063 64454 32960 60000 10230 20216 39700 40120 86080 333 0//00 20219 50184 55/// 58008 86363
AAXX 14063 64462 31903 00000 10202 20199 39/// 40/// 74644 333 01800 20195 50154 55/// 5////
AAXX 14063 64463 32960 12802 10224 20211 39/// 40/// 81030 333 0//00 20/// 50314 55/// 5//// 81360
BBXX 46094 14061 99446 71243 46/// /0604 10060 90630
BBXX 46094 14061 99446 71243 46/// /0403 10060 90620
BBXX 46094 14061 99446 71243 46/// /0703 10061 90610
BBXX 46094 14061 99446 71243 46/// /1003 10061 90600
BBXX 46094 14061 99446 71243 46/// /0705 10061 90550
BBXX 46094 14061 99446 71243 46/// /0905 10062 90540
AAXX 14064 16310 12898 43206 10118 20081 39998 40221 53008 60002 84050 333 20106 30/// 55070 2//// 55300 84358 555 0316/
AAXX 14061 01271 17/84 01606 10044 21046 39681 49701 55008 60002 700// 333 20026 43004 70000 91116
BBXX MINFR03 1406/ 99227 30522 46/// ///// 10265 40132 52006
AAXX 14064 71539 16/// /2107 11045 21064 39417 40121 57011 60001 333 11035 21066 70000 555 31919 40111
BBXX 51203 14061 99208 71570 46/// ///// 1//// 90613 22200 00252 11301 20801 320// 41301 70007
AAXX 14064 92036 46/// /2304 10261 40052 22200 00311
AAXX 14064 89667 46/// /0405 11036 29068 39810 4//// 5//// 90640
AAXX 1406/ 89872 46/// ///// 11038 39759 4//// 5//// 90640
AAXX 1406/ 89869 46/// ///// 11053 39739 4//// 5//// 90640
AAXX 1406/ 89332 46/// ///// 11093 39122 4//// 5//// 90640
AAXX 14061 01415 17562 82111 10069 20035 39691 49701 52004 6//// 781// 333 20023 70156 91121
AAXX 14064 16294 12597 42404 10134 20091 30021 40214 50001 60002 84500 333 20124 30/// 84630 555 0215/
BBXX 62123 14064 99563 10022 47597 /2337 10069 20037 49739 52012 700// 22200
BBXX 63106 14064 99610 10017 46/// /2130 10059 49540 51005 22200
BBXX 63105 14064 99610 10017 47596 ///// 10067 20037 49540 51006 763// 22200
BBXX 63110 14063 99595 10015 41/97 /2150 10075 20044 49569 78186 8//// 22200 11012 70060
BBXX 62304 14064 99511 10018 46/98 /2313 10063 20024 49949 56012 22200 00119 10702 70008 333 90710 91126
BBXX 62107 14064 99501 70061 46/// /2530 10071 20012 49937 52007 22200 00116 11010 70048 333 90710 91147
BBXX 64049 14063 99571 10022 41/97 82350 10080 20074 49777 52010 70722 8//// 22200 04092 20814 323// 40816 5//// 80077
BBXX 62103 14064 99499 70029 46/99 /2727 10089 20031 49928 55003 22200 00125 11007 70034 333 90710 91142
AAXX 14061 01311 47462 81813 10058 20038 39596 49655 53013 723// 333 91123
AAXX 14061 01025 17/84 12207 10026 21027 39803 49814 57013 60002 700// 333 21069 43025 91111
AAXX 14064 93713 46/// /0000 10161 40009 22200 00158
AAXX 14064 91689 46/// /9901 10265 40091 22200 00294
BBXX 3EAT6 14063 99259 31654 41298 72217 10260 20260 40084 54000 70322 8/77/ 22253 00260 305// 40202
BBXX 3EAT6 14063 99259 31654 41298 72217 10260 20260 40084 54000 70322 8/77/ 22253 00260 305// 40202
BBXX PEBT 14063 99375 10056 41598 22519 10170 20147 40220 54000 7//00 82500 22263 02147 20402 329// 40603 5//// 80156
BBXX MINUK01 1406/ 99589 70014 46/// ///// 10078 49599 57021
BBXX MINUK03 1406/ 99544 70003 46/// ///// 10053 49830 57034
BBXX AMOUK04 14064 99533 70062 46/// ///// 10029 2//// 39848 4//// 52038 90550
BBXX ZCBF3 14063 99388 70126 41297 52923 10160 20143 40249 7//// 8/778 22264 00180 20104 329// 40206 5//// 80150
BBXX 46094 14061 99446 71243 46/// /0905 10062 90540
BBXX 46094 14061 99446 71243 46/// /0705 10061 90550
BBXX 46094 14061 99446 71243 46/// /0604 10060 90630
BBXX 46094 14061 99446 71243 46/// /1003 10061 90600
BBXX 46094 14061 99446 71243 46/// /0703 10061 90610
BBXX 46094 14061 99446 71243 46/// /0403 10060 90620
BBXX 42047 14061 99279 70936 46/// /1410 10211 20180 40219 90600 22200 00228 333 91211
AAXX 14064 17320 12970 63405 10121 20039 30214 40219 53002 60002 83051 333 20115 31009 50181 55058 83360 86067 92428
AAXX 14061 10035 12580 22108 10045 20016 39876 49934 50000 60002 82500 333 10063 20043 31003 55000 55300 20000 30000 40930 70080 82622 91116
AAXX 14064 60686 12960 40404 10110 21053 40185 52004 60004 82032 333 01000 20110 82360
AAXX 14064 04418 NIL
AAXX 14064 04425 NIL
AAXX 14064 04432 NIL
AAXX 14064 04436 NIL
AAXX 14064 04464 46/// /1512 11340 21372 333 553// 20000
AAXX 14064 04485 NIL
AAXX 14064 04488 46/// /2810 11345 21371 37277 333 553// 20000
BBXX GDTT 14064 99275 70800 41598 60522 10235 20235 40247 58/// 7//11 862// 22200 00300 20304 305// 40304 80235
AAXX 14064 08314 02575 62412 10145 20109 30086 40188 53004 60002 81108 333 20142 3//// 55028 60007 70000
AAXX 1406/ 89868 46/// ///// 11040 39748 4//// 5//// 90640
AAXX 1406/ 89327 46/// ///// 11044 39534 4//// 5//// 90640
AAXX 14061 01078 11380 8//// 11008 21036 39894 49907 53006 6//// 70322 87240 333 21029 91113
BBXX 42013 14061 99272 70829 46/// ///// 1//// 40243 90620 22200 00200
BBXX 42013 14061 99272 70829 46/// ///// 1//// 40244 58006 90600 22200 00200
AAXX 14063 64870 31957 70000 10108 20062 38926 48515 70522 80002 333 00600 20075 50570 55103 58009 87080
BBXX 62123 14064 99563 10022 41/97 /2345 10069 20042 49760 52009 7//// 8//// 22200 20912 323// 40916 5////
BBXX AMOUK08 14064 99501 70061 46/// ///// 10076 20021 39930 49935 54002 90550
BBXX PJGO 14064 99571 10022 47196 /2136 10068 20029 49727 52021 762// 22200
BBXX 63110 14064 99595 10015 47496 /2135 10076 20046 49577 51009 762// 22200 10912 70061
BBXX 63106 14064 99610 10017 46/// /2130 10059 49540 51005 22200
BBXX 63113 14064 99610 10017 46/// /2327 10063 20036 49549 52014 22200 10912 70058
BBXX 62304 14064 99511 10018 46/98 /2311 10064 20026 49929 57011 22200 00120 10702 70008
BBXX 62103 14064 99499 70029 46/99 /2727 10094 20030 49928 57005 22200 00126 10906 70030 333 90710 91135
BBXX ZCEF6 14063 99443 70128 41498 72735 10115 20036 40183 51/// 71882 85778 22255 00147 20709 327// 40609 5//// 80080
BBXX SKEC 14061 99558 10160 46/// ///// 10058 49945 52014 22242 00060
BBXX S6SR 14064 99414 50235 41699 82220 10130 20112 40150 51040 7//22 8//4/ 22213 00150 2//05 33434 41208 51208 6//// 80120 ICE /////
BBXX S6SR 14064 99414 50235 41699 82220 10130 20112 40150 51040 7//22 8//4/ 22213 00150 2//05 33434 41208 51208 6//// 80120 ICE /////
BBXX 3EAT6 14063 99259 31654 41298 72217 10260 20260 40084 54000 70322 8/77/ 22253 00260 305// 40202
BBXX 42013 14061 99272 70829 46/// ///// 1//// 40243 90620 22200 00200
BBXX 42013 14061 99272 70829 46/// ///// 1//// 40244 58006 90600 22200 00200
BBXX GDTT 14064 99275 70800 41598 60522 10235 20235 40247 58/// 7//11 862// 22200 00300 20304 305// 40304 80235
AAXX 14064 71408 46/// /0230 11040 21089 30151 40232 55000 6///1 333 10047 21042 7////
BBXX ZCEF6 14063 99443 70128 41498 72735 10115 20036 40183 51/// 71882 85778 22255 00147 20709 327// 40609 5//// 80080
AAXX 14064 71408 46/// /0230 11040 21089 30151 40232 55000 6///1 333 10047 21042 7////
BBXX ONFP 14064 99365 30326 43696 30719 10210 2018/ 40070 55010 70311 83134 22223 04180 20806 30909 40806 50806 6//// 80190 /////
AAXX 14064 68014 36/// /2004 10207 21043 38592 48508 53005 333 20087 91008 555 10321 91018
AAXX 14064 68110 32989 10804 10163 21021 38267 48489 52011 80002 333 20083 91006 555 10299 91018
AAXX 14064 68300 36/// /1705 10150 20085 30008 40159 52015 333 20103 91006 555 10188 91015
AAXX 14061 02935 11116 81604 10004 20002 39768 49941 57013 60062 771// 88/// 333 10019 20003 3/100 4/018
AAXX 14061 98132 11458 80705 10231 20221 40172 58023 60031 76064 8657/ 333 56199 86616 88357
AAXX 14061 98133 11470 60904 10/// 20/// 40120 5//// 69961 71588 82230 222// 20702 333 56299 82818 84360
AAXX 14061 98222 31575 12702 10309 20257 40100 57018 70544 81201 333 56699 81821
AAXX 14061 98233 31570 30000 10302 20244 40104 57027 70544 83200 333 56999 83820
AAXX 14061 98324 31465 32704 10318 20269 40090 57020 70544 82261 333 56999 82816 83358
AAXX 14061 98327 31670 51002 10318 20218 39925 40098 57039 70544 83108 333 56999 83842 85280
AAXX 14061 98334 11475 71804 10258 20249 39913 40117 57014 60011 71562 83870 333 56119 83817 87358
AAXX 14061 98425 11562 60402 10282 20237 40097 57017 60071 70596 84870 333 56999 87620 86358
AAXX 14061 98426 31568 30905 10316 20226 40101 57008 70544 82261 333 56999 82820
AAXX 14061 98427 11468 80204 10270 20250 39912 40090 58018 60101 78086 8327/ 333 56199 83818 88357
AAXX 14061 98428 31465 70904 10290 20255 40098 57018 60051 70584 83978 333 56299 81917 84359 85275
AAXX 14061 98432 11568 50403 10297 20274 40097 57018 69901 72164 83272 333 56999 83820
AAXX 14061 98433 11465 70706 10248 20217 39383 40100 57017 60011 71564 84231 333 56999 84812 83357
AAXX 14061 98434 11458 83602 10268 20259 30105 58019 60041 78188 8552/ 333 56199 85617 88457
AAXX 14061 98435 NIL
AAXX 14061 98442 NIL
AAXX 14061 98446 32480 50702 10304 20263 30050 40096 57022 83201 333 56299 83818
AAXX 14061 98447 11475 60906 10280 20258 39830 40093 5//// 69961 71582 84208 333 56299 84818 86270
AAXX 14061 98538 31466 60104 10310 20262 30080 40085 58018 70544 82906 333 56299 82911 85072
AAXX 14061 98546 11470 60403 10307 20267 30072 40080 57021 69911 71582 83908 333 56199 83915 86275
AAXX 14061 98548 11480 60402 10310 20264 30068 40074 58018 69901 70282 84231 333 56299 84816 98323
AAXX 14061 98553 31470 50404 10303 20260 30079 40083 57017 70544 84301 333 56199 81916 84818 85075
AAXX 14061 98558 31470 50607 10298 20272 40068 57029 70544 85301 222// 20503 333 56299 83916 83075
AAXX 14061 98642 31465 10402 10310 20251 30062 40071 57021 70544 81200 333 56199 81815
AAXX 14061 98644 31465 52603 10324 20261 30068 40077 58023 70544 82261 333 56199 82817 83358
AAXX 14061 98648 31470 60000 10315 20270 30000 40082 57019 70544 84201 333 56299 84817 85075
AAXX 14061 98746 31465 70502 10325 20260 40073 58026 70544 82278 333 56999 82818 84358 86275
AAXX 14061 98751 31475 41202 10310 20219 39404 40078 57016 70544 82206 333 56199 82815
AAXX 14061 98752 31465 63101 10313 20261 40078 57019 71544 83938 333 56999 83916 83358 86272
AAXX 14061 98851 31468 80902 10290 20251 39920 40069 57023 70544 82277 333 56999 82818 83358 88275
BBXX 42369 14061 99272 70903 46/// /0909 1//// 90540 22200 10504 70018
BBXX 42370 14061 99273 70905 46/// ///// 10220 90540 22200 10503 70017
BBXX MINFR09 1406/ 99382 31372 46/// ///// 40199 57012
AAXX 14064 94997 46/// ///// 10058 30041 40056 5////
AAXX 14064 94997 46/// ///// 10058 30041 40056 5////
BBXX 42376 14061 99291 70879 46/// /0508 10195 40262 90540 22200 10402 70011
BBXX 42392 14061 99272 70900 46/// ///// 1//// 90540 22200 10503 70015
BBXX 42887 14061 99282 70885 46/// /1308 1//// 90540 22200 10503 70017
BBXX MINFR09 1406/ 99382 31372 46/// ///// 40199 57012
BBXX 42887 14061 99282 70885 46/// /1308 1//// 90540 22200 10503 70017
BBXX 42392 14061 99272 70900 46/// ///// 1//// 90540 22200 10503 70015
BBXX 42376 14061 99291 70879 46/// /0508 10195 40262 90540 22200 10402 70011
BBXX 42369 14061 99272 70903 46/// /0909 1//// 90540 22200 10504 70018
BBXX 42370 14061 99273 70905 46/// ///// 10220 90540 22200 10503 70017
BBXX KNJK 14063 99242 70827 41698 60519 10228 20186 40209 54000 70122 8511/ 22223 00244 20202 305// 40504 5//// 6//// 80200 ICE /////
BBXX SKEC 14061 99558 10160 46/// ///// 10058 49945 52014 22242 00060
BBXX ZCEF6 14063 99443 70128 41498 72735 10115 20036 40183 51/// 71882 85778 22255 00147 20709 327// 40609 5//// 80080
BBXX KNJK 14063 99242 70827 41698 60519 10228 20186 40209 54000 70122 8511/ 22223 00244 20202 305// 40504 5//// 6//// 80200 ICE /////
AAXX 14064 87648 32960 31606 10168 20154 30142 40152 58005 80005 333 56006 83270
BBXX VRGW2 14064 99351 11215 41/96 /3520 10080 20058 40250 50000 71244 8//// 22273 04140 21402 80070
BBXX 9VVK 14064 99245 71204 41598 70317 10170 20140 40220 52020 70311 879// 22224 00170 2//// 80150
BBXX DDGK2 14064 99061 10955 41698 32915 10290 20242 40090 50000 702// 81484 22225 00285 2//// 80255
BBXX DQVN 14063 99209 11141 41/97 71014 10220 20183 40160 58030 7//// 878// 22244 00243 20402 307// 40504 80195
BBXX A8UX5 14064 99071 11079 41/97 70320 10270 20221 40080 58/// 70122 8677/ 22254 04257 20705 302// 41005 80235
BBXX VRGM8 14064 99107 10649 41397 30514 10280 20221 40137 51018 70200 82162 22264 00282 20402 305// 40302 80240
BBXX VRAR7 14063 99292 11515 41498 80914 10215 20177 40170 56010 70282 887// 22254 00213 20402 330// 41004 80190
BBXX A8HJ2 14063 99095 30803 41/98 42808 10340 20261 40100 50010 701// 81162 22214 00/// 2//01 316// 40901 80280
BBXX DHDH 14064 99061 10789 41697 70218 10270 20243 40105 51015 70311 8647/ 22223 00270 20101 30211 40201 50202 80250
BBXX 9VDD2 14064 99471 71564 41597 73028 11030 21030 40110 54000 7//77 8714/ 22253 04000 20812 33030 40812 50812 81030
BBXX VRGW2 14064 99351 11215 41/96 /3520 10080 20058 40250 50000 71244 8//// 22273 04140 21402 80070
BBXX 9VVK 14064 99245 71204 41598 70317 10170 20140 40220 52020 70311 879// 22224 00170 2//// 80150
BBXX DDGK2 14064 99061 10955 41698 32915 10290 20242 40090 50000 702// 81484 22225 00285 2//// 80255
BBXX DQVN 14063 99209 11141 41/97 71014 10220 20183 40160 58030 7//// 878// 22244 00243 20402 307// 40504 80195
BBXX A8UX5 14064 99071 11079 41/97 70320 10270 20221 40080 58/// 70122 8677/ 22254 04257 20705 302// 41005 80235
BBXX VRGM8 14064 99107 10649 41397 30514 10280 20221 40137 51018 70200 82162 22264 00282 20402 305// 40302 80240
BBXX VRAR7 14063 99292 11515 41498 80914 10215 20177 40170 56010 70282 887// 22254 00213 20402 330// 41004 80190
BBXX A8HJ2 14063 99095 30803 41/98 42808 10340 20261 40100 50010 701// 81162 22214 00/// 2//01 316// 40901 80280
BBXX DHDH 14064 99061 10789 41697 70218 10270 20243 40105 51015 70311 8647/ 22223 00270 20101 30211 40201 50202 80250
BBXX 9VDD2 14064 99471 71564 41597 73028 11030 21030 40110 54000 7//77 8714/ 22253 04000 20812 33030 40812 50812 81030
AAXX 14064 43311 32597 10902 10310 20244 40113 80001 333 58005 81075
BBXX 62123 14064 99563 10022 47597 /2337 10069 20037 49739 52012 700// 22200
BBXX 63106 14064 99610 10017 46/// /2130 10059 49540 51005 22200
BBXX 63105 14064 99610 10017 47596 ///// 10067 20037 49540 51006 763// 22200
BBXX 63110 14063 99595 10015 41/97 /2150 10075 20044 49569 78186 8//// 22200 11012 70060
BBXX 62304 14064 99511 10018 46/98 /2313 10063 20024 49949 56012 22200 00119 10702 70008 333 90710 91126
BBXX 62107 14064 99501 70061 46/// /2530 10071 20012 49937 52007 22200 00116 11010 70048 333 90710 91147
BBXX 64049 14063 99571 10022 41/97 82350 10080 20074 49777 52010 70722 8//// 22200 04092 20814 323// 40816 5//// 80077
BBXX 62103 14064 99499 70029 46/99 /2727 10089 20031 49928 55003 22200 00125 11007 70034 333 90710 91142
AAXX 14064 41314 31950 32611 10162 20033 39716 40233 70600 80001 333 20114 58008 83075
AAXX 14064 62770 32970 70809 10140 21030 39241 30062 80007 10295 20125 56009 58000 87275
AAXX 14064 62771 32970 73410 20190 20050 39484 40150 80007 10306 20157 56009 58013 87275
AAXX 14064 62772 32970 03607 10215 20195 39688 40124 10325 20184 58001
AAXX 14064 62781 32970 73604 10195 20045 39566 40150 80007 10319 20157 56009 58000 87275
AAXX 14064 62790 32970 70310 20200 20040 39422 40057 80007 10302 20140 56009 58011 87275
AAXX 14064 62795 32970 70205 10250 20100 39594 40092 80007 10370 20205 56009 59004 87275
AAXX 14064 62803 31968 70507 10245 20115 39/// 40/// 70622 80007 10305 20200 5//// 87275
AAXX 14064 62805 32970 73404 10240 20120 39564 40092 80007 10365 20200 56009 58008 87275
AAXX 14064 62809 32970 70504 10205 20065 39621 40137 80007 10322 20160 56009 58008 87275
AAXX 14064 62810 32970 70509 10235 20125 39/// 40/// 85057 10345 20200 56099 5//// 85365 87275
AAXX 14064 41314 31950 32611 10162 20033 39716 40233 70600 80001 333 20114 58008 83075
BBXX ZCDM8 14063 99291 70156 41598 70315 10185 20126 40274 51011 70222 85279 22243 00201 20202 332// 40504 5//// 80152
BBXX VRGM8 14064 99107 10649 41397 30514 10280 20221 40137 51018 70200 82162 22264 00282 20402 305// 40302 80240
BBXX A8HJ2 14063 99095 30803 41/98 42808 10340 20261 40100 50010 701// 81162 22214 00/// 2//01 316// 40901 80280
BBXX DQVN 14063 99209 11141 41/97 71014 10220 20183 40160 58030 7//// 878// 22244 00243 20402 307// 40504 80195
BBXX SHIP 14063 99292 11515 41498 80914 10215 20177 40170 56010 70282 887// 22254 00213 20402 330// 41004 80190
BBXX VRGW2 14064 99351 11215 41/96 /3520 10080 20058 40250 50000 71244 8//// 22273 04140 21402 80070
BBXX DHDH 14064 99061 10789 41697 70218 10270 20243 40105 51015 70311 8647/ 22223 00270 20101 30211 40201 50202 80250
BBXX DDGK2 14064 99061 10955 41698 32915 10290 20242 40090 50000 702// 81484 22225 00285 2//// 80255
BBXX A8UX5 14064 99071 11079 41/97 70320 10270 20221 40080 58/// 70122 8677/ 22254 04257 20705 302// 41005 80235
BBXX ZCDM8 14063 99291 70156 41598 70315 10185 20126 40274 51011 70222 85279 22243 00201 20202 332// 40504 5//// 80152
BBXX A8VL8 14064 99185 30684 41298 50617 10270 20243 40120 54000 7//11 852// 22213 00280 20204 335// 40204 5//// 6//// 80250 ICE /////
BBXX 9VDD2 14064 99471 71564 41597 73028 11030 21030 40110 54000 7//77 8714/ 22253 04000 20812 33030 40812 50812 81030
BBXX 9VVK 14064 99245 71204 41598 70317 10170 20140 40220 52020 70311 879// 22224 00170 2//// 80150
AAXX 14064 62770 32970 70809 10140 21030 39241 40062 80007 333 10295 20125 56009 58000 87275
AAXX 14064 62771 32970 73410 10190 20050 39484 40150 80007 333 10306 20157 56009 58013 87275
AAXX 14064 62772 32970 03607 10215 20195 39688 40124 333 10325 20184 58001
AAXX 14064 62781 32970 73604 10195 20045 39566 40150 80007 333 10319 20157 56009 58000 87275
AAXX 14064 62790 32970 70310 10200 20040 39422 40057 80007 333 10302 20140 56009 58011 87275
AAXX 14064 62795 32970 70205 10250 20100 39594 40092 80007 333 10370 20205 56009 59004 87275
AAXX 14064 62803 31968 70507 10245 20115 39/// 40/// 70622 80007 333 10305 20200 5//// 87275
AAXX 14064 62805 32970 73404 10240 20120 39564 40092 80007 333 10365 20200 56009 58008 87275
AAXX 14064 62809 32970 70504 10205 20065 39621 40137 80007 333 10322 20160 56009 58008 87275
AAXX 14064 62810 32970 70509 10235 20125 39/// 40/// 85057 333 10345 20200 56099 5//// 85365 87275
AAXX 14064 62770 32970 70809 10140 21030 39241 40062 80007 333 10295 20125 56009 58000 87275
AAXX 14064 62771 32970 73410 10190 20050 39484 40150 80007 333 10306 20157 56009 58013 87275
AAXX 14064 62772 32970 03607 10215 20195 39688 40124 333 10325 20184 58001
AAXX 14064 62781 32970 73604 10195 20045 39566 40150 80007 333 10319 20157 56009 58000 87275
AAXX 14064 62790 32970 70310 10200 20040 39422 40057 80007 333 10302 20140 56009 58011 87275
AAXX 14064 62795 32970 70205 10250 20100 39594 40092 80007 333 10370 20205 56009 59004 87275
AAXX 14064 62803 31968 70507 10245 20115 39/// 40/// 70622 80007 333 10305 20200 5//// 87275
AAXX 14064 62805 32970 73404 10240 20120 39564 40092 80007 333 10365 20200 56009 58008 87275
AAXX 14064 62809 32970 70504 10205 20065 39621 40137 80007 333 10322 20160 56009 58008 87275
AAXX 14064 62810 32970 70509 10235 20125 39/// 40/// 85057 333 10345 20200 56099 5//// 85365 87275
BBXX ZCDQ4 14064 99425 10014 41798 31819 10160 20100 40150 54000 70301 86365 22234 00182 20402 30302 40 301 5//// 80140
BBXX A8HJ2 14063 99095 30803 41/98 42808 10340 20261 40100 50010 701// 81162 22214 00/// 2//01 316// 40901 80280
AAXX 14064 61202 NIL
AAXX 14064 61214 NIL
AAXX 14064 61223 32960 50606 10130 21037 39844 40157 80002 333 01200 20132 50674 55087 59012 85075
AAXX 14064 61226 NIL
AAXX 14064 61230 NIL
AAXX 14064 61233 32960 60000 10121 21001 3//// 4//// 80002 333 00700 20120 50764 55/// 5//// 86075
AAXX 14064 61235 31958 70406 10222 21004 3//// 4//// 70622 80002 333 02300 20220 51784 55063 5//// 87075
AAXX 14064 61240 32960 50000 10180 20000 39816 40144 80002 333 01700 20170 50774 55100 59005 85075
AAXX 14064 61250 32960 40000 10155 20038 3//// 4//// 80002 333 01300 20155 50924 55101 5//// 84075
AAXX 14064 61257 31956 71404 10172 20026 30073 40167 70622 80002 333 01400 20172 50364 55064 58002 87075
AAXX 14064 61265 32970 50806 10130 20022 39822 40133 80002 333 01400 20128 50850 55099 59009 85075
AAXX 14064 61270 32960 40000 10185 21002 3//// 4//// 80002 333 01400 20180 50774 55094 5//// 84075
AAXX 14064 61272 32960 50404 10170 20046 39813 40140 80002 333 01300 20170 5//// 55094 58004 85075
AAXX 14064 61277 32960 30408 10154 20042 39806 40128 80002 333 01500 20152 50821 55102 59008 83075
AAXX 14064 61285 31959 52604 10245 21030 39968 40116 70622 80002 333 01200 20241 51114 55089 59004 85075
AAXX 14064 61291 31958 00608 10190 20002 39702 40113 70600 333 00100 20190 50731 55096 59012
AAXX 14064 61293 32960 30000 10149 20064 3//// 4//// 80002 333 01300 20145 50930 55086 5//// 83075
AAXX 14064 61296 32960 63604 10159 20060 3//// 4//// 80002 333 01000 20152 50600 55092 5//// 86075
AAXX 14064 61297 31958 63604 10150 20046 3//// 4//// 70422 80002 333 01100 20147 51081 55102 5//// 86075
BBXX ZCDQ4 14064 99425 10014 41798 31819 10160 20100 40150 54000 70301 86365 22234 00182 20402 30302 40301 5//// 80140
BBXX ZCDQ4 14064 99425 10014 41798 31819 10160 20100 40150 54000 70301 86365 22234 00182 20402 30302 40301 5//// 80140
BBXX A8OY9 14064 99121 10604 043698 70324 10265 20201 40146 53010 86782 22224 00286 21206 30535 41106 5 1703 80221
BBXX A8OY9 14064 99121 10604 043698 70324 10265 20201 40146 53010 86782 22224 00286 21206 30535 41106 51703 80221
AAXX 14064 91375 46/// /0308 10283 40076 22200 00286
BBXX 42369 14061 99272 70903 46/// /0909 1//// 90600 22200 10504 70018
BBXX 42370 14061 99273 70905 46/// ///// 10220 90600 22200 10503 70017
AAXX 14064 71390 46/// /3403 11087 6///1 333 11058 21091 7////
AAXX 14064 71734 16/// /1702 11044 21053 39885 40287 56009 60001 333 11008 21058 70012
AAXX 14064 91165 12466 60611 10230 20206 30142 40177 53021 69901 90553
AAXX 14064 91203 11474 80713 10300 20258 30075 40080 5//// 60021 70328 84976
AAXX 14064 91212 12566 40617 10289 20233 31353 40088 56016 69901 90554
AAXX 14064 91245 32666 60810 10270 20220 30144 90559
AAXX 14064 91285 31258 81005 10200 20190 30171 763// 90612
AAXX 14064 91317 32474 60506 10306 20291 30072 40076 5//// 82101
AAXX 14064 91324 32474 81308 10289 20248 30048 40050 83211
AAXX 14064 91334 11474 60412 10297 20236 30064 40067 57014 69981 70282 82101
AAXX 14064 91367 32474 30810 10294 20249 83100
AAXX 14064 91369 32474 30918 10294 20254 30075 40078 83100
AAXX 14064 91376 32474 40618 10290 20230 30074 90552
AAXX 14064 91408 11473 80706 10267 20252 30024 40062 57019 60101 78082 8692/
AAXX 14064 91413 11469 80708 10281 20246 30042 40068 56017 69901 71682 84378
AAXX 14064 91610 11599 30809 10283 20234 40068 53008 60001 70200 82108
AAXX 14064 91155 NIL
AAXX 14064 91217 NIL
AAXX 14064 91232 NIL
AAXX 14064 91250 NIL
AAXX 14064 91275 NIL
AAXX 14064 91339 NIL
AAXX 14064 91348 NIL
AAXX 14064 91353 NIL
AAXX 14064 91356 NIL
AAXX 14064 91366 NIL
AAXX 14064 91371 NIL
AAXX 14064 91378 NIL
AAXX 14064 91425 NIL
AAXX 14064 91434 NIL
AAXX 14064 91601 NIL
BBXX ELWR2 14064 99127 11130 41397 60622 10284 20254 40115 57025 70322 86611 22254 04280 20402 306// 40604 80262
BBXX DAJT 14064 99057 10965 41498 73505 10285 20230 40055 56015 70322 86600 22264 04280 2//00 80245
BBXX 9VDD2 14064 99471 71564 41597 73028 11030 21030 40110 54000 7//77 8714/ 22253 04000 20812 33030 40812 50812 81030
BBXX VRGW2 14064 99351 11215 41/96 /3520 10080 20058 40250 50000 71244 8//// 22273 04140 21402 80070
BBXX 42376 14061 99291 70879 46/// /0508 10195 40262 90600 22200 10402 70011
BBXX 42392 14061 99272 70900 46/// ///// 1//// 90600 22200 10503 70015
BBXX 42887 14061 99282 70885 46/// /1308 1//// 90600 22200 10503 70017
AAXX 14064 41506 02997 03616 10100 21063 48569 60001 333 58000 60007
AAXX 14064 41508 22997 00000 10078 21137 48568 60001 333 58011 60007
AAXX 14064 41523 12997 00000 10115 21055 48549 60001 333 59019 60007
AAXX 14064 41535 12997 03102 10120 20007 48504 60001 333 59003
AAXX 14064 41536 02997 00000 10110 21025 48530 60001 333 59014 60007
AAXX 14064 41573 12997 03602 10100 21030 48508 60001 333 59010
AAXX 14064 41600 01995 00000 10160 20081 39881 40180 60001 70400 333 59020 60007
AAXX 14064 41630 11996 03104 10185 20037 40195 60001 70500 333 59015
AAXX 14064 41678 12997 00000 10180 20083 40204 60001 333 59006 60007
AAXX 14064 41696 32997 00000 10090 21088 38050 48564 60001 333 59007 60007
AAXX 14064 41697 02997 00000 10192 20059 40204 60001 333 58001 60007
AAXX 14064 41700 11995 02302 10180 20078 40191 60001 70400 333 59002
AAXX 14064 41725 01996 00000 10185 20065 40194 60001 70500 333 59006 60007
AAXX 14064 41746 01995 00000 10180 20083 40213 60001 70500 333 58010 60007
AAXX 14064 41759 12996 02704 10230 20019 30191 40197 60001 333 58009
AAXX 14064 41785 02997 00502 10195 20067 40146 60001 333 58010 60007
AAXX 14064 41529 12997 02702 10167 21035 39820 40204 60001 333 59018
AAXX 14064 41598 11996 03102 10170 20012 39908 40182 60001 70500 333 59017
AAXX 14064 41620 32997 03105 10120 21162 38634 48535 333 59004
AAXX 14064 41624 02997 03102 10190 21005 39984 40185 60001 333 59023 60007
AAXX 14064 41640 01996 00000 10170 20028 39941 40191 60001 70500 333 59009 60007
AAXX 14064 41660 11996 03106 10060 21041 38485 48575 60001 70500 333 59010
AAXX 14064 41675 11994 00000 10195 20053 30050 40194 60001 70500 333 59008
AAXX 14064 41712 12997 00902 10105 21053 39278 48570 60001 333 58002
AAXX 14064 41715 01996 03102 10185 20101 30138 40205 60001 70500 333 59004 60007
AAXX 14064 41756 01996 60506 10230 20104 30134 40198 60001 70504 83032 333 56099 58022 60007 83358 83070
AAXX 14064 41764 32996 23602 10210 20048 30145 40195 60001 80001 333 56009 58006 60007 82070
AAXX 14064 41768 02996 00502 10240 20094 30185 40192 60001 333 58004 60007
AAXX 14064 41780 02996 40506 10250 20040 40194 60001 83030 333 56090 58006 60007 83360
AAXX 14064 41515 02997 00000 10083 21159 38583 48544 60002 333 59023 60007
AAXX 14064 41560 22997 01803 10040 21037 38268 48500 60001 333 58008 60007
AAXX 14064 41571 11994 01304 10150 20036 39598 40187 60001 70500 333 59020
AAXX 14064 41594 31996 22304 10180 20058 39971 40189 70500 81031 333 56099 59015
AAXX 14064 41685 32997 03602 10160 21073 38951 48533 333 59004
AAXX 14064 41710 02997 01302 10140 21130 39443 40229 60001 333 58001 60007
AAXX 14064 41718 11995 01304 10180 20071 30091 40197 60001 70500 333 59014
AAXX 14064 41739 02997 00000 10140 21071 39106 48555 60001 333 58000 60007
AAXX 14064 41744 32996 01802 10150 21133 38880 48524 333 59003
AAXX 14064 41749 01994 03102 10180 20095 30172 40207 60001 71000 81031 333 56099 58008 60007 81360 81070
AAXX 14064 41529 12997 02702 10167 21035 39820 40204 60001 333 59018
AAXX 14064 41598 11996 03102 10170 20012 39908 40182 60001 70500 333 59017
AAXX 14064 41620 32997 03105 10120 21162 38634 48535 333 59004
AAXX 14064 41624 02997 03102 10190 21005 39984 40185 60001 333 59023 60007
AAXX 14064 41640 01996 00000 10170 20028 39941 40191 60001 70500 333 59009 60007
AAXX 14064 41660 11996 03106 10060 21041 38485 48575 60001 70500 333 59010
AAXX 14064 41675 11994 00000 10195 20053 30050 40194 60001 70500 333 59008
AAXX 14064 41712 12997 00902 10105 21053 39278 48570 60001 333 58002
AAXX 14064 41715 01996 03102 10185 20101 30138 40205 60001 70500 333 59004 60007
AAXX 14064 41756 01996 60506 10230 20104 30134 40198 60001 70504 83032 333 56099 58022 60007 83358 83070
AAXX 14064 41764 32996 23602 10210 20048 30145 40195 60001 80001 333 56009 58006 60007 82070
AAXX 14064 41768 02996 00502 10240 20094 30185 40192 60001 333 58004 60007
AAXX 14064 41780 02996 40506 10250 20040 40194 60001 83030 333 56090 58006 60007 83360
BBXX 62123 14064 99563 10022 41/97 /2345 10069 20042 49760 52009 7//// 8//// 22200 20912 323// 40916 5////
BBXX AMOUK08 14064 99501 70061 46/// ///// 10076 20021 39930 49935 54002 90550
BBXX PJGO 14064 99571 10022 47196 /2136 10068 20029 49727 52021 762// 22200
BBXX 63110 14064 99595 10015 47496 /2135 10076 20046 49577 51009 762// 22200 10912 70061
BBXX 63106 14064 99610 10017 46/// /2130 10059 49540 51005 22200
BBXX 63113 14064 99610 10017 46/// /2327 10063 20036 49549 52014 22200 10912 70058
BBXX 62304 14064 99511 10018 46/98 /2311 10064 20026 49929 57011 22200 00120 10702 70008
BBXX 62103 14064 99499 70029 46/99 /2727 10094 20030 49928 57005 22200 00126 10906 70030 333 90710 91135
AAXX 14064 91165 12466 60611 10230 20206 30142 40177 53021 69901 90553
AAXX 14064 91212 12566 40617 10289 20233 31353 40088 56016 69901 90554
AAXX 14064 91285 31258 81005 10200 20190 30171 763// 90612
AAXX 14064 91317 32474 60506 10306 20291 30072 40076 5//// 82101
AAXX 14064 91334 11474 60412 10297 20236 30064 40067 57014 69981 70282 82101
AAXX 14064 91369 32474 30918 10294 20254 30075 40078 83100
AAXX 14064 91376 32474 40618 10290 20230 30074 90552
AAXX 14064 91408 11473 80706 10267 20252 30024 40062 57019 60101 78082 8692/
AAXX 14064 91413 11469 80708 10281 20246 30042 40068 56017 69901 71682 84378
AAXX 14064 91245 32666 60810 10270 20220 30144 90559
BBXX A8OY9 14064 99121 10604 043698 70324 10265 20201 40146 53010 86782 22224 00286 21206 30535 41106 51703 80221
BBXX A8OY9 14064 99121 10604 043698 70324 10265 20201 40146 53010 86782 22224 00286 21206 30535 41106 5 1703 80221
BBXX A8VL8 14064 99185 30684 41298 50617 10270 20243 40120 54000 7//11 852// 22213 00280 20204 335// 40204 5//// 6//// 80250 ICE /////
BBXX 42376 14061 99291 70879 46/// /0508 10195 40262 90600 22200 10402 70011
BBXX 42392 14061 99272 70900 46/// ///// 1//// 90600 22200 10503 70015
BBXX 42887 14061 99282 70885 46/// /1308 1//// 90600 22200 10503 70017
BBXX 42369 14061 99272 70903 46/// /0909 1//// 90600 22200 10504 70018
BBXX 42370 14061 99273 70905 46/// ///// 10220 90600 22200 10503 70017
BBXX ELWR2 14064 99127 11130 41397 60622 10284 20254 40115 57025 70322 86611 22254 04280 20402 306// 40604 80262
BBXX DAJT 14064 99057 10965 41498 73505 10285 20230 40055 56015 70322 86600 22264 04280 2//00 80245
BBXX ZCDQ4 14064 99425 10014 41798 31819 10160 20100 40150 54000 70301 86365 22234 00182 20402 30302 40301 5//// 80140
BBXX ZCDQ4 14064 99425 10014 41798 31819 10160 20100 40150 54000 70301 86365 22234 00182 20402 30302 40 301 5//// 80140
AAXX 14064 71307 16/// /1803 10033 20010 30028 40282 58007 60001 333 10063 21048 70000
BBXX A8VL8 14064 99185 30684 41298 50617 10270 20243 40120 54000 7//11 852// 22213 00280 20204 335// 40204 5//// 6//// 80250
BBXX 62123 14064 99563 10022 47597 /2337 10069 20037 49739 52012 700// 22200
BBXX 63106 14064 99610 10017 46/// /2130 10059 49540 51005 22200
BBXX 63105 14064 99610 10017 47596 ///// 10067 20037 49540 51006 763// 22200
BBXX 63110 14063 99595 10015 41/97 /2150 10075 20044 49569 78186 8//// 22200 11012 70060
BBXX 62304 14064 99511 10018 46/98 /2313 10063 20024 49949 56012 22200 00119 10702 70008 333 90710 91126
BBXX 62107 14064 99501 70061 46/// /2530 10071 20012 49937 52007 22200 00116 11010 70048 333 90710 91147
BBXX 64049 14063 99571 10022 41/97 82350 10080 20074 49777 52010 70722 8//// 22200 04092 20814 323// 40816 5//// 80077
BBXX 62103 14064 99499 70029 46/99 /2727 10089 20031 49928 55003 22200 00125 11007 70034 333 90710 91142
BBXX 42369 14061 99272 70903 46/// /0909 1//// 90620 22200 10504 70018
BBXX 42370 14061 99273 70905 46/// ///// 10220 90620 22200 10503 70017
BBXX 42376 14061 99291 70879 46/// /0508 10195 40262 90620 22200 10402 70011
BBXX 42392 14061 99272 70900 46/// ///// 1//// 90620 22200 10503 70015
BBXX 42887 14061 99282 70885 46/// /1308 1//// 90620 22200 10503 70017
BBXX 42376 14061 99291 70879 46/// /0508 10195 40262 90620 22200 10402 70011
BBXX 42392 14061 99272 70900 46/// ///// 1//// 90620 22200 10503 70015
BBXX 42887 14061 99282 70885 46/// /1308 1//// 90620 22200 10503 70017
BBXX 42369 14061 99272 70903 46/// /0909 1//// 90620 22200 10504 70018
BBXX 42370 14061 99273 70905 46/// ///// 10220 90620 22200 10503 70017
BBXX 52243 14061 99193 11666 46/// ///// 1//// 90600 22200 00265
BBXX 51179 14061 99143 51708 46/// ///// 1//// 90600 22200 00285
BBXX 51178 14061 99142 51695 46/// ///// 1//// 90600 22200 00283
BBXX 52246 14061 99152 11457 46/// ///// 1//// 90600 22200 00283
BBXX 51176 14061 99278 71758 46/// ///// 1//// 90600 22200 00239
BBXX 51174 14061 99142 51697 46/// ///// 1//// 90600 22200 00285
BBXX 52244 14061 99200 11452 46/// ///// 1//// 90600 22200 00273
BBXX 51173 14061 99260 71739 46/// ///// 1//// 90600 22200 00244
BBXX 51172 14061 99284 71783 46/// ///// 1//// 90600 22200 00236
BBXX 51171 14061 99064 71623 46/// ///// 1//// 90600 22200 00279
BBXX 51170 14061 99168 71695 46/// ///// 1//// 90600 22200 00263
BBXX 51169 14061 99004 51600 46/// ///// 1//// 90600 22200 00258
BBXX 52248 14061 99135 11448 46/// ///// 1//// 90600 22200 00290
AAXX 14064 60468 12960 00000 11007 21030 39293 48544 53002 60004 333 05400 21010 95900
BBXX 62123 14064 99563 10022 41/97 /2345 10069 20042 49760 52009 7//// 8//// 22200 20912 323// 40916 5////
BBXX AMOUK08 14064 99501 70061 46/// ///// 10076 20021 39930 49935 54002 90550
BBXX PJGO 14064 99571 10022 47196 /2136 10068 20029 49727 52021 762// 22200
BBXX 63110 14064 99595 10015 47496 /2135 10076 20046 49577 51009 762// 22200 10912 70061
BBXX 63106 14064 99610 10017 46/// /2130 10059 49540 51005 22200
BBXX 63113 14064 99610 10017 46/// /2327 10063 20036 49549 52014 22200 10912 70058
BBXX 62304 14064 99511 10018 46/98 /2311 10064 20026 49929 57011 22200 00120 10702 70008
BBXX 62103 14064 99499 70029 46/99 /2727 10094 20030 49928 57005 22200 00126 10906 70030 333 90710 91135
BBXX 52244 14061 99200 11452 46/// ///// 1//// 90600 22200 00273
BBXX 52246 14061 99152 11457 46/// ///// 1//// 90600 22200 00283
BBXX 52248 14061 99135 11448 46/// ///// 1//// 90600 22200 00290
BBXX 52243 14061 99193 11666 46/// ///// 1//// 90600 22200 00265
BBXX 51171 14061 99064 71623 46/// ///// 1//// 90600 22200 00279
BBXX 51170 14061 99168 71695 46/// ///// 1//// 90600 22200 00263
BBXX 51179 14061 99143 51708 46/// ///// 1//// 90600 22200 00285
BBXX 51174 14061 99142 51697 46/// ///// 1//// 90600 22200 00285
BBXX 51178 14061 99142 51695 46/// ///// 1//// 90600 22200 00283
BBXX 51169 14061 99004 51600 46/// ///// 1//// 90600 22200 00258
BBXX 51173 14061 99260 71739 46/// ///// 1//// 90600 22200 00244
BBXX 51172 14061 99284 71783 46/// ///// 1//// 90600 22200 00236
BBXX 51176 14061 99278 71758 46/// ///// 1//// 90600 22200 00239
AAXX 14064 44404 42975 02806 10161 20019 38145 48491 333 59014
AAXX 14064 44406 42975 00000 10167 20106 39531 40171 333 59006
AAXX 14064 44409 41/09 91303 10130 20120 39959 40168 74344 89/// 333 59002
AAXX 14064 44416 41356 50000 10125 20074 39415 40194 84602 333 59004
AAXX 14064 44418 41/09 90000 10142 20132 30009 40205 74344 89/// 333 59003
AAXX 14064 44424 NIL
AAXX 14064 44429 NIL
AAXX 14064 44434 42558 20000 10148 20104 39251 48540 82200 333 59004
AAXX 14064 44438 41/05 90000 10130 20130 30065 40195 74344 89/// 333 58000
AAXX 14064 44449 41/01 91803 10138 20128 30032 40191 74544 333 59007
AAXX 14064 44454 42557 10000 10152 20062 38685 48517 81100 333 59005
AAXX 14064 44462 NIL
AAXX 14064 44474 NIL
AAXX 14064 44477 NIL
AAXX 14064 44478 41530 22702 10160 20132 30098 40180 70544 82200 333 59004
AAXX 14061 01218 11889 31608 10070 21048 39633 49653 56022 60002 70120 81088 333 20038 43005 70000 91116
BBXX A8PF6 14064 99465 70587 41696 80619 10040 20017 40230 52020 78022 889// 22273 0//// 20603 306// 41004 5//// 6//// 80030 ICE /////
BBXX A8PF6 14064 99465 70587 41696 80619 10040 20017 40230 52020 78022 889// 22273 0//// 20603 306// 41004 5//// 6//// 80030 ICE /////
AAXX 14061 08515 32575 63602 10124 20095 30171 40294 50003 82806 333 20114 30007 50264 55/// 81820 86280 910// 911// 555 60007 912//
AAXX 14061 08515 32575 63602 10124 20095 30171 40294 50003 82806 333 20114 30007 50264 55/// 81820 86280 910// 911//
AAXX 14061 02805 11499 81704 11011 21022 39787 49918 54001 69912 77022 8772/ 333 11011 21047 3/106 47027
BBXX 62123 14064 99563 10022 47597 /2337 10069 20037 49739 52012 700// 22200
BBXX 63106 14064 99610 10017 46/// /2130 10059 49540 51005 22200
BBXX 63105 14064 99610 10017 47596 ///// 10067 20037 49540 51006 763// 22200
BBXX 63110 14063 99595 10015 41/97 /2150 10075 20044 49569 78186 8//// 22200 11012 70060
BBXX 62304 14064 99511 10018 46/98 /2313 10063 20024 49949 56012 22200 00119 10702 70008 333 90710 91126
BBXX 62107 14064 99501 70061 46/// /2530 10071 20012 49937 52007 22200 00116 11010 70048 333 90710 91147
BBXX 64049 14063 99571 10022 41/97 82350 10080 20074 49777 52010 70722 8//// 22200 04092 20814 323// 40816 5//// 80077
BBXX 62103 14064 99499 70029 46/99 /2727 10089 20031 49928 55003 22200 00125 11007 70034 333 90710 91142
BBXX MINFR05 1406/ 99496 70003 46/// ///// 10075 49964 52007
BBXX MINUK04 1406/ 99535 10048 46/// ///// 10080 4//// 52026
BBXX MINUK04 1406/ 99535 10048 46/// ///// 10080 4//// 52026
BBXX MINFR05 1406/ 99496 70003 46/// ///// 10075 49964 52007
BBXX WC5932 14064 99424 70870 43/// /1715 00/// 10054 21122 40254 55018 7//// 8//// 22214 0//// 2//// 3//// 4//// 5//// 6//// 81001 ICE /////
AAXX 14061 30636 429// 00000 11270 21282 39755 40436 52015
BBXX ONAN 14064 99049 71550 41396 31319 10250 2024/ 4//// 54/// 70322 823// 22273 00250 21105 3//// 40805 5//// 6//// 80240 ICE /////
BBXX ONAN 14064 99049 71550 41396 31319 10250 2024/ 4//// 54/// 70322 823// 22273 00250 21105 3//// 40805 5//// 6//// 80240 ICE /////
BBXX WC5932 14064 99424 70870 43/// /1715 00/// 10054 21122 40254 55018 7//// 8//// 22214 0//// 2//// 3//// 4//// 5//// 6//// 81001 ICE /////
BBXX MINFR05 1406/ 99496 70003 46/// ///// 10075 49964 52007
BBXX 62123 14064 99563 10022 41/97 /2345 10069 20042 49760 52009 7//// 8//// 22200 20912 323// 40916 5////
BBXX AMOUK08 14064 99501 70061 46/// ///// 10076 20021 39930 49935 54002 90550
BBXX PJGO 14064 99571 10022 47196 /2136 10068 20029 49727 52021 762// 22200
BBXX 63110 14064 99595 10015 47496 /2135 10076 20046 49577 51009 762// 22200 10912 70061
BBXX 63106 14064 99610 10017 46/// /2130 10059 49540 51005 22200
BBXX 63113 14064 99610 10017 46/// /2327 10063 20036 49549 52014 22200 10912 70058
BBXX 62304 14064 99511 10018 46/98 /2311 10064 20026 49929 57011 22200 00120 10702 70008
BBXX 62103 14064 99499 70029 46/99 /2727 10094 20030 49928 57005 22200 00126 10906 70030 333 90710 91135
BBXX WYR4481 14064 99468 70853 41/98 81616 10026 40145 70222 22233 20302
BBXX WYR4481 14064 99468 70853 41/98 81616 10026 40145 70222 22233 20302
AAXX 14061 37107 42999 82301 10075 20021 39565 40242 57010 80002
AAXX 14061 23205 11998 52107 11063 21108 30140 40155 57011 69900 73683 83032 333 21054 91113
AAXX 14064 61437 32958 70406 10208 20078 30046 40183 8707/ 333 0//00 20208 5//// 55/// 59006 87363
AAXX 14064 61450 33960 70806 10160 21033 39725 40185 8707/ 333 0//00 20150 5//// 55/// 58015 87363
AAXX 14064 61461 32960 40804 10220 21040 30075 40161 83072 333 0//00 20215 5//// 55/// 58007 84363
AAXX 14064 61489 31956 60804 10211 20032 30147 40155 70522 86070 333 0//00 20207 50724 55/// 58004 86363
AAXX 14064 61492 32958 60808 10225 21070 30128 40147 86070 333 0//00 20220 5//// 58007 86363
AAXX 14064 61497 35960 60810 10183 21032 39904 4//// 80002 333 0//00 20176 5//// 55/// 58003 86073
BBXX 42045 14061 99262 70965 46/// /1410 10221 40184 90630 22200 00220 333 91212
BBXX 42045 14061 99262 70965 46/// /1409 10221 40188 90600 22200 00220 333 91212
BBXX 42045 14061 99262 70965 46/// /1410 10221 40184 90630 22200 00220 333 91212
BBXX 42045 14061 99262 70965 46/// /1409 10221 40188 90600 22200 00220 333 91212
AAXX 1406/ 89872 46/// ///// 11033 39758 4//// 5////
AAXX 1406/ 89872 46/// ///// 11035 39759 4//// 5//// 90610
AAXX 1406/ 89869 46/// ///// 11038 39739 4//// 5////
AAXX 1406/ 89869 46/// ///// 11053 39739 4//// 5//// 90610
AAXX 1406/ 89866 46/// ///// 10000 39722 4//// 5//// 90610
AAXX 1406/ 89866 46/// ///// 10008 39722 4//// 5//// 90620
AAXX 1406/ 89329 46/// ///// 11136 38658 4//// 5//// 90610
AAXX 1406/ 89799 46/// ///// 11276 4//// 5//// 90610
AAXX 1406/ 89868 46/// ///// 11036 39746 4//// 5////
AAXX 1406/ 89868 46/// ///// 11038 39747 4//// 5//// 90610
AAXX 1406/ 89327 46/// ///// 11044 39538 4//// 5//// 90610
AAXX 1406/ 89828 46/// ///// 11219 36432 4//// 5////
AAXX 1406/ 89828 46/// ///// 11219 36432 4//// 5//// 90610
AAXX 1406/ 89108 46/// ///// 11240 36838 4//// 5////
AAXX 1406/ 89108 46/// ///// 11240 36838 4//// 5//// 90610
AAXX 1406/ 89879 46/// ///// 10004 39742 4//// 5////
AAXX 1406/ 89879 46/// ///// 10006 39743 4//// 5//// 90610
AAXX 1406/ 89332 46/// ///// 11089 39126 4//// 5////
AAXX 1406/ 89769 46/// ///// 11026 39782 4//// 5//// 90610
AAXX 1406/ 89314 46/// ///// 11173 38123 4//// 5//// 90610
BBXX 62123 14064 99563 10022 47597 /2337 10069 20037 49739 52012 700// 22200
BBXX 63106 14064 99610 10017 46/// /2130 10059 49540 51005 22200
BBXX 63105 14064 99610 10017 47596 ///// 10067 20037 49540 51006 763// 22200
BBXX 63110 14063 99595 10015 41/97 /2150 10075 20044 49569 78186 8//// 22200 11012 70060
BBXX 62304 14064 99511 10018 46/98 /2313 10063 20024 49949 56012 22200 00119 10702 70008 333 90710 91126
BBXX 62107 14064 99501 70061 46/// /2530 10071 20012 49937 52007 22200 00116 11010 70048 333 90710 91147
BBXX 64049 14063 99571 10022 41/97 82350 10080 20074 49777 52010 70722 8//// 22200 04092 20814 323// 40816 5//// 80077
BBXX 62103 14064 99499 70029 46/99 /2727 10089 20031 49928 55003 22200 00125 11007 70034 333 90710 91142
AAXX 14064 89614 46/// ///// 11055 38941 4//// 5////
AAXX 14064 89614 46/// ///// 11055 38941 4//// 5////
AAXX 14064 07149 01470 72211 10083 20058 39876 49984 56002 60032 72161 878// 333 10091 20068 32005 55023 69927 70088 84716 85640 90710 91128 555 69925
AAXX 14064 67963 12980 60804 10211 20184 3//// 48/// 60384 83082 333 20171 5//// 83360
BBXX 62123 14064 99563 10022 41/97 /2345 10069 20042 49760 52009 7//// 8//// 22200 20912 323// 40916 5////
BBXX AMOUK08 14064 99501 70061 46/// ///// 10076 20021 39930 49935 54002 90550
BBXX PJGO 14064 99571 10022 47196 /2136 10068 20029 49727 52021 762// 22200
BBXX 63110 14064 99595 10015 47496 /2135 10076 20046 49577 51009 762// 22200 10912 70061
BBXX 63106 14064 99610 10017 46/// /2130 10059 49540 51005 22200
BBXX 63113 14064 99610 10017 46/// /2327 10063 20036 49549 52014 22200 10912 70058
BBXX 62304 14064 99511 10018 46/98 /2311 10064 20026 49929 57011 22200 00120 10702 70008
BBXX 62103 14064 99499 70029 46/99 /2727 10094 20030 49928 57005 22200 00126 10906 70030 333 90710 91135
AAXX 14064 48550 32460 40605 10294 20227 30104 40111 57011 82845 333 59006
AAXX 14064 48355 31940 70703 10250 20154 39920 40140 57024 70522 87050 333 59006
AAXX 14061 10791 11/90 91807 10000 20000 38468 48416 55000 60022 74974 333 10005 21019 44054 55005 55300 70037
BBXX 62123 14064 99563 10022 47597 /2337 10069 20037 49739 52012 700// 22200
BBXX 63106 14064 99610 10017 46/// /2130 10059 49540 51005 22200
BBXX 63105 14064 99610 10017 47596 ///// 10067 20037 49540 51006 763// 22200
BBXX 63110 14063 99595 10015 41/97 /2150 10075 20044 49569 78186 8//// 22200 11012 70060
BBXX 62304 14064 99511 10018 46/98 /2313 10063 20024 49949 56012 22200 00119 10702 70008 333 90710 91126
BBXX 62107 14064 99501 70061 46/// /2530 10071 20012 49937 52007 22200 00116 11010 70048 333 90710 91147
BBXX 64049 14063 99571 10022 41/97 82350 10080 20074 49777 52010 70722 8//// 22200 04092 20814 323// 40816 5//// 80077
BBXX 62103 14064 99499 70029 46/99 /2727 10089 20031 49928 55003 22200 00125 11007 70034 333 90710 91142
AAXX 14061 03955 11470 52406 10003 21001 39701 49899 52011 69982 72681 83370 333 20002 31102 55031 83918 84459 92600 96485
AAXX 14064 89570 46/// /0508 11048 21113 39128 52010
AAXX 14064 89570 46/// /0508 11048 21113 39128 52010
AAXX 14064 68312 32889 11906 10129 20063 38945 48496 52006 81070 333 20093 91009 555 10322 91016
AAXX 14061 10791 11/90 91807 10000 20000 38468 48416 55000 60022 74974 333 10005 21019 44054 55005 55300 70032
BBXX ELZU3 14060 99385 70407 41/98 81511 10182 20168 40271 57035 7//22 8/6// 22263 00168 20403 332// 40905 80173
AAXX 14064 03002 17458 /2711 10049 20037 39519 49537 53013 60022 723// 90550 333 20011 3/100 70084 81/17 86/21
BBXX 62123 14064 99563 10022 41/97 /2345 10069 20042 49760 52009 7//// 8//// 22200 20912 323// 40916 5////
BBXX AMOUK08 14064 99501 70061 46/// ///// 10076 20021 39930 49935 54002 90550
BBXX PJGO 14064 99571 10022 47196 /2136 10068 20029 49727 52021 762// 22200
BBXX 63110 14064 99595 10015 47496 /2135 10076 20046 49577 51009 762// 22200 10912 70061
BBXX 63106 14064 99610 10017 46/// /2130 10059 49540 51005 22200
BBXX 63113 14064 99610 10017 46/// /2327 10063 20036 49549 52014 22200 10912 70058
BBXX 62304 14064 99511 10018 46/98 /2311 10064 20026 49929 57011 22200 00120 10702 70008
BBXX 62103 14064 99499 70029 46/99 /2727 10094 20030 49928 57005 22200 00126 10906 70030 333 90710 91135
BBXX ELZU3 14060 99385 70407 41/98 81511 10182 20168 40271 57035 7//22 8/6// 22263 00168 20403 332// 40905 80173
AAXX 14063 63658 32980 80702 10220 20165 38894 48524 8803/ 333 20197 58015 88360 555 10185
AAXX 14063 63726 11901 90000 10144 20144 83152 8508 69904 74544 89/// 333 20124 58012 89/// 555 10144
AAXX 14063 63658 32980 80702 10220 20165 38894 48524 8803/ 333 20197 58015 88360 555 10185
AAXX 14063 63680 11460 81804 10187 20176 38842 48/// 60084 76061 8597/ 333 20160 58007 84714 81916 86459 555 10180
AAXX 14061 10791 11/90 91807 10000 20000 38468 48416 55000 69972 74974 333 10005 21019 44054 55005 55300 70013
AAXX 14063 63680 11460 81804 10187 20176 38842 48/// 60084 76061 8597/ 333 20160 58007 84714 81916 86459 555 10180
AAXX 14061 10200 12984 81807 10049 20026 39935 49933 58012 60002 8807/ 333 10066 20045 32003 55010 55300 20000 30000 70025 87360 91114
BBXX 42044 14061 99262 70971 46/// /1505 10208 20191 40182 90630 22200 00191 333 91207
AAXX 14061 03967 12682 22210 10009 21012 39738 49852 53002 69902 82500 333 20007 31101 55017 82640
BBXX 42046 14061 99279 70940 46/// /1410 1//// 40214 90630 22200 00226 333 91212
BBXX 42046 14061 99279 70940 46/// /1410 1//// 40218 90600 22200 00226 333 91212
BBXX 42047 14061 99279 70936 46/// /1410 10211 20178 40215 90630 22200 00228 333 91211
BBXX 42046 14061 99279 70940 46/// /1410 1//// 40214 90630 22200 00226 333 91212
BBXX 42046 14061 99279 70940 46/// /1410 1//// 40218 90600 22200 00226 333 91212
BBXX 42044 14061 99262 70971 46/// /1505 10208 20191 40182 90630 22200 00191 333 91207
BBXX 62123 14064 99563 10022 47597 /2337 10069 20037 49739 52012 700// 22200
BBXX 63106 14064 99610 10017 46/// /2130 10059 49540 51005 22200
BBXX 63105 14064 99610 10017 47596 ///// 10067 20037 49540 51006 763// 22200
BBXX 63110 14063 99595 10015 41/97 /2150 10075 20044 49569 78186 8//// 22200 11012 70060
BBXX 62304 14064 99511 10018 46/98 /2313 10063 20024 49949 56012 22200 00119 10702 70008 333 90710 91126
BBXX 62107 14064 99501 70061 46/// /2530 10071 20012 49937 52007 22200 00116 11010 70048 333 90710 91147
BBXX 64049 14063 99571 10022 41/97 82350 10080 20074 49777 52010 70722 8//// 22200 04092 20814 323// 40816 5//// 80077
BBXX 62103 14064 99499 70029 46/99 /2727 10089 20031 49928 55003 22200 00125 11007 70034 333 90710 91142
AAXX 14061 10791 11/90 91807 10000 20000 38468 48416 55000 69962 74974 333 10005 21019 44054 55005 55300 70011
BBXX 42047 14061 99279 70936 46/// /1410 10211 20178 40215 90630 22200 00228 333 91211
BBXX 52249 14061 99052 31503 46/// ///// 1//// 90600 22200 00302
BBXX 62123 14064 99563 10022 41/97 /2345 10069 20042 49760 52009 7//// 8//// 22200 20912 323// 40916 5////
BBXX AMOUK08 14064 99501 70061 46/// ///// 10076 20021 39930 49935 54002 90550
BBXX PJGO 14064 99571 10022 47196 /2136 10068 20029 49727 52021 762// 22200
BBXX 63110 14064 99595 10015 47496 /2135 10076 20046 49577 51009 762// 22200 10912 70061
BBXX 63106 14064 99610 10017 46/// /2130 10059 49540 51005 22200
BBXX 63113 14064 99610 10017 46/// /2327 10063 20036 49549 52014 22200 10912 70058
BBXX 62304 14064 99511 10018 46/98 /2311 10064 20026 49929 57011 22200 00120 10702 70008
BBXX 62103 14064 99499 70029 46/99 /2727 10094 20030 49928 57005 22200 00126 10906 70030 333 90710 91135
BBXX 52249 14061 99052 31503 46/// ///// 1//// 90600 22200 00302
AAXX 1406/ 68902 46/// ///// 40052 57014
AAXX 14061 31371 42999 82703 11178 21237 39966 40248 57002 8801/
BBXX 62123 14064 99563 10022 47597 /2337 10069 20037 49739 52012 700// 22200
BBXX 63106 14064 99610 10017 46/// /2130 10059 49540 51005 22200
BBXX 63105 14064 99610 10017 47596 ///// 10067 20037 49540 51006 763// 22200
BBXX 63110 14063 99595 10015 41/97 /2150 10075 20044 49569 78186 8//// 22200 11012 70060
BBXX 62304 14064 99511 10018 46/98 /2313 10063 20024 49949 56012 22200 00119 10702 70008 333 90710 91126
BBXX 62107 14064 99501 70061 46/// /2530 10071 20012 49937 52007 22200 00116 11010 70048 333 90710 91147
BBXX 64049 14063 99571 10022 41/97 82350 10080 20074 49777 52010 70722 8//// 22200 04092 20814 323// 40816 5//// 80077
BBXX 62103 14064 99499 70029 46/99 /2727 10089 20031 49928 55003 22200 00125 11007 70034 333 90710 91142
AAXX 14061 78090 15/// /0000 10212 30225 40228 69901 90600 222// 00165
AAXX 14064 07558 02670 21603 10061 20033 39298 40139 55003 60002 82500 333 10072 20039 31001 55017 60007 70000 82633 90710 91106 93100 555 60005
AAXX 14061 10791 11/90 91807 10000 20000 38468 48416 55000 69952 74974 333 10005 21019 44054 55005 55300 70010
BBXX 62123 14064 99563 10022 41/97 /2345 10069 20042 49760 52009 7//// 8//// 22200 20912 323// 40916 5////
BBXX AMOUK08 14064 99501 70061 46/// ///// 10076 20021 39930 49935 54002 90550
BBXX PJGO 14064 99571 10022 47196 /2136 10068 20029 49727 52021 762// 22200
BBXX 63110 14064 99595 10015 47496 /2135 10076 20046 49577 51009 762// 22200 10912 70061
BBXX 63106 14064 99610 10017 46/// /2130 10059 49540 51005 22200
BBXX 63113 14064 99610 10017 46/// /2327 10063 20036 49549 52014 22200 10912 70058
BBXX 62304 14064 99511 10018 46/98 /2311 10064 20026 49929 57011 22200 00120 10702 70008
BBXX 62103 14064 99499 70029 46/99 /2727 10094 20030 49928 57005 22200 00126 10906 70030 333 90710 91135
AAXX 14064 71642 13/// ///// 11040 69901 333 11015 21045 70002 555 19999 29999
AAXX 14064 71642 13/// ///// 11040 69901 333 11015 21045 70002 555 19999 29999
AAXX 14064 71642 13/// ///// 11040 60001 333 11015 21045 70002 555 19999 29999
AAXX 14064 71642 13/// ///// 11040 60001 333 11015 21045 70002 555 19999 29999
BBXX 62123 14064 99563 10022 47597 /2337 10069 20037 49739 52012 700// 22200
BBXX 63106 14064 99610 10017 46/// /2130 10059 49540 51005 22200
BBXX 63105 14064 99610 10017 47596 ///// 10067 20037 49540 51006 763// 22200
BBXX 63110 14063 99595 10015 41/97 /2150 10075 20044 49569 78186 8//// 22200 11012 70060
BBXX 62304 14064 99511 10018 46/98 /2313 10063 20024 49949 56012 22200 00119 10702 70008 333 90710 91126
BBXX 62107 14064 99501 70061 46/// /2530 10071 20012 49937 52007 22200 00116 11010 70048 333 90710 91147
BBXX 64049 14063 99571 10022 41/97 82350 10080 20074 49777 52010 70722 8//// 22200 04092 20814 323// 40816 5//// 80077
BBXX 62103 14064 99499 70029 46/99 /2727 10089 20031 49928 55003 22200 00125 11007 70034 333 90710 91142
BBXX C6W2032 14063 99008 10049 41897 72008 10260 2023/ 40100 54/// 70122 8 7712 22284 00270 20201 318// 40201 50201 6//// 80240 ICE/////
BBXX A8IZ2 14064 99316 70799 43/98 /0212 10180 20180 40285 54000 22234 80180
BBXX 62123 14064 99563 10022 41/97 /2345 10069 20042 49760 52009 7//// 8//// 22200 20912 323// 40916 5////
BBXX AMOUK08 14064 99501 70061 46/// ///// 10076 20021 39930 49935 54002 90550
BBXX PJGO 14064 99571 10022 47196 /2136 10068 20029 49727 52021 762// 22200
BBXX 63110 14064 99595 10015 47496 /2135 10076 20046 49577 51009 762// 22200 10912 70061
BBXX 63106 14064 99610 10017 46/// /2130 10059 49540 51005 22200
BBXX 63113 14064 99610 10017 46/// /2327 10063 20036 49549 52014 22200 10912 70058
BBXX 62304 14064 99511 10018 46/98 /2311 10064 20026 49929 57011 22200 00120 10702 70008
BBXX 62103 14064 99499 70029 46/99 /2727 10094 20030 49928 57005 22200 00126 10906 70030 333 90710 91135
BBXX C6W2032 14063 99008 10049 41897 72008 10260 2023/ 40100 54/// 70122 8 7712 22284 00270 20201 318// 40201 50201 6//// 80240 ICE/////
BBXX A8IZ2 14064 99316 70799 43/98 /0212 10180 20180 40285 54000 22234 80180
AAXX 14064 40270 31930 40000 10078 21019 39305 40214 52007 70500 80001 333 84070
AAXX 14064 40270 31930 40000 10078 21019 39305 40214 52007 70500 80001 333 84070
BBXX PCHM 14064 99376 31761 41497 80515 10180 20163 40165 54000 70322 887// 22200 00190 20000 30000 80170
BBXX PCHM 14064 99376 31761 41497 80515 10180 20163 40165 54000 70322 887// 22200 00190 20000 30000 80170
AAXX 14064 91723 NIL
AAXX 14064 91964 NIL
BBXX 62123 14064 99563 10022 47597 /2337 10069 20037 49739 52012 700// 22200
BBXX 63106 14064 99610 10017 46/// /2130 10059 49540 51005 22200
BBXX 63105 14064 99610 10017 47596 ///// 10067 20037 49540 51006 763// 22200
BBXX 63110 14063 99595 10015 41/97 /2150 10075 20044 49569 78186 8//// 22200 11012 70060
BBXX 62304 14064 99511 10018 46/98 /2313 10063 20024 49949 56012 22200 00119 10702 70008 333 90710 91126
BBXX 62107 14064 99501 70061 46/// /2530 10071 20012 49937 52007 22200 00116 11010 70048 333 90710 91147
BBXX 64049 14063 99571 10022 41/97 82350 10080 20074 49777 52010 70722 8//// 22200 04092 20814 323// 40816 5//// 80077
BBXX 62103 14064 99499 70029 46/99 /2727 10089 20031 49928 55003 22200 00125 11007 70034 333 90710 91142
AAXX 14064 71268 43/// ///// 333 10021 20000 70012 555 19999 29999
AAXX 14064 71604 17/// /0608 11029 21029 69961 7//4/ 333 10029 21029 70006
AAXX 14064 71604 17/// /0608 11029 21029 69961 7//4/ 333 10029 21029 70006
AAXX 14064 71268 43/// ///// 333 10021 20000 70012 555 19999 29999
BBXX 62123 14064 99563 10022 41/97 /2345 10069 20042 49760 52009 7//// 8//// 22200 20912 323// 40916 5////
BBXX AMOUK08 14064 99501 70061 46/// ///// 10076 20021 39930 49935 54002 90550
BBXX PJGO 14064 99571 10022 47196 /2136 10068 20029 49727 52021 762// 22200
BBXX 63110 14064 99595 10015 47496 /2135 10076 20046 49577 51009 762// 22200 10912 70061
BBXX 63106 14064 99610 10017 46/// /2130 10059 49540 51005 22200
BBXX 63113 14064 99610 10017 46/// /2327 10063 20036 49549 52014 22200 10912 70058
BBXX 62304 14064 99511 10018 46/98 /2311 10064 20026 49929 57011 22200 00120 10702 70008
BBXX 62103 14064 99499 70029 46/99 /2727 10094 20030 49928 57005 22200 00126 10906 70030 333 90710 91135
AAXX 14061 01241 11586 41408 10042 21035 39662 49673 58007 6//// 70222 81872 333 20032 91113
AAXX 14061 10544 11/03 91814 10010 20010 38962 48349 58018 60022 74142 333 10029 20008 31000 41998 55000 55300 70064 91120 91214
AAXX 14063 63684 11480 71603 10211 20187 38849 48/// 69904 70252 8695/ 333 20/// 85015 85818 81922 87360 555 10195
AAXX 14063 63684 11480 71603 10211 20187 38849 48/// 69904 70252 8695/ 333 20/// 85015 85818 81922 87360 555 10195
AAXX 14063 63684 11480 71603 10211 20187 38849 48/// 69904 70252 8695/ 333 20/// 85015 85818 81922 87360 555 10195
BBXX 62123 14064 99563 10022 47597 /2337 10069 20037 49739 52012 700// 22200
BBXX 63106 14064 99610 10017 46/// /2130 10059 49540 51005 22200
BBXX 63105 14064 99610 10017 47596 ///// 10067 20037 49540 51006 763// 22200
BBXX 63110 14063 99595 10015 41/97 /2150 10075 20044 49569 78186 8//// 22200 11012 70060
BBXX 62304 14064 99511 10018 46/98 /2313 10063 20024 49949 56012 22200 00119 10702 70008 333 90710 91126
BBXX 62107 14064 99501 70061 46/// /2530 10071 20012 49937 52007 22200 00116 11010 70048 333 90710 91147
BBXX 64049 14063 99571 10022 41/97 82350 10080 20074 49777 52010 70722 8//// 22200 04092 20814 323// 40816 5//// 80077
BBXX 62103 14064 99499 70029 46/99 /2727 10089 20031 49928 55003 22200 00125 11007 70034 333 90710 91142
BBXX SHIP 14064 99220 30530 41597 20414 10290 20249 40130 54000 70200 81100 22212 04270 20801 309// 40803 5//// 80260
BBXX SHIP 14064 99220 30530 41597 20414 10290 20249 40130 54000 70200 81100 22212 04270 20801 309// 40803 5//// 80260
BBXX SHIP 14064 99220 30530 41597 20414 10290 20249 40130 54000 70200 81100 22212 04270 20801 309// 40803 5//// 80260
BBXX C6W2032 14063 99008 10049 41897 72008 10260 2023/ 40100 54/// 70122 87712 22284 00270 20201 318// 40201 50201 6//// 80240 ICE/////
BBXX C6W2032 14063 99008 10049 41897 72008 10260 2023/ 40100 54/// 70122 87712 22284 00270 20201 318// 40201 50201 6//// 80240 ICE/////
BBXX SHIP 14064 99220 30530 41597 20414 10290 20249 40130 54000 70200 81100 22212 04270 20801 309// 40803 5//// 80260
AAXX 14064 67767 NIL
AAXX 14064 67843 12380 80606 10206 20206 38932 48490 60044 8567/ 333 20187 58002 87705 87458
AAXX 14064 67755 32470 70000 10266 20227 3//// 4//// 81131 333 20218 5//// 81815 87075
AAXX 14064 67969 NIL
AAXX 14061 63330 32980 01208 10144 20045 37807 40280 333 20095 58013
AAXX 14061 63331 32875 30202 10198 20100 38061 40242 83030 333 20118 58006 83359
AAXX 14061 63332 NIL
AAXX 14061 63333 32980 10000 10148 20062 38187 40216 80001 333 20055 58001 81070
AAXX 14061 63334 NIL
AAXX 14061 63340 32580 62101 10155 20123 37955 40180 85830 333 20115 58008 82324 83825
AAXX 14061 63402 31520 10000 10122 20119 38361 4//// 7104/ 81100 333 20078 58009 81824
AAXX 14061 63403 11060 70902 10170 20136 60104 7102/ 85570 333 20132 81700 84624 87360
AAXX 14061 63450 NIL
AAXX 14061 63451 32980 00000 10148 20104 38163 40157 333 20030 58004
AAXX 14061 63453 31975 02701 10186 2//// 39098 7050/ 333 20090
AAXX 14061 63460 32980 00201 10160 20070 333 20072
AAXX 14061 63471 32980 00000 10224 20125 38883 40135 333 20145 58001
AAXX 14061 63474 32580 10402 10144 20048 81100 333 20050 81823
AAXX 14061 63478 32880 11004 10285 39813 40192 81040 333 20224 58006 81358
AAXX 14061 63500 31570 10000 10212 20134 7050/ 81100 333 20130 82820
AAXX 14061 63533 NIL
AAXX 14063 67765 12980 70000 10211 20177 38663 48506 69904 87072 333 20186 87360
AAXX 14063 67867 12380 70506 10182 20182 38574 48501 60324 8177/ 333 20165 81708 87459
AAXX 14063 67861 12580 81003 10203 20192 38722 48502 60094 8157/ 333 20190 81630 88459
AAXX 14063 67865 11580 70701 10194 20186 38797 48509 60144 70296 8457/ 333 20182 84620 87459
AAXX 14064 67765 12080 70000 10211 20177 38663 48506 69904 87072 333 20186 58008 87360
AAXX 14064 67775 NIL
AAXX 14064 67779 NIL
AAXX 14064 67853 NIL
AAXX 14064 67861 NIL
AAXX 14064 67867 12380 70506 10182 20182 38574 48501 60324 8177/ 333 20165 58008 81708 87459
AAXX 14064 67861 12680 81003 10203 20192 38722 48502 60094 8157/ 333 20190 58012 81630 88459
AAXX 14064 67865 11580 70701 10194 20186 38797 48509 60144 70296 8457/ 333 20182 58016 84620 87459
AAXX 14064 67881 NIL
AAXX 14064 67965 NIL
AAXX 14064 67975 NIL
AAXX 14064 67977 NIL
AAXX 14064 67983 NIL
AAXX 14064 67991 NIL
AAXX 14064 63729 11475 82603 10180 20180 38900 48/// 60384 79596 8392/ 333 0//61 20185 50141 55016 55300 58022 83614 81916 88258
AAXX 14064 63733 12580 70906 10206 20174 38887 48523 69994 8193/ 333 0//17 20176 50581 55088 55300 58016 81920 87359
AAXX 14064 63756 12480 71210 10204 20167 38892 48525 60034 8293/
AAXX 14064 63791 32580 52105 10252 20184 39143 48528 85200 333 20210 50801 55075 55305 58010 85826
AAXX 14064 63801 11480 70804 10215 20192 39226 48548 60064 72022 8193/ 333 0//59 20189 50131 55001 55300 59002 81819 81920 87358
AAXX 14064 63832 32480 50000 10199 20171 38844 48513 81131 333 20170 50701 55050 55305 58009 81817 84358
AAXX 14064 63862 12580 70000 10213 20181 38917 48524 60224 82572 333 0//98 20181 50671 55045 55300 58003 70217 82620 86358
AAXX 14064 63866 32580 30310 10255 20215 39534 48/// 83200 333 20223 50301 55026 55310 58011 83822
AAXX 14064 63870 32475 73305 10290 20248 30109 40127 879// 333 20245 50601 55087 55310 58011 87818 81920
AAXX 14064 63881 12480 70000 10165 20137 38212 48/// 60074 82922 333 0//13 20137 50311 55018 55300 58003 82616 81918 87456
AAXX 14064 63887 12480 83610 10195 20172 38606 48525 60014 84930 333 20175 50301 55038 55300 58005 84819 81920 88358
AAXX 14064 63894 01580 53008 10270 20257 30070 40130 60034 72162 83940 333 0//51 20249 50301 55073 55300 58008 83821 81922 83358
AAXX 14064 63932 12580 70000 10177 20153 38320 48518 60124 8253/ 333 0//29 20125 50161 55000 55300 58000 82622 87359
AAXX 14064 63962 12480 30909 10226 20175 38965 48526 60094 81930 333 20184 50391 55042 55310 58003 81818 81921 83358
AAXX 14064 63971 12580 43610 10276 20253 39990 40119 60024 84200 333 0//19 20225 50211 55058 55310 58000 84823
AAXX 14064 61017 32960 50414 10142 21016 39757 40174 80002 333 02300 20056 50404 55098 59005 85080
AAXX 14064 61024 32960 51008 10120 21063 39586 40163 80002 333 00600 20095 51031 59005 85080
AAXX 14064 61036 32960 70000 10150 20001 39896 40137 80008 333 01200 20149 51041 50744 55091 59001 87280
AAXX 14064 61043 32960 50806 10125 21065 39699 40147 80002 333 0//00 20124 51441 55102 59001 85080
AAXX 14064 61045 32965 70000 10100 21080 39660 40171 80008 333 00700 20100 50684 55098 58002 87280
AAXX 14064 61049 32960 70000 10086 21058 39825 40154 80008 333 00700 20082 50861 50734 55101 58002 87280
AAXX 14064 61052 32960 50404 10150 21021 39883 40143 80002 333 00800 20145 51081 55096 59008 85080
AAXX 14064 61075 32960 50000 10149 20015 39830 40144 80002 333 01000 20136 50871 50644 55102 59001 85080
AAXX 14064 61080 32960 70804 10112 21052 39730 40160 80008 333 00400 20110 50881 50934 55099 58002 87280
AAXX 14064 61090 32960 50204 10129 21080 39636 40155 80002 333 01000 20120 51051 50834 55102 59005 87280
AAXX 14064 61091 32965 50000 10100 21010 39702 40155 80002 333 00800 20082 50561 50444 55091 59010 85080
AAXX 14064 61096 31940 70402 10130 21080 39767 40156 70522 80008 333 01100 20125 50891 50714 55082 59004 87280
AAXX 14064 61099 32960 70406 10180 20003 39892 40123 80008 333 01400 20175 50941 55081 59005 87280
AAXX 14063 63702 31420 80508 20173 71044 8257/ 333 20156 82618 88462 555 10177
AAXX 14063 63674 31458 80206 10217 20183 39082 48528 70542 8257/ 333 20184 58020 83618 88461 555 10195
AAXX 14063 63630 32980 80905 10250 20168 48/// 80007 333 20185 88080 555 10200
AAXX 14063 63682 12480 82604 10192 20173 48/// 60014 8297/ 333 20185 82819 81921 88461 555 10180
AAXX 14064 67009 32582 30000 10300 20218 39995 40113 51004 83200 333 02400 10320 20250 50294 55020 83820
AAXX 14064 67012 11580 61806 10264 20245 30106 40117 51016 60034 71596 86930 333 0//12 10310 20258 50194 55/// 84820 81920 94961 94962 94964 95832 95834 555 82640 81360
AAXX 14064 67161 32982 10000 10292 20215 30098 40107 51002 80002 333 0//00 10320 20190 50464 55/// 81073
BBXX 62123 14064 99563 10022 41/97 /2345 10069 20042 49760 52009 7//// 8//// 22200 20912 323// 40916 5////
BBXX AMOUK08 14064 99501 70061 46/// ///// 10076 20021 39930 49935 54002 90550
BBXX PJGO 14064 99571 10022 47196 /2136 10068 20029 49727 52021 762// 22200
BBXX 63110 14064 99595 10015 47496 /2135 10076 20046 49577 51009 762// 22200 10912 70061
BBXX 63106 14064 99610 10017 46/// /2130 10059 49540 51005 22200
BBXX 63113 14064 99610 10017 46/// /2327 10063 20036 49549 52014 22200 10912 70058
BBXX 62304 14064 99511 10018 46/98 /2311 10064 20026 49929 57011 22200 00120 10702 70008
BBXX 62103 14064 99499 70029 46/99 /2727 10094 20030 49928 57005 22200 00126 10906 70030 333 90710 91135
AAXX 14064 83780 31558 32008 10176 20166 39213 48510 50005 71000 8350 0
BBXX C6W2032 14063 99008 10049 41897 72008 10260 2023/ 40100 54/// 70122 8 7712 22284 00270 20201 318// 40201 50201 6//// 80240 ICE/////
AAXX 14064 71099 43/// /2515 11062 21095 30084 40104 51018 6///1 333 11055 21180 7//// 555 32535 40043
AAXX 14061 38932 41/93 98001 1013 21023 40329 53005 74544
AAXX 14061 01492 11475 81703 10036 20016 39669 49784 55001 69942 70282 8567/ 333 41998
AAXX 14061 01238 41X00 91515 11035 21045 38591 49688 58013 73882 333 49014 91120
AAXX 14061 01366 46/// /1314 11061 21077 38119 49693 56011
AAXX 14061 01383 46/// /1210 10010 20003 39456 49761 58005
AAXX 14061 01455 16/// /1203 10024 20006 39464 49766 53003 6//// 333 70162 91108
AAXX 14061 01481 16/// /2004 10046 20013 39759 49790 52003 60032 333 70241 91115
AAXX 14061 01364 16/// /1207 11022 21046 38619 49705 50008 60002 333 4/031 70022
AAXX 14061 01373 11687 60702 10015 21003 39539 49737 56007 60002 70222 84501 333 43021 70067
BBXX C6W2032 14063 99008 10049 41897 72008 10260 2023/ 40100 54/// 70122 87712 22284 00270 20201 318// 40201 50201 6//// 80240 ICE/////
AAXX 14064 71627 11248 80404 10013 21008 30245 40290 53002 69901 71075 885// 333 10015 21011 70002 90941 555 10002 20002
AAXX 14064 71627 11248 80404 10013 21008 30245 40290 53002 69901 71075 885// 333 10015 21011 70002 90941 555 10002 20002
AAXX 14061 01203 46/// /1310 10047 20003 39554 49601 55020
BBXX C6W2032 14063 99008 10049 41897 72008 10260 2023/ 40100 54/// 70122 8 7712 22284 00270 20201 318// 40201 50201 6//// 80240 ICE/////
AAXX 14064 89272 46/// /3409 11119 21140 37959 49578 52014 90620
AAXX 14064 89272 46/// /3411 11119 21141 37960 49580 52012 90640
AAXX 14064 89272 46/// /3410 11119 21140 37959 49578 5//// 90630
AAXX 14064 89272 46/// /3408 11118 21141 37958 49576 52013 90600
OOXX AAPIG 14064 99758 51003 56251 08502 46/// /0819 11151 21245 38722 49703 57001 90550
AAXX 14064 89257 46/// /0608 11069 21081 39704 49774 52003 90630
AAXX 14064 89257 46/// /0608 11070 21082 39704 49774 52004 90640
AAXX 14064 89262 46/// /3202 11074 21080 39753 49797 52012 90630
AAXX 14064 89272 46/// /3410 11119 21140 37959 49578 52012 90630
AAXX 14064 89262 46/// /3103 11076 21082 39752 49796 52011 90620
AAXX 14064 89272 46/// /3409 11119 21140 37959 49578 52012 90620
AAXX 14064 89065 46/// /3504 11012 21015 39698 49775 52017 90630
OOXX AAEMI 14064 99785 31731 57083 00521 46/// /1909 11050 21110 39782 49847 52006 90630
OOXX AAVIT 14064 99785 31778 57087 00501 46/// /1711 11054 21081 39738 49800 52012 90630
OOXX AAERI 14064 99849 51288 60048 09901 46/// /0608 11119 21136 38696 49822 57003 90620
OOXX AAERC 14064 99815 31639 60713 00451 46/// ///02 11032 21179 39753 49809 57001 90630
OOXX AAUNI 14064 99798 50833 56093 07671 46/// /2215 11123 21202 38872 49763 52001 90600
OOXX AAKOM 14064 99795 51121 56392 18332 46/// ///01 11166 21242 37737 49625 57006 90620
OOXX AAPEG 14064 99779 31666 57186 00051 46/// /0506 11036 21086 39809 49815 52001 90630
OOXX AABRI 14064 99839 51342 60134 05251 46/// /0808 11111 21197 39158 49785 57006 90630
OOXX AALAU 14064 99775 31708 57070 00371 46/// /2306 11078 21107 39765 49812 52006 90620
OOXX AAMIZ 14064 99707 30443 58304 22602 46/// /0817 11168 2//// 37335 49544 52012 90630
AAXX 14061 89063 41396 83503 10001 21005 39880 49891 52017 71072 886//
AAXX 14064 89065 46/// /3504 11012 21015 39698 49775 52017 90630
AAXX 14061 89063 41396 83503 10001 21005 39880 49891 52017 71072 886//
AAXX 14064 89013 46/// /0504 11231 21269 37565 49599 52007 90620
AAXX 14064 89020 46/// /0804 11071 21086 39768 49803 52004 90550
AAXX 14064 89065 46/// /3304 11010 21013 39696 49773 52015 90620
AAXX 14064 89108 46/// /0705 11240 36833 4//// 52002 90620
AAXX 14064 89257 46/// /0709 11062 21072 39702 49772 52001 90550
AAXX 14064 89262 46/// /9902 11066 21072 39749 49793 52011 90550
AAXX 14064 89266 46/// /3303 11061 21078 39626 49764 52003 90620
AAXX 14064 89272 46/// /3408 11118 21140 37957 49575 52011 90550
AAXX 14064 89314 46/// /1006 11176 38115 4//// 57005 90620
AAXX 14064 89327 46/// /0000 11045 39491 49769 57011 90620
AAXX 14064 89329 46/// /0007 11145 38654 49734 57011 90620
AAXX 14064 89332 46/// /0912 11091 39123 49736 57019 90630
AAXX 14064 89376 46/// /0000 1//// 3//// 4//// 5//// 90630
AAXX 14064 89667 46/// /0506 11036 39809 49819 52001 90630
AAXX 14064 89734 46/// ///02 11272 35935 4//// 52007 90630
AAXX 14064 89744 46/// /0309 11302 36318 4//// 52007 90630
AAXX 14064 89769 46/// /2204 11020 39756 49808 52001 90630
AAXX 14064 89799 46/// /2006 11280 36639 4//// 52002 90620
AAXX 14064 89828 46/// /3006 11219 36401 4//// 52004 90620
AAXX 14064 89832 46/// /2703 10045 39535 49820 52006 90630
AAXX 14064 89834 46/// /1806 11108 38104 4//// 52006 90630
AAXX 14064 89865 46/// ///// 1//// 3//// 4//// 5//// 90630
AAXX 14064 89866 46/// ///01 10000 39671 49802 57005 90630
AAXX 14064 89868 46/// /2303 11044 39732 49799 5//// 90620
AAXX 14064 89869 46/// /2304 11052 39728 49806 57001 90630
AAXX 14064 89872 46/// /1905 11035 39752 49808 52006 90630
AAXX 14064 89873 46/// /2903 11062 39731 49808 57002 90620
AAXX 14064 89879 46/// ///02 10001 39723 49759 52003 90630
BBXX C6W2032 14063 99008 10049 41897 72008 10260 2023/ 40100 54/// 70122 87712 22284 00270 20201 318// 40201 50201 6//// 80240 ICE/////
BBXX WDE4430 14063 99473 71257 41598 71905 10072 20038 40189 52011 70252 81693 22243 0//// 20301 32701 40505 50605 6//// 80056 ICE /////
BBXX WDE4430 14063 99473 71257 41598 71905 10072 20038 40189 52011 70252 81693 22243 0//// 20301 32701 40505 50605 6//// 80056 ICE /////
BBXX WDE4430 14063 99473 71257 41598 71905 10072 20038 40189 52011 70252 81693 22243 0//// 20301 32701 40505 50605 6//// 80056 ICE /////
AAXX 14064 71785 16/// /0301 10027 21020 30190 40206 51013 60001 333 10046 21019 7////
BBXX C6W2032 14063 99008 10049 41897 72008 10260 2023/ 40100 54/// 70122 8 7712 22284 00270 20201 318// 40201 50201 6//// 80240 ICE/////
BBXX YJZC5 14064 99223 31694 41596 51710 10265 20244 40094 50/// 70322 85868 22223 20101 306// 40101 80250
BBXX YJZC5 14064 99223 31694 41596 51710 10265 20244 40094 50/// 70322 85868 22223 20101 306// 40101 80250
BBXX YJZC5 14064 99223 31694 41596 51710 10265 20244 40094 50/// 70322 85868 22223 20101 306// 40101 80250
BBXX C6W2032 14063 99008 10049 41897 72008 10260 2023/ 40100 54/// 70122 87712 22284 00270 20201 318// 40201 50201 6//// 80240 ICE/////
BBXX C6W2032 14063 99008 10049 41897 72008 10260 2023/ 40100 54/// 70122 8 7712 22284 00270 20201 318// 40201 50201 6//// 80240 ICE/////
AAXX 14063 91553 31598 61410 10290 20248 40070 53004 70222 86900 333 563// 85820 81925
AAXX 14063 91553 31598 61410 10290 20248 40070 53004 70222 86900 333 563// 85820 81925
BBXX C6W2032 14063 99008 10049 41897 72008 10260 2023/ 40100 54/// 70122 87712 22284 00270 20201 318// 40201 50201 6//// 80240 ICE/////
BBXX C6W2032 14063 99008 10049 41897 72008 10260 2023/ 40100 54/// 70122 8 7712 22284 00270 20201 318// 40201 50201 6//// 80240 ICE/////
BBXX C6W2032 14063 99008 10049 41897 72008 10260 2023/ 40100 54/// 70122 87712 22284 00270 20201 318// 40201 50201 6//// 80240 ICE/////
BBXX C6W2032 14063 99008 10049 41897 72008 10260 2023/ 40100 54/// 70122 8 7712 22284 00270 20201 318// 40201 50201 6//// 80240 ICE/////
BBXX C6W2032 14063 99008 10049 41897 72008 10260 2023/ 40100 54/// 70122 87712 22284 00270 20201 318// 40201 50201 6//// 80240 ICE/////
BBXX C6W2032 14063 99008 10049 41897 72008 10260 2023/ 40100 54/// 70122 8 7712 22284 00270 20201 318// 40201 50201 6//// 80240 ICE/////
BBXX C6W2032 14063 99008 10049 41897 72008 10260 2023/ 40100 54/// 70122 87712 22284 00270 20201 318// 40201 50201 6//// 80240 ICE/////
BBXX C6W2032 14063 99008 10049 41897 72008 10260 2023/ 40100 54/// 70122 8 7712 22284 00270 20201 318// 40201 50201 6//// 80240 ICE/////
AAXX 14061 02513 07/67 /2005 10054 20019 39863 49867 53007 60032 70086 333 10070 20033 60005 70135 90710 91111
BBXX C6W2032 14063 99008 10049 41897 72008 10260 2023/ 40100 54/// 70122 87712 22284 00270 20201 318// 40201 50201 6//// 80240 ICE/////
BBXX C6W2032 14063 99008 10049 41897 72008 10260 2023/ 40100 54/// 70122 8 7712 22284 00270 20201 318// 40201 50201 6//// 80240 ICE/////
AAXX 14064 68715 16/// /3505 10151 20090 30054 40183 52006 60054 333 20123 91013 555 10177 20052 91018
AAXX 14064 68916 16/// /2822 10128 20064 39823 40093 52003 60034 333 20106 91028 555 10199 20032 91009
BBXX C6W2032 14063 99008 10049 41897 72008 10260 2023/ 40100 54/// 70122 87712 22284 00270 20201 318// 40201 50201 6//// 80240 ICE/////
AAXX 14061 10609 01459 81913 10068 20045 39664 49989 58050 69932 76322 8172/ 333 10075 20054 31003 55000 55300 20000 30000 69937 70105 81710 88533 91120 91214
AAXX 14061 10948 01782 71903 10018 20015 39175 48419 56004 69972 76162 875// 333 10043 20000 32102 4/998 55007 55300 20000 30000 69977 70007 87656
AAXX 14064 71448 16/// /1705 11016 21031 39828 40163 56019 60001 333 7////
AAXX 14064 71448 16/// /1705 11016 21031 39828 40163 56019 60001 333 7////
AAXX 14064 71571 16/// /3007 11057 21065 38903 40105 51019 60001 333 11023 21057 70006 555 32325 40081
AAXX 14064 71927 16/// /1801 10002 21015 30135 40194 51006 60001 333 10039 21035 70000
AAXX 14064 71927 16/// /1801 10002 21015 30135 40194 51006 60001 333 10039 21035 70000
AAXX 14061 10382 12982 11904 10045 20017 39991 40036 53011 69912 81030 333 10083 20044 31002 55000 55300 20000 30000 70027 81362
AAXX 14064 71314 46/// /2903 11001 21011 39917 40274 58005 6///1 333 10057 21009 7//// 555 10010
AAXX 14064 71314 46/// /2903 11001 21011 39917 40274 58005 6///1 333 10057 21009 7//// 555 10010
