BBXX ZMFR 14114 99481 31667 43/// /18// 10115 20115 49983 52011 22283 00114
BBXX ZMENA 14114 99377 31762 46/// ///// 10174 20160 40152 57011 22200
BBXX 3EAT6 14113 99264 31648 41498 31718 10230 20191 40116 52030 70300 8/1// 22253 00250 306// 40101
AAXX 14124 40272 31958 70705 10160 21018 39338 40172 57016 70500 80001 333 87070
AAXX 14124 40310 32960 51203 10196 21023 38940 48491 57030 85032 333 83360 82070
BBXX 46218 14121 99345 71208 46/// ///// 1//// 91132 22200 00140 11004 21003 331// 41202 70019
BBXX 44097 14121 99410 70711 46/// ///// 1//// 91132 22200 00125 11102 21002 316// 41101 70011
AAXX 14124 40255 32960 70000 10154 20011 39474 40193 57010 87030 333 85360 84070
AAXX 14124 40270 31950 71403 10148 21049 39278 40178 57019 70500 80006 333 87270
BBXX DBKV 1/121 99172 70219 46/// /0511 10244 20182 40169 52004 22201 00244
BBXX DBBT 14121 99435 30019 46/// /3415 10103 20098 40025 57041 22273 00094
BBXX WZJC 14123 99200 70705 41398 60512 10250 2021/ 40135 52006 71522 86366 22233 00267 20302 30402 40905 50503 6//// 80222 ICE /////
BBXX V7MO2 14124 99262 70914 41/// /1215 10230 20185 40211 57006 7//// 8//// 22200 00240 20402 310// 40603 5//// 6//// 80200 ICE /////
BBXX A8ZS7 14124 99224 30537 41798 31411 10255 20210 40130 54000 7//00 8316/ 22254 04250 20402 318// 40705
AAXX 14121 13586 31856 72801 10090 20051 39938 40230 57011 71022 87030 333 87358
BBXX 46249 14121 99338 71197 46/// ///// 1//// 91145 22200 00142 11302 20702 323// 41301 70010
AAXX 14124 91643 11599 40815 10284 20243 40099 58001 69901 70128 83230 333 10308 5629/ 83820 84361
BBXX 46248 14121 99461 71247 46/// ///// 1//// 91134 22200 00085 11404 20902 330// 41404 70020
BBXX 46244 14121 99409 71244 46/// ///// 1//// 91135 22200 00095 11403 21001 331// 41402 70013
BBXX 46114 14121 99364 71222 46/// ///// 1//// 91134 22200 00122 11303 20902 327// 41301 70013
BBXX 46240 14121 99366 71219 46/// ///// 1//// 91142 22200 00126 11001 21001 335// 41301 70005
BBXX 44172 14121 99445 70634 46/// ///// 1//// 91131 22200 00069 11002 21002 317// 41101 70012
BBXX 46237 14121 99378 71226 46/// ///// 1//// 91140 22200 00110 11502 20901 326// 41501 70009
BBXX BAREU61 14124 99153 70177 46/// /0117 10253 29044 40144 57008 22243
BBXX 46212 14121 99408 71243 46/// ///// 1//// 91142 22200 00096 11503 21002 330// 41503 70015
BBXX 46217 14121 99342 71194 46/// ///// 1//// 91142 22200 00145 11202 21002 327// 41201 70010
BBXX 46211 14121 99469 71242 46/// ///// 1//// 91136 22200 00086 11404 21002 328// 41403 70020
BBXX 41115 14121 99184 70673 46/// ///// 1//// 91135 22200 11002 21002 301// 41101 70012
BBXX 41114 14121 99276 70802 46/// ///// 1//// 91146 22200 00227 11004 21004 308// 41202 70022
AAXX 14124 91376 32474 60708 10278 20229 30091 40095 50002 83871 333 10307 56229 58002 555 91412
AAXX 14124 91376 32474 60708 10278 20229 30091 40095 50002 83871 333 10307 56229 58002 555 91412
AAXX 14124 08495 11470 72308 10175 20135 30253 40261 50000 69901 70261 878// 91150 333 81818 83627 85650
AAXX 14124 68994 12398 83409 10108 20100 30143 40172 57011 69941 886// 222// 00064 309// 40201 333 10115 20074 91015 555 20004 91017
BBXX 46060 14121 99606 71468 46/// /1209 10025 40058 56011 91150 22200 00057 333 91211 555 11094 22099 31133 41111 61149 114089 109096 110088 107081 105082 093068 81110 91134
BBXX 46088 14121 99483 71232 46/// /1402 10059 40205 52005 91150 22200 00079 10901 323// 40901 70003 333 91203 555 11020 22020 31056 41303 61149 137017 128015 116006 106007 119013 131018
BBXX 42363 14121 99282 70892 46/// /1114 10217 20150 40241 91145 333 91214
BBXX 42364 14121 99291 70881 46/// /1209 10206 20161 40247 91145
BBXX 44060 14121 99413 70721 46/// ///06 10039 40285 91145 22200 00104 333 91207 555 11062 22062
BBXX 44022 14121 99409 70737 46/// ///02 10045 21001 40298 91145 22200 00086 333 91203 555 11015 22015
BBXX 51203 14121 99208 71570 46/// ///// 1//// 91143 22200 00251 11401 21001 327// 41401 70007
BBXX 52200 14121 99134 11448 46/// ///// 1//// 91145 22200 00288 11006 21006 310// 41101 70030
BBXX 51201 14121 99217 71581 46/// ///// 1//// 91142 22200 00242 11303 21003 333// 41302 70016
AAXX 14124 68906 11398 82314 10131 20120 39980 40044 53007 69981 75055 886// 222// 00125 20401 333 10160 20131 91020 555 20008 91004
BBXX TESTFR9 14124 99494 70023 46/// /2322 10083 29071 40029 22215
AAXX 14124 68392 36/// /0707 10242 20184 30023 4//// 51001 333 10252 20187 91011 555
AAXX 14124 68382 16/// /0311 10218 20176 39303 48490 57010 69921 333 10267 20202 91016 555 20002 91011
AAXX 14124 91334 32474 80608 10279 20230 30076 40079 50003 82171 333 10311 56199 59010 70008 555 91412
AAXX 14124 91334 32474 80608 10279 20230 30076 40079 50003 82171 333 10311 56199 59010 70008 555 91412
AAXX 14124 61902 32584 31316 10265 20184 40133 82801 333 59013 82822
AAXX 14124 08594 31460 70616 10247 20184 40163 70622 8353/ 333 58005 83614 87360
AAXX 14124 08589 31947 50419 10267 20177 40155 70522 85031 333 58004 85360 83070
AAXX 14124 08583 31945 70520 10252 20157 40171 70522 85032 333 5//// 85360 86070
AAXX 14121 13579 32470 31602 10086 20054 39401 40236 57010 83600 333 83717
AAXX 14124 40340 31950 83515 10198 20040 40160 57025 70522 80007 333 88270
AAXX 14124 89514 32997 53210 11029 49829 52008 85006 333 11029 21103 85275
AAXX 14124 89514 32997 53210 11029 49829 52008 85006 333 11029 21103 85275
AAXX 14124 62010 32560 50902 10191 20095 40272 56013 82280 333 82826 84358
BBXX BAREU08 14124 99258 70568 46/// ///// 40109 52008 22214
BBXX BAREU05 14124 99391 70145 46/// ///// 40276 52015 22263
BBXX V7HC6 14124 99273 70907 41797 21212 10220 20190 40214 54000 70200 81489 22200 00224 20301 309// 40501 5//// 6//// 80200 ICE /////
BBXX KIRH 14123 99271 70687 41497 40224 10222 20153 40154 51023 7//21 848// 22284 00211 20809 303// 41007 5//// 6//// 80178 ICE /////
BBXX NWS0022 14124 99416 70714 43/// /3607 10043 20012 40278 5//// 7//// 8//// 222// 04113 2//// 3//// 4//// 5//// 6//// 8//// ICE /////
BBXX WDE3569 14124 99458 70838 43/// 81213 10038 2//// 40196 5//// 7//// 8//// 22233 00067 20301 3//// 4//// 5//// 6//// 8//// ICE /////
BBXX WNGW 14124 99589 71521 41/97 /0725 10022 2//// 49990 57020 781// 8//// 22253 02044 2//// 304// 40605 5//// 6//// 8//// ICE /////
BBXX WDC6698 14124 99091 71462 43/// /1210 10276 2//// 40090 5//// 7//// 8//// 222// 04270 2//// 3//// 4//// 5//// 6//// 8//// ICE /////
BBXX WDF7020 14124 99419 70819 41/96 /2212 1//// 2//// 40268 54/// 72052 8//// 222// 0//// 2//// 3//// 4//// 5//// 6//// 8//// ICE /////
BBXX LAOW5 14124 99164 51316 41498 30913 10230 20216 40150 51010 70111 83475 22254 00250 20204 30706 40102 50102 6//// 80220 ICE /////
BBXX HPHV 14124 99291 70945 41/// 81415 10180 20164 40200 54000 7//// 8/8// 222// 0//// 20502 31414 40502 50502 6//// 80170 ICE /////
BBXX ONCE 14124 99345 30171 41698 52819 10170 2008/ 40110 54000 70222 85201 222// 00272 21120 33253 4//31 52950 63/// 82120 ICE /////
BBXX ONAI 14124 99083 50343 41597 70919 10270 2023/ 40125 52015 70322 8766/ 22244 00280 2//// 3//// 4//// 5//// 6//// 80240 ICE /////
BBXX BAREU61 14124 99153 70177 46/// /0117 10253 29044 40144 57008 22243
BBXX A8ZS7 14124 99224 30537 41798 31411 10255 20210 40130 54000 7//00 8316/ 22254 04250 20402 318// 40705
BBXX V2MH 14120 99160 30664 41698 20605 10310 20257 40110 57010 70311 81165 22224 20302 30621 40403 50403 80270
BBXX VRCI9 14124 99239 11230 41/98 /1811 10220 20185 40125 52020 70022 8//// 22215 00267 2//// 3//// 4//// 80200
BBXX A8EH5 14121 99507 11585 41497 82810 11024 49975 52005 70371 8536/ 22263 00031 20403 3//// 4//// 5////
BBXX LAOX5 14121 99301 11733 41898 33021 00/// 10200 2011/ 40195 51015 70101 83121 22223 00210 20805 333// 40805 5//// 6//// 80140
BBXX 4XFV 14123 99487 11509 41197 72835 00/// 11050 2107/ 40110 52030 77272 87/// 22253 0//// 2//// 3//// 4//// 5//// 6//// 81055
BBXX LADR4 14124 99237 11689 41898 72410 00/// 10250 2022/ 40190 55004 70211 87228 22263 00280 20403 3//// 4//// 5//// 6//// 80230
BBXX V7DI8 14123 99337 11266 41497 22818 10100 2008/ 40250 51010 70300 8210/ 22253 00180 20403 333// 40502 5//// 6//// 80090 ICE /////
BBXX ONFE 14124 99173 11174 43/// 70425 10250 2022/ 40140 5//// 7//// 8//7/ 22214 00270 2//// 3//// 4//// 5//// 6//// 80230 ICE /////
BBXX C6OT4 14124 99250 11798 41598 42712 10245 20191 40171 54000 70300 82161 22223 04262 2//// 3//// 4//// 5//// 80210
BBXX WDC6736 14124 99456 70122 41598 62847 10120 2006/ 40115 52015 79362 862// 22254 00170 21217 3//// 4//// 5//// 6//// 80090 ICE /////
BBXX DGAF 14120 99595 70124 41296 8//// 10080 20049 49750 51035 78062 8/778 22264 00120 20912 302// 41212 80065
BBXX BAREU08 14124 99258 70568 46/// ///// 40109 52008 22214
BBXX WDD3825 14124 99331 70758 43798 13613 10170 2010/ 40260 54000 7//// 8183/ 22264 00230 20202 336// 40703 5//// 6//// 80130 ICE /////
BBXX 2AKI3 14124 99191 70829 41/97 40629 10257 20209 40157 53009 71511 81847 22274 00273 20404 305// 40404 5//// 80225
BBXX WNGW 14124 99589 71521 41/97 /0725 10022 2//// 49990 57020 781// 8//// 22253 02044 2//// 304// 40605 5//// 6//// 8//// ICE /////
BBXX 44022 14121 99409 70737 46/// ///02 10045 21001 40298 91145 22200 00086 333 91203 555 11015 22015
BBXX 44060 14121 99413 70721 46/// ///06 10039 40285 91145 22200 00104 333 91207 555 11062 22062
BBXX 46088 14121 99483 71232 46/// /1402 10059 40205 52005 91150 22200 00079 10901 323// 40901 70003 333 91203 555 11020 22020 31056 41303 61149 137017 128015 116006 106007 119013 131018
BBXX 42363 14121 99282 70892 46/// /1114 10217 20150 40241 91145 333 91214
BBXX 42364 14121 99291 70881 46/// /1209 10206 20161 40247 91145
BBXX 46060 14121 99606 71468 46/// /1209 10025 40058 56011 91150 22200 00057 333 91211 555 11094 22099 31133 41111 61149 114089 109096 110088 107081 105082 093068 81110 91134
BBXX V7DI7 14124 99419 70548 41195 80538 10090 2008/ 40035 54000 76166 883// 22263 0//// 20206 305// 40408 5//// 6//// 80085 ICE /////
BBXX KCGH 14123 99239 70732 41697 60324 10244 2019/ 40144 52020 78066 862// 22273 00250 20203 305// 40606 5//// 6//// 80206 ICE /////
BBXX 41115 14121 99184 70673 46/// ///// 1//// 91135 22200 11002 21002 301// 41101 70012
BBXX 41114 14121 99276 70802 46/// ///// 1//// 91146 22200 00227 11004 21004 308// 41202 70022
BBXX 46211 14121 99469 71242 46/// ///// 1//// 91136 22200 00086 11404 21002 328// 41403 70020
BBXX 46217 14121 99342 71194 46/// ///// 1//// 91142 22200 00145 11202 21002 327// 41201 70010
BBXX 46212 14121 99408 71243 46/// ///// 1//// 91142 22200 00096 11503 21002 330// 41503 70015
BBXX 46237 14121 99378 71226 46/// ///// 1//// 91140 22200 00110 11502 20901 326// 41501 70009
BBXX 44172 14121 99445 70634 46/// ///// 1//// 91131 22200 00069 11002 21002 317// 41101 70012
BBXX 46240 14121 99366 71219 46/// ///// 1//// 91142 22200 00126 11001 21001 335// 41301 70005
BBXX 46244 14121 99409 71244 46/// ///// 1//// 91135 22200 00095 11403 21001 331// 41402 70013
BBXX 46114 14121 99364 71222 46/// ///// 1//// 91134 22200 00122 11303 20902 327// 41301 70013
BBXX 46248 14121 99461 71247 46/// ///// 1//// 91134 22200 00085 11404 20902 330// 41404 70020
BBXX 46249 14121 99338 71197 46/// ///// 1//// 91145 22200 00142 11302 20702 323// 41301 70010
BBXX KIRH 14123 99271 70687 41497 40224 10222 20153 40154 51023 7//21 848// 22284 00211 20809 303// 41007 5//// 6//// 80178 ICE /////
BBXX 4XFX 14124 99478 71427 41597 83219 00/// 10070 20065 40110 56020 70322 884// 22274 04/// 2//// 3//// 4//// 5//// 6//// 80065
BBXX A8SG2 14121 99220 51482 41998 01704 10265 20225 40160 54000 70200 80000 22254 00270 21203 321// 41403 5//// 80238
BBXX 32012 14121 99197 50856 46/// ///// 1//// 91150 22200 11204 70022
BBXX 46006 14121 99408 71375 46/// /2009 10123 40183 56018 91150 22200 00126 11106 20503 3//// 41105 70031 333 91211 555 11096 22102 31109 42112 61149 203091 203088 205089 210086 210097 211095
BBXX 46002 14121 99426 71305 46/// ///// 10110 40177 57007 91150 22200 00120 11306 70031
BBXX 46084 14121 99566 71361 46/// /1308 10041 20009 40146 57004 91150 22200 00071 10905 20502 300// 40904 70025 333 91209 555 11081 22085 31139 41410 61149 128077 150070 162043 148035 142039 150053
BBXX 46075 14121 99539 71608 46/// /1904 10042 20006 49993 50000 91150 22200 00048 11612 20401 300// 41612 70060 333 91207 555 11046 22048 31059 42109 61149 193044 196049 205049 211058 210064 214065 82307 91051
BBXX 46059 14121 99380 71300 46/// /3205 10125 40211 53009 91150 22200 00145 11305 20401 3//// 41305 70024 333 91206 555 11048 22050 31052 43206 61149 321046 317042 321044 319049 315051 316051
BBXX 46005 14121 99461 71310 46/// ///10 10099 40142 56027 91150 22200 00101 11107 20603 3//// 41106 70033 333 91213 555 11111 22119
BBXX 46080 14121 99580 71500 46/// /2109 10052 20031 49973 53005 91150 22200 00055 10806 20603 3//// 40805 70028 333 91211 555 11094 22100 31112 42112 61149 214087 211092 214091 215099 204080 191069 82111 91112
BBXX 42002 14121 99258 70937 46/// /1309 10241 20203 40197 56008 91150 22200 00247 10603 20603 70015 333 91211 555 11093 22099 31136 41412 61149 135093 135095 139095 134096 134095 133096
BBXX 42055 14121 99222 70940 46/// /1008 10245 20198 40183 56011 91150 22200 00250 10803 20502 304// 40801 70013 333 91209 555 11083 22088 31053 41010 61149 099078 095079 094083 096078 097081 096085 81009 91054
BBXX 41047 14121 99275 70715 46/// /0310 10223 40205 53012 91150 22200 00253 11007 20805 306// 41005 70033 333 91212 555 11102 22107 31124 40214 61149 030103 029111 026111 027112 025112 027105 80313 91124
BBXX 41043 14121 99211 70650 46/// /3405 10254 20214 40124 52005 91150 22200 00268 11004 20401 300// 41004 70022 333 91206 555 11053 22056 31136 43407 61149 337051 341055 332034 306023 300046 325054 83406 91136
BBXX 41036 14121 99342 70770 46/// ///// 10115 20024 40282 53004 91150 22200 00182 11103 70014
BBXX 44066 14121 99396 70726 46/// /3608 10090 20044 40278 53012 91150 22200 00133 11103 20703 3//// 41102 70017 333 91210 555 11084 22088 31117 40111 61149 000081 000086 003083 006083 000083 358081
BBXX 46105 14121 99590 71522 46/// ///// 1//// 91150 22200 10705 70024
BBXX 46070 14121 99551 11753 46/// /3010 10032 20006 49656 57011 91150 22200 00039 11512 20806 3//// 41511 70061 333 91213 555 11108 22114 31142 43013 61149 295100 303097 306092 296090 295094 302085 82911 91142
BBXX 41012 14121 99300 70805 46/// /0608 10218 40256 53004 91150 22200 00231 333 91209 555 11082 22086
BBXX 41060 14121 99148 70510 46/// ///// 1//// 91150 22200 11006 70028
BBXX 41049 14121 99275 70630 46/// /3610 10231 20167 40130 53017 91150 22200 00248 10705 20705 300// 40803 70027 333 91213 555 11111 22117 31127 43614 61149 001105 004104 000107 000105 001105 004105 83612 91127
BBXX 41001 14121 99347 70727 46/// ///// 10157 20071 40243 51012 91150 22200 00221 10806 70028
BBXX 42020 14121 99270 70967 46/// /1511 10241 20203 40165 56010 91150 22200 00242 10705 20705 70023 333 91214 555 11121 22129 31128 41514 61149 146114 146110 147110 143114 143114 143109
BBXX 41044 14121 99217 70587 46/// /2505 10260 20216 40115 53012 91150 22200 00267 11005 20401 300// 41005 70026 333 91206 555 11047 22049 31128 42507 61149 248046 252050 249051 247043 246049 240044 82506 91133
BBXX 41048 14121 99320 70696 46/// /3611 10195 20119 40199 53008 91150 22200 00228 10906 20906 70030 333 91213 555 11107 22112 31120 43614 61149 354108 353117 349114 356115 351113 349115 83513 91136
BBXX 42065 14121 99149 70750 46/// /0404 10253 20212 91150 22200 10603 20401 3//// 40603 70014 333 91205 555 11037 22039 31110 40612 61149 041036 041055 069071 073082 078089 091062 80810 91104
BBXX 42012 14121 99301 70876 46/// /1109 10194 20156 40245 56006 91150 22200 00183 10602 20602 70011 333 91210 555 11093 22101 31137 41110 61149 108085 107083 105079 106076 107081 109083
BBXX 42001 14121 99259 70897 46/// /0907 10237 20203 40224 54000 91150 22200 00247 10804 20503 3//// 40803 70022 333 91209 555 11077 22081 31106 41111 61149 086071 082067 084065 096065 117078 095077
BBXX 42035 14121 99292 70944 46/// /1005 10172 20172 40198 56013 91150 22200 00156 10602 20502 314// 40602 70012 333 91206 555 11057 22066 31101 41107 61149 102051 102052 101053 101057 103058 107057
BBXX 42058 14121 99149 70749 46/// /0709 10273 20214 40109 51013 91150 22200 00279 10602 20602 320// 41101 70012 333 91210 555 11092 22097 31140 40610 61149 068085 068087 070084 061082 061081 064082 80709 91146
BBXX 42060 14121 99163 70635 46/// /0304 10265 20221 40120 53013 91150 22200 00283 11102 20301 300// 41102 70012 333 91206 555 11046 22047 31145 40306 61149 027044 024033 022030 024035 043031 036039 80305 91146
BBXX 42036 14121 99285 70845 46/// /0807 10183 20167 40251 54000 91150 22200 00215 10502 20502 70011 333 91209 555 11075 22078 31132 40809 61149 080070 083076 081072 083071 081072 080071
BBXX 42056 14121 99198 70849 46/// /0610 10262 20226 40165 53004 91150 22200 00273 10704 20704 70022 333 91212 555 11102 22108 31126 40513 61149 057097 058096 058100 056100 056095 057097 80611 91052
BBXX 42059 14121 99151 70675 46/// /0607 10275 20220 40117 53014 91150 22200 00285 10502 20502 3//// 41101 70011 333 91208 555 11075 22079 31141 40709 61149 060070 058068 059070 061072 057070 057070 80608 91108
BBXX 42019 14121 99279 70954 46/// /1610 10232 20198 40177 57011 91150 22200 10704 20704 70020 333 91213 555 11108 22115 31113 42813 61149 171101 280099 281102 280100 280095 276105
BBXX 44005 14121 99432 70691 46/// /0208 10043 21013 40274 52016 91150 22200 00088 10603 20603 3//// 40901 70016 333 91210 555 11081 22084 31134 40211 61149 024078 025078 023074 024075 020075 028076
BBXX 42040 14121 99292 70882 46/// /1309 10209 40238 56007 91150 22200 00227 10603 20603 70014 333 91211 555 11086 22091 31052 41111 61149 125087 120089 119089 117093 116089 113090
BBXX 42003 14121 99260 70856 46/// /1009 1//// 91150 22200 10704 20704 70019 333 91211 555 11091 22097 31123 41012 61149 100085 103090 099085 101090 110083 111088 81010 91136
BBXX 46001 14121 99563 71480 46/// /2309 10055 40016 53021 91150 22200 00049 11108 20704 300// 41107 70040 333 91211 555 11100 22108 31059 42412 61149 230094 230090 231095 226100 227089 228099
BBXX 44025 14121 99402 70732 46/// /0108 10074 20030 40284 53013 91150 22200 00112 10402 20402 313// 41101 70012 333 91209 555 11081 22085 31052 43610 61149 007077 009078 013075 011079 003078 001083
BBXX 41008 14121 99314 70809 46/// /0405 10168 20132 40278 52004 91150 22200 00166 11003 20501 300// 41002 70013 333 91206 555 11054 22058 31134 40406 61149 040050 038052 039053 039053 038051 034051
BBXX 44014 14121 99366 70748 46/// /0207 1//// 40273 91150 22200 00146 11103 20603 311// 41102 70017 555 11074 22074 31052 43610 61149 017074 011077 006076 005078 003079 007080
BBXX 41004 14121 99325 70791 46/// /0406 10179 20104 40281 52006 91150 22200 00219 11103 20501 3//// 41102 70013 333 91208 555 11059 22062 31142 40308 61149 039057 028056 030058 031057 026057 027055
BBXX 44009 14121 99385 70747 46/// /0206 10091 40297 52006 91150 22200 00125 11003 20502 300// 41002 70014 333 91208 555 11066 22069 31105 40209 61149 017063 019064 022064 020067 025071 026071
BBXX 44027 14121 99443 70673 46/// /0210 10034 21008 40269 51019 91150 22200 00089 10503 20503 3//// 41001 70014 333 91212 555 11107 22112 31125 40313 61149 024102 024104 023104 008097 010098 004099
BBXX 44065 14121 99404 70737 46/// /3607 10068 20024 40290 53008 91150 22200 00102 11102 20301 314// 41101 70009 333 91209 555 11077 22080 31057 43609 61149 358073 356072 350071 345071 353075 002073 83508 91148
BBXX 41013 14121 99334 70777 46/// /0307 10148 20061 40280 51006 91150 22200 00211 10803 20602 309// 40802 70014 333 91209 555 11072 22075 31054 40210 61149 032071 028071 032072 032072 024074 023073
BBXX 44040 14121 99410 70736 46/// /2903 10051 20007 40305 91145 22200 1//00 70000 333 91205 555 11041 22051
BBXX 44020 14121 99414 70702 46/// /0207 10067 20030 40269 53014 91150 22200 00084 10301 20301 70005 333 91208 555 11072 22076 31148 40108 61149 002066 260061 261065 261063 263057 266060
BBXX 46014 14121 99394 71240 46/// /0904 10077 40223 53004 91150 22200 00104 11503 20401 3//// 41503 70015 333 91205 555 11046 22047 31053 41006 61149 091044 092044 094040 096044 105047 104048
BBXX 46011 14121 99350 71210 46/// /3406 10120 40213 53012 91150 22200 00133 11003 20501 331// 41003 70017 333 91206 555 11059 22061 31137 43407 61149 342055 343056 338055 340051 339051 336050
BBXX 46047 14121 99324 71195 46/// /3204 10131 40211 54000 91150 22200 00135 11104 20401 330// 41104 70019 333 91205 555 11043 22045 31128 43106 61149 316042 317046 321046 320042 320042 311043
BBXX 46027 14121 99419 71244 46/// /1004 10075 40222 51016 91150 22200 00092 11403 20401 329// 41403 70017 333 91206 555 11046 22048 31122 40906 61149 098044 099042 096048 090047 080044 103036
BBXX 46086 14121 99325 71180 46/// /2904 10138 40207 52006 91150 22200 00147 11203 20301 325// 41203 70013 333 91206 555 11044 22046 31053 42806 61149 289042 282046 281048 286048 285049 287048
BBXX 46088 14121 99483 71232 46/// /1402 10059 40205 91150 22200 00079 10901 323// 40901 70003 333 91203 555 11020 22020 31056 41303 61149 137017 128015 116006 106007 119013 131018
BBXX 46050 14121 99442 71246 46/// /1606 10078 40204 50000 91150 22200 00100 11105 20401 330// 41104 70023 333 91207 555 11061 22063 31129 41508 61149 157057 159057 162061 155062 145064 143065
BBXX 46069 14121 99337 71202 46/// /3006 10127 40205 53009 91150 22200 00132 11104 20502 331// 41103 70018 333 91208 555 11067 22070 31053 43108 61149 304062 306063 305064 307060 315064 310067
BBXX 46013 14121 99382 71233 46/// /0501 10096 40220 51005 91150 22200 00108 11202 20401 3//// 41202 70012 333 91202 555 11009 22009 31059 43204 61149 052008 059006 043010 014010 003017 353021
BBXX 46012 14121 99374 71229 46/// /3501 10108 40223 51008 91150 22200 00122 11303 20401 327// 41302 70013 333 91203 555 11013 22014 31102 43305 61149 351014 348022 342023 327028 326036 322033
BBXX 46087 14121 99485 71247 46/// /1202 10055 20050 40200 50000 91150 22200 00076 11304 328// 41304 70018 333 91204 555 11021 22021 31149 41104 61149 126020 148021 148016 160016 184017 257007
BBXX 46029 14121 99461 71245 46/// /1802 10068 20032 40204 54000 91150 22200 00072 11104 330// 41104 70021 333 91203 555 11020 22020 31119 41603 61149 183019 189018 184022 176025 173023 164024
BBXX 46054 14121 99342 71204 46/// /0202 10126 40202 52012 91150 22200 00139 11103 20401 300// 41103 70017 333 91202 555 11017 22018 31057 43405 61149 022016 026016 039018 027019 359029 336039
BBXX 46028 14121 99357 71219 46/// /3207 10117 40213 51013 91150 22200 00131 10903 20502 333// 40903 70015 333 91208 555 11070 22073 31124 43209 61149 324067 326069 326072 328069 325062 318066
BBXX 46025 14121 99337 71191 46/// /0803 10136 20110 40196 51008 91150 22200 00151 11402 20401 319// 41402 70009 333 91203 555 11026 22026 31143 40703 61149 076025 082021 077017 062014 049010 049015
AAXX 14124 81405 01360 80601 10247 20238 30099 40108 60074 76186 86830 333 20230 60037 59005 82809 83821 87370 555 69965
AAXX 14124 81405 01360 80601 10247 20238 30099 40108 60074 76186 86830 333 20230 60037 59005 82809 83821 87370 555 69965
AAXX 14124 78855 11480 70303 10260 20221 30116 40120 60022 71682 87802 333 10290 20/// 59010 70027 87818
AAXX 14124 16597 32570 22810 10178 20113 30165 40252 58015 82800 333 81828 91117 91529
BBXX DBCK 14121 99/// ///// 46/// ///// 10035 20035 49912 57012 22220 00070
BBXX DBBA 14121 99536 10086 46/// /1905 10034 20026 49920 57012 22220 00049
BBXX DBBU 14121 99543 10131 46/// /1707 10050 20031 49957 57031 22220 00052
BBXX DBND 1/121 99///////// 46/// +/////10032 20065/49912 530/2 22220 0007/
BBXX DBEB 14121 99538 10082 41/// /2009 10043 20043 49913 57006 7//// 22221 00064
BBXX DBFH 14121 99539 10087 46/// /2004 10051 20035 49917 57010 22270 00045
BBXX DBBI 14121 99538 10082 46/// /2009 10042 20042 49917 57016 22272 00051
BBXX DBKR 14121 99541 10142 46/// /1610 10051 20040 49972 57030 22200 00042
BBXX DBEA 14121 99540 10085 46/// /2010 10041 20029 49915 57004 22220 00045
BBXX DBJM 14121 99540 10085 46/// /1910 10043 20028 49920 57009 22232 00050
BBXX DBFR 14121 99548 10137 46/// /1711 10053 20043 49962 57018 22201 00062
BBXX DBBC 14121 99535 10086 46/// /1905 10031 2//// 49921 57011 22240 00057
AAXX 14124 85864 11980 00000 10140 20116 40199 52016 60004 702// 333 20084 30/// 55128 70000
AAXX 14124 85874 12982 00000 10137 20044 39587 40205 50008 60001 333 21002 30000 55/// 70000
AAXX 14124 85886 12970 03406 10184 20167 40199 52014 60004 333 20088 30/// 70000
AAXX 14124 85892 12980 02907 10152 20090 40193 52015 60001 333 20080 30/// 70000
AAXX 14124 85934 12580 72911 10137 20075 40164 52006 60004 82530 333 20096 55045 56660 70000 82626 85360
AAXX 14124 85968 12460 40709 10104 20088 40131 51/// 60004 82100 333 20096 30/// 55/// 56200 70000 82816 84843
AAXX 14124 89056 11115 82625 10007 20001 49944 52018 69902 71064 886// 333 02637 10015 20006 41998 55028 56699 88703
AAXX 14124 89057 11456 82222 10014 20002 49945 52025 60022 72622 884// 333 10022 20010 44100 56699 88610
AAXX 14124 89058 11458 82723 10011 20001 39920 49941 52017 69911 71060 885//
AAXX 14124 89059 12560 82215 10004 21010 49898 52007 69902 885// 333 10007 20000 42058 55010 75099 88620
AAXX 14124 89251 11358 82721 10011 20002 49935 53037 72162 8651/ 333 20008
AAXX 14124 91772 31498 33304 10260 20234 4//// 60001 70200 83200 333 10306 567// 83817
AAXX 14124 91776 31498 20000 1//// 2//// 4//// 60001 70100 82100 333 1//// 569// 82818
AAXX 14124 91779 11398 80108 10248 20227 40122 58008 60311 71789 8591/ 333 10291 5689/ 83708 82918 88460
AAXX 14124 91784 31498 13405 10255 20239 40114 58002 60001 70121 81200 333 10295 567// 81817
AAXX 14124 91792 31498 10000 10217 20214 40117 58005 60001 70200 81100 333 10304 569// 81817
BBXX 61001 14124 99434 10078 46/// /2216 10148 20116 40142 57012 22200 00160 10503 70014
BBXX 41101 14124 99146 70562 46/// /1408 10268 20232 40104 52016 22200 00273 10805 70023
AAXX 14124 89577 46/// /0603 11309 35698 4//// 5////
AAXX 14124 89578 46/// /0408 11352 36776 4//// 5////
BBXX BAREU11 14124 99097 70794 46/// ///// 40106 22213
BBXX BAREU00 14124 99450 70603 46/// ///// 40214 52017 22223
BBXX BAREU54 14124 99107 70817 46/// ///// 40107 52011 22253
BBXX BAREU12 14124 99535 70030 46/// ///// 49866 22200
BBXX BAREU51 14124 99400 10121 46/// ///// 40189 52003 22235
BBXX BATFR02 14124 99505 70009 46/// /2930 10079 20020 49968 55/// 22284 00120
AAXX 14124 85574 11958 01703 10154 20110 39592 40144 52010 60004 70500 333 20116 30/// 55127 70000
AAXX 14124 85577 12960 02001 10163 20116 39541 40147 52012 60004 333 20134 30011 50740 55119 70000
AAXX 14124 85585 12598 51819 10156 20091 40192 53006 60004 85500 333 20149 30/// 55065 56400 70000 85625
AAXX 14124 85629 12570 13604 10154 20131 40136 53/// 60004 81600 333 20124 30/// 50640 55136 56700 70000 81720
AAXX 14124 85672 13970 00000 10180 20151 40131 52010 60004 333 20120 30/// 55134 70000
AAXX 14124 85682 11257 83402 10136 20122 40138 51008 60004 710521 886// 333 20112 30/// 50640 55114 56799 70000 88706
AAXX 14124 85703 12960 01711 10182 20160 40122 5//// 60004 333 20154 30/// 7////
AAXX 14124 85743 12460 22504 10140 20117 40148 50003 60004 82100 333 20108 30/// 50320 55105 56600 70000 82810
AAXX 14124 85766 12960 00000 10167 20124 40160 51004 60004 333 20086 30777 55127 70000 89///
AAXX 14124 85799 11257 82303 10104 20104 40180 54000 60004 71044 885// 333 20070 31/// 50330 55085 56400 70000 85705 88615
AAXX 14121 76256 32960 63601 10150 20115 30174 40188 5//// 86070 91135 333 10223 20140 30/// 56/5/ 58033 70000 86357
AAXX 14121 76305 32970 63401 10150 20082 30170 40178 5//// 86030 91130 333 10243 20142 30131 56050 58033 70000 86358
AAXX 14121 76390 31950 22304 10137 20047 38224 401115 57005 70544 80005 91130 333 10254 20120 30110 56008 59022 70000 82070
AAXX 14121 76393 31202 81101 10158 20142 39562 40139 57009 70422 887// 91155 333 10196 20150 30138 569// 59050 70000 88707
AAXX 14121 76423 32960 00000 10076 20054 38161 40146 57003 91155 333 10270 20072 30/// 59011 70000
AAXX 14121 76458 32960 03202 10182 20177 30150 40155 57004 91145 333 10276 20159 30158 59005 70000
AAXX 14121 76556 32960 01201 10128 20100 39115 40137 57006 91130 333 10272 20125 30105 59010 70000
AAXX 14121 76577 32960 00000 10096 20082 38057 40166 51001 91140 333 10256 20090 30079 59006 70000
AAXX 14121 76654 31956 03601 10214 20142 30140 40144 55000 70544 91150 333 10308 20214 30165 59015 70000
AAXX 14121 76658 31956 00903 10178 20109 39638 40146 57004 70540 80000 91145 333 10330 20170 30152 56000 59013 70000 98914
AAXX 14121 76662 32960 03401 10084 20066 38474 40171 57002 91145 333 10285 20072 30064 59012 70000
AAXX 14121 76680 31956 03200 10096 20022 37768 40116 57003 70444 91150 333 10254 20080 30070 59011 70000
AAXX 14121 76683 32962 00301 10046 20031 37849 40226 56005 91145 333 10243 20046 30015 50271 55105 21948 59011 70000
AAXX 14121 76687 31462 10000 10116 20108 38708 40204 56003 70100 81500 91135 333 10235 20108 30100 563// 59008 79999 81620
AAXX 14121 76692 31/02 92401 10192 20190 30171 40190 55001 74740 91145 333 10274 20190 30190 59010 70000
AAXX 14121 76737 32980 00000 10113 20092 38803 40197 56004 91135 333 10243 20113 30090 59009 70000 91102 91529
AAXX 14121 76775 31960 00601 10073 20039 38549 40206 52001 70200 91145 333 10275 20069 30/// 59003 70000
AAXX 14121 76840 32901 00205 10254 20176 30077 40133 5//// 91145 333 10335 20190 30/// 59005 70000
AAXX 14121 76843 32965 00000 10175 20161 39518 40164 52020 91132 333 10297 20172 30165 59012 70000
AAXX 14121 76243 11364 82401 10156 20150 39855 40149 57003 60021 75052 887// 91140 333 10170 20144 30132 563// 59059 70020 88709
AAXX 14121 76412 32960 82202 10174 20148 30138 40184 57002 88050 91145 333 10290 20170 30/// 56050 58006 70000 88356
AAXX 14121 76640 31010 70000 10208 20205 30166 40178 57025 70222 8472/ 91145 333 10272 20202 30200 5699/ 59045 79999 84701 83445
AAXX 14121 76741 31240 40403 10233 20218 30142 40161 52000 70542 84200 91135 333 10274 20215 30205 561// 58000 70000 84806
AAXX 14124 85406 12682 52302 10212 20122 40144 53010 60004 85500 333 20187 30/// 55075 56000 70000 85640
AAXX 14124 85418 12970 30000 10212 20122 40150 53011 60004 80001 333 20180 30/// 55110 56000 70000 83080
AAXX 14124 85432 12970 00811 10140 20050 37760 48451 53002 60004 333 20058 30/// 51460 55112 70000
AAXX 14124 85442 12570 62005 10186 20135 40149 52008 60004 86500 333 20177 30/// 50065 55097 56400 70000 86628
AAXX 14124 85488 12460 80000 10149 20124 40168 52014 60004 885// 333 20146 30012 50450 55052 56099 70000 88616
AAXX 14124 61901 11365 71312 10167 20143 39670 40179 60011 71582 878// 91150 333 59004 85808 86625
AAXX 14121 33815 41/92 92202 10048 20045 39977 40186 58007 74554 555 11008
AAXX 14121 76256 32960 63601 10150 20115 30174 40188 5//// 86070 91135 333 10223 20140 30/// 56/5/ 58033 70000 86357
AAXX 14121 76305 32970 63401 10150 20082 30170 40178 5//// 86030 91130 333 10243 20142 30131 56050 58033 70000 86358
AAXX 14121 76390 31950 22304 10137 20047 38224 401115 57005 70544 80005 91130 333 10254 20120 30110 56008 59022 70000 82070
AAXX 14121 76393 31202 81101 10158 20142 39562 40139 57009 70422 887// 91155 333 10196 20150 30138 569// 59050 70000 88707
AAXX 14121 76423 32960 00000 10076 20054 38161 40146 57003 91155 333 10270 20072 30/// 59011 70000
AAXX 14121 76458 32960 03202 10182 20177 30150 40155 57004 91145 333 10276 20159 30158 59005 70000
AAXX 14121 76556 32960 01201 10128 20100 39115 40137 57006 91130 333 10272 20125 30105 59010 70000
AAXX 14121 76577 32960 00000 10096 20082 38057 40166 51001 91140 333 10256 20090 30079 59006 70000
AAXX 14121 76654 31956 03601 10214 20142 30140 40144 55000 70544 91150 333 10308 20214 30165 59015 70000
AAXX 14121 76658 31956 00903 10178 20109 39638 40146 57004 70540 80000 91145 333 10330 20170 30152 56000 59013 70000 98914
AAXX 14121 76662 32960 03401 10084 20066 38474 40171 57002 91145 333 10285 20072 30064 59012 70000
AAXX 14121 76680 31956 03200 10096 20022 37768 40116 57003 70444 91150 333 10254 20080 30070 59011 70000
AAXX 14121 76683 32962 00301 10046 20031 37849 40226 56005 91145 333 10243 20046 30015 50271 55105 21948 59011 70000
AAXX 14121 76687 31462 10000 10116 20108 38708 40204 56003 70100 81500 91135 333 10235 20108 30100 563// 59008 79999 81620
AAXX 14121 76692 31/02 92401 10192 20190 30171 40190 55001 74740 91145 333 10274 20190 30190 59010 70000
AAXX 14121 76737 32980 00000 10113 20092 38803 40197 56004 91135 333 10243 20113 30090 59009 70000 91102 91529
AAXX 14121 76775 31960 00601 10073 20039 38549 40206 52001 70200 91145 333 10275 20069 30/// 59003 70000
AAXX 14121 76840 32901 00205 10254 20176 30077 40133 5//// 91145 333 10335 20190 30/// 59005 70000
AAXX 14121 76843 32965 00000 10175 20161 39518 40164 52020 91132 333 10297 20172 30165 59012 70000
AAXX 14121 76243 11364 82401 10156 20150 39855 40149 57003 60021 75052 887// 91140 333 10170 20144 30132 563// 59059 70020 88709
AAXX 14121 76412 32960 82202 10174 20148 30138 40184 57002 88050 91145 333 10290 20170 30/// 56050 58006 70000 88356
AAXX 14121 76640 31010 70000 10208 20205 30166 40178 57025 70222 8472/ 91145 333 10272 20202 30200 5699/ 59045 79999 84701 83445
AAXX 14121 76741 31240 40403 10233 20218 30142 40161 52000 70542 84200 91135 333 10274 20215 30205 561// 58000 70000 84806
AAXX 14121 76256 32960 63601 10150 20115 30174 40188 5//// 86070 91135333 10223 20140 30/// 56/5/ 58033 70000 86357
AAXX 14121 76305 32970 63401 10150 20082 30170 40178 5//// 86030 91130333 10243 20142 30131 56050 58033 70000 86358
AAXX 14121 76390 31950 22304 10137 20047 38224 401115 57005 70544 80005 91130 333 10254 20120 30110 56008 59022 70000 82070
AAXX 14121 76393 31202 81101 10158 20142 39562 40139 57009 70422 887//91155 333 10196 20150 30138 569// 59050 70000 88707
AAXX 14121 76423 32960 00000 10076 20054 38161 40146 57003 91155 33310270 20072 30/// 59011 70000
AAXX 14121 76458 32960 03202 10182 20177 30150 40155 57004 91145 33310276 20159 30158 59005 70000
AAXX 14121 76556 32960 01201 10128 20100 39115 40137 57006 91130 33310272 20125 30105 59010 70000
AAXX 14121 76577 32960 00000 10096 20082 38057 40166 51001 91140 33310256 20090 30079 59006 70000
AAXX 14121 76654 31956 03601 10214 20142 30140 40144 55000 70544 91150333 10308 20214 30165 59015 70000
AAXX 14121 76658 31956 00903 10178 20109 39638 40146 57004 70540 8000091145 333 10330 20170 30152 56000 59013 70000 98914
AAXX 14121 76662 32960 03401 10084 20066 38474 40171 57002 91145 33310285 20072 30064 59012 70000
AAXX 14121 76680 31956 03200 10096 20022 37768 40116 57003 70444 91150333 10254 20080 30070 59011 70000
AAXX 14121 76683 32962 00301 10046 20031 37849 40226 56005 91145 33310243 20046 30015 50271 55105 21948 59011 70000
AAXX 14121 76687 31462 10000 10116 20108 38708 40204 56003 70100 8150091135 333 10235 20108 30100 563// 59008 79999 81620
AAXX 14121 76692 31/02 92401 10192 20190 30171 40190 55001 74740 91145333 10274 20190 30190 59010 70000
AAXX 14121 76737 32980 00000 10113 20092 38803 40197 56004 91135 33310243 20113 30090 59009 70000 91102 91529
AAXX 14121 76775 31960 00601 10073 20039 38549 40206 52001 70200 91145333 10275 20069 30/// 59003 70000
AAXX 14121 76840 32901 00205 10254 20176 30077 40133 5//// 91145 33310335 20190 30/// 59005 70000
AAXX 14121 76843 32965 00000 10175 20161 39518 40164 52020 91132 33310297 20172 30165 59012 70000
AAXX 14121 76243 11364 82401 10156 20150 39855 40149 57003 60021 75052887// 91140 333 10170 20144 30132 563// 59059 70020 88709
AAXX 14121 76412 32960 82202 10174 20148 30138 40184 57002 88050 91145333 10290 20170 30/// 56050 58006 70000 88356
AAXX 14121 76640 31010 70000 10208 20205 30166 40178 57025 70222 8472/91145 333 10272 20202 30200 5699/ 59045 79999 84701 83445
AAXX 14121 76741 31240 40403 10233 20218 30142 40161 52000 70542 8420091135 333 10274 20215 30205 561// 58000 70000 84806
BBXX 46001 14121 99563 71480 46/// /2309 10055 40016 53021 91150 22200 00049 11108 20704 300// 41107 70040 333 91211 555 11100 22108 31059 42412 61149 230094 230090 231095 226100 227089 228099
BBXX 46002 14121 99426 71305 46/// ///// 10110 40177 57007 91150 22200 00120 11306 70031
BBXX 46005 14121 99461 71310 46/// ///10 10099 40142 56027 91150 22200 00101 11107 20603 3//// 41106 70033 333 91213 555 11111 22119
BBXX 46006 14121 99408 71375 46/// /2009 10123 40183 56018 91150 22200 00126 11106 20503 3//// 41105 70031 333 91211 555 11096 22102 31109 42112 61149 203091 203088 205089 210086 210097 211095
BBXX 46012 14121 99374 71229 46/// /3501 10108 40223 51008 91150 22200 00122 11303 20401 327// 41302 70013 333 91203 555 11013 22014 31102 43305 61149 351014 348022 342023 327028 326036 322033
BBXX 46013 14121 99382 71233 46/// /0501 10096 40220 51005 91150 22200 00108 11202 20401 3//// 41202 70012 333 91202 555 11009 22009 31059 43204 61149 052008 059006 043010 014010 003017 353021
BBXX 46014 14121 99394 71240 46/// /0904 10077 40223 53004 91150 22200 00104 11503 20401 3//// 41503 70015 333 91205 555 11046 22047 31053 41006 61149 091044 092044 094040 096044 105047 104048
BBXX 46028 14121 99357 71219 46/// /3207 10117 40213 51013 91150 22200 00131 10903 20502 333// 40903 70015 333 91208 555 11070 22073 31124 43209 61149 324067 326069 326072 328069 325062 318066
BBXX 46029 14121 99461 71245 46/// /1802 10068 20032 40204 54000 91150 22200 00072 11104 330// 41104 70021 333 91203 555 11020 22020 31119 41603 61149 183019 189018 184022 176025 173023 164024
BBXX 46050 14121 99442 71246 46/// /1606 10078 40204 50000 91150 22200 00100 11105 20401 330// 41104 70023 333 91207 555 11061 22063 31129 41508 61149 157057 159057 162061 155062 145064 143065
BBXX 4XFX 14124 99478 71427 41597 83219 00/// 10070 20065 40110 56020 70322 884// 22274 04/// 2//// 3//// 4//// 5//// 6//// 80065
AAXX 14124 68352 36/// /3514 10294 20076 39010 48476 57017 333 10296 20195 91037 555 91010
BBXX A8IE7 14124 99059 10832 41598 50516 10280 40080 51005 70222 8/2// 22265 04286 21102
BBXX A8YW2 14124 99316 30382 41497 50418 10250 20204 40125 54000 70211 8424/ 22224 00210 21401 80220
AAXX 14124 78925 12565 10703 10254 20242 40116 53014 69921 81100 333 10302 20222 59015 70002 81823
AAXX 14124 78925 12565 10703 10254 20242 40116 53014 69921 81100 333 10302 20222 59015 70002 81823
AAXX 14121 12772 31420 81704 10040 20034 39898 40187 58015 72842 886// 333 88716
AAXX 14121 12822 36/// /1502 10080 20046 39996 40139 58026
AAXX 14121 12843 31440 81403 10054 20051 39994 40166 58016 71042 876// 333 87710
AAXX 14121 12882 31225 82004 10071 20067 30057 40190 57013 71042 876// 333 87705
AAXX 14121 12925 36/// /1901 10102 20054 39980 40150 58013
AAXX 14121 12942 31558 61203 10060 20059 39928 40175 58013 70142 84530 333 84620
AAXX 14121 12982 31425 81505 10068 20064 30077 40179 58021 76054 885// 333 88610
AAXX 14124 97180 32458 73602 10268 20256 30077 40095 53018 81272 333 10281 56000 58002 81819 84360
AAXX 14124 91348 11472 80705 10270 20239 30037 40090 52002 69981 78082 8627/ 333 10294 56299 59008 70066 555 91412
AAXX 14124 85406 12682 52302 10212 20122 40144 53010 60004 85500 333 20187 30/// 55075 56000 70000 85640
AAXX 14124 85418 12970 30000 10212 20122 40150 53011 60004 80001 333 20180 30/// 55110 56000 70000 83080
AAXX 14124 85432 12970 00811 10140 20050 37760 48451 53002 60004 333 20058 30/// 51460 55112 70000
AAXX 14124 85442 12570 62005 10186 20135 40149 52008 60004 86500 333 20177 30/// 50065 55097 56400 70000 86628
AAXX 14124 85488 12460 80000 10149 20124 40168 52014 60004 885// 333 20146 30012 50450 55052 56099 70000 88616
AAXX 14124 85574 11958 01703 10154 20110 39592 40144 52010 60004 70500 333 20116 30/// 55127 70000
AAXX 14124 85577 12960 02001 10163 20116 39541 40147 52012 60004 333 20134 30011 50740 55119 70000
AAXX 14124 85585 12598 51819 10156 20091 40192 53006 60004 85500 333 20149 30/// 55065 56400 70000 85625
AAXX 14124 85629 12570 13604 10154 20131 40136 53/// 60004 81600 333 20124 30/// 50640 55136 56700 70000 81720
AAXX 14124 85672 13970 00000 10180 20151 40131 52010 60004 333 20120 30/// 55134 70000
AAXX 14124 85682 11257 83402 10136 20122 40138 51008 60004 710521 886// 333 20112 30/// 50640 55114 56799 70000 88706
AAXX 14124 85703 12960 01711 10182 20160 40122 5//// 60004 333 20154 30/// 7////
AAXX 14124 85743 12460 22504 10140 20117 40148 50003 60004 82100 333 20108 30/// 50320 55105 56600 70000 82810
AAXX 14124 85766 12960 00000 10167 20124 40160 51004 60004 333 20086 30777 55127 70000 89///
AAXX 14124 85799 11257 82303 10104 20104 40180 54000 60004 71044 885// 333 20070 31/// 50330 55085 56400 70000 85705 88615
AAXX 14124 91348 11472 80705 10270 20239 30037 40090 52002 69981 78082 8627/ 333 10294 56299 59008 70066 555 91412
AAXX 14124 78925 12565 10703 10254 20242 40116 53014 69921 81100 333 10302 20222 59015 70002 81823
BBXX C6CU6 14123 99360 70298 41697 51310 10185 20151 40320 54000 70222 85141 22263 04190 21209 334// 41808 5//// 80165
BBXX A8LP6 14124 99365 70149 41498 43610 10175 20116 40290 52010 70311 8446/ 22264 04141 2//// 332// 41410 80140
BBXX A8RW3 14123 99259 50286 41598 50310 10240 20180 40190 51010 70311 83145 22264 04220 21004 80200
BBXX DEGI 14123 99360 70048 41597 42720 10202 20136 40270 54000 70111 83441 22223 04172 29903 80161
BBXX BATFR04 14124 99596 70114 46/// /3427 10065 20029 49731 51023 22200 00102
BBXX A8SF8 14124 99285 70495 41597 41728 10240 20196 40155 57/// 70211 844// 22254 04240 20707 80210
BBXX BATEU06 14124 99561 10026 46/// /2623 10069 20027 49788 53001 22271 00094
BBXX BATEU04 14124 99599 70316 46/// /3004 10042 20000 49874 51002 22223
BBXX BATFR35 14124 99167 51512 46/// /1109 10269 20217 40137 22262 00287
BBXX PBEO 14123 99466 70072 41297 62529 10114 20078 40100 54000 72582 867// 22212 02130 20506 330// 40910 80095
BBXX BATFR50 14124 99427 10062 46/// /2609 10157 20117 40147 58011 22282 00159
BBXX BATFR46 14124 99396 10013 44997 62315 10165 20109 40199 58018 703// 8//5/ 22213 00167 21004
BBXX BAREU06 14124 99446 70523 46/// ///// 40132 57009 22274
BBXX BATEU09 14124 99429 10062 46/// /2606 10159 20114 40150 52010 22282 00174
BBXX BATFR19 14124 99048 30094 46/// /1715 10255 20214 40113 56019 22242 00262
BBXX A8VL5 14124 99066 10757 41597 30320 10270 20241 40210 54000 71000 83030 22265 00280 20202 30000 80250
BBXX BATFR09 14124 99380 10051 44997 52630 10177 20117 40218 58007 70222 85420 22263 00182 20506 326// 40506 5////
BBXX BATFR03 14124 99499 70005 46/// /2347 10074 20029 49977 53035 22244
BBXX BATFR56 14124 99115 30704 44497 60612 10265 20264 40091 55004 78122 8677/ 22252 00295 316// 40504 5////
BBXX FVNM 14124 99064 70962 46/// /3511 10264 20232 40111 53002 22221 00269
BBXX BATEU00 14124 99599 30211 46/// /3320 11012 21013 49935 56038 22243
BBXX BATFR11 14124 99360 10145 46/// /2705 10184 20115 40247 58018 22211 00194
BBXX BATFR45 14124 99107 30411 46/// ///// 10297 20240 40097 58019 22244 00305
BBXX BATFR13 14124 99331 70380 44498 31721 10209 20162 40254 53008 70122 832// 22214 00219 20404 300// 41004 5////
BBXX BATFR01 14124 99343 10307 44498 33508 10184 20112 40202 56020 70200 83479 22222 00202 20500
BBXX BATFR15 14124 99334 70289 44798 21309 10197 20139 40309 50004 70111 82251 22264 00204 20304 301// 40304 5////
BBXX BATFR52 14124 99494 70023 46/// /2222 10087 20025 40009 22215 00130
BBXX BATFR60 14124 99453 70008 46/// /2728 10120 20052 40138 22283 00115
BBXX BATEU05 14124 99624 70504 46/// /3217 11058 21060 40034 51018 22272
BBXX BATEU08 14124 99578 10085 46/// /2141 10077 20022 49805 58002 22261
BBXX BATFR27 14124 99507 70010 46/// /2826 10069 20004 49965 22244 00107
BBXX VEP717 14124 99467 70487 41697 80230 11012 2101/ 40198 57008 70282 885// 22200 06029 20403 336// 40604 81012
AAXX 14121 10004 46/60 /2114 10071 20049 39899 49899 51002 222// 00089 333 55303 91122 91218
AAXX 14121 10015 12462 72112 10057 20032 39904 49914 53001 60001 85802 333 31/// 55300 20290 30288 82812 84634 87073 91120 91217
AAXX 14121 10020 174// 72110 10059 2//// 39866 49898 50000 69911 7//// 333 55300 20262 30261 83/19 87/25 91122 91217
AAXX 14121 10035 01462 81906 10044 20031 39861 49919 58011 69901 76161 875// 333 31/// 55300 20169 30166 41165 69907 87611 91113
AAXX 14121 10055 01460 81805 10048 20032 39919 49929 58018 69971 76161 885// 333 31/// 55300 20041 30041 69977 85617 88634 91116
AAXX 14121 10147 01359 82501 10043 20032 39900 49918 58029 60061 76361 865// 333 32/// 55300 20131 30127 41193 60067 83709 86616
AAXX 14121 10162 01470 81504 10044 20033 39843 49925 58050 60021 76162 875// 333 31/// 55300 20047 30047 60027 87613
AAXX 14121 10184 12784 81504 10058 20026 39951 49959 58039 60001 885// 333 31/// 55300 20083 30083 88650
AAXX 14121 10200 12384 72106 10034 20020 39925 49923 52002 60001 83832 333 32/// 55300 20352 30340 81808 83640 91113
AAXX 14121 10224 01360 82804 10038 20029 39926 49932 55008 60091 76166 878// 333 32/// 55300 20290 30289 60097 83808 87617
AAXX 14121 10270 06660 81610 10068 20043 39913 49967 58048 60011 222// 06049 333 55300 60017 87/41 88/47 91114
AAXX 14121 10338 01581 52307 10084 20045 39864 49935 55014 60021 72562 83801 333 31/// 55302 20319 30261 60017 82825 83075 91116 91213 96280 96463 96461 96460
AAXX 14121 10361 01586 61906 10093 20045 39860 49961 56034 69901 70361 82272 333 31/// 55309 20766 30410 69907 82833 85070
AAXX 14121 10393 01584 81806 10081 20040 39870 49995 57044 69901 72111 8387/ 333 31/// 55300 20101 30098 69907 81820 83643 88458
AAXX 14121 10400 01383 72303 10072 20058 39912 49961 51022 60021 72586 872// 333 32/// 55300 20111 30110 60017 81808 83814 87818 91117 91212
AAXX 14121 10438 07556 71805 10070 20045 39694 49970 55004 69981 75865 333 55300 69917 83/24 87/56 87/58 91116
AAXX 14121 10469 12786 52009 10109 20043 39824 49985 56029 60001 82534 333 31/// 55304 82650 83080 91118 91213
AAXX 14121 10488 12681 71708 10086 20031 39742 40019 56032 60001 8352/ 333 31/// 55300 20248 30245 41157 81644 83656 87463 91114
AAXX 14121 10506 01365 72306 10054 20034 39406 49981 51010 60031 72586 878// 333 31/// 55300 20196 30195 60017 86809 86630 91116
AAXX 14121 10548 01465 82105 10063 20046 39465 49999 58019 69981 76362 875// 333 31/// 55300 20152 30151 69947 87613
AAXX 14121 10637 01368 82408 10070 20050 39875 40011 53003 60031 76386 8552/ 333 32/// 55300 60037 81708 85629 88535 91117 91212 96481
AAXX 14121 10685 01362 82005 10056 20041 39356 40022 56017 60021 76162 8552/ 333 31/// 55300 20170 30170 60027 83708 84628 86459 91114 96463
AAXX 14121 10738 01461 72007 10086 20058 39578 40040 58008 60021 76362 878// 333 31/// 55301 60027 83818 87640 91115
AAXX 14121 10763 01582 72010 10103 20040 39657 40031 58016 69901 72162 8387/ 333 31/// 55300 20389 30385 69907 81825 83650 86363 91118 91212
AAXX 14121 10788 07568 40402 10057 20045 39656 40087 55009 69901 76165 333 55300 20167 30166 69907 81/33 83/42
AAXX 14121 10852 01688 71606 10080 20061 39504 40065 58008 60021 72162 81572 333 31/// 55301 20421 30380 60027 81646 86362
AAXX 14121 10946 07586 72001 10074 20033 39255 40075 58010 69911 72365 333 55300 20298 30297 69917 81/31 87/58 87/61
AAXX 14121 01001 11435 83612 11001 21014 39842 49854 58006 69931 77087 8757/ 222// 00005 333 91125
AAXX 14121 01008 16/// /1309 11034 21081 39995 40029 51006 6//// 333 91112
AAXX 14121 01010 41788 71410 10052 21015 39734 49749 58004 70222 81578 333 91116
AAXX 14121 01026 41689 72003 10034 21038 39643 49780 56012 70222 82548 333 4/028 91111
AAXX 14121 01055 46/// /1314 10028 21011 39836 49853 58002 333 91120
AAXX 14121 01062 NIL
AAXX 14121 01098 41480 81609 10027 21007 39925 49943 57001 70222 8572/ 333 91115
AAXX 14121 01115 16/// /1612 10053 21016 39685 49705 50002 6//// 333 91121
AAXX 14121 01152 11688 71309 10054 21036 39714 49729 50002 60001 70311 8384/ 333 91117
AAXX 14121 01205 NIL
AAXX 14121 01212 16/// /1707 10086 20008 39609 49624 55003 6//// 333 91120
AAXX 14121 01271 16/// /1804 10063 21031 39675 49695 55006 6//// 333 91117
AAXX 14121 01288 41580 61607 10009 21032 39003 49725 58005 70122 86500 333 91117
AAXX 14121 01300 NIL
AAXX 14121 01317 41450 81708 10068 20029 39672 49686 53019 78182 8696/ 333 91116
AAXX 14121 01367 41780 61205 10019 21003 39314 49742 52004 70321 86090 333 91109
AAXX 14121 01384 41365 71708 10023 20013 39548 49791 51004 70287 885// 333 91112
AAXX 14121 01403 11560 6//// 10069 20046 39641 49707 52025 69971 70282 86900
AAXX 14121 01415 16/// /2009 10066 20041 39726 49737 51017 6//// 333 91122
AAXX 14121 01482 46/// /2119 10072 20035 39803 49811 53004 333 91127
AAXX 14121 01492 NIL
AAXX 14121 01003 NIL
AAXX 14121 01007 11989 11502 11064 21111 30028 40037 50003 60001 70200 80003 333 91105
AAXX 14121 01028 11360 80615 10001 21008 39882 49902 58008 69921 72682 888// 222// 00001
AAXX 14121 01047 41630 81810 11003 21017 39481 49848 57015 77173 8802/
AAXX 14121 01049 16/// /1506 10019 21017 39854 49858 57014 60001 333 91111
AAXX 14121 01078 11385 81504 10016 21019 39895 49908 58003 6//// 70322 87277 333 91111
AAXX 14121 01102 46/// /1515 10056 21000 39666 49684 57005 333 91121
AAXX 14121 01160 NIL
AAXX 14121 01218 NIL
AAXX 14121 01238 41403 81616 11018 21032 38592 49689 58002 73883 8694/ 333 91122
AAXX 14121 01241 11586 71510 10062 21003 39651 49661 55006 60002 70221 81572 333 91115
AAXX 14121 01281 NIL
AAXX 14121 01338 16/// /1105 10052 20022 39622 49686 53004 60011 333 91110
AAXX 14121 01359 NIL
AAXX 14121 01397 16/// /1203 10007 20003 39366 49793 50001 69961 333 91108
AAXX 14121 01400 NIL
AAXX 14121 01427 11460 72115 10071 20041 39772 49787 51015 60021 78082 87900 333 91125
AAXX 14121 01447 NIL
AAXX 14121 01448 46/// ///// 10073 20026 39795 49805 51007
AAXX 14124 78897 12575 11301 10253 20226 40118 53014 60001 81200 333 023// 10301 20214 59014 70004 81820
AAXX 14124 91408 11473 80705 10265 20250 30046 40084 52014 69901 70282 84208 333 10311 561/9 59006 70117 555 91412
AAXX 14124 91413 11466 80708 10255 20240 30059 40084 50008 60241 72582 8537/ 333 10286 5629/ 59021 70295 555 91412
AAXX 14124 85864 11980 00000 10140 20116 40199 52016 60004 702// 333 20084 30/// 55128 70000
AAXX 14124 85874 12982 00000 10137 20044 39587 40205 50008 60001 333 21002 30000 55/// 70000
AAXX 14124 85886 12970 03406 10184 20167 40199 52014 60004 333 20088 30/// 70000
AAXX 14124 85892 12980 02907 10152 20090 40193 52015 60001 333 20080 30/// 70000
AAXX 14124 85934 12580 72911 10137 20075 40164 52006 60004 82530 333 20096 55045 56660 70000 82626 85360
AAXX 14124 85968 12460 40709 10104 20088 40131 51/// 60004 82100 333 20096 30/// 55/// 56200 70000 82816 84843
AAXX 14124 89056 11115 82625 10007 20001 49944 52018 69902 71064 886// 333 02637 10015 20006 41998 55028 56699 88703
AAXX 14124 89057 11456 82222 10014 20002 49945 52025 60022 72622 884// 333 10022 20010 44100 56699 88610
AAXX 14124 89058 11458 82723 10011 20001 39920 49941 52017 69911 71060 885//
AAXX 14124 89059 12560 82215 10004 21010 49898 52007 69902 885// 333 10007 20000 42058 55010 75099 88620
AAXX 14124 89251 11358 82721 10011 20002 49935 53037 72162 8651/ 333 20008
AAXX 14121 78221 11464 10608 10219 20164 30173 40200 52010 60004 70100 81100 333 81820
AAXX 14121 78224 13560 /9901 10148 20136 30125 40201 55001 60014 333 20139
AAXX 14121 78229 12559 30604 10210 20178 30127 40202 54000 60004 83200 333 83820
AAXX 14121 78239 11559 80508 10227 20184 30187 40190 52010 60034 70520 88800 333 20187 85818 88825
AAXX 14121 12345 11558 20503 10184 20165 30150 40190 52007 60004 70544 82100 333 82820
AAXX 14121 78243 12559 50504 10205 20176 30075 40198 52005 60004 85200 333 85820
AAXX 14121 78255 12559 30407 10213 20180 30033 40182 52010 60004 82502 333 20210 81620
AAXX 14121 78264 11560 30105 10228 20191 30077 40152 52010 60004 70200 83200 333 83820
AAXX 14121 78265 11558 60000 10203 20181 30070 40170 52020 60064 71144 82201 333 20201 82820 85070
AAXX 14121 78256 NIL
AAXX 14121 78259 11557 31701 10208 20194 30090 40182 54000 60084 70544 83200 333 20207 83825
AAXX 14121 78268 11457 60309 10238 20227 30145 40164 54000 60124 71500 83220 333 20196 83810 83425
AAXX 14124 91413 11466 80708 10255 20240 30059 40084 50008 60241 72582 8537/ 333 10286 5629/ 59021 70295 555 91412
AAXX 14124 78897 12575 11301 10253 20226 40118 53014 60001 81200 333 023// 10301 20214 59014 70004 81820
AAXX 14124 91408 11473 80705 10265 20250 30046 40084 52014 69901 70282 84208 333 10311 561/9 59006 70117 555 91412
AAXX 14121 10007 NIL
AAXX 14121 10044 46/// /1809 10036 20014 39891 49922 58010 222// 00056 333 55300 91122 91218
AAXX 14121 10046 41457 81904 10042 20024 39885 49924 57017 76162 875// 333 87613
AAXX 14121 10091 12785 81808 10049 20026 39906 49957 58023 60001 875// 222// 06062 333 31/// 55300 20090 30090 87650 91115 91213
AAXX 14121 10113 12570 61907 10041 20025 39898 49917 53004 60001 83802 333 31/// 55304 20560 30362 82820 86075 91114
AAXX 14121 10124 46/// ///// 10041 2//// 39877 49914 55000 222// 00065 333 553// 911// 912//
AAXX 14121 10131 01270 72004 10042 20031 39904 49919 58009 69951 72162 8653/ 333 31/// 55300 20150 30150 69957 83706 85640 86359 91113
AAXX 14121 10170 01558 81703 10049 20027 39926 49942 58034 69921 76111 875// 333 31/// 55300 20083 30083 69927 87621
AAXX 14121 10264 01480 81505 10053 20038 39834 49939 56050 60021 76161 875// 333 31/// 55300 20078 30077 60027 83716 87633
AAXX 14121 10291 01462 81706 10060 20036 39920 49987 56041 69941 76311 8252/ 333 31/// 55300 20125 30125 69947 82619 88550
AAXX 14121 10315 01465 72204 10052 20035 39886 49950 51030 60051 70286 875// 333 32/// 55300 20218 30217 69917 87613 91116
AAXX 14121 10379 01683 61607 10072 20041 39852 49972 57045 69931 72161 83532 333 31/// 55300 20215 30204 41153 69937 83646 83361 91114
AAXX 14121 10382 01681 61605 10073 20039 39934 49978 58044 69951 72161 85672 333 31/// 55300 20087 30087 69957 83638 85650 85363 96263
AAXX 14121 10384 06/// /1604 10073 20044 39921 49980 58044 69941 333 55300 20101 30101 69947
AAXX 14121 10427 01/05 92311 10018 20018 38973 48293 53006 60061 76987 333 44012 55300 20040 30040 60057 91122 91214 96041 96487 96473 96471 96463
AAXX 14121 10430 01484 82405 10068 20044 39770 49959 53010 69911 72062 888// 333 31/// 55300 20071 30071 69907 85819 87632 91117
AAXX 14121 10439 41456 82403 10069 20052 39759 49976 58002 76162 8682/ 333 83818 85625 88460 91114
AAXX 14121 10453 11/90 92124 11001 21001 38628 48272 55012 60051 76974 333 49063 55300 91137 91227 96067 96049 96473 96449 96438
AAXX 14121 10496 12586 82006 10106 20039 39922 40005 57043 60001 8587/ 333 31/// 55300 20236 30236 81830 85656 85358 91113
AAXX 14121 10499 01985 81908 10084 20031 39742 40028 58036 69901 70362 8802/ 333 31/// 55300 20294 30291 69907 88462 91117 91211
AAXX 14121 10505 03587 82408 10070 20028 39693 49970 51014 60041 8//// 333 55300 20289 30288 69967 85/27 88/58 88/61 91118 91213
AAXX 14121 10513 01480 82307 10074 20030 39859 49979 51014 69921 72162 878// 333 31/// 55300 20160 30159 69917 82815 84630 87650 91113
AAXX 14121 10532 07688 82112 10082 20041 39736 49979 57005 69951 72365 333 55300 20116 30116 69947 82/35 87/50 88/57 91117 91212
AAXX 14121 10544 01/03 92315 10016 20015 38926 48318 55006 60021 78486 333 41998 55300 60017 91129 90241 91218 91220 96041 96288 96263 96487 96459
AAXX 14121 10554 01580 72311 10087 20042 39602 49981 58013 69901 72586 85838 333 31/// 55305 20556 30380 69907 81823 85630 91119 91214 96280 96460
AAXX 14121 10567 01586 72112 10081 20042 39635 40004 56018 69901 72111 82881 333 31/// 55301 20375 30346 69907 81820 83363 85071 91121 91214
AAXX 14121 10578 11/58 82119 10011 20011 38649 48354 58007 60021 76874 875// 333 44029 55300 20124 30123 876//
AAXX 14121 10609 01225 82512 10038 20028 39682 40012 51014 60091 78062 879// 333 32/// 55300 20085 30082 60087 84705 85915 91124 91217 96288
AAXX 14121 10616 01245 82605 10042 20030 39406 40002 51007 60021 76386 878// 333 32/// 55300 60027 81805 85808 87612 91121 91213
AAXX 14121 10641 07581 82306 10069 20050 39866 40011 53005 60041 75165 333 55300 60047 84/28 87/37 88/43 91114
AAXX 14121 10655 01557 82309 10081 20068 39697 40020 58008 60021 76362 878// 333 32/// 55301 20302 30278 60027 83820 83830 87640 91114
AAXX 14121 10675 07488 71904 10090 20050 39739 40025 58015 69941 76165 333 55300 20187 30187 69947 82/16 84/31 87/39
AAXX 14121 10688 07675 71905 10077 20039 39538 40054 55010 69921 76165 333 55300 20137 30137 69927 85/45 87/50 91114
AAXX 14121 10708 01484 72212 10081 20038 39641 40021 50001 60011 70162 8583/ 333 31/// 55300 20265 30258 69967 82815 84625 87362 91118 91212
AAXX 14121 10729 07588 81907 10097 20078 39911 40031 58003 69971 72365 333 55300 20243 30243 69937 84/29 87/39 88/58 91113
AAXX 14121 10731 01275 72511 10090 20062 39889 40030 56006 60051 76382 8632/ 333 32/// 55300 20132 30132 60047 81806 83920 91119 91213 96281
AAXX 14121 10742 07569 82307 10092 20064 39708 40033 58003 60011 75765 333 55300 20200 30197 60017 83/31 87/50 88/56 91117
AAXX 14121 10776 01562 81904 10065 20055 39633 40074 56008 60021 76362 875// 333 31/// 55300 20105 30105 60027 87630
AAXX 14121 10791 01170 81809 10012 20001 38445 48393 56015 69931 70375 8757/ 333 44053 55300 69907 87603
AAXX 14121 10805 01470 72410 10095 20059 39870 40058 53008 69961 78086 84972 333 31/// 55300 20224 30222 69967 81815 83930 91117 91212
AAXX 14121 10815 01/72 82508 10053 20042 39115 48368 58008 60041 76062 879// 333 31/// 55300 20075 30075 60047 817// 81904 86808 91119 96265 96263
AAXX 14121 10836 03488 72111 10066 20039 39192 40049 58007 69901 8//// 333 55303 20568 30432 69907 83/16 87/34 87/58 91123 91217
AAXX 14121 10870 01489 72303 10086 20056 39556 40083 55002 69931 72162 84572 333 31/// 55300 69927 82715 83630 85359 91114
AAXX 14121 10895 11889 71604 10064 20035 39518 40084 56020 69911 71462 8707/ 333 31/// 55307 20909 30483 82358 87461
AAXX 14121 10908 01/00 92518 11010 21010 38375 48377 55007 60111 79687 333 49011 55300 20078 30078 60057 89/01 91137 91225 93206 96086 96049 96038 96290 96477 96473
AAXX 14121 10929 01480 62304 10096 20062 39549 40071 58024 60021 72166 81572 333 31/// 55302 20609 30491 60027 81812 83360
AAXX 14121 10948 01788 72002 10050 20044 39150 48405 58003 69901 70261 875// 333 31/// 4/998 55300 20357 30357 69907 87650
AAXX 14121 10961 11/84 71519 11063 21071 36993 47952 58006 69941 70174 85532 333 49085 55301 20586 41054 856// 84330 91141 90250 91218 90320 91221 444 16270
AAXX 14121 10962 037// 83102 10060 20017 38948 48404 50001 69911 8//// 333 55303 20691 30561 69907 86/50 88/61 88/63 91115
AAXX 14121 10980 11489 42407 10027 21042 38064 48407 55005 69901 70271 81530 333 44024 55307 21023 30552 81610 84350 91120 91213 96471
BBXX 9V8072 14123 99336 70249 41/97 /3120 10200 20149 40312 5/000 7//22 8//// 22264 20306 80170
AAXX 14124 78384 11460 70520 10250 20220 40158 69902 72582 86802 333 10289 20243 59003 79999 86810 90919
AAXX 14124
AAXX 14124 78383 12460 70515 10254 20204 40164 60062 78082 85973 333 10291 20231 58002 70056 85914 90999
AAXX 14124 65338 31905 53604 10330 20124 39932 40118 70644 80002 333 0//00 58009 85076
AAXX 14124 78700 NIL
AAXX 14124 78703 11565 63502 10235 20214 30154 40156 60012 705// 82271 333 10290 20218 31/// 56000 59004 70013 82822 86457
AAXX 14124 78704 01570 30000 10220 20209 30158 40163 60042 705// 82230 333 10270 20205 31/// 56000 59009 70042 82822
AAXX 14124 78705 05540 70703 10209 20202 30148 40166 53012 60011 753// 85470 333 10281 20194 31/// 56400 59004 60010 70162 85822 875457
AAXX 14124 78706 01558 80000 10200 20192 30170 40175 60071 761// 8542/ 333 10267 20187 31//// 59299 58000 69927 70078 85620 88458
AAXX 14124 78707 31560 70000 10160 20157 39415 40187 710// 84570 333 10220 20150 30/// 56000 58002 70000 84620 87458
AAXX 14124 78708 31560 31802 10209 20209 30135 40165 53003 70544 83560 333 10270 20209 30/// 56000 59001 70128 83620
AAXX 14124 78711 11570 70509 10257 20229 30120 40135 66952 705// 85206 333 10290 20242 30/// 56100 59003 70005 85826 87075
AAXX 14124 78714 12570 72502 10196 20187 69921 84520 33310283 20196 30/// 70002 84625 85457
AAXX 14124 78717 NIL
AAXX 14124 78718 31560 33610 10192 705// 81431 333 10244 20132 30/// 56800 70000 82830
AAXX 14124 78719 32450 70512 10142 20126 38357 40143 87401 333 10161 20127 30/// 56100 58003 70000 87618
AAXX 14124 78720 31559 33507 10161 20150 39047 40158 53007 70544 83530 333 10233 20158 30/// 56800 59001 70002 83620
AAXX 14124 78724 32578 60000 10236 20213 30055 40112 5//// 81506 333 10344 20236 30/// 56000 59011 70000 81630 86075
AAXX 14124 78858 11479 50205 10240 20229 30067 40123 60042 7801/ 85800 333 10287 20231 59009 82816 84642
AAXX 14124 96315 32460 70306 10280 20245 40090 82848 333 10314 82815 85364
AAXX 14124 96323 NIL
AAXX 14124 78384 11460 70520 10250 20220 40158 69902 72582 86802 333 10289 20243 59003 79999 86810 90919
AAXX 14124 78383 12460 70515 10254 20204 40164 60062 78082 85973 333 10291 20231 58002 70056 85914 90999
BBXX CGDS 14124 99447 70755 46/// /3601 10034 20025 4//// 5//// 7//// 8//// 22200 0//// 2////
AAXX 14121 01025 16/// /2005 10035 21029 39773 49783 56008 6//// 333 91110
AAXX 14121 01052 16/// /1507 10021 21024 39754 49850 58010 60001 333 91116
AAXX 14121 01122 16/// /1801 10039 21036 39641 49727 50002 60001 333 91113
AAXX 14121 01132 16/// /1405 10019 21029 39354 49730 58007 60001 333 4/040 91113
AAXX 14121 01156 NIL
AAXX 14121 01203 46/// /1718 10062 20017 39564 49611 53004 333 91133
AAXX 14121 01233 16/// /1511 10011 21019 60001 333 91120
AAXX 14121 01265 NIL
AAXX 14121 01273 NIL
AAXX 14121 01307 46/// /2218 10074 20038 39625 49652 53018 333 91128
AAXX 14121 01321 16/// /1502 10043 20004 39417 49659 50011 69951 333 91113
AAXX 14121 01327 16/// /1707 10027 20001 60211 333 91119
AAXX 14121 01350 16/// /1611 11023 21024 38363 49702 51007 60021 222// 00044 333 91118
AAXX 14121 01361 16/// /1205 10006 21045 38693 49678 50006 60001 333 91115
AAXX 14121 01375 NIL
AAXX 14121 01378 16/// /1306 10028 20005 39474 49757 50001 60001 333 91110
AAXX 14121 01385 16/// /1505 10027 20009 39518 49782 50000 60001 333 91112
AAXX 14121 01412 16/// /2115 10066 20049 39713 49742 51015 60021 333 91125
AAXX 14121 01422 16/// /2007 10057 20032 60031 333 91116
AAXX 14121 01440 NIL
AAXX 14121 01441 NIL
AAXX 14121 01467 NIL
AAXX 14121 01469 NIL
AAXX 14121 01477 16/// /1703 10038 20019 60001 333 4/018 91111
AAXX 14121 01480 16/// /0203 10054 20012 60001 333 91110
AAXX 14121 01484 16/// /1807 10020 20001 39662 49815 53006 60061 333 91112
AAXX 14121 01490 16/// /1905 10009 20009 60011 333 91114
AAXX 14121 01495 16/// /2018 10066 20035 39798 49810 53004 60011 333 91126
AAXX 14121 01037 NIL
AAXX 14121 01046 NIL
AAXX 14121 01058 16/// /1407 11014 21024 39404 49862 58011 69931 333 4/020 91114
AAXX 14121 01065 NIL
AAXX 14121 01092 NIL
AAXX 14121 01107 16/// /1613 10052 2//// 39706 49710 50004 60021 333 91120
AAXX 14121 01114 NIL
AAXX 14121 01144 41886 71211 10054 21024 70162 81068 333 91118
AAXX 14121 01199 NIL
AAXX 14121 01245 NIL
AAXX 14121 01259 16/// /1513 10064 21008 39640 49661 58004 60001 333 91123
AAXX 14121 01262 NIL
AAXX 14121 01278 41789 81507 10054 21022 39603 49702 50004 70211 8387/
AAXX 14121 01293 11784 81609 10050 21023 39508 49707 55008 60001 70222 8117/ 333 91116
AAXX 14121 01329 NIL
AAXX 14121 01337 NIL
AAXX 14121 01344 16/// ///// 10005 21006 60111 333 4/073
AAXX 14121 01364 16/// /1307 11008 21031 38634 49716 50004 60001 333 4/031 91115
AAXX 14121 01373 16/// /0801 10028 20007 39548 49746 50002 60011 333 91108
AAXX 14121 01374 41475 81203 10002 21001 78582 886//
AAXX 14121 01380 41020 81607 11020 21029 77073 886// 333 4/028 91119
AAXX 14121 01389 NIL
AAXX 14121 01393 NIL
AAXX 14121 01424 16/// ///// 10046 20023 39733 49737 53019 60221
AAXX 14121 01431 16/// /1907 10012 21003 39118 49764 52011 60081 333 91117
AAXX 14121 01436 NIL
AAXX 14121 01465 16/// /2222 10069 20037 39786 49804 50009 60031 333 91129
AAXX 14121 01471 11586 51102 10017 20001 60001 70222 83805 333 91105
AAXX 14121 01483 NIL
AAXX 14121 01015 NIL
AAXX 14121 01023 16/// /1207 10030 21029 39689 49781 53002 6//// 333 91116
AAXX 14121 01033 46/// /1513 10056 21022 39747 49777 58011 333 91117
AAXX 14121 01059 41485 81708 10017 21014 39865 49874 55010 77082 8452/ 333 91113
AAXX 14121 01089 41487 81510 10005 21016 39821 49927 58014 70122 8417/ 333 91113
AAXX 14121 01167 41787 51607 10062 21057 39736 49739 55002 70122 83478 333 91112
AAXX 14121 01180 NIL
AAXX 14121 01210 41585 51509 10078 20010 39598 49623 53007 71582 83961 333 91116
AAXX 14121 01228 NIL
AAXX 14121 01240 16/// /1514 10070 20002 39637 49656 58004 6//// 333 91119
AAXX 14121 01304 46/// /1918 10076 20051 39584 49613 53010 333 91128
AAXX 14121 01311 46/// /2013 10063 20038 39623 49683 53020 333 91122
AAXX 14121 01340 NIL
AAXX 14121 01355 16/// ///// 10074 21003 60001
AAXX 14121 01360 NIL
AAXX 14121 01392 11472 81706 10025 20009 39584 49805 50001 69951 76062 888// 333 91111
AAXX 14121 01406 46/// /1915 10076 20052 39668 49685 53019 333 91127
AAXX 14121 01411 16/// /2014 10075 20041 39694 49719 51019 6//// 333 91124
AAXX 14121 01425 NIL
AAXX 14121 01433 46/// /1801 11011 21022 38516 49734 53013 333 91117
AAXX 14121 01442 11460 81510 10034 20018 39532 49782 53011 60091 76366 887// 333 91119
AAXX 14121 01450 NIL
AAXX 14121 01452 16/// /2508 10043 20022 39786 49807 53013 60041 333 91121
AAXX 14121 01473 16/// /2102 10048 20008 39578 49779 50009 6//// 333 91110
AAXX 14121 01494 11240 72110 10042 20032 39743 49807 50001 60131 78182 8396/ 333 91118
BBXX CGDS 14124 99447 70755 46/// /3601 10034 20025 4//// 5//// 7//// 8//// 22200 0//// 2////
AAXX 14121 01121 46/// /1411 10052 21028 39701 49713 56004 333 91117
AAXX 14121 01135 NIL
AAXX 14121 01143 16/// /1305 10052 21041 60001 333 91115
AAXX 14121 01150 16/// /1002 10020 21048 60001 333 91111
AAXX 14121 01192 NIL
AAXX 14121 01225 46/// /1206 10075 21009 39634 49639 55013 333 91117
AAXX 14121 01230 16/// /0708 10029 21044 60001 333 4/023 91118
AAXX 14121 01232 16/// /1507 10078 21034 39575 49650 55000 60001 333 4/016 91119
AAXX 14121 01234 16/// /1610 10077 21026 60001 333 91116
AAXX 14121 01253 16/// /1403 10045 21023 60001 333 4/029 91115
AAXX 14121 01254 16/// /1702 10048 21020 60001 333 4/019 91114
AAXX 14121 01257 NIL
AAXX 14121 01277 NIL
AAXX 14121 01291 NIL
AAXX 14121 01332 16/// /0402 10016 20003 60041 333 91103
AAXX 14121 01366 46/// /1510 11043 21060 38136 49701 50002 333 91120
AAXX 14121 01370 NIL
AAXX 14121 01376 16/// /0702 10033 20009 60001 333 91108
AAXX 14121 01383 46/// /1209 10015 20009 39463 49768 50003 333 91114
AAXX 14121 01386 16/// ///// 10033 20009 60001
AAXX 14121 01416 16/// ///// 10053 20051 60051
AAXX 14121 01419 NIL
AAXX 14121 01430 16/// ///// 10065 20033 60071
AAXX 14121 01434 16/// /2104 10003 21014 38801 49737 53010 60051 333 91107
AAXX 14121 01455 NIL
AAXX 14121 01468 16/// /1404 10023 20008 60031 333 91109
AAXX 14121 01470 16/// /1604 10043 20021 39674 49785 51010 60001 333 4/003 91111
AAXX 14121 01476 NIL
AAXX 14121 01481 NIL
AAXX 14121 01488 NIL
AAXX 14124 78954 11478 30906 10262 20243 30048 40112 60001 71511 82201 333 10301 20228 51120 59009 82814
AAXX 14124 61901 11365 71312 10167 20143 39670 40179 60011 71582 878// 91150 333 59004 85808 86625
AAXX 14124 61902 32584 31316 10265 20184 40133 82801 333 59013 82822
AAXX 14124 88878 46/// /2508 10137 20118 40146 52006
AAXX 14124 88889 12982 22609 10183 20087 30073 40155 51008 60004 81031 91150 333 20116 30007 81368
AAXX 14124 91356 11358 81207 10267 20236 30081 40088 51007 60261 76386 88200 333 10294 562// 59006 70505 88808 555 91412
AAXX 14124 03005 11473 72722 10062 20022 39533 49629 51031 69941 78082 85932 91150 333 55300 20105 81916 84825 90710 91130
AAXX 14124 03017 17456 /2711 10052 20038 39642 49672 51027 60021 762// 91150 333 55300 20066 81/15 86/21 90710 91127
AAXX 14124 03023 17965 /2828 10074 20018 39747 49751 51021 69941 723// 91150 333 8//99 90710 91137
AAXX 14124 03026 17672 /2621 10067 20039 39693 49711 51018 60021 723// 91150 333 55300 20191 81/42 90710 91129
AAXX 14124 03063 17981 /2208 10033 21001 39477 49748 51021 69901 721// 91150 333 4/003 55302 20198 8//99
AAXX 14124 03066 12484 32417 10060 21005 39717 49723 51026 69901 82363 91150 333 55309 20383 81815 81920 90710 91128
AAXX 14124 03075 15970 /2317 10049 20022 39645 49688 52023 60011 91150 333 8//99 90710 91131
AAXX 14124 03091 15981 /2112 10036 20000 39667 49745 51022 60001 91150 333 55300 20148 8//99
AAXX 14124 03100 17680 /2820 10068 20031 39766 49781 51022 69941 723// 91150 333 55301 20197 81/31 90710 91128
AAXX 14124 03111 16360 /2527 10041 20032 39804 49816 52027 60031 91150 333 86/08 85/16 90710 91135
AAXX 14124 03134 17982 /2511 10048 20031 39721 49791 51021 60031 723// 91150 333 55300 20164 8//99
AAXX 14124 03136 15473 /2518 10056 20036 39775 49807 51021 69901 91150 333 55300 20174 81/12 83/15 87/50 90710 91128
AAXX 14124 03162 11362 82610 10025 20010 39533 49816 53015 69921 72052 886// 91150 333 55300 20179 88708
AAXX 14124 03166 15484 /2313 10048 20027 39719 49787 51021 69961 91150 333 55300 20284 83/16 90710 91125 91023
AAXX 14124 03171 12478 72519 10050 20020 39761 49773 51027 60001 82531 91150 333 55300 20290 81710 85362 87075 90710 91126
AAXX 14124 03204 11465 82621 10048 20018 39839 49858 52021 60021 76162 885// 91150 333 55300 20055 86618 88630 90710 91134 92457
AAXX 14124 03240 15483 /2317 10040 20020 39781 49809 51026 60001 91150 333 55300 20088 84/17 87/61 90710 91131
AAXX 14124 03257 11470 82214 10036 20017 39810 49850 51013 69981 78082 8787/ 91150 333 55300 20202 82814 84822 87640 90710 91125
AAXX 14124 03292 169// /2216 10048 20004 39836 49854 51003 60001 91150 333 8//99 90710 91126
AAXX 14124 03302 12584 72520 10057 20011 39873 49885 51020 60001 8217/ 91150 333 55300 20316 82823 85359 87366 90710 91133
AAXX 14124 03354 15981 /2213 10037 21005 39757 49899 51015 60001 91150 333 55310 20501 8//99 90710 91128
AAXX 14124 03377 12784 22318 10044 21007 39810 49893 51014 60001 81502 91150 333 55309 20535 81650 90710 91127
AAXX 14124 03414 11572 52215 10043 21002 39815 49903 51022 69901 71581 82863 91150 333 55307 20564 81822 83067
AAXX 14124 03462 12585 62316 10048 21003 39823 49911 51016 60001 81131 91150 333 55300 20390 81820 86366 90710 91127
AAXX 14124 03482 12484 62317 10047 20012 39890 49915 51015 60001 81163 91150 333 81818 83364 85068 90710 91125
AAXX 14124 03502 11480 62523 10051 20001 39756 49917 51016 69921 72781 86962 91150 333 55302 20329 81712 83918 90710 91137 96016 96287 98085
AAXX 14124 03535 15583 /2210 10041 20008 39798 49915 51018 60001 91150 333 55302 20452 81/20 83/50 91020
AAXX 14124 03590 12486 32516 10051 20009 39816 49925 50006 60001 81133 91150 333 55306 20599 81812
AAXX 14124 03649 11280 72208 10024 20010 39838 49938 50021 60021 72682 82903 91150 333 55301 2//// 81705 81912 87072
AAXX 14124 03716 17580 /2523 10069 20025 39877 49936 50009 60031 723// 91150 333 55302 20533 83/28 85/50 90710 91134 91034
AAXX 14124 03740 16268 /2212 10016 20011 39776 49954 51021 60021 91150 333 55301 2//// 84/04 85/50
AAXX 14124 03746 11475 72310 10028 20010 39808 49962 50023 60011 70287 85932 91150 333 82915 84635 87072
AAXX 14124 03772 17680 /2621 10049 20006 39919 49949 51021 69901 723// 91150 333 55304 20660 81/32 86/50 90710 91131 91031
AAXX 14124 03796 46/// /2711 10057 20031 39810 49951 51016 91150
AAXX 14124 03803 17971 /2624 10082 20018 39944 49981 51015 60011 723// 91150 333 8//99 90710 91141 91034
AAXX 14124 03808 11364 72820 10070 20012 39869 49974 50015 60011 72782 879// 91150 333 55303 20575 82709 84912 86635 90710 91127
AAXX 14124 03809 11258 62824 10078 20030 39886 49977 50016 69901 72587 869// 91150 333 81705 83914 86625 90710 91135 91034
AAXX 14124 03827 17581 /2817 10051 20023 39918 49979 50021 60021 723// 91150 333 82/26 84/57 90710 91144
AAXX 14124 03840 17482 /2420 10028 20009 39661 49967 51024 60011 761// 91150 333 85/17 84/50 90710 91129
AAXX 14124 03853 11360 62310 10035 20019 49959 60031 72398 869/3 91150 333 55301 20206 82708 83916
AAXX 14124 03874 46/// /2820 10068 20021 39953 49964 51029 91150 333 90710 91129
AAXX 14124 03882 17783 /2609 10060 20016 39894 49957 53016 69941 723// 91150 333 55300 20167 87/56
AAXX 14124 03894 11468 72526 10080 21008 40002 51024 60011 72582 879// 333 81814 84918 86628 90710 91137
AAXX 14124 03917 17434 /2215 10026 20004 39771 49848 51023 60041 704// 91150 333 55300 20075 81/13 87/56
AAXX 14124 91324 NIL
AAXX 14124 91329 NIL
AAXX 14124 91336 NIL
AAXX 14124 91339 32474 80812 10294 20249 30078 40084 8422/ 333 56299 59007 84818 88463 555 91412
AAXX 14124 91320 32474 80915 10289 20272 30095 40100 83201 333 562/9 59010 83816 85074 555 91412
AAXX 14124 78954 11478 30906 10262 20243 30048 40112 60001 71511 82201 333 10301 20228 51120 59009 82814
BBXX 42039 14121 99288 70860 46/// /1109 10206 40243 56003 91150 22200 00229 10603 20603 70014 333 91210 555 11090 22094 31142 41110 61149 106084 103083 104086 099089 104086 100085 81110 91125
BBXX 41040 14121 99145 70530 46/// /1007 10266 20235 40115 53013 91150 22200 00278 11005 20603 3//// 41004 70026 333 91209 555 11075 22079 31149 41009 61149 101071 103067 106065 107063 109063 110063 81008 91150
BBXX 46072 14121 99517 71722 46/// /0102 10023 21026 49823 58026 91150 22200 00050 11110 20401 3//// 41110 70049 333 91204 555 11018 22019 31147 40204 61149 006018 347016 333015 006009 150007 197011 83203 91126
BBXX 46082 14121 99597 71434 46/// ///// 10044 20044 40080 58006 91150 22200 00059 11105 70025
BBXX 46072 14121 99517 71722 46/// /0102 10023 21026 49823 58026 91150 22200 00050 11110 20401 3//// 41110 70049 333 91204 555 11018 22019 31147 40204 61149 006018 347016 333015 006009 150007 197011 83203 91126
BBXX 46077 14121 99579 71543 46/// /0316 10017 20014 49947 54000 91150 22200 00052 10705 20705 3//// 41201 70025 333 91219 555 11172 22183 31136 40322 61149 033162 031173 032160 032167 032169 032161 80318 91132
BBXX 46035 14121 99571 71778 46/// /1116 1//// 49747 51058 91150 22200 11312 20809 300// 41308 70061 333 91218 555 11156 22167 31123 41120 61149 110156 110157 111158 112157 110157 105149 81118 91102
BBXX 44007 14121 99435 70701 46/// /0305 10036 21012 40291 53017 91150 22200 00088 11002 20401 3//// 41002 70011 333 91207 555 11054 22056 31130 40208 61149 028053 030058 034057 037059 032057 035053
BBXX 46026 14121 99378 71228 46/// /2801 10102 40223 51009 91150 22200 00110 11202 20301 328// 41202 70012 333 91202 555 11014 22015 31050 43004 61149 285015 299019 303024 300024 296026 293034
BBXX 46041 14121 99474 71247 46/// /1305 10056 40197 50000 91150 22200 00077 11404 20401 3//// 41404 70022 333 91207 555 11053 22055 31144 41207 61149 126050 128043 137037 136040 134041 135043
AAXX 14124 91324 NIL
AAXX 14124 91329 NIL
AAXX 14124 91336 NIL
AAXX 14124 91339 32474 80812 10294 20249 30078 40084 8422/ 333 56299 59007 84818 88463 555 91412
AAXX 14124 91320 32474 80915 10289 20272 30095 40100 83201 333 562/9 59010 83816 85074 555 91412
AAXX 14121 14648 12665 63401 10128 20101 30096 40215 57013 60001 84830 333 81840 83650
AAXX 14121 14652 11/00 92020 11024 21026 37916 48482 55010 60001 74544 333 89///
AAXX 14121 14542 11670 41803 10162 20049 39990 40175 57024 60001 83501 333 83647 95900
BBXX 51004 14121 99175 71524 46/// /1110 10222 20191 91150 555 11107 22114
BBXX 51002 14121 99171 71578 46/// /1006 10246 40157 56007 91150 22200 00252 333 91208 555 11067 22070 31053 40909 61149 096064 087066 088060 090061 087067 081067
BBXX 51100 14121 99236 71539 46/// /1009 10226 40198 56011 91150 22200 00234 10905 20603 311// 40904 70024 333 91210 555 11092 22097 31124 41011 61149 104084 100084 099088 100086 103087 105086
BBXX 45008 14121 99443 70824 46/// /1804 10054 30029 40247 56010 91150 22200 00063 10401 20401 70003 333 91205 555 11039 22040 61149 181037 183032 187038 182040 185038 183041
AAXX 14121 11816 11250 81206 10040 20030 39972 40137 58023 60001 71042 886// 333 86704 87705
AAXX 14121 11826 12460 81305 10055 20030 39938 40139 57028 60001 886// 333 88711
AAXX 14121 11903 11358 89901 10039 20036 39777 40161 57028 60001 71022 886// 333 88707
AAXX 14121 11934 12582 72607 10055 20009 39328 42765 57014 60001 85542 333 83623 83657
AAXX 14121 11968 11120 82104 10044 20038 39897 40181 57014 60001 71044 886// 333 88702
AAXX 14124 07005 01458 72614 10042 20030 39901 49991 53017 60061 78086 873// 333 60027 81910 86815 90710 91134 93100 555 60015
AAXX 14124 07015 01456 82818 10044 20029 39929 49986 51024 60051 76161 888// 333 60057 84810 83616 90710 91132 93100 555 60015
AAXX 14124 07020 06/// ///// 1//// 2//// 39974 4//// 6///1 333 6///7 555 6///5
AAXX 14124 07027 01575 52217 10067 20042 39937 40018 51023 60031 71687 82903 333 60017 82925 84069 90710 91129 93100 555 69965
AAXX 14124 07037 01570 62320 10075 20032 39828 40011 51018 69921 70286 86200 333 69927 84825 85831 90710 91133 93100 555 60005
AAXX 14124 07070 04570 62420 10089 20033 39904 40013 51018 60011 700// 333 69927 91031 90710 91133 555 69905
AAXX 14124 07110 01570 72516 10082 20036 39926 40041 50016 60011 70187 86931 333 69967 82926 83846 85359 90710 91125 93100 555 69905
AAXX 14124 07117 01468 62319 10064 20021 39955 40026 51020 60051 70198 84960 333 60017 91031 90710 91138 92457 555 60005
AAXX 14124 07130 04586 62511 10085 20037 30006 40058 51029 69921 700// 333 60007 90710 91126 555 60005
AAXX 14124 07139 01580 62520 10075 20018 39870 40044 51024 60011 70386 86202 333 60007 86820 90710 91130 93100 555 60005
AAXX 14124 07149 01581 72417 10083 20037 39925 40033 51022 69901 70386 86932 333 60007 85624 81933 83361 91031 90710 91142 555 60005
AAXX 14124 07168 01680 62325 10101 20029 39912 40053 51023 69901 70386 86830 333 60007 85833 91037 90710 91137 93100 555 60005
AAXX 14124 07181 04685 82423 10084 20038 39635 40041 51010 60011 700// 333 69947 91036 90710 91136 555 60005
AAXX 14124 07190 04686 72316 10114 20039 39862 40041 55001 69981 700// 333 69987 90710 91130 555 69925
AAXX 14124 07207 01457 72732 10108 20043 69941 70282 84910 222// 327// 333 60007 91047 90710 91154 92466 555 60005
AAXX 14124 07222 01680 52717 10107 20037 30053 40084 51027 69961 70386 85902 333 69907 83833 82940 90710 91133 555 69905
AAXX 14124 07240 04586 82319 10080 20046 39945 40081 51024 69961 700// 333 69907 91034 90710 91134 555 69905
AAXX 14124 07255 01575 72418 10095 20041 39894 40093 51018 69921 70186 878// 333 60007 84820 86640 91036 90710 91136 93100 555 60005
AAXX 14124 07280 04681 82219 10097 20039 39821 40092 51023 60021 700// 333 60027 90710 91136 555 60005
AAXX 14124 07299 01450 72418 10074 20059 39763 40091 53016 60041 79298 879// 333 60047 81810 83925 87640 91032 90710 91158 93100 555 60045
AAXX 14124 07314 01562 73328 10117 20039 30094 40122 53019 60011 76062 878// 333 69907 83820 84636 91040 90710 91150 555 69905
AAXX 14124 07335 01580 32514 10084 20053 39966 40111 53018 60041 72586 82332 333 60017 82920 90710 91124 93100 555 69945
AAXX 14124 07434 01480 72413 10081 20049 39654 40134 53017 60021 72586 878// 333 60017 85816 83633 90710 91132 93100 555 60015
AAXX 14124 07460 01680 62524 10110 20018 39723 40109 58003 60011 70186 82802 333 69907 81840 85073 91045 90710 91145 93100 555 60005
AAXX 14124 07471 01575 62706 10077 20028 39174 48765 50007 69941 70186 86500 333 69907 86630 90710 91124 93100 555 69905
AAXX 14124 07481 01556 62314 10108 20078 39850 40136 53015 60011 78086 86800 333 60017 83826 85843 85650 90710 91126 93100 555 60015
AAXX 14124 07510 01570 62619 10130 20049 30091 40156 50015 69941 71586 84830 333 60007 81830 84640 91031 90710 91131 93100 555 60005
AAXX 14124 07535 01560 82305 10105 20070 39851 40163 50010 69941 72586 885// 333 69927 84820 88623 90710 91117 93100 555 69905
AAXX 14124 07558 01565 72808 10075 20053 39333 40172 51007 69921 71561 875// 333 69927 87623 90710 91125 93100 555 69925
AAXX 14124 07577 01570 62201 10112 20065 30073 40162 58001 69901 70186 86800 333 69907 84820 85643 90710 91108 93100 555 60005
AAXX 14124 07591 04/// /1901 10038 20031 39146 4//// 58001 60021 761// 333 60027 90710 91107 555 69965
AAXX 14124 07607 01445 83010 10108 20092 30114 40186 51017 60051 78086 872// 333 60027 82810 86818 87822 90710 91117 555 69965
AAXX 14124 07627 01558 80304 10078 20042 39704 40197 51015 69901 76061 885// 333 69907 88620 90710 91108 93100 555 69905
AAXX 14124 07630 02470 82911 10122 20073 30005 40185 50013 60001 878// 333 60007 81811 86827 87650 90710 91117 93100 555 60005
AAXX 14124 07643 02680 42809 10155 20082 30153 40163 58005 60001 82501 333 60007 82633 83076 90710 91114 555 60005
AAXX 14124 07650 02570 72606 10137 20087 30124 40162 53003 60001 85502 333 60007 85623 84075 90710 91109 93100 555 60005
AAXX 14124 07661 02565 60204 10135 20107 39994 40154 58005 60001 86220 333 60007 83826 83358 90710 91110 555 60005
AAXX 14124 07690 02580 72303 10151 20071 30115 40148 58015 60001 82532 333 60007 82625 83358 87075 90710 91109 93100 555 60005
AAXX 14124 07747 02675 51503 10154 20082 30120 40173 50007 60001 84102 333 60007 84840 90710 91106 555 60005
AAXX 14124 07761 01275 80405 10147 20127 30174 40185 58008 60021 70186 878// 333 60017 81603 84820 86646 90710 91107 93100 555 60005
AAXX 14124 07790 02680 71503 10170 20089 30145 40159 58009 60001 81502 333 60007 81633 87076 90710 91107 93100 555 60005
AAXX 14124 78774 31570 83203 10226 20214 30007 40089 52006 71522 83520 333 10301 20221 30/// 56230 59001 83825 87461
AAXX 14124 78906 11480 11504 10252 20214 20111 40116 60002 702// 81400 333 10309 20222 59013 81819
AAXX 14124 65201 31915 60000 10326 20208 30080 40133 70522 80008 333 56000 58001 86280
AAXX 14124 68396 31659 60000 10246 20220 39399 48470 56016 76099 86900 333 10278 20240 555 91009
AAXX 14121 10836 01482 72111 10066 20039 39192 40049 58007 69901 70361 878// 333 31/// 55303 20568 30432 69907 86817 91123 91217
AAXX 14121 11423 01563 82306 10046 20034 39185 42690 55010 60011 76162 885// 333 69985 88630 91011 91120
AAXX 14121 11487 01786 79902 10109 20023 39449 40056 57021 60001 71422 81572 333 60005 81656 84362 85464 91111
AAXX 14121 11518 02688 62006 10106 20032 39620 40049 56022 60001 82844 333 60005 81833 85076 91111
AAXX 14121 11603 02481 71608 10061 20019 39573 40052 57033 60001 84578 333 60005 82613 84640 86361 91112
AAXX 14121 11659 01856 61306 10048 20029 39461 40100 58024 69931 71062 86050 333 60005 86357 91112
AAXX 14121 11723 01256 81405 10047 20029 39825 40125 58020 69911 72162 886// 333 69915 86706 88708
AAXX 14121 11782 02770 82306 10061 20030 39808 40113 58018 60001 8253/ 333 60005 82656 88359
AAXX 14121 02741 47478 72109 10054 20029 39910 49926 54001 70000 85/// 91139
AAXX 14121 02755 47382 51606 10015 20007 39829 49924 52011 70076 85/// 91139
AAXX 14121 02805 47421 81606 11001 21012 39775 49906 57011 76786 88/// 91139
AAXX 14121 02807 47350 71405 10002 21004 39729 49909 767// 87/// 91200
AAXX 14121 02836 47234 81404 10002 20000 39683 49903 57011 77187 88/// 91139
AAXX 14121 02845 47115 81406 11002 21002 39655 49900 57004 77174 88/// 91139
AAXX 14121 02849 47337 81505 11003 21008 39665 49937 57009 77187 88/// 91139
AAXX 14121 02866 47242 81705 10005 20005 39782 49931 52002 77476 88/// 91139
AAXX 14121 02897 47370 81804 10006 20000 39779 49960 700// 88/// 91200
AAXX 14121 02913 47460 71606 10027 20015 39853 49904 781// 87///
AAXX 14121 02924 47365 71702 10019 20019 39743 49938 52008 70076 87/// 91139
AAXX 14121 02926 47469 41604 10040 20029 39915 49927 52005 700// 84/// 91200
AAXX 14121 02935 47359 71503 10017 20016 39788 49960 52008 71076 87/// 91139
AAXX 14121 02939 47247 71705 10004 20003 39823 40017 54000 77187 87/// 91139
AAXX 14121 02944 47470 81703 10034 20025 39808 49953 700// 88/// 91200
AAXX 14121 02947 47265 71503 10022 20021 49994 52007 70080 87/// 91151
AAXX 14121 02963 42570 62005 10036 20024 49958 51008 70211 81362
AAXX 14121 02974 47474 72008 10053 20035 39923 49989 52010 70082 87/// 91139
AAXX 14121 02976 46/// /2008 10047 20040 39992 40008 52011 91139
AAXX 14121 02981 47567 32115 10065 20037 39942 49952 52005 70000 83/// 91139
AAXX 14121 02982 46/// /2213 10069 20039 39960 49968 52008 91139
AAXX 14121 02917 NIL
AAXX 14124 78906 11480 11504 10252 20214 20111 40116 60002 702// 81400 333 10309 20222 59013 81819
AAXX 14124 78774 31570 83203 10226 20214 30007 40089 52006 71522 83520 333 10301 20221 30/// 56230 59001 83825 87461
AAXX 14124 78774 31570 83203 10226 20214 30007 40089 52006 71522 83520 333 10301 20221 30/// 56230 59001 83825 87461
AAXX 14124 78906 11480 11504 10252 20214 20111 40116 60002 702// 81400 333 10309 20222 59013 81819
AAXX 14124 81401 06/// /0000 10250 20232 30102 40108 60074 333 20229 60007 59015 555 60005
AAXX 14124 81408 06/// /3001 10262 2//// 30098 40106 69984 333 20233 60007 59002 555 60005
BBXX VAAZ 14124 99548 70530 46/// /2821 11049 21095 40176 57004 7//// 8//// 22281 0//// 2////
BBXX CGJV 14124 99447 70636 46/// /3514 10009 21021 40250 51033 7//// 8//// 22200 00070 2////
BBXX CGDG 14124 99447 70636 46/// /3606 10009 20009 40254 53024 7//// 8//// 22200 0//// 2////
BBXX VAAP 14124 99446 70636 46/// /3623 10012 21015 40235 51033 7//// 8//// 22272 0//// 2////
BBXX VRYO3 14124 99496 70076 46/// /2619 10096 20105 49999 52022 7//// 8//// 22224 00118 2////
BBXX CG2960 14124 99447 70813 46/// /1209 10022 20000 40259 55009 7//// 8//// 22200 0//// 2////
BBXX VCRG 14124 99474 70619 46/// /0317 11006 21062 40288 51019 7//// 8//// 22200 0//// 2////
BBXX CG2350 14124 99433 70798 46/// /2402 10039 20014 40272 56008 7//// 8//// 22200 0//// 2////
BBXX C6SI6 14124 99337 11373 46/// /3312 10151 20035 40196 52006 7//// 8//// 22253 0//// 2////
BBXX CZ9742 14124 99506 70969 46/// /2006 11033 21034 40122 56018 7//// 8//// 22200 0//// 2////
BBXX CGDR 14124 99505 71277 46/// /0607 10045 20045 40166 58002 7//// 8//// 22200 0//// 2////
AAXX 14124 81401 06/// /0000 10250 20232 30102 40108 60074 333 20229 60007 59015 555 60005
AAXX 14124 81408 06/// /3001 10262 2//// 30098 40106 69984 333 20233 60007 59002 555 60005
AAXX 14124 86011 32870 41615 10244 20153 39966 40127 52012 84030 333 20230 5//// 84358
AAXX 14124 86033 02870 31808 10260 20144 30032 40127 52020 60014 83080 333 2//// 5//// 70011 83357
AAXX 14124 86065 32970 12308 10220 20154 39906 40146 52010 80004 333 20170 5//// 81070
AAXX 14124 86068 32970 01804 10230 20163 39948 40141 52025 333 20186 50904
AAXX 14124 86086 32970 31803 10250 20187 30026 40116 52005 80001 333 20226 5//// 83270
AAXX 14124 86097 01565 41812 10208 20102 39473 40118 52009 60034 70511 81836 333 20176 50554 70031 81827 83357 84270
AAXX 14124 86128 32970 02005 10234 20164 30009 40122 53007 333 20162 5////
AAXX 14124 86134 32970 11805 10240 20134 30029 40116 52011 80005 333 20168 51104 81270
AAXX 14124 86170 32970 02604 10236 20123 30001 40103 50002 333 20135 50804
AAXX 14124 86185 32970 00000 10230 20162 30023 40117 57004 333 20144 5////
AAXX 14124 86192 32970 01408 10252 20168 39911 40129 52004 333 20160 5////
AAXX 14124 86210 02970 42313 10214 20115 39741 40083 51009 60224 84030 333 20169 50454 70215 84360
AAXX 14124 86218 32970 02606 10236 20118 30018 40114 52009 333 20146 51224
AAXX 14124 86221 32970 00000 10234 20139 30002 40137 51003 333 20156 50754
AAXX 14124 86233 32970 03603 10226 20148 39924 40113 54000 333 20138 5////
AAXX 14124 86234 31965 01702 10214 20154 39881 40065 53005 70400 333 20135 50074
AAXX 14124 86246 32870 12310 10244 20131 39818 40102 52016 81030 333 20110 5//// 82357
AAXX 14124 86251 32970 02704 10220 20119 39936 40104 53025 333 20154 5////
AAXX 14124 86255 32970 02304 10230 20142 30056 40124 51004 333 20174 50904
AAXX 14124 86260 32970 00000 10224 20168 39946 40098 52007 333 20168 50804
AAXX 14124 86268 32970 00802 10214 20141 39945 40110 52003 333 20162 5////
AAXX 14124 86285 32970 02708 10210 20140 39818 40104 53008 333 20172 50664
AAXX 14124 86297 32970 02705 10234 20162 39979 40083 58007 333 20165 50804
BBXX VOPP 14124 99456 70735 46/// /0307 10000 20001 4//// 5//// 7//// 8//// 22200 0//// 2////
BBXX VOKF 14124 99455 70735 46/// /0104 10006 20000 4//// 5//// 7//// 8//// 22200 0//// 2////
BBXX VOKJ 14124 99472 70707 46/// /0407 11003 21029 40305 53001 7//// 8//// 22254 0//// 2////
BBXX VCBW 14124 99502 70607 46/// /3510 11144 21173 40293 55000 7//// 8//// 22200 0//// 2////
BBXX CG2958 14124 99488 71230 46/// /1004 10054 20020 40219 50004 7//// 8//// 22200 0//// 2////
BBXX CGDT 14124 99490 70669 46/// /2005 11046 21066 40308 53002 7//// 8//// 22200 0//// 2////
BBXX CGDX 14124 99468 70712 46/// /0508 10008 21019 40307 53004 7//// 8//// 22200 0//// 2////
BBXX CGTF 14124 99476 70527 46/// /3003 11030 21089 40239 58007 7//// 8//// 22200 0//// 2////
BBXX 3FZK3 14124 99538 71747 46/// /1920 10014 21017 49806 53047 7//// 8//// 22223 0//// 2////
BBXX CGBY 14124 99487 71235 46/// /2503 10022 20005 40212 53005 7//// 8//// 22200 0//// 2////
BBXX CGJK 14124 99484 71234 46/// /3603 10030 20010 40209 53006 7//// 8//// 22200 0//// 2////
BBXX CGBN 14124 99447 70636 46/// /3614 10015 21014 40238 53023 7//// 8//// 22200 0//// 2////
BBXX VCWL 14124 99460 70732 46/// /0307 10005 21001 40301 53005 7//// 8//// 22252 00051 2////
BBXX CGBR 14124 99541 71305 46/// /1001 10002 20001 40177 58008 7//// 8//// 22200 0//// 2////
BBXX VXKF 14124 99476 70591 46/// /0208 11070 21156 40270 53042 7//// 8//// 22281 0//// 2////
BBXX CG2965 14124 99487 71235 46/// /2504 10020 20003 40213 53004 7//// 8//// 22200 0//// 2////
BBXX VCSZ 14124 99477 70699 46/// /3505 11006 21007 40299 53002 7//// 8//// 22213 0//// 2////
BBXX CGCC 14124 99462 70729 46/// /0310 10003 21001 40297 51007 7//// 8//// 22211 00051 2////
BBXX VCLM 14124 99621 70747 46/// /2218 11041 21069 49880 55020 7//// 8//// 22200 0//// 2////
BBXX CGSB 14124 99468 70712 46/// /0507 10004 21022 40307 53003 7//// 8//// 22200 0//// 2////
AAXX 14121 01160 41789 8//// 10061 21013 39717 49734 70222 888//
AAXX 14121 01218 11787 61611 10090 21025 39632 49652 53009 60001 70320 82280 333 91123
AAXX 14121 01115 41470 71612 10053 21016 39685 49705 50002 70262 87500 333 91121
AAXX 14121 01492 41480 71805 10048 20025 39679 49793 53001 70282 8587/ 333 91112
AAXX 14124 78947 11576 11303 10275 20242 30117 40120 60002 705// 81230 333 01330 10303 20229 59012 81825
AAXX 14124 81225 11370 60000 10248 20236 40111 70264 83842 333 20/// 56299 59011 81808 85360
AAXX 14124 81200 12470 50000 10264 20232 40110 60004 84832 333 20/// 56299 59005 82812 83635
AAXX 14124 81202 12470 21303 10261 20233 40114 69904 81842 333 20235 56299 59005 81815
AAXX 14124 81209 NIL
AAXX 14124 81251 NIL
AAXX 14124 78947 11576 11303 10275 20242 30117 40120 60002 705// 81230 333 01330 10303 20229 59012 81825
AAXX 14124 81225 11370 60000 10248 20236 40111 70264 83842 333 20/// 56299 59011 81808 85360
AAXX 14124 81200 12470 50000 10264 20232 40110 60004 84832 333 20/// 56299 59005 82812 83635
AAXX 14124 81202 12470 21303 10261 20233 40114 69904 81842 333 20235 56299 59005 81815
AAXX 14124 81209 NIL
AAXX 14124 81251 NIL
AAXX 14124 89642 42982 62112 11029 21094 39826 49879 50001 80001 333 10024 21029 86066
BBXX DBLK 14121 99634 30000 41498 73205 11011 21020 49651 57017 71587 878// 22242 05019 ICE 36692
AAXX 14124 60285 31350 80408 10155 20146 40272 51014 70242 886// 333 88706
AAXX 14124 60340 NIL
AAXX 14124 60150 32960 10000 10161 20093 39618 40269 58001 81530 333 81620
AAXX 14124 60096 NIL
AAXX 14124 60101 NIL
AAXX 14124 60115 NIL
AAXX 14124 60135 NIL
AAXX 14124 60155 NIL
AAXX 14124 60156 NIL
AAXX 14124 60230 NIL
AAXX 14124 60252 NIL
AAXX 14121 11812 36/// /1208 10008 20008 39425 42735 57025
AAXX 14121 11813 11/00 90704 10025 20024 39781 40134 57024 60001 74544 333 89/00
AAXX 14121 11816 11250 81206 10040 20030 39972 40137 58023 60001 71042 886// 333 86704 87705
AAXX 14121 11819 36/// /1205 10045 20031 39922 40140 57029
AAXX 14121 11826 12460 81305 10055 20030 39938 40139 57028 60001 886// 333 88711
AAXX 14121 11841 11265 79901 10043 20034 39763 40142 57021 69901 70241 875// 333 82705 87625
AAXX 14121 11855 11359 81007 10049 20036 39978 40145 57028 60001 71022 886// 333 88709
AAXX 14121 11856 36/// /1210 10037 20026 39828 40150 57025
AAXX 14121 11858 11468 61605 10083 20045 39990 40141 58028 60001 70144 86800 333 83811 85630
AAXX 14121 11867 12566 71005 10060 20019 39827 40144 57022 60001 87500 333 85624 87631
AAXX 14121 11880 11320 81005 10050 20036 39985 40158 58027 60001 71022 886// 333 88706
AAXX 14121 11900 16/// /0903 10047 20028 39821 40158 57028 60001
AAXX 14121 11903 11358 89901 10039 20036 39777 40161 57028 60001 71022 886// 333 88707
AAXX 14121 11916 11/00 92123 11049 21060 37884 48397 58051 60001 74922 333 89/00 91127 93598
AAXX 14121 11918 12683 70904 10041 20006 39313 42749 57017 60001 82570 333 82646 86361
AAXX 14121 11927 11350 81003 10046 20034 39907 40172 57020 60001 71022 885// 333 84706 88618
AAXX 14121 11930 12/81 71808 11058 21072 37321 47995 57023 60001 83542 333 836// 444 36//9 36202
AAXX 14121 11933 12480 79902 10005 21009 38636 48453 56006 60001 86540 333 86610
AAXX 14121 11934 12582 72607 10055 20009 39328 42765 57014 60001 85542 333 83623 83657
AAXX 14121 11938 11240 82407 10021 20011 39091 42764 57018 60001 71022 886// 333 88705
AAXX 14121 11952 16/// /1708 10059 20018 39318 42764 57015 60001
AAXX 14121 11958 36/// /2013 11005 21009 38717 48450 57016
AAXX 14121 11968 11120 82104 10044 20038 39897 40181 57014 60001 71044 886// 333 88702
AAXX 14121 11976 11220 81603 10053 20046 39911 40177 58013 60001 71022 886// 333 88705
AAXX 14121 11978 11225 81604 10061 20052 30050 40181 57015 60001 71022 886// 333 88705
AAXX 14121 11993 11456 81803 10063 20052 39967 40185 57013 69901 71052 886// 333 88710
AAXX 14124 60060 32956 02803 10177 20122 40270 50015
AAXX 14124 60105 32450 61206 10152 20141 40281 55003 85830 333 82816 84620
AAXX 14124 60107 32965 30204 10193 20080 40266 50000 80002 333 83070 95300
AAXX 14124 60127 32965 20000 10165 20099 39676 40269 58002 80002 333 82073
AAXX 14124 60141 32560 20000 10162 20094 39608 40270 50000 81530 333 81630
AAXX 14124 60185 32970 00807 10179 20115 40284 50001
AAXX 14124 60191 32970 00000 10185 20077 40271 58001
AAXX 14124 60195 32965 12614 10137 21002 38593 48606 51008 81032 333 81360 95500
AAXX 14124 60210 32970 31604 10160 21021 39075 48598 58004 80002 333 83070
AAXX 14124 60265 32970 10000 10146 21037 38978 48601 58009 81080 333 81360
AAXX 14124 60106 NIL
AAXX 14124 60190 NIL
AAXX 14124 60220 NIL
AAXX 14124 60318 NIL
AAXX 14124 64500 11460 42408 10285 20242 30099 40112 69901 70196 84200 333 0//56 58009 84815 94912 95832
AAXX 14121 14528 11670 51404 10126 20046 39869 40162 58015 69911 70262 85500 333 85640
AAXX 14121 14537 12770 61404 10163 20051 39979 40161 58023 60001 82441 333 82650
AAXX 14121 14544 12670 61803 10134 20047 39533 40187 58010 60001 86500 333 86646
AAXX 14121 14557 12965 31801 10154 20044 39829 40188 58014 60001 82032 333 82360
AAXX 14121 14640 12560 71802 10093 20070 39354 48518 58011 60001 87800 333 83820 84633
BBXX 44039 14121 99411 70727 46/// /3405 10060 20011 40300 91145 22200 00101 10301 70003 333 91206
BBXX 41010 14121 99289 70785 46/// /0409 10212 40248 53005 91150 22200 00239 11006 20804 300// 41004 70029 333 91211 555 11093 22098
BBXX 41009 14121 99285 70802 46/// /0609 10225 20140 40248 53004 91150 22200 00247 11105 20603 300// 41104 70026 333 91211 555 11093 22098
BBXX 42057 14121 99168 70815 46/// /0411 10273 20211 40139 52008 91150 22200 00281 10805 20805 70024 333 91213 555 11112 22119 31103 40415 61149 038110 032114 040116 042120 037120 036123 80413 91056
BBXX 42362 14121 99278 70907 46/// /1111 10228 20178 40227 91145
AAXX 14121 76061 32970 00502 10094 20079 30133 40210 5//// 91140 333 10168 20080 30076 55020 58082 70010
AAXX 14121 76122 32556 72306 10102 20028 38507 40114 57002 82137 91150 333 10180 20093 30083 56559 58014 70029 82830 83347
AAXX 14121 76220 32820 50000 10076 20023 38127 40121 5//// 85070 91150 333 10160 20076 30058 55073 56050 58005 70025 85357
AAXX 14121 76225 32720 52501 10120 20001 38597 40083 54000 85020 91155 333 10259 20120 30080 56050 59008 70000 85357
AAXX 14121 76256 32960 63601 10150 20115 30174 40188 5//// 86070 91135 333 10223 20140 30/// 56/5/ 58033 70000 86357
AAXX 14121 76305 32970 63401 10150 20082 30170 40178 5//// 86030 91130 333 10243 20142 30131 56050 58033 70000 86358
AAXX 14121 76323 32910 41803 10090 20049 38249 40147 57013 80006 91145 333 10273 20085 30055 56005 59016 70000 84268
AAXX 14121 76373 32910 00000 10019 20010 38216 40163 5//// 91150 333 10240 20005 31010 59011 70000
AAXX 14121 76390 31950 22304 10137 20047 38224 401115 57005 70544 80005 91130 333 10254 20120 30110 56008 59022 70000 82070
AAXX 14121 76393 31202 81101 10158 20142 39562 40139 57009 70422 887// 91155 333 10196 20150 30138 569// 59050 70000 88707
AAXX 14121 76402 32950 20000 10122 20113 30131 40188 57001 82500 91145 333 10226 20112 30110 56400 58030 70005 82628
AAXX 14121 76423 32960 00000 10076 20054 38161 40146 57003 91155 333 10270 20072 30/// 59011 70000
AAXX 14121 76458 32960 03202 10182 20177 30150 40155 57004 91145 333 10276 20159 30158 59005 70000
AAXX 14121 76539 32658 83301 10097 20095 38181 40209 52004 88400 91150 333 10250 20066 30038 56700 59008 70000 88626
AAXX 14121 76556 32960 01201 10128 20100 39115 40137 57006 91130 333 10272 20125 30105 59010 70000
AAXX 14121 76577 32960 00000 10096 20082 38057 40166 51001 91140 333 10256 20090 30079 59006 70000
AAXX 14121 76581 32960 63501 10162 20132 39070 40175 5//// 86060 91150 333 10270 20148 30141 56030 59020 70000 86359
AAXX 14121 76585 32680 70000 10200 20194 30022 40179 52004 874// 91140 333 10278 20199 30190 55080 562// 59022 70000 87637
AAXX 14121 76625 32560 20902 10114 20084 38162 40142 57011 82400 91140 333 10274 20105 30095 56200 59003 70000 82625
AAXX 14121 76654 31956 03601 10214 20142 30140 40144 55000 70544 91150 333 10308 20214 30165 59015 70000
AAXX 14121 76658 31956 00903 10178 20109 39638 40146 57004 70540 80000 91145 333 10330 20170 30152 56000 59013 70000 98914
AAXX 14121 76662 32960 03401 10084 20066 38474 40171 57002 91145 333 10285 20072 30064 59012 70000
AAXX 14121 76665 32958 02201 10070 20034 38138 40182 54000 91150 333 10274 20060 30050 59004 70000
AAXX 14121 76675 32960 01601 11001 21028 37393 40231 57005 91150 333 10225 21014 31040 59008 70000
AAXX 14121 76680 31956 03200 10096 20022 37768 40116 57003 70444 91150 333 10254 20080 30070 59011 70000
AAXX 14121 76683 32962 00301 10046 20031 37849 40226 56005 91145 333 10243 20046 30015 50271 55105 21948 59011 70000
AAXX 14121 76685 32950 00000 10064 20053 37885 40176 57011 91158 333 10242 20062 30042 59001 70000
AAXX 14121 76687 31462 10000 10116 20108 38708 40204 56003 70100 81500 91135 333 10235 20108 30100 563// 59008 79999 81620
AAXX 14121 76692 31/02 92401 10192 20190 30171 40190 55001 74740 91145 333 10274 20190 30190 59010 70000
AAXX 14121 76737 32980 00000 10113 20092 38803 40197 56004 91135 333 10243 20113 30090 59009 70000 91102 91529
AAXX 14121 76743 01450 80501 10226 20190 30166 40174 55004 60011 70252 82150 91145 333 10280 20226 30220 5610/ 59017 60017 70010 82815 86356
AAXX 14121 76750 01560 73202 10214 20204 30164 40174 5//// 69961 75152 87600 91150 333 10311 20206 30202 56100 59020 69967 70006 87720
AAXX 14121 76773 32956 00000 10063 20048 38441 40170 52002 91147 333 10279 20051 30030 50431 55101 59008 70000
AAXX 14121 76775 31960 00601 10073 20039 38549 40206 52001 70200 91145 333 10275 20069 30/// 59003 70000
AAXX 14121 76833 32965 03610 10264 20161 30128 40130 57004 91155 333 10324 20252 30244 59008 70000 92023
AAXX 14121 76840 32901 00205 10254 20176 30077 40133 5//// 91145 333 10335 20190 30/// 59005 70000
AAXX 14121 76843 32965 00000 10175 20161 39518 40164 52020 91132 333 10297 20172 30165 59012 70000
AAXX 14121 76845 32240 60000 10122 20108 37958 40185 5//// 86600 91150 333 10170 20095 30084 56200 59013 70000 86707
AAXX 14121 76848 11260 70501 10131 20117 38395 40126 56001 69901 75652 87700 91150 333 10204 20130 30119 56100 59008 70004 87706
AAXX 14121 76243 11364 82401 10156 20150 39855 40149 57003 60021 75052 887// 91140 333 10170 20144 30132 563// 59059 70020 88709
AAXX 14121 76311 32620 70000 10173 20157 39887 40164 54000 87600 91155 333 10232 20171 30165 56400 58012 70000 87625
AAXX 14121 76405 32840 60000 10189 20162 30159 40181 52003 86050 91150 333 10252 20188 30184 56050 58019 70000 86356
AAXX 14121 76412 32960 82202 10174 20148 30138 40184 57002 88050 91145 333 10290 20170 30/// 56050 58006 70000 88356
AAXX 14121 76640 31010 70000 10208 20205 30166 40178 57025 70222 8472/ 91145 333 10272 20202 30200 5699/ 59045 79999 84701 83445
AAXX 14121 76647 31810 13601 10200 20197 30164 40194 53004 74244 81030 91150 333 10314 20190 30172 560/0 58018 70000 81358
AAXX 14121 76741 31240 40403 10233 20218 30142 40161 52000 70542 84200 91135 333 10274 20215 30205 561// 58000 70000 84806
AAXX 14121 76855 32980 03602 10210 20180 30072 40122 55000 91150 333 10335 20204 30200 59004 70000 92000
AAXX 14121 76061 32970 00502 10094 20079 30133 40210 5//// 91140 333 10168 20080 30076 55020 58082 70010
AAXX 14121 76122 32556 72306 10102 20028 38507 40114 57002 82137 91150 333 10180 20093 30083 56559 58014 70029 82830 83347
AAXX 14121 76220 32820 50000 10076 20023 38127 40121 5//// 85070 91150 333 10160 20076 30058 55073 56050 58005 70025 85357
AAXX 14121 76225 32720 52501 10120 20001 38597 40083 54000 85020 91155 333 10259 20120 30080 56050 59008 70000 85357
AAXX 14121 76256 32960 63601 10150 20115 30174 40188 5//// 86070 91135 333 10223 20140 30/// 56/5/ 58033 70000 86357
AAXX 14121 76305 32970 63401 10150 20082 30170 40178 5//// 86030 91130 333 10243 20142 30131 56050 58033 70000 86358
AAXX 14121 76323 32910 41803 10090 20049 38249 40147 57013 80006 91145 333 10273 20085 30055 56005 59016 70000 84268
AAXX 14121 76373 32910 00000 10019 20010 38216 40163 5//// 91150 333 10240 20005 31010 59011 70000
AAXX 14121 76390 31950 22304 10137 20047 38224 401115 57005 70544 80005 91130 333 10254 20120 30110 56008 59022 70000 82070
AAXX 14121 76393 31202 81101 10158 20142 39562 40139 57009 70422 887// 91155 333 10196 20150 30138 569// 59050 70000 88707
AAXX 14121 76402 32950 20000 10122 20113 30131 40188 57001 82500 91145 333 10226 20112 30110 56400 58030 70005 82628
AAXX 14121 76423 32960 00000 10076 20054 38161 40146 57003 91155 333 10270 20072 30/// 59011 70000
AAXX 14121 76458 32960 03202 10182 20177 30150 40155 57004 91145 333 10276 20159 30158 59005 70000
AAXX 14121 76539 32658 83301 10097 20095 38181 40209 52004 88400 91150 333 10250 20066 30038 56700 59008 70000 88626
AAXX 14121 76556 32960 01201 10128 20100 39115 40137 57006 91130 333 10272 20125 30105 59010 70000
AAXX 14121 76577 32960 00000 10096 20082 38057 40166 51001 91140 333 10256 20090 30079 59006 70000
AAXX 14121 76581 32960 63501 10162 20132 39070 40175 5//// 86060 91150 333 10270 20148 30141 56030 59020 70000 86359
AAXX 14121 76585 32680 70000 10200 20194 30022 40179 52004 874// 91140 333 10278 20199 30190 55080 562// 59022 70000 87637
AAXX 14121 76625 32560 20902 10114 20084 38162 40142 57011 82400 91140 333 10274 20105 30095 56200 59003 70000 82625
AAXX 14121 76654 31956 03601 10214 20142 30140 40144 55000 70544 91150 333 10308 20214 30165 59015 70000
AAXX 14121 76658 31956 00903 10178 20109 39638 40146 57004 70540 80000 91145 333 10330 20170 30152 56000 59013 70000 98914
AAXX 14121 76662 32960 03401 10084 20066 38474 40171 57002 91145 333 10285 20072 30064 59012 70000
AAXX 14121 76665 32958 02201 10070 20034 38138 40182 54000 91150 333 10274 20060 30050 59004 70000
AAXX 14121 76675 32960 01601 11001 21028 37393 40231 57005 91150 333 10225 21014 31040 59008 70000
AAXX 14121 76680 31956 03200 10096 20022 37768 40116 57003 70444 91150 333 10254 20080 30070 59011 70000
AAXX 14121 76683 32962 00301 10046 20031 37849 40226 56005 91145 333 10243 20046 30015 50271 55105 21948 59011 70000
AAXX 14121 76685 32950 00000 10064 20053 37885 40176 57011 91158 333 10242 20062 30042 59001 70000
AAXX 14121 76687 31462 10000 10116 20108 38708 40204 56003 70100 81500 91135 333 10235 20108 30100 563// 59008 79999 81620
AAXX 14121 76692 31/02 92401 10192 20190 30171 40190 55001 74740 91145 333 10274 20190 30190 59010 70000
AAXX 14121 76737 32980 00000 10113 20092 38803 40197 56004 91135 333 10243 20113 30090 59009 70000 91102 91529
AAXX 14121 76743 01450 80501 10226 20190 30166 40174 55004 60011 70252 82150 91145 333 10280 20226 30220 5610/ 59017 60017 70010 82815 86356
AAXX 14121 76750 01560 73202 10214 20204 30164 40174 5//// 69961 75152 87600 91150 333 10311 20206 30202 56100 59020 69967 70006 87720
AAXX 14121 76773 32956 00000 10063 20048 38441 40170 52002 91147 333 10279 20051 30030 50431 55101 59008 70000
AAXX 14121 76775 31960 00601 10073 20039 38549 40206 52001 70200 91145 333 10275 20069 30/// 59003 70000
AAXX 14121 76833 32965 03610 10264 20161 30128 40130 57004 91155 333 10324 20252 30244 59008 70000 92023
AAXX 14121 76840 32901 00205 10254 20176 30077 40133 5//// 91145 333 10335 20190 30/// 59005 70000
AAXX 14121 76843 32965 00000 10175 20161 39518 40164 52020 91132 333 10297 20172 30165 59012 70000
AAXX 14121 76845 32240 60000 10122 20108 37958 40185 5//// 86600 91150 333 10170 20095 30084 56200 59013 70000 86707
AAXX 14121 76848 11260 70501 10131 20117 38395 40126 56001 69901 75652 87700 91150 333 10204 20130 30119 56100 59008 70004 87706
AAXX 14121 76243 11364 82401 10156 20150 39855 40149 57003 60021 75052 887// 91140 333 10170 20144 30132 563// 59059 70020 88709
AAXX 14121 76311 32620 70000 10173 20157 39887 40164 54000 87600 91155 333 10232 20171 30165 56400 58012 70000 87625
AAXX 14121 76405 32840 60000 10189 20162 30159 40181 52003 86050 91150 333 10252 20188 30184 56050 58019 70000 86356
AAXX 14121 76412 32960 82202 10174 20148 30138 40184 57002 88050 91145 333 10290 20170 30/// 56050 58006 70000 88356
AAXX 14121 76640 31010 70000 10208 20205 30166 40178 57025 70222 8472/ 91145 333 10272 20202 30200 5699/ 59045 79999 84701 83445
AAXX 14121 76647 31810 13601 10200 20197 30164 40194 53004 74244 81030 91150 333 10314 20190 30172 560/0 58018 70000 81358
AAXX 14121 76741 31240 40403 10233 20218 30142 40161 52000 70542 84200 91135 333 10274 20215 30205 561// 58000 70000 84806
AAXX 14121 76855 32980 03602 10210 20180 30072 40122 55000 91150 333 10335 20204 30200 59004 70000 92000
AAXX 14121 76061 32970 00502 10094 20079 30133 40210 5//// 91140 33310168 20080 30076 55020 58082 70010
AAXX 14121 76122 32556 72306 10102 20028 38507 40114 57002 82137 91150333 10180 20093 30083 56559 58014 70029 82830 83347
AAXX 14121 76220 32820 50000 10076 20023 38127 40121 5//// 85070 91150333 10160 20076 30058 55073 56050 58005 70025 85357
AAXX 14121 76225 32720 52501 10120 20001 38597 40083 54000 85020 91155333 10259 20120 30080 56050 59008 70000 85357
AAXX 14121 76256 32960 63601 10150 20115 30174 40188 5//// 86070 91135333 10223 20140 30/// 56/5/ 58033 70000 86357
AAXX 14121 76305 32970 63401 10150 20082 30170 40178 5//// 86030 91130333 10243 20142 30131 56050 58033 70000 86358
AAXX 14121 76323 32910 41803 10090 20049 38249 40147 57013 80006 91145333 10273 20085 30055 56005 59016 70000 84268
AAXX 14121 76373 32910 00000 10019 20010 38216 40163 5//// 91150 33310240 20005 31010 59011 70000
AAXX 14121 76390 31950 22304 10137 20047 38224 401115 57005 70544 80005 91130 333 10254 20120 30110 56008 59022 70000 82070
AAXX 14121 76393 31202 81101 10158 20142 39562 40139 57009 70422 887//91155 333 10196 20150 30138 569// 59050 70000 88707
AAXX 14121 76402 32950 20000 10122 20113 30131 40188 57001 82500 91145333 10226 20112 30110 56400 58030 70005 82628
AAXX 14121 76423 32960 00000 10076 20054 38161 40146 57003 91155 33310270 20072 30/// 59011 70000
AAXX 14121 76458 32960 03202 10182 20177 30150 40155 57004 91145 33310276 20159 30158 59005 70000
AAXX 14121 76539 32658 83301 10097 20095 38181 40209 52004 88400 91150333 10250 20066 30038 56700 59008 70000 88626
AAXX 14121 76556 32960 01201 10128 20100 39115 40137 57006 91130 33310272 20125 30105 59010 70000
AAXX 14121 76577 32960 00000 10096 20082 38057 40166 51001 91140 33310256 20090 30079 59006 70000
AAXX 14121 76581 32960 63501 10162 20132 39070 40175 5//// 86060 91150333 10270 20148 30141 56030 59020 70000 86359
AAXX 14121 76585 32680 70000 10200 20194 30022 40179 52004 874// 91140333 10278 20199 30190 55080 562// 59022 70000 87637
AAXX 14121 76625 32560 20902 10114 20084 38162 40142 57011 82400 91140333 10274 20105 30095 56200 59003 70000 82625
AAXX 14121 76654 31956 03601 10214 20142 30140 40144 55000 70544 91150333 10308 20214 30165 59015 70000
AAXX 14121 76658 31956 00903 10178 20109 39638 40146 57004 70540 8000091145 333 10330 20170 30152 56000 59013 70000 98914
AAXX 14121 76662 32960 03401 10084 20066 38474 40171 57002 91145 33310285 20072 30064 59012 70000
AAXX 14121 76665 32958 02201 10070 20034 38138 40182 54000 91150 33310274 20060 30050 59004 70000
AAXX 14121 76675 32960 01601 11001 21028 37393 40231 57005 91150 33310225 21014 31040 59008 70000
AAXX 14121 76680 31956 03200 10096 20022 37768 40116 57003 70444 91150333 10254 20080 30070 59011 70000
AAXX 14121 76683 32962 00301 10046 20031 37849 40226 56005 91145 33310243 20046 30015 50271 55105 21948 59011 70000
AAXX 14121 76685 32950 00000 10064 20053 37885 40176 57011 91158 33310242 20062 30042 59001 70000
AAXX 14121 76687 31462 10000 10116 20108 38708 40204 56003 70100 8150091135 333 10235 20108 30100 563// 59008 79999 81620
AAXX 14121 76692 31/02 92401 10192 20190 30171 40190 55001 74740 91145333 10274 20190 30190 59010 70000
AAXX 14121 76737 32980 00000 10113 20092 38803 40197 56004 91135 33310243 20113 30090 59009 70000 91102 91529
AAXX 14121 76743 01450 80501 10226 20190 30166 40174 55004 60011 7025282150 91145 333 10280 20226 30220 5610/ 59017 60017 7001082815 86356
AAXX 14121 76750 01560 73202 10214 20204 30164 40174 5//// 69961 7515287600 91150 333 10311 20206 30202 56100 59020 69967 7000687720
AAXX 14121 76773 32956 00000 10063 20048 38441 40170 52002 91147 33310279 20051 30030 50431 55101 59008 70000
AAXX 14121 76775 31960 00601 10073 20039 38549 40206 52001 70200 91145333 10275 20069 30/// 59003 70000
AAXX 14121 76833 32965 03610 10264 20161 30128 40130 57004 91155 33310324 20252 30244 59008 70000 92023
AAXX 14121 76840 32901 00205 10254 20176 30077 40133 5//// 91145 33310335 20190 30/// 59005 70000
AAXX 14121 76843 32965 00000 10175 20161 39518 40164 52020 91132 33310297 20172 30165 59012 70000
AAXX 14121 76845 32240 60000 10122 20108 37958 40185 5//// 86600 91150333 10170 20095 30084 56200 59013 70000 86707
AAXX 14121 76848 11260 70501 10131 20117 38395 40126 56001 69901 7565287700 91150 333 10204 20130 30119 56100 59008 70004 87706
AAXX 14121 76243 11364 82401 10156 20150 39855 40149 57003 60021 75052887// 91140 333 10170 20144 30132 563// 59059 70020 88709
AAXX 14121 76311 32620 70000 10173 20157 39887 40164 54000 87600 91155333 10232 20171 30165 56400 58012 70000 87625
AAXX 14121 76405 32840 60000 10189 20162 30159 40181 52003 86050 91150333 10252 20188 30184 56050 58019 70000 86356
AAXX 14121 76412 32960 82202 10174 20148 30138 40184 57002 88050 91145333 10290 20170 30/// 56050 58006 70000 88356
AAXX 14121 76640 31010 70000 10208 20205 30166 40178 57025 70222 8472/91145 333 10272 20202 30200 5699/ 59045 79999 84701 83445
AAXX 14121 76647 31810 13601 10200 20197 30164 40194 53004 74244 8103091150 333 10314 20190 30172 560/0 58018 70000 81358
AAXX 14121 76741 31240 40403 10233 20218 30142 40161 52000 70542 8420091135 333 10274 20215 30205 561// 58000 70000 84806
AAXX 14121 76855 32980 03602 10210 20180 30072 40122 55000 91150 33310335 20204 30200 59004 70000 92000
AAXX 14121 45032 36/// /1701 10180 20117 30176 40193 52001
AAXX 14121 45035 36/// /0103 10193 20107 30149 40191 52001
AAXX 14121 45039 36/// /3402 10195 20112 30174 40188 52001
AAXX 14121 45044 36/// /0102 10184 20119 30098 40191 52004
BBXX VOLG 14124 99/// ///// 46/// /0213 10012 21015 40248 53025 7//// 8//// 22200 0//// 2////
AAXX 14121 45032 36/// /1701 10180 20117 30176 40193 52001
AAXX 14121 45035 36/// /0103 10193 20107 30149 40191 52001
AAXX 14121 45039 36/// /3402 10195 20112 30174 40188 52001
AAXX 14121 45044 36/// /0102 10184 20119 30098 40191 52004
AAXX 14121 45007 12656 70402 10197 20110 30183 40193 51014 60002 8153/ 333 10210 58006 81640 86362
AAXX 14124 78583 32470 33304 10212 20208 40168 60001 83800 333 01100 10287 20/ / / 59012 81816 83640
AAXX 14124 87692 11558 21411 10182 20141 30176 40200 51003 69904 70521 81130 333 10182 20165 56550 81820 555 10200 60232 64088 65055 71627 74064 89181
AAXX 14124 17600 12580 32004 10198 20105 30186 40195 58015 60001 81182 333 81830 83362 92428
AAXX 14124 17601 12681 31203 10187 20057 30161 40192 57019 60001 81571 91150 333 81640 83366
AAXX 14124 17607 42980 60901 10167 20094 30006 40197 57015 86030 333 86365
AAXX 14124 17609 12565 70210 10179 20100 30191 40195 58017 60001 8488/ 333 82825 83630 87366
AAXX 14121 45007 12656 70402 10197 20110 30183 40193 51014 60002 8153/ 333 10210 58006 81640 86362
AAXX 14124 78583 32470 33304 10212 20208 40168 60001 83800 333 01100 10287 20/ / / 59012 81816 83640
BBXX 42363 14121 99282 70892 46/// /1213 10217 20150 40241 56006 91200 333 91213
BBXX 42364 14121 99291 70881 46/// /1309 10206 20161 40247 55004 91200
BBXX 44011 14121 99411 70666 46/// /0110 10064 20022 40233 53019 91150 22200 00103 10605 20605 3//// 41002 70024 333 91212 555 11100 22105 31106 42012 61149 011093 007098 013093 013094 009097 010098
BBXX 41046 14121 99238 70683 46/// /0311 10245 20186 40154 53016 91150 22200 00261 11106 20705 300// 41103 70030 333 91213 555 11112 22118 31121 40215 61149 025106 022116 024114 027106 026111 025112 80213 91135
AAXX 14124 71805 02789 60419 11037 21099 30235 40244 51011 60001 81501 333 60007 81650 86080 90710 91131 93100 555 60005
BBXX 46089 14121 99459 71258 46/// /1403 10076 20023 40199 56005 91150 22200 00095 11405 330// 41405 70023 333 91204 555 11031 22032 31110 41405 61149 142030 143029 154027 153026 145026 143025
BBXX 46042 14121 99368 71224 46/// /3605 10107 40222 51013 91150 22200 00116 11003 20401 330// 41003 70013 333 91205 555 11047 22049 31130 43606 61149 004044 004045 003044 003041 009038 006042
BBXX 51101 14121 99243 71621 46/// /1307 10235 20202 40174 58010 91150 22200 00242 11105 20602 311// 41104 70023 333 91209 555 11073 22077 31146 41309 61149 133068 127065 130066 128069 134070 131063
BBXX 46061 14121 99602 71468 46/// /1210 10041 40046 56015 91150 22200 00061 11103 20503 300// 41101 70015 333 91212 555 11106 22112 31104 41012 61149 120098 119086 097082 093096 094101 099101
BBXX 46083 14121 99582 71380 46/// /1707 10041 20011 40128 54000 91150 22200 00063 11205 20502 300// 41204 70023 333 91208 555 11069 22074 31136 41709 61149 166066 173073 166052 164045 175048 183044 81708 91136
BBXX 44060 14121 99413 70721 46/// ///06 10038 40286 51010 91200 22200 00107 333 91207 555 11062 22067
BBXX 44008 14121 99405 70692 46/// /0109 10081 20035 40251 52014 91150 22200 00117 555 11099 22104
BBXX 44172 14121 99445 70634 46/// ///// 1//// 91201 22200 00068 10403 20402 318// 41101 70013
AAXX 14124 61968 16/// /2904 10291 20235 40101 69941 333 58012 90710 91112 555 60005
AAXX 14124 61970 16/// ///// 10322 20258 40102 60001 333 58004 555 60005
AAXX 14124 61980 12565 60913 10285 20210 40111 60001 85832 333 58011 83825 85643 90710 91120 92437 555 60005
AAXX 14124 67005 11465 82510 10295 20227 40104 60011 72582 8637/ 333 58010 81918 85822 85358 90710 91114 555 69905
BBXX 44098 14121 99428 70702 46/// ///// 1//// 91137 22200 00092 10603 20603 311// 41101 70016
AAXX 14121 89061 179// 03205 10004 20004 39938 49944 52026 69982 77177 333 10014 20001 91006 91109
AAXX 14124 78948 11578 30507 10267 20241 30109 40117 60001 70500 83230 333 01220 10307 20247 59013 83825
BBXX 51000 14121 99235 71541 46/// /0909 10227 40193 56011 91150 22200 00233 10905 20603 311// 40904 70025 333 91210 555 11092 22097 31134 40911 61149 093086 091089 094085 095086 095088 097085
AAXX 14124 63705 31565 82212 10217 20182 38860 48515 75065 8492/ 333 58029 84621 81923 88463 555 10192
BBXX 46232 14121 99325 71174 46/// ///// 1//// 91138 22200 00148 11302 21002 320// 41302 70012
BBXX 46247 14121 99378 71228 46/// ///// 1//// 91151 22200 00111 11302 20802 327// 41301 70012
BBXX 46229 14121 99438 71246 46/// ///// 1//// 91151 22200 00102 11304 21002 329// 41303 70019
BBXX 46225 14121 99329 71174 46/// ///// 1//// 91144 22200 00155 11302 20602 324// 41301 70010
BBXX 46215 14121 99352 71209 46/// ///// 1//// 91138 22200 00130 11103 21002 329// 41101 70013
BBXX 46218 14121 99345 71208 46/// ///// 1//// 91202 22200 00140 11104 21003 332// 41102 70019
BBXX 44100 14121 99363 70756 46/// ///// 1//// 91152 22200 00133 11103 21003 311// 41101 70016
BBXX 41110 14121 99341 70777 46/// ///// 1//// 91151 22200 00141 11002 21002 312// 41101 70011
BBXX 42099 14121 99273 70842 46/// ///// 1//// 91157 22200 00234 10503 20503 70015
BBXX 41113 14121 99284 70805 46/// ///// 1//// 91151 22200 00223 11103 20902 309// 41101 70013
BBXX 41112 14121 99307 70813 46/// ///// 1//// 91151 22200 00164 11103 21002 310// 41101 70013
AAXX 14121 89061 179// 03205 10004 20004 39938 49944 52026 69982 77177 333 10014 20001 91006 91109
BBXX 51202 14121 99214 71577 46/// ///// 1//// 91139 22200 00245 11004 21004 308// 41101 70019
AAXX 14121 01062 11489 70607 11027 21042 39996 40009 57002 60001 70222 875// 333 91109
AAXX 14121 01205 46/// /1713 10073 20032 39561 49604 55001
AAXX 14124 91503 31475 60000 10258 20246 40069 53007 70522 81236 333 10321 56009 59025 81817 86280
AAXX 14124 91517 31480 71806 10256 20232 40080 52012 71522 82902 333 10322 56709 59010 81816 81918 85080
AAXX 14121 01359 16/// /2204 10009 21030 38848 49730 52006 60001 333 91112
AAXX 14121 01008 41585 31309 11034 21081 39995 40029 51006 70110 83501 333 91112
AAXX 14124 91503 31475 60000 10258 20246 40069 53007 70522 81236 333 10321 56009 59025 81817 86280
AAXX 14124 91517 31480 71806 10256 20232 40080 52012 71522 82902 333 10322 56709 59010 81816 81918 85080
BBXX 46224 14121 99332 71175 46/// ///// 1//// 91136 22200 00155 11402 21002 322// 41401 70010
BBXX 46214 14121 99379 71235 46/// ///// 1//// 91155 22200 00116 11503 20802 330// 41502 70014
AAXX 14124 48601 11560 70207 10289 20233 30077 40081 60001 70522 81541 333 10318 81625 87078
AAXX 14124 48615 11562 70106 10273 20237 30085 40091 60001 70522 81432 333 10298 81620 87074
AAXX 14124 48620 11462 72603 10281 20243 30074 40083 60001 71322 83938 333 10318 81917 83365 86276
AAXX 14124 48647 11458 70303 10261 20241 30064 40089 60001 71392 84942 333 10320 81710 81917 83364 87078
AAXX 14124 48650 11460 70000 10270 20244 30066 40084 60001 71322 82942 333 10310 81917 86078
AAXX 14124 48657 11560 70105 10269 20243 30068 40086 60041 70582 83441 333 10312 83624 84366
AAXX 14124 48665 11564 73103 10282 20251 30079 40089 69921 70598 81442 333 10314 81628 84364 86078
AAXX 14124 96413 11565 70000 10269 20246 30065 40091 60001 70222 82531 333 10310 82620 83365 86080
AAXX 14124 96421 11465 72602 10269 20244 30053 40088 60001 71322 84931 333 10324 81915 83618 85080
AAXX 14124 96441 11468 70000 10263 20246 30061 40088 60001 71322 83931 333 10317 82614 81915 83365 86080
AAXX 14124 96449 11465 70103 10271 20248 30069 40088 60001 71399 83971 333 10308 83614 81915 86365
AAXX 14124 96465 12470 70307 10283 20241 30058 40091 60001 83838 333 10307 82810 84364 87279
AAXX 14124 96471 12466 70401 10266 20244 30088 40091 60001 83848 333 10319 82814 83364 87277
AAXX 14124 96481 11462 70101 10250 20230 30070 40089 60171 70296 83841 333 10319 82817 83364 86080
AAXX 14124 96491 NIL
AAXX 14121 06206 45578 42312 10073 20014 39841 49893 51009 8//// 333 82/22 83/28 91013 91117 91215
AAXX 14121 06207 47576 62413 10068 20005 39845 49898 51005 70380 8//// 333 82/25 83/29 86/68 91014 91118 91215
AAXX 14121 06239 45571 6//15 10077 20013 3//// 4//// 5//// 8//// 333 83/24 84/28 85/36 91018 91122 91219
AAXX 14121 06252 46/// /2512 10077 20022 39857 49902 50004 222// 00098 10605 333 91014 91114 91212
AAXX 14121 06260 17482 82305 10056 20034 39943 49945 51019 60051 70365 8//// 333 81/14 88/60 91007 91108 91205
AAXX 14121 06270 17450 72205 10042 20030 39924 49924 52012 60011 78250 8//// 333 81/12 83/18 86/27 91008 91112 91208
AAXX 14121 06290 17381 72205 10047 20033 39908 49948 51018 60101 70286 8//// 333 82/08 84/09 87/11 91009 91110 91206
AAXX 14121 06201 47567 32312 10067 20016 39817 49868 51008 78185 8//// 333 82/24 83/31 91014 91117 91214
AAXX 14121 06203 45580 8//11 10083 20026 39873 49924 51010 8//// 333 81/23 88/67 91012 91116 91214
AAXX 14121 06204 47583 32511 10080 20013 39864 49914 51004 70185 8//// 333 81/25 83/70 91015 91116 91213
AAXX 14121 06205 45573 42217 10070 20012 39779 49836 51012 8//// 333 82/26 84/31 91020 91124 91220
AAXX 14121 06208 47581 72108 10058 20033 39867 49916 51009 72380 8//// 333 81/22 83/39 85/48 91010 91115 91213
AAXX 14121 06211 47577 52313 10067 20014 39831 49886 51003 701// 8//// 333 83/20 85/24 85/29 91016 91118 91215
AAXX 14121 06212 47581 82411 1//// 2//// 39851 49913 51008 70380 8//// 333 81/23 88/68 91013 91117 91213
AAXX 14121 06235 17569 72108 10067 20043 39920 49920 51009 60011 72185 8//// 333 81/21 84/25 85/30 91010 91115 91210
AAXX 14121 06240 15980 82107 10055 20038 39945 49940 51015 60031 8//// 333 85/61 88/64 91010 91110 91207
AAXX 14121 06251 17565 61908 10055 20043 39912 49913 51006 69931 75885 8//// 333 82/26 83/32 85/46 91010 91115 91212
AAXX 14121 06258 46/// /2111 333 91013 91119 91216
AAXX 14121 06269 17983 32106 10053 20044 39944 49938 51017 60061 70186 8//// 333 83/63 91008 91111 91207
AAXX 14121 06280 15481 52206 10042 20028 39927 49931 53009 60001 8//// 333 81/11 83/30 85/42 91008 91112 91207
AAXX 14121 06310 17483 72213 10059 20038 39942 49952 51009 69991 70365 8//// 333 81/16 83/36 87/50 91015 91115 91213
AAXX 14121 06344 17483 72206 10059 20037 39950 49943 51012 60041 70360 8//// 333 85/15 87/50 87/60 91010 91111 91208
AAXX 14121 06370 17480 82406 10067 20045 39932 49957 52010 60071 78186 8//// 333 84/14 86/16 88/19 91010 91112 91208
AAXX 14121 06380 17583 82307 10073 20042 39833 49971 50011 60021 70286 8//// 333 82/27 84/30 88/38 91009 91119 91212
AAXX 14124 91574 46/// ///// 29087 39982 49988 56111
AAXX 14124 91570 NIL
AAXX 14124 91598 NIL
AAXX 14124 91573 06/// /0406 10266 20244 30003 40099 51005 60004 333 20266 59007 60007
AAXX 14124 91577 06/// /1706 10253 20212 30082 40103 53012 60004 333 20260 58003 60007
AAXX 14124 91579 06/// /3502 10250 20241 30082 40090 58009 69924 333 20244 59013 60007
AAXX 14124 91582 04969 /0000 10242 20235 30057 40091 58010 60001 700// 333 60007 90710 91105 555 60005
AAXX 14124 91583 06/// /1702 10241 20232 30084 40099 56001 60054 333 20245 59006 69987
AAXX 14124 91590 04984 83402 10239 20227 30060 40102 53001 60091 700// 333 60007 90710 91105 555 60005
AAXX 14124 91592 06/// /3003 10254 20221 30017 40101 56001 60034 333 20251 58003 69987
AAXX 14124 91596 06/// /3504 10259 20243 39991 40099 58001 60004 333 20256 59009 60007
AAXX 14124 91587 NIL
AAXX 14124 63705 31565 82212 10217 20182 38860 48515 75065 8492/ 333 58029 84621 81923 88463 555 10192
AAXX 14121 37682 32997 41802 11081 21095 38182 48581 58002 84040
AAXX 14121 37717 32599 60000 11006 21087 38123 48549 57006 83501 555 1/106
AAXX 14121 37788 41495 60000 11027 21066 39315 40363 57009 71022 866// 333 86716
AAXX 14124 13600 12660 80000 10104 20081 30180 40233 54002 60001 8355/ 333 83640 85360
AAXX 14124 13610 12760 81801 10108 20047 39800 40224 54002 60001 885// 333 88650
AAXX 14124 13611 12665 21410 10156 20084 30112 40202 54003 60001 82200 333 82840
AAXX 14124 13619 11550 80000 10064 20051 39468 42847 52009 60001 71021 885// 333 88630
AAXX 14124 13622 12665 40000 10162 20089 30219 40226 54004 60001 84500 333 84640
AAXX 14124 13624 NIL
AAXX 14124 13625 NIL
AAXX 14124 13629 NIL
AAXX 14124 13601 12662 42204 10162 20101 30105 40205 57007 60001 84230 333 84840
AAXX 14124 13602 NIL
AAXX 14124 13623 11960 73202 10116 20109 30223 40229 54002 60001 70341 87030 333 87360
AAXX 14124 16008 11450 81809 11020 21040 38492 48454 53001 69961 77077 84720 333 84715 87457 92810 93101
AAXX 14124 16084 11112 83303 10044 20031 39993 40164 58013 60011 71054 887// 333 55300 84703 86707
AAXX 14124 16088 11312 80000 10058 20054 30047 40166 58015 60011 76066 888// 333 83707 83817
AAXX 14124 16110 11797 80702 10130 20096 30153 40157 57013 60011 70265 84070 333 55300 84356 85457 555 0111/
AAXX 14124 16134 11/00 92622 10010 20010 37792 48470 58003 60011 76064 333 89/00 92835 95090 95190
AAXX 14124 16153 12498 62310 10112 20084 39893 40157 58003 60001 86800 333 55301 82816 84626 555 0314/
AAXX 14124 16158 11560 81105 10128 20109 30155 40163 57007 69941 70262 85860 333 55300 82820 83640 85356
AAXX 14124 16206 12570 81920 10160 20157 30160 40169 58006 60001 81200 333 81825 83830
AAXX 14124 16219 41/00 92716 10020 20014 38139 48524 50004 6///1 74564 333 89/00 95090 95190
AAXX 14124 16252 12270 52406 10114 20067 39261 42816 56007 60001 82530 333 55305 82605 83357
AAXX 14124 16280 12497 62111 10160 20150 39979 40199 58014 60001 84831 333 55300 82810 83620 555 0325/
AAXX 14124 16310 12597 82108 10140 20106 30000 40221 58010 60001 888// 333 55300 84830 85640 555 0315/
AAXX 14124 16320 12760 32013 10154 20124 30198 40210 58015 60001 83030 333 55310 83356 555 0100/
AAXX 14124 16325 NIL
AAXX 14124 16360 12998 21905 10150 20080 30097 40231 58003 60001 80001 333 55310 555 0100/
AAXX 14124 16400 12497 52014 10168 20111 39951 40239 58007 60001 83130 333 55310 83817 83359 555 0434/
AAXX 14124 16420 NIL
AAXX 14124 16429 12570 22208 10182 20124 30226 40237 57011 60001 82200 333 55310 82825
AAXX 14124 16470 NIL
AAXX 14124 16480 12998 22808 10196 20089 30163 40223 57016 60001 80001 333 55310 555 0316/ 16522 12498 52805 10170 20143 39945 40186 50002 60001 85200 333 55305 85818 555 0400/
AAXX 14124 16539 NIL
AAXX 14124 16550 12698 52108 10170 20106 30011 40189 50002 60001 83130 333 55300 83840 85358 555 0314/
BBXX BATFR55 14124 99164 30540 44597 40912 10277 20257 40084 70122 824/2 22232 00279 20704
AAXX 14124 16021 11/03 91212 10001 21020 37940 48457 58004 69901 77074 333 89/03 92802 93197
AAXX 14124 16022 11/00 92127 11016 21016 37799 48440 58009 69901 77074 333 55300 89/00 92815 93105
AAXX 14124 16033 12568 82804 10000 21022 38753 48460 58016 60001 885// 333 88630 92822
AAXX 14124 16040 11460 82906 10040 20034 39235 42765 58011 69921 76062 882// 333 82710 87820
AAXX 14124 16052 11/01 92418 11082 21089 36562 47984 51002 69901 77074 333 55300 89/01 93199
AAXX 14124 16061 12962 00000 10042 20016 39320 42771 58005 60001 333 55310
AAXX 14124 16098 11440 80303 10082 20070 30111 40163 57016 60021 76066 885// 333 84715 86630
AAXX 14124 16138 11450 83502 10090 20061 30151 40162 58005 60001 71022 8467/ 333 84715 84356
AAXX 14124 16148 11750 72804 10115 20092 30140 40152 58017 60001 71022 85502 333 55304 85656
AAXX 14124 16168 11/02 92130 10118 20114 39433 42795 50002 60001 74542 333 89/00
AAXX 14124 16172 11456 81815 10130 20114 39875 40172 58018 60011 76062 86220 333 83815 83820
AAXX 14124 16179 11565 82117 10124 20092 39488 42786 53003 60011 76062 888// 333 85820 84635
AAXX 14124 16224 11450 81610 10138 20117 39869 40185 58012 69941 71062 888// 333 55300 85813 86620
AAXX 14124 16232 NIL
AAXX 14124 16245 12465 71810 10174 20150 30167 40192 58014 60001 86870 333 83818 85630
AAXX 14124 16253 11456 72209 10170 20127 30202 40214 58017 60001 71062 84950 333 55302 82915 83820 85356
AAXX 14124 16258 12565 72218 10084 20062 39210 42812 58002 60001 83530 333 83620 84358
AAXX 14124 16263 NIL
AAXX 14124 16294 12597 82504 10148 20104 30027 40219 57007 60001 8552/ 333 84630 85457 555 0215/
AAXX 14124 16337 NIL
AAXX 14124 16344 11/00 92808 10032 20032 38358 48540 52005 60001 74544 333 55300 89/00 95090 95190
AAXX 14124 16434 11261 52106 10098 20063 39041 48543 58008 60001 72841 85200 333 82804 84813 95012 95101
AAXX 14124 16450 12466 32506 10112 20112 39136 48600 58010 60001 82201 333 82810
AAXX 14124 16459 12565 22704 10206 20065 30199 40234 57017 60001 82100 333 82825
AAXX 14124 16546 12666 72807 10192 20118 30180 40208 58007 60001 85530 333 85640 84356
AAXX 14124 16564 12597 52738 10186 20135 30056 40195 58012 60001 84210 333 84825 555 0500/
AAXX 14124 16539 12497 72515 10170 20157 30093 40206 58009 60001 87800 333 83813 83815 555 0499/
AAXX 14124 16045 11556 83405 10072 20061 30102 40168 57018 69941 75055 888// 333 55300 82820 86625
AAXX 14124 16090 11515 82303 10072 20069 30080 40163 58012 60011 76062 885// 333 55300 87620 83650
AAXX 14124 16149 12765 61909 10156 20127 30139 40154 58017 60001 83210 333 83650 84459
AAXX 14124 16261 12570 62011 10176 20090 30120 40191 58018 60001 82530 333 55309 82625 85358
AAXX 14124 16453 12597 62704 10162 20116 30166 40244 57011 60001 83830 333 55300 81821 83624 86358 555 0100/
AAXX 14124 16560 12564 72610 10180 20120 30206 40213 58008 60001 86830 333 55305 82820 85628
AAXX 14121 10505 01582 72408 10070 20028 39693 49970 51014 60041 72586 84872 333 32/// 55300 20289 30288 69967 84822 86075 91118 91213
AAXX 14121 11010 01784 29902 10094 20003 39707 40080 57041 69901 70261 333 69905 81650
AAXX 14121 11012 16/// /0903 10058 20026 39620 40087 56035 60001 333 55310
AAXX 14121 11022 11332 80802 10037 20025 39726 40115 58025 69901 71022 886// 333 55300 88708
AAXX 14121 11035 31121 81304 10037 20035 39864 40119 58027 71042 886// 333 88703
AAXX 14121 11036 31125 81305 10028 20020 39900 40126 58025 71044 333 86702 87703
AAXX 14121 11101 11680 83202 10093 20051 39569 40088 58010 69901 72062 885// 333 88640
AAXX 14121 11120 32786 52705 10080 21017 39394 40091 57025 333 81850 84361
AAXX 14121 11126 17/// /1622 11023 21034 37641 48397 57014 69901 7//4/ 333 55310 91133
AAXX 14121 11130 16/// /2402 10065 20002 39508 40092 56026 69901 333 55304
AAXX 14121 11146 31/00 92623 11075 21084 36862 47959 55011 74942 333 55300 89/00 91131 92612
AAXX 14121 11150 11782 41902 10095 21030 39550 40081 56020 69901 70161 333 81850 83361
AAXX 14121 11155 12589 12009 10046 21043 38277 48404 56025 60001 81180 333 55310 81825 91114
AAXX 14121 11157 31150 19901 11009 21010 39343 40127 57038 71042 81601 333 81703
AAXX 14121 11172 NIL
AAXX 14121 11190 11/02 91005 10021 20015 39892 40129 58026 60001 74544 333 55300 89/02
AAXX 14121 11204 32770 70000 10026 21023 39367 40167 57023 8552/ 333 85650
AAXX 14121 11212 11/00 92510 11024 21025 37786 48456 58008 69911 77174 333 91118 92611
AAXX 14121 11231 31370 49901 10042 20015 39578 40153 57030 70241 333 81709 84359
AAXX 14121 11240 32775 49901 10081 20025 39688 40123 57030 333 83656
AAXX 14121 11244 16/// /2003 10093 20026 39800 40125 58031 60001 333 55309
AAXX 14121 11389 12570 63603 10042 20024 39777 40104 58034 60001 865// 333 55306
AAXX 14121 03951 17561 /3409 10063 20022 39895 49921 52014 69991 70185 83/// 333 81/28 83/43 87/59 91305 90405 91311 91526 90402 91531
AAXX 14121 03953 NIL
AAXX 14121 03955 11475 72505 10031 20017 39723 49920 52011 60021 72682 8692/ 333 81712 85917 85457 96485
AAXX 14121 03956 15980 /2505 10037 20004 39832 49909 50010 60001
AAXX 14121 03962 11475 72007 10037 20026 39864 49888 50000 60021 72581 873// 333 82714 87918
AAXX 14121 03963 17573 /2408 10066 20027 39833 49861 58002 69941 70185 82/// 333 82/21 84/59 91601
AAXX 14121 03966 17682 /2205 10021 20001 39795 49888 50001 60041 70287 81/// 333 81/49
AAXX 14121 03967 11483 72208 10026 20002 39768 49882 51014 69901 70281 81536 333 81715 87275
AAXX 14121 03969 32480 62410 10028 20003 39777 49880 51018 8183/ 333 81710 86367
AAXX 14121 03973 11482 42104 10029 20005 39611 49863 51010 69921 70281 82332 333 81918 83070
AAXX 14121 03976 11582 42207 10060 20036 39839 49851 50008 69921 70381 83903 333 82920 81820 96489
AAXX 14121 03980 17560 /2715 10071 20022 39790 49814 50018 60041 7238/ 87/// 333 87/29 90710 91120 91310 90401 91315
BBXX DBBH 14121 99393 70108 41598 73107 10153 20090 40267 52022 70282 86302 22243 04167 20302 330// 41408
AAXX 14124 61766 31958 80611 10285 20055 30072 40115 70522 80001 333 0//00 59005 88075
AAXX 14124 61769 31958 80805 10276 20154 3//// 4//// 70522 80001 333 0//00 5//// 88075
BBXX TFBKF 14124 99635 70202 46/// ///// 22200 10803 70013
BBXX TFBLK 14124 99657 70248 46/// ///// 22200 10910 70050
BBXX TFDRN 14124 99658 70212 46/// ///// 22200 10909 70047
BBXX TFGRS 14124 99663 70182 46/// ///// 22200 10809 70046
BBXX TFGRV 14124 99638 70225 46/// ///// 22200 11003 70013
BBXX TFGSK 14124 99641 70229 46/// ///// 22200 10604 70020
BBXX TFHFN 14124 99642 70152 46/// ///// 22200 10904 70022
BBXX TFKGR 14124 99657 70136 46/// ///// 22200 10708 70039
BBXX TFSRT 14124 99633 70203 46/// ///// 22200 10805 70024
BBXX TFSTD 14124 99664 70234 46/// ///// 22200 10912 70060
AAXX 14124 89532 41/70 73504 11070 21094 39838 49866 53019 72211 875// 333 11060 21121
AAXX 14121 15015 01496 80801 10069 20057 39590 42800 58008 60001 71042 885// 333 60007 91001 91102
AAXX 14121 15020 01492 81401 10046 20046 39981 40182 57012 60001 74444 886// 333 60007 91003 91103
AAXX 14121 15090 02997 40904 10077 20056 30094 40187 57009 60001 83041 333 55310 00460 21048 30409 60007 91006 91107
AAXX 14121 15108 01/91 92704 11007 21007 38087 48503 52009 60001 74544 333 43006 60007
AAXX 14121 15120 01595 30603 10080 20065 39697 40193 57014 60001 71041 82530 333 55304 00306 20634 30483 60007 91005 91105
AAXX 14121 15150 01293 81602 10044 20044 39973 40189 58014 60001 74244 886// 333 60007 91003 91103
AAXX 14121 15170 01494 83301 10005 20005 39414 42803 58015 60001 71042 886// 333 60007 91001 91102
AAXX 14121 15200 01494 81402 10080 20076 30048 40193 58010 60001 72842 886// 333 60007 91003 91103 96010
AAXX 14121 15230 01597 13600 10119 20068 39902 40193 58016 60001 70141 81100 333 55310 00331 20979 30292 60007 91001 91102
AAXX 14121 15260 01997 00701 10098 20040 39660 40192 58014 60001 70240 333 60007 91002 91103 95000
AAXX 14121 15280 01/93 72306 11027 21033 37496 47036 57006 60001 74141 87500 333 48034 60007
AAXX 14121 15292 02998 23402 10120 20057 39900 40192 58017 60001 82030 333 60007 91003 91103 95000
AAXX 14121 15310 01491 82103 10041 20041 30116 40204 58008 60001 74444 886// 333 55300 00083 20163 30148 60007 91005 91105
AAXX 14121 15335 01493 83501 10058 20058 30197 40204 57006 60001 74444 886// 333 60007 91002 91102
AAXX 14121 15346 01594 32002 10054 20054 39909 40203 57017 60001 71044 83600 333 60007 91003 91103
AAXX 14121 15350 01593 82204 10043 20043 30081 40204 58009 60001 74444 886// 333 60007 91006 91106
AAXX 14121 15360 01492 83301 10050 20050 30186 40200 57004 60001 74444 886// 222// 06081 20000 333 60007 91002 91103 92402
AAXX 14121 15410 01593 80000 10048 20046 30115 40212 58011 60001 74442 886// 333 60007 91001 91101
AAXX 14121 15420 01/92 92304 10049 20049 30093 40206 57009 60001 74544 333 55300 0//// 20291 3//// 60007 91006 91106
AAXX 14121 15450 01493 82602 10047 20047 39971 40211 58009 69901 74254 886// 333 55300 00177 20327 30296 60007 91004 91104
AAXX 14121 15460 01493 82702 10052 20052 30185 40210 57006 60001 74444 886// 333 60007 91004 91104
AAXX 14121 15470 01493 82603 10051 20051 30082 40210 58007 60001 74444 886// 333 60007 91005 91105
AAXX 14121 15480 01495 83102 10060 20060 30191 40209 57006 60001 71042 886// 222// 06087 2//// 333 60007 91004 91104 92425
AAXX 14121 01015 46/// /1616 10050 21005 333 91123
AAXX 14121 01228 46/// /1509 10066 21006 39640 49647 58010 333 91116
AAXX 14121 01340 16/// /1505 10012 21014 38878 49718 51008 60021 333 91112
AAXX 14121 01425 16/// /1810 10060 20030 39693 49770 51010 60041 333 91115
AAXX 14124 48601 11560 70207 10289 20233 30077 40081 60001 70522 81541 333 10318 81625 87078
AAXX 14124 48615 11562 70106 10273 20237 30085 40091 60001 70522 81432 333 10298 81620 87074
AAXX 14124 48620 11462 72603 10281 20243 30074 40083 60001 71322 83938 333 10318 81917 83365 86276
AAXX 14124 48647 11458 70303 10261 20241 30064 40089 60001 71392 84942 333 10320 81710 81917 83364 87078
AAXX 14124 48657 11560 70105 10269 20243 30068 40086 60041 70582 83441 333 10312 83624 84366
AAXX 14124 48665 11564 73103 10282 20251 30079 40089 69921 70598 81442 333 10314 81628 84364 86078
AAXX 14124 96413 11565 70000 10269 20246 30065 40091 60001 70222 82531 333 10310 82620 83365 86080
AAXX 14124 96421 11465 72602 10269 20244 30053 40088 60001 71322 84931 333 10324 81915 83618 85080
AAXX 14124 96441 11468 70000 10263 20246 30061 40088 60001 71322 83931 333 10317 82614 81915 83365 86080
AAXX 14124 96449 11465 70103 10271 20248 30069 40088 60001 71399 83971 333 10308 83614 81915 86365
AAXX 14124 96465 12470 70307 10283 20241 30058 40091 60001 83838 333 10307 82810 84364 87279
AAXX 14124 96471 12466 70401 10266 20244 30088 40091 60001 83848 333 10319 82814 83364 87277
AAXX 14124 96481 11462 70101 10250 20230 30070 40089 60171 70296 83841 333 10319 82817 83364 86080
AAXX 14124 96491 12465 73503 10271 20249 30082 40094 60001 83832 333 10309 83816 87078
AAXX 14121 01135 16/// /1604 10033 21039 39582 49729 58003 60001 333 4/005 91111
AAXX 14121 01192 16/// /1306 10046 21069 60001 333 4/007 91114
AAXX 14121 01370 16/// /1606 11015 21028 38666 49807 50003 60001 333 4/032 91114
AAXX 14121 01419 16/// /2108 10041 20017 60061 333 91117
AAXX 14121 01455 16/// /1203 10030 20013 39483 49785 51010 60021 333 91109
AAXX 14121 01481 16/// /2106 10049 20029 39775 49806 53007 60041 333 91115
AAXX 14121 01037 16/// /1308 10036 21023 39801 49807 56015 60001 333 91117
AAXX 14121 01046 16/// /1417 10026 21023 39799 49806 58024 6//// 333 91123
AAXX 14121 01065 11660 81203 10007 21010 39726 49885 58012 60001 78582 888// 333 91108
AAXX 14121 01092 46/// /1708 10008 21028 333 91113
AAXX 14121 01114 16/// /1401 10050 21051 39707 49717 50001 60001 333 91112
AAXX 14121 01245 11570 51808 10024 21041 39005 49682 58007 60001 70172 85800 333 91118
AAXX 14121 01329 16/// /0502 10042 20029 39643 49702 51010 60081 333 91110
AAXX 14121 01337 16/// /0302 10033 20012 39637 49701 53012 60071 333 91108
AAXX 14121 01389 11720 81607 10016 20003 39484 49787 52004 60001 76062 8272/ 333 91115
AAXX 14121 01436 41365 72215 10068 20043 78182 86963 222// 00095 333 91129
AAXX 14121 01452 11565 72508 10043 20022 39786 49807 53013 60041 78182 879// 333 91121
AAXX 14121 01373 11680 50801 10028 20007 39548 49746 50002 60011 71552 82308 333 91108
AAXX 14121 01424 11460 8//// 10046 20023 39733 49737 53019 60221 76162 887//
AAXX 14121 01465 11375 72222 10069 20037 39786 49804 50009 60031 78288 879// 333 91129
AAXX 14121 01156 16/// /1007 10060 21014 39722 49732 53003 60001 333 91115
AAXX 14121 01265 16/// /2005 10017 21021 39162 49723 51005 69951 333 91113
AAXX 14121 01273 16/// /1103 10049 21031 39515 49703 55001 60001 333 91118
AAXX 14121 01375 16/// /1802 11029 21032 6//// 333 91103
AAXX 14121 01469 16/// /1506 10043 20005 39609 49775 50002 60001 333 91114
AAXX 14121 33135 /1294 81804 10048 20043 30003 40182 54000 71052 886// 333 88704 555 69901
AAXX 14121 33317 31497 62002 10077 20048 39834 40169 58006 70242 85530
AAXX 14121 33345 /1296 82102 10061 20056 39979 40184 58005 71054 886// 333 88704 555 69901
AAXX 14121 33393 NIL
AAXX 14121 33506 /1495 81202 10020 20017 30022 40222 58008 75152 886// 555 69901
AAXX 14121 33587 NIL
AAXX 14121 33631 31496 81503 10072 20050 30049 40193 58014 71022 885// 333 88615
AAXX 14121 33663 /1497 81401 10068 20055 30090 40186 58006 70252 886// 333 88716 555 69901
AAXX 14121 33658 31/01 91002 10023 20023 39878 40182 57011 74544
AAXX 14121 33711 /1/91 91603 10057 20057 39992 40203 58008 75154 555 69901
AAXX 14121 33791 31/06 91404 10058 20058 30054 40206 57010 74344
AAXX 14121 33837 /1/03 91902 10066 20066 30146 40198 58007 75154 555 69901
AAXX 14121 33924 32598 62005 10125 20082 30196 40208 57002 82530
AAXX 14121 33946 /1697 82303 10139 20071 39996 40212 56005 70382 885// 333 88646 555 69961
AAXX 14121 34300 /1231 81204 10018 20007 30048 40244 57006 71052 885// 333 86706 555 69901
AAXX 14121 34504 /1797 61605 10048 20033 30040 40221 57010 70162 86500 333 86650 555 69901
AAXX 14121 34519 31250 71203 10025 20009 39967 40247 57005 71022 83630 333 83705
AAXX 14121 34601 32960 71503 10071 20054 30090 40227 57009 87050
AAXX 14121 76040 32902 01201 10048 20031 30188 40202 52010 91145 333 10115 20040 31/// 58084 70000 98602
AAXX 14121 76056 06/// /2805 10066 20026 30167 40192 52007 60001 7//// 8//// 91150 333 0//// 10191 20060 30/// 4//// 50189 54/// 55052 56/// 57/// 58087 60007 70004 8//// 8//// 8//// 9/
AAXX 14121 76061 32970 00502 10094 20079 30133 40210 5//// 91140 333 10168 20080 30076 55020 58082 70010
AAXX 14121 76113 32870 00401 10070 20066 39703 40179 5//// 91150 333 10135 20064 30056 50011 55000 58064 70225
AAXX 14121 76122 32556 72306 10102 20028 38507 40114 57002 82137 91150 333 10180 20093 30083 56559 58014 70029 82830 83347
AAXX 14121 76123 06/// 72315 10105 20015 3//// 4//// 5//// 60001 7//// 82137 91150 333 0//// 10177 20095 4//// 50249 55022 56559 57/// 5//// 60007 70050 82830 83357 8//// 8//// 9//// 9/
AAXX 14121 76220 32820 50000 10076 20023 38127 40121 5//// 85070 91150 333 10160 20076 30058 55073 56050 58005 70025 85357
AAXX 14121 76225 32720 52501 10120 20001 38597 40083 54000 85020 91155 333 10259 20120 30080 56050 59008 70000 85357
AAXX 14121 76226 06/// /1701 10121 21012 38588 40092 55001 60001 7//// 8//// 91150 333 0//// 10263 20101 30/// 4//// 50489 54/// 55/// 56/// 57/// 59012 60007 70000 8//// 8//// 8//// 9/
AAXX 14121 76256 32960 63601 10150 20115 30174 40188 5//// 86070 91135 333 10223 20140 30/// 56/5/ 58033 70000 86357
AAXX 14121 76258 32/50 /3404 10140 20137 30126 40171 5//// 91150 333 10240 20134 30112 58026 70008
AAXX 14121 76305 32970 63401 10150 20082 30170 40178 5//// 86030 91130 333 10243 20142 30131 56050 58033 70000 86358
AAXX 14121 76323 32910 41803 10090 20049 38249 40147 57013 80006 91145 333 10273 20085 30055 56005 59016 70000 84268
AAXX 14121 76342 31430 80901 10130 20113 39470 40182 54000 70222 887// 91150 333 10180 20126 30120 561// 59052 70004 88710
AAXX 14121 76373 32910 00000 10019 20010 38216 40163 5//// 91150 333 10240 20005 31010 59011 70000
AAXX 14121 76382 32960 61602 10158 20092 38895 40105 52006 80008 91200 333 10288 20147 30120 56007 59010 70000 83276
AAXX 14121 76393 31202 81101 10158 20142 39562 40139 57009 70422 887// 91155 333 10196 20150 30138 569// 59050 70000 88707
AAXX 14121 76402 32950 20000 10122 20113 30131 40188 57001 82500 91145 333 10226 20112 30110 56400 58030 70005 82628
AAXX 14121 76423 32960 00000 10076 20054 38161 40146 57003 91155 333 10270 20072 30/// 59011 70000
AAXX 14121 76458 32960 03202 10182 20177 30150 40155 57004 91145 333 10276 20159 30158 59005 70000
AAXX 14121 76471 32980 30000 10090 20077 37700 40131 5//// 80001 91155 333 10223 20070 30051 55084 56005 59008 70000 83075
AAXX 14121 76490 06/// /1604 10206 20150 39764 40150 57006 60001 7//// 8//// 91150 333 0//// 10309 20179 30/// 50419 54/// 55088 56/// 57/// 59030 60007 70000 8//// 8//// 8//// 8//// 9/
AAXX 14121 76491 32956 01603 10204 20188 39779 40166 57008 91145 333 10312 20170 30/// 59039 70000
AAXX 14121 76538 06/// /0000 10099 20100 38185 40204 53001 60001 7//// 8//// 91150 333 0//// 10254 20066 30/// 4//// 50249 54/// 55063 56/// 57/// 59008 60007 70000 8//// 8//// 8//// 9/
AAXX 14121 76539 32658 83301 10097 20095 38181 40209 52004 88400 91150 333 10250 20066 30038 56700 59008 70000 88626
AAXX 14121 76543 32675 62901 10211 20197 30169 40202 55/// 83550 91146 333 10309 20209 30/// 56330 59024 70000 83650 83358
AAXX 14121 76547 06/// /2001 10209 20208 30168 40180 55005 69941 7//// 8//// 91150 333 0//// 10267 20209 4//// 50209 55030 56/// 57/// 59026 60007 70010 8//// 8//// 8//// 8//// 9//// 9/
AAXX 14121 76556 32960 01201 10128 20100 39115 40137 57006 91130 333 10272 20125 30105 59010 70000
AAXX 14121 76577 32960 00000 10096 20082 38057 40166 51001 91140 333 10256 20090 30079 59006 70000
AAXX 14121 76581 32960 63501 10162 20132 39070 40175 5//// 86060 91150 333 10270 20148 30141 56030 59020 70000 86359
AAXX 14121 76585 32680 70000 10200 20194 30022 40179 52004 874// 91140 333 10278 20199 30190 55080 562// 59022 70000 87637
AAXX 14121 76586 06/// /0000 10198 20196 30024 40180 55003 60001 7//// 8//// 91150 333 0//// 10303 20198 30/// 4//// 50269 54/// 55076 56/// 57/// 59029 60007 70000 8//// 8//// 8//// 9/
AAXX 14121 76592 06/// /1003 10204 20054 30189 40189 53001 60001 7//// 8//// 91150 333 0//// 10277 20204 30/// 4//// 50679 54/// 55092 56/// 57/// 59012 60007 70000 8//// 8//// 8//// 9/
AAXX 14121 76593 32960 01202 10204 20204 30189 40191 56007 91150 333 10277 20202 30197 59009 70000
AAXX 14121 76612 32958 00000 10085 20080 38482 40187 5//// 91155 333 10266 20080 30070 55103 21003 59011 70000
AAXX 14121 76625 32560 20902 10114 20084 38162 40142 57011 82400 91140 333 10274 20105 30095 56200 59003 70000 82625
AAXX 14121 76634 32970 01402 10078 20064 37867 40218 5//// 91155 333 10228 20046 30018 56/// 59016 70000
AAXX 14121 76641 06/// /0000 10207 20207 30169 40181 56007 60001 7//// 8//// 91150 333 0//// 10311 20203 30/// 4//// 50179 54/// 55000 56/// 57/// 59027 60007 70006 8//// 8//// 8//// 8/
AAXX 14121 76644 32750 10801 10203 20201 30169 40182 57023 81080 91150 333 10322 20200 30174 56/9/ 59020 70000
AAXX 14121 76645 06/// /0602 10203 20201 30179 40192 54000 60001 7//// 8//// 91150 333 0//// 10315 20201 30/// 4//// 50389 54/// 55070 56/// 57/// 59014 60007 70000 8//// 8//// 8//// 9/
AAXX 14121 76648 06/// /0102 10199 20188 30152 40183 55002 60001 7//// 8//// 91150 333 0//// 10322 20191 30/// 4//// 50299 54/// 55000 56/// 57/// 59015 60007 70000 8//// 8//// 8//// 8/
AAXX 14121 76654 31956 03601 10214 20142 30140 40144 55000 70544 91150 333 10308 20214 30165 59015 70000
AAXX 14121 76658 31956 00903 10178 20109 39638 40146 57004 70540 80000 91145 333 10330 20170 30152 56000 59013 70000 98914
AAXX 14121 76659 06/// /0502 10171 20104 3//// 4//// 5//// 60001 7//// 8//// 91150 333 0//// 10351 20156 30/// 4//// 50369 54/// 55086 56/// 57/// 5//// 60007 70000 8//// 8//// 8//// 9/
AAXX 14121 76662 32960 03401 10084 20066 38474 40171 57002 91145 333 10285 20072 30064 59012 70000
AAXX 14121 76665 32958 02201 10070 20034 38138 40182 54000 91150 333 10274 20060 30050 59004 70000
AAXX 14121 76675 32960 01601 11001 21028 37393 40231 57005 91150 333 10225 21014 31040 59008 70000
AAXX 14121 76680 31956 03200 10096 20022 37768 40116 57003 70444 91150 333 10254 20080 30070 59011 70000
AAXX 14121 76683 32962 00301 10046 20031 37849 40226 56005 91145 333 10243 20046 30015 50271 55105 21948 59011 70000
AAXX 14121 76684 06/// /0603 10042 20023 37851 40277 56004 60001 7//// 8//// 91150 333 0//// 10257 20040 30/// 4//// 50339 54/// 55096 56/// 57/// 59012 60007 70000 8//// 8//// 8//// 9/
AAXX 14121 76685 32950 00000 10064 20053 37885 40176 57011 91158 333 10242 20062 30042 59001 70000
AAXX 14121 76687 31462 10000 10116 20108 38708 40204 56003 70100 81500 91135 333 10235 20108 30100 563// 59008 79999 81620
AAXX 14121 76692 31/02 92401 10192 20190 30171 40190 55001 74740 91145 333 10274 20190 30190 59010 70000
AAXX 14121 76693 06/// /2200 10189 20185 30171 40190 55000 60001 7//// 8//// 91150 333 0//// 10274 20189 30/// 4//// 50189 55000 56/// 57/// 59010 60007 70000 8//// 8//// 8//// 8//// 9/
AAXX 14121 76695 32956 11001 10201 20194 30170 40176 57001 81020 91150 333 10202 20200 30178 56/0/ 58014 70000 81460
AAXX 14121 76698 32560 50000 10208 20205 30171 40183 5//// 85200 91155 333 10296 20207 30183 56100 59011 70000 85820
AAXX 14121 76727 06/// /2901 10146 20029 38409 40150 55004 60001 7//// 8//// 91150 333 0//// 10283 20142 30/// 4//// 50239 54/// 55000 56/// 57/// 59013 60007 70000 8//// 8//// 8//// 9/
AAXX 14121 76737 32980 00000 10113 20092 38803 40197 56004 91135 333 10243 20113 30090 59009 70000 91102 91529
AAXX 14121 76738 06/// /0101 10110 20100 38805 40218 56004 60001 7//// 8//// 333 10249 20106 30/// 50189 55000 56/// 57/// 59009 60007 70000 8//// 8//// 8//// 8//// 9//// 9//// 9//// 44
AAXX 14121 76743 01450 80501 10226 20190 30166 40174 55004 60011 70252 82150 91145 333 10280 20226 30220 5610/ 59017 60017 70010 82815 86356
AAXX 14121 76750 01560 73202 10214 20204 30164 40174 5//// 69961 75152 87600 91150 333 10311 20206 30202 56100 59020 69967 70006 87720
AAXX 14121 76751 06/// /3402 10210 20208 30164 40175 53001 69961 7//// 8//// 91150 333 0//// 10310 20210 30/// 4//// 50239 54/// 55000 56/// 57/// 59010 69967 70006 8//// 8//// 8//// 9/
AAXX 14121 76772 06/// /0401 10057 20039 38447 40243 55001 60001 7//// 8//// 91150 333 0//// 10280 20056 30/// 4//// 5///9 55000 56/// 57/// 59007 60007 70000 8//// 8//// 8//// 9//// 9/
AAXX 14121 76773 32956 00000 10063 20048 38441 40170 52002 91147 333 10279 20051 30030 50431 55101 59008 70000
AAXX 14121 76775 31960 00601 10073 20039 38549 40206 52001 70200 91145 333 10275 20069 30/// 59003 70000
AAXX 14121 76776 06/// /0302 10063 20033 38534 40237 53002 60001 7//// 8//// 91150 333 0//// 10288 20060 30/// 4//// 50379 55088 56/// 57/// 59005 60007 70000 8//// 8//// 8//// 9//// 9/
AAXX 14121 76806 06/// /00// 10223 20222 30127 40131 53001 60001 7//// 8//// 91150 333 10315 20215 30210 30/// 50219 55000 56/// 57/// 59011 60007 70000 8//// 8//// 8//// 8//// 9//// 9/
AAXX 14121 76833 32965 03610 10264 20161 30128 40130 57004 91155 333 10324 20252 30244 59008 70000 92023
AAXX 14121 76840 32901 00205 10254 20176 30077 40133 5//// 91145 333 10335 20190 30/// 59005 70000
AAXX 14121 76843 32965 00000 10175 20161 39518 40164 52020 91132 333 10297 20172 30165 59012 70000
AAXX 14121 76845 32240 60000 10122 20108 37958 40185 5//// 86600 91150 333 10170 20095 30084 56200 59013 70000 86707
AAXX 14121 76848 11260 70501 10131 20117 38395 40126 56001 69901 75652 87700 91150 333 10204 20130 30119 56100 59008 70004 87706
AAXX 14121 76902 06/// /0401 10218 20153 39986 40126 56004 60001 7//// 8//// 91150 333 0//// 10336 20218 30/// 4//// 50409 54/// 56/// 57/// 59007 60007 70000 8//// 8//// 8//// 8//// 9/
AAXX 14121 76243 11364 82401 10156 20150 39855 40149 57003 60021 75052 887// 91140 333 10170 20144 30132 563// 59059 70020 88709
AAXX 14121 76311 32620 70000 10173 20157 39887 40164 54000 87600 91155 333 10232 20171 30165 56400 58012 70000 87625
AAXX 14121 76405 32840 60000 10189 20162 30159 40181 52003 86050 91150 333 10252 20188 30184 56050 58019 70000 86356
AAXX 14121 76412 32960 82202 10174 20148 30138 40184 57002 88050 91145 333 10290 20170 30/// 56050 58006 70000 88356
AAXX 14121 76640 31010 70000 10208 20205 30166 40178 57025 70222 8472/ 91145 333 10272 20202 30200 5699/ 59045 79999 84701 83445
AAXX 14121 76647 31810 13601 10200 20197 30164 40194 53004 74244 81030 91150 333 10314 20190 30172 560/0 58018 70000 81358
AAXX 14121 76741 31240 40403 10233 20218 30142 40161 52000 70542 84200 91135 333 10274 20215 30205 561// 58000 70000 84806
AAXX 14121 76855 32980 03602 10210 20180 30072 40122 55000 91150 333 10335 20204 30200 59004 70000 92000
AAXX 14121 06407 11468 82108 10039 20019 39962 49968 53019 60031 76186 8587/ 333 83816 83640 85359 91114 91209
AAXX 14121 06447 NIL
AAXX 14124 13629 12660 43204 10064 20048 39170 42818 57005 60001 81501 333 81640
AAXX 14124 63980 41480 53214 10285 20257 40086 72582 84930 333 58007 81913 84358 943// 91123
AAXX 14124 78962 12470 40803 10276 20247 30109 40117 60001 83832 333 01299 10310 20233 59008 70031 83818
AAXX 14121 06400 11463 72107 10042 20032 39963 49974 53023 60031 78086 878// 333 81712 83623 87634 91113 91209
AAXX 14121 06428 11456 72407 10051 20034 39927 49975 51017 60011 78186 878// 333 83816 86637 91111 91207
AAXX 14121 06451 11460 72507 10047 20025 39909 49976 53019 60041 78022 878// 333 83811 86617 91115 91210
AAXX 14121 06456 11462 72611 10035 20026 39627 49994 51017 60031 72786 85831 333 83814 84628 91120 91213
AAXX 14121 06476 17080 82305 10030 20023 39334 49994 51013 60031 70064 333 83/01 85/03 86/04 91118 91209
AAXX 14121 06479 11580 72205 10066 20049 39886 49965 51008 60031 70286 878// 333 83818 86635 91112 91209
AAXX 14121 06490 17383 72306 10037 20023 39419 49986 51012 60061 70065 333 83/08 87/10 87/15 91118 91211
AAXX 14121 06590 11465 72309 10050 20032 39561 40010 53011 60111 78086 878// 333 82811 87620 91117 91211
AAXX 14121 06431 NIL
AAXX 14121 06432 17/82 /2306 10055 20038 39905 49981 51016 60021 72386 333 81/39 83/58 85/63 91117 91213
AAXX 14121 06449 11475 72506 10042 20029 39759 49987 53018 60011 72586 868// 333 82813 85623 91119 91213
AAXX 14121 06450 11480 82407 10057 20028 39952 49967 52015 60031 76082 888// 333 84815 88631 91111 91207
AAXX 14121 06458 11470 72606 10047 20037 39829 49982 53022 69921 78082 878// 333 81711 83820 87638 91118 91214
AAXX 14121 06465 11425 82609 10049 20036 39905 49971 51017 60041 78186 878// 333 81712 83818 86623 91113 91209
AAXX 14121 06478 11358 82308 10072 20036 39756 49972 51011 60021 76022 885// 333 81708 86627 91118 91213
AAXX 14121 06496 11269 82406 10026 20024 39314 49986 51013 60081 76876 887// 333 81704 85707 87712 91116 91210
AAXX 14121 76040 32902 01201 10048 20031 30188 40202 52010 91145 333 10115 20040 31/// 58084 70000 98602
AAXX 14121 76056 06/// /2805 10066 20026 30167 40192 52007 60001 7//// 8//// 91150 333 0//// 10191 20060 30/// 4//// 50189 54/// 55052 56/// 57/// 58087 60007 70004 8//// 8//// 8//// 9/
AAXX 14121 76061 32970 00502 10094 20079 30133 40210 5//// 91140 333 10168 20080 30076 55020 58082 70010
AAXX 14121 76113 32870 00401 10070 20066 39703 40179 5//// 91150 333 10135 20064 30056 50011 55000 58064 70225
AAXX 14121 76122 32556 72306 10102 20028 38507 40114 57002 82137 91150 333 10180 20093 30083 56559 58014 70029 82830 83347
AAXX 14121 76123 06/// 72315 10105 20015 3//// 4//// 5//// 60001 7//// 82137 91150 333 0//// 10177 20095 4//// 50249 55022 56559 57/// 5//// 60007 70050 82830 83357 8//// 8//// 9//// 9/
AAXX 14121 76220 32820 50000 10076 20023 38127 40121 5//// 85070 91150 333 10160 20076 30058 55073 56050 58005 70025 85357
AAXX 14121 76225 32720 52501 10120 20001 38597 40083 54000 85020 91155 333 10259 20120 30080 56050 59008 70000 85357
AAXX 14121 76226 06/// /1701 10121 21012 38588 40092 55001 60001 7//// 8//// 91150 333 0//// 10263 20101 30/// 4//// 50489 54/// 55/// 56/// 57/// 59012 60007 70000 8//// 8//// 8//// 9/
AAXX 14121 76256 32960 63601 10150 20115 30174 40188 5//// 86070 91135 333 10223 20140 30/// 56/5/ 58033 70000 86357
AAXX 14121 76258 32/50 /3404 10140 20137 30126 40171 5//// 91150 333 10240 20134 30112 58026 70008
AAXX 14121 76305 32970 63401 10150 20082 30170 40178 5//// 86030 91130 333 10243 20142 30131 56050 58033 70000 86358
AAXX 14121 76323 32910 41803 10090 20049 38249 40147 57013 80006 91145 333 10273 20085 30055 56005 59016 70000 84268
AAXX 14121 76342 31430 80901 10130 20113 39470 40182 54000 70222 887// 91150 333 10180 20126 30120 561// 59052 70004 88710
AAXX 14121 76373 32910 00000 10019 20010 38216 40163 5//// 91150 333 10240 20005 31010 59011 70000
AAXX 14121 76382 32960 61602 10158 20092 38895 40105 52006 80008 91200 333 10288 20147 30120 56007 59010 70000 83276
AAXX 14121 76393 31202 81101 10158 20142 39562 40139 57009 70422 887// 91155 333 10196 20150 30138 569// 59050 70000 88707
AAXX 14121 76402 32950 20000 10122 20113 30131 40188 57001 82500 91145 333 10226 20112 30110 56400 58030 70005 82628
AAXX 14121 76423 32960 00000 10076 20054 38161 40146 57003 91155 333 10270 20072 30/// 59011 70000
AAXX 14121 76458 32960 03202 10182 20177 30150 40155 57004 91145 333 10276 20159 30158 59005 70000
AAXX 14121 76471 32980 30000 10090 20077 37700 40131 5//// 80001 91155 333 10223 20070 30051 55084 56005 59008 70000 83075
AAXX 14121 76490 06/// /1604 10206 20150 39764 40150 57006 60001 7//// 8//// 91150 333 0//// 10309 20179 30/// 50419 54/// 55088 56/// 57/// 59030 60007 70000 8//// 8//// 8//// 8//// 9/
AAXX 14121 76491 32956 01603 10204 20188 39779 40166 57008 91145 333 10312 20170 30/// 59039 70000
AAXX 14121 76538 06/// /0000 10099 20100 38185 40204 53001 60001 7//// 8//// 91150 333 0//// 10254 20066 30/// 4//// 50249 54/// 55063 56/// 57/// 59008 60007 70000 8//// 8//// 8//// 9/
AAXX 14121 76539 32658 83301 10097 20095 38181 40209 52004 88400 91150 333 10250 20066 30038 56700 59008 70000 88626
AAXX 14121 76543 32675 62901 10211 20197 30169 40202 55/// 83550 91146 333 10309 20209 30/// 56330 59024 70000 83650 83358
AAXX 14121 76547 06/// /2001 10209 20208 30168 40180 55005 69941 7//// 8//// 91150 333 0//// 10267 20209 4//// 50209 55030 56/// 57/// 59026 60007 70010 8//// 8//// 8//// 8//// 9//// 9/
AAXX 14121 76556 32960 01201 10128 20100 39115 40137 57006 91130 333 10272 20125 30105 59010 70000
AAXX 14121 76577 32960 00000 10096 20082 38057 40166 51001 91140 333 10256 20090 30079 59006 70000
AAXX 14121 76581 32960 63501 10162 20132 39070 40175 5//// 86060 91150 333 10270 20148 30141 56030 59020 70000 86359
AAXX 14121 76585 32680 70000 10200 20194 30022 40179 52004 874// 91140 333 10278 20199 30190 55080 562// 59022 70000 87637
AAXX 14121 76586 06/// /0000 10198 20196 30024 40180 55003 60001 7//// 8//// 91150 333 0//// 10303 20198 30/// 4//// 50269 54/// 55076 56/// 57/// 59029 60007 70000 8//// 8//// 8//// 9/
AAXX 14121 76592 06/// /1003 10204 20054 30189 40189 53001 60001 7//// 8//// 91150 333 0//// 10277 20204 30/// 4//// 50679 54/// 55092 56/// 57/// 59012 60007 70000 8//// 8//// 8//// 9/
AAXX 14121 76593 32960 01202 10204 20204 30189 40191 56007 91150 333 10277 20202 30197 59009 70000
AAXX 14121 76612 32958 00000 10085 20080 38482 40187 5//// 91155 333 10266 20080 30070 55103 21003 59011 70000
AAXX 14121 76625 32560 20902 10114 20084 38162 40142 57011 82400 91140 333 10274 20105 30095 56200 59003 70000 82625
AAXX 14121 76634 32970 01402 10078 20064 37867 40218 5//// 91155 333 10228 20046 30018 56/// 59016 70000
AAXX 14121 76641 06/// /0000 10207 20207 30169 40181 56007 60001 7//// 8//// 91150 333 0//// 10311 20203 30/// 4//// 50179 54/// 55000 56/// 57/// 59027 60007 70006 8//// 8//// 8//// 8/
AAXX 14121 76644 32750 10801 10203 20201 30169 40182 57023 81080 91150 333 10322 20200 30174 56/9/ 59020 70000
AAXX 14121 76645 06/// /0602 10203 20201 30179 40192 54000 60001 7//// 8//// 91150 333 0//// 10315 20201 30/// 4//// 50389 54/// 55070 56/// 57/// 59014 60007 70000 8//// 8//// 8//// 9/
AAXX 14121 76648 06/// /0102 10199 20188 30152 40183 55002 60001 7//// 8//// 91150 333 0//// 10322 20191 30/// 4//// 50299 54/// 55000 56/// 57/// 59015 60007 70000 8//// 8//// 8//// 8/
AAXX 14121 76654 31956 03601 10214 20142 30140 40144 55000 70544 91150 333 10308 20214 30165 59015 70000
AAXX 14121 76658 31956 00903 10178 20109 39638 40146 57004 70540 80000 91145 333 10330 20170 30152 56000 59013 70000 98914
AAXX 14121 76659 06/// /0502 10171 20104 3//// 4//// 5//// 60001 7//// 8//// 91150 333 0//// 10351 20156 30/// 4//// 50369 54/// 55086 56/// 57/// 5//// 60007 70000 8//// 8//// 8//// 9/
AAXX 14121 76662 32960 03401 10084 20066 38474 40171 57002 91145 333 10285 20072 30064 59012 70000
AAXX 14121 76665 32958 02201 10070 20034 38138 40182 54000 91150 333 10274 20060 30050 59004 70000
AAXX 14121 76675 32960 01601 11001 21028 37393 40231 57005 91150 333 10225 21014 31040 59008 70000
AAXX 14121 76680 31956 03200 10096 20022 37768 40116 57003 70444 91150 333 10254 20080 30070 59011 70000
AAXX 14121 76683 32962 00301 10046 20031 37849 40226 56005 91145 333 10243 20046 30015 50271 55105 21948 59011 70000
AAXX 14121 76684 06/// /0603 10042 20023 37851 40277 56004 60001 7//// 8//// 91150 333 0//// 10257 20040 30/// 4//// 50339 54/// 55096 56/// 57/// 59012 60007 70000 8//// 8//// 8//// 9/
AAXX 14121 76685 32950 00000 10064 20053 37885 40176 57011 91158 333 10242 20062 30042 59001 70000
AAXX 14121 76687 31462 10000 10116 20108 38708 40204 56003 70100 81500 91135 333 10235 20108 30100 563// 59008 79999 81620
AAXX 14121 76692 31/02 92401 10192 20190 30171 40190 55001 74740 91145 333 10274 20190 30190 59010 70000
AAXX 14121 76693 06/// /2200 10189 20185 30171 40190 55000 60001 7//// 8//// 91150 333 0//// 10274 20189 30/// 4//// 50189 55000 56/// 57/// 59010 60007 70000 8//// 8//// 8//// 8//// 9/
AAXX 14121 76695 32956 11001 10201 20194 30170 40176 57001 81020 91150 333 10202 20200 30178 56/0/ 58014 70000 81460
AAXX 14121 76698 32560 50000 10208 20205 30171 40183 5//// 85200 91155 333 10296 20207 30183 56100 59011 70000 85820
AAXX 14121 76727 06/// /2901 10146 20029 38409 40150 55004 60001 7//// 8//// 91150 333 0//// 10283 20142 30/// 4//// 50239 54/// 55000 56/// 57/// 59013 60007 70000 8//// 8//// 8//// 9/
AAXX 14121 76737 32980 00000 10113 20092 38803 40197 56004 91135 333 10243 20113 30090 59009 70000 91102 91529
AAXX 14121 76738 06/// /0101 10110 20100 38805 40218 56004 60001 7//// 8//// 333 10249 20106 30/// 50189 55000 56/// 57/// 59009 60007 70000 8//// 8//// 8//// 8//// 9//// 9//// 9//// 44
AAXX 14121 76743 01450 80501 10226 20190 30166 40174 55004 60011 70252 82150 91145 333 10280 20226 30220 5610/ 59017 60017 70010 82815 86356
AAXX 14121 76750 01560 73202 10214 20204 30164 40174 5//// 69961 75152 87600 91150 333 10311 20206 30202 56100 59020 69967 70006 87720
AAXX 14121 76751 06/// /3402 10210 20208 30164 40175 53001 69961 7//// 8//// 91150 333 0//// 10310 20210 30/// 4//// 50239 54/// 55000 56/// 57/// 59010 69967 70006 8//// 8//// 8//// 9/
AAXX 14121 76772 06/// /0401 10057 20039 38447 40243 55001 60001 7//// 8//// 91150 333 0//// 10280 20056 30/// 4//// 5///9 55000 56/// 57/// 59007 60007 70000 8//// 8//// 8//// 9//// 9/
AAXX 14121 76773 32956 00000 10063 20048 38441 40170 52002 91147 333 10279 20051 30030 50431 55101 59008 70000
AAXX 14121 76775 31960 00601 10073 20039 38549 40206 52001 70200 91145 333 10275 20069 30/// 59003 70000
AAXX 14121 76776 06/// /0302 10063 20033 38534 40237 53002 60001 7//// 8//// 91150 333 0//// 10288 20060 30/// 4//// 50379 55088 56/// 57/// 59005 60007 70000 8//// 8//// 8//// 9//// 9/
AAXX 14121 76806 06/// /00// 10223 20222 30127 40131 53001 60001 7//// 8//// 91150 333 10315 20215 30210 30/// 50219 55000 56/// 57/// 59011 60007 70000 8//// 8//// 8//// 8//// 9//// 9/
AAXX 14121 76833 32965 03610 10264 20161 30128 40130 57004 91155 333 10324 20252 30244 59008 70000 92023
AAXX 14121 76840 32901 00205 10254 20176 30077 40133 5//// 91145 333 10335 20190 30/// 59005 70000
AAXX 14121 76843 32965 00000 10175 20161 39518 40164 52020 91132 333 10297 20172 30165 59012 70000
AAXX 14121 76845 32240 60000 10122 20108 37958 40185 5//// 86600 91150 333 10170 20095 30084 56200 59013 70000 86707
AAXX 14121 76848 11260 70501 10131 20117 38395 40126 56001 69901 75652 87700 91150 333 10204 20130 30119 56100 59008 70004 87706
AAXX 14121 76902 06/// /0401 10218 20153 39986 40126 56004 60001 7//// 8//// 91150 333 0//// 10336 20218 30/// 4//// 50409 54/// 56/// 57/// 59007 60007 70000 8//// 8//// 8//// 8//// 9/
AAXX 14121 76243 11364 82401 10156 20150 39855 40149 57003 60021 75052 887// 91140 333 10170 20144 30132 563// 59059 70020 88709
AAXX 14121 76311 32620 70000 10173 20157 39887 40164 54000 87600 91155 333 10232 20171 30165 56400 58012 70000 87625
AAXX 14121 76405 32840 60000 10189 20162 30159 40181 52003 86050 91150 333 10252 20188 30184 56050 58019 70000 86356
AAXX 14121 76412 32960 82202 10174 20148 30138 40184 57002 88050 91145 333 10290 20170 30/// 56050 58006 70000 88356
AAXX 14121 76640 31010 70000 10208 20205 30166 40178 57025 70222 8472/ 91145 333 10272 20202 30200 5699/ 59045 79999 84701 83445
AAXX 14121 76647 31810 13601 10200 20197 30164 40194 53004 74244 81030 91150 333 10314 20190 30172 560/0 58018 70000 81358
AAXX 14121 76741 31240 40403 10233 20218 30142 40161 52000 70542 84200 91135 333 10274 20215 30205 561// 58000 70000 84806
AAXX 14121 76855 32980 03602 10210 20180 30072 40122 55000 91150 333 10335 20204 30200 59004 70000 92000
AAXX 14121 76040 32902 01201 10048 20031 30188 40202 52010 91145 33310115 20040 31/// 58084 70000 98602
AAXX 14121 76056 06/// /2805 10066 20026 30167 40192 52007 60001 7////8//// 91150 333 0//// 10191 20060 30/// 4//// 50189 54///55052 56/// 57/// 58087 60007 70004 8//// 8//// 8//// 9/
AAXX 14121 76061 32970 00502 10094 20079 30133 40210 5//// 91140 33310168 20080 30076 55020 58082 70010
AAXX 14121 76113 32870 00401 10070 20066 39703 40179 5//// 91150 33310135 20064 30056 50011 55000 58064 70225
AAXX 14121 76122 32556 72306 10102 20028 38507 40114 57002 82137 91150333 10180 20093 30083 56559 58014 70029 82830 83347
AAXX 14121 76123 06/// 72315 10105 20015 3//// 4//// 5//// 60001 7////82137 91150 333 0//// 10177 20095 4//// 50249 55022 5655957/// 5//// 60007 70050 82830 83357 8//// 8//// 9//// 9/
AAXX 14121 76220 32820 50000 10076 20023 38127 40121 5//// 85070 91150333 10160 20076 30058 55073 56050 58005 70025 85357
AAXX 14121 76225 32720 52501 10120 20001 38597 40083 54000 85020 91155333 10259 20120 30080 56050 59008 70000 85357
AAXX 14121 76226 06/// /1701 10121 21012 38588 40092 55001 60001 7////8//// 91150 333 0//// 10263 20101 30/// 4//// 50489 54///55/// 56/// 57/// 59012 60007 70000 8//// 8//// 8//// 9/
AAXX 14121 76256 32960 63601 10150 20115 30174 40188 5//// 86070 91135333 10223 20140 30/// 56/5/ 58033 70000 86357
AAXX 14121 76258 32/50 /3404 10140 20137 30126 40171 5//// 91150 33310240 20134 30112 58026 70008
AAXX 14121 76305 32970 63401 10150 20082 30170 40178 5//// 86030 91130333 10243 20142 30131 56050 58033 70000 86358
AAXX 14121 76323 32910 41803 10090 20049 38249 40147 57013 80006 91145333 10273 20085 30055 56005 59016 70000 84268
AAXX 14121 76342 31430 80901 10130 20113 39470 40182 54000 70222 887//91150 333 10180 20126 30120 561// 59052 70004 88710
AAXX 14121 76373 32910 00000 10019 20010 38216 40163 5//// 91150 33310240 20005 31010 59011 70000
AAXX 14121 76382 32960 61602 10158 20092 38895 40105 52006 80008 91200333 10288 20147 30120 56007 59010 70000 83276
AAXX 14121 76393 31202 81101 10158 20142 39562 40139 57009 70422 887//91155 333 10196 20150 30138 569// 59050 70000 88707
AAXX 14121 76402 32950 20000 10122 20113 30131 40188 57001 82500 91145333 10226 20112 30110 56400 58030 70005 82628
AAXX 14121 76423 32960 00000 10076 20054 38161 40146 57003 91155 33310270 20072 30/// 59011 70000
AAXX 14121 76458 32960 03202 10182 20177 30150 40155 57004 91145 33310276 20159 30158 59005 70000
AAXX 14121 76471 32980 30000 10090 20077 37700 40131 5//// 80001 91155333 10223 20070 30051 55084 56005 59008 70000 83075
AAXX 14121 76490 06/// /1604 10206 20150 39764 40150 57006 60001 7////8//// 91150 333 0//// 10309 20179 30/// 50419 54/// 5508856/// 57/// 59030 60007 70000 8//// 8//// 8//// 8//// 9/
AAXX 14121 76491 32956 01603 10204 20188 39779 40166 57008 91145 33310312 20170 30/// 59039 70000
AAXX 14121 76538 06/// /0000 10099 20100 38185 40204 53001 60001 7////8//// 91150 333 0//// 10254 20066 30/// 4//// 50249 54///55063 56/// 57/// 59008 60007 70000 8//// 8//// 8//// 9/
AAXX 14121 76539 32658 83301 10097 20095 38181 40209 52004 88400 91150333 10250 20066 30038 56700 59008 70000 88626
AAXX 14121 76543 32675 62901 10211 20197 30169 40202 55/// 83550 91146333 10309 20209 30/// 56330 59024 70000 83650 83358
AAXX 14121 76547 06/// /2001 10209 20208 30168 40180 55005 69941 7////8//// 91150 333 0//// 10267 20209 4//// 50209 55030 56///57/// 59026 60007 70010 8//// 8//// 8//// 8//// 9//// 9/
AAXX 14121 76556 32960 01201 10128 20100 39115 40137 57006 91130 33310272 20125 30105 59010 70000
AAXX 14121 76577 32960 00000 10096 20082 38057 40166 51001 91140 33310256 20090 30079 59006 70000
AAXX 14121 76581 32960 63501 10162 20132 39070 40175 5//// 86060 91150333 10270 20148 30141 56030 59020 70000 86359
AAXX 14121 76585 32680 70000 10200 20194 30022 40179 52004 874// 91140333 10278 20199 30190 55080 562// 59022 70000 87637
AAXX 14121 76586 06/// /0000 10198 20196 30024 40180 55003 60001 7////8//// 91150 333 0//// 10303 20198 30/// 4//// 50269 54///55076 56/// 57/// 59029 60007 70000 8//// 8//// 8//// 9/
AAXX 14121 76592 06/// /1003 10204 20054 30189 40189 53001 60001 7////8//// 91150 333 0//// 10277 20204 30/// 4//// 50679 54///55092 56/// 57/// 59012 60007 70000 8//// 8//// 8//// 9/
AAXX 14121 76593 32960 01202 10204 20204 30189 40191 56007 91150 33310277 20202 30197 59009 70000
AAXX 14121 76612 32958 00000 10085 20080 38482 40187 5//// 91155 33310266 20080 30070 55103 21003 59011 70000
AAXX 14121 76625 32560 20902 10114 20084 38162 40142 57011 82400 91140333 10274 20105 30095 56200 59003 70000 82625
AAXX 14121 76634 32970 01402 10078 20064 37867 40218 5//// 91155 33310228 20046 30018 56/// 59016 70000
AAXX 14121 76641 06/// /0000 10207 20207 30169 40181 56007 60001 7////8//// 91150 333 0//// 10311 20203 30/// 4//// 50179 54///55000 56/// 57/// 59027 60007 70006 8//// 8//// 8//// 8/
AAXX 14121 76644 32750 10801 10203 20201 30169 40182 57023 81080 91150333 10322 20200 30174 56/9/ 59020 70000
AAXX 14121 76645 06/// /0602 10203 20201 30179 40192 54000 60001 7////8//// 91150 333 0//// 10315 20201 30/// 4//// 50389 54///55070 56/// 57/// 59014 60007 70000 8//// 8//// 8//// 9/
AAXX 14121 76648 06/// /0102 10199 20188 30152 40183 55002 60001 7////8//// 91150 333 0//// 10322 20191 30/// 4//// 50299 54///55000 56/// 57/// 59015 60007 70000 8//// 8//// 8//// 8/
AAXX 14121 76654 31956 03601 10214 20142 30140 40144 55000 70544 91150333 10308 20214 30165 59015 70000
AAXX 14121 76658 31956 00903 10178 20109 39638 40146 57004 70540 8000091145 333 10330 20170 30152 56000 59013 70000 98914
AAXX 14121 76659 06/// /0502 10171 20104 3//// 4//// 5//// 60001 7////8//// 91150 333 0//// 10351 20156 30/// 4//// 50369 54///55086 56/// 57/// 5//// 60007 70000 8//// 8//// 8//// 9/
AAXX 14121 76662 32960 03401 10084 20066 38474 40171 57002 91145 33310285 20072 30064 59012 70000
AAXX 14121 76665 32958 02201 10070 20034 38138 40182 54000 91150 33310274 20060 30050 59004 70000
AAXX 14121 76675 32960 01601 11001 21028 37393 40231 57005 91150 33310225 21014 31040 59008 70000
AAXX 14121 76680 31956 03200 10096 20022 37768 40116 57003 70444 91150333 10254 20080 30070 59011 70000
AAXX 14121 76683 32962 00301 10046 20031 37849 40226 56005 91145 33310243 20046 30015 50271 55105 21948 59011 70000
AAXX 14121 76684 06/// /0603 10042 20023 37851 40277 56004 60001 7////8//// 91150 333 0//// 10257 20040 30/// 4//// 50339 54///55096 56/// 57/// 59012 60007 70000 8//// 8//// 8//// 9/
AAXX 14121 76685 32950 00000 10064 20053 37885 40176 57011 91158 33310242 20062 30042 59001 70000
AAXX 14121 76687 31462 10000 10116 20108 38708 40204 56003 70100 8150091135 333 10235 20108 30100 563// 59008 79999 81620
AAXX 14121 76692 31/02 92401 10192 20190 30171 40190 55001 74740 91145333 10274 20190 30190 59010 70000
AAXX 14121 76693 06/// /2200 10189 20185 30171 40190 55000 60001 7////8//// 91150 333 0//// 10274 20189 30/// 4//// 50189 5500056/// 57/// 59010 60007 70000 8//// 8//// 8//// 8//// 9/
AAXX 14121 76695 32956 11001 10201 20194 30170 40176 57001 81020 91150333 10202 20200 30178 56/0/ 58014 70000 81460
AAXX 14121 76698 32560 50000 10208 20205 30171 40183 5//// 85200 91155333 10296 20207 30183 56100 59011 70000 85820
AAXX 14121 76727 06/// /2901 10146 20029 38409 40150 55004 60001 7////8//// 91150 333 0//// 10283 20142 30/// 4//// 50239 54///55000 56/// 57/// 59013 60007 70000 8//// 8//// 8//// 9/
AAXX 14121 76737 32980 00000 10113 20092 38803 40197 56004 91135 33310243 20113 30090 59009 70000 91102 91529
AAXX 14121 76738 06/// /0101 10110 20100 38805 40218 56004 60001 7////8//// 333 10249 20106 30/// 50189 55000 56/// 57/// 5900960007 70000 8//// 8//// 8//// 8//// 9//// 9//// 9//// 44
AAXX 14121 76743 01450 80501 10226 20190 30166 40174 55004 60011 7025282150 91145 333 10280 20226 30220 5610/ 59017 60017 7001082815 86356
AAXX 14121 76750 01560 73202 10214 20204 30164 40174 5//// 69961 7515287600 91150 333 10311 20206 30202 56100 59020 69967 7000687720
AAXX 14121 76751 06/// /3402 10210 20208 30164 40175 53001 69961 7////8//// 91150 333 0//// 10310 20210 30/// 4//// 50239 54///55000 56/// 57/// 59010 69967 70006 8//// 8//// 8//// 9/
AAXX 14121 76772 06/// /0401 10057 20039 38447 40243 55001 60001 7////8//// 91150 333 0//// 10280 20056 30/// 4//// 5///9 5500056/// 57/// 59007 60007 70000 8//// 8//// 8//// 9//// 9/
AAXX 14121 76773 32956 00000 10063 20048 38441 40170 52002 91147 33310279 20051 30030 50431 55101 59008 70000
AAXX 14121 76775 31960 00601 10073 20039 38549 40206 52001 70200 91145333 10275 20069 30/// 59003 70000
AAXX 14121 76776 06/// /0302 10063 20033 38534 40237 53002 60001 7////8//// 91150 333 0//// 10288 20060 30/// 4//// 50379 5508856/// 57/// 59005 60007 70000 8//// 8//// 8//// 9//// 9/
AAXX 14121 76806 06/// /00// 10223 20222 30127 40131 53001 60001 7////8//// 91150 333 10315 20215 30210 30/// 50219 55000 56///57/// 59011 60007 70000 8//// 8//// 8//// 8//// 9//// 9/
AAXX 14121 76833 32965 03610 10264 20161 30128 40130 57004 91155 33310324 20252 30244 59008 70000 92023
AAXX 14121 76840 32901 00205 10254 20176 30077 40133 5//// 91145 33310335 20190 30/// 59005 70000
AAXX 14121 76843 32965 00000 10175 20161 39518 40164 52020 91132 33310297 20172 30165 59012 70000
AAXX 14121 76845 32240 60000 10122 20108 37958 40185 5//// 86600 91150333 10170 20095 30084 56200 59013 70000 86707
AAXX 14121 76848 11260 70501 10131 20117 38395 40126 56001 69901 7565287700 91150 333 10204 20130 30119 56100 59008 70004 87706
AAXX 14121 76902 06/// /0401 10218 20153 39986 40126 56004 60001 7////8//// 91150 333 0//// 10336 20218 30/// 4//// 50409 54///56/// 57/// 59007 60007 70000 8//// 8//// 8//// 8//// 9/
AAXX 14121 76243 11364 82401 10156 20150 39855 40149 57003 60021 75052887// 91140 333 10170 20144 30132 563// 59059 70020 88709
AAXX 14121 76311 32620 70000 10173 20157 39887 40164 54000 87600 91155333 10232 20171 30165 56400 58012 70000 87625
AAXX 14121 76405 32840 60000 10189 20162 30159 40181 52003 86050 91150333 10252 20188 30184 56050 58019 70000 86356
AAXX 14121 76412 32960 82202 10174 20148 30138 40184 57002 88050 91145333 10290 20170 30/// 56050 58006 70000 88356
AAXX 14121 76640 31010 70000 10208 20205 30166 40178 57025 70222 8472/91145 333 10272 20202 30200 5699/ 59045 79999 84701 83445
AAXX 14121 76647 31810 13601 10200 20197 30164 40194 53004 74244 8103091150 333 10314 20190 30172 560/0 58018 70000 81358
AAXX 14121 76741 31240 40403 10233 20218 30142 40161 52000 70542 8420091135 333 10274 20215 30205 561// 58000 70000 84806
AAXX 14121 76855 32980 03602 10210 20180 30072 40122 55000 91150 33310335 20204 30200 59004 70000 92000
BBXX UFTA 14121 99851 71230 41997 20901 11347 21381 40077 52012 70271 80001 333 11272
AAXX 14121 01281 16/// /1604 10040 21028 39552 49720 58012 60001 333 91113
AAXX 14124 91930 36/// ///// 10256 20221 333 10320
AAXX 14124 91943 36/// /0908 10265 20215 30126 40128 56014 333 58000
AAXX 14121 89061 179// 03205 10004 20004 39938 49944 52026 69982 77177 333 10014 20001 91006 91109
AAXX 14124 91367 32474 41012 10272 20239 84100 333 10311 562// 84815 555 91412
AAXX 14124 70026 NIL
AAXX 14124 70133 NIL
AAXX 14124 70174 NIL
AAXX 14124 70200 NIL
AAXX 14124 70219 NIL
AAXX 14124 70231 NIL
AAXX 14124 70261 NIL
AAXX 14124 70267 NIL
AAXX 14124 70271 NIL
AAXX 14124 70273 NIL
AAXX 14124 70308 NIL
AAXX 14124 70316 NIL
AAXX 14124 70326 NIL
AAXX 14124 70340 NIL
AAXX 14124 70350 NIL
AAXX 14124 70361 NIL
AAXX 14124 70381 NIL
AAXX 14124 70398 NIL
AAXX 14124 70414 NIL
AAXX 14124 03008 16/// /2618 10055 20024 39582 49649 51032 60031 91150 333 90710 91127
AAXX 14124 03010 46/// /2833 10079 20053 49661 51015 333 90710 91145
AAXX 14124 03014 46/// /2922 10058 20013 49639 51033 91150 333 8//// 90710 91129
AAXX 14124 03031 17557 /2818 10023 20005 39417 49736 53026 60031 782// 91150 333 553// 20338 82/21 85/30 90710 91139
AAXX 14124 03034 17674 /2621 10070 20026 39717 49730 51022 69981 781// 91150 333 86/46 90710 91136 91033
AAXX 14124 03037 17680 /2611 10071 20011 39732 49754 51018 69921 723// 91150 333 87/49
AAXX 14124 03039 46/// /2735 10002 21029 91150 333 90710 91144
AAXX 14124 03041 46/// /2532 11023 21023 91150 333 90710 91150
AAXX 14124 03044 17583 /2614 10057 20023 39606 49702 51019 60031 761// 91150 333 553// 20243 82/26 87/43 90710 91127 91027
AAXX 14124 03047 17682 /2114 10047 21006 39473 49767 51020 69961 723// 91150 333 553// 20185 81/31 90710 91127 91026
AAXX 14124 03062 17670 /2421 10057 20007 39711 49716 51021 69901 723// 91150 333 553// 20537 85/43 90710 91135
AAXX 14124 03065 46/// /2652 11039 21044 91150 333 90710 91174 91066
AAXX 14124 03068 12582 22621 10061 21002 39712 49720 52021 60001 81902 91150 333 81920 90710 91131
AAXX 14124 03072 46/// ///// 11026 21027 91150 333 91000
AAXX 14124 03080 15980 /2412 10050 21010 39577 49743 51025 60001 91150 333 8//99
AAXX 14124 03088 15969 /2221 10034 20025 39597 49757 51025 60001 91150 333 553// 20263 8//99 90710 91129
AAXX 14124 03094 15981 /2115 10058 21008 39717 49722 52028 60001 91150 333 8//99
AAXX 14124 03105 17564 /2725 10061 20031 39791 49808 51024 60031 761// 91150 333 82/21 83/39 90710 91137
AAXX 14124 03132 17463 /2623 10038 20029 39821 49834 51025 60021 761// 91150 333 87/10 90710 91136
AAXX 14124 03144 15983 /2317 10048 20020 39733 49775 51026 69901 91150 333 553// 20311 8//99 90710 91127
AAXX 14124 03148 46/// /2618 10014 20003 91150 333 90710 91133
AAXX 14124 03153 17357 /2625 10029 20022 39690 49827 51020 60041 751// 91150 333 553// 20089 87/06 90710 91138
AAXX 14124 03155 16371 /2315 10030 20030 39512 49804 51022 60031 91150 333 87/06
AAXX 14124 03158 15484 /2210 10035 20019 39664 49798 51027 69921 91150 333 553// 20146 88/17
AAXX 14124 03210 16329 /2529 10026 20017 39692 49841 51015 60041 91150 333 86/06 87/14 90710 91141 91041
AAXX 14124 03212 17460 /2607 10033 20015 39744 49842 51017 60091 762// 91150 333 87/18 86/26
AAXX 14124 03214 17459 /2522 10047 20033 39836 49854 51017 60021 751// 91150 333 83/12 83/29 85/48 90710 91137
AAXX 14124 03220 16381 ///// 10040 20030 39793 49827 51015 60031 91150 333 81/09 84/23
AAXX 14124 03224 11157 82523 10014 20013 39482 49824 51016 60071 75075 887// 91150 333 42001 88702 90710 91132
AAXX 14124 03226 17384 /2411 10020 20006 39569 49842 51015 69901 781// 91150 333 83/09 85/50
AAXX 14124 03230 16/// /2512 10024 20014 3//// 4//// 5//// 69921 91150 333 90710 91125
AAXX 14124 03238 17462 /2617 10025 20008 39640 49811 51006 69941 741// 91150 333 83/13 90710 91129 91028
AAXX 14124 03261 11468 72315 10034 20009 39820 49860 51011 69941 78082 8687/ 91150 333 81815 85818 90710 91128
AAXX 14124 03265 17450 /2217 10025 20011 39828 49859 51015 69981 782// 91150 333 83/12 84/20 90710 91131
AAXX 14124 03266 11570 72314 10048 21013 39843 49860 52009 69901 78011 8527/ 91150 333 85828 87359 90710 91129
AAXX 14124 03275 17965 /2224 10035 20002 39645 49835 53009 69901 781// 91150 333 87/58 90710 91137 91035
AAXX 14124 03281 16/// /2323 10026 21001 60001 91150 333 90710 91133
AAXX 14124 03903 16775 /2310 10040 20006 39797 49854 52014 69941 91150 333 553// 20301 81/56
AAXX 14124 03904 17775 /2412 10037 20012 39783 49842 51023 60011 723// 91150 333 82/50 86/63 90710 91125
AAXX 14124 03907 17673 /2216 10040 20022 39822 49829 51021 60111 781// 91150 333 55300 20138 87/42
AAXX 14124 03911 16274 /2414 10010 20005 39575 49847 51023 69961 91150 333 4/007 83/04 83/21 85/32 90710 91125
AAXX 14124 03915 16481 /1908 10018 20018 39762 49840 52024 60021 91150 333 82/12 87/50
AAXX 14124 03916 16473 /2406 10014 20011 39641 49830 51026 60041 91150 333 553// 20014 81/18 86/27
AAXX 14124 03923 15981 /2513 10023 21006 39657 49851 51018 69961 91150 333 87/60 91023
BBXX 41041 14121 99142 70460 46/// /1010 10265 20209 40131 53019 91150 22200 00266 11007 20705 3//// 41004 70033 333 91212 555 11107 22114 31120 41014 61149 100101 102107 101112 101107 095106 095105 81012 91120
AAXX 14124 78526 NIL
AAXX 14124 78543 NIL
AAXX 14124 96491 12465 73503 10271 20249 30082 40094 60001 83832 333 10309 83816 87078
AAXX 14124 78255 12559 30407 10213 20180 30033 40182 52010 60004 82502 333 20210 81620
AAXX 14124 78317 NIL
AAXX 14124 78318 NIL
AAXX 14124 78325 NIL
AAXX 14124 78333 NIL
AAXX 14124 78338 NIL
AAXX 14124 78348 NIL
AAXX 14124 78349 NIL
AAXX 14124 78353 NIL
AAXX 14124 78360 NIL
AAXX 14124 78367 NIL
AAXX 14124 78369 NIL
AAXX 14124 91165 NIL
AAXX 14124 91182 NIL
AAXX 14124 91190 NIL
AAXX 14124 91212 NIL
AAXX 14124 91217 NIL
AAXX 14124 91285 NIL
AAXX 14124 91317 NIL
AAXX 14124 91334 32474 80608 10279 20230 30076 40079 50003 82171 333 10311 56199 59010 70008 555 91412
AAXX 14124 91348 11472 80705 10270 20239 30037 40090 52002 69981 78082 8627/ 333 10294 56299 59008 70066 555 91412
AAXX 14124 91356 11358 81207 10267 20236 30081 40088 51007 60261 76386 88200 333 10294 562// 59006 70505 88808 555 91412
AAXX 14124 91366 NIL
AAXX 14124 91369 NIL
AAXX 14124 91371 NIL
AAXX 14124 91376 32474 60708 10278 20229 30091 40095 50002 83871 333 10307 56229 58002 555 91412
AAXX 14124 91413 11466 80708 10255 20240 30059 40084 50008 60241 72582 8537/ 333 10286 5629/ 59021 70295 555 91412
AAXX 14124 91425 NIL
AAXX 14124 91434 NIL
AAXX 14124 91765 NIL
AAXX 14124 91408 11473 80705 10265 20250 30046 40084 52014 69901 70282 84208 333 10311 561/9 59006 70117 555 91412
AAXX 14124 91222 NIL
AAXX 14124 91245 NIL
AAXX 14124 91323 NIL
AAXX 14124 91339 NIL
AAXX 14124 91343 NIL
AAXX 14124 91353 NIL
AAXX 14124 91442 NIL
AAXX 14121 26554 41456 82004 10050 20030 39927 40089 58001 71052 886// 333 88714 555 11004
AAXX 14121 26666 41235 81903 10044 20034 39904 40118 53001 75152 886// 333 88703 91110 555 11004
AAXX 14121 26850 41358 82103 10050 20030 39854 40125 52008 71022 885// 333 88708 555 11005
AAXX 14121 26863 41356 82004 10053 20044 39902 40138 58001 72065 886// 333 88709 555 11004
AAXX 14121 26941 42960 21803 10064 20030 39890 40126 58004 82070 555 11008
AAXX 14121 26951 42561 72004 10056 20042 39940 40139 52006 8655/ 333 86621 555 11005
AAXX 14121 33008 42965 42103 10078 20025 39953 40130 58006 82031 555 11008
AAXX 14121 33019 42960 71303 10066 20043 39968 40141 58004 80001 555 12006
AAXX 14121 33036 41458 71901 10060 20046 39935 40166 52003 71042 875// 333 86710 555 11006
AAXX 14121 33041 41/07 91803 10043 20043 30012 40168 58005 74542 555 11004
BBXX UCKG 14121 99730 10094 41/97 90706 10030 49811 54000 70222 22213 00090 20303
BBXX DGNB 14123 99376 70253 41397 53308 10160 20078 40315 52015 70211 85445 22264 00187 22102 80115
BBXX DGOS 14123 99357 70306 41598 53310 10206 20149 40295 52/// 70111 8524/ 22200 20303 333// 40303 80170
BBXX A8MW6 14124 99399 70098 41998 43211 10180 20081 40240 54000 70111 84/3/ 22281 00190 20603 332// 41214 5//// 80125
BBXX VRFX8 14124 99425 70203 41598 62729 10150 20080 40220 52030 76061 8596/ 22254 0//// 20608 330// 40910 80110
BBXX A8CH2 14124 99382 70279 41498 33204 10200 20153 40310 50000 70222 83145 22200 04160 20202 335// 40202 80170
BBXX VRGJ6 14123 99372 10073 41598 22014 10170 20094 40272 58019 70100 81140 22224 04176 20502 331// 40703 5//// 80130
AAXX 14124 03301 16580 /2517 10050 20013 39816 49889 51020 60001 91150 333 82/24 90710 91129
AAXX 14124 03305 17581 /2626 10041 21022 39628 49887 51014 69901 723// 91150 333 87/25 83/50 90710 91138 91038
AAXX 14124 03313 16781 /2513 10054 21013 39795 49887 51017 60001 91150 333 83/50 85/64 90710 91126 91024
AAXX 14124 03316 15662 /2430 10063 20016 39867 49878 51016 60001 91150 333 84/31 85/47 90710 91136
AAXX 14124 03318 16/// /2626 10059 20023 69941 91150 333 90710 91137
AAXX 14124 03321 16682 /2611 10061 21004 39878 49890 51017 60001 91150 333 553// 20552 81/36
AAXX 14124 03330 15970 /2316 10022 21011 39535 49894 50012 69921 91150 333 8//99
AAXX 14124 03344 17476 /2316 10022 21008 39544 49859 51005 69901 785// 91150 333 82/14 83/44 90710 91132
AAXX 14124 03346 16/// /2325 10027 21012 60001 91150 333 90710 91136
AAXX 14124 03348 15780 /2217 10043 20001 39779 49885 51013 69901 91150 333 55308 20784 81/50 87/66
AAXX 14124 03355 13582 52219 10058 21010 39854 49865 51008 60001 82834 91150 333 55309 20722 81828 85075 90710 91129 91029
AAXX 14124 03373 16973 /2221 10045 20002 39816 49885 51010 60001 91150 333 8//99 90710 91130
AAXX 14124 03379 12982 22321 10042 21007 39823 49899 51013 60001 81042 91150 333 81364 90710 91129
AAXX 14124 03382 15985 /2216 10046 20007 39856 49864 51007 60001 91150 333 55310 20629 8//99 90710 91125
AAXX 14124 03385 42980 12221 10048 20009 39871 49881 50005 80001 91150 333 81072 90710 91128
AAXX 14124 03391 12984 42316 10041 21002 39888 49895 51009 60001 81031 91150 333 81360 84072
AAXX 14124 03392 16980 /2317 10041 20012 39894 49898 51011 60001 91150 333 8//99
AAXX 14124 03405 16580 /2529 10057 20006 39788 49902 51015 60001 91150 333 553// 20693 82/23 90710 91138
AAXX 14124 03409 16/// /2614 10043 21001 69961 91150 333 55300 2////
AAXX 14124 03410 16580 /2414 10029 21011 39468 49899 51018 60021 91150 333 553// 20606 82/27 84/34 90710 91127
AAXX 14124 03469 15983 /2420 10049 20011 39902 49906 51012 60001 91150 333 553// 20454 8//99 90710 91128
AAXX 14124 03488 15983 /2320 10055 20005 39877 49903 51010 60001 91150 333 8//99 90710 91129
AAXX 14124 03503 17681 /2610 10055 21007 39840 49916 51016 69921 723// 91150 333 81/38
AAXX 14124 03507 17465 /2214 10015 20005 39560 49931 51020 69941 781// 91150 333 84/19
AAXX 14124 03520 16780 /2513 10029 20007 39803 49924 51022 69941 91150 333 553// 20513 83/50 90710 91128
AAXX 14124 03522 17466 /2408 10047 20015 39836 49929 51017 69921 781// 91150 333 81/17 84/29
AAXX 14124 03529 15583 /2212 10032 20013 39890 49932 51019 60001 91150 333 81/22
AAXX 14124 03544 15782 /2307 10037 20006 39791 49921 51018 60001 91150 333 553// 20351 82/50
AAXX 14124 03560 15984 /2314 10040 20010 39817 49920 50013 69901 91150 333 553// 20335 83/62 90710 91125
AAXX 14124 03604 16583 /2616 10065 20025 39874 49927 51013 69941 91150 333 81/27 84/50 90710 91131
AAXX 14124 03605 11570 72720 10071 20019 39922 49931 51015 60001 70282 873// 91150 333 82920 84650 90710 91135 91030
AAXX 14124 03609 16/// /2528 10066 20017 39885 49937 50012 60031 91150 333 90710 91143
AAXX 14124 03628 17380 /2214 10022 20013 39873 49945 51019 60091 781// 91150 333 55300 20201 81/09 85/12 90710 91128
AAXX 14124 03647 16181 /2318 10015 20013 39676 49932 51018 69981 91150 333 553// 20408 86/02 90710 91126
AAXX 14124 03658 11384 72210 10033 20013 39875 49944 50022 69901 72582 8397/ 91150 333 81708 82915 83630 87357 90710 91127
AAXX 14124 03660 17784 /2707 10028 20007 39693 49941 50017 69901 723// 91150 333 86/56
AAXX 14124 03672 12682 52619 10053 21008 39906 49946 51019 60001 83802 91150 333 81835 83650 90710 91128
AAXX 14124 03684 15982 /2521 10052 20009 39822 49927 50009 69901 91150 333 8//99 90710 91131 91031
AAXX 14124 03693 16980 /2512 10066 20019 39937 49939 52014 60001 91150 333 81/67
AAXX 14124 03707 15981 /2519 10066 20023 39943 49950 51013 60061 91150 333 81/63 90710 91133
AAXX 14124 03710 16478 /2316 10013 20010 39535 49957 51021 69941 91150 333 553// 2//// 82/14
AAXX 14124 03743 11380 62308 10026 20010 39798 49959 51024 60011 72287 85963 91150 333 81708 84925 96015 96468 96472 96483
AAXX 14124 03749 11486 62411 10035 20009 39848 49959 50023 69961 72682 83933 91150 333 81712 82915 84070
AAXX 14124 03761 11484 52514 10042 20007 39811 49955 50023 69901 72582 83810 91150 333 55306 20714 81815 83650 90710 91127
AAXX 14124 03768 16468 /2711 10046 20008 39872 49951 50020 60001 91150 333 83/17 90710 91125
AAXX 14124 03769 15585 /2609 10054 20012 39874 49956 51022 60001 91150 333 55300 20309 82/29 91021
AAXX 14124 03770 16/// ///// 10061 20007 60001 91150
AAXX 14124 03781 15582 /2515 10044 20005 39745 49951 51019 60001 91150 333 553// 20440 81/23
AAXX 14124 03797 15983 /2411 10061 20021 39889 49948 51014 60001 91150 333 55300 20335 82/64 84/69
AAXX 14124 03823 17780 /2210 10037 20024 39728 49970 50020 60041 723// 91150 333 553// 20498 81/50
AAXX 14124 03839 16/// ///// 10042 20020 69941 91150 333 553// 20179
AAXX 14124 03857 15570 /2828 10073 20024 39905 49968 51028 69901 91150 333 81/28 90710 91142 91039
AAXX 14124 03862 15982 /2612 10068 20018 39954 49966 51021 69901 91150 333 55309 20969 84/67
AAXX 14124 03866 16/// /2821 10076 20017 39942 49966 53027 60011 91150 333 90710 91141
AAXX 14124 03872 15782 /2816 10062 20016 39959 49964 51025 60001 91150 333 553// 20361 82/56 90710 91125
AAXX 14124 03876 16/// /2714 10061 20027 39960 49962 51022 69921 91150 333 90710 91125
AAXX 14124 03895 41475 62424 10081 20048 40010 51022 70182 86931 333 84915 90710 91139 91034
BBXX 51003 14121 99193 71606 46/// /0703 10248 40165 57007 91150 22200 00259 11303 20401 3//// 41303 70016 333 91203 555 11026 22027 31119 40604 61149 063025 059024 067027 069027 063025 060023
BBXX 44097 14121 99410 70711 46/// ///// 1//// 91202 22200 00125 11003 21002 316// 41101 70013
BBXX 44022 14121 99409 70737 46/// ///00 10045 21001 40298 51016 91200 22200 00086 333 91202
BBXX 46053 14121 99342 71198 46/// /1302 10131 40201 53011 91150 22200 00136 11102 20401 326// 41102 70010 333 91203 555 11025 22026 31148 41303 61149 128025 120022 133023 144023 144025 142027
BBXX 51205 14121 99210 71564 46/// ///// 1//// 91148 22200 00240 10904 20903 334// 41402 70021
BBXX 46238 14121 99334 71195 46/// ///// 1//// 91150 22200 00148 11303 20902 325// 41302 70014
BBXX MCCN6 14124 99301 31136 41398 21733 10212 20196 40089 56005 70111 82100 22233 00211 2//// 317// 40707 5//// 80202
BBXX PCDE 14123 99399 30985 41597 83304 10164 20116 40230 54000 70322 888// 22223 2//// 324// 41003 80136
BBXX PCCL 14123 99279 31562 41299 51316 10238 20147 40145 53015 70122 83770 22222 04250 20402 316// 40905 80180
BBXX C6XC2 14124 99025 11237 41897 83409 10250 20175 40080 53/// 75055 886// 22233 00300 2//// 3//// 4//// 5//// 6//// 80200 ICE /////
BBXX KAOU 14124 99078 10984 43/// /3204 10277 20221 40085 5//// 7//// 8//// 222// 04301 2//// 3//// 4//// 5//// 6//// 8//// ICE /////
BBXX PFRO 14124 99220 70717 41598 40436 10250 20196 40144 55015 7//00 845// 22234 20809 304// 40809 80215
BBXX NWS0029 14124 99201 70340 43/// /0722 10241 20177 40190 5//// 7//// 8//// 222// 04252 2//// 3//// 4//// 5//// 6//// 8//// ICE /////
BBXX WJBJ 14124 99287 70786 41398 60723 10205 2015/ 40232 57005 7//22 862// 22234 00265 20606 308// 40909 5//// 6//// 80170 ICE /////
BBXX NWS0020 14124 99368 10133 43/// /2211 10174 20113 40238 5//// 7//// 8//// 222// 04191 2//// 3//// 4//// 5//// 6//// 8//// ICE /////
BBXX WRTF 14124 99513 71506 41498 42317 10058 2002/ 40058 52024 70211 84239 22214 00060 2//// 3//// 4//// 5//// 6//// 80042 ICE /////
BBXX PCHM 14124 99372 31760 41597 30420 10180 20163 40128 57000 70322 828// 22284 00190 20000 30000 80170
BBXX PBIG 14124 99140 70816 41598 50520 10272 20208 40120 52010 70211 84861 22284 00290 20205 399// 4////
BBXX PDGS 14124 99136 70904 41998 30108 10270 40120 52020 70111 83048 22274 00280 2//// 328// 40502
AAXX 14121 06235 17569 72108 10067 20043 39920 49920 51009 60011 72198 8//// 333 81/21 84/25 85/30 91010 91115 91210
AAXX 14124 78906 11480 11504 10252 20214 20111 40116 60002 702// 81400 333 10309 20222 59013 81819
AAXX 14123 64810 NIL
AAXX 14123 64820 32460 52808 10300 20255 30099 40108 82502 333 58005 82613 85070
AAXX 14121 06414 16/// /2407 10042 20018 39943 49975 52028 60021 333 91113 91209
AAXX 14121 06459 16/// /2708 10047 20043 39796 49988 52021 60031 333 91120 91213
AAXX 14121 06494 16/// /2407 10021 20017 39191 49985 50010 60061 333 91118 91211
AAXX 14124 78866 32586 10605 10263 20213 30119 40124 52012 81101 333 10289 20241 59011 70002 81822
BBXX WBP3210 14124 99531 50709 43/// /3613 10136 2//// 40166 5//// 7//// 8//// 22200 00080 2//// 3//// 4//// 5//// 6//// ICE /////
BBXX 32012 14121 99197 50856 46/// ///// 1//// 91150 22200 11204 70022
BBXX A8GU7 14121 99151 50370 41797 50709 10270 20198 40120 53010 70322 8315/ 22214 00270 20804 309// 41003 5//// 80220
BBXX KABP 14123 99120 10435 43/95 /1419 10278 2019/ 40150 56010 7//// 8//// 22211 0//// 2//// 3//// 4//// 5//// 6//// 80220 ICE /////
BBXX BATFR55 14124 99164 30540 44597 40912 10277 20257 40084 70122 824/2 22232 00279 20704
BBXX BATFR45 14124 99107 30411 46/// ///// 10297 20240 40097 58019 22244 00305
BBXX BATFR19 14124 99048 30094 46/// /1715 10255 20214 40113 56019 22242 00262
BBXX BATEU00 14124 99599 30211 46/// /3320 11012 21013 49935 56038 22243
BBXX A8RW3 14123 99259 50286 41598 50310 10240 20180 40190 51010 70311 83145 22264 04220 21004 80200
BBXX A8FB9 14123 99098 70166 41997 00506 10310 20236 40135 58010 71000 80000 22274 04290 20203 336// 40603 80256
BBXX TBWUK18 14124 99282 50315 41/98 31015 10235 20188 40199 52008 70100 8316/ 22232 00240 20403 329// 40703 5//// 80205
BBXX A8YW2 14124 99316 30382 41497 50418 10250 20204 40125 54000 70211 8424/ 22224 00210 21401 80220
BBXX ZCBZ5 14123 99202 10691 41297 50215 10274 20232 40117 56005 70222 83648 22274 02278 20201 334// 40503 5//// 80245
BBXX SHIP 14124 99364 11441 41697 71723 10150 2010/ 40168 57006 7//22 8777/ 22215 00250 20303 313// 40303 5//// 6//// 80120 ICE /////
BBXX WDE9586 14123 99346 11666 43598 43112 10130 2007/ 40190 54000 7//// 844// 22224 00190 2//// 3//// 4//// 5//// 6//// 80100 ICE /////
BBXX C6SI6 14124 99337 11373 46/// /3312 10151 20035 40196 52006 7//// 8//// 22253 0//// 2////
BBXX A8VL5 14124 99066 10757 41597 30320 10270 20241 40210 54000 71000 83030 22265 00280 20202 30000 80250
BBXX A8IE7 14124 99059 10832 41598 50516 10280 40080 51005 70222 8/2// 22265 04286 21102
BBXX 46070 14121 99551 11753 46/// /3010 10032 20006 49656 57011 91150 22200 00039 11512 20806 3//// 41511 70061 333 91213 555 11108 22114 31142 43013 61149 295100 303097 306092 296090 295094 302085 82911 91142
BBXX C6YA7 14124 99209 11530 41797 50716 10235 2021/ 40150 54000 70322 854// 22253 00260 2//// 3//// 4//// 5//// 6//// 80220 ICE /////
BBXX 46089 14121 99459 71258 46/// /1403 10076 20023 40199 56005 91150 22200 00095 11405 330// 41405 70023 333 91204 555 11031 22032 31110 41405 61149 142030 143029 154027 153026 145026 143025
BBXX 44011 14121 99411 70666 46/// /0110 10064 20022 40233 53019 91150 22200 00103 10605 20605 3//// 41002 70024 333 91212 555 11100 22105 31106 42012 61149 011093 007098 013093 013094 009097 010098
BBXX 42364 14121 99291 70881 46/// /1309 10206 20161 40247 55004 91200
BBXX 42363 14121 99282 70892 46/// /1213 10217 20150 40241 56006 91200 333 91213
BBXX 41046 14121 99238 70683 46/// /0311 10245 20186 40154 53016 91150 22200 00261 11106 20705 300// 41103 70030 333 91213 555 11112 22118 31121 40215 61149 025106 022116 024114 027106 026111 025112 80213 91135
BBXX 42362 14121 99278 70907 46/// /1111 10228 20178 40227 91145
BBXX 41009 14121 99285 70802 46/// /0609 10225 20140 40248 53004 91150 22200 00247 11105 20603 300// 41104 70026 333 91211 555 11093 22098
BBXX 42057 14121 99168 70815 46/// /0411 10273 20211 40139 52008 91150 22200 00281 10805 20805 70024 333 91213 555 11112 22119 31103 40415 61149 038110 032114 040116 042120 037120 036123 80413 91056
BBXX 41010 14121 99289 70785 46/// /0409 10212 40248 53005 91150 22200 00239 11006 20804 300// 41004 70029 333 91211 555 11093 22098
BBXX 44039 14121 99411 70727 46/// /3405 10060 20011 40300 91145 22200 00101 10301 70003 333 91206
BBXX PGQI 14123 99260 70381 41597 11120 10240 20165 40231 51008 70100 81200 22263 20604 399// 41004 80191
BBXX WAHK 14124 99346 70755 41998 10120 10130 2007/ 40278 51010 70300 80//1 22254 00252 2//// 3//// 4//// 5//// 6//// 80100 ICE /////
BBXX PBIG 14124 99140 70816 41598 50520 10272 20208 40120 52010 70211 84861 22284 00290 20205 399// 4////
BBXX PHBO 14123 99205 70534 41598 41421 10268 20206 40126 53005 70211 82264 22254 20503 309// 41005 80227
BBXX 9HA2583 14124 99283 70727 41898 53625 1//// 2//// 40220 54/// 7//21 84888 22245 04243 2//// 3//// 4//// 5//// 6//// 8//// ICE /////
BBXX CG2965 14124 99487 71235 46/// /2504 10020 20003 40213 53004 7//// 8//// 22200 0//// 2////
BBXX VCSZ 14124 99477 70699 46/// /3505 11006 21007 40299 53002 7//// 8//// 22213 0//// 2////
BBXX CGBR 14124 99541 71305 46/// /1001 10002 20001 40177 58008 7//// 8//// 22200 0//// 2////
BBXX VXKF 14124 99476 70591 46/// /0208 11070 21156 40270 53042 7//// 8//// 22281 0//// 2////
BBXX VCWL 14124 99460 70732 46/// /0307 10005 21001 40301 53005 7//// 8//// 22252 00051 2////
BBXX CGDX 14124 99468 70712 46/// /0508 10008 21019 40307 53004 7//// 8//// 22200 0//// 2////
BBXX CG2958 14124 99488 71230 46/// /1004 10054 20020 40219 50004 7//// 8//// 22200 0//// 2////
BBXX CGBY 14124 99487 71235 46/// /2503 10022 20005 40212 53005 7//// 8//// 22200 0//// 2////
BBXX CGCC 14124 99462 70729 46/// /0310 10003 21001 40297 51007 7//// 8//// 22211 00051 2////
BBXX VCLM 14124 99621 70747 46/// /2218 11041 21069 49880 55020 7//// 8//// 22200 0//// 2////
BBXX CGJK 14124 99484 71234 46/// /3603 10030 20010 40209 53006 7//// 8//// 22200 0//// 2////
BBXX 3FZK3 14124 99538 71747 46/// /1920 10014 21017 49806 53047 7//// 8//// 22223 0//// 2////
BBXX VCBW 14124 99502 70607 46/// /3510 11144 21173 40293 55000 7//// 8//// 22200 0//// 2////
BBXX CGDT 14124 99490 70669 46/// /2005 11046 21066 40308 53002 7//// 8//// 22200 0//// 2////
BBXX VOKF 14124 99455 70735 46/// /0104 10006 20000 4//// 5//// 7//// 8//// 22200 0//// 2////
BBXX VOKJ 14124 99472 70707 46/// /0407 11003 21029 40305 53001 7//// 8//// 22254 0//// 2////
BBXX CGTF 14124 99476 70527 46/// /3003 11030 21089 40239 58007 7//// 8//// 22200 0//// 2////
BBXX UFTA 14121 99851 71230 41997 20901 11347 21381 40077 52012 70271 80001 333 11272
BBXX PHFV 14124 99173 70880 41/98 80217 10260 40170 70322 8/243 22273 00280 20301 312// 4//// 5////
BBXX ZCDS3 14121 99307 70687 41598 53510 10210 20149 40187 51016 70311 85200 22264 00240 20404 303// 40705 5//// 80174
BBXX A8TG2 14123 99188 71044 41/// /2903 10250 20204 40110 50000 7//00 8//// 2224/ 00230 21502 31919 41502 51202 80220
BBXX SHIP 14123 99303 71683 41598 82423 10220 2021/ 40170 54000 70222 8//// 22223 00232 2//// 3//// 4//// 5//// 6//// 80210 ICE /////
BBXX SHIP 14124 99397 71481 41898 71307 10145 20101 40225 54000 70222 87/5/ 22233 00160 80120
BBXX 3FPR9 14124 99214 71418 41497 90920 10220 20190 40190 54000 70222 89/// 22214 04200 20304 3//// 41006 5//// 6//// 85200 ICE /////
BBXX DBIP 14123 99305 70448 41597 71624 10220 40190 52015 7//// 87700 22223 04230 20605 3//// 4//// 5////
BBXX ZCDA9 14123 99214 71584 41298 80911 10230 20215 40165 57010 70222 887// 22273 00260 20101 300// 40000 5//// 80220
BBXX DGTX 14123 99330 71431 41497 62312 10180 20148 40275 54000 70322 82568 22264 00210 20402 304// 40503 80160
BBXX 46224 14121 99332 71175 46/// ///// 1//// 91136 22200 00155 11402 21002 322// 41401 70010
BBXX 46214 14121 99379 71235 46/// ///// 1//// 91155 22200 00116 11503 20802 330// 41502 70014
BBXX 46218 14121 99345 71208 46/// ///// 1//// 91202 22200 00140 11104 21003 332// 41102 70019
BBXX 41113 14121 99284 70805 46/// ///// 1//// 91151 22200 00223 11103 20902 309// 41101 70013
BBXX 44100 14121 99363 70756 46/// ///// 1//// 91152 22200 00133 11103 21003 311// 41101 70016
BBXX 42099 14121 99273 70842 46/// ///// 1//// 91157 22200 00234 10503 20503 70015
BBXX 41110 14121 99341 70777 46/// ///// 1//// 91151 22200 00141 11002 21002 312// 41101 70011
BBXX 41112 14121 99307 70813 46/// ///// 1//// 91151 22200 00164 11103 21002 310// 41101 70013
BBXX 46215 14121 99352 71209 46/// ///// 1//// 91138 22200 00130 11103 21002 329// 41101 70013
BBXX 46225 14121 99329 71174 46/// ///// 1//// 91144 22200 00155 11302 20602 324// 41301 70010
BBXX 46247 14121 99378 71228 46/// ///// 1//// 91151 22200 00111 11302 20802 327// 41301 70012
BBXX 46229 14121 99438 71246 46/// ///// 1//// 91151 22200 00102 11304 21002 329// 41303 70019
BBXX 46232 14121 99325 71174 46/// ///// 1//// 91138 22200 00148 11302 21002 320// 41302 70012
BBXX 44098 14121 99428 70702 46/// ///// 1//// 91137 22200 00092 10603 20603 311// 41101 70016
BBXX 44008 14121 99405 70692 46/// /0109 10081 20035 40251 52014 91150 22200 00117 555 11099 22104
BBXX 44172 14121 99445 70634 46/// ///// 1//// 91201 22200 00068 10403 20402 318// 41101 70013
BBXX 44060 14121 99413 70721 46/// ///06 10038 40286 51010 91200 22200 00107 333 91207 555 11062 22067
BBXX 46083 14121 99582 71380 46/// /1707 10041 20011 40128 54000 91150 22200 00063 11205 20502 300// 41204 70023 333 91208 555 11069 22074 31136 41709 61149 166066 173073 166052 164045 175048 183044 81708 91136
BBXX 46061 14121 99602 71468 46/// /1210 10041 40046 56015 91150 22200 00061 11103 20503 300// 41101 70015 333 91212 555 11106 22112 31104 41012 61149 120098 119086 097082 093096 094101 099101
BBXX 51101 14121 99243 71621 46/// /1307 10235 20202 40174 58010 91150 22200 00242 11105 20602 311// 41104 70023 333 91209 555 11073 22077 31146 41309 61149 133068 127065 130066 128069 134070 131063
BBXX 46042 14121 99368 71224 46/// /3605 10107 40222 51013 91150 22200 00116 11003 20401 330// 41003 70013 333 91205 555 11047 22049 31130 43606 61149 004044 004045 003044 003041 009038 006042
BBXX WJBJ 14124 99287 70786 41398 60723 10205 2015/ 40232 57005 7//22 862// 22234 00265 20606 308// 40909 5//// 6//// 80170 ICE /////
BBXX C6JT 14123 99455 70492 41498 70621 10025 2000/ 40160 56015 70322 86678 22215 20504 3//// 4//// 80020
BBXX WRTF 14124 99513 71506 41498 42317 10058 2002/ 40058 52024 70211 84239 22214 00060 2//// 3//// 4//// 5//// 6//// 80042 ICE /////
BBXX BAREU54 14124 99107 70817 46/// ///// 40107 52011 22253
BBXX BAREU00 14124 99450 70603 46/// ///// 40214 52017 22223
BBXX 41101 14124 99146 70562 46/// /1408 10268 20232 40104 52016 22200 00273 10805 70023
BBXX BAREU11 14124 99097 70794 46/// ///// 40106 22213
BBXX 46012 14121 99374 71229 46/// /3501 10108 40223 51008 91150 22200 00122 11303 20401 327// 41302 70013 333 91203 555 11013 22014 31102 43305 61149 351014 348022 342023 327028 326036 322033
BBXX 46069 14121 99337 71202 46/// /3006 10127 40205 53009 91150 22200 00132 11104 20502 331// 41103 70018 333 91208 555 11067 22070 31053 43108 61149 304062 306063 305064 307060 315064 310067
BBXX 46054 14121 99342 71204 46/// /0202 10126 40202 52012 91150 22200 00139 11103 20401 300// 41103 70017 333 91202 555 11017 22018 31057 43405 61149 022016 026016 039018 027019 359029 336039
BBXX 46029 14121 99461 71245 46/// /1802 10068 20032 40204 54000 91150 22200 00072 11104 330// 41104 70021 333 91203 555 11020 22020 31119 41603 61149 183019 189018 184022 176025 173023 164024
BBXX 46028 14121 99357 71219 46/// /3207 10117 40213 51013 91150 22200 00131 10903 20502 333// 40903 70015 333 91208 555 11070 22073 31124 43209 61149 324067 326069 326072 328069 325062 318066
BBXX 46025 14121 99337 71191 46/// /0803 10136 20110 40196 51008 91150 22200 00151 11402 20401 319// 41402 70009 333 91203 555 11026 22026 31143 40703 61149 076025 082021 077017 062014 049010 049015
BBXX 46087 14121 99485 71247 46/// /1202 10055 20050 40200 50000 91150 22200 00076 11304 328// 41304 70018 333 91204 555 11021 22021 31149 41104 61149 126020 148021 148016 160016 184017 257007
BBXX 46013 14121 99382 71233 46/// /0501 10096 40220 51005 91150 22200 00108 11202 20401 3//// 41202 70012 333 91202 555 11009 22009 31059 43204 61149 052008 059006 043010 014010 003017 353021
BBXX 46088 14121 99483 71232 46/// /1402 10059 40205 91150 22200 00079 10901 323// 40901 70003 333 91203 555 11020 22020 31056 41303 61149 137017 128015 116006 106007 119013 131018
BBXX 46027 14121 99419 71244 46/// /1004 10075 40222 51016 91150 22200 00092 11403 20401 329// 41403 70017 333 91206 555 11046 22048 31122 40906 61149 098044 099042 096048 090047 080044 103036
BBXX 46050 14121 99442 71246 46/// /1606 10078 40204 50000 91150 22200 00100 11105 20401 330// 41104 70023 333 91207 555 11061 22063 31129 41508 61149 157057 159057 162061 155062 145064 143065
BBXX 46011 14121 99350 71210 46/// /3406 10120 40213 53012 91150 22200 00133 11003 20501 331// 41003 70017 333 91206 555 11059 22061 31137 43407 61149 342055 343056 338055 340051 339051 336050
BBXX 46014 14121 99394 71240 46/// /0904 10077 40223 53004 91150 22200 00104 11503 20401 3//// 41503 70015 333 91205 555 11046 22047 31053 41006 61149 091044 092044 094040 096044 105047 104048
BBXX 46086 14121 99325 71180 46/// /2904 10138 40207 52006 91150 22200 00147 11203 20301 325// 41203 70013 333 91206 555 11044 22046 31053 42806 61149 289042 282046 281048 286048 285049 287048
BBXX 46047 14121 99324 71195 46/// /3204 10131 40211 54000 91150 22200 00135 11104 20401 330// 41104 70019 333 91205 555 11043 22045 31128 43106 61149 316042 317046 321046 320042 320042 311043
BBXX 41008 14121 99314 70809 46/// /0405 10168 20132 40278 52004 91150 22200 00166 11003 20501 300// 41002 70013 333 91206 555 11054 22058 31134 40406 61149 040050 038052 039053 039053 038051 034051
BBXX 44014 14121 99366 70748 46/// /0207 1//// 40273 91150 22200 00146 11103 20603 311// 41102 70017 555 11074 22074 31052 43610 61149 017074 011077 006076 005078 003079 007080
BBXX 44025 14121 99402 70732 46/// /0108 10074 20030 40284 53013 91150 22200 00112 10402 20402 313// 41101 70012 333 91209 555 11081 22085 31052 43610 61149 007077 009078 013075 011079 003078 001083
BBXX 44020 14121 99414 70702 46/// /0207 10067 20030 40269 53014 91150 22200 00084 10301 20301 70005 333 91208 555 11072 22076 31148 40108 61149 002066 260061 261065 261063 263057 266060
BBXX 44040 14121 99410 70736 46/// /2903 10051 20007 40305 91145 22200 1//00 70000 333 91205 555 11041 22051
BBXX 44065 14121 99404 70737 46/// /3607 10068 20024 40290 53008 91150 22200 00102 11102 20301 314// 41101 70009 333 91209 555 11077 22080 31057 43609 61149 358073 356072 350071 345071 353075 002073 83508 91148
BBXX 41004 14121 99325 70791 46/// /0406 10179 20104 40281 52006 91150 22200 00219 11103 20501 3//// 41102 70013 333 91208 555 11059 22062 31142 40308 61149 039057 028056 030058 031057 026057 027055
BBXX 44027 14121 99443 70673 46/// /0210 10034 21008 40269 51019 91150 22200 00089 10503 20503 3//// 41001 70014 333 91212 555 11107 22112 31125 40313 61149 024102 024104 023104 008097 010098 004099
BBXX 41013 14121 99334 70777 46/// /0307 10148 20061 40280 51006 91150 22200 00211 10803 20602 309// 40802 70014 333 91209 555 11072 22075 31054 40210 61149 032071 028071 032072 032072 024074 023073
BBXX 44009 14121 99385 70747 46/// /0206 10091 40297 52006 91150 22200 00125 11003 20502 300// 41002 70014 333 91208 555 11066 22069 31105 40209 61149 017063 019064 022064 020067 025071 026071
BBXX 44066 14121 99396 70726 46/// /3608 10090 20044 40278 53012 91150 22200 00133 11103 20703 3//// 41102 70017 333 91210 555 11084 22088 31117 40111 61149 000081 000086 003083 006083 000083 358081
BBXX 41036 14121 99342 70770 46/// ///// 10115 20024 40282 53004 91150 22200 00182 11103 70014
BBXX 42002 14121 99258 70937 46/// /1309 10241 20203 40197 56008 91150 22200 00247 10603 20603 70015 333 91211 555 11093 22099 31136 41412 61149 135093 135095 139095 134096 134095 133096
BBXX 41047 14121 99275 70715 46/// /0310 10223 40205 53012 91150 22200 00253 11007 20805 306// 41005 70033 333 91212 555 11102 22107 31124 40214 61149 030103 029111 026111 027112 025112 027105 80313 91124
BBXX 41043 14121 99211 70650 46/// /3405 10254 20214 40124 52005 91150 22200 00268 11004 20401 300// 41004 70022 333 91206 555 11053 22056 31136 43407 61149 337051 341055 332034 306023 300046 325054 83406 91136
BBXX 42055 14121 99222 70940 46/// /1008 10245 20198 40183 56011 91150 22200 00250 10803 20502 304// 40801 70013 333 91209 555 11083 22088 31053 41010 61149 099078 095079 094083 096078 097081 096085 81009 91054
BBXX 46105 14121 99590 71522 46/// ///// 1//// 91150 22200 10705 70024
BBXX 41012 14121 99300 70805 46/// /0608 10218 40256 53004 91150 22200 00231 333 91209 555 11082 22086
BBXX 46001 14121 99563 71480 46/// /2309 10055 40016 53021 91150 22200 00049 11108 20704 300// 41107 70040 333 91211 555 11100 22108 31059 42412 61149 230094 230090 231095 226100 227089 228099
BBXX 42065 14121 99149 70750 46/// /0404 10253 20212 91150 22200 10603 20401 3//// 40603 70014 333 91205 555 11037 22039 31110 40612 61149 041036 041055 069071 073082 078089 091062 80810 91104
BBXX 42012 14121 99301 70876 46/// /1109 10194 20156 40245 56006 91150 22200 00183 10602 20602 70011 333 91210 555 11093 22101 31137 41110 61149 108085 107083 105079 106076 107081 109083
BBXX 41001 14121 99347 70727 46/// ///// 10157 20071 40243 51012 91150 22200 00221 10806 70028
BBXX 41048 14121 99320 70696 46/// /3611 10195 20119 40199 53008 91150 22200 00228 10906 20906 70030 333 91213 555 11107 22112 31120 43614 61149 354108 353117 349114 356115 351113 349115 83513 91136
BBXX 42040 14121 99292 70882 46/// /1309 10209 40238 56007 91150 22200 00227 10603 20603 70014 333 91211 555 11086 22091 31052 41111 61149 125087 120089 119089 117093 116089 113090
BBXX 42003 14121 99260 70856 46/// /1009 1//// 91150 22200 10704 20704 70019 333 91211 555 11091 22097 31123 41012 61149 100085 103090 099085 101090 110083 111088 81010 91136
BBXX 42059 14121 99151 70675 46/// /0607 10275 20220 40117 53014 91150 22200 00285 10502 20502 3//// 41101 70011 333 91208 555 11075 22079 31141 40709 61149 060070 058068 059070 061072 057070 057070 80608 91108
BBXX 44005 14121 99432 70691 46/// /0208 10043 21013 40274 52016 91150 22200 00088 10603 20603 3//// 40901 70016 333 91210 555 11081 22084 31134 40211 61149 024078 025078 023074 024075 020075 028076
BBXX 42056 14121 99198 70849 46/// /0610 10262 20226 40165 53004 91150 22200 00273 10704 20704 70022 333 91212 555 11102 22108 31126 40513 61149 057097 058096 058100 056100 056095 057097 80611 91052
BBXX 42019 14121 99279 70954 46/// /1610 10232 20198 40177 57011 91150 22200 10704 20704 70020 333 91213 555 11108 22115 31113 42813 61149 171101 280099 281102 280100 280095 276105
BBXX 42036 14121 99285 70845 46/// /0807 10183 20167 40251 54000 91150 22200 00215 10502 20502 70011 333 91209 555 11075 22078 31132 40809 61149 080070 083076 081072 083071 081072 080071
BBXX 42035 14121 99292 70944 46/// /1005 10172 20172 40198 56013 91150 22200 00156 10602 20502 314// 40602 70012 333 91206 555 11057 22066 31101 41107 61149 102051 102052 101053 101057 103058 107057
BBXX 42058 14121 99149 70749 46/// /0709 10273 20214 40109 51013 91150 22200 00279 10602 20602 320// 41101 70012 333 91210 555 11092 22097 31140 40610 61149 068085 068087 070084 061082 061081 064082 80709 91146
BBXX 42060 14121 99163 70635 46/// /0304 10265 20221 40120 53013 91150 22200 00283 11102 20301 300// 41102 70012 333 91206 555 11046 22047 31145 40306 61149 027044 024033 022030 024035 043031 036039 80305 91146
BBXX 41049 14121 99275 70630 46/// /3610 10231 20167 40130 53017 91150 22200 00248 10705 20705 300// 40803 70027 333 91213 555 11111 22117 31127 43614 61149 001105 004104 000107 000105 001105 004105 83612 91127
BBXX 42020 14121 99270 70967 46/// /1511 10241 20203 40165 56010 91150 22200 00242 10705 20705 70023 333 91214 555 11121 22129 31128 41514 61149 146114 146110 147110 143114 143114 143109
BBXX 42001 14121 99259 70897 46/// /0907 10237 20203 40224 54000 91150 22200 00247 10804 20503 3//// 40803 70022 333 91209 555 11077 22081 31106 41111 61149 086071 082067 084065 096065 117078 095077
BBXX 41044 14121 99217 70587 46/// /2505 10260 20216 40115 53012 91150 22200 00267 11005 20401 300// 41005 70026 333 91206 555 11047 22049 31128 42507 61149 248046 252050 249051 247043 246049 240044 82506 91133
BBXX 41060 14121 99148 70510 46/// ///// 1//// 91150 22200 11006 70028
BBXX 46005 14121 99461 71310 46/// ///10 10099 40142 56027 91150 22200 00101 11107 20603 3//// 41106 70033 333 91213 555 11111 22119
BBXX CGBN 14124 99447 70636 46/// /3614 10015 21014 40238 53023 7//// 8//// 22200 0//// 2////
BBXX CGSB 14124 99468 70712 46/// /0507 10004 21022 40307 53003 7//// 8//// 22200 0//// 2////
BBXX VOPP 14124 99456 70735 46/// /0307 10000 20001 4//// 5//// 7//// 8//// 22200 0//// 2////
BBXX CGDR 14124 99505 71277 46/// /0607 10045 20045 40166 58002 7//// 8//// 22200 0//// 2////
BBXX VCRG 14124 99474 70619 46/// /0317 11006 21062 40288 51019 7//// 8//// 22200 0//// 2////
BBXX CZ9742 14124 99506 70969 46/// /2006 11033 21034 40122 56018 7//// 8//// 22200 0//// 2////
BBXX VAAP 14124 99446 70636 46/// /3623 10012 21015 40235 51033 7//// 8//// 22272 0//// 2////
BBXX VAAZ 14124 99548 70530 46/// /2821 11049 21095 40176 57004 7//// 8//// 22281 0//// 2////
BBXX CGJV 14124 99447 70636 46/// /3514 10009 21021 40250 51033 7//// 8//// 22200 00070 2////
BBXX CGDG 14124 99447 70636 46/// /3606 10009 20009 40254 53024 7//// 8//// 22200 0//// 2////
BBXX 46041 14121 99474 71247 46/// /1305 10056 40197 50000 91150 22200 00077 11404 20401 3//// 41404 70022 333 91207 555 11053 22055 31144 41207 61149 126050 128043 137037 136040 134041 135043
BBXX 46026 14121 99378 71228 46/// /2801 10102 40223 51009 91150 22200 00110 11202 20301 328// 41202 70012 333 91202 555 11014 22015 31050 43004 61149 285015 299019 303024 300024 296026 293034
BBXX 46077 14121 99579 71543 46/// /0316 10017 20014 49947 54000 91150 22200 00052 10705 20705 3//// 41201 70025 333 91219 555 11172 22183 31136 40322 61149 033162 031173 032160 032167 032169 032161 80318 91132
BBXX 44007 14121 99435 70701 46/// /0305 10036 21012 40291 53017 91150 22200 00088 11002 20401 3//// 41002 70011 333 91207 555 11054 22056 31130 40208 61149 028053 030058 034057 037059 032057 035053
BBXX 46035 14121 99571 71778 46/// /1116 1//// 49747 51058 91150 22200 11312 20809 300// 41308 70061 333 91218 555 11156 22167 31123 41120 61149 110156 110157 111158 112157 110157 105149 81118 91102
BBXX 46082 14121 99597 71434 46/// ///// 10044 20044 40080 58006 91150 22200 00059 11105 70025
BBXX 41040 14121 99145 70530 46/// /1007 10266 20235 40115 53013 91150 22200 00278 11005 20603 3//// 41004 70026 333 91209 555 11075 22079 31149 41009 61149 101071 103067 106065 107063 109063 110063 81008 91150
BBXX 46072 14121 99517 71722 46/// /0102 10023 21026 49823 58026 91150 22200 00050 11110 20401 3//// 41110 70049 333 91204 555 11018 22019 31147 40204 61149 006018 347016 333015 006009 150007 197011 83203 91126
BBXX 42039 14121 99288 70860 46/// /1109 10206 40243 56003 91150 22200 00229 10603 20603 70014 333 91210 555 11090 22094 31142 41110 61149 106084 103083 104086 099089 104086 100085 81110 91125
BBXX BATFR13 14124 99331 70380 44498 31721 10209 20162 40254 53008 70122 832// 22214 00219 20404 300// 41004 5////
BBXX BATEU05 14124 99624 70504 46/// /3217 11058 21060 40034 51018 22272
BBXX BAREU06 14124 99446 70523 46/// ///// 40132 57009 22274
BBXX A8SF8 14124 99285 70495 41597 41728 10240 20196 40155 57/// 70211 844// 22254 04240 20707 80210
BBXX DQVG 14123 99322 71762 41297 63134 10192 20112 40020 52010 70162 85722 22264 20307 3//// 4//// 5//// 80148
BBXX PFRO 14124 99220 70717 41598 40436 10250 20196 40144 55015 7//00 845// 22234 20809 304// 40809 80215
BBXX KRGB 14124 99266 71519 41598 60920 10222 20172 40199 54000 78051 84880 22215 00211 20905 305// 41205 5//// 6//// 80189 ICE /////
BBXX 9HJF9 14124 99169 70864 41798 60728 1//// 2//// 40150 54000 7//00 86/// 22254 00260 20304 3//// 40404 50402 6//// 8//// ICE /////
BBXX HZRX 14123 99367 70694 41697 88304 /// 10160 20125 40186 51010 72322 81247 22263 10180 20404 33232 40202 5//// 6//// 80110 ///// /////
BBXX PDGS 14124 99136 70904 41998 30108 10270 40120 52020 70111 83048 22274 00280 2//// 328// 40502
BBXX FVNM 14124 99064 70962 46/// /3511 10264 20232 40111 53002 22221 00269
BBXX WDC6698 14124 99091 71462 43/// /1210 10276 2//// 40090 5//// 7//// 8//// 222// 04270 2//// 3//// 4//// 5//// 6//// 8//// ICE /////
BBXX 46006 14121 99408 71375 46/// /2009 10123 40183 56018 91150 22200 00126 11106 20503 3//// 41105 70031 333 91211 555 11096 22102 31109 42112 61149 203091 203088 205089 210086 210097 211095
BBXX 46084 14121 99566 71361 46/// /1308 10041 20009 40146 57004 91150 22200 00071 10905 20502 300// 40904 70025 333 91209 555 11081 22085 31139 41410 61149 128077 150070 162043 148035 142039 150053
BBXX 46080 14121 99580 71500 46/// /2109 10052 20031 49973 53005 91150 22200 00055 10806 20603 3//// 40805 70028 333 91211 555 11094 22100 31112 42112 61149 214087 211092 214091 215099 204080 191069 82111 91112
BBXX 46059 14121 99380 71300 46/// /3205 10125 40211 53009 91150 22200 00145 11305 20401 3//// 41305 70024 333 91206 555 11048 22050 31052 43206 61149 321046 317042 321044 319049 315051 316051
BBXX 46075 14121 99539 71608 46/// /1904 10042 20006 49993 50000 91150 22200 00048 11612 20401 300// 41612 70060 333 91207 555 11046 22048 31059 42109 61149 193044 196049 205049 211058 210064 214065 82307 91051
BBXX 46002 14121 99426 71305 46/// ///// 10110 40177 57007 91150 22200 00120 11306 70031
BBXX V7HC6 14124 99273 70907 41797 21212 10220 20190 40214 54000 70200 81489 22200 00224 20301 309// 40501 5//// 6//// 80200 ICE /////
BBXX NWS0022 14124 99416 70714 43/// /3607 10043 20012 40278 5//// 7//// 8//// 222// 04113 2//// 3//// 4//// 5//// 6//// 8//// ICE /////
BBXX LEQZ3 14123 99511 71340 41497 71813 10080 2108/ 40160 56020 70222 8784/ 22273 04120 20601 314// 40601 80020
BBXX DFWV2 14124 99305 71619 41297 41825 10220 20190 40155 57015 70200 8/7// 22263 04200 2//06 3//// 4//// 5//// 80200
BBXX PDXQ 14123 99338 70630 41397 83433 10208 20165 40140 53010 76362 8577/ 22222 04222 20506 302// 40706 80180
BBXX SHIP 14124 99337 71612 41598 82225 10190 2018/ 40050 54000 70222 88070 22223 00200 2//// 3//// 4//// 5//// 6//// 80180 ICE 0////
BBXX WABS 14124 99372 71241 41598 52007 10111 2004/ 40230 54000 7//22 8586/ 22233 00119 2//// 3//// 4//// 5//// 6//// 80078 ICE /////
BBXX 3FSB4 14124 99407 71705 43496 72930 10100 2006/ 49890 53030 7//// 87163 22224 00150 20311 3//// 4//// 5//// 6//// 80080 ICE /////
BBXX HPHV 14124 99291 70945 41/// 81415 10180 20164 40200 54000 7//// 8/8// 222// 0//// 20502 31414 40502 50502 6//// 80170 ICE /////
BBXX WRYD 14124 99377 70517 41597 82139 10200 2019/ 49970 5//// 7//66 88923 22264 00205 20808 32121 40808 50606 6/00/ 80190 ICE /////
BBXX WHRN 14123 99238 71521 41598 50819 10210 2020/ 40205 57010 70122 85161 22255 00240 20903 316// 41102 5//// 6//// 80200 ICE /////
BBXX 9HXC9 14124 99180 70630 41498 10114 10274 20192 40110 52020 7//00 81800 22200 00282 2//// 3//// 4//// 5//// 6//// 80218 ICE /////
BBXX KGTX 14123 99540 71382 41498 41930 10065 2099/ 40130 52010 7//11 8446/ 22234 00069 20401 317// 40802 5//// 6//// 81035 ICE /////
BBXX CG2350 14124 99433 70798 46/// /2402 10039 20014 40272 56008 7//// 8//// 22200 0//// 2////
BBXX CG2960 14124 99447 70813 46/// /1209 10022 20000 40259 55009 7//// 8//// 22200 0//// 2////
BBXX 45008 14121 99443 70824 46/// /1804 10054 30029 40247 56010 91150 22200 00063 10401 20401 70003 333 91205 555 11039 22040 61149 181037 183032 187038 182040 185038 183041
BBXX CGDS 14124 99447 70755 46/// /3601 10034 20025 4//// 5//// 7//// 8//// 22200 0//// 2////
BBXX WDF7020 14124 99419 70819 41/96 /2212 1//// 2//// 40268 54/// 72052 8//// 222// 0//// 2//// 3//// 4//// 5//// 6//// 8//// ICE /////
BBXX WDE3569 14124 99458 70838 43/// 81213 10038 2//// 40196 5//// 7//// 8//// 22233 00067 20301 3//// 4//// 5//// 6//// 8//// ICE /////
BBXX PCHM 14124 99372 31760 41597 30420 10180 20163 40128 57000 70322 828// 22284 00190 20000 30000 80170
BBXX BATFR35 14124 99167 51512 46/// /1109 10269 20217 40137 22262 00287
BBXX BATFR56 14124 99115 30704 44497 60612 10265 20264 40091 55004 78122 8677/ 22252 00295 316// 40504 5////
BBXX SHIP 14124 99308 31536 41597 /1625 10200 2012/ 40130 52030 70222 8//// 22243 00270 2//// 3//// 4//// 5//// 6//// 80150 ICE /////
BBXX ELUC5 14124 99240 31746 41/98 /0221 10250 20250 40110 53005 70222 8/051 22224 06270 20703 30000 80250
BBXX A8ID9 14124 99244 51772 41498 30617 10240 20211 40120 56005 70200 82161 22284 04250 2//// 307// 40503 5//// 80220
BBXX HZGH 14123 99030 11082 41397 62703 10269 20243 40068 55015 70251 84168 22264 02266 20302 32900 40607 5//// 80251
BBXX C6XC2 14124 99025 11237 41897 83409 10250 20175 40080 53/// 75055 886// 22233 00300 2//// 3//// 4//// 5//// 6//// 80200 ICE /////
BBXX LAOW5 14124 99164 51316 41498 30913 10230 20216 40150 51010 70111 83475 22254 00250 20204 30706 40102 50102 6//// 80220 ICE /////
BBXX DBLK 14121 99634 30000 41498 73205 11011 21020 49651 57017 71587 878// 22242 05019 ICE 36692
BBXX WCX7445 14124 99626 50597 43/// /2005 10032 2//// 49889 5//// 7//// 8//// 22261 00003 2//// 3//// 4//// 5//// 6//// ICE /////
BBXX WQVY 14124 99343 70295 41599 12305 10190 2014/ 40290 5//// 70200 81100 22264 0//// 2//// 334// 41607 5//// 6//// 80160 ICE /////
BBXX TFSTD 14124 99664 70234 46/// ///// 22200 10912 70060
BBXX TFSRT 14124 99633 70203 46/// ///// 22200 10805 70024
BBXX TFKGR 14124 99657 70136 46/// ///// 22200 10708 70039
BBXX TFGSK 14124 99641 70229 46/// ///// 22200 10604 70020
BBXX TFHFN 14124 99642 70152 46/// ///// 22200 10904 70022
BBXX TFGRV 14124 99638 70225 46/// ///// 22200 11003 70013
BBXX TFGRS 14124 99663 70182 46/// ///// 22200 10809 70046
BBXX TFDRN 14124 99658 70212 46/// ///// 22200 10909 70047
BBXX TFBKF 14124 99635 70202 46/// ///// 22200 10803 70013
BBXX TFBLK 14124 99657 70248 46/// ///// 22200 10910 70050
BBXX DBBH 14121 99393 70108 41598 73107 10153 20090 40267 52022 70282 86302 22243 04167 20302 330// 41408
BBXX WGAX 14124 99443 70079 41398 52442 10125 2006/ 40129 57012 70122 851/1 22253 00141 20201 324// 40405 5//// 6//// 80090 ICE /////
BBXX VRYO3 14124 99496 70076 46/// /2619 10096 20105 49999 52022 7//// 8//// 22224 00118 2////
BBXX DBFR 14121 99548 10137 46/// /1711 10053 20043 49962 57018 22201 00062
BBXX DBEB 14121 99538 10082 41/// /2009 10043 20043 49913 57006 7//// 22221 00064
BBXX DBFH 14121 99539 10087 46/// /2004 10051 20035 49917 57010 22270 00045
BBXX DBBC 14121 99535 10086 46/// /1905 10031 2//// 49921 57011 22240 00057
BBXX DBBA 14121 99536 10086 46/// /1905 10034 20026 49920 57012 22220 00049
BBXX DBKR 14121 99541 10142 46/// /1610 10051 20040 49972 57030 22200 00042
BBXX DBEA 14121 99540 10085 46/// /2010 10041 20029 49915 57004 22220 00045
BBXX DBBU 14121 99543 10131 46/// /1707 10050 20031 49957 57031 22220 00052
BBXX DBBI 14121 99538 10082 46/// /2009 10042 20042 49917 57016 22272 00051
BBXX DBJM 14121 99540 10085 46/// /1910 10043 20028 49920 57009 22232 00050
BBXX TBWUK38 14124 99335 70135 41298 33509 10210 20178 40298 54000 70100 82440 22282 299// 334// 41205 5//// 80190
BBXX WBDS 14123 99361 70154 41498 63213 10190 2010/ 40290 51010 7//22 8464/ 22264 00180 20202 332// 40607 5//// 6//// 80140 ICE /////
AAXX 14124 68399 16/// /0602 10222 20213 39977 40086 52015 60141 333 10332 20216 91034 555 20146 69965 91008
AAXX 14124 68383 16/// /0000 10222 20199 39850 48507 52008 60061 333 10323 20210 91000 555 20062 69945 91009
AAXX 14124 68379 36/// /1909 10256 20221 39766 48515 53008 333 10371 20235 91015 555 91009
AAXX 14124 68398 16/// /3606 10205 20196 39329 48477 53003 60571 333 10301 20204 91009 555 20578 63285 91010
AAXX 14124 16622 11125 59903 10100 20100 30213 40223 57020 60001 71040 83640 333 83703 84360 90730 91111 555 30000 10134 2//// 30114 4//// 5//// 40000 47691 44220 50000 50100 70000 77Y// 7FY//
AAXX 14124 16641 12470 31304 10154 20109 30226 40231 58003 60001 82201 333 82818 83070 90730 91106 555 40000 47698 44190 50000 50130
AAXX 14124 16682 12560 10000 10164 20112 30195 40214 57010 60001 81100 333 90730 91107 555 30000 10185 20150 30140 40128 50141 60190 40000 47680 44220 50000 50136
AAXX 14124 16716 12560 12704 10172 20092 30200 40219 57007 60001 81100 555 40000 47682 44205 50000 50130
AAXX 14124 16734 36/// /3007 10178 20126 30158 40218 57011 333 90730 91110
AAXX 14124 16743 NIL
AAXX 14124 16749 12460 50303 10166 20138 30194 40209 57012 60001 83855 333 82818 83625 85068 90730 91107 555 40000 47683 44255 50000 50150
AAXX 14124 16754 12565 13606 10182 20129 30166 40213 57009 60001 81200 333 90730 91110 555 40000 47657 44205 50000 50152
AAXX 14121 03953 11470 82205 10063 20024 39869 49905 50004 60051 70298 8723/ 333 81719 87829 87361 92447
AAXX 14124 08001 11470 52214 10129 20069 30115 40196 50006 69961 70386 83872 333 92468
AAXX 14124 08015 11570 12510 10118 21024 39780 40183 51008 69901 70181 81140
AAXX 14124 08023 11570 32913 10125 20057 30109 40180 51010 69941 70186 82872
AAXX 14124 08027 11460 82614 10090 20073 39885 40197 51013 60051 76362 887//
AAXX 14124 08045 02570 52412 10121 20068 39920 40230 50012 69901 84230 333 69907
AAXX 14124 08141 NIL
AAXX 14124 08160 12680 52721 10165 20029 39885 40188 50000 60001 83501
AAXX 14124 08181 02680 72412 10179 20069 30169 40174 58009 60001 81806 333 60007
AAXX 14124 08221 02580 52514 10133 20070 39533 40210 58004 60001 84108 333 60007
AAXX 14124 08231 11470 72606 10100 20065 39134 48541 58002 69901 72052 87731
AAXX 14124 08261 11575 72908 10144 20081 39775 40253 50005 69901 70251 82811
AAXX 14124 08284 02580 72412 10176 20087 30133 40207 58004 60001 82437 333 60007
AAXX 14124 08306 12680 62516 10182 20117 30199 40205 58005 60001 82839
AAXX 14124 08314 02785 32415 10184 20118 30093 40194 58006 60001 81041 333 60007
AAXX 14124 08430 12980 62202 10178 20063 30161 40235 58010 60001 83042
AAXX 14124 08482 12575 62806 10186 20109 30244 40252 58004 60001 83871
AAXX 14124 16614 11860 20000 10090 20076 39446 40226 57017 60001 70140 82040 333 90730 91106 555 70000 77/// 7FY//
AAXX 14124 16627 12460 52406 10144 20118 30216 40220 57006 60001 85700 333 82712 85625 90730 91110 555 30000 10138 20132 30122 40116 50116 6//// 40000 47697 44250 50000 50130 70000 77/// 7/Y//
AAXX 14124 16667 12564 21306 10168 20117 30213 40218 58007 60001 81140 333 90730 91112 555 30000 20150 30146 40000 47688 44190 50000 50140
AAXX 14124 16675 NIL
AAXX 14124 16710 36/// /9902 10148 20056 39455 40213 57016 333 90730 91107
AAXX 14124 16723 11560 51304 10170 20115 30205 40220 56010 60061 70160 82230 333 82820 83358 90730 91106 555 40000 47689 44240 50000 50140 60000 65555 60001 70000 77/// 7R///
AAXX 14124 16738 NIL
AAXX 14124 16746 12560 10000 10182 20100 30031 40211 58009 60001 81200 333 90730 91109 555 40000 47554 44195 50000 50138
AAXX 14121 38353 42998 80000 11007 21038 39403 40333 52012 8803/
AAXX 14121 38613 42999 42101 10020 21037 39393 40316 57005 80002 555 11000
AAXX 14121 38616 41596 60000 10010 21019 39272 40313 57010 71022 85530
AAXX 14121 38345 41596 82201 11042 21068 38880 48561 53022 71022 886// 555 1/107
AAXX 14121 36911 42698 80000 11010 21019 39332 40326 53023 8657/ 555 1/102
AAXX 14121 36974 429// 22201 11118 21162 38045 48632 58017 80002 555 15115
AAXX 14121 36982 429// 31906 11141 21244 36539 47168 53002 83030
AAXX 14124 16643 12475 20903 10170 20111 30234 40239 58004 60001 81201 333 90730 91109 555 40000 47709 44230 50000 50138
AAXX 14124 16648 11558 23404 10130 20095 30135 40225 57011 60001 71020 81101 333 90730 91106 555 30000 10110 2//// 30094 40080 5//// 6//// 40000 47632 44210 50000 50112 70000 77Y// 7FY//
AAXX 14124 16650 12460 63604 10148 20103 30205 40209 57009 60001 83401 333 83618 86068 90730 91109 555 30000 10140 20136 30128 40132 50128 60140 40000 47685 44220 50000 50124 70000 77/// 7/Y//
AAXX 14124 16684 12560 49903 10162 20110 30180 40209 58009 60001 83441 333 83625 83068 90730 91106 555 40000 47666 44210 50000 50134
AAXX 14124 16732 12470 43206 10174 20128 30205 40216 57010 60001 84800 333 82818 83625 90730 91110 555 40000 47679 44160 50000 50148
AAXX 14124 78982 02484 60507 10267 20241 30102 40107 52013 60001 84201 333 10311 20259 59004 60007 70024 84817 84081
AAXX 14124 89009 41106 83605 11286 36750 53003 74542 886// 333 11286 21323 88703
BBXX A8TG2 14123 99188 71044 41/// /2903 10250 20204 40110 50000 7//00 8//// 2224/ 00230 21502 31919 41502 51202 80220
AAXX 14121 15502 11/09 90000 10050 20045 30170 40210 58006 69911 74554 333 10050 20048 555 597//
AAXX 14121 15525 12981 00702 10097 20072 39941 40206 58013 60001 333 10097 20012 555 584//
AAXX 14121 15528 11/03 90501 10042 20037 30004 40197 58013 60001 74344 333 10045 20026 555 597//
AAXX 14121 15535 11/02 92504 10045 20043 30155 40202 58006 60001 74544 333 10045 20038 555 598//
AAXX 14121 15549 12970 03202 10115 20024 39789 40201 58009 60001 333 10122 20006 555 553//
AAXX 14121 15552 11/02 91802 10078 20067 30159 40208 54000 60001 74544 222// 2//00 333 10093 20052 555 593// 92012 92412
AAXX 14121 15614 11/04 90000 10030 20023 39514 40233 57008 60001 74344 333 10032 20006 555 595//
AAXX 14121 15615 11986 32506 11026 21083 37136 47076 58004 60001 70210 82031 333 11022 21066 555 565//
AAXX 14121 15626 11960 20000 10080 20058 30017 40206 58015 60001 70141 80002 333 10085 20048 555 586//
AAXX 14121 15627 11289 22308 11008 21040 37651 47092 51003 60001 70100 81130 333 11001 21033 42002 555 579//
AAXX 14121 15640 11/09 90000 10065 20044 39901 40217 58009 60001 74742 333 10068 20054 555 587//
AAXX 14121 15655 11520 82705 10107 20069 30173 40206 58005 60001 71022 86507 222// 00099 309// 40601 333 10107 20087 555 577// 81292 92023 92425
AAXX 14121 15712 12680 52301 10120 20058 39964 40213 58018 60001 81132 333 10135 20063 555 566//
AAXX 14121 15730 11665 30000 10120 20080 39814 40202 58017 60001 70411 82201 333 10122 20026 555 576//
AAXX 14124 78866 32586 10605 10263 20213 30119 40124 52012 81101 333 10289 20241 59011 70002 81822
AAXX 14121 26038 21477 71804 10051 20033 39958 49999 52003 70262 87630 333 10052 20012 60007 87712 91109 555 1/004 20012 3/001 50030 52001
AAXX 14121 26045 27462 71804 10038 20029 30016 40018 51006 70011 87/// 333 10038 20015 60007 87/11 91109 555 1/003 20015 3/000 50024
AAXX 14121 26058 27365 72002 10036 20025 30028 40035 52004 70000 87/// 333 10036 20017 60007 87/07 91108 555 1/003 20017 3/100 50022 52001
AAXX 14121 26115 27462 62106 10064 20046 39971 49979 50001 72300 86/// 333 10068 20034 60027 86/14 91010 91113 555 1/005 20034 3/001 50054
AAXX 14121 26135 27360 82003 10039 20032 39946 40019 54000 71011 88/// 333 10040 20007 60007 88/07 555 1/004 20007 3/000 50023 52000
AAXX 14121 26141 21257 81904 10026 20021 39875 40023 52003 71052 886// 333 10026 20002 60007 88705 91108 555 1/001 20002 3/100 50014 52100
AAXX 14121 26231 21459 81908 10046 20035 30002 40016 58002 71022 8762/ 333 10047 20011 60007 87713 91011 91112 555 1/004 20011 3/000 50034
AAXX 14121 26242 NIL
AAXX 14121 26247 27/56 /2003 10038 20032 39962 40041 50000 71011 333 10038 20014 60007 555 1/003 20014 3/001 50024
AAXX 14124 47101 32560 61603 10025 21022 30123 40220 53001 85500 333 10035 34101
AAXX 14124 47105 369// /2509 10075 21031 30151 40183 57005 333 10110 3/003
AAXX 14124 47108 11630 62709 10031 21012 30127 40234 52019 69902 70522 86500 333 10072 30002
AAXX 14124 47115 32675 22907 10080 21023 39913 40183 55003 81501 333 10113 3/003 41/// 92033
AAXX 14124 47133 11658 72003 10058 20005 30142 40228 58002 69902 70522 87500 333 10074 31003
AAXX 14124 47138 32568 22502 10088 20007 30209 40212 54000 81500 333 10132 30006 92021
AAXX 14124 47159 32970 02708 10086 21023 30136 40221 52005 333 10144 30005 92023
AAXX 14124 47165 32661 53605 10080 20043 30194 40241 52007 85500 333 10104 31005 92022
AAXX 14124 47168 32663 22904 10089 21007 30151 40230 52006 82500 333 10126 30004 92022
AAXX 14124 47184 32670 43208 10118 20037 30217 40242 50002 84500 333 10140 30008 92023
AAXX 14124 78866 32586 10605 10263 20213 30119 40124 52012 81101 333 10289 20241 59011 70002 81822
AAXX 14124 89009 41106 83605 11286 36750 53003 74542 886// 333 11286 21323 88703
AAXX 14123 91551 31598 80000 10265 20257 4//// 5//// 70292 8422/ 333 10322 5689/ 84820 88461
AAXX 14123 91553 11598 89902 10270 20249 40092 52014 69941 78022 889// 333 10300 563// 59005 69941 84820 81925 88640
AAXX 14123 91554 11498 80103 10250 20243 40084 51009 60041 78028 888// 333 10315 561// 59009 60041 85818 88460
AAXX 14123 91555 31598 61008 10280 20259 40083 51005 70211 86800 333 10324 563// 59012 83825 86640
AAXX 14123 91557 31598 29901 10257 20250 40066 51005 70111 82200 333 10/// 569// 59012 82820
AAXX 14123 91565 11498 30000 10265 20244 40086 51004 69911 72511 83201 333 10320 561/9 59008 69911 83818
AAXX 14123 91568 31598 60000 10254 20243 40101 51005 70211 82101 333 10322 562/9 59008 82825 86080
AAXX 14124 47090 32662 63605 10070 21027 30161 40183 50001 85500 333 10093 3/001 42005 92022
AAXX 14124 47095 11540 62903 10006 21029 30042 40236 53011 69902 71022 85500 333 10036 34000
AAXX 14124 47097 329// /2703 10012 21029 30128 40226 51004 333 10039 3/000
AAXX 14124 47098 329// /3207 10012 21025 30094 40231 52015 333 10046 3/000
AAXX 14124 47099 329// /3206 10011 21028 30203 40240 52018 333 10065 3/000
AAXX 14124 47100 31450 52717 10003 21032 39271 40199 50002 71022 85500 333 10028 3/000 49029
AAXX 14124 47102 32665 42911 11005 21075 30083 40267 52018 84500 333 10069 31000
AAXX 14124 47104 32662 52905 10070 21032 30085 40182 58002 85500 333 10109 3/001 43008
AAXX 14124 47106 329// /3204 10076 21035 30136 40185 57005 333 10109 3/002
AAXX 14124 47112 11656 23418 10035 21008 30153 40238 52018 69902 70521 82500 333 10086 30002 92025
AAXX 14124 47114 31658 60201 10025 21036 30035 40220 51003 70522 85500 333 10050 30000
AAXX 14124 47119 31650 53208 10044 21008 30190 40233 52014 71011 85500 333 10071 31101
AAXX 14124 47121 129// /0001 10045 21015 39922 40218 56002 69902 333 10074 3/001
AAXX 14124 47127 329// /0001 10031 20009 30082 40226 51003 333 10060 3/002
AAXX 14124 47129 31650 83210 10057 20006 30209 40245 52016 70522 886// 333 10082 31004
AAXX 14124 47130 32665 52007 10078 21009 30134 40195 57006 85500 333 10129 31003 92023
AAXX 14124 47131 32662 82702 10053 21005 30157 40228 52004 8552/ 333 10079 30003
AAXX 14124 47135 329// /2707 10063 20016 39922 40221 57003 333 10080 3/003
AAXX 14124 47136 32665 63602 10047 21007 30043 40217 51002 85500 333 10101 30000
AAXX 14124 47137 329// /2303 10067 20003 30102 40221 54000 333 10094 3/003
AAXX 14124 47140 11658 63404 10045 20028 30207 40236 52004 69902 71022 86500 333 10078 31004 92012
AAXX 14124 47143 32663 62503 10089 20000 30147 40225 50001 85500 333 10124 30005
AAXX 14124 47145 31657 72904 10055 20030 30197 40224 52007 71022 87500 333 10083 31003
AAXX 14124 47146 31658 61804 10072 20016 30168 40234 51003 70522 86500 333 10106 31005
AAXX 14124 47150 11650 73406 10069 20019 30218 40237 52009 69952 71022 87500 333 10081 31004
AAXX 14124 47152 32973 02502 10056 21004 30173 40216 51007 333 10136 30001
AAXX 14124 47154 329// /0000 10070 20010 30162 40222 50002 333 10107 3/004
AAXX 14124 47155 32970 03403 10089 21015 30177 40223 52008 333 10135 30003
AAXX 14124 47156 32661 42504 10087 20035 30153 40242 52007 84500 333 10121 31006
AAXX 14124 47157 32663 62304 10073 20009 39943 40212 51002 85500 333 10111 31004
AAXX 14124 47162 32970 00203 10087 20011 30187 40227 52007 333 10131 30004 92022
AAXX 14124 47169 32662 53414 10096 20035 30149 40242 50008 85500 333 10136 31008 92034
AAXX 14124 47170 32666 52907 10089 20035 30196 40239 52005 85500 333 10133 30006 92023
AAXX 14124 47171 129// /0000 10070 20022 30183 40238 52005 69902 333 10114 3/005
AAXX 14124 47172 329// /1802 10074 20024 30169 40236 52007 333 10122 3/006
AAXX 14124 47173 329// /0000 10048 20009 30124 40236 51004 333 10112 3/004
AAXX 14124 47174 32662 30902 10068 20006 30029 40231 51005 83500 333 10124 31004
AAXX 14124 47175 32562 33409 10055 20042 39665 40241 52005 83500 333 10109 30005 92023
AAXX 14124 47185 32670 43215 10127 20053 30149 40239 50001 84500 333 10139 30009 92034
AAXX 14124 47188 32670 33603 10069 20025 30218 40240 50003 83500 333 10139 30006 92022
AAXX 14124 47189 32670 33403 10121 20033 30174 40233 50005 83500 333 10158 30007 92022
AAXX 14124 47192 32664 22301 10018 21027 30191 40229 52006 82500 333 10128 30002
AAXX 14124 91925 06/// /3301 10221 20191 30065 40126 56013 60001 333 10294 58009 60007 90710 91104 555 60005 13008
AAXX 14124 91929 04/64 /1009 10266 20218 30134 40137 58013 60001 700// 333 60007 90710 91114 555 60005
AAXX 14124 91938 02570 21102 10252 20211 30141 40143 56009 60001 82200 333 60007 82820 90710 91104 555 60005 10806
AAXX 14124 91943 36/// /0908 10265 20215 30126 40128 56014 333 58000
AAXX 14124 91944 06/// /0809 10260 20203 30136 40139 56015 60001 333 60007 90710 91113 555 60005
AAXX 14124 91948 06/// /0102 10222 20190 30066 40169 56012 60001 333 10279 58001 60007 90710 91103 555 60005 10104
AAXX 14124 91954 06/// /1402 1//// 2//// 30156 4//// 56014 69921 333 1//// 58006 60007
AAXX 14124 91958 06/// /0411 10226 20201 30177 40179 56009 60001 333 10236 58017 60007 90710 91127 555 60005 10527
AAXX 14124 91945 NIL
AAXX 14123 91551 31598 80000 10265 20257 4//// 5//// 70292 8422/ 333 10322 5689/ 84820 88461
AAXX 14123 91553 11598 89902 10270 20249 40092 52014 69941 78022 889// 333 10300 563// 59005 69941 84820 81925 88640
AAXX 14123 91554 11498 80103 10250 20243 40084 51009 60041 78028 888// 333 10315 561// 59009 60041 85818 88460
AAXX 14123 91555 31598 61008 10280 20259 40083 51005 70211 86800 333 10324 563// 59012 83825 86640
AAXX 14123 91557 31598 29901 10257 20250 40066 51005 70111 82200 333 10/// 569// 59012 82820
AAXX 14123 91565 11498 30000 10265 20244 40086 51004 69911 72511 83201 333 10320 561/9 59008 69911 83818
AAXX 14123 91568 31598 60000 10254 20243 40101 51005 70211 82101 333 10322 562/9 59008 82825 86080
AAXX 14121 14240 12665 31501 10118 20062 39995 40148 57023 60001 82530 333 70000
AAXX 14121 14258 12670 11806 10144 20050 39968 40151 57013 60001 81500 333 70000 81633
AAXX 14121 14445 12670 61308 10144 20077 30035 40188 57021 60001 82832 222// 0 160 333 70000 82896 82399 82099 92312
BBXX LF4H 14124 99596 10022 46/// /2426 10069 20041 49656 52042 8//// 22200 06087 10809 70045 333 91147
BBXX LMEL 14121 99603 10053 43/// /1509 10066 20047 49683 5//// 222/2 04101 1//// 3//// 4//// 5////
AAXX 14124 78615 31359 80000 10200 20197 30048 40190 53004 71041 886// 333 10300 20190 30/// 562// 59012 70092 83708 86612
AAXX 14124 78627 32982 00000 10050 20045 38179 57003 333 10224 20048 30/// 59005
AAXX 14124 78637 11458 80000 10208 20202 30149 40169 53007 60111 76162 8552/ 333 10266 20198 32/// 5689/ 59007 70218 85610 88458
AAXX 14124 78641 32482 40110 10138 20112 38553 40158 55002 81301 333 10232 20136 30/// 56809 59005 81614 83070
AAXX 14124 78647 31940 30000 10196 20192 30117 40124 55002 71000 80001 333 10322 20192 30/// 56009 59003 83070
AAXX 14124 78615 31359 80000 10200 20197 30048 40190 53004 71041 886// 333 10300 20190 30/// 562// 59012 70092 83708 86612
AAXX 14124 78627 32982 00000 10050 20045 38179 57003 333 10224 20048 30/// 59005
AAXX 14124 78637 11458 80000 10208 20202 30149 40169 53007 60111 76162 8552/ 333 10266 20198 32/// 5689/ 59007 70218 85610 88458
AAXX 14124 78641 32482 40110 10138 20112 38553 40158 55002 81301 333 10232 20136 30/// 56809 59005 81614 83070
AAXX 14124 78647 31940 30000 10196 20192 30117 40124 55002 71000 80001 333 10322 20192 30/// 56009 59003 83070
AAXX 14124 78962 12470 40803 10276 20247 30109 40117 60001 83832 333 01299 10310 20233 59008 70031 83818
BBXX 46026 14121 99378 71228 46/// /2801 10102 40223 51009 91150 22200 00110 11202 20301 328// 41202 70012 333 91202 555 11014 22015 31050 43004 61149 285015 299019 303024 300024 296026 293034
BBXX 46042 14121 99368 71224 46/// /3605 10107 40222 51013 91150 22200 00116 11003 20401 330// 41003 70013 333 91205 555 11047 22049 31130 43606 61149 004044 004045 003044 003041 009038 006042
BBXX 46054 14121 99342 71204 46/// /0202 10126 40202 52012 91150 22200 00139 11103 20401 300// 41103 70017 333 91202 555 11017 22018 31057 43405 61149 022016 026016 039018 027019 359029 336039
BBXX CG2958 14124 99488 71230 46/// /1004 10054 20020 40219 50004 7//// 8//// 22200 0//// 2////
BBXX CG2965 14124 99487 71235 46/// /2504 10020 20003 40213 53004 7//// 8//// 22200 0//// 2////
BBXX CGBR 14124 99541 71305 46/// /1001 10002 20001 40177 58008 7//// 8//// 22200 0//// 2////
BBXX CGBY 14124 99487 71235 46/// /2503 10022 20005 40212 53005 7//// 8//// 22200 0//// 2////
BBXX CGDR 14124 99505 71277 46/// /0607 10045 20045 40166 58002 7//// 8//// 22200 0//// 2////
BBXX CGJK 14124 99484 71234 46/// /3603 10030 20010 40209 53006 7//// 8//// 22200 0//// 2////
BBXX KGTX 14123 99540 71382 41498 41930 10065 2099/ 40130 52010 7//11 8446/ 22234 00069 20401 317// 40802 5//// 6//// 81035 ICE /////
BBXX LEQZ3 14123 99511 71340 41497 71813 10080 21080 40160 56020 70222 8784/ 22273 04120 20601 314// 40601 80020
BBXX SHIP 14124 99397 71481 41898 71307 10145 20101 40225 54000 70222 87/5/ 22233 00160 80120
BBXX WABS 14124 99372 71241 41598 52007 10111 20040 40230 54000 7//22 8586/ 22233 00119 2//// 3//// 4//// 5//// 6//// 80078 ICE /////
AAXX 14121 26645 NIL
AAXX 14121 26659 42460 72003 10055 20036 39899 40112 51003 87500 333 87617 555 11004
AAXX 14121 26763 41324 82304 10048 20043 39906 40133 52001 71042 886// 333 88709 555 12003
AAXX 14121 26825 42962 51904 10071 20029 39922 40102 58003 80001 555 11005
AAXX 14121 26832 42560 21904 10070 20027 39915 40106 58002 82500 555 11006
AAXX 14121 26887 41/93 91803 10030 20030 39965 40172 58003 74542 555 12003
AAXX 14121 26961 41458 72102 10063 20046 39956 40147 52005 71052 875// 333 87618 555 11///
AAXX 14121 33027 42597 82402 10071 20048 39990 40157 51004 83531 555 11007
AAXX 14121 26509 /1570 71805 10062 20041 30033 40042 58001 70182 86230 333 86822 91009 91112 555 1/005 69941
AAXX 14121 26518 /1461 72005 10034 20032 39849 40053 54000 70262 87800 333 87614 91007 91111 555 1/001 4/007 69961
AAXX 14121 26524 32497 82004 10044 20034 39919 40051 58002 886// 333 88712 91007 91109 555 1/004
AAXX 14121 26531 /1457 82003 10049 20042 39985 40061 51001 76065 886// 333 91008 91109 555 1/004 60011
AAXX 14121 26629 /1597 22106 10067 20039 39980 40075 58001 70261 81501 333 91007 91109 555 1/006 69901
AAXX 14121 26633 /1459 72103 10054 20037 39946 40076 58001 72165 87500 333 87617 91008 91108 555 1/005 69941
AAXX 14121 26730 /1570 22005 10067 20034 39900 40089 58004 70262 82500 333 91007 91108 555 1/005 69941
AAXX 14124 17024 12670 43102 10154 20046 30142 40219 57008 60001 81104 333 81835 84070 91115 92428
AAXX 14124 17056 12665 30602 10136 20134 30212 40216 57011 60001 83200 333 83833 91104 92427
AAXX 14124 17067 12670 62903 10138 20070 30194 40216 57010 60001 84230 333 84840 86360 91107 92408
AAXX 14124 17092 12660 50000 10020 21081 38930 48545 57015 60001 83550 333 83640 85360
AAXX 14124 17112 12665 42302 10149 20109 30214 40216 57009 60001 84200 333 84835 91105 92407
AAXX 14124 17115 12960 32402 10165 20102 30162 40213 57010 60001 83030 333 83360
AAXX 14124 17116 11657 62404 10146 20069 30100 40221 56008 60001 70522 84250 333 84833 86358 91106
AAXX 14124 17188 12660 51802 10124 20033 39155 40218 57012 60001 85200 333 85835 91106
AAXX 14124 17202 11458 71404 11011 21024 39238 40310 57012 60001 71022 87500 333 84710 86630
AAXX 14124 17248 12970 23101 10099 21007 39015 48522 57014 60001 82030 333 82360
AAXX 14124 17292 12670 32902 10145 20085 39457 40212 57014 60001 83200 333 83835 91105
AAXX 14124 17300 12560 31705 10176 20064 30129 40200 57016 60001 83100 333 83830
AAXX 14124 17310 12970 02203 10192 20075 30204 40211 57016 60001 333 91104 92418
AAXX 14124 17330 12970 42402 10180 20022 30186 40204 57020 60001 83031 333 83360 84070
AAXX 14121 14241 12670 40000 10084 20057 30018 40148 58024 60001 84500
AAXX 14121 14284 11540 71405 10073 20061 30066 40175 58019 60001 71042 84570
AAXX 14121 14307 11680 81301 10130 20098 30088 40163 58016 69941 76066 885// 333 70004
AAXX 14121 14317 11560 81503 10120 20109 30067 40167 57014 60021 76266 8772/ 333 70029
AAXX 14121 14431 11570 81504 10136 20108 30093 40185 56014 69931 76062 8687/ 333 83723 85640
AAXX 14121 14444 32580 61105 10156 20105 30170 40199 57019 82830 333
AAXX 14121 14474 12568 41304 10146 20094 30027 40215 58011 60001 83201
AAXX 14124 17026 12970 30103 10129 20080 30183 40222 56005 60001 83040 333 83360 91106 92428
AAXX 14124 17034 12970 62302 10128 20028 30180 40226 55001 60001 84038 333 84360 86270 92428
AAXX 14124 17070 11558 52002 10125 20051 39354 40230 57015 60001 71011 85200 333 85830 91104
AAXX 14124 17084 11960 02702 10100 20020 39322 40244 57015 60001 70511 333 91104
AAXX 14124 17090 12965 50603 10055 21058 38763 48529 57015 60001 85030 333 85360
AAXX 14124 17098 12960 40000 11068 21104 38257 48574 57009 60001 80004 333 84070
AAXX 14124 17150 11660 50000 10146 20104 30097 40221 57012 60001 71022 82130 333 82835 84360
AAXX 14124 17160 12970 11803 10106 20002 39057 48525 56016 60001 81030 333 81360
AAXX 14124 17184 11670 23501 10157 20090 30110 40222 57014 60001 70141 82100 333 82840 91103
AAXX 14124 17189 11559 32701 10093 20016 39060 48520 57017 60001 70511 83230 333 83830 83360
AAXX 14124 17210 12970 32502 10101 21030 39192 40240 57015 60001 80001 333 83070
AAXX 14124 17234 12970 31302 10172 20087 30150 40218 57014 60001 83030 333 83360 91111
AAXX 14124 17260 12660 50407 10094 21018 39407 40240 57013 60001 83130 333 83840 85360
AAXX 14124 17290 12970 32302 10183 20121 30184 40216 57015 60001 83030 333 83360 91105 92408
AAXX 14124 17370 12965 71504 10159 20002 30195 40199 57018 60001 85031 333 85360 87070 92427
AAXX 14124 17022 12665 13001 10159 20047 30058 40223 56008 60001 81100 333 81835 91105 92427
AAXX 14124 17031 12670 60000 10144 20066 30211 40217 55005 60001 82150 333 82836 86360
AAXX 14124 17038 12965 73202 10127 20078 30170 40221 56003 60001 87030 333 87360 92427
AAXX 14124 17050 12670 82302 10105 20095 30153 40216 57012 60001 8552/ 333 85635 88460 91105
AAXX 14124 17060 12660 52204 10125 20074 30179 40219 56009 60001 83150 333 83835 85359
AAXX 14124 17096 11840 42202 11075 21081 38290 48567 57008 60001 71041 84050 333 84358
AAXX 14124 17124 12960 30701 10109 20030 39306 40231 57015 60001 83030 333 83360
AAXX 14124 17128 12670 51402 10088 20015 39127 40243 57014 60001 82130 333 82840 85360
AAXX 14124 17170 NIL
AAXX 14124 17195 12670 41801 10091 21025 39012 48527 57014 60001 82130 333 82840 84360
AAXX 14124 17199 11458 82202 10007 21007 39163 40301 57013 60001 71022 8662/ 333 83715 84630 88458
AAXX 14124 17219 12565 51604 10169 20099 30071 40216 58012 60001 83250 333 83830 85360
AAXX 14124 17240 12970 42401 10101 21023 39070 40230 57015 60001 80001 333 84070
AAXX 14124 17244 12970 40505 10103 21007 39031 48525 57015 60001 80001 333 84070
AAXX 14124 17280 12660 52905 10069 21006 39447 40262 55012 60001 81104 333 81840 85070
AAXX 14124 17350 12970 60507 10166 20012 30125 40204 56016 60001 84041 333 84360 85070
AAXX 14124 60101 32460 62110 10169 20128 40279 50001 85802 333 82813 85816
AAXX 14124 60156 17460 20305 10172 20108 40284 56003 60001 70010 82500 333 82616
AAXX 14124 60230 12957 23303 10210 20054 40263 50002 60001 82080 91145 333 82360
AAXX 14124 60252 32960 22602 10202 20025 40264 51012 82030 333 82360
AAXX 14124 60106 32965 51808 10164 20095 40283 58002 82232 333 82820 84360
BBXX BATUK01 14124 99584 70060 44496 82708 10064 20024 49695 53016 78188 8877/ 22241 00110 20404 329// 40606 5////
AAXX 14124 78615 31359 80000 10200 20197 30048 40190 53004 71041 886// 333 10300 20190 30/// 562// 59012 70092 83708 86612
AAXX 14124 78627 32982 00000 10050 20045 38179 57003 333 10224 20048 30/// 59005
AAXX 14124 78637 11458 80000 10208 20202 30149 40169 53007 60111 76162 8552/ 333 10266 20198 32/// 5689/ 59007 70218 85610 88458
AAXX 14124 78641 32482 40110 10138 20112 38553 40158 55002 81301 333 10232 20136 30/// 56809 59005 81614 83070
AAXX 14124 78647 31940 30000 10196 20192 30117 40124 55002 71000 80001 333 10322 20192 30/// 56009 59003 83070
AAXX 14124 13610 12760 81801 10108 20047 39800 40224 54002 60001 885// 333 88650
AAXX 14124 16253 11456 72209 10170 20127 30202 40214 58017 69961 71062 84950 333 55302 82915 83820 85356
AAXX 14124 13600 12660 80000 10104 20081 30180 40233 54002 60001 8355/ 333 83640 85360
AAXX 14124 93004 16/// /0425 10179 20179 40067 57013 60261 333 10181
AAXX 14124 93023 16/// /0419 10184 20180 40098 57025 60141 333 10194
AAXX 14124 93069 16/// /0522 10178 20171 40117 57019 60001 333 10189
AAXX 14124 93110 17497 /0516 10174 20168 40113 57015 60061 333 10208
AAXX 14124 93186 17496 /0412 10177 20164 40147 57015 69961 333 10213
AAXX 14124 93196 16/// /0216 10172 20153 40169 57017 60001 333 10200
AAXX 14124 93245 16496 /0411 10142 20129 40143 57017 60021 333 10181
AAXX 14124 93292 17998 /0104 10169 20126 40156 57014 60001 333 10225
AAXX 14124 93309 17395 /0513 10162 20159 40107 57013 60101 333 10197
AAXX 14124 93334 16/// /0309 10116 20106 39174 57016 60031 333 10171
AAXX 14124 93339 16/// /0228 10114 20101 39172 57020 60031 333 10168
AAXX 14124 93373 17698 /0418 10183 20130 40128 57016 60001 333 10252
AAXX 14124 93404 17697 /1103 10183 20156 40102 57017 69921 333 10267
AAXX 14124 93420 17596 /0506 10167 20151 40101 57014 60021 333 10225
AAXX 14124 93439 17496 /0108 10166 20152 40096 57015 69941 333 10211
AAXX 14124 93498 16/// /0314 10152 20135 40107 57016 60001 333 10171
AAXX 14124 93515 17497 /0327 10169 20160 40063 57006 60101 333 10179
AAXX 14124 93527 16/// /0124 10163 20160 40081 57009 60041 333 10169
AAXX 14124 93546 17595 /0806 10156 20155 40096 57011 60271 333 10179
AAXX 14124 93597 16/// /3422 10148 20144 40082 57018 60021 333 10168
AAXX 14124 93615 17397 /0320 10167 20160 40055 54000 69921 333 10181
AAXX 14124 93678 16998 /0308 10144 20134 40030 57002 69921 333 10177
AAXX 14124 93709 16/// /0514 10163 20156 40027 52002 60031 333 10182
AAXX 14124 93773 17/98 /1903 10151 20141 49970 57007 60001 333 10207
AAXX 14124 93781 17998 /0711 10180 20133 40006 57009 60001 333 10190
AAXX 14124 93800 NIL
AAXX 14124 93805 NIL
AAXX 14124 93831 17999 /3003 10184 20121 49968 52011 60001 333 10253
AAXX 14124 93845 17696 /1312 10149 20143 49964 52006 60061 333 10235
AAXX 14124 93891 17/98 /0604 10188 20161 49960 57002 60001 333 10216
AAXX 14124 93909 16/// /1107 10142 20139 49973 52010 60161
AAXX 14124 93929 16/// /1706 10093 20091 40001 52017 69981
AAXX 14124 93947 16/// /2606 10083 20083 49962 57004 60071
AAXX 14124 93987 16/// /0215 10127 20075 40240 57014 60001 333 10176
AAXX 14124 93994 NIL
AAXX 14123 91802 NIL
AAXX 14123 91809 NIL
AAXX 14123 91831 36/// /0606 10257 20228 40147 57006
AAXX 14123 91841 36/// /0000 10249 20217 40143 57017 333 10297
AAXX 14123 91843 31598 60306 10277 20226 40140 58016 60001 70222 8213/ 333 10291 5619/ 82825 86362
AAXX 14123 91848 36/// /0506 10248 20226 40146 57027 333 10305
AAXX 14124 41859 31330 82302 10141 20130 30113 40153 70522 8462/ 333 10168 56599 58001 70000 83710 84617 88458
AAXX 14124 41883 31328 60000 10144 20120 30130 40151 70544 84620 333 10176 56690 58006 70000 82709 83615 86458
AAXX 14124 41891 31930 00000 10195 20150 30101 40140 70510 333 10258 58004 70000
AAXX 14124 41907 31910 00000 10156 20140 30129 40144 70500 333 10214 58004 70000
AAXX 14124 41923 31940 03102 10197 20130 30131 40141 70500 333 10236 58005 70000
AAXX 14124 41936 31920 00000 10176 20140 40148 70500 333 10250 58005 70000
AAXX 14124 41943 31940 00000 10196 20160 30133 40141 70500 333 10256 58006 70000
AAXX 14124 41950 31940 00000 10185 20160 30137 40139 70500 333 10260 58003 70000
AAXX 14124 41978 31932 02703 10220 20140 30129 40135 70500 333 10250 58010 70000
AAXX 14124 41992 31930 00000 10220 20140 30133 40135 70500 333 10278 58009 70000
AAXX 14124 13601 12662 42204 10162 20101 30105 40205 57007 60001 84230 333 84840
AAXX 14124 91367 32474 41012 10272 20239 84100 333 10311 562// 84815 555 91412
AAXX 14124 13622 12665 40000 10162 20089 30219 40226 54004 60001 84500 333 84640
AAXX 14124 16470 12960 ?3600 10172 20137 30004 40239 57011 60001 333 55310 22/// 95000
AAXX 14124 13611 12665 21410 10156 20084 30112 40202 54003 60001 82200 333 82840
AAXX 14124 13623 11960 73202 10116 20109 30223 40229 54002 60001 70341 87030 333 87360
AAXX 14121 14008 11/91 90906 11042 21045 37426 47979 57019 60021 77174 333 91118 93102 95190
AAXX 14121 14015 11565 83601 10071 20059 39790 40149 58025 69981 70262 8657/ 333 82725 86635
AAXX 14121 14023 11598 73003 10111 20054 39847 40138 57021 69901 70262 86530 333 81720 86632
AAXX 14121 14024 12398 72106 10049 20045 39047 48447 57018 60001 87800 333 83806 84609 95050
AAXX 14121 14026 12698 51807 10106 20055 39810 40126 58026 60001 85500 333 85634 91010 91110
AAXX 14121 14031 12597 31503 10110 20057 39905 40130 57028 60001 83500 333 83626
AAXX 14121 14105 11598 71404 10142 20102 30147 40151 57020 60021 76062 85570 333 81723 84650
AAXX 14121 14106 11596 72501 10091 20087 30083 40151 58023 60021 76062 83720 333 83720 84530 95090
AAXX 14121 14112 11/97 72302 10096 29095 60021 70262
AAXX 14121 14121 12698 72702 10076 20047 39872 40137 57030 60001 86530 333 86640
AAXX 14121 14122 12682 70401 10091 20061 39950 40145 57026 60001 86530 333 86645
AAXX 14124 13619 11550 80000 10064 20051 39468 42847 52009 60001 71021 885// 333 88630
AAXX 14124 17042 12670 60402 10139 20019 30181 40220 53002 60001 83550 333 83635 86360 92438
AAXX 14124 17074 11658 50203 10090 20027 39289 40236 57015 60001 70511 83230 333 83833 85360 91106
AAXX 14124 17086 12665 53002 10086 21009 39506 40236 57018 60001 83530 333 83635 85360
AAXX 14124 17088 12670 81201 10075 21074 38837 48532 57018 60001 8452/ 333 84640 86460
AAXX 14124 17140 12965 02303 10091 21005 38736 48521 57009 60001
AAXX 14124 17155 11657 70000 10097 20042 39101 40227 57012 60001 70541 84550 333 84635 87359 91106
AAXX 14124 17203 12670 40000 10032 21047 38938 48577 57018 60001 84200 333 84840
AAXX 14124 17237 3//// /0502 10152 20059 39711 40215 57014 60001
AAXX 14124 17250 12975 30602 10107 21047 38836 48527 57016 60001 83030 333 83360
AAXX 14124 17270 12670 60801 10127 21012 39575 40228 57016 60001 84250 333 84840 86360
AAXX 14124 17295 12560 41903 10184 20114 30204 40211 57020 60001 81130 333 81830 83360
AAXX 14124 17320 12670 51102 10192 20059 30200 40205 57017 60001 83250 333 83836 85357 92428
AAXX 14124 17375 12670 61801 10182 20098 30203 40205 57018 60001 82104 333 82836 86070 91106 92428
AAXX 14124 17500 12560 40000 10184 20070 30154 40215 57017 60001 81130 333 81825 84360
AAXX 14124 17501 12560 60404 10180 20083 30181 40200 57018 60001 81130 333 81830 86360 92427
AAXX 14124 17505 12560 60709 10177 20073 30097 40209 57016 60001 81130 333 81830 86360
AAXX 14124 17507 12560 40507 10171 20070 30103 40224 57016 60001 81130 333 81825 84360
AAXX 14124 17510 12560 60000 10177 20100 30170 40180 58020 60001 81130 333 81830 85360 92417
AAXX 14124 17515 12560 60000 10168 20064 30043 40218 57017 60001 81130 333 81830 86360
AAXX 14124 17521 12560 70406 10165 20088 30056 40196 57016 60001 82150 333 82825 87362
AAXX 14124 17530 12560 60605 10171 20081 30152 40208 57013 60001 81130 333 81830 86360
AAXX 14124 17535 12560 60604 10169 20083 30156 40192 57014 60001 81130 333 81830 86360
AAXX 14124 17540 12560 60212 10175 20084 30195 40219 57012 60001 81132 333 81830 83360 85070 92437
AAXX 14124 17547 12560 60512 10152 20068 39955 40197 57018 60001 81132 333 81830 83360 85070 92437
AAXX 14124 17550 12560 60206 10159 20084 30051 40196 57017 60001 81130 333 81830 86360 92447
AAXX 14124 17572 12560 6//// 10174 20086 30190 40214 57015 60001 81130 333 81830 85360 92417
AAXX 14124 04005 41/05 90514 11017 21038 49894 52010 77573 555 3/416
AAXX 14124 04018 42584 70110 11002 21029 49833 52004 83807 555 3//19 81818 83619 87266
AAXX 14124 04030 42589 60106 10003 21033 49828 52003 81138 555 3//11 81826 86269
AAXX 14124 04048 NIL
AAXX 14124 04063 41311 89902 11018 21030 49852 52020 77177 889// 555 3//04
AAXX 14124 04077 NIL
AAXX 14124 04082 42988 63202 10026 21037 49804 8480/ 555 3//23 83658 84361
AAXX 14124 04097 41582 83624 10025 20001 49808 52017 78382 889// 555 3/428
AAXX 14123 04013 42589 80218 10002 21015 49840 57013 82520 555 3//18
AAXX 14123 04064 42788 33205 11044 21097 49807 52016 81548 555 3//09
AAXX 14121 33393 32997 52102 10078 20026 39770 40159 58009 85030
AAXX 14121 33587 31395 82401 10068 20061 39930 40193 58006 71042 886// 333 88708
AAXX 14121 33088 32997 62403 10075 20045 39967 40157 58002 82034
AAXX 14121 33177 32599 21702 10089 20039 39917 40152 58003 82501
AAXX 14121 33261 NIL
AAXX 14121 33275 /1194 81606 10014 20011 39990 40218 58008 71054 886// 333 88703 555 69901
AAXX 14121 33301 32998 62003 10078 20044 39879 40159 58007 83031 333 83300
AAXX 14121 33325 32497 82001 10078 20056 39908 40174 58003 8655/ 333 86619
AAXX 14121 33377 /1/00 91802 10033 20033 30010 40207 58008 74554 555 69911
AAXX 14121 33415 NIL
AAXX 14121 33429 31/93 91702 10043 20043 39753 40179 58009 74542
AAXX 14121 33466 /1338 81803 10057 20052 30006 40194 58005 71054 886// 333 88708 555 69901
AAXX 14121 33526 NIL
AAXX 14121 33562 NIL
AAXX 14121 33614 /1993 91402 10055 20053 30103 40208 58010 75154 555 69901
AAXX 14121 33761 /1336 82302 10069 20065 39970 40193 57001 75154 886// 555 69901
AAXX 14121 33902 /1595 81502 10096 20090 30135 40200 57005 71052 885// 555 69901
AAXX 14121 33983 32997 61604 10123 20078 30161 40221 58009 86031
AAXX 14121 34415 /1322 80000 10016 20013 30151 40250 57007 76365 8772/ 555 60031
AAXX 14121 34523 /1496 81004 10020 20009 30189 40267 57007 76162 8772/ 555 69961
AAXX 14121 34712 NIL
AAXX 14124 78583 32470 33304 10212 20208 40168 60001 83800 333 01100 10287 20/// 59012 81816 83640
AAXX 14121 12105 12981 81604 10064 20027 39961 40003 58025 60001 8807/ 333 91111 93000
AAXX 14121 12195 12960 42104 10061 20033 39861 40088 55001 60001 81031 333 93000
AAXX 14121 12235 12673 71705 10061 20031 39821 40030 57023 60001 8453/ 333 93000
AAXX 14121 12270 12961 61703 10056 20033 39899 40081 57015 60001 80008 333 93000
AAXX 14121 12280 12980 61704 10060 20028 39924 40080 57007 60001 80006 333 93000
AAXX 14121 12300 12882 71904 10071 20037 39916 40005 57043 60001 8551/ 333 93000
AAXX 14121 12400 12680 71705 10086 20030 39787 40018 58042 60001 8257/ 333 91109 93000
AAXX 14121 12435 12560 71607 10064 20023 39899 40070 57024 60001 8457/ 333 93000
AAXX 14121 12495 12962 61603 10065 20043 39838 40130 58013 60001 82038 333 93000
AAXX 14121 12530 12965 81706 10070 20034 39899 40098 56013 60001 8807/ 333 91114 93000
AAXX 14121 12570 12972 71605 10073 20033 39804 40121 56015 60001 81036 333 93000
AAXX 14121 12580 12970 71806 10077 20043 39878 40137 58019 60001 82042 333 91012 91115 93000
AAXX 14124 08055 11482 42618 10072 20000 39139 48506 51013 69961 70286 83704 333 50030 95000
AAXX 14124 08075 11475 72416 10080 20055 39161 48507 51007 69901 70252 87800 333 50011
AAXX 14124 08084 02670 52812 10146 20040 39757 40183 50002 60001 81571 333 60007
AAXX 14124 08171 12783 31802 10104 20065 39959 40200 58002 60001 82102
AAXX 14124 08184 02580 30804 10169 20081 30003 40155 50003 60001 81102 333 60007
AAXX 14124 08202 02596 72415 10102 20057 39299 42838 50005 60001 85565 333 50170 60007
AAXX 14124 08235 NIL
AAXX 14124 08238 11750 72809 10140 20092 30126 40186 58001 60001 70422 81152
AAXX 14124 08280 12580 72513 10114 20069 39415 40235 52002 60001 86506
AAXX 14124 08330 11565 72707 10139 20107 30019 40249 52005 69991 70252 85771
AAXX 14124 08348 11470 82610 10130 20100 39511 40244 58003 69901 72052 8764/
AAXX 14124 08360 02980 32207 10180 20063 30185 40222 58012 60001 80005 333 60007
AAXX 14124 08373 02968 32415 10187 20124 30188 40209 58006 60001 80004 333 60007
AAXX 14124 08410 02460 72105 10136 20111 30152 40263 58002 69901 878// 333 60007
AAXX 14124 08419 02675 60000 10123 20081 39592 40261 58007 60001 86800 333 60007
AAXX 14124 08451 02370 53102 10191 20156 30229 40262 50000 60011 85800 333 60007
AAXX 14124 08487 02680 52306 10171 20100 30210 40235 58008 60001 81204 333 60007
AAXX 14121 12160 12980 61705 10071 20030 39998 40050 57017 60001 80006 333 93000
AAXX 14121 12205 12982 71608 10072 20032 39977 49985 58042 60001 8707/ 333 93000
AAXX 14121 12465 12973 71705 10074 20033 39854 40086 57022 60001 8707/ 333 93000
AAXX 14121 12566 12965 70303 10069 20031 39822 40116 56017 60001 8707/ 333 93000
AAXX 14121 12120 11970 71804 10060 20030 30008 40015 57015 69901 70181 8707/ 333 93097
AAXX 14121 12250 12970 61604 10070 20031 39969 40057 58020 60001 83038 333 93000
AAXX 14121 12295 12970 72003 10066 20030 39921 40104 58003 60001 8707/ 333 93000
AAXX 14121 12330 12765 71504 10072 20032 39930 40037 58038 60001 8457/ 333 93000
AAXX 14121 12375 12965 71603 10076 20033 39967 40097 58017 60001 8707/ 333 93000
AAXX 14121 12424 12999 71709 10090 20040 39913 40063 57028 60001 85078 333 91114 93000
AAXX 14124 78583 32470 33304 10212 20208 40168 60001 83800 333 01100 10287 20/// 59012 81816 83640
AAXX 14121 01447 16/// /1404 10015 21004 39115 49766 52010 60071 333 91109
AAXX 14121 26645 41459 81903 10048 20033 39834 40092 54000 71062 886// 333 88712 555 12004
AAXX 14124 08141 11470 52612 10098 20060 39350 40207 50006 69901 78011 83270 333 50011
AAXX 14121 26106 41/96 81804 10050 20033 30003 40045 57001 71022 886// 333 91110
AAXX 14121 26313 43/// /1904 10050 20039 30006 40013 57002 333 91111
AAXX 14121 26346 41295 81903 10025 20024 39811 40055 57001 76065 8872/ 333 87704
AAXX 14121 26406 41565 62006 10066 20039 30018 40024 52002 70282 86300 333 86922 91010 91112
AAXX 14121 26416 43/// /2003 10043 20029 39897 40036 52001
AAXX 14121 26424 41959 82203 10046 20030 39988 40041 57001 71082 8802/
AAXX 14121 26544 41457 82004 10048 20035 39923 40075 57002 78082 889// 333 85913
AAXX 14121 13160 31594 81502 10064 20060 30081 40191 56010 71042 886//
AAXX 14121 13262 32997 20000 10143 20067 30038 40184 57015 80002
AAXX 14121 13272 31940 20000 10084 20079 30073 40193 57014 71042 82030 333 82360
AAXX 14121 13285 32698 21101 10102 20056 30097 40200 58007 82500
AAXX 14121 13289 32898 21602 10080 20045 38997 48505 58005 82030
AAXX 14121 13376 31995 30601 10049 20042 39947 40213 57015 72840 83030
AAXX 14121 13388 32998 60301 10118 20064 39960 40206 57014 86030
AAXX 14121 13462 32560 60000 10126 20102 30189 40229 57011 83830 333 82820 86459
AAXX 14121 13473 NIL
AAXX 14121 13489 31595 62201 10096 20048 39713 40231 55001 71022 86500
AAXX 14124 71812 NIL
AAXX 14124 71819 15966 02908 11123 21146 30217 40260 55005 60001 333 11103 21157 70000
AAXX 14124 71820 16/// /0404 10012 20007 30163 40279 58003 60001 333 10051 20005 70000
AAXX 14124 71823 17456 82108 11133 21153 39828 40223 56019 60001 745// 333 11122 21149 70005
AAXX 14124 71824 NIL
AAXX 14124 71826 NIL
AAXX 14124 71829 17/// /3007 11110 21128 30133 40300 58001 69931 7//4/ 333 11033 21110 70003
AAXX 14124 71833 46/// /1801 11001 21006 6///1 333 10074 21019 7////
AAXX 14124 71835 16/// /1808 11026 21034 39660 40145 56026 60001 333 11048 21070 4/005 70000
AAXX 14124 71837 NIL
AAXX 14124 71839 NIL
AAXX 14124 71840 NIL
AAXX 14124 71846 16/// /2106 11024 21043 39842 40162 56018 60001 333 11040 21081 4/003 70000 555 10010
AAXX 14124 71847 NIL
AAXX 14124 71848 NIL
AAXX 14124 71849 16/// /1909 11027 21038 39822 40122 57022 60001 333 11022 21041 4/001 70000
AAXX 14124 71665 16/// /2610 11106 21168 30164 40174 58008 60001 333 11112 21155 4/029 70000
AAXX 14124 71666 16/// /3605 11007 21055 30243 40289 51016 60001 333 10038 21008 70000
AAXX 14124 71667 NIL
AAXX 14124 71668 16/// /3503 11009 21037 30251 40295 52015 60001 333 10041 21009 70000
AAXX 14124 71669 NIL
AAXX 14124 71670 16/// ///// 11018 21037 60001 333 10019 21018 70000
AAXX 14124 71671 16/// /0209 10005 21029 30205 40266 51022 60001 333 10082 20004 70000
AAXX 14124 71672 16/// /0000 11021 21030 30005 40275 55003 60001 333 10067 21021 70000
AAXX 14124 71673 NIL
AAXX 14124 71674 NIL
AAXX 14124 71675 17358 82303 11038 21044 39844 40126 58017 60031 7104/ 333 11043 21082 70133
AAXX 14124 71679 16/// /0303 11099 21107 39158 40191 51009 60001 333 10006 21106 4/001 70008 555 10020
AAXX 14124 71680 NIL
AAXX 14124 71681 46/// /0000 11057 21070 6///1 333 11005 21061 7////
AAXX 14124 71682 NIL
AAXX 14124 71683 NIL
AAXX 14124 71684 17/06 /1503 11014 21015 39962 40270 58007 60001 735// 333 10001 21027 70000
AAXX 14124 71685 17566 81002 11032 21042 39679 40230 51012 60001 771// 333 11027 21033 70000
AAXX 14124 71686 NIL
AAXX 14124 71687 16/// /1101 11019 21034 39404 40195 50003 60001 333 11001 21020 4/029 70000
AAXX 14124 71688 16/// /0000 11029 21040 39139 40184 50004 60001 333 11011 21030 4/054 70000
AAXX 14124 71689 17528 83311 11075 21085 39654 40115 53027 60021 7714/ 333 11015 21075 70025
AAXX 14124 71690 NIL
AAXX 14124 71691 15666 82902 11081 21088 30278 40306 58001 60001 333 11020 21121 70000
AAXX 14124 71692 NIL
AAXX 14124 71694 16/// /0702 11004 21006 39910 40280 56008 60001 333 10037 21004 4/003 70000
AAXX 14124 71695 16/// /1604 11054 21067 39741 40077 56015 60001 333 11036 21057 4/018 70000
AAXX 14124 71696 16/// /3414 11163 21202 30063 40100 51022 60001 333 11030 21163 70000
AAXX 14124 71697 17948 00501 11017 21017 30100 40275 58005 60001 710// 333 10072 21026 70000
AAXX 14124 71699 16/// /0206 10001 21036 30277 40285 51022 60001 333 10062 21004 70000
AAXX 14124 71900 46/// /23// 11105 21151 30182 40195 56013 6///1 333 11118 21141 7////
AAXX 14124 71903 NIL
AAXX 14124 71904 NIL
AAXX 14124 71914 16/// /0000 10021 20005 39989 40213 51008 60001 333 10033 20005 70000
AAXX 14124 71916 NIL
AAXX 14124 71918 460// ///// 11245 6///1 333 7////
AAXX 14124 71920 NIL
AAXX 14124 71921 NIL
AAXX 14124 71923 NIL
AAXX 14124 71927 NIL
AAXX 14124 71941 15164 81705 11033 21034 39855 40283 56011 60001 333 11003 21081 70000
AAXX 14124 71947 15466 81707 11087 21091 39910 40271 58011 60001 333 11076 21171 70000
AAXX 14124 71051 NIL
AAXX 14124 71055 NIL
AAXX 14124 71057 NIL
AAXX 14124 71059 460// ///// 11238 30085 40180 50003 6///1 333 11237 21280 7////
AAXX 14124 71061 16/// /2804 11065 21086 39339 40135 51028 60001 333 11024 21075 70000
AAXX 14124 71062 46/// /3008 11040 21079 39052 40130 53030 6///1 333 10011 21040 4/014 7////
AAXX 14124 71064 460// /3235 11282 39828 40052 53022 6///1 333 11176 21291 7////
AAXX 14124 71065 NIL
AAXX 14124 71067 NIL
AAXX 14124 71070 NIL
AAXX 14124 71073 NIL
AAXX 14124 71074 NIL
AAXX 14124 71075 16/// /0304 11097 21111 39482 40095 53009 60001 333 11036 21097 4/040 70000
AAXX 14124 71078 15866 80103 11092 21101 39628 40075 57006 60001 333 11041 21097 70000
AAXX 14124 71084 460// ///// 11214 39837 49885 53009 6///1 333 11149 21232 7////
AAXX 14124 71085 15966 62618 11027 21075 38761 40158 53026 60001 333 11021 21041 70000
AAXX 14124 71087 NIL
AAXX 14124 71088 460// /1022 11150 57014 6///1 333 11159 21181 7////
AAXX 14124 71089 NIL
AAXX 14124 71096 460// ///// 11220 39242 49988 58018 6///1 333 11211 21241 7////
AAXX 14124 71097 47014 02419 11079 39487 49962 56010 6///1 745// 333 11125 21178 7////
AAXX 14124 71098 43/// /2202 11030 21033 39753 40115 56018 6///1 333 11041 21055 7////
AAXX 14124 71099 NIL
AAXX 14124 71550 NIL
AAXX 14124 71551 NIL
AAXX 14124 71552 46/// /2213 11021 21037 6///1 333 11020 21038 7////
AAXX 14124 71553 NIL
AAXX 14124 71554 16/// /1202 11040 21048 30298 40304 58001 60001 333 10011 21040 70000
AAXX 14124 71555 16/// /0210 11030 21068 38570 40143 51038 60001 333 10054 21030 70020
AAXX 14124 71556 16/// /2107 11049 21063 39474 40084 57016 60001 333 11048 21055 4/001 70000
AAXX 14124 71557 46/// /0802 11122 21131 6///1 333 11010 21123 7////
AAXX 14124 71558 46/// ///// 11121 21143 30213 40252 55006 6///1 333 11101 21163 7////
AAXX 14124 71559 46/// /2406 11067 21073 39398 40109 58016 6///1 333 11050 21069 55/// 20000 7////
AAXX 14124 71560 16/// /1504 11025 21033 39817 40120 57027 60001 333 11019 21029 70000
AAXX 14124 71563 NIL
AAXX 14124 71564 16/// /1703 11026 21039 39747 40119 57023 60001 333 11018 21038 70000
AAXX 14124 71565 NIL
AAXX 14124 71566 NIL
AAXX 14124 71567 NIL
AAXX 14124 71568 17/// /1210 10032 20015 30187 40199 50001 69961 7//4/ 333 10037 20020 70026
AAXX 14124 71569 16/// /1907 11058 21067 39373 40080 56012 60001 333 11045 21058 70000
AAXX 14124 71570 16/// /2305 11018 21032 39815 40130 56018 60001 333 11014 21034 70000
AAXX 14124 71571 NIL
AAXX 14124 71572 NIL
AAXX 14124 71573 16/// /1702 10023 20008 39973 40260 57008 60001 333 10070 20004 70000
AAXX 14124 71574 11459 83102 11029 21041 30230 40305 51010 69921 77176 88500 333 10004 21032 47023 70028 90983 93101
AAXX 14124 71575 16/// /2819 11068 21087 39763 49826 53006 60001 333 11050 21070 4/021 70013
AAXX 14124 71576 16/// /1703 11245 21284 39903 49990 56010 60001 333 11237 21291 4/002 55/// 20000 70000
AAXX 14124 71577 NIL
AAXX 14124 71578 16/// /0305 10001 21030 60001 333 10009 20001 70010
AAXX 14124 71579 NIL
AAXX 14124 71580 11732 81111 11166 21191 39741 49777 52014 69981 77177 885// 333 11130 21171 46033 70046 90983 93101
AAXX 14124 71581 NIL
AAXX 14124 71582 17110 80202 10013 20013 30132 40185 58003 60001 710// 333 10058 21006 70110
AAXX 14124 71583 NIL
AAXX 14124 71584 15166 10205 11165 21184 30255 40305 54000 60001 333 11086 21165 70000
AAXX 14124 71585 NIL
AAXX 14124 71586 17/// /0000 11075 21083 39595 40065 58012 69961 7//4/ 333 11033 21111 4/026 70006
AAXX 14124 71587 NIL
AAXX 14124 71588 16/// /0504 11154 21164 60001 333 11044 21160 70000
AAXX 14124 71589 16/// /3304 11102 21128 30117 40254 55001 60001 333 10030 21110 70000
AAXX 14124 71590 16/// /3601 11078 21088 30108 40305 52006 60001 333 10010 21078 4/005 70000
AAXX 14124 71592 NIL
AAXX 14124 71593 NIL
AAXX 14124 71596 NIL
AAXX 14124 71598 16/48 /0209 11020 21046 30298 40304 53014 60001 333 10011 21026 4/001 70007
AAXX 14124 71599 16/// /0303 11009 21022 30060 40267 51019 60001 333 10068 21016 70006
AAXX 14124 71864 NIL
AAXX 14124 71865 16/// /2306 11052 21067 39399 40085 56016 60001 333 11049 21056 70000
AAXX 14124 71866 46864 82106 11060 21079 39465 40084 58008 6///1 333 11017 21068 7////
AAXX 14124 71867 11758 81703 11055 21058 39744 40081 57015 69901 77122 86520 333 11037 21058 47015 79999 90921
AAXX 14124 71868 16/// /1904 11046 21064 39638 40082 56019 60001 333 11042 21048 70000
AAXX 14124 71869 12974 82102 11052 21067 39543 40071 57013 60001 8802/ 333 11028 21061 47007 70000
AAXX 14124 71871 15466 13013 11049 21069 39274 40087 52014 60001 333 11038 21064 70000
AAXX 14124 71877 12874 80112 11028 21057 38868 40153 52028 60001 8807/ 333 10040 21053 42003 70000
AAXX 14124 71878 12874 63012 11034 21064 39065 40153 51028 60001 86070 333 11029 21131 48012 70000
AAXX 14124 71879 16664 63110 11032 21067 39324 40134 51030 60001 333 10006 21048 70000
AAXX 14124 71880 11582 80303 11068 21082 39088 40220 52011 69901 77122 885// 333 11065 21075 47002 79999 90942
AAXX 14124 71882 17564 80000 11034 21049 39680 40230 51012 60001 745// 333 11027 21034 70000
AAXX 14124 71883 NIL
AAXX 14124 71887 12686 71105 11032 21065 39797 40228 51012 60001 86570 333 11007 21057 40997 70000
AAXX 14124 71889 12474 81911 11018 21059 39811 40238 51004 60001 885// 333 11017 21025 70000
AAXX 14124 71891 16964 01402 11048 21073 39941 40221 51013 60001 333 11001 21055 70000
AAXX 14124 71892 12674 71004 10006 21029 30207 40212 50003 60001 86570 333 10040 21005 55003 70000
AAXX 14124 71201 16/// ///// 10028 21005 60001 333 10049 20020 70000
AAXX 14124 71202 17/// ///// 11059 21072 69951 7//4/ 333 11028 21091 70005
AAXX 14124 71203 15566 81406 11019 21061 39699 40229 51007 60001 333 11006 21030 70000
AAXX 14124 71209 46/// /1009 10028 6///1 333 10042 20023 7////
AAXX 14124 71211 46/// /0306 10032 21003 30195 40207 50000 6///1 333 10037 20027 7////
AAXX 14124 71212 17/// /0000 11043 21049 39463 40285 53006 69931 7//4/ 333 11001 21043 4/010 70003
AAXX 14124 71213 46/// /1602 11012 21012 39959 40266 58008 6///1 333 10002 21026 7////
AAXX 14124 71214 NIL
AAXX 14124 71215 46/// /1603 11021 21061 39884 40236 51007 6///1 333 11019 21027 7////
AAXX 14124 71216 NIL
AAXX 14124 71217 NIL
AAXX 14124 71218 16/// /2302 11020 21053 39788 40224 51014 60001 333 11002 21021 70000
AAXX 14124 71219 46/// /0612 10010 21015 30163 40169 58008 6///1 333 10047 20009 7////
AAXX 14124 71220 46/// /0805 10018 21010 6///1 333 10057 20017 7////
AAXX 14124 71221 NIL
AAXX 14124 71222 16/// /0000 11178 21196 39217 40217 51009 60001 333 11089 21178 4/025 70000
AAXX 14124 71223 NIL
AAXX 14124 71224 NIL
AAXX 14124 71225 NIL
AAXX 14124 71226 NIL
AAXX 14124 71227 NIL
AAXX 14124 71228 NIL
AAXX 14124 71229 NIL
AAXX 14124 71230 16/// /3104 11086 21113 39261 40169 51020 60001 333 10002 21093 4/008 70060 555 10090
AAXX 14124 71231 16/// /3209 11046 21080 60001 333 11066 21122 70000
AAXX 14124 71232 16/// /2510 11049 21099 38620 40131 51014 60001 333 11026 21057 70000
AAXX 14124 71233 16/// /2804 11047 21086 60001 333 10019 21047 7////
AAXX 14124 71234 16/// /2204 11049 21057 38949 40163 51052 60001 333 11037 21116 4/007 70000
AAXX 14124 71235 16/// /0311 11034 21054 60001 333 10009 21054 70000
AAXX 14124 71236 46/// /3210 11040 21089 6///1 333 11034 21059 7////
AAXX 14124 71237 46/// /2804 11117 21138 39307 40147 53024 6///1 333 11100 21166 7////
AAXX 14124 71238 16/// /3106 11031 21058 60001 333 11003 21033 4/001 70000
AAXX 14124 71239 16/// /2303 11035 21039 39649 40114 56018 60001 333 11028 21036 4/002 70000
AAXX 14124 71240 16/// ///// 11089 21112 39253 40116 53016 60001 333 11050 21123 70000
AAXX 14124 71241 NIL
AAXX 14124 71242 16/// /3209 11046 21074 60001 333 11037 21115 4/005 70000
AAXX 14124 71243 NIL
AAXX 14124 71244 NIL
AAXX 14124 71245 NIL
AAXX 14124 71246 NIL
AAXX 14124 71247 15966 82405 11102 21123 39255 40129 51031 60001 333 11026 21127 70000
AAXX 14124 71248 16/// /3505 11029 21057 38833 40148 51032 60001 333 11025 21125 4/019 70006
AAXX 14124 71249 NIL
AAXX 14124 71893 12480 80000 10012 21001 30172 40204 58001 60001 885// 333 10034 21013 55001 70022
AAXX 14124 71894 NIL
AAXX 14124 71896 17004 62502 11145 21160 39360 40214 51014 60001 735// 333 11011 21149 70005
AAXX 14124 71897 12362 80510 10031 20016 3//// 4//// 54000 60001 888XX 333 10049 20025 70000
AAXX 14124 71898 160// ///// 11010 58008 60001 333 10042 21013 70025
AAXX 14124 71899 12574 81707 10029 20007 3//// 4//// 56006 60001 81507 333 10051 20011 70012
AAXX 14124 71902 12874 82709 11105 21154 30171 40180 58007 60002 8802/ 333 11114 21154 43020 70000 555 10000 20000
AAXX 14124 71905 NIL
AAXX 14124 71906 11432 81914 11088 21117 30045 40096 57022 60011 77172 885// 333 11085 21102 48009 70016 90937 93101
AAXX 14124 71907 17408 82628 11033 21047 39990 40022 53006 69951 745// 333 11038 21053 70030
AAXX 14124 71909 16964 02009 11048 21096 39862 49905 56011 60001 333 11074 21110 70010
AAXX 14124 71910 47440 92620 11068 21082 39770 49831 53004 6///1 745// 333 11049 21071 7////
AAXX 14124 71911 47022 31811 11196 39713 49768 58004 6///1 745// 333 11128 21196 7////
AAXX 14124 71912 11574 82105 11047 21062 39901 40085 57005 69901 77172 885// 333 11043 21056 47012 79999 90927
AAXX 14124 71915 NIL
AAXX 14124 71917 11974 00000 11411 21439 30086 40101 50000 69901 77677 333 11367 21417 43012 55/// 10162 20000 79999 90993
AAXX 14124 71922 11432 80000 11073 21082 39597 40069 57011 69941 77122 885// 333 11032 21112 47026 70004 90921 93101
AAXX 14124 71924 NIL
AAXX 14124 71925 11500 83230 11246 21289 39952 49994 53019 60001 73933 885// 333 11130 21262 48018 70004
AAXX 14124 71926 NIL
AAXX 14124 71928 16/// /3210 11034 21078 38974 40158 51032 60001 333 11054 21135 4/008 70000
AAXX 14124 71300 NIL
AAXX 14124 71301 16/// ///// 11021 21021 39853 40260 57009 60001 333 11008 21050 4/002 70000
AAXX 14124 71302 NIL
AAXX 14124 71303 46/// ///// 10041 20032 6///1 333 10055 20034 7////
AAXX 14124 71305 17466 83507 11106 21124 39843 40149 51028 60001 771// 333 10006 21115 70000
AAXX 14124 71306 17310 82632 11020 21031 39988 40020 53003 60001 771// 333 11027 21041 70000 555 32153 40023
AAXX 14124 71307 16/// /1805 10036 20027 30012 40266 55003 60001 333 10063 20024 4/001 70000
AAXX 14124 71308 17/// /0210 10015 21007 30165 40250 53023 60011 7//4/ 333 10062 20014 70023
AAXX 14124 71309 NIL
AAXX 14124 71310 16/// /0210 11007 21052 30238 40276 53019 60001 333 10027 21007 70000
AAXX 14124 71311 NIL
AAXX 14124 71312 16/// /2105 11050 21066 39615 40078 56013 60001 333 11044 21101 70000
AAXX 14124 71314 NIL
AAXX 14124 71315 16/// /2603 11051 21077 30256 40311 52011 60001 333 10005 21051 4/009 7//// 555 10020
AAXX 14124 71316 16/// /3108 11029 21051 39417 40105 51026 60001 333 11005 21040 70000
AAXX 14124 71317 NIL
AAXX 14124 71318 16/// /3312 11051 21074 39156 40118 51023 60001 333 11074 21139 4/003 70000
AAXX 14124 71319 16/// /0000 11059 21061 39404 40289 53006 60001 333 11007 21063 70000
AAXX 14124 71320 NIL
AAXX 14124 71321 16/// /2007 11048 21088 39878 49921 56011 60001 333 11073 21110 4/005 70000
AAXX 14124 71322 NIL
AAXX 14124 71323 NIL
AAXX 14124 71331 16/// /1401 11088 21105 60001 333 11032 21096 4/014 55/// 20000 70000
AAXX 14124 71332 NIL
AAXX 14124 71334 NIL
AAXX 14124 71335 46964 01923 11117 58034 6///1 333 11103 21151 7////
AAXX 14124 71336 46/// ///24 11033 21096 30200 40223 58001 6///1 333 10007 21036 7////
AAXX 14124 71337 46/// /3104 11108 21122 30011 40258 58001 6///1 333 11058 21119 7////
AAXX 14124 71338 46964 30000 11261 21294 39999 40006 58020 6///1 333 11190 21287 7////
AAXX 14124 71339 16964 02404 11164 21216 30240 40255 51006 60001 333 11124 21166 70005
AAXX 14124 71340 NIL
AAXX 14124 71341 NIL
AAXX 14124 71342 NIL
AAXX 14124 71343 NIL
AAXX 14124 71344 NIL
AAXX 14124 71345 NIL
AAXX 14124 71346 NIL
AAXX 14124 71347 NIL
AAXX 14124 71348 NIL
AAXX 14124 71349 NIL
AAXX 14124 71401 16/// /2002 11042 21064 39532 40232 51008 60001 333 11040 21052 70007
AAXX 14124 71402 NIL
AAXX 14124 71404 NIL
AAXX 14124 71405 NIL
AAXX 14124 71406 NIL
AAXX 14124 71407 NIL
AAXX 14124 71408 NIL
AAXX 14124 71409 NIL
AAXX 14124 71410 15466 82106 11044 21055 39812 40093 56016 60001 333 11042 21051 70000
AAXX 14124 71413 NIL
AAXX 14124 71414 NIL
AAXX 14124 71415 16/// /0320 10015 21028 30257 40260 52025 60001 333 10052 20014 70000
AAXX 14124 71417 NIL
AAXX 14124 71418 NIL
AAXX 14124 71419 46/// /0417 10029 20006 30225 40235 53019 6///1 333 10070 20029 7////
AAXX 14124 71423 NIL
AAXX 14124 71424 46/// /0413 6///1 333 7////
AAXX 14124 71425 16/// /0000 11058 21080 30266 40303 56001 60001 333 11023 21060 70020
AAXX 14124 71426 NIL
AAXX 14124 71427 NIL
AAXX 14124 71428 NIL
AAXX 14124 71429 NIL
AAXX 14124 71434 NIL
AAXX 14124 71436 17820 60301 11016 21017 30037 40277 56005 60001 710// 333 10069 21019 70000
AAXX 14124 71437 NIL
AAXX 14124 71438 NIL
AAXX 14124 71439 NIL
AAXX 14124 71440 NIL
AAXX 14124 71442 16/// /2205 11038 21050 39801 40119 56020 60001 333 11051 21058 70000
AAXX 14124 71445 NIL
AAXX 14124 71446 NIL
AAXX 14124 71448 NIL
AAXX 14124 71449 16/// /1802 11019 21035 39726 40132 56022 60001 333 10005 21019 70000
AAXX 14124 71726 16/// /1301 11078 21084 39737 40294 58001 60001 333 11005 21079 4/012 70000
AAXX 14124 71727 11674 82503 11040 21070 30105 40308 52004 69901 70282 885// 333 10010 21045 47021 79999 90927
AAXX 14124 71728 11582 81102 11052 21087 30075 40303 58001 69901 70272 885// 333 10012 21055 42997 79999 90930
AAXX 14124 71730 11104 91204 11001 21001 39828 40260 56009 60001 74544 333 10020 21003 79999
AAXX 14124 71731 11032 81306 10005 20002 39805 40264 58010 60001 70242 887// 333 10023 21001 70010
AAXX 14124 71735 NIL
AAXX 14124 71738 13674 80000 11028 21036 39874 40235 56017 60002 86507 333 11010 21043 44010 70000 555 10000 20000
AAXX 14124 71739 41124 80000 11024 21030 39887 40259 55005 6//// 70274 88700 333 11029 21045 4//// 7//// 90943
AAXX 14124 71749 16258 82902 11025 21034 39939 40189 58032 60001 333 11029 21033 70000
AAXX 14124 71799 12580 72704 10002 21006 30186 40210 50005 60001 86570 333 10048 21013 55004 70000
AAXX 14124 71800 16/// /0325 11028 21059 30176 40209 55004 60001 333 10032 21035 70014
AAXX 14124 71801 11574 70216 11055 21104 30059 40237 56007 69901 72272 87530 333 10007 21059 41997 70016 90922
AAXX 14124 71803 12480 22906 11107 21140 30071 40265 53002 60001 81541 333 11038 21125 48002 79999
AAXX 14124 71807 NIL
AAXX 14124 71808 12974 23302 11158 21193 30224 40273 54000 60001 80001 333 11118 21175 70000
AAXX 14124 71809 12574 10000 11192 21239 30263 40292 52006 60001 81500 333 11028 21195 47012 79999
AAXX 14124 71810 16/// /0803 11140 21158 30227 40296 56003 60001 333 11059 21156 70000
AAXX 14124 71811 NIL
AAXX 14124 71813 NIL
AAXX 14124 71814 16/// /3406 11174 21194 30282 40292 53003 60001 333 11090 21177 70000
AAXX 14124 71815 12574 10506 11120 21144 30254 40286 53013 60001 81500 333 10002 21123 44008 70006
AAXX 14124 71603 12574 80509 10008 21008 30204 40258 53013 60001 83501 333 10091 21019 70000
AAXX 14124 71607 16/// /0206 10003 21036 30259 40292 53015 60001 333 10063 21004 70000
AAXX 14124 71609 12474 60309 11007 21049 30148 40285 51019 60001 86500 333 10048 21008 70000
AAXX 14124 71610 17112 80501 11014 21015 39993 40296 52010 60001 710// 333 10008 21015 70000
AAXX 14124 71621 NIL
AAXX 14124 71623 NIL
AAXX 14124 71624 12669 71803 10028 21004 30056 40271 55003 60001 86570 333 10086 20016 55007 70000
AAXX 14124 71625 16464 81103 10013 21019 30124 40288 55000 60001 333 10031 20005 70015
AAXX 14124 71627 11358 80506 10010 21018 30252 40298 52007 60001 71022 887// 333 10015 20006 70002
AAXX 14124 71628 11/12 90704 10010 20010 30151 40294 53007 60001 71042 333 10031 20009 70008
AAXX 14124 71630 NIL
AAXX 14124 71631 NIL
AAXX 14124 71633 12866 71307 10002 21018 39983 40259 55007 60001 82077 333 10060 21011 55000 70000
AAXX 14124 71705 11574 80409 11008 21062 30199 40289 51018 69941 70282 885// 333 10050 21010 42001 70006 90925
AAXX 14124 71706 11574 80412 11005 21053 30222 40284 52022 69901 70287 885// 333 10030 21006 70004 90937
AAXX 14124 71707 11566 80411 10003 21028 30173 40251 53017 60011 78565 885// 333 10036 21003 41997 70012 90936
AAXX 14124 71709 13580 61014 11014 21076 30273 40287 53017 60002 86500 333 10044 21019 41997 79999 90999 555 19999 29999
AAXX 14124 71711 NIL
AAXX 14124 71714 16/// /3002 11033 21046 30230 40325 53010 60001 333 10011 21047 4/005 70000
AAXX 14124 71715 16/// /0000 11035 21053 30116 40303 51003 60001 333 10002 21037 4/003 70000
AAXX 14124 71718 11583 71403 11047 21052 30238 40305 50000 69901 77177 88500 333 10012 21053 47013 70018 90983
AAXX 14124 71719 NIL
AAXX 14124 71263 12674 81703 10025 20008 39979 40273 58007 60001 885// 333 10026 20009 70000
AAXX 14124 71604 NIL
AAXX 14124 71605 16/// /1701 10024 21014 30052 40204 58001 60001 333 10041 20012 70000
AAXX 14124 71611 NIL
AAXX 14124 71612 16/// /0603 10004 21006 30208 40300 51007 60001 333 10016 20004 70000
AAXX 14124 71614 NIL
AAXX 14124 71616 16/// /0303 11002 21010 30187 40310 53011 60001 333 10009 21003 70010
AAXX 14124 71617 16/// /2401 11046 21067 30139 40312 53003 60001 333 10009 21049 70009
AAXX 14124 71618 15966 03420 11161 21202 30069 40107 52021 60001 333 11031 21161 70000
AAXX 14124 71619 16/// /3604 11041 21075 30242 40302 53010 60001 333 10005 21043 70000
AAXX 14124 71622 NIL
AAXX 14124 71632 46/// /0202 11092 21103 39629 40073 56007 6///1 333 11043 21107 4/011 7////
AAXX 14124 71634 16/// /0000 11040 21044 30152 40310 51013 60001 333 21042 4/011 7////
AAXX 14124 71638 16/// /3202 10012 21013 30093 40200 50000 60001 333 10037 21010 70000
AAXX 14124 71639 12869 10202 11008 21039 30028 40274 55006 60001 81071 333 10071 21008 70000
AAXX 14124 71642 13574 80000 11052 21053 39692 40249 56014 60001 885// 333 11015 21068 43018 79999
AAXX 14124 71102 NIL
AAXX 14124 71105 NIL
AAXX 14124 71107 NIL
AAXX 14124 71110 NIL
AAXX 14124 71111 17140 62509 10005 20001 30165 40173 56007 60001 710// 333 21010 555 33019 40121
AAXX 14124 71112 16/// ///// 60001 333 70000
AAXX 14124 71113 16/// /0000 10003 21010 30187 40211 50005 60001 333 10031 20002 70002
AAXX 14124 71115 16/// /2901 11024 21052 39629 40222 53010 60001 333 11006 21036 70003
AAXX 14124 71116 17/// /3117 11066 21074 38998 40110 51008 60011 7//4/ 333 11058 21148 4/003 70012
AAXX 14124 71118 16/// /3113 11047 21068 39274 40108 51023 60001 333 11033 21096 70000
AAXX 14124 71121 16664 33109 11041 21099 39302 40132 53030 60001 333 11005 21049 70000
AAXX 14124 71127 16/// /3211 11032 21064 39216 40136 51029 60001 333 10004 21051 4/009 70000
AAXX 14124 71130 15466 81906 11049 21062 39618 40080 56013 60001 333 11042 21092 70000
AAXX 14124 71132 15566 80705 11110 21134 39805 40124 53018 60001 333 11013 21124 70000
AAXX 14124 71133 NIL
AAXX 14124 71139 NIL
AAXX 14124 71141 NIL
AAXX 14124 71142 15966 82411 11073 21088 39105 40085 53002 60001 333 11060 21080 70000
AAXX 14124 71143 NIL
AAXX 14124 71144 NIL
AAXX 14124 71147 NIL
AAXX 14124 71149 16/// /2405 11052 21071 60001 333 11041 21059 70000
AAXX 14124 71930 NIL
AAXX 14124 71931 16/// /3310 11082 21120 30223 40235 58004 60001 333 10000 21096 70000
AAXX 14124 71934 11474 83305 11150 21173 39907 40171 52024 69901 77177 885// 333 11016 21154 47020 79999 90983
AAXX 14124 71935 11574 43506 11165 21213 39990 40205 52024 69901 70171 81508 333 10015 21166 44023 79999 90923
AAXX 14124 71936 12974 03605 11281 21328 39935 40211 52021 60001 333 11019 21281 48023 79999
AAXX 14124 71937 NIL
AAXX 14124 71938 12974 42615 11261 21289 30158 40189 51010 60001 82048 333 11192 21287 44023 79999
AAXX 14124 71940 12982 00000 11149 21158 39359 40185 51023 60001 333 11004 21156 47011 70056
AAXX 14124 71943 11574 12406 11111 21135 39323 40177 52021 60001 70144 81500 333 11016 21111 48010 70036
AAXX 14124 71944 160// ///// 11099 51019 60001 333 11032 21118 70000
AAXX 14124 71945 12874 80000 11120 21158 39699 40184 52020 60001 8807/ 333 11077 21150 47011 70000
AAXX 14124 71946 11669 83204 11168 21193 39983 40204 51012 69901 77172 8851/ 333 10018 21170 48034 70002 90921
AAXX 14124 71948 46250 82716 11276 30085 40205 55000 6///1 333 11249 21289 7////
AAXX 14124 71949 NIL
AAXX 14124 71951 11148 73608 11029 21038 39933 40204 51003 69901 71072 88500 333 11005 21030 47040 70112 90941
AAXX 14124 71957 46964 30808 11273 21346 30118 40212 58005 6///1 333 11190 21310 7////
AAXX 14124 71958 43/// /0000 11178 21184 39227 40197 51008 6///1 333 11086 7////
AAXX 14124 71964 12886 30000 11158 21188 39284 40163 52004 60001 80001 333 11033 21191 47020 79999
AAXX 14124 71966 16/// /2201 11237 21264 39680 40159 53004 60001 333 11111 21245 4/028 70000
AAXX 14124 71968 46064 /1205 11311 30121 40189 58007 6///1 333 11202 21325 7////
AAXX 14124 71114 16764 80000 11006 21024 30168 40217 51007 60001 333 10025 21011 70000
AAXX 14124 71120 NIL
AAXX 14124 71122 16/// /2505 11077 21113 38538 40170 51015 60001 333 11064 21085 4/010 70000
AAXX 14124 71123 12574 23210 11043 21068 39263 40138 51023 60001 82501 333 11014 21081 44004 70000
AAXX 14124 71125 13574 82612 11039 21077 39470 40058 55006 60002 885// 333 48001 70000
AAXX 14124 71129 11674 62703 11092 21107 39258 40104 52013 69901 77122 84501 333 11038 21123 42997 79999 90910
AAXX 14124 71131 16/// /2907 11104 21111 38810 40082 53002 60001 333 11070 21111 70000
AAXX 14124 71135 16/// /2303 11068 21083 38988 40085 56015 60001 333 11059 21072 4/004 70000
AAXX 14124 71137 NIL
AAXX 14124 71140 11362 82509 11044 21044 39608 40116 5/018 69901 75672 887// 333 11042 21051 41997 79999 90917
AAXX 14124 71145 11474 82106 11061 21073 39814 40111 57016 69901 77177 885// 333 11061 21068 48031 70002 90983
AAXX 14124 71148 16/// /1905 11036 21039 39532 40117 58021 60001 333 11031 21038 4/002 70000 555 10030
AAXX 14124 71182 16964 02302 11229 21275 39699 40277 56016 60001 333 11165 21275 70000
AAXX 14124 71185 16464 60000 11106 30252 40277 55000 60001 333 11057 21152 70000
AAXX 14124 71188 11574 72703 11092 21103 30264 40308 52008 69901 70371 87500 333 11020 21103 47020 55000 70048 90963
AAXX 14124 71200 16/// /0301 10040 20005 60001 333 10056 20031 70000
AAXX 14124 71207 16/// /3502 11007 21009 30143 40208 50003 60001 333 10014 21013 70000
AAXX 14124 71260 NIL
AAXX 14124 71043 11674 71107 11201 21235 30115 40212 50006 69901 77177 83570 333 11102 21208 48021 70005 90983
AAXX 14124 71045 16/// /2901 11175 21193 39300 40189 51010 60001 333 11037 21201 4/021 70006
AAXX 14124 71050 46/// /2001 11057 21074 39100 40192 50003 6///1 333 11005 21063 7////
AAXX 14124 71051 NIL
AAXX 14124 71052 NIL
AAXX 14124 71066 NIL
AAXX 14124 71068 12974 72906 11048 21078 39450 40151 52021 60001 87070 333 11003 21064 47006 70043
AAXX 14124 71069 16964 02916 11038 21057 39423 40133 51021 60001 333 11007 21038 70010
AAXX 14124 71076 16/// /3506 11118 21142 39734 40134 51018 60001 333 11013 21118 4/031 55/// 20000 70000
AAXX 14124 71077 17/// /0105 11049 21057 39538 40081 51010 60031 7//4/ 333 11032 21057 4/009 55/// 20000 70025 555 10010
AAXX 14124 71079 12469 88500 11045 21059 39800 40081 57008 60001 885// 333 11035 21045 48003 79999
AAXX 14124 71081 47548 81126 11132 21148 39833 49845 57014 6///1 745// 333 11132 21151 7////
AAXX 14124 71082 NIL
AAXX 14124 71083 11916 03020 11262 21300 39982 40025 52028 69901 73873 333 11044 21262 48052 70020 90923
AAXX 14124 71090 46006 81506 11228 21259 39990 40026 58009 6///1 333 11177 21302 7////
AAXX 14124 71091 460// /0929 11194 39696 49907 57013 6///1 333 7////
AAXX 14124 71092 47904 01030 11246 39266 49947 56020 6///1 745// 333 11239 21288 7////
AAXX 14124 71093 460// /1015 11244 39482 49990 56017 6///1 333 11219 21250 7////
AAXX 14124 71094 46059 /2122 11219 39057 49971 56012 6///1 333 11172 21242 7////
AAXX 14124 71095 46964 01703 11246 21299 39907 49989 56010 6///1 333 11236 21294 7////
AAXX 14124 71101 160// /2607 30165 55008 60001 333 70000
AAXX 14124 71104 11774 71303 11056 21067 39070 40198 50006 69901 72282 87500 333 11016 21056 44014 70002 90917
AAXX 14124 71108 12674 83402 10014 21015 30141 40215 50005 60001 885// 333 10034 20006 70000
AAXX 14124 71109 11366 81110 10039 20024 30143 40170 58003 60021 76162 885// 333 10053 20036 70058 90926
AAXX 14124 71500 NIL
AAXX 14124 71501 NIL
AAXX 14124 71502 NIL
AAXX 14124 71503 NIL
AAXX 14124 71504 NIL
AAXX 14124 71505 46/// /3202 11198 21225 39407 40160 50000 6///1 333 11025 21234 7////
AAXX 14124 71506 NIL
AAXX 14124 71507 16/// /3101 11133 21146 60001 333 11025 21168 7////
AAXX 14124 71508 16/// ///// 10038 20016 30135 40275 56010 60001 333 10072 20037 70000
AAXX 14124 71509 NIL
AAXX 14124 71511 16/// /2506 11051 21062 39446 40090 55007 60001 333 11050 21060 55/// 20000 70000
AAXX 14124 71512 NIL
AAXX 14124 71513 15966 00306 11182 21212 30284 40300 51004 60001 333 11099 21182 70000
AAXX 14124 71514 NIL
AAXX 14124 71515 16/// /2207 11058 21062 39383 40091 56017 60001 333 11059 21064 55/// 20000 70000
AAXX 14124 71516 16/// /2204 11053 21061 60001 333 11049 21063 70000
AAXX 14124 71517 NIL
AAXX 14124 71518 NIL
AAXX 14124 71519 NIL
AAXX 14124 71520 NIL
AAXX 14124 71521 NIL
AAXX 14124 71522 NIL
AAXX 14124 71523 NIL
AAXX 14124 71524 16/// /0403 11001 21006 30280 40307 50005 60001 333 10002 21005 70010
AAXX 14124 71525 NIL
AAXX 14124 71526 NIL
AAXX 14124 71527 17258 81807 11003 21007 39634 40145 5/025 60001 710// 333 11021 70000
AAXX 14124 71528 NIL
AAXX 14124 71529 46/// /26// 11281 21321 39953 40193 53022 6///1 333 11006 21292 4/014 7////
AAXX 14124 71532 17816 61103 11002 21002 39917 40268 56008 60001 710// 333 10047 21005 70046
AAXX 14124 71534 16948 02203 11022 21031 39994 40272 55004 60001 333 10085 21038 70000
AAXX 14124 71535 NIL
AAXX 14124 71536 NIL
AAXX 14124 71537 NIL
AAXX 14124 71539 NIL
AAXX 14124 71540 NIL
AAXX 14124 71541 NIL
AAXX 14124 71542 17/// /0906 11079 21088 60011 7//4/ 333 10005 21092 70012
AAXX 14124 71543 NIL
AAXX 14124 71544 NIL
AAXX 14124 71545 16/// ///// 11032 21058 60001 333 11006 21049 70006
AAXX 14124 71546 NIL
AAXX 14124 71547 NIL
AAXX 14124 71548 NIL
AAXX 14124 71549 NIL
AAXX 14124 71703 12574 70304 11062 21076 30002 40308 51008 60003 83572 333 10002 21062 43010 70000 555 10000 20000
AAXX 14124 71397 11574 80312 10011 21026 30242 40277 51023 69901 70282 885// 333 10069 20008 70000 90960
AAXX 14124 71400 16/64 /2501 11193 21207 60001 333 11029 21194 70000
AAXX 14124 71403 46/// /0122 10023 20023 30217 40237 51025 6///1 333 10069 20023 7////
AAXX 14124 71411 16/// /0109 10024 21007 30238 40251 51023 60001 333 10096 20005 70000
AAXX 14124 71412 16/// /0519 10006 21045 30255 40265 53022 60001 333 10048 20005 70000
AAXX 14124 71421 NIL
AAXX 14124 71430 16/// /1004 10019 20017 30178 40276 58003 60001 333 10063 20017 70000
AAXX 14124 71431 16/// /0602 10000 21004 30170 40268 55004 60001 333 10059 20000 70000
AAXX 14124 71432 NIL
AAXX 14124 71433 NIL
AAXX 14124 71435 NIL
AAXX 14124 71441 46/// /1607 11026 21037 39804 40116 58028 6///1 333 11028 21041 7////
AAXX 14124 71443 16/// /2209 11054 21066 39677 40093 56019 60001 333 11038 21054 4/006 70000
AAXX 14124 71444 16/// /2303 11074 21080 39336 40103 58015 60001 333 11069 21078 4/009 70000
AAXX 14124 71447 16/// /2606 11052 21058 39562 40113 56017 60001 333 11042 21052 70000
AAXX 14124 71467 NIL
AAXX 14124 71472 NIL
AAXX 14124 71474 17464 82003 11062 21090 38945 40209 51012 60001 745// 333 11048 21070 70000
AAXX 14124 71510 NIL
AAXX 14124 71538 11112 80000 10027 20020 30020 40254 58006 60011 76152 887// 333 10057 20022 70010 90921
AAXX 14124 71600 16564 80417 10057 20016 30192 40198 53017 60001 333 10089 20046 70000
AAXX 14124 71601 NIL
AAXX 14124 71450 NIL
AAXX 14124 71451 16/// /2401 11101 21113 39643 40075 56008 60001 333 11036 21124 4/014 70000
AAXX 14124 71452 46/// /2105 11056 21065 39379 40098 58013 6///1 333 11054 21065 7////
AAXX 14124 71453 16/// /2807 11087 21114 39184 40117 51026 60001 333 11035 21124 4/002 55/// 20000 70000
AAXX 14124 71454 NIL
AAXX 14124 71455 NIL
AAXX 14124 71456 NIL
AAXX 14124 71457 16/// /3306 11062 21075 39216 40130 53031 60001 333 11150 21199 4/015 70000
AAXX 14124 71458 16/// /3113 11019 21050 39339 40114 53024 60001 333 11028 21052 4/006 70000 555 10010
AAXX 14124 71459 16/// /2602 11110 21125 39282 40111 51015 60001 333 11068 21158 70000
AAXX 14124 71460 16/// /0807 10020 20019 30015 40260 56009 60001 333 10044 20018 70000
AAXX 14124 71461 NIL
AAXX 14124 71462 NIL
AAXX 14124 71463 NIL
AAXX 14124 71464 NIL
AAXX 14124 71465 NIL
AAXX 14124 71466 NIL
AAXX 14124 71468 NIL
AAXX 14124 71470 NIL
AAXX 14124 71471 15966 02503 11114 21130 39369 40177 51020 60001 333 11006 21131 70000
AAXX 14124 71473 16/// /1502 10026 21003 30178 40208 51008 60001 333 10030 20013 70000
AAXX 14124 71475 NIL
AAXX 14124 71476 NIL
AAXX 14124 71477 46/// /0705 10023 20014 6///1 333 10048 21006 7////
AAXX 14124 71478 NIL
AAXX 14124 71479 NIL
AAXX 14124 71480 NIL
AAXX 14124 71481 NIL
AAXX 14124 71482 NIL
AAXX 14124 71483 NIL
AAXX 14124 71484 NIL
AAXX 14124 71485 17/// /1324 10044 20035 30144 40164 58008 69981 7//4/ 333 10052 20042 70038
AAXX 14124 71486 16/// /1904 11074 21096 38951 40168 51022 60001 333 11005 21077 4/017 70000
AAXX 14124 71487 NIL
AAXX 14124 71489 16/// /2707 11073 21095 39280 40093 53002 60001 333 11046 21081 70000
AAXX 14124 71490 NIL
AAXX 14124 71491 16/// /0401 11286 21322 60001 333 10092 21374 70006
AAXX 14124 71492 NIL
AAXX 14124 71493 16/// /3606 10000 21034 30233 40272 51021 60001 333 10071 21001 70000
AAXX 14124 71494 16/// /0501 11021 21023 39760 40292 53009 60001 333 11004 21021 4/004 70000
AAXX 14124 71495 NIL
AAXX 14124 71496 16/// /2206 11059 21070 39462 40079 58008 60001 333 11018 21068 55/// 20000 70000
AAXX 14124 71497 46/// /0806 11112 21140 39919 40190 51015 6///1 333 10043 21112 7////
AAXX 14124 71498 NIL
AAXX 14124 71499 17528 80206 11082 21093 39449 40085 53005 60001 771// 333 11046 21089 70000
AAXX 14124 71700 15666 80106 11009 21034 30271 40297 51015 60001 333 10046 21009 70000
AAXX 14124 71701 12574 80202 11011 21040 30234 40298 52017 60001 885// 333 10037 21011 70000
AAXX 14124 71702 16/// /0412 11004 21063 30264 40279 51019 60001 333 10038 21006 4/001 70000
AAXX 14124 71703 12574 70304 11062 21076 30002 40308 51008 60003 83572 333 10002 21062 43010 70000 555 10000 20000
AAXX 14124 71704 17658 81708 10031 20010 30025 40249 58012 60001 704// 333 10054 20018 70000
AAXX 14124 71710 16/// /0309 11018 21077 30273 40283 53018 60001 333 10042 21020 70000
AAXX 14124 71712 16/// /0602 10008 20004 30232 40294 51008 60001 333 10034 20007 70000
AAXX 14124 71713 NIL
AAXX 14124 71716 NIL
AAXX 14124 71717 NIL
AAXX 14124 71720 16/// /0702 11002 21007 30052 40207 58004 60001 333 10032 21012 70000
AAXX 14124 71721 16/// /3201 11006 21011 30042 40293 53007 60001 333 10015 21006 70020
AAXX 14124 71723 16/// /0503 10000 21014 30291 40301 53007 60001 333 10006 21001 70014
AAXX 14124 71724 16/// /0103 10001 21011 30294 40302 53009 60001 333 10008 20001 70012
AAXX 14124 71732 NIL
AAXX 14124 71733 16/// /1005 11001 21001 39820 40253 58012 60001 333 10018 21003 4/001 70000
AAXX 14124 71734 16/// /1603 11024 21029 39866 40267 56015 60001 333 11008 21058 70000
AAXX 14124 71736 NIL
AAXX 14124 71737 NIL
AAXX 14124 71741 16/// /1105 11032 21065 39794 40226 51013 60001 333 11014 21056 70000
AAXX 14124 71742 NIL
AAXX 14124 71743 NIL
AAXX 14124 71744 NIL
AAXX 14124 71745 NIL
AAXX 14124 71746 NIL
AAXX 14124 71747 NIL
AAXX 14124 71748 NIL
AAXX 14124 71397 11574 80312 10011 21026 30242 40277 51023 69901 70282 885// 333 10069 20008 79999 90960
AAXX 14124 71250 NIL
AAXX 14124 71251 16/// /3212 11030 21065 39201 40147 53033 60001 333 11105 21167 70000
AAXX 14124 71252 NIL
AAXX 14124 71253 46/// /0605 11116 21136 6///1 333 11038 21116 4/017 7//// 555 10010
AAXX 14124 71254 16/// /3212 11051 21059 60001 333 11028 21059 4/003 70000
AAXX 14124 71255 17/// /0109 11082 21098 60011 7//4/ 333 11024 21082 4/018 70016 555 10010
AAXX 14124 71256 46/// /2810 11045 21064 39206 40154 51025 6///1 333 11022 21064 7////
AAXX 14124 71257 NIL
AAXX 14124 71258 NIL
AAXX 14124 71259 NIL
AAXX 14124 71261 16/// /1406 10024 21008 39986 40250 56009 60001 333 10045 20011 70000
AAXX 14124 71263 12674 81703 10024 20008 39979 40273 58007 60001 885// 333 10026 20009 70000
AAXX 14124 71264 16/// /0112 10011 21019 30219 40251 51025 60001 333 10093 20002 70000
AAXX 14124 71265 17956 01101 10021 20012 30178 40273 56008 60001 710// 333 10057 20018 70000
AAXX 14124 71266 NIL
AAXX 14124 71267 15966 83406 11004 21056 39049 40160 51044 60001 333 11009 21067 70000
AAXX 14124 71268 NIL
AAXX 14124 71269 NIL
AAXX 14124 71270 NIL
AAXX 14124 71271 16/// ///// 11038 21067 60001 333 10001 21038 70000
AAXX 14124 71272 15566 80109 11161 21190 39755 40114 53015 60001 333 11036 21161 70000
AAXX 14124 71273 16/// /2706 11038 21068 39395 40058 51007 60001 333 11046 21061 55/// 20000 70000
AAXX 14124 71274 NIL
AAXX 14124 71275 NIL
AAXX 14124 71276 NIL
AAXX 14124 71277 NIL
AAXX 14124 71278 NIL
AAXX 14124 71279 16/// /0103 11178 21201 30240 40310 51001 60001 333 11075 21178 70000
AAXX 14124 71281 NIL
AAXX 14124 71282 46/// /1203 10002 20002 39999 40274 55004 6///1 333 10050 20002 7////
AAXX 14124 71283 NIL
AAXX 14124 71284 16/// ///// 11054 21072 60001 333 11001 21058 70000
AAXX 14124 71285 NIL
AAXX 14124 71286 NIL
AAXX 14124 71287 NIL
AAXX 14124 71288 NIL
AAXX 14124 71289 NIL
AAXX 14124 71290 17120 81502 11090 21099 39364 40217 51019 60001 710// 333 11034 21123 70000
AAXX 14124 71291 NIL
AAXX 14124 71292 16264 82007 11062 39483 40098 57018 60001 333 11051 21065 70000
AAXX 14124 71294 16/// /2101 10001 39867 40276 56002 60001 333 10036 20001 70000
AAXX 14124 71295 NIL
AAXX 14124 71296 NIL
AAXX 14124 71297 16/// /3001 10023 20009 60001 333 10088 20018 70000
AAXX 14124 71298 17/// /1708 10033 20031 30017 40252 56009 60011 7//4/ 333 10042 20021 4/001 70010
AAXX 14124 71299 NIL
AAXX 14124 71744 NIL
AAXX 14124 71750 16/// /0603 11033 21041 39966 40205 58026 60001 333 11036 21068 4/005 70000
AAXX 14124 71751 NIL
AAXX 14124 71752 NIL
AAXX 14124 71753 16/// /0112 10005 21026 30220 40250 51025 60001 333 10069 20005 4/001 70000 555 10010
AAXX 14124 71754 16/// /2706 11061 21098 39412 40084 56007 60001 333 11031 21096 55/// 20000 70000
AAXX 14124 71755 43/// /2207 11032 21042 39773 40121 56018 6///1 333 11039 21067 7////
AAXX 14124 71756 16/// /1301 11022 21054 39086 40189 53003 60001 333 11006 21026 4/046 70000
AAXX 14124 71758 NIL
AAXX 14124 71760 NIL
AAXX 14124 71761 NIL
AAXX 14124 71762 NIL
AAXX 14124 71763 NIL
AAXX 14124 71765 16/// /1401 11051 21071 39939 40220 51013 60001 333 11002 21056 70000
AAXX 14124 71766 16/// /2101 11013 21018 30125 40198 58005 60001 333 10035 21018 70000
AAXX 14124 71767 16/// /1403 10006 20002 39991 40256 56008 60001 333 10056 20001 4/001 70000
AAXX 14124 71768 46/// /1804 11033 21072 39676 40236 51005 6///1 333 11022 21055 7////
AAXX 14124 71769 17/// /1206 10036 20013 30176 40192 58004 69921 7//4/ 333 10041 20030 70004
AAXX 14124 71770 NIL
AAXX 14124 71771 NIL
AAXX 14124 71772 16/// /1604 10037 20017 30190 40196 50000 60001 333 10043 20033 70000
AAXX 14124 71773 16/// /1904 11112 21119 39279 40155 50004 60001 333 11019 21178 4/022 70000
AAXX 14124 71774 46/// ///// 10012 6///1 333 10024 20002 7////
AAXX 14124 71775 46/// /2201 10003 21003 30210 40216 50005 6///1 333 10027 21008 7////
AAXX 14124 71776 46/// /2809 11018 21057 39569 40222 50010 6///1 333 11016 21022 7////
AAXX 14124 71777 16/// ///// 11039 21043 39962 40220 53004 60001 333 11032 21043 4/009 70000 555 10040
AAXX 14124 71778 46/// /0104 6///1 333 7////
AAXX 14124 71779 16/// /0000 11087 21094 39536 40210 51013 60001 333 10007 21115 4/007 70000
AAXX 14124 71780 16/// /0802 10045 20009 30184 40212 50006 60001 333 10065 20038 70000
AAXX 14124 71781 46/// /1410 10040 20013 30168 40193 58005 6///1 333 10040 20033 7////
AAXX 14124 71782 NIL
AAXX 14124 71783 16/// /3502 10028 20012 30132 40206 51006 60001 333 10049 20002 70000
AAXX 14124 71784 16/// /0000 10016 21054 39996 40203 52002 60001 333 10032 20001 70000
AAXX 14124 71785 NIL
AAXX 14124 71786 46/// /2520 11116 21130 38330 40207 51012 6///1 333 11111 21122 7////
AAXX 14124 71787 16/// /0309 11034 21069 39777 40277 52015 60001 333 10043 21034 4/001 70000
AAXX 14124 71788 NIL
AAXX 14124 71789 NIL
AAXX 14124 71791 NIL
AAXX 14124 71792 NIL
AAXX 14124 71793 NIL
AAXX 14124 71794 NIL
AAXX 14124 71795 NIL
AAXX 14124 71796 NIL
AAXX 14124 71797 NIL
AAXX 14124 71950 15366 81704 11060 21064 39566 40210 50005 60001 333 11026 21070 70063
AAXX 14124 71952 16/// /3101 11096 21104 39336 40211 51008 60001 333 11020 21191 4/036 70085 555 10120
AAXX 14124 71954 46/// /2001 11072 21080 39698 40077 57015 6///1 333 11039 21076 7////
AAXX 14124 71956 NIL
AAXX 14124 71959 NIL
AAXX 14124 71960 460// /2010 11301 30093 40234 50004 6///1 333 11254 21318 7////
AAXX 14124 71962 16/// /1706 10007 21003 39723 40148 56024 60001 333 10002 21027 4/006 70000
AAXX 14124 71963 NIL
AAXX 14124 71967 16/// /0501 11005 21005 30203 40311 53010 60001 333 10003 21005 70008
AAXX 14124 71970 NIL
AAXX 14124 71971 NIL
AAXX 14124 71972 460// /2024 11088 39526 49990 56017 6///1 333 11075 21130 7////
AAXX 14124 71973 46/// /1002 11151 21166 30089 40285 53008 6///1 333 11025 21158 7////
AAXX 14124 71974 NIL
AAXX 14124 71975 460// /0828 11177 39247 49986 56025 6///1 333 11198 21220 7////
AAXX 14124 71976 NIL
AAXX 14124 71977 NIL
AAXX 14124 71978 NIL
AAXX 14124 71979 NIL
AAXX 14124 71980 NIL
AAXX 14124 71981 NIL
AAXX 14124 71982 NIL
AAXX 14124 71983 NIL
AAXX 14124 71984 16/// /2114 11288 21317 30210 40219 51003 60001 333 11236 21290 70000
AAXX 14124 71985 NIL
AAXX 14124 71986 NIL
AAXX 14124 71987 16/// /0111 11005 21049 30277 40287 52015 60001 333 10027 21007 70000
AAXX 14124 71988 17/// /0518 10031 20012 30252 40272 51016 60021 7//4/ 333 10092 20020 70023
AAXX 14124 71989 NIL
AAXX 14124 71990 NIL
AAXX 14124 71999 46/// ///// 11063 6///1 333 11010 21071 7////
AAXX 14124 71001 NIL
AAXX 14124 71002 NIL
AAXX 14124 71003 NIL
AAXX 14124 71005 16/// ///// 11045 21068 60001 333 11039 21073 70000
AAXX 14124 71006 NIL
AAXX 14124 71007 NIL
AAXX 14124 71008 NIL
AAXX 14124 71009 NIL
AAXX 14124 71010 NIL
AAXX 14124 71011 NIL
AAXX 14124 71012 NIL
AAXX 14124 71013 NIL
AAXX 14124 71014 NIL
AAXX 14124 71015 NIL
AAXX 14124 71016 NIL
AAXX 14124 71017 NIL
AAXX 14124 71018 NIL
AAXX 14124 71019 NIL
AAXX 14124 71020 NIL
AAXX 14124 71021 NIL
AAXX 14124 71022 15966 00605 11005 21010 30131 40175 58008 60001 333 10042 21011 70013
AAXX 14124 71023 17364 83214 11035 21048 39291 40063 53009 60011 74544 333 11028 21053 70025
AAXX 14124 71024 17/// /1502 11081 21085 69971 7//4/ 333 11020 21105 4/012 70015 555 10030
AAXX 14124 71026 NIL
AAXX 14124 71027 17/// /0204 11005 21018 30250 40260 52020 60031 7//4/ 333 10057 21006 70025
AAXX 14124 71028 16/// /1701 11021 21037 39152 40197 50003 60001 333 10062 21022 4/009 70000
AAXX 14124 71029 16/// /3012 11219 21241 30089 40130 58004 60001 333 11251 21279 4/029 70003
AAXX 14124 71030 16/64 /0312 10009 21028 30181 40272 51017 60001 333 10057 20009 70000
AAXX 14124 71032 46/// /0000 11100 21111 39375 40230 51011 6///1 333 11031 21119 4/008 7////
AAXX 14124 71033 46/// /0205 11086 21095 39448 40085 53004 6///1 333 11048 21093 4/015 55/// 20000 7//// 555 10010
AAXX 14124 71035 NIL
AAXX 14124 71036 15466 82606 11048 21065 39728 40107 58017 60001 333 11036 21048 70000
AAXX 14124 71039 46/// /1801 11240 6///1 333 11027 21252 7////
AAXX 14124 71040 46/// /2501 11044 21073 30094 40298 53002 6///1 333 10010 21044 7////
AAXX 14124 71041 17448 80409 10000 21007 30099 40243 51021 60001 771// 333 10050 20003 70005
AAXX 14124 71042 16/// /0401 10004 21014 30203 40207 52004 60001 333 10035 21010 70000
AAXX 14124 71044 16/// /2401 11238 21266 39829 40165 58004 60001 333 11144 21289 4/007 70000
AAXX 14124 71046 460// /0922 11265 30160 40178 58002 6///1 333 11210 21275 7////
AAXX 14124 71047 16/// ///// 11034 21056 60001 333 11036 21057 70000
AAXX 14124 71048 NIL
AAXX 14124 71049 NIL
AAXX 14124 71060 NIL
AAXX 14124 71063 NIL
AAXX 14124 71851 16/// /2204 11022 21025 39779 40117 56020 60001 333 11020 21031 70000
AAXX 14124 71857 NIL
AAXX 14124 71860 12774 70308 11033 21067 38737 40153 53028 60001 82570 333 10017 21073 48012 70000 555 10000 20000
AAXX 14124 71876 15566 82607 11054 21079 39415 40086 56008 60001 333 11031 21078 70000
AAXX 14124 71885 NIL
AAXX 14124 71886 NIL
AAXX 14124 71888 NIL
AAXX 14124 71890 16/// /0502 11080 21089 30274 40302 58001 60001 333 21126 4/006 70009
AAXX 14124 71895 NIL
AAXX 14124 71816 12974 72310 11177 21230 30205 40270 57010 60001 80001 333 10128 21178 44047 55058 70000
AAXX 14124 71817 12974 32405 11159 21215 30241 40255 57009 60001 81041 333 42010 70000
AAXX 14124 71818 12474 72413 11127 21142 30216 40235 58010 60001 81507 333 11095 21133 43020 55066 70000
AAXX 14124 71822 11574 71702 11103 21118 39798 40296 58002 69901 70277 87500 333 11039 21200 43028 79999 90943
AAXX 14124 71825 NIL
AAXX 14124 71827 11262 82212 11076 21077 39936 40187 56008 69901 77172 887// 333 11093 21138 47018 70002 90937
AAXX 14124 71828 16964 01807 11161 21201 39549 40215 56023 60001 333 11133 21176 70000
AAXX 14124 71831 12574 71707 11043 21058 39965 40253 55006 60001 87500 333 11033 21056 47016 70000
AAXX 14124 71832 NIL
AAXX 14124 71834 12262 81602 11022 21029 39766 40202 58026 60001 885// 333 11036 21063 48010 79999
AAXX 14124 71841 NIL
AAXX 14124 71842 11259 81604 11011 21016 39676 40152 56026 60001 71022 886// 333 11034 21061 47003 79999
AAXX 14124 71844 17359 82303 11036 21045 39846 40127 56017 60001 745// 333 11041 21081 70000
AAXX 14124 71845 13574 81705 11027 21032 39669 40150 57026 69902 885// 333 11049 21071 44009 70002 555 10004 20002
AAXX 14124 71850 11116 82310 11006 21008 39630 40134 56022 69921 75674 887// 333 11014 21051 43002 70002 90973
AAXX 14124 71852 16361 81909 11025 21036 39823 40120 57022 60001 333 11020 21040 70005
AAXX 14124 71854 11248 81606 11017 21024 39652 40130 56026 69902 771// 887// 333 11040 21068 48009 70002 90999 555 10002 20002
AAXX 14124 71858 NIL
AAXX 14124 71861 NIL
AAXX 14124 71862 11159 82305 11068 21076 39400 40111 58016 69901 77177 886// 333 11050 21071 42002 79999 90983
AAXX 14124 71863 46364 82207 11059 21083 39389 40094 56013 6///1 333 11045 21059 7////
AAXX 14124 71350 16/// /0210 11004 21057 30208 40275 52021 60001 333 10024 21005 70005
AAXX 14124 71351 NIL
AAXX 14124 71352 16/// /1203 10001 21008 39804 40266 56006 60001 333 10054 21006 70000
AAXX 14124 71353 NIL
AAXX 14124 71354 NIL
AAXX 14124 71355 16/// /0000 11349 21386 30026 40116 56001 60001 333 11337 21372 4/011 70000
AAXX 14124 71356 NIL
AAXX 14124 71357 NIL
AAXX 14124 71358 16/// /1505 11226 21249 39989 40025 57009 60001 333 11177 21306 4/019 70000
AAXX 14124 71359 NIL
AAXX 14124 71360 NIL
AAXX 14124 71361 NIL
AAXX 14124 71362 NIL
AAXX 14124 71363 NIL
AAXX 14124 71364 NIL
AAXX 14124 71365 NIL
AAXX 14124 71368 17540 61004 11002 21012 39870 40267 58009 60001 710// 333 10075 21005 70000
AAXX 14124 71369 15966 62817 11034 21062 39422 40133 51020 60001 333 11003 21036 70000
AAXX 14124 71370 46/// /0403 11005 21010 30157 40296 53006 6///1 333 10010 21005 7////
AAXX 14124 71371 17120 80504 10001 20000 30261 40296 50006 60001 710// 333 10017 20000 70003
AAXX 14124 71372 NIL
AAXX 14124 71373 NIL
AAXX 14124 71374 NIL
AAXX 14124 71375 NIL
AAXX 14124 71376 NIL
AAXX 14124 71377 16/// /0103 10008 20000 30245 40294 53007 60001 333 10014 20001 70000
AAXX 14124 71378 16/// /1401 11029 21054 30087 40301 50000 60001 333 10028 21031 4/002 70000
AAXX 14124 71379 16/// /0202 11069 21088 30113 40289 55000 60001 333 11003 21070 70000
AAXX 14124 71380 NIL
AAXX 14124 71381 NIL
AAXX 14124 71382 NIL
AAXX 14124 71383 NIL
AAXX 14124 71384 NIL
AAXX 14124 71385 NIL
AAXX 14124 71386 16/// /1702 11095 21111 30089 40302 51004 60001 333 11005 21098 70010
AAXX 14124 71387 NIL
AAXX 14124 71388 NIL
AAXX 14124 71389 NIL
AAXX 14124 71390 46/// /2704 11126 6///1 333 11058 21126 7////
AAXX 14124 71391 16/// ///// 10005 20002 60001 333 10013 20002 70013
AAXX 14124 71392 NIL
AAXX 14124 71393 NIL
AAXX 14124 71395 11474 83613 11004 21031 30074 40256 52026 69901 78582 885// 333 10056 21007 79999 90926
AAXX 14124 71398 15366 82212 11043 21051 30217 40229 56009 60001 333 11059 21089 70000
AAXX 14124 71399 NIL
AAXX 14124 71150 46/// /0000 11071 21078 39414 40103 58015 6///1 333 11061 21073 7////
AAXX 14124 71151 NIL
AAXX 14124 71152 NIL
AAXX 14124 71153 NIL
AAXX 14124 71154 16/// /2321 11021 21083 60001 333 11022 21040 70008
AAXX 14124 71155 NIL
AAXX 14124 71156 NIL
AAXX 14124 71157 46/// ///// 11034 21049 6///1 333 10003 21048 7////
AAXX 14124 71158 NIL
AAXX 14124 71159 NIL
AAXX 14124 71160 NIL
AAXX 14124 71161 16/// /0502 10013 20008 30132 40283 53005 60001 333 10036 20006 70000
AAXX 14124 71162 NIL
AAXX 14124 71163 46/// /0000 11322 21355 39855 40218 52021 6///1 333 11021 21322 7////
AAXX 14124 71164 NIL
AAXX 14124 71165 NIL
AAXX 14124 71166 NIL
AAXX 14124 71167 15966 02803 11053 21092 39050 40162 51024 60001 333 11005 21074 70000
AAXX 14124 71168 16/// /1304 10019 20019 39524 40107 56031 60001 333 10022 20009 70000
AAXX 14124 71170 16/// /2506 11038 21049 60001 333 11040 21063 70000
AAXX 14124 71171 16/// /1301 10030 20006 30165 40263 55008 60001 333 10081 20027 70000
AAXX 14124 71172 NIL
AAXX 14124 71175 16/// /0407 10006 21006 30211 40246 53022 60001 333 20006 7////
AAXX 14124 71176 460// /2232 11129 39337 40028 56019 6///1 333 11117 21150 7////
AAXX 14124 71177 460// /2132 11129 39096 40125 58011 6///1 333 11111 21180 7////
AAXX 14124 71178 16/// /0122 11041 21106 30213 40246 55003 60001 333 11006 21051 55/// 20000 70000
AAXX 14124 71179 460// /2508 11136 39337 40193 56007 6///1 333 11157 21192 7////
AAXX 14124 71180 16/// /0210 11082 21127 30244 40284 51022 60001 333 10040 21092 70006
AAXX 14124 71181 16964 00511 11068 21141 30189 40226 51007 60001 333 10050 21076 70000
AAXX 14124 71183 16/// /0404 30253 53007 60001 333 70000
AAXX 14124 71184 46/// /0604 10005 21001 6///1 333 10010 20003 7////
AAXX 14124 71186 NIL
AAXX 14124 71187 15766 80702 11005 21016 30168 40217 51008 60001 333 10023 21011 70000
AAXX 14124 71189 NIL
AAXX 14124 71190 NIL
AAXX 14124 71191 NIL
AAXX 14124 71192 15166 81801 11090 21093 39539 40214 51013 60001 333 10007 21107 70000
AAXX 14124 71193 46/// /2201 11031 21032 39886 40258 55003 6///1 333 11033 21058 4/013 7////
AAXX 14124 71196 16/// /1503 10006 20006 30084 40286 55000 60001 333 10028 20001 70006
AAXX 14124 71197 16964 00212 11073 21147 30229 40280 51018 60001 333 10043 21073 70000
AAXX 14124 71198 46/// /0209 10009 21001 6///1 333 10019 20009 7////
AAXX 14124 71199 46/// /0000 11196 21217 39321 40180 51011 6///1 333 11037 21208 4/021 7////
AAXX 14124 06011 07475 73116 10045 20021 39596 49662 52026 69951 72284 333 55310 20184 69957 81/18 85/33 87/46 91034 91134
AAXX 14124 06030 01565 32116 10061 20032 39847 49862 58001 69931 72581 83301 333 69937 81920 83650 91027 91136
AAXX 14124 06060 01470 61912 10058 20037 39814 49878 51005 69961 72511 83301 333 69907 83614 81922 85075 91137
AAXX 14124 06070 05472 71910 10059 20022 39871 49901 54000 69901 333 69907 81/16 83/27 87/31 91023 91131
AAXX 14124 06120 32580 61912 10057 20034 39890 49916 57005 86500 333 81626 85635 87636 91024 91136 91222
AAXX 14124 06180 02470 71917 10060 20035 39934 49940 58011 69911 81571 333 6///7 81616 86359
AAXX 14124 06193 05982 72013 10059 20026 39956 49967 57018 6///1 333 55300 20158 6///7 83/60 87/62 91128
AAXX 14121 10544 01/03 92315 10016 20015 38926 48318 55006 60021 78486 333 31/// 41998 55300 60017 91129 90241 91218 91220 96041 96288 96263 96487 96459
AAXX 14121 06447 11497 62506 10044 20029 39853 49978 52017 60051 70282 85831 333 91122 91211
AAXX 14121 13173 31/92 91602 10067 20065 30094 40195 58007 74544
AAXX 14121 13180 32997 12301 10128 20069 30086 40195 56012 81030
AAXX 14121 13266 31/93 91002 10069 20065 30091 40193 57013 74544
AAXX 14121 13369 32598 30801 10085 20020 38997 48484 58009 82801
AAXX 14121 13383 31994 63401 10078 20074 39997 40201 58010 71042 86030
AAXX 14121 13384 32897 41602 10120 20079 30053 40203 57009 84070
AAXX 14121 13389 32998 71501 10130 20028 39923 40200 58013 87070
AAXX 14121 13477 NIL
AAXX 14124 13629 12660 43204 10064 20048 39170 42818 57005 60001 81501 333 81640
AAXX 14121 13168 31997 31102 10114 20092 30075 40181 56015 70141 83030
AAXX 14121 13174 31/92 91406 10067 20065 30082 40183 58016 74544
AAXX 14121 13269 31695 30000 10121 20068 39980 40192 58010 71011 83500
AAXX 14121 13274 31996 30401 10116 20070 30033 40192 57010 71041 83030
AAXX 14121 13278 32998 31801 10116 20057 39976 40199 57013 83030
AAXX 14121 13378 32898 82403 10017 20015 38286 48511 58008 8807/
AAXX 14121 13397 32698 51205 10058 20042 39678 40222 57008 85500
AAXX 14121 13457 11370 71401 10140 20117 30214 40221 57013 69911 72162 87800 333 82820 85630
AAXX 14121 13481 NIL
AAXX 14124 85123 11360 81103 10228 20225 39938 40105 52015 60814 76166 8772/ 333 20214 32/// 55000 56229 58010 70808 83707 85620 88457
AAXX 14124 85139 12465 80000 10222 20219 39877 40071 51007 60204 83537 333 20199 32/// 55027 56334 58022 70195 83615 85358 88270
AAXX 14124 85153 12465 80000 10237 20222 39920 40105 52015 60034 8552/ 333 20218 31/// 56339 58010 70031 85615 88457
AAXX 14124 85154 12270 81204 10235 20228 39938 40117 52022 60554 8657/ 333 20222 31021 55000 56339 58017 70550 83606 83630 88457
AAXX 14124 85032 11230 80000 10230 20227 39945 40106 52023 60334 76162 8652/ 333 20201 31/// 55031 56449 58015 70331 84605 86610 88457
AAXX 14124 85043 11258 81804 10233 20230 39942 40102 52020 60094 71562 8692/ 333 20213 31/// 55035 56409 58010 70093 84705 85615 81920 88457
AAXX 14124 85104 11430 80000 10220 20220 39936 40098 51009 60904 76166 8652/ 333 20218 32/// 55020 56779 58006 70902 86615 88457
AAXX 14124 85109 11358 83204 10225 20225 39948 40110 52018 60374 76166 8352/ 333 20211 32/// 56779 58013 70367 83610 88457
AAXX 14124 85114 11358 83004 10239 20235 39950 40114 52019 60504 71562 8652/ 333 20218 32/// 55000 56779 58007 70501 86608 88457
AAXX 14124 85116 12465 83604 10245 20231 39932 40110 52016 60064 8652/ 333 20230 31/// 55000 56889 58003 70063 86615 88457
AAXX 14121 06431 16/// /2307 10060 20036 39952 49963 51017 69921 333 91111 91207
AAXX 14121 15501 12562 80000 10059 20050 30157 40202 58012 60001 885// 333 10060 20048 555 594//
AAXX 14121 15505 11/03 92901 10050 20045 39827 40204 57012 60001 74741 333 10105 20002 555 597//
AAXX 14121 15511 11506 80000 10042 20037 30182 40222 58004 60001 74642 885// 333 10042 20035 555 597//
AAXX 14121 15514 11511 80000 10038 20033 30176 40212 52002 60001 71042 885// 333 10040 20034 555 597//
AAXX 14121 15530 11959 21402 10132 20056 39969 40203 58017 60001 71041 82040 333 10136 20013 555 560//
AAXX 14121 15533 11508 80000 10049 20044 30152 40184 58007 69901 74454 885// 333 10051 20034 555 597//
AAXX 14121 15550 11908 80000 10062 20053 30180 40200 58007 60001 74444 8802/ 333 10062 20042 555 594//
AAXX 14121 15561 11/02 91402 10064 20050 30198 40205 58002 60001 74741 222// 00097 336// 4//01 333 10074 20005 555 591// 81309 92022 92422
AAXX 14121 15562 11/01 90000 10064 20045 30135 40208 58011 60001 74540 222// 2//00 333 10068 20048 555 588// 92012 92411
AAXX 14121 15600 11989 32312 10042 20003 38324 48523 58005 60001 70210 82032 333 10049 20006 444 46111 555 575//
AAXX 14121 15601 11708 80000 10040 20030 39595 40224 58013 60001 74142 885// 333 10042 21004 555 593//
AAXX 14121 15605 11710 41402 10062 20055 39369 40215 58010 60001 71041 84500 333 10067 21010 555 596//
AAXX 14121 15613 11/00 92010 11011 21015 37724 47079 58008 60001 74140 333 11007 21031 44014 555 597//
AAXX 14121 15628 11656 20000 10123 20047 39946 40200 58021 60001 70540 82200 333 10125 21020 555 560//
AAXX 14121 15642 12670 62702 10104 20088 30052 40219 58003 60001 86500 333 10106 20074 555 590//
AAXX 14121 15661 11/02 90902 10096 20092 30168 40204 58007 60001 74542 222// 00090 20000 333 10096 20066 555 597// 92012 92412
AAXX 14121 15726 11982 21501 10085 21007 38280 48534 58006 60001 70300 80002 333 10087 20010 41999 555 552//
AAXX 14124 71726 16/// /1301 11078 21084 39737 40294 58001 60001 333 11005 21079 4/012 70000
AAXX 14124 71727 11674 82503 11040 21070 30105 40308 52004 69901 70282 885// 333 10010 21045 47021 79999 90927
AAXX 14124 71728 11582 81102 11052 21087 30075 40303 58001 69901 70272 885// 333 10012 21055 42997 79999 90930
AAXX 14124 71730 11104 91204 11001 21001 39828 40260 56009 60001 74544 333 10020 21003 79999
AAXX 14124 71731 11032 81306 10005 20002 39805 40264 58010 60001 70242 887// 333 10023 21001 70010
AAXX 14124 71735 NIL
AAXX 14124 71738 13674 80000 11028 21036 39874 40235 56017 60002 86507 333 11010 21043 44010 70000 555 10000 20000
AAXX 14124 71739 41124 80000 11024 21030 39887 40259 55005 6//// 70274 88700 333 11029 21045 4//// 7//// 90943
AAXX 14124 71749 16258 82902 11025 21034 39939 40189 58032 60001 333 11029 21033 70000
AAXX 14124 71799 12580 72704 10002 21006 30186 40210 50005 60001 86570 333 10048 21013 55004 70000
AAXX 14124 71800 16/// /0325 11028 21059 30176 40209 55004 60001 333 10032 21035 70014
AAXX 14124 71801 11574 70216 11055 21104 30059 40237 56007 69901 72272 87530 333 10007 21059 41997 70016 90922
AAXX 14124 71803 12480 22906 11107 21140 30071 40265 53002 60001 81541 333 11038 21125 48002 79999
AAXX 14124 71807 NIL
AAXX 14124 71808 12974 23302 11158 21193 30224 40273 54000 60001 80001 333 11118 21175 70000
AAXX 14124 71809 12574 10000 11192 21239 30263 40292 52006 60001 81500 333 11028 21195 47012 79999
AAXX 14124 71810 16/// /0803 11140 21158 30227 40296 56003 60001 333 11059 21156 70000
AAXX 14124 71811 NIL
AAXX 14124 71813 NIL
AAXX 14124 71814 16/// /3406 11174 21194 30282 40292 53003 60001 333 11090 21177 70000
AAXX 14124 71815 12574 10506 11120 21144 30254 40286 53013 60001 81500 333 10002 21123 44008 70006
AAXX 14124 71043 11674 71107 11201 21235 30115 40212 50006 69901 77177 83570 333 11102 21208 48021 70005 90983
AAXX 14124 71045 16/// /2901 11175 21193 39300 40189 51010 60001 333 11037 21201 4/021 70006
AAXX 14124 71050 46/// /2001 11057 21074 39100 40192 50003 6///1 333 11005 21063 7////
AAXX 14124 71051 NIL
AAXX 14124 71052 NIL
AAXX 14124 71066 NIL
AAXX 14124 71068 12974 72906 11048 21078 39450 40151 52021 60001 87070 333 11003 21064 47006 70043
AAXX 14124 71069 16964 02916 11038 21057 39423 40133 51021 60001 333 11007 21038 70010
AAXX 14124 71076 16/// /3506 11118 21142 39734 40134 51018 60001 333 11013 21118 4/031 55/// 20000 70000
AAXX 14124 71077 17/// /0105 11049 21057 39538 40081 51010 60031 7//4/ 333 11032 21057 4/009 55/// 20000 70025 555 10010
AAXX 14124 71079 12469 88500 11045 21059 39800 40081 57008 60001 885// 333 11035 21045 48003 79999
AAXX 14124 71081 47548 81126 11132 21148 39833 49845 57014 6///1 745// 333 11132 21151 7////
AAXX 14124 71082 NIL
AAXX 14124 71083 11916 03020 11262 21300 39982 40025 52028 69901 73873 333 11044 21262 48052 70020 90923
AAXX 14124 71090 46006 81506 11228 21259 39990 40026 58009 6///1 333 11177 21302 7////
AAXX 14124 71091 460// /0929 11194 39696 49907 57013 6///1 333 7////
AAXX 14124 71092 47904 01030 11246 39266 49947 56020 6///1 745// 333 11239 21288 7////
AAXX 14124 71093 460// /1015 11244 39482 49990 56017 6///1 333 11219 21250 7////
AAXX 14124 71094 46059 /2122 11219 39057 49971 56012 6///1 333 11172 21242 7////
AAXX 14124 71095 46964 01703 11246 21299 39907 49989 56010 6///1 333 11236 21294 7////
AAXX 14124 71101 160// /2607 30165 55008 60001 333 70000
AAXX 14124 71104 11774 71303 11056 21067 39070 40198 50006 69901 72282 87500 333 11016 21056 44014 70002 90917
AAXX 14124 71108 12674 83402 10014 21015 30141 40215 50005 60001 885// 333 10034 20006 70000
AAXX 14124 71109 11366 81110 10039 20024 30143 40170 58003 60021 76162 885// 333 10053 20036 70058 90926
AAXX 14124 71603 12574 80509 10008 21008 30204 40258 53013 60001 83501 333 10091 21019 70000
AAXX 14124 71607 16/// /0206 10003 21036 30259 40292 53015 60001 333 10063 21004 70000
AAXX 14124 71609 12474 60309 11007 21049 30148 40285 51019 60001 86500 333 10048 21008 70000
AAXX 14124 71610 17112 80501 11014 21015 39993 40296 52010 60001 710// 333 10008 21015 70000
AAXX 14124 71621 NIL
AAXX 14124 71623 NIL
AAXX 14124 71624 12669 71803 10028 21004 30056 40271 55003 60001 86570 333 10086 20016 55007 70000
AAXX 14124 71625 16464 81103 10013 21019 30124 40288 55000 60001 333 10031 20005 70015
AAXX 14124 71627 11358 80506 10010 21018 30252 40298 52007 60001 71022 887// 333 10015 20006 70002
AAXX 14124 71628 11/12 90704 10010 20010 30151 40294 53007 60001 71042 333 10031 20009 70008
AAXX 14124 71630 NIL
AAXX 14124 71631 NIL
AAXX 14124 71633 12866 71307 10002 21018 39983 40259 55007 60001 82077 333 10060 21011 55000 70000
AAXX 14124 71705 11574 80409 11008 21062 30199 40289 51018 69941 70282 885// 333 10050 21010 42001 70006 90925
AAXX 14124 71706 11574 80412 11005 21053 30222 40284 52022 69901 70287 885// 333 10030 21006 70004 90937
AAXX 14124 71707 11566 80411 10003 21028 30173 40251 53017 60011 78565 885// 333 10036 21003 41997 70012 90936
AAXX 14124 71709 13580 61014 11014 21076 30273 40287 53017 60002 86500 333 10044 21019 41997 79999 90999 555 19999 29999
AAXX 14124 71711 NIL
AAXX 14124 71714 16/// /3002 11033 21046 30230 40325 53010 60001 333 10011 21047 4/005 70000
AAXX 14124 71715 16/// /0000 11035 21053 30116 40303 51003 60001 333 10002 21037 4/003 70000
AAXX 14124 71718 11583 71403 11047 21052 30238 40305 50000 69901 77177 88500 333 10012 21053 47013 70018 90983
AAXX 14124 71719 NIL
AAXX 14124 60020 12560 40706 10210 20137 30240 40285 50009 60001 84500 333 92438
AAXX 14124 60030 02580 40219 10214 20122 30214 40270 50007 60001 84500 333 60007 92418
AAXX 14124 60040 02580 20513 10217 20123 30254 40278 50003 60001 82800 333 60007 92437
AAXX 14124 60338 12984 12608 10196 20103 30195 40260 58003 60001 80009 333 92428
AAXX 14124 71893 12480 80000 10012 21001 30172 40204 58001 60001 885// 333 10034 21013 55001 70022
AAXX 14124 71894 NIL
AAXX 14124 71896 17004 62502 11145 21160 39360 40214 51014 60001 735// 333 11011 21149 70005
AAXX 14124 71897 12362 80510 10031 20016 3//// 4//// 54000 60001 888XX 333 10049 20025 70000
AAXX 14124 71898 160// ///// 11010 58008 60001 333 10042 21013 70025
AAXX 14124 71899 12574 81707 10029 20007 3//// 4//// 56006 60001 81507 333 10051 20011 70012
AAXX 14124 71902 12874 82709 11105 21154 30171 40180 58007 60002 8802/ 333 11114 21154 43020 70000 555 10000 20000
AAXX 14124 71905 NIL
AAXX 14124 71906 11432 81914 11088 21117 30045 40096 57022 60011 77172 885// 333 11085 21102 48009 70016 90937 93101
AAXX 14124 71907 17408 82628 11033 21047 39990 40022 53006 69951 745// 333 11038 21053 70030
AAXX 14124 71909 16964 02009 11048 21096 39862 49905 56011 60001 333 11074 21110 70010
AAXX 14124 71910 47440 92620 11068 21082 39770 49831 53004 6///1 745// 333 11049 21071 7////
AAXX 14124 71911 47022 31811 11196 39713 49768 58004 6///1 745// 333 11128 21196 7////
AAXX 14124 71912 11574 82105 11047 21062 39901 40085 57005 69901 77172 885// 333 11043 21056 47012 79999 90927
AAXX 14124 71915 NIL
AAXX 14124 71917 11974 00000 11411 21439 30086 40101 50000 69901 77677 333 11367 21417 43012 55/// 10162 20000 79999 90993
AAXX 14124 71922 11432 80000 11073 21082 39597 40069 57011 69941 77122 885// 333 11032 21112 47026 70004 90921 93101
AAXX 14124 71924 NIL
AAXX 14124 71925 11500 83230 11246 21289 39952 49994 53019 60001 73933 885// 333 11130 21262 48018 70004
AAXX 14124 71926 NIL
AAXX 14124 71928 16/// /3210 11034 21078 38974 40158 51032 60001 333 11054 21135 4/008 70000
AAXX 14124 71930 NIL
AAXX 14124 71931 16/// /3310 11082 21120 30223 40235 58004 60001 333 10000 21096 70000
AAXX 14124 71934 11474 83305 11150 21173 39907 40171 52024 69901 77177 885// 333 11016 21154 47020 79999 90983
AAXX 14124 71935 11574 43506 11165 21213 39990 40205 52024 69901 70171 81508 333 10015 21166 44023 79999 90923
AAXX 14124 71936 12974 03605 11281 21328 39935 40211 52021 60001 333 11019 21281 48023 79999
AAXX 14124 71937 NIL
AAXX 14124 71938 12974 42615 11261 21289 30158 40189 51010 60001 82048 333 11192 21287 44023 79999
AAXX 14124 71940 12982 00000 11149 21158 39359 40185 51023 60001 333 11004 21156 47011 70056
AAXX 14124 71943 11574 12406 11111 21135 39323 40177 52021 60001 70144 81500 333 11016 21111 48010 70036
AAXX 14124 71944 160// ///// 11099 51019 60001 333 11032 21118 70000
AAXX 14124 71945 12874 80000 11120 21158 39699 40184 52020 60001 8807/ 333 11077 21150 47011 70000
AAXX 14124 71946 11669 83204 11168 21193 39983 40204 51012 69901 77172 8851/ 333 10018 21170 48034 70002 90921
AAXX 14124 71948 46250 82716 11276 30085 40205 55000 6///1 333 11249 21289 7////
AAXX 14124 71949 NIL
AAXX 14124 71951 11148 73608 11029 21038 39933 40204 51003 69901 71072 88500 333 11005 21030 47040 70112 90941
AAXX 14124 71957 46964 30808 11273 21346 30118 40212 58005 6///1 333 11190 21310 7////
AAXX 14124 71958 43/// /0000 11178 21184 39227 40197 51008 6///1 333 11086 7////
AAXX 14124 71964 12886 30000 11158 21188 39284 40163 52004 60001 80001 333 11033 21191 47020 79999
AAXX 14124 71966 16/// /2201 11237 21264 39680 40159 53004 60001 333 11111 21245 4/028 70000
AAXX 14124 71968 46064 /1205 11311 30121 40189 58007 6///1 333 11202 21325 7////
AAXX 14124 71864 NIL
AAXX 14124 71865 16/// /2306 11052 21067 39399 40085 56016 60001 333 11049 21056 70000
AAXX 14124 71866 46864 82106 11060 21079 39465 40084 58008 6///1 333 11017 21068 7////
AAXX 14124 71867 11758 81703 11055 21058 39744 40081 57015 69901 77122 86520 333 11037 21058 47015 79999 90921
AAXX 14124 71868 16/// /1904 11046 21064 39638 40082 56019 60001 333 11042 21048 70000
AAXX 14124 71869 12974 82102 11052 21067 39543 40071 57013 60001 8802/ 333 11028 21061 47007 70000
AAXX 14124 71871 15466 13013 11049 21069 39274 40087 52014 60001 333 11038 21064 70000
AAXX 14124 71877 12874 80112 11028 21057 38868 40153 52028 60001 8807/ 333 10040 21053 42003 70000
AAXX 14124 71878 12874 63012 11034 21064 39065 40153 51028 60001 86070 333 11029 21131 48012 70000
AAXX 14124 71879 16664 63110 11032 21067 39324 40134 51030 60001 333 10006 21048 70000
AAXX 14124 71880 11582 80303 11068 21082 39088 40220 52011 69901 77122 885// 333 11065 21075 47002 79999 90942
AAXX 14124 71882 17564 80000 11034 21049 39680 40230 51012 60001 745// 333 11027 21034 70000
AAXX 14124 71883 NIL
AAXX 14124 71887 12686 71105 11032 21065 39797 40228 51012 60001 86570 333 11007 21057 40997 70000
AAXX 14124 71889 12474 81911 11018 21059 39811 40238 51004 60001 885// 333 11017 21025 70000
AAXX 14124 71891 16964 01402 11048 21073 39941 40221 51013 60001 333 11001 21055 70000
AAXX 14124 71892 12674 71004 10006 21029 30207 40212 50003 60001 86570 333 10040 21005 55003 70000
AAXX 14124 71397 11574 80312 10011 21026 30242 40277 51023 69901 70282 885// 333 10069 20008 70000 90960
AAXX 14124 71400 16/64 /2501 11193 21207 60001 333 11029 21194 70000
AAXX 14124 71403 46/// /0122 10023 20023 30217 40237 51025 6///1 333 10069 20023 7////
AAXX 14124 71411 16/// /0109 10024 21007 30238 40251 51023 60001 333 10096 20005 70000
AAXX 14124 71412 16/// /0519 10006 21045 30255 40265 53022 60001 333 10048 20005 70000
AAXX 14124 71421 NIL
AAXX 14124 71430 16/// /1004 10019 20017 30178 40276 58003 60001 333 10063 20017 70000
AAXX 14124 71431 16/// /0602 10000 21004 30170 40268 55004 60001 333 10059 20000 70000
AAXX 14124 71432 NIL
AAXX 14124 71433 NIL
AAXX 14124 71435 NIL
AAXX 14124 71441 46/// /1607 11026 21037 39804 40116 58028 6///1 333 11028 21041 7////
AAXX 14124 71443 16/// /2209 11054 21066 39677 40093 56019 60001 333 11038 21054 4/006 70000
AAXX 14124 71444 16/// /2303 11074 21080 39336 40103 58015 60001 333 11069 21078 4/009 70000
AAXX 14124 71447 16/// /2606 11052 21058 39562 40113 56017 60001 333 11042 21052 70000
AAXX 14124 71467 NIL
AAXX 14124 71472 NIL
AAXX 14124 71474 17464 82003 11062 21090 38945 40209 51012 60001 745// 333 11048 21070 70000
AAXX 14124 71510 NIL
AAXX 14124 71538 11112 80000 10027 20020 30020 40254 58006 60011 76152 887// 333 10057 20022 70010 90921
AAXX 14124 71600 16564 80417 10057 20016 30192 40198 53017 60001 333 10089 20046 70000
AAXX 14124 71601 NIL
AAXX 14124 71114 16764 80000 11006 21024 30168 40217 51007 60001 333 10025 21011 70000
AAXX 14124 71120 NIL
AAXX 14124 71122 16/// /2505 11077 21113 38538 40170 51015 60001 333 11064 21085 4/010 70000
AAXX 14124 71123 12574 23210 11043 21068 39263 40138 51023 60001 82501 333 11014 21081 44004 70000
AAXX 14124 71125 13574 82612 11039 21077 39470 40058 55006 60002 885// 333 48001 70000
AAXX 14124 71129 11674 62703 11092 21107 39258 40104 52013 69901 77122 84501 333 11038 21123 42997 79999 90910
AAXX 14124 71131 16/// /2907 11104 21111 38810 40082 53002 60001 333 11070 21111 70000
AAXX 14124 71135 16/// /2303 11068 21083 38988 40085 56015 60001 333 11059 21072 4/004 70000
AAXX 14124 71137 NIL
AAXX 14124 71140 11362 82509 11044 21044 39608 40116 5/018 69901 75672 887// 333 11042 21051 41997 79999 90917
AAXX 14124 71145 11474 82106 11061 21073 39814 40111 57016 69901 77177 885// 333 11061 21068 48031 70002 90983
AAXX 14124 71148 16/// /1905 11036 21039 39532 40117 58021 60001 333 11031 21038 4/002 70000 555 10030
AAXX 14124 71182 16964 02302 11229 21275 39699 40277 56016 60001 333 11165 21275 70000
AAXX 14124 71185 16464 60000 11106 30252 40277 55000 60001 333 11057 21152 70000
AAXX 14124 71188 11574 72703 11092 21103 30264 40308 52008 69901 70371 87500 333 11020 21103 47020 55000 70048 90963
AAXX 14124 71200 16/// /0301 10040 20005 60001 333 10056 20031 70000
AAXX 14124 71207 16/// /3502 11007 21009 30143 40208 50003 60001 333 10014 21013 70000
AAXX 14124 71260 NIL
AAXX 14124 71397 11574 80312 10011 21026 30242 40277 51023 69901 70282 885// 333 10069 20008 79999 90960
AAXX 14124 71816 12974 72310 11177 21230 30205 40270 57010 60001 80001 333 10128 21178 44047 55058 70000
AAXX 14124 71817 12974 32405 11159 21215 30241 40255 57009 60001 81041 333 42010 70000
AAXX 14124 71818 12474 72413 11127 21142 30216 40235 58010 60001 81507 333 11095 21133 43020 55066 70000
AAXX 14124 71822 11574 71702 11103 21118 39798 40296 58002 69901 70277 87500 333 11039 21200 43028 79999 90943
AAXX 14124 71825 NIL
AAXX 14124 71827 11262 82212 11076 21077 39936 40187 56008 69901 77172 887// 333 11093 21138 47018 70002 90937
AAXX 14124 71828 16964 01807 11161 21201 39549 40215 56023 60001 333 11133 21176 70000
AAXX 14124 71831 12574 71707 11043 21058 39965 40253 55006 60001 87500 333 11033 21056 47016 70000
AAXX 14124 71832 NIL
AAXX 14124 71834 12262 81602 11022 21029 39766 40202 58026 60001 885// 333 11036 21063 48010 79999
AAXX 14124 71841 NIL
AAXX 14124 71842 11259 81604 11011 21016 39676 40152 56026 60001 71022 886// 333 11034 21061 47003 79999
AAXX 14124 71844 17359 82303 11036 21045 39846 40127 56017 60001 745// 333 11041 21081 70000
AAXX 14124 71845 13574 81705 11027 21032 39669 40150 57026 69902 885// 333 11049 21071 44009 70002 555 10004 20002
AAXX 14124 71850 11116 82310 11006 21008 39630 40134 56022 69921 75674 887// 333 11014 21051 43002 70002 90973
AAXX 14124 71852 16361 81909 11025 21036 39823 40120 57022 60001 333 11020 21040 70005
AAXX 14124 71854 11248 81606 11017 21024 39652 40130 56026 69902 771// 887// 333 11040 21068 48009 70002 90999 555 10002 20002
AAXX 14124 71858 NIL
AAXX 14124 71861 NIL
AAXX 14124 71862 11159 82305 11068 21076 39400 40111 58016 69901 77177 886// 333 11050 21071 42002 79999 90983
AAXX 14124 71863 46364 82207 11059 21083 39389 40094 56013 6///1 333 11045 21059 7////
AAXX 14121 01180 16/// /1504 10047 21026 39703 49758 54000 60001 333 91115
AAXX 14121 01450 16/// /1710 11016 21029 38633 49745 50006 60021 333 91120
AAXX 14121 01329 11443 80502 10042 20029 39643 49702 51010 60081 76366 888// 333 91110
AAXX 14121 01262 46/// /1512 10054 21005 333 91119
AAXX 14121 01393 16/// /1809 10001 21026 38977 49755 58002 6//// 333 91117
AAXX 14124 85041 12260 71206 10250 20237 39823 40088 52021 60014 86730 333 20226 30/// 55042 56330 59004 70012 86704 86358
AAXX 14124 85140 12470 80000 10234 20228 39904 40114 53016 60014 885// 333 20214 31/// 55005 56399 58018 70010 84616 88627
AAXX 14124 85141 32584 71807 10250 20210 39879 40101 52019 87530 333 20230 31/// 55000 56330 58022 87627 86357
AAXX 14124 85151 NIL
AAXX 14124 85152 11458 80000 10232 20219 39874 40106 52014 60024 71522 8653/ 333 20216 32/// 55000 56339 58018 70022 86615 88358
AAXX 14124 85201 11140 81305 10060 20049 36294 52010 60284 74062 85632 333 20044 32004 55023 56000 59002 70284 81702 84614 86357
AAXX 14124 85230 NIL
AAXX 14124 85242 12484 30000 10100 20065 36548 52008 60044 83200 333 20068 31/// 56200 59004 70042 83817
AAXX 14121 37575 42998 62902 10054 21001 39715 40313 57011 86050 555 11007
AAXX 14121 37675 42999 33602 10058 21036 39621 40288 57007 83001 555 12006
AAXX 14121 37735 42996 70901 10068 20010 39842 40220 57015 87039 555 10010
AAXX 14121 37749 42598 82702 10062 20012 30214 40334 57010 885// 555 11006
AAXX 14121 37756 42999 22302 10056 21018 39421 40334 58014 80002 555 11017
AAXX 14121 37864 32997 61604 10089 20038 40299 57006 86040
AAXX 14121 37985 42597 83401 10073 20041 30317 40302 57008 885// 555 11008
AAXX 14121 01440 46/// /1912 11020 21022 38492 49737 52008 333 91116
AAXX 14121 01441 16/// /1809 10000 21017 38776 49730 53007 60041 333 91115
AAXX 14121 01257 16/// /1710 10059 21028 39531 49685 55001 60001 333 91119
AAXX 14121 01277 16/// /1803 10063 21020 60001 333 91107
AAXX 14121 01476 16/// /2214 10067 20040 39790 49796 53015 6//// 333 91125
AAXX 14121 01488 16/// /1603 10039 20019 60011 333 4/016 91108
AAXX 14124 08160 11680 52721 10165 20029 39885 40188 50000 69901 70151 83501
AAXX 14121 02019 07/99 /1104 10005 21031 39177 49785 55001 69911 70070 333 60005 90710 91112
AAXX 14121 02081 07/28 /1304 11007 21009 39447 49845 57010 69991 77187 333 69925 90710 91109
AAXX 14121 02095 07348 /1505 10000 21001 39661 49862 55006 69991 72477 333 69915 88/07 90710 91110
AAXX 14121 02101 45584 /1408 10004 21040 39223 49768 50000 8//// 333 88/25
AAXX 14121 02119 07683 /1102 11005 21005 39425 49804 50004 69951 72576 333 69905 88/35 90710 91105
AAXX 14121 02124 07176 /1403 11011 21020 39292 49808 51009 69961 78587 333 69925 83/02 88/28 90710 91108
AAXX 14121 02126 07582 /1604 10006 21009 39479 49811 52004 69911 70087 333 60005 88/20 90710 91108
AAXX 14121 02151 17480 81603 10001 20001 39497 49828 53006 69911 771// 333 60005 82/10 85/20 88/33 91005 90710 91107 90710 91205
AAXX 14121 02186 11582 51906 10029 20014 39836 49860 53009 60011 70286 84530 333 60005 81620 84633 91009 90710 91110 90710 91207
AAXX 14121 02197 07/74 /1705 10023 20020 39868 49887 53006 60031 78187 333 69905 90710 91112
AAXX 14121 02207 07958 /2008 10015 21028 39039 49715 55003 69901 72487 333 69905 87/66 90710 91121
AAXX 14121 02219 07/59 /1207 11009 21019 39096 49747 58006 69901 71071 333 60005 90710 91112
AAXX 14121 02226 45584 /1508 10011 21015 39332 49776 53001 8//// 333 88/33
AAXX 14121 02243 07/60 /1404 10010 21003 39552 49816 54000 69911 70086 333 60005 90710 91110
AAXX 14121 02269 07456 /2015 10044 20024 60001 71011 333 60005 87/19 90710 91118
AAXX 14121 02287 07461 /2008 10031 20017 39856 49866 51007 69961 78186 333 69925 87/17 90710 91115
AAXX 14121 02297 07483 /1909 10028 20014 39819 49864 51013 69971 78186 333 69915 81/16 83/41 90710 91116
AAXX 14121 02308 07462 /1905 11007 21023 38919 49758 55001 60001 70010 333 60005 82/13 85/16 87/20 88/// 90710 91113
AAXX 14121 02327 07/82 /1504 10013 21003 39379 49805 57003 69901 70087 333 60005 90710 91109
AAXX 14121 02355 05567 /1909 10029 20016 39850 49863 52002 60001 333 60005 81/28 83/32 90710 91114
AAXX 14121 02366 45477 /1405 10023 20007 39846 49852 52002 8//// 333 88/13
AAXX 14121 02407 07467 /1706 10020 20002 39465 49827 52002 69911 70086 333 60005 88/12 90710 91112
AAXX 14121 02418 45473 /1908 10041 20016 39724 49853 50000 8//// 333 81/18 83/23 87/34
AAXX 14121 02435 45671 /1807 10027 21005 39677 49862 50003 8//// 333 87/38
AAXX 14121 02440 07673 /1803 10021 20003 69901 70064 333 60005 86/42 90710 91107
AAXX 14121 02452 05480 /2004 10022 20008 60001 333 60005 87/11 87/50 90710 91110
AAXX 14121 02456 05580 /1905 10037 20013 39860 49902 52005 60001 333 60005 88/22 90710 91111
AAXX 14121 02469 07/81 /2005 10040 20014 69901 70086 333 60005 90710 91111
AAXX 14121 02498 07467 /2012 10057 20035 39920 49936 50006 60001 70010 333 60005 81/18 90710 91116
AAXX 14121 02518 465// /1916 10065 20038 333 83/21 90710 91121
AAXX 14121 02520 31575 22010 10049 20018 39804 49870 51004 60001 70181 82500 333 60005 82623 91014 90710 91114 90710 91210
AAXX 14121 02550 45481 /1907 10029 20022 39640 49912 53004 8//// 333 81/14 85/18 87/26
AAXX 14121 02562 11580 52009 10039 20017 39800 49914 51004 69931 70087 83570 333 60005 82620 83650 91012 90710 91112 90710 91209
AAXX 14121 02563 05681 /1907 10045 20028 39912 49934 52001 60001 333 60005 90710 91112
AAXX 14121 02565 07665 /1905 10046 20012 39829 49947 52004 69981 70086 333 60005 82/39 90710 91110
AAXX 14121 02589 05472 /2209 10056 20034 39936 49957 50003 60001 333 60005 90710 91116
AAXX 14121 02590 45480 /2010 10053 20030 39909 49969 52003 8//// 333 81/14
AAXX 14121 02618 07/62 /2005 10045 20025 39760 49922 52004 60001 70010 333 60005 90710 91111
AAXX 14121 02664 32481 81906 10054 20030 39893 49964 58005 60001 875// 333 60005 86615 87628 91010 90710 91112 90710 91208
AAXX 14121 02679 05/77 /2211 10055 20040 39939 49983 54000 60001 333 60005 90710 91115
BBXX PCPR 14123 99372 10049 41398 22722 10170 20119 40230 54000 70122 8/100 22263 04165 20401 327// 40502 80140
BBXX 62087 14121 99547 10068 46/// /0602 10091 20032 4//// 5//// 22230 00091
BBXX DILS 14124 99059 30101 41998 01811 10260 20228 40119 57010 70200 80000 22274 04260 20302 30000 80238
AAXX 14123 64810 31430 62406 10315 20200 30072 40098 70522 83230 333 55/// 58006 83813 86363
BBXX UBQE6 14121 99044 10001 41597 72501 10250 2//// 40090 52005 7022/ 8871/ 22253 00023 29999 39999 49999 59999
AAXX 14124 64600 32960 00406 10312 20103 39446 40087 333 58004
AAXX 14124 64601 32970 00819 10293 20029 38988 48503 333 58003
AAXX 14124 64605 32980 03602 10308 20034 39348 40082 333 58003
AAXX 14124 64610 32980 03606 10330 20060 3//// 4//// 333 5////
AAXX 14124 64650 32960 03408 10325 20087 39677 40084 333 59003
AAXX 14124 64654 32980 00806 10338 20078 39534 40094 333 58006
AAXX 14124 64655 32980 00208 10323 20104 39445 40083 333 58008
AAXX 14124 64656 32980 03602 10320 20134 39532 40077 333 58005
AAXX 14124 64659 NIL
AAXX 14124 64660 32970 00406 10330 20101 39554 40073 333 59001
AAXX 14124 64662 32980 81604 10338 20134 39579 40073 80002 333 58004 88080
AAXX 14124 64665 32980 00000 10330 20159 3//// 4//// 333 5////
BBXX 61002 14124 99421 10047 46/// ///13 10146 2//// 40172 52016 22200 00153 10704 70021
AAXX 14124 60663 36/// /0903 10185 21060
AAXX 14124 60619 36/// /0516 10153 20015
AAXX 14124 60645 36/// /0000 10201 20012
AAXX 14124 60710 12965 02805 10182 20054 30162 40240 56003 60001 333 50131
AAXX 14124 60714 12960 22004 10181 2//// 30245 40251 56015 60001 333 50281
AAXX 14124 60720 12960 01504 10203 20128 30206 40239 56008 60001 333 50141
AAXX 14124 60728 12962 02004 10201 20142 30152 40244 58014 60001 333 5////
AAXX 14124 60729 12960 02406 10183 20096 30068 40253 58013 60001 333 50201
AAXX 14124 60731 NIL
AAXX 14124 60732 12965 02506 10155 20030 39643 40247 56007 60001 333 50181
AAXX 14124 60734 12970 01402 10177 20083 39725 40239 56006 60001 333 50161
AAXX 14124 60738 NIL
AAXX 14124 60739 12960 01806 10176 20007 39428 40235 58017 60001 333 50301
AAXX 14124 60740 12965 02208 10193 20037 30242 40244 58015 60001 333 50211
AAXX 14124 60742 NIL
AAXX 14124 60764 12962 02304 10173 20066 30223 40274 57010 60001 333 50251
AAXX 14124 60770 12975 02706 10205 20097 30125 40262 57025 60001 333 50171
AAXX 14124 60772 12965 02708 10200 20074 30008 40260 56018 60001 333 5///1
AAXX 14124 60775 12975 02002 10193 20022 39914 40265 56017 60001 333 5///1
AAXX 14124 60780 12960 01508 10177 20093 39976 40280 57014 60001 333 5///1
AAXX 14124 60715 12562 12007 10179 20067 30236 40243 56015 60001 81200 333 58003 50201 81826 91011 91113
AAXX 14124 60723 12970 01102 10169 20097 30067 40255 56008 60001 333 50211
AAXX 14124 60725 12965 23202 10162 2//// 30079 40257 56017 60001 80002 333 50221 82070
AAXX 14124 60735 12965 02102 10197 20050 30161 40242 58020 60001 333 50251
AAXX 14124 60745 12960 02211 10161 20057 39891 40261 56014 60001 333 50161
AAXX 14124 60748 12965 02008 10189 20043 39831 40243 56013 60001 333 50381
AAXX 14124 60750 12960 02316 10192 20034 30227 40252 56009 60001 333 5///1
AAXX 14124 60760 12960 02804 10170 20037 30167 40271 56012 60001 333 50251 91008 91108
AAXX 14124 60765 12960 02610 10179 20112 30267 40271 56015 60001 333 92436 925//
AAXX 14124 60767 12960 02516 10171 20080 30121 40265 57016 60001 333 50221
AAXX 14124 60769 12962 02606 10192 20091 30254 40258 57015 60001 333 50111
AAXX 14124 41170 32964 00109 10223 20110 30187 40200 333 59001
AAXX 14121 01300 41498 72313 10075 20036 49612 52045 71562 879// 22200 02069 10912 70058 333 91116
AAXX 14121 02464 45881 /1805 10047 20011 39904 49922 50002 8//// 333 81/57
AAXX 14121 02500 07458 /1919 10057 20027 39784 49825 52001 69951 78186 333 69905 81/14 84/23 90710 91126
AAXX 14121 02513 NIL
AAXX 14121 02615 05875 /1913 10058 20035 39938 49942 58015 60001 333 60005 87/56 90710 91117
AAXX 14121 02635 05/75 /1905 10055 20031 60001 333 60005 90710 91110
AAXX 14121 01400 41497 72317 10058 20036 49784 52017 76082 8496/ 22200 06084 10913 70067 333 91123
AAXX 14121 01271 17984 81804 10063 21031 39675 49695 55006 6//// 700// 333 91117
AAXX 14121 01415 17261 82009 10066 20041 39726 49737 51017 6//// 780// 333 91122
AAXX 14121 48921 31456 31401 10180 20119 38583 48080 52010 71044 83200 333 10205 58014
AAXX 14121 48924 31551 33601 10214 20189 39511 40136 52013 71044 82860 333 10255 58007
AAXX 14121 48925 31920 00201 10176 20149 39391 40131 52007 71044 333 10255 58004
AAXX 14121 48926 31520 13201 10216 20157 39670 40134 52006 71044 81100 333 10280 58004
AAXX 14121 48927 32960 00000 10156 20127 39158 48626 52004 333 10231 58000
AAXX 14121 48928 31440 20902 10130 20103 39073 48541 52009 71044 82100 333 10229 59013
AAXX 14121 48930 31950 00000 10185 20164 39796 40150 52006 71044 333 10270 58011
AAXX 14121 48935 31910 00000 10174 20089 38968 48464 52016 71044 333 10248 58000
AAXX 14121 48938 31403 20901 10204 20177 39800 40138 52007 71044 82800 333 10266 58002
AAXX 14121 48940 31620 21801 10226 20177 39932 40130 52009 71044 82500 333 10274 58001
AAXX 14121 48941 31920 00402 10190 20167 3//// 4//// 5//// 71044 333 10276 5////
AAXX 14121 48944 31520 72705 10168 20136 39530 40126 52006 71044 87500 333 10226 59001
AAXX 14121 48945 31440 60000 10238 20169 39966 40146 52001 71044 83130 333 10282 58000
AAXX 14121 48946 31520 62401 10230 20199 39972 40139 52009 71044 83850 333 10284 59009
AAXX 14121 48947 NIL
AAXX 14121 48948 NIL
AAXX 14121 48952 NIL
AAXX 14121 48953 31410 70000 10260 20235 39903 40065 52007 71044 83800 333 10315 59021
AAXX 14121 48955 31750 53601 10267 20186 39991 40108 52007 71044 82530 333 10302 59011
AAXX 14121 48957 31530 23602 10275 20195 39988 40095 52010 71044 82101 333 10300 59003
AAXX 14121 48921 31456 31401 10180 20119 38583 48080 52010 71044 83200 333 10205 58014
AAXX 14121 48924 31551 33601 10214 20189 39511 40136 52013 71044 82860 333 10255 58007
AAXX 14121 48925 31920 00201 10176 20149 39391 40131 52007 71044 333 10255 58004
AAXX 14121 48926 31520 13201 10216 20157 39670 40134 52006 71044 81100 333 10280 58004
AAXX 14121 48927 32960 00000 10156 20127 39158 48626 52004 333 10231 58000
AAXX 14121 48928 31440 20902 10130 20103 39073 48541 52009 71044 82100 333 10229 59013
AAXX 14121 48930 31950 00000 10185 20164 39796 40150 52006 71044 333 10270 58011
AAXX 14121 48935 31910 00000 10174 20089 38968 48464 52016 71044 333 10248 58000
AAXX 14121 48938 31403 20901 10204 20177 39800 40138 52007 71044 82800 333 10266 58002
AAXX 14121 48940 31620 21801 10226 20177 39932 40130 52009 71044 82500 333 10274 58001
AAXX 14121 48941 31920 00402 10190 20167 3//// 4//// 5//// 71044 333 10276 5////
AAXX 14121 48944 31520 72705 10168 20136 39530 40126 52006 71044 87500 333 10226 59001
AAXX 14121 48945 31440 60000 10238 20169 39966 40146 52001 71044 83130 333 10282 58000
AAXX 14121 48946 31520 62401 10230 20199 39972 40139 52009 71044 83850 333 10284 59009
AAXX 14121 48947 NIL
AAXX 14121 48948 NIL
AAXX 14121 48952 NIL
AAXX 14121 48953 31410 70000 10260 20235 39903 40065 52007 71044 83800 333 10315 59021
AAXX 14121 48955 31750 53601 10267 20186 39991 40108 52007 71044 82530 333 10302 59011
AAXX 14121 48957 31530 23602 10275 20195 39988 40095 52010 71044 82101 333 10300 59003
AAXX 14124 13624 12670 11804 10166 20070 30183 40222 54004 60001 81200 333 81840
AAXX 14124 13625 11/59 93202 10076 20051 30009 40244 54004 60001 74544
AAXX 14124 13610 12760 81801 10108 20047 39800 40224 54002 60001 885// 333 88650
BBXX PDHY 14123 99490 70336 41397 83014 10070 20026 40138 56010 75022 877/0 22223 04120 20706 331// 40808 5//// 80050
AAXX 14124 13601 12662 42204 10162 20101 30105 40205 57007 60001 84230 333 84840
BBXX MINUK03 1412/ 99550 70015 46/// ///// 10048 49824 52028
AAXX 14124 13622 12665 40000 10162 20089 30219 40226 54004 60001 84500 333 84640
AAXX 14124 13600 12660 80000 10104 20081 30180 40233 54002 60001 8355/ 333 83640 85360
AAXX 14124 60115 32565 32102 10179 20100 40258 56006 82230 333 81830
AAXX 14124 60135 15458 33503 10179 20110 40275 56003 69901 83500 333 83616
AAXX 14124 60155 32958 006// 10186 20118 40270 52002
AAXX 14124 13619 11550 80000 10064 20051 39468 42847 52009 60001 71021 885// 333 88630
AAXX 14124 13611 12665 21410 10156 20084 30112 40202 54003 60001 82200 333 82840
AAXX 14124 13623 11960 73202 10116 20109 30223 40229 54002 60001 70341 87030 333 87360
AAXX 14121 33088 32997 62403 10075 20045 39967 40157 58002 82034
AAXX 14121 33177 32599 21702 10089 20039 39917 40152 58003 82501
AAXX 14121 33261 NIL
AAXX 14121 33275 /1194 81606 10014 20011 39990 40218 58008 71054 886// 333 88703 555 69901
AAXX 14121 33301 32998 62003 10078 20044 39879 40159 58007 83031 333 83300
AAXX 14121 33325 32497 82001 10078 20056 39908 40174 58003 8655/ 333 86619
AAXX 14121 33377 /1/00 91802 10033 20033 30010 40207 58008 74554 555 69911
AAXX 14121 33415 NIL
AAXX 14121 33429 31/93 91702 10043 20043 39753 40179 58009 74542
AAXX 14121 33466 /1338 81803 10057 20052 30006 40194 58005 71054 886// 333 88708 555 69901
AAXX 14121 33526 NIL
AAXX 14121 33562 NIL
AAXX 14121 33614 /1993 91402 10055 20053 30103 40208 58010 75154 555 69901
AAXX 14121 33761 /1336 82302 10069 20065 39970 40193 57001 75154 886// 555 69901
AAXX 14121 33902 /1595 81502 10096 20090 30135 40200 57005 71052 885// 555 69901
AAXX 14121 33983 32997 61604 10123 20078 30161 40221 58009 86031
AAXX 14121 34415 /1322 80000 10016 20013 30151 40250 57007 76365 8772/ 555 60031
AAXX 14121 34523 /1496 81004 10020 20009 30189 40267 57007 76162 8772/ 555 69961
AAXX 14121 34712 NIL
AAXX 14124 65306 31958 51010 10310 20040 39792 40122 70522 80002 333 0//00 59010 85076
AAXX 14124 65319 32956 53004 10326 20035 39604 40115 80002 333 0//00 59006 85076
AAXX 14124 65330 31930 50804 10314 21013 39673 40107 70544 80002 333 0//00 59004 85076
AAXX 14124 65335 31930 51408 10325 20049 39890 40111 70522 80002 333 0//00 59002 85076
AAXX 14124 65344 31920 51804 10313 20213 30101 40112 70622 80002 333 0//00 58000 85076
AAXX 14124 68299 36/// /2904 10194 20140 38886 48481 57011 333 10239 20155 91009 555 91013
AAXX 14124 68298 36/// /2512 1//// 2//// 39438 4//// 56001 333 1//// 2//// 91022 555 91010
AAXX 14124 71801 11574 70216 11055 21104 30059 40237 56007 69901 72272 87530 333 10007 21059 41997 70016 90973
AAXX 14124 71801 11574 70216 11055 21104 30059 40237 56007 69901 72272 87530 333 10007 21059 41997 70016 90973
AAXX 14121 48919 01598 70908 10271 20246 30071 40093 53012 60034 70382 82208 22200 02276 2//02 333 10285 5802 1 69942 70028 82895 87299
AAXX 14121 48916 01598 73601 10259 20227 30053 40100 53008 69914 70262 878// 333 00/// 10283 58005 69912 7000 1 83895 87696
AAXX 14121 48917 32598 63201 10281 20225 30095 40101 52006 8121/ 222// 00282 2//00 333 00028 10310 59005 7000 0 81895 86499
AAXX 14121 48918 12498 80504 10260 20231 30089 40100 53010 60014 889// 222// 00271 2//02 333 01025 10280 5900 7 70010 81894 82995 86696
AAXX 14121 48900 11496 63408 10240 20230 30084 40094 52018 60092 79596 869// 333 10324 59006 83894 83995
AAXX 14121 48914 01598 70501 10265 20242 30096 40098 53014 69914 70382 878// 333 00026 10299 59007 69912 7000 1 82895 86696
AAXX 14121 91929 04/64 /1009 10266 20218 30134 40137 58013 60001 700// 333 60007 90710 91114 555 60005
AAXX 14121 91938 02570 21102 10252 20211 30141 40143 56009 60001 82200 333 60007 82820 90710 91104 555 60005 10806
AAXX 14121 91943 36/// /0908 10265 20215 30126 40128 56014 333 58000
AAXX 14121 91958 06/// /0411 10226 20201 30177 40179 56009 60001 333 10236 58017 60007 90710 91127 555 60005 10527
AAXX 14121 91925 06/// /3301 10221 20191 30065 40126 56013 60001 333 10294 58009 60007 90710 91104 555 60005 13008
AAXX 14121 91944 06/// /0809 10260 20203 30136 40139 56015 60001 333 60007 90710 91113 555 60005
AAXX 14121 91948 06/// /0102 10222 20190 30066 40169 56012 60001 333 10279 58001 60007 90710 91103 555 60005 10104
AAXX 14121 91954 06/// /1402 1//// 2//// 30156 4//// 56014 69921 333 1//// 58006 60007
AAXX 14121 91945 36/// /0708 10255 20210 30147 40152 56012 333 10298
AAXX 14124 78951 11570 21207 10278 20235 30107 40122 60032 7028/ 82200 333 10305 20233 59012 70325 82820
AAXX 14120 67586 41575 70803 10204 20179 38778 48488 71792 85963 333 59014 81923 84825 87359 555 10282 29088
AAXX 14120 67693 32680 63003 10324 20182 39230 48499 86908 333 58009 81930 86835 87280 555 10339 29043
AAXX 14120 67690 31575 70104 10312 20195 71522 82968 333 81925 87280 555 10313 29052
AAXX 14124 94102 46/// /2516 10296 20245 30064 40073
AAXX 14124 94103 NIL
AAXX 14124 94120 46/// /1006 10264 20250 30040 40080
AAXX 14124 94122 46/// /2906 10289 20242 30066 40074
AAXX 14124 94131 46/// /3507 10232 20220 39926 40077
AAXX 14124 94132 NIL
AAXX 14124 94147 NIL
AAXX 14124 94150 46/// /3604 10288 20258 30007 40066
AAXX 14124 94151 46/// /0405 10301 20245 30052 4////
AAXX 14124 94170 46/// /0000 10244 20231 30058 40080
AAXX 14124 94200 NIL
AAXX 14124 94203 46/// /2907 10289 20243 30052 40062
AAXX 14124 94206 46/// /3207 10307 20228 39906 40033
AAXX 14124 94207 /6/// /2418 10277 30048 40056 53016
AAXX 14124 94211 NIL
AAXX 14124 94212 46/// /0104 10269 20208 39581 40042
AAXX 14124 94216 46/// /3507 10309 20232 30014 40064
AAXX 14124 94236 NIL
AAXX 14124 94238 46/// /0405 10295 20172 39637 40050
AAXX 14124 94248 NIL
AAXX 14124 94255 46/// /0000 10270 20119 39800 40056
AAXX 14124 94268 46/// /3103 10262 20222 30051 40063
AAXX 14124 94287 NIL
AAXX 14124 94290 NIL
AAXX 14124 94294 46/// /0913 10288 20240 30082 40092
AAXX 14124 94296 35/// /0000 10284 30078 40088 52014
AAXX 14124 94298 46/// /1218 10273 30091 40097 53011
AAXX 14124 95641 NIL
AAXX 14124 94500 NIL
AAXX 14124 94510 46/// /1210 10257 20095 39755 40094
AAXX 14124 94515 46/// /1306 10200 20130 39761 40103
AAXX 14124 94552 46/// /0715 10192 20151 39674 40133
AAXX 14124 94578 46/// /1107 10230 20168 30143 40154
AAXX 14124 94584 46/// /0919 10234 20181 30026 40135
AAXX 14124 94601 46/// /1325 10191 20164 30130 40147
AAXX 14124 94610 46/// /1115 10231 20137 30074 40097
AAXX 14124 94637 46/// /1305 10206 20133 39683 40100
AAXX 14124 94638 46/// /1011 10171 20137 30127 40158
AAXX 14124 94642 NIL
AAXX 14124 94643 NIL
AAXX 14124 94647 46/// /1311 10172 20142 30012 40131
AAXX 14124 94651 46/// /1318 10179 20152 30038 40114
AAXX 14124 94653 46/// /1415 10204 20130 30095 40113
AAXX 14124 94659 46/// /0909 10254 20009 39928 40119
AAXX 14124 94672 46/// /1209 10176 20070 30152 40162
AAXX 14124 94691 46/// /1509 10188 20009 39821 40142
AAXX 14124 94693 46/// /1503 10190 20041 30090 40151
AAXX 14124 94700 NIL
AAXX 14124 94703 46/// /1203 10208 20142 39995 40118
AAXX 14124 94710 46/// /0000 10212 20051 39875 40122
AAXX 14124 94729 46/// /0908 10126 20087 39321 40157
AAXX 14124 94750 46/// /2405 10154 20104 30072 40195
AAXX 14124 94767 46/// /1612 10182 20087 30191 40197
AAXX 14124 94776 46/// /1607 10178 20105 30183 40193
AAXX 14124 94791 NIL
AAXX 14124 94802 46/// /1109 10171 20159 30077 40159
AAXX 14124 94804 46/// /1220 10154 20104 30128 40165
AAXX 14124 94807 NIL
AAXX 14124 94821 46/// /1407 10099 20065 30117 40199
AAXX 14124 94842 46/// /1907 10138 20086 30104 40203
AAXX 14124 94847 NIL
AAXX 14124 94850 46/// /1505 10109 20076 30155 40201
AAXX 14124 94865 46/// /1408 10151 20103 30169 40193
AAXX 14124 94866 46/// /1611 10144 20100 30050 40190
AAXX 14124 94875 46/// /1910 10148 20085 30024 40157
AAXX 14124 89564 41581 53306 11028 21097 39788 49808 51007 70311 84508
AAXX 14124 89570 46/// /1403 11062 21097 39148 52010 333 10012
AAXX 14124 89571 41550 62407 11012 21073 39785 49813 51009 72282 84972
AAXX 14124 89573 NIL
AAXX 14124 89610 NIL
AAXX 14124 89611 41575 70729 11009 21060 39745 49797 58004 71522 84512
AAXX 14124 89614 NIL
AAXX 14124 89615 466// 80923 11077 21109 38916 51003 333 11050
AAXX 14124 89807 NIL
AAXX 14124 89809 46/// /0826 11045 21076 39350 55001 333 11027
AAXX 14124 94893 46/// /0207 10138 20106 30079 40195
AAXX 14124 94907 46/// /0709 10113 20099 30184 40194
AAXX 14124 94910 46/// /1207 10179 20068 39892 40138
AAXX 14124 94926 46/// /1207 10121 20080 39521 40181
AAXX 14124 94935 46/// /2906 10112 20089 30179 40206
AAXX 14124 94954 46/// /1714 10115 20067 30090 40201
AAXX 14124 94956 46/// /1507 10115 20089 30184 40211
AAXX 14124 94975 46/// /1708 10137 20100 30168 40201
AAXX 14124 94983 46/// /1005 10131 20078 30176 40201
AAXX 14124 94995 46/// /2112 10196 20125 30123 40131
AAXX 14124 94996 46/// /2407 10194 20179 39973 40101
AAXX 14124 94997 NIL
AAXX 14124 94998 46/// /2431 10043 21005 30017 40028
AAXX 14124 95111 46/// /1102 10270 20243 30035 40071
AAXX 14124 95205 46/// /3307 10323 20237 30042 40049
AAXX 14124 95322 NIL
AAXX 14124 95448 46/// /1316 10245 20151 39498 40045
AAXX 14124 95458 46/// /1311 10227 20088 39840 40094
AAXX 14124 95480 46/// /1109 10257 20036 30057 40115
AAXX 14124 95481 46/// /1411 10288 20013 30049 40093
AAXX 14124 95482 46/// /1909 10305 20010 30029 40083
AAXX 14124 95485 46/// /1312 10262 21034 39908 40108
AAXX 14124 95492 46/// /1307 10275 20057 39950 40101
AAXX 14124 95527 46/// /0000 10219 20127 39875 40123
AAXX 14124 95634 46/// /1107 10191 20141 39709 40101
AAXX 14124 95637 46/// /1211 10183 20147 39797 40125
AAXX 14124 95646 46/// /1513 10172 20141 39936 40120
AAXX 14124 95666 NIL
AAXX 14124 95719 46/// /0714 10184 20112 39810 40134
AAXX 14124 95762 46/// /1313 10170 20106 39695 40144
AAXX 14124 95826 NIL
AAXX 14124 95839 46/// /1314 10158 20060 30016 40173
AAXX 14124 95864 NIL
AAXX 14124 95909 NIL
AAXX 14124 95954 NIL
AAXX 14124 95966 46/// /3606 10130 20098 39994 40194
AAXX 14124 96995 46/// /2104 10240 20233 39795 40089
AAXX 14124 96996 454// 81505 10274 20236 30088 40092 53007
AAXX 14123 91502 31470 40000 10250 20242 40070 55002 70521 82203 333 10320 56909 59011 82815 84081
AAXX 14123 91507 NIL
AAXX 14123 91520 NIL
AAXX 14123 91541 01460 80000 10250 20235 40093 52002 60471 76198 8592/ 333 10304 56699 5//// 60217 83814 82915 83624 88460
AAXX 14124 94500 NIL
AAXX 14124 94510 46/// /1210 10257 20095 39755 40094
AAXX 14124 94515 46/// /1306 10200 20130 39761 40103
AAXX 14124 94552 46/// /0715 10192 20151 39674 40133
AAXX 14124 94578 46/// /1107 10230 20168 30143 40154
AAXX 14124 94584 46/// /0919 10234 20181 30026 40135
AAXX 14124 94601 46/// /1325 10191 20164 30130 40147
AAXX 14124 94610 46/// /1115 10231 20137 30074 40097
AAXX 14124 94637 46/// /1305 10206 20133 39683 40100
AAXX 14124 94638 46/// /1011 10171 20137 30127 40158
AAXX 14124 94642 NIL
AAXX 14124 94643 NIL
AAXX 14124 94647 46/// /1311 10172 20142 30012 40131
AAXX 14124 94651 46/// /1318 10179 20152 30038 40114
AAXX 14124 94653 46/// /1415 10204 20130 30095 40113
AAXX 14124 94659 46/// /0909 10254 20009 39928 40119
AAXX 14124 94672 46/// /1209 10176 20070 30152 40162
AAXX 14124 94691 46/// /1509 10188 20009 39821 40142
AAXX 14124 94693 46/// /1503 10190 20041 30090 40151
AAXX 14124 94700 NIL
AAXX 14124 94703 46/// /1203 10208 20142 39995 40118
AAXX 14124 94710 46/// /0000 10212 20051 39875 40122
AAXX 14124 94729 46/// /0908 10126 20087 39321 40157
AAXX 14124 94750 46/// /2405 10154 20104 30072 40195
AAXX 14124 94767 46/// /1612 10182 20087 30191 40197
AAXX 14124 94776 46/// /1607 10178 20105 30183 40193
AAXX 14124 94791 NIL
AAXX 14124 94802 46/// /1109 10171 20159 30077 40159
AAXX 14124 94804 46/// /1220 10154 20104 30128 40165
AAXX 14124 94807 NIL
AAXX 14124 94821 46/// /1407 10099 20065 30117 40199
AAXX 14124 94842 46/// /1907 10138 20086 30104 40203
AAXX 14124 94847 NIL
AAXX 14124 94850 46/// /1505 10109 20076 30155 40201
AAXX 14124 94865 46/// /1408 10151 20103 30169 40193
AAXX 14124 94866 46/// /1611 10144 20100 30050 40190
AAXX 14124 94875 46/// /1910 10148 20085 30024 40157
AAXX 14124 94299 46/// /0707 10286 20249 30080 40090
AAXX 14124 94300 46/// /2019 10239 20175 30072 40082
AAXX 14124 94302 46/// /2117 10248 20172 30065 40071
AAXX 14124 94312 46/// /3017 10273 20218 30027 40036
AAXX 14124 94313 NIL
AAXX 14124 94317 46/// /2311 10352 20089 39430 49996
AAXX 14124 94319 46/// /3208 10358 20121 39676 49996
AAXX 14124 94324 NIL
AAXX 14124 94326 46/// /1503 10217 20086 39463 40063
AAXX 14124 94327 46/// /1305 10273 20034 39703 40067
AAXX 14124 94332 46/// /1706 10213 20156 39678 40054
AAXX 14124 94333 NIL
AAXX 14124 94341 46/// /1207 10278 20141 39819 40048
AAXX 14124 94346 46/// ///// 10279 20103 39852 40066
AAXX 14124 94363 46/// /0508 10264 20205 39880 40093
AAXX 14124 94366 NIL
AAXX 14124 94367 46/// /0610 10267 20227 30069 40110
AAXX 14124 94374 46/// /0806 10253 20202 30107 40123
AAXX 14124 94388 46/// /1014 10248 20205 30127 40132
AAXX 14124 94393 46/// /1220 10263 30095 40107 51014
AAXX 14124 94394 46/// /1019 10242 30117 40125 51015
AAXX 14124 94403 46/// /1914 10221 20180 30038 40079
AAXX 14124 94429 46/// /0000 10282 20174 39583 40034
AAXX 14124 94430 46/// /2006 10298 20073 39459 40025
AAXX 14124 94449 46/// /1314 10223 20149 39562 40079
AAXX 14124 94451 NIL
AAXX 14124 94461 46/// /0404 10229 20210 39391 40042
AAXX 14124 94462 46/// /1308 10274 20126 39505 40044
AAXX 14124 94477 NIL
AAXX 14124 94488 NIL
BBXX VRDB3 14124 99034 31453 41/98 51305 10280 20253 40081 54000 70222 85/// 22275 0//// 2//// 3//// 4//// 80260
BBXX VRAE4 14124 99003 31374 41598 42906 10290 20248 40104 52022 70211 8286/ 22273 04300 299// 399// 410// 80260
BBXX VNSZ 14124 99387 31449 46/// /1520 10146 20097 30171 40198 52010 22235 04171 85119
BBXX VNSZ 14114 99383 31446 46/// /1625 10149 20102 30167 40194 52009 22235 04176 85123
BBXX 9HA2479 14114 99220 31676 46/// /3613 10269 20247 30072 40101 52004 22214 04274 85253
BBXX C6FS9 14114 99229 31600 46/// /1520 10244 20213 30086 40122 52020 22263 04263 85222
BBXX VHAF 14124 99394 31451 41998 01715 10149 20108 40238 51020 70200 80000 22284 20503 324// 41203 80127
BBXX VROB 14114 99068 31470 46/// /0104 10270 20233 30065 40090 5//// 22200 04288 85243
BBXX FHZI 14114 99428 31473 46/// /0909 10146 20109 30185 40196 52018 22200 04171 85125
BBXX VNSZ 14104 99382 31449 46/// /1623 10153 20102 30163 40190 52006 22245 04186 85124
BBXX 9HA2479 14104 99222 31673 46/// /3511 10268 20251 30072 40101 52011 22214 04269 85255
BBXX C6FS9 14104 99229 31603 46/// /1521 10246 20214 30078 40114 52019 22263 04261 85223
BBXX VROB 14104 99068 31470 46/// /0602 10282 20222 30055 40080 5//// 22200 04288 85239
BBXX FHZI 14104 99428 31473 46/// /1314 10153 20104 30178 40189 52016 22200 04173 85125
BBXX VNAH 14104 99333 31157 46/// /1114 10240 20127 30085 40108 57006 22200 04208 85170
BBXX 2AGH7 14123 99179 31664 41/99 /1114 10270 20241 40123 54000 70300 8/14/ 22264 00250 20502 30000 80250
BBXX VRZN7 14114 99174 31751 41597 50710 10273 2024/ 40110 52010 70211 83492 22233 04290 20502 3//// 4//// 5//// 85250
BBXX VRWW8 14124 99334 31735 41/97 90224 10220 20220 40080 57030 70202 8//// 22233 00220 2//// 3//// 4//// 5//// 80220
BBXX PCAM 14123 99365 51758 41/96 /0912 10181 20152 40140 52/// 75852 8//// 22222 00197 2//// 80163
AAXX 14123 NIL
AAXX 14124 89564 41581 53306 11028 21097 39788 49808 51007 70311 84508
AAXX 14124 89570 46/// /1403 11062 21097 39148 52010 333 10012
AAXX 14124 89571 41550 62407 11012 21073 39785 49813 51009 72282 84972
AAXX 14124 89573 NIL
AAXX 14124 89610 NIL
AAXX 14124 89611 41575 70729 11009 21060 39745 49797 58004 71522 84512
AAXX 14124 89614 NIL
AAXX 14124 89615 466// 80923 11077 21109 38916 51003 333 11050
AAXX 14124 89807 NIL
AAXX 14124 89809 46/// /0826 11045 21076 39350 55001 333 11027
AAXX 14124 88963 32960 12720 10060 20039 39824 49853 52001 81070 333 10060 20022 56070 81360 92417 94032 95000
AAXX 14124 88968 12462 52725 10042 21012 39894 49910 53007 69904 85600 333 10042 20010 56700 85712 90120 92437 92734 92851 94070 95000
AAXX 14124 89034 32970 01806 11032 21063 39506 49822 51003 333 11032 21078
AAXX 14124 89053 31125 82325 10018 20005 39942 49956 53016 71022 887// 333 10030 20012 56599 88703 90068 90084 92435 92851 94075 94479 95095 97530 98525
AAXX 14124 89055 32965 52508 10070 21065 39618 49853 52020 84076 333 10070 20020 56055 84360 83270 95100
AAXX 14124 89066 01520 82905 10006 21012 39864 49873 52021 60114 77577 8762/ 333 10014 21008 43003 56779 60041 86720 86722 88540 90020 90567 90987 92414 92734 92801 93004 93103 94070 95020 96010
AAXX 14124 94299 46/// /0707 10286 20249 30080 40090
AAXX 14124 94300 46/// /2019 10239 20175 30072 40082
AAXX 14124 94302 46/// /2117 10248 20172 30065 40071
AAXX 14124 94312 46/// /3017 10273 20218 30027 40036
AAXX 14124 94313 NIL
AAXX 14124 94317 46/// /2311 10352 20089 39430 49996
AAXX 14124 94319 46/// /3208 10358 20121 39676 49996
AAXX 14124 94324 NIL
AAXX 14124 94326 46/// /1503 10217 20086 39463 40063
AAXX 14124 94327 46/// /1305 10273 20034 39703 40067
AAXX 14124 94332 46/// /1706 10213 20156 39678 40054
AAXX 14124 94333 NIL
AAXX 14124 94341 46/// /1207 10278 20141 39819 40048
AAXX 14124 94346 46/// ///// 10279 20103 39852 40066
AAXX 14124 94363 46/// /0508 10264 20205 39880 40093
AAXX 14124 94366 NIL
AAXX 14124 94367 46/// /0610 10267 20227 30069 40110
AAXX 14124 94374 46/// /0806 10253 20202 30107 40123
AAXX 14124 94388 46/// /1014 10248 20205 30127 40132
AAXX 14124 94393 46/// /1220 10263 30095 40107 51014
AAXX 14124 94394 46/// /1019 10242 30117 40125 51015
AAXX 14124 94403 46/// /1914 10221 20180 30038 40079
AAXX 14124 94429 46/// /0000 10282 20174 39583 40034
AAXX 14124 94430 46/// /2006 10298 20073 39459 40025
AAXX 14124 94449 46/// /1314 10223 20149 39562 40079
AAXX 14124 94451 NIL
AAXX 14124 94461 46/// /0404 10229 20210 39391 40042
AAXX 14124 94462 46/// /1308 10274 20126 39505 40044
AAXX 14124 94477 NIL
AAXX 14124 94488 NIL
AAXX 14124 94102 46/// /2516 10296 20245 30064 40073
AAXX 14124 94103 NIL
AAXX 14124 94120 46/// /1006 10264 20250 30040 40080
AAXX 14124 94122 46/// /2906 10289 20242 30066 40074
AAXX 14124 94131 46/// /3507 10232 20220 39926 40077
AAXX 14124 94132 NIL
AAXX 14124 94147 NIL
AAXX 14124 94150 46/// /3604 10288 20258 30007 40066
AAXX 14124 94151 46/// /0405 10301 20245 30052 4////
AAXX 14124 94170 46/// /0000 10244 20231 30058 40080
AAXX 14124 94200 NIL
AAXX 14124 94203 46/// /2907 10289 20243 30052 40062
AAXX 14124 94206 46/// /3207 10307 20228 39906 40033
AAXX 14124 94207 /6/// /2418 10277 30048 40056 53016
AAXX 14124 94211 NIL
AAXX 14124 94212 46/// /0104 10269 20208 39581 40042
AAXX 14124 94216 46/// /3507 10309 20232 30014 40064
AAXX 14124 94236 NIL
AAXX 14124 94238 46/// /0405 10295 20172 39637 40050
AAXX 14124 94248 NIL
AAXX 14124 94255 46/// /0000 10270 20119 39800 40056
AAXX 14124 94268 46/// /3103 10262 20222 30051 40063
AAXX 14124 94287 NIL
AAXX 14124 94290 NIL
AAXX 14124 94294 46/// /0913 10288 20240 30082 40092
AAXX 14124 94296 35/// /0000 10284 30078 40088 52014
AAXX 14124 94298 46/// /1218 10273 30091 40097 53011
AAXX 14124 95641 NIL
AAXX 14124 94893 46/// /0207 10138 20106 30079 40195
AAXX 14124 94907 46/// /0709 10113 20099 30184 40194
AAXX 14124 94910 46/// /1207 10179 20068 39892 40138
AAXX 14124 94926 46/// /1207 10121 20080 39521 40181
AAXX 14124 94935 46/// /2906 10112 20089 30179 40206
AAXX 14124 94954 46/// /1714 10115 20067 30090 40201
AAXX 14124 94956 46/// /1507 10115 20089 30184 40211
AAXX 14124 94975 46/// /1708 10137 20100 30168 40201
AAXX 14124 94983 46/// /1005 10131 20078 30176 40201
AAXX 14124 94995 46/// /2112 10196 20125 30123 40131
AAXX 14124 94996 46/// /2407 10194 20179 39973 40101
AAXX 14124 94997 NIL
AAXX 14124 94998 46/// /2431 10043 21005 30017 40028
AAXX 14124 95111 46/// /1102 10270 20243 30035 40071
AAXX 14124 95205 46/// /3307 10323 20237 30042 40049
AAXX 14124 95322 NIL
AAXX 14124 95448 46/// /1316 10245 20151 39498 40045
AAXX 14124 95458 46/// /1311 10227 20088 39840 40094
AAXX 14124 95480 46/// /1109 10257 20036 30057 40115
AAXX 14124 95481 46/// /1411 10288 20013 30049 40093
AAXX 14124 95482 46/// /1909 10305 20010 30029 40083
AAXX 14124 95485 46/// /1312 10262 21034 39908 40108
AAXX 14124 95492 46/// /1307 10275 20057 39950 40101
AAXX 14124 95527 46/// /0000 10219 20127 39875 40123
AAXX 14124 95634 46/// /1107 10191 20141 39709 40101
AAXX 14124 95637 46/// /1211 10183 20147 39797 40125
AAXX 14124 95646 46/// /1513 10172 20141 39936 40120
AAXX 14124 95666 NIL
AAXX 14124 95719 46/// /0714 10184 20112 39810 40134
AAXX 14124 95762 46/// /1313 10170 20106 39695 40144
AAXX 14124 95826 NIL
AAXX 14124 95839 46/// /1314 10158 20060 30016 40173
AAXX 14124 95864 NIL
AAXX 14124 95909 NIL
AAXX 14124 95954 NIL
AAXX 14124 95966 46/// /3606 10130 20098 39994 40194
AAXX 14124 96995 46/// /2104 10240 20233 39795 40089
AAXX 14124 96996 454// 81505 10274 20236 30088 40092 53007
BBXX VRDB3 14124 99034 31453 41/98 51305 10280 20253 40081 54000 70222 85/// 22275 0//// 2//// 3//// 4//// 80260
BBXX VRAE4 14124 99003 31374 41598 42906 10290 20248 40104 52022 70211 8286/ 22273 04300 299// 399// 410// 80260
BBXX VNSZ 14124 99387 31449 46/// /1520 10146 20097 30171 40198 52010 22235 04171 85119
BBXX VNSZ 14114 99383 31446 46/// /1625 10149 20102 30167 40194 52009 22235 04176 85123
BBXX 9HA2479 14114 99220 31676 46/// /3613 10269 20247 30072 40101 52004 22214 04274 85253
BBXX C6FS9 14114 99229 31600 46/// /1520 10244 20213 30086 40122 52020 22263 04263 85222
BBXX VHAF 14124 99394 31451 41998 01715 10149 20108 40238 51020 70200 80000 22284 20503 324// 41203 80127
BBXX VROB 14114 99068 31470 46/// /0104 10270 20233 30065 40090 5//// 22200 04288 85243
BBXX FHZI 14114 99428 31473 46/// /0909 10146 20109 30185 40196 52018 22200 04171 85125
BBXX VNSZ 14104 99382 31449 46/// /1623 10153 20102 30163 40190 52006 22245 04186 85124
BBXX 9HA2479 14104 99222 31673 46/// /3511 10268 20251 30072 40101 52011 22214 04269 85255
BBXX C6FS9 14104 99229 31603 46/// /1521 10246 20214 30078 40114 52019 22263 04261 85223
BBXX VROB 14104 99068 31470 46/// /0602 10282 20222 30055 40080 5//// 22200 04288 85239
BBXX FHZI 14104 99428 31473 46/// /1314 10153 20104 30178 40189 52016 22200 04173 85125
BBXX VNAH 14104 99333 31157 46/// /1114 10240 20127 30085 40108 57006 22200 04208 85170
BBXX 2AGH7 14123 99179 31664 41/99 /1114 10270 20241 40123 54000 70300 8/14/ 22264 00250 20502 30000 80250
BBXX VRZN7 14114 99174 31751 41597 50710 10273 2024/ 40110 52010 70211 83492 22233 04290 20502 3//// 4//// 5//// 85250
BBXX VRWW8 14124 99334 31735 41/97 90224 10220 20220 40080 57030 70202 8//// 22233 00220 2//// 3//// 4//// 5//// 80220
BBXX PCAM 14123 99365 51758 41/96 /0912 10181 20152 40140 52/// 75852 8//// 22222 00197 2//// 80163
BBXX UCKZ 14121 99546 30221 41194 83208 10002 21011 40053 57016 71022 886// 22233 00004 20402 324// 40904
BBXX ZCDS3 14121 99307 70687 41598 53510 10210 20149 40187 51016 70311 85200 22264 00240 20404 303// 40705 5//// 80174
BBXX ZCDS3 14111 99308 70686 41598 43610 10200 20167 40186 52015 70200 84400 22264 00240 20404 303// 40705 5//// 80180
AAXX 14124 94310 46/// /2723 10269 20224 30029 40040 52009 333 10314
AAXX 14124 95283 46/// /1605 10277 20262 30071 40078
AAXX 14124 95288 46/// /0607 10292 30062 40077 51013
AAXX 14124 95675 46/// /1307
AAXX 14124 95872 46/// /1315
AAXX 14124 95961 35/// /3504 10112 30168 40210 52009
AAXX 14121 38141 42598 83101 11044 21095 30163 40329 57008 885// 555 1/104
AAXX 14121 38149 41496 82701 11039 21058 30262 40343 57002 71044 886// 555 11000
AAXX 14121 38178 42598 22902 10001 21146 30033 40329 57003 82500 555 10000
AAXX 14121 38262 42698 73203 11008 21070 30249 40333 57006 87200 555 11002
AAXX 14121 38264 42498 70102 11023 21052 30243 40341 52003 875// 333 87615 555 14000
AAXX 14121 38396 42897 33302 10016 21035 30204 40333 53001 83500 333 83667 555 10000
AAXX 14121 38403 42697 70202 10034 21033 30187 40311 53001 87500 555 10007
AAXX 14121 38413 42998 60000 10018 21010 30029 40329 53001 86050 555 1/000
AAXX 14121 38457 41996 20201 10023 21007 39716 40318 57001 71000 82040 555 1/102
AAXX 14121 38462 42699 80000 11002 21042 38825 48559 54000 86920 555 1/104
AAXX 14121 38565 32998 00000 10020 21008 39721 40321 53001 555 11007
AAXX 14121 38579 31995 70000 10020 21008 39892 40322 57004 71022 82031 555 11003
AAXX 14121 38583 32697 81601 10030 20030 39997 40327 57004 82541 555 11002
AAXX 14121 38611 41796 62002 10025 21005 39748 40334 52003 71022 83301 555 11003
AAXX 14121 38618 42997 50000 10011 21003 39597 40306 57009 83042 555 11000
AAXX 14121 38683 42997 03404 10048 21002 30029 40311 57003 555 10007
AAXX 14121 38696 32999 01802 10057 21016 39425 40290 57009 555 12001
AAXX 14121 38812 42997 03302 10068 21008 39834 40293 57001 555 10007
AAXX 14121 38927 31134 80000 10021 20013 39916 40313 55004 71022 886// 333 88703 555 11005
BBXX 41038 14121 99341 70777 46/// /0105 10123 40286 53006 91200 22200 00141 333 91206
AAXX 14123 91502 31470 40000 10250 20242 40070 55002 70521 82203 333 10320 56909 59011 82815 84081
AAXX 14123 91507 NIL
AAXX 14123 91520 NIL
AAXX 14123 91541 01460 80000 10250 20235 40093 52002 60471 76198 8592/ 333 10304 56699 5//// 60217 83814 82915 83624 88460
AAXX 14121 37409 42598 60906 11005 21043 38820 48536 57002 86540 333 95070 555 1/103
AAXX 14121 37432 42697 30000 10026 21048 39025 48558 57015 83200 555 10101
AAXX 14121 37514 42699 40000 10046 21054 39102 40268 57019 84500
AAXX 14121 37545 42997 81404 10075 20004 39751 40270 57014 88015
AAXX 14121 37621 42699 22701 10061 21028 39629 40278 57009 80031 555 11008
AAXX 14121 37395 NIL
AAXX 14121 37484 NIL
AAXX 14124 78951 11570 21207 10278 20235 30107 40122 60032 7028/ 82200 333 10305 20233 59012 70325 82820
AAXX 14121 37905 42997 31102 10071 20030 30215 40304 57016 83040 555 10012
AAXX 14121 37985 42597 83401 10073 20041 30317 40302 57008 885// 555 11008
AAXX 14121 37989 42998 30302 10086 20045 30337 40310 57009 83030 555 10016
AAXX 14121 37864 32997 61604 10089 20038 40299 57006 86040
AAXX 14121 37740 41/90 90901 10002 20002 39477 40310 57007 74544 555 10003
AAXX 14121 37661 42597 72101 10038 20018 39522 40297 57007 875// 555 10006
AAXX 14121 37851 42998 00000 10093 20030 30245 40305 57010
AAXX 14121 37749 42598 82702 10062 20012 30214 40334 57010 885// 555 11006
AAXX 14121 37675 42999 33602 10058 21036 39621 40288 57007 83001 555 12006
AAXX 14121 37832 42998 70301 10072 20029 30211 40296 57009 80100 555 10009
AAXX 14121 37735 42996 70901 10068 20010 39842 40220 57015 87039 555 10010
AAXX 14121 37729 42598 32704 10077 20048 38609 57005 83100
AAXX 14124 13629 12660 43204 10064 20048 39170 42818 57005 60001 81501 333 81640
AAXX 14124 06670 03/// /2207 10104 20060 39571 40073 57/// 60021 333 55305 21004 60005 91131 91214
AAXX 14124 06700 01573 72020 10104 20050 39624 40110 58/// 69981 71686 878// 333 55301 20529 60005 81620 83835 86656 91131 91220
AAXX 14124 06680 01/03 92211 11046 21049 37423 47954 57/// 69961 77174 333 55302 20673 69915 91151 91217
AAXX 14124 06990 31860 83504 10093 20023 39540 40079 57/// 70522 885// 333 55300 20356 88657 91116 91207
AAXX 14124 06760 01230 81201 10036 20033 39715 40171 57/// 69951 75152 8572/ 333 55300 20072 60005 85704 88531 91108 91205
AAXX 14124 06720 01460 80902 10048 20034 39573 40153 58/// 60091 76166 88020 333 55300 20320 69925 88517 91105 91203
AAXX 14124 06610 01657 72413 10100 20056 39519 40094 57/// 60051 71562 8217/ 333 55303 20702 60005 82844 86356 91131 91218
BBXX OZDM2 14124 99368 10010 41497 32420 10170 20137 40247 58005 70100 82140 22224 04180 20104 320// 40206 80150
BBXX A8JI2 14124 99395 70203 41597 72923 10160 20088 40270 50000 70122 8789/ 22254 04183 20609 331// 41210 5//// 80120
BBXX A8RL3 14121 99010 30882 41/97 50203 10290 20268 40080 54000 70262 8/4// 22213 29901 318// 4//03 5//// 80274
AAXX 14121 56187 32961 20401 10066 21011 39623 40289 52026 82040 333 00251
AAXX 14121 56778 NIL
AAXX 14121 57265 NIL
AAXX 14121 57461 31958 73401 10098 20033 30136 40302 52019 70500 8704/
AAXX 14121 57494 NIL
AAXX 14121 57516 11730 81601 10087 20049 39972 40290 52017 69921 71060 885// 333 00500
AAXX 14121 57687 11340 83202 10081 20038 30201 40287 52016 69911 76060 8772/
AAXX 14121 57816 11458 80203 10029 20013 38850 40281 52009 69951 76066 885// 333 00554
AAXX 14121 58040 31959 50403 10015 21034 30308 40322 52029 71000 80002
AAXX 14121 58102 NIL
AAXX 14121 58150 31930 73405 10052 20011 30300 40304 52026 71000 86042
AAXX 14121 58221 NIL
AAXX 14121 58238 NIL
AAXX 14121 58251 NIL
AAXX 14121 58362 NIL
AAXX 14121 58457 11630 82701 10078 20019 30229 40283 52018 69911 76060 885//
AAXX 14121 58606 NIL
AAXX 14121 58752 NIL
AAXX 14121 58847 32663 63202 10161 20108 30128 40230 52020 82540
AAXX 14121 59117 NIL
AAXX 14121 59134 NIL
AAXX 14121 59287 NIL
AAXX 14121 59316 NIL
AAXX 14121 59431 NIL
AAXX 14121 59644 NIL
AAXX 14121 59758 NIL
AAXX 14121 50468 32970 03402 11212 21255 30031 40262 52007
AAXX 14121 50953 32965 63202 11132 21199 30077 40269 52009 80002
AAXX 14121 51076 NIL
AAXX 14121 51243 NIL
AAXX 14121 51288 32980 21102 11074 21149 38410 52002 80002 333 05151
AAXX 14121 51463 NIL
AAXX 14121 51573 NIL
AAXX 14121 51709 NIL
AAXX 14121 52533 NIL
AAXX 14121 52652 NIL
AAXX 14121 52866 NIL
AAXX 14121 52983 NIL
AAXX 14121 53463 32980 03202 11116 21228 39088 40434 52008 333 00552
AAXX 14121 53513 32970 20901 11113 21181 39117 40443 52012 80002 333 00453
AAXX 14121 53588 NIL
AAXX 14121 53772 NIL
AAXX 14121 53915 NIL
AAXX 14121 54218 32970 02706 11114 21232 39507 40371 52007
AAXX 14121 54337 32960 00201 11050 21195 30237 40325 52010
AAXX 14121 54342 NIL
AAXX 14121 54401 NIL
AAXX 14121 54471 NIL
AAXX 14121 54497 32965 03405 11066 21166 30278 40295 52027
AAXX 14121 54511 NIL
AAXX 14121 54823 32980 20704 11017 21142 30131 40351 52018 80002
AAXX 14121 56080 NIL
AAXX 14121 56096 NIL
AAXX 14121 57083 32963 60404 10020 21090 30205 40346 52023 80002
AAXX 14121 01003 16/// /0512 11020 21066 39988 40000 57002 6////
AAXX 14124 783 CHECK TEXT NEW ENDING ADDED KATLYTAA
BBXX 44139 14121 99442 70571 46/// /0515 10048 40183 52011 22200 00092 10605 70026 333 91218
AAXX 14124 783 CHECK TEXT NEW ENDING ADDED KATLYTAA
AAXX 14121 40001 32970 50901 10135 20011 40223 58013 80506 333 82360 85270
AAXX 14121 40007 32960 30903 10122 20040 40223 56017 83050 333 83360
AAXX 14121 40025 32960 63102 10197 20048 40184 56019 80002 333 86070
AAXX 14121 40045 32570 50000 10118 20024 40240 58019 82550 333 82630 85360
AAXX 14121 40061 32970 70000 10103 20017 40217 57014 80008 333 87270
AAXX 14121 40080 32565 50903 10146 21038 39474 40191 57018 82550 333 82630 84360
AAXX 14121 40087 NIL
AAXX 14121 40095 NIL
AAXX 14124 65352 31904 70406 10334 21016 3//// 4//// 70544 80002 333 5//// 87076
AAXX 14124 65361 31945 70410 10315 21018 3//// 4//// 70522 80002 333 5//// 87076
AAXX 14124 65376 31920 70804 10290 20040 39660 40107 70522 80002 333 59004 87076
AAXX 14124 65387 31925 70404 10320 20152 30082 40100 70522 80002 333 58006 87073
AAXX 14121 40009 32965 70000 10131 20061 40206 57015 87050 333 87360
AAXX 14121 40016 32970 60000 10095 20036 40260 58012 80002 333 86070
AAXX 14121 40022 32965 60403 10176 20040 40180 57019 80002 222// 20000 333 86070
AAXX 14121 40030 32970 60000 10104 20048 40216 57022 83038 333 83360 86270
AAXX 14121 40039 32570 70000 10080 20034 40227 57011 84550 333 84630 87360
AAXX 14121 40066 32970 60706 10120 21006 40184 57008 83032 333 83360 86070
AAXX 14121 40072 32970 00000 10118 20027 40238 57024
AAXX 14121 40083 32570 51001 10180 21015 48498 57021 85800 333 82826 84630
AAXX 14124 61017 32960 51008 10228 21020 39761 40180 80002 333 0//00 58001 85080
AAXX 14124 61024 32960 31017 10255 21048 39593 40165 80002 333 0//00 59002 83080
AAXX 14124 61036 32965 50604 10295 21016 39898 40136 80001 333 0//00 59006 85080
AAXX 14124 61043 32960 51210 10280 21080 39699 40141 80002 333 0//00 59001 85080
AAXX 14124 61045 32965 71006 10263 21080 39648 40149 80008 333 0//00 58000 87280
AAXX 14124 61049 32960 50804 10260 21080 39819 40142 80002 333 0//00 58006 85080
AAXX 14124 61052 32960 31010 10289 21084 39892 40150 80002 333 0//00 58001 83080
AAXX 14124 61075 32960 51206 10292 21011 39823 40131 80002 333 0//00 59005 85080
AAXX 14124 61080 32960 70808 10265 21066 39729 40153 80008 333 0//00 58000 87280
AAXX 14124 61090 32965 50406 10262 21080 39634 40147 80002 333 0//00 58002 85080
AAXX 14124 61091 NIL
AAXX 14124 61096 32960 50406 10275 21080 39768 40151 80002 333 0//00 58006 85080
AAXX 14124 61099 32960 70806 10308 20026 39890 40118 80008 333 0//00 59009 87280
AAXX 14124 89002 41495 70927 11058 21076 39717 49771 52002 73633 8265/ 333 00934 11057 21078 92913
AAXX 14121 33301 32998 62003 10078 20044 39879 40159 58007 83031
AAXX 14121 33261 /1/04 91602 10021 20021 30017 40202 58004 75154 333 96045 555 69901
AAXX 14121 33562 31218 81803 10056 20049 39818 40180 58008 71022 886// 333 88703
AAXX 14121 34712 31658 71107 10027 20019 30159 40247 58009 71022 8253/
BBXX 4XFV 14123 99487 11509 41197 72835 00/// 11050 21070 40110 52030 77272 87/// 22253 0//// 2//// 3//// 4//// 5//// 6//// 81055
BBXX A8EH5 14121 99507 11585 41497 82810 11024 49975 52005 70371 8536/ 22263 00031 20403 3//// 4//// 5////
BBXX LAOX5 14121 99301 11733 41898 33021 00/// 10200 20110 40195 51015 70101 83121 22223 00210 20805 333 // 40805 5//// 6//// 80140
BBXX WDE9586 14123 99346 11666 43598 43112 10130 20070 40190 54000 7//// 844// 22224 00190 2//// 3//// 4//// 5//// 6//// 80100 ICE /////
BBXX 3FSB4 14124 99407 71705 43496 72930 10100 20060 49890 53030 7//// 87163 22224 00150 20311 3//// 4//// 5//// 6//// 80080 ICE /////
BBXX 3FZK3 14124 99538 71747 46/// /1920 10014 21017 49806 53047 7//// 8//// 22223 0//// 2////
BBXX 46035 14121 99571 71778 46/// /1116 1//// 49747 51058 91150 22200 11312 20809 300// 41308 70061 333 91218 555 11156 22167 31123 41120 61149 110156 110157 111158 112157 110157 105149 81118 91102
BBXX DFWV2 14124 99305 71619 41297 41825 10220 20190 40155 57015 70200 8/7// 22263 04200 2//06 3//// 4//// 5//// 80200
BBXX DMRX 14124 99460 71700 41/96 /3042 10045 20023 49750 53012 70222 8//// 22224 00090 2//// 80035
BBXX DQVG 14123 99322 71762 41297 63134 10192 20112 40020 52010 70162 85722 22264 20307 3//// 4//// 5//// 80148
BBXX SHIP 14123 99303 71683 41598 82423 10220 20210 40170 54000 70222 8//// 22223 00232 2//// 3//// 4//// 5//// 6//// 80210 ICE /////
BBXX SHIP 14124 99337 71612 41598 82225 10190 20180 40050 54000 70222 88070 22223 00200 2//// 3//// 4//// 5//// 6//// 80180 ICE 0////
BBXX WNGW 14124 99589 71521 41/97 /0725 10022 2//// 49990 57020 781// 8//// 22253 02044 2//// 304// 40605 5//// 6//// 8//// ICE /////
BBXX WRTF 14124 99513 71506 41498 42317 10058 20020 40058 52024 70211 84239 22214 00060 2//// 3//// 4//// 5//// 6//// 80042 ICE /////
BBXX C6SI6 14124 99337 11373 46/// /3312 10151 20035 40196 52006 7//// 8//// 22253 0//// 2////
BBXX DGDD 14121 99318 11323 41/97 33208 10170 20079 40200 53005 70111 83/// 22254 00220 2//// 3//// 4//// 5//// 80120
BBXX SHIP 14124 99364 11441 41697 71723 10150 20100 40168 57006 7//22 8777/ 22215 00250 20303 313// 40303 5//// 6//// 80120 ICE /////
BBXX V7DI8 14123 99337 11266 41497 22818 10100 20080 40250 51010 70300 8210/ 22253 00180 20403 333 // 40502 5//// 6//// 80090 ICE /////
BBXX 44139 14121 99442 70571 46/// /0515 10048 40183 52011 22200 00092 10605 70026 333 91218
BBXX 41037 14121 99340 70775 46/// /0306 10130 40248 55000 91200 22200 00194 333 91207
BBXX 42067 14121 99300 70886 46/// ///// 10125 20121 40248 91140 22200 00162 10501 70005
AAXX 14121 01025 17/84 02005 10035 21029 39773 49783 56008 6//// 700// 333 91110
AAXX 14121 26242 27257 81804 10033 20021 39952 40038 54000 71010 88/// 333 10033 20014 60007 88/05 91109 555 1/003 20014 3/001 50023 52001
AAXX 14121 01311 47162 82013 10063 20038 39623 49683 53020 781// 333 91122
AAXX 14121 01199 16/// /1309 11008 21021 39398 49856 57014 6//// 333 91112
AAXX 14124 62305 32960 02711 10179 20065 40232 57007
AAXX 14124 62306 32560 43112 10193 20113 40220 57016 84500
AAXX 14124 62318 32560 63509 10194 20107 40200 57014 83130
AAXX 14124 62337 NIL
AAXX 14124 62366 31540 83508 10185 20108 40189 57017 70520 8221/
AAXX 14124 62393 31957 53005 10186 20100 40180 57018 70520 80001
AAXX 14124 62405 31958 42702 10248 20091 40149 57027 70500 80002
AAXX 14124 62414 32960 00207 10278 20038 40143 57027
AAXX 14124 62417 32560 53104 10204 20096 40215 57022 84201
AAXX 14124 62419 32660 73405 10194 20111 40182 57020 8322/
AAXX 14124 62463 32960 63612 10217 20121 40157 57024 80008
AAXX 14124 62465 32960 63610 10226 20126 40150 57020 80008
AAXX 14121 48820 32798 70000 10209 20126 30170 40178 52016 875// 333 00020 10233 58003 70000 87697
AAXX 14121 48823 32497 80000 10207 20134 30173 40176 51009 888// 333 00020 10223 59004 70000 86894 88696
BBXX 9V9243 14123 99338 10265 41597 32812 10190 40215 57012 70200 821/1 22233 00200 20301 329// 40402
AAXX 14124 71736 46/// ///// 11029 21081 6///1 333 11018 21043 4/007 7////
AAXX 14124 71742 46/// /2905 11104 21128 30071 40265 51002 6///1 333 11037 21126 7////
AAXX 14124 71744 16/// /0103 11018 21055 30263 40305 52015 60001 333 10015 21018 4/001 70000
AAXX 14124 71747 46/// /1704 10007 21001 39683 40162 5/024 6///1 333 10014 21036 4/005 7////
AAXX 14124 71216 16/// /0903 11021 21047 39588 40215 50012 60001 333 11011 21023 4/002 70000 555 10010
AAXX 14124 71243 16/// /3509 11005 21066 39063 40160 51045 60001 333 11006 21030 70000
AAXX 14124 71246 16/// /3201 11094 21116 39469 40143 51027 60001 333 11028 21094 70006
AAXX 14124 71311 16/// /0110 11004 21046 30256 40281 52023 60001 333 10072 21004 70005
AAXX 14124 71317 16/// /0309 10002 21038 30219 40267 51024 60001 333 10038 20001 70000
AAXX 14124 71320 17/// /1024 11132 21145 39838 49840 58012 69931 7//4/ 333 11130 21149 4/066 70003 555 10270
AAXX 14124 71323 16/// /2601 11025 21029 30003 40291 53010 60001 333 10003 21029 70000
AAXX 14124 71334 46/// /0107 11163 21199 39780 40114 53014 6///1 333 11037 21163 7////
AAXX 14124 71450 16/// /2403 11068 21082 39365 40091 55002 60001 333 11042 21079 70000
AAXX 14124 71454 16/// /1603 11062 21080 39362 40058 58016 60001 333 11041 21076 55/// 20000 70000
AAXX 14124 71455 46/// /3106 11092 21098 39284 40094 55000 6///1 333 11040 21092 7////
AAXX 14124 71456 16/// /2109 11063 21072 39478 40082 56013 60001 333 11054 21068 70000
AAXX 14124 71465 46/// /1807 10049 20037 30040 40259 56004 6///1 333 10061 20048 7////
AAXX 14124 71470 16/// /2823 11295 21325 39498 40158 51013 60001 333 11112 21308 70005
AAXX 14124 71475 16/// /1409 10002 20000 30113 40208 58002 60001 333 10010 21004 70012
AAXX 14124 71476 46/// /0521 30167 58008 6///1 333 7////
AAXX 14124 71478 16/// /0912 10055 20052 30019 40156 58013 60001 333 10081 20045 70050
AAXX 14124 71479 16/// /1918 10075 20074 30037 40158 50000 60001 333 10059 20051 70000
AAXX 14124 71480 16/// /1404 11203 21228 30079 40206 50005 60001 333 11104 21243 4/018 70000
AAXX 14124 71482 46/// /0515 10026 30145 40183 58003 6///1 333 10050 20020 7////
AAXX 14124 71484 16/// /0702 10015 20002 30144 40163 58012 60001 333 10060 20015 70000
AAXX 14124 71487 16/// /1503 11077 21086 39208 40084 56014 60001 333 11045 21077 70000
AAXX 14124 71492 46/// ///07 11322 21355 39455 40196 51007 6///1 333 11264 21336 4/012 7////
AAXX 14124 71133 46/// /2510 11056 21096 39343 40054 55011 6///1 333 11039 21076 7////
AAXX 14124 71139 16/// /3204 11081 21091 38605 40081 53012 60001 333 11082 21111 70000
AAXX 14124 71141 16/// /0128 11191 21208 39867 49893 51025 60001 333 11167 21191 4/004 70000
AAXX 14124 71147 16/// /1707 11025 21039 60001 333 11027 21040 70000
AAXX 14124 71066 11548 83413 11107 21147 39737 40168 52030 69981 77177 885// 333 11044 21117 44017 70012 90973 93101
AAXX 14124 71551 16/// /3103 11071 21080 39427 40099 55002 60001 333 11014 21090 70000
AAXX 14124 71553 16/// /2406 11070 21077 60001 333 11059 21078 70000
AAXX 14124 71577 46/// /2206 11030 21039 6///1 333 11027 21047 7////
AAXX 14124 71579 16/// /2204 11024 21043 39829 40115 58022 60001 333 11016 21033 70000
AAXX 14124 71581 16/// /0801 10004 20001 39780 40270 58003 60001 333 10024 20001 4/002 70000
AAXX 14124 71585 17/// /3310 11075 21081 39646 40110 53027 60031 7//4/ 333 11013 21075 4/014 70034 555 10040
AAXX 14124 71669 16/// /1001 11027 21080 38509 40132 53020 60001 333 10018 21027 70000
AAXX 14124 71501 16/// /1111 11260 21287 30187 40189 58007 60001 333 11224 21268 4/052 70000
AAXX 14124 71512 16/// /3603 11172 21189 30291 40306 56003 60001 333 11082 21174 70000
AAXX 14124 71522 46/// /1601 11139 21161 39803 40312 55000 6///1 333 11038 21150 70000
AAXX 14124 71472 16/// /1306 10028 21008 30151 40169 56011 60001 333 10057 20022 70006
AAXX 14124 71510 16/// /2605 11082 21100 39368 40086 54000 60001 333 11022 21100 70000
AAXX 14124 71120 11574 63013 11025 21056 39416 40076 53015 69901 73671 86500 333 11019 21066 44004 79999 90962
AAXX 14124 71621 11924 70403 11008 21010 30171 40279 58002 60001 710// 87070 333 10064 21008 79999
AAXX 14124 71631 16/// /1603 11003 21020 39753 40261 56008 60001 333 10039 21006 70000
AAXX 14124 71719 16/// /0112 11021 21053 30299 40305 53013 60001 333 10018 21021 4/001 70004 555 10010
AAXX 14124 71074 46/// ///00 11371 21409 39999 6///1 333 4/013 7////
AAXX 14124 71087 46/// /0402 11157 21197 39992 40203 51018 6///1 333 10010 21157 7////
AAXX 14124 71858 16/// /2003 11048 21063 39811 40094 57014 60001 333 11039 21048 70000
AAXX 14124 71861 46/// /2206 11071 21078 39364 40099 58014 6///1 333 11056 21074 4/001 7////
AAXX 14124 71894 17/// /1011 10060 20060 30176 40185 58002 60021 7//4/ 333 10051 20043 70044
AAXX 14124 71915 11332 82918 11152 21162 39756 49836 51005 60031 77173 885// 333 11068 21152 48045 55/// 70090 90983 93103
AAXX 14124 71155 16/// ///// 11043 21058 60001 333 11014 21080 70000
AAXX 14124 71156 16/// /2703 11052 21092 39048 40162 51024 60001 333 10003 21072 4/014 70000
AAXX 14124 71158 16/// /2203 11055 21065 39832 40111 56017 60001 333 11061 21073 70000
AAXX 14124 71159 16/// /0702 11127 21157 30205 40280 53013 60001 333 11004 21130 70000
AAXX 14124 71160 16/// /1103 11277 21306 39966 40192 51022 60001 333 11013 21280 4/031 70000
AAXX 14124 71162 16/// /3610 11218 21250 39970 40189 51020 60001 333 10000 21219 70000
AAXX 14124 71164 46/// /0703 11309 21344 30151 40237 50000 6///1 333 11150 21327 7////
AAXX 14124 71166 46/// /0102 39558 53019 6///1 333 7////
AAXX 14124 71172 16/// ///// 10002 20000 30033 40253 56005 60001 333 10050 20002 4/006 70000
AAXX 14124 71402 46/// /3412 11059 21125 30140 40258 55002 6///1 333 11046 21066 7////
AAXX 14124 71437 46/// /2401 10042 20005 30170 40266 56008 6///1 333 10080 20041 7////
AAXX 14124 71446 16/// /2608 11080 21098 39093 40085 53004 60001 333 11062 21084 70003
AAXX 14124 71356 16/// /2930 11261 21288 39941 40009 51009 60001 333 11058 21262 4/006 70006
AAXX 14124 71357 16/// /0901 11257 21283 30003 40010 58020 60001 333 11191 21275 4/045 70000
AAXX 14124 71363 16/// /3025 11160 21176 39728 49781 53003 60001 333 11137 21190 70000
AAXX 14124 71364 16/// /0905 11280 21315 30065 40207 58004 60001 333 11195 21292 4/018 70000
AAXX 14124 71365 16/// /3407 11167 21196 39978 40198 51013 60001 333 10030 21168 4/018 70000
AAXX 14124 71373 16/// /0000 11002 21010 60001 333 10019 21003 70000
AAXX 14124 71376 16/// /0000 11003 21003 39993 40292 50003 60001 333 10016 21004 70020
AAXX 14124 71381 46/// /2301 11049 21071 6///1 333 21052 70000
AAXX 14124 71384 16/// /3303 10001 21038 30297 40305 53007 60001 333 10023 21002 70000
AAXX 14124 71392 16/// /0705 11003 21023 60001 333 10006 21006 70000
AAXX 14124 71393 16/// ///// 11027 21055 38862 40147 53027 60001 333 10034 21054 4/009 70000
AAXX 14124 71885 16/// ///// 11008 60001 333 10002 21028 70000
AAXX 14124 71886 16/// /2006 11062 21067 39482 40096 57018 60001 333 21066 4/007 7////
AAXX 14124 71807 16/// /0419 11042 21091 30221 40240 55002 60001 333 10028 21043 70000
AAXX 14124 71758 17/// /0312 11003 21019 30173 40252 52017 69931 7//4/ 333 21003 7////
AAXX 14124 71770 16/// /1403 11032 21052 39437 40225 50010 60001 333 11020 21032 70000
AAXX 14124 71771 46/// /2706 10016 20007 30150 40171 56009 6///1 333 10056 20016 7////
AAXX 14124 71920 16/// /3506 10004 21008 30243 40249 52017 60001 333 10096 20000 70000
AAXX 14124 71837 16/// ///// 11027 60001 333 11018 21067 70000
AAXX 14124 71959 16/// ///// 10003 21033 60001 333 10057 20002 70006
AAXX 14124 71970 16/// /2611 11039 21075 39466 40055 55006 60001 333 11036 21061 70000
AAXX 14124 71977 46/// /0000 11285 21285 39423 40173 56003 6///1 333 11154 21305 4/025 7////
AAXX 14124 71978 46/// /2103 11291 21320 39833 40165 58006 6///1 333 11202 21321 4/001 7////
AAXX 14124 71989 16/// /0603 11298 21328 30087 40104 58003 60001 333 11318 21351 70000
AAXX 14124 71250 16/// /0110 11052 21100 30084 40223 57011 60001 333 10008 21055 70000
AAXX 14124 71268 11/00 90000 10008 20008 39843 40253 56010 60001 7454/ 333 10021 20008 79999
AAXX 14124 71270 16/// /2102 11006 21031 30041 40264 55002 60001 333 10073 21010 70000
AAXX 14124 71291 16/// /3401 11021 21028 39898 40192 58026 60001 333 11032 21040 4/009 55/// 20000 70000
AAXX 14124 71295 16/// /1502 11007 21014 39686 40136 56026 60001 333 11028 21060 4/009 55/// 20000 70000
AAXX 14124 71296 16/// /1403 11014 21031 39955 40267 55004 60001 333 10077 70000
AAXX 14124 71015 16/// ///// 11020 60001 333 11006 21069 70006
AAXX 14124 71017 16/// /3511 11254 21280 30037 40052 51015 60001 333 11214 21258 70000
AAXX 14124 71018 16/// ///20 11249 21277 39928 40017 55000 60001 333 11222 21277 4/001 70051
AAXX 14124 71020 46/// /0102 11134 21154 39910 40170 51012 6///1 333 10044 21134 4/010 7//// 555 10010
AAXX 14124 71021 46/// /0000 11118 21150 39811 40168 51011 6///1 333 10031 21120 4/004 7//// 555 10010
AAXX 14120 67695 31680 43006 10310 20184 71792 83930 333 81935 83840 84360 555 10319 29046
AAXX 14120 67699 41680 51303 10334 20203 70198 85333 333 81935 85840 555 10336 29047
AAXX 14124 71120 11574 63013 11025 21056 39416 40076 53015 69901 73671 86500 333 11019 21066 44004 79999 90962
AAXX 14124 71807 16/// /0419 11042 21091 30221 40240 55002 60001 333 10028 21043 70000
AAXX 14124 71894 17/// /1011 10060 20060 30176 40185 58002 60021 7//4/ 333 10051 20043 70044
AAXX 14124 71915 11332 82918 11152 21162 39756 49836 51005 60031 77173 885// 333 11068 21152 48045 55/// 70090 90983 93103
AAXX 14124 91753 04986 /0605 10266 20220 30078 40110 58004 60001 700// 333 60007 90710 91108 555 60005
AAXX 14124 91754 06/// /0502 10264 20222 30067 40108 58004 60001 333 10316 55117 2//// 59005 60007 555 60005
AAXX 14124 71066 11548 83413 11107 21147 39737 40168 52030 69981 77177 885// 333 11044 21117 44017 70012 90973 93101
AAXX 14124 71621 11924 70403 11008 21010 30171 40279 58002 60001 710// 87070 333 10064 21008 79999
AAXX 14124 71631 16/// /1603 11003 21020 39753 40261 56008 60001 333 10039 21006 70000
AAXX 14124 71719 16/// /0112 11021 21053 30299 40305 53013 60001 333 10018 21021 4/001 70004 555 10010
AAXX 14124 71858 16/// /2003 11048 21063 39811 40094 57014 60001 333 11039 21048 70000
AAXX 14124 71861 46/// /2206 11071 21078 39364 40099 58014 6///1 333 11056 21074 4/001 7////
AAXX 14124 71311 16/// /0110 11004 21046 30256 40281 52023 60001 333 10072 21004 70005
AAXX 14124 71317 16/// /0309 10002 21038 30219 40267 51024 60001 333 10038 20001 70000
AAXX 14124 71320 17/// /1024 11132 21145 39838 49840 58012 69931 7//4/ 333 11130 21149 4/066 70003 555 10270
AAXX 14124 71323 16/// /2601 11025 21029 30003 40291 53010 60001 333 10003 21029 70000
AAXX 14124 71334 46/// /0107 11163 21199 39780 40114 53014 6///1 333 11037 21163 7////
AAXX 14124 71551 16/// /3103 11071 21080 39427 40099 55002 60001 333 11014 21090 70000
AAXX 14124 71553 16/// /2406 11070 21077 60001 333 11059 21078 70000
AAXX 14124 71577 46/// /2206 11030 21039 6///1 333 11027 21047 7////
AAXX 14124 71579 16/// /2204 11024 21043 39829 40115 58022 60001 333 11016 21033 70000
AAXX 14124 71581 16/// /0801 10004 20001 39780 40270 58003 60001 333 10024 20001 4/002 70000
AAXX 14124 71585 17/// /3310 11075 21081 39646 40110 53027 60031 7//4/ 333 11013 21075 4/014 70034 555 10040
AAXX 14124 71450 16/// /2403 11068 21082 39365 40091 55002 60001 333 11042 21079 70000
AAXX 14124 71454 16/// /1603 11062 21080 39362 40058 58016 60001 333 11041 21076 55/// 20000 70000
AAXX 14124 71455 46/// /3106 11092 21098 39284 40094 55000 6///1 333 11040 21092 7////
AAXX 14124 71456 16/// /2109 11063 21072 39478 40082 56013 60001 333 11054 21068 70000
AAXX 14124 71465 46/// /1807 10049 20037 30040 40259 56004 6///1 333 10061 20048 7////
AAXX 14124 71470 16/// /2823 11295 21325 39498 40158 51013 60001 333 11112 21308 70005
AAXX 14124 71475 16/// /1409 10002 20000 30113 40208 58002 60001 333 10010 21004 70012
AAXX 14124 71476 46/// /0521 30167 58008 6///1 333 7////
AAXX 14124 71478 16/// /0912 10055 20052 30019 40156 58013 60001 333 10081 20045 70050
AAXX 14124 71479 16/// /1918 10075 20074 30037 40158 50000 60001 333 10059 20051 70000
AAXX 14124 71480 16/// /1404 11203 21228 30079 40206 50005 60001 333 11104 21243 4/018 70000
AAXX 14124 71482 46/// /0515 10026 30145 40183 58003 6///1 333 10050 20020 7////
AAXX 14124 71484 16/// /0702 10015 20002 30144 40163 58012 60001 333 10060 20015 70000
AAXX 14124 71487 16/// /1503 11077 21086 39208 40084 56014 60001 333 11045 21077 70000
AAXX 14124 71492 46/// ///07 11322 21355 39455 40196 51007 6///1 333 11264 21336 4/012 7////
AAXX 14124 13610 12760 81801 10108 20047 39800 40224 54002 60001 885// 333 88650
AAXX 14124 71501 16/// /1111 11260 21287 30187 40189 58007 60001 333 11224 21268 4/052 70000
AAXX 14124 71512 16/// /3603 11172 21189 30291 40306 56003 60001 333 11082 21174 70000
AAXX 14124 71522 46/// /1601 11139 21161 39803 40312 55000 6///1 333 11038 21150 70000
AAXX 14124 13622 12665 40000 10162 20089 30219 40226 54004 60001 84500 333 84640
BBXX SBLI 14121 99300 71438 43/98 70807 10179 40270 58010 22264 00200 2//// 4//// 426621110
BBXX SBLW 14123 99317 70413 43/98 41621 10214 40242 53006 22254 00221 2//// 4////
AAXX 14124 13619 11550 80000 10064 20051 39468 42847 52009 60001 71021 885// 333 88630
AAXX 14124 13624 12670 11804 10166 20070 30183 40222 54004 60001 81200 333 81840
AAXX 14124 71133 46/// /2510 11056 21096 39343 40054 55011 6///1 333 11039 21076 7////
AAXX 14124 71139 16/// /3204 11081 21091 38605 40081 53012 60001 333 11082 21111 70000
AAXX 14124 71141 16/// /0128 11191 21208 39867 49893 51025 60001 333 11167 21191 4/004 70000
AAXX 14124 71147 16/// /1707 11025 21039 60001 333 11027 21040 70000
AAXX 14124 64500 11460 42408 10285 20242 30099 40112 69901 70196 84200 333 0//56 58009 84815 94912 95832
AAXX 14124 64507 32460 8//// 10287 20265 3//// 40/// 885// 333 0//00 5//// 83611 88626 81916 94947 95837
AAXX 14124 64550 32470 6//// 10300 20249 30/// 40/// 86800 333 0//00 5//// 83816 86630 94939 95839
AAXX 14124 64551 32470 71808 10305 20226 30077 40106 878// 333 0//00 59001 83815 87646 94941 95831
AAXX 14124 64556 32465 6//// 10291 20221 39522 40101 86200 333 0//00 58005 86815 94929 95839
AAXX 14124 64570 32565 62802 10287 20226 39603 40105 86200 333 0//00 58003 86820 94919 95839
AAXX 14124 13611 12665 21410 10156 20084 30112 40202 54003 60001 82200 333 82840
AAXX 14124 71216 16/// /0903 11021 21047 39588 40215 50012 60001 333 11011 21023 4/002 70000 555 10010
AAXX 14124 71243 16/// /3509 11005 21066 39063 40160 51045 60001 333 11006 21030 70000
AAXX 14124 71246 16/// /3201 11094 21116 39469 40143 51027 60001 333 11028 21094 70006
AAXX 14124 71669 16/// /1001 11027 21080 38509 40132 53020 60001 333 10018 21027 70000
AAXX 14124 71736 46/// ///// 11029 21081 6///1 333 11018 21043 4/007 7////
AAXX 14124 71742 46/// /2905 11104 21128 30071 40265 51002 6///1 333 11037 21126 7////
AAXX 14124 71744 16/// /0103 11018 21055 30263 40305 52015 60001 333 10015 21018 4/001 70000
AAXX 14124 71747 46/// /1704 10007 21001 39683 40162 5/024 6///1 333 10014 21036 4/005 7////
BBXX SLCO 14124 99229 11339 43/97 80612 10247 40172 53006 22234 00242 2//// 4////
AAXX 14124 71472 16/// /1306 10028 21008 30151 40169 56011 60001 333 10057 20022 70006
AAXX 14124 71510 16/// /2605 11082 21100 39368 40086 54000 60001 333 11022 21100 70000
AAXX 14124 13625 11/59 93202 10076 20051 30009 40244 54004 60001 74544
AAXX 14124 13600 12660 80000 10104 20081 30180 40233 54002 60001 8355/ 333 83640 85360
AAXX 14123 63684 31580 72109 10239 20181 38824 48/// 71792 8697/ 333 58022 86820 81925 87362 555 10201
AAXX 14124 13601 12662 42204 10162 20101 30105 40205 57007 60001 84230 333 84840
AAXX 14124 13623 11960 73202 10116 20109 30223 40229 54002 60001 70341 87030 333 87360
AAXX 14124 84202 31670 80000 10224 20189 30152 70542 8551/ 333 10302 20224 59008 555 30080
AAXX 14124 84135 32575 80000 10225 20193 30066 886// 333 10317 20214 59005 555 30082
AAXX 14124 84204 31665 80000 10234 20187 70544 8451/ 333 10327 20230 555 30075
AAXX 14124 84008 32456 71408 10223 20200 30120 40130 82630 00181 333 10277 20223 59002 555 30087 40177
AAXX 14124 84076 11201 80000 10113 20108 60064 75152 8372/ 333 10206 20110 30119 555 10062 30097
AAXX 14124 84270 11/20 90000 10134 20120 60234 74646 89/// 333 10230 20130 555 10231 30091
AAXX 14124 84088 11110 80000 10080 20077 37066 60074 75052 887// 333 10168 20080 30084 59005 555 10074 30098
AAXX 14124 84050 11360 83602 10213 20209 69934 75156 887// 333 10267 20213 555 10003 30097
AAXX 14124 84179 11410 80000 10194 20189 39061 60114 76362 8372/ 333 10272 20192 58005 555 10105 30097
AAXX 14124 84142 11120 80000 10162 20156 60034 75066 887// 333 10196 20155 555 10032 30096
AAXX 14124 84140 11330 80000 10221 20217 30031 40116 60014 71055 886// 333 10298 20219 59005 555 10012 30097
AAXX 14124 84036 11568 80402 10100 20097 60234 74022 8801/ 333 10181 20074 555 10229 30098
AAXX 14124 84072 11258 80000 10104 20096 37301 60244 75066 8672/ 333 10182 20100 59001 555 10243 30095
AAXX 14124 84143 11465 80000 10102 20097 37406 60074 72162 8377/ 333 10183 20098 30080 58001 555 10065 30097
AAXX 14124 84160 11320 80000 10097 20094 37266 60084 75156 887// 333 10192 20094 59001 555 10082 30098
AAXX 14124 84105 32458 80000 10219 20208 31001 8651/ 333 10270 20219 59001 555 30094
AAXX 14124 84132 11265 80000 10230 20226 39880 60044 76166 8687/ 333 10316 20228 58002 555 10043 30097
AAXX 14124 84056 11/00 90000 10090 20090 60074 74744 89/// 333 10200 20090 555 10071 30100
AAXX 14124 71356 16/// /2930 11261 21288 39941 40009 51009 60001 333 11058 21262 4/006 70006
AAXX 14124 71357 16/// /0901 11257 21283 30003 40010 58020 60001 333 11191 21275 4/045 70000
AAXX 14124 71363 16/// /3025 11160 21176 39728 49781 53003 60001 333 11137 21190 70000
AAXX 14124 71364 16/// /0905 11280 21315 30065 40207 58004 60001 333 11195 21292 4/018 70000
AAXX 14124 71365 16/// /3407 11167 21196 39978 40198 51013 60001 333 10030 21168 4/018 70000
AAXX 14124 71373 16/// /0000 11002 21010 60001 333 10019 21003 70000
AAXX 14124 71376 16/// /0000 11003 21003 39993 40292 50003 60001 333 10016 21004 70020
AAXX 14124 71381 46/// /2301 11049 21071 6///1 333 21052 70000
AAXX 14124 71384 16/// /3303 10001 21038 30297 40305 53007 60001 333 10023 21002 70000
AAXX 14124 71392 16/// /0705 11003 21023 60001 333 10006 21006 70000
AAXX 14124 71393 16/// ///// 11027 21055 38862 40147 53027 60001 333 10034 21054 4/009 70000
AAXX 14124 71015 16/// ///// 11020 60001 333 11006 21069 70006
AAXX 14124 71017 16/// /3511 11254 21280 30037 40052 51015 60001 333 11214 21258 70000
AAXX 14124 71018 16/// ///20 11249 21277 39928 40017 55000 60001 333 11222 21277 4/001 70051
AAXX 14124 71020 46/// /0102 11134 21154 39910 40170 51012 6///1 333 10044 21134 4/010 7//// 555 10010
AAXX 14124 71021 46/// /0000 11118 21150 39811 40168 51011 6///1 333 10031 21120 4/004 7//// 555 10010
AAXX 14124 71758 17/// /0312 11003 21019 30173 40252 52017 69931 7//4/ 333 21003 7////
AAXX 14124 71770 16/// /1403 11032 21052 39437 40225 50010 60001 333 11020 21032 70000
AAXX 14124 71771 46/// /2706 10016 20007 30150 40171 56009 6///1 333 10056 20016 7////
AAXX 14124 71402 46/// /3412 11059 21125 30140 40258 55002 6///1 333 11046 21066 7////
AAXX 14124 71437 46/// /2401 10042 20005 30170 40266 56008 6///1 333 10080 20041 7////
AAXX 14124 71446 16/// /2608 11080 21098 39093 40085 53004 60001 333 11062 21084 70003
AAXX 14124 71920 16/// /3506 10004 21008 30243 40249 52017 60001 333 10096 20000 70000
AAXX 14124 71837 16/// ///// 11027 60001 333 11018 21067 70000
AAXX 14124 71885 16/// ///// 11008 60001 333 10002 21028 70000
AAXX 14124 71886 16/// /2006 11062 21067 39482 40096 57018 60001 333 21066 4/007 7////
AAXX 14124 71074 46/// ///00 11371 21409 39999 6///1 333 4/013 7////
AAXX 14124 71087 46/// /0402 11157 21197 39992 40203 51018 6///1 333 10010 21157 7////
AAXX 14124 71250 16/// /0110 11052 21100 30084 40223 57011 60001 333 10008 21055 70000
AAXX 14124 71268 11/00 90000 10008 20008 39843 40253 56010 60001 7454/ 333 10021 20008 79999
AAXX 14124 71270 16/// /2102 11006 21031 30041 40264 55002 60001 333 10073 21010 70000
AAXX 14124 71291 16/// /3401 11021 21028 39898 40192 58026 60001 333 11032 21040 4/009 55/// 20000 70000
AAXX 14124 71295 16/// /1502 11007 21014 39686 40136 56026 60001 333 11028 21060 4/009 55/// 20000 70000
AAXX 14124 71296 16/// /1403 11014 21031 39955 40267 55004 60001 333 10077 70000
AAXX 14124 71959 16/// ///// 10003 21033 60001 333 10057 20002 70006
AAXX 14124 71970 16/// /2611 11039 21075 39466 40055 55006 60001 333 11036 21061 70000
AAXX 14124 71977 46/// /0000 11285 21285 39423 40173 56003 6///1 333 11154 21305 4/025 7////
AAXX 14124 71978 46/// /2103 11291 21320 39833 40165 58006 6///1 333 11202 21321 4/001 7////
AAXX 14124 71989 16/// /0603 11298 21328 30087 40104 58003 60001 333 11318 21351 70000
AAXX 14124 71155 16/// ///// 11043 21058 60001 333 11014 21080 70000
AAXX 14124 71156 16/// /2703 11052 21092 39048 40162 51024 60001 333 10003 21072 4/014 70000
AAXX 14124 71158 16/// /2203 11055 21065 39832 40111 56017 60001 333 11061 21073 70000
AAXX 14124 71159 16/// /0702 11127 21157 30205 40280 53013 60001 333 11004 21130 70000
AAXX 14124 71160 16/// /1103 11277 21306 39966 40192 51022 60001 333 11013 21280 4/031 70000
AAXX 14124 71162 16/// /3610 11218 21250 39970 40189 51020 60001 333 10000 21219 70000
AAXX 14124 71164 46/// /0703 11309 21344 30151 40237 50000 6///1 333 11150 21327 7////
AAXX 14124 71166 46/// /0102 39558 53019 6///1 333 7////
AAXX 14124 71172 16/// ///// 10002 20000 30033 40253 56005 60001 333 10050 20002 4/006 70000
AAXX 14121 48855 01597 83401 10210 20183 30147 40155 53012 69904 72162 889// 333 01020 10229 59012 69902 7999 9 81995 85895 88697
AAXX 14121 48848 32597 83202 10189 20142 30165 40173 51012 888// 333 00018 10206 59006 70000 82895 88697
AAXX 14121 33415 31596 71404 10060 20046 39772 40171 58005 71042 84531 333 84620
AAXX 14124 41241 32960 13507 10265 20071 30136 40171 80001 333 58008 81070
AAXX 14124 41242 36/// /0206 10250 20099 30165 40189 333 0E017 58003
AAXX 14124 41244 36/// /2506 10268 20045 39820 48233 333 0E014 59001
AAXX 14124 41246 32960 00609 10250 20162 30169 40173 333 58003
AAXX 14124 41251 32967 22104 10164 21021 38051 48131 80001 333 58003 82075
AAXX 14124 41252 36/// /2706 10277 20047 39789 40079 333 0E016 58001
AAXX 14124 41253 36/// /0106 10255 20141 39798 40181 333 0E016 58003
AAXX 14124 41254 NIL
AAXX 14124 41255 32960 01603 10286 20012 39629 40138 333 58004
AAXX 14124 41256 32960 00306 10245 20149 30165 40175 333 58005
AAXX 14124 41257 36/// /1206 10250 20158 39689 40178 333 0E015 58004
AAXX 14124 41258 NIL
AAXX 14124 41259 NIL
AAXX 14124 41262 NIL
AAXX 14124 41263 36/// /2204 10274 21031 39488 40179 333 0E012 58003
AAXX 14124 41264 36/70 /2203 10289 20027 39781 40141 333 0E017 58003
AAXX 14124 41265 36/// /1504 10278 20090 39621 40173 333 0E021 58005
AAXX 14124 41267 35/80 /3510 10245 20147 30158 40174 333 0E021 58010
AAXX 14124 41268 32560 13611 10251 20160 30156 40172 81500 91210 333 58010 81625
AAXX 14124 41270 NIL
AAXX 14124 41275 NIL
AAXX 14124 41287 36/// /0812 10266 20158 30118 40185 333 0E017 58004
AAXX 14124 41288 32460 70913 10261 20175 30144 40166 85501 333 58003 85610 83070
AAXX 14124 41290 NIL
AAXX 14124 41295 36/// /0206 10259 20121 39979 40156 333 0E018 58005
AAXX 14124 41304 NIL
AAXX 14124 41312 36/// /0110 10273 20057 30111 40149 333 0E/// 58004
AAXX 14124 41314 31958 49906 10213 20057 39676 40181 70600 80001 333 58005 84075
AAXX 14124 41315 36/// /516 10178 20050 39173 42811 333 0E/// 58009
AAXX 14124 41316 31959 53514 10267 20051 30127 40154 70600 80001 333 58004 85075
AAXX 14124 40550 35/70 /0206 10195 21073 40214 56017 333 0/022 55306 00319 10000 21058 30329 41082 51501 61387 55407 40729 90069 90400 91011 91117 91207 91305
AAXX 14124 40551 36/// /2910 10187 21060 333 0//// 90400 91011 91117 91213 91311
AAXX 14124 40552 35/70 /3209 10188 21060 40214 56016 333 0/021 55309 90069 90401 91011 91119 91215 91313
AAXX 14124 40553 35/70 /3309 10192 21061 40211 56019 333 0/021 55307 90069 90400 91011 91119 91215 91311
AAXX 14124 40568 36/// /3211 10203 21077 333 0//// 90400 91013 91117 91215 91311
AAXX 14124 40569 NIL
AAXX 14124 40570 35/70 /3506 10179 21069 40215 56022 333 0/021 55307 90069 90400 91009 91111 91209 91305
AAXX 14124 40571 NIL
AAXX 14124 40572 NIL
AAXX 14124 40573 36/// /3507 10176 21070 333 0//// 90400 91007 91115 91209 91307
AAXX 14124 40580 46/// /3204 10203 21051 333 0/028 553// 00573 10000 21400 30268 41004 51573 61667 55407 41132 90401 91007 91111 91205 91303
AAXX 14124 40581 36/// /0203 10199 21022 333 0//// 90401 91005 91111 91203 91303
AAXX 14124 40582 32960 53508 10198 21080 40213 56019 80002 333 00023 55300 00582 10000 21480 30476 41123 51552 61956 55407 41005 85070 90401 91011 91115 91211 91307
AAXX 14124 40583 NIL
AAXX 14124 40585 36/// /3204 10186 21019 222// 1//// 3//// 4//// 70/// 333 0//// 90400 91009 91121 91213 91309
AAXX 14124 40586 36/// /3403 10203 21073 333 0//// 90401 91007 91111 91203 91303
AAXX 14124 40587 36/// /3306 10207 21078 333 0/025 553// 00569 10000 21435 30375 41024 51522 61809 55407 41060 90400 91009 91113 91207 91305
AAXX 14124 40588 35/70 /3508 10177 20027 40213 56016 333 0/020 55300 90069 90401 91011 91119 91213 91311
AAXX 14124 40589 NIL
AAXX 14124 40590 36/// /3509 10190 21085 333 0//// 90400 91011 91117 91211 91309
AAXX 14124 40591 NIL
AAXX 14124 40592 35/70 /3507 10201 21083 40212 56017 333 0/021 55310 00797 10000 21497 30257 41038 51485 61755 55407 41240 90069 90401 91013 91115 91209 91307
AAXX 14124 40593 36/// /0408 10163 20077 333 0//// 90400 91009 91115 91211 91309
AAXX 14124 40594 36/// /0407 10175 20066 333 0//// 90401 91013 91115 91207 91305
AAXX 14124 40596 36/// /3314 10167 20050 333 0//// 90400 91019 91123 91217 91313
AAXX 14124 41024 32960 02310 10280 20180 30097 40116 333 59002
AAXX 14124 41030 32660 10000 10332 20160 39840 40109 81100 333 59002 81840
AAXX 14124 41036 32560 33606 10244 21050 38567 48516 83100 333 59005 83830 555 04410 50130
AAXX 14124 41055 32960 01012 10220 21050 38369 48517 333 59007 555 04410 50152
AAXX 14124 41061 32960 01010 10220 20040 39473 40188 333 59010
AAXX 14124 41084 32960 00306 10240 21030 38873 48524 333 59008 555 04410 50149
AAXX 14124 41112 32960 01606 10212 21090 37949 48522 333 59001 555 04410 50164
AAXX 14124 41114 32960 03606 10211 21060 37981 48519 333 58000 555 04410 50162
AAXX 14124 41128 32960 01208 10225 21050 38837 48537 333 59007 555 04410 50184
AAXX 14124 41136 32960 00607 10214 21020 39359 40191 333 59002
AAXX 14124 41140 32960 02311 10300 20210 30114 40123 333 58003
AAXX 14124 40356 32960 61406 10170 21020 39200 48508 86020 333 59020 86460 555 04410 50177
AAXX 14124 40357 32660 51109 10167 20020 39550 40193 82540 333 59023 82640 85360
AAXX 14124 40360 32960 60906 10154 20000 39580 40165 80006 333 59026 86270
AAXX 14124 40361 32960 30603 10232 21040 39401 40167 80008 333 59029
AAXX 14124 40362 32960 31311 10215 21010 39679 40198 80001 333 59025 83070
AAXX 14124 40373 32960 00602 10200 21010 39785 40209 333 59012
AAXX 14124 40375 31958 63603 19222 21020 39276 40148 70600 80002 333 59021 86070
AAXX 14124 40377 32960 01304 10198 20030 39729 40217 333 59012
AAXX 14124 40394 NIL
AAXX 14124 40400 32960 23012 10263 20160 30114 40142 80001 333 59010 82070
AAXX 14124 40401 31959 21805 10260 21090 39458 40136 70600 80001 333 59015 82070
AAXX 14124 40405 NIL
AAXX 14124 40416 32960 03410 10220 20140 30162 40182 333 59006
AAXX 14124 40417 32960 03212 10209 20020 30186 40201 333 59007
AAXX 14124 40420 32960 03408 10205 20010 39991 40203 333 59005
AAXX 14124 40430 32960 00610 10264 21020 39434 40150 333 59012
AAXX 14124 40435 32960 00000 10230 20020 39147 40172 333 59009
AAXX 14124 40437 32960 00105 10204 21010 39499 40213 333 59009
AAXX 14124 40439 32960 02411 10294 20050 30109 40119 333 59008
AAXX 14124 04211 45/84 /0804 11119 21129 39858 40022 54000
AAXX 14124 04220 07584 31915 11079 21107 39984 40037 52005 69961 72487 333 55300 20004 69947 81/28 83/44
AAXX 14124 04221 47684 81017 11100 21166 39995 40034 57003 72477 333 83/39 88/46
AAXX 14124 04231 11684 70702 11157 21187 39983 40060 57003 69921 72277 87500 333 87647
AAXX 14124 04234 47547 80000 11087 21130 30035 40045 57005 77177 333 88/21
AAXX 14124 04241 47425 80604 11094 21112 30008 40049 57001 77177 333 81/11 83/17 85/29 88/29
AAXX 14124 04250 07384 53303 11077 21087 39932 40040 52001 60021 72487 333 55300 20000 69907 81/08 83/23 85/57
AAXX 14124 04254 47382 73401 11089 21112 39935 40053 54000 77188 333 86/08 87/40
AAXX 14124 04260 45580 23514 11059 21134 39995 40040 52005 333 82/28 91131
AAXX 14124 04270 45984 70704 11090 21117 39941 49981 52012 333 85/60 87/65
AAXX 14124 04272 05884 7//// 11054 21059 39903 49975 52010 6///1 333 6///7 83/58 87/61
AAXX 14124 04312 46/// ///// 11325 21368 30088 40131 52001
AAXX 14124 04320 NIL
AAXX 14124 04339 47/68 ///// 11094 21144 39929 40021 54000 78587 333 55300 20000
AAXX 14124 04360 06/// /1202 11082 21165 39905 49977 52007 6///1 333 55300 20000 6///7
AAXX 14124 04361 467// 72603 11089 21167 39927 49981 52008 333 87///
AAXX 14124 04390 07683 73413 11001 21096 39846 49939 52015 60021 72487 333 60017 81/36 87/58 91130
AAXX 14124 68386 16/// /0000 10264 20227 39635 48573 58001 60101 333 10355 20217 91002 555 20100 69925 91017
AAXX 14120 44214 32698 70000 11222 21253 38362 40545 53004 82570 333 11159
AAXX 14120 44231 319// 00000 11275 21329 38843 40596 53009 70400 333 11214
AAXX 14120 44259 32997 32202 11212 21246 39385 40367 53006 83030 333 11163
AAXX 14120 44277 NIL
AAXX 14120 44288 32999 03102 11163 21282 38235 40478 52007 333 11113
AAXX 14120 44292 118// 72803 11233 21258 38792 40481 53006 69902 77171 87020 333 11206 555 93100
AAXX 14120 44304 329// 12303 11260 21291 39066 40439 53002 81040 333 11193
AAXX 14120 44354 329// 02910 11198 21231 39205 40424 53004 333 11156
AAXX 14120 44373 32999 02503 11184 21230 38633 40474 53005 333 11137
AAXX 14120 44203 329// 10000 11344 21367 38524 40642 53003 81040 333 11325
AAXX 14120 44207 329// 00000 11306 21343 38396 40582 52008 333 11205
AAXX 14120 44212 32999 70000 11252 21277 39314 40580 53010 87070 333 11220
AAXX 14120 44213 32999 30000 11292 21321 38937 40621 52004 83050 333 11204
AAXX 14120 44215 32998 00000 11292 21315 38516 40594 56001 333 11224
AAXX 14120 44218 329// 33301 11214 21247 38725 40519 53002 83040 333 11171
AAXX 14120 44225 319// 03602 11405 21420 38383 40736 53005 74640 333 11358
AAXX 14120 44230 329// 00104 11249 21292 38917 40570 52010 333 11215
AAXX 14120 44232 329// 00000 11216 21329 39252 40547 52011 333 11213
AAXX 14120 44237 32999 01801 11259 21298 38577 40528 52010 333 11185
AAXX 14120 44239 329// 00102 11232 21279 38908 40488 53010 333 11199 555 99602 99905
AAXX 14120 44241 329// 00000 11271 21294 39393 40492 53018 333 11198
AAXX 14120 44256 32999 30000 11253 21270 39434 40382 51029 84070 333 11147
AAXX 14120 44265 329// 20000 11199 21232 38940 40469 53002 80004 333 11130
AAXX 14120 44272 329// 01401 11280 21334 38316 40561 53007 333 11195
AAXX 14120 44275 32998 00000 11289 21320 37787 40596 51013 333 11196
AAXX 14120 44282 32999 02702 11168 21303 38379 40466 53012 333 11102
AAXX 14120 44284 32999 00701 11311 21309 37818 40634 51002 333 11238
AAXX 14120 44285 32999 01502 11241 21287 38400 40532 53008 333 11181
AAXX 14120 44287 32999 00404 11227 21293 38199 40564 52008 333 11160
AAXX 14120 44294 329// 03503 11265 21294 38639 40531 52010 333 11200
AAXX 14120 44298 329// 03603 11238 21244 38793 40456 52004 333 11196
AAXX 14120 44302 329// 02905 11237 21278 39161 40394 57002 333 11179
AAXX 14120 44305 32999 02905 11235 21268 39119 40397 51001 333 11177
AAXX 14120 44313 11999 03205 11215 21255 39449 40371 53004 69902 70270 333 11160 555 93100
AAXX 14120 44314 32998 03206 11181 21222 39204 40375 52003 333 11142
AAXX 14120 44317 32998 03203 11218 21258 39001 40400 51004 333 11163
AAXX 14120 44336 329// 02703 11168 21210 38788 40456 54000 333 11145
AAXX 14120 44341 329// 03106 11209 21244 38686 40489 53001 333 11156
AAXX 14120 44347 32999 00000 11182 21223 38815 40251 53007 333 11182
AAXX 14120 44352 32999 03207 11214 21247 38984 40399 53001 333 11158
AAXX 14120 44358 329// 00000 11208 21233 39185 40442 56003 333 11145
BBXX 44255 14121 99473 70573 46/// /0409 11023 40248 5//// 22200 00041 10604 70018 333 91210
AAXX 14124 61401 NIL
AAXX 14124 61404 31957 10819 10236 21041 39820 40215 70711 80002 333 0//00 58004 81073
AAXX 14124 61415 NIL
AAXX 14124 61421 NIL
AAXX 14124 61437 33958 70404 10272 20098 30052 40189 8707/ 333 0//00 59014 87363
AAXX 14124 61442 31940 60916 10238 21062 30169 40172 86080 333 0//00 58004 86363
AAXX 14124 61450 33960 70806 10234 20007 39721 40179 80002 333 0//00 59004 87073
AAXX 14124 61461 33960 70804 10308 21030 30079 40164 8707/ 333 0//00 59004 87363
AAXX 14124 61489 NIL
AAXX 14124 61492 31950 60812 10285 21020 30129 40148 70622 86070 333 0//00 58001 86363
AAXX 14124 61497 35958 70808 10269 21026 39901 4//// 80002 333 0//00 59015 87073
AAXX 14124 61498 31950 70406 10285 20096 30017 40149 705// 80008 333 0//00 58005 87273
AAXX 14124 61499 33958 60808 10270 21016 39899 40154 80002 333 0//00 59008 86073
AAXX 14124 61510 35960 00802 10310 29028 30050 4//// 333 0//00 5////
AAXX 14124 65351 31950 71010 10310 20104 3//// 4//// 70522 80002 333 5//// 87076
AAXX 14124 65355 32958 70808 10307 21010 39602 40113 80002 333 59003 87073
AAXX 14124 65357 31950 60806 10325 21038 39727 40115 70522 80002 333 59004 86076
AAXX 14124 65380 32956 70804 10328 20164 3//// 4//// 80002 333 5//// 87076
AAXX 14121 33301 32998 62003 10078 20044 39879 40159 58007 83031
AAXX 14121 37279 42998 70000 10151 20034 30074 40215 57010 80007
AAXX 14121 37308 42999 60000 10072 21030 39621 40276 57005 85031
AAXX 14121 37531 42999 40000 10044 21017 39555 40292 58018 80052
AAXX 14121 37553 42999 80901 10059 21014 39610 40264 57018 80031 555 10011
AAXX 14121 37651 16/// ///00 10041 20005 3//// 4//// 5//// 60001
AAXX 14121 37492 NIL
AAXX 14124 40250 32960 80000 10178 21014 39388 40178 57022 80006 333 88070
AAXX 14124 40260 32960 60000 10150 21081 39410 40198 57010 80001 333 86070
AAXX 14124 40265 31958 60000 10152 21018 39400 40199 58016 70622 84032 333 84360 83360
AAXX 14124 40296 32960 00000 10198 20056 40178 57019
BBXX 44255 14121 99473 70573 46/// /0409 11023 40248 5//// 22200 00041 10604 70018 333 91210
AAXX 14121 50136 32970 32501 11256 21295 39721 40333 52004 80002
AAXX 14121 50745 32965 32501 11167 21195 30074 40275 57001 80002
AAXX 14121 50774 32960 00000 11205 21229 39923 40253 52013
AAXX 14121 50788 11968 62706 11167 21221 30117 40209 52015 69921 70070 80002
AAXX 14121 51133 32680 23401 11034 21077 39643 40320 57009 82502 333 05702
AAXX 14121 51431 NIL
AAXX 14121 51747 NIL
AAXX 14121 52203 NIL
AAXX 14121 52418 32980 51401 11067 21116 39002 40415 52010 80002 333 00053
AAXX 14121 52681 32980 03201 11059 21135 38748 40419 52017 333 00352
AAXX 14121 53564 32980 00000 11091 21186 39321 40420 52012 333 00758
AAXX 14121 53614 32980 00201 11057 21126 39036 40416 52014 333 00552
AAXX 14121 53646 32970 03402 11079 21158 38972 40418 52007 333 00654
AAXX 14121 53798 32960 73201 11007 21101 30263 40365 52021 80002
AAXX 14121 53845 32965 00701 11016 21125 39203 40386 52021 333 00652
AAXX 14121 53959 32962 70903 10022 21097 39896 40359 52022 80002
AAXX 14121 54094 32960 02502 11141 21184 39931 40251 52007
AAXX 14121 54102 32980 01402 11227 21261 39114 40440 57002
AAXX 14121 54161 32962 02501 11135 21185 39972 40288 52003
AAXX 14121 54292 32970 02710 11104 21173 39909 40247 52013
AAXX 14121 54374 32962 03401 11123 21177 39805 40296 52015
AAXX 14121 54423 32980 02903 11082 21213 39824 40375 52016
AAXX 14121 54618 32962 63401 11033 21176 30337 40356 52016 80002
AAXX 14121 54843 32670 43403 10002 21037 30309 40338 52021 84400
AAXX 14121 54909 32962 03603 10002 21080 30278 40344 52025
AAXX 14121 56029 32980 02902 11021 21246 36444 52013 333 00301
AAXX 14121 57127 32960 71101 10068 20027 39678 40303 52020 8703/
AAXX 14121 57131 32960 73202 10026 21027 39849 40366 52016 8703/
AAXX 14121 54342 32965 02501 11116 21156 30244 40310 52006
AAXX 14121 54471 32960 03401 11080 21144 30319 40325 52014
AAXX 14121 54511 32980 03204 11017 21201 30319 40361 52019
AAXX 14121 52533 32980 21402 11046 21120 38631 40416 52005 80002 333 00252
AAXX 14121 52652 32980 70201 11054 21115 38651 40436 52014 80002 333 00202
AAXX 14121 52983 31957 72202 11061 21096 38184 52020 70500 80002 333 00202
AAXX 14121 53915 32980 42901 10001 21119 38763 40371 52021 80002 333 00402
AAXX 14121 54401 32965 03201 11108 21207 39480 40415 52011
AAXX 14121 56080 32980 03602 11087 21161 37170 52034 333 00152
AAXX 14121 56096 32970 02501 10060 21116 39018 40297 52022 333 00102
AAXX 14124 41270 36/70 /0209 10251 20157 30115 40127 333 0E020 58008
AAXX 14121 52866 32970 42501 11064 21175 37757 52018 80002 333 00202
AAXX 14121 53588 32980 02508 11175 21218 37802 52007 333 91118 91525
AAXX 14121 53772 32965 02901 11020 21144 39399 40366 52015
AAXX 14121 56778 32570 62002 10105 20051 38122 52014 86400 333 00100
AAXX 14121 59134 32761 70902 10180 20104 30040 40207 52011 875//
AAXX 14121 59287 32965 20202 10139 20107 30113 40200 52016 82040
AAXX 14121 57265 32961 70201 10065 20026 30200 40315 52026 8703/
AAXX 14121 57494 32965 80901 10082 20062 30257 40288 52018 8807/
AAXX 14121 58102 32960 53604 10025 21032 30284 40334 52025 80001
AAXX 14121 58221 31950 00201 10063 20002 30279 40308 52021 70500
AAXX 14121 58238 31956 03603 10055 21014 30252 40298 52022 70500
AAXX 14121 58251 31920 73603 10055 20025 30292 40297 52029 71000 80002
AAXX 14121 58606 11758 61401 10098 20004 30215 40274 52010 69901 76000 86500
AAXX 14121 59117 32665 82501 10155 20111 30097 40205 52013 885//
AAXX 14121 59316 32760 80901 10203 20151 30192 40197 52014 885//
AAXX 14121 59431 32562 83401 10177 20077 30060 40209 52017 888//
AAXX 14121 59644 32560 73402 10204 20096 30175 40192 52019 878//
AAXX 14121 59758 32465 80904 10194 20129 30104 40180 52010 888//
AAXX 14121 58362 31957 23602 10092 20040 30271 40279 52021 70500 80002
AAXX 14124 41529 12997 20000 10178 20058 39783 40164 60002 80001 333 10238 56009 59002 82840
AAXX 14124 41598 12997 00000 10210 20075 39874 40143 60002 333 10245 59014
AAXX 14124 41620 32997 03105 10180 21138 38600 48505 333 10185 59016
AAXX 14124 41624 02997 00000 10220 20064 39948 40147 60002 333 10250 59019 60007
AAXX 14124 41640 01996 02702 10195 20022 39907 40156 60002 70500 333 10220 59008 60007
AAXX 14124 41660 12997 03112 10115 21040 38460 48543 60002 333 10125 59007
AAXX 14124 41675 11996 00000 10230 20051 30016 40159 60002 70500 333 10245 59015
AAXX 14124 41712 11996 30506 10180 21049 39246 48563 60002 70600 80030 333 10195 56009 58003 83360
AAXX 14124 41715 01996 00000 10240 20081 30096 40160 60002 70500 333 10245 59013 60007
AAXX 14124 41756 01996 30506 10250 20131 30094 40158 60002 70504 80001 333 10270 56009 58004 60007 83070
AAXX 14124 41764 32996 30502 10235 20059 30103 40152 60002 80001 333 10250 56009 58001 60007 83070
AAXX 14124 41768 02996 40000 10255 20115 30141 40148 6000284030 333 10290 56090 59001 60007 84360
AAXX 14124 41780 02996 40502 10275 20054 30131 40158 60002 80001 333 10280 56009 58002 60007 83070
AAXX 14123 63684 31580 72109 10239 20181 38824 48/// 71792 8697/ 333 58022 86820 81925 87362 555 10201
AAXX 14124 41529 12997 20000 10178 20058 39783 40164 60002 80001 333 10238 56009 59002 82840
AAXX 14124 41598 12997 00000 10210 20075 39874 40143 60002 333 10245 59014
AAXX 14124 41620 32997 03105 10180 21138 38600 48505 333 10185 59016
AAXX 14124 41624 02997 00000 10220 20064 39948 40147 60002 333 10250 59019 60007
AAXX 14124 41640 01996 02702 10195 20022 39907 40156 60002 70500 333 10220 59008 60007
AAXX 14124 41660 12997 03112 10115 21040 38460 48543 60002 333 10125 59007
AAXX 14124 41675 11996 00000 10230 20051 30016 40159 60002 70500 333 10245 59015
AAXX 14124 41712 11996 30506 10180 21049 39246 48563 60002 70600 80030 333 10195 56009 58003 83360
AAXX 14124 41715 01996 00000 10240 20081 30096 40160 60002 70500 333 10245 59013 60007
AAXX 14124 41756 01996 30506 10250 20131 30094 40158 60002 70504 80001 333 10270 56009 58004 60007 83070
AAXX 14124 41764 32996 30502 10235 20059 30103 40152 60002 80001 333 10250 56009 58001 60007 83070
AAXX 14124 41768 02996 40000 10255 20115 30141 40148 6000284030 333 10290 56090 59001 60007 84360
AAXX 14124 41780 02996 40502 10275 20054 30131 40158 60002 80001 333 10280 56009 58002 60007 83070
AAXX 14121 48803 32497 50000 10170 20132 30067 40182 52016 85800 333 00015 10228 58004 70000 82894 83696
AAXX 14124 61974 12581 63604 10307 20234 40091 60001 83201 333 59009 83820 85075 94329
AAXX 14124 61986 12580 40402 10300 20249 40091 60001 82902 333 58002 819// 81820 84075 94329
AAXX 14124 61988 12475 80710 10264 20240 40110 60001 85876 333 58000 85818 88275 91124
AAXX 14124 61989 12475 70405 10273 20228 40117 60001 85877 333 58002 83817 83650 87272
AAXX 14124 61990 11458 61305 10275 20233 40109 60001 72992 86903 333 58005 81914 85815 94323
AAXX 14124 61995 11350 82903 10213 20211 39636 60921 79798 8894/ 333 58009 82707 82915 85816 83645 94326
AAXX 14121 48840 32498 80000 10200 20135 30168 40174 52010 888// 333 00019 10224 58002 70000 83894 88696
AAXX 14121 48852 01497 80000 10177 20172 30159 40169 52010 60034 76166 888// 333 01018 10185 59003 60022 7003 4 86894 88697 96160
AAXX 14121 48806 32998 00000 10164 20119 39393 40175 53014 333 00015 10247 59008 70000
AAXX 14120 44210 32999 20000 11210 21222 38630 53003 80001 333 11169
AAXX 14120 44216 32999 53603 11285 21308 39169 40598 51002 83044 333 11236
AAXX 14120 44217 32998 20000 11154 21188 37896 40432 58025 80004 333 11096
AAXX 14120 44219 329// 03602 11265 21290 38752 40579 53003 333 11215
AAXX 14120 44221 329// 00000 11362 21384 38731 40677 53009 333 11299
AAXX 14120 44224 329// 00000 11368 21397 38144 40700 53004 333 11265
AAXX 14120 44229 32999 00000 11298 21335 37996 40614 53002 333 11242
AAXX 14120 44242 329// 00000 11240 21266 39459 40483 52018 333 11182
AAXX 14120 44243 329// 40000 11260 21288 39552 40490 52012 80008 333 11218
AAXX 14120 44254 119// 70000 11157 21182 39092 40344 53009 69912 72272 87010 333 11123 555 93100
AAXX 14120 44257 329// 02904 11167 21220 39031 40388 52005 333 11133
AAXX 14120 44263 32998 00000 11221 21269 38140 40559 52003 333 11163
AAXX 14120 44266 NIL
AAXX 14120 44286 329// 02704 11196 21256 38733 40464 52002 333 11171
AAXX 14120 44291 326// 61602 11258 21282 38831 40527 53007 83340 333 11208
AAXX 14120 44325 NIL
AAXX 14120 44329 32998 00000 11185 21243 37829 40479 51007 333 11104
AAXX 14120 44338 32999 00000 11172 21222 38571 40461 53009 333 11103
AAXX 14120 44348 329// 03205 11190 21196 38764 40414 50000 333 11173
AAXX 14120 44374 32999 02303 11153 21221 38348 40490 53010 333 11102
AAXX 14120 44385 32999 00000 11135 21196 39036 40450 51015 333 11095
AAXX 14120 44386 329// 02702 11201 21234 39159 40450 53004 333 11161
AAXX 14121 48845 32798 80000 10196 20149 30170 40177 52009 885// 333 01019 10214 59003 70000 88697
AAXX 14124 47401 11/05 81309 11012 21020 30081 40096 58028 69902 78682 88/// 333 10012
AAXX 14124 47412 11/50 21310 10014 21002 30061 40094 58043 69952 78522 82200 333 10037
AAXX 14124 47420 15/70 /1904 10008 21050 30101 40135 58025 60002 333 10020
AAXX 14124 47426 17/70 /0508 10016 21003 30083 40131 56030 69902 76776 333 10046
AAXX 14124 47582 11/40 81808 10064 20049 30123 40150 58005 60072 79298 883// 333 10072
AAXX 14124 47590 12/70 12301 10039 20008 30111 40166 58014 60002 81500 333 10095
AAXX 14124 47600 17/56 /2106 10089 20077 30165 40173 58009 60092 76260 333 10136
AAXX 14124 47648 11/65 83006 10100 20079 30138 40172 58010 60012 70262 888// 333 10123
AAXX 14124 47662 12/60 73305 10096 20015 30136 40181 58012 60002 878// 333 10098
AAXX 14124 47678 15/70 /0706 10137 20090 39992 40178 58001 69952 333 10186
AAXX 14124 47740 15/84 /2604 10092 20038 30158 40193 52002 69902 333 10139
AAXX 14124 47778 15/70 /0104 10129 20076 30114 40197 51004 69902 333 10164
AAXX 14124 47807 12/70 12204 10107 20042 30210 40228 53009 60002 81500 333 10155
AAXX 14124 47827 12/70 13407 10117 20078 30182 40221 51010 60002 81100 333 10191
AAXX 14124 47843 15/81 /3407 10124 20028 30203 40236 51007 60002 333 10170
AAXX 14124 47893 12/65 12804 10099 20068 30203 40209 52010 60002 81100 333 10172
AAXX 14124 47909 11/65 71603 10166 20148 30209 40219 53016 69902 76062 8427/ 333 10211
AAXX 14124 47918 11/65 80709 10216 20186 30171 40188 53012 60082 72562 888// 333 10228
AAXX 14124 47936 11/70 80809 10217 20167 30145 40203 53012 69902 72582 8627/ 333 10234
AAXX 14124 47945 11/65 80409 10219 20164 30171 40195 51011 69902 72162 8787/ 333 10235
AAXX 14124 47971 11/65 83503 10202 20187 30171 40181 50006 60032 78082 882// 333 10216
AAXX 14124 47991 16/// /1104 10240 20195 30173 40183 50001 60002 333 10276
AAXX 14124 47407 11/40 81712 11007 21026 39931 40107 58033 69902 78582 883// 333 10008
AAXX 14124 47409 12975 71405 11012 21060 30064 40119 58029 60002 8707/ 333 10016
AAXX 14124 47418 11/70 80402 10000 21048 30086 40136 58024 69902 78511 882// 333 10029
AAXX 14124 47421 17/70 /1612 10022 20007 30052 40096 56022 69902 72360 333 10025
AAXX 14124 47430 11/60 13603 10017 20006 30061 40116 58023 60022 70182 81200 333 10055
AAXX 14124 47570 15/62 /3302 10015 20002 39926 40192 58009 60002 333 10079
AAXX 14124 47575 11/70 72208 10042 20022 30128 40133 56008 69952 78087 87200 333 10066
AAXX 14124 47584 11/65 71805 10031 21007 39967 40160 56016 69902 78081 872// 333 10061
AAXX 14124 47604 11/65 71804 10088 20048 30165 40174 57007 60012 78082 872// 333 10124
AAXX 14124 47605 11/70 22106 10096 20029 30139 40180 58007 69902 70181 82200 333 10143
AAXX 14124 47610 12970 03102 10024 21012 39683 40197 58003 60002 333 10100
AAXX 14124 47624 12/65 13106 10054 20010 30045 40186 58011 60002 81530 333 10114
AAXX 14124 47629 11/70 72902 10078 20046 30139 40178 58013 69902 70262 875// 333 10090
AAXX 14124 47636 12970 02903 10088 20026 30126 40195 50000 60002 333 10148
AAXX 14124 47651 12980 02706 10086 20028 30175 40198 58004 69902 333 10153
AAXX 14124 47655 15/70 /2712 10104 20012 30118 40175 58005 60002 333 10151
AAXX 14124 47675 15/60 /0608 10074 20068 30083 40176 58012 69902 333 10116
AAXX 14124 47741 11/70 62705 10093 20068 30176 40204 53005 69902 70281 86800 333 10150
AAXX 14124 47746 12975 01205 10074 20045 30180 40200 51005 60002 333 10163
AAXX 14124 47750 12270 10901 10057 20042 30170 40198 58001 60002 81600 333 10119
AAXX 14124 47765 12965 00110 10092 20052 30146 40212 51007 60002 333 10154
AAXX 14124 47772 12/70 11804 10109 20032 30099 40200 57002 60002 81100 333 10155
AAXX 14124 47800 15/80 /1301 10073 20036 30222 40227 51007 60002 333 10140
AAXX 14124 47815 12/60 21803 10102 20066 30202 40219 51010 60002 82100 333 10169
AAXX 14124 47817 12970 00302 10111 20046 30186 40230 51011 69902 333 10162
AAXX 14124 47830 12/70 12907 10098 20071 30198 40217 51013 60002 81100 333 10178
AAXX 14124 47887 12/70 21303 10090 20040 30174 40216 51007 60002 82200 333 10164
AAXX 14124 47891 12/60 12403 10090 20040 30190 40207 51005 60002 81100 333 10153
AAXX 14124 47895 12/70 21501 10089 20053 30196 40204 53002 60002 82200 333 10153
AAXX 14124 47927 11/70 80906 10212 20190 30146 40195 53013 60022 70262 8587/ 333 10230
AAXX 14124 41515 02997 00514 10106 21175 38567 48529 60002 333 10136 59002 60007
AAXX 14124 41560 22997 01803 10045 21030 38269 48501 60002 333 10065 58003 60007
AAXX 14124 41571 11995 12310 10180 20025 39565 40146 60002 70500 80001 333 10215 56009 59018
AAXX 14124 41594 31996 22304 10220 20017 39943 40158 70500 81031 333 10245 56099 59014
AAXX 14124 41685 32997 00000 10190 21073 38921 48510 333 10200 59012
AAXX 14124 41710 02997 02302 10195 21119 39405 40171 60002 333 10203 59007 60007
AAXX 14124 41718 11996 00000 10235 20086 30057 40160 60002 70500 333 10247 59008
AAXX 14124 41739 02997 03606 10200 21072 39071 48534 60002 333 10205 58000 60007
AAXX 14124 41744 32996 02704 10210 21023 38781 48511 333 10230 59003
AAXX 14124 41749 01995 03602 10240 20081 30126 40160 60002 70400 333 10260 58004 60007
AAXX 14124 41515 02997 00514 10106 21175 38567 48529 60002 333 10136 59002 60007
AAXX 14124 41560 22997 01803 10045 21030 38269 48501 60002 333 10065 58003 60007
AAXX 14124 41571 11995 12310 10180 20025 39565 40146 60002 70500 80001 333 10215 56009 59018
AAXX 14124 41594 31996 22304 10220 20017 39943 40158 70500 81031 333 10245 56099 59014
AAXX 14124 41685 32997 00000 10190 21073 38921 48510 333 10200 59012
AAXX 14124 41710 02997 02302 10195 21119 39405 40171 60002 333 10203 59007 60007
AAXX 14124 41718 11996 00000 10235 20086 30057 40160 60002 70500 333 10247 59008
AAXX 14124 41739 02997 03606 10200 21072 39071 48534 60002 333 10205 58000 60007
AAXX 14124 41744 32996 02704 10210 21023 38781 48511 333 10230 59003
AAXX 14124 41749 01995 03602 10240 20081 30126 40160 60002 70400 333 10260 58004 60007
AAXX 14121 08501 32/// /1805 10160 20084 30256 40292 54000 333 91007 91108
AAXX 14121 08505 32470 61002 10164 20109 30259 40309 52012 84832 333 82818 83635
AAXX 14121 08509 11560 32802 10148 20101 30247 40312 52010 69901 70181 81835 333 81830
AAXX 14121 08512 NIL
AAXX 14121 08515 32580 40202 10164 20092 30194 40314 52013 81501 222// 00/// 333 81628 84080 910// 911//
AAXX 14121 08533 32/// /3304 10166 20152 30237 40266 52005 333 91006 91106
AAXX 14121 08541 NIL
AAXX 14121 08545 11462 72703 10136 20067 30156 40240 52009 60021 70282 86832 222// 00150 333 82818 85645 91105
AAXX 14121 08548 12/// /2201 10125 20119 30043 40249 52009 69991
AAXX 14121 08554 32565 72503 10175 20145 30257 40266 54000 83834 333 82823 86075
AAXX 14121 08558 11462 72804 10147 20111 39958 40251 50006 69981 70152 85202 333 85814 86099 91107
AAXX 14121 08560 11340 72603 10089 20077 39479 40242 52009 69921 72162 874// 333 84709 85812 91006 91106 96016
AAXX 14121 08567 11356 72603 10086 20060 39569 40239 52010 60021 72162 872// 333 81706 87810 91005 91105
AAXX 14121 08570 31459 72504 10135 20094 39779 40236 50003 71522 85848 333 81815 83818 85299 91006 91107
AAXX 14121 08575 11465 72605 10085 20038 39407 40221 52009 60011 70282 872// 333 87818 91010 91110
AAXX 14121 08579 NIL
AAXX 14124 62357 32560 63606 10188 20106 40197 57010 86500
AAXX 14124 62403 32960 43604 10227 20062 40161 57028 80004
AAXX 14124 62423 32960 63614 10190 20095 40207 57017 80006
AAXX 14124 41506 02997 03616 10115 21035 48521 60002 333 10133 59020 60007
AAXX 14124 41508 22997 01802 10117 21139 48539 60002 333 10162 59014 60007
AAXX 14124 41523 12997 00000 10150 21010 48531 60002 333 10175 59029 60007
AAXX 14124 41535 12997 00000 10130 20021 48492 60002 333 10160 59004
AAXX 14124 41536 02997 00000 10115 20014 48502 60002 333 10200 59015 60007
AAXX 14124 41573 12997 00000 10075 21020 48502 60002 333 10130 59009
AAXX 14124 41600 02996 02302 10185 20065 39847 40142 60002 333 10217 59020 60007
AAXX 14124 41630 11996 00000 10220 20034 40159 60002 70500 333 10235 59013
AAXX 14124 41678 12997 00000 10225 20049 40166 60002 333 10240 59002 60007
AAXX 14124 41696 02997 03102 10120 21156 38027 48539 60002 333 10140 59007 60007
AAXX 14124 41697 02997 00000 10244 20124 30003 40157 60002 333 10260 59007 60007
AAXX 14124 41700 11996 01802 10230 20079 30027 40154 60002 70500 333 10251 59009
AAXX 14124 41725 02996 00000 10250 20055 30089 40167 60002 333 10260 58007 60007
AAXX 14124 41746 02996 00000 10235 20099 30112 40166 60002 333 10240 59002 60007
AAXX 14124 41759 12996 09004 10255 20137 30161 40167 60002 333 10265 58001
AAXX 14124 41785 02997 40504 10240 20068 30136 40149 60002 84030 333 56090 59003 60007 84360
AAXX 14124 88883 46/// /1101 10133 20133 40155 52008
AAXX 14124 88897 46/// /2510 10120 20091 40133 52006
AAXX 14124 82143 NIL
AAXX 14124 82599 32570 51015 10289 20217 30054 40114 85100 333 20242 59010
AAXX 14124 82824 21350 80000 10247 20235 30007 40108 76196 8572/ 333 20243 59002 60884
AAXX 14124 82899 32570 40814 1//// 2//// 30114 4//// 84200 333 20000 59008
AAXX 14124 83117 NIL
AAXX 14124 83248 32470 60612 10286 20210 30109 40131 83230 333 20247 59002
AAXX 14124 83746 31963 70806 10277 20216 30073 40083 58001 70522 85031 333 20244
AAXX 14124 83437 NIL
AAXX 14124 83550 21597 6//// 10272 20219 30089 40118 70310 84240 333 20221 59003 60044
AAXX 14124 83552 NIL
AAXX 14124 83565 NIL
AAXX 14124 83579 NIL
AAXX 14124 83592 NIL
AAXX 14124 83623 NIL
AAXX 14124 83630 NIL
AAXX 14124 83676 NIL
AAXX 14124 83698 32999 80503 10284 20231 30098 40112 51008 8802/ 333 20235
AAXX 14124 83702 NIL
AAXX 14124 83704 NIL
AAXX 14124 83716 NIL
AAXX 14124 83726 NIL
AAXX 14124 83738 21697 80000 10222 20207 39592 40085 54000 71560 887// 333 20190 60094
AAXX 14124 NIL
AAXX 14124 83384 NIL
AAXX 14124 83386 NIL
AAXX 14124 83388 NIL
AAXX 14124 83393 NIL
AAXX 14124 83442 NIL
AAXX 14124 83479 NIL
AAXX 14124 83483 NIL
AAXX 14124 83531 NIL
AAXX 14124 83538 NIL
AAXX 14124 83574 NIL
AAXX 14124 83582 NIL
AAXX 14124 83595 NIL
AAXX 14124 83687 NIL
AAXX 14124 83692 NIL
AAXX 14124 83695 32697 50000 10268 20226 39978 40113 54000 83450 333 20232
AAXX 14124 83718 31595 80000 10238 20213 39547 40108 51009 71044 887// 333 20208
AAXX 14124 NIL
AAXX 14124 NIL
AAXX 14124 NIL
AAXX 14124 82022 32570 60612 10274 20214 30007 40103 81250 333 20246 59005
AAXX 14124 82193 22470 50710 10286 20235 30082 40102 82230 333 20251 59006 60064
AAXX 14124 82281 32570 40715 10290 20192 30041 40103 84200 333 20260 59002
AAXX 14124 82332 32470 72504 10273 20244 30008 40101 84101 333 20260 59004
AAXX 14124 82398 32570 50914 10270 20216 30084 40113 85200 333 20253 59008
AAXX 14124 82400 32570 31012 10274 20222 30057 40122 83100 333 20251 59007
AAXX 14124 82579 21458 80802 10254 20242 30030 40107 76062 8752/ 333 20252 59009 60034
AAXX 14124 82917 21070 72101 10272 20265 39884 40104 70262 83630 333 20251 59001 60074
AAXX 14124 82965 21370 70000 10244 20224 39772 40100 72165 8267/ 333 20230 59017 60014
AAXX 14124 82993 32570 30507 10268 20206 39992 40128 83100 333 20204 59005
AAXX 14124 83208 32470 62306 10231 20211 39416 48540 84530 333 20211 59005
AAXX 14124 83349 21570 62402 10261 20247 30128 40134 70186 83234 333 20234 58002 60444
AAXX 14124 83362 21265 73503 10240 20214 39881 40098 76062 85530 333 20220 59004 60654
AAXX 14124 83378 22470 53603 10228 20182 38949 48510 85500 333 20186 59002 60084
AAXX 14124 83460 32570 70705 10257 20223 30078 40135 87800 333 20218 58004
AAXX 14124 83497 NIL
AAXX 14124 83566 22570 50504 10205 20174 39197 48510 82130 333 20174 59007 60314
AAXX 14124 83599 NIL
AAXX 14124 83612 21370 61809 10229 20195 39464 48500 51017 71061 85501 333 20202 60094
AAXX 14124 83649 21970 63613 10304 20209 30115 40120 53004 70261 83204 333 20230 69924
AAXX 14124 83650 NIL
AAXX 14124 83780 22570 50307 10250 20171 39198 48490 52001 83530 333 20181 60054
AAXX 14124 83827 32970 02706 10229 20120 39823 40097 50009 333 20131
AAXX 14124 83840 21670 60505 10195 20156 39077 48480 50002 70362 84470 333 20166 60054
AAXX 14124 83899 21360 72402 10210 20197 30083 40089 50000 71096 87500 333 20201 60444
AAXX 14124 83925 NIL
AAXX 14124 83970 NIL
AAXX 14124 83971 32470 52803 10227 20195 30085 40089 50005 85500 333 20176
AAXX 14121 28676 416// 83001 11204 21230 30189 40328 53006 77172 8357/ 555 1/116
AAXX 14121 28766 419// 22902 11234 21243 30124 40334 53005 71000 80001 555 1/124
AAXX 14121 28867 42998 03601 11247 21271 30050 40353 52010 555 1/122
AAXX 14121 28879 414// 83102 11207 21227 30013 40328 53009 77172 8277/ 555 1/122
AAXX 14121 28952 42999 23601 11202 21221 30151 40362 52010 80001 555 1/121
AAXX 14121 28966 425// 60000 11246 21268 30025 40341 53009 83531 555 1/126
AAXX 14121 29802 419// 81701 11222 21239 30157 40315 53005 71022 80002 555 1/123
AAXX 14121 29807 419// 80000 11206 21240 30188 40317 53014 70272 8802/ 555 1/123
AAXX 14121 34691 41993 80902 11062 21074 30363 40350 52001 74442 8802/ 555 1/103
AAXX 14121 35067 429// 03101 11236 21268 30038 40345 52013 555 1/123
AAXX 14121 35078 42998 53402 11251 21276 39915 40337 52007 80002 555 1/124
AAXX 14121 35085 419// 80000 11174 21193 39798 40310 53005 70272 80002 555 1/118
AAXX 14121 35108 42997 00501 11135 21175 30321 40371 52006
AAXX 14121 35188 416// 53101 11156 21177 39848 40313 53006 72272 85500 555 1/120
AAXX 14121 35217 42998 00000 11185 21204 30331 40375 52012 555 1/120
AAXX 14121 35229 42998 00000 11150 21196 30079 40374 52013 555 1/122
AAXX 14121 35302 42998 01701 11125 21168 30347 40368 52008 555 1/114
AAXX 14121 35357 42997 21802 11195 21214 39843 40314 53010 82030 555 1/121
AAXX 14121 35394 NIL
AAXX 14121 35406 42997 00000 11125 21168 30362 40364 52008 555 1/114
AAXX 14121 35416 42997 00000 11172 21212 30241 40373 53012 555 1/121
AAXX 14121 35426 42999 00901 11146 21192 30054 40368 53016 555 1/117
AAXX 14121 35497 NIL
AAXX 14121 35532 42998 00701 11156 21207 39831 40361 52018 555 1/117
AAXX 14121 35671 NIL
AAXX 14121 35700 41494 80502 11065 21077 30378 40353 53004 71042 886// 555 1/105
AAXX 14121 35746 42998 23202 11124 21159 30263 40334 52022 82040 555 1/113
AAXX 14121 35796 41597 82006 11021 21027 39847 40288 57005 77177 8802/ 555 1/103
AAXX 14121 35849 42598 72902 11037 21070 30239 40328 53013 87500 555 1/104
AAXX 14121 35925 NIL
AAXX 14121 35953 41599 82304 11057 21068 30188 40322 52008 70272 885// 555 1/105
AAXX 14121 35969 42999 82304 11034 21077 30149 40327 53002 8807/ 555 1/103
AAXX 14121 36003 41997 80000 11161 21175 30147 40310 53003 77172 8807/ 555 1/115
AAXX 14121 36152 429// 71602 11106 21147 30120 40317 53008 87040 555 1/112
AAXX 14121 36177 429// 61102 11088 21117 30078 40335 54000 85031 555 1/115
AAXX 14121 36208 429// 62702 11064 21116 39328 40335 58012 83032 555 1/107
AAXX 14121 36397 415// 81404 11072 21101 39743 40324 57020 77172 8802/ 555 1/108
AAXX 14121 36428 427// 70202 11100 21112 39836 40358 57015 83552 333 95090 555 1/112
AAXX 14121 36535 415// 81201 11096 21124 39703 40362 57012 70272 885// 555 1/111
AAXX 14121 36639 429// 60000 11095 21125 39687 40317 57013 86040 555 1/114
AAXX 14121 36821 425// 82701 10013 21009 39811 40303 53014 889//
AAXX 14121 36859 41/// 91901 11045 21054 39519 40322 57001 74542 555 1/104
AAXX 14121 36864 42699 60901 11011 21040 39403 40310 53007 82452
AAXX 14121 36870 429// 72401 10007 21034 39273 40293 53009 86032 555 1/104
AAXX 14121 38001 NIL
AAXX 14121 38062 41696 72504 11022 21065 30156 40323 53008 77172 87500 555 1/103
AAXX 14121 38069 42998 22601 11022 21073 30135 40332 53007 82040
AAXX 14121 38196 41498 83201 11040 21081 39310 40322 53005 70272 886//
AAXX 14121 38198 42597 63001 11001 21038 30066 40331 53007 86500 555 1/101
AAXX 14121 38222 42697 80000 10006 21030 39749 40316 53007 885// 555 1/101
AAXX 14121 38232 NIL
AAXX 14121 38328 41995 83001 11005 21017 39582 40328 53007 71022 8803/ 555 1/101
AAXX 14121 38334 41295 83005 11023 21029 39335 40323 53003 71022 886// 555 1/103
AAXX 14121 38341 41596 82702 10005 21018 39514 40311 53007 71022 886// 555 1/000
AAXX 14121 38343 42698 83201 10007 21036 39457 40312 53007 885//
AAXX 14121 38439 41996 00902 10010 21007 39981 40327 54000 71044 555 12000
AAXX 14124 NIL
AAXX 14123 87007 12475 32013 10100 20022 36745 47151 58005 60014 81854 333 10100 20061 56254 81615
AAXX 14121 28676 416// 83001 11204 21230 30189 40328 53006 77172 8357/ 555 1/116
AAXX 14121 28766 419// 22902 11234 21243 30124 40334 53005 71000 80001 555 1/124
AAXX 14121 28867 42998 03601 11247 21271 30050 40353 52010 555 1/122
AAXX 14121 28879 414// 83102 11207 21227 30013 40328 53009 77172 8277/ 555 1/122
AAXX 14121 28952 42999 23601 11202 21221 30151 40362 52010 80001 555 1/121
AAXX 14121 28966 425// 60000 11246 21268 30025 40341 53009 83531 555 1/126
AAXX 14121 29802 419// 81701 11222 21239 30157 40315 53005 71022 80002 555 1/123
AAXX 14121 29807 419// 80000 11206 21240 30188 40317 53014 70272 8802/ 555 1/123
AAXX 14121 34691 41993 80902 11062 21074 30363 40350 52001 74442 8802/ 555 1/103
AAXX 14121 35067 429// 03101 11236 21268 30038 40345 52013 555 1/123
AAXX 14121 35078 42998 53402 11251 21276 39915 40337 52007 80002 555 1/124
AAXX 14121 35085 419// 80000 11174 21193 39798 40310 53005 70272 80002 555 1/118
AAXX 14121 35108 42997 00501 11135 21175 30321 40371 52006
AAXX 14121 35188 416// 53101 11156 21177 39848 40313 53006 72272 85500 555 1/120
AAXX 14121 35217 42998 00000 11185 21204 30331 40375 52012 555 1/120
AAXX 14121 35229 42998 00000 11150 21196 30079 40374 52013 555 1/122
AAXX 14121 35302 42998 01701 11125 21168 30347 40368 52008 555 1/114
AAXX 14121 35357 42997 21802 11195 21214 39843 40314 53010 82030 555 1/121
AAXX 14121 35394 NIL
AAXX 14121 35406 42997 00000 11125 21168 30362 40364 52008 555 1/114
AAXX 14121 35416 42997 00000 11172 21212 30241 40373 53012 555 1/121
AAXX 14121 35426 42999 00901 11146 21192 30054 40368 53016 555 1/117
AAXX 14121 35497 NIL
AAXX 14121 35532 42998 00701 11156 21207 39831 40361 52018 555 1/117
AAXX 14121 35671 NIL
AAXX 14121 35700 41494 80502 11065 21077 30378 40353 53004 71042 886// 555 1/105
AAXX 14121 35746 42998 23202 11124 21159 30263 40334 52022 82040 555 1/113
AAXX 14121 35796 41597 82006 11021 21027 39847 40288 57005 77177 8802/ 555 1/103
AAXX 14121 35849 42598 72902 11037 21070 30239 40328 53013 87500 555 1/104
AAXX 14121 35925 NIL
AAXX 14121 35953 41599 82304 11057 21068 30188 40322 52008 70272 885// 555 1/105
AAXX 14121 35969 42999 82304 11034 21077 30149 40327 53002 8807/ 555 1/103
AAXX 14121 36003 41997 80000 11161 21175 30147 40310 53003 77172 8807/ 555 1/115
AAXX 14121 36152 429// 71602 11106 21147 30120 40317 53008 87040 555 1/112
AAXX 14121 36177 429// 61102 11088 21117 30078 40335 54000 85031 555 1/115
AAXX 14121 36208 429// 62702 11064 21116 39328 40335 58012 83032 555 1/107
AAXX 14121 36397 415// 81404 11072 21101 39743 40324 57020 77172 8802/ 555 1/108
AAXX 14121 36428 427// 70202 11100 21112 39836 40358 57015 83552 333 95090 555 1/112
AAXX 14121 36535 415// 81201 11096 21124 39703 40362 57012 70272 885// 555 1/111
AAXX 14121 36639 429// 60000 11095 21125 39687 40317 57013 86040 555 1/114
AAXX 14121 36821 425// 82701 10013 21009 39811 40303 53014 889//
AAXX 14121 36859 41/// 91901 11045 21054 39519 40322 57001 74542 555 1/104
AAXX 14121 36864 42699 60901 11011 21040 39403 40310 53007 82452
AAXX 14121 36870 429// 72401 10007 21034 39273 40293 53009 86032 555 1/104
AAXX 14121 38001 NIL
AAXX 14121 38062 41696 72504 11022 21065 30156 40323 53008 77172 87500 555 1/103
AAXX 14121 38069 42998 22601 11022 21073 30135 40332 53007 82040
AAXX 14121 38196 41498 83201 11040 21081 39310 40322 53005 70272 886//
AAXX 14121 38198 42597 63001 11001 21038 30066 40331 53007 86500 555 1/101
AAXX 14121 38222 42697 80000 10006 21030 39749 40316 53007 885// 555 1/101
AAXX 14121 38232 NIL
AAXX 14121 38328 41995 83001 11005 21017 39582 40328 53007 71022 8803/ 555 1/101
AAXX 14121 38334 41295 83005 11023 21029 39335 40323 53003 71022 886// 555 1/103
AAXX 14121 38341 41596 82702 10005 21018 39514 40311 53007 71022 886// 555 1/000
AAXX 14121 38343 42698 83201 10007 21036 39457 40312 53007 885//
AAXX 14121 38439 41996 00902 10010 21007 39981 40327 54000 71044 555 12000
AAXX 14124 87022 32960 20000 10236 20138 39620 40127 52008 82070 333 10210 20150 56050
AAXX 14124 87046 12965 00000 10208 20147 39130 48514 51004 69994 333 10210 20145
AAXX 14124 87047 11460 80000 10160 20143 38818 48532 51005 69924 71010 885// 333 10173 20131 31/// 56299 88610
AAXX 14124 87097 32970 02308 10224 20167 39796 40103 52009 333 10261 20170
AAXX 14124 87121 32965 13205 10227 20161 39626 40133 52011 81030 333 10227 20184 56050 81360
AAXX 14124 87129 32965 01806 10224 20143 39918 40148 52011 333 10224 20150
AAXX 14124 87148 NIL
AAXX 14124 87155 32965 02308 10228 20132 30056 40117 51009 333 10228 20128
AAXX 14124 87162 32970 02306 10254 20117 30041 40110 51008 333 10254 20133
AAXX 14124 87166 32960 02308 10237 20127 30041 40113 52008 333 10237 20157
AAXX 14124 87178 32970 01405 10233 20120 39953 40097 52008 333 10235 20175
AAXX 14124 87217 32970 01405 10235 20153 39640 40119 5//// 333 10279 20201
AAXX 14124 87222 32970 00206 10245 20134 39602 40112 52007 333 10250 20184
AAXX 14124 87257 32965 01410 10218 20111 30041 40142 52011 333 10242 20154
AAXX 14124 87270 32565 11809 10223 20152 30058 40121 53008 81100 333 10223 20160 30012 56400 81830
AAXX 14124 87289 32562 32010 10220 20144 30021 40102 52012 83130 333 10220 20161 56410 83820
AAXX 14124 87311 32965 11612 10224 20048 39476 40137 52019 81070 333 10288 20170 56000 81360
AAXX 14124 87320 32970 00000 10231 20083 39624 40143 52008 333 10255 20157
AAXX 14124 87328 32980 01805 10211 20064 39498 40139 53005 333 10242 20124 95000
AAXX 14124 70133 32366 82911 11106 21122 30098 40103 51007 91153 333 21117 4/122 555 91412
AAXX 14124 70174 11661 83503 11139 21156 39855 40110 51007 69901 771// 91153 333 21139 4/076 70028 96010 555 91412
AAXX 14124 70200 32966 23606 11128 21156 30083 40089 51007 91153 333 21128 4/063 70005 555 91412
AAXX 14124 70219 32966 00307 11139 21156 39979 40036 51009 91153 333 21150 4/003 555 91412
AAXX 14124 70231 11559 80000 11111 21133 39941 40073 53005 69901 771// 91153 333 21128 4/099 70015 96010 555 91412
AAXX 14124 70261 11066 60000 11139 21150 39894 40074 58001 69901 91153 333 21139 70003 555 91412
AAXX 14124 70267 35966 00906 11111 21122 39589 40087 55001 91153 333 21128 555 91412
AAXX 14124 70271 35966 22904 11189 21211 39493 40105 53002 91153 333 21200 555 91412
AAXX 14124 70273 32261 63507 11094 21111 30003 40063 55001 91153 333 21106 4/051 555 91412
AAXX 14124 70316 32966 01309 10000 21033 39931 49967 50007 91153 333 21028 70048 555 91412
AAXX 14124 70326 32966 20310 11044 21072 39971 49985 53016 91154 333 21111 4/023 70003 555 91412
AAXX 14124 70340 35666 63616 11039 21083 39965 40027 53007 91153 333 21072 555 91412
AAXX 14124 70350 12566 60000 10022 21006 39909 49949 53010 60061 91153 333 21005 70074 555 91412
AAXX 14124 70361 11440 80908 11006 21011 30111 40123 58001 60051 771// 91153 333 21022 70066 96010 555 91412
AAXX 14124 70381 12666 80808 10011 21006 30152 40162 56000 69931 91153 333 20000 70008 555 91412
AAXX 14124 70414 35566 82619 11028 21078 39768 49804 52002 91156 333 21033 555 91412
AAXX 14124 NIL
AAXX 14124 NIL
AAXX 14124 NIL
AAXX 14124 78526 32466 42504 10250 20206 30105 40128 53011 91156 333 10278 20239 555 91412
AAXX 14124 78543 12666 23108 10267 20211 30041 40121 53009 69901 91153 333 10300 20233 555 91412
AAXX 14121 30372 11999 30000 11335 21359 39461 40460 53014 69902 70271 81041 333 11241
AAXX 14121 30433 32999 23001 11213 21261 39787 40440 52008 80001 333 11166
AAXX 14121 30554 329// 23501 11298 21328 39215 40446 52009 81041 333 11174
AAXX 14121 30635 119// 01202 11198 21247 39806 40431 52012 69902 70131 333 11151
AAXX 14121 30673 32999 03202 11229 21248 39506 40346 52006 333 11165
AAXX 14121 30692 NIL
AAXX 14121 30758 32999 00801 11263 21287 39505 40426 52015 333 11195
AAXX 14121 30802 32799 13001 11217 21229 38810 48568 52019 81500 333 11081
AAXX 14121 30823 12999 21902 11159 21193 39730 40415 52020 69902 80001 333 11104
AAXX 14121 30879 12999 30000 11245 21264 39502 40338 52003 69902 80003 333 11210
AAXX 14121 30935 11699 83303 11160 21211 39402 40405 52018 69962 70172 82542 333 11133
AAXX 14121 30949 32999 20000 11216 21241 39200 40393 52014 82040 333 11130
AAXX 14121 30965 329// 00000 11330 21348 39468 40414 52012 333 11196
AAXX 14121 31168 32999 62302 11195 21285 30156 40168 58006 80009 333 11184
AAXX 14121 31300 32984 00000 11252 21284 39931 40250 58001 333 11167
AAXX 14121 31329 32999 20000 11350 21374 39503 40266 52004 80002 333 11269
AAXX 14121 31369 32998 83302 11251 21269 30075 40168 57005 80002 333 10184
AAXX 14121 31416 32999 60000 11302 21319 30095 40195 52001 82011 333 11192
AAXX 14121 31484 NIL
AAXX 14121 31512 329// 03501 11184 21243 30073 40252 52007 333 11154
AAXX 14121 31538 32998 00000 11268 21287 39744 40223 54000 333 11216
AAXX 14121 31707 12998 40000 11183 21242 30121 40220 52018 60010 81071 333 11113
AAXX 14121 31735 11997 73102 11176 21222 30077 40171 52007 69900 70272 83031 333 11135
AAXX 14121 31770 11557 83202 11128 21155 30120 40151 57004 69900 78682 889// 333 11106
BBXX 3FPR9 14124 99214 71418 41497 90920 10220 20190 40190 54000 70222 89/// 22214 04200 20304 3//// 41006 5//// 6//// 85200 ICE /////
BBXX A8TG2 14123 99188 71044 41/// /2903 10250 20204 40110 50000 7//00 8//// 2224/ 00230 21502 31919 41502 51202 80220
BBXX PHFV 14124 99173 70880 41/98 80217 10260 40170 70322 8/243 22273 00280 20301 312// 4//// 5////
BBXX C6FN5 14123 99240 70887 41798 51025 10230 2017/ 40170 52010 70311 844/2 222// 00240 20302 306// 4//// 5//// 6//// 80190 ICE /////
BBXX NWS0003 14124 99578 71679 43/// /1116 10025 20017 49929 5//// 7//// 8//// 222// 04024 2//// 3//// 4//// 5//// 6//// 8//// ICE /////
BBXX WCAJ 14124 99545 71402 41396 81725 10045 20010 40080 54000 75152 8872/ 22233 00060 20806 325// 41304 5//// 6//// 80030 ICE /////
BBXX WHKM 14124 99373 10238 41698 32705 10190 20123 40210 54/// 7//00 8///5 22243 0//// 20301 3//// 4//// 5//// 6//// 80150 ICE /////
BBXX WKAB 14124 99413 70485 41195 82031 10152 20150 49991 57023 78166 889// 22225 00109 20606 317// 40805 5//// 6//// 80151 ICE /////
BBXX 3FPQ9 14123 99187 70785 41696 60635 10250 2019/ 40120 56000 70122 8607/ 22234 00270 20805 30505 41205 50805 6//// 80210 ICE /////
BBXX WCZ5238 14123 99034 71561 41598 81009 10250 20191 40114 52004 7//11 8874/ 22273 00254 20202 309// 40404 5//// 6//// 80210 ICE /////
AAXX 14121 22028 42598 72006 11005 21032 39957 49995 58002 84530 333 91008 91112
AAXX 14121 22106 42598 71703 10015 21023 39887 49964 58006 87500 333 87624 91008 91110
AAXX 14121 22127 41598 71005 10002 21021 39809 40009 51001 70283 86930 333 85921 91008 91114
AAXX 14121 22324 42484 81306 10009 21005 39976 40026 58004 889// 333 91011 91112
AAXX 14121 22621 41498 81705 10003 21024 39909 40049 57005 70282 8595/ 333 91012 91113
AAXX 14121 22831 42598 71301 11006 21012 30037 40097 57006 84930
AAXX 14121 22892 41497 82106 10028 20020 30012 40028 53005 78082 889// 333 87713 91110
AAXX 14121 26275 41397 81604 10039 20029 30051 40081 57007 76162 8772/ 333 87709
AAXX 14121 26389 41459 81902 10015 20007 39854 40119 57004 71082 886//
AAXX 14121 26499 41297 81704 10012 20004 39920 40151 58008 70262 886// 333 88705
AAXX 14121 26695 41/93 92004 10010 20010 39856 40167 58007 74542
AAXX 14121 26882 41/92 92005 10017 20017 39893 40172 54000 75054
AAXX 14121 20107 42597 10000 11065 21106 39934 40030 54000 81500 333 91001
AAXX 14121 22113 41484 71809 10017 21017 39907 49970 58008 70232 87930 333 91014 91116
AAXX 14121 22217 42498 81606 10009 21008 39961 49993 57010 889// 333 85916 91011 91113
AAXX 14121 22235 41380 82004 10001 21008 39844 40038 58005 70282 886// 333 88708 91007
AAXX 14121 22349 42598 81810 10008 21003 30065 40077 58004 885// 333 91013 91115
AAXX 14121 22408 41458 81705 10004 21013 39843 49991 57009 78582 883// 333 88914
AAXX 14121 22602 41357 81604 10002 21004 39777 40001 57002 77172 8872/ 333 88708
AAXX 14121 22619 41458 81904 10001 21010 39881 40042 57006 78587 889// 333 88912 91111
AAXX 14121 22721 41499 81502 10004 21002 39961 40062 58006 70272 887// 333 86710
AAXX 14121 22802 41469 81704 10024 20014 30013 40036 58007 78082 889// 333 91112
AAXX 14121 22820 42482 81502 10005 21006 39928 40067 57010 8535/
AAXX 14121 26059 41397 81802 10031 20023 30018 40043 53004 72582 886// 333 88709
AAXX 14121 26063 41397 81103 10031 20018 30039 40047 57003 76176 8872/
AAXX 14121 26094 42481 81603 10014 20006 30007 40084 58008 886// 333 88715
AAXX 14121 26157 41462 82004 10032 20022 39997 40046 52006 70282 885// 333 86712 91111
AAXX 14121 26167 41358 82003 10033 20028 39947 40059 57006 76162 886// 333 88706
AAXX 14121 26258 41598 82102 10041 20031 30007 40062 54000 72162 8872/
AAXX 14121 26298 41496 81803 10015 20010 39887 40119 57008 75152 886//
AAXX 14121 26359 41458 81803 10044 20037 39949 40082 52003 76162 8872/
AAXX 14121 26702 41996 22001 10070 20027 30028 40053 58008 71081 80088 333 91004 91108
AAXX 14121 26781 41/93 91804 10021 20021 39853 40146 58002 74564
AAXX 14121 27208 41496 81803 10009 20006 39954 40132 58012 75152 886//
AAXX 14121 27402 41295 81603 10009 20004 39971 40152 57007 71062 886// 333 88704
AAXX 14124 91245 32566 40513 10260 20220 30161 91155 555 91412
AAXX 14124 91165 32466 81011 30132 91202 555 91412
AAXX 14124 91182 12666 40000 10228 20206 30167 40171 58007 69901 91153 333 20228 70102 555 91412
AAXX 14124 91190 35966 01205 10183 20150 30158 40176 56003 91154 333 20183 555 91412
AAXX 14124 91212 32566 20714 10272 20222 31372 40105 51010 91154 333 20272 70051 91023 555 91412
AAXX 14124 91285 12666 80000 10200 20183 30158 40171 56007 60071 91153 333 70191 555 91412
AAXX 14121 38598 41696 60000 10036 21002 40323 57007 71022 84531
AAXX 14121 38599 41437 80705 10030 21002 39793 40320 57014 71022 8365 333 83714
AAXX 14121 38725 42999 40000 11002 21171 37819 48560 54000 80002
AAXX 14121 38734 42699 41402 11029 21149 37480 47090 57005 82503
AAXX 14121 38744 42699 50000 11088 21148 38057 48600 57005 85500
AAXX 14121 38836 41699 60000 10073 21057 39323 40265 56005 86531
AAXX 14121 38838 41/93 91803 10020 21002 39612 40301 53010 74742
AAXX 14121 38844 42999 61802 11007 21061 48530 53006 86030
AAXX 14121 38846 42999 62302 10008 21035 38559 48520 57003 83033
AAXX 14121 38847 41/92 90000 10005 20002 40316 56003 74744
AAXX 14121 38932 NIL
AAXX 14121 38933 41694 80000 10010 21019 39777 40309 57019 71042 886//
AAXX 14121 38944 42697 80000 10031 20013 39668 40213 57010 885//
AAXX 14121 38954 NIL
AAXX 14124 41858 31920 40000 10150 20130 30104 41052 71022 84030 333 10170 56090 58004 70000 84362
AAXX 14124 41863 31950 00000 10150 20130 30108 40153 70544 333 10172 58004 70000
AAXX 14124 41886 31930 02703 10177 20140 30125 40147 71040 333 10242 58009 70000
AAXX 14124 41895 32950 00000 10160 20140 30129 40153 333 10198 58003 70000
AAXX 14124 41909 31940 00000 10150 20140 30129 40142 70540 333 10210 58005 70000
AAXX 14124 41915 31950 00000 10172 20150 30124 40150 70500 333 10252 58005 70000
AAXX 14124 41926 31940 00000 10170 20140 30140 40153 70500 333 10220 58006 70000
AAXX 14124 41929 31950 03602 10186 20150 30133 40143 70500 333 10241 58004 70000
AAXX 14124 41933 31920 62701 10200 20140 30134 40143 71044 86010 333 10260 56090 58003 70000 86460
AAXX 14124 41939 31950 00000 10200 20150 40157 70544 333 10252 58008 70000
AAXX 14124 41941 31940 00000 10290 20170 30129 40135 70500 333 10260 58006 70000
AAXX 14124 41946 31940 00000 10190 20140 30149 40154 70500 333 10282 58012 70000
AAXX 14124 41947 31950 00000 10204 20140 30145 40147 70544 333 10240 59009 70000
AAXX 14124 41951 32950 00000 10204 20160 30139 40144 333 10254 58005 70000
AAXX 14124 41953 NIL
AAXX 14124 41958 31940 00000 10188 20150 30139 40141 70500 333 10245 58007 70000
AAXX 14124 41960 31940 00000 10190 20160 30146 40148 70500 333 10252 58004 70000
AAXX 14124 41963 31925 00000 10187 20170 30136 40139 70500 333 10265 58008 70000
AAXX 14124 41964 31931 00000 10181 20170 30153 40155 70500 333 10268 58010 70000
AAXX 14124 41965 NIL
AAXX 14124 41966 NIL
AAXX 14124 41984 32940 00000 10208 20150 30131 40133 333 10260 58008 70000
AAXX 14124 41989 32940 00000 10228 20140 30137 40140 333 10265 58011 70000
AAXX 14124 41998 31930 00000 10215 20160 30125 40130 70500 333 10275 58014 70000
AAXX 14121 38598 41696 60000 10036 21002 40323 57007 71022 84531
AAXX 14121 38599 41437 80705 10030 21002 39793 40320 57014 71022 8365 333 83714
AAXX 14121 38725 42999 40000 11002 21171 37819 48560 54000 80002
AAXX 14121 38734 42699 41402 11029 21149 37480 47090 57005 82503
AAXX 14121 38744 42699 50000 11088 21148 38057 48600 57005 85500
AAXX 14121 38836 41699 60000 10073 21057 39323 40265 56005 86531
AAXX 14121 38838 41/93 91803 10020 21002 39612 40301 53010 74742
AAXX 14121 38844 42999 61802 11007 21061 48530 53006 86030
AAXX 14121 38846 42999 62302 10008 21035 38559 48520 57003 83033
AAXX 14121 38847 41/92 90000 10005 20002 40316 56003 74744
AAXX 14121 38932 NIL
AAXX 14121 38933 41694 80000 10010 21019 39777 40309 57019 71042 886//
AAXX 14121 38944 42697 80000 10031 20013 39668 40213 57010 885//
AAXX 14121 38954 NIL
AAXX 14121 22271 41498 82010 11008 21027 30090 40100 52015 73873 886//
AAXX 14121 22520 41496 81405 10005 21003 30024 40033 57009 78582 889// 333 88916
AAXX 14121 22550 42497 81905 11006 21037 30104 40114 57005 885// 333 88612
AAXX 14121 22583 42484 71603 11044 21064 30105 40188 58006 875// 333 87611
AAXX 14121 22768 41497 81604 11011 21034 30100 40157 57005 70272 886// 333 88615
AAXX 14121 22845 41398 81804 11006 21012 39966 40124 57006 70272 8672/ 333 86708
AAXX 14121 22887 41499 71703 11038 21067 30141 40214 56001 70282 875// 333 88616 91109
AAXX 14121 23205 41498 82206 11049 21085 30146 40161 58002 73632 885// 333 88617 91112
AAXX 14121 23219 42498 82008 11062 21085 30150 40260 57006 73633 83630
AAXX 14121 23418 42665 71604 11081 21108 30202 40280 57003 87500 333 87635
AAXX 14121 23606 41560 81607 11061 21101 30085 40265 58014 73673 885// 333 88628
AAXX 14121 23711 41597 80901 11106 21126 30128 40312 57001 78587 889//
AAXX 14121 23804 42997 61502 11082 21101 30105 40260 58012 86031
AAXX 14121 27037 41497 81702 10004 21006 39996 40159 58001 71072 886// 88710
AAXX 14121 27199 41435 81303 11089 21100 30068 40275 57012 77372 8672/
AAXX 14121 27271 41496 81104 11027 21037 30062 40222 58006 77172 8872/
AAXX 14121 27459 41296 81702 11026 21032 30034 40235 58003 77172 8872/ 333 88705
AAXX 14121 27730 42598 81903 10000 21034 30030 40229 58003 885// 333 88632
AAXX 14121 26997 41219 81803 10017 20014 39976 40199 58004 75155 886// 333 88706
AAXX 14121 27595 41495 81602 11070 21087 30150 40306 57005 77372 8872/
AAXX 14121 27612 41396 81901 10015 20004 39986 40181 57007 76186 8872/
AAXX 14121 27707 41410 82002 10007 20004 39894 40191 54000 71022 886// 333 88712
AAXX 14121 27719 41496 81703 10017 20001 39958 40212 58007 72582 883//
AAXX 14121 27786 42497 81805 11038 21053 30144 40312 58005 885// 333 88611
AAXX 14121 27857 42998 61803 11019 21043 30109 40277 57003 86030
AAXX 14121 27906 41394 81405 10011 20008 39967 40213 58004 78082 889//
AAXX 14121 27928 41996 81802 11009 21019 30033 40245 57001 71022 8802/
AAXX 14121 27947 42497 61606 11022 21050 30111 40276 57008 86500 333 86612
AAXX 14121 27962 42497 82005 11020 21052 30077 40305 58002 885// 333 88614
AAXX 14121 27983 42497 81302 11074 21087 30198 40334 54000 886// 333 88710 93506
AAXX 14121 27995 42998 81301 11062 21089 40348 54000 8807/
AAXX 14121 28506 41996 70000 11152 21172 30218 40342 58004 71022 86055
AAXX 14121 28704 42998 80401 11136 21156 30236 40341 57007 83031 333 93505
AAXX 14121 28711 42998 82102 11141 21161 39953 40359 52005 82031
AAXX 14121 28807 41697 80000 11150 21177 30307 40363 54000 71022 8355/
AAXX 14121 34009 41294 81604 10006 20003 39917 40227 58006 71042 886//
AAXX 14121 34110 41496 81603 11004 21013 39960 40245 58006 71052 886// 333 88717 93401
AAXX 14121 34123 41/08 91604 11020 21020 30077 40268 58003 74342
AAXX 14121 34152 42399 89902 11032 21046 30112 40317 53002 886// 333 88707
AAXX 14121 34163 42498 81603 11037 21042 40328 58003 885// 333 88620 93508
AAXX 14121 34171 41/01 91403 11052 21052 30129 40331 58001 77074 333 89/02 96045
AAXX 14121 34186 41296 81903 11051 21058 30207 40352 52002 71022 886// 333 88704
AAXX 14121 34247 41258 81903 11005 21014 30178 40296 58006 71022 885// 333 85706
AAXX 14121 34336 42960 81502 11003 21012 30185 40292 58004 8802/
AAXX 14121 34391 41496 81603 11055 21062 30320 40352 52001 71044 886// 333 88719
AAXX 14121 35011 42999 00000 11161 21187 30206 40374 52007 333 93507
AAXX 14121 35121 41996 00000 11176 21194 30217 40378 52009 71011
AAXX 14124 13629 12660 43204 10064 20048 39170 42818 57005 60001 81501 333 81640
AAXX 14124 40100 12856 70000 10188 20099 30152 40183 56012 60001 87070 912// 333 85457 92426
AAXX 14124 40101 11830 80604 10109 20044 39115 48517 56012 60001 71044 8802/ 912// 333 88458
AAXX 14124 40102 NIL
AAXX 14124 40103 NIL
AAXX 14121 08521 32570 10204 10215 20099 30225 40296 50004 81800 333 81820
AAXX 14121 08524 11470 29902 10197 20121 30197 40295 52006 60011 70185 81831 333 81815 91106
AAXX 14121 33415 31596 71404 10060 20046 39772 40171 58005 71042 84531 333 84620
AAXX 14124 60318 32560 32412 10207 20108 40263 58009 83200 333 83820
AAXX 14124 65501 32960 70204 10297 21068 3//// 40134 80002 333 0//00 59015 87076
AAXX 14124 65502 32965 70604 10288 21067 39754 40132 80002 333 0//00 59004 87076
AAXX 14124 65503 32960 70608 10300 20029 39787 40131 80002 333 0//00 59004 87076
AAXX 14124 65505 32965 70404 10303 21021 39790 40127 80002 333 0//00 59009 87076
AAXX 14124 65507 32960 71004 10306 21017 39774 40122 80002 333 0//00 59008 87076
AAXX 14124 65510 31958 50610 10296 20005 39608 40117 70622 80002 333 0//00 59006 85076
AAXX 14124 65516 32960 50806 10306 21053 39818 40124 80002 333 0//00 59002 85076
AAXX 14124 65518 32965 70806 10305 21010 39751 40112 80002 333 0//00 59006 87076
AAXX 14124 65522 31958 70410 10312 21056 39791 40119 70622 80002 333 0//00 59003 87076
AAXX 14121 08579 11465 62702 10160 20106 30132 40257 52009 60011 70282 82208 333 82817 86270 91006 91106
AAXX 14124 91945 36/// /0708 10255 20210 30147 40152 56012 333 10298
BBXX UCKZ 14121 99546 30221 41194 83208 10002 21011 40053 57016 71022 886// 22233 00004 20402 324// 40904
BBXX 3FMV6 14123 99003 10041 41598 81810 10291 20277 40109 51042 70200 86774 22200 06261 20502 318// 40602 80281
BBXX UBQE6 14121 99044 10001 41597 72501 10250 2//// 40090 52005 7022/ 8871/ 22253 00023 29999 39999 49999 59999
BBXX DILS 14124 99059 30101 41998 01811 10260 20228 40119 57010 70200 80000 22274 04260 20302 30000 80238
BBXX ONDY 14124 99035 10072 41/94 92612 10310 2024/ 40130 54000 70542 89/// 22244 00299 2//// 3//// 4//// 5//// 6//// 80260 ICE /////
BBXX A8KH9 14124 99139 30104 41597 81613 10205 20141 40115 54000 70222 8677/ 22243 20502 31800 41204 5//// 80165
BBXX NWS0029 14124 99201 70340 43/// /0722 10241 20177 40190 5//// 7//// 8//// 222// 04252 2//// 3//// 4//// 5//// 6//// 8//// ICE /////
BBXX A8QR9 14121 99231 10674 41/97 ///08 10260 40160 57020 701// 8/059 22234 04250 2////
BBXX DDDI2 14124 99251 30483 41/98 10514 10270 20250 40130 56010 70100 81/6/ 22254 20603 3//// 4//// 5//// 80255
BBXX A8JS5 14124 99049 70004 41397 89903 10280 20239 40120 58010 71122 886// 22223 04299 20201 318// 40502 5//// 80250
BBXX DGZR2 14123 99208 10627 41497 60613 10255 20164 40140 54000 70211 8134/ 22234 00280 20202 80195
BBXX DGZL 14123 99123 10462 41697 31016 10285 20182 40145 57025 70111 83480 22264 00270 20402 310// 40803 80215
BBXX TBWUK05 14124 99211 50103 41498 51412 10240 20187 40209 58187 7//11 857// 22273 00230 20301 31400 40702 50000 80206
BBXX 44255 14121 99473 70573 46/// /0409 11023 40248 5//// 22200 00041 10604 70018 333 91210
BBXX SBLW 14123 99317 70413 43/98 41621 10214 40242 53006 22254 00221 2//// 4////
BBXX SBLI 14121 99300 71438 43/98 70807 10179 40270 58010 22264 00200 2//// 4//// NNNN 426621110
BBXX 42067 14121 99300 70886 46/// ///// 10125 20121 40248 91140 22200 00162 10501 70005
BBXX 41037 14121 99340 70775 46/// /0306 10130 40248 55000 91200 22200 00194 333 91207
BBXX 44139 14121 99442 70571 46/// /0515 10048 40183 52011 22200 00092 10605 70026 333 91218
BBXX A8UU3 14124 99475 70597 41298 10718 11020 21020 40300 56010 7//00 81700 22233 2//// 309// 40503 81020
BBXX DHEE 14123 99417 70665 41/98 83521 10057 20019 40245 52030 70322 885// 22254 00110 20402 317// 40405 80040
BBXX 41038 14121 99341 70777 46/// /0105 10123 40286 53006 91200 22200 00141 333 91206
BBXX WCAJ 14124 99545 71402 41396 81725 10045 20010 40080 54000 75152 8872/ 22233 00060 20806 325// 41304 5//// 6//// 80030 ICE /////
BBXX WKAB 14124 99413 70485 41195 82031 10152 20150 49991 57023 78166 889// 22225 00109 20606 317// 40805 5//// 6//// 80151 ICE /////
BBXX 3FPQ9 14123 99187 70785 41696 60635 10250 2019/ 40120 56000 70122 8607/ 22234 00270 20805 30505 41205 50805 6//// 80210 ICE /////
BBXX DDJS2 14123 99355 71356 41397 82818 10163 20142 40247 53/// 70322 8/774 22234 04171 20101 327// 40503 5//// 80151
BBXX WDC6907 14124 99427 70543 41396 80637 10083 2006/ 40085 52002 76222 8872/ 22222 00130 20609 313// 40906 5//// 6//// 80073 ICE /////
BBXX SHIP 14124 99353 71450 41298 32310 10190 20175 40256 54000 70210 83200 91200 22224 00170 1//// 2//// 3//// 4//// 5//// 6//// 80180
BBXX WCX8812 14124 99440 71684 41497 72842 10090 2005/ 49792 52032 70162 872// 22224 00110 20212 332// 41012 5//// 6//// 80070 ICE /////
BBXX 3FBC9 14124 99234 71435 41698 70919 10200 40186 56014 70222 86854 9//// 22223 00220 20304 308// 40506 5//// 6//// 80180
BBXX C6FN5 14123 99240 70887 41798 51025 10230 2017/ 40170 52010 70311 844/2 222// 00240 20302 306// 4//// 5//// 6//// 80190 ICE /////
BBXX A8IP2 14123 99333 70409 41498 41820 10205 20179 40222 57013 7//22 82164 22254 06210 20606 333// 41005 5//// 80188
BBXX DDSD2 14123 99258 70568 41/97 /2217 40100 54000 700// 8//// 22214 20606 312// 40806 5////
BBXX C6VR4 14123 99260 70423 41598 61327 10241 20178 40205 53005 70322 84468 22224 04247 20705 309// 41006 5//// 80201
BBXX 44022 14121 99409 70737 46/// ///00 10045 21001 40298 51016 91200 22200 00086 333 91202
BBXX 44097 14121 99410 70711 46/// ///// 1//// 91202 22200 00125 11003 21002 316// 41101 70013
BBXX 46053 14121 99342 71198 46/// /1302 10131 40201 53011 91150 22200 00136 11102 20401 326// 41102 70010 333 91203 555 11025 22026 31148 41303 61149 128025 120022 133023 144023 144025 142027
BBXX 46238 14121 99334 71195 46/// ///// 1//// 91150 22200 00148 11303 20902 325// 41302 70014
BBXX 51205 14121 99210 71564 46/// ///// 1//// 91148 22200 00240 10904 20903 334// 41402 70021
BBXX DDSB2 14123 99097 70793 41697 80911 10240 20205 40100 54000 76422 8/4// 22224 29902
BBXX A8IP3 14123 99162 70858 41/97 80508 10240 20214 40150 54000 76066 8//// 22224 04270 20302 80222
BBXX PHIN 14124 99475 70369 41297 82824 10093 20048 40164 57024 78086 887// 22223 00150 20606 331// 40806 80071
BBXX DMRX 14124 99460 71700 41/96 /3042 10045 20023 49750 53012 70222 8//// 22224 00090 2//// 80035
BBXX 41041 14121 99142 70460 46/// /1010 10265 20209 40131 53019 91150 22200 00266 11007 20705 3//// 41004 70033 333 91212 555 11107 22114 31120 41014 61149 100101 102107 101112 101107 095106 095105 81012 91120
AAXX 14121 33261 /1/04 91602 10021 20021 30017 40202 58004 75154 333 96045 555 69901
AAXX 14121 33562 31218 81803 10056 20049 39818 40180 58008 71022 886// 333 88703
AAXX 14121 34712 31658 71107 10027 20019 30159 40247 58009 71022 8253/
BBXX 3FMH7 14124 99153 71043 41598 13219 00/// 10260 20232 40134 55000 70200 81100 9//// 22273 00270 1//// 2//04 399// 41207 5//// 6//// 80240
BBXX PCEX 14123 99131 70875 41598 60208 10257 20188 40110 58003 70122 8117/ 22200 02257 20101 80210
BBXX A8DE3 14124 99226 50747 41398 81807 10180 20131 40175 52005 7//22 887// 22283 00200 299// 320// 41401 80150
BBXX PDZS 14123 99527 50464 41/92 /2915 10052 20044 40117 56007 74244 8/0// 22231 02036 20402 32225 40806 50805 80048
BBXX 5BDK2 14124 99026 70806 41497 72213 10230 2020/ 40150 51010 70300 86186 22283 00250 20602 322// 40602 5//// 6//// 80210 ICE /////
BBXX WCZ5238 14123 99034 71561 41598 81009 10250 20191 40114 52004 7//11 8874/ 22273 00254 20202 309// 40404 5//// 6//// 80210 ICE /////
BBXX A8RL3 14121 99010 30882 41/97 50203 10290 20268 40080 54000 70262 8/4// 22213 29901 318// 4//03 5//// 80274
BBXX PCAM 14123 99365 51758 41/96 /0912 10181 20152 40140 52/// 75852 8//// 22222 00197 2//// 80163
BBXX 2AGH7 14123 99179 31664 41/99 /1114 10270 20241 40123 54000 70300 8/14/ 22264 00250 20502 30000 80250
BBXX VRWW8 14124 99334 31735 41/97 90224 10220 20220 40080 57030 70202 8//// 22233 00220 2//// 3//// 4//// 5//// 80220
BBXX VHAF 14124 99394 31451 41998 01715 10149 20108 40238 51020 70200 80000 22284 20503 324// 41203 80127
BBXX VNSZ 14124 99387 31449 46/// /1520 10146 20097 30171 40198 52010 22235 04171 85119
BBXX SHIP 14124 99034 31453 41/98 51305 10280 20253 40081 54000 70222 85/// 22275 0//// 2//// 3//// 4//// 80260
BBXX VRAE4 14124 99003 31374 41598 42906 10290 20248 40104 52022 70211 8286/ 22273 04300 299// 399// 410// 80260
BBXX ZCBU3 14124 99419 31487 41598 51710 10145 20101 40215 56008 70222 85500 22284 00157 20202 319// 40403 5//// 80122
BBXX PCDE 14123 99399 30985 41597 83304 10164 20116 40230 54000 70322 888// 22223 2//// 324// 41003 80136
BBXX PCCL 14123 99279 31562 41299 51316 10238 20147 40145 53015 70122 83770 22222 04250 20402 316// 40905 80180
BBXX MCCN6 14124 99301 31136 41398 21733 10212 20196 40089 56005 70111 82100 22233 00211 2//// 317// 40707 5//// 80202
BBXX PBFM 14123 99375 70274 41498 50304 10170 20075 40313 51003 70122 83492 22254 20200 329// 40604 80118
BBXX 9V9243 14123 99338 10265 41597 32812 10190 40215 57012 70200 821/1 22233 00200 20301 329// 40402
BBXX A8JI2 14124 99395 70203 41597 72923 10160 20088 40270 50000 70122 8789/ 22254 04183 20609 331// 41210 5//// 80120
BBXX OZDM2 14124 99368 10010 41497 32420 10170 20137 40247 58005 70100 82140 22224 04180 20104 320// 40206 80150
BBXX WHKM 14124 99373 10238 41698 32705 10190 20123 40210 54/// 7//00 8///5 22243 0//// 20301 3//// 4//// 5//// 6//// 80150 ICE /////
BBXX MINUK03 1412/ 99550 70015 46/// ///// 10048 49824 52028
BBXX 62023 14123 99514 70079 46/97 /2624 10060 2//// 49942 5//// 22200 10709 70043 333 91145 555 70068 81008
BBXX 62087 14121 99547 10068 46/// /0602 10091 20032 4//// 5//// 22230 00091
BBXX WDF6832 14123 99360 70245 41898 63505 10180 2013/ 40350 52040 7//22 86148 22265 00180 20101 33232 40101 50101 6//// 80150 ICE /////
BBXX OXBB2 14121 99352 70181 41698 80509 10180 20148 40280 57/// 70300 887// 22224 00180 20102 80160
BBXX LMEL 14121 99603 10053 43/// /1509 10066 20047 49683 5//// 222/2 04101 1//// 3//// 4//// 5////
BBXX LF4H 14124 99596 10022 46/// /2426 10069 20041 49656 52042 8//// 22200 06087 10809 70045 333 91147
BBXX NWS0020 14124 99368 10133 43/// /2211 10174 20113 40238 5//// 7//// 8//// 222// 04191 2//// 3//// 4//// 5//// 6//// 8//// ICE /////
BBXX VRGJ6 14123 99372 10073 41598 22014 10170 20094 40272 58019 70100 81140 22224 04176 20502 331// 40703 5//// 80130
BBXX DGOS 14123 99357 70306 41598 53310 10206 20149 40295 52/// 70111 8524/ 22200 20303 333// 40303 80170
BBXX UCKG 14121 99730 10094 41/97 90706 10030 49811 54000 70222 22213 00090 20303
BBXX DGNB 14123 99376 70253 41397 53308 10160 20078 40315 52015 70211 85445 22264 00187 22102 80115
BBXX A8CH2 14124 99382 70279 41498 33204 10200 20153 40310 50000 70222 83145 22200 04160 20202 335// 40202 80170
BBXX VRFX8 14124 99425 70203 41598 62729 10150 20080 40220 52030 76061 8596/ 22254 0//// 20608 330// 40910 80110
BBXX A8MW6 14124 99399 70098 41998 43211 10180 20081 40240 54000 70111 84/3/ 22281 00190 20603 332// 41214 5//// 80125
BBXX SLCO 14124 99229 11339 43/97 80612 10247 40172 53006 22234 00242 2//// 4////
BBXX PHPP 14124 99059 10872 41396 80422 10260 20241 40080 53006 76065 8771/ 22223 00300 20202 316// 40903 80246
BBXX WCX8882 14124 99382 11440 41598 51719 10110 2007/ 40190 55005 7//22 852// 22255 00110 20404 327// 40505 5//// 6//// 80090 ICE /////
BBXX AUYR 14124 99131 10745 31496 43506 10290 20250 40137 57002 70514 86600 22213 30/60 20/12165 2124514/2008 81891410534113 1001695/121/ 2266086/5 5131/097086 /5030 20/4508 7/06218/ 1848087/4 6488/297088 /2165 18/4608 8/51120/ 5150087/2 0461/186087 /1033 21/2308 6/567220 90031002 696/121/ 12054/5721/ 26055/0221/ 31254/4721/ 17254/421511
BBXX KAOU 14124 99078 10984 43/// /3204 10277 20221 40085 5//// 7//// 8//// 222// 04301 2//// 3//// 4//// 5//// 6//// 8//// ICE /////
BBXX A8MZ9 14124 99086 11090 41497 40420 10273 202320 54000 70300 842// 22255 04270 20804 303// 41204
BBXX MIBR 14124 99218 11174 41296 80426 10205 20164 40174 56010 70222 8477/ 22224 00249 20404 3//// 4//// 5//// 80180
BBXX PBOF 14123 99388 11180 41597 53522 10050 21026 40350 53/// 70322 84171 22200 20101 30000 80020 90337
BBXX DGDD 14121 99318 11323 41/97 33208 10170 20079 40200 53005 70111 83/// 22254 00220 2//// 3//// 4//// 5//// 80120
BBXX VCXF 14124 99464 70484 41396 80232 10000 2000/ 40185 57012 78572 885// 22200 02025 20502 335// 40805 81001
BBXX 46207 14121 99509 71299 46/// /0806 10066 40145 57022 22200 00084 11204 70020 333 91208
BBXX VCXF 14124 99464 70484 41396 80232 10000 2000/ 40185 57012 78572 885// 22200 02025 20502 335// 40805 81001
BBXX 46207 14121 99509 71299 46/// /0806 10066 40145 57022 22200 00084 11204 70020 333 91208
AAXX 14121 01046 41585 81417 10026 21023 39799 49806 58024 70322 888// 333 91123
BBXX 3ERR2 14124 99635 10053 41498 81727 10085 20022 49599 57022 70222 8477x 22200 06094 11309 70045 333 91137
BBXX LF3F 14124 99643 10078 41698 61219 10069 20004 49642 57011 78080 8232/ 22200 04089 10807 70033 333 91124
BBXX LF3N 14124 99653 10073 41998 51611 10071 20015 49643 57012 70222 83036 22200 00089 10806 70030
BBXX LF4B 14124 99606 10037 47/98 /2232 10079 49639 52036 723// 22200 00070 10914 70071 333 91149
BBXX LF4C 14124 99584 10019 41698 72531 10080 20022 49702 52026 70222 877// 22200 00081 10811 70053 333 91137
BBXX LF5T 14124 99660 10081 41698 41515 10060 20010 49654 57006 70121 839// 22200 06082 333 91132
AAXX 14124 87344 32965 01408 10198 20114 39620 40159 52005 333 10238 20137
AAXX 14124 87349 32970 01406 10193 20094 39770 40159 51004 333 10233 20133 30013
AAXX 14124 87371 32462 61812 10198 20158 30122 40144 52009 86100 333 10235 20147 56300 86814
AAXX 14124 87374 32565 61815 10204 20147 30046 40134 52011 86500 333 10212 20154 56400 86620
AAXX 14124 87395 32465 62012 10173 20136 30066 40111 51013 86500 333 10200 20148 56400 86615
AAXX 14124 87418 32965 31806 10226 20037 39365 40139 52015 83070 333 10280 20177 56060 83360
AAXX 14124 87436 NIL
AAXX 14124 87448 32965 00000 10200 20132 39614 40172 52008 333 10200 20078
AAXX 14124 87453 32965 01408 10182 20132 39682 40165 52009 333 10225 20115
AAXX 14124 87467 NIL
AAXX 14124 87497 32565 61606 10198 20147 30097 40124 51008 84570 333 10202 20148 56430 84620 83360
AAXX 14124 87506 32970 03203 10155 20035 38612 48537 58003 333 10235 20070 95000
AAXX 14124 87509 31960 00000 10200 20026 39322 40155 50001 70600 333 10260 20108 30009 90003 90079 90085
AAXX 14124 87534 32960 01404 10197 20142 30009 40169 52007 333 10223 20134 30010
AAXX 14124 87548 32462 81615 10186 20149 30057 40152 53004 886// 333 10222 20154 56399 88715
AAXX 14124 87576 01460 71811 10203 20171 30122 40146 52008 60034 70162 86670 333 10203 20158 56470 69901 83714 85622
AAXX 14124 87582 01460 61817 10207 20163 30132 40139 52005 69954 70351 86500 333 10207 20174 56300 69901 86614
AAXX 14124 87585 01460 71405 10202 20171 30108 40137 53007 69974 72051 87600 333 10202 20171 30016 56300 69901 87718
AAXX 14123 87480 32565 71412 10207 20148 30112 40141 52007 87500 333 10229 20143 56300 87625
AAXX 14123 87532 31458 41405 10172 20152 30014 40183 52008 71000 84500 333 10230 20130 56300 84612
AAXX 14121 34560 41597 71306 11015 21031 30146 40318 57004 70242 85501 333 85623
AAXX 14121 34720 42597 60803 10038 20017 30215 40255 57007 85549
AAXX 14121 34730 41396 80805 10026 20021 30169 40263 57005 71042 886// 333 88707
AAXX 14121 34740 42598 81104 10035 20020 30167 40265 57003 8658/
AAXX 14121 34824 42597 81203 10110 20050 30228 40233 57010 8257/
AAXX 14121 34858 41496 81503 10038 20013 30172 40281 55004 71022 886//
AAXX 14121 34866 42998 71104 10026 21009 30314 40305 57004 8002/
AAXX 14121 34880 41997 50503 10009 21010 30352 40325 57004 70241 80001 333 85000
AAXX 14121 37018 42698 82802 10128 20006 30151 40226 56008 83571
AAXX 14121 37054 41996 81102 10016 20000 39889 40283 54001 71022 8002/
AAXX 14121 37472 41596 81205 10065 20049 30307 40285 57006 71022 8357/
AAXX 14121 22165 41498 81511 10006 21002 39999 40060 52009 72582 889// 333 91114
AAXX 14121 22676 42482 81504 11036 21054 30098 40178 57005 885//
AAXX 14121 22837 42499 81604 10010 21010 30030 40101 58004 886// 333 88714
AAXX 14121 22954 41265 81804 11015 21020 39900 40153 58002 70272 886// 333 88704
AAXX 14121 23405 42474 81504 11066 21090 30108 40211 58006 8555/ 333 85617
AAXX 14121 23412 42699 71504 11074 21100 30155 40256 57006 87500 333 87639
AAXX 14121 23803 42999 81402 11122 21135 30115 40307 53004 84031
AAXX 14121 27066 41496 81703 11029 21042 30030 40212 57005 77177 8672/ 333 86712
AAXX 14121 27083 41999 81703 11073 21090 30014 40247 57008 70272 8807/
AAXX 14121 27113 41260 81803 10005 21003 39997 40144 58002 70272 886// 333 88706
AAXX 14121 27242 41460 82702 10000 21003 30051 40181 54000 78582 889// 333 87712
AAXX 14121 27329 41559 81802 10008 20000 30051 40177 58003 71022 885//
AAXX 14121 27355 42497 81803 11014 21022 30051 40218 52001 885//
AAXX 14121 27373 41499 81605 11035 21049 30019 40243 57004 70273 886// 333 88712 9298/
AAXX 14121 27665 41997 71903 11026 21056 39987 40266 57007 70272 8705/
AAXX 14121 27835 41997 61402 11014 21037 30084 40246 58009 70232 86030
AAXX 14121 28009 41998 21501 11147 21160 30090 40316 58011 70271 80001
AAXX 14121 28411 41996 80000 11188 21207 30137 40352 52001 71072 82031
AAXX 14121 28418 42961 20000 11186 21205 30177 40361 52004 80003
AAXX 14121 22282 415// 82314 11014 21034 30101 40109 52011 78583 8695/ 333 91118
AAXX 14121 22438 NIL
AAXX 14121 22471 42484 81807 11022 21034 30103 40127 53001 885// 333 88610
AAXX 14121 22563 41473 81904 11020 21035 30101 40140 58005 70272 885// 333 88611
AAXX 14121 22641 42499 81203 11003 21015 30074 40090 58010 886// 333 88711 91107
AAXX 14121 22695 42498 81705 11050 21071 30058 40215 58004 885// 333 88617
AAXX 14121 22867 41498 81302 11013 21030 30042 40157 57006 70282 886// 333 88711 91106
AAXX 14121 22939 41597 71705 10001 21010 39961 40124 58010 70272 86530 333 86620
AAXX 14121 22996 42598 61603 11086 21105 30061 40260 57011 82510
AAXX 14121 23324 42582 61904 11074 21104 30193 40274 57004 86500 333 86630
AAXX 14121 27008 42498 81604 10007 20001 39944 40115 57010 886//
AAXX 14121 27051 41497 81702 11016 21030 30008 40178 54000 70272 885// 333 84913
AAXX 14121 27225 42862 82003 10009 21002 30030 40162 58003 8802/
AAXX 14121 27252 41458 81803 11016 21024 39997 40187 58009 77177 8877/ 333 88714
AAXX 14121 27333 41280 81806 10003 21008 30022 40181 57004 70273 887// 333 88706
AAXX 14121 27369 41698 81903 11024 21036 30095 40236 57003 72272 885//
AAXX 14121 27393 41495 81602 11092 21108 30123 40299 57010 77372 8677/
AAXX 14121 27479 41956 82103 11023 21038 30120 40258 57006 77173 8802/
AAXX 14121 27532 41396 82104 11005 21008 39985 40202 57006 72272 8872/ 333 86707
AAXX 14121 27648 41597 81803 11014 21034 30071 40243 57001 73632 885//
AAXX 14121 27675 41496 81805 11023 21035 30104 40279 57006 77172 8872/ 333 88514
AAXX 14121 27679 41598 81806 11027 21040 30060 40290 58005 70272 885// 333 88621
AAXX 14121 28214 41996 81002 11219 21232 30109 40345 57004 71022 82056
BBXX 2BLY5 14123 99155 50358 41598 40513 10280 20205 40136 50006 7//11 8/261 22253 00270 20302 80230
BBXX A8QJ7 14124 99157 50358 41/98 /0409 10280 20266 40136 50007 70100 8/13/ 22213 06280 2//// 3//// 4//// 5//// 80270
AAXX 14121 08512 32580 73401 10160 20075 30228 40314 52011 84832 222// 0//// 333 81825 83845 85070
AAXX 14124 60353 12975 00000 10180 20146 40241 58011 60001 333 0//00 91838 95900
AAXX 14124 60367 12965 0//// 10173 20131 40231 53004 60001
AAXX 14124 60369 12960 12204 10205 20038 40241 58010 60001 80002 333 0//00 81070 91837
AAXX 14124 60401 NIL
AAXX 14124 60403 12970 00000 10200 20072 40241 58019 60001 333 0//00 95900
AAXX 14124 60425 12570 32408 10167 20120 40261 58007 60001 82230 333 0//00 82830 95900
AAXX 14124 60461 12570 52208 10184 20102 40256 58004 60001 85200 222// 20000 333 85826 91828 95900
AAXX 14124 60467 12970 11206 10145 20069 40273 58009 60001 81030 333 0//00 81360 95900
AAXX 14124 60492 12670 32610 10184 20131 40261 58003 60001 82102 333 82830 95900
AAXX 14124 60515 12960 30000 10127 20073 40272 58015 60001 80002 333 0//00 83070 95900
AAXX 14124 60517 12970 22404 10191 20121 40269 58002 60001 82080 333 0//00 82360 95900
AAXX 14124 60522 12575 42704 10165 20087 40274 58005 60001 81230 333 0//00 81826 84360 95900
AAXX 14124 60557 12975 60000 10128 20031 38935 48576 58003 60001 83082 333 83360 84073 95900
AAXX 14124 60563 12960 42710 10155 20041 39378 48579 58002 60001 80002 333 0//00 84073
AAXX 14124 60603 12960 21008 10173 20031 40279 58012 60001 80002 333 0//00 82073
AAXX 14124 60638 12960 3//// 10195 20036 40250 58015 60001 80002 333 0//00 83073
AAXX 14124 60686 12960 41017 10263 21038 40183 58009 60001 82032 333 0//00 82360
BBXX BAREU08 14124 99258 70568 46/// ///// 40109 52008 22214
BBXX 41101 14124 99146 70562 46/// /1408 10268 20232 40104 52016 22200 00273 10805 70023
BBXX BAREU54 14124 99107 70817 46/// ///// 40107 52011 22253
BBXX BAREU11 14124 99097 70794 46/// ///// 40106 22213
BBXX BAREU00 14124 99450 70603 46/// ///// 40214 52017 22223
BBXX A8SF8 14124 99285 70495 41597 41728 10240 20196 40155 57/// 70211 844// 22254 04240 20707 80210
BBXX BAREU06 14124 99446 70523 46/// ///// 40132 57009 22274
BBXX BATEU05 14124 99624 70504 46/// /3217 11058 21060 40034 51018 22272
BBXX BATFR13 14124 99331 70380 44498 31721 10209 20162 40254 53008 70122 832// 22214 00219 20404 300// 41004 5////
BBXX FVNM 14124 99064 70962 46/// /3511 10264 20232 40111 53002 22221 00269
AAXX 14121 08501 32/// /1805 10160 20084 30256 40292 54000 333 91007 91108 555 50004 60005
AAXX 14121 08505 32470 61002 10164 20109 30259 40309 52012 84832 333 82818 83635 555 50024 60007
AAXX 14121 08506 32/// /1801 10166 20101 30245 40317 52008 555 50004 60005
AAXX 14121 08509 11560 32802 10148 20101 30247 40312 52010 69901 70181 81835 333 81830 555 59914 60007
AAXX 14121 08511 32570 32201 10154 20087 30204 40313 52009 81801 333 81823 555 50004 60005
AAXX 14121 08512 NIL
AAXX 14121 08515 32580 40202 10164 20092 30194 40314 52013 81501 222// 00/// 333 81628 84080 910// 911// 555 50004 60007 912//
AAXX 14121 08521 32570 10204 10215 20099 30225 40296 50004 81800 333 81820 555 50004 60007
AAXX 14121 08522 32575 29902 10217 20121 30226 40295 52004 82131 222// 00204 314// 40301 333 82823 555 50004 60005
AAXX 14121 08524 11470 29902 10197 20121 30197 40295 52006 60011 70185 81831 333 81815 91106 555 50014 60005
AAXX 14121 08530 NIL
AAXX 14121 08531 32/// /9903 10151 20111 30218 40256 52011 333 91008 91108 555 50034 60005
AAXX 14121 08532 31465 72906 10154 20112 30095 40256 51008 7021/ 82831 333 82815 87072 555 50064 60007
AAXX 14121 08533 32/// /3304 10166 20152 30237 40266 52005 333 91006 91106 555 59934 60005
AAXX 14121 08534 11462 62603 10170 20124 30241 40258 51010 60021 70162 82236 333 82818 85070 555 50074 60007
AAXX 14121 08535 11462 72603 10172 20123 30166 40258 52009 69981 70382 85204 333 85815 91007 91107 555 50114 60005
AAXX 14121 08537 31460 62702 10166 20107 30248 40252 50008 702// 82201 333 82815 86075 555 50034 60007
AAXX 14121 08540 11460 72803 10140 20126 30178 40247 50011 60021 72581 86301 333 83817 81920 85633 85070 555 50104 60027
AAXX 14121 08541 NIL
AAXX 14121 08544 11458 73302 10118 20104 30222 40243 52013 60031 78082 86801 333 84818 86630 555 50164 60027 90205 96681 90304
AAXX 14121 08545 11462 72703 10136 20067 30156 40240 52009 60021 70282 86832 222// 00150 333 82818 85645 91105 555 50094 60005
AAXX 14121 08548 12/// /2201 10125 20119 30043 40249 52009 69991 555 50064 60005
AAXX 14121 08551 11564 73304 10132 20077 30178 40236 52011 69921 70282 878// 333 85821 86625 91007 91108 555 50084 60005
AAXX 14121 08554 32565 72503 10175 20145 30257 40266 54000 83834 333 82823 86075 555 50054 60005
AAXX 14121 08558 11462 72804 10147 20111 39958 40251 50006 69981 70152 85202 333 85814 86099 91107 555 50014 60005
AAXX 14121 08560 11340 72603 10089 20077 39479 40242 52009 69921 72162 874// 333 84709 85812 91006 91106 96016 555 50194 69905
AAXX 14121 08561 11262 63003 10148 20138 30023 40255 50007 69951 72152 84834 333 82706 83820 91107 555 59994 69947
AAXX 14121 08562 12/// /3103 10142 20134 39960 40254 52007 69941 333 91109 555 50014 69945
AAXX 14121 08567 11356 72603 10086 20060 39569 40239 52010 60021 72162 872// 333 81706 87810 91005 91105 555 50074 69975
AAXX 14121 08568 11/00 92911 10038 20038 38658 48529 50005 60021 78084 333 89/00 91016 91117 555 50244 69915 90230 96680
AAXX 14121 08570 31459 72504 10135 20094 39779 40236 50003 71522 85848 333 81815 83818 85299 91006 91107 555 59974 60005
AAXX 14121 08571 12/// /2703 10109 20091 39544 40249 52004 69911 333 91108 555 50064 60005
AAXX 14121 08575 11465 72605 10085 20038 39407 40221 52009 60011 70282 872// 333 87818 91010 91110 555 50084 60005
AAXX 14121 08579 11465 62702 10160 20106 30132 40257 52009 60011 70282 82208 333 82817 86270 91006 91106 555 50054 60005
BBXX BATFR35 14124 99167 51512 46/// /1109 10269 20217 40137 22262 00287
BBXX BATFR56 14124 99115 30704 44497 60612 10265 20264 40091 55004 78122 8677/ 22252 00295 316// 40504 5////
BBXX BAREU61 14124 99153 70177 46/// /0117 10253 29044 40144 57008 22243
BBXX A8YW2 14124 99316 30382 41497 50418 10250 20204 40125 54000 70211 8424/ 22224 00210 21401 80220
BBXX A8RW3 14123 99259 50286 41598 50310 10240 20180 40190 51010 70311 83145 22264 04220 21004 80200
BBXX BATFR45 14124 99107 30411 46/// ///// 10297 20240 40097 58019 22244 00305
BBXX BATEU00 14124 99599 30211 46/// /3320 11012 21013 49935 56038 22243
BBXX BATFR19 14124 99048 30094 46/// /1715 10255 20214 40113 56019 22242 00262
BBXX BATFR55 14124 99164 30540 44597 40912 10277 20257 40084 70122 824/2 22232 00279 20704
BBXX DILS 14124 99059 30101 41998 01811 10260 20228 40119 57010 70200 80000 22274 04260 20302 30000 80238
BBXX UBQE6 14121 99044 10001 41597 72501 10250 2//// 40090 52005 7022/ 8871/ 22253 00023 29999 39999 49999 59999
AAXX 14121 08512 32580 73401 10160 20075 30228 40314 52011 84832 222// 0//// 333 81825 83845 85070 555 59974 60005
AAXX 14124 60395 12965 00000 10165 20101 40247 58012 60001 333 0//00 95900
AAXX 14124 60421 12970 02406 10159 20045 39211 48558 58011 60001 333 0//00 95900
AAXX 14124 60423 12970 00000 10178 20066 39266 48543 58005 60001 333 95900
AAXX 14124 60430 12570 52612 10137 20070 40267 51004 60001 84802 333 0//00 81820 83640 95900
AAXX 14124 60437 12575 32204 10115 20072 39044 48546 50000 60001 81102 333 81823 83070 95900
AAXX 14124 60444 12970 02010 10131 20046 39153 48563 58007 60001 333 95900
AAXX 14124 60452 12565 3//// 10185 20114 40255 58005 60001 83200 222// 20000 333 83820 91827
AAXX 14124 60457 12565 32514 10174 20112 40262 58001 60001 83500 333 83626 95900
AAXX 14124 60514 NIL
AAXX 14124 60518 12565 62710 10182 20115 40246 50000 60001 83582 222// 29903 333 0//00 83620 84360 91847 95900
AAXX 14124 60520 12570 52408 10154 20078 40264 58001 60001 82202 333 82826 84073 95900
AAXX 14124 60540 12960 52004 10106 20027 39091 48551 58004 60001 82031 333 82360 83073 95900
AAXX 14124 60560 12970 70000 10119 20018 39028 48570 58008 60001 85082 333 85360 95900
AAXX 14124 60360 12965 02204 10198 20103 40239 58013 60001 333 0//00 95900
AAXX 14124 60390 12970 22509 10187 20100 40255 56013 60001 81032 333 81360 95900
AAXX 14124 60402 12970 01008 10183 20107 40246 58010 60001 333 95900
AAXX 14124 60419 12965 02206 10165 20055 40247 58009 60001 333 95900
AAXX 14124 60475 12975 00000 10172 20034 39302 48564 56009 60001 95900
AAXX 14124 60490 12480 42210 10190 20105 40256 58006 60001 83102 333 0//00 83816 95900
AAXX 14124 60525 12975 20000 10164 20050 40263 58011 60001 80002 333 0//00 82073 95900
AAXX 14124 60531 12570 52108 10171 20080 40267 56009 60001 81230 333 0//00 81826 83360 95900
AAXX 14124 60566 12960 40000 10167 20053 40283 58006 60001 80002 333 0//00 84073
AAXX 14124 60571 12970 52405 10155 20052 39340 48587 50003 60001 81082 333 0//00 81360 84073 95900
AAXX 14124 60580 12960 00000 10174 20079 40277 58011 60001
AAXX 14124 60590 12775 60706 10167 20075 40283 58008 60001 83202 333 0//00 83850 84070
AAXX 14124 60611 12860 31213 10182 20037 40245 58014 60001 81031 333 0//00 81358 83073
AAXX 14124 60620 12660 80414 10190 20029 40251 58012 60001 82272 333 0//00 82846 86465
AAXX 14124 60630 11956 60824 10207 20039 40223 58017 60001 70722 83032 333 83362 85075
AAXX 14124 60656 12660 51604 10220 20016 40250 50004 60001 82280 333 0//00 82846 83360
AAXX 14124 60670 12982 30000 10202 21051 39119 48564 58009 60001 80002 333 0//00 83073 95900
AAXX 14124 60680 12982 61008 10216 21114 38674 48548 57010 60001 80002 333 0//00 86073 95900
BBXX TESTFR9 14124 99494 70023 46/// /2322 10083 29071 40029 22215
BBXX BAREU05 14124 99391 70145 46/// ///// 40276 52015 22263
BBXX 61001 14124 99434 10078 46/// /2216 10148 20116 40142 57012 22200 00160 10503 70014
BBXX BAREU51 14124 99400 10121 46/// ///// 40189 52003 22235
BBXX BAREU12 14124 99535 70030 46/// ///// 49866 22200
BBXX BATFR02 14124 99505 70009 46/// /2930 10079 20020 49968 55/// 22284 00120
BBXX A8LP6 14124 99365 70149 41498 43610 10175 20116 40290 52010 70311 8446/ 22264 04141 2//// 332// 41410 80140
BBXX C6CU6 14123 99360 70298 41697 51310 10185 20151 40320 54000 70222 85141 22263 04190 21209 334// 41808 5//// 80165
BBXX DEGI 14123 99360 70048 41597 42720 10202 20136 40270 54000 70111 83441 22223 04172 29903 80161
BBXX PBEO 14123 99466 70072 41297 62529 10114 20078 40100 54000 72582 867// 22212 02130 20506 330// 40910 80095
BBXX BATFR03 14124 99499 70005 46/// /2347 10074 20029 49977 53035 22244
BBXX BATFR50 14124 99427 10062 46/// /2609 10157 20117 40147 58011 22282 00159
BBXX BATFR60 14124 99453 70008 46/// /2728 10120 20052 40138 22283 00115
BBXX BATFR11 14124 99360 10145 46/// /2705 10184 20115 40247 58018 22211 00194
BBXX BATFR04 14124 99596 70114 46/// /3427 10065 20029 49731 51023 22200 00102
BBXX BATEU04 14124 99599 70316 46/// /3004 10042 20000 49874 51002 22223
BBXX BATFR15 14124 99334 70289 44798 21309 10197 20139 40309 50004 70111 82251 22264 00204 20304 301// 40304 5////
BBXX BATEU06 14124 99561 10026 46/// /2623 10069 20027 49788 53001 22271 00094
BBXX BATEU08 14124 99578 10085 46/// /2141 10077 20022 49805 58002 22261
BBXX BATFR52 14124 99494 70023 46/// /2222 10087 20025 40009 22215 00130
BBXX BATFR27 14124 99507 70010 46/// /2826 10069 20004 49965 22244 00107
BBXX BATEU09 14124 99429 10062 46/// /2606 10159 20114 40150 52010 22282 00174
BBXX BATFR01 14124 99343 10307 44498 33508 10184 20112 40202 56020 70200 83479 22222 00202 20500
BBXX BATFR46 14124 99396 10013 44997 62315 10165 20109 40199 58018 703// 8//5/ 22213 00167 21004
BBXX BATFR09 14124 99380 10051 44997 52630 10177 20117 40218 58007 70222 85420 22263 00182 20506 326// 40506 5////
BBXX 9V8072 14123 99336 70249 41/97 /3120 10200 20149 40312 5/000 7//22 8//// 22264 20306 80170
BBXX BATUK01 14124 99584 70060 44496 82708 10064 20024 49695 53016 78188 8877/ 22241 00110 20404 329// 40606 5////
BBXX PCPR 14123 99372 10049 41398 22722 10170 20119 40230 54000 70122 8/100 22263 04165 20401 327// 40502 80140
BBXX 61002 14124 99421 10047 46/// ///13 10146 2//// 40172 52016 22200 00153 10704 70021
BBXX PDHY 14123 99490 70336 41397 83014 10070 20026 40138 56010 75022 877/0 22223 04120 20706 331// 40808 5//// 80050
AAXX 14121 60370 16/// /2403 10190 20090 69921
AAXX 14121 60371 36/// /2103 10184 20083
AAXX 14121 60372 36/// /2605 10162 20080
AAXX 14121 60373 NIL
AAXX 14121 60374 NIL
AAXX 14121 60376 NIL
AAXX 14121 60379 NIL
AAXX 14121 60380 NIL
AAXX 14121 60381 NIL
AAXX 14121 60393 NIL
AAXX 14121 60394 NIL
AAXX 14121 60593 NIL
AAXX 14121 60595 NIL
AAXX 14121 60605 NIL
AAXX 14121 60613 NIL
AAXX 14121 60623 NIL
AAXX 14124 60624 36/// /0000 10209 21013
AAXX 14124 60639 NIL
AAXX 14124 60645 36/// /0000 10201 20012
AAXX 14124 60351 12965 03404 10185 20128 40236 58006 60001 333 95900
AAXX 14124 60355 12960 00105 10189 20077 40234 58010 60001 333 0//00 95900
AAXX 14124 60445 12965 22606 10132 20060 39085 48561 58009 60001 80002 333 82073 95900
AAXX 14124 60468 12975 10000 10155 20042 39295 48558 55000 60001 80002 333 81070 95900
AAXX 14124 60507 12965 32608 10168 20087 40266 58007 60001 81032 333 81360 83073 95900
AAXX 14124 60511 12570 22713 10136 20058 39130 48562 58008 60001 81282 333 81823 95900
AAXX 14124 60535 NIL
AAXX 14124 60536 12970 40000 10149 20073 39388 48569 58003 60001 82032 333 82360 83073 95900
AAXX 14124 60549 12660 60000 10125 20049 39000 48596 51007 60001 82232 333 82833 83360 95900
AAXX 14124 60550 12970 50000 10125 20017 38745 48581 57002 60001 80002 333 0//00 85073 95900
AAXX 14124 60555 12970 00000 10177 20079 40280 58007 60001 333 0//00
AAXX 14124 60559 12960 00000 10185 20051 40273 58009 60001 333 0//00
AAXX 14124 60581 12960 21806 10188 20059 40273 58009 60001 80002 333 82073
AAXX 14124 60602 12665 70000 10128 20042 40285 50000 60001 83230 333 0//00 83843 86360 95900
AAXX 14124 60607 12960 60616 10157 21001 40258 58002 60001 82034 333 0//00 82362 85075
AAXX 14124 60640 12960 40912 10200 20037 40247 58011 60001 80004 333 0//00 84073
AAXX 14124 60690 NIL
AAXX 14121 14235 12760 4//// 10070 20050 39002 48463 57012 60001 84070 333 70000
AAXX 14121 14246 12580 21906 10107 20051 39934 40135 58023 60001 81831 333 70000
AAXX 14121 14314 12665 71604 10135 20101 30106 40170 57015 60011 87800 333 70013 92323 92437
AAXX 14121 14323 NIL
AAXX 14121 14324 11/00 92709 10026 20026 38391 48493 58009 60021 74546 333 70018
AAXX 14121 14328 11458 82103 10115 20076 39754 40143 58020 60041 7616/ 8782/ 333 70036
AAXX 14121 14330 11560 82003 10097 20060 39503 40164 57012 60011 7606/ 885// 333 70010
AAXX 14121 14438 12580 61504 10146 20084 30087 40177 58021 60001 84802 333 70000 92322
AAXX 14121 14443 32698 41407 10150 20130 30100 40190 57024 84130 333 70000 92323
AAXX 14121 14447 12684 61207 10162 20081 30164 40194 58018 60001 81131 222// 00174 333 70000 92323
AAXX 14121 14472 12670 31504 10173 20089 30148 40212 50000 60001 82201 222// 00177 333 70018 92312
AAXX 14124 62309 32560 43504 10196 20109 40203 57014 84200
AAXX 14124 62325 32560 60103 10194 20120 40196 57014 86800
AAXX 14124 62332 32560 83608 10186 20135 40187 57015 82107
AAXX 14124 62387 31920 53609 10180 20120 40184 57019 70520 85010
AAXX 14124 62452 32960 73407 10164 20053 40189 57015 8701/
AAXX 14124 62459 32960 53015 10208 20110 40156 57022 85030
AAXX 14124 62309 32560 43504 10196 20109 40203 57014 84200
AAXX 14124 62325 32560 60103 10194 20120 40196 57014 86800
AAXX 14124 62332 32560 83608 10186 20135 40187 57015 82107
AAXX 14124 62387 31920 53609 10180 20120 40184 57019 70520 85010
AAXX 14124 62452 32960 73407 10164 20053 40189 57015 8701/
AAXX 14124 62459 32960 53015 10208 20110 40156 57022 85030
AAXX 14121 31484 32999 00000 11285 21302 39836 40210 52004 333 11165
AAXX 14124 84202 31670 80000 10224 20189 30152 70542 8551/ 333 10302 20224 59008 555 30080
AAXX 14124 84135 32575 80000 10225 20193 30066 886// 333 10317 20214 59005 555 30082
AAXX 14124 84204 31665 80000 10234 20187 70544 8451/ 333 10327 20230 555 30075
AAXX 14124 84008 32456 71408 10223 20200 30120 40130 82630 00181 333 10277 20223 59002 555 30087 40177
AAXX 14124 84076 11201 80000 10113 20108 60064 75152 8372/ 333 10206 20110 30119 555 10062 30097
AAXX 14124 84270 11/20 90000 10134 20120 60234 74646 89/// 333 10230 20130 555 10231 30091
AAXX 14124 84088 11110 80000 10080 20077 37066 60074 75052 887// 333 10168 20080 30084 59005 555 10074 30098
AAXX 14124 84050 11360 83602 10213 20209 69934 75156 887// 333 10267 20213 555 10003 30097
AAXX 14124 84179 11410 80000 10194 20189 39061 60114 76362 8372/ 333 10272 20192 58005 555 10105 30097
AAXX 14124 84142 11120 80000 10162 20156 60034 75066 887// 333 10196 20155 555 10032 30096
AAXX 14124 84140 11330 80000 10221 20217 30031 40116 60014 71055 886// 333 10298 20219 59005 555 10012 30097
AAXX 14124 84036 11568 80402 10100 20097 60234 74022 8801/ 333 10181 20074 555 10229 30098
AAXX 14124 84072 11258 80000 10104 20096 37301 60244 75066 8672/ 333 10182 20100 59001 555 10243 30095
AAXX 14124 84143 11465 80000 10102 20097 37406 60074 72162 8377/ 333 10183 20098 30080 58001 555 10065 30097
AAXX 14124 84160 11320 80000 10097 20094 37266 60084 75156 887// 333 10192 20094 59001 555 10082 30098
AAXX 14124 84105 32458 80000 10219 20208 31001 8651/ 333 10270 20219 59001 555 30094
AAXX 14124 84132 11265 80000 10230 20226 39880 60044 76166 8687/ 333 10316 20228 58002 555 10043 30097
AAXX 14124 84056 11/00 90000 10090 20090 60074 74744 89/// 333 10200 20090 555 10071 30100
AAXX 14124 84226 11670 80000 10082 20082 60024 71542 887// 333 10140 20080 555 10019 30100
AAXX 14124 04048 42689 70706 10018 21023 49807 52013 81508 555 3/408
AAXX 14121 50844 32962 00000 11177 21215 40280 52004
AAXX 14121 50854 32970 02901 11150 21196 40276 52005
AAXX 14121 50968 32662 72503 11120 21147 40267 52011 875//
AAXX 14121 51379 NIL
AAXX 14121 51467 NIL
AAXX 14121 51495 NIL
AAXX 14121 53480 32980 02702 11174 21247 40450 52007
AAXX 14121 53673 32961 03403 11054 21175 40381 52013
AAXX 14121 53698 32962 02901 11016 21102 40362 52020
AAXX 14121 53898 32963 53602 10003 21079 40361 52022 80002
AAXX 14121 54308 32980 03403 11123 21216 40399 52014
AAXX 14121 54602 32965 00403 11025 21159 40358 52015
AAXX 14121 54725 32965 03601 11049 21119 40357 52017
AAXX 14121 54751 32565 23406 10002 21098 40323 52014 82400
AAXX 14121 54916 32962 83402 10006 21074 40338 52021 80007
AAXX 14121 57014 32965 72901 11011 21051 40349 52016 87030 333 00201
AAXX 14121 57025 32968 60901 10016 21051 40352 52018 80002
AAXX 14121 57046 32967 72706 11068 21115 38003 52014 8703/ 333 00455
AAXX 14121 58208 32962 60202 10068 20027 40305 52020 80002
AAXX 14120 44214 32698 70000 11222 21253 38362 40545 53004 82570 333 11159
AAXX 14120 44231 319// 00000 11275 21329 38843 40596 53009 70400 333 11214
AAXX 14120 44259 32997 32202 11212 21246 39385 40367 53006 83030 333 11163
AAXX 14120 44277 329// 02302 11229 21261 37871 40596 53007 333 11106
AAXX 14120 44288 32999 03102 11163 21282 38235 40478 52007 333 11113
AAXX 14120 44292 118// 72803 11233 21258 38792 40481 53006 69902 77171 87020 333 11206 555 93100
AAXX 14120 44304 329// 12303 11260 21291 39066 40439 53002 81040 333 11193
AAXX 14120 44354 329// 02910 11198 21231 39205 40424 53004 333 11156
AAXX 14120 44373 32999 02503 11184 21230 38633 40474 53005 333 11137
AAXX 14121 01003 11570 50512 11020 21066 39988 40000 57002 60001 73833 85500
AAXX 14121 23914 42999 32304 11214 21233 30065 40350 52001 80001
AAXX 14121 23921 42997 70000 11255 21280 30212 40346 56001 82031
AAXX 14121 23955 32984 00000 11254 21270 30321 40390 53003 333 11212
AAXX 14121 23966 32999 00000 11216 21224 30271 40410 53024 333 11198
AAXX 14121 28138 42999 52101 11202 21221 39728 40353 52002 80001
AAXX 14121 28224 41896 81501 11181 21193 30117 40351 52006 71072 85075
AAXX 14121 28255 41994 00000 11213 21234 30210 40353 53002 70281
AAXX 14121 28440 41597 22602 11171 21196 39967 40347 53006 71011 81505
AAXX 14121 28645 42997 00000 11198 21217 30039 40365 58001
AAXX 14121 28661 41996 80000 11213 21234 30245 40347 52007 72271 8807/
AAXX 14121 28722 41996 32301 11186 21203 30250 40359 52007 71071 83070
AAXX 14121 28748 42960 02301 11210 21229 30101 40367 53004
AAXX 14121 28838 42997 02001 11204 21216 39848 40372 53005
AAXX 14121 29231 32998 00801 11208 21227 30283 40389 57004 333 11208
AAXX 14121 29313 32998 40802 11203 21220 30229 40363 57007 80002 333 11193
AAXX 14121 29612 11998 70703 11165 21178 30160 40323 53001 69982 70272 80006 333 11152
AAXX 14121 29638 11996 20801 11164 21177 30182 40362 57003 69902 71081 80001 333 11117
AAXX 14121 29838 11997 70000 11115 21143 30110 40356 58003 69902 70272 85021 333 11090
AAXX 14121 29846 31910 60000 11174 21180 39967 40384 56001 71022 85031 333 11154
AAXX 14121 36061 32999 80000 11161 21174 39944 40384 53004 82031 333 11116
AAXX 14124 89022 42584 71004 11043 21083 39781 49818 52004 875// 333 11043 21066 87628
AAXX 14124 89062 42565 63221 10030 21037 39814 49854 52018 8657/ 333 10034 20006 83730 86356
AAXX 14121 23909 42998 21901 11195 21215 30059 40330 54000 80001
AAXX 14121 28044 42997 20000 11242 21267 30162 40345 54001 80002
AAXX 14121 28116 41997 20000 11224 21249 30088 40347 53002 71001 80001
AAXX 14121 28240 42998 51501 11214 21235 39989 40347 52002 81501
AAXX 14121 28522 41996 60000 11197 21209 30080 40364 52007 71011 85043
AAXX 14121 28621 42997 21401 11176 21191 30102 40356 52005 80001
AAXX 14121 29023 32998 20000 11203 21229 30294 40401 57002 80001 333 11170
AAXX 14121 29122 32999 10000 11237 21250 30307 40388 57006 81000 333 11200
AAXX 14121 29328 11998 20000 11183 21202 30227 40379 57002 69922 70281 80001 333 11163
AAXX 14121 29348 32997 10000 11209 21225 30238 40398 57002 81080 333 11180
AAXX 14121 29405 11997 60402 11203 21222 30176 40336 57003 69922 72271 86020 333 11190
AAXX 14121 29418 11598 50702 11152 21172 30163 40334 57005 69902 70282 82901 333 11148
AAXX 14121 29430 32998 60000 11168 21168 21187 30192 40383 54000 80005 333 11154
AAXX 14121 29524 11998 00903 11132 21145 30167 40341 57006 69942 70281 333 11331
AAXX 14121 29605 11996 80602 11186 21192 30155 40310 57004 69942 77171 8820/ 333 11184
AAXX 14121 29631 11997 00702 11147 21153 30151 40349 57005 69902 70181 333 11133
AAXX 14121 29645 31996 80000 11212 21230 30180 40386 57006 70422 85071 333 11194
AAXX 14121 29706 11998 51702 11190 21209 30152 40312 53003 69952 70282 80001 333 11158
AAXX 14121 29736 32998 51101 11169 21182 30104 40374 53003 85030 333 11114
AAXX 14121 29937 12598 80501 11100 21132 30117 40349 58003 69912 885// 333 11057
AAXX 14121 36034 32998 51703 11074 21109 30045 40331 57005 80002 333 11062
AAXX 14121 36096 12997 40000 11318 21341 39697 40597 54000 69902 80001 333 11279 95090
AAXX 14123 87016 1156243606 10222 20189 39729 40134 52007 69974 70151 82101 333 10222 20189 56604 82820
AAXX 14123 87896 31960 52318 10174 20143 30088 40182 5//// 71022 80002 333 10199 2//// 56005 85070
AAXX 14123 NIL
AAXX 14121 34357 42598 81302 11005 21017 30138 40298 56005 885//
AAXX 14121 34363 41/93 91001 11038 21038 30178 40337 54000 74544 333 93516
AAXX 14121 34545 42498 81605 10016 20006 30173 40287 56006 886//
AAXX 14121 34579 41996 81302 11023 21029 30290 40335 54000 71022 8805/
AAXX 14121 34838 42697 60902 10068 20033 30149 40246 57008 82530
AAXX 14121 34927 42697 80601 10107 20053 30199 40235 57008 82505
AAXX 14121 34949 42998 61202 10042 20015 39708 40259 57002 86030
AAXX 14121 37001 42997 71804 10123 20062 30183 40223 57008 87030
AAXX 14121 37031 42997 81401 10102 20041 30045 40239 57007 8805/
AAXX 14121 37061 41596 81304 10037 20017 30113 40282 57005 71022 885//
AAXX 14121 37085 42598 81006 10053 20026 30324 40351 56003 885//
AAXX 14121 37126 42999 82002 10005 21124 37977 48542 54000 83031
AAXX 14121 37171 42998 80101 10125 20059 30205 40223 57009 83037
AAXX 14121 37228 42999 31601 10105 21082 39413 40236 57007 80009
AAXX 14121 37470 42998 20102 10081 20045 30311 40289 57004 82030
AAXX 14121 37663 42999 30904 10038 21040 39074 48543 55003 83004
AAXX 14124 87078 32970 01803 10240 20127 39982 40132 52007 333 10240 20145
AAXX 14124 87244 32970 01402 10215 20130 39768 40159 5//// 333 10215 20117
AAXX 14124 87393 31556 31812 10212 20137 30042 40105 52011 70400 83800 333 10230 20141 56400 83623
AAXX 14124 87416 32965 02308 10215 20130 39416 40142 51012 333 10273 20163 30014
AAXX 14124 87563 32565 60914 10194 20150 30121 40164 53009 86400 333 10194 20150 56600 86625
AAXX 14124 87640 31565 51412 10211 20160 30072 40182 51005 700// 85100 333 10211 20123 30011 56300 85820
AAXX 14124 87688 12462 80902 10175 20153 30070 40207 51007 69904 886// 333 10175 20155 56299 88712
AAXX 14124 87774 32982 00000 10190 20055 39189 48557 5//// 333 10250 20190
AAXX 14124 87852 32984 03208 10191 20094 39682 40175 5//// 333 10230 20108
AAXX 14121 28049 42997 21402 11216 21238 30166 40348 54000 80001
AAXX 14121 28144 42998 30000 11228 21249 30169 40345 54001 80001
AAXX 14121 28319 41496 80000 11198 21217 30174 40356 52008 70272 8257/
AAXX 14121 28321 41997 21601 11206 21225 30126 40353 52003 71000 80002
AAXX 14121 28334 42998 30000 11225 21250 30031 40368 53005 80005
AAXX 14121 28434 42998 00000 11240 21263 30081 40370 53007
AAXX 14121 28552 41596 32701 11209 21232 30231 40356 53006 70571 83500
AAXX 14121 28666 32999 83202 11227 21250 30139 40333 52005 8802/
AAXX 14121 28825 41996 80000 11181 21198 30180 40369 52006 71011 80005
AAXX 14121 29111 32998 00000 11243 21264 30293 40391 53002 333 11215
AAXX 14121 29209 32998 60201 11226 21244 30218 40358 57013 80005 333 11209
AAXX 14121 29551 32997 20000 11220 21246 30199 40400 54000 80001 333 11192
AAXX 14121 29602 11997 80602 11185 21204 30156 40309 57003 69932 77172 8802/ 333 11185
AAXX 14121 29636 31996 00000 11179 21185 30142 40379 53006 70411 333 11154
AAXX 14121 29654 32999 60000 11134 21161 39730 40382 53007 81031 333 11086
AAXX 14121 29712 11598 61302 11152 21165 30170 40323 53003 60022 70272 83570 333 11133
AAXX 14121 29724 11697 61203 11120 21140 30119 40334 53002 69902 70282 82531 333 11113
AAXX 14121 29726 11998 03602 11131 21144 30169 40348 54000 69902 70181 333 11083
AAXX 14121 29814 11499 41403 11177 21196 30163 40321 53005 69982 70281 84300 333 11139
AAXX 14121 29827 12697 80901 11121 21141 30165 40327 54000 69902 8457/ 333 11104
AAXX 14121 29923 12999 81302 11093 21109 30054 40343 57004 69932 802// 333 11071
AAXX 14121 29939 32997 31001 11170 21196 30068 40375 54000 80001 333 11118
AAXX 14121 35026 42997 00000 11105 21139 39683 40357 52009
AAXX 14121 36021 11998 81501 11131 21144 30122 40312 57004 69902 77172 8807/ 333 11131
AAXX 14121 36022 32998 81704 11088 21122 30050 40324 57001 80005 333 11079
AAXX 14121 36038 11999 51901 11074 21104 39884 40343 57005 69952 70232 83031 333 11049
AAXX 14121 36058 32699 70000 11110 21123 39825 40375 53004 85530 333 11055
AAXX 14121 36064 32999 53502 11061 21130 39753 40368 53006 81041 333 11024
AAXX 14121 36229 11599 50000 11188 21194 39160 40429 57009 69952 70182 82930 333 11146
AAXX 14121 36259 32599 80000 11229 21269 38310 48595 57002 83902 333 11194
AAXX 14124 87593 02560 51416 10202 20163 30116 40143 5//// 60014 85200 333 10202 20150 56300 57800 60012 85820
AAXX 14124 87623 31240 80503 10160 20137 39974 40199 52013 71021 886// 333 10221 20118 56399 88705
AAXX 14124 87641 32565 41413 10188 20134 30014 40188 50003 84500 333 10188 20146 30014 56300 84620
AAXX 14124 87645 31459 71413 10182 20141 39984 40190 51005 71022 87500 333 10182 20146 56300 85615 84625
AAXX 14124 87648 12560 31406 10212 20159 30154 40165 52005 69964 83100 333 10212 20160 56300 83825
AAXX 14124 87692 11558 21411 10182 20141 30176 40200 51003 69904 70521 81130 333 10182 20165 56550 81820
AAXX 14124 87715 32970 00905 10210 20084 39857 40167 50000 333 10264 20171
AAXX 14124 87750 32565 40710 10190 20114 30100 40199 58003 84500 333 10190 20151 56100 84625
AAXX 14124 87765 31950 01405 10198 20010 39218 48536 50001 70400 333 10234 20115 96104 96120
AAXX 14124 87784 32980 13413 10201 20130 30182 40206 54000 80008 333 10256 20144 56000 81270
AAXX 14124 87791 NIL
AAXX 14124 87800 31960 00000 10191 20130 39793 40181 52003 70400 333 10247 20108 96104
AAXX 14124 87803 31958 02304 10177 20057 39265 40154 51003 70400 333 10244 20111 96104
AAXX 14124 87828 31960 03617 10240 20069 30098 40149 50003 70400 333 10240 20150
AAXX 14124 87860 31975 11806 10243 20032 30105 40159 52011 70400 81060 333 10243 20108 56070 81360 96120 99357
AAXX 14124 87904 31980 23403 10160 20023 39950 40193 5//// 7020/ 80004 333 10178 20060 82070
AAXX 14124 87909 32980 11612 10180 20086 30120 40194 52015 81030 333 10180 20099 56050 81360 55510197 6142/
AAXX 14124 87925 31680 62511 10179 20049 30161 40184 51008 71421 81451 333 10202 20080 56669 81645 84360
AAXX 14124 87938 32670 40911 10123 20078 30078 40148 50001 84500 333 10124 20090 56300 84640
AAXX 14124 71107 16/// /0908 10036 20007 30047 40161 58017 60001 333 20028 7////
AAXX 14124 71063 16/// /0902 10015 20015 30191 40291 52007 60001 333 10033 20011 70000
AAXX 14124 71421 16/// ///// 11257 21283 39553 40316 58011 60001 333 11140 21268 70000
AAXX 14124 71435 16/// /1303 11009 21009 39565 40165 58029 60001 333 11026 21047 4/010 70000
AAXX 14124 71903 47/// /1607 10025 21003 30109 40159 56007 6///1 7//4/ 333 10050 20010 7////
AAXX 14124 71269 16/// /2813 11112 21126 60001 333 11064 21177 70000
AAXX 14124 71285 46/// /3210 11042 21066 6///1 333 11032 21050 7////
AAXX 14124 71299 16/// /1807 11043 21050 39967 40246 55005 60001 333 11033 21056 4/010 70000
AAXX 14124 71622 16/// ///// 10026 20011 39919 40262 56008 60001 333 10069 20011 70000
AAXX 14124 71309 16/// /2104 11043 21058 30216 40228 56008 60001 333 11059 21092 4/014 70012
AAXX 14124 71322 16/// /3217 11242 21269 30073 40086 53017 60001 333 11035 21243 4/008 70018
AAXX 14124 71340 16/// /2909 11046 21071 60001 333 11022 21061 70000
AAXX 14124 71341 16/// /2610 11028 21074 60001 333 11019 21032 70000
AAXX 14124 71342 17/// /3311 11079 21098 69991 7//4/ 333 11075 21119 70056
AAXX 14124 71344 16/// /3218 11049 21075 60001 333 11062 21127 70004
AAXX 14124 71347 16/// /2703 11070 21074 60001 333 11003 21094 70037
AAXX 14124 71348 16/// /3005 11083 21102 60001 333 10007 21107 70080
AAXX 14124 71349 16/// ///// 11037 21059 60001 333 11003 21045 70000
AAXX 14124 71667 16/// /2802 11024 21038 39934 40184 58033 60001 333 11029 21033 4/007 70000
AAXX 14124 71682 16/// /0601 11141 21156 39967 40202 51013 60001 333 10037 21141 70013
AAXX 14124 71407 16/// /2213 11216 21242 39801 49822 51015 60001 333 11121 21216 70018
AAXX 14124 71423 16/// /3208 11102 21128 30287 40297 53007 60001 333 11012 21107 70000
AAXX 14124 71956 16/// /0906 10020 20020 30005 40240 56011 60001 333 10037 20012 70000
AAXX 14124 71976 46/// /2321 11091 21101 39293 49913 55003 6///1 333 11086 21097 7////
AAXX 14124 71151 16/// /2208 11007 21008 39621 40128 56022 60001 333 11014 21051 4/001 55/// 20000 70000
AAXX 14124 71165 46/// ///00 11325 21357 39921 40223 51015 6///1 333 11068 21347 7////
AAXX 14124 71186 46/// /2907 11020 21048 6///1 333 10002 21020 7////
AAXX 14124 71190 46/// /3403 11009 21036 6///1 333 10015 21009 7////
AAXX 14124 71191 16/// ///// 10001 21050 60001 333 10074 20001 70000
AAXX 14124 71503 46/// /3003 11295 21330 39934 40222 53009 6///1 333 11097 21295 4/006 7////
AAXX 14124 71506 46/// /0503 11218 21236 39213 40131 53001 6///1 333 11157 21225 7////
AAXX 14124 71539 16/// /2402 11052 21068 39391 40094 58013 60001 333 11035 21053 55/// 20000 70000
AAXX 14121 38954 42899 50000 11011 21125 37992 48580 57024 84011
AAXX 14124 71228 16/// /3313 11051 21074 60001 333 11039 21088 7////
AAXX 14124 71361 16/// /0207 11163 21206 39982 40196 51025 60001 333 10016 21164 70000
AAXX 14124 71362 16/// /3305 11151 21171 39900 40162 53024 60001 333 11008 21151 70000
AAXX 14124 71374 46/// /0209 11107 21143 6///1 333 11075 21110 7////
AAXX 14124 71387 16/// /1101 11082 21089 39907 40297 55000 60001 333 11005 21086 70000
AAXX 14124 71737 16/// /0801 11025 21030 39753 40286 50005 60001 333 10012 21025 4/005 70000
AAXX 14124 71743 16/// /2324 11086 21105 39837 40056 56011 60001 333 11078 21119 70000
AAXX 14124 71746 46/// /1706 10031 20007 30020 40244 58011 6///1 333 10057 20016 7////
AAXX 14124 71748 16/// /2006 11031 21041 39832 40122 56018 60001 333 11032 21050 70000
AAXX 14124 71752 16/// /1002 10013 20005 30050 40271 56008 60001 333 10072 20007 4/004 70000
AAXX 14124 13600 12660 80000 10104 20081 30180 40233 54002 60001 8355/ 333 83640 85360
AAXX 14124 13624 12670 11804 10166 20070 30183 40222 54004 60001 81200 333 81840
AAXX 14124 84782 31563 80000 10178 20130 39633 40142 70311 885// 333 20152 569// 58003 88630
AAXX 14124 84628 34860 71706 10190 20173 30116 40132 70222 8703/ 333 20187 5601/ 59012 87358
AAXX 14124 84452 31860 21905 10180 20161 30104 40135 70122 82030 333 20177 56000 59011 82358
AAXX 14124 84370 31560 89902 10230 20201 30089 40126 702// 85// 333 20200 569// 58006 88625
AAXX 14124 84515 21460 81503 10240 20226 39921 40099 70222 8643/ 333 20224 5699/ 58020 60104 86613 85358
AAXX 14124 84720 31960 00000 10200 20130 39507 40174 701// 333 20168 59003
AAXX 14124 84472 31560 80000 10096 20076 37402 7022/ 887// 333 20098 56900 59003 60074 82730 88640
AAXX 14124 84501 31958 01405 10173 20152 30100 40127 71000 333 20169 59011
AAXX 14124 84673 21660 59901 10116 20077 37340 70300 81520 333 20103 56990 58003 60034 81646 83465
AAXX 14124 84691 31457 52104 10200 20181 30112 40119 71020 8562/ 333 20145 5600/ 59008 82712 83460
AAXX 14124 84401 31960 69902 10204 20162 30090 40135 70222 8603/ 333 20194 5600/ 59011 86360
AAXX 14124 84686 21560 81006 10078 20042 36878 70126 8452/ 333 20074 56990 58003 60054 81620 83640 85457
AAXX 14124 84658 21320 81603 10213 20210 39869 40107 763// 8862/ 333 20210 5649/ 58029 60234 84707 84460
AAXX 14124 84377 21358 82503 10246 20233 39983 40088 70222 8564/ 333 20225 5600/ 58000 69904 85708 85360
AAXX 14124 84735 21357 8//// 10051 20017 36446 702// 88800 333 20043 56900 58000 60184 84810 88620
AAXX 14124 84752 32960 02703 10117 20045 37521 70122 333 20087 59001
AAXX 14124 84564 31560 80506 10160 20150 38157 703// 8652/ 333 20122 5611/ 58/// 86640 83463
AAXX 14124 84455 21460 80000 10230 20223 39800 40152 70222 8353/ 333 20220 5600/ 58000 60024 83620 85360
AAXX 14124 84425 21340 80000 10230 20226 39908 40126 710// 886// 333 20/// 568// 59004 60044 88708
AAXX 14124 84688 21550 83604 10081 20061 36654 710// 886// 333 20032 568//
AAXX 14124 41254 36/// /3106 10156 21027 38061 48066 333 0E003 5////
AAXX 14124 13625 11/59 93202 10076 20051 30009 40244 54004 60001 74544
BBXX ELWO6 14123 99000 70095 41397 71408 40120 54000 70322 87677 22274 21001 314// 41202
BBXX DGOQ 14124 99544 10113 41296 81718 10039 49930 57020 76361 8/7// 22200 04065 317// 4//03
BBXX A8YJ9 14124 99233 70235 414// 70626 10225 20188 40225 57005 70200 8711/ 22243 04210 2//06 80200
BBXX V7DG6 14124 99142 70180 41/96 80520 10250 20229 40150 57010 710// 22244 04225 20905 80235
BBXX A8UA9 14124 99376 10087 43598 22420 10180 20164 40250 50/// 82115 22263 00170 20206 80170
BBXX A8SG4 14124 99213 51435 41698 40610 10255 20197 40150 54000 70211 83245 22214 04270 80215
BBXX DFVY2 14124 99191 50386 41/98 70116 10256 20225 40139 51010 70182 22253 00250 1//03 70015 80234
BBXX A8TG2 14123 99188 71044 41/// /2903 10250 20204 40110 50000 7//00 2224/ 00230 21502 31919 41502 51202 80220
BBXX DAJT 14124 99060 10950 41398 69902 10275 20234 40040 53005 70222 8/6// 22264 04280 2//00 80245
AAXX 14121 13463 32665 72701 10134 20106 30166 40226 57011 85830
AAXX 14121 13459 32670 81604 10082 20081 39467 40230 58007 8587/ 333 85696 88498
AAXX 14121 13461 11670 31603 10169 20099 30216 40224 57012 69921 70261 83800 333 82834 92322 92428 92515
AAXX 14121 13363 31970 40000 10089 20037 39268 48496 57025 70240 82041
AAXX 14124 71421 16/// ///// 11257 21283 39553 40316 58011 60001 333 11140 21268 70000
AAXX 14124 71435 16/// /1303 11009 21009 39565 40165 58029 60001 333 11026 21047 4/010 70000
AAXX 14121 40650 42660 73502 10154 20030 40232 57016 81108
AAXX 14121 40608 41956 70202 10142 20030 40228 57017 70522 80008
AAXX 14121 40621 42960 32501 10164 20009 40246 57011 83030
AAXX 14121 40634 42960 40602 10126 20038 40231 57018 84030
AAXX 14121 40642 42960 81503 10160 21081 40209 57016 80007
AAXX 14121 40656 42960 43002 10158 20019 40210 57020 80006
AAXX 14121 40665 42960 03104 10186 20057 40230 57019
AAXX 14121 40670 42960 23502 10170 20043 40227 56007 80001
AAXX 14121 40675 42960 33003 10178 21017 40207 56017 80002
AAXX 14121 40680 42960 43004 10194 20050 40211 57014 81032
AAXX 14121 40690 42960 50000 10181 20007 40214 57021 80006
AAXX 14124 62420 32560 73606 10196 20100 40198 57020 84208
AAXX 14124 62432 32960 33305 10212 20076 40193 57006 80002
AAXX 14124 62435 32960 50111 10232 20069 40162 57027 85010
AAXX 14124 62455 32960 43109 10198 20109 40162 57023 80002
AAXX 14124 62458 32960 53002 10202 20102 40458 57016 85010
AAXX 14124 62476 32960 00212 10240 20174 40135 56019
AAXX 14124 87467 32470 71412 10178 20147 30025 40160 52015 87700 333 10204 20124 56300 87716
AAXX 14121 28216 42999 20000 11176 21195 30036 40345 52004 80008
AAXX 14121 28428 41996 21701 11201 21219 30158 40363 52005 71000 80001
AAXX 14121 28451 41997 62801 11204 21225 30176 40351 53002 70422 80001
AAXX 14121 28541 42980 00000 11172 21184 39817 40351 52003
AAXX 14121 28655 42998 72801 11198 21219 30109 40354 52001 87010
AAXX 14121 28756 42997 62701 11217 21236 30187 40352 52006 82015
AAXX 14121 29557 32998 20000 11189 21208 30105 40396 53002 80001 333 11135
AAXX 14121 29625 11498 51103 11137 21150 30147 40338 53001 69932 70282 85900 333 11115 85919
AAXX 14121 29813 12999 21304 11167 21186 30114 40306 53002 69942 80002 333 11143
AAXX 14121 29822 12997 21404 11120 21140 30162 40336 58005 69942 80008 333 11097
AAXX 14121 29915 11997 81402 11154 21167 30147 40317 53004 69972 77172 8802/ 333 11151
AAXX 14121 36020 32998 51101 11127 21140 30114 40327 54000 80002 333 11110
AAXX 14124 78862 12480 20000 10250 20237 30093 40116 60021 82202 333 10291 20215 59015 70041 82818
AAXX 14124 SHRA FEW012CB BKN015 BECMG 1312/1314 10008KT
AAXX 14124 TAF TQPF 121600Z 1218/1318 VRB04KT 9999 SCT016 PROB30 TEMPO 1218/1318 SHRA FEW012CB BKN015 BECMG 1312/1314 10008KT
AAXX 14124 TAF TKPN 121600Z 1218/1318 VRB04KT 9999 SCT016 PROB30 TEMPO 1218/1318 SHRA FEW012CB BKN015 BECMG 1312/1314 10008KT
AAXX 14124 TAF TUPJ 121600Z 1218/1318 VRB04KT 9999 SCT016 PROB30 TEMPO 1218/1318 SHRA FEW012CB BKN015 BECMG 1312/1314 10008KT
AAXX 14124 EMPO 0600/0624 SHRA BKN015=+TSRA SCT012CB
AAXX 14124 TAF TUPJ 041000Z 04012/0512 07008KT 9999 SCT016 BKN038 SCT270 TEMPO 0412/0512 SHRA BKN015 PROB40 TEMPO 0418/0512 5000 SHRA BKN014 BKN036 PROB30 0420/0512 4000 TSRA FEW012CB
AAXX 14124 918 4000 TSRA FEW012CB
AAXX 14124 N015 BKN036 PROB40 TEMPO 0704/0724 3000 +TSRA SCT011CB BKN012 BECMG 0712/0714 14008KT
AAXX 14124 21/2712 07017G28KT 5000 SHRA BKN015 BKN036 PROB TEMPO 2700/2712 4000 TSRA FEW013CB
AAXX 14124 PROB30 TEMPO 0800/0806 4000 TSRA FEW012CB PROB40 TEMPO 0800/0824 2000 +SHRA/TSRA SCT010CB BKN012 BKN250
AAXX 14124 61091 32965 50806 10272 20051 39694 40153 80002 333 0//00 59007 85080
AAXX 14121 23226 42560 82008 11048 21092 30042 40264 58002 885// 333 88630
AAXX 14121 23701 42684 71803 11047 21083 30119 40253 57005 86530 333 86633
AAXX 14121 28909 42497 20401 11172 21191 30259 40368 52003 82500 333 93507
AAXX 14124 60595 36/// /0000 11451
AAXX 14124 60381 36/// /2202 10199 20099
AAXX 14124 60639 36/// /0910 10193 21019
AAXX 14124 60605 36/// /0907 10166 20019
AAXX 14124 61091 32965 50806 10272 20051 39694 40153 80002 333 0//00 59007 85080
AAXX 14124 78862 12480 20000 10250 20237 30093 40116 60021 82202 333 10291 20215 59015 70041 82818
AAXX 14124 SHRA FEW012CB BKN015 BECMG 1312/1314 10008KT
AAXX 14124 TAF TQPF 121600Z 1218/1318 VRB04KT 9999 SCT016 PROB30 TEMPO 1218/1318 SHRA FEW012CB BKN015 BECMG 1312/1314 10008KT
AAXX 14124 TAF TKPN 121600Z 1218/1318 VRB04KT 9999 SCT016 PROB30 TEMPO 1218/1318 SHRA FEW012CB BKN015 BECMG 1312/1314 10008KT
AAXX 14124 TAF TUPJ 121600Z 1218/1318 VRB04KT 9999 SCT016 PROB30 TEMPO 1218/1318 SHRA FEW012CB BKN015 BECMG 1312/1314 10008KT
AAXX 14124 EMPO 0600/0624 SHRA BKN015=+TSRA SCT012CB
AAXX 14124 TAF TUPJ 041000Z 04012/0512 07008KT 9999 SCT016 BKN038 SCT270 TEMPO 0412/0512 SHRA BKN015 PROB40 TEMPO 0418/0512 5000 SHRA BKN014 BKN036 PROB30 0420/0512 4000 TSRA FEW012CB
AAXX 14124 918 4000 TSRA FEW012CB
AAXX 14124 N015 BKN036 PROB40 TEMPO 0704/0724 3000 +TSRA SCT011CB BKN012 BECMG 0712/0714 14008KT
AAXX 14124 21/2712 07017G28KT 5000 SHRA BKN015 BKN036 PROB TEMPO 2700/2712 4000 TSRA FEW013CB
AAXX 14124 PROB30 TEMPO 0800/0806 4000 TSRA FEW012CB PROB40 TEMPO 0800/0824 2000 +SHRA/TSRA SCT010CB BKN012 BKN250
AAXX 14121 56146 32880 73601 10028 21186 36711 52021 82402 333 00104
AAXX 14121 56444 32780 70701 11001 21065 36808 52013 87100 333 00101
AAXX 14121 56492 32962 70901 10100 20044 39867 40283 52018 8703/ 333 00302
AAXX 14121 56571 11670 73602 10046 20020 38438 52011 69901 70060 87800 333 00556
AAXX 14121 57799 32975 03201 10101 20015 30175 40267 52019
AAXX 14121 57866 32968 80206 10102 21006 30064 40276 52020 8807/
AAXX 14121 57957 32962 70204 10133 21004 30045 40246 52021 8704/
AAXX 14121 57993 32980 02701 10124 20017 30077 40247 52022
AAXX 14121 58027 31958 83404 10040 21040 30261 40315 52023 70500 80007
AAXX 14121 58141 31920 70402 10043 20001 30290 40310 52027 70500 80002
AAXX 14121 58265 31532 23203 10066 20019 30276 40284 52016 70500 82500
AAXX 14121 58472 31440 83408 10087 20060 30174 40270 52014 71000 8217/
AAXX 14121 58477 11940 83603 10107 20037 30226 40271 52018 69901 70560 8807/
AAXX 14121 58527 11660 80000 10087 20067 30193 40272 52011 69901 76066 885//
AAXX 14121 58633 31656 80402 10094 20046 30168 40271 52014 70500 8757/
AAXX 14121 58666 31956 33609 10119 20051 30149 40252 52016 70500 83040
AAXX 14121 58725 32965 02501 10098 20044 39981 40251 52024
AAXX 14121 58921 32961 71801 10145 20124 39971 40222 52015 8704/
AAXX 14121 59082 32962 21602 10122 20049 30075 40226 52021 82040
AAXX 14121 59211 32960 73401 10125 20088 30006 40218 52021 8703/
AAXX 14121 59265 31858 70703 10172 20064 30066 40206 52018 70500 875//
AAXX 14121 59293 32965 33201 10155 20078 30119 40206 52017 83040
AAXX 14121 59501 32760 70901 10192 20164 30167 40188 52013 875//
AAXX 14121 59663 32660 70405 10203 20063 30082 40190 52015 875//
AAXX 14121 59838 32965 70404 10213 20161 30153 40163 52013 8703/
AAXX 14121 59948 32370 70707 10195 20176 39683 40169 52014 878//
AAXX 14121 59981 32572 70705 10249 20224 30131 40138 52015 8314/
AAXX 14124 41258 36/// /0605 10242 20149 30165 40170 333 0E/// 58005
AAXX 14121 45032 36/// /1601 10175 20112 30178 40195 52002
AAXX 14121 45035 36/// /0302 10192 20109 30152 40195 52003
AAXX 14121 45039 36/// /3101 10192 20113 30178 40192 52004
AAXX 14121 45044 36/// /3503 10185 20110 30098 40191 54000
AAXX 14121 45032 36/// /1601 10175 20112 30178 40195 52002
AAXX 14121 45035 36/// /0302 10192 20109 30152 40195 52003
AAXX 14121 45039 36/// /3101 10192 20113 30178 40192 52004
AAXX 14121 45044 36/// /3503 10185 20110 30098 40191 54000
AAXX 14124 87148 32970 02308 10254 20128 30012 40119 51007 333 10254 20139 30000
BBXX 46249 14121 99338 71197 46/// ///// 1//// 91215 22200 00142 11302 20902 323// 41301 70009
BBXX 46248 14121 99461 71247 46/// ///// 1//// 91204 22200 00085 11404 21002 329// 41404 70022
BBXX 46244 14121 99409 71244 46/// ///// 1//// 91205 22200 00095 11403 20902 331// 41403 70016
BBXX 46243 14121 99462 71241 46/// ///// 1//// 91159 22200 00086 11404 21002 326// 41403 70018
BBXX 46241 14121 99330 71173 46/// ///// 1//// 91141 22200 00147 10902 20902 326// 41301 70009
AAXX 14124 17219 11565 51604 10169 20099 30071 40216 58012 69901 70281 83250 333 83830 85360
BBXX FLAO 1412/ 99764 70847 46/// ///// 11220 40051 57001
BBXX 51205 14121 99210 71564 46/// ///// 1//// 91218 22200 00240 10904 20904 333// 41402 70022
BBXX 46114 14121 99364 71222 46/// ///// 1//// 91204 22200 00122 10903 20902 328// 41302 70013
BBXX SLKQ 14121 99062 10901 43/97 80509 10272 40086 53007 22264 00291 2////4////
BBXX SKWI 14124 99407 70257 43/98 82820 10145 40301 51017 22263 00170 20802 41008
BBXX PHQX 14123 99481 70293 41298 82715 10092 20023 40168 54000 70222 887// 22224 20506 3//// 4//09 5//// 80060
BBXX 51204 14121 99213 71581 46/// ///// 1//// 91152 22200 00247 11402 20601 333// 41401 70010
BBXX 46240 14121 99366 71219 46/// ///// 1//// 91212 22200 00126 11101 21001 334// 41101 70005
BBXX 46237 14121 99378 71226 46/// ///// 1//// 91210 22200 00110 11502 21001 327// 41501 70010
BBXX 46212 14121 99408 71243 46/// ///// 1//// 91212 22200 00095 11303 21001 331// 41302 70014
BBXX 46217 14121 99342 71194 46/// ///// 1//// 91212 22200 00145 11102 21002 327// 41101 70010
AAXX 14124 04203 46/// /2105 11165 21201 30043 40061 52001
AAXX 14124 04205 45/84 /0000 11221 21274 30041 40065 54000
AAXX 14124 04208 46/// ///// 11145 21165 39977 40024 57005
AAXX 14124 04213 46/// /1414 11093 21173 39912 40025 52009
AAXX 14124 04214 46/// /1424 11064 21134 39977 40010 52003
AAXX 14124 04224 47583 32014 11080 21118 30001 40035 52006 72488 333 83/26
AAXX 14124 04228 NIL
AAXX 14124 04242 46/// /0610 11086 21118 30037 40054 52001
AAXX 14124 04253 46/// /3517 11054 21067 30020 40047 52007
AAXX 14124 04266 46/// /3140 11038 21069 39975 40013 52010
AAXX 14124 04285 46/// /3126 29069 39954 49973 52018
AAXX 14124 04301 NIL
AAXX 14124 04313 46/// ///// 11229 21261 30120 40132 52004
AAXX 14124 04330 46/// /0122 29070 30049 40067 52006 333 91033
AAXX 14124 04351 46/// /3208 11106 21148 39969 49985 52002
AAXX 14124 04373 46/// /3117 11073 21174 39874 49968 52010
AAXX 14124 04382 46/// /3414 11038 21069 39906 49955 52007
AAXX 14124 04416 NIL
BBXX 46216 14121 99343 71198 46/// ///// 1//// 91157 22200 00142 11302 20701 327// 41301 70008
BBXX 46223 14121 99335 71178 46/// ///// 1//// 91200 22200 00153 11302 20501 320// 41301 70008
BBXX 46213 14121 99403 71247 46/// ///// 1//// 91154 22200 00098 11403 21002 328// 41403 70016
BBXX 46231 14121 99327 71174 46/// ///// 1//// 91154 22200 00144 11302 20902 326// 41302 70012
BBXX 46222 14121 99336 71183 46/// ///// 1//// 91156 22200 00155 11302 20502 323// 41301 70009
BBXX 46219 14121 99332 71199 46/// ///// 1//// 91158 22200 00135 11104 21003 330// 41102 70019
BBXX 46242 14121 99332 71174 46/// ///// 1//// 91158 22200 00153 11302 20501 323// 41301 70009
BBXX 41115 14121 99184 70673 46/// ///// 1//// 91205 22200 11003 21002 301// 41101 70013
BBXX 41114 14121 99276 70802 46/// ///// 1//// 91216 22200 00227 11104 21004 307// 41102 70022
BBXX 46211 14121 99469 71242 46/// ///// 1//// 91206 22200 00085 11404 21002 328// 41403 70018
AAXX 14121 50353 32970 33201 11190 21258 30010 40258 57004 80002
AAXX 14121 50557 32970 02002 11263 21294 39933 40267 57001
AAXX 14121 50756 32960 03402 11195 21231 39943 40266 52005
AAXX 14121 50949 32965 00000 11146 21195 30099 40283 52008
AAXX 14121 50963 11760 42504 11155 21189 30104 40251 52016 69921 70070 82502
AAXX 14121 50978 32980 42504 11126 21180 39859 40227 52020 80002
AAXX 14121 51087 NIL
AAXX 14121 51156 NIL
AAXX 14121 51644 NIL
AAXX 14121 51656 NIL
AAXX 14121 51886 32980 31102 11070 21252 37151 52011 80002 333 00202
AAXX 14121 52602 32980 02904 11083 21258 37309 52010 333 00304
AAXX 14121 52713 32980 00000 11105 21233 36943 52010 333 00352
AAXX 14121 52754 32980 52706 11112 21269 36804 52016 80002 333 00102
AAXX 14121 52818 32980 00000 11068 21219 37291 52013 333 00401
AAXX 14121 52836 32980 01801 11120 21250 36942 52010 333 00351
AAXX 14121 52955 32980 01101 11121 21258 37004 52033 333 00251
AAXX 14121 53068 32980 02702 11194 21235 39181 40452 57001 333 00252
AAXX 14121 53276 32980 02504 11193 21239 38965 40453 57002
AAXX 14121 54135 32980 02905 11100 21205 30076 40315 52010
AAXX 14121 54236 32970 03202 11079 21194 30201 40314 52007
AAXX 14121 54539 32970 03202 11035 21168 30329 40344 52018
AAXX 14121 54662 32972 00203 11040 21150 30209 40329 52017
AAXX 14121 54753 32562 43604 10006 21089 30321 40328 52017 84400
AAXX 14121 54857 32963 03606 10001 21040 30225 40321 52026
AAXX 14121 57067 32962 70701 10021 21058 39642 40355 52023 8703/
AAXX 14121 57178 32961 60704 10060 21034 30163 40328 52030 80002
AAXX 14121 57245 32964 70901 10075 20011 39939 40300 52019 8703/ 333 00403
AAXX 14121 57297 32960 70403 10057 20001 30172 40318 52023 8703/
AAXX 14121 48826 31596 71402 10190 20145 30046 40183 53016 71022 878// 333 00019 10225 58001 70000 83895 8769 7
AAXX 14121 48839 32497 80510 10194 20142 30112 40178 52010 888// 222// 00201 2//03 333 00/// 10207 59005 7000 0 82894 88696
AAXX 14121 48808 32498 60000 10159 20109 39904 40193 52015 868// 333 00014 10227 58006 70000 82894 86696
AAXX 14121 48830 32798 73603 10165 20088 39884 40197 52022 875// 333 00015 10206 58009 70000 87697
AAXX 14123 64800 NIL
AAXX 14123 64820 NIL
AAXX 14123 64860 31930 31006 10302 20014 39846 40115 70500 80002 333 0//00 59001 83080
AAXX 14123 64861 NIL
AAXX 14123 64870 31957 70608 10290 20040 38906 48504 70522 80002 333 0//00 58003 87080
AAXX 14123 64871 NIL
AAXX 14123 64892 NIL
AAXX 14123 64893 NIL
AAXX 14123 64894 NIL
AAXX 14124 64910 31512 72604 10320 20229 30098 40107 70522 85202 333 0//00 58006 85820 87080
AAXX 14124 64911 NIL
AAXX 14124 64950 NIL
AAXX 14121 01180 11680 71504 10047 21026 39703 49758 54000 60001 70222 84849 333 91115
AAXX 14124 40608 41956 70202 10142 20030 40228 57017 70522 80008
AAXX 14124 40621 42960 32501 10164 20009 40246 57011 83030
AAXX 14124 40634 42960 40602 10126 20038 40231 57018 84030
AAXX 14124 40642 42960 81503 10160 21081 40209 57016 80007
AAXX 14124 40650 42660 73502 10154 20030 40232 57016 81108
AAXX 14121 91945 36/// /0708 10255 20210 30147 40152 56012 333 10298
AAXX 14124 40656 42960 43002 10158 20019 40210 57020 80006
AAXX 14124 40665 42960 03104 10186 20057 40230 57019
AAXX 14124 40670 42960 23502 10170 20043 40227 56007 80001
AAXX 14124 40675 42960 33003 10178 21017 40207 56017 80002
AAXX 14124 40680 42960 43004 10194 20050 40211 57014 81032
AAXX 14124 40690 42960 50000 10181 20007 40214 57021 80006
AAXX 14121 29998 32999 01701 11298 21298 38747 48580 53014 333 11229
AAXX 14121 30385 11999 00000 11243 21255 39761 40345 52003 69942 70272 333 11226
AAXX 14121 30469 329// 70000 11289 21301 39550 40398 52008 80007 333 11261
AAXX 14121 30636 329// 00000 11298 21303 39766 40457 52011 333 11209
AAXX 14121 30650 32984 30000 11270 21295 39189 40430 52009 81041 333 11187
AAXX 14121 30664 32999 82101 11280 21298 39309 40411 52006 8801/ 333 21192
AAXX 14121 30781 NIL
AAXX 14121 30777 32998 02502 11296 21320 39658 40392 52011 333 11244
AAXX 14121 30844 11999 22702 11260 21271 39357 40442 52032 69952 70171 80001 333 11142
AAXX 14121 30925 118// 60000 11160 21179 39385 40424 52019 69902 77172 84071 333 11131
AAXX 14121 31371 32999 52902 11199 21257 39971 40255 58001 82031 333 11178
AAXX 14121 31388 32984 50000 11325 21342 39942 40239 58002 83041 333 11224
AAXX 14121 31478 NIL
AAXX 14121 31532 32999 80000 11329 21344 39858 40246 52002 80001 333 11257
AAXX 14121 31594 32999 03502 11251 21269 30043 40241 50006 333 11151
AAXX 14121 31655 32998 40702 11195 21228 30110 40161 53010 84050 333 11147
AAXX 14121 31754 11998 80000 11180 21199 39625 40155 53003 69990 77287 8802/ 333 11113
AAXX 14124 41259 36/// /2702 10106 21066 37139 40316 333 0E/// 58005
AAXX 14121 22438 42570 71709 10001 21014 30034 40055 58005 87400
BBXX 62105 14124 99554 70122 46/// /2613 10078 21009 49824 51013 22200 00108 10910 70050
BBXX 62081 14124 99510 70134 46/// ///// 10093 20033 49912 50000 22200 00120 10915 70077
BBXX 62163 14124 99475 70084 46/// /2628 10106 20040 40064 50003 22200 00131 11014 70070 333 90710 91139
BBXX 62303 14124 99516 70051 46/// /2617 10069 20029 49930 50018 22200 00116 10708 70041
BBXX 64046 14124 99606 70049 46/// /3216 10075 20034 49648 52025 22200 00090 10909 70044
BBXX 62001 14124 99453 70050 46/// /2729 10131 20051 40146 51020 22200 00149 10915 70074 333 90710 91139
BBXX 62301 14124 99524 70047 46/// /2523 10072 20013 49906 52014 22200 00106 10607 70033 333 90710 91134
BBXX 62442 14124 99490 70164 46/// /2837 1//// 2//// 40022 52020 22200 00129 333 90710 91153
BBXX 63110 14123 99595 10015 41498 52335 10076 20036 49648 71586 838// 22200 11010 70050
BBXX 64045 14124 99591 70117 46/// /3318 10062 20033 49746 52030 22200 00101 10910 70052 333 90710 91129
BBXX 62029 14124 99487 70125 46/// /2730 10090 20027 40014 51015 22200 00134 11016 70081 333 90710 91148
BBXX 62169 14123 99614 10014 41497 62434 10076 20051 49581 52030 70282 84360 22200 20306 322// 40712 5//// 80065
BBXX 62130 14124 99530 10017 46/// /2517 10071 20004 49900 52009 22200 10402 70011
BBXX 62125 14124 99538 70035 46998 /2631 10057 20008 49860 52020 22200 10605 70027
BBXX 62126 14124 99539 70036 46998 /2432 10054 20005 49870 52020 22200 10605 70027
BBXX 62135 14124 99540 70038 46597 /2632 10058 2//// 49860 52020 22200 10505 70025
BBXX AMOUK08 14124 99501 70061 46/// ///// 10083 20045 39971 49977 52021 91150
BBXX AMOUK14 14124 99536 70045 46/// ///// 10064 20015 39825 49858 57009 91150
BBXX AMOUK05 14124 99537 70003 46/// ///// 10050 20004 39829 49869 52012 91150
BBXX AMOUK02 14124 99535 70030 46/// ///// 10061 20009 39841 49882 5//// 91150
BBXX AMOUK06 14124 99509 70014 46/// ///// 10072 20019 39941 49964 52035 91150
BBXX AMOUK12 14124 99534 70056 46/// ///// 10045 21004 39840 49879 54003 91150
BBXX AMOUK11 14124 99533 70047 46/// ///// 10062 20013 39842 49879 52026 91150
BBXX AMOUK27 14124 99581 70057 46/// ///// 10076 20055 39702 49703 52018 91150
BBXX AMOUK19 14124 99571 70021 46/// ///// 10042 20012 39748 49751 52050 91150
BBXX 63115 14124 99616 10013 47598 /2326 10069 20027 49579 53032 700// 22200 11011 70057
BBXX MWYG6 14124 99603 70040 47998 /2916 10079 700// 22200
BBXX 64041 14124 99607 70026 47597 /2725 10066 20023 49623 52026 700// 22200 10807 70036
BBXX 63103 14124 99612 10011 46/// /2623 10072 20026 49604 52045 22200 10810 70049
BBXX 63104 14124 99612 10016 47498 /2425 10075 20036 49592 52034 700// 22200
BBXX 63056 14124 99597 10016 47598 /2424 10069 20031 49642 51040 740// 22200 10811 70053
BBXX 63110 14124 99595 10015 47498 /2426 10076 20036 49653 52035 700// 22200 10810 70050
BBXX 63117 14124 99613 10011 47599 /2422 10165 20044 49594 52039 730// 22200
BBXX 63101 14124 99612 10009 46/// /2621 10076 20036 49589 52038 22200
BBXX 63107 14124 99611 10017 46/// /2426 10075 49597 52036 22200
BBXX 63112 14124 99611 10010 47/98 /2524 10087 20029 49595 52039 700// 22200 10911 70056
BBXX 62111 14124 99580 70003 46/// /2633 10074 20013 49738 52027 22200 10708 70041
BBXX PJAI 14124 99581 70014 47597 /2527 10086 20016 49710 52026 700// 22200
BBXX 63113 14124 99610 10017 46/// /2524 10077 20033 49616 52044 22200 10912 70058
BBXX 62112 14124 99584 70002 47597 /2432 10075 20028 49700 52032 700// 22200
BBXX 63055 14124 99606 10016 47998 /2521 10078 20034 49624 52042 700// 22200 10809 70045
BBXX 63108 14124 99608 10017 47998 /2526 10072 20030 49615 52040 700// 22200 10909 70045
BBXX 63106 14124 99610 10017 46/// /2426 10077 49601 52038 22200
BBXX 63105 14124 99610 10017 47597 ///// 10076 20034 49602 52039 700// 22200
BBXX 62164 14124 99572 10008 47497 /2327 10084 20039 49748 51028 700// 22200 00098 10810 70050
BBXX PJGO 14124 99571 10022 46/// ///// 22200
BBXX 62133 14124 99571 10009 46/// /2329 10072 20024 49748 51026 22200
BBXX 62119 14124 99570 10019 47597 /2634 10075 20031 49775 52025 700// 22200 10812 70061
BBXX 62152 14124 99570 10018 46/// /2421 10073 20029 49774 52024 22200 10711 70054
BBXX 62154 14124 99564 10022 46/// /2330 10064 20034 49784 51018 22200
BBXX 62120 14124 99564 10021 47497 /2533 10064 20060 49777 51021 700// 22200
BBXX 62132 14124 99564 10020 46/// /2624 10067 20035 49796 52023 22200
BBXX 62123 14124 99563 10022 47597 /2435 10060 20050 49773 52020 762// 22200
BBXX 62165 14124 99540 10009 47998 /2330 10056 20002 49870 51007 700// 22200 10504 70022
BBXX 62127 14124 99540 10007 47998 ///// 10052 21001 49867 51006 700// 22200 10504 70019
BBXX 62131 14124 99539 10012 46/// /23// 10058 20010 49871 51005 22200
BBXX 62149 14124 99537 10011 47998 /2329 10058 20011 49880 50004 700// 22200 10504 70018
BBXX 62148 14124 99536 10015 46/// /2331 10060 20003 49893 50005 22200
BBXX 62150 14124 99536 10007 47998 /2420 10055 20005 49888 51003 700// 22200 10403 70013
BBXX 62121 14124 99535 10027 46/// /2324 10062 20007 49902 50007 22200
BBXX 62144 14124 99534 10017 47598 /2428 10056 20007 49904 50008 700// 22200 10504 70019
BBXX 62145 14124 99531 10028 47598 /2223 10068 21001 49906 51004 700// 22200 10504 70021
BBXX 62142 14124 99530 10021 469// /2422 10060 20005 49904 51006 22200 10403 70014
BBXX 63057 14124 99592 10015 47497 /2430 10075 20039 49668 52033 700// 22200 10911 70054
BBXX 62128 14124 99587 10014 47497 /2436 10074 20035 49683 52031 700// 22200 10810 70050
BBXX 62129 14124 99584 10003 46/// ///// 10068 20026 49718 52031 22200
BBXX 62113 14124 99584 10002 47498 /2333 10070 20027 49711 52026 700// 22200
BBXX ZQSD5 14124 99583 10007 46/// /2431 10078 20026 49709 52033 22200 10914 70068
BBXX 62114 14124 99583 10000 46/// /2433 10072 20026 49696 52029 22200
BBXX 62134 14124 99580 10014 47698 /2430 10076 20028 49724 52028 700// 22200 10810 70051
BBXX 62102 14124 99579 10018 46/// /2525 10076 20028 49726 52029 22200 10810 70050
BBXX 62117 14124 99579 10000 47997 /2429 10078 20029 49721 52030 700// 22200 10708 70040
BBXX 62143 14124 99577 10018 47598 /2633 10078 20016 49747 52041 700// 22200 10810 70051
BBXX 62118 14124 99577 10009 47998 /2333 10087 20023 49725 52027 700// 22200 10709 70045
BBXX 62155 14124 99577 10007 47598 /2433 10075 20026 49742 52030 751// 22200 10809 70046
BBXX 62116 14124 99576 10011 47597 /2531 10075 20024 49731 52030 700// 22200 10710 70048
BBXX 62104 14124 99574 10013 47497 /2425 10079 20036 49738 52026 700// 22200
BBXX 62153 14124 99573 10020 47997 /2427 10075 20035 49745 52025 700// 22200 10811 70053
BBXX 62122 14124 99573 10016 47598 /2428 10078 20032 49759 52027 700// 22200 10811 70055
BBXX 62140 14124 99573 10013 46/// /26// 10075 20036 49739 52026 22200
BBXX 62146 14124 99572 10021 47/97 /2527 10073 20028 49766 52025 700// 22200 10811 70055
BBXX AMOUK09 14124 99506 70024 46/// ///// 10079 20014 39950 49968 52032 91150
BBXX AMOUK03 14124 99537 70003 46/// ///// 10052 20011 39834 49868 52011 91150
BBXX 62170 14124 99514 10020 46/98 /2524 10080 20025 49946 52011 22200 00115 10502 70010 333 90710 91132
BBXX 62304 14124 99511 10018 46/99 /2626 10085 20017 49951 52010 22200 00119 10602 70012 333 90710 91134
BBXX 62305 14124 99504 10000 46/98 /2641 10096 20023 49969 51013 22200 00123 10705 70024 333 90710 91153
BBXX 62027 14124 99491 70022 46/// /2726 1//// 2//// 40018 50039 22200 00120 10707 333// 70034 333 90710 91139
BBXX DPLE 14123 99427 70249 41698 62728 10145 20093 40265 50/// 70381 84241 22213 00150 20606 332// 41412 80116
BBXX 63119 14124 99583 10009 41597 52536 10074 20017 49694 52031 70222 852// 22200 20408 323// 40713 5////
BBXX DRMX 14123 99436 10085 41398 72421 10152 20134 40146 57010 70222 82272 22251 02160 20504 321// 40605 5//// 80142
BBXX 62094 14124 99517 70067 46/// /2428 10077 20033 49918 50007 22200 00109 10707 70034 333 90710 91144
BBXX 62107 14124 99501 70061 46/// /2733 10080 20028 49977 51019 22200 00116 10909 70044 333 90710 91152
BBXX 62103 14124 99499 70029 46/97 /2635 10078 20021 49974 52027 22200 00124 10806 70032 333 90710 91153
BBXX 62095 14124 99530 70159 46/// /2807 10066 20041 49772 58040 22200 00114 11319 70094 333 90710 91131
BBXX 64049 14123 99571 10022 41297 82438 10085 20085 49750 53018 70211 8/7// 22200 20714 3//// 4//// 5//// 80085
BBXX 62103 14124 99499 70029 46/98 /2725 10079 20032 49980 52026 22200 00124 10806 70032 333 90710 91148
BBXX JGQH 14124 99237 11315 41/97 70619 10223 20204 40180 52007 70282 872// 22262 00239 1//// 20604 399// 4//03
BBXX JGQH 14124 99237 11315 41/97 70619 10223 20204 40180 52007 70282 872// 22262 00239 1//// 20604 399// 4//03
BBXX JPBN 14124 99334 11415 41/98 72812 10189 20107 40161 55002 70211 83231 22273 00207 1//04 20301 399// 4//03 70022
BBXX JPBN 14124 99334 11415 41/98 72812 10189 20107 40161 55002 70211 83231 22273 00207 1//04 20301 399// 4//03 70022
AAXX 14121 89062 42565 63221 10030 21037 39814 49854 52018 8657/ 333 10034 20006 83730 86356
AAXX 14121 28383 41996 20301 11226 21251 30258 40352 52005 70471 80002
AAXX 14121 28696 41996 00000 11254 21272 30164 40321 53002 71000
AAXX 14124 67767 NIL
AAXX 14124 67843 NIL
AAXX 14124 67969 41680 60302 10286 20203 3//// 48/// 70262 83232 333 5//// 83845 84080
AAXX 14121 28586 42997 00201 11233 21251 30163 40328 52002
AAXX 14121 28688 42997 33401 11255 21273 30146 40325 52004 80001
AAXX 14121 28588 42998 03501 11253 21270 30149 40328 53004
AAXX 14121 23929 42578 81401 11228 21246 30281 40355 52001 8251/
AAXX 14121 28465 41996 80000 11226 21244 30258 40343 52001 77072 8807/
AAXX 14121 38388 42598 80000 10028 21017 30263 40335 57002 886// 555 11005
AAXX 14121 38392 42998 23004 10014 21049 30228 40334 57006 82030 555 10002
AAXX 14121 38507 42998 21802 10100 20029 30211 40314 53001 80001 555 10014
AAXX 14121 38511 42598 81103 10010 20002 30180 40326 57004 886// 555 11003
AAXX 14121 38545 42998 52703 10049 21027 30146 40325 57001 85070 555 11006
AAXX 14121 38647 41997 01104 10038 20020 30258 40301 57005 71041 555 10006
AAXX 14121 38656 42998 00000 10074 20006 30200 40311 57008 555 10008
AAXX 14121 38687 42997 03603 10057 21007 30080 40320 57005 555 11006
AAXX 14121 38750 42997 63601 10112 20032 30327 40298 57005 80001 555 10011
AAXX 14121 38763 41/93 90703 10022 20022 30202 40310 57005 74544 555 11006
AAXX 14121 38774 42997 20502 10056 20029 30130 40330 54000 80004 555 10007
AAXX 14121 38799 42997 03601 10072 21000 30082 40317 57005 555 10008
AAXX 14121 38806 42997 03402 10065 21006 30046 40310 57003 555 11007
AAXX 14121 38880 42997 43501 10079 20019 30050 40308 55001 84030 555 11008
AAXX 14121 38886 42997 61202 10097 21007 30072 40301 57008 84030 555 10011
AAXX 14121 38895 42996 00602 10080 20023 30021 40314 56003 555 11008
AAXX 14121 38911 42998 03503 10087 20002 30000 40297 57004 555 11008
AAXX 14121 38915 42997 01801 10076 20000 39975 40304 57002 555 11007
AAXX 14121 38974 42998 50701 10068 20030 39959 40298 57001 85060 555 11007
AAXX 14121 38987 42596 70102 10031 21001 39543 40304 57004 87500 555 11006
AAXX 14121 37395 42999 50908 10140 21005 30102 40240 57007 86030 555 11013
AAXX 14121 30692 32999 03202 11208 21257 39746 40282 54/// 333 11177
AAXX 14121 28791 42998 23401 11241 21253 30158 40319 52002 80001
AAXX 14121 48887 12798 60705 10268 20233 30092 40098 53010 69914 865// 333 00027 10314 59007 70001 86697
AAXX 14121 48870 02498 83203 10242 20192 30122 40129 53015 69934 888// 333 01023 10247 59007 69932 70003 83894 88696
AAXX 14121 48920 12598 60506 10271 20254 30091 40094 52017 60174 82208 222// 00286 2//02 333 10303 58015 70173 82895 86299
AAXX 14121 48877 02598 73605 10246 20216 30118 40123 53018 60184 878// 333 01025 10248 58002 69992 70184 83895 87697
AAXX 14121 48892 01598 70505 10273 20259 30096 40101 52011 60304 70282 82208 333 10315 58004 60022 70298 82895 87299
BBXX 41052 14121 99183 70648 46/// /0103 10267 40110 53010 91200 22200 00278 333 91204
BBXX 41053 14121 99185 70661 46/// /2403 10252 40118 91150 333 91204
BBXX 41053 14121 99185 70661 46/// /2102 10249 40117 91140 333 91204
BBXX 41053 14121 99185 70661 46/// /2202 10252 40120 53012 91200 22200 00277 11003 70016 333 91203
BBXX 46221 14121 99339 71186 46/// ///// 1//// 91145 22200 00148 11302 20801 322// 41301 70008
BBXX 41052 14121 99183 70648 46/// /0103 10264 40109 91150 333 91204
BBXX 41052 14121 99183 70648 46/// /0103 10265 40108 91140 333 91204
AAXX 14120 44277 329// 02302 11229 21261 37871 40596 53007 333 11106
BBXX SHIP 14124 99301 11328 41497 53313 10180 20112 40189 50004 70122 82/// 22213 00238 80140
BBXX SHIP 14124 99301 11328 41497 53313 10180 20112 40189 50004 70122 82/// 22213 00238 80140
BBXX S6CW 14123 99111 11414 41/98 80726 10280 20280 40089 51017 70322 82778 22274 00296 20506 80280
BBXX 7JJA 14124 99248 11286 41597 80624 00 10220 20175 40185 57 70222 87850 9//// 22213 00190 20307 306 40308 5 6//// 80190 IC E/////
BBXX SHIP 14124 99255 11245 41498 51118 10215 20185 40194 53008 70222 845// 22254 00250 2//// 3//// 4//// 80195
BBXX SHIP 14124 99207 11319 41698 30616 10250 20222 40152 50005 70200 83100 22243 00260 2//// 3//// 4//// 80230
BBXX A8GH5 14123 99407 70106 41697 43225 10170 20090 40260 56010 70300 8314/ 22282 06160 20404 332// 41012 80125
AAXX 14121 78310 12560 20804 10208 20191 30185 40196 53001 60001 81201 333 10268 20208 30/// 56909 59001 81820 92023
AAXX 14121 78315 12570 10901 10188 20162 30125 40191 53003 60001 81400 333 10279 20185 30/// 50650 56900 58001 79999 81820
AAXX 14121 78318 11561 10905 10210 20178 30190 40194 53004 60001 70500 81202 333 10258 20209 31/// 56909 58004 70060 81820
AAXX 14121 78322 11558 10000 10172 20161 30180 40198 55003 60001 71000 81202 333 10293 20172 30/// 56909 58004 81820
AAXX 14121 78324 11410 40508 10228 20175 30175 40186 53005 60001 70500 81205 333 10271 20225 30/// 56109 58008 81816 84270 555 10503
AAXX 14121 78325 11460 20904 10234 20164 30140 40198 53001 60001 70400 81202 333 10259 20215 30/// 55053 56209 58007 70060 81817 555 10903
AAXX 14121 78328 11461 60806 10228 20186 30199 40/// 53002 60001 70511 86800 333 10270 20224 30/// 50560 56200 58009 85817 92427 555 10903
AAXX 14121 78333 12410 30202 10180 20165 30179 40186 51004 60001 81202 333 10287 20175 30/// 56100 58004 81818 83070 555 10402
AAXX 14121 78344 11563 10402 10192 20174 30136 40185 53006 60001 70500 81202 333 10287 20186 31/// 50510 56909 58009 81820
AAXX 14121 78345 12565 10303 10190 20176 30177 40181 53007 60001 81500 333 10282 20178 31/// 56900 58007 70006 81623
AAXX 14121 78348 11456 40508 10223 20179 30136 40188 53004 60001 70511 83802 333 10262 20221 30/// 50684 56109 57842 58008 70001 82819 555 10503
AAXX 14121 78349 11550 43501 10192 20185 30082 40193 53008 60001 71000 84200 333 10276 20188 31/// 50124 56800 57813 58009 70012 84820 555 10203
AAXX 14121 78351 11550 73603 10203 20198 30160 40162 53011 69921 70362 82802 333 10302 20198 31/// 56909 58007 70020 81823 86080
AAXX 14121 78353 01570 40605 10239 20193 30163 40185 53017 69911 72580 84800 333 10266 20223 31/// 50124 56900 58010 69917 70105 83820
AAXX 14121 78355 12570 30204 10216 20192 30029 40165 53002 60001 81802 333 10262 20206 30/// 55080 56909 58005 70002 81820
AAXX 14121 78358 01540 50506 10245 20200 30151 40166 52014 69921 70582 85800 333 10281 20229 31/// 50154 56900 58009 69927 70037 82823 84629
AAXX 14121 78360 01570 60104 10229 20219 30143 40155 53008 69901 70162 83406 333 10307 20228 30/// 56809 59001 69907 79999 81820 832// 92025 555 13603
AAXX 14121 78363 11558 73301 10217 20207 30036 40151 53014 69951 71562 875// 333 10284 20217 31/// 50340 56999 58004 70032 87621
AAXX 14121 78365 11562 40716 10257 20196 30165 40170 53011 60001 70511 82204 333 10278 20234 31/// 56200 57815 58005 70184 82820 83075 92057 555 10703
AAXX 14121 78369 11466 60309 10251 20213 30138 40147 51007 60001 70522 86200 333 10280 20240 31/// 55076 56100 57863 59001 70023 86818 92045 555 10303
BBXX H9UY 14124 99183 71256 41797 70516 00/// 10200 40186 56010 70322 85584 9//// 22263 04220 20305 323// 40305 5//// 6//// 80170
BBXX SHIP 14124 99314 71625 41/96 81828 10210 20195 40144 56019 70302 8//// 91155 22264 00210 2//// 3//// 4//// 5//// 80200
BBXX DDZK2 14124 99449 71728 41598 63238 10044 21015 49874 54000 7//// 85873 22225 04092 21009 335// 41212 5//// 80020
BBXX SHIP 14124 99143 31526 41099 23404 10280 20253 40091 51010 701// 81233 22283 20100 304// 40302 80260
AAXX 14124 78862 12480 20000 10250 20237 30093 40116 60021 82202 333 10291 20215 59015 70041 82818
AAXX 14124 SHRA FEW012CB BKN015 BECMG 1312/1314 10008KT
AAXX 14124 TAF TQPF 121600Z 1218/1318 VRB04KT 9999 SCT016 PROB30 TEMPO 1218/1318 SHRA FEW012CB BKN015 BECMG 1312/1314 10008KT
AAXX 14124 TAF TKPN 121600Z 1218/1318 VRB04KT 9999 SCT016 PROB30 TEMPO 1218/1318 SHRA FEW012CB BKN015 BECMG 1312/1314 10008KT
AAXX 14124 TAF TUPJ 121600Z 1218/1318 VRB04KT 9999 SCT016 PROB30 TEMPO 1218/1318 SHRA FEW012CB BKN015 BECMG 1312/1314 10008KT
AAXX 14124 EMPO 0600/0624 SHRA BKN015=+TSRA SCT012CB
AAXX 14124 TAF TUPJ 041000Z 04012/0512 07008KT 9999 SCT016 BKN038 SCT270 TEMPO 0412/0512 SHRA BKN015 PROB40 TEMPO 0418/0512 5000 SHRA BKN014 BKN036 PROB30 0420/0512 4000 TSRA FEW012CB
AAXX 14124 918 4000 TSRA FEW012CB
AAXX 14124 N015 BKN036 PROB40 TEMPO 0704/0724 3000 +TSRA SCT011CB BKN012 BECMG 0712/0714 14008KT
AAXX 14124 21/2712 07017G28KT 5000 SHRA BKN015 BKN036 PROB TEMPO 2700/2712 4000 TSRA FEW013CB
AAXX 14124 PROB30 TEMPO 0800/0806 4000 TSRA FEW012CB PROB40 TEMPO 0800/0824 2000 +SHRA/TSRA SCT010CB BKN012 BKN250
BBXX 51203 14121 99208 71570 46/// ///// 1//// 91213 22200 00251 11301 21001 326// 41301 70007
BBXX 52200 14121 99134 11448 46/// ///// 1//// 91215 22200 00288 10906 20906 308// 41102 70029
BBXX 51201 14121 99217 71581 46/// ///// 1//// 91212 22200 00242 11403 21003 332// 41402 70017
BBXX 46088 14121 99483 71232 46/// /1302 10056 40204 91220 22200 00079 1//00 70002 333 91203 555 11021 22021 31207 41303 61219 127020 131020 131021 137017 128015 116006
BBXX SHIP 14124 99143 31526 41099 23404 10280 20253 40091 51010 701// 81233 22283 20100 304// 40302 80260
BBXX 46239 14121 99363 71221 46/// ///// 1//// 91151 22200 00131 11303 20803 327// 41302 70016
AAXX 14121 14216 11462 81802 10122 20111 30015 40165 56015 60021 76366 887// 333 70026 92322 92427
AAXX 14121 14219 11250 80901 10065 20055 39142 48460 58022 60011 76066 887// 333 70013
AAXX 14121 14232 12784 72504 10136 20063 30013 40146 57026 60001 87500 333 70000
AAXX 14121 14234 12680 61302 10120 20064 39901 40144 57024 60001 86500 333 70000
AAXX 14121 14236 12660 52402 10112 20066 39950 40145 58020 60001 84530 333 70000
AAXX 14121 14244 12484 61903 10151 20068 30023 40149 57024 60001 86500 333 70000
AAXX 14121 14248 12660 61802 10090 20058 39981 40154 57017 60001 86500 333 70000
AAXX 14121 14253 12660 22302 10135 20067 39978 40148 58021 60001 82400 333 70000
AAXX 14121 14256 12970 11903 10131 20055 39834 40146 58014 60001 81040 333 70000
AAXX 14121 14280 11620 81604 10067 20061 30060 40170 57018 60001 71042 8457/ 333 70000
AAXX 14121 14308 11662 82304 10112 20090 39810 40159 58015 69941 72164 8567/ 333 70004
AAXX 14121 14321 11565 81306 10127 20107 30151 40175 57017 69961 7616/ 8802/ 333 70006 92334 92447
AAXX 14121 14370 12560 70000 10082 20070 30061 40171 57020 60001 87600 333 70000
AAXX 14121 14382 12660 51502 10090 20084 30054 40173 57020 60001 83530 333 70000
AAXX 14121 14428 11470 71508 10150 20108 30175 40182 58011 69911 76166 87800 222// 00148 333 70001 92323
AAXX 14121 14441 12962 51605 10156 20083 30157 40181 56020 60001 80006 222// 00177 333 70000 92322
AAXX 14121 14452 NIL
AAXX 14121 14454 12673 71504 10160 20081 30137 40196 57018 60001 81438 333 70024 92312
AAXX 14121 14462 12670 60702 10155 20090 30203 40209 57018 60001 81208 333 70000
AAXX 14120 44266 329// 03602 11160 21211 37827 40443 53002 333 11110
AAXX 14120 44325 329// 00000 11193 21212 38967 40485 53006 333 11122
AAXX 14121 21432 31996 21909 11255 21286 30151 40172 57009 73830 82030 333 11236
AAXX 14121 21824 31998 82107 11176 21191 30177 40186 57002 73632 8805/ 333 11148
AAXX 14121 21908 11997 80000 11165 21185 30121 40205 57012 69942 77172 8802/ 333 11165
AAXX 14121 21921 11997 80000 11305 21334 30187 40236 57009 69902 77072 86037 333 11300
AAXX 14121 21931 NIL
AAXX 14121 21946 11296 81802 11376 21399 30214 40305 57006 69900 71072 886// 333 11368 88705
AAXX 14121 21982 41998 30209 11194 21235 30208 40237 52009 73732 82031 333 91111
AAXX 14121 25062 42997 80804 11235 21253 30222 40226 52008 80005 333 91106
AAXX 14121 25123 11996 80000 11197 21223 30156 40191 52004 69930 77172 8802/ 333 11182
AAXX 14121 25138 11598 82702 11187 21206 30065 40193 52006 69920 77172 86537 333 11172 91104
AAXX 14121 25173 42598 23302 11222 21233 30226 40231 52009 8655/ 333 91103
AAXX 14121 25248 11998 80000 11195 21214 39717 40189 52006 69940 70272 8805/ 333 11190 91101
AAXX 14121 25282 42980 03203 11255 21267 30199 40206 52005 333 91105
AAXX 14121 25325 NIL
AAXX 14121 25356 42599 70000 11109 21153 30047 40149 52012 85530 333 91004
AAXX 14121 25399 41478 83204 11160 21173 30147 40157 52003 70283 885// 333 91107
AAXX 14121 25428 11656 83103 11233 21265 39818 40173 53007 69950 77172 84537 333 1//// 91108
AAXX 14121 25551 41996 80505 11091 21125 30064 40095 52015 77173 87037 333 91112
AAXX 14121 25563 42584 72806 11106 21126 30028 40107 51010 84530 333 91114
AAXX 14121 25594 41596 33610 11120 21133 30070 40122 52008 73830 83500 333 91113
AAXX 14121 25677 41496 70612 11032 21043 30049 40055 52011 73832 85530 333 85618 91114
AAXX 14121 31054 11999 80000 11422 21451 30029 40349 52006 69902 70272 83026 333 11395
AAXX 14121 31123 12998 00501 11351 21380 39953 40324 52014 69902 333 11283
AAXX 14121 13492 ///// 0//// 10050
AAXX 14121 13585 42697 52502 10065 20060 39417 40214 56009 85500
AAXX 14121 13597 42998 60000 10156 20070 30146 40218 56002 86050
AAXX 14121 13598 42998 50000 10127 21002 48516 57015 85030
AAXX 14123 41150 32966 03116 10191 20134 40198 333 59004
BBXX PHQX 14123 99481 70293 41298 82715 10092 20023 40168 54000 70222 887// 22224 20506 3//// 4//09 5//// 80060
AAXX 14124 65101 31925 73605 10308 20060 39728 40112 70522 80008 333 58000 87280
AAXX 14124 65112 31920 70703 10305 20048 3//// 4//// 70522 80008 333 5//// 87280
AAXX 14124 65123 31920 70604 10330 20080 30091 40105 70522 80008 333 58002 87280
AAXX 14124 65124 31959 71208 10340 20015 3//// 4//// 70522 80008 333 5//// 87280
AAXX 14124 65203 31935 70000 10325 20202 3//// 4//// 70522 80008 333 5//// 87280
AAXX 14124 65205 31950 72406 10315 20212 3//// 40123 70522 80008 333 58020 87280 65215 31940 72303 10310 20126 3//// 4//// 70522 80008 333 5//// 87280
AAXX 14121 60373 36/// /2803 10184 20119
AAXX 14121 60623 36/// /0000 10192 21142
AAXX 14121 60393 36/// /2102 10201 20099
AAXX 14124 93800 16/// /0525 10162 20156 49974 52011 60031
AAXX 14124 93805 16/// /1606 10135 20130 49970 52008 60021
AAXX 14124 93994 16/// /1206 10198 20169 40144 57015 60001
AAXX 14124 65208 31938 70704 10304 20035 3//// 4//// 70522 80008 333 5//// 87280
AAXX 14124 65243 31946 70000 10314 20070 3//// 4//// 70522 8//// 333 5//// 8////
AAXX 14121 14323 11665 81504 10142 20091 30135 40168 57011 69901 72166 885// 333 70000 92322 92427
AAXX 14121 40706 11550 50803 11020 21098 38735 40347 57011 60001 70521 82501 333 82630 83068 VV1800E-SE
AAXX 14121 40718 12565 70000 10104 20088 30319 40289 56018 60001 85260 222// 00106 20101 333 85830 87360
AAXX 14121 40732 10108 20070 30306 40281 55003 60001 82306 333 82922 85270
AAXX 14121 40745 12962 00903 10081 21064 39102 40276 56008 60001 333
AAXX 14121 40754 12960 52002 10092 21051 38882 40251 56007 60001 80006 333 85270
AAXX 14121 40766 11958 60000 10148 21080 38740 40242 57014 60001 70521 80006 333 86269
AAXX 14121 40800 11930 00602 10110 21016 38494 40235 57014 60001 70500 333
AAXX 14121 40811 12960 33002 10198 20004 30175 40202 57019 60001 80001 333 83070
AAXX 14121 40841 12965 00000 10152 21118 38286 40226 57012 60001 333
AAXX 14121 40848 12960 10903 10162 21076 38553 40202 56014 60001 80001 333 81070
AAXX 14121 40856 12965 03505 10135 21107 38673 40233 55006 60001 333
AAXX 14121 40875 12965 01003 10277 21117 30162 40173 56017 60001 333
AAXX 14124 61600 32960 70608 10290 20014 30146 40151 82032 333 58010 82363 87073
AAXX 14124 61612 32960 60808 10270 20008 30153 40161 80002 333 0//00 58006 86073
AAXX 14124 61627 32958 60806 10295 20027 3//// 4//// 80002 333 0//00 5//// 86073
AAXX 14124 61630 32960 51406 10288 20062 30132 40151 80002 333 0//00 58001 85073
AAXX 14124 61641 32957 70411 10280 20137 30107 40140 86032 333 0//00 58000 86362 83073
AAXX 14124 61666 32960 70804 10304 20124 30136 40144 80002 333 0//00 58008 87073
AAXX 14124 61679 32958 61017 10310 20152 30138 40146 80002 333 0//00 58000 86073
AAXX 14124 61687 32960 51014 10320 20027 30073 40130 80002 333 0//00 59001 85073
AAXX 14124 61695 32960 70414 10280 20078 30102 40128 80002 333 0//00 59001 87073
AAXX 14124 61697 32960 40614 10294 20116 30110 40124 81032 333 0//00 59001 81363 84073
AAXX 14124 61698 32960 60804 10302 20061 30119 40130 80002 333 0//00 58005 86073
AAXX 14124 61699 33960 41606 10310 20102 39929 40117 80002 333 0//00 58001 84073
AAXX 14124 65528 NIL
AAXX 14124 65536 NIL
AAXX 14124 65545 NIL
AAXX 14124 65548 NIL
AAXX 14124 65555 NIL
AAXX 14124 65557 NIL
AAXX 14124 65560 31930 0//// 10290 20168 39802 40110 70544 333 59004
AAXX 14124 65562 31930 0//// 10313 20170 3//// 4//// 70544 333 5////
AAXX 14124 65563 31430 10000 10302 20208 39874 40114 70500 81500 333 58001 81610
AAXX 14124 65578 31950 02004 10299 20250 30101 40110 70500 333 58002
AAXX 14124 65585 32956 0//// 10305 20238 3//// 4//// 333 5////
AAXX 14124 65592 32456 1//// 10294 20229 30081 40103 81200 333 59008 81815 94908
AAXX 14124 65594 31458 51604 10300 20240 30079 40113 70144 85500 333 59003 85613
AAXX 14124 65599 32460 3//// 10294 20234 30026 40100 83200 333 59004 83815 94909
AAXX 14121 08541 12/// /3204 10156 20128 30146 40265 52013 60011 333 91006 91106
AAXX 14121 40700 12960 50000 10086 20012 30205 40296 56006 60001 80006 333 85267
AAXX 14121 40723 12960 00000 10054 21038 38984 40298 55001 60001 333
AAXX 14121 40726 11650 80000 10000 21060 38727 40308 57014 60001 70522 8452/ 333 84635 88458
AAXX 14121 40727 11958 53604 10020 21028 38546 40297 57020 60001 70521 83051 333 83360 84070
AAXX 14121 40734 12560 30602 10114 20052 30312 40286 58004 60001 82102 333 82830 83068
AAXX 14121 40737 12965 20603 10118 20047 30265 40283 57008 60001 80001 333 82070
AAXX 14121 40741 12560 20000 10075 20046 39960 40308 56006 60001 82100 333 82830
AAXX 14121 40780 12960 42302 10154 21128 38725 40219 56012 60001 80001 333 84070
AAXX 14121 40791 12965 00000 10142 21056 39413 40251 56008 60001 333
AAXX 14121 40792 12970 12903 10098 21092 38768 40253 56007 60001 80001 333
AAXX 14121 40794 12960 40000 10220 20011 30108 40207 56017 60001 80001 333 84070
AAXX 14121 40812 12960 42405 10196 20006 39822 40200 57012 60001 80001 333 84070
AAXX 14121 40829 12962 03502 10155 21087 39652 40238 56009 60001 333
AAXX 14121 40833 12960 03006 10198 20038 30180 40212 57019 60001 91150 333
AAXX 14121 40835 12968 12402 10212 21096 39365 40202 57010 60001 80001 333
AAXX 14121 40845 12960 03407 10178 20120 30195 40200 57013 60001 91147 333
AAXX 14121 40882 12962 02003 10256 20070 30143 40178 56015 60001 333
AAXX 14121 40889 12960 00506 10246 20106 30175 40180 56012 60001 222// 00255 20401 333
AAXX 14121 40890 12960 00606 10250 20047 30162 40170 56012 60001 222// 00246 20302 333
AAXX 14121 40893 12960 02303 10250 20142 30170 40176 56015 60001 222// 00225 20501 333
AAXX 14121 40897 NIL
AAXX 14124 40153 11958 60103 10135 20022 39111 48516 57013 60001 70522 86080
AAXX 14124 40179 12965 82702 10185 20116 30141 40178 57013 60001 80007
AAXX 14124 40180 12960 82703 10178 20103 30131 40180 57016 60001 80007
AAXX 14124 40190 16/// ///// 10179 20092 39845 40173 57011 60001
AAXX 14124 40199 13/// /0308 10199 20015 30135 40157 57027 60001
AAXX 14121 40701 11630 80000 11058 21072 38678 40361 56010 60001 71022 885// 333 88640
AAXX 14121 40704 12970 43304 10000 21074 38677 40311 54000 60001 80001 333 84070
AAXX 14121 40708 12960 60000 10018 21019 38717 40303 57009 60001 80006 333 86268
AAXX 14121 40710 11956 29901 11084 21111 38390 40410 57008 60001 80001 333 82067
AAXX 14121 40713 11618 80000 11002 21068 38742 40317 57007 60001 70522 8342X 333 83635 88459
AAXX 14121 40719 11440 50102 10110 20062 30296 40286 56004 60001 70522 83308 333 81915 82620
AAXX 14121 40731 11957 70000 10084 21028 38790 40269 56012 60001 70522 80005 333 87069
AAXX 14121 40738 12960 33603 10110 20039 30301 40303 54000 60001 80001 333 81070
AAXX 14121 40740 12960 00000 10030 21023 38785 40290 55005 60001 333
AAXX 14121 40747 12960 20000 10100 21054 38675 40252 56020 60001 80001 333 82070
AAXX 14121 40757 12965 21503 10090 21025 38959 40267 55008 60001 80002 333 82070
AAXX 14121 40763 12965 02202 10094 21065 38967 40252 57013 60001 333
AAXX 14121 40782 12962 02703 10148 21091 38912 40254 56018 60001 333
AAXX 14121 40783 12970 62903 10124 21084 38018 40214 56009 60001 80006 333 86269
AAXX 14121 40789 12965 00000 10110 21057 39275 40273 56015 60001 333
AAXX 14121 40798 12960 30000 10138 21123 37998 40236 56011 60001 80001 333 83070
AAXX 14121 40818 12980 20104 10142 21139 38006 40200 56017 60001 80002 333 82070
AAXX 14121 40827 12970 02106 10150 21121 38878 40267 58017 60001 333
AAXX 14121 40836 12970 19901 10172 21071 38225 40201 56013 60001 80001 333 81069
AAXX 14121 40851 12962 02602 10156 21084 38300 40215 56010 60001 333
AAXX 14121 40853 12965 02406 10140 21205 37780 40192 56006 60001 333
AAXX 14121 40854 12960 00602 10150 21077 39000 40215 56011 60001 333
AAXX 14121 40857 11957 03305 10190 20122 30189 40199 57015 60001 70500 222// 00184 20402 333
AAXX 14121 40859 12960 01603 10186 21081 38736 40178 56015 60001 333
AAXX 14121 40878 12962 00404 10162 21138 38876 40232 55007 60001 333
AAXX 14121 40879 12962 01902 10216 21101 39516 40201 56012 60001 333
AAXX 14121 40883 12960 01204 10246 20040 30150 40172 56014 60001 222// 00238 20501 333
AAXX 14121 40898 12960 01702 10254 20048 30160 40169 56014 60001 222// 00247 10800
BBXX 46207 14121 99509 71299 46/// /0806 10066 40145 57022 22200 00084 11204 70020 333 91208
BBXX DDJS2 14123 99355 71356 41397 82818 10163 20142 40247 53/// 70322 8/774 22234 04171 20101 327// 40503 5//// 80151
BBXX DGTX 14123 99330 71431 41497 62312 10180 20148 40275 54000 70322 82568 22264 00210 20402 304// 40503 80160
BBXX SBLI 14121 99300 71438 43/98 70807 10179 40270 58010 22264 00200 2//// 4////
BBXX SHIP 14124 99353 71450 41298 32310 10190 20175 40256 54000 70210 83200 91200 22224 00170 1//// 2//// 3//// 4//// 5//// 6//// 80180
BBXX WCAJ 14124 99545 71402 41396 81725 10045 20010 40080 54000 75152 8872/ 22233 00060 20806 325// 41304 5//// 6//// 80030 ICE /////
AAXX 14121 08541 12/// /3204 10156 20128 30146 40265 52013 60011 333 91006 91106 555 50014 60005
AAXX 14121 40700 12960 50000 10086 20012 30205 40296 56006 60001 80006 333 85267
AAXX 14121 40723 12960 00000 10054 21038 38984 40298 55001 60001 333
AAXX 14121 40726 11650 80000 10000 21060 38727 40308 57014 60001 70522 8452/ 333 84635 88458
AAXX 14121 40727 11958 53604 10020 21028 38546 40297 57020 60001 70521 83051 333 83360 84070
AAXX 14121 40734 12560 30602 10114 20052 30312 40286 58004 60001 82102 333 82830 83068
AAXX 14121 40737 12965 20603 10118 20047 30265 40283 57008 60001 80001 333 82070
AAXX 14121 40741 12560 20000 10075 20046 39960 40308 56006 60001 82100 333 82830
AAXX 14121 40780 12960 42302 10154 21128 38725 40219 56012 60001 80001 333 84070
AAXX 14121 40791 12965 00000 10142 21056 39413 40251 56008 60001 333
AAXX 14121 40792 12970 12903 10098 21092 38768 40253 56007 60001 80001 333
AAXX 14121 40794 12960 40000 10220 20011 30108 40207 56017 60001 80001 333 84070
AAXX 14121 40812 12960 42405 10196 20006 39822 40200 57012 60001 80001 333 84070
AAXX 14121 40829 12962 03502 10155 21087 39652 40238 56009 60001 333
AAXX 14121 40833 12960 03006 10198 20038 30180 40212 57019 60001 91150 333
AAXX 14121 40835 12968 12402 10212 21096 39365 40202 57010 60001 80001 333
AAXX 14121 40845 12960 03407 10178 20120 30195 40200 57013 60001 91147 333
AAXX 14121 40882 12962 02003 10256 20070 30143 40178 56015 60001 333
AAXX 14121 40889 12960 00506 10246 20106 30175 40180 56012 60001 222// 00255 20401 333
AAXX 14121 40890 12960 00606 10250 20047 30162 40170 56012 60001 222// 00246 20302 333
AAXX 14121 40893 12960 02303 10250 20142 30170 40176 56015 60001 222// 00225 20501 333
AAXX 14121 40897 NIL
AAXX 14121 40706 11550 50803 11020 21098 38735 40347 57011 60001 70521 82501 333 82630 83068 VV1800E-SE
AAXX 14121 40718 12565 70000 10104 20088 30319 40289 56018 60001 85260 222// 00106 20101 333 85830 87360
AAXX 14121 40732 10108 20070 30306 40281 55003 60001 82306 333 82922 85270
AAXX 14121 40745 12962 00903 10081 21064 39102 40276 56008 60001 333
AAXX 14121 40754 12960 52002 10092 21051 38882 40251 56007 60001 80006 333 85270
AAXX 14121 40766 11958 60000 10148 21080 38740 40242 57014 60001 70521 80006 333 86269
AAXX 14121 40800 11930 00602 10110 21016 38494 40235 57014 60001 70500 333
AAXX 14121 40811 12960 33002 10198 20004 30175 40202 57019 60001 80001 333 83070
AAXX 14121 40841 12965 00000 10152 21118 38286 40226 57012 60001 333
AAXX 14121 40848 12960 10903 10162 21076 38553 40202 56014 60001 80001 333 81070
AAXX 14121 40856 12965 03505 10135 21107 38673 40233 55006 60001 333
AAXX 14121 40875 12965 01003 10277 21117 30162 40173 56017 60001 333
AAXX 14121 40701 11630 80000 11058 21072 38678 40361 56010 60001 71022 885// 333 88640
AAXX 14121 40704 12970 43304 10000 21074 38677 40311 54000 60001 80001 333 84070
AAXX 14121 40708 12960 60000 10018 21019 38717 40303 57009 60001 80006 333 86268
AAXX 14121 40710 11956 29901 11084 21111 38390 40410 57008 60001 80001 333 82067
AAXX 14121 40713 11618 80000 11002 21068 38742 40317 57007 60001 70522 8342X 333 83635 88459
AAXX 14121 40719 11440 50102 10110 20062 30296 40286 56004 60001 70522 83308 333 81915 82620
AAXX 14121 40731 11957 70000 10084 21028 38790 40269 56012 60001 70522 80005 333 87069
AAXX 14121 40738 12960 33603 10110 20039 30301 40303 54000 60001 80001 333 81070
AAXX 14121 40740 12960 00000 10030 21023 38785 40290 55005 60001 333
AAXX 14121 40747 12960 20000 10100 21054 38675 40252 56020 60001 80001 333 82070
AAXX 14121 40757 12965 21503 10090 21025 38959 40267 55008 60001 80002 333 82070
AAXX 14121 40763 12965 02202 10094 21065 38967 40252 57013 60001 333
AAXX 14121 40782 12962 02703 10148 21091 38912 40254 56018 60001 333
AAXX 14121 40783 12970 62903 10124 21084 38018 40214 56009 60001 80006 333 86269
AAXX 14121 40789 12965 00000 10110 21057 39275 40273 56015 60001 333
AAXX 14121 40798 12960 30000 10138 21123 37998 40236 56011 60001 80001 333 83070
AAXX 14121 40818 12980 20104 10142 21139 38006 40200 56017 60001 80002 333 82070
AAXX 14121 40827 12970 02106 10150 21121 38878 40267 58017 60001 333
AAXX 14121 40836 12970 19901 10172 21071 38225 40201 56013 60001 80001 333 81069
AAXX 14121 40851 12962 02602 10156 21084 38300 40215 56010 60001 333
AAXX 14121 40853 12965 02406 10140 21205 37780 40192 56006 60001 333
AAXX 14121 40854 12960 00602 10150 21077 39000 40215 56011 60001 333
AAXX 14121 40857 11957 03305 10190 20122 30189 40199 57015 60001 70500 222// 00184 20402 333
AAXX 14121 40859 12960 01603 10186 21081 38736 40178 56015 60001 333
AAXX 14121 40878 12962 00404 10162 21138 38876 40232 55007 60001 333
AAXX 14121 40879 12962 01902 10216 21101 39516 40201 56012 60001 333
AAXX 14121 40883 12960 01204 10246 20040 30150 40172 56014 60001 222// 00238 20501 333
AAXX 14121 40898 12960 01702 10254 20048 30160 40169 56014 60001 222// 00247 10800
BBXX 46147 14121 99518 71312 46/// /1005 10062 40159 57015 22200 00081 11206 70028 333 91207
BBXX 46147 14121 99518 71312 46/// /1005 10062 40159 57015 22200 00081 11206 70028 333 91207
AAXX 14121 25703 11997 80103 11234 21274 39939 40228 52002 60020 77172 8802/ 333 11226
AAXX 14121 25745 11596 80610 11071 21092 39956 40007 52008 60020 73883 885// 333 11065 91016 91119
AAXX 14121 25913 32999 50502 11190 21258 39924 40080 58002 80001 333 11160
AAXX 14121 25954 11698 80309 11008 21099 39792 49902 52006 69900 73632 885// 333 11017 91013 91115
AAXX 14121 25956 11598 70511 11009 21021 39877 49883 54000 69950 70232 87500 333 11011 91012 91114
AAXX 14121 31088 32999 30103 11198 21256 30114 40122 53002 82041 333 11145
AAXX 14121 31873 11997 82803 11133 21152 30059 40200 51025 60030 77172 84071 333 11075
AAXX 14121 31909 32998 02906 11039 21101 30031 40110 55001 333 11031 91113
AAXX 14121 31960 12998 03611 11065 21154 39954 40196 52023 69900 333 10019 91017 91117
AAXX 14121 31961 12998 50204 11099 21164 30169 40218 52023 69900 80001 333 10006
AAXX 14121 32053 32997 02403 11221 21254 30099 40152 58010 333 11153 91005 91105
AAXX 14121 32061 11565 41303 11189 21189 30116 40158 57009 69960 78581 84900 333 11131 91004 91104
AAXX 14121 32098 32598 83301 11175 21194 30149 40160 57006 82973 333 11128 91002 91104
AAXX 14121 32150 11596 70103 11085 21100 30094 40125 57013 69940 78582 83901 333 11029 91005 91107
AAXX 14121 32165 12598 81902 10007 21039 30082 40143 58015 69900 885// 333 10009 91003 91106
AAXX 14121 32215 11596 62807 11044 21087 39982 40012 57003 60050 78583 86900 333 11033 91015 91118
AAXX 14121 32252 NIL
AAXX 14121 32389 31998 30000 11277 21289 39902 49942 57019 74000 80001 333 11239
AAXX 14121 32477 32998 20602 11239 21257 39964 49998 53005 80001 333 11131
AAXX 14121 32583 32999 03206 11089 21156 39915 49946 57013 333 11071
AAXX 14121 32618 12598 83210 11065 21115 39848 49869 57024 69900 885// 333 11056 91013 91114
AAXX 14121 31960 12998 03611 11065 21154 39954 40196 52023 69900 333 10019 91017 91117
AAXX 14121 31873 11997 82803 11133 21152 30059 40200 51025 60030 77172 84071 333 11075
AAXX 14121 31961 12998 50204 11099 21164 30169 40218 52023 69900 80001 333 10006
AAXX 14121 31909 32998 02906 11039 21101 30031 40110 55001 333 11031 91113
AAXX 14124 71343 16/// /3113 11007 21063 60001 333 11017 21105 70000
AAXX 14124 71189 46/// /0401 11018 21039 6///1 333 11002 21020 7////
AAXX 14124 71883 46/// /3101 11066 21072 39384 40224 51013 6///1 333 11064 21076 7////
AAXX 14124 71979 16/// ///// 11103 21135 38461 40135 53017 60001 333 11012 21103 4/034 70000
AAXX 14124 71217 16/// /3009 11070 21090 60001 333 11029 21132 70000
AAXX 14124 71224 16/// /3119 11024 21059 60001 333 21072 7////
AAXX 14124 71432 16/// /1602 10037 20018 30175 40273 55005 60001 333 10085 20035 70000
AAXX 14124 71260 13/// ///// 10022 20022 39991 40230 58020 60001 333 10026 20018 70000
AAXX 14124 71832 16/// /1704 11052 21061 39896 40230 56012 60001 333 11049 21057 4/019 70000
AAXX 14124 71276 16/// ///17 11043 21064 60001 333 11020 21057 70000
AAXX 14124 71434 16/// /2704 11044 21062 30056 40123 56004 60001 333 11064 4/009 70000
AAXX 14121 08512 32580 73401 10160 20075 30228 40314 52011 84832 222// 0//// 333 81825 83845 85070
AAXX 14124 62002 32960 01804 10170 20043 39550 48600 58007
AAXX 14124 62007 32960 02306 10179 20089 40243 55007
AAXX 14124 62010 32560 50902 10191 20095 40272 56013 82280 333 82826 84358
AAXX 14124 62012 32560 32912 10198 20121 30240 40270 56007 83200 333 83825
AAXX 14124 62016 32960 62808 10182 20120 40286 57010 85870 333 82820 85625
AAXX 14124 62124 32960 01213 10173 20072 39745 40255 57004
AAXX 14124 62161 32970 03005 10175 20077 40236 58015
AAXX 14124 62259 32970 10903 10179 20062 40250 58007 80009 333 81170
AAXX 14124 62271 32970 20208 10195 20022 40241 58016 80006 333 82270
AAXX 14121 08512 32580 73401 10160 20075 30228 40314 52011 84832 222// 0//// 333 81825 83845 85070 555 59974 60007
AAXX 14124 89002 41495 70927 11058 21076 39717 49771 52002 73633 8265/ 333 00934 11057 21078 92913
AAXX 14124 71260 13/// ///// 10022 20022 39991 40230 58020 60001 333 10026 20018 70000
AAXX 14124 71432 16/// /1602 10037 20018 30175 40273 55005 60001 333 10085 20035 70000
AAXX 14124 71883 46/// /3101 11066 21072 39384 40224 51013 6///1 333 11064 21076 7////
AAXX 14124 71832 16/// /1704 11052 21061 39896 40230 56012 60001 333 11049 21057 4/019 70000
AAXX 14121 56193 NIL
AAXX 14121 56196 31958 72002 10086 20001 40291 52023 71000 8703/ 333 00202
AAXX 14121 56287 32980 80402 10103 20014 40284 52027 8807/ 333 00203
AAXX 14121 56684 32560 80402 10026 21023 37924 52014 885// 333 00456
AAXX 14121 56751 32778 12002 10070 20013 38022 52007 81400 333 00100
AAXX 14121 56786 11560 83205 10052 20029 38125 52017 69901 78080 884// 333 00255
AAXX 14121 56977 32665 30000 10132 20130 40177 52012 83400 333 00151
AAXX 14121 57259 32970 81104 10086 20003 40312 52031 8807/
AAXX 14121 57279 32961 70401 10073 21019 40311 52023 8703/
AAXX 14121 57348 32860 82002 10114 20055 40276 52020 885//
AAXX 14121 57399 32962 83603 10095 21010 40291 52016 8807/
AAXX 14121 57554 11857 80000 10073 20054 40300 52015 69921 76060 885//
AAXX 14121 57793 32962 80402 10112 20025 40276 52022 8807/
AAXX 14121 58345 31956 73601 10077 21008 40294 52019 70500 8704/
AAXX 14121 58506 11766 80206 10028 21046 40295 52010 69911 70076 885//
AAXX 14121 58813 32973 00202 10103 20024 40257 52018
AAXX 14121 58834 32970 72901 10159 20107 40228 52019 8704/
AAXX 14121 58926 32762 72501 10167 20127 40213 52013 875//
AAXX 14121 58944 11560 80206 10157 20137 40223 52013 69901 70060 885//
AAXX 14121 59096 32968 02702 10139 20070 40223 52025
AAXX 14121 59102 32963 00401 10141 20067 40228 52020
AAXX 14121 59278 32962 62901 10182 20079 40201 52016 86040
AAXX 14121 59456 32973 70201 10200 20084 40186 52018 8704/
AAXX 14121 59493 31857 70201 10194 20093 40192 52015 70500 875//
AAXX 14121 59658 32764 80401 10197 20110 40188 52016 885//
AAXX 14121 59673 32562 70402 10189 20102 40191 52015 878//
AAXX 14121 59845 31558 81102 10183 20154 40186 52016 71000 888//
AAXX 14121 50434 32980 02001 11345 21389 39353 40378 52009
AAXX 14121 50527 32970 02503 11290 21319 39476 40376 52002
AAXX 14121 50603 32979 03204 11217 21260 39612 40358 52013
AAXX 14121 50632 32980 42904 11217 21255 39342 40322 52003 80002
AAXX 14121 50727 11570 73203 11206 21237 39053 40374 52005 69921 77070 875//
AAXX 14121 50915 32980 03202 11194 21256 39284 40395 52006
AAXX 14121 51716 NIL
AAXX 14121 51765 NIL
AAXX 14121 51777 NIL
AAXX 14121 51811 NIL
AAXX 14121 51828 32965 23401 11011 21085 38721 40358 52002 80002 333 00153
AAXX 14121 52267 32980 13601 11101 21198 39247 40450 52010 80002 333 00452
AAXX 14121 52323 32980 71102 11092 21148 38310 52007 82042 333 00100
AAXX 14121 52495 32980 63402 11096 21178 38796 40453 52014 80002 333 00300
AAXX 14121 53149 32980 02905 11170 21222 38889 40463 52003 333 00251
AAXX 14121 53192 32980 03601 11253 21277 38981 40479 52001
AAXX 14121 53231 32980 00903 11175 21227 38586 52011 333 00352
AAXX 14121 53336 32980 03203 11138 21220 38827 40452 52008 333 00300
AAXX 14121 53391 32980 02704 11209 21234 38579 40450 52004 333 00454
AAXX 14121 53529 32980 02901 11098 21185 38727 40439 52011 333 00453
AAXX 14121 53543 32980 02902 11116 21228 38628 40434 52009
AAXX 14121 53723 32970 02501 11090 21135 38763 40428 52015 333 00553
AAXX 14121 54012 32980 02705 11205 21254 39094 40402 52007
AAXX 14121 54026 32980 02903 11120 21218 39963 40315 52006
AAXX 14121 54027 32980 03201 11125 21228 39710 40347 52009
AAXX 14121 54208 32980 02907 11197 21231 38834 40430 52003
AAXX 14121 54776 32580 33415 10004 21060 30235 40294 52015 83400 333 91122 91534
AAXX 14121 56004 32680 72502 11124 21345 35812 52008 83902 333 00352
AAXX 14121 56033 32680 20203 11143 21288 36015 52019 81502 333 00254 91118 91527
AAXX 14121 56046 32680 73405 11059 21242 36253 52023 83902 333 00206
BBXX 46145 14121 99544 71324 46/// /1503 10049 40169 57008 22200 00068 11104 70018 333 91204
BBXX 46183 14121 99536 71311 46/// /0904 10043 40168 57013 22200 00081 11201 70006 333 91205
BBXX 46145 14121 99544 71324 46/// /1503 10049 40169 57008 22200 00068 11104 70018 333 91204
BBXX 46183 14121 99536 71311 46/// /0904 10043 40168 57013 22200 00081 11201 70006 333 91205
AAXX 14121 33526 32660 60000 10049 20024 39826 40167 58013 83530
AAXX 14124 89667 46/// /1604 11094 29068 39810 4//// 5////
AAXX 1412/ 89869 46/// ///// 11073 39739 4//// 5////
AAXX 1412/ 89799 46/// ///// 11268 4//// 5////
AAXX 1412/ 89868 46/// ///// 11065 39745 4//// 5////
AAXX 1412/ 89327 46/// ///// 11059 39500 4//// 5////
AAXX 1412/ 89332 46/// ///// 11120 39113 4//// 5////
AAXX 1412/ 89769 46/// ///// 11084 39781 4//// 5////
AAXX 1412/ 89828 46/// ///// 11264 36436 4//// 5////
AAXX 1412/ 89314 46/// ///// 11178 38112 4//// 5////
AAXX 14121 60379 36/// /2504 10191 20129
AAXX 14121 60380 16/// /2904 10187 20098 69921
AAXX 14121 60394 36/// /2302 10202 20106
AAXX 14121 60374 36/// /2305 10187 20113
AAXX 14121 60613 36/// /1510 10184 20013
AAXX 14124 48001 31330 80000 10164 20156 40150 8595/ 333 10175 56459 58003
AAXX 14124 48004 32430 50000 10187 20157 85900 333 10222 56500
AAXX 14124 48008 32540 20000 10193 20151 40151 82400 333 10255 56100 58011
AAXX 14124 48010 32510 30000 10205 20192 40142 82830 333 10255 56990 58009
AAXX 14124 48018 32940 00000 10210 20175 40139 333 10270 58010
AAXX 14124 48019 32450 00000 10200 20150 40142 333 10255 58007
AAXX 14124 48020 32940 00000 10190 20159 333 10240
AAXX 14124 48025 32456 60000 10208 20175 40144 85840 333 10250 56590 58008
AAXX 14124 48035 31510 10000 10187 20118 40119 70500 81200 333 10250 56900 58006
AAXX 14124 48037 32940 00000 10245 20174 40125 333 10290 58007
AAXX 14124 48042 32957 00000 10242 20174 40127 333 10290 58003
AAXX 14124 48045 32557 20000 10152 20134 82100 333 10213 56900
AAXX 14124 48048 32940 00000 10240 20191 40122 333 10290 58004
AAXX 14124 48053 32956 00000 10250 20186 40123 333 10305 58008
AAXX 14124 48057 32919 02201 10176 20108 333 10232
AAXX 14124 48060 32410 10000 10205 20143 40129 81100 333 10274 56500 58007
AAXX 14124 48062 31550 43203 10253 20220 40123 71021 82530 333 10290 56990 58003
AAXX 14124 48071 32956 03202 10245 20186 40138 333 10275 58005
AAXX 14124 48077 32956 00000 10270 20191 40125 333 10324 58020
AAXX 14124 48078 32956 10000 10262 20179 40091 80001 333 10316 56009 59003
AAXX 14124 48080 32956 00000 10240 20174 40124 333 10320 58020
AAXX 14124 48094 32956 00000 10250 20215 40121 333 10308 58010
AAXX 14124 48097 32456 20901 10260 20191 40126 70211 82500 333 10325 56900 58003
AAXX 14124 48108 31597 50000 10270 20218 40119 70522 81265 333 10337 56789 58000
AAXX 14124 48109 32496 70401 10274 20240 40116 84931 333 10320 56599 58000
AAXX 14124 48110 31596 83203 10270 20211 40106 70511 82457 333 10300 56499 58002
AAXX 14124 48112 32597 60403 10272 20211 40101 82245 333 10302 56199 58000
AAXX 14124 48001 31330 80000 10164 20156 40150 8595/ 333 10175 56459 58003
AAXX 14124 48004 32430 50000 10187 20157 85900 333 10222 56500
AAXX 14124 48008 32540 20000 10193 20151 40151 82400 333 10255 56100 58011
AAXX 14124 48010 32510 30000 10205 20192 40142 82830 333 10255 56990 58009
AAXX 14124 48018 32940 00000 10210 20175 40139 333 10270 58010
AAXX 14124 48019 32450 00000 10200 20150 40142 333 10255 58007
AAXX 14124 48020 32940 00000 10190 20159 333 10240
AAXX 14124 48025 32456 60000 10208 20175 40144 85840 333 10250 56590 58008
AAXX 14124 48035 31510 10000 10187 20118 40119 70500 81200 333 10250 56900 58006
AAXX 14124 48037 32940 00000 10245 20174 40125 333 10290 58007
AAXX 14124 48042 32957 00000 10242 20174 40127 333 10290 58003
AAXX 14124 48045 32557 20000 10152 20134 82100 333 10213 56900
AAXX 14124 48048 32940 00000 10240 20191 40122 333 10290 58004
AAXX 14124 48053 32956 00000 10250 20186 40123 333 10305 58008
AAXX 14124 48057 32919 02201 10176 20108 333 10232
AAXX 14124 48060 32410 10000 10205 20143 40129 81100 333 10274 56500 58007
AAXX 14124 48062 31550 43203 10253 20220 40123 71021 82530 333 10290 56990 58003
AAXX 14124 48071 32956 03202 10245 20186 40138 333 10275 58005
AAXX 14124 48077 32956 00000 10270 20191 40125 333 10324 58020
AAXX 14124 48078 32956 10000 10262 20179 40091 80001 333 10316 56009 59003
AAXX 14124 48080 32956 00000 10240 20174 40124 333 10320 58020
AAXX 14124 48094 32956 00000 10250 20215 40121 333 10308 58010
AAXX 14124 48097 32456 20901 10260 20191 40126 70211 82500 333 10325 56900 58003
AAXX 14124 48108 31597 50000 10270 20218 40119 70522 81265 333 10337 56789 58000
AAXX 14124 48109 32496 70401 10274 20240 40116 84931 333 10320 56599 58000
AAXX 14124 48110 31596 83203 10270 20211 40106 70511 82457 333 10300 56499 58002
AAXX 14124 48112 32597 60403 10272 20211 40101 82245 333 10302 56199 58000
AAXX 14124 71801 11574 70216 11055 21104 30059 40237 56007 69901 72272 87530 333 10007 21059 46001 70016 90973
AAXX 14124 71801 11574 70216 11055 21104 30059 40237 56007 69901 72272 87530 333 10007 21059 46001 70016 90973
BBXX 46131 14121 99499 71250 46/// /1104 1//// 40207 57003 22200 00071 10200 70001 333 91206
AAXX 14121 21931 32998 21802 11319 21357 30189 40224 57018 82030 333 11296
AAXX 14124 84202 31670 80000 10224 20189 30152 70542 8551/ 333 10302 20224 59008 555 30080
AAXX 14124 84135 32575 80000 10225 20193 30066 886// 333 10317 20214 59005 555 30082
AAXX 14124 84204 31665 80000 10234 20187 70544 8451/ 333 10327 20230 555 30075
AAXX 14124 84008 32456 71408 10223 20200 30120 40130 82630 00181 333 10277 20223 59002 555 30087 40177
AAXX 14124 84076 11201 80000 10113 20108 60064 75152 8372/ 333 10206 20110 30119 555 10062 30097
AAXX 14124 84270 11/20 90000 10134 20120 60234 74646 89/// 333 10230 20130 555 10231 30091
AAXX 14124 84088 11110 80000 10080 20077 37066 60074 75052 887// 333 10168 20080 30084 59005 555 10074 30098
AAXX 14124 84050 11360 83602 10213 20209 69934 75156 887// 333 10267 20213 555 10003 30097
AAXX 14124 84179 11410 80000 10194 20189 39061 60114 76362 8372/ 333 10272 20192 58005 555 10105 30097
AAXX 14124 84140 11330 80000 10221 20217 30031 40116 60014 71055 886// 333 10298 20219 59005 555 10012 30097
AAXX 14124 84036 11568 80402 10100 20097 60234 74022 8801/ 333 10181 20074 555 10229 30098
AAXX 14124 84072 11258 80000 10104 20096 37301 60244 75066 8672/ 333 10182 20100 59001 555 10243 30095
AAXX 14124 84143 11465 80000 10102 20097 37406 60074 72162 8377/ 333 10183 20098 30080 58001 555 10065 30097
AAXX 14124 84160 11320 80000 10097 20094 37266 60084 75156 887// 333 10192 20094 59001 555 10082 30098
AAXX 14124 84105 32458 80000 10219 20208 31001 8651/ 333 10270 20219 59001 555 30094
AAXX 14124 84132 11265 80000 10230 20226 39880 60044 76166 8687/ 333 10316 20228 58002 555 10043 30097
AAXX 14124 84056 11/00 90000 10090 20090 60074 74744 89/// 333 10200 20090 555 10071 30100
AAXX 14124 84226 11670 80000 10082 20082 60024 71542 887// 333 10140 20080 555 10019 30100
AAXX 14124 84001 11565 61507 10217 20193 30105 40125 60024 70544 83530 333 20216 59001 555 10020
AAXX 14124 84010 31565 61310 10220 20207 70542 82530 333 20220
AAXX 14124 84018 31560 72004 10218 20208 30109 40116 70544 83570 333 20206 59009
AAXX 14124 84027 11210 80000 10096 20093 37172 47142 60124 74064 8552/ 333 20092 59003 555 10120
AAXX 14124 84063 12565 80000 10218 20215 39754 40091 60404 8352/ 333 20215 58003 555 10400
AAXX 14124 84069 11240 80000 10200 20193 69944 76064 8651/ 333 20194 555 10004
AAXX 14124 84071 11420 80000 10103 20097 37286 47135 60164 76164 8752/ 333 20099 59002 555 10160
AAXX 14124 84099 11460 83204 10222 20210 3//// 40105 60504 71666 8552/ 333 20218 5//// 555 10500
AAXX 14124 84117 31560 61903 10235 20197 30101 40124 70544 86500 333 20229 59005
AAXX 14124 84123 12570 80000 10096 20091 37311 47145 60064 8457/ 333 20088 58014 555 10060
AAXX 14124 84147 11158 80000 10113 20108 60064 76166 8452/ 333 20111 555 10060
AAXX 14124 84163 11010 83102 10183 20179 38945 48490 60084 76362 8452/ 333 20182 58003 555 10080
AAXX 14124 84176 11358 80802 10112 20109 60054 71622 8452/ 333 20110 555 10050
AAXX 14124 84200 31860 72207 10213 20183 70544 87030 333 20210
AAXX 14124 84203 31660 71904 10237 20165 30103 40108 70544 82530 333 20227 59008
AAXX 14124 84217 11560 80402 10193 20186 60024 76065 8457/ 333 20188 555 10020
AAXX 14124 84239 11140 80601 10126 20126 37541 47176 60054 76044 85531 333 20123 59005 555 10050
AAXX 14124 84252 31462 80705 10235 20216 30110 40118 71544 8385/ 333 20234 59005
AAXX 14124 84265 12460 60000 10178 20163 38769 60044 84530 333 20174 59006 555 10040
AAXX 14121 28722 41996 32301 11186 21203 30215 40359 52007 71071 83070
BBXX 46131 14121 99499 71250 46/// /1104 1//// 40207 57003 22200 00071 10200 70001 333 91206
AAXX 14121 51716 32963 01401 11027 21076 39012 40381 52004 333 00151
AAXX 14121 51765 32980 00000 11061 21109 39332 40405 52004 333 00152
AAXX 14121 51777 32975 00401 11038 21111 39287 40397 52004 333 00100
AAXX 14121 51811 32962 00000 11027 21088 38884 40379 52001 333 00253
AAXX 14121 51076 32980 13602 11118 21163 39444 40399 57001 80002 333 05203
AAXX 14121 51243 32965 03201 11111 21131 39791 40391 52003 333 05201
AAXX 14121 51463 31956 30901 11084 21111 39211 40380 52006 71000 80002 333 05254
AAXX 14121 51573 32980 72901 11028 21108 30338 40384 52002 80002 333 00000
AAXX 14121 51709 32965 42201 11041 21077 38823 40379 52002 80002 333 00355
AAXX 14121 51431 31/04 90000 11053 21064 39491 40328 54000 74940 333 05753
AAXX 14121 51747 32970 00000 11073 21152 39036 40426 52004 333 00152
AAXX 14121 51087 32980 40000 11141 21171 39366 40426 52002 80002 333 05202
AAXX 14121 51156 32780 40000 11052 21095 38799 40367 52003 82502 333 05153
AAXX 14121 51644 32960 10000 11041 21082 39054 40389 52002 80002 333 00153
AAXX 14121 51656 32770 21801 11032 21088 39233 40396 52004 81502 333 00100
AAXX 14121 52203 32980 20401 11059 21112 39455 40388 52007 80002 333 00001
AAXX 14121 58752 31958 32901 10144 20094 30208 40254 52023 70500 83030
AAXX 14121 51379 32980 11603 11106 21143 40385 52001 80002 333 05351
AAXX 14121 51467 32980 01803 11042 21133 38322 52010 333 00051
AAXX 14121 51495 32980 10401 11044 21138 40393 52007 80002 333 00001
BBXX 42362 14121 99278 70907 46/// /1111 10228 20172 40227 57004 91200
BBXX 42362 14121 99278 70907 46/// /1111 10228 20172 40227 91215
BBXX 42363 14121 99282 70892 46/// /1107 10217 20156 40241 91215 333 91211
BBXX 42364 14121 99291 70881 46/// /1309 10206 20161 40247 91215
AAXX 14124 67002 32580 52804 10304 20245 30083 40117 82802 333 58003 82820 84073 92408
AAXX 14124 67009 32582 73210 10294 20243 39977 40095 56012 872// 333 0//00 87820 555 10322
AAXX 14124 67012 NIL
AAXX 14124 67025 NIL
AAXX 14124 67027 32582 22416 10319 20265 30064 40085 57016 82933 333 0//00 82820 81920 94965 95835 555 81360 82073
AAXX 14124 67045 NIL
AAXX 14124 67072 32582 21606 10298 20237 30107 40110 57013 82202 333 0//00 82820 92428 555 81073
AAXX 14124 67073 31580 2//// 10320 20247 30068 40094 57015 71500 81903 333 0//00 81920 81820 94961/3 95833 555 81633 81073
AAXX 14124 67083 32581 70000 10295 20186 38726 48503 57016 84932 333 0//00 84820 81920 94967 95837
AAXX 14124 67095 32481 21410 10313 20230 30096 40102 57011 82802 333 0//00 81817
AAXX 14124 67113 NIL
AAXX 14124 67117 NIL
AAXX 14124 67137 31565 6//04 10282 20206 38875 48483 57016 71711 86903 333 0//00 81920 86820 94992 95832 555 10302 81073
AAXX 14124 67143 32582 1//// 10/// 20/// 30110 40117 57010 81230 333 0//00 81820 92438 555 81360
AAXX 14124 67152 32582 4//// 10342 20188 39179 48501 57014 84300 333 0//00 84820 81920 94991 95871
AAXX 14124 67157 32582 1//// 10/// 20/// 30120 40127 57011 81200 333 0//00 81823
AAXX 14124 67161 32582 1//08 10300 20243 30090 40099 56005 81202 333 0//00 81823 555 81073
AAXX 14124 67197 32582 20818 10306 20233 30097 40107 57010 82800 333 0//00 82820 555 81633
BBXX 46204 14121 99514 71288 46/// /0609 10058 40154 57019 22200 00081 11403 70017 333 91211
BBXX 46204 14121 99514 71288 46/// /0609 10058 40154 57019 22200 00081 11403 70017 333 91211
AAXX 14121 40703 12660 80102 11006 21062 39010 40329 57010 60001 8452/ 333 84640 88459
AAXX 14121 40712 11625 60504 10004 21061 38762 40326 56007 60001 70522 83506 333 83635 86268
AAXX 14121 40729 12960 42504 10024 21043 38390 40289 53009 60001 80005 333 84269
AAXX 14121 40736 12960 40803 10120 20049 30306 40280 57009 60001 80002 333 84070
AAXX 14121 40739 NIL
AAXX 14121 40743 12965 12203 10094 21068 39130 40272 56005 60001 80001 333 81070
AAXX 14121 40762 12965 01502 10086 21084 38597 40260 56006 60001 333
AAXX 14121 40768 12960 40000 10086 21044 38301 40270 55006 60001 80001 333 84070
AAXX 14121 40769 NIL
AAXX 14121 40785 12960 00000 10114 21031 39148 40267 56009 60001 333
AAXX 14121 40809 12965 02905 10122 21143 38541 40252 55005 60001 333
AAXX 14121 40821 12960 00000 10128 21032 38840 40255 56013 60001 333
AAXX 14121 40831 12960 43202 10192 21034 30208 40216 57017 60001 80008 333 84270
AAXX 14121 40703 12660 80102 11006 21062 39010 40329 57010 60001 8452/ 333 84640 88459
AAXX 14121 40712 11625 60504 10004 21061 38762 40326 56007 60001 70522 83506 333 83635 86268
AAXX 14121 40729 12960 42504 10024 21043 38390 40289 53009 60001 80005 333 84269
AAXX 14121 40736 12960 40803 10120 20049 30306 40280 57009 60001 80002 333 84070
AAXX 14121 40739 NIL
AAXX 14121 40743 12965 12203 10094 21068 39130 40272 56005 60001 80001 333 81070
AAXX 14121 40762 12965 01502 10086 21084 38597 40260 56006 60001 333
AAXX 14121 40768 12960 40000 10086 21044 38301 40270 55006 60001 80001 333 84070
AAXX 14121 40769 NIL
AAXX 14121 40785 12960 00000 10114 21031 39148 40267 56009 60001 333
AAXX 14121 40809 12965 02905 10122 21143 38541 40252 55005 60001 333
AAXX 14121 40821 12960 00000 10128 21032 38840 40255 56013 60001 333
AAXX 14121 40831 12960 43202 10192 21034 30208 40216 57017 60001 80008 333 84270
AAXX 14121 78458 32466 40000 10224 20221 40152 52006 83206 333 10289 20216 31/// 56000 59003 70058 83818
AAXX 14121 78460 31458 40000 10197 20181 40142 51007 70544 82201 333 10311 20180 30/// 56000 58000 82816 83080
AAXX 14121 78467 32466 2000 10220 20206 40138 5//// 82200 333 10293 20190 30/// 56000 59001 82815
AAXX 14121 78479 32466 60203 10237 20216 40108 52002 83204 333 10290 20215 30/// 56800 59004 83818 86080
AAXX 14121 78482 32466 52702 10212 20197 40150 5//// 81101 333 10332 20197 30/// 56000 58000 81816 85080
AAXX 14121 78485 32466 53604 10215 20196 40134 52010 82231 333 10315 20200 30/// 56000 59006 82818 84080
AAXX 14121 78486 32466 53604 10230 20204 40131 52018 82201 333 10317 20225 30/// 50/// 56000 58010 82818 85080
AAXX 14121 78488 32466 53603 10202 20199 40133 5//// 81206 333 10310 20175 30/// 56000 59003 81814 85278
AAXX 14121 35394 41996 83603 11091 21107 39584 40287 53001 77172 8802/ 555 1/108
AAXX 14121 35497 419// 81603 11062 21088 39456 40274 53003 70272 8802/ 555 1/107
AAXX 14121 35671 41998 80000 11120 21144 39861 40314 53011 70272 8807/ 555 1/113
AAXX 14121 35925 41996 83201 11030 21036 30227 40342 53002 71022 8802/ 555 1/102
AAXX 14121 38001 42997 60202 10032 21009 30350 40320 57002 86030 555 11002
AAXX 14121 38232 42698 80702 11004 21013 30235 40337 57001 885// 555 1/000
BBXX ZDLP 14123 99637 50614 41297 82720 10010 20007 49959 52045 78584 887// 22213 04010 20503 33000 41006 5//// 80009
BBXX C6FS9 14124 99229 31597 46/// /1421 10242 20204 30089 40125 52020 22263 04265 85215
BBXX 9HA2479 14124 99219 31679 46/// /0213 10265 20246 30069 40098 57001 22215 04271 85251
BBXX VROB 14124 99068 31470 46/// /3304 10262 20216 30069 40094 52021 22200 04285 85230
BBXX FHZI 14124 99428 31473 46/// /0305 10142 20105 30188 40199 52014 22200 04171 85121
BBXX VNVD 14123 99333 31375 41/98 31510 10215 20157 40160 53/// 70300 8//// 22293 20000 80180
BBXX SHIP 14124 99063 31054 41/97 72010 10274 20254 40049 70222 222// 0//// 20300 3//// 4//// 5////
BBXX 3ECI3 14124 99450 31722 41297 83530 10150 20113 40080 57003 70322 8/7// 22222 00130 21006 303// 40805 80130
AAXX 14124 83064 21598 80000 10244 20234 39831 40099 70365 885// 333 2//// 59005 60064
AAXX 14124 83235 21697 83602 10213 20192 39431 40098 76165 885// 333 20211 59013 60124
AAXX 14124 83332 32697 83204 10244 20207 39187 40082 887// 333 20208 59003
AAXX 14124 83423 22498 83202 10229 20208 39282 40095 887// 333 20203 59002 60104
AAXX 14124 83470 22698 82704 10224 20203 39230 40077 885// 333 20200 59004 60024
AAXX 14124 82240 32096 00000 10299 20246 3//// 4//// 333 20263 5////
AAXX 14124 82317 21893 11802 10262 20241 3//// 4//// 70380 81040 333 20213 5//// 60024
AAXX 14124 82610 22695 60000 10237 20233 3//// 4//// 83044 333 20196 5//// 60164
AAXX 14124 82807 22295 80000 10230 20230 3//// 4//// 8672/ 333 20226 5//// 60044
BBXX C6FS9 14124 99229 31597 46/// /1421 10242 20204 30089 40125 52020 22263 04265 85215
BBXX 9HA2479 14124 99219 31679 46/// /0213 10265 20246 30069 40098 57001 22215 04271 85251
BBXX VROB 14124 99068 31470 46/// /3304 10262 20216 30069 40094 52021 22200 04285 85230
BBXX FHZI 14124 99428 31473 46/// /0305 10142 20105 30188 40199 52014 22200 04171 85121
BBXX VNVD 14123 99333 31375 41/98 31510 10215 20157 40160 53/// 70300 8//// 22293 20000 80180
BBXX SHIP 14124 99063 31054 41/97 72010 10274 20254 40049 70222 222// 0//// 20300 3//// 4//// 5////
BBXX 3ECI3 14124 99450 31722 41297 83530 10150 20113 40080 57003 70322 8/7// 22222 00130 21006 303// 40805 80130
AAXX 14124 91650 11599 31205 10266 2025/ 40102 58005 60001 70200 82102 333 10306 569// 81830 83080
AAXX 14124 91652 NIL
AAXX 14124 91656 NIL
AAXX 14124 91659 NIL
AAXX 14124 91660 NIL
AAXX 14124 91669 NIL
AAXX 14124 91670 36/// /0500 10252 20223 40106
AAXX 14124 91676 14/// /0002 10256 20226 30039 40099 55005 60001 333 10304
AAXX 14124 91680 11698 10000 10224 20223 40107 69911 70180 81100 333 10302 569// 81830
AAXX 14124 91682 NIL
AAXX 14124 91683 11598 20000 10232 20225 40107 58003 60001 70200 82801 333 10311 569/9 81820
AAXX 14124 91691 14/// /0401 10234 20231 30107 40110 55005 60001 333 10304
AAXX 14124 91693 11599 20000 10232 2023/ 40102 58004 60001 70200 82100 333 10310 569// 82825
AAXX 14124 91697 14/// /1001 10234 20221 30103 40108 55004 60001 333 10309
AAXX 14124 91699 14/// /2100 10250 20216 30082 40114 55005 60001 333 10328
AAXX 14124 82106 21197 81404 10243 20233 3//// 4//// 70362 887// 333 20239 5//// 60034
AAXX 14124 82113 32595 70504 10260 20242 3//// 4//// 86402 333 20239 5////
AAXX 14124 82212 21697 50000 10293 20233 30043 40125 70362 83034 333 20228 58003 60014
AAXX 14124 82336 32898 50000 10268 20248 3//// 4//// 84011 333 20261 5////
AAXX 14124 82410 32596 80502 10251 20241 3//// 4//// 8583/ 333 20233 5////
AAXX 14124 82425 32597 40902 10270 20237 3//// 4//// 82340 333 20226 5////
AAXX 14124 82533 32297 61402 10260 20250 3//// 4//// 86650 333 20240 5////
AAXX 14124 82704 21695 80000 10235 20226 39868 40060 70362 885// 333 20227 59006 60034
AAXX 14124 82723 21196 81802 10243 20237 30042 40124 75566 8672/ 333 20236 58002 60074
AAXX 14121 21802 32996 82607 11137 21150 30138 40163 57016 77171 85037 333 11135
AAXX 14121 24125 11998 80000 11252 21264 39960 40265 57008 69902 80005 333 11251
AAXX 14121 24136 NIL
AAXX 14121 24143 32999 32302 11313 21342 30204 40259 57014 80005 333 11313
AAXX 14121 24266 32998 00000 11490 21516 30146 40360 57009 333 11478
AAXX 14121 24329 NIL
AAXX 14121 24343 32998 41801 11337 21359 30161 40295 57007 80002 333 11318
AAXX 14121 24382 11994 50000 11402 21427 30044 40336 58006 69900 77671 80001 333 11336
AAXX 14121 24639 32999 82403 11317 21347 30188 40362 58007 80007 333 11317
AAXX 14121 24641 32999 02402 11341 21371 30178 40341 52003 333 11327
AAXX 14121 24652 31996 00000 11414 21443 30174 40318 58001 71000 333 11373
AAXX 14121 24656 32999 00000 11423 21455 30203 40322 52003 333 11397
AAXX 14121 24671 32999 03501 11350 21374 39722 40297 58003 333 11303
AAXX 14121 24688 31999 10000 11471 21501 39287 40378 52001 77600 80001 333 11428
AAXX 14121 24724 11997 82306 11292 21315 39788 40381 58017 69902 77173 333 11279
AAXX 14121 24738 12998 21702 11321 21337 30189 40390 58006 69902 80001 333 11295
AAXX 14121 24768 31996 00000 11436 21471 30052 40329 52004 71000 333 11422
AAXX 14121 24923 11698 52205 11286 21316 30098 40444 58004 69922 77173 85500 333 11284 85633
AAXX 14121 24944 11997 82602 11314 21336 30068 40398 52007 69902 77172 84037 333 11270
AAXX 14121 24951 32999 62803 11297 21328 30166 40354 52006 80002 333 11290
AAXX 14121 24661 31999 00000 11321 21474 30005 40320 57001 74000 333 11367
AAXX 14121 24959 32999 32701 11346 21374 30169 40317 52001 80001 333 11330
AAXX 14121 24962 31996 00000 11439 21461 30115 40337 52002 71000 333 11408
AAXX 14121 24966 31995 00000 11434 21456 30070 40327 52003 71000 333 11417
AAXX 14121 24967 42999 60000 11414 21449 30105 40363 52005 80001 333 11384
AAXX 14121 25206 11798 82903 11264 21295 30228 40258 58001 60010 77177 8802/ 333 11256
AAXX 14121 25400 11497 83503 11256 21281 30211 40272 54000 69930 77173 8572/ 333 11244 85718
AAXX 14121 30054 11998 50000 11358 21386 30217 40499 52001 69922 70272 80001 333 11317
AAXX 14121 30089 11998 82101 11270 21288 30149 40399 52007 69922 77171 82017 333 11243
AAXX 14121 30393 11999 83503 11299 21323 39203 40370 52003 69972 72272 82037 333 11269 47///
AAXX 14121 30493 11998 83604 11277 21215 39175 40331 53001 69932 77173 80007 333 11250
AAXX 14121 31004 11997 82101 11303 21321 39439 40377 52004 69902 77172 80007 333 11271
AAXX 14121 31137 11998 80000 11375 21399 39162 40349 52005 69902 77172 80005 333 11263
BBXX 41029 14121 99328 70796 46/// /0303 1//// 91200 555 11044 22051
BBXX 44032 14121 99437 70694 46/30 /0408 10043 40279 51019 91204 22200 00089 10402 70009 333 91209 555 11100 22104
BBXX 44033 14121 99441 70690 46/30 /0307 10035 40287 53017 91204 22200 00082 10301 70005 333 91208 555 11083 22086
BBXX 44034 14121 99441 70681 46/28 /0109 10029 40280 51020 91204 22200 00089 10503 70013 333 91210 555 11104 22109
BBXX 44024 14121 99423 70659 46/30 /0209 10051 40234 52013 91204 22200 00093 10604 70018 333 91211 555 11106 22111
BBXX 44039 14121 99411 70727 46/// /3405 10054 20007 40301 91200 22200 00101 10301 70003 333 91207
BBXX 44060 14121 99413 70721 46/// ///06 10037 40287 91215 22200 00108 333 91207 555 11062 22062
BBXX 44022 14121 99409 70737 46/// ///00 10048 20000 40299 91215 22200 00086 333 91202
BBXX 44029 14121 99425 70706 46/30 /0207 10054 40279 53019 91204 22200 00089 10502 70010 333 91209 555 11088 22093
BBXX 44030 14121 99432 70704 46/// /0306 1//// 40286 53017 91204 22200 00091 10502 70012 333 91208 555 11079 22084
BBXX 44040 14121 99410 70736 46/// /3002 10050 20004 40302 91215 22200 1//00 70000 333 91203 555 11015 22021
AAXX 14121 34691 41993 80902 11062 21074 30363 40350 52001 74442 8802/ 555 1/103
AAXX 14121 35394 41996 83603 11091 21107 39584 40287 53001 77172 8802/ 555 1/108
AAXX 14121 35497 419// 81603 11062 21088 39456 40274 53003 70272 8802/ 555 1/107
AAXX 14121 35671 41998 80000 11120 21144 39861 40314 53011 70272 8807/ 555 1/113
AAXX 14121 35700 41494 80502 11065 21077 30378 40353 53004 71042 886// 555 1/105
AAXX 14121 35925 41996 83201 11030 21036 30227 40342 53002 71022 8802/ 555 1/102
AAXX 14121 38001 42997 60202 10032 21009 30350 40320 57002 86030 555 11002
AAXX 14121 38232 42698 80702 11004 21013 30235 40337 57001 885// 555 1/000
BBXX 46088 14121 99483 71232 46/// /1302 10056 40204 91220 22200 00079 1//00 70002 333 91203 555 11021 22021 31207 41303 61219 127020 131020 131021 137017 128015 116006
BBXX 46087 14121 99485 71247 46/// /1202 10057 20050 40200 91220 22200 00076 333 91203 555 11021 22021 31158 41104 61219 124020 127024 117027 126020 148021 148016
AAXX 14121 35394 41996 83603 11091 21107 39584 40287 53001 77172 8802/ 555 1/108
AAXX 14121 35497 419// 81603 11062 21088 39456 40274 53003 70272 8802/ 555 1/107
AAXX 14121 35671 41998 80000 11120 21144 39861 40314 53011 70272 8807/ 555 1/113
AAXX 14121 35925 41996 83201 11030 21036 30227 40342 53002 71022 8802/ 555 1/102
AAXX 14121 38001 42997 60202 10032 21009 30350 40320 57002 86030 555 11002
AAXX 14121 38232 42698 80702 11004 21013 30235 40337 57001 885// 555 1/000
AAXX 14124 67755 NIL
AAXX 14124 67771 42780 63004 10294 20171 3//// 48/// 83233 333 5//// 81945 83850 85080
AAXX 14124 67773 41680 70504 10270 20213 3//// 48/// 70262 8327/ 333 5//// 83835 87360
AAXX 14124 67774 NIL
AAXX 14124 67785 NIL
AAXX 14124 67789 NIL
AAXX 14124 67855 NIL
AAXX 14124 67857 NIL
AAXX 14124 67863 42680 70000 10270 20198 3//// 48/// 71170 333 5//// 81830 86460
AAXX 14124 67871 NIL
AAXX 14124 67875 NIL
AAXX 14124 67891 NIL
AAXX 14124 67895 NIL
AAXX 14124 67897 NIL
AAXX 14124 67899 41983 60102 10247 20158 3//// 48/// 70262 80006 333 5//// 86280
AAXX 14124 67951 41675 73606 10204 20184 3//// 48/// 79598 83273 333 5//// 81920 83830 87460
AAXX 14124 67963 NIL
AAXX 14124 67967 NIL
AAXX 14124 67971 42780 63004 10282 20218 3//// 48/// 81232 333 5//// 81850 86080
AAXX 14124 67976 NIL
AAXX 14124 67979 41980 70801 10259 20204 3//// 48/// 70262 87073 333 5//// 88458
AAXX 14123 67765 41680 72603 10270 20182 38633 48478 71798 82963 333 82938 86843
AAXX 14123 67775 41580 70308 10255 20144 38483 48486 70262 81973 333 81920 87459
AAXX 14123 67779 42680 73602 10280 20195 39019 48481 81102 333 81839 87080
AAXX 14123 67861 42680 70101 10256 20188 38701 48483 83172 333 83840 85359
AAXX 14123 67867 42980 30206 10254 20167 38507 48475 81072 333 81359 83080
AAXX 14123 67965 41580 70510 10257 20177 38663 48491 71798 83233 333 81925 83830 85080
AAXX 14123 67977 41980 83106 10247 20221 39626 48493 70262 8807/ 333 88460
AAXX 14123 67983 41880 70102 10232 20184 38859 48489 70296 81232 333 81857 87360
AAXX 14124 67765 41680 72603 10270 20182 38633 48478 71798 82963 333 58005 82938 86843
AAXX 14124 67775 41580 70308 10255 20144 38483 48486 70262 81973 333 58005 81920 87459
AAXX 14124 67779 42680 73602 10280 20195 39019 48481 81102 333 58006 81839 87080
AAXX 14124 67853 NIL
AAXX 14124 67861 42680 70101 10256 20188 38701 48483 83172 333 58011 83840 85359
AAXX 14124 67867 42980 30206 10254 20167 38507 48475 81072 333 58004 81359 83080
AAXX 14124 67881 NIL
AAXX 14124 67965 41680 70510 10257 20177 38663 48491 71798 83233 333 58013 81925 83830 85080
AAXX 14124 67975 NIL
AAXX 14124 67977 41980 83106 10247 20221 39626 48493 70262 8807/ 333 58016 88460
AAXX 14124 67983 41880 70102 10232 20184 38859 48489 70296 81232 333 58003 81857 87360
AAXX 14124 67991 NIL
AAXX 14121 30157 11997 81601 11305 21330 30182 40508 52018 69902 77172 80007 333 11295
BBXX VRHO2 14124 99500 11653 41897 43124 10000 21028 49950 54000 72854 8327/ 2225/ 00050 20505 33232 40805 51206 65/// 81010 ICE /////
BBXX ONGI 14124 99094 50268 41798 61113 10280 20239 40120 57020 7//21 851// 22273 00270 20504 311// 40301 5//// 6//// 80250 ICE /////
BBXX LAVW4 14124 99367 70164 41699 63416 00/// 10170 2016/ 40290 52010 70101 86501 22253 00175 21003 334// 41007
BBXX MYNJ6 14123 99125 70686 41/96 /0515 10250 20222 40110 54000 78166 8//// 22263 0//// 21202 307// 4//// 5//// 6//// 80230 ICE /////
AAXX 14121 34691 41993 80902 11062 21074 30363 40350 52001 74442 8802/ 555 1/103
AAXX 14121 35394 41996 83603 11091 21107 39584 40287 53001 77172 8802/ 555 1/108
AAXX 14121 35497 419// 81603 11062 21088 39456 40274 53003 70272 8802/ 555 1/107
AAXX 14121 35671 41998 80000 11120 21144 39861 40314 53011 70272 8807/ 555 1/113
AAXX 14121 35700 41494 80502 11065 21077 30378 40353 53004 71042 886// 555 1/105
AAXX 14121 35925 41996 83201 11030 21036 30227 40342 53002 71022 8802/ 555 1/102
AAXX 14121 38001 42997 60202 10032 21009 30350 40320 57002 86030 555 11002
AAXX 14121 38232 42698 80702 11004 21013 30235 40337 57001 885// 555 1/000
AAXX 14121 78458 32466 40000 10224 20221 40152 52006 83206 333 10289 20216 31/// 56000 59003 70058 83818
AAXX 14121 78460 31458 40000 10197 20181 40142 51007 70544 82201 333 10311 20180 30/// 56000 58000 82816 83080
AAXX 14121 78467 32466 2000 10220 20206 40138 5//// 82200 333 10293 20190 30/// 56000 59001 82815
AAXX 14121 78479 32466 60203 10237 20216 40108 52002 83204 333 10290 20215 30/// 56800 59004 83818 86080
AAXX 14121 78482 32466 52702 10212 20197 40150 5//// 81101 333 10332 20197 30/// 56000 58000 81816 85080
AAXX 14121 78485 32466 53604 10215 20196 40134 52010 82231 333 10315 20200 30/// 56000 59006 82818 84080
AAXX 14121 78486 32466 53604 10230 20204 40131 52018 82201 333 10317 20225 30/// 50/// 56000 58010 82818 85080
AAXX 14121 78488 32466 53603 10202 20199 40133 5//// 81206 333 10310 20175 30/// 56000 59003 81814 85278
AAXX 14124 60593 36/// /0000 10154
AAXX 14124 60376 16/// /2304 10194 20116 69921
AAXX 14121 78458 32466 40000 10224 20221 40152 52006 83206 333 10289 20216 31/// 56000 59003 70058 83818
AAXX 14121 78460 31458 40000 10197 20181 40142 51007 70544 82201 333 10311 20180 30/// 56000 58000 82816 83080
AAXX 14121 78467 32466 2000 10220 20206 40138 5//// 82200 333 10293 20190 30/// 56000 59001 82815
AAXX 14121 78479 32466 60203 10237 20216 40108 52002 83204 333 10290 20215 30/// 56800 59004 83818 86080
AAXX 14121 78482 32466 52702 10212 20197 40150 5//// 81101 333 10332 20197 30/// 56000 58000 81816 85080
AAXX 14121 78485 32466 53604 10215 20196 40134 52010 82231 333 10315 20200 30/// 56000 59006 82818 84080
AAXX 14121 78486 32466 53604 10230 20204 40131 52018 82201 333 10317 20225 30/// 50/// 56000 58010 82818 85080
AAXX 14121 78488 32466 53603 10202 20199 40133 5//// 81206 333 10310 20175 30/// 56000 59003 81814 85278
BBXX WAHP 14124 99219 10378 41998 03603 10270 2017/ 40190 57004 70200 80000 22275 00265 20301 334// 40401 5//// 6//// 80204 ICE /////
BBXX PHOB 14123 99123 10437 41/97 31619 10270 20243 40120 55004 70200 8/124 22234 00260 20603 312// 40402 5//// 80250
BBXX DCHO 14124 99216 70196 41297 80519 10215 20161 40210 58010 70322 8/7// 22254 00210 20604 304// 40405 80180
BBXX ONGI 14124 99094 50268 41798 61113 10280 20239 40120 57020 7//21 851// 22273 00270 20504 311// 40301 5//// 6//// 80250 ICE /////
BBXX V7DG6 14124 99142 70180 41/96 80520 10250 20229 40150 57010 710// 22244 04225 20905 80235
BBXX A8YJ9 14124 99233 70235 414// 70626 10225 20188 40225 57005 70200 8711/ 22243 04210 2//06 80200
BBXX ELWO6 14123 99000 70095 41397 71408 40120 54000 70322 87677 22274 21001 314// 41202
BBXX PDHO 14123 99253 10362 41997 03315 10257 20185 40050 56022 70000 80000 22235 00251 20503 80208
BBXX A8EY5 14124 99007 70284 41698 21318 10280 20193 40110 70300 821/2 22255 00265 20703 310// 41002 5//// 80220
BBXX DFVY2 14124 99191 50386 41/98 70116 10256 20225 40139 51010 70182 22253 00250 1//03 70015 80234
BBXX A8QJ7 14124 99157 50358 41/98 /0409 10280 20266 40136 50007 70100 8/13/ 22213 06280 2//// 3//// 4//// 5//// 80270
BBXX 2BLY5 14123 99155 50358 41598 40513 10280 20205 40136 50006 7//11 8/261 22253 00270 20302 80230
BBXX SHIP 14124 99207 11319 41698 30616 10250 20222 40152 50005 70200 83100 22243 00260 2//// 3//// 4//// 80230
BBXX SHIP 14124 99255 11245 41498 51118 10215 20185 40194 53008 70222 845// 22254 00250 2//// 3//// 4//// 80195
BBXX SHIP 14123 99111 11414 41/98 80726 10280 20280 40089 51017 70322 82778 22274 00296 20506 80280
BBXX 7JJA 14124 99248 11286 41597 80624 00 10220 20175 40185 57 70222 87850 9//// 22213 00190 20307 306 40308 5 6//// 80190 IC E/////
BBXX SHIP 14124 99301 11328 41497 53313 10180 20112 40189 50004 70122 82/// 22213 00238 80140
BBXX JGQH 14124 99237 11315 41/97 70619 10223 20204 40180 52007 70282 872// 22262 00239 1//// 20604 399// 4//03
BBXX JPBN 14124 99334 11415 41/98 72812 10189 20107 40161 55002 70211 83231 22273 00207 1//04 20301 399// 4//03 70022
BBXX SLKQ 14121 99062 10901 43/97 80509 10272 40086 53007 22264 00291 2////4////
BBXX WRGD 14124 99141 11426 41798 50722 10278 2025/ 40100 5//// 7//11 8461/ 22265 00290 20506 3//// 40804 5//// 6//// 80256 ICE /////
BBXX DAJT 14124 99060 10950 41398 69902 10275 20234 40040 53005 70222 8/6// 22264 04280 2//00 80245
BBXX VRHO2 14124 99500 11653 41897 43124 10000 21028 49950 54000 72854 8327/ 2225/ 00050 20505 33232 40805 51206 65/// 81010 ICE /////
BBXX UCDN 14120 99454 11394 42596 92405 10000 40066 57066 72273 895200 22213 06070 20101
BBXX 46204 14121 99514 71288 46/// /0609 10058 40154 57019 22200 00081 11403 70017 333 91211
BBXX 42363 14121 99282 70892 46/// /1107 10217 20156 40241 91215 333 91211
BBXX 42362 14121 99278 70907 46/// /1111 10228 20172 40227 91215
BBXX 42362 14121 99278 70907 46/// /1111 10228 20172 40227 57004 91200
BBXX 42364 14121 99291 70881 46/// /1309 10206 20161 40247 91215
BBXX 46131 14121 99499 71250 46/// /1104 1//// 40207 57003 22200 00071 10200 70001 333 91206
BBXX 46183 14121 99536 71311 46/// /0904 10043 40168 57013 22200 00081 11201 70006 333 91205
BBXX 46145 14121 99544 71324 46/// /1503 10049 40169 57008 22200 00068 11104 70018 333 91204
BBXX WECH 14124 99213 71607 41598 51109 10230 2022/ 40185 57025 70222 85200 22265 00252 20302 330// 40804 5//// 6//// 80220 ICE /////
BBXX MYNJ6 14123 99125 70686 41/96 /0515 10250 20222 40110 54000 78166 8//// 22263 0//// 21202 307// 4//// 5//// 6//// 80230 ICE /////
BBXX LAIP5 14123 99458 70579 41397 80723 10005 20005 40234 53006 70222 8/77/ 22233 02060 20705 305// 40806 5//// 80005
BBXX 46147 14121 99518 71312 46/// /1005 10062 40159 57015 22200 00081 11206 70028 333 91207
BBXX 46239 14121 99363 71221 46/// ///// 1//// 91151 22200 00131 11303 20803 327// 41302 70016
BBXX 46088 14121 99483 71232 46/// /1302 10056 40204 91220 22200 00079 1//00 70002 333 91203 555 11021 22021 31207 41303 61219 127020 131020 131021 137017 128015 116006
BBXX DDZK2 14124 99449 71728 41598 63238 10044 21015 49874 54000 7//// 85873 22225 04092 21009 335// 41212 5//// 80020
BBXX SHIP 14124 99314 71625 41/96 81828 10210 20195 40144 56019 70302 8//// 91155 22264 00210 2//// 3//// 4//// 5//// 80200
BBXX H9UY 14124 99183 71256 41797 70516 00/// 10200 40186 56010 70322 85584 9//// 22263 04220 20305 323// 40305 5//// 6//// 80170
BBXX 41053 14121 99185 70661 46/// /2102 10249 40117 91140 333 91204
BBXX 41053 14121 99185 70661 46/// /2403 10252 40118 91150 333 91204
BBXX 41052 14121 99183 70648 46/// /0103 10265 40108 91140 333 91204
BBXX 41053 14121 99185 70661 46/// /2202 10252 40120 53012 91200 22200 00277 11003 70016 333 91203
BBXX 41052 14121 99183 70648 46/// /0103 10264 40109 91150 333 91204
BBXX 41052 14121 99183 70648 46/// /0103 10267 40110 53010 91200 22200 00278 333 91204
BBXX 46221 14121 99339 71186 46/// ///// 1//// 91145 22200 00148 11302 20801 322// 41301 70008
BBXX 46211 14121 99469 71242 46/// ///// 1//// 91206 22200 00085 11404 21002 328// 41403 70018
BBXX 41114 14121 99276 70802 46/// ///// 1//// 91216 22200 00227 11104 21004 307// 41102 70022
BBXX 41115 14121 99184 70673 46/// ///// 1//// 91205 22200 11003 21002 301// 41101 70013
BBXX 46242 14121 99332 71174 46/// ///// 1//// 91158 22200 00153 11302 20501 323// 41301 70009
BBXX 46219 14121 99332 71199 46/// ///// 1//// 91158 22200 00135 11104 21003 330// 41102 70019
BBXX 46222 14121 99336 71183 46/// ///// 1//// 91156 22200 00155 11302 20502 323// 41301 70009
BBXX 46231 14121 99327 71174 46/// ///// 1//// 91154 22200 00144 11302 20902 326// 41302 70012
BBXX 46213 14121 99403 71247 46/// ///// 1//// 91154 22200 00098 11403 21002 328// 41403 70016
BBXX 46223 14121 99335 71178 46/// ///// 1//// 91200 22200 00153 11302 20501 320// 41301 70008
BBXX 46216 14121 99343 71198 46/// ///// 1//// 91157 22200 00142 11302 20701 327// 41301 70008
BBXX 46217 14121 99342 71194 46/// ///// 1//// 91212 22200 00145 11102 21002 327// 41101 70010
BBXX 46240 14121 99366 71219 46/// ///// 1//// 91212 22200 00126 11101 21001 334// 41101 70005
BBXX 46212 14121 99408 71243 46/// ///// 1//// 91212 22200 00095 11303 21001 331// 41302 70014
BBXX 46237 14121 99378 71226 46/// ///// 1//// 91210 22200 00110 11502 21001 327// 41501 70010
BBXX FLAO 1412/ 99764 70847 46/// ///// 11220 40051 57001
BBXX 46114 14121 99364 71222 46/// ///// 1//// 91204 22200 00122 10903 20902 328// 41302 70013
BBXX 51205 14121 99210 71564 46/// ///// 1//// 91218 22200 00240 10904 20904 333// 41402 70022
BBXX 46244 14121 99409 71244 46/// ///// 1//// 91205 22200 00095 11403 20902 331// 41403 70016
BBXX 46248 14121 99461 71247 46/// ///// 1//// 91204 22200 00085 11404 21002 329// 41404 70022
BBXX 46249 14121 99338 71197 46/// ///// 1//// 91215 22200 00142 11302 20902 323// 41301 70009
BBXX 46243 14121 99462 71241 46/// ///// 1//// 91159 22200 00086 11404 21002 326// 41403 70018
BBXX 46241 14121 99330 71173 46/// ///// 1//// 91141 22200 00147 10902 20902 326// 41301 70009
BBXX 9HRJ9 14124 99205 70863 41797 40725 10260 2//// 40190 53/// 70100 831// 22264 04290 20104 39999 4//// 5//// 6//// 8//// ICE /////
BBXX C6SI4 14124 99547 71449 41496 72325 10050 2003/ 40060 51010 70222 872// 22273 00060 21106 319// 4//// 5//// 6//// 80040 ICE /////
BBXX A8TG2 14123 99188 71044 41/// /2903 10250 20204 40110 50000 7//00 2224/ 00230 21502 31919 41502 51202 80220
BBXX WKAP 14124 99446 70555 41397 80430 10020 2107/ 40170 55010 70222 8862/ 22274 00050 20905 305// 40406 5//// 6//// 81010 ICE /////
BBXX A8JX9 14123 99453 71330 41/97 82210 10110 20101 40120 57050 70052 8//// 22274 29902 3//// 4//// 5//// 80105
BBXX 46207 14121 99509 71299 46/// /0806 10066 40145 57022 22200 00084 11204 70020 333 91208
BBXX VCXF 14124 99464 70484 41396 80232 10000 2000/ 40185 57012 78572 885// 22200 02025 20502 335// 40805 81001
BBXX NWS0003 14124 99578 71679 43/// /1116 10025 20017 49929 5//// 7//// 8//// 222// 04024 2//// 3//// 4//// 5//// 6//// 8//// ICE /////
BBXX SHIP 14124 99143 31526 41099 23404 10280 20253 40091 51010 701// 81233 22283 20100 304// 40302 80260
BBXX A8SG4 14124 99213 51435 41698 40610 10255 20197 40150 54000 70211 83245 22214 04270 80215
AAXX 14124 89528 46/// /3414 4//// 5////
BBXX PHQX 14123 99481 70293 41298 82715 10092 20023 40168 54000 70222 887// 22224 20506 3//// 4//09 5//// 80060
BBXX A8GH5 14123 99407 70106 41697 43225 10170 20090 40260 56010 70300 8314/ 22282 06160 20404 332// 41012 80125
BBXX 62103 14124 99499 70029 46/98 /2725 10079 20032 49980 52026 22200 00124 10806 70032 333 90710 91148
BBXX 62094 14124 99517 70067 46/// /2428 10077 20033 49918 50007 22200 00109 10707 70034 333 90710 91144
BBXX DPLE 14123 99427 70249 41698 62728 10145 20093 40265 50/// 70381 84241 22213 00150 20606 332// 41412 80116
BBXX 64049 14123 99571 10022 41297 82438 10085 20085 49750 53018 70211 8/7// 22200 20714 3//// 4//// 5//// 80085
BBXX 62095 14124 99530 70159 46/// /2807 10066 20041 49772 58040 22200 00114 11319 70094 333 90710 91131
BBXX DRMX 14123 99436 10085 41398 72421 10152 20134 40146 57010 70222 82272 22251 02160 20504 321// 40605 5//// 80142
BBXX 62103 14124 99499 70029 46/97 /2635 10078 20021 49974 52027 22200 00124 10806 70032 333 90710 91153
BBXX 62107 14124 99501 70061 46/// /2733 10080 20028 49977 51019 22200 00116 10909 70044 333 90710 91152
BBXX 63119 14124 99583 10009 41597 52536 10074 20017 49694 52031 70222 852// 22200 20408 323// 40713 5////
BBXX 62027 14124 99491 70022 46/// /2726 1//// 2//// 40018 50039 22200 00120 10707 333// 70034 333 90710 91139
BBXX 62304 14124 99511 10018 46/99 /2626 10085 20017 49951 52010 22200 00119 10602 70012 333 90710 91134
BBXX 62170 14124 99514 10020 46/98 /2524 10080 20025 49946 52011 22200 00115 10502 70010 333 90710 91132
BBXX AMOUK09 14124 99506 70024 46/// ///// 10079 20014 39950 49968 52032 91150
BBXX AMOUK03 14124 99537 70003 46/// ///// 10052 20011 39834 49868 52011 91150
BBXX 62305 14124 99504 10000 46/98 /2641 10096 20023 49969 51013 22200 00123 10705 70024 333 90710 91153
BBXX 62155 14124 99577 10007 47598 /2433 10075 20026 49742 52030 751// 22200 10809 70046
BBXX 62146 14124 99572 10021 47/97 /2527 10073 20028 49766 52025 700// 22200 10811 70055
BBXX 62140 14124 99573 10013 46/// /26// 10075 20036 49739 52026 22200
BBXX 62104 14124 99574 10013 47497 /2425 10079 20036 49738 52026 700// 22200
BBXX 62114 14124 99583 10000 46/// /2433 10072 20026 49696 52029 22200
BBXX 62122 14124 99573 10016 47598 /2428 10078 20032 49759 52027 700// 22200 10811 70055
BBXX ZQSD5 14124 99583 10007 46/// /2431 10078 20026 49709 52033 22200 10914 70068
BBXX 62153 14124 99573 10020 47997 /2427 10075 20035 49745 52025 700// 22200 10811 70053
BBXX 62143 14124 99577 10018 47598 /2633 10078 20016 49747 52041 700// 22200 10810 70051
BBXX 62117 14124 99579 10000 47997 /2429 10078 20029 49721 52030 700// 22200 10708 70040
BBXX 62102 14124 99579 10018 46/// /2525 10076 20028 49726 52029 22200 10810 70050
BBXX 62116 14124 99576 10011 47597 /2531 10075 20024 49731 52030 700// 22200 10710 70048
BBXX 62118 14124 99577 10009 47998 /2333 10087 20023 49725 52027 700// 22200 10709 70045
BBXX 62129 14124 99584 10003 46/// ///// 10068 20026 49718 52031 22200
BBXX 62134 14124 99580 10014 47698 /2430 10076 20028 49724 52028 700// 22200 10810 70051
BBXX 62113 14124 99584 10002 47498 /2333 10070 20027 49711 52026 700// 22200
BBXX 62145 14124 99531 10028 47598 /2223 10068 21001 49906 51004 700// 22200 10504 70021
BBXX 63057 14124 99592 10015 47497 /2430 10075 20039 49668 52033 700// 22200 10911 70054
BBXX 62142 14124 99530 10021 469// /2422 10060 20005 49904 51006 22200 10403 70014
BBXX 62128 14124 99587 10014 47497 /2436 10074 20035 49683 52031 700// 22200 10810 70050
BBXX 62150 14124 99536 10007 47998 /2420 10055 20005 49888 51003 700// 22200 10403 70013
BBXX 62144 14124 99534 10017 47598 /2428 10056 20007 49904 50008 700// 22200 10504 70019
BBXX DFCX2 14123 99095 70873 41698 70525 10265 20232 40096 50008 71622 8699/ 22234 06270 20604 80241
BBXX 62148 14124 99536 10015 46/// /2331 10060 20003 49893 50005 22200
BBXX 62121 14124 99535 10027 46/// /2324 10062 20007 49902 50007 22200
BBXX 62149 14124 99537 10011 47998 /2329 10058 20011 49880 50004 700// 22200 10504 70018
BBXX 62131 14124 99539 10012 46/// /23// 10058 20010 49871 51005 22200
BBXX 62127 14124 99540 10007 47998 ///// 10052 21001 49867 51006 700// 22200 10504 70019
BBXX 62120 14124 99564 10021 47497 /2533 10064 20060 49777 51021 700// 22200
BBXX 62165 14124 99540 10009 47998 /2330 10056 20002 49870 51007 700// 22200 10504 70022
BBXX 63106 14124 99610 10017 46/// /2426 10077 49601 52038 22200
BBXX 62119 14124 99570 10019 47597 /2634 10075 20031 49775 52025 700// 22200 10812 70061
BBXX PJGO 14124 99571 10022 46/// ///// 22200
BBXX 62123 14124 99563 10022 47597 /2435 10060 20050 49773 52020 762// 22200
BBXX 62132 14124 99564 10020 46/// /2624 10067 20035 49796 52023 22200
BBXX 62152 14124 99570 10018 46/// /2421 10073 20029 49774 52024 22200 10711 70054
BBXX 63105 14124 99610 10017 47597 ///// 10076 20034 49602 52039 700// 22200
BBXX 62133 14124 99571 10009 46/// /2329 10072 20024 49748 51026 22200
BBXX 62154 14124 99564 10022 46/// /2330 10064 20034 49784 51018 22200
BBXX 63055 14124 99606 10016 47998 /2521 10078 20034 49624 52042 700// 22200 10809 70045
BBXX 62164 14124 99572 10008 47497 /2327 10084 20039 49748 51028 700// 22200 00098 10810 70050
BBXX 63108 14124 99608 10017 47998 /2526 10072 20030 49615 52040 700// 22200 10909 70045
BBXX 63113 14124 99610 10017 46/// /2524 10077 20033 49616 52044 22200 10912 70058
BBXX 62112 14124 99584 70002 47597 /2432 10075 20028 49700 52032 700// 22200
BBXX 63101 14124 99612 10009 46/// /2621 10076 20036 49589 52038 22200
BBXX 63117 14124 99613 10011 47599 /2422 10165 20044 49594 52039 730// 22200
BBXX PJAI 14124 99581 70014 47597 /2527 10086 20016 49710 52026 700// 22200
BBXX 63056 14124 99597 10016 47598 /2424 10069 20031 49642 51040 740// 22200 10811 70053
BBXX 62111 14124 99580 70003 46/// /2633 10074 20013 49738 52027 22200 10708 70041
BBXX 63104 14124 99612 10016 47498 /2425 10075 20036 49592 52034 700// 22200
BBXX 63107 14124 99611 10017 46/// /2426 10075 49597 52036 22200
BBXX 63112 14124 99611 10010 47/98 /2524 10087 20029 49595 52039 700// 22200 10911 70056
BBXX 63110 14124 99595 10015 47498 /2426 10076 20036 49653 52035 700// 22200 10810 70050
BBXX 63103 14124 99612 10011 46/// /2623 10072 20026 49604 52045 22200 10810 70049
BBXX 63115 14124 99616 10013 47598 /2326 10069 20027 49579 53032 700// 22200 11011 70057
BBXX 64041 14124 99607 70026 47597 /2725 10066 20023 49623 52026 700// 22200 10807 70036
BBXX AMOUK19 14124 99571 70021 46/// ///// 10042 20012 39748 49751 52050 91150
BBXX MWYG6 14124 99603 70040 47998 /2916 10079 700// 22200
BBXX AMOUK14 14124 99536 70045 46/// ///// 10064 20015 39825 49858 57009 91150
BBXX AMOUK27 14124 99581 70057 46/// ///// 10076 20055 39702 49703 52018 91150
BBXX AMOUK08 14124 99501 70061 46/// ///// 10083 20045 39971 49977 52021 91150
BBXX AMOUK06 14124 99509 70014 46/// ///// 10072 20019 39941 49964 52035 91150
BBXX AMOUK02 14124 99535 70030 46/// ///// 10061 20009 39841 49882 5//// 91150
BBXX AMOUK11 14124 99533 70047 46/// ///// 10062 20013 39842 49879 52026 91150
BBXX AMOUK05 14124 99537 70003 46/// ///// 10050 20004 39829 49869 52012 91150
BBXX 62125 14124 99538 70035 46998 /2631 10057 20008 49860 52020 22200 10605 70027
BBXX 62135 14124 99540 70038 46597 /2632 10058 2//// 49860 52020 22200 10505 70025
BBXX AMOUK12 14124 99534 70056 46/// ///// 10045 21004 39840 49879 54003 91150
BBXX 62126 14124 99539 70036 46998 /2432 10054 20005 49870 52020 22200 10605 70027
AAXX 14124 61017 32960 51008 10228 21020 39761 40180 80002 333 0//00 58001 85080
AAXX 14124 61024 32960 31017 10255 21048 39593 40165 80002 333 0//00 59002 83080
AAXX 14124 61036 32965 50604 10295 21016 39898 40136 80001 333 0//00 59006 85080
AAXX 14124 61043 32960 51210 10280 21080 39699 40141 80002 333 0//00 59001 85080
AAXX 14124 61045 32965 71006 10263 21080 39648 40149 80008 333 0//00 58000 87280
AAXX 14124 61049 32960 50804 10260 21080 39819 40142 80002 333 0//00 58006 85080
AAXX 14124 61052 32960 31010 10289 21084 39892 40150 80002 333 0//00 58001 83080
AAXX 14124 61075 32960 51206 10292 21011 39823 40131 80002 333 0//00 59005 85080
AAXX 14124 61080 32960 70808 10265 21066 39729 40153 80008 333 0//00 58000 87280
AAXX 14124 61090 32965 50406 10262 21080 39634 40147 80002 333 0//00 58002 85080
AAXX 14124 61091 32965 50806 10272 20051 39694 40153 80002 333 0//00 59007 85080
AAXX 14124 61096 32960 50406 10275 21080 39768 40151 80002 333 0//00 58006 85080
AAXX 14124 61099 32960 70806 10308 20026 39890 40118 80008 333 0//00 59009 87280
AAXX 14124 60664 36/// /0000 10191 21088
BBXX OXHV2 14124 99407 70097 41598 32822 10235 20050 40245 50000 702// 832// 22284 00169 20603 332// 41014
AAXX 14124 60633 36/// /1410 10255 21109
AAXX 14124 60667 36/// /0000 10184 21066
AAXX 14124 60692 36/// /0711 10240 21085
AAXX 14121 89064 16/// /1402 10009 29090 49961 52031 69914 333 20005
AAXX 14124 60676 36/// /0418 10164 21063
BBXX DEGI 14123 99360 70048 41597 42720 10202 20136 40270 54000 70111 83441 22223 04172 29903 80161
BBXX A8LP6 14124 99365 70149 41498 43610 10175 20116 40290 52010 70311 8446/ 22264 04141 2//// 332// 41410 80140
BBXX BATFR02 14124 99505 70009 46/// /2930 10079 20020 49968 55/// 22284 00120
BBXX BAREU12 14124 99535 70030 46/// ///// 49866 22200
BBXX 61001 14124 99434 10078 46/// /2216 10148 20116 40142 57012 22200 00160 10503 70014
BBXX BAREU51 14124 99400 10121 46/// ///// 40189 52003 22235
BBXX BAREU05 14124 99391 70145 46/// ///// 40276 52015 22263
BBXX TESTFR9 14124 99494 70023 46/// /2322 10083 29071 40029 22215
BBXX 3ERR2 14124 99635 10053 41498 81727 10085 20022 49599 57022 70222 8477x 22200 06094 11309 70045 333 91137
BBXX LF5T 14124 99660 10081 41698 41515 10060 20010 49654 57006 70121 839// 22200 06082 333 91132
BBXX LF4C 14124 99584 10019 41698 72531 10080 20022 49702 52026 70222 877// 22200 00081 10811 70053 333 91137
BBXX LF4B 14124 99606 10037 47/98 /2232 10079 49639 52036 723// 22200 00070 10914 70071 333 91149
BBXX LF3N 14124 99653 10073 41998 51611 10071 20015 49643 57012 70222 83036 22200 00089 10806 70030
BBXX LF3F 14124 99643 10078 41698 61219 10069 20004 49642 57011 78080 8232/ 22200 04089 10807 70033 333 91124
AAXX 14124 60662 36/// /0000 10154 21079
AAXX 14124 60691 36/// /0920 10238 21114
AAXX 14124 60612 36/// /0622 10184 21115
AAXX 14124 60621 36/// /0613 10207 21002
AAXX 14121 33526 32660 60000 10049 20024 39826 40167 58013 83530
BBXX 62130 14124 99530 10017 46/// /2517 10071 20004 49900 52009 22200 10402 70011
BBXX 62001 14124 99453 70050 46/// /2729 10131 20051 40146 51020 22200 00149 10915 70074 333 90710 91139
BBXX 62169 14123 99614 10014 41497 62434 10076 20051 49581 52030 70282 84360 22200 20306 322// 40712 5//// 80065
BBXX 62303 14124 99516 70051 46/// /2617 10069 20029 49930 50018 22200 00116 10708 70041
BBXX 64045 14124 99591 70117 46/// /3318 10062 20033 49746 52030 22200 00101 10910 70052 333 90710 91129
BBXX 63110 14123 99595 10015 41498 52335 10076 20036 49648 71586 838// 22200 11010 70050
BBXX 62442 14124 99490 70164 46/// /2837 1//// 2//// 40022 52020 22200 00129 333 90710 91153
BBXX 62081 14124 99510 70134 46/// ///// 10093 20033 49912 50000 22200 00120 10915 70077
BBXX 62029 14124 99487 70125 46/// /2730 10090 20027 40014 51015 22200 00134 11016 70081 333 90710 91148
BBXX 62163 14124 99475 70084 46/// /2628 10106 20040 40064 50003 22200 00131 11014 70070 333 90710 91139
BBXX 62301 14124 99524 70047 46/// /2523 10072 20013 49906 52014 22200 00106 10607 70033 333 90710 91134
BBXX 62105 14124 99554 70122 46/// /2613 10078 21009 49824 51013 22200 00108 10910 70050
BBXX 64046 14124 99606 70049 46/// /3216 10075 20034 49648 52025 22200 00090 10909 70044
BBXX SKWI 14124 99407 70257 43/98 82820 10145 40301 51017 22263 00170 20802 41008
BBXX LAVW4 14124 99367 70164 41699 63416 00/// 10170 2016/ 40290 52010 70101 86501 22253 00175 21003 334// 41007
BBXX A8UA9 14124 99376 10087 43598 22420 10180 20164 40250 50/// 82115 22263 00170 20206 80170
BBXX DGOQ 14124 99544 10113 41296 81718 10039 49930 57020 76361 8/7// 22200 04065 317// 4//03
BBXX PDHY 14123 99490 70336 41397 83014 10070 20026 40138 56010 75022 877/0 22223 04120 20706 331// 40808 5//// 80050
BBXX 61002 14124 99421 10047 46/// ///13 10146 2//// 40172 52016 22200 00153 10704 70021
BBXX PCPR 14123 99372 10049 41398 22722 10170 20119 40230 54000 70122 8/100 22263 04165 20401 327// 40502 80140
BBXX BATEU09 14124 99429 10062 46/// /2606 10159 20114 40150 52010 22282 00174
BBXX 9V8072 14123 99336 70249 41/97 /3120 10200 20149 40312 5/000 7//22 8//// 22264 20306 80170
BBXX BATFR46 14124 99396 10013 44997 62315 10165 20109 40199 58018 703// 8//5/ 22213 00167 21004
BBXX BATUK01 14124 99584 70060 44496 82708 10064 20024 49695 53016 78188 8877/ 22241 00110 20404 329// 40606 5////
BBXX BATFR09 14124 99380 10051 44997 52630 10177 20117 40218 58007 70222 85420 22263 00182 20506 326// 40506 5////
BBXX BATFR01 14124 99343 10307 44498 33508 10184 20112 40202 56020 70200 83479 22222 00202 20500
BBXX BATEU08 14124 99578 10085 46/// /2141 10077 20022 49805 58002 22261
BBXX BATFR27 14124 99507 70010 46/// /2826 10069 20004 49965 22244 00107
BBXX BATFR52 14124 99494 70023 46/// /2222 10087 20025 40009 22215 00130
BBXX BATEU06 14124 99561 10026 46/// /2623 10069 20027 49788 53001 22271 00094
BBXX BATFR04 14124 99596 70114 46/// /3427 10065 20029 49731 51023 22200 00102
BBXX BATFR15 14124 99334 70289 44798 21309 10197 20139 40309 50004 70111 82251 22264 00204 20304 301// 40304 5////
BBXX BATFR11 14124 99360 10145 46/// /2705 10184 20115 40247 58018 22211 00194
BBXX BATEU04 14124 99599 70316 46/// /3004 10042 20000 49874 51002 22223
BBXX BATFR60 14124 99453 70008 46/// /2728 10120 20052 40138 22283 00115
BBXX BATFR03 14124 99499 70005 46/// /2347 10074 20029 49977 53035 22244
BBXX BATFR50 14124 99427 10062 46/// /2609 10157 20117 40147 58011 22282 00159
BBXX PBEO 14123 99466 70072 41297 62529 10114 20078 40100 54000 72582 867// 22212 02130 20506 330// 40910 80095
BBXX C6CU6 14123 99360 70298 41697 51310 10185 20151 40320 54000 70222 85141 22263 04190 21209 334// 41808 5//// 80165
BBXX IDDUK02 14124 99637 50614 46/// ///// 49941 222//
AAXX 14124 78922 46/// /0805 10287 20224 30072 40116 53015
AAXX 14124 67765 41680 72603 10270 20182 38633 48478 71798 82963 333 58005 82938 86843
AAXX 14124 67775 41580 70308 10255 20144 38483 48486 70262 81973 333 58005 81920 87459
AAXX 14124 67779 42680 73602 10280 20195 39019 48481 81102 333 58006 81839 87080
AAXX 14124 67853 NIL
AAXX 14124 67861 42680 70101 10256 20188 38701 48483 83172 333 58011 83840 85359
AAXX 14124 67867 42980 30206 10254 20167 38507 48475 81072 333 58004 81359 83080
AAXX 14124 67881 NIL
AAXX 14124 67965 41680 70510 10257 20177 38663 48491 71798 83233 333 58013 81925 83830 85080
AAXX 14124 67975 NIL
AAXX 14124 67977 41980 83106 10247 20221 39626 48493 70262 8807/ 333 58016 88460
AAXX 14124 67983 41880 70102 10232 20184 38859 48489 70296 81232 333 58003 81857 87360
AAXX 14124 67991 NIL
AAXX 14124 63729 11480 72703 10200 20168 38889 48/// 60111 76062 8397/ 333 0//61 55300 58034 83617 81919 87358
AAXX 14124 63733 12580 72610 10220 20188 38864 48504 69901 8393/ 333 0//14 55300 58024 83622 81924 86359
AAXX 14124 63756 32580 73020 10228 20158 38874 48511 8393/ 333 55303 58022 83820 81921 87360
AAXX 14124 63791 12580 61110 10282 20162 39099 48493 69921 86530 333 0//12 55300 58011 81928 86830
AAXX 14124 63801 31580 72706 10260 20195 39203 48531 70252 8193/ 333 55300 59004 81823 81921 87360
AAXX 14124 63832 32580 63204 10280 20175 38810 48494 86900 333 55310 58002 85823 81924
AAXX 14124 63862 32580 60000 10273 20167 38880 48503 84903 333 55305 58006 84828 81929 83079
AAXX 14124 63866 32580 30000 10312 20195 39493 48/// 83200 333 55310 58001 83828
AAXX 14124 63881 12480 60000 10180 20154 38200 48/// 60012 82921 333 0//11 55300 58003 60017 82618 81920 85456
AAXX 14124 63887 12580 83614 10230 20172 38578 48496 60041 84901 333 55306 58009 84825 81926 85076
AAXX 14124 63894 32580 40416 10314 20253 30035 40095 84200 333 55310 58007 84825
AAXX 14124 63932 11580 70000 10215 20177 38298 48492 69901 78092 8593/ 333 55300 59013 85825 81926
AAXX 14124 63962 32580 53615 10280 20173 38939 48508 85900 333 55310 58012 85825 81927
AAXX 14124 63971 32580 20414 10300 20237 39970 40097 82200 333 55310 58001 82824
AAXX 14124 63870 NIL
AAXX 14124 78988 01470 50513 10255 20244 30102 40113 52019 600031 72581 85400 333 10303 20243 59004 60027 70033 85815
AAXX 14124 78990 01470 40807 10275 20247 30111 40118 52018 69911 71508 83201 333 10315 20248 59008 60007 70002 83815
AAXX 14124 78873 02578 50208 10253 20223 30078 40123 52014 60001 85200 333 10284 20231 59011 60007 7861536 85820
BBXX C6KD5 14123 99381 70274 41798 60000 10188 20145 40311 52020 703222 8/1// 22214 20000 336// 40508 5//// 80163
BBXX 9VBM6 14123 99493 70040 41797 70317 10090 20049 40020 54000 7//22 87293 22213 04160 21013 30303 41410 51410 6//// 80070 ICE /////
AAXX 14124 94996 453// 82407 10196 20182 39965 40101 51004 91230 333 10237
AAXX 14124 78988 01470 50513 10255 20244 30102 40113 52019 600031 72581 85400 333 10303 20243 59004 60027 70033 85815
AAXX 14124 78990 01470 40807 10275 20247 30111 40118 52018 69911 71508 83201 333 10315 20248 59008 60007 70002 83815
AAXX 14124 78873 02578 50208 10253 20223 30078 40123 52014 60001 85200 333 10284 20231 59011 60007 7861536 85820
BBXX ZMFR 14124 99479 31667 43/// /17// 10114 20113 49980 52005 22283 00119
BBXX V2QD4 14123 99391 31461 41298 21208 10174 20155 40204 51015 70111 8/7// 22272 00187 20302 320// 41003
BBXX ZMENA 14124 99377 31762 46/// ///// 10174 20159 40147 57015 22200
AAXX 14124 94996 453// 82407 10196 20182 39965 40101 51004 91230 333 10237
BBXX ZMFR 14124 99479 31667 43/// /17// 10114 20113 49980 52005 22283 00119
BBXX V2QD4 14123 99391 31461 41298 21208 10174 20155 40204 51015 70111 8/7// 22272 00187 20302 320// 41003
BBXX ZMENA 14124 99377 31762 46/// ///// 10174 20159 40147 57015 22200
BBXX 46185 14121 99524 71298 46/// /0805 10044 40161 57014 22200 00070 11402 70010 333 91207
AAXX 14124 06610 01657 72413 10100 20056 39519 40094 57003 60051 71562 8217/ 333 55303 20702 60005 82844 86356 91131 91218
AAXX 14121 55299 32980 00000 11084 21279 35837 52006 333 00253
AAXX 14121 55591 32980 00701 10035 21242 36469 52004 333 00201
AAXX 14121 56739 32578 32002 10100 20039 38357 52010 83400 333 00100
AAXX 14121 56951 32680 11601 10128 20070 38511 52014 81100 333 00100
AAXX 14121 56964 32575 20000 10150 20127 38717 40160 52012 82100 333 00100
AAXX 14121 57328 11858 80701 10087 20051 39869 40290 52018 69901 76060 885//
AAXX 14121 57411 11940 80000 10089 20056 39911 40291 52020 69901 76060 8807/
AAXX 14121 57447 32960 83201 10080 20069 39734 40291 52018 8807/
AAXX 14121 57662 11757 82201 10088 20052 30248 40293 52014 69931 72166 885//
AAXX 14121 57745 11458 80000 10062 20040 39958 40295 52013 69991 76066 885//
AAXX 14121 57972 32964 03402 10108 20024 30038 40268 52026
AAXX 14121 58203 31958 70204 10047 20001 30275 40318 52022 71000 8707/
AAXX 14121 58314 32965 70000 10065 20026 30188 40299 52019 87040
AAXX 14121 58424 31957 80702 10091 21010 30261 40287 52013 70500 8807/
AAXX 14121 59023 32865 80402 10144 20041 39916 40230 52013 885//
AAXX 14121 59417 32563 71101 10174 20091 30044 40201 52015 878//
AAXX 14121 59985 32570 70406 10245 20232 30134 40139 52017 872//
AAXX 14121 59995 NIL
AAXX 14124 06670 03/// /2207 10104 20060 39571 40073 57020 60021 333 55305 21004 60005 91131 91214
AAXX 14124 06700 01573 72020 10104 20050 39624 40110 58007 69981 71686 878// 333 55301 20529 60005 81620 83835 86656 91131 91220
AAXX 14124 06680 01/03 92211 11046 21049 37423 47954 57008 69961 77174 333 55302 20673 69915 91151 91217
AAXX 14124 06990 31860 83504 10093 20023 39540 40079 57011 70522 885// 333 55300 20356 88657 91116 91207
AAXX 14124 06760 01230 81201 10036 20033 39715 40171 57016 69951 75152 8572/ 333 55300 20072 60005 85704 88531 91108 91205
AAXX 14124 06720 01460 80902 10048 20034 39573 40153 58001 60091 76166 88020 333 55300 20320 69925 88517 91105 91203
AAXX 14124 42309 31595 20000 10186 20159 40142 70500 81530 333 10246 58003
AAXX 14124 42314 31595 30000 10190 20145 40151 70500 82530 333 10257 58003 82620
AAXX 14124 42410 31596 10000 10210 20181 40139 70500 81500 333 10242 59002 81620
AAXX 14124 42415 31996 20000 10188 20165 40166 70500 82030 333 10250 58004 82360
AAXX 14124 42492 31994 00000 10156 20135 40156 71040 333 10181 58004
AAXX 14124 42587 31995 00000 10180 20092 40154 70500 333 10254 58000
AAXX 14124 42591 31995 02902 10200 20109 40156 70500 333 10236 59001
AAXX 14124 42623 31594 12303 10162 20070 39263 40141 70500 81500 333 10217 58008 81620
AAXX 14124 42701 31995 03202 10184 20085 39412 40147 70500 333 10239 58003
AAXX 14124 42706 31995 00000 10218 20135 40142 70500 333 10251 58001
AAXX 14124 42724 31995 00000 10192 20159 40149 70500 333 10253 58005
AAXX 14124 42798 31995 00000 10204 20134 40138 70500 333 10249 58015
AAXX 14124 42809 31995 00000 10204 20134 40148 70500 333 10246 58005
AAXX 14124 42886 31995 10000 10234 20117 40140 70500 80001 333 10285 58004 81075
AAXX 14124 42895 31995 00000 10216 20156 40145 70500 333 10264 58009
AAXX 14124 42971 31995 00503 10246 20175 40139 70500 333 10285 58007
AAXX 14124 42398 NIL
AAXX 14124 42977 NIL
AAXX 14124 43333 NIL
AAXX 14124 43368 NIL
AAXX 14124 78988 01470 50513 10255 20244 30102 40113 52019 600031 72581 85400 333 10303 20243 59004 60027 70033 85815
AAXX 14124 78990 01470 40807 10275 20247 30111 40118 52018 69911 71508 83201 333 10315 20248 59008 60007 70002 83815
AAXX 14124 78873 02578 50208 10253 20223 30078 40123 52014 60001 85200 333 10284 20231 59011 60007 7861536 85820
AAXX 14124 40250 32960 80000 10178 21014 39388 40178 57022 80006 333 88070
AAXX 14124 40265 31958 60000 10152 21018 39400 40199 58016 70622 84032 333 84360 83360
AAXX 14124 40296 32960 00000 10198 20056 40178 57019
AAXX 14124 40310 32960 51203 10196 21023 38940 48491 57030 85032 333 83360 82070
BBXX 46185 14121 99524 71298 46/// /0805 10044 40161 57014 22200 00070 11402 70010 333 91207
AAXX 14124 89050 11193 83124 10009 20007 49952 52023 69932 74442 886//
AAXX 14124 89512 42998 80810 11058 21135 39687 49838 52008 80001
AAXX 14124 89574 32598 50502 11017 21095 49815 52008 81831 333 11008
AAXX 14124 89592 32498 71004 11028 21048 49800 52004 87500
AAXX 14124 89606 32998 12806 11315 21378 36210 47847 52003 80001
AAXX 14121 24790 31999 32101 11281 21304 39361 40248 52001 70231 80001 333 11190
AAXX 14121 24988 32999 02903 11214 21271 39870 40138 52002 333 11130
AAXX 14121 25378 41798 63405 11110 21206 30122 40156 53011 73632 82501 333 91114
AAXX 14121 25503 11696 83203 11252 21284 30098 40237 58004 69940 77172 8452/ 333 11243
AAXX 14121 25705 11696 83401 11240 21258 39865 40222 54000 60020 77172 8352/ 333 11230
AAXX 14121 25927 32698 72908 11196 21245 30054 40061 57004 87900 333 11157
AAXX 14121 25932 32999 83603 11098 21134 39926 49965 57008 8805/ 333 11101
AAXX 14121 31152 32997 80000 11352 21380 39855 40314 52002 85036 333 11347
AAXX 14121 31174 32999 00801 11229 21255 30177 40189 52002 333 11166
AAXX 14121 31489 32998 00000 11286 21310 30068 40197 53003 333 11213
AAXX 14121 31866 31496 83002 11067 21083 30105 40111 57010 77172 8572/ 333 21029
AAXX 14121 31959 32998 52804 11032 21105 30070 40113 53007 82032 333 11024 91112
AAXX 14121 31989 12999 03503 11028 21145 30093 40147 51019 69930 333 10017
AAXX 14121 32027 32999 23205 11175 21217 30159 40168 57005 80002 333 11156 91007 91107
AAXX 14121 32076 32998 42702 11193 21234 30137 40148 58006 80001 333 11097 91003 91104
AAXX 14121 32099 12598 53505 11098 21157 30144 40152 54000 69900 83901 333 11075 91006 91109
AAXX 14121 32121 32997 20704 11092 21154 30107 40130 57017 80001 333 11061 91006 91108
AAXX 14121 32213 11/92 92915 11046 21049 39925 49989 57005 69940 73983 333 11031 91019 91119 92992
AAXX 14121 32287 11999 31202 11210 21222 39981 49992 57002 60030 70281 83030 333 11165
AAXX 14121 32408 32999 21701 11165 21207 39877 49917 57022 80001 333 11157
AAXX 14121 32509 32998 03209 11112 21208 39893 49928 57014 333 11094 91113
AAXX 14121 32594 11998 50505 11071 21109 39957 49993 53006 69990 70283 82042 333 11033 91114
BBXX 51171 14121 99064 71623 46/// ///// 1//// 91146 22200 00278
BBXX 51170 14121 99168 71695 46/// ///// 1//// 91148 22200 00263
BBXX 51169 14121 99004 51600 46/// ///// 1//// 91154 22200 00258
BBXX 52243 14121 99193 11666 46/// ///// 1//// 91155 22200 00264
BBXX 51174 14121 99142 51697 46/// ///// 1//// 91155 22200 00284
BBXX 51178 14121 99142 51695 46/// ///// 1//// 91158 22200 00282
BBXX NIL
BBXX NIL
BBXX NIL
BBXX OXHV2 14124 99407 70097 41598 32822 10235 20050 40245 50000 702// 832// 22284 00169 20603 332// 41014
BBXX NIL
AAXX 14124 40250 32960 80000 10178 21014 39388 40178 57022 80006 333 88070
AAXX 14124 40265 31958 60000 10152 21018 39400 40199 58016 70622 84032 333 84360 83360
AAXX 14124 40296 32960 00000 10198 20056 40178 57019
AAXX 14124 40310 32960 51203 10196 21023 38940 48491 57030 85032 333 83360 82070
BBXX MINUK04 1412/ 99523 10023 46/// ///// 10075 4//// 57017
BBXX MINUK05 1412/ 99605 70045 46/// ///// 10075 49644 52025
BBXX NIL
AAXX 14124 61202 NIL
AAXX 14124 61214 NIL
AAXX 14124 61223 32960 60806 10265 21013 39865 40163 80002 333 0//00 59004 86075
AAXX 14124 61226 32960 71212 10281 20018 39853 40150 80004 333 59009 87070
AAXX 14124 61230 32960 60814 10290 21084 39856 40125 80002 333 0//00 59002 86075
AAXX 14124 61233 32960 50806 10280 21032 3//// 4//// 80002 333 0//00 5//// 85075
AAXX 14124 61235 32960 71010 10300 21070 3//// 4//// 80002 333 0//00 5//// 87075
AAXX 14124 61240 32960 61012 10284 21007 39820 40145 80002 333 0//00 59003 86075
AAXX 14124 61250 32960 50000 10280 20093 3//// 4//// 80002 333 0//00 5//// 85075
AAXX 14124 61257 32960 50814 10300 20065 30078 40172 80002 333 0//00 58000 85075
AAXX 14124 61265 32965 50404 10284 21031 39827 40134 80002 333 0//00 59011 85075
AAXX 14124 61270 32960 40404 10300 21006 3//// 4//// 80002 333 0//00 5//// 84075
AAXX 14124 61272 32960 20806 10300 20026 39817 40142 80002 333 0//00 59008 82075
AAXX 14124 61277 32960 51406 10305 21002 39812 40131 80002 333 0//00 59008 85075
AAXX 14124 61285 32960 51808 10315 21041 39979 40127 80002 333 0//00 58000 85075
AAXX 14124 61291 32960 50608 10285 21002 39782 40126 80002 333 0//00 59001 87075
AAXX 14124 61293 32960 50404 10292 21021 3//// 4//// 80002 333 0//00 5//// 85075
AAXX 14124 61296 32970 30804 10306 20107 3//// 4//// 80002 333 0//00 5//// 83075
AAXX 14124 61297 31959 70610 10292 21020 3//// 4//// 70611 80002 333 0//00 5//// 87075
AAXX 14124 40255 32960 70000 10154 20011 39474 40193 57010 87030 333 85360 84070
AAXX 14124 40260 32960 60000 10150 21081 39410 40198 57010 80001 333 86070
AAXX 14124 40270 31950 71403 10148 21049 39278 40178 57019 70500 80006 333 87270
AAXX 14124 40272 31958 70705 10160 21018 39338 40172 57016 70500 80001 333 87070
AAXX 14124 40290 NIL
AAXX 14124 40340 31950 83515 10198 20040 40160 57025 70522 80007 333 88270
BBXX A8RL3 14121 99010 30882 41/97 50203 10290 20268 40080 54000 70262 8/4// 22213 29901 318// 4//03 5//// 80274
BBXX BATFR19 14124 99048 30094 46/// /1715 10255 20214 40113 56019 22242 00262
BBXX DILS 14124 99059 30101 41998 01811 10260 20228 40119 57010 70200 80000 22274 04260 20302 30000 80238
BBXX BATFR45 14124 99107 30411 46/// ///// 10297 20240 40097 58019 22244 00305
BBXX BATFR56 14124 99115 30704 44497 60612 10265 20264 40091 55004 78122 8677/ 22252 00295 316// 40504 5////
BBXX A8KH9 14124 99139 30104 41597 81613 10205 20141 40115 54000 70222 8677/ 22243 20502 31800 41204 5//// 80165
BBXX V2MH 14120 99160 30664 41698 20605 10310 20257 40110 57010 70311 81165 22224 20302 30621 40403 50403 80270
BBXX BATFR55 14124 99164 30540 44597 40912 10277 20257 40084 70122 824/2 22232 00279 20704
BBXX A8ZS7 14124 99224 30537 41798 31411 10255 20210 40130 54000 7//00 8316/ 22254 04250 20402 318// 40705
BBXX DDDI2 14124 99251 30483 41/98 10514 10270 20250 40130 56010 70100 81/6/ 22254 20603 3//// 4//// 5//// 80255
BBXX A8YW2 14124 99316 30382 41497 50418 10250 20204 40125 54000 70211 8424/ 22224 00210 21401 80220
BBXX ONCE 14124 99345 30171 41698 52819 10170 2008/ 40110 54000 70222 85201 222// 00272 21120 33253 4//31 52950 63/// 82120
BBXX PCDE 14123 99399 30985 41597 83304 10164 20116 40230 54000 70322 888// 22223 2//// 324// 41003 80136
BBXX DBBT 14121 99435 30019 46/// /3415 10103 20098 40025 57041 22273 00094
BBXX UCKZ 14121 99546 30221 41194 83208 10002 21011 40053 57016 71022 886// 22233 00004 20402 324// 40904
BBXX BATEU00 14124 99599 30211 46/// /3320 11012 21013 49935 56038 22243
AAXX 14124 84202 31670 80000 10224 20189 30152 70542 8551/ 333 10302 20224 59008 555 30080
AAXX 14124 84135 32575 80000 10225 20193 30066 886// 333 10317 20214 59005 555 30082
AAXX 14124 84204 31665 80000 10234 20187 70544 8451/ 333 10327 20230 555 30075
AAXX 14124 84008 32456 71408 10223 20200 30120 40130 82630 00181 333 10277 20223 59002 555 30087 40177
AAXX 14124 84076 11201 80000 10113 20108 60064 75152 8372/ 333 10206 20110 30119 555 10062 30097
AAXX 14124 84270 11/20 90000 10134 20120 60234 74646 89/// 333 10230 20130 555 10231 30091
AAXX 14124 84088 11110 80000 10080 20077 37066 60074 75052 887// 333 10168 20080 30084 59005 555 10074 30098
AAXX 14124 84050 11360 83602 10213 20209 69934 75156 887// 333 10267 20213 555 10003 30097
AAXX 14124 84179 11410 80000 10194 20189 39061 60114 76362 8372/ 333 10272 20192 58005 555 10105 30097
AAXX 14124 84142 11120 80000 10162 20156 60034 75066 887// 333 10196 20155 555 10032 30096
AAXX 14124 84140 11330 80000 10221 20217 30031 40116 60014 71055 886// 333 10298 20219 59005 555 10012 30097
AAXX 14124 84036 11568 80402 10100 20097 60234 74022 8801/ 333 10181 20074 555 10229 30098
AAXX 14124 84072 11258 80000 10104 20096 37301 60244 75066 8672/ 333 10182 20100 59001 555 10243 30095
AAXX 14124 84143 11465 80000 10102 20097 37406 60074 72162 8377/ 333 10183 20098 30080 58001 555 10065 30097
AAXX 14124 84160 11320 80000 10097 20094 37266 60084 75156 887// 333 10192 20094 59001 555 10082 30098
AAXX 14124 84105 32458 80000 10219 20208 31001 8651/ 333 10270 20219 59001 555 30094
AAXX 14124 84132 11265 80000 10230 20226 39880 60044 76166 8687/ 333 10316 20228 58002 555 10043 30097
AAXX 14124 84056 11/00 90000 10090 20090 60074 74744 89/// 333 10200 20090 555 10071 30100
AAXX 14124 84226 11670 80000 10082 20082 60024 71542 887// 333 10140 20080 555 10019 30100
AAXX 14124 84173 11459 80000 10112 20102 60034 75044 8672/ 333 10200 20109 555 10025 30094
AAXX 14124 84045 11262 80000 10083 20072 60044 71455 8222/ 333 10145 20060 555 10038 30092
AAXX 14124 84001 11565 61507 10217 20193 30105 40125 60024 70544 83530 333 20216 59001 555 10020
AAXX 14124 84010 31565 61310 10220 20207 70542 82530 333 20220
AAXX 14124 84018 31560 72004 10218 20208 30109 40116 70544 83570 333 20206 59009
AAXX 14124 84027 11210 80000 10096 20093 37172 47142 60124 74064 8552/ 333 20092 59003 555 10120
AAXX 14124 84063 12565 80000 10218 20215 39754 40091 60404 8352/ 333 20215 58003 555 10400
AAXX 14124 84069 11240 80000 10200 20193 69944 76064 8651/ 333 20194 555 10004
AAXX 14124 84071 11420 80000 10103 20097 37286 47135 60164 76164 8752/ 333 20099 59002 555 10160
AAXX 14124 84099 11460 83204 10222 20210 3//// 40105 60504 71666 8552/ 333 20218 5//// 555 10500
AAXX 14124 84117 31560 61903 10235 20197 30101 40124 70544 86500 333 20229 59005
AAXX 14124 84123 12570 80000 10096 20091 37311 47145 60064 8457/ 333 20088 58014 555 10060
AAXX 14124 84147 11158 80000 10113 20108 60064 76166 8452/ 333 20111 555 10060
AAXX 14124 84151 11220 80000 10216 20213 60214 76066 8551/ 333 20214 555 10207
AAXX 14124 84163 11010 83102 10183 20179 38945 48490 60084 76362 8452/ 333 20182 58003 555 10080
AAXX 14124 84176 11358 80802 10112 20109 60054 71622 8452/ 333 20110 555 10050
AAXX 14124 84200 31860 72207 10213 20183 70544 87030 333 20210
AAXX 14124 84203 31660 71904 10237 20165 30103 40108 70544 82530 333 20227 59008
AAXX 14124 84217 11560 80402 10193 20186 60024 76065 8457/ 333 20188 555 10020
AAXX 14124 84239 11140 80601 10126 20126 37541 47176 60054 76044 85531 333 20123 59005 555 10050
AAXX 14124 84252 31462 80705 10235 20216 30110 40118 71544 8385/ 333 20234 59005
AAXX 14124 84265 12460 60000 10178 20163 38769 60044 84530 333 20174 59006 555 10040
AAXX 14124 78846 12580 10103 10255 20/// 30089 40128 81202 333 10278 20218 59009 81820
AAXX 14121 23074 11995 81705 11153 21180 30275 40301 52001 60012 77373 8802/ 333 11139
AAXX 14121 23274 11497 71902 11162 21181 30308 40346 56001 69902 78522 879// 333 11160 85913
AAXX 14121 23383 11898 80000 11243 21268 30021 40410 58009 69902 70272 8802/ 333 11241
AAXX 14121 23472 32999 71803 11174 21193 30347 40399 57006 80001 333 11164
AAXX 14121 23678 329// 81001 11130 21143 30373 40436 57005 8805/ 333 11130
AAXX 14121 23884 425// 80000 11140 21123 30362 40442 56001 885// 333 11137
AAXX 14121 23891 32996 00000 11267 21306 30109 52004 333 11240
AAXX 14121 24507 329// 50000 11303 21328 30154 40429 52002 80001 333 11298
AAXX 14121 24817 119// 80000 11337 21359 30012 40434 58017 69902 77072 82045 333 11337
AAXX 14121 24908 12998 80000 11286 21317 30086 40460 53002 69902 82035 333 11268
AAXX 14121 29263 12978 22301 11253 21278 30342 40455 53004 69902 80001 333 11200
AAXX 14121 29282 32977 00000 11284 21308 30278 40471 52003 333 11249
AAXX 14121 29379 32997 50000 11255 21280 30229 40464 54000 80001 333 11204
AAXX 14121 29570 319// 02401 11235 21253 30064 40450 53003 71000 333 11204
AAXX 14121 29698 329// 20000 11212 21224 39901 40466 52010 80001 333 11121
AAXX 14121 30230 32998 31201 11377 21399 30140 40528 52011 80001 333 11320
AAXX 14121 30252 329// 50000 11322 21346 30145 40509 51011 80001 333 11265
AAXX 14121 30309 11998 62601 11194 21213 39903 40470 52012 69902 70272 84031 333 11139
AAXX 14121 30328 329// 00000 11340 21362 30045 40541 52016 333 11272
AAXX 14121 30521 329// 03001 11305 21318 39915 40516 52018 333 11218
AAXX 14121 30710 11596 73302 11143 21167 39840 40465 52016 60012 78582 84931 333 11122
AAXX 14121 23973 32699 81701 11143 21156 30372 40439 53002 885// 333 11130
AAXX 14121 23975 325// 51001 11170 21189 30316 40434 54000 85500 333 11123
AAXX 14121 23986 32999 30000 11186 21205 39776 40466 53003 83030 333 11140
AAXX 14121 23987 32999 21302 11198 21224 30365 40446 53005 80001 333 11174
AAXX 14121 24606 329// 20000 11346 21368 30109 40418 57002 80001 333 11312
AAXX 14121 29253 329// 00000 11220 21253 30256 40446 53013 333 11200
AAXX 14121 29471 31996 00000 11248 21266 30195 40451 54000 71000 333 11230
AAXX 14121 29481 12999 30000 11227 21246 30200 40465 53010 69902 80001 333 11170
AAXX 14121 29553 32976 21402 11187 21206 30016 40414 57001 80001 333 11161
AAXX 14121 29562 32984 00000 11206 21231 39974 40431 54000 333 11166
AAXX 14121 29581 119// 00000 11260 21284 30180 40470 52003 69922 71011 333 11180
AAXX 14121 29594 11999 01101 21204 30037 40458 51004 69922 70281 333 11128
AAXX 14121 29653 32997 01801 11236 21255 39904 40442 53002 333 11217
AAXX 14121 29675 32998 00000 11250 21269 39797 40458 53003 333 11208
AAXX 14121 29676 32998 00000 11244 21269 39977 40449 53004 333 11180
AAXX 14121 29752 329// 30000 11090 21209 38906 48546 53001 80009 333 11032
AAXX 14121 29759 329// 20000 11173 21185 39320 40424 54000 80001 333 11150
AAXX 14121 29766 32999 00000 11296 21307 30070 40476 53001 333 11267
AAXX 14121 29789 32999 00000 11237 21250 39187 40495 52013 333 11109
AAXX 14121 29864 329// 33202 11265 21290 39731 40461 53003 80001 333 11187
AAXX 14121 29866 319// 30000 11282 21300 30098 40462 54000 71011 80001 333 11221
AAXX 14121 29869 319// 50000 11279 21297 30042 40466 53002 71011 80001 333 11223
AAXX 14121 29956 32967 20000 11269 21293 39836 40466 53003 80005 333 11227
AAXX 14121 30337 32998 20000 11356 21377 30007 40532 52013 80001 333 11296
AAXX 14121 30405 119// 00201 11227 21246 39892 40478 52007 69902 70271 333 11144
AAXX 14121 30504 11997 71401 11200 21206 39765 40475 52008 60012 70272 80002 333 11134
AAXX 14121 30603 11597 50000 11191 21197 39844 40466 52007 69932 70272 85500 333 11132
AAXX 14121 30612 125// 52601 11213 21225 39891 40478 52015 69902 81531 333 11150
AAXX 14121 30622 329// 00000 11312 21343 39778 40516 52017 333 11222
AAXX 14121 30627 32999 20101 11212 21237 39459 40477 52016 80001 333 11179
AAXX 14121 30703 119// 80000 11164 21177 39736 40460 52009 69942 77172 80007 333 11097
AAXX 14121 36307 32997 71201 11296 21320 39118 48602 53011 80002 333 11241
AAXX 14124 71010 16/// /2907 11059 21074 60001 333 11030 21101 70000
AAXX 14124 71351 16/// /3210 11033 21058 60001 333 10002 21052 70007
AAXX 14124 71353 16/// /3213 11049 21084 60001 333 11010 21080 70000
AAXX 14124 71375 46/// /0310 11128 6///1 333 11072 21130 7////
AAXX 14124 71385 46/// /0507 11027 6///1 333 10019 21030 7////
AAXX 14124 71445 16/// /2209 11046 21068 39826 40106 56016 60001 333 11054 21064 4/011 70017 555 10050
AAXX 14124 71924 11974 60521 11248 21296 39927 40019 50000 60001 73622 86030 333 11221 21277 48038 55/// 70012
AAXX 14124 71257 17/// /3404 11082 21093 60021 7//4/ 333 11094 21153 7////
AAXX 14124 71258 16/// /3111 11035 21065 60001 333 11009 21091 70000
AAXX 14124 71259 16/// /3606 11076 21090 60001 333 11140 21201 70000
AAXX 14124 71274 16/// /3211 11032 21056 60001 333 11037 21057 70000
AAXX 14124 71275 46/// /2914 11037 21063 6///1 333 11031 21075 7////
AAXX 14124 71278 16/// /3010 11042 21058 60001 333 11039 21063 7////
AAXX 14124 71286 16/// /3214 11027 21050 60001 333 11028 21055 70000
AAXX 14124 71287 16/// /3010 11033 21059 60001 333 11012 21035 70000
AAXX 14124 71289 16/// /2809 11058 21077 60001 333 11025 21109 70000
AAXX 14124 71345 16/// /3116 10004 21048 60001 333 11058 21112 70000
AAXX 14124 71825 12974 62006 11250 21291 39564 40278 56017 60001 80001 333 11129 21279 47067 70000
AAXX 14124 71525 16/// /2905 11109 21129 60001 333 11049 21119 7////
AAXX 14124 71526 16/// /3516 11032 21055 60001 333 11015 21127 70005
AAXX 14124 71535 16/// /3008 11016 21055 60001 333 11070 21152 7////
AAXX 14124 71536 16/// /3407 10002 21064 60001 333 11008 21082 7////
AAXX 14124 71537 16/// /3012 11050 21057 60001 333 11091 21215 70000
AAXX 14124 71916 46/// /3306 11281 21304 30053 40110 51004 6///1 333 11276 21317 7////
AAXX 14124 71464 46/// ///11 10061 30042 40258 56006 6///1 333 10062 20051 7////
AAXX 14124 71214 16/// /3011 11070 21096 60001 333 11030 21098 7////
AAXX 14124 71223 16/// /3212 11055 21078 60001 333 11063 21115 70000
AAXX 14124 71225 16/// /3115 11023 21063 60001 333 11066 21132 70000
AAXX 14124 71227 46/// /3112 11046 21060 6///1 333 11037 21061 7////
AAXX 14124 71683 46/// /1302 11307 30074 40192 58002 6///1 333 11214 21336 7////
AAXX 14124 71949 46/// /1102 11144 21160 39268 40160 51008 6///1 333 11020 21150 7////
AAXX 14124 78846 12580 10103 10255 20/// 30089 40128 81202 333 10278 20218 59009 81820
AAXX 14124 40405 32960 01505 10260 20070 39445 40184 333 59020
AAXX 14124 71924 11974 60521 11248 21296 39927 40019 50000 60001 73622 86030 333 11221 21277 48038 55/// 70012
AAXX 14124 71949 46/// /1102 11144 21160 39268 40160 51008 6///1 333 11020 21150 7////
AAXX 14124 71825 12974 62006 11250 21291 39564 40278 56017 60001 80001 333 11129 21279 47067 70000
AAXX 14121 10962 01586 73102 10060 20017 38948 48404 50001 69911 72162 8457/ 333 32/// 4/998 55303 20691 30561 69907 83625 83656 87460 91115
AAXX 14124 71825 12974 62006 11250 21291 39564 40278 56017 60001 80001 333 11129 21279 47067 70000
AAXX 14124 67002 32580 52804 10304 20245 30083 40117 82802 333 58003 82820 84073 92408
AAXX 14124 67009 32582 73210 10294 20243 39977 40095 56012 872// 333 0//00 87820 555 10322
AAXX 14124 67012 NIL
AAXX 14124 67025 NIL
AAXX 14124 67027 32582 22416 10319 20265 30064 40085 57016 82933 333 0//00 82820 81920 94965 95835 555 81360 82073
AAXX 14124 67045 NIL
AAXX 14124 67072 32582 21606 10298 20237 30107 40110 57013 82202 333 0//00 82820 92428 555 81073
AAXX 14124 67073 31580 2//// 10320 20247 30068 40094 57015 71500 81903 333 0//00 81920 81820 94961 94963 95833 555 81633 81073
AAXX 14124 67083 32581 70000 10295 20186 38726 48503 57016 84932 333 0//00 84820 81920 94967 95837
AAXX 14124 67095 32481 21410 10313 20230 30096 40102 57011 82802 333 0//00 81817
AAXX 14124 67113 NIL
AAXX 14124 67117 NIL
AAXX 14124 67137 31565 6//04 10282 20206 38875 48483 57016 71711 86903 333 0//00 81920 86820 94992 95832 555 10302 81073
AAXX 14124 67143 32582 1//// 10/// 20/// 30110 40117 57010 81230 333 0//00 81820 92438 555 81360
AAXX 14124 67152 32582 4//// 10342 20188 39179 48501 57014 84300 333 0//00 84820 81920 94991 95871
AAXX 14124 67157 32582 1//// 10/// 20/// 30120 40127 57011 81200 333 0//00 81823
AAXX 14124 67161 32582 1//08 10300 20243 30090 40099 56005 81202 333 0//00 81823 555 81073
AAXX 14124 67197 32582 20818 10306 20233 30097 40107 57010 82800 333 0//00 82820 555 81633
AAXX 14121 51711 32680 10000 11085 21133 38071 52004 81100 333 00001
AAXX 14121 51730 32970 00901 11054 21085 40396 52001 333 00100
AAXX 14121 52112 32980 02501 11089 21184 40410 52007 333 00251
AAXX 14121 52737 32980 00000 11105 21255 37119 52013 333 00200
AAXX 14121 52787 32980 73204 11120 21171 37055 52013 80002 333 00153
AAXX 14121 53352 32980 01401 11186 21232 40490 52007
AAXX 14121 53593 32980 00404 11108 21209 40413 52016
AAXX 14121 53705 32970 01401 11028 21101 40395 52019 333 00453
AAXX 14121 53863 32975 02203 11022 21137 40371 52017
AAXX 14121 53975 32980 73202 10021 21133 40338 52020 80002
AAXX 14121 54273 32970 00401 11164 21198 40298 52008
AAXX 14121 54324 32970 03404 11060 21233 40332 52011
AAXX 14121 54405 32980 03401 11095 21206 40398 52014
AAXX 14121 54436 32980 02201 11069 21179 40350 52014
AAXX 14121 54808 32964 60202 11011 21090 40351 52018 80002
AAXX 14121 54826 32980 63617 11105 21244 38499 54000 80002 333 91122 91502
AAXX 14121 54836 32963 03402 11018 21087 40341 52020
AAXX 14121 54863 32970 03605 11007 21077 40320 52022
AAXX 14121 56018 32980 02201 11061 21279 36172 52016 333 00452
AAXX 14121 56021 32980 20402 11105 21268 36070 52013 80002 333 00353
AAXX 14121 57071 32962 70405 10010 21068 40346 52029 80002
AAXX 14123 63631 32570 51904 10300 20/// 48/// 85901 333 85820 81922 555 10///
AAXX 14123 63654 42565 73405 10250 20189 48/// 85970 333 85820 81921 83361 555 10210
AAXX 14124 42027 31995 00502 10070 20028 38442 48529 70500 333 10106 59008
AAXX 14124 42101 31995 00000 10174 20075 40174 70500 333 10216 58018
AAXX 14124 42111 31995 02302 10150 20107 39358 40137 70500 333 10213 59013
AAXX 14124 42131 32996 02701 10176 20092 40163 333 10225 59004
AAXX 14124 42165 31995 00000 10206 20034 40152 70500 333 10255 59012
AAXX 14124 42182 31995 02504 10180 20058 40158 70400 333 10224 59003
AAXX 14124 42189 31/94 90000 10170 20127 40157 71022 89/// 333 10194 58003
AAXX 14124 42260 31996 09902 10169 20052 40161 70500 333 10233 59002
AAXX 14124 42328 32996 20502 10234 21040 40156 80001 333 10258 58002 82075
AAXX 14124 42339 31995 40000 10220 20046 40150 70520 84030 333 10264 58000 84360
AAXX 14124 42348 31996 02904 10218 21024 40152 70500 333 10240 59002
AAXX 14124 42361 31995 00000 10190 20145 40158 70500 333 10247 59001
AAXX 14124 42369 31995 02704 10174 20103 40162 70500 333 10206 58006
AAXX 14124 42379 31994 00902 10148 20102 40158 71040 333 10164 58009
AAXX 14124 42452 32996 20501 10228 20047 40150 80002 333 10254 59002
AAXX 14124 42475 31994 00000 10184 20135 40158 70400 333 10242 59003
AAXX 14124 42071 NIL
AAXX 14121 01023 41589 71207 10030 21029 39689 49781 53002 70222 82578 333 91116
AAXX 14123 42071 32996 00000 10159 20033 40154 333 10218 59010
AAXX 14124 68513 16/// /2512 10185 20082 30041 40153 53003 69921 333 10195 20134 91020 555 20002 69925 91015
AAXX 14124 68514 329// 02809 10216 20039 39669 48537 50000 333 10225 20140 91021 555 91014
AAXX 14124 68523 NIL
AAXX 14124 68527 36/// /2816 10257 21067 39023 48476 57008 333 10262 20147 91026 555 91011
AAXX 14124 68572 11980 82307 10151 20128 38367 48476 52007 60061 75055 80000 333 10222 20144 91011 555 20064 60265 91016
AAXX 14124 68575 16/// /2703 10231 20145 39032 48467 52003 69921 333 10247 20182 91007 555 20002 91010
AAXX 14124 68581 36/// /0503 10284 20197 39297 48474 57008 333 10284 20193 91006 555 91007
AAXX 14124 68583 16/// /0402 10305 20230 39928 40033 57014 69921 333 10312 20231 91004 555 20002 91003
AAXX 14124 68589 36/// /0309 10203 20116 38209 48464 57006 333 10229 20143 91016 555 91015
AAXX 14124 68613 36/// /3106 10158 20104 30044 40160 52011 333 10179 20121 91013 555 91016
AAXX 14124 68647 36/// /2909 10280 20095 38830 48441 57017 333 10286 20141 91018 555 91008
AAXX 14124 68651 16/// /3311 10243 20107 38492 48454 58000 69941 333 10251 20151 91022 555 20004 91013
AAXX 14124 68715 16/// /3005 10128 20090 30009 40138 52015 60051 333 10177 20126 91012 555 20052 91013
AAXX 14124 68717 16/// /2515 10118 20092 30004 40151 53013 60011 333 10168 20112 91023 555 20010 91014
AAXX 14124 68723 36/// /2916 10155 20046 39344 48466 50000 333 10165 20117 91028 555 91010
AAXX 14124 68737 32975 02915 10300 2//// 39150 48453 57017 333 10308 20134 91023 555 91006
AAXX 14124 68744 36/// /3318 10305 21029 38995 48433 57020 333 10309 20152 91031 555 91005
AAXX 14124 68747 36/// /1406 10291 20095 39516 48470 58021 333 10293 20187 91011 555 91004
AAXX 14124 68754 16/// /1410 10162 20155 39066 48451 56006 60071 333 10251 20155 91014 555 20072 60705 91009
AAXX 14124 68817 NIL
AAXX 14124 68821 16/// /3118 10120 20085 39871 40114 53010 60021 333 10172 20111 91029 555 20028 91011
AAXX 14124 68835 36/// /1707 10223 20132 39954 40066 57005 333 10250 20154 91014 555 91006
AAXX 14124 68843 36/// /2308 10226 20158 39956 40053 58007 333 10231 20183 91017 555 91005
AAXX 14124 68849 36/// /1915 10197 20130 39327 48448 58011 333 10217 20158 91021 555 91007
AAXX 14124 68912 11360 63116 10149 20095 30108 40117 50000 60041 72588 86800 333 10152 20113 91020 555 20040 91011
AAXX 14124 68918 16/// /2817 10145 20101 30092 40111 52012 60031 333 10165 20121 91027 555 20036 91011
AAXX 14124 68921 16/// /2824 10171 20055 30100 40103 53007 69921 333 10201 20127 91039 555 20002 91010
AAXX 14124 68925 16/// /3108 10121 20066 39744 40112 52005 60051 333 10134 20095 91018 555 20054 91011
AAXX 14124 68926 32570 82507 10206 20039 39904 40080 53005 885// 333 10245 20128 91012 555 91008
AAXX 14124 68935 36/// /2303 10181 20105 30021 40084 53002 333 10207 20156 91008 555 91008
AAXX 14121 47090 32662 63605 10070 21027 30161 40183 50001 85500 333 10093 3/001 42005 92022
AAXX 14121 47095 11540 62903 10006 21029 30042 40236 53011 69902 71022 85500 333 10036 34000
AAXX 14121 47097 329// /2703 10012 21029 30128 40226 51004 333 10039 3/000
AAXX 14121 47098 329// /3207 10012 21025 30094 40231 52015 333 10046 3/000
AAXX 14121 47099 329// /3206 10011 21028 30203 40240 52018 333 10065 3/000
AAXX 14121 47100 31450 52717 10003 21032 39271 40199 50002 71022 85500 333 10028 3/000 49029
AAXX 14121 47102 32665 42911 11005 21075 30083 40267 52018 84500 333 10069 31000
AAXX 14121 47104 32662 52905 10070 21032 30085 40182 58002 85500 333 10109 3/001 43008
AAXX 14121 47106 329// /3204 10076 21035 30136 40185 57005 333 10109 3/002
AAXX 14121 47112 11656 23418 10035 21008 30153 40238 52018 69902 70521 82500 333 10086 30002 92025
AAXX 14121 47114 31658 60201 10025 21036 30035 40220 51003 70522 85500 333 10050 30000
AAXX 14121 47119 31650 53208 10044 21008 30190 40233 52014 71011 85500 333 10071 31101
AAXX 14121 47121 129// /0001 10045 21015 39922 40218 56002 69902 333 10074 3/001
AAXX 14121 47127 329// /0001 10031 20009 30082 40226 51003 333 10060 3/002
AAXX 14121 47129 31650 83210 10057 20006 30209 40245 52016 70522 886// 333 10082 31004
AAXX 14121 47130 32665 52007 10078 21009 30134 40195 57006 85500 333 10129 31003 92023
AAXX 14121 47131 32662 82702 10053 21005 30157 40228 52004 8552/ 333 10079 30003
AAXX 14121 47135 329// /2707 10063 20016 39922 40221 57003 333 10080 3/003
AAXX 14121 47136 32665 63602 10047 21007 30043 40217 51002 85500 333 10101 30000
AAXX 14121 47137 329// /2303 10067 20003 30102 40221 54000 333 10094 3/003
AAXX 14121 47140 11658 63404 10045 20028 30207 40236 52004 69902 71022 86500 333 10078 31004 92012
AAXX 14121 47143 32663 62503 10089 20000 30147 40225 50001 85500 333 10124 30005
AAXX 14121 47145 31657 72904 10055 20030 30197 40224 52007 71022 87500 333 10083 31003
AAXX 14121 47146 31658 61804 10072 20016 30168 40234 51003 70522 86500 333 10106 31005
AAXX 14121 47150 11650 73406 10069 20019 30218 40237 52009 69952 71022 87500 333 10081 31004
AAXX 14121 47152 32973 02502 10056 21004 30173 40216 51007 333 10136 30001
AAXX 14121 47154 329// /0000 10070 20010 30162 40222 50002 333 10107 3/004
AAXX 14121 47155 32970 03403 10089 21015 30177 40223 52008 333 10135 30003
AAXX 14121 47156 32661 42504 10087 20035 30153 40242 52007 84500 333 10121 31006
AAXX 14121 47157 32663 62304 10073 20009 39943 40212 51002 85500 333 10111 31004
AAXX 14121 47162 32970 00203 10087 20011 30187 40227 52007 333 10131 30004 92022
AAXX 14121 47169 32662 53414 10096 20035 30149 40242 50008 85500 333 10136 31008 92034
AAXX 14121 47170 32666 52907 10089 20035 30196 40239 52005 85500 333 10133 30006 92023
AAXX 14121 47171 129// /0000 10070 20022 30183 40238 52005 69902 333 10114 3/005
AAXX 14121 47172 329// /1802 10074 20024 30169 40236 52007 333 10122 3/006
AAXX 14121 47173 329// /0000 10048 20009 30124 40236 51004 333 10112 3/004
AAXX 14121 47174 32662 30902 10068 20006 30029 40231 51005 83500 333 10124 31004
AAXX 14121 47175 32562 33409 10055 20042 39665 40241 52005 83500 333 10109 30005 92023
AAXX 14121 47185 32670 43215 10127 20053 30149 40239 50001 84500 333 10139 30009 92034
AAXX 14121 47188 32670 33603 10069 20025 30218 40240 50003 83500 333 10139 30006 92022
AAXX 14121 47189 32670 33403 10121 20033 30174 40233 50005 83500 333 10158 30007 92022
AAXX 14121 47192 32664 22301 10018 21027 30191 40229 52006 82500 333 10128 30002
AAXX 14121 47003 32980 03206 11052 21149 30212 40216 52020 333 10050
AAXX 14121 47005 12980 01402 11186 21205 38573 52012 69962 333 11057
AAXX 14121 47022 32475 53401 11117 21143 38815 52020 85500 333 11002
AAXX 14121 47028 32964 03604 11051 21125 30174 40274 52029 333 10014
AAXX 14121 47031 32570 13201 11109 21137 38907 52013 81500 333 11025
AAXX 14121 47037 32970 03604 11037 21113 30129 40257 52020 333 10033
AAXX 14121 47039 12960 00000 11041 21059 30002 40200 57025 69912 333 10011
AAXX 14121 47046 32969 52302 10011 21073 30155 40178 52019 83032 333 10088
AAXX 14121 47050 32965 03203 11016 21094 30208 40243 52019 333 10018
AAXX 14121 47052 12565 83203 11014 21043 39884 40230 52011 60022 885// 333 10005
AAXX 14121 47060 12960 03206 11015 21042 30202 40262 52020 60012 333 10022
AAXX 14121 47061 NIL
AAXX 14121 47065 11960 03204 11020 21059 30191 40258 52016 69922 71020 333 10021
AAXX 14121 47067 11960 83204 11010 21042 30130 40254 52008 69932 71022 80001 333 11005
AAXX 14121 47068 32560 13205 11002 21062 30213 40249 52018 81500 333 10038
AAXX 14121 47070 11960 03205 10006 21017 30155 40245 52017 69902 71020 333 10052
AAXX 14121 47075 11580 82303 11010 21046 39726 40162 52006 69932 72272 885// 333 10005
AAXX 14121 47008 32970 03209 11035 21087 30148 40204 52022 333 10057
AAXX 14121 47014 12950 00000 11151 21202 39848 40280 52013 60012 333 11033
AAXX 14121 47016 11570 80000 11119 21171 39359 40257 52018 69982 70172 885// 333 11031
AAXX 14121 47020 12565 70000 11066 21122 39884 40281 52024 69912 87500 333 11009
AAXX 14121 47025 32560 30000 10016 21089 30142 40171 52022 83500 333 10101
AAXX 14121 47035 32962 03604 11060 21098 30280 40289 52028 333 10015
AAXX 14121 47041 32970 03202 10017 21017 30177 40205 52036 333 10089
AAXX 14121 47055 NIL
AAXX 14121 47058 12960 03204 11024 21084 30209 40258 52012 69932 333 10010
AAXX 14121 47069 31556 83204 11006 21024 30144 40247 52026 71022 885// 333 10073
AAXX 14121 47101 32560 61603 10025 21022 30123 40220 53001 85500 333 10035 34101
AAXX 14121 47105 369// /2509 10075 21031 30151 40183 57005 333 10110 3/003
AAXX 14121 47108 11630 62709 10031 21012 30127 40234 52019 69902 70522 86500 333 10072 30002
AAXX 14121 47115 32675 22907 10080 21023 39913 40183 55003 81501 333 10113 3/003 41/// 92033
AAXX 14121 47133 11658 72003 10058 20005 30142 40228 58002 69902 70522 87500 333 10074 31003
AAXX 14121 47138 32568 22502 10088 20007 30209 40212 54000 81500 333 10132 30006 92021
AAXX 14121 47159 32970 02708 10086 21023 30136 40221 52005 333 10144 30005 92023
AAXX 14121 47165 32661 53605 10080 20043 30194 40241 52007 85500 333 10104 31005 92022
AAXX 14121 47168 32663 22904 10089 21007 30151 40230 52006 82500 333 10126 30004 92022
AAXX 14121 47184 32670 43208 10118 20037 30217 40242 50002 84500 333 10140 30008 92023
AAXX 14124 60514 12960 60000 10150 20062 39344 48572 54000 60001 82082 333 0//00 83360 85073 95900
AAXX 14123 67975 41975 70000 10266 20162 38885 48479 70262 8707/ 333 87460
AAXX 14123 67991 42775 50000 10299 20200 39536 48462 83132 333 83850 83460
AAXX 14124 67975 41975 70000 10266 20162 38885 48479 70262 8707/ 333 58007 87460
AAXX 14124 67991 42775 50000 10299 20200 39536 48462 83132 333 58002 83850 83460
AAXX 14121 50548 32980 00201 11238 21268 40279 52003
AAXX 14121 50564 32970 00000 11245 21277 40267 52008
AAXX 14121 51334 11770 80402 11076 21094 40381 52006 69901 77070 885// 333 05252
AAXX 14121 51818 32965 22901 11019 21086 40380 52012 80002 333 00354
AAXX 14121 52378 32980 01401 11117 21198 40466 52010 333 00453
AAXX 14121 53487 32970 00202 11126 21206 40425 52015
AAXX 14121 53502 32980 02001 11079 21158 40438 52011 333 00452
AAXX 14121 53923 32980 70901 11010 21126 40365 52017 82042
AAXX 14121 54049 32970 02502 11121 21227 40288 52002
AAXX 14121 54115 32980 02504 11151 21239 40368 52001
AAXX 14121 54157 32962 02202 11106 21190 40298 52003
AAXX 14121 54186 32970 02202 11149 21188 40270 52007
AAXX 14121 54311 32980 03203 11147 21215 40394 52010
AAXX 14121 54346 32965 00901 11100 21159 40318 52008
AAXX 14121 54377 32970 03601 11096 21157 40294 52024
AAXX 14121 54386 32570 50402 11133 21190 40264 52018 85500
AAXX 14121 54493 32974 03204 11085 21159 40297 52023
AAXX 14121 54587 NIL
AAXX 14121 54715 32968 00402 11022 21134 40358 52021
AAXX 14121 54929 32965 72902 10014 21055 40326 52025 80002
AAXX 14121 54945 32566 23205 10010 21031 40323 52025 82500
AAXX 14121 56065 32680 63406 11088 21200 36628 52034 82502 333 00252
AAXX 14121 57193 32960 70203 10025 21045 40332 52021 80002
AAXX 14121 57290 32960 70201 10037 21009 40328 52026 80002
AAXX 14124 68523 NIL
AAXX 14124 68817 NIL
BBXX 46208 14121 99525 71327 46/// /1305 10062 40159 57011 22200 00075 11205 70025 333 91206
BBXX 46208 14121 99525 71327 46/// /1305 10062 40159 57011 22200 00075 11205 70025 333 91206
AAXX 14123 63631 32570 51904 10300 20/// 48/// 85901 333 85820 81922 555 10///
AAXX 14123 63654 42565 73405 10250 20189 48/// 85970 333 85820 81921 83361 555 10210
AAXX 14124 68174 31670 73605 10253 20157 38751 48481 58016 70522 85182 333 10253 20163 91008 555 91014
AAXX 14124 68191 36/// /3608 10333 20152 39579 48522 58017 333 10348 20245 91017 555 91008
AAXX 14124 68242 32680 40112 10267 20149 38668 48453 58004 83102 333 10271 20155 91019 555 91011
AAXX 14124 68262 16/// /0104 10240 20145 38670 48480 58010 69921 333 10255 20184 91010 555 20002 91014
AAXX 14124 68263 32680 60108 10222 20146 38453 48478 58007 83570 333 10232 20159 91013 555 91016
AAXX 14124 68267 NIL
AAXX 14124 68289 36/// /0406 10293 20170 39094 48486 58023 333 10298 20199 91010 555 91010
AAXX 14124 68350 16/// /0610 10221 20177 38624 48476 58013 60161 333 10224 20162 91014 555 20162 91014
AAXX 14124 68368 42686 50214 10221 20132 38289 48482 58012 82132 333 20161 555 91017
AAXX 14124 68403 16/// /2610 10207 20067 30144 40177 51005 69921 333 10207 20157 91016 555 20002 91017
AAXX 14124 68424 32982 02712 10257 21035 39167 48503 58000 333 10261 20128 91020 555 69925 91013
AAXX 14124 68438 32782 33009 10278 20037 38753 48455 58010 81432 333 10279 20118 91017 555 91010
AAXX 14124 68442 32580 73411 10238 20149 38605 48459 58012 8427/ 333 10249 20145 91019 555 91012
AAXX 14124 68461 12580 63109 10217 20142 38284 48465 58006 69941 85570 333 10217 20147 91015 555 20004 69945 91015
AAXX 14124 68512 32582 72713 10124 20046 39013 48499 55000 875// 333 10127 20085 91021 555 91016
AAXX 14124 68538 32982 13220 10252 21049 38653 48442 58009 80002 333 10261 20150 91032 555 91010
AAXX 14124 68587 36/// /2110 10231 20195 30046 40058 52008 333 10252 20227 91014 555 91005
AAXX 14124 68588 36/// /1814 10246 20209 30046 40062 53005 333 10307 20231 91023 555 91006
AAXX 14124 68591 36/// /2017 10242 20208 39883 40059 52008 333 10285 20236 91024 555 91006
AAXX 14124 68592 NIL
AAXX 14124 68618 31570 72717 10136 20037 39031 48490 51001 72055 875// 333 10137 20092 91024 555 91015
AAXX 14124 68633 36/// /3316 10261 21064 38438 48430 58011 333 10262 20092 91027 555 91010
AAXX 14124 68668 32570 71215 10233 20174 39220 48460 51001 85501 333 10271 20195 91023 555 91008
AAXX 14124 68714 16/// /2811 10148 20061 30097 40134 52006 60011 333 10170 20119 91019 555 20012 91013
AAXX 14124 68727 36/// /3017 10237 21010 39048 48446 58007 333 10243 20092 91029 555 91007
AAXX 14124 68752 36/// /1210 10204 20156 39396 48463 56016 333 10249 20185 91016 555 91008
AAXX 14124 68816 11775 33021 10153 20085 30064 40119 50014 60091 70188 83500 333 20109 91028 555 91011
AAXX 14124 68828 NIL
AAXX 14124 68842 32580 32217 10216 20137 39998 40066 55011 83500 333 20176 555 91006
AAXX 14124 68858 11175 82410 10184 20167 39912 40067 50001 60001 79592 885// 333 20183 555 91007
AAXX 14124 68906 11398 82314 10131 20120 39980 40044 53007 69981 75055 886// 222// 00125 20401 333 10160 20131 91020 555 20008 91004
AAXX 14124 68994 12398 83409 10108 20100 30143 40172 57011 69941 886// 222// 00064 309// 40201 333 10115 20074 91015 555 20004 91017
AAXX 14124 89004 31880 70923 11110 21142 38775 49792 52005 73633 80008 333 11105 21121 91027 555
AAXX 14123 87791 32980 23610 10218 20132 30194 40202 57005 80006 333 10222 20150 30000 56000 82270
AAXX 14121 29594 11999 01101 11192 21204 30037 40458 51004 69922 70281 333 11128
BBXX 46206 14121 99488 71260 46/// /1903 10080 40187 57006 22200 00084 11304 70021 333 91204
AAXX 14121 08541 11468 73204 10156 20128 30146 40265 52013 60011 70165 878// 333 81815 87624 91006 91106
AAXX 14121 08541 11468 73204 10156 20128 30146 40265 52013 60011 70165 878// 333 81815 87624 91006 91106 555 50014 60005
BBXX 46206 14121 99488 71260 46/// /1903 10080 40187 57006 22200 00084 11304 70021 333 91204
AAXX 14124 68828 42570 71808 10168 20121 39857 40087 53008 875// 333 20161 555 91008
AAXX 14121 50658 32965 03201 11201 21227 40269 52003
AAXX 14121 50888 11980 33204 11142 21185 40216 52023 69911 70070 83030
AAXX 14121 50983 32770 83403 11131 21160 40211 52024 83507
AAXX 14121 51053 32980 70905 11100 21144 40378 57010 80002 333 05301
AAXX 14121 51542 32980 12902 11170 21193 37605 52006 80002 333 05154
AAXX 14121 52436 32980 11101 11082 21125 38565 40419 52005 80002 333 00052
AAXX 14121 52908 32980 22704 11151 21341 35752 52011 80002 333 00354 91119 91529
AAXX 14121 52996 32980 70704 11075 21137 37613 52015 80002 333 00252
AAXX 14121 53083 32980 00000 11276 21303 40470 54000 333 00358
AAXX 14121 53764 32970 02502 11060 21136 40399 52006
AAXX 14121 53787 32980 00702 11048 21112 40362 52016
AAXX 14121 54096 32970 02907 11148 21196 40219 52021 333 91118 91527
AAXX 14121 54226 32980 03205 11094 21224 40336 52008
AAXX 14121 54259 32965 00000 11148 21181 40318 52013
AAXX 14121 54527 32960 03405 11023 21179 40363 52020
AAXX 14121 54534 32965 02901 11076 21153 40350 52020
BBXX 46205 14121 99542 71343 46/// /1604 10059 40158 57009 22200 00076 11305 70026 333 91205
BBXX 46132 14121 99497 71279 46/// /1806 10086 40158 57008 22200 00082 11205 70025 333 91208
AAXX 14124 68267 NIL
AAXX 14124 68592 NIL
AAXX 14124 91680 11698 10000 10224 20223 40107 58005 69911 70180 81100 333 10302 569// 81830
BBXX 46132 14121 99497 71279 46/// /1806 10086 40158 57008 22200 00082 11205 70025 333 91208
AAXX 14124 42559 32996 20000 10222 20116 40134 80002 333 10261 59006 82075
AAXX 14124 42571 32996 10000 10214 20070 40148 80001 333 10256 59001
AAXX 14124 42667 31996 30502 10230 20109 39555 40143 70500 333 10230 59003 83075
AAXX 14124 42675 31996 00000 10194 20092 40154 70500 333 10237 58002
AAXX 14124 42754 31996 30505 10234 20093 39502 40134 70522 80001 333 10264 58001 83075
AAXX 14124 42779 32996 00000 10194 20088 39448 40151 333 10250 58002
AAXX 14124 42867 31996 20902 10236 20120 40137 70511 80001 333 10286 58006 82075
AAXX 14124 42874 32996 00000 10248 20118 40132 333 10282 59001
AAXX 14124 42933 32997 30000 10266 20111 40130 81031 333 10314 58004 81360 83075
AAXX 14124 43041 32996 00000 10250 20147 39519 40132 333 10281 58008
AAXX 14124 68183 12678 60507 10280 20194 39393 48507 58013 69941 84172 333 10280 20213 91010 555 20004 91010
AAXX 14124 68188 36/// /0504 10291 20190 39148 48496 58021 333 10301 20195 91009 555 91011
AAXX 14124 68268 16/// /0507 10266 20186 38846 48494 57016 60051 333 10266 20184 91011 555 20054 91014
AAXX 14124 68272 16/// /1502 10271 20177 39029 48488 57022 60011 333 10277 20190 91006 555 20018 69925 91012
AAXX 14124 68296 32570 70305 10343 20174 39744 48516 57022 875// 333 10346 20215 91013 555 91005
AAXX 14124 68322 36/// /2707 10283 21024 39113 48502 57015 333 10284 20136 91015 555 91012
AAXX 14124 68338 32670 63111 10293 20121 38704 48444 57015 84306 333 10293 20158 91019 555 91009
AAXX 14124 68345 16/// /0217 10222 20176 38625 48469 58005 60011 333 10232 20160 91021 555 20012 91013
AAXX 14124 68362 11470 82807 10186 20167 38479 48481 53002 60011 7//66 885// 333 10244 20160 91018 555 20014 60145 91016
AAXX 14124 68400 NIL
AAXX 14124 68408 32/// /2604 10187 20136 30159 40167 58002 333 10191 20128 91006 555 91016
AAXX 14124 68416 32684 52810 10198 20040 39018 48493 57008 85500 333 10202 20094 91018 555 91014
AAXX 14124 68478 NIL
AAXX 14124 68488 NIL
AAXX 14124 68494 NIL
AAXX 14124 68524 32586 12816 10233 21006 39022 48483 58005 81500 333 10233 20093 91029 555 91012
AAXX 14124 68546 16/// /0210 10231 20150 38587 48435 58012 60021 333 10240 20122 91021 555 20024 91009
AAXX 14124 68558 NIL
AAXX 14124 68570 NIL
AAXX 14124 68580 NIL
AAXX 14124 68614 32980 02910 10195 20083 30104 40145 53001 333 10213 20146 91024 555 91014
AAXX 14124 68624 32882 62821 10176 21000 38698 48470 56001 86200 333 10191 20059 91032 555 91013
AAXX 14124 68674 16/// /2104 10244 20225 30033 48504 51006 60031 333 10258 20230 91009 555 20036 69945 91006
AAXX 14124 68712 16/// /3110 10124 20092 30066 40132 52005 60011 333 10159 20112 91013 555 20018 69945 91013
AAXX 14124 68718 32489 82814 10158 20049 39867 40114 52017 886// 333 10203 20136 91025 555 91011
AAXX 14124 68722 31730 82817 10087 20037 38503 48460 57004 76000 8802/ 333 10118 20065 91034 555 91013
AAXX 14124 68814 16/// /3313 1//// 2//// 30127 4//// 52011 60031 333 1//// 2//// 91017 555 20030 91013
AAXX 14124 68832 36/// /2711 10227 21011 39112 48448 57011 333 10233 20091 91021 555 91007
AAXX 14124 68916 11260 83024 10120 20088 39842 40114 52002 60061 76062 885// 333 10128 20076 91031 555 20064 69925 91011
AAXX 14124 68920 32470 42712 10154 20062 30090 40103 52006 84800 333 10182 20134 91031 555 91010
AAXX 14124 68928 16/// /1906 10188 20112 39927 40086 53002 60011 333 10201 20148 91011 555 20010 91008
AAXX 14124 68155 16/// /1902 10253 20212 39139 48478 57018 60021 333 10277 20216 91005 555 20020 69965 91010
AAXX 14124 68171 NIL
AAXX 14124 68176 16/// /3506 10292 20173 39090 48493 5//// 69921 333 10302 20279 91013 555 20002 91011
AAXX 14124 68181 NIL
AAXX 14124 68182 36/// /0702 10286 20202 39295 48505 58015 333 10291 20199 91003 555 91011
AAXX 14124 68185 36/// /3509 10248 20153 38496 48428 53011 333 10248 20171 91014 555 91009
AAXX 14124 68253 NIL
AAXX 14124 68255 16/// /3403 10237 20153 38824 48476 58008 69921 333 10239 20174 91006 555 20002 91013
AAXX 14124 68271 NIL
AAXX 14124 68273 16/// /3307 10228 20164 38424 48477 57018 60141 333 10228 20152 91012 555 20142 91016
AAXX 14124 68287 NIL
AAXX 14124 68291 36/// /3209 10321 20154 39476 48510 58017 333 10328 20224 91016 555 91008
AAXX 14124 68297 NIL
AAXX 14124 68329 36/// /2408 10285 21033 39055 48501 57010 333 10293 20151 91014 555 91013
AAXX 14124 68331 36/// /2911 10282 21025 38814 48507 57003 333 10288 20143 91022 555 91016
AAXX 14124 68335 36/// /1803 10263 20110 38872 48488 58011 333 10265 20150 91006 555 91013
AAXX 14124 68341 16/// /3612 10238 20169 38489 48473 58006 69941 333 10243 20159 91020 555 20004 91015
AAXX 14124 68342 NIL
AAXX 14124 68343 36/// ///// 10275 20147 38720 48450 58008 333 10279 20178 555 91010
AAXX 14124 68349 16/// /3515 10230 20171 38465 48458 57008 60291 333 10234 20160 91024 555 20296 91013
AAXX 14124 68353 36/// /3005 10213 20161 38485 48463 58003 333 10226 20159 91009 555 91014
AAXX 14124 68355 NIL
AAXX 14124 68370 NIL
AAXX 14124 68377 36/// /3313 10278 20135 38705 48451 58010 333 10278 20203 91019 555 91010
AAXX 14124 68380 36/// /3106 10228 20137 3//// 4//// 5//// 333 10228 20161 91010 555
AAXX 14124 68387 36/// /3615 10286 20176 38804 48474 57011 333 10290 20219 91046 555 91012
AAXX 14124 68411 36/// /1608 10226 20048 39948 40154 51000 333 10226 20165 91019 555 91016
AAXX 14124 68429 NIL
AAXX 14124 68449 16/// /0703 10204 20152 38353 48464 58016 60011 333 10207 20150 91006 555 20014 91015
AAXX 14124 68471 36/// /3312 10233 20127 38280 48453 58007 333 10239 20150 91024 555 91014
AAXX 14124 68474 NIL
AAXX 14124 68479 NIL
AAXX 14124 68481 NIL
AAXX 14124 68487 16/// /0106 10255 20173 38938 48471 57005 69921 333 10260 20160 91013 555 20002 91011
AAXX 14124 68491 NIL
AAXX 14124 68497 NIL
AAXX 14124 88900 46/// /2313 10032 20027 30050 40053 53000 333 10043 20031
BBXX A8MV6 14123 99061 10952 41498 60410 10270 20241 40100 54000 70322 84263 22273 04300 20601 30299 40801 5//// 80250
AAXX 14124 82141 32598 40506 10289 20248 30088 40100 83230 333 20264 59003
AAXX 14124 82145 32598 50504 10290 20225 30056 40097 83240 333 20189 59015
AAXX 14124 82181 32497 50507 10271 20235 39995 40134 85100 333 20246 58004
AAXX 14124 82198 32495 70909 10289 20215 30049 40100 84260 333 20240 58002
AAXX 14124 82353 32598 63606 10277 20236 39995 40079 84130 333 20236 58002
AAXX 14124 82361 32497 60204 10284 20238 30075 40112 86500 333 20258 59005
AAXX 14124 82476 22595 61004 10270 20233 39989 40108 86800 333 20225 59013 69934
AAXX 14124 82861 21597 41404 10263 20235 39908 40078 70262 82130 333 20236 59008 60164
AAXX 14124 83264 21795 82302 10233 20226 39668 40133 76166 8452/ 333 20228 59013 60164
AAXX 14124 83358 32798 70000 10243 20223 39671 40067 84472 333 20214 59009
AAXX 14124 82098 32497 60000 10298 20237 30080 40097 8367/ 333 20249 59004
AAXX 14124 82246 32998 00503 10276 20242 39910 40107 333 20232 59002
AAXX 14124 82445 31697 60000 10264 20248 30066 40118 71010 84570 333 20247 59006
AAXX 14124 82460 32597 70504 10288 20237 30079 40108 84230 333 20250 58001
AAXX 14124 82562 32597 81404 10262 20241 30008 40116 8552/ 333 20238 58006
AAXX 14124 82571 32497 63605 10273 20236 39931 40105 83230 333 20238 59005
AAXX 14124 82765 32598 71103 10249 20227 39901 40142 85130 333 20235 59007
BBXX A8JM6 14124 99269 70205 41597 50608 10215 20157 40262 52030 70222 851// 22284 04219 20204 301// 40205 80178
BBXX A8RL4 14124 99297 70149 41598 30611 10215 20143 40290 54000 7//22 83100 22243 00200 20401 80170
BBXX DMDZ 14123 99287 70202 41598 30814 10200 20144 40300 52020 70200 8318/ 22253 04200 20501 301// 41206 5//// 80165
BBXX AMOUK15 14124 99079 50144 46/// ///// 10258 20181 30109 40138 52005 91150
BBXX AMOUK17 14124 99328 30563 46/// ///// 10193 20127 30219 40235 54000 91150
BBXX ZSAF 14124 99526 30000 41295 83214 10027 20015 49726 57041 75155 8562/ 22243 04017 2//// 333// 40912 5////
BBXX DPMT 14124 99006 50311 41497 31223 10260 20221 40102 54000 70100 81101 22244 20505 80232
BBXX A8PK8 14123 99191 10393 41598 31512 10285 20202 40154 58029 70211 8314/ 22234 04292 20201 315// 40202 5//// 80230
BBXX DHTK 14124 99139 70292 41396 70318 10267 20209 40138 51009 70222 83637 22214 00260 2//05 80226
BBXX MDTE9 14123 99413 70579 41197 80441 10111 20087 40099 58/// 78182 88/9/ 22223 00171 20804 304// 40610 5//// 80099
BBXX V2NA1 14124 99315 70737 41/98 43523 10185 20120 40232 55000 70311 8/400 22224 04220 20506 80146
BBXX PENR 14123 99363 70397 41397 81722 10198 20169 40223 56001 72165 882// 22224 20604 319// 41005 80180
BBXX ZCEE2 14124 99162 70689 41598 30322 10280 20221 40065 58023 7//// 83100 22284 00280 20402 305// 40803 5//// 80240
BBXX DGSE 14123 99345 71267 41296 82214 10125 20116 40220 52002 763// 887// 22234 00140 2//// 80120
BBXX ZCDS3 14121 99307 70687 41598 53510 10210 20149 40187 51016 70311 85200 22264 00240 20404 303// 40705 5//// 80174
BBXX DFRZ 14123 99125 70595 41598 40909 10280 20232 40120 52005 7//11 83861 22254 2//// 30000 80245
AAXX 14124 82392 32499 60505 10290 20204 39997 40099 83230 333 20230 59003
AAXX 14124 82583 32599 60910 10283 20191 39763 40097 85201 333 20247 59009
AAXX 14124 82594 32697 51410 10284 20191 30099 40107 82112 333 20224 59007
AAXX 14124 82683 32595 61406 10275 20181 39664 40112 86500 333 20233 59005
AAXX 14124 82780 32597 60504 10286 20192 39880 40130 83440 333 20246 59006
AAXX 14124 82789 32599 31405 10215 20161 38930 40023 83200 333 20169 59005
AAXX 14124 82795 32597 50906 10249 20190 39516 40130 85100 333 20210 59006
AAXX 14124 82879 32598 60506 10278 20226 39844 40109 86100 333 20226 59005
AAXX 14124 82893 32798 40913 10248 20192 39214 40108 84200 333 20180 59003
AAXX 14124 82979 32498 40511 10269 20185 39655 40101 82120 333 20228 59010
AAXX 14124 82986 32598 50906 10287 20181 39830 40111 84101 333 20217 59002
AAXX 14124 83179 21598 62302 10247 20219 39664 40112 70262 83220 333 20218 59002 60214
AAXX 14124 83192 32597 60513 10279 20158 39961 40125 84240 333 20207 59010
AAXX 14124 83339 21497 61404 10211 20198 39147 40112 70262 86200 333 20192 59003 60034
AAXX 14124 83498 32595 73606 10271 20241 30142 40147 83520 333 20230 58004
AAXX 14124 82143 31598 60210 10290 20236 40113 7030/ 83276 222// 80250 333 20255 59006
AAXX 14124 83117 31296 81201 10250 20222 40100 54001 7030/ 8877/ 222// 02200 20101 80230 333 20210
BBXX A8CJ2 14124 99343 50723 41/93 83307 10160 20144 40150 52010 70044 8//// 22284 04160 21003 325// 41205 5//// 80150
BBXX 62141 14123 99493 50590 41697 33526 10122 40186 57006 72100 83148 22200 20604 33232 40502 50604
BBXX SHIP 14121 99156 50751 41997 21209 10220 20175 40140 53010 70100 80008 22234 20102 315// 41205 80190
AAXX 14124 82586 32598 53613 10284 20222 39882 40119 85200 333 20240 58011
AAXX 14124 82678 22596 82701 10262 20235 39972 40114 8682/ 333 20224 59010 60154
AAXX 14124 82791 32599 60507 10283 20184 39835 40111 86200 333 20164 59005
AAXX 14124 82983 32597 61409 10262 20207 39696 40110 81109 333 20232 59008
AAXX 14124 83096 32695 20905 10279 20221 30110 40117 82100 333 20245 59010
AAXX 14124 83186 21597 80905 10223 20190 39582 40112 70355 887// 333 20203 59004 60014
AAXX 14124 83236 21598 80502 10214 20207 39622 40115 76166 88900 333 20205 59003 60604
AAXX 14124 83242 21496 82303 10220 20215 39649 40145 71062 887// 333 20222 58002 60304
AAXX 14124 83288 32798 73203 10259 20219 39616 40104 87070 333 20220 59012
AAXX 14124 83344 22498 80633 10215 20190 39162 40123 887// 333 20178 59001 60064
AAXX 14124 83599 31195 899// 10245 20236 40103 51001 71022 856// 222// 02239 0501 80235
AAXX 14124 83650 42698 70809 10275 20228 40180 52010 7//// 82531 222// 02255 21003 80240 333 20230
AAXX 14124 83925 32998 71205 10200 20182 40095 52012 7032/ 82630 222// 20000 80188 333 20180
AAXX 14124 83970 41198 71403 10230 20201 30090 40094 52010 7012/ 87400 222// 02200 20301 80210 333 20190
AAXX 14121 30499 12999 03402 11236 21284 39588 40302 52006 69902 333 11195
AAXX 14121 30683 329// 43402 11190 21248 39615 40309 53007 83044 333 11176
AAXX 14121 30695 12999 53404 11210 21267 39921 40283 53002 69902 83034 333 11192
AAXX 14121 31253 32999 00000 11304 21334 39748 40257 53007 333 11256
AAXX 14121 31295 12999 43404 11216 21273 39772 40265 53007 69902 80001 333 11176
AAXX 14121 31348 32998 00000 11289 21301 39998 40214 54000 80007 333 11196
AAXX 14121 31418 32984 20000 11233 21299 39925 40201 57001 80001 333 11157
AAXX 14121 31439 12999 00000 11278 21296 30132 40181 57002 69900 333 11198
AAXX 14121 31442 11997 32903 11220 21252 39861 40244 54000 69902 70271 82030 333 11185
AAXX 14121 31445 32984 02903 11224 21249 39965 40239 54000 333 11166
AAXX 14121 31474 32998 00000 11349 21384 39706 40254 52009 333 11229
AAXX 14121 31521 32984 82901 11249 21268 39924 40242 52006 80007 333 11189
AAXX 14121 31527 32998 03201 11233 21258 39910 40238 52005 333 11180
AAXX 14121 31534 32999 00000 11252 21271 39852 40228 52009 333 11186
AAXX 14121 31587 32999 13101 11223 21264 30093 40251 52010 80001 333 11176
AAXX 14121 31632 NIL
AAXX 14121 31702 32998 02701 11230 21256 39869 40235 51010 333 11150
AAXX 14121 31713 32999 03602 11220 21246 52010 333 11131
AAXX 14121 31725 32998 33602 11179 21220 30112 40183 52011 80002 333 11110
AAXX 14121 31801 11997 80000 11126 21146 39910 40145 52014 60010 77172 80007 333 11116
AAXX 14121 30455 329// 80000 11266 21297 38997 48509 52012 80002 333 11195
AAXX 14121 30731 119// 61201 11168 21194 39762 40418 52014 60022 70272 86070 333 11115
AAXX 14121 30739 329// 00000 11285 21310 39528 40449 52017 333 11130
AAXX 14121 30741 329// 00000 11248 21280 38774 48555 52020 333 11198
AAXX 14121 30745 129// 01702 11317 21341 39167 40472 52014 69932 333 11184
AAXX 14121 30764 32998 00000 11330 21354 39521 40430 52015 333 11205
AAXX 14121 30829 11984 13303 11194 21227 39695 40445 52020 69902 70281 81040 333 11100
AAXX 14121 30838 11598 62602 11159 21172 39361 40408 52019 69972 72687 83902 333 11125
AAXX 14121 30846 11998 00000 11249 21289 39419 40423 52018 69922 70411 333 11125
AAXX 14121 30859 32999 02802 11244 21284 39473 40394 52015 333 11152
AAXX 14121 30862 32973 00000 11242 21274 39567 40378 52008 333 11195
AAXX 14121 30957 119// 00000 11218 21230 39417 40393 52021 69932 70181 333 11111
AAXX 14121 30975 32998 00901 11315 21345 39642 40374 52006 333 11241
AAXX 14121 31825 31661 80000 11174 21193 39927 40148 58008 78582 889// 333 11140
AAXX 14121 31845 11996 82602 11105 21125 39987 40156 52023 60040 77372 8802/ 333 11106
AAXX 14121 31878 11659 83103 11117 21151 30079 40209 51023 60020 77173 8252/ 333 11034
AAXX 14121 31915 12998 02903 11124 21196 39945 40223 52027 69900 333 10015 91113
AAXX 14121 31921 12997 82902 11103 21166 30115 40217 51023 69900 8801/ 333 11005
AAXX 14121 31969 32/// /2909 11070 21155 30167 40218 53019 333 10012
AAXX 14121 31981 11599 83602 11089 21128 39963 40207 53026 69990 72682 889// 333 11017
AAXX 14121 31987 12599 33608 11069 21168 39913 40180 51026 60010 83500 333 10005 91014 91116
AAXX 14121 32069 11598 21204 11197 21223 30158 40164 54000 69900 70281 82900 333 11101 91005 91108
BBXX 44062 14121 99386 70764 46/// /0703 1//// 91220 22200 00089 333 91204
BBXX 44062 14121 99386 70764 46/// /0603 1//// 40275 91210 22200 00089 333 91204
BBXX 44062 14121 99386 70764 46/// /0603 10066 40276 52003 91200 22200 00089 1//00 70001 333 91204
BBXX 44063 14121 99390 70764 46/// /0000 1//// 91220 333 91200
BBXX 44063 14121 99390 70764 46/// /0000 1//// 40305 91210 333 91200
BBXX 44063 14121 99390 70764 46/// /0000 10050 40301 50000 91200 22200 00072 1//00 70001 333 91200
BBXX 44041 14121 99372 70768 46/// /0301 1//// 91220 333 91201
BBXX 44041 14121 99372 70768 46/// /0301 1//// 40317 91210 333 91202
BBXX 44041 14121 99372 70768 46/// /0202 10058 40318 53006 91200 22200 00094 1//00 70001 333 91204
BBXX 44042 14121 99380 70763 46/// /0604 1//// 91220 333 91205
BBXX 44042 14121 99380 70763 46/// /0704 1//// 40295 91210 333 91205
BBXX 44042 14121 99380 70763 46/// /0603 10074 40295 52003 91200 22200 00095 1//00 70001 333 91204
BBXX 44043 14121 99392 70764 46/// /0603 1//// 91220 333 91204
BBXX 44043 14121 99392 70764 46/// /0703 1//// 40290 91210 333 91204
BBXX 44043 14121 99392 70764 46/// /0502 10061 40289 55000 91200 22200 00067 1//00 70001 333 91203
AAXX 14124 82863 21597 81402 10244 20227 39898 40111 70365 885// 333 20228 58004 60064
AAXX 14124 83228 21799 83603 10256 20223 39822 40096 70262 8823/ 333 20227 59007 60054
AAXX 14124 83270 21596 80000 10224 20221 39630 40112 72062 887// 333 20217 59010 60084
AAXX 14124 83309 21695 80000 10245 20230 39747 40067 71041 886// 333 20217 59030 60124
AAXX 14124 83319 21697 80000 10246 20220 39753 40124 70162 8372/ 333 20222 59007 60214
AAXX 14124 83368 22698 80000 10256 20231 39722 40085 8547/ 333 20230 59004 60074
AAXX 14124 83374 22598 83604 10228 20213 39530 40098 885// 333 20223 59002 60044
AAXX 14124 83405 21695 8//// 10236 20222 39947 40080 71062 885// 333 20227 58009 60124
AAXX 14124 83526 32498 60000 10243 20199 39156 40085 86500 333 20203 59008
BBXX 46092 14121 99368 71220 46/// /0703 10088 40218 51014 91157 22200 00126 555 11031 22036
BBXX 51176 14121 99278 71758 46/// ///// 1//// 91202 22200 00237
BBXX 51179 14121 99143 51708 46/// ///// 1//// 91202 22200 00284
BBXX 52245 14121 99181 11458 46/// ///// 1//// 91205 22200 00281
BBXX 52248 14121 99135 11448 46/// ///// 1//// 91206 22200 00285
BBXX 52244 14121 99200 11452 46/// ///// 1//// 91207 22200 00270
BBXX 52246 14121 99152 11457 46/// ///// 1//// 91207 22200 00282
BBXX 51173 14121 99260 71739 46/// ///// 1//// 91210 22200 00244
BBXX 51172 14121 99284 71783 46/// ///// 1//// 91215 22200 00232
BBXX 44059 14121 99368 70763 46/// /3603 1//// 91220 333 91204
BBXX 44059 14121 99368 70763 46/// /3503 1//// 40288 91210 333 91204
BBXX 44059 14121 99368 70763 46/// /3603 10074 40287 53009 91200 22200 00101 333 91204
BBXX 44057 14121 99395 70761 46/// /0402 1//// 91220 333 91202
BBXX 44057 14121 99395 70761 46/// /0103 1//// 40298 91210 333 91204
BBXX 44057 14121 99395 70761 46/// /3504 10036 40297 53009 91200 22200 00053 333 91205
BBXX 44058 14121 99376 70763 46/// /0304 1//// 91220 333 91205
BBXX 44058 14121 99376 70763 46/// /0305 10074 40291 53003 91200 22200 00091 10301 70004 333 91206
AAXX 14124 68171 NIL
AAXX 14124 68181 NIL
AAXX 14124 68253 NIL
AAXX 14124 68271 NIL
AAXX 14124 68287 NIL
AAXX 14124 68297 NIL
AAXX 14124 68342 NIL
AAXX 14124 68355 NIL
AAXX 14124 68370 NIL
AAXX 14124 68429 NIL
AAXX 14124 68474 NIL
AAXX 14124 68479 NIL
AAXX 14124 68481 NIL
AAXX 14124 68491 NIL
AAXX 14124 68497 NIL
AAXX 14124 78988 01470 50513 10255 20244 30102 40113 52019 600031 72581 85400 333 10303 20243 59004 60027 70033 85815
AAXX 14124 78990 01470 40807 10275 20247 30111 40118 52018 69911 71508 83201 333 10315 20248 59008 60007 70002 83815
AAXX 14124 78873 02578 50208 10253 20223 30078 40123 52014 60001 85200 333 10284 20231 59011 60007 7861536 85820
AAXX 14124 64700 32960 10806 10293 21017 39786 40126 80002 333 0//00 58004 81075
AAXX 14124 64701 NIL
AAXX 14124 64702 NIL
AAXX 14124 64705 32960 33406 10332 20009 3//// 4//// 80002 91150 333 0//00 5//// 83075
AAXX 14124 64706 32960 33606 10315 20010 39632 40103 80002 333 0//00 58000 83075
AAXX 14124 64708 32962 00000 10320 21005 3//// 4//// 91200 333 0//00 5////
AAXX 14124 64709 32962 23606 10295 21013 3//// 4//// 80002 91146 333 0//00 5//// 82075
AAXX 14124 64710 32960 30000 10310 20011 3//// 4//// 80002 91155 333 0//00 5//// 83075
AAXX 14124 64713 NIL
AAXX 14124 64722 32962 10000 10350 20168 3//// 4//// 80002 91155 333 0//00 5//// 81075
AAXX 14124 64750 32965 60604 10345 20040 39685 40090 80002 91155 333 0//00 58001 86075
AAXX 14124 64751 32960 30000 10320 21070 3//// 4//// 83032 91200 333 0//00 5//// 83365
AAXX 14124 64753 32960 00412 10240 20009 3//// 4//// 91200 333 0//00 5////
AAXX 14124 64754 32960 41406 10360 20084 3//// 4//// 80002 91155 333 0//00 5//// 84075
AAXX 14124 64756 32962 53604 10335 21036 39493 4//// 80002 91150 333 0//00 58003 85073
AAXX 14124 64757 32965 03604 10270 20024 3//// 4//// 91146 333 0//00 5////
AAXX 14124 64758 NIL
AAXX 14124 64761 NIL
BBXX 46181 14121 99538 71288 46/// /0305 10007 40191 57004 22200 00030 10200 70001 333 91207
AAXX 14124 60650 36/// /0000 10189 21025
AAXX 14124 60677 36/// /0000 10184 21071
AAXX 14124 60679 36/// /1004 10129 21194
AAXX 14124 60672 36/// /0606 10174 21107
AAXX 14124 60661 36/// /0610 10209 21071
AAXX 14120 67421 41659 72602 10240 20185 38705 48488 71798 86938 333 59002 81930 86835 555 10267 29074
AAXX 14120 67423 31582 61203 10290 20195 39489 48511 71792 84933 333 58000 81925 83830 86359 555 10310 29058
AAXX 14120 67692 32680 60802 10305 20159 86200 333 86840 555 10310 29041
AAXX 14120 67796 31680 60903 10361 20224 40008 71791 84933 333 58000 81935 84840 555 10388 29042
BBXX JPBN 14124 99334 11415 41/98 72812 10189 20107 40161 55002 70211 83231 22273 00207 1//04 20301 399// 4//03 70022
BBXX SHIP 14124 99301 11328 41497 53313 10180 20112 40189 50004 70122 82/// 22213 00238 80140
BBXX UCDN 14120 99454 11394 42596 92405 10000 40066 57066 72273 895200 22213 06070 20101
BBXX WCX8882 14124 99382 11440 41598 51719 10110 20070 40190 55005 7//22 852// 22255 00110 20404 327// 40505 5//// 6//// 80090 ICE /////
BBXX 46181 14121 99538 71288 46/// /0305 10007 40191 57004 22200 00030 10200 70001 333 91207
BBXX 46184 14121 99539 71389 46/// /1808 10048 40122 57008 22200 00066 11205 70027 333 91209
AAXX 14124 42634 32996 60506 10252 20052 40137 83031 333 10273 58000 83360 85070
AAXX 14124 42647 32996 40203 10264 20122 40137 82031 333 10287 59001 82360 83075
AAXX 14124 42737 32996 23606 10282 20125 40131 82030 333 10304 58003 82360
AAXX 14124 42840 32996 23602 10276 20171 40130 80001 333 10317 58005 82075
AAXX 14124 42909 32997 33406 10298 20067 40140 80001 222// 20000 333 10328 58011 83075
AAXX 14124 42921 32996 33601 10264 20107 40153 80001 333 10294 58007 83075
AAXX 14124 43003 31995 43608 10294 20239 40110 70400 80001 333 10343 58012 84075
AAXX 14124 43014 32996 50902 10268 20131 39478 40116 80001 333 10297 58005 85075
AAXX 14124 43110 31996 00000 10310 20191 40106 70544 333 10344 58011
AAXX 14124 43117 32997 40000 10290 20094 40106 80001 333 10311 58012
AAXX 14124 43192 31996 22702 10322 20159 40096 70500 80002 333 10339 58008
AAXX 14124 43063 NIL
AAXX 14124 91723 NIL
AAXX 14124 91759 NIL
AAXX 14124 91762 11598 61404 10250 20228 40113 58007 60001 70322 82130 333 10283 82822 86364
BBXX 46184 14121 99539 71389 46/// /1808 10048 40122 57008 22200 00066 11205 70027 333 91209
AAXX 14121 40739 12665 50000 10060 21073 38746 40277 56006 60001 82502 333 82635 83068
AAXX 14121 24856 32997 02501 11406 21432 30149 40330 52001 333 11333
AAXX 14121 30679 NIL
AAXX 14121 30686 NIL
AAXX 14121 30961 32999 00000 11275 21293 39518 40396 52011 333 11184
AAXX 14121 30971 32999 00000 11284 21308 39288 40384 52009 333 11184
AAXX 14121 30978 32999 00000 11286 21310 39609 40370 52010 333 11200
AAXX 14121 31513 32999 03202 11235 21247 39996 40241 51004 333 11186
AAXX 14121 31624 NIL
AAXX 14121 31832 11938 83302 11127 21147 30096 40186 52027 60030 77373 8802/ 333 11088
AAXX 14121 31913 NIL
AAXX 14121 32128 11599 61403 11063 21086 30069 40122 58021 69920 70282 86300 333 11031 91004 91106
BBXX VOXS 14124 99467 70480 41598 80225 10018 2001/ 40189 56020 70222 885// 22200 04023 20301 335// 40906 80016
BBXX VOXS 14124 99467 70480 41598 80225 10018 2001/ 40189 56020 70222 885// 22200 04023 20301 335// 40906 80016
AAXX 14121 56671 32780 73402 10107 20018 38213 52010 874// 333 00101
AAXX 14121 57378 32960 73403 10094 21005 40300 52023 8703/
AAXX 14121 57426 11557 82002 10073 20064 40293 52018 69931 76066 887// 333 00451
AAXX 14121 57476 32960 83401 10085 20047 40291 52015 8807/
AAXX 14121 57584 11960 80202 10095 20017 40291 52012 69901 70060 8807/
AAXX 14121 57598 11958 82501 10073 20067 40287 52014 69931 76060 8802/
AAXX 14121 57655 11460 80000 10076 20062 40296 52018 69961 76066 8272/
AAXX 14121 57713 NIL
AAXX 14121 57776 11570 80207 11004 21056 40291 52012 69901 70060 885//
AAXX 14121 58321 31957 40401 10078 21002 40307 52020 70500 84040
AAXX 14121 58437 32670 80407 11009 21251 38199 52006 885//
AAXX 14121 58445 NIL
AAXX 14121 58556 11660 80202 10089 21030 40284 52022 69901 76060 885//
AAXX 14121 58569 32961 73604 10105 21039 40267 52018 8703/
AAXX 14121 58646 31956 70702 10122 20012 40265 52025 70500 8704/
AAXX 14121 58653 NIL
AAXX 14121 58660 NIL
AAXX 14121 58715 32961 03202 10092 21010 40268 52020
AAXX 14121 58730 32961 03401 10114 20044 40252 52023
AAXX 14121 58731 32967 43601 10108 20021 40256 52017 84040
AAXX 14121 58754 32962 63201 10141 20081 40250 52026 86030
AAXX 14121 58911 32963 00401 10124 20065 40237 52018
AAXX 14121 58931 31/01 90703 10088 20085 38400 52009 74600
AAXX 14121 59254 32760 72901 10183 20091 40204 52016 875//
AAXX 14121 59632 32763 73602 10202 20069 40196 52019 875//
AAXX 14121 59855 11468 83402 10190 20159 40180 52016 69941 72160 888//
AAXX 14121 14452 12599 41607 10140 20101 39970 40192 57011 60001 82206 333 92322
BBXX DDZK2 14124 99449 71728 41598 63238 10044 21015 49874 54000 7//// 85873 22225 04092 21009 335// 41212 5//// 80020
BBXX NWS0003 14124 99578 71679 43/// /1116 10025 20017 49929 5//// 7//// 8//// 222// 04024 2//// 3//// 4//// 5//// 6//// 8//// ICE /////
BBXX SHIP 14124 99314 71625 41/96 81828 10210 20195 40144 56019 70302 8//// 91155 22264 00210 2//// 3//// 4//// 5//// 80200
BBXX WCX8812 14124 99440 71684 41497 72842 10090 20050 49792 52032 70162 872// 22224 00110 20212 332// 41012 5//// 6//// 80070 ICE /////
BBXX 46004 14121 99509 71361 46/// /1406 10066 40128 57016 22200 00079 11205 70025 333 91208
AAXX 14124 43086 32997 20000 10264 20113 39951 40128 80001 333 10300 58004
AAXX 14124 43128 32997 01404 10268 20126 39519 40119 333 10299 58006
AAXX 14124 43150 31996 00504 10266 20188 30060 40135 70500 222// 20000 333 10306 58004
AAXX 14124 43185 31596 31403 10272 20199 30118 40121 70510 81501 333 10316 58004 81620 83070
AAXX 14124 43189 32997 00902 10270 20193 30122 40131 333 10311 58006
AAXX 14124 43198 32996 00904 10262 20127 39283 40094 333 10286 58009
AAXX 14124 43201 32997 00905 10274 20126 39387 40093 333 10294 58010
AAXX 14124 43213 32997 29901 10290 20118 39794 40107 80002 333 10319 58003
AAXX 14124 43226 32997 20000 10322 20179 30066 40095 80001 333 10336 58013
AAXX 14124 43233 32997 20503 10270 20133 39299 40095 80001 333 10288 58006
AAXX 14124 43237 32597 60503 10276 20145 39724 40113 81502 333 10302 58006 81620 86075
AAXX 14124 43245 32597 20503 10272 20215 30097 40123 81502 333 10309 58007
AAXX 14124 43279 21496 80203 10250 20217 30108 40126 70262 8452/ 333 10295 58010 6999/ 83618 86458
AAXX 14124 43284 32996 43204 10300 20210 39970 40083 80001 333 10344 58009 84075
AAXX 14124 43295 32497 40902 10258 20117 39096 48512 82501 333 10290 58004 82615
AAXX 14124 43311 32597 30903 10300 20243 40085 82501 333 10326 58007 82620 83075
AAXX 14124 43314 32597 42704 10316 20239 40086 81432 333 10344 58005
AAXX 14124 43321 31496 20906 10286 20179 39656 40096 70521 81501 333 10303 58000
AAXX 14124 43329 32597 70000 10260 20224 30098 40111 83531 333 10300 58009
AAXX 14124 43344 21496 70908 10256 20223 30013 40113 72052 83571 333 10287 58010 6992/ 83615 86358
AAXX 14124 43346 21597 60506 10264 20235 30097 40104 70262 83532 333 10268 58005 6007/ 83620 85075
AAXX 14124 43353 31496 32706 10306 20224 40088 70500 81501 333 10306 56609 59007 81616 83072
AAXX 14124 43369 32597 50000 10290 20250 40087 82431 333 10317 58005 82620 85075
AAXX 14124 43371 32597 60504 10308 20251 30015 40087 83432 333 10333 58004 82620 84075
BBXX 46004 14121 99509 71361 46/// /1406 10066 40128 57016 22200 00079 11205 70025 333 91208
AAXX 14124 71888 16/// ///// 11040 21063 60001 333 21073 7////
AAXX 14124 71895 16/// ///// 11038 21066 60001 333 11029 21073 70000
AAXX 14124 71467 16/// /3013 11230 21251 30042 40162 53003 60001 333 11272 21324 4/002 70000
AAXX 14124 71332 16/// /2615 11263 21291 30147 40178 53009 60001 333 11191 21283 4/011 70000
AAXX 14124 71788 16/// /3013 11035 21066 60001 333 11073 21139 70004
AAXX 14124 71792 17/// ///// 11057 21070 69951 7//4/ 333 11032 21142 70005
AAXX 14124 71461 16/// /2611 11061 21083 60001 333 10001 21074 70042
AAXX 14124 71468 16/// /2107 10016 20008 39858 40184 58028 60001 333 21030 70000
AAXX 14124 71483 16/// ///// 11056 21088 60001 333 11012 21065 70000
AAXX 14124 71011 16/// ///// 11037 21070 60001 333 11068 21141 70000
AAXX 14124 71283 16/// /3007 11058 21064 60001 333 11007 21073 70032
AAXX 14124 71500 16/// /3112 11035 21066 60001 333 10003 21037 70000
AAXX 14124 71504 16/// ///// 11043 21080 60001 333 10012 21052 70000
AAXX 14124 71541 16/// /2305 11069 21077 60001 333 11017 21097 70027
AAXX 14124 71543 17/// /2803 11138 21150 69941 7//4/ 333 11003 21158 70090
AAXX 14124 71546 16/// /2805 11080 21104 60001 333 10011 21103 70068
AAXX 14124 71547 16/// /2710 11081 21105 60001 333 11016 21085 70032
AAXX 14124 71549 16/// ///// 11058 21076 60001 333 21059 7////
AAXX 14124 71405 16/// ///// 11037 21063 60001 333 11009 21055 70000
AAXX 14124 71417 16/// /2809 11089 21105 30232 40268 55000 60001 333 11077 21106 70000
AAXX 14124 71426 46/// /0101 11012 6///1 333 10015 21017 7////
AAXX 14124 71137 16/// /2502 11081 21089 39135 40091 55000 60001 333 11053 21085 70000
AAXX 14124 71067 16/// ///// 11045 21070 60001 333 11028 21063 70000
AAXX 14124 71152 16/// /0610 11066 21126 30254 40267 52014 60001 333 10031 21068 7////
AAXX 14124 71153 16/// /3009 11019 21067 60001 333 10013 21040 70000
AAXX 14124 71359 16/// /3011 11031 21053 60001 333 11043 21056 70000
AAXX 14124 71221 16/// /2003 11091 21100 60001 333 11012 21099 70025
AAXX 14124 71226 16/// /2607 11060 21070 60001 333 10002 21060 70023
AAXX 14124 71229 46/// /1602 11097 21114 6///1 333 11021 21110 7////
AAXX 14124 71244 16/// /3212 11001 21057 38891 40141 53041 60001 333 11068 21150 4/008 70000
AAXX 14124 71826 16/// /1117 11121 21175 39918 49961 58024 60001 333 11183 21231 4/007 70000
AAXX 14124 71840 46/// /1905 11024 21031 6///1 333 11019 21037 7////
AAXX 14124 71673 16/// ///// 11053 21068 60001 333 11029 21086 70000
AAXX 14124 71690 16/// ///// 11088 21106 60001 333 11007 21105 70070
AAXX 14124 45011 17557 /3505 10177 20104 40192 52014 60002 71011 333 10206 58008
AAXX 14124 71467 16/// /3013 11230 21251 30042 40162 53003 60001 333 11272 21324 4/002 70000
AAXX 14124 71137 16/// /2502 11081 21089 39135 40091 55000 60001 333 11053 21085 70000
BBXX 46232 14121 99325 71174 46/// ///// 1//// 91208 22200 00148 11203 20902 325// 41202 70013
AAXX 14123 63680 11470 72105 10220 20184 38830 48/// 69901 76096 8597/ 333 58003 84722 81925 85460 555 10196
AAXX 14121 56144 32980 00401 11004 21147 36843 52022 333 00200
AAXX 14121 56152 32680 53401 11053 21165 36297 52021 82402 333 00102
AAXX 14121 56167 32980 00000 10031 21102 37057 52028 333 00004
AAXX 14121 56182 32980 00000 11027 21112 37208 52022 333 00452
AAXX 14121 56357 32980 02202 11001 21115 36434 52021 333 00201
AAXX 14121 56586 11460 80202 10003 21024 38092 52015 69901 70070 885// 333 00654
AAXX 14121 56748 32980 00000 10102 20028 38361 52011 333 00151
AAXX 14121 56763 32680 41602 10162 20049 40157 52015 84400 333 00103
AAXX 14121 56768 32680 21602 10100 20067 38190 52014 82400 333 00101
AAXX 14121 56838 32670 13201 10148 20102 40170 52007 81400 333 00100
AAXX 14121 56886 31758 72001 10075 20063 38318 52016 71000 874// 333 00253
AAXX 14121 56946 32675 11101 10142 20092 40177 52011 81100 333 00151
AAXX 14121 56959 32770 21401 10196 20163 40142 52017 82400 333 00001
AAXX 14121 56969 32960 00000 10168 20152 40164 52019 333 00001
AAXX 14121 57731 11461 81601 10078 20035 40287 52017 69921 72160 885// 333 00553
AAXX 14121 57766 11456 81601 10074 20054 40293 52019 60011 76060 8772/
AAXX 14121 57845 32762 83602 10078 20031 40276 52015 885//
AAXX 14121 57853 11460 83402 10073 20039 40293 52016 69941 72160 8772/
AAXX 14121 57916 32662 80000 10118 20067 40253 52017 885// 333 00551
AAXX 14121 57922 32662 83602 10062 20034 40266 52010 885// 333 00352
AAXX 14121 57932 32766 80401 10109 20046 40266 52016 885// 333 00400
AAXX 14121 58338 32961 00201 10077 21003 40289 52016
AAXX 14121 59007 32670 80202 10108 20053 40217 52017 885//
AAXX 14121 59046 32766 73603 10149 20028 40227 52020 875//
AAXX 14121 59058 32862 83202 10156 20031 40220 52020 885//
AAXX 14121 59072 32965 50204 10144 20003 40234 52027 85040
AAXX 14121 59087 32962 60401 10142 20056 40209 52019 86040
AAXX 14121 59209 32567 42501 10134 20067 40221 52027 84800
AAXX 14121 45032 36/// /1601 10172 20121 30179 40196 52001
AAXX 14121 45035 36/// /0302 10192 20102 30153 40195 52001
AAXX 14121 45039 36/// /9901 10188 20113 30178 40192 54000
AAXX 14121 45044 36/// /3504 10183 20107 30098 40191 54000
AAXX 14121 45032 36/// /1601 10172 20121 30179 40196 52001
AAXX 14121 45035 36/// /0302 10192 20102 30153 40195 52001
AAXX 14121 45039 36/// /9901 10188 20113 30178 40192 54000
AAXX 14121 45044 36/// /3504 10183 20107 30098 40191 54000
BBXX 46146 14121 99493 71237 46/// /1006 10048 40206 57004 22200 00062 10301 70003 333 91207
BBXX 46246 14121 99500 71451 46/// ///// 1//// 91229 22200 00075 10806 20805 326// 41103 70030
BBXX 46246 14121 99500 71451 46/// ///// 1//// 91159 22200 00075 11006 21005 325// 41203 70031
AAXX 14124 42667 31996 30502 10230 20109 39555 40143 70500 333 10238 59003 83075
BBXX 46146 14121 99493 71237 46/// /1006 10048 40206 57004 22200 00062 10301 70003 333 91207
BBXX 41010 14121 99289 70785 46/// /0509 10212 40249 91220 22200 00239 11106 20804 300// 41104 70029 333 91211 555 11094 22099
BBXX 41009 14121 99285 70802 46/// /0609 10226 20136 40252 91220 22200 00247 11105 20704 300// 41103 70026 333 91210 555 11090 22095
BBXX 42361 14121 99276 70925 46/// ///10 10228 20183 40210 55003 91230 555 11082 22087
BBXX 44100 14121 99363 70756 46/// ///// 1//// 91222 22200 00133 11103 20603 310// 41101 70015
BBXX 41110 14121 99341 70777 46/// ///// 1//// 91221 22200 00140 11102 20902 311// 41101 70010
BBXX 42099 14121 99273 70842 46/// ///// 1//// 91227 22200 00234 10602 20602 70012
BBXX 41113 14121 99284 70805 46/// ///// 1//// 91221 22200 00223 11103 20902 310// 41101 70013
BBXX 41112 14121 99307 70813 46/// ///// 1//// 91221 22200 00164 11003 21003 311// 41201 70014
BBXX 42013 14121 99272 70829 46/// ///// 1//// 40243 91140 22200 00199
BBXX 44039 14121 99411 70727 46/// /3506 10053 20008 40304 91153 22200 00101 10301 70003 333 91208
BBXX 44098 14121 99428 70702 46/// ///// 1//// 91207 22200 00092 10603 20603 311// 41201 70016
BBXX 44099 14121 99369 70757 46/// ///// 1//// 91222 22200 00125 11102 21002 309// 41101 70012
AAXX 14124 67017 NIL
AAXX 14124 67020 32582 43404 10332 20243 30051 40078 58023 83902 333 0//00 83820 81920 94971/5 95831/5 555 81640 81073
AAXX 14124 67023 32582 61412 10310 20229 30081 40087 56009 81202 333 0//00 81820 86075
AAXX 14124 67037 31580 6//// 10/// 20/// 30044 40085 5/015 72991 84925 333 0//00 81820 81920 83640 94963/5 95873/5 555 81460 84273
AAXX 14124 67067 31570 1//// 10326 20164 39244 48/// 57016 70500 81230 333 0//00 81820 555 81360
AAXX 14124 67107 NIL
AAXX 14124 67131 32582 32610 10/// 20/// 30082 40087 56009 82903 333 0//00 82820 81920 94991 95831 555 81640 81073
AAXX 14123 63680 11470 72105 10220 20184 38830 48/// 69901 76096 8597/ 333 58003 84722 81925 85460 555 10196
BBXX KS098 14124 99446 71240 43/// /1103 10025 40205 22200 06000
BBXX KS094 14124 99133 70596 43/// /0704 10274 40119 22200 06271
BBXX KS088 14124 99267 70801 43/// /0701 10221 40225 22200 06233
BBXX 44258 14121 99445 70634 46/// /0112 10025 40244 52027 22200 00067 11003 70013 333 91214
BBXX 44258 14121 99445 70634 46/// /0112 10025 40244 52027 22200 00067 11003 70013 333 91214
AAXX 14121 31348 32998 80000 11289 21301 39998 40214 54000 80007 333 11196
BBXX 44140 14121 99429 70515 46/// /0415 10125 40058 57019 22200 00092 10806 70031 333 91219
AAXX 14124 97014 32560 30302 10250 20236 30000 40093 52020 82211 333 10304 56000 57803 59006 82823 80858
AAXX 14124 97028 32560 60903 10280 20239 30067 40073 51007 83521 333 10298 56000 59023 83620 84460
AAXX 14124 97048 31460 40000 10264 20237 30054 40078 52013 84272 333 56000 57801 58003 83817 80860
AAXX 14124 97072 NIL
AAXX 14124 97086 NIL
AAXX 14124 97096 32460 80000 10278 20252 30075 40096 52016 8322/ 333 10318 56009 57803 59011 82818 88460 80860
AAXX 14124 97120 32459 72703 10282 20241 30054 40087 52024 82231 333 10320 56000 57803 58007 82818 86360 80860
AAXX 14124 97146 NIL
AAXX 14124 97180 32458 73602 10268 20256 30077 40095 53018 81272 333 10281 56000 58002 81819 84360
AAXX 14124 97192 32430 41703 10258 20241 30045 40102 52013 81271 333 10290 56000 57804 58001 81817 83460 80856
AAXX 14124 97230 01460 80602 10273 20250 30069 40076 52010 69901 71796 83932 333 10313 56000 57901 57802 58003 69907 81916 82817 85080 80981 80858
AAXX 14124 97260 01558 71504 10260 20242 30071 40078 52015 69901 71396 83921 333 10310 56000 57902 58011 81920 82820 80980
AAXX 14124 97270 11450 80000 10248 20233 30077 40082 52005 60231 70596 8582/ 333 10336 56009 59006 83813 87460
AAXX 14124 97300 01557 80000 10238 20231 30096 40056 52000 76196 8427/ 333 10308 56009 57801 58016 60011 84820 84459 80858
AAXX 14124 97340 32560 80000 10268 20257 30076 40090 52030 86232 333 10334 56000 57801 58013 81820 86620 80860
AAXX 14124 97372 12457 60000 10242 20236 39965 40086 52014 60021 70196 8327/ 333 10278 56009 58007 83817 84459
AAXX 14124 97430 01410 71808 10244 20237 30065 40094 52006 60181 79596 84932 333 10316 56700 57971 57871 58005 60187 81914 84817 80980 80860
AAXX 14124 97460 11459 60000 10260 20249 30053 40067 52023 69901 70262 83876 333 10324 56000 57802 59003 82817 80858
AAXX 14124 97502 32450 60000 10254 20231 30077 40081 53016 84531 333 10324 56000 58007 84610
AAXX 14124 97530 NIL
AAXX 14124 97560 32460 60000 10268 20244 30059 40074 51021 82848 333 10304 56000 57804 59005 82818 84361 86279 80860
AAXX 14124 97580 32460 30000 10254 20251 30084 40091 51030 82202 333 10326 56000 57802 59007 82814 80850
AAXX 14124 97600 01459 70000 10266 20248 30076 40082 51019 60041 71362 83971 333 10336 56600 57961 58006 60047 81916 82818 86459 80958
AAXX 14124 97686 11450 70000 10176 20158 38346 40078 52021 60011 71662 85836 333 10266 56000 58009 85815 87360
AAXX 14124 97690 NIL
AAXX 14124 97724 11457 73404 10249 20239 30068 40084 52019 60071 71562 86872 333 10319 56700 57871 58010 60077 85814 80842
AAXX 14124 97748 31460 72614 10292 20252 30055 40057 54000 71322 84932 333 10326 56600 57960 58002 83914 85359 80940
AAXX 14124 97760 32457 70000 10262 20242 30074 40083 52021 83232 333 10325 56000 57801 58010 83816 80860
AAXX 14124 97796 31450 70000 10258 20237 30049 40100 52024 70522 85932 333 10310 56000 57903 58008 81911 85612 80980
AAXX 14124 97810 01456 70000 10253 20243 30056 40065 52020 60371 71462 85872 333 10320 56700 57871 58002 60207 83818 80858
AAXX 14124 97876 31450 70000 10260 20245 30088 40118 51015 71322 86943 333 10296 56000 57901 5//// 82910 84612 80959
AAXX 14124 97900 32560 62807 10280 20256 30047 40075 53019 84275 333 10349 56600 57861 58000 84820 85275 80850
AAXX 14124 97980 NIL
AAXX 14124 96009 32456 80208 10270 20243 30051 40086 52007 8692/ 333 10302 56009 57904 58002 82914 84615 80962
AAXX 14124 96011 32460 71602 10272 20230 30067 40094 52013 83232 333 10312 56000 57803 58001 83819 80860
AAXX 14124 96035 31450 70305 10268 20238 30050 40088 50000 70592 85976 333 10296 56000 57902 58000 81916 84617 80956
AAXX 14124 96073 31456 70000 10266 20246 30083 40094 52028 71792 83972 333 10318 56000 57901 58007 83913 80957
AAXX 14124 96091 32459 50205 10272 20240 30066 40090 52012 84231 333 56000 57801 84817 80860
AAXX 14124 96109 32558 70000 10280 20242 30030 40069 52015 81572 333 10310 56000 59009 81620 85362
AAXX 14124 96145 32456 63506 10272 20246 30076 40079 50000 84821 333 10296 56800 57882 59010 81616 83817 83460 80857
AAXX 14124 96147 31456 50000 10262 20241 30083 40088 53011 70522 83531 333 10306 56000 59010 83617
AAXX 14124 96163 32457 80701 10267 20237 30085 40087 52013 83521 333 10324 56000 58005 83616 84462
AAXX 14124 96179 01460 70000 10256 20244 30053 40090 52004 60061 70296 82236 333 10311 56000 57802 58002 60017 82817 80840
AAXX 14124 96195 11440 70000 10272 20246 30052 40089 53011 69901 71322 82971 333 10302 56000 57904 59007 82915 84460 80467
AAXX 14124 96221 01460 80000 10254 20239 30066 40081 52012 69901 72996 84976 333 10313 56999 57993 59005 69907 81925 83817 80980
AAXX 14124 96237 01456 80000 10255 20246 30037 40079 53002 60031 70262 83228 333 10312 56000 57802 59007 69907 83816 86460 86280 80860
AAXX 14124 96249 11457 72804 10252 20242 30025 40086 52010 60011 71796 84932 333 10284 56600 57961 57861 58003 81917 83820 80981
AAXX 14124 96253 01457 61703 10274 20233 30053 40073 52012 69901 70296 83972 333 10316 56000 57900 57800 58002 69907 81915 81820 83360
AAXX 14124 96295 01460 70000 10272 20239 39984 40087 51017 69901 70162 84221 333 10306 56000 57800 59002 69907 82815 80800
AAXX 14124 96509 32458 60000 10272 20240 30074 40085 52015 83171 333 10314 56000 59009 83815
AAXX 14124 96581 32456 60000 10268 20248 30076 40083 52013 83131 333 10310 56000 59012 83811 83362 80860
AAXX 14124 96633 11558 70000 10248 20234 30074 40082 52022 69981 70296 82571 333 10327 56000 58011 82620 84460
AAXX 14124 96645 01440 81004 10244 20240 30057 40089 52026 60031 79596 85972 333 10342 56000 57901 58005 60037 81912 85612 80981
AAXX 14124 96655 NIL
AAXX 14124 96685 01457 70000 10244 20236 30070 40007 52031 60321 76196 8452/ 333 10328 56009 58009 60327 84615 87462
AAXX 14124 96749 31558 72512 10264 20224 30073 40086 53021 71322 84971 333 10317 56000 57932 58004 81920 83622 86461 80980
AAXX 14124 96781 NIL
AAXX 14124 96805 31459 80000 10282 20247 30081 40090 51016 71322 86920 333 10310 56000 57901 57801 58000 82918 84820 86460 80958 80860
AAXX 14124 96839 01450 72505 10268 20229 30080 40087 52020 69901 71396 85976 333 10322 56000 57901 58005 69907 82919 93820 80980
AAXX 14124 96935 32560 32502 10285 20238 30074 40080 52019 81501 333 10338 56000 58000 81620 83080
AAXX 14124 97008 01459 50000 10260 20248 30066 40076 52010 60021 70261 83272 333 10298 56000 57801 59003 60017 83819 80860
AAXX 14124 97016 32463 50403 10280 20233 30075 40077 51019 83921 333 10338 56000 57901 57801 59005 81919 82820 80984 80860
AAXX 14124 97126 01450 80204 10244 20232 30030 40090 52013 60041 76096 8392/ 333 10324 56009 57900 58005 60027 81916 82616 88460 80980
AAXX 14124 97142 NIL
AAXX 14124 97182 11562 70000 10268 20247 30084 40089 52021 69901 70162 82871 333 10282 56000 57800 58002 82820 85460 808//
AAXX 14124 97240 01456 61204 10260 20252 39969 40084 52010 69931 70596 84131 333 10312 56000 58003 69907 84816
AAXX 14124 97284 01420 80000 10198 20198 38866 40105 52018 60101 76096 8682/ 333 10248 56009 5780/ 58011 60087 83810 85612 88450
AAXX 14124 97310 10558 40000 10250 20227 30066 40078 52008 60151 70062 82121 333 10297 56000 58006 60157 82820 83460
AAXX 14124 97320 11462 70000 10278 20219 30060 40073 55011 69901 70262 83472 333 10285 56000 83615 83360
AAXX 14124 97378 11560 70000 10226 20223 39930 40093 51022 60341 70296 82171 333 10296 56000 58027 82820 85459
AAXX 14124 97380 01456 80000 10238 20237 30060 40080 50005 60461 76096 82222 333 10327 56000 57802 58013 60047 82818 87459 80859
AAXX 14124 97406 01430 82305 10238 20235 30056 40081 52013 60461 79596 853// 333 10326 56000 57901 57801 58010 60157 81915 84817 86360 80975 80860
AAXX 14124 97570 31459 50000 10254 20231 30063 40070 52018 71311 81903 333 10322 56000 57901 58000 81914 85079 80979
AAXX 14124 97630 32362 30105 10258 20240 39927 40087 52026 82842 333 10314 56000 57802 58007 82812 80870
AAXX 14124 97682 32456 71804 10272 20255 30065 40072 52027 84872 333 10331 56000 57802 58001 82815 84620 87361 80856
AAXX 14124 97698 31450 80000 10280 20248 30090 40097 52025 70542 84247 333 10320 56000 57802 58009 84816 88277 80862
AAXX 14124 97700 32460 42204 10253 20236 20054 40068 51015 82232 333 10310 56000 57804 59002 82817 80850
AAXX 14124 97722 11461 70000 10253 20241 30062 40077 52007 60141 70262 84972 333 10321 56600 57961 59008 81917 85459 80971
AAXX 14124 97780 NIL
AAXX 14124 97790 01458 72612 10284 20247 30035 40056 52018 71362 82871 333 10314 56600 57861 58005 69987 81818 85458 80858
AAXX 14124 96001 31557 70000 10258 20249 39952 40104 50006 70522 84272 333 10302 56000 57802 58003 84820 80860
AAXX 14124 96015 01450 70000 10260 20254 30080 40087 52015 60021 76161 84279 333 10310 56000 57802 58005 60027 84813 80860
AAXX 14124 96033 31456 60000 10284 20234 30093 40098 53007 70522 83936 333 10294 56000 57903 58005 81920 83617 80980
AAXX 14124 96075 01450 70000 10252 20249 30074 40080 52005 60361 72162 85971 333 56000 57901 58007 60227 82915 83617 80965
AAXX 14124 96087 01458 80000 10252 20241 30052 40085 51014 60261 72196 8592/ 333 10310 56009 5799/ 59006 60267 81920 85615 88460 809//
AAXX 14124 96171 11456 70000 10266 20248 30047 40071 52007 69921 70262 84522 333 10304 56000 59005 84616
AAXX 14124 96207 01430 80000 10239 20214 39209 40131 52012 79596 8697/ 333 10284 56009 57900 69937 81915 86460
AAXX 14124 96525 31458 60000 10272 20248 30079 40086 52017 71322 83975 333 10332 56000 57901 59006 81915 83815 80980
AAXX 14124 96529 32457 40000 10258 20246 30069 40094 51011 83101 333 10328 56000 59007 83818
AAXX 14124 96535 32458 60000 10268 20244 30074 40094 53010 83231 333 10319 56000 57803 59014 83814 83362 80864
AAXX 14124 96557 31450 70000 10284 20251 30031 40080 52021 70522 84321 333 10328 56600 57961 57861 59010 81912 83813 86460 80980 80857
AAXX 14124 96559 31456 60000 10288 20245 30031 40069 52016 71322 84931 333 10334 56600 57962 57863 59029 81914 83812 84362 80974 80858
AAXX 14124 96565 32350 50404 10265 20240 30047 40099 52025 8542/ 333 10328 56009 58007 85609
AAXX 14124 96595 01315 82608 10256 20229 30050 40102 52032 60021 79596 889// 333 10334 56099 57900 58011 60027 82915 86608
AAXX 14124 96607 31458 71705 10268 20236 30080 40095 52025 70292 85221 333 10336 56000 58006 85815
AAXX 14124 96615 NIL
AAXX 14124 96695 01430 80000 10249 20236 30091 40097 51031 60181 79196 86321 333 10323 56000 57901 57802 58021 60047 82916 85616 80980 80860
AAXX 14124 96737 32462 82706 10262 20235 30042 40073 53014 83271 333 10310 56000 58001 83615 85460
AAXX 14124 96739 32457 72510 10260 20233 30045 40094 52023 84220 333 10316 56000 57801 58008 81818 83618 80860
AAXX 14124 96741 32556 82607 10286 20231 30079 40083 52012 8357/ 333 10314 56009 58012 83621 86460
AAXX 14124 96745 32556 72304 10284 20228 30081 40086 52020 83521 333 10320 56000 58002 83620 86460
AAXX 14124 96751 01540 80000 10207 20199 39026 48920 52017 60011 79196 85972 333 10250 56000 57902 58003 60017 81920 84620 80980
AAXX 14124 96791 01456 80000 10236 20233 30033 40107 52022 60401 79596 8592/ 333 10324 56009 57900 58011 60407 83917 86460 809//
AAXX 14124 96797 31457 80000 10268 20228 30081 40086 52019 71522 8497/ 333 10324 56009 57902 58002 81918 84620 80980
AAXX 14124 96837 NIL
AAXX 14124 96925 01464 80000 10264 20244 30076 40081 52012 60011 70296 84272 333 10305 56600 57860 59001 69907 84817 85460 80860
AAXX 14124 96933 32560 32908 10290 20239 30074 40077 52015 81511 333 10340 56200 59002 81620
AAXX 14124 96937 32558 43305 10290 20251 30074 40079 53016 83101 333 10336 56000 59005 83820
AAXX 14124 96973 32558 63204 10272 20252 30074 40080 52011 83231 333 10314 56000 57802 58003 83820 80850
AAXX 14124 96987 11458 70000 10274 20239 30019 40078 52014 60021 71396 84971 333 10335 56000 57902 59002 81917 83617 80980
BBXX 44140 14121 99429 70515 46/// /0415 10125 40058 57019 22200 00092 10806 70031 333 91219
BBXX 46036 14121 99484 71339 46/// /1705 10084 40104 57025 22200 00085 11305 70024 333 91206
BBXX 46036 14121 99484 71339 46/// /1705 10084 40104 57025 22200 00085 11305 70024 333 91206
AAXX 14121 88900 46/// /2313 10032 20027 30050 40053 53000 333 10043 20031
AAXX 14124 63612 32680 20912 10340 20105 40082 82100 333 58012 82832
AAXX 14124 63661 32580 53204 10237 20132 48504 85961 333 58010 81925 85826
AAXX 14124 63695 32580 30000 10242 20144 82130 333 82824 83359
AAXX 14124 63772 12580 40708 10309 20247 60011 83903 333 81923 83824
AAXX 14124 63671 NIL
AAXX 14124 63688 NIL
AAXX 14124 63708 NIL
AAXX 14124 63714 NIL
AAXX 14124 63723 NIL
AAXX 14124 63740 NIL
AAXX 14124 63793 NIL
AAXX 14124 63820 NIL
AAXX 14124 83766 21597 80000 10218 20190 39442 40076 5//// 70362 885// 333 20200 60014
AAXX 14124 83836 21497 81801 10186 20176 39107 40068 51008 70398 8667/ 333 20160 60044
AAXX 14124 83881 32997 0//// 10220 20141 39808 40086 54000 333 20150
AAXX 14124 83980 32597 40502 10200 20135 39810 40087 51012 81240 333 20163
AAXX 14124 83997 32897 61410 10215 20150 30090 40133 51016 86030 333 20175
AAXX 14121 23426 42984 21902 11224 21249 30297 40324 54000 80001
AAXX 14121 23625 42998 01201 11261 21292 30296 40334 57002
AAXX 14121 28076 42997 41101 11268 21286 30271 40352 53005 82041
AAXX 14121 28367 41984 73401 11191 21210 30208 40349 52004 70272 80001
AAXX 14121 28382 41998 00000 11250 21267 30270 40350 52001 70271
AAXX 14121 28481 41997 03601 11257 21274 30233 40344 52002 70171
AAXX 14121 28491 42997 00201 11220 21245 30213 40335 54000
AAXX 14121 28573 42997 00201 11246 21263 30224 40340 53010
AAXX 14121 28593 41996 60000 11214 21233 30215 40323 57007 77171 86010
AAXX 14121 28786 41996 80000 11237 21255 30145 40321 52003 77172 8801/
AAXX 14121 28797 41497 60000 11256 21274 30142 40318 53004 70171 86600 333 86716
AAXX 14121 28799 41996 50000 11250 21274 30152 40313 52002 77171 80005
AAXX 14121 20046 41497 82602 11098 21110 30031 40063 52001 77172 885//
AAXX 14121 20069 12578 73103 11072 21116 30055 40068 51004 69902 875// 333 11059 87630
AAXX 14121 20087 11398 72904 11111 21124 30025 40036 52010 69922 70273 8463/ 333 11059 84707
AAXX 14121 20292 11997 82211 11093 21100 30017 40036 57002 69932 77173 8802/ 333 11085 91113
AAXX 14121 20353 46/// /2802 11027 21040 30055 40059 57001 333 91111
AAXX 14121 20667 41998 82305 11024 21027 30137 40144 52006 77172 8802/
AAXX 14121 20674 11398 72405 11028 21032 30081 40140 52007 69972 70273 875// 333 11028 86707 91108
AAXX 14121 20744 41496 81809 11007 21016 30025 40043 57013 78587 8695/ 333 86920
AAXX 14121 20891 11396 72409 11131 21151 30145 40188 57007 69962 78583 879// 333 11123 86707 91114 92982
AAXX 14121 23022 41596 72011 11077 21095 30114 40176 58006 73832 86530 333 91117
AAXX 14121 23032 41997 82211 11044 21075 30184 40215 58003 73733 8805/ 333 91116
AAXX 14121 23058 41998 72204 11123 21143 30276 40281 52008 70272 87030
AAXX 14121 23242 41997 62205 11171 21197 30279 40296 52003 73632 86030
AAXX 14121 23256 41498 82406 11169 21195 30287 40325 52005 77172 8557/ 333 85610
AAXX 14121 23330 42597 81903 11171 21183 30292 40315 57001 885// 333 88630 93541
AAXX 14121 23445 42497 21602 11234 21252 30323 40351 52001 82600
AAXX 14121 23552 42997 51801 11217 21235 30336 40374 57001 80001
AAXX 14121 23631 42998 22101 11255 21280 30299 40345 57001 80001 333 1/129
AAXX 14121 23662 42998 61201 11184 21210 30356 40404 57001 80001
AAXX 14121 23724 42999 20601 11251 21275 30260 40332 54000 80001
AAXX 14121 23734 41996 81001 11235 21260 30252 40354 57001 77172 8807/
AAXX 14121 23849 42156 60000 11243 21271 40374 57001 86600 333 86703
AAXX 14121 23867 42999 30000 11239 21264 30317 40398 57004 80001
AAXX 14121 23933 41997 80000 11298 21320 30298 40362 53004 70272 80005
AAXX 14121 28064 41997 83201 11220 21238 30261 40363 52003 77172 8802/
AAXX 14121 28275 42997 80000 11251 21275 30283 40350 52005 80002
AAXX 14121 28493 41996 80301 11201 21220 30231 40333 57001 77171 8801/
AAXX 14121 28698 41997 00201 11247 21265 30150 40322 54000 77670
AAXX 14124 83552 22598 6//// 10252 20200 39948 40124 8603/ 333 2//// 59019 60054
AAXX 14124 83565 32897 83204 10252 20205 39611 40069 88/9/ 333 20231 59012
AAXX 14124 83623 32996 7//// 1//// 2//// 39508 4//// 53026 85550 333 2////
AAXX 14124 83630 21597 53604 10242 20167 3//// 4//// 52017 70362 82242 333 20183 60144
AAXX 14124 83676 32997 63604 10248 20232 39436 40050 51009 80006 333 20210
AAXX 14124 83702 22999 81808 10212 20112 39356 40113 53005 80004 333 20174 60124
AAXX 14124 83704 32998 01804 10236 20149 39655 40060 54000 333 2////
AAXX 14124 83716 32997 63603 10255 20196 39583 40066 53008 86084 333 20228
AAXX 14124 83726 32597 80502 10243 20182 39146 40095 52009 83102 333 20199
BBXX 63110 14123 99595 10015 41498 52335 10076 20036 49648 71586 838// 22200 11010 70050
BBXX AMOUK08 14124 99501 70061 46/// ///// 10083 20045 39971 49977 52021 91150
BBXX AMOUK05 14124 99537 70003 46/// ///// 10050 20004 39829 49869 52012 91150
BBXX PJGO 14124 99571 10022 46/// ///// 22200
BBXX 63106 14124 99610 10017 46/// /2426 10077 49601 52038 22200
BBXX 63113 14124 99610 10017 46/// /2524 10077 20033 49616 52044 22200 10912 70058
BBXX 62103 14124 99499 70029 46/97 /2635 10078 20021 49974 52027 22200 00124 10806 70032 333 90710 91153
BBXX ZCBF3 14123 99371 70145 41598 63024 10170 20135 40282 52015 70322 85476 22264 21006 329// 41412 5//// 80150
BBXX TBWUK34 14124 99367 10128 41498 32310 10180 20116 40251 54000 70100 82141 22224 00210 20402 332// 40701 5//// 80145
BBXX 42362 14121 99278 70907 46/// /1110 10228 20178 40227 91230
BBXX 42363 14121 99282 70892 46/// /1210 10217 20156 40241 91230 333 91213
BBXX 42364 14121 99291 70881 46/// /1309 10211 20167 40247 91230
BBXX 46238 14121 99334 71195 46/// ///// 1//// 91220 22200 00148 11103 21002 328// 41101 70014
AAXX 14124 78318 11561 10905 10210 20178 30190 40194 53004 60001 70500 81202 333 10258 20209 31/// 56909 58004 70060 81820
AAXX 14124 78325 11460 20904 10234 20164 30140 40198 53001 60001 70400 81202 333 10259 20215 30/// 55053 56209 58007 70060 81817 555 10903
AAXX 14124 78333 12410 30202 10180 20165 30179 40186 51004 60001 81202 333 10287 20175 30/// 56100 58004 81818 83070 555 10402
AAXX 14124 78348 11456 40508 10223 20179 30136 40188 53004 60001 70511 83802 333 10262 20221 30/// 50684 56109 57842 58008 70001 82819 555 10503
AAXX 14124 78349 11550 43501 10192 20185 30082 40193 53008 60001 71000 84200 333 10276 20188 31/// 50124 56800 57813 58009 70012 84820 555 10203
AAXX 14124 78353 01570 40605 10239 20193 30163 40185 53017 69911 72580 84800 333 10266 20223 31/// 50124 56900 58010 69917 70105 83820
AAXX 14124 78360 01570 60104 10229 20219 30143 40155 53008 69901 70162 83406 333 10307 20228 30/// 56809 59001 69907 79999 81820 832// 92025 555 13603
AAXX 14124 78369 11466 60309 10251 20213 30138 40147 51007 60001 70522 86200 333 10280 20240 31/// 55076 56100 57863 59001 70023 86818 92045 555 10303
BBXX 46243 14121 99462 71241 46/// ///// 1//// 91229 22200 00083 11403 21002 326// 41403 70017
BBXX 46229 14121 99438 71246 46/// ///// 1//// 91221 22200 00102 11304 21002 329// 41303 70019
BBXX 46225 14121 99329 71174 46/// ///// 1//// 91214 22200 00155 11302 20602 324// 41301 70010
BBXX 46213 14121 99403 71247 46/// ///// 1//// 91224 22200 00098 11403 20902 328// 41403 70017
BBXX 46215 14121 99352 71209 46/// ///// 1//// 91208 22200 00129 11002 21002 329// 41101 70012
BBXX 46224 14121 99332 71175 46/// ///// 1//// 91206 22200 00154 11302 20902 322// 41301 70010
BBXX 46214 14121 99379 71235 46/// ///// 1//// 91225 22200 00116 11303 20802 328// 41302 70014
BBXX 44060 14121 99413 70721 46/// ///05 10036 40291 91230 22200 00109 333 91207 555 11057 22057
BBXX 44022 14121 99409 70737 46/// ///02 10049 20000 40297 91230 22200 00086 333 91203 555 11021 22021
BBXX 44040 14121 99410 70736 46/// /3002 10050 20004 40302 91219 22200 1//00 70000 333 91203 555 11015 22021
BBXX 51202 14121 99214 71577 46/// ///// 1//// 91209 22200 00245 10904 20904 307// 41101 70020
BBXX WC5932 14124 99432 70863 43/// /1412 00/// 10039 21144 40215 55025 7//// 8//// 22200 0//// 2//// 3//// 4//// 5//// 6//// 81014 ICE /////
BBXX WDA2768 14124 99440 70874 43/// /0234 00/// 10052 20039 40185 55037 7//// 8//// 22243 0//// 2//// 3//// 4//// 5//// 6//// 80045 ICE /////
BBXX C6VG7 14124 99184 70770 41596 40327 10260 2//// 40140 54/// 7//// 84963 22214 0//// 20402 303// 40402 50402 6//// 8//// ICE /////
AAXX 14124 60096 32960 00312 10180 20110 40243 51005
BBXX SHIP 14121 99156 50751 41997 21209 10220 20175 40140 53010 70100 80008 22234 20102 315// 41205 80190
BBXX A8CJ2 14124 99343 50723 41/93 83307 10160 20144 40150 52010 70044 8//// 22284 04160 21003 325// 41205 5//// 80150
BBXX 62141 14123 99493 50590 41697 33526 10122 40186 57006 72100 83148 22200 20604 33232 40502 50604
BBXX VQKZ5 14123 99126 50790 41598 41413 10210 20186 40140 55050 70211 83171 22244 02214 2//// 314// 40503 5//// 80195
BBXX 52248 14121 99135 11448 46/// ///// 1//// 91206 22200 00285
BBXX 52245 14121 99181 11458 46/// ///// 1//// 91205 22200 00281
BBXX 52246 14121 99152 11457 46/// ///// 1//// 91207 22200 00282
BBXX 52244 14121 99200 11452 46/// ///// 1//// 91207 22200 00270
BBXX UINM 14121 99474 11458 42998 02907 11020 40155 52005 22283 00022 20301
BBXX UGOS 14121 99500 11443 41/97 92508 11090 40146 54000 77072 22233 01003 20000 ICE41092
BBXX A8MV6 14123 99061 10952 41498 60410 10270 20241 40100 54000 70322 84263 22273 04300 20601 30299 40801 5//// 80250
BBXX 52243 14121 99193 11666 46/// ///// 1//// 91155 22200 00264
BBXX DHTK 14124 99139 70292 41396 70318 10267 20209 40138 51009 70222 83637 22214 00260 2//05 80226
BBXX DPMT 14124 99006 50311 41497 31223 10260 20221 40102 54000 70100 81101 22244 20505 80232
BBXX ZSAF 14124 99526 30000 41295 83214 10027 20015 49726 57041 75155 8562/ 22243 04017 2//// 333// 40912 5////
BBXX A8PK8 14123 99191 10393 41598 31512 10285 20202 40154 58029 70211 8314/ 22234 04292 20201 315// 40202 5//// 80230
BBXX AMOUK17 14124 99328 30563 46/// ///// 10193 20127 30219 40235 54000 91150
BBXX DMDZ 14123 99287 70202 41598 30814 10200 20144 40300 52020 70200 8318/ 22253 04200 20501 301// 41206 5//// 80165
BBXX A8RL4 14124 99297 70149 41598 30611 10215 20143 40290 54000 7//22 83100 22243 00200 20401 80170
BBXX AMOUK15 14124 99079 50144 46/// ///// 10258 20181 30109 40138 52005 91150
BBXX A8JM6 14124 99269 70205 41597 50608 10215 20157 40262 52030 70222 851// 22284 04219 20204 301// 40205 80178
BBXX 46036 14121 99484 71339 46/// /1705 10084 40104 57025 22200 00085 11305 70024 333 91206
BBXX 44140 14121 99429 70515 46/// /0415 10125 40058 57019 22200 00092 10806 70031 333 91219
BBXX 44258 14121 99445 70634 46/// /0112 10025 40244 52027 22200 00067 11003 70013 333 91214
BBXX KS098 14124 99446 71240 43/// /1103 10025 40205 22200 06000
BBXX KS088 14124 99267 70801 43/// /0701 10221 40225 22200 06233
BBXX KS094 14124 99133 70596 43/// /0704 10274 40119 22200 06271
BBXX 44099 14121 99369 70757 46/// ///// 1//// 91222 22200 00125 11102 21002 309// 41101 70012
BBXX 44098 14121 99428 70702 46/// ///// 1//// 91207 22200 00092 10603 20603 311// 41201 70016
BBXX 44039 14121 99411 70727 46/// /3506 10053 20008 40304 91153 22200 00101 10301 70003 333 91208
BBXX 42013 14121 99272 70829 46/// ///// 1//// 40243 91140 22200 00199
BBXX 42099 14121 99273 70842 46/// ///// 1//// 91227 22200 00234 10602 20602 70012
BBXX 41112 14121 99307 70813 46/// ///// 1//// 91221 22200 00164 11003 21003 311// 41201 70014
BBXX 41113 14121 99284 70805 46/// ///// 1//// 91221 22200 00223 11103 20902 310// 41101 70013
BBXX 42361 14121 99276 70925 46/// ///10 10228 20183 40210 55003 91230 555 11082 22087
BBXX 41110 14121 99341 70777 46/// ///// 1//// 91221 22200 00140 11102 20902 311// 41101 70010
BBXX 41009 14121 99285 70802 46/// /0609 10226 20136 40252 91220 22200 00247 11105 20704 300// 41103 70026 333 91210 555 11090 22095
BBXX 41010 14121 99289 70785 46/// /0509 10212 40249 91220 22200 00239 11106 20804 300// 41104 70029 333 91211 555 11094 22099
BBXX 44100 14121 99363 70756 46/// ///// 1//// 91222 22200 00133 11103 20603 310// 41101 70015
BBXX 46246 14121 99500 71451 46/// ///// 1//// 91159 22200 00075 11006 21005 325// 41203 70031
BBXX 46246 14121 99500 71451 46/// ///// 1//// 91229 22200 00075 10806 20805 326// 41103 70030
BBXX 46146 14121 99493 71237 46/// /1006 10048 40206 57004 22200 00062 10301 70003 333 91207
BBXX 46232 14121 99325 71174 46/// ///// 1//// 91208 22200 00148 11203 20902 325// 41202 70013
BBXX 46004 14121 99509 71361 46/// /1406 10066 40128 57016 22200 00079 11205 70025 333 91208
BBXX VOXS 14124 99467 70480 41598 80225 10018 2001/ 40189 56020 70222 885// 22200 04023 20301 335// 40906 80016
BBXX OXKO2 14120 99300 70468 41/98 21820 10236 40166 57015 70222 8211/ 22254 04220 20505 3//// 4//// 5////
BBXX 46184 14121 99539 71389 46/// /1808 10048 40122 57008 22200 00066 11205 70027 333 91209
BBXX 46181 14121 99538 71288 46/// /0305 10007 40191 57004 22200 00030 10200 70001 333 91207
BBXX 51176 14121 99278 71758 46/// ///// 1//// 91202 22200 00237
BBXX 51172 14121 99284 71783 46/// ///// 1//// 91215 22200 00232
BBXX 51173 14121 99260 71739 46/// ///// 1//// 91210 22200 00244
BBXX 44059 14121 99368 70763 46/// /3603 10074 40287 53009 91200 22200 00101 333 91204
BBXX 44058 14121 99376 70763 46/// /0305 10074 40291 53003 91200 22200 00091 10301 70004 333 91206
BBXX 44059 14121 99368 70763 46/// /3503 1//// 40288 91210 333 91204
BBXX 44059 14121 99368 70763 46/// /3603 1//// 91220 333 91204
BBXX 46092 14121 99368 71220 46/// /0703 10088 40218 51014 91157 22200 00126 555 11031 22036
BBXX 44058 14121 99376 70763 46/// /0304 1//// 91220 333 91205
BBXX 44057 14121 99395 70761 46/// /3504 10036 40297 53009 91200 22200 00053 333 91205
BBXX 44057 14121 99395 70761 46/// /0103 1//// 40298 91210 333 91204
BBXX 44057 14121 99395 70761 46/// /0402 1//// 91220 333 91202
BBXX 44043 14121 99392 70764 46/// /0703 1//// 40290 91210 333 91204
BBXX 44043 14121 99392 70764 46/// /0502 10061 40289 55000 91200 22200 00067 1//00 70001 333 91203
BBXX 44042 14121 99380 70763 46/// /0603 10074 40295 52003 91200 22200 00095 1//00 70001 333 91204
BBXX WDA2768 14124 99440 70874 43/// /0234 00/// 10052 20039 40185 55037 7//// 8//// 22243 0//// 2//// 3//// 4//// 5//// 6//// 80045 ICE /////
BBXX WC5932 14124 99432 70863 43/// /1412 00/// 10039 21144 40215 55025 7//// 8//// 22200 0//// 2//// 3//// 4//// 5//// 6//// 81014 ICE /////
BBXX WDC6698 14124 99091 71461 41697 71211 10256 2025/ 40098 57002 75052 879// 22221 00266 20201 311// 40502 5//// 6//// 80250 ICE /////
BBXX 51171 14121 99064 71623 46/// ///// 1//// 91146 22200 00278
BBXX 51170 14121 99168 71695 46/// ///// 1//// 91148 22200 00263
BBXX 44043 14121 99392 70764 46/// /0603 1//// 91220 333 91204
BBXX 44042 14121 99380 70763 46/// /0704 1//// 40295 91210 333 91205
BBXX 44041 14121 99372 70768 46/// /0202 10058 40318 53006 91200 22200 00094 1//00 70001 333 91204
BBXX 44042 14121 99380 70763 46/// /0604 1//// 91220 333 91205
BBXX 44041 14121 99372 70768 46/// /0301 1//// 40317 91210 333 91202
BBXX 44041 14121 99372 70768 46/// /0301 1//// 91220 333 91201
BBXX 44062 14121 99386 70764 46/// /0603 1//// 40275 91210 22200 00089 333 91204
BBXX 44063 14121 99390 70764 46/// /0000 1//// 91220 333 91200
BBXX 44063 14121 99390 70764 46/// /0000 10050 40301 50000 91200 22200 00072 1//00 70001 333 91200
BBXX 44063 14121 99390 70764 46/// /0000 1//// 40305 91210 333 91200
BBXX 44062 14121 99386 70764 46/// /0703 1//// 91220 22200 00089 333 91204
BBXX 44062 14121 99386 70764 46/// /0603 10066 40276 52003 91200 22200 00089 1//00 70001 333 91204
BBXX DGSE 14123 99345 71267 41296 82214 10125 20116 40220 52002 763// 887// 22234 00140 2//// 80120
BBXX DFRZ 14123 99125 70595 41598 40909 10280 20232 40120 52005 7//11 83861 22254 2//// 30000 80245
BBXX V2NA1 14124 99315 70737 41/98 43523 10185 20120 40232 55000 70311 8/400 22224 04220 20506 80146
BBXX ZCEE2 14124 99162 70689 41598 30322 10280 20221 40065 58023 7//// 83100 22284 00280 20402 305// 40803 5//// 80240
BBXX PENR 14123 99363 70397 41397 81722 10198 20169 40223 56001 72165 882// 22224 20604 319// 41005 80180
BBXX MDTE9 14123 99413 70579 41197 80441 10111 20087 40099 58/// 78182 88/9/ 22223 00171 20804 304// 40610 5//// 80099
BBXX 46205 14121 99542 71343 46/// /1604 10059 40158 57009 22200 00076 11305 70026 333 91205
BBXX 46132 14121 99497 71279 46/// /1806 10086 40158 57008 22200 00082 11205 70025 333 91208
BBXX 46206 14121 99488 71260 46/// /1903 10080 40187 57006 22200 00084 11304 70021 333 91204
BBXX 46208 14121 99525 71327 46/// /1305 10062 40159 57011 22200 00075 11205 70025 333 91206
BBXX 46185 14121 99524 71298 46/// /0805 10044 40161 57014 22200 00070 11402 70010 333 91207
BBXX PCBT 14123 99125 70720 41498 50814 10268 20248 40106 52013 71582 83398 22264 20302 80253
BBXX 44030 14121 99432 70704 46/// /0306 1//// 40286 53017 91204 22200 00091 10502 70012 333 91208 555 11079 22084
BBXX 46087 14121 99485 71247 46/// /1202 10057 20050 40200 91220 22200 00076 333 91203 555 11021 22021 31158 41104 61219 124020 127024 117027 126020 148021 148016
BBXX 44040 14121 99410 70736 46/// /3002 10050 20004 40302 91215 22200 1//00 70000 333 91203 555 11015 22021
BBXX 44024 14121 99423 70659 46/30 /0209 10051 40234 52013 91204 22200 00093 10604 70018 333 91211 555 11106 22111
BBXX 44039 14121 99411 70727 46/// /3405 10054 20007 40301 91200 22200 00101 10301 70003 333 91207
BBXX 44029 14121 99425 70706 46/30 /0207 10054 40279 53019 91204 22200 00089 10502 70010 333 91209 555 11088 22093
BBXX 44022 14121 99409 70737 46/// ///00 10048 20000 40299 91215 22200 00086 333 91202
BBXX 44034 14121 99441 70681 46/28 /0109 10029 40280 51020 91204 22200 00089 10503 70013 333 91210 555 11104 22109
BBXX 44060 14121 99413 70721 46/// ///06 10037 40287 91215 22200 00108 333 91207 555 11062 22062
BBXX 44033 14121 99441 70690 46/30 /0307 10035 40287 53017 91204 22200 00082 10301 70005 333 91208 555 11083 22086
BBXX 41029 14121 99328 70796 46/// /0303 1//// 91200 555 11044 22051
BBXX 44032 14121 99437 70694 46/30 /0408 10043 40279 51019 91204 22200 00089 10402 70009 333 91209 555 11100 22104
BBXX OUJI2 14124 99542 71746 43/// /1740 10010 2//// 49940 5//// 7//// 8//// 22211 00030 2//// 3//// 4//// 5//// 6//// ICE /////
BBXX 51179 14121 99143 51708 46/// ///// 1//// 91202 22200 00284
BBXX 51174 14121 99142 51697 46/// ///// 1//// 91155 22200 00284
BBXX 51178 14121 99142 51695 46/// ///// 1//// 91158 22200 00282
BBXX 51169 14121 99004 51600 46/// ///// 1//// 91154 22200 00258
BBXX ZMENA 14124 99377 31762 46/// ///// 10174 20159 40147 57015 22200
BBXX ZMFR 14124 99479 31667 43/// /17// 10114 20113 49980 52005 22283 00119
BBXX V2QD4 14123 99391 31461 41298 21208 10174 20155 40204 51015 70111 8/7// 22272 00187 20302 320// 41003
BBXX 3ECI3 14124 99450 31722 41297 83530 10150 20113 40080 57003 70322 8/7// 22222 00130 21006 303// 40805 80130
BBXX VNVD 14123 99333 31375 41/98 31510 10215 20157 40160 53/// 70300 8//// 22293 20000 80180
BBXX SHIP 14124 99063 31054 41/97 72010 10274 20254 40049 70222 222// 0//// 20300 3//// 4//// 5////
BBXX FHZI 14124 99428 31473 46/// /0305 10142 20105 30188 40199 52014 22200 04171 85121
BBXX C6FS9 14124 99229 31597 46/// /1421 10242 20204 30089 40125 52020 22263 04265 85215
BBXX VROB 14124 99068 31470 46/// /3304 10262 20216 30069 40094 52021 22200 04285 85230
BBXX 9HA2479 14124 99219 31679 46/// /0213 10265 20246 30069 40098 57001 22215 04271 85251
BBXX UISD 14121 99343 10293 42398 33405 10180 40209 54000 8318/ 22273 00180 20301
BBXX A8UY4 14124 99357 70208 41598 63315 10182 20133 40315 52020 70222 86260 22223 06201 21008 334// 40907 80152
BBXX MINUK04 1412/ 99523 10023 46/// ///// 10075 4//// 57017
BBXX MINUK05 1412/ 99605 70045 46/// ///// 10075 49644 52025
BBXX OXHV2 14124 99407 70097 41598 32822 10235 20050 40245 50000 702// 832// 22284 00169 20603 332// 41014
BBXX C6KD5 14123 99381 70274 41798 60000 10188 20145 40311 52020 703222 8/1// 22214 20000 336// 40508 5//// 80163
BBXX 9VBM6 14123 99493 70040 41797 70317 10090 20049 40020 54000 7//22 87293 22213 04160 21013 30303 41410 51410 6//// 80070 ICE /////
BBXX ZDLP 14123 99637 50614 41297 82720 10010 20007 49959 52045 78584 887// 22213 04010 20503 33000 41006 5//// 80009
AAXX 14124 86330 32598 60000 10210 20142 40087 54002 85275 333 10228 20158 30013
AAXX 14124 86360 32497 62010 10186 20131 40108 51012 86800 333 10246 20134 30012
AAXX 14120 86460 12598 61008 10205 20149 40099 51005 60024 85105 333 1//// 20154 30014 86490 12498 61210 10210 20136 40117 51005 69904 86200 333 10210 20122 30009
AAXX 1412/ 89327 46/// ///// 11061 39499 4//// 5//// 91210
AAXX 1412/ 89327 46/// ///// 11064 39498 4//// 5//// 91220
AAXX 1412/ 89828 46/// ///// 11285 36436 4//// 5//// 91210
AAXX 1412/ 89108 46/// ///// 11259 36845 4//// 5//// 91220
AAXX 1412/ 89879 46/// ///// 11006 39743 4//// 5//// 91220
AAXX 1412/ 89872 46/// ///// 11043 39764 4//// 5//// 91210
AAXX 1412/ 89869 46/// ///// 11074 39739 4//// 5//// 91210
AAXX 1412/ 89869 46/// ///// 11073 39739 4//// 5//// 91220
AAXX 1412/ 89866 46/// ///// 11041 39714 4//// 5//// 91210
AAXX 1412/ 89329 46/// ///// 11185 38643 4//// 5//// 91210
AAXX 1412/ 89799 46/// ///// 11264 4//// 5//// 91220
AAXX 1412/ 89332 46/// ///// 11128 39113 4//// 5//// 91220
AAXX 1412/ 89769 46/// ///// 11081 39778 4//// 5//// 91220
AAXX 14124 89667 46/// /1005 11093 29078 39809 4//// 5//// 91220
AAXX 14124 89667 46/// /1205 11100 39810 4//// 5//// 91210
AAXX 14124 89667 46/// /1403 11105 39810 4//// 5////
AAXX 14124 42398 31995 10000 10158 20146 40153 71000 81030 333 10212 58007 81359
AAXX 14124 43333 31495 40704 10262 20197 40106 70521 83401 333 10306 56109 58009 82616 83070
AAXX 14124 91723 NIL
AAXX 14124 91964 NIL
AAXX 14121 37470 42998 20102 10081 20045 30311 40289 57004 82030 555 11008
AAXX 14121 37472 41596 81205 10065 20049 30307 40285 57006 71022 8357/
AAXX 14121 38111 42697 40104 10028 21030 30342 40313 57007 84500 555 11004
AAXX 14121 38750 42997 63601 10112 20032 30327 40298 57005 80001 555 10011
AAXX 14121 31152 32997 80000 11352 21380 39855 40314 52002 85036 333 11347
AAXX 14121 31163 NIL
AAXX 14121 31285 32999 02001 11263 21294 30144 40230 53006 333 11226
AAXX 14121 31561 32998 23603 11199 21248 30151 40181 53003 80001 333 11155
AAXX 14121 31683 32999 70000 11226 21238 30094 40176 58001 84031 333 11171
AAXX 14121 32010 12998 02903 11173 21179 30085 40137 56001 69920 333 11137 91004 91106
BBXX 44137 14121 99423 70620 46/// /0209 10080 40192 52016 22200 00115 10605 70024 333 91211
BBXX 44137 14121 99423 70620 46/// /0209 10080 40192 52016 22200 00115 10605 70024 333 91211
AAXX 14124 71963 16/// /3019 11292 21320 39716 40139 51012 60001 333 11048 21293 4/005 70000
AAXX 14124 71049 16/// /3021 11260 39873 49897 52025 60001 333 11103 21260 70000
AAXX 14124 71923 16/// ///10 11257 21283 39667 40128 53013 60001 333 11039 21257 70000
AAXX 14124 71490 16/// /2726 11280 21304 39753 40089 51013 60001 333 11059 21281 4/009 70000
AAXX 14124 71761 16/// ///// 11028 21058 60001 333 11010 21051 70000
AAXX 14124 71592 16/// /0915 11158 21223 39936 49949 58014 60001 333 11187 21216 4/010 70000
AAXX 14123 63723 32682 30304 10334 20196 40095 83200 333 58013 83831
AAXX 14123 63793 11550 70000 10290 20201 40062 69901 78022 872// 333 58017 87821
AAXX 14124 48440 31957 80000 10260 20190 30065 40115 52008 71022 80007 333 10303 59002
AAXX 14124 48358 31957 50905 10220 20162 39968 40147 52011 71011 82035 333 10270 59007
AAXX 14124 48384 31558 60000 10233 20180 39941 40133 51003 71022 83506 333 10270 59006
BBXX 44138 14121 99443 70536 46/// /0416 10048 40142 52001 22200 00082 10606 70028 333 91220
BBXX 44138 14121 99443 70536 46/// /0416 10048 40142 52001 22200 00082 10606 70028 333 91220
AAXX 14121 40001 32970 50901 10135 20011 40223 58013 80506 333 82360 85270
AAXX 14121 40007 32960 30903 10122 20040 40223 56017 83050 333 83360
AAXX 14121 40025 32960 63102 10197 20048 40184 56019 80002 333 86070
AAXX 14121 40045 32570 50000 10118 20024 40240 58019 82550 333 82630 85360
AAXX 14121 40061 32970 70000 10103 20017 40217 57014 80008 333 87270
AAXX 14121 40080 32565 50903 10146 2PVTO WPNEYNWH TTQI NPPI E WV RPPWW EWOYT YPRPE QPQUY WPPRP RPQIP TUPQO IPPPW WWWXX WPPPP EEE IYPUPV RPPEP EWOUP YPPPP QPQPR WPPRI RPWQY TUPWW IEPEI EEE IEEYP IYWUPV RPPEO EWTUP UPPPP QPPIP WPPER RPWWU TUPQQ IRTTP EEE IRYEP IUEYPV RPPYY EWOUP YPUPY QPQWP WQPPY RPQIR TUPPI IEPEW EEE IEEYP IYPUPV RPPUW EWOUP PPPPP QPQQI WPPWU RPWEI TUPWRV RPPIE EWTUP TQPPQ QPQIP WQPQT RIROI TUPWQ ITIPP EEE IWIWY IRYEPV
AAXX 14124 63612 32680 20912 10340 20105 40082 82100 333 58012 82832
AAXX 14124 63661 32580 53204 10237 20132 48504 85961 333 58010 81925 85826
AAXX 14124 63688 32580 50512 10227 20090 48/// 84931 333 58010 81923 84824
AAXX 14124 63695 32580 30000 10242 20144 82130 333 82824 83359
AAXX 14124 63708 32580 32418 10266 20185 48487 83931 333 58021 81925 83826
AAXX 14124 63772 12580 40708 10309 20247 60011 83903 333 81923 83824
AAXX 14124 63820 82580 20810 10230 20234 40090 82900 333 58000 82827
AAXX 14124 63671 NIL
AAXX 14124 63714 NIL
AAXX 14124 63723 NIL
AAXX 14124 63740 NIL
AAXX 14124 63793 NIL
BBXX 46004 14121 99509 71361 46/// /1406 10066 40128 57016 22200 00079 11205 70025 333 91208
BBXX 46036 14121 99484 71339 46/// /1705 10084 40104 57025 22200 00085 11305 70024 333 91206
BBXX 46145 14121 99544 71324 46/// /1503 10049 40169 57008 22200 00068 11104 70018 333 91204
BBXX 46181 14121 99538 71288 46/// /0305 10007 40191 57004 22200 00030 10200 70001 333 91207
BBXX 46183 14121 99536 71311 46/// /0904 10043 40168 57013 22200 00081 11201 70006 333 91205
BBXX 46185 14121 99524 71298 46/// /0805 10044 40161 57014 22200 00070 11402 70010 333 91207
BBXX 46204 14121 99514 71288 46/// /0609 10058 40154 57019 22200 00081 11403 70017 333 91211
BBXX 46205 14121 99542 71343 46/// /1604 10059 40158 57009 22200 00076 11305 70026 333 91205
BBXX 46206 14121 99488 71260 46/// /1903 10080 40187 57006 22200 00084 11304 70021 333 91204
BBXX 46208 14121 99525 71327 46/// /1305 10062 40159 57011 22200 00075 11205 70025 333 91206
BBXX A8JX9 14123 99453 71330 41/97 82210 10110 20101 40120 57050 70052 8//// 22274 29902 3//// 4//// 5//// 80105
BBXX C6SI4 14124 99547 71449 41496 72325 10050 20030 40060 51010 70222 872// 22273 00060 21106 319// 4//// 5//// 6//// 80040 ICE /////
BBXX DGSE 14123 99345 71267 41296 82214 10125 20116 40220 52002 763// 887// 22234 00140 2//// 80120
BBXX KS098 14124 99446 71240 43/// /1103 10025 40205 22200 06000
AAXX 14121 80210 11332 80000 10180 230168 38664 75165 81678 333 20174 32/// 50470 56600 59003 81707 86357
AAXX 14121 80214 11220 82702 10202 20202 39121 69914 7414/ 8787/ 333 20194 30/// 50200 5650/ 59007 87804
AAXX 14121 80222 11566 60602 10121 20108 37519 60024 71022 82535 333 20102 31/// 55020 56229 58001 82620 83357
AAXX 14121 80234 01562 50000 10232 20208 39597 40090 60424 70262 81572 333 20208 310// 50550 55066 56239 59004 60382 81623 84070
AAXX 14121 80241 NIL
AAXX 14121 80259 01358 83502 10200 20186 39058 60144 71552 8447/ 333 20200 31/// 50250 55017 5639/ 59008 69917 82610 83623 86458
AAXX 14121 80315 011558 80000 10222 20213 39595 40102 60054 72096 8351/ 333 20218 31/// 50390 55058 59006 60051 83627 88462
AAXX 14121 80342 01410 80000 10152 20150 38217 60024 75352 884// 333 20152 32/// 50370 55033 564// 59003 60012 88610
AAXX 14121 80370 01458 80000 10094 20091 60094 7152/ 8347/ 333 20088 31/// 50140 55009 5640/ 60042 83616 85457
AAXX 14121 80398 32270 70000 10252 20247 30005 40100 82571 333 20234 30/// 50130 55004 56399 59010 82604 86359
AAXX 14121 80001 11470 80507 10272 20234 30108 40109 60061 70265 82236 333 20242 31/// 5///0 55000 56200 58000 70231 82816 86270
AAXX 14121 80002 NIL
AAXX 14121 80009 01560 40000 10241 20226 30087 40092 60034 7051/ 81831 333 20240 30/// 50360 55077 56000 59011 60038 81820 83357
AAXX 14121 80022 01462 80902 10258 20241 30088 40090 60074 70521 81431 333 20256 30/// 50240 55023 56190 59013 81815 83457
AAXX 14121 80028 NIL
AAXX 14121 80036 31360 70103 10236 20224 7052/ 81538 333 20233 30/// 50422 55055 56000 81607 85270
AAXX 14121 80063 NIL
AAXX 14121 80084 01470 51803 10237 20229 60044 7052/ 82531 333 20233 31/// 55084 56199 60042 82617 83358
AAXX 14121 80091 01458 70502 10235 20228 60024 75052 85858 333 20232 31/// 50400 55060 56999 57893 69947 85810
AAXX 14121 80094 11464 50000 10186 20177 38804 69984 7102/ 81875 333 20180 30/// 50200 55042 56739 59013 81812 83358
AAXX 14121 80097 NIL
AAXX 14121 80099 NIL
AAXX 14121 80110 01440 80000 101818 20165 38504 60074 7055/ 9757/ 333 20182 32/// 5600/ 59009 60072 87615
AAXX 14121 80112 11245 80000 10142 20139 37897 60144 74152 84671 333 20138 31/// 55026 56009 59009 84605 85358
AAXX 14121 80144 01340 81203 10228 20225 60864 7105/ 8471/ 333 20224 32/// 50380 55037 5600/ 60862 84709 88457
AAXX 14121 80001 11470 80507 10272 20234 30108 40109 60061 70265 82236 333 20242 31/// 5///0 55000 56200 58000 70231 82816 86270
AAXX 14121 80002 NIL
AAXX 14121 80009 01560 40000 10241 20226 30087 40092 60034 7051/ 81831 333 20240 30/// 50360 55077 56000 59011 60038 81820 83357
AAXX 14121 80022 01462 80902 10258 20241 30088 40090 60074 70521 81431 333 20256 30/// 50240 55023 56190 59013 81815 83457
AAXX 14121 80028 NIL
AAXX 14121 80036 31360 70103 10236 20224 7052/ 81538 333 20233 30/// 50422 55055 56000 81607 85270
AAXX 14121 80063 NIL
AAXX 14121 80084 01470 51803 10237 20229 60044 7052/ 82531 333 20233 31/// 55084 56199 60042 82617 83358
AAXX 14121 80091 01458 70502 10235 20228 60024 75052 85858 333 20232 31/// 50400 55060 56999 57893 69947 85810
AAXX 14121 80094 11464 50000 10186 20177 38804 69984 7102/ 81875 333 20180 30/// 50200 55042 56739 59013 81812 83358
AAXX 14121 80097 NIL
AAXX 14121 80099 NIL
AAXX 14121 80110 01440 80000 101818 20165 38504 60074 7055/ 9757/ 333 20182 32/// 5600/ 59009 60072 87615
AAXX 14121 80112 11245 80000 10142 20139 37897 60144 74152 84671 333 20138 31/// 55026 56009 59009 84605 85358
AAXX 14121 80144 01340 81203 10228 20225 60864 7105/ 8471/ 333 20224 32/// 50380 55037 5600/ 60862 84709 88457
AAXX 14124 48481 01558 60000 10241 20206 30087 40115 52016 69902 71062 83556 333 10300 58001 69906 79999
AAXX 14124 48574 32560 50000 10262 20234 30063 40092 52008 82101 333 10307 59005 79999
BBXX MINUK01 1412/ 99602 70012 46/// ///// 10068 49640 52035
AAXX 14124 48307 31957 00000 10195 20162 39755 40142 51008 71000 333 10295 58006
AAXX 14124 48324 31958 00903 10231 20169 39908 40129 52006 71000 333 10309 58002
AAXX 14124 48333 31959 00000 10217 20177 39833 40139 52014 71000 333 10291 58004
AAXX 14124 48350 31956 00000 10196 20155 39835 40141 52011 71010 333 10271 58001
AAXX 14124 48355 31940 00000 10225 20185 39915 40137 52007 71021 333 10273 59013
AAXX 14124 48358 NIL
AAXX 14124 48384 NIL
AAXX 14124 48401 31958 20000 10260 20193 30024 40132 52008 71000 81045 333 10300 59001
AAXX 14124 48404 31558 70703 10240 20176 39949 40128 52009 71022 84556 333 10275 59006
AAXX 14124 48409 32960 20102 10255 20188 39976 40124 52010 80001 333 10285 59006
AAXX 14124 48419 31559 80403 10270 20184 30111 40119 51007 70522 84545 333 10303 59005
AAXX 14124 48427 31557 70202 10256 20180 30114 40122 52004 70522 82456 333 10293 58001
AAXX 14124 48435 31558 60904 10238 20161 39687 40127 53006 70522 82575 333 10270 59006
AAXX 14124 48453 32560 80000 10278 20182 30117 40120 52015 83536 333 10313 59001
AAXX 14124 48458 31557 80000 10256 20204 30052 40133 52008 71022 885// 333 10297 59004
AAXX 14124 48474 31958 80000 10259 20169 39995 40119 52012 70522 8807/ 333 10298 59002
AAXX 14124 48481 NIL
AAXX 14124 48555 31550 50000 10255 20233 30086 40129 51014 71011 82106 333 10303 58005
AAXX 14124 48556 NIL
AAXX 14124 48557 32560 40000 10270 20241 30065 40100 52012 82105 333 10327 58008
AAXX 14124 48560 31558 30000 10272 20242 30088 40093 52003 71000 82202 333 10298 58003 70002
AAXX 14124 48574 NIL
AAXX 14124 48581 31558 60203 10269 20240 30056 40097 52007 71022 82141 333 10301 59009 70032
AAXX 14121 98134 11456 80403 10230 20223 39957 40149 5//// 60011 76066 8552/ 333 10244 56999 58007 85617 88456
AAXX 14121 98223 31462 13602 10270 20246 40106 53021 70240 81100 333 10312 56999 58010 81819
AAXX 14121 98232 31570 50406 10264 20243 40129 52014 70342 82370 333 10298 56999 58017 82920 85358
AAXX 14121 98325 31458 43204 10287 20261 40112 53020 70142 82271 333 10325 56999 58012 82817
AAXX 14121 98328 31460 51402 10202 20176 38535 40109 53020 74044 84201 333 10246 56999 58010 84813
AAXX 14121 98330 31470 10401 10280 20250 30081 40113 53013 70194 81200 333 10330 56999 59003 81818
AAXX 14121 98336 32470 33601 10251 20247 30126 40131 51013 81201 333 10316 56999 58002 81816
AAXX 14121 98429 11560 51303 10275 20244 40109 52013 69901 70544 82830 333 10302 56999 82825 83360
AAXX 14121 98430 31558 50000 10257 20234 40109 52017 70544 82101 333 10318 56999 59002 82820
AAXX 14121 98431 31458 50901 10259 20236 30055 40102 51010 70142 82230 333 10315 56999 59003 82818 85360
AAXX 14121 98440 11450 80704 10260 20244 30108 40113 53009 60051 76044 8522/ 333 10300 56299 58003 85815 88457
AAXX 14121 98444 11458 80602 10266 20256 30091 40110 53027 60031 78182 83270 333 10315 56999 58001 83918 88459
AAXX 14121 98526 31570 63602 10262 20258 40105 52024 71320 81908 333 10/// 59001 81920 86274
AAXX 14121 98531 31468 40000 10276 20255 30093 40097 53015 71344 82902 333 10/// 56999 59005 81919 81820 83075
AAXX 14121 98536 11460 80403 10258 20236 39897 40102 53016 60021 79598 8397/ 333 10285 56199 59018 83918 88357
AAXX 14121 98543 11468 80000 10274 20256 30085 40096 53024 60011 78022 83507 333 10328 56999 59006 83618 88272
AAXX 14121 98550 11459 80901 10265 20248 40102 52021 60051 78082 8397/ 333 10318 56999 59002 81915 88357
AAXX 14121 98618 11468 42401 10271 20247 40097 53010 60051 70196 82261 333 10316 56999 59001 82820 84075
AAXX 14121 98630 32575 30201 10270 20252 40138 53013 82201 222// 2//01 333 10320 56199 58002 82820
AAXX 14121 98637 NIL
AAXX 14121 98646 31460 63602 10276 20258 30092 40120 52020 71322 82970 333 10306 56999 59005 82918 86359
AAXX 14121 98653 11465 72201 10259 20247 30042 40087 52022 60171 70584 82270 333 10324 56999 59007 82818 87358
AAXX 14121 98741 NIL
AAXX 14121 98747 31460 42201 10262 20246 39881 40086 52021 70544 83470 333 10320 56999 59011 83618
AAXX 14121 98753 NIL
AAXX 14121 98755 11575 42701 10260 20248 40092 52014 71382 81901 333 10310 56999 59011 81920 84080
AAXX 14121 98836 31460 70000 10276 20247 40098 52014 70544 82808 333 10337 56999 59001 82818 87281
AAXX 14121 01329 16/// /0502 10042 20029 39643 49702 51010 6////
AAXX 14121 01337 16/// /0302 10033 20012 39637 49701 53012 6////
AAXX 14121 01465 16/// /2222 10069 20037 39786 49804 50009 6////
AAXX 14121 01273 16/// /1103 10049 21031 39515 49703 55001 6////
AAXX 14121 01321 16/// /1502 10043 20004 39417 49659 50011 6////
AAXX 14121 01412 16/// /2115 10066 20049 39713 49742 51015 6////
AAXX 14121 01441 16/// /1809 10000 21017 38776 49730 53007 6////
AAXX 14124 48556 32560 50105 10266 20240 30088 40104 52017 81106 333 10307 58007
AAXX 14121 01225 46/// /1206 10075 21009 39634 49639 55013
AAXX 14121 01254 16/// /1702 10048 21020 6//// 333 4/019
AAXX 14124 94290 46/// /0719 10291 30075 40084 51011 91224
AAXX 14124 94290 46/// /0719 10291 30075 40084 51011 91224
AAXX 14124 91532 45/// /0606 10275 20242 30083 40091 54000 333 10313
AAXX 14124 94210 35/// /2508 10283 30060 40065 52029
AAXX 14124 94289 46/// /0609 10295 30070 40077 51011 91215
AAXX 14124 94379 46/// /0819 10259 30104 40113 51013 91226
AAXX 14124 83437 21599 83601 10230 20209 39391 40102 70396 887// 333 20208 59002 60274
AAXX 14124 83579 21599 73603 10220 20184 38984 40092 70362 87800 333 20186 59018 60084
AAXX 14124 83592 32597 83606 10237 20196 39440 40112 885// 333 20209 59004
BBXX 3EDA4 14123 99083 11496 41398 50606 10280 20267 40072 54/// 70211 83152 22234 00291 20303 311// 40303 80270
AAXX 14124 67755 42675 70302 10312 20204 3//// 48/// 81231 333 5//// 81940 84080
AAXX 14124 67843 41680 63605 10278 20176 38907 48469 71792 85203 333 58000 81930 85830
AAXX 14121 55228 32780 12505 11028 21339 35997 57003 81100 333 00000
AAXX 14121 55578 32980 02503 10072 21353 36321 57003 333 00253
AAXX 14121 55664 32980 02008 10021 21264 35977 52008 333 00053 91118 91518
AAXX 14121 55773 32370 11104 11058 21104 35991 52013 81600 333 00001
AAXX 14121 56116 32680 13401 11019 21168 36321 52008 81400 333 00102
AAXX 14121 56137 32980 20000 10034 21243 36771 52011 80002 333 00202
AAXX 14121 56172 32780 52901 10022 21050 37335 52022 85500 333 00103
AAXX 14121 56247 32980 00903 10082 21141 37398 52021 333 00101
AAXX 14121 56312 32980 01404 10041 21080 37069 52020 333 00000
AAXX 14121 56462 32680 12902 10005 21055 37134 52027 81100 333 00251
AAXX 14121 56651 32680 72502 10068 21037 37642 52010 874// 333 00100
AAXX 14121 56691 11467 80202 11015 21025 37806 52012 69901 76870 887// 333 00457 93427
AAXX 14121 56985 32562 21603 10136 20084 38724 40179 52015 82400 333 00100
AAXX 14121 57633 11460 80201 10053 20032 39502 40304 52016 69941 76060 887// 333 00552
AAXX 14121 57902 11461 80402 10044 20044 38681 40260 52015 60011 70060 885// 333 00454
AAXX 14121 55279 32980 02902 11078 21286 35685 57001 333 00251
AAXX 14121 55472 32980 02003 11063 21303 35712 57002 333 00154 91120 91529
AAXX 14121 55696 32980 00710 10000 21108 36302 52022 333 00101 91117 91509
AAXX 14121 56079 32980 00203 11062 21154 36674 52010 333 00100
AAXX 14121 56106 32980 02905 11028 21302 36192 52006 333 00200 91117 91527
AAXX 14121 56257 32980 00000 11014 21199 36258 52019 333 00151
AAXX 14121 56374 32580 80906 11025 21072 37449 52022 884// 333 00452
AAXX 14121 56385 11680 83202 11096 21100 37028 52014 69901 70074 885// 333 00355
AAXX 14121 56954 32570 12501 10155 20121 40166 52016 81400 333 00151
AAXX 14121 56966 32765 72501 10156 20134 40163 52012 87400 333 00000
AAXX 14121 57237 32965 82001 10074 20006 40288 52016 8807/
AAXX 14121 57306 11961 80000 10087 20058 40293 52023 69901 76000 8807/
AAXX 14121 57604 11740 70901 10072 20057 40290 52019 69901 71060 87500
AAXX 14121 57707 11458 80000 10021 20006 38552 52013 69901 77070 887// 333 00553
AAXX 14121 57832 11461 80901 10038 20028 39535 40297 52017 60041 76066 887// 333 00555
AAXX 14124 43063 32997 40901 10274 20126 39494 40108 80001 333 10294 58007 84070
AAXX 14124 07558 01565 72808 10075 20053 39333 40172 51007 69921 72161 875// 333 69927 87623 90710 91125 93100 555 69925
AAXX 1412/ 48969 NIL
AAXX 1412/ 48962 NIL
AAXX 1412/ 48990 NIL
AAXX 1412/ 48986 NIL
AAXX 1412/ 48995 NIL
AAXX 1412/ 48967 NIL
AAXX 1412/ 48992 NIL
AAXX 1412/ 48965 NIL
AAXX 1412/ 48985 NIL
AAXX 1412/ 48970 NIL
AAXX 1412/ 48991 NIL
AAXX 1412/ 48964 NIL
AAXX 1412/ 48997 NIL
AAXX 1412/ 48968 NIL
AAXX 1412/ 48973 NIL
AAXX 1412/ 48966 NIL
AAXX 1412/ 48983 NIL
AAXX 1412/ 48972 NIL
AAXX 1412/ 48998 NIL
AAXX 1412/ 48993 NIL
AAXX 1412/ 48971 NIL
AAXX 1412/ 48963 NIL
AAXX 1412/ 48987 NIL
BBXX VRHO2 14124 99500 11653 41897 43124 10000 21028 49950 54000 72854 8327/ 2225/ 00050 20505 33232 40805 51206 65/// 81010 ICE /////
BBXX 44056 14121 99362 70757 46/// ///// 1//// 91150 22200 00121 11103 21003 311// 41101 70015
AAXX 14124 71019 46/// /0304 11063 21078 39996 40306 51008 6///1 333 10015 21063 7////
AAXX 14124 71048 16/// /3316 11070 21096 60001 333 11057 21150 70000
AAXX 14124 71981 46/// /0304 11033 21068 6///1 333 10002 21073 7////
AAXX 14124 71982 16/// /0606 11028 21060 60001 333 11010 21080 70000
AAXX 14124 71986 16/// /0000 11099 21107 60001 333 11082 21182 70004
AAXX 14124 71990 16/// /2303 11138 21153 38497 40126 51010 60001 333 11061 21138 4/076 55/// 00000 70009
AAXX 14124 71406 16/// /2910 11075 21114 30254 40264 56002 60001 333 11071 21081 70000
AAXX 14124 71418 46/// /0812 11016 21060 30230 40263 51024 6///1 333 10044 21016 7////
AAXX 14124 71277 46/// /2608 11056 21070 6///1 333 10000 21058 7////
AAXX 14124 71354 16/// /3213 11026 21054 60001 333 11014 21050 70004
AAXX 14124 71302 16/// /2502 11144 21156 39370 40210 51014 60001 333 11010 21144 4/017 70008
BBXX DDZA2 14124 99361 70070 41498 63112 10180 20112 40260 51010 7//22 86868 22264 04180 20202 332// 40202 80140
BBXX ELWP5 14121 99051 10013 41495 80000 10330 20249 40180 54000 705// 8/600 22200 04260 20000 3//// 4//// 5//// 80270
BBXX MGGK4 14124 99234 30084 41698 31414 10205 20115 40173 50010 70200 831// 22274 00188 2//// 3//// 4//// 5//// 80155
BBXX SHIP 14124 99216 30538 41597 40812 10275 20219 40115 54000 70211 8/200 22212 04280 2//// 3//// 4//// 5//// 80235
BBXX 42360 14121 99267 70905 46/// /1108 10233 91200 22200 00242 10703 70016 333 91211
AAXX 14124 85123 11360 81103 10228 20225 39938 40105 52015 61074 76166 8772/ 333 20214 32/// 55000 56229 58010 71071 83707 85620 88457
AAXX 14124 85139 12465 80000 10222 20219 39877 40071 51007 60204 83537 333 20199 32/// 55027 56334 58022 70195 83615 85358 88270
AAXX 14124 85153 12465 80000 10237 20222 39920 40105 52015 60034 8552/ 333 20218 31/// 56339 58010 70031 85615 88457
AAXX 14124 85154 12270 81204 10235 20228 39938 40117 52022 60554 8657/ 333 20222 31021 55000 56339 58017 70550 83606 83630 88457
AAXX 14124 48310 32960 00000 10200 20176 39674 40137 52008 333 10288 58001
AAXX 14124 48325 32960 00000 10219 20184 39878 40124 52012 333 10314 58003
AAXX 14124 48329 31957 00000 10230 20172 39787 40128 52010 71000 333 10301 58007
AAXX 14124 48352 31650 70000 10240 20167 39933 40135 52006 70522 82530 333 10278 59011
AAXX 14124 48357 31958 21102 10230 20164 39971 40141 52008 71000 81031 333 10291 59012
AAXX 14124 48380 32960 10000 10245 20197 30033 40128 51008 80001 333 10304 59005
AAXX 14124 48383 NIL
AAXX 14124 48403 31557 70000 10254 20159 39919 40130 52004 70522 83536 333 10278 58001
AAXX 14124 48405 31558 70404 10240 20167 39964 40129 52007 70522 83536 333 10276 59001
AAXX 14124 48420 31950 80000 10267 20191 30111 40116 52009 70522 85056 333 10297 59003
AAXX 14124 48421 31956 20000 10255 20222 30004 40118 52011 71000 80005 333 10323 59001
AAXX 14124 48425 31958 40504 10265 20187 30114 40124 52004 70511 80005 333 10285 59002
AAXX 14124 48426 31559 70000 10275 20171 30109 40122 53009 70522 81256 333 10307 58000
AAXX 14124 48429 31558 73307 10281 20157 30110 40117 52005 70522 82526 333 10299 59002
AAXX 14124 48430 31559 70000 10278 20169 30108 40115 52005 70522 83256 333 10310 59003
AAXX 14124 48450 31956 40802 10268 20157 30090 40123 52010 70511 80005 333 10307 58000
AAXX 14124 48459 32560 60000 10277 20187 30112 40115 52009 82175 333 10293 59002
AAXX 14124 48465 31958 60303 10262 20180 30113 40117 52013 71022 80006 333 10291 59003
AAXX 14124 48550 32460 53004 10268 20219 30095 40102 52007 82846 333 10302 58001
AAXX 14124 48552 31458 50506 10268 20227 30090 40097 52008 71011 81206 333 10305 59001 70005
AAXX 14124 48566 32560 50504 10285 20218 30078 40086 52005 82145 333 10320 58001
AAXX 14124 48568 32461 10304 10271 20228 30088 40096 52006 81201 333 10296 58000
BBXX BATFR04 14124 99596 70114 46/// /3427 10065 20029 49731 51023 22200 00102
BBXX DGAF 14120 99595 70124 41296 8//// 10080 20049 49750 51035 78062 8/778 22264 00120 20912 302// 41212 80065
BBXX 64045 14124 99591 70117 46/// /3318 10062 20033 49746 52030 22200 00101 10910 70052 333 90710 91129
BBXX BATUK01 14124 99584 70060 44496 82708 10064 20024 49695 53016 78188 8877/ 22241 00110 20404 329// 40606 5////
BBXX 62112 14124 99584 70002 47597 /2432 10075 20028 49700 52032 700// 22200
BBXX 62113 14124 99584 10002 47498 /2333 10070 20027 49711 52026 700// 22200
BBXX 62129 14124 99584 10003 46/// ///// 10068 20026 49718 52031 22200
BBXX 62114 14124 99583 10000 46/// /2433 10072 20026 49696 52029 22200
BBXX AMOUK27 14124 99581 70057 46/// ///// 10076 20055 39702 49703 52018 91150
BBXX PJAI 14124 99581 70014 47597 /2527 10086 20016 49710 52026 700// 22200
BBXX 62111 14124 99580 70003 46/// /2633 10074 20013 49738 52027 22200 10708 70041
BBXX 62117 14124 99579 10000 47997 /2429 10078 20029 49721 52030 700// 22200 10708 70040
BBXX AMOUK19 14124 99571 70021 46/// ///// 10042 20012 39748 49751 52050 91150
BBXX 62105 14124 99554 70122 46/// /2613 10078 21009 49824 51013 22200 00108 10910 70050
BBXX MINUK03 1412/ 99550 70015 46/// ///// 10048 49824 52028
BBXX 62135 14124 99540 70038 46597 /2632 10058 2//// 49860 52020 22200 10505 70025
BBXX 62126 14124 99539 70036 46998 /2432 10054 20005 49870 52020 22200 10605 70027
BBXX 62125 14124 99538 70035 46998 /2631 10057 20008 49860 52020 22200 10605 70027
BBXX AMOUK05 14124 99537 70003 46/// ///// 10050 20004 39829 49869 52012 91150
BBXX AMOUK14 14124 99536 70045 46/// ///// 10064 20015 39825 49858 57009 91150
BBXX BAREU12 14124 99535 70030 46/// ///// 49866 22200
BBXX AMOUK12 14124 99534 70056 46/// ///// 10045 21004 39840 49879 54003 91150
BBXX AMOUK11 14124 99533 70047 46/// ///// 10062 20013 39842 49879 52026 91150
BBXX 62095 14124 99530 70159 46/// /2807 10066 20041 49772 58040 22200 00114 11319 70094 333 90710 91131
BBXX 62301 14124 99524 70047 46/// /2523 10072 20013 49906 52014 22200 00106 10607 70033 333 90710 91134
BBXX 62094 14124 99517 70067 46/// /2428 10077 20033 49918 50007 22200 00109 10707 70034 333 90710 91144
BBXX 62303 14124 99516 70051 46/// /2617 10069 20029 49930 50018 22200 00116 10708 70041
BBXX 62023 14123 99514 70079 46/97 /2624 10060 2//// 49942 5//// 22200 10709 70043 333 91145 555 70068 81008
BBXX 62081 14124 99510 70134 46/// ///// 10093 20033 49912 50000 22200 00120 10915 70077
BBXX AMOUK06 14124 99509 70014 46/// ///// 10072 20019 39941 49964 52035 91150
BBXX BATFR27 14124 99507 70010 46/// /2826 10069 20004 49965 22244 00107
BBXX AMOUK09 14124 99506 70024 46/// ///// 10079 20014 39950 49968 52032 91150
BBXX BATFR02 14124 99505 70009 46/// /2930 10079 20020 49968 55/// 22284 00120
BBXX 62305 14124 99504 10000 46/98 /2641 10096 20023 49969 51013 22200 00123 10705 70024 333 90710 91153
BBXX AMOUK08 14124 99501 70061 46/// ///// 10083 20045 39971 49977 52021 91150
BBXX 62103 14124 99499 70029 46/97 /2635 10078 20021 49974 52027 22200 00124 10806 70032 333 90710 91153
BBXX BATFR03 14124 99499 70005 46/// /2347 10074 20029 49977 53035 22244
BBXX VRYO3 14124 99496 70076 46/// /2619 10096 20105 49999 52022 7//// 8//// 22224 00118 2////
BBXX TESTFR9 14124 99494 70023 46/// /2322 10083 29071 40029 22215
BBXX 9VBM6 14123 99493 70040 41797 70317 10090 20049 40020 54000 7//22 87293 22213 04160 21013 30303 41410 51410 6//// 80070 ICE /////
BBXX 62027 14124 99491 70022 46/// /2726 1//// 2//// 40018 50039 22200 00120 10707 333// 70034 333 90710 91139
BBXX 62442 14124 99490 70164 46/// /2837 1//// 2//// 40022 52020 22200 00129 333 90710 91153
BBXX 62029 14124 99487 70125 46/// /2730 10090 20027 40014 51015 22200 00134 11016 70081 333 90710 91148
BBXX PHQX 14123 99481 70293 41298 82715 10092 20023 40168 54000 70222 887// 22224 20506 3//// 4//09 5//// 80060
BBXX 62163 14124 99475 70084 46/// /2628 10106 20040 40064 50003 22200 00131 11014 70070 333 90710 91139
BBXX PBEO 14123 99466 70072 41297 62529 10114 20078 40100 54000 72582 867// 22212 02130 20506 330// 40910 80095
BBXX WDC6736 14124 99456 70122 41598 62847 10120 2006/ 40115 52015 79362 862// 22254 00170 21217 3//// 4//// 5//// 6//// 80090 ICE /////
BBXX 62001 14124 99453 70050 46/// /2729 10131 20051 40146 51020 22200 00149 10915 70074 333 90710 91139
BBXX BATFR60 14124 99453 70008 46/// /2728 10120 20052 40138 22283 00115
BBXX WGAX 14124 99443 70079 41398 52442 10125 2006/ 40129 57012 70122 851/1 22253 00141 20201 324// 40405 5//// 6//// 80090 ICE /////
BBXX DPLE 14123 99427 70249 41698 62728 10145 20093 40265 50/// 70381 84241 22213 00150 20606 332// 41412 80116
BBXX VRFX8 14124 99425 70203 41598 62729 10150 20080 40220 52030 76061 8596/ 22254 0//// 20608 330// 40910 80110
BBXX SKWI 14124 99407 70257 43/98 82820 10145 40301 51017 22263 00170 20802 41008
BBXX A8GH5 14123 99407 70106 41697 43225 10170 20090 40260 56010 70300 8314/ 22282 06160 20404 332// 41012 80125
BBXX OXHV2 14124 99407 70097 41598 32822 10235 20050 40245 50000 702// 832// 22284 00169 20603 332// 41014
BBXX A8MW6 14124 99399 70098 41998 43211 10180 20081 40240 54000 70111 84/3/ 22281 00190 20603 332// 41214 5//// 80125
BBXX A8JI2 14124 99395 70203 41597 72923 10160 20088 40270 50000 70122 8789/ 22254 04183 20609 331// 41210 5//// 80120
BBXX DBBH 14121 99393 70108 41598 73107 10153 20090 40267 52022 70282 86302 22243 04167 20302 330// 41408
BBXX BAREU05 14124 99391 70145 46/// ///// 40276 52015 22263
BBXX A8CH2 14124 99382 70279 41498 33204 10200 20153 40310 50000 70222 83145 22200 04160 20202 335// 40202 80170
BBXX C6KD5 14123 99381 70274 41798 60000 10188 20145 40311 52020 703222 8/1// 22214 20000 336// 40508 5//// 80163
BBXX DGNB 14123 99376 70253 41397 53308 10160 20078 40315 52015 70211 85445 22264 00187 22102 80115
BBXX PBFM 14123 99375 70274 41498 50304 10170 20075 40313 51003 70122 83492 22254 20200 329// 40604 80118
BBXX ZCBF3 14123 99371 70145 41598 63024 10170 20135 40282 52015 70322 85476 22264 21006 329// 41412 5//// 80150
BBXX LAVW4 14124 99367 70164 41699 63416 00/// 10170 2016/ 40290 52010 70101 86501 22253 00175 21003 334// 41007
BBXX A8LP6 14124 99365 70149 41498 43610 10175 20116 40290 52010 70311 8446/ 22264 04141 2//// 332// 41410 80140
BBXX WBDS 14123 99361 70154 41498 63213 10190 2010/ 40290 51010 7//22 8464/ 22264 00180 20202 332// 40607 5//// 6//// 80140 ICE /////
BBXX C6CU6 14123 99360 70298 41697 51310 10185 20151 40320 54000 70222 85141 22263 04190 21209 334// 41808 5//// 80165
BBXX WDF6832 14123 99360 70245 41898 63505 10180 2013/ 40350 52040 7//22 86148 22265 00180 20101 33232 40101 50101 6//// 80150 ICE /////
BBXX DEGI 14123 99360 70048 41597 42720 10202 20136 40270 54000 70111 83441 22223 04172 29903 80161
BBXX A8UY4 14124 99357 70208 41598 63315 10182 20133 40315 52020 70222 86260 22223 06201 21008 334// 40907 80152
BBXX OXBB2 14121 99352 70181 41698 80509 10180 20148 40280 57/// 70300 887// 22224 00180 20102 80160
BBXX DRMX 14123 99436 10085 41398 72421 10152 20134 40146 57010 70222 82272 22251 02160 20504 321// 40605 5//// 80142
BBXX 61001 14124 99434 10078 46/// /2216 10148 20116 40142 57012 22200 00160 10503 70014
BBXX BATEU09 14124 99429 10062 46/// /2606 10159 20114 40150 52010 22282 00174
BBXX BATFR50 14124 99427 10062 46/// /2609 10157 20117 40147 58011 22282 00159
BBXX 61002 14124 99421 10047 46/// ///13 10146 2//// 40172 52016 22200 00153 10704 70021
BBXX BAREU51 14124 99400 10121 46/// ///// 40189 52003 22235
BBXX BATFR46 14124 99396 10013 44997 62315 10165 20109 40199 58018 703// 8//5/ 22213 00167 21004
BBXX BATFR09 14124 99380 10051 44997 52630 10177 20117 40218 58007 70222 85420 22263 00182 20506 326// 40506 5////
BBXX A8UA9 14124 99376 10087 43598 22420 10180 20164 40250 50/// 82115 22263 00170 20206 80170
BBXX WHKM 14124 99373 10238 41698 32705 10190 20123 40210 54/// 7//00 8///5 22243 0//// 20301 3//// 4//// 5//// 6//// 80150 /////
BBXX PCPR 14123 99372 10049 41398 22722 10170 20119 40230 54000 70122 8/100 22263 04165 20401 327// 40502 80140
BBXX VRGJ6 14123 99372 10073 41598 22014 10170 20094 40272 58019 70100 81140 22224 04176 20502 331// 40703 5//// 80130
BBXX OZDM2 14124 99368 10010 41497 32420 10170 20137 40247 58005 70100 82140 22224 04180 20104 320// 40206 80150
BBXX NWS0020 14124 99368 10133 43/// /2211 10174 20113 40238 5//// 7//// 8//// 222// 04191 2//// 3//// 4//// 5//// 6//// 8//// ICE /////
BBXX TBWUK34 14124 99367 10128 41498 32310 10180 20116 40251 54000 70100 82141 22224 00210 20402 332// 40701 5//// 80145
BBXX BATFR11 14124 99360 10145 46/// /2705 10184 20115 40247 58018 22211 00194
BBXX UISD 14121 99343 10293 42398 33405 10180 40209 54000 8318/ 22273 00180 20301
BBXX 9V9243 14123 99338 10265 41597 32812 10190 40215 57012 70200 821/1 22233 00200 20301 329// 40402
AAXX 14124 48300 32562 10902 10230 20179 39809 40123 52006 81100 333 10280 58007
AAXX 14124 48327 32560 10000 10229 20158 39778 40136 52005 81505 333 10296 58003
AAXX 14124 48331 32960 00000 10216 20159 39899 40133 52008 333 10298 58000
AAXX 14124 48353 32960 20000 10225 20162 39842 40134 52010 82030 333 10277 58001
AAXX 14124 48356 31956 20000 10235 20170 39943 40141 53008 71021 82030 333 10273 59007
AAXX 14124 48375 32960 00000 10250 20169 39885 40110 52012 333 10325 58003
AAXX 14124 48378 31556 20000 10250 20187 30081 40134 51011 71000 81505 333 10302 59001
AAXX 14124 48381 31559 80000 10249 20166 39916 40133 51004 70522 82556 333 10270 59002
AAXX 14124 48407 31557 70103 10255 20168 39975 40117 52011 70522 82136 333 10293 59011
AAXX 14124 48431 31558 70303 10260 20168 39914 40127 52009 70522 83536 333 10287 59005
AAXX 14124 48456 NIL
AAXX 14124 48480 01557 80502 10264 20180 30102 40107 52011 69902 70562 85877 333 10292 59004 69906 79999
AAXX 14124 48500 NIL
AAXX 14124 48551 31557 23604 10262 20220 30096 40104 52008 71000 82205 333 10300 58005
AAXX 14124 48565 32560 43604 10278 20237 30076 40086 52004 81145 333 10322 58011
AAXX 14124 48569 32560 50000 10263 20213 30057 40097 51006 82246 333 10294 58000 79999
AAXX 14124 48583 32560 60408 10273 20235 30081 40087 52004 82106 333 10298 59007 70011
AAXX 14124 48383 31957 40601 10232 20170 39974 40136 51012 71022 80006 333 10273 59006
AAXX 14124 48433 31958 50000 10245 20187 39964 40130 52010 71011 82056 333 10280 59005
AAXX 14124 48500 31556 80000 10263 20193 30108 40115 52024 71022 8225/ 333 10290 58003
AAXX 14124 41966 32940 00000 10185 20180 30062 40143 333 10257 58004 70000
AAXX 14124 89657 46/// /2709 11064 20016 49861 58004
BBXX ELWP5 14121 99051 10013 41495 80000 10330 20249 40180 54000 705// 8/600 22200 04260 20000 3//// 4//// 5//// 80270
BBXX SHIP 14124 99216 30538 41597 40812 10275 20219 40115 54000 70211 8/200 22212 04280 2//// 3//// 4//// 5//// 80235
BBXX MGGK4 14124 99234 30084 41698 31414 10205 20115 40173 50010 70200 831// 22274 00188 2//// 3//// 4//// 5//// 80155
BBXX DDZA2 14124 99361 70070 41498 63112 10180 20112 40260 51010 7//22 86868 22264 04180 20202 332// 40202 80140
AAXX 14121 40716 12960 70000 10040 21037 38987 40303 57019 60001 80006 333 87269
AAXX 14121 40719 11440 50102 10110 20062 30296 40286 56004 60001 70522 83308 333 81915 82620
AAXX 14121 40721 12960 00000 10088 20005 39740 40299 56001 60001 333
AAXX 14121 40858 11957 03503 10184 20123 30188 40199 57013 60001 70500 333
AAXX 14121 40872 12960 02002 10252 20051 30176 40181 56013 60001 222// 00240 20401 333
AAXX 14121 40877 12960 01205 10220 21121 39618 40168 57020 60001 333
AAXX 14121 40898 12960 01702 10254 20048 30160 40169 56014 60001 222// 00247 10800
BBXX C6W2032 14124 99019 10049 41397 72602 10270 2024/ 40120 54000 75000 87/27 22244 04270 20204 31899 40204 50202 6//// 80250 ICE /////
AAXX 14124 83384 32597 70000 10260 20214 39527 40098 85470 333 20214 59005
AAXX 14124 83386 22498 70508 10262 20221 39569 40093 85738 333 20217 59004 60014
AAXX 14124 83388 22497 80905 10246 20197 39433 40098 885// 333 20210 58000 60134
AAXX 14124 83393 32599 70902 10252 20200 39402 40115 84422 333 20208 59008
AAXX 14124 83442 32597 80000 10247 20213 39758 40101 888// 333 20226 59002
AAXX 14124 83479 22598 83202 10230 20209 39314 40105 8426/ 333 20200 59001 60144
AAXX 14124 83483 22598 80505 10260 20212 39539 40094 8341/ 333 20216 59005 60014
AAXX 14124 83531 21597 80503 10224 20201 39068 40087 70162 885// 333 20177 59006 60034
AAXX 14124 83538 21493 83605 10185 20174 38696 40079 74042 886// 333 20172 59010 60064
AAXX 14124 83574 32794 80502 10266 20209 39564 40161 5//// 88600 333 20234
AAXX 14124 83582 32598 50504 10234 20215 39330 40088 52012 85200 333 20198
AAXX 14124 83595 22597 60502 10288 20221 30023 40106 84465 333 20240 59015 69984
AAXX 14124 83687 21698 61406 10238 20193 39086 40079 54000 70262 86700 333 20187 60034
AAXX 14124 83692 32699 83606 10206 20181 39072 40087 53005 882// 333 20175
AAXX 14124 83811 21596 60902 10200 20188 39186 40075 54000 71062 83440 333 20172 60044
AAXX 14124 83844 21596 827// 10222 20210 30075 40082 51007 79596 8392/ 333 20207 60124
AAXX 14124 83887 22597 73202 10178 20154 39050 40088 52002 87200 333 20150 60034
AAXX 14124 83907 22497 12303 10228 20124 39826 40105 51005 81400 333 20158 69904
AAXX 14124 83914 21596 23603 10207 20131 39322 40082 51004 70510 82100 333 20140 60054
AAXX 14124 83919 21596 63207 10172 20143 38929 40100 54000 71096 86500 333 20124 60284
AAXX 14124 83927 32597 21402 10190 20159 30002 40075 52006 82200 333 20156
AAXX 14124 83936 32997 62702 10226 20128 39974 40095 51002 86060 333 20136
AAXX 14124 83948 21497 40904 10217 20190 30078 40084 51007 70265 82260 333 20177 60224
AAXX 14124 83964 32997 20502 10224 20157 39600 40083 52006 82030 333 20156
AAXX 14124 83995 32597 61406 10224 20199 30091 40094 54000 84230 333 20166
AAXX 14124 82042 32598 50000 10285 20256 3//// 4//// 83321 333 20256 29/// 55/// 5////
BBXX 41053 14121 99185 70661 46/// /2402 10256 40123 91230 333 91203
BBXX 41053 14121 99185 70661 46/// /2102 10256 40121 91220 333 91203
BBXX 41053 14121 99185 70661 46/// /2302 10254 40120 91210 333 91203
BBXX 41052 14121 99183 70648 46/// /0203 10267 40114 91230 333 91204
BBXX 41052 14121 99183 70648 46/// /0103 10266 40113 91220 333 91204
BBXX 41052 14121 99183 70648 46/// /0203 10265 40112 91210 333 91203
BBXX SHIP 14124 99216 30538 41597 40812 10275 20219 40115 54000 70211 8/200 22212 04280 2//// 3//// 4//// 5//// 80235
BBXX MGGK4 14124 99234 30084 41698 31414 10205 20115 40173 50010 70200 831// 22274 00188 2//// 3//// 4//// 5//// 80155
BBXX ELWP5 14121 99051 10013 41495 80000 10330 20249 40180 54000 705// 8/600 22200 04260 20000 3//// 4//// 5//// 80270
BBXX 2BLY2 14124 99197 50390 41397 72807 10268 20227 40130 52020 78086 86774 22214 04257 20404 30914 40603 50702 80240
BBXX 3EDA4 14123 99083 11496 41398 50606 10280 20267 40072 54/// 70211 83152 22234 00291 20303 311// 40303 80270
BBXX KABL 14123 99406 70446 41396 81933 10197 2017/ 40060 57050 76082 886// 22224 00183 20504 3//// 40805 50504 6//// 80180 ICE 0////
BBXX 42360 14121 99267 70905 46/// /1108 10233 91200 22200 00242 10703 70016 333 91211
BBXX 44056 14121 99362 70757 46/// ///// 1//// 91150 22200 00121 11103 21003 311// 41101 70015
BBXX 44138 14121 99443 70536 46/// /0416 10048 40142 52001 22200 00082 10606 70028 333 91220
BBXX 44137 14121 99423 70620 46/// /0209 10080 40192 52016 22200 00115 10605 70024 333 91211
BBXX C6VG7 14124 99184 70770 41596 40327 10260 2//// 40140 54/// 7//// 84963 22214 0//// 20402 303// 40402 50402 6//// 8//// ICE /////
BBXX 46214 14121 99379 71235 46/// ///// 1//// 91225 22200 00116 11303 20802 328// 41302 70014
BBXX 46229 14121 99438 71246 46/// ///// 1//// 91221 22200 00102 11304 21002 329// 41303 70019
BBXX 46224 14121 99332 71175 46/// ///// 1//// 91206 22200 00154 11302 20902 322// 41301 70010
BBXX 46215 14121 99352 71209 46/// ///// 1//// 91208 22200 00129 11002 21002 329// 41101 70012
BBXX 46243 14121 99462 71241 46/// ///// 1//// 91229 22200 00083 11403 21002 326// 41403 70017
BBXX 46225 14121 99329 71174 46/// ///// 1//// 91214 22200 00155 11302 20602 324// 41301 70010
BBXX 46213 14121 99403 71247 46/// ///// 1//// 91224 22200 00098 11403 20902 328// 41403 70017
BBXX 44040 14121 99410 70736 46/// /3002 10050 20004 40302 91219 22200 1//00 70000 333 91203 555 11015 22021
BBXX 44060 14121 99413 70721 46/// ///05 10036 40291 91230 22200 00109 333 91207 555 11057 22057
BBXX 44022 14121 99409 70737 46/// ///02 10049 20000 40297 91230 22200 00086 333 91203 555 11021 22021
BBXX 42363 14121 99282 70892 46/// /1210 10217 20156 40241 91230 333 91213
BBXX 42362 14121 99278 70907 46/// /1110 10228 20178 40227 91230
BBXX 42364 14121 99291 70881 46/// /1309 10211 20167 40247 91230
BBXX 46238 14121 99334 71195 46/// ///// 1//// 91220 22200 00148 11103 21002 328// 41101 70014
BBXX DDZA2 14124 99361 70070 41498 63112 10180 20112 40260 51010 7//22 86868 22264 04180 20202 332// 40202 80140
BBXX A8QM9 14124 99375 10053 41998 03123 10180 20148 40050 52/// 70211 80000 22263 20508 332// 40708 80160
BBXX MINUK01 1412/ 99602 70012 46/// ///// 10068 49640 52035
BBXX ZCBF3 14123 99371 70145 41598 63024 10170 20135 40282 52015 70322 85476 22264 21006 329// 41412 5//// 80150
BBXX TBWUK34 14124 99367 10128 41498 32310 10180 20116 40251 54000 70100 82141 22224 00210 20402 332// 40701 5//// 80145
AAXX 1412/ 89828 46/// ///// 11291 36436 4//// 5//// 91220
AAXX 1412/ 89828 46/// ///// 11304 36436 4//// 5//// 91230
AAXX 1412/ 89108 46/// ///// 11258 36845 4//// 5//// 91230
AAXX 1412/ 89108 46/// ///// 11258 36845 4//// 5//// 91240
AAXX 1412/ 89879 46/// ///// 11011 39743 4//// 5//// 91230
AAXX 1412/ 89872 46/// ///// 11040 39764 4//// 5//// 91220
AAXX 1412/ 89869 46/// ///// 11070 39739 4//// 5//// 91230
AAXX 1412/ 89866 46/// ///// 11045 39712 4//// 5//// 91220
AAXX 1412/ 89329 46/// ///// 11185 38643 4//// 5//// 91220
AAXX 1412/ 89799 46/// ///// 11266 4//// 5//// 91230
AAXX 1412/ 89868 46/// ///// 11050 39743 4//// 5//// 91220
AAXX 1412/ 89868 46/// ///// 11061 39744 4//// 5//// 91230
AAXX 1412/ 89332 46/// ///// 11124 39114 4//// 5//// 91230
AAXX 1412/ 89769 46/// ///// 11084 39778 4//// 5//// 91230
AAXX 1412/ 89314 46/// ///// 11183 38111 4//// 5//// 91220
AAXX 1412/ 89314 46/// ///// 11185 38112 4//// 5//// 91230
AAXX 14124 89667 46/// /1005 11092 29076 39809 4//// 5//// 91230
AAXX 14121 47008 32970 03209 11035 21087 30148 40204 52022 333 10057
AAXX 14121 47014 12950 00000 11151 21202 39848 40280 52013 60012 333 11033
AAXX 14121 47016 11570 80000 11119 21171 39359 40257 52018 69982 70172 885// 333 11031
AAXX 14121 47020 12565 70000 11066 21122 39884 40281 52024 69912 87500 333 11009
AAXX 14121 47025 32560 30000 10016 21089 30142 40171 52022 83500 333 10101
AAXX 14121 47035 32962 03604 11060 21098 30280 40289 52028 333 10015
AAXX 14121 47041 32970 03202 10017 21017 30177 40205 52036 333 10089
AAXX 14121 47058 12960 03204 11024 21084 30209 40258 52012 69932 333 10010
AAXX 14121 47069 31556 83204 11006 21024 30144 40247 52026 71022 885// 333 10073
AAXX 14121 47003 32980 03206 11052 21149 30212 40216 52020 333 10050
AAXX 14121 47005 12980 01402 11186 21205 38573 52012 69962 333 11057
AAXX 14121 47022 32475 53401 11117 21143 38815 52020 85500 333 11002
AAXX 14121 47028 32964 03604 11051 21125 30174 40274 52029 333 10014
AAXX 14121 47031 32570 13201 11109 21137 38907 52013 81500 333 11025
AAXX 14121 47037 32970 03604 11037 21113 30129 40257 52020 333 10033
AAXX 14121 47039 12960 00000 11041 21059 30002 40200 57025 69912 333 10011
AAXX 14121 47046 32969 52302 10011 21073 30155 40178 52019 83032 333 10088
AAXX 14121 47050 32965 03203 11016 21094 30208 40243 52019 333 10018
AAXX 14121 47052 12565 83203 11014 21043 39884 40230 52011 60022 885// 333 10005
AAXX 14121 47060 12960 03206 11015 21042 30202 40262 52020 60012 333 10022
AAXX 14121 47065 11960 03204 11020 21059 30191 40258 52016 69922 71020 333 10021
AAXX 14121 47067 11960 83204 11010 21042 30130 40254 52008 69932 71022 80001 333 11005
AAXX 14121 47068 32560 13205 11002 21062 30213 40249 52018 81500 333 10038
AAXX 14121 47070 11960 03205 10006 21017 30155 40245 52017 69902 71020 333 10052
AAXX 14121 47075 11580 82303 11010 21046 39726 40162 52006 69932 72272 885// 333 10005
BBXX UGOS 14121 99500 11443 41/97 92508 11090 40146 54000 77072 22233 01003 20000 ICE41092
BBXX UINM 14121 99474 11458 42998 02907 11020 40155 52005 22283 00022 20301
AAXX 14124 43466 21470 73402 10282 20220 30063 40075 70262 83571 333 00024 10296 58000 60007 81818 83636 86360
AAXX 14124 43400 NIL
AAXX 14124 43404 21470 7//// 10272 20231 30091 40101 75025 84236 333 00022 10294 58006 60007 84818 87280
AAXX 14124 43410 NIL
AAXX 14124 43413 21470 40504 10278 20249 30091 40094 70182 83202 333 00023 10298 58005 60027 83818
AAXX 14124 43415 22470 50503 10276 20235 39985 40093 81201 333 00021 10311 59002 60007 81818 85080
AAXX 14124 43418 22470 70505 10276 20226 3//// 4//// 83236 333 10292 5//// 60007 83818 83360
AAXX 14124 43421 22470 50202 10276 20232 39989 40091 82101 333 00023 10302 58003 60007 82818 85080
AAXX 14124 43422 21470 605// 10276 20223 39960 40090 70182 81176 333 00023 10304 58004 60007 81818 85080
AAXX 14124 43424 22478 73603 10281 20253 30073 40075 84236 333 00023 10309 58004 60007 84816 83358 85280
AAXX 14124 43436 22470 60504 10282 20226 30087 40090 83172 333 00023 10291 59003 60007 83818 84357
AAXX 14124 43441 22470 704// 10272 20222 39948 40077 83101 333 10293 58009 60007 83818 86080
AAXX 14124 43444 22470 61404 10234 20201 39556 40089 83130 333 10256 58005 60007 83818 84360
AAXX 14124 43467 22464 63403 10282 20227 30071 40076 82911 333 00023 10298 58005 60007 83816 81918 84460
AAXX 14124 43473 21370 80907 10150 20137 38116 48482 70382 887// 333 10167 59004 69907 83706 87808
AAXX 14124 43475 21470 70000 10270 20239 30080 40090 72582 86931 333 10304 59004 69907 85818 81919 85360 85080
AAXX 14124 43476 21460 82703 10176 20166 38766 48509 70382 8522/ 333 10196 59001 69917 85811 88459
AAXX 14124 43479 21450 80000 10212 20200 39256 70562 8327/ 333 10223 58001 69907 83816 87458
AAXX 14124 43486 21470 60000 10274 20242 39988 40082 70182 85200 333 10/// 58005 60007 85810 83080
AAXX 14124 43495 21464 7//// 10280 20246 30070 40082 70382 8217/ 333 10300 58007 69907 82818 84358 86460
AAXX 14124 43497 21474 70515 10274 20242 30063 40080 72562 8117/ 333 10300 58004 69907 81818 87460
AAXX 14124 71012 16/// /3115 11047 21067 60001 333 11039 21098 7////
AAXX 14124 71013 16/// ///// 11041 21058 60001 333 11049 21162 7////
AAXX 14124 71060 16/// /0801 11064 21072 38599 40181 51027 60001 333 10024 21089 4/017 70000
AAXX 14124 71848 16/// ///// 11040 21076 60001 333 11057 21126 7////
AAXX 14124 71565 17/// /3112 11046 21071 69951 7//4/ 333 11046 21113 4/001 70013
AAXX 14124 71566 16/// /2906 11050 21083 60001 333 10004 21054 70000
AAXX 14124 71567 16/// /3013 11030 21053 60001 333 11050 21065 70000
AAXX 14124 71974 46/// /2608 11259 21280 30074 40118 51001 6///1 333 11250 21285 7////
AAXX 14124 71399 16/// ///// 11077 21098 60001 333 11065 21129 7////
AAXX 14124 71495 16/// /3509 11041 21062 60001 333 10007 21044 70000
AAXX 14124 71073 16/// /3411 11055 21081 60001 333 11058 7////
AAXX 14124 71793 16/// ///// 11068 21082 60001 333 11078 21150 7////
AAXX 14124 89646 46/// /0105 11251 29077 37559 4//// 5////
AAXX 14124 89648 46/// /2804 11259 29060 37111 4//// 5////
AAXX 14124 89659 46/// /3114 11258 29066 37626 4//// 5////
AAXX 14124 89661 46/// /0109 11077 29059 39198 4//// 5////
AAXX 14124 89662 42980 02802 11015 21109 39715 49819 52001 222 ICE 98015
AAXX 14124 89666 46/// /0201 11050 29076 39631 4//// 5////
BBXX CFO383 14124 99439 70602 47698 /0425 10050 2001/ 40194 5//// 700// 8//// 22200 00082 10503 2//// 3//// 70013 80031 91029
AAXX 1412/ 89767 46/// ///// 11055 39716 4//// 5////
AAXX 14124 89016 46/89 /3510 11035 29063 39373 4//// 5////
AAXX 14124 89003 46/89 /3221 11105 29062 38978 4//// 5////
AAXX 14124 89507 46/89 /3307 11225 29065 36751 4//// 5////
AAXX 14124 94997 46/// ///// 10037 30078 40093 5////
AAXX 14124 94997 46/// ///// 10037 30078 40093 5////
BBXX CFO383 14124 99439 70602 47698 /0425 10050 2001/ 40194 5//// 700// 8//// 22200 00082 10503 2//// 3//// 70013 80031 91029
BBXX 46247 14121 99378 71228 46/// ///// 1//// 91221 22200 00111 11302 20902 327// 41301 70012
BBXX 46241 14121 99330 71173 46/// ///// 1//// 91211 22200 00147 11302 20802 326// 41301 70009
BBXX 2AKI2 14123 99224 30622 41/96 83008 10235 20235 40111 58013 78186 89/// 22214 00262 20201 313// 40403 80235
BBXX S6JT 14124 99532 71775 41697 82330 11010 21026 49770 52020 73622 88/// 22223 04030 2//// 81015
BBXX MFLM9 14123 99208 31140 41297 22220 10260 20199 40071 53015 70200 81145 22253 04267 20304 323// 40405 80220
BBXX A8PB2 14123 99023 11017 41698 33003 10280 20246 40020 55010 70200 81546 22274 00/// 29901 80255
BBXX 9VDD2 14124 99464 11545 41298 43028 11015 21030 40135 51/// 7//88 84647 22254 00/// 20314 81020
BBXX DDZF2 14124 99060 10788 41497 70812 10290 20249 40090 56010 72162 84256 22224 00290 20101 80260
BBXX 9MBW7 14124 99050 11139 41398 83113 10280 20244 40060 54000 70312 8//// 22214 00299 2//// 80255
BBXX DHDH 14124 99056 10801 41397 60511 10285 20244 40075 54000 70322 8/744 22223 00/// 20402 80255
BBXX DQVN 14123 99192 11137 41/97 60520 10236 20198 40160 54000 70122 8//// 22244 00262 2//// 80210
BBXX A8IQ2 14120 99036 10913 41098 32804 10290 20290 40130 56010 70122 84279 22253 04300 21002 319// 41402 80290
BBXX 46216 14121 99343 71198 46/// ///// 1//// 91227 22200 00142 11102 21002 326// 41101 70009
BBXX 46223 14121 99335 71178 46/// ///// 1//// 91230 22200 00153 11302 20601 320// 41301 70008
BBXX 46231 14121 99327 71174 46/// ///// 1//// 91224 22200 00143 11202 20802 327// 41201 70012
BBXX 46222 14121 99336 71183 46/// ///// 1//// 91226 22200 00155 11302 20501 320// 41301 70009
AAXX 14121 45032 36/// /1601 10171 20118 30181 40198 52002
AAXX 14121 45035 36/// /0402 10190 20106 30154 40196 52001
AAXX 14121 45039 36/// /9901 10182 20120 30179 40193 52001
AAXX 14121 45044 36/// /3504 10182 20107 30099 40192 52001
AAXX 14121 45032 36/// /1601 10171 20118 30181 40198 52002
AAXX 14121 45035 36/// /0402 10190 20106 30154 40196 52001
AAXX 14121 45039 36/// /9901 10182 20120 30179 40193 52001
AAXX 14121 45044 36/// /3504 10182 20107 30099 40192 52001
BBXX 63110 14124 99595 10015 47498 /2426 10076 20036 49653 52035 700// 22200 10810 70050
BBXX 63106 14124 99610 10017 46/// /2426 10077 49601 52038 22200
BBXX 63105 14124 99610 10017 47597 ///// 10076 20034 49602 52039 700// 22200
BBXX AMOUK03 14124 99537 70003 46/// ///// 10052 20011 39834 49868 52011 91150
BBXX 62107 14124 99501 70061 46/// /2733 10080 20028 49977 51019 22200 00116 10909 70044 333 90710 91152
BBXX 64049 14123 99571 10022 41297 82438 10085 20085 49750 53018 70211 8/7// 22200 20714 3//// 4//// 5//// 80085
BBXX 62103 14124 99499 70029 46/98 /2725 10079 20032 49980 52026 22200 00124 10806 70032 333 90710 91148
AAXX 14124 82784 21598 60904 10248 20238 39659 40113 70252 86200 333 20219 59017 60024
AAXX 14124 48302 31558 21104 10148 20114 38489 40131 52007 71000 81505 333 10170 58010
AAXX 14124 48304 31958 00000 10206 20180 39670 40136 52009 71000 333 10275 58004
AAXX 14124 48334 31958 00000 10210 20169 39767 40134 52008 71000 333 10286 58007
AAXX 14124 48360 31959 60000 10231 20175 39877 40140 52007 71022 83055 333 10260 58000
AAXX 14124 48372 31958 20000 10251 20200 30066 40124 52006 71000 80005 333 10300 59002
AAXX 14124 48373 31958 20000 10247 20189 30063 40126 52009 71000 80001 333 10293 59001
AAXX 14124 48386 31930 40000 10243 20205 30078 40122 52006 71021 80006 333 10293 59001
AAXX 14124 48387 31958 00000 10165 20146 39171 40144 52008 71000 333 10233 58005
AAXX 14124 48408 31558 80404 10250 20175 39969 40119 52007 70522 84536 333 10296 59007
AAXX 14124 48415 31558 80505 10270 20175 30107 40118 52005 70522 81556 333 10315 59001
AAXX 14124 48433 NIL
AAXX 14124 48437 31958 70102 10240 20179 39920 40131 52004 71022 84036 333 10276 59008
AAXX 14124 48440 NIL
AAXX 14124 48451 32560 80000 10248 20194 30115 40126 52004 8257/ 333 10280 59003
AAXX 14124 48454 31958 60000 10265 20147 30120 40127 51018 70511 82046 333 10305 59005
AAXX 14124 48457 31550 73203 10270 20191 30098 40115 51004 70522 83576 333 10286 59003
AAXX 14124 48463 31530 80304 10265 20174 30039 40133 53011 70522 85546 333 10304 58001
AAXX 14124 48464 31557 83303 10250 20196 30100 40113 52004 71022 85556 333 10290 59002
AAXX 14124 48479 31558 80505 10265 20159 30059 40110 57000 70522 84506 333 10303 59006
AAXX 14124 48520 31557 50000 10258 20205 30091 40107 50007 71011 82506 333 10302 59002
AAXX 14124 48554 31458 60210 10268 20242 30095 40099 52009 71022 83846 333 10299 58002 70001
AAXX 14124 48563 32560 40308 10271 20219 30051 40087 52007 82245 333 10315 58005
AAXX 14124 48571 32560 60000 10265 20225 30082 40093 52003 82246 333 10295 59005
BBXX OUJI2 14124 99542 71746 43/// /1740 10010 2//// 49940 5//// 7//// 8//// 22211 00030 2//// 3//// 4//// 5//// 6//// ICE /////
BBXX S6JT 14124 99532 71775 41697 82330 11010 21026 49770 52020 73622 88/// 22223 04030 2//// 81015
AAXX 14123 63671 32580 43603 10323 20198 84200 333 84827
BBXX 46219 14121 99332 71199 46/// ///// 1//// 91228 22200 00135 11103 21003 330// 41102 70017
BBXX 46242 14121 99332 71174 46/// ///// 1//// 91228 22200 00153 11302 21001 322// 41301 70009
BBXX 46221 14121 99339 71186 46/// ///// 1//// 91215 22200 00148 11302 20701 322// 41301 70008
AAXX 14124 71841 16/// /1904 11013 21023 39777 40181 56026 60001 333 11039 21067 4/010 7////
AAXX 14124 71404 46/// ///// 11098 39865 6///1 333 7////
AAXX 14124 71409 16/// ///// 11063 21087 60001 333 11048 21129 7////
AAXX 14124 71383 16/// ///// 11247 21282 39663 40313 50000 60001 333 11063 21320 70000
AAXX 14124 71789 16/// ///// 11075 21095 60001 333 11017 21076 7////
AAXX 14124 71791 16/// /2918 11041 21062 60001 333 11034 21074 7////
AAXX 14124 71794 16/// ///// 11045 21064 60001 333 11040 21097 70000
AAXX 14124 71795 16/// ///// 11100 21118 60001 333 11008 21147 7////
AAXX 14124 71796 16/// ///// 11048 21066 60001 333 11045 21114 70000
AAXX 14124 71006 16/// /3109 11049 21061 60001 333 11014 21117 70000
AAXX 14124 71007 17/// ///// 11061 21087 69951 7//4/ 333 11058 21141 7////
AAXX 14124 71008 16/// /2914 11057 21080 60001 333 11139 21210 7////
AAXX 14124 71009 16/// /3211 11033 21054 60001 333 11039 21151 7////
AAXX 14124 71035 16/// ///// 11029 21057 60001 333 11064 21152 70000
AAXX 14124 71433 46/// /1715 10036 20031 39978 40211 56018 6///1 333 10035 20013 7////
AAXX 14124 71051 16/// ///// 11155 21170 60001 333 11054 21164 7////
AAXX 14124 71057 16/// ///// 11037 21069 60001 333 11067 21132 7////
AAXX 14124 71070 17/// ///// 11013 21054 69961 7//4/ 333 21158 7////
AAXX 14124 71089 16/// ///// 11047 21067 60001 333 11039 21092 7////
AAXX 14124 71502 16/// /1110 11278 21301 30168 40185 58004 60001 333 11244 21287 7////
AAXX 14124 71509 16/// /3507 11004 21053 60001 333 11008 21055 7////
AAXX 14124 71517 16/// /3210 11021 21057 60001 333 11007 21061 7////
AAXX 14124 71518 16/// /3313 11037 21059 60001 333 11094 21159 7////
AAXX 14124 71519 16/// /3207 11062 21086 60001 333 11060 21131 7////
AAXX 14124 71520 16/// /1509 39578 57008 60001 333 21354 70000
AAXX 14124 71521 16/// ///// 11253 21286 60001 333 11076 21305 70000
AAXX 14124 71523 16/// ///// 11083 21090 39896 40283 56001 60001 333 11019 7////
AAXX 14124 71528 16/// /3410 11018 21057 60001 333 11041 21121 7////
BBXX 42023 14121 99261 70831 46/// /0608 1//// 91230 333 91210
BBXX 42023 14121 99261 70831 46/// /0608 1//// 91200 333 91210
AAXX 14124 71102 16/// ///// 11047 21069 60001 333 11041 21090 7////
AAXX 14124 71105 16/// ///// 11061 21076 60001 333 11112 21190 7////
AAXX 14124 71841 16/// /1904 11013 21023 39777 40181 56026 60001 333 11039 21067 4/010 7////
AAXX 14124 71433 46/// /1715 10036 20031 39978 40211 56018 6///1 333 10035 20013 7////
AAXX 1412/ 89872 46/// ///// 11055 39764 4//// 5////
AAXX 1412/ 89866 46/// ///// 11039 39716 4//// 5////
AAXX 1412/ 89879 46/// ///// 11013 39744 4//// 5////
AAXX 1412/ 89329 46/// ///// 11186 38643 4//// 5////
AAXX 1412/ 89332 46/// ///// 11121 39113 4//// 5////
BBXX SLKR 14123 99025 70932 43/98 81916 10236 40123 56008 22254 00260 2//// 4////
BBXX 44039 14121 99411 70727 46/// /3506 10053 20008 40304 91230 22200 00101 10301 70003 333 91208
AAXX 14124 03225 16434 /2416 10014 21002 39540 49843 51015 60031 91150 333 553// 20185 88/11 90710 91126
BBXX WKDY 14124 99396 70314 41598 72012 10160 20108 40270 57015 70122 83139 22224 00170 20201 334// 41107 5//// 6//// 80130 ICE /////
BBXX JPAT 14124 99170 30908 41497 71228 10260 20220 40093 53001 70122 83446 22232 00275 11209 20402 31114 40606 50605 85231
BBXX JPAT 14124 99170 30908 41497 71228 10260 20220 40093 53001 70122 83446 22232 00275 11209 20402 31114 40606 50605 85231
BBXX 2AKI2 14123 99224 30622 41/96 83008 10235 20235 40111 58013 78186 89/// 22214 00262 20201 313// 40403 80235
BBXX C6W2032 14124 99019 10049 41397 72602 10270 2024/ 40120 54000 75000 87/27 22244 04270 20204 31899 40204 50202 6//// 80250 ICE /////
BBXX VQGQ4 14124 99087 11509 41/98 40425 10280 20228 40065 53005 70311 8399/ 22283 00293 20203 80244
BBXX VRFU8 14124 99109 11179 41/98 /0210 10280 20193 40120 54000 70222 8//// 22214 00304 2//// 3//// 4//// 80220
BBXX SHIP 14121 99214 11142 41/97 80909 10265 20230 40204 51200 7025/ 88/// 22283 00205 2//// 3//// 4//// 80240
BBXX SHIP 14124 99050 11139 41398 83113 10280 20244 40060 54000 70312 8//// 22214 00299 2//// 80255
BBXX DHDH 14124 99056 10801 41397 60511 10285 20244 40075 54000 70322 8/744 22223 00/// 20402 80255
BBXX DDZF2 14124 99060 10788 41497 70812 10290 20249 40090 56010 72162 84256 22224 00290 20101 80260
BBXX DQVN 14123 99192 11137 41/97 60520 10236 20198 40160 54000 70122 8//// 22244 00262 2//// 80210
BBXX 9VDD2 14124 99464 11545 41298 43028 11015 21030 40135 51/// 7//88 84647 22254 00/// 20314 81020
BBXX 44039 14121 99411 70727 46/// /3506 10053 20008 40304 91230 22200 00101 10301 70003 333 91208
BBXX 42023 14121 99261 70831 46/// /0608 1//// 91230 333 91210
BBXX 42023 14121 99261 70831 46/// /0608 1//// 91200 333 91210
BBXX 46242 14121 99332 71174 46/// ///// 1//// 91228 22200 00153 11302 21001 322// 41301 70009
BBXX 46221 14121 99339 71186 46/// ///// 1//// 91215 22200 00148 11302 20701 322// 41301 70008
BBXX 46219 14121 99332 71199 46/// ///// 1//// 91228 22200 00135 11103 21003 330// 41102 70017
BBXX 46231 14121 99327 71174 46/// ///// 1//// 91224 22200 00143 11202 20802 327// 41201 70012
BBXX 46223 14121 99335 71178 46/// ///// 1//// 91230 22200 00153 11302 20601 320// 41301 70008
BBXX 46222 14121 99336 71183 46/// ///// 1//// 91226 22200 00155 11302 20501 320// 41301 70009
BBXX 46216 14121 99343 71198 46/// ///// 1//// 91227 22200 00142 11102 21002 326// 41101 70009
BBXX S6JT 14124 99532 71775 41697 82330 11010 21026 49770 52020 73622 88/// 22223 04030 2//// 81015
BBXX 46241 14121 99330 71173 46/// ///// 1//// 91211 22200 00147 11302 20802 326// 41301 70009
BBXX 46247 14121 99378 71228 46/// ///// 1//// 91221 22200 00111 11302 20902 327// 41301 70012
BBXX CFO383 14124 99439 70602 47698 /0425 10050 2001/ 40194 5//// 700// 8//// 22200 00082 10503 2//// 3//// 70013 80031 91029
BBXX PBKH 14124 99237 71466 41/98 40917 10200 20152 40248 50000 701// 8234/ 22254 20201 399// 4//03 5////
BBXX 41052 14121 99183 70648 46/// /0203 10267 40114 91230 333 91204
BBXX 41052 14121 99183 70648 46/// /0203 10265 40112 91210 333 91203
BBXX 41052 14121 99183 70648 46/// /0103 10266 40113 91220 333 91204
BBXX 41053 14121 99185 70661 46/// /2102 10256 40121 91220 333 91203
BBXX 41053 14121 99185 70661 46/// /2402 10256 40123 91230 333 91203
BBXX 41053 14121 99185 70661 46/// /2302 10254 40120 91210 333 91203
BBXX A8IQ2 14120 99036 10913 41098 32804 10290 20290 40130 56010 70122 84279 22253 04300 21002 319// 41402 80290
BBXX A8PB2 14123 99023 11017 41698 33003 10280 20246 40020 55010 70200 81546 22274 00/// 29901 80255
BBXX MFLM9 14123 99208 31140 41297 22220 10260 20199 40071 53015 70200 81145 22253 04267 20304 323// 40405 80220
BBXX WKPN 14124 99363 70021 41498 22725 10180 2013/ 40245 58010 70200 828// 22225 00200 20402 327// 40804 5//// 6//// 80150 ICE /////
BBXX WKDY 14124 99396 70314 41598 72012 10160 20108 40270 57015 70122 83139 22224 00170 20201 334// 41107 5//// 6//// 80130 ICE /////
BBXX 66022 14121 99541 10142 46/// /1508 10055 39970 22200 00042
BBXX MINFR00 1412/ 99424 70571 46/// ///// 10075 40125 52024
AAXX 14124 17088 12670 81201 10075 21074 38837 48532 57018 60001 84520 333 84640 88460
BBXX SHIP 14124 99063 31054 41/97 72010 10274 20254 40049 70222 222// 0//// 20300 3//// 4//// 5////
BBXX SHIP 14124 99216 30538 41597 40812 10275 20219 40115 54000 70211 8/200 22212 04280 2//// 3//// 4//// 5//// 80235
BBXX MGGK4 14124 99234 30084 41698 31414 10205 20115 40173 50010 70200 831// 22274 00188 2//// 3//// 4//// 5//// 80155
BBXX AMOUK17 14124 99328 30563 46/// ///// 10193 20127 30219 40235 54000 91150
BBXX ZSAF 14124 99526 30000 41295 83214 10027 20015 49726 57041 75155 8562/ 22243 04017 2//// 333// 40912 5////
AAXX 14124 71857 16/// ///// 11047 21070 60001 333 11048 21065 7////
AAXX 14124 71360 16/// ///// 11042 21063 60001 333 11029 21087 7////
AAXX 14124 71380 16/// /3214 11043 21076 60001 333 11004 21054 7////
AAXX 14124 71674 16/// ///// 11050 21066 60001 333 11021 21108 7////
AAXX 14124 71481 16/// /3006 11047 21084 60001 333 10009 21047 7////
AAXX 14124 71498 16/// /3213 11050 21066 60001 333 11072 21156 7////
AAXX 14124 71797 16/// ///// 11056 21067 60001 333 21062 7////
AAXX 14124 71904 16/// ///// 11038 21067 60001 333 11067 21158 7////
AAXX 14124 71249 16/// /3017 11037 21064 60001 333 11054 21154 7////
AAXX 14124 71346 46/// /3110 11014 21059 6///1 333 11040 21134 7////
AAXX 14124 71413 16/// ///// 11050 21065 60001 333 11077 21160 7////
AAXX 14124 71414 16/// ///// 11025 21053 60001 333 11015 21057 7////
AAXX 14124 71440 16/// ///// 11043 21063 60001 333 11053 21123 7////
AAXX 14124 71055 46/// /0401 11364 21401 39865 40221 51004 6///1 333 11181 21364 7////
AAXX 14124 71065 16/// ///// 11027 21059 60001 333 11030 21050 7////
AAXX 14124 71014 16/// /3112 11033 21073 60001 333 21115 7////
AAXX 14124 71540 16/// /3110 11028 21059 60001 333 11068 21135 7////
AAXX 14124 71544 16/// ///// 11044 21061 60001 333 11001 21044 7////
AAXX 14124 71548 16/// ///// 11030 21059 60001 333 11009 21051 7////
AAXX 14124 89610 46/// /0421 11031 39628 4//// 5//// 333 90700 91125
AAXX 14124 89610 46/// /0421 11031 39628 4//// 5//// 333 90700 91125
AAXX 14124 89610 46/// /0421 11031 39628 4//// 5//// 333 90700 91125
BBXX JPAT 14124 99170 30908 41497 71228 10260 20220 40093 53001 70122 83446 22232 00275 11209 20402 31114 40606 50605 85231
BBXX 2AKI2 14123 99224 30622 41/96 83008 10235 20235 40111 58013 78186 89/// 22214 00262 20201 313// 40403 80235
AAXX 14121 10020 17467 72110 10059 20051 39866 49898 50000 69911 70065 333 55300 20262 30261 83/19 87/25 91122 91217
AAXX 14124 41184 32960 03309 10270 20121 40159 333 58005
AAXX 14124 41194 12960 03311 10254 20118 30168 40173 60001 333 58004
AAXX 14124 41196 32960 03409 10263 20094 30134 40172 333 58003
AAXX 14124 41198 32960 00505 10249 20120 40178 333 58005
AAXX 14124 41217 32960 03312 10251 20147 30141 40170 333 58006
AAXX 14124 41218 32960 03005 10271 20018 39862 40163 333 59003
AAXX 14124 67665 41580 73502 10252 20224 48493 71522 333 58002 81930 84835 83360 84080
AAXX 14124 08284 02582 72412 10176 20087 30133 40207 58004 60001 82437 333 60007
AAXX 14124 67665 41580 73502 10252 20224 48493 71522 333 58002 81930 84835 83360 84080
AAXX 14124 40394 32960 01810 10212 21010 39058 48532 333 59007 555 04410 50188
AAXX 14124 40582 32960 53508 10198 21080 40213 56019 80002 333 00023 55300 00582 10000 21480 30476 41123 51552 61956 55407 41005 85070 90401 91011 91115 91211 91307
AAXX 14124 41150 NIL
AAXX 14124 41168 NIL
AAXX 14124 41170 32964 00109 10223 20110 30187 40200 333 59001
AAXX 14124 41176 NIL
AAXX 14124 41184 NIL
AAXX 14124 41194 NIL
AAXX 14124 41196 NIL
AAXX 14124 41198 NIL
AAXX 14124 41210 NIL
AAXX 14124 41216 NIL
AAXX 14124 41217 NIL
AAXX 14124 41218 NIL
AAXX 14124 41226 NIL
AAXX 14124 41244 36/// /2506 10268 20045 39820 48233 333 0E014 59001
AAXX 14124 41246 32960 00609 10250 20162 30169 40173 333 58003
AAXX 14124 41254 36/// /3106 10156 21027 38061 48066 333 0E003 5////
AAXX 14124 41256 32960 00306 10245 20149 30165 40175 333 58005
AAXX 14124 41258 36/// /0605 10242 20149 30165 40170 333 0E/// 58005
AAXX 14124 41268 32560 13611 10251 20160 30156 40172 81500 91210 333 58010 81625
AAXX 14124 41312 36/// /0110 10273 20057 30111 40149 333 0E/// 58004
AAXX 14124 41314 31958 49906 10213 20057 39676 40181 70600 80001 333 58005 84075
AAXX 14124 41316 31959 53514 10267 20051 30127 40154 70600 80001 333 58004 85075
AAXX 14124 41404 12962 00311 10194 21104 37865 48507 60002 333 59004
AAXX 14124 41407 12970 01010 10216 21105 38958 48518 60002 333 59003
AAXX 14124 41431 12960 01818 10304 20210 30103 40116 60002 333 58001
AAXX 14124 41466 12960 01508 10234 20014 38560 48462 60002 333 59001
AAXX 14124 41477 12960 01814 10276 20212 60002 333
AAXX 14124 41480 12458 21114 10284 20129 30136 40139 60002 70544 82500 333 5900 6 82618
OOXX PTP53 14101 99377 70257 ///// 00121 26/// /3203 10138 29001 30243 91010 333 60000
OOXX PTP53 14101 99377 70257 ///// 00121 26/// /2903 10144 29001 30244 91020 333 60000
OOXX PTP53 14101 99377 70257 ///// 00121 26/// /3203 10148 29001 30245 91030 333 60000
OOXX PTP53 14101 99377 70257 ///// 00121 26/// /3304 10152 29001 30246 91040 333 60000
OOXX PTP53 14101 99377 70257 ///// 00121 26/// /3504 10155 29001 30246 91050 333 60000
OOXX PTP53 14111 99377 70257 ///// 00121 26/// /3404 10157 29001 30246 91100 333 60000
OOXX PTP53 14111 99377 70257 ///// 00121 26/// /3404 10159 29001 30247 91110 333 60000
OOXX PTP53 14111 99377 70257 ///// 00121 26/// /3404 10160 29001 30249 91120 333 60000
OOXX PTP53 14111 99377 70257 ///// 00121 26/// /3504 10161 29001 30249 91130 333 60000
OOXX PTP53 14111 99377 70257 ///// 00121 26/// /3303 10160 29001 30250 91140 333 60000
OOXX PTP53 14111 99377 70257 ///// 00121 26/// /3504 10160 29001 30252 91150 333 60000
OOXX PTP53 14121 99377 70257 ///// 00121 26/// /3303 10161 29001 30251 91200 333 60000
AAXX 1412/ 89868 46/// ///// 11071 39744 4//// 5//// 91240
AAXX 1412/ 89799 46/// ///// 11268 4//// 5//// 91240
AAXX 14124 91844 46/// /3604 10269 40137 22200 00280
AAXX 14121 58968 11556 81003 10189 20173 30196 40204 53018 60092 76166 887//
AAXX 14121 58974 11240 80311 10178 20157 30090 40215 53017 60062 76162 887//
AAXX 14121 59358 31720 70105 10208 20179 30148 40180 53015 71022 875//
AAXX 14121 59559 32565 70405 10233 20191 30133 40161 52009 874//
AAXX 14121 59792 12460 80409 10226 20203 30165 40170 52014 69902 8442/
AAXX 14121 59997 11458 80604 10266 20250 30092 40104 52014 60062 72582 8382/
AAXX 14121 59158 32660 73302 10203 20170 30073 40174 52015 875//
AAXX 14121 59562 32665 83501 10217 20183 30174 40185 53014 885//
AAXX 14121 59567 12260 80208 10205 20190 39799 40177 52012 69952 885//
AAXX 14124 67580 41670 70000 10286 20180 48/// 71722 86208 333 58000 81945 86850 87280
AAXX 14124 67666 41650 70000 10250 20191 48488 76022 81903 333 58000 81935 83835 86080
AAXX 14124 67673 42684 73204 10293 20195 48493 85208 333 59019 81936 85836 87280
AAXX 14124 67580 41670 70000 10286 20180 48/// 71722 86208 333 58000 81945 86850 87280
AAXX 14124 67666 41650 70000 10250 20191 48488 76022 81903 333 58000 81935 83835 86080
AAXX 14124 67673 42684 73204 10293 20195 48493 85208 333 59019 81936 85836 87280
AAXX 14124 97980 32460 40000 10256 20250 30069 40076 52020 83431 333 10310 56000 58010 83619
BBXX 9VDD2 14124 99464 11545 41298 43028 11015 21030 40135 51/// 7//88 84647 22254 00/// 20314 81020
BBXX 63110 14123 99595 10015 41498 52335 10076 20036 49648 71586 838// 22200 11010 70050
BBXX AMOUK08 14124 99501 70061 46/// ///// 10083 20045 39971 49977 52021 91150
BBXX AMOUK05 14124 99537 70003 46/// ///// 10050 20004 39829 49869 52012 91150
BBXX PJGO 14124 99571 10022 46/// ///// 22200
BBXX 63106 14124 99610 10017 46/// /2426 10077 49601 52038 22200
BBXX 63113 14124 99610 10017 46/// /2524 10077 20033 49616 52044 22200 10912 70058
BBXX 62103 14124 99499 70029 46/97 /2635 10078 20021 49974 52027 22200 00124 10806 70032 333 90710 91153
BBXX AMOUK04 14124 99533 70062 46/// ///// 10066 2//// 39879 4//// 52019 91150
BBXX ONFP 14124 99361 30340 41292 80524 10220 2021/ 40070 50010 74544 88999 22223 04186 20504 307// 4//// 5//// 6//// 80210 ICE /////
BBXX WKAU 14124 99545 70398 41297 72928 10010 2102/ 40036 52030 72772 87768 22253 00050 20809 329// 41312 5//// 6//// 80000 ICE /////
AAXX 14124 89807 46/// /1518 11026 29100 39729 4//// 5//// 91230 333 90700 91123
BBXX ONFP 14124 99361 30340 41292 80524 10220 2021/ 40070 50010 74544 88999 22223 04186 20504 307// 4//// 5//// 6//// 80210 ICE /////
BBXX ZCBO2 14124 99203 50401 41297 50515 10258 20229 40064 53008 70111 84261 22200 20601 307// 40602 5//// 80237
BBXX WKAU 14124 99545 70398 41297 72928 10010 2102/ 40036 52030 72772 87768 22253 00050 20809 329// 41312 5//// 6//// 80000 ICE /////
BBXX MINFR00 1412/ 99424 70571 46/// ///// 10075 40125 52024
BBXX BSH02 14121 99542 10079 46/// ///// 22200 00083 21006 70028
BBXX BSH05 14121 99550 10079 46/// ///// 22200 21005 70027
BBXX BSH03 14121 99540 10081 46/// ///// 22200 00069 20904 70021
BBXX SHIP 14124 99170 30908 41497 71228 10260 20220 40093 53001 70122 83446 22232 00275 11209 20402 31114 40606 50605 85231
AAXX 14124 89807 46/// /1518 11026 29100 39729 4//// 5//// 91230 333 90700 91123
BBXX A8PX4 14124 99367 10132 41998 13315 10174 20103 40240 57015 70000 80005 22264 00189 20302 326// 40704 80133
OOXX ISP34 14101 99641 70219 ///// 01301 26/// /0603 10019 29001 39753 91010 333 6///0
OOXX ISP34 14101 99641 70219 ///// 01301 26/// /0704 10019 29001 39754 91020 333 6///0
OOXX ISP34 14101 99641 70219 ///// 01301 26/// /0802 10019 29001 39754 91030 333 6///0
OOXX ISP34 14101 99641 70219 ///// 01301 26/// /3202 10009 29001 39754 91040 333 6///0
OOXX ISP34 14101 99641 70219 ///// 01301 26/// /3003 10000 29001 39755 91050 333 6///0
OOXX ISP34 14111 99641 70219 ///// 01301 26/// /2402 11003 29001 39757 91100 333 6///0
OOXX ISP34 14111 99641 70219 ///// 01301 26/// /1102 10001 29001 39755 91110 333 6///0
OOXX ISP34 14111 99641 70219 ///// 01301 26/// /0803 10008 29001 39755 91120 333 6///0
OOXX ISP34 14111 99641 70219 ///// 01301 26/// /0603 10014 29001 39754 91130 333 6///0
OOXX ISP34 14111 99641 70219 ///// 01301 26/// /0604 10015 29001 39755 91140 333 6///0
OOXX ISP34 14111 99641 70219 ///// 01301 26/// /0604 10015 29001 39755 91150 333 6///0
OOXX ISP34 14121 99641 70219 ///// 01301 26/// /0604 10015 29001 39757 91200 333 6///0
OOXX FRP31 14091 99052 70527 ///// 00091 26/// /0000 10232 29096 30154 90957 333 60000
OOXX FRP31 14101 99052 70527 ///// 00091 26/// /0000 10232 29096 30158 91007 333 60000
OOXX FRP31 14101 99052 70527 ///// 00091 26/// /0000 10232 29096 30159 91017 333 60000
OOXX FRP31 14101 99052 70527 ///// 00091 26/// /0000 10233 29096 30161 91027 333 60000
OOXX FRP31 14101 99052 70527 ///// 00091 26/// /0000 10234 29095 30160 91037 333 60000
OOXX FRP31 14101 99052 70527 ///// 00091 26/// /0000 10236 29095 30160 91047 333 60000
OOXX FRP31 14101 99052 70527 ///// 00091 26/// /0000 10239 29095 30164 91057 333 60000
OOXX FRP31 14111 99052 70527 ///// 00091 26/// /0000 10241 29094 30166 91107 333 60000
OOXX FRP31 14111 99052 70527 ///// 00091 26/// /1202 10244 29093 30171 91117 333 60000
OOXX FRP31 14111 99052 70527 ///// 00091 26/// /1302 10245 29092 30170 91127 333 60000
OOXX FRP31 14111 99052 70527 ///// 00091 26/// /1201 10247 29091 30169 91137 333 60000
OOXX FRP31 14111 99052 70527 ///// 00091 26/// /1101 10253 29089 30171 91147 333 60000
OOXX GBP67 14101 99159 50057 ///// 04381 26/// /0904 10149 29098 39679 91010 333 60000
OOXX GBP67 14101 99159 50057 ///// 04381 26/// /0804 10153 29097 39680 91020 333 60000
OOXX GBP67 14101 99159 50057 ///// 04381 26/// /0704 10156 29094 39680 91030 333 60000
OOXX GBP67 14101 99159 50057 ///// 04381 26/// /0703 10165 29092 39679 91040 333 60000
OOXX GBP67 14101 99159 50057 ///// 04381 26/// /0803 10169 29088 39678 91050 333 60000
OOXX GBP67 14111 99159 50057 ///// 04381 26/// /0603 10170 29087 39676 91100 333 60000
OOXX GBP67 14111 99159 50057 ///// 04381 26/// /0503 10167 29090 39678 91110 333 60000
OOXX GBP67 14111 99159 50057 ///// 04381 26/// /0803 10164 29091 39679 91120 333 60000
OOXX GBP67 14111 99159 50057 ///// 04381 26/// /0803 10171 29091 39677 91130 333 60000
OOXX GBP67 14111 99159 50057 ///// 04381 26/// /0704 10172 29089 39678 91140 333 60000
OOXX GBP67 14111 99159 50057 ///// 04381 26/// /0804 10170 29089 39678 91150 333 60000
OOXX GBP67 14121 99159 50057 ///// 04381 26/// /0603 10164 29092 39676 91200 333 60000
OOXX FRP28 14111 99163 70615 ///// 00091 26/// /0000 10239 29092 30145 91108 333 60000
OOXX FRP28 14111 99163 70615 ///// 00091 26/// /0000 10243 29091 30143 91118 333 60000
OOXX FRP28 14111 99163 70615 ///// 00091 26/// /0000 10255 29090 30144 91128 333 60000
OOXX FRP28 14111 99163 70615 ///// 00091 26/// /0000 10261 29087 30143 91138 333 60000
OOXX RUP60 14101 99531 11588 ///// 00651 26/// /2902 11101 29046 39858 91042 333 60000
OOXX RUP60 14101 99531 11588 ///// 00651 26/// /3002 11101 29046 39857 91052 333 60000
OOXX RUP60 14111 99531 11588 ///// 00651 26/// /3002 11101 29046 39856 91102 333 60000
OOXX RUP60 14111 99531 11588 ///// 00651 26/// /2803 11104 29047 39855 91112 333 60000
OOXX RUP60 14111 99531 11588 ///// 00651 26/// /2706 11110 29049 39854 91122 333 60000
OOXX RUP60 14111 99531 11588 ///// 00651 26/// /3103 11111 29050 39854 91132 333 60000
OOXX RUP60 14111 99531 11588 ///// 00651 26/// /3002 11113 29050 39853 91142 333 60000
OOXX RUP60 14111 99531 11588 ///// 00651 26/// /2903 11109 29049 39853 91152 333 60000
OOXX RUP60 14121 99531 11588 ///// 00651 26/// /3001 11107 29048 39852 91202 333 60000
OOXX RUP60 14121 99531 11588 ///// 00651 26/// /3202 11105 29048 39851 91212 333 60000
OOXX RUP60 14121 99531 11588 ///// 00651 26/// /2603 11103 29047 39851 91222 333 60000
OOXX RUP60 14121 99531 11588 ///// 00651 26/// /2902 11103 29048 39848 91232 333 60000
OOXX KIP39 14101 99020 51574 ///// 00181 26/// /1004 10260 29080 30114 91030 333 60000
OOXX KIP39 14101 99020 51574 ///// 00181 26/// /1104 10260 29079 30113 91040 333 60000
OOXX KIP39 14101 99020 51574 ///// 00181 26/// /1104 10259 29080 30113 91050 333 60000
OOXX KIP39 14111 99020 51574 ///// 00181 26/// /1104 10260 29079 30112 91100 333 60000
OOXX KIP39 14111 99020 51574 ///// 00181 26/// /1104 10261 29079 30112 91110 333 60000
OOXX KIP39 14111 99020 51574 ///// 00181 26/// /1004 10260 29079 30111 91120 333 60000
OOXX KIP39 14111 99020 51574 ///// 00181 26/// /1004 10261 29079 30109 91130 333 60000
OOXX KIP39 14111 99020 51574 ///// 00181 26/// /1004 10259 29079 30110 91140 333 60000
OOXX KIP39 14111 99020 51574 ///// 00181 26/// /1004 10260 29080 30108 91150 333 60000
OOXX KIP39 14121 99020 51574 ///// 00181 26/// /1004 10260 29080 30108 91200 333 60000
OOXX KIP39 14121 99020 51574 ///// 00181 26/// /1005 10260 29080 30107 91210 333 60000
OOXX KIP39 14121 99020 51574 ///// 00181 26/// /1104 10260 29079 30107 91220 333 60000
OOXX MRP43 14101 99181 70159 ///// 00101 26/// /0606 10258 29012 30173 91040 333 60000
OOXX MRP43 14101 99181 70159 ///// 00101 26/// /0606 10259 29012 30172 91050 333 60000
OOXX MRP43 14111 99181 70159 ///// 00101 26/// /0506 10263 29012 30171 91100 333 60000
OOXX MRP43 14111 99181 70159 ///// 00101 26/// /0606 10263 29012 30169 91110 333 60000
OOXX MRP43 14111 99181 70159 ///// 00101 26/// /0606 10268 29012 30168 91120 333 60000
OOXX MRP43 14111 99181 70159 ///// 00101 26/// /0707 10274 29011 30165 91130 333 60000
OOXX MRP43 14111 99181 70159 ///// 00101 26/// /0708 10276 29011 30163 91140 333 60000
OOXX MRP43 14111 99181 70159 ///// 00101 26/// /0608 10275 29011 30164 91150 333 60000
OOXX MRP43 14121 99181 70159 ///// 00101 26/// /0608 10275 29011 30163 91200 333 60000
OOXX MRP43 14121 99181 70159 ///// 00101 26/// /0708 10277 29011 30161 91210 333 60000
OOXX MRP43 14121 99181 70159 ///// 00101 26/// /0608 10277 29011 30161 91220 333 60000
OOXX MRP43 14121 99181 70159 ///// 00101 26/// /0708 10278 29011 30159 91230 333 60000
OOXX RUP58 14101 99442 11320 ///// 01121 26/// /1101 11094 29053 30031 91042 333 60000
OOXX RUP58 14101 99442 11320 ///// 01121 26/// /0302 11096 29052 30032 91052 333 60000
OOXX RUP58 14111 99442 11320 ///// 01121 26/// /0202 11098 29053 30032 91102 333 60000
OOXX RUP58 14111 99442 11320 ///// 01121 26/// /1301 11101 29053 30035 91112 333 60000
OOXX RUP58 14111 99442 11320 ///// 01121 26/// /0302 11102 29053 30034 91122 333 60000
OOXX RUP58 14111 99442 11320 ///// 01121 26/// /0000 11107 29055 30038 91132 333 60000
OOXX RUP58 14111 99442 11320 ///// 01121 26/// /0502 11109 29055 30039 91142 333 60000
OOXX RUP58 14111 99442 11320 ///// 01121 26/// /0203 11111 29055 30037 91152 333 60000
OOXX RUP58 14121 99442 11320 ///// 01121 26/// /0901 11112 29055 30037 91202 333 60000
OOXX RUP58 14121 99442 11320 ///// 01121 26/// /1901 11115 29056 30040 91212 333 60000
OOXX RUP58 14121 99442 11320 ///// 01121 26/// /1601 11116 29056 30041 91222 333 60000
OOXX RUP58 14121 99442 11320 ///// 01121 26/// /1002 11119 29056 30042 91232 333 60000
OOXX AUP06 14101 99192 31468 ///// 00071 26/// /0808 10290 29076 30076 91052 333 60000
OOXX AUP06 14111 99192 31468 ///// 00071 26/// /0808 10290 29077 30076 91102 333 60000
OOXX AUP06 14111 99192 31468 ///// 00071 26/// /0907 10289 29076 30077 91112 333 60000
OOXX AUP06 14111 99192 31468 ///// 00071 26/// /0907 10289 29075 30077 91122 333 60000
OOXX AUP06 14111 99192 31468 ///// 00071 26/// /0907 10289 29075 30076 91132 333 60000
OOXX AUP06 14111 99192 31468 ///// 00071 26/// /0907 10288 29076 30077 91142 333 60000
OOXX AUP06 14111 99192 31468 ///// 00071 26/// /0907 10288 29077 30078 91152 333 60000
OOXX AUP06 14121 99192 31468 ///// 00071 26/// /0907 10288 29076 30078 91202 333 60000
OOXX AUP06 14121 99192 31468 ///// 00071 26/// /1007 10288 29076 30079 91212 333 60000
OOXX AUP06 14121 99192 31468 ///// 00071 26/// /1006 10288 29077 30079 91222 333 60000
OOXX AUP06 14121 99192 31468 ///// 00071 26/// /0907 10287 29078 30078 91232 333 60000
OOXX AUP06 14121 99192 31468 ///// 00071 26/// /1007 10287 29078 30078 91242 333 60000
OOXX AUP04 14111 99377 31451 ///// 00311 26/// /1901 10145 29071 30131 91106 333 60000
OOXX AUP04 14111 99377 31451 ///// 00311 26/// /1901 10145 29072 30131 91116 333 60000
OOXX AUP04 14111 99377 31451 ///// 00311 26/// /1902 10144 29072 30129 91126 333 60000
OOXX AUP04 14111 99377 31451 ///// 00311 26/// /1902 10143 29074 30130 91136 333 60000
OOXX AUP04 14111 99377 31451 ///// 00311 26/// /1902 10143 29074 30131 91146 333 60000
OOXX AUP04 14111 99377 31451 ///// 00311 26/// /2002 10142 29075 30131 91156 333 60000
OOXX AUP04 14121 99377 31451 ///// 00311 26/// /1902 10141 29075 30131 91206 333 60000
OOXX AUP04 14121 99377 31451 ///// 00311 26/// /1902 10140 29075 30131 91216 333 60000
OOXX AUP04 14121 99377 31451 ///// 00311 26/// /1902 10140 29075 30132 91226 333 60000
OOXX AUP04 14121 99377 31451 ///// 00311 26/// /1802 10139 29075 30132 91236 333 60000
OOXX AUP04 14121 99377 31451 ///// 00311 26/// /1901 10138 29075 30131 91246 333 60000
OOXX AUP04 14121 99377 31451 ///// 00311 26/// /1901 10136 29075 30131 91256 333 60000
OOXX RUP59 14101 99539 10848 ///// 02121 26/// /0000 11178 29072 30061 91040 333 60000
OOXX RUP59 14101 99539 10848 ///// 02121 26/// /0000 11176 29076 30060 91050 333 60000
OOXX RUP59 14111 99539 10848 ///// 02121 26/// /3501 11185 29076 30060 91100 333 60000
OOXX RUP59 14111 99539 10848 ///// 02121 26/// /0000 11187 29077 30061 91110 333 60000
OOXX RUP59 14111 99539 10848 ///// 02121 26/// /0000 11182 29080 30060 91120 333 60000
OOXX RUP59 14111 99539 10848 ///// 02121 26/// /0000 11194 29077 30058 91130 333 60000
OOXX RUP59 14111 99539 10848 ///// 02121 26/// /0000 11198 29078 30057 91140 333 60000
OOXX RUP59 14111 99539 10848 ///// 02121 26/// /0000 11195 29079 30057 91150 333 60000
OOXX RUP59 14121 99539 10848 ///// 02121 26/// /0000 11196 29078 30058 91200 333 60000
OOXX RUP59 14121 99539 10848 ///// 02121 26/// /0000 11200 29078 30060 91210 333 60000
OOXX RUP59 14121 99539 10848 ///// 02121 26/// /0000 11199 29079 30058 91220 333 60000
OOXX RUP59 14121 99539 10848 ///// 02121 26/// /0000 11192 29080 30056 91230 333 60000
OOXX AUP09 14101 99124 31309 ///// 00321 26/// ///// 1//// 29/// 3//// 91014 333 6///0
OOXX AUP09 14101 99124 31309 ///// 00321 26/// ///// 1//// 29/// 3//// 91024 333 6///0
OOXX AUP09 14101 99124 31309 ///// 00321 26/// ///// 1//// 29/// 3//// 91034 333 6///0
OOXX AUP09 14101 99124 31309 ///// 00321 26/// ///// 1//// 29/// 3//// 91044 333 6///0
OOXX AUP09 14101 99124 31309 ///// 00321 26/// ///// 1//// 29/// 3//// 91054 333 6///0
OOXX AUP09 14111 99124 31309 ///// 00321 26/// ///// 1//// 29/// 3//// 91104 333 6///0
OOXX AUP09 14111 99124 31309 ///// 00321 26/// ///// 1//// 29/// 3//// 91114 333 6///0
OOXX AUP09 14111 99124 31309 ///// 00321 26/// ///// 1//// 29/// 3//// 91124 333 6///0
OOXX AUP09 14111 99124 31309 ///// 00321 26/// ///// 1//// 29/// 3//// 91134 333 6///0
OOXX AUP09 14111 99124 31309 ///// 00321 26/// ///// 1//// 29/// 3//// 91144 333 6///0
OOXX AUP09 14111 99124 31309 ///// 00321 26/// ///// 1//// 29/// 3//// 91154 333 6///0
OOXX AUP09 14121 99124 31309 ///// 00321 26/// ///// 1//// 29/// 3//// 91204 333 6///0
OOXX CKP23 14101 99212 51598 ///// 00051 26/// /0205 10269 29084 30131 91050 333 60000
OOXX CKP23 14111 99212 51598 ///// 00051 26/// /0205 10269 29084 30129 91100 333 60000
OOXX CKP23 14111 99212 51598 ///// 00051 26/// /0205 10268 29084 30128 91110 333 60000
OOXX CKP23 14111 99212 51598 ///// 00051 26/// /0205 10268 29085 30126 91120 333 60000
OOXX CKP23 14111 99212 51598 ///// 00051 26/// /0205 10268 29086 30125 91130 333 60000
OOXX CKP23 14111 99212 51598 ///// 00051 26/// /0206 10268 29084 30125 91140 333 60000
OOXX CKP23 14111 99212 51598 ///// 00051 26/// /0206 10268 29084 30125 91150 333 60000
OOXX CKP23 14121 99212 51598 ///// 00051 26/// /0206 10268 29083 30125 91200 333 60000
OOXX CKP23 14121 99212 51598 ///// 00051 26/// /0205 10268 29082 30126 91210 333 60000
OOXX CKP23 14121 99212 51598 ///// 00051 26/// /0105 10269 29082 30125 91220 333 60000
OOXX CKP23 14121 99212 51598 ///// 00051 26/// /0205 10268 29083 30125 91230 333 60000
OOXX CKP23 14121 99212 51598 ///// 00051 26/// /0205 10268 29082 30125 91240 333 60000
OOXX FJP26 14101 99178 31775 ///// 00311 26/// /1102 10231 29094 30078 91010 333 60000
OOXX FJP26 14101 99178 31775 ///// 00311 26/// /1302 10231 29094 30077 91020 333 60000
OOXX FJP26 14101 99178 31775 ///// 00311 26/// /1202 10230 29094 30077 91030 333 60000
OOXX FJP26 14101 99178 31775 ///// 00311 26/// /1202 10230 29095 30076 91040 333 60000
OOXX FJP26 14101 99178 31775 ///// 00311 26/// /1202 10229 29095 30076 91050 333 60000
OOXX FJP26 14111 99178 31775 ///// 00311 26/// /1202 10230 29094 30075 91100 333 60000
OOXX FJP26 14111 99178 31775 ///// 00311 26/// /1202 10230 29094 30074 91110 333 60000
OOXX FJP26 14111 99178 31775 ///// 00311 26/// /1302 10229 29094 30074 91120 333 60000
OOXX FJP26 14111 99178 31775 ///// 00311 26/// /1202 10226 29095 30074 91130 333 60000
OOXX FJP26 14111 99178 31775 ///// 00311 26/// /1202 10226 29095 30073 91140 333 60000
OOXX FJP26 14111 99178 31775 ///// 00311 26/// /1201 10226 29095 30072 91150 333 60000
OOXX MXP44 14101 99280 71140 ///// 00041 26/// /1422 10103 29054 30180 91010 333 60000
OOXX MXP44 14101 99280 71140 ///// 00041 26/// /1422 10104 29054 30180 91020 333 60000
OOXX MXP44 14101 99280 71140 ///// 00041 26/// /1422 10103 29054 30181 91030 333 60000
OOXX MXP44 14101 99280 71140 ///// 00041 26/// /1422 10099 29054 30181 91040 333 60000
OOXX MXP44 14101 99280 71140 ///// 00041 26/// /1422 10096 29054 30180 91050 333 60000
OOXX MXP44 14111 99280 71140 ///// 00041 26/// /1422 10093 29054 30180 91100 333 60000
OOXX MXP44 14111 99280 71140 ///// 00041 26/// /1422 10092 29054 30180 91110 333 60000
OOXX MXP44 14111 99280 71140 ///// 00041 26/// /1422 10092 29054 30181 91120 333 60000
OOXX MXP44 14111 99280 71140 ///// 00041 26/// /1422 10091 29054 30180 91130 333 60000
OOXX MXP44 14111 99280 71140 ///// 00041 26/// /1422 10092 29054 30179 91140 333 60000
OOXX MXP44 14111 99280 71140 ///// 00041 26/// /1422 10094 29054 30178 91150 333 60000
OOXX MXP44 14121 99280 71140 ///// 00041 26/// /1422 10091 29054 30178 91200 333 60000
OOXX FRP30 14101 99493 30703 ///// 00361 26/// /2109 10093 29064 30118 91057 333 60000
OOXX FRP30 14111 99493 30703 ///// 00361 26/// /2109 10091 29064 30117 91107 333 60000
OOXX FRP30 14111 99493 30703 ///// 00361 26/// /2109 10090 29064 30117 91117 333 60000
OOXX FRP30 14111 99493 30703 ///// 00361 26/// /2109 10090 29063 30112 91127 333 60000
OOXX FRP30 14111 99493 30703 ///// 00361 26/// /2109 10091 29063 30112 91137 333 60000
OOXX FRP30 14111 99493 30703 ///// 00361 26/// /2009 10092 29061 30114 91147 333 60000
OOXX FRP30 14111 99493 30703 ///// 00361 26/// /2109 10089 29060 30118 91157 333 60000
OOXX FRP30 14121 99493 30703 ///// 00361 26/// /2109 10089 29061 30118 91207 333 60000
OOXX FRP30 14121 99493 30703 ///// 00361 26/// /2009 10089 29060 30119 91217 333 60000
OOXX FRP30 14121 99493 30703 ///// 00361 26/// /2109 10087 29061 30119 91227 333 60000
OOXX FRP30 14121 99493 30703 ///// 00361 26/// /2109 10084 29063 30120 91237 333 60000
OOXX FRP30 14121 99493 30703 ///// 00361 26/// /2009 10085 29063 30120 91247 333 60000
OOXX ARP01 14001 99345 50585 ///// 00311 26/// /2001 10096 29038 30105 90010 333 60000
OOXX ARP01 14001 99345 50585 ///// 00311 26/// /2001 10096 29038 30106 90020 333 60000
OOXX ARP01 14001 99345 50585 ///// 00311 26/// /2001 10095 29038 30107 90030 333 60000
OOXX ARP01 14001 99345 50585 ///// 00311 26/// /2302 10095 29038 30108 90040 333 60000
OOXX ARP01 14001 99345 50585 ///// 00311 26/// /2001 10095 29038 30109 90050 333 60000
OOXX ARP01 14011 99345 50585 ///// 00311 26/// /0000 10096 29038 30110 90100 333 60000
OOXX ARP01 14011 99345 50585 ///// 00311 26/// /2001 10095 29038 30111 90110 333 60000
OOXX ARP01 14011 99345 50585 ///// 00311 26/// /2001 10094 29038 30112 90120 333 60000
OOXX ARP01 14011 99345 50585 ///// 00311 26/// /2301 10093 29038 30112 90130 333 60000
OOXX ARP01 14011 99345 50585 ///// 00311 26/// /2302 10094 29038 30112 90140 333 60000
OOXX ARP01 14011 99345 50585 ///// 00311 26/// /2001 10094 29039 30112 90150 333 60000
OOXX ARP01 14021 99345 50585 ///// 00311 26/// /2302 10093 29039 30113 90200 333 60000
OOXX RUP54 14101 99586 10494 ///// 01271 26/// /0203 11091 29090 30117 91027 333 60120
OOXX RUP54 14101 99586 10494 ///// 01271 26/// /0203 11091 29090 30117 91037 333 60120
OOXX RUP54 14101 99586 10494 ///// 01271 26/// /0203 11091 29090 30116 91047 333 60120
OOXX RUP54 14101 99586 10494 ///// 01271 26/// /0303 11092 29090 30116 91057 333 60120
OOXX RUP54 14111 99586 10494 ///// 01271 26/// /0303 11092 29090 30116 91107 333 60120
OOXX RUP54 14111 99586 10494 ///// 01271 26/// /0403 11092 29090 30115 91117 333 60120
OOXX RUP54 14111 99586 10494 ///// 01271 26/// /0303 11092 29090 30114 91127 333 60120
OOXX RUP54 14111 99586 10494 ///// 01271 26/// /0204 11092 29090 30113 91137 333 60120
OOXX RUP54 14111 99586 10494 ///// 01271 26/// /0303 11093 29090 30112 91147 333 60120
OOXX RUP54 14111 99586 10494 ///// 01271 26/// /0303 11093 29090 30110 91157 333 60120
OOXX RUP54 14121 99586 10494 ///// 01271 26/// /0204 11094 29090 30109 91207 333 60120
OOXX RUP54 14121 99586 10494 ///// 01271 26/// /0403 11093 29090 30111 91217 333 60120
AAXX 14124 91559 46/// /0000 10267 40074 22200 00285
AAXX 14124 71824 46/// /2002 11110 21118 6///1 333 11039 21178 7////
AAXX 14124 71429 16/// /3605 11047 21076 30277 40297 53011 60001 333 10007 21047 70040
AAXX 14124 71388 46/// /2504 11038 21059 30110 40303 53002 6///1 333 10011 21045 7////
AAXX 14124 71389 46/// /0202 11008 21024 6///1 333 10010 21009 7////
AAXX 14124 60535 12970 60000 10150 20051 38900 48564 58010 60001 80001 333 0//00 86070 95900
AAXX 14124 71824 46/// /2002 11110 21118 6///1 333 11039 21178 7////
AAXX 14124 71429 16/// /3605 11047 21076 30277 40297 53011 60001 333 10007 21047 70040
AAXX 14124 71388 46/// /2504 11038 21059 30110 40303 53002 6///1 333 10011 21045 7////
AAXX 14124 71389 46/// /0202 11008 21024 6///1 333 10010 21009 7////
AAXX 14124 91531 46/// /0704 1//// 40074 22200 00278
AAXX 14124 71550 16/// /2607 11052 21069 39727 40106 58018 60001 333 11040 21052 4/001 70000
AAXX 14124 71016 16/// ///// 11016 60001 333 11007 21024 70000
AAXX 14124 91642 46/// /0000 1//// 40087 22200 0////
AAXX 14121 03976 11582 42207 10068 20024 39839 49851 50008 69921 70381 83903 333 82920 81820 96489
AAXX 14124 71120 11574 63013 11025 21056 39416 40076 53015 69901 73671 86500 333 11019 21066 44004 70005 90962
AAXX 14124 71120 11574 63013 11025 21056 39416 40076 53015 69901 73671 86500 333 11019 21066 44004 70005 90962
AAXX 1412/ 89769 46/// ///// 11083 39781 4//// 5////
AAXX 1412/ 89872 46/// ///// 11029 39764 4//// 5//// 91240
AAXX 1412/ 89869 46/// ///// 11070 39738 4//// 5//// 91240
BBXX SHIP 14124 99229 71783 41/97 20207 10247 20184 40169 58003 70200 8//// 22223 04251
BBXX SHIP 14124 99229 71783 41/97 20207 10247 20184 40169 58003 70200 8//// 22223 04251
BBXX WFLG 14124 99319 71260 41798 83413 10150 20067 40240 57008 70222 88/7/ 22223 04139 20401 305// 40804 5//// 6//// 80106 ICE /////
BBXX ZCDM8 14123 99284 70161 41398 53408 10210 20122 40299 54/// 7//// 83182 22251 00210 33030 40204 50102 80160
BBXX A8PX4 14124 99367 10132 41998 13315 10174 20103 40240 57015 70000 80005 22264 00189 20302 326// 40704 80133
BBXX AMOUK04 14124 99533 70062 46/// ///// 10066 2//// 39879 4//// 52019 91150
BBXX ZCDM8 14123 99284 70161 41398 53408 10210 20122 40299 54/// 7//// 83182 22251 00210 2/// 33030 40204 50102 80160
BBXX ONFP 14124 99361 30340 41292 80524 10220 2021/ 40070 50010 74544 88999 22223 04186 20504 307// 4//// 5//// 6//// 80210 /////
BBXX SHIP 14124 99424 10070 41598 82315 10170 20138 40165 54000 70222 8653/ 22224 00170 20301 80150 333 86630
BBXX SHIP 14124 99229 71783 41/97 20207 10247 20184 40169 58003 70200 8//// 22223 04251
BBXX MVQP8 14124 99292 70946 41096 61110 10180 20180 40202 52003 71222 83114 22200 00120 20201 311// 40201 5//// 80180
BBXX WFLG 14124 99319 71260 41798 83413 10150 20067 40240 57008 70222 88/7/ 22223 04139 20401 305// 40804 5//// 6//// 80106 ICE /////
AAXX 14124 89628 46/// /3112 11241 36718 4//// 5////
AAXX 14124 78767 11458 83608 10215 20200 30130 40132 51020 60052 750// 87570 333 10218 20204 32/// 56000 58010 70135 87610
AAXX 14124 78767 11458 83608 10215 20200 30130 40132 51020 60052 750// 87570 333 10218 20204 32/// 56000 58010 70135 87610
AAXX 14124 78767 11458 83608 10215 20200 30130 40132 51020 60052 750// 87570 333 10218 20204 32/// 56000 58010 70135 87610
BBXX SHIP 14124 99424 10070 41598 82315 10170 20138 40165 54000 70222 8653/ 22224 00170 20301 80150 333 86630
AAXX 14124 71514 16/// /2107 11058 21078 39390 40096 56013 60001 333 11045 21058 55/// 20000 70000
AAXX 14124 71026 46/// /2503 11114 21142 39249 40124 51032 6///1 333 21130 4/003 7////
BBXX MINFR09 1412/ 99385 31399 46/// ///// 40203 52005
BBXX 46094 14121 99446 71243 46/// /1005 10058 91230
BBXX 46094 14121 99446 71243 46/// /1104 10060 91220
BBXX 46094 14121 99446 71243 46/// /0906 10062 91210
BBXX 46094 14121 99446 71243 46/// /1005 10063 91200
BBXX 46094 14121 99446 71243 46/// /1105 10065 91150
BBXX 46094 14121 99446 71243 46/// /1106 10062 91140
BBXX 42047 14121 99279 70936 46/// /1509 10213 20178 40202 91230 22200 00227 333 91210
BBXX 42047 14121 99279 70936 46/// /1508 10214 20179 40203 91200 22200 00227 333 91210
BBXX 44055 14121 99391 70753 46/// ///// 1//// 91230 22200 00090 1//00 70002
AAXX 14124 92036 46/// /2402 10258 40077 22200 00310
AAXX 14123 63631 32570 51904 10300 20/// 48/// 85901 333 85820 81922 555 10///
AAXX 14123 63654 42565 73405 10250 20189 48/// 85970 333 85820 81921 83361 555 10210
BBXX 63110 14124 99595 10015 47498 /2426 10076 20036 49653 52035 700// 22200 10810 70050
BBXX 63106 14124 99610 10017 46/// /2426 10077 49601 52038 22200
BBXX 63105 14124 99610 10017 47597 ///// 10076 20034 49602 52039 700// 22200
BBXX AMOUK03 14124 99537 70003 46/// ///// 10052 20011 39834 49868 52011 91150
BBXX 62107 14124 99501 70061 46/// /2733 10080 20028 49977 51019 22200 00116 10909 70044 333 90710 91152
BBXX 64049 14123 99571 10022 41297 82438 10085 20085 49750 53018 70211 8/7// 22200 20714 3//// 4//// 5//// 80085
BBXX 62103 14124 99499 70029 46/98 /2725 10079 20032 49980 52026 22200 00124 10806 70032 333 90710 91148
AAXX 14124 93713 46/// /0000 10157 40017 22200 00156
AAXX 14123 63631 32570 51904 10300 20/// 48/// 85901 333 85820 81922 555 10///
AAXX 14123 63654 42565 73405 10250 20189 48/// 85970 333 85820 81921 83361 555 10210
AAXX 14121 10382 01681 61605 10073 20039 39934 49978 58044 69951 72161 85572 333 31/// 55300 20087 30087 69957 83638 85650 85363 96263
BBXX 44056 14121 99362 70757 46/// ///// 1//// 91220 22200 00121 11003 21003 311// 41101 70015
AAXX 14124 91689 46/// /0610 10252 40099 22200 00283
BBXX VRDF2 14123 99415 70337 41696 61713 10150 20116 40260 54000 7//22 86622 22263 00150 20406 331// 40406 5//// 6//// 80130 ICE /////
BBXX SHIP 14124 99424 10070 41598 82315 10170 20138 40165 54000 70222 8653/ 22224 00170 20301 80150 333 86630
BBXX A8QM9 14124 99375 10053 41998 03123 10180 20148 40050 52/// 70211 80000 22263 20508 332// 40708 80160
BBXX A8PX4 14124 99367 10132 41998 13315 10174 20103 40240 57015 70000 80005 22264 00189 20302 326// 40704 80133
BBXX ZCDM8 14123 99284 70161 41398 53408 10210 20122 40299 54/// 7//// 83182 22251 00210 33030 40204 50102 80160
BBXX 44056 14121 99362 70757 46/// ///// 1//// 91220 22200 00121 11003 21003 311// 41101 70015
BBXX 44055 14121 99391 70753 46/// ///// 1//// 91230 22200 00090 1//00 70002
BBXX 42047 14121 99279 70936 46/// /1508 10214 20179 40203 91200 22200 00227 333 91210
BBXX 42047 14121 99279 70936 46/// /1509 10213 20178 40202 91230 22200 00227 333 91210
BBXX 46094 14121 99446 71243 46/// /1105 10065 91150
BBXX 46094 14121 99446 71243 46/// /1106 10062 91140
BBXX 46094 14121 99446 71243 46/// /1005 10058 91230
BBXX 46094 14121 99446 71243 46/// /0906 10062 91210
BBXX 46094 14121 99446 71243 46/// /1104 10060 91220
BBXX 46094 14121 99446 71243 46/// /1005 10063 91200
BBXX MINFR09 1412/ 99385 31399 46/// ///// 40203 52005
BBXX VRDF2 14123 99415 70337 41696 61713 10150 20116 40260 54000 7//22 86622 22263 00150 20406 331// 40406 5//// 6//// 80130 ICE /////
BBXX SHIP 14124 99424 10070 41598 82315 10170 20138 40165 54000 70222 8653/ 22224 00170 20301 80150 333 86630
AAXX 14121 98741 31470 60000 10281 20255 40086 52012 70244 82208 333 10315 56999 58002 82817 86275
AAXX 14121 98753 31465 63603 10272 20255 40092 52026 70544 82238 333 10298 56999 59004 82816 86279
AAXX 14124 04418 NIL
AAXX 14124 04425 NIL
AAXX 14124 04432 NIL
AAXX 14124 04436 NIL
AAXX 14124 04464 46/// /1511 11351 21385 52077 333 553// 20004
AAXX 14124 04485 NIL
AAXX 14124 04488 NIL
AAXX 14121 03967 11483 72208 10026 20002 39768 49882 51014 69901 70281 81536 333 81715 87275 96485
BBXX WFLG 14124 99319 71260 41798 83413 10150 20067 40240 57008 70222 88/7/ 22223 04139 20401 305// 40804 5//// 6//// 80106 ICE /////
AAXX 14124 71099 43/// /2309 11050 21071 30083 40103 56004 6///1 333 11055 21069 7////
AAXX 1412/ 89667 46/// ///// 4//// 5//// 91240
AAXX 14123 63671 32580 43603 10323 20198 84200 333 84827
AAXX 14124 63714 32580 53615 10247 20086 48471 85200 333 58006 85823
AAXX 14124 96615 32456 60000 10278 20246 30080 40095 52019 81131 333 10317 56000 57803 59002 81812 85082 80856
BBXX 63110 14123 99595 10015 41498 52335 10076 20036 49648 71586 838// 22200 11010 70050
BBXX AMOUK08 14124 99501 70061 46/// ///// 10083 20045 39971 49977 52021 91150
BBXX AMOUK05 14124 99537 70003 46/// ///// 10050 20004 39829 49869 52012 91150
BBXX PJGO 14124 99571 10022 46/// ///// 22200
BBXX 63106 14124 99610 10017 46/// /2426 10077 49601 52038 22200
BBXX 63113 14124 99610 10017 46/// /2524 10077 20033 49616 52044 22200 10912 70058
BBXX 62103 14124 99499 70029 46/97 /2635 10078 20021 49974 52027 22200 00124 10806 70032 333 90710 91153
BBXX 9V7645 14123 99350 70738 41797 73623 10150 20086 40253 54000 70322 8518/ 22284 04240 20301 30309 40503 51005 6//// 80115 ICE /////
BBXX 9V7645 14123 99350 70738 41797 73623 10150 20086 40253 54000 70322 8518/ 22284 04240 20301 30309 40503 51005 6//// 80115 ICE /////
BBXX SKEC 14121 99574 10178 46/// ///// 10066 49936 57010 22241 00052
AAXX 14124 60340 32965 21803 10184 20103 40268 56003 82030 333 82360
AAXX 14124 71408 46/// /0226 11056 21111 30161 40242 5/009 6///1 333 10047 7////
AAXX 14121 98132 11460 80704 10228 20220 40194 53021 60031 76064 8557/ 333 10256 56199 58007 85616 88357
AAXX 14121 98133 31567 30903 10/// 20/// 40136 5//// 70544 83200 333 10/// 56299 58005 83820
AAXX 14121 98222 31575 10000 10270 20243 40109 53007 70544 81200 333 10317 56999 58002 81820
AAXX 14121 98233 31570 20000 10265 20228 40119 52013 70544 82200 333 10315 56999 58004 82820
AAXX 14121 98324 31462 41402 10288 20267 40104 53009 70544 81101 333 10328 56999 58004 81816 84080
AAXX 14121 98327 31670 42902 10247 20216 39945 40120 52012 70544 81108 333 10320 56999 58000 81842 84280
AAXX 14121 98334 32468 50000 10257 20246 39921 40125 52005 82270 333 10294 56999 59001 82817 85358
AAXX 14121 98425 31560 60702 10280 20226 40109 52011 70544 84870 333 10312 56999 58002 84620 86358
AAXX 14121 98426 31562 10902 10267 20223 40116 53010 70544 81100 333 10320 56999 58001 81820
AAXX 14121 98427 31470 40204 10255 20228 39925 40103 53007 71522 82270 333 10288 59005 82818 84357
AAXX 14121 98428 11458 20901 10280 20254 40106 53008 60021 70184 81401 333 10290 56999 58004 81618
AAXX 14121 98432 31568 40403 10266 20246 40104 52005 70544 82202 333 10297 56999 59001 82820
AAXX 14121 98433 11460 60405 10224 20209 39390 40110 55007 69901 71584 82270 333 10253 56999 59001 82812 84357
AAXX 14121 98434 11464 63603 10254 20249 30109 40117 53012 60061 71586 84270 333 10300 56199 56008 84817 85358
AAXX 14121 98435 32470 60402 10268 20243 40118 5//// 83270 333 10288 56199 58000 83818 85358
AAXX 14121 98442 NIL
AAXX 14121 98446 11470 83202 10252 20241 30077 40123 53023 60151 76366 84207 333 10308 56799 84818 88270
AAXX 14121 98447 11465 80907 10245 20235 39856 40120 5//// 60161 76166 8482/ 333 10/// 56299 58003 84816 88456
AAXX 14121 98538 11460 80410 10280 20254 30093 40098 52022 69901 79596 83967 333 10310 56229 59010 83911 84357 88272
AAXX 14121 98546 11456 80705 10258 20245 30105 40113 52019 60051 78082 84907 333 10322 56199 58003 84915 88275
AAXX 14121 98548 11466 71801 10272 20248 30080 40086 53013 60021 78082 84208 333 10320 56299 59005 84816 87272
AAXX 14121 98553 11458 80903 10250 20245 30115 40119 52032 60371 76566 8497/ 333 10313 56999 58011 84915 88358
AAXX 14121 98558 11460 80807 10251 20250 40108 53037 60151 76066 8452/ 333 10309 56999 58014 84615 88457
AAXX 14121 98642 32462 40000 10272 20245 30083 40092 52022 83202 333 10314 56199 59004 83815
AAXX 14121 98644 11465 50000 10265 20245 30085 40094 53012 60041 70284 82261 333 10334 56999 59006 82817 83358
AAXX 14121 98648 31468 73601 10245 20223 30016 40098 52017 71544 82968 333 10322 56299 59005 81912 83358 86270
AAXX 14121 98746 31462 70000 10278 20232 40098 52026 71344 82978 333 10334 56999 58001 82918 85358 87275
AAXX 14121 98751 31470 50301 10242 20212 39428 40101 52028 71344 82970 333 10320 56999 59006 82915 83356
AAXX 14121 98752 11460 61201 10277 20265 40103 52018 69971 71382 82978 333 10318 56999 59008 82916 85275
AAXX 14121 98851 31470 63201 10256 20229 39935 40084 53013 70544 82206 333 10298 56999 58003 82818 86075
BBXX 42013 14121 99272 70829 46/// ///// 1//// 40247 91220 22200 00199
BBXX 42013 14121 99272 70829 46/// ///// 1//// 40245 53005 91200 22200 00199
BBXX 42369 14121 99272 70903 46/// /1009 1//// 91140 22200 10504 70020
BBXX 42370 14121 99273 70905 46/// ///// 10220 91140 22200 10503 70017
BBXX 42376 14121 99291 70879 46/// /0508 10195 40262 91140 22200 10402 70011
BBXX 42392 14121 99272 70900 46/// ///// 1//// 91140 22200 10503 70015
BBXX 42887 14121 99282 70885 46/// /1308 1//// 91140 22200 10503 70017
AAXX 14124 16337 12498 81906 10126 20110 39660 40231 58006 60001 882// 333 84810 84610 555 0216/
BBXX 42887 14121 99282 70885 46/// /1308 1//// 91140 22200 10503 70017
BBXX 42376 14121 99291 70879 46/// /0508 10195 40262 91140 22200 10402 70011
BBXX 42392 14121 99272 70900 46/// ///// 1//// 91140 22200 10503 70015
BBXX 42370 14121 99273 70905 46/// ///// 10220 91140 22200 10503 70017
BBXX 42369 14121 99272 70903 46/// /1009 1//// 91140 22200 10504 70020
BBXX 42013 14121 99272 70829 46/// ///// 1//// 40247 91220 22200 00199
BBXX 42013 14121 99272 70829 46/// ///// 1//// 40245 53005 91200 22200 00199
BBXX C6TH9 14123 99197 51598 41297 40517 10240 2021/ 40170 54/// 7//11 831/8 22282 00270 21002 3//// 4//// 5//// 6//// 80220 ICE /////
BBXX SKEC 14121 99574 10178 46/// ///// 10066 49936 57010 22241 00052
AAXX 14124 63705 31565 82212 10217 20182 38860 48515 75065 8492/ 333 58029 84621 81923 88463 555 10192
AAXX 14124 63684 31580 72109 10239 20181 38824 48/// 71792 8697/ 333 58022 86820 81925 87362 555 10201
AAXX 14124 63680 11470 72105 10220 20184 38830 48/// 69901 76096 8597/ 333 58003 84722 81925 85460 555 10196
AAXX 14124 63631 32570 51904 10300 20/// 48/// 85901 333 85820 81922 555 10///
AAXX 14124 63654 42565 73405 10250 20189 48/// 85970 333 85820 81921 83361 555 10210
AAXX 14124 71705 11574 80409 11008 21062 30199 40289 51018 69941 70282 885// 333 10050 21010 42001 70008 90925
AAXX 14124 71705 11574 80409 11008 21062 30199 40289 51018 69941 70282 885// 333 10050 21010 42001 70008 90925
BBXX 9MEU4 14124 99152 11188 41198 83604 10280 20251 40104 52010 70202 87/// 22253 00285 2//// 80260
BBXX VRAR7 14123 99290 11495 41/98 /0715 10205 20201 40170 52010 70062 8//// 22254 00236 2//// 80200
BBXX ZQDI9 14123 99060 10885 41598 60608 10300 20243 40086 56005 71598 84241 22223 00298 20401 302// 40504 80260
BBXX A8CG7 14120 99019 31080 41397 33107 10268 20222 40080 51010 70311 81617 22264 04300 20401 80235
BBXX 9MEU4 14124 99152 11188 41198 83604 10280 20251 40104 52010 70202 87/// 22253 00285 2//// 80260
BBXX VRAR7 14123 99290 11495 41/98 /0715 10205 20201 40170 52010 70062 8//// 22254 00236 2//// 80200
BBXX ZQDI9 14123 99060 10885 41598 60608 10300 20243 40086 56005 71598 84241 22223 00298 20401 302// 40504 80260
BBXX A8CG7 14120 99019 31080 41397 33107 1prU ,fg170311 81617 22264 043 20401 80235
BBXX 9MEU4 14124 99152 11188 41198 83604 10280 20251 40104 52010 70202 87/// 22253 00285 2//// 80260
BBXX VRAR7 14123 99290 11495 41/98 /0715 10205 20201 40170 52010 70062 8//// 22254 00236 2//// 80200
BBXX ZQDI9 14123 99060 10885 41598 60608 10300 20243 40086 56005 71598 84241 22223 00298 20401 302// 40504 80260
BBXX A8CG7 14120 99019 31080 41397 33107 1PRU ,FG1/70311 81617 22264 043 20401 80235
BBXX 63110 14124 99595 10015 47498 /2426 10076 20036 49653 52035 700// 22200 10810 70050
BBXX 63106 14124 99610 10017 46/// /2426 10077 49601 52038 22200
BBXX 63105 14124 99610 10017 47597 ///// 10076 20034 49602 52039 700// 22200
BBXX AMOUK03 14124 99537 70003 46/// ///// 10052 20011 39834 49868 52011 91150
BBXX 62107 14124 99501 70061 46/// /2733 10080 20028 49977 51019 22200 00116 10909 70044 333 90710 91152
BBXX 64049 14123 99571 10022 41297 82438 10085 20085 49750 53018 70211 8/7// 22200 20714 3//// 4//// 5//// 80085
BBXX 62103 14124 99499 70029 46/98 /2725 10079 20032 49980 52026 22200 00124 10806 70032 333 90710 91148
AAXX 14124 16325 12798 41607 10138 20104 30198 40212 58004 60001 81031 333 81356 98070 555 0113/
BBXX AMOUK04 14124 99533 70062 46/// ///// 10066 2//// 39879 4//// 52019 91150
BBXX WKPN 14124 99363 70021 41498 22725 10180 2013/ 40245 58010 70200 828// 22225 00200 20402 327// 40804 5//// 6//// 80150
BBXX DDZA2 14124 99361 70070 41498 63112 10180 20112 40260 51010 7//22 86868 22264 04180 20202 332// 40202 80140
BBXX ZCAS2 14123 99081 31253 41498 52015 10272 20239 40074 51001 70311 82141 22283 00298 20102 318// 40202 80249
BBXX ZCAS2 14123 99081 31253 41498 52015 10272 20239 40074 51001 70311 82141 22283 00298 20102 318// 40202 80249
BBXX A8CG7 14120 99019 31080 41397 33107 1PRU ,FG1/70311 81617 22264 043 20401 80235
BBXX A8CG7 14120 99019 31080 41397 33107 1prU ,fg170311 81617 22264 043 20401 80235
BBXX A8CG7 14120 99019 31080 41397 33107 10268 20222 40080 51010 70311 81617 22264 04300 20401 80235
BBXX C6TH9 14123 99197 51598 41297 40517 10240 2021/ 40170 54/// 7//11 831/8 22282 00270 21002 3//// 4//// 5//// 6//// 80220 ICE /////
BBXX SHIP 14123 99290 11495 41/98 /0715 10205 20201 40170 52010 70062 8//// 22254 00236 2//// 80200
BBXX ZQDI9 14123 99060 10885 41598 60608 10300 20243 40086 56005 71598 84241 22223 00298 20401 302// 40504 80260
BBXX SHIP 14124 99152 11188 41198 83604 10280 20251 40104 52010 70202 87/// 22253 00285 2//// 80260
AAXX 1412/ 89872 46/// ///// 11033 39764 4//// 5//// 91230
AAXX 1412/ 89866 46/// ///// 11054 39711 4//// 5//// 91230
AAXX 1412/ 89866 46/// ///// 11051 39710 4//// 5//// 91240
AAXX 1412/ 89329 46/// ///// 11186 38643 4//// 5//// 91230
AAXX 1412/ 89329 46/// ///// 11186 38642 4//// 5//// 91240
AAXX 1412/ 89332 46/// ///// 11120 39114 4//// 5//// 91240
AAXX 1412/ 89769 46/// ///// 11084 39777 4//// 5//// 91240
AAXX 1412/ 89314 46/// ///// 11183 38111 4//// 5//// 91240
AAXX 1412/ 89327 46/// ///// 11064 39498 4//// 5//// 91230
AAXX 1412/ 89327 46/// ///// 11064 39498 4//// 5//// 91240
AAXX 1412/ 89828 46/// ///// 11305 36437 4//// 5//// 91240
AAXX 1412/ 89879 46/// ///// 11016 39743 4//// 5//// 91240
AAXX 14121 38932 41/91 91801 10003 21014 40312 57011 74544
AAXX 14124 91375 46/// /0510 10269 40094 22200 00285
BBXX 42369 14121 99272 70903 46/// /1009 1//// 91200 22200 10504 70020
BBXX 42370 14121 99273 70905 46/// ///// 10220 91200 22200 10503 70017
AAXX 14124 71245 46/// /2313 11093 21118 6///1 333 11029 21096 7////
AAXX 14124 71732 16/// /1404 10014 20006 60001 333 10021 20010 70000
AAXX 14124 71604 16/// /0908 11050 21056 60001 333 10029 21050 4/011 70006
BBXX 42376 14121 99291 70879 46/// /0508 10195 40262 54000 91200 22200 10402 70011
BBXX 42392 14121 99272 70900 46/// ///// 1//// 91200 22200 10503 70015
BBXX 42887 14121 99282 70885 46/// /1308 1//// 91200 22200 10503 70017
AAXX 14124 91165 32466 81011 30132 91202
AAXX 14124 91212 32566 20714 10272 20222 31372 40105 51010 91154
AAXX 14124 91245 32566 40513 10260 20220 30161 91155
AAXX 14124 91285 12666 80000 10200 20183 30158 40171 56007 60071 91153
AAXX 14124 91334 32474 80608 10279 20230 30076 40079 50003 82171
AAXX 14124 91348 11472 80705 10270 20239 30037 40090 52002 69981 78082 8627/
AAXX 14124 91356 11358 81207 10267 20236 30081 40088 51007 60261 76386 88200
AAXX 14124 91367 32474 41012 10272 20239 84100
AAXX 14124 91376 32474 60708 10278 20229 30091 40095 50002 83871
AAXX 14124 91408 11473 80705 10265 20250 30046 40084 52014 69901 70282 84208
AAXX 14124 91413 11466 80708 10255 20240 30059 40084 50008 60241 72582 8537/
AAXX 14124 91155 NIL
AAXX 14124 91203 NIL
AAXX 14124 91217 NIL
AAXX 14124 91232 NIL
AAXX 14124 91250 NIL
AAXX 14124 91275 NIL
AAXX 14124 91317 NIL
AAXX 14124 91324 NIL
AAXX 14124 91339 NIL
AAXX 14124 91353 NIL
AAXX 14124 91366 NIL
AAXX 14124 91369 NIL
AAXX 14124 91371 NIL
AAXX 14124 91378 NIL
AAXX 14124 91425 NIL
AAXX 14124 91434 NIL
AAXX 14124 91601 NIL
AAXX 14124 91610 NIL
AAXX 14124 89614 46/// /0923 11066 29076 38953 4//// 5//// 91230 333 90700 91128
AAXX 14124 89614 46/// /0923 11066 29076 38953 4//// 5//// 91230 333 90700 91128
BBXX 63110 14123 99595 10015 41498 52335 10076 20036 49648 71586 838// 22200 11010 70050
BBXX AMOUK08 14124 99501 70061 46/// ///// 10083 20045 39971 49977 52021 91150
BBXX AMOUK05 14124 99537 70003 46/// ///// 10050 20004 39829 49869 52012 91150
BBXX PJGO 14124 99571 10022 46/// ///// 22200
BBXX 63106 14124 99610 10017 46/// /2426 10077 49601 52038 22200
BBXX 63113 14124 99610 10017 46/// /2524 10077 20033 49616 52044 22200 10912 70058
BBXX 62103 14124 99499 70029 46/97 /2635 10078 20021 49974 52027 22200 00124 10806 70032 333 90710 91153
AAXX 14124 91165 32466 81011 30132 91202
AAXX 14124 91212 32566 20714 10272 20222 31372 40105 51010 91154
AAXX 14124 91285 12666 80000 10200 20183 30158 40171 56007 60071 91153
AAXX 14124 91334 32474 80608 10279 20230 30076 40079 50003 82171
AAXX 14124 91348 11472 80705 10270 20239 30037 40090 52002 69981 78082 8627/
AAXX 14124 91356 11358 81207 10267 20236 30081 40088 51007 60261 76386 88200
AAXX 14124 91376 32474 60708 10278 20229 30091 40095 50002 83871
AAXX 14124 91408 11473 80705 10265 20250 30046 40084 52014 69901 70282 84208
AAXX 14124 91413 11466 80708 10255 20240 30059 40084 50008 60241 72582 8537/
AAXX 14124 91245 32566 40513 10260 20220 30161 91155
BBXX ZCAS2 14123 99081 31253 41498 52015 10272 20239 40074 51001 70311 82141 22283 00298 20102 318// 40202 80249
BBXX 42887 14121 99282 70885 46/// /1308 1//// 91200 22200 10503 70017
BBXX 42376 14121 99291 70879 46/// /0508 10195 40262 54000 91200 22200 10402 70011
BBXX 42392 14121 99272 70900 46/// ///// 1//// 91200 22200 10503 70015
BBXX 42370 14121 99273 70905 46/// ///// 10220 91200 22200 10503 70017
BBXX 42369 14121 99272 70903 46/// /1009 1//// 91200 22200 10504 70020
AAXX 14124 96655 01457 72003 10259 20242 30067 40102 58019 69901 71362 85972 333 10320 56000 57901 58001 69907 58001 81913 85612 80973
AAXX 14124 97530 11456 43505 10252 20246 30071 40076 52015 69941 70161 84832 333 56000 57802 82814 83360 80860
AAXX 14124 71713 16/// /0202 11017 21033 60001 333 10014 21022 70000
AAXX 14124 71372 16/// /0603 10000 21001 60001 333 10013 20000 70000
AAXX 14124 71382 16/// /2002 11051 21062 39326 40281 53007 60001 333 11018 21054 70010
AAXX 14124 71110 16/// /0404 11058 21111 30172 40233 51010 60001 333 10034 21058 70000
BBXX S6SR 14124 99404 50227 41797 72119 10160 20108 40180 51020 7//22 87/4/ 22213 00150 2//// 3//// 4//// 5//// 6//// 80130 ICE /////
BBXX S6SR 14124 99404 50227 41797 72119 10160 20108 40180 51020 7//22 87/4/ 22213 00150 2//// 3//// 4//// 5//// 6//// 80130 ICE /////
BBXX 42045 14121 99262 70965 46/// /1510 10220 40170 91230 22200 00220 333 91211
BBXX 42045 14121 99262 70965 46/// /1510 10219 40168 57009 91200 22200 00220 333 91211
AAXX 14124 71428 16/// /1906 11052 21080 30295 40301 50000 60001 333 11011 21068 70000
AAXX 14124 48425 31940 60504 10265 20187 30114 40124 52004 70522 84056 333 10285 59002
BBXX 63110 14124 99595 10015 47498 /2426 10076 20036 49653 52035 700// 22200 10810 70050
BBXX 63106 14124 99610 10017 46/// /2426 10077 49601 52038 22200
BBXX 63105 14124 99610 10017 47597 ///// 10076 20034 49602 52039 700// 22200
BBXX AMOUK03 14124 99537 70003 46/// ///// 10052 20011 39834 49868 52011 91150
BBXX 62107 14124 99501 70061 46/// /2733 10080 20028 49977 51019 22200 00116 10909 70044 333 90710 91152
BBXX 64049 14123 99571 10022 41297 82438 10085 20085 49750 53018 70211 8/7// 22200 20714 3//// 4//// 5//// 80085
BBXX 62103 14124 99499 70029 46/98 /2725 10079 20032 49980 52026 22200 00124 10806 70032 333 90710 91148
BBXX 42369 14121 99272 70903 46/// /1009 1//// 91220 22200 10504 70020
BBXX 42370 14121 99273 70905 46/// ///// 10220 91220 22200 10503 70017
BBXX 42376 14121 99291 70879 46/// /0508 10195 40262 91220 22200 10402 70011
BBXX 42392 14121 99272 70900 46/// ///// 1//// 91220 22200 10503 70015
BBXX 42887 14121 99282 70885 46/// /1308 1//// 91220 22200 10503 70017
BBXX C6FY5 14123 99037 70478 41597 60817 10280 2024/ 40110 54/// 7//00 862// 22273 04280 20204 309// 40404 5//// 6//// 80250 ICE /////
BBXX 42887 14121 99282 70885 46/// /1308 1//// 91220 22200 10503 70017
BBXX 42376 14121 99291 70879 46/// /0508 10195 40262 91220 22200 10402 70011
BBXX 42392 14121 99272 70900 46/// ///// 1//// 91220 22200 10503 70015
BBXX 42369 14121 99272 70903 46/// /1009 1//// 91220 22200 10504 70020
BBXX 42370 14121 99273 70905 46/// ///// 10220 91220 22200 10503 70017
BBXX 42045 14121 99262 70965 46/// /1510 10219 40168 57009 91200 22200 00220 333 91211
BBXX 42045 14121 99262 70965 46/// /1510 10220 40170 91230 22200 00220 333 91211
AAXX 14124 71614 16/// /0801 10000 21008 30219 40286 51008 60001 333 10029 20000 70000
AAXX 14124 17237 12670 40701 10148 20063 39712 40217 57015 60001 84200 333 84840 91104
AAXX 14121 10430 01484 82405 10068 20044 39770 49959 53010 69911 72165 888// 333 31/// 55300 20071 30071 69907 85819 87632 91117
BBXX 63110 14123 99595 10015 41498 52335 10076 20036 49648 71586 838// 22200 11010 70050
BBXX AMOUK08 14124 99501 70061 46/// ///// 10083 20045 39971 49977 52021 91150
BBXX AMOUK05 14124 99537 70003 46/// ///// 10050 20004 39829 49869 52012 91150
BBXX PJGO 14124 99571 10022 46/// ///// 22200
BBXX 63106 14124 99610 10017 46/// /2426 10077 49601 52038 22200
BBXX 63113 14124 99610 10017 46/// /2524 10077 20033 49616 52044 22200 10912 70058
BBXX 62103 14124 99499 70029 46/97 /2635 10078 20021 49974 52027 22200 00124 10806 70032 333 90710 91153
AAXX 14124 16263 11462 62418 10080 20042 38947 48513 58007 60001 70242 86200 333 86610
BBXX C6FY5 14123 99037 70478 41597 60817 10280 2024/ 40110 54/// 7//00 862// 22273 04280 20204 309// 40404 5//// 6//// 80250 ICE /////
AAXX 14121 29524 11998 00903 11132 21145 30167 40341 57006 69942 70281 333 11131
AAXX 14124 71427 16/// /3605 11082 21106 30300 40308 50003 60001 333 11018 21085 70000
BBXX 63110 14124 99595 10015 47498 /2426 10076 20036 49653 52035 700// 22200 10810 70050
BBXX 63106 14124 99610 10017 46/// /2426 10077 49601 52038 22200
BBXX 63105 14124 99610 10017 47597 ///// 10076 20034 49602 52039 700// 22200
BBXX AMOUK03 14124 99537 70003 46/// ///// 10052 20011 39834 49868 52011 91150
BBXX 62107 14124 99501 70061 46/// /2733 10080 20028 49977 51019 22200 00116 10909 70044 333 90710 91152
BBXX 64049 14123 99571 10022 41297 82438 10085 20085 49750 53018 70211 8/7// 22200 20714 3//// 4//// 5//// 80085
BBXX 62103 14124 99499 70029 46/98 /2725 10079 20032 49980 52026 22200 00124 10806 70032 333 90710 91148
AAXX 14124 60190 32980 11502 10190 20061 40260 50002 81080 333 81358
AAXX 14121 30758 32984 00801 11263 21287 39505 40426 52015 333 11195
BBXX A8VL8 14124 99179 30696 419// 01012 10265 20208 40130 54000 7//// 8//// 22213 0//// 2//// 3//// 4//// 5//// 6//// 80225 ICE /////
BBXX A8VL8 14124 99179 30696 419// 01012 10265 20208 40130 54000 7//// 8//// 22213 0//// 2//// 3//// 4//// 5//// 6//// 80225 ICE /////
BBXX 42085 14121 99179 70665 46/// /3602 10263 40115 91150 333 91203
BBXX 42085 14121 99179 70665 46/// /3602 10266 40114 91140 333 91202
BBXX 42085 14121 99179 70665 46/// /3602 10263 40117 52012 91200 22200 00284 11001 70003 333 91203
BBXX 42085 14121 99179 70665 46/// /3601 10261 40122 91230 333 91202
BBXX 42085 14121 99179 70665 46/// /3602 10259 40121 91220 333 91202
BBXX 42085 14121 99179 70665 46/// /3502 10260 40118 91210 333 91203
AAXX 14124 71935 11574 43506 11165 21213 39990 40205 52024 69901 72271 81508 333 10015 21166 44023 79999 90913
AAXX 14124 71935 11574 43506 11165 21213 39990 40205 52024 69901 72271 81508 333 10015 21166 44023 79999 90913
AAXX 14121 30686 12999 00000 11260 21284 39910 40321 52001 69902 333 11190
BBXX 63110 14123 99595 10015 41498 52335 10076 20036 49648 71586 838// 22200 11010 70050
BBXX AMOUK08 14124 99501 70061 46/// ///// 10083 20045 39971 49977 52021 91150
BBXX AMOUK05 14124 99537 70003 46/// ///// 10050 20004 39829 49869 52012 91150
BBXX PJGO 14124 99571 10022 46/// ///// 22200
BBXX 63106 14124 99610 10017 46/// /2426 10077 49601 52038 22200
BBXX 63113 14124 99610 10017 46/// /2524 10077 20033 49616 52044 22200 10912 70058
BBXX 62103 14124 99499 70029 46/97 /2635 10078 20021 49974 52027 22200 00124 10806 70032 333 90710 91153
AAXX 14124 03008 11480 72618 10055 20024 49649 60031 78082 879// 91150 333 82710 87912 90710 91127
BBXX A8VL8 14124 99179 30696 419// 01012 10265 20208 40130 54000 7//// 8//// 22213 0//// 2//// 3//// 4//// 5//// 6//// 80225 /////
BBXX 42085 14121 99179 70665 46/// /3502 10260 40118 91210 333 91203
BBXX 42085 14121 99179 70665 46/// /3601 10261 40122 91230 333 91202
BBXX 42085 14121 99179 70665 46/// /3602 10259 40121 91220 333 91202
BBXX 42085 14121 99179 70665 46/// /3602 10266 40114 91140 333 91202
BBXX 42085 14121 99179 70665 46/// /3602 10263 40117 52012 91200 22200 00284 11001 70003 333 91203
BBXX 42085 14121 99179 70665 46/// /3602 10263 40115 91150 333 91203
AAXX 14121 23884 325// 80000 11140 21153 30362 40442 56001 885// 333 11137
AAXX 14121 28867 /2998 03601 11250 21274 30052 40355 52002 333 11/// 555 69902
AAXX 14121 28867 /2998 03601 11250 21274 30052 40355 52002 333 11/// 555 69902
AAXX 14121 36096 12997 40000 11318 21341 39697 40597 54000 69902 80001 333 11279 95090
BBXX 42043 14121 99290 70949 46/// /1504 1//// 40193 91230 22200 00150 333 91204
BBXX 42043 14121 99290 70949 46/// /1403 1//// 40192 91200 22200 00150 333 91204
BBXX 42044 14121 99262 70971 46/// /1405 10205 20187 40164 91230 22200 00189 333 91207
BBXX 42044 14121 99262 70971 46/// /1506 10206 20187 40164 91200 22200 00190 333 91208
BBXX 42044 14121 99262 70971 46/// /1506 10206 20187 40164 91200 22200 00190 333 91208
BBXX 42044 14121 99262 70971 46/// /1405 10205 20187 40164 91230 22200 00189 333 91207
BBXX 42043 14121 99290 70949 46/// /1504 1//// 40193 91230 22200 00150 333 91204
BBXX 42043 14121 99290 70949 46/// /1403 1//// 40192 91200 22200 00150 333 91204
BBXX 63110 14124 99595 10015 47498 /2426 10076 20036 49653 52035 700// 22200 10810 70050
BBXX 63106 14124 99610 10017 46/// /2426 10077 49601 52038 22200
BBXX 63105 14124 99610 10017 47597 ///// 10076 20034 49602 52039 700// 22200
BBXX AMOUK03 14124 99537 70003 46/// ///// 10052 20011 39834 49868 52011 91150
BBXX 62107 14124 99501 70061 46/// /2733 10080 20028 49977 51019 22200 00116 10909 70044 333 90710 91152
BBXX 64049 14123 99571 10022 41297 82438 10085 20085 49750 53018 70211 8/7// 22200 20714 3//// 4//// 5//// 80085
BBXX 62103 14124 99499 70029 46/98 /2725 10079 20032 49980 52026 22200 00124 10806 70032 333 90710 91148
BBXX ELZU3 14120 99387 70428 41297 81915 10211 20181 40189 57030 7//11 886// 22263 2//07 80191
AAXX 14121 20667 41996 82305 11024 21027 30137 40144 52006 77172 8802/
AAXX 1412/ 68902 46/// ///// 40052 52002
BBXX ELZU3 14120 99387 70428 41297 81915 10211 20181 40189 57030 7//11 886// 22263 2//07 80191
BBXX DHSI 14124 99043 70063 41/96 72508 10310 20264 40110 57010 73133 87660 22264 02270 21204 80275
AAXX 14124 67012 32582 53008 10318 20267 30089 40100 56012 82232 333 0//00 82820 83360 555 81070
BBXX DHSI 14124 99043 70063 41/96 72508 10310 20264 40110 57010 73133 87660 22264 02270 21204 80275
OOXX AALAU 14124 99775 31708 57070 00371 46/// /0000 11064 21104 39770 49816 5//// 91140
OOXX AAPEG 14124 99779 31666 57186 00051 46/// /1503 11090 21142 39811 49817 54000 91140
OOXX AAEMI 14124 99785 31731 57083 00521 46/// /2704 11102 21139 39791 49857 5//// 91150
OOXX AAKOM 14124 99795 51121 56392 18332 46/// /0202 11215 21289 37731 49655 5//// 91140
OOXX AAVIT 14124 99785 31778 57087 00501 46/// /1907 11078 21093 39757 49820 5//// 91140
OOXX AAERI 14124 99849 51288 60048 09901 46/// /0908 11138 21168 38689 49822 5//// 91140
OOXX AAUNI 14124 99798 50833 56093 07671 46/// /2314 11119 21203 38882 49773 52005 91200
OOXX AAEMI 14124 99785 31731 57083 00521 46/// /2604 11104 21138 39791 49857 52005 91140
BBXX 63110 14123 99595 10015 41498 52335 10076 20036 49648 71586 838// 22200 11010 70050
BBXX AMOUK08 14124 99501 70061 46/// ///// 10083 20045 39971 49977 52021 91150
BBXX AMOUK05 14124 99537 70003 46/// ///// 10050 20004 39829 49869 52012 91150
BBXX PJGO 14124 99571 10022 46/// ///// 22200
BBXX 63106 14124 99610 10017 46/// /2426 10077 49601 52038 22200
BBXX 63113 14124 99610 10017 46/// /2524 10077 20033 49616 52044 22200 10912 70058
BBXX 62103 14124 99499 70029 46/97 /2635 10078 20021 49974 52027 22200 00124 10806 70032 333 90710 91153
BBXX DHSI 14124 99043 70063 41/96 72508 10310 20264 40110 57010 73133 87660 22264 02270 21204 80275
AAXX 14121 89063 41496 82905 10006 21000 39928 49939 52023 72072 886// 333 10006 21005
BBXX 63110 14124 99595 10015 47498 /2426 10076 20036 49653 52035 700// 22200 10810 70050
BBXX 63106 14124 99610 10017 46/// /2426 10077 49601 52038 22200
BBXX 63105 14124 99610 10017 47597 ///// 10076 20034 49602 52039 700// 22200
BBXX AMOUK03 14124 99537 70003 46/// ///// 10052 20011 39834 49868 52011 91150
BBXX 62107 14124 99501 70061 46/// /2733 10080 20028 49977 51019 22200 00116 10909 70044 333 90710 91152
BBXX 64049 14123 99571 10022 41297 82438 10085 20085 49750 53018 70211 8/7// 22200 20714 3//// 4//// 5//// 80085
BBXX 62103 14124 99499 70029 46/98 /2725 10079 20032 49980 52026 22200 00124 10806 70032 333 90710 91148
AAXX 14124 64005 NIL
AAXX 14124 64006 NIL
AAXX 14124 64008 NIL
AAXX 14124 64018 NIL
AAXX 14124 64040 11159 21404 10308 20226 39600 40052 70741 82201 333 0//00 59016 82823
AAXX 14124 64062 NIL
AAXX 14124 64076 NIL
AAXX 14124 64108 11576 81604 10286 20233 39731 40091 69981 70396 8112/ 333 0//00 58011 81822 88460
AAXX 14124 64115 NIL
AAXX 14124 64126 NIL
AAXX 14124 64146 NIL
AAXX 14124 64155 NIL
AAXX 14124 64180 NIL
AAXX 14124 64184 NIL
AAXX 14124 64207 NIL
AAXX 14124 64210 32560 72904 10284 20224 39756 40104 8223/ 333 0//00 58014 82822 87360
AAXX 14124 64211 32565 52612 10294 20219 39791 40107 85200 333 0//00 58000 85829
AAXX 14124 64220 32565 81822 10280 20219 39603 40088 85130 333 0//00 58003 85828 86360
AAXX 14124 64222 NIL
AAXX 14124 64228 31680 72708 10264 20206 39580 40119 71799 83904 333 0//00 59004 83830 86085 94668
AAXX 14124 64235 NIL
AAXX 14124 64247 32565 70902 10277 20218 39355 48/// 8328/ 333 0//00 59018 83822 87362
AAXX 14124 64276 NIL
AAXX 14124 64282 NIL
AAXX 14124 64285 NIL
AAXX 14124 64315 NIL
AAXX 14124 64328 NIL
AAXX 14124 64360 NIL
BBXX MINFR03 1412/ 99219 30534 46/// ///// 10283 40121 57006
AAXX 14121 89063 41496 82905 10006 21000 39928 49939 52023 72072 886// 333 10006 21005
BBXX MINFR03 1412/ 99219 30534 46/// ///// 10283 40121 57006
BBXX PBQK 14123 99519 50427 41998 33024 10095 40105 51015 70200 80002 22262 20402 324// 40704
AAXX 14124 65528 NIL
AAXX 14124 65536 NIL
AAXX 14124 65545 NIL
AAXX 14124 65548 NIL
AAXX 14124 65555 NIL
AAXX 14124 65557 31940 0//// 10290 20204 39881 40121 70244 70244 333 58001
AAXX 14124 65560 31930 0//// 10290 20168 39802 40110 70544 333 59004
AAXX 14124 65562 31930 0//// 10313 20170 3//// 4//// 70544 333 5////
AAXX 14124 65563 31430 10000 10302 20208 39874 40114 70500 81500 333 58001 81610
AAXX 14124 65578 31950 02004 10299 20250 30101 40110 70500 333 58002
AAXX 14124 65585 32956 0//// 10305 20238 3//// 4//// 333 5////
AAXX 14124 65592 32456 1//// 10294 20229 30081 40103 81200 333 59008 81815 94908
AAXX 14124 65594 31458 51604 10300 20240 30079 40113 70144 85500 333 59003 85613
AAXX 14124 65599 32460 3//// 10294 20234 30026 40100 83200 333 59004 83815 94909
BBXX MINFR03 1412/ 99219 30534 46/// ///// 10283 40121 57006
AAXX 14124 88903 45/// /2321 10114 20008 39985 49985 55022 333 10123 20040
AAXX 14124 03227 46/// /2533 11024 2//// 91150 333 90710 91143
BBXX 63110 14123 99595 10015 41498 52335 10076 20036 49648 71586 838// 22200 11010 70050
BBXX AMOUK08 14124 99501 70061 46/// ///// 10083 20045 39971 49977 52021 91150
BBXX AMOUK05 14124 99537 70003 46/// ///// 10050 20004 39829 49869 52012 91150
BBXX PJGO 14124 99571 10022 46/// ///// 22200
BBXX 63106 14124 99610 10017 46/// /2426 10077 49601 52038 22200
BBXX 63113 14124 99610 10017 46/// /2524 10077 20033 49616 52044 22200 10912 70058
BBXX 62103 14124 99499 70029 46/97 /2635 10078 20021 49974 52027 22200 00124 10806 70032 333 90710 91153
AAXX 14124 71971 16/// /1303 11259 21292 30000 40047 56002 60001 333 11193 21274 70000
BBXX 63110 14124 99595 10015 47498 /2426 10076 20036 49653 52035 700// 22200 10810 70050
BBXX 63106 14124 99610 10017 46/// /2426 10077 49601 52038 22200
BBXX 63105 14124 99610 10017 47597 ///// 10076 20034 49602 52039 700// 22200
BBXX AMOUK03 14124 99537 70003 46/// ///// 10052 20011 39834 49868 52011 91150
BBXX 62107 14124 99501 70061 46/// /2733 10080 20028 49977 51019 22200 00116 10909 70044 333 90710 91152
BBXX 64049 14123 99571 10022 41297 82438 10085 20085 49750 53018 70211 8/7// 22200 20714 3//// 4//// 5//// 80085
BBXX 62103 14124 99499 70029 46/98 /2725 10079 20032 49980 52026 22200 00124 10806 70032 333 90710 91148
BBXX 52243 14121 99193 11666 46/// ///// 1//// 91200 22200 00263
BBXX 51178 14121 99142 51695 46/// ///// 1//// 91200 22200 00280
BBXX 51174 14121 99142 51697 46/// ///// 1//// 91200 22200 00284
BBXX 51171 14121 99064 71623 46/// ///// 1//// 91200 22200 00278
BBXX 51170 14121 99168 71695 46/// ///// 1//// 91200 22200 00263
BBXX 51169 14121 99004 51600 46/// ///// 1//// 91200 22200 00258
AAXX 14124 89020 46/// /0904 11047 21092 39774 49809 52003 91130
AAXX 14124 89065 46/// /1504 10001 21011 39740 49817 52022 91230
AAXX 14124 89262 46/// /2808 10017 21022 39786 49829 52015 91230
AAXX 14124 89865 46/// ///// 1//// 3//// 4//// 5//// 91150
AAXX 14124 89065 46/// /1504 10001 21011 39740 49817 52022 91230
BBXX 63110 14123 99595 10015 41498 52335 10076 20036 49648 71586 838// 22200 11010 70050
BBXX AMOUK08 14124 99501 70061 46/// ///// 10083 20045 39971 49977 52021 91150
BBXX AMOUK05 14124 99537 70003 46/// ///// 10050 20004 39829 49869 52012 91150
BBXX PJGO 14124 99571 10022 46/// ///// 22200
BBXX 63106 14124 99610 10017 46/// /2426 10077 49601 52038 22200
BBXX 63113 14124 99610 10017 46/// /2524 10077 20033 49616 52044 22200 10912 70058
BBXX 62103 14124 99499 70029 46/97 /2635 10078 20021 49974 52027 22200 00124 10806 70032 333 90710 91153
BBXX 51170 14121 99168 71695 46/// ///// 1//// 91200 22200 00263
BBXX 51171 14121 99064 71623 46/// ///// 1//// 91200 22200 00278
BBXX 52243 14121 99193 11666 46/// ///// 1//// 91200 22200 00263
BBXX 51174 14121 99142 51697 46/// ///// 1//// 91200 22200 00284
BBXX 51169 14121 99004 51600 46/// ///// 1//// 91200 22200 00258
BBXX 51178 14121 99142 51695 46/// ///// 1//// 91200 22200 00280
BBXX 63110 14124 99595 10015 47498 /2426 10076 20036 49653 52035 700// 22200 10810 70050
BBXX 63106 14124 99610 10017 46/// /2426 10077 49601 52038 22200
BBXX 63105 14124 99610 10017 47597 ///// 10076 20034 49602 52039 700// 22200
BBXX AMOUK03 14124 99537 70003 46/// ///// 10052 20011 39834 49868 52011 91150
BBXX 62107 14124 99501 70061 46/// /2733 10080 20028 49977 51019 22200 00116 10909 70044 333 90710 91152
BBXX 64049 14123 99571 10022 41297 82438 10085 20085 49750 53018 70211 8/7// 22200 20714 3//// 4//// 5//// 80085
BBXX 62103 14124 99499 70029 46/98 /2725 10079 20032 49980 52026 22200 00124 10806 70032 333 90710 91148
AAXX 14124 71785 16/// /0000 10017 21018 30203 40219 51005 60001 333 10046 20010 7////
AAXX 14121 78090 15/// /0000 10245 30245 40248 69901 91200 222// 00186
AAXX 14124 71263 12674 81703 10025 20008 39979 40273 58007 60001 885// 333 10075 20009 70000
BBXX 63110 14123 99595 10015 41498 52335 10076 20036 49648 71586 838// 22200 11010 70050
BBXX AMOUK08 14124 99501 70061 46/// ///// 10083 20045 39971 49977 52021 91150
BBXX AMOUK05 14124 99537 70003 46/// ///// 10050 20004 39829 49869 52012 91150
BBXX PJGO 14124 99571 10022 46/// ///// 22200
BBXX 63106 14124 99610 10017 46/// /2426 10077 49601 52038 22200
BBXX 63113 14124 99610 10017 46/// /2524 10077 20033 49616 52044 22200 10912 70058
BBXX 62103 14124 99499 70029 46/97 /2635 10078 20021 49974 52027 22200 00124 10806 70032 333 90710 91153
AAXX 14121 10738 01461 72007 10086 20058 39578 40040 58008 60021 76361 878// 333 31/// 55301 60027 83818 87640 91115
BBXX 42046 14121 99279 70940 46/// /1409 1//// 40198 91230 22200 00227 333 91211
BBXX 42046 14121 99279 70940 46/// /1509 1//// 40197 91200 22200 00227 333 91211
BBXX 42046 14121 99279 70940 46/// /1509 1//// 40197 91200 22200 00227 333 91211
BBXX 42046 14121 99279 70940 46/// /1409 1//// 40198 91230 22200 00227 333 91211
BBXX 63110 14124 99595 10015 47498 /2426 10076 20036 49653 52035 700// 22200 10810 70050
BBXX 63106 14124 99610 10017 46/// /2426 10077 49601 52038 22200
BBXX 63105 14124 99610 10017 47597 ///// 10076 20034 49602 52039 700// 22200
BBXX AMOUK03 14124 99537 70003 46/// ///// 10052 20011 39834 49868 52011 91150
BBXX 62107 14124 99501 70061 46/// /2733 10080 20028 49977 51019 22200 00116 10909 70044 333 90710 91152
BBXX 64049 14123 99571 10022 41297 82438 10085 20085 49750 53018 70211 8/7// 22200 20714 3//// 4//// 5//// 80085
BBXX 62103 14124 99499 70029 46/98 /2725 10079 20032 49980 52026 22200 00124 10806 70032 333 90710 91148
BBXX 63110 14123 99595 10015 41498 52335 10076 20036 49648 71586 838// 22200 11010 70050
BBXX AMOUK08 14124 99501 70061 46/// ///// 10083 20045 39971 49977 52021 91150
BBXX AMOUK05 14124 99537 70003 46/// ///// 10050 20004 39829 49869 52012 91150
BBXX PJGO 14124 99571 10022 46/// ///// 22200
BBXX 63106 14124 99610 10017 46/// /2426 10077 49601 52038 22200
BBXX 63113 14124 99610 10017 46/// /2524 10077 20033 49616 52044 22200 10912 70058
BBXX 62103 14124 99499 70029 46/97 /2635 10078 20021 49974 52027 22200 00124 10806 70032 333 90710 91153
AAXX 14124 71935 11574 43506 11165 21213 39990 40205 52024 69901 72271 81508 333 10015 21166 44013 79999 90913
AAXX 14124 71935 11574 43506 11165 21213 39990 40205 52024 69901 72271 81508 333 10015 21166 44013 79999 90913
BBXX VRDO9 14124 99063 10033 41396 31406 10290 20220 40100 5//// 70540 83016 22200 04210 20102 314// 40102 5//// 6//// 80240 ICE /////
BBXX VRDO9 14124 99063 10033 41396 31406 10290 20220 40100 5//// 70540 83016 22200 04210 20102 314// 40102 5//// 6//// 80240 ICE /////
AAXX 14124 91723 NIL
AAXX 14124 91964 NIL
BBXX 63110 14124 99595 10015 47498 /2426 10076 20036 49653 52035 700// 22200 10810 70050
BBXX 63106 14124 99610 10017 46/// /2426 10077 49601 52038 22200
BBXX 63105 14124 99610 10017 47597 ///// 10076 20034 49602 52039 700// 22200
BBXX AMOUK03 14124 99537 70003 46/// ///// 10052 20011 39834 49868 52011 91150
BBXX 62107 14124 99501 70061 46/// /2733 10080 20028 49977 51019 22200 00116 10909 70044 333 90710 91152
BBXX 64049 14123 99571 10022 41297 82438 10085 20085 49750 53018 70211 8/7// 22200 20714 3//// 4//// 5//// 80085
BBXX 62103 14124 99499 70029 46/98 /2725 10079 20032 49980 52026 22200 00124 10806 70032 333 90710 91148
AAXX 14121 10224 01360 82804 10038 20029 39926 49932 55008 60091 76162 878// 333 32/// 55300 20290 30289 60097 83808 87617 96465
BBXX 63110 14123 99595 10015 41498 52335 10076 20036 49648 71586 838// 22200 11010 70050
BBXX AMOUK08 14124 99501 70061 46/// ///// 10083 20045 39971 49977 52021 91150
BBXX AMOUK05 14124 99537 70003 46/// ///// 10050 20004 39829 49869 52012 91150
BBXX PJGO 14124 99571 10022 46/// ///// 22200
BBXX 63106 14124 99610 10017 46/// /2426 10077 49601 52038 22200
BBXX 63113 14124 99610 10017 46/// /2524 10077 20033 49616 52044 22200 10912 70058
BBXX 62103 14124 99499 70029 46/97 /2635 10078 20021 49974 52027 22200 00124 10806 70032 333 90710 91153
AAXX 14121 30781 32999 20000 11311 21328 39838 40370 52002 80001 333 11202
AAXX 14121 24329 32998 70000 11362 21390 38990 40335 57016 87010 333 11361
AAXX 14121 24136 11999 82001 11298 21328 30141 40251 57017 69902 72272 8802/ 333 11298
BBXX 63110 14124 99595 10015 47498 /2426 10076 20036 49653 52035 700// 22200 10810 70050
BBXX 63106 14124 99610 10017 46/// /2426 10077 49601 52038 22200
BBXX 63105 14124 99610 10017 47597 ///// 10076 20034 49602 52039 700// 22200
BBXX AMOUK03 14124 99537 70003 46/// ///// 10052 20011 39834 49868 52011 91150
BBXX 62107 14124 99501 70061 46/// /2733 10080 20028 49977 51019 22200 00116 10909 70044 333 90710 91152
BBXX 64049 14123 99571 10022 41297 82438 10085 20085 49750 53018 70211 8/7// 22200 20714 3//// 4//// 5//// 80085
BBXX 62103 14124 99499 70029 46/98 /2725 10079 20032 49980 52026 22200 00124 10806 70032 333 90710 91148
BBXX ONFW 14124 99352 11198 41197 30224 10080 20038 40300 52/// 70200 8329/ 22200 04100 20205 301// 40403 5//// 6//// 80060 ICE /////
BBXX ONFW 14124 99352 11198 41197 30224 10080 20038 40300 52/// 70200 8329/ 22200 04100 20205 301// 40403 5//// 6//// 80060 ICE /////
AAXX 14124 82042 32598 50000 10285 20256 3//// 4//// 83321 333 20256 5////
BBXX 63110 14123 99595 10015 41498 52335 10076 20036 49648 71586 838// 22200 11010 70050
BBXX AMOUK08 14124 99501 70061 46/// ///// 10083 20045 39971 49977 52021 91150
BBXX AMOUK05 14124 99537 70003 46/// ///// 10050 20004 39829 49869 52012 91150
BBXX PJGO 14124 99571 10022 46/// ///// 22200
BBXX 63106 14124 99610 10017 46/// /2426 10077 49601 52038 22200
BBXX 63113 14124 99610 10017 46/// /2524 10077 20033 49616 52044 22200 10912 70058
BBXX 62103 14124 99499 70029 46/97 /2635 10078 20021 49974 52027 22200 00124 10806 70032 333 90710 91153
AAXX 14124 03002 17574 /2720 10054 20029 39591 49608 51031 69941 781// 91150 333 84/23 90710 91131 91031
AAXX 14121 10929 01480 62304 10096 20062 39549 40071 58024 60021 72162 82872 333 31/// 55302 20609 30491 60027 81812 83360
AAXX 14124 97690 32450 80000 10266 20236 39972 40074 52025 83867 333 10326 56000 57800 58002 82815 88279
AAXX 14124 71463 46/// /2011 10053 21008 30053 40279 56006 6///1 333 10056 20044 7////
BBXX 63110 14123 99595 10015 41498 52335 10076 20036 49648 71586 838// 22200 11010 70050
BBXX AMOUK08 14124 99501 70061 46/// ///// 10083 20045 39971 49977 52021 91150
BBXX AMOUK05 14124 99537 70003 46/// ///// 10050 20004 39829 49869 52012 91150
BBXX PJGO 14124 99571 10022 46/// ///// 22200
BBXX 63106 14124 99610 10017 46/// /2426 10077 49601 52038 22200
BBXX 63113 14124 99610 10017 46/// /2524 10077 20033 49616 52044 22200 10912 70058
BBXX 62103 14124 99499 70029 46/97 /2635 10078 20021 49974 52027 22200 00124 10806 70032 333 90710 91153
BBXX 2AUO5 14123 99606 10017 41597 62330 10082 20030 49613 53024 76266 8/44/ 22251 20709 80060
BBXX 2AUO5 14123 99606 10017 41597 62330 10082 20030 49613 53024 76266 8/44/ 22251 20709 80060
AAXX 14121 01473 41687 62102 10048 20008 39578 49779 50009 70122 81155 333 91110
AAXX 14124 91487 NIL
AAXX 14124 91490 NIL
AAXX 14124 91533 NIL
AAXX 14124 91601 NIL
AAXX 14124 91610 11599 20810 10265 20244 40090 50002 60001 70200 81100 333 10///
AAXX 14124 562//
AAXX 14124 91623 NIL
AAXX 14124 91629 NIL
AAXX 14124 91701 NIL
AAXX 14121 02513 07/65 /1906 10066 20032 39878 49882 50003 69901 70086 333 60005 90710 91116
AAXX 14124 68110 32989 12510 10277 21077 38256 48468 58003 80002 333 10280 20083 91019 555 91016
AAXX 14124 68300 36/// /2014 10194 20076 30009 40158 50000 333 10202 20103 91021 555 91016
AAXX 14124 68004 36/// /2707 10294 21064 38521 48476 57006 333 10295 20084 91014 555 91015
AAXX 14124 68006 32989 12609 10320 21044 38897 48490 58013 80001 333 1//// 20161 555 91012
AAXX 14124 68010 36/// /2508 10330 20051 38892 48508 57012 333 10341 20089 91019 555 91014
AAXX 14124 68018 36/// /2309 10319 21060 38883 48502 57006 333 10324 20171 91021 555 91014
AAXX 14124 68102 36/// /2210 10294 21026 38720 48477 57008 333 10301 20095 91019 555 91013
AAXX 14124 68112 36/// /2510 10274 21066 38312 48489 58003 333 10280 20064 91017 555 91018
AAXX 14124 68116 36/// /2506 10291 21053 38546 48495 57007 333 10302 20131 91015 555 91017
AAXX 14124 68212 36/// /3605 10277 21039 38887 48511 57015 333 10286 20143 91010 555 91016
AAXX 14124 68312 32989 02409 10245 21011 38933 48502 58010 333 10246 20093 91015 555 91015
AAXX 14124 68098 31970 02115 10235 20093 30035 40140 58007 70600 333 10240 20101 91020 555 91014
AAXX 14124 68226 42960 42604 10271 20056 48474 57017 84084
AAXX 14124 68032 42560 71403 10270 20215 48468 57018 87380
AAXX 14124 68024 42660 42207 10301 20125 48475 57012 83202
AAXX 14124 68026 42660 52712 10325 20201 48473 57018 83272
AAXX 14124 68029 42560 63506 10275 20198 48473 57024 85973
AAXX 14124 68038 42560 70310 10288 20216 48472 57020 86370
AAXX 14124 68054 41560 71106 10248 20199 48487 58022 71722 83970
AAXX 14124 68070 41660 70706 10279 20204 48477 57022 70422 82880
AAXX 14124 68148 41660 82305 10211 20210 48457 58011 79596 86980
AAXX 14124 68234 42560 53608 10307 20160 48460 57018 84881
AAXX 14124 68240 42460 60407 10257 20190 48468 57014 71792 84880
AAXX 14124 68320 42660 42705 10305 20089 48477 57013 81104
AAXX 14124 68325 42660 72312 10283 20188 48466 57015 86880
AAXX 14124 68328 42960 22709 10285 20062 48478 57011 80002
AAXX 14124 03746 11475 72310 10028 20010 39808 49962 50023 60011 70282 85932 91150 333 82915 84635 87072
AAXX 14124 03784 46/// /2519 10063 20003 39936 49940 51014 91150 333 90710 91126
BBXX A8IZ2 14124 99301 70789 41598 30115 10200 20120 40260 54000 70100 831// 22234 20403 311// 40804 80150
BBXX A8IZ2 14124 99301 70789 41598 30115 10200 20120 40260 54000 70100 831// 22234 20403 311// 40804 80150
AAXX 14124 71448 16/// /1905 11018 21037 39790 40123 56018 60001 333 21035 7////
AAXX 14124 71448 16/// /1905 11018 21037 39790 40123 56018 60001 333 21035 7////
AAXX 14124 71571 16/// /2810 11084 21107 38945 40159 53018 60001 333 11023 21084 70006
AAXX 14124 71927 46/// /0000 11003 21014 30151 50005 6///1 333 7////
AAXX 14124 71314 16/// /0000 11032 21041 39906 40266 56005 60001 333 10057 4/002 7//// 555 10010
AAXX 14124 71314 16/// /0000 11032 21041 39906 40266 56005 60001 333 10057 4/002 7//// 555 10010
AAXX 14124 91487 NIL
AAXX 14124 91490 NIL
AAXX 14124 91533 NIL
AAXX 14124 91601 NIL
AAXX 14124 91610 11599 20810 10265 20244 40090 50002 60001 70200 81100 333 10///
AAXX 14124 562//
AAXX 14124 91623 NIL
AAXX 14124 91629 NIL
AAXX 14124 91701 NIL
AAXX 14124 91487 NIL
AAXX 14124 91490 NIL
AAXX 14124 91533 NIL
AAXX 14124 91601 NIL
AAXX 14124 91610 11599 20810 10265 20244 40090 50002 60001 70200 81100 333 10///
AAXX 14124 562//
AAXX 14124 91623 NIL
AAXX 14124 91629 NIL
AAXX 14124 91701 NIL
