BBXX 44172 29061 99445 70634 46/// ///// 1//// 90531 22200 00059 11107 21005 317// 41104 70034
BBXX 44097 29061 99410 70711 46/// ///// 1//// 90532 22200 00114 10807 20806 321// 41203 70035
BBXX ZMFR 29054 99413 31748 43/// /3602 10173 20151 40095 57014 22200 00189
BBXX ZMENA 29054 99368 31748 46/// ///// 10212 20169 40105 54000 22200
BBXX 46218 29061 99345 71208 46/// ///// 1//// 90532 22200 00135 11205 20704 329// 41203 70027
AAXX 29064 40255 32960 00000 10042 20007 39500 40236 54000 333 20030 30000
AAXX 29064 40270 31915 00000 10028 21015 39315 40230 57005 70400 333 20022 31040
BBXX DBBT 29061 99339 30184 46/// /1406 10231 20128 40154 52009 22200 00152
BBXX DBKV 29061 99169 70250 46/// /0508 10218 20159 40185 57010 22270 00232
BBXX C6DM2 29064 99054 11003 41999 73306 10310 20242 40100 50020 7//22 8674/ 22200 0//// 2//// 3//// 4//// 5//// 6//// 80260 ICE /////
BBXX V7MO2 29064 99262 70914 41797 72706 10201 20109 40195 57005 70222 87/// 22200 00229 20201 3//// 40701 5//// 6//// 80147 ICE /////
BBXX WDD2876 29064 99459 70843 43/98 22012 11072 2//// 40139 5//// 7//// 8//// 22263 00033 2//01 3//// 4//// 5//// 6//// 8//// ICE /////
AAXX 29064 08495 12980 42505 10098 20064 30288 40296 55007 60002 80001 90550 333 20098 30006 70000 84075
AAXX 29064 91334 32474 50411 10315 20219 30073 40076 55002 82101 333 561/9 70061 555 92906
AAXX 29064 91334 32474 50411 10315 20219 30073 40076 55002 82101 333 561/9 70061 555 92906
AAXX 29064 40272 31958 00806 10030 21010 39387 40245 52003 70500 333 21008 30103
AAXX 29064 89578 46/// /0607 11318 36886 4//// 5////
BBXX 46249 29061 99338 71197 46/// ///// 1//// 90540 22200 00146 11202 20902 327// 41202 70012
BBXX 46248 29061 99461 71247 46/// ///// 1//// 90534 22200 00095 11310 21007 328// 41306 70048
BBXX 46244 29061 99409 71244 46/// ///// 1//// 90535 22200 00101 11307 20904 330// 41305 70033
BBXX 46240 29061 99366 71219 46/// ///// 1//// 90542 22200 00122 11303 21002 335// 41302 70013
BBXX 46237 29061 99378 71226 46/// ///// 1//// 90540 22200 00108 11305 21002 326// 41304 70023
BBXX 46212 29061 99408 71243 46/// ///// 1//// 90542 22200 00102 11306 21004 330// 41305 70030
BBXX 46217 29061 99342 71194 46/// ///// 1//// 90542 22200 00144 11303 20702 328// 41302 70013
BBXX 46211 29061 99469 71242 46/// ///// 1//// 90536 22200 00088 11308 21005 327// 41305 70039
BBXX 44098 29061 99428 70702 46/// ///// 1//// 90537 22200 00084 10605 20604 310// 41302 70023
AAXX 29064 91376 32474 80615 10284 20232 30075 40078 53012 84878 333 56199 70000 555 92906
AAXX 29064 91376 32474 80615 10284 20232 30075 40078 53012 84878 333 56199 70000 555 92906
AAXX 29064 64551 31250 72206 10236 20227 30104 40133 71022 8353/ 333 0//00 20211 50044 55/// 58007 82705 83611 87362
AAXX 29064 16597 32460 70409 10125 20104 30122 40210 55009 84872 333 20123 30012 70002 83813 83858 91117 91503
AAXX 29064 91413 32469 60712 10305 20242 30059 40084 57014 83171 333 56299 70046 555 92906
AAXX 29064 89664 32461 73413 11009 21038 39797 49838 57012 87600 333 56800 87610
AAXX 29064 91413 32469 60712 10305 20242 30059 40084 57014 83171 333 56299 70046 555 92906
AAXX 29064 61902 12575 71305 10228 20197 40160 69904 878// 333 20224 58005 82824 87632
AAXX 29064 89664 32461 73413 11009 21038 39797 49838 57012 87600 333 56800 87610
AAXX 29064 08583 31556 20621 10208 20151 40183 70600 82501 333 20206 59003 82622
AAXX 29064 08589 NIL
AAXX 29064 08594 31457 30614 10211 20164 40177 70600 83530 333 20206 58005 83614
AAXX 29064 68906 12598 32517 10135 20095 30091 40156 53013 69924 83500 222// 00132 333 20130 91029 555 10203 20002 91015
AAXX 29064 68994 32598 83207 10052 20001 30133 40162 52005 885// 222// 00071 333 20041 91011 555 10091 91016
BBXX 42363 29061 99282 70892 46/// /1408 10183 20106 40193 90545 333 91210
BBXX 42364 29061 99291 70881 46/// /1204 10167 20100 40203 90545
BBXX 41115 29061 99184 70673 46/// ///// 1//// 90535 22200 11304 21003 300// 41303 70020
BBXX 41114 29061 99276 70802 46/// ///// 1//// 90546 22200 00237 10901 20901 70007
BBXX 41012 29061 99300 70805 46/// /3004 10153 40198 58005 90550 22200 00227 10401 20401 333// 40401 70007 333 91206 555 11044 22046 30514 43207 60549 303043 290042 308040 302043 316041 307045
BBXX 46114 29061 99364 71222 46/// ///// 1//// 90534 22200 00123 11306 21003 328// 41304 70028
BBXX 46060 29061 99606 71468 46/// /2907 11022 90550 555 11073 22077
AAXX 29064 89664 32461 73413 11009 21038 39797 49838 57012 87600 333 56800 87610
BBXX 51203 29061 99208 71570 46/// ///// 1//// 90543 22200 00245 11401 20901 318// 41401 70007
BBXX 52200 29061 99134 11448 46/// ///// 1//// 90545 22200 00287 10905 20904 309// 41102 70023
BBXX 44060 29061 99413 70721 46/// ///12 11003 40075 90545 22200 00093 333 91215 555 11134 22139
BBXX 44022 29061 99409 70737 46/// ///08 11001 21084 40109 90545 22200 00084 333 91211 555 11088 22093
BBXX 46088 29061 99483 71232 46/// /2409 10089 40037 51041 90550 22200 00078 10602 20602 70012 333 91211 555 11097 22106 30452 42613 60549 236089 241088 250084 257094 259111 256110
AAXX 29064 68392 16/// /2409 10170 20127 30201 4//// 57018 60064 333 20137 91013 555 10221 20064
AAXX 29064 68382 16/// /1910 10197 20125 39370 48547 52008 60044 333 20151 91016 555 10220 20044 91018
BBXX DBEA 29021 99540 10085 46/// /2717 10074 20069 40084 52009/ 22221 04059
BBXX DBKR 29061 99541 10121 46/// /2309 10066 20028 40072 57016 22200 00053
BBXX DBEF/29061 9913/ 10082 41/// /261
BBXX DBFH 29061 99535 10086 46/// /2611 10066 20040 40111 52003 22200 00057
BBXX DBJM 29061 99541 10080 46/// /2816 10068 20042 40092 52006 22251 00070
BBXX DBBC 29021 99535 10100 46/// //415 10056 20433 40097 57011 22250 00063
BBXX DBBA 29061 99541 10121 46/// /2504 10069 20024 40072 57016 22220 00058
BBXX DBND 29061 99536 10086 46/// /2711 10063 20037 40102 54000 22250/00057
BBXX DBBI 29061 99535 10100 46/// /2511 10056 20056 40096 57010/ 22240 00056
AAXX 29064 78705 31562 30000 10204 20189 30154 40172 58008 70544 81530 333 10277 20193 30/// 56000 59023 81628 83358
AAXX 29064 78708 31560 72104 10213 20213 30141 40171 58007 70544 82550 333 10292 20211 30/// 56000 59026 82624 86358
AAXX 29064 78714 32560 70000 10200 20191 83230 333 10294 20183 30/// 56220 83826 86358
AAXX 29064 78717 31558 60000 10164 20164 38984 40174 71044 86500 333 10226 20154 30/// 56800 59016 86620
AAXX 29064 78720 31560 61902 10165 20149 39060 40172 58005 70544 86500 333 10266 20173 30/// 56200 59009 86624
AAXX 29064 78724 32578 20310 10258 20199 30084 40141 51005 82500 333 10350 20258 30/// 56100 58014 82630
AAXX 29064 78388 111575 10000 10231 20177 30153 40162 60001 70500 81800 333 00900 10302 20216 59013 81822
AAXX 29064 78388 111575 10000 10231 20177 30153 40162 60001 70500 81800 333 00900 10302 20216 59013 81822
BBXX 61001 29064 99434 10078 46/// /1606 10121 20071 40206 57014 22200 00138 10401 70004
BBXX BAREU56 29064 99348 10134 46/// ///// 40207 57003 22272
BBXX BAREU63 29064 99401 10141 46/// /3411 10128 29056 40227 57014 22233
BBXX 41101 29064 99146 70562 46/// /0843 10258 20217 40156 57012 22200 00269 10704 70021 555 1/028
BBXX TESTFR9 29064 99488 70022 46/// /3118 10093 29075 40351 52013 22234
AAXX 29064 61901 169// /1211 10155 20130 39685 40197 53006 69962 90550 333 20146 3/014 70008 8//99 90710 91128 555 7/090
AAXX 29064 91643 11498 83306 10287 20238 40073 53009 60001 71522 8427/ 333 5679/ 84818 88460
AAXX 29064 91643 11498 83306 10287 20238 40073 53009 60001 71522 8427/ 333 5679/ 84818 88460
AAXX 29064 78954 11480 31013 10258 20230 30088 40153 6///1 71581 83800 333 10290 20207 58002 83818 90930
AAXX 29064 78954 11480 31013 10258 20230 30088 40153 6///1 71581 83800 333 10290 20207 58002 83818 90930
AAXX 29064 89054 32465 80000 10006 21000 49803 52021 886// 333 56000 88613
AAXX 29064 89056 11530 70000 10004 21005 49804 52013 60001 71022 82530 333 56450 82620 87358
AAXX 29064 89057 12570 30000 10004 21004 49800 52015 60001 83500 333 56500 83620
AAXX 29064 89058 32880 72902 10003 21016 39779 49800 52014 8703/
AAXX 29064 89059 12860 61530 10010 21035 49785 52014 60001 86060 333 56060 86356
AAXX 29064 89251 32462 80903 10010 21019 49787 52014 8801/
AAXX 29064 78583 32270 70000 10215 20209 40170 60001 87800 333 00700 59023 86703
BBXX PINX 29064 99202 70684 41/98 31417 10250 2//// 40170 54000 70200 8//// 22234 00280 2//// 3//// 4//// 5//// 6//// 8//// ICE /////
BBXX WRAH 29064 99262 70883 41598 40809 10210 2//// 40180 54/// 7//00 8385/ 22274 00257 20102 327// 40503 5//// 6//// 8//// ICE /////
BBXX WFLG 29064 99329 71206 41498 13419 10133 20114 40217 57020 70200 811// 22224 00111 20503 329// 40805 5//// 6//// 80122 ICE /////
BBXX NWS0022 29064 99416 70714 43/// /2711 10001 21071 40054 5//// 7//// 8//// 222// 04100 2//// 3//// 4//// 5//// 6//// 8//// ICE /////
BBXX C6TH9 29063 99175 51495 41597 70910 10260 2022/ 40110 54000 70262 86928 22200 00260 20100 3//// 4//// 5//// 6//// 80230 ICE /////
BBXX WDC6698 29064 99201 71570 43/// /0724 1//// 2//// 40190 5//// 7//// 8//// 222// 04235 2//// 3//// 4//// 5//// 6//// 8//// ICE /////
AAXX 29064 78583 32270 70000 10215 20209 40170 60001 87800 333 00700 59023 86703
BBXX A8CK2 29064 99295 30407 41497 81611 10240 20194 40080 54000 76066 8/7// 22254 21003 314// 41103 5//// 80210
BBXX PCSV 29063 99348 30218 41598 52002 10200 20161 40188 50/// 70200 85400 22263 04205 20401 323// 41002 80175
BBXX ONDY 29064 99175 30657 41398 21014 10280 2022/ 40140 52010 70200 8//// 22213 00280 2//// 3//// 4//// 5//// 6//// 80240 ICE /////
BBXX WDD2876 29064 99459 70843 43/98 22012 11072 2//// 40139 5//// 7//// 8//// 22263 00033 2//01 3//// 4//// 5//// 6//// 8//// ICE /////
BBXX V7DI8 29063 99200 11215 41397 80626 10240 2018/ 40190 57020 70382 8877/ 22200 00270 20705 309// 41005 5//// 6//// 80200 ICE /////
BBXX ONCE 29064 99075 11107 41798 80419 10260 2025/ 40100 56010 72582 87260 22214 00268 20402 336// 40807 5//// 6//// 80250 ICE /////
BBXX HZGN 29063 99061 11143 41497 40512 10305 20258 40114 58015 70311 82242 22254 02271 20301 301// 40502 5//// 80270
BBXX OUIY2 29064 99149 11124 43/// 90522 10280 2//// 40260 56010 7//// 89/// 22254 00250 29903 305// 4//// 5//// 6//// ICE /////
BBXX A8SU4 29064 99062 10929 41298 29904 10300 20273 40090 58010 70211 82444 22223 00280 201// 326// 40808 5//// 80280
BBXX WCX8883 29064 99418 71671 41498 73006 10100 2004/ 40140 52010 7//22 8721/ 22225 00100 20906 32830 40803 5//// 6//// 80070 ICE /////
BBXX 41101 29064 99146 70562 46/// /0843 10258 20217 40156 57012 22200 00269 10704 70021 555 1/028
BBXX 44060 29061 99413 70721 46/// ///12 11003 40075 90545 22200 00093 333 91215 555 11134 22139
BBXX 44022 29061 99409 70737 46/// ///08 11001 21084 40109 90545 22200 00084 333 91211 555 11088 22093
BBXX 46088 29061 99483 71232 46/// /2409 10089 40037 51041 90550 22200 00078 10602 20602 70012 333 91211 555 11097 22106 30452 42613 60549 236089 241088 250084 257094 259111 256110
BBXX 41012 29061 99300 70805 46/// /3004 10153 40198 58005 90550 22200 00227 10401 20401 333// 40401 70007 333 91206 555 11044 22046 30514 43207 60549 303043 290042 308040 302043 316041 307045
BBXX 41114 29061 99276 70802 46/// ///// 1//// 90546 22200 00237 10901 20901 70007
BBXX 42364 29061 99291 70881 46/// /1204 10167 20100 40203 90545
BBXX 46060 29061 99606 71468 46/// /2907 11022 90550 555 11073 22077
BBXX 41115 29061 99184 70673 46/// ///// 1//// 90535 22200 11304 21003 300// 41303 70020
BBXX 42363 29061 99282 70892 46/// /1408 10183 20106 40193 90545 333 91210
BBXX 46114 29061 99364 71222 46/// ///// 1//// 90534 22200 00123 11306 21003 328// 41304 70028
BBXX WDD3825 29064 99387 70600 41898 32735 10160 2009/ 40041 52014 70121 838// 22224 00225 2//// 3//// 4//// 5//// 6//// 80120 ICE /////
BBXX A8CJ2 29064 99330 70763 41697 33320 10150 20065 40180 54000 70200 83100 22214 04249 299// 3//// 4//// 5//// 80105
BBXX 9VAW8 29064 99290 70941 41798 12809 10170 20154 40180 54000 70200 81100 22233 04173 20502 32828 40502 50502 6//// 80160 ICE /////
BBXX WRAH 29064 99262 70883 41598 40809 10210 2//// 40180 54/// 7//00 8385/ 22274 00257 20102 327// 40503 5//// 6//// 8//// ICE /////
BBXX DHEB 29063 99539 71609 41/98 52920 11025 21055 49932 51018 70272 85/// 22264 04050 2//// 3//// 4//// 5//// 81035
BBXX 3FSB4 29064 99188 70747 43495 20516 10270 2022/ 40160 5//// 7//// 82/// 22284 00280 20306 3//// 4//// 5//// 6//// 80235 ICE /////
BBXX WFLG 29064 99329 71206 41498 13419 10133 20114 40217 57020 70200 811// 22224 00111 20503 329// 40805 5//// 6//// 80122 ICE /////
BBXX 44098 29061 99428 70702 46/// ///// 1//// 90537 22200 00084 10605 20604 310// 41302 70023
BBXX 46211 29061 99469 71242 46/// ///// 1//// 90536 22200 00088 11308 21005 327// 41305 70039
BBXX 46212 29061 99408 71243 46/// ///// 1//// 90542 22200 00102 11306 21004 330// 41305 70030
BBXX 46217 29061 99342 71194 46/// ///// 1//// 90542 22200 00144 11303 20702 328// 41302 70013
BBXX 46237 29061 99378 71226 46/// ///// 1//// 90540 22200 00108 11305 21002 326// 41304 70023
BBXX 46240 29061 99366 71219 46/// ///// 1//// 90542 22200 00122 11303 21002 335// 41302 70013
BBXX 46249 29061 99338 71197 46/// ///// 1//// 90540 22200 00146 11202 20902 327// 41202 70012
BBXX 46248 29061 99461 71247 46/// ///// 1//// 90534 22200 00095 11310 21007 328// 41306 70048
BBXX 46244 29061 99409 71244 46/// ///// 1//// 90535 22200 00101 11307 20904 330// 41305 70033
BBXX A8UT7 29064 99409 70508 41597 82333 10170 20112 40010 51010 70200 83/// 22263 20906 80136
BBXX WPGK 29064 99252 70741 41398 60413 10239 2020/ 40151 57003 70321 868// 22274 00256 20402 3//// 4//// 5//// 6//// 80211 ICE /////
BBXX KGTY 29064 99542 71365 43898 62735 10006 2001/ 49940 5//// 7//// 852// 22234 00050 20811 32726 41211 51412 6//// 80006 ICE /////
BBXX 4XIS 29063 99199 71075 43/98 10115 10220 2019/ 40165 54000 22235 80205
BBXX PINX 29064 99202 70684 41/98 31417 10250 2//// 40170 54000 70200 8//// 22234 00280 2//// 3//// 4//// 5//// 6//// 8//// ICE /////
BBXX PDZS 29063 99615 50464 41/91 99901 10017 20005 49765 56010 74544 89/// 22251 02006 20101 399// 4//02 5//// 80012 ICE 0/5/0
BBXX LAIG7 29064 99293 71440 41797 60414 10190 2019/ 40290 52010 70322 8629/ 22223 00209 20301 315// 40903 5//// 6//// 80190 ICE /////
BBXX DBND 29061 99536 10086 46/// /2711 10063 20037 40102 54000 22250/00057
BBXX DBBI 29061 99535 10100 46/// /2511 10056 20056 40096 57010/ 22240 00056
BBXX DBKR 29061 99541 10121 46/// /2309 10066 20028 40072 57016 22200 00053
BBXX DBBA 29061 99541 10121 46/// /2504 10069 20024 40072 57016 22220 00058
BBXX DBJM 29061 99541 10080 46/// /2816 10068 20042 40092 52006 22251 00070
BBXX DBFH 29061 99535 10086 46/// /2611 10066 20040 40111 52003 22200 00057
BBXX WKAW 29064 99528 10042 41598 32825 10080 2005/ 40162 57016 70200 8//// 22284 00080 2//// 3//// 4//// 5//// 6//// 80065 ICE /////
BBXX LAVX4 29064 99478 70130 41/97 /2916 10100 2010/ 40410 57001 70022 8//// 0//// 21012 29/// 41512 5//// 6//// 80100
AAXX 29064 91772 31498 31603 10286 20237 4//// 60001 70200 83200 333 563// 83818
AAXX 29064 91776 NIL
AAXX 29064 91779 31498 61608 10262 20218 40067 53013 60001 70300 868// 333 563// 82817 85640
AAXX 29064 91784 31498 71215 10267 20234 40070 53011 60001 70212 8487/ 333 5639/ 82818 84635 87461
AAXX 29064 91792 31498 31208 10264 20220 40089 53008 60001 70200 82201 333 563/9 82818
BBXX 41060 29061 99148 70510 46/// ///// 1//// 90550 22200 10804 70021
BBXX 41001 29061 99347 70727 46/// ///// 10148 20045 40151 53003 90550 22200 00216 10807 70037
BBXX 41049 29061 99275 70630 46/// /2206 10230 20192 40196 57003 90550 22200 00229 11505 20502 300// 41505 70026 333 91208 555 11061 22065 30459 42208 60549 220057 220060 217060 223060 228058 226057 82207 90459
BBXX 42020 29061 99270 70967 46/// /2003 10192 20151 40183 54000 90550 22200 00189 10801 70003 333 91204 555 11037 22041 30510 41905 60549 195033 196034 192039 193039 192035 188034
BBXX 41044 29061 99217 70587 46/// /1006 10248 20186 40214 58007 90550 22200 00261 11408 20602 300// 41408 70039 333 91208 555 11065 22068 30548 41108 60549 102063 096063 100065 093063 096061 092057 81007 90541
BBXX 41048 29061 99320 70696 46/// /2707 10186 20100 40163 50000 90550 22200 00219 11109 20603 3//// 41108 70044 333 91209 555 11067 22070 30517 42811 60549 274068 287071 289074 285079 289074 299078 83009 90453
BBXX 42065 29061 99149 70750 46/// /0507 10263 20225 90550 22200 10802 20502 3//// 40802 70012 333 91208 555 11069 22074 30523 40508 60549 053065 044065 047071 047073 051068 049068 80508 90513
BBXX 42012 29061 99301 70876 46/// /1503 10152 20085 40202 58011 90550 22200 00191 1//00 70002 333 91203 555 11026 22026 30450 41504 60549 148024 145022 156013 141008 149022 145019
BBXX 42001 29061 99259 70897 46/// /1601 10210 20115 40194 58010 90550 22200 00238 10601 3//// 40601 70007 333 91203 555 11014 22015 30527 41603 60549 155015 147012 170019 162016 150017 161016
BBXX 42035 29061 99292 70944 46/// /0902 10143 20142 40182 58004 90550 22200 00131 10401 20401 70005 333 91202 555 11024 22029 30506 40903 60549 092019 091020 093022 088023 085023 089024
BBXX 42058 29061 99149 70749 46/// /0911 10271 20221 40130 58013 90550 22200 00273 10804 20703 309// 40802 70019 333 91213 555 11118 22125 30535 40813 60549 084110 080113 079102 083096 082095 080087 80812 90537
BBXX 42060 29061 99163 70635 46/// /0708 10266 20208 40173 56012 90550 22200 00271 10603 20603 300// 41001 70017 333 91210 555 11088 22094 30514 40810 60549 073082 073084 070084 072088 070087 077087 80810 90452
BBXX 42036 29061 99285 70845 46/// /2802 10147 20065 40209 58008 90550 22200 00213 10701 325// 40701 70007 333 91203 555 11016 22017 30526 42803 60549 281016 240007 251021 280013 309018 273013
BBXX 42056 29061 99198 70849 46/// /0804 10258 20224 40171 58007 90550 22200 00270 10802 20401 336// 40802 70011 333 91205 555 11039 22040 30454 40905 60549 084037 086036 085040 086039 097040 089040 81004 90502
BBXX 42019 29061 99279 70954 46/// /2205 10206 20125 40174 58004 90550 22200 10301 20301 70004 333 91206 555 11052 22055 30458 43108 60549 230050 282053 283049 283050 282050 281045
BBXX 42059 29061 99151 70675 46/// /0909 10271 20220 40154 57014 90550 22200 00278 10604 20604 70018 333 91211 555 11098 22104 30505 40811 60549 085093 085093 084094 086095 084097 092092 80811 90505
BBXX 44005 29061 99432 70691 46/// /2816 11002 21054 49970 51024 90550 22200 00082 10808 20808 3//// 41202 70040 333 91219 555 11167 22176 30514 42820 60549 276157 275158 278156 282158 286152 283155
BBXX 42040 29061 99292 70882 46/// /1003 10168 40196 56012 90550 22200 00222 10701 322// 40701 70003 333 91204 555 11030 22031 30540 41106 60549 102030 112033 124031 124032 142033 141037
BBXX 42003 29061 99260 70856 46/// /1002 1//// 90550 22200 10602 20401 333// 40602 70008 333 91203 555 11022 22023 30532 40805 60549 096020 086024 076026 085026 087029 070028 80804 90532
BBXX 46070 29061 99551 11753 46/// /2701 11030 21116 40127 52007 90550 22200 00035 10904 20401 3//// 40904 70018 333 91202 555 11010 22010 30519 43603 60549 283010 338014 359018 002015 031009 358008 83602 90519
BBXX 46014 29061 99394 71240 46/// /2103 10115 40277 50007 90550 22200 00114 11306 20401 3//// 41306 70028 333 91203 555 11027 22029 30455 42404 60549 211025 202025 206027 217026 219027 238029
BBXX 46011 29061 99350 71210 46/// /3308 10136 40228 57004 90550 22200 00132 11304 20702 329// 41304 70022 333 91209 555 11082 22088 30515 43211 60549 332074 332076 327080 323084 324078 332067
BBXX 46047 29061 99324 71195 46/// /3306 10135 40213 56005 90550 22200 00141 11304 20402 329// 41304 70022 333 91207 555 11062 22066 30502 43308 60549 327059 327058 326058 327061 326064 326062
BBXX 46088 29061 99483 71232 46/// /2409 10089 40037 90550 22200 00078 10602 20602 70012 333 91211 555 11097 22106 30452 42613 60549 236089 241088 250084 257094 259111 256110
BBXX 46027 29061 99419 71244 46/// /1911 10108 40223 54000 90550 22200 00095 11306 20604 330// 41305 70032 333 91213 555 11115 22124 30516 41814 60549 185107 185110 184113 185115 185115 186110
BBXX 46086 29061 99325 71180 46/// /0902 10149 40209 54000 90550 22200 00150 11304 20301 328// 41303 70018 333 91203 555 11023 22024 30450 41003 60549 087022 084022 075020 052021 045022 041025
BBXX 46050 29061 99442 71246 46/// /2509 10108 40162 51036 90550 22200 00097 10909 20606 322// 40907 70046 333 91211 555 11097 22106 30530 42512 60549 249090 246094 243090 240090 236082 234084
BBXX 46069 29061 99337 71202 46/// /3309 10137 40209 56006 90550 22200 00137 11305 20803 329// 41304 70026 333 91211 555 11092 22098 30544 43311 60549 326086 327080 328083 329078 328078 328079
BBXX 46013 29061 99382 71233 46/// /3103 10114 40274 53005 90550 22200 00108 11305 3//// 41305 70024 333 91204 555 11031 22035 30451 43007 60549 306028 307036 307040 311037 305038 304045
BBXX 46012 29061 99374 71229 46/// /3106 10118 40270 55000 90550 22200 00122 11305 20501 329// 41305 70023 333 91208 555 11068 22072 30549 43108 60549 310064 306050 305044 310049 312044 315035
BBXX 46087 29061 99485 71247 46/// /2510 10099 20093 40058 52044 90550 22200 00082 11107 20703 326// 41106 70034 333 91212 555 11103 22113 30545 42612 60549 249093 249091 254089 258096 258095 264085
BBXX 46029 29061 99461 71245 46/// /2410 10106 20091 40127 52042 90550 22200 00095 11108 20605 327// 41106 70040 333 91212 555 11106 22115 30512 42513 60549 244098 244100 244098 245100 244099 243095
BBXX 46054 29061 99342 71204 46/// /3308 10144 40206 55000 90550 22200 00134 10704 20703 300// 41103 70022 333 91210 555 11088 22096 30501 43215 60549 328082 327092 327104 324114 322126 322122
BBXX 46028 29061 99357 71219 46/// /3309 10125 40230 57007 90550 22200 00131 11306 20604 331// 41304 70028 333 91210 555 11091 22096 30512 43213 60549 325086 326086 327095 322108 319094 320092
BBXX 46025 29061 99337 71191 46/// /2904 10147 20129 40201 54000 90550 22200 00146 11302 20401 328// 41302 70011 333 91205 555 11039 22041 30549 42805 60549 290036 294038 298037 298035 294029 296027
BBXX 32012 29061 99197 50856 46/// ///// 1//// 90550 22200 11303 70017
BBXX 46002 29061 99426 71305 46/// ///// 10122 40201 51022 90550 22200 00118 11107 70036
BBXX 46006 29061 99408 71375 46/// /1706 10130 40178 58011 90550 22200 00121 11308 20502 3//// 41307 70038 333 91207 555 11061 22068 30537 41607 60549 165056 166052 160043 166041 169035 168030
BBXX 46084 29061 99566 71361 46/// ///// 10022 20017 49865 53065 90550 22200 00068 11208 70039
BBXX 46075 29061 99539 71608 46/// /3008 11016 21089 49988 51009 90550 22200 00038 11305 20503 300// 41304 70027 333 91210 555 11082 22085 30548 43110 60549 302079 310073 303058 305062 307073 321073 83009 90548
BBXX 46059 29061 99380 71300 46/// /2306 10146 40265 57006 90550 22200 00142 11306 20602 3//// 41306 70032 333 91207 555 11065 22070 30525 42408 60549 232060 230058 233060 230060 228059 228059
BBXX 46005 29061 99461 71310 46/// ///09 10089 40141 51051 90550 22200 00098 11310 20806 3//// 41308 70048 333 91211 555 11096 22101
BBXX 46080 29061 99580 71500 46/// /2911 11035 21090 49867 53010 90550 22200 00048 10607 20606 3//// 40903 70034 333 91214 555 11120 22126 30525 42816 60549 285113 277116 279119 277121 275117 279119 82814 90513
AAXX 29061 76040 32902 02901 10083 20031 30201 40215 52004 90545 333 10216 20037 30/// 55094 59003 98602
AAXX 29061 76225 32720 22702 10084 21056 38663 40175 54003 82030 90540 333 10184 20040 30/// 55081 56060 58/// 82356
AAXX 29061 76323 32910 00000 10042 21103 38314 40199 52006 90540 333 10218 20026 30/// 58001
AAXX 29061 76342 32940 01802 10110 20043 39523 40226 52004 90550 333 10268 20078 30/// 55077 20502 59002
AAXX 29061 76382 32960 00000 10090 20038 38933 40173 57002 90550 333 10238 20030 30/// 55056 2//// 59012
AAXX 29061 76423 32960 00000 10077 21069 38178 40148 52006 90548 333 10245 21015 30/// 55064 21031 59015
AAXX 29061 76458 32960 00302 10151 20141 30151 40155 52003 90540 333 10237 20085 30/// 55085 59004
AAXX 29061 76525 32960 00406 10110 21132 37489 40119 54000 90540 333 10184 20092 30/// 55090 22773 59016
AAXX 29061 76548 32960 00202 10170 20167 30189 40199 50004 90540 333 10252 20108 30/// 55077 59056
AAXX 29061 76556 32960 01402 10168 20122 39129 40128 58002 90530 333 10296 20132 30/// 55089 59015
AAXX 29061 76571 32910 00000 10154 21052 38182 40114 52014 90550 333 10260 20044 30/// 55088 59018
AAXX 29061 76593 32950 01404 10192 20183 30180 40182 57005 90550 333 10268 20218 30/// 55094 21320 59027
AAXX 29061 76644 32350 11203 10200 20173 30167 40180 57002 81200 90550 333 10295 20195 30/// 55073 21111 561// 59033 81810
AAXX 29061 76750 32558 33201 10204 20202 30162 40172 57008 82107 90545 333 10295 20212 31/// 55014 56106 59020 82820
AAXX 29061 76775 32960 00501 10147 20052 38538 40146 52010 90545 333 10276 20080 30/// 55082 59030
AAXX 29061 76805 32960 03101 10240 20237 30141 40144 50004 90540 333 10324 20218 30/// 55095 20957 56/// 59017
AAXX 29061 76845 32930 00000 10102 20095 37965 40165 58003 90545 333 10206 20110 30/// 55081 59019
AAXX 29061 76243 32970 02602 10108 20000 39903 40196 52015 90530 333 10236 20026 30/// 55070 59029
AAXX 29061 76311 32920 00000 10129 20062 39877 40149 50012 90553 333 10338 20088 30/// 55072 59010
AAXX 29061 76412 32960 00000 10116 20105 30128 40175 52005 90536 333 10280 20062 30/// 55073 59013
BBXX 44025 29061 99402 70732 46/// /2913 10025 21044 40098 51014 90550 22200 00106 10605 20604 312// 41502 70024 333 91217 555 11133 22140 30526 42918 60549 289125 288129 291139 292141 291137 296139
BBXX 41008 29061 99314 70809 46/// /3205 10123 20034 40200 57005 90550 22200 00160 333 91207 555 11054 22056 30457 43208 60549 320052 318051 323056 315063 316063 315064
BBXX 41004 29061 99325 70791 46/// /3005 10130 20013 40061 50000 90550 22200 00201 10501 20301 3//// 40501 70007 333 91207 555 11047 22048 30459 43008 60549 301044 301040 302044 293051 296053 301053
BBXX 44009 29061 99385 70747 46/// /3112 10031 40157 51009 90550 22200 00110 10604 20603 300// 41301 70018 333 91215 555 11125 22131 30508 42916 60549 303119 294121 296122 304120 297123 296122
BBXX 44014 29061 99366 70748 46/// /3309 1//// 40157 53011 90550 22200 00145 10603 20603 308// 41302 70016 333 91211 555 11087 22087 30538 43211 60549 325087 326085 319086 320083 322080 320080
BBXX 44027 29061 99443 70673 46/// /2815 11033 21085 49923 51025 90550 22200 00079 10907 20806 3//// 40904 70037 333 91219 555 11154 22162 30526 42819 60549 279145 286144 282149 275149 281145 279144
BBXX 41013 29061 99334 70777 46/// /3206 10123 20012 40185 50004 90550 22200 00210 11402 20401 308// 41401 70010 333 91208 555 11065 22067 30514 43109 60549 317061 313057 312059 310062 313066 309064
BBXX 44065 29061 99404 70737 46/// /2913 10021 21050 40102 51007 90550 22200 00101 10403 20403 329// 41502 70017 333 91215 555 11138 22145 30533 42917 60549 291129 294136 298125 296121 291124 294124 82915 90535
BBXX 44040 29061 99410 70736 46/// /3210 10000 21081 40112 90545 22200 10301 70005 333 91213 555 11113 22124
BBXX 44020 29061 99414 70702 46/// /2714 10007 21046 40036 51028 90550 22200 00072 333 91217 555 11151 22162 30512 42618 60549 268144 257143 258143 257147 258143 259140
BBXX 42055 29061 99222 70940 46/// /0702 10234 20173 40180 54000 90550 22200 00249 10701 20301 307// 40701 70006 333 91203 555 11022 22022 30507 41105 60549 071022 082027 096025 093032 100034 098035 81004 90457
BBXX 42002 29061 99258 70937 46/// /2002 10211 20134 40187 58011 90550 22200 00241 10901 70003 333 91203 555 11023 22024 30539 42004 60549 199023 191023 199024 236019 267016 240016
BBXX 41047 29061 99275 70715 46/// /3304 10204 40189 56009 90550 22200 00248 11007 20401 332// 41007 70033 333 91205 555 11040 22041 30454 43407 60549 332041 332044 331047 342049 337050 337048 83406 90502
BBXX 41043 29061 99211 70650 46/// /1106 10250 20208 40200 56009 90550 22200 00257 11406 20602 300// 41405 70028 333 91207 555 11063 22067 30502 41207 60549 112059 103058 105055 107054 109054 107057 81106 90549
BBXX 41036 29061 99342 70770 46/// ///// 10119 21003 40179 54000 90550 22200 00162 10702 70012
BBXX 44066 29061 99396 70726 46/// /2913 10036 21015 40101 51008 90550 22200 00127 10808 20808 3//// 41102 70039 333 91216 555 11136 22142 30510 43017 60549 289129 288132 289133 292136 289132 287133
AAXX 29061 76040 32902 02901 10083 20031 30201 40215 52004 90545 333 10216 20037 30/// 55094 59003 98602
AAXX 29061 76225 32720 22702 10084 21056 38663 40175 54003 82030 90540 333 10184 20040 30/// 55081 56060 58/// 82356
AAXX 29061 76323 32910 00000 10042 21103 38314 40199 52006 90540 333 10218 20026 30/// 58001
AAXX 29061 76342 32940 01802 10110 20043 39523 40226 52004 90550 333 10268 20078 30/// 55077 20502 59002
AAXX 29061 76382 32960 00000 10090 20038 38933 40173 57002 90550 333 10238 20030 30/// 55056 2//// 59012
AAXX 29061 76423 32960 00000 10077 21069 38178 40148 52006 90548 333 10245 21015 30/// 55064 21031 59015
AAXX 29061 76458 32960 00302 10151 20141 30151 40155 52003 90540 333 10237 20085 30/// 55085 59004
AAXX 29061 76525 32960 00406 10110 21132 37489 40119 54000 90540 333 10184 20092 30/// 55090 22773 59016
AAXX 29061 76548 32960 00202 10170 20167 30189 40199 50004 90540 333 10252 20108 30/// 55077 59056
AAXX 29061 76556 32960 01402 10168 20122 39129 40128 58002 90530 333 10296 20132 30/// 55089 59015
AAXX 29061 76571 32910 00000 10154 21052 38182 40114 52014 90550 333 10260 20044 30/// 55088 59018
AAXX 29061 76593 32950 01404 10192 20183 30180 40182 57005 90550 333 10268 20218 30/// 55094 21320 59027
AAXX 29061 76644 32350 11203 10200 20173 30167 40180 57002 81200 90550 333 10295 20195 30/// 55073 21111 561// 59033 81810
AAXX 29061 76750 32558 33201 10204 20202 30162 40172 57008 82107 90545 333 10295 20212 31/// 55014 56106 59020 82820
AAXX 29061 76775 32960 00501 10147 20052 38538 40146 52010 90545 333 10276 20080 30/// 55082 59030
AAXX 29061 76805 32960 03101 10240 20237 30141 40144 50004 90540 333 10324 20218 30/// 55095 20957 56/// 59017
AAXX 29061 76845 32930 00000 10102 20095 37965 40165 58003 90545 333 10206 20110 30/// 55081 59019
AAXX 29061 76243 32970 02602 10108 20000 39903 40196 52015 90530 333 10236 20026 30/// 55070 59029
AAXX 29061 76311 32920 00000 10129 20062 39877 40149 50012 90553 333 10338 20088 30/// 55072 59010
AAXX 29061 76412 32960 00000 10116 20105 30128 40175 52005 90536 333 10280 20062 30/// 55073 59013
AAXX 29061 76040 32902 02901 10083 20031 30201 40215 52004 90545 33310216 20037 30/// 55094 59003 98602
AAXX 29061 76225 32720 22702 10084 21056 38663 40175 54003 82030 90540333 10184 20040 30/// 55081 56060 58/// 82356
AAXX 29061 76323 32910 00000 10042 21103 38314 40199 52006 90540 33310218 20026 30/// 58001
AAXX 29061 76342 32940 01802 10110 20043 39523 40226 52004 90550 33310268 20078 30/// 55077 20502 59002
AAXX 29061 76382 32960 00000 10090 20038 38933 40173 57002 90550 33310238 20030 30/// 55056 2//// 59012
AAXX 29061 76423 32960 00000 10077 21069 38178 40148 52006 90548 33310245 21015 30/// 55064 21031 59015
AAXX 29061 76458 32960 00302 10151 20141 30151 40155 52003 90540 33310237 20085 30/// 55085 59004
AAXX 29061 76525 32960 00406 10110 21132 37489 40119 54000 90540 33310184 20092 30/// 55090 22773 59016
AAXX 29061 76548 32960 00202 10170 20167 30189 40199 50004 90540 33310252 20108 30/// 55077 59056
AAXX 29061 76556 32960 01402 10168 20122 39129 40128 58002 90530 33310296 20132 30/// 55089 59015
AAXX 29061 76571 32910 00000 10154 21052 38182 40114 52014 90550 33310260 20044 30/// 55088 59018
AAXX 29061 76593 32950 01404 10192 20183 30180 40182 57005 90550 33310268 20218 30/// 55094 21320 59027
AAXX 29061 76644 32350 11203 10200 20173 30167 40180 57002 81200 90550333 10295 20195 30/// 55073 21111 561// 59033 81810
AAXX 29061 76750 32558 33201 10204 20202 30162 40172 57008 82107 90545333 10295 20212 31/// 55014 56106 59020 82820
AAXX 29061 76775 32960 00501 10147 20052 38538 40146 52010 90545 33310276 20080 30/// 55082 59030
AAXX 29061 76805 32960 03101 10240 20237 30141 40144 50004 90540 33310324 20218 30/// 55095 20957 56/// 59017
AAXX 29061 76845 32930 00000 10102 20095 37965 40165 58003 90545 33310206 20110 30/// 55081 59019
AAXX 29061 76243 32970 02602 10108 20000 39903 40196 52015 90530 33310236 20026 30/// 55070 59029
AAXX 29061 76311 32920 00000 10129 20062 39877 40149 50012 90553 33310338 20088 30/// 55072 59010
AAXX 29061 76412 32960 00000 10116 20105 30128 40175 52005 90536 33310280 20062 30/// 55073 59013
AAXX 29064 86033 NIL
AAXX 29064 86086 32970 10000 10248 20168 39987 40077 56014 80006
AAXX 29064 86097 32970 03505 10224 20188 39449 40089 57014
AAXX 29064 86134 32970 00000 10250 20205 39983 40069 56013
AAXX 29064 86170 NIL
AAXX 29064 86192 32970 00000 10240 20177 39901 40119 51006
AAXX 29064 86210 NIL
AAXX 29064 86218 32970 01807 10240 20174 39981 40077 57019
AAXX 29064 86221 32970 01802 10228 20201 39967 40101 51005
AAXX 29064 86233 32970 00000 10226 20200 39911 40100 56004
AAXX 29064 86246 32970 01607 10222 20192 39797 40085 58011
AAXX 29064 86255 32970 01408 10232 20144 30054 40122 55004
AAXX 29064 86260 32970 01802 10214 20189 39923 40075 57041
AAXX 29064 86268 32970 00000 10240 20224 39924 40087 56005
AAXX 29064 86297 NIL
AAXX 29064 78862 11480 30910 10254 20208 30154 40177 60001 70180 83200 333 10278 20225 58001 83816
AAXX 29064 2817 83636
AAXX 29064 TAF TUPJ 281000Z 2812/2912 08013KT 9999 SCT022 PROB40 TEMPO 2812/2912 BKN015
AAXX 29064 TAF TKPN 281000Z 2812/2912 08013KT 9999 SCT022 PROB40 TEMPO 2812/2912 BKN015
AAXX 29064 2504/2512 06013G23KT SHRA
AAXX 29064 G28KT SHRA PROB30 TEMPO 2412/2424 07016G26KT SHRA
AAXX 29064 TAF TUPJ 232200Z 2400/2424 07016KT 9999 SCT020 SCT040 PROB40 TEMPO 2400/2412 07018G28KT SHRA TEMPO 2412/2424 07016G26KT SHRA
AAXX 29064 TAF TUPJ 041000Z 04012/0512 07008KT 9999 SCT016 BKN038 SCT270 TEMPO 0412/0512 SHRA BKN015 PROB40 TEMPO 0418/0512 5000 SHRA BKN014 BKN036 PROB30 0420/0512 4000 TSRA FEW012CB
AAXX 29064 918 4000 TSRA FEW012CB
AAXX 29064 N015 BKN036 PROB40 TEMPO 0704/0724 3000 +TSRA SCT011CB BKN012 BECMG 0712/0714 14008KT
AAXX 29064 21/2712 07017G28KT 5000 SHRA BKN015 BKN036 PROB TEMPO 2700/2712 4000 TSRA FEW013CB
AAXX 29064 PROB30 TEMPO 0800/0806 4000 TSRA FEW012CB PROB40 TEMPO 0800/0824 2000 +SHRA/TSRA SCT010CB BKN012 BKN250
BBXX 46002 29061 99426 71305 46/// ///// 10122 40201 51022 90550 22200 00118 11107 70036
BBXX 46005 29061 99461 71310 46/// ///09 10089 40141 51051 90550 22200 00098 11310 20806 3//// 41308 70048 333 91211 555 11096 22101
BBXX 46006 29061 99408 71375 46/// /1706 10130 40178 58011 90550 22200 00121 11308 20502 3//// 41307 70038 333 91207 555 11061 22068 30537 41607 60549 165056 166052 160043 166041 169035 168030
BBXX 46012 29061 99374 71229 46/// /3106 10118 40270 55000 90550 22200 00122 11305 20501 329// 41305 70023 333 91208 555 11068 22072 30549 43108 60549 310064 306050 305044 310049 312044 315035
BBXX 46013 29061 99382 71233 46/// /3103 10114 40274 53005 90550 22200 00108 11305 3//// 41305 70024 333 91204 555 11031 22035 30451 43007 60549 306028 307036 307040 311037 305038 304045
BBXX 46014 29061 99394 71240 46/// /2103 10115 40277 50007 90550 22200 00114 11306 20401 3//// 41306 70028 333 91203 555 11027 22029 30455 42404 60549 211025 202025 206027 217026 219027 238029
BBXX 46028 29061 99357 71219 46/// /3309 10125 40230 57007 90550 22200 00131 11306 20604 331// 41304 70028 333 91210 555 11091 22096 30512 43213 60549 325086 326086 327095 322108 319094 320092
BBXX 46029 29061 99461 71245 46/// /2410 10106 20091 40127 52042 90550 22200 00095 11108 20605 327// 41106 70040 333 91212 555 11106 22115 30512 42513 60549 244098 244100 244098 245100 244099 243095
BBXX 46050 29061 99442 71246 46/// /2509 10108 40162 51036 90550 22200 00097 10909 20606 322// 40907 70046 333 91211 555 11097 22106 30530 42512 60549 249090 246094 243090 240090 236082 234084
BBXX KGTY 29064 99542 71365 43898 62735 10006 2001/ 49940 5//// 7//// 852// 22234 00050 20811 32726 41211 51412 6//// 80006 ICE /////
BBXX WFLG 29064 99329 71206 41498 13419 10133 20114 40217 57020 70200 811// 22224 00111 20503 329// 40805 5//// 6//// 80122 ICE /////
AAXX 29064 78862 11480 30910 10254 20208 30154 40177 60001 70180 83200 333 10278 20225 58001 83816
AAXX 29064 2817 83636
AAXX 29064 TAF TUPJ 281000Z 2812/2912 08013KT 9999 SCT022 PROB40 TEMPO 2812/2912 BKN015
AAXX 29064 TAF TKPN 281000Z 2812/2912 08013KT 9999 SCT022 PROB40 TEMPO 2812/2912 BKN015
AAXX 29064 2504/2512 06013G23KT SHRA
AAXX 29064 G28KT SHRA PROB30 TEMPO 2412/2424 07016G26KT SHRA
AAXX 29064 TAF TUPJ 232200Z 2400/2424 07016KT 9999 SCT020 SCT040 PROB40 TEMPO 2400/2412 07018G28KT SHRA TEMPO 2412/2424 07016G26KT SHRA
AAXX 29064 TAF TUPJ 041000Z 04012/0512 07008KT 9999 SCT016 BKN038 SCT270 TEMPO 0412/0512 SHRA BKN015 PROB40 TEMPO 0418/0512 5000 SHRA BKN014 BKN036 PROB30 0420/0512 4000 TSRA FEW012CB
AAXX 29064 918 4000 TSRA FEW012CB
AAXX 29064 N015 BKN036 PROB40 TEMPO 0704/0724 3000 +TSRA SCT011CB BKN012 BECMG 0712/0714 14008KT
AAXX 29064 21/2712 07017G28KT 5000 SHRA BKN015 BKN036 PROB TEMPO 2700/2712 4000 TSRA FEW013CB
AAXX 29064 PROB30 TEMPO 0800/0806 4000 TSRA FEW012CB PROB40 TEMPO 0800/0824 2000 +SHRA/TSRA SCT010CB BKN012 BKN250
AAXX 29064 78862 11480 30910 10254 20208 30154 40177 60001 70180 83200 333 10278 20225 58001 83816
AAXX 29064 2817 83636
AAXX 29064 TAF TUPJ 281000Z 2812/2912 08013KT 9999 SCT022 PROB40 TEMPO 2812/2912 BKN015
AAXX 29064 TAF TKPN 281000Z 2812/2912 08013KT 9999 SCT022 PROB40 TEMPO 2812/2912 BKN015
AAXX 29064 2504/2512 06013G23KT SHRA
AAXX 29064 G28KT SHRA PROB30 TEMPO 2412/2424 07016G26KT SHRA
AAXX 29064 TAF TUPJ 232200Z 2400/2424 07016KT 9999 SCT020 SCT040 PROB40 TEMPO 2400/2412 07018G28KT SHRA TEMPO 2412/2424 07016G26KT SHRA
AAXX 29064 TAF TUPJ 041000Z 04012/0512 07008KT 9999 SCT016 BKN038 SCT270 TEMPO 0412/0512 SHRA BKN015 PROB40 TEMPO 0418/0512 5000 SHRA BKN014 BKN036 PROB30 0420/0512 4000 TSRA FEW012CB
AAXX 29064 918 4000 TSRA FEW012CB
AAXX 29064 N015 BKN036 PROB40 TEMPO 0704/0724 3000 +TSRA SCT011CB BKN012 BECMG 0712/0714 14008KT
AAXX 29064 21/2712 07017G28KT 5000 SHRA BKN015 BKN036 PROB TEMPO 2700/2712 4000 TSRA FEW013CB
AAXX 29064 PROB30 TEMPO 0800/0806 4000 TSRA FEW012CB PROB40 TEMPO 0800/0824 2000 +SHRA/TSRA SCT010CB BKN012 BKN250
BBXX BAREU00 29064 99503 70015 46/// ///// 40285 52024 22264
BBXX BAREU11 29064 99536 10054 46/// ///// 40129 57021 22213
BBXX BAREU51 29064 99407 10116 46/// ///// 40221 57015 22275
BBXX BAREU54 29064 99111 70811 46/// ///// 40131 57009 22254
BBXX BAREU05 29064 99439 70337 46/// ///// 40258 52006 22224
AAXX 29061 13586 31257 82001 11031 21041 39988 40295 57009 71022 886// 333 21032 33// 88706
AAXX 29061 33815 32997 61603 10000 21008 30030 40245 57017 80030 333 21008 555 80017
AAXX 29064 48001 32456 61301 10214 20143 40168 84850 333 56330 58001
AAXX 29064 48004 32562 22201 10225 20163 82800 333 56900
AAXX 29064 48008 NIL
AAXX 29064 48010 32560 31801 10240 20191 40173 83800 333 56500 58006
AAXX 29064 48018 32357 82201 10219 20185 40182 8487/ 333 56599 59001
AAXX 29064 48019 32960 00402 10250 20167 40181 333 59001
AAXX 29064 48020 32460 40000 10240 20174 85800 333 56500
AAXX 29064 48025 32458 50401 10253 20219 40184 84840 333 56790 59003
AAXX 29064 48035 31560 50000 10209 20160 40152 70522 85800 333 56100 59017
AAXX 29064 48037 32458 73601 10226 20198 40175 87500 333 56500 59006
AAXX 29064 48042 32558 43601 10243 20191 40168 82850 333 56990 59010
AAXX 29064 48045 31/10 90000 10167 20167 74344 89/// 333 56999
AAXX 29064 48048 32560 70401 10230 20198 40184 85950 333 56490 59001
AAXX 29064 48053 32456 63605 10230 20181 40172 83556 333 56899 59006
AAXX 29064 48057 31939 12201 10162 20154 74744 89/// 333 56999
AAXX 29064 48060 32440 60000 10210 20175 40178 84930 333 56560 59023
AAXX 29064 48062 31458 70905 10255 20220 40150 70222 85970 333 56390 58002
AAXX 29064 48071 /2960 23204 10270 20226 40153 80006 333 56009 58003
AAXX 29064 48077 32559 20402 10290 20196 40152 81201 333 56909 59010
AAXX 29064 48078 32550 53603 10266 20207 40150 83531 333 56899 58009
AAXX 29064 48080 32562 20401 10324 20200 40136 81870 333 56990 58012
AAXX 29064 48094 32960 00902 10290 20220 40144 333 58011
AAXX 29064 48097 32957 00401 10300 20185 40114 333 58002
AAXX 29064 48108 31596 50503 10340 20206 40128 70522 82406 333 56209 58000
AAXX 29064 48109 32496 41403 10299 20239 40131 83530 333 56590 58009
AAXX 29064 48110 31996 21305 10330 20206 40117 70522 80005 333 56009 58000
AAXX 29064 48112 NIL
AAXX 29064 48001 32456 61301 10214 20143 40168 84850 333 56330 58001
AAXX 29064 48004 32562 22201 10225 20163 82800 333 56900
AAXX 29064 48008 NIL
AAXX 29064 48010 32560 31801 10240 20191 40173 83800 333 56500 58006
AAXX 29064 48018 32357 82201 10219 20185 40182 8487/ 333 56599 59001
AAXX 29064 48019 32960 00402 10250 20167 40181 333 59001
AAXX 29064 48020 32460 40000 10240 20174 85800 333 56500
AAXX 29064 48025 32458 50401 10253 20219 40184 84840 333 56790 59003
AAXX 29064 48035 31560 50000 10209 20160 40152 70522 85800 333 56100 59017
AAXX 29064 48037 32458 73601 10226 20198 40175 87500 333 56500 59006
AAXX 29064 48042 32558 43601 10243 20191 40168 82850 333 56990 59010
AAXX 29064 48045 31/10 90000 10167 20167 74344 89/// 333 56999
AAXX 29064 48048 32560 70401 10230 20198 40184 85950 333 56490 59001
AAXX 29064 48053 32456 63605 10230 20181 40172 83556 333 56899 59006
AAXX 29064 48057 31939 12201 10162 20154 74744 89/// 333 56999
AAXX 29064 48060 32440 60000 10210 20175 40178 84930 333 56560 59023
AAXX 29064 48062 31458 70905 10255 20220 40150 70222 85970 333 56390 58002
AAXX 29064 48071 /2960 23204 10270 20226 40153 80006 333 56009 58003
AAXX 29064 48077 32559 20402 10290 20196 40152 81201 333 56909 59010
AAXX 29064 48078 32550 53603 10266 20207 40150 83531 333 56899 58009
AAXX 29064 48080 32562 20401 10324 20200 40136 81870 333 56990 58012
AAXX 29064 48094 32960 00902 10290 20220 40144 333 58011
AAXX 29064 48097 32957 00401 10300 20185 40114 333 58002
AAXX 29064 48108 31596 50503 10340 20206 40128 70522 82406 333 56209 58000
AAXX 29064 48109 32496 41403 10299 20239 40131 83530 333 56590 58009
AAXX 29064 48110 31996 21305 10330 20206 40117 70522 80005 333 56009 58000
AAXX 29064 48112 NIL
AAXX 29064 85406 12960 62602 10203 20145 40140 56022 60001 86020 333 56000 86465
AAXX 29064 85418 12960 41304 10196 20142 40145 50018 60001 84030 333 56000 84365
AAXX 29064 85442 12570 70000 10186 20147 40143 58002 60001 87500 333 56400 87622
AAXX 29064 85469 41565 71210 10213 20173 40198 52007 70282 87200 333 56300 87820
AAXX 29064 85488 12460 53003 10156 20126 40138 58013 60001 85500 333 56000 85617
AAXX 29064 68352 16/// /1714 10228 20019 39077 48530 57002 60034 333 20189 91032 555 10259 20030 91017
AAXX 29064 85874 32982 /2508 10085 21010 39552 40178 58001
AAXX 29064 85934 12580 52713 10087 20045 40089 54000 60001 85500 333 56600 85620
AAXX 29064 89056 11530 70000 10004 21005 49804 52013 60001 71022 82530 333 56450 82620 87358
AAXX 29064 89057 12570 30000 10004 21004 49800 52015 60001 83500 333 56500 83620
AAXX 29064 89058 32880 72902 10003 21016 39779 49800 52014 8703/
AAXX 29064 89059 12860 61530 10010 21035 49785 52014 60001 86060 333 56060 86356
AAXX 29064 89251 32462 80903 10010 21019 49787 52014 8801/
AAXX 29064 85574 11957 01606 10157 20112 39588 40137 58003 60001 70500
AAXX 29064 85577 12960 02302 10169 20116 39536 40141 58006 60001
AAXX 29064 85585 339// 92612 10166 20126 30168 40204 58004
AAXX 29064 85682 12258 70902 10127 20121 40148 58003 60001 87600 333 56800 87706
AAXX 29064 85743 12960 09903 10108 20096 40173 52003 60001
AAXX 29064 85799 12960 09903 10105 20103 40194 56004 60001
AAXX 29064 81405 04581 /0604 10253 20222 30118 40127 60001 700// 333 3/023 55058 60007 59009 70016 555 60005
AAXX 29064 78925 14586 80609 10260 20212 40165 57009 60001 700// 333 10296 20230 55080 21889 58001 79999
AAXX 29064 78862 11480 30910 10254 20208 30154 40177 60001 70180 83200 333 10278 20225 58001 83816
AAXX 29064 2817 83636
AAXX 29064 TAF TUPJ 281000Z 2812/2912 08013KT 9999 SCT022 PROB40 TEMPO 2812/2912 BKN015
AAXX 29064 TAF TKPN 281000Z 2812/2912 08013KT 9999 SCT022 PROB40 TEMPO 2812/2912 BKN015
AAXX 29064 2504/2512 06013G23KT SHRA
AAXX 29064 G28KT SHRA PROB30 TEMPO 2412/2424 07016G26KT SHRA
AAXX 29064 TAF TUPJ 232200Z 2400/2424 07016KT 9999 SCT020 SCT040 PROB40 TEMPO 2400/2412 07018G28KT SHRA TEMPO 2412/2424 07016G26KT SHRA
AAXX 29064 TAF TUPJ 041000Z 04012/0512 07008KT 9999 SCT016 BKN038 SCT270 TEMPO 0412/0512 SHRA BKN015 PROB40 TEMPO 0418/0512 5000 SHRA BKN014 BKN036 PROB30 0420/0512 4000 TSRA FEW012CB
AAXX 29064 918 4000 TSRA FEW012CB
AAXX 29064 N015 BKN036 PROB40 TEMPO 0704/0724 3000 +TSRA SCT011CB BKN012 BECMG 0712/0714 14008KT
AAXX 29064 21/2712 07017G28KT 5000 SHRA BKN015 BKN036 PROB TEMPO 2700/2712 4000 TSRA FEW013CB
AAXX 29064 PROB30 TEMPO 0800/0806 4000 TSRA FEW012CB PROB40 TEMPO 0800/0824 2000 +SHRA/TSRA SCT010CB BKN012 BKN250
AAXX 29064 78925 14586 80609 10260 20212 40165 57009 60001 700// 333 10296 20230 55080 21889 58001 79999
AAXX 29064 97180 01450 82304 10257 20257 30076 40094 58017 60061 76166 8227/ 333 56009 60057 82819 88459
AAXX 29064 85406 12960 62602 10203 20145 40140 56022 60001 86020 333 56000 86465
AAXX 29064 85418 12960 41304 10196 20142 40145 50018 60001 84030 333 56000 84365
AAXX 29064 85442 12570 70000 10186 20147 40143 58002 60001 87500 333 56400 87622
AAXX 29064 85469 41565 71210 10213 20173 40198 52007 70282 87200 333 56300 87820
AAXX 29064 85488 12460 53003 10156 20126 40138 58013 60001 85500 333 56000 85617
AAXX 29061 12772 11465 81903 10013 20007 39957 40251 56013 69912 70252 886// 333 20011 4/000 55000 70001 88716
AAXX 29061 12822 36/// /2003 10010 21014 30106 40254 58005 333 20010
AAXX 29061 12843 31568 82301 10020 20001 30080 40256 55006 70152 8557/ 333 20020 4/000 55000 85620
AAXX 29061 12882 11228 82102 10021 20020 30120 40256 57010 69912 71054 886// 333 20021 4/000 55000 70002 88704
AAXX 29061 12925 36/// /2201 11013 21023 30083 40262 55001 333 21021
AAXX 29061 12942 31202 83102 11007 21008 30000 40255 57008 74642 886// 333 21007 4/000 55002 88703
AAXX 29061 12982 31530 71102 10015 20005 30150 40255 57007 71022 875// 333 20011 4/000 55000 70003 87630
AAXX 29064 85574 11957 01606 10157 20112 39588 40137 58003 60001 70500
AAXX 29064 85577 12960 02302 10169 20116 39536 40141 58006 60001
AAXX 29064 85585 339// 92612 10166 20126 30168 40204 58004
AAXX 29064 85682 12258 70902 10127 20121 40148 58003 60001 87600 333 56800 87706
AAXX 29064 85743 12960 09903 10108 20096 40173 52003 60001
AAXX 29064 85799 12960 09903 10105 20103 40194 56004 60001
AAXX 29064 85874 32982 /2508 10085 21010 39552 40178 58001
AAXX 29064 85934 12580 52713 10087 20045 40089 54000 60001 85500 333 56600 85620
AAXX 29064 89056 11530 70000 10004 21005 49804 52013 60001 71022 82530 333 56450 82620 87358
AAXX 29064 89057 12570 30000 10004 21004 49800 52015 60001 83500 333 56500 83620
AAXX 29064 89058 32880 72902 10003 21016 39779 49800 52014 8703/
AAXX 29064 89059 12860 61530 10010 21035 49785 52014 60001 86060 333 56060 86356
AAXX 29064 89251 32462 80903 10010 21019 49787 52014 8801/
BBXX BATFR33 29064 99422 10034 46/// /3545 10122 20074 40252 58021 22284 00149
BBXX FVNM 29064 99094 70799 46/// /3211 10269 20239 40124 58010 22200 00277
BBXX BATFR15 29064 99353 70324 46/// /1717 10192 20157 40321 51014 22214 00189
BBXX BATFR13 29064 99396 70283 44696 31709 10149 20144 40356 56010 70200 8286/ 22254 00174
BBXX BATFR04 29064 99588 70072 46/// /2417 10059 20012 40022 22261 00105
BBXX BATFR31 29064 99433 10053 46/// /3607 10092 20084 40233 53011 22200 00129
BBXX BATFR54 29064 99490 70061 46/// /2929 10099 20025 40351 56005 22242 00114
BBXX BATFR09 29064 99381 10059 44498 50017 10140 20067 40261 53009 70222 85200 22263 00169 20202 306// 40504 5//// 60//0 ICE 0/0//
BBXX BATFR24 29064 99433 10054 46/// /3413 10092 20032 40241 53014 22200 00119
BBXX BATFR55 29064 99169 30545 44598 31113 10274 20237 40122 70111 82141 22232 00284 20802 32929 412// 512//
BBXX BATEU04 29064 99614 70494 46/// /1117 11063 21135 40153 58016 22273
BBXX BATFR53 29064 99186 51423 46/// /0514 10269 20204 40162 51020 22222 00274
BBXX BATFR20 29064 99414 10094 46/// ///// 10119 20072 40214 56019 22283
BBXX BATEU09 29064 99412 10089 46/// /2111 10125 20085 40220 56016 22222 00162
BBXX BATFR46 29064 99419 10034 46/// /3629 10130 20067 40263 58016 22282 00152
BBXX BATFR19 29064 99066 30057 46/// /1914 10237 20194 40144 53014 22200 00254
BBXX BATFR60 29064 99504 70009 46/// /2635 10090 20024 40282 53020 22263 00099
BBXX BATFR28 29064 99059 10833 46/// /2319 10282 20194 40096 58013 22262 00282
BBXX BATFR02 29064 99508 70011 46/// /2527 10077 20025 40279 56009 22282 00102
BBXX BATFR21 29064 99426 10089 46/// /1009 20345 40216 55009 22241
BBXX BATEU07 29064 99078 10930 46/// /1021 10284 40112 58020 22263
BBXX VOXS 29064 99467 70480 41/94 91425 10070 2007/ 40014 57019 74544 89/// 22200 04021 20403 316// 40806 80070
AAXX 29064 91503 31575 63604 10308 20241 40057 56007 70522 83936 333 56790 81820 81921 83627 86360
AAXX 29064 91517 01475 70000 10299 20244 40067 57010 60041 70522 8183/ 333 56699 69917 81816 83761
AAXX 29064 91503 31575 63604 10308 20241 40057 56007 70522 83936 333 56790 81820 81921 83627 86360
AAXX 29064 91517 01475 70000 10299 20244 40067 57010 60041 70522 8183/ 333 56699 69917 81816 83761
BBXX VOXS 29064 99467 70480 41/94 91425 10070 2007/ 40014 57019 74544 89/// 22200 04021 20403 316// 40806 80070
AAXX 29061 01001 NIL
AAXX 29061 01008 11589 13303 11141 21203 39986 40022 53003 60002 70110 81500 333 21155 44009 70000 91107
AAXX 29061 01010 41580 70912 10006 21048 39848 49863 57018 70222 81578 333 21010 91117
AAXX 29061 01026 NIL
AAXX 29061 01055 NIL
AAXX 29061 01062 NIL
AAXX 29061 01098 11X10 93305 11026 21038 39912 49930 50002 60022 78683 333 21032 70069 91115
AAXX 29061 01115 11470 71306 10015 21034 39779 49800 57018 69932 70282 81960 333 20000 70013 91109
AAXX 29061 01152 NIL
AAXX 29061 01205 NIL
AAXX 29061 01212 NIL
AAXX 29061 01271 16/// /0902 11009 21027 39773 49794 56011 60002 333 21013 42998 70001 91104
AAXX 29061 01288 16/// /0000 11006 21021 39060 49791 56014 6//// 333 21012 91107
AAXX 29061 01300 NIL
AAXX 29061 01317 NIL
AAXX 29061 01367 NIL
AAXX 29061 01384 11260 80701 10026 20019 39535 49777 56039 60042 76086 887// 333 20027 91110
AAXX 29061 01403 16/// /2925 10047 20030 39773 49840 50000 60072 333 20043 70115 91134
AAXX 29061 01415 16/// /2815 10054 20031 39852 49863 50003 6//// 333 20049 91128
AAXX 29061 01482 46/// /2618 10072 20031 39767 49774 55020 333 20063 91127
AAXX 29061 01492 NIL
AAXX 29061 01003 NIL
AAXX 29061 01007 11689 21201 11176 21227 30022 40032 52002 60002 70200 82500 333 21197 42/// 70000 91107
AAXX 29061 01028 NIL
AAXX 29061 01047 11688 70000 11112 21127 39538 49913 57021 69922 70271 87020 333 21180 47031 70002
AAXX 29061 01049 NIL
AAXX 29061 01078 NIL
AAXX 29061 01102 46/// /0105 10017 21002 39776 49795 57004 333 20007 91108
AAXX 29061 01160 NIL
AAXX 29061 01218 NIL
AAXX 29061 01238 41456 62901 11028 21037 38675 49783 55000 78583 84940 333 21028 49015 91115
AAXX 29061 01241 NIL
AAXX 29061 01281 NIL
AAXX 29061 01338 16/// /2302 10029 20017 39740 49805 53013 60012 333 20028 70048 91107
AAXX 29061 01359 NIL
AAXX 29061 01397 NIL
AAXX 29061 01400 NIL
AAXX 29061 01427 11460 82821 10054 20028 39861 49877 51015 60032 78086 8697/ 333 20046 70050 91129
AAXX 29061 01447 NIL
AAXX 29061 01448 46/// /2913 10057 20022 39856 49866 52034 333 20057 91127
AAXX 29061 78221 NIL
AAXX 29061 78224 31558 32601 10180 20159 30113 40189 58006 70544 83100 333 83830
AAXX 29061 78229 42559 11001 10194 20169 30126 40201 52010 8140/ 333 81425
AAXX 29061 78239 41559 70903 10231 20195 30172 40175 57010 70522 878// 333 86820
AAXX 29061 78244 NIL
AAXX 29061 78243 42559 42200 10184 20177 30063 40186 57010 84200 333 84820
AAXX 29061 78255 41911 00901 10196 20184 30036 40185 57010 71000
AAXX 29061 78264 31960 03602 10208 20188 30096 40170 57010 70000
AAXX 29061 78265 41058 00201 10189 20174 30077 40177 57010 71144
AAXX 29061 78256 NIL
AAXX 29061 78259 NIL
AAXX 29061 78268 NIL
AAXX 29064 78397 112570 22703 10262 20196 30139 40155 60001 82800 333 00200 10319 20219 59016 81822
AAXX 29064 91203 32474 30711 10317 20273 30097 40102 56014 82151 333 56299 70005 82818 83080 555 92906 91317 11474 40908 10294 20272 30064 40068 5//// 69951 70282 82101 333 562/9 70358 82818 555 92906
AAXX 29061 10004 NIL
AAXX 29061 10015 01556 73016 10057 20025 30074 40084 53012 60012 72586 878// 222// 02066 333 10080 20056 31005 55000 55300 20000 30000 69907 70011 85820 87635 91124 90258 91218 90333 91219 96010
AAXX 29061 10020 07565 72714 10061 20035 30003 40035 53011 60012 72365 333 10074 20057 3/005 55000 55300 20000 30000 69937 70016 84/31 87/56 87/58 91124 91217
AAXX 29061 10035 01456 82610 10051 20036 39999 40058 53001 60052 76366 888// 333 10068 20049 32004 55000 55300 20000 30000 41182 60037 70055 83816 87643 91119 91211
AAXX 29061 10055 01465 82311 10054 20040 30040 40050 56009 69972 76161 878// 333 10072 20054 32005 55000 55300 20000 30000 69977 70007 82819 87640 91122 91216
AAXX 29061 10147 01463 82408 10043 20027 30083 40102 55002 60022 76386 875// 333 10076 20041 32003 55004 55300 20000 30000 41195 60027 70019 82710 84617 85626 91118 91211
AAXX 29061 10162 01570 82410 10059 20025 30007 40090 56013 69902 76065 875// 333 10074 20058 31005 55012 55300 20000 30000 69907 79999 87624 91119 91212
AAXX 29061 10184 01769 72107 10061 20025 30068 40076 56016 69952 72161 875// 333 10075 20061 31004 55004 55300 20000 30000 69937 70005 87650 91115
AAXX 29061 10200 01970 72509 10063 20027 30125 40123 53003 60022 70162 80002 333 10080 20055 32005 55000 55300 20000 30000 60017 70019 87070 91117 91212
AAXX 29061 10224 01580 22409 10054 20028 30121 40127 56003 69922 70186 82500 333 10076 20053 31004 55000 55300 20000 30000 69927 70002 82627 91117 91212
AAXX 29061 10270 16560 52306 10059 20020 30076 40131 57007 69902 222// 06044 333 10064 20054 3/005 55041 55300 79999 81/29 85/50 91113
AAXX 29061 10338 12570 72408 10063 20021 30074 40147 55005 69942 875// 333 10077 20061 31005 55046 55300 20000 30000 70004 87628 91116
AAXX 29061 10361 11782 72304 10059 20011 30058 40163 53003 69902 70262 875// 333 10066 20048 31003 55051 55300 20000 30000 79999 87656 91113
AAXX 29061 10393 01465 62307 10048 20023 30025 40153 56003 69912 70162 86800 333 10052 20037 31001 55008 55300 20000 30000 69907 70001 82816 85644
AAXX 29061 10400 12681 72407 10049 20020 30163 40214 54000 69962 875// 333 10066 20041 31003 55020 55300 20000 30000 70006 87644 91113
AAXX 29061 10438 07681 81703 10046 20009 39917 40202 51006 69942 72265 333 10046 20024 3/001 55000 55300 69907 70004 82/39 88/50
AAXX 29061 10469 12682 52308 10047 20015 30012 40179 53002 60002 82504 333 10055 20038 31003 55015 55300 70000 82640 84073 91113
AAXX 29061 10488 11575 82406 10049 20016 39904 40189 53005 69902 70352 878// 333 10050 20017 31102 55059 55300 20000 30000 41121 79999 86822 87656
AAXX 29061 10506 01080 82707 10025 20000 39645 40241 50003 69912 76061 885// 333 10028 20013 31001 55000 55300 20000 30000 69907 70001 81701 85706 88614
AAXX 29061 10548 11580 62506 10029 21006 39668 40221 50004 69912 70165 85502 333 10035 20017 31001 55000 55300 20000 30000 70001 85630
AAXX 29061 10637 12681 72306 10048 20009 30102 40243 50005 69902 875// 333 10059 20038 31001 55000 55300 79999 87640
AAXX 29061 10685 NIL
AAXX 29061 10738 01584 82403 10033 20011 39787 40269 53006 69902 70262 8653/ 333 10054 20017 31103 55060 55300 69907 79999 83621 84630 87357
AAXX 29061 10763 01468 82403 10041 20026 39850 40240 53003 60012 72165 878// 333 10049 21004 31102 55000 55300 20000 30000 69977 70010 81810 83615 87645
AAXX 29061 10788 07548 80902 10006 20006 39806 40253 56005 69902 71076 333 10010 21008 3/103 55000 55300 20000 30000 69907 79999 84/21 87/49 88/57
AAXX 29061 10852 01570 82505 10035 20019 39677 40259 55002 69912 76062 885// 333 10037 21003 31104 55027 55300 20000 30000 69907 70001 88621
AAXX 29061 10946 07473 82504 10027 20016 39419 40268 56003 69972 75165 333 10032 21009 3/104 4/001 55067 55300 20000 30000 69947 70007 88/11
AAXX 29064 78897 14567 /0000 10215 20207 40175 58012 60021 700// 333 10292 20195 58001 70038
AAXX 29064 68396 12680 30000 10218 20173 39460 48520 51010 60094 83500 333 20180 555 10245 60085 91017
AAXX 29061 13579 32470 43303 11051 21067 39414 40297 57008 84600 333 21065 33/// 84715
AAXX 29064 78897 14567 /0000 10215 20207 40175 58012 60021 700// 333 10292 20195 58001 70038
AAXX 29064 85201 31140 72105 10062 20042 36312 57010 74022 82632 333 56200 59003 82702 84357 87070
AAXX 29064 85223 31570 30000 10148 20123 37520 47148 57010 70421 82530 333 56000 59015 82627
AAXX 29064 85244 31570 63307 10260 20233 39648 40073 56024 71322 82903 333 56707 59005 81820 81927 84070
AAXX 29061 10609 12480 82705 10043 20012 39924 40261 53005 69972 875// 333 10045 20025 31002 55000 55300 20000 30000 70008 82618 87625
AAXX 29061 10616 11370 72804 10021 20005 39638 40253 53007 69972 70351 875// 333 10028 20016 31001 55000 55300 70007 85609 87622
AAXX 29061 10641 15685 82104 10048 20010 30091 40241 53005 69902 333 10056 20042 3/002 55000 55300 79999 88/39
AAXX 29061 10655 01583 32808 10041 20007 39903 40239 53002 69922 70161 83500 333 10054 20018 31100 55013 55300 20000 30000 69927 70002 82631
AAXX 29061 10675 07981 72502 10039 20019 39938 40236 53004 69932 70065 333 10049 20006 3/102 55000 55300 20000 30000 69917 70003 84/70 87/73
AAXX 29061 10688 07456 72203 10032 20026 39698 40231 55002 69992 76165 333 10033 20006 3/101 55000 55300 20000 30000 69957 70009 84/10 87/15 87/19
AAXX 29061 10708 11465 72406 10036 20022 39875 40270 53003 69952 70262 875// 333 10049 20030 31002 55006 55300 20000 30000 70005 85710 85633
AAXX 29061 10729 17582 72103 10051 20013 30142 40267 52007 69902 70060 333 10066 20038 3/002 55013 55300 20000 30000 79999 85/30 86/35 87/43
AAXX 29061 10731 11475 42206 10049 20028 30118 40265 51005 69912 70161 84800 333 10064 20037 31002 55033 55300 20000 30000 70001 82810 83636
AAXX 29061 10742 07467 72605 10042 20024 39919 40258 52007 69922 70065 333 10052 20012 3/101 55040 55300 20000 30000 69907 70002 87/11 87/16 87/20
AAXX 29061 10776 01462 81903 10027 20015 39789 40244 55004 69902 70265 875// 333 10027 21003 31101 55000 55300 20000 30000 69907 79999 87612 96466 96456
AAXX 29061 10791 01/90 92615 11032 21033 38543 48486 56001 69982 77074 333 10000 21039 49096 55078 55300 69917 70008 91124 90258 91218 90326 91218 96049
AAXX 29061 10805 11681 62003 10053 20021 30087 40282 53004 69902 70162 86540 333 10055 20031 31100 55046 55300 20000 30000 79999 85639
AAXX 29061 10815 01463 82707 10006 21004 39308 48524 53003 60032 70362 875// 333 10026 20005 3/101 43009 55062 55300 20000 30000 69927 70029 87613 91113 96463
AAXX 29061 10836 01270 82708 10017 20016 39369 40259 53003 69922 72162 886// 333 10031 21002 31101 4/998 55050 55300 20000 30000 69927 70002 88705 91115 91211
AAXX 29061 10870 01580 82705 10035 20017 39709 40255 55003 69902 70262 885// 333 10038 21036 31106 55011 55300 69907 79999 82633 88656
AAXX 29061 10895 01460 82302 10001 21002 39668 40257 57004 69942 76874 8172/ 333 10012 21006 31100 41998 55000 55300 20000 30000 69947 70005 81710 88514 96479 96471 96445
AAXX 29061 10908 01/00 93008 11036 21037 38539 48532 55000 60042 74974 333 11008 21036 3/104 49073 55066 55300 20000 30000 60037 70036 89/01 91117 91214 96036 96271 96473
AAXX 29061 10929 01459 82602 10033 20022 39734 40279 55004 69912 76162 875// 222// 06052 333 10046 21010 31102 55014 55300 20000 30000 69917 70001 87613
AAXX 29061 10948 01465 81604 10010 20004 39306 48530 58007 69972 76877 885// 333 10027 21064 3/110 43025 55053 55300 20000 30000 69977 70007 81713 88630
AAXX 29061 10961 11/00 93308 11100 21114 37075 47042 56011 60022 77174 333 11024 21103 49200 55080 55300 20000 41047 70015 91120 91214 96049
AAXX 29061 10962 01170 82407 10006 20001 39087 48519 58005 69902 72287 875// 333 10043 20003 3/101 42003 55074 55300 20000 30000 69907 79999 85702 87650 91115 96271 96487 96485
AAXX 29061 10980 11/01 92615 11040 21047 38171 48522 58005 69992 77174 333 10025 21045 3/105 44070 55069 55300 20000 30000 70009 91124 90248 91218 90331 91219 96049 96471 96449
AAXX 29061 10007 NIL
AAXX 29061 10044 46/// /2415 10049 20024 30019 40051 53004 222// 00054 333 10075 20043 55000 55300 91127 91221
AAXX 29061 10046 11325 82610 10043 20022 30027 40066 52003 60052 76366 877// 333 10074 20036 32002 55000 70046 87709 91021 91121
AAXX 29061 10091 01475 82316 10051 20032 39994 40045 56023 69902 76111 878// 222// 06057 333 10069 20050 31004 55000 55300 20000 30000 69907 70002 82813 87625 91123 91217
AAXX 29061 10113 01561 72713 10064 20035 30090 40109 51011 60022 72565 878// 222// 06060 333 10074 20053 31004 55000 55300 20000 30000 60017 70023 84824 86650 91124 91216 96488
AAXX 29061 10124 46/// ///// 10070 2//// 30048 40086 53003 222// 00065 333 10075 20043 55/// 553// 911// 912//
AAXX 29061 10131 01563 72510 10062 20036 30078 40093 53003 60042 70265 875// 222// 02053 333 10074 20049 32004 55000 55300 20000 30000 60037 70038 81631 87656 91119 91212
AAXX 29061 10170 01580 82307 10068 20024 30055 40071 55017 69902 70262 875// 333 10079 20064 31005 55001 55300 20000 30000 69907 79999 87626 91117
AAXX 29061 10264 01578 82308 10059 20019 39998 40105 56012 69902 76062 885// 333 10069 20055 31004 55030 55300 20000 30000 69907 79999 88627 91115
AAXX 29061 10291 01580 52207 10057 20024 30053 40121 58011 69902 70151 85800 333 10065 20047 31004 55006 55300 20000 30000 69907 79999 81820 85643 91115
AAXX 29061 10315 01575 72409 10059 20027 30111 40176 52002 69932 72162 878// 333 10068 20056 31005 55015 55300 20000 30000 69907 70003 82820 87650 91114
AAXX 29061 10379 01682 52307 10047 20017 30019 40142 58009 69902 70361 85500 333 10058 20037 31001 55023 55300 20000 30000 41056 69907 79999 85649 91113
AAXX 29061 10382 11682 72408 10060 20018 30094 40139 57008 69902 70261 875// 333 10068 20050 31003 55021 55300 20000 30000 79999 87646 91113
AAXX 29061 10384 16/// /2205 10051 20023 30082 40143 56007 69902 333 10062 20048 3/002 55013 55300 20000 30000 79999
AAXX 29061 10427 01057 82611 11007 21007 39172 48462 55003 60022 71074 886// 333 10006 21008 3/101 42018 55000 55300 20000 30000 69907 70019 87701 91119 91213 96470 96469 96445
AAXX 29061 10430 01475 82408 10050 20019 39991 40186 54000 60012 72162 885// 333 10068 20050 31004 55055 55300 20000 30000 69907 70010 87619 91114
AAXX 29061 10439 11668 72104 10042 20012 39984 40208 51005 69902 70361 875// 333 10049 20033 31002 79999 87645
AAXX 29061 10453 11/90 92525 11029 21029 38787 48415 58008 60022 77174 333 11013 21030 3/103 49089 55044 55300 70022 91133 91225 96049 96036 96436
AAXX 29061 10496 01474 62305 10052 20023 30079 40165 56003 69902 70165 81131 333 10058 20028 31101 55016 55300 20000 30000 69907 79999 81815 85080
AAXX 29061 10499 01567 82306 10043 20022 39886 40180 55000 69922 75865 885// 333 10048 20030 31/// 55028 55300 20000 30000 69927 7//// 88620
AAXX 29061 10505 12480 72508 10040 20015 39947 40235 51005 69962 875// 333 10054 20036 31002 55018 55300 20000 30000 70006 82613 87630 91116
AAXX 29061 10513 12580 52404 10049 20013 30107 40231 53003 69922 85500 333 10069 20044 31003 55037 55300 20000 30000 70002 85632
AAXX 29061 10532 15575 72406 10041 20016 39970 40223 51005 69912 333 10045 20028 3/001 55000 55300 20000 30000 70001 83/21 87/36 87/50
AAXX 29061 10544 11/01 92609 11011 21011 39115 48479 53001 69932 74974 333 11001 21011 3/101 42007 55002 55300 70003 96147 96478 96477 96468 96456
AAXX 29061 10554 11684 22512 10036 21004 39799 40194 56007 69902 70161 82500 333 10045 20020 31101 55039 55300 20000 30000 79999 82640 91117 91213 96460
AAXX 29061 10567 12582 72608 10039 20009 39817 40199 55000 60002 8657/ 333 10045 20029 31002 55000 55300 20000 30000 70000 86626 85468
AAXX 29061 10578 11/01 92614 11021 21022 38769 48462 58002 69942 77144 333 11014 21027 3/103 48056 55075 55300 20000 30000 70004 91120 91218 90358 91218 96049
AAXX 29064 91203 32474 30711 10317 20273 30097 40102 56014 82151 333 56299 70005 82818 83080 555 92906 91317 11474 40908 10294 20272 30064 40068 5//// 69951 70282 82101 333 562/9 70358 82818 555 92906
AAXX 29064 78397 112570 22703 10262 20196 30139 40155 60001 82800 333 00200 10319 20219 59016 81822
AAXX 29064 91203 32474 30711 10317 20273 30097 40102 56014 82151 333 56299 70005 82818 83080 555 92906 91317 11474 40908 10294 20272 30064 40068 5//// 69951 70282 82101 333 562/9 70358 82818 555 92906
AAXX 29061 78221 NIL
AAXX 29061 78224 31558 32601 10180 20159 30113 40189 58006 70544 83100 333 83830
AAXX 29061 78229 42559 11001 10194 20169 30126 40201 52010 8140/ 333 81425
AAXX 29061 78239 41559 70903 10231 20195 30172 40175 57010 70522 878// 333 86820
AAXX 29061 78244 NIL
AAXX 29061 78243 42559 42200 10184 20177 30063 40186 57010 84200 333 84820
AAXX 29061 78255 41911 00901 10196 20184 30036 40185 57010 71000
AAXX 29061 78264 31960 03602 10208 20188 30096 40170 57010 70000
AAXX 29061 78265 41058 00201 10189 20174 30077 40177 57010 71144
AAXX 29061 78256 NIL
AAXX 29061 78259 NIL
AAXX 29061 78268 NIL
AAXX 29061 11816 11357 82003 10008 21011 30079 40248 57009 60002 71022 886// 333 20007 31001 79999 88707
AAXX 29061 11826 11457 82003 10013 21009 30043 40249 56006 60002 71022 886// 333 20012 31001 70000 88712
AAXX 29061 11903 11260 82303 10003 21007 39854 40247 57011 69942 70255 885// 333 20002 34000 70004 81705 88617
AAXX 29061 11934 12370 32405 11009 21028 39372 42801 56005 60002 83600 333 21036 34106 70001 81708 91010
AAXX 29061 11968 11256 82105 10014 20005 39947 40236 57013 69912 76166 885// 333 20007 32001 70008 84705 88650
AAXX 29064 89009 41961 20511 11266 36797 57001 70277 80008 333 82260
AAXX 29064 78948 11579 70610 10252 20225 30156 40164 69911 70581 878// 333 02299 10295 20248 58004 70001 81822 87640 90960
AAXX 29064 07005 02468 72816 10064 20011 30176 40268 58003 69902 87800 333 10078 20063 30006 55006 60007 70018 82814 87628 90710 91126 555 60005
AAXX 29064 07015 01982 52610 10045 20010 30193 40252 57003 69922 703// 80002 333 10075 20041 31003 55000 60007 70002 85073 90710 91116 93100 555 60005
AAXX 29064 07020 06/// /2820 10096 20033 30289 40316 55002 60002 333 10099 20091 55/// 60007 70024 90710 91132 555 60005
AAXX 29064 07027 04982 82308 10045 20015 30228 40312 50000 69902 700// 333 10066 20037 3/002 55016 60007 79999 90710 91115 555 60005
AAXX 29064 07037 02665 72407 10033 20024 30105 40296 58001 69922 8553/ 333 10066 20018 32102 55000 69907 70012 85635 87373 90710 91114 93100 555 60005
AAXX 29064 07070 04968 /2510 10031 20013 30170 40285 53005 69942 700// 333 10065 20031 3/002 55000 69927 70004 90710 91116 555 60005
AAXX 29064 07110 01580 43007 10065 20042 30233 40352 58004 69942 70286 84800 333 10078 20056 32004 55018 60007 70010 82826 90710 91114 93100 555 60005
AAXX 29064 07117 01562 72714 10086 20040 30263 40335 58004 60002 70282 878// 333 10092 20073 60007 90710 91131 92447 555 60005
AAXX 29064 07130 04982 /2606 10026 20011 30292 40347 53002 69902 700// 333 10066 20026 3/001 55010 60007 79999 90710 91111 555 60005
AAXX 29064 07139 02960 02806 10014 20001 30146 40329 53002 60002 333 10074 20010 31103 55000 60007 70008 90710 91109 93100 555 60005
AAXX 29064 07149 02470 42709 10036 20013 30190 40303 53002 60002 81501 333 10075 20027 31001 55000 60007 70002 81615 84075 90710 91114 93100 555 60005
AAXX 29064 07181 04467 82609 10035 20025 39867 40291 53005 69962 700// 333 10052 20027 3/002 55/// 60007 70006 90710 91114 555 60005
AAXX 29064 07190 04683 /1804 10024 20000 30091 40281 53005 69902 700// 333 10072 20021 35100 55036 60007 79999 90710 91108 555 60005
AAXX 29064 07207 02665 13316 10093 20035 60002 81100 222// 327// 333 10097 20087 60007 90710 91127 92437 555 60005
AAXX 29064 07222 01960 03104 10025 20015 30323 40356 53002 60002 702// 333 10089 20025 30100 55012 60007 70006 90710 91108 555 60005
AAXX 29064 07240 01965 02706 10020 20010 30197 40339 53004 69982 702// 333 10086 20016 31000 55000 60007 70010 90710 91110 93100 555 60005
AAXX 29064 07255 02960 02704 10016 20013 30128 40338 53006 60032 333 10081 20016 32000 55034 60007 70028 90710 91106 93100 555 60005
AAXX 29064 07280 04969 /2602 10022 20012 30030 40315 53007 69962 700// 333 10035 20017 35101 55000 60007 70006 90710 91110 555 60005
AAXX 29064 07299 01575 32610 10044 20023 39951 40289 53004 69902 70161 82530 333 10056 20001 31101 55066 60007 79999 82631 90710 91117 93100 555 60005
AAXX 29064 07314 02968 13314 10093 20039 30337 40366 53004 60002 81070 333 10111 20089 55/// 60007 70002 81458 90710 91120 555 60005
AAXX 29064 07335 02980 02803 10019 20007 30201 40353 52004 69902 333 10082 20019 31000 55008 60007 70004 90710 91108 555 60005
AAXX 29064 07434 01207 63004 10003 21001 39853 40358 51007 60022 74141 86500 333 10062 20003 32101 55008 60007 70022 82703 85623 90710 91107 93100 555 60005
AAXX 29064 07460 01570 30603 10021 21002 39931 40338 53008 69902 703// 83800 333 10092 20021 31101 55080 60007 79999 82821 90710 91105 93100 555 60005
AAXX 29064 07471 01470 73110 10014 21017 39317 48891 53005 69922 70162 87500 333 10044 20012 31100 55082 60007 70002 87617 90710 91118 93100 555 60005
AAXX 29064 07481 01450 83407 10031 20027 30015 40315 53008 60012 70162 885// 333 10031 21010 32103 55/// 69927 70010 82614 83624 88634 90710 91108 93100 555 60005
AAXX 29064 07510 02962 02503 10013 20007 30300 40369 51006 60012 333 10104 20012 31101 55015 60007 70016 90710 91104 93100 555 60005
AAXX 29064 07535 02460 53004 10031 20030 30029 40356 51012 60012 85500 333 10076 20031 31002 55036 60007 70014 83710 83616 90710 91108 93100 555 60005
AAXX 29064 07558 01365 63319 10025 20002 39447 40313 53019 69902 70362 86800 333 10055 20025 31002 55084 60007 79999 83806 86616 90710 91130 93100 555 60005
AAXX 29064 07577 02570 40211 10077 20017 30185 40277 55002 60002 84500 333 10079 20012 30000 55040 60007 70000 84626 90710 91118 93100 555 60005
AAXX 29064 07591 04/// /0304 11019 21047 39204 4//// 58012 60002 700// 333 10041 21019 3/105 55073 60007 70000 90710 91111 555 60005
AAXX 29064 07607 04904 /2101 10018 20011 30300 40375 51010 60012 745// 333 10103 20018 3/102 55024 60007 70012 90710 91103 555 60005
AAXX 29064 07621 04686 82004 10049 20040 39930 40380 53013 60062 700// 333 10095 20048 3/004 55051 69967 70056 90710 91107 555 60005
AAXX 29064 07627 01460 83008 10053 20025 39864 40370 53020 60122 72162 885// 333 10088 20053 32004 55077 60037 70121 88613 90710 91114 93100 555 69925
AAXX 29064 07630 02480 73111 10064 20047 30173 40360 53020 60012 87500 333 10100 20055 31005 55046 60007 70016 87611 90710 91117 93100 555 60005
AAXX 29064 07643 02/84 33108 10087 20027 30267 40277 53008 60002 80002 333 10106 20043 30001 55085 60007 70000 83073 90710 91115 555 60005
AAXX 29064 07650 02982 23320 10089 20041 30198 40237 55008 60002 82040 333 10089 20008 30102 55084 60007 70000 82364 90710 91126 93100 555 60005
AAXX 29064 07661 02970 02905 10076 20003 30045 40209 58015 60002 333 10102 20057 55/// 60007 70000 90710 91109 555 60005
AAXX 29064 07690 02584 53313 10061 21004 30178 40213 56013 60002 85500 333 10087 20059 30005 55085 60007 70000 85625 90710 91120 93100 555 60005
AAXX 29064 07747 02684 73218 10103 20033 30255 40309 53013 69902 85501 333 10130 20097 30008 55083 69907 79999 85640 85073 91030 90710 91130 555 69905
AAXX 29064 07761 02568 20509 10056 20028 30207 40218 56021 60002 82501 333 10080 20038 30003 55084 60007 70000 82630 90710 91114 93100 555 60005
AAXX 29064 07790 04586 /2206 10049 20014 30205 40220 56014 60002 700// 333 10079 20042 3/001 55084 60007 70000 90710 91108 555 60005
BBXX CGDS 29064 99433 70798 46/// /3204 11071 21113 40174 58007 7//// 8//// 22200 0//// 2////
BBXX VCXF 29064 99464 70484 41/90 91625 10060 2006/ 49990 57031 74744 89/// 22200 02028 20403 316// 40805 80060
AAXX 29064 91408 11474 80605 10288 20259 30037 40075 57017 60031 70298 82278 333 56999 70102 555 92906
AAXX 29064 03005 11570 83026 10027 21032 39855 49955 52016 60022 70282 885// 90550 333 20018 31001 55003 55300 20000 70108 81620 87648 90710 91142 91038
AAXX 29064 03017 17765 /3017 10032 21040 39982 40014 58004 60012 723// 90550 333 20029 3/001 55000 55300 20000 70054 81/50 90710 91128 91027
AAXX 29064 03023 15565 /2622 10074 20035 30051 40056 58034 60022 90550 333 20037 3/002 70038 81/28 84/63 90710 91129
AAXX 29064 03026 NIL
AAXX 29064 03063 17482 /2204 10011 21001 39792 40073 56010 60042 761// 90550 333 20008 3/101 55000 55300 20000 70270 81/15 86/33
AAXX 29064 03066 15682 /2413 10030 20002 30050 40056 57015 60012 90550 333 20024 3/001 55012 55300 20000 70036 82/42 85/57
AAXX 29064 03075 15968 /2611 10011 21016 39984 40029 58005 60032 90550 333 20011 3/101 70094 8//99
AAXX 29064 03091 15781 /2506 10026 21017 39980 40061 50003 69962 90550 333 20025 3/000 55033 55300 20000 70010 81/50
AAXX 29064 03100 17565 /3013 10063 20050 30070 40086 58021 60042 723// 90550 333 20047 3/003 55000 55300 20000 70080 84/23
AAXX 29064 03111 16467 /2823 10071 20050 30105 40117 57012 60082 90550 333 20037 3/002 70134 85/16 83/59 90710 91141
AAXX 29064 03134 17429 /3010 10047 20034 30026 40099 56018 60062 763// 90550 333 20027 3/002 55003 55300 20000 70142 86/19 84/57
AAXX 29064 03136 17480 /2711 10052 20035 30078 40111 56016 60092 723// 90550 333 20047 3/003 55000 55300 20137 70124 81/19 85/50
AAXX 29064 03162 17450 /2509 10026 20010 39828 40120 56021 60062 762// 90550 333 20014 3/001 55000 55300 20000 70114 86/12 84/50
AAXX 29064 03166 17784 /2413 10042 20025 30015 40085 58021 69922 761// 90550 333 20024 3/001 55000 55300 20000 70090 81/50
AAXX 29064 03171 12784 32308 10022 20001 30066 40078 58011 60002 82501 90550 333 20022 31101 55015 55300 20000 70010 82650
AAXX 29064 03204 11470 72622 10072 20038 30143 40163 57023 69922 72162 875// 90550 333 20063 31005 55019 55300 20000 70002 81715 85622 87640 90710 91133
AAXX 29064 03240 17784 /2514 10044 20021 30063 40092 58020 69902 723// 90550 333 20040 3/003 55042 55300 20000 70010 81/50 85/67
AAXX 29064 03257 17974 /2624 10058 20029 30084 40125 58034 69942 781// 90550 333 20043 3/002 55024 55300 20000 70004 84/68 90710 91134
AAXX 29064 03292 165// /2410 10059 20023 30118 40137 58016 60002 90550 333 20053 3/004 70000 86/24 84/68
AAXX 29064 03302 NIL
AAXX 29064 03354 17569 /2517 10050 20021 30031 40176 58040 69922 781// 90550 333 20050 3/004 55027 55300 20000 70006 84/21 86/32 90710 91130 91030
AAXX 29064 03377 11680 82419 10057 20011 30092 40177 56022 69922 76086 885// 90550 333 20050 3/003 55023 55300 20000 70002 85634 88650 90710 91127
AAXX 29064 03414 17561 /2516 10059 20046 30110 40199 58023 69942 761// 90550 333 20053 3/003 55035 55300 20000 70006 86/26 84/37 90710 91125
AAXX 29064 03462 17671 /2317 10055 20011 30105 40196 58024 69922 781// 90550 333 20048 3/003 55021 55300 20000 70004 81/34 85/50 90710 91128
AAXX 29064 03482 15968 /2417 10049 20005 30170 40196 56012 60002 90550 333 20044 3/003 79999 88/61 90710 91128
AAXX 29064 03502 15561 /2734 10079 20038 30074 40238 58024 60002 90550 333 20062 3/005 55033 55300 20000 70004 84/28 86/50 90710 91149 91045
AAXX 29064 03535 17572 /2410 10064 20019 30084 40203 58024 69902 723// 90550 333 20049 3/003 55026 55300 20000 79999 87/27 83/50
AAXX 29064 03590 NIL
AAXX 29064 03649 12675 72206 10052 20015 30135 40238 57017 60002 8557/ 90550 333 20039 31001 55020 55300 2//// 79999 85637 87365
AAXX 29064 03716 15671 /2720 10087 20043 30193 40254 58022 60002 90550 333 20067 3/005 55015 55300 20000 70012 85/32 86/60 90710 91131 91031
AAXX 29064 03740 16569 /2413 10056 20020 30072 40252 57013 60002 90550 333 20040 3/002 55028 55300 2//// 70000 83/26 83/50 90710 91126
AAXX 29064 03746 15565 /2615 10055 20019 30105 40262 57015 60002 90550 333 20038 3/001 70004 81/23 84/32 90710 91125
AAXX 29064 03772 15971 /2415 10056 20013 30215 40246 58011 60002 90550 333 20044 3/002 55009 55300 20000 70002 87/66
AAXX 29064 03796 46/// /2716 10047 20004 30096 40242 58003 90550 333 20043
AAXX 29064 03803 NIL
AAXX 29064 03808 11670 43018 10085 20035 30204 40312 58011 69962 72581 84130 90550 333 20069 31005 55025 55300 20000 70008 84830 90710 91127
AAXX 29064 03809 11465 42916 10078 20034 30218 40312 58009 69922 71500 84800 90550 333 20061 31004 70018 81716 83620 90710 91130 91026
AAXX 29064 03827 15762 /2615 10073 20033 30238 40301 58015 69902 90550 333 20062 3/004 70016 81/50
AAXX 29064 03840 15571 /2510 10043 20022 39968 40282 58014 69902 90550 333 20042 3/002 70020 84/27
AAXX 29064 03853 15865 /2107 10049 20020 30246 40271 58016 69902 90550 333 20047 3/002 55013 55300 20000 70008 82/57
AAXX 29064 03874 46/// /2721 10067 20031 30257 40269 58011 90550 333 20057 90710 91127
AAXX 29064 03882 15964 /2609 10050 20011 30193 40259 58002 60002 90550 333 20044 3/001 55010 55300 20000 70018 82/63 87/70
AAXX 29064 03894 12581 32819 10083 20029 40318 57007 69902 83802 333 20067 31004 83828 90710 91128
AAXX 29064 03917 17582 /2715 10055 20025 30076 40154 57020 60022 761// 90550 333 20038 3/002 55003 55300 20000 70044 81/27 83/58 90710 91125 91025
AAXX 29064 89009 41961 20511 11266 36797 57001 70277 80008 333 82260
BBXX 42039 29061 99288 70860 46/// /1902 10169 40202 58012 90550 22200 00226 10701 20401 300// 40701 70006 333 91203 555 11017 22018 30541 42004 60549 192018 204022 194018 184017 213014 188013 82103 90533
BBXX 41040 29061 99145 70530 46/// /0710 10264 20214 40169 58013 90550 22200 00270 10905 20704 3//// 40902 70024 333 91212 555 11108 22114 30455 40912 60549 069100 071101 071100 070100 070102 072100 80811 90455
BBXX 41010 29061 99289 70785 46/// /3002 10176 40196 58006 90550 22200 00236 10802 20401 300// 40802 70011 333 91205 555 11024 22024
BBXX 41009 29061 99285 70802 46/// /3003 10171 20054 40205 58006 90550 22200 00238 10802 20401 300// 40802 70010 333 91205 555 11026 22026
BBXX 42057 29061 99168 70815 46/// /0606 10269 20214 40161 58012 90550 22200 00275 10802 20501 3//// 40801 70009 333 91208 555 11062 22065 30542 40508 60549 060061 050058 054061 056061 051063 056060 80507 90542
AAXX 29064 61901 169// /1211 10155 20130 39685 40197 53006 69962 90550 333 20146 3/014 70008 8//99 90710 91128 555 7/090
AAXX 29064 61902 12575 71305 10228 20197 40160 69904 878// 333 20224 58005 82824 87632
AAXX 29064 88878 46/// /2529 10120 20084 40042 52002 555 1//37
AAXX 29064 88889 12784 22816 10096 20054 39960 40044 51007 60001 81531 90550 333 79999 81650 90710 91131
BBXX 46082 29061 99597 71434 46/// ///// 10000 49811 53026 90550 22200 00059 10806 70030
BBXX 46072 29061 99517 71722 46/// /3205 11024 21056 40103 51020 90550 22200 00044 11004 20402 3//// 41003 70019 333 91207 555 11050 22051 30458 43214 60549 316047 323069 327094 323092 324108 323105 83213 90456
BBXX 46035 29061 99571 71778 46/// /3209 1//// 40120 52011 90550 22200 10804 20804 300// 41101 70019 333 91211 555 11094 22100 30537 43112 60549 318094 323097 321061 320063 325069 307073 83311 90534
BBXX 46077 29061 99579 71543 46/// /2611 11074 21128 49881 53005 90550 22200 00044 10604 20604 70019 333 91213 555 11114 22119 30543 42513 60549 256107 258096 256093 250095 253089 249088 82512 90543
BBXX 51101 29061 99243 71621 46/// /1009 10232 20182 40219 54000 90550 22200 00237 11405 20803 333// 41404 70025 333 91212 555 11094 22099 30546 41112 60549 102087 097089 093086 097084 092080 098084
BBXX 46061 29061 99602 71468 46/// /3406 11020 49788 53014 90550 22200 00045 11204 20501 300// 41204 70020 333 91207 555 11060 22062 30503 43308 60549 337058 337049 332049 339057 337059 336057
BBXX VCXF 29064 99464 70484 41/90 91625 10060 2006/ 49990 57031 74744 89/// 22200 02028 20403 316// 40805 80060
AAXX 29061 01015 NIL
AAXX 29061 01023 NIL
AAXX 29061 01033 NIL
AAXX 29061 01059 11482 80000 11042 21062 39927 49937 57013 69942 70282 8232/ 333 21051 70020 91108
AAXX 29061 01089 16/// /2802 11052 21070 39828 49935 58008 6//// 333 21052 91105
AAXX 29061 01167 31587 71102 11010 21087 39848 49853 56021 70321 8457/ 333 21032 70020 91107
AAXX 29061 01180 NIL
AAXX 29061 01210 16/// /1802 10039 20015 39776 49802 53009 6//// 333 20039 91110
AAXX 29061 01228 NIL
AAXX 29061 01240 16/// /0206 10031 20010 39777 49796 55000 6//// 333 20030 91109
AAXX 29061 01304 46/// /0000 10053 20032 39772 49802 53015 333 20043 91100
AAXX 29061 01311 NIL
AAXX 29061 01340 NIL
AAXX 29061 01355 16/// ///// 10026 20014 39797 49802 53018 69972 333 20020 70016
AAXX 29061 01360 NIL
AAXX 29061 01392 11370 81601 10031 20019 39568 49788 56041 60032 78082 888// 333 20026 70081 91108
AAXX 29061 01406 NIL
AAXX 29061 01411 16/// /2822 10058 20038 39814 49839 58003 6//// 333 20054 91128
AAXX 29061 01425 NIL
AAXX 29061 01433 46/// /2807 11017 21030 38580 49809 50012 333 21018 91116
AAXX 29061 01442 NIL
AAXX 29061 01450 NIL
AAXX 29061 01452 11682 22608 10053 20009 39842 49863 53036 60062 70120 82500 333 20052 70162 91124
AAXX 29061 01473 11640 82702 10037 20022 39579 49781 55004 69952 75122 8744/ 333 20029 43011 70025 91110
AAXX 29061 01494 16/// /2606 10057 20050 39700 49763 55042 60062 333 20053 70092 91117
BBXX 46026 29061 99378 71228 46/// /3105 10112 40272 53003 90550 22200 00114 11104 20501 326// 41104 70018 333 91208 555 11056 22059 30548 43108 60549 307052 295049 298035 295019 299022 299037
BBXX 46041 29061 99474 71247 46/// /2510 10100 40089 51045 90550 22200 00088 11108 20805 3//// 41106 70040 333 91212 555 11104 22113 30500 42414 60549 249096 252092 252099 254094 253099 251102
BBXX 44007 29061 99435 70701 46/// /2813 11028 21084 49988 53022 90550 22200 00077 11303 20402 3//// 41302 70015 333 91216 555 11133 22140 30457 42817 60549 278126 281118 272123 268128 276136 271140
BBXX 46072 29061 99517 71722 46/// /3205 11024 21056 40103 51020 90550 22200 00044 11004 20402 3//// 41003 70019 333 91207 555 11050 22051 30458 43214 60549 316047 323069 327094 323092 324108 323105 83213 90456
BBXX 51004 29061 99175 71524 46/// /0411 10232 20182 90550 555 11116 22123
BBXX 51002 29061 99171 71578 46/// /0711 10242 40186 52012 90550 22200 00248 333 91213 555 11113 22120 30546 40713 60549 068106 066099 065094 066095 066094 066095
BBXX 51100 29061 99236 71539 46/// /0908 10226 40248 51012 90550 22200 00229 11905 20703 329// 41904 70026 333 91209 555 11082 22087 30524 40910 60549 090076 085079 083085 081083 079084 078074
AAXX 29061 02741 17473 32109 10048 20034 39881 49896 57031 60012 70000 81/// 90539 333 10049 20042 3/003
AAXX 29061 02755 17143 81604 10002 20001 39740 49834 57047 60062 77170 88/// 90539 333 10002 21048 3//// 4/011
AAXX 29061 02805 37782 70103 11074 21089 39804 49939 57012 72487 87/// 90539 333 11021 21076 3/109
AAXX 29061 02807 47699 72402 11145 21155 39750 49941 700// 86/// 90600 333 11098 21147 3////
AAXX 29061 02836 37263 80000 11146 21159 39696 49929 57025 78587 88/// 90539 333 11146 21185 3/122 4/033
AAXX 29061 02845 47658 80605 11095 21100 39646 49901 57034 77187 88/// 90539 333 11089 21128 3/115 4/042
AAXX 29061 02849 47113 91302 11108 21117 39646 49928 57035 77787 90539 333 11107 21176 3////
AAXX 29061 02866 17310 91004 11047 21049 39725 49875 57062 60012 77170 90539 333 11047 21088 3/111 4/031
AAXX 29061 02897 47519 81306 11023 21030 39682 49863 771// 88/// 90600 333 11023 21062 3////
AAXX 29061 02913 47459 82006 10026 20020 39778 49829 761// 88/// 333 10026 21014 3////
AAXX 29061 02917 47257 81708 10002 20001 39758 49879 761// 88/// 90600 333 10002 21038 3////
AAXX 29061 02924 47256 81902 10017 20017 39669 49863 57026 76187 88/// 90539 333 10017 21026 3/103
AAXX 29061 02926 17479 82104 10044 20026 39870 49882 56018 60062 722// 88/// 90600 333 10045 20010 3////
AAXX 29061 02935 17259 71703 10012 20011 39709 49880 57028 60052 78187 87/// 90539 333 10013 21021 3/103 4/007
AAXX 29061 02944 47470 82005 10031 20022 39752 49897 700// 88/// 90600 333 10032 21007 3////
AAXX 29061 02947 47370 72103 10020 20014 49919 57031 70088 87/// 90551 333 10020 21029
AAXX 29061 02963 12480 82105 10038 20029 49909 57025 60034 70222 886// 333 1//// 2//// 31104
AAXX 29061 02974 11350 82309 10044 20029 39870 49935 57027 60032 78186 885// 333 10049 20016 32001
AAXX 29061 02976 46/// /2212 10041 20033 39928 49944 57036 90539 333 10041 20024 3////
AAXX 29061 02981 17459 32116 10061 2//// 39911 49921 57030 69972 75185 83/// 90539 333 10061 20049 3////
AAXX 29061 02982 46/// /2315 10060 20043 39927 49934 57026 90539 333 10060 20041 3////
AAXX 29061 02939 NIL
BBXX BATEU05 29064 99578 10098 46/// /2641 10069 49850 51014 22261
BBXX BATEU08 29064 99590 70360 46/// /2818 10002 21050 40169 58004 22223
AAXX 29061 02741 17473 32109 10048 20034 39881 49896 57031 60012 70000 81/// 90539 333 10049 20042 3/003
AAXX 29061 02755 17143 81604 10002 20001 39740 49834 57047 60062 77170 88/// 90539 333 10002 21048 3//// 4/011
AAXX 29061 02805 37782 70103 11074 21089 39804 49939 57012 72487 87/// 90539 333 11021 21076 3/109
AAXX 29061 02807 47699 72402 11145 21155 39750 49941 700// 86/// 90600 333 11098 21147 3////
AAXX 29061 02836 37263 80000 11146 21159 39696 49929 57025 78587 88/// 90539 333 11146 21185 3/122 4/033
AAXX 29061 02845 47658 80605 11095 21100 39646 49901 57034 77187 88/// 90539 333 11089 21128 3/115 4/042
AAXX 29061 02849 47113 91302 11108 21117 39646 49928 57035 77787 90539 333 11107 21176 3////
AAXX 29061 02866 17310 91004 11047 21049 39725 49875 57062 60012 77170 90539 333 11047 21088 3/111 4/031
AAXX 29061 02897 47519 81306 11023 21030 39682 49863 771// 88/// 90600 333 11023 21062 3////
AAXX 29061 02913 47459 82006 10026 20020 39778 49829 761// 88/// 333 10026 21014 3////
AAXX 29061 02917 47257 81708 10002 20001 39758 49879 761// 88/// 90600 333 10002 21038 3////
AAXX 29061 02924 47256 81902 10017 20017 39669 49863 57026 76187 88/// 90539 333 10017 21026 3/103
AAXX 29061 02926 17479 82104 10044 20026 39870 49882 56018 60062 722// 88/// 90600 333 10045 20010 3////
AAXX 29061 02935 17259 71703 10012 20011 39709 49880 57028 60052 78187 87/// 90539 333 10013 21021 3/103 4/007
AAXX 29061 02944 47470 82005 10031 20022 39752 49897 700// 88/// 90600 333 10032 21007 3////
AAXX 29061 02947 47370 72103 10020 20014 49919 57031 70088 87/// 90551 333 10020 21029
AAXX 29061 02963 12480 82105 10038 20029 49909 57025 60034 70222 886// 333 1//// 2//// 31104
AAXX 29061 02974 11350 82309 10044 20029 39870 49935 57027 60032 78186 885// 333 10049 20016 32001
AAXX 29061 02976 46/// /2212 10041 20033 39928 49944 57036 90539 333 10041 20024 3////
AAXX 29061 02981 17459 32116 10061 2//// 39911 49921 57030 69972 75185 83/// 90539 333 10061 20049 3////
AAXX 29061 02982 46/// /2315 10060 20043 39927 49934 57026 90539 333 10060 20041 3////
AAXX 29061 02939 NIL
BBXX BATFR52 29064 99488 70022 46/// /3118 10097 20039 40325 51019 22233 00109
BBXX BATFR42 29064 99507 70019 46/// /2617 10072 20024 40279 56024 22271 00122
BBXX BATFR14 29064 99494 10010 46/// /2505 10060 20029 40291 58001 22200 00072
BBXX BATFR56 29064 99058 10945 46/// /0913 10282 20280 40098 58024 22213 00299
AAXX 29064 48698 01462 83604 10278 20239 30092 40110 60001 70522 83848 333 60007 81612 86277
AAXX 29064 48698 01462 83604 10278 20239 30092 40110 60001 70522 83848 333 60007 81612 86277
AAXX 29064 91408 11474 80605 10288 20259 30037 40075 57017 60031 70298 82278 333 56999 70102 555 92906
AAXX 29061 76040 32902 02901 10083 20031 30201 40215 52004 90545 333 10216 20037 30/// 55094 59003 98602
AAXX 29061 76225 32720 22702 10084 21056 38663 40175 54003 82030 90540 333 10184 20040 30/// 55081 56060 58/// 82356
AAXX 29061 76323 32910 00000 10042 21103 38314 40199 52006 90540 333 10218 20026 30/// 58001
AAXX 29061 76342 32940 01802 10110 20043 39523 40226 52004 90550 333 10268 20078 30/// 55077 20502 59002
AAXX 29061 76373 32910 00000 10020 20160 38252 40208 52043 90555 333 10240 21025 30/// 55078 21674 59001
AAXX 29061 76382 32960 00000 10090 20038 38933 40173 57002 90550 333 10238 20030 30/// 55056 2//// 59012
AAXX 29061 76393 31920 02201 10150 20060 39614 40184 57002 70500 90550 333 10268 20080 30/// 55053 59028
AAXX 29061 76402 32950 00000 10118 20061 30111 40167 52001 90546 333 10302 20076 30/// 55084 2//// 58///
AAXX 29061 76423 32960 00000 10077 21069 38178 40148 52006 90548 333 10245 21015 30/// 55064 21031 59015
AAXX 29061 76458 32960 00302 10151 20141 30151 40155 52003 90540 333 10237 20085 30/// 55085 59004
AAXX 29061 76525 32960 00406 10110 21132 37489 40119 54000 90540 333 10184 20092 30/// 55090 22773 59016
AAXX 29061 76548 32960 00202 10170 20167 30189 40199 50004 90540 333 10252 20108 30/// 55077 59056
AAXX 29061 76556 32960 01402 10168 20122 39129 40128 58002 90530 333 10296 20132 30/// 55089 59015
AAXX 29061 76571 32910 00000 10154 21052 38182 40114 52014 90550 333 10260 20044 30/// 55088 59018
AAXX 29061 76577 32960 10000 10150 20126 38054 40111 52005 81080 90540 333 10246 20084 30/// 55064 56050 59021
AAXX 29061 76593 32950 01404 10192 20183 30180 40182 57005 90550 333 10268 20218 30/// 55094 21320 59027
AAXX 29061 76644 32350 11203 10200 20173 30167 40180 57002 81200 90550 333 10295 20195 30/// 55073 21111 561// 59033 81810
AAXX 29061 76654 31956 00000 10246 20215 30155 40159 52003 70544 90550 333 10304 20225 30/// 55071 20942 59004
AAXX 29061 76675 32960 02102 10056 20014 37392 40115 54003 90550 333 10222 20050 30/// 55076 2//// 59016
AAXX 29061 76683 32960 00000 10095 20049 37846 40185 50003 90550 333 10230 20040 30/// 50291 55090 21828 59014
AAXX 29061 76685 32950 00301 10120 20024 37883 40116 52006 90545 333 10238 20058 30/// 55103 59025
AAXX 29061 76695 32956 00000 10194 20188 30153 40159 58008 90545 333 10294 20188 30/// 55061 59036
AAXX 29061 76750 32558 33201 10204 20202 30162 40172 57008 82107 90545 333 10295 20212 31/// 55014 56106 59020 82820
AAXX 29061 76775 32960 00501 10147 20052 38538 40146 52010 90545 333 10276 20080 30/// 55082 59030
AAXX 29061 76805 32960 03101 10240 20237 30141 40144 50004 90540 333 10324 20218 30/// 55095 20957 56/// 59017
AAXX 29061 76845 32930 00000 10102 20095 37965 40165 58003 90545 333 10206 20110 30/// 55081 59019
AAXX 29061 76848 32450 10201 10135 20111 38396 40109 58006 81600 90550 333 10220 20127 30/// 55041 56100 59027 81710
AAXX 29061 76243 32970 02602 10108 20000 39903 40196 52015 90530 333 10236 20026 30/// 55070 59029
AAXX 29061 76311 32920 00000 10129 20062 39877 40149 50012 90553 333 10338 20088 30/// 55072 59010
AAXX 29061 76412 32960 00000 10116 20105 30128 40175 52005 90536 333 10280 20062 30/// 55073 59013
AAXX 29061 76647 32965 00802 10193 20179 30155 40185 58009 90550 333 10303 20190 30/// 55079 59021
AAXX 29061 76040 32902 02901 10083 20031 30201 40215 52004 90545 33310216 20037 30/// 55094 59003 98602
AAXX 29061 76225 32720 22702 10084 21056 38663 40175 54003 82030 90540333 10184 20040 30/// 55081 56060 58/// 82356
AAXX 29061 76323 32910 00000 10042 21103 38314 40199 52006 90540 33310218 20026 30/// 58001
AAXX 29061 76342 32940 01802 10110 20043 39523 40226 52004 90550 33310268 20078 30/// 55077 20502 59002
AAXX 29061 76373 32910 00000 10020 20160 38252 40208 52043 90555 33310240 21025 30/// 55078 21674 59001
AAXX 29061 76382 32960 00000 10090 20038 38933 40173 57002 90550 33310238 20030 30/// 55056 2//// 59012
AAXX 29061 76393 31920 02201 10150 20060 39614 40184 57002 70500 90550333 10268 20080 30/// 55053 59028
AAXX 29061 76402 32950 00000 10118 20061 30111 40167 52001 90546 33310302 20076 30/// 55084 2//// 58///
AAXX 29061 76423 32960 00000 10077 21069 38178 40148 52006 90548 33310245 21015 30/// 55064 21031 59015
AAXX 29061 76458 32960 00302 10151 20141 30151 40155 52003 90540 33310237 20085 30/// 55085 59004
AAXX 29061 76525 32960 00406 10110 21132 37489 40119 54000 90540 33310184 20092 30/// 55090 22773 59016
AAXX 29061 76548 32960 00202 10170 20167 30189 40199 50004 90540 33310252 20108 30/// 55077 59056
AAXX 29061 76556 32960 01402 10168 20122 39129 40128 58002 90530 33310296 20132 30/// 55089 59015
AAXX 29061 76571 32910 00000 10154 21052 38182 40114 52014 90550 33310260 20044 30/// 55088 59018
AAXX 29061 76577 32960 10000 10150 20126 38054 40111 52005 81080 90540333 10246 20084 30/// 55064 56050 59021
AAXX 29061 76593 32950 01404 10192 20183 30180 40182 57005 90550 33310268 20218 30/// 55094 21320 59027
AAXX 29061 76644 32350 11203 10200 20173 30167 40180 57002 81200 90550333 10295 20195 30/// 55073 21111 561// 59033 81810
AAXX 29061 76654 31956 00000 10246 20215 30155 40159 52003 70544 90550333 10304 20225 30/// 55071 20942 59004
AAXX 29061 76675 32960 02102 10056 20014 37392 40115 54003 90550 33310222 20050 30/// 55076 2//// 59016
AAXX 29061 76683 32960 00000 10095 20049 37846 40185 50003 90550 33310230 20040 30/// 50291 55090 21828 59014
AAXX 29061 76685 32950 00301 10120 20024 37883 40116 52006 90545 33310238 20058 30/// 55103 59025
AAXX 29061 76695 32956 00000 10194 20188 30153 40159 58008 90545 33310294 20188 30/// 55061 59036
AAXX 29061 76750 32558 33201 10204 20202 30162 40172 57008 82107 90545333 10295 20212 31/// 55014 56106 59020 82820
AAXX 29061 76775 32960 00501 10147 20052 38538 40146 52010 90545 33310276 20080 30/// 55082 59030
AAXX 29061 76805 32960 03101 10240 20237 30141 40144 50004 90540 33310324 20218 30/// 55095 20957 56/// 59017
AAXX 29061 76845 32930 00000 10102 20095 37965 40165 58003 90545 33310206 20110 30/// 55081 59019
AAXX 29061 76848 32450 10201 10135 20111 38396 40109 58006 81600 90550333 10220 20127 30/// 55041 56100 59027 81710
AAXX 29061 76243 32970 02602 10108 20000 39903 40196 52015 90530 33310236 20026 30/// 55070 59029
AAXX 29061 76311 32920 00000 10129 20062 39877 40149 50012 90553 33310338 20088 30/// 55072 59010
AAXX 29061 76412 32960 00000 10116 20105 30128 40175 52005 90536 33310280 20062 30/// 55073 59013
AAXX 29061 76647 32965 00802 10193 20179 30155 40185 58009 90550 33310303 20190 30/// 55079 59021
BBXX CGUM 29064 99447 70636 46/// /2506 10041 20006 49880 51015 7//// 8//// 22200 0//// 2////
BBXX CZ9742 29064 99506 70969 46/// /2802 11064 21067 4//// 5//// 7//// 8//// 22200 0//// 2////
BBXX CG2958 29064 99531 71291 46/// /2907 10064 20043 49983 51053 7//// 8//// 22200 0//// 2////
BBXX CG2965 29064 99487 71235 46/// /2523 10107 20054 40021 53023 7//// 8//// 22200 0//// 2////
BBXX CGDX 29064 99468 70712 46/// /2526 11118 21164 49971 53017 7//// 8//// 22200 0//// 2////
BBXX VOFG 29064 99456 70614 46/// /2414 10062 20031 49839 51023 7//// 8//// 22200 0//// 2////
BBXX VCRG 29064 99474 70619 46/// /2006 10043 20041 49783 56034 7//// 8//// 22200 0//// 2////
BBXX CGBN 29064 99447 70636 46/// /1801 10045 20009 49877 52014 7//// 8//// 22200 0//// 2////
BBXX CG2350 29064 99433 70798 46/// /3104 11074 21114 40166 58008 7//// 8//// 22200 0//// 2////
BBXX CG2960 29064 99429 70824 46/// /1503 11063 21118 40161 58015 7//// 8//// 22200 0//// 2////
BBXX VOKF 29064 99490 70669 46/// /2328 11060 21077 49805 53002 7//// 8//// 22200 0//// 2////
BBXX CGJK 29064 99484 71234 46/// /2433 10099 20076 40036 53036 7//// 8//// 22200 0//// 2////
AAXX 29061 11423 NIL
AAXX 29061 11487 01363 82706 10027 20018 39589 40224 57002 69902 702// 886// 333 21014 31104 60005 70001 88707 91011 91113
AAXX 29061 11518 02470 72507 10034 20014 39763 40210 50002 60002 8657/ 333 20002 31101 60005 79999 83615 85646 87463 91112
AAXX 29061 11603 01457 82105 10025 20003 39706 40198 53001 69912 760// 885// 333 20021 32002 69905 70001 82613 87619
AAXX 29061 11659 01358 82703 10022 20012 39566 40218 55002 69902 710// 886// 333 20005 31100 60005 70002 88707
AAXX 29061 11723 01230 81703 10007 21004 39928 40236 55005 69902 71022 886// 333 20006 31001 60005 79999 88704
AAXX 29061 11782 02470 82108 10019 21011 39905 40218 55002 60002 885// 333 20019 31002 60005 70000 88616 91113
AAXX 29064 78016 32664 72815 10193 20119 30154 40158 53007 87800 333 10222 20192 70023
AAXX 29061 01025 16/// /0804 11006 21054 39874 49885 56019 69942 333 21016 44003 70075 91108
AAXX 29061 01052 16/// /0608 11045 21085 39833 49933 57013 60012 333 21054 70036 91110
AAXX 29061 01122 NIL
AAXX 29061 01132 NIL
AAXX 29061 01156 NIL
AAXX 29061 01203 NIL
AAXX 29061 01233 16/// /2701 11008 21015 69932 333 21010 70003 91115
AAXX 29061 01265 NIL
AAXX 29061 01273 NIL
AAXX 29061 01307 46/// /2603 10063 20028 39775 49801 53009 333 20046 91112
AAXX 29061 01321 NIL
AAXX 29061 01327 11265 80701 10004 21006 60212 70276 8772/ 333 21001 44055 91107
AAXX 29061 01350 16/// /3108 11027 21034 38423 49773 55000 60022 333 21038 70046 91112
AAXX 29061 01361 NIL
AAXX 29061 01375 NIL
AAXX 29061 01378 NIL
AAXX 29061 01385 16/// /0501 10015 20009 39521 49786 56031 60022 333 20013 70023 91107
AAXX 29061 01412 16/// /2921 10053 20038 39845 49874 50009 60072 333 20046 70134 91134
AAXX 29061 01422 NIL
AAXX 29061 01440 NIL
AAXX 29061 01441 NIL
AAXX 29061 01467 NIL
AAXX 29061 01469 NIL
AAXX 29061 01477 NIL
AAXX 29061 01480 16/// /3403 10044 20031 60012 333 20034 70040 91107
AAXX 29061 01484 16/// /1103 10031 20010 39615 49767 56057 60032 333 20029 91113
AAXX 29061 01490 16/// /0603 10008 20008 60042 333 20008 70145 91113
AAXX 29061 01495 NIL
AAXX 29061 01037 NIL
AAXX 29061 01046 NIL
AAXX 29061 01058 16/// /1301 11071 21083 39461 49933 56014 60002 333 21115 4/016 70000 91104
AAXX 29061 01065 NIL
AAXX 29061 01092 NIL
AAXX 29061 01107 16/// /0508 10019 2//// 39820 49824 57012 60002 333 20008 70003 91115
AAXX 29061 01114 NIL
AAXX 29061 01144 46/// /0811 10003 21053 333 21001 91118
AAXX 29061 01199 NIL
AAXX 29061 01245 NIL
AAXX 29061 01259 16/// /0601 10020 20002 39774 49796 56004 69992 333 20017 70010 91106
AAXX 29061 01262 NIL
AAXX 29061 01278 11985 51301 11032 21041 39693 49796 57009 69902 70311 80006 333 21032 48011 70001
AAXX 29061 01293 16/// /0000 11023 21032 39591 49798 56013 60002 333 21031 70000 91104
AAXX 29061 01329 NIL
AAXX 29061 01337 NIL
AAXX 29061 01344 NIL
AAXX 29061 01364 NIL
AAXX 29061 01373 16/// /0000 10005 21002 39593 49792 56008 60002 333 21017 70003 91106
AAXX 29061 01374 NIL
AAXX 29061 01380 16/// /3101 11021 21030 6//// 333 21025 4/028 91111
AAXX 29061 01389 NIL
AAXX 29061 01393 NIL
AAXX 29061 01424 11460 8//// 10050 20011 39817 49820 50003 60252 76362 887// 333 20024
AAXX 29061 01431 16/// /2602 10008 21003 39191 49843 50014 60232 333 20005 91117
AAXX 29061 01436 NIL
AAXX 29061 01465 11975 12613 10064 20019 39823 49840 53036 60012 70262 80001 333 20064 70045 91127
AAXX 29061 01471 11465 83102 10016 20006 69982 76362 8772/ 333 20012 70026 91106
AAXX 29061 01483 NIL
AAXX 29061 01121 46/// /1303 10004 21048 39790 49802 57013 333 20000 91111
AAXX 29061 01135 NIL
AAXX 29061 01143 16/// /0905 10002 21062 60002 333 21034 70000 91111
AAXX 29061 01150 NIL
AAXX 29061 01192 NIL
AAXX 29061 01225 46/// /1703 10048 20011 39792 49797 53002 333 20039 91105
AAXX 29061 01230 NIL
AAXX 29061 01232 NIL
AAXX 29061 01234 16/// /2304 11023 21033 60002 333 21024 70000 91106
AAXX 29061 01253 NIL
AAXX 29061 01254 NIL
AAXX 29061 01257 NIL
AAXX 29061 01277 NIL
AAXX 29061 01291 NIL
AAXX 29061 01332 16/// /0000 10013 20001 60042 333 20010 70072 91103
AAXX 29061 01366 46/// /0000 11065 21076 38210 49804 55001 333 21065 91110
AAXX 29061 01370 NIL
AAXX 29061 01376 16/// /0603 10019 20013 60042 333 20017 70077 91107
AAXX 29061 01383 46/// /1603 10006 20005 39487 49794 57028 333 20005 91108
AAXX 29061 01386 NIL
AAXX 29061 01416 16/// ///// 10045 20044 60132 333 20042 70224
AAXX 29061 01419 NIL
AAXX 29061 01430 16/// ///// 10051 20016 60052 333 20051 70090
AAXX 29061 01434 16/// /3601 11003 21023 38858 49801 50012 60042 333 21016 70077 91104
AAXX 29061 01455 NIL
AAXX 29061 01468 16/// /1103 10026 20011 60032 333 20026 70066 91109
AAXX 29061 01470 NIL
AAXX 29061 01476 NIL
AAXX 29061 01481 NIL
AAXX 29061 01488 NIL
AAXX 29064 68386 16/// /1608 10244 20165 39713 48638 52005 60084 333 20198 91016 555 10300 20084 91025
BBXX VRYO3 29064 99456 70735 46/// /0000 11138 21134 40065 53023 7//// 8//// 22200 0//// 2////
BBXX CGHL 29064 99476 70527 46/// /0000 10034 20032 49944 56048 7//// 8//// 22200 0//// 2////
BBXX CGCC 29064 99460 70731 46/// /2405 11134 21201 40055 52024 7//// 8//// 22200 0//// 2////
BBXX CGDR 29064 99484 71234 46/// /2522 10097 20095 40041 53039 7//// 8//// 22200 0//// 2////
BBXX VCLM 29064 99468 70712 46/// /2517 11123 21167 49969 52018 7//// 8//// 22200 0//// 2////
BBXX CGJV 29064 99457 70627 46/// /2322 10040 20010 49837 53010 7//// 8//// 22200 0//// 2////
BBXX CGBR 29064 99507 71275 46/// /0903 10060 20059 40035 51063 7//// 8//// 22200 0//// 2////
BBXX VXKF 29064 99462 70602 46/// /2220 10068 20049 49801 55030 7//// 8//// 22200 0//// 2////
BBXX VCSZ 29064 99455 70735 46/// /2411 11139 21178 40074 53025 7//// 8//// 22200 0//// 2////
BBXX VCWL 29064 99468 70712 46/// /2506 11122 21172 49980 53019 7//// 8//// 22200 0//// 2////
BBXX VOPP 29064 99456 70735 46/// /2408 11146 21204 4//// 5//// 7//// 8//// 22200 0//// 2////
BBXX VOKJ 29064 99498 70628 46/// /1115 10022 20022 49758 57072 7//// 8//// 22274 0//// 2////
BBXX 3FZK3 29064 99493 71230 46/// /2307 10095 20093 40017 51033 7//// 8//// 22200 0//// 2////
BBXX CGBY 29064 99487 71235 46/// /2517 10108 20057 40022 53026 7//// 8//// 22200 0//// 2////
BBXX CGSB 29064 99479 70695 46/// /3210 11091 21136 49910 53011 7//// 8//// 22200 0//// 2////
BBXX VOLG 29064 99465 70546 46/// /1521 10031 20030 49918 58070 7//// 8//// 22264 0//// 2////
BBXX CGDG 29064 99447 70636 46/// /2417 10035 20067 49875 52014 7//// 8//// 22200 0//// 2////
BBXX VCBW 29064 99467 70714 46/// /2635 11118 21169 49946 50015 7//// 8//// 22200 0//// 2////
BBXX VAAP 29064 99446 70635 46/// /2414 10041 20010 49869 51014 7//// 8//// 22200 0//// 2////
BBXX CGDT 29064 99468 70712 46/// /2416 11122 21170 49979 53019 7//// 8//// 22200 0//// 2////
BBXX CGTF 29064 99476 70527 46/// /3301 10031 20030 49944 56048 7//// 8//// 22200 0//// 2////
AAXX 29061 01152 11580 80911 10000 21044 39803 49819 57015 69902 77173 8457/ 333 21009 70019 91118
AAXX 29061 01078 16/// /3504 11018 21064 39925 49938 50000 6//// 333 21021 91113
AAXX 29064 78016 32664 72815 10193 20119 30154 40158 53007 87800 333 10222 20192 70023
AAXX 29064 78016 32664 72815 10193 20119 30154 40158 53007 87800 333 10222 20192 70023
AAXX 29064 43533 12460 73206 10300 20202 30123 40126 60001 81102 333 58000 81818 87077
AAXX 29064 43555 12460 53408 10298 20220 30124 40127 60001 81101 333 58007 81819 85080
AAXX 29064 43577 12460 52906 10306 20254 30125 40127 60001 81202 333 58008 81818 85077
AAXX 29064 43588 12465 62908 10302 20251 30122 40124 60001 82208 333 58009 82818 86277
AAXX 29064 43599 11459 72709 10297 20250 30125 40127 60001 70522 82202 333 58010 82818 87075
AAXX 29064 43533 12460 73206 10300 20202 30123 40126 60001 81102 333 58000 81818 87077
AAXX 29064 43555 12460 53408 10298 20220 30124 40127 60001 81101 333 58007 81819 85080
AAXX 29064 43577 12460 52906 10306 20254 30125 40127 60001 81202 333 58008 81818 85077
AAXX 29064 43588 12465 62908 10302 20251 30122 40124 60001 82208 333 58009 82818 86277
AAXX 29064 43599 11459 72709 10297 20250 30125 40127 60001 70522 82202 333 58010 82818 87075
AAXX 29061 02947 47/70 72103 10020 20014 49919 57031 70088 87/// 90551 333 10020 21029 3////
BBXX 44011 29061 99411 70666 46/// /2616 10062 20014 40000 53022 90550 22200 00091 11111 20707 3//// 41109 70057 333 91220 555 11166 22176 30525 40920 60549 265155 267155 266162 267157 260148 264151
AAXX 29064 60150 32960 01704 10036 21007 39639 40324 51003 333 20019 30001
AAXX 29064 60155 32956 018// 10086 20054 40296 53001 333 20082 31005
AAXX 29064 60096 NIL
AAXX 29064 60101 NIL
AAXX 29064 60115 NIL
AAXX 29064 60135 NIL
AAXX 29064 60156 NIL
AAXX 29064 60230 NIL
AAXX 29064 60252 NIL
AAXX 29064 60127 32960 00000 10030 20004 39705 40331 5/001 333 20025 31001
AAXX 29064 60141 32960 02008 10010 21026 39628 40331 50003 333 20002
AAXX 29064 60190 32960 00804 10025 20004 40318 53005 333 20018 30101
AAXX 29064 60191 32960 00000 10010 20001 40322 5//// 333 20005 30102
AAXX 29064 60265 32970 03301 10000 21066 38980 48578 56007 333 20000
AAXX 29064 60060 NIL
AAXX 29064 60105 NIL
AAXX 29064 60106 NIL
AAXX 29064 60107 NIL
AAXX 29064 60185 NIL
AAXX 29064 60195 NIL
AAXX 29064 60210 NIL
AAXX 29064 60220 NIL
AAXX 29064 60318 NIL
AAXX 29064 60285 32956 01004 10106 20094 40274 5//// 333 20103
AAXX 29064 60340 NIL
AAXX 29061 14528 11001 90000 11038 21049 39939 40252 57020 60003 74544 333 10003 21038 3/105 43002 55000 70000 89/00
AAXX 29061 14537 11/02 92501 11047 21047 30058 40256 57020 60003 74544 333 10003 21050 3/106 43007 55059 70000 89///
AAXX 29061 14544 11/01 90000 11070 21070 39576 40286 57012 60003 74542 333 10028 21075 3/109 43006 55056 70000 89///
AAXX 29061 14557 11001 90000 11053 21069 39878 40268 56005 60002 7474/ 333 10038 21056 34107 55035 70000 89/01
AAXX 29061 14640 12670 10000 11088 21088 39383 48489 57012 60003 81100 333 10057 21090 34111 55081 70000 81846
AAXX 29061 11812 36/// /2502 11021 21021 39523 42816 57008 333 21025 3////
AAXX 29061 11813 12160 89901 11006 21013 39890 40252 57007 60002 886// 333 21006 31100 79999 88703
AAXX 29061 11816 11357 82003 10008 21011 30079 40248 57009 60002 71022 886// 333 20007 31001 79999 88707
AAXX 29061 11819 36/// /2003 10008 21005 30027 40251 57010 333 20008 3/000
AAXX 29061 11826 11457 82003 10013 21009 30043 40249 56006 60002 71022 886// 333 20012 31001 70000 88712
AAXX 29061 11841 12475 72404 10005 21011 39847 40234 58004 60002 876// 333 20005 31000 70000 84711 87613
AAXX 29061 11855 12460 81602 10011 21000 30080 40251 57009 60002 885// 333 20011 31001 70003 88619
AAXX 29061 11856 16/// /0000 10002 21017 39923 40252 57012 69912 333 20001 3/000
AAXX 29061 11858 11550 89901 10014 21010 30098 40255 57006 60002 71022 885// 333 20014 31001 70000 88623
AAXX 29061 11867 12461 82002 10005 21020 39919 40246 58009 60002 886// 333 20005 31000 79999 88715
AAXX 29061 11880 11562 80000 10007 20007 30076 40253 57008 60002 70252 885// 333 20007 3/000 41998 70001 88623
AAXX 29061 11900 16/// /2001 10006 21015 39907 40253 57012 69902 333 20005 3//// 79999
AAXX 29061 11903 11260 82303 10003 21007 39854 40247 57011 69942 70255 885// 333 20002 34000 70004 81705 88617
AAXX 29061 11916 12/89 13006 11034 21081 37951 48463 58007 60002 81140 333 21041 3//// 44048 70000 818// 91013 91120 93598 444 18//9 76141
AAXX 29061 11918 12575 42410 11007 21020 39370 42797 58009 60002 84500 333 21025 3/104 41998 70000 84626
AAXX 29061 11927 11140 89902 10009 20006 39977 40247 57012 69982 72854 885// 333 20007 32001 70011 82703 88616
AAXX 29061 11930 12689 12508 11029 21132 37340 47019 57020 60002 81041 333 21029 3//// 44031 70000 81333 91016 444 67145
AAXX 29061 11933 12984 12604 11027 21044 38656 48470 57013 60002 80001 333 21043 3/107 48037 70001 81068 91010 93401 444 57102
AAXX 29061 11934 12370 32405 11009 21028 39372 42801 56005 60002 83600 333 21036 34106 70001 81708 91010
AAXX 29061 11938 11040 82206 11027 21032 39136 42806 56009 69912 74022 886// 333 21027 3/102 44016 70012 81700 88706
AAXX 29061 11952 16/// /1003 11025 21029 39365 42802 57003 60002 333 21045 3/106 70000
AAXX 29061 11958 36/// /2011 11051 21059 38750 48477 57005 333 21051 3////
AAXX 29061 11968 11256 82105 10014 20005 39947 40236 57013 69912 76166 885// 333 20007 32001 70008 84705 88650
AAXX 29061 11976 11456 81603 10017 20007 39959 40230 56009 69912 75052 885// 333 20008 3/001 41998 70005 83710 88620
AAXX 29061 11978 12560 81704 10021 20017 30105 40239 57014 60002 885// 333 20014 32002 70000 84623 87640
AAXX 29061 11993 11362 81803 10023 20016 30015 40237 57017 69952 76166 885// 333 20021 31002 70005 86709 88632
AAXX 29061 14648 12970 13401 10019 21009 30129 40254 57010 60002 81030 333 20008 31102 55080 70000 81360
AAXX 29061 14652 12984 02702 11043 21067 37944 48515 57011 60002 333 21044 3//// 49067 55074 70000
AAXX 29061 14542 11/01 92901 11040 21040 30063 40264 57006 69912 74574 333 21040 3/104 42997 55045 70001 89/01 95990
AAXX 29064 89642 41470 82701 10021 21015 39710 49762 53020 70272 888// 333 55003 21639 82813 88650
AAXX 29064 64500 32359 71804 10256 20233 30108 40121 845// 333 02450 20220 50431 55038 58017 84608 87633
AAXX 29064 81401 06/// /0000 10214 20206 30121 40127 60001 333 55/// 60007 59006 7//// 555 60005
AAXX 29064 81408 06/// /2801 10237 2//// 30115 40123 60111 333 55/// 60087 59009 7//// 555 60025
BBXX VAAZ 29064 99/// ///// 46/// /1719 10032 20029 49959 56065 7//// 8//// 22200 0//// 2////
BBXX 46089 29061 99459 71258 46/// /2512 10106 20092 40131 53039 90550 22200 00095 11108 20805 325// 41106 70041 333 91215 555 11126 22136 30534 42515 60549 249115 246116 249101 250107 248101 251099
AAXX 29061 02947 47/70 72103 10020 20014 49919 57031 70088 87/// 90551 333 10020 21029 3////
AAXX 29063 91502 31470 73203 10308 20254 40060 58009 71522 82936 333 56699 82817 81918 87280
AAXX 29063 91507 31475 33206 10322 20264 40066 55004 70510 82931 333 56799 82819 81920
AAXX 29063 91520 01470 73204 10301 20224 40065 55011 60021 70522 8397/ 333 56699 69907 82819 81920 87360
AAXX 29063 91541 31475 60000 10265 20243 40077 57014 71522 83970 333 56600 82816 81917 86360
BBXX 44008 29061 99405 70692 46/// /2815 10052 20003 40047 53024 90550 22200 00104 11110 21110 70048 333 91218 555 11155 22163 30503 42819 60549 279144 279144 284145 286147 285149 279147
BBXX 44172 29061 99445 70634 46/// ///// 1//// 90601 22200 00059 11107 21006 318// 41104 70035
BBXX 44097 29061 99410 70711 46/// ///// 1//// 90602 22200 00114 11107 20806 322// 41104 70035
AAXX 29063 91502 31470 73203 10308 20254 40060 58009 71522 82936 333 56699 82817 81918 87280
AAXX 29063 91507 31475 33206 10322 20264 40066 55004 70510 82931 333 56799 82819 81920
AAXX 29063 91520 01470 73204 10301 20224 40065 55011 60021 70522 8397/ 333 56699 69907 82819 81920 87360
AAXX 29063 91541 31475 60000 10265 20243 40077 57014 71522 83970 333 56600 82816 81917 86360
BBXX 44100 29061 99363 70756 46/// ///// 1//// 90552 22200 00124 11402 21002 308// 41401 70011
BBXX 41110 29061 99341 70777 46/// ///// 1//// 90551 22200 00136 11701 20701 312// 41701 70006
BBXX 42099 29061 99273 70842 46/// ///// 1//// 90557 22200 00233 10702 20702 70008
BBXX 41113 29061 99284 70805 46/// ///// 1//// 90551 22200 00217 10901 20901 70004
BBXX 41112 29061 99307 70813 46/// ///// 1//// 90551 22200 00166 10301 20301 70004
AAXX 29061 11423 01/02 92705 10005 20004 39327 42815 53005 60012 770// 333 21005 3/101 44997 69975 70011 89/01 91114
BBXX 51204 29061 99213 71581 46/// ///// 1//// 90552 22200 00243 11803 20502 331// 41802 70013
BBXX 51201 29061 99217 71581 46/// ///// 1//// 90542 22200 00241 11804 21003 331// 41803 70022
BBXX 51202 29061 99214 71577 46/// ///// 1//// 90539 22200 00240 11004 21004 306// 41102 70022
AAXX 29064 78615 11482 20000 10204 20201 30042 40180 58010 60051 70165 82500 333 10272 20204 32/// 56800 59024 82616
AAXX 29064 78627 32582 80000 10130 20112 38187 50002 885// 333 10238 20110 30/// 562// 59013 88620
AAXX 29064 78637 32482 30000 10208 20205 30157 40173 58009 83500 333 10278 20204 30/// 56200 59023 83618
AAXX 29064 78641 32482 63612 10142 20132 38568 40164 58001 86500 333 10234 20138 30/// 56800 59008 86612
AAXX 29064 78647 31982 00000 10220 20214 30138 40145 50002 70240 333 10320 20200 30/// 59005
AAXX 29064 85558 12597 82408 10149 20134 40158 54003 60001 886// 333 56099 88720
AAXX 29064 85564 12597 83602 10135 20119 40154 57006 60001 885// 333 56799 88630
AAXX 29064 85834 12597 32640 10100 20080 40162 57011 83400 333 56600 83620
AAXX 29064 85931 12997 02420 10104 20074 40088 54003
AAXX 29064 85970 11494 82675 00105 10073 20032 49987 52/// 60011 78088 887// 333 56600 88716
AAXX 29064 85972 11496 83328 10072 20072 49979 52009 60001 75052 887// 333 56799 88618
AAXX 29064 89057 12570 30000 10004 21004 49800 52015 60001 83500 333 56500 83620
AAXX 29064 78615 11482 20000 10204 20201 30042 40180 58010 60051 70165 82500 333 10272 20204 32/// 56800 59024 82616
AAXX 29064 78627 32582 80000 10130 20112 38187 50002 885// 333 10238 20110 30/// 562// 59013 88620
AAXX 29064 78637 32482 30000 10208 20205 30157 40173 58009 83500 333 10278 20204 30/// 56200 59023 83618
AAXX 29064 78641 32482 63612 10142 20132 38568 40164 58001 86500 333 10234 20138 30/// 56800 59008 86612
AAXX 29064 78647 31982 00000 10220 20214 30138 40145 50002 70240 333 10320 20200 30/// 59005
AAXX 29064 61968 16/// /2802 10310 20234 40125 60004 333 20241 55/// 58003 90710 91107 555 60005
AAXX 29064 61970 16/// ///// 10316 20250 40116 60004 333 20277 55/// 59010 555 60005
AAXX 29064 61972 16/// /3407 10289 20240 40105 60004 333 20248 55/// 59001 90710 91110 555 60005
AAXX 29064 61980 12565 20710 10280 20227 40140 60004 82831 333 02000 20227 55060 58002 82828 90710 91114 92437 555 60005
AAXX 29064 67005 12570 33307 10299 20236 40123 60034 83800 333 02319 20247 55038 59004 83823 90710 91113 555 60005
BBXX DBLK 29061 99554 30000 41498 82711 11004 21026 49866 52034 71582 878// 22283 05007 20503 328// 41008
AAXX 29064 16008 NIL
AAXX 29064 16084 12865 10000 11030 21030 30056 40233 56007 60002 81030 333 21034 34/// 55080 20520 81357
AAXX 29064 16088 12960 00903 11004 21004 30112 40235 55010 60002 333 21024 34/// 55/// 2//// 92600
AAXX 29064 16110 12998 60604 10078 20042 30226 40230 56008 60002 86030 333 20046 30/// 55075 20638 86359 555 0////
AAXX 29064 16134 12988 00000 10002 21067 37830 48511 56011 60002 333 20002 44020 55085 2//// 92835
AAXX 29064 16153 12998 32005 10094 20078 39958 40226 57017 60002 83030 333 20092 30/// 55080 2//// 83359 555 0////
AAXX 29064 16158 11560 61204 10046 20023 30220 40228 57014 60002 70222 86800 333 20010 32/// 55083 2//// 55300 82825 84630
AAXX 29064 16206 12980 00407 10004 21018 30221 40230 56014 60002 333 21004 30/// 55/// 2////
AAXX 29064 16219 42965 00000 11032 21032 38120 48513 56/// 6///2 333 21032 40003 55082 2//// 92873 9500/ 9510/
AAXX 29064 16252 12968 00000 10020 21016 39270 42824 57015 60002 333 20018 31/// 55018 2//// 95000
AAXX 29064 16280 12598 31703 10098 20058 30000 40224 57015 60002 83200 333 20096 30/// 55080 2//// 83820 555 0////
AAXX 29064 16310 12898 43305 10090 20017 30000 40226 56020 60002 84050 333 20086 30/// 558.2 2//// 84358 555 0////
AAXX 29064 16320 11958 02310 10030 20017 30222 40235 57019 60002 71000 333 20028 31102 55070 20753 55300 555 0100/
AAXX 29064 16325 12997 02909 10032 20004 30214 40229 57011 60002 333 20032 30/// 55/// 2//// 98065 555 0100/
AAXX 29064 16360 12897 10206 10072 20036 30104 40242 56019 60002 81030 333 20072 30/// 55074 2//// 81357 555 0000/
AAXX 29064 16400 12497 53203 10096 20070 39944 40239 56012 60002 84270 333 20096 30/// 55068 2//// 55300 84818 555 0217/
AAXX 29064 16420 11597 60000 10112 20078 30159 40226 57012 69902 70262 82576 333 20112 31/// 55077 2//// 82625 83358 90960 96460 555 0100/
AAXX 29064 16429 11456 83601 10090 20084 30215 40227 56007 69922 76065 8685/ 333 20064 32/// 55014 2//// 55300 83813 83633 88358
AAXX 29064 16470 12560 53600 10120 20094 39987 40226 54000 60002 84130 333 20114 31001 40997 55020 2//// 55300 22/// 84831 84350 95000
AAXX 29064 16480 12497 80414 10120 20103 30140 40202 56010 60002 8527/ 333 20120 30/// 55000 2//// 55300 85812 86358 555 0431/
AAXX 29064 16522 12598 30000 10122 20089 39978 40224 57010 60002 83200 333 20108 30/// 55076 2//// 55300 83820 555 0////
AAXX 29064 16539 NIL
AAXX 29064 16550 12598 62912 10094 20040 30036 40218 57021 60002 86800 333 20090 30/// 55061 2//// 81830 86640 555 0////
AAXX 29064 85558 12597 82408 10149 20134 40158 54003 60001 886// 333 56099 88720
AAXX 29064 85564 12597 83602 10135 20119 40154 57006 60001 885// 333 56799 88630
AAXX 29064 85834 12597 32640 10100 20080 40162 57011 83400 333 56600 83620
AAXX 29064 85931 12997 02420 10104 20074 40088 54003
AAXX 29064 85970 11494 82675 00105 10073 20032 49987 52/// 60011 78088 887// 333 56600 88716
AAXX 29064 85972 11496 83328 10072 20072 49979 52009 60001 75052 887// 333 56799 88618
AAXX 29064 89057 12570 30000 10004 21004 49800 52015 60001 83500 333 56500 83620
AAXX 29064 71805 04124 81321 10043 20043 39860 49868 58085 60012 763// 333 10043 20022 32002 55070 60017 70012 91032 90710 91132 555 60015
AAXX 29064 16021 NIL
AAXX 29064 16022 12984 13610 11020 21040 37854 48497 57015 60002 80001 333 21020 43011 55081 2////
AAXX 29064 16033 12862 30000 11044 21062 38791 48490 56007 60002 83030 333 21044 47020 55/// 2//// 83357 92832
AAXX 29064 16040 13965 00000 11030 21037 39299 42820 5//// 60002 333 21040 41001 55/// 2//// 92843
AAXX 29064 16052 11/08 90605 11126 21136 36620 47060 57021 60002 74541 333 21126 49999 55073 23683 89/02
AAXX 29064 16061 12965 30404 10044 20004 39370 42815 56012 60002 82031 333 20044 30/// 55075 2//// 82362
AAXX 29064 16098 11557 70302 10024 20006 30180 40233 56006 60002 71011 87500 333 20006 31/// 55/// 2//// 87625
AAXX 29064 16138 11/00 90000 11018 21025 30221 40233 57007 60002 745// 333 21030 34/// 55/// 2//// 89/00 92601
AAXX 29064 16148 12961 02706 10000 21014 30214 40227 56006 60002 333 21003 30/// 55079 2//// 55300
AAXX 29064 16168 12475 42202 10050 20040 39469 42822 57020 60002 81570 333 20050 31/// 81610 83358
AAXX 29064 16172 NIL
AAXX 29064 16179 12982 01904 10048 20008 39530 42816 56008 60002 333 20044 30///
AAXX 29064 16224 11428 40505 10050 20030 39900 40227 56014 60002 71022 82632 333 20046 30/// 55078 2//// 82710
AAXX 29064 16232 12997 02202 10060 20021 30171 40226 57019 60002 333 20050 30/// 55054 20563 555 0115/
AAXX 29064 16245 12560 40303 10072 20050 30199 40225 56020 60002 84800 333 20066 30/// 55/// 2//// 81820 84640
AAXX 29064 16253 12960 03603 10002 21012 30228 40241 56010 60002 333 20000 34/// 55081 20850
AAXX 29064 16258 12960 01605 10012 21010 39218 42820 57016 60002 333 20012 34/// 55/// 2////
AAXX 29064 16263 NIL
AAXX 29064 16294 NIL
AAXX 29064 16337 12797 10506 10062 20005 39647 40230 57003 60002 81040 333 20062 30/// 55/// 2//// 81356 555 0100/
AAXX 29064 16344 NIL
AAXX 29064 16434 13968 20000 10032 20000 39016 48509 55008 60002 81041 333 20028 34/// 55/// 2//// 81359 95000 95100
AAXX 29064 16450 11/00 91407 10040 20040 39110 48562 56010 60002 74544 333 20038 31/// 55/// 2//// 89/00
AAXX 29064 16459 NIL
AAXX 29064 16546 12460 63403 10030 20021 30209 40238 57011 60002 84831 333 20024 30/// 55/// 2//// 82815 83630 85358
AAXX 29064 16564 12898 50706 10114 20067 30091 40234 58009 60002 85030 333 20108 2//// 85358 555 0////
BBXX C6SI6 29064 99356 11398 46/// /1902 10099 20035 40172 56028 7//// 8//// 22200 0//// 2////
AAXX 29064 16045 NIL
AAXX 29064 16090 11950 03505 11006 21009 30153 40240 58007 60002 71000 333 21010 34/// 55069 20573
AAXX 29064 16149 12960 00000 11020 21036 30207 40224 56010 60002 333 21026 34/// 55/// 2////
AAXX 29064 16261 12962 01504 10014 21013 30154 40230 57011 60002 333 20004 30/// 55052 20416 55300
AAXX 29064 16453 11997 30808 10110 20077 30139 40218 57008 60002 702// 83030 333 20100 30/// 55015 2//// 55300 83359 555 0200/
AAXX 29064 16560 11558 43103 10036 20018 30232 40239 57007 60002 71011 81180 333 20030 31002 55010 20466 81820 84356
AAXX 29064 40296 32960 00000 10110 20048 40218 54002 333 20072 30004
AAXX 29064 13600 12962 00902 10000 21002 30207 40262 57015 60002 333 21006 33///
AAXX 29064 13610 11/00 90000 11040 21068 39845 40294 57012 60002 74500 333 21050 34///
AAXX 29064 13611 11658 20000 10044 20021 30123 40217 57010 60002 71000 82500 333 20026 30/// 82633
AAXX 29064 13619 12970 00000 11056 21059 39486 42854 57011 60002 333 21086 34///
AAXX 29064 13622 12665 30904 10045 21012 30246 40253 57027 60002 83500 333 20040 30/// 83640
AAXX 29064 13624 12970 01410 10010 21051 30221 40261 54003 60002 333 21002 31///
AAXX 29064 13625 12960 00000 11050 21071 30041 40288 57009 60002 333 21056 34/// 13629 11956 00000 11076 21076 39199 42846 56004 60002 71000 333 21090 47010
AAXX 29064 13601 12965 00000 10004 21016 30123 40229 57015 60002 333 20000 34///
AAXX 29064 13602 NIL
AAXX 29064 13623 12970 00000 10030 20015 30273 40279 54000 60002 333 20030 30///
BBXX 44099 29061 99369 70757 46/// ///// 1//// 90552 22200 00113 11302 20402 308// 41301 70010
BBXX 41046 29061 99238 70683 46/// /1606 10250 20200 40186 56008 90550 22200 00254 11504 20502 300// 41503 70019 333 91207 555 11061 22065 30457 41709 60549 165059 162061 164065 160066 162069 160068 81607 90503
BBXX C6SI6 29064 99356 11398 46/// /1902 10099 20035 40172 56028 7//// 8//// 22200 0//// 2////
BBXX 42362 29061 99278 70907 46/// /1303 10194 20117 40193 90545
BBXX 51205 29061 99210 71564 46/// ///// 1//// 90548 22200 00234 11005 21004 303// 41103 70023
BBXX 46238 29061 99334 71195 46/// ///// 1//// 90550 22200 00139 11304 21003 329// 41303 70020
BBXX 46239 29061 99363 71221 46/// ///// 1//// 90551 22200 00125 11205 21004 330// 41204 70026
AAXX 29061 89061 379// 00000 10005 21011 39787 49793 52008 72011 333 91002 91102
AAXX 29061 89061 379// 00000 10005 21011 39787 49793 52008 72011 333 91002 91102
AAXX 29061 01241 11784 30702 11003 21023 39781 49792 55003 60002 70200 82572 333 21009 91107
AAXX 29061 01288 11X19 90000 11006 21021 39060 49791 56014 69922 77372 333 21012 47021 70002 91107
AAXX 29061 01403 11550 72925 10047 20030 39773 49840 50000 60072 78186 879// 333 20043 70115 91134
AAXX 29064 91574 46/// ///// 29087 30140 40146 58151
AAXX 29064 91570 NIL
AAXX 29064 91598 NIL
AAXX 29064 91573 06/// /2308 10277 2//// 39973 4//// 55000 69921 333 58013 60007
AAXX 29064 91577 06/// /2804 10279 20219 30042 40062 55000 60001 333 58012 60007
AAXX 29064 91579 06/// /2806 10284 20222 30052 40060 53001 60001 333 58020 60007
AAXX 29064 91582 04967 /3010 10288 20213 30025 40059 53001 60002 700// 333 10308 20192 3/018 55/// 60007 70000 90710 91117 555 60005
AAXX 29064 91583 06/// /0000 10256 20227 30047 40062 55004 60011 333 58027 60017
AAXX 29064 91587 06/// /0106 10279 20212 30013 40057 55001 60001 333 58019 60007
AAXX 29064 91590 04984 /2408 10283 20211 30019 40061 53002 60002 700// 333 10313 20199 55095 60007 70000 90710 91113 555 60005
AAXX 29064 91592 06/// /2513 10279 20237 39977 40060 53003 60001 333 58015 60007
AAXX 29064 91596 06/// /3308 10297 20205 39954 40060 53002 60001 333 58018 60007
BBXX DBBH 29061 99380 10088 41398 53507 10140 20074 40240 57010 70361 858// 22223 04163
BBXX A8OZ4 29064 99368 10127 43698 20412 10140 20100 40230 54000 7//// 82/// 22234 00170 20401 304// 40401 5//// 80115
AAXX 29061 45007 12956 22705 10213 20136 30180 40189 56036 60001 80001 333 59019 82080
AAXX 29064 48601 11559 72007 10296 20238 30101 40105 6///1 70522 83842 333 82820 85364 87078
AAXX 29064 48615 11459 71804 10263 20234 30112 40118 69901 71562 83548 333 81710 83620 87272
AAXX 29064 48620 11465 72805 10300 20241 30096 40105 60001 70522 83942 333 81917 83820 87078
AAXX 29064 48647 11468 73506 10337 20234 30078 40102 60001 70522 82131 333 82818 87078
AAXX 29064 48650 11462 70609 10315 20222 30085 40103 69921 70522 82942 333 81917 87078
AAXX 29064 48657 NIL
AAXX 29064 48665 11568 70410 10296 20226 30103 40113 60001 70522 81142 333 81822 83364 87077
AAXX 29064 96413 11565 72704 10286 20247 30059 40085 6///1 71586 8457/ 333 84620 87365
AAXX 29064 96421 12480 72305 10292 20240 30042 40077 6///1 84131 333 84818 86365
AAXX 29064 96441 12480 73402 10303 20249 30048 40075 6///1 83231 333 83814 86365
AAXX 29064 96449 12480 72606 10304 20241 30058 40077 60001 83131 333 83814 83365 85080
AAXX 29064 96465 12478 73605 10313 20254 30044 40077 60001 81842 333 81810 87079
AAXX 29064 96471 NIL
AAXX 29064 96481 11462 73604 10298 20256 30072 40091 60011 70362 82841 333 81817 84364 86080
AAXX 29064 96491 11463 70808 10297 20252 30087 40099 6///1 72162 83832 333 82815 83364 87078
AAXX 29061 45032 36/// /1103 10243 20112 30170 40187 57002
AAXX 29061 45035 36/// /3503 10211 20145 30143 40185 57004
AAXX 29061 45039 36/// /0103 10214 20133 30172 40187 57001
AAXX 29061 45044 36/// /1209 10201 20136 30094 40187 57004
AAXX 29064 48300 32560 60000 10253 20185 39842 40155 57030 84546 333 59006
AAXX 29064 48327 32560 20604 10285 20157 39808 40161 57032 82500 333 59003
AAXX 29064 48331 32560 10000 10284 20177 39920 40148 57036 81100 333 59013
AAXX 29064 48353 32665 12905 10290 20161 39855 40141 57036 81100 333 59008
AAXX 29064 48356 32560 10503 10287 20153 39948 40143 57037 81100 333 59012
AAXX 29064 48375 32960 00203 10300 20174 39897 40119 57039 333 59013
AAXX 29064 48378 31557 20603 10298 20192 30105 40157 57021 70500 81105 333 58006
AAXX 29064 48381 32562 20608 10288 20152 39925 40141 57034 81101 333 59009
AAXX 29064 48407 32560 63605 10283 20176 39986 40127 57036 81141 333 59008
AAXX 29064 48431 32962 10304 10281 20177 39924 40137 57038 80001 333 59006
AAXX 29064 48456 NIL
AAXX 29064 48480 32562 20208 10315 20193 30108 40112 57030 81101 333 59005
AAXX 29064 48500 31956 33408 10306 20202 30110 40117 57029 70511 80005 333 59023
AAXX 29064 48551 01558 40305 10290 20224 30110 40118 57025 69921 71061 82206 333 59005 69907 70002
AAXX 29064 48565 31558 51007 10322 20231 30100 40110 57016 70511 81146 333 59004
AAXX 29064 48569 32460 80406 10295 20236 30072 40112 57025 84276 333 59010
AAXX 29064 48583 31559 80000 10294 20242 30112 40118 57016 71022 82276 333 59004 70007
AAXX 29061 45032 36/// /1103 10243 20112 30170 40187 57002
AAXX 29061 45035 36/// /3503 10211 20145 30143 40185 57004
AAXX 29061 45039 36/// /0103 10214 20133 30172 40187 57001
AAXX 29061 45044 36/// /1209 10201 20136 30094 40187 57004
AAXX 29061 03951 17550 /2714 10089 20066 30265 40292 56020 69912 72281 85/// 333 20070 3/005 85/23 90710 91122 91217
AAXX 29061 03953 11560 82611 10096 20066 30260 40297 58015 60012 72582 8733/ 333 20057 31004 55016 86922 83650 92446
AAXX 29061 03955 11575 62608 10068 20046 30074 40275 56019 69922 72186 865// 333 20032 31000 55046 86620
AAXX 29061 03956 17661 /2607 10065 20036 30161 40239 55028 69902 74000 87/// 333 20035 3/001 87/30
AAXX 29061 03962 11470 72611 10090 20062 30229 40253 57013 60012 72586 8433/ 333 20047 3/002 55012 81919 83650 85359
AAXX 29061 03963 17543 /2717 10095 20063 30196 40225 58014 60012 78185 87/// 333 20064 3/005 87/27 90710 91124 91219
AAXX 29061 03966 17762 /2609 10076 20046 30134 40228 57018 60022 72385 81/// 333 20035 3/001 81/50 87/61
AAXX 29061 03967 NIL
AAXX 29061 03969 11480 82612 10064 20047 30093 40198 56020 60022 72162 885// 333 20034 31002 55051 81712 84625 86640 90710 91119
AAXX 29061 03973 11470 72710 10059 20043 39941 40199 58014 60082 72586 873// 333 20025 3/001 55010 81718 81920 85656 90710 91119
AAXX 29061 03976 NIL
AAXX 29061 03980 17562 /2813 10074 20049 30101 40126 58021 60032 72281 85/// 333 20052 3/004 85/20 86/62 90710 91120
AAXX 29061 45007 12956 22705 10213 20136 30180 40189 56036 60001 80001 333 59019 82080
AAXX 29064 48302 31550 62703 10175 20130 38509 40139 57014 71022 82836 333 59023
AAXX 29064 48304 31556 80000 10250 20160 39691 40151 57037 70522 83556 333 59026
AAXX 29064 48334 31556 30000 10272 20168 39787 40147 57034 70500 82250 333 59006
AAXX 29064 48360 NIL
AAXX 29064 48372 31956 20302 10290 20199 30086 40143 57035 70500 80001 333 59008
AAXX 29064 48373 31956 20000 10296 20186 30079 40140 57036 70500 80001 333 59010
AAXX 29064 48386 NIL
AAXX 29064 48387 31558 11004 10212 20072 39186 40145 57027 70500 81100 333 59013
AAXX 29064 48408 32560 23402 10294 20180 39979 40127 57035 81131 333 59005
AAXX 29064 48415 32960 20513 10317 20173 30118 40129 57032 80001 333 59007
AAXX 29064 48433 31959 10000 10291 20185 39968 40132 57038 70500 80001 333 59008
AAXX 29064 48437 32965 03306 10283 20172 39928 40137 57031 333 59007
AAXX 29064 48440 NIL
AAXX 29064 48451 32964 00406 10295 20190 30123 40134 57033 333 59004
AAXX 29064 48454 32562 40000 10315 20193 30121 40128 56029 82105 333 58000
AAXX 29064 48457 31550 50301 10268 20211 30112 40129 58025 71022 81106 333 59001
AAXX 29064 48463 31558 33008 10327 20218 30034 40126 57030 70510 82105 333 59005
AAXX 29064 48464 31559 13512 10310 20196 30104 40117 57030 70500 81100 333 59004
AAXX 29064 48479 31958 50505 10325 20196 30066 40116 57031 70511 80006 333 59002
AAXX 29064 48520 31559 50410 10306 20207 30104 40119 57028 70511 82105 333 59005
AAXX 29064 48554 01458 80610 10270 20251 30110 40114 57024 69951 76022 8437/ 333 59006 69955 70005
AAXX 29064 48563 32560 40407 10312 20219 30074 40109 57021 82245 333 58003 70006
AAXX 29064 48571 32560 70703 10298 20220 30096 40107 57025 82846 333 59003
AAXX 29064 48310 31558 70502 10258 20164 39697 40151 57033 70522 85536 333 59017
AAXX 29064 48325 31658 23405 10295 20185 39893 40133 57038 70540 82500 333 59001
AAXX 29064 48329 31956 00000 10280 20170 39810 40146 57029 70500 333 59010
AAXX 29064 48352 32563 13503 10285 20174 39950 40149 57037 81100 333 59008
AAXX 29064 48357 32562 21403 10295 20160 39975 40143 57034 81101 333 59009
AAXX 29064 48380 31558 20000 10304 20192 30049 40142 57034 70500 82105 333 59009
AAXX 29064 48383 31559 20302 10288 20172 39974 40132 57037 70500 82100 333 59009
AAXX 29064 48403 32960 20308 10298 20175 39924 40132 57038 81035 333 59010
AAXX 29064 48405 32962 20409 10282 20172 39969 40131 57036 80005 333 59008
AAXX 29064 48420 31556 40406 10312 20198 30114 40119 57035 70511 81206 333 59008
AAXX 29064 48421 31956 00000 10327 20180 30009 40120 57040 70500 333 59011
AAXX 29064 48425 31958 00205 10300 20189 30129 40139 57028 70500 333 59002
AAXX 29064 48426 32960 00505 10320 20186 30115 40127 57034 333 59003
AAXX 29064 48429 32560 20107 10315 20174 30121 40128 57029 81101 333 59002
AAXX 29064 48430 31559 40912 10333 20162 30113 40120 57043 70511 82205 333 59011
AAXX 29064 48450 31956 00606 10320 20171 30093 40126 57037 70500 333 59006
AAXX 29064 48459 31558 23103 10325 20209 30112 40115 57037 70500 81101 333 59006
AAXX 29064 48465 31958 20510 10310 20187 30121 40126 57032 70511 80005 333 59005
AAXX 29064 48550 31558 63203 10303 20237 30109 40115 57022 71022 82246 333 59007
AAXX 29064 48552 31457 70103 10280 20239 30109 40116 57023 71022 84907 333 59007
AAXX 29064 48566 NIL
AAXX 29064 48568 32460 80804 10280 20221 30104 40112 57022 8382/ 333 59009 70008
AAXX 29064 48307 32962 00000 10291 20166 39770 40145 57030 333 59012
AAXX 29064 48324 31540 13505 10292 20166 39933 40150 57034 70500 81100 333 59012
AAXX 29064 48333 31558 10000 10285 20165 39884 40184 54000 70500 81100 333 58017
AAXX 29064 48350 NIL
AAXX 29064 48355 32962 00000 10290 20180 39927 40145 57028 333 59005
AAXX 29064 48358 32560 10905 10285 20155 39973 40148 57030 81101 333 59009
AAXX 29064 48384 32962 00000 10292 20160 39954 40143 57035 333 59006
AAXX 29064 48401 31960 20000 10301 20210 30037 40143 57032 70500 80005 333 59002
AAXX 29064 48404 32960 10410 10285 20234 39957 40134 57032 80005 333 59005
AAXX 29064 48409 31558 50103 10287 20191 39978 40125 57038 70510 81131 333 59003
AAXX 29064 48419 31958 50104 10314 20195 30120 40128 56030 70511 80005 333 59005
AAXX 29064 48427 32962 23602 10300 20193 30125 40132 57033 80005 333 59004
AAXX 29064 48435 NIL
AAXX 29064 48453 32560 50506 10320 20196 30113 40116 57039 84105 333 59008
AAXX 29064 48458 32960 00504 10315 20174 30057 40137 57032 333 59004
AAXX 29064 48474 NIL
AAXX 29064 48481 32560 20903 10319 20196 30085 40113 57026 82100 333 59002
AAXX 29064 48555 31558 80000 10278 20237 30107 40149 55007 71022 8357/ 333 58015
AAXX 29064 48556 32560 70106 10296 20252 30097 40113 57023 83876 333 59002
AAXX 29064 48557 NIL
AAXX 29064 48560 01530 80000 10261 20247 30108 40113 57020 60181 76062 84876 333 59008 60187 70178
AAXX 29064 48574 NIL
AAXX 29064 48581 31558 80000 10299 20221 30074 40115 57034 70522 82536 333 59008
AAXX 29061 06206 46562 72714 10078 20016 30072 40125 51011 8//// 333 20076 81/24 84/28 85/31 91017 91120 91217
AAXX 29061 06207 47564 62714 10063 20011 30071 40125 53009 70381 8//// 333 20060 81/26 83/31 85/48 91017 91123 91219
AAXX 29061 06239 47565 8//18 10071 20019 3//// 4//// 5//// 70386 8//// 333 20045 81/31 83/39 87/56 91021 91128 91221
AAXX 29061 06252 46/// /2817 10073 20027 30096 40142 51008 222// 00093 10909 333 20072 91021 91124 91220
AAXX 29061 06260 15564 72706 10070 20018 30188 40190 51004 69902 8//// 333 20067 3/005 79999 84/28 87/32 91009 91113 91207
AAXX 29061 06270 15664 72811 10065 20023 30140 40140 51006 60002 8//// 333 20063 3/006 70000 82/39 84/50 87/65 91018 91120 91214
AAXX 29061 06290 17564 82305 10060 20028 30131 40172 50001 69922 78086 8//// 333 20054 3/005 70003 84/29 86/34 86/41 91009 91112 91208
AAXX 29064 89532 42/80 13610 11043 21066 39891 49918 52009 81501 333 55240 23620
AAXX 29061 06201 45663 12815 10073 20027 30057 40110 51007 8//// 333 20071 81/44 91019 91125 91219
AAXX 29061 06203 45964 52715 10075 20016 30126 40177 51009 8//// 333 20074 85/60 91019 91124 91219
AAXX 29061 06204 45564 82819 10075 20025 30094 40145 50002 8//// 333 20074 84/22 84/29 88/66 91022 91128 91223
AAXX 29061 06205 47564 72816 10074 20013 30001 40060 51014 70380 8//// 333 20050 81/29 83/34 85/43 91020 91125 91220
AAXX 29061 06208 47559 62813 10074 20024 30075 40124 53014 72385 8//// 333 20066 81/20 83/32 86/56 91016 91120 91216
AAXX 29061 06211 45565 62618 10074 20018 30073 40129 51004 8//// 333 20073 82/26 83/65 86/70 91022 91126 91222
AAXX 29061 06212 45568 62818 1//// 2//// 30094 40158 51008 8//// 333 2//// 83/24 84/28 85/33 91021 91125 91221
AAXX 29061 06235 15562 62812 10071 20025 30162 40162 53006 60002 8//// 333 20071 3/006 70000 81/29 86/62 91018 91121 91215
AAXX 29061 06240 15964 82711 10068 20022 30190 40185 51006 60002 8//// 333 20066 3/006 70000 88/64 91015 91119 91214
AAXX 29061 06251 17562 62713 10069 20025 30136 40137 51007 60002 72180 8//// 333 20067 3/006 70001 81/27 83/31 86/64 91018 91123 91216
AAXX 29061 06258 46/// ///// 333 910// 911// 912//
AAXX 29061 06269 15565 72710 10068 20023 30182 40176 51006 69962 8//// 333 20063 3/005 70007 82/28 84/33 87/38 91013 91116 91210
AAXX 29061 06280 15563 42607 10065 20022 30136 40140 51008 60002 8//// 333 20057 3/005 70000 83/25 83/29 91014 91117 91211
AAXX 29061 06310 15962 62710 10072 20023 30208 40218 58001 60002 8//// 333 20071 3/006 79999 85/62 86/66 91014 91117 91212
AAXX 29061 06344 15665 72708 10069 20020 30205 40198 51005 60002 8//// 333 20066 3/005 70000 83/34 87/64 91011 91115 91210
AAXX 29061 06370 15667 12406 10043 20023 30188 40214 51004 69932 8//// 333 20038 3/003 70003 81/41 91009 91111 91208
AAXX 29061 06380 15669 62307 10038 20016 30094 40237 53002 69952 8//// 333 20036 3/003 70008 85/37 86/42 91010 91111 91208
BBXX 46232 29061 99325 71174 46/// ///// 1//// 90538 22200 00144 11303 20802 328// 41302 70013
BBXX 46247 29061 99378 71228 46/// ///// 1//// 90551 22200 00114 11304 21002 327// 41304 70022
BBXX 46243 29061 99462 71241 46/// ///// 1//// 90559 22200 00082 11208 20906 326// 41205 70039
BBXX 46236 29061 99368 71219 46/// ///// 1//// 90550 22200 00121 11303 20902 328// 41303 70017
BBXX 46229 29061 99438 71246 46/// ///// 1//// 90551 22200 00092 11308 20906 327// 41305 70040
BBXX 46225 29061 99329 71174 46/// ///// 1//// 90544 22200 00150 11302 20901 327// 41301 70008
BBXX 46213 29061 99403 71247 46/// ///// 1//// 90554 22200 00108 11307 21004 329// 41306 70036
BBXX 46215 29061 99352 71209 46/// ///// 1//// 90538 22200 00144 11304 21002 326// 41303 70018
BBXX 46219 29061 99332 71199 46/// ///// 1//// 90558 22200 00135 11305 20803 330// 41304 70025
BBXX 46224 29061 99332 71175 46/// ///// 1//// 90536 22200 00145 11301 21001 324// 41301 70007
BBXX 46214 29061 99379 71235 46/// ///// 1//// 90553 22200 00113 11305 20903 330// 41304 70025
AAXX 29061 01210 11485 61802 10039 20015 39776 49802 53009 60014 70262 83261 333 20039 70011 91110
AAXX 29061 01494 11367 82606 10057 20050 39700 49763 55042 60062 72165 8572/ 333 20053 70092 91117
AAXX 29061 01023 11689 71007 11022 21057 39781 49876 58022 60002 70222 81578 333 21103 47016 70003 91110
AAXX 29061 01311 46/// /1302 10037 20028 39746 49806 50002 333 20035 91112
AAXX 29064 91324 32474 80910 10300 20257 30061 40063 82201 333 562/9 70000 82818 88075 555 92906
AAXX 29064 91329 32474 80913 10294 20250 30105 40108 83107 333 562/9 70000 83818 88275 555 92906
AAXX 29064 91336 32474 80617 10300 20244 30098 40101 82101 333 561/9 70010 82818 88075 555 92906
AAXX 29064 91339 32474 80410 10263 20246 30058 40064 83202 333 561/9 70000 83818 88075 555 92906
AAXX 29064 91320 32474 80412 10300 20256 30091 40096 83209 333 561/9 70102 83816 85274 555 92906
AAXX 29064 91348 32474 70806 10294 20237 30030 40083 53002 86201 333 562/9 70025 555 92906
AAXX 29061 11010 01036 89901 10007 20006 39871 40262 58004 69932 75176 333 20004 320 69915 82701 87620
AAXX 29061 11012 11556 82503 10005 20000 39777 40261 58002 69912 76062 886// 333 10021 21018 3/102 55300
AAXX 29061 11022 12558 22303 11006 21011 39833 40233 57007 69902 81131 333 10028 21006 3/102 55300 81825
AAXX 29061 11035 32460 70000 10010 20010 39980 40241 57003 875// 333 10035 20002 81615 87620 92600
AAXX 29061 11036 32456 79901 11011 21019 30015 40247 55006 333 21022 30103 81612 87642
AAXX 29061 11101 11565 81905 10017 20002 39746 40290 55002 69942 75065 885// 333 10031 21011 88622
AAXX 29061 11120 32258 52702 11050 21052 39554 40298 57002 333 21075 3/110 43015 83705 83657 85358
AAXX 29061 11126 17/// /3305 11054 21054 37754 48524 58001 69902 740// 333 10014 21058 55300
AAXX 29061 11130 36/// /0000 11032 21037 39671 40287 57003 333 11026 21048 44009
AAXX 29061 11146 31/00 90503 11105 21119 36938 47046 56011 74944 333 11031 21117 49146 89/00 92612
AAXX 29061 11150 01463 81403 10006 21021 39713 40271 55005 69902 76662 333 21030 34105 69905 81619 84628 87634
AAXX 29061 11155 11/05 93106 11023 21031 38395 48522 50002 69902 77074 333 10036 21031 3/104 44055 55300 89/02 93197
AAXX 29061 11157 31110 70000 11056 21059 39484 40295 53002 71044 876// 333 21060 3/105 44014 83702 87710
AAXX 29061 11172 NIL
AAXX 29061 11190 12665 80000 10005 21011 30008 40250 58002 60002 886// 333 10025 20005 3/101 55300
AAXX 29061 11204 32975 02401 11074 21083 39443 40282 53002 333 11037 21079 41998 555 10021 6000/
AAXX 29061 11212 32989 10505 11013 21053 37846 48516 56011 80002 21013 42014 81070 92600 444 76075
AAXX 29061 11231 31/04 99901 11041 21041 39672 40271 53001 74944 333 21053 34105 89/02
AAXX 29061 11240 32458 89901 10007 20004 39797 40249 53002 333 20003 30100 82710 83713 85714
AAXX 29061 11244 16/// /2001 11001 21011 39913 40253 53001 69902 333 10020 21001 55300
AAXX 29061 11389 12550 82107 10015 20003 39918 40254 52002 60002 885// 333 10034 20008 3/000 55300
BBXX A8OZ4 29064 99368 10127 43698 20412 10140 20100 40230 54000 7//// 82/// 22234 00170 20401 304// 40 401 5//// 80115
AAXX 29061 01373 11480 80000 10005 21002 39593 49792 56008 60002 70222 886// 333 21017 41998 70003 91106
AAXX 29061 01046 11689 71603 11020 21049 39901 49908 57017 69942 70122 83460 333 21027 44016 70057 91107
AAXX 29061 01230 16/// /0000 11019 21025 69932 333 21026 4/036 70003 91109
AAXX 29061 01386 16/// ///// 10020 20009 60022 333 20019 70022
AAXX 29061 01122 16/// /2401 11030 21036 39714 49803 57009 60012 333 21031 70013 91102
AAXX 29061 01203 46/// /2101 10047 20026 39753 49801 52013 333 20037 91106
AAXX 29061 01321 16/// /0801 10007 20005 39554 49803 53010 60012 333 20006 70069 91103
AAXX 29061 01361 16/// /0000 11043 21054 38794 49810 55001 60022 333 21043 4/074 70017 91107
AAXX 29061 01378 16/// /1101 10007 20001 39496 49781 56024 60032 333 20006 70086 91108
AAXX 29061 01422 16/// /2607 10051 20034 6//// 333 20049 91117
AAXX 29061 01495 16/// /2615 10066 20044 39756 49768 55031 60042 333 20060 70043 91121
AAXX 29061 37682 32997 00000 11080 21090 38170 48560 54000 333 21140 7000/
AAXX 29061 37717 32598 22302 11060 21075 38136 48574 52018 82500 333 21079 7000/
AAXX 29061 37788 41995 00000 11047 21060 39297 40351 52011 71000 333 21095
AAXX 29061 33135 31/93 92103 11019 21019 30051 40237 57010 74942 333 21037
AAXX 29061 33317 NIL
AAXX 29061 33345 31/94 91903 11014 21014 30032 40245 57013 74941 333 21037
AAXX 29061 33393 NIL
AAXX 29061 33506 31996 12601 11030 21037 30075 40280 57004 71000 80001 333 21030
AAXX 29061 33587 NIL
AAXX 29061 33631 81503 10022 20017 30104 40252 57014 60022 71065 886// 333 20019 88703
AAXX 29061 33663 NIL
AAXX 29061 33658 31/01 91201 11011 21011 39905 40214 57014 74544 333 21016 93402
AAXX 29061 33711 31993 01602 11054 21054 30063 40285 57006 74840 333 21058
AAXX 29061 33791 NIL
AAXX 29061 33837 31908 01501 10026 20026 30216 40269 57013 74641 333 20003
AAXX 29061 33924 NIL
AAXX 29061 33946 31997 01404 10009 20004 30059 40287 58005 70240 333 21007 93400
AAXX 29061 34300 32997 02302 11034 21045 30082 40283 53002 333 21034
AAXX 29061 34504 NIL
AAXX 29061 34519 31/02 92901 11050 21056 30009 40299 52004 74941 333 21053
AAXX 29061 34601 31/00 90000 11065 21065 30156 40301 52003 74541 333 21065 89/01
AAXX 29064 63980 32575 23322 10294 20234 40128 60004 81101 333 20249 50840 55110 58009 81820 943// 91118
AAXX 29064 16459 12564 82904 10090 20081 30192 40229 56010 69902 8457/ 333 20088 31/// 55/// 2//// 84625 86356
AAXX 29061 76040 32902 02901 10083 20031 30201 40215 52004 90545 333 10216 20037 30/// 55094 59003 98602
AAXX 29061 76225 32720 22702 10084 21056 38663 40175 54003 82030 90540 333 10184 20040 30/// 55081 56060 58/// 82356
AAXX 29061 76323 32910 00000 10042 21103 38314 40199 52006 90540 333 10218 20026 30/// 58001
AAXX 29061 76342 32940 01802 10110 20043 39523 40226 52004 90550 333 10268 20078 30/// 55077 20502 59002
AAXX 29061 76373 32910 00000 10020 20160 38252 40208 52043 90555 333 10240 21025 30/// 55078 21674 59001
AAXX 29061 76382 32960 00000 10090 20038 38933 40173 57002 90550 333 10238 20030 30/// 55056 2//// 59012
AAXX 29061 76393 31920 02201 10150 20060 39614 40184 57002 70500 90550 333 10268 20080 30/// 55053 59028
AAXX 29061 76402 32950 00000 10118 20061 30111 40167 52001 90546 333 10302 20076 30/// 55084 2//// 58///
AAXX 29061 76423 32960 00000 10077 21069 38178 40148 52006 90548 333 10245 21015 30/// 55064 21031 59015
AAXX 29061 76458 32960 00302 10151 20141 30151 40155 52003 90540 333 10237 20085 30/// 55085 59004
AAXX 29061 76525 32960 00406 10110 21132 37489 40119 54000 90540 333 10184 20092 30/// 55090 22773 59016
AAXX 29061 76548 32960 00202 10170 20167 30189 40199 50004 90540 333 10252 20108 30/// 55077 59056
AAXX 29061 76556 32960 01402 10168 20122 39129 40128 58002 90530 333 10296 20132 30/// 55089 59015
AAXX 29061 76571 32910 00000 10154 21052 38182 40114 52014 90550 333 10260 20044 30/// 55088 59018
AAXX 29061 76577 32960 10000 10150 20126 38054 40111 52005 81080 90540 333 10246 20084 30/// 55064 56050 59021
AAXX 29061 76593 32950 01404 10192 20183 30180 40182 57005 90550 333 10268 20218 30/// 55094 21320 59027
AAXX 29061 76644 32350 11203 10200 20173 30167 40180 57002 81200 90550 333 10295 20195 30/// 55073 21111 561// 59033 81810
AAXX 29061 76654 31956 00000 10246 20215 30155 40159 52003 70544 90550 333 10304 20225 30/// 55071 20942 59004
AAXX 29061 76662 32960 00902 10140 20090 38474 40114 52007 90540 333 10298 20080 30/// 55089 21464 59015
AAXX 29061 76675 32960 02102 10056 20014 37392 40115 54003 90550 333 10222 20050 30/// 55076 2//// 59016
AAXX 29061 76683 32960 00000 10095 20049 37846 40185 50003 90550 333 10230 20040 30/// 50291 55090 21828 59014
AAXX 29061 76685 32950 00301 10120 20024 37883 40116 52006 90545 333 10238 20058 30/// 55103 59025
AAXX 29061 76687 32962 01801 10128 20117 38692 40172 58002 90545 333 10225 20095 30/// 55073 59044
AAXX 29061 76692 31520 62401 10204 20193 30157 40176 50000 71044 864// 90545 333 10262 20192 30/// 55075 563// 59061 86630
AAXX 29061 76695 32956 00000 10194 20188 30153 40159 58008 90545 333 10294 20188 30/// 55061 59036
AAXX 29061 76737 32980 00000 10133 20115 38783 40156 57006 90535 333 10240 20133 30/// 55091 59047 91102 91532
AAXX 29061 76750 32558 33201 10204 20202 30162 40172 57008 82107 90545 333 10295 20212 31/// 55014 56106 59020 82820
AAXX 29061 76762 31904 01802 10192 20166 38774 40118 51004 74140 90554 333 10308 20148 30/// 55086 21069 59016 91204
AAXX 29061 76775 32960 00501 10147 20052 38538 40146 52010 90545 333 10276 20080 30/// 55082 59030
AAXX 29061 76805 32960 03101 10240 20237 30141 40144 50004 90540 333 10324 20218 30/// 55095 20957 56/// 59017
AAXX 29061 76845 32930 00000 10102 20095 37965 40165 58003 90545 333 10206 20110 30/// 55081 59019
AAXX 29061 76848 32450 10201 10135 20111 38396 40109 58006 81600 90550 333 10220 20127 30/// 55041 56100 59027 81710
AAXX 29061 76243 32970 02602 10108 20000 39903 40196 52015 90530 333 10236 20026 30/// 55070 59029
AAXX 29061 76311 32920 00000 10129 20062 39877 40149 50012 90553 333 10338 20088 30/// 55072 59010
AAXX 29061 76412 32960 00000 10116 20105 30128 40175 52005 90536 333 10280 20062 30/// 55073 59013
AAXX 29061 76640 31020 20000 10188 20185 30197 40208 52010 70200 824// 90540 333 10254 20130 30/// 55045 563// 59058 82601
AAXX 29061 76647 32965 00802 10193 20179 30155 40185 58009 90550 333 10303 20190 30/// 55079 59021
AAXX 29061 06400 32567 72609 10069 20012 30229 40240 58002 8257/ 333 20067 31005 82635 85362 87365 91114 91211
AAXX 29061 06428 NIL
AAXX 29061 06451 12570 12406 10042 20011 30170 40239 50003 69922 81502 333 20042 31004 81632 91111 91208
AAXX 29061 06456 11562 52705 10025 20011 39884 40261 52004 60032 70165 81501 333 20025 31001 81620 84075 91110 91207
AAXX 29061 06476 161// 82504 10009 20001 39582 40265 52004 60012 333 20002 3/001 87/03 88/05 91109 91205
AAXX 29061 06479 15667 /2407 10048 20018 30147 40228 50003 69942 333 20041 32000 83/36 85/42 91111 91209
AAXX 29061 06490 15362 82604 10018 20003 39668 40254 52005 69962 333 20017 3/002 83/08 88/10 91110 91206
AAXX 29061 06590 12365 72606 10031 20016 39801 40265 53004 69932 875// 333 20014 31002 84708 87615 91108 91206
AAXX 29061 06431 NIL
AAXX 29061 06432 NIL
AAXX 29061 06449 12563 22505 10033 20013 30022 40256 52005 69922 81502 333 20031 31002 81630 91109 91207
AAXX 29061 06450 12666 22506 10047 20015 30213 40229 51002 69922 82500 333 20046 31003 82642 91111 91207
AAXX 29061 06458 NIL
AAXX 29061 06465 NIL
AAXX 29061 06478 12566 72507 10038 20012 30020 40246 52005 69902 865// 333 20029 31003 86632 91111 91208
AAXX 29061 06496 NIL
AAXX 29061 06407 12565 62711 10065 20015 30228 40234 58003 60002 83502 333 20064 31005 83627 86072 91117 91213
AAXX 29061 06447 NIL
BBXX TFBKF 29064 99635 70202 46/// ///// 22200 10704 70021
BBXX TFDRN 29064 99658 70212 46/// ///// 22200 10803 70014
BBXX TFGRS 29064 99663 70182 46/// ///// 22200 10603 70017
BBXX TFGRV 29064 99638 70225 46/// ///// 22200 10706 70029
BBXX TFGSK 29064 99641 70229 46/// ///// 22200 10708 70039
BBXX TFHFN 29064 99642 70152 46/// ///// 22200 10704 70019
BBXX TFKGR 29064 99657 70136 46/// ///// 22200 10905 70024
BBXX TFSRT 29064 99633 70203 46/// ///// 22200 10707 70036
BBXX TFSTD 29064 99664 70234 46/// ///// 22200 10605 70024
AAXX 29064 91348 32474 70806 10294 20237 30030 40083 53002 86201 333 562/9 70025 555 92906
AAXX 29064 91324 32474 80910 10300 20257 30061 40063 82201 333 562/9 70000 82818 88075 555 92906
AAXX 29064 91329 32474 80913 10294 20250 30105 40108 83107 333 562/9 70000 83818 88275 555 92906
AAXX 29064 91336 32474 80617 10300 20244 30098 40101 82101 333 561/9 70010 82818 88075 555 92906
AAXX 29064 91339 32474 80410 10263 20246 30058 40064 83202 333 561/9 70000 83818 88075 555 92906
AAXX 29064 91320 32474 80412 10300 20256 30091 40096 83209 333 561/9 70102 83816 85274 555 92906
AAXX 29061 03976 11468 72612 10095 20065 30187 40199 57013 60032 72582 873// 333 20061 32004 55007 83717 82920 87637 90710 91121
AAXX 29064 78016 32664 72815 10193 20119 30154 40158 53007 87800 333 10222 20192 70023
AAXX 29061 03967 11462 62610 10064 20051 30089 40204 57021 60042 72162 865// 333 20031 31001 55008 81712 83717 85625
AAXX 29061 76040 32902 02901 10083 20031 30201 40215 52004 90545 33310216 20037 30/// 55094 59003 98602
AAXX 29061 76225 32720 22702 10084 21056 38663 40175 54003 82030 90540333 10184 20040 30/// 55081 56060 58/// 82356
AAXX 29061 76323 32910 00000 10042 21103 38314 40199 52006 90540 33310218 20026 30/// 58001
AAXX 29061 76342 32940 01802 10110 20043 39523 40226 52004 90550 33310268 20078 30/// 55077 20502 59002
AAXX 29061 76373 32910 00000 10020 20160 38252 40208 52043 90555 33310240 21025 30/// 55078 21674 59001
AAXX 29061 76382 32960 00000 10090 20038 38933 40173 57002 90550 33310238 20030 30/// 55056 2//// 59012
AAXX 29061 76393 31920 02201 10150 20060 39614 40184 57002 70500 90550333 10268 20080 30/// 55053 59028
AAXX 29061 76402 32950 00000 10118 20061 30111 40167 52001 90546 33310302 20076 30/// 55084 2//// 58///
AAXX 29061 76423 32960 00000 10077 21069 38178 40148 52006 90548 33310245 21015 30/// 55064 21031 59015
AAXX 29061 76458 32960 00302 10151 20141 30151 40155 52003 90540 33310237 20085 30/// 55085 59004
AAXX 29061 76525 32960 00406 10110 21132 37489 40119 54000 90540 33310184 20092 30/// 55090 22773 59016
AAXX 29061 76548 32960 00202 10170 20167 30189 40199 50004 90540 33310252 20108 30/// 55077 59056
AAXX 29061 76556 32960 01402 10168 20122 39129 40128 58002 90530 33310296 20132 30/// 55089 59015
AAXX 29061 76571 32910 00000 10154 21052 38182 40114 52014 90550 33310260 20044 30/// 55088 59018
AAXX 29061 76577 32960 10000 10150 20126 38054 40111 52005 81080 90540333 10246 20084 30/// 55064 56050 59021
AAXX 29061 76593 32950 01404 10192 20183 30180 40182 57005 90550 33310268 20218 30/// 55094 21320 59027
AAXX 29061 76644 32350 11203 10200 20173 30167 40180 57002 81200 90550333 10295 20195 30/// 55073 21111 561// 59033 81810
AAXX 29061 76654 31956 00000 10246 20215 30155 40159 52003 70544 90550333 10304 20225 30/// 55071 20942 59004
AAXX 29061 76662 32960 00902 10140 20090 38474 40114 52007 90540 33310298 20080 30/// 55089 21464 59015
AAXX 29061 76675 32960 02102 10056 20014 37392 40115 54003 90550 33310222 20050 30/// 55076 2//// 59016
AAXX 29061 76683 32960 00000 10095 20049 37846 40185 50003 90550 33310230 20040 30/// 50291 55090 21828 59014
AAXX 29061 76685 32950 00301 10120 20024 37883 40116 52006 90545 33310238 20058 30/// 55103 59025
AAXX 29061 76687 32962 01801 10128 20117 38692 40172 58002 90545 33310225 20095 30/// 55073 59044
AAXX 29061 76692 31520 62401 10204 20193 30157 40176 50000 71044 864//90545 333 10262 20192 30/// 55075 563// 59061 86630
AAXX 29061 76695 32956 00000 10194 20188 30153 40159 58008 90545 33310294 20188 30/// 55061 59036
AAXX 29061 76737 32980 00000 10133 20115 38783 40156 57006 90535 33310240 20133 30/// 55091 59047 91102 91532
AAXX 29061 76750 32558 33201 10204 20202 30162 40172 57008 82107 90545333 10295 20212 31/// 55014 56106 59020 82820
AAXX 29061 76762 31904 01802 10192 20166 38774 40118 51004 74140 90554333 10308 20148 30/// 55086 21069 59016 91204
AAXX 29061 76775 32960 00501 10147 20052 38538 40146 52010 90545 33310276 20080 30/// 55082 59030
AAXX 29061 76805 32960 03101 10240 20237 30141 40144 50004 90540 33310324 20218 30/// 55095 20957 56/// 59017
AAXX 29061 76845 32930 00000 10102 20095 37965 40165 58003 90545 33310206 20110 30/// 55081 59019
AAXX 29061 76848 32450 10201 10135 20111 38396 40109 58006 81600 90550333 10220 20127 30/// 55041 56100 59027 81710
AAXX 29061 76243 32970 02602 10108 20000 39903 40196 52015 90530 33310236 20026 30/// 55070 59029
AAXX 29061 76311 32920 00000 10129 20062 39877 40149 50012 90553 33310338 20088 30/// 55072 59010
AAXX 29061 76412 32960 00000 10116 20105 30128 40175 52005 90536 33310280 20062 30/// 55073 59013
AAXX 29061 76640 31020 20000 10188 20185 30197 40208 52010 70200 824//90540 333 10254 20130 30/// 55045 563// 59058 82601
AAXX 29061 76647 32965 00802 10193 20179 30155 40185 58009 90550 33310303 20190 30/// 55079 59021
BBXX VEP717 29064 99467 70487 41/91 91931 10080 2008/ 49995 57020 74544 89/// 22200 06026 20403 314// 40805 80078
BBXX UFTA 29061 99845 71240 11996 51903 11340 21374 40126 53002 69952 77772 80001 555 48040
AAXX 29064 68399 16/// /2214 10247 20168 30045 40153 57005 60024 333 20185 91087 555 10300 20020 91015
AAXX 29064 68383 16/// /0000 10236 20155 39921 48579 52005 60034 333 20192 91000 555 10288 20032 69925 91016
AAXX 29064 68379 16/// /1907 10234 20179 39836 48571 52005 60074 333 20199 91013 555 10327 20078 91016
AAXX 29061 15015 02597 83300 10000 21006 39634 42829 57014 60002 885// 333 10016 20000 3/100 41998 60007 70000 91001 91101
AAXX 29061 15020 01996 01203 10004 20004 30005 40210 56024 60002 71040 333 10040 21021 34103 60007 70002 91004 91104 92600
AAXX 29061 15090 01996 20903 10022 20015 30135 40230 56024 60002 71011 82040 333 10056 20013 31101 55300 10192 20004 3//// 60007 70000 91006 91106
AAXX 29061 15108 02999 02710 11006 21006 38100 48517 56017 60002 333 11006 21023 3//// 44017 60007 70000 91016 92843 95000 444 37121
AAXX 29061 15120 01596 81401 11001 21006 39750 40264 56013 69902 77172 8557/ 333 10016 21001 31000 55300 10024 2//// 3//// 69907 70002 91002 91104 96010
AAXX 29061 15150 01392 81604 10004 20004 30009 40229 57022 60002 744// 886// 333 10028 20003 31101 60007 70000 91008 91108
AAXX 29061 15170 01596 81601 11014 21015 39446 42829 57016 60002 71022 885// 333 11011 21015 3/102 43003 60007 70000 91001 91101 92830
AAXX 29061 15200 02997 70000 11022 21022 30106 40258 56010 60002 87070 333 10026 21027 34102 60007 70002 91000 91101 92600
AAXX 29061 15230 02597 81602 10013 21006 39959 40262 57015 60002 885// 333 10024 20007 30000 55300 10022 20002 3//// 60007 70000 91004 91105
AAXX 29061 15260 01/93 92602 11009 21009 39707 40263 57018 60002 7474/ 333 10008 21010 3/100 41998 60007 70000 91002 91103
AAXX 29061 15280 02999 02002 11041 21116 37513 47046 57011 60002 333 11021 21054 3//// 49036 60007 70000 92848 444 66174
AAXX 29061 15292 01/93 91400 11024 21024 39946 40254 57018 60002 74542 333 10007 21026 34103 60007 70000 91001 91102
AAXX 29061 15310 01596 81702 10028 20017 30173 40262 57015 60002 71022 8457/ 333 10032 20024 31001 55300 10008 20000 3//// 60007 70000 91005 91106
AAXX 29061 15335 02497 50701 10010 20010 30259 40266 57014 60002 85600 333 10022 21030 34101 60007 70000 91002 91102 92600
AAXX 29061 15346 01596 83501 10027 20014 39965 40263 56019 60002 71022 885// 333 10050 20011 31002 60007 70000 91002 91102
AAXX 29061 15350 02597 62203 10031 20019 30138 40262 56014 60002 86500 333 10050 20030 30002 60007 70000 91004 91105
AAXX 29061 15360 01495 62201 10008 20008 30252 40267 57010 60002 71011 86600 222// 06045 20000 333 10017 21002 3//// 60007 70000 91002 91102 92405
AAXX 29061 15410 01/92 90000 11031 21031 30173 40274 56015 60002 74544 333 10005 21035 34105 60007 70000 91001 91101 92600
AAXX 29061 15420 02997 82101 10031 20012 30147 40262 56014 60002 8807/ 333 10037 20026 31002 55300 0//// 20000 3//// 60007 70000 91001 91102
AAXX 29061 15450 01494 83201 11034 21036 30018 40267 57017 60002 72841 8462/ 333 11002 21055 34104 55300 00016 20001 30001 60007 70000 91002 91102 92717 93503
AAXX 29061 15460 01996 81601 10025 20012 30243 40268 57012 60002 7102/ 8807/ 333 10030 20025 31002 60007 70000 91001 91101
AAXX 29061 15470 01996 82500 10007 20007 30133 40264 57014 60002 7102/ 8807/ 333 10009 20000 31101 60007 70000 91001 91101
AAXX 29061 15480 01496 82701 10034 20032 30253 40271 56012 60002 71022 886// 222// 06060 2//// 333 10034 20029 31001 60007 70000 91001 91101 92426
AAXX 29064 91930 36/// ///// 10274 20228
AAXX 29064 91943 36/// /0613 10266 20207 30135 40137 51020 333 20266 58006
AAXX 29064 89061 379// 00000 10005 21011 39787 49793 52008 72011 333 91002 91102
AAXX 29064 78970 11461 70907 10256 20234 30118 40143 6///1 78061 8683/ 333 02299 10322 20241 59001 84816 83636 90916
AAXX 29064 78962 NIL
AAXX 29064
AAXX 29061 01397 16/// /1301 10002 21001 39365 49792 57038 60082 333 20001 70135 91105
AAXX 29061 01001 11660 83507 11063 21142 30018 40030 53004 60002 70222 888// 333 21071 44999 70000 91111
AAXX 29061 01055 46/// /0408 11021 21088 39926 49944 57011 333 21023 91115
AAXX 29061 01317 11480 81502 10049 20025 39791 49805 50004 60162 78082 878// 333 20045 70221 91109
AAXX 29064 03026 17780 /2211 10023 20013 30028 40047 58026 69962 721// 90550 333 20019 3/000 55000 55300 20000 70054 83/50
AAXX 29064 03302 17557 /2625 10077 20047 30187 40199 57023 60042 723// 90550 333 20062 3/005 55032 55300 20000 70036 84/25 85/50 90710 91137
AAXX 29064 68029 32960 40503 10226 20204 48511 52011 82074 333 20205
AAXX 29064 68032 12960 60703 10225 20201 48501 52012 60214 85082 333 20200
AAXX 29064 68038 12560 50000 10242 20214 48507 52008 60014 82576 333 20206
AAXX 29064 68040 32960 52705 10235 20207 48508 52012 80004 333 20199
AAXX 29064 68054 12460 71203 10212 20209 48525 52016 60034 87600 333 20202
AAXX 29064 68070 12560 70908 10230 20216 48518 52018 60064 87500 333 20216
AAXX 29064 68148 32960 60207 10221 20207 48516 52019 86600 333 20177
AAXX 29064 68226 32960 60000 10246 20165 48508 51009 83082 333 20199
AAXX 29064 68234 12960 50905 10233 20194 48507 51016 60054 85080 333 20191
AAXX 29064 68320 12960 10000 10243 20201 48510 52012 60054 81081 333 20193
AAXX 29064 68325 32960 10238 20183 48510 52012 83080 333 20180
AAXX 29064 68328 32960 12104 10230 20179 48509 52016 81082 333 20175
AAXX 29064 48657 11465 73410 10263 20228 30103 40121 69901 71562 84848 333 81819 83625 87276
AAXX 29061 10685 01480 72505 10018 20001 39526 40214 52002 69952 70276 86531 333 10024 20007 31000 55000 55300 20000 30000 69957 70005 86612 91113 96451
AAXX 29064 03301 16579 /2619 10071 20057 30126 40200 56025 60042 90550 333 20057 70042 83/21 84/27 86/38 90710 91130 91030
AAXX 29064 03305 17580 /2433 10058 20028 39934 40200 56022 60072 761// 90550 333 20043 3/003 70072 87/20 90710 91150 91047
AAXX 29064 03313 16781 /2621 10064 20037 30089 40185 56033 60032 90550 333 20053 3/003 70026 86/56 85/63 90710 91135 91035
AAXX 29064 03316 17462 /2634 10068 20051 30164 40175 57028 60032 761// 90550 333 20065 3/005 70040 81/16 85/24 86/30 90710 91145
AAXX 29064 03318 16/// /2727 10069 20050 60012 90550 333 20062 70010 90710 91138 91038
AAXX 29064 03321 16584 /2712 10062 20035 30175 40188 58025 60022 90550 333 20056 3/005 55/// 553// 20000 70022 82/29 87/56
AAXX 29064 03330 17360 /2614 10033 20025 39821 40189 57024 60012 762// 90550 333 20032 3/003 70014 87/06 90710 91126
AAXX 29064 03344 17436 /2517 10039 20027 39837 40159 56013 60062 762// 90550 333 20027 3/001 70062 84/11 87/20 90710 91132 91031
AAXX 29064 03346 16/// /2521 10028 20018 60022 90550 333 20023 3/001 70034 90710 91143 91033
AAXX 29064 03348 17460 /2416 10046 20036 30072 40182 56027 60022 762// 90550 333 20044 3/004 55025 55300 20000 70036 85/12 86/20
AAXX 29064 03355 17570 /2520 10059 20036 30136 40148 56027 69922 781// 90550 333 20052 3/003 55019 55300 20000 70004 87/20 90710 91132 91030
AAXX 29064 03373 16662 /2318 10051 20019 30101 40172 56017 69942 90550 333 20046 3/004 70004 87/35
AAXX 29064 03379 16766 /2426 10053 20010 30105 40183 58018 60002 90550 333 20048 3/003 70002 86/50 90710 91133
AAXX 29064 03382 17578 /2313 10061 20029 30139 40148 57017 69902 723// 90550 333 20052 3/004 55011 55300 20000 70008 83/27 85/33
AAXX 29064 03385 46969 /2415 10056 20016 30150 40160 57014 90550 333 20055 87/63 90710 91126
AAXX 29064 03391 12780 62519 10052 20004 30170 40177 58017 69902 82512 90550 333 20051 31003 79999 82650 84465 85070 90710 91126
AAXX 29064 03392 16969 /2315 10043 20014 30170 40174 57017 69922 90550 333 20041 3/003 70002 81/63 86/72 90710 91127
AAXX 29064 03405 16466 /2632 10069 20059 30100 40217 56022 60012 90550 333 20063 3/005 55/// 553// 20000 70012 86/15 83/25 90710 91146 91043
AAXX 29064 03409 16/// /2618 10056 20038 60052 90550 333 20048 3/003 55000 55300 2//// 70050 90710 91134 91030
AAXX 29064 03410 16457 /2628 10041 20031 39756 40198 56032 60082 90550 333 20027 3/001 55/// 553// 20000 70098 87/16 90710 91147 91039
AAXX 29064 03469 15970 /2417 10043 20011 30182 40186 58013 60002 90550 333 20043 3/003 55/// 553// 20000 79999 8//99 90710 91125
AAXX 29064 03488 15977 /2422 10054 20007 30153 40179 58009 60002 90550 333 20052 70004 87/63 90710 91130
AAXX 29064 03503 17563 /2612 10074 20044 30152 40230 58030 69922 782// 90550 333 20062 3/004 70018 86/26 83/33 90710 91135 91025
AAXX 29064 03507 17561 /2707 10053 20033 39858 40236 58027 69902 782// 90550 333 20038 3/003 70008 87/21 83/27 90710 91125 91024
AAXX 29064 03520 16559 /2721 10070 20035 30095 40218 56027 69962 90550 333 20051 3/003 55/// 553// 20000 70012 84/29 85/37 85/46 90710 91133 91031
AAXX 29064 03522 17663 /2514 10070 20032 30134 40229 58022 69902 761// 90550 333 20058 3/004 79999 86/31 84/38 90710 91130 91030
AAXX 29064 03529 15676 /2513 10077 20019 30183 40227 58019 69902 90550 333 20057 3/003 79999 87/32 91024
AAXX 29064 03544 17566 /2413 10053 20022 30073 40206 58025 69902 781// 90550 333 20044 3/003 55/// 553// 20000 79999 87/29 91024
AAXX 29064 03560 15667 /2311 10040 20008 30106 40212 58024 60002 90550 333 20038 3/003 55/// 553// 20000 79999 81/35 84/50
AAXX 29064 03604 16675 /2824 10090 20040 30199 40254 57028 60002 90550 333 20066 3/005 70002 81/36 84/56 87/62 90710 91141 91037
AAXX 29064 03605 16668 /2728 10090 20043 30244 40253 58027 60002 90550 333 20068 70002 81/34 83/57 90710 91139
AAXX 29064 03609 16/// /2623 10090 20039 30205 40259 58024 69922 90550 333 20065 3/005 70014 90710 91135 91034
AAXX 29064 03628 15567 /2618 10070 20034 30173 40247 58024 60002 90550 333 20055 3/003 55032 55300 20000 70004 82/29 90710 91127
AAXX 29064 03647 16666 /2516 10047 20014 39965 40225 57025 60002 90550 333 20039 3/002 55/// 553// 20000 70002 86/30 90710 91125
AAXX 29064 03658 16975 /2109 10052 20010 30172 40243 58014 60002 90550 333 20045 3/003 70000 81/58 87/65
AAXX 29064 03660 15969 /2709 10042 20010 39982 40236 58018 60002 90550 333 20034 3/102 79999 83/68
AAXX 29064 03672 16979 /2413 10051 20006 30202 40243 58012 60002 90550 333 20047 3/002 79999 88/68
AAXX 29064 03684 15977 /2516 10044 20001 30112 40221 57013 60002 90550 333 20042 3/003 79999 83/62 90710 91127
AAXX 29064 03693 16980 /2615 10057 20010 30228 40231 58007 60002 90550 333 20053 3/004 70000 87/63 90710 91125
AAXX 29064 03707 15664 /2824 10093 20039 30267 40274 58020 60002 90550 333 20078 3/006 70028 81/30 87/60 90710 91133
AAXX 29064 03710 16766 /2721 10053 20033 39838 40267 58023 69982 90550 333 20031 3/002 55/// 553// 20000 70034 86/56 90710 91130
AAXX 29064 03743 16572 /2409 10056 20029 30096 40260 57014 60002 90550 333 20035 3/002 70006 83/24
AAXX 29064 03749 16572 /2307 10047 20020 30151 40265 56014 60002 90550 333 20036 3/001 70002 85/28 83/66
AAXX 29064 03761 12970 82311 10041 20008 30110 40258 58015 60002 8807/ 90550 333 20039 3/002 55008 55300 20000 70006 88362
AAXX 29064 03768 16962 /2512 10051 20012 30173 40254 58014 60002 90550 333 20046 3/003 70000 8//99
AAXX 29064 03769 15971 /2309 10047 20015 30172 40256 58005 60002 90550 333 20043 3/002 55013 55300 20000 70002 83/62 87/69
AAXX 29064 03770 16/// ///// 10057 20014 60002 90550 333 20052 3/002 70000
AAXX 29064 03781 15975 /2414 10045 20011 30040 40252 58007 60002 90550 333 20034 3/002 55/// 553// 20000 70004 81/66
AAXX 29064 03797 15970 /2413 10047 20002 30174 40235 57008 60002 90550 333 20045 3/003 55015 55300 20000 70002 88/63
AAXX 29064 03823 15562 /2813 10069 20036 30048 40296 58012 69902 90550 333 20053 3/004 55/// 553// 20000 70052 86/25 90710 91127
AAXX 29064 03839 16/// ///// 10056 20025 69922 90550 333 20041 55/// 553// 20000 70022
AAXX 29064 03857 15963 /2825 10084 20038 30217 40282 57007 69902 90550 333 20079 3/007 70018 8//99 90710 91137
AAXX 29064 03862 15677 /2509 10052 20018 30265 40277 56010 69902 90550 333 20035 3/001 55014 55300 20000 70014 83/42
AAXX 29064 03866 16/// /2725 10082 20032 30251 40276 58006 60002 90550 333 20074 3/006 70022 90710 91133
AAXX 29064 03872 15969 /2717 10068 20029 30265 40270 58009 60002 90550 333 20055 3/004 55/// 553// 20000 70014 83/62 90710 91125
AAXX 29064 03876 16/// /2709 10048 20023 30264 40266 58005 60002 90550 333 20036 70012
AAXX 29064 03895 42681 62820 10086 20024 40317 58001 868// 333 20079 83832 86643 90710 91127
BBXX MIBR 29063 99069 30838 41497 63122 10290 20248 40070 54000 70222 85201 22254 00283 20302 329// 40605 5//// 80260
BBXX PCCL 29063 99400 31655 41097 81716 10183 40059 52011 70250 887// 22263 04181 20503 321// 40807
BBXX PCDE 29063 99261 31537 41598 31803 10260 20205 40040 54000 7//00 82143 22242 20403 324// 40403 80222
BBXX VK4041 29060 99096 51222 41/// /1009 10246 20218 40137 52005 70200 8//// 22262 02247 20203 3//// 4//// 5//// 80227
BBXX PCKU 29060 99028 11195 41598 60203 10284 20234 40108 56006 7//22 81169 22243 04292 20301 30000 80248
AAXX 29061 10147 01463 82408 10043 20027 30083 40102 55002 60022 76186 875// 333 10076 20041 32003 55004 55300 20000 30000 41195 60027 70019 82710 84617 85626 91118 91211
AAXX 29064 03008 16/// /3030 10035 21041 39908 49977 51010 60022 90550 333 20027 70068 90710 91143 91040
AAXX 29064 03010 46/// /3122 10058 21015 40025 58009 333 90710 91133
AAXX 29064 03014 46/// /3222 10007 21053 49977 52016 90550 333 8//// 90710 91148
AAXX 29064 03031 17458 /2709 10012 20002 39731 40062 56018 60042 761// 90550 333 20006 3/100 55/// 553// 20000 70318 82/13 86/19
AAXX 29064 03034 17774 /2710 10045 20026 30042 40056 58022 60032 723// 90550 333 20032 3/001 70140 83/56
AAXX 29064 03037 17682 /1805 10031 20020 30051 40073 58026 60022 723// 90550 333 20029 3/002 70150 85/31 83/65
AAXX 29064 03039 46/// /2716 11011 21011 90550 333 21021 90710 91128
AAXX 29064 03041 46/// /2524 11033 21033 90550 333 21044 90710 91136 91036
AAXX 29064 03044 17676 /2706 10022 20007 39944 40044 58010 60042 721// 90550 333 20012 3/100 55/// 553// 20000 70150 84/36 84/60
AAXX 29064 03047 17456 /2803 10013 20004 39780 40087 57018 60052 761// 90550 333 20011 3/000 55/// 553// 20000 70256 87/15
AAXX 29064 03062 15780 /2210 10024 21005 30048 40053 58013 60032 90550 333 20015 3/100 55/// 553// 20000 70110 85/50 84/61
AAXX 29064 03065 46/// /2743 11048 21054 90550 333 21057 90710 91155
AAXX 29064 03068 12680 72513 10032 21001 30045 40054 58007 69962 875// 90550 333 20023 31000 70032 84630 87645
AAXX 29064 03080 15682 /1204 10004 21025 39891 40065 58006 69962 90550 333 21006 3/104 70058 81/40 86/57
AAXX 29064 03088 15982 /2512 10019 21006 39902 40068 58006 69902 90550 333 20017 3/000 55/// 553// 20000 79999 87/58
AAXX 29064 03094 17557 /2723 10055 20021 30032 40037 50001 60012 704// 90550 333 20049 3/004 70022 81/25 86/50 90710 91136
AAXX 29064 03105 17661 /2826 10072 20043 30100 40117 58015 60042 781// 90550 333 20035 3/002 70066 82/32 85/44 90710 91134
AAXX 29064 03144 15384 /2607 10027 20011 30044 40088 58013 69962 90550 333 20025 3/001 55/// 553// 20000 70074 87/06
AAXX 29064 03148 46/// /2915 11003 21003 90550 333 21010
AAXX 29064 03153 15483 /2622 10053 20036 39986 40126 58017 60022 90550 333 20037 3/002 55/// 553// 20000 70032 87/12 90710 91136
AAXX 29064 03155 16781 /2620 10031 20011 39804 40106 57019 60042 90550 333 20006 3/000 70116 82/50 86/59 90710 91126
AAXX 29064 03158 15584 /2210 10024 20016 39952 40091 58016 69902 90550 333 20024 3/002 55/// 553// 20000 70018 87/20
AAXX 29064 03210 16469 /2730 10058 20036 39987 40140 57023 69962 90550 333 20043 3/003 70008 85/13 87/21 90710 91139
AAXX 29064 03212 17475 /2711 10058 20033 30039 40139 56024 60032 723// 90550 333 20043 3/003 70046 87/16 84/25 90710 91125 91025
AAXX 29064 03214 17566 /2626 10069 20046 30133 40152 56025 60032 723// 90550 333 20043 3/003 70026 81/22 87/56 90710 91137
AAXX 29064 03220 16462 ///// 10051 20042 30092 40126 56024 69982 90550 333 20049 3/003 70136 86/15 85/43
AAXX 29064 03225 16559 /2714 10047 20015 39829 40138 56023 60052 90550 333 20031 3/001 55/// 553// 20000 70078 85/25 84/50 90710 91130 91026
AAXX 29064 03226 17466 /2811 10041 20023 39855 40134 56022 60012 781// 90550 333 20032 3/002 70022 87/18 91021
AAXX 29064 03227 46/// /2632 11009 2//// 90550 333 21020 90710 91145
AAXX 29064 03230 16483 /2612 10032 20020 39848 40108 58017 60012 90550 333 20024 3/001 70062 82/13 86/64 90710 91125 91023
AAXX 29064 03238 17481 /2623 10042 20023 39925 40100 58022 69922 723// 90550 333 20037 3/002 70020 86/12 90710 91139 91036
AAXX 29064 03261 16971 /2625 10055 20022 30089 40129 58037 60002 90550 333 20042 3/002 70008 8//99 90710 91136 91036
AAXX 29064 03265 15584 /2616 10061 20024 30102 40132 58035 69902 90550 333 20051 3/004 70002 81/22 90710 91133
AAXX 29064 03266 16583 /2619 10053 20021 30118 40135 58035 69922 90550 333 20050 3/004 70006 83/21 90710 91129 91029
AAXX 29064 03275 15575 /2418 10044 20013 39925 40120 56024 60002 90550 333 20038 3/003 70004 84/21 83/60 90710 91129
AAXX 29064 03281 16/// /2315 10033 20026 69922 90550 333 20030 70010 90710 91128
AAXX 29064 03903 16565 /2718 10071 20045 30112 40170 57017 60112 90550 333 20044 3/003 55/// 553// 20000 70130 83/28 84/44 90710 91134 91034
AAXX 29064 03904 16430 /2513 10063 20044 30098 40158 57015 60072 90550 333 20049 3/003 70104 81/15 85/22
AAXX 29064 03907 17527 /2827 10065 20035 30134 40141 57013 60052 782// 90550 333 20043 3/003 55000 55300 20000 70068 82/24 84/50 90710 91141 91041
AAXX 29064 03911 16450 /2919 10047 20032 39882 40159 55013 60072 90550 333 20033 3/002 70092 84/14 90710 91131 91031
AAXX 29064 03915 16580 /2710 10052 20049 30062 40141 57021 60022 90550 333 20038 3/002 70046 82/27 83/59 90710 91125 91020
AAXX 29064 03916 16474 /3009 10051 20040 39941 40133 57013 60082 90550 333 20030 3/002 55/// 553// 20000 70104 82/13 85/19 90710 91127 91023
AAXX 29064 03923 17458 /2910 10048 20035 39969 40168 56014 60122 762// 90550 333 20034 3/001 70140 83/11 86/37
AAXX 29064 84401 31660 81604 10234 20181 30097 40141 70222 8453/ 333 5600/ 58000 84640 84360
AAXX 29064 84452 21660 81706 10198 20183 30113 40144 75820 8351/ 333 5649/ 58000 69941 83640 85460
AAXX 29064 84501 31957 21903 10184 20166 30111 40138 71000 82030 333 56000 58007 82367
AAXX 29064 84515 31960 50000 10240 20226 39943 40120 70223 85030 333 56000 58000 85360
AAXX 29064 84686 31660 8//// 10115 20071 36888 70222 84500 333 56909 59004 81640 83656
AAXX 29064 84628 34960 51607 10209 20181 30120 40136 70222 8503/ 333 5601/ 58000 85360
AAXX 29064 84377 31560 80000 10245 20239 30012 40018 70320 88800 333 56300 59003 88630
AAXX 29064 84377 31560 80000 10245 20239 30012 40018 70320 88800 333 56300 59003 88630
AAXX 29064 84691 31560 50000 10213 20190 30124 40131 70222 855// 333 560// 59004 85625
AAXX 29064 84782 31862 80000 10184 20150 39631 40139 70222 8803/ 333 5608/ 59015 88358
AAXX 29064 84752 32760 81304 10142 20114 37541 70226 885// 333 569// 58000 88650
BBXX PDHP 29063 99448 70086 41/98 30216 10108 20040 40407 50003 70200 827// 22214 00137 20303 80075
BBXX C6KD6 29064 99435 70214 41598 31216 10137 20109 40392 51005 70111 831/5 22214 02142 20907 80122
BBXX TBWUK35 29063 99608 10040 41/98 32705 10065 20042 49799 53020 70100 83500 22262 00100 2//// 80055
BBXX A8MZ9 29064 99349 10204 41597 61117 10160 20117 57015 70362 85379 22264 04178
BBXX A8PX4 29064 99347 10193 41398 61806 10155 20067 40217 55003 70162 8/900 22224 00175 2//// 80108
BBXX 42362 29061 99278 70907 46/// /1404 10194 20117 40193 57017 90600
BBXX 42363 29061 99282 70892 46/// /1306 10183 20106 40193 58021 90600 333 91208
BBXX 42363 29061 99282 70892 46/// /1506 10189 20111 40197 90615 333 91206
BBXX 42364 29061 99291 70881 46/// /1203 10167 20100 40200 56017 90600
BBXX 41041 29061 99142 70460 46/// /0809 10260 20208 40172 58012 90550 22200 00263 10805 20704 3//// 40802 70023 333 91211 555 11095 22102 30549 40711 60549 075090 069092 073093 077092 073093 071094 80710 90537
BBXX 41038 29061 99341 70777 46/// /3104 10110 40180 50000 90600 22200 00136 333 91205
BBXX PBAD 29061 99226 70708 41298 71608 10260 20220 40170 57001 70182 8677/ 22234 02265 20301 306// 40502 5//// 80233
BBXX KAOU 29064 99005 10840 43/// /0192 10283 20233 40095 5//// 7//// 8//// 222// 04286 2//// 3//// 4//// 5//// 6//// 8//// ICE /////
BBXX NWS0029 29064 99415 70707 43/// /2923 11005 21083 40050 5//// 7//// 8//// 222// 04070 2//// 3//// 4//// 5//// 6//// 8//// ICE /////
BBXX PHSG 29064 99145 70930 41/98 21910 10270 40140 54000 70300 8//// 22234 00280 20400
BBXX PFRO 29064 99163 70619 41498 30817 10240 20210 40163 57006 70300 83100 22282 20403 30000 80220
BBXX WBO3345 29064 99227 70785 41597 20507 10222 20189 40150 54/// 70100 82388 22272 0//// 20402 305// 40402 5//// 6//// 80200 ICE /////
BBXX NWS0003 29064 99539 71665 43/// /0000 11038 21089 40035 5//// 7//// 8//// 222// 0//// 2//// 3//// 4//// 5//// 6//// 8//// ICE /////
BBXX NWS0020 29064 99271 70678 43/// /2214 10240 20200 40175 5//// 7//// 8//// 222// 04245 2//// 3//// 4//// 5//// 6//// 8//// ICE /////
BBXX VRJI2 29063 99332 70174 41698 20509 10150 2012/ 40310 54000 70200 821// 22253 04170 21002 30505 41204 51204 6/00/ 80130 ICE 0////
BBXX PHET 29061 99119 70685 41/98 /1114 10269 20223 40130 58010 7//// 8//// 22271 00270 2//// 3//// 4//// 5////
BBXX WL3972 29064 99451 70830 41/99 71808 11060 2//// 40139 5//// 70311 8//// 22243 00040 20101 3//// 4//// 5//// 6//// 8//// ICE /////
BBXX PCHM 29064 99398 31783 41298 60242 10185 20169 40109 53011 70222 84766 22214 00180 20305 304// 40205 80175
BBXX C6XC2 29064 99244 11264 41498 70808 10260 20217 40190 54000 70222 8713/ 22283 00240 20402 307// 40805 5//// 6//// 80230 ICE /////
BBXX PBIG 29064 99216 70743 41698 10812 10249 20154 40170 54000 7//// 8/1// 22244 20304 80191
BBXX WXJ63 29063 99611 71464 41/94 83504 11042 21049 49780 52/// 771// 8//// 222// 00039 2//// 3//// 4//// 5//// 6//// 8//// ICE /////
BBXX WDB9950 29063 99544 71694 41398 73428 11030 21033 40070 51040 72272 8777/ 22264 00040 20405 331// 40809 5//// 6//// 81030 ICE /////
BBXX 46083 29061 99582 71380 46/// /2914 10014 20008 49821 53034 90550 22200 00064 11105 20604 300// 41103 70026 333 91217 555 11149 22159 30531 42917 60549 286139 287139 292130 304123 307086 318047 82915 90532
BBXX 46001 29061 99563 71480 46/// /2614 11011 49904 53014 90550 22200 00044 10808 20806 300// 40904 70039 333 91218 555 11148 22156 30545 42718 60549 259140 259137 273134 270135 277137 272130
BBXX 44039 29061 99411 70727 46/// /2912 10002 21062 40095 51011 90600 22200 00086 10603 70016 333 91217
BBXX 44060 29061 99413 70721 46/// ///12 11003 40077 53013 90600 22200 00093 333 91216 555 11129 22134
BBXX 44022 29061 99409 70737 46/// ///09 11002 21082 40110 51011 90600 22200 00084 333 91212 555 11093 22098
AAXX 29061 26554 11448 82204 10014 20003 39937 40102 57029 69952 71082 886// 333 20000 555 90010
AAXX 29061 26666 11459 81803 11007 21022 39923 40142 57029 69902 76662 8872/ 333 21012 91110 555 90012
AAXX 29061 26850 11256 82003 10007 20001 39871 40148 57023 69912 76162 885// 333 21008 88704 555 90010
AAXX 29061 26863 31558 71706 11018 21029 39936 40179 57011 71011 875// 333 21019 87621 91110
AAXX 29061 26941 31458 82204 10023 20004 39914 40153 57015 71022 887// 333 21013 88717 555 90010
AAXX 29061 26951 31359 82006 10011 20003 39964 40166 57022 71022 886// 333 21010 88707 555 90011
AAXX 29061 33008 32460 82303 10021 20000 39983 40164 57017 886// 333 20021 88711 555 90010
AAXX 29061 33019 31538 71603 10017 20012 30000 40178 57019 71042 875// 333 21027 87621 555 90010
AAXX 29061 33036 31/04 91702 11007 21007 39969 40206 57018 74542 333 21016 89/01 93401 555 90011
AAXX 29061 33041 31217 82004 11017 21019 30058 40219 57013 71022 886// 333 21024 88705 555 90010
AAXX 29064 78970 11461 70907 10256 20234 30118 40143 6///1 78061 8683/ 333 02299 10322 20241 59001 84816 83636 90916
AAXX 29064 78962 NIL
AAXX 29064 70026 NIL
AAXX 29064 70133 NIL
AAXX 29064 70174 NIL
AAXX 29064 70200 NIL
AAXX 29064 70219 NIL
AAXX 29064 70231 NIL
AAXX 29064 70261 NIL
AAXX 29064 70267 NIL
AAXX 29064 70271 NIL
AAXX 29064 70273 NIL
AAXX 29064 70308 NIL
AAXX 29064 70316 NIL
AAXX 29064 70326 NIL
AAXX 29064 70340 NIL
AAXX 29064 70350 NIL
AAXX 29064 70361 NIL
AAXX 29064 70381 NIL
AAXX 29064 70398 NIL
AAXX 29064 70414 NIL
BBXX 51000 29061 99235 71541 46/// /0808 10227 40243 51012 90550 22200 00227 11905 20703 331// 41904 70026 333 91210 555 11083 22089 30525 40810 60549 078077 077078 077080 076077 079077 079073
BBXX 51003 29061 99193 71606 46/// /0608 10243 40196 53009 90550 22200 00249 10805 20604 3//// 40803 70026 333 91210 555 11084 22089 30535 40710 60549 061079 064085 064081 065085 064083 065084
BBXX 46053 29061 99342 71198 46/// /2003 10138 40206 52004 90550 22200 00138 11303 20401 327// 41303 70016 333 91203 555 11029 22030 30450 42003 60549 202028 195026 183026 182019 192015 222016
BBXX 46042 29061 99368 71224 46/// /3409 10118 40252 57007 90550 22200 00125 11305 20402 329// 41305 70026 333 91211 555 11099 22105 30534 43411 60549 337093 337094 339087 343082 345090 344084
BBXX 44008 29061 99405 70692 46/// /2815 10052 20003 40047 53024 90550 22200 00104 11110 21110 70048 333 91218 555 11155 22163 30503 42819 60549 279144 279144 284145 286147 285149 279147
BBXX 44172 29061 99445 70634 46/// ///// 1//// 90601 22200 00059 11107 21006 318// 41104 70035
BBXX 44097 29061 99410 70711 46/// ///// 1//// 90602 22200 00114 11107 20806 322// 41104 70035
BBXX 46089 29061 99459 71258 46/// /2512 10106 20092 40131 53039 90550 22200 00095 11108 20805 325// 41106 70041 333 91215 555 11126 22136 30534 42515 60549 249115 246116 249101 250107 248101 251099
BBXX 44011 29061 99411 70666 46/// /2616 10062 20014 40000 53022 90550 22200 00091 11111 20707 3//// 41109 70057 333 91220 555 11166 22176 30525 40920 60549 265155 267155 266162 267157 260148 264151
BBXX PBIG 29064 99216 70743 41698 10812 10249 20154 40170 54000 7//// 8/1// 22244 20304 80191
BBXX DDAC2 29060 99403 71315 41/96 /2006 10120 20120 40210 54000 71044 8//// 22273 04130 2//// 327// 40507 5//// 80120
BBXX 9HXC9 29064 99194 70653 41498 20925 10249 20193 40167 56003 7//00 82005 22274 04268 20604 3//// 40902 5//// 6//// 80211 ICE /////
BBXX A8UE5 29064 99542 71641 41497 23220 11020 21023 40015 54000 77077 81946 22224 04040 20401 3//// 4//// 5//// 81020
BBXX 5BDK2 29064 99279 70926 41498 31813 10200 2017/ 40230 54000 70110 82485 22243 00230 20201 3//// 40401 5//// 6//// 80180 ICE /////
BBXX 9HXD9 29064 99142 70610 41796 81221 10240 2//// 40140 54/// 78066 8797/ 22273 04290 21204 310// 4//// 5//// 6//// 8//// ICE /////
BBXX C6LU4 29064 99411 70524 41/96 71817 10170 2014/ 40050 56010 70211 8//// 22224 2//// 3//// 4//// 5//// 80150
BBXX CGCC 29064 99460 70731 46/// /2405 11134 21201 40055 52024 7//// 8//// 22200 0//// 2////
BBXX VCWL 29064 99468 70712 46/// /2506 11122 21172 49980 53019 7//// 8//// 22200 0//// 2////
BBXX VCSZ 29064 99455 70735 46/// /2411 11139 21178 40074 53025 7//// 8//// 22200 0//// 2////
BBXX CGDG 29064 99447 70636 46/// /2417 10035 20067 49875 52014 7//// 8//// 22200 0//// 2////
BBXX CGTF 29064 99476 70527 46/// /3301 10031 20030 49944 56048 7//// 8//// 22200 0//// 2////
BBXX VCLM 29064 99468 70712 46/// /2517 11123 21167 49969 52018 7//// 8//// 22200 0//// 2////
BBXX CGSB 29064 99479 70695 46/// /3210 11091 21136 49910 53011 7//// 8//// 22200 0//// 2////
BBXX CGBY 29064 99487 71235 46/// /2517 10108 20057 40022 53026 7//// 8//// 22200 0//// 2////
BBXX CGDT 29064 99468 70712 46/// /2416 11122 21170 49979 53019 7//// 8//// 22200 0//// 2////
BBXX VOKJ 29064 99498 70628 46/// /1115 10022 20022 49758 57072 7//// 8//// 22274 0//// 2////
BBXX CGBR 29064 99507 71275 46/// /0903 10060 20059 40035 51063 7//// 8//// 22200 0//// 2////
BBXX CGHL 29064 99476 70527 46/// /0000 10034 20032 49944 56048 7//// 8//// 22200 0//// 2////
BBXX VXKF 29064 99462 70602 46/// /2220 10068 20049 49801 55030 7//// 8//// 22200 0//// 2////
BBXX 3FZK3 29064 99493 71230 46/// /2307 10095 20093 40017 51033 7//// 8//// 22200 0//// 2////
BBXX CGJV 29064 99457 70627 46/// /2322 10040 20010 49837 53010 7//// 8//// 22200 0//// 2////
BBXX VOLG 29064 99465 70546 46/// /1521 10031 20030 49918 58070 7//// 8//// 22264 0//// 2////
BBXX VOPP 29064 99456 70735 46/// /2408 11146 21204 4//// 5//// 7//// 8//// 22200 0//// 2////
BBXX CGDR 29064 99484 71234 46/// /2522 10097 20095 40041 53039 7//// 8//// 22200 0//// 2////
BBXX VAAP 29064 99446 70635 46/// /2414 10041 20010 49869 51014 7//// 8//// 22200 0//// 2////
BBXX VCBW 29064 99467 70714 46/// /2635 11118 21169 49946 50015 7//// 8//// 22200 0//// 2////
BBXX VRYO3 29064 99456 70735 46/// /0000 11138 21134 40065 53023 7//// 8//// 22200 0//// 2////
BBXX UFTA 29061 99845 71240 11996 51903 11340 21374 40126 53002 69952 77772 80001 555 48040
BBXX DGAF 29063 99196 70742 41298 10616 10260 20246 40180 54000 70200 811// 22244 00270 2//// 80250
BBXX WAZV 29064 99587 71461 41497 82637 11010 2105/ 49850 52043 70222 887// 22233 00050 20709 327// 41007 5//// 61/// 81025 ICE /////
BBXX WJBJ 29063 99270 70763 41998 03102 10190 2012/ 40189 57006 70200 80000 22234 00240 20402 333// 40402 5//// 6//// 80145 ICE /////
BBXX A8SG3 29064 99271 70469 41698 30503 10220 20131 40250 54000 70211 82212 22214 04240 29901 332// 41508 80165
BBXX ICGU 29064 99177 70631 41797 40822 10260 20202 40170 57/// 70311 844// 22233 04260 21001 31010 41401 51502 6//// 85220 ICE /////
BBXX DANM 29064 99405 70704 41/98 53130 10036 21045 40152 52042 70122 8//// 22265 00100 2//// 80006
BBXX WKAP 29063 99477 70418 41/91 /1624 10120 2012/ 40090 57060 74744 8//// 22264 00090 20706 326// 41006 5//// 6//// 80120 ICE /////
BBXX WDB9950 29063 99544 71694 41398 73428 11030 21033 40070 51040 72272 8777/ 22264 00040 20405 331// 40809 5//// 6//// 81030 ICE /////
BBXX 9HA2583 29064 99184 70655 41292 20919 1//// 2//// 40190 5//// 7//// 82722 222// 0//// 20102 3//// 40102 50102 6//// 8//// ICE /////
BBXX 3FQS8 29064 99315 71269 41298 50223 00/// 10147 2014/ 40280 52040 70222 85131 22274 00180 20503 335// 40503 5//// 6//// 80140 /////
BBXX 46215 29061 99352 71209 46/// ///// 1//// 90538 22200 00144 11304 21002 326// 41303 70018
BBXX 46224 29061 99332 71175 46/// ///// 1//// 90536 22200 00145 11301 21001 324// 41301 70007
BBXX 46219 29061 99332 71199 46/// ///// 1//// 90558 22200 00135 11305 20803 330// 41304 70025
BBXX 46247 29061 99378 71228 46/// ///// 1//// 90551 22200 00114 11304 21002 327// 41304 70022
BBXX 46236 29061 99368 71219 46/// ///// 1//// 90550 22200 00121 11303 20902 328// 41303 70017
BBXX 46229 29061 99438 71246 46/// ///// 1//// 90551 22200 00092 11308 20906 327// 41305 70040
BBXX 46213 29061 99403 71247 46/// ///// 1//// 90554 22200 00108 11307 21004 329// 41306 70036
BBXX 46225 29061 99329 71174 46/// ///// 1//// 90544 22200 00150 11302 20901 327// 41301 70008
BBXX 46243 29061 99462 71241 46/// ///// 1//// 90559 22200 00082 11208 20906 326// 41205 70039
BBXX 46214 29061 99379 71235 46/// ///// 1//// 90553 22200 00113 11305 20903 330// 41304 70025
BBXX 46232 29061 99325 71174 46/// ///// 1//// 90538 22200 00144 11303 20802 328// 41302 70013
BBXX 46239 29061 99363 71221 46/// ///// 1//// 90551 22200 00125 11205 21004 330// 41204 70026
BBXX 42362 29061 99278 70907 46/// /1303 10194 20117 40193 90545
BBXX 46238 29061 99334 71195 46/// ///// 1//// 90550 22200 00139 11304 21003 329// 41303 70020
BBXX 51205 29061 99210 71564 46/// ///// 1//// 90548 22200 00234 11005 21004 303// 41103 70023
BBXX 44099 29061 99369 70757 46/// ///// 1//// 90552 22200 00113 11302 20402 308// 41301 70010
BBXX 41046 29061 99238 70683 46/// /1606 10250 20200 40186 56008 90550 22200 00254 11504 20502 300// 41503 70019 333 91207 555 11061 22065 30457 41709 60549 165059 162061 164065 160066 162069 160068 81607 90503
BBXX 42099 29061 99273 70842 46/// ///// 1//// 90557 22200 00233 10702 20702 70008
BBXX 44100 29061 99363 70756 46/// ///// 1//// 90552 22200 00124 11402 21002 308// 41401 70011
BBXX 41110 29061 99341 70777 46/// ///// 1//// 90551 22200 00136 11701 20701 312// 41701 70006
BBXX 41113 29061 99284 70805 46/// ///// 1//// 90551 22200 00217 10901 20901 70004
BBXX 41112 29061 99307 70813 46/// ///// 1//// 90551 22200 00166 10301 20301 70004
BBXX A8RV9 29064 99026 50345 41498 41119 10250 20207 40110 56010 70300 8314/ 22234 04230 21003 303// 41204 5//// 80220
BBXX TBWUK30 29064 99029 70003 41398 81811 10260 20260 40108 54000 78086 8/720 22223 00281 20202 318// 40302 5//// 80260
BBXX DBLK 29061 99554 30000 41498 82711 11004 21026 49866 52034 71582 878// 22283 05007 20503 328// 41008
BBXX BATFR19 29064 99066 30057 46/// /1914 10237 20194 40144 53014 22200 00254
BBXX BATFR55 29064 99169 30545 44598 31113 10274 20237 40122 70111 82141 22232 00284 20802 32929 412// 512//
BBXX TBWUK42 29064 99194 30684 41498 61011 10265 20228 40139 58003 70322 841/5 22213 20305 308// 40803 5//// 80240
BBXX C6JE4 29063 99016 30674 41898 72709 10278 20228 40131 57002 70222 80008 22253 04275 20901 318// 41101 5//// 80244
BBXX A8GU8 29060 99089 50326 41697 20710 10270 20241 40130 56/// 70322 82444 22214 04260 21004 3//// 4//// 5//// 80250
BBXX C6IO9 29063 99028 50315 41498 51413 10263 20229 40128 54000 70211 84142 22243 06260 21101 303// 41003 5//// 80240
BBXX C6SI6 29064 99356 11398 46/// /1902 10099 20035 40172 56028 7//// 8//// 22200 0//// 2////
BBXX C6XC2 29064 99244 11264 41498 70808 10260 20217 40190 54000 70222 8713/ 22283 00240 20402 307// 40805 5//// 6//// 80230 ICE /////
BBXX C6YA7 29064 99050 10880 41/98 22708 10260 2019/ 40110 56015 70200 82//7 22263 0//// 2//// 330// 40504 5//// 6//// 80210 ICE /////
BBXX BATFR56 29064 99058 10945 46/// /0913 10282 20280 40098 58024 22213 00299
BBXX BATEU07 29064 99078 10930 46/// /1021 10284 40112 58020 22263
BBXX BATFR28 29064 99059 10833 46/// /2319 10282 20194 40096 58013 22262 00282
BBXX SHIP 29064 99194 11443 41498 30918 10270 2021/ 40170 54000 70200 83100 22253 00280 20302 336// 40604 5//// 6//// 80230 ICE /////
BBXX 46070 29061 99551 11753 46/// /2701 11030 21116 40127 52007 90550 22200 00035 10904 20401 3//// 40904 70018 333 91202 555 11010 22010 30519 43603 60549 283010 338014 359018 002015 031009 358008 83602 90519
BBXX WDB3161 29064 99358 11209 41696 60217 10025 2104/ 40330 57003 70222 866// 22200 00103 20804 302// 41204 5//// 6//// 80000 ICE /////
BBXX MZDL7 29063 99554 50735 41/96 /2935 10067 20056 40053 57010 71022 8//// 22233 00080 2//// 3//// 4//// 5//// 80062
BBXX P3GY9 29064 99116 50355 41897 30813 10270 2023/ 40150 57010 70200 83888 22243 00280 20702 316// 41202 5//// 6//// 80240 ICE /////
BBXX WCX7445 29064 99531 50709 43/// /2216 10092 2//// 40037 5//// 7//// 8//// 22200 00151 2//// 3//// 4//// 5//// 6//// ICE /////
BBXX ONAI 29064 99350 50512 41998 00513 10240 2008/ 40150 57020 700// 80000 22213 00230 2//// 3//// 4//// 5//// 6//// 80150 ICE /////
BBXX 32012 29061 99197 50856 46/// ///// 1//// 90550 22200 11303 70017
BBXX C6TZ9 29064 99311 50503 417// 21113 10210 20146 40170 54/// 7//00 82/// 22214 00230 2//// 3//// 4//// 5//// 6//// 80170 ICE /////
BBXX CGJK 29064 99484 71234 46/// /2433 10099 20076 40036 53036 7//// 8//// 22200 0//// 2////
BBXX VOKF 29064 99490 70669 46/// /2328 11060 21077 49805 53002 7//// 8//// 22200 0//// 2////
BBXX VCRG 29064 99474 70619 46/// /2006 10043 20041 49783 56034 7//// 8//// 22200 0//// 2////
BBXX VOFG 29064 99456 70614 46/// /2414 10062 20031 49839 51023 7//// 8//// 22200 0//// 2////
BBXX CG2965 29064 99487 71235 46/// /2523 10107 20054 40021 53023 7//// 8//// 22200 0//// 2////
BBXX CG2958 29064 99531 71291 46/// /2907 10064 20043 49983 51053 7//// 8//// 22200 0//// 2////
BBXX CZ9742 29064 99506 70969 46/// /2802 11064 21067 4//// 5//// 7//// 8//// 22200 0//// 2////
BBXX CGUM 29064 99447 70636 46/// /2506 10041 20006 49880 51015 7//// 8//// 22200 0//// 2////
BBXX CGBN 29064 99447 70636 46/// /1801 10045 20009 49877 52014 7//// 8//// 22200 0//// 2////
BBXX CGDX 29064 99468 70712 46/// /2526 11118 21164 49971 53017 7//// 8//// 22200 0//// 2////
BBXX BATEU08 29064 99590 70360 46/// /2818 10002 21050 40169 58004 22223
BBXX 44007 29061 99435 70701 46/// /2813 11028 21084 49988 53022 90550 22200 00077 11303 20402 3//// 41302 70015 333 91216 555 11133 22140 30457 42817 60549 278126 281118 272123 268128 276136 271140
BBXX 46041 29061 99474 71247 46/// /2510 10100 40089 51045 90550 22200 00088 11108 20805 3//// 41106 70040 333 91212 555 11104 22113 30500 42414 60549 249096 252092 252099 254094 253099 251102
BBXX 46026 29061 99378 71228 46/// /3105 10112 40272 53003 90550 22200 00114 11104 20501 326// 41104 70018 333 91208 555 11056 22059 30548 43108 60549 307052 295049 298035 295019 299022 299037
BBXX 46061 29061 99602 71468 46/// /3406 11020 49788 53014 90550 22200 00045 11204 20501 300// 41204 70020 333 91207 555 11060 22062 30503 43308 60549 337058 337049 332049 339057 337059 336057
BBXX 51101 29061 99243 71621 46/// /1009 10232 20182 40219 54000 90550 22200 00237 11405 20803 333// 41404 70025 333 91212 555 11094 22099 30546 41112 60549 102087 097089 093086 097084 092080 098084
BBXX 46077 29061 99579 71543 46/// /2611 11074 21128 49881 53005 90550 22200 00044 10604 20604 70019 333 91213 555 11114 22119 30543 42513 60549 256107 258096 256093 250095 253089 249088 82512 90543
BBXX 46035 29061 99571 71778 46/// /3209 1//// 40120 52011 90550 22200 10804 20804 300// 41101 70019 333 91211 555 11094 22100 30537 43112 60549 318094 323097 321061 320063 325069 307073 83311 90534
BBXX 46082 29061 99597 71434 46/// ///// 10000 49811 53026 90550 22200 00059 10806 70030
BBXX 46072 29061 99517 71722 46/// /3205 11024 21056 40103 51020 90550 22200 00044 11004 20402 3//// 41003 70019 333 91207 555 11050 22051 30458 43214 60549 316047 323069 327094 323092 324108 323105 83213 90456
BBXX 42057 29061 99168 70815 46/// /0606 10269 20214 40161 58012 90550 22200 00275 10802 20501 3//// 40801 70009 333 91208 555 11062 22065 30542 40508 60549 060061 050058 054061 056061 051063 056060 80507 90542
BBXX 41009 29061 99285 70802 46/// /3003 10171 20054 40205 58006 90550 22200 00238 10802 20401 300// 40802 70010 333 91205 555 11026 22026
BBXX 41010 29061 99289 70785 46/// /3002 10176 40196 58006 90550 22200 00236 10802 20401 300// 40802 70011 333 91205 555 11024 22024
BBXX 41040 29061 99145 70530 46/// /0710 10264 20214 40169 58013 90550 22200 00270 10905 20704 3//// 40902 70024 333 91212 555 11108 22114 30455 40912 60549 069100 071101 071100 070100 070102 072100 80811 90455
BBXX 42039 29061 99288 70860 46/// /1902 10169 40202 58012 90550 22200 00226 10701 20401 300// 40701 70006 333 91203 555 11017 22018 30541 42004 60549 192018 204022 194018 184017 213014 188013 82103 90533
BBXX VCXF 29064 99464 70484 41/90 91625 10060 2006/ 49990 57031 74744 89/// 22200 02028 20403 316// 40805 80060
BBXX VOXS 29064 99467 70480 41/94 91425 10070 2007/ 40014 57019 74544 89/// 22200 04021 20403 316// 40806 80070
BBXX BATEU04 29064 99614 70494 46/// /1117 11063 21135 40153 58016 22273
BBXX FVNM 29064 99094 70799 46/// /3211 10269 20239 40124 58010 22200 00277
BBXX PFRO 29064 99163 70619 41498 30817 10240 20210 40163 57006 70300 83100 22282 20403 30000 80220
BBXX WBO3345 29064 99227 70785 41597 20507 10222 20189 40150 54/// 70100 82388 22272 0//// 20402 305// 40402 5//// 6//// 80200 ICE /////
BBXX PHET 29061 99119 70685 41/98 /1114 10269 20223 40130 58010 7//// 8//// 22271 00270 2//// 3//// 4//// 5////
BBXX BAREU54 29064 99111 70811 46/// ///// 40131 57009 22254
BBXX 46013 29061 99382 71233 46/// /3103 10114 40274 53005 90550 22200 00108 11305 3//// 41305 70024 333 91204 555 11031 22035 30451 43007 60549 306028 307036 307040 311037 305038 304045
BBXX 46027 29061 99419 71244 46/// /1911 10108 40223 54000 90550 22200 00095 11306 20604 330// 41305 70032 333 91213 555 11115 22124 30516 41814 60549 185107 185110 184113 185115 185115 186110
BBXX 46047 29061 99324 71195 46/// /3306 10135 40213 56005 90550 22200 00141 11304 20402 329// 41304 70022 333 91207 555 11062 22066 30502 43308 60549 327059 327058 326058 327061 326064 326062
BBXX 46069 29061 99337 71202 46/// /3309 10137 40209 56006 90550 22200 00137 11305 20803 329// 41304 70026 333 91211 555 11092 22098 30544 43311 60549 326086 327080 328083 329078 328078 328079
BBXX 41036 29061 99342 70770 46/// ///// 10119 21003 40179 54000 90550 22200 00162 10702 70012
BBXX 44066 29061 99396 70726 46/// /2913 10036 21015 40101 51008 90550 22200 00127 10808 20808 3//// 41102 70039 333 91216 555 11136 22142 30510 43017 60549 289129 288132 289133 292136 289132 287133
BBXX 46050 29061 99442 71246 46/// /2509 10108 40162 51036 90550 22200 00097 10909 20606 322// 40907 70046 333 91211 555 11097 22106 30530 42512 60549 249090 246094 243090 240090 236082 234084
BBXX 46086 29061 99325 71180 46/// /0902 10149 40209 54000 90550 22200 00150 11304 20301 328// 41303 70018 333 91203 555 11023 22024 30450 41003 60549 087022 084022 075020 052021 045022 041025
BBXX 41047 29061 99275 70715 46/// /3304 10204 40189 56009 90550 22200 00248 11007 20401 332// 41007 70033 333 91205 555 11040 22041 30454 43407 60549 332041 332044 331047 342049 337050 337048 83406 90502
BBXX 41043 29061 99211 70650 46/// /1106 10250 20208 40200 56009 90550 22200 00257 11406 20602 300// 41405 70028 333 91207 555 11063 22067 30502 41207 60549 112059 103058 105055 107054 109054 107057 81106 90549
BBXX 46014 29061 99394 71240 46/// /2103 10115 40277 50007 90550 22200 00114 11306 20401 3//// 41306 70028 333 91203 555 11027 22029 30455 42404 60549 211025 202025 206027 217026 219027 238029
BBXX 46088 29061 99483 71232 46/// /2409 10089 40037 90550 22200 00078 10602 20602 70012 333 91211 555 11097 22106 30452 42613 60549 236089 241088 250084 257094 259111 256110
BBXX 42002 29061 99258 70937 46/// /2002 10211 20134 40187 58011 90550 22200 00241 10901 70003 333 91203 555 11023 22024 30539 42004 60549 199023 191023 199024 236019 267016 240016
BBXX 42055 29061 99222 70940 46/// /0702 10234 20173 40180 54000 90550 22200 00249 10701 20301 307// 40701 70006 333 91203 555 11022 22022 30507 41105 60549 071022 082027 096025 093032 100034 098035 81004 90457
BBXX 46025 29061 99337 71191 46/// /2904 10147 20129 40201 54000 90550 22200 00146 11302 20401 328// 41302 70011 333 91205 555 11039 22041 30549 42805 60549 290036 294038 298037 298035 294029 296027
BBXX 46028 29061 99357 71219 46/// /3309 10125 40230 57007 90550 22200 00131 11306 20604 331// 41304 70028 333 91210 555 11091 22096 30512 43213 60549 325086 326086 327095 322108 319094 320092
BBXX 46054 29061 99342 71204 46/// /3308 10144 40206 55000 90550 22200 00134 10704 20703 300// 41103 70022 333 91210 555 11088 22096 30501 43215 60549 328082 327092 327104 324114 322126 322122
BBXX 46029 29061 99461 71245 46/// /2410 10106 20091 40127 52042 90550 22200 00095 11108 20605 327// 41106 70040 333 91212 555 11106 22115 30512 42513 60549 244098 244100 244098 245100 244099 243095
BBXX 46087 29061 99485 71247 46/// /2510 10099 20093 40058 52044 90550 22200 00082 11107 20703 326// 41106 70034 333 91212 555 11103 22113 30545 42612 60549 249093 249091 254089 258096 258095 264085
BBXX 44020 29061 99414 70702 46/// /2714 10007 21046 40036 51028 90550 22200 00072 333 91217 555 11151 22162 30512 42618 60549 268144 257143 258143 257147 258143 259140
BBXX 44040 29061 99410 70736 46/// /3210 10000 21081 40112 90545 22200 10301 70005 333 91213 555 11113 22124
BBXX 44065 29061 99404 70737 46/// /2913 10021 21050 40102 51007 90550 22200 00101 10403 20403 329// 41502 70017 333 91215 555 11138 22145 30533 42917 60549 291129 294136 298125 296121 291124 294124 82915 90535
BBXX 46012 29061 99374 71229 46/// /3106 10118 40270 55000 90550 22200 00122 11305 20501 329// 41305 70023 333 91208 555 11068 22072 30549 43108 60549 310064 306050 305044 310049 312044 315035
BBXX 41013 29061 99334 70777 46/// /3206 10123 20012 40185 50004 90550 22200 00210 11402 20401 308// 41401 70010 333 91208 555 11065 22067 30514 43109 60549 317061 313057 312059 310062 313066 309064
BBXX 44025 29061 99402 70732 46/// /2913 10025 21044 40098 51014 90550 22200 00106 10605 20604 312// 41502 70024 333 91217 555 11133 22140 30526 42918 60549 289125 288129 291139 292141 291137 296139
BBXX 46011 29061 99350 71210 46/// /3308 10136 40228 57004 90550 22200 00132 11304 20702 329// 41304 70022 333 91209 555 11082 22088 30515 43211 60549 332074 332076 327080 323084 324078 332067
BBXX 41008 29061 99314 70809 46/// /3205 10123 20034 40200 57005 90550 22200 00160 333 91207 555 11054 22056 30457 43208 60549 320052 318051 323056 315063 316063 315064
BBXX 44009 29061 99385 70747 46/// /3112 10031 40157 51009 90550 22200 00110 10604 20603 300// 41301 70018 333 91215 555 11125 22131 30508 42916 60549 303119 294121 296122 304120 297123 296122
BBXX 44027 29061 99443 70673 46/// /2815 11033 21085 49923 51025 90550 22200 00079 10907 20806 3//// 40904 70037 333 91219 555 11154 22162 30526 42819 60549 279145 286144 282149 275149 281145 279144
BBXX 44014 29061 99366 70748 46/// /3309 1//// 40157 53011 90550 22200 00145 10603 20603 308// 41302 70016 333 91211 555 11087 22087 30538 43211 60549 325087 326085 319086 320083 322080 320080
BBXX 41004 29061 99325 70791 46/// /3005 10130 20013 40061 50000 90550 22200 00201 10501 20301 3//// 40501 70007 333 91207 555 11047 22048 30459 43008 60549 301044 301040 302044 293051 296053 301053
BBXX 46080 29061 99580 71500 46/// /2911 11035 21090 49867 53010 90550 22200 00048 10607 20606 3//// 40903 70034 333 91214 555 11120 22126 30525 42816 60549 285113 277116 279119 277121 275117 279119 82814 90513
BBXX 46075 29061 99539 71608 46/// /3008 11016 21089 49988 51009 90550 22200 00038 11305 20503 300// 41304 70027 333 91210 555 11082 22085 30548 43110 60549 302079 310073 303058 305062 307073 321073 83009 90548
BBXX 46059 29061 99380 71300 46/// /2306 10146 40265 57006 90550 22200 00142 11306 20602 3//// 41306 70032 333 91207 555 11065 22070 30525 42408 60549 232060 230058 233060 230060 228059 228059
BBXX 46005 29061 99461 71310 46/// ///09 10089 40141 51051 90550 22200 00098 11310 20806 3//// 41308 70048 333 91211 555 11096 22101
BBXX 46006 29061 99408 71375 46/// /1706 10130 40178 58011 90550 22200 00121 11308 20502 3//// 41307 70038 333 91207 555 11061 22068 30537 41607 60549 165056 166052 160043 166041 169035 168030
BBXX 46002 29061 99426 71305 46/// ///// 10122 40201 51022 90550 22200 00118 11107 70036
BBXX 46084 29061 99566 71361 46/// ///// 10022 20017 49865 53065 90550 22200 00068 11208 70039
BBXX 42035 29061 99292 70944 46/// /0902 10143 20142 40182 58004 90550 22200 00131 10401 20401 70005 333 91202 555 11024 22029 30506 40903 60549 092019 091020 093022 088023 085023 089024
BBXX 41001 29061 99347 70727 46/// ///// 10148 20045 40151 53003 90550 22200 00216 10807 70037
BBXX 42065 29061 99149 70750 46/// /0507 10263 20225 90550 22200 10802 20502 3//// 40802 70012 333 91208 555 11069 22074 30523 40508 60549 053065 044065 047071 047073 051068 049068 80508 90513
BBXX 42001 29061 99259 70897 46/// /1601 10210 20115 40194 58010 90550 22200 00238 10601 3//// 40601 70007 333 91203 555 11014 22015 30527 41603 60549 155015 147012 170019 162016 150017 161016
BBXX 42012 29061 99301 70876 46/// /1503 10152 20085 40202 58011 90550 22200 00191 1//00 70002 333 91203 555 11026 22026 30450 41504 60549 148024 145022 156013 141008 149022 145019
BBXX 42059 29061 99151 70675 46/// /0909 10271 20220 40154 57014 90550 22200 00278 10604 20604 70018 333 91211 555 11098 22104 30505 40811 60549 085093 085093 084094 086095 084097 092092 80811 90505
BBXX 42019 29061 99279 70954 46/// /2205 10206 20125 40174 58004 90550 22200 10301 20301 70004 333 91206 555 11052 22055 30458 43108 60549 230050 282053 283049 283050 282050 281045
BBXX 42003 29061 99260 70856 46/// /1002 1//// 90550 22200 10602 20401 333// 40602 70008 333 91203 555 11022 22023 30532 40805 60549 096020 086024 076026 085026 087029 070028 80804 90532
BBXX 44005 29061 99432 70691 46/// /2816 11002 21054 49970 51024 90550 22200 00082 10808 20808 3//// 41202 70040 333 91219 555 11167 22176 30514 42820 60549 276157 275158 278156 282158 286152 283155
BBXX 42040 29061 99292 70882 46/// /1003 10168 40196 56012 90550 22200 00222 10701 322// 40701 70003 333 91204 555 11030 22031 30540 41106 60549 102030 112033 124031 124032 142033 141037
BBXX 42060 29061 99163 70635 46/// /0708 10266 20208 40173 56012 90550 22200 00271 10603 20603 300// 41001 70017 333 91210 555 11088 22094 30514 40810 60549 073082 073084 070084 072088 070087 077087 80810 90452
BBXX 42036 29061 99285 70845 46/// /2802 10147 20065 40209 58008 90550 22200 00213 10701 325// 40701 70007 333 91203 555 11016 22017 30526 42803 60549 281016 240007 251021 280013 309018 273013
BBXX 42056 29061 99198 70849 46/// /0804 10258 20224 40171 58007 90550 22200 00270 10802 20401 336// 40802 70011 333 91205 555 11039 22040 30454 40905 60549 084037 086036 085040 086039 097040 089040 81004 90502
BBXX 41049 29061 99275 70630 46/// /2206 10230 20192 40196 57003 90550 22200 00229 11505 20502 300// 41505 70026 333 91208 555 11061 22065 30459 42208 60549 220057 220060 217060 223060 228058 226057 82207 90459
BBXX 42058 29061 99149 70749 46/// /0911 10271 20221 40130 58013 90550 22200 00273 10804 20703 309// 40802 70019 333 91213 555 11118 22125 30535 40813 60549 084110 080113 079102 083096 082095 080087 80812 90537
BBXX 41048 29061 99320 70696 46/// /2707 10186 20100 40163 50000 90550 22200 00219 11109 20603 3//// 41108 70044 333 91209 555 11067 22070 30517 42811 60549 274068 287071 289074 285079 289074 299078 83009 90453
BBXX 41044 29061 99217 70587 46/// /1006 10248 20186 40214 58007 90550 22200 00261 11408 20602 300// 41408 70039 333 91208 555 11065 22068 30548 41108 60549 102063 096063 100065 093063 096061 092057 81007 90541
BBXX 42020 29061 99270 70967 46/// /2003 10192 20151 40183 54000 90550 22200 00189 10801 70003 333 91204 555 11037 22041 30510 41905 60549 195033 196034 192039 193039 192035 188034
BBXX 41060 29061 99148 70510 46/// ///// 1//// 90550 22200 10804 70021
BBXX NWS0022 29064 99416 70714 43/// /2711 10001 21071 40054 5//// 7//// 8//// 222// 04100 2//// 3//// 4//// 5//// 6//// 8//// ICE /////
BBXX WDC6698 29064 99201 71570 43/// /0724 1//// 2//// 40190 5//// 7//// 8//// 222// 04235 2//// 3//// 4//// 5//// 6//// 8//// ICE /////
BBXX PBAD 29061 99226 70708 41298 71608 10260 20220 40170 57001 70182 8677/ 22234 02265 20301 306// 40502 5//// 80233
BBXX MHNO6 29063 99245 70703 41498 11508 10242 20215 40185 58003 70300 81100 22273 00265 20401 399// 4//// 5//// 80224
BBXX C6T2064 29063 99294 70455 41598 62717 10210 2013/ 40240 54000 70222 86/// 22264 20504 327// 41007 80160
BBXX ZCBU2 29063 99349 31617 41298 71834 10190 20182 40027 57010 70222 8572/ 22224 00190 20307 31419 40408 50407 80185
BBXX PCHM 29064 99398 31783 41298 60242 10185 20169 40109 53011 70222 84766 22214 00180 20305 304// 40205 80175
BBXX BATFR53 29064 99186 51423 46/// /0514 10269 20204 40162 51020 22222 00274
BBXX SHIP 29063 99011 11366 41698 73008 10310 2024/ 40070 54000 7//22 87116 22273 00310 20000 300// 40904 5//// 6//// 80260 ICE /////
BBXX C6TH9 29063 99175 51495 41597 70910 10260 2022/ 40110 54000 70262 86928 22200 00260 20100 3//// 4//// 5//// 6//// 80230 ICE /////
BBXX PHSG 29064 99145 70930 41/98 21910 10270 40140 54000 70300 8//// 22234 00280 20400
BBXX WL3972 29064 99451 70830 41/99 71808 11060 2//// 40139 5//// 70311 8//// 22243 00040 20101 3//// 4//// 5//// 6//// 8//// ICE /////
BBXX CG2350 29064 99433 70798 46/// /3104 11074 21114 40166 58008 7//// 8//// 22200 0//// 2////
BBXX CG2960 29064 99429 70824 46/// /1503 11063 21118 40161 58015 7//// 8//// 22200 0//// 2////
BBXX CGDS 29064 99433 70798 46/// /3204 11071 21113 40174 58007 7//// 8//// 22200 0//// 2////
AAXX 29064 78526 NIL
AAXX 29064 78543 NIL
BBXX TFGSK 29064 99641 70229 46/// ///// 22200 10708 70039
BBXX TFKGR 29064 99657 70136 46/// ///// 22200 10905 70024
BBXX TFSTD 29064 99664 70234 46/// ///// 22200 10605 70024
BBXX TFSRT 29064 99633 70203 46/// ///// 22200 10707 70036
BBXX TFGRS 29064 99663 70182 46/// ///// 22200 10603 70017
BBXX TFGRV 29064 99638 70225 46/// ///// 22200 10706 70029
BBXX TFHFN 29064 99642 70152 46/// ///// 22200 10704 70019
BBXX TFDRN 29064 99658 70212 46/// ///// 22200 10803 70014
BBXX TFBKF 29064 99635 70202 46/// ///// 22200 10704 70021
BBXX A8OZ4 29064 99368 10127 43698 20412 10140 20100 40230 54000 7//// 82/// 22234 00170 20401 304// 40 401 5//// 80115
BBXX A8OZ4 29064 99368 10127 43698 20412 10140 20100 40230 54000 7//// 82/// 22234 00170 20401 304// 40401 5//// 80115
BBXX DBBH 29061 99380 10088 41398 53507 10140 20074 40240 57010 70361 858// 22223 04163
BBXX WDD3826 29064 99477 70101 41398 32724 10110 2005/ 40400 52011 7//00 838// 22254 00110 20302 327// 40604 5//// 6//// 80080 ICE /////
BBXX VRJI2 29063 99332 70174 41698 20509 10150 2012/ 40310 54000 70200 821// 22253 04170 21002 30505 41204 51204 6/00/ 80130 ICE 0////
BBXX DK7210 29061 99540 10066 46/// /2721 10083 20044 30069
BBXX PHBO 29063 99382 70348 41/98 51625 10185 20160 40280 51018 70111 84800 22214 20607 321// 41206 80170
AAXX 29064 78255 41911 00901 10196 20184 30036 40185 57010 71000
AAXX 29064 78317 NIL
AAXX 29064 78318 NIL
AAXX 29064 78325 NIL
AAXX 29064 78333 NIL
AAXX 29064 78338 NIL
AAXX 29064 78348 NIL
AAXX 29064 78349 NIL
AAXX 29064 78353 NIL
AAXX 29064 78360 NIL
AAXX 29064 78367 NIL
AAXX 29064 78369 NIL
AAXX 29064 91925 06/// /0205 10237 20214 30077 40138 51020 60031 333 55071 69947 90710 91109 555 69925 11024 58000
AAXX 29064 91929 04572 /0216 10277 20233 30107 40110 52020 69902 700// 333 10302 20273 55/// 60007 79999 90710 91122 555 60005
AAXX 29064 91938 01565 70711 10265 20221 30118 40120 52017 60042 78086 84832 333 10300 20261 31/// 55093 60037 70035 82820 86080 90710 91123 555 69905 10624 59006
AAXX 29064 91943 36/// /0613 10266 20207 30135 40137 51020 333 20266 58006
AAXX 29064 91944 06/// /0812 10266 20209 30154 40157 52016 60002 333 10283 20265 55114 60007 70022 90710 91118 555 60005
AAXX 29064 91948 06/// /3602 10240 20195 30103 40206 52022 60001 333 55104 60007 90710 91107 555 60005 10409 58013
AAXX 29064 91954 06/// /3516 10268 20246 30104 40107 51012 69981 333 55/// 69927 555 59009
AAXX 29064 91958 06/// /0308 10261 20230 30132 40134 51014 60001 333 55000 60007 90710 91127 555 60005 13527 59007
AAXX 29064 91945 NIL
AAXX 29064 68240 32360 71007 10220 20188 48509 52015 85570 333 20189
BBXX UCJL 29061 99677 10093 41698 60211 10023 49827 57030 70222 865// 22253 00050 20603
BBXX PDNN 29063 99497 70009 41/98 /3136 10100 20031 40299 50001 70111 8//// 22232 02111 2//// 80067 90903
BBXX PCBT 29063 99459 70079 41/98 33212 10106 20052 40393 57017 7//00 8//// 22213 20302 80079
AAXX 29064 91165 NIL
AAXX 29064 91182 NIL
AAXX 29064 91190 NIL
AAXX 29064 91212 NIL
AAXX 29064 91217 NIL
AAXX 29064 91285 NIL
AAXX 29064 91317 NIL
AAXX 29064 91334 32474 50411 10315 20219 30073 40076 55002 82101 333 561/9 70061 555 92906
AAXX 29064 91348 32474 70806 10294 20237 30030 40083 53002 86201 333 562/9 70025 555 92906
AAXX 29064 91356 NIL
AAXX 29064 91366 NIL
AAXX 29064 91369 NIL
AAXX 29064 91371 NIL
AAXX 29064 91376 32474 80615 10284 20232 30075 40078 53012 84878 333 56199 70000 555 92906
AAXX 29064 91408 11474 80605 10288 20259 30037 40075 57017 60031 70298 82278 333 56999 70102 555 92906
AAXX 29064 91413 32469 60712 10305 20242 30059 40084 57014 83171 333 56299 70046 555 92906
AAXX 29064 91425 NIL
AAXX 29064 91434 NIL
AAXX 29064 91765 NIL
AAXX 29064 16622 11220 69902 11014 21016 30269 40279 58014 60002 71022 84650 333 21024 30/// 50340 55078 70000 83706 83625 85360 90730 91105 555 10000 30002 20000 89060 99096 30000 10020 2//// 30040 4//// 5//// 40000 47731 44205 50000 51014 70000 77Y// 7/Y//
AAXX 29064 16641 12770 30000 10004 21002 30235 40240 57012 60002 83030 333 21002 30/// 55068 70000 90730 91104 555 10000 30032 20000 89042 99093 40000 47707 44210 50000 50002
AAXX 29064 16682 12560 30000 10018 20013 30210 40229 56012 60002 81130 333 20018 30/// 50070 55070 70000 81820 83358 90730 91104 555 10000 30084 20000 89055 99097 30000 10050 20064 30074 40094 50116 60160 40000 47688 44200 50000 50016
AAXX 29064 16716 NIL
AAXX 29064 16734 NIL
AAXX 29064 16743 NIL
AAXX 29064 16749 12460 72004 10120 20070 30210 40225 52003 60002 87700 333 20110 30/// 55075 70000 81710 87625 90730 91112 555 10000 30128 20000 89060 99083 40000 47687 44190 50000 50096
AAXX 29064 16754 12560 70000 10114 20077 30191 40239 56005 60002 87800 333 20114 30/// 50190 55000 70000 82820 87635 90730 91106 555 10000 30130 20000 89070 99078 40000 47675 44200 50000 50096
AAXX 29064 91222 NIL
AAXX 29064 91245 NIL
AAXX 29064 91323 NIL
AAXX 29064 91339 NIL
AAXX 29064 91343 NIL
AAXX 29064 91353 NIL
AAXX 29064 91442 NIL
AAXX 29061 26038 01364 82104 10048 20038 39918 49958 57028 60022 72065 886// 333 10049 20019 69967 88707 91110 555 11004 20019 31000 50024 52000
AAXX 29061 26045 NIL
AAXX 29061 26058 NIL
AAXX 29061 26115 NIL
AAXX 29061 26135 01257 82204 10040 20033 39909 49983 57033 60022 76166 8872/ 333 10040 20010 69977 88505 91009 91111 555 12002 20010 32000 50013 52001
AAXX 29061 26141 01141 82007 10016 20010 39831 49979 57033 69962 75176 886// 333 10016 21003 69937 88703 91010 91114 555 12000 21003 32101 50000 52101
AAXX 29061 26231 01141 82010 10042 20038 39974 49988 57030 60042 71062 886// 333 10042 20025 60017 88702 91015 91116 555 12003 20025 32100 50030
AAXX 29061 26242 01259 82005 10028 20017 39921 40007 58035 69942 76165 8872/ 333 10029 20008 69927 88505 91009 91111 555 12000 20008 32100 50013 52100
AAXX 29061 26247 NIL
AAXX 29061 80022 31462 20000 10254 20237 30102 40104 70500 80001 333 56//0 59010 82070
AAXX 29061 80028 NIL
AAXX 29061 80112 31457 70000 10150 20140 37908 70522 85841 333 56999 59004 85610 83358
AAXX 29061 80222 31565 70303 10116 20096 37531 70510 85535 333 56399 58001 85620
AAXX 29061 80259 31560 60302 10207 20190 39054 70522 83830 333 5639/ 59003 83823 84359
AAXX 29064 78792 32560 29902 10248 20213 30106 10119 57008 82100 333 010// 10310 20245 30/// 59003 82820
BBXX ONAR 29063 99151 30013 41597 81419 10200 2015/ 40170 54000 78062 8544/ 22273 00210 20704 314// 4//// 5//// 6//// 80170 ICE /////
AAXX 29061 33631 11295 81503 10022 20017 30104 40252 57014 60022 71065 886// 333 20019 88703
AAXX 29064 78792 32560 29902 10248 20213 30106 10119 57008 82100 333 010// 10310 20245 30/// 59003 82820
AAXX 29061 38353 42998 31801 10009 21040 39361 40280 57007 82031 333 21050
AAXX 29061 38613 42998 70101 11004 21025 40325 57006 80002 333 21014
AAXX 29061 38616 41596 60000 11008 21040 39287 40338 58001 71022 82501 333 21045
AAXX 29061 38345 32999 80000 11030 21088 38826 48518 57005 8802/ 555 21090
AAXX 29061 36911 42999 20000 11006 21044 39289 40278 57012 80001 333 21076
AAXX 29061 36974 12998 21401 11114 21149 38018 48605 58007 69950 82040 333 21181
AAXX 29061 36982 42999 61904 11145 21196 36524 47145 52002 83042 333 21214
AAXX 29064 93004 16/// /0636 10184 20184 40040 57002 60021
AAXX 29064 93023 16/// /0416 10193 20182 40083 57010 60061
AAXX 29064 93069 16/// /0625 10194 20172 40101 57008 60001
AAXX 29064 93110 17596 /0517 10190 20177 40105 57001 60021
AAXX 29064 93186 17497 /0410 10199 20172 40138 57001 60001
AAXX 29064 93196 16/// /3516 10189 20166 40157 57003 60001
AAXX 29064 93245 16598 /0410 10164 20135 40136 57002 69961
AAXX 29064 93292 17698 /3504 10213 20122 40136 52005 60001
AAXX 29064 93309 17496 /0512 10186 20178 40098 54000 60071
AAXX 29064 93334 16/// /0308 10137 20121 39173 57001 60021
AAXX 29064 93339 16/// /0126 10134 20117 39172 54000 60021
AAXX 29064 93373 17698 /0106 10207 20142 40116 57003 60001
AAXX 29064 93404 17798 /0605 10206 20164 40095 57008 69941
AAXX 29064 93420 17698 /0514 10193 20139 40087 57017 69941
AAXX 29064 93439 17598 /1604 10161 20142 40090 57010 60001
AAXX 29064 93498 16/// /0404 10153 20149 40102 57007 6///1
AAXX 29064 93515 17597 /1705 10167 20160 40065 57014 60111
AAXX 29064 93527 16/// /0121 10179 20179 40070 57022 60441
AAXX 29064 93546 17596 /3503 10164 20160 40088 57010 60061
AAXX 29064 93597 16/// /3510 10145 20140 40089 57011 60011
AAXX 29064 93615 17998 /1502 10166 20146 40073 57019 60041
AAXX 29064 93678 16698 /1601 10157 20136 40076 57010 60001
AAXX 29064 93709 16/// /0000 10183 20159 40078 57013 60001
AAXX 29064 93773 17/98 /1603 10191 20148 40037 57013 60001
AAXX 29064 93781 17998 /0311 10177 20153 40055 57010 60001
AAXX 29064 93800 NIL
AAXX 29064 93805 NIL
AAXX 29064 93831 17898 /2311 10221 20093 40036 52007 60001
AAXX 29064 93845 17898 /2421 10154 20089 40079 52019 60001
AAXX 29064 93891 17497 /1707 10146 20129 40073 52014 60021
AAXX 29064 93909 16/// /2726 10136 20084 40075 52016 69981
AAXX 29064 93929 16/// /2521 10096 20050 40006 52020 60011
AAXX 29064 93947 16/// /2916 10097 20059 49952 57002 60001
AAXX 29064 93987 16/// /3417 10166 20135 40182 57003 60001
AAXX 29064 93994 NIL
AAXX 29061 80022 31462 20000 10254 20237 30102 40104 70500 80001 333 56//0 59010 82070
AAXX 29061 80028 NIL
AAXX 29061 80112 31457 70000 10150 20140 37908 70522 85841 333 56999 59004 85610 83358
AAXX 29061 80222 31565 70303 10116 20096 37531 70510 85535 333 56399 58001 85620
AAXX 29061 80259 31560 60302 10207 20190 39054 70522 83830 333 5639/ 59003 83823 84359
AAXX 29064 47090 41509 80506 10003 21005 30256 40279 55002 77277 8572/ 333 92042
AAXX 29064 47095 31550 42902 11016 21065 30086 40282 57012 70500 84500
AAXX 29064 47097 329// /2505 10027 21120 30171 40269 57013
AAXX 29064 47098 329// /3205 10003 21077 30137 40276 57012
AAXX 29064 47099 329// /3604 10006 21105 30244 40282 57012
AAXX 29064 47100 31360 61107 11030 21053 39321 40267 53001 77072 86500
AAXX 29064 47102 32668 23406 11017 21084 30119 40304 57010 81500
AAXX 29064 47104 41440 82703 11007 21015 30174 40275 53005 77172 8672/
AAXX 29064 47106 329// /3613 10031 20000 30212 40262 53003
AAXX 29064 47112 32962 03411 10009 21115 30194 40281 57010 333 92014
AAXX 29064 47114 31950 02503 10023 21116 30079 40265 57012 70510
AAXX 29064 47119 32961 02706 10010 21088 30233 40276 57011
AAXX 29064 47121 329// /2504 10032 21082 39960 40258 57009
AAXX 29064 47127 329// /2705 10029 21122 30124 40268 57013
AAXX 29064 47129 32970 23207 10018 21062 30249 40286 56012 80001
AAXX 29064 47130 32665 33215 10046 21010 30193 40255 53001 83500 333 92044
AAXX 29064 47131 32970 33405 10028 21066 30197 40269 57014 80001
AAXX 29064 47135 429// /2907 10039 21113 39954 40256 56013
AAXX 29064 47136 32965 02706 10061 21106 30077 40250 57013
AAXX 29064 47137 329// /2707 10046 21123 30135 40255 57015
AAXX 29064 47140 32970 12910 10030 21051 30246 40275 56015 80001 333 92023
AAXX 29064 47143 32961 53206 10066 21120 30178 40257 57017 80001
AAXX 29064 47145 32965 32907 10016 21069 30242 40269 56011 80001
AAXX 29064 47146 32668 22306 10045 21076 30205 40272 56015 82500
AAXX 29064 47150 32970 23203 10034 21099 30257 40277 55012 80001
AAXX 29064 47152 32963 32906 10081 21084 30198 40241 57010 80001
AAXX 29064 47154 329// /2704 10056 21102 30194 40255 57015
AAXX 29064 47155 32960 61103 10088 21054 30194 40240 57018 80001
AAXX 29064 47156 32662 43204 10051 21039 30185 40276 55009 81501
AAXX 29064 47157 32963 32310 10061 21086 39960 40231 57019 80001
AAXX 29064 47162 32965 42503 10093 21020 30203 40243 57017 80001 333 92021
AAXX 29064 47169 32670 53416 10043 21017 30186 40282 57010 85500 333 92055
AAXX 29064 47170 32665 43410 10054 21053 30224 40268 57014 83530 333 92023
AAXX 29064 47171 329// /2905 10034 21060 30223 40279 56012
AAXX 29064 47172 329// /2907 10042 21050 30205 40273 55012
AAXX 29064 47173 329// /3209 10038 21079 30155 40268 56014
AAXX 29064 47174 32962 53407 10055 21073 30053 40257 55015 80001
AAXX 29064 47175 32568 43410 10009 21032 39685 40272 57013 84500 333 92023
AAXX 29064 47185 31657 53221 10086 20012 30173 40264 58006 70522 85500 333 92036
AAXX 29064 47188 31650 63205 10084 20015 30238 40260 57013 70522 85500 333 92022
AAXX 29064 47189 32665 62706 10117 20001 30189 40249 57015 85500 333 92022
AAXX 29064 47192 32961 62702 10083 21082 30208 40245 57017 80001
AAXX 29064 47101 32960 00000 10017 21081 30175 40273 57016
AAXX 29064 47105 469// /3403 10004 21013 30242 40275 53006
AAXX 29064 47108 31957 02907 10006 21105 30168 40277 57010 70500
AAXX 29064 47115 41540 80718 11017 21018 39971 40253 53003 78588 888// 333 92045
AAXX 29064 47133 32968 23206 10048 21097 30181 40267 57016 80001
AAXX 29064 47138 329// /3406 10081 21089 30244 40247 56012
AAXX 29064 47159 32965 63205 10087 21063 30157 40242 57015 80001 333 92022
AAXX 29064 47165 32665 53615 10043 21042 30230 40278 56010 85500 333 92024
AAXX 29064 47168 32961 33613 10070 21086 30168 40248 57017 80001 333 92024
AAXX 29064 47184 31658 63211 10087 20011 30244 40269 57011 70502 86500 333 92034
AAXX 29064 17600 12570 20208 10095 20053 30221 40231 51003 60002 82800 333 10111 20083 30006 50321 55089 70000 81825 92428
AAXX 29064 17601 12780 13402 10091 20055 30197 40229 53003 60002 81500 90550 333 20091 30001 70000 81650
AAXX 29064 17607 11980 02401 10046 20039 30042 40241 52/// 60004 701// 333 20029 70000
AAXX 29064 17609 12670 13206 10092 20050 30231 40235 51001 60002 81500 333 10120 20059 31003 50131 55085 70000 81640
BBXX 3FQS8 29064 99315 71269 41298 50223 00/// 10147 20140 40280 52040 70222 85131 22274 00180 20503 335// 40503 5//// 6//// 80140 /////
BBXX 3FZK3 29064 99493 71230 46/// /2307 10095 20093 40017 51033 7//// 8//// 22200 0//// 2////
BBXX 46001 29061 99563 71480 46/// /2614 11011 49904 53014 90550 22200 00044 10808 20806 300// 40904 70039 333 91218 555 11148 22156 30545 42718 60549 259140 259137 273134 270135 277137 272130
BBXX 46026 29061 99378 71228 46/// /3105 10112 40272 53003 90550 22200 00114 11104 20501 326// 41104 70018 333 91208 555 11056 22059 30548 43108 60549 307052 295049 298035 295019 299022 299037
BBXX 46054 29061 99342 71204 46/// /3308 10144 40206 55000 90550 22200 00134 10704 20703 300// 41103 70022 333 91210 555 11088 22096 30501 43215 60549 328082 327092 327104 324114 322126 322122
BBXX CG2958 29064 99531 71291 46/// /2907 10064 20043 49983 51053 7//// 8//// 22200 0//// 2////
BBXX CG2965 29064 99487 71235 46/// /2523 10107 20054 40021 53023 7//// 8//// 22200 0//// 2////
BBXX CGBR 29064 99507 71275 46/// /0903 10060 20059 40035 51063 7//// 8//// 22200 0//// 2////
BBXX CGBY 29064 99487 71235 46/// /2517 10108 20057 40022 53026 7//// 8//// 22200 0//// 2////
BBXX CGDR 29064 99484 71234 46/// /2522 10097 20095 40041 53039 7//// 8//// 22200 0//// 2////
BBXX CGJK 29064 99484 71234 46/// /2433 10099 20076 40036 53036 7//// 8//// 22200 0//// 2////
BBXX DDAC2 29060 99403 71315 41/96 /2006 10120 20120 40210 54000 71044 8//// 22273 04130 2//// 327// 40507 5//// 80120
BBXX OZDL2 29063 99340 71277 41/98 /2825 10150 20097 40290 70200 8//// 22234 00150 2//// 80120
AAXX 29061 26509 11496 82007 10055 20048 30048 40057 57024 69992 72582 883// 333 20025 31/// 88910 91011 91114 555 53014 7999/
AAXX 29061 26518 11223 82306 10033 20033 40064 57020 69942 78085 886// 333 21001 32/// 88704 91011 91111 555 53017 7994/
AAXX 29061 26524 11397 82004 10040 20035 39927 40059 56024 69902 75152 886// 333 20010 32/// 88708 91007 91110 555 53010 7990/
AAXX 29061 26531 11457 82104 10040 20028 40061 57031 69912 71052 886// 333 20013 31/// 88711 91010 91110 555 53010 7991/
AAXX 29061 26629 11450 82005 10036 20031 39997 40093 57023 69972 76162 8872/ 333 21001 31/// 88710 91007 91109 555 53009 7997/
AAXX 29061 26633 11458 81903 10031 20018 39956 40087 57027 69962 71065 886// 333 20006 34/// 88712 91004 91108 555 53008 7996/
AAXX 29061 26730 11243 71804 10027 20024 39917 40110 57024 69902 71052 87600 333 21008 31/// 91007 91107 555 53008 7990/
AAXX 29064 68026 72404 10225 20215 48511 52025 60434 87070 333 20202
BBXX LAHV 29061 99589 10057 43/// /2914 10050 20028 49850 222// 04087 1////
BBXX LDGJ 29061 99603 10053 43/// /1302 10055 20027 49810 5//// 222/0 04091 1//// 3//// 4//// 5////
BBXX LF4H 29064 99596 10022 46/// /3045 10042 20026 49888 52041 8//// 22200 06083 10812 70059 333 91159
BBXX LMEL 29061 99603 10053 43/// /1202 10050 20039 49805 5//// 222/0 04092 1//// 3//// 4//// 5////
AAXX 29063 04013 NIL
AAXX 29063 04064 41410 80905 11012 21020 49940 57011 77387 8272/ 555 3//09
AAXX 29064 08001 NIL
AAXX 29064 08015 12560 41804 10052 20043 39989 40410 54000 60062 84800 333 20052 32004 50104 55043 70058
AAXX 29064 08023 12565 33513 10110 20028 30314 40387 54000 60022 83800 333 20105 50203 55041 70021
AAXX 29064 08027 11475 63608 10090 20040 30054 40372 52009 60072 70288 86500 333 20077 31005 50113 55019 70068
AAXX 29064 08045 02965 00208 10066 20017 30066 40387 55003 60002 333 20060 30005 55037 60007 79999
AAXX 29064 08141 12760 23502 10006 20000 39483 40383 53002 60002 82030 333 20006 34102 55068 70000
AAXX 29064 08160 12670 12923 10075 20028 30011 40328 52008 60002 81505 333 20054 55064 70000
AAXX 29064 08181 02562 53410 10050 21006 30273 40280 55003 60002 81825 333 20035 3/006 55044 60007 70000
AAXX 29064 08221 02980 21805 11001 21029 39637 40357 53002 60002 80001 333 21009 3/103 55084 60007 70000
AAXX 29064 08231 NIL
AAXX 29064 08261 12970 01304 10044 20024 39854 40354 51003 60002 333 20022 31001 55080 70000
AAXX 29064 08284 02980 22902 10045 20004 30213 40291 56009 60002 80001 333 20030 30002 50164 55080 60007 70000
AAXX 29064 08306 12565 10000 10020 20017 30281 40287 56004 60002 81100 333 20012 55065 70000
AAXX 29064 08314 02567 33208 10095 20072 30168 40274 55002 60002 838// 333 20073 3//// 55067 60007 70000
AAXX 29064 08430 12970 03001 10039 20016 30228 40306 57002 60002 333 20037 30000 50271 55092 70000
AAXX 29064 08482 12970 02812 10126 20019 30285 40294 57005 60002 333 20092 55080 70000
AAXX 29064 04005 41/20 91114 11013 21030 49928 52003 78682 555 3/215
AAXX 29064 04018 41475 82624 10003 21011 49948 52017 73687 83963 555 3//28 81911 83640 87358
AAXX 29064 04030 41465 82608 11004 21010 49954 52017 78573 8737/ 555 3//19 82812 84918 86624
AAXX 29064 04048 NIL
AAXX 29064 04063 42684 72502 11095 21121 49967 57014 81410 555 3//03
AAXX 29064 04077 NIL
AAXX 29064 04082 NIL
AAXX 29064 04097 42589 83404 11025 21051 49995 57014 8252/ 555 3/305
AAXX 29064 16614 12260 40000 11112 21128 39477 40322 57035 60002 82630 333 21117 41998 55034 70000 82704 84358 90730 91104 555 10000 31038 20000 89058 99094
AAXX 29064 16627 12560 60000 11010 21017 30267 40271 57009 60002 84550 333 21018 34/// 50000 55065 70000 84625 84358 90730 91107 555 10000 30024 20000 89064 99096 30000 10016 20020 30034 40048 50070 6//// 40000 47734 44240 50000 51012
AAXX 29064 16667 12962 02405 10022 20006 30249 40255 56004 60002 333 20014 30/// 55067 70000 90730 91106 555 10000 30080 20000 89050 99087 30000 20036 30060 40000 47715 44190 50000 50016 70000 77/I/ 7/I//
AAXX 29064 16675 NIL
AAXX 29064 16710 36/// /9901 11018 21023 39476 40284 57005 333 21034 90730 91103 555 10000 30026 20000 89044 99///
AAXX 29064 16723 12960 09901 10054 20030 30222 40238 54000 60002 333 20054 30/// 55/// 70000 90730 91105 555 10000 30084 20000 89048 99071 40000 47698 44210 50000 50044
AAXX 29064 16738 NIL
AAXX 29064 16746 12560 70000 10102 20068 30055 40240 57005 60002 87800 333 20100 30/// 55000 70000 82820 87630 90730 91108 555 10000 30112 20000 89073 99088 40000 47570 44175 50000 50086
AAXX 29061 26645 11297 81904 10016 20011 39844 40106 57028 69902 71052 886// 333 21006 88703 555 90010
AAXX 29061 26659 11350 81703 10002 21004 39915 40133 57027 69932 77175 8872/ 333 21021 43001 88509 555 90010
AAXX 29061 26763 32560 71905 11013 21030 39929 40163 57024 875// 333 21031 87627 555 90010
AAXX 29061 26825 11332 82005 10035 20025 39943 40127 57020 69902 75152 886// 333 20002 88707
AAXX 29061 26832 32460 82003 10030 20009 39934 40128 57024 8667/ 333 21008 86712 555 90010
AAXX 29061 26887 31396 82004 11025 21031 39997 40210 57011 71022 886// 333 21030 88707 555 90011
AAXX 29061 26961 32360 71603 11011 21023 39983 40181 57021 8565/ 333 21020 85707 555 90011
AAXX 29061 33027 31394 81803 11001 21004 30023 40195 57022 71042 886// 333 21014 93400 555 90011
AAXX 29064 16643 12960 30308 10062 20028 30243 40249 57011 60002 83030 333 20030 30/// 70000 90730 91112 555 10000 30066 20000 89045 99090 40000 47715 44220 50000 50048
AAXX 29064 16648 11210 30000 11050 21062 30183 40279 56007 60002 71000 83600 333 21050 30/// 50030 55070 70000 90730 91104 555 10000 30024 20000 89062 99096 30000 10010 2//// 30060 40070 5//// 6//// 40000 47668 44210 50000 51052 70000 77Y// 7/Y//
AAXX 29064 16650 12560 30507 10064 20025 30243 40247 57007 60002 83500 333 20058 30/// 55075 70000 90730 91114 555 10000 30074 20000 89061 99085 30000 10052 20056 30064 40060 50096 60124 40000 47715 44230 50000 50048
AAXX 29064 16684 12560 50209 10090 20029 30214 40242 56015 60002 85500 333 20086 30/// 55014 70000 90730 91115 555 10000 30096 20000 89054 99067 40000 47689 44190 50000 50064
AAXX 29064 16732 11568 73518 10116 20051 30222 40234 57016 60002 702// 86830 333 20108 30/// 55045 70000 82820 86625 90730 91125 555 10000 30118 20000 89056 99065 40000 47691 44150 50000 50086
AAXX 29064 60106 32965 02403 11006 21018 40340 57002 333 21010
AAXX 29061 14241 11240 81301 11014 21020 30118 40254 55004 60002 71022 886// 333 21016 31///
AAXX 29061 14284 11430 82901 10004 21001 30136 40249 57007 60002 71022 886// 333 20003 31000
AAXX 29061 14307 32565 70603 10075 20057 30147 40225 56011 87800 333 21004 30/// 82820 86645
AAXX 29061 14317 NIL
AAXX 29061 14431 12770 61103 10029 20004 30133 40230 56015 60002 81550 333 21009 81650
AAXX 29061 14444 32980 23601 10033 20016 30206 40236 57012 82030 333 20023 30///
AAXX 29061 14474 12970 10804 10032 20000 30050 40247 56010 60002 81030 333 20026 30///
AAXX 29061 14008 12699 13203 11049 21060 37489 47043 56010 60002 81042 333 21050 49095 55069 70000 92838 95175 444 36159 46085
AAXX 29061 14023 11496 82301 10008 21002 39947 40252 53002 60002 71022 886// 333 20006 31000 55000 70000 88710 555 20019 30022
AAXX 29061 14024 12899 12807 10008 21006 39109 48497 55002 60002 81040 333 20000 31103 42008 55014 70000 91111 92844 95000 95180 444 76054
AAXX 29061 14026 11496 80402 10001 21011 39920 40252 53003 60002 710// 886// 333 20001 31000 55000 70000 88710 555 20013 30019
AAXX 29061 14031 11494 80802 11007 21010 30019 40257 55001 69902 750// 886// 333 21007 31101 55000 79999 88713 555 20010 30017
AAXX 29061 14105 12697 31102 10027 20020 30225 40230 56007 60002 83500 333 20007 31101 55078 70000 83640 555 20034 30042
AAXX 29061 14106 12998 70901 10007 20000 30192 40263 56012 60002 87070 333 21026 31105 55076 70000 95000 555 20011 30017
AAXX 29061 14112 12/97 80000 11030 29098 60004 333 10028 21043 3/104 70000
AAXX 29061 14121 12597 82201 11004 21010 39970 40247 55003 60002 885// 333 21005 31101 55000 70000 88620 555 20020 30027
AAXX 29061 14122 11358 82201 10000 21012 30048 40252 55003 60002 710// 886// 333 21001 31/// 70000 88707
AAXX 29064 60715 12560 31605 10071 20060 30228 40235 58006 60004 83280 333 20048 59032 83823 91007 91109
AAXX 29064 60723 11540 60000 10055 20055 30062 40258 58005 60004 710// 83280 333 20034 83823 84360
AAXX 29064 60725 12560 32008 10048 2//// 30074 40259 58007 60004 83200 333 20036 83820
AAXX 29064 60735 12556 22102 10050 20043 30149 40234 56010 60004 82200 333 20048 82823
AAXX 29064 60745 12560 4//// 10072 20021 39862 40243 58003 60004 82202 333 20063 82823 84070
AAXX 29064 60748 13562 22002 10032 20025 39814 40250 58005 60004 82200 333 20028 82823
AAXX 29064 60750 12560 73305 10085 20058 30200 40226 58006 60004 878// 333 20080 83820 85626
AAXX 29064 60760 02560 02805 10061 20022 30132 40240 58003 60004 84830 333 20063 84830
AAXX 29064 60765 13558 52804 10093 20073 30242 40246 51008 69924 83502 333 20093 70002 83630 83070 92426 925//
AAXX 29064 60767 12557 62306 10059 20044 30084 40232 55001 60004 83502 333 20059 83630 84070
AAXX 29064 60769 11456 83508 10133 20086 30211 40215 56005 60164 70298 888// 333 20106 70158 84816 85623
AAXX 29064 60663 36/// /1103 10061 21018 333 20061
BBXX 61002 29064 99421 10047 46/// ///34 10129 2//// 40252 57006 22200 00135 10706 70029 555 1/046
AAXX 29064 64510 32260 8//// 10222 20219 3//// 4//// 885// 333 0//00 20222 5///4 55/// 5//// 85703 88613
AAXX 29064 64550 32358 8//// 10235 20215 30/// 40/// 885// 333 0//00 20230 50214 55/// 5//// 84608 88623
AAXX 29064 64560 32260 7//// 10228 20216 39589 40124 8573/ 333 0//00 20217 50204 55/// 59002 83602 85620 87360
AAXX 29061 06414 36/// /2506 10046 20010 30203 40236 58002 60002 333 20045 91110 91206
AAXX 29061 06459 16/// /2507 10031 20026 30055 40253 50004 69922 333 20030 3/001 91111 91207
AAXX 29061 06494 16/// /2606 10001 21001 39429 40250 53004 69972 333 20001 91112 91208
AAXX 29061 15502 12970 30000 11074 21084 30228 40270 58012 60002 80006 333 11016 21076 55080 70000 555 34108 593//
AAXX 29061 15525 12562 72001 10002 21004 39990 40266 57017 60002 83550 333 10016 21002 70000 555 31107 596//
AAXX 29061 15528 11657 80000 10006 21002 30046 40243 57014 60002 71022 8651/ 333 10018 20001 55041 70000 555 34107 594// 92600
AAXX 29061 15535 12512 70000 10018 20007 30204 40252 57016 60002 71022 87500 333 10022 20017 41997 55030 70000 555 593//
AAXX 29061 15549 12570 71603 10014 21005 39838 40268 57015 60002 87600 333 10020 20006 43002 70000 555 3/001 587//
AAXX 29061 15552 11558 83201 10043 20020 30214 40264 57014 60002 71022 885// 222// 2//00 333 10055 20043 55034 70000 555 31002 585// 92012 92416
AAXX 29061 15614 11640 80000 11054 21057 39547 40293 57013 60002 71022 888// 333 11032 21054 44006 55000 70000 555 3/105 597//
AAXX 29061 15626 11658 80000 11014 21022 30084 40282 57004 60002 71022 886// 333 11010 21034 42003 55042 70000 555 3/103 594//
AAXX 29061 15627 11/02 91808 11068 21074 37641 47067 56011 69972 74187 333 11034 21066 48018 55053 70008 93505 555 594// 92713
AAXX 29061 15640 11558 80000 10022 21005 39953 40276 57008 60002 71022 886// 333 10036 20012 55010 70000 555 31001 582//
AAXX 29061 15655 11512 80000 10036 20015 30228 40262 57010 60002 71022 885// 222// 00076 20000 333 10042 20034 70000 555 31/// 586// 92010 92414
AAXX 29061 15712 12558 73401 11012 21025 30021 40284 56011 60002 87500 333 11009 21028 41998 55013 70000 555 3/103 589//
AAXX 29061 15730 11/00 90000 11041 21046 39872 40287 57011 60002 74944 333 10002 21044 43006 55036 70000 555 3/109 596// 92721
BBXX BATUK01 29064 99560 70032 46/// /2606 10044 20005 40081 58020 22200 00064
BBXX 62087 29061 99547 10068 46/// /1306 10071 20042 4//// 5//// 22270 00084
AAXX 29064 60645 36/// /0000 10047 21012 333 20047
AAXX 29064 60619 36/// /0104 10015 21022 333 20003
AAXX 29061 14240 11420 81002 11011 21012 30092 40254 56003 60002 71022 886// 333 21012 31102
AAXX 29061 14258 11/06 90301 11028 21028 30056 40253 56009 60002 7454/ 333 21031 34103
AAXX 29061 14445 NIL
AAXX 29064 07027 02980 22308 10045 20015 30228 40312 50000 69902 80002 333 10066 20037 31002 55016 60007 79999 82068 90710 91115 93100 555 60005
AAXX 29063 91551 11598 62504 10290 20248 40066 53005 69901 70228 83201 333 567/9 69901 83820 86080
AAXX 29063 91553 31598 70000 10293 20244 40069 53008 70222 82907 333 563/9 82820 81925 87078
AAXX 29063 91554 31598 72506 10288 20230 40065 53001 70222 87801 333 565/9 82825 87645
AAXX 29063 91555 11394 80000 10245 20245 40069 53003 60181 78182 887// 333 569// 60181 84708 88818
AAXX 29063 91557 31598 52106 10288 20225 40067 56001 70222 83201 333 565/9 83820 85080
AAXX 29063 91565 31598 60000 10288 20217 40054 56001 70222 81101 333 566/9 81825 86080
AAXX 29063 91568 31598 32006 10290 20237 40064 56002 70122 81101 333 566/9 81825 83080
AAXX 29063 91551 11598 62504 10290 20248 40066 53005 69901 70228 83201 333 567/9 69901 83820 86080
AAXX 29063 91553 31598 70000 10293 20244 40069 53008 70222 82907 333 563/9 82820 81925 87078
AAXX 29063 91554 31598 72506 10288 20230 40065 53001 70222 87801 333 565/9 82825 87645
AAXX 29063 91555 11394 80000 10245 20245 40069 53003 60181 78182 887// 333 569// 60181 84708 88818
AAXX 29063 91557 31598 52106 10288 20225 40067 56001 70222 83201 333 565/9 83820 85080
AAXX 29063 91565 31598 60000 10288 20217 40054 56001 70222 81101 333 566/9 81825 86080
AAXX 29063 91568 31598 32006 10290 20237 40064 56002 70122 81101 333 566/9 81825 83080
AAXX 29063 91802 NIL
AAXX 29063 91809 NIL
AAXX 29063 91831 36/// /2908 10257 20246 40077 57005
AAXX 29063 91841 36/// /0000 10240 20221 40072 52014
AAXX 29063 91843 11497 82607 10240 20233 40052 53013 60451 76166 8627/ 333 5669/ 86810 88458
AAXX 29063 91848 16/// /3319 10234 20228 49853 57010 69921
AAXX 29064 17022 12960 01402 10029 21019 30100 40271 57010 60002 333 20017 31002 55027 91106 92427
AAXX 29064 17031 12970 01403 11014 21019 30283 40290 57004 60002 333 21029 34104
AAXX 29064 17038 12670 40000 10071 21005 30243 40295 57006 60002 82130 333 20056 30003 55060 20682 82835 833 60 92428
AAXX 29064 17050 11640 71701 10012 21001 30208 40273 57007 60002 71022 85570 333 20006 30101 55056 85635 87460 91104
AAXX 29064 17060 12560 41002 10039 21011 30228 40269 57008 60002 84400 333 20038 30000 50181 55054 20687 84625
AAXX 29064 17096 11904 00302 11214 21214 38306 48585 52007 60002 74844 333 21239 3/124 47009 50054 55032 20297
AAXX 29064 17124 12460 71208 11033 21059 39345 40308 56003 60002 87600 333 21036 34104 50084 55006 20394 87716
AAXX 29064 17128 11239 71005 11052 21055 39166 40327 57004 60002 71022 87600 333 21055 34106 50024 55007 20092 87706
AAXX 29064 17170 NIL
AAXX 29064 17195 12470 71206 11062 21081 39048 48544 56002 60002 87600 333 21065 3/108 42002 50034 55014 20327 87711
AAXX 29064 17199 12970 00000 11016 21068 39158 40298 52005 60002 333 21041 34107 55085 20741
AAXX 29064 17219 11935 09902 11021 21028 30094 40246 55002 60002 71000 333 21032 34104 55073 20332
AAXX 29064 17240 12970 02601 11063 21095 39088 40293 56002 60002 333 21064 34108 55068 21043 91104
AAXX 29064 17244 11440 72006 11046 21064 39066 48539 50000 60002 71022 87600 333 21047 34/// 55/// 2//// 87716
AAXX 29064 17280 12960 00901 11006 21030 39453 40277 52013 60002 333 21048 34107 50221 55072 20343
AAXX 29064 17350 12960 03305 10023 21030 30160 40242 51002 60002 333 21006 30///
AAXX 29064 17026 12970 21303 10072 20028 30241 40281 57009 60002 82030 333 20055 30002 55022 20917 82360 91108 92428
AAXX 29064 17034 12970 40000 10055 20016 30248 40296 57008 60002 84030 333 20048 30002 84360 92428
AAXX 29064 17070 11901 02601 11061 21065 39388 40306 56004 60002 74611 333 21061 34107 50094 55024 20477 79999 91103
AAXX 29064 17084 11940 00000 11075 21088 39372 40337 55000 60002 71000 333 21087 34110 55027 91102
AAXX 29064 17090 11420 80501 11072 21085 38790 48547 52004 60002 71022 8572/ 333 21074 3/108 47002 55000 83710 85630 88458
AAXX 29064 17098 12960 00000 11182 21187 38261 48582 52007 60002 333 21218 3/123 43019 50034 55000 20356
AAXX 29064 17150 11440 71502 11015 21020 30144 40275 57006 60002 71041 87700 333 21017 34102 50041 55026 2049 0 87710
AAXX 29064 17160 12670 80703 11037 21066 39096 48542 56002 60002 8452/ 333 21038 34104 55000 84640 88460 91107
AAXX 29064 17184 11956 00101 11026 21036 30141 40258 58003 60002 71000 333 21026 34104 55068 91106
AAXX 29064 17189 11440 71809 11074 21077 39091 48527 51001 60002 71022 87600 333 21078 3/109 46001 87710
AAXX 29064 17210 12970 01801 10027 21019 39205 40269 52012 60002 333 20010 34103 55070
AAXX 29064 17234 12970 01003 10010 21017 30177 40248 53001 60002 333 20010 31000 50074 55086 91108
AAXX 29064 17260 11940 02801 11024 21041 39416 40272 53005 60002 71000 333 21063 34109 50094 55081 21327
AAXX 29064 17290 12670 40201 10067 20030 30203 40236 50000 60002 82230 333 20065 30003 50164 55069 82835 8436 0 91106 92418
AAXX 29064 17370 12965 01502 10077 20009 30238 40242 53001 60002 333 20062 32002 50184 55068 2//// 92417
AAXX 29064 17024 12670 21812 10019 21005 30191 40272 57008 60002 82100 333 20016 31001 55061 82835 91119 92428
AAXX 29064 17056 12970 30104 10056 20055 30263 40268 56009 60002 83030 333 20019 31000 55036 20465 83360 91108 92418
AAXX 29064 17067 12970 02001 11010 21020 30248 40271 57007 60002 333 21014 34102 55000 91104 92408
AAXX 29064 17092 11956 00000 11067 21076 38949 48558 52008 60002 71000 333 21099 34110 50044 55076 21101
AAXX 29064 17112 11958 00502 10017 21001 30252 40255 56007 60002 71000 333 20015 30102 50074 55043 20075 91111 92406
AAXX 29064 17115 11960 00000 11027 21036 30213 40267 57005 60002 71040 333 21034 34105 50134 55044 20678
AAXX 29064 17116 12965 01103 11003 21063 30148 40275 57007 60002 333 21004 31102 55062 20050 91111
AAXX 29064 17188 11950 02801 11054 21114 39159 40273 57004 60002 70500 333 21057 34108 91104
AAXX 29064 17202 12970 02404 11031 21045 39238 40310 52009 60002 333 21060 34107
AAXX 29064 17248 11956 83503 11054 21076 39055 48540 53003 60002 71022 8802/ 333 21056 34106 55000 2//// 88460
AAXX 29064 17292 12670 20000 11016 21017 39468 40252 53002 60002 82100 333 21019 34103 50074 55029 20615 82840 91103
AAXX 29064 17300 12960 03408 10036 21045 30163 40237 53003 60002 333 20022 30/// 50301 55/// 2////
AAXX 29064 17310 12970 00602 10099 20034 30231 40238 53003 60002 333 20098 30005 55063 91105 92418
AAXX 29064 17330 12970 02905 10053 21064 30230 40249 54000 60002 333 20046 31003 50241 55073
AAXX 29064 08055 12960 03508 10008 21026 39291 48623 53008 60002 333 21010 30103 55083 70000 95090
AAXX 29064 08075 11570 10506 10004 21012 39303 48611 51003 60012 72111 81500 333 20002 55063 70013
AAXX 29064 08084 02670 22907 10068 20011 39927 40374 53008 60002 82500 333 20066 3/004 55078 60007 70000
AAXX 29064 08171 11/02 90000 11020 21020 30061 40316 56003 60002 74540 333 21034 34106 5//// 55017 70000 89/10
AAXX 29064 08184 02560 40102 10013 21002 30115 40278 55002 60002 81532 333 20002 3/101 55079 60007 70000
AAXX 29064 08202 01557 21002 11002 21012 39414 42935 58002 60002 71020 82500 333 21023 34105 55088 60007 70000
AAXX 29064 08235 NIL
AAXX 29064 08238 12675 43209 10118 20047 30209 40271 55010 60002 844// 333 20099 55085
AAXX 29064 08280 12965 60901 11017 21023 39477 40346 56004 60002 80006 333 21030 50214 55062 70000
AAXX 29064 08330 11908 00704 11004 21020 30097 40342 52007 60002 74100 333 21004 31101 50234 55083 70000
AAXX 29064 08348 NIL
AAXX 29064 08360 02965 00000 10062 20001 30256 40295 55002 60002 333 20047 30007 55058 60007 70000
AAXX 29064 08373 02665 12501 10054 20048 30265 40286 56002 60002 81500 333 20044 3/002 55048 60007 70000
AAXX 29064 08410 02980 00902 10037 20017 30212 40328 55004 60002 333 20010 31001 55090 60007 70000
AAXX 29064 08419 02965 21202 11026 21036 39634 40347 55004 60002 80005 333 21029 3/103 55073 60007 70000
AAXX 29064 08451 02970 62102 10037 20022 30270 40305 56014 60002 80004 333 20030 3/001 55057 60007 70000
AAXX 29064 08487 02970 03509 10080 20013 30267 40293 55005 60002 333 20076 3/008 55079 60007 70000
AAXX 29064 06030 01565 72623 10060 20031 39904 49919 53011 69952 70282 87500 333 10076 20059 32/// 69907 70007 83620 85657 91040 91145
AAXX 29064 06060 01562 42622 10057 20022 39910 49974 53015 60022 70282 84500 333 10077 20058 31004 69967 70030 84625 91034 91140
AAXX 29064 06070 07461 72618 10062 20029 39938 49968 52001 69922 78188 333 10075 20061 3/005 6///7 70005 81/19 83/24 85/29 87/38 91032 91132
AAXX 29064 06120 36564 72418 10060 20043 39981 40007 54000 333 10070 20057 3/004 81/22 83/26 85/30 87/39 91030 91143
AAXX 29064 06180 01465 82325 10062 20038 39993 49999 57019 69952 72581 885// 333 10071 20057 31005 69927 70011 82613 87633 91141
AAXX 29064 06193 07457 72331 10056 20035 30012 40023 57028 69902 76164 333 10065 20056 55300 20000 69907 70013 81/19 83/25 87/30 91043 91147
AAXX 29064 07168 02670 22512 10029 20011 30157 40306 53004 69942 82500 333 10068 20029 31002 55006 69927 70004 82633 90710 91119 93100 555 60005
AAXX 29064 08001 12465 4//// 10084 20044 30315 40399 51001 60002 84500 333 20084 30005 50184 55001 70010 924/7
AAXX 29064 08231 12467 21502 10001 21020 39202 48577 55005 60002 82100 333 21002 34101 50174 55079 70000
AAXX 29061 78458 32466 10000 10214 20211 40184 57001 81200 333 10295 20192 30/// 56000 59006 81818
AAXX 29061 78460 32466 40903 10215 20204 40179 56007 84200 333 10310 20186 30/// 56000 59007 84818
AAXX 29061 78479 21466 71105 10234 20224 40157 57008 70361 85520 333 10285 20228 31/// 56200 59006 60027 85616 84458
AAXX 29061 78485 32466 70303 10210 20195 40176 57007 83230 333 10290 20190 30/// 56200 59006 83616 84358
AAXX 29061 78486 32466 73403 10236 20210 40164 57008 84270 333 10302 20210 30/// 56000 58000 84818 85457
AAXX 29061 01028 11680 60506 11084 21125 39984 40005 52005 60002 70121 86800 333 21085 70004 91109
AAXX 29061 01049 16/// /1402 11031 21063 39929 49933 55010 69952 333 21032 70020 91109
AAXX 29061 01160 46/// /0410 11005 21037 39822 49839 56016 333 21005 91118
AAXX 29061 13160 31696 81301 10012 20010 30142 40255 58009 71022 885// 333 20012 31003 55001 70000
AAXX 29061 13262 31/91 90000 11034 21036 30097 40253 56011 74542 333 21034 34105 55077 70000
AAXX 29061 13272 31904 01901 11021 21033 30124 40250 57007 74640 333 21028 34108 55000
AAXX 29061 13285 31996 02602 11029 21036 30146 40254 57014 71000 333 21034 34107 55000 70000
AAXX 29061 13289 32998 01407 11043 21046 38994 48482 57030 333 21051 3/105 43003 55024 70002
AAXX 29061 13376 31694 50000 11037 21044 39986 40263 57017 72842 85500 333 21055 31108 55000 70000
AAXX 29061 13388 32998 00701 11032 21042 30014 40276 56012 333 21034 34106 55000 70000
AAXX 29061 13462 32860 10201 11017 21042 30218 40260 57008 81030 333 21025 34106 55/// 81358
AAXX 29061 13473 NIL
AAXX 29061 13489 31596 81802 11039 21040 39742 40289 57007 71022 886// 333 21040 31104 55030 70000
AAXX 29061 01367 11560 80000 10004 21006 39360 49793 55012 69922 70222 887// 333 21001 47015 70016 91104
AAXX 29064 71401 NIL
AAXX 29064 71402 NIL
AAXX 29064 71404 NIL
AAXX 29064 71405 NIL
AAXX 29064 71406 NIL
AAXX 29064 71407 NIL
AAXX 29064 71408 NIL
AAXX 29064 71409 NIL
AAXX 29064 71410 17366 81503 11122 21134 39760 40045 58005 60001 771// 333 11122 21154 70006
AAXX 29064 71413 NIL
AAXX 29064 71414 NIL
AAXX 29064 71415 17/// /2514 10040 20002 39830 49833 53014 69971 7//4/ 333 10095 20027 70060 555 31739 40203
AAXX 29064 71417 NIL
AAXX 29064 71418 NIL
AAXX 29064 71419 46/// /2320 10055 20039 39841 49851 53030 6///1 333 10084 20040 7//// 555 31339 40233
AAXX 29064 71423 NIL
AAXX 29064 71424 46/// /2414 6///1 333 7//// 555 32338 40213
AAXX 29064 71425 NIL
AAXX 29064 71426 NIL
AAXX 29064 71427 NIL
AAXX 29064 71428 17/// /2327 11055 21066 39798 49804 53006 60041 7//4/ 333 10093 21055 70070 555 32339 40063
AAXX 29064 71429 NIL
AAXX 29064 71434 NIL
AAXX 29064 71436 15966 03003 11172 21190 39919 40164 50000 60001 333 10010 21175 70018
AAXX 29064 71437 46/// /3104 11072 21122 30066 40164 56008 6///1 333 10029 21077 7//// 555 33030 40082
AAXX 29064 71438 NIL
AAXX 29064 71439 NIL
AAXX 29064 71440 NIL
AAXX 29064 71442 NIL
AAXX 29064 71445 NIL
AAXX 29064 71446 NIL
AAXX 29064 71448 16/// /0102 11100 21114 39703 40038 53001 60001 333 11065 21149 7////
AAXX 29064 71449 16/// /0104 11059 21086 39616 40021 53003 60001 333 11031 21137 70000
AAXX 29064 71201 NIL
AAXX 29064 71202 17/// ///// 11063 21083 69961 7//4/ 333 11006 21110 7////
AAXX 29064 71203 17666 83503 10044 20038 39475 49986 55016 60011 7614/ 333 10067 20001 70016
AAXX 29064 71209 NIL
AAXX 29064 71211 NIL
AAXX 29064 71212 16/// /3214 11175 21215 39111 49913 51007 60001 333 10009 21175 70133 555 10030 20133 33328 40042
AAXX 29064 71213 46/// /3006 11248 21272 39851 40169 56005 6///1 333 11161 21256 7//// 555 33426 40071
AAXX 29064 71214 NIL
AAXX 29064 71215 NIL
AAXX 29064 71216 NIL
AAXX 29064 71217 NIL
AAXX 29064 71218 17/// /1105 10042 20030 39544 49964 56028 69961 7//4/ 333 10077 21004 70021
AAXX 29064 71219 NIL
AAXX 29064 71220 NIL
AAXX 29064 71221 NIL
AAXX 29064 71222 NIL
AAXX 29064 71223 NIL
AAXX 29064 71224 NIL
AAXX 29064 71225 NIL
AAXX 29064 71226 NIL
AAXX 29064 71227 NIL
AAXX 29064 71228 NIL
AAXX 29064 71229 NIL
AAXX 29064 71230 16/// /2001 11040 21054 39015 49898 56018 60001 333 11033 21079 70000
AAXX 29064 71231 16/// /2008 10036 21016 60001 333 10120 20023 70000 555 32747 40203
AAXX 29064 71232 16/// /2508 10043 21028 38482 49939 58026 60001 333 10067 21068 70000 555 32633 40042
AAXX 29064 71233 16/// /1204 10014 21073 60001 333 10014 21083 70000
AAXX 29064 71234 16/// /1805 10074 21034 38806 49955 56035 60001 333 10116 21021 70000 555 32537 40173
AAXX 29064 71235 16/// /1704 10040 21049 60001 333 10089 21095 70000 555 32824 40201
AAXX 29064 71236 46/// /0000 10008 20005 6///1 333 10066 20008 7//// 555 33135 40183
AAXX 29064 71237 46/// /2602 11011 21040 39151 49958 58028 6///1 333 10047 21100 7////
AAXX 29064 71238 16/// /1202 11065 21091 60001 333 11008 21104 70006 555 31417 40171
AAXX 29064 71239 16/// /2803 11082 21093 39578 40044 50011 60001 333 11026 21124 70000 555 10010 31817 40101
AAXX 29064 71240 16/// ///// 11091 21103 39152 40001 58027 60001 333 11019 21099 70003
AAXX 29064 71241 NIL
AAXX 29064 71242 16/// /2403 11035 21064 60001 333 11013 21131 70000
AAXX 29064 71243 NIL
AAXX 29064 71244 16/// /2212 10059 20001 38792 49988 58026 60001 333 10093 20004 70000 555 10010 32539 40143
AAXX 29064 71245 46/// /2112 11050 21057 6///1 333 11035 21070 7//// 555 32472 40163
AAXX 29064 71246 NIL
AAXX 29064 71247 15966 82110 10051 21009 39151 49985 56024 60001 333 10127 21009 70000
AAXX 29064 71248 16/// /1603 11024 21073 38668 49947 58035 60001 333 10084 21118 70006 555 32433 40202
AAXX 29064 71249 NIL
AAXX 29064 71851 NIL
AAXX 29064 71857 NIL
AAXX 29064 71860 NIL
AAXX 29064 71876 15266 81506 11046 21049 39356 40022 56014 60001 333 11019 21118 70000
AAXX 29064 71885 NIL
AAXX 29064 71886 16/// /2506 11090 21101 39438 40051 56001 60001 333 11050 21112 70000
AAXX 29064 71888 NIL
AAXX 29064 71890 17/// /0612 11092 21116 39807 49834 51010 69961 7//4/ 333 10026 21092 70209 555 10110 20209 30131 40102
AAXX 29064 71895 NIL
AAXX 29064 71864 NIL
AAXX 29064 71865 16/// /2304 11050 21072 39362 40044 55001 60001 333 11038 21091 70000 555 32718 40091
AAXX 29064 71866 46464 81707 11060 21079 39415 40032 56012 6///1 333 11038 21124 7////
AAXX 29064 71867 11974 00000 11084 21086 39694 40032 56007 69901 70171 333 11057 21121 47025 70022 90930 555 10028 20022
AAXX 29064 71868 NIL
AAXX 29064 71869 12574 80000 11095 21101 39508 40040 56009 60001 885// 333 11056 21166 70000 555 10000 20000
AAXX 29064 71871 17/12 /1708 11060 21064 39189 49995 56018 60001 710// 333 11025 21106 70000
AAXX 29064 71877 12974 60000 11011 21048 38718 49966 58036 60001 86070 333 10099 21089 70000 555 10000 20000 32536 40202
AAXX 29064 71878 12974 81805 11029 21063 38899 49970 58032 60001 8807/ 333 11022 21127 70000 555 10000 20000
AAXX 29064 71879 16964 01805 11030 21085 39148 49945 58036 60001 333 11017 21075 70000
AAXX 29064 71880 11359 81410 10039 20038 38920 40007 58042 60021 76122 885// 333 10073 21007 70062 90931 555 10016 20016
AAXX 29064 71882 160// /0104 10013 20012 39446 49978 56046 60031 333 10019 20003 70115 555 31520 40081
AAXX 29064 71883 NIL
AAXX 29064 71887 11786 81103 10063 20021 39536 49948 55020 69901 78088 86501 333 10109 20012 79999 90910 555 10000 20000 31028 40111
AAXX 29064 71889 11474 81718 10087 20043 39590 49999 55001 69941 78082 885// 333 10097 20032 70012 90921 555 10000 20000 31936 40103
AAXX 29064 71891 16564 61918 10061 20039 39689 49957 55015 60081 333 10089 20026 70135 555 31748 40093
AAXX 29064 71892 11474 22705 10091 20051 30018 40023 53034 60051 70161 82530 333 10116 20075 70080 90935 555 10000 20000 31619 40201
AAXX 29064 71500 NIL
AAXX 29064 71501 NIL
AAXX 29064 71502 NIL
AAXX 29064 71503 NIL
AAXX 29064 71504 NIL
AAXX 29064 71505 NIL
AAXX 29064 71506 NIL
AAXX 29064 71507 17/// /3402 11170 21185 69941 7//4/ 333 11061 21176 70004
AAXX 29064 71508 16/// ///// 11101 21136 30029 40171 52001 60001 333 10020 21102 70000
AAXX 29064 71509 NIL
AAXX 29064 71511 NIL
AAXX 29064 71512 17/// /0606 10011 20011 39746 49759 58049 60101 7//4/ 333 10022 21011 70683 555 31024 40161
AAXX 29064 71513 17340 81018 10019 20018 39764 49779 58064 60221 76144 333 10023 21035 70355
AAXX 29064 71514 NIL
AAXX 29064 71515 16/// /1802 11059 21064 39343 40048 55003 60001 333 11038 21112 70019
AAXX 29064 71516 16/// /1301 11050 21057 60001 333 10073 21082 70014 555 32923 40221
AAXX 29064 71517 NIL
AAXX 29064 71518 NIL
AAXX 29064 71519 NIL
AAXX 29064 71520 NIL
AAXX 29064 71521 NIL
AAXX 29064 71522 NIL
AAXX 29064 71523 NIL
AAXX 29064 71524 17/// /2511 11163 21206 30055 40082 52026 60011 7//4/ 333 10013 21164 70030 555 10050 20030 32522 40171
AAXX 29064 71525 NIL
AAXX 29064 71526 NIL
AAXX 29064 71527 17566 81204 11078 21090 39521 40035 56013 60001 771// 333 11078 21225 70000
AAXX 29064 71528 NIL
AAXX 29064 71529 46/// /10// 11165 21186 39762 49992 53001 6///1 333 11106 21166 7//// 555 10020
AAXX 29064 71532 15966 83204 11203 21218 39804 40165 52002 60001 333 11063 21231 70000
AAXX 29064 71534 17433 80000 11226 21287 39884 40168 57002 60001 745// 333 11028 21243 70025 555 33225 40071
AAXX 29064 71535 NIL
AAXX 29064 71536 NIL
AAXX 29064 71537 NIL
AAXX 29064 71539 NIL
AAXX 29064 71540 NIL
AAXX 29064 71541 NIL
AAXX 29064 71542 16/// /0707 11101 21110 60001 333 11066 21182 70005
AAXX 29064 71543 NIL
AAXX 29064 71544 NIL
AAXX 29064 71545 16/// ///// 11105 21113 60001 333 11030 21109 70005
AAXX 29064 71546 NIL
AAXX 29064 71547 NIL
AAXX 29064 71548 NIL
AAXX 29064 71549 NIL
AAXX 29064 71744 NIL
AAXX 29064 71750 NIL
AAXX 29064 71751 NIL
AAXX 29064 71752 NIL
AAXX 29064 71753 17/// /2311 10030 20000 39822 49850 53014 69931 7//4/ 333 10107 20029 70150 555 31534 40203
AAXX 29064 71754 16/// /1506 11052 21066 39352 40018 56014 60001 333 11020 21141 70000
AAXX 29064 71755 43/// /1102 11232 21271 39728 40087 58001 6///1 333 11156 21341 7////
AAXX 29064 71756 NIL
AAXX 29064 71758 NIL
AAXX 29064 71760 NIL
AAXX 29064 71761 NIL
AAXX 29064 71762 NIL
AAXX 29064 71763 NIL
AAXX 29064 71765 NIL
AAXX 29064 71766 NIL
AAXX 29064 71767 16/// /0702 11135 21148 39886 40157 58008 60001 333 11099 21185 70000 555 10030 33523 40081
AAXX 29064 71768 NIL
AAXX 29064 71769 NIL
AAXX 29064 71770 NIL
AAXX 29064 71771 NIL
AAXX 29064 71772 17/// /2408 10101 20058 30001 40007 53027 60031 7//4/ 333 10134 20083 70044 555 32226 40151
AAXX 29064 71773 NIL
AAXX 29064 71774 NIL
AAXX 29064 71775 NIL
AAXX 29064 71776 NIL
AAXX 29064 71777 NIL
AAXX 29064 71778 NIL
AAXX 29064 71779 NIL
AAXX 29064 71780 NIL
AAXX 29064 71781 NIL
AAXX 29064 71782 NIL
AAXX 29064 71783 NIL
AAXX 29064 71784 NIL
AAXX 29064 71785 NIL
AAXX 29064 71786 NIL
AAXX 29064 71787 17/// /2617 11044 21045 39365 49839 53004 60011 7//4/ 333 10085 21044 70291 555 31437 40153
AAXX 29064 71788 NIL
AAXX 29064 71789 NIL
AAXX 29064 71791 NIL
AAXX 29064 71792 NIL
AAXX 29064 71793 NIL
AAXX 29064 71794 NIL
AAXX 29064 71795 NIL
AAXX 29064 71796 NIL
AAXX 29064 71797 NIL
AAXX 29064 71816 11248 80609 11026 21035 39827 49888 57042 60071 77177 887// 333 11026 21134 47075 70262 90983 93107 555 10290 20262 30619 40220
AAXX 29064 71817 NIL
AAXX 29064 71818 11566 81206 10002 21003 39905 49923 58070 60021 76677 885// 333 10004 21083 43016 70052 90973 555 10040 20040 33617 40071
AAXX 29064 71822 NIL
AAXX 29064 71825 11656 80114 11181 21197 39219 49901 58027 60051 77177 885// 333 11176 21199 48108 70150 90983 93109 555 10208 20150 30328 40181
AAXX 29064 71827 12974 03203 11282 21323 39887 40147 56007 60001 333 11252 21315 70000 555 10000 20000
AAXX 29064 71828 17108 93412 11217 21253 39329 49988 57027 60021 74544 333 11208 21316 70045 555 30120 40021
AAXX 29064 71831 12974 00000 11302 21345 39874 40175 57005 60001 333 11217 21330 79999 555 19999 29999
AAXX 29064 71832 NIL
AAXX 29064 71834 11259 70904 11193 21227 39677 40126 58018 69901 77111 87700 333 11182 21364 48026 79999 90931 555 19999 29999
AAXX 29064 71841 NIL
AAXX 29064 71842 11574 81304 11097 21112 39565 40046 57016 69901 77177 885// 333 11097 21289 47006 70008 90983 555 10008 20008
AAXX 29064 71844 NIL
AAXX 29064 71845 NIL
AAXX 29064 71850 12474 60806 11092 21109 39527 40035 57003 60001 86500 333 11083 21183 70012 555 10014 20012 31619 40170
AAXX 29064 71852 16364 80103 11075 21082 39747 40045 53010 60001 333 11067 21124 70000
AAXX 29064 71854 NIL
AAXX 29064 71858 16/// /0000 11072 21080 39753 40036 56005 60001 333 11060 21121 70003
AAXX 29064 71861 16/// /2502 11077 21084 39319 40050 55002 60001 333 11037 21131 70000
AAXX 29064 71862 11274 82305 11041 21049 39353 40056 53004 69901 77177 885// 333 11021 21116 47003 70050 90983 555 10050 20050
AAXX 29064 71863 46464 81602 11049 21068 39347 40050 56002 6///1 333 11037 21130 7////
AAXX 29064 71250 NIL
AAXX 29064 71251 16/// /1611 10036 21022 39086 49991 56023 60001 333 10119 21008 70007 555 32542 40203
AAXX 29064 71252 NIL
AAXX 29064 71253 46/// /0404 11150 21160 6///1 333 11120 21205 7////
AAXX 29064 71254 16/// /1405 11060 21080 60001 333 11020 21113 70000 555 10010
AAXX 29064 71255 16/// /1406 11059 21081 60001 333 11045 21127 70006
AAXX 29064 71256 46/// /16// 11084 21103 39009 49942 56027 6///1 333 11038 21087 7////
AAXX 29064 71257 NIL
AAXX 29064 71258 NIL
AAXX 29064 71259 NIL
AAXX 29064 71261 16/// /1404 11067 21103 39878 40145 58011 60001 333 11029 21067 70007 555 33433 40122
AAXX 29064 71263 11460 72102 11081 21108 39866 40163 58008 69901 78581 81800 333 10010 21112 4-4003 70008 909/6 555 10000 20000
AAXX 29064 71264 16/// /2410 10036 20012 39845 49876 51017 60001 333 10094 20036 70164 555 31434 40183
AAXX 29064 71265 15966 03107 11094 21138 30072 40169 54000 60001 333 10022 21094 70000
AAXX 29064 71266 NIL
AAXX 29064 71267 15966 81506 10035 21014 38928 49999 56019 60001 333 10117 20007 70000
AAXX 29064 71268 NIL
AAXX 29064 71269 NIL
AAXX 29064 71270 NIL
AAXX 29064 71271 16/// ///// 11068 21108 60001 333 11032 21077 70010
AAXX 29064 71272 17561 82006 11132 21145 39657 40016 58006 60001 771// 333 11131 21205 70000
AAXX 29064 71273 16/// /2106 11048 21058 39333 49992 58017 60001 333 11031 21108 70000 555 32217 40061
AAXX 29064 71274 NIL
AAXX 29064 71275 NIL
AAXX 29064 71276 NIL
AAXX 29064 71277 NIL
AAXX 29064 71278 NIL
AAXX 29064 71279 17/// /0108 11006 21010 39698 49762 56030 60021 7//4/ 333 10021 21012 70286 555 31131 40152
AAXX 29064 71281 NIL
AAXX 29064 71282 46/// /3303 11157 21157 39888 40169 51005 6///1 333 11020 21171 7//// 555 33227 40111
AAXX 29064 71283 NIL
AAXX 29064 71284 16/// ///// 11068 21096 60001 333 11021 21107 70000
AAXX 29064 71285 NIL
AAXX 29064 71286 NIL
AAXX 29064 71287 NIL
AAXX 29064 71288 NIL
AAXX 29064 71289 NIL
AAXX 29064 71290 17766 81511 10010 21008 39078 49894 56009 69931 7004/ 333 10013 21083 70003
AAXX 29064 71291 17/// /0502 11096 21109 39785 40088 58023 69961 7//4/ 333 11095 21256 70006 555 10030 20006
AAXX 29064 71292 15766 32506 11089 21092 39439 40054 57001 60001 333 11051 21113 70000
AAXX 29064 71294 16/// /0402 11258 21288 39725 40147 50001 60001 333 11005 70018 555 33522 40191
AAXX 29064 71295 NIL
AAXX 29064 71296 NIL
AAXX 29064 71297 16/// /0101 11076 21100 60001 333 10021 21095 70003 555 33226 40091
AAXX 29064 71298 16/// /2003 11026 21056 39914 40151 58017 60001 333 11011 21061 70000 555 10010 33026 40081
AAXX 29064 71299 NIL
AAXX 29064 71726 NIL
AAXX 29064 71727 11524 82824 11154 21183 39758 49957 52014 60021 77173 885// 333 10004 21157 48040 70085 90983 555 10110 20085 32932 40040
AAXX 29064 71728 11662 73118 11166 21191 39761 49986 52009 60011 77177 87500 333 11010 21167 48009 70238 90983 555 11238 21238
AAXX 29064 71730 12274 33104 11232 21267 39721 40170 57004 60001 83600 333 11160 21232 43012 70010 555 10014 20010 33633 40061
AAXX 29064 71731 12974 00105 11237 21280 39684 40160 58003 60001 333 11137 21254 70008 555 10008 20008 33628 40131
AAXX 29064 71735 NIL
AAXX 29064 71738 NIL
AAXX 29064 71739 42974 00000 11303 21346 39784 40173 56007 61111 333 11212 21312 41111 71111 555 11111 21111 33317 40100
AAXX 29064 71749 16411 91006 11048 21054 39814 40065 58028 60011 333 11047 21232 70010
AAXX 29064 71799 11583 32515 10100 20046 30001 40024 50023 60051 72186 83800 333 10130 20077 70086 90917 555 10000 20000 32337 40081
AAXX 29064 71800 16/// /1910 10020 20020 39916 49948 56031 60001 333 10035 21052 70000 555 30429 40212
AAXX 29064 71801 11224 82103 10027 20027 39768 49938 58044 69901 72854 886// 333 10028 21086 44004 70004 90933 555 10000 20000
AAXX 29064 71803 11116 81309 11001 21006 39726 49909 58072 69961 75662 887// 333 10017 21017 42006 70006 90952 555 10000 20000
AAXX 29064 71807 NIL
AAXX 29064 71808 11274 80924 10010 21015 39831 49876 58085 69941 70262 8662/ 333 10016 21025 70006 90931 555 10002 20002 30834 40051
AAXX 29064 71809 12474 80918 10037 20016 39837 49864 56094 60001 8552/ 333 10043 21052 70000 555 10000 20000 30924 40061
AAXX 29064 71810 17/// /2702 10015 20011 39683 49747 58043 60031 7//4/ 333 10031 21020 70201 555 31333 40162
AAXX 29064 71811 NIL
AAXX 29064 71813 17/// /0917 10020 20017 39762 49775 58063 60241 7//4/ 333 10024 21037 70388 555 31233 40222
AAXX 29064 71814 17/// /0909 10029 20022 39821 49830 56068 60011 7//4/ 333 10029 21021 70017 555 31118 40011
AAXX 29064 71815 12474 80920 10055 20043 39764 49794 58095 60001 885// 333 10062 21004 70000 555 10000 20000 31429 40001
AAXX 29064 71665 17/// /3315 11110 21123 39998 40008 56052 60051 7//4/ 333 11110 21218 70063 555 10080 20063 33227 40051
AAXX 29064 71666 16/// /2419 11002 21016 39778 49821 53005 60001 333 10106 21002 70012 555 31630 40162
AAXX 29064 71667 NIL
AAXX 29064 71668 16/// /2820 11054 21108 39837 49879 51021 60001 333 10101 21054 70209 555 33030 40062
AAXX 29064 71669 NIL
AAXX 29064 71670 17/// ///// 11001 21016 69961 7//4/ 333 10073 21001 70045
AAXX 29064 71671 NIL
AAXX 29064 71672 16/// /2101 11198 21225 39882 40158 50001 60001 333 10018 21198 70003 555 33125 40111
AAXX 29064 71673 NIL
AAXX 29064 71674 NIL
AAXX 29064 71675 15966 01407 11246 21270 39819 40113 58005 60001 333 11203 21314 70000
AAXX 29064 71679 NIL
AAXX 29064 71680 NIL
AAXX 29064 71681 NIL
AAXX 29064 71682 NIL
AAXX 29064 71683 NIL
AAXX 29064 71684 15966 02906 11246 21274 39852 40171 57006 60001 333 11161 21255 70000
AAXX 29064 71685 17356 80304 10012 20012 39446 49978 56046 60021 7614/ 333 10020 20003 70073
AAXX 29064 71686 469// /2902 11098 21111 38885 49827 53007 6///1 333 11091 21126
AAXX 29064 71687 NIL
AAXX 29064 71688 NIL
AAXX 29064 71689 15666 81208 11072 21083 39507 49964 56016 60001 333 11045 21147 70000
AAXX 29064 71690 NIL
AAXX 29064 71691 17524 82912 11090 21111 39811 49838 52010 69931 771// 333 10027 21090 70121
AAXX 29064 71692 NIL
AAXX 29064 71694 16/// /2601 11234 21256 39796 40178 53002 60001 333 11076 21242 70005 555 10030 20005 33224 40141
AAXX 29064 71695 16/// /2001 11081 21090 39690 40027 57007 60001 333 11057 21119 70015 555 10010 20015 31517 40081
AAXX 29064 71696 16/// /1810 11179 21214 30015 40053 57003 60001 333 11158 21296 70000 555 31618 40001
AAXX 29064 71697 15966 03407 11157 21180 39987 40165 50000 60001 333 10011 21158 70000
AAXX 29064 71699 16/// /2712 11044 21093 39893 49901 51021 60001 333 10109 21044 70052
AAXX 29064 71114 160// /2718 10121 20064 39950 49997 55003 60101 333 10132 20041 70510 555 33035 40153
AAXX 29064 71120 12474 81805 11046 21067 39334 49991 56020 60001 885// 333 11033 21106 79999 555 19999 29999
AAXX 29064 71122 16/// /2603 10010 21008 38402 49971 58038 60001 333 7////
AAXX 29064 71123 12974 81410 11047 21086 39087 49948 58038 60001 81071 333 11039 21144 70000 555 10000 20000
AAXX 29064 71125 NIL
AAXX 29064 71129 11966 20802 11107 21118 39173 40009 58021 69901 72874 80001 333 11043 21108 42002 70012 90922 555 10014 20012
AAXX 29064 71131 16/// /2511 11012 21027 38774 40015 58014 60001 333 10046 21062 70000 555 32630 40212
AAXX 29064 71135 16/// /2709 11014 21035 38956 40029 56007 60001 333 10048 21082 70007 555 32827 40201
AAXX 29064 71137 NIL
AAXX 29064 71140 12874 83203 11060 21071 39545 40052 5/008 60001 8807/ 333 11048 21118 79999 555 19999 29999
AAXX 29064 71145 11474 81404 11175 21205 39762 40066 57003 69901 77111 885// 333 11156 21238 48036 70002 90921 555 10002 20002
AAXX 29064 71148 16/// /3304 11082 21092 39460 40044 50013 60001 333 11022 21154 70000
AAXX 29064 71185 16964 01223 10055 39804 49827 56105 60001 333 10071 20018 70000 555 31238 40053
AAXX 29064 71188 NIL
AAXX 29064 71200 NIL
AAXX 29064 71207 NIL
AAXX 29064 71260 13/// ///// 11117 21174 39901 40146 58013 60001 333 11112 21201 70000 555 10000 20000
AAXX 29064 71397 11569 62514 10005 21014 39847 49881 52015 60011 70282 86500 333 10126 20001 70042 90941 555 10000 20000 31735 40161
AAXX 29064 71400 16/08 /1602 10001 20001 60001 333 10038 21033 70000
AAXX 29064 71403 46/// /2521 10050 20033 39847 49866 53020 6///1 333 10085 20050 7//// 555 31544 40213
AAXX 29064 71411 16/// /2517 10028 20012 39891 49903 51013 60001 333 10101 20026 70074 555 31649 40163
AAXX 29064 71412 17/// /2416 10050 20031 39793 49802 54000 60051 7//4/ 333 10071 20030 70134 555 31640 40193
AAXX 29064 71421 NIL
AAXX 29064 71430 16/// /3209 11135 21172 30053 40153 53001 60001 333 10030 21135 70003 555 32835 40133
AAXX 29064 71431 16/// /3304 11152 21186 30052 40151 56003 60001 333 10014 21153 70000 555 33326 40101
AAXX 29064 71432 NIL
AAXX 29064 71433 NIL
AAXX 29064 71435 NIL
AAXX 29064 71441 NIL
AAXX 29064 71443 16/// /2107 11117 21134 39628 40047 56001 60001 333 11063 21119 70000 555 32218 40151
AAXX 29064 71444 16/// /0000 11139 21153 39279 40046 50005 60001 333 11052 21139 70004
AAXX 29064 71447 16/// /0105 11049 21069 39502 40049 53004 60001 333 11026 21118 70000
AAXX 29064 71467 16/// /0916 11278 21305 39993 40113 50000 60001 333 11255 21309 70003 555 30527 40081
AAXX 29064 71472 NIL
AAXX 29064 71474 16964 01909 10031 21007 38725 49933 55002 60001 333 10069 21036 70005 555 31826 40051
AAXX 29064 71510 16/// /1704 11049 21059 39305 40013 57013 60001 333 11036 21136 70014
AAXX 29064 71538 12974 80000 11047 21084 39919 40154 58017 60001 8807/ 333 11016 21057 70002 555 10004 20002 33228 40081
AAXX 29064 71600 17658 62426 10068 20038 39906 49912 51028 60041 7//44 333 10111 20047 70050 555 31546 40023
AAXX 29064 71601 NIL
AAXX 29061 78458 32466 10000 10214 20211 40184 57001 81200 333 10295 20192 30/// 56000 59006 81818
AAXX 29061 78460 32466 40903 10215 20204 40179 56007 84200 333 10310 20186 30/// 56000 59007 84818
AAXX 29061 78479 21466 71105 10234 20224 40157 57008 70361 85520 333 10285 20228 31/// 56200 59006 60027 85616 84458
AAXX 29061 78485 32466 70303 10210 20195 40176 57007 83230 333 10290 20190 30/// 56200 59006 83616 84358
AAXX 29061 78486 32466 73403 10236 20210 40164 57008 84270 333 10302 20210 30/// 56000 58000 84818 85457
AAXX 29064 71350 17/// /2515 10028 20016 39747 49810 53002 69971 7//4/ 333 10082 20021 70103 555 31635 40173
AAXX 29064 71351 NIL
AAXX 29064 71352 16/// /0000 11112 21128 39684 40152 58009 60001 333 11029 21135 70000 555 33128 40112
AAXX 29064 71353 NIL
AAXX 29064 71354 NIL
AAXX 29064 71355 16/// /2801 11347 21384 30052 40142 53008 60001 333 11318 21364 70000
AAXX 29064 71356 16/// /0717 11253 21281 39992 40061 56012 60001 333 11252 21340 70000 555 30720 40061
AAXX 29064 71357 NIL
AAXX 29064 71358 17/// /2704 11327 21362 30112 40149 51016 69971 7//4/ 333 11218 21343 70010 555 33226 40081
AAXX 29064 71359 NIL
AAXX 29064 71360 NIL
AAXX 29064 71361 NIL
AAXX 29064 71362 NIL
AAXX 29064 71363 NIL
AAXX 29064 71364 NIL
AAXX 29064 71365 NIL
AAXX 29064 71368 17566 80803 11095 21114 39755 40155 58008 60001 771// 333 11012 21104 70000
AAXX 29064 71369 15966 01106 11081 21100 39236 49938 56023 60001 333 11026 21088 70000
AAXX 29064 71370 NIL
AAXX 29064 71371 16961 02620 11137 30045 40080 52026 60001 333 10029 21137 70000
AAXX 29064 71372 16/// /2714 11144 21176 60001 333 10029 21144 70033 555 32730 40212
AAXX 29064 71373 NIL
AAXX 29064 71374 NIL
AAXX 29064 71375 NIL
AAXX 29064 71376 16/// /2803 11192 21228 39795 40105 51021 60001 333 10006 21193 70020 555 33121 40201
AAXX 29064 71377 16/// /2612 11153 21202 30043 40093 51022 60001 333 10023 21153 70003 555 32430 40192
AAXX 29064 71378 16/// /3106 11180 21229 39812 40026 51017 60001 333 11006 21180 70080 555 10120 20080 33320 40171
AAXX 29064 71379 16/// /3022 11177 21211 39801 49975 51009 60001 333 11009 21177 70045 555 33133 40232
AAXX 29064 71380 NIL
AAXX 29064 71381 NIL
AAXX 29064 71382 17/// /0107 11193 21222 38979 49920 51008 60021 7//4/ 333 10006 21193 70108
AAXX 29064 71383 NIL
AAXX 29064 71384 16/// /2509 11101 21177 39942 49949 52016 60001 333 10059 21101 70110 555 32624 40221
AAXX 29064 71385 NIL
AAXX 29064 71386 NIL
AAXX 29064 71387 NIL
AAXX 29064 71388 NIL
AAXX 29064 71389 NIL
AAXX 29064 71390 46/// /3409 11031 6///1 333 10022 21031 7//// 555 30628 40212
AAXX 29064 71391 16/// ///// 11181 21210 60001 333 11004 21181 70031
AAXX 29064 71392 NIL
AAXX 29064 71393 NIL
AAXX 29064 71395 NIL
AAXX 29064 71398 15966 02405 11296 21324 30160 40172 58008 60001 333 11223 21303 70000
AAXX 29064 71399 NIL
AAXX 29064 71893 11780 42703 10063 20047 39987 40018 53041 60041 72586 84500 333 10120 20050 70102 90916 555 10000 20000 31422 40080
AAXX 29064 71894 NIL
AAXX 29064 71896 15766 81910 10041 20000 39096 49907 53006 60001 333 10044 21056 70041
AAXX 29064 71897 12274 72730 10070 20045 3//// 4//// 52034 60021 87820 333 10086 20062 70104
AAXX 29064 71898 160// ///// 10051 53056 60011 333 10088 20024 70050
AAXX 29064 71899 11469 62742 10036 20031 3//// 4//// 52060 69961 78011 86300 333 10070 20025 70122 90910 555 32746 40033
AAXX 29064 71902 NIL
AAXX 29064 71905 NIL
AAXX 29064 71906 11574 63410 11255 21302 30085 40138 58013 69901 70371 82504 333 11254 21297 44015 79999 90921 555 19999 29999
AAXX 29064 71907 16964 00000 11307 21352 30140 40175 50001 60001 333 11214 21311 70000
AAXX 29064 71909 16564 80000 11205 21246 30151 40197 53003 60001 333 11201 21305 70000
AAXX 29064 71910 47330 92407 11176 21215 30095 40160 53008 6///1 745// 333 11169 21260 7////
AAXX 29064 71911 46464 81006 11349 30058 40118 50004 6///1 333 11309 21362 7////
AAXX 29064 71912 12974 01404 11242 21284 39881 40072 50004 60001 333 11155 21266 70000 555 10000 20000
AAXX 29064 71915 11974 10306 11284 21326 30057 40143 53003 69901 77677 80001 333 11279 21376 44041 79999 90983 555 19999 29999
AAXX 29064 71917 11974 00902 11378 21431 30125 40140 52017 69901 7767/ 333 11295 21380 44014 79999 90999 555 19999 29999
AAXX 29064 71922 12974 00000 11175 21220 39554 40028 57007 60001 333 11048 21175 70002 555 10002 20002
AAXX 29064 71924 NIL
AAXX 29064 71925 11574 23105 11391 21432 30063 40107 53004 69901 77677 82500 333 11361 21392 42021 79999 90983 555 19999 29999
AAXX 29064 71926 11874 80810 11245 21299 30036 40061 57011 69941 77172 8807/ 333 11245 21345 48042 70004 90973 555 10004 20004
AAXX 29064 71928 16/// /1203 11064 21103 38798 49958 58033 60001 333 11020 21127 70000
AAXX 29064 71900 46/// /03// 11025 21030 39923 49936 56049 6///1 333 11024 21180 7////
AAXX 29064 71903 NIL
AAXX 29064 71904 NIL
AAXX 29064 71914 NIL
AAXX 29064 71916 NIL
AAXX 29064 71918 460// ///// 11338 6///1 333 7////
AAXX 29064 71920 NIL
AAXX 29064 71921 NIL
AAXX 29064 71923 NIL
AAXX 29064 71927 NIL
AAXX 29064 71941 15966 03108 11239 21262 39711 40149 53002 60001 333 11150 21240 70003
AAXX 29064 71947 15466 83111 11256 21279 39781 40147 58001 60001 333 11186 21256 70000
AAXX 29064 71102 NIL
AAXX 29064 71105 NIL
AAXX 29064 71107 NIL
AAXX 29064 71110 NIL
AAXX 29064 71111 17666 62312 10033 21004 39969 49977 53059 60011 7004/ 333 10071 20029 70052
AAXX 29064 71112 NIL
AAXX 29064 71113 NIL
AAXX 29064 71115 NIL
AAXX 29064 71116 16/// /1703 10035 21014 38941 40014 58021 60001 333 10116 20016 70000 555 10010 32741 40213
AAXX 29064 71118 16/// /1304 11099 21109 39155 49983 58025 60001 333 11035 21100 70003
AAXX 29064 71121 16964 01705 11074 21138 39128 49947 58035 60001 333 11016 21091 70000
AAXX 29064 71127 16/// /1304 11072 21092 39038 49951 58036 60001 333 11037 21082 70000
AAXX 29064 71130 15666 31806 11140 21154 39580 40045 56005 60001 333 11050 21141 70000
AAXX 29064 71132 17266 80903 11113 21121 39685 40000 57007 60001 771// 333 11073 21129 70003
AAXX 29064 71133 46/// /1904 11043 21062 39293 49999 57015 6///1 333 11032 21103 7//// 555 32620 40071
AAXX 29064 71139 16/// /2405 10018 21040 38566 49994 58015 60001 333 10072 21023 70000 555 32733 40182
AAXX 29064 71141 NIL
AAXX 29064 71142 15966 12016 11020 21034 39050 40009 58012 60001 333 10033 21084 70008
AAXX 29064 71143 NIL
AAXX 29064 71144 NIL
AAXX 29064 71147 16/// /3502 11083 21093 60001 333 11019 21129 70000 555 31520 40071
AAXX 29064 71149 16/// /3304 11085 21102 60001 333 11004 21121 70000 555 31719 40071
AAXX 29064 71700 17566 82713 11046 21096 39855 49880 51019 69931 771// 333 10104 21046 70229
AAXX 29064 71701 11574 82813 11044 21089 39817 49878 52018 69961 70266 8857/ 333 10108 21044 70329 90952 555 10000 20000 31430 40121
AAXX 29064 71702 16/// /2521 10011 21009 39797 49812 53010 60001 333 10083 20011 70076 555 31536 40163
AAXX 29064 71703 NIL
AAXX 29064 71704 15966 81806 11079 21116 39931 40158 58013 60001 333 11023 21094 70000
AAXX 29064 71710 NIL
AAXX 29064 71712 16/// /2614 11152 21193 30052 40116 51020 60001 333 10029 21152 70022 555 32528 40192
AAXX 29064 71713 16/// /2718 11101 21150 60001 333 10018 21101 70104 555 32242 40223
AAXX 29064 71716 NIL
AAXX 29064 71717 NIL
AAXX 29064 71720 NIL
AAXX 29064 71721 16/// /3003 11205 21235 39866 40122 52012 60001 333 11008 21205 70010 555 33221 40111
AAXX 29064 71723 NIL
AAXX 29064 71724 16/// /2607 11131 21192 30030 40038 53021 60001 333 10026 21131 70042 555 32828 40052
AAXX 29064 71732 16/// /2903 11209 21232 60001 333 11120 21210 70010 555 10110 20010 33426 40081
AAXX 29064 71733 16/// /3204 11243 21265 39714 40179 58003 60001 333 11160 21244 70000 555 33528 40082
AAXX 29064 71734 16/// /2905 11257 21293 39745 40159 56002 60001 333 11173 21257 70010 555 33429 40092
AAXX 29064 71736 NIL
AAXX 29064 71737 NIL
AAXX 29064 71741 NIL
AAXX 29064 71742 NIL
AAXX 29064 71743 NIL
AAXX 29064 71744 NIL
AAXX 29064 71745 NIL
AAXX 29064 71746 NIL
AAXX 29064 71747 NIL
AAXX 29064 71748 NIL
AAXX 29064 71604 NIL
AAXX 29064 71605 NIL
AAXX 29064 71611 16/// /2516 11134 21175 60001 333 10066 21134 70010 555 32629 40042
AAXX 29064 71612 NIL
AAXX 29064 71614 16/// /2710 11149 21196 30017 40085 51022 60001 333 10038 21149 70020 555 32732 40232
AAXX 29064 71616 17/// /2812 11126 21169 39910 40032 53018 60011 7//4/ 333 10041 21127 70040 555 32627 40051
AAXX 29064 71617 17/// /2720 11149 21167 39793 49966 51014 69971 7//4/ 333 10008 21150 70096 555 32732 40062
AAXX 29064 71618 17766 82009 11178 21214 30019 58002 60001 771//
AAXX 29064 71619 16/// /2721 11009 21014 39716 49772 55009 60001 333 10054 21009 70180 555 32737 40063
AAXX 29064 71622 NIL
AAXX 29064 71632 46/// /2003 11115 21127 39572 40018 58006 6///1 333 11115 21202 7////
AAXX 29064 71634 17/// /2607 11011 21033 39659 49808 53001 60021 7//4/ 333 10073 21011 70217 555 31323 40131
AAXX 29064 71638 NIL
AAXX 29064 71639 NIL
AAXX 29064 71642 NIL
AAXX 29064 71450 16/// /1506 11055 21064 39314 40035 55006 60001 333 11040 21124 70039
AAXX 29064 71451 16/// /2402 11196 21215 39592 40028 55001 60001 333 11077 21196 70006
AAXX 29064 71452 NIL
AAXX 29064 71453 NIL
AAXX 29064 71454 16/// /1603 11075 21098 39329 40023 56009 60001 333 11042 21121 70000
AAXX 29064 71455 NIL
AAXX 29064 71456 16/// /2106 11088 21109 39441 40045 55004 60001 333 11051 21134 70000
AAXX 29064 71457 16/// /2007 10044 21006 39090 49958 57028 60001 333 10101 21039 70000 555 32522 40161
AAXX 29064 71458 16/// /1705 11102 21113 39199 49972 58027 60001 333 11024 21110 70000 555 10010
AAXX 29064 71459 16/// /1305 11076 21088 39189 49997 58027 60001 333 10006 21101 70005 555 31019 40151
AAXX 29064 71460 NIL
AAXX 29064 71461 NIL
AAXX 29064 71462 NIL
AAXX 29064 71463 NIL
AAXX 29064 71464 NIL
AAXX 29064 71465 NIL
AAXX 29064 71466 NIL
AAXX 29064 71468 NIL
AAXX 29064 71470 NIL
AAXX 29064 71471 15966 01702 11053 21063 39116 49899 56015 60001 333 11022 21066 70000
AAXX 29064 71473 NIL
AAXX 29064 71475 NIL
AAXX 29064 71476 NIL
AAXX 29064 71477 NIL
AAXX 29064 71478 NIL
AAXX 29064 71479 NIL
AAXX 29064 71480 NIL
AAXX 29064 71481 NIL
AAXX 29064 71482 NIL
AAXX 29064 71483 NIL
AAXX 29064 71484 NIL
AAXX 29064 71485 17/// /2821 10070 20045 30009 40029 53057 60031 7//4/ 333 10094 20059 70122 555 31245 40073
AAXX 29064 71486 16/// /1402 10006 21010 38745 49920 58036 60001 333 10036 21029 70008 555 10010 20008
AAXX 29064 71487 NIL
AAXX 29064 71489 16/// /1805 11054 21061 39211 40013 56014 60001 333 11033 21131 70000
AAXX 29064 71490 NIL
AAXX 29064 71491 NIL
AAXX 29064 71492 NIL
AAXX 29064 71493 16/// /2511 10014 21022 39815 49852 51013 60001 333 10103 20014 70048 555 31027 40121
AAXX 29064 71494 17/// /2616 11147 21162 39455 49980 53013 69931 7//4/ 333 10044 21147 70025 555 32829 40052
AAXX 29064 71495 NIL
AAXX 29064 71496 16/// /1808 11059 21069 39411 40025 56013 60001 333 11038 21125 70000
AAXX 29064 71497 46/// /0613 11191 21222 39696 49969 57010 6///1 333 11189 21239 7//// 555 30621 40041
AAXX 29064 71498 NIL
AAXX 29064 71499 15966 02102 11212 21237 39375 40014 56007 60001 333 11044 21223 70000
AAXX 29064 71930 NIL
AAXX 29064 71931 NIL
AAXX 29064 71934 11274 80000 11196 21218 39724 49989 55005 69901 70274 885// 333 11100 21237 48028 79999 90941 555 19999 29999
AAXX 29064 71935 12974 20000 11279 21322 39781 49999 56007 60001 80001 333 11196 21282 79999 555 19999 29999
AAXX 29064 71936 11474 80000 11195 21229 39725 49992 55003 69901 77122 885// 333 11142 21217 48026 79999 90962 555 19999 29999
AAXX 29064 71937 NIL
AAXX 29064 71938 NIL
AAXX 29064 71940 12882 73305 11090 21097 39111 49913 56020 60001 82071 333 11034 21103 70004 555 10004 20004
AAXX 29064 71943 12974 21209 11058 21085 39067 49896 56015 60001 80001 333 11051 21076 70010 555 10010 20010
AAXX 29064 71944 160// ///// 10013 55007 60001 333 10014 21085 70005
AAXX 29064 71945 11466 83508 11160 21215 39451 49930 56010 69901 77122 885// 333 11154 21222 47013 79999 90910 555 19999 29999
AAXX 29064 71946 12574 80102 11234 21259 39775 49998 57005 60001 8852/ 333 11226 21280 70000 555 10000 20000
AAXX 29064 71948 47014 /0827 11294 39957 40075 55000 6///1 745// 333 11284 21299 7//// 555 30832 40052
AAXX 29064 71949 NIL
AAXX 29064 71951 NIL
AAXX 29064 71957 47464 80703 11212 21278 39913 40004 58005 6///1 745// 333 11212 21304 7////
AAXX 29064 71964 11416 80000 11098 21117 38975 49820 52010 60021 78577 88577 333 11081 21111 47022 70036 90983 93103 555 10054 20036
AAXX 29064 71966 NIL
AAXX 29064 71968 460// /3405 11310 39940 40007 53004 6///1 333 11229 21330 7////
AAXX 29064 71001 15966 63004 11203 21225 38867 49845 53006 60001 333 11147 21224 70000
AAXX 29064 71002 47/12 /0412 11116 21134 39341 49884 56035 6///1 771// 333 11116 21195
AAXX 29064 71003 15966 33502 11236 21267 39693 40093 58004 60001
AAXX 29064 71005 16/// ///// 11116 21129 60001 333 11038 21122 70006
AAXX 29064 71006 NIL
AAXX 29064 71007 NIL
AAXX 29064 71008 NIL
AAXX 29064 71009 NIL
AAXX 29064 71010 NIL
AAXX 29064 71011 NIL
AAXX 29064 71012 NIL
AAXX 29064 71013 NIL
AAXX 29064 71014 NIL
AAXX 29064 71015 NIL
AAXX 29064 71016 NIL
AAXX 29064 71017 NIL
AAXX 29064 71018 NIL
AAXX 29064 71019 NIL
AAXX 29064 71020 NIL
AAXX 29064 71021 NIL
AAXX 29064 71022 17566 82413 10050 20015 39911 49954 53056 69981 7004/ 333 10086 20022 70048 555 31231 40102
AAXX 29064 71023 16264 82205 11054 21065 39216 49986 56017 60001 333 11042 21111 70000 555 33018 40071
AAXX 29064 71024 NIL
AAXX 29064 71026 NIL
AAXX 29064 71027 17/// /2510 10063 20046 39780 49790 55046 60341 7//4/ 333 10063 21021 70363 555 32222 40061
AAXX 29064 71028 NIL
AAXX 29064 71029 NIL
AAXX 29064 71030 16/64 /2815 11061 21118 39819 49907 53021 60001 333 10100 21061 70166
AAXX 29064 71032 NIL
AAXX 29064 71033 46/// /2101 11238 21260 39374 40017 57007 6///1 333 11047 21246 7//// 555 32917 40121
AAXX 29064 71035 NIL
AAXX 29064 71036 15566 12507 11091 21106 39672 40051 50005 60001 333 11028 21100 70000
AAXX 29064 71039 NIL
AAXX 29064 71040 46/// /2818 11159 21182 39753 49954 51014 6///1 333 11002 21159 7//// 555 32730 40052
AAXX 29064 71041 17566 12418 10050 20027 39700 49837 53019 60101 7004/ 333 10077 20015 70356 555 31234 40233
AAXX 29064 71042 NIL
AAXX 29064 71044 NIL
AAXX 29064 71046 460// /0908 11295 39994 40012 58001 6///1 333 11227 21325 7//// 555 31124 40221
AAXX 29064 71047 16/// ///// 11078 21086 60001 333 11035 21097 70005
AAXX 29064 71048 NIL
AAXX 29064 71049 NIL
AAXX 29064 71060 NIL
AAXX 29064 71063 NIL
AAXX 29064 71603 11574 82726 11001 21052 39881 49933 53026 69901 70282 885// 333 10113 21001 70022 90926 555 19999 29999 32741 40061
AAXX 29064 71607 16/// /2712 11059 21111 39883 49915 51021 60001 333 10108 21059 70150 555 31434 40123
AAXX 29064 71609 11374 82713 11042 21088 39753 49884 53018 69901 70272 885// 333 10108 21042 70058 90921 555 19999 29999 31734 40163
AAXX 29064 71610 17548 82517 11140 21171 39732 40032 53018 60001 771// 333 10060 21140 70005
AAXX 29064 71621 16964 03007 11153 21178 30050 40160 51007 60001 333 10016 21153 70010 555 32925 40121
AAXX 29064 71623 NIL
AAXX 29064 71624 12674 23205 11118 21151 39947 40166 55000 60001 82500 333 10017 21119 79999 555 19999 29999 33232 40071
AAXX 29064 71625 16964 02905 11204 21245 39983 40151 51005 60001 333 11028 21204 70005 555 33222 40191
AAXX 29064 71627 11674 12718 11146 21211 30046 40092 52023 69901 70271 81500 333 10026 21146 42004 70038 90963 555 10038 20038
AAXX 29064 71628 13060 12715 11179 21215 39982 40128 53014 69901 80500 333 10006 21180 70082 555 10299 20099 32723 40112
AAXX 29064 71630 NIL
AAXX 29064 71631 17/// /1401 11120 21135 39633 40149 58008 69931 7//4/ 333 11050 21135 70036 555 33022 40161
AAXX 29064 71633 11574 81405 11131 21149 39875 40156 58007 69901 77111 885// 333 11065 21184 43013 70028 90910 555 10070 20028
AAXX 29064 71705 11474 82524 11005 21032 39748 49833 52006 60011 72682 885// 333 10100 21005 41997 70070 90916 555 10002 20002 31639 40173
AAXX 29064 71706 11474 82514 10031 20011 39763 49821 53004 60011 72562 8657/ 333 10085 20024 41997 70072 90917 555 10000 20000 31636 40161
AAXX 29064 71707 11674 22416 10066 20049 39741 49815 55002 60241 78088 82500 333 10077 21021 70246 90973 555 10000 20000 31434 40031
AAXX 29064 71709 NIL
AAXX 29064 71711 NIL
AAXX 29064 71714 16/// /2516 11130 21178 39908 40001 53015 60001 333 10020 21130 70063 555 32527 40221
AAXX 29064 71715 17/// /3108 11113 21144 39725 49905 53014 60011 7//4/ 333 10014 21113 70149 555 10030 20149 32323 40221
AAXX 29064 71718 11/16 92723 11079 21086 39793 49857 52008 60021 77177 333 10054 21080 48004 70070 90983 93102 555 10038 20038
AAXX 29064 71719 16/// /2624 10007 21001 39754 49760 56021 60001 333 10041 20002 70112 555 32534 40063
AAXX 29064 71950 17866 80704 11010 21014 39283 49904 53026 69981 7004/ 333 10006 21045 70036
AAXX 29064 71952 NIL
AAXX 29064 71954 46/// /2201 11096 21104 39651 40032 56007 6///1 333 11069 21130 7////
AAXX 29064 71956 NIL
AAXX 29064 71959 NIL
AAXX 29064 71960 460// /0620 11249 39900 40037 55001 6///1 333 11235 21274 7//// 555 30125 40061
AAXX 29064 71962 17/// /0903 11059 21070 39596 40021 56012 60011 7//4/ 333 11047 21174 70014 555 10030 20014
AAXX 29064 71963 NIL
AAXX 29064 71967 16/// /2518 11142 21173 39956 40063 52024 60001 333 10032 21142 70003 555 10040 20003 32531 40182
AAXX 29064 71970 NIL
AAXX 29064 71971 16/// /0000 11299 21326 30072 40120 53016 60001 333 11256 21322 70000
AAXX 29064 71972 460// /3518 11175 39687 40166 55006 6///1 333 11163 21199 7//// 555 32146 40073
AAXX 29064 71973 46/// /1110 10048 20021 39651 49832 56085 6///1 333 10051 21034 7//// 555 31420 40201
AAXX 29064 71974 NIL
AAXX 29064 71975 460// /2722 11260 39392 40155 51011 6///1 333 11249 21278 7//// 555 30335 40063
AAXX 29064 71976 NIL
AAXX 29064 71977 NIL
AAXX 29064 71978 NIL
AAXX 29064 71979 NIL
AAXX 29064 71980 46/// /0000 11239 21267 6///1 333 11239 21344 7//// 555 10030
AAXX 29064 71981 NIL
AAXX 29064 71982 NIL
AAXX 29064 71983 NIL
AAXX 29064 71984 16/// /2501 11307 21338 30055 40064 50002 60001 333 11276 21314 70000
AAXX 29064 71985 NIL
AAXX 29064 71986 NIL
AAXX 29064 71987 17/// /2430 10018 20004 39776 49785 55004 60071 7//4/ 333 10065 20015 70163 555 32438 40063
AAXX 29064 71988 16/// /2831 11016 21050 39905 49924 53025 60001 333 10122 21016 70049 555 31555 40133
AAXX 29064 71989 NIL
AAXX 29064 71990 NIL
AAXX 29064 71999 NIL
AAXX 29064 71300 NIL
AAXX 29064 71301 16/// ///// 11294 21318 39740 40163 56004 60001 333 11177 21294 70006 555 10010 20006
AAXX 29064 71302 NIL
AAXX 29064 71303 46/// ///// 11014 21058 6///1 333 11003 21079 7////
AAXX 29064 71305 15966 61003 11176 21189 39676 49973 56013 60001 333 11063 21192 70000
AAXX 29064 71306 15966 00604 11280 21312 30138 40172 50000 60001 333 11180 21281 70000
AAXX 29064 71307 NIL
AAXX 29064 71308 17/// /2315 10053 20027 39757 49838 52019 60041 7//4/ 333 10092 20025 70243 555 31233 40222
AAXX 29064 71309 NIL
AAXX 29064 71310 17/// /2417 10034 20016 39773 49809 55000 60021 7//4/ 333 10072 20018 70129 555 31535 40173
AAXX 29064 71311 NIL
AAXX 29064 71312 NIL
AAXX 29064 71314 16/// /3202 11214 21236 39795 40164 51006 60001 333 11031 21214 70007 555 33227 40121
AAXX 29064 71315 NIL
AAXX 29064 71316 16/// /1504 11073 21081 39282 49966 56024 60001 333 11039 21100 70004
AAXX 29064 71317 NIL
AAXX 29064 71318 16/// /1604 11096 21107 39037 49983 58028 60001 333 11006 21134 70000 555 10010
AAXX 29064 71319 17/// /3005 11168 21185 39033 49891 51005 60011 7//4/ 333 10006 21168 70190 555 33418 40021
AAXX 29064 71320 NIL
AAXX 29064 71321 NIL
AAXX 29064 71322 NIL
AAXX 29064 71323 17/// /2908 11129 21167 39682 49963 51008 60011 7//4/ 333 10045 21130 70040 555 32823 40051
AAXX 29064 71331 16/// /0000 11117 21136 60001 333 11095 21171 70017 555 10010 20017
AAXX 29064 71332 NIL
AAXX 29064 71334 NIL
AAXX 29064 71335 46002 00219 11159 56024 6///1 333 11157 21217 7//// 555 30043 40063
AAXX 29064 71336 46/// ///07 10027 20024 39887 49908 56049 6///1 333 10033 21022 7////
AAXX 29064 71337 46/// /1110 11004 21005 39661 49894 56079 6///1 333 10013 21017 7//// 555 31324 40181
AAXX 29064 71338 46964 01802 11270 21310 30149 40157 53018 6///1 333 11226 21293 7////
AAXX 29064 71339 16464 80704 11008 21026 39918 49932 56071 60001 333 10003 21036 70000 555 31419 40201
AAXX 29064 71340 NIL
AAXX 29064 71341 NIL
AAXX 29064 71342 NIL
AAXX 29064 71343 NIL
AAXX 29064 71344 NIL
AAXX 29064 71345 NIL
AAXX 29064 71346 NIL
AAXX 29064 71347 NIL
AAXX 29064 71348 NIL
AAXX 29064 71349 NIL
AAXX 29064 71550 NIL
AAXX 29064 71551 NIL
AAXX 29064 71552 NIL
AAXX 29064 71553 16/// /1801 11135 21146 60001 333 11070 21148 70000 555 32017 40101
AAXX 29064 71554 17/// /2723 11080 21092 39866 49872 52011 60031 7//4/ 333 10056 21082 70221 555 32231 40012
AAXX 29064 71555 16/// /2415 10057 21034 38438 49957 58032 60001 333 10085 21012 70000 555 32444 40023
AAXX 29064 71556 16/// /1705 11047 21054 39434 40042 56008 60001 333 11046 21132 70008
AAXX 29064 71557 NIL
AAXX 29064 71558 46/// ///// 10008 21004 39863 49899 58076 6///1 333 10011 21005 7////
AAXX 29064 71559 46/// /2203 11040 21045 39350 40053 53004 6///1 333 11020 21114 7////
AAXX 29064 71560 16/// /3306 11072 21087 39730 40037 53014 60001 333 11044 21122 70000 555 31518 40091
AAXX 29064 71563 NIL
AAXX 29064 71564 16/// /3602 11068 21079 39669 40039 51011 60001 333 11006 21139 70000
AAXX 29064 71565 NIL
AAXX 29064 71566 NIL
AAXX 29064 71567 NIL
AAXX 29064 71568 NIL
AAXX 29064 71569 16/// /1604 11046 21051 39333 40037 55001 60001 333 11041 21120 70030 555 10030 20030
AAXX 29064 71570 16/// /0703 11090 21112 39731 40048 53001 60001 333 11076 21149 70000 555 31617 40151
AAXX 29064 71571 NIL
AAXX 29064 71572 NIL
AAXX 29064 71573 16/// /2101 11132 21148 39863 40154 58009 60001 333 10009 21134 70000 555 33029 40082
AAXX 29064 71574 11432 82611 11010 21024 39728 49799 53005 60031 77165 885// 333 10050 21016 43018 70136 90957 93102 555 10020 20020 32721 40050
AAXX 29064 71575 NIL
AAXX 29064 71576 16/// /0000 11317 21352 30063 40153 51020 60001 333 11315 21353 70000
AAXX 29064 71577 NIL
AAXX 29064 71578 16/// /2517 11124 21174 60001 333 10016 21124 70060 555 32432 40222
AAXX 29064 71579 NIL
AAXX 29064 71580 NIL
AAXX 29064 71581 NIL
AAXX 29064 71582 17564 82507 10062 20045 39959 40011 53050 60051 7614/ 333 10088 20041 70444
AAXX 29064 71583 NIL
AAXX 29064 71584 17366 80714 10008 20004 39715 49760 56057 60151 76144 333 10017 21014 70629
AAXX 29064 71585 NIL
AAXX 29064 71586 16/// /2001 11176 21194 39552 40025 57007 60001 333 11050 21176 70000
AAXX 29064 71587 NIL
AAXX 29064 71588 16/// /1212 10075 20033 60001 333 10075 21001 70000
AAXX 29064 71589 16/// /1502 11006 21006 39781 49911 56065 60001 333 10035 21032 70000
AAXX 29064 71590 17/// /3208 11085 21112 39686 49874 51013 69961 7//4/ 333 10064 21085 70134 555 31323 40091
AAXX 29064 71592 NIL
AAXX 29064 71593 NIL
AAXX 29064 71596 NIL
AAXX 29064 71598 16/61 /2513 10009 21002 39768 49774 55012 60001 333 10058 20009 70144 555 31428 40142
AAXX 29064 71599 NIL
AAXX 29064 71051 NIL
AAXX 29064 71055 NIL
AAXX 29064 71057 NIL
AAXX 29064 71059 460// ///// 11320 30007 40103 53004 6///1 333 11285 21340 7////
AAXX 29064 71061 16/// /0902 11105 21119 39151 49932 58037 60001 333 11007 21114 70000
AAXX 29064 71062 46/// /1910 10021 21065 38862 49908 58032 6///1 333 10032 21085 7//// 555 31518 40131
AAXX 29064 71064 460// /3410 11375 39877 40107 53006 6///1 333 11322 21376 7////
AAXX 29064 71065 NIL
AAXX 29064 71067 NIL
AAXX 29064 71070 NIL
AAXX 29064 71073 NIL
AAXX 29064 71074 NIL
AAXX 29064 71075 16/// /2304 11103 21116 39394 40003 57003 60001 333 11080 21148 70000
AAXX 29064 71078 NIL
AAXX 29064 71084 460// ///// 11338 30054 40105 53006 6///1 333 11338 21357 7////
AAXX 29064 71085 15966 62623 10036 20013 38624 49976 56037 60001 333 10064 20007 70010
AAXX 29064 71087 NIL
AAXX 29064 71088 460// /1608 11268 53015 6///1 333 11256 21290 7////
AAXX 29064 71089 NIL
AAXX 29064 71096 460// ///// 11222 39381 40142 53013 6///1 333 11221 21257 7////
AAXX 29064 71097 46964 00608 11212 39685 40181 56001 6///1 333 11212 21233 7//// 555 33029 40112
AAXX 29064 71098 43/// /1105 11179 21208 39698 40070 51002 6///1 333 11152 21303 7////
AAXX 29064 71099 43/// /1906 11275 21321 30117 40138 58009 6///1 333 11238 21330 7////
AAXX 29064 71043 11566 71205 11223 21276 39884 49980 56015 69901 77177 86570 333 11223 21336 48033 79999 90983 555 19999 29999
AAXX 29064 71045 NIL
AAXX 29064 71050 NIL
AAXX 29064 71051 NIL
AAXX 29064 71052 NIL
AAXX 29064 71066 11474 80000 11100 21125 39512 49936 57016 69901 72277 885// 333 11100 21237 44022 79999 90972
AAXX 29064 71068 12974 00000 11087 21101 39224 49913 57022 60001 333 11033 21121 70004 555 10008 20004
AAXX 29064 71069 16964 01205 11082 21096 39236 49937 56023 60001 333 11028 21091 70000
AAXX 29064 71076 16/// /0702 11142 21156 39594 49993 55007 60001 333 11084 21172 70000
AAXX 29064 71077 16/// /1604 11071 21089 39462 40005 56018 60001 333 11035 21138 70000 555 33218 40081
AAXX 29064 71079 11669 81102 11154 21175 39758 40044 58012 69921 77177 885// 333 11125 21214 48008 70014 90983 555 10016 20014
AAXX 29064 71081 46464 31603 11275 21311 30136 40149 53011 6///1 333 7////
AAXX 29064 71082 NIL
AAXX 29064 71083 11/24 91515 11141 21149 30021 40064 57004 60011 77177 333 11138 21329 48056 70020 90973 93101 555 10024 20020 31520 40061
AAXX 29064 71090 46964 02604 11324 21359 30113 40150 51015 6///1 333 7////
AAXX 29064 71091 460// /0916 11276 39950 40169 52016 6///1 333 7//// 555 31019 40051
AAXX 29064 71092 46011 01608 11291 39475 40174 51018 6///1 333 11228 21303 7////
AAXX 29064 71093 460// ///// 11254 39626 40142 51014 6///1 333 11221 21255 7////
AAXX 29064 71094 46064 /3009 11248 39172 40105 51009 6///1 333 11234 21255 7//// 555 30218 40091
AAXX 29064 71095 46964 01904 11319 21362 30067 40152 51020 6///1 333 11315 21351 7////
AAXX 29064 71101 160// /2413 39972 51059 60011 333 70015 555 31339 40073
AAXX 29064 71104 12974 11507 10030 21018 38843 49927 53001 60001 81070 333 10073 20000 79999 555 19999 29999 31719 40121
AAXX 29064 71108 NIL
AAXX 29064 71109 11574 62510 10060 20038 30009 40035 52058 60041 70166 83570 333 10090 20059 70322 90933 555 10000 20000
AAXX 29064 71150 46/// /3004 11118 21133 39357 40047 51005 6///1 333 11057 21118 7////
AAXX 29064 71151 NIL
AAXX 29064 71152 17/// /1030 10034 20030 39821 49834 58088 60091 7//4/ 333 10036 20022 70087 555 31145 40063
AAXX 29064 71153 16/// /2111 10067 21004 60001 333 10093 20007 70000 555 32432 40062
AAXX 29064 71154 16/// /2228 10035 20008 60001 333 10071 20022 70017 555 32252 40043
AAXX 29064 71155 NIL
AAXX 29064 71156 NIL
AAXX 29064 71157 46/// ///// 11039 21067 6///1 333 11019 21073 7////
AAXX 29064 71158 NIL
AAXX 29064 71159 NIL
AAXX 29064 71160 NIL
AAXX 29064 71161 16/// /2705 11169 21205 39980 40134 50009 60001 333 10007 21170 70000 555 33226 40121
AAXX 29064 71162 NIL
AAXX 29064 71163 46/// /3003 11315 21346 39639 49998 56006 6///1 333 11175 21323 7////
AAXX 29064 71164 NIL
AAXX 29064 71165 NIL
AAXX 29064 71166 NIL
AAXX 29064 71167 15966 82703 11070 21112 38848 49943 56034 60001 333 11028 21125 70000
AAXX 29064 71168 16/// /2810 10047 21037 39442 40011 56021 60001 333 10087 21079 70000 555 32818 40061
AAXX 29064 71170 16/// /3603 11088 21099 60001 333 11043 21103 70000
AAXX 29064 71171 16/// /2506 11071 21120 30058 40158 57007 60001 333 10029 21073 70000 555 33332 40102
AAXX 29064 71172 16/// ///// 11183 21210 39932 40159 58001 60001 333 11095 21187 70008 555 10010 20008
AAXX 29064 71175 NIL
AAXX 29064 71176 460// /2804 11185 39416 40128 58009 6///1 333 11185 21273 7//// 555 32252 40113
AAXX 29064 71177 460// ///// 11140 38989 40008 56033 6///1 333 11139 21215 7////
AAXX 29064 71178 16/// /1904 10016 20012 39888 49919 56058 60001 333 10044 21041 70000 555 30923 40021
AAXX 29064 71179 460// /1027 11048 39100 49922 56042 6///1 333 11047 21198 7////
AAXX 29064 71180 17/// /1142 10045 20029 39726 49764 56088 60161 7//4/ 333 10053 20011 70163 555 31366 40023
AAXX 29064 71181 17004 81210 10022 20016 39849 49885 5/063 60001 743// 333 10030 21047 70000
AAXX 29064 71183 16/// /2715 30047 51022 60001 333 70013 555 32730 40232
AAXX 29064 71184 46/// /2619 11139 21191 6///1 333 10027 21139 7//// 555 32629 40172
AAXX 29064 71186 NIL
AAXX 29064 71187 15666 82818 10118 20065 39949 49996 55004 60001 333 10128 20042 70000
AAXX 29064 71189 NIL
AAXX 29064 71190 NIL
AAXX 29064 71191 16/// ///// 10001 21026 60001 333 10091 20001 70172
AAXX 29064 71192 15966 81704 10005 20005 39276 49926 53005 60001 333 10014 21065 70021
AAXX 29064 71193 16/// /0000 11319 21348 39784 40173 56007 60001 333 11218 21337 70000 555 33419 40071
AAXX 29064 71196 16/// /3009 11200 21227 39938 40146 51006 60001 333 11022 21202 70009
AAXX 29064 71197 17011 80928 10039 20039 39738 49786 56094 60181 74344 333 10039 20018 70175 555 30944 40043
AAXX 29064 71198 46/// /2720 11120 21181 6///1 333 10025 21124 7//// 555 32927 40161
AAXX 29064 71199 NIL
AAXX 29064 71812 47419 91724 11118 21129 30022 40036 55003 6///1 745// 333 11108 21321 7////
AAXX 29064 71819 15362 81114 10009 20000 39866 49907 58076 60001 333 10012 21004 70000
AAXX 29064 71820 16/// /3107 11151 21186 30030 40149 51007 60001 333 10023 21151 70000 555 33225 40151
AAXX 29064 71823 16964 03402 11265 21306 39694 40096 58003 60001 333 11223 21365 70000
AAXX 29064 71824 NIL
AAXX 29064 71826 16/// /2701 11270 21310 30144 40190 51008 60001 333 11239 21283 70000
AAXX 29064 71829 17/// /2617 11101 21127 39659 49817 53003 60011 7//4/ 333 10037 21101 70299 555 32829 40052
AAXX 29064 71833 46/// /3101 11105 21127 6///1 333 11010 21121 7//// 555 33231 40092
AAXX 29064 71835 17/// /1308 11164 21180 39577 40074 58017 69931 7//4/ 333 11157 21334 70003
AAXX 29064 71837 NIL
AAXX 29064 71839 NIL
AAXX 29064 71840 NIL
AAXX 29064 71846 16/// /0903 11251 21270 39797 40129 58014 60001 333 11201 21380 70000
AAXX 29064 71847 NIL
AAXX 29064 71848 NIL
AAXX 29064 71849 NIL
AAXX 29064 06011 05/80 03109 11012 21058 39930 40000 57013 60012 333 10011 21013 55300 20000 6///7 70049 91130 91221
AAXX 29061 13492 ///// 0//// 11030 333 21041
AAXX 29061 13584 NIL
AAXX 29061 13585 41/92 90000 11070 21076 39456 40300 56008 74544 333 21070 3/107 42003 92100
AAXX 29061 13597 42798 70000 11016 21025 30199 40276 5//// 87070 333 21030 31307
AAXX 29061 13598 42698 60000 11072 21086 48480 57012 83530 333 21105 3/112 43005
AAXX 29061 10805 11681 62003 10053 20021 30087 40282 53004 69902 70362 86540 333 10055 20031 31100 55046 55300 20000 30000 79999 85639
AAXX 29061 10499 01567 82306 10043 20022 39886 40180 55000 69922 75865 885// 333 10048 20030 31/// 55028 55300 20000 30000 69927 70002 88620
AAXX 29061 15501 11/03 90000 11051 21051 30221 40268 56012 60002 74541 333 10001 21054 70000 555 34/// 500//
AAXX 29061 15505 12768 80000 11024 21030 39883 40274 57010 60002 889// 333 11010 21040 42001 70000 555 3/108 595// 92601
AAXX 29061 15511 11908 80000 11030 21033 30232 40273 57011 60002 74641 8802/ 333 10013 21033 55043 70000 555 34/// 598//
AAXX 29061 15514 12568 52705 10000 21012 30224 40261 57032 60002 85500 333 10028 21002 70000 555 31/// 592//
AAXX 29061 15530 12662 60000 10004 21010 30019 40266 56014 60002 85550 333 10010 20002 42003 70000 555 3/109 590//
AAXX 29061 15533 12656 70000 10010 21001 30203 40236 57013 60002 87500 333 10020 20010 41001 70000 555 592//
AAXX 29061 15550 12662 80000 10029 20010 30240 40260 57012 60002 885// 333 10030 20027 70000 555 31/// 588//
AAXX 29061 15561 12468 83202 10042 20016 30263 40271 57010 60002 885// 222// 00080 2//00 333 10050 20040 70000 555 31004 583// 92013 92417
AAXX 29061 15562 11450 80702 10051 20029 30200 40274 57008 60002 71022 886// 222// 2//00 333 10054 20043 55007 70000 555 31004 586// 92013 92416
AAXX 29061 15600 11989 51810 11040 21052 38327 48533 58018 60001 70302 84051 333 11038 21040 47006 55094 444 36071 555 589//
AAXX 29061 15601 11756 80000 11060 21066 39626 40282 56013 60002 71022 885// 333 11038 21060 55000 70000 555 34106 595//
AAXX 29061 15605 11/01 90704 11064 21067 39392 40284 57014 60002 74944 333 11040 21064 44005 70000 93504 555 3/107 597// 92711
AAXX 29061 15613 11986 22302 11054 21112 37734 47076 57016 60002 70300 82040 333 11031 21054 48045 55081 70000 444 86151 555 563//
AAXX 29061 15628 12668 70000 11012 21032 30007 40276 57013 60002 84530 333 11012 21070 43008 55072 70000 555 3/107 586//
AAXX 29061 15642 11515 80000 10008 20005 30098 40273 57008 60002 71022 885// 333 10008 21010 55000 70000 555 31106 598//
AAXX 29061 15726 11481 41001 11034 21059 38285 48548 57008 60002 70111 84500 333 11012 21034 44038 55085 70000 555 583//
BBXX DDZD2 29064 99248 10356 41598 73311 10195 20138 40180 51008 70322 875// 22235 00220 20601 80160
BBXX A8EH3 29063 99514 11662 41497 80431 11010 21010 40105 54000 70377 887// 22263 04040 20606 81010
AAXX 29064 17500 12560 11005 10039 20024 30188 40249 58001 60002 81100 333 20020 30100 50211 55091 20731 81825
AAXX 29064 17501 12960 03505 10090 20047 30213 40233 54000 60002 333 20072 30005 55080 21182 92427
AAXX 29064 17505 12960 01005 10069 20044 30129 40246 55000 60002 333 20059 30003 55/// 2////
AAXX 29064 17507 12560 12310 10089 20036 30131 40254 50000 60002 81100 333 20085 30007 5///1 55/// 2//// 81825
AAXX 29064 17510 12560 10000 10107 20051 30200 40210 54000 60002 81100 333 20087 30006 50221 55077 20748 81830 92417
AAXX 29064 17515 12960 00000 10023 20007 30078 40262 53002 60002 333 20010 30102 50101 55080 21142
AAXX 29064 17521 12560 12705 10035 20023 30093 40237 53002 60002 81100 333 20013 30/// 50101 55082 21131 81830
AAXX 29064 17530 11959 03204 10016 20007 30188 40248 51001 60002 333 20003 30101 55071 21120
AAXX 29064 17535 12960 03704 10049 20025 30183 40221 51001 60002 333 20044 30003 55026 21068
AAXX 29064 17540 12560 12508 10067 20041 30228 40253 5//// 60002 81100 333 20031 30001 50201 55/// 2//// 81830 92427
AAXX 29064 17547 12560 10204 10108 20076 39987 40234 5//// 60002 81100 333 20010 30006 55076 21210 81830 92427
AAXX 29064 17550 12960 00000 10085 20051 30086 40235 55000 60002 333 20073 30003 55071 21140 92437
AAXX 29064 17572 12560 1//// 10108 20049 30222 40247 5//// 60001 81100 333 20099 30006 81830 92417
AAXX 29064 60710 11558 72204 10097 20083 30160 40241 58003 60044 76061 8428/ 333 20045 70040 84820 85360
AAXX 29064 60714 12458 50000 1//// 2//// 30239 40245 58007 60004 85800 333 2//// 83816 83630
AAXX 29064 60720 13558 52804 10093 20090 30194 40228 58012 60064 85800 333 20086 70060 83820 83630
AAXX 29064 60728 NIL
AAXX 29064 60729 13557 32506 10051 20051 30060 40253 56004 60004 83500 333 20034 83626
AAXX 29064 60731 05950 /2204 10052 20046 30224 40232 58007 69924 333 10118 20050 3//// 59037 5///4 60007 70002 91006 91106
AAXX 29064 60732 11502 30000 10028 20021 39633 40265 58004 60004 7464/ 83800 333 20014 82820
AAXX 29064 60734 13960 20000 10021 20021 39716 40260 58003 60004 82080 333 20015 82360
AAXX 29064 60738 12006 8//// 10021 20021 38980 48532 56006 60004 887// 333 20016 88700
AAXX 29064 60739 13956 21708 11009 21013 39408 40271 57010 60004 80002 333 21018 82070 94223
AAXX 29064 60740 12456 62705 10081 20062 30228 40230 58004 60004 82282 333 20081 82816 83360
AAXX 29064 60742 NIL
AAXX 29064 60764 13662 60000 10067 20033 30183 40236 54000 60004 84580 333 20063 84633 83360
AAXX 29064 60770 13558 60000 10085 20076 30087 40229 55003 60004 83502 333 20082 83630 84070
AAXX 29064 60772 13565 51802 10070 20061 39969 40232 58004 60004 84502 333 20070 84630
AAXX 29064 60775 13556 40000 10074 20049 39867 40231 53002 60104 84800 333 20074 55010 70102 82823 83626
AAXX 29064 60780 13560 61402 10069 20046 39925 40240 58003 69924 82882 333 20069 70002 81823 83360
AAXX 29064 60020 11560 60000 10173 20132 30249 40294 55004 69914 70252 86500 333 20170 55019 924/7
AAXX 29064 60030 02660 43611 10172 20101 30219 40276 55000 60004 84800 333 017// 20170 55038 60007 924/6
AAXX 29064 60040 02580 13612 10156 20088 30255 40280 55002 60004 81500 333 014// 20155 55034 60007 924/8
AAXX 29064 60338 12980 03204 10076 20058 30232 40301 57007 60004 333 20066 55062 92428
AAXX 29064 17026 12970 21303 10072 20028 30241 40281 57009 60002 82030 333 20055 30002 55022 20917 82360 91108 92428
AAXX 29064 17034 12970 40000 10055 20016 30248 40296 57008 60002 84030 333 20048 30002 84360 92428
AAXX 29064 17070 11901 02601 11061 21065 39388 40306 56004 60002 74611 333 21061 34107 50094 55024 20477 79999 91103
AAXX 29064 17084 11940 00000 11075 21088 39372 40337 55000 60002 71000 333 21087 34110 55027 91102
AAXX 29064 17090 11420 80501 11072 21085 38790 48547 52004 60002 71022 8572/ 333 21074 3/108 47002 55000 83710 85630 88458
AAXX 29064 17098 12960 00000 11182 21187 38261 48582 52007 60002 333 21218 3/123 43019 50034 55000 20356
AAXX 29064 17150 11440 71502 11015 21020 30144 40275 57006 60002 71041 87700 333 21017 34102 50041 55026 20490 87710
AAXX 29064 17160 12670 80703 11037 21066 39096 48542 56002 60002 8452/ 333 21038 34104 55000 84640 88460 91107
AAXX 29064 17184 11956 00101 11026 21036 30141 40258 58003 60002 71000 333 21026 34104 55068 91106
AAXX 29064 17189 11440 71809 11074 21077 39091 48527 51001 60002 71022 87600 333 21078 3/109 46001 87710
AAXX 29064 17210 12970 01801 10027 21019 39205 40269 52012 60002 333 20010 34103 55070
AAXX 29064 17234 12970 01003 10010 21017 30177 40248 53001 60002 333 20010 31000 50074 55086 91108
AAXX 29064 17260 11940 02801 11024 21041 39416 40272 53005 60002 71000 333 21063 34109 50094 55081 21327
AAXX 29064 17290 12670 40201 10067 20030 30203 40236 50000 60002 82230 333 20065 30003 50164 55069 82835 84360 91106 92418
AAXX 29064 17370 12965 01502 10077 20009 30238 40242 53001 60002 333 20062 32002 50184 55068 2//// 92417
BBXX 2AQK9 29064 99042 70025 41397 82611 10280 20252 40121 55008 71322 8777/ 22224 04300 20402 80260
BBXX A8KM9 29064 99247 71465 41598 40717 10210 20138 40250 54000 70200 84165 22264 20302 80165
AAXX 29061 26106 11/96 82005 10044 20031 40036 57029 69912 75052 886// 333 20016 91111
AAXX 29061 26346 11396 82105 10010 20009 40041 57032 69932 75175 886// 333 21003 88707 91111
AAXX 29061 26406 11497 82108 10061 20044 40031 57025 60012 70262 886// 333 20030 88715 91013 91115
AAXX 29061 26416 33/// /2306 10046 20035 40032 57028 333 20007 91011 91111
AAXX 29061 26424 11497 82105 10045 20036 40036 57029 69962 78082 889// 333 20011 86914 91110
AAXX 29061 26544 11496 82005 10019 20011 40085 57030 69942 71082 886// 333 20001
AAXX 29061 26313 NIL
AAXX 29064 17022 12960 01402 10029 21019 30100 40271 57010 60002 333 20017 31002 55027 91106 92427
AAXX 29064 17031 12970 01403 11014 21019 30283 40290 57004 60002 333 21029 34104
AAXX 29064 17038 12670 40000 10071 21005 30243 40295 57006 60002 82130 333 20056 30003 55060 20682 82835 83360 92428
AAXX 29064 17050 11640 71701 10012 21001 30208 40273 57007 60002 71022 85570 333 20006 30101 55056 85635 87460 91104
AAXX 29064 17060 12560 41002 10039 21011 30228 40269 57008 60002 84400 333 20038 30000 50181 55054 20687 84625
AAXX 29064 17096 11904 00302 11214 21214 38306 48585 52007 60002 74844 333 21239 3/124 47009 50054 55032 20297
AAXX 29064 17124 12460 71208 11033 21059 39345 40308 56003 60002 87600 333 21036 34104 50084 55006 20394 87716
AAXX 29064 17128 11239 71005 11052 21055 39166 40327 57004 60002 71022 87600 333 21055 34106 50024 55007 20092 87706
AAXX 29064 17170 NIL
AAXX 29064 17195 12470 71206 11062 21081 39048 48544 56002 60002 87600 333 21065 3/108 42002 50034 55014 20327 87711
AAXX 29064 17199 12970 00000 11016 21068 39158 40298 52005 60002 333 21041 34107 55085 20741
AAXX 29064 17219 11935 09902 11021 21028 30094 40246 55002 60002 71000 333 21032 34104 55073 20332
AAXX 29064 17240 12970 02601 11063 21095 39088 40293 56002 60002 333 21064 34108 55068 21043 91104
AAXX 29064 17244 11440 72006 11046 21064 39066 48539 50000 60002 71022 87600 333 21047 34/// 55/// 2//// 87716
AAXX 29064 17280 12960 00901 11006 21030 39453 40277 52013 60002 333 21048 34107 50221 55072 20343
AAXX 29064 17350 12960 03305 10023 21030 30160 40242 51002 60002 333 21006 30///
BBXX A8IM7 29064 99332 71569 41997 42218 10200 20179 40236 52018 70111 83059 22225 04210 20804 332// 41808 5//// 80186
AAXX 29064 17042 12970 01209 10058 21010 30264 40305 57007 60002 333 20027 30002 55051 92428
AAXX 29064 17074 11550 72103 11067 21082 39331 40320 56002 60002 71022 84570 333 21076 34108 55042 20670 84630 87360 91105
AAXX 29064 17086 12970 00703 11049 21068 39558 40313 50000 60002 333 21052 34106 55046 20733
AAXX 29064 17088 12970 00901 11070 21093 38876 48559 58003 60002 333 21078 3/109 47001 55010 20167
AAXX 29064 17140 11404 80701 11068 21077 38763 48536 52002 60002 74422 8552/ 333 21081 3/109 45998 55028 2//// 82710 85638 88459
AAXX 29064 17155 11657 62801 11064 21085 39127 40311 56001 60002 71022 84550 333 21068 34107 55002 84635 86359 91105
AAXX 29064 17203 3//// /1300 11003 21064 38945 40354 5//// 60002 333 21043 3//// 4////
AAXX 29064 17237 12970 02501 11006 21050 39733 40258 56003 60002 333 21006 34104 55065 91104
AAXX 29064 17250 12675 70504 11078 21091 38867 48540 55000 60002 84570 333 21081 34108 55000 84640 87360
AAXX 29064 17270 12970 03002 10065 21027 39589 40251 52008 60002 333 20036 31104 55060
AAXX 29064 17295 12560 60406 10061 20030 30230 40237 50002 60002 83130 333 20038 30003 50244 55071 83820 85358
AAXX 29064 17320 12970 03405 10080 20015 30234 40239 58002 60002 333 20068 31005 50101 55077 92428
AAXX 29064 17375 12970 03501 10068 20033 30233 40235 53002 60002 333 20060 30002 50131 55072 91104 92418
BBXX A8ME3 29060 99056 11071 41396 80414 10255 20234 40100 56015 76366 8/9// 22213 04260 29904 304// 40906 5////
AAXX 29064 17042 12970 01209 10058 21010 30264 40305 57007 60002 333 20027 30002 55051 92428
AAXX 29064 17074 11550 72103 11067 21082 39331 40320 56002 60002 71022 84570 333 21076 34108 55042 20670 84630 87360 91105
AAXX 29064 17086 12970 00703 11049 21068 39558 40313 50000 60002 333 21052 34106 55046 20733
AAXX 29064 17088 12970 00901 11070 21093 38876 48559 58003 60002 333 21078 3/109 47001 55010 20167
AAXX 29064 17140 11404 80701 11068 21077 38763 48536 52002 60002 74422 8552/ 333 21081 3/109 45998 55028 2//// 82710 85638 88459
AAXX 29064 17155 11657 62801 11064 21085 39127 40311 56001 60002 71022 84550 333 21068 34107 55002 84635 86359 91105
AAXX 29064 17203 3//// /1300 11003 21064 38945 40354 5//// 60002 333 21043 3//// 4////
AAXX 29064 17237 12970 02501 11006 21050 39733 40258 56003 60002 333 21006 34104 55065 91104
AAXX 29064 17250 12675 70504 11078 21091 38867 48540 55000 60002 84570 333 21081 34108 55000 84640 87360
AAXX 29064 17270 12970 03002 10065 21027 39589 40251 52008 60002 333 20036 31104 55060
AAXX 29064 17295 12560 60406 10061 20030 30230 40237 50002 60002 83130 333 20038 30003 50244 55071 83820 85358
AAXX 29064 17320 12970 03405 10080 20015 30234 40239 58002 60002 333 20068 31005 50101 55077 92428
AAXX 29064 17375 12970 03501 10068 20033 30233 40235 53002 60002 333 20060 30002 50131 55072 91104 92418
AAXX 29064 78958 11462 30905 10256 20228 30141 40151 60001 70611 83800 333 10292 20232 58004 82818
AAXX 29061 26115 01360 72212 10061 20045 39942 49950 58028 60012 71022 83631 333 10062 20050 60007 83710 91015 91118 555 11005 20050 31004 50053
AAXX 29061 26247 01358 82106 10034 20027 39942 40021 58032 69972 71022 886// 333 10034 20007 60007 88710 91010 91110 555 12001 20007 32100 50017
AAXX 29064 71726 NIL
AAXX 29064 71727 11524 82824 11154 21183 39758 49957 52014 60021 77173 885// 333 10004 21157 48040 70085 90983 555 10110 20085 32932 40040
AAXX 29064 71728 11662 73118 11166 21191 39761 49986 52009 60011 77177 87500 333 11010 21167 48009 70238 90983 555 11238 21238
AAXX 29064 71730 12274 33104 11232 21267 39721 40170 57004 60001 83600 333 11160 21232 43012 70010 555 10014 20010 33633 40061
AAXX 29064 71731 12974 00105 11237 21280 39684 40160 58003 60001 333 11137 21254 70008 555 10008 20008 33628 40131
AAXX 29064 71735 NIL
AAXX 29064 71738 NIL
AAXX 29064 71739 42974 00000 11303 21346 39784 40173 56007 61111 333 11212 21312 41111 71111 555 11111 21111 33317 40100
AAXX 29064 71749 16411 91006 11048 21054 39814 40065 58028 60011 333 11047 21232 70010
AAXX 29064 71799 11583 32515 10100 20046 30001 40024 50023 60051 72186 83800 333 10130 20077 70086 90917 555 10000 20000 32337 40081
AAXX 29064 71800 16/// /1910 10020 20020 39916 49948 56031 60001 333 10035 21052 70000 555 30429 40212
AAXX 29064 71801 11224 82103 10027 20027 39768 49938 58044 69901 72854 886// 333 10028 21086 44004 70004 90933 555 10000 20000
AAXX 29064 71803 11116 81309 11001 21006 39726 49909 58072 69961 75662 887// 333 10017 21017 42006 70006 90952 555 10000 20000
AAXX 29064 71807 NIL
AAXX 29064 71808 11274 80924 10010 21015 39831 49876 58085 69941 70262 8662/ 333 10016 21025 70006 90931 555 10002 20002 30834 40051
AAXX 29064 71809 12474 80918 10037 20016 39837 49864 56094 60001 8552/ 333 10043 21052 70000 555 10000 20000 30924 40061
AAXX 29064 71810 17/// /2702 10015 20011 39683 49747 58043 60031 7//4/ 333 10031 21020 70201 555 31333 40162
AAXX 29064 71811 NIL
AAXX 29064 71813 17/// /0917 10020 20017 39762 49775 58063 60241 7//4/ 333 10024 21037 70388 555 31233 40222
AAXX 29064 71814 17/// /0909 10029 20022 39821 49830 56068 60011 7//4/ 333 10029 21021 70017 555 31118 40011
AAXX 29064 71815 12474 80920 10055 20043 39764 49794 58095 60001 885// 333 10062 21004 70000 555 10000 20000 31429 40001
AAXX 29064 71864 NIL
AAXX 29064 71865 16/// /2304 11050 21072 39362 40044 55001 60001 333 11038 21091 70000 555 32718 40091
AAXX 29064 71866 46464 81707 11060 21079 39415 40032 56012 6///1 333 11038 21124 7////
AAXX 29064 71867 11974 00000 11084 21086 39694 40032 56007 69901 70171 333 11057 21121 47025 70022 90930 555 10028 20022
AAXX 29064 71868 NIL
AAXX 29064 71869 12574 80000 11095 21101 39508 40040 56009 60001 885// 333 11056 21166 70000 555 10000 20000
AAXX 29064 71871 17/12 /1708 11060 21064 39189 49995 56018 60001 710// 333 11025 21106 70000
AAXX 29064 71877 12974 60000 11011 21048 38718 49966 58036 60001 86070 333 10099 21089 70000 555 10000 20000 32536 40202
AAXX 29064 71878 12974 81805 11029 21063 38899 49970 58032 60001 8807/ 333 11022 21127 70000 555 10000 20000
AAXX 29064 71879 16964 01805 11030 21085 39148 49945 58036 60001 333 11017 21075 70000
AAXX 29064 71880 11359 81410 10039 20038 38920 40007 58042 60021 76122 885// 333 10073 21007 70062 90931 555 10016 20016
AAXX 29064 71882 160// /0104 10013 20012 39446 49978 56046 60031 333 10019 20003 70115 555 31520 40081
AAXX 29064 71883 NIL
AAXX 29064 71887 11786 81103 10063 20021 39536 49948 55020 69901 78088 86501 333 10109 20012 79999 90910 555 10000 20000 31028 40111
AAXX 29064 71889 11474 81718 10087 20043 39590 49999 55001 69941 78082 885// 333 10097 20032 70012 90921 555 10000 20000 31936 40103
AAXX 29064 71891 16564 61918 10061 20039 39689 49957 55015 60081 333 10089 20026 70135 555 31748 40093
AAXX 29064 71892 11474 22705 10091 20051 30018 40023 53034 60051 70161 82530 333 10116 20075 70080 90935 555 10000 20000 31619 40201
AAXX 29064 71930 NIL
AAXX 29064 71931 NIL
AAXX 29064 71934 11274 80000 11196 21218 39724 49989 55005 69901 70274 885// 333 11100 21237 48028 79999 90941 555 19999 29999
AAXX 29064 71935 12974 20000 11279 21322 39781 49999 56007 60001 80001 333 11196 21282 79999 555 19999 29999
AAXX 29064 71936 11474 80000 11195 21229 39725 49992 55003 69901 77122 885// 333 11142 21217 48026 79999 90962 555 19999 29999
AAXX 29064 71937 NIL
AAXX 29064 71938 NIL
AAXX 29064 71940 12882 73305 11090 21097 39111 49913 56020 60001 82071 333 11034 21103 70004 555 10004 20004
AAXX 29064 71943 12974 21209 11058 21085 39067 49896 56015 60001 80001 333 11051 21076 70010 555 10010 20010
AAXX 29064 71944 160// ///// 10013 55007 60001 333 10014 21085 70005
AAXX 29064 71945 11466 83508 11160 21215 39451 49930 56010 69901 77122 885// 333 11154 21222 47013 79999 90910 555 19999 29999
AAXX 29064 71946 12574 80102 11234 21259 39775 49998 57005 60001 8852/ 333 11226 21280 70000 555 10000 20000
AAXX 29064 71948 47014 /0827 11294 39957 40075 55000 6///1 745// 333 11284 21299 7//// 555 30832 40052
AAXX 29064 71949 NIL
AAXX 29064 71951 NIL
AAXX 29064 71957 47464 80703 11212 21278 39913 40004 58005 6///1 745// 333 11212 21304 7////
AAXX 29064 71964 11416 80000 11098 21117 38975 49820 52010 60021 78577 88577 333 11081 21111 47022 70036 90983 93103 555 10054 20036
AAXX 29064 71966 NIL
AAXX 29064 71968 460// /3405 11310 39940 40007 53004 6///1 333 11229 21330 7////
AAXX 29064 71114 160// /2718 10121 20064 39950 49997 55003 60101 333 10132 20041 70510 555 33035 40153
AAXX 29064 71120 12474 81805 11046 21067 39334 49991 56020 60001 885// 333 11033 21106 79999 555 19999 29999
AAXX 29064 71122 16/// /2603 10010 21008 38402 49971 58038 60001 333 7////
AAXX 29064 71123 12974 81410 11047 21086 39087 49948 58038 60001 81071 333 11039 21144 70000 555 10000 20000
AAXX 29064 71125 NIL
AAXX 29064 71129 11966 20802 11107 21118 39173 40009 58021 69901 72874 80001 333 11043 21108 42002 70012 90922 555 10014 20012
AAXX 29064 71131 16/// /2511 11012 21027 38774 40015 58014 60001 333 10046 21062 70000 555 32630 40212
AAXX 29064 71135 16/// /2709 11014 21035 38956 40029 56007 60001 333 10048 21082 70007 555 32827 40201
AAXX 29064 71137 NIL
AAXX 29064 71140 12874 83203 11060 21071 39545 40052 5/008 60001 8807/ 333 11048 21118 79999 555 19999 29999
AAXX 29064 71145 11474 81404 11175 21205 39762 40066 57003 69901 77111 885// 333 11156 21238 48036 70002 90921 555 10002 20002
AAXX 29064 71148 16/// /3304 11082 21092 39460 40044 50013 60001 333 11022 21154 70000
AAXX 29064 71185 16964 01223 10055 39804 49827 56105 60001 333 10071 20018 70000 555 31238 40053
AAXX 29064 71188 NIL
AAXX 29064 71200 NIL
AAXX 29064 71207 NIL
AAXX 29064 71260 13/// ///// 11117 21174 39901 40146 58013 60001 333 11112 21201 70000 555 10000 20000
AAXX 29064 71397 11569 62514 10005 21014 39847 49881 52015 60011 70282 86500 333 10126 20001 70042 90941 555 10000 20000 31735 40161
AAXX 29064 71400 16/08 /1602 10001 20001 60001 333 10038 21033 70000
AAXX 29064 71403 46/// /2521 10050 20033 39847 49866 53020 6///1 333 10085 20050 7//// 555 31544 40213
AAXX 29064 71411 16/// /2517 10028 20012 39891 49903 51013 60001 333 10101 20026 70074 555 31649 40163
AAXX 29064 71412 17/// /2416 10050 20031 39793 49802 54000 60051 7//4/ 333 10071 20030 70134 555 31640 40193
AAXX 29064 71421 NIL
AAXX 29064 71430 16/// /3209 11135 21172 30053 40153 53001 60001 333 10030 21135 70003 555 32835 40133
AAXX 29064 71431 16/// /3304 11152 21186 30052 40151 56003 60001 333 10014 21153 70000 555 33326 40101
AAXX 29064 71432 NIL
AAXX 29064 71433 NIL
AAXX 29064 71435 NIL
AAXX 29064 71441 NIL
AAXX 29064 71443 16/// /2107 11117 21134 39628 40047 56001 60001 333 11063 21119 70000 555 32218 40151
AAXX 29064 71444 16/// /0000 11139 21153 39279 40046 50005 60001 333 11052 21139 70004
AAXX 29064 71447 16/// /0105 11049 21069 39502 40049 53004 60001 333 11026 21118 70000
AAXX 29064 71467 16/// /0916 11278 21305 39993 40113 50000 60001 333 11255 21309 70003 555 30527 40081
AAXX 29064 71472 NIL
AAXX 29064 71474 16964 01909 10031 21007 38725 49933 55002 60001 333 10069 21036 70005 555 31826 40051
AAXX 29064 71510 16/// /1704 11049 21059 39305 40013 57013 60001 333 11036 21136 70014
AAXX 29064 71538 12974 80000 11047 21084 39919 40154 58017 60001 8807/ 333 11016 21057 70002 555 10004 20002 33228 40081
AAXX 29064 71600 17658 62426 10068 20038 39906 49912 51028 60041 7//44 333 10111 20047 70050 555 31546 40023
AAXX 29064 71601 NIL
AAXX 29064 71893 11780 42703 10063 20047 39987 40018 53041 60041 72586 84500 333 10120 20050 70102 90916 555 10000 20000 31422 40080
AAXX 29064 71894 NIL
AAXX 29064 71896 15766 81910 10041 20000 39096 49907 53006 60001 333 10044 21056 70041
AAXX 29064 71897 12274 72730 10070 20045 3//// 4//// 52034 60021 87820 333 10086 20062 70104
AAXX 29064 71898 160// ///// 10051 53056 60011 333 10088 20024 70050
AAXX 29064 71899 11469 62742 10036 20031 3//// 4//// 52060 69961 78011 86300 333 10070 20025 70122 90910 555 32746 40033
AAXX 29064 71902 NIL
AAXX 29064 71905 NIL
AAXX 29064 71906 11574 63410 11255 21302 30085 40138 58013 69901 70371 82504 333 11254 21297 44015 79999 90921 555 19999 29999
AAXX 29064 71907 16964 00000 11307 21352 30140 40175 50001 60001 333 11214 21311 70000
AAXX 29064 71909 16564 80000 11205 21246 30151 40197 53003 60001 333 11201 21305 70000
AAXX 29064 71910 47330 92407 11176 21215 30095 40160 53008 6///1 745// 333 11169 21260 7////
AAXX 29064 71911 46464 81006 11349 30058 40118 50004 6///1 333 11309 21362 7////
AAXX 29064 71912 12974 01404 11242 21284 39881 40072 50004 60001 333 11155 21266 70000 555 10000 20000
AAXX 29064 71915 11974 10306 11284 21326 30057 40143 53003 69901 77677 80001 333 11279 21376 44041 79999 90983 555 19999 29999
AAXX 29064 71917 11974 00902 11378 21431 30125 40140 52017 69901 7767/ 333 11295 21380 44014 79999 90999 555 19999 29999
AAXX 29064 71922 12974 00000 11175 21220 39554 40028 57007 60001 333 11048 21175 70002 555 10002 20002
AAXX 29064 71924 NIL
AAXX 29064 71925 11574 23105 11391 21432 30063 40107 53004 69901 77677 82500 333 11361 21392 42021 79999 90983 555 19999 29999
AAXX 29064 71926 11874 80810 11245 21299 30036 40061 57011 69941 77172 8807/ 333 11245 21345 48042 70004 90973 555 10004 20004
AAXX 29064 71928 16/// /1203 11064 21103 38798 49958 58033 60001 333 11020 21127 70000
AAXX 29064 71043 11566 71205 11223 21276 39884 49980 56015 69901 77177 86570 333 11223 21336 48033 79999 90983 555 19999 29999
AAXX 29064 71045 NIL
AAXX 29064 71050 NIL
AAXX 29064 71051 NIL
AAXX 29064 71052 NIL
AAXX 29064 71066 11474 80000 11100 21125 39512 49936 57016 69901 72277 885// 333 11100 21237 44022 79999 90972
AAXX 29064 71068 12974 00000 11087 21101 39224 49913 57022 60001 333 11033 21121 70004 555 10008 20004
AAXX 29064 71069 16964 01205 11082 21096 39236 49937 56023 60001 333 11028 21091 70000
AAXX 29064 71076 16/// /0702 11142 21156 39594 49993 55007 60001 333 11084 21172 70000
AAXX 29064 71077 16/// /1604 11071 21089 39462 40005 56018 60001 333 11035 21138 70000 555 33218 40081
AAXX 29064 71079 11669 81102 11154 21175 39758 40044 58012 69921 77177 885// 333 11125 21214 48008 70014 90983 555 10016 20014
AAXX 29064 71081 46464 31603 11275 21311 30136 40149 53011 6///1 333 7////
AAXX 29064 71082 NIL
AAXX 29064 71083 11/24 91515 11141 21149 30021 40064 57004 60011 77177 333 11138 21329 48056 70020 90973 93101 555 10024 20020 31520 40061
AAXX 29064 71090 46964 02604 11324 21359 30113 40150 51015 6///1 333 7////
AAXX 29064 71091 460// /0916 11276 39950 40169 52016 6///1 333 7//// 555 31019 40051
AAXX 29064 71092 46011 01608 11291 39475 40174 51018 6///1 333 11228 21303 7////
AAXX 29064 71093 460// ///// 11254 39626 40142 51014 6///1 333 11221 21255 7////
AAXX 29064 71094 46064 /3009 11248 39172 40105 51009 6///1 333 11234 21255 7//// 555 30218 40091
AAXX 29064 71095 46964 01904 11319 21362 30067 40152 51020 6///1 333 11315 21351 7////
AAXX 29064 71101 160// /2413 39972 51059 60011 333 70015 555 31339 40073
AAXX 29064 71104 12974 11507 10030 21018 38843 49927 53001 60001 81070 333 10073 20000 79999 555 19999 29999 31719 40121
AAXX 29064 71108 NIL
AAXX 29064 71109 11574 62510 10060 20038 30009 40035 52058 60041 70166 83570 333 10090 20059 70322 90933 555 10000 20000
AAXX 29064 71603 11574 82726 11001 21052 39881 49933 53026 69901 70282 885// 333 10113 21001 70022 90926 555 19999 29999 32741 40061
AAXX 29064 71607 16/// /2712 11059 21111 39883 49915 51021 60001 333 10108 21059 70150 555 31434 40123
AAXX 29064 71609 11374 82713 11042 21088 39753 49884 53018 69901 70272 885// 333 10108 21042 70058 90921 555 19999 29999 31734 40163
AAXX 29064 71610 17548 82517 11140 21171 39732 40032 53018 60001 771// 333 10060 21140 70005
AAXX 29064 71621 16964 03007 11153 21178 30050 40160 51007 60001 333 10016 21153 70010 555 32925 40121
AAXX 29064 71623 NIL
AAXX 29064 71624 12674 23205 11118 21151 39947 40166 55000 60001 82500 333 10017 21119 79999 555 19999 29999 33232 40071
AAXX 29064 71625 16964 02905 11204 21245 39983 40151 51005 60001 333 11028 21204 70005 555 33222 40191
AAXX 29064 71627 11674 12718 11146 21211 30046 40092 52023 69901 70271 81500 333 10026 21146 42004 70038 90963 555 10038 20038
AAXX 29064 71628 13060 12715 11179 21215 39982 40128 53014 69901 80500 333 10006 21180 70082 555 10299 20099 32723 40112
AAXX 29064 71630 NIL
AAXX 29064 71631 17/// /1401 11120 21135 39633 40149 58008 69931 7//4/ 333 11050 21135 70036 555 33022 40161
AAXX 29064 71633 11574 81405 11131 21149 39875 40156 58007 69901 77111 885// 333 11065 21184 43013 70028 90910 555 10070 20028
AAXX 29064 71705 11474 82524 11005 21032 39748 49833 52006 60011 72682 885// 333 10100 21005 41997 70070 90916 555 10002 20002 31639 40173
AAXX 29064 71706 11474 82514 10031 20011 39763 49821 53004 60011 72562 8657/ 333 10085 20024 41997 70072 90917 555 10000 20000 31636 40161
AAXX 29064 71707 11674 22416 10066 20049 39741 49815 55002 60241 78088 82500 333 10077 21021 70246 90973 555 10000 20000 31434 40031
AAXX 29064 71709 NIL
AAXX 29064 71711 NIL
AAXX 29064 71714 16/// /2516 11130 21178 39908 40001 53015 60001 333 10020 21130 70063 555 32527 40221
AAXX 29064 71715 17/// /3108 11113 21144 39725 49905 53014 60011 7//4/ 333 10014 21113 70149 555 10030 20149 32323 40221
AAXX 29064 71718 11/16 92723 11079 21086 39793 49857 52008 60021 77177 333 10054 21080 48004 70070 90983 93102 555 10038 20038
AAXX 29064 71719 16/// /2624 10007 21001 39754 49760 56021 60001 333 10041 20002 70112 555 32534 40063
AAXX 29064 71816 11248 80609 11026 21035 39827 49888 57042 60071 77177 887// 333 11026 21134 47075 70262 90983 93107 555 10290 20262 30619 40220
AAXX 29064 71817 NIL
AAXX 29064 71818 11566 81206 10002 21003 39905 49923 58070 60021 76677 885// 333 10004 21083 43016 70052 90973 555 10040 20040 33617 40071
AAXX 29064 71822 NIL
AAXX 29064 71825 11656 80114 11181 21197 39219 49901 58027 60051 77177 885// 333 11176 21199 48108 70150 90983 93109 555 10208 20150 30328 40181
AAXX 29064 71827 12974 03203 11282 21323 39887 40147 56007 60001 333 11252 21315 70000 555 10000 20000
AAXX 29064 71828 17108 93412 11217 21253 39329 49988 57027 60021 74544 333 11208 21316 70045 555 30120 40021
AAXX 29064 71831 12974 00000 11302 21345 39874 40175 57005 60001 333 11217 21330 79999 555 19999 29999
AAXX 29064 71832 NIL
AAXX 29064 71834 11259 70904 11193 21227 39677 40126 58018 69901 77111 87700 333 11182 21364 48026 79999 90931 555 19999 29999
AAXX 29064 71841 NIL
AAXX 29064 71842 11574 81304 11097 21112 39565 40046 57016 69901 77177 885// 333 11097 21289 47006 70008 90983 555 10008 20008
AAXX 29064 71844 NIL
AAXX 29064 71845 NIL
AAXX 29064 71850 12474 60806 11092 21109 39527 40035 57003 60001 86500 333 11083 21183 70012 555 10014 20012 31619 40170
AAXX 29064 71852 16364 80103 11075 21082 39747 40045 53010 60001 333 11067 21124 70000
AAXX 29064 71854 NIL
AAXX 29064 71858 16/// /0000 11072 21080 39753 40036 56005 60001 333 11060 21121 70003
AAXX 29064 71861 16/// /2502 11077 21084 39319 40050 55002 60001 333 11037 21131 70000
AAXX 29064 71862 11274 82305 11041 21049 39353 40056 53004 69901 77177 885// 333 11021 21116 47003 70050 90983 555 10050 20050
AAXX 29064 71863 46464 81602 11049 21068 39347 40050 56002 6///1 333 11037 21130 7////
AAXX 29064 71700 17566 82713 11046 21096 39855 49880 51019 69931 771// 333 10104 21046 70229
AAXX 29064 71701 11574 82813 11044 21089 39817 49878 52018 69961 70266 8857/ 333 10108 21044 70329 90952 555 10000 20000 31430 40121
AAXX 29064 71702 16/// /2521 10011 21009 39797 49812 53010 60001 333 10083 20011 70076 555 31536 40163
AAXX 29064 71703 NIL
AAXX 29064 71704 15966 81806 11079 21116 39931 40158 58013 60001 333 11023 21094 70000
AAXX 29064 71710 NIL
AAXX 29064 71712 16/// /2614 11152 21193 30052 40116 51020 60001 333 10029 21152 70022 555 32528 40192
AAXX 29064 71713 16/// /2718 11101 21150 60001 333 10018 21101 70104 555 32242 40223
AAXX 29064 71716 NIL
AAXX 29064 71717 NIL
AAXX 29064 71720 NIL
AAXX 29064 71721 16/// /3003 11205 21235 39866 40122 52012 60001 333 11008 21205 70010 555 33221 40111
AAXX 29064 71723 NIL
AAXX 29064 71724 16/// /2607 11131 21192 30030 40038 53021 60001 333 10026 21131 70042 555 32828 40052
AAXX 29064 71732 16/// /2903 11209 21232 60001 333 11120 21210 70010 555 10110 20010 33426 40081
AAXX 29064 71733 16/// /3204 11243 21265 39714 40179 58003 60001 333 11160 21244 70000 555 33528 40082
AAXX 29064 71734 16/// /2905 11257 21293 39745 40159 56002 60001 333 11173 21257 70010 555 33429 40092
AAXX 29064 71736 NIL
AAXX 29064 71737 NIL
AAXX 29064 71741 NIL
AAXX 29064 71742 NIL
AAXX 29064 71743 NIL
AAXX 29064 71744 NIL
AAXX 29064 71745 NIL
AAXX 29064 71746 NIL
AAXX 29064 71747 NIL
AAXX 29064 71748 NIL
AAXX 29064 71726 NIL
AAXX 29064 71727 11524 82824 11154 21183 39758 49957 52014 60021 77173 885// 333 10004 21157 48040 70085 90983 555 10110 20085 32932 40040
AAXX 29064 71728 11662 73118 11166 21191 39761 49986 52009 60011 77177 87500 333 11010 21167 48009 70238 90983 555 11238 21238
AAXX 29064 71730 12274 33104 11232 21267 39721 40170 57004 60001 83600 333 11160 21232 43012 70010 555 10014 20010 33633 40061
AAXX 29064 71731 12974 00105 11237 21280 39684 40160 58003 60001 333 11137 21254 70008 555 10008 20008 33628 40131
AAXX 29064 71735 NIL
AAXX 29064 71738 NIL
AAXX 29064 71739 42974 00000 11303 21346 39784 40173 56007 61111 333 11212 21312 41111 71111 555 11111 21111 33317 40100
AAXX 29064 71749 16411 91006 11048 21054 39814 40065 58028 60011 333 11047 21232 70010
AAXX 29064 71799 11583 32515 10100 20046 30001 40024 50023 60051 72186 83800 333 10130 20077 70086 90917 555 10000 20000 32337 40081
AAXX 29064 71800 16/// /1910 10020 20020 39916 49948 56031 60001 333 10035 21052 70000 555 30429 40212
AAXX 29064 71801 11224 82103 10027 20027 39768 49938 58044 69901 72854 886// 333 10028 21086 44004 70004 90933 555 10000 20000
AAXX 29064 71803 11116 81309 11001 21006 39726 49909 58072 69961 75662 887// 333 10017 21017 42006 70006 90952 555 10000 20000
AAXX 29064 71807 NIL
AAXX 29064 71808 11274 80924 10010 21015 39831 49876 58085 69941 70262 8662/ 333 10016 21025 70006 90931 555 10002 20002 30834 40051
AAXX 29064 71809 12474 80918 10037 20016 39837 49864 56094 60001 8552/ 333 10043 21052 70000 555 10000 20000 30924 40061
AAXX 29064 71810 17/// /2702 10015 20011 39683 49747 58043 60031 7//4/ 333 10031 21020 70201 555 31333 40162
AAXX 29064 71811 NIL
AAXX 29064 71813 17/// /0917 10020 20017 39762 49775 58063 60241 7//4/ 333 10024 21037 70388 555 31233 40222
AAXX 29064 71814 17/// /0909 10029 20022 39821 49830 56068 60011 7//4/ 333 10029 21021 70017 555 31118 40011
AAXX 29064 71815 12474 80920 10055 20043 39764 49794 58095 60001 885// 333 10062 21004 70000 555 10000 20000 31429 40001
AAXX 29064 71864 NIL
AAXX 29064 71865 16/// /2304 11050 21072 39362 40044 55001 60001 333 11038 21091 70000 555 32718 40091
AAXX 29064 71866 46464 81707 11060 21079 39415 40032 56012 6///1 333 11038 21124 7////
AAXX 29064 71867 11974 00000 11084 21086 39694 40032 56007 69901 70171 333 11057 21121 47025 70022 90930 555 10028 20022
AAXX 29064 71868 NIL
AAXX 29064 71869 12574 80000 11095 21101 39508 40040 56009 60001 885// 333 11056 21166 70000 555 10000 20000
AAXX 29064 71871 17/12 /1708 11060 21064 39189 49995 56018 60001 710// 333 11025 21106 70000
AAXX 29064 71877 12974 60000 11011 21048 38718 49966 58036 60001 86070 333 10099 21089 70000 555 10000 20000 32536 40202
AAXX 29064 71878 12974 81805 11029 21063 38899 49970 58032 60001 8807/ 333 11022 21127 70000 555 10000 20000
AAXX 29064 71879 16964 01805 11030 21085 39148 49945 58036 60001 333 11017 21075 70000
AAXX 29064 71880 11359 81410 10039 20038 38920 40007 58042 60021 76122 885// 333 10073 21007 70062 90931 555 10016 20016
AAXX 29064 71882 160// /0104 10013 20012 39446 49978 56046 60031 333 10019 20003 70115 555 31520 40081
AAXX 29064 71883 NIL
AAXX 29064 71887 11786 81103 10063 20021 39536 49948 55020 69901 78088 86501 333 10109 20012 79999 90910 555 10000 20000 31028 40111
AAXX 29064 71889 11474 81718 10087 20043 39590 49999 55001 69941 78082 885// 333 10097 20032 70012 90921 555 10000 20000 31936 40103
AAXX 29064 71891 16564 61918 10061 20039 39689 49957 55015 60081 333 10089 20026 70135 555 31748 40093
AAXX 29064 71892 11474 22705 10091 20051 30018 40023 53034 60051 70161 82530 333 10116 20075 70080 90935 555 10000 20000 31619 40201
AAXX 29064 71950 17866 80704 11010 21014 39283 49904 53026 69981 7004/ 333 10006 21045 70036
AAXX 29064 71952 NIL
AAXX 29064 71954 46/// /2201 11096 21104 39651 40032 56007 6///1 333 11069 21130 7////
AAXX 29064 71956 NIL
AAXX 29064 71959 NIL
AAXX 29064 71960 460// /0620 11249 39900 40037 55001 6///1 333 11235 21274 7//// 555 30125 40061
AAXX 29064 71962 17/// /0903 11059 21070 39596 40021 56012 60011 7//4/ 333 11047 21174 70014 555 10030 20014
AAXX 29064 71963 NIL
AAXX 29064 71967 16/// /2518 11142 21173 39956 40063 52024 60001 333 10032 21142 70003 555 10040 20003 32531 40182
AAXX 29064 71970 NIL
AAXX 29064 71971 16/// /0000 11299 21326 30072 40120 53016 60001 333 11256 21322 70000
AAXX 29064 71972 460// /3518 11175 39687 40166 55006 6///1 333 11163 21199 7//// 555 32146 40073
AAXX 29064 71973 46/// /1110 10048 20021 39651 49832 56085 6///1 333 10051 21034 7//// 555 31420 40201
AAXX 29064 71974 NIL
AAXX 29064 71975 460// /2722 11260 39392 40155 51011 6///1 333 11249 21278 7//// 555 30335 40063
AAXX 29064 71976 NIL
AAXX 29064 71977 NIL
AAXX 29064 71978 NIL
AAXX 29064 71979 NIL
AAXX 29064 71980 46/// /0000 11239 21267 6///1 333 11239 21344 7//// 555 10030
AAXX 29064 71981 NIL
AAXX 29064 71982 NIL
AAXX 29064 71983 NIL
AAXX 29064 71984 16/// /2501 11307 21338 30055 40064 50002 60001 333 11276 21314 70000
AAXX 29064 71985 NIL
AAXX 29064 71986 NIL
AAXX 29064 71987 17/// /2430 10018 20004 39776 49785 55004 60071 7//4/ 333 10065 20015 70163 555 32438 40063
AAXX 29064 71988 16/// /2831 11016 21050 39905 49924 53025 60001 333 10122 21016 70049 555 31555 40133
AAXX 29064 71989 NIL
AAXX 29064 71990 NIL
AAXX 29064 71999 NIL
AAXX 29064 71665 17/// /3315 11110 21123 39998 40008 56052 60051 7//4/ 333 11110 21218 70063 555 10080 20063 33227 40051
AAXX 29064 71666 16/// /2419 11002 21016 39778 49821 53005 60001 333 10106 21002 70012 555 31630 40162
AAXX 29064 71667 NIL
AAXX 29064 71668 16/// /2820 11054 21108 39837 49879 51021 60001 333 10101 21054 70209 555 33030 40062
AAXX 29064 71669 NIL
AAXX 29064 71670 17/// ///// 11001 21016 69961 7//4/ 333 10073 21001 70045
AAXX 29064 71671 NIL
AAXX 29064 71672 16/// /2101 11198 21225 39882 40158 50001 60001 333 10018 21198 70003 555 33125 40111
AAXX 29064 71673 NIL
AAXX 29064 71674 NIL
AAXX 29064 71675 15966 01407 11246 21270 39819 40113 58005 60001 333 11203 21314 70000
AAXX 29064 71679 NIL
AAXX 29064 71680 NIL
AAXX 29064 71681 NIL
AAXX 29064 71682 NIL
AAXX 29064 71683 NIL
AAXX 29064 71684 15966 02906 11246 21274 39852 40171 57006 60001 333 11161 21255 70000
AAXX 29064 71685 17356 80304 10012 20012 39446 49978 56046 60021 7614/ 333 10020 20003 70073
AAXX 29064 71686 469// /2902 11098 21111 38885 49827 53007 6///1 333 11091 21126
AAXX 29064 71687 NIL
AAXX 29064 71688 NIL
AAXX 29064 71689 15666 81208 11072 21083 39507 49964 56016 60001 333 11045 21147 70000
AAXX 29064 71690 NIL
AAXX 29064 71691 17524 82912 11090 21111 39811 49838 52010 69931 771// 333 10027 21090 70121
AAXX 29064 71692 NIL
AAXX 29064 71694 16/// /2601 11234 21256 39796 40178 53002 60001 333 11076 21242 70005 555 10030 20005 33224 40141
AAXX 29064 71695 16/// /2001 11081 21090 39690 40027 57007 60001 333 11057 21119 70015 555 10010 20015 31517 40081
AAXX 29064 71696 16/// /1810 11179 21214 30015 40053 57003 60001 333 11158 21296 70000 555 31618 40001
AAXX 29064 71697 15966 03407 11157 21180 39987 40165 50000 60001 333 10011 21158 70000
AAXX 29064 71699 16/// /2712 11044 21093 39893 49901 51021 60001 333 10109 21044 70052
AAXX 29064 71114 160// /2718 10121 20064 39950 49997 55003 60101 333 10132 20041 70510 555 33035 40153
AAXX 29064 71120 12474 81805 11046 21067 39334 49991 56020 60001 885// 333 11033 21106 79999 555 19999 29999
AAXX 29064 71122 16/// /2603 10010 21008 38402 49971 58038 60001 333 7////
AAXX 29064 71123 12974 81410 11047 21086 39087 49948 58038 60001 81071 333 11039 21144 70000 555 10000 20000
AAXX 29064 71125 NIL
AAXX 29064 71129 11966 20802 11107 21118 39173 40009 58021 69901 72874 80001 333 11043 21108 42002 70012 90922 555 10014 20012
AAXX 29064 71131 16/// /2511 11012 21027 38774 40015 58014 60001 333 10046 21062 70000 555 32630 40212
AAXX 29064 71135 16/// /2709 11014 21035 38956 40029 56007 60001 333 10048 21082 70007 555 32827 40201
AAXX 29064 71137 NIL
AAXX 29064 71140 12874 83203 11060 21071 39545 40052 5/008 60001 8807/ 333 11048 21118 79999 555 19999 29999
AAXX 29064 71145 11474 81404 11175 21205 39762 40066 57003 69901 77111 885// 333 11156 21238 48036 70002 90921 555 10002 20002
AAXX 29064 71148 16/// /3304 11082 21092 39460 40044 50013 60001 333 11022 21154 70000
AAXX 29064 71185 16964 01223 10055 39804 49827 56105 60001 333 10071 20018 70000 555 31238 40053
AAXX 29064 71188 NIL
AAXX 29064 71200 NIL
AAXX 29064 71207 NIL
AAXX 29064 71260 13/// ///// 11117 21174 39901 40146 58013 60001 333 11112 21201 70000 555 10000 20000
AAXX 29064 71604 NIL
AAXX 29064 71605 NIL
AAXX 29064 71611 16/// /2516 11134 21175 60001 333 10066 21134 70010 555 32629 40042
AAXX 29064 71612 NIL
AAXX 29064 71614 16/// /2710 11149 21196 30017 40085 51022 60001 333 10038 21149 70020 555 32732 40232
AAXX 29064 71616 17/// /2812 11126 21169 39910 40032 53018 60011 7//4/ 333 10041 21127 70040 555 32627 40051
AAXX 29064 71617 17/// /2720 11149 21167 39793 49966 51014 69971 7//4/ 333 10008 21150 70096 555 32732 40062
AAXX 29064 71618 17766 82009 11178 21214 30019 58002 60001 771//
AAXX 29064 71619 16/// /2721 11009 21014 39716 49772 55009 60001 333 10054 21009 70180 555 32737 40063
AAXX 29064 71622 NIL
AAXX 29064 71632 46/// /2003 11115 21127 39572 40018 58006 6///1 333 11115 21202 7////
AAXX 29064 71634 17/// /2607 11011 21033 39659 49808 53001 60021 7//4/ 333 10073 21011 70217 555 31323 40131
AAXX 29064 71638 NIL
AAXX 29064 71639 NIL
AAXX 29064 71642 NIL
AAXX 29064 71201 NIL
AAXX 29064 71202 17/// ///// 11063 21083 69961 7//4/ 333 11006 21110 7////
AAXX 29064 71203 17666 83503 10044 20038 39475 49986 55016 60011 7614/ 333 10067 20001 70016
AAXX 29064 71209 NIL
AAXX 29064 71211 NIL
AAXX 29064 71212 16/// /3214 11175 21215 39111 49913 51007 60001 333 10009 21175 70133 555 10030 20133 33328 40042
AAXX 29064 71213 46/// /3006 11248 21272 39851 40169 56005 6///1 333 11161 21256 7//// 555 33426 40071
AAXX 29064 71214 NIL
AAXX 29064 71215 NIL
AAXX 29064 71216 NIL
AAXX 29064 71217 NIL
AAXX 29064 71218 17/// /1105 10042 20030 39544 49964 56028 69961 7//4/ 333 10077 21004 70021
AAXX 29064 71219 NIL
AAXX 29064 71220 NIL
AAXX 29064 71221 NIL
AAXX 29064 71222 NIL
AAXX 29064 71223 NIL
AAXX 29064 71224 NIL
AAXX 29064 71225 NIL
AAXX 29064 71226 NIL
AAXX 29064 71227 NIL
AAXX 29064 71228 NIL
AAXX 29064 71229 NIL
AAXX 29064 71230 16/// /2001 11040 21054 39015 49898 56018 60001 333 11033 21079 70000
AAXX 29064 71231 16/// /2008 10036 21016 60001 333 10120 20023 70000 555 32747 40203
AAXX 29064 71232 16/// /2508 10043 21028 38482 49939 58026 60001 333 10067 21068 70000 555 32633 40042
AAXX 29064 71233 16/// /1204 10014 21073 60001 333 10014 21083 70000
AAXX 29064 71234 16/// /1805 10074 21034 38806 49955 56035 60001 333 10116 21021 70000 555 32537 40173
AAXX 29064 71235 16/// /1704 10040 21049 60001 333 10089 21095 70000 555 32824 40201
AAXX 29064 71236 46/// /0000 10008 20005 6///1 333 10066 20008 7//// 555 33135 40183
AAXX 29064 71237 46/// /2602 11011 21040 39151 49958 58028 6///1 333 10047 21100 7////
AAXX 29064 71238 16/// /1202 11065 21091 60001 333 11008 21104 70006 555 31417 40171
AAXX 29064 71239 16/// /2803 11082 21093 39578 40044 50011 60001 333 11026 21124 70000 555 10010 31817 40101
AAXX 29064 71240 16/// ///// 11091 21103 39152 40001 58027 60001 333 11019 21099 70003
AAXX 29064 71241 NIL
AAXX 29064 71242 16/// /2403 11035 21064 60001 333 11013 21131 70000
AAXX 29064 71243 NIL
AAXX 29064 71244 16/// /2212 10059 20001 38792 49988 58026 60001 333 10093 20004 70000 555 10010 32539 40143
AAXX 29064 71245 46/// /2112 11050 21057 6///1 333 11035 21070 7//// 555 32472 40163
AAXX 29064 71246 NIL
AAXX 29064 71247 15966 82110 10051 21009 39151 49985 56024 60001 333 10127 21009 70000
AAXX 29064 71248 16/// /1603 11024 21073 38668 49947 58035 60001 333 10084 21118 70006 555 32433 40202
AAXX 29064 71249 NIL
AAXX 29064 71851 NIL
AAXX 29064 71857 NIL
AAXX 29064 71860 NIL
AAXX 29064 71876 15266 81506 11046 21049 39356 40022 56014 60001 333 11019 21118 70000
AAXX 29064 71885 NIL
AAXX 29064 71886 16/// /2506 11090 21101 39438 40051 56001 60001 333 11050 21112 70000
AAXX 29064 71888 NIL
AAXX 29064 71890 17/// /0612 11092 21116 39807 49834 51010 69961 7//4/ 333 10026 21092 70209 555 10110 20209 30131 40102
AAXX 29064 71895 NIL
AAXX 29064 71744 NIL
AAXX 29064 71750 NIL
AAXX 29064 71751 NIL
AAXX 29064 71752 NIL
AAXX 29064 71753 17/// /2311 10030 20000 39822 49850 53014 69931 7//4/ 333 10107 20029 70150 555 31534 40203
AAXX 29064 71754 16/// /1506 11052 21066 39352 40018 56014 60001 333 11020 21141 70000
AAXX 29064 71755 43/// /1102 11232 21271 39728 40087 58001 6///1 333 11156 21341 7////
AAXX 29064 71756 NIL
AAXX 29064 71758 NIL
AAXX 29064 71760 NIL
AAXX 29064 71761 NIL
AAXX 29064 71762 NIL
AAXX 29064 71763 NIL
AAXX 29064 71765 NIL
AAXX 29064 71766 NIL
AAXX 29064 71767 16/// /0702 11135 21148 39886 40157 58008 60001 333 11099 21185 70000 555 10030 33523 40081
AAXX 29064 71768 NIL
AAXX 29064 71769 NIL
AAXX 29064 71770 NIL
AAXX 29064 71771 NIL
AAXX 29064 71772 17/// /2408 10101 20058 30001 40007 53027 60031 7//4/ 333 10134 20083 70044 555 32226 40151
AAXX 29064 71773 NIL
AAXX 29064 71774 NIL
AAXX 29064 71775 NIL
AAXX 29064 71776 NIL
AAXX 29064 71777 NIL
AAXX 29064 71778 NIL
AAXX 29064 71779 NIL
AAXX 29064 71780 NIL
AAXX 29064 71781 NIL
AAXX 29064 71782 NIL
AAXX 29064 71783 NIL
AAXX 29064 71784 NIL
AAXX 29064 71785 NIL
AAXX 29064 71786 NIL
AAXX 29064 71787 17/// /2617 11044 21045 39365 49839 53004 60011 7//4/ 333 10085 21044 70291 555 31437 40153
AAXX 29064 71788 NIL
AAXX 29064 71789 NIL
AAXX 29064 71791 NIL
AAXX 29064 71792 NIL
AAXX 29064 71793 NIL
AAXX 29064 71794 NIL
AAXX 29064 71795 NIL
AAXX 29064 71796 NIL
AAXX 29064 71797 NIL
AAXX 29064 71603 11574 82726 11001 21052 39881 49933 53026 69901 70282 885// 333 10113 21001 70022 90926 555 19999 29999 32741 40061
AAXX 29064 71607 16/// /2712 11059 21111 39883 49915 51021 60001 333 10108 21059 70150 555 31434 40123
AAXX 29064 71609 11374 82713 11042 21088 39753 49884 53018 69901 70272 885// 333 10108 21042 70058 90921 555 19999 29999 31734 40163
AAXX 29064 71610 17548 82517 11140 21171 39732 40032 53018 60001 771// 333 10060 21140 70005
AAXX 29064 71621 16964 03007 11153 21178 30050 40160 51007 60001 333 10016 21153 70010 555 32925 40121
AAXX 29064 71623 NIL
AAXX 29064 71624 12674 23205 11118 21151 39947 40166 55000 60001 82500 333 10017 21119 79999 555 19999 29999 33232 40071
AAXX 29064 71625 16964 02905 11204 21245 39983 40151 51005 60001 333 11028 21204 70005 555 33222 40191
AAXX 29064 71627 11674 12718 11146 21211 30046 40092 52023 69901 70271 81500 333 10026 21146 42004 70038 90963 555 10038 20038
AAXX 29064 71628 13060 12715 11179 21215 39982 40128 53014 69901 80500 333 10006 21180 70082 555 10299 20099 32723 40112
AAXX 29064 71630 NIL
AAXX 29064 71631 17/// /1401 11120 21135 39633 40149 58008 69931 7//4/ 333 11050 21135 70036 555 33022 40161
AAXX 29064 71633 11574 81405 11131 21149 39875 40156 58007 69901 77111 885// 333 11065 21184 43013 70028 90910 555 10070 20028
AAXX 29064 71705 11474 82524 11005 21032 39748 49833 52006 60011 72682 885// 333 10100 21005 41997 70070 90916 555 10002 20002 31639 40173
AAXX 29064 71706 11474 82514 10031 20011 39763 49821 53004 60011 72562 8657/ 333 10085 20024 41997 70072 90917 555 10000 20000 31636 40161
AAXX 29064 71707 11674 22416 10066 20049 39741 49815 55002 60241 78088 82500 333 10077 21021 70246 90973 555 10000 20000 31434 40031
AAXX 29064 71709 NIL
AAXX 29064 71711 NIL
AAXX 29064 71714 16/// /2516 11130 21178 39908 40001 53015 60001 333 10020 21130 70063 555 32527 40221
AAXX 29064 71715 17/// /3108 11113 21144 39725 49905 53014 60011 7//4/ 333 10014 21113 70149 555 10030 20149 32323 40221
AAXX 29064 71718 11/16 92723 11079 21086 39793 49857 52008 60021 77177 333 10054 21080 48004 70070 90983 93102 555 10038 20038
AAXX 29064 71719 16/// /2624 10007 21001 39754 49760 56021 60001 333 10041 20002 70112 555 32534 40063
AAXX 29064 71930 NIL
AAXX 29064 71931 NIL
AAXX 29064 71934 11274 80000 11196 21218 39724 49989 55005 69901 70274 885// 333 11100 21237 48028 79999 90941 555 19999 29999
AAXX 29064 71935 12974 20000 11279 21322 39781 49999 56007 60001 80001 333 11196 21282 79999 555 19999 29999
AAXX 29064 71936 11474 80000 11195 21229 39725 49992 55003 69901 77122 885// 333 11142 21217 48026 79999 90962 555 19999 29999
AAXX 29064 71937 NIL
AAXX 29064 71938 NIL
AAXX 29064 71940 12882 73305 11090 21097 39111 49913 56020 60001 82071 333 11034 21103 70004 555 10004 20004
AAXX 29064 71943 12974 21209 11058 21085 39067 49896 56015 60001 80001 333 11051 21076 70010 555 10010 20010
AAXX 29064 71944 160// ///// 10013 55007 60001 333 10014 21085 70005
AAXX 29064 71945 11466 83508 11160 21215 39451 49930 56010 69901 77122 885// 333 11154 21222 47013 79999 90910 555 19999 29999
AAXX 29064 71946 12574 80102 11234 21259 39775 49998 57005 60001 8852/ 333 11226 21280 70000 555 10000 20000
AAXX 29064 71948 47014 /0827 11294 39957 40075 55000 6///1 745// 333 11284 21299 7//// 555 30832 40052
AAXX 29064 71949 NIL
AAXX 29064 71951 NIL
AAXX 29064 71957 47464 80703 11212 21278 39913 40004 58005 6///1 745// 333 11212 21304 7////
AAXX 29064 71964 11416 80000 11098 21117 38975 49820 52010 60021 78577 88577 333 11081 21111 47022 70036 90983 93103 555 10054 20036
AAXX 29064 71966 NIL
AAXX 29064 71968 460// /3405 11310 39940 40007 53004 6///1 333 11229 21330 7////
AAXX 29064 71500 NIL
AAXX 29064 71501 NIL
AAXX 29064 71502 NIL
AAXX 29064 71503 NIL
AAXX 29064 71504 NIL
AAXX 29064 71505 NIL
AAXX 29064 71506 NIL
AAXX 29064 71507 17/// /3402 11170 21185 69941 7//4/ 333 11061 21176 70004
AAXX 29064 71508 16/// ///// 11101 21136 30029 40171 52001 60001 333 10020 21102 70000
AAXX 29064 71509 NIL
AAXX 29064 71511 NIL
AAXX 29064 71512 17/// /0606 10011 20011 39746 49759 58049 60101 7//4/ 333 10022 21011 70683 555 31024 40161
AAXX 29064 71513 17340 81018 10019 20018 39764 49779 58064 60221 76144 333 10023 21035 70355
AAXX 29064 71514 NIL
AAXX 29064 71515 16/// /1802 11059 21064 39343 40048 55003 60001 333 11038 21112 70019
AAXX 29064 71516 16/// /1301 11050 21057 60001 333 10073 21082 70014 555 32923 40221
AAXX 29064 71517 NIL
AAXX 29064 71518 NIL
AAXX 29064 71519 NIL
AAXX 29064 71520 NIL
AAXX 29064 71521 NIL
AAXX 29064 71522 NIL
AAXX 29064 71523 NIL
AAXX 29064 71524 17/// /2511 11163 21206 30055 40082 52026 60011 7//4/ 333 10013 21164 70030 555 10050 20030 32522 40171
AAXX 29064 71525 NIL
AAXX 29064 71526 NIL
AAXX 29064 71527 17566 81204 11078 21090 39521 40035 56013 60001 771// 333 11078 21225 70000
AAXX 29064 71528 NIL
AAXX 29064 71529 46/// /10// 11165 21186 39762 49992 53001 6///1 333 11106 21166 7//// 555 10020
AAXX 29064 71532 15966 83204 11203 21218 39804 40165 52002 60001 333 11063 21231 70000
AAXX 29064 71534 17433 80000 11226 21287 39884 40168 57002 60001 745// 333 11028 21243 70025 555 33225 40071
AAXX 29064 71535 NIL
AAXX 29064 71536 NIL
AAXX 29064 71537 NIL
AAXX 29064 71539 NIL
AAXX 29064 71540 NIL
AAXX 29064 71541 NIL
AAXX 29064 71542 16/// /0707 11101 21110 60001 333 11066 21182 70005
AAXX 29064 71543 NIL
AAXX 29064 71544 NIL
AAXX 29064 71545 16/// ///// 11105 21113 60001 333 11030 21109 70005
AAXX 29064 71546 NIL
AAXX 29064 71547 NIL
AAXX 29064 71548 NIL
AAXX 29064 71549 NIL
AAXX 29064 71102 NIL
AAXX 29064 71105 NIL
AAXX 29064 71107 NIL
AAXX 29064 71110 NIL
AAXX 29064 71111 17666 62312 10033 21004 39969 49977 53059 60011 7004/ 333 10071 20029 70052
AAXX 29064 71112 NIL
AAXX 29064 71113 NIL
AAXX 29064 71115 NIL
AAXX 29064 71116 16/// /1703 10035 21014 38941 40014 58021 60001 333 10116 20016 70000 555 10010 32741 40213
AAXX 29064 71118 16/// /1304 11099 21109 39155 49983 58025 60001 333 11035 21100 70003
AAXX 29064 71121 16964 01705 11074 21138 39128 49947 58035 60001 333 11016 21091 70000
AAXX 29064 71127 16/// /1304 11072 21092 39038 49951 58036 60001 333 11037 21082 70000
AAXX 29064 71130 15666 31806 11140 21154 39580 40045 56005 60001 333 11050 21141 70000
AAXX 29064 71132 17266 80903 11113 21121 39685 40000 57007 60001 771// 333 11073 21129 70003
AAXX 29064 71133 46/// /1904 11043 21062 39293 49999 57015 6///1 333 11032 21103 7//// 555 32620 40071
AAXX 29064 71139 16/// /2405 10018 21040 38566 49994 58015 60001 333 10072 21023 70000 555 32733 40182
AAXX 29064 71141 NIL
AAXX 29064 71142 15966 12016 11020 21034 39050 40009 58012 60001 333 10033 21084 70008
AAXX 29064 71143 NIL
AAXX 29064 71144 NIL
AAXX 29064 71147 16/// /3502 11083 21093 60001 333 11019 21129 70000 555 31520 40071
AAXX 29064 71149 16/// /3304 11085 21102 60001 333 11004 21121 70000 555 31719 40071
AAXX 29064 71450 16/// /1506 11055 21064 39314 40035 55006 60001 333 11040 21124 70039
AAXX 29064 71451 16/// /2402 11196 21215 39592 40028 55001 60001 333 11077 21196 70006
AAXX 29064 71452 NIL
AAXX 29064 71453 NIL
AAXX 29064 71454 16/// /1603 11075 21098 39329 40023 56009 60001 333 11042 21121 70000
AAXX 29064 71455 NIL
AAXX 29064 71456 16/// /2106 11088 21109 39441 40045 55004 60001 333 11051 21134 70000
AAXX 29064 71457 16/// /2007 10044 21006 39090 49958 57028 60001 333 10101 21039 70000 555 32522 40161
AAXX 29064 71458 16/// /1705 11102 21113 39199 49972 58027 60001 333 11024 21110 70000 555 10010
AAXX 29064 71459 16/// /1305 11076 21088 39189 49997 58027 60001 333 10006 21101 70005 555 31019 40151
AAXX 29064 71460 NIL
AAXX 29064 71461 NIL
AAXX 29064 71462 NIL
AAXX 29064 71463 NIL
AAXX 29064 71464 NIL
AAXX 29064 71465 NIL
AAXX 29064 71466 NIL
AAXX 29064 71468 NIL
AAXX 29064 71470 NIL
AAXX 29064 71471 15966 01702 11053 21063 39116 49899 56015 60001 333 11022 21066 70000
AAXX 29064 71473 NIL
AAXX 29064 71475 NIL
AAXX 29064 71476 NIL
AAXX 29064 71477 NIL
AAXX 29064 71478 NIL
AAXX 29064 71479 NIL
AAXX 29064 71480 NIL
AAXX 29064 71481 NIL
AAXX 29064 71482 NIL
AAXX 29064 71483 NIL
AAXX 29064 71484 NIL
AAXX 29064 71485 17/// /2821 10070 20045 30009 40029 53057 60031 7//4/ 333 10094 20059 70122 555 31245 40073
AAXX 29064 71486 16/// /1402 10006 21010 38745 49920 58036 60001 333 10036 21029 70008 555 10010 20008
AAXX 29064 71487 NIL
AAXX 29064 71489 16/// /1805 11054 21061 39211 40013 56014 60001 333 11033 21131 70000
AAXX 29064 71490 NIL
AAXX 29064 71491 NIL
AAXX 29064 71492 NIL
AAXX 29064 71493 16/// /2511 10014 21022 39815 49852 51013 60001 333 10103 20014 70048 555 31027 40121
AAXX 29064 71494 17/// /2616 11147 21162 39455 49980 53013 69931 7//4/ 333 10044 21147 70025 555 32829 40052
AAXX 29064 71495 NIL
AAXX 29064 71496 16/// /1808 11059 21069 39411 40025 56013 60001 333 11038 21125 70000
AAXX 29064 71497 46/// /0613 11191 21222 39696 49969 57010 6///1 333 11189 21239 7//// 555 30621 40041
AAXX 29064 71498 NIL
AAXX 29064 71499 15966 02102 11212 21237 39375 40014 56007 60001 333 11044 21223 70000
AAXX 29064 71816 11248 80609 11026 21035 39827 49888 57042 60071 77177 887// 333 11026 21134 47075 70262 90983 93107 555 10290 20262 30619 40220
AAXX 29064 71817 NIL
AAXX 29064 71818 11566 81206 10002 21003 39905 49923 58070 60021 76677 885// 333 10004 21083 43016 70052 90973 555 10040 20040 33617 40071
AAXX 29064 71822 NIL
AAXX 29064 71825 11656 80114 11181 21197 39219 49901 58027 60051 77177 885// 333 11176 21199 48108 70150 90983 93109 555 10208 20150 30328 40181
AAXX 29064 71827 12974 03203 11282 21323 39887 40147 56007 60001 333 11252 21315 70000 555 10000 20000
AAXX 29064 71828 17108 93412 11217 21253 39329 49988 57027 60021 74544 333 11208 21316 70045 555 30120 40021
AAXX 29064 71831 12974 00000 11302 21345 39874 40175 57005 60001 333 11217 21330 79999 555 19999 29999
AAXX 29064 71832 NIL
AAXX 29064 71834 11259 70904 11193 21227 39677 40126 58018 69901 77111 87700 333 11182 21364 48026 79999 90931 555 19999 29999
AAXX 29064 71841 NIL
AAXX 29064 71842 11574 81304 11097 21112 39565 40046 57016 69901 77177 885// 333 11097 21289 47006 70008 90983 555 10008 20008
AAXX 29064 71844 NIL
AAXX 29064 71845 NIL
AAXX 29064 71850 12474 60806 11092 21109 39527 40035 57003 60001 86500 333 11083 21183 70012 555 10014 20012 31619 40170
AAXX 29064 71852 16364 80103 11075 21082 39747 40045 53010 60001 333 11067 21124 70000
AAXX 29064 71854 NIL
AAXX 29064 71858 16/// /0000 11072 21080 39753 40036 56005 60001 333 11060 21121 70003
AAXX 29064 71861 16/// /2502 11077 21084 39319 40050 55002 60001 333 11037 21131 70000
AAXX 29064 71862 11274 82305 11041 21049 39353 40056 53004 69901 77177 885// 333 11021 21116 47003 70050 90983 555 10050 20050
AAXX 29064 71863 46464 81602 11049 21068 39347 40050 56002 6///1 333 11037 21130 7////
AAXX 29064 71900 46/// /03// 11025 21030 39923 49936 56049 6///1 333 11024 21180 7////
AAXX 29064 71903 NIL
AAXX 29064 71904 NIL
AAXX 29064 71914 NIL
AAXX 29064 71916 NIL
AAXX 29064 71918 460// ///// 11338 6///1 333 7////
AAXX 29064 71920 NIL
AAXX 29064 71921 NIL
AAXX 29064 71923 NIL
AAXX 29064 71927 NIL
AAXX 29064 71941 15966 03108 11239 21262 39711 40149 53002 60001 333 11150 21240 70003
AAXX 29064 71947 15466 83111 11256 21279 39781 40147 58001 60001 333 11186 21256 70000
AAXX 29064 71001 15966 63004 11203 21225 38867 49845 53006 60001 333 11147 21224 70000
AAXX 29064 71002 47/12 /0412 11116 21134 39341 49884 56035 6///1 771// 333 11116 21195
AAXX 29064 71003 15966 33502 11236 21267 39693 40093 58004 60001
AAXX 29064 71005 16/// ///// 11116 21129 60001 333 11038 21122 70006
AAXX 29064 71006 NIL
AAXX 29064 71007 NIL
AAXX 29064 71008 NIL
AAXX 29064 71009 NIL
AAXX 29064 71010 NIL
AAXX 29064 71011 NIL
AAXX 29064 71012 NIL
AAXX 29064 71013 NIL
AAXX 29064 71014 NIL
AAXX 29064 71015 NIL
AAXX 29064 71016 NIL
AAXX 29064 71017 NIL
AAXX 29064 71018 NIL
AAXX 29064 71019 NIL
AAXX 29064 71020 NIL
AAXX 29064 71021 NIL
AAXX 29064 71022 17566 82413 10050 20015 39911 49954 53056 69981 7004/ 333 10086 20022 70048 555 31231 40102
AAXX 29064 71023 16264 82205 11054 21065 39216 49986 56017 60001 333 11042 21111 70000 555 33018 40071
AAXX 29064 71024 NIL
AAXX 29064 71026 NIL
AAXX 29064 71027 17/// /2510 10063 20046 39780 49790 55046 60341 7//4/ 333 10063 21021 70363 555 32222 40061
AAXX 29064 71028 NIL
AAXX 29064 71029 NIL
AAXX 29064 71030 16/64 /2815 11061 21118 39819 49907 53021 60001 333 10100 21061 70166
AAXX 29064 71032 NIL
AAXX 29064 71033 46/// /2101 11238 21260 39374 40017 57007 6///1 333 11047 21246 7//// 555 32917 40121
AAXX 29064 71035 NIL
AAXX 29064 71036 15566 12507 11091 21106 39672 40051 50005 60001 333 11028 21100 70000
AAXX 29064 71039 NIL
AAXX 29064 71040 46/// /2818 11159 21182 39753 49954 51014 6///1 333 11002 21159 7//// 555 32730 40052
AAXX 29064 71041 17566 12418 10050 20027 39700 49837 53019 60101 7004/ 333 10077 20015 70356 555 31234 40233
AAXX 29064 71042 NIL
AAXX 29064 71044 NIL
AAXX 29064 71046 460// /0908 11295 39994 40012 58001 6///1 333 11227 21325 7//// 555 31124 40221
AAXX 29064 71047 16/// ///// 11078 21086 60001 333 11035 21097 70005
AAXX 29064 71048 NIL
AAXX 29064 71049 NIL
AAXX 29064 71060 NIL
AAXX 29064 71063 NIL
AAXX 29064 71250 NIL
AAXX 29064 71251 16/// /1611 10036 21022 39086 49991 56023 60001 333 10119 21008 70007 555 32542 40203
AAXX 29064 71252 NIL
AAXX 29064 71253 46/// /0404 11150 21160 6///1 333 11120 21205 7////
AAXX 29064 71254 16/// /1405 11060 21080 60001 333 11020 21113 70000 555 10010
AAXX 29064 71255 16/// /1406 11059 21081 60001 333 11045 21127 70006
AAXX 29064 71256 46/// /16// 11084 21103 39009 49942 56027 6///1 333 11038 21087 7////
AAXX 29064 71257 NIL
AAXX 29064 71258 NIL
AAXX 29064 71259 NIL
AAXX 29064 71261 16/// /1404 11067 21103 39878 40145 58011 60001 333 11029 21067 70007 555 33433 40122
AAXX 29064 71263 11460 72102 11081 21108 39866 40163 58008 69901 78581 81800 333 10010 21112 4-4003 70008 909/6 555 10000 20000
AAXX 29064 71264 16/// /2410 10036 20012 39845 49876 51017 60001 333 10094 20036 70164 555 31434 40183
AAXX 29064 71265 15966 03107 11094 21138 30072 40169 54000 60001 333 10022 21094 70000
AAXX 29064 71266 NIL
AAXX 29064 71267 15966 81506 10035 21014 38928 49999 56019 60001 333 10117 20007 70000
AAXX 29064 71268 NIL
AAXX 29064 71269 NIL
AAXX 29064 71270 NIL
AAXX 29064 71271 16/// ///// 11068 21108 60001 333 11032 21077 70010
AAXX 29064 71272 17561 82006 11132 21145 39657 40016 58006 60001 771// 333 11131 21205 70000
AAXX 29064 71273 16/// /2106 11048 21058 39333 49992 58017 60001 333 11031 21108 70000 555 32217 40061
AAXX 29064 71274 NIL
AAXX 29064 71275 NIL
AAXX 29064 71276 NIL
AAXX 29064 71277 NIL
AAXX 29064 71278 NIL
AAXX 29064 71279 17/// /0108 11006 21010 39698 49762 56030 60021 7//4/ 333 10021 21012 70286 555 31131 40152
AAXX 29064 71281 NIL
AAXX 29064 71282 46/// /3303 11157 21157 39888 40169 51005 6///1 333 11020 21171 7//// 555 33227 40111
AAXX 29064 71283 NIL
AAXX 29064 71284 16/// ///// 11068 21096 60001 333 11021 21107 70000
AAXX 29064 71285 NIL
AAXX 29064 71286 NIL
AAXX 29064 71287 NIL
AAXX 29064 71288 NIL
AAXX 29064 71289 NIL
AAXX 29064 71290 17766 81511 10010 21008 39078 49894 56009 69931 7004/ 333 10013 21083 70003
AAXX 29064 71291 17/// /0502 11096 21109 39785 40088 58023 69961 7//4/ 333 11095 21256 70006 555 10030 20006
AAXX 29064 71292 15766 32506 11089 21092 39439 40054 57001 60001 333 11051 21113 70000
AAXX 29064 71294 16/// /0402 11258 21288 39725 40147 50001 60001 333 11005 70018 555 33522 40191
AAXX 29064 71295 NIL
AAXX 29064 71296 NIL
AAXX 29064 71297 16/// /0101 11076 21100 60001 333 10021 21095 70003 555 33226 40091
AAXX 29064 71298 16/// /2003 11026 21056 39914 40151 58017 60001 333 11011 21061 70000 555 10010 33026 40081
AAXX 29064 71299 NIL
AAXX 29064 71350 17/// /2515 10028 20016 39747 49810 53002 69971 7//4/ 333 10082 20021 70103 555 31635 40173
AAXX 29064 71351 NIL
AAXX 29064 71352 16/// /0000 11112 21128 39684 40152 58009 60001 333 11029 21135 70000 555 33128 40112
AAXX 29064 71353 NIL
AAXX 29064 71354 NIL
AAXX 29064 71355 16/// /2801 11347 21384 30052 40142 53008 60001 333 11318 21364 70000
AAXX 29064 71356 16/// /0717 11253 21281 39992 40061 56012 60001 333 11252 21340 70000 555 30720 40061
AAXX 29064 71357 NIL
AAXX 29064 71358 17/// /2704 11327 21362 30112 40149 51016 69971 7//4/ 333 11218 21343 70010 555 33226 40081
AAXX 29064 71359 NIL
AAXX 29064 71360 NIL
AAXX 29064 71361 NIL
AAXX 29064 71362 NIL
AAXX 29064 71363 NIL
AAXX 29064 71364 NIL
AAXX 29064 71365 NIL
AAXX 29064 71368 17566 80803 11095 21114 39755 40155 58008 60001 771// 333 11012 21104 70000
AAXX 29064 71369 15966 01106 11081 21100 39236 49938 56023 60001 333 11026 21088 70000
AAXX 29064 71370 NIL
AAXX 29064 71371 16961 02620 11137 30045 40080 52026 60001 333 10029 21137 70000
AAXX 29064 71372 16/// /2714 11144 21176 60001 333 10029 21144 70033 555 32730 40212
AAXX 29064 71373 NIL
AAXX 29064 71374 NIL
AAXX 29064 71375 NIL
AAXX 29064 71376 16/// /2803 11192 21228 39795 40105 51021 60001 333 10006 21193 70020 555 33121 40201
AAXX 29064 71377 16/// /2612 11153 21202 30043 40093 51022 60001 333 10023 21153 70003 555 32430 40192
AAXX 29064 71378 16/// /3106 11180 21229 39812 40026 51017 60001 333 11006 21180 70080 555 10120 20080 33320 40171
AAXX 29064 71379 16/// /3022 11177 21211 39801 49975 51009 60001 333 11009 21177 70045 555 33133 40232
AAXX 29064 71380 NIL
AAXX 29064 71381 NIL
AAXX 29064 71382 17/// /0107 11193 21222 38979 49920 51008 60021 7//4/ 333 10006 21193 70108
AAXX 29064 71383 NIL
AAXX 29064 71384 16/// /2509 11101 21177 39942 49949 52016 60001 333 10059 21101 70110 555 32624 40221
AAXX 29064 71385 NIL
AAXX 29064 71386 NIL
AAXX 29064 71387 NIL
AAXX 29064 71388 NIL
AAXX 29064 71389 NIL
AAXX 29064 71390 46/// /3409 11031 6///1 333 10022 21031 7//// 555 30628 40212
AAXX 29064 71391 16/// ///// 11181 21210 60001 333 11004 21181 70031
AAXX 29064 71392 NIL
AAXX 29064 71393 NIL
AAXX 29064 71395 NIL
AAXX 29064 71398 15966 02405 11296 21324 30160 40172 58008 60001 333 11223 21303 70000
AAXX 29064 71399 NIL
AAXX 29064 71043 11566 71205 11223 21276 39884 49980 56015 69901 77177 86570 333 11223 21336 48033 79999 90983 555 19999 29999
AAXX 29064 71045 NIL
AAXX 29064 71050 NIL
AAXX 29064 71051 NIL
AAXX 29064 71052 NIL
AAXX 29064 71066 11474 80000 11100 21125 39512 49936 57016 69901 72277 885// 333 11100 21237 44022 79999 90972
AAXX 29064 71068 12974 00000 11087 21101 39224 49913 57022 60001 333 11033 21121 70004 555 10008 20004
AAXX 29064 71069 16964 01205 11082 21096 39236 49937 56023 60001 333 11028 21091 70000
AAXX 29064 71076 16/// /0702 11142 21156 39594 49993 55007 60001 333 11084 21172 70000
AAXX 29064 71077 16/// /1604 11071 21089 39462 40005 56018 60001 333 11035 21138 70000 555 33218 40081
AAXX 29064 71079 11669 81102 11154 21175 39758 40044 58012 69921 77177 885// 333 11125 21214 48008 70014 90983 555 10016 20014
AAXX 29064 71081 46464 31603 11275 21311 30136 40149 53011 6///1 333 7////
AAXX 29064 71082 NIL
AAXX 29064 71083 11/24 91515 11141 21149 30021 40064 57004 60011 77177 333 11138 21329 48056 70020 90973 93101 555 10024 20020 31520 40061
AAXX 29064 71090 46964 02604 11324 21359 30113 40150 51015 6///1 333 7////
AAXX 29064 71091 460// /0916 11276 39950 40169 52016 6///1 333 7//// 555 31019 40051
AAXX 29064 71092 46011 01608 11291 39475 40174 51018 6///1 333 11228 21303 7////
AAXX 29064 71093 460// ///// 11254 39626 40142 51014 6///1 333 11221 21255 7////
AAXX 29064 71094 46064 /3009 11248 39172 40105 51009 6///1 333 11234 21255 7//// 555 30218 40091
AAXX 29064 71095 46964 01904 11319 21362 30067 40152 51020 6///1 333 11315 21351 7////
AAXX 29064 71101 160// /2413 39972 51059 60011 333 70015 555 31339 40073
AAXX 29064 71104 12974 11507 10030 21018 38843 49927 53001 60001 81070 333 10073 20000 79999 555 19999 29999 31719 40121
AAXX 29064 71108 NIL
AAXX 29064 71109 11574 62510 10060 20038 30009 40035 52058 60041 70166 83570 333 10090 20059 70322 90933 555 10000 20000
AAXX 29064 71401 NIL
AAXX 29064 71402 NIL
AAXX 29064 71404 NIL
AAXX 29064 71405 NIL
AAXX 29064 71406 NIL
AAXX 29064 71407 NIL
AAXX 29064 71408 NIL
AAXX 29064 71409 NIL
AAXX 29064 71410 17366 81503 11122 21134 39760 40045 58005 60001 771// 333 11122 21154 70006
AAXX 29064 71413 NIL
AAXX 29064 71414 NIL
AAXX 29064 71415 17/// /2514 10040 20002 39830 49833 53014 69971 7//4/ 333 10095 20027 70060 555 31739 40203
AAXX 29064 71417 NIL
AAXX 29064 71418 NIL
AAXX 29064 71419 46/// /2320 10055 20039 39841 49851 53030 6///1 333 10084 20040 7//// 555 31339 40233
AAXX 29064 71423 NIL
AAXX 29064 71424 46/// /2414 6///1 333 7//// 555 32338 40213
AAXX 29064 71425 NIL
AAXX 29064 71426 NIL
AAXX 29064 71427 NIL
AAXX 29064 71428 17/// /2327 11055 21066 39798 49804 53006 60041 7//4/ 333 10093 21055 70070 555 32339 40063
AAXX 29064 71429 NIL
AAXX 29064 71434 NIL
AAXX 29064 71436 15966 03003 11172 21190 39919 40164 50000 60001 333 10010 21175 70018
AAXX 29064 71437 46/// /3104 11072 21122 30066 40164 56008 6///1 333 10029 21077 7//// 555 33030 40082
AAXX 29064 71438 NIL
AAXX 29064 71439 NIL
AAXX 29064 71440 NIL
AAXX 29064 71442 NIL
AAXX 29064 71445 NIL
AAXX 29064 71446 NIL
AAXX 29064 71448 16/// /0102 11100 21114 39703 40038 53001 60001 333 11065 21149 7////
AAXX 29064 71449 16/// /0104 11059 21086 39616 40021 53003 60001 333 11031 21137 70000
AAXX 29064 71129 11966 20802 11107 21118 39173 40009 58021 69901 72874 80001 333 11037 21108 42002 70012 90922 555 10014 20012
AAXX 29061 33088 31595 82204 10002 21001 30003 40199 57015 71042 885// 333 21027
AAXX 29061 33177 32565 82302 10008 21012 39958 40201 57013 885// 333 21004
AAXX 29061 33261 31996 21802 11028 21035 30059 40249 57013 71000 80001 333 21032
AAXX 29061 33275 31/93 92102 11044 21044 30034 40269 57002 74742 333 21047
AAXX 29061 33301 31295 81602 10001 21002 39917 40206 56016 71042 886// 333 21015 88703
AAXX 29061 33325 31996 71702 11009 21016 39954 40230 57012 71011 87030 333 21018
AAXX 29061 33377 31/07 91801 11027 21027 30066 40268 57009 74941 333 21031
AAXX 29061 33415 31294 82003 10014 20011 39802 40209 57012 71042 886// 333 20008 88705
AAXX 29061 33429 31/93 91705 10004 20004 39781 40215 57016 74542 333 21016 93400
AAXX 29061 33466 31/08 91804 11017 21016 30064 40259 57008 74941 333 21025
AAXX 29061 33526 31/00 90000 11005 21008 39860 40210 57012 74744 333 21006 93401
AAXX 29061 33562 NIL
AAXX 29061 33614 31995 01501 11032 21039 30169 40279 57004 71000 333 21034
AAXX 29061 33761 31/05 91803 11025 21025 30029 40262 57017 74941 333 21034
AAXX 29061 33902 31993 73601 11047 21047 30212 40281 57007 74441 80005 333 21049
AAXX 29061 33983 32997 00000 11028 21048 30238 40301 53002 333 21030
AAXX 29061 34415 32970 00000 11042 21051 30190 40292 52005 333 21048
AAXX 29061 34523 32997 00000 11053 21067 30214 40294 52012 333 21053
AAXX 29061 34712 32962 03602 11031 21035 30211 40301 53005 333 21032
AAXX 29061 33562 32597 61605 11002 21014 39862 40234 57016 84530 333 21036 84622
AAXX 29064 78958 11462 30905 10256 20228 30141 40151 60001 70611 83800 333 10292 20232 58004 82818
AAXX 29061 33317 31496 81803 10009 20006 39865 40210 57018 71011 886// 333 21012 88710
AAXX 29061 33393 32960 22102 11015 21029 39805 40209 57011 82030 333 21015
AAXX 29061 33587 31995 01701 11020 21023 39989 40263 57014 71000 333 21050 555 34108
AAXX 29061 33663 31596 70000 10002 21004 30133 40232 57016 71042 875// 333 21036 87629
AAXX 29061 33791 31909 01503 11055 21055 30127 40287 57004 74840 333 21055
AAXX 29061 34504 31902 01301 11043 21049 30104 40292 54000 74640 333 21047
AAXX 29064 71129 11966 20802 11107 21118 39173 40009 58021 69901 72874 80001 333 11037 21108 42002 70012 90922 555 10014 20012
AAXX 29061 33036 31/04 91702 11007 21007 39969 40206 57018 74942 333 21016 89/01 93401 555 90011
AAXX 29061 02019 07/24 /1207 11068 21081 39247 49868 57016 69922 77171 333 11050 21114 69905 70025 90710 91114
AAXX 29061 02081 07/82 /2600 11138 21151 39501 49912 57020 60002 70010 333 11096 21177 60005 70000 90710 91101
AAXX 29061 02095 052// /0404 11120 21132 39690 49897 57026 60002 333 11120 21198 60005 70000 88/04 90710 91105
AAXX 29061 02101 47/57 /1903 11042 21069 39259 49811 5//// 754// 8//// 333 1//// 2//// 89/24
AAXX 29061 02119 07411 /3300 11101 21108 39479 49867 57022 60042 77174 333 11100 21163 69975 70043 88/18 90710 91102
AAXX 29061 02124 07757 /0704 11056 21097 39307 49828 57018 60052 77177 333 11055 21114 69925 70051 88/56 90710 91108
AAXX 29061 02126 07416 /3101 11032 21035 39472 49806 56014 60082 77177 333 11031 21084 69975 70081 88/11 90710 91102
AAXX 29061 02151 07427 90602 11063 21064 39521 49857 56029 60022 77177 333 11062 21146 69955 70017 89/17 91004 90710 91104 90710 91203
AAXX 29061 02186 07113 80905 11006 21009 39805 49830 56040 60072 74174 333 11003 21088 69965 70068 81/02 84/05 87/09 91008 90710 91109 90710 91206
AAXX 29061 02197 07/10 /0604 11043 21046 39833 49852 57047 60022 77187 333 11015 21092 69975 70017 90710 91108
AAXX 29061 02207 07414 /2501 11009 21016 39104 49789 56013 69942 77170 333 10006 21023 69945 88/18 90710 91103
AAXX 29061 02219 07/64 /2701 11035 21036 39135 49792 56009 60032 70071 333 11027 21046 60005 70032 90710 91104
AAXX 29061 02226 45984 /1903 10002 21022 39348 49794 56018 8//// 333 10011 21013
AAXX 29061 02243 07/50 /1101 11034 21034 39538 49803 57012 60092 71074 333 11003 21035 60005 90710 91102
AAXX 29061 02269 07963 /2310 10033 20023 60052 70086 333 10038 20020 60005 70045 87/73 90710 91111
AAXX 29061 02287 07359 /2508 10018 20013 39796 49805 56016 60052 75276 333 10026 21009 69905 70050 86/07 87/35 90710 91110
AAXX 29061 02297 07266 /1803 10017 20017 39752 49797 56037 60032 72276 333 10017 21033 69905 70028 85/04 87/07 90710 91106
AAXX 29061 02308 07128 /0500 11013 21021 38952 49795 56019 69932 77170 333 11005 21022 69905 70014 82/02 88/14 90710 91103
AAXX 29061 02327 05/99 /1002 10014 20001 39379 49805 57024 60012 333 10027 21002 60005 70014 90710 91103
AAXX 29061 02355 NIL
AAXX 29061 02366 47/50 /0701 11005 21005 39816 49822 57018 722// 8//// 333 10010 21017
AAXX 29061 02407 07363 /1704 10025 20018 39440 49800 57044 60022 76186 333 10037 20021 69925 70028 88/09 90710 91109
AAXX 29061 02418 47260 /1709 10047 20040 39664 49791 56076 761// 8//// 333 10047 20039 85/06 88/09
AAXX 29061 02435 45466 /1605 10033 20008 39647 49830 58037 8//// 333 10044 20022 81/16 88/19
AAXX 29061 02440 07460 /1903 10030 20015 60012 70086 333 10037 20013 60005 70012 86/17 88/23 90710 91107
AAXX 29061 02452 07338 /2004 10028 20024 60022 76186 333 10045 20028 60015 70042 88/08 90710 91111
AAXX 29061 02456 07678 /2004 10041 20015 39825 49867 56033 69912 70086 333 10045 20025 60005 70001 88/41 90710 91110
AAXX 29061 02469 05/81 /2007 10047 20012 69942 333 10047 20035 60005 70006 90710 91113
AAXX 29061 02498 05468 /2013 10056 20034 39888 49905 56035 69972 333 10059 20048 60005 70007 81/19 90710 91119
AAXX 29061 02518 46/// /2315 10066 20048 333 10070 20061 90710 91122
AAXX 29061 02520 17564 82317 10068 20036 39764 49829 56044 60012 70086 333 10070 20045 60005 70023 85/21 88/28 91022 90710 91122 90710 91217
AAXX 29061 02550 47358 /2111 10044 20044 39622 49892 56039 761// 8//// 333 10050 20034 81/09 83/11 85/14 88/16
AAXX 29061 02562 NIL
AAXX 29061 02563 07679 /1909 10050 20020 39882 49904 58051 69902 70060 333 10055 20041 60005 70000 88/34 90710 91114
AAXX 29061 02565 07563 /2007 10054 20019 39808 49926 58046 69902 70060 333 10063 20044 60005 70002 88/23 90710 91116
AAXX 29061 02589 05467 /2213 10058 20031 39915 49936 58036 69912 333 10064 20049 60005 70002 81/15 90710 91121
AAXX 29061 02590 45465 /2012 10048 20031 39892 49952 58038 8//// 333 10057 20044 81/13 83/38
AAXX 29061 02618 07/47 /2307 10050 20050 39775 49937 55023 60072 76286 333 10057 20043 60025 70117 90710 91117
AAXX 29061 02664 01465 82207 10055 20027 39916 49987 56034 69922 78062 885// 333 10062 20048 31/// 69905 70004 88618 91012 90710 91113 90710 91208
AAXX 29061 02679 07462 /2214 10050 20039 39937 49981 57036 60002 70010 333 10052 20047 60005 70000 85/11 86/42 90710 91120
AAXX 29061 01033 46/// /0906 10006 21044 39864 49895 56021 333 20001 91116
AAXX 29061 01406 46/// /3517 10070 20059 39781 49799 58011 333 20060 91122
AAXX 29061 01442 11989 01504 10047 21000 39586 49837 51027 60122 70161 333 20040 70175 91117
AAXX 29061 12120 12570 72309 10063 20038 30062 40069 56021 60002 8553/ 333 10064 20052 31004 79999 93000
AAXX 29061 12250 11459 82205 10044 20031 30038 40127 56010 69902 72122 885// 333 10063 20029 31002 70001 88610 93097
AAXX 29061 12295 11458 82304 10035 20023 39945 40131 57019 60002 71022 885// 333 10049 20010 31001 55019 88610 93000
AAXX 29061 12330 11460 82305 10045 20032 30036 40145 56007 69902 70262 875// 333 10045 20031 31002 70005 93097
AAXX 29061 12375 12570 72205 10042 20014 30018 40150 57015 60002 875// 333 10065 20042 31004 55035 91109 93000
AAXX 29061 12424 11580 82305 10045 20019 30025 40180 55005 69902 72122 875// 333 10045 20010 32102 55028 79999 93097
AAXX 29061 01132 16/// /0000 11041 21052 39414 49801 57009 60022 333 21042 4/062 70018 91102
AAXX 29061 01477 16/// /3002 10034 20029 60022 333 20021 4/015 70054 91107
AAXX 29061 01065 11689 60701 11130 21143 39773 49942 58015 60002 70281 86800 333 21130 70000 91104
AAXX 29061 01344 16/// ///// 10000 21007 60052 333 21001 4/070
AAXX 29061 01150 16/// /2202 11036 21063 60032 333 21053 70039 91105
AAXX 29061 01232 16/// /1702 10033 21007 39721 49799 53003 60002 333 20014 70000 91104
AAXX 29061 01253 16/// /0000 11022 21025 60012 333 21023 70010 91104
AAXX 29061 01254 16/// /1301 11011 21016 60002 333 21023 4/024 70000 91103
AAXX 29061 01291 16/// /0000 11012 21017 60082 333 21013 4/034 70083 91102
AAXX 29061 01470 16/// /0402 10036 20023 39684 49795 53023 69982 333 20036 4/003 70022 91111
AAXX 29061 12105 12669 82206 10057 20027 30043 40086 57016 60002 86507 333 10061 20045 31004 79999 91111 93000
AAXX 29061 12195 11450 82408 10031 20019 39880 40110 56017 69912 71022 885// 333 10043 20000 31000 70001 91113 93000
AAXX 29061 12235 11458 82208 10045 20038 39892 40103 57015 69902 71052 886// 333 10051 20038 31004 70002 88711 93097
AAXX 29061 12270 11439 82407 10030 20027 39946 40130 57010 69902 72122 885// 333 10053 20030 31003 79999 91111 93097
AAXX 29061 12280 11340 82205 10032 20026 39954 40112 57014 69902 75122 886// 333 10052 20023 31002 55040 79999 91112 93097
AAXX 29061 12300 11458 32705 10043 20028 30045 40136 56006 69902 71081 83500 333 10049 20024 31002 79999 91109 93097
AAXX 29061 12400 11565 82405 10045 20022 39922 40160 56002 69902 70282 875// 333 10046 20030 31002 55012 79999 91111 93097
AAXX 29061 12435 11458 82105 10031 20010 39990 40165 55008 69902 76122 885// 333 10037 20018 31000 79999 93097
AAXX 29061 12495 12460 82303 10011 20004 39883 40182 57007 60002 885// 333 10048 21001 31100 55026 91108 93000
AAXX 29061 12530 12662 71702 10012 20003 39986 40191 57005 60002 875// 333 10042 21010 31103 55014 93000
AAXX 29061 12570 12460 82305 10021 20009 39866 40191 57007 60002 885// 333 10044 21013 31102 70001 93000
AAXX 29061 12580 12470 62307 10020 20001 39940 40206 53003 60002 86500 333 10027 20015 31100 70001 86615 91113 93000
AAXX 29061 12160 11440 82005 10045 20036 30045 40098 57017 69902 72122 885// 333 10059 20043 31004 79999 93097
AAXX 29061 12205 12575 62207 10062 20034 30100 40108 57012 60002 86500 333 10067 20052 31004 91116 93000
AAXX 29061 12465 12572 72306 10027 20009 39930 40168 56009 60002 875// 333 10047 20024 31002 55/// 20108 79999 93000
AAXX 29061 12566 11556 72101 11004 21010 39902 40206 50001 60002 71011 875// 333 10009 21040 31106 93000
AAXX 29064 43466 21470 42905 10298 20228 30091 40103 70241 82236 333 59007 60007 70000 82818 83080
AAXX 29061 13173 32997 00901 11018 21023 30148 40253 55007 333 21018 34104 55000 70000
AAXX 29061 13180 32997 01102 11019 21022 30137 40253 58013 333 21025 34103 55000 70000
AAXX 29061 13266 31/92 92701 11014 21019 30148 40254 55009 74544 333 21017 31101 55000 70000
AAXX 29061 13369 31/91 90000 11153 21153 39023 48465 57011 74740 333 21160 3/118 43010 55027 70000
AAXX 29061 13383 32697 70000 11026 21033 30048 40262 56010 87500 333 21031 34106 55000 70000
AAXX 29061 13384 32997 01401 11037 21044 30104 40265 57012 333 21037 34107 55000 70000
AAXX 29061 13389 32998 10000 11036 21053 39976 40273 57011 81030 333 21036 34106 55000 70000
AAXX 29061 13477 NIL
BBXX DQVI 29063 99370 10040 41697 40212 10140 20123 40265 55010 72055 849// 22224 00177 20806 80130
AAXX 29061 13168 31693 80000 11006 21006 30143 40254 56010 74642 885// 333 21007 31101 55000 79999
AAXX 29061 13174 31695 81101 10015 20005 30149 40253 57009 71022 885// 333 20015 31001 55000 70001
AAXX 29061 13269 31996 00000 11057 21070 30028 40256 57009 71000 333 21057 34108 55004 70000
AAXX 29061 13274 31996 01702 11010 21025 30081 40249 57007 71000 333 21010 34105 55000 79999
AAXX 29061 13278 32995 02301 11032 21042 30023 40261 57007 333 21034 31106 55000 79999
AAXX 29061 13378 32999 01502 11056 21086 38380 48499 56011 333 21059 3/110 43012 55076 70000
AAXX 29061 13397 32497 40906 11054 21066 39719 40289 56009 81600 333 21054 3/106 41998 55000 70000 91113
AAXX 29061 13457 32970 00000 11015 21020 30243 40251 56009 333 21021 30103 55///
AAXX 29061 13481 NIL
AAXX 29064 65338 31940 52804 10247 20237 39929 40115 71022 80002 333 02400 20247 50424 55053 59006 85076
BBXX DCPC2 29064 99229 71312 41598 80517 10190 20142 40230 50000 70211 8677/ 22264 00200 20404 3//// 4//// 5//// 80160
AAXX 29064 16021 12984 23504 11020 21036 37980 48502 56010 60002 80008 333 21023 43008 55/// 2//// 92862
AAXX 29064 64600 31930 63202 10210 20201 39466 40110 71011 80002 333 01900 20200 55077 59003 86080
AAXX 29064 64601 31920 02806 10197 20111 39007 48519 70400 333 01600 20194 59002
AAXX 29064 64605 32958 00000 10160 20143 39366 40107 333 01200 20145 58000
AAXX 29064 64610 31940 60000 10150 20126 3//// 4//// 71011 80002 333 00900 20130 5//// 86080
AAXX 29064 64650 31915 12802 10204 20195 39699 40109 71000 80002 333 01800 20199 55091 59004 81080
AAXX 29064 64654 32970 00804 10236 20044 39539 40101 333 59011
AAXX 29064 64655 32960 00000 10144 20126 39462 40120 333 01100 20130 58004
AAXX 29064 64656 31930 30000 10190 20167 39562 40115 71000 80002 333 01500 20160 59002 83080
AAXX 29064 64659 NIL
AAXX 29064 64660 NIL
AAXX 29064 64662 32965 20000 10178 20165 39603 40102 80002 333 01500 20167 59004 82080
AAXX 29064 64665 32960 00000 10215 20200 3//// 4//// 333 00900 20190 5////
AAXX 29064 68024 32960 60205 10249 20197 48503 52009 81074 333 20213
AAXX 29064 48459 31558 20303 10325 20209 30112 40115 57037 70500 81101 333 59006
AAXX 29064 68398 16/// /3613 10204 20170 39375 48520 52006 60034 333 20175 91022 555 10282 20030 91015
AAXX 29064 68299 16/// /2006 10148 20110 38946 48533 52006 60114 333 20117 91009 555 10208 20118 91020
AAXX 29064 48360 32665 20602 10275 20164 39880 40139 57043 82100 333 59015
AAXX 29064 48386 31956 03102 10290 20186 30095 40138 57040 70500 333 59003
AAXX 29064 48440 32960 00506 10303 20200 30071 40120 57035 333 59002
AAXX 29061 01359 11456 80000 11020 21030 38900 49797 57004 60012 77172 8802/ 333 21025 48024 70017 91103
AAXX 29061 01400 41497 53014 10053 20019 40018 52008 78082 85900 22200 06080 10814 70068 333 91129
AAXX 29061 01300 41497 83317 10051 20034 49815 52024 76086 88/// 22200 02064 10913 70064 333 91124
AAXX 29061 01492 11358 80304 10039 20026 39652 49766 56038 69972 76062 887// 333 20039 70034 91113
AAXX 29064 48435 32565 10610 10275 20158 39694 40128 57033 81100 333 59011
AAXX 29064 48474 32560 73612 10307 20179 39995 40117 57035 82236 333 59006
AAXX 29061 02464 45581 /1806 10051 20013 39873 49890 56040 8//// 333 10051 20038 81/32 88/37
AAXX 29061 02500 07/50 /2518 10068 20037 39741 49782 55028 60052 76186 333 10075 20049 60015 70077 90710 91130
AAXX 29061 02513 07/58 /2107 10067 20047 39886 49890 55011 60022 78186 333 10070 20059 69905 70058 90710 91114
AAXX 29061 02615 07459 /2415 10057 20040 30009 40012 56018 69902 78186 333 10069 20057 69905 70000 87/14 90710 91122
AAXX 29061 02635 07/63 /2406 10057 20040 69912 72386 333 10066 20054 69915 70008 90710 91117
AAXX 29061 33562 32597 61605 11002 21014 39862 40234 57016 84530 333 21036 84622
BBXX PCEO 29063 99358 70315 41698 22504 10200 20153 40324 54000 7//// 8/5// 22254 04192 20701 326// 41003 5//// 80170
AAXX 29061 33088 31595 82204 10002 21001 30003 40199 57015 71042 885// 333 21027
AAXX 29061 33177 32565 82302 10008 21012 39958 40201 57013 885// 333 21004
AAXX 29061 33261 31996 21802 11028 21035 30059 40249 57013 71000 80001 333 21032
AAXX 29061 33275 31/93 92102 11044 21044 30034 40269 57002 74742 333 21047
AAXX 29061 33301 31295 81602 10001 21002 39917 40206 56016 71042 886// 333 21015 88703
AAXX 29061 33325 31996 71702 11009 21016 39954 40230 57012 71011 87030 333 21018
AAXX 29061 33377 31/07 91801 11027 21027 30066 40268 57009 74941 333 21031
AAXX 29061 33415 31294 82003 10014 20011 39802 40209 57012 71042 886// 333 20008 88705
AAXX 29061 33429 31/93 91705 10004 20004 39781 40215 57016 74542 333 21016 93400
AAXX 29061 33466 31/08 91804 11017 21016 30064 40259 57008 74941 333 21025
AAXX 29061 33526 31/00 90000 11005 21008 39860 40210 57012 74744 333 21006 93401
AAXX 29061 33562 NIL
AAXX 29061 33614 31995 01501 11032 21039 30169 40279 57004 71000 333 21034
AAXX 29061 33761 31/05 91803 11025 21025 30029 40262 57017 74941 333 21034
AAXX 29061 33902 31993 73601 11047 21047 30212 40281 57007 74441 80005 333 21049
AAXX 29061 33983 32997 00000 11028 21048 30238 40301 53002 333 21030
AAXX 29061 34415 32970 00000 11042 21051 30190 40292 52005 333 21048
AAXX 29061 34523 32997 00000 11053 21067 30214 40294 52012 333 21053
AAXX 29061 34712 32962 03602 11031 21035 30211 40301 53005 333 21032
AAXX 29063 61701 32960 00508 10205 20060 40143 80000 333 20145 50401 55084 59003
AAXX 29063 61705 NIL
AAXX 29063 61707 NIL
AAXX 29063 61711 NIL
AAXX 29063 61712 32960 30905 10180 20056 4//// 80002 333 20150 50451 55070 5//// 83070
AAXX 29063 61717 NIL
AAXX 29063 61720 NIL
AAXX 29063 61721 NIL
AAXX 29063 61722 NIL
AAXX 29063 61731 NIL
AAXX 29063 61733 NIL
BBXX A8QJ7 29064 99477 70064 41/98 23008 10100 20056 40370 58015 7//00 82/// 22212 2//// 3//// 4//// 5//// 80080
BBXX PHQX 29063 99262 70440 41598 20208 10220 20190 40252 56008 70200 82105 22254 20201 332// 40806 5//// 80200
AAXX 29064 48350 32565 22002 10282 20185 39842 40139 57038 82100 333 59014
AAXX 29061 14015 11215 80401 11006 21009 39881 40254 55003 60002 71022 886// 333 21007 31101 55000 70000 88705 555 20017 30023
AAXX 29061 26313 11/97 62405 10059 20040 49997 57029 69972 72582 86900 333 20030 91011 91112
AAXX 29061 02947 47/70 72103 10020 20014 49919 57031 70088 87/// 90551 333 10020 21029 3////
AAXX 29061 02947 47/70 72103 10020 20014 49919 57031 70088 87/// 90551 333 10020 21029 3////
AAXX 29061 91925 06/// /0205 10237 20214 30077 40138 51020 60031 333 55071 69947 90710 91109 555 69925 11024 58000
AAXX 29061 91929 04572 /0216 10277 20233 30107 40110 52020 69902 700// 333 10302 20273 55/// 60007 79999 90710 91122 555 60005
AAXX 29061 91938 01565 70711 10265 20221 30118 40120 52017 60042 78086 84832 333 10300 20261 31/// 55093 60037 70035 82820 86080 90710 91123 555 69905 10624 59006
AAXX 29061 91943 36/// /0613 10266 20207 30135 40137 51020 333 20266 58006= 91944 06/// /0812 10266 20209 30154 40157 52016 60002 333 10283 20265 55114 60007 70022 90710 91118 555 60005
AAXX 29061 91948 06/// /3602 10240 20195 30103 40206 52022 60001 333 55104 60007 90710 91107 555 60005 10409 58013
AAXX 29061 91954 06/// /3516 10268 20246 30104 40107 51012 69981 333 55/// 69927 555 59009
AAXX 29061 91958 06/// /0308 10261 20230 30132 40134 51014 60001 333 55000 60007 90710 91127 555 60005 13527 59007
AAXX 29061 91945 36/// /0116 10274 20228 30142 40147 53014 555 58001 69924
AAXX 29064 89564 41781 81213 10014 21053 39839 49859 56009 70222 8351/
AAXX 29064 89570 46/// /2102 10025 21074 39136 56027
AAXX 29064 89571 41975 12411 10011 21039 39767 49795 56033 70111 81030
AAXX 29064 89573 NIL
AAXX 29064 89610 NIL
AAXX 29064 89611 41480 40320 11008 21047 39688 49739 53023 70111 84500
AAXX 29064 89614 NIL
AAXX 29064 89615 46/// /0217 11022 21089 38853 53024
AAXX 29064 89807 NIL
AAXX 29064 89809 46/// /0421 11035 21049 39293 51042
AAXX 29064 94500 NIL
AAXX 29064 94510 46/// /0908 10318 20087 39720 40058
AAXX 29064 94515 46/// /1711 10318 20121 39715 40055
AAXX 29064 94552 46/// /0810 10277 20136 39619 40075
AAXX 29064 94578 46/// /1211 10258 20150 30084 40095
AAXX 29064 94584 46/// /1517 10246 20188 39984 40092
AAXX 29064 94601 46/// /2808 10261 20203 30013 40030
AAXX 29064 94610 46/// /2709 10346 20096 30001 40024
AAXX 29064 94637 46/// /3611 10327 20072 39648 40063
AAXX 29064 94638 46/// /1415 10294 20154 30034 40065
AAXX 29064 94642 NIL
AAXX 29064 94643 NIL
AAXX 29064 94647 46/// /1213 10218 20177 30003 40122
AAXX 29064 94651 46/// /1419 10262 20162 30045 40121
AAXX 29064 94653 46/// /1719 10272 20126 30107 40125
AAXX 29064 94659 46/// /1407 10331 21060 39927 40118
AAXX 29064 94672 46/// /2216 10264 20110 30142 40152
AAXX 29064 94691 46/// /1914 10323 21061 39794 40114
AAXX 29064 94693 46/// /1609 10312 21054 30065 40126
AAXX 29064 94700 NIL
AAXX 29064 94703 46/// /1108 10334 20088 39960 40082
AAXX 29064 94710 46/// /1708 10317 20115 39843 40090
AAXX 29064 94729 46/// /1109 10231 20098 39278 40111
AAXX 29064 94750 46/// /1711 10216 20051 30031 40154
AAXX 29064 94767 46/// /1715 10214 20138 30148 40154
AAXX 29064 94776 46/// /1415 10227 20135 30137 40147
AAXX 29064 94791 NIL
AAXX 29064 94802 46/// /1414 10327 20186 39956 40036
AAXX 29064 94804 46/// /1713 10210 20146 30135 40173
AAXX 29064 94807 NIL
AAXX 29064 94821 46/// /1814 10215 20108 30099 40181
AAXX 29064 94842 46/// /1506 10188 20113 30095 40194
AAXX 29064 94847 NIL
AAXX 29064 94850 46/// /2114 10182 20101 30143 40189
AAXX 29064 94865 46/// /1714 10195 20127 30155 40179
AAXX 29064 94866 46/// /1814 10200 20119 30036 40175
AAXX 29064 94875 46/// /2013 10307 20066 39991 40124
AAXX 29064 94299 46/// /2703 10301 20238 30043 40053
AAXX 29064 94300 46/// /2413 10265 20176 30065 40075
AAXX 29064 94302 46/// /2416 10355 20134 30057 40063
AAXX 29064 94312 46/// /3116 10325 20230 30042 40051
AAXX 29064 94313 NIL
AAXX 29064 94317 46/// /3612 10392 20088 39444 40011
AAXX 29064 94319 46/// /2910 10402 20176 39703 40024
AAXX 29064 94324 NIL
AAXX 29064 94326 46/// /1710 10354 21035 39459 40058
AAXX 29064 94327 46/// /1112 10358 21006 39689 40052
AAXX 29064 94332 46/// /1509 10362 20066 39641 40015
AAXX 29064 94333 NIL
AAXX 29064 94341 46/// /0707 10349 20147 39800 40028
AAXX 29064 94346 NIL
AAXX 29064 94363 46/// /0508 10318 20169 39841 40053
AAXX 29064 94366 NIL
AAXX 29064 94367 46/// /1713 10220 20214 30038 40079
AAXX 29064 94374 46/// /0810 10280 20190 30062 40078
AAXX 29064 94388 46/// /1315 10250 20204 30082 40087
AAXX 29064 94393 46/// /1520 10241 30060 40072 53010
AAXX 29064 94394 46/// /1615 10247 30074 40082 53007
AAXX 29064 94403 46/// /2715 10327 20150 39980 40021
AAXX 29064 94429 46/// /1115 10352 20134 39572 40022
AAXX 29064 94430 46/// /2913 10392 21003 39445 40010
AAXX 29064 94449 46/// /0510 10345 20050 39546 40062
AAXX 29064 94451 NIL
AAXX 29064 94461 NIL
AAXX 29064 94462 46/// /1308 10349 20001 39523 40063
AAXX 29064 94477 NIL
AAXX 29064 94488 NIL
AAXX 29064 89564 41781 81213 10014 21053 39839 49859 56009 70222 8351/
AAXX 29064 89570 46/// /2102 10025 21074 39136 56027
AAXX 29064 89571 41975 12411 10011 21039 39767 49795 56033 70111 81030
AAXX 29064 89573 NIL
AAXX 29064 89610 NIL
AAXX 29064 89611 41480 40320 11008 21047 39688 49739 53023 70111 84500
AAXX 29064 89614 NIL
AAXX 29064 89615 46/// /0217 11022 21089 38853 53024
AAXX 29064 89807 NIL
AAXX 29064 89809 46/// /0421 11035 21049 39293 51042
AAXX 29064 94102 46/// /3015 10310 20273 30040 40049
AAXX 29064 94103 NIL
AAXX 29064 94120 46/// /3010 10339 20219 30002 40042
AAXX 29064 94122 46/// /2108 10319 20252 30040 40048
AAXX 29064 94131 46/// /0205 10341 20220 39884 40034
AAXX 29064 94132 NIL
AAXX 29064 94147 NIL
AAXX 29064 94150 46/// /3207 10291 20256 39970 40029
AAXX 29064 94151 46/// /2008 10267 20242 30008 4////
AAXX 29064 94170 46/// /3411 10277 20248 39991 40013
AAXX 29064 94200 NIL
AAXX 29064 94203 46/// /2813 10323 20232 30045 40055
AAXX 29064 94206 46/// /0901 10354 2//// 39908 40035
AAXX 29064 94207 46/// /2715 10288 30047 40055 56010
AAXX 29064 94211 NIL
AAXX 29064 94212 46/// /0604 10317 20201 39579 40040
AAXX 29064 94216 46/// /1706 10363 20207 39985 40035
AAXX 29064 94236 NIL
AAXX 29064 94238 46/// /1713 10362 21001 39620 40032
AAXX 29064 94248 NIL
AAXX 29064 94255 46/// /1509 10368 20078 39768 40023
AAXX 29064 94268 46/// /1108 10246 20236 30013 40025
AAXX 29064 94287 46/// /1107 10260 20238 30045 40054
AAXX 29064 94290 NIL
AAXX 29064 94294 46/// /0207 10273 20201 30054 40064
AAXX 29064 94296 35/// /0000 10278 30039 40049 57004
AAXX 29064 94298 46/// /1213 10261 30051 40057 55003
AAXX 29064 95641 NIL
BBXX FHZI 29054 99666 31400 46/// /2205 10028 20001 39744 49755 52017 22200 05013 85017
AAXX 29064 94893 NIL
AAXX 29064 94907 46/// /1213 10212 20121 30160 40170
AAXX 29064 94910 46/// /1705 10286 20096 39863 40108
AAXX 29064 94926 46/// /0512 10247 20056 39464 40120
AAXX 29064 94935 46/// /2112 10219 20138 30134 40160
AAXX 29064 94954 46/// /2123 10170 20109 30079 40190
AAXX 29064 94956 46/// /2314 10183 20096 30168 40195
AAXX 29064 94975 46/// /1715 10171 20096 30152 40185
AAXX 29064 94983 NIL
AAXX 29064 94995 46/// /2013 10217 20173 30052 40060
AAXX 29064 94996 46/// /3517 10218 20190 39877 40004
AAXX 29064 94997 NIL
AAXX 29064 94998 46/// /2424 10059 20024 39953 49963
AAXX 29064 95111 46/// /2905 10335 20244 30003 40039
AAXX 29064 95205 46/// /1710 10381 20190 30029 40036
AAXX 29064 95322 NIL
AAXX 29064 95448 46/// /0809 10360 20062 39477 40023
AAXX 29064 95458 46/// /1511 10348 21080 39846 40100
AAXX 29064 95480 46/// /1310 10360 21018 30042 40100
AAXX 29064 95481 46/// /1612 10363 20035 30031 40075
AAXX 29064 95482 46/// /1610 10374 20020 30002 40056
AAXX 29064 95485 46/// /1611 10348 2//// 39880 40078
AAXX 29064 95492 46/// /1108 10351 20055 39919 40069
AAXX 29064 95527 46/// /2009 10308 20120 39826 40073
AAXX 29064 95634 46/// /3614 10349 20100 39650 40040
AAXX 29064 95637 46/// /0408 10356 20356 39715 40040
AAXX 29064 95646 46/// /0908 10361 20044 39913 40096
AAXX 29064 95666 NIL
AAXX 29064 95719 46/// /1509 10281 20112 39782 40105
AAXX 29064 95762 46/// /1708 10270 20098 39646 40093
AAXX 29064 95826 NIL
AAXX 29064 95839 46/// /1810 10301 20047 39979 40136
AAXX 29064 95864 NIL
AAXX 29064 95909 NIL
AAXX 29064 95954 NIL
AAXX 29064 95966 46/// /3315 10205 20097 39972 40171
AAXX 29064 96995 46/// /2708 10265 20245 39801 40095
AAXX 29064 96996 41465 61604 10284 20245 30099 40103 56004 71411 85401
AAXX 29064 94893 NIL
AAXX 29064 94907 46/// /1213 10212 20121 30160 40170
AAXX 29064 94910 46/// /1705 10286 20096 39863 40108
AAXX 29064 94926 46/// /0512 10247 20056 39464 40120
AAXX 29064 94935 46/// /2112 10219 20138 30134 40160
AAXX 29064 94954 46/// /2123 10170 20109 30079 40190
AAXX 29064 94956 46/// /2314 10183 20096 30168 40195
AAXX 29064 94975 46/// /1715 10171 20096 30152 40185
AAXX 29064 94983 NIL
AAXX 29064 94995 46/// /2013 10217 20173 30052 40060
AAXX 29064 94996 46/// /3517 10218 20190 39877 40004
AAXX 29064 94997 NIL
AAXX 29064 94998 46/// /2424 10059 20024 39953 49963
AAXX 29064 95111 46/// /2905 10335 20244 30003 40039
AAXX 29064 95205 46/// /1710 10381 20190 30029 40036
AAXX 29064 95322 NIL
AAXX 29064 95448 46/// /0809 10360 20062 39477 40023
AAXX 29064 95458 46/// /1511 10348 21080 39846 40100
AAXX 29064 95480 46/// /1310 10360 21018 30042 40100
AAXX 29064 95481 46/// /1612 10363 20035 30031 40075
AAXX 29064 95482 46/// /1610 10374 20020 30002 40056
AAXX 29064 95485 46/// /1611 10348 2//// 39880 40078
AAXX 29064 95492 46/// /1108 10351 20055 39919 40069
AAXX 29064 95527 46/// /2009 10308 20120 39826 40073
AAXX 29064 95634 46/// /3614 10349 20100 39650 40040
AAXX 29064 95637 46/// /0408 10356 20356 39715 40040
AAXX 29064 95646 46/// /0908 10361 20044 39913 40096
AAXX 29064 95666 NIL
AAXX 29064 95719 46/// /1509 10281 20112 39782 40105
AAXX 29064 95762 46/// /1708 10270 20098 39646 40093
AAXX 29064 95826 NIL
AAXX 29064 95839 46/// /1810 10301 20047 39979 40136
AAXX 29064 95864 NIL
AAXX 29064 95909 NIL
AAXX 29064 95954 NIL
AAXX 29064 95966 46/// /3315 10205 20097 39972 40171
AAXX 29064 96995 46/// /2708 10265 20245 39801 40095
AAXX 29064 96996 41465 61604 10284 20245 30099 40103 56004 71411 85401
AAXX 29064 94102 46/// /3015 10310 20273 30040 40049
AAXX 29064 94103 NIL
AAXX 29064 94120 46/// /3010 10339 20219 30002 40042
AAXX 29064 94122 46/// /2108 10319 20252 30040 40048
AAXX 29064 94131 46/// /0205 10341 20220 39884 40034
AAXX 29064 94132 NIL
AAXX 29064 94147 NIL
AAXX 29064 94150 46/// /3207 10291 20256 39970 40029
AAXX 29064 94151 46/// /2008 10267 20242 30008 4////
AAXX 29064 94170 46/// /3411 10277 20248 39991 40013
AAXX 29064 94200 NIL
AAXX 29064 94203 46/// /2813 10323 20232 30045 40055
AAXX 29064 94206 46/// /0901 10354 2//// 39908 40035
AAXX 29064 94207 46/// /2715 10288 30047 40055 56010
AAXX 29064 94211 NIL
AAXX 29064 94212 46/// /0604 10317 20201 39579 40040
AAXX 29064 94216 46/// /1706 10363 20207 39985 40035
AAXX 29064 94236 NIL
AAXX 29064 94238 46/// /1713 10362 21001 39620 40032
AAXX 29064 94248 NIL
AAXX 29064 94255 46/// /1509 10368 20078 39768 40023
AAXX 29064 94268 46/// /1108 10246 20236 30013 40025
AAXX 29064 94287 46/// /1107 10260 20238 30045 40054
AAXX 29064 94290 NIL
AAXX 29064 94294 46/// /0207 10273 20201 30054 40064
AAXX 29064 94296 35/// /0000 10278 30039 40049 57004
AAXX 29064 94298 46/// /1213 10261 30051 40057 55003
AAXX 29064 95641 NIL
AAXX 29064 94299 46/// /2703 10301 20238 30043 40053
AAXX 29064 94300 46/// /2413 10265 20176 30065 40075
AAXX 29064 94302 46/// /2416 10355 20134 30057 40063
AAXX 29064 94312 46/// /3116 10325 20230 30042 40051
AAXX 29064 94313 NIL
AAXX 29064 94317 46/// /3612 10392 20088 39444 40011
AAXX 29064 94319 46/// /2910 10402 20176 39703 40024
AAXX 29064 94324 NIL
AAXX 29064 94326 46/// /1710 10354 21035 39459 40058
AAXX 29064 94327 46/// /1112 10358 21006 39689 40052
AAXX 29064 94332 46/// /1509 10362 20066 39641 40015
AAXX 29064 94333 NIL
AAXX 29064 94341 46/// /0707 10349 20147 39800 40028
AAXX 29064 94346 NIL
AAXX 29064 94363 46/// /0508 10318 20169 39841 40053
AAXX 29064 94366 NIL
AAXX 29064 94367 46/// /1713 10220 20214 30038 40079
AAXX 29064 94374 46/// /0810 10280 20190 30062 40078
AAXX 29064 94388 46/// /1315 10250 20204 30082 40087
AAXX 29064 94393 46/// /1520 10241 30060 40072 53010
AAXX 29064 94394 46/// /1615 10247 30074 40082 53007
AAXX 29064 94403 46/// /2715 10327 20150 39980 40021
AAXX 29064 94429 46/// /1115 10352 20134 39572 40022
AAXX 29064 94430 46/// /2913 10392 21003 39445 40010
AAXX 29064 94449 46/// /0510 10345 20050 39546 40062
AAXX 29064 94451 NIL
AAXX 29064 94461 NIL
AAXX 29064 94462 46/// /1308 10349 20001 39523 40063
AAXX 29064 94477 NIL
AAXX 29064 94488 NIL
AAXX 29064 40356 42960 01104 10020 21030 39247 48527 333 21020 59013 555 04410 50254
AAXX 29064 40357 42960 02804 10035 21020 39599 40260 333 20001 59014
AAXX 29064 40360 42960 00000 10020 21030 39640 40243 333 21012 59023
AAXX 29064 40361 42960 00905 10056 21040 39462 40259 333 20022 59015
AAXX 29064 40362 42960 00000 10040 21040 39727 40263 333 21009 58001
AAXX 29064 40373 42960 03002 10070 20000 39827 40258 333 20020 58009
AAXX 29064 40375 42960 20000 10060 21020 39319 40217 80002 333 20030 59030 82070
AAXX 29064 40377 42960 03105 10060 20010 39775 40272 333 20019 58012
AAXX 29064 40394 42960 02104 10060 21030 39091 48550 333 20002 59010 555 04410 50251
AAXX 29064 40400 42960 20404 10170 20070 30154 40182 80001 333 20150 59010 82070
AAXX 29064 40401 NIL
AAXX 29064 40405 42960 00905 10100 20020 39498 40258 333 20050 59003
AAXX 29064 40416 42960 02910 10130 20020 30210 40231 333 20080 58012
AAXX 29064 40417 42960 02811 10124 20000 30230 40245 333 20080 58008
AAXX 29064 40420 42960 03212 10133 20000 30038 40252 333 20082 58005
AAXX 29064 40430 42660 20209 10144 20000 39484 40215 81530 333 20124 58000 81645
AAXX 29064 40435 NIL
AAXX 29064 40437 42960 03103 10114 20020 39545 40268 333 20049 58003
AAXX 29064 40439 42960 20000 10166 20060 30150 40169 82040 333 20136 59006 82360
AAXX 29064 41241 NIL
AAXX 29064 41242 36/// /1910 10212 20104 30201 40225 333 0E019 20183 5////
AAXX 29064 41244 36/// /3403 10173 20090 39873 48531 333 0E013 20101 58013
AAXX 29064 41246 NIL
AAXX 29064 41251 36/// /1803 10116 20056 3//// 49908 333 0E007 20079 58011
AAXX 29064 41252 NIL
AAXX 29064 41253 36/// /0404 10192 20123 39839 40224 333 0E016 20145 58022
AAXX 29064 41254 36/// /3208 10141 21083 38198 48203 333 0E004 20061 58026
AAXX 29064 41255 36/// /1201 10199 20143 39674 40231 333 0E018 20145 58020
AAXX 29064 41256 32560 52608 10224 20145 30204 40214 83430 333 20194 58020 83830 83360
AAXX 29064 41257 NIL
AAXX 29064 41258 NIL
AAXX 29064 41259 NIL
AAXX 29064 41262 NIL
AAXX 29064 41263 36/// /3302 10184 20117 39530 40224 333 0E013 20129 58019
AAXX 29064 41264 NIL
AAXX 29064 41265 NIL
AAXX 29064 41267 35/// /3408 10242 20146 30191 40206 333 0E022 20223 58019
AAXX 29064 41268 32560 43506 10248 20157 30189 40205 84500 333 20193 3/021 58020 84625
AAXX 29064 41270 36/70 /0208 10249 20155 30150 40162 333 0E019 20179 58018
AAXX 29064 41275 NIL
AAXX 29064 41287 NIL
AAXX 29064 41288 31458 23008 10194 20134 30190 40212 70500 82600 333 20184 58024 82610
AAXX 29064 41290 NIL
AAXX 29064 41295 36/// /3021 10180 20110 30027 40209 333 0E016 20124 58011
AAXX 29064 41304 NIL
AAXX 29064 41312 36/// /0903 10262 20080 30159 40199 333 0E/// 20219 58008
AAXX 29064 41314 32960 02807 10177 20008 39730 40245 333 20115 58014
AAXX 29064 41315 36/// /3412 10147 20025 39218 42854 333 0E/// 20118 58012
AAXX 29064 41316 32960 03411 10259 20026 30174 40200 333 20206 58008
BBXX V7EM3 29063 99075 31492 41497 50317 10315 20259 40050 56010 70322 85775 22224 00300 20803 80275
BBXX VRAE2 29064 99322 31720 41298 70218 10210 20194 40030 57011 70122 8365/ 22273 04210 20302 336// 40405 80200
BBXX 2ALD3 29063 99153 31528 41698 63615 10310 20271 40049 54000 75822 85272 22244 04290 20201 80280
BBXX ZCBU6 29044 99311 51542 41598 61928 10230 20158 40098 53008 70211 8447/ 22244 00249 20503 318// 40407 5//// 80186
BBXX VNSZ 29044 99386 31448 46/// /2112 10167 20114 30170 40196 52005 22276 04183 85136
BBXX 9HA2479 29044 99339 31512 46/// /1916 10214 20086 30128 40157 52003 22200 85141
BBXX VROB 29044 99273 31532 46/// /1413 10250 20155 30075 40100 57011 22200 04250 85188
BBXX C6FS9 29044 99343 31344 46/// /1618 10182 20155 30139 40176 57001 22233 04191 85165
BBXX VROC 29064 99281 31538 41598 41625 10245 20173 40110 52030 70211 8317/ 22243 20304 316// 40808 80200
BBXX VNAH 29044 99383 31416 46/// /1311 10158 20100 30173 40197 57006 22200 04194 85125
BBXX VNSZ 29054 99383 31447 46/// /1718 10172 20114 30165 40191 57003 22224 04188 85138
BBXX 9HA2479 29054 99339 31512 46/// /2019 10211 20086 30126 40155 52004 22200 85140
BBXX C6FS9 29054 99344 31345 46/// /1620 10181 20157 30137 40174 57006 22233 85165
BBXX VROB 29054 99273 31532 46/// /1417 10247 20152 30072 40097 57008 22200 04250 85185
BBXX 3ECI3 29064 99406 31743 41297 80910 10170 20153 40088 57020 70222 887// 22283 00160 20301 336// 40703 80160
BBXX VNAH 29054 99383 31416 46/// /1508 10164 20104 30173 40197 57006 22200 04195 85129
BBXX VJD2969 29044 99156 31363 41597 61806 10345 20205 40037 57011 70122 84460 22200 20000 80250
AAXX 29060 67693 32680 70304 10272 20211 39260 48515 81138 333 20229 5//// 55/// 59015 81830 87280 555 10334 7//00
AAXX 29064 85585 339// 92612 10166 20126 30168 40204 58004
AAXX 29064 85586 NIL
AAXX 29064 85629 NIL
AAXX 29064 85672 NIL
AAXX 29064 85682 12258 70902 10127 20121 40148 58003 60001 87600 333 56800 87706
AAXX 29064 85743 12960 09903 10108 20096 40173 52003 60001
AAXX 29064 85766 NIL
AAXX 29064 85782 NIL
AAXX 29064 85799 12960 09903 10105 20103 40194 56004 60001
AAXX 29064 85830 NIL
AAXX 29064 88963 31360 81820 10010 21035 39774 49804 52016 70232 885// 333 56799 85708 88625 90320 90655 92417 94072 95002 96115
AAXX 29064 88968 11315 83203 10004 21004 39764 49779 56008 60021 77174 887// 333 56799 88708 90022 90090 90122 90217 90296 90921 92414 92734 92801 93002 93101 94072 95082 96010 96128
AAXX 29064 89034 31358 72310 11050 21078 39412 49722 52008 71022 82670 333 56420 82708 87360 92426 92801
AAXX 29064 89053 32562 70000 10010 21013 39800 49813 52013 83570 333 56330 83625 87556 92407 94060 94467 95000
AAXX 29064 89055 NIL
AAXX 29064 89066 32970 42905 10011 21031 39784 49792 51004 84070 333 56060 84360 92407 94030
AAXX 29064 85406 12960 62602 10203 20145 40140 56022 60001 86020 333 56000 86465
AAXX 29064 85418 12960 41304 10196 20142 40145 50018 60001 84030 333 56000 84365
AAXX 29064 85432 NIL
AAXX 29064 85442 12570 70000 10186 20147 40143 58002 60001 87500 333 56400 87622
AAXX 29064 85467 NIL
AAXX 29064 85469 41565 71210 10213 20173 40198 52007 70282 87200 333 56300 87820
AAXX 29064 85488 12460 53003 10156 20126 40138 58013 60001 85500 333 56000 85617
AAXX 29064 85574 11957 01606 10157 20112 39588 40137 58003 60001 70500
AAXX 29064 85577 12960 02302 10169 20116 39536 40141 58006 60001
AAXX 29064 94500 NIL
AAXX 29064 94510 46/// /0908 10318 20087 39720 40058
AAXX 29064 94515 46/// /1711 10318 20121 39715 40055
AAXX 29064 94552 46/// /0810 10277 20136 39619 40075
AAXX 29064 94578 46/// /1211 10258 20150 30084 40095
AAXX 29064 94584 46/// /1517 10246 20188 39984 40092
AAXX 29064 94601 46/// /2808 10261 20203 30013 40030
AAXX 29064 94610 46/// /2709 10346 20096 30001 40024
AAXX 29064 94637 46/// /3611 10327 20072 39648 40063
AAXX 29064 94638 46/// /1415 10294 20154 30034 40065
AAXX 29064 94642 NIL
AAXX 29064 94643 NIL
AAXX 29064 94647 46/// /1213 10218 20177 30003 40122
AAXX 29064 94651 46/// /1419 10262 20162 30045 40121
AAXX 29064 94653 46/// /1719 10272 20126 30107 40125
AAXX 29064 94659 46/// /1407 10331 21060 39927 40118
AAXX 29064 94672 46/// /2216 10264 20110 30142 40152
AAXX 29064 94691 46/// /1914 10323 21061 39794 40114
AAXX 29064 94693 46/// /1609 10312 21054 30065 40126
AAXX 29064 94700 NIL
AAXX 29064 94703 46/// /1108 10334 20088 39960 40082
AAXX 29064 94710 46/// /1708 10317 20115 39843 40090
AAXX 29064 94729 46/// /1109 10231 20098 39278 40111
AAXX 29064 94750 46/// /1711 10216 20051 30031 40154
AAXX 29064 94767 46/// /1715 10214 20138 30148 40154
AAXX 29064 94776 46/// /1415 10227 20135 30137 40147
AAXX 29064 94791 NIL
AAXX 29064 94802 46/// /1414 10327 20186 39956 40036
AAXX 29064 94804 46/// /1713 10210 20146 30135 40173
AAXX 29064 94807 NIL
AAXX 29064 94821 46/// /1814 10215 20108 30099 40181
AAXX 29064 94842 46/// /1506 10188 20113 30095 40194
AAXX 29064 94847 NIL
AAXX 29064 94850 46/// /2114 10182 20101 30143 40189
AAXX 29064 94865 46/// /1714 10195 20127 30155 40179
AAXX 29064 94866 46/// /1814 10200 20119 30036 40175
AAXX 29064 94875 46/// /2013 10307 20066 39991 40124
AAXX 29063 NIL
AAXX 29064 85874 32982 /2508 10085 21010 39552 40178 58001
AAXX 29064 85934 12580 52713 10087 20045 40089 54000 60001 85500 333 56600 85620
AAXX 29064 85972 11496 83328 10072 20072 49979 52009 60001 75052 887// 333 56799 88618
AAXX 29064 89054 32465 80000 10006 21000 49803 52021 886// 333 56000 88613
AAXX 29064 89056 11530 70000 10004 21005 49804 52013 60001 71022 82530 333 56450 82620 87358
AAXX 29064 89057 12570 30000 10004 21004 49800 52015 60001 83500 333 56500 83620
AAXX 29064 89058 32880 72902 10003 21016 39779 49800 52014 8703/
AAXX 29064 89059 12860 61530 10010 21035 49785 52014 60001 86060 333 56060 86356
AAXX 29064 89251 32462 80903 10010 21019 49787 52014 8801/
AAXX 29064 91375 NIL
AAXX 29064 91519 NIL
AAXX 29064 91531 NIL
AAXX 29064 91532 45/// /0509 10283 20247 30064 40072 52007
AAXX 29064 91559 NIL
AAXX 29064 91611 NIL
AAXX 29064 91642 NIL
AAXX 29064 91679 NIL
AAXX 29064 91689 NIL
AAXX 29064 91756 NIL
AAXX 29064 91844 NIL
AAXX 29064 92036 NIL
AAXX 29064 93713 NIL
AAXX 29064 41024 42960 00000 10226 20150 30148 40168 333 20190 59001
AAXX 29064 41030 42960 00000 10216 20160 39889 40163 333 20200 58001
AAXX 29064 41036 42960 02304 10176 20020 38603 48552 333 20100 58001 555 04410 5 0169
AAXX 29064 41055 42960 00000 10186 20030 38409 48557 333 20120 58008 555 04410 50178
AAXX 29064 41061 42960 01116 10123 20060 39518 40243 333 20080 58004
AAXX 29064 41084 42960 00000 10134 20010 38914 48560 333 20072 58009 555 04410 50204
AAXX 29064 41112 42960 00000 10172 21060 37990 48562 333 20077 58001 555 04410 50203
AAXX 29064 41114 42960 02402 10147 20070 38023 48560 333 20050 58001 555 04410 50204
AAXX 29064 41128 42960 00000 10140 20010 38868 48566 333 20084 59011 555 04410 50223
AAXX 29064 41136 42960 01512 10179 20030 39393 40219 333 20080 59006
AAXX 29064 41140 42960 01805 10282 20220 30168 40173 333 20230 58004
AAXX 29064 94310 46/// /2915 10314 20219 30045 40056 57008
AAXX 29064 95283 46/// /0302 10251 20244 30047 40054
AAXX 29064 95287 41/98 71307 10255 20233 3//// 4//// 76166 8329/
AAXX 29064 95288 46/// /1510 10273 30037 40052 56011
AAXX 29064 95290 41/99 71513 10260 20238 3//// 4//// 76166 82238
AAXX 29064 95675 46/// /2119
AAXX 29064 95872 46/// /1818
AAXX 29064 95961 35/// /2507 10181 30156 40198 52008
BBXX V7EM3 29063 99075 31492 41497 50317 10315 20259 40050 56010 70322 85775 22224 00300 20803 80275
BBXX VRAE2 29064 99322 31720 41298 70218 10210 20194 40030 57011 70122 8365/ 22273 04210 20302 336// 40405 80200
BBXX 2ALD3 29063 99153 31528 41698 63615 10310 20271 40049 54000 75822 85272 22244 04290 20201 80280
BBXX ZCBU6 29044 99311 51542 41598 61928 10230 20158 40098 53008 70211 8447/ 22244 00249 20503 318// 40407 5//// 80186
BBXX VNSZ 29044 99386 31448 46/// /2112 10167 20114 30170 40196 52005 22276 04183 85136
BBXX 9HA2479 29044 99339 31512 46/// /1916 10214 20086 30128 40157 52003 22200 85141
BBXX VROB 29044 99273 31532 46/// /1413 10250 20155 30075 40100 57011 22200 04250 85188
BBXX C6FS9 29044 99343 31344 46/// /1618 10182 20155 30139 40176 57001 22233 04191 85165
BBXX VROC 29064 99281 31538 41598 41625 10245 20173 40110 52030 70211 8317/ 22243 20304 316// 40808 80200
BBXX VNAH 29044 99383 31416 46/// /1311 10158 20100 30173 40197 57006 22200 04194 85125
BBXX VNSZ 29054 99383 31447 46/// /1718 10172 20114 30165 40191 57003 22224 04188 85138
BBXX 9HA2479 29054 99339 31512 46/// /2019 10211 20086 30126 40155 52004 22200 85140
BBXX C6FS9 29054 99344 31345 46/// /1620 10181 20157 30137 40174 57006 22233 85165
BBXX VROB 29054 99273 31532 46/// /1417 10247 20152 30072 40097 57008 22200 04250 85185
BBXX 3ECI3 29064 99406 31743 41297 80910 10170 20153 40088 57020 70222 887// 22283 00160 20301 336// 40703 80160
BBXX VNAH 29054 99383 31416 46/// /1508 10164 20104 30173 40197 57006 22200 04195 85129
BBXX VJD2969 29044 99156 31363 41597 61806 10345 20205 40037 57011 70122 84460 22200 20000 80250
AAXX 29061 37395 32699 80602 10058 20034 30172 40315 57002 8252/ 333 20048
AAXX 29061 37409 11/91 92702 11027 21027 38830 48542 57010 60040 74574 333 21044 95080
AAXX 29061 37432 32997 00000 11070 21087 39037 48543 52015 333 21075
AAXX 29061 37514 32699 70000 11029 21036 39125 40329 53008 87500 333 21041
AAXX 29061 37545 32599 10907 10060 20006 39771 40293 52018 81100 555 20048 7000/
AAXX 29061 37621 32999 00000 10002 21057 39648 40313 52018 333 21025
AAXX 29061 37484 NIL
AAXX 29061 38141 12598 62905 10011 21021 30055 40216 52028 60010 86500 333 20003
AAXX 29061 38149 42998 02504 10026 21016 30157 40231 52034 60020 333 20027
AAXX 29061 38178 41497 82212 10027 21062 39924 40214 53008 75152 886// 333 21009
AAXX 29061 38262 11698 32705 10030 20001 30148 40230 52040 60040 70166 83200 333 20022
AAXX 29061 38264 11996 32806 10041 20004 30146 40242 53032 60040 71081 83030 333 20031
AAXX 29061 38396 11597 72306 10051 20010 30124 40250 52011 69902 78086 875// 333 20031 84925
AAXX 29061 38403 42697 72008 10040 21029 30111 40233 57006 76166 8872/ 333 20010
AAXX 29061 38413 42998 81804 10051 21046 39955 40248 57004 8807/ 333 20009
AAXX 29061 38457 11596 70000 10011 21009 39697 40301 57003 69952 71022 85530 333 21024
AAXX 29061 38462 12699 80000 11008 21043 38825 48559 54000 6003/ 8692/ 333 21066
AAXX 29061 38565 12698 61804 10054 21046 39686 40276 51004 69902 83970 333 21013
AAXX 29061 38579 32599 71502 10050 21029 39870 40294 52001 83971 333 20014
AAXX 29061 38583 32997 82002 10023 21002 39972 40302 53001 83041 333 21037
AAXX 29061 38611 11695 73501 10025 20012 39748 40334 57004 69902 71041 84570 333 21014 83246
AAXX 29061 38618 32697 81101 10015 20001 39605 40314 57002 8457/ 333 21001
AAXX 29061 38683 42997 81605 10022 20000 30009 40293 53005 8803/ 333 21002
AAXX 29061 38696 31699 61101 10012 21005 39425 40305 53001 70242 85530 333 21050
AAXX 29061 38812 42997 60000 10025 21011 39822 40287 53003 86030 333 21015
AAXX 29061 38927 32960 20403 10054 20014 39926 40310 58006 80001 333 21002
AAXX 29064 40550 35/61 /3507 10086 20003 40255 51015 333 55306 00305 10000 20941 30299 40945 51277 61240 55407 40642 90069 90401 91011 91111 91207 91303
AAXX 29064 40551 36/// /2812 10102 21006 333 90401 91015 91117 91213 91309
AAXX 29064 40552 35/69 /3217 10095 21008 40253 51013 333 55310 90069 90400 91019 91121 91217 91315
AAXX 29064 40553 35/64 /3309 10084 20000 40252 51014 333 55309 90069 90401 91011 91111 91209 91307
AAXX 29064 40568 36/// /3211 10098 20035 333 90401 91013 91113 91211 91309
AAXX 29064 40569 NIL
AAXX 29064 40570 35/69 /3209 10080 21016 40266 51009 333 55310 90069 90401 91011 91111 91209 91307
AAXX 29064 40571 NIL
AAXX 29064 40572 NIL
AAXX 29064 40573 36/// /3211 10088 21009 333 90400 91013 91113 91211 91309
AAXX 29064 40580 36/// /3105 10111 20015 333 553// 00253 10016 20798 30194 40950 51309 60992 55407 40605 90401 91011 91113 91205 91303
AAXX 29064 40581 36/// /3505 10111 20031 333 90400 91013 91119 91205 91303
AAXX 29064 40582 32960 03510 10104 20008 40253 51017 333 55310 00303 10000 20908 30308 41010 51301 61216 55407 40600 90401 91013 91113 91209 91307
AAXX 29064 40583 NIL
AAXX 29064 40585 36/// /3013 10109 20042 222// 1//// 3//// 4//// 70/// 333 90401 91017 91129 91213 91311
AAXX 29064 40586 36/// /2904 10108 21009 333 90401 91007 91115 91207 91305
AAXX 29064 40587 36/// /3112 10104 21011 333 553// 00368 10000 21050 30338 40944 51283 61388 55407 40712 90401 91017 91117 91211 91309
AAXX 29064 40588 35/61 /3312 10103 20040 40250 51018 333 55305 90069 90400 91013 91119 91215 91311
AAXX 29064 40589 NIL
AAXX 29064 40590 36/// /3213 10091 21013 333 90400 91015 91117 91213 91309
AAXX 29064 40591 NIL
AAXX 29064 40592 35/69 /3310 10115 21005 40253 51015 333 55310 00406 10000 21038 30264 40963 51324 61302 55407 40774 90069 90400 91015 91115 91209 91307
AAXX 29064 40593 36/// /3410 10119 20044 333 90401 91013 91117 91211 91309
AAXX 29064 40594 36/// /3307 10113 20000 333 90400 91013 91117 91207 91307
AAXX 29064 40596 46/// /3315 10140 20079 333 90400 91019 91121 91215 91313
AAXX 29064 16716 12970 00000 10024 20003 30236 40255 57006 60002 333 20020 30/// 55058 70000 555 10000 30082 20000 89052 99081 40000 47699 44130 50000 50016 70000 77/C/ 7/C//
AAXX 29061 06431 36/// /2405 10042 20024 30217 40229 50001 60002 333 20041 3/002 91108 91206
AAXX 29061 06432 35/62 /2305 10038 20014 30173 40252 51002 333 20038 3/002 81/74 91110 91207
AAXX 29061 06458 35566 /2307 10040 20017 30086 40244 50001 333 20039 3/002 81/30 91110 91207
AAXX 29061 06465 15667 /2405 10051 20015 30164 40232 50003 69922 333 20047 3/002 83/35 87/40 91110 91206
AAXX 29061 06496 15366 /2606 10012 21002 39554 40247 51007 69982 333 20012 3/001 81/09 83/15 85/19 91112 91207
AAXX 29061 06428 35063 02505 10042 20014 30191 40241 50001 333 20040 3/002 91110 91206
AAXX 29061 26666 11459 81803 11007 21022 39923 40142 57029 69902 76662 8872/ 333 21012 91110 93400 555 90012
BBXX PFBF 29063 99183 31790 41297 30904 10290 20277 40064 50002 70311 8348/ 22223 20304 310// 40406 5//// 80280
BBXX PCIM 29064 99030 11005 41/97 71404 10295 20226 40115 58010 70222 85778 22233 00281 20301 30000 80245
BBXX DGZT2 29063 99367 10005 41/98 /0215 10139 20076 40280 52005 70300 8//// 22264 04170 2//// 80105
BBXX PEBT 29063 99589 10186 41897 42130 10064 20009 49910 57040 7//00 82/45 22213 02050 20606 3//// 4//// 5//// 80040
AAXX 29060 67699 31570 72401 10281 20218 70522 81238 333 20201 5//// 55/// 81825 87275 555 10340 7//22
AAXX 29061 33924 31/93 91701 10004 20004 30271 40284 57006 74741 333 21011
AAXX 29064 78762 32970 01207 10198 20132 39105 40119 57009 333 10282 20198 30/// 54000
AAXX 29064 78866 01475 60914 10255 20194 30175 40180 57011 69931 70281 86400 333 58001 60007 83818 84635
AAXX 29064 78762 32970 01207 10198 20132 39105 40119 57009 333 10282 20198 30/// 54000
AAXX 29064 78866 01475 60914 10255 20194 30175 40180 57011 69931 70281 86400 333 58001 60007 83818 84635
AAXX 29061 01062 11975 00104 11141 21161 30000 40013 53006 69902 70230 333 21149 70001 91111
AAXX 29061 01205 46/// /1601 10052 20035 39757 49802 52012 333 20047 91106
BBXX 44139 29061 99442 70571 46/// /2412 10080 49931 52004 22200 00056 11106 70031 333 91214
AAXX 29061 26045 27334 82006 10029 20023 39966 49968 57030 74010 88/// 333 10030 20007 60007 88/08 91010 91114 555 1/002 20007 3/100 50017
AAXX 29061 26058 01369 82004 10026 20010 39978 49986 56040 69902 70222 886// 333 10026 20008 60007 88709 91011 91113 555 11001 20008 31101 50018 52000
BBXX 44139 29061 99442 70571 46/// /2412 10080 49931 52004 22200 00056 11106 70031 333 91214
BBXX 46035 29061 99571 71778 46/// /3209 1//// 40120 52011 90550 22200 10804 20804 300// 41101 70019 333 91211 555 11094 22100 30537 43112 60549 318094 323097 321061 320063 325069 307073 83311 90534
BBXX A8IM7 29064 99332 71569 41997 42218 10200 20179 40236 52018 70111 83059 22225 04210 20804 332// 41808 5//// 80186
BBXX A8UE5 29064 99542 71641 41497 23220 11020 21023 40015 54000 77077 81946 22224 04040 20401 3//// 4//// 5//// 81020
BBXX DGBE 29063 99493 71757 41/98 33617 10006 21088 40144 53030 77100 8/477 22224 00060 2//// 82025
BBXX DGDD 29061 99326 71544 41998 02410 10205 20167 40250 52020 70100 80000 22224 04200 21010 331// 41208 5//// 80180
BBXX DHEB 29063 99539 71609 41/98 52920 11025 21055 49932 51018 70272 85/// 22264 04050 2//// 3//// 4//// 5//// 81035
BBXX NWS0003 29064 99539 71665 43/// /0000 11038 21089 40035 5//// 7//// 8//// 222// 0//// 2//// 3//// 4//// 5//// 6//// 8//// ICE /////
BBXX WCX8883 29064 99418 71671 41498 73006 10100 20040 40140 52010 7//22 8721/ 22225 00100 20906 32830 40803 5//// 6//// 80070 ICE /////
BBXX WDB9950 29063 99544 71694 41398 73428 11030 21033 40070 51040 72272 8777/ 22264 00040 20405 331// 40809 5//// 6//// 81030 ICE /////
AAXX 29064 48601 11559 72007 10296 20238 30101 40105 6///1 70522 83842 333 82820 85364 87078
AAXX 29064 48615 11459 71804 10263 20234 30112 40118 69901 71562 83548 333 81710 83620 87272
AAXX 29064 48620 11465 72805 10300 20241 30096 40105 60001 70522 83942 333 81917 83820 87078
AAXX 29064 48647 11468 73506 10337 20234 30078 40102 60001 70522 82131 333 82818 87078
AAXX 29064 48657 11465 73410 10263 20228 30103 40121 69901 71562 84848 333 81819 83625 87276
AAXX 29064 48665 11568 70410 10296 20226 30103 40113 60001 70522 81142 333 81822 83364 87077
AAXX 29064 96413 11565 72704 10286 20247 30059 40085 6///1 71586 8457/ 333 84620 87365
AAXX 29064 96421 12480 72305 10292 20240 30042 40077 6///1 84131 333 84818 86365
AAXX 29064 96441 12480 73402 10303 20249 30048 40075 6///1 83231 333 83814 86365
AAXX 29064 96449 12480 72606 10304 20241 30058 40077 60001 83131 333 83814 83365 85080
AAXX 29064 96465 12478 73605 10313 20254 30044 40077 60001 81842 333 81810 87079
AAXX 29064 96471 12476 73405 10317 20262 30071 40074 60001 81848 333 81815 83364 87278
AAXX 29064 96481 11462 73604 10298 20256 30072 40091 60011 70362 82481 333 81817 84364 86080
AAXX 29064 96491 11463 70808 10297 20252 30087 40099 6///1 72162 83832 333 82815 83364 87078
AAXX 29064 60340 12965 02604 10028 20016 40318 57001 60024 333 20027
AAXX 29064 89002 42999 71306 11078 21095 39778 49831 52008 86031
AAXX 29061 01228 46/// /0605 10045 20022 39791 49798 53002 333 20038 91109
AAXX 29061 01340 16/// /2902 11014 21019 38951 49806 52013 60032 333 21015 70042 91114
AAXX 29061 01425 16/// /1705 10030 20007 39793 49872 51016 60332 333 20029 70556 91114
AAXX 29061 01156 16/// /0705 10000 21061 39834 49843 56019 60002 333 21006 70000 91112
AAXX 29061 01265 16/// /3401 10000 21009 39223 49792 56015 60012 333 21013 70012 91110
AAXX 29061 01273 16/// /0000 11005 21025 39601 49795 56011 69952 333 21019 91104
AAXX 29061 01375 16/// /1903 11029 21032 6//// 333 21034 91107
AAXX 29061 01440 46/// /2712 11027 21031 38560 49819 52018 333 21029 91125
AAXX 29061 01469 16/// /2902 10039 20016 39610 49776 56022 60002 333 20037 70011 91110
AAXX 29061 01065 11689 60701 11130 21143 39773 49942 58015 60002 70281 86800 333 21130 47024 70000 91104
AAXX 29061 01144 41886 80811 10003 21053 70322 84016 333 21001 91118
AAXX 29061 01436 11345 62824 10056 20028 60012 78082 84963 333 20052 70018 91133
AAXX 29061 01037 16/// /1102 11013 21054 39893 49899 57020 60002 333 21054 70000 91104
AAXX 29061 01092 46/// /3506 11012 21045 333 21024 91115
AAXX 29061 01114 16/// /0202 11011 21057 39792 49802 57014 60002 333 21028 70023 91107
AAXX 29061 01245 11680 52803 11014 21025 39101 49795 57004 60002 70320 85500 333 21015 47039 70000 91105
AAXX 29061 01329 11570 72603 10040 20024 39749 49809 50007 60132 70282 87800 333 20030 70200 91112
AAXX 29061 01337 16/// /0901 10021 20006 39745 49810 52014 60092 333 20021 70162 91106
AAXX 29061 01364 16/// /3001 11034 21041 38699 49800 50003 60022 333 21034 70024 91110
AAXX 29061 01374 11/12 92701 10002 20001 60022 77872 333 21002 44023 70063
AAXX 29061 01389 11710 83601 10002 21003 39493 49798 56031 60022 76876 8272/ 333 20001 43012 70087 91109
AAXX 29061 01135 16/// /0301 11030 21033 39657 49809 56010 60022 333 21033 4/211 70026 91103
AAXX 29061 01192 16/// /1404 11023 21088 60002 333 21048 4/018 70005 91111
AAXX 29061 01257 11470 51802 10012 21010 39636 49794 55008 60002 70221 82451 333 20002 70000 91106
AAXX 29061 01370 16/// /2801 11026 21030 38720 49873 56014 69932 333 21036 4/026 70011 91106
AAXX 29061 01419 16/// /2309 10023 20016 60252 333 20019 70326 91121
AAXX 29061 01455 16/// /2905 10056 21007 39507 49807 51044 60072 333 20034 70119 91113
AAXX 29061 01481 16/// /2505 10059 20041 39749 49780 55008 60072 333 20053 70149 91115
AAXX 29061 48900 32497 39903 10316 20194 30095 40105 57026 83800 333 59013 81894 83696
AAXX 29061 48918 32470 70204 10264 20203 30104 40115 58024 84808 222// 00255 2//01 333 59013 81894 83696 8729 9
AAXX 29061 48914 32698 70901 10291 20198 30110 40112 57027 85508 333 59002 85696 87299
AAXX 29061 48917 32598 60503 10310 20187 30122 40128 57018 82208 222// 00292 2//00 333 58000 82895 86299
AAXX 29061 48919 01598 80511 10258 20238 30081 40103 58020 60023 70382 8322/ 22200 02260 2//04 333 59008 6002 1 82895 88499
AAXX 29061 48916 32998 70201 10290 20215 30070 40116 58018 80008 333 59002 87299
AAXX 29064 41265 36/// /9902 10199 20168 39668 40223 333 0E021 20146 58020
AAXX 29061 48892 12598 60505 10307 20258 30101 40106 57016 69923 82108 333 58000 82895 86299
AAXX 29061 48820 32598 70901 10216 20159 30169 40177 57030 878// 333 59027 86895 87697
AAXX 29061 48852 01598 73603 10234 20197 30155 40165 57035 69923 70382 872// 333 59023 69921 87895
AAXX 29061 48823 32598 70901 10230 20155 30168 40171 57034 888// 333 59029 82895 86696
AAXX 29061 48855 32560 73402 10249 20190 30156 40164 57034 83808 333 59018 82895 87299
AAXX 29061 48848 32565 73602 10209 20177 30166 40174 57031 878// 333 59016 82895 87697
AAXX 29061 48887 32770 71603 10271 20211 30112 40118 58012 875// 333 59007 87697
AAXX 29061 48870 32474 73605 10245 20189 30138 40145 58026 878// 333 59013 83894 87696
AAXX 29061 48877 32570 73404 10252 20198 30136 40141 57021 878// 333 59010 83895 86697
AAXX 29061 48920 01497 80208 10262 20245 30089 40092 58020 60923 72162 8372/ 222// 00276 2//03 333 59003 6053 1 83894 88499
AAXX 29061 26633 11458 81903 10031 20018 39956 40087 57027 69962 71065 886// 333 20006 32/// 88712 91004 91108 555 53008 7996/
AAXX 29061 48803 32570 21403 10222 20114 30052 40166 57041 82200 333 59035 82895
AAXX 29064 91753 01465 82402 10268 20248 30037 40069 53009 60212 70386 8483/ 333 10279 20238 31023 55000 60007 70259 82816 83657 87365 90710 91107 555 60005
AAXX 29064 91754 NIL
AAXX 29064 71110 16/// /1014 10025 20025 39832 49891 58072 60001 333 10031 21033 70000 555 31120 40061
AAXX 29064 71112 17/// ///// 60051 7//4/ 333 70080
AAXX 29064 71141 16/// /2004 11381 21421 30075 40103 53006 60001 333 11319 21388 70000
AAXX 29064 71452 46/// /2503 11041 21051 39341 40055 53002 6///1 333 11027 21136 7//// 555 10040 32726 40051
AAXX 29064 71453 16/// /2406 10041 21019 39098 49990 58020 60001 333 10110 21060 70003 555 32838 40183
AAXX 29064 71455 46/// /1805 11068 21070 39223 40023 58018 6///1 333 11041 21100 7//// 555 30917 40191
AAXX 29064 71470 16/// /0610 11248 21273 39385 40028 51002 60001 333 11227 21256 70000
AAXX 29064 71476 17/// /2425 39932 53056 60031 7//4/ 333 70328 555 30552 40083
AAXX 29064 71478 16/// /2935 10061 20023 39905 40040 53061 60001 333 10087 20058 7////
AAXX 29064 71479 16/// /2922 10064 20034 39931 40050 53060 60001 333 10094 20056 7////
AAXX 29064 71480 16/// /1206 11222 21253 39850 49976 56015 60001 333 11222 21352 70000
AAXX 29064 71482 46/// /2115 10060 39957 49995 51043 6///1 333 10091 20014 7//// 555 32248 40153
AAXX 29064 71484 16/// /2620 10054 20015 39951 49969 52059 60001 333 10083 20034 70000 555 31838 40173
AAXX 29064 71487 16/// /1403 11062 21069 39168 40032 56008 60001 333 10048 21080 70018 555 32826 40221
AAXX 29064 71492 46/// ///18 11223 21272 39315 40023 51002 6///1 333 11177 21239 7////
AAXX 29064 71956 16/// /0706 11151 21174 39916 40157 57008 60001 333 11120 21180 70000 555 33524 40071
AAXX 29064 71959 17/// ///// 10065 20054 60101 7//4/ 333 10083 20010 70134
AAXX 29064 71970 16/// /1904 11041 21056 39410 49996 58018 60001 333 11035 21121 70000 555 32720 40071
AAXX 29064 71977 46/// /2901 11281 21281 39245 49981 57002 6///1 333 11215 21316 7////
AAXX 29064 71978 46/// /2103 11324 21358 39666 49994 51004 6///1 333 11243 21326 7////
AAXX 29064 71989 16/// /0110 11304 21334 30190 40207 53008 60001 333 11250 21307 70000 555 30119 40141
AAXX 29064 71999 46/// ///// 10059 6///1 333 10084 20024 7////
AAXX 29064 71612 16/// /2405 11146 21204 39993 40086 51025 60001 333 10028 21146 70032
AAXX 29064 71622 16/// ///// 11143 21156 39813 40162 57010 60001 333 11015 21154 70012 555 10080 20012
AAXX 29064 71638 17/// /0403 10064 20054 39908 40011 53026 60071 7//4/ 333 10112 20061 70088 555 31227 40011
AAXX 29064 71639 11974 03302 11138 21167 39915 40165 55000 69901 70177 333 10010 21139 70006 90940 93101 555 10010 20006 33132 40071
AAXX 29064 71551 16/// /1708 11045 21045 39364 40025 58014 60001 333 11028 21096 70013
AAXX 29064 71552 46/// /0301 11065 21082 6///1 333 11065 21142 7//// 555 31522 40141
AAXX 29064 71571 16/// /1812 11013 21031 38719 49895 56016 60001 333 11011 21082 70000 555 31419 40161
AAXX 29064 71575 16/// /2607 11175 21200 30089 40156 53007 60001 333 11169 21258 70000
AAXX 29064 71577 46/// /3101 11064 21074 6///1 333 11064 21126 7//// 555 31722 40141
AAXX 29064 71579 16/// /0201 11075 21089 39753 40040 53010 60001 333 11065 21113 70000
AAXX 29064 71580 11574 51406 11344 21378 30087 40125 53008 69901 77177 85500 333 11289 21362 48030 79999 90962 555 19999 29999
AAXX 29064 71581 16/// /0000 11254 21279 39642 40148 51002 60001 333 11059 70003
AAXX 29064 71585 16/// /1207 11071 21079 39499 49961 56015 60001 333 7//// 555 10010
AAXX 29064 71599 17/// /2803 11008 21012 39705 49902 53015 69961 7//4/ 333 10103 21008 70087 555 31927 40151
AAXX 29064 71015 16/// ///// 10037 60001 333 10070 21017 70000
AAXX 29064 71017 16/// /3005 11355 21392 30109 40125 53014 60001 333 11312 21360 70000
AAXX 29064 71018 16/// ///02 11278 21306 30028 40119 53014 60001 333 11255 21297 70000
AAXX 29064 71019 46/// /2713 11087 21088 39570 49867 51012 6///1 333 10066 21088 7//// 555 31432 40092
AAXX 29064 71020 46/// /0102 11216 21243 39703 49966 58008 6///1 333 11215 21300 7//// 555 10020
AAXX 29064 71021 46/// /0000 11204 21227 39603 49965 58009 6///1 333 11204 21291 7////
AAXX 29064 71063 16/// /2713 11172 21202 30026 40130 53013 60001 333 10006 21172 70006 555 10020 20006 32827 40111
AAXX 29064 71868 16/// /1902 11109 21127 39594 40040 57004 60001 333 11062 21136 70000
AAXX 29064 71501 16/// /1006 11257 21285 30008 40010 51003 60001 333 11222 21286 70000
AAXX 29064 71511 16/// /1506 11050 21057 39398 40039 56009 60001 333 11036 21101 70000
AAXX 29064 71514 46/// /1603 11049 21063 39349 40052 55001 6///1 333 11038 21129 7//// 555 10030
AAXX 29064 71522 46/// /3007 11161 21199 39437 49928 51003 6///1 333 11017 21161 70000
AAXX 29064 71920 17/// /2726 10024 20021 39924 49930 53019 60021 7//4/ 333 10110 20019 70053 555 32543 40043
AAXX 29064 71927 17/// /2204 10087 20054 39966 40022 51030 60051 7//4/ 333 10135 20053 70076
AAXX 29064 71750 16/// /0504 11136 21161 39871 40114 58020 60001 333 11132 21268 70000 555 30519 40071
AAXX 29064 71752 16/// /2702 11087 21117 39942 40165 57006 60001 333 10015 21096 70000 555 10010
AAXX 29064 71756 17/// /3302 10023 20016 38910 49981 53030 60071 7//4/ 333 10060 21003 70109 555 32320 40101
AAXX 29064 71758 17/// /2318 10062 20049 39742 49816 55001 60251 7//4/ 333 10073 21015 70270 555 31337 40013
AAXX 29064 71766 17/// /2906 10094 20041 39940 40010 53035 60041 7//4/ 333 10132 20061 70074 555 31520 40191
AAXX 29064 71771 46/// /2808 10040 20003 39963 49983 53062 6///1 333 10091 20037 7////
AAXX 29064 71432 16/// /2914 11055 21103 30064 40163 58004 60001 333 10036 21061 70000 555 32941 40103
AAXX 29064 71441 46/// /3505 11071 21088 39724 40035 53016 6///1 333 11028 21126 7//// 555 33137 40063
AAXX 29064 71472 17/// /2926 10043 21005 69961 7//4/ 333 10078 20030 70042 555 32044 40153
AAXX 29064 71137 16/// /0402 11002 21021 39085 40018 58013 60001 333 10047 21113 70005 555 32728 40202
AAXX 29064 71188 11120 83203 10022 20013 39703 49745 56040 69941 75165 887// 333 10058 21039 43009 70270 90917 555 10000 20000 31629 40151
AAXX 29064 71837 16/// ///// 10066 60001 333 10097 20011 70000
AAXX 29064 71839 17/// ///// 10069 69931 7//4/ 333 10101 21009 70003
AAXX 29064 71840 46/// /3403 11072 21080 6///1 333 11019 21162 7//// 555 32619 40181
AAXX 29064 71849 16/// /0103 11076 21084 39746 40048 53010 60001 333 11067 21118 70000 555 31722 40131
AAXX 29064 71726 16/// /2909 11234 21262 39510 40073 51015 60001 333 11023 21235 70046 555 33122 40221
AAXX 29064 71807 16/// /1710 10034 20026 39920 49938 55039 60001 333 10041 21035 70000
AAXX 29064 71402 46/// /0913 10004 21003 39787 49899 56088 6///1 333 10021 21013 7//// 555 31221 40001
AAXX 29064 71407 16/// /0000 11391 21437 30110 40132 52008 60001 333 11295 21391 70000
AAXX 29064 71434 16/// /1807 11281 21310 30089 40159 58003 60001 333 11235 70000
AAXX 29064 71442 16/// /2903 11090 21098 39735 40054 53003 60001 333 11069 21136 70000 555 31617 40121
AAXX 29064 71446 16/// /2111 11008 21038 39037 40003 58013 60001 333 10034 21090 70021 555 32925 40211
AAXX 29064 71074 16/// ///17 11340 21374 30056 40138 51010 60001 333 11302 21340 70000
AAXX 29064 71087 46/// /3501 11253 21281 39779 49993 58010 6///1 333 11215 21297 7////
AAXX 29064 71667 17/// /1006 11048 21059 39809 40059 58028 60011 7//4/ 333 11047 21232 70015 555 10020 20015
AAXX 29064 71669 16/// /2508 10048 21030 38367 49940 56015 60001 333 10065 21038 70000 555 32540 40033
AAXX 29064 71671 17/// /2518 10009 21031 39803 49861 52010 69981 7//4/ 333 10115 20009 70042 555 31440 40173
AAXX 29064 71681 46/// /2214 10087 20028 6///1 333 10124 21026 7//// 555 32127 40011
AAXX 29064 71688 16/// /1203 10024 20018 38963 49976 53028 60001 333 10041 21001 70100 555 31718 40051
AAXX 29064 71720 17/// /1302 10063 20057 39869 40019 53039 60011 7//4/ 333 10109 20059 70044 555 31026 40071
AAXX 29064 71736 46/// ///// 10035 20010 6///1 333 10063 20005 7////
AAXX 29064 71742 46/// /1208 11001 21001 39728 49911 56071 6///1 333 10016 21019 7////
AAXX 29064 71744 16/// /2515 11010 21039 39774 49814 53005 60001 333 10095 21010 70134 555 32627 40061
AAXX 29064 71747 47/// /0902 11072 21080 39551 40032 6///1 7//4/ 333 7//// 555 10060
AAXX 29064 71155 16/// ///// 11047 21067 60001 333 11040 21142 70000
AAXX 29064 71156 16/// /2401 11077 21110 38847 49938 56034 60001 333 11014 21126 70000
AAXX 29064 71158 16/// /1103 11101 21111 39762 40042 55002 60001 333 11101 21160 70009
AAXX 29064 71159 16/// /1015 10045 20027 39723 49792 56090 60001 333 10058 21023 70000 555 31228 40042
AAXX 29064 71160 16/// /2101 11159 21178 39775 49991 53002 60001 333 11115 21159 70004
AAXX 29064 71162 16/// /0502 11165 21183 39766 49979 56003 60001 333 11130 21201 70000
AAXX 29064 71164 46/// /3402 11249 21277 39919 40003 56014 6///1 333 11229 21313 7////
AAXX 29064 71166 46/// /0103 39332 56010 6///1 333 7////
AAXX 29064 71209 46/// /2416 10103 6///1 333 10127 20082 7////
AAXX 29064 71243 16/// /1805 10048 21019 38942 49987 56015 60001 333 10118 20005 70000 555 32641 40193
AAXX 29064 71246 16/// /1503 11067 21079 39264 49922 56021 60001 333 11030 21142 70000
AAXX 29064 71851 16/// /3201 11106 21113 39711 40050 53014 60001 333 11037 21120 70000
AAXX 29064 71885 16/// ///// 10060 60001 333 10107 20013 70000
AAXX 29064 71300 16/// /2706 11176 21206 30005 40133 51015 60001 333 10004 21176 70008 555 10010 20008 33027 40141
AAXX 29064 71311 17/// /2217 10017 21003 39815 49839 51011 69981 7//4/ 333 10108 20015 70116 555 31642 40133
AAXX 29064 71312 16/// /2005 11147 21162 39577 40041 55006 60001 333 11052 21151 70000
AAXX 29064 71317 17/// /2617 10025 21006 39802 49847 53010 69931 7//4/ 333 10102 20019 70090 555 31231 40172
AAXX 29064 71320 17/// /1505 11275 21297 30140 40140 53011 69931 7//4/ 333 11275 21372 70003
AAXX 29064 71322 16/// /1823 11116 21129 30023 40036 55002 60001 333 11107 21320 70082 555 31828 40062
AAXX 29064 71334 46/// /2005 11132 21153 39683 40017 58006 6///1 333 11132 21206 7////
AAXX 29064 71250 16/// /2005 10023 20019 39797 49931 56045 60001 333 10033 21096 70000
AAXX 29064 71288 16/// /3004 11380 21420 30074 40100 53006 60001 333 11356 21391 70000
AAXX 29064 71295 16/// /0703 11105 21118 39589 40044 57007 60001 333 11100 21242 70003
AAXX 29064 71296 16/// /0701 11194 21210 39843 40162 54000 60001 333 11023 70000 555 10080 33126 40071
AAXX 29064 71357 16/// /1802 11254 21288 30153 40160 53018 60001 333 11227 21292 70000
AAXX 29064 71361 16/// /2602 11283 21316 39772 49988 56006 60001 333 11195 21283 70000
AAXX 29064 71362 17/// /0701 11186 21205 39719 49981 55005 69951 7//4/ 333 11102 21221 70011
AAXX 29064 71364 16/// /0605 11212 21235 39861 49998 58005 60001 333 11212 21254 70000
AAXX 29064 71365 16/// /3604 11236 21257 39770 49991 58006 60001 333 11225 21287 70000
AAXX 29064 71370 46/// /2805 11153 21201 39886 40025 53019 6///1 333 10015 21153 7//// 555 33224 40171
AAXX 29064 71373 17/// /2713 11148 21194 60011 7//4/ 333 10059 21148 70051 555 32827 40031
AAXX 29064 71381 46/// /2919 11156 21179 6///1 333 11005 21156 70000
AAXX 29064 71393 16/// ///// 10013 21044 38710 49950 56037 60001 333 10093 21091 70000
BBXX 44067 29061 99384 70770 46/// /0102 10026 40167 53011 90600
AAXX 29064 71110 16/// /1014 10025 20025 39832 49891 58072 60001 333 10031 21033 70000 555 31120 40061
AAXX 29064 71112 17/// ///// 60051 7//4/ 333 70080
AAXX 29064 71141 16/// /2004 11381 21421 30075 40103 53006 60001 333 11319 21388 70000
AAXX 29064 71956 16/// /0706 11151 21174 39916 40157 57008 60001 333 11120 21180 70000 555 33524 40071
AAXX 29064 71959 17/// ///// 10065 20054 60101 7//4/ 333 10083 20010 70134
AAXX 29064 71970 16/// /1904 11041 21056 39410 49996 58018 60001 333 11035 21121 70000 555 32720 40071
AAXX 29064 71977 46/// /2901 11281 21281 39245 49981 57002 6///1 333 11215 21316 7////
AAXX 29064 71978 46/// /2103 11324 21358 39666 49994 51004 6///1 333 11243 21326 7////
AAXX 29064 71989 16/// /0110 11304 21334 30190 40207 53008 60001 333 11250 21307 70000 555 30119 40141
AAXX 29064 71999 46/// ///// 10059 6///1 333 10084 20024 7////
AAXX 29064 71551 16/// /1708 11045 21045 39364 40025 58014 60001 333 11028 21096 70013
AAXX 29064 71552 46/// /0301 11065 21082 6///1 333 11065 21142 7//// 555 31522 40141
AAXX 29064 71571 16/// /1812 11013 21031 38719 49895 56016 60001 333 11011 21082 70000 555 31419 40161
AAXX 29064 71575 16/// /2607 11175 21200 30089 40156 53007 60001 333 11169 21258 70000
AAXX 29064 71577 46/// /3101 11064 21074 6///1 333 11064 21126 7//// 555 31722 40141
AAXX 29064 71579 16/// /0201 11075 21089 39753 40040 53010 60001 333 11065 21113 70000
AAXX 29064 71580 11574 51406 11344 21378 30087 40125 53008 69901 77177 85500 333 11289 21362 48030 79999 90962 555 19999 29999
AAXX 29064 71581 16/// /0000 11254 21279 39642 40148 51002 60001 333 11059 70003
AAXX 29064 71585 16/// /1207 11071 21079 39499 49961 56015 60001 333 7//// 555 10010
AAXX 29064 71599 17/// /2803 11008 21012 39705 49902 53015 69961 7//4/ 333 10103 21008 70087 555 31927 40151
AAXX 29064 71612 16/// /2405 11146 21204 39993 40086 51025 60001 333 10028 21146 70032
AAXX 29064 71622 16/// ///// 11143 21156 39813 40162 57010 60001 333 11015 21154 70012 555 10080 20012
AAXX 29064 71638 17/// /0403 10064 20054 39908 40011 53026 60071 7//4/ 333 10112 20061 70088 555 31227 40011
AAXX 29064 71639 11974 03302 11138 21167 39915 40165 55000 69901 70177 333 10010 21139 70006 90940 93101 555 10010 20006 33132 40071
AAXX 29064 71452 46/// /2503 11041 21051 39341 40055 53002 6///1 333 11027 21136 7//// 555 10040 32726 40051
AAXX 29064 71453 16/// /2406 10041 21019 39098 49990 58020 60001 333 10110 21060 70003 555 32838 40183
AAXX 29064 71455 46/// /1805 11068 21070 39223 40023 58018 6///1 333 11041 21100 7//// 555 30917 40191
AAXX 29064 71470 16/// /0610 11248 21273 39385 40028 51002 60001 333 11227 21256 70000
AAXX 29064 71476 17/// /2425 39932 53056 60031 7//4/ 333 70328 555 30552 40083
AAXX 29064 71478 16/// /2935 10061 20023 39905 40040 53061 60001 333 10087 20058 7////
AAXX 29064 71479 16/// /2922 10064 20034 39931 40050 53060 60001 333 10094 20056 7////
AAXX 29064 71480 16/// /1206 11222 21253 39850 49976 56015 60001 333 11222 21352 70000
AAXX 29064 71482 46/// /2115 10060 39957 49995 51043 6///1 333 10091 20014 7//// 555 32248 40153
AAXX 29064 71484 16/// /2620 10054 20015 39951 49969 52059 60001 333 10083 20034 70000 555 31838 40173
AAXX 29064 71487 16/// /1403 11062 21069 39168 40032 56008 60001 333 10048 21080 70018 555 32826 40221
AAXX 29064 71492 46/// ///18 11223 21272 39315 40023 51002 6///1 333 11177 21239 7////
AAXX 29064 71432 16/// /2914 11055 21103 30064 40163 58004 60001 333 10036 21061 70000 555 32941 40103
AAXX 29064 71441 46/// /3505 11071 21088 39724 40035 53016 6///1 333 11028 21126 7//// 555 33137 40063
AAXX 29064 71472 17/// /2926 10043 21005 69961 7//4/ 333 10078 20030 70042 555 32044 40153
AAXX 29064 71137 16/// /0402 11002 21021 39085 40018 58013 60001 333 10047 21113 70005 555 32728 40202
AAXX 29064 71188 11120 83203 10022 20013 39703 49745 56040 69941 75165 887// 333 10058 21039 43009 70270 90917 555 10000 20000 31629 40151
AAXX 29064 71726 16/// /2909 11234 21262 39510 40073 51015 60001 333 11023 21235 70046 555 33122 40221
AAXX 29064 71807 16/// /1710 10034 20026 39920 49938 55039 60001 333 10041 21035 70000
AAXX 29064 16539 13598 63600 10080 20076 30120 40237 57012 60002 82531 333 20060 30/// 55/// 2//// 82630 84356 555 0////
AAXX 29064 71501 16/// /1006 11257 21285 30008 40010 51003 60001 333 11222 21286 70000
AAXX 29064 71511 16/// /1506 11050 21057 39398 40039 56009 60001 333 11036 21101 70000
AAXX 29064 71514 46/// /1603 11049 21063 39349 40052 55001 6///1 333 11038 21129 7//// 555 10030
AAXX 29064 71522 46/// /3007 11161 21199 39437 49928 51003 6///1 333 11017 21161 70000
AAXX 29064 71920 17/// /2726 10024 20021 39924 49930 53019 60021 7//4/ 333 10110 20019 70053 555 32543 40043
AAXX 29064 71927 17/// /2204 10087 20054 39966 40022 51030 60051 7//4/ 333 10135 20053 70076
AAXX 29064 71868 16/// /1902 11109 21127 39594 40040 57004 60001 333 11062 21136 70000
AAXX 29064 71750 16/// /0504 11136 21161 39871 40114 58020 60001 333 11132 21268 70000 555 30519 40071
AAXX 29064 71752 16/// /2702 11087 21117 39942 40165 57006 60001 333 10015 21096 70000 555 10010
AAXX 29064 71756 17/// /3302 10023 20016 38910 49981 53030 60071 7//4/ 333 10060 21003 70109 555 32320 40101
AAXX 29064 71758 17/// /2318 10062 20049 39742 49816 55001 60251 7//4/ 333 10073 21015 70270 555 31337 40013
AAXX 29064 71766 17/// /2906 10094 20041 39940 40010 53035 60041 7//4/ 333 10132 20061 70074 555 31520 40191
AAXX 29064 71771 46/// /2808 10040 20003 39963 49983 53062 6///1 333 10091 20037 7////
BBXX SMGW 29061 99336 71266 43/98 63609 10139 40292 57005 22224 00159 2//// 4////
AAXX 29064 71015 16/// ///// 10037 60001 333 10070 21017 70000
AAXX 29064 71017 16/// /3005 11355 21392 30109 40125 53014 60001 333 11312 21360 70000
AAXX 29064 71018 16/// ///02 11278 21306 30028 40119 53014 60001 333 11255 21297 70000
AAXX 29064 71019 46/// /2713 11087 21088 39570 49867 51012 6///1 333 10066 21088 7//// 555 31432 40092
AAXX 29064 71020 46/// /0102 11216 21243 39703 49966 58008 6///1 333 11215 21300 7//// 555 10020
AAXX 29064 71021 46/// /0000 11204 21227 39603 49965 58009 6///1 333 11204 21291 7////
AAXX 29064 71063 16/// /2713 11172 21202 30026 40130 53013 60001 333 10006 21172 70006 555 10020 20006 32827 40111
BBXX 9V8797 29064 99218 11138 43/97 40832 10173 40193 58025 22284 00188 2//// 4////
BBXX SHJC 29061 99085 10715 43/98 63309 10281 40133 53000 22274 00282 2//// 4////
AAXX 29064 71837 16/// ///// 10066 60001 333 10097 20011 70000
AAXX 29064 71839 17/// ///// 10069 69931 7//4/ 333 10101 21009 70003
AAXX 29064 71840 46/// /3403 11072 21080 6///1 333 11019 21162 7//// 555 32619 40181
AAXX 29064 71849 16/// /0103 11076 21084 39746 40048 53010 60001 333 11067 21118 70000 555 31722 40131
AAXX 29061 10427 01057 82611 11007 21007 39172 48462 55003 60022 72274 886// 333 10006 21008 3/101 42018 55000 55300 20000 30000 69907 70019 87701 91119 91213 96470 96469 96445
AAXX 29064 71402 46/// /0913 10004 21003 39787 49899 56088 6///1 333 10021 21013 7//// 555 31221 40001
AAXX 29064 71407 16/// /0000 11391 21437 30110 40132 52008 60001 333 11295 21391 70000
AAXX 29064 71434 16/// /1807 11281 21310 30089 40159 58003 60001 333 11235 70000
AAXX 29064 71442 16/// /2903 11090 21098 39735 40054 53003 60001 333 11069 21136 70000 555 31617 40121
AAXX 29064 71446 16/// /2111 11008 21038 39037 40003 58013 60001 333 10034 21090 70021 555 32925 40211
AAXX 29064 06670 31456 82205 10023 20008 39758 40285 55/// 76887 885// 333 21014 32104 55026 55300 20000 70000 81710 84615 87622 90768 93100 91109 91205
AAXX 29064 06700 01462 70702 10013 20009 39788 40300 55/// 69932 71072 875// 333 21020 32102 55000 55300 20004 60005 70003 81712 85645 87657 90768 93100 91108 91205
AAXX 29064 06680 01/01 93007 11080 21080 37519 47047 57/// 60032 77174 333 21085 47304 55068 55300 20000 69985 70029 90768 93102 91152 91237
AAXX 29064 06990 31156 81805 10017 21010 39720 40285 57/// 71041 886// 333 21034 31105 55042 55300 20000 70000 88702 91109 91207
AAXX 29064 06760 32980 50000 10033 21006 39771 40230 57/// 8505/ 333 20028 30000 55068 55300 20000 70000 85359 90768 93100 91103 91202
AAXX 29064 06720 32465 82102 10002 21012 39699 40297 57/// 886// 333 21033 3/105 41003 55043 55300 20000 70000 88717 90768 93100 91109 91206
AAXX 29064 06610 32567 71801 10011 20006 39694 40299 55/// 8357/ 333 21026 31103 55000 55300 20000 70000 83627 85356 90768 93100 91107 91204
AAXX 29064 71155 16/// ///// 11047 21067 60001 333 11040 21142 70000
AAXX 29064 71156 16/// /2401 11077 21110 38847 49938 56034 60001 333 11014 21126 70000
AAXX 29064 71158 16/// /1103 11101 21111 39762 40042 55002 60001 333 11101 21160 70009
AAXX 29064 71159 16/// /1015 10045 20027 39723 49792 56090 60001 333 10058 21023 70000 555 31228 40042
AAXX 29064 71160 16/// /2101 11159 21178 39775 49991 53002 60001 333 11115 21159 70004
AAXX 29064 71162 16/// /0502 11165 21183 39766 49979 56003 60001 333 11130 21201 70000
AAXX 29064 71164 46/// /3402 11249 21277 39919 40003 56014 6///1 333 11229 21313 7////
AAXX 29064 71166 46/// /0103 39332 56010 6///1 333 7////
AAXX 29064 71851 16/// /3201 11106 21113 39711 40050 53014 60001 333 11037 21120 70000
AAXX 29064 71885 16/// ///// 10060 60001 333 10107 20013 70000
AAXX 29064 71209 46/// /2416 10103 6///1 333 10127 20082 7////
AAXX 29064 71243 16/// /1805 10048 21019 38942 49987 56015 60001 333 10118 20005 70000 555 32641 40193
AAXX 29064 71246 16/// /1503 11067 21079 39264 49922 56021 60001 333 11030 21142 70000
AAXX 29064 71720 17/// /1302 10063 20057 39869 40019 53039 60011 7//4/ 333 10109 20059 70044 555 31026 40071
AAXX 29064 71736 46/// ///// 10035 20010 6///1 333 10063 20005 7////
AAXX 29064 71742 46/// /1208 11001 21001 39728 49911 56071 6///1 333 10016 21019 7////
AAXX 29064 71744 16/// /2515 11010 21039 39774 49814 53005 60001 333 10095 21010 70134 555 32627 40061
AAXX 29064 71747 47/// /0902 11072 21080 39551 40032 6///1 7//4/ 333 7//// 555 10060
AAXX 29064 71250 16/// /2005 10023 20019 39797 49931 56045 60001 333 10033 21096 70000
AAXX 29064 71288 16/// /3004 11380 21420 30074 40100 53006 60001 333 11356 21391 70000
AAXX 29064 71295 16/// /0703 11105 21118 39589 40044 57007 60001 333 11100 21242 70003
AAXX 29064 71296 16/// /0701 11194 21210 39843 40162 54000 60001 333 11023 70000 555 10080 33126 40071
AAXX 29064 71074 16/// ///17 11340 21374 30056 40138 51010 60001 333 11302 21340 70000
AAXX 29064 71087 46/// /3501 11253 21281 39779 49993 58010 6///1 333 11215 21297 7////
AAXX 29064 71300 16/// /2706 11176 21206 30005 40133 51015 60001 333 10004 21176 70008 555 10010 20008 33027 40141
AAXX 29064 71311 17/// /2217 10017 21003 39815 49839 51011 69981 7//4/ 333 10108 20015 70116 555 31642 40133
AAXX 29064 71312 16/// /2005 11147 21162 39577 40041 55006 60001 333 11052 21151 70000
AAXX 29064 71317 17/// /2617 10025 21006 39802 49847 53010 69931 7//4/ 333 10102 20019 70090 555 31231 40172
AAXX 29064 71320 17/// /1505 11275 21297 30140 40140 53011 69931 7//4/ 333 11275 21372 70003
AAXX 29064 71322 16/// /1823 11116 21129 30023 40036 55002 60001 333 11107 21320 70082 555 31828 40062
AAXX 29064 71334 46/// /2005 11132 21153 39683 40017 58006 6///1 333 11132 21206 7////
AAXX 29064 71667 17/// /1006 11048 21059 39809 40059 58028 60011 7//4/ 333 11047 21232 70015 555 10020 20015
AAXX 29064 71669 16/// /2508 10048 21030 38367 49940 56015 60001 333 10065 21038 70000 555 32540 40033
AAXX 29064 71671 17/// /2518 10009 21031 39803 49861 52010 69981 7//4/ 333 10115 20009 70042 555 31440 40173
AAXX 29064 71681 46/// /2214 10087 20028 6///1 333 10124 21026 7//// 555 32127 40011
AAXX 29064 71688 16/// /1203 10024 20018 38963 49976 53028 60001 333 10041 21001 70100 555 31718 40051
AAXX 29060 67585 32980 70402 10250 20160 86081 333 20197 5//// 55/// 86358 555 10321 7//11
AAXX 29060 67586 32580 70503 10244 20190 38792 48518 84938 333 20178 51121 55121 59014 81920 83823 83360 87280 555 10294 7//22
AAXX 29064 71357 16/// /1802 11254 21288 30153 40160 53018 60001 333 11227 21292 70000
AAXX 29064 71361 16/// /2602 11283 21316 39772 49988 56006 60001 333 11195 21283 70000
AAXX 29064 71362 17/// /0701 11186 21205 39719 49981 55005 69951 7//4/ 333 11102 21221 70011
AAXX 29064 71364 16/// /0605 11212 21235 39861 49998 58005 60001 333 11212 21254 70000
AAXX 29064 71365 16/// /3604 11236 21257 39770 49991 58006 60001 333 11225 21287 70000
AAXX 29064 71370 46/// /2805 11153 21201 39886 40025 53019 6///1 333 10015 21153 7//// 555 33224 40171
AAXX 29064 71373 17/// /2713 11148 21194 60011 7//4/ 333 10059 21148 70051 555 32827 40031
AAXX 29064 71381 46/// /2919 11156 21179 6///1 333 11005 21156 70000
AAXX 29064 71393 16/// ///// 10013 21044 38710 49950 56037 60001 333 10093 21091 70000
AAXX 29064 61974 11362 72902 10270 20243 40114 60364 72162 8587/ 333 0//15 20242 58003 81708 84816 86359 94329
AAXX 29064 61986 11465 70909 10294 20247 40123 69924 71582 86870 333 0//15 20254 58003 83817 85650 94322
AAXX 29064 61988 11475 71212 10288 20228 40141 69934 70382 84832 333 0//15 20237 50532 58002 83818 83360
AAXX 29064 61989 12580 71012 10277 20227 40148 60004 82836 333 20241 58002 82820 87275
AAXX 29064 61990 12475 41206 10283 20212 40136 69924 84800 333 01919 20215 50622 59005 84818 94322
AAXX 29064 61995 12475 41004 10263 20189 39659 60004 84200 333 01800 20201 50402 59001 84818 91114 94323
AAXX 29064 68298 16/// /2414 1//// 2//// 39499 4//// 53002 60044 333 2//// 91024 555 1//// 20040 69925 91016
AAXX 29061 01026 16/// /0403 11009 21049 39742 49883 56021 6//// 333 21025 4/028 91108
AAXX 29064 96481 11462 73604 10298 20256 30072 40091 60011 70362 82481 333 81817 84364 86080
AAXX 29064 96471 12476 73405 10317 20262 30071 40074 60001 81848 333 81815 83364 87278
AAXX 29061 01218 16/// /1701 10029 20022 39781 49802 53011 60002 333 20028 70000 91104
AAXX 29061 01281 16/// ///// 11020 21030 39624 49797 57009 60082 333 21020 70077
AAXX 29061 01447 16/// /3302 10007 21002 39149 49805 51020 60042 333 20004 70078 91108
AAXX 29064 04211 47/63 /2504 11111 21119 39963 40128 52025 77188 333 11085 21120 91214
AAXX 29064 04220 07984 71411 11123 21175 30073 40127 57002 60022 70087 333 11102 21131 55300 20004 6///7 70060 85/62 87/63 91223
AAXX 29064 04221 45984 10918 11133 21236 30095 40135 57005 333 11100 21139 81/63
AAXX 29064 04231 12784 40407 11141 21211 30056 40133 54000 6///2 845// 333 11123 21162 84650
AAXX 29064 04234 47578 71814 11118 21189 30120 40130 52012 72488 333 11103 21121 87/27 91021
AAXX 29064 04241 45582 82608 11124 21184 30101 40143 52010 333 11093 21127 81/25 87/29 88/33 91122
AAXX 29064 04250 07484 80105 11106 21127 30041 40150 52012 60032 72487 333 10122 21156 55300 20000 60017 70042 81/13 88/58 91225
AAXX 29064 04254 47460 70504 11112 21147 30035 40155 52012 78587 333 11078 21115 81/11 82/14 83/23 87/23 91134 91226
AAXX 29064 04260 45883 41117 11076 21167 30102 40147 57015 333 11074 21107 82/57 84/62
AAXX 29064 04270 45984 70714 11110 21227 30137 40178 57023 333 11107 21161 83/64 87/72
AAXX 29064 04272 07984 3//// 11086 21182 30092 40167 57021 69922 70087 333 11082 21121 69927 70009 83/65
AAXX 29064 04312 46/// ///// 11371 21419 30069 40112 52003
AAXX 29064 04320 45/69 /0000 11324 21369 30070 40087 52016 333 11273 21373 55300
AAXX 29064 04339 45/84 ///// 11174 21231 39971 40067 52010 333 11158 21212 55300 20000
AAXX 29064 04360 06/// /2818 11103 21134 39867 49939 52002 6///2 333 11055 21113 55300 20000 6///7 70078 91028 91139
AAXX 29064 04361 46/// 93319 11107 21144 39881 49934 52006 333 11049 21107 89/02 91130
AAXX 29064 04390 07984 72304 11057 21172 30043 40139 57007 60132 70087 333 11048 21075 60047 70211 83/63 85/66 87/68 91218
AAXX 29060 44203 32999 00000 11316 21338 38481 40582 58009
AAXX 29060 44207 32999 00000 11210 21243 38355 40435 57005
AAXX 29060 44212 32998 40000 11258 21289 39259 40529 58004 82044
AAXX 29060 44213 32999 00000 11252 21297 38876 40519 57010
AAXX 29060 44215 32998 60000 11221 21247 38460 40458 57004 81048
AAXX 29060 44218 32998 53303 11198 21231 38660 40438 58008 80006
AAXX 29060 44225 32998 00000 11296 21319 38337 40577 56003
AAXX 29060 44230 32998 00000 11176 21217 38851 40442 58011
AAXX 29060 44232 32999 02802 11210 21242 39185 40424 57012
AAXX 29060 44237 32999 02302 11134 21195 38522 40348 58007
AAXX 29060 44239 32999 01702 11143 21204 38837 40335 56009
AAXX 29060 44241 32999 51801 11194 21235 39332 40389 58002 80003
AAXX 29060 44256 32999 40000 11243 21268 39423 40368 58025 80006
AAXX 29060 44265 32999 10000 11104 21157 38907 40372 58007 80001
AAXX 29060 44272 32998 70000 11148 21199 38240 40347 58011 87070
AAXX 29060 44275 32899 60000 11113 21145 37732 40325 58006 86070
AAXX 29060 44282 32999 00000 11041 21184 38317 40282 58010
AAXX 29060 44284 32899 70000 11176 21241 37870 40445 57008 87070
AAXX 29060 44285 32999 11602 11127 21177 38346 40360 58012 80004
AAXX 29060 44287 32999 30504 11066 21199 38132 40319 58013 80009
AAXX 29060 44294 32998 50000 11193 21218 38592 40414 58015 80007
AAXX 29060 44298 32999 63604 11198 21204 38756 40391 58013 80008
AAXX 29060 44302 32999 22506 11210 21248 39157 40375 58031 80004
AAXX 29060 44305 32999 22703 11181 21207 39114 40360 58023 80004
AAXX 29060 44313 32999 02302 11252 21299 39498 40438 58027
AAXX 29060 44314 32998 22003 11121 21164 39237 40392 57008 80004
AAXX 29060 44317 32998 00000 11080 21148 39006 40336 57025
AAXX 29060 44336 32999 50000 11153 21210 38725 40392 58019 80004
AAXX 29060 44341 32999 71901 11168 21205 38635 40395 58014 83038
AAXX 29060 44347 32999 22903 11093 21175 38751 40324 58007 80008
AAXX 29060 44352 32999 00000 11151 21178 38973 40352 57021
AAXX 29060 44358 31997 00903 11173 21185 39147 40388 58031 71000
AAXX 29060 44214 32998 30101 11115 21196 38307 40377 58010 80004
AAXX 29060 44231 31996 30000 11190 21252 38782 40455 58013 70410 80002
AAXX 29060 44259 31997 22102 11238 21268 39387 40392 58028 70240 80002
AAXX 29060 44277 32999 70202 11075 21203 37814 40339 58009 83017
AAXX 29060 44288 32999 43405 11030 21214 38178 40284 57012 80004
AAXX 29060 44292 31996 61202 11164 21214 38741 40373 53013 70400 80006
AAXX 29060 44304 32999 62302 11218 21250 39045 40381 58021 83048
AAXX 29060 44354 32999 50000 11170 21204 39175 40386 57029 80004
AAXX 29060 44373 32999 22902 11148 21192 38558 40355 58011 80004
AAXX 29061 37279 /2498 70000 10052 20043 30153 40300 58003 87700 555 20046
AAXX 29061 37308 12698 80000 10023 20014 39654 40323 54000 60010 8451/ 333 20015
AAXX 29061 37531 32999 42705 10038 20004 39579 40319 57003 80050 333 20025
AAXX 29061 37553 32999 02801 10029 21016 39637 40300 52029 333 21021
AAXX 29061 37651 16/// ///00 11004 21030 3//// 4//// 5//// 60002 333 21031
AAXX 29061 37492 NIL
AAXX 29064 65352 31930 70404 10190 20035 3//// 4//// 70522 80002 333 20188 5//// 87076
AAXX 29064 65361 32957 70000 10175 20074 3//// 4//// 80002 333 20173 5//// 87076
AAXX 29064 65376 32956 63606 10240 20134 39667 40125 80002 333 20222 58004 86076
AAXX 29064 65387 32456 72804 10263 20259 30086 40104 82963 333 20262 59001 82810 81920 83360 87073 94946 95836
AAXX 29064 60318 32560 32008 10072 20045 40300 58010 83200 333 20059 83833
AAXX 29064 89003 46/89 /3404 11091 29063 39033 4//// 5////
AAXX 29061 57461 31956 81102 10091 20010 30132 40299 57026 70500 8807/ 333 20067
AAXX 29061 57516 31930 81802 10103 20051 39952 40269 57030 71000 8807/ 333 00100 20079
AAXX 29061 57687 11440 82701 10075 20037 30195 40281 57024 69951 72166 887// 333 20063
AAXX 29061 57816 31625 80903 10041 20004 38837 40264 57028 71000 885// 333 00100 20011
AAXX 29061 58040 32965 00905 10032 21057 30321 40335 57022 333 21016
AAXX 29061 58102 32960 83602 10057 20003 30282 40332 57019 8807/ 333 20012
AAXX 29061 58221 31930 80403 10056 20015 30292 40321 57014 71040 8807/ 333 20019
AAXX 29061 50468 32970 20000 11132 21248 30109 40338 57019 80002 333 21266
AAXX 29061 52533 32980 03602 11043 21189 38568 40347 57008 333 00252 21166
AAXX 29061 53772 31930 72201 10010 21080 39372 40330 57032 70400 80002 333 21059
AAXX 29061 53915 32761 71102 10013 21045 38711 40297 57029 83502 333 00100 21059
AAXX 29061 54337 32980 00403 11076 21234 30298 40388 57024 333 21160
AAXX 29061 54342 32965 00203 11119 21198 30323 40391 57020 333 21189
AAXX 29061 54511 11765 71802 11031 21111 30328 40371 57028 69901 77070 875// 333 21049
AAXX 29061 56080 32580 11602 10051 21133 37132 57037 81100 333 00202 21125
AAXX 29061 56096 32770 71602 10074 21018 38989 40246 57036 85502 333 00101 20020
AAXX 29061 57083 31920 80702 10028 21016 30200 40343 57020 71000 8802/ 333 21002
AAXX 29061 50136 NIL
AAXX 29061 50745 32968 02901 11137 21241 30173 40377 57021 333 21254
AAXX 29061 50774 NIL
AAXX 29061 50788 NIL
AAXX 29061 51133 NIL
AAXX 29061 51431 NIL
AAXX 29061 51747 NIL
AAXX 29061 52203 NIL
AAXX 29061 52418 NIL
AAXX 29061 52681 NIL
AAXX 29061 53564 NIL
AAXX 29061 53614 NIL
AAXX 29061 53646 NIL
AAXX 29061 53798 NIL
AAXX 29061 53845 NIL
AAXX 29061 53959 NIL
AAXX 29061 54094 NIL
AAXX 29061 54102 NIL
AAXX 29061 54161 NIL
AAXX 29061 54292 NIL
AAXX 29061 54374 NIL
AAXX 29061 54423 NIL
AAXX 29061 54618 NIL
AAXX 29061 54843 NIL
AAXX 29061 54909 31957 83402 10008 21010 30273 40340 57019 71000 8807/ 333 21010
AAXX 29061 56029 NIL
AAXX 29061 57127 NIL
AAXX 29061 57131 NIL
AAXX 29061 50953 32970 02702 11145 21213 30184 40382 57010 333 21247
AAXX 29061 53588 31470 12704 11069 21140 37811 57016 70040 81100 333 21128
AAXX 29061 54823 31957 00904 10018 21060 30125 40343 57021 70500 333 21014
BBXX 44255 29061 99473 70573 46/// /1215 10043 49829 57085 22200 00036 10505 70027 333 91219
AAXX 29061 53463 31957 02701 11021 21142 39041 40349 57027 70400 333 00001 21131
AAXX 29061 53513 32965 03601 11036 21118 39055 40347 57026 333 00000 21156
AAXX 29061 54218 32970 00901 11080 21198 39528 40398 57026 333 21205
AAXX 29061 54471 32960 00208 11097 21211 30379 40385 57022 333 21167
AAXX 29061 54497 32980 03604 11037 21218 30320 40337 57018 333 21127
AAXX 29061 50136 32970 72503 11169 21236 39735 40338 57030 80002 333 21384
AAXX 29061 53564 32960 00000 11016 21095 39273 40348 57033 333 00000 21148
AAXX 29061 53959 31958 03204 10063 21051 39853 40307 57029 70500 333 21026
AAXX 29061 54161 32962 02902 11136 21235 30074 40400 57014 333 21248
AAXX 29061 54292 32980 12707 11125 21230 39983 40329 57007 81030 333 21179
AAXX 29061 54374 32970 01801 11128 21218 39878 40387 57016 333 21245
AAXX 29061 54843 32680 20205 11002 21066 30330 40359 57021 82500 333 21030
AAXX 29061 50788 11962 82507 11175 21207 30188 40283 57004 69911 77070 8801/ 333 21241
AAXX 29061 57127 32961 80402 10080 20009 39665 40283 57022 8807/ 333 20053
AAXX 29061 58362 32570 70403 10104 20039 30282 40290 57015 878// 333 20084
AAXX 29061 51076 32980 02501 11075 21164 39427 40375 57006 333 00201 21203
AAXX 29061 51573 32975 20701 11066 21158 30328 40375 57010 80002 333 00100 21113
AAXX 29061 52652 32965 03405 11033 21166 38566 40319 57019 333 00052 21187
AAXX 29061 52866 32975 00000 10025 21188 37708 57034 333 00106 21160
AAXX 29061 52983 32962 01801 10032 21123 38121 57034 333 00103 21106
AAXX 29061 54401 32962 71402 11050 21106 39443 40358 57028 86032 333 21107
AAXX 29061 58150 32560 70206 10062 21010 30315 40319 57013 87500 333 20017
AAXX 29061 58238 31563 70904 10099 20018 30254 40300 57018 70040 878// 333 20031
AAXX 29061 58251 31540 80406 10072 20013 30303 40308 57014 70500 885// 333 20044
AAXX 29061 58457 31630 80203 10099 20053 30229 40283 57020 71000 885// 333 20083
AAXX 29061 58606 11740 80701 10079 20047 30211 40270 57022 60011 76066 885// 333 20072
AAXX 29061 58847 11560 82901 10136 20113 30137 40240 57019 60011 76060 885// 333 20126
AAXX 29061 59117 32663 73401 10210 20093 30092 40198 57035 875// 333 20126
AAXX 29061 59316 32962 20904 10208 20128 30195 40200 57035 82040 333 20122
AAXX 29061 59644 31558 70702 10229 20116 30172 40189 57032 70500 8114/ 333 20151
AAXX 29061 59758 32470 30904 10228 20164 30100 40176 57037 83100 333 20163
AAXX 29061 50774 32962 02502 11161 21225 30014 40352 57011 333 21263
AAXX 29061 53614 32970 00402 11009 21093 38970 40320 57027 333 00001 21109
AAXX 29061 53646 32965 01803 10009 21076 38918 40313 57025 333 00000 21116
AAXX 29061 53845 32965 00901 10046 21060 39144 40298 57034 333 00001 21062
AAXX 29061 54094 32968 32907 11157 21240 30014 40344 57009 80002 333 21230
AAXX 29061 54102 32980 02002 11132 21189 39112 40421 57025 333 21290
AAXX 29061 56029 32980 02002 10015 21169 36454 57040 333 00200 21166
AAXX 29061 57131 31920 03201 10030 21012 39805 40318 57033 71000 333 21028
AAXX 29061 51133 32980 72201 11063 21114 39643 40331 57005 80002 333 00154 21131
AAXX 29061 51431 32970 70401 11046 21058 39485 40316 57005 80002 333 00254 21097
AAXX 29061 51747 32965 72202 11100 21150 39020 40409 57002 80002 333 00351 21217
AAXX 29061 52203 32980 42001 11064 21159 39423 40367 57018 80002 333 00100 21178
AAXX 29061 52418 32970 12903 11057 21142 38954 40365 57022 80002 333 00101 21170
AAXX 29061 52681 32980 00403 11024 21127 38670 40317 57031 333 00000 21168
AAXX 29061 53798 11958 80701 11009 21028 30260 40361 57024 69921 77076 8802/ 333 21012 92500
AAXX 29061 54423 11970 72001 11051 21119 39824 40374 57030 69901 70070 80002 333 21132 92500
AAXX 29061 54618 32964 70902 11004 21079 30345 40364 57028 8703/ 333 21030
OOXX AAUNI 29064 99798 50833 56093 07671 46/// /2312 11066 21146 38876 49748 57010 90600
BBXX 44255 29061 99473 70573 46/// /1215 10043 49829 57085 22200 00036 10505 70027 333 91219
AAXX 29061 56187 32961 71601 10110 20023 39599 40256 57033 8704/ 333 00102 20056
AAXX 29061 56778 32970 02205 10175 20011 38116 57033 333 05203 20069
AAXX 29061 57265 31957 72901 10070 20015 30204 40319 57030 71000 8703/ 333 21003
AAXX 29061 57494 32965 70404 10080 20027 30257 40288 57024 8704/ 333 20031
AAXX 29061 58752 11656 83601 10124 20085 30212 40259 57018 69901 76000 885// 333 20110
AAXX 29061 59134 32960 70202 10188 20106 30052 40220 57023 8704/ 333 20129
AAXX 29061 59287 32662 73201 10234 20098 30107 40192 57033 82540 333 20130
AAXX 29061 59431 11740 83602 10147 20095 30071 40219 57018 69901 71060 885// 333 20129
AAXX 29064 62305 32560 21805 10088 20069 40233 57001 82500 333 20084
AAXX 29064 62306 32560 41304 10132 20092 40229 52001 84500 333 20124
AAXX 29064 62318 32560 60000 10138 20107 40226 54000 86800 333 20118
AAXX 29064 62337 NIL
AAXX 29064 62366 32960 00702 10095 20063 40215 54000 333 20088
AAXX 29064 62393 31958 32601 10072 20038 40207 53005 71000 83030 333 20064
AAXX 29064 62405 32960 60000 10146 20049 40188 52004 86050 333 20118
AAXX 29064 62414 NIL
AAXX 29064 62417 32960 30000 10066 20041 40218 52004 80001 333 20059
AAXX 29064 62419 NIL
AAXX 29064 62440 31520 33502 10076 20069 40218 52007 71000 83500 333 20055
AAXX 29064 62463 32560 33011 10133 20040 40197 52006 83200 333 20114
AAXX 29064 62465 32960 33004 10164 20075 40185 52007 83030 333 20146
AAXX 29064 47401 12/80 81012 11003 21038 30135 40150 56021 60001 8127/
AAXX 29064 47412 11/60 71808 11015 21028 30076 40109 56035 60071 78582 8537/
AAXX 29064 47420 17/70 /1308 10020 21029 30149 40183 56005 69901 70070
AAXX 29064 47426 17/41 /1116 11004 21018 30105 40154 56017 69901 77170
AAXX 29064 47582 11/50 81106 10008 21002 30138 40166 55006 60091 78598 883//
AAXX 29064 47590 12/65 83507 10052 21033 30106 40160 55011 60001 8737/
AAXX 29064 47600 17/58 /3413 10043 20015 30197 40205 53023 60051 76160
AAXX 29064 47648 12/65 12207 10099 20025 30137 40171 56018 60001 81100
AAXX 29064 47662 12/70 11403 10089 21001 30124 40169 56021 60001 81100
AAXX 29064 47678 15/70 /2810 10123 20022 30005 40192 55004 60001
AAXX 29064 47740 17/57 /0105 10042 20026 30188 40223 53002 60011 78186
AAXX 29064 47778 15/70 /3009 10126 21013 30115 40199 56015 60001
AAXX 29064 47807 12/65 23307 10111 21001 30222 40240 56012 60001 82200
AAXX 29064 47827 12970 12808 10148 21001 30185 40223 56016 60001 81030
AAXX 29064 47843 15/71 /3209 10108 20008 30217 40250 56009 60001
AAXX 29064 47893 12/70 61803 10134 21017 30199 40205 56019 60001 84201
AAXX 29064 47909 11160 82103 10139 20125 30205 40215 56015 60021 76062 8552/
AAXX 29064 47918 11465 73405 10208 20178 30164 40181 56026 60011 72582 8627/
AAXX 29064 47936 11/80 83604 10207 20129 30132 40191 56018 69901 70262 8227/
AAXX 29064 47945 12/75 60703 10221 20124 30164 40188 56018 60001 82239
AAXX 29064 47971 12/80 13505 10193 20095 30192 40202 56001 60001 81201
AAXX 29064 47991 16/// /1406 10231 20188 30156 40166 53003 69901
AAXX 29064 47407 12/75 82204 11035 21068 39962 40140 56032 60001 8267/
AAXX 29064 47409 11/70 71105 11001 21028 30119 40174 56010 69901 72722 872//
AAXX 29064 47418 12/80 71610 10015 21034 30131 40181 56008 60001 8557/
AAXX 29064 47421 17/03 /2611 11012 21029 30081 40125 55008 60041 77370
AAXX 29064 47430 11/65 62607 10021 21019 30082 40137 53009 69901 72682 86300
AAXX 29064 47570 15/70 /0000 10006 21054 39913 40180 56016 60001
AAXX 29064 47575 11/60 81805 10028 21008 30143 40148 55000 69901 72682 883//
AAXX 29064 47584 11/40 82005 11006 21012 39974 40169 56012 60011 78572 883//
AAXX 29064 47604 11/12 81502 10021 20009 30166 40175 55000 60171 78098 882//
AAXX 29064 47605 11/56 82503 10049 20034 30159 40201 53005 60111 78098 882//
AAXX 29064 47610 12/80 70102 10041 21032 39665 40174 55009 60001 87200
AAXX 29064 47624 12/70 11004 10080 21061 30028 40168 56015 60001 81200
AAXX 29064 47629 12970 02305 10085 21030 30130 40169 56018 60001
AAXX 29064 47636 12/65 22907 10092 21001 30130 40199 56016 60001 82530
AAXX 29064 47651 12/65 32712 10116 21009 30178 40200 55012 60001 83100
AAXX 29064 47655 15/70 /2617 10105 20008 30124 40181 56014 60001
AAXX 29064 47675 15/70 /2415 10120 20022 30076 40167 56021 60001
AAXX 29064 47741 11/60 83107 10061 20038 30196 40224 53002 69901 78081 882//
AAXX 29064 47746 11/50 82903 10048 20035 30206 40226 53004 60041 78081 882//
AAXX 29064 47750 11/65 72307 10067 20035 30184 40212 55007 69901 78011 87200
AAXX 29064 47765 11/65 70211 10083 20010 30164 40231 55013 69901 78082 87201
AAXX 29064 47772 12/62 32609 10102 20011 30108 40209 56014 60001 82232
AAXX 29064 47800 15/67 /3105 10099 20010 30236 40241 56015 60001
AAXX 29064 47815 12/75 53607 10110 21005 30214 40231 56016 60001 85200
AAXX 29064 47817 12/70 53605 10106 21008 30197 40241 56014 60001 85200
AAXX 29064 47830 12/80 10907 10134 20014 30200 40218 55018 60001 81130
AAXX 29064 47887 12/70 73204 10107 21017 30184 40226 56013 60001 8227/
AAXX 29064 47891 11/70 32608 10098 20007 30203 40220 56011 69901 72581 83800
AAXX 29064 47895 11/70 53011 10114 21007 30207 40215 55010 69901 72511 85200
AAXX 29064 47927 11/65 83606 10207 20173 30140 40189 56019 69901 72582 8587/
AAXX 29064 41259 36/// /2725 10054 21212 37132 40306 333 0E/// 20019 59010
AAXX 29060 44210 32999 30000 11174 21208 38567 58002 80004
AAXX 29060 44216 32999 10000 11275 21299 39109 40529 51002 80004
AAXX 29060 44217 32998 10000 11112 21165 37878 40362 54000 80001
AAXX 29060 44219 32998 60000 11220 21245 38680 40463 58011 80008
AAXX 29060 44221 32998 00000 11290 21307 38662 40530 58009
AAXX 29060 44224 32998 00000 11245 21301 38082 40473 58006
AAXX 29060 44229 32999 02303 11194 21252 37951 40423 58007
AAXX 29060 44242 32998 01102 11223 21255 39409 40420 57012
AAXX 29060 44243 32999 50202 11231 21262 39507 40429 58014 85080
AAXX 29060 44254 32998 22304 11118 21250 39087 40376 58020 80004
AAXX 29060 44257 32998 60000 11252 21296 39017 40422 57023 80008
AAXX 29060 44263 32998 20000 11149 21200 38094 40418 57005 80001
AAXX 29060 44266 32999 50000 11098 21199 37782 40308 52001 83084
AAXX 29060 44286 32998 60000 11104 21180 38672 40320 58008 86010
AAXX 29060 44291 31996 62001 11184 21231 38778 40410 57015 70721 80008
AAXX 29060 44325 32999 21801 11166 21200 38909 40402 58012 80004
AAXX 29060 44329 32898 62705 11060 21187 37773 40268 58006 81044
AAXX 29060 44338 32999 50000 11094 21177 38494 40302 58003 80007
AAXX 29060 44348 32997 20000 11086 21151 38736 40325 58005 80004
AAXX 29060 44374 32999 40202 11052 21225 38279 40314 58013 81082
AAXX 29060 44385 32999 31404 11093 21168 38965 40330 57020 80001
AAXX 29060 44386 32999 00000 11134 21186 39109 40357 57019
AAXX 29064 08348 12960 00000 10004 21002 39583 40358 55003 60002 333 20000 50064 55082 70000
AAXX 29064 40100 12560 10603 10133 20026 30194 40226 52001 60004 81200 906// 333 20108 30/// 50194 55054 20823 81826 92417
AAXX 29064 40101 12957 00000 10018 20000 39146 48525 51004 60004 906// 333 20002 31/// 50144 55086 20920
AAXX 29064 40103 32960 01802 10074 20048 40235 50001 333 20007 30/// 50214 20929 555 10183
AAXX 29064 40102 NIL
AAXX 29061 40706 11940 20504 11020 21037 38727 40329 52009 60001 71000 80001 333 34108 70000 82068
AAXX 29061 40718 12565 52703 10086 20050 30345 40315 52040 60001 85300 222// 00088 20301 333 30004 50111 70000 82825 83830 81930
AAXX 29061 40732 12565 60000 10082 20050 30328 40303 52026 60001 86800 333 31102 50061 70000 82825 85627
AAXX 29061 40745 12962 01202 10054 21039 39109 40287 52017 60001 333 30108 70000
AAXX 29061 40754 11950 01802 10049 21039 38907 40287 53007 60001 70500 333 30104 5//// 70000
AAXX 29061 40766 12960 00000 10012 21067 38759 40259 52011 60001 333 30110 70000
AAXX 29061 40800 11956 03002 10004 21028 38517 40292 52013 60001 70500 333 30108 5///1 70000
AAXX 29061 40811 11930 00000 10114 20063 30216 40244 52019 60001 70500 333 30001 50231 70000
AAXX 29061 40841 12960 00000 10026 21053 38315 40279 52010 60001 333 30109 5//// 70000
AAXX 29061 40848 12662 10000 10070 21061 38566 40242 52013 60001 81400 333 30107 5///1 70000 81640
AAXX 29061 40856 11957 00802 10072 21072 38704 40268 51019 60001 70500 333 30107 5///1 70000
AAXX 29061 40875 11957 00104 10209 20014 30206 40218 52018 60001 70500 333 30005 50441 70000
AAXX 29061 40706 11940 20504 11020 21037 38727 40329 52009 60001 71000 80001 333 34108 70000 82068
AAXX 29061 40718 12565 52703 10086 20050 30345 40315 52040 60001 85300 222// 00088 20301 333 30004 50111 70000 82825 83830 81930
AAXX 29061 40732 12565 60000 10082 20050 30328 40303 52026 60001 86800 333 31102 50061 70000 82825 85627
AAXX 29061 40745 12962 01202 10054 21039 39109 40287 52017 60001 333 30108 70000
AAXX 29061 40754 11950 01802 10049 21039 38907 40287 53007 60001 70500 333 30104 5//// 70000
AAXX 29061 40766 12960 00000 10012 21067 38759 40259 52011 60001 333 30110 70000
AAXX 29061 40800 11956 03002 10004 21028 38517 40292 52013 60001 70500 333 30108 5///1 70000
AAXX 29061 40811 11930 00000 10114 20063 30216 40244 52019 60001 70500 333 30001 50231 70000
AAXX 29061 40841 12960 00000 10026 21053 38315 40279 52010 60001 333 30109 5//// 70000
AAXX 29061 40848 12662 10000 10070 21061 38566 40242 52013 60001 81400 333 30107 5///1 70000 81640
AAXX 29061 40856 11957 00802 10072 21072 38704 40268 51019 60001 70500 333 30107 5///1 70000
AAXX 29061 40875 11957 00104 10209 20014 30206 40218 52018 60001 70500 333 30005 50441 70000
AAXX 29061 08501 32/// /1706 10174 20164 30294 40330 57008 333 20164 30016 5//// 55000 20151 91109
AAXX 29061 08505 NIL
AAXX 29061 08509 32160 40502 10144 20142 30290 40355 57009 846// 333 20126 50024 55028 84703
AAXX 29061 08512 11370 71704 10169 20163 30276 40361 57004 60012 70252 878// 333 20159 30016 5//// 55012 20500 81707 85820 91107
AAXX 29061 08515 41565 20000 10144 20131 30257 40374 57002 70200 82800 333 20147 32013 5//// 55/// 2//// 81820
AAXX 29061 08533 32/// /0204 10100 20057 30295 40324 57006 333 20076 30003 5//// 55085 21261 91006 91108
AAXX 29061 08541 32/// /0304 10072 20060 30205 40328 57004 333 20065 30005 5//// 55081 21082
AAXX 29061 08545 31960 33402 10036 20003 30276 40363 52002 70200 80002 333 20036 30101 50174 55076 20777 83070
AAXX 29061 08548 32/// /9903 10071 20027 30131 40343 57004 333 20054 30001 5//// 55079 20895 91105
AAXX 29061 08554 31970 50202 10080 20035 30311 40321 55005 70311 80001 333 20067 30007 5//// 55085 21151 85070
AAXX 29061 08558 32/// /3603 10037 20030 30023 40330 52002 333 20023 30102 5//// 55000 21023 91105
AAXX 29061 08560 32/// /0304 10047 20014 39574 40356 57002 333 20047 30001 5//// 55076 20889 91007 91109
AAXX 29061 08567 32/// /0502 10044 20014 39687 40375 57001 333 20035 30000 5//// 55063 20752
AAXX 29061 08570 32/// /0404 10075 20011 39863 40334 57002 333 20030 30002 5//// 55082 20924 91109
AAXX 29061 08575 32/// /0000 11016 21023 39544 40402 52004 333 21024 30104 5//// 55/// 2////
AAXX 29061 08579 32/// /2401 10082 20070 30203 40332 57002 333 20082 30007 5//// 55082 20964 91105
AAXX 29061 06447 16/// /2403 10037 20011 30114 40242 50003 69912 333 20037 3/002 91108 91204
AAXX 29061 01026 11589 60403 11009 21049 39742 49883 56021 69912 70222 81577 333 21025 47028 70083 91108
AAXX 29064 88883 46/// /2716 10101 20069 40052 52002
AAXX 29064 88897 46/// /2819 10094 20063 40012 52006
AAXX 29064 NIL
AAXX 29064 NIL
AAXX 29064 NIL
AAXX 29064 NIL
AAXX 29064 NIL
AAXX 29064 82022 32570 40607 10257 20216 30019 40115 81150 333 59029
AAXX 29064 82193 32970 00403 10249 20235 30098 40116 333 59006
AAXX 29064 82281 32470 30604 10260 20203 30053 40115 83500 333 59006
AAXX 29064 82332 32970 41102 10238 20228 30017 40111 80001 333 59009
AAXX 29064 82398 32470 30804 10249 20226 30096 40125 83500 333 59006
AAXX 29064 82400 NIL
AAXX 29064 82579 32970 03604 10258 20232 30037 40113 333 59002
AAXX 29064 82917 31550 50000 1//// 2//// 39891 4//// 71092 81230 333 59008
AAXX 29064 82965 NIL
AAXX 29064 82993 32570 20204 10225 20218 39995 40131 82100 333 59007
AAXX 29064 83208 NIL
AAXX 29064 83349 32570 32604 10249 20235 30125 40131 83200 333 59010
AAXX 29064 83362 32570 53604 10249 20219 39877 40090 83130 333 59016
AAXX 29064 83378 32670 43304 10203 20164 38957 48520 84530 333 59012
AAXX 29064 83460 32570 33405 10230 20217 30065 40122 83100 333 59014
AAXX 29064 83497 NIL
AAXX 29064 83566 21340 50000 10173 20168 39190 48500 76062 86100 333 59022 60021
AAXX 29064 83599 NIL
AAXX 29064 83612 32970 13406 10234 20194 39456 48510 57012 80001
AAXX 29064 83649 21458 81504 10224 20218 30103 40108 57013 72196 855 1/ 333 60261
AAXX 29064 83650 NIL
AAXX 29064 83780 31240 81605 10160 20149 39242 48520 58007 71022 885/ /
AAXX 29064 83827 32970 01408 10226 20173 39798 40066 56015
AAXX 29064 83840 32470 61002 10142 20128 39121 48520 56014 86500
AAXX 29064 83899 32970 02107 10175 20150 30139 40145 56016
AAXX 29064 83925 NIL
AAXX 29064 83970 NIL
AAXX 29064 83971 NIL
AAXX 29064 87022 11420 80000 10214 20211 39570 40059 57011 60851 76596 8672/ 333 56999 86718 88545
AAXX 29064 87046 11560 61805 10213 20187 39090 48488 56017 69901 70361 82260 333 56490 57894 82830 84360
AAXX 29064 87097 32960 00910 10220 20194 39773 40075 57016
AAXX 29064 87121 31960 53204 10242 20217 39574 40069 57031 71022 81076 333 56077 81360 84270
AAXX 29064 87129 32962 62702 10234 20231 39860 40085 57024 83076
AAXX 29064 87148 32970 01402 10223 20190 39984 40089 58020
AAXX 29064 87155 32965 00000 10194 20173 30033 40093 57023
AAXX 29064 87162 32970 02005 10212 20187 30010 40078 58026
AAXX 29064 87166 32960 01606 10197 20168 30018 40090 58024
AAXX 29064 87178 32970 01404 10224 20143 39946 40088 57015
AAXX 29064 87217 NIL
AAXX 29064 87222 32770 80212 10273 20180 39546 40044 57027 885// 333 88656
AAXX 29064 87257 32965 00907 10218 20155 30021 40122 50000
AAXX 29064 87270 NIL
AAXX 29064 87289 NIL
AAXX 29064 87311 11965 33206 10233 20208 39406 40053 57021 60201 70291 81072 333 56000 81360
AAXX 29064 87320 NIL
AAXX 29064 87328 32680 70903 10252 20137 39454 40077 57016 82570 333 56060 82640 85360 95090
AAXX 29064 82143 NIL
AAXX 29064 82599 32570 21004 10248 20222 30071 40131 82100 333 59005
AAXX 29064 82824 NIL
AAXX 29064 82899 32570 40702 10268 20224 30119 40131 84200 333 59003
AAXX 29064 83117 NIL
AAXX 29064 83248 32470 30302 10264 20239 30107 40129 83200 333 59012
AAXX 29064 83746 21458 62506 10217 20195 40119 56018 72162 82530 333 60011
AAXX 29064 NIL
AAXX 29064 NIL
AAXX 29064 03132 17461 /2617 10061 20048 30124 40138 56019 60022 782// 90550 333 20043 3/003 70024 86/17 83/26 90710 91134
AAXX 29061 48839 32497 80206 10201 20163 30112 40178 58032 888// 222// 00200 2//02 333 59020 83894 88696 555 20175
AAXX 29061 48826 31530 81402 10208 20169 30042 40179 58028 71022 888// 333 59023 83895 88697
AAXX 29064 NIL
AAXX 29063 87007 11560 72302 10100 20072 36750 47151 57019 60031 70162 84605 333 56700 84720 83270
AAXX 29063 87047 32568 70000 10171 20163 38786 48505 56023 83536 333 56166 83620 84360 87270
AAXX 29061 48830 11440 83604 10145 20109 39884 40199 57020 69903 71022 888// 333 59019 83894 88697
AAXX 29061 48808 01440 80000 10132 20126 39919 40210 57021 69993 76163 888// 333 59012 69991 83894 88696 9601 0 96160
AAXX 29064 70133 32766 60000 11283 21317 39966 49972 53001 90553 333 11267 21311 555 92906
AAXX 29064 70174 11532 83503 11256 21283 39686 49946 58005 69981 771// 90553 333 11244 21289 4/071 96010 555 92906
AAXX 29064 70200 32466 40000 11322 21344 39958 49962 51004 90553 333 11228 21344 4/061 555 92906
AAXX 29064 70219 32766 83108 11250 21278 39935 49995 53009 90553 333 11233 21328 555 92906
AAXX 29064 70231 35966 00000 11411 39834 49976 52005 90553 333 11228 21411 555 92906
AAXX 29064 70261 11440 80000 11256 21278 39761 49946 53006 69931 771// 90553 333 11250 21322 96010 555 92906
AAXX 29064 70267 11564 82604 11228 21261 39442 49959 53007 69901 771// 90553 333 11228 21306 555 92906
AAXX 29064 70271 11658 80000 11167 21189 39228 49831 53007 69931 771// 90553 333 11139 21194 4/008 96010 555 92906
AAXX 29064 70273 12566 80000 11117 21161 39794 49856 53007 69901 90553 333 11094 21122 4/076 555 92906
AAXX 29064 70316 17561 83118 11061 21089 39962 49997 53017 69981 771// 90553 333 11061 21144 555 92906
AAXX 29064 70326 12566 23403 11267 21289 39940 49955 53004 69901 90554 333 11211 21294 4/005 555 92906
AAXX 29064 70340 32966 03204 11244 21283 39884 49950 53002 90553 333 11217 21256 555 92906
AAXX 29064 70350 32666 23008 11078 21183 39848 49888 51004 90553 333 11072 21122 555 92906
AAXX 29064 70361 35666 80803 11028 21056 39799 49809 53024 90553 333 11028 21061 555 92906
AAXX 29064 70381 11528 80000 11011 21011 39817 49826 53042 60031 771// 90553 333 10006 21017 4/010 96010 555 92906
AAXX 29064 70414 35566 43106 11044 21100 30096 40134 51008 90556 333 11017 21061 555 92906
AAXX 29061 40703 12960 00000 11024 21039 39012 40336 53014 60001 333 34109 70000
AAXX 29061 40712 11957 02702 11018 21044 38756 40326 52011 60001 71000 333 34113 70000
AAXX 29061 40729 12964 01302 11020 21058 38400 40307 52015 60001 333 34112 70000
AAXX 29061 40736 12560 50000 10092 20056 30312 40286 50013 60001 81130 333 31000 50091 70000 81825 84358
AAXX 29061 40739 12960 00000 10022 21020 38766 40304 53019 60001 333 30106 70000
AAXX 29061 40743 12970 01002 10044 21054 39157 40310 52017 60001 333 30104 70000
AAXX 29061 40762 12965 02502 10040 21071 38619 40296 52016 60001 333 30109 70000
AAXX 29061 40768 12960 00000 11027 21063 38311 40325 51004 60001 333 30113 70000
AAXX 29061 40769 11956 00000 11016 21060 38361 40306 51006 60001 70500 333 31090 5//// 70000
AAXX 29061 40785 12960 00000 10034 21032 39169 40301 52009 60001 333 30102 5///1 70000
AAXX 29061 40809 12965 01202 10050 21099 38566 40285 51009 60001 333 30107 70000
AAXX 29061 40821 12960 00000 10060 21039 38874 40303 52016 60001 333 30103 5//// 70000
AAXX 29061 40831 11940 03302 10086 20040 30243 40251 52017 60001 70500 333 30101 50281 70000
AAXX 29064 NIL
AAXX 29061 40701 12962 00000 11064 21102 38670 40350 53011 60001 333 3/115 47005 70000
AAXX 29061 40704 12980 01502 10002 21071 38680 40297 52020 60001 333 31107 70000
AAXX 29061 40708 12360 20000 10006 21032 38740 40291 52019 60001 82600 333 34105 70000 82708
AAXX 29061 40710 12980 09901 11052 21065 38383 40337 51013 60001 333 34113 70000
AAXX 29061 40713 12962 00802 11012 21056 38738 40321 53011 60001 333 34109 70000
AAXX 29061 40719 12460 79901 10080 20038 30326 40315 52025 60001 87300 333 31002 50091 70000 82915 85625
AAXX 29061 40731 11940 01202 11007 21041 38814 40322 53017 60001 70500 333 3/110 41998 70000
AAXX 29061 40738 12965 03303 10078 20051 30323 40325 52030 60001 333 31103 50021 70000
AAXX 29061 40740 12960 00000 10004 21054 38797 40295 52023 60001 333 3/108 46002 70000
AAXX 29061 40747 12960 00000 11024 21058 38705 40318 51010 60001 333 34111 70000
AAXX 29061 40757 12662 11801 10052 21002 38980 40296 51018 60001 81500 333 30104 70000 81635
AAXX 29061 40763 12965 00000 10056 21035 38999 40300 52027 60001 333 30105 70000
AAXX 29061 40782 12962 00000 10022 21040 38938 40285 52012 60001 333 30109 5//// 70000
AAXX 29061 40783 12962 01304 11024 21084 38034 40297 52011 60001 333 30109 5//// 70000
AAXX 29061 40789 12965 00000 10062 21029 39298 40302 52020 60001 333 30105 50171 70000
AAXX 29061 40798 11958 00000 11007 21068 38015 40303 51012 60001 70500 333 30114 70000
AAXX 29061 40818 12965 02902 11014 21076 38027 40283 53013 60001 333 30108 5///1 70000
AAXX 29061 40827 12970 00000 10052 21122 38912 40319 51012 60001 333 30105 70000
AAXX 29061 40836 12965 00000 10032 21057 38238 40249 52013 60001 333 30110 5///1 70000
AAXX 29061 40851 12660 50000 10000 21072 38313 40277 52014 60001 85500 333 30109 5//// 70000 85640
AAXX 29061 40853 12965 00000 10044 21043 37780 40218 52010 60001 333 30107 5//// 70000
AAXX 29061 40854 12960 02902 10118 21038 39023 40242 52010 60001 333 30002 50261 70000
AAXX 29061 40857 12962 00302 10144 20060 30223 40233 53011 60001 222// 00166 20000 333 30006 50331 70000
AAXX 29061 40859 12660 40000 10078 21066 38762 40229 52024 60001 84100 333 30103 50221 70000 84840
AAXX 29061 40878 12960 30502 10111 20006 38906 40258 51011 60001 83030 333 30006 50651 70000 83360
AAXX 29061 40879 12960 30000 10162 21068 39547 40235 50006 60001 83070 333 30006 50551 70000 83360
AAXX 29061 40883 11956 00104 10194 20101 30193 40216 52021 60001 70500 222// 00186 20301 333 30012 50411 70000
AAXX 29061 40898 12560 20105 10226 20145 30182 40191 51018 60001 82100 222// 00236 10400 333 30016 50441 70000 82825
AAXX 29064 78526 32666 60000 10239 20200 30156 40179 58009 90556 333 10250 20222 555 92906
AAXX 29064 78543 35866 60508 10244 20206 30098 40179 56010 90553 333 10250 20228 555 92906
AAXX 29061 30372 42799 70000 11278 21310 39384 40351 57010 81149
AAXX 29061 30433 41998 80501 11175 21201 39700 40338 58005 84022
AAXX 29061 30554 42998 81401 11275 21307 39172 40385 57014 87031
AAXX 29061 30635 41896 81002 11163 21182 39725 40336 58014 77172 8807/
AAXX 29061 30673 42999 20000 11242 21274 39492 40336 58026 82011
AAXX 29061 30692 42998 30000 11290 21307 39784 40338 57/// 82031
AAXX 29061 30758 41995 70000 11240 21308 39480 40398 57023 70542
AAXX 29061 30802 42999 30000 11108 21152 38746 48526 58016 80001
AAXX 29061 30823 42999 22602 11217 21257 39690 40387 58016 80001
AAXX 29061 30879 42999 60000 11275 21307 39558 40411 57025 80001
AAXX 29061 30935 42999 50000 11235 21275 39383 40416 58013 80002
AAXX 29061 30949 42999 50000 11203 21236 39182 40366 57023 82031
AAXX 29061 30965 42999 62202 11182 21232 39484 40374 57028 80002
AAXX 29061 31168 42999 30000 11193 21234 30210 40222 57008 80001
AAXX 29061 31300 41999 30000 11273 21285 30006 40330 57016 74000 80001
AAXX 29061 31329 42999 20000 11237 21292 39585 40318 57016 80001
AAXX 29061 31369 41598 83401 11175 21181 30161 40252 57007 70342 86502 333 86620
AAXX 29061 31416 42999 40000 11159 21165 30149 40243 57009 80001
AAXX 29061 31484 41999 12501 11093 21133 39888 40237 57018 70271 80009
AAXX 29061 31512 429// 21701 11157 21227 30155 40334 56017 80001
AAXX 29061 31538 42999 02102 11188 21229 39838 40306 57004
AAXX 29061 31707 42999 33410 11158 21228 30187 40286 57003 81081
AAXX 29061 31735 41997 72001 11172 21200 30175 40270 53003 72682 83031
AAXX 29061 31770 41596 80508 11041 21056 30184 40215 53002 73683 889// 333 91012
AAXX 29064 NIL
AAXX 29061 26997 31443 82203 11024 21030 30007 40233 57015 71011 886// 333 21037 88711
AAXX 29061 27595 11598 83304 11022 21063 39912 40058 52046 69940 70272 8850/ 333 21022 88626 91012 91113
AAXX 29061 27612 32697 22701 11042 21061 39971 40170 58011 81501 333 21046 43009
AAXX 29061 27707 31849 72302 11043 21049 39925 40230 58001 71022 87070 333 21062 43016
AAXX 29061 27719 31596 82102 11042 21054 39954 40213 54000 71011 8635/ 333 21055 42005
AAXX 29061 27786 11597 62810 11024 21068 39934 40097 52040 69930 70232 86500 333 21025 86623 91013 91115
AAXX 29061 27857 32998 02804 11049 21073 30026 40195 52022 333 21031
AAXX 29061 27906 31394 81803 11041 21043 39981 40232 57005 71011 886// 333 21047 43003
AAXX 29061 27928 32997 22302 11051 21068 30014 40229 54000 80001 333 21052 46001
AAXX 29061 27947 32997 02804 11048 21106 30050 40215 52014 333 21050 42005
AAXX 29061 27962 32997 22805 11048 21085 40176 52037 80001 333 21042 91112
AAXX 29061 27983 11598 62908 11019 21081 39977 40107 52046 69940 73673 86500 333 21013 86633 91114
AAXX 29061 27995 12598 73107 11012 21066 40098 52042 69900 87500 333 21010 91012 91114
AAXX 29061 28506 11997 83206 11021 21050 39879 49991 53053 60010 73673 8807/ 333 21028 91013 91115
AAXX 29061 28704 11998 83309 11019 21064 39955 40051 52048 69970 73632 86071 333 21022 91014 91118
AAXX 29061 28711 11295 83010 11041 21045 39617 49993 52043 60020 78683 883// 333 21044 88905 91016 91117 92982
AAXX 29061 28807 11697 83213 11008 21057 30013 40064 52036 69900 73673 885// 333 21010 88636 91017 91119
AAXX 29061 34009 31396 62201 11036 21048 39939 40255 53001 72841 86600 333 21038
AAXX 29061 34110 32998 12604 11040 21049 39972 40262 52004 80001 333 21045
AAXX 29061 34123 32970 02604 11032 21049 30054 40244 52008 333 21032
AAXX 29061 34152 32999 02904 11046 21073 30019 40223 52028 333 21036
AAXX 29061 34163 32998 02706 11049 21077 40186 52024
AAXX 29061 34171 32970 03010 11041 21083 39971 40169 52031 333 21032 91014 91117
AAXX 29061 34186 32998 03008 11040 21098 30001 40143 52040 333 91013 91115
AAXX 29061 34247 32966 02803 11035 21056 30141 40260 52018 333 21040
AAXX 29061 34336 32970 02902 11048 21054 30165 40274 52019 333 21048
AAXX 29061 34391 32997 02706 11041 21064 30130 40162 52033 333 21033
AAXX 29061 35011 11999 83207 11020 21082 40035 52043 69960 73673 8807/ 333 21020 91113
AAXX 29061 35121 11498 62908 11026 21042 39873 40020 52038 69930 73673 84530 333 21025 91012 91112
BBXX 44032 29061 99437 70694 46/30 /2911 11020 49966 51017 90604 22200 00081 11105 70027 333 91214 555 11136 22142
BBXX 46111 29061 99481 71227 46/// /2708 10100 40050 51045 90600 22200 00052
BBXX WAZV 29064 99587 71461 41497 82637 11010 2105/ 49850 52043 70222 887// 22233 00050 20709 327// 41007 5//// 61/// 81025 ICE /////
BBXX C6XC6 29064 99133 70902 41998 03109 10272 2//// 40130 5//// 70200 80//0 22272 00300 21201 312// 41002 5//// 6//// 8//// ICE /////
BBXX WQZ9670 29064 99472 70872 43/97 /1925 11038 2//// 40071 5//// 7//// 8//// 22263 0//// 2//02 3//// 4//// 5//// 6//// 8//// ICE /////
BBXX C6XP7 29063 99198 70676 41898 11224 1//// 2//// 40190 54/// 7//// 81000 22274 00260 20704 30505 40704 50704 6//// 8//// ICE /////
BBXX C6VG7 29064 99189 70794 41798 40114 10290 2//// 40150 57010 7//// 84189 22264 00270 20301 3//// 4//// 5//// 6//// 8//// ICE /////
BBXX CFN4309 29064 99453 70739 41/98 82435 11013 2//// 41005 53020 70201 8//// 222// 00010 20402 3//// 4//// 5//// 6//// 8//// ICE /////
BBXX WCAJ 29064 99501 71375 41698 72825 10050 20028 40010 52020 78977 876// 22212 00070 20406 327// 40710 5//// 6//// 80040 ICE /////
BBXX C6YA5 29064 99529 50737 41/// /3138 10090 2//// 40050 5//// 7//// 8//// 22213 00100 20402 3//// 4//// 5//// 6//// 8//// ICE /////
BBXX VRIO2 29064 99284 30032 41397 71314 10190 20159 40190 54/// 70222 86263 22273 00180 2//// 3//// 4//// 5//// 6//// 80170 ICE /////
AAXX 29061 28676 11597 81305 10000 21020 39763 49886 57012 60020 77072 8802/ 333 21026
AAXX 29061 28766 11997 82009 11009 21031 39684 49868 53006 60020 73773 8802/ 333 21035 91115
AAXX 29061 28867 NIL
AAXX 29061 28879 11498 32117 11011 21049 39655 49936 53011 69920 72687 83900 333 21034 91022 91124
AAXX 29061 28952 NIL
AAXX 29061 28966 11593 82311 11026 21036 39657 49936 53029 69990 77373 885// 333 21037 91019 91124
AAXX 29061 29802 31597 81708 11052 21073 39958 40103 57024 73633 8453/ 333 21065 91115
AAXX 29061 29807 31495 81904 11052 21073 39974 40093 57021 77373 8802/ 333 21082
AAXX 29061 34691 32998 02908 11012 21063 30224 40211 52038 333 21011
AAXX 29061 35067 11598 61807 11030 21047 39700 49973 52034 60020 73633 86500 333 21032 91118
AAXX 29061 35078 11497 82513 11028 21041 39622 49997 52023 69990 78573 889// 333 21044 91016 91120
AAXX 29061 35085 31493 81711 11017 21025 39542 40011 53010 60030 73933 886// 333 21069 91018 91124
AAXX 29061 35108 32597 63306 11013 21061 30054 40100 52050 86500 333 21026
AAXX 29061 35188 11495 81808 11016 21030 39618 40047 57010 60010 78583 889// 333 21063 91018 91124
AAXX 29061 35217 32998 62910 11032 21071 30054 40094 52036 80003 333 21028
AAXX 29061 35229 11496 82705 11026 21039 39754 40025 52025 60030 78583 883// 333 21029
AAXX 29061 35302 32998 63309 11028 21074 30100 40119 52038 86058 333 21028
AAXX 29061 35357 NIL
AAXX 29061 35394 NIL
AAXX 29061 35406 32997 02907 11021 21064 30131 40133 52034 333 21026
AAXX 29061 35416 32697 72610 11034 21070 39974 40095 52027 87500 333 21030
AAXX 29061 35426 11494 82812 11036 21041 39775 40067 53028 60020 77173 8872/ 333 21034 91116
AAXX 29061 35497 NIL
AAXX 29061 35532 32498 82807 11042 21065 39577 40070 52026 8802/ 333 21021
AAXX 29061 35671 NIL
AAXX 29061 35700 32998 02806 11006 21051 30212 40188 52032 333 21010
AAXX 29061 35746 NIL
AAXX 29061 35796 NIL
AAXX 29061 35849 NIL
AAXX 29061 35925 NIL
AAXX 29061 35953 NIL
AAXX 29061 35969 NIL
AAXX 29061 36003 11698 71707 11053 21086 39991 40144 57025 60010 73632 82571 333 21102 91113
AAXX 29061 36152 31598 71804 11034 21090 30006 40196 57024 73632 87500 333 21166
AAXX 29061 36177 31697 71505 11052 21089 30004 40255 57013 73631 82531 333 21149
AAXX 29061 36208 32999 62502 11050 21106 39294 40291 58005 83041 333 22141
AAXX 29061 36397 32699 61402 11100 21147 39715 40300 56001 82541 333 21115
AAXX 29061 36428 32999 60000 11166 21181 39827 40363 58009 82042 333 21187 95000
AAXX 29061 36535 32599 71003 11140 21183 39696 40368 58001 83530 333 21251
AAXX 29061 36639 32999 20801 11094 21129 39695 40325 57003 80002 333 21201
AAXX 29061 36821 32599 71601 10009 21029 39785 40276 58012 86932 333 21064
AAXX 29061 36859 32998 71602 11052 21069 39513 40317 58005 84045 333 21082
AAXX 29061 36864 32999 30000 10004 21060 39375 40275 57006 80001 333 21106
AAXX 29061 36870 32997 00301 10015 21043 39242 40256 58021 333 21036
AAXX 29061 38001 NIL
AAXX 29061 38062 NIL
AAXX 29061 38069 NIL
AAXX 29061 38196 NIL
AAXX 29061 38198 NIL
AAXX 29061 38222 32998 61802 10006 21048 39709 40274 57010 80006 333 21086
AAXX 29061 38232 NIL
AAXX 29061 38328 NIL
AAXX 29061 38334 NIL
AAXX 29061 38341 11597 82303 10010 21029 39461 40253 57007 69900 70281 8597/ 333 21028
AAXX 29061 38343 32998 80000 10006 21035 39408 40259 57015 80001 333 21069
AAXX 29061 38439 NIL
AAXX 29061 22271 NIL
AAXX 29061 22520 32498 81903 11064 21083 39954 49964 57026 885// 333 21076 88613
AAXX 29061 22550 11372 82501 11037 21062 39981 49991 58003 60030 70232 886// 333 21039 88709
AAXX 29061 22583 11480 72706 11030 21047 39863 49944 52019 69960 73688 875// 333 21052 87612 91113
AAXX 29061 22768 11497 83202 11055 21076 39979 40036 52013 69920 70232 885// 333 21044
AAXX 29061 22845 32998 82003 11054 21068 39891 40051 58017 80009 333 21072
AAXX 29061 22887 11499 73005 11038 21071 39949 40020 52024 69930 70232 8655/ 333 21026 86618 91112
AAXX 29061 23205 NIL
AAXX 29061 23219 NIL
AAXX 29061 23418 11365 81701 11103 21116 39813 49888 52010 69900 72272 886// 333 21129 88709
AAXX 29061 23606 11340 80000 11083 21085 39734 49908 52014 60030 72687 885// 333 21107 85707
AAXX 29061 23711 11998 82401 11109 21122 39732 49909 52022 60020 70282 8602/ 333 21104
AAXX 29061 23804 11498 73002 11034 21045 39816 49963 52036 60010 77272 85530 333 21071 85614
AAXX 29061 27037 32998 82101 11069 21081 39938 40105 58001 80009 333 21054
AAXX 29061 27199 11498 83203 11037 21055 39817 40015 52045 60040 73683 8642/ 333 21031
AAXX 29061 27271 11597 72505 11033 21065 39920 40077 52027 69930 70232 87500 333 21032
AAXX 29061 27459 31598 63003 11043 21077 39933 40134 52028 70232 86900 333 21033 86929
AAXX 29061 27730 32598 62601 11053 21071 39994 40195 52011 86500 333 21045 43004 86620
AAXX 29061 22028 11576 72604 11028 21041 39883 49921 58003 60022 78783 87900 333 21033 48035 91007 91114
AAXX 29061 22106 32999 00000 11144 21157 39862 49944 58010 333 21144 47022
AAXX 29061 22127 32998 00401 11098 21115 39736 49943 57008 333 21098 47026 91002
AAXX 29061 22324 32982 20301 11103 21109 39902 49953 57019 80001 333 21103 47022 91002
AAXX 29061 22621 11456 81905 11048 21061 39855 49997 57023 78582 889// 333 21076 47025 88918
AAXX 29061 22831 32997 60000 11067 21079 39977 40038 57019 86030 333 21081 47036
AAXX 29061 22892 11496 82210 10018 20007 39951 49967 56030 60022 76162 8872/ 333 21016 87710 91012 91114
AAXX 29061 26275 11497 82005 10005 21008 30036 40067 57038 69902 77172 885// 333 21026 88613
AAXX 29061 26389 32597 61903 11009 21031 39841 40108 58036 84530 333 21028
AAXX 29061 26499 32497 72104 11027 21043 39920 40154 57016 87500 333 21048 44005 87614
AAXX 29061 26695 31296 82304 11034 21045 39869 40186 57016 71022 886// 333 21035 42008 88706
AAXX 29061 26882 32468 72405 11028 21041 39917 40201 57013 87500 333 21029 87611
AAXX 29061 28676 11597 81305 10000 21020 39763 49886 57012 60020 77072 8802/ 333 21026
AAXX 29061 28766 11997 82009 11009 21031 39684 49868 53006 60020 73773 8802/ 333 21035 91115
AAXX 29061 28867 NIL
AAXX 29061 28879 11498 32117 11011 21049 39655 49936 53011 69920 72687 83900 333 21034 91022 91124
AAXX 29061 28952 NIL
AAXX 29061 28966 11593 82311 11026 21036 39657 49936 53029 69990 77373 885// 333 21037 91019 91124
AAXX 29061 29802 31597 81708 11052 21073 39958 40103 57024 73633 8453/ 333 21065 91115
AAXX 29061 29807 31495 81904 11052 21073 39974 40093 57021 77373 8802/ 333 21082
AAXX 29061 34691 32998 02908 11012 21063 30224 40211 52038 333 21011
AAXX 29061 35067 11598 61807 11030 21047 39700 49973 52034 60020 73633 86500 333 21032 91118
AAXX 29061 35078 11497 82513 11028 21041 39622 49997 52023 69990 78573 889// 333 21044 91016 91120
AAXX 29061 35085 31493 81711 11017 21025 39542 40011 53010 60030 73933 886// 333 21069 91018 91124
AAXX 29061 35108 32597 63306 11013 21061 30054 40100 52050 86500 333 21026
AAXX 29061 35188 11495 81808 11016 21030 39618 40047 57010 60010 78583 889// 333 21063 91018 91124
AAXX 29061 35217 32998 62910 11032 21071 30054 40094 52036 80003 333 21028
AAXX 29061 35229 11496 82705 11026 21039 39754 40025 52025 60030 78583 883// 333 21029
AAXX 29061 35302 32998 63309 11028 21074 30100 40119 52038 86058 333 21028
AAXX 29061 35357 NIL
AAXX 29061 35394 NIL
AAXX 29061 35406 32997 02907 11021 21064 30131 40133 52034 333 21026
AAXX 29061 35416 32697 72610 11034 21070 39974 40095 52027 87500 333 21030
AAXX 29061 35426 11494 82812 11036 21041 39775 40067 53028 60020 77173 8872/ 333 21034 91116
AAXX 29061 35497 NIL
AAXX 29061 35532 32498 82807 11042 21065 39577 40070 52026 8802/ 333 21021
AAXX 29061 35671 NIL
AAXX 29061 35700 32998 02806 11006 21051 30212 40188 52032 333 21010
AAXX 29061 35746 NIL
AAXX 29061 35796 NIL
AAXX 29061 35849 NIL
AAXX 29061 35925 NIL
AAXX 29061 35953 NIL
AAXX 29061 35969 NIL
AAXX 29061 36003 11698 71707 11053 21086 39991 40144 57025 60010 73632 82571 333 21102 91113
AAXX 29061 36152 31598 71804 11034 21090 30006 40196 57024 73632 87500 333 21166
AAXX 29061 36177 31697 71505 11052 21089 30004 40255 57013 73631 82531 333 21149
AAXX 29061 36208 32999 62502 11050 21106 39294 40291 58005 83041 333 22141
AAXX 29061 36397 32699 61402 11100 21147 39715 40300 56001 82541 333 21115
AAXX 29061 36428 32999 60000 11166 21181 39827 40363 58009 82042 333 21187 95000
AAXX 29061 36535 32599 71003 11140 21183 39696 40368 58001 83530 333 21251
AAXX 29061 36639 32999 20801 11094 21129 39695 40325 57003 80002 333 21201
AAXX 29061 36821 32599 71601 10009 21029 39785 40276 58012 86932 333 21064
AAXX 29061 36859 32998 71602 11052 21069 39513 40317 58005 84045 333 21082
AAXX 29061 36864 32999 30000 10004 21060 39375 40275 57006 80001 333 21106
AAXX 29061 36870 32997 00301 10015 21043 39242 40256 58021 333 21036
AAXX 29061 38001 NIL
AAXX 29061 38062 NIL
AAXX 29061 38069 NIL
AAXX 29061 38196 NIL
AAXX 29061 38198 NIL
AAXX 29061 38222 32998 61802 10006 21048 39709 40274 57010 80006 333 21086
AAXX 29061 38232 NIL
AAXX 29061 38328 NIL
AAXX 29061 38334 NIL
AAXX 29061 38341 11597 82303 10010 21029 39461 40253 57007 69900 70281 8597/ 333 21028
AAXX 29061 38343 32998 80000 10006 21035 39408 40259 57015 80001 333 21069
AAXX 29061 38439 NIL
AAXX 29064 91165 12566 60512 10228 20183 30189 40225 53007 69951 90553 333 10256 20222 555 92906
AAXX 29064 91182 32566 40612 10244 20183 30208 40212 53006 90553 333 10278 20233 555 92906
AAXX 29064 91190 32566 40513 10222 20178 30202 40222 51013 90554 333 10261 20211 555 92906
AAXX 29064 91212 12466 40813 10283 20233 31360 40097 55007 69931 90554 555 92906
AAXX 29064 91285 11448 82704 10206 20189 30208 40223 53012 60031 765// 90553 333 10250 20189 96010 555 92906
AAXX 29061 40701 12962 00000 11064 21102 38670 40350 53011 60001 333 3/115 47005 70000
AAXX 29061 40704 12980 01502 10002 21071 38680 40297 52020 60001 333 31107 70000
AAXX 29061 40708 12360 20000 10006 21032 38740 40291 52019 60001 82600 333 34105 70000 82708
AAXX 29061 40710 12980 09901 11052 21065 38383 40337 51013 60001 333 34113 70000
AAXX 29061 40713 12962 00802 11012 21056 38738 40321 53011 60001 333 34109 70000
AAXX 29061 40719 12460 79901 10080 20038 30326 40315 52025 60001 87300 333 31002 50091 70000 82915 85625
AAXX 29061 40731 11940 01202 11007 21041 38814 40322 53017 60001 70500 333 3/110 41998 70000
AAXX 29061 40738 12965 03303 10078 20051 30323 40325 52030 60001 333 31103 50021 70000
AAXX 29061 40740 12960 00000 10004 21054 38797 40295 52023 60001 333 3/108 46002 70000
AAXX 29061 40747 12960 00000 11024 21058 38705 40318 51010 60001 333 34111 70000
AAXX 29061 40757 12662 11801 10052 21002 38980 40296 51018 60001 81500 333 30104 70000 81635
AAXX 29061 40763 12965 00000 10056 21035 38999 40300 52027 60001 333 30105 70000
AAXX 29061 40782 12962 00000 10022 21040 38938 40285 52012 60001 333 30109 5//// 70000
AAXX 29061 40783 12962 01304 11024 21084 38034 40297 52011 60001 333 30109 5//// 70000
AAXX 29061 40789 12965 00000 10062 21029 39298 40302 52020 60001 333 30105 50171 70000
AAXX 29061 40798 11958 00000 11007 21068 38015 40303 51012 60001 70500 333 30114 70000
AAXX 29061 40818 12965 02902 11014 21076 38027 40283 53013 60001 333 30108 5///1 70000
AAXX 29061 40827 12970 00000 10052 21122 38912 40319 51012 60001 333 30105 70000
AAXX 29061 40836 12965 00000 10032 21057 38238 40249 52013 60001 333 30110 5///1 70000
AAXX 29061 40851 12660 50000 10000 21072 38313 40277 52014 60001 85500 333 30109 5//// 70000 85640
AAXX 29061 40853 12965 00000 10044 21043 37780 40218 52010 60001 333 30107 5//// 70000
AAXX 29061 40854 12960 02902 10118 21038 39023 40242 52010 60001 333 30002 50261 70000
AAXX 29061 40857 12962 00302 10144 20060 30223 40233 53011 60001 222// 00166 20000 333 30006 50331 70000
AAXX 29061 40859 12660 40000 10078 21066 38762 40229 52024 60001 84100 333 30103 50221 70000 84840
AAXX 29061 40878 12960 30502 10111 20006 38906 40258 51011 60001 83030 333 30006 50651 70000 83360
AAXX 29061 40879 12960 30000 10162 21068 39547 40235 50006 60001 83070 333 30006 50551 70000 83360
AAXX 29061 40883 11956 00104 10194 20101 30193 40216 52021 60001 70500 222// 00186 20301 333 30012 50411 70000
AAXX 29061 40898 12560 20105 10226 20145 30182 40191 51018 60001 82100 222// 00236 10400 333 30016 50441 70000 82825
AAXX 29064 91245 32566 20912 10270 20230 30144 90559 555 92906
AAXX 29061 40703 12960 00000 11024 21039 39012 40336 53014 60001 333 34109 70000
AAXX 29061 40712 11957 02702 11018 21044 38756 40326 52011 60001 71000 333 34113 70000
AAXX 29061 40729 12964 01302 11020 21058 38400 40307 52015 60001 333 34112 70000
AAXX 29061 40736 12560 50000 10092 20056 30312 40286 50013 60001 81130 333 31000 50091 70000 81825 84358
AAXX 29061 40739 12960 00000 10022 21020 38766 40304 53019 60001 333 30106 70000
AAXX 29061 40743 12970 01002 10044 21054 39157 40310 52017 60001 333 30104 70000
AAXX 29061 40762 12965 02502 10040 21071 38619 40296 52016 60001 333 30109 70000
AAXX 29061 40768 12960 00000 11027 21063 38311 40325 51004 60001 333 30113 70000
AAXX 29061 40769 11956 00000 11016 21060 38361 40306 51006 60001 70500 333 31090 5//// 70000
AAXX 29061 40785 12960 00000 10034 21032 39169 40301 52009 60001 333 30102 5///1 70000
AAXX 29061 40809 12965 01202 10050 21099 38566 40285 51009 60001 333 30107 70000
AAXX 29061 40821 12960 00000 10060 21039 38874 40303 52016 60001 333 30103 5//// 70000
AAXX 29061 40831 11940 03302 10086 20040 30243 40251 52017 60001 70500 333 30101 50281 70000
AAXX 29061 20107 32997 00604 11165 21215 39926 40026 53003 333 21177 91005
AAXX 29061 22003 NIL
AAXX 29061 22004 NIL
AAXX 29061 22100 NIL
AAXX 29061 22140 NIL
AAXX 29061 22113 11584 71904 11063 21075 39870 49934 58008 69902 70281 86930 333 21063 43008 91007 91111
AAXX 29061 22212 32975 20401 11132 21145 39776 49946 57014 82030 333 21133 47029 91002 93501
AAXX 29061 22213 NIL
AAXX 29061 22217 32984 50101 11150 21163 39913 49946 57028 85030 333 21165 47033 91003 93501
AAXX 29061 22235 32983 00000 11158 21171 39749 49954 58006 333 21158 47028
AAXX 29061 22249 32984 02901 11106 21119 39758 49951 52002 333 21107 47017 91002
AAXX 29061 22312 32584 82002 11117 21130 39924 49947 58031 885// 333 21121 43020 91004
AAXX 29061 22334 32984 03602 11056 21060 39946 49953 57014 333 21057 47005 91002
AAXX 29061 22349 32598 22402 11093 21114 39949 49961 52002 81501 333 21093 47004 91004 91110
AAXX 29061 22408 11340 80801 11078 21088 39787 49940 57043 69922 77372 8872/ 333 21142 47019 88709
AAXX 29061 22602 11357 81504 11031 21038 39703 49928 57058 60012 77172 8872/ 333 21062 47024 88709
AAXX 29061 22619 32482 81903 11043 21059 39831 49994 57026 885// 333 21053 48014 88613
AAXX 29061 22721 32498 80000 11041 21046 39900 40002 58030 885// 333 21063 47039 86615
AAXX 29061 22802 11521 81605 10008 21000 39937 49960 57058 69982 78582 889// 333 21028 91112 42997
AAXX 29061 22820 32984 81903 11026 21042 39867 40006 57038 8802/ 333 21040 47006
AAXX 29061 26059 11497 82003 10023 20004 39974 49999 57043 69902 70276 886// 333 21007 88712
AAXX 29061 26063 11497 82105 10015 21007 39988 49996 57042 69902 72287 885// 333 20003 88612
AAXX 29061 26094 32470 81804 11004 21025 39972 40049 57037 885// 333 21031 43001 88620
AAXX 29061 26157 11296 82008 10018 20013 39963 40012 57037 69902 78082 889// 333 20002 86706 91114
AAXX 29061 26167 11359 82105 10007 21001 39921 40033 57036 69902 77172 886// 333 21008 88709
AAXX 29061 26258 11496 82103 10016 20005 39993 40049 57033 69902 75162 886// 333 21004
AAXX 29061 26298 32597 72004 11012 21035 39870 40103 57029 87500 333 21038 47001
AAXX 29061 26359 11482 82003 10013 21004 39950 40085 57028 69902 70282 8872/ 333 21016
AAXX 29061 26702 11496 82602 10046 20039 30060 40086 57020 69952 75865 8872/ 333 20037 91006 91107
AAXX 29061 26781 32397 82004 11024 21036 39875 40176 57021 886// 333 21024 88707
AAXX 29061 27208 31496 82003 11027 21037 39937 40117 57023 71022 886// 333 21032 43005
AAXX 29061 27402 32997 72003 11039 21054 39963 40149 57015 87030 333 21042 43003
AAXX 29061 40701 12962 00000 11064 21102 38670 40350 53011 60001 333 3/115 47005 70000
AAXX 29061 40704 12980 01502 10002 21071 38680 40297 52020 60001 333 31107 70000
AAXX 29061 40708 12360 20000 10006 21032 38740 40291 52019 60001 82600 333 34105 70000 82708
AAXX 29061 40710 12980 09901 11052 21065 38383 40337 51013 60001 333 34113 70000
AAXX 29061 40713 12962 00802 11012 21056 38738 40321 53011 60001 333 34109 70000
AAXX 29061 40719 12460 79901 10080 20038 30326 40315 52025 60001 87300 333 31002 50091 70000 82915 85625
AAXX 29061 40731 11940 01202 11007 21041 38814 40322 53017 60001 70500 333 3/110 41998 70000
AAXX 29061 40738 12965 03303 10078 20051 30323 40325 52030 60001 333 31103 50021 70000
AAXX 29061 40740 12960 00000 10004 21054 38797 40295 52023 60001 333 3/108 46002 70000
AAXX 29061 40747 12960 00000 11024 21058 38705 40318 51010 60001 333 34111 70000
AAXX 29061 40757 12662 11801 10052 21002 38980 40296 51018 60001 81500 333 30104 70000 81635
AAXX 29061 40763 12965 00000 10056 21035 38999 40300 52027 60001 333 30105 70000
AAXX 29061 40782 12962 00000 10022 21040 38938 40285 52012 60001 333 30109 5//// 70000
AAXX 29061 40783 12962 01304 11024 21084 38034 40297 52011 60001 333 30109 5//// 70000
AAXX 29061 40789 12965 00000 10062 21029 39298 40302 52020 60001 333 30105 50171 70000
AAXX 29061 40798 11958 00000 11007 21068 38015 40303 51012 60001 70500 333 30114 70000
AAXX 29061 40818 12965 02902 11014 21076 38027 40283 53013 60001 333 30108 5///1 70000
AAXX 29061 40827 12970 00000 10052 21122 38912 40319 51012 60001 333 30105 70000
AAXX 29061 40836 12965 00000 10032 21057 38238 40249 52013 60001 333 30110 5///1 70000
AAXX 29061 40851 12660 50000 10000 21072 38313 40277 52014 60001 85500 333 30109 5//// 70000 85640
AAXX 29061 40853 12965 00000 10044 21043 37780 40218 52010 60001 333 30107 5//// 70000
AAXX 29061 40854 12960 02902 10118 21038 39023 40242 52010 60001 333 30002 50261 70000
AAXX 29061 40857 12962 00302 10144 20060 30223 40233 53011 60001 222// 00166 20000 333 30006 50331 70000
AAXX 29061 40859 12660 40000 10078 21066 38762 40229 52024 60001 84100 333 30103 50221 70000 84840
AAXX 29061 40878 12960 30502 10111 20006 38906 40258 51011 60001 83030 333 30006 50651 70000 83360
AAXX 29061 40879 12960 30000 10162 21068 39547 40235 50006 60001 83070 333 30006 50551 70000 83360
AAXX 29061 40883 11956 00104 10194 20101 30193 40216 52021 60001 70500 222// 00186 20301 333 30012 50411 70000
AAXX 29061 40898 12560 20105 10226 20145 30182 40191 51018 60001 82100 222// 00236 10400 333 30016 50441 70000 82825
AAXX 29061 40716 11958 00000 11028 21028 39003 40329 52012 60001 71000 333 30108 70000
AAXX 29061 40719 12460 79901 10080 20038 30326 40315 52025 60001 87300 333 31002 50091 70000 82915 85625
AAXX 29061 40721 12960 00000 10084 21001 39752 40310 52028 60001 333 31101 50181 70000
AAXX 29061 40858 12960 00000 10128 20055 30220 40230 52012 60001 333 30004 50431 70000
AAXX 29061 40872 12960 03204 10168 20006 30211 40216 52016 60001 222// 00222 20301 333 30009 50481 70000
AAXX 29061 40877 12960 00904 10156 21068 39656 40204 52012 60001 333 30004 50351 70000
AAXX 29061 40898 12560 20105 10226 20145 30182 40191 51018 60001 82100 222// 00236 10400 333 30016 50441 70000 82825
AAXX 29064 65306 32960 50000 10158 20050 39806 40140 80002 333 01200 20156 50784 55096 58005 85076
AAXX 29064 65319 32958 50000 10202 20035 39620 40133 80002 333 01900 20195 50804 55096 59006 85076
AAXX 29064 65330 31920 50206 10190 20063 39686 40124 70522 80002 333 01900 20190 50684 55086 00438 58006 85076
AAXX 29064 65335 32456 70000 10235 20197 39903 40126 85502 333 02000 20228 50374 55057 58007 85610 83076
AAXX 29064 65344 31428 73204 10270 20256 30103 40114 71022 83502 333 02500 20268 50334 55077 59004 83610 85076
AAXX 29061 08521 32470 40106 10166 20103 30254 40325 57007 84800 333 20164 30/// 55048 83816 91010
AAXX 29061 08524 32465 30604 10161 20100 30236 40335 57003 83800 333 20158 3/013 40/// 5//// 55051 20913 82815 91008 91109
BBXX VRIO2 29064 99284 30032 41397 71314 10190 20159 40190 54/// 70222 86263 22273 00180 2//// 3//// 4//// 5//// 6//// 80170 ICE /////
BBXX A8UU3 29064 99035 50063 41398 81715 10240 20219 40170 51010 7//22 8/7// 22233 2//// 317// 40503 80225
BBXX DPOG 29064 99071 70259 41/98 70411 10260 20199 40155 58005 70300 8//// 22254 2//// 80220
BBXX 2AQK9 29064 99042 70025 41397 82611 10280 20252 40121 55008 71322 8777/ 22224 04300 20402 80260
BBXX DDZD2 29064 99248 10356 41598 73311 10195 20138 40180 51008 70322 875// 22235 00220 20601 80160
BBXX 3FMV6 29063 99285 30445 41297 71122 10260 20246 40057 51010 70222 87779 22214 06250 20102 80250
BBXX ONAR 29063 99151 30013 41597 81419 10200 2015/ 40170 54000 78062 8544/ 22273 00210 20704 314// 4//// 5//// 6//// 80170 ICE /////
BBXX PHKL 29060 99131 10430 41598 41511 10270 20212 40179 53/// 70211 841// 22233 00261 20301 316// 40602 5//// 80229
BBXX PDKK 29063 99042 30001 41398 81607 10242 20221 40136 51010 70222 887// 22271 20201 318// 41002 80228
BBXX A8AX3 29063 99047 30117 41396 31402 10240 40140 51/// 7//// 83212 22200 2//// 30000
BBXX UBAU 29061 99121 70174 41898 50303 10250 40153 54000 70211 85050 22211 04255 20100
BBXX A8KH9 29064 99198 30624 41498 40718 10270 20257 40110 51150 70322 83244 22224 02260 20101 30102 40202 50303 80260
BBXX DIIN 29063 99129 10630 41998 60320 10270 20261 40160 54000 7//// 86//2 22264 00260 2//03 3//// 4//// 5//// 80263
BBXX A8OH4 29063 99270 70343 41497 30920 10205 20167 40270 54000 70211 821// 22224 04250 20804 309// 40804 80180
BBXX 9V8797 29064 99218 11138 43/97 40832 10173 40193 58025 22284 00188 2//// 4////
BBXX SHJC 29061 99085 10715 43/98 63309 10281 40133 53000 22274 00282 2//// 4////
BBXX ATMG 29064 99176 10716 41597 40915 10260 20247 41020 50010 70302 32/// 22233
BBXX WCX8882 29064 99315 11295 41497 83619 10140 2009/ 40238 57024 70522 886// 22235 00190 20201 3//// 40000 5//// 6//// 80110 ICE /////
BBXX ONFE 29064 99058 10968 41399 40713 10280 2024/ 40130 58010 70222 842// 22264 00270 20402 309// 40503 5//// 6//// 80250 ICE /////
BBXX A8ME3 29060 99056 11071 41396 80414 10255 20234 40100 56015 76366 8/9// 22213 04260 29904 304// 40906 5////
BBXX A8EH3 29063 99514 11662 41497 80431 11010 21010 40105 54000 70377 887// 22263 04040 20606 81010
BBXX OYGR2 29064 99064 10781 41497 72816 10290 20217 40116 58006 71022 83615 22224 04283 20303 30000 80238
BBXX DCDO2 29063 99051 11255 41598 60510 10300 20246 40090 56010 70322 86144 22224 00290 20301 3//// 4//// 5//// 80260
BBXX MTFH5 29063 99060 10973 41498 40815 10287 20236 40113 56010 70200 84300 22273 20403 320// 40702 5//// 80250
BBXX DIHC 29063 99307 11238 41497 83520 10130 20039 40275 58015 70222 8571/ 22254 00150 20402 80085
BBXX PBDH 29063 99057 10836 41998 42711 10310 40106 58/// 70311 81018 22223 00277 2//02 33626 40802 50702
BBXX C6YA5 29064 99529 50737 41/// /3138 10090 2//// 40050 5//// 7//// 8//// 22213 00100 20402 3//// 4//// 5//// 6//// 8//// ICE /////
BBXX DFCX2 29063 99197 50760 41/97 /1506 10195 20147 40160 57009 70022 8//// 22284 06208 20200
BBXX 44255 29061 99473 70573 46/// /1215 10043 49829 57085 22200 00036 10505 70027 333 91219
BBXX KRGB 29064 99264 71471 41/98 61120 10211 2014/ 40250 52024 7//22 86/// 22214 00211 20804 309// 41205 5//// 6//// 80167 ICE /////
BBXX DDBR2 29064 99262 70415 41/98 /1311 10220 20180 40260 54000 70311 8//// 22264 00240 20401 331// 40906 5//// 80195
BBXX S6IH 29061 99237 70492 41498 31106 10240 20210 40260 54000 70200 82460 22223 04245 20401 334// 41205 5//// 80220
BBXX SMGW 29061 99336 71266 43/98 63609 10139 40292 57005 22224 00159 2//// 4////
BBXX 44067 29061 99384 70770 46/// /0102 10026 40167 53011 90600
BBXX 44139 29061 99442 70571 46/// /2412 10080 49931 52004 22200 00056 11106 70031 333 91214
BBXX WDD6126 29064 99324 70767 41798 72913 10160 2007/ 40180 51003 70222 87540 22264 00210 20202 328// 40604 5//// 6//// 80110 ICE /////
BBXX WSRH 29064 99239 71535 41/98 70613 10217 2018/ 40200 54001 7//22 86/// 22214 00222 29905 309// 4//05 5//// 6//// 80194 ICE /////
BBXX WCAJ 29064 99501 71375 41698 72825 10050 20028 40010 52020 78977 876// 22212 00070 20406 327// 40710 5//// 6//// 80040 ICE /////
BBXX C6KJ5 29064 99263 70938 41397 12715 15215 32306 10200 2015/ 40185 57005 70200 83100 22233 00248 80170
BBXX PHQX 29063 99262 70440 41598 20208 10220 20190 40252 56008 70200 82105 22254 20201 332// 40806 5//// 80200
BBXX DCPC2 29064 99229 71312 41598 80517 10190 20142 40230 50000 70211 8677/ 22264 00200 20404 3//// 4//// 5//// 80160
BBXX A8IM7 29064 99332 71569 41997 42218 10200 20179 40236 52018 70111 83059 22225 04210 20804 332// 41808 5//// 80186
BBXX A8KM9 29064 99247 71465 41598 40717 10210 20138 40250 54000 70200 84165 22264 20302 80165
BBXX VQKR7 29064 99322 71171 41296 33003 10125 20116 40212 54000 71100 82115 22200 04070 20401 33000 40401 80120
BBXX OXBB2 29061 99280 70463 41898 32506 10215 20169 40235 51010 70211 82445 22254 00230 20306 327// 40306 80185
BBXX DCLH2 29060 99300 71675 41/98 32312 10215 20200 40200 54000 70111 83/// 22263 06220 2//// 3//// 4//// 5//// 80205
BBXX C6XP7 29063 99198 70676 41898 11224 1//// 2//// 40190 54/// 7//// 81000 22274 00260 20704 30505 40704 50704 6//// 8//// ICE /////
BBXX ELZA8 29063 99184 70827 41998 00810 10255 20212 40160 58015 70200 80000 22275 04290 29902 80225
BBXX DGBE 29063 99493 71757 41/98 33617 10006 21088 40144 53030 77100 8/477 22224 00060 2//// 82025
BBXX PHDL 29063 99241 70854 41/99 /9903 10222 20157 40180 57010 70200 8//// 22224 00260 29901 80180 90903
BBXX 46042 29061 99368 71224 46/// /3409 10118 40252 57007 90550 22200 00125 11305 20402 329// 41305 70026 333 91211 555 11099 22105 30534 43411 60549 337093 337094 339087 343082 345090 344084
BBXX 46053 29061 99342 71198 46/// /2003 10138 40206 52004 90550 22200 00138 11303 20401 327// 41303 70016 333 91203 555 11029 22030 30450 42003 60549 202028 195026 183026 182019 192015 222016
BBXX 46001 29061 99563 71480 46/// /2614 11011 49904 53014 90550 22200 00044 10808 20806 300// 40904 70039 333 91218 555 11148 22156 30545 42718 60549 259140 259137 273134 270135 277137 272130
BBXX 44039 29061 99411 70727 46/// /2912 10002 21062 40095 51011 90600 22200 00086 10603 70016 333 91217
BBXX 44022 29061 99409 70737 46/// ///09 11002 21082 40110 51011 90600 22200 00084 333 91212 555 11093 22098
BBXX 44060 29061 99413 70721 46/// ///12 11003 40077 53013 90600 22200 00093 333 91216 555 11129 22134
BBXX 41041 29061 99142 70460 46/// /0809 10260 20208 40172 58012 90550 22200 00263 10805 20704 3//// 40802 70023 333 91211 555 11095 22102 30549 40711 60549 075090 069092 073093 077092 073093 071094 80710 90537
BBXX 42364 29061 99291 70881 46/// /1203 10167 20100 40200 56017 90600
BBXX 42362 29061 99278 70907 46/// /1404 10194 20117 40193 57017 90600
BBXX 41038 29061 99341 70777 46/// /3104 10110 40180 50000 90600 22200 00136 333 91205
BBXX 46083 29061 99582 71380 46/// /2914 10014 20008 49821 53034 90550 22200 00064 11105 20604 300// 41103 70026 333 91217 555 11149 22159 30531 42917 60549 286139 287139 292130 304123 307086 318047 82915 90532
BBXX 42363 29061 99282 70892 46/// /1306 10183 20106 40193 58021 90600 333 91208
BBXX 42363 29061 99282 70892 46/// /1506 10189 20111 40197 90615 333 91206
BBXX WXJ63 29063 99611 71464 41/94 83504 11042 21049 49780 52/// 771// 8//// 222// 00039 2//// 3//// 4//// 5//// 6//// 8//// ICE /////
BBXX NWS0029 29064 99415 70707 43/// /2923 11005 21083 40050 5//// 7//// 8//// 222// 04070 2//// 3//// 4//// 5//// 6//// 8//// ICE /////
BBXX NWS0020 29064 99271 70678 43/// /2214 10240 20200 40175 5//// 7//// 8//// 222// 04245 2//// 3//// 4//// 5//// 6//// 8//// ICE /////
BBXX NWS0003 29064 99539 71665 43/// /0000 11038 21089 40035 5//// 7//// 8//// 222// 0//// 2//// 3//// 4//// 5//// 6//// 8//// ICE /////
BBXX DGDD 29061 99326 71544 41998 02410 10205 20167 40250 52020 70100 80000 22224 04200 21010 331// 41208 5//// 80180
BBXX OZDL2 29063 99340 71277 41/98 /2825 10150 20097 40290 70200 8//// 22234 00150 2//// 80120
BBXX A8KW3 29063 99296 71547 41/99 60104 10210 20160 40324 53010 703// 8//// 22264 04240 299// 3//// 4//// 5//// 80180
BBXX 9V9243 29063 99059 10868 41597 21807 10274 40108 58011 70200 811/1 22223 00282 20201 330// 40502
BBXX 9VVP 29064 99096 70860 41/// /1819 10270 20243 40120 50020 7//// 8//// 22274 00280 21102 3//// 4//// 5//// 6//// 80250 ICE /////
BBXX VQKZ5 29063 99062 70799 41497 63314 10262 20246 40113 50001 70222 8218/ 22284 02265 20301 333// 40401 5//// 80251
BBXX C6XC6 29064 99133 70902 41998 03109 10272 2//// 40130 5//// 70200 80//0 22272 00300 21201 312// 41002 5//// 6//// 8//// ICE /////
BBXX DDJS2 29063 99162 71004 41998 03207 10270 20234 40140 51005 70211 80000 22274 04290 20101 330// 40303 5//// 80245
BBXX C6OT4 29064 99136 71083 41998 00710 10261 20215 40155 51005 70200 80000 22223 04278 2//// 3//// 4//// 5//// 80230
BBXX OWFD2 29061 99080 70794 41/97 /3410 10255 20247 40120 54000 7//// 8//// 22244 04270 2//// 80249
BBXX C6UA2 29064 99246 31634 41697 42719 10250 20250 40060 54000 70300 824/1 22214 00270 22504 309// 43005 5//// 6//// 80250 ICE /////
BBXX ZCBH7 29064 99135 31168 41697 33320 10302 20287 40092 56032 70322 8/472 22282 04312 20202 334// 40202 5//// 80291
BBXX PCIM 29064 99030 11005 41/97 71404 10295 20226 40115 58010 70222 85778 22233 00281 20301 30000 80245
BBXX PFBF 29063 99183 31790 41297 30904 10290 20277 40064 50002 70311 8348/ 22223 20304 310// 40406 5//// 80280
BBXX 2ALD3 29063 99153 31528 41698 63615 10310 20271 40049 54000 75822 85272 22244 04290 20201 80280
BBXX VROC 29064 99281 31538 41598 41625 10245 20173 40110 52030 70211 8317/ 22243 20304 316// 40808 80200
BBXX 3ECI3 29064 99406 31743 41297 80910 10170 20153 40088 57020 70222 887// 22283 00160 20301 336// 40703 80160
BBXX V7EM3 29063 99075 31492 41497 50317 10315 20259 40050 56010 70322 85775 22224 00300 20803 80275
BBXX VRAE2 29064 99322 31720 41298 70218 10210 20194 40030 57011 70122 8365/ 22273 04210 20302 336// 40405 80200
BBXX MRWF2 29064 99244 31117 41497 22022 10256 2019/ 40075 55010 70200 8213/ 22254 00265 20502 320// 41105 5//// 6//// 80213 ICE /////
BBXX KAOU 29064 99005 10840 43/// /0192 10283 20233 40095 5//// 7//// 8//// 222// 04286 2//// 3//// 4//// 5//// 6//// 8//// ICE /////
BBXX VK4041 29060 99096 51222 41/// /1009 10246 20218 40137 52005 70200 8//// 22262 02247 20203 3//// 4//// 5//// 80227
BBXX PCKU 29060 99028 11195 41598 60203 10284 20234 40108 56006 7//22 81169 22243 04292 20301 30000 80248
BBXX PCDE 29063 99261 31537 41598 31803 10260 20205 40040 54000 7//00 82143 22242 20403 324// 40403 80222
BBXX PCCL 29063 99400 31655 41097 81716 10183 40059 52011 70250 887// 22263 04181 20503 321// 40807
BBXX MIBR 29063 99069 30838 41497 63122 10290 20248 40070 54000 70222 85201 22254 00283 20302 329// 40605 5//// 80260
BBXX PEBT 29063 99589 10186 41897 42130 10064 20009 49910 57040 7//00 82/45 22213 02050 20606 3//// 4//// 5//// 80040
BBXX DGZT2 29063 99367 10005 41/98 /0215 10139 20076 40280 52005 70300 8//// 22264 04170 2//// 80105
BBXX WKPF 29063 99324 10288 438// 50313 10160 2013/ 40232 51000 7//// 8/8// 22224 00193 20303 30502 40402 5//// 6//// 80140 ICE /////
BBXX 62023 29063 99514 70079 46/96 /2741 10097 2//// 40291 5//// 22200 10608 70038 333 91150 555 70054 80003
BBXX KABP 29063 99350 10204 41298 83405 10138 2009/ 40290 52012 78098 889// 22273 00178 20201 309// 40505 5//// 6//// 80111 ICE /////
BBXX LAZV5 29064 99371 70140 41598 80220 10160 2013/ 40375 51005 70322 88/// 22223 00170 20403 302// 40504 5//// 6//// 80140
BBXX 62087 29061 99547 10068 46/// /1306 10071 20042 4//// 5//// 22270 00084
BBXX LF4H 29064 99596 10022 46/// /3045 10042 20026 49888 52041 8//// 22200 06083 10812 70059 333 91159
BBXX LDGJ 29061 99603 10053 43/// /1302 10055 20027 49810 5//// 222/0 04091 1//// 3//// 4//// 5////
BBXX LMEL 29061 99603 10053 43/// /1202 10050 20039 49805 5//// 222/0 04092 1//// 3//// 4//// 5////
BBXX LAHV 29061 99589 10057 43/// /2914 10050 20028 49850 222// 04087 1////
BBXX PDNN 29063 99497 70009 41/98 /3136 10100 20031 40299 50001 70111 8//// 22232 02111 2//// 80067 90903
BBXX PCBT 29063 99459 70079 41/98 33212 10106 20052 40393 57017 7//00 8//// 22213 20302 80079
BBXX UCJL 29061 99677 10093 41698 60211 10023 49827 57030 70222 865// 22253 00050 20603
BBXX TBWUK35 29063 99608 10040 41/98 32705 10065 20042 49799 53020 70100 83500 22262 00100 2//// 80055
BBXX A8PX4 29064 99347 10193 41398 61806 10155 20067 40217 55003 70162 8/900 22224 00175 2//// 80108
BBXX PDHP 29063 99448 70086 41/98 30216 10108 20040 40407 50003 70200 827// 22214 00137 20303 80075
BBXX A8MZ9 29064 99349 10204 41597 61117 10160 20117 57015 70362 85379 22264 04178
BBXX C6KD6 29064 99435 70214 41598 31216 10137 20109 40392 51005 70111 831/5 22214 02142 20907 80122
AAXX 29063 04013 42589 41805 10000 21006 49932 52010 82220 555 3//18
AAXX 29061 38598 41496 80909 10021 20002 40322 52009 71011 86631
AAXX 29061 38599 NIL
AAXX 29061 38725 NIL
AAXX 29061 38734 NIL
AAXX 29061 38744 NIL
AAXX 29061 38836 31694 40000 10010 20005 39360 40328 56001 72841 82930 333 21027
AAXX 29061 38838 42998 20504 10010 21019 39637 40331 57007 82030
AAXX 29061 38844 42999 20000 11015 21080 48520 52013 80002
AAXX 29061 38846 42999 42303 11008 21058 38570 48540 58005 82033
AAXX 29061 38847 42999 00000 10019 21015 40341 53001
AAXX 29061 38932 NIL
AAXX 29061 38933 NIL
AAXX 29061 38944 31992 00000 11009 21012 39698 40254 52001 74444 333 21022
AAXX 29061 38954 NIL
AAXX 29064 78922 46/// /1116 10263 20206 30122 40167 58011
AAXX 29061 38598 41496 80909 10021 20002 40322 52009 71011 86631
AAXX 29061 38599 NIL
AAXX 29061 38725 NIL
AAXX 29061 38734 NIL
AAXX 29061 38744 NIL
AAXX 29061 38836 31694 40000 10010 20005 39360 40328 56001 72841 82930 333 21027
AAXX 29061 38838 42998 20504 10010 21019 39637 40331 57007 82030
AAXX 29061 38844 42999 20000 11015 21080 48520 52013 80002
AAXX 29061 38846 42999 42303 11008 21058 38570 48540 58005 82033
AAXX 29061 38847 42999 00000 10019 21015 40341 53001
AAXX 29061 38932 NIL
AAXX 29061 38933 NIL
AAXX 29061 38944 31992 00000 11009 21012 39698 40254 52001 74444 333 21022
AAXX 29061 38954 NIL
AAXX 29064 60351 12560 60000 10095 20067 40248 56005 60004 86800 333 00800 20065 82816 85633 95990
AAXX 29064 60355 12665 22210 10074 20074 40246 58004 69914 82230 333 0//00 20074 82833 81360 95990
AAXX 29064 60445 11556 33402 11016 21019 39083 48542 53002 60064 70344 83230 333 05700 21031 83826 95990
AAXX 29064 60468 11530 20000 11013 21027 39294 48542 53001 60004 71000 82200 333 05600 21016 82826 95990
AAXX 29064 60507 11540 80000 10058 20054 40301 54000 60044 71042 882// 333 00259 20052 88830 95990
AAXX 29064 60511 42560 63214 10050 20041 39136 48560 57002 86200 333 86826 95990
AAXX 29064 60535 11/02 90000 10003 20003 38890 48543 54000 60084 745// 89/// 333 05659 21040 89/// 95990
AAXX 29064 60536 12560 60000 10058 20049 39401 48569 58002 60074 86200 333 00119 20054 86830 95990
AAXX 29064 60549 11658 73018 10042 20033 38987 48574 56004 60014 700// 8720/ 333 00100 20040 84713 83833 95990
AAXX 29064 60550 11440 80312 10024 20019 38722 48556 53003 60174 75152 886// 333 00161 20014 88710 95990
AAXX 29064 60555 NIL
AAXX 29064 60559 12960 23003 10034 20024 40254 55001 60004 80002 333 0//00 20029 82073
AAXX 29064 60581 12660 20208 10042 20025 40246 53001 60004 82200 333 00200 20040 82840
AAXX 29064 60602 11960 00212 10060 20011 40280 55002 60004 700// 333 0//00 20046 95990
AAXX 29064 60607 NIL
AAXX 29064 60640 12960 20906 10037 20050 40199 53005 60004 82030 333 00000 20033 82360
AAXX 29064 60690 NIL
AAXX 29064 60360 12560 42110 10072 20064 40252 56011 60004 81830 333 00400 20060 81830 83646 95990
AAXX 29064 60390 11550 82106 10101 20094 40286 58001 60234 76162 8387/ 333 00859 20093 83820 84633 86458 95990
AAXX 29064 60402 12560 32408 10074 20061 40270 56003 60174 83800 333 00569 20072 82820 95990
AAXX 29064 60419 11635 30000 11005 21017 40280 58000 69924 71000 83500 333 05200 21009 83640 95990
AAXX 29064 60475 11410 50000 10002 21002 39292 48536 51004 60001 71021 85700 333 05400 21002 82820 84833 95990
AAXX 29064 60490 11465 72105 10100 20094 40296 55001 60214 70282 878// 333 00422 20081 84810 86816 95990
AAXX 29064 60525 12960 03310 10068 20030 40241 56014 60004 333 00100 20065 95990
AAXX 29064 60531 11457 80000 10088 20086 40309 55001 60044 70262 832// 333 00759 20087 83710 86826 95990
AAXX 29064 60566 11660 20207 10056 20045 40271 53002 69914 70161 82200 333 00114 20056 82846
AAXX 29064 60571 12962 33214 10060 20044 39338 48575 53001 60004 82080 333 0//00 20054 82360 95990
AAXX 29064 60580 12960 23307 10030 20012 40256 53003 60004 80002 333 00100 20020 82073
AAXX 29064 60590 12560 73604 10050 20003 40265 55000 60004 875// 333 0//00 20010 87630
AAXX 29064 60611 12660 40604 10061 21020 40216 58002 84800 333 00200 20049 84840
AAXX 29064 60620 12960 03607 10023 21019 40265 53004 60004 333 0//00 20016
AAXX 29064 60630 12765 33410 10060 21021 40246 51006 60004 83200 333 05000 20045 83856
AAXX 29064 60656 NIL
AAXX 29064 60670 NIL
AAXX 29064 60680 12970 00108 10001 21116 38635 48504 58002 60004 333 05600 21006 95990
AAXX 29064 60360 12560 42110 10072 20064 40252 56011 60004 81830 333 00400 20060 81830 83646 95990
AAXX 29064 60390 11550 82106 10101 20094 40286 58001 60234 76162 8387/ 333 00859 20093 83820 84633 86458 95990
AAXX 29064 60402 12560 32408 10074 20061 40270 56003 60174 83800 333 00569 20072 82820 95990
AAXX 29064 60419 11635 30000 11005 21017 40280 58000 69924 71000 83500 333 05200 21009 83640 95990
AAXX 29064 60475 11410 50000 10002 21002 39292 48536 51004 60001 71021 85700 333 05400 21002 82820 84833 95990
AAXX 29064 60490 11465 72105 10100 20094 40296 55001 60214 70282 878// 333 00422 20081 84810 86816 95990
AAXX 29064 60525 12960 03310 10068 20030 40241 56014 60004 333 00100 20065 95990
AAXX 29064 60531 11457 80000 10088 20086 40309 55001 60044 70262 832// 333 00759 20087 83710 86826 95990
AAXX 29064 60566 11660 20207 10056 20045 40271 53002 69914 70161 82200 333 00114 20056 82846
AAXX 29064 60571 12962 33214 10060 20044 39338 48575 53001 60004 82080 333 0//00 20054 82360 95990
AAXX 29064 60580 12960 23307 10030 20012 40256 53003 60004 80002 333 00100 20020 82073
AAXX 29064 60590 12560 73604 10050 20003 40265 55000 60004 875// 333 0//00 20010 87630
AAXX 29064 60611 12660 40604 10061 21020 40216 58002 84800 333 00200 20049 84840
AAXX 29064 60620 12960 03607 10023 21019 40265 53004 60004 333 0//00 20016
AAXX 29064 60630 12765 33410 10060 21021 40246 51006 60004 83200 333 05000 20045 83856
AAXX 29064 60656 NIL
AAXX 29064 60670 NIL
AAXX 29064 60680 12970 00108 10001 21116 38635 48504 58002 60004 333 05600 21006 95990
BBXX UANA 29061 99702 10349 41/94 73312 11009 49902 52001 77172 80020 22272 00054 20606
AAXX 29064 60351 12560 60000 10095 20067 40248 56005 60004 86800 333 00800 20065 82816 85633 95990
AAXX 29064 60355 12665 22210 10074 20074 40246 58004 69914 82230 333 0//00 20074 82833 81360 95990
AAXX 29064 60445 11556 33402 11016 21019 39083 48542 53002 60064 70344 83230 333 05700 21031 83826 95990
AAXX 29064 60468 11530 20000 11013 21027 39294 48542 53001 60004 71000 82200 333 05600 21016 82826 95990
AAXX 29064 60507 11540 80000 10058 20054 40301 54000 60044 71042 882// 333 00259 20052 88830 95990
AAXX 29064 60511 42560 63214 10050 20041 39136 48560 57002 86200 333 86826 95990
AAXX 29064 60535 11/02 90000 10003 20003 38890 48543 54000 60084 745// 89/// 333 05659 21040 89/// 95990
AAXX 29064 60536 12560 60000 10058 20049 39401 48569 58002 60074 86200 333 00119 20054 86830 95990
AAXX 29064 60549 11658 73018 10042 20033 38987 48574 56004 60014 700// 8720/ 333 00100 20040 84713 83833 95990
AAXX 29064 60550 11440 80312 10024 20019 38722 48556 53003 60174 75152 886// 333 00161 20014 88710 95990
AAXX 29064 60555 NIL
AAXX 29064 60559 12960 23003 10034 20024 40254 55001 60004 80002 333 0//00 20029 82073
AAXX 29064 60581 12660 20208 10042 20025 40246 53001 60004 82200 333 00200 20040 82840
AAXX 29064 60602 11960 00212 10060 20011 40280 55002 60004 700// 333 0//00 20046 95990
AAXX 29064 60607 NIL
AAXX 29064 60640 12960 20906 10037 20050 40199 53005 60004 82030 333 00000 20033 82360
AAXX 29064 60690 NIL
AAXX 29064 91945 36/// /0116 10274 20228 30142 40147 53014 555 58001 69924
BBXX 42362 29061 99278 70907 46/// /1405 10194 20117 40190 90615
BBXX 46207 29061 99509 71299 46/// /2814 10066 40042 52064 22200 00081 11312 70062 333 91218
AAXX 29064 62357 31556 20304 10114 20081 40217 52001 71000 82500 333 20098
AAXX 29064 62423 32960 63503 10074 20041 40213 52007 86010 333 20072
AAXX 29064 62403 32960 40000 10130 20032 40196 52002 84040 333 20119
AAXX 29061 38954 32898 40000 11017 21105 38024 48610 52017 83501 333 21056
AAXX 29064 62357 31556 20304 10114 20081 40217 52001 71000 82500 333 20098
AAXX 29064 62423 32960 63503 10074 20041 40213 52007 86010 333 20072
AAXX 29064 62403 32960 40000 10130 20032 40196 52002 84040 333 20119
BBXX 46207 29061 99509 71299 46/// /2814 10066 40042 52064 22200 00081 11312 70062 333 91218
AAXX 29061 28676 11597 81305 10000 21020 39763 49886 57012 60020 77072 8802/ 333 21026
AAXX 29061 28766 11997 82009 11009 21031 39684 49868 53006 60020 73773 8802/ 333 21035 91115
AAXX 29061 28867 NIL
AAXX 29061 28879 11498 32117 11011 21049 39655 49936 53011 69920 72687 83900 333 21034 91022 91124
AAXX 29061 28952 NIL
AAXX 29061 28966 11593 82311 11026 21036 39657 49936 53029 69990 77373 885// 333 21037 91019 91124
AAXX 29061 29802 31597 81708 11052 21073 39958 40103 57024 73633 8453/ 333 21065 91115
AAXX 29061 29807 31495 81904 11052 21073 39974 40093 57021 77373 8802/ 333 21082
AAXX 29061 34691 32998 02908 11012 21063 30224 40211 52038 333 21011
AAXX 29061 35067 11598 61807 11030 21047 39700 49973 52034 60020 73633 86500 333 21032 91118
AAXX 29061 35078 11497 82513 11028 21041 39622 49997 52023 69990 78573 889// 333 21044 91016 91120
AAXX 29061 35085 31493 81711 11017 21025 39542 40011 53010 60030 73933 886// 333 21069 91018 91124
AAXX 29061 35108 32597 63306 11013 21061 30054 40100 52050 86500 333 21026
AAXX 29061 35188 11495 81808 11016 21030 39618 40047 57010 60010 78583 889// 333 21063 91018 91124
AAXX 29061 35217 32998 62910 11032 21071 30054 40094 52036 80003 333 21028
AAXX 29061 35229 11496 82705 11026 21039 39754 40025 52025 60030 78583 883// 333 21029
AAXX 29061 35302 32998 63309 11028 21074 30100 40119 52038 86058 333 21028
AAXX 29061 35357 31596 82016 11015 21032 39620 40050 57006 73873 885// 333 21058 91016 91120
AAXX 29061 35394 11493 81909 11030 21046 39443 40119 57023 60010 73873 8872/ 333 21110 86712 91019 91119
AAXX 29061 35406 32997 02907 11021 21064 30131 40133 52034 333 21026
AAXX 29061 35416 32697 72610 11034 21070 39974 40095 52027 87500 333 21030
AAXX 29061 35426 11494 82812 11036 21041 39775 40067 53028 60020 77173 8872/ 333 21034 91116
AAXX 29061 35497 11/92 91609 11033 21050 39348 40147 57018 69920 73833 333 21107
AAXX 29061 35532 32498 82807 11042 21065 39577 40070 52026 8802/ 333 21021
AAXX 29061 35671 11395 82110 11009 21022 39670 40096 53006 69920 73873 886// 333 21047 91015 91116
AAXX 29061 35700 32998 02806 11006 21051 30212 40188 52032 333 21010
AAXX 29061 35746 NIL
AAXX 29061 35796 11595 81907 11016 21021 39808 40246 57011 69920 77372 8802/ 333 21124
AAXX 29061 35849 NIL
AAXX 29061 35925 NIL
AAXX 29061 35953 NIL
AAXX 29061 35969 NIL
AAXX 29061 36003 11698 71707 11053 21086 39991 40144 57025 60010 73632 82571 333 21102 91113
AAXX 29061 36152 31598 71804 11034 21090 30006 40196 57024 73632 87500 333 21166
AAXX 29061 36177 31697 71505 11052 21089 30004 40255 57013 73631 82531 333 21149
AAXX 29061 36208 32999 62502 11050 21106 39294 40291 58005 83041 333 22141
AAXX 29061 36397 32699 61402 11100 21147 39715 40300 56001 82541 333 21115
AAXX 29061 36428 32999 60000 11166 21181 39827 40363 58009 82042 333 21187 95000
AAXX 29061 36535 32599 71003 11140 21183 39696 40368 58001 83530 333 21251
AAXX 29061 36639 32999 20801 11094 21129 39695 40325 57003 80002 333 21201
AAXX 29061 36821 32599 71601 10009 21029 39785 40276 58012 86932 333 21064
AAXX 29061 36859 32998 71602 11052 21069 39513 40317 58005 84045 333 21082
AAXX 29061 36864 32999 30000 10004 21060 39375 40275 57006 80001 333 21106
AAXX 29061 36870 32997 00301 10015 21043 39242 40256 58021 333 21036
AAXX 29061 38001 NIL
AAXX 29061 38062 NIL
AAXX 29061 38069 NIL
AAXX 29061 38196 NIL
AAXX 29061 38198 NIL
AAXX 29061 38222 32998 61802 10006 21048 39709 40274 57010 80006 333 21086
AAXX 29061 38232 NIL
AAXX 29061 38328 NIL
AAXX 29061 38334 NIL
AAXX 29061 38341 11597 82303 10010 21029 39461 40253 57007 69900 70281 8597/ 333 21028
AAXX 29061 38343 32998 80000 10006 21035 39408 40259 57015 80001 333 21069
AAXX 29061 38439 NIL
AAXX 29061 48845 32498 81601 10198 20164 30175 40182 57028 888// 333 59022 85894 88697
AAXX 29061 14445 12670 20604 10074 20011 30068 40226 57015 60002 82100 222// 00140 333 20066 30100 82896 92311
AAXX 29061 48840 32498 70000 10225 20161 30165 40171 57030 878// 333 59028 82894 87697
AAXX 29064 87344 32560 80506 10216 20137 39585 40114 57015 8357/ 333 56109 83630 85360
AAXX 29064 87349 NIL
AAXX 29064 87371 32962 50904 10224 20164 30110 40131 58009 85070 333 56060 85360
AAXX 29064 87374 32965 00504 10209 20135 30041 40126 58009
AAXX 29064 87395 NIL
AAXX 29064 87418 32765 31405 10254 20175 39308 40069 56003 82570 333 56560 82650
AAXX 29064 87436 31670 72302 10241 20177 39318 40094 51004 71392 87900 333 56500 57940 85640 82945 97024
AAXX 29064 87448 NIL
AAXX 29064 87453 NIL
AAXX 29064 87467 NIL
AAXX 29064 87497 NIL
AAXX 29064 87506 NIL
AAXX 29064 87509 11665 83602 10184 20176 39290 40110 58008 60131 72992 8292/ 333 56009 57984 81940
AAXX 29064 87534 32960 70508 10227 20120 39958 40115 57011 84076 333 56066 84360 85270
AAXX 29064 87548 32962 20706 10174 20145 30052 40145 58009 80005 333 56006 82270
AAXX 29064 87576 32960 10207 10238 20164 30129 40152 57015 80001 333 56006 81070
AAXX 29064 87582 NIL
AAXX 29064 87585 32960 00510 10229 20161 30124 40152 57013
BBXX 3ERR2 29064 99635 10053 41497 80210 10057 20040 49802 52010 76162 887// 22200 06096 11108 70039 333 91115
BBXX LF3F 29064 99643 10078 43/// /0116 10042 21000 49806 52003 22200 04085 11008 70040 333 91120
BBXX LF3N 29064 99653 10073 41698 70319 10040 21024 49818 52001 70262 8//// 22200 00090 10807 70037
BBXX LF4B 29064 99606 10037 47/98 /3416 10064 49809 52008 700// 22200 00061 10910 70051 333 91126
BBXX LF4C 29064 99584 10019 41596 73039 10057 21005 49950 52025 702// 89/// 22200 00074 10914 70071 333 91155
BBXX LF5T 29064 99660 10081 41698 /0418 10040 21031 49818 57001 702// 22200 06082 10806 70029 333 91128
AAXX 29061 28676 11597 81305 10000 21020 39763 49886 57012 60020 77072 8802/ 333 21026
AAXX 29061 28766 11997 82009 11009 21031 39684 49868 53006 60020 73773 8802/ 333 21035 91115
AAXX 29061 28867 NIL
AAXX 29061 28879 11498 32117 11011 21049 39655 49936 53011 69920 72687 83900 333 21034 91022 91124
AAXX 29061 28952 NIL
AAXX 29061 28966 11593 82311 11026 21036 39657 49936 53029 69990 77373 885// 333 21037 91019 91124
AAXX 29061 29802 31597 81708 11052 21073 39958 40103 57024 73633 8453/ 333 21065 91115
AAXX 29061 29807 31495 81904 11052 21073 39974 40093 57021 77373 8802/ 333 21082
AAXX 29061 34691 32998 02908 11012 21063 30224 40211 52038 333 21011
AAXX 29061 35067 11598 61807 11030 21047 39700 49973 52034 60020 73633 86500 333 21032 91118
AAXX 29061 35078 11497 82513 11028 21041 39622 49997 52023 69990 78573 889// 333 21044 91016 91120
AAXX 29061 35085 31493 81711 11017 21025 39542 40011 53010 60030 73933 886// 333 21069 91018 91124
AAXX 29061 35108 32597 63306 11013 21061 30054 40100 52050 86500 333 21026
AAXX 29061 35188 11495 81808 11016 21030 39618 40047 57010 60010 78583 889// 333 21063 91018 91124
AAXX 29061 35217 32998 62910 11032 21071 30054 40094 52036 80003 333 21028
AAXX 29061 35229 11496 82705 11026 21039 39754 40025 52025 60030 78583 883// 333 21029
AAXX 29061 35302 32998 63309 11028 21074 30100 40119 52038 86058 333 21028
AAXX 29061 35357 31596 82016 11015 21032 39620 40050 57006 73873 885// 333 21058 91016 91120
AAXX 29061 35394 11493 81909 11030 21046 39443 40119 57023 60010 73873 8872/ 333 21110 86712 91019 91119
AAXX 29061 35406 32997 02907 11021 21064 30131 40133 52034 333 21026
AAXX 29061 35416 32697 72610 11034 21070 39974 40095 52027 87500 333 21030
AAXX 29061 35426 11494 82812 11036 21041 39775 40067 53028 60020 77173 8872/ 333 21034 91116
AAXX 29061 35497 11/92 91609 11033 21050 39348 40147 57018 69920 73833 333 21107
AAXX 29061 35532 32498 82807 11042 21065 39577 40070 52026 8802/ 333 21021
AAXX 29061 35671 11395 82110 11009 21022 39670 40096 53006 69920 73873 886// 333 21047 91015 91116
AAXX 29061 35700 32998 02806 11006 21051 30212 40188 52032 333 21010
AAXX 29061 35746 NIL
AAXX 29061 35796 11595 81907 11016 21021 39808 40246 57011 69920 77372 8802/ 333 21124
AAXX 29061 35849 NIL
AAXX 29061 35925 NIL
AAXX 29061 35953 NIL
AAXX 29061 35969 NIL
AAXX 29061 36003 11698 71707 11053 21086 39991 40144 57025 60010 73632 82571 333 21102 91113
AAXX 29061 36152 31598 71804 11034 21090 30006 40196 57024 73632 87500 333 21166
AAXX 29061 36177 31697 71505 11052 21089 30004 40255 57013 73631 82531 333 21149
AAXX 29061 36208 32999 62502 11050 21106 39294 40291 58005 83041 333 22141
AAXX 29061 36397 32699 61402 11100 21147 39715 40300 56001 82541 333 21115
AAXX 29061 36428 32999 60000 11166 21181 39827 40363 58009 82042 333 21187 95000
AAXX 29061 36535 32599 71003 11140 21183 39696 40368 58001 83530 333 21251
AAXX 29061 36639 32999 20801 11094 21129 39695 40325 57003 80002 333 21201
AAXX 29061 36821 32599 71601 10009 21029 39785 40276 58012 86932 333 21064
AAXX 29061 36859 32998 71602 11052 21069 39513 40317 58005 84045 333 21082
AAXX 29061 36864 32999 30000 10004 21060 39375 40275 57006 80001 333 21106
AAXX 29061 36870 32997 00301 10015 21043 39242 40256 58021 333 21036
AAXX 29061 38001 NIL
AAXX 29061 38062 NIL
AAXX 29061 38069 NIL
AAXX 29061 38196 NIL
AAXX 29061 38198 NIL
AAXX 29061 38222 32998 61802 10006 21048 39709 40274 57010 80006 333 21086
AAXX 29061 38232 NIL
AAXX 29061 38328 NIL
AAXX 29061 38334 NIL
AAXX 29061 38341 11597 82303 10010 21029 39461 40253 57007 69900 70281 8597/ 333 21028
AAXX 29061 38343 32998 80000 10006 21035 39408 40259 57015 80001 333 21069
AAXX 29061 38439 NIL
AAXX 29061 01380 11157 83101 11021 21030 60032 77172 886// 333 21025 49028 70041 91111
AAXX 29061 01199 11580 80805 11065 21072 39445 49915 57018 60002 70221 885// 333 21183 47033 70000 91106
AAXX 29061 01262 46/// /0302 10021 20008 333 20010 91104
AAXX 29061 01393 16/// /1602 10000 21018 39005 49785 56027 6//// 333 21014 91107
AAXX 29061 01277 16/// /0000 11026 21031 69962 333 21033 70026 91103
AAXX 29061 01476 16/// /2610 10079 20020 39800 49806 53038 6//// 333 20066 91124
AAXX 29061 01488 16/// /3001 10027 20019 60072 333 20025 4/006 70204 91107
AAXX 29061 01015 46/// /1604 10000 21031 333 20000 91111
AAXX 29061 01180 11975 01303 11003 21071 39802 49859 57018 60002 70200 333 21040 70002 91106
AAXX 29061 01450 16/// /2707 11015 21026 38679 49797 52012 60032 333 21023 70088 91111
AAXX 29061 01441 16/// /2504 11009 21027 38838 49802 50013 60042 333 21010 70076 91112
AAXX 29061 01257 11575 81802 10012 21010 39636 49794 55008 60002 70322 885// 333 20002 70000 91106
AAXX 29063 87480 32965 00505 10211 20165 30101 40130 57012
AAXX 29063 87532 31965 50508 10224 20123 39949 40113 58015 70721 80006 333 56006 85270
AAXX 29061 34560 32997 02906 11025 21044 30085 40257 52031 333 21035
AAXX 29061 34720 329// 03402 11016 21028 30256 40298 53005 333 21013
AAXX 29061 34730 32997 02802 11014 21029 30203 40299 52008 333 21023
AAXX 29061 34740 32998 02901 11023 21031 30201 40301 52013 333 21017
AAXX 29061 34824 31993 01401 11036 21039 30294 40299 50002 74440 333 21018
AAXX 29061 34858 31996 02703 11015 21030 30191 40303 51018 71000 333 21008
AAXX 29061 34866 32998 02805 11008 21030 30291 40282 52023 333 21015
AAXX 29061 34880 32997 02605 11009 21032 30283 40256 52025 333 21017
AAXX 29061 37018 11598 70901 10070 20048 30222 40298 54000 60200 70182 86930 333 20056
AAXX 29061 37054 31497 82701 10028 20010 39927 40320 52017 70262 885// 333 20022
AAXX 29061 37472 32598 73104 10053 21014 30333 40311 51029 86570 333 20056
AAXX 29061 22282 329// 02703 11056 21063 39859 49867 54000 333 21054
AAXX 29061 22438 NIL
AAXX 29061 22471 12484 52603 11053 21074 39117 49941 52006 69960 85500 333 21042 85614
AAXX 29061 22563 11497 82704 11031 21048 39939 49978 51007 69900 70331 885// 333 21033 88610
AAXX 29061 22641 31599 81201 11070 21083 39989 40005 57010 70232 8353/ 333 21050 91106
AAXX 29061 22695 11498 83205 11026 21039 39801 49953 52020 69990 70272 86300 333 21073 86614
AAXX 29061 22867 32499 72802 11045 21072 39943 40059 52013 87500 333 21040 87614 91107
AAXX 29061 22939 32697 71804 11052 21069 39912 40078 57015 83530 333 21047
AAXX 29061 22996 11497 73006 11029 21046 39806 49996 52045 60020 78587 87900 333 21049 93700
AAXX 29061 23324 11459 81802 11101 21114 39807 49886 51006 69930 77172 8172/ 333 21125
AAXX 29061 27051 31697 72602 11045 21072 39910 40080 52016 69930 70232 83501 333 21036
AAXX 29061 27225 32464 82202 11038 21079 39992 40126 58005 885// 333 21040 88617
AAXX 29061 27252 11575 82904 11059 21102 39912 40103 52017 69900 70232 82501 333 21032
AAXX 29061 27333 32980 82404 11040 21062 39964 40125 52007 81043 333 21040 47002
AAXX 29061 27369 11698 63004 11038 21083 39963 40103 52029 69900 70232 86500 333 21022
AAXX 29061 27393 11498 83208 11033 21065 39855 40023 52052 69960 73683 886// 333 21034 91116
AAXX 29061 27479 11599 83005 11026 21067 39947 40082 52032 60010 73683 86501 333 21018 86622
AAXX 29061 27532 32997 52403 11052 21073 39942 40162 52006 85030 333 21039
AAXX 29061 27648 31997 32004 11070 21091 30004 40179 52019 73630 80001 333 21070
AAXX 29061 27675 11597 72804 11044 21075 39943 40116 52034 69900 70232 84550 333 21046 91114
AAXX 29061 27679 32599 63106 11040 21081 39893 40122 52037 86500 333 21030 86623
AAXX 29061 28214 11597 83003 11030 21043 39751 49963 52049 69920 78583 889// 333 21050
AAXX 29061 22165 NIL
AAXX 29061 22676 11461 72905 11024 21043 39910 49988 52023 60010 78583 87900 333 21040
AAXX 29061 22954 31984 72103 11059 21074 39830 40086 58001 70232 80002 333 21056
AAXX 29061 23405 11258 82901 11035 21040 39792 49892 52016 60010 71072 886// 333 21116 88705
AAXX 29061 23412 NIL
AAXX 29061 23803 11997 83303 11087 21098 39749 49931 51021 60010 77172 8802/ 333 21099
AAXX 29061 27066 11498 82905 11033 21057 39884 40064 52029 69940 73673 8655/ 333 21038 86713
AAXX 29061 27083 11459 83005 11044 21060 39794 40020 52037 60020 75675 886// 333 21034 91113
AAXX 29061 27113 32960 82103 11048 21065 39951 40101 58009 86031 333 21056
AAXX 29061 27242 32880 72502 11072 21089 39981 40114 52008 87030 333 21053
AAXX 29061 27329 32984 62202 11045 21068 30014 40143 52007 82031 333 21033
AAXX 29061 27355 32998 22704 11041 21079 39971 40140 52036 80002 333 21046
AAXX 29061 27373 11499 83008 11035 21071 39854 40075 52029 69950 73683 885// 333 21036 88619 91116
AAXX 29061 27665 11999 02604 11060 21104 39868 40148 52031 69900 70230 333 21050 91114
AAXX 29061 27835 32997 30000 11063 21079 30045 40210 52012 80002 333 21063
AAXX 29061 28009 11431 83203 11038 21050 39745 49955 52031 60010 78583 889// 333 21055
AAXX 29061 28411 11597 73105 11034 21055 39754 49948 52046 69980 77187 84530 333 21041
AAXX 29061 28418 11561 83106 10029 21056 39773 49939 52047 69970 73673 8855/ 333 21036 85626
AAXX 29061 40700 12960 02204 10010 21018 30231 40324 52035 60001 333 30105 70000
AAXX 29061 40723 11958 00000 10010 21015 38999 40317 52024 60001 71000 333 31106 5///1 70000
AAXX 29061 40726 12960 00000 11016 21041 38728 40312 53006 60001 333 34114 70000
AAXX 29061 40727 11957 80000 11038 21055 38550 40333 52005 60001 71022 8802/ 333 34110 70000 88460
AAXX 29061 40734 12565 70000 10082 20045 30332 40306 52028 60001 83830 333 31101 50130 70000 81825 83640 86359
AAXX 29061 40737 12560 30000 10082 20055 30293 40311 52027 60001 83830 333 31101 50041 70000 81825
AAXX 29061 40741 12965 00000 10086 20001 39930 40275 52019 60001 333 30102 70000
AAXX 29061 40780 12970 01202 10040 21070 38737 40264 52013 60001 333 34104 5//// 70000
AAXX 29061 40791 12962 00000 10060 21056 39447 40297 52013 60001 333 30102 50221 70000
AAXX 29061 40792 12970 00000 10036 21046 38790 40292 52015 60001 333 30106 70000
AAXX 29061 40794 11957 00000 10092 20061 30150 40251 53021 60001 71000 90550 333 30001 50201 70000
AAXX 29061 40812 12960 00000 10084 20038 39849 40235 52019 600001 333 30001 50311 70000
AAXX 29061 40829 12960 00000 10097 21049 39689 40277 52013 60001 333 30102 5//// 70000
AAXX 29061 40833 11940 00000 10078 20051 30221 40254 53020 60001 71000 333 30002 50201 70000
AAXX 29061 40835 12960 00000 10082 20027 39387 40242 52015 60001 333 30102 50381 70000
AAXX 29061 40845 12960 00000 10152 20068 30225 40230 52020 60003 333 30007 50721 70000
AAXX 29061 40882 11550 12904 10200 20138 30174 40209 51019 60001 70500 81100 333 30016 50781 70000 81830
AAXX 29061 40889 12660 42803 10214 20122 30209 40215 52018 60003 222// 00242 20301 81200 333 30018 50541 70000 81835 83640
AAXX 29061 40890 11550 20000 10224 20122 30196 40203 52019 60003 70500 82100 222// 00220 20300 333 30016 50640 70000 82830
AAXX 29061 40893 12960 00603 10214 20052 30198 40204 52021 60001 222// 00190 20500 333 30016 50601 70000
AAXX 29061 40897 14550 20407 10238 20122 30189 40203 51013 60001 70700 82500 333 30013 50301 70000 82630
AAXX 29061 40001 32970 00302 10048 20002 40252 53012 333 20017 30///
AAXX 29061 40007 31903 00000 10004 20001 40265 53006 70440 333 21028 34/// 50104
AAXX 29061 40025 32965 00802 10054 20035 40229 54000 333 20048
AAXX 29061 40045 31956 02704 10028 21024 40255 58001 71000 333 21016 30/// 55074
AAXX 29061 40061 32970 00000 11004 21041 40255 52008 333 21016 30/// 50174 55095 70000
AAXX 29061 40080 32965 00000 10024 21060 39519 40262 51002 333 21054 30///
AAXX 29061 40087 NIL
AAXX 29061 40095 NIL
BBXX BATFR19 29064 99066 30057 46/// /1914 10237 20194 40144 53014 22200 00254
BBXX BATFR55 29064 99169 30545 44598 31113 10274 20237 40122 70111 82141 22232 00284 20802 32929 412// 512//
BBXX DDZD2 29064 99248 10356 41598 73311 10195 20138 40180 51008 70322 875// 22235 00220 20601 80160
BBXX 2AQK9 29064 99042 70025 41397 82611 10280 20252 40121 55008 71322 8777/ 22224 04300 20402 80260
BBXX BATFR53 29064 99186 51423 46/// /0514 10269 20204 40162 51020 22222 00274
BBXX 61001 29064 99434 10078 46/// /1606 10121 20071 40206 57014 22200 00138 10401 70004
BBXX BAREU63 29064 99401 10141 46/// /3411 10128 29056 40227 57014 22233
BBXX BAREU56 29064 99348 10134 46/// ///// 40207 57003 22272
BBXX TESTFR9 29064 99488 70022 46/// /3118 10093 29075 40351 52013 22234
BBXX BAREU05 29064 99439 70337 46/// ///// 40258 52006 22224
BBXX BAREU51 29064 99407 10116 46/// ///// 40221 57015 22275
BBXX BAREU00 29064 99503 70015 46/// ///// 40285 52024 22264
BBXX BAREU11 29064 99536 10054 46/// ///// 40129 57021 22213
BBXX BATFR54 29064 99490 70061 46/// /2929 10099 20025 40351 56005 22242 00114
BBXX BATFR15 29064 99353 70324 46/// /1717 10192 20157 40321 51014 22214 00189
BBXX BATFR33 29064 99422 10034 46/// /3545 10122 20074 40252 58021 22284 00149
BBXX BATFR13 29064 99396 70283 44696 31709 10149 20144 40356 56010 70200 8286/ 22254 00174
BBXX BATFR04 29064 99588 70072 46/// /2417 10059 20012 40022 22261 00105
BBXX BATFR24 29064 99433 10054 46/// /3413 10092 20032 40241 53014 22200 00119
BBXX BATFR09 29064 99381 10059 44498 50017 10140 20067 40261 53009 70222 85200 22263 00169 20202 306// 40504 5//// 60//0 ICE 0/0//
BBXX BATFR31 29064 99433 10053 46/// /3607 10092 20084 40233 53011 22200 00129
BBXX BATFR46 29064 99419 10034 46/// /3629 10130 20067 40263 58016 22282 00152
BBXX BATFR21 29064 99426 10089 46/// /1009 20345 40216 55009 22241
BBXX BATFR02 29064 99508 70011 46/// /2527 10077 20025 40279 56009 22282 00102
BBXX BATEU09 29064 99412 10089 46/// /2111 10125 20085 40220 56016 22222 00162
BBXX BATFR60 29064 99504 70009 46/// /2635 10090 20024 40282 53020 22263 00099
BBXX BATFR20 29064 99414 10094 46/// ///// 10119 20072 40214 56019 22283
BBXX BATEU05 29064 99578 10098 46/// /2641 10069 49850 51014 22261
BBXX BATFR42 29064 99507 70019 46/// /2617 10072 20024 40279 56024 22271 00122
BBXX BATFR14 29064 99494 10010 46/// /2505 10060 20029 40291 58001 22200 00072
BBXX BATFR52 29064 99488 70022 46/// /3118 10097 20039 40325 51019 22233 00109
BBXX BATUK01 29064 99560 70032 46/// /2606 10044 20005 40081 58020 22200 00064
BBXX 61002 29064 99421 10047 46/// ///34 10129 2//// 40252 57006 22200 00135 10706 70029 555 1/046
BBXX DQVI 29063 99370 10040 41697 40212 10140 20123 40265 55010 72055 849// 22224 00177 20806 80130
BBXX PCEO 29063 99358 70315 41698 22504 10200 20153 40324 54000 7//// 8/5// 22254 04192 20701 326// 41003 5//// 80170
BBXX A8QJ7 29064 99477 70064 41/98 23008 10100 20056 40370 58015 7//00 82/// 22212 2//// 3//// 4//// 5//// 80080
BBXX 41101 29064 99146 70562 46/// /0843 10258 20217 40156 57012 22200 00269 10704 70021 555 1/028
BBXX BAREU54 29064 99111 70811 46/// ///// 40131 57009 22254
BBXX FVNM 29064 99094 70799 46/// /3211 10269 20239 40124 58010 22200 00277
BBXX BATEU04 29064 99614 70494 46/// /1117 11063 21135 40153 58016 22273
BBXX BATEU08 29064 99590 70360 46/// /2818 10002 21050 40169 58004 22223
BBXX A8IM7 29064 99332 71569 41997 42218 10200 20179 40236 52018 70111 83059 22225 04210 20804 332// 41808 5//// 80186
BBXX A8KM9 29064 99247 71465 41598 40717 10210 20138 40250 54000 70200 84165 22264 20302 80165
BBXX DCPC2 29064 99229 71312 41598 80517 10190 20142 40230 50000 70211 8677/ 22264 00200 20404 3//// 4//// 5//// 80160
BBXX PHQX 29063 99262 70440 41598 20208 10220 20190 40252 56008 70200 82105 22254 20201 332// 40806 5//// 80200
AAXX 29064 60676 36/// /0000 10020 21056 333 20019
AAXX 29064 60691 36/// /3514 10082 21101 333 20082
AAXX 29064 60672 36/// /3304 10006 21072 333 20006
AAXX 29064 60660 36/// /3413 10086 20017 333 20085
AAXX 29064 60692 36/// /3606 10091 21087 333 20083
AAXX 29064 60612 36/// /0000 10045 21097 333 20035
AAXX 29064 60662 36/// /0000 10032 21077 333 20025
AAXX 29064 60728 13558 33210 10079 20079 30136 40236 58006 60004 82202 333 20078 82823
AAXX 29061 89064 36/// /0502 10014 29080 49801 52009
AAXX 29064 60621 36/'/ /0305 10031 21015 333 20031
AAXX 29064 60667 36/// /0000 10059 21056 333 20059
AAXX 29064 60633 36/// /3411 10079 21024 333 20076
BBXX IDDUK02 29064 99520 50529 46/// ///// 40018 222//
AAXX 29064 64500 32359 71804 10256 20233 30108 40121 845// 333 02450 20220 50431 55038 58017 84608 87633
AAXX 29064 64501 NIL
AAXX 29064 64507 NIL
AAXX 29064 64510 NIL
AAXX 29064 64550 NIL
AAXX 29064 64551 31250 72206 10236 20227 30104 40133 71022 8353/ 333 0//00 20211 50044 55/// 58007 82705 83611 87362
AAXX 29064 64556 NIL
AAXX 29064 64570 32460 80000 10222 20216 39634 40144 8451/ 333 02100 20221 50214 55/// 59002 84610 88460
AAXX 29064 60395 12356 80000 10077 20073 40273 56001 60004 8427/ 333 0//06 20075 82706 83840 85360 95990
AAXX 29064 60421 NIL
AAXX 29064 60423 11665 50000 10044 20029 39255 48514 58005 60004 700// 85202 333 20031 83840 83073 95990
AAXX 29064 60430 11/01 90000 10066 20066 40289 53001 60304 747// 333 005// 20072 89/// 95990
AAXX 29064 60437 11450 80000 10048 20043 39040 48535 54000 60184 700// 887// 333 00392 20045 83710 86820 95990
AAXX 29064 60444 NIL
AAXX 29064 60452 12560 7//// 10114 20102 40287 58002 60014 86200 222// 2//// 333 0//00 20110 86820 91826
AAXX 29064 60457 11560 60000 10089 20085 40291 55000 60074 72166 86200 333 00261 20060 86820 95990
AAXX 29064 60514 11560 80000 10061 20049 39351 48578 53002 60144 700// 875// 333 00219 20060 83713 85626 95990
AAXX 29064 60518 11565 52406 10115 20093 40283 58004 69954 700// 83230 222// 20000 333 00719 20113 83820 83360 91807 95990
AAXX 29064 60520 11558 80000 10075 20068 40294 56002 60054 760// 888// 333 002// 20058 85823 85630 95990
AAXX 29064 60540 11560 33608 10038 20024 39085 48540 5//// 69934 700// 83500 333 05119 20034 83630 95990
AAXX 29064 60560 11660 53004 10044 20028 39032 48568 53002 60034 700// 85200 333 00253 20040 85833 95990
AAXX 29064 64400 31440 70000 10235 20228 30107 40126 71022 8583/ 333 02200 20225 50134 55023 59001 82810 85626
AAXX 29063 64401 32460 51804 10221 20206 39754 40128 8352/ 333 01900 20210 50254 55047 59001 83616 84363
AAXX 29064 64450 11462 80000 10242 20224 39763 40115 69924 72162 8487/ 333 01951 20237 50274 55023 59006 82810 83623 88463 94903 95833
AAXX 29063 64453 32260 82204 10210 20202 39/// 40/// 886// 333 02100 20206 50044 55054 5//// 88705
AAXX 29063 64456 32460 63602 10230 20224 39/// 40/// 83530 333 0//00 20223 50214 55058 5//// 83613 85360
AAXX 29063 64458 31440 60000 10228 20222 39717 40103 71011 83532 333 01800 20225 50254 55/// 58014 83610 85363
AAXX 29063 64459 32960 62804 10245 20238 39764 40125 86002 333 02000 20226 50224 55/// 58006 86080
AAXX 29063 64460 NIL
AAXX 29064 60353 11565 60000 10097 20083 40360 53009 60024 700// 86800 333 005// 20079 83820 85633 91856 95990
AAXX 29064 60367 NIL
AAXX 29064 60369 11560 70000 10130 20076 40270 55002 60244 72166 8328/ 333 0//52 20122 83826 84360 91827
AAXX 29064 60401 NIL
AAXX 29064 60403 11960 20000 10020 20012 40265 55000 60004 700// 82031 333 05200 20019 82360 95990
AAXX 29064 60425 11/00 90000 10063 20063 40292 53001 60084 74742 89/// 333 00258 20060 89/// 95990
AAXX 29064 60461 13560 60000 10141 20080 40290 58012 60034 700// 86200 222// 20000 333 20108 86826 91827 95990
AAXX 29064 60467 11960 02810 10017 20014 40280 54001 60104 700// 333 05319 20000 95990
AAXX 29064 60492 11560 60000 10060 20053 40288 54000 60054 700// 86200 333 00300 20052 86830 95990
AAXX 29064 60515 11460 20000 10040 20028 40278 58005 60114 700// 81630 333 05100 20014 81720 95990
AAXX 29064 60517 11560 41403 10106 20092 40305 53004 69934 700// 81282 333 0//// 20106 81820 95990
AAXX 29064 60522 11560 60000 10068 20059 40314 5//// 60024 700// 86200 333 00319 20068 82710 84826 95990
AAXX 29064 60557 11460 43610 10036 20031 38929 48565 55003 60024 700// 84600 333 00313 20034 84710 95990
AAXX 29064 60563 NIL
AAXX 29064 60603 12658 43612 10052 20038 40242 54001 60004 84800 333 0//00 20051 84833
AAXX 29064 60638 12660 5//// 10076 21005 40215 53009 60004 85500 333 00400 20069 85640
AAXX 29064 60686 NIL
AAXX 29061 15615 11989 83404 11078 21193 37117 47051 56015 60002 70322 88070 333 11047 21081 44999 55086 70000 444 56279 555 539//
AAXX 29064 71188 11120 83203 10022 20013 39704 49745 56040 69941 75165 887// 333 10058 21039 43009 70270 90917 555 10000 20000 31629 40151
AAXX 29064 96481 11462 73604 10298 20256 30072 40091 60011 70162 82841 333 81817 84364 86080
AAXX 29061 14235 12960 0//// 11012 21012 39049 48490 58006 60002 333 21015 44013
AAXX 29061 14246 11450 80601 11006 21014 30041 40253 55000 60002 710// 886// 333 21021 34105 79999
AAXX 29061 14314 12675 61203 10095 20029 30159 40224 56009 60002 85870 333 20079 31101 70000 92312 92428
AAXX 29061 14323 12780 71202 10075 20027 30192 40226 56013 60002 87500 333 20055 31001 92311 92418
AAXX 29061 14324 12/60 82703 11030 21034 38416 48518 56012 60002 886// 333 21033 3/104 44025 70000
AAXX 29061 14328 11403 80000 11016 21018 39835 40247 55006 60002 7464/ 886// 333 21018 3/102 42002
AAXX 29061 14330 11520 80301 11087 21094 39559 40273 57011 60002 710// 886// 333 21087 3/111 43008 70000 92842
AAXX 29061 14438 12680 61003 10079 20006 30139 40232 56005 60002 86800 222// 00150 333 20037 31001 9232/
AAXX 29061 14443 42698 216// 10104 20080 30132 40230 57011 82200 333 20104 92312
AAXX 29061 14447 12484 61003 10102 20064 30194 40226 57/// 60002 86200 222// 00155 333 20075 31008 92311
AAXX 29061 14472 12670 10202 10067 20012 30177 40243 58010 60002 81200 222// 00150 333 20067 30/// 92301
AAXX 29061 08501 32/// /1706 10174 20164 30294 40330 57008 333 20164 30016 5//// 55000 20151 91109 555 60005
AAXX 29061 08505 NIL
AAXX 29061 08506 12/// /1705 10167 20162 30286 40358 57006 69932 333 20159 30017 5//// 55001 20238 91108 555 60005
AAXX 29061 08509 32160 40502 10144 20142 30290 40355 57009 846// 333 20126 50024 55028 84703 555 60007
AAXX 29061 08511 32/// /0301 10140 2//// 30250 40359 57008 333 20140 30014 5//// 55019 25538 555 60005
AAXX 29061 08512 11370 71704 10169 20163 30276 40361 57004 60012 70252 878// 333 20159 30016 5//// 55012 20500 81707 85820 91107 555 6///5
AAXX 29061 08515 41565 20000 10144 20131 30257 40374 57002 70200 82800 333 20147 32013 5//// 55/// 2//// 81820 555 60005
AAXX 29061 08521 32470 40106 10166 20103 30254 40325 57007 84800 333 20164 30/// 55048 83816 91010 555 60007
AAXX 29061 08522 32/// /9903 10162 20077 30258 40328 57004 333 20157 30013 5//// 55042 20814 91108 555 60005
AAXX 29061 08524 32465 30604 10161 20100 30236 40335 57003 83800 333 20158 3/013 40/// 5//// 55051 20913 82815 91008 91109 555 60005
AAXX 29061 08530 NIL
AAXX 29061 08531 32/// /0407 10124 20095 30299 40338 52002 333 20123 30011 5//// 55079 20921 91113 555 60005
AAXX 29061 08532 NIL
AAXX 29061 08533 32/// /0204 10100 20057 30295 40324 57006 333 20076 30003 5//// 55085 21261 91006 91108 555 60005
AAXX 29060 08534 32970 03603 10070 20058 30311 40329 55000 333 20058 50124 55092 555 60007
AAXX 29061 08535 32/// /0403 10097 20077 30236 40331 57002 333 20097 30005 5//// 55083 21112 91107 555 60005
AAXX 29061 08537 NIL
AAXX 29061 08540 31956 00802 10058 20054 30267 40338 50001 71000 333 20046 50054 55085 555 60007
AAXX 29061 08541 32/// /0304 10072 20060 30205 40328 57004 333 20065 30005 5//// 55081 21082 555 60005
AAXX 29061 08544 32960 00502 10070 20040 30318 40340 57011 333 20048 50144 55071 555 60007
AAXX 29061 08545 31960 33402 10036 20003 30276 40363 52002 70200 80002 333 20036 30101 50174 55076 20777 83070 555 60005
AAXX 29061 08548 32/// /9903 10071 20027 30131 40343 57004 333 20054 30001 5//// 55079 20895 91105 555 60005
AAXX 29061 08551 NIL
AAXX 29061 08554 31970 50202 10080 20035 30311 40321 55005 70311 80001 333 20067 30007 5//// 55085 21151 85070 555 60005
AAXX 29061 08558 32/// /3603 10037 20030 30023 40330 52002 333 20023 30102 5//// 55000 21023 91105 555 60005
AAXX 29061 08560 32/// /0304 10047 20014 39574 40356 57002 333 20047 30001 5//// 55076 20889 91007 91109 555 60005
AAXX 29061 08561 NIL
AAXX 29061 08562 32/// /3002 10027 20016 30020 40328 57003 333 20027 30102 5//// 55083 21172 555 60005
AAXX 29061 08567 32/// /0502 10044 20014 39687 40375 57001 333 20035 30000 5//// 55063 20752 555 60005
AAXX 29061 08568 32/// /9903 10014 2//// 38754 48616 57006 333 20008 30102 5//// 55078 21198 91107 555 60005
AAXX 29061 08570 32/// /0404 10075 20011 39863 40334 57002 333 20030 30002 5//// 55082 20924 91109 555 60005
AAXX 29061 08571 32/// /0607 10077 20005 39601 40319 57007 333 20071 30006 5//// 55067 20881 91014 91116 555 60005
AAXX 29061 08575 32/// /0000 11016 21023 39544 40402 52004 333 21024 30104 5//// 55/// 2//// 555 60005
AAXX 29061 08579 32/// /2401 10082 20070 30203 40332 57002 333 20082 30007 5//// 55082 20964 91105 555 60005
AAXX 29061 60370 16/// /2502 10109 20104 60254 333 20103
AAXX 29061 60371 16/// /2002 10113 20104 60304 333 20110
AAXX 29061 60372 16/// /3002 10094 20094 60364 333 20088
AAXX 29061 60373 NIL
AAXX 29061 60374 NIL
AAXX 29061 60376 NIL
AAXX 29061 60379 NIL
AAXX 29061 60380 NIL
AAXX 29061 60381 NIL
AAXX 29061 60393 NIL
AAXX 29061 60394 NIL
AAXX 29061 60593 NIL
AAXX 29061 60595 NIL
AAXX 29061 60605 NIL
AAXX 29061 60613 NIL
AAXX 29061 60623 NIL
AAXX 29064 60624 36/// /0000 10091 21043 333 20091
AAXX 29064 60639 NIL
AAXX 29064 60645 36/// /0000 10047 21012 333 20047
AAXX 29061 50844 32962 02902 11125 21233 40386 57022 333 21276
AAXX 29061 50854 32970 02901 11143 21239 40383 57015 333 21248
AAXX 29061 50968 32962 22503 11167 21225 40392 57008 80002 333 21257
AAXX 29061 51379 32980 50702 11037 21126 40353 57020 80002 333 00004 21205
AAXX 29061 51467 32980 21605 11024 21176 38281 57014 80002 333 00251 21088
AAXX 29061 51495 32980 21802 11076 21172 40374 57010 80002 333 00151 21155
AAXX 29061 53480 32980 01103 11043 21147 40358 57024 333 21177
AAXX 29061 53673 31958 50201 11020 21089 40339 57031 70400 80002 333 21086
AAXX 29061 53698 11956 82201 11012 21032 40363 57027 60011 77077 8802/ 333 21021 92500
AAXX 29061 53898 31920 80402 10004 21023 40353 57022 71000 8802/ 333 21012
AAXX 29061 54308 11970 61104 11056 21128 40370 57029 69901 70070 80002 333 21166
AAXX 29061 54602 32960 81401 11008 21064 40364 57026 8802/ 333 21029
AAXX 29061 54725 32965 80705 10003 21074 40363 57026 80007 333 21050
AAXX 29061 54751 32570 23605 11017 21095 40355 57020 82100 333 21042
AAXX 29061 54916 32760 80401 10035 21014 40336 57021 885// 333 21008
AAXX 29061 57014 32762 71402 10050 21048 40262 57037 87500 333 00200 21005
AAXX 29061 57025 31757 70902 10018 21045 40311 57028 71000 875// 333 21051
AAXX 29061 57046 32964 72003 11012 21062 37974 57018 80002 333 00152 21048
AAXX 29061 58208 31905 80402 10030 20030 40313 57020 74244 8807/ 333 21006
AAXX 29064 71188 11120 83203 10022 20013 39704 49745 56040 69941 75165 887// 333 10058 21039 43009 70270 90917 555 10000 20000 31629 40151
AAXX 29064 43400 NIL
AAXX 29064 43404 21470 8//// 10268 20233 30084 40094 70252 8427/ 333 59016 60007 84818 88458
AAXX 29064 43410 NIL
AAXX 29064 43413 22870 42308 10268 20240 30092 40096 81031 333 59018 60007 70000 81358 84080
AAXX 29064 43415 22470 62703 10292 20243 39982 40090 82101 333 59017 60007 70000 82818 85080
AAXX 29064 43418 22870 82907 10283 20218 3//// 4//// 84036 333 5//// 60007 70000 84358 86280
AAXX 29064 43421 22470 62303 10282 20226 39990 40092 86100 333 59017 60007 70000 86818
AAXX 29064 43422 21469 599// 10280 20227 39965 40095 70344 82106 333 59015 60007 70000 82818
AAXX 29064 43424 22478 72307 10295 20229 30087 40090 81106 333 59014 60007 70000 81816 86078
AAXX 29064 43436 22870 62302 10290 20212 30085 40089 83031 333 59008 60007 70000 83360 85080
AAXX 29064 43441 22470 727// 10290 20216 39965 40094 85606 333 59012 60007 70000 83816 83818 85280
AAXX 29064 43444 22470 62303 10272 20163 39570 40104 81106 333 59008 60007 70000 81818 86280
AAXX 29064 43467 22460 32707 10300 20227 30101 40106 81230 333 59004 60007 70000 81816
AAXX 29064 43473 22470 62705 10192 20051 38124 48484 84106 333 59001 60007 70000 84815 86280
AAXX 29064 43475 22470 52302 10300 20210 30079 40089 81101 333 59010 60007 70000 81818 85080
AAXX 29064 43476 22470 60906 10242 20075 38765 48514 81136 333 59008 60007 70000 81816 83358 86280
AAXX 29064 43479 21960 40000 10268 20120 39251 70242 81036 333 59009 60007 70000 81358 83278
AAXX 29064 43486 22470 43201 10290 20216 30004 40098 84100 333 59004 60007 70000 84812
AAXX 29064 43495 22470 5//// 10290 20232 30094 40110 82201 333 59002 60007 70000 82818 83080
AAXX 29064 43497 22476 42501 10304 20212 30077 40094 82101 333 58001 60007 70000 82818 83080
AAXX 29061 45032 36/// /0903 10235 20105 30168 40185 57002
AAXX 29061 45035 36/// /3503 10212 20144 30142 40184 57001
AAXX 29061 45039 36/// /0203 10213 20133 30170 40185 57002
AAXX 29061 45044 36/// /1209 10196 20134 30093 40186 57001
AAXX 29061 45032 36/// /0903 10235 20105 30168 40185 57002
AAXX 29061 45035 36/// /3503 10212 20144 30142 40184 57001
AAXX 29061 45039 36/// /0203 10213 20133 30170 40185 57002
AAXX 29061 45044 36/// /1209 10196 20134 30093 40186 57001
AAXX 29063 NIL
AAXX 29064 87593 NIL
AAXX 29064 87623 32980 63608 10214 20110 39897 40113 57015 83016 333 56066 83460 84270
AAXX 29064 87641 NIL
AAXX 29064 87645 NIL
AAXX 29064 87648 31958 00000 10180 20169 30156 40166 57013 71000
AAXX 29064 87692 NIL
AAXX 29064 87715 31965 01102 10248 20102 39768 40067 56008 70191
AAXX 29064 87750 32965 23608 10236 20079 30020 40114 58011 80001 333 56005 82070
AAXX 29064 87765 NIL
AAXX 29064 87784 NIL
AAXX 29064 87791 NIL
AAXX 29064 87800 NIL
AAXX 29064 87803 32980 02016 10154 20045 39236 40120 58001
AAXX 29064 87828 32980 50904 10162 20145 30074 40125 58015 85070 333 56000 85360
AAXX 29064 87860 32980 42706 10200 20061 30058 40113 58003 80006 333 56006 84270
AAXX 29064 87904 NIL
AAXX 29064 87909 NIL
AAXX 29064 87925 32980 12718 10100 20002 30086 40109 51003 80006 333 56000 81270
AAXX 29064 87938 NIL
AAXX 29064 96481 11462 73604 10298 20256 30072 40091 60011 70162 82841 333 81817 84364 86080
AAXX 29064 87016 NIL
AAXX 29064 87078 NIL
AAXX 29064 87244 NIL
AAXX 29064 87393 NIL
AAXX 29064 87416 32565 51613 10233 20174 39370 40082 53009 85400 333 56000 85630
AAXX 29064 87563 NIL
AAXX 29064 87640 NIL
AAXX 29064 87688 NIL
AAXX 29064 87774 NIL
AAXX 29064 87852 NIL
AAXX 29064 87896 NIL
AAXX 29063 NIL
AAXX 29061 23909 11598 73304 11075 21092 39683 49933 52042 60020 73673 875// 333 21072
AAXX 29061 28044 11497 83304 11083 21097 39680 49844 52021 60030 77172 887// 333 21080
AAXX 29061 28116 11596 83006 11065 21084 39686 49919 52043 69990 77187 885// 333 21059
AAXX 29061 28240 11996 83203 11073 21083 39532 49862 52039 60030 77072 8802/ 333 21065
AAXX 29061 28522 11496 82906 11037 21051 39645 49900 52041 60030 77172 8802/ 333 21034
AAXX 29061 28621 11598 73205 11041 21067 39692 49923 52041 60030 70287 87500 333 21038
AAXX 29061 28719 11/95 932// 11042 21050 39543 49982 52035 60020 77372 333 21046
AAXX 29061 29023 41496 81905 11040 21062 39983 40081 58006 78583 889// 333 88913
AAXX 29061 29122 41598 81806 11036 21061 30004 40077 58003 73883 885// 333 88623
AAXX 29061 29328 41998 82007 11059 21107 30014 40156 58005 73632 80005
AAXX 29061 29348 41997 61804 11058 21101 30059 40207 58003 73632 82031
AAXX 29061 29405 41496 81708 11046 21066 39898 40045 57014 78583 883// 333 88916
AAXX 29061 29418 41498 81609 11062 21085 39931 40092 57017 73683 889//
AAXX 29061 29430 42998 81802 11068 21110 30028 40208 58006 80001
AAXX 29061 29524 41498 81504 11078 21120 39977 40144 57014 73683 85502
AAXX 29061 29605 41496 81708 11038 21040 39908 40050 57023 77173 8872/
AAXX 29061 29631 41997 51806 11077 21122 30011 40202 57009 70231 80001
AAXX 29061 29645 42998 81403 11068 21110 30057 40250 58007 80001
AAXX 29061 29706 41598 81909 11051 21080 39956 40104 57026 73632 883//
AAXX 29061 29736 42998 51404 11055 21102 39991 40246 57005 80001
AAXX 29061 29937 42597 52002 11036 21088 30022 40247 57013 82539
AAXX 29061 36034 41595 81810 11048 21088 39963 40245 57015 77173 8655/ 333 86624
AAXX 29061 36096 42997 70000 11286 21310 39626 40507 58007 82031 333 95000
AAXX 29061 28049 11997 83406 11071 21077 39657 49820 52018 60020 77172 8802/ 333 21063
AAXX 29061 28144 11397 83103 11078 21087 39683 49841 52024 60020 77172 8872/ 333 21073 87709
AAXX 29061 28319 11496 82903 11047 21066 39758 49922 52042 60020 77177 8802/ 333 21044
AAXX 29061 28321 11597 82905 11054 21072 39707 49911 52041 69900 77173 8652/ 333 21035
AAXX 29061 28334 11408 83004 11032 21036 39568 49867 52029 60040 77473 8802/ 333 21036
AAXX 29061 28434 11598 72503 11026 21048 39625 49879 52029 69950 70182 84901 333 21057
AAXX 29061 28552 12597 62802 11032 21061 39742 49853 52022 60020 83532 333 21013
AAXX 29061 28666 11440 81607 11009 21024 39669 49839 57003 60100 77173 8802/ 333 21021
AAXX 29061 28825 11594 83102 11031 21044 39778 49949 52035 69930 78682 889// 333 21033
AAXX 29061 29111 41497 81805 11037 21062 39936 40023 57009 78583 889// 333 88918
AAXX 29061 29209 41398 81604 11047 21060 39914 40040 57011 73683 883//
AAXX 29061 29551 41597 82001 11032 21096 30064 40249 57001 70232 82301
AAXX 29061 29602 41495 81707 11046 21059 39924 40065 57024 78583 889//
AAXX 29061 29636 42999 32003 11044 21114 39996 40218 57013 83030
AAXX 29061 29654 41999 41604 11041 21087 39629 40250 57012 70231 81231
AAXX 29061 29712 41998 81707 11072 21102 39988 40134 57012 73631 88051
AAXX 29061 29724 41999 61705 11083 21120 39974 40182 57017 73631 82031
AAXX 29061 29726 42998 51803 11068 21135 30039 40211 57010 80001
AAXX 29061 29814 41599 81608 11063 21090 39991 40141 57019 73632 8357/
AAXX 29061 29827 41998 21805 11070 21108 30046 40204 58014 73630 80001
AAXX 29061 29923 41999 81907 11046 21094 39950 40229 57015 73631 8803/
AAXX 29061 29939 42998 00501 11159 21172 39982 40285 57004
AAXX 29061 35026 11495 82904 11052 21062 39333 49969 52030 60030 78583 889// 333 21051
AAXX 29061 36021 42999 61906 11041 21083 30011 40193 57018 81031
AAXX 29061 36022 41998 21809 11051 21090 39954 40221 57020 73631 80001
AAXX 29061 36038 41496 71609 11036 21076 39819 40268 58008 78583 85932 333 85915
AAXX 29061 36058 42999 31002 11093 21123 39764 40306 58013 80001
AAXX 29061 36064 42999 60605 11030 21116 39691 40293 57007 80004
AAXX 29061 36229 41999 71001 11184 21192 39137 40401 58010 70341 83031
AAXX 29061 36259 42999 80000 11234 21266 38273 48559 58004 80001
AAXX 29061 23914 11497 73204 11080 21090 39642 49902 53041 60020 77172 83774 333 21075
AAXX 29061 23921 11557 73503 11093 21113 39753 49873 52033 60020 78583 86930 333 21087
AAXX 29061 23955 41497 81506 11037 21059 39936 49997 57005 78583 883// 333 88918
AAXX 29061 23966 41396 81302 11053 21063 39968 40095 57005 77187 8872/
AAXX 29061 28138 11595 83202 11082 21088 39294 49863 52027 60030 77172 8802/ 333 21085
AAXX 29061 28224 11497 83204 11047 21063 39678 49890 52043 60020 77372 8872/ 333 21029 91110
AAXX 29061 28255 11599 83001 11034 21049 39691 49817 52015 60010 70282 8633/ 333 21041 86927
AAXX 29061 28440 11599 62804 11031 21056 39506 49849 52026 69900 72682 86900 333 21036
AAXX 29061 28645 12569 61801 11082 21101 39586 49883 52023 69960 86500 333 21044
AAXX 29061 28661 11997 82604 11008 21013 39757 49847 55004 60010 76872 8802/ 333 21006
AAXX 29061 28722 11597 72903 11023 21058 39800 49930 52037 60020 70283 87900 333 21028
AAXX 29061 28748 12960 52302 11075 21097 39653 49894 52023 60020 80002 333 21058
AAXX 29061 28838 32997 72905 11040 21077 39443 49916 52027 80009 333 21054
AAXX 29061 29231 41498 81506 11040 21066 30034 40131 58005 73632 8695/
AAXX 29061 29313 41498 81506 11050 21086 39963 40086 57006 73632 885// 333 88615
AAXX 29061 29612 41998 71607 11058 21088 39957 40111 57023 73832 87030
AAXX 29061 29638 41979 61507 11081 21117 30046 40217 57009 73631 80001
AAXX 29061 29838 42997 01703 11065 21111 30011 40250 57002
AAXX 29061 29846 42997 01802 11092 21122 39873 40273 57013
AAXX 29061 36061 42999 20000 11149 21170 39868 40302 57008 80001
AAXX 29064 65201 31456 63304 10255 20251 30083 40138 71022 84508 333 20250 56500 57632 59002 84610 86280 91106 94463
AAXX 29061 37575 42999 00202 10011 21027 39718 40326 52027
AAXX 29061 37675 41495 80702 10020 20004 39643 40321 52019 75152
AAXX 29061 37735 42999 01401 10060 21022 39853 40233 52015
AAXX 29061 37749 42998 01102 10021 21010 30237 40358 52029
AAXX 29061 37756 42598 82901 10008 21025 39419 40360 52021 887//
AAXX 29061 37864 32697 83303 10058 20045 40325 52032 8457/ 333 84633 555 20031
AAXX 29061 37985 42598 51801 10038 20009 30327 40312 52012 85540
AAXX 29064 71952 16/// /0902 11026 21029 39066 49904 53018 60001 333 10033 21075 70041 555 10070 20041
AAXX 29064 71976 46/// /1202 11287 21321 39507 40178 55000 6///1 333 11287 21362 7//// 555 10010
AAXX 29064 71679 17/// /2210 10021 21013 38917 49908 51028 69931 7//4/ 333 10037 21067 70033 555 10010 20033 31826 40221
AAXX 29064 71682 16/// /0302 11227 21247 39753 49992 57012 60001 333 11227 21314 70003
AAXX 29064 71687 17/// /1703 10041 20033 39215 49981 53029 60091 7//4/ 333 10052 20001 70176
AAXX 29064 71503 46/// /0610 11205 21228 39728 40007 56008 6///1 333 11203 21293 7//// 555 30417 40051
AAXX 29064 71505 46/// /0701 11156 21179 39108 49830 53010 6///1 333 11095 21157 7////
AAXX 29064 71506 46/// /0827 11233 21262 39009 49913 53005 6///1 333 11196 21287 7//// 555 30840 40033
AAXX 29064 71539 16/// /2007 11052 21058 39352 40052 55006 60001 333 11028 21100 70022 555 10020 20022
AAXX 29064 71269 16/// /2212 10014 21021 60001 333 10074 21057 7////
AAXX 29064 71285 46/// /1304 11114 21120 6///1 333 11047 21131 7////
AAXX 29064 71299 46/// /0000 11330 21363 39876 40179 58005 6///1 333 11218 21344 7////
AAXX 29064 71302 16/// /2010 10043 20003 39106 49903 53007 60001 333 10046 21051 70043 555 10030 20043 31818 40041
AAXX 29064 71309 16/// /2303 11305 21338 30158 40170 56008 60001 333 11221 21307 70007
AAXX 29064 71321 16/// /0101 11204 21230 30167 40213 53002 60001 333 11201 21305 70000
AAXX 29064 71340 16/// /1008 11101 21119 60001 333 11030 21119 70000
AAXX 29064 71341 16/// /2523 10055 20010 60001 333 10082 21015 70000 555 32542 40113
AAXX 29064 71342 16/// /1903 11052 21064 60001 333 11005 21085 70032 555 31217 40141
AAXX 29064 71344 16/// /2312 10036 21042 60001 333 10056 21086 70000 555 31222 40131
AAXX 29064 71347 16/// /1306 11038 21057 60001 333 11037 21126 70000
AAXX 29064 71348 16/// /0602 11040 21054 60001 333 11030 21120 70005
AAXX 29064 71349 16/// ///// 11114 21121 60001 333 11043 21114 70010
AAXX 29064 71832 16/// /1703 11342 21377 39813 40163 56007 60001 333 11189 21363 70000
AAXX 29064 71201 17/// ///// 10085 20068 60091 7//4/ 333 10112 20079 70130
AAXX 29064 71211 46/// /2011 10091 20075 30001 40012 51039 6///1 333 10117 20049 7//// 555 31835 40003
AAXX 29064 71219 46/// /2523 10068 20026 6///1 333 10103 21890 7//// 555 31740 40173
AAXX 29064 71222 16/// /2901 11110 21124 38885 49844 53007 60001 333 11101 21144 70003
AAXX 29064 71228 17/// /1306 11089 21107 69951 7//4/ 333 11019 21121 70012
AAXX 29064 71042 17/// /2006 10081 20064 30020 40024 53036 60041 7//4/ 333 10108 20080 70065 555 31818 40171
AAXX 29064 71465 46/// /1404 11024 21077 39931 40152 58016 6///1 333 11003 21056 7//// 555 32927 40071
AAXX 29064 71477 17/// /2421 10023 20010 69941 7//4/ 333 10063 20015 70054 555 30839 40073
AAXX 29064 71550 16/// /2405 11108 21124 39672 40051 51006 60001 333 11033 21110 70000
AAXX 29064 71557 46/// /2103 10048 20035 6///1 333 10114 20011 7//// 555 31920 40211
AAXX 29064 71401 17/// /1804 10042 20034 39336 40011 56032 60041 7//4/ 333 10046 21003 70085 555 31317 40161
AAXX 29064 71423 17/// /1525 10023 20017 39747 49756 56060 60151 7//4/ 333 10029 20009 70218 555 31547 40223
AAXX 29064 71374 46/// /0813 10018 20005 6///1 333 10031 20008 7//// 555 31332 40212
AAXX 29064 71387 17/// /3109 11148 21169 39551 49930 53008 69931 7//4/ 333 11006 21148 70000 555 33222 40031
AAXX 29064 71395 11774 22317 10015 21004 39696 49869 53013 69901 82500 333 10100 20015 70258 90963 555 10000 20000 31543 40183
AAXX 29064 71894 17/// /2822 10078 20067 30047 40056 53051 60031 7//4/ 333 10098 20076 70162 555 32135 40013
AAXX 29064 71924 11574 70000 11279 21317 30026 40119 53014 69901 77177 81530 333 11254 21297 48038 79999 90983 555 19999 29999
AAXX 29064 71883 46/// /0000 10002 20001 39146 49951 56035 6///1 333 10025 21009 7////
AAXX 29064 71421 17/// ///// 11012 21012 39129 49822 56045 60051 7//4/ 333 11005 21096 70305
AAXX 29064 71435 17/// /1103 11089 21096 39441 40044 58021 60031 7//4/ 333 11089 21315 70025 555 10030 20025
AAXX 29064 71737 16/// /2909 11211 21252 39516 40055 53021 60001 333 11023 21211 70040 555 10090 20040 33124 40001
AAXX 29064 71741 16/// /0304 10053 20018 39534 49946 55018 60001 333 10100 20008 70000 555 31131 40222
AAXX 29064 71743 16/// /0000 11356 21390 39931 40163 55003 60001 333 11223 21358 70000
AAXX 29064 71746 16/// /1806 11079 21116 39925 40152 58013 60001 333 11022 21094 70000 555 10010 33031 40072
AAXX 29064 71748 16/// /3002 11066 21076 39756 40048 53003 60001 333 11066 21127 70000 555 31918 40181
AAXX 29064 71200 17/// /2426 10086 20068 60061 7//4/ 333 10109 20071 70160 555 32543 40043
AAXX 29064 71207 17/// /1712 10097 20064 39928 49991 53030 60211 7//4/ 333 10097 20024 70496 555 31622 40061
AAXX 29064 71107 16/// /3437 10037 20009 39895 40007 53058 60001 333 10074 20033 70000 555 33353 40053
AAXX 29064 71113 17/// /2407 10118 20065 39997 40020 53033 60101 7//4/ 333 10122 20048 70312 555 32122 40061
AAXX 29064 71115 16/// /0302 10018 20016 39399 49972 56025 60001 333 10053 21023 70004 555 31019 40001
AAXX 29064 71605 17/// /3504 10076 20076 39865 40012 53034 60271 7//4/ 333 10093 20065 70474 555 31717 40031
AAXX 29064 71938 11866 20000 11351 21385 30081 40113 52005 69901 77677 82010 333 11300 21370 44026 79999 90983 555 19999 29999
AAXX 29064 71949 46/// /1102 11116 21136 38979 49844 55001 6///1 333 11092 21161 7//// 555 31118 40041
AAXX 29064 71951 11248 81909 10014 20010 39666 49929 52033 69921 70276 885// 333 10015 21017 43039 70218 90923 555 10210 20214 33621 40090
AAXX 29064 71966 16/// /2401 11217 21244 39409 49879 55004 60001 333 11217 21280 70000
AAXX 29064 71151 16/// /0803 11091 21105 39518 40029 56004 60001 333 11084 21185 70000 555 31519 40201
AAXX 29064 71186 46/// /2934 11136 21165 6///1 333 10022 21136 7//// 555 32943 40063
AAXX 29064 71190 46/// /2939 11081 21117 6///1 333 10032 21084 7//// 555 33051 40063
AAXX 29064 71768 46/// /2304 10076 20047 39461 49997 55002 6///1 333 10095 20012 7//// 555 31838 40093
AAXX 29064 71769 17/// /3013 10100 20054 39989 40005 53031 60041 7//4/ 333 10126 20079 70070 555 31130 40072
AAXX 29064 71773 16/// /0000 11101 21110 38972 49818 53010 60001 333 11079 21110 70003 555 10050 20003
AAXX 29064 71774 46/// ///// 10067 6///1 333 10092 20057 7////
AAXX 29064 71782 46/// /1604 10019 20015 38704 40008 56040 6///1 333 10045 20005 7//// 555 31724 40121
AAXX 29064 71784 17/// /0201 10066 20061 39815 40016 53032 60081 7//4/ 333 10099 20065 70116
AAXX 29064 60135 32456 20000 10026 20016 40312 53006 82600 333 20023 55060 21142 82716
AAXX 29064 60156 15960 /1604 10022 20001 40325 53002 69904 333 20020
AAXX 29064 60230 15950 03302 10041 20031 40319 53009 60004 333 20037
AAXX 29064 60252 32950 01105 10066 20054 40286 58001 333 20044
AAXX 29061 15605 11/01 90704 11064 21067 39392 40284 57014 69902 74944 333 11040 21064 44005 70000 93504 555 3/107 597// 92711
AAXX 29064 60595 36/// /0000 11451 333 21451
AAXX 29064 71050 46/// /2307 10001 21010 38895 49959 53023 6///1 333 10034 21126 7////
AAXX 29064 71832 16/// /1703 11342 21377 39813 40163 56007 60001 333 11189 21363 70000
AAXX 29064 71201 17/// ///// 10085 20068 60091 7//4/ 333 10112 20079 70130
AAXX 29064 71211 46/// /2011 10091 20075 30001 40012 51039 6///1 333 10117 20049 7//// 555 31835 40003
AAXX 29064 71219 46/// /2523 10068 20026 6///1 333 10103 21890 7//// 555 31740 40173
AAXX 29064 71222 16/// /2901 11110 21124 38885 49844 53007 60001 333 11101 21144 70003
AAXX 29064 71228 17/// /1306 11089 21107 69951 7//4/ 333 11019 21121 70012
AAXX 29064 71269 16/// /2212 10014 21021 60001 333 10074 21057 7////
AAXX 29064 71285 46/// /1304 11114 21120 6///1 333 11047 21131 7////
AAXX 29064 71299 46/// /0000 11330 21363 39876 40179 58005 6///1 333 11218 21344 7////
AAXX 29064 71679 17/// /2210 10021 21013 38917 49908 51028 69931 7//4/ 333 10037 21067 70033 555 10010 20033 31826 40221
AAXX 29064 71682 16/// /0302 11227 21247 39753 49992 57012 60001 333 11227 21314 70003
AAXX 29064 71687 17/// /1703 10041 20033 39215 49981 53029 60091 7//4/ 333 10052 20001 70176
AAXX 29064 71421 17/// ///// 11012 21012 39129 49822 56045 60051 7//4/ 333 11005 21096 70305
AAXX 29064 71435 17/// /1103 11089 21096 39441 40044 58021 60031 7//4/ 333 11089 21315 70025 555 10030 20025
AAXX 29064 71883 46/// /0000 10002 20001 39146 49951 56035 6///1 333 10025 21009 7////
AAXX 29064 71894 17/// /2822 10078 20067 30047 40056 53051 60031 7//4/ 333 10098 20076 70162 555 32135 40013
AAXX 29064 71924 11574 70000 11279 21317 30026 40119 53014 69901 77177 81530 333 11254 21297 48038 79999 90983 555 19999 29999
AAXX 29064 71503 46/// /0610 11205 21228 39728 40007 56008 6///1 333 11203 21293 7//// 555 30417 40051
AAXX 29064 71505 46/// /0701 11156 21179 39108 49830 53010 6///1 333 11095 21157 7////
AAXX 29064 71506 46/// /0827 11233 21262 39009 49913 53005 6///1 333 11196 21287 7//// 555 30840 40033
AAXX 29064 71539 16/// /2007 11052 21058 39352 40052 55006 60001 333 11028 21100 70022 555 10020 20022
AAXX 29064 71302 16/// /2010 10043 20003 39106 49903 53007 60001 333 10046 21051 70043 555 10030 20043 31818 40041
AAXX 29064 71309 16/// /2303 11305 21338 30158 40170 56008 60001 333 11221 21307 70007
AAXX 29064 71321 16/// /0101 11204 21230 30167 40213 53002 60001 333 11201 21305 70000
AAXX 29064 71340 16/// /1008 11101 21119 60001 333 11030 21119 70000
AAXX 29064 71341 16/// /2523 10055 20010 60001 333 10082 21015 70000 555 32542 40113
AAXX 29064 71342 16/// /1903 11052 21064 60001 333 11005 21085 70032 555 31217 40141
AAXX 29064 71344 16/// /2312 10036 21042 60001 333 10056 21086 70000 555 31222 40131
AAXX 29064 71347 16/// /1306 11038 21057 60001 333 11037 21126 70000
AAXX 29064 71348 16/// /0602 11040 21054 60001 333 11030 21120 70005
AAXX 29064 71349 16/// ///// 11114 21121 60001 333 11043 21114 70010
AAXX 29064 71952 16/// /0902 11026 21029 39066 49904 53018 60001 333 10033 21075 70041 555 10070 20041
AAXX 29064 71976 46/// /1202 11287 21321 39507 40178 55000 6///1 333 11287 21362 7//// 555 10010
AAXX 29064 71605 17/// /3504 10076 20076 39865 40012 53034 60271 7//4/ 333 10093 20065 70474 555 31717 40031
AAXX 29064 71737 16/// /2909 11211 21252 39516 40055 53021 60001 333 11023 21211 70040 555 10090 20040 33124 40001
AAXX 29064 71741 16/// /0304 10053 20018 39534 49946 55018 60001 333 10100 20008 70000 555 31131 40222
AAXX 29064 71743 16/// /0000 11356 21390 39931 40163 55003 60001 333 11223 21358 70000
AAXX 29064 71746 16/// /1806 11079 21116 39925 40152 58013 60001 333 11022 21094 70000 555 10010 33031 40072
AAXX 29064 71748 16/// /3002 11066 21076 39756 40048 53003 60001 333 11066 21127 70000 555 31918 40181
AAXX 29064 71042 17/// /2006 10081 20064 30020 40024 53036 60041 7//4/ 333 10108 20080 70065 555 31818 40171
AAXX 29064 71374 46/// /0813 10018 20005 6///1 333 10031 20008 7//// 555 31332 40212
AAXX 29064 71387 17/// /3109 11148 21169 39551 49930 53008 69931 7//4/ 333 11006 21148 70000 555 33222 40031
AAXX 29064 71395 11774 22317 10015 21004 39696 49869 53013 69901 82500 333 10100 20015 70258 90963 555 10000 20000 31543 40183
AAXX 29064 71050 46/// /2307 10001 21010 38895 49959 53023 6///1 333 10034 21126 7////
AAXX 29064 71200 17/// /2426 10086 20068 60061 7//4/ 333 10109 20071 70160 555 32543 40043
AAXX 29064 71207 17/// /1712 10097 20064 39928 49991 53030 60211 7//4/ 333 10097 20024 70496 555 31622 40061
AAXX 29064 71550 16/// /2405 11108 21124 39672 40051 51006 60001 333 11033 21110 70000
AAXX 29064 71557 46/// /2103 10048 20035 6///1 333 10114 20011 7//// 555 31920 40211
AAXX 29064 71768 46/// /2304 10076 20047 39461 49997 55002 6///1 333 10095 20012 7//// 555 31838 40093
AAXX 29064 71769 17/// /3013 10100 20054 39989 40005 53031 60041 7//4/ 333 10126 20079 70070 555 31130 40072
AAXX 29064 71773 16/// /0000 11101 21110 38972 49818 53010 60001 333 11079 21110 70003 555 10050 20003
AAXX 29064 71774 46/// ///// 10067 6///1 333 10092 20057 7////
AAXX 29064 71782 46/// /1604 10019 20015 38704 40008 56040 6///1 333 10045 20005 7//// 555 31724 40121
AAXX 29064 71784 17/// /0201 10066 20061 39815 40016 53032 60081 7//4/ 333 10099 20065 70116
AAXX 29064 71938 11866 20000 11351 21385 30081 40113 52005 69901 77677 82010 333 11300 21370 44026 79999 90983 555 19999 29999
AAXX 29064 71949 46/// /1102 11116 21136 38979 49844 55001 6///1 333 11092 21161 7//// 555 31118 40041
AAXX 29064 71951 11248 81909 10014 20010 39666 49929 52033 69921 70276 885// 333 10015 21017 43039 70218 90923 555 10210 20214 33621 40090
AAXX 29064 71966 16/// /2401 11217 21244 39409 49879 55004 60001 333 11217 21280 70000
AAXX 29064 71465 46/// /1404 11024 21077 39931 40152 58016 6///1 333 11003 21056 7//// 555 32927 40071
AAXX 29064 71477 17/// /2421 10023 20010 69941 7//4/ 333 10063 20015 70054 555 30839 40073
AAXX 29064 71107 16/// /3437 10037 20009 39895 40007 53058 60001 333 10074 20033 70000 555 33353 40053
AAXX 29064 71113 17/// /2407 10118 20065 39997 40020 53033 60101 7//4/ 333 10122 20048 70312 555 32122 40061
AAXX 29064 71115 16/// /0302 10018 20016 39399 49972 56025 60001 333 10053 21023 70004 555 31019 40001
AAXX 29064 61976 16/// /1312 10304 20228 40120 60044 333 20266 55/// 58001 90710 91116 555 60005
AAXX 29064 71401 17/// /1804 10042 20034 39336 40011 56032 60041 7//4/ 333 10046 21003 70085 555 31317 40161
AAXX 29064 71423 17/// /1525 10023 20017 39747 49756 56060 60151 7//4/ 333 10029 20009 70218 555 31547 40223
AAXX 29064 60670 12980 00000 11008 21065 39073 48503 54003 60004 333 05300 21016 95900
AAXX 29064 86330 32998 01106 10172 20133 40142 51001
AAXX 29064 86360 NIL
AAXX 29064 86460 NIL
AAXX 29064 86490 NIL
AAXX 29064 86530 NIL
AAXX 29064 86545 32997 00408 10168 20136 40176 52///
AAXX 29064 86565 32997 00602 10138 20123 40162 57018
AAXX 29064 86580 42997 00205 10172 20152 40161 57010
AAXX 29061 48806 32470 52702 10236 20130 39393 40153 57031 868// 333 59022 82894 86697
AAXX 29061 28216 11598 83203 11064 21083 39632 49915 52039 69920 77172 885// 333 21048
AAXX 29061 28428 11597 83305 11043 21058 39723 49907 52040 69940 70272 83531 333 21038
AAXX 29061 28451 11598 52604 11026 21055 39682 49838 52018 69960 70271 85500 333 21023
AAXX 29061 28541 32583 72803 11040 21062 39376 49861 52018 85530 333 21051
AAXX 29061 28655 11998 72803 11035 21051 39649 49868 52027 60040 70272 87030 333 21027
AAXX 29061 28756 11598 62403 11025 21028 39730 49875 52037 60050 70273 82501 333 21010
AAXX 29061 29557 42998 22003 11021 21092 39981 40249 58007 80001
AAXX 29061 29625 41998 21908 11091 21125 39991 40175 58016 73631 80001
AAXX 29061 29813 41999 71808 11082 21109 39969 40153 57013 73631 80002
AAXX 29061 29822 42997 31805 11083 21120 30041 40209 57013 80001
AAXX 29061 29915 41998 71707 11068 21088 30007 40168 57022 73631 87030
AAXX 29061 36020 41998 21709 11074 21109 30010 40216 57015 73630 80002
AAXX 29061 23226 11460 81606 11114 21142 39662 43882 58001 69930 77172 8452/ 333 21109 84616
AAXX 29061 23701 11499 82905 11024 21040 39824 49953 52025 60010 70371 885// 333 21106 88614
AAXX 29061 28909 11497 83107 11020 21062 39945 40044 52049 60020 73673 82531 333 21021 91012 91116
AAXX 29064 41907 31950 00502 10256 20120 30149 41164 70500 333 58003 70000
AAXX 29064 41923 31930 00402 10282 20120 30142 40152 70500 333 58002 70000
AAXX 29064 41943 31450 60000 10262 20190 30148 40156 70544 82530 333 56990 58005 70000 82618 85362
AAXX 29064 41950 31435 60000 10265 20170 30153 40156 70522 84550 333 56990 58009 70000 84617 85362
AAXX 29064 41992 31430 60000 10265 20200 30145 40148 70522 83510 333 56990 59002 70000 83616 86460
AAXX 29061 22004 11984 50000 11059 21066 39827 49941 57010 69902 70282 85030 333 21078 47997
AAXX 29064 41858 NIL
AAXX 29064 41863 NIL
AAXX 29064 41886 31956 10902 20160 30145 40166 70341 81030 333 56090 58002 70000 81365
AAXX 29064 41895 NIL
AAXX 29064 41909 32957 03603 10270 20130 30144 40156 333 58002 70000
AAXX 29064 41915 NIL
AAXX 29064 41926 NIL
AAXX 29064 41929 NIL
AAXX 29064 41933 31950 22302 10266 20200 30157 40166 70540 82010 333 56090 58016 70000 82458
AAXX 29064 41939 NIL
AAXX 29064 41941 NIL
AAXX 29064 41946 32557 53001 10250 20140 30167 40171 82450 333 56590 58016 70000 81620 84362
AAXX 29064 41947 31450 70000 10260 20150 30159 40161 70522 83570 333 56990 58006 70000 83618 86458
AAXX 29064 41951 NIL
AAXX 29064 41953 31940 73602 10264 20190 30148 40153 70544 87070 333 56090 58004 70000 82458 85362
AAXX 29064 41958 NIL
AAXX 29064 41960 NIL
AAXX 29064 41963 NIL
AAXX 29064 41964 NIL
AAXX 29064 41965 NIL
AAXX 29064 41966 NIL
AAXX 29064 41984 NIL
AAXX 29064 41989 NIL
AAXX 29064 41998 32456 70201 10262 20220 30139 40145 82830 333 56990 58000 70100 81618 84362
AAXX 29061 22213 32984 71201 11174 21180 39775 49951 57022 80001 333 21184 47037 91002 93505
AAXX 29061 22140 32597 72712 11008 21046 39881 49896 52004 87500 333 21013 42001 91015 91118
AAXX 29061 22003 11599 73206 11010 21049 39916 49925 58002 69962 73632 85930 333 21013 47005 91008 91114
AAXX 29064 41241 36/// /0000 10225 20081 30178 40216 333 0E020 20176 58028
AAXX 29061 22100 32999 72501 11151 21170 39798 49948 58019 82031 333 21184 47022 91002
BBXX BAREU06 29064 99394 70001 46/// ///// 40286 22224
AAXX 29064 89507 46/89 /1010 11261 29070 36776 4//// 5////
AAXX 29061 10544 11/01 92609 11011 21011 39115 48479 53001 69932 74974 333 11001 21011 3/101 42007 55002 55300 70003 96478 96477 96468 96456
BBXX 46241 29061 99330 71173 46/// ///// 1//// 90541 22200 00142 11302 21001 327// 41301 70009
AAXX 29061 13463 32970 01101 11002 21028 30195 40257 57009 333 21016 30104 55052
AAXX 29061 13459 32970 00202 11049 21053 39482 40287 56009 333 21052 35108 45001 55085
AAXX 29061 13461 32970 01101 10029 21019 30242 40249 57008 333 20025 31104 55075 92311 92418 92512
AAXX 29061 13363 31/02 91801 11107 21113 39324 48493 57008 74344 333 21107 3/114 43011 55037
BBXX 46249 29061 99338 71197 46/// ///// 1//// 90610 22200 00147 11302 20802 325// 41301 70011
BBXX 46248 29061 99461 71247 46/// ///// 1//// 90604 22200 00095 11109 21007 326// 41106 70047
BBXX 46244 29061 99409 71244 46/// ///// 1//// 90605 22200 00100 11406 21004 330// 41404 70031
BBXX C6SI6 29064 99356 11398 46/// /1902 10099 20035 40172 56028 7//// 8//// 22200 0//// 2////
BBXX DIHC 29063 99307 11238 41497 83520 10130 20039 40275 58015 70222 8571/ 22254 00150 20402 80085
BBXX UFLC 29060 99461 11438 41396 71109 11040 40212 57004 77222 8672/ 22212 06045 20402
BBXX WCX8882 29064 99315 11295 41497 83619 10140 20090 40238 57024 70522 886// 22235 00190 20201 3//// 40000 5//// 6//// 80110 ICE /////
BBXX WDB3161 29064 99358 11209 41696 60217 10025 21040 40330 57003 70222 866// 22200 00103 20804 302// 41204 5//// 6//// 80000 ICE /////
AAXX 2906/ 89872 46/// ///// 11016 39803 4//// 5//// 90610
AAXX 2906/ 89869 46/// ///// 11013 39744 4//// 5//// 90610
AAXX 2906/ 89329 46/// ///// 11090 38698 4//// 5////
AAXX 2906/ 89799 46/// ///// 11249 4//// 5//// 90610
AAXX 2906/ 89332 46/// ///// 11053 39194 4//// 5////
AAXX 2906/ 89828 46/// ///// 11200 36542 4//// 5//// 90610
AAXX 2906/ 89108 46/// ///// 11216 36886 4//// 5//// 90610
AAXX 2906/ 89314 46/// ///// 11113 38154 4//// 5//// 90610
BBXX 46216 29061 99343 71198 46/// ///// 1//// 90557 22200 00140 11302 21002 326// 41301 70012
BBXX 46240 29061 99366 71219 46/// ///// 1//// 90612 22200 00121 11302 21001 335// 41302 70012
BBXX 46237 29061 99378 71226 46/// ///// 1//// 90610 22200 00108 11304 21002 326// 41304 70021
BBXX 46212 29061 99408 71243 46/// ///// 1//// 90612 22200 00102 11307 21004 329// 41305 70033
BBXX 46217 29061 99342 71194 46/// ///// 1//// 90612 22200 00143 11303 20702 328// 41302 70014
AAXX 29061 56146 32980 01801 10041 21181 36742 57036 333 00252 21121
AAXX 29061 56444 32980 01401 10052 21086 36823 57023 333 00151 21070
AAXX 29061 56492 31930 71401 10114 20044 39850 40264 57035 71000 8703/ 333 00101 20077
AAXX 29061 56571 32680 11101 10185 20011 38396 57038 81100 333 00251 20034
AAXX 29061 57799 11458 83201 10072 20060 30179 40271 57015 60011 76060 885// 333 20071
AAXX 29061 57866 11440 80204 10048 20030 30066 40280 57025 60011 76066 887// 333 20043
AAXX 29061 57957 11456 83603 10074 20057 30054 40258 57027 69971 76066 885// 333 20063
AAXX 29061 57993 11760 83202 10069 20047 30088 40259 57014 60011 76060 885// 333 20069
AAXX 29061 58027 32761 70703 10048 21053 30272 40326 57018 875// 333 20005
AAXX 29061 58141 31640 70405 10060 20011 30303 40323 57019 70500 8354/ 333 20038
AAXX 29061 58265 31940 70204 10086 20038 30294 40302 57015 70500 8704/ 333 20072
AAXX 29061 58472 32475 60206 10103 20033 30185 40281 57014 86100 333 20095
AAXX 29061 58477 32470 80403 10114 20029 30226 40271 57013 8217/ 333 20102
AAXX 29061 58527 11657 80701 10099 20034 30187 40265 57021 69901 70560 885// 333 20080
AAXX 29061 58633 11940 80703 10089 20077 30164 40266 57016 60021 76060 8807/ 333 20089
AAXX 29061 58666 11462 83611 10101 20079 30151 40255 57013 69911 76060 885// 333 20101
AAXX 29061 58725 11760 83401 10099 20082 39983 40250 57015 60021 76060 885// 333 20093
AAXX 29061 58921 11450 80701 10134 20123 39983 40233 57017 60021 76060 8277/ 333 20116
AAXX 29061 59082 11656 80204 10117 20074 30089 40238 57017 69931 72160 885// 333 20102
AAXX 29061 59211 11420 82501 10122 20109 30015 40226 57024 60011 76060 8377/ 333 20118
AAXX 29061 59265 31750 80202 10155 20073 30067 40206 57030 70500 885// 333 20133
AAXX 29061 59293 32865 71402 10203 20070 30112 40198 57036 875// 333 20122
AAXX 29061 59501 32560 10902 10218 20129 30168 40189 57037 81100 333 20137
AAXX 29061 59663 31956 01604 10212 20110 30081 40189 57031 70500 333 20135
AAXX 29061 59838 32565 13204 10243 20183 30150 40160 57038 81100 333 20185
AAXX 29061 59948 32480 70707 10220 20154 39686 40171 57030 81102 333 20174
AAXX 29061 59981 32578 70405 10250 20217 30142 40149 57027 878// 333 20227
BBXX 46218 29061 99345 71208 46/// ///// 1//// 90602 22200 00135 11305 20804 329// 41303 70026
BBXX 46223 29061 99335 71178 46/// ///// 1//// 90600 22200 00148 11302 20901 328// 41301 70008
BBXX 46231 29061 99327 71174 46/// ///// 1//// 90554 22200 00148 11302 21001 327// 41302 70010
BBXX 46222 29061 99336 71183 46/// ///// 1//// 90556 22200 00146 11302 21001 325// 41302 70010
AAXX 29061 23205 11295 82402 11027 21040 39822 49836 52004 69930 71085 886// 333 21117 88704 91104
AAXX 29061 22271 11498 63106 11001 21055 39876 49886 52011 60010 70281 82309 333 21019
BBXX PDHY 29063 99471 70355 41/92 /1805 10130 40208 57009 74444 8//// 22263 04120 20201 3//// 4//// 5////
AAXX 29061 40009 32965 00000 10020 21038 40236 51006 333 21032 34///
AAXX 29061 40016 32970 00000 10000 21018 40280 52010 333 21012 30/// 55094 70000
AAXX 29061 40022 32965 00602 10078 20046 40230 57005 222// 20000 333 20064 30/// 70000
AAXX 29061 40030 31/00 90000 10016 20016 40250 50003 74044 89/// 333 20012 31/// 50024 55080 89/01
AAXX 29061 40039 32970 00000 10003 21014 40250 53008 333 2104 30/// 55059 70000
AAXX 29061 40066 32970 00000 10084 20028 40222 53002 333 20082 30///
AAXX 29061 40072 32970 00000 10020 21026 40274 53004 333 20000 30///
AAXX 29061 40083 32970 02501 10006 21082 48511 51002 333 21022 34///
AAXX 29061 60381 16/// /2002 10103 20103 60214 333 20100
AAXX 29061 60639 36/// /3512 10074 21010 333 20073
AAXX 29061 60605 36/// /2607 100U8 21011 333 20057
BBXX BAREU06 29064 99394 70001 46/// ///// 40286 22224
BBXX PDHY 29063 99471 70355 41/92 /1805 10130 40208 57009 74444 8//// 22263 04120 20201 3//// 4//// 5////
AAXX 29064 48566 32560 60806 10305 20224 30096 40104 57029 82846 333 59001
AAXX 29061 50353 32970 30000 11240 21301 30085 40339 57025 80002 333 21359
AAXX 29061 50557 32970 01402 11213 21272 30033 40377 57018 333 21346
AAXX 29061 50756 32960 02902 11202 21253 30053 40388 57008 333 21283
AAXX 29061 50949 32965 02701 11128 21242 30201 40390 57018 333 21243
AAXX 29061 50963 32762 72710 11187 21235 30212 40366 57007 87500 333 21256
AAXX 29061 50978 11965 82706 11157 21208 39926 40307 57007 69901 77070 8802/ 333 21211
AAXX 29061 51087 32980 02001 11104 21169 39340 40381 57011 333 00201 21184
AAXX 29061 51156 NIL
AAXX 29061 51644 32960 70701 11068 21100 39029 40372 57005 80002 333 00251 21142
AAXX 29061 51656 32961 42201 11061 21088 39207 40371 57002 80002 333 00201 21124
AAXX 29061 51886 32980 32002 11079 21264 37116 57018 80002 333 00000 21192
AAXX 29061 52602 32980 70901 11040 21269 37273 57016 80002 333 00102 21222
AAXX 29061 52713 32980 11802 11021 21261 36907 57019 80002 333 00102 21202
AAXX 29061 52754 32980 02002 11032 21183 36790 57017 333 00100 21160
AAXX 29061 52818 32980 00704 11019 21231 37232 57029 333 00003 21148
AAXX 29061 52836 32980 03601 10011 21235 36892 57021 333 00101 21174
AAXX 29061 52955 32580 13201 10011 21200 36967 57022 81100 333 00102 21136
AAXX 29061 53068 32980 00902 11164 21208 39146 40407 57025 333 05101 21256
AAXX 29061 53276 32980 02502 11045 21149 38930 40355 57022 333 21186
AAXX 29061 54135 32980 02502 11114 21245 30157 40402 57022 333 21228
AAXX 29061 54236 32965 03601 11103 21235 30284 40400 57021 333 21206
AAXX 29061 54539 32970 50703 11048 21163 30369 40385 57023 80002 333 21097
AAXX 29061 54662 32970 03603 11069 21195 30240 40363 57018 333 21115
AAXX 29061 54753 32566 60205 11020 21083 30353 40360 57017 86400 333 21033
AAXX 29061 54857 32970 03406 10007 21110 30244 40341 57018 333 21032
AAXX 29061 57067 31930 70403 10023 21038 39616 40323 57033 71000 8703/ 333 21048
AAXX 29061 57178 31920 70403 10062 21008 30159 40324 57027 71000 80002 333 20000
AAXX 29061 57245 32960 80402 10081 21020 39938 40299 57022 8807/ 333 00351 20029
AAXX 29061 57297 31720 83601 10023 20007 30172 40319 57021 71000 885// 333 20000
AAXX 29064 60607 12960 00000 10044 21016 40252 56002 60004 333 0//00 20038
AAXX 29064 48557 32562 60000 10302 20237 30076 40111 57027 83806 333 59013
AAXX 29064 48574 32562 50000 10302 20237 30077 40106 57029 82106 333 59018
BBXX 46242 29061 99332 71174 46/// ///// 1//// 90558 22200 00144 11301 20901 323// 41301 70007
BBXX 46221 29061 99339 71186 46/// ///// 1//// 90545 22200 00149 11302 21001 327// 41301 70009
AAXX 29063 68452 NIL
AAXX 29063 68454 12589 40000 10165 20128 38403 48/// 54000 69904 84200 333 20125 555 10241 20000
AAXX 29063 68456 NIL
AAXX 29063 91945 36/// /0116 10274 20228 30142 40147 53014 555 58001 69924
BBXX A8RL2 29063 99382 70259 41/97 /1807 10180 40370 54000 74044 8//// 22214 04190 2////
BBXX 64045 29064 99591 70117 46/// /2926 10053 20030 40014 56027 22200 00100 10709 70046 333 90710 91148
BBXX 62105 29064 99554 70121 46/// /2836 10100 20069 40158 55017 22200 00106 10915 70075 333 90710 91149
BBXX 62081 29064 99510 70134 46/// ///// 10108 20064 40336 57017 22200 00120 10811 70056
BBXX 62442 29064 99490 70164 46/// /2519 1//// 2//// 40394 58013 22200 00124 333 90710 91126
BBXX 62029 29064 99487 70125 46/// /2818 10104 20038 40388 58013 22200 00127 11012 70058 333 90710 91126
BBXX 62163 29064 99475 70084 46/// /2913 10100 20038 40388 56015 22200 00125 11110 70052
BBXX 62001 29064 99452 70050 46/// /3515 10110 20046 40392 55001 22200 00138 10909 70044
BBXX 64046 29064 99605 70049 46/// /3120 10040 21026 40002 58009 22200 00080 10811 70057
BBXX 62301 29064 99524 70047 46/// /2728 10089 20053 40228 58026 22200 00093 10707 70037 333 90710 91142
BBXX 62303 29064 99516 70051 46/// /2629 10101 20056 40260 58026 22200 00112 10607 70035 333 90710 91142
BBXX 62305 29064 99504 10000 46/98 /2832 10088 20022 40283 50000 22200 00113 10704 70022 333 90710 91142
BBXX 62170 29064 99514 10020 46/97 /2733 10071 20023 40230 52005 22200 00105 10602 70010 333 90710 91144
BBXX 62105 29064 99554 70121 46/// /28// 10100 20069 40158 55017 22200 00106 10915 70075 333 90710 91149
BBXX 63110 29064 99595 10015 47597 /3042 10047 20037 49905 52034 700// 22200 10916 70081
BBXX 63056 29064 99597 10016 47496 /2946 10045 20012 49876 52034 700// 22200 11017 70084
BBXX 62131 29064 99539 10012 46/// /26// 10072 20026 40137 58003 22200
BBXX 62149 29064 99537 10011 47998 /2631 10074 20024 40149 58005 751// 22200 10606 70032
BBXX 62111 29064 99580 70003 46/// /3231 10055 21018 40027 52011 22200 10811 70053
BBXX PJAI 29064 99581 70014 47698 /2929 10067 21029 40021 51014 700// 22200
BBXX 62112 29064 99584 70002 47697 /3026 10051 21032 49991 52021 700// 22200
BBXX 63055 29064 99606 10016 47693 /2938 10047 20026 49863 52050 730// 22200 11016 70079
BBXX 63108 29064 99608 10017 47296 /3240 10045 20014 49847 52051 762// 22200 11014 70072
BBXX 63106 29064 99610 10017 46/// /3143 10050 49828 52045 22200
BBXX 63105 29064 99610 10017 47496 ///// 10062 20025 49829 52051 751// 22200
BBXX 63113 29064 99610 10017 46/// /3147 10044 20041 49856 52051 22200 11016 70080
BBXX 63112 29064 99611 10010 47/97 /3240 10048 20009 49848 52055 751// 22200 11016 70080
BBXX 63107 29064 99611 10017 46/// /3150 10054 49829 52044 22200
BBXX 63101 29064 99612 10009 46/// /3441 10053 20015 49859 52054 22200
BBXX 63103 29064 99612 10011 46/// /3244 10054 20011 49858 52056 22200 10915 70074
BBXX 63104 29064 99612 10016 47496 /3142 10057 20031 49830 53041 704// 22200
BBXX 63117 29064 99613 10011 47497 /3241 10052 20017 49850 52055 762// 22200
BBXX 63115 29064 99616 10013 47496 /3039 10047 20029 49863 52062 762// 22200 10915 70074
BBXX MWYG6 29064 99603 70040 47998 /2927 10033 700// 22200
BBXX 62148 29064 99536 10015 46/// /2418 10067 20022 40158 58009 22200
BBXX 64041 29064 99607 70026 47698 /3032 10026 21059 49962 51008 700// 22200 11013 70063
BBXX 62150 29064 99536 10007 47998 /2622 10070 20015 40167 57008 700// 22200 10605 70026
BBXX 62121 29064 99535 10027 46/// ///// 22200
BBXX 62144 29064 99534 10017 47797 /2528 10064 20018 40172 58012 700// 22200 10606 70032
BBXX 62145 29064 99531 10028 47597 /2630 10068 20014 40175 50003 700// 22200 10709 70046
BBXX 62142 29064 99530 10021 47997 /2628 10068 20016 40168 53002 700// 22200 10606 70029
BBXX 62155 29064 99577 10007 47797 /2936 10060 21017 40012 51019 762// 22200 10812 70061
BBXX 62116 29064 99576 10011 47697 /3030 10061 21018 49996 53020 700// 22200 10914 70070
BBXX 62104 29064 99574 10013 47697 /3035 10064 21005 40002 51021 762// 22200
BBXX 62153 29064 99573 10020 47697 /3025 10057 21005 49999 53020 700// 22200 11015 70077
BBXX 62122 29064 99573 10016 47697 /2939 10058 21009 49990 50008 700// 22200 10915 70073
BBXX 62140 29064 99573 10013 46/// /30// 10061 20011 49999 51022 22200
BBXX 62146 29064 99572 10021 47/98 /2911 10060 21038 40022 52017 700// 22200 11015 70073
BBXX 62164 29064 99572 10008 47697 /2835 10075 20004 40027 51012 700// 22200 00092 10813 70064
BBXX PJGO 29064 99571 10022 47/97 /2934 10062 20013 40016 52013 700// 22200
BBXX 62133 29064 99571 10009 46/// /2934 10062 21031 40022 53013 22200
BBXX 62119 29064 99570 10019 47696 /3035 10054 20007 40029 53013 700// 22200 10915 70073
BBXX 62152 29064 99570 10018 47/97 /2927 10057 20012 40032 52015 700// 22200 10814 70068
BBXX 62154 29064 99564 10022 46/// /2931 10061 21001 40031 52014 22200
BBXX 62120 29064 99564 10021 47597 /2936 10059 40036 52014 700// 22200
BBXX 62132 29064 99564 10020 46/// /3134 10065 21003 40069 50008 22200
BBXX 62123 29064 99563 10022 47697 /2838 10065 20013 40024 52016 700// 22200
BBXX 62165 29064 99540 10009 47997 /2719 10071 20019 40138 58012 700// 22200 10608 70039
BBXX 62127 29064 99540 10007 47998 ///// 10068 20019 40136 58001 700// 22200 10606 70031
BBXX 63057 29064 99592 10015 47997 /3047 10054 21007 49916 52029 700// 22200 10916 70078
BBXX 62128 29064 99587 10014 47697 /2942 10049 21005 49973 52021 700// 22200 10916 70079
BBXX 62129 29064 99584 10003 46/// ///// 10050 21031 49985 52021 22200
BBXX 62113 29064 99584 10002 47697 /3036 10057 21023 49979 52016 700// 22200
BBXX ZQSD5 29064 99583 10007 46/// /3040 10053 21041 49980 52024 22200 11015 70076
BBXX 62114 29064 99583 10000 46/// /2938 10051 21043 49983 52025 22200
BBXX 62118 29064 99577 10009 47697 /3034 10056 21030 40009 52019 700// 22200 10913 70065
BBXX 62143 29064 99577 10018 47697 /3132 10058 21038 40015 52017 700// 22200 10814 70071
BBXX 62117 29064 99579 10000 47997 /3035 10053 20005 40009 52018 700// 22200 10810 70049
BBXX 62134 29064 99580 10014 47596 /3037 10054 20002 49982 51026 762// 22200 10914 70068
BBXX 62102 29064 99579 10018 46/// /3043 10057 20011 49968 52013 22200 10914 70068
BBXX UASP 29061 99693 10344 41/97 92706 11021 49936 57020 70077 8//// 222// 20302
BBXX A8CC4 29064 99505 70290 41296 81924 10120 20102 40270 54000 76066 8677/ 22224 04110 20303 318// 40905 80110
BBXX ZCBF3 29063 99438 70337 41997 81835 10160 20151 40261 52007 70222 88010 22224 20904 314// 41106 5//// 80155
BBXX 63119 29064 99583 10009 41/97 83245 10050 21031 49966 52/// 702// 8//// 22200 2//// 333// 40914 5////
BBXX 63110 29063 99595 10015 41/96 /3052 10048 49902 762// 8//// 22200 10417 70083
BBXX DDSB2 29063 99535 10053 41598 72740 10075 20051 40138 57012 7//22 874// 22224 29910
BBXX 2AUO5 29063 99606 10016 41296 83149 10100 49864 52052 76566 887// 22271 21014 331// 41220
BBXX 62103 29064 99499 70029 46/98 /2827 10098 20036 40302 58007 22200 00117 10805 70026 333 90710 91137
BBXX 62303 29064 99516 70051 46/// /2629 10101 20056 40260 58026 22200 00112 10607 70035 333 90710 91141
BBXX 62094 29064 99517 70067 46/// /2628 10098 20056 40270 57028 22200 00106 10607 70037 333 90710 91138
BBXX 62107 29064 99501 70061 46/// /3037 10098 20039 40313 58024 22200 00112 10907 70033 333 90710 91145
BBXX 62095 29064 99530 70159 46/// /2624 10107 20081 40276 58014 22200 00111 10912 70060 333 90710 91133
BBXX 62103 29064 99499 70029 46/98 /2928 10097 20033 40300 57015 22200 00116 10805 70027 333 90710 91135
BBXX 62027 29064 99491 70022 46/// /3022 1//// 2//// 40318 58009 22200 00107 11305 327// 70025
BBXX 62094 29064 99517 70067 46/// /2629 1//// 2//// 4//// 5//// 22200 00105 10607 70037 333 90710 91138
BBXX 64049 29063 99571 10022 41/97 83045 10064 20057 49962 54000 70211 8//// 22200 04090 20612 330// 40614 5//// 80061
AAXX 29064 40582 32960 03510 10104 20008 40253 51017 333 55310 00303 10000 20908 30308 41010 51301 61216 55407 40600 90401 91013 91113 91209 91307
AAXX 29064 41150 NIL
AAXX 29064 41168 NIL
AAXX 29064 41170 NIL
AAXX 29064 41176 NIL
AAXX 29064 41184 42660 21607 10214 20119 40214 82500 333 20126 58021 82640
AAXX 29064 41194 12660 31807 10196 20112 30217 40222 60001 83500 333 20162 58020 83645
AAXX 29064 41196 42660 11906 10199 20107 30184 40224 81500 333 20125 30011 58020 81640
AAXX 29064 41198 32583 13115 10220 20102 30182 40211 81500 333 20178 58022 81625
AAXX 29064 41210 NIL
AAXX 29064 41216 NIL
AAXX 29064 41217 42660 42906 10205 20099 30193 40222 84500 333 20183 30016 58020 84640
AAXX 29064 41218 42960 03103 10175 20095 39915 40227 333 20125 30011 58013
AAXX 29064 41226 NIL
AAXX 29064 41244 36/// /3403 10173 20090 39873 48531 333 0E013 20101 58013
AAXX 29064 41246 NIL
AAXX 29064 41254 36/// /3208 10141 21083 38198 48203 333 0E004 20061 58026
AAXX 29064 41256 32560 52608 10224 20145 30204 40214 83430 333 20194 58020 83830 83360
AAXX 29064 41258 NIL
AAXX 29064 41268 32560 43506 10248 20157 30189 40205 84500 333 20193 3/021 58020 84625
AAXX 29064 41312 36/// /0903 10262 20080 30159 40199 333 0E/// 20219 58008
AAXX 29064 41314 32960 02807 10177 20008 39730 40245 333 20115 58014
AAXX 29064 41316 32960 03411 10259 20026 30174 40200 333 20206 58008
AAXX 29064 41404 42970 09901 10135 21135 37917 48577 333 20012 30104 58006
AAXX 29064 41407 NIL
AAXX 29064 41431 41558 41711 10270 20226 30166 40179 70544 84400 333 20244 30/// 58010 84630
AAXX 29064 41466 NIL
AAXX 29064 41477 42560 71708 10254 20191 83450 333 20238 30/// 83630 84356
AAXX 29064 41480 42460 50911 10267 20179 30198 40201 85800 333 20236 30/// 58013 83818 85630
AAXX 29061 29998 22002 11206 21246 38684 48530 58016 82030
AAXX 29061 30385 42999 70000 11285 21310 39744 40339 57013 80002
AAXX 29061 30469 42999 80000 11310 21348 39542 40397 58027 80002
AAXX 29061 30636 NIL
AAXX 29061 30650 42999 80000 11282 21313 39147 40389 57019 82041
AAXX 29061 30664 42999 70000 11246 21286 39279 40362 57017 83041
AAXX 29061 30781 42999 60000 11228 21276 39841 40356 57036 83042
AAXX 29061 30777 42998 52701 11273 21312 39664 40392 57023 82042
AAXX 29061 30844 42999 30701 11244 21269 39340 40415 58008 80001
AAXX 29061 30925 41897 21801 11178 21212 39346 40388 58007 70411 82031
AAXX 29061 31371 42999 50000 11263 21309 30037 40331 57025 80001
AAXX 29061 31388 42999 20000 11230 21270 30038 40326 57011 80001
AAXX 29061 31478 NIL
AAXX 29061 31532 42999 80000 11226 21258 39946 40322 57014 80001
AAXX 29061 31594 42999 03003 11220 21261 30144 40331 57007
AAXX 29061 31655 41596 80000 11156 21175 30207 40257 53005 77172 8802/
AAXX 29061 31754 42999 50000 11154 21196 39731 40261 53008 82041
AAXX 29063 68452 NIL
AAXX 29063 68454 12589 40000 10165 20128 38403 48/// 54000 69904 84200 333 20125 555 10241 20000
AAXX 29063 68456 NIL
BBXX 42363 29061 99282 70892 46/// /1503 10189 20106 40203 90630 333 91203
BBXX 42364 29061 99291 70881 46/// /1002 10167 20100 40203 90615
BBXX 41115 29061 99184 70673 46/// ///// 1//// 90605 22200 11304 21002 301// 41303 70019
BBXX 41114 29061 99276 70802 46/// ///// 1//// 90616 22200 00237 10802 20802 70008
BBXX 46088 29061 99483 71232 46/// /2514 10095 40037 90620 22200 00078 10502 20502 70012 333 91218 555 11154 22167 30615 42518 60619 252140 247128 244109 236089 241088 250084
BBXX 51205 29061 99210 71564 46/// ///// 1//// 90618 22200 00234 11105 21004 308// 41103 70026
BBXX 46114 29061 99364 71222 46/// ///// 1//// 90604 22200 00123 11305 21003 329// 41304 70027
BBXX 41029 29061 99328 70796 46/// /3204 1//// 90600 555 11041 22042
BBXX 44098 29061 99428 70702 46/// ///// 1//// 90607 22200 00084 10605 20604 313// 41202 70024
AAXX 29061 22438 32570 82206 11033 21047 39943 49965 57017 884// 333 21037
AAXX 29061 38388 32998 32706 10070 20021 30199 40271 53023 83030 333 20040
AAXX 29061 38392 21698 72208 10056 20016 30142 40246 52013 70262 86570 333 69980 20034
AAXX 29061 38507 32998 23203 10068 20032 30208 40312 53038 80001 333 20041
AAXX 29061 38511 32998 22502 10054 20035 30137 40281 52031 82030 333 20036
AAXX 29061 38545 32598 81702 10035 21039 30089 40268 58003 885// 333 20019
AAXX 29061 38647 32598 12304 10074 20046 30245 40288 52022 81500 333 21012
AAXX 29061 38656 32998 02302 10029 21004 30173 40285 52019 333 21008
AAXX 29061 38687 32797 41807 10052 20017 30049 40288 53004 84500 333 20004
AAXX 29061 38750 32997 03401 10054 20035 30350 40321 53038 333 20021
AAXX 29061 38763 32998 02202 10068 20016 30191 40298 52032 333 20011
AAXX 29061 38774 32998 03202 10050 20019 30129 40328 52045 333 21004
AAXX 29061 38799 32997 01406 10042 20008 30048 40284 53005 333 21007
AAXX 29061 38806 32697 31605 10054 20037 30025 40290 52002 83500 333 20002
AAXX 29061 38880 32997 03008 10067 20009 30034 40293 52028 333 21017
AAXX 29061 38886 32997 02901 10053 21008 30044 40275 53019 333 21024
AAXX 29061 38895 32996 01704 10060 20003 39979 40273 53006 333 21003
AAXX 29061 38911 32998 41410 10074 21022 39996 40294 53012 84030 333 20015
AAXX 29061 38915 32999 31206 10103 21014 39965 40288 53002 80008 333 20018
AAXX 29061 38974 32998 00000 10084 21017 39927 40263 53018 333 20023
AAXX 29061 38987 32996 02501 10025 21050 39537 40301 52007 333 21033
AAXX 29061 28586 11596 81708 11020 21035 39787 49933 57022 60020 73873 885// 333 21043 88621 91013 91114
AAXX 29061 22165 11498 22608 11004 21035 39816 49877 52014 60020 72681 82900 333 21004 91113
AAXX 29061 28465 11595 82703 11006 21006 39757 49832 57001 60020 77373 8802/ 333 21006 91112
AAXX 29061 28696 11/07 91608 11033 21040 39879 40018 57024 60020 73983 333 21060 91012 91113 92992
AAXX 29061 28588 11947 81709 11017 21041 39765 49921 57014 60020 77173 8802/ 333 21038 91015 91118
AAXX 29061 23929 11450 83201 11041 21043 39744 49809 52007 78582 889// 333 21065
AAXX 29061 28688 11595 71708 11016 21036 39779 49936 57013 60020 73833 85570 333 21040 91013 91119 92990
AAXX 29061 28383 11459 81406 11022 21040 39833 49916 57017 60010 77173 333 21059 85716 91112
BBXX 51203 29061 99208 71570 46/// ///// 1//// 90613 22200 00245 11801 20701 330// 41801 70007
BBXX 52200 29061 99134 11448 46/// ///// 1//// 90615 22200 00287 11005 21005 310// 41101 70024
BBXX 51201 29061 99217 71581 46/// ///// 1//// 90612 22200 00241 11804 21003 332// 41803 70022
AAXX 29064 04203 46/// /3212 11198 21240 30103 40121 52032
AAXX 29064 04205 45/84 /1103 11215 21304 30087 40110 52034 333 11213 21275
AAXX 29064 04208 46/// /2505 11145 21165 30075 40122 52029
AAXX 29064 04213 46/// /1420 11110 21164 30014 40128 52028 333 11079 21110 91133
AAXX 29064 04214 46/// /1424 11089 21160 30082 40115 52029
AAXX 29064 04224 45983 31108 11121 21199 30092 40126 54000 333 11103 21132 83/61
AAXX 29064 04228 NIL
AAXX 29064 04242 46/// /2612 11108 21158 30133 40150 52012
AAXX 29064 04253 46/// /1111 11072 21117 30124 40151 57012
AAXX 29064 04266 46/// /1017 11077 21120 30118 40157 57012
AAXX 29064 04285 46/// /3105 11047 21137 30139 40158 57012
AAXX 29064 04301 NIL
AAXX 29064 04313 46/// /0514 11235 21271 30075 40087 52010
AAXX 29064 04330 46/// /1803 11297 21340 30054 40072 52010
AAXX 29064 04351 46/// /0651 11035 21040 39874 49890 57001 333 91066
AAXX 29064 04373 46/// /3258 11099 21153 39912 40006 52001
AAXX 29064 04382 46/// /2717 11045 21190 30062 40111 52009
AAXX 29064 04416 NIL
AAXX 29061 28791 11593 81812 11019 21030 39825 49968 57017 60010 73973 8802/ 333 21051 88523 91017 91120 92990
AAXX 29064 04048 41456 83033 10011 21015 49952 52016 78577 888// 555 3/533
BBXX DDYL2 29063 99202 10389 41998 00206 10270 20198 40165 52018 70000 80000 22274 00280 20201 33430 40504 50403 80220
AAXX 29061 60373 16/// /2302 10092 20091 60174 333 20092
AAXX 29061 60623 36/// /0000 10070 21091 333 20063
AAXX 29061 60393 16/'/ /1501 10105 20102 60244 333 20100
BBXX SHIP 29064 99235 11336 41597 70814 10240 20196 40175 56008 70222 8781/ 22283 04260 20703 309// 40605 80210
BBXX A8EY7 29063 99415 11608 41597 72716 10050 21032 40150 53010 70322 874// 22224 04097 20605 332// 41005 5//// 80018
BBXX SHIP 29064 99151 11152 41498 40220 10270 20243 40132 57008 70222 8432 22252 00265 20403 303// 40503 80250
BBXX SHIP 29064 99207 11485 41798 50321 10240 20180 40139 57005 70122 82132 22282 00292 20302 303// 40405 80200
BBXX SHIP 29064 99357 11681 41597 52725 10120 20102 40156 56004 70302 8535/ 90550 22224 00160 20300 329// 40507 5//// 80110
BBXX DGHX 29063 99222 11163 41697 80525 10170 20142 40195 56017 70222 8577/ 22264 00210 20604 305// 41005 80153
BBXX DGXS 29064 99520 11726 41298 82422 10000 21026 40133 52028 70122 887// 22224 00050 20602 399// 40806 5//// 82010
BBXX H9UY 29064 99295 11554 41698 60610 00/// 10190 40186 53010 70322 86273 9//// 22263 04230 20301 331// 40706 5//// 6//// 80150
BBXX 7JJA 29064 99321 11357 41797 80105 00 10160 20088 40195 57030 70222 885// 9//// 22200 00210 20000 3 4 5 6//// 80120 ICE /////
BBXX MZUU6 29063 99354 11294 41497 53414 10082 20021 40243 56/// 7//22 8/7// 2229/ 20602 304// 40703 5//// 80054
BBXX SHIP 29064 99101 71451 41/97 60622 10246 20207 40129 52009 70222 8//// 22233 04239
BBXX 3FMH7 29064 99324 71789 41598 61714 00/// 10190 20159 40183 50001 70322 8685/ 9//// 22262 00190 1//// 20502 331// 41308 5//// 6//// 80170
BBXX ZCAO7 29064 99017 31267 41598 63311 10295 20242 40074 58010 70211 85269 22243 00301 20301 336// 42002 80258
BBXX SHIP 29064 99412 31100 41597 83328 10151 20124 40004 57041 70322 8662/ 22243 00137 11405 20201 32733 42006 51305 85135
AAXX 29061 14236 11440 82801 11001 21019 30045 40250 55/// 60002 710// 886// 333 21002 3101
AAXX 29061 14216 12675 83301 10078 20042 30073 40226 56009 60002 885// 333 20049 30102 70000 923// 924/8
AAXX 29061 14219 11558 21001 10026 20003 39199 48501 55/// 60002 71000 82100 333 21026 3/103 43004
AAXX 29061 14232 12470 80902 11005 21013 30106 40247 56011 60002 886// 333 21005 31101
AAXX 29061 14234 12560 80601 11001 21009 30000 40256 54000 60002 886// 333 21001 31000 79999
AAXX 29061 14236 11440 82801 11001 21019 30045 40250 55/// 60002 710// 886// 333 21002 31014
AAXX 29061 14244 11430 80000 11022 21025 30122 40258 56006 60002 7102/ 886// 333 21031 34103
AAXX 29061 14248 11930 81801 11018 21021 30076 40258 57/// 60002 7102/ 8802/ 333 21026 31103
AAXX 29061 14253 11/01 91601 11026 21029 30075 40258 56004 60002 74544 333 21029 34104
AAXX 29061 14256 11/00 92401 11034 21038 39921 40256 56004 60002 745// 333 21040 34/// 42002
AAXX 29061 14280 11908 72701 10000 21005 30133 40247 56007 60002 74442 87070 333 20000 32101
AAXX 29061 14308 12662 82701 11009 21018 39872 40239 54009 60002 886// 333 21028 34107 92611
AAXX 29061 14321 12680 80701 10089 20041 30206 40230 57/// 60002 885// 222// 00117 333 20071 30002 92312 92428
AAXX 29061 14370 11510 80000 11016 21021 30133 40247 56006 60002 71022 886// 333 21020 3/102 47001 70006
AAXX 29061 14382 11/05 92501 11006 21009 30122 40247 57017 60002 743// 333 21022 34101
AAXX 29061 14428 12570 61202 10062 20022 30218 40225 56015 60002 84830 222// 00135 333 20054 31001 92312
AAXX 29061 14441 11583 60501 10100 20069 30195 40219 56011 69912 72161 86800 222// 00163 333 20073 31003 70001 92311
AAXX 29061 14452 11598 81402 10078 20070 30001 40229 56/// 60032 760// 8802/ 333 20078 92301
AAXX 29061 14454 12664 80301 10095 20036 30167 40228 56010 60002 8687/ 333 20084 31001 70000 92312
AAXX 29061 14462 12970 50701 10030 21005 30237 40244 57/// 60002 85070 333 20023 31102
BBXX ZCAO7 29064 99017 31267 41598 63311 10295 20242 40074 58010 70211 85269 22243 00301 20301 336// 42002 80258
BBXX SHIP 29064 99412 31100 41597 83328 10151 20124 40004 57041 70322 8662/ 22243 00137 11405 20201 32733 42006 51305 85135
AAXX 29061 40650 11956 03202 10036 21002 40260 52013 60002 70500
AAXX 29061 40604 12960 00000 10079 21008 40242 53002 60002
AAXX 29061 40608 11956 02702 10014 21009 40264 52013 60002 71000
AAXX 29061 40621 11960 00501 10033 20000 40284 52020 60002
AAXX 29061 40629 12960 00000 11005 21048 40284 52012 60002
AAXX 29061 40634 12960 00000 10024 21008 40256 54000 60002
AAXX 29061 40642 12960 00000 10016 21081 40375 53006 60002
AAXX 29061 40655 12960 02402 10048 20003 40215 53013 60002
AAXX 29061 40665 12960 03302 10064 20030 40266 52014 60002
AAXX 29061 40670 12960 00000 10062 21004 40276 53025 60002
AAXX 29061 40672 12960 00000 10068 20005 40276 53015 60002
AAXX 29061 40674 12960 03105 10051 21029 40266 52016 60002
AAXX 29061 40676 12960 02803 10068 21012 40264 52017 60002
AAXX 29061 40680 12960 03001 10060 21004 40252 52018 60002
AAXX 29061 40689 12960 02705 10070 20021 40258 52014 60002 40690 12960 03003 10079 20033 40251 52016 60002
AAXX 29061 78310 12501 30802 10198 20191 30179 40190 56001 60001 83800 333 10254 20198 30/// 56900 59008 81820 92022
AAXX 29061 78315 12564 30000 10161 20151 30115 40181 58003 60001 83200 333 10261 20161 30/// 56900 59006 70036 83820
AAXX 29061 78318 12565 11303 10189 20167 30175 40179 58005 60001 81800 333 10243 20188 31/// 56900 59004 70017 81820
AAXX 29061 78322 12956 20000 10173 20160 30172 40189 58006 60001 80002 333 10260 20170 30/// 56009 59001 70002
AAXX 29061 78324 12/00 20502 10224 20191 30168 40179 58001 60001 82200 333 10254 20191 30/// 56900 59003 828//
AAXX 29061 78325 11530 41201 10198 20169 30125 40184 58006 60001 70400 84200 333 10237 20198 30/// 56900 59002 70004 84820
AAXX 29061 78328 12/62 30701 10208 20160 30190 40/// 51001 60001 83800 333 10240 20205 30/// 56900 58010 70020 828//
AAXX 29061 78333 12910 00401 10185 20172 30172 40179 58007 60001 333 10271 20181 30/// 59004
AAXX 29061 78344 NIL
AAXX 29061 78345 11465 60303 10219 20207 30175 40178 58007 69971 70262 84802 333 10278 20171 30/// 56909 59008 70007 81816 83623
AAXX 29061 78348 11456 70000 10211 20197 30124 40176 58009 60001 70522 87800 333 10260 20191 31/// 56900 59008 70023 81819 87630
AAXX 29061 78349 11540 43201 10204 20195 30071 40180 58026 60011 70261 84200 333 10304 20164 31/// 56900 59004 70020 84820
AAXX 29061 78351 12550 10000 10204 20190 30164 40166 51006 60001 81500 333 10300 20171 30/// 56900 58004 81626
AAXX 29061 78353 12560 10000 10221 20171 30158 40180 58010 60001 81100 333 10283 20191 30/// 56900 59008 81820
AAXX 29061 78355 11550 10701 10204 20201 30040 40180 58005 60001 71000 81500 333 10290 20175 30/// 56900 59008 81820
AAXX 29061 78358 12530 10000 10211 20202 30154 40169 58007 60001 81100 333 10293 20177 30/// 56900 59011 81823
AAXX 29061 78360 12/60 10404 10225 20205 30156 40167 56012 60001 81100 333 10306 20217 30/// 56900 59017 818// 92024
AAXX 29061 78363 12956 00000 10187 20176 30043 40158 58007 60001 333 10304 20166 30/// 56/// 59007
AAXX 29061 78365 32550 30704 10255 20207 30159 40164 58023 83200 333 10276 20200 30/// 56700 57885 59013 83820 92023 555 10702
AAXX 29061 78369 NIL
AAXX 29061 21432 41996 82210 11171 21197 30059 40079 53003 77173 8805/
AAXX 29061 21824 41995 32212 11216 21227 30166 40175 57003 73831 82031 333 91119
AAXX 29061 21908 42999 11801 11298 21321 30069 40157 57004 80001
AAXX 29061 21921 41996 82206 11232 21264 30194 40242 53001 77173 8807/
AAXX 29061 21931 42998 22302 11262 21287 30174 40209 57002 82030
AAXX 29061 21946 41998 82304 11314 21342 30145 40233 53001 77872 8803/
AAXX 29061 21982 31998 63506 11228 21260 30137 40166 53004 70231 80001 333 11211 91114
AAXX 29061 25062 32998 62304 11363 21397 30229 40233 53001 86030 333 11311 91107
AAXX 29061 25123 41496 61403 11365 21394 30238 40275 52003 77070 86530
AAXX 29061 25138 41999 41202 11430 21455 30156 40299 53005 77670 80001 333 91103
AAXX 29061 25173 31494 23111 11294 21311 30189 40194 53005 73830 82500 333 11292 91118
AAXX 29061 25248 42998 20000 11493 21522 39788 40328 53006 82030 333 91100
AAXX 29061 25282 31933 63212 11294 21305 30132 40139 54000 73831 80001 333 11283 91118
AAXX 29061 25325 NIL
AAXX 29061 25356 32999 20000 11428 21468 30108 40223 53003 80001 333 11/// 91000
AAXX 29061 25399 11450 73408 11216 21241 30006 40016 53012 69900 78583 86901 333 1//// 91110
AAXX 29061 25428 41956 80000 11418 21449 39929 40318 53006 77872 84037 333 91100
AAXX 29061 25551 32998 32001 11456 21492 30187 40223 53003 80009 333 11/// 91101
AAXX 29061 25563 32984 03407 11316 21338 30100 40187 53002 333 11316 91109
AAXX 29061 25594 11596 63310 11210 21222 39998 40051 53009 69922 73873 85570 333 11190 91116
AAXX 29061 25677 31998 03005 11246 21286 30159 40165 53003 73630 333 11218 91108
AAXX 29061 31054 42999 00000 11414 21449 30022 40339 57018
AAXX 29061 31123 42999 81601 11363 21397 39990 40363 58028 82017
AAXX 29061 40650 11956 03202 10036 21002 40260 52013 60002 70500
AAXX 29061 40604 12960 00000 10079 21008 40242 53002 60002
AAXX 29061 40608 11956 02702 10014 21009 40264 52013 60002 71000
AAXX 29061 40621 11960 00501 10033 20000 40284 52020 60002
AAXX 29061 40629 12960 00000 11005 21048 40284 52012 60002
AAXX 29061 40634 12960 00000 10024 21008 40256 54000 60002
AAXX 29061 40642 12960 00000 10016 21081 40375 53006 60002
AAXX 29061 40655 12960 02402 10048 20003 40215 53013 60002
AAXX 29061 40665 12960 03302 10064 20030 40266 52014 60002
AAXX 29061 40670 12960 00000 10062 21004 40276 53025 60002
AAXX 29061 40672 12960 00000 10068 20005 40276 53015 60002
AAXX 29061 40674 12960 03105 10051 21029 40266 52016 60002
AAXX 29061 40676 12960 02803 10068 21012 40264 52017 60002
AAXX 29061 40680 12960 03001 10060 21004 40252 52018 60002
AAXX 29061 40689 12960 02705 10070 20021 40258 52014 60002 40690 12960 03003 10079 20033 40251 52016 60002
AAXX 29064 61600 32960 00606 10192 20042 30159 40164 333 20185 50814 55038 58003
AAXX 29064 61612 32958 20404 10170 21006 30170 40178 80002 333 01700 20170 50731 55052 58017 82073
AAXX 29064 61627 32958 50804 10210 20029 3//// 4//// 85030 333 00700 20295 31104 55069 5//// 85363
AAXX 29064 61630 32960 00806 10206 20034 30147 40166 333 01200 20202 50902 55080 58013
AAXX 29064 61641 32958 40414 10230 20165 30120 40153 84030 333 02000 20228 50574 55062 59006 84363
AAXX 29064 61666 32958 60404 10210 20136 30140 40148 80002 333 01400 20200 50584 55068 59007 86073
AAXX 29064 61679 32958 33612 10225 20150 30154 40162 80002 333 01500 20222 50894 55073 58005 83073
AAXX 29064 61687 32960 40408 10215 21008 30096 40153 80002 333 00900 20190 50981 55097 58011 84073
AAXX 29064 61695 32960 73604 10190 20144 30119 40145 80002 333 01300 20181 50334 55070 59001 87073
AAXX 29064 61697 32960 60406 10210 20175 30128 40143 83072 333 01700 20200 50444 55069 59002 83363 84073
AAXX 29064 61698 32958 50602 10196 20054 30136 40147 80002 333 00800 20156 50434 55062 58001 85073
AAXX 29064 61699 32958 41006 10180 20074 39936 40125 80002 333 01400 20170 50804 55079 58006 84073
BBXX DDYL2 29063 99202 10389 41998 00206 10270 20198 40165 52018 70000 80000 22274 00280 20201 33430 40504 50403 80220
AAXX 29061 08561 31015 23003 10032 20032 30083 40326 55005 74000 81600 333 20032 50214 55078 555 60007 90211 96640
AAXX 29064 60563 12660 50110 10022 20017 39356 48543 53005 60004 85200 333 05200 20012 85830
AAXX 29061 63330 31470 11505 10140 20088 37825 40303 7050/ 81100 333 20090 58002 81818
AAXX 29061 63331 32980 00305 10204 20030 38074 40259 333 20095 58009
AAXX 29061 63332 31980 01202 10158 20020 38227 40144 7052/ 333 20015 59005
AAXX 29061 63333 32580 20000 10164 20091 38201 40223 82100 333 20088 58000 82825
AAXX 29061 63334 32980 00808 10148 21100 37655 40158 333 20095 58004
AAXX 29061 63340 32980 02102 10145 20093 37965 40193 333 20100 59002
AAXX 29061 63402 31950 00000 10062 20051 38384 40140 7104/ 333 20000 59006
AAXX 29061 63403 32880 11703 10182 20029 81030 333 201498 81030 333 20148 81360
AAXX 29061 63450 NIL
AAXX 29061 63451 31575 30000 10150 20075 38175 40172 70500 83800 333 20020 59001 82624
AAXX 29061 63453 31575 52401 10214 2//// 39101 7052/ 85800 333 20145 58004 83624 82825
AAXX 29061 63460 32980 00201 10170 20103 333 20086
AAXX 29061 63471 32980 00901 10216 20106 38908 40185 333 20128 58014
AAXX 29061 63474 32980 00000 10140 20045 333 20025
AAXX 29061 63478 31980 10000 10254 20113 39837 40217 7050/ 80001 333 20180 58002 81070
AAXX 29061 63500 31970 00000 10210 20127 7050/ 20120
AAXX 29061 63533 31975 00705 10209 20044 7050/ 333 20145
AAXX 29061 15661 11565 82702 10064 20045 30026 40262 57012 60022 70166 885// 222// 20401 333 10065 20050 70020 555 31004 588// 60899 70643 92022 92427
BBXX A8BZ6 29064 99119 70902 41/98 /0511 10260 40140 52020 70200 8//// 22275 04240 20301 30000
AAXX 29064 60060 32956 00402 10138 20038 40274 5//// 333 20127 30008
BBXX A8IE6 29064 99135 11116 41498 60318 10300 20253 40145 56010 70211 8/218 22254 04254 20806 80265
AAXX 29060 67690 32680 70302 10295 20232 81138 333 20247 5//// 55/// 81820 87280 555 10334 7//22
AAXX 29060 67695 32680 33104 10292 20236 81230 333 20236 5//// 55/// 81835 83360 555 10339 7//00
AAXX 29064 87582 32960 00215 10230 20160 30141 40148 57019
AAXX 29064 93800 16/// /3102 10154 20126 40089 57004 60001
AAXX 29064 93805 16/// /2509 10131 20099 40100 52012 69981
AAXX 29064 93994 16/// /1008 10210 20173 40144 52006 60001
BBXX 46042 29061 99368 71224 46/// /3409 10118 40252 57007 90550 22200 00125 11305 20402 329// 41305 70026 333 91211 555 11099 22105 30534 43411 60549 337093 337094 339087 343082 345090 344084
BBXX 46207 29061 99509 71299 46/// /2814 10066 40042 52064 22200 00081 11312 70062 333 91218
BBXX SMGW 29061 99336 71266 43/98 63609 10139 40292 57005 22224 00159 2//// 4////
BBXX WAZV 29064 99587 71461 41497 82637 11010 21050 49850 52043 70222 887// 22233 00050 20709 327// 41007 5//// 61/// 81025 ICE /////
BBXX WCAJ 29064 99501 71375 41698 72825 10050 20028 40010 52020 78977 876// 22212 00070 20406 327// 40710 5//// 6//// 80040 ICE /////
BBXX 46147 29061 99518 71312 46/// /2714 10057 40020 52057 22200 00077 11213 70065 333 91218
AAXX 29064 62309 32560 40404 10156 20089 40214 52001 84800 333 20136
AAXX 29064 62325 32560 50000 10128 20107 40227 52004 85500 333 20120
AAXX 29064 62332 32560 30506 10160 20092 40221 57004 83100 333 20144
AAXX 29064 62387 31910 03503 10079 20079 40204 52007 71000 333 20070
AAXX 29064 62459 32960 40212 10116 20042 40193 52006 84070 333 20092
AAXX 29064 62452 32960 02006 10014 21022 40250 52002 333 21002
AAXX 29064 62458 32960 00000 10125 21002 40182 52003 333 20070
AAXX 29064 62420 31958 00000 10086 20067 40218 52006 71000 333 20082
AAXX 29064 62432 32960 70000 10116 20057 40196 52007 8702/ 333 20106
AAXX 29064 62435 32960 60403 10147 20057 40185 52001 86010 333 20130
AAXX 29064 62455 32960 03405 10108 20049 40204 52005 333 20094
AAXX 29064 62476 32960 00000 10184 20135 40172 52006 333 20156
BBXX 46147 29061 99518 71312 46/// /2714 10057 40020 52057 22200 00077 11213 70065 333 91218
AAXX 29064 62309 32560 40404 10156 20089 40214 52001 84800 333 20136
AAXX 29064 62325 32560 50000 10128 20107 40227 52004 85500 333 20120
AAXX 29064 62332 32560 30506 10160 20092 40221 57004 83100 333 20144
AAXX 29064 62387 31910 03503 10079 20079 40204 52007 71000 333 20070
AAXX 29064 62459 32960 40212 10116 20042 40193 52006 84070 333 20092
AAXX 29064 62452 32960 02006 10014 21022 40250 52002 333 21002
AAXX 29064 45011 47962 /1205 10197 20137 40193 57032 70010 333 59018
AAXX 29061 51156 32980 20702 11065 21143 38770 40351 57001 80002 333 00152 21144
AAXX 29061 25703 41996 00000 11465 21501 30017 40338 57002 77670
AAXX 29061 25745 42698 21001 11389 21417 30180 40240 53006 82500
AAXX 29061 25913 41598 70505 11151 21185 30033 40188 53001 78582 87900
AAXX 29061 25954 42998 20205 11202 21269 30054 40175 53006 80001
AAXX 29061 25956 41/94 90614 11178 21190 30139 40145 56002 78683 333 91015 91117 92982
AAXX 29061 31088 42999 63605 11228 21294 30200 40208 58004 82041
AAXX 29061 31873 41997 82903 11191 21227 30144 40289 56008 70272 83071
AAXX 29061 31909 41496 82906 11136 21197 30111 40194 55003 78581 889// 333 91112
AAXX 29061 31960 42998 03610 11140 21234 30020 40271 57011 333 91016 91116
AAXX 29061 31961 42998 80504 11136 21188 30239 40288 56008 85031
AAXX 29061 32053 41498 73501 11101 21121 30192 40243 55000 70282 85930 333 85911 91002 91103
AAXX 29061 32061 42598 81402 11028 21066 30181 40220 55001 889// 333 91004 91104
AAXX 29061 32098 41497 70102 11026 21045 30218 40228 54000 78582 85970 333 85916 91003 91104
AAXX 29061 32150 41596 80203 11011 21030 30148 40178 56017 78582 889// 333 91006 91106
AAXX 29061 32165 42698 71204 10017 21064 30126 40187 56003 87500 333 91005 91106
AAXX 29061 32215 42673 23504 11042 21101 30149 40179 53020 82500 333 91008 91108
AAXX 29061 32252 NIL
AAXX 29061 32389 41996 70000 11250 21268 30160 40201 53008 74042 83031
AAXX 29061 32477 42999 23402 11169 21211 30158 40192 53008 80001
AAXX 29061 32583 41699 73404 11053 21108 30141 40172 52011 70282 86501
AAXX 29061 32618 41598 60205 11052 21097 30141 40163 53007 70283 86500
AAXX 29064 41287 36/// /3210 10192 20106 30164 40233 333 0E015 20131 58020
AAXX 29061 51243 11865 72202 11139 21172 39783 40392 57008 69901 70070 83502 333 00201 21196
AAXX 29061 51288 32980 10401 11070 21178 38374 57007 80002 333 00200 21153
AAXX 29061 51463 32780 60902 11047 21121 39174 40337 57016 81502 333 00001 21120
AAXX 29061 51709 31959 02202 11042 21092 38794 40352 52001 70400 333 00202 21104
AAXX 29064 67341 12580 52217 10255 20177 40131 52008 60534 84231 333 5///0 55/// 94325 555 00526 10000
AAXX 29064 71343 16/// /1409 10034 21015 60001 333 10111 20014 70000 555 32646 40193
AAXX 29064 71189 46/// /2834 11127 21165 6///1 333 10018 21127 7//// 555 32846 40063
AAXX 29064 60421 11556 41804 11010 21016 39202 48531 53002 60004 700// 84200 333 05000 21020 84830 95900
AAXX 29061 08561 31015 23003 10032 20032 30083 40326 55005 74000 81600 333 20032 50214 55078 81701 555 60007 90211 96640
AAXX 29064 89002 42999 71306 11078 21095 39778 49831 52008 86031
BBXX DAJT 29064 99317 50018 41398 62308 10198 20178 40120 53010 70122 8/1// 22264 04190 2//01 80185
BBXX ELWO6 29063 99369 70305 41296 71005 10188 40345 54000 71011 876// 22254 29901
BBXX ELUC5 29063 99062 50877 41998 01420 10220 20220 40130 54000 70222 22214 299// 80220
BBXX A8RU5 29064 99144 10570 41/97 30422 10247 20193 40195 51024 70200 83100 22265 20603 80210
BBXX DGOQ 29064 99544 10121 41/97 /2338 10043 40060 54000 761// 22200 04056 323// 4//02
BBXX DFVY2 29064 99174 50379 41/98 60423 10270 20221 40109 57011 70311 22285 00260 80235
AAXX 29064 40153 12660 10912 10066 21010 39138 48526 52003 60002 81100 333 20059 70000
AAXX 29064 40179 12960 00901 10071 20055 30177 40216 52005 60002 333 20047 50321 55092 70000
AAXX 29064 40180 12960 00000 10078 20037 30168 40218 52004 60002 333 20053 70000
AAXX 29064 40190 16/// ///// 10058 20030 39879 40223 52004 60002 333 20041 70000
AAXX 29064 40199 13/// /0305 10128 20030 30182 40205 52004 60002 333 20105 55093 70000
AAXX 29064 71979 16/// ///// 11063 21077 38264 49887 56032 60001 333 10031 21157 70000
AAXX 29064 71460 16/// /0405 11160 21194 39921 40173 58004 60001 333 11126 21194 70000 555 33428 40092
AAXX 29064 71270 16/// /1406 11150 21171 39930 40162 58002 60001 333 11030 21152 70000 555 33435 40123
AAXX 29064 71276 16/// ///11 11088 21098 60001 333 11047 21117 70007
AAXX 29064 71785 17/// /2103 10095 20068 30019 40035 53038 60051 7//4/ 333 10116 20093 70086 555 31626 40071
AAXX 29064 71460 16/// /0405 11160 21194 39921 40173 58004 60001 333 11126 21194 70000 555 33428 40092
AAXX 29064 71189 46/// /2834 11127 21165 6///1 333 10018 21127 7//// 555 32846 40063
AAXX 29064 71343 16/// /1409 10034 21015 60001 333 10111 20014 70000 555 32646 40193
AAXX 29064 71785 17/// /2103 10095 20068 30019 40035 53038 60051 7//4/ 333 10116 20093 70086 555 31626 40071
AAXX 29064 71270 16/// /1406 11150 21171 39930 40162 58002 60001 333 11030 21152 70000 555 33435 40123
AAXX 29064 71276 16/// ///11 11088 21098 60001 333 11047 21117 70007
AAXX 29064 71979 16/// ///// 11063 21077 38264 49887 56032 60001 333 10031 21157 70000
BBXX 46183 29061 99536 71311 46/// /0305 10050 49972 52061 22200 00076 10504 70020 333 91211
AAXX 29061 56193 NIL
AAXX 29061 56196 31930 72501 10101 20034 40264 57030 71000 8703/ 333 00101 20056
AAXX 29061 56287 32970 71601 10109 20030 40260 57037 87040 333 00103 20052
AAXX 29061 56684 32980 00203 10104 20020 37898 57035 333 00051 20015
AAXX 29061 56751 32780 10902 10160 21035 38031 57032 81100 333 05100 20052
AAXX 29061 56786 32580 21805 10174 20001 38102 57033 82100 333 05102 20070
AAXX 29061 56977 32580 32002 10203 20140 40169 57035 83100 333 05205 20123
AAXX 29061 57259 32962 80903 10054 21027 40315 57021 8807/ 333 21008
AAXX 29061 57279 31940 72702 10079 20030 40311 57028 72844 8703/ 333 21012
AAXX 29061 57348 31856 81802 10099 20059 40272 57022 71000 885// 333 20082
AAXX 29061 57399 32960 83403 10087 20011 40293 57023 8807/ 333 20014
AAXX 29061 57554 31958 80000 10070 20009 40294 57020 71000 8807/ 333 20051
AAXX 29061 57793 11730 81801 10067 20055 40275 57021 60021 76060 885// 333 20066
AAXX 29061 58345 32961 80403 10101 20036 40296 57019 8807/ 333 20036
AAXX 29061 58506 32/62 80704 10014 21001 40280 57019 888// 333 20014
AAXX 29061 58813 11660 83402 10070 20064 40262 57016 60031 76060 885// 333 20067
AAXX 29061 58834 11758 80000 10129 20106 40245 57009 60011 76060 885// 333 20115
AAXX 29061 58926 11930 80000 10145 20118 40228 57021 60011 76066 8802/ 333 20124
AAXX 29061 58944 11563 80206 10125 20097 40235 57021 69911 76060 885// 333 20124
AAXX 29061 59096 11563 80401 10167 20081 40213 57032 69901 76060 885// 333 20120
AAXX 29061 59102 11660 80402 10118 20079 40225 57027 69971 76060 885// 333 20095
AAXX 29061 59278 32760 20402 10214 20076 40195 57034 81540 333 20153
AAXX 29061 59456 32980 01101 10253 20096 40175 57035 333 20156
AAXX 29061 59493 31556 10202 10228 20130 40186 57037 70500 81100 333 20146
AAXX 29061 59658 32965 01106 10205 20117 40186 57031 333 20142
AAXX 29061 59673 32965 01404 10196 20148 40189 57030 333 20146
AAXX 29061 59845 32575 21402 10250 20153 40172 57037 82100 333 20165
AAXX 29061 50434 32980 12902 11252 21305 39425 40451 57020 80002 333 21414
AAXX 29061 50527 32964 01104 11323 21357 39545 40470 57019 333 21381
AAXX 29061 50603 32980 70201 11281 21319 39651 40432 57028 80001 333 21337
AAXX 29061 50632 32980 03404 11181 21258 39413 40404 57016 333 21262
AAXX 29061 50727 32980 03601 11217 21287 39112 40462 57023 333 21378
AAXX 29061 50915 32980 00000 11168 21235 39310 40433 57023 333 21300
AAXX 29061 51716 32963 72502 11040 21088 38987 40353 57003 80002 333 00200 21112
AAXX 29061 51765 32980 12203 11061 21120 39313 40386 57002 80002 333 00201 21183
AAXX 29061 51777 32970 72902 11045 21119 39270 40389 52003 80002 333 00301 21145
AAXX 29061 51811 32962 00701 11030 21095 38858 40350 54000 333 00203 21103
AAXX 29061 51828 32963 70702 11024 21124 38698 40344 57008 80002 333 00302 21105
AAXX 29061 52267 32980 73201 11061 21205 39174 40352 57021 80002 333 00151 21185
AAXX 29061 52323 32980 43601 11010 21186 38250 57015 80002 333 00100 21193
AAXX 29061 52495 32970 01103 11016 21147 38727 40336 57027 333 00051 21195
AAXX 29061 53149 32980 02503 11026 21167 38835 40335 57024 333 00002 21164
AAXX 29061 53192 32980 03602 11124 21164 38966 40407 57021 333 21232
AAXX 29061 53231 32980 02503 11003 21224 38523 57017 333 00001 21155
AAXX 29061 53336 32980 01802 11044 21143 38775 40355 57022 333 00000 21170
AAXX 29061 53391 32980 02702 11038 21167 38557 40349 57020 333 00002 21174
AAXX 29061 53529 32980 01802 10013 21090 38671 40318 57024 333 00002 21133
AAXX 29061 53543 32980 02502 11007 21120 38589 40322 57020 333 21093
AAXX 29061 53723 32970 01602 10028 21071 38698 40302 57026 333 00002 21133
AAXX 29061 54012 32980 00902 11163 21223 39117 40445 57021 333 21321
AAXX 29061 54026 32980 01101 11098 21257 30031 40388 57023 333 21192
AAXX 29061 54027 32980 02001 11088 21267 39746 40391 57026 333 21234
AAXX 29061 54208 32980 00202 11093 21176 38826 40398 57022 333 21260
AAXX 29061 54776 32580 53412 11010 21062 30270 40330 57015 85400 333 21015 91117 91534
AAXX 29061 56004 32980 00000 11089 21289 35811 57022 333 00152 21263
AAXX 29061 56033 32980 02704 11058 21236 36013 57021 333 00201 21201
AAXX 29061 56046 11580 10404 11052 21095 36258 57028 69901 70070 81100 333 00254 21138
BBXX 46183 29061 99536 71311 46/// /0305 10050 49972 52061 22200 00076 10504 70020 333 91211
BBXX 41052 29061 99183 70648 46/// /0706 10261 40166 90550 333 91208
BBXX 41052 29061 99183 70648 46/// /0706 10258 40167 90540 333 91208
BBXX 44060 29061 99413 70721 46/// ///12 11006 40079 90615 22200 00092 333 91215 555 11129 22134
BBXX 44034 29061 99441 70681 46/28 /2815 11029 49947 51022 90604 22200 00079 11107 70033 333 91220 555 11192 22203
BBXX 44022 29061 99409 70737 46/// ///08 11004 21084 40111 90615 22200 00084 333 91212 555 11093 22093
BBXX 44029 29061 99425 70706 46/30 /2712 11010 40021 51020 90604 22200 00081 10503 70014 333 91215 555 11149 22157
BBXX 41052 29061 99183 70648 46/// /0908 10265 40165 57012 90600 22200 00269 333 91210
BBXX 41053 29061 99185 70661 46/// /1203 10254 40170 58009 90600 22200 00271 11204 70019 333 91204
BBXX A8BZ6 29064 99119 70902 41/98 /0511 10260 40140 52020 70200 8//// 22275 04240 20301 30000
AAXX 29061 60379 16/// /1902 10107 20107 60254 333 20101
AAXX 29061 60380 16/// /3501 10098 20098 60384 333 20097
AAXX 29061 60394 16/// /2101 10104 20104 60204 333 20099
AAXX 29061 60374 16/// /1302 10114 20113 60224 333 20110
AAXX 29061 60613 36/// /1205 10045 21037 333 20044
BBXX 41053 29061 99185 70661 46/// /1402 10252 40171 90550 333 91204
BBXX 41053 29061 99185 70661 46/// /1502 10252 40172 90540 333 91204
BBXX A8EH3 29063 99514 11662 41497 80431 11010 21010 40105 54000 70377 887// 22263 04040 20606 81010
BBXX A8EY7 29063 99415 11608 41597 72716 10050 21032 40150 53010 70322 874// 22224 04097 20605 332// 41005 5//// 80018
BBXX DGXS 29064 99520 11726 41298 82422 10000 21026 40133 52028 70122 887// 22224 00050 20602 399// 40806 5//// 82010
BBXX SHIP 29064 99357 11681 41597 52725 10120 20102 40156 56004 70302 8535/ 90550 22224 00160 20300 329// 40507 5//// 80110
BBXX 46131 29061 99499 71250 46/// /2403 1//// 40022 52049 22200 00077 10401 70003 333 91206
BBXX 46131 29061 99499 71250 46/// /2403 1//// 40022 52049 22200 00077 10401 70003 333 91206
BBXX ZCDL9 29063 99123 30104 41597 82219 10210 20178 40199 51010 75055 8/2// 22244 04230 20602 323// 40602 5//// 80190
AAXX 29064 41936 31935 00000 10270 20150 40156 70500 333 59001 70000
AAXX 29064 41978 31435 80000 10264 20190 30147 40154 70542 8432/ 333 56999 58000 70000 83618 81928 88459
AAXX 29064 41252 36/// /3312 10174 20089 39837 40127 333 0E014 20111 58014
AAXX 29061 38725 42999 70202 11019 21194 48560 52014 80001
AAXX 29061 23412 11597 81202 11100 21106 39787 49886 52014 69970 70272 887// 333 21112 85623
BBXX 46204 29061 99514 71288 46/// /2210 10072 40027 52062 22200 00082 11211 70056 333 91213
AAXX 29061 40608 11956 02702 10014 21009 40264 52013 60002 71000
AAXX 29061 40621 11960 00501 10033 20000 40284 52020 60002
AAXX 29061 40629 12960 00000 11005 21048 40284 52012 60002
AAXX 29061 40634 12960 00000 10024 21008 40256 54000 60002
AAXX 29061 40642 12960 00000 10016 21081 40375 53006 60002
AAXX 29061 40650 11956 03202 10036 21002 40260 52013 60002 70500
AAXX 29061 40604 12960 00000 10079 21008 40242 53002 60002
BBXX ZSAF 29064 99702 50025 41599 21524 11033 21073 49807 52005 70111 81540 22251 05014 20000 30000 40000 50000 ICE 0/160
BBXX C6FS9 29064 99346 31347 46/// /1522 10180 20156 30137 40174 57009 22233 04191 85165
BBXX 9HA2479 29064 99339 31512 46/// /1810 10210 20107 30128 40157 54000 22200 85149
BBXX VROB 29064 99273 31532 46/// /1415 10248 20159 30074 40099 57006 22200 04251 85190
BBXX VNAH 29064 99383 31416 46/// /1309 10166 20106 30174 40198 54000 22200 04195 85131
AAXX 29061 40655 12960 02402 10048 20003 40215 53013 60002
AAXX 29061 40670 12960 00000 10062 21004 40276 53025 60002
AAXX 29061 40672 12960 00000 10068 20005 40276 53015 60002
AAXX 29061 40674 12960 03105 10051 21029 40266 52016 60002
AAXX 29061 40676 12960 02803 10068 21012 40264 52017 60002
AAXX 29061 40689 12960 02705 10070 20021 40258 52014 60002
AAXX 29061 40690 12960 03003 10079 20033 40251 52016 60002
AAXX 29061 40665 12960 03302 10064 20030 40266 52014 60002
AAXX 29061 40680 12960 03001 10060 21004 40252 52018 60002
AAXX 29064 03896 16/// ///// 10082 60022 333 2063 55025
BBXX C6FS9 29064 99346 31347 46/// /1522 10180 20156 30137 40174 57009 22233 04191 85165
BBXX 9HA2479 29064 99339 31512 46/// /1810 10210 20107 30128 40157 54000 22200 85149
BBXX VROB 29064 99273 31532 46/// /1415 10248 20159 30074 40099 57006 22200 04251 85190
BBXX VNAH 29064 99383 31416 46/// /1309 10166 20106 30174 40198 54000 22200 04195 85131
AAXX 29064 91650 NIL
AAXX 29064 91652 NIL
AAXX 29064 91656 NIL
AAXX 29064 91659 11599 51208 10286 2024/ 40070 55000 60001 70110 82872 333 56999 81827
AAXX 29064 91660 NIL
AAXX 29064 91669 36/// /0905 10286 20266 40072 52008 90615
AAXX 29064 91670 36/// /1900 10298 20240 40068
AAXX 29064 91676 14/// /1105 10272 20236 30004 40064 50011 60001
AAXX 29064 91680 11699 42109 10305 20225 40063 53017 60001 70121 81130 333 5699/ 81830 83362
AAXX 29064 91682 NIL
AAXX 29064 91683 11599 60905 10290 20240 40066 53006 60001 70222 86800 333 569// 85824 83650
AAXX 29064 91691 14/// /1102 10282 20227 30078 40081 53014 60001
AAXX 29064 91693 NIL
AAXX 29064 91697 14/// /1403 10240 20223 30072 40077 55009 60041
AAXX 29064 91699 14/// /1005 10262 20215 30055 40087 50004 60001
AAXX 29061 30636 41997 80601 11256 21275 39703 40376 58007 77172 82037
AAXX 29061 21802 42999 01403 11316 21331 30112 40138 58002
AAXX 29061 24125 42998 30000 11347 21359 39874 40189 57002 80001
AAXX 29061 24136 42999 60000 11338 21368 30113 40226 54000 83035
AAXX 29061 24143 42699 81808 11295 21333 30217 40272 52005 8457/
AAXX 29061 24266 42999 22601 11410 21438 30096 40302 52003 81031
AAXX 29061 24329 41998 80000 11388 21417 39905 40251 52002 77171 8802/
AAXX 29061 24343 42999 21603 11335 21359 30158 40292 52001 80002
AAXX 29061 24382 41995 80000 11425 21448 30028 40324 53003 71022 82031
AAXX 29061 24639 42998 20000 11323 21346 30091 40263 52006 80001
AAXX 29061 24641 42999 20902 11361 21390 30114 40277 58002 80001
AAXX 29061 24652 41999 11203 11323 21352 30178 40318 58003 70230 80001
AAXX 29061 24656 42999 20701 11351 21387 30219 40336 57006 80001
AAXX 29061 24671 42999 63201 11470 21494 39786 40396 57012 80001
AAXX 29061 24688 41997 60000 11507 21535 39357 40474 53003 70422 80008
AAXX 29061 24724 41997 82405 11200 21226 39681 40246 52006 73683 8807/
AAXX 29061 24738 41999 50000 11248 21260 30058 40250 52003 70271 82031
AAXX 29061 24768 42998 30801 11408 21445 30058 40332 57006 80001
AAXX 29061 24923 41596 82303 11155 21182 39944 40266 52004 78582 889// 333 83925
AAXX 29061 24944 41996 80000 11246 21263 39954 40273 58001 77172 84031
AAXX 29061 24951 41999 01101 11368 21397 30106 40298 52005 70271
AAXX 29061 24661 42999 20000 11427 21455 30029 40344 57010 80001
AAXX 29061 24959 41994 80201 11387 21413 30163 40313 57005 72842 80005
AAXX 29061 24962 41996 20000 11451 21476 30110 40333 57006 71000 80001
AAXX 29061 24966 41996 20000 11424 21448 30067 40324 57010 71000 80001
AAXX 29061 24967 42999 00701 11415 21449 30070 40326 57013
AAXX 29061 25206 42999 02101 11395 21422 30242 40274 53007
AAXX 29061 25400 41996 00000 11390 21411 30214 40278 53004 71000
AAXX 29061 30054 41597 80000 11210 21243 30044 40305 57001 77172 85507
AAXX 29061 30089 41999 82701 11266 21290 30047 40295 53006 70272 86071
AAXX 29061 30393 41995 80000 11309 21332 39174 40342 57009 77372 8802/
AAXX 29061 30493 41998 80000 11296 21326 39179 40345 57012 77172 8802/
AAXX 29061 31004 41997 82501 11182 21208 39370 40255 53003 77172 82037
AAXX 29061 31137 42999 80000 11367 21397 39190 40396 57014 84071
AAXX 29061 28867 11996 82307 11025 21051 39635 49901 53035 60010 77173 8802/ 333 21037
AAXX 29061 28952 11599 62303 11037 21062 39726 49915 52033 60040 70272 86500 333 21010
AAXX 29061 35357 31596 82016 11015 21032 39620 40050 57006 73873 885// 333 21058 91016 91120
AAXX 29061 35394 11493 81909 11030 21046 39443 40119 57023 60010 73873 8872/ 333 21110 86712 91019 91119
AAXX 29061 35497 11/92 91609 11033 21050 39348 40147 57018 69920 73833 333 21107
AAXX 29061 35671 11395 82110 11009 21022 39670 40096 53006 69920 73873 886// 333 21047 91015 91116
AAXX 29061 35746 11598 72310 11007 21026 30051 40118 52026 60020 73683 85370 333 20001 91115
AAXX 29061 35796 11595 81907 11016 21021 39808 40246 57011 69920 77372 8802/ 333 21124
AAXX 29061 35849 12598 62307 10008 21028 30064 40150 52026 60030 86300 333 20006
AAXX 29061 35953 11599 72508 10010 21010 30026 40155 52020 60040 70276 87500 333 21003 91116
AAXX 29061 35969 11597 82006 10006 20003 30004 40177 53001 69980 77176 8802/ 333 21022
AAXX 29061 38062 11596 82005 10012 21008 30005 40167 53006 60040 76876 8872/ 333 21016
AAXX 29061 38069 11496 82307 10018 20007 30008 40199 57004 60010 76162 8802/ 333 21030
BBXX 46204 29061 99514 71288 46/// /2210 10072 40027 52062 22200 00082 11211 70056 333 91213
BBXX 44030 29061 99432 70704 46/// /2814 1//// 40003 51020 90604 22200 00078 10402 70011 333 91217 555 11172 22184
BBXX 44033 29061 99441 70690 46/30 /2807 11043 49966 51015 90604 22200 00067 333 91209 555 11086 22089
BBXX 44040 29061 99410 70736 46/// /3210 11002 21079 40114 90615 22200 10301 70006 333 91214 555 11118 22124
AAXX 29061 30157 41997 81502 11283 21328 30057 40375 58003 77072 85037
BBXX 46088 29061 99483 71232 46/// /2514 10095 40037 90620 22200 00078 10502 20502 70012 333 91218 555 11154 22167 30615 42518 60619 252140 247128 244109 236089 241088 250084
BBXX 46087 29061 99485 71247 46/// /2609 10099 20087 40064 90620 22200 00082 333 91212 555 11101 22111 30609 42713 60619 257093 259098 257095 249093 249091 254089
BBXX 41036 29061 99342 70770 46/// ///// 10118 21002 40182 90620 22200 00161
AAXX 29061 28867 11996 82307 11025 21051 39635 49901 53035 60010 77173 8802/ 333 21037
AAXX 29061 28952 11599 62303 11037 21062 39726 49915 52033 60040 70272 86500 333 21010
AAXX 29061 35357 31596 82016 11015 21032 39620 40050 57006 73873 885// 333 21058 91016 91120
AAXX 29061 35394 11493 81909 11030 21046 39443 40119 57023 60010 73873 8872/ 333 21110 86712 91019 91119
AAXX 29061 35497 11/92 91609 11033 21050 39348 40147 57018 69920 73833 333 21107
AAXX 29061 35671 11395 82110 11009 21022 39670 40096 53006 69920 73873 886// 333 21047 91015 91116
AAXX 29061 35746 11598 72310 11007 21026 30051 40118 52026 60020 73683 85370 333 20001 91115
AAXX 29061 35796 11595 81907 11016 21021 39808 40246 57011 69920 77372 8802/ 333 21124
AAXX 29061 35849 12598 62307 10008 21028 30064 40150 52026 60030 86300 333 20006
AAXX 29061 35953 11599 72508 10010 21010 30026 40155 52020 60040 70276 87500 333 21003 91116
AAXX 29061 35969 11597 82006 10006 20003 30004 40177 53001 69980 77176 8802/ 333 21022
AAXX 29061 38062 11596 82005 10012 21008 30005 40167 53006 60040 76876 8872/ 333 21016
AAXX 29061 38069 11496 82307 10018 20007 30008 40199 57004 60010 76162 8802/ 333 21030
BBXX C6VG7 29064 99189 70794 41698 40114 10290 2//// 40160 57010 7//// 8449/ 22264 00280 20301 3//// 4//// 5//// 6//// 8//// ICE /////
BBXX WZP8164 29064 99466 70847 43/// /1320 11094 2//// 40125 5//// 7//// 8//// 22273 0//// 2//02 3//// 4//// 5//// 6//// 8//// ICE /////
BBXX WKAE 29063 99321 70799 41998 03013 10126 20012 40180 58008 70200 80000 22255 00180 2//// 3//// 4//// 5//// 6//// 80073 ICE /////
BBXX ZCDL9 29063 99123 30104 41597 82219 10210 20178 40199 51010 75055 8/2// 22244 04230 20602 323// 40602 5//// 80190
BBXX A8RU5 29064 99144 10570 41/97 30422 10247 20193 40195 51024 70200 83100 22265 20603 80210
BBXX DAJT 29064 99317 50018 41398 62308 10198 20178 40120 53010 70122 8/1// 22264 04190 2//01 80185
BBXX DDYL2 29063 99202 10389 41998 00206 10270 20198 40165 52018 70000 80000 22274 00280 20201 33430 40504 50403 80220
BBXX 3EPD8 29064 99226 70189 41598 20733 10178 20147 40238 52010 7//00 8/4// 22214 04196 29907 80160
BBXX WDE8288 29064 99104 10695 41598 20113 10290 2019/ 40120 54011 7//10 82181 22275 0//// 20202 335// 40405 5//// 6//// 80220 ICE /////
BBXX WRYD 29064 99144 10531 43897 20715 10260 2019/ 40195 51025 7//// 81109 22215 00239 20603 3//// 406// 505// 6//// 80210 ICE /////
BBXX PHAL 29063 99035 70056 41398 81807 10269 20229 40120 57005 71392 887// 22262 20201 317// 40502 80240 90903
BBXX A8IE6 29064 99135 11116 41498 60318 10300 20253 40145 56010 70211 8/218 22254 04254 20806 80265
BBXX PHOB 29064 99062 10953 41/97 40516 10290 20270 40090 58026 70211 8/363 22273 00270 20403 327// 40202 5//// 80275
BBXX DGHX 29063 99222 11163 41697 80525 10170 20142 40195 56017 70222 8577/ 22264 00210 20604 305// 41005 80153
BBXX SHIP 29064 99151 11152 41498 40220 10270 20243 40132 57008 70222 8432 22252 00265 20403 303// 40503 80250
BBXX H9UY 29064 99295 11554 41698 60610 00/// 10190 40186 53010 70322 86273 9//// 22263 04230 20301 331// 40706 5//// 6//// 80150
BBXX MZUU6 29063 99354 11294 41497 53414 10082 20021 40243 56/// 7//22 8/7// 2229/ 20602 304// 40703 5//// 80054
BBXX SHIP 29064 99207 11485 41798 50321 10240 20180 40139 57005 70122 82132 22282 00292 20302 303// 40405 80200
BBXX 7JJA 29064 99321 11357 41797 80105 00 10160 20088 40195 57030 70222 885// 9//// 22200 00210 20000 3 4 5 6//// 80120 ICE /////
BBXX SHIP 29064 99235 11336 41597 70814 10240 20196 40175 56008 70222 8781/ 22283 04260 20703 309// 40605 80210
BBXX SHIP 29064 99357 11681 41597 52725 10120 20102 40156 56004 70302 8535/ 90550 22224 00160 20300 329// 40507 5//// 80110
BBXX DGXS 29064 99520 11726 41298 82422 10000 21026 40133 52028 70122 887// 22224 00050 20602 399// 40806 5//// 82010
BBXX A8EY7 29063 99415 11608 41597 72716 10050 21032 40150 53010 70322 874// 22224 04097 20605 332// 41005 5//// 80018
BBXX WHIA 29063 99152 11191 41398 20309 10300 2025/ 40118 57018 70200 82100 22283 0//// 20100 335// 40506 5//// 6//// 80265 ICE /////
BBXX A8JK4 29064 99153 11132 41497 40424 10280 20224 40130 57/// 70122 82263 22214 06280 20302 305// 40307 5//// 80240
BBXX 9V9243 29063 99059 10868 41597 21807 10274 40108 58011 70200 811/1 22223 00282 20201 330// 40502
BBXX UFLC 29060 99461 11438 41396 71109 11040 40212 57004 77222 8672/ 22212 06045 20402
BBXX DFVY2 29064 99174 50379 41/98 60423 10270 20221 40109 57011 70311 22285 00260 80235
BBXX ELUC5 29063 99062 50877 41998 01420 10220 20220 40130 54000 70222 22214 299// 80220
BBXX IDDUK02 29064 99520 50529 46/// ///// 40018 222//
AAXX 29061 60376 16/// /1902 10104 20104 60224 333 20101
BBXX 46241 29061 99330 71173 46/// ///// 1//// 90541 22200 00142 11302 21001 327// 41301 70009
BBXX 46244 29061 99409 71244 46/// ///// 1//// 90605 22200 00100 11406 21004 330// 41404 70031
BBXX 46249 29061 99338 71197 46/// ///// 1//// 90610 22200 00147 11302 20802 325// 41301 70011
BBXX 46248 29061 99461 71247 46/// ///// 1//// 90604 22200 00095 11109 21007 326// 41106 70047
BBXX 46207 29061 99509 71299 46/// /2814 10066 40042 52064 22200 00081 11312 70062 333 91218
BBXX 42362 29061 99278 70907 46/// /1405 10194 20117 40190 90615
BBXX C6KD9 29060 99205 70722 41597 20705 10260 20232 40170 58009 70100 82465 22214 02265 20802 307// 40803 5//// 80241
BBXX CFN4309 29064 99453 70739 41/98 82435 11013 2//// 41005 53020 70201 8//// 222// 00010 20402 3//// 4//// 5//// 6//// 8//// ICE /////
BBXX C6VG7 29064 99189 70794 41798 40114 10290 2//// 40150 57010 7//// 84189 22264 00270 20301 3//// 4//// 5//// 6//// 8//// ICE /////
BBXX 44032 29061 99437 70694 46/30 /2911 11020 49966 51017 90604 22200 00081 11105 70027 333 91214 555 11136 22142
BBXX 46111 29061 99481 71227 46/// /2708 10100 40050 51045 90600 22200 00052
BBXX 46204 29061 99514 71288 46/// /2210 10072 40027 52062 22200 00082 11211 70056 333 91213
BBXX 46131 29061 99499 71250 46/// /2403 1//// 40022 52049 22200 00077 10401 70003 333 91206
BBXX 41053 29061 99185 70661 46/// /1502 10252 40172 90540 333 91204
BBXX 41053 29061 99185 70661 46/// /1402 10252 40171 90550 333 91204
BBXX 44034 29061 99441 70681 46/28 /2815 11029 49947 51022 90604 22200 00079 11107 70033 333 91220 555 11192 22203
BBXX 41052 29061 99183 70648 46/// /0908 10265 40165 57012 90600 22200 00269 333 91210
BBXX 41053 29061 99185 70661 46/// /1203 10254 40170 58009 90600 22200 00271 11204 70019 333 91204
BBXX 44029 29061 99425 70706 46/30 /2712 11010 40021 51020 90604 22200 00081 10503 70014 333 91215 555 11149 22157
BBXX 44022 29061 99409 70737 46/// ///08 11004 21084 40111 90615 22200 00084 333 91212 555 11093 22093
BBXX 44060 29061 99413 70721 46/// ///12 11006 40079 90615 22200 00092 333 91215 555 11129 22134
BBXX 41052 29061 99183 70648 46/// /0706 10258 40167 90540 333 91208
BBXX 41052 29061 99183 70648 46/// /0706 10261 40166 90550 333 91208
BBXX 46183 29061 99536 71311 46/// /0305 10050 49972 52061 22200 00076 10504 70020 333 91211
BBXX WKAE 29063 99321 70799 41998 03013 10126 20012 40180 58008 70200 80000 22255 00180 2//// 3//// 4//// 5//// 6//// 80073 ICE /////
BBXX WDE9586 29063 99208 71079 43998 03410 10210 2018/ 40150 54000 7//// 80/// 22234 00240 2//// 3//// 4//// 5//// 6//// 80190 ICE /////
BBXX 46147 29061 99518 71312 46/// /2714 10057 40020 52057 22200 00077 11213 70065 333 91218
BBXX 3FMH7 29064 99324 71789 41598 61714 00/// 10190 20159 40183 50001 70322 8685/ 9//// 22262 00190 1//// 20502 331// 41308 5//// 6//// 80170
BBXX 51205 29061 99210 71564 46/// ///// 1//// 90618 22200 00234 11105 21004 308// 41103 70026
BBXX 46114 29061 99364 71222 46/// ///// 1//// 90604 22200 00123 11305 21003 329// 41304 70027
BBXX 46088 29061 99483 71232 46/// /2514 10095 40037 90620 22200 00078 10502 20502 70012 333 91218 555 11154 22167 30615 42518 60619 252140 247128 244109 236089 241088 250084
BBXX 42363 29061 99282 70892 46/// /1503 10189 20106 40203 90630 333 91203
BBXX 44098 29061 99428 70702 46/// ///// 1//// 90607 22200 00084 10605 20604 313// 41202 70024
BBXX 41029 29061 99328 70796 46/// /3204 1//// 90600 555 11041 22042
BBXX 41114 29061 99276 70802 46/// ///// 1//// 90616 22200 00237 10802 20802 70008
BBXX 42364 29061 99291 70881 46/// /1002 10167 20100 40203 90615
BBXX 41115 29061 99184 70673 46/// ///// 1//// 90605 22200 11304 21002 301// 41303 70019
BBXX 46221 29061 99339 71186 46/// ///// 1//// 90545 22200 00149 11302 21001 327// 41301 70009
BBXX 46242 29061 99332 71174 46/// ///// 1//// 90558 22200 00144 11301 20901 323// 41301 70007
BBXX PDHY 29063 99471 70355 41/92 /1805 10130 40208 57009 74444 8//// 22263 04120 20201 3//// 4//// 5////
BBXX 46218 29061 99345 71208 46/// ///// 1//// 90602 22200 00135 11305 20804 329// 41303 70026
BBXX 46222 29061 99336 71183 46/// ///// 1//// 90556 22200 00146 11302 21001 325// 41302 70010
BBXX 46231 29061 99327 71174 46/// ///// 1//// 90554 22200 00148 11302 21001 327// 41302 70010
BBXX 46223 29061 99335 71178 46/// ///// 1//// 90600 22200 00148 11302 20901 328// 41301 70008
BBXX 46217 29061 99342 71194 46/// ///// 1//// 90612 22200 00143 11303 20702 328// 41302 70014
BBXX 46212 29061 99408 71243 46/// ///// 1//// 90612 22200 00102 11307 21004 329// 41305 70033
BBXX 46237 29061 99378 71226 46/// ///// 1//// 90610 22200 00108 11304 21002 326// 41304 70021
BBXX 46240 29061 99366 71219 46/// ///// 1//// 90612 22200 00121 11302 21001 335// 41302 70012
BBXX 46216 29061 99343 71198 46/// ///// 1//// 90557 22200 00140 11302 21002 326// 41301 70012
BBXX SHIP 29064 99412 31100 41597 83328 10151 20124 40004 57041 70322 8662/ 22243 00137 11405 20201 32733 42006 51305 85135
BBXX ZCAO7 29064 99017 31267 41598 63311 10295 20242 40074 58010 70211 85269 22243 00301 20301 336// 42002 80258
BBXX WQZ9670 29064 99472 70872 43/97 /1925 11038 2//// 40071 5//// 7//// 8//// 22263 0//// 2//02 3//// 4//// 5//// 6//// 8//// ICE /////
BBXX A8BZ6 29064 99119 70902 41/98 /0511 10260 40140 52020 70200 8//// 22275 04240 20301 30000
BBXX SHIP 29064 99101 71451 41/97 60622 10246 20207 40129 52009 70222 8//// 22233 04239
BBXX PCBZ 29064 99102 70940 414// 20911 10264 20223 40136 50004 70211 821// 22223 00245 2//// 80235 90903
BBXX DHEE 29063 99153 70979 41/98 /3206 10285 20222 40135 51010 7//// 8//// 22274 00300 2//01 80240
BBXX DGOQ 29064 99544 10121 41/97 /2338 10043 40060 54000 761// 22200 04056 323// 4//02
BBXX ELWO6 29063 99369 70305 41296 71005 10188 40345 54000 71011 876// 22254 29901
BBXX WADN 29064 99355 70091 43/98 /0111 ///// 10160 2011/ 40315 57012 7//// 8//// 22223 0//// 2//// 3//// 4//// 5//// 6//// 80130 ICE//
BBXX 62027 29064 99491 70022 46/// /3022 1//// 2//// 40318 58009 22200 00107 11305 327// 70025
BBXX 62094 29064 99517 70067 46/// /2629 1//// 2//// 4//// 5//// 22200 00105 10607 70037 333 90710 91138
BBXX 62103 29064 99499 70029 46/98 /2928 10097 20033 40300 57015 22200 00116 10805 70027 333 90710 91135
BBXX 62107 29064 99501 70061 46/// /3037 10098 20039 40313 58024 22200 00112 10907 70033 333 90710 91145
BBXX 64049 29063 99571 10022 41/97 83045 10064 20057 49962 54000 70211 8//// 22200 04090 20612 330// 40614 5//// 80061
BBXX 62095 29064 99530 70159 46/// /2624 10107 20081 40276 58014 22200 00111 10912 70060 333 90710 91133
BBXX 62303 29064 99516 70051 46/// /2629 10101 20056 40260 58026 22200 00112 10607 70035 333 90710 91141
BBXX 62103 29064 99499 70029 46/98 /2827 10098 20036 40302 58007 22200 00117 10805 70026 333 90710 91137
BBXX 2AUO5 29063 99606 10016 41296 83149 10100 49864 52052 76566 887// 22271 21014 331// 41220
BBXX 62094 29064 99517 70067 46/// /2628 10098 20056 40270 57028 22200 00106 10607 70037 333 90710 91138
BBXX 63110 29063 99595 10015 41/96 /3052 10048 49902 762// 8//// 22200 10417 70083
BBXX DDSB2 29063 99535 10053 41598 72740 10075 20051 40138 57012 7//22 874// 22224 29910
BBXX 63119 29064 99583 10009 41/97 83245 10050 21031 49966 52/// 702// 8//// 22200 2//// 333// 40914 5////
BBXX A8CC4 29064 99505 70290 41296 81924 10120 20102 40270 54000 76066 8677/ 22224 04110 20303 318// 40905 80110
BBXX ZCBF3 29063 99438 70337 41997 81835 10160 20151 40261 52007 70222 88010 22224 20904 314// 41106 5//// 80155
BBXX 62134 29064 99580 10014 47596 /3037 10054 20002 49982 51026 762// 22200 10914 70068
BBXX UASP 29061 99693 10344 41/97 92706 11021 49936 57020 70077 8//// 222// 20302
BBXX 62102 29064 99579 10018 46/// /3043 10057 20011 49968 52013 22200 10914 70068
BBXX 62117 29064 99579 10000 47997 /3035 10053 20005 40009 52018 700// 22200 10810 70049
BBXX 62114 29064 99583 10000 46/// /2938 10051 21043 49983 52025 22200
BBXX 62152 29064 99570 10018 47/97 /2927 10057 20012 40032 52015 700// 22200 10814 70068
BBXX 62129 29064 99584 10003 46/// ///// 10050 21031 49985 52021 22200
BBXX 62143 29064 99577 10018 47697 /3132 10058 21038 40015 52017 700// 22200 10814 70071
BBXX 62118 29064 99577 10009 47697 /3034 10056 21030 40009 52019 700// 22200 10913 70065
BBXX ZQSD5 29064 99583 10007 46/// /3040 10053 21041 49980 52024 22200 11015 70076
BBXX 62113 29064 99584 10002 47697 /3036 10057 21023 49979 52016 700// 22200
BBXX 62128 29064 99587 10014 47697 /2942 10049 21005 49973 52021 700// 22200 10916 70079
BBXX 63057 29064 99592 10015 47997 /3047 10054 21007 49916 52029 700// 22200 10916 70078
BBXX 62127 29064 99540 10007 47998 ///// 10068 20019 40136 58001 700// 22200 10606 70031
BBXX 62132 29064 99564 10020 46/// /3134 10065 21003 40069 50008 22200
BBXX 62123 29064 99563 10022 47697 /2838 10065 20013 40024 52016 700// 22200
BBXX 62165 29064 99540 10009 47997 /2719 10071 20019 40138 58012 700// 22200 10608 70039
BBXX 62120 29064 99564 10021 47597 /2936 10059 40036 52014 700// 22200
BBXX 62154 29064 99564 10022 46/// /2931 10061 21001 40031 52014 22200
BBXX 62119 29064 99570 10019 47696 /3035 10054 20007 40029 53013 700// 22200 10915 70073
BBXX 62133 29064 99571 10009 46/// /2934 10062 21031 40022 53013 22200
BBXX 62164 29064 99572 10008 47697 /2835 10075 20004 40027 51012 700// 22200 00092 10813 70064
BBXX PJGO 29064 99571 10022 47/97 /2934 10062 20013 40016 52013 700// 22200
BBXX 62146 29064 99572 10021 47/98 /2911 10060 21038 40022 52017 700// 22200 11015 70073
BBXX 62122 29064 99573 10016 47697 /2939 10058 21009 49990 50008 700// 22200 10915 70073
BBXX 62153 29064 99573 10020 47697 /3025 10057 21005 49999 53020 700// 22200 11015 70077
BBXX 62140 29064 99573 10013 46/// /30// 10061 20011 49999 51022 22200
BBXX 62116 29064 99576 10011 47697 /3030 10061 21018 49996 53020 700// 22200 10914 70070
BBXX 62104 29064 99574 10013 47697 /3035 10064 21005 40002 51021 762// 22200
BBXX 62142 29064 99530 10021 47997 /2628 10068 20016 40168 53002 700// 22200 10606 70029
BBXX 62155 29064 99577 10007 47797 /2936 10060 21017 40012 51019 762// 22200 10812 70061
BBXX 62105 29064 99554 70121 46/// /2836 10100 20069 40158 55017 22200 00106 10915 70075 333 90710 91149
BBXX 64045 29064 99591 70117 46/// /2926 10053 20030 40014 56027 22200 00100 10709 70046 333 90710 91148
BBXX 62145 29064 99531 10028 47597 /2630 10068 20014 40175 50003 700// 22200 10709 70046
BBXX 62144 29064 99534 10017 47797 /2528 10064 20018 40172 58012 700// 22200 10606 70032
BBXX 62150 29064 99536 10007 47998 /2622 10070 20015 40167 57008 700// 22200 10605 70026
BBXX 62121 29064 99535 10027 46/// ///// 22200
BBXX 63115 29064 99616 10013 47496 /3039 10047 20029 49863 52062 762// 22200 10915 70074
BBXX 64041 29064 99607 70026 47698 /3032 10026 21059 49962 51008 700// 22200 11013 70063
BBXX 62148 29064 99536 10015 46/// /2418 10067 20022 40158 58009 22200
BBXX MWYG6 29064 99603 70040 47998 /2927 10033 700// 22200
BBXX 63117 29064 99613 10011 47497 /3241 10052 20017 49850 52055 762// 22200
BBXX 63104 29064 99612 10016 47496 /3142 10057 20031 49830 53041 704// 22200
BBXX 63103 29064 99612 10011 46/// /3244 10054 20011 49858 52056 22200 10915 70074
BBXX 63112 29064 99611 10010 47/97 /3240 10048 20009 49848 52055 751// 22200 11016 70080
BBXX 63113 29064 99610 10017 46/// /3147 10044 20041 49856 52051 22200 11016 70080
BBXX 63101 29064 99612 10009 46/// /3441 10053 20015 49859 52054 22200
BBXX 63107 29064 99611 10017 46/// /3150 10054 49829 52044 22200
BBXX 63105 29064 99610 10017 47496 ///// 10062 20025 49829 52051 751// 22200
BBXX 63108 29064 99608 10017 47296 /3240 10045 20014 49847 52051 762// 22200 11014 70072
BBXX 63106 29064 99610 10017 46/// /3143 10050 49828 52045 22200
BBXX 62112 29064 99584 70002 47697 /3026 10051 21032 49991 52021 700// 22200
BBXX 63055 29064 99606 10016 47693 /2938 10047 20026 49863 52050 730// 22200 11016 70079
BBXX 62131 29064 99539 10012 46/// /26// 10072 20026 40137 58003 22200
BBXX PJAI 29064 99581 70014 47698 /2929 10067 21029 40021 51014 700// 22200
BBXX 62149 29064 99537 10011 47998 /2631 10074 20024 40149 58005 751// 22200 10606 70032
BBXX 62111 29064 99580 70003 46/// /3231 10055 21018 40027 52011 22200 10811 70053
BBXX 63056 29064 99597 10016 47496 /2946 10045 20012 49876 52034 700// 22200 11017 70084
BBXX 63110 29064 99595 10015 47597 /3042 10047 20037 49905 52034 700// 22200 10916 70081
BBXX 62105 29064 99554 70121 46/// /28// 10100 20069 40158 55017 22200 00106 10915 70075 333 90710 91149
BBXX 62305 29064 99504 10000 46/98 /2832 10088 20022 40283 50000 22200 00113 10704 70022 333 90710 91142
BBXX 62170 29064 99514 10020 46/97 /2733 10071 20023 40230 52005 22200 00105 10602 70010 333 90710 91144
BBXX 62081 29064 99510 70134 46/// ///// 10108 20064 40336 57017 22200 00120 10811 70056
BBXX 64046 29064 99605 70049 46/// /3120 10040 21026 40002 58009 22200 00080 10811 70057
BBXX 62301 29064 99524 70047 46/// /2728 10089 20053 40228 58026 22200 00093 10707 70037 333 90710 91142
BBXX 62001 29064 99452 70050 46/// /3515 10110 20046 40392 55001 22200 00138 10909 70044
BBXX 62303 29064 99516 70051 46/// /2629 10101 20056 40260 58026 22200 00112 10607 70035 333 90710 91142
BBXX A8RL2 29063 99382 70259 41/97 /1807 10180 40370 54000 74044 8//// 22214 04190 2////
BBXX 62029 29064 99487 70125 46/// /2818 10104 20038 40388 58013 22200 00127 11012 70058 333 90710 91126
BBXX 62442 29064 99490 70164 46/// /2519 1//// 2//// 40394 58013 22200 00124 333 90710 91126
BBXX 62163 29064 99475 70084 46/// /2913 10100 20038 40388 56015 22200 00125 11110 70052
BBXX BAREU06 29064 99394 70001 46/// ///// 40286 22224
BBXX BATFR60 29064 99504 70009 46/// /2635 10090 20024 40282 53020 22263 00099
BBXX PCEO 29063 99358 70315 41698 22504 10200 20153 40324 54000 7//// 8/5// 22254 04192 20701 326// 41003 5//// 80170
BBXX 61002 29064 99421 10047 46/// ///34 10129 2//// 40252 57006 22200 00135 10706 70029 555 1/046
BBXX A8QJ7 29064 99477 70064 41/98 23008 10100 20056 40370 58015 7//00 82/// 22212 2//// 3//// 4//// 5//// 80080
BBXX DQVI 29063 99370 10040 41697 40212 10140 20123 40265 55010 72055 849// 22224 00177 20806 80130
BBXX BATUK01 29064 99560 70032 46/// /2606 10044 20005 40081 58020 22200 00064
BBXX BATFR52 29064 99488 70022 46/// /3118 10097 20039 40325 51019 22233 00109
BBXX BATEU09 29064 99412 10089 46/// /2111 10125 20085 40220 56016 22222 00162
BBXX BATFR14 29064 99494 10010 46/// /2505 10060 20029 40291 58001 22200 00072
BBXX BATFR02 29064 99508 70011 46/// /2527 10077 20025 40279 56009 22282 00102
BBXX BATFR42 29064 99507 70019 46/// /2617 10072 20024 40279 56024 22271 00122
BBXX BATEU05 29064 99578 10098 46/// /2641 10069 49850 51014 22261
BBXX BATFR20 29064 99414 10094 46/// ///// 10119 20072 40214 56019 22283
BBXX BATFR21 29064 99426 10089 46/// /1009 20345 40216 55009 22241
BBXX BATFR46 29064 99419 10034 46/// /3629 10130 20067 40263 58016 22282 00152
BBXX BATFR09 29064 99381 10059 44498 50017 10140 20067 40261 53009 70222 85200 22263 00169 20202 306// 40504 5//// 60//0 ICE 0/0//
BBXX BATFR31 29064 99433 10053 46/// /3607 10092 20084 40233 53011 22200 00129
BBXX BATFR33 29064 99422 10034 46/// /3545 10122 20074 40252 58021 22284 00149
BBXX BATFR24 29064 99433 10054 46/// /3413 10092 20032 40241 53014 22200 00119
BBXX BATFR13 29064 99396 70283 44696 31709 10149 20144 40356 56010 70200 8286/ 22254 00174
BBXX BATFR04 29064 99588 70072 46/// /2417 10059 20012 40022 22261 00105
BBXX BAREU11 29064 99536 10054 46/// ///// 40129 57021 22213
BBXX TESTFR9 29064 99488 70022 46/// /3118 10093 29075 40351 52013 22234
BBXX BATFR54 29064 99490 70061 46/// /2929 10099 20025 40351 56005 22242 00114
BBXX BAREU05 29064 99439 70337 46/// ///// 40258 52006 22224
BBXX BAREU00 29064 99503 70015 46/// ///// 40285 52024 22264
BBXX BATFR15 29064 99353 70324 46/// /1717 10192 20157 40321 51014 22214 00189
BBXX BAREU63 29064 99401 10141 46/// /3411 10128 29056 40227 57014 22233
BBXX BAREU51 29064 99407 10116 46/// ///// 40221 57015 22275
BBXX 61001 29064 99434 10078 46/// /1606 10121 20071 40206 57014 22200 00138 10401 70004
BBXX BAREU56 29064 99348 10134 46/// ///// 40207 57003 22272
BBXX 3ERR2 29064 99635 10053 41497 80210 10057 20040 49802 52010 76162 887// 22200 06096 11108 70039 333 91115
BBXX LF4B 29064 99606 10037 47/98 /3416 10064 49809 52008 700// 22200 00061 10910 70051 333 91126
BBXX LF4C 29064 99584 10019 41596 73039 10057 21005 49950 52025 702// 89/// 22200 00074 10914 70071 333 91155
BBXX LF5T 29064 99660 10081 41698 /0418 10040 21031 49818 57001 702// 22200 06082 10806 70029 333 91128
BBXX LF3N 29064 99653 10073 41698 70319 10040 21024 49818 52001 70262 8//// 22200 00090 10807 70037
BBXX LF3F 29064 99643 10078 43/// /0116 10042 21000 49806 52003 22200 04085 11008 70040 333 91120
BBXX UANA 29061 99702 10349 41/94 73312 11009 49902 52001 77172 80020 22272 00054 20606
AAXX 29064 40250 32960 00000 10020 21010 39435 40246 52003 333 21018 30///
AAXX 29064 40260 32960 00000 10013 21021 39445 40253 52003 333 21010 30102
AAXX 29064 40265 31956 00000 10026 20000 39438 40261 54003 70500 333 21005 30104
AAXX 29064 40250 32960 00000 10020 21010 39435 40246 52003 333 21018 30///
AAXX 29064 40265 31956 00000 10026 20000 39438 40261 54003 70500 333 21005 30104
AAXX 29064 40296 32960 00000 10110 20048 40218 54002 333 20072 30004
AAXX 29064 40310 NIL
AAXX 29064 89050 41596 73202 10000 21004 49807 52013 74022 84430
AAXX 29064 89512 31396 81332 11031 21053 39675 49824 52012 77172 8802/ 333 21035
AAXX 29064 89574 42998 21001 10025 21077 49803 57031 81031
AAXX 29064 89592 42998 02701 11011 21030 49750 57022
AAXX 29064 89606 42998 21604 11243 21301 36354 47706 54000 80001 333 21346
AAXX 29061 38196 11595 81406 11018 21029 39255 40251 57004 60170 77373 8802/ 333 21067 91015 91117
AAXX 29061 55299 32980 02701 11010 21278 35851 57030 333 00002 21207
AAXX 29061 55591 32980 03401 10039 21239 36534 57035 333 00151 21085
AAXX 29061 56739 32580 42204 10173 20059 38375 57030 84400 333 00001 20072
AAXX 29061 56951 32780 10202 10202 20069 38523 57033 81400 333 05105 20110
AAXX 29061 56964 32580 43201 10191 20114 38733 40169 57031 84200 333 05205 20128
AAXX 29061 57328 31940 80201 10084 20042 39853 40274 57023 71000 8807/ 333 20066
AAXX 29061 57411 31920 81601 10102 20058 39889 40268 57030 71000 8807/ 333 20071
AAXX 29061 57447 31915 80000 10060 20040 39730 40291 57022 72844 8807/ 333 20035
AAXX 29061 57662 32863 80401 10082 21022 30243 40288 57021 885// 333 20071
AAXX 29061 57745 32960 80703 10077 21044 39948 40284 57021 8807/ 333 20058
AAXX 29061 57972 11458 80201 10054 20047 30042 40274 57019 60021 76060 887// 333 20054
AAXX 29061 58203 31550 80403 10061 20022 30278 40321 57019 71040 885// 333 21039
AAXX 29061 58314 31958 80402 10045 20039 30196 40308 57017 71000 8807/ 333 21012
AAXX 29061 58424 31940 80403 10064 20030 30264 40290 57021 71000 8807/ 333 20047
AAXX 29061 59023 11560 80701 10096 20080 39928 40246 57030 60021 72166 888// 333 20086
AAXX 29061 59417 11450 80000 10133 20110 30059 40215 57015 69911 76060 885// 333 20128
AAXX 29061 59985 11580 60406 10252 20221 30145 40150 57028 69921 70080 86200 333 20222
AAXX 29061 59995 NIL
AAXX 29061 38334 12998 82805 10014 21027 39297 40269 53008 60040 8801/ 333 21030
AAXX 29061 38328 12599 82205 10018 21036 39542 40278 53006 69950 8557/ 333 21015
AAXX 29061 38439 32798 71407 10024 21016 39645 40288 53004 85570 333 21010
AAXX 29061 38334 12998 82805 10014 21027 39297 40269 53008 60040 8801/ 333 21030
AAXX 29061 38198 11596 81712 10012 20009 30000 40262 57006 60020 76176 8802/ 333 21023 91012 91119
BBXX 46185 29061 99524 71298 46/// /2612 10061 40000 52061 22200 00071 11207 70035 333 91214
AAXX 29061 38328 12599 82205 10018 21036 39542 40278 53006 69950 8557/ 333 21015
BBXX 46185 29061 99524 71298 46/// /2612 10061 40000 52061 22200 00071 11207 70035 333 91214
AAXX 29064 42314 32596 20506 10252 20115 40177 81130 333 59001 81825
AAXX 29064 42706 31995 20000 10246 20106 40176 70500 82030 333 58013 82360
AAXX 29064 42724 31995 00502 10278 20162 40163 70500 333 58009
AAXX 29064 42809 31995 60000 10266 20121 40168 70521 84031 333 58009 84360 85070
AAXX 29064 43333 31495 71110 10282 20245 40113 70521 85407 333 56309 58008 84616 85818 87268
AAXX 29064 42309 NIL
AAXX 29064 42398 NIL
AAXX 29064 42410 NIL
AAXX 29064 42415 NIL
AAXX 29064 42492 NIL
AAXX 29064 42587 NIL
AAXX 29064 42591 NIL
AAXX 29064 42623 NIL
AAXX 29064 42701 NIL
AAXX 29064 42798 NIL
AAXX 29064 42886 NIL
AAXX 29064 42895 NIL
AAXX 29064 42971 NIL
AAXX 29064 42977 NIL
AAXX 29064 43368 NIL
AAXX 29061 28867 11996 82307 11025 21051 39635 49901 53035 60010 77173 8802/ 333 21037
AAXX 29061 28952 11599 62303 11037 21062 39726 49915 52033 60040 70272 86500 333 21010
AAXX 29061 35746 11598 72310 11007 21026 30051 40118 52026 60020 73683 85370 333 20001 91115
AAXX 29061 35849 12598 62307 10008 21028 30064 40150 52026 60030 86300 333 20006
AAXX 29061 35925 12598 62709 11008 21026 40192 53029 69900 86600 333 21008
AAXX 29061 35953 11599 72508 10010 21010 30026 40155 52020 60040 70276 87500 333 21003 91116
AAXX 29061 35969 11597 82006 10006 20003 30004 40177 53001 69980 77176 8802/ 333 21022
AAXX 29061 38001 32597 23208 10023 21014 30293 40263 52029 82500 333 20024
AAXX 29061 38062 11596 82005 10012 21008 30005 40167 53006 60040 76876 8872/ 333 21016
AAXX 29061 38069 11496 82307 10018 20007 30008 40199 57004 60010 76162 8802/ 333 21030
AAXX 29061 38196 11595 81406 11018 21029 39255 40251 57004 60170 77373 8802/ 333 21067 91015 91117
AAXX 29061 38198 11596 81712 10012 20009 30000 40262 57006 60020 76176 8802/ 333 21023 91012 91119
AAXX 29061 38232 12598 13011 10019 21012 30160 40260 52039 69900 81200 333 20016 91115
AAXX 29061 38328 12599 82205 10018 21036 39542 40278 53006 69950 8557/ 333 21015
AAXX 29061 38334 12998 82805 10014 21027 39297 40269 53008 60040 8801/ 333 21030
AAXX 29061 38439 32798 71407 10024 21016 39645 40288 53004 85570 333 21010
AAXX 29061 47003 42980 13207 11075 21213 30277 40281 57017 80001
AAXX 29061 47005 42980 00000 11154 21196 38626 58001
AAXX 29061 47022 42975 03202 11101 21185 38864 58010
AAXX 29061 47028 42968 03605 11053 21158 30244 40344 58013
AAXX 29061 47031 42970 00000 11086 21171 38967 57003
AAXX 29061 47037 42970 03202 11033 21228 30195 40323 58015
AAXX 29061 47039 42960 03403 11025 21148 30112 40310 57016
AAXX 29061 47046 11950 41801 11005 21046 30254 40277 58009 69911 71072 80002
AAXX 29061 47050 42965 03605 11026 21196 30271 40306 57018
AAXX 29061 47052 42565 13203 11039 21093 39939 40292 57011 81500
AAXX 29061 47060 42960 00204 11055 21106 30258 40320 58007
AAXX 29061 47061 11660 80503 10009 21040 30240 40285 52003 69901 71072 82530
AAXX 29061 47065 41950 03204 11054 21124 30243 40311 58007 71000
AAXX 29061 47067 41960 00000 11040 21077 30189 40314 54000 71022
AAXX 29061 47068 42970 03203 11030 21116 30265 40301 58004
AAXX 29061 47070 42970 02702 11003 21100 30201 40291 58001
AAXX 29061 47075 41960 00000 11006 21059 39773 40211 57005 71000
AAXX 29061 28867 11996 82307 11025 21051 39635 49901 53035 60010 77173 8802/ 333 21037
AAXX 29061 28952 11599 62303 11037 21062 39726 49915 52033 60040 70272 86500 333 21010
AAXX 29061 35746 11598 72310 11007 21026 30051 40118 52026 60020 73683 85370 333 20001 91115
AAXX 29061 35849 12598 62307 10008 21028 30064 40150 52026 60030 86300 333 20006
AAXX 29061 35925 12598 62709 11008 21026 40192 53029 69900 86600 333 21008
AAXX 29061 35953 11599 72508 10010 21010 30026 40155 52020 60040 70276 87500 333 21003 91116
AAXX 29061 35969 11597 82006 10006 20003 30004 40177 53001 69980 77176 8802/ 333 21022
AAXX 29061 38001 32597 23208 10023 21014 30293 40263 52029 82500 333 20024
AAXX 29061 38062 11596 82005 10012 21008 30005 40167 53006 60040 76876 8872/ 333 21016
AAXX 29061 38069 11496 82307 10018 20007 30008 40199 57004 60010 76162 8802/ 333 21030
AAXX 29061 38196 11595 81406 11018 21029 39255 40251 57004 60170 77373 8802/ 333 21067 91015 91117
AAXX 29061 38198 11596 81712 10012 20009 30000 40262 57006 60020 76176 8802/ 333 21023 91012 91119
AAXX 29061 38232 12598 13011 10019 21012 30160 40260 52039 69900 81200 333 20016 91115
AAXX 29061 38328 12599 82205 10018 21036 39542 40278 53006 69950 8557/ 333 21015
AAXX 29061 38334 12998 82805 10014 21027 39297 40269 53008 60040 8801/ 333 21030
AAXX 29061 38439 32798 71407 10024 21016 39645 40288 53004 85570 333 21010
AAXX 29061 47008 42970 03205 11044 21242 30246 40302 57003
AAXX 29061 47014 42950 00000 11139 21210 39927 40362 57010
AAXX 29061 47016 42970 00000 11112 21185 39424 40337 57020
AAXX 29061 47020 42965 00000 11080 21142 39956 40354 57018
AAXX 29061 47025 42978 02903 10008 21125 30247 40277 58006
AAXX 29061 47035 42965 00505 11040 21104 30326 40335 57019
AAXX 29061 47041 41570 11801 10009 21051 30254 40282 58014 72272 81200
AAXX 29061 47055 42970 03603 10000 21056 30240 40287 58013
AAXX 29061 47058 42960 03202 11045 21121 30263 40312 58013
AAXX 29061 47069 42965 03202 11008 21033 30191 40294 58011
AAXX 29061 47101 32960 00000 10017 21081 30175 40273 57016
AAXX 29061 47105 469// /3403 10004 21013 30242 40275 53006
AAXX 29061 47108 31957 02907 10006 21105 30168 40277 57010 70500
AAXX 29061 47115 41540 80718 11017 21018 39971 40253 53003 78588 888// 333 92045
AAXX 29061 47133 32968 23206 10048 21097 30181 40267 57016 80001
AAXX 29061 47138 329// /3406 10081 21089 30244 40247 56012
AAXX 29061 47159 32965 63205 10087 21063 30157 40242 57015 80001 333 92022
AAXX 29061 47165 32665 53615 10043 21042 30230 40278 56010 85500 333 92024
AAXX 29061 47168 32961 33613 10070 21086 30168 40248 57017 80001 333 92024
AAXX 29061 47184 31658 63211 10087 20011 30244 40269 57011 70502 86500 333 92034
AAXX 29061 47090 41509 80506 10003 21005 30256 40279 55002 77277 8572/ 333 92042
AAXX 29061 47095 31550 42902 11016 21065 30086 40282 57012 70500 84500
AAXX 29061 47097 329// /2505 10027 21120 30171 40269 57013
AAXX 29061 47098 329// /3205 10003 21077 30137 40276 57012
AAXX 29061 47099 329// /3604 10006 21105 30244 40282 57012
AAXX 29061 47100 31360 61107 11030 21053 39321 40267 53001 77072 86500
AAXX 29061 47102 32668 23406 11017 21084 30119 40304 57010 81500
AAXX 29061 47104 41440 82703 11007 21015 30174 40275 53005 77172 8672/
AAXX 29061 47106 329// /3613 10031 20000 30212 40262 53003
AAXX 29061 47112 32962 03411 10009 21115 30194 40281 57010 333 92014
AAXX 29061 47114 31950 02503 10023 21116 30079 40265 57012 70510
AAXX 29061 47119 32961 02706 10010 21088 30233 40276 57011
AAXX 29061 47121 329// /2504 10032 21082 39960 40258 57009
AAXX 29061 47127 329// /2705 10029 21122 30124 40268 57013
AAXX 29061 47129 32970 23207 10018 21062 30249 40286 56012 80001
AAXX 29061 47130 32665 33215 10046 21010 30193 40255 53001 83500 333 92044
AAXX 29061 47131 32970 33405 10028 21066 30197 40269 57014 80001
AAXX 29061 47135 429// /2907 10039 21113 39954 40256 56013
AAXX 29061 47136 32965 02706 10061 21106 30077 40250 57013
AAXX 29061 47137 329// /2707 10046 21123 30135 40255 57015
AAXX 29061 47140 32970 12910 10030 21051 30246 40275 56015 80001 333 92023
AAXX 29061 47143 32961 53206 10066 21120 30178 40257 57017 80001
AAXX 29061 47145 32965 32907 10016 21069 30242 40269 56011 80001
AAXX 29061 47146 32668 22306 10045 21076 30205 40272 56015 82500
AAXX 29061 47150 32970 23203 10034 21099 30257 40277 55012 80001
AAXX 29061 47152 32963 32906 10081 21084 30198 40241 57010 80001
AAXX 29061 47154 329// /2704 10056 21102 30194 40255 57015
AAXX 29061 47155 32960 61103 10088 21054 30194 40240 57018 80001
AAXX 29061 47156 32662 43204 10051 21039 30185 40276 55009 81501
AAXX 29061 47157 32963 32310 10061 21086 39960 40231 57019 80001
AAXX 29061 47162 32965 42503 10093 21020 30203 40243 57017 80001 333 92021
AAXX 29061 47169 32670 53416 10043 21017 30186 40282 57010 85500 333 92055
AAXX 29061 47170 32665 43410 10054 21053 30224 40268 57014 83530 333 92023
AAXX 29061 47171 329// /2905 10034 21060 30223 40279 56012
AAXX 29061 47172 329// /2907 10042 21050 30205 40273 55012
AAXX 29061 47173 329// /3209 10038 21079 30155 40268 56014
AAXX 29061 47174 32962 53407 10055 21073 30053 40257 55015 80001
AAXX 29061 47175 32568 43410 10009 21032 39685 40272 57013 84500 333 92023
AAXX 29061 47185 31657 53221 10086 20012 30173 40264 58006 70522 85500 333 92036
AAXX 29061 47188 31650 63205 10084 20015 30238 40260 57013 70522 85500 333 92022
AAXX 29061 47189 32665 62706 10117 20001 30189 40249 57015 85500 333 92022
AAXX 29061 47192 32961 62702 10083 21082 30208 40245 57017 80001
AAXX 29064 06610 32567 71801 10011 20006 39694 40299 55002 8357/ 333 21026 31103 55000 55300 20000 70000 83627 85356 90768 93100 91107 91204
AAXX 29064 06670 31456 82205 10023 20008 39758 40285 55005 76887 885// 333 21014 32104 55026 55300 20000 70000 81710 84615 87622 90768 93100 91109 91205
AAXX 29064 06700 01462 70702 10013 20009 39788 40300 55003 69932 71072 875// 333 21020 32102 55000 55300 20004 60005 70003 81712 85645 87657 90768 93100 91108 91205
AAXX 29064 06680 01/01 93007 11080 21080 37519 47047 57010 60032 77174 333 21085 47304 55068 55300 20000 69985 70029 90768 93102 91152 91237
AAXX 29064 06990 31156 81805 10017 21010 39720 40285 57007 71041 886// 333 21034 31105 55042 55300 20000 70000 88702 91109 91207
AAXX 29064 06760 32980 50000 10033 21006 39771 40230 57007 8505/ 333 20028 30000 55068 55300 20000 70000 85359 90768 93100 91103 91202
AAXX 29064 06720 32465 82102 10002 21012 39699 40297 57004 886// 333 21033 3/105 41003 55043 55300 20000 70000 88717 90768 93100 91109 91206
AAXX 29061 24790 41999 00000 11493 21511 39441 40424 53003 70270
AAXX 29061 24988 42999 20401 11314 21336 39950 40232 57001 82030
AAXX 29061 25378 42998 63405 11163 21255 30107 40142 53004 82031 333 11156 91111
AAXX 29061 25503 42699 31102 11451 21476 30176 40328 53008 81501
AAXX 29061 25705 41996 02701 11450 21476 39941 40334 54000 71070
AAXX 29061 25927 41697 83303 11199 21211 30215 40222 53001 77172 885//
AAXX 29061 25932 42999 03101 11202 21235 30165 40207 53002
AAXX 29061 31152 42997 00000 11412 21444 39874 40346 57016
AAXX 29061 31174 41999 72707 11166 21200 30236 40248 57009 73632 80001 333 91113
AAXX 29061 31489 42998 71401 11108 21161 30125 40246 57009 84032
AAXX 29061 31866 41998 83302 11065 21167 30173 40179 56011 70281 8802/
AAXX 29061 31959 42998 52705 11116 21200 30138 40183 56007 80002 333 91013 91114
AAXX 29061 31989 42999 73504 11106 21233 30160 40217 55008 80001
AAXX 29061 32027 42999 60202 11135 21155 30238 40247 57013 83032 333 91003 91105
AAXX 29061 32076 41540 80101 10046 20052 30220 40230 54000 78582 889// 333 91003 91104
AAXX 29061 32099 42598 80905 11023 21045 30212 40220 58004 8552/ 333 91006 91108
AAXX 29061 32121 41497 81103 11016 21033 30170 40193 57006 78583 889// 333 91006 91109
AAXX 29061 32213 42598 62907 11043 21085 30110 40175 53016 86500
AAXX 29061 32287 42999 81603 11200 21219 30195 40206 53001 86071
AAXX 29061 32408 42999 10302 11280 21298 30140 40183 53008 80001
AAXX 29061 32509 42699 83305 11045 21097 30133 40168 53004 885//
AAXX 29061 32594 42599 60803 11071 21124 30135 40172 52010 85530
AAXX 29064 60444 12560 50000 10008 20003 39145 48541 50001 60114 85200 333 05000 20008 85830 95990
AAXX 29064 89132 NIL
AAXX 29064 89542 46/// /3002 11045 20041 49935 52006
AAXX 29064 89575 NIL
AAXX 29064 89657 NIL
AAXX 29064 40255 32960 00000 10042 20007 39500 40236 54000 333 20030 30000
AAXX 29064 40260 32960 00000 10013 21021 39445 40253 52003 333 21010 30102
AAXX 29064 40270 31915 00000 10028 21015 39315 40230 57005 70400 333 20022 31040
AAXX 29064 40272 31958 00806 10030 21010 39387 40245 52003 70500 333 21008 30103
AAXX 29064 40290 NIL
AAXX 29064 40340 NIL
BBXX NIL
AAXX 29064 60679 36/// /2422 10014 21329 333 20014
AAXX 29064 60661 36/// /0208 10025 21011 333 20025
BBXX NIL
AAXX 29064 60677 36/// /0000 11022 21115 333 21022
BBXX NIL
BBXX NIL
AAXX 29064 60650 36/// /0312 10086 21008 333 20077
BBXX NIL
AAXX 29064 40250 32960 00000 10020 21010 39435 40246 52003 333 21018 30///
AAXX 29064 40265 31956 00000 10026 20000 39438 40261 54003 70500 333 21005 30104
AAXX 29064 40296 32960 00000 10110 20048 40218 54002 333 20072 30004
AAXX 29064 40310 NIL
AAXX 29064 63729 32480 70000 10212 20177 38884 48/// 8293/ 333 20194 50511 55067 55300 59001 82618 81920 86359
AAXX 29064 63733 01480 71810 10195 20178 38881 48516 69934 76222 82931 333 0//12 20186 50261 55073 55300 58001 69937 82618 81919 85359
AAXX 29064 63791 01580 10224 20211 39144 48522 60534 76022 853// 333 0//11 20212 50791 55058 55300 59003 69903 85622 87358
AAXX 29064 63801 31580 70000 10232 20206 39226 48553 71792 8197/ 333 20215 50401 55054 55300 58009 81821 81922 87358
AAXX 29064 63832 12480 70000 10212 20187 38841 48515 60466 8293/ 333 0//99 20184 50081 55083 55300 58003 82818 81919 87357
AAXX 29064 63866 12580 70000 10241 20222 39532 48/// 60054 8455/ 333 0//19 2021950051 55020 55300 59003 84620 86358
AAXX 29064 63881 12480 62602 10176 20160 38214 48/// 60114 8297/ 333 20145 50091 55036 55300 59008 82818 81920 86356
AAXX 29064 63887 12480 20000 10224 20156 38605 48525 60024 81131 333 0//19 20170 50401 55052 55310 58001 70002 81119
AAXX 29064 63894 12580 73612 10280 20252 30070 40130 60034 85230 333 0//19 20250 50311 55066 55300 58000 70026 85821 86358
AAXX 29064 63756 NIL
AAXX 29064 63862 NIL
AAXX 29064 63870 NIL
AAXX 29064 63932 NIL
AAXX 29064 63962 NIL
AAXX 29064 63971 NIL
BBXX TBWUK18 29063 99327 30336 41297 81824 10210 20194 40157 54000 70322 887// 2229/ 00250 20502 335// 41204 5//// 80200
BBXX TBWUK17 29063 99297 30363 41598 50810 10236 20209 40155 54000 70122 85545 22263 04257 20402 31009 40303 50504 80218
BBXX MRGU3 29063 99374 10109 41498 41506 10142 20078 40229 56012 70111 82760 22223 04160 20501 315// 40501 80110
BBXX A8HD5 29061 99277 11221 41297 63510 10165 20099 40240 50010 70322 82778 22214 04140 20403 33500 40603 5//// 80130
AAXX 29061 23074 41597 81507 11125 21152 30044 40069 52004 77173 8352/ 333 91114
AAXX 29061 23274 41497 71606 11138 21158 30062 40100 58005 78583 879// 333 85914
AAXX 29061 23383 41897 80000 11272 21303 39827 40214 58004 77172 85017
AAXX 29061 23472 41497 71404 11130 21165 30076 40127 57005 78583 87900
AAXX 29061 23678 41996 81104 11122 21142 30085 40145 57006 77173 8807/
AAXX 29061 23884 41568 81402 11110 21130 30107 40183 57008 78587 889//
AAXX 29061 23891 41998 80000 11266 21304 39919 58005 77171 86036
AAXX 29061 24507 41997 81402 11330 21354 39997 40272 52001 77171 80007
AAXX 29061 24817 42999 80000 11216 21234 39887 40284 52004 82041
AAXX 29061 24908 42980 80000 11217 21242 39946 40304 54000 80007
AAXX 29061 29263 41596 81502 11067 21083 30126 40229 57010 78587 8495/
AAXX 29061 29282 41997 83301 11183 21195 30110 40292 58011 77072 8807/
AAXX 29061 29379 41897 81802 11084 21099 30066 40282 58009 77172 8802/
AAXX 29061 29570 41699 62306 11045 21097 39921 40274 58006 73683 83441 333 91112
AAXX 29061 29698 42998 30000 11168 21186 39792 40341 57011 81041
AAXX 29061 30230 41597 80000 11224 21256 39975 40331 58002 78587 83931
AAXX 29061 30252 42999 70000 11317 21341 30045 40405 58008 83031
AAXX 29061 30309 41999 82701 11137 21150 39776 40555 58006 77172 8807/
AAXX 29061 30328 41998 81401 11190 21223 39910 40370 58005 72272 83057
AAXX 29061 30521 41997 80000 11223 21242 39816 40389 58003 70282 83031
AAXX 29061 30710 41997 41201 11107 21134 39750 40360 58009 70281 80001
AAXX 29061 23973 41997 81806 11102 21122 30121 40185 57006 86038
AAXX 29061 23975 41899 81503 11091 21111 30056 40168 57011 77072 8807/
AAXX 29061 23986 41999 81502 11122 21142 39561 40219 57007 70272 8801/
AAXX 29061 23987 41495 71406 11107 21127 30122 40198 58009 78583 87900 333 92981
AAXX 29061 24606 42899 80000 11319 21344 39980 40282 52005 84037
AAXX 29061 29253 41997 81802 11052 21073 30031 40206 57001 77172 8802/
AAXX 29061 29471 41598 70801 11062 21085 30035 40269 58007 70282 83941
AAXX 29061 29481 41997 81702 11085 21100 30038 40284 57010 77171 8802/
AAXX 29061 29553 42977 51804 11040 21090 39884 40255 58007 80001
AAXX 29061 29562 41998 62004 11044 21104 39851 40274 58008 70282 82041
AAXX 29061 29581 41997 81104 11100 21113 30036 40304 58005 77172 8802/
AAXX 29061 29594 42598 80000 11141 21154 39914 40322 58004 78581 85931
AAXX 29061 29653 42997 21405 11095 21121 39784 40284 58008 80001
AAXX 29061 29675 42898 60000 11078 21100 39701 40311 58007 86030
AAXX 29061 29676 42899 70000 11077 21108 39857 40293 58007 82045
AAXX 29061 29752 41999 13101 11065 21101 38821 48468 58009 70281 80001
AAXX 29061 29759 41999 10000 11064 21100 39236 40283 58014 70281 80001
AAXX 29061 29766 42899 83501 11152 21165 39958 40335 58008 8801/
AAXX 29061 29789 NIL
AAXX 29061 29864 42999 30000 11106 21142 39637 40315 58010 80002
AAXX 29061 29866 41995 70000 11134 21154 39986 40324 57007 71011 82031
AAXX 29061 29869 42998 70000 11153 21166 39932 40330 58017 80001
AAXX 29061 29956 42999 00901 11175 21194 39741 40340 57014
AAXX 29061 30337 41594 80000 11210 21235 39867 40353 58007 78682 86907
AAXX 29061 30405 41998 50000 11167 21193 39783 40348 58009 70272 85001
AAXX 29061 30504 41998 81802 11131 21137 39659 40341 58014 77172 86037
AAXX 29061 30603 41596 20000 11149 21162 39748 40353 58011 71081 80001
AAXX 29061 30612 42999 81302 11199 21225 39805 40384 58005 81047
AAXX 29061 30622 42998 00000 11263 21287 39699 40416 51004
AAXX 29061 30627 41995 02102 11184 21203 39379 40377 54000 71011
AAXX 29061 30703 42999 00000 11123 21143 39645 40352 57013
AAXX 29061 36307 42999 01901 11281 21319 39071 48563 52006
AAXX 29064 16344 12970 00000 10000 20000 38340 48524 57020 60002 333 21010 43048 55026 20932 95000 95100
AAXX 29061 38734 42699 20906 11082 21139 47080 51001 81503
AAXX 29064 71214 16/// /1305 11080 21091 60001 333 11027 21107 70009
AAXX 29064 71217 16/// /1810 10052 21018 60001 333 10117 21050 70000 555 32631 40192
AAXX 29064 71223 16/// /0905 11115 21131 60001 333 11018 21116 70004
AAXX 29064 71224 16/// /2608 10047 21006 60001 333 10072 21022 70000 555 32441 40123
AAXX 29064 71225 16/// /1911 10050 21003 60001 333 10111 20017 70000 555 32441 40193
AAXX 29064 71227 46/// /1506 11091 21104 6///1 333 11021 21108 7////
AAXX 29064 71345 16/// /2205 10049 21004 60001 333 10107 20014 70000 555 32539 40183
AAXX 29064 71351 16/// /0000 11092 21113 60001 333 11008 21092 70004
AAXX 29064 71353 17/// /2010 10024 21061 69941 7//4/ 333 10026 21105 70022
AAXX 29064 71375 46/// /0616 10008 6///1 333 10016 21006 7//// 555 30934 40163
AAXX 29064 71385 46/// /2829 11084 6///1 333 10021 21084 7//// 555 32740 40063
AAXX 29064 71683 46/// /0000 11235 39870 49983 55002 6///1 333 11203 21257 7////
AAXX 29064 71257 17/// /1805 11007 21052 69941 7//4/ 333 10012 21099 70040
AAXX 29064 71258 16/// /1812 10015 21040 60001 333 10091 21112 70000 555 31319 40111
AAXX 29064 71259 16/// /1405 11042 21063 60001 333 10023 21112 70000
AAXX 29064 71274 16/// /1304 11101 21107 60001 333 11047 21148 70019
AAXX 29064 71275 46/// /1306 11089 21093 6///1 333 11048 21129 7////
AAXX 29064 71278 17/// /1705 11094 21103 69941 7//4/ 333 11029 21108 70009
AAXX 29064 71286 16/// /1407 11090 21098 60001 333 11029 21123 70005
AAXX 29064 71287 16/// /0901 11111 21120 60001 333 11025 21116 70015 555 10010 20015
AAXX 29064 71289 16/// /1702 11055 21081 60001 333 10001 21098 70000
AAXX 29061 10046 11325 82610 10043 20022 30027 40066 52003 60052 76362 877// 333 10074 20036 32002 55000 70046 87709 91021 91121
AAXX 29064 71445 17/// /1405 11092 21108 39761 40042 58002 69971 7//4/ 333 11092 21151 70099 555 10010 20099 31127 40111
AAXX 29064 71525 16/// /2110 10027 21002 60001 333 10122 21019 70000 555 32639 40213
AAXX 29064 71535 16/// /1712 10042 21008 60001 333 10120 20018 70000 555 32544 40203
AAXX 29064 71536 16/// /1906 10063 21013 60001 333 10118 20022 70000 555 32642 40193
AAXX 29064 71537 16/// /1707 10024 21011 60001 333 10083 21097 7////
AAXX 29064 71464 46/// ///06 11062 39931 40149 58010 6///1 333 10020 21065 7////
AAXX 29064 71466 46/// ///// 11014 39915 40156 6///1 333 7////
AAXX 29064 71916 46/// /0000 11360 21393 30087 40145 53016 6///1 333 11291 21362 7//// 555 33219 40131
AAXX 29064 71214 16/// /1305 11080 21091 60001 333 11027 21107 70009
AAXX 29064 71217 16/// /1810 10052 21018 60001 333 10117 21050 70000 555 32631 40192
AAXX 29064 71223 16/// /0905 11115 21131 60001 333 11018 21116 70004
AAXX 29064 71224 16/// /2608 10047 21006 60001 333 10072 21022 70000 555 32441 40123
AAXX 29064 71225 16/// /1911 10050 21003 60001 333 10111 20017 70000 555 32441 40193
AAXX 29064 71227 46/// /1506 11091 21104 6///1 333 11021 21108 7////
AAXX 29064 71683 46/// /0000 11235 39870 49983 55002 6///1 333 11203 21257 7////
AAXX 29064 71525 16/// /2110 10027 21002 60001 333 10122 21019 70000 555 32639 40213
AAXX 29064 71535 16/// /1712 10042 21008 60001 333 10120 20018 70000 555 32544 40203
AAXX 29064 71536 16/// /1906 10063 21013 60001 333 10118 20022 70000 555 32642 40193
AAXX 29064 71537 16/// /1707 10024 21011 60001 333 10083 21097 7////
AAXX 29064 71351 16/// /0000 11092 21113 60001 333 11008 21092 70004
AAXX 29064 71353 17/// /2010 10024 21061 69941 7//4/ 333 10026 21105 70022
AAXX 29064 71375 46/// /0616 10008 6///1 333 10016 21006 7//// 555 30934 40163
AAXX 29064 71385 46/// /2829 11084 6///1 333 10021 21084 7//// 555 32740 40063
AAXX 29064 71345 16/// /2205 10049 21004 60001 333 10107 20014 70000 555 32539 40183
AAXX 29064 71445 17/// /1405 11092 21108 39761 40042 58002 69971 7//4/ 333 11092 21151 70099 555 10010 20099 31127 40111
AAXX 29064 71257 17/// /1805 11007 21052 69941 7//4/ 333 10012 21099 70040
AAXX 29064 71258 16/// /1812 10015 21040 60001 333 10091 21112 70000 555 31319 40111
AAXX 29064 71259 16/// /1405 11042 21063 60001 333 10023 21112 70000
AAXX 29064 71274 16/// /1304 11101 21107 60001 333 11047 21148 70019
AAXX 29064 71275 46/// /1306 11089 21093 6///1 333 11048 21129 7////
AAXX 29064 71278 17/// /1705 11094 21103 69941 7//4/ 333 11029 21108 70009
AAXX 29064 71286 16/// /1407 11090 21098 60001 333 11029 21123 70005
AAXX 29064 71287 16/// /0901 11111 21120 60001 333 11025 21116 70015 555 10010 20015
AAXX 29064 71289 16/// /1702 11055 21081 60001 333 10001 21098 70000
AAXX 29064 07027 02980 52308 10045 20015 30228 40312 50000 69902 80002 333 10066 20037 31002 55016 60007 79999 85068 90710 91115 93100 555 60005
AAXX 29061 51711 32980 20702 11064 21125 38036 52004 80002 333 00252 21130
AAXX 29061 51730 32970 72201 11039 21125 40377 52003 80002 333 00202 21152
AAXX 29061 52112 32970 10000 11093 21176 40378 57019 80002 333 00100 21170
AAXX 29061 52737 32980 50000 11012 21270 37082 57025 80002 333 00100 21152
AAXX 29061 52787 32980 01609 10005 21205 37011 57022 333 00002 21107
AAXX 29061 53352 32980 02203 11018 21133 40356 57028 333 21215
AAXX 29061 53593 32960 00402 11014 21118 40342 57027 333 21129
AAXX 29061 53705 32965 70703 11001 21078 40300 57037 80002 333 00000 21112
AAXX 29061 53863 31950 70202 10003 21068 40336 57030 70400 80002 333 21083
AAXX 29061 53975 32965 71604 10021 21062 40329 57028 80002 333 21040
AAXX 29061 54273 32970 02203 11162 21224 40408 57012 333 21290
AAXX 29061 54324 32970 00701 11084 21245 40391 57028 333 21218
AAXX 29061 54405 31958 52001 11047 21101 40361 57026 71000 85030 333 21118
AAXX 29061 54436 32980 02002 11031 21199 40379 57028 333 21113
AAXX 29061 54808 32963 80404 10012 21040 40350 57021 80007 333 21023
AAXX 29061 54826 32460 61801 11041 21070 38525 57018 84502 333 21069
AAXX 29061 54836 32970 00903 10011 21074 40349 57021 333 21028
AAXX 29061 54863 32975 03606 10013 21157 40335 57021 333 21029
AAXX 29061 56018 32980 01601 11018 21230 36178 57037 333 00200 21187
AAXX 29061 56021 32980 01803 11031 21224 36065 57033 333 00100 21226
AAXX 29061 57071 31915 70703 10026 21035 40338 57023 71040 80002 333 21013
AAXX 29063 42071 31995 00000 10164 20086 40215 70544 333 58006 90529
AAXX 29064 42027 31595 32002 10054 21038 38481 48567 70500 82501 333 58000
AAXX 29064 42101 31995 03202 10161 20107 40212 70500 333 58012
AAXX 29064 42111 31996 02301 10168 20073 39422 40200 70500 333 58002
AAXX 29064 42131 31995 03602 10162 20106 40126 70500 333 58010
AAXX 29064 42165 31994 00501 10164 20091 40204 70500 333 58013
AAXX 29064 42182 31992 02704 10176 20110 40206 74440 333 58009
AAXX 29064 42189 31995 00501 10210 20121 40190 70500 333 59002
AAXX 29064 42260 31994 03404 10200 20111 40198 72840 333 59001
AAXX 29064 42328 31995 00503 10168 20051 40206 70500 333 58014
AAXX 29064 42339 31995 00000 10188 20069 40197 70500 333 58011
AAXX 29064 42348 31995 00503 10192 20064 40189 70400 333 59001
AAXX 29064 42361 31994 00000 10188 20107 40198 71044 333 58000
AAXX 29064 42369 31996 00904 10230 20117 40191 70500 333 59001
AAXX 29064 42379 31995 00000 10232 20103 40178 70500 333 59001
AAXX 29064 42452 31995 01402 10186 20061 40195 70500 333 58006
AAXX 29064 42475 31995 00000 10180 20106 40192 70500 333 58006
AAXX 29064 42071 NIL
AAXX 29064 68513 36/// /1306 10180 20147 30037 40149 53009 333 20166 91008 555 10251 91015
AAXX 29064 68514 32/// /1906 10252 20061 39673 48555 54000 333 20175 91010 555 10356 91015
AAXX 29064 68523 36/// /0813 10230 20081 39126 48546 52003 333 20188 91019 555 10334 91019
AAXX 29064 68527 36/// /0907 10216 20125 39094 48537 52007 333 20186 91012 555 10329 91018
AAXX 29064 68572 11324 81302 10129 20093 38425 48534 52010 60064 70355 886// 333 20084 91004 555 10194 20064 91022
AAXX 29064 68575 16/// /2207 10159 20115 39130 48547 52010 60034 333 20139 91012 555 10205 20034 91021
AAXX 29064 68581 16/// /1905 10201 20138 39403 48552 52010 69924 333 20144 91012 555 10224 20002 69925 91018
AAXX 29064 68583 16/// /2207 10223 20164 30057 40166 53009 69944 333 20210 91016 555 10257 20004 91016
AAXX 29064 68589 16/// /0205 10157 20113 38269 48530 53002 60014 333 20115 91008 555 10198 20018 91022
AAXX 29064 68613 36/// /1202 10195 20158 30047 40162 53005 333 20132 91004 555 10247 91016
AAXX 29064 68647 NIL
AAXX 29064 68651 NIL
AAXX 29064 68715 NIL
AAXX 29064 68717 36/// /3304 10221 20141 30013 40155 52006 333 20173 91006 555 10349 91015
AAXX 29064 68723 36/// /0907 10225 20101 39427 48565 52009 333 20172 91012 555 10313 91019
AAXX 29064 68737 32975 02303 10160 20114 39286 48549 52006 333 20111 91005 555 10247 91020
AAXX 29064 68744 12980 01502 10166 20109 39133 48541 52006 69924 333 20104 91005 555 10217 20002 91020
AAXX 29064 68747 16/// /1302 10175 20132 39665 48567 53007 69964 333 20140 91004 555 10231 20006 91020
AAXX 29064 68754 NIL
AAXX 29064 68817 36/// /1618 10229 20135 30146 40158 52008 333 20202 91027 555 10279 91015
AAXX 29064 68821 36/// /1308 10208 20133 39936 40173 53003 333 20160 91013 555 10323 91017
AAXX 29064 68835 16/// /2902 10169 20143 30075 40190 53005 69984 333 20123 91004 555 10257 20008 91019
AAXX 29064 68843 16/// /2802 10195 20139 30089 40188 53007 69924 333 20137 91004 555 10232 20002 91018
AAXX 29064 68849 16/// /0303 10168 20117 39452 48556 53007 69924 333 20104 91007 555 10212 20002 91020
AAXX 29064 68912 NIL
AAXX 29064 68918 36/// /1406 10212 20166 30167 40185 52004 333 20185 91009 555 10230 91018
AAXX 29064 68921 NIL
AAXX 29064 68925 NIL
AAXX 29064 68926 32170 80302 10199 20143 30006 40184 54000 885// 333 20156 91005 555 10276 91018
AAXX 29064 68935 16/// /2402 10191 20154 30122 40186 52008 60054 333 20139 91004 555 10247 20052 91018
AAXX 29064 68647 NIL
AAXX 29064 68651 NIL
AAXX 29064 68715 NIL
AAXX 29064 68754 NIL
AAXX 29064 68912 NIL
AAXX 29064 68921 NIL
AAXX 29064 68925 NIL
AAXX 29063 41150 42975 02910 10160 20054 40242 333 20136 30011 58015
AAXX 29061 50548 32980 00000 11182 21277 40377 57023 333 21348
AAXX 29061 50564 32970 02002 11160 21243 40359 57016 333 21312
AAXX 29061 51334 32965 70000 11126 21155 40384 57009 85032 333 00101 21184
AAXX 29061 51818 32965 31101 11023 21106 40348 57003 80002 333 00203 21127
AAXX 29061 52378 32980 70000 11070 21196 40363 57019 80002 333 00051 21186
AAXX 29061 53487 31957 61801 11013 21106 40337 57029 70400 80002 333 21144
AAXX 29061 53502 32970 00703 11052 21138 40358 57026 333 00152 21189
AAXX 29061 53923 32980 71803 10010 21066 40299 57025 80002 333 21033
AAXX 29061 54049 32970 02903 11119 21256 40397 57016 333 21241
AAXX 29061 54115 32970 00901 11076 21195 40384 57023 333 21221
AAXX 29061 54157 32968 02701 11126 21231 40403 57017 333 21235
AAXX 29061 54186 32970 02905 11161 21237 40372 57003 333 21233
AAXX 29061 54311 32980 02002 11063 21168 40372 57028 333 21219
AAXX 29061 54346 32965 03202 11091 21221 40384 57018 333 21192
AAXX 29061 54377 32980 00402 11072 21188 40365 57011 333 21176
AAXX 29061 54386 32970 02502 11128 21225 40358 57009 333 21266
AAXX 29061 54493 32974 00702 11060 21216 40355 57012 333 21153
AAXX 29061 54587 NIL
AAXX 29061 54715 32970 70904 10004 21071 40357 57026 85032 333 21024
AAXX 29061 54929 32980 20903 10035 21067 40337 57021 80002 333 21007
AAXX 29061 54945 32970 03602 10026 21113 40341 57022 333 21018
AAXX 29061 56065 32680 10901 10008 21175 36613 57030 81100 333 00200 21177
AAXX 29061 57193 11615 80201 10026 20000 40331 57020 69901 72164 885// 333 21008
AAXX 29061 57290 31930 83202 10017 21001 40327 57024 71040 8802/ 333 21012
AAXX 29064 87349 32570 53602 10217 20120 39746 40126 51004 85500 333 56700 85620
AAXX 29064 42559 32996 01102 10198 20071 40177 333 58018
AAXX 29064 42571 31996 00501 10196 20090 40183 70540 333 58009
AAXX 29064 42667 31995 00902 10206 20108 39579 40172 70500 333 58007
AAXX 29064 42675 31996 03602 10200 20095 40173 70500 333 58022
AAXX 29064 42754 31995 00909 10220 20046 39528 40166 70500 333 58015
AAXX 29064 42779 32996 00501 10222 20094 39470 40167 333 58009
AAXX 29064 42867 31995 00704 10252 20110 40155 70500 333 58008
AAXX 29064 42874 32996 00502 10260 20167 40152 83030 333 58001 83360
AAXX 29064 42933 32997 03602 10260 20071 40161 333 58012
AAXX 29064 43041 32596 40502 10264 20182 39527 40135 81101 333 58002 81835 83075
AAXX 29064 68174 11358 80306 10171 20158 38796 48518 53003 60094 71022 885// 333 20167 91008 555 10278 20092 69925 91019
AAXX 29064 68191 16/// /1707 10212 20166 39644 48539 53006 60024 333 20198 91010 555 10349 20028 91015
AAXX 29064 68242 12882 10705 10215 20147 38718 48500 52007 60014 81072 333 20156 91007 555 10283 20012 91016
AAXX 29064 68262 36/// /0803 10226 20153 38709 48518 53008 333 20186 91008 555 10265 91019
AAXX 29064 68263 NIL
AAXX 29064 68267 11370 71310 10142 20120 38258 48532 50000 60084 72055 876// 333 20130 91017 555 10222 20084 91023
AAXX 29064 68289 16/// /1403 10208 20166 39156 48529 53003 60194 333 20183 91017 555 10257 20196 91017
AAXX 29064 68350 16/// /1007 10228 20162 38674 48526 52012 69944 333 20164 91012 555 10311 20004 91020
AAXX 29064 68368 41360 71009 10167 20145 38331 48528 52010 70522 876// 333 20148 555 10258 91022
AAXX 29064 68403 36/// /1810 10192 20149 30135 40168 52008 333 20175 91014 555 10241 91016
AAXX 29064 68424 32882 11110 10270 20132 39196 48534 53011 81080 333 20214 91015 555 10353 91016
AAXX 29064 68438 12982 01706 10191 20110 38831 48524 52013 69924 333 20126 91010 555 10306 20002 91019
AAXX 29064 68442 12582 30203 10175 20134 38675 48526 53007 60044 83530 333 20106 91006 555 10266 20046 91020
AAXX 29064 68461 32380 20303 10164 20116 38338 48524 52006 82500 333 20113 91007 555 10258 91022
AAXX 29064 68512 32982 01212 10217 20087 39023 48525 52003 333 20165 91020 555 10276 91017
AAXX 29064 68538 36/// /1109 10165 20110 38752 48534 53010 333 20116 91014 555 10277 91021
AAXX 29064 68587 16/// /2209 10225 20164 30162 40174 53010 60054 333 20183 91017 555 10237 20058 91017
AAXX 29064 68588 36/// /2112 10234 20155 30160 40176 53003 333 20208 91018 555 10258 91017
AAXX 29064 68591 NIL
AAXX 29064 68592 NIL
AAXX 29064 68618 32980 01012 10236 20101 39075 48550 53007 333 20152 91016 555 10308 91020
AAXX 29064 68633 36/// /1810 10141 20089 38534 48528 53005 333 20114 91014 555 10241 91021
AAXX 29064 68668 12570 60502 10161 20119 39337 48552 52010 60024 86500 333 20118 91003 555 10193 20024 91020
AAXX 29064 68714 36/// /1911 10209 20141 30122 40158 52004 333 20155 91016 555 10289 91015
AAXX 29064 68727 36/// /0504 10162 20114 39157 48536 52009 333 20133 91007 555 10271 91019
AAXX 29064 68752 NIL
AAXX 29064 68816 32482 11716 10224 20140 30111 40165 53006 81500 333 20186 91026 555 10267 91016
AAXX 29064 68828 12470 30603 10193 20167 39950 40181 50004 60034 83500 333 20140 555 10233 20025 91018
AAXX 29064 68842 32580 29902 10210 20136 30122 40192 53011 82500 333 20124 555 10237 91019
AAXX 29064 68858 32580 43303 10213 20147 30035 40190 53008 84100 333 20152 555 10236 91019
AAXX 29064 68906 12598 32517 10135 20095 30091 40156 53013 69924 83500 222// 00132 333 20130 91029 555 10203 20002 91015
AAXX 29064 68994 32598 83207 10052 20001 30133 40162 52005 885// 222// 00071 333 20041 91011 555 10091 91016
AAXX 29064 89004 32680 61010 11083 21105 38821 49833 53006 86070 333 21125 91012 555 11029
BBXX 46206 29061 99488 71260 46/// /2811 10087 40067 52048 22200 00080 11008 70042 333 91214
BBXX 46206 29061 99488 71260 46/// /2811 10087 40067 52048 22200 00080 11008 70042 333 91214
AAXX 29061 26167 11359 82105 10007 21001 39921 40033 57036 69902 77172 886// 333 21008 46997 88709
BBXX 46205 29061 99542 71343 46/// /2914 10028 49957 52065 22200 00071 11213 70064 333 91217
BBXX 46132 29061 99497 71279 46/// /2809 10079 40065 52063 22200 00085 11009 70046 333 91212
AAXX 29061 50658 32965 02502 11193 21242 40378 57012 333 21285
AAXX 29061 50888 11950 83204 11169 21203 40289 57005 69911 77070 8802/ 333 21254
AAXX 29061 50983 11965 82702 11179 21212 40296 57006 69931 77070 82037 333 21233
AAXX 29061 51053 32977 50904 11106 21159 40365 57003 80002 333 00101 21148
AAXX 29061 51542 32680 72501 11195 21222 37580 57010 875// 333 00252 21288
AAXX 29061 52436 32980 02904 11060 21163 38511 40358 57015 333 00252 21189
AAXX 29061 52908 32980 02907 11067 21298 35745 57019 333 00102 21223
AAXX 29061 52996 32970 11404 11011 21055 37569 57023 80002 333 00202 21066
AAXX 29061 53083 32980 00701 11128 21160 40392 57020 333 05103 21225
AAXX 29061 53764 32965 01101 10039 21081 40310 57033 333 21074
AAXX 29061 53787 32962 22203 10014 21064 40322 57027 80002 333 21091
AAXX 29061 54096 32570 72906 11177 21230 40303 57004 82102 333 21224
AAXX 29061 54226 32980 00202 11091 21260 40399 57022 333 21241
AAXX 29061 54259 32980 00702 11119 21214 40398 57018 333 21243
AAXX 29061 54527 32865 71104 11018 21077 40372 57026 875// 333 21047
AAXX 29061 54534 32970 71802 11039 21165 40380 57026 80002 333 21087
AAXX 29061 34357 32998 02704 11028 21047 30089 40250 52026 333 21024
AAXX 29061 34363 32998 02909 11033 21067 30066 40224 52034 333 21029
AAXX 29061 34545 32998 02803 11037 21040 30168 40284 53021 333 21040
AAXX 29061 34579 32998 02905 11012 21049 30188 40233 51030 333 21014
AAXX 29061 34838 31/93 90102 11020 21022 30209 40309 52009 74541 333 21025 /////
AAXX 29061 34927 32497 80000 10038 20022 30271 40309 52005 886// 333 20038
AAXX 29061 34949 12498 22603 11003 21012 39749 40312 51012 60010 82530 333 21025
AAXX 29061 37001 31996 00603 10003 20002 30256 40298 52002 71051 333 20004
AAXX 29061 37031 11496 62201 10014 20011 30109 40310 52007 60030 71022 86500 333 20004
AAXX 29061 37061 11996 02703 11006 21021 30139 40313 52016 60010 71000 333 21019
AAXX 29061 37085 12998 02704 10009 21014 30330 40358 52022 69970 333 21002
AAXX 29061 37107 32999 00301 11002 21005 39615 40316 57002 333 21005
AAXX 29061 37126 32999 22103 11034 21191 37984 48557 52011 80001 333 21053 48002
AAXX 29061 37171 12698 70604 10046 20031 30281 40300 57003 69900 87500 333 20045 87639
AAXX 29061 37228 32497 80602 10016 21004 39459 40313 51015 886// 333 20015
AAXX 29061 37470 32598 73202 10061 20007 30337 40314 51029 87500 333 20044
AAXX 29061 37663 32999 62601 11002 21046 39097 48554 52022 8005/ 333 21048
BBXX 46132 29061 99497 71279 46/// /2809 10079 40065 52063 22200 00085 11009 70046 333 91212
BBXX 46205 29061 99542 71343 46/// /2914 10028 49957 52065 22200 00071 11213 70064 333 91217
BBXX ZCBU2 29063 99349 31617 41298 71834 10190 20182 40027 57010 70222 8572/ 22224 00190 20307 31419 40408 50407 80185
BBXX A8MH2 29064 99266 31532 41597 61321 10270 40080 54000 70322 84444 22200 20403 313// 40404 5////
BBXX DGSE 29063 99348 70753 41498 13122 10127 20002 40162 58008 702// 81100 22215 00230 2//// 80070
BBXX PENR 29064 99152 70607 41597 40224 10265 20213 40169 57015 70200 83245 22254 20501 305// 41003 80230
BBXX ZCDY2 29064 99245 70748 41/98 80612 10233 20201 40174 55009 70322 887// 22274 00250 20302 335// 40202 5////
BBXX A8JC5 29064 99322 70382 41297 41821 10208 20184 40260 52010 72111 847// 22224 00225 299// 327// 40808 5//// 80192
BBXX PFFH 29063 99113 70182 41/98 /3615 10250 40133 56010 7//// 8//// 22233 00255 2////
BBXX LAVN4 29064 99028 70269 41697 81611 10270 2024/ 40133 54000 70300 8717/ 22213 00260 20502 307// 40802 5//// 6//// 80250 NNNN
BBXX VQIB9 29063 99288 30402 41298 71820 10240 20210 40088 53003 70222 8577/ 22254 00262 20502 306// 40903 5//// 80220
BBXX 62141 29063 99493 50591 41/98 /2932 10111 20103 40114 52006 700// 8//// 22200 20504 327// 40603 5//// 80107
BBXX VQHO7 29064 99004 70376 41/98 /0823 10263 20229 40118 57012 78198 8//// 22234 00280 2//// 3//// 4//// 5//// 80240
BBXX 44062 29061 99386 70764 46/// /3206 1//// 90620 22200 00082 333 91209
BBXX 44062 29061 99386 70764 46/// /3206 1//// 40152 90610 22200 00082 333 91208
BBXX 44062 29061 99386 70764 46/// /3206 10020 40152 53007 90600 22200 00082 10201 70003 333 91208
BBXX 44063 29061 99390 70764 46/// /3005 1//// 90620 333 91206
BBXX 44063 29061 99390 70764 46/// /3005 1//// 40180 90610 333 91207
BBXX 44063 29061 99390 70764 46/// /3005 10010 40179 55000 90600 22200 00073 1//00 70002 333 91207
BBXX 44041 29061 99372 70768 46/// /3601 1//// 90620 333 91201
BBXX 44041 29061 99372 70768 46/// /0201 1//// 40194 90610 333 91202
BBXX 44041 29061 99372 70768 46/// /0101 10028 40192 51005 90600 22200 00085 1//00 70000 333 91202
BBXX 44042 29061 99380 70763 46/// /3506 1//// 90620 333 91208
BBXX 44042 29061 99380 70763 46/// /3406 1//// 40168 90610 333 91208
BBXX 44042 29061 99380 70763 46/// /3406 10035 40169 53010 90600 22200 00083 10201 70004 333 91208
BBXX 44043 29061 99392 70764 46/// /3108 1//// 90620 333 91209
BBXX 44043 29061 99392 70764 46/// /3108 1//// 40159 90610 333 91210
BBXX 44043 29061 99392 70764 46/// /3108 10017 40159 53005 90600 22200 00070 10301 70005 333 91210
BBXX 41010 29061 99289 70785 46/// /3502 10176 40195 90620 22200 00236 10702 20401 300// 40702 70011 333 91203 555 11020 22021
BBXX 41009 29061 99285 70802 46/// /2902 10170 20045 40203 90620 22200 00238 10802 20401 300// 40802 70011 333 91205 555 11021 22022
AAXX 29064 68155 36/// /0604 10231 20191 39192 48525 53012 333 20220 91007 555 10301 91016
AAXX 29064 68171 NIL
AAXX 29064 68176 16/// /0906 10194 20157 39145 48526 53012 69964 333 20188 91016 555 10310 20006 91017
AAXX 29064 68181 NIL
AAXX 29064 68182 16/// /0000 10194 20177 39353 48535 53006 60104 333 20186 91003 555 10312 20108 91017
AAXX 29064 68185 NIL
AAXX 29064 68253 36/// /0402 10209 20194 39045 48516 52012 333 20199 91006 555 10301 91016
AAXX 29064 68255 NIL
AAXX 29064 68271 16/// /3303 10223 20173 38915 48521 53007 60014 333 20200 91005 555 10277 20016 91018
AAXX 29064 68273 16/// /1206 10194 20149 38467 48521 52006 60064 333 20160 91009 555 10271 20068 91021
AAXX 29064 68287 36/// /2002 10175 20134 38584 48519 53002 333 20134 91005 555 10229 91020
AAXX 29064 68291 16/// /1406 10221 20179 39537 48534 53006 60024 333 20185 91013 555 10322 20026 91015
AAXX 29064 68297 NIL
AAXX 29064 68329 36/// /0806 10255 20138 39087 48527 52011 333 20168 91011 555 10340 91016
AAXX 29064 68331 36/// /1608 10228 20134 38833 48520 53002 333 20180 91012 555 10315 91018
AAXX 29064 68335 36/// /2003 10209 20163 38933 48541 52010 333 20170 91004 555 10300 91020
AAXX 29064 68341 16/// /1005 10219 20167 38535 48520 52008 69924 333 20183 91007 555 10294 20002 91020
AAXX 29064 68342 NIL
AAXX 29064 68343 16/// /3605 10209 20165 38790 48515 52007 69944 333 20172 91008 555 10286 20004 91018
AAXX 29064 68349 NIL
AAXX 29064 68353 36/// /0610 10199 20141 38524 48503 52006 333 20156 91013 555 10280 91018
AAXX 29064 68355 36/// /0710 10193 20135 38590 48524 52003 333 20138 91014 555 10269 91020
AAXX 29064 68370 11470 80000 10148 20135 38382 48532 52008 60094 70266 885// 333 20142 555 10263 20098 91022
AAXX 29064 68377 16/// /1302 10199 20127 38782 48522 52002 60044 333 20155 91005 555 10287 20044 91019
AAXX 29064 68380 36/// /2803 10166 20129 3//// 4//// 5//// 333 20141 91007 555 10230
AAXX 29064 68387 16/// /1811 10181 20138 38874 48532 54000 60124 333 20158 91070 555 10254 20120 91020
AAXX 29064 68411 36/// /0000 10252 20101 39947 40151 52010 333 20215 91001 555 10359 91015
AAXX 29064 68429 36/// /0705 10214 20100 38690 48512 52013 333 20178 91011 555 10299 91018
AAXX 29064 68449 16/// /0602 10177 20130 38404 48517 52010 60034 333 20106 91004 555 10246 20030 91020
AAXX 29064 68471 NIL
AAXX 29064 68474 16/// /1102 10152 20120 38642 48532 55000 60074 333 20124 91005 555 10244 20070 91021
AAXX 29064 68479 16/// /0804 10183 20121 38974 48535 52002 60014 333 20141 91007 555 10262 20012 91020
AAXX 29064 68481 36/// /1609 10240 20161 39785 40149 52002 333 20185 91015 555 10271 91016
AAXX 29064 68487 16/// /2007 10161 20126 39019 48534 52006 69984 333 20139 91010 555 10191 20008 91020
AAXX 29064 68491 16/// /2107 10236 20198 30132 40141 52006 60064 333 20207 91016 555 10241 20064 91014
AAXX 29064 68497 NIL
AAXX 29064 68263 NIL
AAXX 29064 68591 NIL
AAXX 29064 68592 NIL
AAXX 29064 68752 NIL
AAXX 29061 30455 42999 80000 11292 21316 38948 48466 58008 83047
AAXX 29061 30731 41995 82003 11105 21125 39688 40324 58011 77371 8802/
AAXX 29061 30739 42699 60000 11274 21312 39498 40413 58011 81502
AAXX 29061 30741 42998 83003 11168 21174 38723 48500 58010 85041
AAXX 29061 30745 42998 82404 11203 21229 39111 40345 57009 80005
AAXX 29061 30764 42999 50000 11268 21315 39497 40380 57024 80003
AAXX 29061 30829 42999 03401 11228 21247 39653 40408 58017
AAXX 29061 30838 41697 82101 11220 21239 39333 40403 58013 78581 86942
AAXX 29061 30846 41999 41201 11213 21261 39384 40369 58024 70271 82049
AAXX 29061 30859 42999 83201 11275 21314 39469 40402 57021 80001
AAXX 29061 30862 42998 52407 11243 21282 39568 40379 57020 80002
AAXX 29061 30957 42999 62304 11210 21235 39398 40369 58028 80002
AAXX 29061 30975 42899 21603 11312 21358 39718 40455 58020 81041
AAXX 29064 68183 12470 80803 10202 20172 39450 48537 53007 60224 885// 333 20196 91009 555 10308 20220 91016
AAXX 29064 68188 16/// /0702 10189 20170 39212 48535 53009 60224 333 20181 91004 555 10287 20222 91018
AAXX 29064 68268 16/// /0804 10214 20180 38891 48533 52008 69924 333 20179 91006 555 10296 20002 91019
AAXX 29064 68272 NIL
AAXX 29064 68296 16/// /2007 1//// 2//// 38916 4//// 53001 60104 333 2//// 91018 555 1//// 20106
AAXX 29064 68322 32982 02107 10258 20071 39140 48523 52007 333 20177 91011 555 10364 91015
AAXX 29064 68338 12780 11303 10215 20161 38774 48508 52005 60024 81070 333 20152 91009 555 10298 20024 91017
AAXX 29064 68345 16/// /0511 10198 20144 38681 48524 52008 69924 333 20157 91015 555 10275 20002 91020
AAXX 29064 68362 32480 61005 10184 20131 38519 48522 53003 86500 333 20134 91008 555 10286 91020
AAXX 29064 68400 12580 52011 10253 20168 30062 40134 52004 60024 84544 333 20212 91022 555 10290 20022 91013
AAXX 29064 68408 36/// /1407 10169 20149 30155 40163 52007 333 20152 91011 555 10226 91016
AAXX 29064 68416 36/// /1309 10236 20090 39045 48526 52002 333 20180 91016 555 10336 91017
AAXX 29064 68478 NIL
AAXX 29064 68488 16/// /1805 10181 20130 39291 48538 52005 60104 333 20156 91013 555 10209 20100 91018
AAXX 29064 68494 16/// /2005 10191 20172 30036 40168 52008 60024 333 20175 91012 555 10239 20028 91017
AAXX 29064 68524 32986 01107 10224 20090 39082 48540 52003 333 20162 91014 555 10346 91019
AAXX 29064 68546 36/// /2004 10177 20104 38675 48520 52005 333 20101 91009 555 10258 91020
AAXX 29064 68558 NIL
AAXX 29064 68570 12370 80603 10148 20094 38537 48529 52005 60094 888// 333 20118 91006 555 10214 20092 91021
AAXX 29064 68580 16/// /1404 10156 20127 38977 48535 52006 60024 333 20109 91007 555 10199 20028 91020
AAXX 29064 68614 32980 03502 10208 20156 30115 40156 52007 333 20162 91005 555 10323 91015
AAXX 29064 68624 32982 00704 10204 20072 38772 48545 52005 333 20129 91009 555 10284 91022
AAXX 29064 68674 NIL
AAXX 29064 68712 32970 01817 10171 20147 30089 40154 52002 333 20140 91022 555 10212 91015
AAXX 29064 68718 NIL
AAXX 29064 68722 32980 03304 10183 20102 38581 48539 52001 333 20089 91008 555 10278 91022
AAXX 29064 68814 36/// /1813 1//// 2//// 30163 4//// 52006 333 2//// 91015 555 1//// 91017
AAXX 29064 68832 36/// /2902 10154 20098 39233 48546 53002 333 20093 91004 555 10259 91020
AAXX 29064 68916 36/// /0811 10184 20167 39910 40177 52005 333 20175 91022 555 10225 91018
AAXX 29064 68920 NIL
AAXX 29064 68928 36/// /0402 10211 20163 30028 40187 52005 333 20190 91005 555 10256 91019
AAXX 29061 31825 41699 83201 11085 21118 39999 40213 57009 70271 82531
AAXX 29061 31845 42999 32801 11164 21215 30091 40266 57010 82031
AAXX 29061 31878 41962 83202 11190 21231 30159 40294 55005 77172 8801/
AAXX 29061 31915 42999 83004 11141 21212 30010 40291 56005 80005
AAXX 29061 31921 41598 83306 11144 21195 30186 40291 56007 78582 84921
AAXX 29061 31969 42997 03007 11097 21225 30233 40285 57010 333 91015 91117
AAXX 29061 31981 41596 83502 11174 21216 30037 40291 55001 78582 889//
AAXX 29061 31987 42998 13509 11156 21247 39984 40261 55006 80001 333 91015 91116
AAXX 29061 32069 42598 71302 11022 21047 30209 40214 57004 87500 333 91003 91109
AAXX 29061 30499 42999 80000 11296 21313 39607 40341 57019 85018
AAXX 29061 30683 42998 80000 11220 21253 39621 40324 57021 82044
AAXX 29061 30695 42998 82701 11273 21305 39961 40335 57027 80006
AAXX 29061 31253 41999 80000 11328 21358 39826 40346 57017 70241 83036
AAXX 29061 31295 42999 52502 11205 21254 39827 40318 57019 82031
AAXX 29061 31348 42999 60101 11172 21185 30053 40260 57010 80001
AAXX 29061 31418 42999 20000 11160 21179 39986 40256 57007 80001
AAXX 29061 31439 42599 70202 11131 21151 30197 40244 57009 86500
AAXX 29061 31442 42999 23003 11179 21248 39943 40322 57016 80001
AAXX 29061 31445 42999 02702 11173 21242 30047 40318 57018
AAXX 29061 31474 42999 62301 11206 21255 39887 40308 57009 80007
AAXX 29061 31521 32999 13101 11220 21261 30018 40336 57009 80001
AAXX 29061 31527 42998 02702 11207 21247 30004 40333 57007
AAXX 29061 31534 42999 30000 11220 21261 39952 40328 57005 80001
AAXX 29061 31587 42998 03001 11195 21244 30190 40349 57009
AAXX 29061 31632 NIL
AAXX 29061 31702 42998 03502 11231 21280 39966 40335 57005
AAXX 29061 31713 42999 82702 11128 21171 30161 40266 53001 8807/
AAXX 29061 31725 41492 80502 11134 21147 30193 40264 53003 78682 889//
AAXX 29061 31801 41998 20000 11161 21212 30019 40260 53001 70271 80002
BBXX 44059 29061 99368 70763 46/// /0104 1//// 90620 333 91205
BBXX 44059 29061 99368 70763 46/// /3604 1//// 40165 90610 333 91205
BBXX 44059 29061 99368 70763 46/// /3604 10053 40164 53009 90600 22200 00101 333 91205
BBXX 44057 29061 99395 70761 46/// /2803 1//// 90620 333 91204
BBXX 44057 29061 99395 70761 46/// /2803 1//// 40159 90610 333 91204
BBXX 44057 29061 99395 70761 46/// /2804 11005 40158 53008 90600 22200 00047 333 91205
BBXX 44058 29061 99376 70763 46/// /3205 1//// 90620 333 91206
BBXX 44058 29061 99376 70763 46/// /3206 1//// 40165 90610 333 91207
BBXX 44058 29061 99376 70763 46/// /3206 10043 40165 51005 90600 22200 00087 10301 70003 333 91207
BBXX 46092 29061 99368 71220 46/// /0203 10119 40250 57003 90557 22200 00121 555 11026 22026
AAXX 29064 68171 NIL
AAXX 29064 68181 NIL
AAXX 29064 68185 NIL
AAXX 29064 68255 NIL
AAXX 29064 68297 NIL
AAXX 29064 68342 NIL
AAXX 29064 68349 NIL
AAXX 29064 68471 NIL
AAXX 29064 68497 NIL
BBXX 46181 29061 99538 71288 46/// /2106 10052 49950 52040 22200 00028 10200 70002 333 91208
BBXX 46181 29061 99538 71288 46/// /2106 10052 49950 52040 22200 00028 10200 70002 333 91208
BBXX 44039 29061 99411 70727 46/// /2912 10001 21065 40098 90553 22200 00086 10603 70016 333 91217
AAXX 29064 68674 NIL
BBXX 46184 29061 99539 71389 46/// /2612 10022 49978 52048 22200 00061 11010 70051 333 91214
AAXX 29064 91723 NIL
AAXX 29064 91759 11598 62204 10269 20248 40064 53018 60041 71526 85862 333 56999 84820
AAXX 29064 91762 11598 62708 10277 20249 40056 53015 60001 70522 82208 333 82820 86276
BBXX 46184 29061 99539 71389 46/// /2612 10022 49978 52048 22200 00061 11010 70051 333 91214
AAXX 29064 41858 31956 00206 10265 20130 30124 40169 70500 333 58006 70000
AAXX 29064 41863 32957 00503 10260 20120 30127 40170 333 58011 70000
AAXX 29064 41895 32957 03601 10249 20120 30147 40170 333 58007 70000
AAXX 29064 41929 31956 01204 10274 20140 30151 40160 70040 333 58008 70000
AAXX 29064 41939 31957 00000 10269 20150 40162 70544 333 58005
AAXX 29064 41958 31440 70302 10256 20160 30151 40153 70522 84570 333 56490 58006 70000 84618 85460
AAXX 29064 41965 31456 70000 10269 20220 30145 40154 70522 81510 333 56990 58000 70000 81618 87460
AAXX 29064 41984 32456 80000 10265 20170 30153 40155 8352/ 333 56999 58006 70000 83618 88458
AAXX 29064 42634 31995 03603 10200 20130 40183 70500 333 58016
AAXX 29064 42647 32996 00205 10234 20057 40181 333 58014
AAXX 29064 42737 32996 00206 10236 20137 40175 333 58009
AAXX 29064 42840 31995 03602 10232 20124 40167 70500 333 58007
AAXX 29064 42909 32997 00206 10264 20094 40167 222// 20000 333 58007
AAXX 29064 42921 32996 10904 10234 20040 40187 80001 333 58009 81075
AAXX 29064 43003 31995 00000 10280 20087 40147 70400 333 58008
AAXX 29064 43014 31996 20904 10252 20134 39503 40144 70040 80001 333 58009 82075
AAXX 29064 43063 32997 60901 10233 20069 39526 40150 80001 333 58010 86070
AAXX 29064 43110 31997 50906 10290 20088 40136 70542 80001 333 58006 85080
AAXX 29064 43117 32997 20903 10290 20031 40129 80001 333 58006
AAXX 29064 43192 31996 20202 10284 20123 40130 70500 80002 333 58005
AAXX 29061 24856 42997 00103 11404 21432 30130 40310 53001
AAXX 29061 30679 NIL
AAXX 29061 30686 42999 80000 11274 21312 39929 40343 57025 85032
AAXX 29061 30961 42999 51903 11232 21257 39525 40388 58021 80005
AAXX 29061 30971 42999 32601 11168 21237 39312 40358 58023 80001
AAXX 29061 30978 42999 41603 11281 21319 39671 40436 57023 80002
AAXX 29061 31513 42999 33401 11199 21240 30087 40332 57014 80001
AAXX 29061 31624 NIL
AAXX 29061 31832 41998 32901 11169 21203 30187 40279 57005 72271 80001
AAXX 29061 31913 43/// /3304 11160 21191 30167 40293 55003
AAXX 29061 32128 41598 71001 11010 21036 30118 40170 56015 78582 87300 333 91005 91105
AAXX 29061 38933 31995 01801 10024 20005 39801 40332 53006 74440 333 21030
AAXX 29064 43086 32597 70203 10266 20134 39964 40141 81530 333 58006
AAXX 29064 43128 32997 20000 10260 20128 39536 40139 80001 333 58013 82070
AAXX 29064 43150 31496 70522 10270 20210 30062 40137 70522 83532 333 58009 83615 85360
AAXX 29064 43185 32597 70908 10290 20206 30113 40116 83531 333 58001 83620 85360
AAXX 29064 43189 32597 40506 10294 20220 30116 40125 81532 333 58008
AAXX 29064 43198 32996 30508 10252 20041 39307 40122 80001 333 58007 83075
AAXX 29064 43201 32997 30903 10282 20120 39405 40110 80001 333 58003 83075
AAXX 29064 43213 32997 43602 10264 20109 39812 40128 82032 333 58007
AAXX 29064 43226 32597 10905 10304 20089 30103 40132 81500 333 58013
AAXX 29064 43233 32997 20203 10260 20037 39318 40119 80002 333 58003
AAXX 29064 43237 32597 50000 10276 20075 39735 40125 82501 333 59001 82620 83075
AAXX 29064 43245 32597 83204 10246 20213 30083 40110 83477 333 59004
AAXX 29064 43279 21496 83410 10224 20209 30066 40084 76055 8592/ 333 5689/ 57912 57922 59029 6001/ 84615 81925 88458
AAXX 29064 43284 32996 30704 10298 20152 39996 40110 80001 333 59006 83075
AAXX 29064 43295 32997 30503 10260 20092 39098 48514 80001 333 59009 83075
AAXX 29064 43311 32597 53605 10310 20229 40121 83401 333 59011 82620 83075
AAXX 29064 43314 32597 52302 10288 20200 40113 83101 333 59009
AAXX 29064 43321 31896 50203 10296 20136 39664 40103 70522 81031 333 59017
AAXX 29064 43329 32597 83404 10260 20163 30063 40076 8457/ 333 59030
AAXX 29064 43344 31596 62910 10284 20137 39997 40096 70522 82531 333 59019 82620 85360
AAXX 29064 43346 21496 82905 10250 20166 30070 40077 75052 8457/ 333 59025 6990/ 84618 86458
AAXX 29064 43353 31496 63204 10292 20224 40116 70522 82571 333 56699 59008 82614 85458
AAXX 29064 43369 32597 53206 10302 20223 40127 83430 333 59002 83620 85360
AAXX 29064 43371 32597 62703 10290 20229 30043 40115 83802 333 59003 82620 86075
BBXX 3FMH7 29064 99324 71789 41598 61714 00/// 10190 20159 40183 50001 70322 8685/ 9//// 22262 00190 1//// 20502 331// 41308 5//// 6//// 80170
BBXX DCLH2 29060 99300 71675 41/98 32312 10215 20200 40200 54000 70111 83/// 22263 06220 2//// 3//// 4//// 5//// 80205
BBXX 46004 29061 99509 71361 46/// /2711 10045 40057 52038 22200 00074 11213 70063 333 91214
AAXX 29061 56671 32780 21803 10170 21007 38210 57033 82100 333 00000 20036
AAXX 29061 57378 31930 83403 10061 20014 40303 57026 71000 8807/ 333 20031
AAXX 29061 57426 31756 80000 10073 20043 40276 57021 71000 885// 333 00151 20058
AAXX 29061 57476 32960 80203 10072 21003 40297 57023 8807/ 333 20059
AAXX 29061 57584 31956 83604 10072 20011 40287 57023 71000 8807/ 333 20063
AAXX 29061 57598 11760 83602 10092 20009 40277 57018 69901 70060 885// 333 20066
AAXX 29061 57655 32960 80401 10085 21019 40286 57019 8807/ 333 20073
AAXX 29061 57713 NIL
AAXX 29061 57776 11/00 90206 11004 21008 40279 57020 60041 76664 333 21014 93430
AAXX 29061 58321 31615 80704 10085 20045 40310 57021 71040 885// 333 20015
AAXX 29061 58437 31/00 91402 11007 21007 38190 57015 74544 333 21011
AAXX 29061 58445 NIL
AAXX 29061 58556 32665 80203 10102 20048 40275 57016 885// 333 20086
AAXX 29061 58569 32465 80403 10107 20057 40266 57017 8117/ 333 20098
AAXX 29061 58646 11640 80701 10102 20083 40260 57020 60031 76060 885// 333 20101
AAXX 29061 58653 NIL
AAXX 29061 58660 NIL
AAXX 29061 58715 11730 83603 10067 20047 40269 57015 60021 76060 8257/ 333 20066
AAXX 29061 58730 11350 82501 10104 20092 40250 57017 60021 76060 885// 333 20103
AAXX 29061 58731 11256 80000 10090 20078 40251 57020 60021 76060 885// 333 20090
AAXX 29061 58754 32962 83602 10130 20070 40253 57017 8807/ 333 20112
AAXX 29061 58911 11556 82501 10107 20090 40231 57025 60011 76060 885// 333 20099
AAXX 29061 58931 11/00 92703 10084 20080 38388 57016 60021 76064 333 20046
AAXX 29061 59254 11750 83602 10163 20102 40214 57023 69901 72160 885// 333 20146
AAXX 29061 59632 31758 73403 10202 20089 40197 57028 70500 875// 333 20148
AAXX 29061 59855 32576 60702 10243 20166 40176 57031 86100 333 20181
BBXX 46004 29061 99509 71361 46/// /2711 10045 40057 52038 22200 00074 11213 70063 333 91214
AAXX 29064 87467 32970 20907 10164 20143 39989 40120 58013 80005 333 56006 82270
AAXX 29061 45032 36/// /1003 10243 20116 30167 40184 57001
AAXX 29061 45035 36/// /3503 10215 20142 30141 40183 57001
AAXX 29061 45039 36/// /0303 10214 20136 30169 40183 57001
AAXX 29061 45044 36/// /1209 10195 20133 30091 40185 57002
AAXX 29061 45032 36/// /1003 10243 20116 30167 40184 57001
AAXX 29061 45035 36/// /3503 10215 20142 30141 40183 57001
AAXX 29061 45039 36/// /0303 10214 20136 30169 40183 57001
AAXX 29061 45044 36/// /1209 10195 20133 30091 40185 57002
AAXX 29064 71283 16/// /3604 11113 21119 60001 333 11051 21131 70009
AAXX 29064 71500 16/// /1704 11034 21089 60001 333 11015 21075 70000
AAXX 29064 71504 16/// ///// 11043 21082 60001 333 11001 21122 70000
AAXX 29064 71541 16/// /1806 11020 21058 60001 333 11016 21103 70004
AAXX 29064 71543 16/// /0303 11100 21104 60001 333 11049 21143 70005
AAXX 29064 71546 16/// /1804 11039 21055 60001 333 11022 21080 70004
AAXX 29064 71547 16/// /0000 11080 21089 60001 333 11043 21091 70000
AAXX 29064 71549 16/// ///// 11069 21102 60001 333 11038 21107 7////
AAXX 29064 71761 16/// ///// 11108 21118 60001 333 11043 21121 70024
AAXX 29064 71788 16/// /1911 10050 21008 60001 333 10124 20009 70000 555 32545 40203
AAXX 29064 71792 46/// ///// 11083 21093 6///1 333 10012 21128 7////
AAXX 29064 71359 16/// /1403 11091 21098 60001 333 11034 21107 70005
AAXX 29064 71888 16/// ///// 11085 21096 60001 333 11030 21114 70006
AAXX 29064 71895 16/// ///// 11075 21098 60001 333 11023 21124 70000
BBXX 46232 29061 99325 71174 46/// ///// 1//// 90608 22200 00144 11302 21002 328// 41302 70012
BBXX 46247 29061 99378 71228 46/// ///// 1//// 90621 22200 00114 11304 20902 328// 41303 70021
BBXX 46246 29061 99500 71451 46/// ///// 1//// 90629 22200 00069 11411 20806 325// 41409 70055
AAXX 29064 71221 16/// /0202 11084 21089 60001 333 11044 21117 70004
AAXX 29064 71229 46/// /3001 11152 21167 6///1 333 11048 21163 7//// 555 10010
AAXX 29064 71461 16/// /1205 11039 21059 60001 333 11026 21102 70000
AAXX 29064 71468 16/// /1318 11087 21091 39757 40088 57022 60001 333 21183 7////
AAXX 29064 71483 16/// ///// 11109 21124 60001 333 11021 21123 70007
AAXX 29064 71010 16/// /1703 11061 21078 60001 333 11017 21097 70005 555 31821 40041
AAXX 29064 71011 16/// ///// 11030 21064 60001 333 10009 21086 70000
AAXX 29064 71024 16/// /0804 11097 21102 60001 333 11096 21222 70000
AAXX 29064 71405 16/// ///// 11100 21115 60001 333 11031 21118 70000
AAXX 29064 71417 16/// /1206 11002 21004 39867 49901 58082 60001 333 10020 21003 70000
AAXX 29064 71426 46/// /3036 11096 6///1 333 10014 21098 7//// 555 33147 40233
AAXX 29064 71673 16/// ///// 11057 21082 60001 333 11019 21134 70000
AAXX 29064 71690 17/// ///// 11088 21099 69941 7//4/ 333 11028 21123 70004
AAXX 29064 71067 16/// ///// 11079 21113 60001 333 11038 21124 70004
BBXX 46246 29061 99500 71451 46/// ///// 1//// 90559 22200 00069 11411 20906 325// 41409 70056
AAXX 29064 71283 16/// /3604 11113 21119 60001 333 11051 21131 70009
AAXX 29064 71888 16/// ///// 11085 21096 60001 333 11030 21114 70006
AAXX 29064 71895 16/// ///// 11075 21098 60001 333 11023 21124 70000
AAXX 29064 71359 16/// /1403 11091 21098 60001 333 11034 21107 70005
AAXX 29064 71461 16/// /1205 11039 21059 60001 333 11026 21102 70000
AAXX 29064 71468 16/// /1318 11087 21091 39757 40088 57022 60001 333 21183 7////
AAXX 29064 71483 16/// ///// 11109 21124 60001 333 11021 21123 70007
AAXX 29064 71221 16/// /0202 11084 21089 60001 333 11044 21117 70004
AAXX 29064 71229 46/// /3001 11152 21167 6///1 333 11048 21163 7//// 555 10010
AAXX 29064 71761 16/// ///// 11108 21118 60001 333 11043 21121 70024
AAXX 29064 71788 16/// /1911 10050 21008 60001 333 10124 20009 70000 555 32545 40203
AAXX 29064 71792 46/// ///// 11083 21093 6///1 333 10012 21128 7////
AAXX 29064 71067 16/// ///// 11079 21113 60001 333 11038 21124 70004
AAXX 29064 71500 16/// /1704 11034 21089 60001 333 11015 21075 70000
AAXX 29064 71504 16/// ///// 11043 21082 60001 333 11001 21122 70000
AAXX 29064 71541 16/// /1806 11020 21058 60001 333 11016 21103 70004
AAXX 29064 71543 16/// /0303 11100 21104 60001 333 11049 21143 70005
AAXX 29064 71546 16/// /1804 11039 21055 60001 333 11022 21080 70004
AAXX 29064 71547 16/// /0000 11080 21089 60001 333 11043 21091 70000
AAXX 29064 71549 16/// ///// 11069 21102 60001 333 11038 21107 7////
AAXX 29064 71010 16/// /1703 11061 21078 60001 333 11017 21097 70005 555 31821 40041
AAXX 29064 71011 16/// ///// 11030 21064 60001 333 10009 21086 70000
AAXX 29064 71024 16/// /0804 11097 21102 60001 333 11096 21222 70000
AAXX 29064 71405 16/// ///// 11100 21115 60001 333 11031 21118 70000
AAXX 29064 71417 16/// /1206 11002 21004 39867 49901 58082 60001 333 10020 21003 70000
AAXX 29064 71426 46/// /3036 11096 6///1 333 10014 21098 7//// 555 33147 40233
AAXX 29064 71673 16/// ///// 11057 21082 60001 333 11019 21134 70000
AAXX 29064 71690 17/// ///// 11088 21099 69941 7//4/ 333 11028 21123 70004
BBXX 46146 29061 99493 71237 46/// /1102 10096 40029 52038 22200 00079 10400 70002 333 91203
AAXX 29061 38599 31295 80808 10016 20002 39785 40315 50005 71011 86502 333 21024 82706 83626
AAXX 29061 38599 31295 80808 10016 20002 39785 40315 50005 71011 86502 333 21024 82706 83626
AAXX 29061 56144 32980 01602 10047 21176 36869 57047 333 00200 21094
AAXX 29061 56152 32780 12506 10022 21234 36314 57027 81100 333 00200 21187
AAXX 29061 56167 32980 01801 10070 21164 37093 57051 333 00300 21115
AAXX 29061 56182 32680 60000 10079 21109 37182 57048 85102 333 00101 21084
AAXX 29061 56357 32980 01602 10061 21203 36453 57034 333 00101 21137
AAXX 29061 56586 31457 82701 10034 21008 38073 57029 71000 885// 333 00201 21010
AAXX 29061 56748 32580 12204 10173 20046 38374 57032 81100 333 00001 20047
AAXX 29061 56763 32680 11104 10234 20034 40111 57040 81100 333 05202 20106
AAXX 29061 56768 32680 12905 10168 20000 38190 57031 81100 333 05204 20068
AAXX 29061 56838 31675 22501 10226 20117 40174 57033 70040 82200 333 00002 20133
AAXX 29061 56886 32680 12208 10188 20056 38298 57035 81100 333 05205 20059
AAXX 29061 56946 31680 21101 10223 20095 40163 57035 70040 82400 333 05106 20131
AAXX 29061 56959 32668 71801 10222 20160 40170 57036 87800 333 05204 20154
AAXX 29061 56969 32765 83601 10205 20153 40180 57029 885// 333 05201 20152
AAXX 29061 57731 32765 80000 10083 20005 40271 57027 885// 333 00001 20067
AAXX 29061 57766 11458 83201 10055 20032 40285 57023 60011 72166 885// 333 20048
AAXX 29061 57845 11758 83402 10047 20027 40275 57022 60021 76066 885// 333 20045
AAXX 29061 57853 11430 83602 10048 20022 40287 57023 60021 72166 8772/ 333 20041
AAXX 29061 57916 32664 82501 10124 20056 40240 57032 885// 333 00151 20101
AAXX 29061 57922 11664 83402 10067 20014 40257 57027 69901 70060 885// 333 00151 20026
AAXX 29061 57932 11339 82001 10076 20044 40270 57026 69951 71060 885// 333 00153 20062
AAXX 29061 58338 31960 80704 10098 20044 40288 57023 70040 8807/ 333 20027
AAXX 29061 59007 32665 80402 10091 20060 40209 57026 885// 333 20072
AAXX 29061 59046 11456 83601 10089 20081 40246 57024 69941 76060 885// 333 20086
AAXX 29061 59058 11430 83202 10093 20058 40242 57019 69921 76060 885// 333 20091
AAXX 29061 59072 11715 83604 10071 20071 40253 57016 60031 76066 885// 333 20071
AAXX 29061 59087 32760 70703 10194 20068 40208 57029 875// 333 20144
AAXX 29061 59209 11462 80201 10111 20083 40212 57028 69901 76060 887// 333 20105
AAXX 29064 94996 41260 83512 10213 20196 39872 40006 55001 78082 882// 90630
AAXX 29064 94996 41260 83512 10213 20196 39872 40006 55001 78082 882// 90630
AAXX 29061 23219 32998 71102 11152 21172 39777 49886 52007 87030 333 47043
BBXX 46146 29061 99493 71237 46/// /1102 10096 40029 52038 22200 00079 10400 70002 333 91203
BBXX 44060 29061 99413 70721 46/// ///12 11007 40080 90630 22200 00090 333 91215 555 11129 22134
BBXX 46243 29061 99462 71241 46/// ///// 1//// 90629 22200 00082 11208 21006 325// 41205 70041
BBXX 46236 29061 99368 71219 46/// ///// 1//// 90620 22200 00122 11304 21002 328// 41303 70020
BBXX 46229 29061 99438 71246 46/// ///// 1//// 90621 22200 00092 11208 21006 328// 41206 70042
BBXX 46225 29061 99329 71174 46/// ///// 1//// 90614 22200 00150 11302 21001 327// 41301 70008
BBXX 46213 29061 99403 71247 46/// ///// 1//// 90624 22200 00108 11307 21004 330// 41306 70035
BBXX 46215 29061 99352 71209 46/// ///// 1//// 90608 22200 00147 11303 21002 326// 41302 70017
AAXX 29061 01415 16/// /2815 10054 20031 39852 49863 50003 6//// 333 20049 70129 91128
BBXX CFO383 29064 99439 70602 47997 /2427 10074 2003/ 49904 5//// 700// 8/ 22200 0//// 1//// 2//// 3//// 70// 80052 333 91039
BBXX 42362 29061 99278 70907 46/// /1604 10194 20117 40190 90630
BBXX 42364 29061 99291 70881 46/// /1403 10167 20100 40203 90630
BBXX 42361 29061 99276 70925 46/// ///04 10194 20100 40180 56010 90630 555 11036 22038
BBXX 41110 29061 99341 70777 46/// ///// 1//// 90621 22200 00136 11701 20701 311// 41701 70006
BBXX 42099 29061 99273 70842 46/// ///// 1//// 90627 22200 00233 10702 20702 70008
BBXX 41113 29061 99284 70805 46/// ///// 1//// 90621 22200 00217 10901 20901 70004
BBXX 41112 29061 99307 70813 46/// ///// 1//// 90621 22200 00166 10201 20201 70004
BBXX CFO383 29064 99439 70602 47997 /2427 10074 2003/ 49904 5//// 700// 8/ 22200 0//// 1//// 2//// 3//// 70// 80052 333 91039
BBXX 42013 29061 99272 70829 46/// ///// 1//// 40207 90540 22200 00204
AAXX 29064 60555 12970 00000 10037 20011 40264 54000 60002 333 00000 20035
BBXX 44258 29061 99445 70634 46/// /2513 10052 49878 52015 22200 00059 11007 70036 333 91216
AAXX 29064 16294 12997 00602 10088 20046 30039 40236 56011 60002 333 20086 30/// 55/// 2//// 555 0////
BBXX MINUK05 2906/ 99571 70021 46/// ///// 10033 40061 54000
BBXX MINUK01 2906/ 99572 70019 46/// ///// 10050 40047 52049
BBXX 44258 29061 99445 70634 46/// /2513 10052 49878 52015 22200 00059 11007 70036 333 91216
AAXX 29064 97014 01559 62902 10274 20250 30000 40093 57015 60041 72162 83271 333 56600 57863 60047 83820 80858
AAXX 29064 97028 97028 01462 80000 10282 20230 30084 40090 56021 60071 76062 85521 333 56000 69977 85618 87459
AAXX 29064 97048 31465 63505 10290 20290 20238 30051 40075 57020 71622 84972 333 56800 57901 57801 81917 83817 80980 80860
AAXX 29064 97072 NIL
AAXX 29064 97086 01458 71707 10306 20260 30060 40085 56013 69901 72162 84570 333 56000 69907 84617 86460
AAXX 29064 97096 32460 60406 10300 20242 30069 40090 57028 83271 333 56000 57802 82818 84360 80860
AAXX 29064 97120 01456 80000 10256 20247 30055 40088 57018 60271 76166 8487/ 333 56609 57861 60037 82818 88459 80860
AAXX 29064 97146 01440 70000 10270 20244 30008 40069 57025 60011 79596 84971 333 56000 57901 57801 60017 81913 82814 80980 80859
AAXX 29064 97180 01450 82304 10257 20257 30076 40094 58017 60061 76166 8227/ 333 56009 60057 82819 88459
AAXX 29064 97192 01462 71903 10276 20248 30041 40098 57025 60051 72162 83520 333 56000 60017 83616 87460
AAXX 29064 97230 32465 72812 10300 20234 30080 40087 57020 82231 333 56600 57864 82817 80859
AAXX 29064 97260 01420 71211 10280 20231 30065 40072 57012 69901 79596 86971 56000 57901 69907 81918 80980 85618
AAXX 29064 97270 01410 80000 10244 20244 30081 40086 55003 60111 79596 86921 333 56009 57900 60117 81913 83815 87460 809//
AAXX 29064 97300 32562 62405 10340 20231 30040 40081 57013 84271 333 56000 57801 84820 80858
AAXX 29064 97340 NIL
AAXX 29064 97372 01450 83104 10240 20234 39964 40085 56002 60211 79196 8597/ 333 56609 60207 81914 85815 88458
AAXX 29064 97430 32460 63214 10290 20234 30052 40082 57017 83232 333 56700 57872 83818 80860
AAXX 29064 97460 32459 70000 10312 20240 30050 40064 57014 83876 333 56000 57801 82818 80858
AAXX 29064 97502 32458 63207 10296 20245 30064 40068 56016 84931 333 56000 57901 81910 84812 80980
AAXX 29064 97530 NIL
AAXX 29064 97560 01460 62604 10284 20255 30052 40067 57021 69941 72598 83866 333 56000 57804 69907 82818 84361 86280 80860
AAXX 29064 97580 32462 70000 10284 20249 30063 40070 56018 84808 333 56000 57802 83814 80860
AAXX 29064 97600 32560 53507 10330 20231 30068 40074 58017 83231 333 56700 57873 83820 85360 80860
AAXX 29064 97686 32462 71511 10266 20159 38310 40042 57021 85843 333 56000 57802 84815 86361 80860
AAXX 29064 97690 32465 42913 10328 20229 39944 40046 57026 82131 333 56000 57803 82816
AAXX 29064 97724 01459 83503 10278 20240 30056 40072 57027 60011 70562 8387/ 333 56709 57873 60017 82817 86459 80850
AAXX 29064 97748 31462 72408 10316 20254 30055 40057 57001 70522 82232 333 56600 57861 82815 85359 80850
AAXX 29064 97760 01457 70000 10252 20246 30066 40075 57018 60111 72166 83932 333 56000 57901 60117 81915 82816 80960
AAXX 29064 97796 31458 70000 10304 20249 30017 40068 57020 70522 87932 333 56000 57903 81911 86612 80980
AAXX 29064 97810 32464 72912 10314 20257 30046 40055 56015 83232 333 56700 57872 83819 85458 80845
AAXX 29064 97876 NIL
AAXX 29064 97900 01467 72809 10312 20266 30031 40060 56019 60011 70262 84870 333 56600 57861 69907 83817 87460 80857
AAXX 29064 97980 NIL
AAXX 29064 96009 32458 60508 10302 20242 30064 40099 57023 83922 333 56000 57903 81917 83817 80965
AAXX 29064 96011 32460 51006 10316 20245 30074 40100 57025 83232 333 56000 57804 82820 80860
AAXX 29064 96035 31456 70306 10316 20229 30069 40107 57025 70521 86976 333 56000 57801 86817 80850
AAXX 29064 96073 32560 73007 10330 20224 30075 40086 56042 83222 333 56000 57802 83820 80860
AAXX 29064 96091 01458 83606 10268 20245 30093 40116 57022 60021 70262 8582/ 333 56800 57882 69957 84817 88460 80860
AAXX 29064 96109 01460 70000 10280 20242 30062 40101 57015 60021 72162 83531 333 56000 60027 83617 85360
AAXX 29064 96145 01430 80112 10260 20236 30104 40106 58011 69901 70562 8552/ 333 56809 69907 85615 88460
AAXX 29064 96147 NIL
AAXX 29064 96163 32560 62504 10304 20248 30098 40095 57017 83521 333 56000 83620
AAXX 29064 96179 01460 73208 10302 20244 30075 40112 57012 69901 70262 85238 333 56700 57872 69907 85817 80840
AAXX 29064 96195 32463 73608 10306 20229 30074 40110 57022 84231 333 56000 57804 84815 80850
AAXX 29064 96221 32460 73010 10307 20236 30086 40101 57019 85231 333 56999 57891 85815 80860
AAXX 29064 96237 01456 73308 10286 20244 30058 40099 57018 60071 72162 84978 333 56000 57902 60077 81918 83816 83360 84280 80980
AAXX 29064 96249 01559 72162 10286 20261 30040 40101 57012 69951 72162 86932 333 56700 57971 57871 69957 81920 85820 80981
AAXX 29064 96253 32560 52808 10319 20227 30063 40083 57015 82832 333 56000 57800 81820 83360 80800
AAXX 29064 96295 32460 73604 10294 20239 30004 40107 56007 85521 333 56000 85614 85462
AAXX 29064 96509 32459 70000 10289 20243 30080 40091 57025 84271 333 56000 57801 84815 80858
AAXX 29064 96581 11358 82708 10285 20257 30081 40088 57022 60021 72996 889// 333 56699 57962 81910 87808 80980 80860
AAXX 29064 96633 32459 62307 10312 20252 30070 40078 57021 83271 333 56000 83818 85460
AAXX 29064 96645 31457 72306 10302 20264 30061 40093 57025 71522 85972 333 56000 57901 57801 81912 85812 80981 80858
AAXX 29064 96655 11458 72511 10292 20237 30083 40118 57015 60061 71562 85572 333 56400 85612
AAXX 29064 96685 NIL
AAXX 29064 96749 32559 73007 10302 20228 30092 40105 58020 83872 333 56000 57853 83823 86462 80859
AAXX 29064 96781 32460 52715 10280 20171 39289 48732 57020 83231 333 56000 57802 83818 80858
AAXX 29064 96805 11562 73006 10308 20225 30098 40107 56018 60051 70262 84221 333 56000 57801 84820 84460 80860
AAXX 29064 96839 31457 73210 10308 20239 30084 40091 57024 71792 84932 333 56000 57901 57802 81919 84820 80980 80862
AAXX 29064 96935 32560 71307 10316 20238 30082 40089 57019 82171 333 56400 82820 87360
AAXX 29064 96001 31557 71008 10302 20275 39967 40115 57020 70522 84272 333 56200 57822 84820 80860
AAXX 29064 96015 32460 22705 10299 20259 30088 40095 58020 81511 333 56000 81620
AAXX 29064 96033 32462 40104 10302 20244 30099 40104 57032 82901 333 56000 57903 57803 81920 82814 80980 80860
AAXX 29064 96075 32462 30205 10307 20249 30092 40097 57018 81211 333 56000 57804 81814 80840
AAXX 29064 96087 32460 80108 10276 20232 30078 40111 56019 81537 333 56800 81615 88280
AAXX 29064 96171 32458 73605 10300 20239 30078 40103 57021 85222 333 56000 57801 85813 80856
AAXX 29064 96207 32562 60000 10280 20208 39241 40163 57006 83531 333 56000 83621
AAXX 29064 96505 NIL
AAXX 29064 96525 32460 71604 10306 20237 30086 40093 57025 85271 333 56300 84815
AAXX 29064 96529 32460 40000 10324 20244 30081 40105 57021 83131 333 56000 83818
AAXX 29064 96535 01450 83004 10262 20257 30078 40099 57014 60361 76166 8622/ 333 56609 57863 60027 86814 88462 80864
AAXX 29064 96557 31460 71709 10324 20234 30034 40084 57026 71422 85971 333 56400 57941 57841 81912 84813 86460 80980 80857
AAXX 29064 96559 31450 71006 10294 20248 30050 40088 57021 71621 86310 333 56200 57922 57822 81914 85812 80973 80857
AAXX 29064 96565 01459 71904 10316 20266 30036 40088 57026 69901 76062 84271 333 56000 57802 69907 84811 85357 80850
AAXX 29064 96595 31462 72607 10320 20256 30046 40098 57031 70522 85532 333 56000 85612
AAXX 29064 96607 32460 82804 10299 20240 30081 40096 57025 85221 333 56000 85814 87460
AAXX 29064 96615 32460 72510 10296 20241 30087 40102 57021 86131 333 56600 57863 86812 80856
AAXX 29064 96695 32457 62404 10288 20235 30079 40084 56017 83221 333 56000 57802 84817 83465 80858
AAXX 29064 96737 32457 80106 10296 20244 30065 40096 58012 85221 333 56000 57801 85817 83460 80860
AAXX 29064 96739 32462 72707 10308 20232 30061 40110 57017 84232 333 56000 57801 83818 80858
AAXX 29064 96741 32560 73203 10304 20238 30100 40104 57015 81572 333 56000 81620 85460
AAXX 29064 96745 01559 80000 10304 20246 30102 40106 57018 69901 70262 8352/ 333 56609 69907 83620 88460
AAXX 29064 96751 12560 82805 10244 20187 39046 48920 57018 69901 83271 333 56600 57862 83820 84460 80875
AAXX 29064 96791 NIL
AAXX 29064 96797 32562 53311 10308 20253 30093 40099 57018 82231 333 56000 57802 82820 80860
AAXX 29064 96837 31559 73109 10310 20252 30104 40107 57017 71792 83972 333 56000 57900 81920 83823
AAXX 29064 96925 32465 82605 10296 20253 30095 40100 57017 84272 333 56600 57860 84817 80860
AAXX 29064 96933 32460 72712 10336 20252 30086 40089 57019 82871 333 56400 57844 82820 85460 80859
AAXX 29064 96937 32560 73309 10341 20244 30083 40088 57017 83171 333 56000 83820
AAXX 29064 96973 32562 62420 10318 20266 30080 40085 57019 83231 333 56000 57803 83820 80850
AAXX 29064 96987 32459 61510 10302 20256 30030 40090 57020 84931 333 56400 57942 91918 83618 80980
AAXX 29064 97008 31458 70103 10292 20252 30073 40084 57008 71522 83272 333 56000 57801 83818 87460 80860
AAXX 29064 97016 01462 72905 10330 20222 30079 40082 57011 69901 72162 84932 333 56000 57901 57801 69907 81918 83820 80982 80859
AAXX 29064 97126 32459 71804 10322 20245 30014 40074 57027 83921 333 56000 57902 81917 82617 87460 80980
AAXX 29064 97142 32560 62703 10320 20244 30053 40067 56023 83231 333 56000 57801 83820 83360 80860
AAXX 29064 97182 NIL
AAXX 29064 97240 01460 62614 10306 20250 39971 40086 57022 69901 70562 85931 333 56000 57901 69907 91915 84816 80980
AAXX 29064 97284 01458 70000 10234 20207 38853 40091 57019 69901 79596 85921 333 56000 57901 69907 82910 84812 80959
AAXX 29064 97310 32568 71806 10298 20260 30076 40064 57007 83221 333 56000 57802 83820 84460 80830
AAXX 29064 97320 32565 50209 10323 20262 30055 40068 57017 83201 333 56000 57801 83820 83080 80850
AAXX 29064 97378 01570 70000 10298 20263 39912 40075 56021 60221 72996 84971 333 56000 60117 81920 83820
AAXX 29064 97380 32564 42708 10324 20263 30048 40068 57018 83131 333 56000 83820
AAXX 29064 97406 32460 62907 10300 20239 30049 40074 57011 83231 333 56600 57820 84360 80860
AAXX 29064 97570 NIL
AAXX 29064 97630 NIL
AAXX 29064 97682 32462 73304 10305 20260 30049 40056 57024 84871 333 56000 57801 84815 87362 80860
AAXX 29064 97698 01464 73509 10308 20247 30059 40066 57017 60021 71662 86942 333 56000 57902 57801 60027 83916 83818 85077 80961 80878
AAXX 29064 97700 11458 63404 10296 20253 30054 40069 58019 60281 70562 83872 333 56000 57803 82817 84358 80850
AAXX 29064 97722 01461 71103 10306 20251 30061 40076 57013 69951 70262 85870 333 56600 57861 69957 83817 80857
AAXX 29064 97780 NIL
AAXX 29064 97790 11564 42811 10304 20238 30026 40047 57021 69901 70181 333 56600 57862 81820 80858
AAXX 29061 98134 31562 80906 10232 20178 39972 40164 58028 70242 8327/ 333 56299 83820 88357
AAXX 29061 98223 NIL
AAXX 29061 98232 NIL
AAXX 29061 98325 31462 53403 10320 20255 40111 57027 70544 82270 333 56999 82816 83358
AAXX 29061 98328 31460 70000 10244 20191 38526 40091 57021 74044 87500 333 56999 87613 98430 11458 61401 10296 20246 40105 57002 69941 78084 84970 333 56999 82918 86358 98223 31565 23203 10316 20230 40107 57034 70544 81160 333 56999 81820
AAXX 29061 98330 31475 50403 10316 20262 30084 40116 57026 70544 85200 333 56999 85818
AAXX 29061 98336 11464 80403 10250 20249 30140 40145 57022 60181 76166 8452/ 333 56199 84615 88456
AAXX 29061 98429 31560 51206 10302 20245 40104 57029 70544 83930 333 56999 81923 83825 83360
AAXX 29061 98430 NIL
AAXX 29061 98431 31465 70902 10285 20238 30067 40114 58022 70544 82250 333 56999 82818 86359
AAXX 29061 98440 11468 80906 10281 20225 30120 40125 58018 60011 71584 8527/ 333 56299 85815 88357
AAXX 29061 98444 11458 80903 10285 20252 30096 40115 58024 60021 78082 84377 333 56199 83918 83360 88270
AAXX 29061 98526 32570 81803 10321 20271 40106 58021 81107 333 56299 81820 88274 98315
AAXX 29061 98531 31570 60301 10320 20256 30105 40109 56018 70544 81232 333 56199 81820 84358 86075
AAXX 29061 98536 11470 40402 10270 20241 39961 70584 222// 20000 333 56199 82818
AAXX 29061 98543 32480 50000 10305 20257 30103 40114 57013 82201 333 56199 82818 84075
AAXX 29061 98550 11460 50701 10284 20252 40107 57024 60041 72581 83962 333 56199 81915
AAXX 29061 98618 32480 50905 10302 20247 40108 58012 82201 333 56999 82819 85075
AAXX 29061 98630 32575 30203 10304 20257 40129 58009 82201 222// 2//02 333 56199 82820
AAXX 29061 98637 NIL
AAXX 29061 98646 32560 60605 10296 20253 30105 40133 58017 82230 333 56199 82820 85360
AAXX 29061 98653 11465 70000 10280 20254 30050 40095 57015 60071 72584 82272 333 56999 82818 84358
AAXX 29061 98741 31470 60403 10302 20258 40094 57018 70544 82908 333 56199 82917 86275
AAXX 29061 98747 NIL
AAXX 29061 98753 31468 63603 10317 20262 40089 57029 70544 84932 333 56899 81915 83816
AAXX 29061 98755 11575 73601 10290 20253 40097 58025 60051 70182 83208 333 56199 83820 87279
AAXX 29061 98836 31462 41802 10318 20256 40101 57019 70542 82201 333 56199 82818
BBXX 46036 29061 99484 71339 46/// /2608 10065 40108 52034 22200 00080 11210 70048 333 91211
BBXX 46036 29061 99484 71339 46/// /2608 10065 40108 52034 22200 00080 11210 70048 333 91211
AAXX 29064 60563 12660 50110 10022 20017 39356 48538 53012 60004 85200 333 05200 20012 85830
AAXX 29064 41407 42965 00606 10146 20022 39002 48549 333 20068 30/// 58002
AAXX 29064 41915 31957 00902 10270 20150 30139 40184 70240 333 58007 70000
AAXX 29064 41926 32958 03602 10256 20130 30151 40165 333 58008 70000
AAXX 29064 41941 32956 00000 10277 20170 30152 40157 333 58002 70000
AAXX 29064 41964 32456 60602 10270 20210 30167 40169 83520 333 56990 58003 70000 83618 85459
BBXX 62303 29064 99516 70051 46/// /2629 10101 20056 40260 58026 22200 00112 10607 70035 333 90710 91142
BBXX 62105 29064 99554 70121 46/// /2836 10100 20069 40158 55017 22200 00106 10915 70075 333 90710 91149
BBXX PJGO 29064 99571 10022 47/97 /2934 10062 20013 40016 52013 700// 22200
BBXX 63110 29064 99595 10015 47597 /3042 10047 20037 49905 52034 700// 22200 10916 70081
BBXX 63055 29064 99606 10016 47693 /2938 10047 20026 49863 52050 730// 22200 11016 70079
BBXX 63106 29064 99610 10017 46/// /3143 10050 49828 52045 22200
BBXX 63105 29064 99610 10017 47496 ///// 10062 20025 49829 52051 751// 22200
BBXX 62094 29064 99517 70067 46/// /2628 10098 20056 40270 57028 22200 00106 10607 70037 333 90710 91138
BBXX 62103 29064 99499 70029 46/98 /2827 10098 20036 40302 58007 22200 00117 10805 70026 333 90710 91137
BBXX ZCBF3 29063 99438 70334 41297 71730 10160 20160 40266 7//// 8/624 22224 20105 317// 40206 5//// 80160
AAXX 29061 20046 11997 83608 11159 21172 39822 49854 52008 69940 77172 8802/ 333 21152
AAXX 29061 20069 41558 71510 11061 21080 39834 49847 57008 73832 875// 333 87620 91113
AAXX 29061 20087 41497 71709 11135 21155 39919 49930 58001 77173 875// 333 87612
AAXX 29061 20292 41395 82211 11170 21189 39980 40000 53003 73873 8577/ 333 91114
AAXX 29061 20353 46/// /1510 11070 21099 39815 49818 52001 333 91112
AAXX 29061 20667 31996 81609 11125 21145 39854 49861 52001 73832 8805/ 333 21137
AAXX 29061 20674 41495 72012 11131 21144 39876 49937 57001 73832 8555/ 333 85611 91116
AAXX 29061 20744 11598 70303 11043 21062 39786 49803 52013 69900 70272 87500 333 21075 87629
AAXX 29061 20891 42998 21503 11272 21303 30066 40112 54000 82030 333 91104
AAXX 29061 23022 11597 71911 11111 21131 39781 49842 52002 69900 73632 85530 333 21118 91115
AAXX 29061 23032 31496 81506 11101 21121 39844 49874 52005 78582 86901 333 21140 86916
AAXX 29061 23058 11396 81707 11135 21148 39974 49979 51001 69990 77173 885// 333 21159 87707 91113
AAXX 29061 23242 11496 81709 11126 21146 39925 49941 58003 69900 73832 885// 333 21135 88610 91113
AAXX 29061 23256 11497 81508 11138 21158 39966 40003 57004 69920 78587 883// 333 21148 84913 91112 91113
AAXX 29061 23330 11297 81709 11121 21134 39887 49908 54000 69930 77172 8677/ 333 21122 86705
AAXX 29061 23445 11696 81104 11115 21135 39908 49934 57011 69950 77172 8655/ 333 21140 86642
AAXX 29061 23552 11496 81304 11110 21130 39950 49985 57017 69900 77173 885// 333 21155 88615
AAXX 29061 23631 11497 80403 11109 21122 39841 49882 54000 69950 77172 8351/ 333 21110 83613
AAXX 29061 23662 11499 81104 11111 21131 30000 40045 57016 69930 70272 8557/ 333 21172
AAXX 29061 23724 11999 83303 11127 21140 39815 49881 52017 60030 70272 8801/ 333 21117
AAXX 29061 23734 11996 80502 11086 21097 39755 49847 57009 60020 77172 8802/ 333 21102
AAXX 29061 23849 41496 71605 11037 21055 49911 57008 78588 87900 333 83914
AAXX 29061 23867 11496 81707 11042 21058 39953 40025 57014 69980 77173 8872/ 333 21133 91112
AAXX 29061 23933 11396 81303 11027 21030 39789 49844 57003 60030 78587 8692/ 333 21086 85708
AAXX 29061 28064 11496 81702 11017 21026 39725 49815 52002 60020 77172 8802/ 333 21061
AAXX 29061 28275 11595 81405 11014 21019 39780 49838 57007 60010 78583 889// 333 21023 91113
AAXX 29061 28493 11597 81806 11033 21054 39890 49982 57018 69970 77173 8802/ 333 21062 91012 91114
AAXX 29061 28698 11310 81805 11029 21036 39831 49984 57022 60030 78683 889// 333 21054 84708 91013 91114 92992
AAXX 29064 78318 12565 11303 10189 20167 30175 40179 58005 60001 81800 333 10243 20188 31/// 56900 59004 70017 81820
AAXX 29064 78325 11530 41201 10198 20169 30125 40184 58006 60001 70400 84200 333 10237 20198 30/// 56900 59002 70004 84820
AAXX 29064 78333 12910 00401 10185 20172 30172 40179 58007 60001 333 10271 20181 30/// 59004
AAXX 29064 78348 11456 70000 10211 20197 30124 40176 58009 60001 70522 87800 333 10260 20191 31/// 56900 59008 70023 81819 87630
AAXX 29064 78349 11540 43201 10204 20195 30071 40180 58026 60011 70261 84200 333 10304 20164 31/// 56900 59004 70020 84820
AAXX 29064 78353 12560 10000 10221 20171 30158 40180 58010 60001 81100 333 10283 20191 30/// 56900 59008 81820
AAXX 29064 78360 12/60 10404 10225 20205 30156 40167 56012 60001 81100 333 10306 20217 30/// 56900 59017 818// 92024
AAXX 29061 23426 11964 83502 11117 21130 39873 49898 52003 69950 77172 8802/ 333 21113
AAXX 29061 23625 11999 83101 11124 21137 39849 49883 52012 60080 70272 8802/ 333 21106
AAXX 29061 28076 11496 81602 11018 21020 39774 49844 57003 60020 77173 8672/ 333 21070 93401
AAXX 29061 28367 11596 72502 11016 21030 39698 49824 52008 60020 70272 86330 333 21014
AAXX 29061 28382 11925 81406 11022 21034 39820 49889 57011 60020 77173 8802/ 333 21040 91113
AAXX 29061 28481 11496 81709 11018 21020 39787 49883 57018 60030 77373 8802/ 333 21028 91113
AAXX 29061 28491 11458 81606 11025 21041 39824 49932 57020 60020 77173 8802/ 333 21047 88512 91114
AAXX 29061 28573 11498 81909 11002 21014 39769 49870 57015 60010 73773 886// 333 21025 88712 81012 91114
AAXX 29061 28593 11996 81807 11029 21046 39896 49993 57020 69920 77173 8802/ 333 21062 91013 91114
AAXX 29061 28786 11996 81809 11015 21038 39809 49963 57014 69930 73873 8807/ 333 21042 91012 91116 92990
AAXX 29061 28797 11496 82009 11030 21040 39841 49998 57020 69900 78583 883// 333 21058 88915 91015 91117
AAXX 29061 28799 11/93 91808 11037 21042 39902 40047 57022 69930 73973 333 21073 91014 91116 92992
BBXX 44099 29061 99369 70757 46/// ///// 1//// 90622 22200 00113 11302 21002 307// 41301 70009
BBXX 44022 29061 99409 70737 46/// ///09 11005 21087 40112 90630 22200 00084 333 91212 555 11093 22098
BBXX 44040 29061 99410 70736 46/// /3310 11004 21082 40115 90619 22200 10301 70006 333 91213 555 11113 22118
BBXX 46219 29061 99332 71199 46/// ///// 1//// 90628 22200 00135 11305 20803 329// 41303 70023
BBXX 46224 29061 99332 71175 46/// ///// 1//// 90606 22200 00145 11301 21001 327// 41301 70007
BBXX 46214 29061 99379 71235 46/// ///// 1//// 90623 22200 00114 11305 21003 329// 41304 70025
BBXX 46238 29061 99334 71195 46/// ///// 1//// 90620 22200 00139 11304 20702 329// 41303 70019
BBXX 46239 29061 99363 71221 46/// ///// 1//// 90621 22200 00125 11305 20904 329// 41304 70027
BBXX 51204 29061 99213 71581 46/// ///// 1//// 90622 22200 00243 11803 20602 330// 41802 70015
BBXX 51202 29061 99214 71577 46/// ///// 1//// 90609 22200 00240 10904 20904 307// 41102 70021
BBXX WC5932 29064 99417 70874 43/// /1813 00/// 10024 21028 40110 55033 7//// 8//// 22200 0//// 2//// 3//// 4//// 5//// 6//// 80004 ICE /////
BBXX C6TQ6 29064 99168 70874 41898 31405 10260 20232 40170 70111 8221/ 22232 00270 20204 30505 40204 50102 6//// 80240 ICE /////
BBXX WDJK 29064 99514 71337 41598 32935 10065 20007 40050 52050 70220 8314/ 22233 00070 20806 325// 41207 5//// 6//// 80040 ICE /////
AAXX 29064 63688 32580 20710 10188 20085 48/// 81330 333 58000 81921
AAXX 29064 63708 12580 30000 10224 20162 48506 60124 81930 333 20182 59006 81924 83358
AAXX 29064 63740 11575 60512 10194 20133 48534 69904 8323/ 333 20164 58004 83822 83359
AAXX 29064 63820 12580 70605 10275 20247 40133 60034 872// 333 20252 58004 87822
AAXX 29064 63612 NIL
AAXX 29064 63661 NIL
AAXX 29064 63671 NIL
AAXX 29064 63695 NIL
AAXX 29064 63714 NIL
AAXX 29064 63723 NIL
AAXX 29064 63772 NIL
AAXX 29064 63793 NIL
AAXX 29063 63723 32582 70908 10263 20218 40133 875// 333 20229 58009 87623
AAXX 29063 63793 12480 83608 10243 20227 40119 60074 8553/ 333 20220 58005 82710 84618 88358
BBXX LAVN4 29064 99028 70269 41697 81611 10270 2024/ 40133 54000 70300 8717/ 22213 00260 20502 307// 40802 5//// 6//// 80250 NNNN
BBXX VQIB9 29063 99288 30402 41298 71820 10240 20210 40088 53003 70222 8577/ 22254 00262 20502 306// 40903 5//// 80220
BBXX PFFH 29063 99113 70182 41/98 /3615 10250 40133 56010 7//// 8//// 22233 00255 2////
BBXX A8RV9 29064 99027 50324 41498 11019 10260 20225 40110 58/// 70300 8/18/ 22234 20802 303// 41004 5//// 80235
BBXX TBWUK17 29063 99297 30363 41598 50810 10236 20209 40155 54000 70122 85545 22263 04257 20402 31009 40303 50504 80218
BBXX TBWUK18 29063 99327 30336 41297 81824 10210 20194 40157 54000 70322 887// 2229/ 00250 20502 335// 41204 5//// 80200
BBXX UGOS 29060 99515 11468 41/93 /0000 11020 40226 54000 77371 22283 00010 30500 40803
BBXX UGSN 29061 99514 11409 42598 70307 11037 40240 56008 82501 22200 00015 20202 ICE 20092
BBXX OYCY2 29064 99405 11387 41797 83030 10000 2103/ 40190 51040 77077 8572/ 22253 00130 20608 334// 41106 5//// 6//// 81010 ICE /////
BBXX A8HD5 29061 99277 11221 41297 63510 10165 20099 40240 50010 70322 82778 22214 04140 20403 33500 40603 5//// 80130
BBXX 46036 29061 99484 71339 46/// /2608 10065 40108 52034 22200 00080 11210 70048 333 91211
BBXX 44258 29061 99445 70634 46/// /2513 10052 49878 52015 22200 00059 11007 70036 333 91216
BBXX 42013 29061 99272 70829 46/// ///// 1//// 40207 90540 22200 00204
BBXX 42364 29061 99291 70881 46/// /1403 10167 20100 40203 90630
BBXX 41110 29061 99341 70777 46/// ///// 1//// 90621 22200 00136 11701 20701 311// 41701 70006
BBXX 42362 29061 99278 70907 46/// /1604 10194 20117 40190 90630
BBXX 41112 29061 99307 70813 46/// ///// 1//// 90621 22200 00166 10201 20201 70004
BBXX 41113 29061 99284 70805 46/// ///// 1//// 90621 22200 00217 10901 20901 70004
BBXX 42361 29061 99276 70925 46/// ///04 10194 20100 40180 56010 90630 555 11036 22038
BBXX 42099 29061 99273 70842 46/// ///// 1//// 90627 22200 00233 10702 20702 70008
BBXX CFO383 29064 99439 70602 47997 /2427 10074 2003/ 49904 5//// 700// 8/ 22200 0//// 1//// 2//// 3//// 70// 80052 333 91039
BBXX 46215 29061 99352 71209 46/// ///// 1//// 90608 22200 00147 11303 21002 326// 41302 70017
BBXX 46213 29061 99403 71247 46/// ///// 1//// 90624 22200 00108 11307 21004 330// 41306 70035
BBXX 46225 29061 99329 71174 46/// ///// 1//// 90614 22200 00150 11302 21001 327// 41301 70008
BBXX 46229 29061 99438 71246 46/// ///// 1//// 90621 22200 00092 11208 21006 328// 41206 70042
BBXX 46236 29061 99368 71219 46/// ///// 1//// 90620 22200 00122 11304 21002 328// 41303 70020
BBXX 46243 29061 99462 71241 46/// ///// 1//// 90629 22200 00082 11208 21006 325// 41205 70041
BBXX 44060 29061 99413 70721 46/// ///12 11007 40080 90630 22200 00090 333 91215 555 11129 22134
BBXX 46146 29061 99493 71237 46/// /1102 10096 40029 52038 22200 00079 10400 70002 333 91203
BBXX 46246 29061 99500 71451 46/// ///// 1//// 90629 22200 00069 11411 20806 325// 41409 70055
BBXX 46247 29061 99378 71228 46/// ///// 1//// 90621 22200 00114 11304 20902 328// 41303 70021
BBXX 46232 29061 99325 71174 46/// ///// 1//// 90608 22200 00144 11302 21002 328// 41302 70012
BBXX 46246 29061 99500 71451 46/// ///// 1//// 90559 22200 00069 11411 20906 325// 41409 70056
BBXX 46004 29061 99509 71361 46/// /2711 10045 40057 52038 22200 00074 11213 70063 333 91214
BBXX 46184 29061 99539 71389 46/// /2612 10022 49978 52048 22200 00061 11010 70051 333 91214
BBXX 44039 29061 99411 70727 46/// /2912 10001 21065 40098 90553 22200 00086 10603 70016 333 91217
BBXX 9LD2206 29063 99135 70410 41596 20718 10258 20195 40171 58032 70100 8/100 22262 04265 20502 309// 40703 80215
BBXX 46181 29061 99538 71288 46/// /2106 10052 49950 52040 22200 00028 10200 70002 333 91208
BBXX 44058 29061 99376 70763 46/// /3206 10043 40165 51005 90600 22200 00087 10301 70003 333 91207
BBXX 44059 29061 99368 70763 46/// /3604 1//// 40165 90610 333 91205
BBXX 44058 29061 99376 70763 46/// /3205 1//// 90620 333 91206
BBXX 44057 29061 99395 70761 46/// /2803 1//// 90620 333 91204
BBXX 44059 29061 99368 70763 46/// /0104 1//// 90620 333 91205
BBXX 44058 29061 99376 70763 46/// /3206 1//// 40165 90610 333 91207
BBXX 44057 29061 99395 70761 46/// /2803 1//// 40159 90610 333 91204
BBXX 44059 29061 99368 70763 46/// /3604 10053 40164 53009 90600 22200 00101 333 91205
BBXX 44057 29061 99395 70761 46/// /2804 11005 40158 53008 90600 22200 00047 333 91205
BBXX 46092 29061 99368 71220 46/// /0203 10119 40250 57003 90557 22200 00121 555 11026 22026
BBXX 44043 29061 99392 70764 46/// /3108 1//// 40159 90610 333 91210
BBXX 41010 29061 99289 70785 46/// /3502 10176 40195 90620 22200 00236 10702 20401 300// 40702 70011 333 91203 555 11020 22021
BBXX 44043 29061 99392 70764 46/// /3108 10017 40159 53005 90600 22200 00070 10301 70005 333 91210
BBXX WC5932 29064 99417 70874 43/// /1813 00/// 10024 21028 40110 55033 7//// 8//// 22200 0//// 2//// 3//// 4//// 5//// 6//// 80004 ICE /////
BBXX WZP8164 29064 99466 70847 43/// /1320 11094 2//// 40125 5//// 7//// 8//// 22273 0//// 2//02 3//// 4//// 5//// 6//// 8//// ICE /////
BBXX VQHO7 29064 99004 70376 41/98 /0823 10263 20229 40118 57012 78198 8//// 22234 00280 2//// 3//// 4//// 5//// 80240
BBXX 62141 29063 99493 50591 41/98 /2932 10111 20103 40114 52006 700// 8//// 22200 20504 327// 40603 5//// 80107
BBXX A8MH2 29064 99266 31532 41597 61321 10270 40080 54000 70322 84444 22200 20403 313// 40404 5////
BBXX VROB 29064 99273 31532 46/// /1415 10248 20159 30074 40099 57006 22200 04251 85190
BBXX C6FS9 29064 99346 31347 46/// /1522 10180 20156 30137 40174 57009 22233 04191 85165
BBXX VNAH 29064 99383 31416 46/// /1309 10166 20106 30174 40198 54000 22200 04195 85131
BBXX 9HA2479 29064 99339 31512 46/// /1810 10210 20107 30128 40157 54000 22200 85149
BBXX MINUK01 2906/ 99572 70019 46/// ///// 10050 40047 52049
BBXX MINUK05 2906/ 99571 70021 46/// ///// 10033 40061 54000
BBXX MRGU3 29063 99374 10109 41498 41506 10142 20078 40229 56012 70111 82760 22223 04160 20501 315// 40501 80110
BBXX ZSAF 29064 99702 50025 41599 21524 11033 21073 49807 52005 70111 81540 22251 05014 20000 30000 40000 50000 ICE 0/160
BBXX 41009 29061 99285 70802 46/// /2902 10170 20045 40203 90620 22200 00238 10802 20401 300// 40802 70011 333 91205 555 11021 22022
BBXX 44043 29061 99392 70764 46/// /3108 1//// 90620 333 91209
BBXX 44041 29061 99372 70768 46/// /0101 10028 40192 51005 90600 22200 00085 1//00 70000 333 91202
BBXX 44042 29061 99380 70763 46/// /3406 10035 40169 53010 90600 22200 00083 10201 70004 333 91208
BBXX 44041 29061 99372 70768 46/// /0201 1//// 40194 90610 333 91202
BBXX 44042 29061 99380 70763 46/// /3506 1//// 90620 333 91208
BBXX 44041 29061 99372 70768 46/// /3601 1//// 90620 333 91201
BBXX 44042 29061 99380 70763 46/// /3406 1//// 40168 90610 333 91208
BBXX 44063 29061 99390 70764 46/// /3005 10010 40179 55000 90600 22200 00073 1//00 70002 333 91207
BBXX 44063 29061 99390 70764 46/// /3005 1//// 40180 90610 333 91207
BBXX 44063 29061 99390 70764 46/// /3005 1//// 90620 333 91206
BBXX 44062 29061 99386 70764 46/// /3206 10020 40152 53007 90600 22200 00082 10201 70003 333 91208
BBXX 44062 29061 99386 70764 46/// /3206 1//// 40152 90610 22200 00082 333 91208
BBXX 44062 29061 99386 70764 46/// /3206 1//// 90620 22200 00082 333 91209
BBXX A8JC5 29064 99322 70382 41297 41821 10208 20184 40260 52010 72111 847// 22224 00225 299// 327// 40808 5//// 80192
BBXX DGSE 29063 99348 70753 41498 13122 10127 20002 40162 58008 702// 81100 22215 00230 2//// 80070
BBXX PENR 29064 99152 70607 41597 40224 10265 20213 40169 57015 70200 83245 22254 20501 305// 41003 80230
BBXX ZCDY2 29064 99245 70748 41/98 80612 10233 20201 40174 55009 70322 887// 22274 00250 20302 335// 40202 5////
BBXX 46205 29061 99542 71343 46/// /2914 10028 49957 52065 22200 00071 11213 70064 333 91217
BBXX 46132 29061 99497 71279 46/// /2809 10079 40065 52063 22200 00085 11009 70046 333 91212
BBXX 46206 29061 99488 71260 46/// /2811 10087 40067 52048 22200 00080 11008 70042 333 91214
BBXX WDJK 29064 99514 71337 41598 32935 10065 20007 40050 52050 70220 8314/ 22233 00070 20806 325// 41207 5//// 6//// 80040 ICE /////
BBXX 46185 29061 99524 71298 46/// /2612 10061 40000 52061 22200 00071 11207 70035 333 91214
BBXX C6VG7 29064 99189 70794 41698 40114 10290 2//// 40160 57010 7//// 8449/ 22264 00280 20301 3//// 4//// 5//// 6//// 8//// ICE /////
BBXX 46087 29061 99485 71247 46/// /2609 10099 20087 40064 90620 22200 00082 333 91212 555 11101 22111 30609 42713 60619 257093 259098 257095 249093 249091 254089
BBXX 44033 29061 99441 70690 46/30 /2807 11043 49966 51015 90604 22200 00067 333 91209 555 11086 22089
BBXX 44030 29061 99432 70704 46/// /2814 1//// 40003 51020 90604 22200 00078 10402 70011 333 91217 555 11172 22184
BBXX 44040 29061 99410 70736 46/// /3210 11002 21079 40114 90615 22200 10301 70006 333 91214 555 11118 22124
BBXX 41036 29061 99342 70770 46/// ///// 10118 21002 40182 90620 22200 00161
BBXX C6SE3 29064 99123 70698 41397 20921 10270 20243 40170 54/// 700// 8/8// 22213 00280 2//// 3//// 40304 5//// 6//// 80250 ICE /////
AAXX 29064 71925 11574 23105 11391 21432 30063 40107 53005 69901 77677 82500 333 11354 21392 42021 79999 90983 555 19999 29999
AAXX 29064 63756 32580 60608 10224 20178 38885 48520 8197/ 333 20200 50351 55069 55305 59006 81822 81923 86360
AAXX 29064 63862 11480 70000 10214 20193 38919 48524 60024 75122 8592/ 333 0//51 20200 50371 55064 55300 58000 69977 70022 85619 81920 87457
AAXX 29064 63870 12470 70108 10273 20252 30107 40125 69904 8493/ 333 0//59 20252 50601 55066 55300 59002 84815 81917 86358
AAXX 29064 63932 12580 60610 10210 20164 38325 48521 60024 86900 333 0//19 20170 50171 55059 55300 59001 86823 81924
AAXX 29064 63962 13580 50610 10233 20207 38963 48524 60104 85930 333 0//99 20198 50031 55064 55310 59007 85820 81922
AAXX 29064 63971 32580 50112 10282 20257 39992 40120 85900 333 20248 50401 55098 55310 59002 85820 81921
AAXX 29064 42309 32596 10502 10262 20150 40170 81500 333 58003
AAXX 29064 42410 31996 00506 10244 20162 40183 70500 333 58007
AAXX 29064 42415 32996 03602 10252 20124 40194 333 58003
AAXX 29064 42492 31994 00000 10224 20130 40188 71000 333 58006
AAXX 29064 42587 32996 00902 10200 20104 40182 333 58009
AAXX 29064 42591 31995 03204 10214 20122 40191 70500 333 58008
AAXX 29064 42623 31496 33202 10228 20124 39291 40153 70541 83100 333 58005 83818
AAXX 29064 42701 31995 03603 10226 20113 39437 40164 70500 333 58009
AAXX 29064 42798 31994 40504 10236 20106 40166 70422 84030 333 58008 84360
AAXX 29064 42886 31996 40501 10266 20111 40160 70511 82530 333 58006 82620 83360
AAXX 29064 42971 21495 80209 10248 20205 40159 70562 8552/ 333 58013 6990/
AAXX 29064 71925 11574 23105 11391 21432 30063 40107 53005 69901 77677 82500 333 11354 21392 42021 79999 90983 555 19999 29999
BBXX MDGV9 29064 99337 70090 41/98 30514 10150 20132 40318 54000 70200 83100 22253 10801 70005 80140
AAXX 29064 91723 NIL
AAXX 29064 91964 36/// /0611 10218 20210 40222 52016
AAXX 29061 31152 42997 00000 11412 21444 39874 40346 57016
AAXX 29061 31163 NIL
AAXX 29061 31285 42999 30000 11250 21297 30202 40289 57017 81049
AAXX 29061 31561 41998 81802 11125 21145 30221 40250 55002 70272 83037
AAXX 29061 31683 41995 70201 11051 21058 30153 40229 53001 77372 8802/
AAXX 29061 32010 42998 33002 11156 21183 30194 40246 57005 82031 333 91003 91106
BBXX KS088 29064 99267 70801 43/// /0701 10133 40195 22200 06223
BBXX KS094 29064 99163 70618 43/// /0102 10254 40176 22200 06264
BBXX KS007 29064 99267 70801 43/// ///// 10133 40154 22200
BBXX 7JJA 29064 99321 11357 41797 80105 00 10160 20088 40195 57030 70222 885// 9//// 22200 00210 20000 3 4 5 6//// 80120 ICE /////
BBXX MZUU6 29063 99354 11294 41497 53414 10082 20021 40243 56/// 7//22 8/7// 2229/ 20602 304// 40703 5//// 80054
BBXX OYCY2 29064 99405 11387 41797 83030 10000 21030 40190 51040 77077 8572/ 22253 00130 20608 334// 41106 5//// 6//// 81010 ICE /////
BBXX UGOS 29060 99515 11468 41/93 /0000 11020 40226 54000 77371 22283 00010 30500 40803
BBXX UGSN 29061 99514 11409 42598 70307 11037 40240 56008 82501 22200 00015 20202 ICE 20092
BBXX 44137 29061 99423 70620 46/// /2516 10091 49957 52019 22200 00105 11313 70064 333 91221
BBXX 44137 29061 99423 70620 46/// /2516 10091 49957 52019 22200 00105 11313 70064 333 91221
AAXX 29064 60656 12965 00508 10049 21025 40273 55001 60004 333 00200 20042
AAXX 29064 71923 16/// ///10 11127 21137 39533 49981 51001 60001 333 11127 21213 70000 555 10010
AAXX 29064 71490 16/// /1012 11239 21259 39727 40056 57004 60001 333 11234 21307 70000 555 10010 31119 40231
AAXX 29064 71592 16/// /3102 11311 21342 30127 40141 53017 60001 333 11284 21326 70000
AAXX 29064 71049 16/// /0706 11333 30107 40132 50003 60001 333 11285 21352 70000
AAXX 29064 71963 16/// /0611 11210 21229 39585 49995 51003 60001 333 11187 21242 70000 555 30719 40101
AAXX 29064 71786 46/// /0000 11016 21020 38183 49984 56044 6///1 333 11006 21049 7//// 555 32827 40081
AAXX 29064 71045 17/// /0807 11091 21105 38970 49821 54000 69991 7//4/ 333 11089 21148 70015 555 10030 20015
AAXX 29064 71045 17/// /0807 11091 21105 38970 49821 54000 69991 7//4/ 333 11089 21148 70015 555 10030 20015
AAXX 29064 71490 16/// /1012 11239 21259 39727 40056 57004 60001 333 11234 21307 70000 555 10010 31119 40231
AAXX 29064 71963 16/// /0611 11210 21229 39585 49995 51003 60001 333 11187 21242 70000 555 30719 40101
AAXX 29064 71049 16/// /0706 11333 30107 40132 50003 60001 333 11285 21352 70000
AAXX 29064 71923 16/// ///10 11127 21137 39533 49981 51001 60001 333 11127 21213 70000 555 10010
AAXX 29064 71786 46/// /0000 11016 21020 38183 49984 56044 6///1 333 11006 21049 7//// 555 32827 40081
AAXX 29064 71592 16/// /3102 11311 21342 30127 40141 53017 60001 333 11284 21326 70000
BBXX 44138 29061 99443 70536 46/// /1512 10087 49950 5//// 22200 00093 11005 70025 333 91214
BBXX 44138 29061 99443 70536 46/// /1512 10087 49950 5//// 22200 00093 11005 70025 333 91214
AAXX 29061 38744 42699 40000 11056 21078 38088 48620 52006 82501
AAXX 29064 87453 31765 23611 10222 20123 39632 40101 57013 71700 81970 333 56440 57940 81950
BBXX 46004 29061 99509 71361 46/// /2711 10045 40057 52038 22200 00074 11213 70063 333 91214
BBXX 46036 29061 99484 71339 46/// /2608 10065 40108 52034 22200 00080 11210 70048 333 91211
BBXX 46181 29061 99538 71288 46/// /2106 10052 49950 52040 22200 00028 10200 70002 333 91208
BBXX 46183 29061 99536 71311 46/// /0305 10050 49972 52061 22200 00076 10504 70020 333 91211
BBXX 46185 29061 99524 71298 46/// /2612 10061 40000 52061 22200 00071 11207 70035 333 91214
BBXX 46204 29061 99514 71288 46/// /2210 10072 40027 52062 22200 00082 11211 70056 333 91213
BBXX 46205 29061 99542 71343 46/// /2914 10028 49957 52065 22200 00071 11213 70064 333 91217
BBXX 46206 29061 99488 71260 46/// /2811 10087 40067 52048 22200 00080 11008 70042 333 91214
BBXX WDJK 29064 99514 71337 41598 32935 10065 20007 40050 52050 70220 8314/ 22233 00070 20806 325// 41207 5//// 6//// 80040 ICE /////
AAXX 29061 01271 17884 70902 11009 21027 39773 49794 56011 60002 700// 333 21013 42998 70001 91104
AAXX 29061 01415 17445 82815 10054 20031 39852 49863 50003 6//// 762// 333 20049 70129 91128
AAXX 29064 94290 46/// /0000 10243 30057 40066 53004 90624
AAXX 29061 01025 17/84 00804 11006 21054 39874 49885 56019 69942 700// 333 21016 44003 70075 91108
AAXX 29064 94461 46/// /2604 10355 20000 39406 40058
AAXX 29061 01311 47/68 41302 10037 20028 39746 49806 50002 700// 333 20035 91112
AAXX 29064 94210 35/// /2615 10331 30042 40047 57012
AAXX 29064 94289 46/// /1710 10278 30046 40053 58001 90615
AAXX 29064 94379 46/// /1218 10260 30067 40076 55000 90626
AAXX 29064 94461 46/// /2604 10355 20000 39406 40058
AAXX 29064 94290 46/// /0000 10243 30057 40066 53004 90624
BBXX 41033 29061 99323 70804 46/// /3305 1//// 40193 57009 90600 555 11049 22050
AAXX 29061 55228 32980 00000 11045 21352 36021 57009 333 05201 21188
AAXX 29061 55578 32980 00000 10020 21227 36392 57028 333 00051 21158
AAXX 29061 55664 32980 00903 10026 21250 36019 57024 333 05104 21177
AAXX 29061 55773 32970 02207 10047 21255 36025 57025 333 00004 21187
AAXX 29061 56116 32980 01603 10005 21159 36355 57029 333 00251 21126
AAXX 29061 56137 32980 00000 10054 21192 36807 57043 333 00200 21110
AAXX 29061 56172 32980 02903 10092 21114 37343 57051 333 00201 21078
AAXX 29061 56247 32980 00000 10102 21153 37443 57051 333 00252 21036
AAXX 29061 56312 32980 02003 10079 21114 37109 57037 333 00000 21075
AAXX 29061 56462 32980 01605 10116 21134 37118 57047 333 00252 21076
AAXX 29061 56651 32980 02506 10124 21051 37648 57025 333 05101 20051
AAXX 29061 56691 11462 82501 10010 20000 37789 57026 69901 76066 887// 333 00159 21024 93428
AAXX 29061 56985 32562 10401 10226 20083 38711 40133 57040 81100 333 05207 20115
AAXX 29061 57633 32965 80201 10066 21054 39488 40287 57018 8807/ 333 00253 20054
AAXX 29061 57902 31456 80403 10055 20028 38667 40241 57029 71000 885// 333 00153 20044
AAXX 29061 55279 32980 02207 10000 21353 35701 57017 333 00004 21168
AAXX 29061 55472 32980 03206 10000 21280 35726 57030 333 05204 21191
AAXX 29061 55696 32980 00201 10013 21157 36356 57039 333 00151 21138
AAXX 29061 56079 32780 22705 10030 21161 36677 57022 82100 333 00202 21123
AAXX 29061 56106 32980 02901 11008 21250 36218 57033 333 00251 21177
AAXX 29061 56257 32980 02501 10048 21205 36283 57029 333 00201 21128
AAXX 29061 56374 32980 00905 10024 21064 37423 57034 333 00200 21092
AAXX 29061 56385 31/02 90000 11046 21049 37011 57022 74444 333 00151 21092
AAXX 29061 56954 32580 22001 10216 20140 40169 57036 82100 333 05205 20141
AAXX 29061 56966 32765 11601 10248 20107 40145 57056 81400 333 05507 20128
AAXX 29061 57237 32961 80202 10079 20009 40275 57024 8807/ 333 20047
AAXX 29061 57306 32960 80000 10098 20048 40268 57028 8807/ 333 20064
AAXX 29061 57604 31730 81801 10091 20072 40268 57033 71000 885// 333 20073
AAXX 29061 57707 32470 81101 10038 20012 38537 57026 886// 333 00202 20014
AAXX 29061 57832 32773 80701 10068 21043 39516 40272 57023 885// 333 00200 20047
BBXX 44056 29061 99362 70757 46/// ///// 1//// 90550 22200 00116 11302 21001 307// 41301 70009
AAXX 29064 67017 NIL
AAXX 29064 67020 32582 40000 10295 20240 30091 40118 50005 83902 333 02400 10340 20247 50474 55/// 83820 81920 94976/8 95836/8 555 81640 81073
AAXX 29064 67023 32582 41206 10318 20257 30109 40115 51004 82102 333 02000 10334 20210 50664 55/// 82820 84075
AAXX 29064 67037 32581 6//// 10/// 20/// 30068 40109 5/002 86800 333 0//00 10/// 20/// 50//4 55/// 85820 555 82640
AAXX 29064 67067 31570 3//// 10251 20186 39255 48/// 58005 7101/ 83801 333 0//00 10303 20191 50614 55/// 83823 555 81630 81073
AAXX 29064 67107 NIL
AAXX 29064 67131 32582 43608 10/// 20/// 30087 40092 56003 84800 333 0//00 10/// 20/// 50//4 55/// 84823 555 81640
AAXX 29064 67002 12581 23209 10303 20254 30100 40133 69934 82800 333 20238 58007 82822 92408
AAXX 29064 67004 11580 63606 10280 20252 30121 40136 60474 76066 83860 333 20240 58006 83820 83358 92408
AAXX 29064 67009 32582 50000 10292 20250 30010 40129 51001 85100 333 02100 10322 20220 50404 55060 85820
AAXX 29064 67012 32582 70000 10282 20239 30118 40129 51008 878// 333 0//00 10321 20240 50314 55/// 85820 83640
AAXX 29064 67025 12581 30000 10312 20220 30015 40114 51001 60014 82901 333 0//29 10312 20237 50364 55/// 82820 81920 94963 95813 555 81640 81073
AAXX 29064 67027 11570 60606 10298 20232 30097 40118 55001 69984 70162 84832 333 02112 50274 55096 83820 84360 555 81640 82073
AAXX 29064 67045 NIL
AAXX 29064 67072 11475 53004 10275 20239 30128 40131 50002 60144 71562 85801 333 02303 10303 20247 50284 55/// 82817 84640 92418 555 81075
AAXX 29064 67073 32582 4//// 10312 20238 30087 40113 50002 83802 333 0//00 10327 20256 50//4 55/// 83820 555 81640 82073
AAXX 29064 67083 12582 70000 10217 20176 38744 48518 54001 60034 878// 333 01719 20176 50224 55049 85820 83623= 2,6 67095 32482 50404 10297 20229 30115 40121 56001 85802 333 02200 10326 20226 50254 55/// 84817 555 82633 81073
AAXX 29064 67113 32582 2//// 10296 20230 30/// 40/// 5//// 82200 333 0//00 10318 20246 50374 55/// 82820
AAXX 29064 67117 NIL
AAXX 29064 67137 11475 60000 10243 20194 38890 48496 50000 60144 71022 85232 333 0//19 10286 20176 50224 55/// 85817 555 81360 81073
AAXX 29064 67143 32582 1//// 10/// 20/// 30110 40117 52003 81230 333 0//00 10/// 20/// 50//4 55/// 81820 92438 555 81360
AAXX 29064 67152 12582 3//// 10241 20201 39190 48500 51003 60054 83200 333 01719 10330 20202 50504 55/// 83820
AAXX 29064 67157 32581 1//// 10/// 20/// 30124 40131 58008 81800 333 0//00 10/// 20/// 50//4 55/// 81820 555 81640
AAXX 29064 67161 NIL
AAXX 29064 67197 32582 61204 10288 20230 30085 40095 54001 81802 333 01400 10300 20240 50534 55096 81820 86073 555 81633
AAXX 29064 42971 21495 80209 10248 20205 40159 70562 8552/ 333 58013 6990/ 85618 88459
AAXX 2906/ 48969 NIL
AAXX 2906/ 48962 NIL
AAXX 2906/ 48990 NIL
AAXX 2906/ 48986 NIL
AAXX 2906/ 48995 NIL
AAXX 2906/ 48967 NIL
AAXX 2906/ 48992 NIL
AAXX 2906/ 48965 NIL
AAXX 2906/ 48985 NIL
AAXX 2906/ 48970 NIL
AAXX 2906/ 48991 NIL
AAXX 2906/ 48964 NIL
AAXX 2906/ 48997 NIL
AAXX 2906/ 48968 NIL
AAXX 2906/ 48973 NIL
AAXX 2906/ 48966 NIL
AAXX 2906/ 48983 NIL
AAXX 2906/ 48972 NIL
AAXX 2906/ 48998 NIL
AAXX 2906/ 48993 NIL
AAXX 2906/ 48971 NIL
AAXX 2906/ 48963 NIL
AAXX 2906/ 48987 NIL
AAXX 29064 71277 46/// /1612 11037 21067 6///1 333 11026 21090 7//// 555 31617 40021
AAXX 29064 71981 16/// /0402 10047 21050 60001 333 10097 21084 70000 555 32829 40212
AAXX 29064 71986 16/// /1805 10024 21027 60001 333 10048 21070 70000 555 30924 40131
AAXX 29064 71990 16/// /0605 11199 21220 38269 49889 56007 60001 333 11115 21235 70010
AAXX 29064 71406 17/// /0411 10024 20003 39851 49861 56092 69971 7//4/ 333 10051 20006 70007 555 31129 40062
AAXX 29064 71418 46/// /2432 10048 20041 39737 49768 58051 6///1 333 10062 20022 7//// 555 32448 40063
AAXX 29064 71354 17/// /1804 11088 21102 69951 7//4/ 333 11027 21105 70016 555 31519 40181
AAXX 29061 98223 31565 23203 10316 20230 40107 57034 70544 81160 333 56999 81820
AAXX 29061 98232 31570 80405 10254 20231 40148 58024 71542 8457/ 222// 20105 333 56199 84620 88358
AAXX 29061 98430 11458 61401 10296 20246 40105 57002 69941 78084 84970 333 56999 82918 86358
AAXX 29064 71048 16/// /1502 11066 21077 60001 333 10012 21085 70004
BBXX 42360 29061 99267 70905 46/// /2003 10202 90600 22200 00245 10501 70005 333 91205
AAXX 29064 71981 16/// /0402 10047 21050 60001 333 10097 21084 70000 555 32829 40212
AAXX 29064 71986 16/// /1805 10024 21027 60001 333 10048 21070 70000 555 30924 40131
AAXX 29064 71990 16/// /0605 11199 21220 38269 49889 56007 60001 333 11115 21235 70010
AAXX 29064 71277 46/// /1612 11037 21067 6///1 333 11026 21090 7//// 555 31617 40021
AAXX 29064 71406 17/// /0411 10024 20003 39851 49861 56092 69971 7//4/ 333 10051 20006 70007 555 31129 40062
AAXX 29064 71418 46/// /2432 10048 20041 39737 49768 58051 6///1 333 10062 20022 7//// 555 32448 40063
AAXX 29061 38232 12598 13011 10019 21012 30160 40260 52039 69900 81200 333 20016 91115
AAXX 29061 38001 32597 23208 10023 21014 30293 40263 52029 82500 333 20024
AAXX 29061 38232 12598 13011 10019 21012 30160 40260 52039 69900 81200 333 20016 91115
AAXX 29061 35925 12598 62709 11008 21026 40192 53029 69900 86600 333 21008
AAXX 29064 64560 32260 7//// 10228 20216 39589 40124 8573/ 333 0//00 20217 50204 55/// 59002 83602 85620 87360
AAXX 29064 64510 32260 8//// 10222 20219 3//// 4//// 885// 333 0//00 20222 5///4 55/// 5//// 85703 88613
AAXX 29064 64550 32358 8//// 10235 20215 30/// 40/// 885// 333 0//00 20230 50214 55/// 5//// 84608 88623
AAXX 29064 87395 32965 00510 10204 20131 30098 40142 54000
AAXX 2906/ 89767 46/// ///// 11012 39744 4//// 5////
AAXX 29064 61017 32960 50000 10154 21015 39736 40148 80002 333 00100 20085 50404 55089 59014 85080
AAXX 29064 61024 32960 31204 10121 21035 39574 40147 80002 333 00900 20121 50551 55/// 59008 83080
AAXX 29064 61036 32965 70000 10155 20054 39902 40144 80008 333 01400 20153 50891 50754 55101 59001 87280
AAXX 29064 61043 32960 70606 10165 21040 39693 40136 80008 333 0//00 20160 50831 5///4 55104 59001 87280
AAXX 29064 61045 32965 70000 10150 20000 39633 40135 80008 333 01100 20150 5//// 50654 55100 59007 87280
AAXX 29064 61049 32960 70000 10170 21022 39796 40116 80008 333 01300 20155 50801 50694 55097 59015 87280
AAXX 29064 61052 32960 40204 10152 20011 39890 40150 80002 333 01200 20150 50951 55101 58003 84080
AAXX 29064 61075 32960 53602 10166 20022 39823 40134 80002 333 01400 20163 50621 50514 55102 58000 85080
AAXX 29064 61080 32960 71004 10156 20022 39713 40136 80008 333 01300 20153 50931 50744 55096 59005 87280
AAXX 29064 61090 32960 70000 10174 21022 39622 40134 80008 333 01400 20165 51041 50774 55098 59003 87280
AAXX 29064 61091 32965 70000 10123 20054 39689 40149 80008 333 00900 20120 50521 50394 55087 59007 87280
AAXX 29064 61096 32965 73602 10152 20013 39750 40134 80008 333 01300 20148 50731 50674 55093 59009 87280
AAXX 29064 61099 32960 73610 10195 20010 39893 40122 80008 333 01600 20190 50901 55095 58003 87280
AAXX 29064 89807 46/// /1204 10011 29046 39647 4//// 5//// 90630 333 90700 91105
AAXX 29064 94997 46/// ///// 10054 39796 49811 5////
AAXX 29064 89577 46/// /0604 11316 35824 4//// 5////
AAXX 29061 11880 11562 80000 10007 20007 30076 40253 57008 69902 70252 885// 333 20007 3/000 41998 70001 88623
AAXX 29064 89657 46/// /1320 11029 20001 49779 52008
AAXX 29064 89807 46/// /1204 10011 29046 39647 4//// 5//// 90630 333 90700 91105
AAXX 29064 94997 46/// ///// 10054 39796 49811 5////
BBXX ZCEE2 29064 99180 70759 41598 11107 10269 20196 40150 7//// 8/1// 22273 00281 2//// 3//// 4//// 5//// 80221
BBXX TBWUK34 29063 99110 70185 41698 80510 10247 20217 40146 56010 70322 88/7/ 22244 00290 20300 336// 41001 5//// 80227
BBXX 41053 29061 99185 70661 46/// /1104 10254 40167 90630 333 91205
BBXX 41053 29061 99185 70661 46/// /1104 10255 40167 90620 333 91205
BBXX 41053 29061 99185 70661 46/// /1203 10255 40168 90610 333 91204
BBXX 44024 29061 99423 70659 46/26 /2714 10042 49968 53029 90604 22200 00075 11112 70061 333 91218 555 11177 22188
BBXX 42085 29061 99179 70665 46/// /0505 10259 40164 90630 333 91206
BBXX 42085 29061 99179 70665 46/// /0606 10259 40165 90620 333 91207
BBXX 42085 29061 99179 70665 46/// /0606 10259 40166 90610 333 91208
BBXX VDRV 29064 99442 70868 41/98 32118 10002 2//// 41011 56030 70111 8//// 22213 0//// 20302 3//// 4//// 5//// 6//// 8//// ICE /////
BBXX ONAN 29064 99288 11332 41598 80115 10190 2016/ 40190 57020 7//22 8824/ 22273 00200 20301 301// 40503 5//// 6//// 80170 ICE /////
BBXX MDGV9 29064 99337 70090 41/98 30514 10150 20132 40318 54000 70200 83100 22253 10801 70005 80140
BBXX ZCBF3 29063 99438 70334 41297 71730 10160 20160 40266 7//// 8/624 22224 20105 317// 40206 5//// 80160
BBXX ONAN 29064 99288 11332 41598 80115 10190 2016/ 40190 57020 7//22 8824/ 22273 00200 20301 301// 40503 5//// 6//// 80170 ICE /////
BBXX A8LP6 29064 99332 70622 41597 32717 10200 20153 40130 54000 70122 835// 22224 04175 29904 399// 4//06 80170
BBXX 42360 29061 99267 70905 46/// /2003 10202 90600 22200 00245 10501 70005 333 91205
BBXX 44056 29061 99362 70757 46/// ///// 1//// 90550 22200 00116 11302 21001 307// 41301 70009
BBXX A8UN3 29064 99419 70657 41/97 /2555 10070 20049 49980 51030 700// 8//// 22253 04080 20812 322// 41008 5//// 80060
BBXX 41033 29061 99323 70804 46/// /3305 1//// 40193 57009 90600 555 11049 22050
BBXX 44138 29061 99443 70536 46/// /1512 10087 49950 5//// 22200 00093 11005 70025 333 91214
BBXX 44137 29061 99423 70620 46/// /2516 10091 49957 52019 22200 00105 11313 70064 333 91221
BBXX KS007 29064 99267 70801 43/// ///// 10133 40154 22200
BBXX KS094 29064 99163 70618 43/// /0102 10254 40176 22200 06264
BBXX KS088 29064 99267 70801 43/// /0701 10133 40195 22200 06223
BBXX C6TQ6 29064 99168 70874 41898 31405 10260 20232 40170 70111 8221/ 22232 00270 20204 30505 40204 50102 6//// 80240 ICE /////
BBXX 44040 29061 99410 70736 46/// /3310 11004 21082 40115 90619 22200 10301 70006 333 91213 555 11113 22118
BBXX 44022 29061 99409 70737 46/// ///09 11005 21087 40112 90630 22200 00084 333 91212 555 11093 22098
BBXX 46214 29061 99379 71235 46/// ///// 1//// 90623 22200 00114 11305 21003 329// 41304 70025
BBXX 46238 29061 99334 71195 46/// ///// 1//// 90620 22200 00139 11304 20702 329// 41303 70019
BBXX 44099 29061 99369 70757 46/// ///// 1//// 90622 22200 00113 11302 21002 307// 41301 70009
BBXX 46219 29061 99332 71199 46/// ///// 1//// 90628 22200 00135 11305 20803 329// 41303 70023
BBXX 46224 29061 99332 71175 46/// ///// 1//// 90606 22200 00145 11301 21001 327// 41301 70007
BBXX 46239 29061 99363 71221 46/// ///// 1//// 90621 22200 00125 11305 20904 329// 41304 70027
AAXX 29061 40001 32970 00302 10048 20002 40252 53012 333 20017 30///
AAXX 29061 40007 31903 00000 10004 20001 40265 53006 70440 333 21028 34/// 50104
AAXX 29061 40025 32965 00802 10054 20035 40229 54000 333 20048
AAXX 29061 40045 31956 02704 10028 21024 40255 58001 71000 333 21016 30/// 55074
AAXX 29061 40061 32970 00000 11004 21041 40255 52008 333 21016 30/// 50174 55095 70000
AAXX 29061 40080 32965 00000 10024 21060 39519 40262 51002 333 21054 30///
AAXX 29061 40087 NIL
AAXX 29061 40095 NIL
AAXX 29061 40009 32965 00000 10020 21038 40236 51006 333 21032 34///
AAXX 29061 40016 32970 00000 10000 21018 40280 52010 333 21012 30/// 55094 70000
AAXX 29061 40022 32965 00602 10078 20046 40230 57005 222// 20000 333 20064 30/// 70000
AAXX 29061 40030 31/00 90000 10016 20016 40250 50003 74044 89/// 333 20012 31/// 50024 55080 89/01
AAXX 29061 40039 32970 00000 10003 21014 40250 53008 333 2104 30/// 55059 70000
AAXX 29061 40066 32970 00000 10084 20028 40222 53002 333 20082 30///
AAXX 29061 40072 32970 00000 10020 21026 40274 53004 333 20000 30///
AAXX 29061 40083 32970 02501 10006 21082 48511 51002 333 21022 34///
AAXX 29061 47003 42980 13207 11075 21213 30277 40281 57017 80001
AAXX 29061 47005 42980 00000 11154 21196 38626 58001
AAXX 29061 47022 42975 03202 11101 21185 38864 58010
AAXX 29061 47028 42968 03605 11053 21158 30244 40344 58013
AAXX 29061 47031 42970 00000 11086 21171 38967 57003
AAXX 29061 47037 42970 03202 11033 21228 30195 40323 58015
AAXX 29061 47039 42960 03403 11025 21148 30112 40310 57016
AAXX 29061 47046 11950 41801 11005 21046 30254 40277 58009 69911 71072 80002
AAXX 29061 47050 42965 03605 11026 21196 30271 40306 57018
AAXX 29061 47052 42565 13203 11039 21093 39939 40292 57011 81500
AAXX 29061 47060 42960 00204 11055 21106 30258 40320 58007
AAXX 29061 47061 11660 80503 10009 21040 30240 40285 52003 69901 71072 82530
AAXX 29061 47065 41950 03204 11054 21124 30243 40311 58007 71000
AAXX 29061 47067 41960 00000 11040 21077 30189 40314 54000 71022
AAXX 29061 47068 42970 03203 11030 21116 30265 40301 58004
AAXX 29061 47070 42970 02702 11003 21100 30201 40291 58001
AAXX 29061 47075 41960 00000 11006 21059 39773 40211 57005 71000
AAXX 29061 45032 36/// /0802 10237 20119 30166 40183 57001
AAXX 29061 45035 36/// /3401 10221 20141 30141 40183 54000
AAXX 29061 45039 36/// /0802 10217 20143 30167 40182 57002
AAXX 29061 45044 36/// /1209 10194 20136 30090 40183 57001
AAXX 29061 45032 36/// /0802 10237 20119 30166 40183 57001
AAXX 29061 45035 36/// /3401 10221 20141 30141 40183 54000
AAXX 29061 45039 36/// /0802 10217 20143 30167 40182 57002
AAXX 29061 45044 36/// /1209 10194 20136 30090 40183 57001
AAXX 29061 47008 42970 03205 11044 21242 30246 40302 57003
AAXX 29061 47014 42950 00000 11139 21210 39927 40362 57010
AAXX 29061 47016 42970 00000 11112 21185 39424 40337 57020
AAXX 29061 47020 42965 00000 11080 21142 39956 40354 57018
AAXX 29061 47025 42978 02903 10008 21125 30247 40277 58006
AAXX 29061 47035 42965 00505 11040 21104 30326 40335 57019
AAXX 29061 47041 41570 11801 10009 21051 30254 40282 58014 72272 81200
AAXX 29061 47055 42970 03603 10000 21056 30240 40287 58013
AAXX 29061 47058 42960 03202 11045 21121 30263 40312 58013
AAXX 29061 47069 42965 03202 11008 21033 30191 40294 58011
AAXX 29064 17070 11901 02601 11061 21064 39388 40306 56004 60002 74611 333 21061 3/107 41998 50094 55024 20477 79999 91103
AAXX 29064 47418 12/80 71610 10015 21034 30131 40181 56008 60001 8557/
AAXX 29064 47575 11/60 81805 10028 21008 30143 40148 55000 69901 72682 882//
AAXX 29063 64501 32358 72004 10254 20240 3//// 4//// 8355/ 333 0//00 20252 50294 55043 5//// 83608 87360
AAXX 29064 87641 32965 03606 10186 20156 39972 40140 57019
AAXX 29061 01010 11580 70912 10006 21048 39848 49863 57018 69902 70222 81578 333 21010 70055 91117
AAXX 29064 89625 46/// /1022 11226 29076 36515 4//// 5//// 90600
AAXX 29064 89646 46/// ///21 11096 29092 37580 4//// 5////
AAXX 29064 89648 46/// /1911 11175 29061 37231 4//// 5////
AAXX 29064 89659 46/// /1805 11107 29069 37690 4//// 5////
AAXX 29064 89661 46/// /2002 11041 29094 39223 4//// 5////
AAXX 29064 89666 46/// /3213 11039 29096 39656 4//// 5////
BBXX 2ALE5 29063 99326 70098 41998 00518 10145 20107 40306 53009 70200 80000 22253 20503 80125
BBXX C6JE4 29063 99016 30674 41898 72709 10278 20228 40131 57002 70222 80008 22253 04275 20901 318// 41101 5//// 80244
BBXX PDKK 29063 99042 30001 41398 81607 10242 20221 40136 51010 70222 887// 22271 20201 318// 41002 80228
BBXX A8AX3 29063 99047 30117 41396 31402 10240 40140 51/// 7//// 83212 22200 2//// 30000
BBXX BATFR19 29064 99066 30057 46/// /1914 10237 20194 40144 53014 22200 00254
BBXX MIBR 29063 99069 30838 41497 63122 10290 20248 40070 54000 70222 85201 22254 00283 20302 329// 40605 5//// 80260
BBXX ONAR 29063 99151 30013 41597 81419 10200 2015/ 40170 54000 78062 8544/ 22273 00210 20704 314// 4//// 5//// 6//// 80170 /////
BBXX BATFR55 29064 99169 30545 44598 31113 10274 20237 40122 70111 82141 22232 00284 20802 32929 412// 512//
BBXX ONDY 29064 99175 30657 41398 21014 10280 2022/ 40140 52010 70200 8//// 22213 00280 2//// 3//// 4//// 5//// 6//// 80240 /////
BBXX TBWUK42 29064 99194 30684 41498 61011 10265 20228 40139 58003 70322 841/5 22213 20305 308// 40803 5//// 80240
BBXX A8KH9 29064 99198 30624 41498 40718 10270 20257 40110 51150 70322 83244 22224 02260 20101 30102 40202 50303 80260
BBXX VRIO2 29064 99284 30032 41397 71314 10190 20159 40190 54/// 70222 86263 22273 00180 2//// 3//// 4//// 5//// 6//// 80170 /////
BBXX 3FMV6 29063 99285 30445 41297 71122 10260 20246 40057 51010 70222 87779 22214 06250 20102 80250
BBXX A8CK2 29064 99295 30407 41497 81611 10240 20194 40080 54000 76066 8/7// 22254 21003 314// 41103 5//// 80210
BBXX DBBT 29061 99339 30184 46/// /1406 10231 20128 40154 52009 22200 00152
BBXX PCSV 29063 99348 30218 41598 52002 10200 20161 40188 50/// 70200 85400 22263 04205 20401 323// 41002 80175
BBXX SHIP 29064 99412 31100 41597 83328 10151 20124 40004 57041 70322 8662/ 22243 00137 11405 20201 32733 42006 51305 85135
BBXX DBLK 29061 99554 30000 41498 82711 11004 21026 49866 52034 71582 878// 22283 05007 20503 328// 41008
BBXX 61001 29064 99434 10078 46/// /1606 10121 20071 40206 57014 22200 00138 10401 70004
BBXX BATFR31 29064 99433 10053 46/// /3607 10092 20084 40233 53011 22200 00129
BBXX BATFR24 29064 99433 10054 46/// /3413 10092 20032 40241 53014 22200 00119
BBXX BATFR21 29064 99426 10089 46/// /1009 20345 40216 55009 22241
BBXX BATFR33 29064 99422 10034 46/// /3545 10122 20074 40252 58021 22284 00149
BBXX 61002 29064 99421 10047 46/// ///34 10129 2//// 40252 57006 22200 00135 10706 70029 555 1/046
BBXX BATFR46 29064 99419 10034 46/// /3629 10130 20067 40263 58016 22282 00152
BBXX BATFR20 29064 99414 10094 46/// ///// 10119 20072 40214 56019 22283
BBXX BATEU09 29064 99412 10089 46/// /2111 10125 20085 40220 56016 22222 00162
BBXX BAREU51 29064 99407 10116 46/// ///// 40221 57015 22275
BBXX A8IZ2 31112 29064 99405 10032 41/98 12305 10130 20065 40272 57020 70200 8//// 22254 2//// 3//// 4//// 80095
BBXX BAREU63 29064 99401 10141 46/// /3411 10128 29056 40227 57014 22233
BBXX BAREU06 29064 99394 70001 46/// ///// 40286 22224
BBXX BATFR09 29064 99381 10059 44498 50017 10140 20067 40261 53009 70222 85200 22263 00169 20202 306// 40504 5//// 60//0 ICE 0/0//
BBXX DBBH 29061 99380 10088 41398 53507 10140 20074 40240 57010 70361 858// 22223 04163
BBXX MRGU3 29063 99374 10109 41498 41506 10142 20078 40229 56012 70111 82760 22223 04160 20501 315// 40501 80110
BBXX DQVI 29063 99370 10040 41697 40212 10140 20123 40265 55010 72055 849// 22224 00177 20806 80130
BBXX A8OZ4 29064 99368 10127 43698 20412 10140 20100 40230 54000 7//// 82/// 22234 00170 20401 304// 40401 5//// 80115
BBXX DGZT2 29063 99367 10005 41/98 /0215 10139 20076 40280 52005 70300 8//// 22264 04170 2//// 80105
BBXX KABP 29063 99350 10204 41298 83405 10138 2009/ 40290 52012 78098 889// 22273 00178 20201 309// 40505 5//// 6//// 80111 ICE /////
BBXX A8MZ9 29064 99349 10204 41597 61117 10160 20117 57015 70362 85379 22264 04178
BBXX BAREU56 29064 99348 10134 46/// ///// 40207 57003 22272
BBXX A8PX4 29064 99347 10193 41398 61806 10155 20067 40217 55003 70162 8/900 22224 00175 2//// 80108
BBXX WKPF 29063 99324 10288 438// 50313 10160 2013/ 40232 51000 7//// 8/8// 22224 00193 20303 30502 40402 5//// 6//// 80140 ICE /////
BBXX 64045 29064 99591 70117 46/// /2926 10053 20030 40014 56027 22200 00100 10709 70046 333 90710 91148
BBXX BATFR04 29064 99588 70072 46/// /2417 10059 20012 40022 22261 00105
BBXX 62112 29064 99584 70002 47697 /3026 10051 21032 49991 52021 700// 22200
BBXX 62113 29064 99584 10002 47697 /3036 10057 21023 49979 52016 700// 22200
BBXX 62129 29064 99584 10003 46/// ///// 10050 21031 49985 52021 22200
BBXX 62114 29064 99583 10000 46/// /2938 10051 21043 49983 52025 22200
BBXX PJAI 29064 99581 70014 47698 /2929 10067 21029 40021 51014 700// 22200
BBXX 62111 29064 99580 70003 46/// /3231 10055 21018 40027 52011 22200 10811 70053
BBXX 62117 29064 99579 10000 47997 /3035 10053 20005 40009 52018 700// 22200 10810 70049
BBXX MINUK01 2906/ 99572 70019 46/// ///// 10050 40047 52049
BBXX MINUK05 2906/ 99571 70021 46/// ///// 10033 40061 54000
BBXX BATUK01 29064 99560 70032 46/// /2606 10044 20005 40081 58020 22200 00064
BBXX 62105 29064 99554 70121 46/// /2836 10100 20069 40158 55017 22200 00106 10915 70075 333 90710 91149
BBXX 62095 29064 99530 70159 46/// /2624 10107 20081 40276 58014 22200 00111 10912 70060 333 90710 91133
BBXX 62301 29064 99524 70047 46/// /2728 10089 20053 40228 58026 22200 00093 10707 70037 333 90710 91142
BBXX 62094 29064 99517 70067 46/// /2628 10098 20056 40270 57028 22200 00106 10607 70037 333 90710 91138
BBXX 62303 29064 99516 70051 46/// /2629 10101 20056 40260 58026 22200 00112 10607 70035 333 90710 91142
BBXX 62023 29063 99514 70079 46/96 /2741 10097 2//// 40291 5//// 22200 10608 70038 333 91150 555 70054 80003
BBXX 62081 29064 99510 70134 46/// ///// 10108 20064 40336 57017 22200 00120 10811 70056
BBXX BATFR02 29064 99508 70011 46/// /2527 10077 20025 40279 56009 22282 00102
BBXX BATFR42 29064 99507 70019 46/// /2617 10072 20024 40279 56024 22271 00122
BBXX A8CC4 29064 99505 70290 41296 81924 10120 20102 40270 54000 76066 8677/ 22224 04110 20303 318// 40905 80110
BBXX BATFR60 29064 99504 70009 46/// /2635 10090 20024 40282 53020 22263 00099
BBXX 62305 29064 99504 10000 46/98 /2832 10088 20022 40283 50000 22200 00113 10704 70022 333 90710 91142
BBXX BAREU00 29064 99503 70015 46/// ///// 40285 52024 22264
BBXX 62107 29064 99501 70061 46/// /3037 10098 20039 40313 58024 22200 00112 10907 70033 333 90710 91145
BBXX 62103 29064 99499 70029 46/98 /2827 10098 20036 40302 58007 22200 00117 10805 70026 333 90710 91137
BBXX PDNN 29063 99497 70009 41/98 /3136 10100 20031 40299 50001 70111 8//// 22232 02111 2//// 80067 90903
BBXX 62027 29064 99491 70022 46/// /3022 1//// 2//// 40318 58009 22200 00107 11305 327// 70025
BBXX 62442 29064 99490 70164 46/// /2519 1//// 2//// 40394 58013 22200 00124 333 90710 91126
BBXX BATFR54 29064 99490 70061 46/// /2929 10099 20025 40351 56005 22242 00114
BBXX TESTFR9 29064 99488 70022 46/// /3118 10093 29075 40351 52013 22234
BBXX 62029 29064 99487 70125 46/// /2818 10104 20038 40388 58013 22200 00127 11012 70058 333 90710 91126
BBXX LAVX4 29064 99478 70130 41/97 /2916 10100 2010/ 40410 57001 70022 8//// 0//// 21012 29/// 41512 5//// 6//// 80100
BBXX WDD3826 29064 99477 70101 41398 32724 10110 2005/ 40400 52011 7//00 838// 22254 00110 20302 327// 40604 5//// 6//// 80080 ICE /////
BBXX A8QJ7 29064 99477 70064 41/98 23008 10100 20056 40370 58015 7//00 82/// 22212 2//// 3//// 4//// 5//// 80080
BBXX 62163 29064 99475 70084 46/// /2913 10100 20038 40388 56015 22200 00125 11110 70052
BBXX PCBT 29063 99459 70079 41/98 33212 10106 20052 40393 57017 7//00 8//// 22213 20302 80079
BBXX 62001 29064 99452 70050 46/// /3515 10110 20046 40392 55001 22200 00138 10909 70044
BBXX PDHP 29063 99448 70086 41/98 30216 10108 20040 40407 50003 70200 827// 22214 00137 20303 80075
BBXX C6KD6 29064 99435 70214 41598 31216 10137 20109 40392 51005 70111 831/5 22214 02142 20907 80122
BBXX BATFR13 29064 99396 70283 44696 31709 10149 20144 40356 56010 70200 8286/ 22254 00174
BBXX BAREU06 29064 99394 70001 46/// ///// 40286 22224
BBXX A8RL2 29063 99382 70259 41/97 /1807 10180 40370 54000 74044 8//// 22214 04190 2////
BBXX LAZV5 29064 99371 70140 41598 80220 10160 2013/ 40375 51005 70322 88/// 22223 00170 20403 302// 40504 5//// 6//// 80140
BBXX DGZT2 29063 99367 10005 41/98 /0215 10139 20076 40280 52005 70300 8//// 22264 04170 2//// 80105
BBXX WADN 29064 99355 70091 43/98 /0111 ///// 10160 2011/ 40315 57012 7//// 8//// 22223 0//// 2//// 3//// 4//// 5//// 6//// 80130 ICE//
AAXX 29064 71775 46/// /2503 10089 20067 30020 40026 53037 6///1 333 10114 20053 7//// 555 32023 40051
AAXX 29064 71793 16/// ///// 11066 21081 60001 333 7////
AAXX 29064 71495 16/// /1402 10028 21066 60001 333 7////
AAXX 29064 71073 16/// /1814 10043 21021 60001 333 10075 21050 7////
AAXX 29064 71012 16/// /1406 11089 21100 60001 333 11024 21101 70009
AAXX 29064 71013 16/// ///// 11061 21075 60001 333 10021 21088 7////
AAXX 29064 71044 16/// /1007 11238 21276 39632 49961 56008 60001 333 11222 21321 70000 555 30317 40171
AAXX 29064 71060 16/// /3003 10009 21043 38430 49962 56031 60001 333 10052 21103 70000 555 32420 40201
AAXX 29064 71848 16/// ///// 10066 21023 60001 333 10111 21040 70000
AAXX 29064 71399 17/// ///// 11104 21115 69941 7//4/ 333 11010 21113 70004
AAXX 29064 71215 46/// /1611 10092 20052 39655 49992 56022 6///1 333 10103 20018 7//// 555 31819 40061
AAXX 29064 71565 17/// /2411 11037 21067 69941 7//4/ 333 11032 21122 70013 555 32421 40111
AAXX 29064 71566 16/// /1902 11040 21092 60001 333 11007 21071 70000
AAXX 29064 71567 17/// /1507 11070 21074 69941 7//4/ 333 11046 21117 70016
AAXX 29064 71914 17/// /2903 10076 20041 39817 40035 51040 60041 7//4/ 333 10095 20070 70072
AAXX 29064 71974 46/// /0205 11318 21345 30125 40170 51013 6///1 333 11283 21322 7//// 555 33421 40071
AAXX 29064 71215 46/// /1611 10092 20052 39655 49992 56022 6///1 333 10103 20018 7//// 555 31819 40061
AAXX 29064 71974 46/// /0205 11318 21345 30125 40170 51013 6///1 333 11283 21322 7//// 555 33421 40071
AAXX 29064 71495 16/// /1402 10028 21066 60001 333 7////
AAXX 29064 71399 17/// ///// 11104 21115 69941 7//4/ 333 11010 21113 70004
AAXX 29064 71012 16/// /1406 11089 21100 60001 333 11024 21101 70009
AAXX 29064 71013 16/// ///// 11061 21075 60001 333 10021 21088 7////
AAXX 29064 71044 16/// /1007 11238 21276 39632 49961 56008 60001 333 11222 21321 70000 555 30317 40171
AAXX 29064 71060 16/// /3003 10009 21043 38430 49962 56031 60001 333 10052 21103 70000 555 32420 40201
AAXX 29064 71073 16/// /1814 10043 21021 60001 333 10075 21050 7////
AAXX 29064 71565 17/// /2411 11037 21067 69941 7//4/ 333 11032 21122 70013 555 32421 40111
AAXX 29064 71566 16/// /1902 11040 21092 60001 333 11007 21071 70000
AAXX 29064 71567 17/// /1507 11070 21074 69941 7//4/ 333 11046 21117 70016
AAXX 29064 71914 17/// /2903 10076 20041 39817 40035 51040 60041 7//4/ 333 10095 20070 70072
AAXX 29064 71775 46/// /2503 10089 20067 30020 40026 53037 6///1 333 10114 20053 7//// 555 32023 40051
AAXX 29064 71793 16/// ///// 11066 21081 60001 333 7////
AAXX 29064 71848 16/// ///// 10066 21023 60001 333 10111 21040 70000
AAXX 29064 67002 12581 23209 10303 20254 30100 40133 69934 82800 333 20238 58007 82822 92408
AAXX 29064 67004 11580 63606 10280 20252 30121 40136 60474 76066 83860 333 20240 58006 83820 83358 92408
AAXX 29064 67009 32582 50000 10292 20250 30010 40129 51001 85100 333 02100 10322 20220 50404 55060 85820
AAXX 29064 67012 32582 70000 10282 20239 30118 40129 51008 878// 333 0//00 10321 20240 50314 55/// 85820 83640
AAXX 29064 67025 12581 30000 10312 20220 30015 40114 51001 60014 82901 333 0//29 10312 20237 50364 55/// 82820 81920 94963 95813 555 81640 81073
AAXX 29064 67027 11570 60606 10298 20232 30097 40118 55001 69984 70162 84832 333 02112 50274 55096 83820 84360 555 81640 82073
AAXX 29064 67045 NIL
AAXX 29064 67072 11475 53004 10275 20239 30128 40131 50002 60144 71562 85801 333 02303 10303 20247 50284 55/// 82817 84640 92418 555 81075
AAXX 29064 67073 32582 4//// 10312 20238 30087 40113 50002 83802 333 0//00 10327 20256 50//4 55/// 83820 555 81640 82073
AAXX 29064 67083 12582 70000 10217 20176 38744 48518 54001 60034 878// 333 01719 20176 50224 55049 85820 83623
AAXX 29064 67095 32482 50404 10297 20229 30115 40121 56001 85802 333 02200 10326 20226 50254 55/// 84817 555 82633 81073
AAXX 29064 67113 32582 2//// 10296 20230 30/// 40/// 5//// 82200 333 0//00 10318 20246 50374 55/// 82820
AAXX 29064 67117 NIL
AAXX 29064 67137 11475 60000 10243 20194 38890 48496 50000 60144 71022 85232 333 0//19 10286 20176 50224 55/// 85817 555 81360 81073
AAXX 29064 67143 32582 1//// 10/// 20/// 30110 40117 52003 81230 333 0//00 10/// 20/// 50//4 55/// 81820 92438 555 81360
AAXX 29064 67152 12582 3//// 10241 20201 39190 48500 51003 60054 83200 333 01719 10330 20202 50504 55/// 83820
AAXX 29064 67157 32581 1//// 10/// 20/// 30124 40131 58008 81800 333 0//00 10/// 20/// 50//4 55/// 81820 555 81640
AAXX 29064 67161 NIL
AAXX 29064 67197 32582 61204 10288 20230 30085 40095 54001 81802 333 01400 10300 20240 50534 55096 81820 86073 555 81633
AAXX 29064 60367 11560 8//// 10108 20104 40241 58004 60044 760// 888// 333 20101 83820 87840
AAXX 29061 02924 11256 81902 10017 20017 39669 49863 57026 60054 761// 88/// 333 10017 21026 3/103 4/005
AAXX 29061 02935 11259 71703 10012 20011 39709 49880 57028 60052 780// 87/// 333 10013 21021 3/103 4/007
AAXX 29061 02849 31113 91302 11108 21117 39646 49928 57035 777// 333 11107 21176 3//// 4/021
AAXX 29061 02981 11459 32116 10061 2//// 39911 49921 57030 69972 751// 83/// 333 10061 20049 3////
AAXX 29061 02849 31113 91302 11108 21117 39646 49928 57035 777// 333 11107 21176 3//// 4/021
BBXX 44100 29061 99363 70756 46/// ///// 1//// 90622 22200 00124 11402 21002 307// 41401 70011
BBXX 46241 29061 99330 71173 46/// ///// 1//// 90611 22200 00142 11302 20701 327// 41301 70008
AAXX 29064 67017 NIL
AAXX 29064 67020 32582 40000 10295 20240 30091 40118 50005 83902 333 02400 10340 20247 50474 55/// 83820 81920 94976 94978 95836 95838 555 81640 81073
AAXX 29064 67023 32582 41206 10318 20257 30109 40115 51004 82102 333 02000 10334 20210 50664 55/// 82820 84075
AAXX 29064 67037 32581 6//// 10/// 20/// 30068 40109 5/002 86800 333 0//00 10/// 20/// 50//4 55/// 85820 555 82640
AAXX 29064 67067 31570 3//// 10251 20186 39255 48/// 58005 7101/ 83801 333 0//00 10303 20191 50614 55/// 83823 555 81630 81073
AAXX 29064 67107 NIL
AAXX 29064 67131 32582 43608 10/// 20/// 30087 40092 56003 84800 333 0//00 10/// 20/// 50//4 55/// 84823 555 81640
BBXX 46216 29061 99343 71198 46/// ///// 1//// 90627 22200 00140 11302 20802 327// 41301 70012
BBXX 46223 29061 99335 71178 46/// ///// 1//// 90630 22200 00147 11302 20901 328// 41302 70009
BBXX 46231 29061 99327 71174 46/// ///// 1//// 90624 22200 00148 11402 21001 328// 41402 70011
BBXX 46222 29061 99336 71183 46/// ///// 1//// 90626 22200 00146 11302 21001 326// 41302 70010
BBXX 46242 29061 99332 71174 46/// ///// 1//// 90628 22200 00144 11301 20901 323// 41301 70007
BBXX 2ALE5 29063 99326 70098 41998 00518 10145 20107 40306 53009 70200 80000 22253 20503 80125
BBXX A8HJ8 29063 99012 11034 41396 80110 10300 20249 40115 58005 70322 82710 22200 00/// 20201 80262
BBXX A8RH4 29064 99172 10727 41397 63610 10280 20266 40140 51010 76066 86617 22274 04290 20802 33536 40802 50702 80270
BBXX A8SZ5 29064 99045 31177 41497 /2623 10330 20264 40080 55010 703// 8/7// 22213 00/// 2//05 80280
BBXX DDGK2 29064 99222 11152 41497 20816 10185 20153 40200 57015 70200 81184 22263 00170 20604 80165
BBXX ELYPJ 29064 99015 11195 41498 82305 10292 20276 40091 57019 70322 8754/ 22243 00/// 20200 320// 40401 80280
BBXX ELZU8 29063 99015 11044 41497 83427 10253 20241 40110 50005 76286 8452/ 22200 00/// 20304 303// 40506 80244
BBXX VRDN3 29064 99116 10744 41497 23313 10270 20260 40170 58010 70200 8262/ 22233 00/// 20302 334// 40502 80250
BBXX ZIPR7 29063 99150 30719 41498 21121 10279 20236 40111 58005 70200 81106 22214 00276 20301 311// 40402 80249
BBXX 3FUL2 29063 99222 11151 41697 40520 10170 20094 40202 58026 70222 83627 22263 04200 20303 306// 40604 80130
BBXX 9MET6 29064 99232 11257 41998 20508 10235 20162 40188 56010 70100 80//8 22254 00525 20100 313// 40200 80190
BBXX 9MCN8 29064 99185 11203 41598 60637 10264 20232 40108 5//// 70311 83435 22213 00280 20805 304// 42310 80242
BBXX WDE8264 29063 99168 10708 41797 83624 10260 20202 40170 57020 7//22 88010 22234 00250 20502 302// 41004 80220
BBXX 62105 29064 99554 70121 46/// /28// 10100 20069 40158 55017 22200 00106 10915 70075 333 90710 91149
BBXX 63106 29064 99610 10017 46/// /3143 10050 49828 52045 22200
BBXX 63113 29064 99610 10017 46/// /3147 10044 20041 49856 52051 22200 11016 70080
BBXX 63110 29063 99595 10015 41/96 /3052 10048 49902 762// 8//// 22200 10417 70083
BBXX 2AUO5 29063 99606 10016 41296 83149 10100 49864 52052 76566 887// 22271 21014 331// 41220
BBXX 62303 29064 99516 70051 46/// /2629 10101 20056 40260 58026 22200 00112 10607 70035 333 90710 91141
BBXX 62103 29064 99499 70029 46/98 /2928 10097 20033 40300 57015 22200 00116 10805 70027 333 90710 91135
BBXX 62094 29064 99517 70067 46/// /2629 1//// 2//// 4//// 5//// 22200 00105 10607 70037 333 90710 91138
BBXX 64049 29063 99571 10022 41/97 83045 10064 20057 49962 54000 70211 8//// 22200 04090 20612 330// 40614 5//// 80061
AAXX 29064 63661 32580 10903 10185 20090 48549 81200 333 20096 59002 81820
AAXX 29064 63695 32980 10503 10205 20115 81030 333 20102 81359
AAXX 29064 63772 32580 6//03 10286 20243 8223/ 333 20241 82822 85359
AAXX 29063 63612 32980 00000 10262 20134 40131 333 20194 58007
AAXX 29064 89667 46/// /3211 11018 29083 39839 4//// 5//// 90620
AAXX 29064 89667 46/// /3113 11018 39840 4//// 5//// 90610
AAXX 29064 89667 46/// /3212 11016 39839 4//// 5////
AAXX 29064 89667 46/// /3212 11018 29085 39838 4//// 5//// 90630
AAXX 2906/ 89327 46/// ///// 11025 39609 4//// 5//// 90630
AAXX 2906/ 89828 46/// ///// 11203 36542 4//// 5//// 90620
AAXX 2906/ 89828 46/// ///// 11203 36542 4//// 5//// 90630
AAXX 2906/ 89108 46/// ///// 11219 36888 4//// 5//// 90630
AAXX 2906/ 89879 46/// ///// 11003 39757 4//// 5//// 90620
AAXX 2906/ 89879 46/// ///// 11005 39757 4//// 5//// 90630
AAXX 2906/ 89872 46/// ///// 11010 39802 4//// 5//// 90620
AAXX 2906/ 89872 46/// ///// 11005 39801 4//// 5//// 90630
AAXX 2906/ 89869 46/// ///// 11013 39742 4//// 5//// 90630
AAXX 2906/ 89866 46/// ///// 11031 39724 4//// 5//// 90620
AAXX 2906/ 89866 46/// ///// 11034 39725 4//// 5//// 90630
AAXX 2906/ 89329 46/// ///// 11094 38698 4//// 5//// 90620
AAXX 2906/ 89799 46/// ///// 11250 4//// 5//// 90630
AAXX 2906/ 89868 46/// ///// 11039 39769 4//// 5//// 90630
AAXX 2906/ 89332 46/// ///// 11050 39192 4//// 5//// 90620
AAXX 2906/ 89314 46/// ///// 11113 38153 4//// 5//// 90630
AAXX 2906/ 89667 46/// ///// 11013 39841 4//// 5////
AAXX 29061 98747 31460 73604 10302 20356 398z0 40094 56022 70544 84830 333 56799 84817 85358
AAXX 29064 41960 31450 70502 10267 20190 30159 40161 70522 85410 333 56190 58007 70000 84616 87458
AAXX 29061 10532 15575 72406 10041 20016 39970 40223 51005 69902 333 10045 20028 3/001 55000 55300 20000 30000 79999 83/21 87/36 87/50
BBXX 46221 29061 99339 71186 46/// ///// 1//// 90615 22200 00149 11302 20901 325// 41301 70010
AAXX 29064 71502 16/// /0917 11222 21238 39976 49992 53001 60001 333 11217 21246 70000 555 30925 40081
AAXX 29064 71509 16/// /1604 10049 21009 60001 333 10116 20005 70000 555 32445 40193
AAXX 29064 71517 16/// /1205 10037 21016 60001 333 10107 21031 70000 555 32751 40193
AAXX 29064 71518 16/// /1308 10033 21007 60001 333 10114 21015 70000 555 32539 40223
AAXX 29064 71519 16/// /1808 10039 21005 60001 333 10121 20000 70000 555 32735 40213
AAXX 29064 71520 16/// /3411 11194 21212 39250 49929 56012 60001 333 11135 21194 70000
AAXX 29064 71521 17/// ///// 11176 21204 69931 7//4/ 333 11104 21176 70056
AAXX 29064 71523 16/// ///// 11209 21250 39617 40001 51016 60001 333 11062 21209 70000
AAXX 29064 71528 16/// /2415 10082 21003 60001 333 10110 20009 70000 555 32544 40203
AAXX 29064 71102 16/// ///// 11062 21069 60001 333 11039 21115 7////
AAXX 29064 71105 16/// ///// 10063 21009 60001 333 10123 21027 70000
AAXX 29064 71776 46/// /2403 10023 20016 39372 40006 56037 6///1 333 10052 20001 7////
AAXX 29064 71779 16/// /1403 10004 20001 39273 49922 53006 60001 333 10016 21079 70024 555 10040 20024
AAXX 29064 71783 17/// /2511 10088 20067 39961 40033 51028 60071 7//4/ 333 10118 20076 70164 555 32228 40042
AAXX 29064 71789 16/// ///// 10073 20001 60001 333 10098 20001 70000
AAXX 29064 71791 16/// /1308 11082 21089 60001 333 11039 21091 70004
AAXX 29064 71794 16/// ///// 11093 21102 60001 333 11029 21111 70005
AAXX 29064 71795 16/// ///// 10053 21011 60001 333 10119 21030 70000
AAXX 29064 71216 17/// /1005 10032 20026 39377 49983 56036 60031 7//4/ 333 10052 20001 70120
AAXX 29064 71475 17/// /0302 10060 20055 39943 40035 53039 60121 7//4/ 333 10090 20021 70288
AAXX 29064 71051 16/// ///// 10025 21011 60001 333 10093 21010 70000
AAXX 29064 71057 16/// ///// 10055 21029 60001 333 10083 21088 70000
AAXX 29064 71070 16/// ///// 10050 21003 60001 333 10107 20023 7////
AAXX 29064 71089 16/// ///// 11096 21104 60001 333 11032 21120 70006
AAXX 29064 71199 46/// /0000 11139 21154 39040 49878 56002 6///1 333 11139 21263 7//// 555 10030
AAXX 29064 71006 46/// ///// 6///1 333 7////
AAXX 29064 71007 16/// ///// 10053 21030 60001 333 10108 20013 7////
AAXX 29064 71008 16/// /2207 10025 21018 60001 333 10066 21097 70000 555 32423 40171
AAXX 29064 71009 16/// /1006 11004 21044 60001 333 10086 21101 70000 555 32223 40161
AAXX 29064 71028 17/// /0202 10014 20011 38956 49971 53026 60051 7//4/ 333 10048 21024 70099 555 31724 40201
AAXX 29064 71032 46/// /0000 10017 20011 39177 49997 55000 6///1 333 10033 21011 7//// 555 33319 40061
AAXX 29064 71035 16/// ///// 10019 21036 60001 333 10086 21106 70000
AAXX 29064 71039 46/// /0000 11173 6///1 333 11170 21235 7////
AAXX 29064 71108 11666 21815 10088 20066 39963 40034 51042 60061 76161 82500 333 10108 20051 70199 90927 555 10000 20000 31930 40042
AAXX 29064 71433 46/// /1716 11050 21064 39872 40108 58019 6///1 333 11049 21140 7//// 555 30424 40061
AAXX 29064 71409 16/// ///// 10028 21007 60001 333 10108 20009 70000
AAXX 29064 71383 17/// ///// 11182 21214 39313 49927 55004 60021 7//4/ 333 11097 21182 7////
AAXX 29064 71841 16/// /1203 11143 21157 39681 40094 58019 60001 333 11143 21395 70000 555 10010
AAXX 29064 71433 46/// /1716 11050 21064 39872 40108 58019 6///1 333 11049 21140 7//// 555 30424 40061
AAXX 29064 71108 11666 21815 10088 20066 39963 40034 51042 60061 76161 82500 333 10108 20051 70199 90927 555 10000 20000 31930 40042
AAXX 29064 71841 16/// /1203 11143 21157 39681 40094 58019 60001 333 11143 21395 70000 555 10010
AAXX 29064 71475 17/// /0302 10060 20055 39943 40035 53039 60121 7//4/ 333 10090 20021 70288
AAXX 29064 71216 17/// /1005 10032 20026 39377 49983 56036 60031 7//4/ 333 10052 20001 70120
AAXX 29064 71199 46/// /0000 11139 21154 39040 49878 56002 6///1 333 11139 21263 7//// 555 10030
AAXX 29064 71102 16/// ///// 11062 21069 60001 333 11039 21115 7////
AAXX 29064 71105 16/// ///// 10063 21009 60001 333 10123 21027 70000
AAXX 29064 71776 46/// /2403 10023 20016 39372 40006 56037 6///1 333 10052 20001 7////
AAXX 29064 71779 16/// /1403 10004 20001 39273 49922 53006 60001 333 10016 21079 70024 555 10040 20024
AAXX 29064 71783 17/// /2511 10088 20067 39961 40033 51028 60071 7//4/ 333 10118 20076 70164 555 32228 40042
AAXX 29064 71789 16/// ///// 10073 20001 60001 333 10098 20001 70000
AAXX 29064 71791 16/// /1308 11082 21089 60001 333 11039 21091 70004
AAXX 29064 71794 16/// ///// 11093 21102 60001 333 11029 21111 70005
AAXX 29064 71795 16/// ///// 10053 21011 60001 333 10119 21030 70000
AAXX 29064 71409 16/// ///// 10028 21007 60001 333 10108 20009 70000
AAXX 29064 71051 16/// ///// 10025 21011 60001 333 10093 21010 70000
AAXX 29064 71057 16/// ///// 10055 21029 60001 333 10083 21088 70000
AAXX 29064 71070 16/// ///// 10050 21003 60001 333 10107 20023 7////
AAXX 29064 71089 16/// ///// 11096 21104 60001 333 11032 21120 70006
AAXX 29064 71006 46/// ///// 6///1 333 7////
AAXX 29064 71007 16/// ///// 10053 21030 60001 333 10108 20013 7////
AAXX 29064 71008 16/// /2207 10025 21018 60001 333 10066 21097 70000 555 32423 40171
AAXX 29064 71009 16/// /1006 11004 21044 60001 333 10086 21101 70000 555 32223 40161
AAXX 29064 71028 17/// /0202 10014 20011 38956 49971 53026 60051 7//4/ 333 10048 21024 70099 555 31724 40201
AAXX 29064 71032 46/// /0000 10017 20011 39177 49997 55000 6///1 333 10033 21011 7//// 555 33319 40061
AAXX 29064 71035 16/// ///// 10019 21036 60001 333 10086 21106 70000
AAXX 29064 71039 46/// /0000 11173 6///1 333 11170 21235 7////
AAXX 29064 71383 17/// ///// 11182 21214 39313 49927 55004 60021 7//4/ 333 11097 21182 7////
AAXX 29064 71502 16/// /0917 11222 21238 39976 49992 53001 60001 333 11217 21246 70000 555 30925 40081
AAXX 29064 71509 16/// /1604 10049 21009 60001 333 10116 20005 70000 555 32445 40193
AAXX 29064 71517 16/// /1205 10037 21016 60001 333 10107 21031 70000 555 32751 40193
AAXX 29064 71518 16/// /1308 10033 21007 60001 333 10114 21015 70000 555 32539 40223
AAXX 29064 71519 16/// /1808 10039 21005 60001 333 10121 20000 70000 555 32735 40213
AAXX 29064 71520 16/// /3411 11194 21212 39250 49929 56012 60001 333 11135 21194 70000
AAXX 29064 71521 17/// ///// 11176 21204 69931 7//4/ 333 11104 21176 70056
AAXX 29064 71523 16/// ///// 11209 21250 39617 40001 51016 60001 333 11062 21209 70000
AAXX 29064 71528 16/// /2415 10082 21003 60001 333 10110 20009 70000 555 32544 40203
AAXX 29061 10004 46/60 /2717 10077 20033 30095 40095 53015 222// 00074 333 10092 20071 55000 55300 91125 91220
BBXX VNAA 29064 99619 31162 41499 82815 11001 21031 49817 52030 70322 885// 22214 05005 20602 329// 40802 ICE //2/0
BBXX 9MET6 29064 99232 11257 41998 20508 10235 20162 40188 56010 70100 80//8 22254 00/// 20100 313// 40200 80190
BBXX WSM5364 29064 99589 71419 41495 82733 11011 2//// 49820 52/// 78572 8762/ 22232 04058 20302 327// 4//08 5//// 6//// 8//// ICE /////
BBXX WYL4318 29064 99590 71401 41395 82728 11011 2//// 49820 52/// 77172 8762/ 22232 0//// 20302 327// 4//08 5//// 6//// 8//// ICE /////
BBXX WDB9647 29064 99591 71418 41497 82725 1//// 2//// 49830 52/// 70287 885// 22272 0//// 20302 327// 4//04 5//// 6//// 8//// ICE /////
BBXX WCN3586 29064 99589 71413 41497 82730 11011 2//// 49830 52/// 70222 885// 22231 0//// 20302 327// 4//08 5//// 6//// 8//// ICE /////
BBXX V7NV4 29064 99320 11520 41797 71718 10160 20108 40170 55010 7//21 86622 22263 00210 20206 31717 40206 50206 6//// 80130 ICE /////
BBXX TBWUK34 29063 99110 70185 41698 80510 10247 20217 40146 56010 70322 88/7/ 22244 00290 20300 336// 41001 5//// 80227
BBXX SHIP 29064 99216 11160 41/98 80426 10200 20169 40181 52030 70222 886// 22235 00170 20607 307// 40403 80180
BBXX WDE8264 29063 99168 10708 41797 83624 10260 20202 40170 57020 7//22 88010 22234 00250 20502 302// 41004 80220
BBXX DDGK2 29064 99222 11152 41497 20816 10185 20153 40200 57015 70200 81184 22263 00170 20604 80165
BBXX SHIP 29064 99185 11203 41598 60637 10264 20232 40108 5//// 70311 83435 22213 00280 20805 304// 42310 80242
BBXX A8RH4 29064 99172 10727 41397 63610 10280 20266 40140 51010 76066 86617 22274 04290 20802 33536 40802 50702 80270
BBXX SHIP 29064 99232 11257 41998 20508 10235 20162 40188 56010 70100 80//8 22254 00525 20100 313// 40200 80190
BBXX VRDN3 29064 99116 10744 41497 23313 10270 20260 40170 58010 70200 8262/ 22233 00/// 20302 334// 40502 80250
BBXX 3FUL2 29063 99222 11151 41697 40520 10170 20094 40202 58026 70222 83627 22263 04200 20303 306// 40604 80130
BBXX V7NV4 29064 99320 11520 41797 71718 10160 20108 40170 55010 7//21 86622 22263 00210 20206 31717 40206 50206 6//// 80130 ICE /////
BBXX 46221 29061 99339 71186 46/// ///// 1//// 90615 22200 00149 11302 20901 325// 41301 70010
BBXX 46242 29061 99332 71174 46/// ///// 1//// 90628 22200 00144 11301 20901 323// 41301 70007
BBXX 46216 29061 99343 71198 46/// ///// 1//// 90627 22200 00140 11302 20802 327// 41301 70012
BBXX 46222 29061 99336 71183 46/// ///// 1//// 90626 22200 00146 11302 21001 326// 41302 70010
BBXX 46231 29061 99327 71174 46/// ///// 1//// 90624 22200 00148 11402 21001 328// 41402 70011
BBXX 46223 29061 99335 71178 46/// ///// 1//// 90630 22200 00147 11302 20901 328// 41302 70009
BBXX 46241 29061 99330 71173 46/// ///// 1//// 90611 22200 00142 11302 20701 327// 41301 70008
BBXX 44100 29061 99363 70756 46/// ///// 1//// 90622 22200 00124 11402 21002 307// 41401 70011
BBXX 44024 29061 99423 70659 46/26 /2714 10042 49968 53029 90604 22200 00075 11112 70061 333 91218 555 11177 22188
BBXX 42085 29061 99179 70665 46/// /0505 10259 40164 90630 333 91206
BBXX 42085 29061 99179 70665 46/// /0606 10259 40166 90610 333 91208
BBXX 41053 29061 99185 70661 46/// /1203 10255 40168 90610 333 91204
BBXX 42085 29061 99179 70665 46/// /0606 10259 40165 90620 333 91207
BBXX 41053 29061 99185 70661 46/// /1104 10254 40167 90630 333 91205
BBXX 41053 29061 99185 70661 46/// /1104 10255 40167 90620 333 91205
BBXX ZCEE2 29064 99180 70759 41598 11107 10269 20196 40150 7//// 8/1// 22273 00281 2//// 3//// 4//// 5//// 80221
BBXX 2ALE5 29063 99326 70098 41998 00518 10145 20107 40306 53009 70200 80000 22253 20503 80125
BBXX 66022 29061 99541 10142 46/// ///// 10064 22200
BBXX VDRV 29064 99442 70868 41/98 32118 10002 2//// 41011 56030 70111 8//// 22213 0//// 20302 3//// 4//// 5//// 6//// 8//// ICE /////
BBXX ELZU8 29063 99015 11044 41497 83427 10253 20241 40110 50005 76286 8452/ 22200 00/// 20304 303// 40506 80244
BBXX A8HJ8 29063 99012 11034 41396 80110 10300 20249 40115 58005 70322 82710 22200 00/// 20201 80262
BBXX ZIPR7 29063 99150 30719 41498 21121 10279 20236 40111 58005 70200 81106 22214 00276 20301 311// 40402 80249
BBXX A8SZ5 29064 99045 31177 41497 /2623 10330 20264 40080 55010 703// 8/7// 22213 00/// 2//05 80280
BBXX ELYPJ 29064 99015 11195 41498 82305 10292 20276 40091 57019 70322 8754/ 22243 00/// 20200 320// 40401 80280
AAXX 29064 71893 11780 42703 10063 20047 39987 40018 53041 60041 72561 84500 333 10120 20050 70102 90916 555 10000 20000 31422 40080
AAXX 29064 71893 11780 42703 10063 20047 39987 40018 53041 60041 72561 84500 333 10120 20050 70102 90916 555 10000 20000 31422 40080
BBXX MINFR03 2906/ 99227 10697 46/// ///// 10245 40186 52006
AAXX 29064 17140 11604 80701 11068 21077 38763 48536 52002 60002 74422 8552/ 333 21081 3/109 45998 55028 2//// 85638 88459
AAXX 29064 60353 11565 60000 10097 20083 40260 53009 60024 700// 86800 333 005// 20079 83820 85633 91856 95990
AAXX 29064 89614 46/// /0317 11020 29070 38871 4//// 5//// 90630 333 90700 91120
BBXX ZCDL9 29063 99123 30104 41597 82219 10210 20178 40199 51010 75055 8/2// 22244 04230 20602 323// 40602 5//// 80190
BBXX VQIB9 29063 99288 30402 41298 71820 10240 20210 40088 53003 70222 8577/ 22254 00262 20502 306// 40903 5//// 80220
BBXX TBWUK17 29063 99297 30363 41598 50810 10236 20209 40155 54000 70122 85545 22263 04257 20402 31009 40303 50504 80218
BBXX TBWUK18 29063 99327 30336 41297 81824 10210 20194 40157 54000 70322 887// 2229/ 00250 20502 335// 41204 5//// 80200
AAXX 29064 89614 46/// /0317 11020 29070 38871 4//// 5//// 90630 333 90700 91120
AAXX 2906/ 89327 46/// ///// 11023 39601 4//// 5//// 90620
AAXX 2906/ 89108 46/// ///// 11219 36886 4//// 5//// 90620
AAXX 2906/ 89869 46/// ///// 11011 39744 4//// 5//// 90620
AAXX 2906/ 89799 46/// ///// 11249 4//// 5//// 90620
AAXX 2906/ 89868 46/// ///// 11038 39770 4//// 5//// 90620
AAXX 29064 71346 16/// /1711 10041 21012 60001 333 10117 20016 7////
AAXX 29064 71014 46/// /1605 10002 21057 6///1 333 7////
AAXX 29064 71249 16/// /2010 10013 21043 60001 333 10046 21093 7//// 555 32320 40061
AAXX 29064 71108 11666 21815 10088 20066 39963 40034 51042 60061 76161 82500 333 10108 20051 70199 90927 555 10000 20000
AAXX 29064 71904 16/// ///// 11013 21051 60001 333 10022 21108 7////
AAXX 29064 71413 16/// ///// 11091 21100 60001 333 10033 21130 70000
AAXX 29064 71414 16/// ///// 11103 21109 60001 333 11040 21119 70004
AAXX 29064 71440 16/// ///// 10041 21033 60001 333 10087 21056 70000
AAXX 29064 71481 16/// /1806 11025 21073 60001 333 10005 21102 70000
AAXX 29064 71498 16/// /1808 10023 21022 60001 333 10079 21086 70000 555 31227 40101
AAXX 29064 71540 16/// /1101 11078 21106 60001 333 11027 21140 70000 555 31517 40111
AAXX 29064 71544 16/// ///// 11080 21104 60001 333 11019 21090 70000
AAXX 29064 71548 16/// ///// 11093 21103 60001 333 11039 21102 70007
AAXX 29064 71674 16/// ///// 11072 21087 60001 333 11002 21120 70000
AAXX 29064 71055 46/// /0809 11221 21243 39657 49994 55002 6///1 333 11190 21221 7////
AAXX 29064 71065 16/// ///// 11098 21110 60001 333 11032 21126 70004
AAXX 29064 71360 46/// ///// 11086 21088 6///1 333 11036 21113 7////
AAXX 29064 71380 16/// /2202 11029 21068 60001 333 11025 21125 70000
AAXX 29064 71857 16/// ///// 11054 21062 60001 333 11045 21109 7////
AAXX 29064 71797 16/// ///// 11078 21082 60001 333 11035 21101 70005
AAXX 29064 96685 32460 72805 10280 20239 30072 40098 57099 84501 333 56000 84616 87462
AAXX 29064 71108 11666 21815 10088 20066 39963 40034 51042 60061 76161 82500 333 10108 20051 70199 90927 555 10000 20000
AAXX 29064 71346 16/// /1711 10041 21012 60001 333 10117 20016 7////
AAXX 29064 71481 16/// /1806 11025 21073 60001 333 10005 21102 70000
AAXX 29064 71498 16/// /1808 10023 21022 60001 333 10079 21086 70000 555 31227 40101
AAXX 29064 71249 16/// /2010 10013 21043 60001 333 10046 21093 7//// 555 32320 40061
AAXX 29064 71413 16/// ///// 11091 21100 60001 333 10033 21130 70000
AAXX 29064 71414 16/// ///// 11103 21109 60001 333 11040 21119 70004
AAXX 29064 71440 16/// ///// 10041 21033 60001 333 10087 21056 70000
AAXX 29064 71014 46/// /1605 10002 21057 6///1 333 7////
AAXX 29064 71904 16/// ///// 11013 21051 60001 333 10022 21108 7////
AAXX 29064 71540 16/// /1101 11078 21106 60001 333 11027 21140 70000 555 31517 40111
AAXX 29064 71544 16/// ///// 11080 21104 60001 333 11019 21090 70000
AAXX 29064 71548 16/// ///// 11093 21103 60001 333 11039 21102 70007
AAXX 29064 71055 46/// /0809 11221 21243 39657 49994 55002 6///1 333 11190 21221 7////
AAXX 29064 71065 16/// ///// 11098 21110 60001 333 11032 21126 70004
AAXX 29064 71857 16/// ///// 11054 21062 60001 333 11045 21109 7////
AAXX 29064 71797 16/// ///// 11078 21082 60001 333 11035 21101 70005
AAXX 29064 71674 16/// ///// 11072 21087 60001 333 11002 21120 70000
AAXX 29064 71360 46/// ///// 11086 21088 6///1 333 11036 21113 7////
AAXX 29064 71380 16/// /2202 11029 21068 60001 333 11025 21125 70000
AAXX 29064 87448 11560 80507 10226 20151 39560 40096 54000 69901 71796 8592/ 333 56769 57980 82630 83545 83950
AAXX 29064 16263 12970 01110 10020 20017 38950 48506 57014 60002 333 20020 31/// 55/// 2////
AAXX 29064 60195 32960 00000 11020 21031 38588 48598 5//// 333 21020 34140 95500
BBXX ZIPR7 29063 99150 30719 41498 21121 10279 20236 40111 58005 70200 81106 22214 00276 20301 311// 40402 80249
AAXX 29064 83971 32970 01205 10175 20145 30151 40155 56014
AAXX 29064 78958 11462 30905 10256 20228 30141 40151 69901 70681 83800 333 10292 20232 58004 82818
AAXX 29064 89016 46/89 /3311 29087 39398 4//// 5////
AAXX 29064 78958 11462 30905 10256 20228 30141 40151 69901 70681 83800 333 10292 20232 58004 82818
AAXX 29064 87645 32965 00000 10156 20120 39946 40148 57012
AAXX 29061 58968 32566 80804 10186 20157 30197 40205 57022 885//
AAXX 29061 58974 11562 80410 10171 20132 30090 40215 56019 69901 76162 884//
AAXX 29061 59358 31958 23503 10239 20159 30149 40180 57027 70510 82030
AAXX 29061 59559 32565 80603 10235 20175 30143 40171 57023 8322/
AAXX 29061 59792 12460 80507 10220 20190 30165 40170 57025 69901 8542/
AAXX 29061 59997 32460 30604 10302 20263 30102 40110 57021 83200
AAXX 29061 59158 32660 23402 10236 20140 30076 40175 57027 82500
AAXX 29061 59562 32562 60504 10243 20176 30166 40177 57030 83505
AAXX 29061 59567 11560 70207 10192 20174 39801 40181 57023 69951 70261 875//
AAXX 29064 91844 46/// /2502 10238 40046 22200 00264
AAXX 29061 10578 11/01 92614 11021 21022 38769 48462 58002 69942 77174 333 11014 21027 3/103 48056 55075 55300 20000 30000 70004 91120 91218 90358 91218 96049
BBXX 62303 29064 99516 70051 46/// /2629 10101 20056 40260 58026 22200 00112 10607 70035 333 90710 91142
BBXX 62105 29064 99554 70121 46/// /2836 10100 20069 40158 55017 22200 00106 10915 70075 333 90710 91149
BBXX PJGO 29064 99571 10022 47/97 /2934 10062 20013 40016 52013 700// 22200
BBXX 63110 29064 99595 10015 47597 /3042 10047 20037 49905 52034 700// 22200 10916 70081
BBXX 63055 29064 99606 10016 47693 /2938 10047 20026 49863 52050 730// 22200 11016 70079
BBXX 63106 29064 99610 10017 46/// /3143 10050 49828 52045 22200
BBXX 63105 29064 99610 10017 47496 ///// 10062 20025 49829 52051 751// 22200
BBXX 62094 29064 99517 70067 46/// /2628 10098 20056 40270 57028 22200 00106 10607 70037 333 90710 91138
BBXX 62103 29064 99499 70029 46/98 /2827 10098 20036 40302 58007 22200 00117 10805 70026 333 90710 91137
AAXX 29064 40435 42960 01510 10100 20010 39176 40223 333 20060 59005
AAXX 29061 11240 12458 89901 10007 20004 39797 40249 53002 69902 333 20003 30000 82710 83713 85714
BBXX C6VG8 29064 99255 70772 41/98 23613 10200 2//// 40190 54000 7//00 8//// 22232 00250 20203 336// 40303 5//// 6//// 8//// ICE /////
BBXX 9V7645 29064 99177 71034 41/// /9903 10255 20234 40130 54/// 70300 8/233 22274 00290 2//// 3//// 4//// 5//// 6//// 80240 ICE /////
BBXX WL3108 29064 99446 70872 41/98 82016 11022 40087 70222 22243 00050 20602
BBXX SHIP 29064 99232 11257 41998 20508 10235 20162 40188 56010 70100 80//8 22254 00/// 20100 313// 40200 80190
BBXX WL3108 29064 99446 70872 41/98 82016 11022 40087 70222 22243 00050 20602
BBXX WDB9647 29064 99591 71418 41497 82725 1//// 2//// 49830 52/// 70287 885// 22272 0//// 20302 327// 4//04 5//// 6//// 8//// ICE /////
BBXX WYL4318 29064 99590 71401 41395 82728 11011 2//// 49820 52/// 77172 8762/ 22232 0//// 20302 327// 4//08 5//// 6//// 8//// ICE /////
BBXX WSM5364 29064 99589 71419 41495 82733 11011 2//// 49820 52/// 78572 8762/ 22232 04058 20302 327// 4//08 5//// 6//// 8//// ICE /////
BBXX WCN3586 29064 99589 71413 41497 82730 11011 2//// 49830 52/// 70222 885// 22231 0//// 20302 327// 4//08 5//// 6//// 8//// ICE /////
BBXX VNAA 29064 99619 31162 41499 82815 11001 21031 49817 52030 70322 885// 22214 05005 20602 329// 40802 ICE //2/0
BBXX MINFR03 2906/ 99227 10697 46/// ///// 10245 40186 52006
BBXX BSH03 29061 99540 10081 46/// ///// 22200 00067 21309 70047
BBXX BSH02 29061 99542 10079 46/// ///// 22200 00073 21210 70049
BBXX 9V7645 29064 99177 71034 41/// /9903 10255 20234 40130 54/// 70300 8/233 22274 00290 2//// 3//// 4//// 5//// 6//// 80240 ICE /////
OOXX GBP67 29041 99159 50057 ///// 04381 26/// /0704 10162 29091 39684 90420 333 60000
OOXX GBP67 29041 99159 50057 ///// 04381 26/// /0703 10163 29090 39686 90430 333 60000
OOXX GBP67 29041 99159 50057 ///// 04381 26/// /0904 10165 29090 39686 90440 333 60000
OOXX GBP67 29041 99159 50057 ///// 04381 26/// /0805 10160 29095 39686 90450 333 60000
OOXX GBP67 29051 99159 50057 ///// 04381 26/// /0905 10153 29096 39689 90500 333 60000
OOXX GBP67 29051 99159 50057 ///// 04381 26/// /0705 10152 29097 39688 90510 333 60000
OOXX GBP67 29051 99159 50057 ///// 04381 26/// /0805 10150 29096 39688 90520 333 60000
OOXX GBP67 29051 99159 50057 ///// 04381 26/// /0605 10151 29092 39690 90530 333 60000
OOXX GBP67 29051 99159 50057 ///// 04381 26/// /0704 10157 29085 39690 90540 333 60000
OOXX GBP67 29051 99159 50057 ///// 04381 26/// /0603 10156 29088 39691 90550 333 60000
OOXX GBP67 29061 99159 50057 ///// 04381 26/// /0803 10156 29088 39692 90600 333 60000
OOXX GBP67 29061 99159 50057 ///// 04381 26/// /0903 10160 29087 39693 90610 333 60000
OOXX AUP04 29051 99377 31451 ///// 00311 26/// /1703 10230 29047 30110 90507 333 60000
OOXX AUP04 29051 99377 31451 ///// 00311 26/// /1803 10232 29047 30110 90517 333 60000
OOXX AUP04 29051 99377 31451 ///// 00311 26/// /2003 10228 29050 30110 90527 333 60000
OOXX AUP04 29051 99377 31451 ///// 00311 26/// /1903 10225 29051 30110 90537 333 60000
OOXX AUP04 29051 99377 31451 ///// 00311 26/// /2103 10222 29053 30110 90547 333 60000
OOXX AUP04 29051 99377 31451 ///// 00311 26/// /2103 10224 29053 30110 90557 333 60000
OOXX AUP04 29061 99377 31451 ///// 00311 26/// /2303 10221 29053 30112 90607 333 60000
OOXX AUP04 29061 99377 31451 ///// 00311 26/// /2103 10219 29053 30111 90617 333 60000
OOXX AUP04 29061 99377 31451 ///// 00311 26/// /2303 10220 29054 30111 90627 333 60000
OOXX AUP04 29061 99377 31451 ///// 00311 26/// /2102 10226 29051 30113 90637 333 60000
OOXX AUP04 29061 99377 31451 ///// 00311 26/// /2002 10225 29050 30112 90647 333 60000
OOXX AUP04 29061 99377 31451 ///// 00311 26/// /1803 10222 29050 30112 90657 333 60000
OOXX MRP43 29041 99181 70159 ///// 00101 26/// /0404 10180 29017 30184 90450 333 60000
OOXX MRP43 29051 99181 70159 ///// 00101 26/// /0404 10177 29017 30184 90500 333 60000
OOXX MRP43 29051 99181 70159 ///// 00101 26/// /0503 10173 29018 30185 90510 333 60000
OOXX MRP43 29051 99181 70159 ///// 00101 26/// /0503 10172 29018 30186 90520 333 60000
OOXX MRP43 29051 99181 70159 ///// 00101 26/// /0403 10171 29019 30185 90530 333 60000
OOXX MRP43 29051 99181 70159 ///// 00101 26/// /0403 10170 29019 30187 90540 333 60000
OOXX MRP43 29051 99181 70159 ///// 00101 26/// /0403 10168 29019 30186 90550 333 60000
OOXX MRP43 29061 99181 70159 ///// 00101 26/// /0403 10166 29020 30189 90600 333 60000
OOXX MRP43 29061 99181 70159 ///// 00101 26/// /0403 10166 29020 30189 90610 333 60000
OOXX MRP43 29061 99181 70159 ///// 00101 26/// /0403 10164 29020 30190 90620 333 60000
OOXX MRP43 29061 99181 70159 ///// 00101 26/// /0404 10164 29020 30191 90630 333 60000
OOXX MRP43 29061 99181 70159 ///// 00101 26/// /0403 10164 29021 30193 90640 333 60000
OOXX GBP68 29041 99371 50123 ///// 00641 26/// /3510 10000 29087 30150 90410 333 60000
OOXX GBP68 29041 99371 50123 ///// 00641 26/// /3510 10000 29088 30151 90420 333 60000
OOXX GBP68 29041 99371 50123 ///// 00641 26/// /3510 10000 29088 30152 90430 333 60000
OOXX GBP68 29041 99371 50123 ///// 00641 26/// /3510 10000 29087 30152 90440 333 60000
OOXX GBP68 29041 99371 50123 ///// 00641 26/// /3509 10000 29087 30153 90450 333 60000
OOXX GBP68 29051 99371 50123 ///// 00641 26/// /3510 10000 29087 30153 90500 333 60000
OOXX GBP68 29051 99371 50123 ///// 00641 26/// /3509 10000 29087 30154 90510 333 60000
OOXX GBP68 29051 99371 50123 ///// 00641 26/// /3508 10000 29087 30155 90520 333 60000
OOXX GBP68 29051 99371 50123 ///// 00641 26/// /3509 10000 29087 30158 90530 333 60000
OOXX GBP68 29051 99371 50123 ///// 00641 26/// /3509 10000 29085 30157 90540 333 60000
OOXX GBP68 29051 99371 50123 ///// 00641 26/// /3510 10000 29084 30157 90550 333 60000
OOXX GBP68 29061 99371 50123 ///// 00641 26/// /3510 10000 29086 30160 90600 333 60000
OOXX FJP26 29041 99178 31775 ///// 00311 26/// /1904 10323 29053 30023 90420 333 60000
OOXX FJP26 29041 99178 31775 ///// 00311 26/// /1904 10320 29051 30023 90430 333 60000
OOXX FJP26 29041 99178 31775 ///// 00311 26/// /2004 10319 29052 30024 90440 333 60000
OOXX FJP26 29041 99178 31775 ///// 00311 26/// /2104 10319 29053 30024 90450 333 60000
OOXX FJP26 29051 99178 31775 ///// 00311 26/// /2003 10318 29055 30025 90500 333 60000
OOXX FJP26 29051 99178 31775 ///// 00311 26/// /2004 10316 29056 30026 90510 333 60000
OOXX FJP26 29051 99178 31775 ///// 00311 26/// /2103 10314 29055 30026 90520 333 60000
OOXX FJP26 29051 99178 31775 ///// 00311 26/// /2004 10313 29056 30027 90530 333 60000
OOXX FJP26 29051 99178 31775 ///// 00311 26/// /2004 10309 29058 30029 90540 333 60000
OOXX FJP26 29051 99178 31775 ///// 00311 26/// /2003 10306 29061 30030 90550 333 60000
OOXX FJP26 29061 99178 31775 ///// 00311 26/// /2003 10301 29059 30032 90600 333 60000
OOXX FJP26 29061 99178 31775 ///// 00311 26/// /1902 10295 29060 30033 90610 333 60000
OOXX ARP01 29041 99345 50585 ///// 00311 26/// /1101 10106 29036 30137 90420 333 60000
OOXX ARP01 29041 99345 50585 ///// 00311 26/// /1101 10105 29035 30135 90430 333 60000
OOXX ARP01 29041 99345 50585 ///// 00311 26/// /1101 10105 29035 30134 90440 333 60000
OOXX ARP01 29041 99345 50585 ///// 00311 26/// /1101 10104 29035 30133 90450 333 60000
OOXX ARP01 29051 99345 50585 ///// 00311 26/// /1101 10105 29035 30133 90500 333 60000
OOXX ARP01 29051 99345 50585 ///// 00311 26/// /1101 10104 29035 30131 90510 333 60000
OOXX ARP01 29051 99345 50585 ///// 00311 26/// /1101 10103 29035 30131 90520 333 60000
OOXX ARP01 29051 99345 50585 ///// 00311 26/// /1101 10103 29035 30129 90530 333 60000
OOXX ARP01 29051 99345 50585 ///// 00311 26/// /1101 10102 29034 30129 90540 333 60000
OOXX ARP01 29051 99345 50585 ///// 00311 26/// /1101 10102 29034 30131 90550 333 60000
OOXX ARP01 29061 99345 50585 ///// 00311 26/// /1101 10101 29034 30131 90600 333 60000
OOXX KIP39 29041 99020 51574 ///// 00181 26/// /1006 10259 29083 30089 90430 333 60000
OOXX KIP39 29041 99020 51574 ///// 00181 26/// /1006 10259 29084 30089 90440 333 60000
OOXX KIP39 29041 99020 51574 ///// 00181 26/// /1006 10258 29083 30091 90450 333 60000
OOXX KIP39 29051 99020 51574 ///// 00181 26/// /1006 10258 29083 30091 90500 333 60000
OOXX KIP39 29051 99020 51574 ///// 00181 26/// /1005 10258 29084 30092 90510 333 60000
OOXX KIP39 29051 99020 51574 ///// 00181 26/// /1005 10257 29084 30092 90520 333 60000
OOXX KIP39 29051 99020 51574 ///// 00181 26/// /1006 10257 29083 30093 90530 333 60000
OOXX KIP39 29051 99020 51574 ///// 00181 26/// /1006 10258 29084 30094 90540 333 60000
OOXX KIP39 29051 99020 51574 ///// 00181 26/// /1006 10257 29084 30095 90550 333 60000
OOXX KIP39 29061 99020 51574 ///// 00181 26/// /1005 10256 29084 30096 90600 333 60000
OOXX KIP39 29061 99020 51574 ///// 00181 26/// /1006 10257 29084 30097 90610 333 60000
OOXX KIP39 29061 99020 51574 ///// 00181 26/// /1005 10257 29084 30097 90620 333 60000
OOXX FRP29 29041 99210 30556 ///// 00751 26/// /1906 10284 29072 39861 90409 333 60000
OOXX FRP29 29041 99210 30556 ///// 00751 26/// /1906 10286 29073 39865 90419 333 60000
OOXX FRP29 29041 99210 30556 ///// 00751 26/// /1706 10287 29073 39866 90429 333 60000
OOXX FRP29 29041 99210 30556 ///// 00751 26/// /1706 10289 29073 39868 90439 333 60000
OOXX FRP29 29041 99210 30556 ///// 00751 26/// /1606 10284 29075 39868 90449 333 60000
OOXX FRP29 29041 99210 30556 ///// 00751 26/// /1706 10286 29074 39869 90459 333 60000
OOXX FRP29 29051 99210 30556 ///// 00751 26/// /1205 10289 29074 39868 90509 333 60000
OOXX FRP29 29051 99210 30556 ///// 00751 26/// /1205 10283 29076 39869 90519 333 60000
OOXX FRP29 29051 99210 30556 ///// 00751 26/// /1305 10288 29074 39870 90529 333 60000
OOXX FRP29 29051 99210 30556 ///// 00751 26/// /1206 10290 29074 39869 90539 333 60000
OOXX FRP29 29051 99210 30556 ///// 00751 26/// /1305 10286 29076 39873 90549 333 60000
OOXX FRP29 29051 99210 30556 ///// 00751 26/// /1306 10288 29074 39871 90559 333 60000
OOXX RUP54 29041 99586 10494 ///// 01271 26/// /1004 11037 29089 39846 90427 333 60120
OOXX RUP54 29041 99586 10494 ///// 01271 26/// /1103 11038 29089 39850 90437 333 60120
OOXX RUP54 29041 99586 10494 ///// 01271 26/// /1004 11039 29089 39853 90447 333 60120
OOXX RUP54 29041 99586 10494 ///// 01271 26/// /1004 11040 29089 39855 90457 333 60120
OOXX RUP54 29051 99586 10494 ///// 01271 26/// /1104 11040 29089 39857 90507 333 60120
OOXX RUP54 29051 99586 10494 ///// 01271 26/// /1004 11042 29089 39859 90517 333 60120
OOXX RUP54 29051 99586 10494 ///// 01271 26/// /1104 11043 29089 39862 90527 333 60120
OOXX RUP54 29051 99586 10494 ///// 01271 26/// /1204 11043 29089 39864 90537 333 60120
OOXX RUP54 29051 99586 10494 ///// 01271 26/// /1403 11043 29089 39865 90547 333 60120
OOXX RUP54 29051 99586 10494 ///// 01271 26/// /1003 11043 29089 39869 90557 333 60120
OOXX RUP54 29061 99586 10494 ///// 01271 26/// /1004 11044 29089 39870 90607 333 60120
OOXX RUP54 29061 99586 10494 ///// 01271 26/// /0904 11044 29089 39871 90617 333 60120
OOXX SEP63 29041 99594 10180 ///// 00401 26/// /0405 10045 29082 39880 90410 333 60000
OOXX SEP63 29041 99594 10180 ///// 00401 26/// /0305 10045 29081 39870 90420 333 60000
OOXX SEP63 29041 99594 10180 ///// 00401 26/// /0505 10045 29081 39870 90430 333 60000
OOXX SEP63 29041 99594 10180 ///// 00401 26/// /0304 10045 29079 39870 90440 333 60000
OOXX SEP63 29041 99594 10180 ///// 00401 26/// /0905 10045 29078 39870 90450 333 60000
OOXX SEP63 29051 99594 10180 ///// 00401 26/// /0505 10046 29076 39860 90500 333 60000
OOXX SEP63 29051 99594 10180 ///// 00401 26/// /0305 10046 29077 39860 90510 333 60000
OOXX SEP63 29051 99594 10180 ///// 00401 26/// /0106 10045 29077 39860 90520 333 60000
OOXX SEP63 29051 99594 10180 ///// 00401 26/// /0205 10045 29078 39860 90530 333 60000
OOXX SEP63 29051 99594 10180 ///// 00401 26/// /0406 10045 29079 39850 90540 333 60000
OOXX SEP63 29051 99594 10180 ///// 00401 26/// /0206 10045 29079 39850 90550 333 60000
OOXX SEP63 29061 99594 10180 ///// 00401 26/// /0706 10046 29077 39850 90600 333 60000
OOXX AUP09 29041 99124 31309 ///// 00321 26/// ///// 1//// 29/// 3//// 90415 333 6///0
OOXX AUP09 29041 99124 31309 ///// 00321 26/// ///// 1//// 29/// 3//// 90425 333 6///0
OOXX AUP09 29041 99124 31309 ///// 00321 26/// ///// 1//// 29/// 3//// 90435 333 6///0
OOXX AUP09 29041 99124 31309 ///// 00321 26/// ///// 1//// 29/// 3//// 90445 333 6///0
OOXX AUP09 29041 99124 31309 ///// 00321 26/// ///// 1//// 29/// 3//// 90455 333 6///0
OOXX AUP09 29051 99124 31309 ///// 00321 26/// ///// 1//// 29/// 3//// 90505 333 6///0
OOXX AUP09 29051 99124 31309 ///// 00321 26/// ///// 1//// 29/// 3//// 90515 333 6///0
OOXX AUP09 29051 99124 31309 ///// 00321 26/// ///// 1//// 29/// 3//// 90525 333 6///0
OOXX AUP09 29051 99124 31309 ///// 00321 26/// ///// 1//// 29/// 3//// 90535 333 6///0
OOXX AUP09 29051 99124 31309 ///// 00321 26/// ///// 1//// 29/// 3//// 90545 333 6///0
OOXX AUP09 29051 99124 31309 ///// 00321 26/// ///// 1//// 29/// 3//// 90555 333 6///0
OOXX AUP09 29061 99124 31309 ///// 00321 26/// ///// 1//// 29/// 3//// 90605 333 6///0
OOXX AUP07 29041 99/// ///// ///// ///// 26/// /2412 10072 29075 39938 90450 333 60000
OOXX AUP07 29051 99/// ///// ///// ///// 26/// /2411 10060 29078 39941 90500 333 60000
OOXX AUP07 29051 99/// ///// ///// ///// 26/// /2410 10069 29079 39941 90510 333 60000
OOXX AUP07 29051 99/// ///// ///// ///// 26/// /2411 10068 29078 39945 90520 333 60000
OOXX AUP07 29051 99/// ///// ///// ///// 26/// /2412 10066 29077 39946 90530 333 60000
OOXX AUP07 29051 99/// ///// ///// ///// 26/// /2412 10058 29077 39950 90540 333 69920
OOXX AUP07 29051 99/// ///// ///// ///// 26/// /2412 10055 29080 39953 90550 333 60000
OOXX AUP07 29061 99/// ///// ///// ///// 26/// /2412 10062 29080 39954 90600 333 60000
OOXX AUP07 29061 99/// ///// ///// ///// 26/// /2413 10061 29078 39956 90610 333 60000
OOXX AUP07 29061 99/// ///// ///// ///// 26/// /2412 10062 29077 39958 90620 333 60000
OOXX AUP07 29061 99/// ///// ///// ///// 26/// /2412 10061 29076 39961 90630 333 60000
OOXX AUP07 29061 99/// ///// ///// ///// 26/// /2413 10056 29074 39964 90640 333 60000
OOXX RUP59 29041 99539 10848 ///// 02121 26/// /3602 11098 29072 39961 90450 333 60000
OOXX RUP59 29051 99539 10848 ///// 02121 26/// /3603 11098 29072 39960 90500 333 60000
OOXX RUP59 29051 99539 10848 ///// 02121 26/// /3602 11097 29072 39960 90510 333 60000
OOXX RUP59 29051 99539 10848 ///// 02121 26/// /3502 11095 29071 39959 90520 333 60000
OOXX RUP59 29051 99539 10848 ///// 02121 26/// /3601 11089 29069 39959 90530 333 60000
OOXX RUP59 29051 99539 10848 ///// 02121 26/// /3502 11089 29069 39958 90540 333 60000
OOXX RUP59 29051 99539 10848 ///// 02121 26/// /3502 11089 29069 39956 90550 333 60000
OOXX RUP59 29061 99539 10848 ///// 02121 26/// /3602 11091 29069 39955 90600 333 60000
OOXX RUP59 29061 99539 10848 ///// 02121 26/// /3603 11090 29069 39954 90610 333 60000
OOXX RUP59 29061 99539 10848 ///// 02121 26/// /3602 11087 29069 39952 90620 333 60000
OOXX RUP59 29061 99539 10848 ///// 02121 26/// /0102 11085 29068 39950 90630 333 60000
OOXX RUP59 29061 99539 10848 ///// 02121 26/// /0102 11083 29067 39949 90640 333 60000
OOXX CAP17 29041 99476 70527 ///// 01331 26/// /1103 10028 29097 39825 90400 333 60000
OOXX CAP17 29041 99476 70527 ///// 01331 26/// /1302 10028 29097 39817 90410 333 60000
OOXX CAP17 29041 99476 70527 ///// 01331 26/// /1702 10025 29097 39811 90420 333 60000
OOXX CAP17 29041 99476 70527 ///// 01331 26/// /1502 10024 29097 39810 90430 333 60000
OOXX CAP17 29041 99476 70527 ///// 01331 26/// /1301 10023 29098 39810 90440 333 60000
OOXX CAP17 29041 99476 70527 ///// 01331 26/// /1102 10026 29098 39812 90450 333 60000
OOXX CAP17 29051 99476 70527 ///// 01331 26/// /1102 10027 29097 39811 90500 333 60000
OOXX CAP17 29051 99476 70527 ///// 01331 26/// /1003 10027 29097 39810 90510 333 60000
OOXX CAP17 29051 99476 70527 ///// 01331 26/// /0902 10028 29097 39807 90520 333 60000
OOXX CAP17 29051 99476 70527 ///// 01331 26/// /0802 10029 29097 39802 90530 333 60000
OOXX CAP17 29051 99476 70527 ///// 01331 26/// /0903 10029 29097 39799 90540 333 60000
OOXX CAP17 29051 99476 70527 ///// 01331 26/// /0803 10030 29097 39797 90550 333 60000
OOXX ISP34 29041 99641 70219 ///// 01301 26/// /2103 11013 29001 39874 90410 333 6///0
OOXX ISP34 29041 99641 70219 ///// 01301 26/// /2303 11013 29001 39875 90420 333 6///0
OOXX ISP34 29041 99641 70219 ///// 01301 26/// /2103 11013 29001 39876 90430 333 6///0
OOXX ISP34 29041 99641 70219 ///// 01301 26/// /2602 11012 29001 39879 90440 333 6///0
OOXX ISP34 29041 99641 70219 ///// 01301 26/// /2802 11010 29001 39878 90450 333 6///0
OOXX ISP34 29051 99641 70219 ///// 01301 26/// /3403 10000 29001 39879 90500 333 6///0
OOXX ISP34 29051 99641 70219 ///// 01301 26/// /3003 10004 29001 39881 90510 333 6///0
OOXX ISP34 29051 99641 70219 ///// 01301 26/// /2803 11001 29001 39883 90520 333 6///0
OOXX ISP34 29051 99641 70219 ///// 01301 26/// /3003 11002 29001 39885 90530 333 6///0
OOXX ISP34 29051 99641 70219 ///// 01301 26/// /3202 10000 29001 39886 90540 333 6///0
OOXX ISP34 29051 99641 70219 ///// 01301 26/// /3102 10002 29001 39886 90550 333 6///0
OOXX ISP34 29061 99641 70219 ///// 01301 26/// /2901 10003 29001 39885 90600 333 6///0
OOXX RUP58 29041 99442 11320 ///// 01121 26/// /3601 11142 29051 30106 90452 333 60000
OOXX RUP58 29051 99442 11320 ///// 01121 26/// /0602 11140 29049 30106 90502 333 60000
OOXX RUP58 29051 99442 11320 ///// 01121 26/// /0602 11140 29049 30106 90512 333 60000
OOXX RUP58 29051 99442 11320 ///// 01121 26/// /1503 11144 29054 30105 90522 333 60000
OOXX RUP58 29051 99442 11320 ///// 01121 26/// /1202 11146 29058 30107 90532 333 60000
OOXX RUP58 29051 99442 11320 ///// 01121 26/// /1802 11148 29059 30107 90542 333 60000
OOXX RUP58 29051 99442 11320 ///// 01121 26/// /1403 11153 29063 30109 90552 333 60000
OOXX RUP58 29061 99442 11320 ///// 01121 26/// /1603 11153 29065 30110 90602 333 60000
OOXX RUP58 29061 99442 11320 ///// 01121 26/// /1702 11156 29066 30109 90612 333 60000
OOXX RUP58 29061 99442 11320 ///// 01121 26/// /1602 11156 29067 30110 90622 333 60000
OOXX RUP58 29061 99442 11320 ///// 01121 26/// /1402 11157 29067 30111 90632 333 60000
OOXX RUP58 29061 99442 11320 ///// 01121 26/// /1402 11156 29068 30111 90642 333 60000
OOXX NZP46 29041 99438 51765 ///// 00221 26/// /3510 10189 29082 30168 90430 333 60000
OOXX NZP46 29041 99438 51765 ///// 00221 26/// /3509 10187 29082 30168 90440 333 60000
OOXX NZP46 29041 99438 51765 ///// 00221 26/// /3509 10184 29084 30167 90450 333 60000
OOXX NZP46 29051 99438 51765 ///// 00221 26/// /3609 10182 29084 30167 90500 333 60000
OOXX NZP46 29051 99438 51765 ///// 00221 26/// /3609 10175 29087 30166 90510 333 60000
OOXX NZP46 29051 99438 51765 ///// 00221 26/// /3609 10179 29087 30166 90520 333 60000
OOXX NZP46 29051 99438 51765 ///// 00221 26/// /3609 10178 29087 30166 90530 333 60000
OOXX NZP46 29051 99438 51765 ///// 00221 26/// /3609 10176 29088 30166 90540 333 60000
OOXX NZP46 29051 99438 51765 ///// 00221 26/// /3609 10173 29090 30167 90550 333 60000
OOXX NZP46 29061 99438 51765 ///// 00221 26/// /3609 10171 29091 30168 90600 333 60000
OOXX NZP46 29061 99438 51765 ///// 00221 26/// /3608 10168 29092 30169 90610 333 60000
OOXX NZP46 29061 99438 51765 ///// 00221 26/// /3608 10165 29094 30169 90620 333 60000
OOXX AUP06 29041 99192 31468 ///// 00071 26/// /3002 10278 29061 30055 90456 333 60000
OOXX AUP06 29051 99192 31468 ///// 00071 26/// /3602 10276 29060 30053 90506 333 60000
OOXX AUP06 29051 99192 31468 ///// 00071 26/// /3602 10278 29063 30052 90516 333 60000
OOXX AUP06 29051 99192 31468 ///// 00071 26/// /0303 10276 29063 30051 90526 333 60000
OOXX AUP06 29051 99192 31468 ///// 00071 26/// /0303 10274 29064 30049 90536 333 60000
OOXX AUP06 29051 99192 31468 ///// 00071 26/// /0204 10272 29065 30050 90546 333 60000
OOXX AUP06 29051 99192 31468 ///// 00071 26/// /0204 10271 29065 30049 90556 333 60000
OOXX AUP06 29061 99192 31468 ///// 00071 26/// /0104 10271 29065 30050 90606 333 60000
OOXX AUP06 29061 99192 31468 ///// 00071 26/// /0104 10275 29064 30051 90616 333 60000
OOXX AUP06 29061 99192 31468 ///// 00071 26/// /0104 10273 29062 30053 90626 333 60000
OOXX AUP06 29061 99192 31468 ///// 00071 26/// /0104 10276 29063 30054 90636 333 60000
OOXX AUP06 29061 99192 31468 ///// 00071 26/// /0104 10274 29062 30055 90646 333 60000
OOXX MXP44 29041 99280 71140 ///// 00041 26/// /1422 10126 29054 30154 90410 333 60000
OOXX MXP44 29041 99280 71140 ///// 00041 26/// /1422 10123 29054 30156 90420 333 60000
OOXX MXP44 29041 99280 71140 ///// 00041 26/// /1422 10119 29054 30157 90430 333 60000
OOXX MXP44 29041 99280 71140 ///// 00041 26/// /1422 10116 29054 30157 90440 333 60000
OOXX MXP44 29041 99280 71140 ///// 00041 26/// /1422 10116 29054 30158 90450 333 60000
OOXX MXP44 29051 99280 71140 ///// 00041 26/// /1422 10117 29054 30159 90500 333 60000
OOXX MXP44 29051 99280 71140 ///// 00041 26/// /1422 10113 29054 30159 90510 333 60000
OOXX MXP44 29051 99280 71140 ///// 00041 26/// /1422 10116 29054 30158 90520 333 60000
OOXX MXP44 29051 99280 71140 ///// 00041 26/// /1422 10121 29054 30157 90530 333 60000
OOXX MXP44 29051 99280 71140 ///// 00041 26/// /1422 10122 29054 30157 90540 333 60000
OOXX MXP44 29051 99280 71140 ///// 00041 26/// /1422 10121 29054 30156 90550 333 60000
OOXX MXP44 29061 99280 71140 ///// 00041 26/// /1422 10122 29054 30156 90600 333 60000
AAXX 29064 89610 46/// /0405 11008 39590 4//// 5//// 333 90700 91106
AAXX 29064 89610 46/// /0405 11008 39590 4//// 5//// 333 90700 91106
AAXX 29064 89610 46/// /0405 11008 39590 4//// 5//// 333 90700 91106
AAXX 29064 91559 46/// /9901 10279 40053 22200 00291
AAXX 29064 71425 17/// /2919 11019 21029 39721 49756 57033 60011 7//4/ 333 10065 21019 70060 555 31956 40173
AAXX 29064 71429 16/// /1505 10010 20007 39720 49739 56037 60001 333 10039 21006 70269 555 31638 40193
AAXX 29064 71568 17/// /2919 10072 20053 30008 40020 53054 60051 7//4/ 333 10089 20058 70138 555 32829 41053
AAXX 29064 71220 46/// /2608 10044 20008 6///1 333 10082 20018 7////
AAXX 29064 71723 16/// /2814 11127 21195 30035 40045 52023 60001 333 10030 21127 70026 555 33122 40211
AAXX 29064 71778 46/// /2634 6///1 333 7//// 555 32641 40063
AAXX 29064 71781 46/// /2420 10103 20050 39983 40007 51042 6///1 333 10129 20079 7//// 555 31145 40083
AAXX 29064 71389 46/// /2909 11136 21176 6///1 333 10023 21136 7//// 555 33023 40001
AAXX 29064 71392 16/// /2510 11131 21175 60001 333 10020 21131 70100 555 32526 40211
AAXX 29064 60107 32960 01604 10058 20022 40297 57008 333 20055 30004
AAXX 29064 91531 46/// /0505 1//// 40053 22200 00275
AAXX 29061 11933 12984 12604 11027 21044 38656 48470 57013 60002 80001 333 21043 3/107 44037 70001 81068 91010 444 57102
AAXX 2906/ 89329 46/// ///// 11101 38697 4//// 5//// 90630
AAXX 2906/ 89799 46/// ///// 11249 4//// 5//// 90640
AAXX 2906/ 89868 46/// ///// 11040 39768 4//// 5//// 90640
AAXX 2906/ 89327 46/// ///// 11024 39588 4//// 5//// 90640
AAXX 2906/ 89332 46/// ///// 11049 39192 4//// 5//// 90630
AAXX 2906/ 89769 46/// ///// 10001 39839 4//// 5//// 90640
AAXX 2906/ 89314 46/// ///// 11118 38152 4//// 5//// 90640
AAXX 29064 17199 12970 00000 11016 21068 39158 40298 52005 60002 333 21039 34107 55085 20741
AAXX 29064 61401 NIL
AAXX 29064 61404 NIL
AAXX 29064 61415 32958 50415 10162 20055 30226 40231 85070 333 20160 50784 55015 58021 85463
AAXX 29064 61421 NIL
AAXX 29064 61437 NIL
AAXX 29064 61442 32956 00607 10175 21070 30194 40198 333 01600 20175 50274 55053 58018
AAXX 29064 61450 NIL
AAXX 29064 61461 NIL
AAXX 29064 61489 NIL
AAXX 29064 61492 NIL
AAXX 29064 61497 NIL
AAXX 29064 61498 NIL
AAXX 29064 61499 31950 40410 10140 21046 39934 40193 70611 84070 333 0//00 20130 51054 55/// 58022 84363
AAXX 29064 67855 11970 70101 10226 20212 3//// 48/// 60084 70522 85071 333 20198 5//// 85460 87080
AAXX 29064 67951 11380 61805 10221 20192 3//// 48/// 60234 70242 81638 333 20176 5//// 81707 83360 86280
AAXX 29064 67963 12480 71201 10207 20193 3//// 48/// 60104 875// 333 20184 5//// 81706 87610
AAXX 29064 67971 11370 81202 10223 20212 3//// 48/// 60194 75052 866// 333 20201 5//// 86708 88610
AAXX 29064 67755 12975 70000 10254 20227 3//// 48/// 60064 87031 333 20212 5//// 87357
AAXX 29064 67969 11475 80902 10229 20215 3//// 48/// 60294 75052 885// 333 20218 5//// 88615
AAXX 29064 67843 32980 60304 10248 20196 38944 48505 85031 333 20/// 59015 85359 83080
AAXX 29064 67977 11465 81506 10228 20223 39630 48540 60054 75065 8657/ 333 20223 59003 86611 87460
AAXX 29064 67765 NIL
AAXX 29064 67775 11980 70705 10202 20182 38504 48508 69904 70262 8707/ 333 20178 59019 87458
AAXX 29064 67779 11/80 70000 10204 20191 39056 48509 69974 71796 81973 333 20199 59010 819// 87360
AAXX 29064 67853 NIL
AAXX 29064 67861 32480 80901 10201 20185 38716 48496 886// 333 20188 59020 88710
AAXX 29064 67867 11380 70506 10198 20193 38573 48501 60074 70242 8763/ 333 20176 59017 87708
AAXX 29064 67881 NIL
AAXX 29064 67965 NIL
AAXX 29064 67975 NIL
AAXX 29064 67977 NIL
AAXX 29064 67983 11220 80000 10200 20188 38877 48504 60134 76165 8177/ 333 20191 59013 81705 88458
AAXX 29064 67991 11675 71304 10216 20190 39584 48484 60044 70261 8257/ 333 20210 58003 82630 87460
AAXX 29064 67755 NIL
AAXX 29064 67771 11470 71501 10221 20194 3//// 48/// 60894 72162 81772 333 20193 5//// 81710 85460 87080
AAXX 29064 67773 32480 70605 10238 20179 3//// 48/// 82530 333 20191 5//// 82615 87360
AAXX 29064 67774 NIL
AAXX 29064 67785 NIL
AAXX 29064 67789 NIL
AAXX 29064 67855 NIL
AAXX 29064 67857 NIL
AAXX 29064 67863 NIL
AAXX 29064 67871 NIL
AAXX 29064 67875 NIL
AAXX 29064 67891 NIL
AAXX 29064 67895 NIL
AAXX 29064 67897 NIL
AAXX 29064 67899 NIL
AAXX 29064 67951 NIL
AAXX 29064 67963 NIL
AAXX 29064 67967 NIL
AAXX 29064 67971 NIL
AAXX 29064 67976 NIL
AAXX 29064 67979 11580 80701 10234 20215 3//// 48/// 60584 70262 885// 333 20208 5//// 88621
AAXX 29064 67881 11360 80000 10182 20177 38578 48505 60634 76096 8277/ 333 20175 59010 82707 88460
AAXX 29064 67975 11475 70908 10222 20197 38918 48510 60224 70296 87532 333 20194 59008 87610
AAXX 29064 67965 11360 71503 10209 20176 38687 48512 60044 71542 8753/ 333 20186 59007 87606
AAXX 29064 67785 11480 70504 10214 20191 3//// 48/// 60224 70262 81571 333 20184 5//// 81615 87459
AAXX 29064 67871 11265 80704 10195 20185 38543 48501 60104 70562 8667/ 333 20175 59013 86705 88460
AAXX 29064 67765 12981 70902 10223 20191 38664 48508 60074 81088 333 20190 59021 81360 87280
AAXX 29064 67977 11465 81506 10228 20223 39630 48540 60054 75065 8657/ 333 20223 59003 86611 87460
BBXX V7NV4 29064 99320 11520 41797 71718 10160 20108 40170 55010 7//21 86622 22263 00210 20206 31717 40206 50206 6//// 80130 ICE /////
AAXX 29064 67765 NIL
AAXX 29064 67775 11980 70705 10202 20182 38504 48508 69904 70262 8707/ 333 20178 59019 87458
AAXX 29064 67779 11/80 70000 10204 20191 39056 48509 69974 71796 81973 333 20199 59010 819// 87360
AAXX 29064 67853 NIL
AAXX 29064 67861 32480 80901 10201 20185 38716 48496 886// 333 20188 59020 88710
AAXX 29064 67867 11380 70506 10198 20193 38573 48501 60074 70242 8763/ 333 20176 59017 87708
AAXX 29064 67881 NIL
AAXX 29064 67965 NIL
AAXX 29064 67975 NIL
AAXX 29064 67977 NIL
AAXX 29064 67983 11220 80000 10200 20188 38877 48504 60134 76165 8177/ 333 20191 59013 81705 88458
AAXX 29064 67991 11675 71304 10216 20190 39584 48484 60044 70261 8257/ 333 20210 58003 82630 87460
BBXX WCN3586 29064 99589 71413 41497 82730 11011 2//// 49830 52/// 70222 885// 22231 0//// 20302 327// 4//08 5//// 6//// 8//// ICE /////
BBXX WDB9647 29064 99591 71418 41497 82725 1//// 2//// 49830 52/// 70287 885// 22272 0//// 20302 327// 4//04 5//// 6//// 8//// ICE /////
BBXX WSM5364 29064 99589 71419 41495 82733 11011 2//// 49820 52/// 78572 8762/ 22232 04058 20302 327// 4//08 5//// 6//// 8//// ICE /////
BBXX WYL4318 29064 99590 71401 41395 82728 11011 2//// 49820 52/// 77172 8762/ 22232 0//// 20302 327// 4//08 5//// 6//// 8//// ICE /////
BBXX 46109 29061 99481 71234 46/// /2306 10097 40057 90557 22200 00076
BBXX 46110 29061 99481 71230 46/// /2204 10094 40051 90558
AAXX 29064 41257 36/// /1004 10190 20149 39730 40221 333 0E014 20150 58017
AAXX 29064 71473 17/// /2503 10075 20048 30002 40032 53041 60031 7//4/ 333 10091 20067 70064 555 32034 40083
AAXX 29064 71016 16/// ///// 10061 60001 333 10080 20011 70000
AAXX 29064 71315 17/// ///// 11035 21059 39756 49808 53004 60011 7//4/ 333 10029 21035 70055
AAXX 29064 71765 17/// /1817 10060 20031 39687 49955 55015 60071 7//4/ 333 10088 20026 70097 555 31744 40093
AAXX 29064 71780 17/// /2724 10085 20067 30032 40059 53043 60101 7//4/ 333 10107 20080 70366 555 32638 40043
BBXX 44055 29061 99391 70753 46/// ///// 1//// 90630 22200 00080 10301 70006
AAXX 29064 16008 12560 83505 10006 21058 38558 48515 53009 60002 886// 333 21032 43016 55/// 2//// 88720 92871
AAXX 29064 91642 46/// /0000 1//// 40069 22200 0////
AAXX 2906/ 89866 46/// ///// 11030 39728 4//// 5//// 90610
AAXX 2906/ 89329 46/// ///// 11090 38698 4//// 5//// 90610
AAXX 2906/ 89327 46/// ///// 11023 39592 4//// 5//// 90610
AAXX 2906/ 89879 46/// ///// 11001 39756 4//// 5//// 90610
AAXX 2906/ 89332 46/// ///// 11050 39193 4//// 5//// 90610
AAXX 2906/ 89769 46/// ///// 11005 39842 4//// 5//// 90610
AAXX 2906/ 89769 46/// ///// 11006 39842 4//// 5//// 90620
AAXX 2906/ 89314 46/// ///// 11113 38153 4//// 5//// 90620
AAXX 2906/ 89667 46/// ///// 4//// 5//// 90640
AAXX 29061 23226 11460 81606 11114 21142 39662 49882 58001 69930 77172 8452/ 333 21109 84616
AAXX 29064 89573 35980 01102 10028 21104 39778 49800 57033
AAXX 29064 89573 35980 01102 10028 21104 39778 49800 57033
BBXX WKPY 29064 99393 70215 41598 81410 10160 20144 40395 54000 7//// 8847/ 22265 00177 2//// 3//// 4//// 5//// 6//// 80150 ICE /////
BBXX 44055 29061 99391 70753 46/// ///// 1//// 90630 22200 00080 10301 70006
BBXX 46109 29061 99481 71234 46/// /2306 10097 40057 90557 22200 00076
BBXX 46110 29061 99481 71230 46/// /2204 10094 40051 90558
BBXX C6VG8 29064 99255 70772 41/98 23613 10200 2//// 40190 54000 7//00 8//// 22232 00250 20203 336// 40303 5//// 6//// 8//// ICE /////
BBXX WKPY 29064 99393 70215 41598 81410 10160 20144 40395 54000 7//// 8847/ 22265 00177 2//// 3//// 4//// 5//// 6//// 80150 ICE /////
AAXX 29064 71026 16/// /2307 10038 21017 39145 49978 56024 60001 333 7////
AAXX 29064 71165 46/// ///04 11302 21331 39719 40015 58004 6///1 333 11167 21316 7////
AAXX 29064 16172 11658 40000 11030 21036 39945 40261 57015 60002 71011 84500 333 21040 34/// 55/// 2//// 84640 92611
AAXX 29061 50468 32970 20000 11132 21248 30109 40338 57019 80002 333 21266
AAXX 29061 50953 32970 02702 11145 21213 30184 40382 57010 333 21247
AAXX 29061 51076 32980 02501 11075 21164 39427 40375 57006 333 00201 21203
AAXX 29061 51243 11865 72202 11139 21172 39783 40392 57008 69901 70070 83502 333 00201 21196
AAXX 29061 51288 32980 10401 11070 21178 38374 57007 80002 333 00200 21153
AAXX 29061 51463 32780 60902 11047 21121 39174 40337 57016 81502 333 00001 21120
AAXX 29061 51573 32975 20701 11066 21158 30328 40375 57010 80002 333 00100 21113
AAXX 29061 51709 31959 02202 11042 21092 38794 40352 52001 70400 333 00202 21104
AAXX 29061 52533 32980 03602 11043 21189 38568 40347 57008 333 00252 21166
AAXX 29061 52652 32965 03405 11033 21166 38566 40319 57019 333 00052 21187
AAXX 29061 52866 32975 00000 10025 21188 37708 57034 333 00106 21160
AAXX 29061 52889 31957 02001 10018 21117 38508 40273 57040 70400 333 00002 21066
AAXX 29061 53463 31957 02701 11021 21142 39041 40349 57027 70400 333 00001 21131
AAXX 29061 53513 32965 03601 11036 21118 39055 40347 57026 333 00000 21156
AAXX 29061 53588 31470 12704 11069 21140 37811 57016 70040 81100 333 21128
AAXX 29061 53772 31930 72201 10010 21080 39372 40330 57032 70400 80002 333 21059
AAXX 29061 53915 32761 71102 10013 21045 38711 40297 57029 83502 333 00100 21059
AAXX 29061 54218 32970 00901 11080 21198 39528 40398 57026 333 21205
AAXX 29061 54337 32980 00403 11076 21234 30298 40388 57024 333 21160
AAXX 29061 54342 32965 00203 11119 21198 30323 40391 57020 333 21189
AAXX 29061 54401 32962 71402 11050 21106 39443 40358 57028 86032 333 21107
AAXX 29061 54471 32960 00208 11097 21211 30379 40385 57022 333 21167
AAXX 29061 54497 32980 03604 11037 21218 30320 40337 57018 333 21127
AAXX 29061 54511 11765 71802 11031 21111 30328 40371 57028 69901 77070 875// 333 21049
AAXX 29061 54823 31957 00904 10018 21060 30125 40343 57021 70500 333 21014
AAXX 29061 56080 32580 11602 10051 21133 37132 57037 81100 333 00202 21125
AAXX 29061 56096 32770 71602 10074 21018 38989 40246 57036 85502 333 00101 20020
AAXX 29061 57083 31920 80702 10028 21016 30200 40343 57020 71000 8802/ 333 21002
AAXX 29061 50136 32970 72503 11169 21236 39735 40338 57030 80002 333 21384
AAXX 29061 50745 32968 02901 11137 21241 30173 40377 57021 333 21254
AAXX 29061 50774 32962 02502 11161 21225 30014 40352 57011 333 21263
AAXX 29061 50788 11962 82507 11175 21207 30188 40283 57004 69911 77070 8801/ 333 21241
AAXX 29061 51133 32980 72201 11063 21114 39643 40331 57005 80002 333 00154 21131
AAXX 29061 51431 32970 70401 11046 21058 39485 40316 57005 80002 333 00254 21097
AAXX 29061 51747 32965 72202 11100 21150 39020 40409 57002 80002 333 00351 21217
AAXX 29061 52203 32980 42001 11064 21159 39423 40367 57018 80002 333 00100 21178
AAXX 29061 52418 32970 12903 11057 21142 38954 40365 57022 80002 333 00101 21170
AAXX 29061 52681 32980 00403 11024 21127 38670 40317 57031 333 00000 21168
AAXX 29061 53564 32960 00000 11016 21095 39273 40348 57033 333 00000 21148
AAXX 29061 53614 32970 00402 11009 21093 38970 40320 57027 333 00001 21109
AAXX 29061 53646 32965 01803 10009 21076 38918 40313 57025 333 00000 21116
AAXX 29061 53798 11958 80701 11009 21028 30260 40361 57024 69921 77076 8802/ 333 21012 92500
AAXX 29061 53845 32965 00901 10046 21060 39144 40298 57034 333 00001 21062
AAXX 29061 53959 31958 03204 10063 21051 39853 40307 57029 70500 333 21026
AAXX 29061 54094 32968 32907 11157 21240 30014 40344 57009 80002 333 21230
AAXX 29061 54102 32980 02002 11132 21189 39112 40421 57025 333 21290
AAXX 29061 54161 32962 02902 11136 21235 30074 40400 57014 333 21248
AAXX 29061 54292 32980 12707 11125 21230 39983 40329 57007 81030 333 21179
AAXX 29061 54374 32970 01801 11128 21218 39878 40387 57016 333 21245
AAXX 29061 54423 11970 72001 11051 21119 39824 40374 57030 69901 70070 80002 333 21132 92500
AAXX 29061 54618 32964 70902 11004 21079 30345 40364 57028 8703/ 333 21030
AAXX 29061 54843 32680 20205 11002 21066 30330 40359 57021 82500 333 21030
AAXX 29061 54909 31957 83402 10008 21010 30273 40340 57019 71000 8807/ 333 21010
AAXX 29061 56029 32980 02002 10015 21169 36454 57040 333 00200 21166
AAXX 29061 57036 NIL
AAXX 29061 57127 32961 80402 10080 20009 39665 40283 57022 8807/ 333 20053
AAXX 29061 56146 32980 01801 10041 21181 36742 57036 333 00252 21121
AAXX 29061 56444 32980 01401 10052 21086 36823 57023 333 00151 21070
AAXX 29061 56492 31930 71401 10114 20044 39850 40264 57035 71000 8703/ 333 00101 20077
AAXX 29061 56571 32680 11101 10185 20011 38396 57038 81100 333 00251 20034
AAXX 29061 57799 11458 83201 10072 20060 30179 40271 57015 60011 76060 885// 333 20071
AAXX 29061 57866 11440 80204 10048 20030 30066 40280 57025 60011 76066 887// 333 20043
AAXX 29061 57957 11456 83603 10074 20057 30054 40258 57027 69971 76066 885// 333 20063
AAXX 29061 57993 11760 83202 10069 20047 30088 40259 57014 60011 76060 885// 333 20069
AAXX 29061 58027 32761 70703 10048 21053 30272 40326 57018 875// 333 20005
AAXX 29061 58144 NIL
AAXX 29061 58265 31940 70204 10086 20038 30294 40302 57015 70500 8704/ 333 20072
AAXX 29061 58472 32475 60206 10103 20033 30185 40281 57014 86100 333 20095
AAXX 29061 58477 32470 80403 10114 20029 30226 40271 57013 8217/ 333 20102
AAXX 29061 58527 11657 80701 10099 20034 30187 40265 57021 69901 70560 885// 333 20080
AAXX 29061 58633 11940 80703 10089 20077 30164 40266 57016 60021 76060 8807/ 333 20089
AAXX 29061 58666 11462 83611 10101 20079 30151 40255 57013 69911 76060 885// 333 20101
AAXX 29061 58725 11760 83401 10099 20082 39983 40250 57015 60021 76060 885// 333 20093
AAXX 29061 58921 11450 80701 10134 20123 39983 40233 57017 60021 76060 8277/ 333 20116
AAXX 29061 59082 11656 80204 10117 20074 30089 40238 57017 69931 72160 885// 333 20102
AAXX 29061 59211 11420 82501 10122 20109 30015 40226 57024 60011 76060 8377/ 333 20118
AAXX 29061 59265 31750 80202 10155 20073 30067 40206 57030 70500 885// 333 20133
AAXX 29061 59293 32865 71402 10203 20070 30112 40198 57036 875// 333 20122
AAXX 29061 59501 32560 10902 10218 20129 30168 40189 57037 81100 333 20137
AAXX 29061 59663 31956 01604 10212 20110 30081 40189 57031 70500 333 20135
AAXX 29061 59838 32565 13204 10243 20183 30150 40160 57038 81100 333 20185
AAXX 29061 59948 32480 70707 10220 20154 39686 40171 57030 81102 333 20174
AAXX 29061 59981 32578 70405 10250 20217 30142 40149 57027 878// 333 20227
AAXX 29061 50468 32970 20000 11132 21248 30109 40338 57019 80002 333 21266
AAXX 29061 50953 32970 02702 11145 21213 30184 40382 57010 333 21247
AAXX 29061 51076 32980 02501 11075 21164 39427 40375 57006 333 00201 21203
AAXX 29061 51243 11865 72202 11139 21172 39783 40392 57008 69901 70070 83502 333 00201 21196
AAXX 29061 51288 32980 10401 11070 21178 38374 57007 80002 333 00200 21153
AAXX 29061 51463 32780 60902 11047 21121 39174 40337 57016 81502 333 00001 21120
AAXX 29061 51573 32975 20701 11066 21158 30328 40375 57010 80002 333 00100 21113
AAXX 29061 51709 31959 02202 11042 21092 38794 40352 52001 70400 333 00202 21104
AAXX 29061 52533 32980 03602 11043 21189 38568 40347 57008 333 00252 21166
AAXX 29061 52652 32965 03405 11033 21166 38566 40319 57019 333 00052 21187
AAXX 29061 52866 32975 00000 10025 21188 37708 57034 333 00106 21160
AAXX 29061 52889 31957 02001 10018 21117 38508 40273 57040 70400 333 00002 21066
AAXX 29061 53463 31957 02701 11021 21142 39041 40349 57027 70400 333 00001 21131
AAXX 29061 53513 32965 03601 11036 21118 39055 40347 57026 333 00000 21156
AAXX 29061 53588 31470 12704 11069 21140 37811 57016 70040 81100 333 21128
AAXX 29061 53772 31930 72201 10010 21080 39372 40330 57032 70400 80002 333 21059
AAXX 29061 53915 32761 71102 10013 21045 38711 40297 57029 83502 333 00100 21059
AAXX 29061 54218 32970 00901 11080 21198 39528 40398 57026 333 21205
AAXX 29061 54337 32980 00403 11076 21234 30298 40388 57024 333 21160
AAXX 29061 54342 32965 00203 11119 21198 30323 40391 57020 333 21189
AAXX 29061 54401 32962 71402 11050 21106 39443 40358 57028 86032 333 21107
AAXX 29061 54471 32960 00208 11097 21211 30379 40385 57022 333 21167
AAXX 29061 54497 32980 03604 11037 21218 30320 40337 57018 333 21127
AAXX 29061 54511 11765 71802 11031 21111 30328 40371 57028 69901 77070 875// 333 21049
AAXX 29061 54823 31957 00904 10018 21060 30125 40343 57021 70500 333 21014
AAXX 29061 56080 32580 11602 10051 21133 37132 57037 81100 333 00202 21125
AAXX 29061 56096 32770 71602 10074 21018 38989 40246 57036 85502 333 00101 20020
AAXX 29061 57083 31920 80702 10028 21016 30200 40343 57020 71000 8802/ 333 21002
AAXX 29061 56187 32961 71601 10110 20023 39599 40256 57033 8704/ 333 00102 20056
AAXX 29061 56778 32970 02205 10175 20011 38116 57033 333 05203 20069
AAXX 29061 57265 31957 72901 10070 20015 30204 40319 57030 71000 8703/ 333 21003
AAXX 29061 57461 31956 81102 10091 20010 30132 40299 57026 70500 8807/ 333 20067
AAXX 29061 57494 32965 70404 10080 20027 30257 40288 57024 8704/ 333 20031
AAXX 29061 57516 31930 81802 10103 20051 39952 40269 57030 71000 8807/ 333 00100 20079
AAXX 29061 57687 11440 82701 10075 20037 30195 40281 57024 69951 72166 887// 333 20063
AAXX 29061 57816 31625 80903 10041 20004 38837 40264 57028 71000 885// 333 00100 20011
AAXX 29061 58040 32965 00905 10032 21057 30321 40335 57022 333 21016
AAXX 29061 58102 32960 83602 10057 20003 30282 40332 57019 8807/ 333 20012
AAXX 29061 58150 32560 70206 10062 21010 30315 40319 57013 87500 333 20017
AAXX 29061 58221 31930 80403 10056 20015 30292 40321 57014 71040 8807/ 333 20019
AAXX 29061 58238 31563 70904 10099 20018 30254 40300 57018 70040 878// 333 20031
AAXX 29061 58251 31540 80406 10072 20013 30303 40308 57014 70500 885// 333 20044
AAXX 29061 58362 32570 70403 10104 20039 30282 40290 57015 878// 333 20084
AAXX 29061 58457 31630 80203 10099 20053 30229 40283 57020 71000 885// 333 20083
AAXX 29061 58606 11740 80701 10079 20047 30211 40270 57022 60011 76066 885// 333 20072
AAXX 29061 58659 NIL
AAXX 29061 58847 11560 82901 10136 20113 30137 40240 57019 60011 76060 885// 333 20126
AAXX 29061 59117 32663 73401 10210 20093 30092 40198 57035 875// 333 20126
AAXX 29061 59134 32960 70202 10188 20106 30052 40220 57023 8704/ 333 20129
AAXX 29061 59287 32662 73201 10234 20098 30107 40192 57033 82540 333 20130
AAXX 29061 59316 32962 20904 10208 20128 30195 40200 57035 82040 333 20122
AAXX 29061 59431 11740 83602 10147 20095 30071 40219 57018 69901 71060 885// 333 20129
AAXX 29061 59644 31558 70702 10229 20116 30172 40189 57032 70500 8114/ 333 20151
AAXX 29061 59758 32470 30904 10228 20164 30100 40176 57037 83100 333 20163
AAXX 29061 56187 32961 71601 10110 20023 39599 40256 57033 8704/ 333 00102 20056
AAXX 29061 56778 32970 02205 10175 20011 38116 57033 333 05203 20069
AAXX 29061 57265 31957 72901 10070 20015 30204 40319 57030 71000 8703/ 333 21003
AAXX 29061 57461 31956 81102 10091 20010 30132 40299 57026 70500 8807/ 333 20067
AAXX 29061 57494 32965 70404 10080 20027 30257 40288 57024 8704/ 333 20031
AAXX 29061 57516 31930 81802 10103 20051 39952 40269 57030 71000 8807/ 333 00100 20079
AAXX 29061 57687 11440 82701 10075 20037 30195 40281 57024 69951 72166 887// 333 20063
AAXX 29061 57816 31625 80903 10041 20004 38837 40264 57028 71000 885// 333 00100 20011
AAXX 29061 58040 32965 00905 10032 21057 30321 40335 57022 333 21016
AAXX 29061 58102 32960 83602 10057 20003 30282 40332 57019 8807/ 333 20012
AAXX 29061 58150 32560 70206 10062 21010 30315 40319 57013 87500 333 20017
AAXX 29061 58221 31930 80403 10056 20015 30292 40321 57014 71040 8807/ 333 20019
AAXX 29061 58238 31563 70904 10099 20018 30254 40300 57018 70040 878// 333 20031
AAXX 29061 58251 31540 80406 10072 20013 30303 40308 57014 70500 885// 333 20044
AAXX 29061 58362 32570 70403 10104 20039 30282 40290 57015 878// 333 20084
AAXX 29061 58457 31630 80203 10099 20053 30229 40283 57020 71000 885// 333 20083
AAXX 29061 58606 11740 80701 10079 20047 30211 40270 57022 60011 76066 885// 333 20072
AAXX 29061 58659 NIL
AAXX 29061 58847 11560 82901 10136 20113 30137 40240 57019 60011 76060 885// 333 20126
AAXX 29061 59117 32663 73401 10210 20093 30092 40198 57035 875// 333 20126
AAXX 29061 59134 32960 70202 10188 20106 30052 40220 57023 8704/ 333 20129
AAXX 29061 59287 32662 73201 10234 20098 30107 40192 57033 82540 333 20130
AAXX 29061 59316 32962 20904 10208 20128 30195 40200 57035 82040 333 20122
AAXX 29061 59431 11740 83602 10147 20095 30071 40219 57018 69901 71060 885// 333 20129
AAXX 29061 59644 31558 70702 10229 20116 30172 40189 57032 70500 8114/ 333 20151
AAXX 29061 59758 32470 30904 10228 20164 30100 40176 57037 83100 333 20163
AAXX 29061 56146 32980 01801 10041 21181 36742 57036 333 00252 21121
AAXX 29061 56444 32980 01401 10052 21086 36823 57023 333 00151 21070
AAXX 29061 56492 31930 71401 10114 20044 39850 40264 57035 71000 8703/ 333 00101 20077
AAXX 29061 56571 32680 11101 10185 20011 38396 57038 81100 333 00251 20034
AAXX 29061 57799 11458 83201 10072 20060 30179 40271 57015 60011 76060 885// 333 20071
AAXX 29061 57866 11440 80204 10048 20030 30066 40280 57025 60011 76066 887// 333 20043
AAXX 29061 57957 11456 83603 10074 20057 30054 40258 57027 69971 76066 885// 333 20063
AAXX 29061 57993 11760 83202 10069 20047 30088 40259 57014 60011 76060 885// 333 20069
AAXX 29061 58027 32761 70703 10048 21053 30272 40326 57018 875// 333 20005
AAXX 29061 58144 NIL
AAXX 29061 58265 31940 70204 10086 20038 30294 40302 57015 70500 8704/ 333 20072
AAXX 29061 58472 32475 60206 10103 20033 30185 40281 57014 86100 333 20095
AAXX 29061 58477 32470 80403 10114 20029 30226 40271 57013 8217/ 333 20102
AAXX 29061 58527 11657 80701 10099 20034 30187 40265 57021 69901 70560 885// 333 20080
AAXX 29061 58633 11940 80703 10089 20077 30164 40266 57016 60021 76060 8807/ 333 20089
AAXX 29061 58666 11462 83611 10101 20079 30151 40255 57013 69911 76060 885// 333 20101
AAXX 29061 58725 11760 83401 10099 20082 39983 40250 57015 60021 76060 885// 333 20093
AAXX 29061 58921 11450 80701 10134 20123 39983 40233 57017 60021 76060 8277/ 333 20116
AAXX 29061 59082 11656 80204 10117 20074 30089 40238 57017 69931 72160 885// 333 20102
AAXX 29061 59211 11420 82501 10122 20109 30015 40226 57024 60011 76060 8377/ 333 20118
AAXX 29061 59265 31750 80202 10155 20073 30067 40206 57030 70500 885// 333 20133
AAXX 29061 59293 32865 71402 10203 20070 30112 40198 57036 875// 333 20122
AAXX 29061 59501 32560 10902 10218 20129 30168 40189 57037 81100 333 20137
AAXX 29061 59663 31956 01604 10212 20110 30081 40189 57031 70500 333 20135
AAXX 29061 59838 32565 13204 10243 20183 30150 40160 57038 81100 333 20185
AAXX 29061 59948 32480 70707 10220 20154 39686 40171 57030 81102 333 20174
AAXX 29061 59981 32578 70405 10250 20217 30142 40149 57027 878// 333 20227
AAXX 29061 50136 32970 72503 11169 21236 39735 40338 57030 80002 333 21384
AAXX 29061 50745 32968 02901 11137 21241 30173 40377 57021 333 21254
AAXX 29061 50774 32962 02502 11161 21225 30014 40352 57011 333 21263
AAXX 29061 50788 11962 82507 11175 21207 30188 40283 57004 69911 77070 8801/ 333 21241
AAXX 29061 51133 32980 72201 11063 21114 39643 40331 57005 80002 333 00154 21131
AAXX 29061 51431 32970 70401 11046 21058 39485 40316 57005 80002 333 00254 21097
AAXX 29061 51747 32965 72202 11100 21150 39020 40409 57002 80002 333 00351 21217
AAXX 29061 52203 32980 42001 11064 21159 39423 40367 57018 80002 333 00100 21178
AAXX 29061 52418 32970 12903 11057 21142 38954 40365 57022 80002 333 00101 21170
AAXX 29061 52681 32980 00403 11024 21127 38670 40317 57031 333 00000 21168
AAXX 29061 53564 32960 00000 11016 21095 39273 40348 57033 333 00000 21148
AAXX 29061 53614 32970 00402 11009 21093 38970 40320 57027 333 00001 21109
AAXX 29061 53646 32965 01803 10009 21076 38918 40313 57025 333 00000 21116
AAXX 29061 53798 11958 80701 11009 21028 30260 40361 57024 69921 77076 8802/ 333 21012 92500
AAXX 29061 53845 32965 00901 10046 21060 39144 40298 57034 333 00001 21062
AAXX 29061 53959 31958 03204 10063 21051 39853 40307 57029 70500 333 21026
AAXX 29061 54094 32968 32907 11157 21240 30014 40344 57009 80002 333 21230
AAXX 29061 54102 32980 02002 11132 21189 39112 40421 57025 333 21290
AAXX 29061 54161 32962 02902 11136 21235 30074 40400 57014 333 21248
AAXX 29061 54292 32980 12707 11125 21230 39983 40329 57007 81030 333 21179
AAXX 29061 54374 32970 01801 11128 21218 39878 40387 57016 333 21245
AAXX 29061 54423 11970 72001 11051 21119 39824 40374 57030 69901 70070 80002 333 21132 92500
AAXX 29061 54618 32964 70902 11004 21079 30345 40364 57028 8703/ 333 21030
AAXX 29061 54843 32680 20205 11002 21066 30330 40359 57021 82500 333 21030
AAXX 29061 54909 31957 83402 10008 21010 30273 40340 57019 71000 8807/ 333 21010
AAXX 29061 56029 32980 02002 10015 21169 36454 57040 333 00200 21166
AAXX 29061 57036 NIL
AAXX 29061 57127 32961 80402 10080 20009 39665 40283 57022 8807/ 333 20053
AAXX 29061 50353 32970 30000 11240 21301 30085 40339 57025 80002 333 21359
AAXX 29061 50557 32970 01402 11213 21272 30033 40377 57018 333 21346
AAXX 29061 50756 32960 02902 11202 21253 30053 40388 57008 333 21283
AAXX 29061 50949 32965 02701 11128 21242 30201 40390 57018 333 21243
AAXX 29061 50963 32762 72710 11187 21235 30212 40366 57007 87500 333 21256
AAXX 29061 50978 11965 82706 11157 21208 39926 40307 57007 69901 77070 8802/ 333 21211
AAXX 29061 51087 32980 02001 11104 21169 39340 40381 57011 333 00201 21184
AAXX 29061 51156 32980 20702 11065 21143 38770 40351 57001 80002 333 00152 21144
AAXX 29061 51644 32960 70701 11068 21100 39029 40372 57005 80002 333 00251 21142
AAXX 29061 51656 32961 42201 11061 21088 39207 40371 57002 80002 333 00201 21124
AAXX 29061 51886 32980 32002 11079 21264 37116 57018 80002 333 00000 21192
AAXX 29061 52602 32980 70901 11040 21269 37273 57016 80002 333 00102 21222
AAXX 29061 52713 32980 11802 11021 21261 36907 57019 80002 333 00102 21202
AAXX 29061 52754 32980 02002 11032 21183 36790 57017 333 00100 21160
AAXX 29061 52818 32980 00704 11019 21231 37232 57029 333 00003 21148
AAXX 29061 52836 32980 03601 10011 21235 36892 57021 333 00101 21174
AAXX 29061 52955 32580 13201 10011 21200 36967 57022 81100 333 00102 21136
AAXX 29061 53068 32980 00902 11164 21208 39146 40407 57025 333 05101 21256
AAXX 29061 53276 32980 02502 11045 21149 38930 40355 57022 333 21186
AAXX 29061 54135 32980 02502 11114 21245 30157 40402 57022 333 21228
AAXX 29061 54236 32965 03601 11103 21235 30284 40400 57021 333 21206
AAXX 29061 54539 32970 50703 11048 21163 30369 40385 57023 80002 333 21097
AAXX 29061 54662 32970 03603 11069 21195 30240 40363 57018 333 21115
AAXX 29061 54753 32566 60205 11020 21083 30353 40360 57017 86400 333 21033
AAXX 29061 54857 32970 03406 10007 21110 30244 40341 57018 333 21032
AAXX 29061 57067 31930 70403 10023 21038 39616 40323 57033 71000 8703/ 333 21048
AAXX 29061 57178 31920 70403 10062 21008 30159 40324 57027 71000 80002 333 20000
AAXX 29061 57245 32960 80402 10081 21020 39938 40299 57022 8807/ 333 00351 20029
AAXX 29061 57297 31720 83601 10023 20007 30172 40319 57021 71000 885// 333 20000
AAXX 29061 50353 32970 30000 11240 21301 30085 40339 57025 80002 333 21359
AAXX 29061 50557 32970 01402 11213 21272 30033 40377 57018 333 21346
AAXX 29061 50756 32960 02902 11202 21253 30053 40388 57008 333 21283
AAXX 29061 50949 32965 02701 11128 21242 30201 40390 57018 333 21243
AAXX 29061 50963 32762 72710 11187 21235 30212 40366 57007 87500 333 21256
AAXX 29061 50978 11965 82706 11157 21208 39926 40307 57007 69901 77070 8802/ 333 21211
AAXX 29061 51087 32980 02001 11104 21169 39340 40381 57011 333 00201 21184
AAXX 29061 51156 32980 20702 11065 21143 38770 40351 57001 80002 333 00152 21144
AAXX 29061 51644 32960 70701 11068 21100 39029 40372 57005 80002 333 00251 21142
AAXX 29061 51656 32961 42201 11061 21088 39207 40371 57002 80002 333 00201 21124
AAXX 29061 51886 32980 32002 11079 21264 37116 57018 80002 333 00000 21192
AAXX 29061 52602 32980 70901 11040 21269 37273 57016 80002 333 00102 21222
AAXX 29061 52713 32980 11802 11021 21261 36907 57019 80002 333 00102 21202
AAXX 29061 52754 32980 02002 11032 21183 36790 57017 333 00100 21160
AAXX 29061 52818 32980 00704 11019 21231 37232 57029 333 00003 21148
AAXX 29061 52836 32980 03601 10011 21235 36892 57021 333 00101 21174
AAXX 29061 52955 32580 13201 10011 21200 36967 57022 81100 333 00102 21136
AAXX 29061 53068 32980 00902 11164 21208 39146 40407 57025 333 05101 21256
AAXX 29061 53276 32980 02502 11045 21149 38930 40355 57022 333 21186
AAXX 29061 54135 32980 02502 11114 21245 30157 40402 57022 333 21228
AAXX 29061 54236 32965 03601 11103 21235 30284 40400 57021 333 21206
AAXX 29061 54539 32970 50703 11048 21163 30369 40385 57023 80002 333 21097
AAXX 29061 54662 32970 03603 11069 21195 30240 40363 57018 333 21115
AAXX 29061 54753 32566 60205 11020 21083 30353 40360 57017 86400 333 21033
AAXX 29061 54857 32970 03406 10007 21110 30244 40341 57018 333 21032
AAXX 29061 57067 31930 70403 10023 21038 39616 40323 57033 71000 8703/ 333 21048
AAXX 29061 57178 31920 70403 10062 21008 30159 40324 57027 71000 80002 333 20000
AAXX 29061 57245 32960 80402 10081 21020 39938 40299 57022 8807/ 333 00351 20029
AAXX 29061 57297 31720 83601 10023 20007 30172 40319 57021 71000 885// 333 20000
AAXX 29061 58968 32566 80804 10186 20157 30197 40205 57022 885//
AAXX 29061 58974 11562 80410 10171 20132 30090 40215 56019 69901 76162 884//
AAXX 29061 59358 31958 23503 10239 20159 30149 40180 57027 70510 82030
AAXX 29061 59559 32565 80603 10235 20175 30143 40171 57023 8322/
AAXX 29061 59792 12460 80507 10220 20190 30165 40170 57025 69901 8542/
AAXX 29061 59997 32460 30604 10302 20263 30102 40110 57021 83200
AAXX 29061 56671 32780 21803 10170 21007 38210 57033 82100 333 00000 20036
AAXX 29061 57378 31930 83403 10061 20014 40303 57026 71000 8807/ 333 20031
AAXX 29061 57426 31756 80000 10073 20043 40276 57021 71000 885// 333 00151 20058
AAXX 29061 57476 32960 80203 10072 21003 40297 57023 8807/ 333 20059
AAXX 29061 57584 31956 83604 10072 20011 40287 57023 71000 8807/ 333 20063
AAXX 29061 57598 11760 83602 10092 20009 40277 57018 69901 70060 885// 333 20066
AAXX 29061 57622 NIL
AAXX 29061 57655 32960 80401 10085 21019 40286 57019 8807/ 333 20073
AAXX 29061 57713 NIL
AAXX 29061 57776 11/00 90206 11004 21008 40279 57020 60041 76664 333 21014 93430
AAXX 29061 58321 31615 80704 10085 20045 40310 57021 71040 885// 333 20015
AAXX 29061 58437 31/00 91402 11007 21007 38190 57015 74544 333 21011
AAXX 29061 58445 NIL
AAXX 29061 58556 32665 80203 10102 20048 40275 57016 885// 333 20086
AAXX 29061 58569 32465 80403 10107 20057 40266 57017 8117/ 333 20098
AAXX 29061 58646 11640 80701 10102 20083 40260 57020 60031 76060 885// 333 20101
AAXX 29061 58653 NIL
AAXX 29061 58660 NIL
AAXX 29061 58715 11730 83603 10067 20047 40269 57015 60021 76060 8257/ 333 20066
AAXX 29061 58730 NIL
AAXX 29061 58731 11256 80000 10090 20078 40251 57020 60021 76060 885// 333 20090
AAXX 29061 58754 32962 83602 10130 20070 40253 57017 8807/ 333 20112
AAXX 29061 58911 11556 82501 10107 20090 40231 57025 60011 76060 885// 333 20099
AAXX 29061 58931 11/00 92703 10084 20080 38388 57016 60021 76064 333 20046
AAXX 29061 59254 11750 83602 10163 20102 40214 57023 69901 72160 885// 333 20146
AAXX 29061 59632 31758 73403 10202 20089 40197 57028 70500 875// 333 20148
AAXX 29061 59855 32576 60702 10243 20166 40176 57031 86100 333 20181
AAXX 29061 55279 32980 02207 10000 21353 35701 57017 333 00004 21168
AAXX 29061 55472 32980 03206 10000 21280 35726 57030 333 05204 21191
AAXX 29061 55696 32980 00201 10013 21157 36356 57039 333 00151 21138
AAXX 29061 56079 32780 22705 10030 21161 36677 57022 82100 333 00202 21123
AAXX 29061 56106 32980 02901 11008 21250 36218 57033 333 00251 21177
AAXX 29061 56257 32980 02501 10048 21205 36283 57029 333 00201 21128
AAXX 29061 56374 32980 00905 10024 21064 37423 57034 333 00200 21092
AAXX 29061 56385 31/02 90000 11046 21049 37011 57022 74444 333 00151 21092
AAXX 29061 56954 32580 22001 10216 20140 40169 57036 82100 333 05205 20141
AAXX 29061 56966 32765 11601 10248 20107 40145 57056 81400 333 05507 20128
AAXX 29061 57237 32961 80202 10079 20009 40275 57024 8807/ 333 20047
AAXX 29061 57306 32960 80000 10098 20048 40268 57028 8807/ 333 20064
AAXX 29061 57602 NIL
AAXX 29061 57707 32470 81101 10038 20012 38537 57026 886// 333 00202 20014
AAXX 29061 57832 32773 80701 10068 21043 39516 40272 57023 885// 333 00200 20047
AAXX 29061 58968 32566 80804 10186 20157 30197 40205 57022 885//
AAXX 29061 58974 11562 80410 10171 20132 30090 40215 56019 69901 76162 884//
AAXX 29061 59358 31958 23503 10239 20159 30149 40180 57027 70510 82030
AAXX 29061 59559 32565 80603 10235 20175 30143 40171 57023 8322/
AAXX 29061 59792 12460 80507 10220 20190 30165 40170 57025 69901 8542/
AAXX 29061 59997 32460 30604 10302 20263 30102 40110 57021 83200
AAXX 29061 56144 32980 01602 10047 21176 36869 57047 333 00200 21094
AAXX 29061 56152 32780 12506 10022 21234 36314 57027 81100 333 00200 21187
AAXX 29061 56167 32980 01801 10070 21164 37093 57051 333 00300 21115
AAXX 29061 56182 32680 60000 10079 21109 37182 57048 85102 333 00101 21084
AAXX 29061 56357 32980 01602 10061 21203 36453 57034 333 00101 21137
AAXX 29061 56586 31457 82701 10034 21008 38073 57029 71000 885// 333 00201 21010
AAXX 29061 56748 32580 12204 10173 20046 38374 57032 81100 333 00001 20047
AAXX 29061 56763 32680 11104 10234 20034 40111 57040 81100 333 05202 20106
AAXX 29061 56768 32680 12905 10168 20000 38190 57031 81100 333 05204 20068
AAXX 29061 56838 31675 22501 10226 20117 40174 57033 70040 82200 333 00002 20133
AAXX 29061 56886 32680 12208 10188 20056 38298 57035 81100 333 05205 20059
AAXX 29061 56946 31680 21101 10223 20095 40163 57035 70040 82400 333 05106 20131
AAXX 29061 56959 32668 71801 10222 20160 40170 57036 87800 333 05204 20154
AAXX 29061 56969 32765 83601 10205 20153 40180 57029 885// 333 05201 20152
AAXX 29061 57504 NIL
AAXX 29061 57731 32765 80000 10083 20005 40271 57027 885// 333 00001 20067
AAXX 29061 57766 11458 83201 10055 20032 40285 57023 60011 72166 885// 333 20048
AAXX 29061 57845 11758 83402 10047 20027 40275 57022 60021 76066 885// 333 20045
AAXX 29061 57853 11430 83602 10048 20022 40287 57023 60021 72166 8772/ 333 20041
AAXX 29061 57916 32664 82501 10124 20056 40240 57032 885// 333 00151 20101
AAXX 29061 57922 11664 83402 10067 20014 40257 57027 69901 70060 885// 333 00151 20026
AAXX 29061 57932 11339 82001 10076 20044 40270 57026 69951 71060 885// 333 00153 20062
AAXX 29061 58338 31960 80704 10098 20044 40288 57023 70040 8807/ 333 20027
AAXX 29061 59007 32665 80402 10091 20060 40209 57026 885// 333 20072
AAXX 29061 59046 11456 83601 10089 20081 40246 57024 69941 76060 885// 333 20086
AAXX 29061 59058 11430 83202 10093 20058 40242 57019 69921 76060 885// 333 20091
AAXX 29061 59072 11715 83604 10071 20071 40253 57016 60031 76066 885// 333 20071
AAXX 29061 59087 32760 70703 10194 20068 40208 57029 875// 333 20144
AAXX 29061 59209 11462 80201 10111 20083 40212 57028 69901 76060 887// 333 20105
AAXX 29061 59158 32660 23402 10236 20140 30076 40175 57027 82500
AAXX 29061 59562 32562 60504 10243 20176 30166 40177 57030 83505
AAXX 29061 59567 11560 70207 10192 20174 39801 40181 57023 69951 70261 875//
AAXX 29061 55279 32980 02207 10000 21353 35701 57017 333 00004 21168
AAXX 29061 55472 32980 03206 10000 21280 35726 57030 333 05204 21191
AAXX 29061 55696 32980 00201 10013 21157 36356 57039 333 00151 21138
AAXX 29061 56079 32780 22705 10030 21161 36677 57022 82100 333 00202 21123
AAXX 29061 56106 32980 02901 11008 21250 36218 57033 333 00251 21177
AAXX 29061 56257 32980 02501 10048 21205 36283 57029 333 00201 21128
AAXX 29061 56374 32980 00905 10024 21064 37423 57034 333 00200 21092
AAXX 29061 56385 31/02 90000 11046 21049 37011 57022 74444 333 00151 21092
AAXX 29061 56954 32580 22001 10216 20140 40169 57036 82100 333 05205 20141
AAXX 29061 56966 32765 11601 10248 20107 40145 57056 81400 333 05507 20128
AAXX 29061 57237 32961 80202 10079 20009 40275 57024 8807/ 333 20047
AAXX 29061 57306 32960 80000 10098 20048 40268 57028 8807/ 333 20064
AAXX 29061 57602 NIL
AAXX 29061 57707 32470 81101 10038 20012 38537 57026 886// 333 00202 20014
AAXX 29061 57832 32773 80701 10068 21043 39516 40272 57023 885// 333 00200 20047
AAXX 29061 56144 32980 01602 10047 21176 36869 57047 333 00200 21094
AAXX 29061 56152 32780 12506 10022 21234 36314 57027 81100 333 00200 21187
AAXX 29061 56167 32980 01801 10070 21164 37093 57051 333 00300 21115
AAXX 29061 56182 32680 60000 10079 21109 37182 57048 85102 333 00101 21084
AAXX 29061 56357 32980 01602 10061 21203 36453 57034 333 00101 21137
AAXX 29061 56586 31457 82701 10034 21008 38073 57029 71000 885// 333 00201 21010
AAXX 29061 56748 32580 12204 10173 20046 38374 57032 81100 333 00001 20047
AAXX 29061 56763 32680 11104 10234 20034 40111 57040 81100 333 05202 20106
AAXX 29061 56768 32680 12905 10168 20000 38190 57031 81100 333 05204 20068
AAXX 29061 56838 31675 22501 10226 20117 40174 57033 70040 82200 333 00002 20133
AAXX 29061 56886 32680 12208 10188 20056 38298 57035 81100 333 05205 20059
AAXX 29061 56946 31680 21101 10223 20095 40163 57035 70040 82400 333 05106 20131
AAXX 29061 56959 32668 71801 10222 20160 40170 57036 87800 333 05204 20154
AAXX 29061 56969 32765 83601 10205 20153 40180 57029 885// 333 05201 20152
AAXX 29061 57504 NIL
AAXX 29061 57731 32765 80000 10083 20005 40271 57027 885// 333 00001 20067
AAXX 29061 57766 11458 83201 10055 20032 40285 57023 60011 72166 885// 333 20048
AAXX 29061 57845 11758 83402 10047 20027 40275 57022 60021 76066 885// 333 20045
AAXX 29061 57853 11430 83602 10048 20022 40287 57023 60021 72166 8772/ 333 20041
AAXX 29061 57916 32664 82501 10124 20056 40240 57032 885// 333 00151 20101
AAXX 29061 57922 11664 83402 10067 20014 40257 57027 69901 70060 885// 333 00151 20026
AAXX 29061 57932 11339 82001 10076 20044 40270 57026 69951 71060 885// 333 00153 20062
AAXX 29061 58338 31960 80704 10098 20044 40288 57023 70040 8807/ 333 20027
AAXX 29061 59007 32665 80402 10091 20060 40209 57026 885// 333 20072
AAXX 29061 59046 11456 83601 10089 20081 40246 57024 69941 76060 885// 333 20086
AAXX 29061 59058 11430 83202 10093 20058 40242 57019 69921 76060 885// 333 20091
AAXX 29061 59072 11715 83604 10071 20071 40253 57016 60031 76066 885// 333 20071
AAXX 29061 59087 32760 70703 10194 20068 40208 57029 875// 333 20144
AAXX 29061 59209 11462 80201 10111 20083 40212 57028 69901 76060 887// 333 20105
AAXX 29061 56671 32780 21803 10170 21007 38210 57033 82100 333 00000 20036
AAXX 29061 57378 31930 83403 10061 20014 40303 57026 71000 8807/ 333 20031
AAXX 29061 57426 31756 80000 10073 20043 40276 57021 71000 885// 333 00151 20058
AAXX 29061 57476 32960 80203 10072 21003 40297 57023 8807/ 333 20059
AAXX 29061 57584 31956 83604 10072 20011 40287 57023 71000 8807/ 333 20063
AAXX 29061 57598 11760 83602 10092 20009 40277 57018 69901 70060 885// 333 20066
AAXX 29061 57622 NIL
AAXX 29061 57655 32960 80401 10085 21019 40286 57019 8807/ 333 20073
AAXX 29061 57713 NIL
AAXX 29061 57776 11/00 90206 11004 21008 40279 57020 60041 76664 333 21014 93430
AAXX 29061 58321 31615 80704 10085 20045 40310 57021 71040 885// 333 20015
AAXX 29061 58437 31/00 91402 11007 21007 38190 57015 74544 333 21011
AAXX 29061 58445 NIL
AAXX 29061 58556 32665 80203 10102 20048 40275 57016 885// 333 20086
AAXX 29061 58569 32465 80403 10107 20057 40266 57017 8117/ 333 20098
AAXX 29061 58646 11640 80701 10102 20083 40260 57020 60031 76060 885// 333 20101
AAXX 29061 58653 NIL
AAXX 29061 58660 NIL
AAXX 29061 58715 11730 83603 10067 20047 40269 57015 60021 76060 8257/ 333 20066
AAXX 29061 58730 NIL
AAXX 29061 58731 11256 80000 10090 20078 40251 57020 60021 76060 885// 333 20090
AAXX 29061 58754 32962 83602 10130 20070 40253 57017 8807/ 333 20112
AAXX 29061 58911 11556 82501 10107 20090 40231 57025 60011 76060 885// 333 20099
AAXX 29061 58931 11/00 92703 10084 20080 38388 57016 60021 76064 333 20046
AAXX 29061 59254 11750 83602 10163 20102 40214 57023 69901 72160 885// 333 20146
AAXX 29061 59632 31758 73403 10202 20089 40197 57028 70500 875// 333 20148
AAXX 29061 59855 32576 60702 10243 20166 40176 57031 86100 333 20181
AAXX 29061 59158 32660 23402 10236 20140 30076 40175 57027 82500
AAXX 29061 59562 32562 60504 10243 20176 30166 40177 57030 83505
AAXX 29061 59567 11560 70207 10192 20174 39801 40181 57023 69951 70261 875//
AAXX 29064 92036 46/// /0808 10295 40062 22200 00319
AAXX 29064 89628 46/// /3240 4//// 5////
BBXX 46094 29061 99446 71243 46/// /2507 10109 90550
BBXX 46094 29061 99446 71243 46/// /2205 10110 90540
BBXX 46094 29061 99446 71243 46/// /2308 10109 90630
BBXX 46094 29061 99446 71243 46/// /2508 10110 90620
BBXX 46094 29061 99446 71243 46/// /2106 10110 90610
BBXX 46094 29061 99446 71243 46/// /2408 10110 90600
BBXX 62105 29064 99554 70121 46/// /28// 10100 20069 40158 55017 22200 00106 10915 70075 333 90710 91149
BBXX 63106 29064 99610 10017 46/// /3143 10050 49828 52045 22200
BBXX 63113 29064 99610 10017 46/// /3147 10044 20041 49856 52051 22200 11016 70080
BBXX 63110 29063 99595 10015 41/96 /3052 10048 49902 762// 8//// 22200 10417 70083
BBXX 2AUO5 29063 99606 10016 41296 83149 10100 49864 52052 76566 887// 22271 21014 331// 41220
BBXX 62303 29064 99516 70051 46/// /2629 10101 20056 40260 58026 22200 00112 10607 70035 333 90710 91141
BBXX 62103 29064 99499 70029 46/98 /2928 10097 20033 40300 57015 22200 00116 10805 70027 333 90710 91135
BBXX 62094 29064 99517 70067 46/// /2629 1//// 2//// 4//// 5//// 22200 00105 10607 70037 333 90710 91138
BBXX 64049 29063 99571 10022 41/97 83045 10064 20057 49962 54000 70211 8//// 22200 04090 20612 330// 40614 5//// 80061
BBXX 42085 29061 99179 70665 46/// /0505 10258 40167 57006 90600 22200 00272 10702 70010 333 91207
BBXX V7FS3 29063 99022 11049 41/97 /3517 10270 40120 50/// 762// 8/459 22214 00280 2//// 3//// 4//// 5////
AAXX 29064 93713 46/// /0000 10167 40066 22200 00177
BBXX 44056 29061 99362 70757 46/// ///// 1//// 90620 22200 00116 11302 21001 307// 41301 70009
AAXX 29064 60210 32960 00000 10012 21050 39092 48584 53006 333 20012 34105
AAXX 29064 60511 12560 63310 10047 20038 39136 48560 54000 60044 86200 333 00115 50043 86826 95990
OOXX AAPIG 29064 99758 51003 56251 08502 46/// /1110 11124 21233 38793 49772 57010 90600
AAXX 29064 78982 02482 30911 10259 20230 30129 40134 57012 60001 82201 333 59003 60007 82817
AAXX 29064 60210 32960 00000 10012 21050 39092 48584 53006 333 20003 34105
BBXX ZMFR 29064 99413 31748 43/// /1702 10178 20153 40091 57010 22200 00189
BBXX ZMENA 29064 99368 31748 46/// ///// 10195 20176 40105 54000 22200
BBXX ZMFR 29064 99413 31748 43/// /1702 10178 20153 40091 57010 22200 00189
BBXX ZMENA 29064 99368 31748 46/// ///// 10195 20176 40105 54000 22200
BBXX MINUK04 2906/ 99537 10044 46/// ///// 10075 4//// 57003
BBXX MINUK03 2906/ 99525 10035 46/// ///// 10070 40178 57004
BBXX V7FS3 29063 99022 11049 41/97 /3517 10270 40120 50/// 762// 8/459 22214 00280 2//// 3//// 4//// 5////
BBXX 44056 29061 99362 70757 46/// ///// 1//// 90620 22200 00116 11302 21001 307// 41301 70009
BBXX 42085 29061 99179 70665 46/// /0505 10258 40167 57006 90600 22200 00272 10702 70010 333 91207
BBXX 46094 29061 99446 71243 46/// /2408 10110 90600
BBXX 46094 29061 99446 71243 46/// /2508 10110 90620
BBXX 46094 29061 99446 71243 46/// /2205 10110 90540
BBXX 46094 29061 99446 71243 46/// /2507 10109 90550
BBXX 46094 29061 99446 71243 46/// /2106 10110 90610
BBXX 46094 29061 99446 71243 46/// /2308 10109 90630
AAXX 29064 67215 32580 23611 10294 20247 40122 82130 333 20255 5///0 55119 59015 94320 555 10000
AAXX 29064 67217 12470 50207 10216 20181 38685 48548 60044 82933 333 20170 50660 55083 59013 94321 555 00040 10000
AAXX 29064 67280 32475 7//// 10281 20238 40100 878// 333 20225 50700 55109 59026 94383 555 10000
AAXX 29064 67283 32580 7//// 10294 20261 40106 8423/ 333 20225 5///0 55111 59026 94320 555 10000
AAXX 29064 67291 11556 8//// 10220 20207 3//// 48/// 60484 760// 889// 333 20190 50/// 55060 5//// 94390 555 00479 10000
AAXX 29064 67295 11460 80000 10205 20200 39365 48533 60404 76196 889// 333 20170 50500 55060 59008 94390 555 00395 10000
BBXX FLAO 2906/ 99764 70847 46/// ///// 11325 40124 52017
AAXX 29064 71226 17/// /0804 11071 21081 69941 7//4/ 333 11012 21083 7////
AAXX 29064 41506 02997 03602 10070 21036 48578 60001 333 58030 60007
AAXX 29064 41508 22997 01802 10078 21038 48586 60001 333 58020 60007
AAXX 29064 41523 12997 00000 10105 21016 48573 60001 333 58020 60007
AAXX 29064 41535 12997 00000 10130 21009 48528 60001 333 58004
AAXX 29064 41536 12997 01802 10110 20007 39942 60001 333 58013
AAXX 29064 41573 12997 01304 10100 21014 48531 60001 333 58005
AAXX 29064 41600 01995 00000 10145 20062 39918 40219 60001 70400 333 58013 60007
AAXX 29064 41630 11994 03602 10135 20062 40233 60001 70444 333 58010
AAXX 29064 41678 01996 00000 10110 20068 74234 40001 70540 333 58011 60007
AAXX 29064 41696 32997 02302 10070 21169 38053 48568 60001 333 58023 60007
AAXX 29064 41697 02997 00000 10154 20050 40226 60001 333 58009 60007
AAXX 29064 41700 11995 03102 10130 20068 40219 60001 70440 333 58014
AAXX 29064 41725 01995 00000 10160 20043 40228 60001 70500 333 58011 60007
AAXX 29064 41746 01995 03604 10150 20069 40229 60001 333 58008 60007
AAXX 29064 41759 11696 50404 10235 20180 30195 40201 60002 70500 85500 333 56900 58018 85630
AAXX 29064 41785 02997 00502 10175 20051 40203 60001 333 58019 60007
AAXX 29061 98132 31465 80904 10238 20207 40198 58027 70544 8327/ 333 56299 83817 88357
AAXX 29061 98133 31462 80705 10/// 20/// 40150 5//// 71544 8322/ 222// 20703 333 56299 83818 88460
AAXX 29061 98222 31575 23002 10305 20231 40113 57023 70544 81201 333 56999 81820
AAXX 29061 98233 11570 83601 10255 20227 40131 57022 60021 70564 8357/ 333 56199 83620 88358
AAXX 29061 98324 31465 73207 10312 20258 40104 57019 70544 83460 333 56399 83616 87358
AAXX 29061 98327 31670 41004 10309 20211 39939 40113 57026 70544 81101 333 56999 81842 84080
AAXX 29061 98334 11468 81601 10250 20242 39942 40148 57013 60061 71586 8387/ 333 56999 83817 88358
AAXX 29061 98425 31562 82503 10307 20233 40108 57022 78084 8587/ 333 56999 85620 88458
AAXX 29061 98426 31570 40706 10313 20224 40114 57023 70544 84200 333 56999 84820
AAXX 29061 98427 11472 70402 10260 20247 39920 40098 57020 60011 78086 83270 83270 333 56999 83818 87357
AAXX 29061 98428 31462 61406 10308 20252 40107 57028 70544 82274 333 56299 82819 84359
AAXX 29061 98432 11565 60403 10294 20256 40115 57018 69901 71584 83270 333 56199 83820 85356
AAXX 29061 98433 31/00 90903 10228 20222 39396 40117 57014 74044 89/// 333 56999 89///
AAXX 29061 98434 11462 83603 10275 20244 30121 40129 57017 60051 71586 8587/ 333 56199 85817 88358
AAXX 29061 98435 11468 80403 10273 20246 40118 5//// 60021 72186 8427/ 333 56999 84817 88358
AAXX 29061 98442 NIL
AAXX 29061 98446 32480 70904 10282 20256 30081 40127 57024 83230 333 56199 83818 87358
AAXX 29061 98447 11480 70000 10254 20235 39861 40126 71582 83208 333 56999 83818 86270
AAXX 29061 98538 31468 63604 10300 20256 30110 40115 58020 70544 82208 333 56199 82811 86272
AAXX 29061 98546 11465 80402 10294 20268 30101 40109 57022 69981 78082 83907 333 56999 83915 88275
AAXX 29061 98548 32480 60403 10316 20250 30100 40106 58032 84201 333 56299 84816 98323
AAXX 29061 98553 11468 60403 10280 20260 30105 40109 57018 60041 70564 84308 333 56199 81916 84818 86272
AAXX 29061 98558 11468 70609 10291 20265 40040 57025 60061 70584 83978 222// 20504 333 56999 82915 85272
AAXX 29061 98642 32465 73405 10316 20256 30089 40098 57025 82270 333 56199 82815 85358
AAXX 29061 98644 31465 50502 10310 20261 30089 40098 58032 70544 82261 333 56199 82817 88358
AAXX 29061 98648 31472 53301 10302 20265 30028 40110 57023 71544 83962 333 56299 82912 84072
AAXX 29061 98746 31462 70904 10321 20247 40081 58024 70544 82278 333 56399 82818 84358 86275
AAXX 29061 98751 31475 80302 10270 20237 39426 40099 57019 70544 8497/ 333 56299 84915 88356
AAXX 29061 98752 11462 83501 10292 20254 40105 57022 69911 71582 8397/ 333 56999 83916 88358
AAXX 29061 98851 31570 60703 10326 20242 39934 40082 57023 70544 82276 333 56119 82820 83358 85075
AAXX 29064 71893 11780 42703 10063 20047 39987 40018 53041 60041 72561 84500 333 10120 20050 70102 90917 555 10000 20000 31422 40080
AAXX 29064 71893 11780 42703 10063 20047 39987 40018 53041 60041 72561 84500 333 10120 20050 70102 90917 555 10000 20000 31422 40080
BBXX 62303 29064 99516 70051 46/// /2629 10101 20056 40260 58026 22200 00112 10607 70035 333 90710 91142
BBXX 62105 29064 99554 70121 46/// /2836 10100 20069 40158 55017 22200 00106 10915 70075 333 90710 91149
BBXX PJGO 29064 99571 10022 47/97 /2934 10062 20013 40016 52013 700// 22200
BBXX 63110 29064 99595 10015 47597 /3042 10047 20037 49905 52034 700// 22200 10916 70081
BBXX 63055 29064 99606 10016 47693 /2938 10047 20026 49863 52050 730// 22200 11016 70079
BBXX 63106 29064 99610 10017 46/// /3143 10050 49828 52045 22200
BBXX 63105 29064 99610 10017 47496 ///// 10062 20025 49829 52051 751// 22200
BBXX 62094 29064 99517 70067 46/// /2628 10098 20056 40270 57028 22200 00106 10607 70037 333 90710 91138
BBXX 62103 29064 99499 70029 46/98 /2827 10098 20036 40302 58007 22200 00117 10805 70026 333 90710 91137
BBXX 42013 29061 99272 70829 46/// ///// 1//// 40207 90620 22200 00204
BBXX 42013 29061 99272 70829 46/// ///// 1//// 40207 58008 90600 22200 00204
BBXX C6FN2 29064 99211 70864 41/// /0909 10230 20201 40170 54000 7//// 8//// 22214 00270 20505 30909 40505 50505 6//// 80210 ICE /////
BBXX VRDT5 29063 99260 31258 414// 82907 10300 2029/ 40110 54000 7//22 88//6 22233 00280 21001 39999 41102 51102 6//// 80290 ICE /////
BBXX FLAO 2906/ 99764 70847 46/// ///// 11325 40124 52017
BBXX C6FN2 29064 99211 70864 41/// /0909 10230 20201 40170 54000 7//// 8//// 22214 00270 20505 30909 40505 50505 6//// 80210 ICE /////
BBXX VRDT5 29063 99260 31258 414// 82907 10300 2029/ 40110 54000 7//22 88//6 22233 00280 21001 39999 41102 51102 6//// 80290 ICE /////
BBXX ZMFR 29064 99413 31748 43/// /1702 10178 20153 40091 57010 22200 00189
BBXX ZMENA 29064 99368 31748 46/// ///// 10195 20176 40105 54000 22200
BBXX MINUK03 2906/ 99525 10035 46/// ///// 10070 40178 57004
BBXX MINUK04 2906/ 99537 10044 46/// ///// 10075 4//// 57003
BBXX ZCDQ4 29064 99419 10113 41697 69709 10130 20070 40220 56020 70301 87479 22234 00165 20201 390// 40 201 5//// 80100
BBXX ZCDQ4 29064 99419 10113 41697 69709 10130 20070 40220 56020 70301 87479 22234 00165 20201 390// 40201 5//// 80100
AAXX 29064 71408 46/// /1124 10026 20024 39801 49879 58074 6///1 333 10026 20000 7////
BBXX ZCDQ4 29064 99419 10113 41697 69709 10130 20070 40220 56020 70301 87479 22234 00165 20201 390// 40201 5//// 80100
AAXX 29064 62002 12960 50405 10078 20036 39494 48535 56006 69924 85050 333 0XX19 20068 50184 55010 85360
AAXX 29064 62010 31558 61805 10102 20080 40219 57001 71022 86500 333 20101 50204 55025 86630
AAXX 29064 62012 12860 72605 10120 20090 30184 40214 54000 60014 87070 333 0XX19 20115 50104 87358
AAXX 29064 62016 12560 60000 10100 20077 40235 57004 60034 82570 333 0XX39 20086 50144 55006 82625 86360
AAXX 29064 62161 32970 50000 10100 20057 40207 56003 85030 333 20090 50384 55072 85360
AAXX 29064 62259 32970 40905 10080 20033 40189 58004 84030 333 20078 50604 55035 84360
AAXX 29064 62002 12960 50405 10078 20036 39494 48535 56006 69924 85050 333 0//19 20068 50184 55010 85360
AAXX 29064 62010 31558 61805 10102 20080 40219 57001 71022 86500 333 20101 50204 55025 86630
AAXX 29064 62012 12860 72605 10120 20090 30184 40214 54000 60014 87070 333 0//19 20115 50104 87358
AAXX 29064 62016 12560 60000 10100 20077 40235 57004 60034 82570 333 0//39 20086 50144 55006 82625 86360
AAXX 29064 62161 32970 50000 10100 20057 40207 56003 85030 333 20090 50384 55072 85360
AAXX 29064 62259 32970 40905 10080 20033 40189 58004 84030 333 20078 50604 55035 84360
AAXX 29064 62600 31965 00405 10165 20075 39965 40186 70600 10247 20140 59020
AAXX 29064 62640 32970 00502 10180 20015 39748 40144 10315 20140 59020
AAXX 29064 62641 21970 03208 10225 20160 30143 40191 10280 20180 58009
AAXX 29064 62650 32970 03504 10140 20000 39872 40152 10293 20120 59027
AAXX 29064 62660 32970 00404 10190 20020 39850 40158 10320 20155 59014
AAXX 29064 62680 31968 00506 10200 20090 39728 40129 70600 10327 20172 59014
AAXX 29064 62721 31968 73606 10215 20075 39684 40132 70622 80007 10345 20185 56009 59014 87275
AAXX 29064 62730 32970 03603 10215 20155 39620 40132 10350 20167 58010
AAXX 29064 62750 32970 70210 10215 20090 39665 40093 80007 10340 20197 56009 59017 87275
AAXX 29064 62751 32970 70104 10209 20053 39675 40140 80007 10378 20162 56009 59007 87275
AAXX 29064 62752 32970 70505 10245 20125 39429 40099 80007 10380 20203 56009 59015 87275
AAXX 29064 62760 32970 70403 10140 21024 39317 40156 80007 10320 20115 56009 59013 87275
AAXX 29064 62762 32970 70503 10185 20115 39616 40098 80007 10365 20125 56009 59015 87275
AAXX 29064 60107 11960 01604 10058 20022 40297 57008 60044 333 20055 30004
AAXX 29064 62002 12960 50405 10078 20036 39494 48535 56006 69924 85050 333 0//19 20068 50184 55010 85360
AAXX 29064 62010 31558 61805 10102 20080 40219 57001 71022 86500 333 20101 50204 55025 86630
AAXX 29064 62012 12860 72605 10120 20090 30184 40214 54000 60014 87070 333 0//19 20115 50104 87358
AAXX 29064 62016 12560 60000 10100 20077 40235 57004 60034 82570 333 0//39 20086 50144 55006 82625 86360
AAXX 29064 62161 32970 50000 10100 20057 40207 56003 85030 333 20090 50384 55072 85360
AAXX 29064 62259 32970 40905 10080 20033 40189 58004 84030 333 20078 50604 55035 84360
BBXX 42369 29061 99272 70903 46/// /2404 1//// 90540 22200 10401 70005
BBXX 42370 29061 99273 70905 46/// ///// 10196 90540 22200 10401 70005
AAXX 29064 71982 16/// /2010 10034 21032 60001 333 10078 21113 70000 555 32334 40163
AAXX 29064 89528 46/// /3534 4//// 5////
BBXX 42376 29061 99291 70879 46/// /0000 10176 40192 90540 22200 10101 70004
BBXX 42392 29061 99272 70900 46/// ///// 1//// 90540 22200 10401 70005
BBXX 42887 29061 99282 70885 46/// /1606 10193 90540 22200 10401 70005
BBXX ZCDP8 29063 99257 70768 41/98 20210 10195 20124 40187 50004 70211 82/0/ 22224 00250 20202 303// 40303 5//// 80155
BBXX A8VL8 29064 99169 11132 41597 50326 10250 20222 40150 57010 70122 8367/ 22283 00260 20308 30505 40308 50207 6//// 80230 ICE /////
BBXX A8VL8 29064 99169 11132 41597 50326 10250 20222 40150 57010 70122 8367/ 22283 00260 20308 30505 40308 50207 6//// 80230 ICE /////
BBXX 42376 29061 99291 70879 46/// /0000 10176 40192 90540 22200 10101 70004
BBXX 42887 29061 99282 70885 46/// /1606 10193 90540 22200 10401 70005
BBXX 42392 29061 99272 70900 46/// ///// 1//// 90540 22200 10401 70005
BBXX 42369 29061 99272 70903 46/// /2404 1//// 90540 22200 10401 70005
BBXX 42370 29061 99273 70905 46/// ///// 10196 90540 22200 10401 70005
BBXX 42013 29061 99272 70829 46/// ///// 1//// 40207 90620 22200 00204
BBXX 42013 29061 99272 70829 46/// ///// 1//// 40207 58008 90600 22200 00204
BBXX ZCDQ4 29064 99419 10113 41697 69709 10130 20070 40220 56020 70301 87479 22234 00165 20201 390// 40201 5//// 80100
BBXX ZCDQ4 29064 99419 10113 41697 69709 10130 20070 40220 56020 70301 87479 22234 00165 20201 390// 40 201 5//// 80100
BBXX A8IH2 29063 99133 71386 41498 61218 10225 20196 40170 53010 76066 86260 22254 06225 21603 309// 41804 5//// 80205
BBXX V7SY6 29064 99070 11089 41596 83630 10260 20232 40280 51010 7//66 8862/ 22213 00250 20606 305// 40606 80240
AAXX 2906/ 89872 46/// ///// 11010 39800 4//// 5//// 90640
AAXX 2906/ 89869 46/// ///// 11014 39743 4//// 5//// 90640
AAXX 2906/ 89866 46/// ///// 11035 39724 4//// 5//// 90640
AAXX 2906/ 89329 46/// ///// 11101 38696 4//// 5//// 90640
AAXX 2906/ 89332 46/// ///// 11049 39192 4//// 5//// 90640
AAXX 2906/ 89108 46/// ///// 11219 36888 4//// 5//// 90640
AAXX 2906/ 89879 46/// ///// 11003 39757 4//// 5//// 90640
AAXX 29064 60105 32960 31205 10066 20052 40311 5//// 80002 333 20042 31004 83070
BBXX WKPY 29064 99393 70215 41598 81410 10160 20144 40395 54000 7//// 8847/ 22265 00177 2//// 3//// 4//// 5//// 6//// 80150
BBXX 62105 29064 99554 70121 46/// /28// 10100 20069 40158 55017 22200 00106 10915 70075 333 90710 91149
BBXX 63106 29064 99610 10017 46/// /3143 10050 49828 52045 22200
BBXX 63113 29064 99610 10017 46/// /3147 10044 20041 49856 52051 22200 11016 70080
BBXX 63110 29063 99595 10015 41/96 /3052 10048 49902 762// 8//// 22200 10417 70083
BBXX 2AUO5 29063 99606 10016 41296 83149 10100 49864 52052 76566 887// 22271 21014 331// 41220
BBXX 62303 29064 99516 70051 46/// /2629 10101 20056 40260 58026 22200 00112 10607 70035 333 90710 91141
BBXX 62103 29064 99499 70029 46/98 /2928 10097 20033 40300 57015 22200 00116 10805 70027 333 90710 91135
BBXX 62094 29064 99517 70067 46/// /2629 1//// 2//// 4//// 5//// 22200 00105 10607 70037 333 90710 91138
BBXX 64049 29063 99571 10022 41/97 83045 10064 20057 49962 54000 70211 8//// 22200 04090 20612 330// 40614 5//// 80061
AAXX 2906/ 68902 46/// ///// 40157 52012
BBXX MINFR00 2906/ 99032 51074 46/// ///// 10220 40146 52006
BBXX V2OG2 29063 99126 30974 41798 51711 10305 20265 40105 58014 70311 85230 22273 20601 336// 40503 80275
BBXX GRFP 29064 99362 51749 41196 80635 10210 20178 40130 56016 7//// 8762/ 22284 00180 20303 303// 40202 80190
BBXX V2OG2 29063 99126 30974 41798 51711 10305 20265 40105 58014 70311 85230 22273 20601 336// 40503 80275
BBXX GRFP 29064 99362 51749 41196 80635 10210 20178 40130 56016 7//// 8762/ 22284 00180 20303 303// 40202 80190
AAXX 29061 28076 11496 81602 11018 21020 39774 49844 57003 60020 77176 8672/ 333 21070 93401
BBXX MINFR00 2906/ 99032 51074 46/// ///// 10220 40146 52006
BBXX V7SY6 29064 99070 11089 41596 83630 10260 20232 40280 51010 7//66 8862/ 22213 00250 20606 305// 40606 80240
BBXX ZCDP8 29063 99257 70768 41/98 20210 10195 20124 40187 50004 70211 82/0/ 22224 00250 20202 303// 40303 5//// 80155
BBXX V2OG2 29063 99126 30974 41798 51711 10305 20265 40105 58014 70311 85230 22273 20601 336// 40503 80275
AAXX 29064 89257 46/// /2308 11095 21103 39730 49801 57003 90610
AAXX 29064 89272 46/// /0110 11177 21200 37985 49646 57004 90620
AAXX 29064 89262 46/// /0305 11019 21025 39773 49816 52001 90610
AAXX 29061 29789 42999 80000 11117 21130 39090 40321 58024 80001
BBXX ZDLP 29063 99519 50529 41599 12918 10088 20062 40013 57015 70200 8/800 22223 04076 20302 329// 40304 5//// 80076
AAXX 29064 89013 46/// /0811 11178 21213 37593 49592 52004 90600
AAXX 29064 89065 46/// /2103 10005 21050 39700 49776 52001 90610
AAXX 29064 89257 46/// /2209 11096 21104 39730 49801 57003 90600
AAXX 29064 89262 46/// /0305 11060 21066 39760 49804 57012 90610
AAXX 29064 89266 46/// /1714 11047 21052 39663 49801 57001 90600
AAXX 29064 89272 46/// /0110 11174 21197 37985 49644 57006 90610
BBXX PHAM 29064 99495 70011 41/98 /3020 10087 20027 40304 52004 70011 8//// 22200 20404 80059 90906
AAXX 29064 91375 46/// /0513 10221 40079 22200 00281
BBXX 42369 29061 99272 70903 46/// /2403 1//// 90600 22200 10401 70005
BBXX 42370 29061 99273 70905 46/// ///// 10196 90600 22200 10301 70005
BBXX 42376 29061 99291 70879 46/// /0000 10176 40189 90600 22200 10101 70004
BBXX 42392 29061 99272 70900 46/// ///// 1//// 90600 22200 10301 70005
BBXX 42887 29061 99282 70885 46/// /1703 10197 90600 22200 10401 70006
AAXX 29064 91165 12566 60512 10228 20183 30189 40225 53007 69951 90553
AAXX 29064 91203 32474 30711 10317 20273 30097 40102 56014 82151
AAXX 29064 91212 12466 40813 10283 20233 31360 40097 55007 69931 90554
AAXX 29064 91245 32566 20912 10270 20230 30144 90559
AAXX 29064 91285 11448 82704 10206 20189 30208 40223 53012 60031 765// 90553
AAXX 29064 91324 32474 80910 10300 20257 30061 40063 82201
AAXX 29064 91334 32474 50411 10315 20219 30073 40076 55002 82101
AAXX 29064 91348 32474 70806 10294 20237 30030 40083 53002 86201
AAXX 29064 91376 32474 80615 10284 20232 30075 40078 53012 84878
AAXX 29064 91408 11474 80605 10288 20259 30037 40075 57017 60031 70298 82278
AAXX 29064 91413 32469 60712 10305 20242 30059 40084 57014 83171
AAXX 29064 91155 NIL
AAXX 29064 91217 NIL
AAXX 29064 91232 NIL
AAXX 29064 91250 NIL
AAXX 29064 91275 NIL
AAXX 29064 91317 NIL
AAXX 29064 91339 NIL
AAXX 29064 91353 NIL
AAXX 29064 91356 NIL
AAXX 29064 91366 NIL
AAXX 29064 91367 NIL
AAXX 29064 91369 NIL
AAXX 29064 91371 NIL
AAXX 29064 91378 NIL
AAXX 29064 91425 NIL
AAXX 29064 91434 NIL
AAXX 29064 91601 NIL
AAXX 29064 91610 NIL
AAXX 29064 16158 11560 61204 10046 20023 30220 40228 57014 60002 70222 86800 333 20010 31/// 55083 2//// 55300 82825 84630
AAXX 29061 89065 46/// /2103 10005 21050 39700 49776 52001 90610
BBXX 62303 29064 99516 70051 46/// /2629 10101 20056 40260 58026 22200 00112 10607 70035 333 90710 91142
BBXX 62105 29064 99554 70121 46/// /2836 10100 20069 40158 55017 22200 00106 10915 70075 333 90710 91149
BBXX PJGO 29064 99571 10022 47/97 /2934 10062 20013 40016 52013 700// 22200
BBXX 63110 29064 99595 10015 47597 /3042 10047 20037 49905 52034 700// 22200 10916 70081
BBXX 63055 29064 99606 10016 47693 /2938 10047 20026 49863 52050 730// 22200 11016 70079
BBXX 63106 29064 99610 10017 46/// /3143 10050 49828 52045 22200
BBXX 63105 29064 99610 10017 47496 ///// 10062 20025 49829 52051 751// 22200
BBXX 62094 29064 99517 70067 46/// /2628 10098 20056 40270 57028 22200 00106 10607 70037 333 90710 91138
BBXX 62103 29064 99499 70029 46/98 /2827 10098 20036 40302 58007 22200 00117 10805 70026 333 90710 91137
AAXX 29064 87016 11340 81804 10236 20224 39686 40078 56011 69921 76196 8862/ 333 84708 88520
AAXX 29064 03008 11475 43030 10035 21041 49975 60022 70181 84900 90550 333 20027 31/// 70068 82915 90710 91143 91040
AAXX 29064 91165 12566 60512 10228 20183 30189 40225 53007 69951 90553
AAXX 29064 91212 12466 40813 10283 20233 31360 40097 55007 69931 90554
AAXX 29064 91285 11448 82704 10206 20189 30208 40223 53012 60031 765// 90553
AAXX 29064 91334 32474 50411 10315 20219 30073 40076 55002 82101
AAXX 29064 91348 32474 70806 10294 20237 30030 40083 53002 86201
AAXX 29064 91376 32474 80615 10284 20232 30075 40078 53012 84878
AAXX 29064 91408 11474 80605 10288 20259 30037 40075 57017 60031 70298 82278
AAXX 29064 91413 32469 60712 10305 20242 30059 40084 57014 83171
AAXX 29064 91245 32566 20912 10270 20230 30144 90559
BBXX WDA2768 29064 99439 70875 43/// /2405 00/// 10013 21022 40082 57032 7//// 8//// 22283 0//// 2//// 3//// 4//// 5//// 6//// 80000 ICE /////
BBXX ZCDG7 29064 99278 71320 41298 80724 10161 20121 40296 52020 70222 887// 22224 00200 20304 308// 40504 5////
AAXX 29064 41515 02997 00000 10083 21070 38606 48567 60001 333 58017 60007
AAXX 29064 41560 22697 41803 10030 21051 38285 48517 60001 83430 333 58000 60007
AAXX 29064 41571 11994 00000 10135 20042 39635 40237 60001 70500 333 58016
AAXX 29064 41594 31993 03104 10140 20058 30000 40023 70500 333 58004
AAXX 29064 41685 32997 00502 10150 21072 38968 48548 333 58021
AAXX 29064 41710 01995 01802 10130 21127 39445 40232 60001 70600 333 58032 60007
AAXX 29064 41718 11995 00000 10125 20062 30117 40224 60001 70400 333 58011
AAXX 29064 41739 02996 00508 10110 20007 39094 48539 60001 333 58015 60007
AAXX 29064 41744 32996 00000 10150 21049 38807 48531 333 58019
AAXX 29064 41749 01993 03104 10150 20056 30199 40234 60001 70400 333 58016 60007
AAXX 29064 60686 12960 03514 10052 21035 40202 53002 60004 333 00400 20052
AAXX 29064 41529 11996 02302 10144 21014 39855 40247 60007 70500 333 58013
AAXX 29064 41530 11995 00000 10145 20028 39808 40230 60001 70500 333 58015
AAXX 29064 41598 11994 00000 10140 21028 39942 40221 60001 70400 333 58011
AAXX 29064 41620 32997 02305 10115 21106 38645 48546 333 58011
AAXX 29064 41624 01996 03102 10113 20022 30023 40230 60001 70400 333 58014 60007
AAXX 29064 41640 01994 00000 10155 20075 39963 40217 60001 70400 333 58004 60007
AAXX 29064 41660 11996 03106 10170 21067 38484 48574 60001 70500 333 58016
AAXX 29064 41675 11994 00000 10140 20068 30080 40224 60001 70440 333 58008
AAXX 29064 41712 12997 00504 10100 21042 39279 48561 60001 333 58037
AAXX 29064 41715 01996 03604 10175 20051 30157 40224 60001 70500 333 58004 60007
AAXX 29064 41756 01596 40906 10235 20143 30126 40190 60001 70504 84400 333 56900 58019 60007 84625
AAXX 29064 41764 31996 03610 10180 20029 30162 40212 60001 70400 333 58020 60007
AAXX 29064 41768 02996 00000 10200 20086 30199 40206 60001 333 58017 60007
AAXX 29064 41780 02996 00502 10220 21046 30184 40212 60001 333 58019 60007
BBXX PHAM 29064 99495 70011 41/98 /3020 10087 20027 40304 52004 70011 8//// 22200 20404 80059 90906
BBXX ZDLP 29063 99519 50529 41599 12918 10088 20062 40013 57015 70200 8/800 22223 04076 20302 329// 40304 5//// 80076
BBXX ZCDG7 29064 99278 71320 41298 80724 10161 20121 40296 52020 70222 887// 22224 00200 20304 308// 40504 5////
BBXX 42392 29061 99272 70900 46/// ///// 1//// 90600 22200 10301 70005
BBXX 42887 29061 99282 70885 46/// /1703 10197 90600 22200 10401 70006
BBXX 42376 29061 99291 70879 46/// /0000 10176 40189 90600 22200 10101 70004
BBXX 42370 29061 99273 70905 46/// ///// 10196 90600 22200 10301 70005
BBXX 42369 29061 99272 70903 46/// /2403 1//// 90600 22200 10401 70005
BBXX GRFP 29064 99362 51749 41196 80635 10210 20178 40130 56016 7//// 8762/ 22284 00180 20303 303// 40202 80190
BBXX V2OG2 29063 99126 30974 41798 51711 10305 20265 40105 58014 70311 85230 22273 20601 336// 40503 80275
BBXX WDA2768 29064 99439 70875 43/// /2405 00/// 10013 21022 40082 57032 7//// 8//// 22283 0//// 2//// 3//// 4//// 5//// 6//// 80000 ICE /////
AAXX 29064 41529 11996 02302 10144 21014 39855 40247 60007 70500 333 58013
AAXX 29061 30309 41999 82701 11137 21150 39776 40325 58006 77172 8807/
AAXX 29064 71427 17/// /2809 11044 21052 39791 49798 53002 60011 7//4/ 333 10016 21045 70430 555 30430 40112
AAXX 29064 71824 46/// /3006 11250 21281 6///1 333 11139 21251 7//// 555 33223 40231
AAXX 29064 71388 46/// /2822 11151 21183 39762 49952 51016 6///1 333 10006 21151 7//// 555 32735 40063
AAXX 29064 71824 46/// /3006 11250 21281 6///1 333 11139 21251 7//// 555 33223 40231
AAXX 29064 71388 46/// /2822 11151 21183 39762 49952 51016 6///1 333 10006 21151 7//// 555 32735 40063
AAXX 29064 71427 17/// /2809 11044 21052 39791 49798 53002 60011 7//4/ 333 10016 21045 70430 555 30430 40112
BBXX PHAM 29064 99495 70011 41/98 /3020 10087 20027 40304 52004 70011 8//// 22200 20404 80059
AAXX 29061 01160 41889 40410 11005 21037 39822 49839 56016 70200 84030 333 21005 91118
AAXX 29064 89062 46/// /0003 10004 21024 39742 49782 52003 333 55204
AAXX 29064 97876 01330 83009 10272 20249 30062 40092 57014 60041 76062 8793/ 333 56709 57901 60047 83909 85610 80958
AAXX 29064 89062 46/// /0003 10004 21024 39742 49782 52003 333 55204
BBXX 62105 29064 99554 70121 46/// /28// 10100 20069 40158 55017 22200 00106 10915 70075 333 90710 91149
BBXX 63106 29064 99610 10017 46/// /3143 10050 49828 52045 22200
BBXX 63113 29064 99610 10017 46/// /3147 10044 20041 49856 52051 22200 11016 70080
BBXX 63110 29063 99595 10015 41/96 /3052 10048 49902 762// 8//// 22200 10417 70083
BBXX 2AUO5 29063 99606 10016 41296 83149 10100 49864 52052 76566 887// 22271 21014 331// 41220
BBXX 62303 29064 99516 70051 46/// /2629 10101 20056 40260 58026 22200 00112 10607 70035 333 90710 91141
BBXX 62103 29064 99499 70029 46/98 /2928 10097 20033 40300 57015 22200 00116 10805 70027 333 90710 91135
BBXX 62094 29064 99517 70067 46/// /2629 1//// 2//// 4//// 5//// 22200 00105 10607 70037 333 90710 91138
BBXX 64049 29063 99571 10022 41/97 83045 10064 20057 49962 54000 70211 8//// 22200 04090 20612 330// 40614 5//// 80061
BBXX 42043 29061 99290 70949 46/// /1302 1//// 40173 90630 22200 00138 333 91202
BBXX 42043 29061 99290 70949 46/// /1101 1//// 40176 90600 22200 00140 333 91202
BBXX MINFR05 2906/ 99094 70167 46/// ///// 10270 40133 57002
BBXX 42044 29061 99262 70971 46/// /1701 10157 20128 40178 90630 22200 00160 333 91202
BBXX 42044 29061 99262 70971 46/// /1402 10159 20127 40178 90600 22200 00160 333 91202
BBXX 42045 29061 99262 70965 46/// /2202 10181 40180 90630 22200 00210 333 91203
BBXX 42045 29061 99262 70965 46/// /2203 10182 40179 90600 22200 00210 333 91203
BBXX 42047 29061 99279 70936 46/// /2204 10190 20109 40179 90630 22200 00221 333 91206
BBXX 42047 29061 99279 70936 46/// /2305 10189 20098 40180 90600 22200 00221 333 91206
BBXX 42369 29061 99272 70903 46/// /2403 1//// 90620 22200 10401 70005
BBXX 42370 29061 99273 70905 46/// ///// 10196 90620 22200 10401 70005
BBXX 42376 29061 99291 70879 46/// /0000 10176 40189 90620 22200 10101 70004
BBXX 42392 29061 99272 70900 46/// ///// 1//// 90620 22200 10301 70005
BBXX 42887 29061 99282 70885 46/// /1804 10197 90620 22200 10401 70006
BBXX 42376 29061 99291 70879 46/// /0000 10176 40189 90620 22200 10101 70004
BBXX 42370 29061 99273 70905 46/// ///// 10196 90620 22200 10401 70005
BBXX 42887 29061 99282 70885 46/// /1804 10197 90620 22200 10401 70006
BBXX 42392 29061 99272 70900 46/// ///// 1//// 90620 22200 10301 70005
BBXX 42369 29061 99272 70903 46/// /2403 1//// 90620 22200 10401 70005
BBXX 42047 29061 99279 70936 46/// /2204 10190 20109 40179 90630 22200 00221 333 91206
BBXX 42047 29061 99279 70936 46/// /2305 10189 20098 40180 90600 22200 00221 333 91206
BBXX 42045 29061 99262 70965 46/// /2202 10181 40180 90630 22200 00210 333 91203
BBXX 42045 29061 99262 70965 46/// /2203 10182 40179 90600 22200 00210 333 91203
BBXX 42044 29061 99262 70971 46/// /1402 10159 20127 40178 90600 22200 00160 333 91202
BBXX 42044 29061 99262 70971 46/// /1701 10157 20128 40178 90630 22200 00160 333 91202
BBXX 42043 29061 99290 70949 46/// /1101 1//// 40176 90600 22200 00140 333 91202
BBXX 42043 29061 99290 70949 46/// /1302 1//// 40173 90630 22200 00138 333 91202
BBXX MINFR05 2906/ 99094 70167 46/// ///// 10270 40133 57002
AAXX 29061 08515 41565 20000 10144 20131 30257 40374 57002 70200 82800 333 20144 32013 5//// 55/// 2//// 81820
AAXX 29061 08515 41565 20000 10144 20131 30257 40374 57002 70200 82800 333 20144 32013 5//// 55/// 2//// 81820 555 60005
AAXX 29064 60115 11560 62606 10054 20053 40312 58001 69974 70162 84880 333 82820 83830
AAXX 2906/ 89872 46/// ///// 11001 39804 4//// 5////
AAXX 2906/ 89869 46/// ///// 11016 39748 4//// 5////
AAXX 2906/ 89329 46/// ///// 11083 38699 4//// 5////
AAXX 2906/ 89868 46/// ///// 11040 39773 4//// 5////
AAXX 2906/ 89327 46/// ///// 11025 39592 4//// 5////
AAXX 2906/ 89108 46/// ///// 11216 36886 4//// 5////
AAXX 2906/ 89879 46/// ///// 11003 39757 4//// 5////
AAXX 2906/ 89769 46/// ///// 11001 39848 4//// 5////
AAXX 2906/ 89314 46/// ///// 11108 38156 4//// 5////
BBXX 52243 29061 99193 11666 46/// ///// 1//// 90600 22200 00272
BBXX 51179 29061 99143 51708 46/// ///// 1//// 90600 22200 00287
BBXX 51178 29061 99142 51695 46/// ///// 1//// 90600 22200 00285
BBXX 52246 29061 99152 11457 46/// ///// 1//// 90600 22200 00282
BBXX 52245 29061 99181 11458 46/// ///// 1//// 90600 22200 00281
BBXX 51174 29061 99142 51697 46/// ///// 1//// 90600 22200 00285
BBXX 52244 29061 99200 11452 46/// ///// 1//// 90600 22200 00267
BBXX 51173 29061 99260 71739 46/// ///// 1//// 90600 22200 00249
BBXX 51172 29061 99284 71783 46/// ///// 1//// 90600 22200 00233
BBXX 51171 29061 99064 71623 46/// ///// 1//// 90600 22200 00276
BBXX 51170 29061 99168 71695 46/// ///// 1//// 90600 22200 00257
BBXX 51169 29061 99004 51600 46/// ///// 1//// 90600 22200 00257
BBXX 52248 29061 99135 11448 46/// ///// 1//// 90600 22200 00286
BBXX A8GH5 29063 99249 70159 41/97 /0311 10180 20132 40280 54000 70200 8//// 22254 20301 80151
BBXX 62303 29064 99516 70051 46/// /2629 10101 20056 40260 58026 22200 00112 10607 70035 333 90710 91142
BBXX 62105 29064 99554 70121 46/// /2836 10100 20069 40158 55017 22200 00106 10915 70075 333 90710 91149
BBXX PJGO 29064 99571 10022 47/97 /2934 10062 20013 40016 52013 700// 22200
BBXX 63110 29064 99595 10015 47597 /3042 10047 20037 49905 52034 700// 22200 10916 70081
BBXX 63055 29064 99606 10016 47693 /2938 10047 20026 49863 52050 730// 22200 11016 70079
BBXX 63106 29064 99610 10017 46/// /3143 10050 49828 52045 22200
BBXX 63105 29064 99610 10017 47496 ///// 10062 20025 49829 52051 751// 22200
BBXX 62094 29064 99517 70067 46/// /2628 10098 20056 40270 57028 22200 00106 10607 70037 333 90710 91138
BBXX 62103 29064 99499 70029 46/98 /2827 10098 20036 40302 58007 22200 00117 10805 70026 333 90710 91137
BBXX 52244 29061 99200 11452 46/// ///// 1//// 90600 22200 00267
BBXX 52246 29061 99152 11457 46/// ///// 1//// 90600 22200 00282
BBXX 52245 29061 99181 11458 46/// ///// 1//// 90600 22200 00281
BBXX 52248 29061 99135 11448 46/// ///// 1//// 90600 22200 00286
BBXX 52243 29061 99193 11666 46/// ///// 1//// 90600 22200 00272
BBXX A8GH5 29063 99249 70159 41/97 /0311 10180 20132 40280 54000 70200 8//// 22254 20301 80151
BBXX 51173 29061 99260 71739 46/// ///// 1//// 90600 22200 00249
BBXX 51172 29061 99284 71783 46/// ///// 1//// 90600 22200 00233
BBXX 51179 29061 99143 51708 46/// ///// 1//// 90600 22200 00287
BBXX 51178 29061 99142 51695 46/// ///// 1//// 90600 22200 00285
BBXX 51174 29061 99142 51697 46/// ///// 1//// 90600 22200 00285
BBXX 51169 29061 99004 51600 46/// ///// 1//// 90600 22200 00257
BBXX 51171 29061 99064 71623 46/// ///// 1//// 90600 22200 00276
BBXX 51170 29061 99168 71695 46/// ///// 1//// 90600 22200 00257
BBXX ZCDF4 29063 99088 70794 41/98 33513 10260 20240 40125 58003 70200 8//// 22200 00280 20201 334// 40401 5//// 80246
BBXX 62105 29064 99554 70121 46/// /28// 10100 20069 40158 55017 22200 00106 10915 70075 333 90710 91149
BBXX 63106 29064 99610 10017 46/// /3143 10050 49828 52045 22200
BBXX 63113 29064 99610 10017 46/// /3147 10044 20041 49856 52051 22200 11016 70080
BBXX 63110 29063 99595 10015 41/96 /3052 10048 49902 762// 8//// 22200 10417 70083
BBXX 2AUO5 29063 99606 10016 41296 83149 10100 49864 52052 76566 887// 22271 21014 331// 41220
BBXX 62303 29064 99516 70051 46/// /2629 10101 20056 40260 58026 22200 00112 10607 70035 333 90710 91141
BBXX 62103 29064 99499 70029 46/98 /2928 10097 20033 40300 57015 22200 00116 10805 70027 333 90710 91135
BBXX 62094 29064 99517 70067 46/// /2629 1//// 2//// 4//// 5//// 22200 00105 10607 70037 333 90710 91138
BBXX 64049 29063 99571 10022 41/97 83045 10064 20057 49962 54000 70211 8//// 22200 04090 20612 330// 40614 5//// 80061
AAXX 29061 28666 41440 82207 11011 21028 39708 49879 53039 77173 8802/
BBXX A8GA8 29060 99332 10255 41498 20106 10200 20153 40210 51010 70200 82145 22265 02170 20302 304// 40302 5//// 80170
BBXX A8GA8 29060 99332 10255 41498 20106 10200 20153 40210 51010 70200 82145 22265 02170 20302 304// 40302 5//// 80170
BBXX A8GA8 29060 99332 10255 41498 20106 10200 20153 40210 51010 70200 82145 22265 02170 20302 304// 40302 5//// 80170
BBXX 62303 29064 99516 70051 46/// /2629 10101 20056 40260 58026 22200 00112 10607 70035 333 90710 91142
BBXX 62105 29064 99554 70121 46/// /2836 10100 20069 40158 55017 22200 00106 10915 70075 333 90710 91149
BBXX PJGO 29064 99571 10022 47/97 /2934 10062 20013 40016 52013 700// 22200
BBXX 63110 29064 99595 10015 47597 /3042 10047 20037 49905 52034 700// 22200 10916 70081
BBXX 63055 29064 99606 10016 47693 /2938 10047 20026 49863 52050 730// 22200 11016 70079
BBXX 63106 29064 99610 10017 46/// /3143 10050 49828 52045 22200
BBXX 63105 29064 99610 10017 47496 ///// 10062 20025 49829 52051 751// 22200
BBXX 62094 29064 99517 70067 46/// /2628 10098 20056 40270 57028 22200 00106 10607 70037 333 90710 91138
BBXX 62103 29064 99499 70029 46/98 /2827 10098 20036 40302 58007 22200 00117 10805 70026 333 90710 91137
BBXX A8GA8 29060 99332 10255 41498 20106 10200 20153 40210 51010 70200 82145 22265 02170 20302 304// 40302 5//// 80170
AAXX 29064 71710 17/// /2312 10039 20032 39765 49774 56031 60121 7//4/ 333 10053 20023 70220 555 31533 40152
AAXX 29064 71307 16/// /0902 11071 21111 39903 40160 58018 60001 333 11010 21088 70000 555 10010 33027 40071
AAXX 29064 71386 17/// /2912 11072 21106 39627 49828 52009 60021 7//4/ 333 10041 21072 70170 555 33126 40051
AAXX 29064 71463 46/// /3607 11081 21135 39941 40171 58008 6///1 333 10016 21084 7//// 555 33236 40093
AAXX 29064 96996 41465 30804 10297 20242 30084 40088 57015 71611 81339
AAXX 29064 96996 41465 30804 10297 20242 30084 40088 57015 71611 81339
BBXX 46145 29061 99544 71324 46/// /2514 1//// 49945 52064 22200 0//// 1//// 70/// 333 91220
BBXX 46145 29061 99544 71324 46/// /2514 1//// 49945 52064 22200 0//// 1//// 70/// 333 91220
BBXX 46145 29061 99544 71324 46/// /2514 1//// 49945 52064 22200 0//// 1//// 70/// 333 91220
BBXX WDE8265 29064 99347 10200 41398 59904 10170 2012/ 40210 54000 70282 8388/ 22224 0//// 2//// 3//// 4//// 5//// 6//// 80140 ICE /////
BBXX 42046 29061 99279 70940 46/// /2204 1//// 40179 90630 22200 00218 333 91206
BBXX 42046 29061 99279 70940 46/// /2205 1//// 40180 90600 22200 00217 333 91206
BBXX 62105 29064 99554 70121 46/// /28// 10100 20069 40158 55017 22200 00106 10915 70075 333 90710 91149
BBXX 63106 29064 99610 10017 46/// /3143 10050 49828 52045 22200
BBXX 63113 29064 99610 10017 46/// /3147 10044 20041 49856 52051 22200 11016 70080
BBXX 63110 29063 99595 10015 41/96 /3052 10048 49902 762// 8//// 22200 10417 70083
BBXX 2AUO5 29063 99606 10016 41296 83149 10100 49864 52052 76566 887// 22271 21014 331// 41220
BBXX 62303 29064 99516 70051 46/// /2629 10101 20056 40260 58026 22200 00112 10607 70035 333 90710 91141
BBXX 62103 29064 99499 70029 46/98 /2928 10097 20033 40300 57015 22200 00116 10805 70027 333 90710 91135
BBXX 62094 29064 99517 70067 46/// /2629 1//// 2//// 4//// 5//// 22200 00105 10607 70037 333 90710 91138
BBXX 64049 29063 99571 10022 41/97 83045 10064 20057 49962 54000 70211 8//// 22200 04090 20612 330// 40614 5//// 80061
BBXX WDE8265 29064 99347 10200 41398 59904 10170 2012/ 40210 54000 70282 8388/ 22224 0//// 2//// 3//// 4//// 5//// 6//// 80140 ICE /////
AAXX 29061 01218 11582 81701 10029 20022 39781 49802 53011 60002 70382 882// 333 20028 70000 91104
BBXX 42046 29061 99279 70940 46/// /2204 1//// 40179 90630 22200 00218 333 91206
BBXX 42046 29061 99279 70940 46/// /2205 1//// 40180 90600 22200 00217 333 91206
AAXX 29064 60220 32960 00204 10103 20068 40290 51003 333 20100
AAXX 29064 48458 32960 00504 10315 20174 30058 40137 57031 333 59004
BBXX ZCDF4 29063 99088 70794 41/98 33513 10260 20240 40125 58003 70200 8//// 22200 00280 20201 334// 40401 5//// 80246
BBXX 46145 29061 99544 71324 46/// /2514 1//// 49945 52064 22200 0//// 1//// 70/// 333 91220
BBXX 62303 29064 99516 70051 46/// /2629 10101 20056 40260 58026 22200 00112 10607 70035 333 90710 91142
BBXX 62105 29064 99554 70121 46/// /2836 10100 20069 40158 55017 22200 00106 10915 70075 333 90710 91149
BBXX PJGO 29064 99571 10022 47/97 /2934 10062 20013 40016 52013 700// 22200
BBXX 63110 29064 99595 10015 47597 /3042 10047 20037 49905 52034 700// 22200 10916 70081
BBXX 63055 29064 99606 10016 47693 /2938 10047 20026 49863 52050 730// 22200 11016 70079
BBXX 63106 29064 99610 10017 46/// /3143 10050 49828 52045 22200
BBXX 63105 29064 99610 10017 47496 ///// 10062 20025 49829 52051 751// 22200
BBXX 62094 29064 99517 70067 46/// /2628 10098 20056 40270 57028 22200 00106 10607 70037 333 90710 91138
BBXX 62103 29064 99499 70029 46/98 /2827 10098 20036 40302 58007 22200 00117 10805 70026 333 90710 91137
BBXX MINFR09 2906/ 99145 11484 46/// ///// 40112 52003
BBXX MINFR09 2906/ 99145 11484 46/// ///// 40112 52003
AAXX 29061 89063 42799 20000 11015 21029 39785 49796 52009 81501
BBXX 62105 29064 99554 70121 46/// /28// 10100 20069 40158 55017 22200 00106 10915 70075 333 90710 91149
BBXX 63106 29064 99610 10017 46/// /3143 10050 49828 52045 22200
BBXX 63113 29064 99610 10017 46/// /3147 10044 20041 49856 52051 22200 11016 70080
BBXX 63110 29063 99595 10015 41/96 /3052 10048 49902 762// 8//// 22200 10417 70083
BBXX 2AUO5 29063 99606 10016 41296 83149 10100 49864 52052 76566 887// 22271 21014 331// 41220
BBXX 62303 29064 99516 70051 46/// /2629 10101 20056 40260 58026 22200 00112 10607 70035 333 90710 91141
BBXX 62103 29064 99499 70029 46/98 /2928 10097 20033 40300 57015 22200 00116 10805 70027 333 90710 91135
BBXX 62094 29064 99517 70067 46/// /2629 1//// 2//// 4//// 5//// 22200 00105 10607 70037 333 90710 91138
BBXX 64049 29063 99571 10022 41/97 83045 10064 20057 49962 54000 70211 8//// 22200 04090 20612 330// 40614 5//// 80061
AAXX 29061 89063 42799 20000 11015 21029 39785 49796 52009 81501
AAXX 2906/ 89828 46/// ///// 11199 36543 4//// 5//// 90640
AAXX 29064 71854 43/// ///// 333 11125 21245 48017 70032 555 10038 20032
AAXX 29064 71854 43/// ///// 333 11125 21245 48017 70032 555 10038 20032
BBXX 62303 29064 99516 70051 46/// /2629 10101 20056 40260 58026 22200 00112 10607 70035 333 90710 91142
BBXX 62105 29064 99554 70121 46/// /2836 10100 20069 40158 55017 22200 00106 10915 70075 333 90710 91149
BBXX PJGO 29064 99571 10022 47/97 /2934 10062 20013 40016 52013 700// 22200
BBXX 63110 29064 99595 10015 47597 /3042 10047 20037 49905 52034 700// 22200 10916 70081
BBXX 63055 29064 99606 10016 47693 /2938 10047 20026 49863 52050 730// 22200 11016 70079
BBXX 63106 29064 99610 10017 46/// /3143 10050 49828 52045 22200
BBXX 63105 29064 99610 10017 47496 ///// 10062 20025 49829 52051 751// 22200
BBXX 62094 29064 99517 70067 46/// /2628 10098 20056 40270 57028 22200 00106 10607 70037 333 90710 91138
BBXX 62103 29064 99499 70029 46/98 /2827 10098 20036 40302 58007 22200 00117 10805 70026 333 90710 91137
BBXX 62105 29064 99554 70121 46/// /28// 10100 20069 40158 55017 22200 00106 10915 70075 333 90710 91149
BBXX 63106 29064 99610 10017 46/// /3143 10050 49828 52045 22200
BBXX 63113 29064 99610 10017 46/// /3147 10044 20041 49856 52051 22200 11016 70080
BBXX 63110 29063 99595 10015 41/96 /3052 10048 49902 762// 8//// 22200 10417 70083
BBXX 2AUO5 29063 99606 10016 41296 83149 10100 49864 52052 76566 887// 22271 21014 331// 41220
BBXX 62303 29064 99516 70051 46/// /2629 10101 20056 40260 58026 22200 00112 10607 70035 333 90710 91141
BBXX 62103 29064 99499 70029 46/98 /2928 10097 20033 40300 57015 22200 00116 10805 70027 333 90710 91135
BBXX 62094 29064 99517 70067 46/// /2629 1//// 2//// 4//// 5//// 22200 00105 10607 70037 333 90710 91138
BBXX 64049 29063 99571 10022 41/97 83045 10064 20057 49962 54000 70211 8//// 22200 04090 20612 330// 40614 5//// 80061
BBXX 52249 29061 99052 31503 46/// ///// 1//// 90600 22200 00307
AAXX 29064 65046 31958 63507 10154 20051 39611 40171 70522 80008 9// 333 20142 58003 86280
AAXX 29064 61202 32965 13606 10076 21034 39625 40198 81040 333 00700 20065 50704 55101 58009 81365
AAXX 29064 61214 NIL
AAXX 29064 61223 32960 40210 10120 21036 39889 40204 80002 333 01100 20118 50654 55075 58019 84075
AAXX 29064 61226 NIL
AAXX 29064 61230 32960 00404 10132 21024 39890 40164 333 0//00 20132 51024 55055 58023
AAXX 29064 61233 32960 30404 10130 21032 3//// 4//// 80002 333 01100 20130 50874 55/// 5//// 83075
AAXX 29064 61235 32960 70816 10194 21019 3//// 4//// 80002 333 0//00 20170 51804 55071 5//// 87075
AAXX 29064 61240 32960 50404 10153 21025 39838 40168 80002 333 01500 20140 50714 55102 58008 85075
AAXX 29064 61250 32960 60000 10157 20021 3//// 4//// 80002 333 01400 20156 50824 55107 5//// 86075
AAXX 29064 61257 32960 51008 10180 21037 30113 40208 80002 333 01200 20159 50264 55083 58025 85075
AAXX 29064 61265 32960 60412 10148 21035 39848 40159 82042 333 01300 20146 51180 55099 58010 82365 84075
AAXX 29064 61270 32960 20406 10168 20003 3//// 4//// 80002 333 01600 20165 50844 55072 5//// 82075
AAXX 29064 61272 32960 10404 10152 20022 39838 40168 80002 333 01400 20152 5//// 55086 58017 81075
AAXX 29064 61277 32960 20406 10160 20016 39843 40166 80002 333 01500 20156 50961 55102 58026 82075
AAXX 29064 61285 32960 52604 10225 20016 30001 40151 80002 333 01500 20225 51164 55075 58014 85075
AAXX 29064 61291 32960 20610 10175 21029 39736 40147 80002 333 01600 20175 50921 55077 58015 82075
AAXX 29064 61293 32960 60206 10162 20043 3//// 4//// 80002 333 01300 20160 50960 55092 5//// 86075
AAXX 29064 61296 32960 63604 10168 20075 3//// 4//// 80002 333 00900 20164 50680 55089 5//// 86075
AAXX 29064 61297 32960 73408 10170 20021 3//// 4//// 80002 333 01000 20155 50891 55105 5//// 87075
AAXX 29064 61404 32960 31208 10100 20000 39837 40241 80002 333 0//00 20100 5//// 55/// 58007 83073
AAXX 29064 61437 32960 20410 10148 20052 30093 40233 80002 333 0//00 20148 5//// 55/// 58028 82073
AAXX 29064 61450 33960 30808 10118 21007 39722 40188 80002 333 0//00 20100 5//// 55/// 59009 83073
AAXX 29064 61461 32958 20804 10170 21066 30113 40201 80002 333 0//00 20170 5//// 55/// 58013 82073
AAXX 29064 61489 31956 30406 10188 21011 30175 40182 70600 83070 333 0//00 20180 50944 55/// 58004 83363
AAXX 29064 61492 31956 70808 10195 21031 30176 40196 70622 8707/ 333 0//00 20195 5//// 58014 87363
AAXX 29064 61497 34940 70816 10141 21037 39943 4//// 707// 80002 333 0//00 20141 5//// 55/// 58021 87073
AAXX 29064 333
AAXX 29064 65557 32458 6//// 10243 20234 39891 40129 86500 333 20235 58007 86611
AAXX 29064 65560 31430 8//// 10234 20233 39819 40126 71011 885// 333 20205 58007 88613
AAXX 29064 65594 31458 60000 10243 20233 30098 40132 70299 86200 333 20239 58008 86813 94905
AAXX 29064 65563 31220 80000 10228 20225 39892 40131 71011 885// 333 20192 58002 82704 88610
AAXX 29064 65528 NIL
AAXX 29064 65536 NIL
AAXX 29064 65545 NIL
AAXX 29064 65548 NIL
AAXX 29064 65555 NIL
AAXX 29064 65557 NIL
AAXX 29064 65560 NIL
AAXX 29064 65562 NIL
AAXX 29064 65563 NIL
AAXX 29064 65578 32457 62806 10265 20251 30111 40128 84530 333 20262 58005 84616 84358
AAXX 29064 65585 NIL
AAXX 29064 65592 NIL
AAXX 29064 65594 NIL
AAXX 29064 65599 NIL
AAXX 29063 64501 32358 72004 10254 20240 3//// 4//// 8355/ 333 0//00 20252 50294 55043 5//// 83608 87360
AAXX 29063 DUPE
AAXX 29064 64510 32260 8//// 10222 20219 3//// 4//// 885// 333 0//00 20222 5///4 55/// 5//// 85703 88613
AAXX 29064 64550 32358 8//// 10235 20215 30/// 40/// 885// 333 0//00 20230 50214 55/// 5//// 84608 88623
AAXX 29064 DUPE
AAXX 29064 64500 32359 71804 10256 20233 30108 40121 845// 333 02450 20220 50431 55038 58017 84608 87633
AAXX 29064 DUPE
AAXX 29064 64500 32359 71804 10256 20233 30108 40121 845// 333 02450 20220 50431 55038 58017 84608 87633
AAXX 29064 64501 NIL
AAXX 29064 64507 NIL
AAXX 29064 64510 NIL
AAXX 29064 64550 NIL
AAXX 29064 64551 31250 72206 10236 20227 30104 40133 71022 8353/ 333 0//00 20211 50044 55/// 58007 82705 83611 87362
AAXX 29064 64556 NIL
AAXX 29064 64570 32460 80000 10222 20216 39634 40144 8451/ 333 02100 20221 50214 55/// 59002 84610 88460
AAXX 29064 DUPE
BBXX 62303 29064 99516 70051 46/// /2629 10101 20056 40260 58026 22200 00112 10607 70035 333 90710 91142
BBXX 62105 29064 99554 70121 46/// /2836 10100 20069 40158 55017 22200 00106 10915 70075 333 90710 91149
BBXX PJGO 29064 99571 10022 47/97 /2934 10062 20013 40016 52013 700// 22200
BBXX 63110 29064 99595 10015 47597 /3042 10047 20037 49905 52034 700// 22200 10916 70081
BBXX 63055 29064 99606 10016 47693 /2938 10047 20026 49863 52050 730// 22200 11016 70079
BBXX 63106 29064 99610 10017 46/// /3143 10050 49828 52045 22200
BBXX 63105 29064 99610 10017 47496 ///// 10062 20025 49829 52051 751// 22200
BBXX 62094 29064 99517 70067 46/// /2628 10098 20056 40270 57028 22200 00106 10607 70037 333 90710 91138
BBXX 62103 29064 99499 70029 46/98 /2827 10098 20036 40302 58007 22200 00117 10805 70026 333 90710 91137
BBXX 52249 29061 99052 31503 46/// ///// 1//// 90600 22200 00307
BBXX 62105 29064 99554 70121 46/// /28// 10100 20069 40158 55017 22200 00106 10915 70075 333 90710 91149
BBXX 63106 29064 99610 10017 46/// /3143 10050 49828 52045 22200
BBXX 63113 29064 99610 10017 46/// /3147 10044 20041 49856 52051 22200 11016 70080
BBXX 63110 29063 99595 10015 41/96 /3052 10048 49902 762// 8//// 22200 10417 70083
BBXX 2AUO5 29063 99606 10016 41296 83149 10100 49864 52052 76566 887// 22271 21014 331// 41220
BBXX 62303 29064 99516 70051 46/// /2629 10101 20056 40260 58026 22200 00112 10607 70035 333 90710 91141
BBXX 62103 29064 99499 70029 46/98 /2928 10097 20033 40300 57015 22200 00116 10805 70027 333 90710 91135
BBXX 62094 29064 99517 70067 46/// /2629 1//// 2//// 4//// 5//// 22200 00105 10607 70037 333 90710 91138
BBXX 64049 29063 99571 10022 41/97 83045 10064 20057 49962 54000 70211 8//// 22200 04090 20612 330// 40614 5//// 80061
AAXX 29064 71642 13/// ///// 11275 60001 333 11191 21303 70000 555 10000 20000
AAXX 29064 71604 17/// /2723 10029 20026 60131 7//4/ 333 10041 21007 70144 555 10010 20144 31738 40163
BBXX 62303 29064 99516 70051 46/// /2629 10101 20056 40260 58026 22200 00112 10607 70035 333 90710 91142
BBXX 62105 29064 99554 70121 46/// /2836 10100 20069 40158 55017 22200 00106 10915 70075 333 90710 91149
BBXX PJGO 29064 99571 10022 47/97 /2934 10062 20013 40016 52013 700// 22200
BBXX 63110 29064 99595 10015 47597 /3042 10047 20037 49905 52034 700// 22200 10916 70081
BBXX 63055 29064 99606 10016 47693 /2938 10047 20026 49863 52050 730// 22200 11016 70079
BBXX 63106 29064 99610 10017 46/// /3143 10050 49828 52045 22200
BBXX 63105 29064 99610 10017 47496 ///// 10062 20025 49829 52051 751// 22200
BBXX 62094 29064 99517 70067 46/// /2628 10098 20056 40270 57028 22200 00106 10607 70037 333 90710 91138
BBXX 62103 29064 99499 70029 46/98 /2827 10098 20036 40302 58007 22200 00117 10805 70026 333 90710 91137
AAXX 29064 61404 32960 31208 10100 20000 39837 40241 80002 333 0//00 20100 5//// 55/// 58007 83073
AAXX 29064 61437 32960 20410 10148 20052 30093 40233 80002 333 0//00 20148 5//// 55/// 58028 82073
AAXX 29064 61450 33960 30808 10118 21007 39722 40188 80002 333 0//00 20100 5//// 55/// 59009 83073
AAXX 29064 61461 32958 20804 10170 21066 30113 40201 80002 333 0//00 20170 5//// 55/// 58013 82073
AAXX 29064 61489 31956 30406 10188 21011 30175 40182 70600 83070 333 0//00 20180 50944 55/// 58004 83363
AAXX 29064 61492 31956 70808 10195 21031 30176 40196 70622 8707/ 333 0//00 20195 5//// 58014 87363
AAXX 29064 61497 34940 70816 10141 21037 39943 4//// 707// 80002 333 0//00 20141 5//// 55/// 58021 87073
AAXX 29064
AAXX 29064 61404 32960 31208 10100 20000 39837 40241 80002 333 0//00 20100 5//// 55/// 58007 83073
AAXX 29064 61437 32960 20410 10148 20052 30093 40233 80002 333 0//00 20148 5//// 55/// 58028 82073
AAXX 29064 61450 33960 30808 10118 21007 39722 40188 80002 333 0//00 20100 5//// 55/// 59009 83073
AAXX 29064 61461 32958 20804 10170 21066 30113 40201 80002 333 0//00 20170 5//// 55/// 58013 82073
AAXX 29064 61489 31956 30406 10188 21011 30175 40182 70600 83070 333 0//00 20180 50944 55/// 58004 83363
AAXX 29064 61492 31956 70808 10195 21031 30176 40196 70622 8707/ 333 0//00 20195 5//// 58014 87363
AAXX 29064 61497 34940 70816 10141 21037 39943 4//// 707// 80002 333 0//00 20141 5//// 55/// 58021 87073
AAXX 29064 62414 32960 53606 10157 20028 40192 52004 85050 333 20142
BBXX 62105 29064 99554 70121 46/// /28// 10100 20069 40158 55017 22200 00106 10915 70075 333 90710 91149
BBXX 63106 29064 99610 10017 46/// /3143 10050 49828 52045 22200
BBXX 63113 29064 99610 10017 46/// /3147 10044 20041 49856 52051 22200 11016 70080
BBXX 63110 29063 99595 10015 41/96 /3052 10048 49902 762// 8//// 22200 10417 70083
BBXX 2AUO5 29063 99606 10016 41296 83149 10100 49864 52052 76566 887// 22271 21014 331// 41220
BBXX 62303 29064 99516 70051 46/// /2629 10101 20056 40260 58026 22200 00112 10607 70035 333 90710 91141
BBXX 62103 29064 99499 70029 46/98 /2928 10097 20033 40300 57015 22200 00116 10805 70027 333 90710 91135
BBXX 62094 29064 99517 70067 46/// /2629 1//// 2//// 4//// 5//// 22200 00105 10607 70037 333 90710 91138
BBXX 64049 29063 99571 10022 41/97 83045 10064 20057 49962 54000 70211 8//// 22200 04090 20612 330// 40614 5//// 80061
AAXX 29064 71574 11432 82611 11010 21024 39728 49799 53005 60031 77165 885// 333 10050 21016 43018 70136 90957 93102 555 10020 20020 32721 40050
BBXX 62303 29064 99516 70051 46/// /2629 10101 20056 40260 58026 22200 00112 10607 70035 333 90710 91142
BBXX 62105 29064 99554 70121 46/// /2836 10100 20069 40158 55017 22200 00106 10915 70075 333 90710 91149
BBXX PJGO 29064 99571 10022 47/97 /2934 10062 20013 40016 52013 700// 22200
BBXX 63110 29064 99595 10015 47597 /3042 10047 20037 49905 52034 700// 22200 10916 70081
BBXX 63055 29064 99606 10016 47693 /2938 10047 20026 49863 52050 730// 22200 11016 70079
BBXX 63106 29064 99610 10017 46/// /3143 10050 49828 52045 22200
BBXX 63105 29064 99610 10017 47496 ///// 10062 20025 49829 52051 751// 22200
BBXX 62094 29064 99517 70067 46/// /2628 10098 20056 40270 57028 22200 00106 10607 70037 333 90710 91138
BBXX 62103 29064 99499 70029 46/98 /2827 10098 20036 40302 58007 22200 00117 10805 70026 333 90710 91137
AAXX 29064 87692 11960 03406 10170 20146 30129 40154 57009 69901 70260
AAXX 29064 40270 31956 01206 10138 21006 39293 40200 57020 70500
AAXX 29064 91723 NIL
AAXX 29064 91964 36/// /0611 10218 20210 40222 52016
BBXX 62105 29064 99554 70121 46/// /28// 10100 20069 40158 55017 22200 00106 10915 70075 333 90710 91149
BBXX 63106 29064 99610 10017 46/// /3143 10050 49828 52045 22200
BBXX 63113 29064 99610 10017 46/// /3147 10044 20041 49856 52051 22200 11016 70080
BBXX 63110 29063 99595 10015 41/96 /3052 10048 49902 762// 8//// 22200 10417 70083
BBXX 2AUO5 29063 99606 10016 41296 83149 10100 49864 52052 76566 887// 22271 21014 331// 41220
BBXX 62303 29064 99516 70051 46/// /2629 10101 20056 40260 58026 22200 00112 10607 70035 333 90710 91141
BBXX 62103 29064 99499 70029 46/98 /2928 10097 20033 40300 57015 22200 00116 10805 70027 333 90710 91135
BBXX 62094 29064 99517 70067 46/// /2629 1//// 2//// 4//// 5//// 22200 00105 10607 70037 333 90710 91138
BBXX 64049 29063 99571 10022 41/97 83045 10064 20057 49962 54000 70211 8//// 22200 04090 20612 330// 40614 5//// 80061
BBXX WQVY 29064 99367 70735 43/// 72625 10210 2016/ 49969 56030 7//// 87/// 22224 00150 20502 30205 40603 50402 6//// 80180 ICE /////
AAXX 29061 37061 12/// /2703 11006 21020 30123 40296 52012 60010 333 21016
AAXX 29064 71770 17/// /0303 10050 20033 39278 40038 53035 60011 7//4/ 333 10069 21001 71659 555 31720 40071
AAXX 29064 42895 32596 70202 10258 20119 40164 84530 333 58008 84620 85360
BBXX 62303 29064 99516 70051 46/// /2629 10101 20056 40260 58026 22200 00112 10607 70035 333 90710 91142
BBXX 62105 29064 99554 70121 46/// /2836 10100 20069 40158 55017 22200 00106 10915 70075 333 90710 91149
BBXX PJGO 29064 99571 10022 47/97 /2934 10062 20013 40016 52013 700// 22200
BBXX 63110 29064 99595 10015 47597 /3042 10047 20037 49905 52034 700// 22200 10916 70081
BBXX 63055 29064 99606 10016 47693 /2938 10047 20026 49863 52050 730// 22200 11016 70079
BBXX 63106 29064 99610 10017 46/// /3143 10050 49828 52045 22200
BBXX 63105 29064 99610 10017 47496 ///// 10062 20025 49829 52051 751// 22200
BBXX 62094 29064 99517 70067 46/// /2628 10098 20056 40270 57028 22200 00106 10607 70037 333 90710 91138
BBXX 62103 29064 99499 70029 46/98 /2827 10098 20036 40302 58007 22200 00117 10805 70026 333 90710 91137
AAXX 29064 71268 43/// ///// 333 11140 21225 70000 555 10000 20000
AAXX 29064 71845 43/// ///// 333 11164 21336 44020 70004 90999 555 10008 20004
AAXX 29064 71845 43/// ///// 333 11164 21336 44020 70004 90999 555 10008 20004
AAXX 29061 14015 11215 80401 11006 21009 39881 40254 55003 60002 71042 886// 333 21007 31101 55000 70000 88705 555 20017 30023
BBXX A8CH9 29063 99125 30769 41497 41205 10305 20265 40080 54000 70100 82141 22254 04300 21003 80275
BBXX DEFY 29063 99156 70692 41598 40927 10262 20227 40154 55001 76488 22272 02260 80237
AAXX 29061 26518 11223 82306 10033 20033 40064 57020 69942 78085 889// 333 21001 32/// 88904 91011 91111 555 53017 7994/
BBXX A8CH9 29063 99125 30769 41497 41205 10305 20265 40080 54000 70100 82141 22254 04300 21003 80275
BBXX 62105 29064 99554 70121 46/// /28// 10100 20069 40158 55017 22200 00106 10915 70075 333 90710 91149
BBXX 63106 29064 99610 10017 46/// /3143 10050 49828 52045 22200
BBXX 63113 29064 99610 10017 46/// /3147 10044 20041 49856 52051 22200 11016 70080
BBXX 63110 29063 99595 10015 41/96 /3052 10048 49902 762// 8//// 22200 10417 70083
BBXX 2AUO5 29063 99606 10016 41296 83149 10100 49864 52052 76566 887// 22271 21014 331// 41220
BBXX 62303 29064 99516 70051 46/// /2629 10101 20056 40260 58026 22200 00112 10607 70035 333 90710 91141
BBXX 62103 29064 99499 70029 46/98 /2928 10097 20033 40300 57015 22200 00116 10805 70027 333 90710 91135
BBXX 62094 29064 99517 70067 46/// /2629 1//// 2//// 4//// 5//// 22200 00105 10607 70037 333 90710 91138
BBXX 64049 29063 99571 10022 41/97 83045 10064 20057 49962 54000 70211 8//// 22200 04090 20612 330// 40614 5//// 80061
BBXX DEFY 29063 99156 70692 41598 40927 10262 20227 40154 55001 76488 22272 02260 80237
BBXX A8CH9 29063 99125 30769 41497 41205 10305 20265 40080 54000 70100 82141 22254 04300 21003 80275
AAXX 29061 10035 01456 82610 10051 20036 39999 40058 53001 60052 76386 888// 333 10068 20049 32004 55000 55300 20000 30000 41182 60037 70055 83816 87643 91119 91211
AAXX 29064 64390 12560 63608 10235 20212 39245 48508 69904 82570 333 20214 59003 82830 85360 1015
BBXX 62303 29064 99516 70051 46/// /2629 10101 20056 40260 58026 22200 00112 10607 70035 333 90710 91142
BBXX 62105 29064 99554 70121 46/// /2836 10100 20069 40158 55017 22200 00106 10915 70075 333 90710 91149
BBXX PJGO 29064 99571 10022 47/97 /2934 10062 20013 40016 52013 700// 22200
BBXX 63110 29064 99595 10015 47597 /3042 10047 20037 49905 52034 700// 22200 10916 70081
BBXX 63055 29064 99606 10016 47693 /2938 10047 20026 49863 52050 730// 22200 11016 70079
BBXX 63106 29064 99610 10017 46/// /3143 10050 49828 52045 22200
BBXX 63105 29064 99610 10017 47496 ///// 10062 20025 49829 52051 751// 22200
BBXX 62094 29064 99517 70067 46/// /2628 10098 20056 40270 57028 22200 00106 10607 70037 333 90710 91138
BBXX 62103 29064 99499 70029 46/98 /2827 10098 20036 40302 58007 22200 00117 10805 70026 333 90710 91137
AAXX 29064 67161 32582 3//06 10316 20220 30086 40095 51003 83200 333 0//00 10328 20235 50244 55/// 83820
AAXX 29064 89514 32696 81122 11026 49808 52011 8702/ 333 87435
BBXX UGOD 29060 99490 11512 42597 83306 11001 40200 52009 88500 22253 00026 20201 30200 40804
BBXX UGOD 29060 99490 11512 42597 83306 11001 40200 52009 88500 22253 00026 20201 30200 40804
AAXX 29063 63671 32480 11205 10250 20193 81100 333 20181 81819
AAXX 29061 10113 01561 72713 10064 20035 30090 40109 51011 60022 72586 878// 222// 06060 333 10074 20053 31004 55000 55300 20000 30000 60017 70023 84824 86650 91124 91216 96488
AAXX 29064 03590 15981 /2518 10045 20007 30098 40210 56008 60002 90550 333 20043 3/003 55009 55300 20000 79999 83/62 90710 91134
AAXX 29064 91487 NIL
AAXX 29064 91490 NIL
AAXX 29064 91533 NIL
AAXX 29064 91601 NIL
AAXX 29064 91610 11599 20912 10282 20242 40071 53015 60001 70100 82100 333 562//
AAXX 29064 91623 NIL
AAXX 29064 91629 NIL
AAXX 29064 91701 11599 10905 10270 2025/ 60001 70200 82100 333 562// 81820
AAXX 29064 91487 NIL
AAXX 29064 91490 NIL
AAXX 29064 91533 NIL
AAXX 29064 91601 NIL
AAXX 29064 91610 11599 20912 10282 20242 40071 53015 60001 70100 82100 333 562//
AAXX 29064 91623 NIL
AAXX 29064 91629 NIL
AAXX 29064 91701 11599 10905 10270 2025/ 60001 70200 82100 333 562// 81820
BBXX VRJI2 29063 99305 70190 41698 50510 10150 2012/ 40310 54000 70222 851// 22253 04170 21002 30505 41204 51204 6//// 80130
BBXX VRJI2 29063 99305 70190 41698 50510 10150 2012/ 40310 54000 70222 851// 22253 04170 21002 30505 41204 51204 6//// 80130
BBXX SHIP 29063 99122 31230 41/97 72415 10326 20249 40069 70222 222// 0//// 20301 328// 40301 5////
BBXX SHIP 29064 99113 31306 41/97 73315 10284 20253 40039 72100 222// 0//// 20201 301// 40201 5////
BBXX SHIP 29063 99122 31230 41/97 72415 10326 20249 40069 70222 222// 0//// 20301 328// 40301 5////
BBXX SHIP 29064 99113 31306 41/97 73315 10284 20253 40039 72100 222// 0//// 20201 301// 40201 5////
BBXX SHIP 29064 99113 31306 41/97 73315 10284 20253 40039 72100 222// 0//// 20201 301// 40201 5////
BBXX SHIP 29063 99122 31230 41/97 72415 10326 20249 40069 70222 222// 0//// 20301 328// 40301 5////
AAXX 29061 10908 01/00 93008 11036 21037 38539 48532 55000 60032 74974 333 11008 21036 3/104 49073 55066 55300 20000 30000 60037 70034 89/01 91117 91214 96036 96271 96473
AAXX 29061 10224 01580 22409 10054 20028 30121 40127 56003 69922 70182 82500 333 10076 20053 31004 55000 55300 20000 30000 69927 70002 82627 91117 91212
AAXX 29064 71931 16/// /1207 10012 20007 39893 49905 56067 60001 333 7////
AAXX 29064 71931 16/// /1207 10012 20007 39893 49905 56067 60001 333 7////
BBXX A8PF6 29064 99182 70604 41797 30919 10260 20217 40180 57020 7//00 83//8 22243 0//// 20402 313// 40605 5//// 6//// 80230 ICE /////
AAXX 29064 44404 42975 00903 10149 21008 38168 48513 333 59004
AAXX 29064 44406 NIL
AAXX 29064 44409 42982 00000 10228 20160 39968 40174 333 58002
AAXX 29064 44416 21940 00000 10186 20102 39439 40238 70500 80000 333 58019
AAXX 29064 44418 42965 00907 10226 20134 30009 40203 333 58002
AAXX 29064 44424 42970 02101 10116 21067 37717 47129 333 58008
AAXX 29064 44429 42970 01701 10200 20110 39435 40217 333 58000
AAXX 29064 44434 42962 00000 10182 20086 39275 48566 333 58001
AAXX 29064 44438 41940 00000 10232 20143 30071 40200 70544 333 58006
AAXX 29064 44449 41940 00000 10232 20143 30071 40200 70544 333 58006
AAXX 29064 44454 42550 10000 10161 20069 38712 48547 71000 81100 333 59001
AAXX 29064 44462 42965 00000 10156 20050 38298 48518 333 58010
AAXX 29064 44474 NIL
AAXX 29064 44477 NIL
AAXX 29064 44478 42956 00000 10258 20134 30103 40185 333 58012
BBXX PHKM 29063 99365 70088 41597 20215 10148 20135 40312 55008 70200 824// 22263 2//// 80140
BBXX PHKM 29063 99365 70088 41597 20215 10148 20135 40312 55008 70200 824// 22263 2//// 80140
