BBXX ZMFR 29174 99413 31748 43/// /0307 10175 20161 40099 52009 22200 00182
BBXX 44172 29181 99445 70634 46/// ///// 1//// 91731 22200 00060 11208 21006 319// 41206 70041
BBXX 44097 29181 99410 70711 46/// ///// 1//// 91732 22200 00114 11104 21004 321// 41102 70021
AAXX 29184 40270 31956 01904 10097 21021 39293 40210 54002 70500 333 10145
AAXX 29184 40272 32960 00812 10090 21009 39360 40213 52011 333 10165
AAXX 29184 40255 32960 00000 10104 20010 39485 40215 53004 333 10162
BBXX 42362 29181 99278 70907 46/// /2603 10206 20083 40197 91745
BBXX 42363 29181 99282 70892 46/// /3303 10206 20117 40200 91745 333 91203
BBXX 42364 29181 99291 70881 46/// /1103 10189 20139 40193 91745
BBXX WDD2876 29184 99444 70864 41/96 81430 10000 2//// 40010 57/// 78672 8//// 22243 00050 2//02 3//// 4//// 5//// 6//// 8//// ICE /////
BBXX C6DM2 29183 99056 11001 418// 20705 10280 20224 40110 7//00 82/8/ 22231 0//// 2//// 3//// 4//// 5//// 6//// 80240 ICE /////
AAXX 29184 91334 32474 80608 10275 20222 30081 40084 56008 82171 333 56199 70003 555 92918
AAXX 29184 91334 32474 80608 10275 20222 30081 40084 56008 82171 333 56199 70003 555 92918
AAXX 29184 08495 12770 12811 10148 20087 30284 40292 53008 60002 81500 91750 333 10176 81650
BBXX 46249 29181 99338 71197 46/// ///// 1//// 91740 22200 00146 11302 20902 325// 41302 70012
BBXX 46248 29181 99461 71247 46/// ///// 1//// 91734 22200 00096 11309 21006 327// 41307 70045
BBXX 46244 29181 99409 71244 46/// ///// 1//// 91735 22200 00102 11307 21004 329// 41306 70035
AAXX 29184 68906 32698 62412 10140 20064 30156 40221 52002 82106 222// 00135 320// 40501 333 10158 20138 91021 555 91022
BBXX 46240 29181 99366 71219 46/// ///// 1//// 91742 22200 00121 11302 21001 335// 41302 70012
BBXX 46237 29181 99378 71226 46/// ///// 1//// 91740 22200 00109 11304 20902 326// 41303 70021
BBXX 46217 29181 99342 71194 46/// ///// 1//// 91742 22200 00144 11302 21002 327// 41301 70011
BBXX 46218 29181 99345 71208 46/// ///// 1//// 91732 22200 00135 11305 20703 330// 41303 70024
BBXX 46211 29181 99469 71242 46/// ///// 1//// 91736 22200 00085 11307 21005 327// 41306 70037
BBXX 44098 29181 99428 70702 46/// ///// 1//// 91737 22200 00084 10604 20603 313// 41201 70018
AAXX 29184 68392 16/// /1504 10170 20129 30204 4//// 53010 69942 333 10208 20118 91006 555 20004
AAXX 29184 81225 12670 20813 10322 20194 40124 60001 82400 333 56100 59005 82848
AAXX 29184 81200 NIL
AAXX 29184 81202 NIL
AAXX 29184 81209 NIL
AAXX 29184 81251 NIL
BBXX BAREU56 29184 99367 10122 46/// ///// 40191 57001 22282
AAXX 29184 81225 12670 20813 10322 20194 40124 60001 82400 333 56100 59005 82848
AAXX 29184 81200 NIL
AAXX 29184 81202 NIL
AAXX 29184 81209 NIL
AAXX 29184 81251 NIL
BBXX VCXF 29184 99464 70484 41197 12226 10050 2004/ 49999 52012 71000 81700 22200 02023 20403 31712 40804 50802 80046
BBXX VCXF 29184 99464 70484 41197 12226 10050 2004/ 49999 52012 71000 81700 22200 02023 20403 31712 40804 50802 80046
AAXX 29184 91408 11472 80707 10267 20258 30041 40079 57012 69951 72582 83208 333 562/9 70124 555 92918
AAXX 29184 91376 32474 80510 10279 20238 30085 40088 53005 83878 333 56119 555 92918
BBXX DBEA 29181 99540 10486 46/// /2413 10054 20036 40031 57017 22271 00058
BBXX DBJM 29181 99542 10079 46/// /2410 10066 20036 40019 57043 22271 00076
BBXX DBKV 29181 99169 70250 46/// /0507 10228 20144 40189 52003 22220 00231
BBXX DBFR 29181 99535 10086 46/// /2208 10051 20051 40045 57033 22220 00055
BBXX DBBU 29181 99544 10136 46/// /2312 10046 20034 40029 57018 22232 00052
BBXX DBBT 29181 99339 30184 46/// /9900 10231 20122 40120 57003 22220 00155
AAXX 29184 91408 11472 80707 10267 20258 30041 40079 57012 69951 72582 83208 333 562/9 70124 555 92918
AAXX 29184 91376 32474 80510 10279 20238 30085 40088 53005 83878 333 56119 555 92918
AAXX 29184 62010 11557 72512 10103 20078 40197 56002 60022 78082 87800 333 10137 83820 85630
AAXX 29184 08594 31959 80613 10235 20150 40179 70622 80002 333 10250 58012 88070
AAXX 29184 08589 31459 70519 10243 20172 40168 70622 82201 333 10263 58008 82617 87070
AAXX 29184 08583 31558 60623 10233 20136 40189 70622 82506 333 10256 58019 82622 86070
AAXX 29181 13579 32970 23401 11022 21039 39365 40233 56004 81042 333 10035 81363
AAXX 29184 61902 32582 21416 10251 20177 40140 82100 333 10286 59006 82823
AAXX 29184 89054 NIL
AAXX 29184 89056 11250 80218 10011 20004 49823 54002 69903 71085 886// 333 56899 88705
AAXX 29184 89057 11460 83104 10017 20005 49820 54002 69923 72022 886// 333 56599 88715
AAXX 29184 89058 11563 83412 10020 20002 39807 49828 57001 69901 70070 8757/
AAXX 29184 89059 12460 81903 10007 21012 49829 56001 60003 886// 333 74099 88713
AAXX 29184 89251 32465 81607 10029 20001 49813 58002 77072 8652/
BBXX BAREU63 29184 99382 10156 46/// /0211 10134 29073 40182 57002 22243
BBXX TESTFR9 29184 99508 70011 46/// /2732 10097 29078 40205 57030 22272
AAXX 29184 68994 32598 63208 10064 20028 30109 40138 57003 82570 222// 00071 333 10088 20061 91013 555 91013
BBXX 51205 29181 99210 71564 46/// ///// 1//// 91748 22200 00233 11706 21005 331// 41704 70030
BBXX 46114 29181 99364 71222 46/// ///// 1//// 91734 22200 00123 11305 20903 331// 41304 70026
BBXX 46060 29181 99606 71468 46/// /2404 11029 49888 91750 22200 00050 11101 20301 320// 41101 70006 333 91205 555 11037 22038 31651 41410 61749 241036 245042 252056 238058 195061 140071 81409 91651
BBXX 46088 29181 99483 71232 46/// /1903 10069 40169 51012 91750 22200 00077 10501 20401 325// 40501 70005 333 91203 555 11029 22030 31731 41906 61749 189029 181042 195043 210038 209024 265032
BBXX 44060 29181 99413 70721 46/// ///07 11013 40147 91745 22200 00088 333 91209 555 11077 22077
BBXX 44022 29181 99409 70737 46/// ///04 11010 21123 40158 91745 22200 00084 333 91207 555 11041 22041
BBXX 41115 29181 99184 70673 46/// ///// 1//// 91735 22200 11304 21002 301// 41304 70020
BBXX 41114 29181 99276 70802 46/// ///// 1//// 91746 22200 00236 11502 20601 307// 41501 70008
BBXX 51203 29181 99208 71570 46/// ///// 1//// 91743 22200 00245 11701 20901 329// 41701 70007
BBXX 51201 29181 99217 71581 46/// ///// 1//// 91742 22200 00240 11404 21003 332// 41403 70020
AAXX 29184 68382 16/// /1408 10186 20119 39374 48548 53007 69922 333 10241 20186 91013 555 20002 91019
AAXX 29184 68352 16/// /1109 10209 20003 39080 48529 53008 69962 333 10274 20208 91013 555 20006 91018
AAXX 29184 40340 32960 00000 10128 20018 40179 52018 333 10205
BBXX BAREU05 29184 99429 70292 46/// ///// 40312 52015 22223
BBXX BAREU08 29184 99514 10020 46/// ///// 40124 57024 22263
AAXX 29184 16597 11565 63004 10111 20090 30095 40183 52005 60012 70298 85870 333 10164 84822 83360
AAXX 29184 61901 169// /1414 10172 20150 39671 40179 55001 60002 91750 333 10207 8//99 555 7/090
AAXX 29184 91772 31398 60000 10231 20222 4//// 60001 70200 82700 333 569// 82707
AAXX 29184 91776 NIL
AAXX 29184 91779 11398 71408 10241 20231 40083 53011 60151 78088 878// 333 563// 83708 85816 87635
AAXX 29184 91784 31499 11213 10263 20225 40085 53009 60001 70200 81100 333 563// 81818
AAXX 29184 91792 31498 31404 10241 20223 40107 53017 60001 70300 83701 333 563/9 81711 83816
AAXX 29184 78846 12580 31013 10274 20/// 30142 40181 82830 333 10285 20237 58002 82820
BBXX NWS0022 29184 99416 70714 43/// /2707 10012 21141 40133 5//// 7//// 8//// 222// 04094 2//// 3//// 4//// 5//// 6//// 8//// ICE /////
BBXX WZP8164 29184 99475 70882 43/// /2607 11027 2//// 40007 5//// 7//// 8//// 22263 0//// 2//02 3//// 4//// 5//// 6//// 8//// ICE /////
BBXX WDC6698 29184 99213 71579 43/// /3306 1//// 2//// 40190 5//// 7//// 8//// 222// 04235 2//// 3//// 4//// 5//// 6//// 8//// ICE /////
BBXX WSM5364 29183 99582 71393 41/98 82720 11022 2//// 49950 53/// 783// 8//// 222// 00072 2//02 324// 4//05 5//// 6//// 8//// ICE /////
BBXX ONCE 29184 99100 11126 41798 20623 10260 2025/ 40110 58010 70110 82200 22213 00274 2//// 3//// 4//// 5//// 6//// 80250 ICE /////
BBXX ZCBZ5 29183 99060 10883 41/97 93215 10267 20179 40119 51003 70111 89//7 22224 02274 200// 322// 40304 5//// 80211
BBXX C6DM2 29183 99056 11001 418// 20705 10280 20224 40110 7//00 82/8/ 22231 0//// 2//// 3//// 4//// 5//// 6//// 80240 ICE /////
BBXX TBWUK30 29184 99030 10022 41398 81307 10234 20231 40101 54000 78186 8/720 22213 00280 20202 317// 40401 5//// 80232
BBXX DBBT 29181 99339 30184 46/// /9900 10231 20122 40120 57003 22220 00155
BBXX DBKV 29181 99169 70250 46/// /0507 10228 20144 40189 52003 22220 00231
BBXX ONDY 29184 99161 30690 41/98 31517 10250 2022/ 40130 54000 78010 8//// 22214 00280 2//// 3//// 4//// 5//// 6//// 80230 ICE /////
BBXX A8GU8 29180 99052 50309 41597 30808 10280 20221 40120 56020 70100 8114/ 22214 04260 20602 309// 41204 5//// 80240
BBXX ONAI 29184 99312 50487 41697 31409 10250 2014/ 40140 54000 703// 83100 22213 00240 2//// 3//// 4//// 5//// 6//// 80180 ICE /////
BBXX DQVK 29183 99069 70512 41698 40520 10282 20238 40130 56010 70311 84400 22274 00280 20505 3//// 4//// 5//// 80250
BBXX A8CC9 29184 99050 31174 41697 72511 10250 20222 40100 55010 763// 86444 22243 06300 20802 318// 41001 5//// 80230
BBXX LAZV5 29184 99345 70110 41798 61526 10150 2013/ 40345 54000 70322 86122 22223 00180 20403 315// 40504 5//// 6//// 80130
BBXX DBEA 29181 99540 10486 46/// /2413 10054 20036 40031 57017 22271 00058
BBXX DBBU 29181 99544 10136 46/// /2312 10046 20034 40029 57018 22232 00052
BBXX DBJM 29181 99542 10079 46/// /2410 10066 20036 40019 57043 22271 00076
BBXX DBFR 29181 99535 10086 46/// /2208 10051 20051 40045 57033 22220 00055
BBXX WDD2876 29184 99444 70864 41/96 81430 10000 2//// 40010 57/// 78672 8//// 22243 00050 2//02 3//// 4//// 5//// 6//// 8//// ICE /////
BBXX 41114 29181 99276 70802 46/// ///// 1//// 91746 22200 00236 11502 20601 307// 41501 70008
BBXX 41115 29181 99184 70673 46/// ///// 1//// 91735 22200 11304 21002 301// 41304 70020
BBXX 44022 29181 99409 70737 46/// ///04 11010 21123 40158 91745 22200 00084 333 91207 555 11041 22041
BBXX 44060 29181 99413 70721 46/// ///07 11013 40147 91745 22200 00088 333 91209 555 11077 22077
BBXX 46088 29181 99483 71232 46/// /1903 10069 40169 51012 91750 22200 00077 10501 20401 325// 40501 70005 333 91203 555 11029 22030 31731 41906 61749 189029 181042 195043 210038 209024 265032
BBXX 51205 29181 99210 71564 46/// ///// 1//// 91748 22200 00233 11706 21005 331// 41704 70030
BBXX 46060 29181 99606 71468 46/// /2404 11029 49888 91750 22200 00050 11101 20301 320// 41101 70006 333 91205 555 11037 22038 31651 41410 61749 241036 245042 252056 238058 195061 140071 81409 91651
BBXX 46114 29181 99364 71222 46/// ///// 1//// 91734 22200 00123 11305 20903 331// 41304 70026
BBXX A8UT7 29184 99405 70535 41597 72528 10175 20125 40029 53005 70200 83464 22262 20909 327// 41009 80145
BBXX OXBB2 29181 99261 70505 41598 12611 10238 20163 40241 54000 70100 8116/ 22255 00240 20401 330// 40704 80189
BBXX VCXF 29184 99464 70484 41197 12226 10050 2004/ 49999 52012 71000 81700 22200 02023 20403 31712 40804 50802 80046
BBXX WPGK 29184 99277 70775 41498 72209 10200 2019/ 40171 57023 70221 875// 22274 00239 20700 301// 40501 5//// 6//// 80194 ICE /////
BBXX 3FQS8 29184 99347 71299 41197 82916 00/// 10156 2015/ 40270 54000 70222 88443 22274 0//// 20402 329// 40503 5//// 6//// 80150 /////
BBXX 9VAW8 29184 99279 70916 41798 52309 10210 20164 40180 54000 70311 85180 22223 04245 20501 32323 40501 50501 6//// 80180 ICE /////
BBXX 44098 29181 99428 70702 46/// ///// 1//// 91737 22200 00084 10604 20603 313// 41201 70018
BBXX 46211 29181 99469 71242 46/// ///// 1//// 91736 22200 00085 11307 21005 327// 41306 70037
BBXX 46218 29181 99345 71208 46/// ///// 1//// 91732 22200 00135 11305 20703 330// 41303 70024
BBXX 46217 29181 99342 71194 46/// ///// 1//// 91742 22200 00144 11302 21002 327// 41301 70011
BBXX 46240 29181 99366 71219 46/// ///// 1//// 91742 22200 00121 11302 21001 335// 41302 70012
BBXX 46237 29181 99378 71226 46/// ///// 1//// 91740 22200 00109 11304 20902 326// 41303 70021
BBXX 46244 29181 99409 71244 46/// ///// 1//// 91735 22200 00102 11307 21004 329// 41306 70035
BBXX 46248 29181 99461 71247 46/// ///// 1//// 91734 22200 00096 11309 21006 327// 41307 70045
BBXX 46249 29181 99338 71197 46/// ///// 1//// 91740 22200 00146 11302 20902 325// 41302 70012
BBXX KGTY 29184 99519 71316 41898 81719 10033 2112/ 40050 5//// 703// 8842/ 22234 00061 20806 32225 41007 51411 6//// 81011 ICE /////
BBXX DHEB 29183 99544 71667 41/98 33012 11040 40041 52012 73870 83/// 22264 04030 2//// 3//// 4//// 5////
BBXX 42364 29181 99291 70881 46/// /1103 10189 20139 40193 91745
BBXX 42363 29181 99282 70892 46/// /3303 10206 20117 40200 91745 333 91203
BBXX 42362 29181 99278 70907 46/// /2603 10206 20083 40197 91745
AAXX 29184 78016 32764 62510 10207 20123 30196 40200 55008 83506 333 10214 20186 70023
AAXX 29184 78774 32670 50713 10322 20176 30021 40113 58019 81204 333 10324 20194 30/// 56202 58002 81835 84075
AAXX 29184 78846 12580 31013 10274 20/// 30142 40181 82830 333 10285 20237 58002 82820
AAXX 29181 76055 32980 03311 10180 21071 30169 40188 52013 91740 333 10226 20081 30/// 59041
AAXX 29181 76122 32970 01601 10142 21055 38562 40239 57002 91750 333 10148 21032 30/// 59037
AAXX 29181 76220 32958 00000 10042 21051 38188 40341 57004 91740 333 10042 21110 30/// 59017
AAXX 29181 76225 32960 00701 10156 21041 38651 40215 57010 91745 333 10156 21016 30/// 59031
AAXX 29181 76256 32980 00000 10156 20100 30164 40178 52002 91745 333 10252 20089 30/// 59024
AAXX 29181 76305 32970 00602 10224 20038 30160 40168 51001 91740 333 10226 20158 30/// 59030
AAXX 29181 76323 32970 43201 10164 21052 38308 40320 52008 80002 91740 333 10164 21035 30/// 56005 59005 84268
AAXX 29181 76342 32962 03002 10202 20002 39509 40231 57006 91750 333 10214 20072 30/// 59009
AAXX 29181 76382 32980 61102 10162 20067 38942 40231 52002 80004 91740 333 10170 20022 30/// 56005 59008 86076
AAXX 29181 76390 32975 21702 10186 21068 38250 40215 57007 80004 91735 333 10200 20005 30/// 54308 56007 59009 82070
AAXX 29181 76402 31962 01302 10230 20092 30106 40164 52003 70544 91745 333 10232 20058 30/// 59022
AAXX 29181 76423 32580 40000 10158 21056 38174 40221 58010 81254 91740 333 10167 20010 30/// 56999 59013 81830 82357 81067
AAXX 29181 76458 32970 12004 10210 20140 30149 40154 50002 80005 91738 333 10238 20092 30/// 56//8 59017 81070
AAXX 29181 76491 32960 10000 10247 20128 39813 40212 57015 80004 91750 333 10251 20050 30/// 56009 59001
AAXX 29181 76499 31860 10000 10230 20146 30172 40194 57009 70344 81030 91750 333 10231 20076 30/// 58003
AAXX 29181 76525 32980 41902 10136 21100 37488 40157 57001 80001 91740 333 10136 20081 30/// 56//5 59010 84080
AAXX 29181 76543 31975 23601 10248 20160 30179 40212 58013 70140 80005 91745 333 10248 20104 30/// 59008
AAXX 29181 76548 32975 22102 10232 20168 30196 40206 58007 80002 91740 333 10236 20140 30/// 56005 59012 82075
AAXX 29181 76556 32970 61202 10250 20129 39126 40157 51002 80006 91735 333 10258 20120 30/// 56003 59014 86070
AAXX 29181 76577 32970 12304 10196 20144 38059 40178 58004 80001 91740 333 10200 20085 30/// 56005 59013
AAXX 29181 76581 32968 31802 10208 20100 39083 40214 57015 83010 91750 333 10215 20053 30/// 56020 59005 83460
AAXX 29181 76612 32962 31001 10212 20053 38491 40185 50000 80001 91749 333 10230 20085 30/// 56006 59011 83072
AAXX 29181 76632 31965 01802 10164 20070 37650 40159 57003 70500 91740 333 10172 20080 30/// 59013 98565
AAXX 29181 76654 31956 01802 10296 20219 30158 40162 52003 70544 91800 333 10296 20224 30/// 59011
AAXX 29181 76662 32670 31801 10238 20096 38478 40174 57002 82202 91730 333 10250 20088 30076 56/0/ 59011 82833 81070
AAXX 29181 76680 31558 20501 10193 20061 37767 40106 57007 70500 82100 91755 333 10197 20090 30/// 56700 59012 82828
AAXX 29181 76683 32668 10601 10210 20092 37842 40214 56009 81100 91745 333 10218 20048 30/// 56200 59014 81840
AAXX 29181 76687 31562 70701 10178 20143 38711 40217 57003 70222 874// 91737 333 10180 20100 30/// 563// 59008 82824 85622
AAXX 29181 76692 31456 70204 10256 20192 30172 40191 58003 70544 8527/ 91745 333 10260 20191 30/// 5633/ 59034 81817 84640
AAXX 29181 76737 31480 71602 10184 20140 38803 40204 50000 70322 876// 91735 333 10191 20100 30/// 562// 59007 85713 91105 91514
AAXX 29181 76750 32560 30902 10296 20213 30159 40169 57007 83100 91750 333 10305 20188 30/// 56100 59022 83820
AAXX 29181 76762 32504 01801 10278 20230 38781 40159 58001 81200 91730 333 10280 20158 30/// 56100 59012 81830
AAXX 29181 76773 31568 32601 10234 20149 38436 40165 57014 70544 83100 91748 333 10237 20060 30/// 56900 59022 83820
AAXX 29181 76775 31570 10401 10260 20077 38535 40184 57013 70300 81100 91735 333 10284 20090 30/// 56800 59025 81824
AAXX 29181 76833 32970 03606 10298 20187 30142 40144 57013 91745 333 10298 20214 30/// 59007 92000
AAXX 29181 76840 32960 00204 10294 20176 30099 40155 52003 91745 333 10298 20197 30/// 58003
AAXX 29181 76843 32565 10801 10246 20165 39514 40162 57009 81100 91735 333 10254 20158 30/// 567// 59021 81823
AAXX 29181 76160 32962 00501 10174 21015 39921 40174 52003 91730 333 10174 20040 30/// 59034
AAXX 29181 76243 32974 01501 10184 20052 39884 40186 57017 91740 333 10236 20040 30/// 59025
AAXX 29181 76311 32980 00000 10226 20060 39873 40158 50001 91740 333 10226 20061 30/// 59017
AAXX 29181 76412 32966 02201 10190 20112 30135 40180 52015 91745 333 10200 20068 30/// 59004
AAXX 29181 76640 31358 32702 10206 20184 30207 40219 52023 70200 822/8 91740 333 10222 20152 30/// 567/9 59017 82809
AAXX 29181 76855 32980 01301 10308 20228 30086 40135 51008 91740 333 10315 20210 30/// 59002 92000
AAXX 29184 78016 32764 62510 10207 20123 30196 40200 55008 83506 333 10214 20186 70023
AAXX 29184 78774 32670 50713 10322 20176 30021 40113 58019 81204 333 10324 20194 30/// 56202 58002 81835 84075
AAXX 29184 78016 32764 62510 10207 20123 30196 40200 55008 83506 333 10214 20186 70023
AAXX 29184 78774 32670 50713 10322 20176 30021 40113 58019 81204 333 10324 20194 30/// 56202 58002 81835 84075
AAXX 29181 13586 31450 80000 11018 21038 39941 40245 55000 71022 886// 333 11007 88710
AAXX 29181 76055 32980 03311 10180 21071 30169 40188 52013 91740 333 10226 20081 30/// 59041
AAXX 29181 76122 32970 01601 10142 21055 38562 40239 57002 91750 333 10148 21032 30/// 59037
AAXX 29181 76220 32958 00000 10042 21051 38188 40341 57004 91740 333 10042 21110 30/// 59017
AAXX 29181 76225 32960 00701 10156 21041 38651 40215 57010 91745 333 10156 21016 30/// 59031
AAXX 29181 76256 32980 00000 10156 20100 30164 40178 52002 91745 333 10252 20089 30/// 59024
AAXX 29181 76305 32970 00602 10224 20038 30160 40168 51001 91740 333 10226 20158 30/// 59030
AAXX 29181 76323 32970 43201 10164 21052 38308 40320 52008 80002 91740 333 10164 21035 30/// 56005 59005 84268
AAXX 29181 76342 32962 03002 10202 20002 39509 40231 57006 91750 333 10214 20072 30/// 59009
AAXX 29181 76382 32980 61102 10162 20067 38942 40231 52002 80004 91740 333 10170 20022 30/// 56005 59008 86076
AAXX 29181 76390 32975 21702 10186 21068 38250 40215 57007 80004 91735 333 10200 20005 30/// 54308 56007 59009 82070
AAXX 29181 76402 31962 01302 10230 20092 30106 40164 52003 70544 91745 333 10232 20058 30/// 59022
AAXX 29181 76423 32580 40000 10158 21056 38174 40221 58010 81254 91740 333 10167 20010 30/// 56999 59013 81830 82357 81067
AAXX 29181 76458 32970 12004 10210 20140 30149 40154 50002 80005 91738 333 10238 20092 30/// 56//8 59017 81070
AAXX 29181 76491 32960 10000 10247 20128 39813 40212 57015 80004 91750 333 10251 20050 30/// 56009 59001
AAXX 29181 76499 31860 10000 10230 20146 30172 40194 57009 70344 81030 91750 333 10231 20076 30/// 58003
AAXX 29181 76525 32980 41902 10136 21100 37488 40157 57001 80001 91740 333 10136 20081 30/// 56//5 59010 84080
AAXX 29181 76543 31975 23601 10248 20160 30179 40212 58013 70140 80005 91745 333 10248 20104 30/// 59008
AAXX 29181 76548 32975 22102 10232 20168 30196 40206 58007 80002 91740 333 10236 20140 30/// 56005 59012 82075
AAXX 29181 76556 32970 61202 10250 20129 39126 40157 51002 80006 91735 333 10258 20120 30/// 56003 59014 86070
AAXX 29181 76577 32970 12304 10196 20144 38059 40178 58004 80001 91740 333 10200 20085 30/// 56005 59013
AAXX 29181 76581 32968 31802 10208 20100 39083 40214 57015 83010 91750 333 10215 20053 30/// 56020 59005 83460
AAXX 29181 76612 32962 31001 10212 20053 38491 40185 50000 80001 91749 333 10230 20085 30/// 56006 59011 83072
AAXX 29181 76632 31965 01802 10164 20070 37650 40159 57003 70500 91740 333 10172 20080 30/// 59013 98565
AAXX 29181 76654 31956 01802 10296 20219 30158 40162 52003 70544 91800 333 10296 20224 30/// 59011
AAXX 29181 76662 32670 31801 10238 20096 38478 40174 57002 82202 91730 333 10250 20088 30076 56/0/ 59011 82833 81070
AAXX 29181 76680 31558 20501 10193 20061 37767 40106 57007 70500 82100 91755 333 10197 20090 30/// 56700 59012 82828
AAXX 29181 76683 32668 10601 10210 20092 37842 40214 56009 81100 91745 333 10218 20048 30/// 56200 59014 81840
AAXX 29181 76687 31562 70701 10178 20143 38711 40217 57003 70222 874// 91737 333 10180 20100 30/// 563// 59008 82824 85622
AAXX 29181 76692 31456 70204 10256 20192 30172 40191 58003 70544 8527/ 91745 333 10260 20191 30/// 5633/ 59034 81817 84640
AAXX 29181 76737 31480 71602 10184 20140 38803 40204 50000 70322 876// 91735 333 10191 20100 30/// 562// 59007 85713 91105 91514
AAXX 29181 76750 32560 30902 10296 20213 30159 40169 57007 83100 91750 333 10305 20188 30/// 56100 59022 83820
AAXX 29181 76762 32504 01801 10278 20230 38781 40159 58001 81200 91730 333 10280 20158 30/// 56100 59012 81830
AAXX 29181 76773 31568 32601 10234 20149 38436 40165 57014 70544 83100 91748 333 10237 20060 30/// 56900 59022 83820
AAXX 29181 76775 31570 10401 10260 20077 38535 40184 57013 70300 81100 91735 333 10284 20090 30/// 56800 59025 81824
AAXX 29181 76833 32970 03606 10298 20187 30142 40144 57013 91745 333 10298 20214 30/// 59007 92000
AAXX 29181 76840 32960 00204 10294 20176 30099 40155 52003 91745 333 10298 20197 30/// 58003
AAXX 29181 76843 32565 10801 10246 20165 39514 40162 57009 81100 91735 333 10254 20158 30/// 567// 59021 81823
AAXX 29181 76160 32962 00501 10174 21015 39921 40174 52003 91730 333 10174 20040 30/// 59034
AAXX 29181 76243 32974 01501 10184 20052 39884 40186 57017 91740 333 10236 20040 30/// 59025
AAXX 29181 76311 32980 00000 10226 20060 39873 40158 50001 91740 333 10226 20061 30/// 59017
AAXX 29181 76412 32966 02201 10190 20112 30135 40180 52015 91745 333 10200 20068 30/// 59004
AAXX 29181 76640 31358 32702 10206 20184 30207 40219 52023 70200 822/8 91740 333 10222 20152 30/// 567/9 59017 82809
AAXX 29181 76855 32980 01301 10308 20228 30086 40135 51008 91740 333 10315 20210 30/// 59002 92000
BBXX 41012 29181 99300 70805 46/// /2603 10151 40206 58016 91750 22200 00226 11401 308// 41401 70006 333 91206 555 11033 22034 31740 42707 61749 259033 262039 265037 257039 238029 244034
BBXX 41060 29181 99148 70510 46/// ///// 1//// 91750 22200 10806 70031
BBXX 41001 29181 99347 70727 46/// ///// 10154 20035 40188 57016 91750 22200 00217 10904 70022
BBXX 41049 29181 99275 70630 46/// /1906 10234 20199 40214 56015 91750 22200 00231 10903 20502 300// 40903 70016 333 91206 555 11059 22064 31737 41907 61749 195054 195056 199053 201049 206051 206051 81906 91737
BBXX 42020 29181 99270 70967 46/// /3002 10186 20107 40183 58007 91750 22200 00191 1//00 70002 333 91203 555 11024 22025 31711 42603 61749 298022 283021 276022 267025 262026 262025
BBXX 41044 29181 99217 70587 46/// /1008 10255 20189 40216 58017 91750 22200 00261 11206 20603 300// 41205 70029 333 91209 555 11082 22087 31730 41010 61749 103077 099078 101076 099075 100076 103073 81008 91742
BBXX 41048 29181 99320 70696 46/// /2806 10196 20098 40195 56013 91750 22200 00223 10906 20501 3//// 40905 70028 333 91207 555 11055 22057 31741 42808 61749 278056 277054 285052 276054 277051 283054 82807 91730
BBXX 42065 29181 99149 70750 46/// /0607 10271 20220 91750 22200 10802 20602 3//// 40801 70012 333 91208 555 11073 22077 31731 40709 61749 064068 069077 067072 069071 071072 069071 80708 91730
BBXX 42012 29181 99301 70876 46/// /0103 10164 20122 40188 58013 91750 22200 00195 10301 20301 70003 333 91204 555 11034 22035 31656 40405 61749 016033 029031 039029 038029 039031 042038
BBXX 42001 29181 99259 70897 46/// /2704 10212 20116 40192 58013 91750 22200 00238 10501 3//// 40501 70004 333 91205 555 11043 22044 31652 42806 61749 267039 273037 278040 275041 271039 279039
BBXX 42035 29181 99292 70944 46/// /2205 10133 20131 40170 58008 91750 22200 00135 10401 20401 70004 333 91205 555 11049 22051 31650 42205 61749 222045 226043 221040 214035 213038 222040
BBXX 42058 29181 99149 70749 46/// /0910 10272 20219 40129 58021 91750 22200 00272 10805 20805 70023 333 91211 555 11103 22110 31730 40912 61749 090095 090098 091100 090095 092096 090099 80910 91734
BBXX 42060 29181 99163 70635 46/// /0806 10270 20214 40170 58020 91750 22200 00273 11403 20402 300// 41403 70016 333 91207 555 11059 22063 31741 40707 61749 078057 077054 078056 077053 076055 075053 80706 91741
BBXX 42036 29181 99285 70845 46/// /1104 10164 20082 40201 58013 91750 22200 00214 10701 326// 40701 70005 333 91205 555 11040 22041 31657 41107 61749 114038 120035 112041 107043 108044 106047
BBXX 42056 29181 99198 70849 46/// /0605 10259 20223 40173 58009 91750 22200 00272 10802 20401 304// 40802 70008 333 91206 555 11047 22049 31749 40606 61749 063045 065043 063045 056043 066044 072043 80705 91749
BBXX 42059 29181 99151 70675 46/// /1009 10274 20219 40151 58021 91750 22200 00278 10704 20704 3//// 41001 70020 333 91211 555 11098 22104 31710 41011 61749 097092 093090 093091 090095 091088 094088 80910 91709
BBXX 42019 29181 99279 70954 46/// /2904 10176 20093 40177 50000 91750 22200 10501 20401 324// 40501 70006 333 91206 555 11046 22048 31712 42806 61749 285044 283043 281044 282043 282042 282046
BBXX 44005 29181 99432 70691 46/// /2813 11011 21093 40067 58008 91750 22200 00082 10706 20705 3//// 41102 70028 333 91215 555 11134 22141 31702 42816 61749 281127 276126 281131 287126 281126 281119
BBXX 42040 29181 99292 70882 46/// /0304 10191 40183 58015 91750 22200 00224 10301 70003 333 91205 555 11044 22045 31719 40107 61749 028045 026051 021051 019049 026019 036009
BBXX 41047 29181 99275 70715 46/// /1003 10214 40199 91750 22200 00249 11005 20401 331// 41005 70024 333 91204 555 11029 22030 31714 40905 61749 098028 089023 096023 079028 083033 072030 80904 91715
BBXX 42055 29181 99222 70940 46/// /0504 10239 20186 40182 58010 91750 22200 00248 10501 20401 307// 40501 70005 333 91205 555 11046 22048 31715 40405 61749 048044 039042 041040 043043 044042 041043 80405 91704
BBXX 42003 29181 99260 70856 46/// /1205 1//// 91750 22200 10501 20501 332// 40501 70006 333 91207 555 11058 22061 31702 41108 61749 118054 124057 121060 123060 112061 112058 81107 91707
BBXX 42002 29181 99258 70937 46/// /2204 10233 20142 40183 58010 91750 22200 00242 10601 70003 333 91205 555 11042 22045 31738 42106 61749 220043 218046 228041 222041 217039 228037
AAXX 29181 76055 32980 03311 10180 21071 30169 40188 52013 91740 33310226 20081 30/// 59041
AAXX 29181 76122 32970 01601 10142 21055 38562 40239 57002 91750 33310148 21032 30/// 59037
AAXX 29181 76220 32958 00000 10042 21051 38188 40341 57004 91740 33310042 21110 30/// 59017
AAXX 29181 76225 32960 00701 10156 21041 38651 40215 57010 91745 33310156 21016 30/// 59031
AAXX 29181 76256 32980 00000 10156 20100 30164 40178 52002 91745 33310252 20089 30/// 59024
AAXX 29181 76305 32970 00602 10224 20038 30160 40168 51001 91740 33310226 20158 30/// 59030
AAXX 29181 76323 32970 43201 10164 21052 38308 40320 52008 80002 91740333 10164 21035 30/// 56005 59005 84268
AAXX 29181 76342 32962 03002 10202 20002 39509 40231 57006 91750 33310214 20072 30/// 59009
AAXX 29181 76382 32980 61102 10162 20067 38942 40231 52002 80004 91740333 10170 20022 30/// 56005 59008 86076
AAXX 29181 76390 32975 21702 10186 21068 38250 40215 57007 80004 91735333 10200 20005 30/// 54308 56007 59009 82070
AAXX 29181 76402 31962 01302 10230 20092 30106 40164 52003 70544 91745333 10232 20058 30/// 59022
AAXX 29181 76423 32580 40000 10158 21056 38174 40221 58010 81254 91740333 10167 20010 30/// 56999 59013 81830 82357 81067
AAXX 29181 76458 32970 12004 10210 20140 30149 40154 50002 80005 91738333 10238 20092 30/// 56//8 59017 81070
AAXX 29181 76491 32960 10000 10247 20128 39813 40212 57015 80004 91750333 10251 20050 30/// 56009 59001
AAXX 29181 76499 31860 10000 10230 20146 30172 40194 57009 70344 8103091750 333 10231 20076 30/// 58003
AAXX 29181 76525 32980 41902 10136 21100 37488 40157 57001 80001 91740333 10136 20081 30/// 56//5 59010 84080
AAXX 29181 76543 31975 23601 10248 20160 30179 40212 58013 70140 8000591745 333 10248 20104 30/// 59008
AAXX 29181 76548 32975 22102 10232 20168 30196 40206 58007 80002 91740333 10236 20140 30/// 56005 59012 82075
AAXX 29181 76556 32970 61202 10250 20129 39126 40157 51002 80006 91735333 10258 20120 30/// 56003 59014 86070
AAXX 29181 76577 32970 12304 10196 20144 38059 40178 58004 80001 91740333 10200 20085 30/// 56005 59013
AAXX 29181 76581 32968 31802 10208 20100 39083 40214 57015 83010 91750333 10215 20053 30/// 56020 59005 83460
AAXX 29181 76612 32962 31001 10212 20053 38491 40185 50000 80001 91749333 10230 20085 30/// 56006 59011 83072
AAXX 29181 76632 31965 01802 10164 20070 37650 40159 57003 70500 91740333 10172 20080 30/// 59013 98565
AAXX 29181 76654 31956 01802 10296 20219 30158 40162 52003 70544 91800333 10296 20224 30/// 59011
AAXX 29181 76662 32670 31801 10238 20096 38478 40174 57002 82202 91730333 10250 20088 30076 56/0/ 59011 82833 81070
AAXX 29181 76680 31558 20501 10193 20061 37767 40106 57007 70500 8210091755 333 10197 20090 30/// 56700 59012 82828
AAXX 29181 76683 32668 10601 10210 20092 37842 40214 56009 81100 91745333 10218 20048 30/// 56200 59014 81840
AAXX 29181 76687 31562 70701 10178 20143 38711 40217 57003 70222 874//91737 333 10180 20100 30/// 563// 59008 82824 85622
AAXX 29181 76692 31456 70204 10256 20192 30172 40191 58003 70544 8527/91745 333 10260 20191 30/// 5633/ 59034 81817 84640
AAXX 29181 76737 31480 71602 10184 20140 38803 40204 50000 70322 876//91735 333 10191 20100 30/// 562// 59007 85713 91105 91514
AAXX 29181 76750 32560 30902 10296 20213 30159 40169 57007 83100 91750333 10305 20188 30/// 56100 59022 83820
AAXX 29181 76762 32504 01801 10278 20230 38781 40159 58001 81200 91730333 10280 20158 30/// 56100 59012 81830
AAXX 29181 76773 31568 32601 10234 20149 38436 40165 57014 70544 8310091748 333 10237 20060 30/// 56900 59022 83820
AAXX 29181 76775 31570 10401 10260 20077 38535 40184 57013 70300 8110091735 333 10284 20090 30/// 56800 59025 81824
AAXX 29181 76833 32970 03606 10298 20187 30142 40144 57013 91745 33310298 20214 30/// 59007 92000
AAXX 29181 76840 32960 00204 10294 20176 30099 40155 52003 91745 33310298 20197 30/// 58003
AAXX 29181 76843 32565 10801 10246 20165 39514 40162 57009 81100 91735333 10254 20158 30/// 567// 59021 81823
AAXX 29181 76160 32962 00501 10174 21015 39921 40174 52003 91730 33310174 20040 30/// 59034
AAXX 29181 76243 32974 01501 10184 20052 39884 40186 57017 91740 33310236 20040 30/// 59025
AAXX 29181 76311 32980 00000 10226 20060 39873 40158 50001 91740 33310226 20061 30/// 59017
AAXX 29181 76412 32966 02201 10190 20112 30135 40180 52015 91745 33310200 20068 30/// 59004
AAXX 29181 76640 31358 32702 10206 20184 30207 40219 52023 70200 822/891740 333 10222 20152 30/// 567/9 59017 82809
AAXX 29181 76855 32980 01301 10308 20228 30086 40135 51008 91740 33310315 20210 30/// 59002 92000
BBXX 46070 29181 99551 11753 46/// /3305 11029 21060 40141 54000 91750 22200 00034 10803 20502 3//// 40803 70016 333 91207 555 11054 22056 31721 43009 61749 330053 316067 305072 309073 311071 320060 83009 91722
BBXX 46105 29181 99590 71522 46/// ///// 1//// 91750 22200 10707 70034
BBXX 46014 29181 99394 71240 46/// /2003 10117 40252 53008 91750 22200 00114 11205 20401 3//// 41205 70026 333 91204 555 11035 22039 31651 42105 61749 197032 203033 212035 213038 218041 216044
BBXX 46011 29181 99350 71210 46/// /3607 10158 40216 53009 91750 22200 00131 11504 20602 329// 41504 70020 333 91208 555 11076 22087 31651 43509 61749 003068 357066 355071 356057 355059 353072
BBXX 46047 29181 99324 71195 46/// /3204 10143 40193 51009 91750 22200 00138 11305 20401 329// 41305 70023 333 91205 555 11044 22049 31707 43006 61749 316041 312042 312044 311047 309045 304046
BBXX 46086 29181 99325 71180 46/// /3002 10117 40194 51012 91750 22200 00149 11304 20401 329// 41304 70019 333 91203 555 11017 22018 31743 43103 61749 300016 283015 295006 312003 246006 237005
BBXX 46027 29181 99419 71244 46/// /1607 10104 40203 56023 91750 22200 00095 11306 20702 329// 41305 70028 333 91209 555 11080 22088 31736 41609 61749 162074 158074 152070 148065 147063 144058
BBXX 46088 29181 99483 71232 46/// /1903 10069 40169 91750 22200 00077 10501 20401 325// 40501 70005 333 91203 555 11029 22030 31731 41906 61749 189029 181042 195043 210038 209024 265032
BBXX 46050 29181 99442 71246 46/// /1606 10096 40182 58014 91750 22200 00096 11307 20502 328// 41307 70036 333 91208 555 11062 22066 31747 41508 61749 159057 156053 154055 154056 158047 158050
BBXX 46069 29181 99337 71202 46/// /3303 10147 40191 91750 22200 00135 11305 20401 329// 41305 70026 333 91204 555 11033 22039 31701 43306 61749 329027 334034 333039 330041 323055 328050
BBXX 46013 29181 99382 71233 46/// /2803 10112 40252 53014 91750 22200 00110 11205 3//// 41205 70024 333 91203 555 11027 22030 31728 42804 61749 277026 277033 274030 270028 274025 274025
BBXX 46012 29181 99374 71229 46/// /3106 10109 40248 53011 91750 22200 00121 11205 20501 329// 41205 70026 333 91208 555 11068 22071 31735 43008 61749 309064 311064 317059 319065 313062 317065
BBXX 46087 29181 99485 71247 46/// /1005 10076 20069 40167 52010 91750 22200 00081 11307 20401 327// 41307 70036 333 91207 555 11048 22051 31740 41007 61749 096045 098045 102041 093037 084034 078031
BBXX 46029 29181 99461 71245 46/// /1606 10094 20083 40170 58008 91750 22200 00093 11208 20402 328// 41208 70039 333 91208 555 11066 22071 31725 41608 61749 163062 161063 164066 164058 163056 168062
BBXX 46028 29181 99357 71219 46/// /3207 10129 40224 53017 91750 22200 00132 11305 20603 331// 41305 70026 333 91209 555 11077 22081 31729 43210 61749 322073 322076 321077 324069 330061 331061
BBXX 46054 29181 99342 71204 46/// /3209 10152 40186 52007 91750 22200 00134 11304 20602 300// 41303 70020 333 91211 555 11097 22107 31745 43211 61749 322089 324066 329054 330038 326031 334048
BBXX 46025 29181 99337 71191 46/// /0801 10151 20124 40187 53013 91750 22200 00150 11103 20401 327// 41103 70015 333 91202 555 11012 22015 31710 41103 61749 087011 108017 112017 113018 121018 103015
BBXX 44025 29181 99402 70732 46/// /2607 10003 21059 40161 56015 91750 22200 00100 11302 20501 312// 41302 70011 333 91209 555 11073 22076 31740 42710 61749 265072 271074 259066 269066 271068 265068
BBXX 41008 29181 99314 70809 46/// /2405 10124 20040 40207 57017 91750 22200 00161 11501 300// 41501 70005 333 91206 555 11049 22050 31741 42406 61749 238046 237044 245040 252038 257038 262035
BBXX 41004 29181 99325 70791 46/// /2507 10146 20027 40062 58017 91750 22200 00201 11501 20401 3//// 41501 70006 333 91209 555 11070 22073 31748 42409 61749 243068 244065 243065 237062 235060 237058
BBXX 44009 29181 99385 70747 46/// /2603 10030 40193 58017 91750 22200 00107 11302 20401 300// 41301 70008 333 91205 555 11034 22035 31654 42806 61749 262034 280031 288029 311033 303036 289043
BBXX 44014 29181 99366 70748 46/// /2802 1//// 40188 58014 91750 22200 00213 10703 20401 303// 40703 70014 333 91205 555 11018 22018 31732 42406 61749 273017 232027 198007 106009 127014 234005
BBXX 44027 29181 99443 70673 46/// /2815 11027 21104 40017 53011 91750 22200 00077 10908 20505 3//// 40906 70041 333 91218 555 11160 22169 31721 42722 61749 280151 275151 273154 274155 274157 272149
BBXX 44065 29181 99404 70737 46/// /2405 10000 21082 40161 56019 91750 22200 00101 11402 20401 314// 41401 70008 333 91207 555 11050 22051 31707 42708 61749 241048 250047 244051 262057 276055 280059 82707 91707
BBXX 41013 29181 99334 70777 46/// /3103 10140 20049 40184 58022 91750 22200 00204 11502 314// 41502 70010 333 91204 555 11027 22027 31721 42806 61749 308026 279027 284039 296039 296039 293035
BBXX 32012 29181 99197 50856 46/// ///// 1//// 91750 22200 11303 70017
BBXX 46006 29181 99408 71375 46/// /2410 10139 40131 53005 91750 22200 00121 11509 20805 3//// 41508 70045 333 91212 555 11106 22116 31656 42413 61749 238098 235100 234100 234101 233103 236104
BBXX 46002 29181 99426 71305 46/// ///// 10129 40119 55008 91750 22200 00118 11307 70036
BBXX 46084 29181 99566 71361 46/// ///// 10022 21029 40008 53017 91750 22200 00071 11108 70042
BBXX 46075 29181 99539 71608 46/// /3309 11038 21066 40070 51019 91750 22200 00040 11204 20604 300// 41202 70022 333 91211 555 11091 22095 31741 43413 61749 330088 298086 291047 308055 319083 319095 83311 91740
BBXX 46005 29181 99461 71310 46/// ///11 10086 40058 58048 91750 22200 00098 11208 20504 3//// 41207 70039 333 91214 555 11121 22128
BBXX 46059 29181 99380 71300 46/// /2309 10147 40243 53007 91750 22200 00141 11206 20703 3//// 41206 70032 333 91211 555 11092 22099 31742 42311 61749 226084 220084 220083 218082 220082 219076
BBXX 46080 29181 99580 71500 46/// /3107 11039 21098 49926 53019 91750 22200 00048 10706 20604 3//// 40704 70028 333 91209 555 11072 22075 31720 42310 61749 306069 290068 286068 283066 280067 293058 82808 91723
AAXX 29184 81405 02560 50613 10296 20218 30118 40127 60001 85800 333 60007 59004 81823 555 60005
AAXX 29184 81405 02560 50613 10296 20218 30118 40127 60001 85800 333 60007 59004 81823 555 60005
AAXX 29184 78954 11476 71020 10283 20222 30090 40154 60031 71582 82842 333 10289 20242 58002 82816 86080 90914
AAXX 29184 67341 32580 21814 10246 20171 40145 52020 82200 333 94320
AAXX 29184 78700 32578 10404 10320 20208 30154 40159 56006 81100 333 10320 20258 30/// 56000 58011 81830
AAXX 29184 78703 31466 41110 10282 20215 30165 40167 57010 70544 82130 333 10282 20210 30/// 56200 59014 82819 83358
AAXX 29184 78704 31570 70803 10266 20224 30170 40175 56001 70544 82270 333 10290 20188 30/// 56200 59001 82825 87458
AAXX 29184 78705 31570 53605 10271 20216 30151 40169 58010 70544 83930 333 10271 20185 30/// 56620 59015 83924 85358
AAXX 29184 78706 31570 33607 10268 20231 30175 40180 55007 70544 83200 333 10268 20196 30/// 56200 58025 83826
AAXX 29184 78707 NIL
AAXX 29184 78708 31564 33608 10286 20230 30134 40164 58015 70544 83100 333 10286 20211 30/// 56800 59016 83828
AAXX 29184 78711 NIL
AAXX 29184 78714 32575 40102 10264 20195 84200 333 10264 20160 30/// 56100 84828
AAXX 29184 78717 31560 60606 10212 20149 38975 40159 57009 70544 86100 333 10212 20131 30/// 56200 59021 86825
AAXX 29184 78718 31660 13406 10270 70544 81400 333 10270 20146 30/// 56800 81840
AAXX 29184 78719 NIL
AAXX 29184 78720 31562 20610 10257 20113 39049 40125 58020 70544 82100 333 10257 20130 30/// 56100 59011 82828
AAXX 29184 78724 32578 13614 10332 20182 30068 40125 57012 81100 333 10332 20246 30/// 56100 58008 81834
AAXX 29184 89009 41556 50111 11252 36827 53011 77672 83028 333 83425 85256
AAXX 29184 78858 11479 21012 10280 20237 30119 40175 69931 72511 82801 333 10289 20227 58000 82817
AAXX 29184 78954 11476 71020 10283 20222 30090 40154 60031 71582 82842 333 10289 20242 58002 82816 86080 90914
BBXX BATFR53 29184 99185 51402 46/// /0517 10264 20207 40172 51010 22222 00272
BBXX DDYL2 29183 99234 10370 41/98 /0110 10235 20183 40155 51015 70000 8//// 22274 00250 2//// 80200
BBXX A8EH3 29183 99506 11616 41/98 70419 11015 40200 51030 70322 87/// 22264 04020 29904 399// 4//04
AAXX 29184 07019 11/97 82724 10102 69952 70262 333 10105 92447
BBXX DCPX2 29183 99049 11065 41/96 /0225 10250 20250 40075 58025 76200 8//// 22214 04250 2//// 80250
BBXX DMQN 29184 99159 70262 41597 60522 10250 20199 40189 54000 70522 8441/ 22243 04250 20905 3//// 4//// 5//// 80215
BBXX A8ME3 29180 99076 11087 41397 80213 10255 20234 40090 56010 76166 8//// 22213 04252 20604 303// 41206 5////
BBXX BAREU00 29184 99502 70059 46/// ///// 40261 57012 22263
AAXX 29181 33815 32597 81804 10046 20023 39970 40180 57004 885// 333 10051 555 80019
AAXX 29184 85406 12980 02011 10243 20140 40117 57019 60001
AAXX 29184 85418 12565 42215 10235 20128 40126 57014 60001 81510 333 56000 81630 83463
AAXX 29184 85432 12970 32522 10246 20040 37747 48399 57013 60001 80001 333 56006 83072
AAXX 29184 85442 12570 72014 10210 20135 40125 57012 60001 81504 333 56407 81625 87080
AAXX 29184 85467 12560 69905 10210 20120 40150 57017 60001 86500 333 56600 86630
AAXX 29184 85469 42570 50719 10251 20186 40194 52005 85800 333 56200 85820
AAXX 29184 85488 12462 83007 10182 20140 40147 58009 60001 885// 333 56099 84612 88620
AAXX 29184 89009 41556 50111 11252 36827 53011 77672 83028 333 83425 85256
BBXX 3FQS8 29184 99347 71299 41197 82916 00/// 10156 20150 40270 54000 70222 88443 22274 0//// 20402 329// 40503 5//// 6//// 80150 /////
BBXX 46002 29181 99426 71305 46/// ///// 10129 40119 55008 91750 22200 00118 11307 70036
BBXX 46005 29181 99461 71310 46/// ///11 10086 40058 58048 91750 22200 00098 11208 20504 3//// 41207 70039 333 91214 555 11121 22128
BBXX 46006 29181 99408 71375 46/// /2410 10139 40131 53005 91750 22200 00121 11509 20805 3//// 41508 70045 333 91212 555 11106 22116 31656 42413 61749 238098 235100 234100 234101 233103 236104
BBXX 46012 29181 99374 71229 46/// /3106 10109 40248 53011 91750 22200 00121 11205 20501 329// 41205 70026 333 91208 555 11068 22071 31735 43008 61749 309064 311064 317059 319065 313062 317065
BBXX 46013 29181 99382 71233 46/// /2803 10112 40252 53014 91750 22200 00110 11205 3//// 41205 70024 333 91203 555 11027 22030 31728 42804 61749 277026 277033 274030 270028 274025 274025
BBXX 46014 29181 99394 71240 46/// /2003 10117 40252 53008 91750 22200 00114 11205 20401 3//// 41205 70026 333 91204 555 11035 22039 31651 42105 61749 197032 203033 212035 213038 218041 216044
BBXX 46028 29181 99357 71219 46/// /3207 10129 40224 53017 91750 22200 00132 11305 20603 331// 41305 70026 333 91209 555 11077 22081 31729 43210 61749 322073 322076 321077 324069 330061 331061
BBXX 46050 29181 99442 71246 46/// /1606 10096 40182 58014 91750 22200 00096 11307 20502 328// 41307 70036 333 91208 555 11062 22066 31747 41508 61749 159057 156053 154055 154056 158047 158050
BBXX KGTY 29184 99519 71316 41898 81719 10033 21120 40050 5//// 703// 8842/ 22234 00061 20806 32225 41007 51411 6//// 81011 ICE /////
BBXX WSM5364 29183 99582 71393 41/98 82720 11022 2//// 49950 53/// 783// 8//// 222// 00072 2//02 324// 4//05 5//// 6//// 8//// ICE /////
AAXX 29184 85832 12980 09905 10251 20021 40137 56011 60001
AAXX 29184 85836 12980 02616 10261 20036 40186 56012 60001
AAXX 29184 85864 12980 32508 10245 20042 40139 56006 60001 83030 333 56060 83360
AAXX 29184 85874 12982 33017 10229 20020 39522 40115 58012 60001 80001 333 56006
AAXX 29184 85892 12980 72507 10206 20005 40105 60001 84031 333 56066 84360 87070
AAXX 29184 85934 12580 52927 10160 20021 40017 57036 60001 82101 333 56606 82820 83070
AAXX 29184 85968 12665 82805 10140 20032 49963 57035 60001 84107 333 56600 84846 88266
AAXX 29184 89056 11250 80218 10011 20004 49823 54002 69903 71085 886// 333 56899 88705
AAXX 29184 89057 11460 83104 10017 20005 49820 54002 69923 72022 886// 333 56599 88715
AAXX 29184 89058 11563 83412 10020 20002 39807 49828 57001 69901 70070 8757/
AAXX 29184 89059 12460 81903 10007 21012 49829 56001 60003 886// 333 74099 88713
AAXX 29184 89251 32465 81607 10029 20001 49813 58002 77072 8652/
AAXX 29184 85574 12960 01808 10318 20096 39566 40086 57017 60001
AAXX 29184 85585 12498 52308 10188 20133 40205 57013 60001 85500 333 56400 85617
AAXX 29184 85586 11457 52508 10184 20119 40155 57004 60001 70511 85500 333 56600 85615
AAXX 29184 85629 12970 02608 10296 20144 40106 57011 60001
AAXX 29184 85672 12970 01812 10308 20082 40123 57011 60001 333
AAXX 29184 85682 12970 02416 10245 20116 40142 57012 60001
AAXX 29184 85743 12960 12509 10260 20100 40156 57015 60001 80001 333 56006 81075
AAXX 29184 85766 12975 01706 10263 20112 40163 57013 60001
AAXX 29184 85799 12960 01411 10187 20127 40192 57002
AAXX 29184 78862 11578 31014 10275 20216 30148 40171 60001 70511 83800 333 10286 20247 59003 81822 83635
AAXX 29184 TAF TUPJ 281000Z 2812/2912 08013KT 9999 SCT022 PROB40 TEMPO 2812/2912 BKN015
AAXX 29184 TAF TKPN 281000Z 2812/2912 08013KT 9999 SCT022 PROB40 TEMPO 2812/2912 BKN015
AAXX 29184 2504/2512 06013G23KT SHRA
AAXX 29184 G28KT SHRA PROB30 TEMPO 2412/2424 07016G26KT SHRA
AAXX 29184 TAF TUPJ 232200Z 2400/2424 07016KT 9999 SCT020 SCT040 PROB40 TEMPO 2400/2412 07018G28KT SHRA TEMPO 2412/2424 07016G26KT SHRA
AAXX 29184 TAF TUPJ 041000Z 04012/0512 07008KT 9999 SCT016 BKN038 SCT270 TEMPO 0412/0512 SHRA BKN015 PROB40 TEMPO 0418/0512 5000 SHRA BKN014 BKN036 PROB30 0420/0512 4000 TSRA FEW012CB
AAXX 29184 918 4000 TSRA FEW012CB
AAXX 29184 N015 BKN036 PROB40 TEMPO 0704/0724 3000 +TSRA SCT011CB BKN012 BECMG 0712/0714 14008KT
AAXX 29184 21/2712 07017G28KT 5000 SHRA BKN015 BKN036 PROB TEMPO 2700/2712 4000 TSRA FEW013CB
AAXX 29184 PROB30 TEMPO 0800/0806 4000 TSRA FEW012CB PROB40 TEMPO 0800/0824 2000 +SHRA/TSRA SCT010CB BKN012 BKN250
AAXX 29184 78862 11578 31014 10275 20216 30148 40171 60001 70511 83800 333 10286 20247 59003 81822 83635
AAXX 29184 TAF TUPJ 281000Z 2812/2912 08013KT 9999 SCT022 PROB40 TEMPO 2812/2912 BKN015
AAXX 29184 TAF TKPN 281000Z 2812/2912 08013KT 9999 SCT022 PROB40 TEMPO 2812/2912 BKN015
AAXX 29184 2504/2512 06013G23KT SHRA
AAXX 29184 G28KT SHRA PROB30 TEMPO 2412/2424 07016G26KT SHRA
AAXX 29184 TAF TUPJ 232200Z 2400/2424 07016KT 9999 SCT020 SCT040 PROB40 TEMPO 2400/2412 07018G28KT SHRA TEMPO 2412/2424 07016G26KT SHRA
AAXX 29184 TAF TUPJ 041000Z 04012/0512 07008KT 9999 SCT016 BKN038 SCT270 TEMPO 0412/0512 SHRA BKN015 PROB40 TEMPO 0418/0512 5000 SHRA BKN014 BKN036 PROB30 0420/0512 4000 TSRA FEW012CB
AAXX 29184 918 4000 TSRA FEW012CB
AAXX 29184 N015 BKN036 PROB40 TEMPO 0704/0724 3000 +TSRA SCT011CB BKN012 BECMG 0712/0714 14008KT
AAXX 29184 21/2712 07017G28KT 5000 SHRA BKN015 BKN036 PROB TEMPO 2700/2712 4000 TSRA FEW013CB
AAXX 29184 PROB30 TEMPO 0800/0806 4000 TSRA FEW012CB PROB40 TEMPO 0800/0824 2000 +SHRA/TSRA SCT010CB BKN012 BKN250
AAXX 29184 78862 11578 31014 10275 20216 30148 40171 60001 70511 83800 333 10286 20247 59003 81822 83635
AAXX 29184 TAF TUPJ 281000Z 2812/2912 08013KT 9999 SCT022 PROB40 TEMPO 2812/2912 BKN015
AAXX 29184 TAF TKPN 281000Z 2812/2912 08013KT 9999 SCT022 PROB40 TEMPO 2812/2912 BKN015
AAXX 29184 2504/2512 06013G23KT SHRA
AAXX 29184 G28KT SHRA PROB30 TEMPO 2412/2424 07016G26KT SHRA
AAXX 29184 TAF TUPJ 232200Z 2400/2424 07016KT 9999 SCT020 SCT040 PROB40 TEMPO 2400/2412 07018G28KT SHRA TEMPO 2412/2424 07016G26KT SHRA
AAXX 29184 TAF TUPJ 041000Z 04012/0512 07008KT 9999 SCT016 BKN038 SCT270 TEMPO 0412/0512 SHRA BKN015 PROB40 TEMPO 0418/0512 5000 SHRA BKN014 BKN036 PROB30 0420/0512 4000 TSRA FEW012CB
AAXX 29184 918 4000 TSRA FEW012CB
AAXX 29184 N015 BKN036 PROB40 TEMPO 0704/0724 3000 +TSRA SCT011CB BKN012 BECMG 0712/0714 14008KT
AAXX 29184 21/2712 07017G28KT 5000 SHRA BKN015 BKN036 PROB TEMPO 2700/2712 4000 TSRA FEW013CB
AAXX 29184 PROB30 TEMPO 0800/0806 4000 TSRA FEW012CB PROB40 TEMPO 0800/0824 2000 +SHRA/TSRA SCT010CB BKN012 BKN250
AAXX 29184 78583 31570 40504 10274 20221 40166 70144 84200 333 01700 59021 84820
AAXX 29184 78384 12460 21507 10290 20229 40167 60001 82202 333 10298 20223 59007 70000 82818
AAXX 29184
AAXX 29184 85577 12960 02306 10317 20114 39520 40093 57014 60001
AAXX 29184 78384 12460 21507 10290 20229 40167 60001 82202 333 10298 20223 59007 70000 82818
AAXX 29184 78384 12460 21507 10290 20229 40167 60001 82202 333 10298 20223 59007 70000 82818
AAXX 29184
AAXX 29184 96315 31460 72203 10270 20260 40093 72992 82968 333 81814 81916 83364 85080
AAXX 29184 96323 NIL
AAXX 29184 78925 12570 50916 10290 20230 40165 56019 69941 85200 333 10298 20251 58000 85826
AAXX 29184 78925 12570 50916 10290 20230 40165 56019 69941 85200 333 10298 20251 58000 85826
BBXX 44020 29181 99414 70702 46/// /2609 1//// 40126 54000 91750 22200 00068 333 91211 555 11094 22100
BBXX 44040 29181 99410 70736 46/// /3004 11012 21118 40163 91745 22200 1//00 70001 333 91207 555 11041 22041
AAXX 29184 97180 01450 70504 10243 20243 30084 40102 58018 60021 76162 83272 333 56000 69967 83618 85460
AAXX 29184 91413 32469 60610 10274 20240 30069 40095 57012 82272 333 56199 70046 555 92918
AAXX 29184 85406 12980 02011 10243 20140 40117 57019 60001
AAXX 29184 85418 12565 42215 10235 20128 40126 57014 60001 81510 333 56000 81630 83463
AAXX 29184 85432 12970 32522 10246 20040 37747 48399 57013 60001 80001 333 56006 83072
AAXX 29184 85442 12570 72014 10210 20135 40125 57012 60001 81504 333 56407 81625 87080
AAXX 29184 85467 12560 69905 10210 20120 40150 57017 60001 86500 333 56600 86630
AAXX 29184 85469 42570 50719 10251 20186 40194 52005 85800 333 56200 85820
AAXX 29184 85488 12462 83007 10182 20140 40147 58009 60001 885// 333 56099 84612 88620
AAXX 29184 85574 12960 01808 10318 20096 39566 40086 57017 60001
AAXX 29184 85585 12498 52308 10188 20133 40205 57013 60001 85500 333 56400 85617
AAXX 29184 85586 11457 52508 10184 20119 40155 57004 60001 70511 85500 333 56600 85615
AAXX 29184 85629 12970 02608 10296 20144 40106 57011 60001
AAXX 29184 85672 12970 01812 10308 20082 40123 57011 60001 333
AAXX 29184 85682 12970 02416 10245 20116 40142 57012 60001
AAXX 29184 85743 12960 12509 10260 20100 40156 57015 60001 80001 333 56006 81075
AAXX 29184 85766 12975 01706 10263 20112 40163 57013 60001
AAXX 29184 85799 12960 01411 10187 20127 40192 57002
BBXX 41043 29181 99211 70650 46/// /1007 10253 20216 40201 58021 91750 22200 00258 11505 20502 300// 41504 70024 333 91208 555 11072 22076 31739 40808 61749 095067 095068 095067 097061 092066 089066 80907 91740
BBXX 41036 29181 99342 70770 46/// ///// 10132 20025 40185 58023 91750 22200 00176 11502 70008
BBXX 44066 29181 99396 70726 46/// /2607 10024 21025 40164 58013 91750 22200 00129 10603 20603 3//// 41202 70017 333 91210 555 11072 22074 31746 42710 61749 261069 268072 266077 265078 265076 264072
AAXX 29184 91413 32469 60610 10274 20240 30069 40095 57012 82272 333 56199 70046 555 92918
AAXX 29184 89577 46/// /0804 11336 35824 4//// 5////
AAXX 29184 89578 46/// /1011 11317 36844 4//// 5////
AAXX 29181 12772 31420 82702 10001 21009 39916 40210 55007 71022 878// 333 10019 4/000 82816 85620
AAXX 29181 12822 36/// /2302 10010 21003 30074 40222 58001 333 10019
AAXX 29181 12843 31666 82703 10028 20002 30035 40210 57006 70122 8352/ 333 10037 4/000 83640
AAXX 29181 12882 11408 81901 10016 20015 30071 40207 58008 69912 76876 8802/ 333 10033 4/000 88510
AAXX 29181 12925 16/// /2601 10001 21006 30056 40234 56001 69922 333 10001
AAXX 29181 12942 31312 82804 11006 21010 39975 40230 55004 71022 886// 333 10015 4/000 88706
AAXX 29181 12982 31550 82302 10020 20001 30108 40212 57007 71022 875// 333 10037 4/000 87630
BBXX CGDS 29184 99433 70798 46/// /0803 11008 21034 40119 58036 7//// 8//// 22200 0//// 2////
BBXX CGDS 29184 99433 70798 46/// /0803 11008 21034 40119 58036 7//// 8//// 22200 0//// 2////
AAXX 29184 85832 12980 09905 10251 20021 40137 56011 60001
AAXX 29184 85836 12980 02616 10261 20036 40186 56012 60001
AAXX 29184 85864 12980 32508 10245 20042 40139 56006 60001 83030 333 56060 83360
AAXX 29184 85874 12982 33017 10229 20020 39522 40115 58012 60001 80001 333 56006
AAXX 29184 85892 12980 72507 10206 20005 40105 60001 84031 333 56066 84360 87070
AAXX 29184 85934 12580 52927 10160 20021 40017 57036 60001 82101 333 56606 82820 83070
AAXX 29184 85968 12665 82805 10140 20032 49963 57035 60001 84107 333 56600 84846 88266
AAXX 29184 89056 11250 80218 10011 20004 49823 54002 69903 71085 886// 333 56899 88705
AAXX 29184 89057 11460 83104 10017 20005 49820 54002 69923 72022 886// 333 56599 88715
AAXX 29184 89058 11563 83412 10020 20002 39807 49828 57001 69901 70070 8757/
AAXX 29184 89059 12460 81903 10007 21012 49829 56001 60003 886// 333 74099 88713
AAXX 29184 89251 32465 81607 10029 20001 49813 58002 77072 8652/
AAXX 29184 85577 12960 02306 10317 20114 39520 40093 57014 60001
AAXX 29181 01001 NIL
AAXX 29181 01008 11485 71106 11161 21196 30016 40052 53014 60002 70272 875// 333 11141 91108
AAXX 29181 01010 11582 71109 11003 21058 39857 49873 52011 69902 70222 84578 333 10006 91114
AAXX 29181 01026 11689 80903 11022 21077 39752 49894 52009 60002 70222 8355/ 333 11010 4/027 91110
AAXX 29181 01055 46/// /0911 11011 21035 39920 49938 53002 333 11009 91116
AAXX 29181 01062 NIL
AAXX 29181 01098 11470 80205 11015 21077 39923 49941 53005 60012 70273 8555/ 333 11007 91112
AAXX 29181 01115 16/// /2102 11007 21018 39825 49845 52020 6//// 333 10017 91105
AAXX 29181 01152 11786 81106 10000 21057 39835 49850 52015 69902 70222 83872 333 10002 91111
AAXX 29181 01205 NIL
AAXX 29181 01212 NIL
AAXX 29181 01271 16/// /2805 10005 21011 39836 49857 53021 60032 333 10011 91110
AAXX 29181 01288 11660 63304 11021 21043 39113 49853 53021 60022 70172 85531 333 11004 91109
AAXX 29181 01300 NIL
AAXX 29181 01317 11350 83206 10040 20020 39863 49878 53017 60152 76086 8572/ 333 10054 91119
AAXX 29181 01367 NIL
AAXX 29181 01384 11989 41701 11003 21019 39600 49846 51021 69922 70122 84070 333 10032 91108
AAXX 29181 01403 11570 72915 10035 20015 39842 49910 53001 6//// 72582 879// 333 10054 91128
AAXX 29181 01415 16/// /2810 10056 21009 39909 49920 58001 6//// 333 10064 91123
AAXX 29181 01482 46/// /2710 10068 20009 39845 49852 53018 333 10076 91116
AAXX 29181 01492 NIL
AAXX 29181 01003 NIL
AAXX 29181 01007 11989 01303 11179 21257 30049 40059 52009 60002 70270 333 11174 91105
AAXX 29181 01028 NIL
AAXX 29181 01047 31688 83601 11096 21117 39535 49908 52003 70222 885// 333 11060
AAXX 29181 01049 NIL
AAXX 29181 01078 11365 80707 11016 21067 39936 49949 53005 69992 78582 86360 333 11007 91113
AAXX 29181 01102 46/// /3507 10020 21014 39821 49840 52021 333 10028 91110
AAXX 29181 01160 NIL
AAXX 29181 01218 NIL
AAXX 29181 01238 46/// /2202 11051 21061 38732 49848 53022 333 11028 91105
AAXX 29181 01241 11486 63405 10027 21004 39850 49861 53025 60022 72682 85872 333 10036 91115
AAXX 29181 01281 NIL
AAXX 29181 01338 16/// /3002 10036 20024 39799 49864 53018 60002 333 10040 91105
AAXX 29181 01359 NIL
AAXX 29181 01397 16/// /3003 11008 21023 39405 49836 53021 60032 333 10006 91109
AAXX 29181 01400 NIL
AAXX 29181 01427 16/// /3015 10059 21024 39904 49920 58003 60032 333 10063 91129
AAXX 29181 01447 NIL
AAXX 29181 01448 46/// /2910 10045 21023 39898 49908 50003 333 10058 91122
BBXX BATFR45 29184 99190 10614 46/// ///// 10240 20180 40176 58003 22244 00267
BBXX BATFR52 29184 99508 70011 46/// /2624 10100 20054 40184 58027 22282 00085
BBXX BATEU05 29184 99578 10079 46/// /2831 10059 49895 51015 22262
BBXX BATFR28 29184 99059 10816 46/// /2416 10274 20219 40096 50003 22262 00279
BBXX BATEU07 29184 99090 10903 46/// /1005 10274 40129 51004 22262
BBXX BATFR54 29184 99473 70040 44/97 32926 10107 20050 40336 55003 702// 8//// 22232 00125 20802 313// 41002 5////
BBXX BATFR20 29184 99414 10094 46/// ///// 10122 20080 40175 22244
BBXX BATFR14 29184 99495 10002 46/// /2720 10094 20074 40229 56017 22200 00102
BBXX BATEU08 29184 99589 70301 46/// /1618 10022 21002 40081 58040 22223
BBXX A8IO2 29184 99250 70360 41598 60710 10250 20196 40255 56030 70122 84466 22254 04230 20504 309// 41004 5//// 80215
BBXX BATFR09 29184 99373 10019 44498 63114 10144 20060 40285 51018 70222 86800 22263 00170 20202 305// 40506 5//// 60//0 ICE 0/0//
BBXX BATFR60 29184 99496 70038 46/// /2542 10112 20070 40256 51016 22252 00112
BBXX BATFR56 29184 99057 10971 46/// /1216 10275 20274 40112 52004 22223 00292
BBXX BATEU09 29184 99411 10088 46/// /2807 10132 20077 40171 52004 22262 00160
BBXX BATFR19 29184 99067 30055 46/// /1816 10234 20187 40122 52005 22200 00255
BBXX BATFR55 29184 99185 30559 44/97 00912 10272 20239 40129 70000 22232 00279 20804 30909 41204 51204
BBXX PCEO 29183 99339 70343 41498 52404 10204 20170 40323 53002 7//// 82142 22253 04193 20601 328// 41003 5//// 80182
BBXX FVNM 29184 99094 70799 46/// /3515 10279 20242 40121 58014 22200 00290
BBXX BATEU01 29184 99522 10030 44796 72735 10085 20054 40080 56002 72022 8661/ 22253 00099 21006 327// 41006 5////
BBXX BATFR02 29184 99497 70004 46/// /2746 10104 20075 40223 22283 00114
BBXX BATFR46 29184 99433 10052 46/// /3341 10097 20005 40228 58017 22281 00142
AAXX 29184 78897 11581 51014 10287 20220 40170 56019 69901 70386 85800 333 022// 10295 20210 58003 70022 85832
BBXX PHQX 29183 99246 70473 41698 50506 10265 20184 40260 70211 85261 22254 20806 331// 40806 5//// 80210
BBXX BATFR04 29184 99594 70093 46/// /3142 10039 20002 4//// 22261 00102
AAXX 29181 10004 NIL
AAXX 29181 10015 01560 72509 10071 20042 30009 40019 58032 60102 72522 879// 222// 02065 333 10075 20043 31004 55300 20000 30000 60037 83823 82923 85656 91123 91217 96481 96463
AAXX 29181 10020 07576 42404 10047 20032 39969 40001 58023 69982 70065 333 10064 20035 3/002 55300 20000 30000 69907 81/25 83/46 91120 91215
AAXX 29181 10035 01480 32305 10035 20027 39960 40019 58022 60042 70186 81501 333 10057 20031 32003 55300 20000 30000 40905 69917 81613 83070 91120 91211
AAXX 29181 10055 01482 52410 10044 20032 30013 40023 57020 60042 70186 85800 333 10061 20033 32003 55300 20000 30000 60037 81812 85658 91122 91217
AAXX 29181 10147 01462 82309 10048 20032 30030 40048 58023 60012 78082 872// 333 10069 20044 32003 55300 20000 30000 41196 69947 87812 91116 91211
AAXX 29181 10162 07465 82409 10044 20026 39966 40049 58025 69982 72487 333 10060 20042 3/003 55300 20000 30000 69927 87/15 88/21 88/31 91119 91212
AAXX 29181 10184 01580 72108 10056 20014 30029 40037 58029 69922 72581 8523/ 333 10067 20044 31003 55300 20000 30000 69927 85833 85359 91114
AAXX 29181 10200 01380 82306 10056 20039 30045 40043 58039 60022 76086 877// 333 10068 20054 32005 55300 20000 30000 60017 87708 91115
AAXX 29181 10224 01466 82308 10050 20035 30059 40065 57036 69942 72582 878// 333 10068 20047 31004 55300 20000 30000 69917 85811 87618 91115
AAXX 29181 10270 NIL
AAXX 29181 10338 01480 72207 10049 20023 30017 40090 58029 60022 72162 875// 333 10065 20026 31002 55300 20000 30000 69907 87617 91114 96260 96461
AAXX 29181 10361 NIL
AAXX 29181 10393 11784 72308 10050 20001 39987 40115 58017 69992 70381 8454/ 333 10067 20039 31001 55300 20000 30000 84650 85460 91116 91211 96488
AAXX 29181 10400 01375 72208 10062 20046 30077 40127 58035 60022 78086 878// 333 10062 20043 32003 55300 20000 30000 69947 81808 84812 85618 91114 91211 96480 96463
AAXX 29181 10438 07480 81804 10029 20013 39856 40141 57021 69922 72365 333 10051 20029 3/002 55300 69927 87/16 88/21 91115
AAXX 29181 10469 12584 72108 10050 21017 39968 40135 58024 60002 875// 333 10073 20042 31003 55300 84630 87644 91116 91212
AAXX 29181 10488 12781 62206 10038 21018 39869 40155 58015 60002 84501 333 10062 20037 31002 55300 20000 30000 40928 84650 83078 91113
AAXX 29181 10506 01268 82507 10024 20014 39579 40171 58022 60022 75176 885// 333 10035 20015 31001 55300 20000 30000 60017 85705 87615 96469
AAXX 29181 10548 01565 72207 10015 21006 39615 40167 57028 69902 77182 875// 333 10034 20015 31001 55300 20000 30000 69907 87630
AAXX 29181 10637 01480 72207 10050 20020 30046 40186 58020 69962 76062 875// 333 10068 20048 31004 55300 69967 87619 91114 91211 96463
AAXX 29181 10685 01318 82207 10002 21011 39488 40178 58014 69912 77187 888// 333 10031 20002 31100 55300 20000 30000 69917 83807 87628 91117 96485
AAXX 29181 10738 12684 62106 10042 21020 39749 40227 58017 69902 8457/ 333 10054 20024 31000 55300 84643 86362
AAXX 29181 10763 01470 82306 10037 21008 39814 40204 58019 69922 76081 878// 333 10048 20025 31001 55300 20000 30000 69907 82810 83620 86640 91113
AAXX 29181 10788 17883 12105 10029 21011 39783 40225 58010 69902 70065 333 10044 20006 3/000 55300 20000 30000 81/56
AAXX 29181 10852 12686 72306 10029 21010 39660 40242 58006 69902 8553/ 333 10040 20025 31001 55300 20000 30000 81640 85650
AAXX 29181 10946 07582 52005 10010 21031 39411 40266 58005 69972 70076 333 10034 20007 3/101 55300 20000 30000 69907 82/29 85/59
BBXX PHCQ 29183 99299 70902 41/// /1803 40175 58020 7//// 8//// 22200 20000 3//// 4//// 5////
AAXX 29184 78897 11581 51014 10287 20220 40170 56019 69901 70386 85800 333 022// 10295 20210 58003 70022 85832
AAXX 29184 48698 01464 73305 10248 20230 30095 40114 60001 70522 85842 333 60007 81818 85658
AAXX 29181 10007 NIL
AAXX 29181 10044 NIL
AAXX 29181 10046 11457 82306 10039 20024 39986 40025 57021 60122 76086 877// 333 10064 20020 32001 87710 91119 91212
AAXX 29181 10091 07239 72613 10006 20006 39973 40025 56011 60052 76887 333 10060 20006 3/000 55300 20000 30000 60057 87/05 87/10 91122 91218 90360 91218
AAXX 29181 10113 01564 82308 10063 20047 30010 40029 58040 60082 72182 888// 333 10071 20045 32003 55300 20000 30000 60057 83820 87630 91119 91212 96488
AAXX 29181 10124 NIL
AAXX 29181 10131 07479 72307 10050 20033 30019 40034 56031 60042 75186 333 10068 20038 3/002 55300 20000 30000 60017 81/17 87/38 87/46 91117 91211
AAXX 29181 10170 01462 82308 10045 20028 30021 40037 56023 60012 76086 885// 333 10069 20044 32004 55300 20000 30000 60017 88615 91116
AAXX 29181 10264 06570 72205 10049 20013 39957 40064 56023 60022 333 10062 20038 3/003 55300 20000 30000 69907 87/24 87/28 91114
AAXX 29181 10291 01782 62207 10053 21003 30015 40083 58025 69942 70282 83504 333 10067 20035 31003 55300 20000 30000 69907 83650 83076 91118 91212
AAXX 29181 10315 01458 82207 10060 20042 30031 40095 58040 60012 76162 875// 333 10062 20042 32004 55300 20000 30000 69997 87616 91114
AAXX 29181 10379 11782 72106 10050 20001 39982 40104 58020 69922 70381 875// 333 10063 20041 31002 55300 20000 30000 41089 87656 91115
AAXX 29181 10382 12781 82207 10061 21008 30056 40101 58020 69902 8355/ 333 10073 20054 31004 55300 20000 30000 83656 87360 91118 91212
AAXX 29181 10384 16/// /2205 10057 20002 30044 40104 58019 69912 333 10072 20046 3/002 55300 20000 30000 91113
AAXX 29181 10427 01/03 92409 11012 21012 39110 48408 58025 60042 77387 333 11007 21014 3/102 48021 55300 20000 30000 60037 91119 91212 96041 96487 96485 96473 96441
AAXX 29181 10430 07476 82106 10041 20022 39920 40114 58031 69952 75165 333 10055 20032 3/003 55300 20000 30000 69957 87/13 88/18 88/22 91115
AAXX 29181 10439 11470 72107 10034 20014 39923 40146 58023 69922 78082 878// 333 10058 20030 31002 82813 85818
AAXX 29181 10453 11/90 92321 11037 21037 38747 48378 56017 60052 78687 333 11029 21038 3/104 49093 55300 91130 91224 96049 96038 96477 96471
AAXX 29181 10496 12684 42306 10050 21006 30044 40130 58016 60002 82510 333 10074 20048 31003 55300 20000 30000 82640 84462 91114
AAXX 29181 10499 12782 82307 10044 21018 39854 40148 58013 69902 875// 333 10061 20043 31003 55300 20000 30000 87656 91115
AAXX 29181 10505 01362 82310 10054 20040 39863 40147 58033 60032 76362 8372/ 333 10056 20035 31003 55300 20000 30000 60017 83809 88550 91117 91211
AAXX 29181 10513 01482 82205 10054 20025 30032 40155 58030 69952 72162 878// 333 10069 20046 31003 55300 20000 30000 69917 81817 87622 91113 96260 96463
AAXX 29181 10532 07358 82207 10035 20025 39909 40161 58018 60012 72365 333 10060 20031 3/002 55300 20000 30000 60017 86/09 87/13 88/50 91117 91211
AAXX 29181 10544 01/01 92211 11016 21016 39061 48431 58022 69962 77174 333 11011 21020 3/102 42007 55300 69937 96049 96047 96036 96273
AAXX 29181 10554 01582 82310 10033 21010 39752 40145 56026 69902 70362 8457/ 333 10052 20032 31002 55300 20000 30000 69907 84633 87463 91116 91211
AAXX 29181 10567 01580 82208 10030 21011 39772 40154 58023 69902 76022 8357/ 333 10052 20024 31001 55300 20000 30000 69907 83620 87462 91114
AAXX 29181 10578 11081 72416 11042 21042 38737 48431 57020 69942 73674 875// 333 11021 21044 3/105 48055 55300 20000 30000 87600 91124 90210 91218 91218 96477 96471 96441
AAXX 29181 10609 01459 82308 10042 20031 39863 40198 57016 60022 76166 8552/ 333 10047 20036 32003 55300 20000 30000 60027 85611 88516 91114
AAXX 29181 10616 01259 82507 10025 20016 39574 40184 58020 69992 76876 878// 333 10029 20020 32001 55300 69997 83805 86807 87612 96469
AAXX 29181 10641 07577 82106 10046 20022 30035 40184 56020 60012 72365 333 10066 20040 3/003 55300 60017 86/21 88/25 91115
AAXX 29181 10655 01470 82511 10035 20015 39853 40187 58025 69922 76186 8581/ 333 10057 20034 31002 55300 20000 30000 69927 82810 85630 88459 91117 91211
AAXX 29181 10675 07478 72205 10036 20003 39898 40195 58020 69902 76165 333 10053 20034 3/000 55300 20000 30000 69907 84/10 87/24 87/56
AAXX 29181 10688 07579 72004 10017 21003 39670 40205 58012 69932 70076 333 10032 20013 3/000 55300 20000 30000 69907 85/24 87/42 87/50
AAXX 29181 10708 01465 82208 10039 20020 39825 40218 57019 69962 76086 875// 333 10041 20033 32003 55300 20000 30000 69947 82710 87614 91115
AAXX 29181 10729 07582 82007 10052 20021 30091 40215 56021 69902 72365 333 10069 20051 3/003 55300 20000 30000 69907 85/20 87/26 88/32 91113
AAXX 29181 10731 01375 82309 10056 20012 30075 40221 56018 69912 76181 8782/ 333 10065 20047 31003 55300 20000 30000 69917 83809 86640 91115
AAXX 29181 10742 07573 72406 10047 21002 39874 40211 58021 69912 75765 333 10054 20033 3/002 55300 20000 30000 69907 87/31 91116
AAXX 29181 10776 11784 52305 10030 21013 39764 40218 58012 69902 70162 85500 333 10044 20022 31000 55300 20000 30000 85656
AAXX 29181 10791 01/90 92316 11052 21052 38520 48464 56016 69932 74987 333 11032 21056 49094 55300 69917 91122 91216 96271 96487 96477 96449
AAXX 29181 10805 11676 72109 10053 20009 30056 40251 58012 69902 70182 8255/ 333 10074 20036 31003 55300 20000 30000 81641 86358
AAXX 29181 10815 07/25 /2507 11005 21009 39275 48493 58015 69942 77287 333 10008 21005 3/101 4/003 55300 20000 30000 69937 91113
AAXX 29181 10836 01482 82411 10012 21029 39340 40230 58012 69902 77122 888// 333 10018 20006 31000 4/998 55300 20000 30000 69907 84812 88615 91117 91213
AAXX 29181 10870 12782 72408 10025 21018 39693 40240 58006 69902 875// 333 10046 20025 31001 55300 81650 86657 91114
AAXX 29181 10895 01675 82408 10029 21025 39646 40228 58011 69922 70272 875// 333 10034 20001 31000 55300 20000 30000 69907 82646 87650 96478
AAXX 29181 10908 01/01 92313 11052 21054 38514 48509 58009 69902 77144 333 11036 21056 3/106 49073 55300 20000 30000 69907 89/01 91119 91215 96049 96036 96441
AAXX 29181 10929 11684 52405 10032 21015 39724 40269 57007 69922 70382 83530 333 10053 20025 31001 55300 20000 30000 82640
AAXX 29181 10948 07687 81703 10001 21020 39305 48526 55003 60022 72287 333 10022 21009 3/102 4/025 55300 20000 30000 69907 84/49 88/56
AAXX 29181 10961 NIL
AAXX 29181 10962 11682 52310 11014 21041 39072 48501 58010 69972 70187 83531 333 10007 21015 3/103 42003 55300 20000 30000 83635 85075 91117 91211
AAXX 29181 10980 11/01 92417 11082 21082 38148 48505 56006 60072 74974 333 11040 21082 3/109 44080 55300 20000 30000 91125 90206 91218 91219 96471 96449
AAXX 29184 48698 01464 73305 10248 20230 30095 40114 60001 70522 85842 333 60007 81818 85658
AAXX 29184 40296 32960 00000 10125 20068 40191 57007 333 10204
AAXX 29181 11816 12762 72904 10047 21001 30049 40215 56002 60002 84540 333 10047 84650 86364
AAXX 29181 11826 11220 82002 10014 20004 30010 40215 52002 69902 71022 886// 333 10019 88704
AAXX 29181 11903 11550 73201 10004 20004 39815 40206 53004 69902 71022 87500 333 10019 87632
AAXX 29181 11934 12475 72804 10005 21017 39349 42782 55003 60002 875// 333 10013 87615
AAXX 29181 11968 12465 82001 10006 21007 39911 40200 57008 69912 886// 333 10018 84710 88718
AAXX 29184 07005 04/68 /2617 10093 20066 30101 40191 56019 60032 700// 333 10094 20063 60017 90710 91134 555 60005
AAXX 29184 07015 01582 72718 10086 20057 30106 40163 58026 60052 70186 878// 333 10088 20036 60007 83820 87656 90710 91127 93100 555 60005
AAXX 29184 07020 01658 82827 10113 20076 30221 40248 56011 69902 76086 887// 333 10113 20095 69907 85833 83740 91038 90710 91140 555 69905
AAXX 29184 07027 01568 82520 10087 20068 30164 40246 56018 69942 76086 878// 333 10093 20036 69927 85821 85650 91032 90710 91132 93100 555 69925
AAXX 29184 07037 04469 82715 10076 20064 30040 40226 56018 60032 700// 333 10087 20026 60027 90710 91126 555 60025
AAXX 29184 07070 04567 82416 10063 20038 30102 40214 58022 69902 760// 333 10076 20026 69907 90710 91125 555 69905
AAXX 29184 07110 01575 82813 10094 20050 30192 40309 57008 69902 70186 878// 333 10103 20054 69907 83827 86643 90710 91127 93100 555 69905
AAXX 29184 07117 01560 82721 10101 20061 30215 40286 56012 69982 70282 888// 333 10105 20077 60007 91038 90710 91138 92447 555 60005
AAXX 29184 07130 04585 72307 10070 20043 30245 40299 56008 60002 700// 333 10097 20019 60007 90710 91110 555 60005
AAXX 29184 07139 06/// /2513 10068 20036 30092 40270 58011 69922 333 10075 20001 60007 90710 91121 555 60005
AAXX 29184 07149 02675 72412 10065 20035 30130 40241 57024 60002 8553/ 333 10081 20033 60007 85640 87360 90710 91120 93100 555 60005
AAXX 29184 07168 04/67 /2316 10060 20032 30110 40256 58016 69902 761// 333 10073 20026 69907 90710 91128 555 69905
AAXX 29184 07181 04481 82318 10037 20021 39824 40246 58014 69902 760// 333 10049 20030 69907 90710 91126 555 69905
AAXX 29184 07190 04683 82114 10057 20005 30054 40241 58015 69902 700// 333 10076 20018 60007 90710 91125 555 60005
AAXX 29184 07207 01558 83019 10103 20063 69942 76186 88700 222// 327// 333 10109 20090 69927 91036 90710 91137 92436 555 69905
AAXX 29184 07222 02570 72809 10077 20045 30285 40317 55007 60002 83831 333 10100 20025 60007 81825 83650 86075 90710 91117 555 60005
AAXX 29184 07240 02680 52209 10059 20031 30156 40296 56012 60002 82502 333 10073 20014 60007 82646 85075 90710 91114 93100 555 60005
AAXX 29184 07255 04570 82510 10065 20035 30097 40303 56005 60002 700// 333 10068 20009 60007 90710 91116 555 60005
AAXX 29184 07280 04682 82107 10040 20014 30008 40290 58006 60002 700// 333 10068 21002 60007 90710 91114 555 60005
AAXX 29184 07299 02580 72310 10047 20003 39939 40276 58004 69902 8683/ 333 10064 20033 60007 81828 86650 87360 90710 91117 93100 555 60005
AAXX 29184 07314 02968 63016 10105 20063 30308 40336 56005 69922 86070 333 10108 20092 69927 86358 90710 91126 555 60005
AAXX 29184 07335 04781 /2408 10045 20033 30173 40324 56005 60002 700// 333 10087 21002 60007 90710 91110 555 60005
AAXX 29184 07434 04465 72405 10039 20026 39835 40332 58001 69902 700// 333 10056 20003 69907 90710 91110 555 69905
AAXX 29184 07460 02770 62502 10050 21004 39918 40320 55001 60002 85501 333 10082 20018 60007 85650 83075 90710 91110 93100 555 60005
AAXX 29184 07471 04970 /3308 10001 21024 39315 48889 55000 60002 700// 333 10031 21004 60007 90710 91112 555 60005
AAXX 29184 07481 02970 00206 10015 21007 30017 40319 55001 60002 333 10064 20015 60007 90710 91109 93100 555 60005
AAXX 29184 07510 01565 72006 10070 20061 30281 40349 56005 69982 72161 86802 333 10095 20006 69947 81826 84833 85073 90710 91108 93100 555 69905
AAXX 29184 07535 06/// /2603 10046 20023 30024 40349 53002 60002 333 10063 20025 60007 90710 91106 555 60005
AAXX 29184 07558 06/// /3217 10011 21011 39451 40322 53003 60002 333 10037 20008 60007 91028 90710 91130 555 60005
AAXX 29184 07577 04/70 /0311 10061 20004 30205 40297 53010 60002 700// 333 10092 20061 60007 90710 91127 555 60005
AAXX 29184 07591 04/// /2502 10009 21060 39203 4//// 51020 60002 700// 333 10096 21025 60007 90710 91108 555 60005
AAXX 29184 07607 04647 82705 10073 20053 30293 40367 53004 6///2 710// 333 10100 20006 69907 90710 91108 555 69905
AAXX 29184 07621 02670 73205 10058 20015 39916 40365 55007 60002 878// 333 10091 20024 60007 83840 87650 90710 91107 93100 555 60005
AAXX 29184 07627 06/// /3302 10032 21025 39856 40366 53001 60002 333 10087 20028 60007 90710 91106 555 60005
AAXX 29184 07630 02681 52809 10055 20018 30167 40355 55001 60002 83502 333 10088 20042 60007 82636 83075 90710 91111 93100 555 60005
AAXX 29184 07643 02788 43107 10072 21037 30282 40292 51015 60002 81501 333 10126 20069 60007 81650 83076 90710 91113 555 60005
AAXX 29184 07650 02986 23614 10081 21023 30211 40251 51033 60002 80002 333 10100 20080 60007 82076 90710 91137 93100 555 60005
AAXX 29184 07661 02868 52809 10092 21048 30045 40209 51014 60002 85070 333 10125 20065 60007 85356 90710 91121 555 60005
AAXX 29184 07690 02682 13210 10078 20031 30170 40205 53014 60002 81200 333 10132 20061 60007 81833 90710 91113 93100 555 60005
AAXX 29184 07747 02784 23314 10089 21015 30258 40313 51021 60002 82201 333 10108 20088 60007 82850 90710 91136 555 60005
AAXX 29184 07761 02568 70603 10112 20071 30162 40173 53008 60002 875// 333 10151 20049 60007 83630 83646 85656 90710 91105 93100 555 60005
AAXX 29184 07790 01675 70104 10086 20064 30173 40188 53012 69922 76162 8657/ 333 10144 20045 69927 83633 85650 85360 90710 91107 93100 555 69925
AAXX 29184 41170 42962 22903 10165 20030 30219 40232 82030 333 10206 58003 82364
AAXX 29184 61901 169// /1414 10172 20150 39671 40179 55001 60002 91750 333 10207 8//99 555 7/090
AAXX 29184 61902 32582 21416 10251 20177 40140 82100 333 10286 59006 82823
AAXX 29184 88889 12684 72419 10130 20045 39973 40056 53006 60001 85802 91750 333 82835 84840 85072 91026 90710 91127
AAXX 29181 02741 17461 82209 10040 20030 39768 49784 57014 60042 75265 88/// 91739 333 10053 20040
AAXX 29181 02755 17259 81702 10013 20011 39719 49813 54000 60032 72286 88/// 91739 333 10018 20002
AAXX 29181 02805 37334 73604 11103 21117 39799 49936 54000 77187 87/// 91739 333 11073 21153
AAXX 29181 02807 47382 50603 11102 21110 39728 49916 700// 85/// 91800 333 11094 21147
AAXX 29181 02836 37661 80403 11066 21075 39645 49870 54001 77170 88/// 91739 333 11066 21146
AAXX 29181 02845 47411 80509 11068 21072 39585 49836 54000 77276 88/// 91739 333 11061 21095
AAXX 29181 02849 47427 80904 11066 21074 39586 49862 54002 77170 88/// 91739 333 11065 21108
AAXX 29181 02866 17130 81101 11020 21020 39663 49811 54001 60042 77170 88/// 91739 333 11020 21047
AAXX 29181 02897 47359 81802 10012 20008 39647 49825 761// 88/// 91800 333 10012 21023
AAXX 29181 02913 47357 80702 10015 20012 39751 49802 700// 88/// 333 10032 20014
AAXX 29181 02917 47370 81604 10015 20011 39716 49836 761// 88/// 91800 333 10017 20002
AAXX 29181 02924 47210 90000 10002 20002 39618 49812 57013 77187 91739 333 10021 20002
AAXX 29181 02926 17460 81603 10038 20032 39776 49788 57018 60032 761// 88/// 91800 333 10050 20025
AAXX 29181 02935 17110 91402 10001 21001 39654 49824 57016 60032 77187 91739 333 10026 20001
AAXX 29181 02939 47269 81905 10013 20012 39678 49868 57008 72286 88/// 91739 333 1//// 2////
AAXX 29181 02944 47475 71903 10030 20024 39670 49813 781// 87/// 91800 333 10033 20023
AAXX 29181 02947 47283 81903 10031 20025 49849 57018 70002 88/// 91751 333 10031 20017
AAXX 29181 02963 46/// /2006 10036 20027 49820 333 1//// 2////
AAXX 29181 02974 11458 82109 10045 20030 39786 49851 57013 60062 78088 875// 333 10053 20033 32///
AAXX 29181 02976 46/// /2209 10047 20037 39858 49874 57014 91739 333 10052 20041
AAXX 29181 02981 17465 82218 10058 2//// 39806 49816 57016 60012 72285 88/// 91739 333 10062 20050
AAXX 29181 02982 46/// /2218 10058 20029 39827 49835 57020 91739 333 10063 20053
AAXX 29184 03005 11468 73310 10018 20009 39877 49978 53024 60022 72681 879// 91750 333 10028 55300 20000 83915 87645
AAXX 29184 03017 15664 /3005 10012 20005 39970 40003 52037 60042 91750 333 10038 55300 20000 81/39 87/46
AAXX 29184 03023 17559 /3129 10050 20005 30093 40098 53028 60032 781// 91750 333 10074 81/27 90710 91147 91047
AAXX 29184 03026 17764 /3125 10041 20010 30040 40059 53027 60052 724// 91750 333 10051 55300 20000 81/50 90710 91140
AAXX 29184 03063 17333 /2405 10010 21020 39779 40061 52025 60042 785// 91750 333 10026 55300 20000 81/09 91015
AAXX 29184 03066 17577 /2716 10033 20010 30035 40041 51026 60082 723// 91750 333 10041 55300 20000 84/20 85/35 90710 91127
AAXX 29184 03075 17571 /2825 10030 20018 39953 49997 53021 60032 757// 91750 333 10037 81/22 83/57 85/65 90710 91134
AAXX 29184 03091 17980 /2818 10027 21003 39941 40022 51012 60022 724// 91750 333 10044 55300 20000 8//99 90710 91130 91030
AAXX 29184 03100 17864 /3227 10050 20020 30097 40113 53020 60062 723// 91750 333 10075 55300 20000 86/57 90710 91153
AAXX 29184 03111 16549 /3131 10047 20023 30113 40126 53022 60052 91750 333 10081 84/20 84/57 90710 91145 91045
AAXX 29184 03134 17480 /3013 10024 20009 30020 40093 52021 60062 762// 91750 333 10059 55300 20000 83/16 90710 91126
AAXX 29184 03136 17668 /3116 10052 20020 30072 40105 51015 60062 723// 91750 333 10078 55300 20000 82/31 83/42 90710 91140 91030
AAXX 29184 03162 17562 /2810 10028 20000 39809 40099 51018 60122 781// 91750 333 10048 55300 20000 85/20 84/40 91020
AAXX 29184 03166 17481 /2712 10027 20000 30009 40080 51021 60022 723// 91750 333 10055 55300 20000 81/19
AAXX 29184 03171 11981 12918 10034 21021 30041 40054 53014 69942 70261 80001 91750 333 10054 55300 20000 81075 90710 91133
AAXX 29184 03204 11575 73020 10072 20013 30124 40144 51013 60012 70282 82801 91750 333 10092 55300 20000 81825 87070 90710 91136 91030
AAXX 29184 03240 15984 /2719 10043 21007 30033 40062 52017 69902 91750 333 10071 55300 20000 8//99 90710 91131
AAXX 29184 03257 15968 /2915 10044 20008 30051 40092 51006 60022 91750 333 10075 55300 20000 8//99 90710 91134
AAXX 29184 03292 169// /2913 10048 20001 30060 40078 53009 60002 91750 333 10080 8//99 90710 91133
AAXX 29184 03302 17657 /3026 10074 20033 30157 40169 53017 69902 782// 91750 333 10099 55300 20000 85/31 90710 91136 91036
AAXX 29184 03354 17573 /2915 10057 20023 39990 40134 51014 60052 723// 91750 333 10084 55300 20000 81/23 83/38 86/72 90710 91129 91029
AAXX 29184 03377 11581 53017 10059 20007 30030 40115 53008 60022 71582 85500 91750 333 10077 55300 20000 85625 90710 91129 91029
AAXX 29184 03414 15876 /2918 10080 20010 30065 40154 52006 60052 91750 333 10087 55300 20000 83/57 86/70 90710 91128
AAXX 29184 03462 17684 /3022 10069 20030 30039 40129 53002 69942 723// 91750 333 10087 55300 20000 84/33 86/72 90710 91137
AAXX 29184 03482 17674 /2919 10070 20031 30092 40118 55008 60032 723// 91750 333 10080 82/35 87/57 90710 91135
AAXX 29184 03502 17462 /2919 10084 20072 30035 40198 53003 69962 761// 91750 333 10095 55300 20000 83/18 85/23 90710 91138
AAXX 29184 03535 17972 /2914 10074 20028 30030 40148 53005 60012 723// 91750 333 10087 55300 20000 82/70 90710 91127
AAXX 29184 03590 17685 /2623 10077 20053 30009 40118 58022 60032 723// 91750 333 10080 55300 20000 81/30 85/36 90710 91135 91035
AAXX 29184 03649 11580 72811 10077 20057 30066 40167 50002 60032 72186 8353/ 91750 333 10097 55300 2//// 81620 83635 87358
AAXX 29184 03716 17558 /2724 10096 20077 30132 40192 56005 60022 782// 91750 333 10100 55300 20000 83/22 86/35 90710 91137 91037
AAXX 29184 03740 16560 /2622 10081 20068 39994 40172 56013 69922 91750 333 10087 55300 2//// 86/29 83/43 90710 91138
AAXX 29184 03746 15565 /2825 10093 20054 30027 40180 56009 69942 91750 333 10094 85/20 86/27 90710 91139
AAXX 29184 03772 17521 /3113 10083 20063 30132 40163 55011 60022 783// 91750 333 10102 55300 20000 86/20 83/35 90710 91130 91023
AAXX 29184 03796 46/// /2617 10073 20060 30005 40148 57031 91750 333 10087 90710 91130 91029
AAXX 29184 03803 NIL
AAXX 29184 03808 11458 82923 10099 20070 30159 40266 57012 69902 72165 885// 91750 333 10099 55300 20000 83717 88630 90710 91134 91033
AAXX 29184 03809 11465 72927 10096 20068 30169 40263 56012 69922 72582 875// 91750 333 10101 84618 87630 90710 91137 91037
AAXX 29184 03827 17561 /2923 10099 20069 30178 40240 56006 69962 723// 91750 333 10101 83/21 85/34 90710 91138 91033
AAXX 29184 03840 17473 /2816 10081 20062 39904 40212 56007 60022 723// 91750 333 10083 81/11 86/14 90710 91132 91029
AAXX 29184 03853 15776 /2823 10097 20060 30174 40198 56012 69922 91750 333 10105 55300 20000 82/50 90710 91130
AAXX 29184 03874 46/// /2926 10095 20061 30173 40184 57016 91750 333 10095 90710 91133
AAXX 29184 03882 17662 /2613 10087 20064 30104 40167 58027 69982 723// 91750 333 10093 55300 20000 87/30
AAXX 29184 03894 11570 72730 10099 20058 40259 58014 69962 70282 878// 333 10104 83822 86636 90710 91142
AAXX 29184 03917 17550 /3016 10049 20017 30080 40159 53019 60042 782// 91750 333 10074 55300 20000 83/21 83/56 90710 91130 91030
AAXX 29181 01015 NIL
AAXX 29181 01023 NIL
AAXX 29181 01033 NIL
AAXX 29181 01059 NIL
AAXX 29181 01089 16/// /0804 11032 21053 39822 49929 52004 6//// 333 11027 91108
AAXX 29181 01167 31987 20902 10000 21061 39857 49861 52010 70121 80009 333 10005 91105
AAXX 29181 01180 NIL
AAXX 29181 01210 16/// /0803 10035 20002 39866 49892 53030 6//// 333 10044 91112
AAXX 29181 01228 NIL
AAXX 29181 01240 16/// /3308 10032 21013 39838 49858 53022 6//// 333 10046 91119
AAXX 29181 01304 46/// /0000 10043 20017 39853 49884 52037 333 10060 91100
AAXX 29181 01311 46/// /3407 10037 20028 39821 49882 53016 333 10050 91121
AAXX 29181 01340 NIL
AAXX 29181 01355 16/// ///// 10022 20013 39859 49864 53016 69932 333 10030
AAXX 29181 01360 NIL
AAXX 29181 01392 16/// /2802 10013 21011 39621 49843 53027 69952 333 10031 91109
AAXX 29181 01406 NIL
AAXX 29181 01411 16/// /2815 10055 20014 39884 49909 58002 6//// 333 10066 91126
AAXX 29181 01425 NIL
AAXX 29181 01433 46/// /2707 11025 21032 38632 49873 53008 333 11015 91117
AAXX 29181 01442 NIL
AAXX 29181 01450 NIL
AAXX 29181 01452 11582 72606 10034 21025 39882 49903 50001 60002 70222 81571 333 10053 91120
AAXX 29181 01473 11545 82802 10041 21009 39648 49851 52015 69902 75052 8472/ 333 10057 91106
AAXX 29181 01494 16/// /2301 10036 20005 39786 49850 51019 69962 333 10057 91107
AAXX 29181 01025 16/// /1104 11012 21076 39884 49895 52009 60002 333 10002 91111
AAXX 29181 01052 16/// /0706 11051 21087 39833 49933 52002 60002 333 11042 91108
AAXX 29181 01122 16/// /2001 11040 21046 39754 49845 52020 60022 333 11028 91102
AAXX 29181 01132 NIL
AAXX 29181 01156 NIL
AAXX 29181 01203 46/// /0512 10040 20005 39842 49890 53037 333 10053 91124
AAXX 29181 01233 16/// /0802 11012 21040 69922 333 11004 91106
AAXX 29181 01265 NIL
AAXX 29181 01273 NIL
AAXX 29181 01307 46/// /3410 10042 20019 39854 49881 53036 333 10066 91124
AAXX 29181 01321 16/// /0201 10012 20010 39628 49878 53028 60022 333 10019 91104
AAXX 29181 01327 16/// /2805 10001 21009 60212 333 10008 91109
AAXX 29181 01350 16/// /3005 11031 21038 38478 49837 53015 69932 333 11021 91113
AAXX 29181 01361 16/// /3205 11014 21051 38851 49861 53019 69952 333 11008 4/075 91109
AAXX 29181 01375 NIL
AAXX 29181 01378 16/// /0302 11001 21010 39556 49844 53019 60012 333 10012 91105
AAXX 29181 01385 16/// /2202 10006 21012 39582 49850 53023 60002 333 10025 91108
AAXX 29181 01412 16/// /3014 10052 21006 39897 49926 58002 60042 333 10061 91126
AAXX 29181 01422 16/// /2606 10045 20015 60052 333 10061 91119
AAXX 29181 01440 NIL
AAXX 29181 01441 NIL
AAXX 29181 01467 NIL
AAXX 29181 01469 NIL
AAXX 29181 01477 NIL
AAXX 29181 01480 16/// /3502 10004 21006 69952 333 10045 91104
AAXX 29181 01484 16/// /1301 11008 21019 39695 49850 52025 60002 333 10034 91104
AAXX 29181 01490 16/// /3301 11010 21012 69952 333 10011 91108
AAXX 29181 01495 16/// /2805 10061 20018 39839 49851 52020 60002 333 10078 91114
AAXX 29181 01037 NIL
AAXX 29181 01046 NIL
AAXX 29181 01058 16/// /0803 11091 21115 39456 49930 50000 60002 333 11065 4/017 91109
AAXX 29181 01065 NIL
AAXX 29181 01092 NIL
AAXX 29181 01107 16/// /0504 10009 2//// 39850 49854 52011 60022 333 10020 91114
AAXX 29181 01114 NIL
AAXX 29181 01144 41886 80906 10007 21068 70222 8401/ 333 10008 91115
AAXX 29181 01199 NIL
AAXX 29181 01245 NIL
AAXX 29181 01259 16/// /0111 10023 21001 39824 49846 53020 60032 333 10043 91118
AAXX 29181 01262 NIL
AAXX 29181 01278 11480 73001 11006 21012 39742 49843 53015 60022 70275 878// 333 11004
AAXX 29181 01293 11665 80102 10005 21008 39641 49847 53016 60012 72682 882// 333 10005 91105
AAXX 29181 01329 NIL
AAXX 29181 01337 NIL
AAXX 29181 01344 NIL
AAXX 29181 01364 NIL
AAXX 29181 01373 11435 80000 11022 21026 39658 49860 52019 69932 71022 8561/ 333 10007 91104
AAXX 29181 01374 11789 70000 11030 21032 69952 70222 8707/ 333 10004
AAXX 29181 01380 11682 23101 11048 21070 69942 70221 82500 333 11020 4/030 91107
AAXX 29181 01389 NIL
AAXX 29181 01393 NIL
AAXX 29181 01424 11440 8//// 10038 20011 39883 49887 50004 60212 76562 887// 333 10053
AAXX 29181 01431 16/// /2202 11007 21016 39249 49909 53002 60202 333 10018 91113
AAXX 29181 01436 NIL
AAXX 29181 01465 11980 82711 10045 21009 39874 49892 51015 60002 70282 8801/ 333 10064 91120
AAXX 29181 01471 16/// /2901 10005 21014 60002 333 10044 91109
AAXX 29181 01483 NIL
AAXX 29181 78221 31462 50805 10245 20184 30161 40188 57010 70220 85200 333 85818
AAXX 29181 78224 31559 40903 10255 20159 30105 40179 58019 70544 84100 333 84833
AAXX 29181 78229 42559 41001 10194 20169 30126 40201 52010 84200 333 84820
AAXX 29181 78239 41559 40603 10266 20205 30170 40173 57020 70500 84800 333 83820
AAXX 29181 12345 42559 71001 10249 20199 30129 40170 57021 87100 333 87820
AAXX 29181 78243 42558 60702 10247 20188 30058 40181 57021 85200 333 85820
AAXX 29181 78255 42460 11203 10279 20169 30028 40177 57030 81100 333 10281 20174 81818
AAXX 29181 78264 31559 21903 10293 20157 30092 40167 57020 70500 82000 333 10298 20200 82825
AAXX 29181 78265 31559 31702 10304 20118 30063 40163 57030 70544 83200 333 10306 20169 83825
AAXX 29181 78256 11559 32402 10310 20108 30110 40173 57027 60004 70544 83100 333 10319 20183 83825
AAXX 29181 78259 31559 31602 10313 20119 30090 40173 57028 70544 83200 333 10315 20161 83820
AAXX 29181 78268 11560 20303 10272 20233 30158 40177 57022 60001 70310 82200 333 82825
AAXX 29181 02741 17461 82209 10040 20030 39768 49784 57014 60042 75265 88/// 91739 333 10053 20040
AAXX 29181 02755 17259 81702 10013 20011 39719 49813 54000 60032 72286 88/// 91739 333 10018 20002
AAXX 29181 02805 37334 73604 11103 21117 39799 49936 54000 77187 87/// 91739 333 11073 21153
AAXX 29181 02807 47382 50603 11102 21110 39728 49916 700// 85/// 91800 333 11094 21147
AAXX 29181 02836 37661 80403 11066 21075 39645 49870 54001 77170 88/// 91739 333 11066 21146
AAXX 29181 02845 47411 80509 11068 21072 39585 49836 54000 77276 88/// 91739 333 11061 21095
AAXX 29181 02849 47427 80904 11066 21074 39586 49862 54002 77170 88/// 91739 333 11065 21108
AAXX 29181 02866 17130 81101 11020 21020 39663 49811 54001 60042 77170 88/// 91739 333 11020 21047
AAXX 29181 02897 47359 81802 10012 20008 39647 49825 761// 88/// 91800 333 10012 21023
AAXX 29181 02913 47357 80702 10015 20012 39751 49802 700// 88/// 333 10032 20014
AAXX 29181 02917 47370 81604 10015 20011 39716 49836 761// 88/// 91800 333 10017 20002
AAXX 29181 02924 47210 90000 10002 20002 39618 49812 57013 77187 91739 333 10021 20002
AAXX 29181 02926 17460 81603 10038 20032 39776 49788 57018 60032 761// 88/// 91800 333 10050 20025
AAXX 29181 02935 17110 91402 10001 21001 39654 49824 57016 60032 77187 91739 333 10026 20001
AAXX 29181 02939 47269 81905 10013 20012 39678 49868 57008 72286 88/// 91739 333 1//// 2////
AAXX 29181 02944 47475 71903 10030 20024 39670 49813 781// 87/// 91800 333 10033 20023
AAXX 29181 02947 47283 81903 10031 20025 49849 57018 70002 88/// 91751 333 10031 20017
AAXX 29181 02963 46/// /2006 10036 20027 49820 333 1//// 2////
AAXX 29181 02974 11458 82109 10045 20030 39786 49851 57013 60062 78088 875// 333 10053 20033 32///
AAXX 29181 02976 46/// /2209 10047 20037 39858 49874 57014 91739 333 10052 20041
AAXX 29181 02981 17465 82218 10058 2//// 39806 49816 57016 60012 72285 88/// 91739 333 10062 20050
AAXX 29181 02982 46/// /2218 10058 20029 39827 49835 57020 91739 333 10063 20053
BBXX 46082 29181 99597 71434 46/// ///// 11013 49935 52030 91750 22200 00061 11106 70030
BBXX 46072 29181 99517 71722 46/// /3006 11012 21089 40147 52008 91750 22200 00044 10903 20501 3//// 40903 70016 333 91208 555 11060 22063 31743 43108 61749 302056 292054 295051 290048 288045 302047 83007 91744
BBXX 46077 29181 99579 71543 46/// /2614 11088 21117 49934 53017 91750 22200 00040 10705 20705 3//// 41101 70027 333 91217 555 11144 22151 31741 42618 61749 257137 262137 271126 267128 267123 262136 82615 91747
BBXX 46035 29181 99571 71778 46/// /3407 1//// 40144 52004 91750 22200 10703 20602 300// 40702 70017 333 91210 555 11074 22079 31717 43610 61749 335076 345076 343076 349077 341070 344081 83409 91724
BBXX 42039 29181 99288 70860 46/// /1207 10184 40186 58017 91750 22200 00227 10301 20301 70006 333 91209 555 11070 22073 31738 41209 61749 119067 121068 120067 125063 125060 121061 81308 91738
BBXX 41040 29181 99145 70530 46/// /0711 10269 20218 40165 56020 91750 22200 00271 10706 20705 3//// 40903 70029 333 91213 555 11112 22120 31732 40713 61749 070106 066105 070104 069104 069107 066102 80712 91747
BBXX 46072 29181 99517 71722 46/// /3006 11012 21089 40147 52008 91750 22200 00044 10903 20501 3//// 40903 70016 333 91208 555 11060 22063 31743 43108 61749 302056 292054 295051 290048 288045 302047 83007 91744
AAXX 29181 01121 46/// /0000 11003 21037 39834 49846 52020 333 10005 91107
AAXX 29181 01135 NIL
AAXX 29181 01143 16/// /1203 11009 21075 60002 333 10005 91110
AAXX 29181 01150 16/// /1101 11044 21078 69932 333 11036 91108
AAXX 29181 01192 NIL
AAXX 29181 01225 46/// /3509 10055 21016 39871 49876 53024 333 10058 91115
AAXX 29181 01230 16/// /2604 11016 21025 69952 333 11010 4/037 91107
AAXX 29181 01232 NIL
AAXX 29181 01234 16/// /2203 10007 21000 60022 333 10013 91106
AAXX 29181 01253 NIL
AAXX 29181 01254 16/// /3601 11001 21006 60022 333 10000 4/023 91103
AAXX 29181 01257 NIL
AAXX 29181 01277 NIL
AAXX 29181 01291 16/// /3001 11030 21035 60012 333 11012 4/034 91102
AAXX 29181 01332 16/// /0000 10008 21003 69962 333 10021 91103
AAXX 29181 01366 46/// /3203 11060 21071 38263 49864 52013 333 11050 91106
AAXX 29181 01370 NIL
AAXX 29181 01376 16/// /3101 11007 21010 60002 333 10020 91103
AAXX 29181 01383 46/// /0000 11035 21035 39544 49857 52022 333 10008 91104
AAXX 29181 01386 16/// ///// 10013 21009 69932 333 10030
AAXX 29181 01416 16/// ///// 10047 21010 60042 333 10055
AAXX 29181 01419 NIL
AAXX 29181 01430 16/// ///// 10045 21043 60042 333 10055
AAXX 29181 01434 16/// /1502 11005 21039 38907 49855 50004 69942 333 10006 91107
AAXX 29181 01455 NIL
AAXX 29181 01468 16/// /3002 10005 21005 69952 333 10029 91106
AAXX 29181 01470 16/// /2501 10048 21009 39747 49858 52017 60002 333 10052 4/002 91105
AAXX 29181 01476 NIL
AAXX 29181 01481 NIL
AAXX 29181 01488 NIL
BBXX 51004 29181 99175 71524 46/// /0409 10242 20163 91750 555 11098 22105
BBXX 51002 29181 99171 71578 46/// /0812 10240 40176 53014 91750 22200 00247 333 91215 555 11127 22135 31711 40715 61749 076119 075119 072117 073121 069128 073118
BBXX 51100 29181 99236 71539 46/// /0907 10224 40242 53008 91750 22200 00228 11606 20603 331// 41605 70030 333 91209 555 11078 22082 31749 40810 61749 085073 084070 079063 079064 085071 087080
BBXX 44007 29181 99435 70701 46/// /2810 11024 21137 40078 58003 91750 22200 00081 11102 20402 3//// 41101 70009 333 91212 555 11103 22107 31709 42613 61749 282099 278109 275105 273105 278104 280101
BBXX 46026 29181 99378 71228 46/// /3106 10107 40249 53011 91750 22200 00112 11304 20501 328// 41304 70020 333 91207 555 11060 22063 31745 43107 61749 303057 283051 294048 287038 281037 293046
BBXX 46041 29181 99474 71247 46/// /1606 10086 40165 50000 91750 22200 00083 11308 20602 3//// 41308 70042 333 91209 555 11067 22072 31748 41409 61749 155062 154057 156053 157044 165042 171039
AAXX 29181 14648 12970 23401 10044 21002 30084 40207 56001 60002 82030 333 10068 82360
AAXX 29181 14652 11/00 93612 11066 21071 37902 48477 58006 60002 74544 333 11043 49067 89///
AAXX 29181 14542 11/04 90000 11018 21029 30045 40244 50000 60002 74544 333 11015 89/02 95990
AAXX 29181 78221 31462 50805 10245 20184 30161 40188 57010 70220 85200 333 85818
AAXX 29181 78224 31559 40903 10255 20159 30105 40179 58019 70544 84100 333 84833
AAXX 29181 78229 42559 41001 10194 20169 30126 40201 52010 84200 333 84820
AAXX 29181 78239 41559 40603 10266 20205 30170 40173 57020 70500 84800 333 83820
AAXX 29181 12345 42559 71001 10249 20199 30129 40170 57021 87100 333 87820
AAXX 29181 78243 42558 60702 10247 20188 30058 40181 57021 85200 333 85820
AAXX 29181 78255 42460 11203 10279 20169 30028 40177 57030 81100 333 10281 20174 81818
AAXX 29181 78264 31559 21903 10293 20157 30092 40167 57020 70500 82000 333 10298 20200 82825
AAXX 29181 78265 31559 31702 10304 20118 30063 40163 57030 70544 83200 333 10306 20169 83825
AAXX 29181 78256 11559 32402 10310 20108 30110 40173 57027 60004 70544 83100 333 10319 20183 83825
AAXX 29181 78259 31559 31602 10313 20119 30090 40173 57028 70544 83200 333 10315 20161 83820
AAXX 29181 78268 11560 20303 10272 20233 30158 40177 57022 60001 70310 82200 333 82825
AAXX 29184 64551 32360 80000 10266 20246 30085 40114 8453/ 333 10293 58011 84608 88360
AAXX 29184 78016 32764 62510 10207 20123 30196 40200 55008 83506 333 10214 20186 70023
AAXX 29184 78062 12669 30210 10220 20140 40186 60001 83500 333 59003 83640 90908
AAXX 29181 14528 NIL
AAXX 29181 14537 NIL
AAXX 29181 14544 NIL
AAXX 29181 14557 11910 80000 11018 21023 39856 40239 55003 60002 71022 8807/ 333 87360 88461
AAXX 29181 14640 NIL
AAXX 29184 78906 11576 70905 10271 20214 30160 40164 69981 72581 86801 333 10300 20229 58004 70008 86818 90916
AAXX 29184 78905 11465 61216 10277 20218 30150 40173 60001 71511 86200 333 10296 20229 58001 86815
AAXX 29184 78906 11576 70905 10271 20214 30160 40164 69981 72581 86801 333 10300 20229 58004 70008 86818 90916
AAXX 29184 78062 12669 30210 10220 20140 40186 60001 83500 333 59003 83640 90908
AAXX 29184 78905 11465 61216 10277 20218 30150 40173 60001 71511 86200 333 10296 20229 58001 86815
AAXX 29181 76040 32960 03502 10156 20029 30188 40202 52010 91755 333 10216 20034 30/// 59056 98660
AAXX 29181 76055 32980 03311 10180 21071 30169 40188 52013 91740 333 10226 20081 30/// 59041
AAXX 29181 76113 32980 01801 10140 21009 39696 40185 52006 91745 333 10146 20036 30/// 59027
AAXX 29181 76122 32970 01601 10142 21055 38562 40239 57002 91750 333 10148 21032 30/// 59037
AAXX 29181 76220 32958 00000 10042 21051 38188 40341 57004 91740 333 10042 21110 30/// 59017
AAXX 29181 76225 32960 00701 10156 21041 38651 40215 57010 91745 333 10156 21016 30/// 59031
AAXX 29181 76256 32980 00000 10156 20100 30164 40178 52002 91745 333 10252 20089 30/// 59024
AAXX 29181 76305 32970 00602 10224 20038 30160 40168 51001 91740 333 10226 20158 30/// 59030
AAXX 29181 76323 32970 43201 10164 21052 38308 40320 52008 80002 91740 333 10164 21035 30/// 56005 59005 84268
AAXX 29181 76342 32962 03002 10202 20002 39509 40231 57006 91750 333 10214 20072 30/// 59009
AAXX 29181 76373 32980 00000 10124 21128 38224 40173 57001 91755 333 10130 21080 30/// 59042
AAXX 29181 76382 32980 61102 10162 20067 38942 40231 52002 80004 91740 333 10170 20022 30/// 56005 59008 86076
AAXX 29181 76390 32975 21702 10186 21068 38250 40215 57007 80004 91735 333 10200 20005 30/// 54308 56007 59009 82070
AAXX 29181 76393 31910 11601 10216 20057 39605 40188 57005 70544 80008 91750 333 10238 20110 30/// 56005 59001
AAXX 29181 76402 31962 01302 10230 20092 30106 40164 52003 70544 91745 333 10232 20058 30/// 59022
AAXX 29181 76423 32580 40000 10158 21056 38174 40221 58010 81254 91740 333 10167 20010 30/// 56999 59013 81830 82357 81067
AAXX 29181 76458 32970 12004 10210 20140 30149 40154 50002 80005 91738 333 10238 20092 30/// 56//8 59017 81070
AAXX 29181 76491 32960 10000 10247 20128 39813 40212 57015 80004 91750 333 10251 20050 30/// 56009 59001
AAXX 29181 76499 31860 10000 10230 20146 30172 40194 57009 70344 81030 91750 333 10231 20076 30/// 58003
AAXX 29181 76525 32980 41902 10136 21100 37488 40157 57001 80001 91740 333 10136 20081 30/// 56//5 59010 84080
AAXX 29181 76539 32970 03602 10168 20014 38183 40231 57004 91750 333 10200 20002 30/// 59001
AAXX 29181 76543 31975 23601 10248 20160 30179 40212 58013 70140 80005 91745 333 10248 20104 30/// 59008
AAXX 29181 76548 32975 22102 10232 20168 30196 40206 58007 80002 91740 333 10236 20140 30/// 56005 59012 82075
AAXX 29181 76556 32970 61202 10250 20129 39126 40157 51002 80006 91735 333 10258 20120 30/// 56003 59014 86070
AAXX 29181 76571 32975 30000 10198 21038 38184 40188 55006 80004 91748 333 10200 20098 30/// 56005 59010
AAXX 29181 76577 32970 12304 10196 20144 38059 40178 58004 80001 91740 333 10200 20085 30/// 56005 59013
AAXX 29181 76581 32968 31802 10208 20100 39083 40214 57015 83010 91750 333 10215 20053 30/// 56020 59005 83460
AAXX 29181 76585 32980 00901 10200 20132 30032 40193 58015 91740 333 10225 20078 30/// 59008
AAXX 29181 76593 32370 30505 10262 20240 30181 40183 57015 81130 91750 333 10287 20175 30/// 5611/ 59017 81820 82330 91006 91505
AAXX 29181 76612 32962 31001 10212 20053 38491 40185 50000 80001 91749 333 10230 20085 30/// 56006 59011 83072
AAXX 29181 76625 32960 10301 10225 20039 38157 40139 57009 80004 91755 333 10227 20102 30/// 56009 59010 81069
AAXX 29181 76632 31965 01802 10164 20070 37650 40159 57003 70500 91740 333 10172 20080 30/// 59013 98565
AAXX 29181 76634 31570 23102 10208 20070 37864 40192 57012 70500 82400 91750 333 10214 20068 30/// 565// 59010 82834
AAXX 29181 76654 31956 01802 10296 20219 30158 40162 52003 70544 91800 333 10296 20224 30/// 59011
AAXX 29181 76658 31556 22302 10282 20180 39641 40146 52012 70540 80904 91749 333 10291 20180 30/// 56801 59020 81822 81070 94082 98904
AAXX 29181 76662 32670 31801 10238 20096 38478 40174 57002 82202 91730 333 10250 20088 30076 56/0/ 59011 82833 81070
AAXX 29181 76680 31558 20501 10193 20061 37767 40106 57007 70500 82100 91755 333 10197 20090 30/// 56700 59012 82828
AAXX 29181 76681 31960 00000 10200 20102 37795 40172 57010 70500 91745 333 10200 20042 30/// 59018
AAXX 29181 76683 32668 10601 10210 20092 37842 40214 56009 81100 91745 333 10218 20048 30/// 56200 59014 81840
AAXX 29181 76685 31950 03601 10206 20036 37871 40161 57016 70544 91750 333 10208 20065 30/// 59013
AAXX 29181 76687 31562 70701 10178 20143 38711 40217 57003 70222 874// 91737 333 10180 20100 30/// 563// 59008 82824 85622
AAXX 29181 76692 31456 70204 10256 20192 30172 40191 58003 70544 8527/ 91745 333 10260 20191 30/// 5633/ 59034 81817 84640
AAXX 29181 76695 32560 30403 10278 20219 30159 40164 57015 81250 91750 333 10283 20169 30/// 5620/ 59021 81820 82360
AAXX 29181 76698 32560 60601 10280 20214 30167 40178 57015 86200 91750 333 10295 20200 30/// 56200 59015 86820
AAXX 29181 76737 31480 71602 10184 20140 38803 40204 50000 70322 876// 91735 333 10191 20100 30/// 562// 59007 85713 91105 91514
AAXX 29181 76743 31457 70001 10260 20218 30167 40175 57011 70211 872// 91750 333 10260 20210 30/// 560// 59019 87817
AAXX 29181 76750 32560 30902 10296 20213 30159 40169 57007 83100 91750 333 10305 20188 30/// 56100 59022 83820
AAXX 29181 76762 32504 01801 10278 20230 38781 40159 58001 81200 91730 333 10280 20158 30/// 56100 59012 81830
AAXX 29181 76773 31568 32601 10234 20149 38436 40165 57014 70544 83100 91748 333 10237 20060 30/// 56900 59022 83820
AAXX 29181 76775 31570 10401 10260 20077 38535 40184 57013 70300 81100 91735 333 10284 20090 30/// 56800 59025 81824
AAXX 29181 76805 32570 11504 10297 20232 30138 40144 57009 81100 91750 333 10324 20220 30/// 561// 58/// 81830
AAXX 29181 76833 32970 03606 10298 20187 30142 40144 57013 91745 333 10298 20214 30/// 59007 92000
AAXX 29181 76840 32960 00204 10294 20176 30099 40155 52003 91745 333 10298 20197 30/// 58003
AAXX 29181 76843 32565 10801 10246 20165 39514 40162 57009 81100 91735 333 10254 20158 30/// 567// 59021 81823
AAXX 29181 76848 32770 11601 10260 20128 38389 40103 57009 81200 91750 333 10260 20110 30/// 56100 59025 81850
AAXX 29181 76903 31680 32903 10315 20206 30007 40137 57015 70122 83200 91755 333 10320 20233 30/// 56100 59009 83833
AAXX 29181 76160 32962 00501 10174 21015 39921 40174 52003 91730 333 10174 20040 30/// 59034
AAXX 29181 76243 32974 01501 10184 20052 39884 40186 57017 91740 333 10236 20040 30/// 59025
AAXX 29181 76311 32980 00000 10226 20060 39873 40158 50001 91740 333 10226 20061 30/// 59017
AAXX 29181 76405 32980 43603 10231 20089 30150 40172 52006 80001 91750 333 10231 20138 30/// 56005 59021 84070
AAXX 29181 76412 32966 02201 10190 20112 30135 40180 52015 91745 333 10200 20068 30/// 59004
AAXX 29181 76640 31358 32702 10206 20184 30207 40219 52023 70200 822/8 91740 333 10222 20152 30/// 567/9 59017 82809
AAXX 29181 76647 32570 73602 10274 20203 30160 40191 57003 875// 91750 333 10286 20170 30/// 568// 59014 87629
AAXX 29181 76656 32975 40000 10245 20103 38520 40176 58006 80008 91750 333 10252 20070 30/// 56005 59012 84280
AAXX 29181 76855 32980 01301 10308 20228 30086 40135 51008 91740 333 10315 20210 30/// 59002 92000
AAXX 29184 78906 11576 70905 10271 20214 30160 40164 69981 72581 86801 333 10300 20229 58004 70008 86818 90916
AAXX 29184 78905 11465 61216 10277 20218 30150 40173 60001 71511 86200 333 10296 20229 58001 86815
AAXX 29184 78062 12669 30210 10220 20140 40186 60001 83500 333 59003 83640 90908
BBXX CG2350 29184 99433 70798 46/// /0702 11013 21035 40112 58036 7//// 8//// 22200 0//// 2////
BBXX CG2965 29184 99487 71235 46/// /2809 10081 20020 40171 53016 7//// 8//// 22200 0//// 2////
BBXX CZ9742 29184 99506 70969 46/// /1505 11068 21070 4//// 5//// 7//// 8//// 22200 0//// 2////
BBXX CG2960 29184 99429 70824 46/// /1607 10006 21002 40064 58044 7//// 8//// 22200 0//// 2////
AAXX 29181 76040 32960 03502 10156 20029 30188 40202 52010 91755 333 10216 20034 30/// 59056 98660
AAXX 29181 76055 32980 03311 10180 21071 30169 40188 52013 91740 333 10226 20081 30/// 59041
AAXX 29181 76113 32980 01801 10140 21009 39696 40185 52006 91745 333 10146 20036 30/// 59027
AAXX 29181 76122 32970 01601 10142 21055 38562 40239 57002 91750 333 10148 21032 30/// 59037
AAXX 29181 76220 32958 00000 10042 21051 38188 40341 57004 91740 333 10042 21110 30/// 59017
AAXX 29181 76225 32960 00701 10156 21041 38651 40215 57010 91745 333 10156 21016 30/// 59031
AAXX 29181 76256 32980 00000 10156 20100 30164 40178 52002 91745 333 10252 20089 30/// 59024
AAXX 29181 76305 32970 00602 10224 20038 30160 40168 51001 91740 333 10226 20158 30/// 59030
AAXX 29181 76323 32970 43201 10164 21052 38308 40320 52008 80002 91740 333 10164 21035 30/// 56005 59005 84268
AAXX 29181 76342 32962 03002 10202 20002 39509 40231 57006 91750 333 10214 20072 30/// 59009
AAXX 29181 76373 32980 00000 10124 21128 38224 40173 57001 91755 333 10130 21080 30/// 59042
AAXX 29181 76382 32980 61102 10162 20067 38942 40231 52002 80004 91740 333 10170 20022 30/// 56005 59008 86076
AAXX 29181 76390 32975 21702 10186 21068 38250 40215 57007 80004 91735 333 10200 20005 30/// 54308 56007 59009 82070
AAXX 29181 76393 31910 11601 10216 20057 39605 40188 57005 70544 80008 91750 333 10238 20110 30/// 56005 59001
AAXX 29181 76402 31962 01302 10230 20092 30106 40164 52003 70544 91745 333 10232 20058 30/// 59022
AAXX 29181 76423 32580 40000 10158 21056 38174 40221 58010 81254 91740 333 10167 20010 30/// 56999 59013 81830 82357 81067
AAXX 29181 76458 32970 12004 10210 20140 30149 40154 50002 80005 91738 333 10238 20092 30/// 56//8 59017 81070
AAXX 29181 76491 32960 10000 10247 20128 39813 40212 57015 80004 91750 333 10251 20050 30/// 56009 59001
AAXX 29181 76499 31860 10000 10230 20146 30172 40194 57009 70344 81030 91750 333 10231 20076 30/// 58003
AAXX 29181 76525 32980 41902 10136 21100 37488 40157 57001 80001 91740 333 10136 20081 30/// 56//5 59010 84080
AAXX 29181 76539 32970 03602 10168 20014 38183 40231 57004 91750 333 10200 20002 30/// 59001
AAXX 29181 76543 31975 23601 10248 20160 30179 40212 58013 70140 80005 91745 333 10248 20104 30/// 59008
AAXX 29181 76548 32975 22102 10232 20168 30196 40206 58007 80002 91740 333 10236 20140 30/// 56005 59012 82075
AAXX 29181 76556 32970 61202 10250 20129 39126 40157 51002 80006 91735 333 10258 20120 30/// 56003 59014 86070
AAXX 29181 76571 32975 30000 10198 21038 38184 40188 55006 80004 91748 333 10200 20098 30/// 56005 59010
AAXX 29181 76577 32970 12304 10196 20144 38059 40178 58004 80001 91740 333 10200 20085 30/// 56005 59013
AAXX 29181 76581 32968 31802 10208 20100 39083 40214 57015 83010 91750 333 10215 20053 30/// 56020 59005 83460
AAXX 29181 76585 32980 00901 10200 20132 30032 40193 58015 91740 333 10225 20078 30/// 59008
AAXX 29181 76593 32370 30505 10262 20240 30181 40183 57015 81130 91750 333 10287 20175 30/// 5611/ 59017 81820 82330 91006 91505
AAXX 29181 76612 32962 31001 10212 20053 38491 40185 50000 80001 91749 333 10230 20085 30/// 56006 59011 83072
AAXX 29181 76625 32960 10301 10225 20039 38157 40139 57009 80004 91755 333 10227 20102 30/// 56009 59010 81069
AAXX 29181 76632 31965 01802 10164 20070 37650 40159 57003 70500 91740 333 10172 20080 30/// 59013 98565
AAXX 29181 76634 31570 23102 10208 20070 37864 40192 57012 70500 82400 91750 333 10214 20068 30/// 565// 59010 82834
AAXX 29181 76654 31956 01802 10296 20219 30158 40162 52003 70544 91800 333 10296 20224 30/// 59011
AAXX 29181 76658 31556 22302 10282 20180 39641 40146 52012 70540 80904 91749 333 10291 20180 30/// 56801 59020 81822 81070 94082 98904
AAXX 29181 76662 32670 31801 10238 20096 38478 40174 57002 82202 91730 333 10250 20088 30076 56/0/ 59011 82833 81070
AAXX 29181 76680 31558 20501 10193 20061 37767 40106 57007 70500 82100 91755 333 10197 20090 30/// 56700 59012 82828
AAXX 29181 76681 31960 00000 10200 20102 37795 40172 57010 70500 91745 333 10200 20042 30/// 59018
AAXX 29181 76683 32668 10601 10210 20092 37842 40214 56009 81100 91745 333 10218 20048 30/// 56200 59014 81840
AAXX 29181 76685 31950 03601 10206 20036 37871 40161 57016 70544 91750 333 10208 20065 30/// 59013
AAXX 29181 76687 31562 70701 10178 20143 38711 40217 57003 70222 874// 91737 333 10180 20100 30/// 563// 59008 82824 85622
AAXX 29181 76692 31456 70204 10256 20192 30172 40191 58003 70544 8527/ 91745 333 10260 20191 30/// 5633/ 59034 81817 84640
AAXX 29181 76695 32560 30403 10278 20219 30159 40164 57015 81250 91750 333 10283 20169 30/// 5620/ 59021 81820 82360
AAXX 29181 76698 32560 60601 10280 20214 30167 40178 57015 86200 91750 333 10295 20200 30/// 56200 59015 86820
AAXX 29181 76737 31480 71602 10184 20140 38803 40204 50000 70322 876// 91735 333 10191 20100 30/// 562// 59007 85713 91105 91514
AAXX 29181 76743 31457 70001 10260 20218 30167 40175 57011 70211 872// 91750 333 10260 20210 30/// 560// 59019 87817
AAXX 29181 76750 32560 30902 10296 20213 30159 40169 57007 83100 91750 333 10305 20188 30/// 56100 59022 83820
AAXX 29181 76762 32504 01801 10278 20230 38781 40159 58001 81200 91730 333 10280 20158 30/// 56100 59012 81830
AAXX 29181 76773 31568 32601 10234 20149 38436 40165 57014 70544 83100 91748 333 10237 20060 30/// 56900 59022 83820
AAXX 29181 76775 31570 10401 10260 20077 38535 40184 57013 70300 81100 91735 333 10284 20090 30/// 56800 59025 81824
AAXX 29181 76805 32570 11504 10297 20232 30138 40144 57009 81100 91750 333 10324 20220 30/// 561// 58/// 81830
AAXX 29181 76833 32970 03606 10298 20187 30142 40144 57013 91745 333 10298 20214 30/// 59007 92000
AAXX 29181 76840 32960 00204 10294 20176 30099 40155 52003 91745 333 10298 20197 30/// 58003
AAXX 29181 76843 32565 10801 10246 20165 39514 40162 57009 81100 91735 333 10254 20158 30/// 567// 59021 81823
AAXX 29181 76848 32770 11601 10260 20128 38389 40103 57009 81200 91750 333 10260 20110 30/// 56100 59025 81850
AAXX 29181 76903 31680 32903 10315 20206 30007 40137 57015 70122 83200 91755 333 10320 20233 30/// 56100 59009 83833
AAXX 29181 76160 32962 00501 10174 21015 39921 40174 52003 91730 333 10174 20040 30/// 59034
AAXX 29181 76243 32974 01501 10184 20052 39884 40186 57017 91740 333 10236 20040 30/// 59025
AAXX 29181 76311 32980 00000 10226 20060 39873 40158 50001 91740 333 10226 20061 30/// 59017
AAXX 29181 76405 32980 43603 10231 20089 30150 40172 52006 80001 91750 333 10231 20138 30/// 56005 59021 84070
AAXX 29181 76412 32966 02201 10190 20112 30135 40180 52015 91745 333 10200 20068 30/// 59004
AAXX 29181 76640 31358 32702 10206 20184 30207 40219 52023 70200 822/8 91740 333 10222 20152 30/// 567/9 59017 82809
AAXX 29181 76647 32570 73602 10274 20203 30160 40191 57003 875// 91750 333 10286 20170 30/// 568// 59014 87629
AAXX 29181 76656 32975 40000 10245 20103 38520 40176 58006 80008 91750 333 10252 20070 30/// 56005 59012 84280
AAXX 29181 76855 32980 01301 10308 20228 30086 40135 51008 91740 333 10315 20210 30/// 59002 92000
BBXX VOPP 29184 99456 70735 46/// /2405 11148 21197 4//// 5//// 7//// 8//// 22200 0//// 2////
BBXX VCRG 29184 99474 70619 46/// /2222 11070 21096 49862 51013 7//// 8//// 22200 0//// 2////
BBXX CGUM 29184 99447 70636 46/// /2617 11014 21090 49962 53005 7//// 8//// 22200 0//// 2////
AAXX 29181 76040 32960 03502 10156 20029 30188 40202 52010 91755 33310216 20034 30/// 59056 98660
AAXX 29181 76055 32980 03311 10180 21071 30169 40188 52013 91740 33310226 20081 30/// 59041
AAXX 29181 76113 32980 01801 10140 21009 39696 40185 52006 91745 33310146 20036 30/// 59027
AAXX 29181 76122 32970 01601 10142 21055 38562 40239 57002 91750 33310148 21032 30/// 59037
AAXX 29181 76220 32958 00000 10042 21051 38188 40341 57004 91740 33310042 21110 30/// 59017
AAXX 29181 76225 32960 00701 10156 21041 38651 40215 57010 91745 33310156 21016 30/// 59031
AAXX 29181 76256 32980 00000 10156 20100 30164 40178 52002 91745 33310252 20089 30/// 59024
AAXX 29181 76305 32970 00602 10224 20038 30160 40168 51001 91740 33310226 20158 30/// 59030
AAXX 29181 76323 32970 43201 10164 21052 38308 40320 52008 80002 91740333 10164 21035 30/// 56005 59005 84268
AAXX 29181 76342 32962 03002 10202 20002 39509 40231 57006 91750 33310214 20072 30/// 59009
AAXX 29181 76373 32980 00000 10124 21128 38224 40173 57001 91755 33310130 21080 30/// 59042
AAXX 29181 76382 32980 61102 10162 20067 38942 40231 52002 80004 91740333 10170 20022 30/// 56005 59008 86076
AAXX 29181 76390 32975 21702 10186 21068 38250 40215 57007 80004 91735333 10200 20005 30/// 54308 56007 59009 82070
AAXX 29181 76393 31910 11601 10216 20057 39605 40188 57005 70544 8000891750 333 10238 20110 30/// 56005 59001
AAXX 29181 76402 31962 01302 10230 20092 30106 40164 52003 70544 91745333 10232 20058 30/// 59022
AAXX 29181 76423 32580 40000 10158 21056 38174 40221 58010 81254 91740333 10167 20010 30/// 56999 59013 81830 82357 81067
AAXX 29181 76458 32970 12004 10210 20140 30149 40154 50002 80005 91738333 10238 20092 30/// 56//8 59017 81070
AAXX 29181 76491 32960 10000 10247 20128 39813 40212 57015 80004 91750333 10251 20050 30/// 56009 59001
AAXX 29181 76499 31860 10000 10230 20146 30172 40194 57009 70344 8103091750 333 10231 20076 30/// 58003
AAXX 29181 76525 32980 41902 10136 21100 37488 40157 57001 80001 91740333 10136 20081 30/// 56//5 59010 84080
AAXX 29181 76539 32970 03602 10168 20014 38183 40231 57004 91750 33310200 20002 30/// 59001
AAXX 29181 76543 31975 23601 10248 20160 30179 40212 58013 70140 8000591745 333 10248 20104 30/// 59008
AAXX 29181 76548 32975 22102 10232 20168 30196 40206 58007 80002 91740333 10236 20140 30/// 56005 59012 82075
AAXX 29181 76556 32970 61202 10250 20129 39126 40157 51002 80006 91735333 10258 20120 30/// 56003 59014 86070
AAXX 29181 76571 32975 30000 10198 21038 38184 40188 55006 80004 91748333 10200 20098 30/// 56005 59010
AAXX 29181 76577 32970 12304 10196 20144 38059 40178 58004 80001 91740333 10200 20085 30/// 56005 59013
AAXX 29181 76581 32968 31802 10208 20100 39083 40214 57015 83010 91750333 10215 20053 30/// 56020 59005 83460
AAXX 29181 76585 32980 00901 10200 20132 30032 40193 58015 91740 33310225 20078 30/// 59008
AAXX 29181 76593 32370 30505 10262 20240 30181 40183 57015 81130 91750333 10287 20175 30/// 5611/ 59017 81820 82330 91006 91505
AAXX 29181 76612 32962 31001 10212 20053 38491 40185 50000 80001 91749333 10230 20085 30/// 56006 59011 83072
AAXX 29181 76625 32960 10301 10225 20039 38157 40139 57009 80004 91755333 10227 20102 30/// 56009 59010 81069
AAXX 29181 76632 31965 01802 10164 20070 37650 40159 57003 70500 91740333 10172 20080 30/// 59013 98565
AAXX 29181 76634 31570 23102 10208 20070 37864 40192 57012 70500 8240091750 333 10214 20068 30/// 565// 59010 82834
AAXX 29181 76654 31956 01802 10296 20219 30158 40162 52003 70544 91800333 10296 20224 30/// 59011
AAXX 29181 76658 31556 22302 10282 20180 39641 40146 52012 70540 8090491749 333 10291 20180 30/// 56801 59020 81822 81070 9408298904
AAXX 29181 76662 32670 31801 10238 20096 38478 40174 57002 82202 91730333 10250 20088 30076 56/0/ 59011 82833 81070
AAXX 29181 76680 31558 20501 10193 20061 37767 40106 57007 70500 8210091755 333 10197 20090 30/// 56700 59012 82828
AAXX 29181 76681 31960 00000 10200 20102 37795 40172 57010 70500 91745333 10200 20042 30/// 59018
AAXX 29181 76683 32668 10601 10210 20092 37842 40214 56009 81100 91745333 10218 20048 30/// 56200 59014 81840
AAXX 29181 76685 31950 03601 10206 20036 37871 40161 57016 70544 91750333 10208 20065 30/// 59013
AAXX 29181 76687 31562 70701 10178 20143 38711 40217 57003 70222 874//91737 333 10180 20100 30/// 563// 59008 82824 85622
AAXX 29181 76692 31456 70204 10256 20192 30172 40191 58003 70544 8527/91745 333 10260 20191 30/// 5633/ 59034 81817 84640
AAXX 29181 76695 32560 30403 10278 20219 30159 40164 57015 81250 91750333 10283 20169 30/// 5620/ 59021 81820 82360
AAXX 29181 76698 32560 60601 10280 20214 30167 40178 57015 86200 91750333 10295 20200 30/// 56200 59015 86820
AAXX 29181 76737 31480 71602 10184 20140 38803 40204 50000 70322 876//91735 333 10191 20100 30/// 562// 59007 85713 91105 91514
AAXX 29181 76743 31457 70001 10260 20218 30167 40175 57011 70211 872//91750 333 10260 20210 30/// 560// 59019 87817
AAXX 29181 76750 32560 30902 10296 20213 30159 40169 57007 83100 91750333 10305 20188 30/// 56100 59022 83820
AAXX 29181 76762 32504 01801 10278 20230 38781 40159 58001 81200 91730333 10280 20158 30/// 56100 59012 81830
AAXX 29181 76773 31568 32601 10234 20149 38436 40165 57014 70544 8310091748 333 10237 20060 30/// 56900 59022 83820
AAXX 29181 76775 31570 10401 10260 20077 38535 40184 57013 70300 8110091735 333 10284 20090 30/// 56800 59025 81824
AAXX 29181 76805 32570 11504 10297 20232 30138 40144 57009 81100 91750333 10324 20220 30/// 561// 58/// 81830
AAXX 29181 76833 32970 03606 10298 20187 30142 40144 57013 91745 33310298 20214 30/// 59007 92000
AAXX 29181 76840 32960 00204 10294 20176 30099 40155 52003 91745 33310298 20197 30/// 58003
AAXX 29181 76843 32565 10801 10246 20165 39514 40162 57009 81100 91735333 10254 20158 30/// 567// 59021 81823
AAXX 29181 76848 32770 11601 10260 20128 38389 40103 57009 81200 91750333 10260 20110 30/// 56100 59025 81850
AAXX 29181 76903 31680 32903 10315 20206 30007 40137 57015 70122 8320091755 333 10320 20233 30/// 56100 59009 83833
AAXX 29181 76160 32962 00501 10174 21015 39921 40174 52003 91730 33310174 20040 30/// 59034
AAXX 29181 76243 32974 01501 10184 20052 39884 40186 57017 91740 33310236 20040 30/// 59025
AAXX 29181 76311 32980 00000 10226 20060 39873 40158 50001 91740 33310226 20061 30/// 59017
AAXX 29181 76405 32980 43603 10231 20089 30150 40172 52006 80001 91750333 10231 20138 30/// 56005 59021 84070
AAXX 29181 76412 32966 02201 10190 20112 30135 40180 52015 91745 33310200 20068 30/// 59004
AAXX 29181 76640 31358 32702 10206 20184 30207 40219 52023 70200 822/891740 333 10222 20152 30/// 567/9 59017 82809
AAXX 29181 76647 32570 73602 10274 20203 30160 40191 57003 875// 91750333 10286 20170 30/// 568// 59014 87629
AAXX 29181 76656 32975 40000 10245 20103 38520 40176 58006 80008 91750333 10252 20070 30/// 56005 59012 84280
AAXX 29181 76855 32980 01301 10308 20228 30086 40135 51008 91740 33310315 20210 30/// 59002 92000
AAXX 29184 91503 31470 20000 10255 20245 40070 55005 70500 81208 333 56900 81816
AAXX 29184 91517 01460 80000 10245 20241 40079 57001 60051 75085 888// 333 56699 60057 83815 85625
AAXX 29184 43533 12460 42906 10271 20206 30105 40108 60001 81202 333 59008 81818 84077
AAXX 29184 43555 12462 33209 10278 20230 30106 40109 60001 81101 333 59012 81818
AAXX 29184 43577 12460 42907 10276 20240 30109 40111 60001 81202 333 59009 81818 84077
AAXX 29184 43588 12462 73208 10277 20244 30099 40111 60001 82208 333 59007 82818 87276
AAXX 29184 43599 12462 72906 10280 20244 30110 40112 60001 82202 333 59006 82818 86075
AAXX 29184 91503 31470 20000 10255 20245 40070 55005 70500 81208 333 56900 81816
AAXX 29184 91517 01460 80000 10245 20241 40079 57001 60051 75085 888// 333 56699 60057 83815 85625
AAXX 29184 43533 12460 42906 10271 20206 30105 40108 60001 81202 333 59008 81818 84077
AAXX 29184 43555 12462 33209 10278 20230 30106 40109 60001 81101 333 59012 81818
AAXX 29184 43577 12460 42907 10276 20240 30109 40111 60001 81202 333 59009 81818 84077
AAXX 29184 43588 12462 73208 10277 20244 30099 40111 60001 82208 333 59007 82818 87276
AAXX 29184 43599 12462 72906 10280 20244 30110 40112 60001 82202 333 59006 82818 86075
BBXX CGBN 29184 99447 70636 46/// /1801 11000 21068 49958 53005 7//// 8//// 22200 0//// 2////
BBXX VCWL 29184 99468 70712 46/// /2506 11149 21215 40073 51007 7//// 8//// 22200 0//// 2////
BBXX CGDG 29184 99447 70636 46/// /2423 11019 21016 49954 53004 7//// 8//// 22200 0//// 2////
BBXX VAAP 29184 99446 70635 46/// /2523 11007 21074 49949 53006 7//// 8//// 22200 0//// 2////
BBXX CGBY 29184 99487 71235 46/// /2808 10078 20018 40169 53014 7//// 8//// 22200 0//// 2////
BBXX CGHL 29184 99476 70527 46/// /2820 10057 20003 49905 53006 7//// 8//// 22200 0//// 2////
BBXX CGTF 29184 99476 70527 46/// /1419 10055 20001 49905 53006 7//// 8//// 22200 0//// 2////
BBXX CG2958 29184 99531 71291 46/// /1117 10018 20009 40103 51011 7//// 8//// 22200 0//// 2////
BBXX CGJK 29184 99484 71234 46/// /1806 10070 20037 40170 53006 7//// 8//// 22200 0//// 2////
BBXX CGDR 29184 99484 71234 46/// /1705 10078 20064 40172 53006 7//// 8//// 22200 0//// 2////
BBXX CGDX 29184 99468 70712 46/// /2418 11143 21207 40067 53009 7//// 8//// 22200 0//// 2////
BBXX VCLM 29184 99468 70712 46/// /2419 11148 21209 40063 51008 7//// 8//// 22200 0//// 2////
BBXX CGBR 29184 99507 71275 46/// /0803 10036 20035 40127 56004 7//// 8//// 22200 0//// 2////
BBXX CGSB 29184 99479 70695 46/// /3107 11125 21172 49993 51012 7//// 8//// 22200 0//// 2////
BBXX VCBW 29184 99468 70712 46/// /2326 11145 21201 40108 53050 7//// 8//// 22200 00021 2////
BBXX VXKF 29184 99462 70602 46/// /2326 11021 21080 49868 58001 7//// 8//// 22200 0//// 2////
BBXX CGDT 29184 99468 70712 46/// /2418 11143 21209 40071 51007 7//// 8//// 22200 0//// 2////
BBXX VOLG 29184 99463 70582 46/// /2434 10024 21007 49875 53010 7//// 8//// 22262 0//// 2////
BBXX VRYO3 29184 99456 70735 46/// /0000 10265 20062 40118 5//// 7//// 8//// 22200 0//// 2////
BBXX VOKJ 29184 99492 70674 46/// /2632 11122 21163 49871 51065 7//// 8//// 22253 0//// 2////
AAXX 29184 68399 16/// /1808 10232 20151 30051 40160 52015 69922 333 10320 20232 91082 555 20002 91016
AAXX 29184 68383 36/// /0000 10222 20144 39925 48576 52012 333 10290 20222 91000 555 91017
BBXX VOKF 29184 99490 70669 46/// /2535 11117 21154 49871 51014 7//// 8//// 22200 0//// 2////
BBXX CGCC 29184 99463 70725 46/// /2414 11138 21195 40105 57002 7//// 8//// 22200 0//// 2////
AAXX 29184 81401 06/// /0709 10307 20212 30113 40119 60001 333 60007 59007 555 60005
AAXX 29184 81408 06/// /0605 10280 20229 30109 40117 60011 333 60017 59004 555 60015
BBXX VOFG 29184 99456 70614 46/// /2622 11011 21076 49911 55005 7//// 8//// 22200 0//// 2////
BBXX 3FZK3 29184 99493 71230 46/// /1302 10065 20054 40167 53026 7//// 8//// 22200 0//// 2////
AAXX 29184 78388 111578 10716 10284 20213 30143 40152 60001 70500 81800 333 01200 10299 20214 59007 81824
AAXX 29181 01001 11670 53608 11058 21135 30059 40071 53013 60002 70222 84860 333 11054 91112
AAXX 29181 11423 NIL
AAXX 29181 11487 01580 72609 10025 21021 39563 40197 58017 69902 72682 8687/ 333 10033 69905 82826 85650 87357 91015 91115
AAXX 29181 11518 02786 42308 10025 21019 39734 40182 58016 69912 82540 333 10051 60005 82650 91113
AAXX 29181 11603 02680 72004 10030 21025 39678 40168 57010 69912 87500 333 10043 60005 87646 91009
AAXX 29181 11659 02675 62603 10017 21015 39546 40199 58006 69912 86500 333 10037 60005 85636 86642 91111
AAXX 29181 11723 02782 72504 10039 21029 39901 40204 50001 69912 87500 333 10048 60005 87650
AAXX 29181 11782 02765 62003 10023 21004 39884 40196 53001 60002 82538 333 10039 60005 82656 86268
AAXX 29184 64570 31465 82006 10236 20212 39613 40123 71799 8697/ 333 10294 58009 85616 82925 88460 94944 95834 94946 95836
AAXX 29184 64500 32465 62406 10270 20232 30098 40111 86500 333 10280 58007 83610 86640
AAXX 29184 78388 111578 10716 10284 20213 30143 40152 60001 70500 81800 333 01200 10299 20214 59007 81824
AAXX 29184 81401 06/// /0709 10307 20212 30113 40119 60001 333 60007 59007 555 60005
AAXX 29184 81408 06/// /0605 10280 20229 30109 40117 60011 333 60017 59004 555 60015
BBXX VAAZ 29184 99/// ///// 46/// /2327 10030 20027 49839 53009 7//// 8//// 22200 0//// 2////
BBXX VCSZ 29184 99455 70735 46/// /2304 11141 21182 40130 56005 7//// 8//// 22200 0//// 2////
BBXX CGJV 29184 99457 70627 46/// /2222 11045 21069 49915 55000 7//// 8//// 22200 0//// 2////
BBXX C6SI6 29184 99356 11409 46/// /3519 10075 20004 40169 53001 7//// 8//// 22213 0//// 2////
BBXX DBBC 29181 99535 10100 46/// /2208 10047 20032 40049 57026 22210 00063
AAXX 29184 60150 32960 12904 10103 20033 39643 40311 52007 81030 333 10148 81360
AAXX 29184 60096 NIL
AAXX 29184 60101 NIL
AAXX 29184 60115 NIL
AAXX 29184 60135 NIL
AAXX 29184 60155 NIL
AAXX 29184 60156 NIL
AAXX 29184 60230 NIL
AAXX 29184 60252 NIL
BBXX 41101 29184 99146 70562 46/// /0822 10268 20220 40154 57018 22200 00269 10906 70031 555 1/028
BBXX DBND 29185 99536/10086 46/// /2309 10053 20043/40441 57033/ 22220 00461
BBXX DBEB 29185 99538 10481 41/// /2413 10053 20053 40031 57027 7//// 22200 04060
BBXX DBFH 29181 99535 10086 46/// /2208 10053 20043 40046 57033 22270 00057
AAXX 29184 60060 32958 10405 10165 20125 40287 52001 80002 333 10182 81070 95300
AAXX 29184 60107 32965 22002 10106 20073 40289 50001 80002 333 10153 82070 95300
AAXX 29184 60127 32960 42704 10120 20039 39697 40303 52007 80002 333 10160 84073
AAXX 29184 60141 32560 33204 10094 20032 39629 40310 53005 81502 333 10152 81630 83073
AAXX 29184 60185 32970 10405 10154 20078 40304 51003 80002 333 10188 81070
AAXX 29184 60191 32965 20000 10124 20066 40302 52001 80002 333 10152 82073
AAXX 29184 60210 32870 53402 10108 21052 39083 48595 52011 82032 333 10135 82358 84070
AAXX 29184 60220 32958 00210 10158 20093 40290 51004 333 10176
AAXX 29184 60265 32970 42801 10138 21094 38961 48583 55000 80002 333 10159 84070
AAXX 29184 60105 NIL
AAXX 29184 60106 NIL
AAXX 29184 60190 NIL
AAXX 29184 60195 NIL
AAXX 29184 60318 NIL
BBXX DBCK 29181 99/// ///// 46/// ///// 10053 20053 40043 57033 22220 00056
BBXX DBBI 29181 99535 10100 46/// /2309 10047 20047 40049 57027 22240 00056
AAXX 29184 78970 11568 60816 10302 20223 30114 40139 69931 71582 84842 333 01299 10320 20247 58001 82820 83080 90916
AAXX 29184 78962 NIL
AAXX 29184 17600 12570 10407 10103 20063 30203 40213 53004 60002 81100 333 10180 20096 81830
AAXX 29184 17601 12675 13604 10111 20071 30179 40210 53005 60002 81500 91750 333 10168 81638
AAXX 29184 17607 NIL
AAXX 29184 17609 12965 03507 10104 20065 30212 40216 51008 60002 333 10165 20092
BBXX DBKR 29181 99541 10121 46/// /2308 10044 20041 40036 57026 22200 00053
AAXX 29184 60285 32960 00214 10173 20098 40275 53003 333 10223
AAXX 29184 60340 32565 11406 10107 20063 40300 53003 81100 333 10166 81820
BBXX DBBA 29181 99541 10121 46/// /2503 10047 20029 40037 57026 22220 00058
AAXX 29181 11812 36/// /3007 10012 21014 39501 42800 52001 333 10017
AAXX 29181 11813 12560 62704 10037 21011 39862 40217 53001 60002 82530 333 10038 82628 86359
AAXX 29181 11816 12762 72904 10047 21001 30049 40215 56002 60002 84540 333 10047 84650 86364
AAXX 29181 11819 36/// /2202 10011 20004 39997 40220 52002 333 10019
AAXX 29181 11826 11220 82002 10014 20004 30010 40215 52002 69902 71022 886// 333 10019 88704
AAXX 29181 11841 11321 83002 10008 21000 39822 40208 56002 69912 71052 886// 333 10008 88707
AAXX 29181 11855 11256 82602 10015 20006 30047 40218 50000 69902 71022 886// 333 10023 88706
AAXX 29181 11856 36/// /2902 10006 21002 39889 40217 54000 333 10010
AAXX 29181 11858 11558 82603 10012 20000 30062 40218 50001 60002 71022 885// 333 10027 88623
AAXX 29181 11867 11224 82102 10008 21006 39889 40214 53001 60002 71022 886// 333 10010 88706
AAXX 29181 11880 11550 89901 10016 20016 30040 40216 53002 60002 71022 885// 333 10018 88620
AAXX 29181 11900 16/// /3101 10009 21004 39871 40215 54000 69902 333 10012
AAXX 29181 11903 11550 73201 10004 20004 39815 40206 53004 69902 71022 87500 333 10019 87632
AAXX 29181 11916 11/00 90109 11090 21106 37911 48434 58004 60002 74944 333 11024 44048 89/00 91121 93598
AAXX 29181 11918 12580 82404 10001 21020 39359 42788 53001 60002 875// 333 10005 41998 87620
AAXX 29181 11927 11358 89901 10007 21002 39936 40205 58002 60002 71022 885// 333 10025 83608 88618
AAXX 29181 11930 12680 73303 11108 21227 37289 47953 56006 60002 87070 333 11029 44030 87333 91009 91122 444 66175
AAXX 29181 11933 11/03 99901 11041 21041 38639 48454 55004 60002 74544 333 11017 44037 89/00
AAXX 29181 11934 12475 72804 10005 21017 39349 42782 55003 60002 875// 333 10013 87615
AAXX 29181 11938 11/01 92302 11027 21031 39105 42779 56001 60002 74522 333 11015 44016 89/00
AAXX 29181 11952 16/// /1402 11006 21019 39342 42783 57003 60002 333 10012
AAXX 29181 11958 36/// /0000 11038 21044 38726 48456 57004 333 11025
AAXX 29181 11968 12465 82001 10006 21007 39911 40200 57008 69912 886// 333 10018 84710 88718
AAXX 29181 11976 11558 80000 10012 21002 39929 40200 55002 69902 71062 885// 333 10024 88630
AAXX 29181 11978 12560 81601 10013 20004 30065 40199 55006 60002 885// 333 10029 88623
AAXX 29181 11993 11262 89901 10018 20012 39982 40204 57003 69902 70252 886// 333 10028 88705
BBXX 61001 29184 99434 10078 46/// /0307 10128 20078 40194 52014 22200 00142 10802 70009
BBXX 41010 29181 99289 70785 46/// /2504 10190 40196 58019 91750 22200 00236 11502 20301 300// 41502 70010 333 91206 555 11043 22045
BBXX 41009 29181 99285 70802 46/// /3104 10174 20075 40205 58016 91750 22200 00236 11502 20401 300// 41502 70009 333 91205 555 11042 22043
BBXX 42057 29181 99168 70815 46/// /0506 10275 20216 40160 58015 91750 22200 00277 10802 20501 3//// 40802 70011 333 91208 555 11062 22065 31746 40508 61749 052063 060063 057068 057067 060067 056064 80607 91723
AAXX 29184 78862 11578 31014 10275 20216 30148 40171 60001 70511 83800 333 10286 20247 59003 81822 83635
AAXX 29184 TAF TUPJ 281000Z 2812/2912 08013KT 9999 SCT022 PROB40 TEMPO 2812/2912 BKN015
AAXX 29184 TAF TKPN 281000Z 2812/2912 08013KT 9999 SCT022 PROB40 TEMPO 2812/2912 BKN015
AAXX 29184 2504/2512 06013G23KT SHRA
AAXX 29184 G28KT SHRA PROB30 TEMPO 2412/2424 07016G26KT SHRA
AAXX 29184 TAF TUPJ 232200Z 2400/2424 07016KT 9999 SCT020 SCT040 PROB40 TEMPO 2400/2412 07018G28KT SHRA TEMPO 2412/2424 07016G26KT SHRA
AAXX 29184 TAF TUPJ 041000Z 04012/0512 07008KT 9999 SCT016 BKN038 SCT270 TEMPO 0412/0512 SHRA BKN015 PROB40 TEMPO 0418/0512 5000 SHRA BKN014 BKN036 PROB30 0420/0512 4000 TSRA FEW012CB
AAXX 29184 918 4000 TSRA FEW012CB
AAXX 29184 N015 BKN036 PROB40 TEMPO 0704/0724 3000 +TSRA SCT011CB BKN012 BECMG 0712/0714 14008KT
AAXX 29184 21/2712 07017G28KT 5000 SHRA BKN015 BKN036 PROB TEMPO 2700/2712 4000 TSRA FEW013CB
AAXX 29184 PROB30 TEMPO 0800/0806 4000 TSRA FEW012CB PROB40 TEMPO 0800/0824 2000 +SHRA/TSRA SCT010CB BKN012 BKN250
BBXX 51101 29181 99243 71621 46/// /0305 10227 20182 40231 53008 91750 22200 00236 11405 20401 332// 41405 70027 333 91206 555 11051 22054 31702 40908 61749 036049 043057 068063 087056 095057 097052
BBXX 46061 29181 99602 71468 46/// /2107 11022 49891 53040 91750 22200 00055 11103 20502 300// 41102 70014 333 91210 555 11074 22077 31735 42212 61749 215073 214075 209085 205080 204082 197085
AAXX 29184 78384 12460 21507 10290 20229 40167 60001 82202 333 10298 20223 59007 70000 82818
AAXX 29184
AAXX 29184 78383 12460 11110 10289 20226 40170 60001 81100 333 10295 20229 59005 70000 81818
BBXX 44172 29181 99445 70634 46/// ///// 1//// 91801 22200 00060 11308 21006 318// 41306 70041
AAXX 29184 86011 01560 80000 10232 20211 39948 40108 56010 60081 79592 8697/ 333 60087 85830 81940 88457
AAXX 29184 86033 32470 72812 10292 20231 39995 40089 57017 82270 333 81710 81840 87457
AAXX 29184 86065 NIL
AAXX 29184 86068 32470 80903 10276 20225 39887 40076 57018 8587/ 333 85815 88457
AAXX 29184 86086 32570 60903 10354 20198 39966 40052 57025 83106 333 83833 83270
AAXX 29184 86097 01630 72405 10302 20225 39431 40053 57032 69971 79596 85970 333 69977 83833 82940 83457
AAXX 29184 86128 NIL
AAXX 29184 86134 32670 62315 10356 20199 39976 40059 57028 81205 333 81840 82270
AAXX 29184 86170 32570 62010 10356 20176 39954 40053 57018 80006 333 86270
AAXX 29184 86185 32570 51808 10350 20219 39969 40059 57028 82207 333 82833 84270
AAXX 29184 86192 32570 30000 10340 20223 39881 40091 57012 83200 333 83820
AAXX 29184 86210 32570 40906 10334 20209 39708 40037 57033 84200 333 84833
AAXX 29184 86218 32970 62312 10350 20161 39973 40065 57029 80006 333 86270
AAXX 29184 86221 32670 23104 10344 20205 39977 40106 57009 82100 333 82840
AAXX 29184 86233 32670 23602 10336 20190 39901 40084 57017 82100 333 82840
AAXX 29184 86234 32570 42408 10344 20187 39839 40014 58016 83204 333 83630 83070
AAXX 29184 86246 32570 40408 10334 20227 39792 40068 57024 84200 333 84827
AAXX 29184 86251 32470 72304 10318 20182 39892 40054 57030 885// 333 88620
AAXX 29184 86255 32670 41408 10328 20159 30005 40071 57036 82204 333 82840 82070
AAXX 29184 86260 32570 40000 10310 20187 39932 40080 57007 84200 333 84833
AAXX 29184 86268 32670 40504 10330 20193 39923 40082 52002 84100 333 84840
AAXX 29184 86285 32670 52308 10316 20234 39802 40073 58024 85200 333 85840
AAXX 29184 86297 32570 42308 10312 20169 39931 40032 57016 84800 333 84830
AAXX 29184 78384 12460 21507 10290 20229 40167 60001 82202 333 10298 20223 59007 70000 82818
AAXX 29184 78383 12460 11110 10289 20226 40170 60001 81100 333 10295 20229 59005 70000 81818
AAXX 29184 78970 11568 60816 10302 20223 30114 40139 69931 71582 84842 333 01299 10320 20247 58001 82820 83080 90916
AAXX 29184 78962 NIL
AAXX 29184
BBXX 46232 29181 99325 71174 46/// ///// 1//// 91738 22200 00146 11303 20802 327// 41302 70013
BBXX 46243 29181 99462 71241 46/// ///// 1//// 91759 22200 00090 11207 21004 326// 41205 70033
BBXX 46236 29181 99368 71219 46/// ///// 1//// 91750 22200 00122 11304 21002 328// 41303 70020
BBXX 46229 29181 99438 71246 46/// ///// 1//// 91751 22200 00092 11107 21004 328// 41106 70036
BBXX 46212 29181 99408 71243 46/// ///// 1//// 91742 22200 00104 11306 21004 329// 41304 70030
BBXX 46225 29181 99329 71174 46/// ///// 1//// 91744 22200 00149 11202 20901 328// 41201 70010
BBXX 46213 29181 99403 71247 46/// ///// 1//// 91754 22200 00103 11205 21003 329// 41204 70026
BBXX 46215 29181 99352 71209 46/// ///// 1//// 91738 22200 00126 11304 20903 327// 41303 70019
BBXX 46218 29181 99345 71208 46/// ///// 1//// 91802 22200 00135 11305 20903 330// 41304 70025
BBXX 46224 29181 99332 71175 46/// ///// 1//// 91736 22200 00145 11301 21001 325// 41301 70006
BBXX 46214 29181 99379 71235 46/// ///// 1//// 91750 22200 00124 11305 20903 330// 41305 70027
BBXX 44100 29181 99363 70756 46/// ///// 1//// 91752 22200 00125 11502 20602 307// 41501 70010
BBXX 41110 29181 99341 70777 46/// ///// 1//// 91751 22200 00140 11501 20801 312// 41501 70006
BBXX 41113 29181 99284 70805 46/// ///// 1//// 91751 22200 00215 11301 20701 308// 41301 70005
BBXX 41112 29181 99307 70813 46/// ///// 1//// 91751 22200 00167 11701 308// 41701 70005
AAXX 29184 61968 16/// /3102 10270 20241 40117 60002 333 10323 59005 90710 91106 555 60005
AAXX 29184 61970 16/// ///// 10288 20252 40105 60002 333 10335 59002 555 60005
AAXX 29184 61972 16/// /1908 10275 20229 40099 60002 333 10304 58005 90710 91114 555 60005
AAXX 29184 61976 16/// /1110 10279 20233 40120 60002 333 10322 59005 90710 91115 555 60005
AAXX 29184 61980 12562 21210 10244 20207 40137 60002 82800 333 10291 59011 81826 90710 91114 924/7 555 60005
AAXX 29184 67005 14/// /3205 10277 20239 40115 60002 700// 333 10316 59005 90710 91114 555 60005
BBXX 44099 29181 99369 70757 46/// ///// 1//// 91752 22200 00110 11401 21001 309// 41401 70007
AAXX 29181 10004 46/60 /2414 10066 20044 30009 40009 58038 222// 00074 333 10083 20045 55300 91123 91218
AAXX 29184 16084 11830 22204 11020 21020 30046 40222 53010 69902 71051 82030 333 10028 82357
AAXX 29184 71805 04560 82337 10034 21006 39892 49901 53007 60032 700// 333 10066 20029 60007 91050 90710 91156 555 60005
AAXX 29184 16021 NIL
AAXX 29184 16022 11/08 90113 11050 21050 37832 48481 56001 69942 74974 333 11020 43013 89/02 92812 93102
AAXX 29184 16033 11557 72502 11002 21009 38797 48500 53001 60022 71072 87500 333 10016 43021 87620 92822 93197
AAXX 29184 16040 11408 80801 11010 21017 39289 42811 53005 60022 77777 886// 333 10000 43010 88710 93103
AAXX 29184 16052 11560 10638 11162 21204 36575 47014 56002 69902 70274 81040 333 11126 49999 81320 93199
AAXX 29184 16061 12962 02905 10050 20050 39360 42806 51007 60002 333 10062
AAXX 29184 16098 11565 73502 10052 20043 30155 40207 53004 60022 72162 83530 333 10086 83630 86359
AAXX 29184 16138 11412 80000 10036 20018 30201 40212 53006 69942 76064 886// 333 10038 88710
AAXX 29184 16148 11540 82910 10060 20054 30192 40205 53004 60002 71022 8653/ 333 10080 86620
AAXX 29184 16168 12380 60607 10068 20048 39424 42784 56005 60002 82720 333 10076 82809 86457
AAXX 29184 16172 11558 60000 10048 20020 39898 40203 55002 60002 71022 83530 333 10072 83630 83357
AAXX 29184 16179 12565 80000 10052 20034 39503 42793 53002 60002 8427/ 333 10072 84827 85358
AAXX 29184 16224 11857 63304 10080 20051 39849 40170 55001 60002 71022 86080 333 10092 86357
AAXX 29184 16232 12998 02205 10090 20021 30097 40151 57030 60002 333 10118 555 0////
AAXX 29184 16245 11558 50905 10092 20075 30150 40177 56005 60012 71065 82130 333 10134 82830 83356
AAXX 29184 16253 11550 30201 10048 20033 30172 40185 56003 60002 71000 81530 333 10132 81625 83357
AAXX 29184 16258 12470 20000 10026 21035 39176 42783 57002 60002 81201 333 10054 81615
AAXX 29184 16263 12975 02606 10028 20025 38911 48473 56006 60002 333 10044
AAXX 29184 16294 NIL
AAXX 29184 16337 12998 01202 10082 20044 39602 40178 56008 60002 333 10120 555 0////
AAXX 29184 16344 11358 62608 10004 20004 38294 48480 57006 60002 72842 84230 333 10016 43048 84607 83356 95050 95100
AAXX 29184 16434 11462 70000 10046 20026 38982 48481 56005 60002 70342 84870 333 10110 82810 83618 86358 95013 95103
AAXX 29184 16450 11260 40000 10072 20072 39072 48535 56008 60002 70141 83270 333 10112 83806 83358
AAXX 29184 16459 11458 52503 10092 20092 30147 40183 55003 60002 71022 82130 333 10148 82815 84360
AAXX 29184 16546 11562 83008 10108 20051 30162 40191 53004 69902 70262 8583/ 333 10138 83820 84630 85356
AAXX 29184 16564 12597 72922 10120 20073 30037 40179 54000 60002 85430 333 10156 85627 83358 555 0////
AAXX 29181 06431 NIL
AAXX 29181 06432 NIL
AAXX 29181 06449 11467 82410 10065 20047 39938 40168 58027 60032 72582 878// 333 10065 82813 85625 91115 91210
AAXX 29181 06450 12561 82408 10082 20042 30119 40135 58034 60022 84430 333 10083 84622 88358 91114 91209
AAXX 29181 06458 NIL
AAXX 29181 06465 NIL
AAXX 29181 06478 11463 82309 10059 20041 39937 40159 58030 60022 72162 875// 333 10059 83715 87642 91116 91210
AAXX 29181 06496 NIL
AAXX 29184 89642 40/// /2110 10010 21012 39763 49815 51021
AAXX 29181 06407 12562 72513 10087 20058 30135 40141 56031 60022 83872 333 10087 81822 83656 85358 91119 91213
AAXX 29181 06447 NIL
AAXX 29184 16008 NIL
AAXX 29184 16084 NIL
AAXX 29184 16088 11822 63004 10019 20019 30097 40219 53008 69902 71052 86070 333 10039 83357 83460
AAXX 29184 16110 12598 80808 10080 20025 30198 40202 53005 69922 888// 333 10112 84825 84635 555 0////
AAXX 29184 16134 11/01 90108 11028 21038 37798 48486 53002 60002 74942 333 10016 44020 89/01 92713 92845 95090 95190
AAXX 29184 16153 12998 02405 10092 20046 39928 40196 53001 60002 333 10150 555 0////
AAXX 29184 16158 12562 70000 10082 20048 30184 40192 53006 60002 81170 333 10114 81830 83358 85461
AAXX 29184 16206 12880 63505 10074 20062 30173 40182 53004 60002 83031 333 10126 83357
AAXX 29184 16219 42965 00308 11012 21015 38086 48475 57009 6///2 333 10002 40003 92860
AAXX 29184 16252 12966 00000 10036 21010 39234 42793 56003 60002 333 10074
AAXX 29184 16280 11497 62008 10106 20075 39948 40171 56010 69902 70162 85870 333 10118 83815 84625 555 0////
AAXX 29184 16310 12998 00203 10094 20052 39954 40178 57006 60002 333 10126 555 0////
AAXX 29184 16320 12460 31701 10070 20052 30173 40186 56008 60002 81501 333 10136 81615 555 0////
AAXX 29184 16325 12597 43306 10110 20082 30170 40184 57007 60002 84500 333 10120 84630 98065 555 0////
AAXX 29184 16360 12997 00605 10104 20064 30062 40199 56006 60002 333 10134 555 0////
AAXX 29184 16400 12497 23602 10104 20070 39900 40192 56009 60002 82270 333 10150 55300 82818 555 0218/
AAXX 29184 16420 12597 40000 10130 20075 30117 40183 57007 60002 82270 333 10164 82825 83358 555 0////
AAXX 29184 16429 11462 51102 10094 20087 30172 40183 56008 60042 70162 83240 333 10132 83818 84357
AAXX 29184 16470 12560 53600 10126 20100 39957 40194 56008 60002 85100 333 10154 41997 55300 22/// 85830 95010
AAXX 29184 16480 12497 30406 10120 20109 30104 40166 56001 60002 82230 333 10150 82815 555 0////
AAXX 29184 16522 12497 63210 10116 20085 39930 40175 55000 60002 86200 333 10132 55300 86815 555 0////
AAXX 29184 16539 12597 73316 10102 20064 30078 40194 56001 60002 87800 333 10130 83820 84625 555 0////
AAXX 29184 16550 12597 83008 10116 20079 39979 40160 56007 60002 8587/ 333 10146 81833 85640 555 0////
AAXX 29184 63980 32475 52804 10268 20239 40126 60002 83202 333 10310 59007 83818 84075 943// 91119
AAXX 29184 16045 NIL
AAXX 29184 16090 11725 83204 10050 20047 30132 40217 51004 60002 71042 8355/ 333 10068 83650 85359
AAXX 29184 16149 11430 82809 10072 20042 30178 40194 55003 60002 71022 888// 333 10090 85818 83640
AAXX 29184 16261 12962 20802 10080 20055 30108 40182 56003 60002 80001 333 10134 55300
AAXX 29184 16453 12997 00000 10128 20093 30104 40183 55002 60002 333 10168 55300 555 0100/
AAXX 29184 16560 11462 73216 10112 20054 30183 40189 53004 69902 70252 85870 333 10144 82815 85620
AAXX 29183 64501 32360 72106 10274 20239 3//// 4//// 875// 333 10287 5//// 83608 87626
AAXX 29184 13600 12960 22704 10060 20045 30151 40204 57010 60002 80001 333 10086
AAXX 29184 13610 11956 00000 11006 21054 39788 40229 57016 60002 71042 333 10010
AAXX 29184 13611 12662 42204 10082 20018 30104 40196 54000 60002 84500 333 10126 84640
AAXX 29184 13619 12660 30000 11006 21031 39428 42809 55009 60002 83500 333 10020 83643
AAXX 29184 13622 12665 30402 10078 21005 30180 40188 57006 60002 83500 333 10128 83640
AAXX 29184 13624 12965 01406 10024 20003 30149 40190 57007 60002 333 10150
AAXX 29184 13625 12960 81404 10030 20000 39985 40223 57019 60002 8803/ 333 10040 88360
AAXX 29184 13629 11657 30000 11024 21044 39128 42784 58004 60002 71011 83500 333 11010 47013 83640
AAXX 29184 13601 12960 00000 10066 20031 30074 40176 57006 60002 333 10128
AAXX 29184 13602 NIL
AAXX 29184 13623 12970 20000 10040 20003 30209 40215 57012 60002 82030 333 10090 82360
AAXX 29181 06400 12671 72412 10093 20057 30138 40149 56027 60012 82531 333 10094 81643 86365 91118 91213
AAXX 29181 06428 NIL
AAXX 29181 06451 11565 72408 10074 20044 30079 40146 58034 60022 70262 8353/ 333 10076 81622 83628 85360 91113 91210
AAXX 29181 06456 11360 82409 10054 20042 39809 40180 58025 60042 78086 878// 333 10055 81709 83815 87620 91114 91210
AAXX 29181 06476 17049 82405 10021 20015 39514 40188 58024 60022 76171 333 10023 88/01 91112 91207
AAXX 29181 06479 17564 /2307 10067 20048 30057 40137 58033 60032 78186 333 10068 83/23 85/28 87/32 91113 91210
AAXX 29181 06490 17265 82507 10036 20024 39593 40170 57026 60032 70065 333 10036 86/06 88/09 91114 91208
AAXX 29181 06590 11360 72408 10035 20025 39743 40203 57015 69992 76062 875// 333 10037 86708 91113 91209
AAXX 29184 78948 11468 71120 10284 20251 30157 40165 69981 71681 86801 333 03207 10297 20236 58005 70078 86816 86080 90920
AAXX 29181 89061 379// 01202 10035 20010 39791 49798 57002 70010 333 91004 91104
BBXX DBLK 29181 99534 30000 41497 72712 10010 21006 49913 53001 70272 878// 22200 04009 20504 326// 41007
AAXX 29184 78982 01482 51020 10285 20222 30123 40128 59021 60001 71511 82261 333 59002 60007 82817 84358
BBXX 51204 29181 99213 71581 46/// ///// 1//// 91752 22200 00243 11403 20702 331// 41401 70014
BBXX 52200 29181 99134 11448 46/// ///// 1//// 91745 22200 00286 10804 20804 308// 41101 70021
BBXX 51202 29181 99214 71577 46/// ///// 1//// 91740 22200 00239 11105 20704 306// 41102 70024
AAXX 29181 89061 379// 01202 10035 20010 39791 49798 57002 70010 333 91004 91104
BBXX 44008 29181 99405 70692 46/// /2811 10025 21036 40136 50000 91750 22200 00105 11007 20705 321// 41005 70034 333 91213 555 11112 22117 31746 42813 61749 279106 284102 283097 282103 290101 285102
BBXX 44039 29181 99411 70727 46/// /2704 11014 21100 40158 58021 91800 22200 00084 10401 70006 333 91206
BBXX 44060 29181 99413 70721 46/// ///07 11011 40146 56018 91800 22200 00088 333 91210 555 11072 22077
BBXX 46238 29181 99334 71195 46/// ///// 1//// 91750 22200 00138 11304 20903 329// 41302 70018
BBXX 46239 29181 99363 71221 46/// ///// 1//// 91751 22200 00123 11305 20903 331// 41304 70024
AAXX 29181 01062 11489 23505 11153 21177 30030 40044 52012 69902 70200 82800 333 11139 91109
AAXX 29181 01367 11450 82902 11022 21032 39423 49863 52018 60012 70222 886// 333 10004 91105
AAXX 29181 01492 11888 70203 10007 21006 39731 49848 52021 69912 70222 81078 333 10040 91104
AAXX 29181 01028 11680 80707 11089 21126 30001 40022 51010 60002 70320 84202 333 11084 91109
AAXX 29181 01049 16/// /1003 11041 21087 39927 49930 52002 69942 333 11025 91105
AAXX 29181 01218 11787 80403 10044 21013 39859 49880 53034 60012 70222 84280 333 10044 91106
AAXX 29181 01359 11689 52901 11008 21050 38955 49854 53015 60002 70222 85201 333 10018 91108
AAXX 29184 48601 11559 70408 10273 20217 30110 40114 60001 70522 82542 333 82625 83364 87077
AAXX 29184 48615 11560 72203 10237 20225 30117 40123 60001 70522 84548 333 84620 83364 87272
AAXX 29184 48620 11460 70101 10261 20240 30104 40113 60001 70522 82642 333 81710 87078
AAXX 29184 48647 11460 72801 10272 20243 30088 40113 60001 71322 82952 333 81917 86364
AAXX 29184 48650 11460 70504 10260 20221 30093 40112 60001 71322 82942 333 81917 84364 86078
AAXX 29184 48657 NIL
AAXX 29184 48665 12564 70405 10245 20222 30109 40119 60001 83572 333 83628 85364 85078
AAXX 29184 96413 NIL
AAXX 29184 96421 11264 81601 10238 20234 30067 40103 60121 76166 8552/ 333 82705 84618 88465
AAXX 29184 96441 11258 80903 10226 20218 30078 40105 60241 76196 8452/ 333 81705 84614 88464
AAXX 29184 96449 11457 72009 10243 20234 30086 40106 60031 76222 83571 333 83614 86365
AAXX 29184 96465 12470 70000 10264 20251 30059 40092 60001 82838 333 82812 83364 87279
AAXX 29184 96471 11462 71003 10253 20229 30091 40094 69921 76162 83848 333 82814 83635 87276
AAXX 29184 96481 12462 72901 10252 20236 30086 40105 60001 8387/ 333 81817 86364
AAXX 29184 96491 11460 70000 10254 20248 30092 40104 60001 71022 82832 333 82815 87078
AAXX 29181 01238 41465 72202 11051 21061 38732 49848 53022 70222 85940 333 11028 91105
AAXX 29181 45007 12665 60803 10179 20138 30210 40220 51005 60001 86500 333 58015 81635 85657
AAXX 29181 06206 46470 62612 10078 20035 39970 40023 56035 8//// 333 10083 81/19 83/22 85/29 91016 91118 91214
AAXX 29181 06207 47460 72613 10067 20032 39970 40023 56039 78000 8//// 333 10067 82/18 84/20 85/24 91016 91119 91215
AAXX 29181 06239 47464 7//11 10077 20041 39926 49987 56034 72385 8//// 333 10078 82/18 84/20 87/25 91014 91119 91215
AAXX 29181 06252 46/// /2817 10080 20039 39993 40039 56040 222// 00092 10707 333 10085 91020 91122 91218
AAXX 29181 06260 17464 82707 10064 20034 30091 40093 56036 60042 79298 8//// 333 10078 81/18 83/28 85/38 91014 91115 91208
AAXX 29181 06270 17463 72608 10065 20051 30042 40042 57043 60062 72386 8//// 333 10071 81/12 83/16 85/22 91012 91116 91211
AAXX 29181 06290 17356 82207 10059 20052 30040 40080 58046 60022 78186 8//// 333 10065 82/07 83/09 86/10 91011 91115 91210
AAXX 29181 06201 47563 62818 10073 20035 39963 40015 56023 78085 8//// 333 10078 83/20 84/30 85/41 91025 91125 91218
AAXX 29181 06203 47667 82716 10083 20046 30027 40078 56029 72185 8//// 333 10090 81/38 88/68 91021 91125 91220
AAXX 29181 06204 47465 82719 10081 20047 39996 40047 56034 70285 8//// 333 10086 82/17 84/20 85/25 91024 91125 91221
AAXX 29181 06205 47472 8//09 10052 20028 39922 49981 56031 78186 8//// 333 10075 81/13 83/19 85/23 91012 91119 91214
AAXX 29181 06208 47457 72609 10069 20043 39985 40034 58042 78181 8//// 333 10075 81/16 83/19 85/22 91013 91115 91212
AAXX 29181 06211 47567 72617 10079 20032 39976 40032 56027 723// 8//// 333 10081 82/22 83/33 87/60 91022 91123 91218
AAXX 29181 06212 47473 52617 1//// 2//// 39988 40051 56040 70180 8//// 333 1//// 81/18 84/60 85/72 91021 91122 91220
AAXX 29181 06235 17563 82714 10077 20044 30059 40059 56038 60012 70285 8//// 333 10082 82/22 84/26 85/31 91019 91120 91214
AAXX 29181 06240 17565 82609 10062 20043 30089 40084 56038 60022 72185 8//// 333 10082 81/24 85/33 88/37 91013 91119 91214
AAXX 29181 06251 17563 82612 10074 20048 30037 40038 56041 60052 72385 8//// 333 10074 82/22 83/26 86/43 91017 91118 91213
AAXX 29181 06258 46/// ///// 333 910// 911// 912//
AAXX 29181 06269 17461 72510 10074 20041 30082 40076 57039 60032 75885 8//// 333 10074 81/17 83/28 85/33 91014 91114 91210
AAXX 29181 06280 17357 82706 10056 20045 30045 40049 58040 60082 76285 8//// 333 10069 81/07 83/09 86/10 91011 91116 91211
AAXX 29181 06310 17560 82514 10084 20061 30110 40120 57032 60032 78010 8//// 333 10084 82/32 85/42 88/50 91019 91119 91217
AAXX 29181 06344 17467 82705 10061 20049 30109 40102 56034 60062 75885 8//// 333 10084 83/14 86/19 88/22 91013 91115 91211
AAXX 29181 06370 17563 82209 10068 20052 30090 40116 58038 60022 76185 8//// 333 10070 81/24 83/27 85/56 91012 91113 91209
AAXX 29181 06380 17466 82309 10064 20045 30003 40144 58034 60022 72385 8//// 333 10064 84/19 87/21 88/27 91013 91114 91210
AAXX 29181 45032 36/// /9901 10152 20137 30206 40223 54000
AAXX 29181 45035 36/// /0504 10160 20139 30180 40222 54000
AAXX 29181 45039 36/// /0001 10169 20142 30205 40221 57001
AAXX 29181 45044 36/// /0603 10168 20135 30122 40217 54000
AAXX 29181 45032 36/// /9901 10152 20137 30206 40223 54000
AAXX 29181 45035 36/// /0504 10160 20139 30180 40222 54000
AAXX 29181 45039 36/// /0001 10169 20142 30205 40221 57001
AAXX 29181 45044 36/// /0603 10168 20135 30122 40217 54000
AAXX 29181 45007 12665 60803 10179 20138 30210 40220 51005 60001 86500 333 58015 81635 85657
AAXX 29184 85032 11457 60310 10280 20240 39940 40101 57038 60011 71582 86904 333 56106 59008 85817 81920 86070
AAXX 29184 85043 11457 63606 10266 20236 39936 40095 57025 60021 71582 86904 333 56880 58004 85817 81920 86070
AAXX 29184 85104 12465 73206 10262 20254 39932 40092 57039 60511 84538 333 56776 59018 84615 87270
AAXX 29184 85109 12465 73208 10275 20248 39930 40090 57030 60071 85530 333 56770 59013 85615 87358
AAXX 29184 85114 32465 73010 10292 20246 39934 40097 57034 84908 333 56706 59016 83615 81923 86270
AAXX 29184 85116 32465 63206 10310 20235 39912 40089 57036 83204 333 56706 59024 83817 86070
AAXX 29184 85123 12465 73206 10290 20245 39920 40086 57032 60021 82204 333 56707 59015 82817 86070
AAXX 29184 85139 32465 63610 10334 20263 39856 40045 57037 85904 333 56806 59020 84817 81923 86070
AAXX 29184 85153 32465 73210 10310 20242 39908 40090 57025 85904 333 56706 59018 84817 81923 87070
AAXX 29184 85154 32470 63115 10315 20250 39910 40085 57036 84202 333 56706 59024 84817 86070
AAXX 29181 37682 32997 01801 11110 21116 38183 48581 52003 333 11010
AAXX 29181 37717 325// 60000 11045 21061 38141 48574 52003 86500 333 11002
AAXX 29181 37788 41995 00902 11053 21071 39299 40357 52012 71000 333 10051
AAXX 29184 91574 46/// ///// 29090 39835 49841 56011
AAXX 29184 91570 NIL
AAXX 29184 91598 NIL
AAXX 29184 91573 06/// /0000 10241 2//// 39979 4//// 55001 60001 333 58008 60007
AAXX 29184 91579 06/// /2704 10251 20230 30057 40065 55000 60001 333 58006 60007
AAXX 29184 91582 04570 /0000 10228 20221 30032 40066 55001 60002 700// 333 10288 20228 60007 90710 91100 555 60005
AAXX 29184 91583 06/// /2002 10218 20213 30052 40067 55001 60001 333 58005 60007
AAXX 29184 91587 06/// /0000 10221 20214 30024 40069 53002 60001 333 58008 60007
AAXX 29184 91590 04669 /0000 10229 20217 30028 40070 53001 69902 700// 333 10287 20229 60007 90710 91103 555 60005
AAXX 29184 91592 06/// /2305 10242 20225 39986 40070 55001 69921 333 58007 69927
AAXX 29184 91596 06/// /2202 10222 20212 39961 40070 55000 60001 333 58005 60007
AAXX 29184 91577 NIL
AAXX 29181 03951 17450 /2811 10099 20080 30237 40264 50007 69932 7811/ 87/// 333 10108 81/11 87/23 90710 91117
AAXX 29181 03953 11462 82908 10101 20087 30233 40270 58004 60032 72186 886// 333 10105 85711 86632 92437
AAXX 29181 03955 11475 62710 10086 20070 30042 40241 50007 69922 72186 85502 333 10094 81717 85620
AAXX 29181 03956 17574 /2807 10088 20063 30131 40209 50013 69932 72285 87/// 333 10104 87/21
AAXX 29181 03962 11470 72709 10095 20080 30207 40231 50003 60032 72586 8763/ 333 10102 81712 87715 85628
AAXX 29181 03963 17658 /2912 10094 20069 30194 40223 50009 60012 71085 83/// 333 10102 83/35 87/64 90710 91117
AAXX 29181 03966 17466 /2906 10079 20061 30123 40217 53007 69982 70385 83/// 333 10095 81/14 83/43 87/68
AAXX 29181 03967 11480 72710 10066 20039 30074 40189 53010 60012 70186 84502 333 10084 81716 83650 85070
AAXX 29181 03969 11572 62811 10068 20036 30074 40179 52010 60022 70186 82802 333 10083 81820 85070
AAXX 29181 03973 11465 83009 10057 20041 39948 40206 53008 60052 78082 883// 333 10078 83918 85630 87646 90710 91118
AAXX 29181 03976 11464 72909 10089 20046 30200 40212 52007 60012 72582 873// 333 10100 82716 82920 87630 90710 91118
AAXX 29181 03980 17560 /3214 10070 20034 30126 40151 52021 60032 72285 86/// 333 10084 83/26 86/50 90710 91123 91217
BBXX DBBH 29181 99383 10120 41/98 /3002 10134 20072 40186 57008 71311 22223 04160
AAXX 29181 10961 11/00 92617 11160 21178 37040 47003 56007 60062 74974 333 11101 21160 49205 55300 20000 40888 91121 91217 96478 96471 96449 96441
AAXX 29181 10044 46/// /2209 10038 20021 39987 40019 58019 222// 00054 333 10064 20018 55300 91123 91217
AAXX 29181 10124 46/// ///// 10054 2//// 39987 40025 57030 222// 00062 333 10075 20048 553// 911// 912//
BBXX VEP717 29184 99467 70487 41998 12245 10060 2006/ 49990 52013 70300 80001 22200 06024 20404 315// 40703 80060
AAXX 29184 89532 42/70 70207 11035 21058 39858 49885 56017 875//
AAXX 29184 85041 31560 63608 10305 20248 39820 40081 57032 71522 85931 333 56806 59009 84820 81923 85070
AAXX 29184 85140 32470 53206 10316 20247 39890 40097 57030 83104 333 56706 59020 83817 85070
AAXX 29184 85141 32484 43606 10316 20265 39857 40086 57033 84204 333 56707 59023 84817 84070
AAXX 29184 85151 NIL
AAXX 29184 85152 32584 73210 10324 20252 39858 40086 57024 84201 333 56707 59020 84820 85070
AAXX 29184 85201 11456 70609 10086 20039 36300 57010 69921 79592 86963 333 56000 59016 84817 82920 86070
AAXX 29184 85230 NIL
AAXX 29184 85242 11484 60000 10162 20069 36549 57024 69961 70262 83301 333 56707 59024 82817 81920 86070
BBXX 44011 29181 99411 70666 46/// /2613 10031 21028 40100 53009 91750 22200 00090 11110 20706 3//// 41107 70048 333 91216 555 11141 22149 31703 40817 61749 263133 270131 260127 262131 260136 266132
BBXX 41046 29181 99238 70683 46/// /1304 10253 20196 40195 58019 91750 22200 00256 11504 20401 300// 41504 70019 333 91205 555 11046 22049 31747 41305 61749 131043 130043 133041 135041 131038 133040 81305 91746
BBXX 42362 29181 99278 70907 46/// /2503 10206 20083 40193 58010 91800
BBXX 42363 29181 99282 70892 46/// /3603 10206 20117 40197 58003 91800 333 91203
BBXX 42364 29181 99291 70881 46/// /1003 10194 20139 40190 58017 91800
BBXX 41041 29181 99142 70460 46/// /0709 10265 20191 40167 56017 91750 22200 00263 10705 20704 3//// 41002 70024 333 91210 555 11093 22099 31652 40811 61749 074087 074083 072081 070080 076084 076088 80810 91652
AAXX 29181 11423 01162 82608 11009 21011 39293 42785 58017 69982 70282 885// 333 10007 41998 60005 83703 88619 91013 91114
BBXX 44060 29181 99413 70721 46/// ///07 11013 40147 91745 22200 00088 333 91209 555 11077 22077
AAXX 29184 89664 32261 19906 11018 21049 39773 49815 57009 81600 333 56800 81705
AAXX 29184 91348 32474 81005 10272 20233 30047 40100 55002 84201 333 562/9 555 92918
AAXX 29181 01033 46/// /1211 11010 21073 39863 49894 53008 333 10010 91117
AAXX 29181 01059 16/// /3304 11042 21064 39925 49935 52001 6//// 333 11041 91105
AAXX 29181 01406 46/// /3213 10059 20036 39872 49890 53014 333 10072 91124
AAXX 29181 01442 11689 42805 10033 21030 39636 49889 50001 60022 70181 82202 333 10047 91113
AAXX 29181 01037 16/// /1103 11031 21098 39909 49915 52011 60002 333 11004 91109
AAXX 29181 01046 16/// /1604 11029 21100 39911 49919 52008 6//// 333 11010 91111
AAXX 29181 01065 11689 82201 11093 21104 39763 49929 50001 60012 70222 888// 333 11088 91102
AAXX 29181 01114 16/// /0703 11019 21053 39834 49844 52020 60002 333 10001 91105
AAXX 29181 01245 11680 62602 11017 21054 39169 49869 51026 60002 70272 86500 333 11002 91106
AAXX 29181 01337 16/// /2101 10018 20005 39805 49871 53017 60062 333 10031 91103
AAXX 29181 01344 16/// ///// 11011 21019 60042 333 10003 4/075
AAXX 29181 01364 16/// /2902 11024 21044 38756 49860 50015 60002 333 11013 91108
AAXX 29181 01389 11856 33402 11016 21029 39547 49856 53023 69982 71042 82062 333 10010 91106
AAXX 29181 01023 11588 71008 11033 21081 39796 49892 53012 60002 70222 82578 333 11017 91112
AAXX 29181 01210 41485 70803 10035 20002 39866 49892 53030 70282 8426/ 333 10044 91112
AAXX 29181 01392 11974 22802 10013 21011 39621 49843 53027 69952 70121 80001 333 10031 91109
AAXX 29184 89664 32261 19906 11018 21049 39773 49815 57009 81600 333 56800 81705
AAXX 29181 01132 16/// /0501 11088 21100 39454 49849 53021 60042 333 11041 4/063 91101
AAXX 29181 01156 16/// /0604 11006 21039 39851 49860 53009 60002 333 10005 91106
AAXX 29181 01273 16/// /3003 10007 21007 39661 49855 52021 69992 333 10011 91106
AAXX 29181 01477 16/// /3201 11011 21014 60012 333 10033 4/014 91106
AAXX 29181 01135 16/// /0802 11043 21053 39695 49848 52019 60012 333 11029 4/028 91105
AAXX 29181 01192 16/// /1404 11031 21097 60002 333 11020 4/018 91110
AAXX 29181 01232 16/// /0103 10018 20002 39809 49888 51037 60022 333 10032 91105
AAXX 29181 01253 16/// /3202 11001 21016 60022 333 10001 91106
AAXX 29181 01370 16/// /3002 11027 21046 38778 49939 53021 60012 333 11014 4/029 91108
AAXX 29181 01419 16/// /2106 10020 21002 60192 333 10033 91119
AAXX 29181 01455 16/// /3103 10044 21036 39567 49870 53011 60002 333 10062 91113
AAXX 29181 01481 16/// /2503 10058 21001 39823 49854 52017 60002 333 10060 91108
AAXX 29184 91348 32474 81005 10272 20233 30047 40100 55002 84201 333 562/9 555 92918
AAXX 29184 89664 32261 19906 11018 21049 39773 49815 57009 81600 333 56800 81705
AAXX 29181 11010 12580 72304 10036 21003 39849 40235 57004 69962 333 10052 81622 86657
AAXX 29181 11012 12681 42405 10032 21006 39760 40239 58006 60012 84400 333 10046 20005 55300
AAXX 29181 11022 12565 72103 10030 21023 39815 40209 53001 60002 83108 333 10056 21009 55300 87276
AAXX 29181 11035 12780 72704 10052 20000 39963 40219 52007 69902 875// 333 10065 20006 87650
AAXX 29181 11036 32584 72905 10051 21009 39995 40222 53008 333 10066 81825 83647 87362 91114 91210
AAXX 29181 11101 11568 71702 10034 21017 39743 40283 57003 60022 70262 875// 333 10055 20020 87630
AAXX 29181 11120 11040 82302 11015 21016 39542 40275 52003 60012 71072 333 10000 81701 83608 86610
AAXX 29181 11126 17/// /3209 11108 21109 37730 48515 57001 60012 7//8/ 333 11053 21111 55300 91114
AAXX 29181 11130 17/// /2401 11008 21012 39658 40268 53001 60032 7//4/ 333 10011 21032 55300
AAXX 29181 11146 11/00 90407 11145 21159 36897 47002 58004 60062 77174 333 11087 21146 89/00 92613
AAXX 29181 11150 12880 52704 10040 21070 39699 40249 58005 60012 333 10043 85657
AAXX 29181 11155 11/06 62912 11066 21084 38368 48499 57007 60032 73874 86800 333 11023 21066 55300 838// 91124
AAXX 29181 11157 11565 82506 10029 21050 39455 40238 53002 69902 70282 885// 333 10032 81620 83642 87656
AAXX 29181 11172 NIL
AAXX 29181 11190 12660 83007 10061 21032 39982 40218 53006 60002 885// 333 10069 20005 55300 91116
AAXX 29181 11204 16/// /2301 11023 21028 39429 40249 53007 69902 333 11010 21076 55300
AAXX 29181 11212 11/01 93202 11059 21061 37821 48501 57001 60062 77174 333 11013 92610
AAXX 29181 11231 01150 89901 11022 21022 39656 40250 53004 69972 72277 333 11019 69905 81703 83707 87714
AAXX 29181 11240 11756 79901 10007 20006 39782 40233 53004 69902 70362 333 10015 84650 87360
AAXX 29181 11244 16/// /0000 10013 20001 39893 40231 53001 69902 333 10019 21002 55300
AAXX 29181 11389 12550 82206 10042 20000 39891 40222 50000 69902 885// 333 10046 20015 55300 91114
BBXX TFBKF 29184 99635 70202 46/// ///// 22200 10908 70038
BBXX TFDRN 29184 99658 70212 46/// ///// 22200 10602 70010
BBXX TFGRS 29184 99663 70182 46/// ///// 22200 10603 70016
BBXX TFGRV 29184 99638 70225 46/// ///// 22200 11009 70045
BBXX TFGSK 29184 99641 70229 46/// ///// 22200 10912 70062
BBXX TFHFN 29184 99642 70152 46/// ///// 22200 10806 70030
BBXX TFKGR 29184 99657 70136 46/// ///// 22200 10905 70024
BBXX TFSRT 29184 99633 70203 46/// ///// 22200 11011 70054
BBXX TFSTD 29184 99664 70234 46/// ///// 22200 10706 70031
AAXX 29184 65338 32958 50000 10307 20230 39925 40111 80002 333 10331 58026 85076
AAXX 29181 15015 01596 80000 10001 21003 39585 42788 57008 60002 71022 885// 333 10015 21001 3/001 41998 60007 91000 91101
AAXX 29181 15020 01596 82902 10016 20010 39993 40197 54000 60002 71042 8557/ 333 10058 21002 31010 60007 91004 91106
AAXX 29181 15090 01596 82701 10030 20019 30096 40191 52012 60002 71011 8457/ 333 10103 20020 31009 55300 10014 20002 3//// 60007 91002 91104
AAXX 29181 15108 02998 00000 11020 21029 38065 48483 57004 60002 333 11001 21024 3//// 44017 60007 92843
AAXX 29181 15120 01596 73301 11002 21004 39700 40212 57007 69902 71022 87600 333 10005 21005 31003 55300 10036 2//// 3//// 60007 91001 91102
AAXX 29181 15150 02997 03301 10010 20009 39967 40186 52009 60002 333 10092 21004 31012 60007 91004 91104
AAXX 29181 15170 02497 81101 11008 21012 39396 42787 57007 60002 886// 333 10010 21015 3/001 43002 60007 91003 91104 92850
AAXX 29181 15200 01696 82501 10022 20017 30065 40213 55005 60002 71022 8557/ 333 10031 21022 31005 60007 91001 91102
AAXX 29181 15230 02597 81801 10008 20001 39912 40215 56011 60002 885// 333 10016 20008 30003 55300 10024 20000 30000 60007 91002 91102
AAXX 29181 15260 01/92 90501 11004 21004 39661 40214 57011 60002 74542 333 10001 21011 3/003 41998 60007 91001 91102
AAXX 29181 15280 01298 71804 11078 21114 37460 47986 57020 60002 72842 83570 333 11012 21082 3//// 49034 60007 92848
AAXX 29181 15292 01596 80201 11002 21002 39913 40218 57003 60002 71042 886// 333 11002 21027 31002 60007 91002 91102
AAXX 29181 15310 02597 81802 10057 20032 30104 40192 57009 60002 8257/ 333 10065 20025 31008 55300 10053 20002 3//// 60007 91005 91105
AAXX 29181 15335 01996 51803 10052 20047 30192 40198 57011 60002 71022 85070 333 10078 20010 31007 60007 91005 91105
AAXX 29181 15346 01596 81001 10031 20018 39899 40195 57005 60002 71022 885// 333 10074 20027 31010 60007 91001 91102
AAXX 29181 15350 02597 82202 10052 20033 30071 40193 57011 60002 885// 333 10067 20030 31008 60007 91004 91104
AAXX 29181 15360 02497 81704 10057 20052 30185 40200 57012 60002 886// 222// 06034 20200 333 10062 20005 3//// 60007 91004 91105 92417
AAXX 29181 15410 01595 80000 10006 20002 30106 40205 57007 60002 71042 886// 333 10009 21036 31004 60007 91000 91101
AAXX 29181 15420 02997 72502 10043 20026 30079 40193 57006 60002 87070 333 10082 20030 31011 55300 0//// 20000 3//// 60007 91002 91104
AAXX 29181 15450 01996 82302 10007 20003 39958 40201 57006 60002 71022 8807/ 333 10010 21034 31001 55300 00010 20000 3//// 60007 91003 91103
AAXX 29181 15460 01996 61803 10044 20031 30170 40195 57007 60002 71022 86070 333 10080 20025 31010 60007 91005 91105
AAXX 29181 15470 01995 82403 10019 20019 30071 40201 56006 60002 71022 8807/ 333 10050 20007 31010 60007 91004 91104
AAXX 29181 15480 01496 81201 10066 20066 30185 40202 57011 69902 71052 886// 222// 06065 2//// 333 10072 20034 31009 60007 91003 91103 92426
AAXX 29181 76040 32960 03502 10156 20029 30188 40202 52010 91755 333 10216 20034 30/// 59056 98660
AAXX 29181 76055 32980 03311 10180 21071 30169 40188 52013 91740 333 10226 20081 30/// 59041
AAXX 29181 76056 06/// /3311 10196 21093 30164 40188 51013 60002 7//// 8//// 91750 333 0//// 10196 20081 30/// 4//// 54/// 56/// 57/// 59055 60007 8//// 8//// 8//// 9//// 9//// 9//// 44
AAXX 29181 76113 32980 01801 10140 21009 39696 40185 52006 91745 333 10146 20036 30/// 59027
AAXX 29181 76122 32970 01601 10142 21055 38562 40239 57002 91750 333 10148 21032 30/// 59037
AAXX 29181 76123 06/// 01603 10170 21119 3//// 4//// 5//// 60002 7//// 8//// 91750 333 0//// 10170 21037 56/// 57/// 5//// 60007 8//// 8//// 8//// 8//// 9//// 9//// 9//// 444 ///// 555
AAXX 29181 76220 32958 00000 10042 21051 38188 40341 57004 91740 333 10042 21110 30/// 59017
AAXX 29181 76225 32960 00701 10156 21041 38651 40215 57010 91745 333 10156 21016 30/// 59031
AAXX 29181 76226 02/// ///// 1//// 2//// 3//// 4//// 5//// 6//// 7//// 8//// 9//// 333 0//// 1//// 2//// 30/// 4//// 54/// 56/// 57/// 5//// 6//// 8//// 8//// 8//// 9//// 9//// 9//// 44
AAXX 29181 76256 32980 00000 10156 20100 30164 40178 52002 91745 333 10252 20089 30/// 59024
AAXX 29181 76258 32970 03404 10192 20067 30118 40164 52009 91750 333 10195 20036 30/// 56000 59021
AAXX 29181 76305 32970 00602 10224 20038 30160 40168 51001 91740 333 10226 20158 30/// 59030
AAXX 29181 76323 32970 43201 10164 21052 38308 40320 52008 80002 91740 333 10164 21035 30/// 56005 59005 84268
AAXX 29181 76342 32962 03002 10202 20002 39509 40231 57006 91750 333 10214 20072 30/// 59009
AAXX 29181 76373 32980 00000 10124 21128 38224 40173 57001 91755 333 10130 21080 30/// 59042
AAXX 29181 76382 32980 61102 10162 20067 38942 40231 52002 80004 91740 333 10170 20022 30/// 56005 59008 86076
AAXX 29181 76390 32975 21702 10186 21068 38250 40215 57007 80004 91735 333 10200 20005 30/// 54308 56007 59009 82070
AAXX 29181 76393 31910 11601 10216 20057 39605 40188 57005 70544 80008 91750 333 10238 20110 30/// 56005 59001
AAXX 29181 76402 31962 01302 10230 20092 30106 40164 52003 70544 91745 333 10232 20058 30/// 59022
AAXX 29181 76423 32580 40000 10158 21056 38174 40221 58010 81254 91740 333 10167 20010 30/// 56999 59013 81830 82357 81067
AAXX 29181 76458 32970 12004 10210 20140 30149 40154 50002 80005 91738 333 10238 20092 30/// 56//8 59017 81070
AAXX 29181 76471 32580 30000 10201 21039 37707 40141 57009 83500 91750 333 10201 20043 30/// 56500 59014 83635
AAXX 29181 76490 06/// /0501 10249 20075 39797 40179 58016 60002 7//// 8//// 91750 333 0//// 10260 20088 30/// 54/// 56/// 57/// 58005 60007 8//// 8//// 8//// 8//// 9//// 9//// 9//// 44
AAXX 29181 76491 32960 10000 10247 20128 39813 40212 57015 80004 91750 333 10251 20050 30/// 56009 59001
AAXX 29181 76499 31860 10000 10230 20146 30172 40194 57009 70344 81030 91750 333 10231 20076 30/// 58003
AAXX 29181 76525 32980 41902 10136 21100 37488 40157 57001 80001 91740 333 10136 20081 30/// 56//5 59010 84080
AAXX 29181 76538 06/// /1103 10199 21059 38181 40124 58010 60002 7//// 8//// 91750 333 0//// 10204 20019 30/// 4//// 54/// 56/// 57/// 59004 60007 8//// 8//// 8//// 9//// 9//// 9//// 44
AAXX 29181 76539 32970 03602 10168 20014 38183 40231 57004 91750 333 10200 20002 30/// 59001
AAXX 29181 76543 31975 23601 10248 20160 30179 40212 58013 70140 80005 91745 333 10248 20104 30/// 59008
AAXX 29181 76547 06/// /2202 10234 20172 30181 40193 58011 60002 7//// 8//// 91750 333 0//// 10237 20140 56/// 57/// 59010 60007 8//// 8//// 8//// 8//// 9//// 9//// 9//// 444 ///// 555
AAXX 29181 76548 32975 22102 10232 20168 30196 40206 58007 80002 91740 333 10236 20140 30/// 56005 59012 82075
AAXX 29181 76556 32970 61202 10250 20129 39126 40157 51002 80006 91735 333 10258 20120 30/// 56003 59014 86070
AAXX 29181 76571 32975 30000 10198 21038 38184 40188 55006 80004 91748 333 10200 20098 30/// 56005 59010
AAXX 29181 76577 32970 12304 10196 20144 38059 40178 58004 80001 91740 333 10200 20085 30/// 56005 59013
AAXX 29181 76578 06/// /2304 10200 20007 38054 40111 58007 60002 7//// 8//// 91750 333 0//// 10200 20081 30/// 4//// 54/// 56/// 57/// 59014 60007 8//// 8//// 8//// 9//// 9//// 9//// 44
AAXX 29181 76581 32968 31802 10208 20100 39083 40214 57015 83010 91750 333 10215 20053 30/// 56020 59005 83460
AAXX 29181 76585 32980 00901 10200 20132 30032 40193 58015 91740 333 10225 20078 30/// 59008
AAXX 29181 76586 06/// /1401 10261 20145 30037 40190 58014 60002 7//// 8//// 91750 333 0//// 10261 20087 30/// 4//// 54/// 56/// 57/// 59007 60007 8//// 8//// 8//// 9//// 9//// 9//// 44
AAXX 29181 76592 06/// /0207 10273 21148 30181 40181 58016 60002 7//// 8//// 91750 333 0//// 10287 20182 30/// 4//// 54/// 56/// 57/// 59017 60007 8//// 8//// 8//// 9//// 9//// 9//// 44
AAXX 29181 76593 32370 30505 10262 20240 30181 40183 57015 81130 91750 333 10287 20175 30/// 5611/ 59017 81820 82330 91006 91505
AAXX 29181 76612 32962 31001 10212 20053 38491 40185 50000 80001 91749 333 10230 20085 30/// 56006 59011 83072
AAXX 29181 76625 32960 10301 10225 20039 38157 40139 57009 80004 91755 333 10227 20102 30/// 56009 59010 81069
AAXX 29181 76632 31965 01802 10164 20070 37650 40159 57003 70500 91740 333 10172 20080 30/// 59013 98565
AAXX 29181 76634 31570 23102 10208 20070 37864 40192 57012 70500 82400 91750 333 10214 20068 30/// 565// 59010 82834
AAXX 29181 76641 06/// /1401 10268 20173 30185 40197 58013 60002 7//// 8//// 91750 333 0//// 10268 20148 30/// 4//// 54/// 56/// 57/// 59011 60007 8//// 8//// 8//// 8//// 9//// 9//// 9/
AAXX 29181 76645 06/// /0701 10286 20189 30168 40181 58019 60002 7//// 8//// 91750 333 0//// 10290 20179 30/// 4//// 54/// 56/// 57/// 59015 60007 8//// 8//// 8//// 9//// 9//// 9//// 44
AAXX 29181 76648 06/// /3602 10277 20186 30145 40176 58012 60002 7//// 8//// 91750 333 0//// 10299 20170 30/// 4//// 54/// 56/// 57/// 59016 60007 8//// 8//// 8//// 8//// 9//// 9//// 9/
AAXX 29181 76654 31956 01802 10296 20219 30158 40162 52003 70544 91800 333 10296 20224 30/// 59011
AAXX 29181 76658 31556 22302 10282 20180 39641 40146 52012 70540 80904 91749 333 10291 20180 30/// 56801 59020 81822 81070 94082 98904
AAXX 29181 76659 06/// /2202 10308 20142 3//// 4//// 5//// 60002 7//// 8//// 91750 333 0//// 10308 20169 30/// 4//// 54/// 56/// 57/// 5//// 60007 8//// 8//// 8//// 9//// 9//// 9//// 44
AAXX 29181 76662 32670 31801 10238 20096 38478 40174 57002 82202 91730 333 10250 20088 30076 56/0/ 59011 82833 81070
AAXX 29181 76675 31570 42902 10178 20017 37395 40209 56002 70540 83204 91754 333 10184 20002 30/// 569/9 59011 83826 98470
AAXX 29181 76680 31558 20501 10193 20061 37767 40106 57007 70500 82100 91755 333 10197 20090 30/// 56700 59012 82828
AAXX 29181 76681 31960 00000 10200 20102 37795 40172 57010 70500 91745 333 10200 20042 30/// 59018
AAXX 29181 76683 32668 10601 10210 20092 37842 40214 56009 81100 91745 333 10218 20048 30/// 56200 59014 81840
AAXX 29181 76684 06/// /1805 10216 20031 37843 40109 58011 60002 7//// 8//// 91750 333 0//// 10219 20041 30/// 4//// 54/// 56/// 57/// 59014 60007 8//// 8//// 8//// 9//// 9//// 9//// 44
AAXX 29181 76685 31950 03601 10206 20036 37871 40161 57016 70544 91750 333 10208 20065 30/// 59013
AAXX 29181 76687 31562 70701 10178 20143 38711 40217 57003 70222 874// 91737 333 10180 20100 30/// 563// 59008 82824 85622
AAXX 29181 76692 31456 70204 10256 20192 30172 40191 58003 70544 8527/ 91745 333 10260 20191 30/// 5633/ 59034 81817 84640
AAXX 29181 76693 06/// /3504 10253 20193 30172 40191 58005 60002 7//// 8//// 91750 333 0//// 10255 20191 30/// 4//// 56/// 57/// 59019 60007 8//// 8//// 8//// 8//// 9//// 9//// 9//// 44
AAXX 29181 76695 32560 30403 10278 20219 30159 40164 57015 81250 91750 333 10283 20169 30/// 5620/ 59021 81820 82360
AAXX 29181 76698 32560 60601 10280 20214 30167 40178 57015 86200 91750 333 10295 20200 30/// 56200 59015 86820
AAXX 29181 76727 06/// /1701 10251 20062 38409 40084 58010 60002 7//// 8//// 91750 333 0//// 10263 20128 30/// 4//// 54/// 56/// 57/// 59020 60007 8//// 8//// 8//// 9//// 9//// 9//// 44
AAXX 29181 76737 31480 71602 10184 20140 38803 40204 50000 70322 876// 91735 333 10191 20100 30/// 562// 59007 85713 91105 91514
AAXX 29181 76738 06/// /1302 10185 20134 38803 40177 58003 60002 7//// 8//// 333 10196 20096 30/// 56/// 57/// 59005 60007 8//// 8//// 8//// 8//// 9//// 9//// 9//// 444 ///// 555 30190
AAXX 29181 76743 31457 70001 10260 20218 30167 40175 57011 70211 872// 91750 333 10260 20210 30/// 560// 59019 87817
AAXX 29181 76750 32560 30902 10296 20213 30159 40169 57007 83100 91750 333 10305 20188 30/// 56100 59022 83820
AAXX 29181 76751 06/// /1202 10300 20221 30160 40170 58012 60002 7//// 8//// 91750 333 0//// 10302 20185 30/// 4//// 54/// 56/// 57/// 59021 60007 8//// 8//// 8//// 9//// 9//// 9//// 44
AAXX 29181 76762 32504 01801 10278 20230 38781 40159 58001 81200 91730 333 10280 20158 30/// 56100 59012 81830
AAXX 29181 76772 06/// /3401 10246 20082 38440 40112 58016 60002 7//// 8//// 91750 333 0//// 10246 20063 30/// 4//// 56/// 57/// 59019 60007 8//// 8//// 8//// 9//// 9//// 9//// 444 ////
AAXX 29181 76773 31568 32601 10234 20149 38436 40165 57014 70544 83100 91748 333 10237 20060 30/// 56900 59022 83820
AAXX 29181 76775 31570 10401 10260 20077 38535 40184 57013 70300 81100 91735 333 10284 20090 30/// 56800 59025 81824
AAXX 29181 76776 06/// /0901 10258 20067 38514 40095 58020 60002 7//// 8//// 91750 333 0//// 10263 20094 30/// 4//// 56/// 57/// 59025 60007 8//// 8//// 8//// 9//// 9//// 9//// 444 ////
AAXX 29181 76805 32570 11504 10297 20232 30138 40144 57009 81100 91750 333 10324 20220 30/// 561// 58/// 81830
AAXX 29181 76806 06/// /1604 10288 20229 30139 40143 58008 60002 7//// 8//// 91750 333 10305 20210 30/// 56/// 57/// 59016 60007 8//// 8//// 8//// 8//// 9//// 9//// 9//// 555 30273
AAXX 29181 76833 32970 03606 10298 20187 30142 40144 57013 91745 333 10298 20214 30/// 59007 92000
AAXX 29181 76840 32960 00204 10294 20176 30099 40155 52003 91745 333 10298 20197 30/// 58003
AAXX 29181 76843 32565 10801 10246 20165 39514 40162 57009 81100 91735 333 10254 20158 30/// 567// 59021 81823
AAXX 29181 76845 32660 32702 10206 20123 37955 40184 56020 83400 91750 333 10220 20065 30/// 56200 59014 83635
AAXX 29181 76848 32770 11601 10260 20128 38389 40103 57009 81200 91750 333 10260 20110 30/// 56100 59025 81850
AAXX 29181 76902 06/// /3102 10312 20206 30007 40143 58017 60002 7//// 8//// 91750 333 0//// 10314 20226 30/// 4//// 54/// 56/// 57/// 59005 60007 8//// 8//// 8//// 8//// 9//// 9//// 9/
AAXX 29181 76903 31680 32903 10315 20206 30007 40137 57015 70122 83200 91755 333 10320 20233 30/// 56100 59009 83833
AAXX 29181 76160 32962 00501 10174 21015 39921 40174 52003 91730 333 10174 20040 30/// 59034
AAXX 29181 76243 32974 01501 10184 20052 39884 40186 57017 91740 333 10236 20040 30/// 59025
AAXX 29181 76311 32980 00000 10226 20060 39873 40158 50001 91740 333 10226 20061 30/// 59017
AAXX 29181 76405 32980 43603 10231 20089 30150 40172 52006 80001 91750 333 10231 20138 30/// 56005 59021 84070
AAXX 29181 76412 32966 02201 10190 20112 30135 40180 52015 91745 333 10200 20068 30/// 59004
AAXX 29181 76640 31358 32702 10206 20184 30207 40219 52023 70200 822/8 91740 333 10222 20152 30/// 567/9 59017 82809
AAXX 29181 76647 32570 73602 10274 20203 30160 40191 57003 875// 91750 333 10286 20170 30/// 568// 59014 87629
AAXX 29181 76656 32975 40000 10245 20103 38520 40176 58006 80008 91750 333 10252 20070 30/// 56005 59012 84280
AAXX 29181 76855 32980 01301 10308 20228 30086 40135 51008 91740 333 10315 20210 30/// 59002 92000
AAXX 29184 91487 NIL
AAXX 29184 91490 NIL
AAXX 29184 91533 NIL
AAXX 29184 91601 NIL
AAXX 29184 91610 11499 20914 10269 20240 40082 53004 60001 70211 82200 333 562//
AAXX 29184 82818
AAXX 29184 91623 NIL
AAXX 29184 91629 NIL
AAXX 29184 91701 11499 30906 10269 2024/ 60001 70200 83200 562// 83818
AAXX 29181 76040 32960 03502 10156 20029 30188 40202 52010 91755 33310216 20034 30/// 59056 98660
AAXX 29181 76055 32980 03311 10180 21071 30169 40188 52013 91740 33310226 20081 30/// 59041
AAXX 29181 76056 06/// /3311 10196 21093 30164 40188 51013 60002 7////8//// 91750 333 0//// 10196 20081 30/// 4//// 54/// 56///57/// 59055 60007 8//// 8//// 8//// 9//// 9//// 9//// 44
AAXX 29181 76113 32980 01801 10140 21009 39696 40185 52006 91745 33310146 20036 30/// 59027
AAXX 29181 76122 32970 01601 10142 21055 38562 40239 57002 91750 33310148 21032 30/// 59037
AAXX 29181 76123 06/// 01603 10170 21119 3//// 4//// 5//// 60002 7////8//// 91750 333 0//// 10170 21037 56/// 57/// 5//// 600078//// 8//// 8//// 8//// 9//// 9//// 9//// 444 ///// 555
AAXX 29181 76220 32958 00000 10042 21051 38188 40341 57004 91740 33310042 21110 30/// 59017
AAXX 29181 76225 32960 00701 10156 21041 38651 40215 57010 91745 33310156 21016 30/// 59031
AAXX 29181 76226 02/// ///// 1//// 2//// 3//// 4//// 5//// 6//// 7////8//// 9//// 333 0//// 1//// 2//// 30/// 4//// 54/// 56///57/// 5//// 6//// 8//// 8//// 8//// 9//// 9//// 9//// 44
AAXX 29181 76256 32980 00000 10156 20100 30164 40178 52002 91745 33310252 20089 30/// 59024
AAXX 29181 76258 32970 03404 10192 20067 30118 40164 52009 91750 33310195 20036 30/// 56000 59021
AAXX 29181 76305 32970 00602 10224 20038 30160 40168 51001 91740 33310226 20158 30/// 59030
AAXX 29181 76323 32970 43201 10164 21052 38308 40320 52008 80002 91740333 10164 21035 30/// 56005 59005 84268
AAXX 29181 76342 32962 03002 10202 20002 39509 40231 57006 91750 33310214 20072 30/// 59009
AAXX 29181 76373 32980 00000 10124 21128 38224 40173 57001 91755 33310130 21080 30/// 59042
AAXX 29181 76382 32980 61102 10162 20067 38942 40231 52002 80004 91740333 10170 20022 30/// 56005 59008 86076
AAXX 29181 76390 32975 21702 10186 21068 38250 40215 57007 80004 91735333 10200 20005 30/// 54308 56007 59009 82070
AAXX 29181 76393 31910 11601 10216 20057 39605 40188 57005 70544 8000891750 333 10238 20110 30/// 56005 59001
AAXX 29181 76402 31962 01302 10230 20092 30106 40164 52003 70544 91745333 10232 20058 30/// 59022
AAXX 29181 76423 32580 40000 10158 21056 38174 40221 58010 81254 91740333 10167 20010 30/// 56999 59013 81830 82357 81067
AAXX 29181 76458 32970 12004 10210 20140 30149 40154 50002 80005 91738333 10238 20092 30/// 56//8 59017 81070
AAXX 29181 76471 32580 30000 10201 21039 37707 40141 57009 83500 91750333 10201 20043 30/// 56500 59014 83635
AAXX 29181 76490 06/// /0501 10249 20075 39797 40179 58016 60002 7////8//// 91750 333 0//// 10260 20088 30/// 54/// 56/// 57///58005 60007 8//// 8//// 8//// 8//// 9//// 9//// 9//// 44
AAXX 29181 76491 32960 10000 10247 20128 39813 40212 57015 80004 91750333 10251 20050 30/// 56009 59001
AAXX 29181 76499 31860 10000 10230 20146 30172 40194 57009 70344 8103091750 333 10231 20076 30/// 58003
AAXX 29181 76525 32980 41902 10136 21100 37488 40157 57001 80001 91740333 10136 20081 30/// 56//5 59010 84080
AAXX 29181 76538 06/// /1103 10199 21059 38181 40124 58010 60002 7////8//// 91750 333 0//// 10204 20019 30/// 4//// 54/// 56///57/// 59004 60007 8//// 8//// 8//// 9//// 9//// 9//// 44
AAXX 29181 76539 32970 03602 10168 20014 38183 40231 57004 91750 33310200 20002 30/// 59001
AAXX 29181 76543 31975 23601 10248 20160 30179 40212 58013 70140 8000591745 333 10248 20104 30/// 59008
AAXX 29181 76547 06/// /2202 10234 20172 30181 40193 58011 60002 7////8//// 91750 333 0//// 10237 20140 56/// 57/// 59010 600078//// 8//// 8//// 8//// 9//// 9//// 9//// 444 ///// 555
AAXX 29181 76548 32975 22102 10232 20168 30196 40206 58007 80002 91740333 10236 20140 30/// 56005 59012 82075
AAXX 29181 76556 32970 61202 10250 20129 39126 40157 51002 80006 91735333 10258 20120 30/// 56003 59014 86070
AAXX 29181 76571 32975 30000 10198 21038 38184 40188 55006 80004 91748333 10200 20098 30/// 56005 59010
AAXX 29181 76577 32970 12304 10196 20144 38059 40178 58004 80001 91740333 10200 20085 30/// 56005 59013
AAXX 29181 76578 06/// /2304 10200 20007 38054 40111 58007 60002 7////8//// 91750 333 0//// 10200 20081 30/// 4//// 54/// 56///57/// 59014 60007 8//// 8//// 8//// 9//// 9//// 9//// 44
AAXX 29181 76581 32968 31802 10208 20100 39083 40214 57015 83010 91750333 10215 20053 30/// 56020 59005 83460
AAXX 29181 76585 32980 00901 10200 20132 30032 40193 58015 91740 33310225 20078 30/// 59008
AAXX 29181 76586 06/// /1401 10261 20145 30037 40190 58014 60002 7////8//// 91750 333 0//// 10261 20087 30/// 4//// 54/// 56///57/// 59007 60007 8//// 8//// 8//// 9//// 9//// 9//// 44
AAXX 29181 76592 06/// /0207 10273 21148 30181 40181 58016 60002 7////8//// 91750 333 0//// 10287 20182 30/// 4//// 54/// 56///57/// 59017 60007 8//// 8//// 8//// 9//// 9//// 9//// 44
AAXX 29181 76593 32370 30505 10262 20240 30181 40183 57015 81130 91750333 10287 20175 30/// 5611/ 59017 81820 82330 91006 91505
AAXX 29181 76612 32962 31001 10212 20053 38491 40185 50000 80001 91749333 10230 20085 30/// 56006 59011 83072
AAXX 29181 76625 32960 10301 10225 20039 38157 40139 57009 80004 91755333 10227 20102 30/// 56009 59010 81069
AAXX 29181 76632 31965 01802 10164 20070 37650 40159 57003 70500 91740333 10172 20080 30/// 59013 98565
AAXX 29181 76634 31570 23102 10208 20070 37864 40192 57012 70500 8240091750 333 10214 20068 30/// 565// 59010 82834
AAXX 29181 76641 06/// /1401 10268 20173 30185 40197 58013 60002 7////8//// 91750 333 0//// 10268 20148 30/// 4//// 54/// 56///57/// 59011 60007 8//// 8//// 8//// 8//// 9//// 9//// 9/
AAXX 29181 76645 06/// /0701 10286 20189 30168 40181 58019 60002 7////8//// 91750 333 0//// 10290 20179 30/// 4//// 54/// 56///57/// 59015 60007 8//// 8//// 8//// 9//// 9//// 9//// 44
AAXX 29181 76648 06/// /3602 10277 20186 30145 40176 58012 60002 7////8//// 91750 333 0//// 10299 20170 30/// 4//// 54/// 56///57/// 59016 60007 8//// 8//// 8//// 8//// 9//// 9//// 9/
AAXX 29181 76654 31956 01802 10296 20219 30158 40162 52003 70544 91800333 10296 20224 30/// 59011
AAXX 29181 76658 31556 22302 10282 20180 39641 40146 52012 70540 8090491749 333 10291 20180 30/// 56801 59020 81822 81070 9408298904
AAXX 29181 76659 06/// /2202 10308 20142 3//// 4//// 5//// 60002 7////8//// 91750 333 0//// 10308 20169 30/// 4//// 54/// 56///57/// 5//// 60007 8//// 8//// 8//// 9//// 9//// 9//// 44
AAXX 29181 76662 32670 31801 10238 20096 38478 40174 57002 82202 91730333 10250 20088 30076 56/0/ 59011 82833 81070
AAXX 29181 76675 31570 42902 10178 20017 37395 40209 56002 70540 8320491754 333 10184 20002 30/// 569/9 59011 83826 98470
AAXX 29181 76680 31558 20501 10193 20061 37767 40106 57007 70500 8210091755 333 10197 20090 30/// 56700 59012 82828
AAXX 29181 76681 31960 00000 10200 20102 37795 40172 57010 70500 91745333 10200 20042 30/// 59018
AAXX 29181 76683 32668 10601 10210 20092 37842 40214 56009 81100 91745333 10218 20048 30/// 56200 59014 81840
AAXX 29181 76684 06/// /1805 10216 20031 37843 40109 58011 60002 7////8//// 91750 333 0//// 10219 20041 30/// 4//// 54/// 56///57/// 59014 60007 8//// 8//// 8//// 9//// 9//// 9//// 44
AAXX 29181 76685 31950 03601 10206 20036 37871 40161 57016 70544 91750333 10208 20065 30/// 59013
AAXX 29181 76687 31562 70701 10178 20143 38711 40217 57003 70222 874//91737 333 10180 20100 30/// 563// 59008 82824 85622
AAXX 29181 76692 31456 70204 10256 20192 30172 40191 58003 70544 8527/91745 333 10260 20191 30/// 5633/ 59034 81817 84640
AAXX 29181 76693 06/// /3504 10253 20193 30172 40191 58005 60002 7////8//// 91750 333 0//// 10255 20191 30/// 4//// 56/// 57///59019 60007 8//// 8//// 8//// 8//// 9//// 9//// 9//// 44
AAXX 29181 76695 32560 30403 10278 20219 30159 40164 57015 81250 91750333 10283 20169 30/// 5620/ 59021 81820 82360
AAXX 29181 76698 32560 60601 10280 20214 30167 40178 57015 86200 91750333 10295 20200 30/// 56200 59015 86820
AAXX 29181 76727 06/// /1701 10251 20062 38409 40084 58010 60002 7////8//// 91750 333 0//// 10263 20128 30/// 4//// 54/// 56///57/// 59020 60007 8//// 8//// 8//// 9//// 9//// 9//// 44
AAXX 29181 76737 31480 71602 10184 20140 38803 40204 50000 70322 876//91735 333 10191 20100 30/// 562// 59007 85713 91105 91514
AAXX 29181 76738 06/// /1302 10185 20134 38803 40177 58003 60002 7////8//// 333 10196 20096 30/// 56/// 57/// 59005 60007 8////8//// 8//// 8//// 9//// 9//// 9//// 444 ///// 555 30190
AAXX 29181 76743 31457 70001 10260 20218 30167 40175 57011 70211 872//91750 333 10260 20210 30/// 560// 59019 87817
AAXX 29181 76750 32560 30902 10296 20213 30159 40169 57007 83100 91750333 10305 20188 30/// 56100 59022 83820
AAXX 29181 76751 06/// /1202 10300 20221 30160 40170 58012 60002 7////8//// 91750 333 0//// 10302 20185 30/// 4//// 54/// 56///57/// 59021 60007 8//// 8//// 8//// 9//// 9//// 9//// 44
AAXX 29181 76762 32504 01801 10278 20230 38781 40159 58001 81200 91730333 10280 20158 30/// 56100 59012 81830
AAXX 29181 76772 06/// /3401 10246 20082 38440 40112 58016 60002 7////8//// 91750 333 0//// 10246 20063 30/// 4//// 56/// 57///59019 60007 8//// 8//// 8//// 9//// 9//// 9//// 444 ////
AAXX 29181 76773 31568 32601 10234 20149 38436 40165 57014 70544 8310091748 333 10237 20060 30/// 56900 59022 83820
AAXX 29181 76775 31570 10401 10260 20077 38535 40184 57013 70300 8110091735 333 10284 20090 30/// 56800 59025 81824
AAXX 29181 76776 06/// /0901 10258 20067 38514 40095 58020 60002 7////8//// 91750 333 0//// 10263 20094 30/// 4//// 56/// 57///59025 60007 8//// 8//// 8//// 9//// 9//// 9//// 444 ////
AAXX 29181 76805 32570 11504 10297 20232 30138 40144 57009 81100 91750333 10324 20220 30/// 561// 58/// 81830
AAXX 29181 76806 06/// /1604 10288 20229 30139 40143 58008 60002 7////8//// 91750 333 10305 20210 30/// 56/// 57/// 59016 600078//// 8//// 8//// 8//// 9//// 9//// 9//// 555 30273
AAXX 29181 76833 32970 03606 10298 20187 30142 40144 57013 91745 33310298 20214 30/// 59007 92000
AAXX 29181 76840 32960 00204 10294 20176 30099 40155 52003 91745 33310298 20197 30/// 58003
AAXX 29181 76843 32565 10801 10246 20165 39514 40162 57009 81100 91735333 10254 20158 30/// 567// 59021 81823
AAXX 29181 76845 32660 32702 10206 20123 37955 40184 56020 83400 91750333 10220 20065 30/// 56200 59014 83635
AAXX 29181 76848 32770 11601 10260 20128 38389 40103 57009 81200 91750333 10260 20110 30/// 56100 59025 81850
AAXX 29181 76902 06/// /3102 10312 20206 30007 40143 58017 60002 7////8//// 91750 333 0//// 10314 20226 30/// 4//// 54/// 56///57/// 59005 60007 8//// 8//// 8//// 8//// 9//// 9//// 9/
AAXX 29181 76903 31680 32903 10315 20206 30007 40137 57015 70122 8320091755 333 10320 20233 30/// 56100 59009 83833
AAXX 29181 76160 32962 00501 10174 21015 39921 40174 52003 91730 33310174 20040 30/// 59034
AAXX 29181 76243 32974 01501 10184 20052 39884 40186 57017 91740 33310236 20040 30/// 59025
AAXX 29181 76311 32980 00000 10226 20060 39873 40158 50001 91740 33310226 20061 30/// 59017
AAXX 29181 76405 32980 43603 10231 20089 30150 40172 52006 80001 91750333 10231 20138 30/// 56005 59021 84070
AAXX 29181 76412 32966 02201 10190 20112 30135 40180 52015 91745 33310200 20068 30/// 59004
AAXX 29181 76640 31358 32702 10206 20184 30207 40219 52023 70200 822/891740 333 10222 20152 30/// 567/9 59017 82809
AAXX 29181 76647 32570 73602 10274 20203 30160 40191 57003 875// 91750333 10286 20170 30/// 568// 59014 87629
AAXX 29181 76656 32975 40000 10245 20103 38520 40176 58006 80008 91750333 10252 20070 30/// 56005 59012 84280
AAXX 29181 76855 32980 01301 10308 20228 30086 40135 51008 91740 33310315 20210 30/// 59002 92000
AAXX 29181 76040 32960 03502 10156 20029 30188 40202 52010 91755 333 10216 20034 30/// 59056 98660
AAXX 29181 76055 32980 03311 10180 21071 30169 40188 52013 91740 333 10226 20081 30/// 59041
AAXX 29181 76056 06/// /3311 10196 21093 30164 40188 51013 60002 7//// 8//// 91750 333 0//// 10196 20081 30/// 4//// 54/// 56/// 57/// 59055 60007 8//// 8//// 8//// 9//// 9//// 9//// 44
AAXX 29181 76113 32980 01801 10140 21009 39696 40185 52006 91745 333 10146 20036 30/// 59027
AAXX 29181 76122 32970 01601 10142 21055 38562 40239 57002 91750 333 10148 21032 30/// 59037
AAXX 29181 76123 06/// 01603 10170 21119 3//// 4//// 5//// 60002 7//// 8//// 91750 333 0//// 10170 21037 56/// 57/// 5//// 60007 8//// 8//// 8//// 8//// 9//// 9//// 9//// 444 ///// 555
AAXX 29181 76220 32958 00000 10042 21051 38188 40341 57004 91740 333 10042 21110 30/// 59017
AAXX 29181 76225 32960 00701 10156 21041 38651 40215 57010 91745 333 10156 21016 30/// 59031
AAXX 29181 76226 02/// ///// 1//// 2//// 3//// 4//// 5//// 6//// 7//// 8//// 9//// 333 0//// 1//// 2//// 30/// 4//// 54/// 56/// 57/// 5//// 6//// 8//// 8//// 8//// 9//// 9//// 9//// 44
AAXX 29181 76256 32980 00000 10156 20100 30164 40178 52002 91745 333 10252 20089 30/// 59024
AAXX 29181 76258 32970 03404 10192 20067 30118 40164 52009 91750 333 10195 20036 30/// 56000 59021
AAXX 29181 76305 32970 00602 10224 20038 30160 40168 51001 91740 333 10226 20158 30/// 59030
AAXX 29181 76323 32970 43201 10164 21052 38308 40320 52008 80002 91740 333 10164 21035 30/// 56005 59005 84268
AAXX 29181 76342 32962 03002 10202 20002 39509 40231 57006 91750 333 10214 20072 30/// 59009
AAXX 29181 76373 32980 00000 10124 21128 38224 40173 57001 91755 333 10130 21080 30/// 59042
AAXX 29181 76382 32980 61102 10162 20067 38942 40231 52002 80004 91740 333 10170 20022 30/// 56005 59008 86076
AAXX 29181 76390 32975 21702 10186 21068 38250 40215 57007 80004 91735 333 10200 20005 30/// 54308 56007 59009 82070
AAXX 29181 76393 31910 11601 10216 20057 39605 40188 57005 70544 80008 91750 333 10238 20110 30/// 56005 59001
AAXX 29181 76402 31962 01302 10230 20092 30106 40164 52003 70544 91745 333 10232 20058 30/// 59022
AAXX 29181 76423 32580 40000 10158 21056 38174 40221 58010 81254 91740 333 10167 20010 30/// 56999 59013 81830 82357 81067
AAXX 29181 76458 32970 12004 10210 20140 30149 40154 50002 80005 91738 333 10238 20092 30/// 56//8 59017 81070
AAXX 29181 76471 32580 30000 10201 21039 37707 40141 57009 83500 91750 333 10201 20043 30/// 56500 59014 83635
AAXX 29181 76490 06/// /0501 10249 20075 39797 40179 58016 60002 7//// 8//// 91750 333 0//// 10260 20088 30/// 54/// 56/// 57/// 58005 60007 8//// 8//// 8//// 8//// 9//// 9//// 9//// 44
AAXX 29181 76491 32960 10000 10247 20128 39813 40212 57015 80004 91750 333 10251 20050 30/// 56009 59001
AAXX 29181 76499 31860 10000 10230 20146 30172 40194 57009 70344 81030 91750 333 10231 20076 30/// 58003
AAXX 29181 76525 32980 41902 10136 21100 37488 40157 57001 80001 91740 333 10136 20081 30/// 56//5 59010 84080
AAXX 29181 76538 06/// /1103 10199 21059 38181 40124 58010 60002 7//// 8//// 91750 333 0//// 10204 20019 30/// 4//// 54/// 56/// 57/// 59004 60007 8//// 8//// 8//// 9//// 9//// 9//// 44
AAXX 29181 76539 32970 03602 10168 20014 38183 40231 57004 91750 333 10200 20002 30/// 59001
AAXX 29181 76543 31975 23601 10248 20160 30179 40212 58013 70140 80005 91745 333 10248 20104 30/// 59008
AAXX 29181 76547 06/// /2202 10234 20172 30181 40193 58011 60002 7//// 8//// 91750 333 0//// 10237 20140 56/// 57/// 59010 60007 8//// 8//// 8//// 8//// 9//// 9//// 9//// 444 ///// 555
AAXX 29181 76548 32975 22102 10232 20168 30196 40206 58007 80002 91740 333 10236 20140 30/// 56005 59012 82075
AAXX 29181 76556 32970 61202 10250 20129 39126 40157 51002 80006 91735 333 10258 20120 30/// 56003 59014 86070
AAXX 29181 76571 32975 30000 10198 21038 38184 40188 55006 80004 91748 333 10200 20098 30/// 56005 59010
AAXX 29181 76577 32970 12304 10196 20144 38059 40178 58004 80001 91740 333 10200 20085 30/// 56005 59013
AAXX 29181 76578 06/// /2304 10200 20007 38054 40111 58007 60002 7//// 8//// 91750 333 0//// 10200 20081 30/// 4//// 54/// 56/// 57/// 59014 60007 8//// 8//// 8//// 9//// 9//// 9//// 44
AAXX 29181 76581 32968 31802 10208 20100 39083 40214 57015 83010 91750 333 10215 20053 30/// 56020 59005 83460
AAXX 29181 76585 32980 00901 10200 20132 30032 40193 58015 91740 333 10225 20078 30/// 59008
AAXX 29181 76586 06/// /1401 10261 20145 30037 40190 58014 60002 7//// 8//// 91750 333 0//// 10261 20087 30/// 4//// 54/// 56/// 57/// 59007 60007 8//// 8//// 8//// 9//// 9//// 9//// 44
AAXX 29181 76592 06/// /0207 10273 21148 30181 40181 58016 60002 7//// 8//// 91750 333 0//// 10287 20182 30/// 4//// 54/// 56/// 57/// 59017 60007 8//// 8//// 8//// 9//// 9//// 9//// 44
AAXX 29181 76593 32370 30505 10262 20240 30181 40183 57015 81130 91750 333 10287 20175 30/// 5611/ 59017 81820 82330 91006 91505
AAXX 29181 76612 32962 31001 10212 20053 38491 40185 50000 80001 91749 333 10230 20085 30/// 56006 59011 83072
AAXX 29181 76625 32960 10301 10225 20039 38157 40139 57009 80004 91755 333 10227 20102 30/// 56009 59010 81069
AAXX 29181 76632 31965 01802 10164 20070 37650 40159 57003 70500 91740 333 10172 20080 30/// 59013 98565
AAXX 29181 76634 31570 23102 10208 20070 37864 40192 57012 70500 82400 91750 333 10214 20068 30/// 565// 59010 82834
AAXX 29181 76641 06/// /1401 10268 20173 30185 40197 58013 60002 7//// 8//// 91750 333 0//// 10268 20148 30/// 4//// 54/// 56/// 57/// 59011 60007 8//// 8//// 8//// 8//// 9//// 9//// 9/
AAXX 29181 76645 06/// /0701 10286 20189 30168 40181 58019 60002 7//// 8//// 91750 333 0//// 10290 20179 30/// 4//// 54/// 56/// 57/// 59015 60007 8//// 8//// 8//// 9//// 9//// 9//// 44
AAXX 29181 76648 06/// /3602 10277 20186 30145 40176 58012 60002 7//// 8//// 91750 333 0//// 10299 20170 30/// 4//// 54/// 56/// 57/// 59016 60007 8//// 8//// 8//// 8//// 9//// 9//// 9/
AAXX 29181 76654 31956 01802 10296 20219 30158 40162 52003 70544 91800 333 10296 20224 30/// 59011
AAXX 29181 76658 31556 22302 10282 20180 39641 40146 52012 70540 80904 91749 333 10291 20180 30/// 56801 59020 81822 81070 94082 98904
AAXX 29181 76659 06/// /2202 10308 20142 3//// 4//// 5//// 60002 7//// 8//// 91750 333 0//// 10308 20169 30/// 4//// 54/// 56/// 57/// 5//// 60007 8//// 8//// 8//// 9//// 9//// 9//// 44
AAXX 29181 76662 32670 31801 10238 20096 38478 40174 57002 82202 91730 333 10250 20088 30076 56/0/ 59011 82833 81070
AAXX 29181 76675 31570 42902 10178 20017 37395 40209 56002 70540 83204 91754 333 10184 20002 30/// 569/9 59011 83826 98470
AAXX 29181 76680 31558 20501 10193 20061 37767 40106 57007 70500 82100 91755 333 10197 20090 30/// 56700 59012 82828
AAXX 29181 76681 31960 00000 10200 20102 37795 40172 57010 70500 91745 333 10200 20042 30/// 59018
AAXX 29181 76683 32668 10601 10210 20092 37842 40214 56009 81100 91745 333 10218 20048 30/// 56200 59014 81840
AAXX 29181 76684 06/// /1805 10216 20031 37843 40109 58011 60002 7//// 8//// 91750 333 0//// 10219 20041 30/// 4//// 54/// 56/// 57/// 59014 60007 8//// 8//// 8//// 9//// 9//// 9//// 44
AAXX 29181 76685 31950 03601 10206 20036 37871 40161 57016 70544 91750 333 10208 20065 30/// 59013
AAXX 29181 76687 31562 70701 10178 20143 38711 40217 57003 70222 874// 91737 333 10180 20100 30/// 563// 59008 82824 85622
AAXX 29181 76692 31456 70204 10256 20192 30172 40191 58003 70544 8527/ 91745 333 10260 20191 30/// 5633/ 59034 81817 84640
AAXX 29181 76693 06/// /3504 10253 20193 30172 40191 58005 60002 7//// 8//// 91750 333 0//// 10255 20191 30/// 4//// 56/// 57/// 59019 60007 8//// 8//// 8//// 8//// 9//// 9//// 9//// 44
AAXX 29181 76695 32560 30403 10278 20219 30159 40164 57015 81250 91750 333 10283 20169 30/// 5620/ 59021 81820 82360
AAXX 29181 76698 32560 60601 10280 20214 30167 40178 57015 86200 91750 333 10295 20200 30/// 56200 59015 86820
AAXX 29181 76727 06/// /1701 10251 20062 38409 40084 58010 60002 7//// 8//// 91750 333 0//// 10263 20128 30/// 4//// 54/// 56/// 57/// 59020 60007 8//// 8//// 8//// 9//// 9//// 9//// 44
AAXX 29181 76737 31480 71602 10184 20140 38803 40204 50000 70322 876// 91735 333 10191 20100 30/// 562// 59007 85713 91105 91514
AAXX 29181 76738 06/// /1302 10185 20134 38803 40177 58003 60002 7//// 8//// 333 10196 20096 30/// 56/// 57/// 59005 60007 8//// 8//// 8//// 8//// 9//// 9//// 9//// 444 ///// 555 30190
AAXX 29181 76743 31457 70001 10260 20218 30167 40175 57011 70211 872// 91750 333 10260 20210 30/// 560// 59019 87817
AAXX 29181 76750 32560 30902 10296 20213 30159 40169 57007 83100 91750 333 10305 20188 30/// 56100 59022 83820
AAXX 29181 76751 06/// /1202 10300 20221 30160 40170 58012 60002 7//// 8//// 91750 333 0//// 10302 20185 30/// 4//// 54/// 56/// 57/// 59021 60007 8//// 8//// 8//// 9//// 9//// 9//// 44
AAXX 29181 76762 32504 01801 10278 20230 38781 40159 58001 81200 91730 333 10280 20158 30/// 56100 59012 81830
AAXX 29181 76772 06/// /3401 10246 20082 38440 40112 58016 60002 7//// 8//// 91750 333 0//// 10246 20063 30/// 4//// 56/// 57/// 59019 60007 8//// 8//// 8//// 9//// 9//// 9//// 444 ////
AAXX 29181 76773 31568 32601 10234 20149 38436 40165 57014 70544 83100 91748 333 10237 20060 30/// 56900 59022 83820
AAXX 29181 76775 31570 10401 10260 20077 38535 40184 57013 70300 81100 91735 333 10284 20090 30/// 56800 59025 81824
AAXX 29181 76776 06/// /0901 10258 20067 38514 40095 58020 60002 7//// 8//// 91750 333 0//// 10263 20094 30/// 4//// 56/// 57/// 59025 60007 8//// 8//// 8//// 9//// 9//// 9//// 444 ////
AAXX 29181 76805 32570 11504 10297 20232 30138 40144 57009 81100 91750 333 10324 20220 30/// 561// 58/// 81830
AAXX 29181 76806 06/// /1604 10288 20229 30139 40143 58008 60002 7//// 8//// 91750 333 10305 20210 30/// 56/// 57/// 59016 60007 8//// 8//// 8//// 8//// 9//// 9//// 9//// 555 30273
AAXX 29181 76833 32970 03606 10298 20187 30142 40144 57013 91745 333 10298 20214 30/// 59007 92000
AAXX 29181 76840 32960 00204 10294 20176 30099 40155 52003 91745 333 10298 20197 30/// 58003
AAXX 29181 76843 32565 10801 10246 20165 39514 40162 57009 81100 91735 333 10254 20158 30/// 567// 59021 81823
AAXX 29181 76845 32660 32702 10206 20123 37955 40184 56020 83400 91750 333 10220 20065 30/// 56200 59014 83635
AAXX 29181 76848 32770 11601 10260 20128 38389 40103 57009 81200 91750 333 10260 20110 30/// 56100 59025 81850
AAXX 29181 76902 06/// /3102 10312 20206 30007 40143 58017 60002 7//// 8//// 91750 333 0//// 10314 20226 30/// 4//// 54/// 56/// 57/// 59005 60007 8//// 8//// 8//// 8//// 9//// 9//// 9/
AAXX 29181 76903 31680 32903 10315 20206 30007 40137 57015 70122 83200 91755 333 10320 20233 30/// 56100 59009 83833
AAXX 29181 76160 32962 00501 10174 21015 39921 40174 52003 91730 333 10174 20040 30/// 59034
AAXX 29181 76243 32974 01501 10184 20052 39884 40186 57017 91740 333 10236 20040 30/// 59025
AAXX 29181 76311 32980 00000 10226 20060 39873 40158 50001 91740 333 10226 20061 30/// 59017
AAXX 29181 76405 32980 43603 10231 20089 30150 40172 52006 80001 91750 333 10231 20138 30/// 56005 59021 84070
AAXX 29181 76412 32966 02201 10190 20112 30135 40180 52015 91745 333 10200 20068 30/// 59004
AAXX 29181 76640 31358 32702 10206 20184 30207 40219 52023 70200 822/8 91740 333 10222 20152 30/// 567/9 59017 82809
AAXX 29181 76647 32570 73602 10274 20203 30160 40191 57003 875// 91750 333 10286 20170 30/// 568// 59014 87629
AAXX 29181 76656 32975 40000 10245 20103 38520 40176 58006 80008 91750 333 10252 20070 30/// 56005 59012 84280
AAXX 29181 76855 32980 01301 10308 20228 30086 40135 51008 91740 333 10315 20210 30/// 59002 92000
BBXX UFTA 29181 99845 71237 11996 81803 11309 21342 40110 57004 69932 77172 80007
AAXX 29184 85223 32570 70000 10252 20109 37490 47134 57038 82236 333 56000 59045 82827 87070
AAXX 29184 85283 31584 60312 10202 20124 37189 47113 57025 71500 85903 333 56100 59043 83820 82930
AAXX 29184 85293 32484 70605 10116 20084 36367 57020 85904 333 56500 59033 84617 81923 87870
AAXX 29184 85312 32684 41604 10300 20214 38740 57030 84100 333 56000 59040 84836
AAXX 29184 85345 11220 80000 10230 20230 39624 40080 57023 60031 75165 8672/ 333 56449 58000 86704 88457
AAXX 29184 85364 32670 61506 10264 20165 38136 48236 57019 83902 333 56000 59028 82833 81936 85070
AAXX 29184 85365 12470 80000 10238 20224 39356 40094 57025 60031 8652/ 333 56409 59014 86613 88457
AAXX 29184 85394 32484 80904 10290 20239 39640 40067 57028 8552/ 333 56009 59030 85620 88457
AAXX 29184 68379 16/// /1204 10243 20169 39839 48578 52013 69922 333 10306 20242 91009 555 20002 91016
AAXX 29184 68398 36/// /3611 10202 20163 39388 48532 52010 333 10271 20202 91017 555 91016
AAXX 29184 68299 36/// /1508 10141 20095 38954 48539 52008 333 10178 20141 91011 555 91021
AAXX 29184 91930 16/// ///// 10276 20232 69941
AAXX 29184 91943 36/// /0713 10285 20208 30143 40145 51009 333 10290 58005
AAXX 29181 89061 379// 01202 10035 20010 39791 49798 57002 70010 333 91004 91104
AAXX 29184 03008 16/// /3210 10039 21023 39911 49981 53019 60002 91750 333 10041
AAXX 29184 03010 46/// /3406 10045 20023 40013 52039
AAXX 29184 03014 46/// /3411 10014 21028 49991 53021 91750 333 8////
AAXX 29184 03031 17242 /3028 10010 21006 39731 40063 53030 60062 786// 91750 333 10027 553// 20000 81/05 85/13 90710 91140 91040
AAXX 29184 03034 17662 /2924 10056 20017 30051 40065 51025 60042 723// 91750 333 10063 83/36 83/50 90710 91137 91035
AAXX 29184 03037 17665 /3118 10048 20005 30063 40086 52017 60042 723// 91750 333 10070 82/39 90710 91132
AAXX 29184 03039 46/// /3239 11020 21050 91750 333 11001 90710 91160 91050
AAXX 29184 03041 46/// /2916 11052 21054 91750 333 11017 90710 91130 91028
AAXX 29184 03044 17565 /3121 10028 20010 39927 40027 53018 60072 762// 91750 333 10039 553// 20000 81/20 83/27 90710 91140 91031
AAXX 29184 03047 17678 /2807 10021 21023 39776 40083 51013 60082 724// 91750 333 10039 553// 20000 81/40 85/45 91017
AAXX 29184 03062 17563 /2820 10033 20005 30029 40034 53013 60082 761// 91750 333 10037 553// 20000 81/23 85/45 90710 91133
AAXX 29184 03065 46/// /2947 11057 21064 91750 333 11029 90710 91169 91064
AAXX 29184 03068 11680 52821 10031 20005 30025 40034 51019 60042 72582 85830 91750 333 10040 82830 84656 90710 91139
AAXX 29184 03080 17563 /2715 10021 21012 39866 40039 51024 60022 741// 91750 333 10046 81/26 90710 91127 91027
AAXX 29184 03088 15982 /2926 10028 21025 39850 40015 50003 69922 91750 333 10048 553// 20000 8//99 90710 91142 91038
AAXX 29184 03094 17460 /2931 10047 20021 30001 40006 53021 60022 723// 91750 333 10056 83/13 85/39 90710 91145
AAXX 29184 03105 17660 /3128 10059 20024 30111 40128 51018 60032 723// 91750 333 10080 81/38 90710 91144 91038
AAXX 29184 03132 17567 /3023 10051 20023 30116 40129 50023 60082 782// 91750 333 10081 81/25 86/50 90710 91144 91044
AAXX 29184 03144 15982 /2615 10036 21023 30028 40072 51020 69982 91750 333 10055 553// 20000 8//99
AAXX 29184 03148 46/// /3129 10004 21039 91750 333 10009 90710 91137
AAXX 29184 03153 17774 /3018 10035 20012 39973 40113 51020 60052 723// 91750 333 10068 553// 20000 81/50 90710 91133
AAXX 29184 03155 16572 /2816 10018 21007 39796 40098 52021 60052 91750 333 10043 81/23 86/29 90710 91126
AAXX 29184 03158 15984 /2720 10028 21004 39921 40059 50012 69922 91750 333 10058 553// 20000 8//99 90710 91131 91031
AAXX 29184 03210 16422 /3029 10039 20025 39969 40123 53020 60042 91750 333 10071 82/14 85/57 90710 91139 91039
AAXX 29184 03212 17579 /2913 10047 20012 30018 40118 52019 60052 781// 91750 333 10074 81/23 83/27 86/56 91024
AAXX 29184 03214 17667 /3025 10056 20030 30108 40127 52017 60022 723// 91750 333 10084 84/35 84/44 90710 91151
AAXX 29184 03220 16183 ///// 10036 20017 30068 40103 51013 60072 91750 333 10066 81/02
AAXX 29184 03225 16668 /3014 10036 21012 39804 40114 51015 60052 91750 333 10068 553// 20000 81/35 84/59 90710 91128 91028
AAXX 29184 03226 17581 /3115 10030 20006 39825 40104 51019 60022 723// 91750 333 10064 85/20 83/25
AAXX 29184 03230 16580 /3007 10023 21003 39822 40082 51014 60032 91750 333 10046 81/28 83/34
AAXX 29184 03238 15982 /2713 10022 21001 39901 40077 52013 60022 91750 333 10057 8//99
AAXX 29184 03261 16967 /2918 10050 21002 30053 40093 52001 60022 91750 333 10079 8//99 90710 91132
AAXX 29184 03265 15969 /3017 10056 20003 30063 40094 53004 60032 91750 333 10084 8//99 90710 91133
AAXX 29184 03266 16974 /2812 10050 21001 30079 40096 51004 60032 91750 333 10083 8//99
AAXX 29184 03275 15972 /2823 10033 21009 39879 40073 53014 69922 91750 333 10062 81/59 90710 91139 91034
AAXX 29184 03281 16/// /2929 10027 21003 69962 91750 333 10057 90710 91142 91040
AAXX 29184 03903 16764 /2914 10072 20031 30121 40179 52017 60062 91750 333 10088 553// 20000 84/50 87/63
AAXX 29184 03904 16764 /2609 10057 20028 30109 40170 52013 60042 91750 333 10081 85/50 87/64 90710 91125
AAXX 29184 03907 17769 /2930 10066 20011 30144 40151 51016 60052 723// 91750 333 10082 55300 20000 85/50 90710 91141 91041
AAXX 29184 03911 16668 /3122 10043 20019 39880 40157 51014 60072 91750 333 10062 81/31 85/43 90710 91137
AAXX 29184 03915 16775 /2818 10049 20033 30066 40146 51014 60072 91750 333 10072 86/50 90710 91133
AAXX 29184 03916 16471 /3311 10047 20021 39945 40138 51020 60062 91750 333 10065 553// 20000 81/11 84/20 85/50 90710 91141 91024
AAXX 29184 03923 17763 /3215 10054 20016 39962 40161 51011 60072 723// 91750 333 10073 86/50 86/64 90710 91128
AAXX 29181 01427 11565 33015 10059 21024 39904 49920 58003 60032 70281 83900 333 10063 91129
AAXX 29181 01115 11340 82102 11007 21018 39825 49845 52020 60022 77172 8272/ 333 10017 91105
AAXX 29181 01205 46/// /0308 10051 20012 39850 49895 53029 333 10057 91118
AAXX 29184 03301 16556 /3123 10062 20044 30098 40173 52018 69942 91750 333 10095 82/27 85/32 90710 91134 91034
AAXX 29184 03305 15565 /2521 10069 20015 39905 40169 50015 60062 91750 333 10085 85/27 85/33 90710 91142 91035
AAXX 29184 03313 16659 /2918 10075 20032 30063 40157 52012 60012 91750 333 10094 87/49 83/70 90710 91139 91029
AAXX 29184 03316 17662 /2924 10075 20045 30132 40143 51016 60052 723// 91750 333 10089 81/40 90710 91144
AAXX 29184 03318 16/// /3322 10052 20035 60012 91750 333 10086 90710 91136 91036
AAXX 29184 03321 16768 /3116 10072 20033 30140 40152 53019 60022 91750 333 10101 553// 20000 83/56 86/70 90710 91143
AAXX 29184 03330 17566 /3017 10042 20013 39770 40135 51007 60062 723// 91750 333 10067 81/23 85/34 90710 91135 91029
AAXX 29184 03344 17461 /2812 10033 20011 39794 40116 51019 60082 723// 91750 333 10062 86/17 90710 91132
AAXX 29184 03346 16/// /2924 10038 20018 60072 91750 333 10063 90710 91139 91035
AAXX 29184 03348 17777 /2919 10061 20019 30024 40132 51011 60072 723// 91750 333 10082 55300 20000 81/50 83/57 90710 91141 91029
AAXX 29184 03355 15978 /2819 10053 20022 30091 40102 50014 60022 91750 333 10085 55300 20000 81/60 90710 91129
AAXX 29184 03373 16550 /2829 10051 20019 30039 40110 53005 60032 91750 333 10075 81/24 85/50 90710 91141 91041
AAXX 29184 03379 16981 /2817 10055 20027 30044 40122 53005 60022 91750 333 10077 87/72 90710 91132
AAXX 29184 03382 15980 /2712 10047 20015 30079 40088 53008 60022 91750 333 10079 55300 20000 8//99 90710 91127
AAXX 29184 03385 46977 /2919 10049 20023 30081 40090 55004 91750 333 10080 8//99 90710 91135
AAXX 29184 03391 11682 62922 10069 20010 30102 40109 50001 60032 70282 85830 91750 333 10081 83835 84656 90710 91134
AAXX 29184 03392 16673 /2823 10062 20026 30097 40100 56009 60022 91750 333 10078 81/37 84/59 90710 91131
AAXX 29184 03405 16669 /3029 10087 20044 30073 40189 52013 69982 91750 333 10097 553// 20000 85/34 85/50 90710 91148 91039
AAXX 29184 03409 16/// /2713 10075 20011 60102 91750 333 10085 55300 2//// 90710 91127 91025
AAXX 29184 03410 16468 /2908 10047 20037 39726 40165 53008 60232 91750 333 10066 553// 20000 85/17 83/26 90710 91127 91023
AAXX 29184 03469 17576 /2917 10060 20043 30106 40110 55008 69942 781// 91750 333 10085 553// 20000 81/28 83/32 90710 91131
AAXX 29184 03488 15981 /2726 10062 20035 30071 40096 55012 60012 91750 333 10079 82/62 90710 91140
AAXX 29184 03503 17464 /3011 10080 20071 30110 40187 52006 60092 762// 91750 333 10091 81/18 85/23 90710 91129 91021
AAXX 29184 03507 17475 /3005 10066 20060 39808 40182 50000 60072 761// 91750 333 10073 86/14 83/22
AAXX 29184 03520 16657 /2916 10079 20048 30047 40168 51010 60062 91750 333 10093 553// 20000 85/34 83/50 90710 91132
AAXX 29184 03522 17583 /2610 10078 20066 30081 40175 50006 60022 723// 91750 333 10097 86/24 84/50 90710 91125 91020
AAXX 29184 03529 15680 /2919 10080 20047 30119 40162 50001 60062 91750 333 10101 81/41 90710 91130 91029
AAXX 29184 03544 17673 /2818 10073 20036 30014 40146 53003 60012 723// 91750 333 10086 553// 20000 81/34 83/41 90710 91128 91028
AAXX 29184 03560 15783 /2817 10080 20044 30033 40137 55006 69942 91750 333 10088 553// 20000 83/56 87/71 90710 91134 91027
AAXX 29184 03604 16457 /2917 10092 20082 30158 40212 53002 69982 91750 333 10104 87/17 90710 91134 91030
AAXX 29184 03605 16557 /2823 10093 20081 30198 40207 57003 60012 91750 333 10103 82/20 85/50 90710 91138
AAXX 29184 03609 16/// /2627 10092 20075 30151 40204 55005 6///2 91750 333 10101 90710 91144 91039
AAXX 29184 03628 17462 /2617 10088 20073 30110 40182 56007 69942 781// 91750 333 10095 55300 20000 81/18 85/22 86/33 90710 91135
AAXX 29184 03647 16672 /2920 10065 20052 39901 40158 50000 60032 91750 333 10086 553// 20000 82/33 84/56 90710 91140
AAXX 29184 03658 16533 /2910 10077 20066 30096 40166 55006 60042 91750 333 10101 82/22 87/35 90710 91131
AAXX 29184 03660 17684 /2914 10062 20053 39903 40153 55011 60032 761// 91750 333 10083 82/30 87/50 90710 91129 91026
AAXX 29184 03672 11558 82916 10072 20049 30116 40157 55015 60022 76262 875/2 91750 333 10100 82623 85640 87656 90710 91135
AAXX 29184 03684 17680 /2719 10080 20046 30029 40136 56014 60012 723// 91750 333 10083 81/37 85/66 90710 91130 91030
AAXX 29184 03693 16670 /2617 10084 20066 30140 40143 56023 69982 91750 333 10094 85/31 85/50 90710 91129 91027
AAXX 29184 03707 15560 /2723 10104 20083 30217 40224 58008 60022 91750 333 10104 81/29 86/41 90710 91135
AAXX 29184 03710 16467 /2833 10071 20068 39775 40198 55015 60062 91750 333 10073 553// 20000 86/12 90710 91148 91045
AAXX 29184 03743 16577 /2717 10092 20061 30019 40181 56006 69982 91750 333 10092 87/20 84/30 90710 91133 91031
AAXX 29184 03749 16575 /2826 10098 20061 30067 40177 56011 69962 91750 333 10098 86/24 83/37 85/60 90710 91143 91041
AAXX 29184 03761 15574 /2625 10091 20050 30022 40166 56018 69902 91750 333 10092 55300 20000 86/21 83/43 90710 91140 91035
AAXX 29184 03768 16580 /2717 10098 20055 30084 40164 58018 69922 91750 333 10098 85/22 87/29 90710 91135 91028
AAXX 29184 03769 15577 /2515 10097 20058 30080 40162 58022 69942 91750 333 10097 55300 20000 86/28 85/50 90710 91127 91025
AAXX 29184 03770 16/// ///// 10073 20057 60042 91750 333 10103
AAXX 29184 03781 17560 /2520 10083 20057 39948 40155 58024 69922 781// 91750 333 10087 553// 20000 85/22 86/28 90710 91130
AAXX 29184 03797 17676 /2518 10080 20055 30084 40144 56029 69902 723// 91750 333 10091 55300 20000 86/38 83/69 90710 91129
AAXX 29184 03823 17360 /2923 10080 20076 39995 40241 56012 60042 761// 91750 333 10086 553// 20000 84/08 83/15 85/27 90710 91138 91034
AAXX 29184 03839 16/// ///// 10097 20079 69982 91750 333 10108 553// 20000
AAXX 29184 03857 17661 /2938 10104 20076 30138 40202 56016 69922 723// 91750 333 10108 87/32 90710 91151 91051
AAXX 29184 03862 15970 /2720 10093 20059 30182 40194 58015 60012 91750 333 10099 55300 20000 81/60 85/71 90710 91132
AAXX 29184 03866 16/// /2727 10098 20070 30168 40193 58011 60012 91750 333 10101 90710 91138 91037
AAXX 29184 03872 15678 /2716 10096 20067 30179 40184 56017 60022 91750 333 10097 553// 20000 87/31 90710 91128
AAXX 29184 03876 16/// /2616 10093 20071 30177 40180 58020 60022 91750 333 10094 90710 91125
AAXX 29184 03895 41465 72827 10099 20066 40263 56011 72582 878// 333 10102 83818 87632 90710 91137
AAXX 29184 03896 16/// ///// 10102 6996012 333 10104
AAXX 29184 68024 42660 50505 10285 20187 48487 53011 81982 333 10330
AAXX 29184 68029 41460 71809 10217 20202 48506 52025 79596 86973 333 10296
AAXX 29184 68030 41560 70205 10226 20199 48499 52024 71799 82973 333 10284
AAXX 29184 68032 41660 70202 10255 20224 48504 52026 72999 82980 333 10326
AAXX 29184 68054 42460 30908 10221 20187 48536 53022 83400 333 10295
AAXX 29184 68070 42560 30910 10226 20192 48520 52020 82982 333 10291
AAXX 29184 68148 42660 50000 10222 20191 48502 52011 82980 333 10280
AAXX 29184 68226 42660 21808 10303 20094 48492 53006 82282 333 10347
AAXX 29184 68234 41560 73604 10254 20195 48497 52021 71722 85980 333 10328
AAXX 29184 68240 42660 40504 10250 20186 48496 52013 82980 333 10299
AAXX 29184 68320 41660 40000 10293 20191 48499 52012 71322 82983 333 10350
AAXX 29184 68328 41660 31704 10297 20162 48493 52010 71312 82903 333 10341
BBXX 41038 29181 99341 70777 46/// /1901 10161 40182 58022 91800 22200 00138 333 91202
AAXX 29184 70026 NIL
AAXX 29184 70133 NIL
AAXX 29184 70174 NIL
AAXX 29184 70200 NIL
AAXX 29184 70219 NIL
AAXX 29184 70231 NIL
AAXX 29184 70261 NIL
AAXX 29184 70267 NIL
AAXX 29184 70271 NIL
AAXX 29184 70273 NIL
AAXX 29184 70308 NIL
AAXX 29184 70316 NIL
AAXX 29184 70326 NIL
AAXX 29184 70340 NIL
AAXX 29184 70350 NIL
AAXX 29184 70361 NIL
AAXX 29184 70381 NIL
AAXX 29184 70398 NIL
AAXX 29184 70414 NIL
AAXX 29184 78526 NIL
AAXX 29184 78543 NIL
AAXX 29184 78255 42460 11203 10279 20169 30028 40177 57030 81100 333 10281 20174 81818
AAXX 29184 78317 NIL
AAXX 29184 78318 NIL
AAXX 29184 78325 NIL
AAXX 29184 78333 NIL
AAXX 29184 78338 NIL
AAXX 29184 78348 NIL
AAXX 29184 78349 NIL
AAXX 29184 78353 NIL
AAXX 29184 78360 NIL
AAXX 29184 78367 NIL
AAXX 29184 78369 NIL
AAXX 29184 48657 11358 73604 10240 20219 30101 40119 69901 70562 84537 333 81709 84624 87276
BBXX MIBR 29183 99094 30804 41/97 82515 10280 20252 40061 54000 70222 8//// 22254 00290 2//// 3//// 4//// 5//// 80260
BBXX MGRH9 29184 99266 31533 41/97 /1624 10230 20174 40088 50001 76066 8//// 22200 00236 2//// 3//// 4//// 5//// 80195
BBXX PCCL 29183 99397 31623 41097 81817 10150 40120 52004 70285 887// 22263 04186 20503 321// 40807
BBXX VK4041 29180 99096 51235 41598 70907 10253 20217 40152 52012 70122 858/2 22262 02253 20208 3//// 4//// 5//// 80229
BBXX A8KX4 29184 99410 51217 412// 81717 10145 20086 40210 52040 76065 8/7// 22264 04140 20203 30000 80115
BBXX PHAM 29184 99495 70011 41/97 /2731 10110 20072 40240 54000 7//// 8//// 22200 20408 80090 90926
BBXX A8MZ9 29184 99359 10165 41597 59904 10158 20128 54000 70351 843// 22264 04178 29990801
BBXX C6KD6 29184 99452 70168 41/98 92018 10128 20082 40395 54000 70322 8972/ 22214 02137 21008 80105
BBXX VRFX8 29184 99503 70292 41/93 /2030 10130 20130 40170 54000 74544 8//// 22214 0//// 20404 318// 40707 80130
BBXX WDF7994 29184 99440 70869 41/97 81922 10027 2//// 49997 54000 70207 88/// 22283 00033 20403 3//// 4//// 5//// 6//// 8//// ICE /////
BBXX C6WK7 29184 99324 70168 41698 40730 10169 2//// 40340 54/// 7//11 83183 22245 00210 2//// 323// 40503 5//// 6//// 8//// ICE /////
BBXX KAOU 29184 99003 10836 43/// /0187 10281 20240 40097 5//// 7//// 8//// 222// 04285 2//// 3//// 4//// 5//// 6//// 8//// ICE /////
BBXX NWS0029 29184 99415 70707 43/// /2715 11013 21121 40129 5//// 7//// 8//// 222// 04067 2//// 3//// 4//// 5//// 6//// 8//// ICE /////
BBXX NWS0003 29184 99539 71665 43/// /0000 11049 21069 40095 5//// 7//// 8//// 222// 0//// 2//// 3//// 4//// 5//// 6//// 8//// ICE /////
BBXX NWS0020 29184 99267 70705 43/// /0610 10225 20192 40186 5//// 7//// 8//// 222// 04253 2//// 3//// 4//// 5//// 6//// 8//// ICE /////
BBXX WCAJ 29184 99528 71401 417// 60912 10030 20006 49980 54000 7//// 8/7// 22214 00060 20301 327// 40704 5//// 6//// 80020 ICE /////
BBXX V7OQ6 29184 99378 70646 41697 72740 10160 20126 40160 51020 75022 87263 22272 00240 20512 3//// 4//// 5//// 6//// 80140 ICE /////
BBXX KEY796 29183 99571 71703 41/96 82913 11083 21106 40080 53/// 771// 8//// 222// 01017 2//// 3//// 4//// 5//// 6//// 8//// ICE /////
BBXX C6XC2 29184 99266 11262 41398 80235 10160 20144 4//// 52/// 78122 8895/ 22282 00240 2//// 3//// 4//// 5//// 6//// 80150 ICE /////
BBXX WXJ63 29183 99611 71464 41/97 80606 11047 21091 49891 5//// 702// 8//// 222// 00039 2//// 3//// 4//// 5//// 6//// 8//// ICE /////
AAXX 29184 91165 NIL
AAXX 29184 91182 NIL
AAXX 29184 91190 NIL
AAXX 29184 91212 NIL
AAXX 29184 91217 NIL
AAXX 29184 91285 NIL
AAXX 29184 91317 NIL
AAXX 29184 91334 32474 80608 10275 20222 30081 40084 56008 82171 333 56199 70003 555 92918
AAXX 29184 91348 32474 81005 10272 20233 30047 40100 55002 84201 333 562/9 555 92918
AAXX 29184 91356 NIL
AAXX 29184 91366 NIL
AAXX 29184 91369 NIL
AAXX 29184 91371 NIL
AAXX 29184 91376 32474 80510 10279 20238 30085 40088 53005 83878 333 56119 555 92918
AAXX 29184 91408 11472 80707 10267 20258 30041 40079 57012 69951 72582 83208 333 562/9 70124 555 92918
AAXX 29184 91413 32469 60610 10274 20240 30069 40095 57012 82272 333 56199 70046 555 92918
AAXX 29184 91425 NIL
AAXX 29184 91434 NIL
AAXX 29184 91765 NIL
AAXX 29184 91222 NIL
AAXX 29184 91245 NIL
AAXX 29184 91323 NIL
AAXX 29184 91339 NIL
AAXX 29184 91343 NIL
AAXX 29184 91353 NIL
AAXX 29184 91442 NIL
BBXX 46083 29181 99582 71380 46/// /2511 10003 21031 49970 51022 91750 22200 00063 11008 20505 300// 41007 70041 333 91215 555 11118 22126 31746 42615 61749 250103 256078 240055 238049 242078 269049 82513 91749
BBXX 46001 29181 99563 71480 46/// /2811 11018 49956 53019 91750 22200 00043 11408 20706 300// 41405 70038 333 91213 555 11112 22117 31704 42315 61749 276107 276115 273116 267112 259108 249108
BBXX 51000 29181 99235 71541 46/// /0807 10225 40237 53008 91750 22200 00226 11505 20502 333// 41505 70025 333 91209 555 11073 22077 31708 40810 61749 076068 073066 078072 081076 082084 084086
BBXX 51003 29181 99193 71606 46/// /0709 10243 40191 53012 91750 22200 00249 11505 20704 3//// 41504 70027 333 91210 555 11092 22097 31733 40710 61749 072086 069087 070080 069084 069083 066087
BBXX 44022 29181 99409 70737 46/// ///04 11007 21123 40158 56025 91800 22200 00084 333 91206 555 11041 22041
BBXX 46089 29181 99459 71258 46/// /1707 10094 20083 40159 56025 91750 22200 00094 11308 20503 326// 41308 70040 333 91209 555 11077 22082 31743 41709 61749 168073 167072 165071 160066 161066 163064
BBXX 46042 29181 99368 71224 46/// /3406 10111 40242 51014 91750 22200 00125 11305 20401 329// 41304 70023 333 91207 555 11062 22065 31736 43308 61749 337059 333063 327063 331061 337058 346053
BBXX 46053 29181 99342 71198 46/// /1902 10147 40188 53009 91750 22200 00136 11203 20301 327// 41203 70013 333 91202 555 11020 22024 31656 42403 61749 186016 205018 232014 225016 216021 228027
AAXX 29181 33135 11496 81904 10011 20003 39977 40159 57009 69932 71052 886// 333 10016 88710
AAXX 29181 33317 11596 82502 10013 21001 39826 40169 57008 69902 71022 885// 333 10017 88625
AAXX 29181 33345 NIL
AAXX 29181 33393 32460 82303 10023 21014 39784 40181 57008 885// 333 10036 88618
AAXX 29181 33506 32997 02304 11004 21013 30017 40219 57010 333 10030
AAXX 29181 33587 31348 82001 10026 20016 39922 40189 57012 71022 886// 333 10038 88708
AAXX 29181 33631 11295 80000 10017 20012 30058 40205 57008 60022 886// 333 10031 88705
AAXX 29181 33663 32997 83201 10035 20009 30092 40189 54000 8802/ 333 10069
AAXX 29181 33658 31496 82402 10005 21001 39892 40199 58004 71042 886// 333 10007 88710
AAXX 29181 33711 31497 81704 10010 20005 39995 40210 57013 70242 885// 333 10010 88617 93600
AAXX 29181 33791 32997 61804 10014 20000 30061 40216 57013 86050 333 10047
AAXX 29181 33837 11456 81902 10063 20059 30150 40202 56010 69902 71082 886// 333 10074 88711
AAXX 29181 33924 NIL
AAXX 29181 33946 32597 82001 10053 20029 30000 40223 57011 885// 333 10094 88632
AAXX 29181 34300 31939 01503 11020 21029 30031 40229 57009 71000 333 10018
AAXX 29181 34504 31948 01803 11016 21024 30045 40230 57011 71000 333 10029
AAXX 29181 34519 31925 01602 11022 21031 39963 40248 57011 71000 333 10021
AAXX 29181 34601 31932 01602 11011 21017 30098 40239 57011 71000 333 10035
AAXX 29181 26554 11456 72104 10030 20014 39878 40041 57009 69952 71052 876// 333 10032
AAXX 29181 26666 11240 82203 10017 20006 39853 40069 57010 69962 75052 886// 333 10018 88706
AAXX 29181 26850 11256 82202 10024 20014 39817 40090 57004 69912 76162 885// 333 10025 88705
AAXX 29181 26863 11235 81906 10006 20001 39861 40100 57012 60012 76165 8872/ 333 10008 88704
AAXX 29181 26941 11645 72304 10031 20015 39870 40107 57005 69902 71022 87500 333 10031 87633
AAXX 29181 26951 11457 82405 10026 20018 39912 40112 57003 69902 75152 886// 333 10027 88711
AAXX 29181 33008 32562 42304 10035 20010 39952 40131 57005 84500 333 10038
AAXX 29181 33019 31659 72003 10032 20011 39955 40131 57007 71022 875// 333 10033 87633
AAXX 29181 33036 11357 72103 10016 20008 39906 40140 57008 69902 71022 875// 333 10016 86708
AAXX 29181 33041 11356 82003 10011 20003 39981 40139 57014 69912 75152 886// 333 10011 88709
AAXX 29181 10270 16660 82107 10055 20001 30033 40088 58026 69902 222// 06044 333 10069 20053 3/004 55300 82/36 87/43 88/57 91115
AAXX 29184 78062 12669 30210 10220 20140 40186 60001 83500 333 59003 83640 90908
AAXX 29184 78905 11465 61216 10277 20218 30150 40173 60001 71511 86200 333 10296 20229 58001 86815
AAXX 29184 78906 11576 70905 10271 20214 30160 40164 69981 72581 86801 333 10300 20229 58004 70008 86818 90916
BBXX WHIA 29183 99178 11193 41398 20525 10260 2024/ 40135 5/000 70200 82100 22283 0//// 20201 305// 40505 5//// 6//// 80245 ICE /////
BBXX C6SI6 29184 99356 11409 46/// /3519 10075 20004 40169 53001 7//// 8//// 22213 0//// 2////
BBXX WCX8882 29184 99325 11345 41498 53324 10130 2005/ 40210 56008 70211 852// 22215 00220 2//// 3//// 4//// 5//// 6//// 80090 ICE /////
BBXX C6XC2 29184 99266 11262 41398 80235 10160 20144 4//// 52/// 78122 8895/ 22282 00240 2//// 3//// 4//// 5//// 6//// 80150 ICE /////
BBXX BATFR28 29184 99059 10816 46/// /2416 10274 20219 40096 50003 22262 00279
BBXX BATEU07 29184 99090 10903 46/// /1005 10274 40129 51004 22262
BBXX BATFR56 29184 99057 10971 46/// /1216 10275 20274 40112 52004 22223 00292
BBXX A8EH3 29183 99506 11616 41/98 70419 11015 40200 51030 70322 87/// 22264 04020 29904 399// 4//04
BBXX A8ME3 29180 99076 11087 41397 80213 10255 20234 40090 56010 76166 8//// 22213 04252 20604 303// 41206 5////
BBXX 46070 29181 99551 11753 46/// /3305 11029 21060 40141 54000 91750 22200 00034 10803 20502 3//// 40803 70016 333 91207 555 11054 22056 31721 43009 61749 330053 316067 305072 309073 311071 320060 83009 91722
BBXX DDZB2 29183 99390 11362 41396 82928 11025 21055 40210 51020 71066 8777/ 22254 04120 20609 328// 40804 81035
BBXX C6FY8 29183 99405 11319 41797 73330 11050 2106/ 40300 5//// 70222 8774/ 22243 0//// 20803 333// 40806 5//// 6//// 81050 ICE /////
BBXX DBLK 29181 99534 30000 41497 72712 10010 21006 49913 53001 70272 878// 22200 04009 20504 326// 41007
BBXX A8RL4 29184 99351 30198 41698 31707 10230 40150 54000 7//// 825// 22224 00220 20201
BBXX BATFR55 29184 99185 30559 44/97 00912 10272 20239 40129 70000 22232 00279 20804 30909 41204 51204
BBXX BATFR19 29184 99067 30055 46/// /1816 10234 20187 40122 52005 22200 00255
BBXX BATFR45 29184 99190 10614 46/// ///// 10240 20180 40176 58003 22244 00267
BBXX PJRH 29183 99263 10545 41497 13207 10210 20178 40200 52020 70000 81115 22264 20200 332// 40301 80190
BBXX DMQN 29184 99159 70262 41597 60522 10250 20199 40189 54000 70522 8441/ 22243 04250 20905 3//// 4//// 5//// 80215
BBXX DDYL2 29183 99234 10370 41/98 /0110 10235 20183 40155 51015 70000 8//// 22274 00250 2//// 80200
BBXX C6JE4 29183 99039 30663 41798 32815 10274 20224 40127 57002 70100 80001 22253 04281 20803 312// 41102 5//// 80240
BBXX P3GY9 29184 99141 50362 41897 50313 10300 2025/ 40155 57010 70222 85288 22243 00280 20702 308// 41103 5//// 6//// 80260 ICE /////
BBXX WCX7445 29184 99529 50704 43/// /1828 10126 2//// 49972 5//// 7//// 8//// 22212 00151 2//// 3//// 4//// 5//// 6//// ICE /////
BBXX 32012 29181 99197 50856 46/// ///// 1//// 91750 22200 11303 70017
BBXX UFTA 29181 99845 71237 11996 81803 11309 21342 40110 57004 69932 77172 80007
BBXX WDB9950 29183 99543 71755 41398 63210 11040 21044 40150 51010 77472 8679/ 22264 00040 2//// 3//// 4//// 5//// 6//// 81040 ICE /////
BBXX WDB9918 29184 99354 71240 41/91 91719 10111 2011/ 40200 51010 74944 89/// 22233 00111 2//// 327// 40804 5//// 6//// 80111 ICE /////
BBXX WSRH 29184 99260 71501 41498 60513 10211 2016/ 40225 53004 7//22 854// 22214 00211 29904 309// 4//05 5//// 6//// 80178 ICE /////
BBXX DGAF 29183 99165 70759 41298 30823 10275 20262 40150 58010 70200 83200 22254 00280 20404 80265
BBXX DPLE 29183 99469 70487 41597 62130 10065 20055 49980 52005 70311 8589/ 22264 00030 21006 80060
BBXX C6JT 29183 99260 70729 41598 30510 10225 2019/ 40190 56010 70311 82290 22265 20301 3//// 4//// 80200
BBXX 42363 29181 99282 70892 46/// /3603 10206 20117 40197 58003 91800 333 91203
BBXX 41041 29181 99142 70460 46/// /0709 10265 20191 40167 56017 91750 22200 00263 10705 20704 3//// 41002 70024 333 91210 555 11093 22099 31652 40811 61749 074087 074083 072081 070080 076084 076088 80810 91652
BBXX 44011 29181 99411 70666 46/// /2613 10031 21028 40100 53009 91750 22200 00090 11110 20706 3//// 41107 70048 333 91216 555 11141 22149 31703 40817 61749 263133 270131 260127 262131 260136 266132
BBXX 42364 29181 99291 70881 46/// /1003 10194 20139 40190 58017 91800
BBXX 42362 29181 99278 70907 46/// /2503 10206 20083 40193 58010 91800
BBXX 41046 29181 99238 70683 46/// /1304 10253 20196 40195 58019 91750 22200 00256 11504 20401 300// 41504 70019 333 91205 555 11046 22049 31747 41305 61749 131043 130043 133041 135041 131038 133040 81305 91746
BBXX 46239 29181 99363 71221 46/// ///// 1//// 91751 22200 00123 11305 20903 331// 41304 70024
BBXX 46238 29181 99334 71195 46/// ///// 1//// 91750 22200 00138 11304 20903 329// 41302 70018
BBXX 44039 29181 99411 70727 46/// /2704 11014 21100 40158 58021 91800 22200 00084 10401 70006 333 91206
BBXX 44060 29181 99413 70721 46/// ///07 11011 40146 56018 91800 22200 00088 333 91210 555 11072 22077
BBXX 44008 29181 99405 70692 46/// /2811 10025 21036 40136 50000 91750 22200 00105 11007 20705 321// 41005 70034 333 91213 555 11112 22117 31746 42813 61749 279106 284102 283097 282103 290101 285102
BBXX 44099 29181 99369 70757 46/// ///// 1//// 91752 22200 00110 11401 21001 309// 41401 70007
BBXX 41112 29181 99307 70813 46/// ///// 1//// 91751 22200 00167 11701 308// 41701 70005
BBXX 41110 29181 99341 70777 46/// ///// 1//// 91751 22200 00140 11501 20801 312// 41501 70006
BBXX 41113 29181 99284 70805 46/// ///// 1//// 91751 22200 00215 11301 20701 308// 41301 70005
BBXX 44100 29181 99363 70756 46/// ///// 1//// 91752 22200 00125 11502 20602 307// 41501 70010
BBXX 46224 29181 99332 71175 46/// ///// 1//// 91736 22200 00145 11301 21001 325// 41301 70006
BBXX 46214 29181 99379 71235 46/// ///// 1//// 91750 22200 00124 11305 20903 330// 41305 70027
BBXX 46218 29181 99345 71208 46/// ///// 1//// 91802 22200 00135 11305 20903 330// 41304 70025
BBXX 46215 29181 99352 71209 46/// ///// 1//// 91738 22200 00126 11304 20903 327// 41303 70019
BBXX 46213 29181 99403 71247 46/// ///// 1//// 91754 22200 00103 11205 21003 329// 41204 70026
BBXX 46225 29181 99329 71174 46/// ///// 1//// 91744 22200 00149 11202 20901 328// 41201 70010
BBXX 46236 29181 99368 71219 46/// ///// 1//// 91750 22200 00122 11304 21002 328// 41303 70020
BBXX 46229 29181 99438 71246 46/// ///// 1//// 91751 22200 00092 11107 21004 328// 41106 70036
BBXX 46232 29181 99325 71174 46/// ///// 1//// 91738 22200 00146 11303 20802 327// 41302 70013
BBXX 46212 29181 99408 71243 46/// ///// 1//// 91742 22200 00104 11306 21004 329// 41304 70030
AAXX 29181 06414 16/// /2608 10087 20048 30113 40145 58030 60052 333 10089 91115 91209
AAXX 29181 06459 16/// /2309 10067 20061 39973 40167 58028 60022 333 10067 91116 91211
AAXX 29181 06494 16/// /2509 10017 20015 39357 40167 58024 60042 333 10018 91115 91209
BBXX 46243 29181 99462 71241 46/// ///// 1//// 91759 22200 00090 11207 21004 326// 41205 70033
BBXX 44172 29181 99445 70634 46/// ///// 1//// 91801 22200 00060 11308 21006 318// 41306 70041
BBXX 51101 29181 99243 71621 46/// /0305 10227 20182 40231 53008 91750 22200 00236 11405 20401 332// 41405 70027 333 91206 555 11051 22054 31702 40908 61749 036049 043057 068063 087056 095057 097052
BBXX 46061 29181 99602 71468 46/// /2107 11022 49891 53040 91750 22200 00055 11103 20502 300// 41102 70014 333 91210 555 11074 22077 31735 42212 61749 215073 214075 209085 205080 204082 197085
BBXX 41009 29181 99285 70802 46/// /3104 10174 20075 40205 58016 91750 22200 00236 11502 20401 300// 41502 70009 333 91205 555 11042 22043
BBXX 42057 29181 99168 70815 46/// /0506 10275 20216 40160 58015 91750 22200 00277 10802 20501 3//// 40802 70011 333 91208 555 11062 22065 31746 40508 61749 052063 060063 057068 057067 060067 056064 80607 91723
BBXX 41010 29181 99289 70785 46/// /2504 10190 40196 58019 91750 22200 00236 11502 20301 300// 41502 70010 333 91206 555 11043 22045
BBXX 41101 29184 99146 70562 46/// /0822 10268 20220 40154 57018 22200 00269 10906 70031 555 1/028
BBXX CGJV 29184 99457 70627 46/// /2222 11045 21069 49915 55000 7//// 8//// 22200 0//// 2////
BBXX VCSZ 29184 99455 70735 46/// /2304 11141 21182 40130 56005 7//// 8//// 22200 0//// 2////
BBXX DDAC2 29180 99421 71341 41/96 /1813 10120 20120 40100 54000 71066 8//// 22273 04120 2//// 325// 40506 5//// 80120
BBXX WJBJ 29183 99244 70730 41398 31609 10250 2022/ 40173 57013 70200 83100 22234 00261 20101 335// 40403 5//// 6//// 80230 ICE /////
BBXX KRGB 29184 99281 71436 41/98 71115 10189 2014/ 40257 52007 7//22 87/// 22214 00200 212// 3//// 408// 5//// 6//// 80156 ICE /////
BBXX C6LU4 29184 99410 70472 41396 62430 10190 2016/ 40065 54000 75022 83787 22224 20808 3//// 4//// 5//// 80175
BBXX 3FCA9 29184 99516 71362 41698 81326 00/// 10020 21010 49980 56020 76166 88222 22274 00021 20565 30712 40806 50406 6//// 80020 ///// /////
BBXX 3FZK3 29184 99493 71230 46/// /1302 10065 20054 40167 53026 7//// 8//// 22200 0//// 2////
BBXX CGCC 29184 99463 70725 46/// /2414 11138 21195 40105 57002 7//// 8//// 22200 0//// 2////
BBXX VOKF 29184 99490 70669 46/// /2535 11117 21154 49871 51014 7//// 8//// 22200 0//// 2////
BBXX VOFG 29184 99456 70614 46/// /2622 11011 21076 49911 55005 7//// 8//// 22200 0//// 2////
BBXX VOLG 29184 99463 70582 46/// /2434 10024 21007 49875 53010 7//// 8//// 22262 0//// 2////
BBXX CGJK 29184 99484 71234 46/// /1806 10070 20037 40170 53006 7//// 8//// 22200 0//// 2////
BBXX VOKJ 29184 99492 70674 46/// /2632 11122 21163 49871 51065 7//// 8//// 22253 0//// 2////
BBXX VCLM 29184 99468 70712 46/// /2419 11148 21209 40063 51008 7//// 8//// 22200 0//// 2////
BBXX CGDR 29184 99484 71234 46/// /1705 10078 20064 40172 53006 7//// 8//// 22200 0//// 2////
BBXX CGDT 29184 99468 70712 46/// /2418 11143 21209 40071 51007 7//// 8//// 22200 0//// 2////
BBXX CGTF 29184 99476 70527 46/// /1419 10055 20001 49905 53006 7//// 8//// 22200 0//// 2////
BBXX CGSB 29184 99479 70695 46/// /3107 11125 21172 49993 51012 7//// 8//// 22200 0//// 2////
BBXX CGDG 29184 99447 70636 46/// /2423 11019 21016 49954 53004 7//// 8//// 22200 0//// 2////
BBXX VXKF 29184 99462 70602 46/// /2326 11021 21080 49868 58001 7//// 8//// 22200 0//// 2////
BBXX CGBR 29184 99507 71275 46/// /0803 10036 20035 40127 56004 7//// 8//// 22200 0//// 2////
BBXX VAAP 29184 99446 70635 46/// /2523 11007 21074 49949 53006 7//// 8//// 22200 0//// 2////
BBXX CGHL 29184 99476 70527 46/// /2820 10057 20003 49905 53006 7//// 8//// 22200 0//// 2////
BBXX CGBN 29184 99447 70636 46/// /1801 11000 21068 49958 53005 7//// 8//// 22200 0//// 2////
BBXX VCBW 29184 99468 70712 46/// /2326 11145 21201 40108 53050 7//// 8//// 22200 00021 2////
BBXX CG2958 29184 99531 71291 46/// /1117 10018 20009 40103 51011 7//// 8//// 22200 0//// 2////
BBXX VRYO3 29184 99456 70735 46/// /0000 10265 20062 40118 5//// 7//// 8//// 22200 0//// 2////
BBXX CGDX 29184 99468 70712 46/// /2418 11143 21207 40067 53009 7//// 8//// 22200 0//// 2////
BBXX VCWL 29184 99468 70712 46/// /2506 11149 21215 40073 51007 7//// 8//// 22200 0//// 2////
BBXX CGBY 29184 99487 71235 46/// /2808 10078 20018 40169 53014 7//// 8//// 22200 0//// 2////
BBXX VOPP 29184 99456 70735 46/// /2405 11148 21197 4//// 5//// 7//// 8//// 22200 0//// 2////
BBXX CZ9742 29184 99506 70969 46/// /1505 11068 21070 4//// 5//// 7//// 8//// 22200 0//// 2////
BBXX VCRG 29184 99474 70619 46/// /2222 11070 21096 49862 51013 7//// 8//// 22200 0//// 2////
BBXX CG2965 29184 99487 71235 46/// /2809 10081 20020 40171 53016 7//// 8//// 22200 0//// 2////
BBXX CGUM 29184 99447 70636 46/// /2617 11014 21090 49962 53005 7//// 8//// 22200 0//// 2////
BBXX 46041 29181 99474 71247 46/// /1606 10086 40165 50000 91750 22200 00083 11308 20602 3//// 41308 70042 333 91209 555 11067 22072 31748 41409 61749 155062 154057 156053 157044 165042 171039
BBXX 46026 29181 99378 71228 46/// /3106 10107 40249 53011 91750 22200 00112 11304 20501 328// 41304 70020 333 91207 555 11060 22063 31745 43107 61749 303057 283051 294048 287038 281037 293046
BBXX 44007 29181 99435 70701 46/// /2810 11024 21137 40078 58003 91750 22200 00081 11102 20402 3//// 41101 70009 333 91212 555 11103 22107 31709 42613 61749 282099 278109 275105 273105 278104 280101
BBXX 46072 29181 99517 71722 46/// /3006 11012 21089 40147 52008 91750 22200 00044 10903 20501 3//// 40903 70016 333 91208 555 11060 22063 31743 43108 61749 302056 292054 295051 290048 288045 302047 83007 91744
BBXX 46035 29181 99571 71778 46/// /3407 1//// 40144 52004 91750 22200 10703 20602 300// 40702 70017 333 91210 555 11074 22079 31717 43610 61749 335076 345076 343076 349077 341070 344081 83409 91724
BBXX 46077 29181 99579 71543 46/// /2614 11088 21117 49934 53017 91750 22200 00040 10705 20705 3//// 41101 70027 333 91217 555 11144 22151 31741 42618 61749 257137 262137 271126 267128 267123 262136 82615 91747
BBXX 46082 29181 99597 71434 46/// ///// 11013 49935 52030 91750 22200 00061 11106 70030
BBXX 41040 29181 99145 70530 46/// /0711 10269 20218 40165 56020 91750 22200 00271 10706 20705 3//// 40903 70029 333 91213 555 11112 22120 31732 40713 61749 070106 066105 070104 069104 069107 066102 80712 91747
BBXX 42039 29181 99288 70860 46/// /1207 10184 40186 58017 91750 22200 00227 10301 20301 70006 333 91209 555 11070 22073 31738 41209 61749 119067 121068 120067 125063 125060 121061 81308 91738
BBXX PHCQ 29183 99299 70902 41/// /1803 40175 58020 7//// 8//// 22200 20000 3//// 4//// 5////
BBXX A8IO2 29184 99250 70360 41598 60710 10250 20196 40255 56030 70122 84466 22254 04230 20504 309// 41004 5//// 80215
BBXX PHQX 29183 99246 70473 41698 50506 10265 20184 40260 70211 85261 22254 20806 331// 40806 5//// 80210
BBXX FVNM 29184 99094 70799 46/// /3515 10279 20242 40121 58014 22200 00290
BBXX 41036 29181 99342 70770 46/// ///// 10132 20025 40185 58023 91750 22200 00176 11502 70008
BBXX 44066 29181 99396 70726 46/// /2607 10024 21025 40164 58013 91750 22200 00129 10603 20603 3//// 41202 70017 333 91210 555 11072 22074 31746 42710 61749 261069 268072 266077 265078 265076 264072
BBXX 41043 29181 99211 70650 46/// /1007 10253 20216 40201 58021 91750 22200 00258 11505 20502 300// 41504 70024 333 91208 555 11072 22076 31739 40808 61749 095067 095068 095067 097061 092066 089066 80907 91740
BBXX WSRL 29183 99369 71266 41/96 82709 10125 2012/ 40255 52020 74522 88/// 22254 0//// 20901 32831 40904 51002 6//// 80120 ICE 0/0//
BBXX V7OQ6 29184 99378 70646 41697 72740 10160 20126 40160 51020 75022 87263 22272 00240 20512 3//// 4//// 5//// 6//// 80140 ICE /////
BBXX A8LP6 29184 99335 70579 41597 62522 10230 20185 40190 52010 70222 865// 22224 04170 29904 324// 41206 80200
BBXX WCAJ 29184 99528 71401 417// 60912 10030 20006 49980 54000 7//// 8/7// 22214 00060 20301 327// 40704 5//// 6//// 80020 ICE /////
BBXX PCGM 29183 99185 70354 41398 80724 10238 20185 40197 70352 85770 22283 04257 20504 307// 41207 80202
BBXX WDD3825 29184 99393 70551 41796 82723 10170 2012/ 40092 51002 75065 887// 22224 00210 2//// 3//// 4//// 5//// 6//// 80140 ICE /////
BBXX 44040 29181 99410 70736 46/// /3004 11012 21118 40163 91745 22200 1//00 70001 333 91207 555 11041 22041
BBXX 44020 29181 99414 70702 46/// /2609 1//// 40126 54000 91750 22200 00068 333 91211 555 11094 22100
BBXX 46054 29181 99342 71204 46/// /3209 10152 40186 52007 91750 22200 00134 11304 20602 300// 41303 70020 333 91211 555 11097 22107 31745 43211 61749 322089 324066 329054 330038 326031 334048
BBXX 46025 29181 99337 71191 46/// /0801 10151 20124 40187 53013 91750 22200 00150 11103 20401 327// 41103 70015 333 91202 555 11012 22015 31710 41103 61749 087011 108017 112017 113018 121018 103015
BBXX 46028 29181 99357 71219 46/// /3207 10129 40224 53017 91750 22200 00132 11305 20603 331// 41305 70026 333 91209 555 11077 22081 31729 43210 61749 322073 322076 321077 324069 330061 331061
BBXX 46029 29181 99461 71245 46/// /1606 10094 20083 40170 58008 91750 22200 00093 11208 20402 328// 41208 70039 333 91208 555 11066 22071 31725 41608 61749 163062 161063 164066 164058 163056 168062
BBXX 46087 29181 99485 71247 46/// /1005 10076 20069 40167 52010 91750 22200 00081 11307 20401 327// 41307 70036 333 91207 555 11048 22051 31740 41007 61749 096045 098045 102041 093037 084034 078031
BBXX 46012 29181 99374 71229 46/// /3106 10109 40248 53011 91750 22200 00121 11205 20501 329// 41205 70026 333 91208 555 11068 22071 31735 43008 61749 309064 311064 317059 319065 313062 317065
BBXX 46013 29181 99382 71233 46/// /2803 10112 40252 53014 91750 22200 00110 11205 3//// 41205 70024 333 91203 555 11027 22030 31728 42804 61749 277026 277033 274030 270028 274025 274025
BBXX 46069 29181 99337 71202 46/// /3303 10147 40191 91750 22200 00135 11305 20401 329// 41305 70026 333 91204 555 11033 22039 31701 43306 61749 329027 334034 333039 330041 323055 328050
BBXX 46086 29181 99325 71180 46/// /3002 10117 40194 51012 91750 22200 00149 11304 20401 329// 41304 70019 333 91203 555 11017 22018 31743 43103 61749 300016 283015 295006 312003 246006 237005
BBXX 46011 29181 99350 71210 46/// /3607 10158 40216 53009 91750 22200 00131 11504 20602 329// 41504 70020 333 91208 555 11076 22087 31651 43509 61749 003068 357066 355071 356057 355059 353072
BBXX 46050 29181 99442 71246 46/// /1606 10096 40182 58014 91750 22200 00096 11307 20502 328// 41307 70036 333 91208 555 11062 22066 31747 41508 61749 159057 156053 154055 154056 158047 158050
BBXX 46014 29181 99394 71240 46/// /2003 10117 40252 53008 91750 22200 00114 11205 20401 3//// 41205 70026 333 91204 555 11035 22039 31651 42105 61749 197032 203033 212035 213038 218041 216044
BBXX 44027 29181 99443 70673 46/// /2815 11027 21104 40017 53011 91750 22200 00077 10908 20505 3//// 40906 70041 333 91218 555 11160 22169 31721 42722 61749 280151 275151 273154 274155 274157 272149
BBXX 46027 29181 99419 71244 46/// /1607 10104 40203 56023 91750 22200 00095 11306 20702 329// 41305 70028 333 91209 555 11080 22088 31736 41609 61749 162074 158074 152070 148065 147063 144058
BBXX 44025 29181 99402 70732 46/// /2607 10003 21059 40161 56015 91750 22200 00100 11302 20501 312// 41302 70011 333 91209 555 11073 22076 31740 42710 61749 265072 271074 259066 269066 271068 265068
BBXX 41008 29181 99314 70809 46/// /2405 10124 20040 40207 57017 91750 22200 00161 11501 300// 41501 70005 333 91206 555 11049 22050 31741 42406 61749 238046 237044 245040 252038 257038 262035
BBXX 46088 29181 99483 71232 46/// /1903 10069 40169 91750 22200 00077 10501 20401 325// 40501 70005 333 91203 555 11029 22030 31731 41906 61749 189029 181042 195043 210038 209024 265032
BBXX 46047 29181 99324 71195 46/// /3204 10143 40193 51009 91750 22200 00138 11305 20401 329// 41305 70023 333 91205 555 11044 22049 31707 43006 61749 316041 312042 312044 311047 309045 304046
BBXX 41013 29181 99334 70777 46/// /3103 10140 20049 40184 58022 91750 22200 00204 11502 314// 41502 70010 333 91204 555 11027 22027 31721 42806 61749 308026 279027 284039 296039 296039 293035
BBXX 44009 29181 99385 70747 46/// /2603 10030 40193 58017 91750 22200 00107 11302 20401 300// 41301 70008 333 91205 555 11034 22035 31654 42806 61749 262034 280031 288029 311033 303036 289043
BBXX 44065 29181 99404 70737 46/// /2405 10000 21082 40161 56019 91750 22200 00101 11402 20401 314// 41401 70008 333 91207 555 11050 22051 31707 42708 61749 241048 250047 244051 262057 276055 280059 82707 91707
BBXX 44014 29181 99366 70748 46/// /2802 1//// 40188 58014 91750 22200 00213 10703 20401 303// 40703 70014 333 91205 555 11018 22018 31732 42406 61749 273017 232027 198007 106009 127014 234005
BBXX 41004 29181 99325 70791 46/// /2507 10146 20027 40062 58017 91750 22200 00201 11501 20401 3//// 41501 70006 333 91209 555 11070 22073 31748 42409 61749 243068 244065 243065 237062 235060 237058
BBXX 46075 29181 99539 71608 46/// /3309 11038 21066 40070 51019 91750 22200 00040 11204 20604 300// 41202 70022 333 91211 555 11091 22095 31741 43413 61749 330088 298086 291047 308055 319083 319095 83311 91740
BBXX 46080 29181 99580 71500 46/// /3107 11039 21098 49926 53019 91750 22200 00048 10706 20604 3//// 40704 70028 333 91209 555 11072 22075 31720 42310 61749 306069 290068 286068 283066 280067 293058 82808 91723
BBXX 46002 29181 99426 71305 46/// ///// 10129 40119 55008 91750 22200 00118 11307 70036
BBXX 46006 29181 99408 71375 46/// /2410 10139 40131 53005 91750 22200 00121 11509 20805 3//// 41508 70045 333 91212 555 11106 22116 31656 42413 61749 238098 235100 234100 234101 233103 236104
BBXX 46059 29181 99380 71300 46/// /2309 10147 40243 53007 91750 22200 00141 11206 20703 3//// 41206 70032 333 91211 555 11092 22099 31742 42311 61749 226084 220084 220083 218082 220082 219076
BBXX 46005 29181 99461 71310 46/// ///11 10086 40058 58048 91750 22200 00098 11208 20504 3//// 41207 70039 333 91214 555 11121 22128
BBXX 46084 29181 99566 71361 46/// ///// 10022 21029 40008 53017 91750 22200 00071 11108 70042
BBXX 46105 29181 99590 71522 46/// ///// 1//// 91750 22200 10707 70034
BBXX 42056 29181 99198 70849 46/// /0605 10259 20223 40173 58009 91750 22200 00272 10802 20401 304// 40802 70008 333 91206 555 11047 22049 31749 40606 61749 063045 065043 063045 056043 066044 072043 80705 91749
BBXX 42036 29181 99285 70845 46/// /1104 10164 20082 40201 58013 91750 22200 00214 10701 326// 40701 70005 333 91205 555 11040 22041 31657 41107 61749 114038 120035 112041 107043 108044 106047
BBXX 42019 29181 99279 70954 46/// /2904 10176 20093 40177 50000 91750 22200 10501 20401 324// 40501 70006 333 91206 555 11046 22048 31712 42806 61749 285044 283043 281044 282043 282042 282046
BBXX 42040 29181 99292 70882 46/// /0304 10191 40183 58015 91750 22200 00224 10301 70003 333 91205 555 11044 22045 31719 40107 61749 028045 026051 021051 019049 026019 036009
BBXX 42058 29181 99149 70749 46/// /0910 10272 20219 40129 58021 91750 22200 00272 10805 20805 70023 333 91211 555 11103 22110 31730 40912 61749 090095 090098 091100 090095 092096 090099 80910 91734
BBXX 42059 29181 99151 70675 46/// /1009 10274 20219 40151 58021 91750 22200 00278 10704 20704 3//// 41001 70020 333 91211 555 11098 22104 31710 41011 61749 097092 093090 093091 090095 091088 094088 80910 91709
BBXX 42035 29181 99292 70944 46/// /2205 10133 20131 40170 58008 91750 22200 00135 10401 20401 70004 333 91205 555 11049 22051 31650 42205 61749 222045 226043 221040 214035 213038 222040
BBXX 44005 29181 99432 70691 46/// /2813 11011 21093 40067 58008 91750 22200 00082 10706 20705 3//// 41102 70028 333 91215 555 11134 22141 31702 42816 61749 281127 276126 281131 287126 281126 281119
BBXX 42060 29181 99163 70635 46/// /0806 10270 20214 40170 58020 91750 22200 00273 11403 20402 300// 41403 70016 333 91207 555 11059 22063 31741 40707 61749 078057 077054 078056 077053 076055 075053 80706 91741
BBXX 41048 29181 99320 70696 46/// /2806 10196 20098 40195 56013 91750 22200 00223 10906 20501 3//// 40905 70028 333 91207 555 11055 22057 31741 42808 61749 278056 277054 285052 276054 277051 283054 82807 91730
BBXX 42012 29181 99301 70876 46/// /0103 10164 20122 40188 58013 91750 22200 00195 10301 20301 70003 333 91204 555 11034 22035 31656 40405 61749 016033 029031 039029 038029 039031 042038
BBXX 42001 29181 99259 70897 46/// /2704 10212 20116 40192 58013 91750 22200 00238 10501 3//// 40501 70004 333 91205 555 11043 22044 31652 42806 61749 267039 273037 278040 275041 271039 279039
BBXX 41001 29181 99347 70727 46/// ///// 10154 20035 40188 57016 91750 22200 00217 10904 70022
BBXX 41060 29181 99148 70510 46/// ///// 1//// 91750 22200 10806 70031
BBXX 41012 29181 99300 70805 46/// /2603 10151 40206 58016 91750 22200 00226 11401 308// 41401 70006 333 91206 555 11033 22034 31740 42707 61749 259033 262039 265037 257039 238029 244034
BBXX 41049 29181 99275 70630 46/// /1906 10234 20199 40214 56015 91750 22200 00231 10903 20502 300// 40903 70016 333 91206 555 11059 22064 31737 41907 61749 195054 195056 199053 201049 206051 206051 81906 91737
BBXX 42020 29181 99270 70967 46/// /3002 10186 20107 40183 58007 91750 22200 00191 1//00 70002 333 91203 555 11024 22025 31711 42603 61749 298022 283021 276022 267025 262026 262025
BBXX 41047 29181 99275 70715 46/// /1003 10214 40199 91750 22200 00249 11005 20401 331// 41005 70024 333 91204 555 11029 22030 31714 40905 61749 098028 089023 096023 079028 083033 072030 80904 91715
BBXX 42065 29181 99149 70750 46/// /0607 10271 20220 91750 22200 10802 20602 3//// 40801 70012 333 91208 555 11073 22077 31731 40709 61749 064068 069077 067072 069071 071072 069071 80708 91730
BBXX 41044 29181 99217 70587 46/// /1008 10255 20189 40216 58017 91750 22200 00261 11206 20603 300// 41205 70029 333 91209 555 11082 22087 31730 41010 61749 103077 099078 101076 099075 100076 103073 81008 91742
BBXX 42002 29181 99258 70937 46/// /2204 10233 20142 40183 58010 91750 22200 00242 10601 70003 333 91205 555 11042 22045 31738 42106 61749 220043 218046 228041 222041 217039 228037
BBXX 42055 29181 99222 70940 46/// /0504 10239 20186 40182 58010 91750 22200 00248 10501 20401 307// 40501 70005 333 91205 555 11046 22048 31715 40405 61749 048044 039042 041040 043043 044042 041043 80405 91704
BBXX 42003 29181 99260 70856 46/// /1205 1//// 91750 22200 10501 20501 332// 40501 70006 333 91207 555 11058 22061 31702 41108 61749 118054 124057 121060 123060 112061 112058 81107 91707
BBXX WSM5364 29183 99582 71393 41/98 82720 11022 2//// 49950 53/// 783// 8//// 222// 00072 2//02 324// 4//05 5//// 6//// 8//// ICE /////
BBXX WDC6698 29184 99213 71579 43/// /3306 1//// 2//// 40190 5//// 7//// 8//// 222// 04235 2//// 3//// 4//// 5//// 6//// 8//// ICE /////
BBXX NWS0022 29184 99416 70714 43/// /2707 10012 21141 40133 5//// 7//// 8//// 222// 04094 2//// 3//// 4//// 5//// 6//// 8//// ICE /////
BBXX C6QK 29183 99189 70745 41698 30713 10280 2022/ 40170 56020 70111 83262 22214 40302 82400
BBXX WDC6644 29184 99337 71212 41598 33225 10144 2010/ 40170 54000 70200 83/9/ 22273 00148 20201 332// 40706 5//// 6//// 80122 ICE /////
BBXX LAVD4 29184 99203 71464 41499 30521 10210 2016/ 40215 52015 70121 82321 22273 00220 20705 312// 41207 80180
BBXX WSLH 29184 99328 71339 41498 62705 10167 2013/ 40285 5//// 70311 8689/ 22254 00122 20100 329// 40901 5//// 6//// 80144 ICE /////
BBXX CG2960 29184 99429 70824 46/// /1607 10006 21002 40064 58044 7//// 8//// 22200 0//// 2////
BBXX CG2350 29184 99433 70798 46/// /0702 11013 21035 40112 58036 7//// 8//// 22200 0//// 2////
BBXX CGDS 29184 99433 70798 46/// /0803 11008 21034 40119 58036 7//// 8//// 22200 0//// 2////
BBXX WZP8164 29184 99475 70882 43/// /2607 11027 2//// 40007 5//// 7//// 8//// 22263 0//// 2//02 3//// 4//// 5//// 6//// 8//// ICE /////
BBXX ZCBH7 29184 99115 31163 41697 33315 10291 20279 40091 51031 70111 8/454 22283 04301 20202 334// 40202 5//// 80282
BBXX DCPX2 29183 99049 11065 41/96 /0225 10250 20250 40075 58025 76200 8//// 22214 04250 2//// 80250
BBXX BATFR53 29184 99185 51402 46/// /0517 10264 20207 40172 51010 22222 00272
BBXX SHIP 29183 99185 31189 41/98 22615 10260 2022/ 40078 58012 70200 8//// 22224 00286 2//// 3//// 4//// 5//// 6//// 80230 ICE /////
AAXX 29184 78866 01438 71011 10276 20225 30174 40179 57018 69901 78181 87400 333 58003 69907 81816 85818
BBXX PDZS 29183 99620 50482 41/93 81807 10017 21003 49812 53/// 71044 89/7/ 22251 02011 20101 327// 40704 5//// 80009
BBXX WBP3210 29184 99609 50836 43/// /3519 10047 2//// 49640 5//// 7//// 8//// 22252 00044 2//// 3//// 4//// 5//// 6//// ICE /////
BBXX DBEB 2918/ 99538 10481 41/// /2413 10053 20053 40031 57027 7//// 22200 04060
BBXX TFSRT 29184 99633 70203 46/// ///// 22200 11011 70054
BBXX TFSTD 29184 99664 70234 46/// ///// 22200 10706 70031
BBXX TFKGR 29184 99657 70136 46/// ///// 22200 10905 70024
BBXX TFHFN 29184 99642 70152 46/// ///// 22200 10806 70030
BBXX TFGRV 29184 99638 70225 46/// ///// 22200 11009 70045
BBXX TFGRS 29184 99663 70182 46/// ///// 22200 10603 70016
BBXX TFGSK 29184 99641 70229 46/// ///// 22200 10912 70062
BBXX TFBKF 29184 99635 70202 46/// ///// 22200 10908 70038
BBXX TFDRN 29184 99658 70212 46/// ///// 22200 10602 70010
BBXX DBBH 29181 99383 10120 41/98 /3002 10134 20072 40186 57008 71311 22223 04160
BBXX A8OZ4 29184 99361 10167 43698 70404 10160 20110 40180 54/// 7//// 87/// 22234 00169 80125
BBXX DBBA 29181 99541 10121 46/// /2503 10047 20029 40037 57026 22220 00058
BBXX DBBI 29181 99535 10100 46/// /2309 10047 20047 40049 57027 22240 00056
BBXX DBBC 29181 99535 10100 46/// /2208 10047 20032 40049 57026 22210 00063
BBXX DBFH 29181 99535 10086 46/// /2208 10053 20043 40046 57033 22270 00057
BBXX DBKR 29181 99541 10121 46/// /2308 10044 20041 40036 57026 22200 00053
BBXX DK7210 29181 99540 10066 46/// /2517 10058 20058 39993 222// 21308 70041
AAXX 29184 78866 01438 71011 10276 20225 30174 40179 57018 69901 78181 87400 333 58003 69907 81816 85818
BBXX TBWUK35 29183 99592 10040 41298 83234 10051 20044 49911 52020 75165 887// 22242 00100 20508 80048
BBXX DCDO2 29183 99039 11289 41398 50310 10265 20245 40090 56010 70122 85145 22234 00290 2//// 3//// 4//// 5//// 80250
AAXX 29184 78866 01438 71011 10276 20225 30174 40179 57018 69901 78181 87400 333 58003 69907 81816 85818
AAXX 29184 47101 31915 00000 11083 21095 30218 40321 52010 71000
AAXX 29184 47105 369// /2705 11015 21050 30270 40304 52007
AAXX 29184 47108 31940 02902 11055 21088 30201 40313 52008 71000
AAXX 29184 47115 32668 50712 11009 21079 30009 40291 53002 85500 333 92044
AAXX 29184 47133 32962 03202 11060 21090 30225 40315 53007
AAXX 29184 47138 32562 72003 10015 21078 30287 40290 52006 87500 333 92033
AAXX 29184 47159 32962 03204 10016 21108 30189 40277 52007 333 92022
AAXX 29184 47165 32968 00504 11024 21064 30256 40305 52005 333 92022
AAXX 29184 47168 32968 03410 11001 21073 30201 40284 52009 333 92023
AAXX 29184 47184 32670 53207 10046 21027 30272 40298 53003 85500 333 92023
AAXX 29184 68040 41560 70000 10228 20206 48501 53012 71799 84963 333 10315
AAXX 29181 38353 429// 51801 11006 21044 39346 40270 57006 80005 333 10027
AAXX 29181 38613 429// 80000 11013 21076 40318 53011 8802/ 333 10031
AAXX 29181 38616 425// 72701 11018 21052 39271 32271 40323 53001 87500 333 10018
AAXX 29181 38345 32998 00000 11065 21111 38816 48505 58012 333 11005
AAXX 29181 36911 329// 00901 11043 21077 39282 40284 57003 333 10011
AAXX 29181 36974 316// 81702 11125 21145 38038 48621 53002 77072 886// 333 11065
AAXX 29181 36982 425// 61301 11201 21250 36541 47211 58001 82550 333 11136
AAXX 29181 14240 11520 82601 10005 21002 30074 40235 50001 60012 76176 885// 333 10005
AAXX 29181 14258 11/08 92401 11013 21013 30036 40232 54000 69922 77974 333 11011
AAXX 29181 14445 12670 61002 10097 20053 30035 40190 58003 60002 84820 333 10110 84896 82499 92312
BBXX 3FZK3 29184 99493 71230 46/// /1302 10065 20054 40167 53026 7//// 8//// 22200 0//// 2////
BBXX 46026 29181 99378 71228 46/// /3106 10107 40249 53011 91750 22200 00112 11304 20501 328// 41304 70020 333 91207 555 11060 22063 31745 43107 61749 303057 283051 294048 287038 281037 293046
BBXX 46029 29181 99461 71245 46/// /1606 10094 20083 40170 58008 91750 22200 00093 11208 20402 328// 41208 70039 333 91208 555 11066 22071 31725 41608 61749 163062 161063 164066 164058 163056 168062
BBXX 46054 29181 99342 71204 46/// /3209 10152 40186 52007 91750 22200 00134 11304 20602 300// 41303 70020 333 91211 555 11097 22107 31745 43211 61749 322089 324066 329054 330038 326031 334048
BBXX CG2958 29184 99531 71291 46/// /1117 10018 20009 40103 51011 7//// 8//// 22200 0//// 2////
BBXX CG2965 29184 99487 71235 46/// /2809 10081 20020 40171 53016 7//// 8//// 22200 0//// 2////
BBXX CGBR 29184 99507 71275 46/// /0803 10036 20035 40127 56004 7//// 8//// 22200 0//// 2////
BBXX CGBY 29184 99487 71235 46/// /2808 10078 20018 40169 53014 7//// 8//// 22200 0//// 2////
BBXX CGDR 29184 99484 71234 46/// /1705 10078 20064 40172 53006 7//// 8//// 22200 0//// 2////
BBXX CGJK 29184 99484 71234 46/// /1806 10070 20037 40170 53006 7//// 8//// 22200 0//// 2////
BBXX DGDD 29181 99325 71497 41598 82308 10205 20167 40260 51010 70322 85617 22224 04200 20505 330// 41207 5//// 80180
BBXX WCAJ 29184 99528 71401 417// 60912 10030 20006 49980 54000 7//// 8/7// 22214 00060 20301 327// 40704 5//// 6//// 80020 ICE /////
AAXX 29181 15502 12968 60000 11008 21009 30165 40206 56005 60002 86050 333 10050 21074 555 599//
AAXX 29181 15525 11558 82702 10020 20012 39934 40206 56002 60002 71011 885// 333 10063 20002 555 595//
AAXX 29181 15528 12968 80000 10008 21003 39996 40192 56002 60002 8802/ 333 10040 20006 555 592//
AAXX 29181 15535 12962 62304 10022 20009 30141 40189 56004 60002 86050 333 10088 20018 555 591//
AAXX 29181 15549 12970 20000 10013 20002 39777 40204 57006 60002 82030 333 10078 20013 41/// 555 593//
AAXX 29181 15552 11540 80000 10060 20051 30152 40202 57008 60002 71022 886// 222// 2//00 323// 4//00 333 10072 20043 555 594// 92012 92415
AAXX 29181 15614 11657 50000 11038 21044 39496 40233 57005 69902 71022 85500 333 11005 21056 44005 555 595//
AAXX 29181 15615 11988 22506 11091 21179 37075 47007 57005 60002 70121 82070 333 11047 21091 444 36155 555 549//
AAXX 29181 15626 11658 80000 10006 21011 30021 40216 57001 60002 71022 85632 333 10030 21014 42003 555 588//
AAXX 29181 15655 11462 80000 10049 20039 30169 40203 57006 69902 70242 885// 222// 00077 20000 333 10049 20035 555 594// 92012 92417
AAXX 29181 15712 12965 23202 11003 21009 39963 40223 53003 69902 82030 333 10041 21012 41998 555 596//
AAXX 29181 15730 11958 00000 10004 21007 39810 40215 57005 60002 71011 333 10060 21044 42003 555 592//
AAXX 29184 16622 12560 21104 10008 21009 30210 40220 56004 60002 81401 333 10060 90730 91106 555 10000 41014 30000 10040 2//// 30055 4//// 5//// 40000 47689 44220 50000 50002
AAXX 29184 16641 11560 70000 10074 20061 30183 40189 57008 69902 70262 85570 333 10108 85630 87357 90730 91104 555 10000 40004 40000 47670 44220 50000 50068 60000 65555 60040 70000 77/// 7R///
AAXX 29184 16682 12560 50000 10100 20084 30167 40186 56002 60002 83830 333 10140 82820 83630 85358 90730 91106 555 10000 40018 30000 10110 20112 30114 40116 50114 60160 40000 47655 44190 50000 50092
AAXX 29184 16716 12960 20000 10070 20032 30189 40207 58001 60002 80002 333 10126 555 10000 40024 40000 47665 44140 50000 50054
AAXX 29184 16734 NIL
AAXX 29184 16743 NIL
AAXX 29184 16749 12460 70000 10114 20077 30182 40196 57001 60002 87850 333 10140 81815 87625 86358 90730 91107 555 10000 40114 40000 47667 44200 50000 50096
AAXX 29184 16754 12560 61904 10106 20073 30149 40196 57004 60002 81250 333 10140 81820 86358 90730 91108 555 10000 40106 40000 47641 44185 50000 50090
AAXX 29184 47090 32668 22903 11029 21083 30282 40305 52006 82500 333 92032
AAXX 29184 47095 31915 00501 11120 21134 30121 40326 52010 71000
AAXX 29184 47097 329// /2701 11085 21107 30213 40316 52011
AAXX 29184 47098 329// /0201 11091 21104 30170 40314 52009
AAXX 29184 47099 329// /3401 11087 21112 30279 40318 52008
AAXX 29184 47100 32460 20000 11126 21143 39355 40341 52022 82500
AAXX 29184 47102 32968 03207 11032 21086 30139 40326 52007
AAXX 29184 47104 32668 22302 11036 21057 30201 40303 52006 82500
AAXX 29184 47106 329// /2303 11001 21034 30247 40298 52004
AAXX 29184 47112 31930 03605 11056 21096 30227 40316 52008 70500 333 92012
AAXX 29184 47114 31930 00701 11080 21110 30120 40315 52011 71000
AAXX 29184 47119 31940 00001 11083 21093 30269 40314 52010 71000
AAXX 29184 47121 329// /2501 11084 21098 30006 40320 52012
AAXX 29184 47127 329// /0902 11079 21101 30166 40317 52011
AAXX 29184 47129 31958 00501 11071 21084 30281 40319 53006 71000
AAXX 29184 47130 32663 60000 11025 21034 30233 40298 52007 86500 333 92030
AAXX 29184 47131 32962 00000 11061 21088 30239 40314 52010
AAXX 29184 47135 329// /3204 11061 21099 39996 40312 53006
AAXX 29184 47136 31950 21401 11068 21095 30124 40307 52010 71000 80001
AAXX 29184 47137 329// /0001 11050 21107 30180 40305 53007
AAXX 29184 47140 32962 00000 11061 21086 30283 40313 53006 333 92011
AAXX 29184 47143 32961 00201 11025 21100 30222 40305 53006
AAXX 29184 47145 32963 00001 11080 21096 30280 40308 53008
AAXX 29184 47146 32961 01401 11057 21076 30243 40313 52009
AAXX 29184 47150 32963 00203 11059 21089 30292 40312 53007
AAXX 29184 47152 32663 50001 10007 21090 30240 40284 52006 85500
AAXX 29184 47154 329// /3601 11059 21089 30241 40305 53005
AAXX 29184 47155 32961 20905 10013 21093 30236 40283 52006 80001
AAXX 29184 47156 32963 00204 11038 21065 30218 40312 53009
AAXX 29184 47157 31956 02902 11073 21086 30010 40297 52008 71000
AAXX 29184 47162 32960 00704 11004 21070 30238 40280 52006 333 92022
AAXX 29184 47169 32665 63615 10035 21028 30206 40302 52005 85500 333 92055
AAXX 29184 47170 32968 03407 10001 21069 30253 40298 52005 333 92023
AAXX 29184 47171 329// /0001 11063 21085 30257 40315 52009
AAXX 29184 47172 329// /1401 11057 21078 30238 40309 52010
AAXX 29184 47173 329// /0001 11087 21103 30194 40313 52010
AAXX 29184 47174 32962 02907 11032 21079 30087 40299 52006
AAXX 29184 47175 32967 03413 11034 21058 39701 40299 53003 333 92024
AAXX 29184 47185 32670 53225 10058 21011 30192 40285 51005 85500 333 92036
AAXX 29184 47188 32670 22704 10029 21024 30261 40283 52007 81500 333 92022
AAXX 29184 47189 32668 23604 10053 20019 30206 40267 52006 82500 333 92022
AAXX 29184 47192 31958 00001 11063 21087 30254 40294 52007 71000
AAXX 29184 93004 16/// /0520 10184 20184 40050 52003 60011
AAXX 29184 93023 16/// /0310 10191 20188 40074 54000 60021
AAXX 29184 93069 16/// /0523 10190 20184 40085 57004 60001
AAXX 29184 93110 17396 /0616 10192 20188 40086 57005 60131
AAXX 29184 93186 17496 /0510 10191 20181 40122 57004 60001
AAXX 29184 93196 16/// /0116 10185 20176 40148 52001 69921
AAXX 29184 93245 16498 /0704 10157 20147 40129 57001 60021
AAXX 29184 93292 17998 /0303 10170 20151 40136 52006 69941
AAXX 29184 93309 17598 /0713 10181 20175 40090 57004 60191
AAXX 29184 93334 16/// /0305 10135 20124 39173 54000 60021
AAXX 29184 93339 16/// /0125 10132 20117 39174 52004 60021
AAXX 29184 93373 17996 /0413 10170 20162 40119 52006 60051
AAXX 29184 93404 17697 /1003 10174 20160 40101 52006 60011
AAXX 29184 93420 17698 /0806 10181 20151 40101 52014 60011
AAXX 29184 93439 17496 /0105 10173 20158 40101 52013 60061
AAXX 29184 93498 16/// /3502 10168 20152 40104 52007 69961
AAXX 29184 93515 17294 /0709 10176 20176 40067 52003 60161
AAXX 29184 93527 16/// /3616 10177 20177 40078 52005 60021
AAXX 29184 93546 17596 /0807 10178 20176 40087 52006 60081
AAXX 29184 93597 16/// /1809 10157 20155 40104 52016 60241
AAXX 29184 93615 17798 /1702 10153 20147 40080 52005 60001
AAXX 29184 93678 16495 /2319 10138 20138 40112 52024 60001
AAXX 29184 93709 16/// /2003 10131 20125 40078 57004 60001
AAXX 29184 93773 17496 /1405 10118 20101 40147 52022 60011
AAXX 29184 93781 17698 /2111 10134 20097 40131 52029 69981
AAXX 29184 93800 NIL
AAXX 29184 93805 NIL
AAXX 29184 93831 17598 /1612 10104 20070 40135 52021 60001
AAXX 29184 93845 17/98 /2303 10091 20053 40152 52018 60001
AAXX 29184 93891 17798 /2205 10111 20082 40147 52022 60001
AAXX 29184 93909 16/// /2314 10102 20051 40145 52016 60001
AAXX 29184 93929 16/// /2414 10080 20040 40097 52013 60001
AAXX 29184 93947 16/// /2621 10071 20037 40042 52017 69921
AAXX 29184 93987 16/// /3518 10158 20141 40163 57003 60001
AAXX 29184 93994 NIL
AAXX 29184 91925 01470 62602 10272 20230 30081 40141 51010 60021 72586 84832 333 56299 60027 83816 90710 91114 555 69965 10917 58000
AAXX 29184 91929 04569 70118 10275 20233 30117 40120 51012 69962 700// 333 10278 20251 60007 90710 91124 555 60005
AAXX 29184 91938 01465 70517 10285 20227 30126 40128 52011 60022 715// 85802 333 10286 20257 69907 81813 83820 86076 90710 91127 555 60005 58003
AAXX 29184 91943 36/// /0713 10285 20208 30143 40145 51009 333 10290 58005
AAXX 29184 91944 06/// /0717 10273 20211 30159 40162 51010 60012 333 10274 20248 60007 90710 91121 555 60005
AAXX 29184 91948 02581 40403 10270 20215 30095 40197 58002 60001 84201 333 56109 60007 83820 90710 91110 555 60005 10810 59002
AAXX 29184 91954 06/// /3417 10261 20245 30113 40116 51013 60131 333 60137 555 58003
AAXX 29184 91958 02480 80111 10262 20229 30134 40136 50004 60001 888// 333 56899 60007 85815 88650 90710 91129 555 60005 13329 58003
AAXX 29184 91945 NIL
AAXX 29183 91551 NIL
AAXX 29183 91553 31598 69903 10235 20228 40059 53001 70212 83204 333 564/9 83820 86080
AAXX 29183 91554 31598 60000 20208 20202 40071 56004 70222 81201 333 569/9 81825 86080
AAXX 29183 91555 31598 42704 10245 20241 40073 56003 70111 81101 333 569/9 81825 84080
AAXX 29183 91557 31598 29902 10208 20203 40077 53011 70112 81101 333 569/9 81825
AAXX 29183 91565 31598 10000 10225 20218 40062 56003 70111 81101 333 566/9 81822
AAXX 29183 91568 31598 50000 10210 20204 40072 56002 70311 82101 333 568/9 82825 85080
AAXX 29183 91551 NIL
AAXX 29183 91553 31598 69903 10235 20228 40059 53001 70212 83204 333 564/9 83820 86080
AAXX 29183 91554 31598 60000 20208 20202 40071 56004 70222 81201 333 569/9 81825 86080
AAXX 29183 91555 31598 42704 10245 20241 40073 56003 70111 81101 333 569/9 81825 84080
AAXX 29183 91557 31598 29902 10208 20203 40077 53011 70112 81101 333 569/9 81825
AAXX 29183 91565 31598 10000 10225 20218 40062 56003 70111 81101 333 566/9 81822
AAXX 29183 91568 31598 50000 10210 20204 40072 56002 70311 82101 333 568/9 82825 85080
AAXX 29184 78958 11563 31012 10294 20233 30137 40147 60001 70600 82201 333 10304 20245 59003 82823
AAXX 29184 78397 111568 61420 10273 20232 30137 40153 69901 78081 86841 333 01909 10318 20228 59001 84820 83635 90910
AAXX 29181 48820 32598 80702 10164 20128 30205 40213 52010 888// 333 58012 82895 88697
AAXX 29181 48823 32497 83402 10171 20137 30202 40205 51010 888// 333 58015 86894 88696
AAXX 29181 26509 11597 72308 10050 20025 30002 40011 57002 69982 78082 87900 333 10062 91018 91120 555 53020
AAXX 29181 26518 11470 82306 10029 20021 40018 57004 60022 78082 889// 333 10042 88913 91010 91116 555 53016
AAXX 29181 26524 11597 72305 10037 20027 39875 40007 56007 60022 78082 87300 333 10052 87920 91012 91116 555 53016
AAXX 29181 26531 11570 82305 10048 20026 40007 56005 69942 70265 885// 333 10050 88620 91011 91111 555 53013
AAXX 29181 26629 11570 72207 10046 20018 39951 40046 57008 69932 70262 87500 333 10046 87630 91010 91111 555 53012
AAXX 29181 26633 12568 72204 10043 20018 39903 40033 57010 69972 87500 333 10045 87626 91008 91111 555 53011
AAXX 29181 26730 11463 82205 10035 20017 39873 40064 57008 69932 72052 886// 333 10036 88719 91009 91110 555 53010
BBXX LAHV 29181 99589 10057 43/// /2810 10050 20002 49915 222// 04089 1////
BBXX LDGJ 29181 99603 10053 43/// /3206 10044 20019 49884 5//// 222/0 04073 1//// 3//// 4//// 5////
BBXX LF4H 29184 99596 10022 46/// /3421 10039 20012 49934 52007 8//// 22200 06079 10809 70043 333 91143
BBXX LMEL 29181 99603 10053 43/// /3209 10035 20035 49877 5//// 222/0 04076 1//// 3//// 4//// 5////
AAXX 29184 78397 111568 61420 10273 20232 30137 40153 69901 78081 86841 333 01909 10318 20228 59001 84820 83635 90910
AAXX 29184 60715 11558 82309 10122 20087 30199 40206 58002 60012 76062 8328/ 333 10156 59055 83823 85359 91013 91117
AAXX 29184 60723 11560 71002 10106 20101 30033 40224 58004 60042 76062 8428/ 333 10125 84823 84360
AAXX 29184 60725 11560 72706 10106 2//// 30055 40236 58004 60032 70282 878// 333 10114 84820 84630
AAXX 29184 60735 12560 63204 10121 20074 30131 40213 56002 60002 84880 333 10155 83823
AAXX 29184 60745 12560 43607 10118 20041 39852 40226 53013 60002 84200 333 10171 84826
AAXX 29184 60748 12565 62704 10104 20064 39800 40223 53004 60002 86800 333 10152 83823 84640
AAXX 29184 60750 12560 53106 10125 20057 30189 40215 53011 60002 84802 333 10161 82820 83633
AAXX 29184 60760 12560 32711 10118 20006 30125 40231 52011 60002 83200 333 10163 20060 83830 91014 91119
AAXX 29184 60765 12558 52804 10141 20064 30220 40224 53005 60002 85800 333 10164 83820 83630 92436 925//
AAXX 29184 60767 12558 32508 10119 20024 30075 40220 52010 60002 81202 333 10158 81820 83070
AAXX 29184 60769 11460 52904 10139 20079 30200 40204 53004 69902 76061 86800 333 10153 83816 83623
AAXX 29181 26645 11296 82203 10028 20015 39795 40054 57009 60012 72165 886// 333 10029 88704
AAXX 29181 26659 11357 82003 10022 20017 39858 40073 57005 69902 75152 886// 333 10022 88708
AAXX 29181 26763 11340 82204 10009 20004 39856 40085 57013 60012 71075 886// 333 10009 88707
AAXX 29181 26825 11550 72105 10036 20021 39911 40094 57003 69902 71022 875// 333 10040 88620
AAXX 29181 26832 11460 82103 10035 20009 39893 40086 57004 69932 70262 8667/ 333 10041 86713 91110
AAXX 29181 26887 11396 82004 10004 21005 39914 40122 57014 69932 75152 886// 333 10009 88708 91110
AAXX 29181 26961 11356 82204 10015 20006 39916 40110 57010 69932 71052 886// 333 10015 88707
AAXX 29181 33027 11496 82103 10022 20014 39968 40138 57008 69932 72162 886// 333 10025
AAXX 29184 17022 12562 31904 10053 20022 30046 40216 58002 60002 83400 333 10081 83630 91111 92427
AAXX 29184 17031 12970 21304 10019 20009 30208 40215 57014 60002 82030 333 10103 82360
AAXX 29184 17038 12670 31806 10070 20021 30174 40226 57016 60002 83100 333 10097 83835 92428
AAXX 29184 17050 12670 81601 10037 20019 30150 40214 51006 60002 8552/ 333 10045 85635 88460 91103
AAXX 29184 17060 12970 03102 10044 21028 30174 40215 58003 60002 333 10085
AAXX 29184 17096 11956 02803 11175 21203 38290 48571 52005 60002 71000 333 11104
AAXX 29184 17124 12460 71110 11024 21059 39305 40265 55000 60002 87600 333 11016 87715
AAXX 29184 17128 11459 70303 11024 21049 39122 40275 57004 60002 71022 87600 333 11019 87714
AAXX 29184 17170 NIL
AAXX 29184 17195 11957 00000 11065 21068 39007 48506 52002 69902 71000 333 11007
AAXX 29184 17199 12970 01902 10005 21045 39143 40279 52006 60002 333 10064
AAXX 29184 17219 11556 53402 10042 20026 30059 40207 52001 60002 71000 83130 333 10111 83830 85360
AAXX 29184 17240 12970 03301 11022 21066 39058 40263 52007 60002 333 10045 91105
AAXX 29184 17244 11656 31906 11047 21059 39028 48504 54000 60002 71011 83500 333 11018 83635
AAXX 29184 17280 12970 02704 11004 21030 39447 40270 52008 60002 333 10097
AAXX 29184 17350 12960 00202 10041 20025 30142 40223 52009 60002 333 10146
AAXX 29184 17026 12970 01309 10084 20040 30162 40201 57018 60002 333 10097 91123 92428
AAXX 29184 17034 12970 20000 10068 20019 30177 40224 57016 60002 82030 333 10089 82360 92428
AAXX 29184 17070 12965 03401 10000 21065 39329 40237 51001 60002 333 10056
AAXX 29184 17084 12670 83301 11021 21051 39326 40283 55002 60002 8452/ 333 11003 84635 88460 91108
AAXX 29184 17090 12965 00000 11050 21068 38758 48518 53001 60002 333 11004
AAXX 29184 17098 12960 00000 11179 21184 38269 48589 52007 60002 333 11074
AAXX 29184 17150 11927 00000 11018 21021 30097 40227 51002 60002 71000 333 10033
AAXX 29184 17160 12670 62302 11036 21062 39059 48509 53002 60002 84570 333 10003 84640 86360 91108
AAXX 29184 17184 12970 03401 10020 20004 30102 40219 52004 60002 333 10082 91103
AAXX 29184 17189 11945 01406 11073 21076 39052 48491 53001 60002 71000 333 11032
AAXX 29184 17210 11920 00000 10048 20003 39203 40263 51008 60002 71000 333 10104
AAXX 29184 17234 12970 62201 10081 20043 30140 40210 52002 60002 86050 333 10114 86360 91103
AAXX 29184 17260 12960 03304 10003 21022 39411 40266 52008 60002 333 10116
AAXX 29184 17290 12670 70301 10106 20062 30175 40207 55000 60002 84270 333 10130 84835 87360 91102 92418
AAXX 29184 17370 12965 01201 10096 20017 30221 40225 52008 60002 333 10152 92417
AAXX 29184 17042 12970 01005 10042 20019 30189 40230 57018 60002 333 10106 92428
AAXX 29184 17074 11550 22202 11037 21045 39268 40251 57007 60002 71000 82500 333 10019 82630 91107
AAXX 29184 17086 11958 00902 11014 21047 39501 40253 56002 60002 71000 333 10049
AAXX 29184 17088 12970 01102 10000 21063 38834 48523 52008 60002 333 10051
AAXX 29184 17140 11420 82303 11055 21064 38722 48500 57004 60002 71022 8672/ 333 11031 82710 85638 88459
AAXX 29184 17155 12970 03401 11048 21066 39088 40268 51002 60002 333 11007 91107
AAXX 29184 17203 12970 00000 11006 21068 38943 48582 52009 60002 333 10073
AAXX 29184 17237 12970 02302 10050 21012 39694 40215 58002 60002 333 10089 91104
AAXX 29184 17250 12975 20406 11070 21076 38833 48509 53003 60002 82030 333 11001 82360
AAXX 29184 17270 12970 02701 10053 21002 39588 40250 52009 60002 333 10127
AAXX 29184 17295 12560 70404 10097 20068 30200 40207 55000 60002 84250 333 10125 84830 87360
AAXX 29184 17320 12970 03404 10094 20030 30216 40221 53007 60002 333 10155 92428
AAXX 29184 17375 12670 63502 10109 20056 30212 40214 52007 60002 83250 333 10169 83835 86360 91105 92418
AAXX 29184 48601 11559 70408 10273 20217 30110 40114 60001 70522 82542 333 82625 83364 87077
AAXX 29184 48615 11560 72203 10237 20225 30117 40123 60001 70522 84548 333 84620 83364 87272
AAXX 29184 48620 11460 70101 10261 20240 30104 40113 60001 70522 82642 333 81710 87078
AAXX 29184 48647 11460 72801 10272 20243 30088 40113 60001 71322 82952 333 81917 86364
AAXX 29184 48657 11358 73604 10240 20219 30101 40119 69901 70562 84537 333 81709 84624 87276
AAXX 29184 48665 12564 70405 10245 20222 30109 40119 60001 83572 333 83628 85364 85078
AAXX 29184 96413 11557 71903 10240 20237 30079 40106 60081 76166 8442/ 333 84620 87464
AAXX 29184 96421 11264 81601 10238 20234 30067 40103 60121 76166 8552/ 333 82705 84618 88465
AAXX 29184 96441 11258 80903 10226 20218 30078 40105 60241 76196 8452/ 333 81705 84614 88464
AAXX 29184 96449 11457 72009 10243 20234 30086 40106 60031 76222 83571 333 83614 86365
AAXX 29184 96465 12470 70000 10264 20251 30059 40092 60001 82838 333 82812 83364 87279
AAXX 29184 96471 11462 71003 10253 20229 30091 40094 69921 76162 83848 333 82814 83635 87276
AAXX 29184 96481 12462 72901 10252 20236 30086 40105 60001 8387/ 333 81817 86364
AAXX 29184 96491 11460 70000 10254 20248 30092 40104 60001 71022 82832 333 82815 87078
AAXX 29184 17024 3//// /1912 10030 20010 30110 40190 57015 60002 333 10103
AAXX 29184 17056 12970 52904 10040 20039 30211 40216 56002 60002 85030 333 10084 85360 91107 92438
AAXX 29184 17067 12970 00801 10023 21009 30194 40217 51001 60002 333 10084 91107 92408
AAXX 29184 17092 12970 02801 11052 21073 38915 48527 50003 60002 333 10055
AAXX 29184 17112 12963 00803 10034 20005 30210 40213 57002 60002 333 10088 91113 92417
AAXX 29184 17115 12960 00000 11019 21027 30162 40216 55000 60002 333 10054
AAXX 29184 17116 12962 01102 10024 21039 30098 40225 50000 60002 333 10077 91108
AAXX 29184 17188 3//// /2803 10001 21048 39133 4//// 52006 60002 333 10092
AAXX 29184 17202 12970 02304 11020 21028 39221 40292 52007 60002 333 10058
AAXX 29184 17248 11956 00802 11054 21066 39016 48504 51002 60002 71000 333 11008
AAXX 29184 17292 12670 61001 10070 20058 39442 40220 53001 60002 84250 333 10099 84835 86360 91106
AAXX 29184 17300 12560 23404 10065 20039 30139 40213 52006 60002 82100 333 10158 82830
AAXX 29184 17310 NIL
AAXX 29184 17330 12970 02903 10079 21048 30213 40232 52011 60002 333 10129
AAXX 29181 33088 32997 82704 10028 20012 39955 40148 57008 8805/ 333 10034
AAXX 29181 33177 32597 82202 10029 20011 39924 40164 58009 889// 333 10038
AAXX 29181 33261 31696 71904 10008 21006 39988 40175 57018 71022 87500 333 10022 87635
AAXX 29181 33275 32997 01805 11015 21026 39973 40204 57015 333 10024
AAXX 29181 33301 32497 82306 10020 20001 39877 40163 57007 885// 333 10020 88614
AAXX 29181 33325 11596 82102 10013 21004 39897 40170 57010 69902 71052 885// 333 10018 88621
AAXX 29181 33377 32997 71802 10005 21020 30000 40199 57015 87030 333 10032
AAXX 29181 33415 32697 62505 10024 21003 39774 40179 57009 86500 333 10038
AAXX 29181 33429 32597 72501 10003 21003 39750 40183 57009 87500 333 10022 87630
AAXX 29181 33466 NIL
AAXX 29181 33526 31240 81902 11005 21008 39844 40194 58010 71042 886// 333 10008 88705
AAXX 29181 33562 11442 80000 10010 20002 39815 40184 57005 69942 72165 885// 333 10030 88617
AAXX 29181 33614 32970 51502 10001 21020 30103 40211 57014 83031 333 10046
AAXX 29181 33761 31396 81804 10036 20029 39966 40192 57009 71022 886// 333 10036 88707
AAXX 29181 33902 11596 81401 10036 20023 30148 40215 57011 69902 78582 889// 333 10069
AAXX 29181 33983 31996 00000 10018 20010 30185 40247 57007 71000 333 10075
AAXX 29181 34415 32997 02302 11019 21027 30144 40244 57008 333 10036
AAXX 29181 34523 NIL
AAXX 29181 34712 NIL
AAXX 29184 17500 NIL
AAXX 29184 17501 12560 12506 10107 20048 30194 40213 52006 60002 81130 333 10142 81830 92427
AAXX 29184 17505 NIL
AAXX 29184 17507 NIL
AAXX 29184 17510 12560 20000 10111 20063 30185 40195 51005 60002 82100 333 10165 82830 92417
AAXX 29184 17515 12560 20000 10083 20049 30057 40237 51007 60002 81130 333 10166 81830
AAXX 29184 17521 12560 30000 10081 20057 30074 40214 52007 60002 81130 333 10155 81830 83360
AAXX 29184 17530 12560 10107 10073 20053 30168 40226 53006 60002 81130 333 10166 81830
AAXX 29184 17535 12560 20106 10090 20051 30167 40204 53004 60002 81130 333 10155 81830
AAXX 29184 17540 NIL
AAXX 29184 17547 NIL
AAXX 29184 17550 12560 20000 10099 20038 30070 40218 53005 60002 81130 333 10147 81830 92427
AAXX 29184 17572 12560 2//// 10120 20064 30204 40229 51006 60002 82100 333 10147 82830 92417
AAXX 29181 33345 11398 82302 10018 20010 39964 40173 57010 69932 75152 886// 333 10033 88707
AAXX 29181 33924 32597 81804 10078 20048 30206 40218 57017 886// 333 10092
AAXX 29184 08001 12465 6//// 10106 20047 30307 40391 53002 60002 86505 333 10126 924/7
AAXX 29184 08015 12565 32603 10070 20034 39979 40397 57002 60002 81148 333 10090
AAXX 29184 08023 12560 53210 10102 20048 30309 40382 57001 60022 85800 333 10144
AAXX 29184 08027 11575 73512 10088 20048 30046 40364 56001 60042 70382 878// 333 10091
AAXX 29184 08045 02975 20207 10089 20015 30060 40378 52006 60002 80003 333 10126 60007
AAXX 29184 08141 NIL
AAXX 29184 08160 12670 62922 10081 21013 30015 40332 53010 60002 81171 333 10112
AAXX 29184 08181 02580 73202 10094 21032 30276 40282 50015 60002 81876 333 10156 60007
AAXX 29184 08221 02980 63609 10066 21028 39636 40339 51009 60002 80006 333 10113 60007
AAXX 29184 08231 12670 71201 10050 21038 39207 48593 52016 60002 875// 333 10098
AAXX 29184 08261 12980 12903 10082 20009 39859 40352 53003 60002 80002 333 10124
AAXX 29184 08284 02575 23210 10122 21031 30234 40311 53033 60002 81810 333 10181 60007
AAXX 29184 08306 12575 39902 10103 20074 30282 40288 53017 60002 81831 333 10156
AAXX 29184 08314 02571 23516 10108 20014 30173 40278 53016 60022 82801 333 10127 60007
AAXX 29184 08430 12570 23204 10116 20039 30223 40299 52012 60002 82800 333 10170
AAXX 29184 08482 12982 13602 10138 20082 30286 40295 53012 60002 80001 333 10176
AAXX 29184 60106 32965 02005 10099 20058 40312 53004 333 10165
AAXX 29184 60318 32960 03208 10144 20065 40295 53006 333 10193
AAXX 29184 78970 11568 60816 10302 20223 30114 40139 69931 71582 84842 333 01299 10320 20247 58001 82820 83080 90916
AAXX 29184 78962 11466 40918 10299 20237 30142 40150 69901 71581 83842 333 02299 10307 20241 58002 82816 90940
AAXX 29184 60155 32960 00000 10143 20085 40301 52003 333 10175
BBXX BATUK01 29184 99560 70032 46/// /2608 10030 21017 40073 52023 22200 00062
AAXX 29181 26038 01465 62006 10042 20025 39835 49875 57014 60022 78086 86900 333 10050 20039 69917 86915 91009 91112 555 1/003 20039 3/002 50037 52002
AAXX 29181 26038 NIL
AAXX 29181 26045 NIL
AAXX 29181 26058 NIL
AAXX 29181 26115 NIL
AAXX 29181 26135 01471 82206 10039 20025 39833 49906 58015 60052 76166 8872/ 333 10046 20036 69937 88510 91012 91113 555 1/003 20036 3/002 50030 52003
AAXX 29181 26141 01460 82209 10034 20017 39757 49903 57011 60012 78082 889// 333 10038 20016 60007 88912 91014 91117 555 1/002 20016 3/000 50020 52001
AAXX 29181 26231 01462 82110 10043 20031 39899 49914 57013 60062 78082 889// 333 10048 20040 60017 88911 91016 91117 555 1/003 20040 3/003 50038
AAXX 29181 26242 01473 72205 10040 20016 39853 49939 57008 60012 78086 87900 333 10046 20028 60007 87913 91011 91114 555 1/003 20028 3/000 50027 52002
AAXX 29181 26247 01463 72106 10040 20024 39877 49956 57007 69952 78082 86360 333 10050 20034 69927 86913 91009 91114 555 1/003 20034 3/001 50031
AAXX 29181 14008 11/91 93604 11092 21097 37457 47002 54000 60052 77174 333 11049 47105 92808 93112 95190
AAXX 29181 14015 11320 80000 10007 20005 39867 40238 52006 60022 77376 8657/ 333 10015 43001 86707 92801 93101
AAXX 29181 14023 11395 82801 10008 20006 39935 40240 53006 60032 76976 8772/ 333 10021 87708 93100
AAXX 29181 14024 11/91 91303 11006 21007 39101 48483 52004 60022 77374 333 10022 47012 92802 93104 95090
AAXX 29181 14026 11195 82002 10011 20005 39899 40229 50001 60012 72176 8552/ 333 10018 82702 85630 93100
AAXX 29181 14031 11595 82702 10011 20004 39995 40231 58002 69912 710// 885// 333 10015 88620 93100
AAXX 29181 14105 11697 80301 10075 20041 30199 40204 52007 60012 76062 885// 333 10101 83630 88650
AAXX 29181 14121 11394 80000 10003 20000 39956 40232 52005 60022 77372 887// 333 10018 43002 88707 92821 93102
AAXX 29181 14122 11120 80000 10002 21001 30036 40240 52006 69962 77172 887// 333 10022 75703 88707 93100
AAXX 29184 16643 12560 80307 10100 20031 30190 40195 57009 60002 8457/ 333 10100 84625 88358 90730 91114 555 10000 40062 40000 47672 44200 50000 50070
AAXX 29184 16648 12560 20000 10016 21006 30127 40220 58007 60002 81130 333 10082 90730 91104 555 10000 41050 30000 10044 2//// 30058 40052 5//// 6//// 40000 47626 44210 50000 50008
AAXX 29184 16650 12460 70000 10078 20020 30203 40207 55000 60002 87600 333 10090 83712 87630 90730 91107 555 10000 40064 30000 10070 20072 30068 40076 50096 60124 40000 47681 44200 50000 50054
AAXX 29184 16684 12560 50000 10080 20033 30170 40198 56005 60002 85500 333 10100 90730 91106 555 10000 40080 40000 47660 44220 50000 50060
AAXX 29184 16732 12565 73307 10112 20035 30196 40209 56002 60002 86830 333 10120 82820 85625 90730 91115 555 10000 40112 40000 47672 44150 50000 50078
AAXX 29181 14241 11230 82402 10000 21006 30099 40234 50000 60012 77972 8772/ 333 10002 82703 87707
AAXX 29181 14284 11458 82903 10006 21004 30110 40222 56002 60002 71022 886// 333 10021
AAXX 29181 14307 11565 80102 10079 20056 30117 40195 52002 69922 76166 8687/ 333 10107 82825 85656
AAXX 29181 14317 NIL
AAXX 29181 14431 12665 71002 10061 20051 30097 40192 56003 60002 81570 333 10087 81640 86457
AAXX 29181 14444 33570 63602 10086 20051 30164 40193 57005 83870 333 10110
AAXX 29181 14474 12970 00803 10058 20022 30005 40199 56001 60002 333 10111
AAXX 29184 16614 12560 60000 11014 21051 39422 40231 57003 60002 84550 333 10031 41998 84625 84358 90730 91104 555 10000 41115
AAXX 29184 16627 12560 13604 10018 20001 30218 40222 58002 60002 81100 333 10062 90730 91110 555 10000 41010 30000 10028 20030 30044 40048 50066 6//// 40000 47698 44245 50000 50012
AAXX 29184 16667 12960 02406 10054 20019 30209 40214 56009 60002 333 10116 90730 91112 555 10000 40022 30000 20064 30080 40000 47687 44210 50000 50040
AAXX 29184 16675 NIL
AAXX 29184 16710 36/// /9902 10049 20030 39432 40217 52006 333 10074 90730 91106 555 10000 41018
AAXX 29184 16723 12560 59902 10074 20037 30190 40206 57003 60002 82169 333 10124 82820 83356 90730 91108 555 10000 40054 40000 47674 44210 50000 50058
AAXX 29184 16738 NIL
AAXX 29184 16746 12560 50000 10100 20071 30014 40199 58001 60002 82250 333 10134 82820 85358 90730 91105 555 10000 40100 40000 47538 44175 50000 50086
AAXX 29184 60710 11558 72612 10127 20108 30140 40220 58006 60072 78082 878// 333 10129 84820 84630
AAXX 29184 60714 11458 73112 10123 20102 30208 40214 54003 60032 72186 8688/ 333 10162 84816 83630
AAXX 29184 60720 NIL
AAXX 29184 60728 NIL
AAXX 29184 60729 NIL
AAXX 29184 60731 05957 /2610 10114 20071 30200 40207 58001 60002 333 10152 20047 59048 60007 91014 91122
AAXX 29184 60732 NIL
AAXX 29184 60734 12558 62702 10075 20072 39696 40221 53002 69922 82882 333 10093 81823 83360
AAXX 29184 60738 12006 8//// 10042 20042 38968 48528 53004 60002 887// 333 10055 88700
AAXX 29184 60739 12556 53004 10082 20040 39401 40233 53005 60002 85802 333 10106 81823 85833 94259
AAXX 29184 60740 12460 32607 10126 20075 30206 40208 51003 60002 82880 333 10157 60007 81816
AAXX 29184 60742 NIL
AAXX 29184 60764 12562 22806 10130 20021 30175 40227 52011 60002 82200 333 10168 82830
AAXX 29184 60770 12565 63204 10116 20083 30074 40214 53002 60002 83582 333 10142 82630 83360
AAXX 29184 60772 NIL
AAXX 29184 60775 12565 63104 10112 20060 39864 40223 53004 60002 83202 333 10141 83823 84070
AAXX 29184 60780 12560 33210 10114 20043 39926 40233 52002 60002 82202 333 10151 82823
AAXX 29183 04013 22589 42013 11042 21077 40022 52016 82210 333 10004 21049 60088 555 3//24
AAXX 29183 04064 21665 63213 11020 21056 40040 52028 73622 84522 333 10000 21020 69908 555 3//18
AAXX 29184 04005 21489 60902 11026 21060 49997 52017 71582 86800 333 10007 21036 60018 555 3/203
AAXX 29184 04018 21561 72520 11022 21038 40044 51012 73883 84265 333 11005 21030 69978 555 3//27 82824 84831 87356
AAXX 29184 04030 NIL
AAXX 29184 04048 NIL
AAXX 29184 04063 22782 81902 11040 21059 40018 52016 8472/ 333 11031 21080 69938 555 3//04
AAXX 29184 04077 NIL
AAXX 29184 04082 32882 80209 11005 21036 40010 52021 885// 333 10015 20000 555 3//26 88250
AAXX 29184 04097 32589 80308 11016 21058 40046 52012 885// 333 11007 21017 555 3/309
AAXX 29181 13489 31495 31801 11027 21038 39697 40241 55000 71000 81650 333 11008
AAXX 29184 78970 11568 60816 10302 20223 30114 40139 69931 71582 84842 333 01299 10320 20247 58001 82820 83080 90916
AAXX 29184 78962 11466 40918 10299 20237 30142 40150 69901 71581 83842 333 02299 10307 20241 58002 82816 90940
AAXX 29184
AAXX 29184 71700 15966 02517 11055 21156 39935 49961 53005 60001 333 11047 21099 70028
AAXX 29184 71701 12674 22620 11058 21155 39898 49960 53006 60001 82500 333 11044 21099 70013
AAXX 29184 71702 16/// /2726 11077 21146 39888 49903 53010 60001 333 10011 21083 70076
AAXX 29184 71703 11420 82716 11114 21150 39646 49946 53014 69921 77177 885// 333 11087 21139 48007 70030 90962
AAXX 29184 71704 17356 81713 10005 21002 39838 40061 58041 69931 771// 333 10006 21094 70003
AAXX 29184 71710 16/// /2528 11069 21101 39850 49859 53009 60001 333 10039 21072 70230
AAXX 29184 71712 16/// /2611 11127 21173 30087 40152 56010 60001 333 11127 21178 70012
AAXX 29184 71713 16/// /2233 11146 21185 60001 333 11099 21156 70010
AAXX 29184 71716 NIL
AAXX 29184 71717 NIL
AAXX 29184 71720 16/// /0601 10038 20029 30005 40158 50014 60001 333 10069 20027 70039
AAXX 29184 71721 NIL
AAXX 29184 71723 16/// /2214 11143 21196 30104 40114 55002 60001 333 11126 21165 70011
AAXX 29184 71724 NIL
AAXX 29184 71732 NIL
AAXX 29184 71733 NIL
AAXX 29184 71734 NIL
AAXX 29184 71736 NIL
AAXX 29184 71737 NIL
AAXX 29184 71741 16/// /2401 10036 21018 39690 40107 53033 60001 333 10110 21015 70000
AAXX 29184 71742 NIL
AAXX 29184 71743 NIL
AAXX 29184 71744 NIL
AAXX 29184 71745 NIL
AAXX 29184 71746 NIL
AAXX 29184 71747 NIL
AAXX 29184 71748 NIL
AAXX 29184 71950 15866 81604 11005 21055 39427 40056 53026 60001 333 10034 21039 70008
AAXX 29184 71952 16/// /0000 11090 21103 39213 40070 53024 60001 333 11001 21097 70000 555 10010
AAXX 29184 71954 NIL
AAXX 29184 71956 NIL
AAXX 29184 71959 NIL
AAXX 29184 71960 460// /0722 11268 39905 40042 53005 6///1 333 11249 21275 7////
AAXX 29184 71962 16/// /2904 11063 21086 39622 40048 56001 60001 333 11059 21082 70014 555 10040
AAXX 29184 71963 NIL
AAXX 29184 71967 16/// /2418 11149 21186 30023 40133 54000 60001 333 11142 21179 70003 555 10020
AAXX 29184 71970 NIL
AAXX 29184 71971 NIL
AAXX 29184 71972 460// ///// 11193 39643 40121 56030 6///1 333 11173 21202 7////
AAXX 29184 71973 46/// /2222 11030 21062 39628 49810 53004 6///1 333 10061 21031 7////
AAXX 29184 71974 NIL
AAXX 29184 71975 460// /3403 11238 39385 40145 56016 6///1 333 11238 21263 7////
AAXX 29184 71976 NIL
AAXX 29184 71977 NIL
AAXX 29184 71978 NIL
AAXX 29184 71979 NIL
AAXX 29184 71980 46/// /0000 11247 21276 6///1 333 11225 21303 7////
AAXX 29184 71981 NIL
AAXX 29184 71982 NIL
AAXX 29184 71983 NIL
AAXX 29184 71984 16/// /2903 11305 21336 30070 40079 50004 60001 333 11305 21329 70000
AAXX 29184 71985 NIL
AAXX 29184 71986 NIL
AAXX 29184 71987 16/// /2638 11077 21110 39864 49873 53012 60001 333 10018 21081 70065
AAXX 29184 71988 16/// /2734 11012 21066 30000 40020 53014 60001 333 11007 21040 70000
AAXX 29184 71989 NIL
AAXX 29184 71990 NIL
AAXX 29184 71999 46/// ///// 10053 6///1 333 10094 20028 7////
AAXX 29184 71744 NIL
AAXX 29184 71750 17/// /0706 11077 21097 39815 40054 58019 60011 7//4/ 333 11077 21176 70014 555 10030
AAXX 29184 71751 NIL
AAXX 29184 71752 NIL
AAXX 29184 71753 16/// /2423 11032 21091 39899 49928 53003 60001 333 10030 21048 70128 555 10020
AAXX 29184 71754 16/// /1109 11039 21049 39307 49968 53015 60001 333 11039 21099 70000
AAXX 29184 71755 43/// /2002 11146 21185 39720 40077 58004 6///1 333 11146 21242 7////
AAXX 29184 71756 16/// /0000 10000 21009 39039 40129 53012 60001 333 10048 21005 70095
AAXX 29184 71758 NIL
AAXX 29184 71760 NIL
AAXX 29184 71761 NIL
AAXX 29184 71762 NIL
AAXX 29184 71763 NIL
AAXX 29184 71765 16/// /2014 10061 20017 39843 40115 51027 60001 333 10084 20054 70083
AAXX 29184 71766 16/// /1503 10021 20013 30085 40156 51015 60001 333 10095 20013 70074
AAXX 29184 71767 16/// /1007 11047 21059 39829 40096 58028 60001 333 11047 21185 70000
AAXX 29184 71768 46/// /0504 10088 21036 39580 40121 51033 6///1 333 10093 20041 7////
AAXX 29184 71769 16/// /1902 10059 20033 30135 40151 51015 60001 333 10100 20055 70070
AAXX 29184 71770 NIL
AAXX 29184 71771 NIL
AAXX 29184 71772 16/// /1908 10060 20020 30150 40156 53019 60001 333 10102 20058 70044
AAXX 29184 71773 16/// /1902 11082 21105 39072 49925 53029 60001 333 11079 21133 70006 555 10030
AAXX 29184 71774 46/// ///// 10042 6///1 333 10067 20024 7////
AAXX 29184 71775 NIL
AAXX 29184 71776 46/// /2504 10031 20024 39476 40117 51035 6///1 333 10035 20019 7////
AAXX 29184 71777 NIL
AAXX 29184 71778 46/// /1809 6///1 333 7////
AAXX 29184 71779 16/// /1802 11075 21080 39436 40103 51027 60001 333 10011 21105 70000
AAXX 29184 71780 17/// /3402 10066 20038 30151 40178 51012 69921 7//4/ 333 10088 20064 70228
AAXX 29184 71781 46/// /2104 10064 20017 30125 40150 51011 6///1 333 10104 20060 7////
AAXX 29184 71782 46/// /2402 10031 21023 38747 40057 51043 6///1 333 10039 20013 7////
AAXX 29184 71783 NIL
AAXX 29184 71784 16/// /0401 10055 20042 39959 40164 51025 60001 333 10068 20040 70097
AAXX 29184 71785 16/// /1504 10077 20030 30165 40181 51022 60001 333 10099 20074 70080
AAXX 29184 71786 46/// /2611 11025 21034 38254 40071 51036 6///1 333 11012 21028 7////
AAXX 29184 71787 17/// /2720 11089 21130 39432 49920 53007 69981 7//4/ 333 11044 21123 70034
AAXX 29184 71788 NIL
AAXX 29184 71789 NIL
AAXX 29184 71791 NIL
AAXX 29184 71792 NIL
AAXX 29184 71793 NIL
AAXX 29184 71794 NIL
AAXX 29184 71795 NIL
AAXX 29184 71796 NIL
AAXX 29184 71797 NIL
AAXX 29184 71201 16/// ///// 10072 20036 60001 333 10085 20061 70122
AAXX 29184 71202 17/// ///// 10016 20005 60011 7//4/ 333 10016 7////
AAXX 29184 71203 15866 11307 10085 21039 39610 40126 51035 60001 333 10092 20019 70016
AAXX 29184 71209 46/// /2208 10072 6///1 333 10111 20062 7////
AAXX 29184 71211 46/// /2112 10067 20046 30147 40159 51027 6///1 333 10098 20064 7////
AAXX 29184 71212 NIL
AAXX 29184 71213 46/// /1402 11219 21257 39840 40159 58011 6///1 333 11217 21308 7////
AAXX 29184 71214 NIL
AAXX 29184 71215 46/// /0701 10060 21004 39785 40126 51036 6///1 333 10095 20009 7////
AAXX 29184 71216 16/// /0402 10035 20012 39488 40101 52033 60001 333 10068 20024 70041
AAXX 29184 71217 NIL
AAXX 29184 71218 16/// /0104 10046 21001 39679 40105 53036 60001 333 10105 20014 70006
AAXX 29184 71219 46/// /1312 10039 20006 30071 40077 53010 6///1 333 10069 20027 7////
AAXX 29184 71220 46/// /1710 10031 21021 6///1 333 10044 20010 7////
AAXX 29184 71221 NIL
AAXX 29184 71222 17/// /2503 11070 21082 39041 40011 51042 69971 7//4/ 333 11059 21137 70013
AAXX 29184 71223 NIL
AAXX 29184 71224 NIL
AAXX 29184 71225 NIL
AAXX 29184 71226 NIL
AAXX 29184 71227 NIL
AAXX 29184 71228 NIL
AAXX 29184 71229 NIL
AAXX 29184 71230 16/// /2518 10003 21077 39119 40008 51040 60001 333 10006 21083 70000
AAXX 29184 71231 16/// /3128 10060 21008 60001 333 10080 20034 70000
AAXX 29184 71232 16/// /2510 10043 21109 38527 49996 51052 60001 333 10051 20018 70000
AAXX 29184 71233 17/// /2906 10015 21024 60011 7//4/ 333 10051 21045 70012
AAXX 29184 71234 16/// /2908 10060 21088 38848 40010 53059 60001 333 10091 20044 70000
AAXX 29184 71235 16/// /3409 10021 21023 60001 333 10050 21006 70000
AAXX 29184 71236 46/// /2814 10040 21066 6///1 333 10044 20003 7////
AAXX 29184 71237 46/// /3311 10041 20004 39184 49989 51073 6///1 333 10041 21022 7////
AAXX 29184 71238 17/// /2903 10007 20003 60061 7//4/ 333 10007 21073 70061 555 10380
AAXX 29184 71239 16/// /1103 11083 21092 39571 40043 58014 60001 333 11082 21167 70000 555 10010
AAXX 29184 71240 17/// ///// 11004 21013 39120 49962 53040 60021 7//4/ 333 10025 21097 70020
AAXX 29184 71241 NIL
AAXX 29184 71242 16/// /3110 10020 21011 60001 333 10030 21094 70000 555 10030
AAXX 29184 71243 NIL
AAXX 29184 71244 NIL
AAXX 29184 71245 46/// /2327 11058 21116 6///1 333 11036 7////
AAXX 29184 71246 NIL
AAXX 29184 71247 15766 83028 10067 21010 39122 49956 53045 60001 333 10090 20022 70015
AAXX 29184 71248 16/// /2402 10017 21021 38721 40010 51040 60001 333 10043 21060 70006
AAXX 29184 71249 NIL
AAXX 29184 71150 46/// /1202 11111 21121 39333 40025 58016 6///1 333 11111 21194 7////
AAXX 29184 71151 NIL
AAXX 29184 71152 17/// /2431 11001 21045 39851 49864 52018 60021 7//4/ 333 10062 21001 70144
AAXX 29184 71153 NIL
AAXX 29184 71154 17/// /2319 10040 21071 69981 7//4/ 333 10043 20008 70030
AAXX 29184 71155 NIL
AAXX 29184 71156 NIL
AAXX 29184 71157 46/// ///// 10025 20022 6///1 333 10025 21055 7////
AAXX 29184 71158 NIL
AAXX 29184 71159 NIL
AAXX 29184 71160 NIL
AAXX 29184 71161 16/// /3302 11132 21215 39998 40153 58014 60001 333 11129 21222 70000
AAXX 29184 71162 NIL
AAXX 29184 71163 46/// /0902 11223 21243 39661 40018 52004 6///1 333 11223 21323 7////
AAXX 29184 71164 NIL
AAXX 29184 71165 NIL
AAXX 29184 71166 NIL
AAXX 29184 71167 15966 02504 10002 21041 38924 40018 51033 69951 333 10008 21096 70010
AAXX 29184 71168 16/// /1504 10043 21002 39461 40035 58015 60001 333 10047 21016 70000
AAXX 29184 71170 NIL
AAXX 29184 71171 16/// /1305 11005 21050 30006 40105 56036 60001 333 11002 21088 70000
AAXX 29184 71172 16/// ///// 11083 21117 39893 40117 58021 60001 333 11083 21196 70000
AAXX 29184 71175 NIL
AAXX 29184 71176 460// /3314 11160 39348 40046 56016 6///1 333 11145 21262 7////
AAXX 29184 71177 460// ///// 11088 38850 49842 58035 6///1 333 11084 21205 7////
AAXX 29184 71178 16/// /2235 10044 21005 39813 49844 57008 60001 333 10055 21001 70000
AAXX 29184 71179 460// ///// 11034 38898 49691 56053 6///1 333 11019 21147 7////
AAXX 29184 71180 16/// /2425 11030 21059 39833 49871 51017 60001 333 10064 21034 70183
AAXX 29184 71181 17562 82424 10024 21020 39842 49878 53011 60001 745// 333 10059 21018 70035
AAXX 29184 71183 16/// /2611 30101 56005 60001 333 70007
AAXX 29184 71184 46/// /2517 11145 21191 6///1 333 11139 21173 7////
AAXX 29184 71186 NIL
AAXX 29184 71187 15666 62910 10080 20023 30114 40162 51029 60001 333 10123 20065 70000
AAXX 29184 71189 NIL
AAXX 29184 71190 NIL
AAXX 29184 71191 16/// ///// 11045 21131 60001 333 10001 21082 70113
AAXX 29184 71192 15966 01802 11071 21072 39439 40105 52026 60001 333 10009 21097 70000
AAXX 29184 71193 17/// /1405 11183 21245 39759 40145 56017 69931 7//4/ 333 11183 21350 70003
AAXX 29184 71196 NIL
AAXX 29184 71197 17428 62631 11033 21058 39819 49867 53013 60001 745// 333 10057 21034 70195
AAXX 29184 71198 46/// /2320 11132 21186 6///1 333 11120 21168 7////
AAXX 29184 71199 NIL
AAXX 29184 71001 15866 82906 11183 21204 38947 49934 53033 60001 333 11183 21237 70000
AAXX 29184 71002 17/08 /3416 11053 21067 39227 49757 56018 64261 772// 333 11053 21159
AAXX 29184 71003 15966 03406 11213 21257 39695 40095 55001 60001 333 11213 21258 70000
AAXX 29184 71005 NIL
AAXX 29184 71006 NIL
AAXX 29184 71007 NIL
AAXX 29184 71008 NIL
AAXX 29184 71009 NIL
AAXX 29184 71010 NIL
AAXX 29184 71011 NIL
AAXX 29184 71012 NIL
AAXX 29184 71013 NIL
AAXX 29184 71014 NIL
AAXX 29184 71015 NIL
AAXX 29184 71016 NIL
AAXX 29184 71017 NIL
AAXX 29184 71018 NIL
AAXX 29184 71019 NIL
AAXX 29184 71020 NIL
AAXX 29184 71021 NIL
AAXX 29184 71022 17966 81308 10020 21006 30033 40077 52013 69931 7004/ 333 10048 20012 70016
AAXX 29184 71023 16062 82205 11060 21064 39198 49964 51013 60001 333 11050 21089 70000
AAXX 29184 71024 17/// /2301 11092 21104 69971 7//4/ 333 11092 21199 70007 555 10010
AAXX 29184 71026 NIL
AAXX 29184 71027 16/// /0803 11027 21065 39853 49863 53005 60001 333 10065 21027 70370
AAXX 29184 71028 16/// /1510 10011 21047 39059 40090 50012 60001 333 10024 21039 70082
AAXX 29184 71029 NIL
AAXX 29184 71030 16/64 /2614 11038 21149 39907 49997 53013 60001 333 11037 21087 70000 555 10010
AAXX 29184 71032 46/// /2303 10047 21029 39314 40144 51031 6///1 333 10050 21003 7////
AAXX 29184 71033 46/// /1403 11081 21097 39355 49996 50001 6///1 333 11081 21252 7////
AAXX 29184 71035 NIL
AAXX 29184 71036 15966 00702 11095 21110 39651 40032 58015 60001 333 11089 21153 70000
AAXX 29184 71039 46/// /0000 11250 6///1 333 11172 21269 7////
AAXX 29184 71040 46/// /2914 11160 21197 39817 40022 53009 6///1 333 11159 21185 7////
AAXX 29184 71041 15566 82617 11020 21075 39771 49910 53003 60001 333 10049 21029 70356
AAXX 29184 71042 16/// /2801 10052 20028 30156 40160 53005 60001 333 10081 20013 70065
AAXX 29184 71044 16/// /0507 11220 21257 39660 49986 53014 60001 333 11207 21321 70000
AAXX 29184 71046 460// /1014 11214 39998 40016 54000 6///1 333 11213 21325 7////
AAXX 29184 71047 16/// ///// 11058 21065 60001 333 11058 21091 70000
AAXX 29184 71048 NIL
AAXX 29184 71049 NIL
AAXX 29184 71060 NIL
AAXX 29184 71063 NIL
AAXX 29184 71726 17/// /2807 11200 21243 39547 40116 55000 60021 7//4/ 333 11198 21268 70023
AAXX 29184 71727 11624 83023 11167 21192 39822 40025 53009 69901 73877 84530 333 11149 21189 48041 70048 90963
AAXX 29184 71728 11982 83217 11131 21200 39813 40040 55000 69901 70381 8801/ 333 11131 21185 48997 70020 90920
AAXX 29184 71730 12574 41006 11176 21228 39696 40143 58017 60001 81630 333 11174 21243 70000
AAXX 29184 71731 12974 21006 11162 21220 39672 40147 58010 60001 82071 333 10162 21271 70000
AAXX 29184 71735 NIL
AAXX 29184 71738 11859 80404 11114 21145 39719 40084 58017 69901 77177 8802/ 333 11112 21210 47018 79999 90973
AAXX 29184 71739 42974 11105 11175 21257 39759 40144 56016 6//// 80001 333 11173 21339 4//// 7////
AAXX 29184 71749 16458 83402 11041 21052 39776 40023 58009 60021 333 11040 21154 70050
AAXX 29184 71799 12683 82510 10075 20014 30146 40170 51010 60001 82571 333 10101 20048 70080
AAXX 29184 71800 16/// /2225 10045 20020 39908 49940 53007 60001 333 10055 20016 70007
AAXX 29184 71801 12572 62330 10042 21007 39732 49901 53004 60001 86500 333 10053 20003 41001 70018
AAXX 29184 71803 11380 62222 10019 21016 39642 49824 56010 69941 72686 86500 333 10039 21010 41004 70016 90916
AAXX 29184 71807 NIL
AAXX 29184 71808 11574 62226 10001 21006 39701 49746 55006 69901 70275 86500 333 10022 21007 48028 70016 90921
AAXX 29184 71809 11459 82325 11011 21052 39782 49809 53008 69901 78588 885// 333 10060 21012 41997 70012 90973
AAXX 29184 71810 16/// /2724 11075 21088 39690 49755 53015 60001 333 10015 21078 70126
AAXX 29184 71811 NIL
AAXX 29184 71813 17/// /2319 11046 21056 39703 49716 53005 69981 7//4/ 333 10027 21046 70540
AAXX 29184 71814 17/// /2124 11027 21034 39721 49730 58004 69941 7//4/ 333 10032 21027 70144
AAXX 29184 71815 11448 82328 11033 21050 39811 49841 53023 69941 78522 885// 333 10071 21034 41997 70010 90956
AAXX 29184 71816 11228 80412 10000 21009 39623 49682 56033 60111 77177 887// 333 10000 21122 44086 70284 90983 93110
AAXX 29184 71817 11574 72215 10014 21018 39714 49727 55005 69941 70265 87500 333 42010 70010 90949
AAXX 29184 71818 11269 80000 10007 20002 39670 49687 56039 60031 70276 885// 333 10025 21045 44018 70050 90926
AAXX 29184 71822 12974 53010 11214 21255 39596 40095 53002 60001 80008 333 11210 21264 70002
AAXX 29184 71825 11/16 93516 11147 21171 39180 49856 53002 60061 77177 333 11141 21187 48120 70176 90983
AAXX 29184 71827 12974 13102 11237 21271 39895 40155 52002 60001 80001 333 11236 21305 70000
AAXX 29184 71828 17308 93421 11183 21220 39267 49919 56011 60031 74544 333 11177 21218 70100
AAXX 29184 71831 12974 00803 11201 21250 39846 40145 58016 60001 333 11200 21347 48042 79999
AAXX 29184 71832 NIL
AAXX 29184 71834 11462 80810 11125 21157 39643 40086 57014 69921 77177 885// 333 11125 21221 48026 70004 90983
AAXX 29184 71841 NIL
AAXX 29184 71842 11474 83402 11101 21114 39576 40054 58007 69901 77177 885// 333 11101 21151 47006 70010 90983
AAXX 29184 71844 NIL
AAXX 29184 71845 11574 61102 11131 21153 39590 40078 58003 69901 77177 83501 333 11131 21218 44021 70010 90973
AAXX 29184 71850 11574 81903 11079 21097 39552 40059 50001 69901 77177 885// 333 11078 21123 48014 70008 90973
AAXX 29184 71852 16258 81806 11071 21076 39758 40056 56009 60001 333 11066 21124 70000
AAXX 29184 71854 11562 81302 11102 21125 39578 40061 58003 69901 77177 885// 333 11102 21169 48017 70026 90993
AAXX 29184 71858 NIL
AAXX 29184 71861 NIL
AAXX 29184 71862 11362 81209 11018 21029 39286 49984 58020 69901 77177 886// 333 11018 21050 47003 70050 90973
AAXX 29184 71863 46248 81416 11009 21022 39260 49952 58022 6///1 333 11009 21070 7////
AAXX 29184 71603 12574 52722 11012 21084 39978 40031 53013 60001 85500 333 11001 21028 70002
AAXX 29184 71607 16/// /2617 11044 21173 39960 49993 53005 60001 333 11040 21095 70003
AAXX 29184 71609 12674 12718 11047 21147 39834 49968 53008 60001 81500 333 11042 21091 79999
AAXX 29184 71610 15966 02612 11128 21191 39802 40108 55000 60001 333 11128 21176 70000
AAXX 29184 71621 12574 61105 11087 21162 30041 40151 57024 60001 81631 333 11087 21169 41997 79999
AAXX 29184 71623 NIL
AAXX 29184 71624 11432 81208 11039 21058 39903 40120 56029 69941 78522 885// 333 11033 21124 70004 90931
AAXX 29184 71625 16964 00000 11177 21236 39994 40163 58014 60001 333 11173 21251 70000
AAXX 29184 71627 12683 22515 11155 21226 30099 40146 58005 60001 81501 333 11152 21185 70028
AAXX 29184 71628 13960 12407 11169 21220 30012 40160 58008 60001 81071 333 11168 21208 70004
AAXX 29184 71630 NIL
AAXX 29184 71631 17/// /1504 11056 21067 39584 40094 58028 60011 7//4/ 333 11056 21135 70039
AAXX 29184 71633 11459 81109 11047 21064 39822 40100 58024 69941 77172 885// 333 11046 21184 43013 70004 90931
AAXX 29184 71705 12574 42626 11068 21146 39833 49920 53006 60001 84800 333 11005 21096 70034
AAXX 29184 71706 11674 72520 11076 21128 39847 49907 53004 69901 78582 87500 333 10031 21082 42001 70090 90957
AAXX 29184 71707 11674 72425 11016 21080 39808 49883 55004 69901 78522 87500 333 10066 21019 45997 70246 90962
AAXX 29184 71709 11448 82530 11073 21107 39848 49861 53010 60011 78522 885// 333 10039 21078 46997 70210 90962 93101
AAXX 29184 71711 NIL
AAXX 29184 71714 16/// /2517 11154 21223 39999 40094 53007 60001 333 11130 21183 70003
AAXX 29184 71715 16/// /3207 11125 21168 39796 49981 53014 60001 333 11113 21143 70045 555 10030
AAXX 29184 71718 11516 82723 11134 21149 39871 49937 52017 60021 77177 885// 333 11079 21134 48002 70100 90983 93102
AAXX 29184 71719 NIL
AAXX 29184 71900 46/// /03// 11005 21009 39745 49757 56060 6///1 333 11004 21154 7//// 555 10040
AAXX 29184 71903 NIL
AAXX 29184 71904 NIL
AAXX 29184 71914 16/// /0000 10043 20023 39949 40171 51012 60001 333 10077 20033 70069
AAXX 29184 71916 NIL
AAXX 29184 71918 460// ///// 11319 6///1 333 7////
AAXX 29184 71920 NIL
AAXX 29184 71921 NIL
AAXX 29184 71923 NIL
AAXX 29184 71927 16/// /0000 10035 20014 30117 40175 51018 60001 333 10097 20015 70066
AAXX 29184 71941 15966 02703 11208 21243 39716 40157 58008 60001 333 11207 21285 70000
AAXX 29184 71947 15966 03007 11222 21248 39786 40153 56004 60001 333 11222 21289 70000
AAXX 29184 71851 16/// /1304 11074 21076 39714 40055 56006 60001 333 11073 21106 70000
AAXX 29184 71857 NIL
AAXX 29184 71860 11583 73206 10016 21025 38639 40022 51057 60001 71511 81170 333 10053 21045 70000
AAXX 29184 71876 17156 81012 11034 21034 39310 49972 53014 60001 710// 333 11034 21086 70000
AAXX 29184 71885 NIL
AAXX 29184 71886 NIL
AAXX 29184 71888 NIL
AAXX 29184 71890 16/// /0515 11138 21201 39884 49911 53016 60001 333 11092 21142 70025
AAXX 29184 71895 NIL
AAXX 29184 71930 13774 22805 10013 21035 39072 40002 52032 60043 82501 333 10013 21086 43015 70038 90999
AAXX 29184 71931 NIL
AAXX 29184 71934 12674 70000 11197 21235 39722 49986 52007 60001 86570 333 11188 21230 79999
AAXX 29184 71935 11374 70000 11206 21244 39789 40006 50004 69901 70277 82670 333 11206 21288 47026 79999 90921
AAXX 29184 71936 11474 80603 11162 21187 39745 40011 50004 69901 77177 885// 333 11162 21217 48026 79999 90983
AAXX 29184 71937 NIL
AAXX 29184 71938 11661 70405 11336 21369 30102 40134 51006 69901 77677 86530 333 11336 21378 44026 79999 90983
AAXX 29184 71940 12782 32520 10006 21060 39207 40012 52040 60001 81541 333 10021 21108 70000
AAXX 29184 71943 11974 22315 11002 21062 39150 49981 52032 60001 73611 82070 333 10006 21040 70000
AAXX 29184 71944 160// ///// 11014 53033 60001 333 10027 21046 70005
AAXX 29184 71945 11474 82105 11162 21213 39513 49993 50019 69941 70272 865// 333 11156 21206 47013 70004 90922
AAXX 29184 71946 11758 80000 11206 21237 39779 40000 50002 60021 77177 8857/ 333 11206 21280 48046 70016 90973 93102
AAXX 29184 71948 47004 /0830 11280 39975 40093 51008 6///1 745// 333 11280 21299 7////
AAXX 29184 71949 46/// /1704 11163 21177 39054 49928 53025 6///1 333 11108 21174 7////
AAXX 29184 71951 11469 71917 10004 21006 39814 40081 52022 69941 70282 85570 333 10026 21013 43037 70112 90937
AAXX 29184 71957 47532 80807 11180 21247 39914 40004 53003 6///1 745// 333 11180 21304 7////
AAXX 29184 71964 11880 61712 11077 21115 39076 49928 53031 69901 70172 86070 333 11065 21153 47020 70032 90931
AAXX 29184 71966 16/// /0000 11207 21232 39480 49950 53027 60001 333 11205 21266 70000
AAXX 29184 71968 470// /0706 11209 39942 40009 54000 6///1 745// 333 11207 21330 7////
AAXX 29184 71350 16/// /2523 11076 21139 39833 49898 53007 60001 333 10028 21079 70103
AAXX 29184 71351 NIL
AAXX 29184 71352 17/// /1207 11051 21062 39638 40102 58028 69971 7//4/ 333 11051 21135 70007
AAXX 29184 71353 NIL
AAXX 29184 71354 NIL
AAXX 29184 71355 16/// /3102 11346 21382 30077 40167 51004 60001 333 11301 21366 70000
AAXX 29184 71356 16/// /1115 11157 21174 39974 40042 52001 60001 333 11155 21308 70000
AAXX 29184 71357 NIL
AAXX 29184 71358 17/// /2703 11335 21371 30150 40187 50001 60031 7//4/ 333 11282 21343 70047
AAXX 29184 71359 NIL
AAXX 29184 71360 NIL
AAXX 29184 71361 NIL
AAXX 29184 71362 NIL
AAXX 29184 71363 NIL
AAXX 29184 71364 NIL
AAXX 29184 71365 NIL
AAXX 29184 71368 17466 81008 11038 21054 39705 40102 58032 60001 771// 333 11038 21107 70000
AAXX 29184 71369 15766 63204 11056 21066 39272 49978 53026 60001 333 11056 21088 70000
AAXX 29184 71370 46/// /2705 11134 21200 39955 40096 55000 6///1 333 11134 21198 7////
AAXX 29184 71371 16966 02516 11141 30099 40134 57005 60001 333 11136 21170 70000
AAXX 29184 71372 NIL
AAXX 29184 71373 16/// /2707 11120 21197 60001 333 11118 21177 70051
AAXX 29184 71374 NIL
AAXX 29184 71375 NIL
AAXX 29184 71376 16/// /2603 11164 21220 39837 40153 55003 60001 333 11162 21256 70000
AAXX 29184 71377 16/// /2514 11157 21209 30092 40143 56007 60001 333 11152 21188 70003
AAXX 29184 71378 16/// /2906 11168 21230 39874 40091 55002 60001 333 11168 21223 70000 555 10060
AAXX 29184 71379 16/// /2923 11170 21216 39854 40030 53006 60001 333 11170 21213 70000
AAXX 29184 71380 NIL
AAXX 29184 71381 NIL
AAXX 29184 71382 17/// /0000 11190 21224 39044 40025 53014 60011 7//4/ 333 11186 21218 70029
AAXX 29184 71383 NIL
AAXX 29184 71384 16/// /2611 11132 21194 30033 40041 53012 60001 333 11101 21153 70010
AAXX 29184 71385 NIL
AAXX 29184 71386 NIL
AAXX 29184 71387 NIL
AAXX 29184 71388 46/// /3015 11160 21204 39828 40021 53010 6///1 333 11151 21179 7////
AAXX 29184 71389 46/// /2708 11134 21219 6///1 333 11128 21188 7////
AAXX 29184 71390 NIL
AAXX 29184 71391 16/// ///// 11176 21210 60001 333 11174 21221 70010
AAXX 29184 71392 16/// /2411 11155 21219 60001 333 11131 21180 70016
AAXX 29184 71393 NIL
AAXX 29184 71395 11574 22519 11028 21100 39767 49944 53004 69901 72681 82100 333 10015 21043 70130 90913
AAXX 29184 71398 15966 01703 11220 21246 30158 40170 58003 60001 333 11220 21317 70000
AAXX 29184 71399 NIL
AAXX 29184 71550 NIL
AAXX 29184 71551 NIL
AAXX 29184 71552 NIL
AAXX 29184 71553 NIL
AAXX 29184 71554 NIL
AAXX 29184 71555 16/// /3120 10042 21096 38480 40012 53059 60001 333 10060 20026 70000
AAXX 29184 71556 NIL
AAXX 29184 71557 46/// /2111 10057 21032 6///1 333 10073 20030 7////
AAXX 29184 71558 46/// ///// 10013 21034 39709 49744 55002 6///1 333 10027 21005 7////
AAXX 29184 71559 46/// /1210 11017 21030 39284 49981 58019 6///1 333 11017 21049 7////
AAXX 29184 71560 16/// /1605 11072 21083 39750 40061 57007 60001 333 11071 21158 70000
AAXX 29184 71563 NIL
AAXX 29184 71564 16/// /1605 11079 21088 39681 40057 58004 60001 333 11068 21094 70000
AAXX 29184 71565 NIL
AAXX 29184 71566 NIL
AAXX 29184 71567 NIL
AAXX 29184 71568 16/// /1409 10037 20018 30132 40144 50003 60001 333 10076 20035 70100
AAXX 29184 71569 17/// /1210 11006 21009 39239 49932 58022 60011 7//4/ 333 11006 21061 70037 555 10020
AAXX 29184 71570 16/// /1403 11063 21086 39744 40060 58004 60001 333 11062 21095 70000
AAXX 29184 71571 NIL
AAXX 29184 71572 NIL
AAXX 29184 71573 NIL
AAXX 29184 71574 11564 72725 11124 21153 39823 49896 53015 69901 73787 85430 333 11002 21129 43017 70046 90917
AAXX 29184 71575 NIL
AAXX 29184 71576 16/// /0000 11317 21352 30107 40197 58006 60001 333 11292 21348 70000
AAXX 29184 71577 NIL
AAXX 29184 71578 16/// /2417 11150 21223 60001 333 11124 21174 70011
AAXX 29184 71579 16/// /2202 11069 21086 39764 40051 57008 60001 333 11065 21092 70000
AAXX 29184 71580 11474 70312 11320 21352 30094 40133 58003 69901 72277 87500 333 11320 21362 48030 79999 90923
AAXX 29184 71581 NIL
AAXX 29184 71582 15566 81302 10029 20013 30067 40120 54000 60001 333 10063 20016 70297
AAXX 29184 71583 NIL
AAXX 29184 71584 17416 82621 11044 21055 39670 49716 53017 60001 771// 333 10008 21044 70476
AAXX 29184 71585 NIL
AAXX 29184 71586 16/// /1305 11047 21067 39514 49984 58009 60001 333 11047 21183 70000
AAXX 29184 71587 NIL
AAXX 29184 71588 16/// /2317 11022 21058 60001 333 10078 21022 70000
AAXX 29184 71589 16/// /2320 10026 21022 39708 49837 55008 60001 333 10040 21018 70009
AAXX 29184 71590 16/// /3110 11118 21159 39754 49947 53011 60001 333 11085 21142 70006 555 10040
AAXX 29184 71592 NIL
AAXX 29184 71593 NIL
AAXX 29184 71596 NIL
AAXX 29184 71598 16/64 /2622 11107 21172 39857 49863 53014 60001 333 10009 21108 70012 555 10010
AAXX 29184 71599 NIL
AAXX 29184 71401 16/// /1607 10041 20004 39449 40130 53039 60001 333 10051 20016 70049
AAXX 29184 71402 NIL
AAXX 29184 71404 NIL
AAXX 29184 71405 NIL
AAXX 29184 71406 NIL
AAXX 29184 71407 NIL
AAXX 29184 71408 NIL
AAXX 29184 71409 NIL
AAXX 29184 71410 17259 81602 11080 21088 39758 40041 50000 60001 710// 333 11080 21132 70000
AAXX 29184 71413 NIL
AAXX 29184 71414 NIL
AAXX 29184 71415 16/// /2512 11042 21066 39906 49909 53003 60001 333 10040 21048 70060
AAXX 29184 71417 NIL
AAXX 29184 71418 NIL
AAXX 29184 71419 46/// /2430 10008 21032 39898 49908 55007 6///1 333 10056 21008 7////
AAXX 29184 71423 NIL
AAXX 29184 71424 46/// /2328 6///1 333 7////
AAXX 29184 71425 17/// /2722 11109 21139 39781 49817 53023 60011 7//4/ 333 11019 21111 70087
AAXX 29184 71426 NIL
AAXX 29184 71427 NIL
AAXX 29184 71428 16/// /2534 11101 21117 39866 49872 53016 60001 333 11053 21104 70050
AAXX 29184 71429 17/// /2616 11101 21113 39793 49812 53021 60011 7//4/ 333 10013 21103 70060
AAXX 29184 71434 NIL
AAXX 29184 71436 15566 80605 11104 21145 39902 40146 58020 60001 333 11104 21195 70000
AAXX 29184 71437 NIL
AAXX 29184 71438 NIL
AAXX 29184 71439 NIL
AAXX 29184 71440 NIL
AAXX 29184 71442 NIL
AAXX 29184 71445 NIL
AAXX 29184 71446 17/// /2614 10031 21010 38954 49913 58005 60021 7//4/ 333 10038 21062 70021
AAXX 29184 71448 16/// /1503 11061 21083 39719 40053 58005 60001 333 11061 21102 70000
AAXX 29184 71449 16/// /1103 11075 21087 39644 40052 50000 60001 333 11058 21138 70000
AAXX 29184 71102 NIL
AAXX 29184 71105 NIL
AAXX 29184 71107 NIL
AAXX 29184 71110 NIL
AAXX 29184 71111 15866 82007 10016 21025 30060 40068 50000 60001 333 10036 21007 70024
AAXX 29184 71112 16/// ///// 60001 333 70076
AAXX 29184 71113 16/// /1602 10074 20034 30144 40167 51021 60001 333 10118 20073 70202
AAXX 29184 71115 16/// /2805 10079 21033 39536 40113 53037 60001 333 10098 21007 70004
AAXX 29184 71116 16/// /2832 10060 21038 38904 49977 53031 60001 333 10069 20016 70004
AAXX 29184 71118 16/// /3006 11058 21070 39156 49985 53045 60001 333 11058 21100 70000
AAXX 29184 71121 17764 32808 10016 21030 39170 49989 51035 60031 7//44 333 10018 21084 70030
AAXX 29184 71127 17/// /2709 10022 20007 39088 49990 51036 60021 7//4/ 333 10024 21082 70022
AAXX 29184 71130 15966 00906 11069 21110 39544 40007 58003 60001 333 11056 21141 70000
AAXX 29184 71132 17666 81008 11118 21130 39678 49994 58002 60001 771// 333 11110 21159 70000
AAXX 29184 71133 NIL
AAXX 29184 71139 NIL
AAXX 29184 71141 NIL
AAXX 29184 71142 17966 02314 10033 20003 38965 49914 58006 60021 7004/ 333 10038 21067 70018
AAXX 29184 71143 NIL
AAXX 29184 71144 NIL
AAXX 29184 71147 16/// /1706 11079 21086 60001 333 11074 21100 70000
AAXX 29184 71149 16/// /1303 11106 21133 60001 333 11085 21170 70000
AAXX 29184 71893 11674 82003 10038 20024 30121 40153 50006 69941 70281 8357/ 333 10067 20032 70086 90930
AAXX 29184 71894 16/// /0808 10044 20042 30132 40141 58004 60001 333 10080 20027 70142
AAXX 29184 71896 15966 01808 11011 21089 39256 40084 51026 60001 333 10040 21031 70003
AAXX 29184 71897 12374 81415 10052 20024 3//// 4//// 54000 60011 888XX 333 10054 20022 70024
AAXX 29184 71898 160// ///// 10017 53012 60001 333 10051 20013 70015
AAXX 29184 71899 11474 72011 10006 21009 3//// 4//// 53018 69941 70181 85276 333 10038 20000 70036 90957
AAXX 29184 71902 11306 80335 11023 21037 39846 49854 56030 60311 7717/ 887// 333 11019 21168 70308 90999
AAXX 29184 71905 NIL
AAXX 29184 71906 11566 80217 11110 21154 30007 40059 55018 69901 77171 885// 333 11107 21297 44015 79999 90957
AAXX 29184 71907 16964 00000 11300 21347 30142 40177 58003 60001 333 11298 21319 70000
AAXX 29184 71909 16964 00308 11218 21285 30132 40177 56016 60001 333 11198 21295 70000
AAXX 29184 71910 47550 83004 11215 21245 30108 40173 58005 6///1 745// 333 11172 21215 7////
AAXX 29184 71911 46964 00706 11320 30060 40120 58003 6///1 333 11310 21362 7////
AAXX 29184 71912 11574 80000 11203 21238 39864 40055 58009 69901 77111 885// 333 11202 21296 47020 79999 90921
AAXX 29184 71915 NIL
AAXX 29184 71917 11974 00000 11393 21443 30179 40194 51005 69901 77677 333 11368 21400 44014 79999 90983
AAXX 29184 71922 12474 81204 11046 21063 39518 49989 57008 60001 885// 333 11046 21183 70002
AAXX 29184 71924 NIL
AAXX 29184 71925 11574 60406 11385 21424 30091 40135 50005 69901 77677 86500 333 11344 21397 42021 79999 90983
AAXX 29184 71926 11559 81115 11155 21197 30013 40038 54000 69921 77177 885// 333 11154 21305 48042 70006 90983
AAXX 29184 71928 16/// /3105 10019 21040 38853 40009 51033 60001 333 10043 21101 70000
AAXX 29184 71500 NIL
AAXX 29184 71501 NIL
AAXX 29184 71502 NIL
AAXX 29184 71503 NIL
AAXX 29184 71504 NIL
AAXX 29184 71505 46/// /0606 11123 21157 39174 49901 50007 6///1 333 11110 21219 7////
AAXX 29184 71506 NIL
AAXX 29184 71507 16/// /0803 11116 21126 60001 333 11084 21176 70004
AAXX 29184 71508 16/// ///// 11032 21056 39986 40127 56029 60001 333 11030 21103 70010
AAXX 29184 71509 NIL
AAXX 29184 71511 NIL
AAXX 29184 71512 17/// /2710 11053 21056 39727 49740 53025 60051 7//4/ 333 10014 21053 70433
AAXX 29184 71513 17416 82420 11044 21053 39704 49719 51008 69951 771// 333 10026 21044 70488
AAXX 29184 71514 NIL
AAXX 29184 71515 16/// /1205 11027 21037 39275 49973 58012 60001 333 11027 21064 70019
AAXX 29184 71516 NIL
AAXX 29184 71517 NIL
AAXX 29184 71518 NIL
AAXX 29184 71519 NIL
AAXX 29184 71520 NIL
AAXX 29184 71521 NIL
AAXX 29184 71522 NIL
AAXX 29184 71523 NIL
AAXX 29184 71524 16/// /2412 11152 21201 30110 40138 58003 60001 333 11152 21195 70030 555 10040
AAXX 29184 71525 NIL
AAXX 29184 71526 NIL
AAXX 29184 71527 15466 80504 11089 21109 39540 40053 58002 60001 333 11078 21128 70000
AAXX 29184 71528 NIL
AAXX 29184 71529 46/// /0703 11152 21172 39782 40013 53007 6///1 333 11151 21167 7////
AAXX 29184 71532 15766 81104 11103 21128 39777 40136 58019 60001 333 11103 21238 70000
AAXX 29184 71534 17461 81405 11067 21085 39842 40124 58024 60001 745// 333 11067 21243 70005
AAXX 29184 71535 NIL
AAXX 29184 71536 NIL
AAXX 29184 71537 NIL
AAXX 29184 71539 NIL
AAXX 29184 71540 NIL
AAXX 29184 71541 NIL
AAXX 29184 71542 17/// /2604 11106 21123 69941 7//4/ 333 11098 21140 70004
AAXX 29184 71543 NIL
AAXX 29184 71544 NIL
AAXX 29184 71545 17/// ///// 10016 20005 60031 7//4/ 333 10019 21115 70036
AAXX 29184 71546 NIL
AAXX 29184 71547 NIL
AAXX 29184 71548 NIL
AAXX 29184 71549 NIL
AAXX 29184 71250 NIL
AAXX 29184 71251 16/// /3220 10062 21012 39092 40001 52068 60001 333 10090 20011 70007
AAXX 29184 71252 NIL
AAXX 29184 71253 46/// /0502 11131 21139 6///1 333 11131 21191 7//// 555 10010
AAXX 29184 71254 17/// /3011 10012 20012 60021 7//4/ 333 10012 21096 70018 555 10020
AAXX 29184 71255 17/// /2204 11061 21077 69931 7//4/ 333 11047 21118 70006
AAXX 29184 71256 46/// /2705 10019 21013 39067 49997 51031 6///1 333 10020 21087 7////
AAXX 29184 71257 NIL
AAXX 29184 71258 NIL
AAXX 29184 71259 NIL
AAXX 29184 71261 17/// /1210 11022 21044 39805 40068 58035 69931 7//4/ 333 11020 21078 70003
AAXX 29184 71263 11760 80606 11027 21043 39814 40109 58034 69901 72682 8358/ 333 11027 21112 4-4003 79999 909/5
AAXX 29184 71264 46/// /2521 11012 21081 39929 49960 53009 6///1 333 10036 21023 7////
AAXX 29184 71265 17456 81008 11028 21056 30028 40124 56029 60001 771// 333 11022 21096 70000
AAXX 29184 71266 NIL
AAXX 29184 71267 15966 82526 10069 21059 38938 40013 52049 60001 333 10073 20020 70000
AAXX 29184 71268 NIL
AAXX 29184 71269 NIL
AAXX 29184 71270 NIL
AAXX 29184 71271 16/// ///// 11011 21031 60001 333 11011 21120 70000
AAXX 29184 71272 17459 82404 11112 21123 39669 40027 51003 60001 771// 333 11112 21156 70000
AAXX 29184 71273 16/// /2702 11065 21071 39310 49969 53018 60001 333 11048 21093 70000
AAXX 29184 71274 NIL
AAXX 29184 71275 NIL
AAXX 29184 71276 NIL
AAXX 29184 71277 NIL
AAXX 29184 71278 NIL
AAXX 29184 71279 17/// /2909 11087 21123 39738 49803 53014 69931 7//4/ 333 11006 21100 70066
AAXX 29184 71281 NIL
AAXX 29184 71282 46/// /1005 11093 21100 39858 40137 56021 6///1 333 11092 21181 7////
AAXX 29184 71283 NIL
AAXX 29184 71284 17/// ///// 10016 20006 60051 7//4/ 333 10016 21082 70054
AAXX 29184 71285 NIL
AAXX 29184 71286 NIL
AAXX 29184 71287 NIL
AAXX 29184 71288 NIL
AAXX 29184 71289 NIL
AAXX 29184 71290 15966 01005 11010 21062 39219 40045 51036 60001 333 10028 21042 70016
AAXX 29184 71291 17/// /0505 11066 21087 39747 40042 58012 60031 7//4/ 333 11065 21187 70052 555 10080
AAXX 29184 71292 15966 01510 11073 21078 39398 40010 56010 60001 333 11073 21139 70000
AAXX 29184 71294 16/// /0701 11135 21200 39725 40148 58013 60001 333 11134 70000
AAXX 29184 71295 NIL
AAXX 29184 71296 NIL
AAXX 29184 71297 16/// /0704 11018 21034 60001 333 11018 21101 70000
AAXX 29184 71298 16/// /1713 10016 20012 39819 40052 58044 60001 333 10016 21061 70000
AAXX 29184 71299 NIL
AAXX 29184 71665 17/// /0233 11027 21032 39842 49852 56029 60111 7//4/ 333 11026 21182 70240
AAXX 29184 71666 16/// /2618 11082 21150 39871 49915 53010 60001 333 11002 21094 70007
AAXX 29184 71667 NIL
AAXX 29184 71668 16/// /2617 11059 21153 39915 49959 53009 60001 333 11054 21102 70018
AAXX 29184 71669 NIL
AAXX 29184 71670 17/// ///// 11083 21156 69961 7//4/ 333 11001 21099 70026
AAXX 29184 71671 16/// /2620 11035 21086 39885 49945 53004 60001 333 10009 21056 70030
AAXX 29184 71672 16/// /0304 11116 21153 39870 40145 58016 60001 333 11116 21217 70000
AAXX 29184 71673 NIL
AAXX 29184 71674 NIL
AAXX 29184 71675 17466 81506 11158 21182 39808 40099 58007 60041 7714/ 333 11158 21248 70035
AAXX 29184 71679 16/// /1706 11016 21067 39049 40058 53018 60001 333 10022 21019 70027
AAXX 29184 71680 NIL
AAXX 29184 71681 46/// /0402 10011 21011 6///1 333 10099 21006 7////
AAXX 29184 71682 NIL
AAXX 29184 71683 NIL
AAXX 29184 71684 15066 11302 11225 21260 39843 40163 58009 60001 333 11225 21305 70000
AAXX 29184 71685 17366 60402 10020 20020 39567 40105 51032 69931 7004/ 333 10035 20009 70051
AAXX 29184 71686 469// /2403 11060 21071 39041 49995 51042 6///1 333 11051 21122
AAXX 29184 71687 NIL
AAXX 29184 71688 16/// /1405 10006 21004 39096 40127 53018 60001 333 10027 21002 70054
AAXX 29184 71689 15666 81702 11052 21063 39497 49951 51017 60001 333 11051 21115 70000
AAXX 29184 71690 NIL
AAXX 29184 71691 17766 82816 11138 21196 39887 49914 53016 60001 771// 333 11091 21141 70036
AAXX 29184 71692 NIL
AAXX 29184 71694 16/// /0902 11106 21143 39770 40149 58015 60001 333 11106 21243 70005
AAXX 29184 71695 16/// /1403 11119 21134 39684 40023 58003 60001 333 11081 21196 70000
AAXX 29184 71696 16/// /1709 11175 21196 39997 40035 58004 60001 333 11175 21199 70000
AAXX 29184 71697 15466 80808 11067 21088 39958 40135 58024 60001 333 11067 21164 70000
AAXX 29184 71699 16/// /2715 11033 21139 39974 49981 53002 60001 333 11033 21082 70006 555 10010
AAXX 29184 71300 NIL
AAXX 29184 71301 17/// ///// 11165 21215 39724 40146 58015 69981 7//4/ 333 11162 21335 70008
AAXX 29184 71302 16/// /1807 11011 21084 39267 40081 51026 60001 333 10043 21023 70000
AAXX 29184 71303 46/// ///// 10018 20005 6///1 333 10023 21079 7////
AAXX 29184 71305 15666 80606 11106 21117 39663 49957 50003 60001 333 11106 21184 70000
AAXX 29184 71306 15966 00603 11260 21294 30141 40175 58003 60001 333 11258 21296 70000
AAXX 29184 71307 NIL
AAXX 29184 71308 16/// /2416 11024 21076 39833 49916 53004 60001 333 10054 21028 70243
AAXX 29184 71309 NIL
AAXX 29184 71310 16/// /2418 11077 21130 39861 49897 53011 60001 333 10034 21078 70129
AAXX 29184 71311 NIL
AAXX 29184 71312 16/// /1206 11077 21113 39542 40004 58003 60001 333 11058 21151 70000
AAXX 29184 71314 16/// /1305 11075 21092 39758 40124 58023 60001 333 11075 21223 70000
AAXX 29184 71315 NIL
AAXX 29184 71316 16/// /2104 11061 21072 39291 49976 51029 60001 333 11061 21089 70004
AAXX 29184 71317 NIL
AAXX 29184 71318 17/// /3217 11004 21006 39040 49982 53058 69971 7//4/ 333 10004 21107 70007 555 10310
AAXX 29184 71319 16/// /3009 11147 21179 39105 49984 53018 60001 333 11143 21177 70024
AAXX 29184 71320 NIL
AAXX 29184 71321 NIL
AAXX 29184 71322 NIL
AAXX 29184 71323 16/// /2707 11138 21204 39767 40056 53007 60001 333 11129 21173 70010
AAXX 29184 71331 16/// /1201 11134 21153 60001 333 11091 21146 70000
AAXX 29184 71332 NIL
AAXX 29184 71334 46/// /2403 11114 21133 39695 40028 53002 6///1 333 11114 21157 7////
AAXX 29184 71335 46000 0//// 11096 56016 6///1 333 11090 21189 7////
AAXX 29184 71336 46/// ///39 10050 20002 39836 49858 53003 6///1 333 10061 20010 7////
AAXX 29184 71337 46/// /2208 10006 20002 39547 49777 55006 6///1 333 10029 21012 7////
AAXX 29184 71338 46964 32203 11262 21319 30178 40186 58003 6///1 333 11249 21315 7////
AAXX 29184 71339 17564 82316 10014 21018 39715 49729 55002 60061 74544 333 10028 21011 70065
AAXX 29184 71340 NIL
AAXX 29184 71341 NIL
AAXX 29184 71342 NIL
AAXX 29184 71343 NIL
AAXX 29184 71344 NIL
AAXX 29184 71345 NIL
AAXX 29184 71346 NIL
AAXX 29184 71347 NIL
AAXX 29184 71348 NIL
AAXX 29184 71349 NIL
AAXX 29184 71450 NIL
AAXX 29184 71451 16/// /1401 11110 21124 39584 40019 58001 60001 333 11105 21223 70000
AAXX 29184 71452 46/// /1411 11013 21019 39264 49970 56020 6///1 333 11013 21051 7//// 555 10050
AAXX 29184 71453 NIL
AAXX 29184 71454 NIL
AAXX 29184 71455 46/// /0705 11005 21007 39139 49928 58010 6///1 333 10000 21087 7////
AAXX 29184 71456 16/// /0803 11086 21107 39391 49992 56006 60001 333 11057 21126 70000
AAXX 29184 71457 16/// /3226 10048 21005 39090 49960 51062 60001 333 10077 20027 70000
AAXX 29184 71458 17/// /2809 11010 21011 39216 49987 51042 60021 7//4/ 333 11010 21105 70021
AAXX 29184 71459 17/// /3111 10013 20004 39129 49928 53023 60031 7//4/ 333 10022 21089 70027
AAXX 29184 71460 16/// /0712 11122 21145 39875 40126 58024 60001 333 11122 21183 70000
AAXX 29184 71461 NIL
AAXX 29184 71462 NIL
AAXX 29184 71463 NIL
AAXX 29184 71464 NIL
AAXX 29184 71465 NIL
AAXX 29184 71466 NIL
AAXX 29184 71468 NIL
AAXX 29184 71470 NIL
AAXX 29184 71471 17966 02418 10014 21066 39208 49993 52037 69931 7004/ 333 10029 21094 70003
AAXX 29184 71473 16/// /2110 10055 20022 30141 40171 53019 60001 333 10077 20046 70060
AAXX 29184 71475 NIL
AAXX 29184 71476 NIL
AAXX 29184 71477 46/// /1806 11002 21021 6///1 333 10023 21009 7////
AAXX 29184 71478 NIL
AAXX 29184 71479 NIL
AAXX 29184 71480 NIL
AAXX 29184 71481 NIL
AAXX 29184 71482 NIL
AAXX 29184 71483 NIL
AAXX 29184 71484 NIL
AAXX 29184 71485 16/// /1221 10053 20029 30096 40116 58005 60001 333 10070 20045 70118
AAXX 29184 71486 17/// /1304 11005 21023 38854 40044 53033 69971 7//4/ 333 10026 21020 70012 555 10010
AAXX 29184 71487 17/// /2311 10028 20010 39074 49929 58016 60011 7//4/ 333 10030 21067 70013
AAXX 29184 71489 NIL
AAXX 29184 71490 NIL
AAXX 29184 71491 NIL
AAXX 29184 71492 NIL
AAXX 29184 71493 16/// /2617 11045 21109 39895 49933 53002 60001 333 10014 21068 70030
AAXX 29184 71494 16/// /2613 11164 21205 39533 40071 53006 60001 333 11147 21198 70003
AAXX 29184 71495 NIL
AAXX 29184 71496 16/// /1210 11026 21034 39349 49957 50002 60001 333 11026 21075 70000
AAXX 29184 71497 46/// /2104 11188 21215 39722 49994 53008 6///1 333 11179 21222 7////
AAXX 29184 71498 NIL
AAXX 29184 71499 17566 81203 11078 21089 39356 49994 50002 60001 771// 333 11078 21224 70000
AAXX 29184 71864 NIL
AAXX 29184 71865 16/// /1310 11040 21061 39298 49975 56011 60001 333 11038 21082 70000
AAXX 29184 71866 46261 81110 11026 21040 39352 49963 50002 6///1 333 11026 21073 7////
AAXX 29184 71867 12574 70907 11121 21132 39688 40027 58003 60001 87500 333 11084 21194 79999
AAXX 29184 71868 16/// /0402 11074 21141 39566 40011 58010 60001 333 11061 21116 70000
AAXX 29184 71869 12374 80908 11057 21071 39464 49990 55000 60001 87501 333 11047 21117 70000
AAXX 29184 71871 17140 82204 11053 21057 39171 49976 53031 60001 710// 333 11052 21076 70000
AAXX 29184 71877 12986 73213 10031 20027 38767 40027 51062 60001 85071 333 10069 21037 70000
AAXX 29184 71878 11574 73210 10011 21016 38946 40011 51045 69901 70282 81571 333 10039 21093 48008 79999 90930
AAXX 29184 71879 17764 32807 10027 20010 39192 49988 51037 60021 7//44 333 10027 21064 70020
AAXX 29184 71880 12682 22603 10061 21032 38988 40079 53040 60001 81570 333 10063 20011 70040
AAXX 29184 71882 160// /0000 10016 20014 39568 40106 51032 69951 333 10038 20008 70085
AAXX 29184 71883 46/// /1603 11002 21005 39282 40100 51034 6///1 333 10038 21010 7////
AAXX 29184 71887 12786 20000 10036 21022 39692 40111 51032 60001 81171 333 10224 21015 79999
AAXX 29184 71889 12874 51808 10068 21004 39712 40126 51040 60001 82071 333 10105 20051 70000
AAXX 29184 71891 16764 32016 10062 20023 39845 40118 51026 60001 333 10085 20056 70100
AAXX 29184 71892 12374 81802 10068 20018 30165 40170 52020 60001 83571 333 10104 20051 70080
AAXX 29184 71397 11574 72628 11028 21089 39930 49964 53004 69901 70288 87500 333 10005 21057 45997 79999 90923
AAXX 29184 71400 17/64 /2212 10013 21034 69971 7//4/ 333 10042 21007 70014
AAXX 29184 71403 46/// /2435 10001 21038 39912 49932 53001 6///1 333 10051 21012 7////
AAXX 29184 71411 NIL
AAXX 29184 71412 16/// /2619 11065 21089 39884 49893 53007 60001 333 10050 21065 70137
AAXX 29184 71421 NIL
AAXX 29184 71430 16/// /0806 11068 21122 30046 40146 56024 60001 333 11065 21171 70000
AAXX 29184 71431 16/// /1007 11070 21119 30035 40134 56025 60001 333 11068 21159 70000 555 10010
AAXX 29184 71432 NIL
AAXX 29184 71433 NIL
AAXX 29184 71435 NIL
AAXX 29184 71441 NIL
AAXX 29184 71443 NIL
AAXX 29184 71444 NIL
AAXX 29184 71447 16/// /1609 11046 21066 39472 40018 58012 60001 333 11044 21114 70000
AAXX 29184 71467 16/// /1119 11283 21310 30012 40132 53003 60001 333 11273 21316 70000
AAXX 29184 71472 NIL
AAXX 29184 71474 16964 01904 10008 21082 38866 40094 51022 60001 333 10037 21039 70005
AAXX 29184 71510 NIL
AAXX 29184 71538 11316 81709 10009 21001 39823 40055 58043 60021 77122 887// 333 10009 21057 41997 70016 90952
AAXX 29184 71600 17656 82536 10047 21024 39973 49979 53006 60031 74344 333 10070 20046 70080
AAXX 29184 71601 NIL
AAXX 29184 71051 NIL
AAXX 29184 71055 NIL
AAXX 29184 71057 NIL
AAXX 29184 71059 460// ///// 11357 30034 40131 52006 6///1 333 11306 21357 7////
AAXX 29184 71061 17/// /2506 10017 20004 39201 49982 51035 69981 7//4/ 333 10017 21118 70008 555 10010
AAXX 29184 71062 46/// /2809 10014 21025 38926 49975 51033 6///1 333 10038 21060 7//// 555 10010
AAXX 29184 71064 460// /3514 11383 39903 40135 53004 6///1 333 11360 21383 7////
AAXX 29184 71065 NIL
AAXX 29184 71067 NIL
AAXX 29184 71070 NIL
AAXX 29184 71073 NIL
AAXX 29184 71074 NIL
AAXX 29184 71075 16/// /1603 11137 21153 39396 40008 51005 60001 333 11103 21176 70000
AAXX 29184 71078 NIL
AAXX 29184 71084 460// ///// 11324 30069 40120 51003 6///1 333 11323 21355 7////
AAXX 29184 71085 15966 62722 10045 21061 38666 40023 53035 60001 333 10054 20030 70005
AAXX 29184 71087 NIL
AAXX 29184 71088 460// /0909 11242 58003 6///1 333 11233 21293 7////
AAXX 29184 71089 NIL
AAXX 29184 71096 460// ///// 11252 39404 40167 57003 6///1 333 11215 21253 7////
AAXX 29184 71097 47964 00318 11238 39653 40148 56020 6///1 745// 333 11212 21239 7////
AAXX 29184 71098 43/// /1402 11122 21139 39697 40067 58001 6///1 333 11121 21197 7////
AAXX 29184 71099 43/// /1507 11210 21264 30100 40121 58011 6///1 333 11208 21290 7////
AAXX 29184 71114 160// /2910 10082 20018 30115 40163 51028 60011 333 10130 20065 70365
AAXX 29184 71120 11159 82002 11056 21072 39322 49977 52025 60001 71011 886// 333 11045 21071 79999
AAXX 29184 71122 16/// /2408 10009 21064 38450 40033 51043 60001 333 21001 7////
AAXX 29184 71123 11574 72806 10015 20004 39135 49995 51036 60021 70176 82572 333 10019 21085 44006 70015 90926
AAXX 29184 71125 12266 81106 11054 21060 39384 49967 53003 60001 886// 333 70000
AAXX 29184 71129 11558 80305 11014 21022 39121 49949 53025 60121 76672 885// 333 10043 21111 40997 70124 90952
AAXX 29184 71131 16/// /2524 10018 21011 38709 49941 51007 60001 333 10030 21030 70000
AAXX 29184 71135 16/// /2616 10029 21015 38880 49944 58008 60001 333 10029 21022 70000
AAXX 29184 71137 16/// /2513 10034 21008 39019 49945 53006 60001 333 10039 21042 70000
AAXX 29184 71140 11158 80805 11102 21104 39529 40036 5/012 60001 71041 8867/ 333 11059 21167 70000
AAXX 29184 71145 11469 81503 11127 21147 39756 40058 58004 69941 77177 885// 333 11126 21189 48036 70006 90983
AAXX 29184 71148 16/// /1201 11091 21099 39456 40045 58013 60001 333 11081 21157 70000
AAXX 29184 71185 17459 62227 11006 39747 49770 55002 60001 745// 333 10069 21010 70005
AAXX 29184 71188 11462 72713 11094 21142 39765 49807 53023 69981 77173 87500 333 10022 21098 43009 70148 90983 93101
AAXX 29184 71200 17/// /1807 10065 20035 69941 7//4/ 333 10086 20058 70092
AAXX 29184 71207 16/// /1509 10061 20041 30088 40152 51025 60001 333 10097 20029 70363
AAXX 29184 71260 13/// ///// 11074 21094 39826 40067 58022 69921 333 11073 21158 47001 70002
AAXX 29184 71812 47256 91715 11136 21147 30020 40034 50000 6///1 745// 333 11113 21167 7////
AAXX 29184 71819 15666 82426 10015 21036 39713 49753 55002 60001 333 10026 21004 70000
AAXX 29184 71820 NIL
AAXX 29184 71823 16964 03407 11235 21288 39695 40096 55001 60001 333 11234 21275 70000
AAXX 29184 71824 NIL
AAXX 29184 71826 16/// /0602 11278 21325 30134 40180 58016 60001 333 11266 21289 70000
AAXX 29184 71829 16/// /2518 11145 21201 39730 49893 53011 60001 333 11101 21147 70050
AAXX 29184 71833 46/// /1106 11045 21057 6///1 333 11045 21128 7////
AAXX 29184 71835 16/// /1104 11128 21149 39581 40074 58001 60001 333 11128 21218 70003 555 10020
AAXX 29184 71837 NIL
AAXX 29184 71839 NIL
AAXX 29184 71840 NIL
AAXX 29184 71846 16/// /1003 11180 21195 39784 40114 58008 60001 333 11180 21268 70000
AAXX 29184 71847 NIL
AAXX 29184 71848 NIL
AAXX 29184 71849 NIL
AAXX 29184 71604 16/// /2725 11084 21090 60001 333 10029 21085 70144
AAXX 29184 71605 16/// /2102 10058 20054 30010 40160 53025 60001 333 10092 20041 70448
AAXX 29184 71611 16/// /2511 11119 21181 60001 333 11119 21167 70000
AAXX 29184 71612 NIL
AAXX 29184 71614 NIL
AAXX 29184 71616 16/// /2313 11144 21194 39986 40111 53003 60001 333 11126 21177 70030
AAXX 29184 71617 16/// /2919 11168 21200 39859 40037 53008 60001 333 11149 21192 70016
AAXX 29184 71618 17548 82006 11174 21195 30002 40041 58005 60001 771// 333 11174 70000
AAXX 29184 71619 NIL
AAXX 29184 71622 NIL
AAXX 29184 71632 46/// /1801 11151 21167 39582 40029 50004 6///1 333 11114 21184 7////
AAXX 29184 71634 16/// /2810 11120 21192 39747 49900 53013 60001 333 11011 21123 70027
AAXX 29184 71638 16/// /0801 10047 20035 30053 40158 53021 60001 333 10083 20025 70088
AAXX 29184 71639 11466 80707 11061 21096 39877 40126 58029 69901 72211 885// 333 11060 21155 79999 90921
AAXX 29184 71642 11574 81004 11140 21262 39540 40112 58019 69901 77172 885// 333 11140 21286 48022 79999 90916
AAXX 29184 71043 11556 80000 11183 21228 39893 49988 53015 69901 77177 885// 333 11181 21278 48033 79999 90983
AAXX 29184 71045 16/// /0303 11124 21137 39090 49953 52030 60001 333 11090 21157 70015 555 10020
AAXX 29184 71050 46/// /0403 11061 21086 39015 40094 51023 6///1 333 10010 21110 7////
AAXX 29184 71051 NIL
AAXX 29184 71052 NIL
AAXX 29184 71066 11424 83410 11146 21184 39543 49966 53021 69981 77172 885// 333 11075 21146 48023 70008 90942 93102
AAXX 29184 71068 12874 72613 11008 21039 39275 49964 52029 60001 87070 333 11008 21114 79999
AAXX 29184 71069 17764 33203 11056 21062 39272 49977 53027 69951 7//44 333 11056 21095 70005
AAXX 29184 71076 16/// /0706 11125 21138 39579 49976 51003 60001 333 11125 21223 70000
AAXX 29184 71077 16/// /1803 11050 21059 39438 49977 53007 60001 333 11050 21113 70000
AAXX 29184 71079 11474 80000 11116 21128 39755 40040 58002 69901 77182 885// 333 11115 21137 48008 70002 90983
AAXX 29184 71081 46964 01507 11207 21245 30148 40160 58004 6///1 333 11205 21371 7////
AAXX 29184 71082 NIL
AAXX 29184 71083 NIL
AAXX 29184 71090 46464 32603 11332 21382 30151 40188 50001 6///1 333 11278 21343 7////
AAXX 29184 71091 460// /0714 11259 39966 40186 58004 6///1 333 7////
AAXX 29184 71092 46864 30703 11291 39486 40188 58009 6///1 333 11288 21304 7////
AAXX 29184 71093 460// ///// 11235 39653 40171 58002 6///1 333 11234 21256 7////
AAXX 29184 71094 46064 /3320 11229 39177 40108 58014 6///1 333 11226 21255 7////
AAXX 29184 71095 46964 01805 11316 21360 30112 40197 58006 6///1 333 11295 21348 7////
AAXX 29184 71101 160// /2005 30059 50000 60001 333 70010
AAXX 29184 71104 12574 70000 11048 21077 38991 40102 52023 60001 81571 333 10030 21079 70000
AAXX 29184 71108 11580 81907 10066 20022 30103 40175 51019 60001 71411 8754/ 333 10088 20050 70155
AAXX 29184 71109 12580 81503 10037 20003 30099 40126 57005 60001 8657/ 333 10060 20024 70214
AAXX 29184 96413 11557 71903 10240 20237 30079 40106 60081 76166 8442/ 333 84620 87464
AAXX 29181 01160 46/// /0505 10005 21062 39839 49856 53011 333 10010 91111
AAXX 29181 01281 16/// ///// 11038 21048 39668 49844 53018 60012 333 11019
AAXX 29181 01447 16/// /0000 11004 21024 39206 49869 53009 60002 333 10014 91107
AAXX 29184 06030 02675 42614 10045 21009 39924 49940 51006 69932 81531 333 10062 20044 6///7 81638 84366 91146 91231
AAXX 29184 06060 01665 22509 10025 20005 39907 49972 58013 60012 70286 81570 333 10059 20021 69967 81635 91146 91226
AAXX 29184 06070 05773 12510 10026 20000 39943 49973 57004 69952 333 10062 20025 6///7 81/50 91135 91220
AAXX 29184 06120 36784 52211 10025 20015 39970 49996 57015 333 10060 20024 81/56 85/69 91022 91137 91222
AAXX 29184 06180 01475 32420 10040 20015 39985 49991 57009 69912 72581 82862 333 10068 20040 69907 81812 91137
AAXX 29184 06193 07463 52428 10045 20031 39989 40001 57009 69922 70085 333 10058 20043 55300 20000 69917 81/12 83/42 85/57 91146
AAXX 29184 06011 05984 72805 11007 21053 39959 40029 52027 6///2 333 10001 21034 55300 20000 6///7 81/62 85/64 87/70
AAXX 29184 71201 16/// ///// 10072 20036 60001 333 10085 20061 70122
AAXX 29184 71202 17/// ///// 10016 20005 60011 7//4/ 333 10016 7////
AAXX 29184 71203 15866 11307 10085 21039 39610 40126 51035 60001 333 10092 20019 70016
AAXX 29184 71209 46/// /2208 10072 6///1 333 10111 20062 7////
AAXX 29184 71211 46/// /2112 10067 20046 30147 40159 51027 6///1 333 10098 20064 7////
AAXX 29184 71212 NIL
AAXX 29184 71213 46/// /1402 11219 21257 39840 40159 58011 6///1 333 11217 21308 7////
AAXX 29184 71214 NIL
AAXX 29184 71215 46/// /0701 10060 21004 39785 40126 51036 6///1 333 10095 20009 7////
AAXX 29184 71216 16/// /0402 10035 20012 39488 40101 52033 60001 333 10068 20024 70041
AAXX 29184 71217 NIL
AAXX 29184 71218 16/// /0104 10046 21001 39679 40105 53036 60001 333 10105 20014 70006
AAXX 29184 71219 46/// /1312 10039 20006 30071 40077 53010 6///1 333 10069 20027 7////
AAXX 29184 71220 46/// /1710 10031 21021 6///1 333 10044 20010 7////
AAXX 29184 71221 NIL
AAXX 29184 71222 17/// /2503 11070 21082 39041 40011 51042 69971 7//4/ 333 11059 21137 70013
AAXX 29184 71223 NIL
AAXX 29184 71224 NIL
AAXX 29184 71225 NIL
AAXX 29184 71226 NIL
AAXX 29184 71227 NIL
AAXX 29184 71228 NIL
AAXX 29184 71229 NIL
AAXX 29184 71230 16/// /2518 10003 21077 39119 40008 51040 60001 333 10006 21083 70000
AAXX 29184 71231 16/// /3128 10060 21008 60001 333 10080 20034 70000
AAXX 29184 71232 16/// /2510 10043 21109 38527 49996 51052 60001 333 10051 20018 70000
AAXX 29184 71233 17/// /2906 10015 21024 60011 7//4/ 333 10051 21045 70012
AAXX 29184 71234 16/// /2908 10060 21088 38848 40010 53059 60001 333 10091 20044 70000
AAXX 29184 71235 16/// /3409 10021 21023 60001 333 10050 21006 70000
AAXX 29184 71236 46/// /2814 10040 21066 6///1 333 10044 20003 7////
AAXX 29184 71237 46/// /3311 10041 20004 39184 49989 51073 6///1 333 10041 21022 7////
AAXX 29184 71238 17/// /2903 10007 20003 60061 7//4/ 333 10007 21073 70061 555 10380
AAXX 29184 71239 16/// /1103 11083 21092 39571 40043 58014 60001 333 11082 21167 70000 555 10010
AAXX 29184 71240 17/// ///// 11004 21013 39120 49962 53040 60021 7//4/ 333 10025 21097 70020
AAXX 29184 71241 NIL
AAXX 29184 71242 16/// /3110 10020 21011 60001 333 10030 21094 70000 555 10030
AAXX 29184 71243 NIL
AAXX 29184 71244 NIL
AAXX 29184 71245 46/// /2327 11058 21116 6///1 333 11036 7////
AAXX 29184 71246 NIL
AAXX 29184 71247 15766 83028 10067 21010 39122 49956 53045 60001 333 10090 20022 70015
AAXX 29184 71248 16/// /2402 10017 21021 38721 40010 51040 60001 333 10043 21060 70006
AAXX 29184 71249 NIL
AAXX 29184 71150 46/// /1202 11111 21121 39333 40025 58016 6///1 333 11111 21194 7////
AAXX 29184 71151 NIL
AAXX 29184 71152 17/// /2431 11001 21045 39851 49864 52018 60021 7//4/ 333 10062 21001 70144
AAXX 29184 71153 NIL
AAXX 29184 71154 17/// /2319 10040 21071 69981 7//4/ 333 10043 20008 70030
AAXX 29184 71155 NIL
AAXX 29184 71156 NIL
AAXX 29184 71157 46/// ///// 10025 20022 6///1 333 10025 21055 7////
AAXX 29184 71158 NIL
AAXX 29184 71159 NIL
AAXX 29184 71160 NIL
AAXX 29184 71161 16/// /3302 11132 21215 39998 40153 58014 60001 333 11129 21222 70000
AAXX 29184 71162 NIL
AAXX 29184 71163 46/// /0902 11223 21243 39661 40018 52004 6///1 333 11223 21323 7////
AAXX 29184 71164 NIL
AAXX 29184 71165 NIL
AAXX 29184 71166 NIL
AAXX 29184 71167 15966 02504 10002 21041 38924 40018 51033 69951 333 10008 21096 70010
AAXX 29184 71168 16/// /1504 10043 21002 39461 40035 58015 60001 333 10047 21016 70000
AAXX 29184 71170 NIL
AAXX 29184 71171 16/// /1305 11005 21050 30006 40105 56036 60001 333 11002 21088 70000
AAXX 29184 71172 16/// ///// 11083 21117 39893 40117 58021 60001 333 11083 21196 70000
AAXX 29184 71175 NIL
AAXX 29184 71176 460// /3314 11160 39348 40046 56016 6///1 333 11145 21262 7////
AAXX 29184 71177 460// ///// 11088 38850 49842 58035 6///1 333 11084 21205 7////
AAXX 29184 71178 16/// /2235 10044 21005 39813 49844 57008 60001 333 10055 21001 70000
AAXX 29184 71179 460// ///// 11034 38898 49691 56053 6///1 333 11019 21147 7////
AAXX 29184 71180 16/// /2425 11030 21059 39833 49871 51017 60001 333 10064 21034 70183
AAXX 29184 71181 17562 82424 10024 21020 39842 49878 53011 60001 745// 333 10059 21018 70035
AAXX 29184 71183 16/// /2611 30101 56005 60001 333 70007
AAXX 29184 71184 46/// /2517 11145 21191 6///1 333 11139 21173 7////
AAXX 29184 71186 NIL
AAXX 29184 71187 15666 62910 10080 20023 30114 40162 51029 60001 333 10123 20065 70000
AAXX 29184 71189 NIL
AAXX 29184 71190 NIL
AAXX 29184 71191 16/// ///// 11045 21131 60001 333 10001 21082 70113
AAXX 29184 71192 15966 01802 11071 21072 39439 40105 52026 60001 333 10009 21097 70000
AAXX 29184 71193 17/// /1405 11183 21245 39759 40145 56017 69931 7//4/ 333 11183 21350 70003
AAXX 29184 71196 NIL
AAXX 29184 71197 17428 62631 11033 21058 39819 49867 53013 60001 745// 333 10057 21034 70195
AAXX 29184 71198 46/// /2320 11132 21186 6///1 333 11120 21168 7////
AAXX 29184 71199 NIL
AAXX 29184 16021 12562 82907 11042 21073 37956 48482 58004 60002 886// 333 11016 47011 88730 92802 93197
AAXX 29184 71744 NIL
AAXX 29184 71750 17/// /0706 11077 21097 39815 40054 58019 60011 7//4/ 333 11077 21176 70014 555 10030
AAXX 29184 71751 NIL
AAXX 29184 71752 NIL
AAXX 29184 71753 16/// /2423 11032 21091 39899 49928 53003 60001 333 10030 21048 70128 555 10020
AAXX 29184 71754 16/// /1109 11039 21049 39307 49968 53015 60001 333 11039 21099 70000
AAXX 29184 71755 43/// /2002 11146 21185 39720 40077 58004 6///1 333 11146 21242 7////
AAXX 29184 71756 16/// /0000 10000 21009 39039 40129 53012 60001 333 10048 21005 70095
AAXX 29184 71758 NIL
AAXX 29184 71760 NIL
AAXX 29184 71761 NIL
AAXX 29184 71762 NIL
AAXX 29184 71763 NIL
AAXX 29184 71765 16/// /2014 10061 20017 39843 40115 51027 60001 333 10084 20054 70083
AAXX 29184 71766 16/// /1503 10021 20013 30085 40156 51015 60001 333 10095 20013 70074
AAXX 29184 71767 16/// /1007 11047 21059 39829 40096 58028 60001 333 11047 21185 70000
AAXX 29184 71768 46/// /0504 10088 21036 39580 40121 51033 6///1 333 10093 20041 7////
AAXX 29184 71769 16/// /1902 10059 20033 30135 40151 51015 60001 333 10100 20055 70070
AAXX 29184 71770 NIL
AAXX 29184 71771 NIL
AAXX 29184 71772 16/// /1908 10060 20020 30150 40156 53019 60001 333 10102 20058 70044
AAXX 29184 71773 16/// /1902 11082 21105 39072 49925 53029 60001 333 11079 21133 70006 555 10030
AAXX 29184 71774 46/// ///// 10042 6///1 333 10067 20024 7////
AAXX 29184 71775 NIL
AAXX 29184 71776 46/// /2504 10031 20024 39476 40117 51035 6///1 333 10035 20019 7////
AAXX 29184 71777 NIL
AAXX 29184 71778 46/// /1809 6///1 333 7////
AAXX 29184 71779 16/// /1802 11075 21080 39436 40103 51027 60001 333 10011 21105 70000
AAXX 29184 71780 17/// /3402 10066 20038 30151 40178 51012 69921 7//4/ 333 10088 20064 70228
AAXX 29184 71781 46/// /2104 10064 20017 30125 40150 51011 6///1 333 10104 20060 7////
AAXX 29184 71782 46/// /2402 10031 21023 38747 40057 51043 6///1 333 10039 20013 7////
AAXX 29184 71783 NIL
AAXX 29184 71784 16/// /0401 10055 20042 39959 40164 51025 60001 333 10068 20040 70097
AAXX 29184 71785 16/// /1504 10077 20030 30165 40181 51022 60001 333 10099 20074 70080
AAXX 29184 71786 46/// /2611 11025 21034 38254 40071 51036 6///1 333 11012 21028 7////
AAXX 29184 71787 17/// /2720 11089 21130 39432 49920 53007 69981 7//4/ 333 11044 21123 70034
AAXX 29184 71788 NIL
AAXX 29184 71789 NIL
AAXX 29184 71791 NIL
AAXX 29184 71792 NIL
AAXX 29184 71793 NIL
AAXX 29184 71794 NIL
AAXX 29184 71795 NIL
AAXX 29184 71796 NIL
AAXX 29184 71797 NIL
AAXX 29184 71950 15866 81604 11005 21055 39427 40056 53026 60001 333 10034 21039 70008
AAXX 29184 71952 16/// /0000 11090 21103 39213 40070 53024 60001 333 11001 21097 70000 555 10010
AAXX 29184 71954 NIL
AAXX 29184 71956 NIL
AAXX 29184 71959 NIL
AAXX 29184 71960 460// /0722 11268 39905 40042 53005 6///1 333 11249 21275 7////
AAXX 29184 71962 16/// /2904 11063 21086 39622 40048 56001 60001 333 11059 21082 70014 555 10040
AAXX 29184 71963 NIL
AAXX 29184 71967 16/// /2418 11149 21186 30023 40133 54000 60001 333 11142 21179 70003 555 10020
AAXX 29184 71970 NIL
AAXX 29184 71971 NIL
AAXX 29184 71972 460// ///// 11193 39643 40121 56030 6///1 333 11173 21202 7////
AAXX 29184 71973 46/// /2222 11030 21062 39628 49810 53004 6///1 333 10061 21031 7////
AAXX 29184 71974 NIL
AAXX 29184 71975 460// /3403 11238 39385 40145 56016 6///1 333 11238 21263 7////
AAXX 29184 71976 NIL
AAXX 29184 71977 NIL
AAXX 29184 71978 NIL
AAXX 29184 71979 NIL
AAXX 29184 71980 46/// /0000 11247 21276 6///1 333 11225 21303 7////
AAXX 29184 71981 NIL
AAXX 29184 71982 NIL
AAXX 29184 71983 NIL
AAXX 29184 71984 16/// /2903 11305 21336 30070 40079 50004 60001 333 11305 21329 70000
AAXX 29184 71985 NIL
AAXX 29184 71986 NIL
AAXX 29184 71987 16/// /2638 11077 21110 39864 49873 53012 60001 333 10018 21081 70065
AAXX 29184 71988 16/// /2734 11012 21066 30000 40020 53014 60001 333 11007 21040 70000
AAXX 29184 71989 NIL
AAXX 29184 71990 NIL
AAXX 29184 71999 46/// ///// 10053 6///1 333 10094 20028 7////
AAXX 29184 08055 12960 23604 10014 21038 39286 48620 53009 60002 80002 333 10074 95090
AAXX 29184 08075 12470 40204 10024 20001 39301 48615 53003 69902 84570 333 10060
AAXX 29184 08084 01565 73004 10070 20017 39922 40368 56004 69942 72062 87700 333 10091 69907
AAXX 29184 08171 NIL
AAXX 29184 08184 02575 40000 10074 21025 30123 40282 53015 60002 81106 333 10145 60007
AAXX 29184 08202 02965 30407 10028 21018 39423 42944 53010 60002 80001 333 10081 60007
AAXX 29184 08235 NIL
AAXX 29184 08238 12665 63408 10112 20006 30222 40285 52016 60002 81145 333 10147
AAXX 29184 08280 12965 23208 10066 21011 39482 40324 52024 60002 82030 333 10112
AAXX 29184 08330 12975 13307 10097 20001 30093 40329 57002 60002 80008 333 10150
AAXX 29184 08348 12965 60104 10074 21001 39589 40345 52019 60002 80002 333 10103
AAXX 29184 08360 02670 20000 10119 20036 30264 40302 53018 60002 82400 333 10162 60007
AAXX 29184 08373 02665 73503 10118 20083 30273 40295 53021 60002 87500 333 10158 60007
AAXX 29184 08410 02980 10305 10108 20029 30210 40323 53024 60002 80005 333 10159 60007
AAXX 29184 08419 02980 00405 10086 21009 39626 40308 53016 60002 333 10141 60007
AAXX 29184 08451 02980 00211 10130 20048 30274 40308 53017 60002 333 10185 60007
AAXX 29184 08487 02470 30401 10123 20080 30265 40291 53006 60002 81501 333 10165 60007
AAXX 29184 65306 32960 50000 10293 20100 39790 40116 80002 333 10335 58004 85076
AAXX 29184 65319 32960 50000 10290 20074 39603 40116 80002 333 10348 58008 85076
AAXX 29184 65330 31920 70204 10300 20115 39668 40106 70522 80008 333 10352 58006 87276
AAXX 29184 65335 32958 50000 10311 20139 39880 40102 80002 333 10360 58000 85076
AAXX 29184 65344 32458 72008 10288 20256 30094 40105 83572 333 10317 58005 83612 84362 85076
AAXX 29184 71114 160// /2910 10082 20018 30115 40163 51028 60011 333 10130 20065 70365
AAXX 29184 71120 11159 82002 11056 21072 39322 49977 52025 60001 71011 886// 333 11045 21071 79999
AAXX 29184 71122 16/// /2408 10009 21064 38450 40033 51043 60001 333 21001 7////
AAXX 29184 71123 11574 72806 10015 20004 39135 49995 51036 60021 70176 82572 333 10019 21085 44006 70015 90926
AAXX 29184 71125 12266 81106 11054 21060 39384 49967 53003 60001 886// 333 70000
AAXX 29184 71129 11558 80305 11014 21022 39121 49949 53025 60121 76672 885// 333 10043 21111 40997 70124 90952
AAXX 29184 71131 16/// /2524 10018 21011 38709 49941 51007 60001 333 10030 21030 70000
AAXX 29184 71135 16/// /2616 10029 21015 38880 49944 58008 60001 333 10029 21022 70000
AAXX 29184 71137 16/// /2513 10034 21008 39019 49945 53006 60001 333 10039 21042 70000
AAXX 29184 71140 11158 80805 11102 21104 39529 40036 5/012 60001 71041 8867/ 333 11059 21167 70000
AAXX 29184 71145 11469 81503 11127 21147 39756 40058 58004 69941 77177 885// 333 11126 21189 48036 70006 90983
AAXX 29184 71148 16/// /1201 11091 21099 39456 40045 58013 60001 333 11081 21157 70000
AAXX 29184 71185 17459 62227 11006 39747 49770 55002 60001 745// 333 10069 21010 70005
AAXX 29184 71188 11462 72713 11094 21142 39765 49807 53023 69981 77173 87500 333 10022 21098 43009 70148 90983 93101
AAXX 29184 71200 17/// /1807 10065 20035 69941 7//4/ 333 10086 20058 70092
AAXX 29184 71207 16/// /1509 10061 20041 30088 40152 51025 60001 333 10097 20029 70363
AAXX 29184 71260 13/// ///// 11074 21094 39826 40067 58022 69921 333 11073 21158 47001 70002
AAXX 29184 71864 NIL
AAXX 29184 71865 16/// /1310 11040 21061 39298 49975 56011 60001 333 11038 21082 70000
AAXX 29184 71866 46261 81110 11026 21040 39352 49963 50002 6///1 333 11026 21073 7////
AAXX 29184 71867 12574 70907 11121 21132 39688 40027 58003 60001 87500 333 11084 21194 79999
AAXX 29184 71868 16/// /0402 11074 21141 39566 40011 58010 60001 333 11061 21116 70000
AAXX 29184 71869 12374 80908 11057 21071 39464 49990 55000 60001 87501 333 11047 21117 70000
AAXX 29184 71871 17140 82204 11053 21057 39171 49976 53031 60001 710// 333 11052 21076 70000
AAXX 29184 71877 12986 73213 10031 20027 38767 40027 51062 60001 85071 333 10069 21037 70000
AAXX 29184 71878 11574 73210 10011 21016 38946 40011 51045 69901 70282 81571 333 10039 21093 48008 79999 90930
AAXX 29184 71879 17764 32807 10027 20010 39192 49988 51037 60021 7//44 333 10027 21064 70020
AAXX 29184 71880 12682 22603 10061 21032 38988 40079 53040 60001 81570 333 10063 20011 70040
AAXX 29184 71882 160// /0000 10016 20014 39568 40106 51032 69951 333 10038 20008 70085
AAXX 29184 71883 46/// /1603 11002 21005 39282 40100 51034 6///1 333 10038 21010 7////
AAXX 29184 71887 12786 20000 10036 21022 39692 40111 51032 60001 81171 333 10224 21015 79999
AAXX 29184 71889 12874 51808 10068 21004 39712 40126 51040 60001 82071 333 10105 20051 70000
AAXX 29184 71891 16764 32016 10062 20023 39845 40118 51026 60001 333 10085 20056 70100
AAXX 29184 71892 12374 81802 10068 20018 30165 40170 52020 60001 83571 333 10104 20051 70080
AAXX 29184 61401 NIL
AAXX 29184 61404 32960 30814 10196 21008 39835 40239 81032 333 10210 58011 81363
AAXX 29184 61415 32958 20312 10220 20078 30217 40222 80002 333 10238 58018 82080
AAXX 29184 61421 33958 60812 10212 21050 39861 40122 80002 333 10230 59012 86080
AAXX 29184 61437 31956 30406 10230 20104 30076 40217 70500 80002 333 10244 58023 83073
AAXX 29184 61442 31930 60813 10243 21092 30185 40189 70722 80002 333 10252 58017 86080
AAXX 29184 61450 31930 00818 10200 21033 39734 40202 70700 333 10240 58010
AAXX 29184 61461 31940 40806 10250 21060 30098 40186 70600 80002 333 10260 58021 84073
AAXX 29184 61489 31956 50406 10275 21050 30160 40167 70622 80002 333 10285 58012 85073
AAXX 29184 61492 31940 30808 10265 21045 30172 40192 7060/ 80002 333 10275 58022 83073
AAXX 29184 61497 34940 00816 10207 21034 39935 4//// 706// 333 10233 58013
AAXX 29184 61498 31940 30406 10236 20104 30030 40165 705// 83030 333 10254 58012 83363
AAXX 29184 61499 31920 00414 10217 21030 39923 40184 70711 333 10230 58023
AAXX 29184 71930 13774 22805 10013 21035 39072 40002 52032 60043 82501 333 10013 21086 43015 70038 90999
AAXX 29184 71931 NIL
AAXX 29184 71934 12674 70000 11197 21235 39722 49986 52007 60001 86570 333 11188 21230 79999
AAXX 29184 71935 11374 70000 11206 21244 39789 40006 50004 69901 70277 82670 333 11206 21288 47026 79999 90921
AAXX 29184 71936 11474 80603 11162 21187 39745 40011 50004 69901 77177 885// 333 11162 21217 48026 79999 90983
AAXX 29184 71937 NIL
AAXX 29184 71938 11661 70405 11336 21369 30102 40134 51006 69901 77677 86530 333 11336 21378 44026 79999 90983
AAXX 29184 71940 12782 32520 10006 21060 39207 40012 52040 60001 81541 333 10021 21108 70000
AAXX 29184 71943 11974 22315 11002 21062 39150 49981 52032 60001 73611 82070 333 10006 21040 70000
AAXX 29184 71944 160// ///// 11014 53033 60001 333 10027 21046 70005
AAXX 29184 71945 11474 82105 11162 21213 39513 49993 50019 69941 70272 865// 333 11156 21206 47013 70004 90922
AAXX 29184 71946 11758 80000 11206 21237 39779 40000 50002 60021 77177 8857/ 333 11206 21280 48046 70016 90973 93102
AAXX 29184 71948 47004 /0830 11280 39975 40093 51008 6///1 745// 333 11280 21299 7////
AAXX 29184 71949 46/// /1704 11163 21177 39054 49928 53025 6///1 333 11108 21174 7////
AAXX 29184 71951 11469 71917 10004 21006 39814 40081 52022 69941 70282 85570 333 10026 21013 43037 70112 90937
AAXX 29184 71957 47532 80807 11180 21247 39914 40004 53003 6///1 745// 333 11180 21304 7////
AAXX 29184 71964 11880 61712 11077 21115 39076 49928 53031 69901 70172 86070 333 11065 21153 47020 70032 90931
AAXX 29184 71966 16/// /0000 11207 21232 39480 49950 53027 60001 333 11205 21266 70000
AAXX 29184 71968 470// /0706 11209 39942 40009 54000 6///1 745// 333 11207 21330 7////
AAXX 29184 71397 11574 72628 11028 21089 39930 49964 53004 69901 70288 87500 333 10005 21057 45997 79999 90923
AAXX 29184 71400 17/64 /2212 10013 21034 69971 7//4/ 333 10042 21007 70014
AAXX 29184 71403 46/// /2435 10001 21038 39912 49932 53001 6///1 333 10051 21012 7////
AAXX 29184 71411 NIL
AAXX 29184 71412 16/// /2619 11065 21089 39884 49893 53007 60001 333 10050 21065 70137
AAXX 29184 71421 NIL
AAXX 29184 71430 16/// /0806 11068 21122 30046 40146 56024 60001 333 11065 21171 70000
AAXX 29184 71431 16/// /1007 11070 21119 30035 40134 56025 60001 333 11068 21159 70000 555 10010
AAXX 29184 71432 NIL
AAXX 29184 71433 NIL
AAXX 29184 71435 NIL
AAXX 29184 71441 NIL
AAXX 29184 71443 NIL
AAXX 29184 71444 NIL
AAXX 29184 71447 16/// /1609 11046 21066 39472 40018 58012 60001 333 11044 21114 70000
AAXX 29184 71467 16/// /1119 11283 21310 30012 40132 53003 60001 333 11273 21316 70000
AAXX 29184 71472 NIL
AAXX 29184 71474 16964 01904 10008 21082 38866 40094 51022 60001 333 10037 21039 70005
AAXX 29184 71510 NIL
AAXX 29184 71538 11316 81709 10009 21001 39823 40055 58043 60021 77122 887// 333 10009 21057 41997 70016 90952
AAXX 29184 71600 17656 82536 10047 21024 39973 49979 53006 60031 74344 333 10070 20046 70080
AAXX 29184 71601 NIL
AAXX 29184 71726 17/// /2807 11200 21243 39547 40116 55000 60021 7//4/ 333 11198 21268 70023
AAXX 29184 71727 11624 83023 11167 21192 39822 40025 53009 69901 73877 84530 333 11149 21189 48041 70048 90963
AAXX 29184 71728 11982 83217 11131 21200 39813 40040 55000 69901 70381 8801/ 333 11131 21185 48997 70020 90920
AAXX 29184 71730 12574 41006 11176 21228 39696 40143 58017 60001 81630 333 11174 21243 70000
AAXX 29184 71731 12974 21006 11162 21220 39672 40147 58010 60001 82071 333 10162 21271 70000
AAXX 29184 71735 NIL
AAXX 29184 71738 11859 80404 11114 21145 39719 40084 58017 69901 77177 8802/ 333 11112 21210 47018 79999 90973
AAXX 29184 71739 42974 11105 11175 21257 39759 40144 56016 6//// 80001 333 11173 21339 4//// 7////
AAXX 29184 71749 16458 83402 11041 21052 39776 40023 58009 60021 333 11040 21154 70050
AAXX 29184 71799 12683 82510 10075 20014 30146 40170 51010 60001 82571 333 10101 20048 70080
AAXX 29184 71800 16/// /2225 10045 20020 39908 49940 53007 60001 333 10055 20016 70007
AAXX 29184 71801 12572 62330 10042 21007 39732 49901 53004 60001 86500 333 10053 20003 41001 70018
AAXX 29184 71803 11380 62222 10019 21016 39642 49824 56010 69941 72686 86500 333 10039 21010 41004 70016 90916
AAXX 29184 71807 NIL
AAXX 29184 71808 11574 62226 10001 21006 39701 49746 55006 69901 70275 86500 333 10022 21007 48028 70016 90921
AAXX 29184 71809 11459 82325 11011 21052 39782 49809 53008 69901 78588 885// 333 10060 21012 41997 70012 90973
AAXX 29184 71810 16/// /2724 11075 21088 39690 49755 53015 60001 333 10015 21078 70126
AAXX 29184 71811 NIL
AAXX 29184 71813 17/// /2319 11046 21056 39703 49716 53005 69981 7//4/ 333 10027 21046 70540
AAXX 29184 71814 17/// /2124 11027 21034 39721 49730 58004 69941 7//4/ 333 10032 21027 70144
AAXX 29184 71815 11448 82328 11033 21050 39811 49841 53023 69941 78522 885// 333 10071 21034 41997 70010 90956
AAXX 29184 71816 11228 80412 10000 21009 39623 49682 56033 60111 77177 887// 333 10000 21122 44086 70284 90983 93110
AAXX 29184 71817 11574 72215 10014 21018 39714 49727 55005 69941 70265 87500 333 42010 70010 90949
AAXX 29184 71818 11269 80000 10007 20002 39670 49687 56039 60031 70276 885// 333 10025 21045 44018 70050 90926
AAXX 29184 71822 12974 53010 11214 21255 39596 40095 53002 60001 80008 333 11210 21264 70002
AAXX 29184 71825 11/16 93516 11147 21171 39180 49856 53002 60061 77177 333 11141 21187 48120 70176 90983
AAXX 29184 71827 12974 13102 11237 21271 39895 40155 52002 60001 80001 333 11236 21305 70000
AAXX 29184 71828 17308 93421 11183 21220 39267 49919 56011 60031 74544 333 11177 21218 70100
AAXX 29184 71831 12974 00803 11201 21250 39846 40145 58016 60001 333 11200 21347 48042 79999
AAXX 29184 71832 NIL
AAXX 29184 71834 11462 80810 11125 21157 39643 40086 57014 69921 77177 885// 333 11125 21221 48026 70004 90983
AAXX 29184 71841 NIL
AAXX 29184 71842 11474 83402 11101 21114 39576 40054 58007 69901 77177 885// 333 11101 21151 47006 70010 90983
AAXX 29184 71844 NIL
AAXX 29184 71845 11574 61102 11131 21153 39590 40078 58003 69901 77177 83501 333 11131 21218 44021 70010 90973
AAXX 29184 71850 11574 81903 11079 21097 39552 40059 50001 69901 77177 885// 333 11078 21123 48014 70008 90973
AAXX 29184 71852 16258 81806 11071 21076 39758 40056 56009 60001 333 11066 21124 70000
AAXX 29184 71854 11562 81302 11102 21125 39578 40061 58003 69901 77177 885// 333 11102 21169 48017 70026 90993
AAXX 29184 71858 NIL
AAXX 29184 71861 NIL
AAXX 29184 71862 11362 81209 11018 21029 39286 49984 58020 69901 77177 886// 333 11018 21050 47003 70050 90973
AAXX 29184 71863 46248 81416 11009 21022 39260 49952 58022 6///1 333 11009 21070 7////
AAXX 29184 71603 12574 52722 11012 21084 39978 40031 53013 60001 85500 333 11001 21028 70002
AAXX 29184 71607 16/// /2617 11044 21173 39960 49993 53005 60001 333 11040 21095 70003
AAXX 29184 71609 12674 12718 11047 21147 39834 49968 53008 60001 81500 333 11042 21091 79999
AAXX 29184 71610 15966 02612 11128 21191 39802 40108 55000 60001 333 11128 21176 70000
AAXX 29184 71621 12574 61105 11087 21162 30041 40151 57024 60001 81631 333 11087 21169 41997 79999
AAXX 29184 71623 NIL
AAXX 29184 71624 11432 81208 11039 21058 39903 40120 56029 69941 78522 885// 333 11033 21124 70004 90931
AAXX 29184 71625 16964 00000 11177 21236 39994 40163 58014 60001 333 11173 21251 70000
AAXX 29184 71627 12683 22515 11155 21226 30099 40146 58005 60001 81501 333 11152 21185 70028
AAXX 29184 71628 13960 12407 11169 21220 30012 40160 58008 60001 81071 333 11168 21208 70004
AAXX 29184 71630 NIL
AAXX 29184 71631 17/// /1504 11056 21067 39584 40094 58028 60011 7//4/ 333 11056 21135 70039
AAXX 29184 71633 11459 81109 11047 21064 39822 40100 58024 69941 77172 885// 333 11046 21184 43013 70004 90931
AAXX 29184 71705 12574 42626 11068 21146 39833 49920 53006 60001 84800 333 11005 21096 70034
AAXX 29184 71706 11674 72520 11076 21128 39847 49907 53004 69901 78582 87500 333 10031 21082 42001 70090 90957
AAXX 29184 71707 11674 72425 11016 21080 39808 49883 55004 69901 78522 87500 333 10066 21019 45997 70246 90962
AAXX 29184 71709 11448 82530 11073 21107 39848 49861 53010 60011 78522 885// 333 10039 21078 46997 70210 90962 93101
AAXX 29184 71711 NIL
AAXX 29184 71714 16/// /2517 11154 21223 39999 40094 53007 60001 333 11130 21183 70003
AAXX 29184 71715 16/// /3207 11125 21168 39796 49981 53014 60001 333 11113 21143 70045 555 10030
AAXX 29184 71718 11516 82723 11134 21149 39871 49937 52017 60021 77177 885// 333 11079 21134 48002 70100 90983 93102
AAXX 29184 71719 NIL
AAXX 29181 26106 11/97 61905 10045 20020 49976 57002 69922 78082 86300 333 10055 91117
AAXX 29181 26313 12/// 82208 10056 20007 49918 57012 69932 889// 333 10064 91015 91116
AAXX 29181 26346 11497 82005 10027 20022 49976 57009 60022 76162 8872/ 333 10031 87712 91111
AAXX 29181 26406 12597 62211 10056 20016 49972 57007 69932 86500 333 10063 86628 91021 91119
AAXX 29181 26416 33/// /2307 10037 20010 49971 57009 333 10052 91013 91116
AAXX 29181 26424 11497 82407 10038 20018 49980 57004 60032 78088 889// 333 10051 86915 91013 91114
AAXX 29181 26544 11497 82205 10039 20015 40026 57011 69952 70282 883// 333 10039 91110
AAXX 29181 12120 11570 62412 10049 20016 30021 40028 57009 69902 70381 865// 333 10065 20049 91017 91120 93097
AAXX 29181 12250 11579 32304 10027 20015 30010 40100 58003 69932 72511 81530 333 10060 20027 91111 93093
AAXX 29181 12295 12564 82304 10041 20018 39912 40097 57010 60002 885// 333 10042 20033 91110 93000
AAXX 29181 12330 11875 32204 10029 20005 30007 40117 58009 69902 70381 83530 333 10065 20026 91115 93097
AAXX 29181 12375 12765 72204 10049 20008 39991 40123 57008 69902 875// 333 10057 20040 91109 93000
AAXX 29181 12424 12799 72305 10052 21017 30001 40155 57008 69902 875// 333 10074 20044 91113 93000
AAXX 29181 12160 11480 62005 10039 20009 30010 40063 58004 69942 70382 86200 333 10057 20036 91111 93093
AAXX 29181 12205 11669 72209 10054 20011 30061 40069 58024 69902 70181 8257/ 333 10071 20045 91115 93097
AAXX 29181 12465 12772 72305 10038 21004 39901 40137 57006 69932 875// 333 10050 20025 93000
AAXX 29181 12566 11958 62205 10027 20006 39879 40179 57004 69902 71022 83032 333 10037 21007 93000
AAXX 29181 13168 32697 83202 10011 20001 30108 40218 51005 885// 333 10011
AAXX 29181 13174 11695 82301 10016 20006 30111 40215 56004 69912 72162 885// 333 10034
AAXX 29181 13269 31596 82302 11004 21022 30005 40228 58001 71022 886// 333 11003
AAXX 29181 13274 11394 82602 11001 21006 30056 40223 56004 69912 75654 886// 333 11001 93197
AAXX 29181 13278 31696 81101 11005 21029 39995 40230 53002 71022 885// 333 10027
AAXX 29181 13378 31/93 92902 11049 21057 38246 48466 56002 74544 333 10029 4/010
AAXX 29181 13397 32698 51202 11012 21033 39673 40235 55001 85500 333 10005 4/998
AAXX 29181 13457 42770 30000 10034 20012 30193 40201 54002 83500 333 10121 83650
AAXX 29181 13481 NIL
AAXX 29184 71900 46/// /03// 11005 21009 39745 49757 56060 6///1 333 11004 21154 7//// 555 10040
AAXX 29184 71903 NIL
AAXX 29184 71904 NIL
AAXX 29184 71914 16/// /0000 10043 20023 39949 40171 51012 60001 333 10077 20033 70069
AAXX 29184 71916 NIL
AAXX 29184 71918 460// ///// 11319 6///1 333 7////
AAXX 29184 71920 NIL
AAXX 29184 71921 NIL
AAXX 29184 71923 NIL
AAXX 29184 71927 16/// /0000 10035 20014 30117 40175 51018 60001 333 10097 20015 70066
AAXX 29184 71941 15966 02703 11208 21243 39716 40157 58008 60001 333 11207 21285 70000
AAXX 29184 71947 15966 03007 11222 21248 39786 40153 56004 60001 333 11222 21289 70000
AAXX 29184 71726 17/// /2807 11200 21243 39547 40116 55000 60021 7//4/ 333 11198 21268 70023
AAXX 29184 71727 11624 83023 11167 21192 39822 40025 53009 69901 73877 84530 333 11149 21189 48041 70048 90963
AAXX 29184 71728 11982 83217 11131 21200 39813 40040 55000 69901 70381 8801/ 333 11131 21185 48997 70020 90920
AAXX 29184 71730 12574 41006 11176 21228 39696 40143 58017 60001 81630 333 11174 21243 70000
AAXX 29184 71731 12974 21006 11162 21220 39672 40147 58010 60001 82071 333 10162 21271 70000
AAXX 29184 71735 NIL
AAXX 29184 71738 11859 80404 11114 21145 39719 40084 58017 69901 77177 8802/ 333 11112 21210 47018 79999 90973
AAXX 29184 71739 42974 11105 11175 21257 39759 40144 56016 6//// 80001 333 11173 21339 4//// 7////
AAXX 29184 71749 16458 83402 11041 21052 39776 40023 58009 60021 333 11040 21154 70050
AAXX 29184 71799 12683 82510 10075 20014 30146 40170 51010 60001 82571 333 10101 20048 70080
AAXX 29184 71800 16/// /2225 10045 20020 39908 49940 53007 60001 333 10055 20016 70007
AAXX 29184 71801 12572 62330 10042 21007 39732 49901 53004 60001 86500 333 10053 20003 41001 70018
AAXX 29184 71803 11380 62222 10019 21016 39642 49824 56010 69941 72686 86500 333 10039 21010 41004 70016 90916
AAXX 29184 71807 NIL
AAXX 29184 71808 11574 62226 10001 21006 39701 49746 55006 69901 70275 86500 333 10022 21007 48028 70016 90921
AAXX 29184 71809 11459 82325 11011 21052 39782 49809 53008 69901 78588 885// 333 10060 21012 41997 70012 90973
AAXX 29184 71810 16/// /2724 11075 21088 39690 49755 53015 60001 333 10015 21078 70126
AAXX 29184 71811 NIL
AAXX 29184 71813 17/// /2319 11046 21056 39703 49716 53005 69981 7//4/ 333 10027 21046 70540
AAXX 29184 71814 17/// /2124 11027 21034 39721 49730 58004 69941 7//4/ 333 10032 21027 70144
AAXX 29184 71815 11448 82328 11033 21050 39811 49841 53023 69941 78522 885// 333 10071 21034 41997 70010 90956
AAXX 29184 71401 16/// /1607 10041 20004 39449 40130 53039 60001 333 10051 20016 70049
AAXX 29184 71402 NIL
AAXX 29184 71404 NIL
AAXX 29184 71405 NIL
AAXX 29184 71406 NIL
AAXX 29184 71407 NIL
AAXX 29184 71408 NIL
AAXX 29184 71409 NIL
AAXX 29184 71410 17259 81602 11080 21088 39758 40041 50000 60001 710// 333 11080 21132 70000
AAXX 29184 71413 NIL
AAXX 29184 71414 NIL
AAXX 29184 71415 16/// /2512 11042 21066 39906 49909 53003 60001 333 10040 21048 70060
AAXX 29184 71417 NIL
AAXX 29184 71418 NIL
AAXX 29184 71419 46/// /2430 10008 21032 39898 49908 55007 6///1 333 10056 21008 7////
AAXX 29184 71423 NIL
AAXX 29184 71424 46/// /2328 6///1 333 7////
AAXX 29184 71425 17/// /2722 11109 21139 39781 49817 53023 60011 7//4/ 333 11019 21111 70087
AAXX 29184 71426 NIL
AAXX 29184 71427 NIL
AAXX 29184 71428 16/// /2534 11101 21117 39866 49872 53016 60001 333 11053 21104 70050
AAXX 29184 71429 17/// /2616 11101 21113 39793 49812 53021 60011 7//4/ 333 10013 21103 70060
AAXX 29184 71434 NIL
AAXX 29184 71436 15566 80605 11104 21145 39902 40146 58020 60001 333 11104 21195 70000
AAXX 29184 71437 NIL
AAXX 29184 71438 NIL
AAXX 29184 71439 NIL
AAXX 29184 71440 NIL
AAXX 29184 71442 NIL
AAXX 29184 71445 NIL
AAXX 29184 71446 17/// /2614 10031 21010 38954 49913 58005 60021 7//4/ 333 10038 21062 70021
AAXX 29184 71448 16/// /1503 11061 21083 39719 40053 58005 60001 333 11061 21102 70000
AAXX 29184 71449 16/// /1103 11075 21087 39644 40052 50000 60001 333 11058 21138 70000
AAXX 29184 71001 15866 82906 11183 21204 38947 49934 53033 60001 333 11183 21237 70000
AAXX 29184 71002 17/08 /3416 11053 21067 39227 49757 56018 64261 772// 333 11053 21159
AAXX 29184 71003 15966 03406 11213 21257 39695 40095 55001 60001 333 11213 21258 70000
AAXX 29184 71005 NIL
AAXX 29184 71006 NIL
AAXX 29184 71007 NIL
AAXX 29184 71008 NIL
AAXX 29184 71009 NIL
AAXX 29184 71010 NIL
AAXX 29184 71011 NIL
AAXX 29184 71012 NIL
AAXX 29184 71013 NIL
AAXX 29184 71014 NIL
AAXX 29184 71015 NIL
AAXX 29184 71016 NIL
AAXX 29184 71017 NIL
AAXX 29184 71018 NIL
AAXX 29184 71019 NIL
AAXX 29184 71020 NIL
AAXX 29184 71021 NIL
AAXX 29184 71022 17966 81308 10020 21006 30033 40077 52013 69931 7004/ 333 10048 20012 70016
AAXX 29184 71023 16062 82205 11060 21064 39198 49964 51013 60001 333 11050 21089 70000
AAXX 29184 71024 17/// /2301 11092 21104 69971 7//4/ 333 11092 21199 70007 555 10010
AAXX 29184 71026 NIL
AAXX 29184 71027 16/// /0803 11027 21065 39853 49863 53005 60001 333 10065 21027 70370
AAXX 29184 71028 16/// /1510 10011 21047 39059 40090 50012 60001 333 10024 21039 70082
AAXX 29184 71029 NIL
AAXX 29184 71030 16/64 /2614 11038 21149 39907 49997 53013 60001 333 11037 21087 70000 555 10010
AAXX 29184 71032 46/// /2303 10047 21029 39314 40144 51031 6///1 333 10050 21003 7////
AAXX 29184 71033 46/// /1403 11081 21097 39355 49996 50001 6///1 333 11081 21252 7////
AAXX 29184 71035 NIL
AAXX 29184 71036 15966 00702 11095 21110 39651 40032 58015 60001 333 11089 21153 70000
AAXX 29184 71039 46/// /0000 11250 6///1 333 11172 21269 7////
AAXX 29184 71040 46/// /2914 11160 21197 39817 40022 53009 6///1 333 11159 21185 7////
AAXX 29184 71041 15566 82617 11020 21075 39771 49910 53003 60001 333 10049 21029 70356
AAXX 29184 71042 16/// /2801 10052 20028 30156 40160 53005 60001 333 10081 20013 70065
AAXX 29184 71044 16/// /0507 11220 21257 39660 49986 53014 60001 333 11207 21321 70000
AAXX 29184 71046 460// /1014 11214 39998 40016 54000 6///1 333 11213 21325 7////
AAXX 29184 71047 16/// ///// 11058 21065 60001 333 11058 21091 70000
AAXX 29184 71048 NIL
AAXX 29184 71049 NIL
AAXX 29184 71060 NIL
AAXX 29184 71063 NIL
AAXX 29184 71700 15966 02517 11055 21156 39935 49961 53005 60001 333 11047 21099 70028
AAXX 29184 71701 12674 22620 11058 21155 39898 49960 53006 60001 82500 333 11044 21099 70013
AAXX 29184 71702 16/// /2726 11077 21146 39888 49903 53010 60001 333 10011 21083 70076
AAXX 29184 71703 11420 82716 11114 21150 39646 49946 53014 69921 77177 885// 333 11087 21139 48007 70030 90962
AAXX 29184 71704 17356 81713 10005 21002 39838 40061 58041 69931 771// 333 10006 21094 70003
AAXX 29184 71710 16/// /2528 11069 21101 39850 49859 53009 60001 333 10039 21072 70230
AAXX 29184 71712 16/// /2611 11127 21173 30087 40152 56010 60001 333 11127 21178 70012
AAXX 29184 71713 16/// /2233 11146 21185 60001 333 11099 21156 70010
AAXX 29184 71716 NIL
AAXX 29184 71717 NIL
AAXX 29184 71720 16/// /0601 10038 20029 30005 40158 50014 60001 333 10069 20027 70039
AAXX 29184 71721 NIL
AAXX 29184 71723 16/// /2214 11143 21196 30104 40114 55002 60001 333 11126 21165 70011
AAXX 29184 71724 NIL
AAXX 29184 71732 NIL
AAXX 29184 71733 NIL
AAXX 29184 71734 NIL
AAXX 29184 71736 NIL
AAXX 29184 71737 NIL
AAXX 29184 71741 16/// /2401 10036 21018 39690 40107 53033 60001 333 10110 21015 70000
AAXX 29184 71742 NIL
AAXX 29184 71743 NIL
AAXX 29184 71744 NIL
AAXX 29184 71745 NIL
AAXX 29184 71746 NIL
AAXX 29184 71747 NIL
AAXX 29184 71748 NIL
AAXX 29184 71816 11228 80412 10000 21009 39623 49682 56033 60111 77177 887// 333 10000 21122 44086 70284 90983 93110
AAXX 29184 71817 11574 72215 10014 21018 39714 49727 55005 69941 70265 87500 333 42010 70010 90949
AAXX 29184 71818 11269 80000 10007 20002 39670 49687 56039 60031 70276 885// 333 10025 21045 44018 70050 90926
AAXX 29184 71822 12974 53010 11214 21255 39596 40095 53002 60001 80008 333 11210 21264 70002
AAXX 29184 71825 11/16 93516 11147 21171 39180 49856 53002 60061 77177 333 11141 21187 48120 70176 90983
AAXX 29184 71827 12974 13102 11237 21271 39895 40155 52002 60001 80001 333 11236 21305 70000
AAXX 29184 71828 17308 93421 11183 21220 39267 49919 56011 60031 74544 333 11177 21218 70100
AAXX 29184 71831 12974 00803 11201 21250 39846 40145 58016 60001 333 11200 21347 48042 79999
AAXX 29184 71832 NIL
AAXX 29184 71834 11462 80810 11125 21157 39643 40086 57014 69921 77177 885// 333 11125 21221 48026 70004 90983
AAXX 29184 71841 NIL
AAXX 29184 71842 11474 83402 11101 21114 39576 40054 58007 69901 77177 885// 333 11101 21151 47006 70010 90983
AAXX 29184 71844 NIL
AAXX 29184 71845 11574 61102 11131 21153 39590 40078 58003 69901 77177 83501 333 11131 21218 44021 70010 90973
AAXX 29184 71850 11574 81903 11079 21097 39552 40059 50001 69901 77177 885// 333 11078 21123 48014 70008 90973
AAXX 29184 71852 16258 81806 11071 21076 39758 40056 56009 60001 333 11066 21124 70000
AAXX 29184 71854 11562 81302 11102 21125 39578 40061 58003 69901 77177 885// 333 11102 21169 48017 70026 90993
AAXX 29184 71858 NIL
AAXX 29184 71861 NIL
AAXX 29184 71862 11362 81209 11018 21029 39286 49984 58020 69901 77177 886// 333 11018 21050 47003 70050 90973
AAXX 29184 71863 46248 81416 11009 21022 39260 49952 58022 6///1 333 11009 21070 7////
AAXX 29184 71851 16/// /1304 11074 21076 39714 40055 56006 60001 333 11073 21106 70000
AAXX 29184 71857 NIL
AAXX 29184 71860 11583 73206 10016 21025 38639 40022 51057 60001 71511 81170 333 10053 21045 70000
AAXX 29184 71876 17156 81012 11034 21034 39310 49972 53014 60001 710// 333 11034 21086 70000
AAXX 29184 71885 NIL
AAXX 29184 71886 NIL
AAXX 29184 71888 NIL
AAXX 29184 71890 16/// /0515 11138 21201 39884 49911 53016 60001 333 11092 21142 70025
AAXX 29184 71895 NIL
AAXX 29184 71603 12574 52722 11012 21084 39978 40031 53013 60001 85500 333 11001 21028 70002
AAXX 29184 71607 16/// /2617 11044 21173 39960 49993 53005 60001 333 11040 21095 70003
AAXX 29184 71609 12674 12718 11047 21147 39834 49968 53008 60001 81500 333 11042 21091 79999
AAXX 29184 71610 15966 02612 11128 21191 39802 40108 55000 60001 333 11128 21176 70000
AAXX 29184 71621 12574 61105 11087 21162 30041 40151 57024 60001 81631 333 11087 21169 41997 79999
AAXX 29184 71623 NIL
AAXX 29184 71624 11432 81208 11039 21058 39903 40120 56029 69941 78522 885// 333 11033 21124 70004 90931
AAXX 29184 71625 16964 00000 11177 21236 39994 40163 58014 60001 333 11173 21251 70000
AAXX 29184 71627 12683 22515 11155 21226 30099 40146 58005 60001 81501 333 11152 21185 70028
AAXX 29184 71628 13960 12407 11169 21220 30012 40160 58008 60001 81071 333 11168 21208 70004
AAXX 29184 71630 NIL
AAXX 29184 71631 17/// /1504 11056 21067 39584 40094 58028 60011 7//4/ 333 11056 21135 70039
AAXX 29184 71633 11459 81109 11047 21064 39822 40100 58024 69941 77172 885// 333 11046 21184 43013 70004 90931
AAXX 29184 71705 12574 42626 11068 21146 39833 49920 53006 60001 84800 333 11005 21096 70034
AAXX 29184 71706 11674 72520 11076 21128 39847 49907 53004 69901 78582 87500 333 10031 21082 42001 70090 90957
AAXX 29184 71707 11674 72425 11016 21080 39808 49883 55004 69901 78522 87500 333 10066 21019 45997 70246 90962
AAXX 29184 71709 11448 82530 11073 21107 39848 49861 53010 60011 78522 885// 333 10039 21078 46997 70210 90962 93101
AAXX 29184 71711 NIL
AAXX 29184 71714 16/// /2517 11154 21223 39999 40094 53007 60001 333 11130 21183 70003
AAXX 29184 71715 16/// /3207 11125 21168 39796 49981 53014 60001 333 11113 21143 70045 555 10030
AAXX 29184 71718 11516 82723 11134 21149 39871 49937 52017 60021 77177 885// 333 11079 21134 48002 70100 90983 93102
AAXX 29184 71719 NIL
AAXX 29181 12105 11571 72006 10045 20012 30010 40053 58014 69902 70381 8357/ 333 10064 20039 91113 93097
AAXX 29181 12195 11565 82408 10038 20017 39840 40068 57007 69932 70282 885// 333 10042 20028 91110 93097
AAXX 29181 12235 11567 62208 10031 20013 39859 40071 57011 69902 70282 865// 333 10052 20030 91115 93097
AAXX 29181 12270 12568 72405 10034 20010 39914 40098 57008 69912 875// 333 10048 20028 91112 93000
AAXX 29181 12280 11575 62306 10045 20008 39919 40076 56006 69912 70182 82530 333 10051 20032 91011 91111 93097
AAXX 29181 12300 12970 32604 10038 20000 30009 40100 58018 69932 83030 333 10062 20035 91113 93000
AAXX 29181 12400 11975 72406 10039 21011 39891 40129 58011 69902 70381 8705/ 333 10058 20036 91113 93097
AAXX 29181 12435 12677 62307 10040 21014 39961 40135 57009 69912 86500 333 10061 20030 91112 93000
AAXX 29181 12495 11956 62303 10013 20004 39855 40153 57006 69902 71062 86030 333 10028 20011 91109 93097
AAXX 29181 12530 12765 62103 10036 21010 39962 40164 56004 69902 8453/ 333 10057 20011 93000
AAXX 29181 12570 11950 72404 10022 20013 39839 40163 57006 69902 71082 8703/ 333 10037 20019 93097
AAXX 29181 12580 11770 72104 10023 20007 39910 40175 57007 69902 70282 875// 333 10034 20016 93097
AAXX 29181 13173 31695 81601 10004 21004 30111 40115 56005 71022 885// 333 10010
AAXX 29181 13180 32697 82702 11001 21004 30107 40222 56001 885// 333 10025
AAXX 29181 13266 31696 82504 11003 21011 30118 40223 55002 71042 885// 333 10007
AAXX 29181 13369 31695 70000 11076 21097 38985 48446 57003 71021 87500 333 11057 4/010
AAXX 29181 13383 32697 80201 10018 21012 30002 40211 56005 8807/ 333 10041
AAXX 29181 13384 32997 83202 10003 21015 30064 40221 55000 8807/ 333 10044
AAXX 29181 13389 32998 30000 11015 21033 39926 40220 54000 83030 333 10025
AAXX 29181 13477 NIL
AAXX 29184 71043 11556 80000 11183 21228 39893 49988 53015 69901 77177 885// 333 11181 21278 48033 79999 90983
AAXX 29184 71045 16/// /0303 11124 21137 39090 49953 52030 60001 333 11090 21157 70015 555 10020
AAXX 29184 71050 46/// /0403 11061 21086 39015 40094 51023 6///1 333 10010 21110 7////
AAXX 29184 71051 NIL
AAXX 29184 71052 NIL
AAXX 29184 71066 11424 83410 11146 21184 39543 49966 53021 69981 77172 885// 333 11075 21146 48023 70008 90942 93102
AAXX 29184 71068 12874 72613 11008 21039 39275 49964 52029 60001 87070 333 11008 21114 79999
AAXX 29184 71069 17764 33203 11056 21062 39272 49977 53027 69951 7//44 333 11056 21095 70005
AAXX 29184 71076 16/// /0706 11125 21138 39579 49976 51003 60001 333 11125 21223 70000
AAXX 29184 71077 16/// /1803 11050 21059 39438 49977 53007 60001 333 11050 21113 70000
AAXX 29184 71079 11474 80000 11116 21128 39755 40040 58002 69901 77182 885// 333 11115 21137 48008 70002 90983
AAXX 29184 71081 46964 01507 11207 21245 30148 40160 58004 6///1 333 11205 21371 7////
AAXX 29184 71082 NIL
AAXX 29184 71083 NIL
AAXX 29184 71090 46464 32603 11332 21382 30151 40188 50001 6///1 333 11278 21343 7////
AAXX 29184 71091 460// /0714 11259 39966 40186 58004 6///1 333 7////
AAXX 29184 71092 46864 30703 11291 39486 40188 58009 6///1 333 11288 21304 7////
AAXX 29184 71093 460// ///// 11235 39653 40171 58002 6///1 333 11234 21256 7////
AAXX 29184 71094 46064 /3320 11229 39177 40108 58014 6///1 333 11226 21255 7////
AAXX 29184 71095 46964 01805 11316 21360 30112 40197 58006 6///1 333 11295 21348 7////
AAXX 29184 71101 160// /2005 30059 50000 60001 333 70010
AAXX 29184 71104 12574 70000 11048 21077 38991 40102 52023 60001 81571 333 10030 21079 70000
AAXX 29184 71108 11580 81907 10066 20022 30103 40175 51019 60001 71411 8754/ 333 10088 20050 70155
AAXX 29184 71109 12580 81503 10037 20003 30099 40126 57005 60001 8657/ 333 10060 20024 70214
AAXX 29184 71893 11674 82003 10038 20024 30121 40153 50006 69941 70281 8357/ 333 10067 20032 70086 90930
AAXX 29184 71894 16/// /0808 10044 20042 30132 40141 58004 60001 333 10080 20027 70142
AAXX 29184 71896 15966 01808 11011 21089 39256 40084 51026 60001 333 10040 21031 70003
AAXX 29184 71897 12374 81415 10052 20024 3//// 4//// 54000 60011 888XX 333 10054 20022 70024
AAXX 29184 71898 160// ///// 10017 53012 60001 333 10051 20013 70015
AAXX 29184 71899 11474 72011 10006 21009 3//// 4//// 53018 69941 70181 85276 333 10038 20000 70036 90957
AAXX 29184 71902 11306 80335 11023 21037 39846 49854 56030 60311 7717/ 887// 333 11019 21168 70308 90999
AAXX 29184 71905 NIL
AAXX 29184 71906 11566 80217 11110 21154 30007 40059 55018 69901 77171 885// 333 11107 21297 44015 79999 90957
AAXX 29184 71907 16964 00000 11300 21347 30142 40177 58003 60001 333 11298 21319 70000
AAXX 29184 71909 16964 00308 11218 21285 30132 40177 56016 60001 333 11198 21295 70000
AAXX 29184 71910 47550 83004 11215 21245 30108 40173 58005 6///1 745// 333 11172 21215 7////
AAXX 29184 71911 46964 00706 11320 30060 40120 58003 6///1 333 11310 21362 7////
AAXX 29184 71912 11574 80000 11203 21238 39864 40055 58009 69901 77111 885// 333 11202 21296 47020 79999 90921
AAXX 29184 71915 NIL
AAXX 29184 71917 11974 00000 11393 21443 30179 40194 51005 69901 77677 333 11368 21400 44014 79999 90983
AAXX 29184 71922 12474 81204 11046 21063 39518 49989 57008 60001 885// 333 11046 21183 70002
AAXX 29184 71924 NIL
AAXX 29184 71925 11574 60406 11385 21424 30091 40135 50005 69901 77677 86500 333 11344 21397 42021 79999 90983
AAXX 29184 71926 11559 81115 11155 21197 30013 40038 54000 69921 77177 885// 333 11154 21305 48042 70006 90983
AAXX 29184 71928 16/// /3105 10019 21040 38853 40009 51033 60001 333 10043 21101 70000
AAXX 29184 71930 13774 22805 10013 21035 39072 40002 52032 60043 82501 333 10013 21086 43015 70038 90999
AAXX 29184 71931 NIL
AAXX 29184 71934 12674 70000 11197 21235 39722 49986 52007 60001 86570 333 11188 21230 79999
AAXX 29184 71935 11374 70000 11206 21244 39789 40006 50004 69901 70277 82670 333 11206 21288 47026 79999 90921
AAXX 29184 71936 11474 80603 11162 21187 39745 40011 50004 69901 77177 885// 333 11162 21217 48026 79999 90983
AAXX 29184 71937 NIL
AAXX 29184 71938 11661 70405 11336 21369 30102 40134 51006 69901 77677 86530 333 11336 21378 44026 79999 90983
AAXX 29184 71940 12782 32520 10006 21060 39207 40012 52040 60001 81541 333 10021 21108 70000
AAXX 29184 71943 11974 22315 11002 21062 39150 49981 52032 60001 73611 82070 333 10006 21040 70000
AAXX 29184 71944 160// ///// 11014 53033 60001 333 10027 21046 70005
AAXX 29184 71945 11474 82105 11162 21213 39513 49993 50019 69941 70272 865// 333 11156 21206 47013 70004 90922
AAXX 29184 71946 11758 80000 11206 21237 39779 40000 50002 60021 77177 8857/ 333 11206 21280 48046 70016 90973 93102
AAXX 29184 71948 47004 /0830 11280 39975 40093 51008 6///1 745// 333 11280 21299 7////
AAXX 29184 71949 46/// /1704 11163 21177 39054 49928 53025 6///1 333 11108 21174 7////
AAXX 29184 71951 11469 71917 10004 21006 39814 40081 52022 69941 70282 85570 333 10026 21013 43037 70112 90937
AAXX 29184 71957 47532 80807 11180 21247 39914 40004 53003 6///1 745// 333 11180 21304 7////
AAXX 29184 71964 11880 61712 11077 21115 39076 49928 53031 69901 70172 86070 333 11065 21153 47020 70032 90931
AAXX 29184 71966 16/// /0000 11207 21232 39480 49950 53027 60001 333 11205 21266 70000
AAXX 29184 71968 470// /0706 11209 39942 40009 54000 6///1 745// 333 11207 21330 7////
AAXX 29184 71102 NIL
AAXX 29184 71105 NIL
AAXX 29184 71107 NIL
AAXX 29184 71110 NIL
AAXX 29184 71111 15866 82007 10016 21025 30060 40068 50000 60001 333 10036 21007 70024
AAXX 29184 71112 16/// ///// 60001 333 70076
AAXX 29184 71113 16/// /1602 10074 20034 30144 40167 51021 60001 333 10118 20073 70202
AAXX 29184 71115 16/// /2805 10079 21033 39536 40113 53037 60001 333 10098 21007 70004
AAXX 29184 71116 16/// /2832 10060 21038 38904 49977 53031 60001 333 10069 20016 70004
AAXX 29184 71118 16/// /3006 11058 21070 39156 49985 53045 60001 333 11058 21100 70000
AAXX 29184 71121 17764 32808 10016 21030 39170 49989 51035 60031 7//44 333 10018 21084 70030
AAXX 29184 71127 17/// /2709 10022 20007 39088 49990 51036 60021 7//4/ 333 10024 21082 70022
AAXX 29184 71130 15966 00906 11069 21110 39544 40007 58003 60001 333 11056 21141 70000
AAXX 29184 71132 17666 81008 11118 21130 39678 49994 58002 60001 771// 333 11110 21159 70000
AAXX 29184 71133 NIL
AAXX 29184 71139 NIL
AAXX 29184 71141 NIL
AAXX 29184 71142 17966 02314 10033 20003 38965 49914 58006 60021 7004/ 333 10038 21067 70018
AAXX 29184 71143 NIL
AAXX 29184 71144 NIL
AAXX 29184 71147 16/// /1706 11079 21086 60001 333 11074 21100 70000
AAXX 29184 71149 16/// /1303 11106 21133 60001 333 11085 21170 70000
AAXX 29184 71250 NIL
AAXX 29184 71251 16/// /3220 10062 21012 39092 40001 52068 60001 333 10090 20011 70007
AAXX 29184 71252 NIL
AAXX 29184 71253 46/// /0502 11131 21139 6///1 333 11131 21191 7//// 555 10010
AAXX 29184 71254 17/// /3011 10012 20012 60021 7//4/ 333 10012 21096 70018 555 10020
AAXX 29184 71255 17/// /2204 11061 21077 69931 7//4/ 333 11047 21118 70006
AAXX 29184 71256 46/// /2705 10019 21013 39067 49997 51031 6///1 333 10020 21087 7////
AAXX 29184 71257 NIL
AAXX 29184 71258 NIL
AAXX 29184 71259 NIL
AAXX 29184 71261 17/// /1210 11022 21044 39805 40068 58035 69931 7//4/ 333 11020 21078 70003
AAXX 29184 71263 11760 80606 11027 21043 39814 40109 58034 69901 72682 8358/ 333 11027 21112 4-4003 79999 909/5
AAXX 29184 71264 46/// /2521 11012 21081 39929 49960 53009 6///1 333 10036 21023 7////
AAXX 29184 71265 17456 81008 11028 21056 30028 40124 56029 60001 771// 333 11022 21096 70000
AAXX 29184 71266 NIL
AAXX 29184 71267 15966 82526 10069 21059 38938 40013 52049 60001 333 10073 20020 70000
AAXX 29184 71268 NIL
AAXX 29184 71269 NIL
AAXX 29184 71270 NIL
AAXX 29184 71271 16/// ///// 11011 21031 60001 333 11011 21120 70000
AAXX 29184 71272 17459 82404 11112 21123 39669 40027 51003 60001 771// 333 11112 21156 70000
AAXX 29184 71273 16/// /2702 11065 21071 39310 49969 53018 60001 333 11048 21093 70000
AAXX 29184 71274 NIL
AAXX 29184 71275 NIL
AAXX 29184 71276 NIL
AAXX 29184 71277 NIL
AAXX 29184 71278 NIL
AAXX 29184 71279 17/// /2909 11087 21123 39738 49803 53014 69931 7//4/ 333 11006 21100 70066
AAXX 29184 71281 NIL
AAXX 29184 71282 46/// /1005 11093 21100 39858 40137 56021 6///1 333 11092 21181 7////
AAXX 29184 71283 NIL
AAXX 29184 71284 17/// ///// 10016 20006 60051 7//4/ 333 10016 21082 70054
AAXX 29184 71285 NIL
AAXX 29184 71286 NIL
AAXX 29184 71287 NIL
AAXX 29184 71288 NIL
AAXX 29184 71289 NIL
AAXX 29184 71290 15966 01005 11010 21062 39219 40045 51036 60001 333 10028 21042 70016
AAXX 29184 71291 17/// /0505 11066 21087 39747 40042 58012 60031 7//4/ 333 11065 21187 70052 555 10080
AAXX 29184 71292 15966 01510 11073 21078 39398 40010 56010 60001 333 11073 21139 70000
AAXX 29184 71294 16/// /0701 11135 21200 39725 40148 58013 60001 333 11134 70000
AAXX 29184 71295 NIL
AAXX 29184 71296 NIL
AAXX 29184 71297 16/// /0704 11018 21034 60001 333 11018 21101 70000
AAXX 29184 71298 16/// /1713 10016 20012 39819 40052 58044 60001 333 10016 21061 70000
AAXX 29184 71299 NIL
AAXX 29184 71893 11674 82003 10038 20024 30121 40153 50006 69941 70281 8357/ 333 10067 20032 70086 90930
AAXX 29184 71894 16/// /0808 10044 20042 30132 40141 58004 60001 333 10080 20027 70142
AAXX 29184 71896 15966 01808 11011 21089 39256 40084 51026 60001 333 10040 21031 70003
AAXX 29184 71897 12374 81415 10052 20024 3//// 4//// 54000 60011 888XX 333 10054 20022 70024
AAXX 29184 71898 160// ///// 10017 53012 60001 333 10051 20013 70015
AAXX 29184 71899 11474 72011 10006 21009 3//// 4//// 53018 69941 70181 85276 333 10038 20000 70036 90957
AAXX 29184 71902 11306 80335 11023 21037 39846 49854 56030 60311 7717/ 887// 333 11019 21168 70308 90999
AAXX 29184 71905 NIL
AAXX 29184 71906 11566 80217 11110 21154 30007 40059 55018 69901 77171 885// 333 11107 21297 44015 79999 90957
AAXX 29184 71907 16964 00000 11300 21347 30142 40177 58003 60001 333 11298 21319 70000
AAXX 29184 71909 16964 00308 11218 21285 30132 40177 56016 60001 333 11198 21295 70000
AAXX 29184 71910 47550 83004 11215 21245 30108 40173 58005 6///1 745// 333 11172 21215 7////
AAXX 29184 71911 46964 00706 11320 30060 40120 58003 6///1 333 11310 21362 7////
AAXX 29184 71912 11574 80000 11203 21238 39864 40055 58009 69901 77111 885// 333 11202 21296 47020 79999 90921
AAXX 29184 71915 NIL
AAXX 29184 71917 11974 00000 11393 21443 30179 40194 51005 69901 77677 333 11368 21400 44014 79999 90983
AAXX 29184 71922 12474 81204 11046 21063 39518 49989 57008 60001 885// 333 11046 21183 70002
AAXX 29184 71924 NIL
AAXX 29184 71925 11574 60406 11385 21424 30091 40135 50005 69901 77677 86500 333 11344 21397 42021 79999 90983
AAXX 29184 71926 11559 81115 11155 21197 30013 40038 54000 69921 77177 885// 333 11154 21305 48042 70006 90983
AAXX 29184 71928 16/// /3105 10019 21040 38853 40009 51033 60001 333 10043 21101 70000
AAXX 29184 71604 16/// /2725 11084 21090 60001 333 10029 21085 70144
AAXX 29184 71605 16/// /2102 10058 20054 30010 40160 53025 60001 333 10092 20041 70448
AAXX 29184 71611 16/// /2511 11119 21181 60001 333 11119 21167 70000
AAXX 29184 71612 NIL
AAXX 29184 71614 NIL
AAXX 29184 71616 16/// /2313 11144 21194 39986 40111 53003 60001 333 11126 21177 70030
AAXX 29184 71617 16/// /2919 11168 21200 39859 40037 53008 60001 333 11149 21192 70016
AAXX 29184 71618 17548 82006 11174 21195 30002 40041 58005 60001 771// 333 11174 70000
AAXX 29184 71619 NIL
AAXX 29184 71622 NIL
AAXX 29184 71632 46/// /1801 11151 21167 39582 40029 50004 6///1 333 11114 21184 7////
AAXX 29184 71634 16/// /2810 11120 21192 39747 49900 53013 60001 333 11011 21123 70027
AAXX 29184 71638 16/// /0801 10047 20035 30053 40158 53021 60001 333 10083 20025 70088
AAXX 29184 71639 11466 80707 11061 21096 39877 40126 58029 69901 72211 885// 333 11060 21155 79999 90921
AAXX 29184 71642 11574 81004 11140 21262 39540 40112 58019 69901 77172 885// 333 11140 21286 48022 79999 90916
AAXX 29184 71051 NIL
AAXX 29184 71055 NIL
AAXX 29184 71057 NIL
AAXX 29184 71059 460// ///// 11357 30034 40131 52006 6///1 333 11306 21357 7////
AAXX 29184 71061 17/// /2506 10017 20004 39201 49982 51035 69981 7//4/ 333 10017 21118 70008 555 10010
AAXX 29184 71062 46/// /2809 10014 21025 38926 49975 51033 6///1 333 10038 21060 7//// 555 10010
AAXX 29184 71064 460// /3514 11383 39903 40135 53004 6///1 333 11360 21383 7////
AAXX 29184 71065 NIL
AAXX 29184 71067 NIL
AAXX 29184 71070 NIL
AAXX 29184 71073 NIL
AAXX 29184 71074 NIL
AAXX 29184 71075 16/// /1603 11137 21153 39396 40008 51005 60001 333 11103 21176 70000
AAXX 29184 71078 NIL
AAXX 29184 71084 460// ///// 11324 30069 40120 51003 6///1 333 11323 21355 7////
AAXX 29184 71085 15966 62722 10045 21061 38666 40023 53035 60001 333 10054 20030 70005
AAXX 29184 71087 NIL
AAXX 29184 71088 460// /0909 11242 58003 6///1 333 11233 21293 7////
AAXX 29184 71089 NIL
AAXX 29184 71096 460// ///// 11252 39404 40167 57003 6///1 333 11215 21253 7////
AAXX 29184 71097 47964 00318 11238 39653 40148 56020 6///1 745// 333 11212 21239 7////
AAXX 29184 71098 43/// /1402 11122 21139 39697 40067 58001 6///1 333 11121 21197 7////
AAXX 29184 71099 43/// /1507 11210 21264 30100 40121 58011 6///1 333 11208 21290 7////
AAXX 29184 71350 16/// /2523 11076 21139 39833 49898 53007 60001 333 10028 21079 70103
AAXX 29184 71351 NIL
AAXX 29184 71352 17/// /1207 11051 21062 39638 40102 58028 69971 7//4/ 333 11051 21135 70007
AAXX 29184 71353 NIL
AAXX 29184 71354 NIL
AAXX 29184 71355 16/// /3102 11346 21382 30077 40167 51004 60001 333 11301 21366 70000
AAXX 29184 71356 16/// /1115 11157 21174 39974 40042 52001 60001 333 11155 21308 70000
AAXX 29184 71357 NIL
AAXX 29184 71358 17/// /2703 11335 21371 30150 40187 50001 60031 7//4/ 333 11282 21343 70047
AAXX 29184 71359 NIL
AAXX 29184 71360 NIL
AAXX 29184 71361 NIL
AAXX 29184 71362 NIL
AAXX 29184 71363 NIL
AAXX 29184 71364 NIL
AAXX 29184 71365 NIL
AAXX 29184 71368 17466 81008 11038 21054 39705 40102 58032 60001 771// 333 11038 21107 70000
AAXX 29184 71369 15766 63204 11056 21066 39272 49978 53026 60001 333 11056 21088 70000
AAXX 29184 71370 46/// /2705 11134 21200 39955 40096 55000 6///1 333 11134 21198 7////
AAXX 29184 71371 16966 02516 11141 30099 40134 57005 60001 333 11136 21170 70000
AAXX 29184 71372 NIL
AAXX 29184 71373 16/// /2707 11120 21197 60001 333 11118 21177 70051
AAXX 29184 71374 NIL
AAXX 29184 71375 NIL
AAXX 29184 71376 16/// /2603 11164 21220 39837 40153 55003 60001 333 11162 21256 70000
AAXX 29184 71377 16/// /2514 11157 21209 30092 40143 56007 60001 333 11152 21188 70003
AAXX 29184 71378 16/// /2906 11168 21230 39874 40091 55002 60001 333 11168 21223 70000 555 10060
AAXX 29184 71379 16/// /2923 11170 21216 39854 40030 53006 60001 333 11170 21213 70000
AAXX 29184 71380 NIL
AAXX 29184 71381 NIL
AAXX 29184 71382 17/// /0000 11190 21224 39044 40025 53014 60011 7//4/ 333 11186 21218 70029
AAXX 29184 71383 NIL
AAXX 29184 71384 16/// /2611 11132 21194 30033 40041 53012 60001 333 11101 21153 70010
AAXX 29184 71385 NIL
AAXX 29184 71386 NIL
AAXX 29184 71387 NIL
AAXX 29184 71388 46/// /3015 11160 21204 39828 40021 53010 6///1 333 11151 21179 7////
AAXX 29184 71389 46/// /2708 11134 21219 6///1 333 11128 21188 7////
AAXX 29184 71390 NIL
AAXX 29184 71391 16/// ///// 11176 21210 60001 333 11174 21221 70010
AAXX 29184 71392 16/// /2411 11155 21219 60001 333 11131 21180 70016
AAXX 29184 71393 NIL
AAXX 29184 71395 11574 22519 11028 21100 39767 49944 53004 69901 72681 82100 333 10015 21043 70130 90913
AAXX 29184 71398 15966 01703 11220 21246 30158 40170 58003 60001 333 11220 21317 70000
AAXX 29184 71399 NIL
AAXX 29184 71812 47256 91715 11136 21147 30020 40034 50000 6///1 745// 333 11113 21167 7////
AAXX 29184 71819 15666 82426 10015 21036 39713 49753 55002 60001 333 10026 21004 70000
AAXX 29184 71820 NIL
AAXX 29184 71823 16964 03407 11235 21288 39695 40096 55001 60001 333 11234 21275 70000
AAXX 29184 71824 NIL
AAXX 29184 71826 16/// /0602 11278 21325 30134 40180 58016 60001 333 11266 21289 70000
AAXX 29184 71829 16/// /2518 11145 21201 39730 49893 53011 60001 333 11101 21147 70050
AAXX 29184 71833 46/// /1106 11045 21057 6///1 333 11045 21128 7////
AAXX 29184 71835 16/// /1104 11128 21149 39581 40074 58001 60001 333 11128 21218 70003 555 10020
AAXX 29184 71837 NIL
AAXX 29184 71839 NIL
AAXX 29184 71840 NIL
AAXX 29184 71846 16/// /1003 11180 21195 39784 40114 58008 60001 333 11180 21268 70000
AAXX 29184 71847 NIL
AAXX 29184 71848 NIL
AAXX 29184 71849 NIL
AAXX 29184 71550 NIL
AAXX 29184 71551 NIL
AAXX 29184 71552 NIL
AAXX 29184 71553 NIL
AAXX 29184 71554 NIL
AAXX 29184 71555 16/// /3120 10042 21096 38480 40012 53059 60001 333 10060 20026 70000
AAXX 29184 71556 NIL
AAXX 29184 71557 46/// /2111 10057 21032 6///1 333 10073 20030 7////
AAXX 29184 71558 46/// ///// 10013 21034 39709 49744 55002 6///1 333 10027 21005 7////
AAXX 29184 71559 46/// /1210 11017 21030 39284 49981 58019 6///1 333 11017 21049 7////
AAXX 29184 71560 16/// /1605 11072 21083 39750 40061 57007 60001 333 11071 21158 70000
AAXX 29184 71563 NIL
AAXX 29184 71564 16/// /1605 11079 21088 39681 40057 58004 60001 333 11068 21094 70000
AAXX 29184 71565 NIL
AAXX 29184 71566 NIL
AAXX 29184 71567 NIL
AAXX 29184 71568 16/// /1409 10037 20018 30132 40144 50003 60001 333 10076 20035 70100
AAXX 29184 71569 17/// /1210 11006 21009 39239 49932 58022 60011 7//4/ 333 11006 21061 70037 555 10020
AAXX 29184 71570 16/// /1403 11063 21086 39744 40060 58004 60001 333 11062 21095 70000
AAXX 29184 71571 NIL
AAXX 29184 71572 NIL
AAXX 29184 71573 NIL
AAXX 29184 71574 11564 72725 11124 21153 39823 49896 53015 69901 73787 85430 333 11002 21129 43017 70046 90917
AAXX 29184 71575 NIL
AAXX 29184 71576 16/// /0000 11317 21352 30107 40197 58006 60001 333 11292 21348 70000
AAXX 29184 71577 NIL
AAXX 29184 71578 16/// /2417 11150 21223 60001 333 11124 21174 70011
AAXX 29184 71579 16/// /2202 11069 21086 39764 40051 57008 60001 333 11065 21092 70000
AAXX 29184 71580 11474 70312 11320 21352 30094 40133 58003 69901 72277 87500 333 11320 21362 48030 79999 90923
AAXX 29184 71581 NIL
AAXX 29184 71582 15566 81302 10029 20013 30067 40120 54000 60001 333 10063 20016 70297
AAXX 29184 71583 NIL
AAXX 29184 71584 17416 82621 11044 21055 39670 49716 53017 60001 771// 333 10008 21044 70476
AAXX 29184 71585 NIL
AAXX 29184 71586 16/// /1305 11047 21067 39514 49984 58009 60001 333 11047 21183 70000
AAXX 29184 71587 NIL
AAXX 29184 71588 16/// /2317 11022 21058 60001 333 10078 21022 70000
AAXX 29184 71589 16/// /2320 10026 21022 39708 49837 55008 60001 333 10040 21018 70009
AAXX 29184 71590 16/// /3110 11118 21159 39754 49947 53011 60001 333 11085 21142 70006 555 10040
AAXX 29184 71592 NIL
AAXX 29184 71593 NIL
AAXX 29184 71596 NIL
AAXX 29184 71598 16/64 /2622 11107 21172 39857 49863 53014 60001 333 10009 21108 70012 555 10010
AAXX 29184 71599 NIL
AAXX 29184 71450 NIL
AAXX 29184 71451 16/// /1401 11110 21124 39584 40019 58001 60001 333 11105 21223 70000
AAXX 29184 71452 46/// /1411 11013 21019 39264 49970 56020 6///1 333 11013 21051 7//// 555 10050
AAXX 29184 71453 NIL
AAXX 29184 71454 NIL
AAXX 29184 71455 46/// /0705 11005 21007 39139 49928 58010 6///1 333 10000 21087 7////
AAXX 29184 71456 16/// /0803 11086 21107 39391 49992 56006 60001 333 11057 21126 70000
AAXX 29184 71457 16/// /3226 10048 21005 39090 49960 51062 60001 333 10077 20027 70000
AAXX 29184 71458 17/// /2809 11010 21011 39216 49987 51042 60021 7//4/ 333 11010 21105 70021
AAXX 29184 71459 17/// /3111 10013 20004 39129 49928 53023 60031 7//4/ 333 10022 21089 70027
AAXX 29184 71460 16/// /0712 11122 21145 39875 40126 58024 60001 333 11122 21183 70000
AAXX 29184 71461 NIL
AAXX 29184 71462 NIL
AAXX 29184 71463 NIL
AAXX 29184 71464 NIL
AAXX 29184 71465 NIL
AAXX 29184 71466 NIL
AAXX 29184 71468 NIL
AAXX 29184 71470 NIL
AAXX 29184 71471 17966 02418 10014 21066 39208 49993 52037 69931 7004/ 333 10029 21094 70003
AAXX 29184 71473 16/// /2110 10055 20022 30141 40171 53019 60001 333 10077 20046 70060
AAXX 29184 71475 NIL
AAXX 29184 71476 NIL
AAXX 29184 71477 46/// /1806 11002 21021 6///1 333 10023 21009 7////
AAXX 29184 71478 NIL
AAXX 29184 71479 NIL
AAXX 29184 71480 NIL
AAXX 29184 71481 NIL
AAXX 29184 71482 NIL
AAXX 29184 71483 NIL
AAXX 29184 71484 NIL
AAXX 29184 71485 16/// /1221 10053 20029 30096 40116 58005 60001 333 10070 20045 70118
AAXX 29184 71486 17/// /1304 11005 21023 38854 40044 53033 69971 7//4/ 333 10026 21020 70012 555 10010
AAXX 29184 71487 17/// /2311 10028 20010 39074 49929 58016 60011 7//4/ 333 10030 21067 70013
AAXX 29184 71489 NIL
AAXX 29184 71490 NIL
AAXX 29184 71491 NIL
AAXX 29184 71492 NIL
AAXX 29184 71493 16/// /2617 11045 21109 39895 49933 53002 60001 333 10014 21068 70030
AAXX 29184 71494 16/// /2613 11164 21205 39533 40071 53006 60001 333 11147 21198 70003
AAXX 29184 71495 NIL
AAXX 29184 71496 16/// /1210 11026 21034 39349 49957 50002 60001 333 11026 21075 70000
AAXX 29184 71497 46/// /2104 11188 21215 39722 49994 53008 6///1 333 11179 21222 7////
AAXX 29184 71498 NIL
AAXX 29184 71499 17566 81203 11078 21089 39356 49994 50002 60001 771// 333 11078 21224 70000
AAXX 29184 71300 NIL
AAXX 29184 71301 17/// ///// 11165 21215 39724 40146 58015 69981 7//4/ 333 11162 21335 70008
AAXX 29184 71302 16/// /1807 11011 21084 39267 40081 51026 60001 333 10043 21023 70000
AAXX 29184 71303 46/// ///// 10018 20005 6///1 333 10023 21079 7////
AAXX 29184 71305 15666 80606 11106 21117 39663 49957 50003 60001 333 11106 21184 70000
AAXX 29184 71306 15966 00603 11260 21294 30141 40175 58003 60001 333 11258 21296 70000
AAXX 29184 71307 NIL
AAXX 29184 71308 16/// /2416 11024 21076 39833 49916 53004 60001 333 10054 21028 70243
AAXX 29184 71309 NIL
AAXX 29184 71310 16/// /2418 11077 21130 39861 49897 53011 60001 333 10034 21078 70129
AAXX 29184 71311 NIL
AAXX 29184 71312 16/// /1206 11077 21113 39542 40004 58003 60001 333 11058 21151 70000
AAXX 29184 71314 16/// /1305 11075 21092 39758 40124 58023 60001 333 11075 21223 70000
AAXX 29184 71315 NIL
AAXX 29184 71316 16/// /2104 11061 21072 39291 49976 51029 60001 333 11061 21089 70004
AAXX 29184 71317 NIL
AAXX 29184 71318 17/// /3217 11004 21006 39040 49982 53058 69971 7//4/ 333 10004 21107 70007 555 10310
AAXX 29184 71319 16/// /3009 11147 21179 39105 49984 53018 60001 333 11143 21177 70024
AAXX 29184 71320 NIL
AAXX 29184 71321 NIL
AAXX 29184 71322 NIL
AAXX 29184 71323 16/// /2707 11138 21204 39767 40056 53007 60001 333 11129 21173 70010
AAXX 29184 71331 16/// /1201 11134 21153 60001 333 11091 21146 70000
AAXX 29184 71332 NIL
AAXX 29184 71334 46/// /2403 11114 21133 39695 40028 53002 6///1 333 11114 21157 7////
AAXX 29184 71335 46000 0//// 11096 56016 6///1 333 11090 21189 7////
AAXX 29184 71336 46/// ///39 10050 20002 39836 49858 53003 6///1 333 10061 20010 7////
AAXX 29184 71337 46/// /2208 10006 20002 39547 49777 55006 6///1 333 10029 21012 7////
AAXX 29184 71338 46964 32203 11262 21319 30178 40186 58003 6///1 333 11249 21315 7////
AAXX 29184 71339 17564 82316 10014 21018 39715 49729 55002 60061 74544 333 10028 21011 70065
AAXX 29184 71340 NIL
AAXX 29184 71341 NIL
AAXX 29184 71342 NIL
AAXX 29184 71343 NIL
AAXX 29184 71344 NIL
AAXX 29184 71345 NIL
AAXX 29184 71346 NIL
AAXX 29184 71347 NIL
AAXX 29184 71348 NIL
AAXX 29184 71349 NIL
AAXX 29184 71864 NIL
AAXX 29184 71865 16/// /1310 11040 21061 39298 49975 56011 60001 333 11038 21082 70000
AAXX 29184 71866 46261 81110 11026 21040 39352 49963 50002 6///1 333 11026 21073 7////
AAXX 29184 71867 12574 70907 11121 21132 39688 40027 58003 60001 87500 333 11084 21194 79999
AAXX 29184 71868 16/// /0402 11074 21141 39566 40011 58010 60001 333 11061 21116 70000
AAXX 29184 71869 12374 80908 11057 21071 39464 49990 55000 60001 87501 333 11047 21117 70000
AAXX 29184 71871 17140 82204 11053 21057 39171 49976 53031 60001 710// 333 11052 21076 70000
AAXX 29184 71877 12986 73213 10031 20027 38767 40027 51062 60001 85071 333 10069 21037 70000
AAXX 29184 71878 11574 73210 10011 21016 38946 40011 51045 69901 70282 81571 333 10039 21093 48008 79999 90930
AAXX 29184 71879 17764 32807 10027 20010 39192 49988 51037 60021 7//44 333 10027 21064 70020
AAXX 29184 71880 12682 22603 10061 21032 38988 40079 53040 60001 81570 333 10063 20011 70040
AAXX 29184 71882 160// /0000 10016 20014 39568 40106 51032 69951 333 10038 20008 70085
AAXX 29184 71883 46/// /1603 11002 21005 39282 40100 51034 6///1 333 10038 21010 7////
AAXX 29184 71887 12786 20000 10036 21022 39692 40111 51032 60001 81171 333 10224 21015 79999
AAXX 29184 71889 12874 51808 10068 21004 39712 40126 51040 60001 82071 333 10105 20051 70000
AAXX 29184 71891 16764 32016 10062 20023 39845 40118 51026 60001 333 10085 20056 70100
AAXX 29184 71892 12374 81802 10068 20018 30165 40170 52020 60001 83571 333 10104 20051 70080
AAXX 29184 71500 NIL
AAXX 29184 71501 NIL
AAXX 29184 71502 NIL
AAXX 29184 71503 NIL
AAXX 29184 71504 NIL
AAXX 29184 71505 46/// /0606 11123 21157 39174 49901 50007 6///1 333 11110 21219 7////
AAXX 29184 71506 NIL
AAXX 29184 71507 16/// /0803 11116 21126 60001 333 11084 21176 70004
AAXX 29184 71508 16/// ///// 11032 21056 39986 40127 56029 60001 333 11030 21103 70010
AAXX 29184 71509 NIL
AAXX 29184 71511 NIL
AAXX 29184 71512 17/// /2710 11053 21056 39727 49740 53025 60051 7//4/ 333 10014 21053 70433
AAXX 29184 71513 17416 82420 11044 21053 39704 49719 51008 69951 771// 333 10026 21044 70488
AAXX 29184 71514 NIL
AAXX 29184 71515 16/// /1205 11027 21037 39275 49973 58012 60001 333 11027 21064 70019
AAXX 29184 71516 NIL
AAXX 29184 71517 NIL
AAXX 29184 71518 NIL
AAXX 29184 71519 NIL
AAXX 29184 71520 NIL
AAXX 29184 71521 NIL
AAXX 29184 71522 NIL
AAXX 29184 71523 NIL
AAXX 29184 71524 16/// /2412 11152 21201 30110 40138 58003 60001 333 11152 21195 70030 555 10040
AAXX 29184 71525 NIL
AAXX 29184 71526 NIL
AAXX 29184 71527 15466 80504 11089 21109 39540 40053 58002 60001 333 11078 21128 70000
AAXX 29184 71528 NIL
AAXX 29184 71529 46/// /0703 11152 21172 39782 40013 53007 6///1 333 11151 21167 7////
AAXX 29184 71532 15766 81104 11103 21128 39777 40136 58019 60001 333 11103 21238 70000
AAXX 29184 71534 17461 81405 11067 21085 39842 40124 58024 60001 745// 333 11067 21243 70005
AAXX 29184 71535 NIL
AAXX 29184 71536 NIL
AAXX 29184 71537 NIL
AAXX 29184 71539 NIL
AAXX 29184 71540 NIL
AAXX 29184 71541 NIL
AAXX 29184 71542 17/// /2604 11106 21123 69941 7//4/ 333 11098 21140 70004
AAXX 29184 71543 NIL
AAXX 29184 71544 NIL
AAXX 29184 71545 17/// ///// 10016 20005 60031 7//4/ 333 10019 21115 70036
AAXX 29184 71546 NIL
AAXX 29184 71547 NIL
AAXX 29184 71548 NIL
AAXX 29184 71549 NIL
AAXX 29184 71665 17/// /0233 11027 21032 39842 49852 56029 60111 7//4/ 333 11026 21182 70240
AAXX 29184 71666 16/// /2618 11082 21150 39871 49915 53010 60001 333 11002 21094 70007
AAXX 29184 71667 NIL
AAXX 29184 71668 16/// /2617 11059 21153 39915 49959 53009 60001 333 11054 21102 70018
AAXX 29184 71669 NIL
AAXX 29184 71670 17/// ///// 11083 21156 69961 7//4/ 333 11001 21099 70026
AAXX 29184 71671 16/// /2620 11035 21086 39885 49945 53004 60001 333 10009 21056 70030
AAXX 29184 71672 16/// /0304 11116 21153 39870 40145 58016 60001 333 11116 21217 70000
AAXX 29184 71673 NIL
AAXX 29184 71674 NIL
AAXX 29184 71675 17466 81506 11158 21182 39808 40099 58007 60041 7714/ 333 11158 21248 70035
AAXX 29184 71679 16/// /1706 11016 21067 39049 40058 53018 60001 333 10022 21019 70027
AAXX 29184 71680 NIL
AAXX 29184 71681 46/// /0402 10011 21011 6///1 333 10099 21006 7////
AAXX 29184 71682 NIL
AAXX 29184 71683 NIL
AAXX 29184 71684 15066 11302 11225 21260 39843 40163 58009 60001 333 11225 21305 70000
AAXX 29184 71685 17366 60402 10020 20020 39567 40105 51032 69931 7004/ 333 10035 20009 70051
AAXX 29184 71686 469// /2403 11060 21071 39041 49995 51042 6///1 333 11051 21122
AAXX 29184 71687 NIL
AAXX 29184 71688 16/// /1405 10006 21004 39096 40127 53018 60001 333 10027 21002 70054
AAXX 29184 71689 15666 81702 11052 21063 39497 49951 51017 60001 333 11051 21115 70000
AAXX 29184 71690 NIL
AAXX 29184 71691 17766 82816 11138 21196 39887 49914 53016 60001 771// 333 11091 21141 70036
AAXX 29184 71692 NIL
AAXX 29184 71694 16/// /0902 11106 21143 39770 40149 58015 60001 333 11106 21243 70005
AAXX 29184 71695 16/// /1403 11119 21134 39684 40023 58003 60001 333 11081 21196 70000
AAXX 29184 71696 16/// /1709 11175 21196 39997 40035 58004 60001 333 11175 21199 70000
AAXX 29184 71697 15466 80808 11067 21088 39958 40135 58024 60001 333 11067 21164 70000
AAXX 29184 71699 16/// /2715 11033 21139 39974 49981 53002 60001 333 11033 21082 70006 555 10010
AAXX 29184 71043 11556 80000 11183 21228 39893 49988 53015 69901 77177 885// 333 11181 21278 48033 79999 90983
AAXX 29184 71045 16/// /0303 11124 21137 39090 49953 52030 60001 333 11090 21157 70015 555 10020
AAXX 29184 71050 46/// /0403 11061 21086 39015 40094 51023 6///1 333 10010 21110 7////
AAXX 29184 71051 NIL
AAXX 29184 71052 NIL
AAXX 29184 71066 11424 83410 11146 21184 39543 49966 53021 69981 77172 885// 333 11075 21146 48023 70008 90942 93102
AAXX 29184 71068 12874 72613 11008 21039 39275 49964 52029 60001 87070 333 11008 21114 79999
AAXX 29184 71069 17764 33203 11056 21062 39272 49977 53027 69951 7//44 333 11056 21095 70005
AAXX 29184 71076 16/// /0706 11125 21138 39579 49976 51003 60001 333 11125 21223 70000
AAXX 29184 71077 16/// /1803 11050 21059 39438 49977 53007 60001 333 11050 21113 70000
AAXX 29184 71079 11474 80000 11116 21128 39755 40040 58002 69901 77182 885// 333 11115 21137 48008 70002 90983
AAXX 29184 71081 46964 01507 11207 21245 30148 40160 58004 6///1 333 11205 21371 7////
AAXX 29184 71082 NIL
AAXX 29184 71083 NIL
AAXX 29184 71090 46464 32603 11332 21382 30151 40188 50001 6///1 333 11278 21343 7////
AAXX 29184 71091 460// /0714 11259 39966 40186 58004 6///1 333 7////
AAXX 29184 71092 46864 30703 11291 39486 40188 58009 6///1 333 11288 21304 7////
AAXX 29184 71093 460// ///// 11235 39653 40171 58002 6///1 333 11234 21256 7////
AAXX 29184 71094 46064 /3320 11229 39177 40108 58014 6///1 333 11226 21255 7////
AAXX 29184 71095 46964 01805 11316 21360 30112 40197 58006 6///1 333 11295 21348 7////
AAXX 29184 71101 160// /2005 30059 50000 60001 333 70010
AAXX 29184 71104 12574 70000 11048 21077 38991 40102 52023 60001 81571 333 10030 21079 70000
AAXX 29184 71108 11580 81907 10066 20022 30103 40175 51019 60001 71411 8754/ 333 10088 20050 70155
AAXX 29184 71109 12580 81503 10037 20003 30099 40126 57005 60001 8657/ 333 10060 20024 70214
AAXX 29184 60020 NIL
AAXX 29184 60030 02560 40115 10187 20120 30219 40275 53006 60002 84831 333 10209 60007 92427
AAXX 29184 60040 02575 10411 10186 20107 30269 40294 53012 60002 81500 333 10215 60007 92438
AAXX 29184 60338 12980 00000 10130 20099 30227 40294 53001 60002 333 10174 92428
AAXX 29181 02019 07/71 /1109 11067 21096 39254 49875 52009 69912 70087 333 11060 21074 60005 90710 91113
AAXX 29181 02081 07/78 /0703 11071 21100 39492 49897 52005 60012 72487 333 11065 21138 69905 90710 91108
AAXX 29181 02095 07472 /0306 11058 21072 39654 49858 57003 69902 77187 333 11058 21120 69905 81/18 88/32 90710 91109
AAXX 29181 02101 47583 /0000 11060 21082 39293 49850 52020 724// 8//// 333 11027 21062 82/26 88/35
AAXX 29181 02119 07565 /3001 11105 21113 39483 49872 52007 60012 77177 333 11089 21110 69905 83/31 85/56 87/59 90710 91103
AAXX 29181 02124 07425 /0302 11074 21113 39328 49853 53011 60032 77177 333 11056 21077 69975 89/18 90710 91105
AAXX 29181 02126 07466 /3602 11058 21066 39500 49836 52017 60032 77174 333 11029 21058 69915 88/18 90710 91105
AAXX 29181 02151 17466 83603 11074 21081 39520 49857 52008 60022 77175 333 11058 21075 60005 88/12 91006 90710 91106 90710 91203
AAXX 29181 02186 17460 83505 11061 21076 39805 49830 51011 60022 77784 333 11007 21061 60005 88/14 91008 90710 91108 90710 91205
AAXX 29181 02197 07/24 /0105 11048 21050 39798 49816 52006 60042 77177 333 11031 21048 69945 90710 91108
AAXX 29181 02207 07367 /2804 11024 21029 39148 49837 53013 60032 72487 333 11009 21030 69905 87/09 87/40 90710 91110
AAXX 29181 02219 07/50 /3002 11048 21051 39165 49825 52017 60032 77170 333 11027 21051 69905 90710 91104
AAXX 29181 02226 45984 /3104 11020 21039 39377 49825 52021 8//// 333 10005 21036
AAXX 29181 02243 07/20 /2701 11027 21027 39543 49808 52011 69912 72487 333 11027 21062 69905 90710 91103
AAXX 29181 02269 07263 /0405 10011 20011 69942 70064 333 10034 20006 60005 88/03 90710 91108
AAXX 29181 02287 07257 /0309 10000 21006 39798 49807 52005 69972 77187 333 10024 20000 69925 88/05 90710 91111
AAXX 29181 02297 07383 /0008 11017 21017 39776 49820 53012 60012 72474 333 10018 21017 69905 85/08 87/10 90710 91112
AAXX 29181 02308 07/99 /3002 11036 21056 38985 49835 53018 60012 70087 333 11012 21040 60005 90710 91107
AAXX 29181 02327 07/99 /2702 11013 21020 39393 49822 53021 60022 70070 333 10016 21014 60005 90710 91108
AAXX 29181 02355 NIL
AAXX 29181 02366 47/72 /3204 10010 20006 39788 49794 52007 751// 8//// 333 10011 21013
AAXX 29181 02407 07/99 /3004 10002 21008 39459 49822 53022 60012 70060 333 10027 21007 60005 90710 91107
AAXX 29181 02418 45484 /2903 10032 20018 39707 49835 53023 8//// 333 10054 20032 88/17
AAXX 29181 02435 45684 /2604 10013 21002 39625 49810 53019 8//// 333 10037 20013 83/49 87/57
AAXX 29181 02440 07483 /2602 10009 20003 60042 78187 333 10030 20002 69915 84/12 87/19 88/34 90710 91104
AAXX 29181 02452 07250 /2603 10027 20027 60132 76166 333 10049 20022 69945 88/03 90710 91108
AAXX 29181 02456 07244 /2602 10024 20018 39750 49792 53018 60042 78186 333 10056 20024 69925 85/05 87/09 88/12 90710 91108
AAXX 29181 02469 07/59 /2405 10036 20021 69932 78186 333 10061 20035 69905 90710 91112
AAXX 29181 02498 07464 /2216 10044 20029 39791 49807 56009 69902 76160 333 10063 20044 69905 84/17 87/34 87/50 90710 91123
AAXX 29181 02518 46/// /2615 10056 20001 333 10067 20053 90710 91122
AAXX 29181 02520 17780 82508 10052 20016 39795 49861 53019 69922 70085 333 10069 20046 60005 84/50 88/57 91011 90710 91112 90710 91209
AAXX 29181 02550 47357 /2310 10017 20017 39611 49883 51008 761// 8//// 333 10047 20009 81/09 83/10 85/13 87/16
AAXX 29181 02562 07470 82409 10034 20021 39734 49848 53007 69932 78150 333 10065 20034 69905 87/13 88/16 91013 90710 91115 90710 91210
AAXX 29181 02563 07580 /2409 10047 20019 39825 49846 57001 69922 70086 333 10070 20039 60005 83/24 88/50 90710 91116
AAXX 29181 02565 07561 /2308 10039 20001 39776 49894 57002 69902 70061 333 10058 20038 60005 88/26 90710 91119
AAXX 29181 02589 07459 /2415 10044 20027 39831 49852 55006 69922 76160 333 10064 20044 69925 88/15 90710 91125
AAXX 29181 02590 45570 /2214 10050 20002 39828 49888 56008 8//// 333 10059 20047 84/33
AAXX 29181 02618 07/59 /2408 10037 20002 39768 49930 54000 60042 70486 333 10052 20030 60005 90710 91116
AAXX 29181 02664 17672 72407 10041 21005 39886 49957 58005 69952 70085 333 10062 20040 60005 86/35 87/49 91012 90710 91113 90710 91208
AAXX 29181 02679 05973 /2415 10044 20007 39884 49928 56003 60002 333 10057 20043 60005 83/71 90710 91122
AAXX 29181 01015 46/// /1708 11008 21052 333 10006 91112
AAXX 29181 01180 11670 81105 11007 21077 39814 49871 52010 60002 70222 885// 333 10005 91110
AAXX 29181 01228 46/// /0108 10044 21029 39866 49873 53025 333 10048 91115
AAXX 29181 01340 16/// /0000 11014 21019 39006 49866 53011 60062 333 11001 91106
AAXX 29181 01425 16/// /0104 10037 21029 39843 49922 57005 60222 333 10038 91113
AAXX 29181 01450 16/// /2907 11023 21044 38730 49858 51009 69932 333 11012 91114
AAXX 29181 01327 11215 82805 10001 21009 60212 76877 8772/ 333 10008 91109
AAXX 29181 01277 16/// /0000 11018 21023 60032 333 10001 91103
AAXX 29181 01476 16/// /2608 10068 21004 39860 49866 52016 6//// 333 10079 91111
AAXX 29181 01092 46/// /0505 11027 21076 333 11013 91112
AAXX 29181 01199 11580 80904 11091 21103 39440 49915 54002 60002 70232 885// 333 11063 91111
AAXX 29181 01262 46/// /0310 10018 20004 333 10035 91117
AAXX 29181 01329 11450 82602 10036 20016 39807 49867 53013 60072 78082 888// 333 10043 91116
AAXX 29181 01393 16/// /2803 11024 21042 39054 49846 53022 6//// 333 10000 91107
AAXX 29181 01436 11475 52915 10058 21011 60032 70282 83963 333 10062 91132
AAXX 29181 01059 41588 83304 11042 21064 39925 49935 52001 70322 885// 333 11041 91105
AAXX 29181 01494 11783 42301 10036 20005 39786 49850 51019 69962 70220 81570 333 10057 91107
AAXX 29181 01265 16/// /2501 11011 21026 39287 49862 53024 69962 333 10000 91104
AAXX 29181 01375 16/// /3304 11040 21046 6//// 333 11029 91106
AAXX 29181 01440 46/// /2713 11037 21042 38610 49882 50002 333 11020 91120
AAXX 29181 01441 16/// /2403 11015 21034 38893 49865 53006 60012 333 11001 91113
AAXX 29181 01469 16/// /0000 11007 21020 39685 49855 52019 69962 333 10039 91103
AAXX 29181 01471 11687 62901 10005 21014 60002 70222 85740 333 10044 91109
AAXX 29184 64600 32960 62202 10260 20216 39439 40082 80002 333 10320 55043 58003 86080
AAXX 29184 64601 31940 02802 10260 20119 38993 48507 70400 333 10324 58007
AAXX 29184 64605 32960 00000 10235 20155 39343 40083 333 10342 58006
AAXX 29184 64610 NIL
AAXX 29184 64650 31940 21002 10290 20235 39672 40080 70400 80002 333 10350 55097 58004 82080
AAXX 29184 64654 32960 00806 10243 20118 39524 40089 333 10380 59001
AAXX 29184 64655 32960 00000 10240 20171 39437 40085 333 1//// 58004
AAXX 29184 64656 32960 20000 10274 20204 39528 40076 80002 333 10348 58003 82080
AAXX 29184 64659 NIL
AAXX 29184 64660 NIL
AAXX 29184 64662 31560 81802 10270 20201 39573 40070 71799 82903 333 10344 58001 82930 88080 94954 95874
AAXX 29184 64665 31560 70000 10280 20222 3//// 4//// 71399 8396/ 333 10340 5//// 83930 87365 94959 95879
AAXX 29181 02464 47460 /2305 10041 20024 39796 49814 53006 722// 8//// 333 10069 20041 88/10
AAXX 29181 02500 07765 /2610 10070 20017 39812 49853 51020 69932 70010 333 10071 20058 60005 81/50 90710 91115
AAXX 29181 02513 07/58 /2510 10052 20019 39894 49896 51010 60062 78186 333 10071 20045 69915 90710 91119
AAXX 29181 02615 05/80 /2413 10046 20025 39992 49997 57015 60012 333 10063 20046 60005 90710 91117
AAXX 29181 02635 05/69 /2506 10042 20019 69922 333 10063 20040 60005 90710 91112
AAXX 29181 15501 11958 30000 10001 21011 30157 40203 56008 60002 71011 80005 333 10041 21051 555 592//
AAXX 29181 15505 11325 80000 11014 21022 39824 40211 57005 60002 71022 886// 333 10008 21024 42001 555 594//
AAXX 29181 15511 12961 61801 10008 21006 30177 40218 57005 60002 86050 333 10029 21030 555 590//
AAXX 29181 15514 12968 22301 10008 21003 30161 40198 57007 60002 82050 333 10020 21004 555 592//
AAXX 29181 15530 12965 03201 10000 21030 39964 40210 56001 60002 333 10067 20000 42001 555 580//
AAXX 29181 15533 12562 80000 10031 20007 30141 40174 56003 60002 885// 333 10052 20010 41997 555 584//
AAXX 29181 15550 12968 00000 10042 20024 30168 40188 57007 60002 333 10076 20029 555 588//
AAXX 29181 15561 11450 82002 10068 20050 30198 40205 57003 60002 75152 886// 222// 00078 302// 4//00 333 10074 20040 555 58800 65499 92012 92416
AAXX 29181 15562 11462 82304 10066 20048 30130 40203 57008 69922 72052 885// 222// 2//00 333 10068 20051 555 58800 61699 92013 92417
AAXX 29181 15600 11989 42312 11038 21100 38280 48486 57008 60002 70122 84090 333 11038 21040 47006 444 46104 555 562//
AAXX 29181 15601 12970 00000 11050 21069 39574 40224 56004 60002 333 11022 21064 555 585//
AAXX 29181 15605 12766 53201 11035 21035 39349 40227 56001 60002 82530 333 11008 21064 44005 555 598//
AAXX 29181 15628 11640 80000 10008 21009 39951 40216 56005 60002 71022 885// 333 10032 21016 42006 555 588//
AAXX 29181 15642 11630 80000 10032 20030 30035 40207 57008 60002 71022 885// 333 10032 20008 555 598//
AAXX 29181 15661 12565 82302 10050 20030 30170 40206 57002 60002 885// 222// 20000 333 10064 20042 555 587// 92012 92418
AAXX 29181 15726 11982 03301 11021 21064 38237 48498 57004 60002 70111 333 10057 21034 44033 555 573//
AAXX 29181 33088 32997 82704 10028 20012 39955 40148 57008 8805/ 333 10034
AAXX 29181 33177 32597 82202 10029 20011 39924 40164 58009 889// 333 10038
AAXX 29181 33261 31696 71904 10008 21006 39988 40175 57018 71022 87500 333 10022 87635
AAXX 29181 33275 32997 01805 11015 21026 39973 40204 57015 333 10024
AAXX 29181 33301 32497 82306 10020 20001 39877 40163 57007 885// 333 10020 88614
AAXX 29181 33325 11596 82102 10013 21004 39897 40170 57010 69902 71052 885// 333 10018 88621
AAXX 29181 33377 32997 71802 10005 21020 30000 40199 57015 87030 333 10032
AAXX 29181 33415 32697 62505 10024 21003 39774 40179 57009 86500 333 10038
AAXX 29181 33429 32597 72501 10003 21003 39750 40183 57009 87500 333 10022 87630
AAXX 29181 33466 NIL
AAXX 29181 33526 31240 81902 11005 21008 39844 40194 58010 71042 886// 333 10008 88705
AAXX 29181 33562 11442 80000 10010 20002 39815 40184 57005 69942 72165 885// 333 10030 88617
AAXX 29181 33614 32970 51502 10001 21020 30103 40211 57014 83031 333 10046
AAXX 29181 33761 31396 81804 10036 20029 39966 40192 57009 71022 886// 333 10036 88707
AAXX 29181 33902 11596 81401 10036 20023 30148 40215 57011 69902 78582 889// 333 10069
AAXX 29181 33983 31996 00000 10018 20010 30185 40247 57007 71000 333 10075
AAXX 29181 34415 32997 02302 11019 21027 30144 40244 57008 333 10036
AAXX 29181 34523 NIL
AAXX 29181 34712 NIL
AAXX 29184 68298 36/// /1606 1//// 2//// 39510 4//// 52012 333 1//// 2//// 91014 555 91017
AAXX 29181 01300 41496 73614 10050 20014 49925 52029 78082 87/// 22200 02060 10808 70042 333 91116
AAXX 29181 33466 11457 82003 10026 20010 39992 40182 57015 69912 76161 885// 333 10031 86713
AAXX 29181 34523 32997 01201 11040 21059 30178 40258 57006 333 10051
AAXX 29181 34712 11/92 91703 11012 21012 30170 40259 57009 69902 75654 333 10017 93401
AAXX 29181 01400 41497 73112 10049 20034 49964 57020 78088 879// 22200 06080 10809 70047 333 91116
AAXX 29181 06447 16/// /2406 10075 20047 30025 40150 58031 60022 333 10076 91112 91207
AAXX 29181 06428 17568 /2407 10081 20050 30100 40149 58031 60022 70065 333 10084 81/27 83/59 85/62 91112 91208
AAXX 29181 06432 17/65 /2308 10077 20050 30088 40165 58028 60022 70086 333 10080 81/19 85/25 87/64 91112 91208
AAXX 29181 06458 17463 /2310 10071 20053 39999 40153 58031 60022 70086 333 10071 81/15 83/21 85/28 91114 91210
AAXX 29181 06465 17564 /2206 10075 20044 30074 40140 58034 60022 70086 333 10075 81/22 83/26 85/32 91112 91208
AAXX 29181 06496 17159 /2408 10026 20024 39480 40163 58023 60052 78176 333 10027 81/02 83/05 85/07 91113 91208
BBXX OXHY2 29183 99366 70004 41498 13105 10159 20113 40292 53002 70222 81140 22224 00162 20301 30000 40000 5//// 80132
BBXX PDHY 29183 99468 70393 41298 81814 10140 40057 55000 70282 887// 22263 04130 20406 320// 40806 5////
AAXX 29184 61974 11470 50000 10270 20241 40110 60032 70162 82842 333 10275 55000 58000 82818 83075
AAXX 29184 61986 12570 20906 10274 20249 40115 60002 82800 333 10314 59010 81820
AAXX 29184 61988 12470 30913 10257 20228 40138 60002 83802 333 10294 55076 59016 83818
AAXX 29184 61989 NIL
AAXX 29184 61990 11470 40000 10243 20227 40137 69952 70182 84800 333 10290 55071 59014 82817 83650
AAXX 29184 61995 12470 11303 10220 20205 39658 69912 81200 333 10278 55054 59014 81819
AAXX 29184 48300 31558 50000 10195 20179 39844 40163 52007 71011 82545 333 59008
AAXX 29184 48327 32960 00000 10222 20187 39809 40169 52006 333 59002
AAXX 29184 48331 NIL
AAXX 29184 48353 31956 00000 10190 20168 39858 40154 52006 71000 333 59006
AAXX 29184 48356 32960 00000 10193 20165 39963 40165 54000 333 59003
AAXX 29184 48375 32960 00000 10207 20180 39909 40138 52006 333 59008
AAXX 29184 48378 31956 10000 10224 20204 30090 40143 56006 71000 80005 333 59005
AAXX 29184 48381 32960 20603 10211 20174 39931 40152 50001 80005 333 59002
AAXX 29184 48407 NIL
AAXX 29184 48431 32962 20000 10210 20184 39930 40147 57002 80005 333 58003
AAXX 29184 48456 NIL
AAXX 29184 48480 31958 10000 10238 20193 30121 40125 57003 71000 80001 333 58005
AAXX 29184 48500 31940 30000 10247 20202 30121 40128 53000 71011 80005 333 59003
AAXX 29184 48551 01450 83102 10255 20243 30118 40126 54000 60013 71062 84877 333 58004 60016 70014
AAXX 29184 48565 31557 60808 10270 20229 30103 40113 57000 71022 82246 333 58005
AAXX 29184 48569 01558 70000 10235 20214 30091 40132 52001 60073 71062 84876 333 58014 60067 70068
AAXX 29184 48583 NIL
AAXX 29184 94500 NIL
AAXX 29184 94510 46/// /0000 10182 20136 39742 40081
AAXX 29184 94515 46/// /0105 10172 20154 39746 40087
AAXX 29184 94552 46/// /1206 10171 20130 39658 40115
AAXX 29184 94578 46/// /2107 10210 20137 30113 40124
AAXX 29184 94584 46/// /1523 10219 20179 39994 40102
AAXX 29184 94601 46/// /1814 10206 20189 30032 40049
AAXX 29184 94610 46/// /0805 10196 20150 39999 40022
AAXX 29184 94637 46/// /1310 10235 20150 39623 40037
AAXX 29184 94638 46/// /0209 10236 20135 30012 40043
AAXX 29184 94642 NIL
AAXX 29184 94643 NIL
AAXX 29184 94647 46/// /0711 10213 20082 39966 40084
AAXX 29184 94651 46/// /0907 10156 20140 30022 40098
AAXX 29184 94653 46/// /0811 10179 21062 30098 40116
AAXX 29184 94659 46/// /1407 10203 20045 39931 40122
AAXX 29184 94672 46/// /3305 10175 20085 30140 40150
AAXX 29184 94691 46/// /2306 10169 21017 39806 40126
AAXX 29184 94693 46/// /1705 10166 20079 30079 40140
AAXX 29184 94700 NIL
AAXX 29184 94703 46/// /1009 10218 20115 39991 40114
AAXX 29184 94710 46/// /0808 10212 20104 39877 40124
AAXX 29184 94729 46/// /1607 10097 20081 39315 40151
AAXX 29184 94750 46/// /3004 10145 20125 30058 40181
AAXX 29184 94767 46/// /2007 10171 20145 30171 40177
AAXX 29184 94776 46/// /1308 10179 20102 30156 40166
AAXX 29184 94791 NIL
AAXX 29184 94802 46/// /2205 10179 20154 39937 40017
AAXX 29184 94804 46/// /1117 10164 20141 30108 40145
AAXX 29184 94807 NIL
AAXX 29184 94821 46/// /1305 10104 20098 30099 40181
AAXX 29184 94842 46/// /0907 10154 20113 30096 40195
AAXX 29184 94847 NIL
AAXX 29184 94850 46/// /0000 10072 20065 30151 40197
AAXX 29184 94865 46/// /1607 10162 20137 30159 40183
AAXX 29184 94866 46/// /1908 10159 20136 30042 40181
AAXX 29184 94875 46/// /1706 10129 20108 30024 40157
AAXX 29184 94102 46/// /2514 10294 20254 30050 40059
AAXX 29184 94103 NIL
AAXX 29184 94120 46/// /3011 10290 20261 30020 40060
AAXX 29184 94122 46/// /3010 10291 20259 30053 40061
AAXX 29184 94131 46/// /3403 10249 20242 39901 40051
AAXX 29184 94132 NIL
AAXX 29184 94147 NIL
AAXX 29184 94150 46/// /0000 10248 20238 39981 40040
AAXX 29184 94151 46/// /2405 10272 20252 30019 4////
AAXX 29184 94170 46/// /3409 10269 20256 39992 40014
AAXX 29184 94200 NIL
AAXX 29184 94203 46/// /2707 10292 20246 30046 40056
AAXX 29184 94206 46/// /3406 10265 2//// 39923 40051
AAXX 29184 94207 46/// /2511 10278 30050 40058 56013
AAXX 29184 94211 NIL
AAXX 29184 94212 46/// /0802 10249 20232 39588 40050
AAXX 29184 94216 46/// /0106 10235 20225 30008 40058
AAXX 29184 94236 NIL
AAXX 29184 94238 46/// /1107 10265 20036 39633 40046
AAXX 29184 94248 NIL
AAXX 29184 94255 46/// /0907 10240 20158 39781 40036
AAXX 29184 94268 NIL
AAXX 29184 94287 46/// /1508 10228 20207 30043 40052
AAXX 29184 94290 NIL
AAXX 29184 94294 46/// /1805 10235 20207 30061 40071
AAXX 29184 94296 NIL
AAXX 29184 94298 46/// /1021 10254 30055 40061 56011
AAXX 29184 95641 NIL
AAXX 29184 94299 46/// /1817 10261 20236 30050 40060
AAXX 29184 94300 46/// /2112 10225 20157 30063 40073
AAXX 29184 94302 46/// /1907 10214 20183 30065 40071
AAXX 29184 94312 46/// /3009 10263 20243 30037 40046
AAXX 29184 94313 NIL
AAXX 29184 94317 46/// /2704 10274 20144 39454 40021
AAXX 29184 94319 46/// /1217 10220 20199 39752 40075
AAXX 29184 94324 NIL
AAXX 29184 94326 46/// /0000 10186 20003 39476 40077
AAXX 29184 94327 46/// /1506 10240 20004 39702 40066
AAXX 29184 94332 46/// /0000 10210 20171 39661 40036
AAXX 29184 94333 NIL
AAXX 29184 94341 46/// /0000 10214 20168 39823 40052
AAXX 29184 94346 46/// /0606 10220 20190 39853 40067
AAXX 29184 94363 46/// /1604 10200 20197 39883 40096
AAXX 29184 94366 NIL
AAXX 29184 94367 46/// /1505 10226 20204 30042 40083
AAXX 29184 94374 46/// /1305 10219 20202 30084 40100
AAXX 29184 94388 46/// /1314 10240 20178 30098 40103
AAXX 29184 94393 46/// /1319 10252 30068 40080 55000
AAXX 29184 94394 46/// /1320 10240 30080 40088 55001
AAXX 29184 94403 46/// /2509 10228 20180 30006 40047
AAXX 29184 94429 46/// /2510 10233 20182 39573 40023
AAXX 29184 94430 46/// /2407 10275 20140 39452 40017
AAXX 29184 94449 46/// /0106 10259 20084 39526 40040
AAXX 29184 94451 NIL
AAXX 29184 94461 46/// /0707 10287 21008 39398 40049
AAXX 29184 94462 46/// /1507 10214 20045 39534 40075
AAXX 29184 94477 NIL
AAXX 29184 94488 NIL
AAXX 29181 91929 04569 70118 10275 20233 30117 40120 51012 69962 700// 333 10278 20251 60007 90710 91124 555 60005
AAXX 29181 91958 02480 80111 10262 20229 30134 40136 50004 60001 888// 333 56899 60007 85815 88650 90710 91129 555 60005 13329 58003
AAXX 29181 91925 01470 62602 10272 20230 30081 40141 51010 60021 72586 84832 333 56299 60027 83816 90710 91114 555 69965 10917 58000
AAXX 29181 91938 01465 70517 10285 20227 30126 40128 52011 60022 715// 85802 333 10286 20257 69907 81813 83820 86076 90710 91127 555 60005 58003
AAXX 29181 91943 36/// /0713 10285 20208 30143 40145 51009 333 10290 58005= 91944 06/// /0717 10273 20211 30159 40162 51010 60012 333 10274 20248 60007 90710 91121 555 60005
AAXX 29181 91948 02581 40403 10270 20215 30095 40197 58002 60001 84201 333 56109 60007 83820 90710 91110 555 60005 10810 59002
AAXX 29181 91954 06/// /3417 10261 20245 30113 40116 51013 60131 333 60137 555 58003
AAXX 29181 91945 36/// /0214 10280 20222 30149 40154 51004
AAXX 29184 40356 NIL
AAXX 29184 40357 42960 01007 10072 20000 39585 40245 333 10155 59010 55///
AAXX 29184 40360 42960 00506 10082 20000 39606 40202 333 10168 59028 55095
AAXX 29184 40361 42960 00608 10104 21040 39435 40224 333 10182 59026 55///
AAXX 29184 40362 NIL
AAXX 29184 40373 42960 03602 10090 20000 39814 40249 333 10164 58007 55///
AAXX 29184 40375 42960 32003 10110 21030 39300 40190 83020 333 10170 59020 55090 83460
AAXX 29184 40377 42960 00705 10091 21010 39756 40255 333 10158 58000 55///
AAXX 29184 40394 42960 01804 10108 20000 39073 48537 333 10182 59021 55093 555 04410 50226
AAXX 29184 40400 42660 40603 10212 20140 30135 40163 83501 333 10260 59020 55075 83640
AAXX 29184 40401 NIL
AAXX 29184 40405 42960 00907 10130 20010 39470 40225 333 10190 59014 55///
AAXX 29184 40416 42960 03006 10130 20050 30193 40213 333 10200 58002 55///
AAXX 29184 40417 42960 02907 10122 20050 30213 40228 333 10190 58001 55///
AAXX 29184 40420 42960 02905 10109 21030 30022 40235 333 10195 58005 55///
AAXX 29184 40430 42960 30000 10190 20000 39454 40178 80001 333 10240 59003 55075 83070
AAXX 29184 40435 NIL
AAXX 29184 40437 42960 01002 10127 21040 39527 40243 333 10200 58003 55090
AAXX 29184 40439 42960 22802 10234 20150 30147 40157 82030 333 10290 58000 55083 82360
AAXX 29183 NIL
AAXX 29184 89564 45/// /1717 11021 21084 39756 49776 58032
AAXX 29184 89570 46/// /0620 11079 21112 39070 53009
AAXX 29184 89571 45/// /0211 11014 21036 39692 49720 53010
AAXX 29184 89573 NIL
AAXX 29184 89610 NIL
AAXX 29184 89611 45/// /0512 11011 21039 39805 49857 51022
AAXX 29184 89614 NIL
AAXX 29184 89615 465// 60616 11106 21132 38964 51019
AAXX 29184 89807 NIL
AAXX 29184 89809 46/// /0714 11042 21056 39402 51025
AAXX 29184 92001 NIL
AAXX 29184 92014 NIL
AAXX 29184 92044 31460 79903 10262 20250 30071 40077 5//// 703// 82202
AAXX 29184 92047 NIL
AAXX 29184 92100 NIL
AAXX 29184 94500 NIL
AAXX 29184 94510 46/// /0000 10182 20136 39742 40081
AAXX 29184 94515 46/// /0105 10172 20154 39746 40087
AAXX 29184 94552 46/// /1206 10171 20130 39658 40115
AAXX 29184 94578 46/// /2107 10210 20137 30113 40124
AAXX 29184 94584 46/// /1523 10219 20179 39994 40102
AAXX 29184 94601 46/// /1814 10206 20189 30032 40049
AAXX 29184 94610 46/// /0805 10196 20150 39999 40022
AAXX 29184 94637 46/// /1310 10235 20150 39623 40037
AAXX 29184 94638 46/// /0209 10236 20135 30012 40043
AAXX 29184 94642 NIL
AAXX 29184 94643 NIL
AAXX 29184 94647 46/// /0711 10213 20082 39966 40084
AAXX 29184 94651 46/// /0907 10156 20140 30022 40098
AAXX 29184 94653 46/// /0811 10179 21062 30098 40116
AAXX 29184 94659 46/// /1407 10203 20045 39931 40122
AAXX 29184 94672 46/// /3305 10175 20085 30140 40150
AAXX 29184 94691 46/// /2306 10169 21017 39806 40126
AAXX 29184 94693 46/// /1705 10166 20079 30079 40140
AAXX 29184 94700 NIL
AAXX 29184 94703 46/// /1009 10218 20115 39991 40114
AAXX 29184 94710 46/// /0808 10212 20104 39877 40124
AAXX 29184 94729 46/// /1607 10097 20081 39315 40151
AAXX 29184 94750 46/// /3004 10145 20125 30058 40181
AAXX 29184 94767 46/// /2007 10171 20145 30171 40177
AAXX 29184 94776 46/// /1308 10179 20102 30156 40166
AAXX 29184 94791 NIL
AAXX 29184 94802 46/// /2205 10179 20154 39937 40017
AAXX 29184 94804 46/// /1117 10164 20141 30108 40145
AAXX 29184 94807 NIL
AAXX 29184 94821 46/// /1305 10104 20098 30099 40181
AAXX 29184 94842 46/// /0907 10154 20113 30096 40195
AAXX 29184 94847 NIL
AAXX 29184 94850 46/// /0000 10072 20065 30151 40197
AAXX 29184 94865 46/// /1607 10162 20137 30159 40183
AAXX 29184 94866 46/// /1908 10159 20136 30042 40181
AAXX 29184 94875 46/// /1706 10129 20108 30024 40157
BBXX ZCBU6 29184 99347 31545 41498 61523 10190 20147 40155 53005 70211 852// 22244 00212 20504 318// 40406 5//// 80165
BBXX 2ALD3 29183 99185 31534 41/98 /0910 10240 20226 40061 58/// 76066 8//// 22244 04290 20301 80230
BBXX VNSZ 29164 99399 31456 46/// /0612 10169 20144 30165 40191 57023 22236 04176 85153
BBXX 9HA2479 29164 99321 31537 46/// /1925 10203 20140 30124 40153 57018 22214 04222 85164
BBXX VNSZ 29174 99403 31459 46/// /0414 10167 20143 30184 40210 54000 22236 04175 85152
BBXX VNAH 29174 99383 31416 46/// /1010 10161 20113 30168 40192 57016 22200 04195 85133
BBXX C6FS9 29174 99363 31367 46/// /1122 10165 20138 30133 40170 57013 22233 04184 85148
BBXX C6FS9 29164 99361 31365 46/// /1225 10165 20137 30138 40175 57014 22233 04185 85148
BBXX VROB 29164 99273 31532 46/// /1720 10222 20140 30100 40125 57009 22200 04247 85170
BBXX 9HA2479 29174 99320 31539 46/// /2024 10207 20147 30113 40142 57024 22214 04246 85169
BBXX VROB 29174 99273 31532 46/// /1719 10223 20145 30095 40120 57011 22200 04247 85173
BBXX VNSZ 29184 99407 31461 46/// /0209 10167 20144 30188 40214 52008 22236 04175 85153
BBXX mpjh9 29183 99360 31506 41598 30103 10180 20127 40183 54000 70111 82141 22244 20000 80150
BBXX VRWS3 29183 99229 31546 41497 71122 10255 20248 40079 54000 70222 8/88/ 22244 04280 20504 318// 40706 80250
BBXX VRAE2 29184 99297 31699 41397 83521 10228 20208 40012 56004 75022 886// 22273 04220 20303 335// 40404 80215
AAXX 29184 41024 42960 03604 10240 20170 30138 40158 333 10290 58001 55088
AAXX 29184 41030 42960 00000 10266 20180 39881 40152 333 10330 58003 55///
AAXX 29184 41036 42960 01502 10172 20110 38605 48555 333 10270 58005 55100 555 04410 50160
AAXX 29184 41055 42960 00906 10180 20020 38409 48556 333 10260 58006 55093 555 04410 50172
AAXX 29184 41061 42960 01208 10134 20070 39498 40218 333 10220 58000 55097
AAXX 29184 41084 42960 00000 10174 20030 38906 48556 333 10280 58008 55100 555 04410 50184
AAXX 29184 41112 41959 00000 10143 20130 37988 48556 71000 333 10253 58004 55095 555 04410 50196
AAXX 29184 41114 42960 02104 10150 20120 38019 48551 333 10276 58002 55098 555 04410 50184
AAXX 29184 41128 42960 00000 10145 20000 38873 48573 333 10264 58010 55085 555 04410 50222
AAXX 29184 41136 42960 00708 10161 20020 39380 40202 333 10264 58002 55100
AAXX 29184 41140 42560 21904 10276 20230 30161 40173 82400 333 10320 58009 55/// 82630
AAXX 29184 94102 46/// /2514 10294 20254 30050 40059
AAXX 29184 94103 NIL
AAXX 29184 94120 46/// /3011 10290 20261 30020 40060
AAXX 29184 94122 46/// /3010 10291 20259 30053 40061
AAXX 29184 94131 46/// /3403 10249 20242 39901 40051
AAXX 29184 94132 NIL
AAXX 29184 94147 NIL
AAXX 29184 94150 46/// /0000 10248 20238 39981 40040
AAXX 29184 94151 46/// /2405 10272 20252 30019 4////
AAXX 29184 94170 46/// /3409 10269 20256 39992 40014
AAXX 29184 94200 NIL
AAXX 29184 94203 46/// /2707 10292 20246 30046 40056
AAXX 29184 94206 46/// /3406 10265 2//// 39923 40051
AAXX 29184 94207 46/// /2511 10278 30050 40058 56013
AAXX 29184 94211 NIL
AAXX 29184 94212 46/// /0802 10249 20232 39588 40050
AAXX 29184 94216 46/// /0106 10235 20225 30008 40058
AAXX 29184 94236 NIL
AAXX 29184 94238 46/// /1107 10265 20036 39633 40046
AAXX 29184 94248 NIL
AAXX 29184 94255 46/// /0907 10240 20158 39781 40036
AAXX 29184 94268 NIL
AAXX 29184 94287 46/// /1508 10228 20207 30043 40052
AAXX 29184 94290 NIL
AAXX 29184 94294 46/// /1805 10235 20207 30061 40071
AAXX 29184 94296 NIL
AAXX 29184 94298 46/// /1021 10254 30055 40061 56011
AAXX 29184 95641 NIL
AAXX 29183 91502 NIL
AAXX 29183 91507 NIL
AAXX 29183 91520 31470 82715 10259 20241 40082 53001 71622 8687/ 333 56669 82814 85625 87460
AAXX 29183 91541 NIL
AAXX 29184 NIL
AAXX 29184 48310 31950 00000 10174 20169 39701 40169 52006 71000 333 59005
AAXX 29184 48325 31956 00000 10198 20185 39907 40155 52007 71000 333 59005
AAXX 29184 48329 31940 00000 10200 20182 39807 40153 52005 71000 333 59011
AAXX 29184 48352 31958 01204 10213 20176 39956 40161 52010 71000 333 59003
AAXX 29184 48357 32960 10302 10210 20160 39989 40162 57002 80001 333 58001
AAXX 29184 48380 31956 00000 10218 20199 30050 40146 50000 71000 333 59007
AAXX 29184 48383 NIL
AAXX 29184 48403 32960 00202 10210 20174 39930 40144 57002 333 59006
AAXX 29184 48405 31958 20403 10200 20176 39983 40149 57001 71000 80005 333 58002
AAXX 29184 48420 31956 40000 10239 20200 30125 40130 57002 71011 80006 333 58001
AAXX 29184 48421 31950 00000 10210 20194 30029 40145 53003 71000 333 59005
AAXX 29184 48425 31950 00000 10228 20203 30131 40141 57001 71000 333 59002
AAXX 29184 48426 31957 00000 10226 20186 30125 40138 53001 71000 333 58002
AAXX 29184 48429 32960 30203 10262 20169 30130 40137 57005 80001 333 58003
AAXX 29184 48430 31958 20905 10255 20170 30125 40132 57002 70500 80002 333 58002
AAXX 29184 48450 31956 00000 10225 20194 30100 40134 57002 71000 333 59006
AAXX 29184 48459 31957 20000 10250 20191 30117 40120 57013 71000 80005 333 59008
AAXX 29184 48465 31958 23303 10241 20194 30131 40136 52001 71011 80005 333 58005
AAXX 29184 48550 31558 63602 10263 20244 30121 40128 52003 71022 81146 333 58009
AAXX 29184 48552 11450 60000 10233 20228 30122 40128 57003 60093 71062 85806 333 58010 70085
AAXX 29184 48566 32560 71304 10255 20217 30112 40121 57002 82847 333 58007
AAXX 29184 48568 01460 80000 10260 20244 30117 40124 57002 60223 70262 8587/ 333 58009 69917 70226
AAXX 29184 41241 36/// /3202 10215 20135 30165 40203 333 0E024 10248 58014
AAXX 29184 41242 36/// /1808 10201 20126 30188 40212 333 0E021 10255 58008
AAXX 29184 41244 36/// /3205 10155 20096 39863 48413 333 0E017 10220 58006
AAXX 29184 41246 NIL
AAXX 29184 41251 32960 09902 10083 20058 38048 40189 333 10141 59013
AAXX 29184 41252 36/// /3012 10161 20086 39821 40111 333 0E016 10244 58000
AAXX 29184 41253 36/// /3502 10176 20120 39824 40209 333 0E019 10211 5////
AAXX 29184 41254 NIL
AAXX 29184 41255 36/// /2403 10194 20034 39650 40208 333 0E020 10249 58008
AAXX 29184 41256 32960 01904 10208 20133 30187 40197 333 10244 58007
AAXX 29184 41257 36/// /9902 10178 20135 39716 40207 333 0E018 10238 58006
AAXX 29184 41258 NIL
AAXX 29184 41259 36/// /2716 10036 21303 37122 40292 333 0E/// 10064 59014
AAXX 29184 41262 NIL
AAXX 29184 41263 NIL
AAXX 29184 41264 NIL
AAXX 29184 41265 36/// /1508 10194 20178 39648 40202 333 0E022 10251 58002
AAXX 29184 41267 35/// /3312 10231 20154 30178 40194 333 0E023 10249 58008
AAXX 29184 41268 36/// /0005 10230 20157 30176 48379 333 0E024 10258 58007
AAXX 29184 41270 36/70 /3508 10223 20147 30138 40149 333 0E022 10255 58005
AAXX 29184 41275 NIL
AAXX 29184 41287 NIL
AAXX 29184 41288 NIL
AAXX 29184 41290 NIL
AAXX 29184 41295 36/// /2908 10171 20068 30015 40198 333 0E018 10256 58008
AAXX 29184 41304 NIL
AAXX 29184 41312 36/// /3412 10242 20049 30156 40195 333 0E/// 10296 58011
AAXX 29184 41314 NIL
AAXX 29184 41315 NIL
AAXX 29184 41316 36/67 /0008 10231 20017 30174 40200 333 0E022 10298 58012
AAXX 29184 94893 NIL
AAXX 29184 94907 46/// /0806 10161 20151 30180 40190
AAXX 29184 94910 46/// /0909 10157 20080 39906 40152
AAXX 29184 94926 46/// /1205 10120 20101 39513 40173
AAXX 29184 94935 46/// /2603 10169 20149 30164 40191
AAXX 29184 94954 46/// /0712 10118 20108 30089 40200
AAXX 29184 94956 46/// /0305 10089 20081 30180 40207
AAXX 29184 94975 46/// /3205 10133 20108 30166 40199
AAXX 29184 94983 NIL
AAXX 29184 94995 46/// /2110 10204 20142 30094 40102
AAXX 29184 94996 46/// /3011 10205 20196 39896 40023
AAXX 29184 94997 NIL
AAXX 29184 94998 46/// /3221 10057 20048 39934 49944
AAXX 29184 95111 46/// /0000 10295 20257 30021 40057
AAXX 29184 95205 46/// /2705 10284 20238 30052 40059
AAXX 29184 95322 NIL
AAXX 29184 95448 46/// /0215 10261 20118 39470 40015
AAXX 29184 95458 46/// /0904 10228 21043 39848 40102
AAXX 29184 95480 46/// /1709 10192 21002 30053 40111
AAXX 29184 95481 46/// /1309 10253 20065 30045 40089
AAXX 29184 95482 46/// /1706 10246 20038 30018 40072
AAXX 29184 95485 46/// /2004 10224 2//// 39901 40100
AAXX 29184 95492 46/// /0706 10230 20120 39942 40093
AAXX 29184 95527 46/// /0811 10189 20133 39872 40120
AAXX 29184 95634 46/// /0303 10225 20103 39643 40033
AAXX 29184 95637 46/// /0408 10273 20105 39693 40018
AAXX 29184 95646 46/// /0712 10222 20076 39893 40076
AAXX 29184 95666 NIL
AAXX 29184 95719 46/// /1508 10127 20097 39824 40150
AAXX 29184 95762 46/// /0808 10143 20076 39690 40139
AAXX 29184 95826 NIL
AAXX 29184 95839 46/// /1305 10110 20084 30007 40164
AAXX 29184 95864 NIL
AAXX 29184 95909 NIL
AAXX 29184 95954 NIL
AAXX 29184 95966 46/// /3506 10138 20110 30006 40206
AAXX 29184 96995 NIL
AAXX 29184 96996 NIL
AAXX 29184 94299 46/// /1817 10261 20236 30050 40060
AAXX 29184 94300 46/// /2112 10225 20157 30063 40073
AAXX 29184 94302 46/// /1907 10214 20183 30065 40071
AAXX 29184 94312 46/// /3009 10263 20243 30037 40046
AAXX 29184 94313 NIL
AAXX 29184 94317 46/// /2704 10274 20144 39454 40021
AAXX 29184 94319 46/// /1217 10220 20199 39752 40075
AAXX 29184 94324 NIL
AAXX 29184 94326 46/// /0000 10186 20003 39476 40077
AAXX 29184 94327 46/// /1506 10240 20004 39702 40066
AAXX 29184 94332 46/// /0000 10210 20171 39661 40036
AAXX 29184 94333 NIL
AAXX 29184 94341 46/// /0000 10214 20168 39823 40052
AAXX 29184 94346 46/// /0606 10220 20190 39853 40067
AAXX 29184 94363 46/// /1604 10200 20197 39883 40096
AAXX 29184 94366 NIL
AAXX 29184 94367 46/// /1505 10226 20204 30042 40083
AAXX 29184 94374 46/// /1305 10219 20202 30084 40100
AAXX 29184 94388 46/// /1314 10240 20178 30098 40103
AAXX 29184 94393 46/// /1319 10252 30068 40080 55000
AAXX 29184 94394 46/// /1320 10240 30080 40088 55001
AAXX 29184 94403 46/// /2509 10228 20180 30006 40047
AAXX 29184 94429 46/// /2510 10233 20182 39573 40023
AAXX 29184 94430 46/// /2407 10275 20140 39452 40017
AAXX 29184 94449 46/// /0106 10259 20084 39526 40040
AAXX 29184 94451 NIL
AAXX 29184 94461 46/// /0707 10287 21008 39398 40049
AAXX 29184 94462 46/// /1507 10214 20045 39534 40075
AAXX 29184 94477 NIL
AAXX 29184 94488 NIL
AAXX 29184 94893 NIL
AAXX 29184 94907 46/// /0806 10161 20151 30180 40190
AAXX 29184 94910 46/// /0909 10157 20080 39906 40152
AAXX 29184 94926 46/// /1205 10120 20101 39513 40173
AAXX 29184 94935 46/// /2603 10169 20149 30164 40191
AAXX 29184 94954 46/// /0712 10118 20108 30089 40200
AAXX 29184 94956 46/// /0305 10089 20081 30180 40207
AAXX 29184 94975 46/// /3205 10133 20108 30166 40199
AAXX 29184 94983 NIL
AAXX 29184 94995 46/// /2110 10204 20142 30094 40102
AAXX 29184 94996 46/// /3011 10205 20196 39896 40023
AAXX 29184 94997 NIL
AAXX 29184 94998 46/// /3221 10057 20048 39934 49944
AAXX 29184 95111 46/// /0000 10295 20257 30021 40057
AAXX 29184 95205 46/// /2705 10284 20238 30052 40059
AAXX 29184 95322 NIL
AAXX 29184 95448 46/// /0215 10261 20118 39470 40015
AAXX 29184 95458 46/// /0904 10228 21043 39848 40102
AAXX 29184 95480 46/// /1709 10192 21002 30053 40111
AAXX 29184 95481 46/// /1309 10253 20065 30045 40089
AAXX 29184 95482 46/// /1706 10246 20038 30018 40072
AAXX 29184 95485 46/// /2004 10224 2//// 39901 40100
AAXX 29184 95492 46/// /0706 10230 20120 39942 40093
AAXX 29184 95527 46/// /0811 10189 20133 39872 40120
AAXX 29184 95634 46/// /0303 10225 20103 39643 40033
AAXX 29184 95637 46/// /0408 10273 20105 39693 40018
AAXX 29184 95646 46/// /0712 10222 20076 39893 40076
AAXX 29184 95666 NIL
AAXX 29184 95719 46/// /1508 10127 20097 39824 40150
AAXX 29184 95762 46/// /0808 10143 20076 39690 40139
AAXX 29184 95826 NIL
AAXX 29184 95839 46/// /1305 10110 20084 30007 40164
AAXX 29184 95864 NIL
AAXX 29184 95909 NIL
AAXX 29184 95954 NIL
AAXX 29184 95966 46/// /3506 10138 20110 30006 40206
AAXX 29184 96995 NIL
AAXX 29184 96996 NIL
AAXX 29184 92001 NIL
AAXX 29184 92014 NIL
AAXX 29184 92044 31460 79903 10262 20250 30071 40077 5//// 703// 82202
AAXX 29184 92047 NIL
AAXX 29184 92100 NIL
AAXX 29184 89564 45/// /1717 11021 21084 39756 49776 58032
AAXX 29184 89570 46/// /0620 11079 21112 39070 53009
AAXX 29184 89571 45/// /0211 11014 21036 39692 49720 53010
AAXX 29184 89573 NIL
AAXX 29184 89610 NIL
AAXX 29184 89611 45/// /0512 11011 21039 39805 49857 51022
AAXX 29184 89614 NIL
AAXX 29184 89615 465// 60616 11106 21132 38964 51019
AAXX 29184 89807 NIL
AAXX 29184 89809 46/// /0714 11042 21056 39402 51025
BBXX FHZI 29174 99658 31413 46/// /2213 11003 21010 39782 49793 52007 22222 05017 86006
AAXX 29184 91375 NIL
AAXX 29184 91519 NIL
AAXX 29184 91531 NIL
AAXX 29184 91532 45/// /0706 10268 20243 30078 40086 52002
AAXX 29184 91559 NIL
AAXX 29184 91611 NIL
AAXX 29184 91642 NIL
AAXX 29184 91679 NIL
AAXX 29184 91689 NIL
AAXX 29184 91756 NIL
AAXX 29184 91844 NIL
AAXX 29184 92036 NIL
AAXX 29184 93713 NIL
AAXX 29184 94310 46/// /2917 10267 20232 30037 40048 57017
AAXX 29184 95283 46/// /2204 10233 20229 30036 40043
AAXX 29184 95288 46/// /1221 10252 30029 40044 56021
AAXX 29184 95675 46/// /3305
AAXX 29184 95872 46/// /1210
AAXX 29184 95961 35/// /0307 10108 30163 40205 57003
BBXX ZCBU6 29184 99347 31545 41498 61523 10190 20147 40155 53005 70211 852// 22244 00212 20504 318// 40406 5//// 80165
BBXX 2ALD3 29183 99185 31534 41/98 /0910 10240 20226 40061 58/// 76066 8//// 22244 04290 20301 80230
BBXX VNSZ 29164 99399 31456 46/// /0612 10169 20144 30165 40191 57023 22236 04176 85153
BBXX 9HA2479 29164 99321 31537 46/// /1925 10203 20140 30124 40153 57018 22214 04222 85164
BBXX VNSZ 29174 99403 31459 46/// /0414 10167 20143 30184 40210 54000 22236 04175 85152
BBXX VNAH 29174 99383 31416 46/// /1010 10161 20113 30168 40192 57016 22200 04195 85133
BBXX C6FS9 29174 99363 31367 46/// /1122 10165 20138 30133 40170 57013 22233 04184 85148
BBXX C6FS9 29164 99361 31365 46/// /1225 10165 20137 30138 40175 57014 22233 04185 85148
BBXX VROB 29164 99273 31532 46/// /1720 10222 20140 30100 40125 57009 22200 04247 85170
BBXX 9HA2479 29174 99320 31539 46/// /2024 10207 20147 30113 40142 57024 22214 04246 85169
BBXX VROB 29174 99273 31532 46/// /1719 10223 20145 30095 40120 57011 22200 04247 85173
BBXX VNSZ 29184 99407 31461 46/// /0209 10167 20144 30188 40214 52008 22236 04175 85153
BBXX mpjh9 29183 99360 31506 41598 30103 10180 20127 40183 54000 70111 82141 22244 20000 80150
BBXX VRWS3 29183 99229 31546 41497 71122 10255 20248 40079 54000 70222 8/88/ 22244 04280 20504 318// 40706 80250
BBXX VRAE2 29184 99297 31699 41397 83521 10228 20208 40012 56004 75022 886// 22273 04220 20303 335// 40404 80215
AAXX 29181 48855 11597 82301 10202 20196 30170 40178 56002 69951 76062 888// 333 59002 83895 88697 96160
AAXX 29181 48848 32597 83202 10175 20170 30177 40185 58003 888// 333 58000 82895 88697
AAXX 29184 48302 NIL
AAXX 29184 48304 31958 00000 10168 20161 39696 40169 50006 71000 333 59013
AAXX 29184 48334 31958 00000 10195 20184 39788 40157 52005 71000 333 59008
AAXX 29184 48360 32962 00000 10200 20179 39892 40158 52008 333 59004
AAXX 29184 48372 NIL
AAXX 29184 48373 31940 20000 10218 20196 30073 40136 57002 71000 80001 333 59014
AAXX 29184 48386 NIL
AAXX 29184 48387 31940 00904 10180 20163 39183 40152 52006 71011 333 59018
AAXX 29184 48408 31959 20402 10199 20168 39986 40139 57004 71000 80001 333 58000
AAXX 29184 48415 31957 00505 10238 20174 30125 40136 52003 71000 333 59001
AAXX 29184 48433 31956 00404 10201 20177 39977 40147 57003 71000 333 58002
AAXX 29184 48437 32960 10000 10200 20176 39935 40150 57002 80001 333 58003
AAXX 29184 48440 31958 40000 10210 20186 30082 40133 57003 71000 80006 333 58004
AAXX 29184 48451 32960 00000 10215 20207 30129 40141 57000 333 58002
AAXX 29184 48454 NIL
AAXX 29184 48457 NIL
AAXX 29184 48463 NIL
AAXX 29184 48464 31957 03302 10216 20199 30110 40123 56000 71000 333 59001
AAXX 29184 48479 31958 20000 10240 20193 30070 40123 57010 71000 80005 333 58001
AAXX 29184 48520 31958 40000 10222 20210 30119 40134 51003 71011 80005 333 58011
AAXX 29184 48554 11458 80000 10234 20231 30123 40127 57003 60073 71062 8487/ 333 58013 70070
AAXX 29184 48563 32560 60000 10253 20228 30086 40122 52002 82246 333 58011
AAXX 29184 48571 01560 70000 10238 20225 30113 40125 57001 60363 72162 82876 333 58010 60167 70356
AAXX 29184 91577 06/// /0000 10235 20216 30051 40072 53003 60051 333 58009 69927
AAXX 29181 48900 32497 33302 10253 20234 30107 40117 57002 83800 333 58004 81894 83696
AAXX 29181 48917 32598 60502 10249 20220 30119 40125 57008 8121/ 222// 00278 333 58005 81895 86499
AAXX 29181 48918 11498 70503 10250 20217 30109 40120 57011 69991 72186 8591/ 222// 00247 2//// 333 58000 8289 4 88995 87499
AAXX 29181 48914 32498 70701 10260 20228 30117 40119 58004 878// 333 58002 82894 87696
AAXX 29181 48845 32798 80000 10190 20174 30183 40190 54000 885// 333 59007 88697
AAXX 29181 38141 11598 83207 11019 21068 30127 40292 52023 69900 885// 333 10012
AAXX 29181 38149 42998 02601 11013 21057 30215 40294 52017 333 10055
AAXX 29181 38178 129// 02504 11004 21112 39974 40268 52012 60032 333 10029
AAXX 29181 38262 126// 52505 11008 21043 30192 40276 52015 69900 85500 333 10055
AAXX 29181 38264 12998 02603 11011 21047 30204 40301 52022 69960 333 10056
AAXX 29181 38396 12697 32603 11011 21046 30184 40314 52025 69902 83500 333 10075 83649
AAXX 29181 38403 429// 00202 11005 21064 30135 40260 52008 6998/ 333 10049
AAXX 29181 38413 429// 32701 10010 21067 39969 40267 52021 83030 333 10075
AAXX 29181 38457 32597 70000 10024 21003 39681 40281 52006 87500 333 10038
AAXX 29181 38462 415// 80000 11025 21034 38814 48541 58006 6001/ 77077 887// 333 11008
AAXX 29181 38565 326// 81802 10044 20002 39697 40290 52016 885// 333 10083
AAXX 29181 38579 325// 72404 10056 21047 39857 40280 52002 87900 333 10085
AAXX 29181 38583 32697 81801 10031 21004 39955 40284 52005 83541 333 10060
AAXX 29181 38611 NIL
AAXX 29181 38618 329// 81501 11006 21006 39587 40300 52001 8807/ 333 10033
AAXX 29181 38683 42997 02703 10028 20001 30014 40298 52013 333 10095
AAXX 29181 38696 326// 63401 10016 21012 39421 40298 52002 85550 333 10066
AAXX 29181 38812 42997 51502 10034 20008 39834 40298 52010 83031 333 10097
AAXX 29181 38927 31959 00802 10017 20001 39917 40306 52008 71000 333 10113
AAXX 29181 48852 31596 73401 10192 20189 30168 40178 58004 71022 878// 333 58000 83895 87697
AAXX 29181 48919 11498 70512 10260 20246 30080 40102 58010 69921 72582 8291/ 22200 02260 333 59002 81894 8399 5 87499
AAXX 29181 48916 32698 70000 10259 20228 30077 40124 58002 875// 333 58004 87696
AAXX 29181 48840 32498 80201 10191 20169 30186 40192 52009 888// 333 58001 83894 88696
AAXX 29184 48307 31950 00000 10188 20175 39773 40161 51004 71000 333 59010
AAXX 29184 48324 31930 00902 10194 20181 39932 40157 52004 71000 333 59007
AAXX 29184 48333 31950 00000 10200 20184 39855 40163 52009 71000 333 59009
AAXX 29184 48350 31958 00000 10180 20167 39849 40157 52003 71000 333 59006
AAXX 29184 48355 32960 00000 10180 20163 39941 40167 51007 333 58000
AAXX 29184 48358 31957 10000 10175 20163 39985 40166 57002 71000 80001 333 58001
AAXX 29184 48384 31958 00000 10200 20179 39961 40156 51012 71000 333 58000
AAXX 29184 48401 31958 20000 10210 20186 30041 40151 52001 71000 80005 333 58002
AAXX 29184 48404 32960 00606 10195 20179 39968 40150 56001 333 58003
AAXX 29184 48409 32960 20302 10215 20169 39994 40144 52004 80001 333 58005
AAXX 29184 48419 31958 40000 10250 20214 30127 40135 51000 71011 80005 333 58002
AAXX 29184 48427 31950 00000 10197 20186 30128 40136 57002 71000 333 59002
AAXX 29184 48435 32960 11008 10220 20153 39700 40142 58002 80001 333 59006
AAXX 29184 48453 32960 30000 10243 20209 30126 40129 57004 80005 333 58002
AAXX 29184 48458 32960 00000 10204 20185 30067 40149 57002 333 58002
AAXX 29184 48474 32960 50000 10223 20185 30010 40135 57001 80006 333 58000
AAXX 29184 48481 31958 00203 10222 20194 30102 40130 57005 71000 333 58007
AAXX 29184 48555 01556 20000 10235 20224 30106 40149 55009 60033 71060 82105 333 59003 60015 70025
AAXX 29184 48556 32560 60000 10245 20235 30110 40127 52003 81106 333 58010
AAXX 29184 48557 NIL
AAXX 29184 48560 01540 30000 10247 20237 30111 40116 56010 60343 71060 81102 333 58003 60017 70338
AAXX 29184 48574 NIL
AAXX 29184 48581 NIL
AAXX 29184 40550 35/70 /3203 10077 21050 40239 52009 333 55300 00000 10269 20000 30000 40955 51223 60000 55407 40000 90069 90401 91005 91113 91207 91303
AAXX 29184 40551 36/// /2510 10079 21056 333 90400 91011 91115 91211 91309
AAXX 29184 40552 35/70 /3013 10091 21065 40240 51007 333 55300 90069 90400 91013 91117 91213 91311
AAXX 29184 40553 35/68 /3006 10082 21050 40238 51010 333 55300 90069 90401 91007 91115 91213 91307
AAXX 29184 40568 36/// /2807 10095 20014 333 90400 91009 91115 91211 91309
AAXX 29184 40569 NIL
AAXX 29184 40570 35/70 /3205 10076 21079 40256 51015 333 55300 90069 90400 91005 91115 91211 91307
AAXX 29184 40571 NIL
AAXX 29184 40572 NIL
AAXX 29184 40573 36/// /2808 10068 21076 333 90401 91009 91115 91211 91309
AAXX 29184 40580 36/// /2804 10131 21022 333 553// 00000 10314 20000 30000 40952 51266 60000 55407 40000 90401 91005 91113 91205 91303
AAXX 29184 40581 36/// /2802 10141 21001 333 90401 91005 91111 91205 91301
AAXX 29184 40582 31957 02805 10081 21057 40240 52011 70500 333 55300 00000 10257 20000 30000 41002 51258 60000 55407 40000 90400 91005 91117 91211 91307
AAXX 29184 40583 NIL
AAXX 29184 40585 36/// /2811 10143 20035 222// 1//// 3//// 4//// 70/// 333 90401 91015 91115 91211 91307
AAXX 29184 40586 36/// /2705 10111 21067 333 90400 91007 91111 91205 91303
AAXX 29184 40587 36/// /2804 10078 21067 333 553// 00000 10250 20000 30000 40949 51199 60000 55407 40000 90400 91003 91115 91209 91307
AAXX 29184 40588 35/70 /3207 10109 20029 40234 51010 333 55300 90069 90401 91009 91113 91211 91307
AAXX 29184 40589 NIL
AAXX 29184 40590 36/// /2906 10071 21069 333 90400 91007 91117 91213 91309
AAXX 29184 40591 NIL
AAXX 29184 40592 35/70 /2903 10078 21025 40244 51012 333 55300 00000 10275 20000 30000 40958 51233 60000 55407 40000 90069 90401 91003 91115 91209 91303
AAXX 29184 40593 36/// /3108 10134 21013 333 90400 91011 91117 91213 91309
AAXX 29184 40594 36/// /2805 10098 20000 333 90400 91007 91113 91209 91305
AAXX 29184 40596 46/// /3212 10168 20041 333 90400 91017 91117 91213 91309
AAXX 29183 91502 NIL
AAXX 29183 91507 NIL
AAXX 29183 91520 31470 82715 10259 20241 40082 53001 71622 8687/ 333 56669 82814 85625 87460
AAXX 29183 91541 NIL
AAXX 29181 37395 32997 00919 10110 21014 30085 40225 57017 333 10116 91125
AAXX 29181 37409 32598 20922 11007 21027 38841 48556 52003 82540 333 10048 95090
AAXX 29181 37432 32997 00000 11025 21051 39049 48566 52015 333 10030
AAXX 29181 37514 32996 00000 11037 21062 39110 40316 58001 333 10052
AAXX 29181 37545 325// 71604 10054 21001 39799 40324 52013 87400 333 10104
AAXX 29181 37621 325// 80000 10027 21039 39668 40328 52011 885// 333 10102
AAXX 29181 37484 NIL
BBXX PCKU 29180 99002 11192 41/98 61905 10278 20244 40110 56012 7//00 8//// 22243 04289 20302 80253
BBXX AVMI 29183 99330 31517 41398 21017 10182 20/// 40248 56004 70003 82010 22200 00196
AAXX 29181 33466 11457 82003 10026 20010 39992 40182 57015 69912 76161 885// 333 10031 86713
AAXX 29181 34523 32997 01201 11040 21059 30178 40258 57006 333 10051
AAXX 29181 34712 11/92 91703 11012 21012 30170 40259 57009 69902 75654 333 10017 93401
AAXX 29181 50468 NIL
AAXX 29181 50953 NIL
AAXX 29181 51076 NIL
AAXX 29181 51243 NIL
AAXX 29181 51288 32980 21403 11089 21172 38378 57007 80002 333 00102 11051
AAXX 29181 51463 NIL
AAXX 29181 51573 NIL
AAXX 29181 51709 NIL
AAXX 29181 52533 NIL
AAXX 29181 52652 NIL
AAXX 29181 52866 NIL
AAXX 29181 52983 NIL
AAXX 29181 53463 NIL
AAXX 29181 53513 NIL
AAXX 29181 53588 NIL
AAXX 29181 53772 NIL
AAXX 29181 53915 NIL
AAXX 29181 54218 NIL
AAXX 29181 54337 NIL
AAXX 29181 54342 NIL
AAXX 29181 54401 NIL
AAXX 29181 54471 NIL
AAXX 29181 54497 NIL
AAXX 29181 54511 NIL
AAXX 29181 54823 NIL
AAXX 29181 56080 NIL
AAXX 29181 56096 NIL
AAXX 29181 57083 NIL
AAXX 29184 78988 01475 31114 10287 20226 30127 40137 57021 69931 70181 83200 333 59001 69917 83818
AAXX 29184 78873 02570 60811 10271 20226 30132 40177 57018 60001 85230 333 58001 60007 85820
AAXX 29184 78990 01/75 /0100 10296 20242 30139 57019 69941 70000 333 59002 60007
BBXX 44039 29181 99411 70727 46/// /2704 11014 21100 40158 91800 22200 00084 10401 70006 333 91206
BBXX 44060 29181 99413 70721 46/// ///07 11011 40146 91800 22200 00088 333 91210 555 11072 22077
AAXX 29181 37575 42696 81802 10057 21020 39741 40340 52020 885// 333 10090
AAXX 29181 37675 41495 80000 10012 20007 39660 40341 52013 70254 8802/ 333 10048 555 53005
AAXX 29181 37735 42999 00000 10012 21008 39871 40259 52011 333 10090
AAXX 29181 37749 42598 82701 10068 20027 30257 40376 52013 885// 333 10096 555 53004
AAXX 29181 37756 42597 82701 10013 21007 39460 40390 52009 887// 555 10039
AAXX 29181 37864 32997 60000 10047 20026 40344 52010 86400 333 10074
AAXX 29181 37985 41596 50000 10067 20058 30345 40330 52004 70162 85540 333 10099
BBXX 44139 29181 99442 70571 46/// /2416 10075 49986 52001 22200 00075 11312 70061 333 91219
AAXX 29184 78988 01475 31114 10287 20226 30127 40137 57021 69931 70181 83200 333 59001 69917 83818
AAXX 29184 78873 02570 60811 10271 20226 30132 40177 57018 60001 85230 333 58001 60007 85820
AAXX 29184 78990 01/75 /0100 10296 20242 30139 57019 69941 70000 333 59002 60007
AAXX 29184 78988 01475 31114 10287 20226 30127 40137 57021 69931 70181 83200 333 59001 69917 83818
AAXX 29184 78873 02570 60811 10271 20226 30132 40177 57018 60001 85230 333 58001 60007 85820
AAXX 29184 78990 01/75 /0100 10296 20242 30139 57019 69941 70000 333 59002 60007
AAXX 29184 48331 32960 00000 10199 20184 39923 40158 52007 333 59008
BBXX 44139 29181 99442 70571 46/// /2416 10075 49986 52001 22200 00075 11312 70061 333 91219
AAXX 29184 48557 32560 40000 10238 20234 30078 40113 57021 82101 333 59008
AAXX 29183 91802 NIL
AAXX 29183 91809 NIL
AAXX 29183 91831 36/// /3407 10240 20232 40077 51006 555 2////
AAXX 29183 91841 36/// /0000 10246 20227 40082 52015 555 20390
AAXX 29183 91848 36/// /1811 10231 20228 49855 52036 555 2////
AAXX 29183 91843 11296 83011 10243 20233 40073 52016 60107 78088 8677/ 333 5679/ 84704 86810 88457
BBXX A8EH3 29183 99506 11616 41/98 70419 11015 40200 51030 70322 87/// 22264 04020 29904 399// 4//04
BBXX 46035 29181 99571 71778 46/// /3407 1//// 40144 52004 91750 22200 10703 20602 300// 40702 70017 333 91210 555 11074 22079 31717 43610 61749 335076 345076 343076 349077 341070 344081 83409 91724
BBXX DGBE 29183 99502 71706 41/98 43603 10004 21006 40152 54000 70371 8//// 22224 00050 2//// 80000
BBXX DHEB 29183 99544 71667 41/98 33012 11040 40041 52012 73870 83/// 22264 04030 2//// 3//// 4//// 5////
BBXX KEY796 29183 99571 71703 41/96 82913 11083 21106 40080 53/// 771// 8//// 222// 01017 2//// 3//// 4//// 5//// 6//// 8//// ICE /////
BBXX NWS0003 29184 99539 71665 43/// /0000 11049 21069 40095 5//// 7//// 8//// 222// 0//// 2//// 3//// 4//// 5//// 6//// 8//// ICE /////
BBXX WDB9950 29183 99543 71755 41398 63210 11040 21044 40150 51010 77472 8679/ 22264 00040 2//// 3//// 4//// 5//// 6//// 81040 ICE /////
AAXX 29181 40009 32970 00000 10029 20005 40227 52008 333 10136
AAXX 29181 40016 NIL
AAXX 29181 40022 32965 00301 10098 20050 40203 51002 333 10172
AAXX 29181 40030 31/06 90000 10052 20047 40240 52005 74044 89/// 333 10060 89/02
AAXX 29181 40039 31903 00000 10010 20005 40240 51005 74340
AAXX 29181 40066 32970 00504 10083 20005 40203 53003 333 10168
AAXX 29181 40072 32970 00000 10064 20015 40260 53004 333 10132
AAXX 29181 40083 32970 01401 10020 21035 48506 52007 333 10100
AAXX 29181 40001 32970 00403 10022 21016 40255 53006 333 10130
AAXX 29181 40007 31901 02802 10013 20012 40255 51009 74340 333 10104
AAXX 29181 40025 32960 00502 10072 20045 40211 52006 333 10166
AAXX 29181 40045 32970 00000 10026 21033 40256 53008 333 10125
AAXX 29181 40061 32970 03601 10064 21021 40240 52014 333 10126
AAXX 29181 40080 32965 00000 10038 21043 39499 40240 52009 333 10142
AAXX 29181 40087 NIL
AAXX 29181 40095 NIL
AAXX 29184 06670 32680 82409 10029 21029 39751 40277 57/// 885// 333 10047 31/// 55300 20000 82643 87656 90766 93100 91117 91210
AAXX 29184 06700 31684 72103 10030 21021 39799 40308 55/// 71511 878// 333 10073 31/// 55300 20000 82835 86650 90766 93100 91115 91207
AAXX 29184 06680 01/01 92527 11118 21118 37494 47014 57/// 60102 77374 333 11078 47314 55300 20000 69915 90766 93110 91149 91228
AAXX 29184 06990 31450 61603 10026 21041 39716 40279 50/// 71022 866// 333 10050 42/// 55300 20000 86719 91118 91207
AAXX 29184 06760 32965 03306 10075 21125 39772 40224 52/// 333 10088 30/// 55300 20000 90766 93100 91114 91208
AAXX 29184 06720 32970 02804 10019 21035 39706 40301 52/// 333 10053 43003 55300 20000 90766 93100 91122 91215
AAXX 29184 65352 31950 70000 10303 20068 3//// 4//// 70522 80002 333 10342 5//// 87076
AAXX 29184 65361 32960 70000 10283 20088 3//// 4//// 80002 333 10350 5//// 87076
AAXX 29184 65376 31920 70000 10295 20143 39654 40111 70522 80002 333 10320 58005 87073
AAXX 29184 65387 32456 72208 10282 20258 30073 40091 81242 333 10326 59003 81813 87073
AAXX 29184 06610 32675 72006 10023 21025 39699 40302 53/// 8387/ 333 10058 31/// 55300 20000 82834 83647 85363 90766 93100 91115 91207
AAXX 29184 89002 42699 71912 11001 21029 39777 49830 57010 875//
AAXX 29181 10361 12683 72206 10054 21004 30003 40107 58028 69902 875// 333 10067 20047 31003 55300 20000 30000 87644 91114
AAXX 29184 04030 21470 72203 11026 21039 40046 52016 72682 84976 333 10004 21026 60028 555 3//12 82912 84838 86756
AAXX 29181 26115 01462 82316 10060 20024 39847 49855 57018 69902 72052 886// 333 10063 20057 60007 88717 91022 91123 555 1/005 20057 3/004 50059
AAXX 29181 26058 01569 81905 10040 20027 39910 49917 57013 69982 72582 889// 333 10043 20026 69957 88924 91011 91112 555 1/002 20026 3/001 50026 52002
AAXX 29181 26045 27482 72106 10045 20020 39890 49893 57011 72280 87/// 333 10052 20028 60007 87/19 91012 91114 555 1/002 20028 3/001 50032
AAXX 29181 48870 11498 83203 10217 20190 30146 40153 58006 60011 70262 888// 333 59010 83894 88696
AAXX 29181 48887 32798 70201 10246 20206 30116 40122 58005 82508 333 58006 82697 86299
AAXX 29181 48877 32598 73604 10236 20202 30142 40147 58005 878// 333 58001 82895 87697
AAXX 29184 41288 36/// ///// 10223 20187 30173 40197 333 0E022 10253 58008
AAXX 29184 41314 36/// /3104 10163 20006 39700 40255 333 0E015 10228 58008
AAXX 29181 48892 32598 60505 10264 20247 30111 40116 57008 82208 333 59003 82895 86299
AAXX 29181 48803 32497 80000 10167 20157 30094 40210 52010 888// 333 58004 85894 88696
AAXX 29181 57461 31958 81401 10060 20010 30171 40339 52002 71000 8807/ 333 10092
AAXX 29181 58150 32963 03403 10005 21041 30346 40350 57002 333 10072
AAXX 29181 58238 32965 70404 10037 21023 30296 40342 52002 8704/ 333 10104
AAXX 29181 58457 11730 80403 10070 20027 30272 40326 52011 69901 71060 885// 333 10100
AAXX 29181 58606 11730 80403 10078 20054 30241 40301 52005 69921 71060 885// 333 10093
AAXX 29181 58752 11640 83201 10093 20071 30242 40289 57001 60031 76066 885// 333 10131
AAXX 29181 58847 11460 83402 10109 20095 30163 40267 54000 60051 76066 885// 333 10147
AAXX 29181 59316 32565 70702 10161 20123 30225 40230 52004 874// 333 10213
AAXX 29181 59644 32560 83603 10136 20091 30211 40228 52009 888// 333 10230
AAXX 29181 59758 32466 70404 10181 20166 30128 40204 52007 871// 333 10229
AAXX 29184 91753 02480 10000 10240 20237 30048 40080 53014 60002 81801 333 10268 20232 60007 81813 90710 91103 555 60005
AAXX 29184 91754 01480 1//// 10254 20236 30040 40081 53016 60001 702// 81200 333 60007 81818 555 60005
AAXX 29181 01257 16/// /2403 10009 21015 39701 49861 53021 60012 333 10016 91107
AAXX 29181 01488 16/// /3601 11012 21018 60002 333 10027 4/007 91105
AAXX 29184 71243 16/// /2721 10078 21071 38953 40005 53051 60001 333 10078 20038 70000
AAXX 29184 71246 17/// /2306 11013 21030 39292 49952 53022 69931 7//4/ 333 11013 21108 70003
AAXX 29184 71361 16/// /1202 11204 21228 39779 49994 50005 60001 333 11204 21287 70000
AAXX 29184 71362 16/// /3501 11199 21222 39717 49979 51008 60001 333 11178 21231 70011
AAXX 29184 71364 16/// /0709 11185 21207 39861 49997 53002 60001 333 11184 21254 70000
AAXX 29184 71365 16/// /1201 11207 21227 39774 49993 50002 60001 333 11206 21278 70000 555 10010
AAXX 29184 71372 16/// /2611 11139 21172 60001 333 11139 21171 70023
AAXX 29184 71381 46/// /2919 11168 21209 6///1 333 11156 21202 70000
AAXX 29184 71386 16/// /2714 11142 21176 39700 49907 53017 60001 333 11072 21143 70060
AAXX 29184 71393 16/// ///// 10029 21019 38759 40013 51062 60001 333 10062 21040 70000
AAXX 29184 71614 16/// /2812 11134 21200 30064 40132 56006 60001 333 11134 21174 70017 555 10020
AAXX 29184 71622 17/// ///// 11008 21023 39742 40086 58034 60021 7//4/ 333 11008 21154 70021
AAXX 29184 71732 16/// /1804 11163 21183 60001 333 11163 21236 70000
AAXX 29184 71736 46/// ///// 10045 21059 6///1 333 10053 20029 7////
AAXX 29184 71742 46/// /2121 10018 21006 39643 49825 56011 6///1 333 10038 21009 7////
AAXX 29184 71744 16/// /2617 11091 21160 39864 49905 53013 60001 333 11010 21104 70015
AAXX 29184 71746 16/// /1710 10005 21005 39832 40055 58042 60001 333 10006 21094 70000 555 10010
AAXX 29184 71250 16/// /2316 10043 20000 39768 49901 53005 60001 333 10054 20008 70016
AAXX 29184 71270 16/// /1411 11066 21096 39886 40117 58024 60001 333 11065 21155 70000
AAXX 29184 71288 16/// /0406 11383 21423 30101 40128 50005 60001 333 11378 21397 70000
AAXX 29184 71295 16/// /1301 11093 21116 39607 40060 58002 60001 333 11093 21168 70003
AAXX 29184 71299 46/// /0000 11216 21243 39847 40149 58017 6///1 333 11195 21358 7////
AAXX 29184 71889 12874 51808 10068 21004 39712 40126 51040 60001 82071 333 10105 20051 70004
AAXX 29184 71110 17/// /2433 10032 21008 39836 49895 53005 69961 7//4/ 333 10064 21001 70028
AAXX 29184 71133 46/// /1307 11045 21058 39258 49960 53008 6///1 333 11042 21092 7//// 555 10020
AAXX 29184 71141 16/// /0504 11364 21402 30111 40139 51007 60001 333 11361 21388 70000
AAXX 29184 71311 16/// /2422 11051 21117 39905 49929 53006 60001 333 10017 21077 70105
AAXX 29184 71317 17/// /2623 11042 21071 39878 49924 55000 69981 7//4/ 333 10026 21070 70083 555 10020
AAXX 29184 71321 16/// /3405 11217 21265 30149 40194 56015 60001 333 11196 21293 70000
AAXX 29184 71322 16/// /1815 11134 21147 30020 40033 50000 60001 333 11112 21165 70014 555 10010
AAXX 29184 71920 16/// /2735 10007 21040 30024 40030 53014 60001 333 10027 20001 70027
AAXX 29184 71151 16/// /1601 11080 21096 39543 40054 50001 60001 333 11079 21121 70000
AAXX 29184 71155 17/// ///// 10019 20019 69971 7//4/ 333 10019 21091 70007
AAXX 29184 71156 17/// /2606 11008 21049 38922 40016 51033 69931 7//4/ 333 10007 21101 70003
AAXX 29184 71159 16/// /2419 11037 21062 39766 49836 53021 60001 333 10063 21037 70008
AAXX 29184 71160 16/// /0102 11149 21168 39796 40013 51008 60001 333 11149 21160 70000
AAXX 29184 71162 16/// /0509 11153 21172 39780 49993 50001 60001 333 11153 21187 70000
AAXX 29184 71164 46/// /1104 11179 21201 39928 40011 53005 6///1 333 11176 21313 7////
AAXX 29184 71165 46/// ///00 11258 21286 39740 40037 52008 6///1 333 11250 21329 7////
AAXX 29184 71166 46/// /2602 11180 21198 39352 49975 52012 6///1 333 11180 21248 7////
AAXX 29184 71170 16/// /0802 11098 21107 60001 333 11087 21177 70000
AAXX 29184 71199 46/// /0000 11209 21229 39134 49983 53029 6///1 333 11130 21240 7//// 555 10020
AAXX 29184 71807 16/// /2434 10038 20008 39895 49913 53009 60001 333 10070 20008 70019
AAXX 29184 71074 16/// ///11 11329 21362 30103 40185 51006 60001 333 11327 21347 70000 555 10010
AAXX 29184 71087 46/// /3602 11205 21231 39796 40007 53009 6///1 333 11205 21297 7////
AAXX 29184 71443 16/// /2603 11077 21116 39603 40020 58012 60001 333 11067 21128 70000
AAXX 29184 71444 16/// /1201 11103 21111 39261 40032 58016 60001 333 11103 21197 70004
AAXX 29184 71472 16/// /1409 10029 21030 60001 333 10043 20015 70030
AAXX 29184 71510 17/// /0506 11022 21029 39234 49934 53005 69961 7//4/ 333 11020 21089 70006
AAXX 29184 71552 46/// /1706 11056 21079 6///1 333 11052 21087 7////
AAXX 29184 71556 16/// /1310 11023 21035 39361 49961 58011 60001 333 11023 21067 70008 555 10020
AAXX 29184 71571 16/// /2412 11012 21074 38794 49974 51028 60001 333 10002 21070 70000
AAXX 29184 71577 46/// /1704 11064 21073 6///1 333 11064 21084 7////
AAXX 29184 71581 16/// /0000 11130 21193 39635 40141 58015 60001 333 11129 70000
AAXX 29184 71585 16/// /1702 11053 21064 39488 49943 51017 60001 333 21117 7////
AAXX 29184 71599 16/// /2705 11026 21080 39789 49991 53008 60001 333 11008 21052 70014
AAXX 29184 71837 16/// ///// 10049 60001 333 10066 20018 70000
AAXX 29184 71839 16/// ///// 10057 60001 333 10073 20024 70003
AAXX 29184 71840 46/// /1403 11092 21098 6///1 333 11072 21110 7////
AAXX 29184 71849 16/// /1805 11070 21077 39758 40060 56008 60001 333 11067 21118 70000
AAXX 29184 71719 17/// /2630 11102 21111 39835 49841 53014 69991 7//4/ 333 10007 21104 70018
AAXX 29184 71832 16/// /1507 11155 21223 39775 40121 58018 60001 333 11153 21361 70000
AAXX 29184 71858 16/// /2101 11055 21087 39749 40031 58003 60001 333 11054 21104 70000
AAXX 29184 71861 16/// /1310 11049 21069 39266 49991 58014 60001 333 11049 21099 70000
AAXX 29184 71083 11574 71418 11159 21190 30019 40062 58003 69901 73677 86570 333 11140 21299 48057 70024 90917
AAXX 29184 71450 16/// /0910 11013 21019 39226 49938 58010 60001 333 11012 21124 70023
AAXX 29184 71453 16/// /2720 10075 21012 39034 49922 52016 60001 333 10083 20025 70000
AAXX 29184 71454 16/// /1605 11049 21060 39293 49982 58002 60001 333 11049 21090 70000
AAXX 29184 71470 16/// /0708 11283 21312 39418 40067 52009 60001 333 11236 21283 70000
AAXX 29184 71476 17/// /2008 30063 53014 60031 7//4/ 333 70102
AAXX 29184 71480 16/// /1501 11184 21208 39859 49983 53015 60001 333 11180 21279 70000
AAXX 29184 71484 16/// /1903 10035 21007 30052 40070 52008 60001 333 10055 20027 70000
AAXX 29184 71489 16/// /0904 11049 21055 39160 49956 51021 60001 333 11049 21088 70000
AAXX 29184 71492 46/// ///29 11231 21262 39312 40024 53002 6///1 333 11203 21240 7////
AAXX 29184 71667 17/// /3502 11041 21057 39771 40018 58008 60021 7//4/ 333 11037 21156 70060 555 10100
AAXX 29184 71669 16/// /2703 10028 21083 38424 40013 53060 60001 333 10052 20014 70000
AAXX 29184 71687 16/// /1705 10021 20009 39353 40132 53013 60001 333 10041 20001 70142
AAXX 29184 71758 16/// /2326 11018 21069 39806 49881 55004 60001 333 10062 21021 70270
AAXX 29184 71783 17/// /1502 10062 20040 30101 40175 51013 69961 7//4/ 333 10088 20048 70118
AAXX 29184 71015 16/// ///// 10035 60001 333 10057 20008 70000
AAXX 29184 71017 16/// /2905 11371 21409 30152 40168 51009 60001 333 11345 21379 70000
AAXX 29184 71020 46/// /2202 11224 21242 39705 49967 51002 6///1 333 11198 21256 7//// 555 10020
AAXX 29184 71021 46/// /0000 11185 21206 39609 49968 51003 6///1 333 11182 21287 7//// 555 10010
AAXX 29184 71063 16/// /2505 11167 21211 30056 40162 58008 60001 333 11166 21207 70000 555 10020
AAXX 29184 71501 16/// /1110 11221 21244 30013 40015 52001 60001 333 11211 21286 70000
AAXX 29184 71516 17/// /2408 10035 20013 60011 7//4/ 333 10035 21060 70020
AAXX 29184 71885 17/// ///// 10056 69931 7//4/ 333 10068 20027 70003
AAXX 29184 71954 46/// /1401 11130 21141 39648 40031 58002 6///1 333 11096 21193 7////
AAXX 29184 71956 16/// /0914 11084 21102 39849 40087 58021 60001 333 11083 21180 70000 555 10010
AAXX 29184 71959 17/// ///// 11036 21071 69971 7//4/ 333 10065 21038 70133
AAXX 29184 71977 46/// /0000 11189 21189 39252 49977 53005 6///1 333 11182 21316 7//// 555 10010
AAXX 29184 71978 46/// /0603 11228 21250 39669 49993 54000 6///1 333 11228 21326 7//// 555 10010
AAXX 29184 71989 16/// /0205 11317 21349 30221 40238 53006 60001 333 11281 21321 70000
AAXX 29184 71402 46/// /2212 10013 21001 39684 49795 56007 6///1 333 10040 21007 7////
AAXX 29184 71407 16/// /0801 11375 21419 30115 40137 58005 60001 333 11373 21398 70000
AAXX 29184 71924 11674 61107 11262 21297 30071 40165 52006 69921 77177 86530 333 11258 21297 48038 70004 90983
AAXX 29181 51076 32980 03401 11160 21193 39416 40361 57009 333 00001 11066
AAXX 29181 51463 32975 30701 11078 21138 39175 40333 57015 80002 333 05102 11034
AAXX 29181 51573 32975 50000 11075 21154 30354 40401 52003 80002 333 00403 11044
AAXX 29181 52983 32962 02201 11086 21111 38144 54000 333 00001 10046
AAXX 29181 57265 31956 80000 10030 20009 30235 40350 57008 71000 8807/ 333 10076
AAXX 29181 57494 32962 83602 10030 20021 30300 40331 52009 8807/ 333 10085
AAXX 29181 58362 32780 73202 10057 20009 30318 40326 52004 875// 333 10117
AAXX 29181 59134 11763 70204 10144 20088 30076 40244 52003 69901 70060 875// 333 10191
AAXX 29181 59287 32661 83605 10142 20088 30148 40233 52012 885// 333 10240
AAXX 29181 59431 11456 80402 10110 20094 30107 40256 52008 69941 76060 887// 333 10156
AAXX 29181 50468 32970 00000 11245 21277 30086 40315 57006 333 11131
AAXX 29181 52866 32970 00000 11121 21185 37729 52004 333 05101 10059
AAXX 29181 53463 32970 00701 11101 21145 39051 40358 57005 333 00001 11011
AAXX 29181 53513 32962 03401 11131 21151 39060 40351 57009 333 05101 11024
AAXX 29181 54218 32970 00000 11178 21224 39515 40383 57011 333 11077
AAXX 29181 54337 32960 00401 11158 21232 30293 40384 57004 333 11071
AAXX 29181 54342 32962 00701 11200 21228 30311 40379 57006 333 11118
AAXX 29181 54471 32960 00702 11154 21203 30375 40381 57006 333 11092
AAXX 29181 54497 32970 00205 11097 21220 30326 40343 54000 333 11036
AAXX 29181 54823 31958 83201 11009 21059 30146 40365 57001 71000 8801/ 333 10027
BBXX 41053 29181 99185 70661 46/// /0908 10268 40162 58024 91800 22200 00271 11404 70022 333 91210
AAXX 29181 50953 32965 02001 11216 21250 30184 40381 54000 333 11140
AAXX 29181 52533 32980 00701 11118 21186 38605 40385 57001 333 00402 11035
AAXX 29181 52652 32970 02501 11140 21205 38621 40388 52010 333 00551 11021
AAXX 29181 53588 32970 02507 11090 21199 37822 57006 333 11058
AAXX 29181 53772 31920 71401 11078 21100 39397 40365 57004 71000 80002 333 10016
AAXX 29181 53915 31957 22901 11062 21077 38731 40329 57005 71000 80002 333 00153 10030
AAXX 29181 54511 32765 81101 11038 21104 30328 40371 57009 885// 333 11028
AAXX 29181 56080 32980 02501 11116 21167 37164 57002 333 00154 10062
AAXX 29181 56096 32770 83202 10050 21021 39009 40269 57003 885// 333 00100 10093
AAXX 29181 57083 31920 80701 10002 21039 30227 40370 57006 71000 8807/ 333 10033
BBXX 41053 29181 99185 70661 46/// /0908 10268 40162 91750 333 91210
BBXX 41053 29181 99185 70661 46/// /0908 10268 40163 91740 333 91209
AAXX 29181 56187 11940 82901 10071 20056 39636 40295 52004 69901 76000 8807/ 333 00201 10116
AAXX 29181 56778 32965 02701 10035 20026 38140 52007 333 00157 10185
AAXX 29181 57516 31930 83201 10083 20058 39981 40299 52004 71000 8807/ 333 00300 10105
AAXX 29181 57687 31730 83203 10066 20029 30230 40317 52003 70500 885// 333 10076
AAXX 29181 57816 31657 80402 10024 21021 38862 40294 57002 71000 885// 333 00400 10048
AAXX 29181 58040 32960 00201 11046 21078 30346 40360 57002 333 10035
AAXX 29181 58102 32960 80202 10019 21014 30315 40365 52002 8802/ 333 10061
AAXX 29181 58251 31956 03603 11005 21027 30337 40342 54000 71000 333 10082
AAXX 29181 59117 11662 82502 10137 20096 30133 40239 52006 69901 76060 885// 333 10212
AAXX 29184 71807 16/// /2434 10038 20008 39895 49913 53009 60001 333 10070 20008 70019
AAXX 29184 71083 11574 71418 11159 21190 30019 40062 58003 69901 73677 86570 333 11140 21299 48057 70024 90917
AAXX 29184 71832 16/// /1507 11155 21223 39775 40121 58018 60001 333 11153 21361 70000
AAXX 29184 71858 16/// /2101 11055 21087 39749 40031 58003 60001 333 11054 21104 70000
AAXX 29184 71861 16/// /1310 11049 21069 39266 49991 58014 60001 333 11049 21099 70000
AAXX 29184 71443 16/// /2603 11077 21116 39603 40020 58012 60001 333 11067 21128 70000
AAXX 29184 71444 16/// /1201 11103 21111 39261 40032 58016 60001 333 11103 21197 70004
AAXX 29184 71472 16/// /1409 10029 21030 60001 333 10043 20015 70030
AAXX 29184 71510 17/// /0506 11022 21029 39234 49934 53005 69961 7//4/ 333 11020 21089 70006
AAXX 29184 71719 17/// /2630 11102 21111 39835 49841 53014 69991 7//4/ 333 10007 21104 70018
AAXX 29184 71889 12874 51808 10068 21004 39712 40126 51040 60001 82071 333 10105 20051 70004
AAXX 29184 71924 11674 61107 11262 21297 30071 40165 52006 69921 77177 86530 333 11258 21297 48038 70004 90983
AAXX 29184 71889 12874 51808 10068 21004 39712 40126 51040 60001 82071 333 10105 20051 70004
AAXX 29184 48574 12560 80000 10242 20236 30088 40118 57006 69903 86876 333 59003 79999
AAXX 29184 71066 11424 83410 11146 21184 39543 49966 53021 60011 77172 885// 333 11075 21146 48025 70014 90942 93102
AAXX 29184 04211 NIL
AAXX 29184 04220 07261 72203 11122 21138 30051 40105 57019 69972 77787 333 11113 21183 55300 20004 69927 81/06 83/26 87/60
AAXX 29184 04221 45584 70913 11150 21229 30073 40113 57012 333 11128 21156 81/27 87/31
AAXX 29184 04231 12689 30803 11204 21238 30043 40122 57019 6///2 835// 333 11136 21224 83640
AAXX 29184 04234 47417 80809 11143 21179 30099 40110 57022 78588 333 11118 21144 88/19
AAXX 29184 04241 47682 13313 11136 21218 30055 40097 57028 70088 333 11119 21136 81/35
AAXX 29184 04250 074// 83523 11114 21135 39960 40069 57036 69932 7//87 333 11105 21118 55300 20014 69917 85/19 88/22
AAXX 29184 04254 47414 83618 11113 21141 39956 40075 57037 77777 333 11109 21119 88/18
AAXX 29184 04260 45984 43612 11059 21191 39945 49989 57070 333 11054 21086 83/61 84/70
AAXX 29184 04270 45984 70705 11096 21169 39936 49976 57077 333 11077 21136 83/61 87/62 91120 91215
AAXX 29184 04272 05684 8//// 11062 21137 39898 49971 57076 6///2 333 11059 21092 6///7 88/47
AAXX 29184 04312 46/// ///// 11374 21424 30116 40159 52006
AAXX 29184 04320 47/48 /2811 11254 21319 30131 40148 52018 70088 333 11236 21370 91116
AAXX 29184 04339 45/84 ///// 11181 21236 30026 40122 52012 333 11163 21206 55300 20000
AAXX 29184 04360 06/// /3305 11089 21166 39925 49997 52009 6///2 333 11085 21113 55300 20000 6///7 91131 91221
AAXX 29184 04361 461// 52803 11099 21181 39946 40000 52012 333 11089 21114 81/02 85/56
AAXX 29184 04390 07413 80223 11065 21086 39911 40006 57058 60072 77174 333 11042 21065 69957 85/15 88/18 91132
AAXX 29184 71066 11424 83410 11146 21184 39543 49966 53021 60011 77172 885// 333 11075 21146 48025 70014 90942 93102
AAXX 29181 14106 11597 82001 10047 20045 30134 40204 52003 60022 76162 8472/ 333 10074 84727 84540 95090
BBXX MINFR09 2918/ 99174 11473 46/// ///// 40141 57003
AAXX 29181 37279 32594 00000 10023 20001 30078 40226 57015 333 10108
AAXX 29181 37308 329// 00000 10018 21007 39633 40302 53011 333 10090
AAXX 29181 37531 329// 21003 10030 21008 39566 40308 52008 80050 333 10105
AAXX 29181 37553 326// 82801 10032 21016 39661 40326 52008 885// 333 10078
AAXX 29181 37651 16/// ///00 11005 21021 3//// 4//// 5//// 60002 333 10071
AAXX 29181 37492 NIL
AAXX 28194 67002 32580 20604 10265 20239 30090 40124 81802 333 10324 59004 81802 92408
AAXX 28194 67009 NIL
AAXX 28194 67012 NIL
AAXX 28194 67025 NIL
AAXX 28194 67027 32580 53010 10282 20239 30086 40107 51009 83902 333 10332 81820 81920 83640 94961 95831 555 82073
AAXX 28194 67072 NIL
AAXX 28194 67073 NIL
AAXX 28194 67083 11470 70000 10196 20193 38737 48512 52016 60022 70396 878// 333 10270 81817 87620 RR 1.8MM 67095 31465 73608 10270 20247 30107 40113 52019 71511 879// 333 10316 81917 83817 86633 94966 95816
AAXX 28194 67113 NIL
AAXX 28194 67137 NIL
AAXX 28194 67157 NIL
AAXX 28194 67197 11465 73404 10248 20229 30091 40101 52018 60032 71796 879// 333 10318 83817 82917 85633 94967/8 95837/8 RR 3.2MM
AAXX 29180 44214 32998 03404 11196 21241 38316 40464 54000
AAXX 29180 44231 319// 00000 11264 21315 38796 40533 53001 70400
AAXX 29180 44259 31997 02403 11274 21304 39379 40394 58011 70240
AAXX 29180 44277 329// 22302 11190 21231 37831 40495 58001 80002
AAXX 29180 44288 32899 32904 11092 21202 38197 40363 57003 83040
AAXX 29180 44292 319// 00000 11250 21274 38764 40460 54000 70400
AAXX 29180 44304 329// 20000 11291 21322 39055 40444 54000 81041
AAXX 29180 44354 329// 00000 11233 21258 39168 40406 58004
AAXX 29180 44373 32999 02501 11170 21218 38573 40390 56003
AAXX 29180 44203 329// 00000 11352 21374 38485 40611 54000
AAXX 29180 44207 329// 02302 11294 21331 38358 40511 58001
AAXX 29180 44212 32999 00000 11344 21374 39269 40586 54000
AAXX 29180 44213 32999 00000 11343 21378 38883 40596 54000
AAXX 29180 44215 32998 00000 11287 21312 38470 40532 52006
AAXX 29180 44218 329// 00000 11267 21291 38675 40519 56001
AAXX 29180 44225 329// 00000 11365 21381 38339 40642 54000
AAXX 29180 44230 329// 00103 11238 21267 38866 40502 54000
AAXX 29180 44232 329// 00000 11310 21342 39202 40499 54001
AAXX 29180 44237 32999 00000 11213 21253 38546 40448 52003
AAXX 29180 44239 329// 02001 11212 21252 38862 40416 58002
AAXX 29180 44241 329// 00000 11296 21319 39365 40472 54000
AAXX 29180 44256 32999 00000 11313 21330 39416 40395 56012
AAXX 29180 44265 329// 30000 11228 21260 38909 40457 58002 80004
AAXX 29180 44272 329// 01801 11211 21251 38260 40428 52002
AAXX 29180 44275 32598 30000 11220 21220 37750 40455 58003 83500
AAXX 29180 44282 32999 03201 11149 21219 38334 40386 58006
AAXX 29180 44284 32999 00202 11216 21246 37881 40512 56002
AAXX 29180 44285 32999 01602 11204 21231 38364 40452 57004
AAXX 29180 44287 32999 00104 11142 21196 38154 40419 54000
AAXX 29180 44294 329// 03403 11274 21304 38604 40495 58002
AAXX 29180 44298 329// 03205 11230 21236 38754 40402 58003
AAXX 29180 44302 329// 02907 11225 21256 39171 40393 58005
AAXX 29180 44305 32999 03204 11235 21264 39107 40383 58002
AAXX 29180 44313 32999 01805 11288 21325 39465 40409 57008
AAXX 29180 44314 32998 53202 11190 21223 39186 40369 57009 82044
AAXX 29180 44317 32998 30000 11162 21196 38985 40360 57010 83040
AAXX 29180 44336 329// 03201 11216 21252 38744 40460 54000
AAXX 29180 44341 329// 00000 11166 21226 38637 40397 58009
AAXX 29180 44347 32999 00000 11183 21224 38754 40384 58004
AAXX 29180 44352 32999 00000 11194 21213 38964 40364 56004
AAXX 29180 44358 329// 00000 11228 21234 39153 40420 57008
AAXX 29184 60621 36/// /0112 10128 21032 333 10152
BBXX SHJC 29181 99096 10682 43/98 50011 10272 40138 55011 22274 00282 2//// 4////
AAXX 29184 60619 36/// /0310 10090 21031 333 10128
BBXX 62087 29181 99547 10068 46/// /9902 10065 20035 4//// 5//// 22200 00083
AAXX 29184 60645 36/// /0000 10143 20003 333 10175
AAXX 29184 60663 36/// /0509 10112 21037 333 10141
AAXX 29181 89064 31465 82801 10025 29085 49823 52002 71225 886//
AAXX 29184 60612 36/// /0000 10155 21100 333 10209
BBXX 61002 29184 99421 10047 46/// ///38 10110 2//// 40260 52018 22200 00133 10910 70052 555 1/050
BBXX SGW 29181 99335 71226 43/93 93310 10124 40241 58002 22224 00132 20504 41104
AAXX 29184 08141 12762 20302 10040 21008 39482 40371 51003 60002 82040 333 10075
AAXX 29181 40706 11950 00402 11024 21044 38734 40336 52015 60001 71000 333 55084 21074
AAXX 29181 40718 12560 73204 10098 20081 30354 40324 53009 60001 85570 333 55033 85630 84360
AAXX 29181 40732 12560 70000 10090 20064 30339 40314 53009 60001 87500 333 55010 87630
AAXX 29181 40745 12965 01603 10026 31055 39138 40318 52015 60001 333 55082 21079
AAXX 29181 40754 11957 00000 10032 21025 38909 40292 51011 60001 70500 333 55076
AAXX 29181 40766 12960 01102 10007 21083 38747 40280 52007 60001 333 55088 21194
AAXX 29181 40800 12960 00000 10004 21053 38512 40288 51007 60001 333 55084 2////
AAXX 29181 40811 12960 03102 10122 20067 30195 40222 52004 60001 333 55085 21150
AAXX 29181 40841 12960 13203 10030 21053 38303 40264 51013 60001 81030 333 55094 21761 81360
AAXX 29181 40848 12960 02902 10024 20002 38557 40232 51010 60001 333 55092 21429
AAXX 29181 40856 11958 00402 10028 21076 38689 40249 51004 60001 70500 333 55089 2////
AAXX 29181 40875 12960 21902 10143 20043 30186 40198 52011 60001 80001 333 55090 21451 82070
AAXX 29184 78922 46/// /1219 10272 20210 30120 40165 58018
AAXX 29183 41150 42970 02806 10158 20074 40226 333 10184 58002
AAXX 29184 43400 NIL
AAXX 29184 43404 NIL
AAXX 29184 43410 NIL
AAXX 29184 43413 21470 81806 10262 20251 30075 40078 72582 83177 333 5//// 69907 83818 86458
AAXX 29184 43415 NIL
AAXX 29184 43418 22970 61807 10252 20222 3//// 4//// 84036 333 5//// 60007 84360 86280
AAXX 29184 43421 22950 72301 10249 20234 39987 40089 82106 333 59004 60007 82818 86280
AAXX 29184 43422 NIL
AAXX 29184 43424 22468 81904 10262 20245 30077 40080 8317/ 333 59005 60007 83815 86458
AAXX 29184 43436 22970 20000 10263 20247 30087 40091 80002 333 58003 60007 82080
AAXX 29184 43441 NIL
AAXX 29184 43444 21965 00000 10198 20192 39568 40100 71010 333 59004 60007
AAXX 29184 43467 21456 42303 10274 20236 30087 40092 71022 841// 333 59008 60007 84816
AAXX 29184 43473 22470 22302 10107 20029 38124 48496 82100 333 58002 60007 82815
AAXX 29184 43475 NIL
AAXX 29184 43476 NIL
AAXX 29184 43479 NIL
AAXX 29184 43486 21358 51401 10230 20221 39999 40093 71041 85200 333 59004 60007 85808
AAXX 29184 43495 22460 6//// 10274 20230 30086 40102 83101 333 59007 60007 83818 84080
AAXX 29184 43497 22972 22513 10250 20217 30076 40093 80001 333 59001 60007 82080
AAXX 29181 50136 32970 00000 11313 21354 39747 40343 52003 333 11167
AAXX 29181 50745 32966 02004 11184 21246 30146 40348 57009 333 11131
AAXX 29181 50774 32960 02901 11259 21286 30032 40371 52003 333 11160
AAXX 29181 50788 32970 02205 11207 21241 30224 40318 52007 333 11161
AAXX 29181 51133 32980 20201 11092 21128 39605 40288 57022 80002 333 05402 11029
AAXX 29181 51431 NIL
AAXX 29181 51747 NIL
AAXX 29181 52203 NIL
AAXX 29181 52418 32970 02501 11113 21168 38995 40405 57006 333 00603 11039
AAXX 29181 52681 32980 03401 11120 21165 38704 40355 57001 333 00201 11006
AAXX 29181 53564 32965 00000 11115 21127 39285 40361 57007 333 00000 10001
AAXX 29181 53614 31957 00201 11067 21102 38979 40324 57010 71000 333 00002 10005
AAXX 29181 53646 32970 21402 11039 21077 38930 40315 57006 80002 333 00004 10018
AAXX 29181 53798 32960 81101 11012 21063 30275 40377 57005 8802/ 333 10009
AAXX 29181 53845 32962 02701 11047 21075 39172 40332 52001 333 00151 10061
AAXX 29181 53959 31957 72904 10018 21033 39881 40336 57001 71000 80002 333 10067
AAXX 29181 54094 32960 01602 11215 21263 30050 40382 52005 333 11155
AAXX 29181 54102 32975 02001 11228 21254 39101 40397 57008 333 11130
AAXX 29181 54161 32960 01601 11197 21243 30065 40388 57006 333 11133
AAXX 29181 54292 32970 02704 11172 21249 30025 40373 52002 333 11124
AAXX 29181 54374 32962 00202 11233 21262 39901 40415 52006 333 11117
AAXX 29181 54423 32665 80401 11101 21129 39828 40376 57010 885// 333 11047
AAXX 29181 54618 32961 71401 11043 21076 30358 40377 57006 8703/ 333 11003
AAXX 29181 54843 32675 83601 11019 21066 30345 40374 57003 885// 333 10003
AAXX 29181 54909 32961 80203 10001 21042 30297 40364 57002 8807/ 333 10015
AAXX 29181 56029 32980 00000 11118 21180 36457 52003 333 05100 10055
AAXX 29181 57127 32961 80901 10060 21012 39693 40313 52001 8807/ 333 10089
AAXX 29181 57131 31930 00202 11008 21030 39835 40350 52006 71000 333 10042
AAXX 29184 43400 NIL
AAXX 29184 43404 NIL
AAXX 29184 43410 NIL
AAXX 29184 43413 21470 81806 10262 20251 30075 40078 72582 83177 333 5//// 69907 83818 86458
AAXX 29184 43415 NIL
AAXX 29184 43418 22970 61807 10252 20222 3//// 4//// 84036 333 5//// 60007 84360 86280
AAXX 29184 43421 22950 72301 10249 20234 39987 40089 82106 333 59004 60007 82818 86280
AAXX 29184 43422 NIL
AAXX 29184 43424 22468 81904 10262 20245 30077 40080 8317/ 333 59005 60007 83815 86458
AAXX 29184 43436 22970 20000 10263 20247 30087 40091 80002 333 58003 60007 82080
AAXX 29184 43441 NIL
AAXX 29184 43444 21965 00000 10198 20192 39568 40100 71010 333 59004 60007
AAXX 29184 43467 21456 42303 10274 20236 30087 40092 71022 841// 333 59008 60007 84816
AAXX 29184 43473 22470 22302 10107 20029 38124 48496 82100 333 58002 60007 82815
AAXX 29184 43475 NIL
AAXX 29184 43476 NIL
AAXX 29184 43479 NIL
AAXX 29184 43486 21358 51401 10230 20221 39999 40093 71041 85200 333 59004 60007 85808
AAXX 29184 43495 22460 6//// 10274 20230 30086 40102 83101 333 59007 60007 83818 84080
AAXX 29184 43497 22972 22513 10250 20217 30076 40093 80001 333 59001 60007 82080
AAXX 29180 44214 32998 03404 11196 21241 38316 40464 54000
AAXX 29180 44231 319// 00000 11264 21315 38796 40533 53001 70400
AAXX 29180 44259 31997 02403 11274 21304 39379 40394 58011 70240
AAXX 29180 44277 329// 22302 11190 21231 37831 40495 58001 80002
AAXX 29180 44288 32899 32904 11092 21202 38197 40363 57003 83040
AAXX 29180 44292 319// 00000 11250 21274 38764 40460 54000 70400
AAXX 29180 44304 329// 20000 11291 21322 39055 40444 54000 81041
AAXX 29180 44354 329// 00000 11233 21258 39168 40406 58004
AAXX 29180 44373 32999 02501 11170 21218 38573 40390 56003
AAXX 29181 40703 12960 00000 11018 21044 39004 40325 52013 60001 333 55075
AAXX 29181 40712 11956 02402 11044 21062 38756 40327 52008 60001 71000 333 55066 21137
AAXX 29181 40729 12960 00000 11036 21047 38406 40319 51007 60001 333 55072 21144
AAXX 29181 40736 12960 60702 10092 20070 30344 40318 52009 60001 80008 333 55074 86269
AAXX 29181 40739 12965 00303 10022 21056 38770 40307 51005 60001 333 55088
AAXX 29181 40743 12970 00102 10008 21043 39155 40310 51008 60001 333 55082
AAXX 29181 40762 12962 00000 11010 21085 38620 40289 52010 60001 333 55086
AAXX 29181 40768 12960 02602 11003 21066 38319 40319 52013 60001 333 55062 2////
AAXX 29181 40769 12960 03302 10000 21051 38358 40298 51012 60001 333 55071 21201
AAXX 29181 40785 12960 00000 10036 21030 39165 40295 52009 60001 333 55086
AAXX 29181 40809 12962 01402 11009 21138 38564 40285 50010 60001 333 55094 21272
AAXX 29181 40821 12960 02504 10044 21043 38863 40289 51010 60001 55091 21225
AAXX 29181 40831 12960 03302 10098 20027 30225 40233 51009 60001 333 55085
AAXX 29181 40703 12960 00000 11018 21044 39004 40325 52013 60001 333 55075
AAXX 29181 40712 11956 02402 11044 21062 38756 40327 52008 60001 71000 333 55066 21137
AAXX 29181 40729 12960 00000 11036 21047 38406 40319 51007 60001 333 55072 21144
AAXX 29181 40736 12960 60702 10092 20070 30344 40318 52009 60001 80008 333 55074 86269
AAXX 29181 40739 12965 00303 10022 21056 38770 40307 51005 60001 333 55088
AAXX 29181 40743 12970 00102 10008 21043 39155 40310 51008 60001 333 55082
AAXX 29181 40762 12962 00000 11010 21085 38620 40289 52010 60001 333 55086
AAXX 29181 40768 12960 02602 11003 21066 38319 40319 52013 60001 333 55062 2////
AAXX 29181 40769 12960 03302 10000 21051 38358 40298 51012 60001 333 55071 21201
AAXX 29181 40785 12960 00000 10036 21030 39165 40295 52009 60001 333 55086
AAXX 29181 40809 12962 01402 11009 21138 38564 40285 50010 60001 333 55094 21272
AAXX 29181 40821 12960 02504 10044 21043 38863 40289 51010 60001 55091 21225
AAXX 29181 40831 12960 03302 10098 20027 30225 40233 51009 60001 333 55085
AAXX 29181 40703 12960 00000 11018 21044 39004 40325 52013 60001 333 55075
AAXX 29181 40712 11956 02402 11044 21062 38756 40327 52008 60001 71000 333 55066 21137
AAXX 29181 40729 12960 00000 11036 21047 38406 40319 51007 60001 333 55072 21144
AAXX 29181 40736 12960 60702 10092 20070 30344 40318 52009 60001 80008 333 55074 86269
AAXX 29181 40739 12965 00303 10022 21056 38770 40307 51005 60001 333 55088
AAXX 29181 40743 12970 00102 10008 21043 39155 40310 51008 60001 333 55082
AAXX 29181 40762 12962 00000 11010 21085 38620 40289 52010 60001 333 55086
AAXX 29181 40768 12960 02602 11003 21066 38319 40319 52013 60001 333 55062 2////
AAXX 29181 40769 12960 03302 10000 21051 38358 40298 51012 60001 333 55071 21201
AAXX 29181 40785 12960 00000 10036 21030 39165 40295 52009 60001 333 55086
AAXX 29181 40809 12962 01402 11009 21138 38564 40285 50010 60001 333 55094 21272
AAXX 29181 40821 12960 02504 10044 21043 38863 40289 51010 60001 55091 21225
AAXX 29181 40831 12960 03302 10098 20027 30225 40233 51009 60001 333 55085
AAXX 29184 47401 11/40 82903 11011 21027 30109 40124 58007 69951 78582 883//
AAXX 29184 47412 11/65 30301 11068 21130 30100 40134 50005 69901 70182 81230
AAXX 29184 47420 17/70 /1318 10014 21002 30086 40120 58022 69901 76776
AAXX 29184 47426 17/70 /2914 11017 21070 30077 40126 58001 60031 70076
AAXX 29184 47582 11/10 82819 11022 21041 30143 40171 58010 60021 78582 883//
AAXX 29184 47590 11/70 20703 11004 21048 30110 40165 58001 69901 70281 82300
AAXX 29184 47600 17/70 /3012 10017 21048 30234 40243 53007 69951 77176
AAXX 29184 47648 12/65 23008 10033 21005 30141 40176 51015 60001 81102
AAXX 29184 47662 12980 23309 10055 21087 30136 40181 53010 60001 80001
AAXX 29184 47678 17/70 /2810 10113 20036 39985 40173 55000 69951 70060
AAXX 29184 47740 17/82 /3305 10023 21044 30232 40268 53007 69901 70087
AAXX 29184 47778 15/70 /0305 10075 21004 30120 40205 52003 60001
AAXX 29184 47807 11/60 71503 10065 20010 30233 40252 55002 69901 70282 872//
AAXX 29184 47827 12970 23407 10056 20004 30206 40246 51003 60001 82030
AAXX 29184 47843 15/73 /3307 10080 21005 30229 40262 53003 60001
AAXX 29184 47893 12/65 62804 10043 20003 30220 40226 55004 60001 86200
AAXX 29184 47909 11/60 83604 10150 20112 30212 40222 58002 60021 76162 8652/
AAXX 29184 47918 11/65 80411 10185 20168 30182 40200 58002 60031 72582 888//
AAXX 29184 47936 11/59 80209 10163 20147 30148 40208 55002 60021 76162 888//
AAXX 29184 47945 11/65 60000 10151 20142 30167 40192 55003 69901 70262 82870
AAXX 29184 47971 12/75 73004 10155 20117 30183 40193 56005 60001 81232
AAXX 29184 47991 16/// /0203 10217 20185 30154 40164 56009 69901
AAXX 29184 47407 11/12 82610 11043 21060 39949 40127 53005 60071 78588 883//
AAXX 29184 47409 11/65 81113 10009 21015 30050 40105 58024 69901 78522 8627/
AAXX 29184 47418 11/12 92318 10010 21003 30059 40109 56014 60031 78388
AAXX 29184 47421 17/70 /2005 11068 21108 30098 40143 55000 69901 77170
AAXX 29184 47430 11/60 73403 11076 21098 30088 40145 58003 69901 78582 872//
AAXX 29184 47570 17/11 /3605 11017 21025 39925 40194 56014 69951 77176
AAXX 29184 47575 11/56 82206 11042 21062 30150 40155 56008 69901 78582 883//
AAXX 29184 47584 11/50 81805 11035 21043 39964 40161 56012 69901 78582 883//
AAXX 29184 47604 11/60 72814 10010 21027 30198 40207 56007 69901 78781 872//
AAXX 29184 47605 11/65 83109 10036 21043 30209 40251 51008 69951 72682 882//
AAXX 29184 47610 11/70 83104 11010 21037 39697 40218 53001 69901 72682 882//
AAXX 29184 47624 12/80 13112 10026 21063 30044 40187 53003 60001 81200
AAXX 29184 47629 12970 02601 10014 21055 30131 40171 50006 60001
AAXX 29184 47636 11/65 13408 10032 21025 30149 40220 53010 69901 70182 81500
AAXX 29184 47651 13/// /3211 10046 21020 30201 40224 52010 69901
AAXX 29184 47655 15/70 /2811 10051 21009 30124 40182 52005 60001
AAXX 29184 47675 15/70 /0507 10082 20027 30074 40166 55004 60001
AAXX 29184 47741 11/65 80204 10034 20003 30243 40271 52010 60021 78088 882//
AAXX 29184 47746 11/58 81304 10009 20001 30245 40265 51008 60101 78388 882//
AAXX 29184 47750 11/60 82505 10024 20008 30227 40256 51009 60031 78088 882//
AAXX 29184 47765 11/65 60213 10055 20001 30182 40249 50002 69901 72582 86200
AAXX 29184 47772 11/70 60105 10054 21017 30134 40237 51009 69901 72582 86800
AAXX 29184 47800 15/61 /3307 10064 20003 30255 40260 53002 60001
AAXX 29184 47815 11/60 21903 10049 21009 30229 40246 55003 69901 70280 82100
AAXX 29184 47817 12/60 10902 10047 20014 30209 40254 53001 60001 81500
AAXX 29184 47830 12980 02904 10026 20007 30223 40242 53005 60001
AAXX 29184 47887 11/65 70508 10064 21001 30197 40240 55003 69901 78022 872//
AAXX 29184 47891 11/75 73504 10063 20000 30226 40243 51007 69901 72582 872//
AAXX 29184 47895 11/60 83004 10058 20028 30229 40237 51008 69901 78082 882//
AAXX 29184 47927 11/70 70312 10192 20164 30153 40202 50001 60011 70282 878//
AAXX 29184 41258 36/// /2504 10224 20137 30183 40188 333 0E/// 10237 58007
AAXX 29184 43466 22470 42302 10270 20232 30082 40094 84500 333 59008 60007 84818
OOXX AAUNI 29184 99798 50833 56093 07671 46/// /2323 11064 21145 38869 49740 52004 91800
AAXX 29184 40101 12958 00000 10047 20014 39133 48520 51009 60001 918// 333 10147
AAXX 29184 40103 32958 00000 10097 20053 40212 54002 333 10171 555 10184
AAXX 29184 40100 NIL
AAXX 29184 40102 NIL
AAXX 29180 44203 329// 00000 11352 21374 38485 40611 54000
AAXX 29180 44207 329// 02302 11294 21331 38358 40511 58001
AAXX 29180 44212 32999 00000 11344 21374 39269 40586 54000
AAXX 29180 44213 32999 00000 11343 21378 38883 40596 54000
AAXX 29180 44215 32998 00000 11287 21312 38470 40532 52006
AAXX 29180 44218 329// 00000 11267 21291 38675 40519 56001
AAXX 29180 44225 329// 00000 11365 21381 38339 40642 54000
AAXX 29180 44230 329// 00103 11238 21267 38866 40502 54000
AAXX 29180 44232 329// 00000 11310 21342 39202 40499 54001
AAXX 29180 44237 32999 00000 11213 21253 38546 40448 52003
AAXX 29180 44239 329// 02001 11212 21252 38862 40416 58002
AAXX 29180 44241 329// 00000 11296 21319 39365 40472 54000
AAXX 29180 44256 32999 00000 11313 21330 39416 40395 56012
AAXX 29180 44265 329// 30000 11228 21260 38909 40457 58002 80004
AAXX 29180 44272 329// 01801 11211 21251 38260 40428 52002
AAXX 29180 44275 32598 30000 11220 21220 37750 40455 58003 83500
AAXX 29180 44282 32999 03201 11149 21219 38334 40386 58006
AAXX 29180 44284 32999 00202 11216 21246 37881 40512 56002
AAXX 29180 44285 32999 01602 11204 21231 38364 40452 57004
AAXX 29180 44287 32999 00104 11142 21196 38154 40419 54000
AAXX 29180 44294 329// 03403 11274 21304 38604 40495 58002
AAXX 29180 44298 329// 03205 11230 21236 38754 40402 58003
AAXX 29180 44302 329// 02907 11225 21256 39171 40393 58005
AAXX 29180 44305 32999 03204 11235 21264 39107 40383 58002
AAXX 29180 44313 32999 01805 11288 21325 39465 40409 57008
AAXX 29180 44314 32998 53202 11190 21223 39186 40369 57009 82044
AAXX 29180 44317 32998 30000 11162 21196 38985 40360 57010 83040
AAXX 29180 44336 329// 03201 11216 21252 38744 40460 54000
AAXX 29180 44341 329// 00000 11166 21226 38637 40397 58009
AAXX 29180 44347 32999 00000 11183 21224 38754 40384 58004
AAXX 29180 44352 32999 00000 11194 21213 38964 40364 56004
AAXX 29180 44358 329// 00000 11228 21234 39153 40420 57008
AAXX 2918/ 89828 46/// ///// 11228 36552 4//// 5//// 91810
AAXX 29183 64800 NIL
AAXX 29183 64820 NIL
AAXX 29183 64860 32960 70000 10298 20100 39825 40095 80002 333 10370 58012 87080
AAXX 29183 64861 NIL
AAXX 29183 64870 32958 70000 10227 20094 38912 48504 80002 333 58006 87080
AAXX 29183 64871 NIL
AAXX 29183 64892 NIL
AAXX 29183 64893 NIL
AAXX 29183 64894 NIL
AAXX 29183 64910 NIL
AAXX 29183 64911 NIL
AAXX 29183 64950 NIL
AAXX 29181 40701 12962 00000 11044 21080 38674 40350 51012 60001 333 55085
AAXX 29181 40704 12970 03502 11028 21056 38700 40328 51015 60001 333 55090 21034
AAXX 29181 40708 11450 80000 11006 21007 38754 40312 52009 60001 71042 886// 333 55042 20702 88715
AAXX 29181 40710 12980 09901 11040 21055 38391 40343 52015 60001 333 55078
AAXX 29181 40713 11956 00802 11036 21069 38738 40322 51009 60001 70500 333 55082
AAXX 29181 40719 11558 79901 10078 20060 30333 40322 51009 60001 71022 85570 333 55000 85625 86358
AAXX 29181 40731 11957 00000 11023 21048 38818 40328 52009 60001 71000 333 55073 21110
AAXX 29181 40738 12960 00000 10040 20032 30340 40342 51010 60001 333 55086
AAXX 29181 40740 12660 40000 11020 21034 38814 40307 51008 60001 84500 333 55074 84640
AAXX 29181 40747 12960 01802 11014 21058 38686 40293 51009 60001 333 55077 20993
AAXX 29181 40757 12962 00901 10016 21022 38982 40301 51007 60001 333 55082 21063
AAXX 29181 40763 12965 00000 10016 21032 38995 40294 51007 60001 333 55090
AAXX 29181 40782 12962 01402 10012 21057 38927 40273 52010 60001 333 55086
AAXX 29181 40783 12965 01103 11002 21105 38029 40284 51014 60001 333 55091
AAXX 29181 40789 12965 00000 10038 21035 39294 40297 51010 60001 333 55090 20300
AAXX 29181 40798 12960 00000 11048 21123 38009 40306 53009 60001 333 55082 21364
AAXX 29181 40818 12965 03002 11008 21075 38021 40281 50009 60001 333 55089
AAXX 29181 40827 12965 00000 10052 21048 38903 40305 51014 60001 333 55091
AAXX 29181 40836 12965 00000 10016 21084 38225 40248 52007 60001 333 55094 21438
AAXX 29181 40851 12960 00000 10030 21069 38300 40253 51008 60001 333 55066
AAXX 29181 40853 12960 01203 10024 21066 37774 40219 51010 60001 333 55094
AAXX 29181 40854 12960 00000 10064 21038 39015 40239 52009 60001 333 55085
AAXX 29181 40857 12960 00000 10148 20102 30207 40217 58003 60001 222// 00/// 20000 333 55085
AAXX 29181 40859 12960 03103 10050 21028 38746 40208 51005 60001 333 55072
AAXX 29181 40878 12960 00605 10108 21077 38892 40242 50003 60001 333 55073
AAXX 29181 40879 11958 10602 10136 21055 39532 40217 51011 60001 70500 81030 55082 81360
AAXX 29181 40883 11958 03203 10170 20102 30180 40203 51005 60001 70510 333 55090
AAXX 29181 40898 12960 00000 10210 20145 30169 40178 53009 60001 222// 00236 10600 333 55077 2////
AAXX 29181 40701 12962 00000 11044 21080 38674 40350 51012 60001 333 55085
AAXX 29181 40704 12970 03502 11028 21056 38700 40328 51015 60001 333 55090 21034
AAXX 29181 40708 11450 80000 11006 21007 38754 40312 52009 60001 71042 886// 333 55042 20702 88715
AAXX 29181 40710 12980 09901 11040 21055 38391 40343 52015 60001 333 55078
AAXX 29181 40713 11956 00802 11036 21069 38738 40322 51009 60001 70500 333 55082
AAXX 29181 40719 11558 79901 10078 20060 30333 40322 51009 60001 71022 85570 333 55000 85625 86358
AAXX 29181 40731 11957 00000 11023 21048 38818 40328 52009 60001 71000 333 55073 21110
AAXX 29181 40738 12960 00000 10040 20032 30340 40342 51010 60001 333 55086
AAXX 29181 40740 12660 40000 11020 21034 38814 40307 51008 60001 84500 333 55074 84640
AAXX 29181 40747 12960 01802 11014 21058 38686 40293 51009 60001 333 55077 20993
AAXX 29181 40757 12962 00901 10016 21022 38982 40301 51007 60001 333 55082 21063
AAXX 29181 40763 12965 00000 10016 21032 38995 40294 51007 60001 333 55090
AAXX 29181 40782 12962 01402 10012 21057 38927 40273 52010 60001 333 55086
AAXX 29181 40783 12965 01103 11002 21105 38029 40284 51014 60001 333 55091
AAXX 29181 40789 12965 00000 10038 21035 39294 40297 51010 60001 333 55090 20300
AAXX 29181 40798 12960 00000 11048 21123 38009 40306 53009 60001 333 55082 21364
AAXX 29181 40818 12965 03002 11008 21075 38021 40281 50009 60001 333 55089
AAXX 29181 40827 12965 00000 10052 21048 38903 40305 51014 60001 333 55091
AAXX 29181 40836 12965 00000 10016 21084 38225 40248 52007 60001 333 55094 21438
AAXX 29181 40851 12960 00000 10030 21069 38300 40253 51008 60001 333 55066
AAXX 29181 40853 12960 01203 10024 21066 37774 40219 51010 60001 333 55094
AAXX 29181 40854 12960 00000 10064 21038 39015 40239 52009 60001 333 55085
AAXX 29181 40857 12960 00000 10148 20102 30207 40217 58003 60001 222// 00/// 20000 333 55085
AAXX 29181 40859 12960 03103 10050 21028 38746 40208 51005 60001 333 55072
AAXX 29181 40878 12960 00605 10108 21077 38892 40242 50003 60001 333 55073
AAXX 29181 40879 11958 10602 10136 21055 39532 40217 51011 60001 70500 81030 55082 81360
AAXX 29181 40883 11958 03203 10170 20102 30180 40203 51005 60001 70510 333 55090
AAXX 29181 40898 12960 00000 10210 20145 30169 40178 53009 60001 222// 00236 10600 333 55077 2////
AAXX 29181 40701 12962 00000 11044 21080 38674 40350 51012 60001 333 55085
AAXX 29181 40704 12970 03502 11028 21056 38700 40328 51015 60001 333 55090 21034
AAXX 29181 40708 11450 80000 11006 21007 38754 40312 52009 60001 71042 886// 333 55042 20702 88715
AAXX 29181 40710 12980 09901 11040 21055 38391 40343 52015 60001 333 55078
AAXX 29181 40713 11956 00802 11036 21069 38738 40322 51009 60001 70500 333 55082
AAXX 29181 40719 11558 79901 10078 20060 30333 40322 51009 60001 71022 85570 333 55000 85625 86358
AAXX 29181 40731 11957 00000 11023 21048 38818 40328 52009 60001 71000 333 55073 21110
AAXX 29181 40738 12960 00000 10040 20032 30340 40342 51010 60001 333 55086
AAXX 29181 40740 12660 40000 11020 21034 38814 40307 51008 60001 84500 333 55074 84640
AAXX 29181 40747 12960 01802 11014 21058 38686 40293 51009 60001 333 55077 20993
AAXX 29181 40757 12962 00901 10016 21022 38982 40301 51007 60001 333 55082 21063
AAXX 29181 40763 12965 00000 10016 21032 38995 40294 51007 60001 333 55090
AAXX 29181 40782 12962 01402 10012 21057 38927 40273 52010 60001 333 55086
AAXX 29181 40783 12965 01103 11002 21105 38029 40284 51014 60001 333 55091
AAXX 29181 40789 12965 00000 10038 21035 39294 40297 51010 60001 333 55090 20300
AAXX 29181 40798 12960 00000 11048 21123 38009 40306 53009 60001 333 55082 21364
AAXX 29181 40818 12965 03002 11008 21075 38021 40281 50009 60001 333 55089
AAXX 29181 40827 12965 00000 10052 21048 38903 40305 51014 60001 333 55091
AAXX 29181 40836 12965 00000 10016 21084 38225 40248 52007 60001 333 55094 21438
AAXX 29181 40851 12960 00000 10030 21069 38300 40253 51008 60001 333 55066
AAXX 29181 40853 12960 01203 10024 21066 37774 40219 51010 60001 333 55094
AAXX 29181 40854 12960 00000 10064 21038 39015 40239 52009 60001 333 55085
AAXX 29181 40857 12960 00000 10148 20102 30207 40217 58003 60001 222// 00/// 20000 333 55085
AAXX 29181 40859 12960 03103 10050 21028 38746 40208 51005 60001 333 55072
AAXX 29181 40878 12960 00605 10108 21077 38892 40242 50003 60001 333 55073
AAXX 29181 40879 11958 10602 10136 21055 39532 40217 51011 60001 70500 81030 55082 81360
AAXX 29181 40883 11958 03203 10170 20102 30180 40203 51005 60001 70510 333 55090
AAXX 29181 40898 12960 00000 10210 20145 30169 40178 53009 60001 222// 00236 10600 333 55077 2////
AAXX 29181 45032 36/// /9901 10149 20135 30206 40223 54000
AAXX 29181 45035 36/// /0503 10158 20138 30180 40222 54000
AAXX 29181 45039 36/// /0202 10170 20141 30204 40218 57001
AAXX 29181 45044 36/// /0405 10169 20135 30122 40217 54000
AAXX 29181 45032 36/// /9901 10149 20135 30206 40223 54000
AAXX 29181 45035 36/// /0503 10158 20138 30180 40222 54000
AAXX 29181 45039 36/// /0202 10170 20141 30204 40218 57001
AAXX 29181 45044 36/// /0405 10169 20135 30122 40217 54000
AAXX 29184 78988 01475 31114 10287 20226 30127 40137 57021 69931 70181 83200 333 59001 69917 83818
AAXX 29184 78873 02570 60811 10271 20226 30132 40177 57018 60001 85230 333 58001 60007 85820
AAXX 29184 78990 01/75 /0100 10296 20242 30139 57019 69941 70000 333 59002 60007
AAXX 29184 16294 42998 00000 10096 20048 39991 40186 56005 6///2 333 10156 555 0////
AAXX 29181 63332 NIL
AAXX 29181 63333 42980 00000 10144 20083 38196 40232 333 10243 58003
AAXX 29181 63334 42980 00000 10121 21021 37646 40174 333 10220 58003
AAXX 29181 63340 42980 00000 10148 20085 37961 40188 333 10262 58010
AAXX 29181 63402 NIL
AAXX 29181 63450 742980 00505 10133 20035 37757 40168 333 10220 59004
AAXX 29181 63451 42980 0//// 1//// 2//// 38167 4//// 333 10237 58000
AAXX 29181 63453 NIL
AAXX 29181 63460 NIL
AAXX 29181 63471 NIL
AAXX 29181 63478 NIL
AAXX 29181 NNNN
AAXX 29181 30372 42999 60000 11315 21339 39410 40396 52004 82042
AAXX 29181 30433 42999 83601 11200 21219 39715 40361 52002 80001
AAXX 29181 30554 429// 50000 11346 21368 39180 40432 54000 81041
AAXX 29181 30635 418// 81102 11186 21205 39744 40362 58002 70272 8807/
AAXX 29181 30673 42999 00000 11301 21313 39507 40374 52004
AAXX 29181 30692 42999 00502 11351 21368 39790 40362 53///
AAXX 29181 30758 41905 00000 11318 21348 39473 40406 58001 74440
AAXX 29181 30802 42999 00000 11255 21261 38762 48523 54000
AAXX 29181 30823 42999 03002 11257 21281 39701 40410 58003
AAXX 29181 30879 41996 80000 11313 21336 39531 40395 57009 77171 80007
AAXX 29181 30935 42999 20000 11287 21312 39399 40457 58003 80001
AAXX 29181 30949 42999 00000 11286 21304 39192 40420 57003
AAXX 29181 30965 429// 00000 11341 21365 39464 40414 57010
AAXX 29181 31168 42999 00502 11241 21260 30229 40241 52012
AAXX 29181 31300 41984 80000 11302 21313 30001 40328 53003 70271 80007
AAXX 29181 31329 41997 80000 11292 21315 39588 40338 57002 77171 8807/
AAXX 29181 31369 41496 80000 11155 21161 30151 40242 57002 78582 889// 333 88915
AAXX 29181 31416 42999 80000 11225 21231 30156 40254 53007 8802/
AAXX 29181 31484 42999 00000 11202 21214 39909 40274 52018
AAXX 29181 31512 429// 00000 11265 21290 30130 40317 57006
AAXX 29181 31538 42998 00000 11278 21297 39858 40345 52002
AAXX 29181 31707 42998 20000 11212 21260 30225 40325 52006 80001
AAXX 29181 31735 41996 81401 11225 21251 30197 40295 56002 77172 8802/
AAXX 29181 31770 41549 83202 11060 21075 30195 40227 54000 78687 889//
AAXX 29183 87007 31570 62305 10204 20006 36722 47116 57027 71422 85905 333 56000 57914 83630 82935
AAXX 29183 87148 32970 32308 10340 20158 39964 40069 57027 81071 333 56000 81360
AAXX 29181 40716 12960 00000 10000 21040 38999 40324 52017 60001 333 55070
AAXX 29181 40719 11558 79901 10078 20060 30333 40322 51009 60001 71022 85570 333 55000 85625 86358
AAXX 29181 40721 12560 31803 10048 20034 39776 40336 51009 60001 83500 333 55087 83630
AAXX 29181 40858 12960 03602 10158 20092 30207 40218 52004 60001 333 55088
AAXX 29181 40872 12960 33105 10156 20055 30195 40200 53008 60001 83030 222// 00/// 20301 333 55092 83360
AAXX 29181 40877 12960 00000 10114 20011 39646 40197 52020 60001 333 55095
AAXX 29181 40898 12960 00000 10210 20145 30169 40178 53009 60001 222// 00236 10600 333 55077 2////
AAXX 29184 87022 31460 83602 10246 20222 39553 40052 57033 60051 70262 8372/ 333 56899 83615 88460
AAXX 29184 87046 32562 50505 10301 20201 39058 48458 57031 85200 333 56000 57894 85830
AAXX 29184 87047 32468 50505 10279 20183 38754 48475 57025 84303 333 56200 57933 83817 81920
AAXX 29184 87097 32570 30504 10322 20179 39766 40070 57024 83100 333 56900 83830
AAXX 29184 87121 32665 31408 10318 20221 39554 40048 57027 83300 333 56700 57992 83940
AAXX 29184 87129 NIL
AAXX 29184 87155 31562 10905 10318 20182 30018 40079 57025 70400 81105 333 56807 81830
AAXX 29184 87162 32570 32006 10344 20167 39998 40067 57025 81102 333 56607 81825
AAXX 29184 87166 32560 11406 10314 20182 30008 40079 57023 81100 333 56200 81830
AAXX 29184 87178 32570 42002 10324 20156 39932 40074 57019 84100 333 56000 84830
AAXX 29184 87217 32770 60000 10348 20223 39560 40029 57032 86800 333 56600 84850 82656
AAXX 29184 87222 32670 50209 10349 20188 39525 40020 57017 84460 333 56770 84645
AAXX 29184 87257 32965 50504 10326 20128 39996 40096 56007 83069 333 56077 83360 83170
AAXX 29184 87270 32965 11405 10314 20171 30029 40090 57023 80005 333 56005 81270
AAXX 29184 87289 32962 11410 10288 20148 30020 40100 57020 80001 333 56004 81070
AAXX 29184 87311 32765 21406 10312 20179 39401 40054 57025 82200 333 56000 57862 82850
AAXX 29184 87320 32570 40710 10339 20206 39553 40068 57017 82260 333 56560 57813 82830 82360
AAXX 29184 87328 11660 80505 10226 20194 39445 40079 57052 60241 70498 8387/ 333 56009 81840 83650 88360 95000
AAXX 29184 40356 42960 00908 10050 21030 39225 48508 333 10140 59014 55092 555 04410 50232
AAXX 29184 88878 46/// /2424 10134 20072 40047 52001
AAXX 29184 88883 46/// /2620 10123 20054 40060 52001
AAXX 29180 44210 32999 00000 11250 21267 38578 51004
AAXX 29180 44216 32999 00000 11325 21348 39114 40554 53001
AAXX 29180 44217 32998 00000 11231 21255 37884 40496 54000
AAXX 29180 44219 329// 01402 11280 21304 38694 40522 51001
AAXX 29180 44221 329// 00000 11347 21364 38671 40594 51001
AAXX 29180 44224 329// 00000 11336 21365 38094 40599 54000
AAXX 29180 44229 32999 00000 11265 21290 37958 40516 54000
AAXX 29180 44242 329// 01101 11295 21322 39428 40472 57002
AAXX 29180 44243 329// 00000 11325 21360 39528 40489 54000
AAXX 29180 44254 329// 02702 11239 21265 39094 40387 58001
AAXX 29180 44257 329// 02902 11291 21321 39029 40460 58001
AAXX 29180 44263 32998 00000 11235 21275 38112 40527 53003
AAXX 29180 44266 329// 03603 11142 21193 37789 40367 58005
AAXX 29180 44286 329// 01802 11187 21228 38695 40421 52009
AAXX 29180 44291 319// 01802 11309 21341 38801 40530 56001 70400
AAXX 29180 44325 329// 00901 11237 21248 38920 40459 58001
AAXX 29180 44329 32998 02303 11157 21249 37788 40404 51002
AAXX 29180 44338 32999 20000 11202 21251 38519 40424 52006 80008
AAXX 29180 44348 329// 00000 11145 21172 38727 40346 56002
AAXX 29180 44374 32999 01802 11137 21242 38293 40406 54000
AAXX 29180 44385 32999 00000 11148 21199 38958 40364 58025
AAXX 29180 44386 329// 00000 11181 21214 39105 40372 57007
AAXX 29181 08501 32/// /1807 10175 20156 30290 40326 57003 333 10191 91010 91112
AAXX 29181 08505 11270 71302 10170 20154 30307 40357 55002 60052 70252 878// 333 10184 82706 83811 85625
AAXX 29181 08509 11460 71607 10166 20150 30301 40366 55001 69932 70252 84854 333 10182 82815 83630
AAXX 29181 08512 32580 21603 10171 20122 30291 40376 52002 81802 333 10189 81824 91106
AAXX 29181 08515 32680 71204 10170 20133 30258 40380 53006 87500 333 10191 87642 910// 911//
AAXX 29181 08533 32/// /0203 10111 20072 30295 40324 52016 333 10165 91106
AAXX 29181 08541 32/// /0102 10111 20062 30211 40333 52012 333 10145
AAXX 29181 08545 31962 40302 10090 20025 30278 40364 52007 70100 80002 333 10138 84075
AAXX 29181 08548 32/// /0103 10103 20042 30149 40359 52013 333 10136
AAXX 29181 08554 32970 00000 10125 20069 30315 40324 52015 333 10163
AAXX 29181 08558 32/// /3503 10098 20040 30037 40337 52011 333 10148
AAXX 29181 08560 32/// /0303 10053 20002 39591 40373 52012 333 10100 91005 91106
AAXX 29181 08567 32/// /0901 10057 20004 39691 40377 52008 333 10100
AAXX 29181 08570 31980 40203 10091 21006 39880 40349 52013 70111 80008 333 10134 84299 91007 91107
AAXX 29181 08575 32/// /0000 10052 21009 39542 40378 52009 333 10092
AAXX 29181 08579 32/// /2403 10130 20065 30214 40341 52010 333 10159 91105
BBXX FLAO 2918/ 99764 70847 46/// ///// 11313 40179 52001
AAXX 29181 40716 12960 00000 10000 21040 38999 40324 52017 60001 333 55070
AAXX 29181 40719 11558 79901 10078 20060 30333 40322 51009 60001 71022 85570 333 55000 85625 86358
AAXX 29181 40721 12560 31803 10048 20034 39776 40336 51009 60001 83500 333 55087 83630
AAXX 29181 40858 12960 03602 10158 20092 30207 40218 52004 60001 333 55088
AAXX 29181 40872 12960 33105 10156 20055 30195 40200 53008 60001 83030 222// 00/// 20301 333 55092 83360
AAXX 29181 40877 12960 00000 10114 20011 39646 40197 52020 60001 333 55095
AAXX 29181 40898 12960 00000 10210 20145 30169 40178 53009 60001 222// 00236 10600 333 55077 2////
AAXX 29184 83437 NIL
AAXX 29184 83550 31597 8//// 10290 20222 30074 40103 70222 8391/ 333 58004
AAXX 29184 83552 NIL
AAXX 29184 83565 NIL
AAXX 29184 83579 NIL
AAXX 29184 83592 NIL
AAXX 29184 83623 NIL
AAXX 29184 83630 NIL
AAXX 29184 83676 NIL
AAXX 29184 83698 32799 80000 10258 20194 30098 40112 56014 885//
AAXX 29184 83702 NIL
AAXX 29184 83704 NIL
AAXX 29184 83716 NIL
AAXX 29184 83726 NIL
AAXX 29184 83738 31698 80505 10230 20179 39620 40117 57002 71520 887//
AAXX 29184 82143 NIL
AAXX 29184 82599 32570 41012 10286 20237 30053 40113 84200 333 59015
AAXX 29184 82824 32570 63003 10312 20243 39995 40095 84230 333 59015
AAXX 29184 82899 32570 20712 10288 20216 30110 40122 82100 333 59016
AAXX 29184 83117 NIL
AAXX 29184 83248 32570 20717 10305 20250 30091 40113 82200 333 59025
AAXX 29184 83746 21462 72803 10233 20187 30114 40124 56014 70562 85530 333 69931
AAXX 29184 NIL
AAXX 29184 NIL
AAXX 29184 NIL
AAXX 29184 83384 NIL
AAXX 29184 83386 NIL
AAXX 29184 83388 NIL
AAXX 29184 83393 NIL
AAXX 29184 83442 NIL
AAXX 29184 83479 NIL
AAXX 29184 83483 NIL
AAXX 29184 83531 NIL
AAXX 29184 83538 NIL
AAXX 29184 83574 NIL
AAXX 29184 83582 NIL
AAXX 29184 83595 NIL
AAXX 29184 83687 NIL
AAXX 29184 83692 NIL
AAXX 29184 83695 32697 81406 10262 20210 39985 40121 56010 887//
AAXX 29184 83718 NIL
AAXX 29184 NIL
BBXX 44067 29181 99384 70770 46/// /2302 10053 40169 56023 91800
AAXX 29184 NIL
AAXX 29184 82586 32598 40509 10350 20209 39854 40088 84200 333 59003
AAXX 29184 82678 32596 73604 10345 20211 39952 40090 85201 333 59027
AAXX 29184 82784 32598 31806 10321 20235 39642 40093 83200 333 59018
AAXX 29184 82791 32599 50507 10353 20185 39805 40079 85300 333 59015
AAXX 29184 82983 32597 51403 10354 20213 39666 40068 84200 333 59023
AAXX 29184 83096 32695 10905 10293 20234 30107 40114 81200 333 59021
AAXX 29184 83186 32598 41408 10333 20154 39548 40066 82302 333 59025
AAXX 29184 83236 NIL
AAXX 29184 83242 32497 41803 10332 20229 39606 40088 84700 333 59028
AAXX 29184 83288 32598 43203 10338 20212 39586 40065 83202 333 59029
AAXX 29184 83344 32498 83602 10291 20220 39137 40087 886// 333 59026
AAXX 29184 82022 32570 50814 10332 20178 30010 40106 85100 333 59007
AAXX 29184 82193 22570 43411 10296 20250 30082 401010 84200 333 59019 69911
AAXX 29184 82281 32570 40317 10308 20188 30043 40105 84200 333 59018
AAXX 29184 82332 32570 60804 10308 20247 30003 40096 84230 333 59026
AAXX 29184 82398 32570 40811 10283 20225 30083 40112 84200 333 59018
AAXX 29184 82400 32570 41208 10276 20237 30059 40124 84100 333 59016
AAXX 29184 82579 32670 31903 10360 20194 30017 40093 83100 333 59021
AAXX 29184 82917 32570 63507 1//// 2//// 39882 4//// 85230 333 59010
AAXX 29184 82965 32570 53604 10318 20219 39763 40088 84231 333 59029
AAXX 29184 82993 32570 30814 10299 20218 39978 40114 83100 333 59024
AAXX 29184 83208 32570 62604 10272 20224 39411 48520 86800 333 59023
AAXX 29184 83349 32570 50210 10297 20241 30108 40114 82204 333 59026
AAXX 29184 83362 32570 50111 10328 20206 39858 40070 86200 333 59032
AAXX 29184 83378 32570 43012 10258 20171 38940 48500 83234 333 59019
AAXX 29184 83460 32570 70412 10266 20217 30045 40101 888// 333 59030
AAXX 29184 83497 NIL
AAXX 29184 83566 21156 70507 10179 20171 39194 48500 79596 86970 333 59004 60071
AAXX 29184 83599 NIL
AAXX 29184 83612 21270 70508 10256 20222 39456 48500 58013 71796 84930 333 60141
AAXX 29184 83649 21260 81608 10238 20203 30121 40126 55003 71062 8552/ 333 60021
AAXX 29184 83650 NIL
AAXX 29184 83780 31462 81612 10193 20160 39232 48510 56011 71022 885//
AAXX 29184 83827 32570 23209 10322 20208 39792 40062 58024 82200
AAXX 29184 83840 32470 71109 10190 20151 39113 48510 58014 87400
AAXX 29184 83899 32970 31313 10251 20179 30135 40141 58008 83500
AAXX 29184 83925 NIL
AAXX 29184 83970 NIL
AAXX 29184 83971 32970 21315 10274 20143 30120 40124 56025 82500
AAXX 29184 82392 NIL
AAXX 29184 82583 NIL
AAXX 29184 82594 32697 20510 10312 20225 30096 40104 82200 333 59022
AAXX 29184 82683 NIL
AAXX 29184 82780 32598 20905 10356 20153 39860 40108 82200 333 59008
AAXX 29184 82789 NIL
AAXX 29184 82795 32597 30909 10314 20194 39511 40118 83300 333 59011
AAXX 29184 82879 32598 40504 10358 20184 39818 40079 84200 333 59009
AAXX 29184 82893 NIL
AAXX 29184 82979 32498 40907 10335 20184 39636 40075 83140 333 59022
AAXX 29184 82986 32598 41803 10370 20238 39808 40087 84100 333 59012
AAXX 29184 83179 32598 63209 10319 20137 39633 40077 86200 333 59008
AAXX 29184 83192 32597 30911 10366 20114 39933 40094 83200 333 59008
AAXX 29184 83339 31497 63203 10293 21076 39120 40062 71722 86200 333 59025
AAXX 29184 83498 31595 83604 10263 20235 30128 40133 76096 8462/ 333 58003
AAXX 29184 NIL
AAXX 29181 20107 11597 70103 11147 21181 39952 40053 52011 69922 70281 86530 333 11143 91004
AAXX 29181 22003 NIL
AAXX 29181 22004 NIL
AAXX 29181 22100 NIL
AAXX 29181 22140 NIL
AAXX 29181 22113 11562 72002 11092 21103 39863 49928 53005 69962 78582 85970 333 11061 91003 93504
AAXX 29181 22212 32971 70000 11106 21112 39751 49919 54000 87070 333 11104 91001 93506
AAXX 29181 22213 NIL
AAXX 29181 22217 32984 60303 11072 21081 39863 49895 57007 82015 333 11072 91005 93501
AAXX 29181 22235 11471 80601 11122 21135 39721 49921 56003 69902 78582 889// 333 11119 88911 91002
AAXX 29181 22249 32984 70000 11192 21204 39735 49935 57004 84031 333 11106
AAXX 29181 22312 11468 80805 11051 21058 39867 49889 57004 69902 78582 889// 333 11050 91009 91110
AAXX 29181 22334 11468 80705 11026 21039 39885 49892 57010 69922 78582 889// 333 11011 91007
AAXX 29181 22349 11597 61605 11016 21043 39896 49908 57010 69902 78582 86900 333 11012 91006
AAXX 29181 22408 11356 80000 11026 21029 39701 49849 53001 60092 77172 8872/ 333 11026 88707
AAXX 29181 22602 11473 72103 10011 20008 39636 49856 57004 60052 70287 87900 333 10011 87912
AAXX 29181 22619 11482 82103 10011 20003 39819 49877 57003 60022 70282 885// 333 10012 88612
AAXX 29181 22721 11497 81801 10008 20008 39797 49896 57006 60052 75152 886// 333 10010 88711
AAXX 29181 22802 12584 72004 10032 20014 39873 49895 57011 69972 87500 333 10032
AAXX 29181 22820 11484 82304 10014 20009 39776 49912 57005 60052 70272 8805/ 333 10015 88612
AAXX 29181 26059 11597 82104 10045 20017 39905 49929 57015 69952 78182 889// 333 10047 87926
AAXX 29181 26063 12497 82205 10045 20020 39917 49924 57017 69932 8651/ 333 10045
AAXX 29181 26094 11465 82203 10012 20007 39892 49968 56007 60032 70272 886// 333 10012 88710
AAXX 29181 26157 12597 82009 10042 20019 39892 49941 57011 69902 885// 333 10043 86920 91114
AAXX 29181 26167 11458 82004 10035 20022 39859 49970 57008 60012 78086 889// 333 10036 88919
AAXX 29181 26258 32598 82202 10042 20027 39929 49983 57001 8653/ 333 10042
AAXX 29181 26298 11496 82204 10005 21006 39794 40024 57008 69962 77172 8872/ 333 10005
AAXX 29181 26359 11463 82004 10032 20017 39882 40015 57010 69942 70262 8872/ 333 10032
AAXX 29181 26702 11596 42604 10051 20007 30017 40043 57005 69902 71065 84500 333 10066 91008 91110
AAXX 29181 26781 11296 82104 11003 21006 39798 40094 57011 60022 77172 8802/ 333 11003 88505 93401
AAXX 29181 27208 11396 82304 10003 21011 39850 40027 56010 69932 77172 8872/ 333 10004
AAXX 29181 27402 11497 81904 10005 21015 39880 40062 58011 69902 70272 886// 333 10005 88713
AAXX 29181 38598 426// 80901 10021 20005 40311 52004 885//
AAXX 29181 38599 31914 80000 10005 21003 39772 40303 51003 71022 8805 333 10032
AAXX 29181 38725 426// 60000 11029 21171 48560 52002 85502
AAXX 29181 38734 425// 60910 11063 21139 47080 51001 85903
AAXX 29181 38744 426// 30000 11110 21130 38074 48600 54000 83500
AAXX 29181 38836 326// 20000 11012 21027 39340 40315 52009 82900 333 10086
AAXX 29181 38838 429// 00502 10005 21009 39611 40304 52006
AAXX 29181 38844 429// 00502 11035 21143 38530 52007
AAXX 29181 38846 429// 00504 11048 21092 38556 48520 53003
AAXX 29181 38847 NIL
AAXX 29181 38932 NIL
AAXX 29181 38933 329// 00000 11002 21020 39788 40324 54014 333 10070
AAXX 29181 38944 NIL
AAXX 29181 38954 329// 00000 11048 21120 38022 48610 52007 333 10018
AAXX 29181 26997 31456 82105 10009 21002 39934 40156 57018 71011 885// 333 10010 88621
AAXX 29181 27595 12997 82602 11056 21081 39994 40143 50002 69900 80002 333 11020 88000
AAXX 29181 27612 315// 82202 11003 21021 39898 40093 57017 71022 885// 333 11003
AAXX 29181 27707 31558 72303 11007 21019 39825 40122 57018 71011 87500 333 11007 87624
AAXX 29181 27719 32597 72306 11012 21028 39892 40147 57015 87500 333 11011
AAXX 29181 27786 32997 31803 11080 21102 30013 40181 52009 80004 333 11021
AAXX 29181 27857 32997 02203 11044 21060 30018 40186 57010 333 11025
AAXX 29181 27906 32597 71605 10006 21025 39913 40157 57021 87500 333 10006
AAXX 29181 27928 32997 02104 11017 21034 39980 40193 57010 333 10013
AAXX 29181 27947 32997 02007 11023 21055 30042 40206 57004 333 11010
AAXX 29181 27962 32997 22305 11070 21087 40215 51001 82030 333 11034
AAXX 29181 27983 32971 02705 11071 21096 30067 40201 52012 333 11012
AAXX 29181 27995 32972 02402 11079 21106 40210 52020 333 11009
AAXX 29181 28506 12997 83003 11038 21070 30021 40136 53017 69900 8805/ 333 11020 91110
AAXX 29181 28704 32998 82204 11109 21122 30074 40174 51015 80001 333 11014
AAXX 29181 28711 11497 82809 11055 21073 39769 40154 51024 69990 73632 885// 333 11039 88613 91013 91113
AAXX 29181 28807 12997 00000 11092 21103 30146 40200 52012 69900 333 11008 91119
AAXX 29181 34009 32497 72103 11015 21032 39883 40195 57010 87600 333 10015
AAXX 29181 34110 32997 02203 11026 21045 39930 40216 57006 333 10019
AAXX 29181 34123 32997 01903 11012 21032 30027 40216 57006 333 10016
AAXX 29181 34152 32965 01902 11065 21073 30035 40242 54000 333 11004
AAXX 29181 34163 32998 02602 11072 21077 40243 52002 333 11031
AAXX 29181 34171 32960 02003 11044 21079 30036 40238 52008 333 11020
AAXX 29181 34186 32980 02803 11080 21112 30097 40242 52014 333 11027
AAXX 29181 34247 32966 02002 11033 21054 30133 40251 57004 333 10025
AAXX 29181 34336 32998 00000 11034 21048 30147 40255 57004 333 10026
AAXX 29181 34391 32997 02704 11057 21075 30222 40254 52018 333 11011
AAXX 29181 35011 11584 83003 11037 21077 40191 52027 69900 70232 875// 333 11015 87623
AAXX 29181 35121 11598 73206 11017 21070 30035 40184 52039 69900 73632 87500 333 11012 87626 91117
AAXX 29181 22271 NIL
AAXX 29181 22520 11394 80902 11010 21012 39850 49859 60032 77373 8872/ 333 11007 88707
AAXX 29181 22550 11467 81503 11052 21085 39903 49913 57019 69990 70282 884// 333 11037 88616
AAXX 29181 22583 NIL
AAXX 29181 22768 11596 82105 11039 21054 39900 49956 57026 69900 77173 8802/ 333 11038 88520
AAXX 29181 22845 11396 82104 11019 21027 39794 49950 57010 60010 77177 8672/ 333 11027 86708
AAXX 29181 22887 32497 71804 11046 21066 39933 40004 57031 8455/ 333 11025 91107
AAXX 29181 23205 NIL
AAXX 29181 23219 NIL
AAXX 29181 23418 11365 81001 11072 21081 39855 49929 52009 69970 70272 886// 333 11071 88709 93403
AAXX 29181 23606 12460 82603 11047 21064 39800 49972 52007 69980 885// 333 11032 88616
AAXX 29181 23711 11498 82403 11031 21045 39801 49974 52015 69990 72682 889// 333 11028 86914
AAXX 29181 23804 12297 82103 11054 21064 39870 40020 58008 69930 886// 333 11019 86704
AAXX 29181 27037 11497 82103 11021 21027 39845 40007 57020 69900 77172 8872/ 333 11025 88712
AAXX 29181 27199 12598 82503 11045 21061 39883 40084 50000 69930 885// 333 11026
AAXX 29181 27271 32697 71204 11055 21073 39905 40065 57030 85530 333 11027
AAXX 29181 27459 32998 02302 11039 21072 39905 40105 57025 80000 333 11032
AAXX 29181 27730 32998 12105 11023 21048 39940 40139 57016 81080 333 11022
AAXX 29181 22028 11581 70507 11012 21052 39887 49925 53002 69962 73682 86930 333 11012 91009 91110
AAXX 29181 22106 32998 80000 11162 21175 39841 49923 53003 8805/ 333 11136 93502
AAXX 29181 22127 32998 50000 11185 21204 39718 49930 54000 85030 333 11098
AAXX 29181 22324 11582 83602 11066 21071 39842 49892 57010 69902 78582 889// 333 11053 91003
AAXX 29181 22621 11450 82104 10008 21000 39738 49875 57008 60042 78582 889// 333 10008 86913
AAXX 29181 22831 11497 82102 10003 21005 39869 49929 57011 60102 70282 889// 333 10005
AAXX 29181 22892 11497 82110 10034 20021 39885 49901 57019 60032 78082 889// 333 10035 87714 91011 91116
AAXX 29181 26275 11498 82704 10025 20017 39968 49998 57009 60022 70262 885// 333 10026 88612
AAXX 29181 26389 11496 82103 10008 21006 39767 40030 56008 69902 71082 886// 333 10010
AAXX 29181 26499 11497 72006 10000 21008 39834 40065 57014 69922 72682 87500 333 10000 87614
AAXX 29181 26695 11396 82003 11009 21016 39792 40103 57022 69902 77172 8672/ 333 11008 86707
AAXX 29181 26882 11458 82104 11002 21008 39841 40120 57018 69902 77172 8872/ 333 10000 88712
AAXX 29181 28676 115// 81804 11032 21063 39858 49985 52016 69970 70273 885// 333 10005
AAXX 29181 28766 119// 02105 11082 21100 39800 49991 52023 69900 71031 333 11006
AAXX 29181 28867 11598 52305 11078 21100 39745 40020 52033 69900 73633 85500 333 11023
AAXX 29181 28879 115// 82309 11032 21063 39732 40018 52018 69900 77187 885// 333 11002 91114
AAXX 29181 28952 329// 02502 11069 21111 39842 40036 52036 333 11004
AAXX 29181 28966 125// 82305 11049 21077 39739 40023 52031 69980 885// 333 11012
AAXX 29181 29802 119// 31904 11027 21050 39927 40070 53008 69990 70273 80001 333 11009
AAXX 29181 29807 119// 02205 11047 21067 39961 40080 53017 60030 70173 333 11006
AAXX 29181 34691 32998 02705 11057 21072 30241 40228 52002 333 10018
AAXX 29181 35067 125// 62205 11039 21054 39768 40044 52026 69920 82570 333 11016
AAXX 29181 35078 115// 82409 11043 21055 39673 40052 52012 69920 73683 885// 333 11011
AAXX 29181 35085 115// 82207 11047 21060 39586 40062 52009 69980 70372 885// 333 11010
AAXX 29181 35108 329// 03101 11079 21111 30181 40229 52024 333 11009
AAXX 29181 35188 124// 21603 11049 21066 39657 40094 52017 69960 82600 333 11007
AAXX 29181 35217 329// 02904 11091 21116 30189 40232 52025 333 11020
AAXX 29181 35229 125// 83208 11032 21071 39899 40176 52036 69940 885// 333 11020 91115
AAXX 29181 35302 329// 03305 11064 21084 30217 40237 52023 333 11019
AAXX 29181 35357 NIL
AAXX 29181 35394 NIL
AAXX 29181 35406 329// 02701 11057 21083 30256 40259 52028 333 11007
AAXX 29181 35416 326// 82607 11053 21082 30111 40235 52037 885// 333 11022
AAXX 29181 35426 115// 82409 11041 21060 39897 40193 52030 60020 73673 885// 333 11021
AAXX 29181 35497 NIL
AAXX 29181 35532 11498 82709 11054 21072 39691 40192 52036 60010 73637 8802/ 333 11015 91116
AAXX 29181 35671 NIL
AAXX 29181 35700 32998 02703 11030 21061 30307 40283 52025 333 10014
AAXX 29181 35746 NIL
AAXX 29181 35796 NIL
AAXX 29181 35849 NIL
AAXX 29181 35925 315// 52709 11025 21041 40275 53023 71022 85600 333 10020
AAXX 29181 35953 NIL
AAXX 29181 35969 NIL
AAXX 29181 36003 11698 82107 10011 21021 39939 40088 57006 69950 73673 8357/ 333 10003 91113
AAXX 29181 36152 315// 81806 11003 21047 39946 40133 57016 73633 885// 333 11001
AAXX 29181 36177 115// 81507 11044 21057 39953 40202 57013 69900 72683 883// 333 11038
AAXX 29181 36208 315// 71903 11016 21073 39261 40241 57002 77173 8572/ 333 10006
AAXX 29181 36397 326// 81616 11084 21111 39668 40246 57012 885// 333 11094 91020 91120
AAXX 29181 36428 329// 20000 11180 21195 39795 40332 57010 82041 333 11128 95090
AAXX 29181 36535 329// 71101 11134 21173 39659 40326 57011 87500 333 11124
AAXX 29181 36639 329// 21002 11130 21156 39653 40289 57022 82030 333 11055
AAXX 29181 36821 325// 81701 10008 21021 39771 40261 58001 889// 333 10017
AAXX 29181 36859 329// 00102 11072 21101 39482 40291 53016 333 11016
AAXX 29181 36864 31/// 91402 11056 21063 39366 40286 58003 74944 333 10017
AAXX 29181 36870 329// 80000 11027 21056 39247 40279 53005 80002 333 10035
AAXX 29181 38001 32997 02902 10012 21030 30346 40316 52014 333 10029
AAXX 29181 38062 NIL
AAXX 29181 38069 NIL
AAXX 29181 38196 11595 83404 11040 21052 39261 40266 52009 60540 77373 8802/ 333 11013 91116
AAXX 29181 38198 115// 82505 10001 21005 30013 40276 52007 60100 77376 8802/ 333 10026
AAXX 29181 38222 NIL
AAXX 29181 38232 32998 03004 11013 21041 30220 40322 52015 333 10045
AAXX 29181 38328 115// 82204 10030 21028 39533 40265 52006 69900 70282 889// 333 10059
AAXX 29181 38334 32997 83006 10002 21015 39290 40264 52003 8801/ 333 10050 91012 91113
AAXX 29181 38341 NIL
AAXX 29181 38343 NIL
AAXX 29181 38439 32598 81102 10032 21012 39939 40280 52005 885// 333 10038
BBXX 46111 29181 99481 71227 46/// /1106 10076 40167 50007 91800 22200 00051
AAXX 29181 28676 115// 81804 11032 21063 39858 49985 52016 69970 70273 885// 333 10005
AAXX 29181 28766 119// 02105 11082 21100 39800 49991 52023 69900 71031 333 11006
AAXX 29181 28867 11598 52305 11078 21100 39745 40020 52033 69900 73633 85500 333 11023
AAXX 29181 28879 115// 82309 11032 21063 39732 40018 52018 69900 77187 885// 333 11002 91114
AAXX 29181 28952 329// 02502 11069 21111 39842 40036 52036 333 11004
AAXX 29181 28966 125// 82305 11049 21077 39739 40023 52031 69980 885// 333 11012
AAXX 29181 29802 119// 31904 11027 21050 39927 40070 53008 69990 70273 80001 333 11009
AAXX 29181 29807 119// 02205 11047 21067 39961 40080 53017 60030 70173 333 11006
AAXX 29181 34691 32998 02705 11057 21072 30241 40228 52002 333 10018
AAXX 29181 35067 125// 62205 11039 21054 39768 40044 52026 69920 82570 333 11016
AAXX 29181 35078 115// 82409 11043 21055 39673 40052 52012 69920 73683 885// 333 11011
AAXX 29181 35085 115// 82207 11047 21060 39586 40062 52009 69980 70372 885// 333 11010
AAXX 29181 35108 329// 03101 11079 21111 30181 40229 52024 333 11009
AAXX 29181 35188 124// 21603 11049 21066 39657 40094 52017 69960 82600 333 11007
AAXX 29181 35217 329// 02904 11091 21116 30189 40232 52025 333 11020
AAXX 29181 35229 125// 83208 11032 21071 39899 40176 52036 69940 885// 333 11020 91115
AAXX 29181 35302 329// 03305 11064 21084 30217 40237 52023 333 11019
AAXX 29181 35357 NIL
AAXX 29181 35394 NIL
AAXX 29181 35406 329// 02701 11057 21083 30256 40259 52028 333 11007
AAXX 29181 35416 326// 82607 11053 21082 30111 40235 52037 885// 333 11022
AAXX 29181 35426 115// 82409 11041 21060 39897 40193 52030 60020 73673 885// 333 11021
AAXX 29181 35497 NIL
AAXX 29181 35532 11498 82709 11054 21072 39691 40192 52036 60010 73637 8802/ 333 11015 91116
AAXX 29181 35671 NIL
AAXX 29181 35700 32998 02703 11030 21061 30307 40283 52025 333 10014
AAXX 29181 35746 NIL
AAXX 29181 35796 NIL
AAXX 29181 35849 NIL
AAXX 29181 35925 315// 52709 11025 21041 40275 53023 71022 85600 333 10020
AAXX 29181 35953 NIL
AAXX 29181 35969 NIL
AAXX 29181 36003 11698 82107 10011 21021 39939 40088 57006 69950 73673 8357/ 333 10003 91113
AAXX 29181 36152 315// 81806 11003 21047 39946 40133 57016 73633 885// 333 11001
AAXX 29181 36177 115// 81507 11044 21057 39953 40202 57013 69900 72683 883// 333 11038
AAXX 29181 36208 315// 71903 11016 21073 39261 40241 57002 77173 8572/ 333 10006
AAXX 29181 36397 326// 81616 11084 21111 39668 40246 57012 885// 333 11094 91020 91120
AAXX 29181 36428 329// 20000 11180 21195 39795 40332 57010 82041 333 11128 95090
AAXX 29181 36535 329// 71101 11134 21173 39659 40326 57011 87500 333 11124
AAXX 29181 36639 329// 21002 11130 21156 39653 40289 57022 82030 333 11055
AAXX 29181 36821 325// 81701 10008 21021 39771 40261 58001 889// 333 10017
AAXX 29181 36859 329// 00102 11072 21101 39482 40291 53016 333 11016
AAXX 29181 36864 31/// 91402 11056 21063 39366 40286 58003 74944 333 10017
AAXX 29181 36870 329// 80000 11027 21056 39247 40279 53005 80002 333 10035
AAXX 29181 38001 32997 02902 10012 21030 30346 40316 52014 333 10029
AAXX 29181 38062 NIL
AAXX 29181 38069 NIL
AAXX 29181 38196 11595 83404 11040 21052 39261 40266 52009 60540 77373 8802/ 333 11013 91116
AAXX 29181 38198 115// 82505 10001 21005 30013 40276 52007 60100 77376 8802/ 333 10026
AAXX 29181 38222 NIL
AAXX 29181 38232 32998 03004 11013 21041 30220 40322 52015 333 10045
AAXX 29181 38328 115// 82204 10030 21028 39533 40265 52006 69900 70282 889// 333 10059
AAXX 29181 38334 32997 83006 10002 21015 39290 40264 52003 8801/ 333 10050 91012 91113
AAXX 29181 38341 NIL
AAXX 29181 38343 NIL
AAXX 29181 38439 32598 81102 10032 21012 39939 40280 52005 885// 333 10038
BBXX WDB9950 29183 99543 71755 41398 63210 11040 21044 40150 51010 77472 8679/ 22264 00040 2//// 3//// 4//// 5//// 6//// 81040 ICE /////
BBXX V7NV4 29184 99324 11486 41797 72418 10150 20116 40150 52020 7//21 85191 22263 00200 20206 32424 40206 50206 6//// 80130 ICE /////
BBXX WDF7020 29184 99467 70860 41/97 81420 1//// 2//// 40020 57/// 70202 88/2/ 22263 0//// 20302 3//// 4//// 5//// 6//// 8//// ICE /////
BBXX WBO3345 29184 99239 70793 41697 80105 10239 20207 40150 54/// 70322 88953 22272 0//// 20501 301// 40501 5//// 6//// 80217 ICE /////
BBXX NWS0021 29184 99322 70645 43/// /2813 10209 20124 40183 5//// 7//// 8//// 222// 04216 2//// 3//// 4//// 5//// 6//// 8//// ICE /////
AAXX 29181 38598 426// 80901 10021 20005 40311 52004 885//
AAXX 29181 38599 31914 80000 10005 21003 39772 40303 51003 71022 8805 333 10032
AAXX 29181 38725 426// 60000 11029 21171 48560 52002 85502
AAXX 29181 38734 425// 60910 11063 21139 47080 51001 85903
AAXX 29181 38744 426// 30000 11110 21130 38074 48600 54000 83500
AAXX 29181 38836 326// 20000 11012 21027 39340 40315 52009 82900 333 10086
AAXX 29181 38838 429// 00502 10005 21009 39611 40304 52006
AAXX 29181 38844 429// 00502 11035 21143 38530 52007
AAXX 29181 38846 429// 00504 11048 21092 38556 48520 53003
AAXX 29181 38847 NIL
AAXX 29181 38932 NIL
AAXX 29181 38933 329// 00000 11002 21020 39788 40324 54014 333 10070
AAXX 29181 38944 NIL
AAXX 29181 38954 329// 00000 11048 21120 38022 48610 52007 333 10018
BBXX MINFR09 2918/ 99174 11473 46/// ///// 40141 57003
BBXX WCX8812 29184 99510 11794 41299 23600 10010 2102/ 40154 56007 71570 824// 22254 00050 2//// 3//// 4//// 5//// 6//// 80000 ICE /////
BBXX ONFE 29184 99062 10937 41499 10815 10270 2024/ 40130 54000 70200 812// 22264 00290 2//// 3//// 4//// 5//// 6//// 80245 ICE /////
BBXX V7NV4 29184 99324 11486 41797 72418 10150 20116 40150 52020 7//21 85191 22263 00200 20206 32424 40206 50206 6//// 80130 ICE /////
BBXX OYGR2 29184 99057 10817 41797 42514 10268 20228 40102 50003 70200 81025 22224 04275 20302 30000 80239
BBXX MTFH5 29183 99071 10948 41998 00914 10280 20246 40121 54000 70200 80000 22273 29903 3//// 4//// 5//// 80255
BBXX SHJC 29181 99096 10682 43/98 50011 10272 40138 55011 22274 00282 2//// 4////
BBXX A8RV9 29184 99050 50319 41598 11216 10285 20230 40110 58010 70300 8/16/ 22234 20802 303// 41004 5//// 80245
BBXX C6VF5 29184 99287 10329 43/// /3314 10160 2014/ 40180 5//// 7//// 8/000 22234 00180 2//// 3//// 4//// 5//// 6//// 80150 ICE /////
BBXX 3FMV6 29183 99272 30478 41298 70120 10240 20225 40067 51010 70222 87778 22213 06240 20102 80230
BBXX ELVF4 29181 99118 30691 41/97 82004 10245 20230 40168 54000 7//// 88/// 22213 06220 20301 31719 40303 50403 80235
BBXX PHAL 29183 99035 70076 41/98 81810 10272 20240 40122 55000 70222 887// 22262 20201 317// 40903 80249 90926
BBXX PFFH 29183 99092 70164 41997 10000 10273 20243 40107 57023 70100 80006 22233 00285 20000 335// 40503 80251 90926
BBXX A8KH9 29184 99180 30654 41598 40618 10270 20257 40090 53120 70322 83496 22224 02240 20101 30102 40202 50303 80260
BBXX PHKL 29181 99122 10462 41998 00609 10255 20181 40172 51013 70200 80000 22224 00257 2//// 3//// 4//// 5//// 80205
BBXX PDKK 29183 99040 30004 41698 62005 10248 20226 40120 53005 70222 86400 22271 20201 316// 41002 80233
BBXX PDHO 29184 99177 10585 41/97 10210 10235 20214 40180 51010 70200 8//// 22264 00248 20201 80220
BBXX UBAU 29181 99127 70174 41898 60405 10260 40148 57003 70311 86051 22261 04260 20100
BBXX A8AX3 29183 99047 30117 41397 31402 10250 40122 50/// 7//// 83211 22200 2//// 30000
BBXX SGW 29181 99335 71226 43/93 93310 10124 40241 58002 22224 00132 20504 41104
BBXX VQKR7 29184 99322 71171 41598 32603 10165 20109 40192 55021 70200 83110 22200 04120 20401 32800 40401 80135
BBXX A8UE5 29184 99540 71582 41297 72819 11010 21011 40055 52015 77077 8499/ 22224 04040 20402 330// 40905 5//// 81010
BBXX 41053 29181 99185 70661 46/// /0908 10268 40162 91750 333 91210
BBXX 41053 29181 99185 70661 46/// /0908 10268 40163 91740 333 91209
BBXX 41053 29181 99185 70661 46/// /0908 10268 40162 58024 91800 22200 00271 11404 70022 333 91210
BBXX 44139 29181 99442 70571 46/// /2416 10075 49986 52001 22200 00075 11312 70061 333 91219
BBXX 44060 29181 99413 70721 46/// ///07 11011 40146 91800 22200 00088 333 91210 555 11072 22077
BBXX 44039 29181 99411 70727 46/// /2704 11014 21100 40158 91800 22200 00084 10401 70006 333 91206
BBXX C6KD9 29180 99221 70687 41597 41208 10270 20232 40178 58017 70311 84564 22214 02265 20903 312// 40904 5//// 80244
BBXX OZDL2 29183 99317 71239 41/93 /3419 10160 20108 40260 74244 8//// 22234 00160 20103 80130
BBXX WBO3345 29184 99239 70793 41697 80105 10239 20207 40150 54/// 70322 88953 22272 0//// 20501 301// 40501 5//// 6//// 80217 ICE /////
BBXX 3EKU3 29184 99520 71381 41996 10919 00/// 10030 20040 49940 57004 70200 81627 22274 00032 20803 31111 40602 5//// 6//// /////
BBXX C6KJ5 29184 99247 70913 41497 12214 12214 40000 10259 2017/ 40195 52005 70300 83140 22233 00249 80205
BBXX WCX8883 29184 99424 71612 41398 63607 10080 2004/ 40198 52008 7//11 864// 22225 00100 20805 32535 40802 5//// 6//// 80060 ICE /////
BBXX OZBY2 29184 99382 71526 41596 83125 10140 2009/ 40210 52030 70222 884// 22224 00150 20802 310// 41206 5//// 6//// 80110 ICE /////
BBXX C6T2064 29183 99291 70489 41598 71710 10220 2014/ 40270 54000 70222 8422/ 22264 20302 329// 40805 80170
BBXX PDHY 29183 99468 70393 41298 81814 10140 40057 55000 70282 887// 22263 04130 20406 320// 40806 5////
BBXX MHNO6 29183 99264 70726 41598 20806 10220 20173 40189 58019 70300 82500 22283 00257 20401 308// 41104 5//// 80191
BBXX DQXQ 29184 99219 71094 41598 52004 10236 20179 40165 50015 70322 81108 22234 00240 20200 303// 40503 80198
BBXX LAIG7 29184 99289 71411 41497 80109 10180 2013/ 40270 54000 70321 8662/ 22223 00205 20201 331// 40503 5//// 6//// 80150 ICE /////
BBXX 46089 29181 99459 71258 46/// /1707 10094 20083 40159 56025 91750 22200 00094 11308 20503 326// 41308 70040 333 91209 555 11077 22082 31743 41709 61749 168073 167072 165071 160066 161066 163064
BBXX 46042 29181 99368 71224 46/// /3406 10111 40242 51014 91750 22200 00125 11305 20401 329// 41304 70023 333 91207 555 11062 22065 31736 43308 61749 337059 333063 327063 331061 337058 346053
BBXX 46053 29181 99342 71198 46/// /1902 10147 40188 53009 91750 22200 00136 11203 20301 327// 41203 70013 333 91202 555 11020 22024 31656 42403 61749 186016 205018 232014 225016 216021 228027
BBXX 46001 29181 99563 71480 46/// /2811 11018 49956 53019 91750 22200 00043 11408 20706 300// 41405 70038 333 91213 555 11112 22117 31704 42315 61749 276107 276115 273116 267112 259108 249108
BBXX 46083 29181 99582 71380 46/// /2511 10003 21031 49970 51022 91750 22200 00063 11008 20505 300// 41007 70041 333 91215 555 11118 22126 31746 42615 61749 250103 256078 240055 238049 242078 269049 82513 91749
BBXX 44022 29181 99409 70737 46/// ///04 11007 21123 40158 56025 91800 22200 00084 333 91206 555 11041 22041
BBXX WXJ63 29183 99611 71464 41/97 80606 11047 21091 49891 5//// 702// 8//// 222// 00039 2//// 3//// 4//// 5//// 6//// 8//// ICE /////
BBXX KEY796 29183 99571 71703 41/96 82913 11083 21106 40080 53/// 771// 8//// 222// 01017 2//// 3//// 4//// 5//// 6//// 8//// ICE /////
BBXX AVMI 29183 99330 31517 41398 21017 10182 20/// 40248 56004 70003 82010 22200 00196
BBXX PCKU 29180 99002 11192 41/98 61905 10278 20244 40110 56012 7//00 8//// 22243 04289 20302 80253
BBXX VNSZ 29184 99407 31461 46/// /0209 10167 20144 30188 40214 52008 22236 04175 85153
BBXX VRAE2 29184 99297 31699 41397 83521 10228 20208 40012 56004 75022 886// 22273 04220 20303 335// 40404 80215
BBXX mpjh9 29183 99360 31506 41598 30103 10180 20127 40183 54000 70111 82141 22244 20000 80150
BBXX VRWS3 29183 99229 31546 41497 71122 10255 20248 40079 54000 70222 8/88/ 22244 04280 20504 318// 40706 80250
BBXX 2ALD3 29183 99185 31534 41/98 /0910 10240 20226 40061 58/// 76066 8//// 22244 04290 20301 80230
BBXX ZCBU6 29184 99347 31545 41498 61523 10190 20147 40155 53005 70211 852// 22244 00212 20504 318// 40406 5//// 80165
BBXX TBWUK42 29184 99173 30701 41397 61110 10265 20236 40143 54000 70211 857/7 22213 20001 307// 40002 5//// 80245
BBXX DCDO2 29183 99039 11289 41398 50310 10265 20245 40090 56010 70122 85145 22234 00290 2//// 3//// 4//// 5//// 80250
BBXX KAOU 29184 99003 10836 43/// /0187 10281 20240 40097 5//// 7//// 8//// 222// 04285 2//// 3//// 4//// 5//// 6//// 8//// ICE /////
BBXX VK4041 29180 99096 51235 41598 70907 10253 20217 40152 52012 70122 858/2 22262 02253 20208 3//// 4//// 5//// 80229
BBXX A8KX4 29184 99410 51217 412// 81717 10145 20086 40210 52040 76065 8/7// 22264 04140 20203 30000 80115
BBXX PCCL 29183 99397 31623 41097 81817 10150 40120 52004 70285 887// 22263 04186 20503 321// 40807
BBXX MGRH9 29184 99266 31533 41/97 /1624 10230 20174 40088 50001 76066 8//// 22200 00236 2//// 3//// 4//// 5//// 80195
BBXX MIBR 29183 99094 30804 41/97 82515 10280 20252 40061 54000 70222 8//// 22254 00290 2//// 3//// 4//// 5//// 80260
BBXX WDF7994 29184 99440 70869 41/97 81922 10027 2//// 49997 54000 70207 88/// 22283 00033 20403 3//// 4//// 5//// 6//// 8//// ICE /////
BBXX 62087 29181 99547 10068 46/// /9902 10065 20035 4//// 5//// 22200 00083
BBXX 62023 29183 99514 70079 46/96 /2732 10105 2//// 40260 5//// 22200 10607 70036 333 91140 555 70058 80001
BBXX LMEL 29181 99603 10053 43/// /3209 10035 20035 49877 5//// 222/0 04076 1//// 3//// 4//// 5////
BBXX LDGJ 29181 99603 10053 43/// /3206 10044 20019 49884 5//// 222/0 04073 1//// 3//// 4//// 5////
BBXX LAHV 29181 99589 10057 43/// /2810 10050 20002 49915 222// 04089 1////
BBXX LF4H 29184 99596 10022 46/// /3421 10039 20012 49934 52007 8//// 22200 06079 10809 70043 333 91143
BBXX TBWUK35 29183 99592 10040 41298 83234 10051 20044 49911 52020 75165 887// 22242 00100 20508 80048
BBXX C6WK7 29184 99324 70168 41698 40730 10169 2//// 40340 54/// 7//11 83183 22245 00210 2//// 323// 40503 5//// 6//// 8//// ICE /////
BBXX C6KD6 29184 99452 70168 41/98 92018 10128 20082 40395 54000 70322 8972/ 22214 02137 21008 80105
BBXX VRFX8 29184 99503 70292 41/93 /2030 10130 20130 40170 54000 74544 8//// 22214 0//// 20404 318// 40707 80130
BBXX PHAM 29184 99495 70011 41/97 /2731 10110 20072 40240 54000 7//// 8//// 22200 20408 80090 90926
BBXX A8MZ9 29184 99359 10165 41597 59904 10158 20128 54000 70351 843// 22264 04178 29990801
BBXX C6TZ9 29184 99281 50481 418// 51313 10230 20169 40150 54/// 7//22 85/// 22214 00230 2//// 3//// 4//// 5//// 6//// 80190 ICE /////
BBXX MZDL7 29183 99567 50688 41/96 83233 10068 20052 49950 57025 75252 8//// 22224 00080 20804 330// 40912 5//// 80061
BBXX OWFD2 29181 99047 70800 41398 50312 10295 20255 40110 55020 70211 8471/ 22244 04270 20403 304// 40403 80265
BBXX NWS0020 29184 99267 70705 43/// /0610 10225 20192 40186 5//// 7//// 8//// 222// 04253 2//// 3//// 4//// 5//// 6//// 8//// ICE /////
BBXX NWS0029 29184 99415 70707 43/// /2715 11013 21121 40129 5//// 7//// 8//// 222// 04067 2//// 3//// 4//// 5//// 6//// 8//// ICE /////
BBXX NWS0003 29184 99539 71665 43/// /0000 11049 21069 40095 5//// 7//// 8//// 222// 0//// 2//// 3//// 4//// 5//// 6//// 8//// ICE /////
BBXX 9LD2206 29183 99137 70426 41497 40818 10264 20223 40170 56021 7//00 84101 22262 04265 20403 80235
BBXX C6KD8 29183 99143 70700 41598 30924 10285 20219 40146 58026 70200 81141 22254 02280 20704 309// 40804 5//// 80240
BBXX PHIN 29184 99490 70612 41/96 82346 11020 21023 49762 56004 77474 8//// 22272 00020 29912 399// 4//12 65061 82020
BBXX A8KW3 29183 99292 71586 41/99 71405 10230 20165 40314 58010 703// 8//// 22264 04250 299// 3//// 4//// 5//// 80190
BBXX A8CH2 29184 99334 70410 41598 72014 10210 40280 54000 70300 8546/ 22254 04190 20601 327// 41306
BBXX DGBE 29183 99502 71706 41/98 43603 10004 21006 40152 54000 70371 8//// 22224 00050 2//// 80000
BBXX DEDI 29183 99445 70426 41296 82034 10165 20141 40080 53000 75055 8777/ 22224 00145 21007 31821 41007 51407 80150
BBXX DGDD 29181 99325 71497 41598 82308 10205 20167 40260 51010 70322 85617 22224 04200 20505 330// 41207 5//// 80180
BBXX 41038 29181 99341 70777 46/// /1901 10161 40182 58022 91800 22200 00138 333 91202
BBXX DDJS2 29183 99178 71039 41598 30807 10275 20224 40142 50005 70211 82100 22274 04280 20101 309// 40202 5//// 80240
BBXX C6OT4 29184 99129 71057 41699 30704 10295 20245 40160 52010 70300 82101 22223 04278 20300 3//// 4//// 5//// 80260
BBXX A8IH2 29183 99109 71409 41399 70717 10240 20219 40140 53010 7//22 87770 22254 06240 21403 307// 41204 5//// 80225
BBXX DMRX 29183 99100 70872 41998 10524 10264 20225 40115 58015 70300 80001 22234 00260 20808 308// 41105 80236
AAXX 29184 70133 12966 22104 11294 21322 39983 49990 50009 69901 91753 333 11250 21306 555 92918
AAXX 29184 70174 11548 81403 11250 21278 39722 49981 53013 60021 771// 91753 333 11244 21344 4/076 96010 555 92918
AAXX 29184 70200 32466 40000 11339 21361 39995 40000 53012 91753 333 11294 21356 555 92918
AAXX 29184 70219 32864 81907 11317 21350 39972 40032 53008 91753 333 11250 21328 4/003 555 92918
AAXX 29184 70231 32766 80000 11417 39884 40026 53015 91753 333 11411 21433 4/097 555 92918
AAXX 29184 70261 11559 40000 11322 21344 39824 40008 53021 69931 710// 91753 333 11244 21322 555 92918
AAXX 29184 70267 32966 42504 11283 21311 39501 40022 91753 333 11228 21283 555 92918
AAXX 29184 70271 12766 80000 11178 21200 39325 49935 53027 69901 91753 333 11161 21211 4/013 555 92918
AAXX 29184 70273 32866 83605 11122 21194 39868 49930 53022 91753 333 11117 21150 4/076 555 92918
AAXX 29184 70316 11561 63215 11067 21106 30019 40057 53009 69931 771// 91753 333 11061 21100 91019 555 92918
AAXX 29184 70326 12764 61604 11233 21267 39994 40008 53012 69901 91754 333 11233 21300 555 92918
AAXX 29184 70340 32766 83307 11222 21267 39931 49996 51015 91753 333 11217 21244 555 92918
AAXX 29184 70350 32966 02910 11106 21194 39909 49950 52021 91753 333 11072 21111 555 92918
AAXX 29184 70361 12566 60904 11050 21061 39948 49958 51019 60021 91753 333 11006 21056 4/053 555 92918
AAXX 29184 70381 12566 60807 11011 21033 39993 40002 53030 69901 91753 333 21017 4/013 555 92918
AAXX 29184 70414 35666 43607 11056 21117 30116 40152 53001 91756 333 11028 21072 555 92918
AAXX 29184 60351 11558 83414 10136 20090 40254 53002 60142 70296 889// 333 0//54 10140 84816 81926 86633 95990
AAXX 29184 60355 12558 73618 10142 20069 40249 52015 60052 878// 333 0//15 10165 81830 87833 95990
AAXX 29184 60445 11458 53403 10037 20030 39083 48544 51008 69922 70162 85200 333 10079 81710 85826 95990
AAXX 29184 60468 11460 80000 10054 20031 39296 48541 52011 69932 72162 888// 333 10085 83816 87823 95990
AAXX 29184 60507 12560 10000 10080 20072 40302 55001 60022 81200 333 10111 81830 95990
AAXX 29184 60511 12560 42808 10044 20035 39143 48566 51011 60001 83202 333 10094 83826 95990
AAXX 29184 60535 11458 73606 10034 20034 38898 48552 51003 60042 70162 877// 333 10045 87716 95990
AAXX 29184 60536 11660 30000 10057 20048 39404 48570 55001 60082 70260 83200 333 10084 83833 95990
AAXX 29184 60549 11656 83110 10049 20040 38996 48582 58004 69932 70262 8827/ 333 10075 83710 85833 95990
AAXX 29184 60550 12458 63608 10035 20029 38734 48567 58001 60032 86600 333 10055 85710 83830 95990
AAXX 29184 60555 12970 00000 10094 20021 40252 53005 60002 333 0//00 10150
AAXX 29184 60559 12960 10000 10103 20014 40243 51006 60002 81030 333 10151 81360
AAXX 29184 60581 12960 20000 10110 20028 40257 52009 60002 80002 333 10153 82073
AAXX 29184 60602 12965 10504 10136 20014 40275 53007 60002 81200 333 10157 81843 95990
AAXX 29184 60607 12960 00110 10114 21044 40270 53015 60002 333 10148
AAXX 29184 60640 12660 40112 10141 21021 40225 52034 60002 84200 333 10228 84846
AAXX 29184 60690 NIL
AAXX 29184 60360 11458 83017 10124 20093 40248 53016 60092 70286 889// 333 10137 83817 81930 85633 95990
AAXX 29184 60390 11570 62505 10122 20099 40294 53011 60042 70162 83830 333 10142 82820 83640 95990
AAXX 29184 60402 11557 72208 10103 20099 40274 53010 60192 70386 878// 333 10115 83820 85640 95990
AAXX 29184 60419 12460 73306 10061 20045 40279 53008 60022 838// 333 10079 83816 86623 95990
AAXX 29184 60475 11556 83216 10065 20056 39277 48523 55001 60012 76162 888// 333 10080 83820 87833 95990
AAXX 29184 60490 12565 42705 10105 20085 40294 53005 60022 83202 333 10164 83820 95990
AAXX 29184 60525 12960 03312 10135 20038 40236 53016 60002 333 10167 95990
AAXX 29184 60531 12565 40000 10099 20067 40307 53008 60032 82202 333 10150 82826 83073 95990
AAXX 29184 60566 12660 20103 10110 20004 40275 53010 60002 82200 333 10140 82840
AAXX 29184 60571 12965 10307 10105 20013 39338 48577 53007 60002 81082 333 10134 81360 95990
AAXX 29184 60580 12960 00000 10115 20062 40257 53011 60002 333 10162
AAXX 29184 60590 NIL
AAXX 29184 60611 12560 70806 10129 21004 40221 53020 60002 8587/ 333 10150 85826 83358
AAXX 29184 60620 12660 20109 10120 20012 40270 52014 60002 80002 333 10158 82075
AAXX 29184 60630 12782 30313 10145 21011 40247 51011 60002 83200 333 10174 82856
AAXX 29184 60656 12970 00000 10164 20006 40271 53002 60002 333 10180
AAXX 29184 60670 12970 20000 10124 21077 39076 48505 53013 60002 80002 333 10180 82073 95990
AAXX 29184 60680 12975 33013 10109 21060 38633 48507 53004 60002 80002 333 10156 83073 95990
AAXX 29184 60360 11458 83017 10124 20093 40248 53016 60092 70286 889// 333 10137 83817 81930 85633 95990
AAXX 29184 60390 11570 62505 10122 20099 40294 53011 60042 70162 83830 333 10142 82820 83640 95990
AAXX 29184 60402 11557 72208 10103 20099 40274 53010 60192 70386 878// 333 10115 83820 85640 95990
AAXX 29184 60419 12460 73306 10061 20045 40279 53008 60022 838// 333 10079 83816 86623 95990
AAXX 29184 60475 11556 83216 10065 20056 39277 48523 55001 60012 76162 888// 333 10080 83820 87833 95990
AAXX 29184 60490 12565 42705 10105 20085 40294 53005 60022 83202 333 10164 83820 95990
AAXX 29184 60525 12960 03312 10135 20038 40236 53016 60002 333 10167 95990
AAXX 29184 60531 12565 40000 10099 20067 40307 53008 60032 82202 333 10150 82826 83073 95990
AAXX 29184 60566 12660 20103 10110 20004 40275 53010 60002 82200 333 10140 82840
AAXX 29184 60571 12965 10307 10105 20013 39338 48577 53007 60002 81082 333 10134 81360 95990
AAXX 29184 60580 12960 00000 10115 20062 40257 53011 60002 333 10162
AAXX 29184 60590 NIL
AAXX 29184 60611 12560 70806 10129 21004 40221 53020 60002 8587/ 333 10150 85826 83358
AAXX 29184 60620 12660 20109 10120 20012 40270 52014 60002 80002 333 10158 82075
AAXX 29184 60630 12782 30313 10145 21011 40247 51011 60002 83200 333 10174 82856
AAXX 29184 60656 12970 00000 10164 20006 40271 53002 60002 333 10180
AAXX 29184 60670 12970 20000 10124 21077 39076 48505 53013 60002 80002 333 10180 82073 95990
AAXX 29184 60680 12975 33013 10109 21060 38633 48507 53004 60002 80002 333 10156 83073 95990
AAXX 29184 60351 11558 83414 10136 20090 40254 53002 60142 70296 889// 333 0//54 10140 84816 81926 86633 95990
AAXX 29184 60355 12558 73618 10142 20069 40249 52015 60052 878// 333 0//15 10165 81830 87833 95990
AAXX 29184 60445 11458 53403 10037 20030 39083 48544 51008 69922 70162 85200 333 10079 81710 85826 95990
AAXX 29184 60468 11460 80000 10054 20031 39296 48541 52011 69932 72162 888// 333 10085 83816 87823 95990
AAXX 29184 60507 12560 10000 10080 20072 40302 55001 60022 81200 333 10111 81830 95990
AAXX 29184 60511 12560 42808 10044 20035 39143 48566 51011 60001 83202 333 10094 83826 95990
AAXX 29184 60535 11458 73606 10034 20034 38898 48552 51003 60042 70162 877// 333 10045 87716 95990
AAXX 29184 60536 11660 30000 10057 20048 39404 48570 55001 60082 70260 83200 333 10084 83833 95990
AAXX 29184 60549 11656 83110 10049 20040 38996 48582 58004 69932 70262 8827/ 333 10075 83710 85833 95990
AAXX 29184 60550 12458 63608 10035 20029 38734 48567 58001 60032 86600 333 10055 85710 83830 95990
AAXX 29184 60555 12970 00000 10094 20021 40252 53005 60002 333 0//00 10150
AAXX 29184 60559 12960 10000 10103 20014 40243 51006 60002 81030 333 10151 81360
AAXX 29184 60581 12960 20000 10110 20028 40257 52009 60002 80002 333 10153 82073
AAXX 29184 60602 12965 10504 10136 20014 40275 53007 60002 81200 333 10157 81843 95990
AAXX 29184 60607 12960 00110 10114 21044 40270 53015 60002 333 10148
AAXX 29184 60640 12660 40112 10141 21021 40225 52034 60002 84200 333 10228 84846
AAXX 29184 60690 NIL
AAXX 29184 78526 12566 41014 10278 20211 30149 40172 58023 69901 91756 333 10289 20233 555 92918
AAXX 29184 78543 32566 60611 10300 20217 30092 40171 58026 91753 333 10306 20250 555 92918
BBXX DGZT2 29183 99362 70039 41/98 /3108 10145 20072 40290 53015 70200 8//// 22264 04160 2//// 80106
BBXX UCJL 29181 99656 10067 41698 60112 10050 49890 52025 70222 865// 22253 00050 20704
AAXX 29184 91165 12566 40714 10228 20178 30182 40218 53008 69931 91753 333 10228 20217 555 92918
AAXX 29184 91182 32666 40612 10239 20156 30205 40208 53010 91753 333 10244 20233 91020 555 92918
AAXX 29184 91190 32766 20512 10217 20150 30192 40212 53012 91754 333 10222 20211 91018 555 92918
AAXX 29184 91212 12666 80810 10237 20230 31375 40111 55009 60051 91754 333 10289 555 92918
AAXX 29184 91285 32566 62403 10200 20178 30208 40221 53014 91753 333 10211 20183 555 92918
AAXX 29184 91245 31458 40508 10250 20250 30154 710// 91755 555 92918
AAXX 29184 16021 12562 82907 11042 21073 37956 48482 58004 60012 886// 333 11016 47011 88730 92802 93197
BBXX BAREU06 29184 99389 10042 46/// ///// 40271 52006 22224
AAXX 29184 16008 12960 03604 11036 21147 38559 48516 52008 60002 333 10006 43016 92870
AAXX 29184 91945 36/// /0214 10280 20222 30149 40154 51004
BBXX IDDUK02 29184 99522 50490 46/// ///// 40001 222//
BBXX DCPX2 29183 99049 11065 41/96 /0225 10250 20250 40075 58025 76200 8//// 22214 04250 2//// 80250
BBXX BATFR53 29184 99185 51402 46/// /0517 10264 20207 40172 51010 22222 00272
BBXX DMQN 29184 99159 70262 41597 60522 10250 20199 40189 54000 70522 8441/ 22243 04250 20905 3//// 4//// 5//// 80215
BBXX DDYL2 29183 99234 10370 41/98 /0110 10235 20183 40155 51015 70000 8//// 22274 00250 2//// 80200
BBXX BATFR45 29184 99190 10614 46/// ///// 10240 20180 40176 58003 22244 00267
BBXX BATFR19 29184 99067 30055 46/// /1816 10234 20187 40122 52005 22200 00255
BBXX BATFR55 29184 99185 30559 44/97 00912 10272 20239 40129 70000 22232 00279 20804 30909 41204 51204
BBXX FVNM 29184 99094 70799 46/// /3515 10279 20242 40121 58014 22200 00290
BBXX A8IO2 29184 99250 70360 41598 60710 10250 20196 40255 56030 70122 84466 22254 04230 20504 309// 41004 5//// 80215
BBXX PHCQ 29183 99299 70902 41/// /1803 40175 58020 7//// 8//// 22200 20000 3//// 4//// 5////
BBXX PHQX 29183 99246 70473 41698 50506 10265 20184 40260 70211 85261 22254 20806 331// 40806 5//// 80210
BBXX 41101 29184 99146 70562 46/// /0822 10268 20220 40154 57018 22200 00269 10906 70031 555 1/028
BBXX PDHY 29183 99468 70393 41298 81814 10140 40057 55000 70282 887// 22263 04130 20406 320// 40806 5////
AAXX 29181 08521 NIL
AAXX 29181 08524 32470 20403 10163 20089 30246 40345 52005 82800 333 10195 81815 91006 91109
AAXX 29184 60353 NIL
AAXX 29184 60367 11560 7//// 10112 20104 40214 57016 60082 72162 878// 333 10123 83820 87840
AAXX 29184 60369 11560 50000 10155 20035 40281 53012 60052 72162 82282 333 10160 82826 91827
AAXX 29184 60401 NIL
AAXX 29184 60403 11558 73207 10102 20088 40253 52012 60022 70162 878// 333 10146 82830 86840 95990
AAXX 29184 60425 12565 40000 10115 20071 40292 53008 60002 83202 333 10145 83826 95990
AAXX 29184 60461 12570 50000 10130 20086 40290 53001 60082 82202 222// 20000 333 10153 82826 83073 91828 95990
AAXX 29184 60467 12665 43412 10096 20058 40272 53007 60002 83831 333 10126 83833 95990
AAXX 29184 60492 12562 32404 10120 20099 40290 53004 60002 83200 333 10150 83830 95990
AAXX 29184 60515 12560 30000 10090 20062 40277 53010 60012 83800 333 10127 83830 95990
AAXX 29184 60517 12560 21401 10136 20090 40296 51001 69952 81202 333 10166 81820 95990
AAXX 29184 60522 12560 30000 10096 20055 40310 53007 60002 81201 333 10144 81826 83073 95990
AAXX 29184 60557 11460 70000 10054 20039 38934 48570 53001 60002 70322 872// 333 10074 83710 86833 95990
AAXX 29184 60563 12660 20412 10082 20023 39362 48550 50005 60002 82200 333 10127 82833
AAXX 29184 60603 NIL
AAXX 29184 60638 12660 5//// 10121 20025 40229 53011 60002 85500 333 10168 85640
AAXX 29184 60686 NIL
AAXX 29184 60395 11456 80000 10105 20101 40277 53008 60092 76062 8527/ 333 10116 83710 84840 85460 95990
AAXX 29184 60421 11558 73310 10063 20048 39189 48519 56002 69912 76066 872// 333 10080 87830 95990
AAXX 29184 60423 11658 63612 10057 20052 39241 48501 56003 60052 72162 86800 333 10083 82833 85640 95990
AAXX 29184 60430 11560 60000 10080 20059 40294 56001 69982 86800 333 10125 83820 84823 95990
AAXX 29184 60437 12456 60000 10050 20038 39050 48544 53006 60042 86200 333 10074 83710 84820 95990
AAXX 29184 60444 12560 53610 10053 20039 39149 48548 51004 60002 85200 333 10094 82826 84830 95900
AAXX 29184 60452 12560 5//// 10136 20108 40284 53003 60092 82202 222// 20000 333 10166 82820 83073 91826
AAXX 29184 60457 12562 40000 10093 20083 40294 53004 69952 82202 333 10156 82820 83073 95990
AAXX 29184 60514 12560 60000 10082 20054 39356 48583 53007 60002 86500 333 10100 86626 95990
AAXX 29184 60518 12565 30000 10126 20087 40279 53002 60002 82202 222// 20000 333 10164 82820 91807 95990
AAXX 29184 60520 11560 62702 10097 20083 40294 53002 60092 70262 86800 333 10116 82826 84630 95990
AAXX 29184 60540 11560 70000 10058 20041 39089 48544 53001 60002 70222 872// 333 10072 87826 95990
AAXX 29184 60560 11660 30000 10066 20012 39038 48575 54000 60002 70212 83200 333 10082 83840 95990
BBXX 46207 29181 99509 71299 46/// /1409 10057 40078 57020 22200 00081 11308 70042 333 91213
AAXX 29181 15627 11986 12906 11068 21092 37590 47015 56006 60002 70111 81070 333 11060 21071 48018 444 76134 555 583//
AAXX 29181 15640 11/08 90000 10048 20023 39899 40218 54000 6//// 74522 333 10058 20022 555 587//
AAXX 29181 60370 16/// /2703 10123 20093 60102 333 10152
AAXX 29181 60371 16/// /2101 10126 20090 60022 333 10158
AAXX 29181 60372 16/// /3302 10101 20094 69992 333 10135
AAXX 29181 60373 NIL
AAXX 29181 60374 NIL
AAXX 29181 60376 NIL
AAXX 29181 60379 NIL
AAXX 29181 60380 NIL
AAXX 29181 60381 NIL
AAXX 29181 60393 NIL
AAXX 29181 60394 NIL
AAXX 29181 60593 NIL
AAXX 29181 60595 NIL
AAXX 29181 60605 NIL
AAXX 29181 60613 NIL
AAXX 29181 60623 NIL
AAXX 29184 60624 36/// /0000 10156 21032 333 10179
AAXX 29184 60639 NIL
AAXX 29184 60645 36/// /0000 10143 20003 333 10175
AAXX 29184 04048 21556 82729 11007 21039 40048 52021 78588 888// 333 10015 21017 69958 555 3/633
AAXX 29181 14235 11/04 9//// 11004 21004 39038 48481 54001 60012 77377 333 11002 44014 93101
AAXX 29181 14246 11440 82001 10005 20000 30020 40231 53/// 60012 7616/ 8672/ 333 10015
AAXX 29181 14314 12670 71202 10099 20065 30123 40188 56/// 60002 87800 333 10104 92312 92428
AAXX 29181 14323 11781 80609 10075 20009 30156 40190 54/// 60002 702// 885// 333 10111 92323 92438
AAXX 29181 14324 11/00 90906 11032 21036 38387 48491 56/// 60002 749// 333 10003 44024
AAXX 29181 14328 11410 80000 11003 21005 39823 40232 50/// 69902 777// 886// 333 11002 42002 93197
AAXX 29181 14330 12660 50301 10003 21017 39527 40214 54/// 60002 85500 333 10011 43008 92842
AAXX 29181 14438 12670 61003 10093 20059 30091 40183 50/// 60002 86800 333 10106 923//
AAXX 29181 14443 32698 216// 10107 20070 30090 40187 54000 82200 333 10123 92312
AAXX 29181 14447 11665 70703 10098 20064 30158 40189 56/// 60022 70262 82120 333 10125 92311
AAXX 29181 14472 12670 51203 10106 20040 30135 40200 57009 60002 85200 333 10129 92312
AAXX 29181 48806 32498 81404 10168 20145 39414 40196 52012 888// 333 59003 82894 88696
AAXX 29184 87344 11250 81105 10184 20181 39590 40131 50008 60111 76162 8472/ 333 56339 84705 84530
AAXX 29184 87349 NIL
AAXX 29184 87371 32962 80505 10282 20140 30094 40116 57013 8807/ 333 56049 88360
AAXX 29184 87374 32965 70706 10298 20093 30021 40106 57016 84076 333 56050 84360 85270
AAXX 29184 87395 32965 20925 10296 20067 30062 40106 57027 80004 333 56006 82070
AAXX 29184 87418 32765 10905 10318 20147 39288 40047 57021 81300 333 56000 57962 81950
AAXX 29184 87436 32670 63203 10283 20188 39286 40065 57027 86200 333 56800 57823 83640 83845 81850
AAXX 29184 87448 11565 50506 10297 20205 39538 40078 57023 69901 70162 84870 333 56260 82630 82835 82360
AAXX 29184 87453 11965 13609 10260 20189 39613 40087 57033 60091 70161 81070 333 56050 81360
AAXX 29184 87467 32570 80508 10263 20186 39980 40113 57013 8652/ 333 86630 88560
AAXX 29184 87497 32965 60512 10307 20105 30088 40114 57023 80006 333 56006 86270
AAXX 29184 87506 32670 40706 10301 20093 38542 48469 57028 84900 333 56500 57991 82835 82940 95032
AAXX 29184 87509 42670 23610 10316 20157 39240 40058 57015 82200 333 56500 57864 82840
AAXX 29184 87534 32960 73612 10273 20155 39941 40098 57020 87070 333 56060 87360
AAXX 29184 87548 32860 70209 10295 20116 30018 40113 57015 85076 333 56066 85358 86270
AAXX 29184 87576 32960 70507 10292 20137 30102 40126 57021 81088 333 56077 81360 87270
AAXX 29184 87582 32960 70905 10258 20154 30121 40128 57024 80008 333 56009 87270
AAXX 29184 87585 32960 73604 10280 20172 30096 40125 57021 80006 333 56007 87270
AAXX 29183 87480 32965 80204 10288 20140 30084 40113 57016 85072 333 56055 85360 88070
AAXX 29183 87532 32570 23618 10326 20167 39917 40080 57020 81160 333 56360 81826
AAXX 29184 41254 36/// /2804 10070 20049 37980 47985 333 0E007 10148 59005
AAXX 29184 41263 36/// /0000 10176 20019 39506 40199 333 0E017 10237 58006
AAXX 29184 41287 36/// /3205 10190 20057 30151 40220 333 0E019 10280 58005
AAXX 29181 01046 11889 81604 11029 21100 39911 49919 52008 60002 70322 8807/ 333 11010 91111
AAXX 29181 34560 32997 02303 11044 21055 30102 40275 57002 333 10014
AAXX 29181 34720 32/// /1502 11024 21027 30223 40265 57007 333 10022
AAXX 29181 34730 31/01 91902 11031 21031 30174 40270 57002 74941 333 10042 93502
AAXX 29181 34740 31/93 /1403 11028 21029 30175 40276 57009 74542 333 10025
AAXX 29181 34824 NIL
AAXX 29181 34858 31995 01401 11031 21036 30178 40290 57007 71011 333 10018
AAXX 29181 34866 32998 02102 11032 21044 30306 40296 50003 333 10044
AAXX 29181 34880 32997 02301 11029 21049 30328 40301 51008 333 10027
AAXX 29181 37018 NIL
AAXX 29181 37054 32997 01003 10010 21015 39886 40281 58014 333 10082
AAXX 29181 37472 32997 01203 10042 20025 30330 40308 58005 333 10086
AAXX 29181 22165 NIL
AAXX 29181 22676 12484 81203 11062 21074 39882 49961 57031 69900 885// 333 11015
AAXX 29181 22837 11342 81903 10006 21008 39875 49944 56007 69900 77372 8872/ 333 10009 85709
AAXX 29181 22954 11494 82105 11030 21037 39731 49981 57018 69960 77587 8872/ 333 11038
AAXX 29181 23405 11370 82602 11046 21066 39848 49948 52002 69900 70282 886// 333 11016 88709
AAXX 29181 23412 11497 82406 11028 21038 39817 49912 52013 69980 78587 883// 333 11056 85710
AAXX 29181 23803 NIL
AAXX 29181 27066 12598 81903 11055 21069 39860 40040 57032 69900 8455/ 333 11033
AAXX 29181 27083 12484 82104 11050 21060 39827 40055 57006 69900 885// 333 11034
AAXX 29181 27113 11226 82104 11006 21010 39852 49998 57018 69900 77372 8872/ 333 11014 86706
AAXX 29181 27242 32598 82804 11021 21039 39908 40037 57019 889// 333 11022 88922 91112
AAXX 29181 27329 32582 82203 11006 21034 39932 40058 57017 8555/ 333 11011
AAXX 29181 27355 32497 81805 11034 21055 39926 40094 57018 885// 333 11031
AAXX 29181 27373 32996 71705 11059 21078 39865 40088 58022 87030 333 11034
AAXX 29181 27665 32997 02304 11054 21083 39869 40147 58025 333 11044
AAXX 29181 27835 329// 02003 11038 21056 30008 40171 57011 333 11001
AAXX 29181 28009 11498 82703 11045 21065 39853 40066 52011 69960 70232 885// 333 11024
AAXX 29181 28411 11497 82907 11037 21062 39908 40105 52018 69930 77173 8657/ 333 11015 86614
AAXX 29181 28418 11598 83004 11034 21066 39937 40106 52020 69920 70232 885// 333 11009 88622
AAXX 29181 22282 NIL
AAXX 29181 22438 NIL
AAXX 29181 22471 11384 82004 11047 21064 39918 49942 57001 69900 70271 886// 333 11037 88708
AAXX 29181 22563 11396 81702 11063 21071 39897 49936 57021 69900 77172 8672/ 333 11030 86709
AAXX 29181 22641 11498 81201 11032 21039 39876 49892 56018 60050 78573 889// 333 11044 86917 91108
AAXX 29181 22695 12498 82304 11047 21060 39831 49985 58005 69900 887// 333 11022 88710
AAXX 29181 22867 11497 82002 11035 21043 39860 49974 57024 69900 77172 8872/ 333 11033 88710 91107
AAXX 29181 22939 11496 82006 11008 21018 39808 49970 57016 69920 77173 8872/ 333 11018 84712
AAXX 29181 22996 12598 82104 11046 21062 39853 40045 58011 69910 885// 333 11022
AAXX 29181 23324 11358 82403 11082 21088 39823 49901 58001 60010 77172 8872/ 333 11085 85707
AAXX 29181 27008 11497 82004 10002 21001 39816 49985 57005 69920 77172 8677/ 333 11000
AAXX 29181 27051 31496 81904 11038 21050 39840 40009 57029 77172 8657/ 333 11034 84710
AAXX 29181 27225 32464 82306 11011 21040 39906 40037 57013 885// 333 11020 88618 91012 91112
AAXX 29181 27252 31996 82305 11043 21066 39859 40048 57025 77172 8802/ 333 11032
AAXX 29181 27333 11484 82406 11015 21038 39895 40054 57017 69900 70272 8475/ 333 11020
AAXX 29181 27369 32997 62003 11044 21071 39952 40092 86030 333 11022
AAXX 29181 27393 11498 82506 11054 21079 39935 40107 54000 69900 73632 85631 333 11026
AAXX 29181 27479 32998 82304 11051 21076 39985 40122 58013 80006 333 11015
AAXX 29181 27532 32597 82206 11015 21038 39878 40094 57019 8455/ 333 11018
AAXX 29181 27648 31597 82105 11026 21059 39963 40134 57018 73632 885// 333 11026 88620
AAXX 29181 27675 32997 82107 11057 21075 39980 40156 58012 8802/ 333 11024
AAXX 29181 27679 32998 32004 11075 21092 39936 40168 58008 83030 333 11027
AAXX 29181 28214 11496 82703 11039 21068 39877 40093 52014 69930 70273 8872/ 333 11017
AAXX 29181 40700 12660 50000 10052 20038 30243 40335 52015 60001 85500 333 55063 85640
AAXX 29181 40723 12860 10000 11008 21032 39018 40341 52008 60001 81030 333 55080 21166 81358
AAXX 29181 40726 12960 00000 11012 21042 38727 40311 52010 60001 333 55069
AAXX 29181 40727 12960 00000 11050 21070 38544 40328 51004 60001 333 55045 20542
AAXX 29181 40734 12660 60000 10082 20069 30345 40319 52008 60001 82530 333 55000 82640 85359
AAXX 29181 40737 12560 70000 10084 20075 30306 40324 52010 60001 84570 333 55028 2//// 84627 87358
AAXX 29181 40741 12962 00000 10022 20001 39989 40336 52018 60001 333 55084
AAXX 29181 40780 12960 00803 10018 21066 38734 40261 52006 60001 333 55087 21249
AAXX 29181 40791 12960 00000 10066 21046 39434 40281 51017 60001 333 55092 2////
AAXX 29181 40792 12970 00000 10008 21078 38786 40286 51006 60001 333 55093
AAXX 29181 40794 12960 00000 10100 20051 30126 40226 51001 60001 91745 333 55080 21115
AAXX 29181 40812 12960 00000 10108 20052 39829 40214 54000 60001 91745 333 55076
AAXX 29181 40829 12960 02903 10061 21079 39674 40262 51012 60001 333 55090
AAXX 29181 40833 12960 00000 10102 20048 30195 40228 53005 60001 91745 333 55080
AAXX 29181 40835 12960 00000 10086 20016 39381 40234 52010 60001 333 55089
AAXX 29181 40845 NIL
AAXX 29181 40882 11958 02803 10182 20099 30162 40197 51003 60001 70500 333 55087
AAXX 29181 40889 NIL
AAXX 29181 40890 NIL
AAXX 29181 40893 11956 03304 10212 20115 30182 40188 51007 60001 70500 222// 00/// 20401 333 55086
AAXX 29181 40897 15960 03202 10182 20116 30171 40185 50005 60001 333 55090
AAXX 29181 40700 12660 50000 10052 20038 30243 40335 52015 60001 85500 333 55063 85640
AAXX 29181 40723 12860 10000 11008 21032 39018 40341 52008 60001 81030 333 55080 21166 81358
AAXX 29181 40726 12960 00000 11012 21042 38727 40311 52010 60001 333 55069
AAXX 29181 40727 12960 00000 11050 21070 38544 40328 51004 60001 333 55045 20542
AAXX 29181 40734 12660 60000 10082 20069 30345 40319 52008 60001 82530 333 55000 82640 85359
AAXX 29181 40737 12560 70000 10084 20075 30306 40324 52010 60001 84570 333 55028 2//// 84627 87358
AAXX 29181 40741 12962 00000 10022 20001 39989 40336 52018 60001 333 55084
AAXX 29181 40780 12960 00803 10018 21066 38734 40261 52006 60001 333 55087 21249
AAXX 29181 40791 12960 00000 10066 21046 39434 40281 51017 60001 333 55092 2////
AAXX 29181 40792 12970 00000 10008 21078 38786 40286 51006 60001 333 55093
AAXX 29181 40794 12960 00000 10100 20051 30126 40226 51001 60001 91745 333 55080 21115
AAXX 29181 40812 12960 00000 10108 20052 39829 40214 54000 60001 91745 333 55076
AAXX 29181 40829 12960 02903 10061 21079 39674 40262 51012 60001 333 55090
AAXX 29181 40833 12960 00000 10102 20048 30195 40228 53005 60001 91745 333 55080
AAXX 29181 40835 12960 00000 10086 20016 39381 40234 52010 60001 333 55089
AAXX 29181 40845 NIL
AAXX 29181 40882 11958 02803 10182 20099 30162 40197 51003 60001 70500 333 55087
AAXX 29181 40889 NIL
AAXX 29181 40890 NIL
AAXX 29181 40893 11956 03304 10212 20115 30182 40188 51007 60001 70500 222// 00/// 20401 333 55086
AAXX 29181 40897 15960 03202 10182 20116 30171 40185 50005 60001 333 55090
BBXX 46207 29181 99509 71299 46/// /1409 10057 40078 57020 22200 00081 11308 70042 333 91213
AAXX 29181 40700 12660 50000 10052 20038 30243 40335 52015 60001 85500 333 55063 85640
AAXX 29181 40723 12860 10000 11008 21032 39018 40341 52008 60001 81030 333 55080 21166 81358
AAXX 29181 40726 12960 00000 11012 21042 38727 40311 52010 60001 333 55069
AAXX 29181 40727 12960 00000 11050 21070 38544 40328 51004 60001 333 55045 20542
AAXX 29181 40734 12660 60000 10082 20069 30345 40319 52008 60001 82530 333 55000 82640 85359
AAXX 29181 40737 12560 70000 10084 20075 30306 40324 52010 60001 84570 333 55028 2//// 84627 87358
AAXX 29181 40741 12962 00000 10022 20001 39989 40336 52018 60001 333 55084
AAXX 29181 40780 12960 00803 10018 21066 38734 40261 52006 60001 333 55087 21249
AAXX 29181 40791 12960 00000 10066 21046 39434 40281 51017 60001 333 55092 2////
AAXX 29181 40792 12970 00000 10008 21078 38786 40286 51006 60001 333 55093
AAXX 29181 40794 12960 00000 10100 20051 30126 40226 51001 60001 91745 333 55080 21115
AAXX 29181 40812 12960 00000 10108 20052 39829 40214 54000 60001 91745 333 55076
AAXX 29181 40829 12960 02903 10061 21079 39674 40262 51012 60001 333 55090
AAXX 29181 40833 12960 00000 10102 20048 30195 40228 53005 60001 91745 333 55080
AAXX 29181 40835 12960 00000 10086 20016 39381 40234 52010 60001 333 55089
AAXX 29181 40845 NIL
AAXX 29181 40882 11958 02803 10182 20099 30162 40197 51003 60001 70500 333 55087
AAXX 29181 40889 NIL
AAXX 29181 40890 NIL
AAXX 29181 40893 11956 03304 10212 20115 30182 40188 51007 60001 70500 222// 00/// 20401 333 55086
AAXX 29181 40897 15960 03202 10182 20116 30171 40185 50005 60001 333 55090
BBXX 3ERR2 29184 99635 10053 41598 80120 10053 21005 49901 52029 70282 82210 22200 06096 10808 70038 333 91131
BBXX LF3F 29184 99643 10078 43/// /0116 10045 21015 49877 52027 22200 04084 10806 70032 333 91126
BBXX LF3N 29184 99653 10073 41597 60121 10034 21020 49877 52018 72682 868// 22200 00090 10708 70042
BBXX LF4B 29184 99606 10037 47/98 /3525 10054 49898 52022 723// 22200 00058 10809 70044 333 91138
BBXX LF4C 29184 99584 10019 41597 73118 10060 21015 49959 54000 70282 89/// 22200 00071 10809 70043 333 91129
BBXX LF5T 29184 99660 10081 41696 /0120 10017 21007 49874 52030 780// 22200 06082 333 91134
AAXX 29181 08501 32/// /1807 10175 20156 30290 40326 57003 333 10191 91010 91112 555 60005
AAXX 29181 08505 11270 71302 10170 20154 30307 40357 55002 60052 70252 878// 333 10184 82706 83811 85625 555 69977
AAXX 29181 08506 12/// /1604 10169 20157 30294 40366 54000 60072 333 10172 91008 91108 555 60005
AAXX 29181 08509 11460 71607 10166 20150 30301 40366 55001 69932 70252 84854 333 10182 82815 83630 555 69907
AAXX 29181 08511 12/// /9902 10169 20157 30263 40372 52002 69972 333 10171 555 60005
AAXX 29181 08512 32580 21603 10171 20122 30291 40376 52002 81802 333 10189 81824 91106 555 60005
AAXX 29181 08515 32680 71204 10170 20133 30258 40380 53006 87500 333 10191 87642 910// 911// 555 60007 912//
AAXX 29181 08521 NIL
AAXX 29181 08522 32570 50903 10176 20088 30270 40340 52006 85800 222// 314// 40301 333 10196 84823 91009 91109 555 60005
AAXX 29181 08524 32470 20403 10163 20089 30246 40345 52005 82800 333 10195 81815 91006 91109 555 60005
AAXX 29181 08530 NIL
AAXX 29181 08531 32/// /0209 10139 20079 30309 40348 52006 333 10142 555 60005
AAXX 29181 08532 NIL
AAXX 29181 08533 32/// /0203 10111 20072 30295 40324 52016 333 10165 91106 555 60005
AAXX 29180 08534 32962 03602 10116 20075 30318 40336 53006 333 10162 555 60007
AAXX 29180 08535 NIL
AAXX 29180 08537 NIL
AAXX 29181 08540 32960 23404 10112 20073 30277 40347 53007 80001 333 10148 82072 555 60007
AAXX 29181 08541 32/// /0102 10111 20062 30211 40333 52012 333 10145 555 60005
AAXX 29181 08544 32960 30102 10104 20046 30336 40358 52011 80001 333 10146 83070 555 60007
AAXX 29181 08545 31962 40302 10090 20025 30278 40364 52007 70100 80002 333 10138 84075 555 60005
AAXX 29181 08548 32/// /0103 10103 20042 30149 40359 52013 333 10136 555 60005
AAXX 29181 08551 NIL
AAXX 29181 08554 32970 00000 10125 20069 30315 40324 52015 333 10163 555 60005
AAXX 29181 08558 32/// /3503 10098 20040 30037 40337 52011 333 10148 555 60005
AAXX 29181 08560 32/// /0303 10053 20002 39591 40373 52012 333 10100 91005 91106 555 60005
AAXX 29181 08561 32970 20203 10110 20063 30092 40328 52007 80004 333 10140 82072 555 60007
AAXX 29181 08562 32/// /0202 10107 20043 30026 40326 52008 333 10134 555 60005
AAXX 29181 08567 32/// /0901 10057 20004 39691 40377 52008 333 10100 555 60005
AAXX 29181 08568 32/// /9901 10010 21007 38764 48624 52010 333 10067 91105 555 60005
AAXX 29181 08570 31980 40203 10091 21006 39880 40349 52013 70111 80008 333 10134 84299 91007 91107 555 60005
AAXX 29181 08571 32/// /0106 10089 20006 39621 40337 52003 333 10115 91010 91110 555 60005
AAXX 29181 08575 32/// /0000 10052 21009 39542 40378 52009 333 10092 555 60005
AAXX 29181 08579 32/// /2403 10130 20065 30214 40341 52010 333 10159 91105 555 60005
AAXX 29181 50844 32962 02003 11209 21249 40355 57014 333 11123
AAXX 29181 50854 32970 02501 11222 21267 40368 57009 333 11140
AAXX 29181 50968 32962 00000 11253 21277 40399 57002 333 11165
AAXX 29181 51379 11780 71601 11129 21159 40356 57008 69901 72270 82502 333 00004 11029
AAXX 29181 51467 32980 00402 11098 21174 38313 52003 333 00353 11001
AAXX 29181 51495 32980 00205 11103 21172 40395 57007 333 00301 11063
AAXX 29181 53480 32980 00000 11143 21186 40368 57006 333 11004
AAXX 29181 53673 32961 70000 11079 21109 40366 57006 80002 333 11011
AAXX 29181 53698 32961 81401 11011 21050 40373 57008 8807/ 333 11008
AAXX 29181 53898 31958 80401 11014 21042 40372 57004 71000 8802/ 333 10009
AAXX 29181 54308 11960 83402 11117 21145 40376 57010 69901 77070 8802/ 333 11053
AAXX 29181 54602 32960 81802 11026 21073 40373 57008 8802/ 333 11005
AAXX 29181 54725 32962 80902 11039 21072 40381 57005 80007 333 10004
AAXX 29181 54751 32580 63406 11030 21088 40366 52001 86500 333 11014
AAXX 29181 54916 32762 82902 10011 21032 40362 54000 885// 333 10036
AAXX 29181 57014 32965 71102 10013 21048 40296 52001 8703/ 333 00100 10071
AAXX 29181 57025 31750 81401 11001 21033 40331 57002 71000 885// 333 10022
AAXX 29181 57046 32962 02003 11028 21061 37988 57006 333 00100 10005
AAXX 29181 58208 31930 80402 10033 20009 40347 52007 71000 8807/ 333 10046
AAXX 29184 89022 41440 83608 11046 21061 39717 49754 52014 78572 8782/ 333 83716 85639 87457
AAXX 29184 89062 42482 82106 10029 21007 39746 49786 57001 8752/ 333 81610 84630
AAXX 29181 01271 17681 22805 10005 21011 39836 49857 53021 60032 700// 333 10011 91110
AAXX 29181 01415 17667 82810 10056 21009 39909 49920 58001 6//// 700// 333 10064 91123
AAXX 29183 87791 11680 70917 10278 20180 30034 40042 57043 69911 72999 82362 333 56666 57912 82940 83360
AAXX 29183 87016 21458 71404 10278 20225 39658 40055 57027 69901 71552 85870 333 56440 82815 85620
AAXX 29183 87896 32680 61113 10188 20090 30016 40111 57015 81106 333 56606 81845 86270
AAXX 29184 87078 11970 61802 10328 20207 39924 40069 57045 60031 72162 86070 333 56080 86360
AAXX 29184 87244 32568 81105 10302 20205 39704 4//// 5//// 885// 333 56899 88625
AAXX 29184 87393 32970 10508 10290 20143 30049 40111 57023 80004 333 56006 81070
AAXX 29184 87416 32965 00905 10310 20167 39340 40053 57017
AAXX 29184 87563 32565 43210 10312 20060 30065 40107 56071 83304 333 56202 83925
AAXX 29184 87640 32965 13614 10321 20100 30005 4//// 57017 80005 333 56006 81270
AAXX 29184 87688 32965 63614 10337 20065 39962 40094 57020 80006 333 56007 86270
AAXX 29184 87774 32982 31605 10295 20014 39089 48464 5//// 80004 333 56009 83070
AAXX 29184 87852 32584 42528 10240 21006 39609 40102 57016 81171 333 56665 81820
AAXX 29184 87593 32960 30906 10282 20151 30108 40134 57015 80002 333 56006 83070
AAXX 29184 87623 31757 13413 10353 20184 39850 40066 57025 70700 81100 333 56100 81856
AAXX 29184 87641 32965 13218 10332 20095 39938 40106 57024 80001 333 56008 81070
AAXX 29184 87645 32970 23611 10320 20057 39909 40109 57020 80001 333 56004 82070
AAXX 29184 87648 32960 20000 10313 20127 30122 40133 57031 80001 333 56006 82070
AAXX 29184 87692 32560 40513 10318 20176 30102 40126 56015 81102 333 56505 81825 83070
AAXX 29184 87715 32965 02009 10358 21009 39753 40053 57012
AAXX 29184 87750 32962 13422 10362 20037 39974 40068 57017 80002 333 56008 81070
AAXX 29184 87765 32960 03221 10263 21027 39176 48488 57013 333 96120
AAXX 29184 87784 32680 31414 10215 20166 30060 40082 55007 83300 333 56100 57915 82640 81950
AAXX 29184 87800 32980 01810 10290 21078 39749 40137 57008
AAXX 29184 87803 32980 02512 10253 20049 39220 40107 57009
AAXX 29184 87828 32980 61115 10265 20095 30045 40095 57017 83046 333 56000 57300 83360 83270
AAXX 29184 87860 32980 00713 10236 20051 30054 40109 57016
AAXX 29184 87904 32980 43211 10182 21007 39832 40073 57031 81075 333 56066 81360 83270
AAXX 29184 87909 32980 60520 10184 20070 30006 40080 57036 80002 333 56000 86070
AAXX 29184 87925 32980 53212 10200 21045 30026 40050 57039 83074 333 56077 83360
AAXX 29184 87938 NIL
AAXX 29181 23909 11498 72804 11040 21059 39786 40036 52016 69960 70273 875// 333 11030
AAXX 29181 28044 11597 82803 11077 21100 39810 49975 52026 60010 70372 885// 333 11075
AAXX 29181 28116 11596 82304 11038 21070 39824 40057 52024 69950 77132 885// 333 11023
AAXX 29181 28240 11598 52905 11063 21087 39690 40017 52040 60010 73683 85900 333 11061
AAXX 29181 28522 11997 83206 11031 21061 39819 40078 52029 69940 70273 8802/ 333 11025
AAXX 29181 28621 11597 82906 11038 21071 39876 40112 52043 60010 73687 889// 333 11019
AAXX 29181 28719 11484 832// 11048 21068 39706 40153 52027 60010 70232 886// 333 11037
AAXX 29181 29023 41397 81704 11060 21079 39962 40059 57003 78583 889// 333 87707
AAXX 29181 29122 41596 81504 11051 21061 39979 40052 53003 78583 8335/
AAXX 29181 29328 41497 81707 11029 21042 39958 40097 57011 78583 8697/
AAXX 29181 29348 41997 72004 11031 21077 30015 40161 57019 73632 80001
AAXX 29181 29405 41497 82005 11007 21038 39874 40018 53008 73632 883// 333 88919
AAXX 29181 29418 41598 81807 11010 21029 39890 40047 53002 73683 889//
AAXX 29181 29430 42598 82102 11034 21070 39982 40159 57013 8455/
AAXX 29181 29524 41498 81505 11015 21023 39918 40080 57012 73683 889//
AAXX 29181 29605 41998 02004 11033 21057 39902 40043 53017 70273
AAXX 29181 29631 41596 81806 11030 21050 39949 40135 57013 78583 889//
AAXX 29181 29645 42598 71504 11045 21092 30017 40208 57014 87500 333 87623
AAXX 29181 29706 41598 82006 11025 21034 39924 40070 57004 73632 883//
AAXX 29181 29736 41598 82007 11014 21062 39932 40182 57019 73631 8655/
AAXX 29181 29937 42597 81907 11003 21040 39968 40188 57011 885//
AAXX 29181 36034 41598 81810 11034 21059 39910 40189 57009 73632 885// 333 88625
AAXX 29181 36096 42997 00000 11324 21348 39622 40517 58001
AAXX 29181 34357 32998 02204 11010 21041 30096 40255 54001 333 10017
AAXX 29181 34363 32998 02605 11034 21058 30104 40263 50003 333 11011
AAXX 29181 34545 32998 01001 11037 21046 30157 40273 54001 333 10025
AAXX 29181 34579 32998 02401 11040 21054 30238 40284 52004 333 10013
AAXX 29181 34838 NIL
AAXX 29181 34927 NIL
AAXX 29181 34949 32998 01004 11037 21056 39713 40282 58012 333 10048
AAXX 29181 37001 NIL
AAXX 29181 37031 NIL
AAXX 29181 37061 32964 01002 11005 21031 30121 40293 57006 333 10062
AAXX 29181 37085 32996 01202 11020 21045 30334 40362 57003 333 10056
AAXX 29181 37107 32998 00402 10006 21005 39556 40251 57013 333 10072
AAXX 29181 37126 42999 21206 11009 21211 37966 47537 57008 80001 333 10021
AAXX 29181 37171 32996 00402 10048 20033 30212 40231 57021 333 10098
AAXX 29181 37228 32997 00000 11018 21032 39428 40291 58013 333 10054
AAXX 29181 37470 32996 01702 10041 20008 30343 40320 52002 333 10069
AAXX 29181 37663 32596 82502 11006 21029 39108 48565 52003 885// 333 10042
AAXX 29181 23914 11498 82705 11038 21050 39754 40013 51019 60010 70273 8577/ 333 11045
AAXX 29181 23921 11597 80000 11095 21116 39843 49964 52022 69970 70282 889// 333 11082
AAXX 29181 23955 41463 81605 11035 21063 39915 49976 57002 78583 883// 333 85916
AAXX 29181 23966 41496 81704 11063 21086 39948 40076 57008 78583 883//
AAXX 29181 28138 11599 82702 11072 21081 39451 40027 52035 60010 70232 885// 333 11081
AAXX 29181 28224 11496 83104 11031 21051 39846 40061 52036 69980 77175 8752/ 333 11023 91110 93400
AAXX 29181 28255 11994 83303 11079 21098 39833 49964 52045 69960 77173 8807/ 333 11021
AAXX 29181 28440 11597 63205 11056 21090 39668 40020 52046 69950 73673 86500 333 11026
AAXX 29181 28645 11497 83205 11046 21089 39735 40032 52050 69960 73683 883// 333 11022
AAXX 29181 28661 11997 82804 11048 21068 39881 49974 52034 69980 70272 8807/ 333 11004
AAXX 29181 28722 11697 82906 11031 21070 39987 40120 52044 60020 73683 885// 333 11014
AAXX 29181 28748 32967 73204 11051 21088 39800 40042 52046 86031 333 11027
AAXX 29181 28838 31996 03206 11040 21085 39600 40081 52049 73631 333 11025
AAXX 29181 29231 41496 81505 11041 21064 39994 40091 57015 78583 889// 333 84624
AAXX 29181 29313 41496 81706 11026 21042 39920 40042 56004 77773 886// 333 88713
AAXX 29181 29612 41598 81907 11007 21019 39911 40061 57001 73683 883//
AAXX 29181 29638 41596 81506 11023 21048 39983 40150 57012 78583 889//
AAXX 29181 29838 41996 81604 11035 21056 39948 40183 57017 77173 8802/
AAXX 29181 29846 41932 60000 11133 21139 39836 40242 57020 71011 82031
AAXX 29181 36061 42999 22101 11185 21200 39838 40277 57008 80001
AAXX 29181 28049 11997 62903 11105 21116 39803 49971 51038 60020 70273 86030 333 11063
AAXX 29181 28144 11496 82602 11080 21097 39828 49988 51034 60020 77173 8472/ 333 11070
AAXX 29181 28319 11496 82704 11036 21064 39923 40089 52033 69940 77173 8802/ 333 11020
AAXX 29181 28321 11599 82605 11033 21065 39869 40074 52034 69920 70282 8653/ 333 11025
AAXX 29181 28334 11497 83004 11037 21052 39745 40050 52033 60030 72273 8872/ 333 11031
AAXX 29181 28434 11698 62503 11028 21053 39807 40065 52038 69960 73683 86500 333 11025 86634
AAXX 29181 28552 11496 83104 11053 21064 39872 49985 52042 69950 77172 8872/ 333 11013
AAXX 29181 28666 11550 81904 11077 21091 39792 49969 52021 69940 77172 8802/ 333 11004
AAXX 29181 28825 11597 63205 11028 21065 39963 40137 52046 60010 73683 86900 333 11015
AAXX 29181 29111 41498 81705 11032 21059 39910 49997 57005 73683 889// 333 88916
AAXX 29181 29209 41396 81604 11017 21031 39886 40010 57003 78583 883//
AAXX 29181 29551 42997 81002 11037 21085 30022 40206 57011 80001
AAXX 29181 29602 41698 82006 11022 21058 39905 40044 53015 70273 885// 333 88638
AAXX 29181 29636 42598 71803 11020 21055 39948 40167 57014 87500
AAXX 29181 29654 42999 41802 11061 21110 39604 40228 57010 82071
AAXX 29181 29712 41997 81906 11006 21015 39941 40082 54000 77173 88020
AAXX 29181 29724 41596 81908 11012 21028 39911 40113 57010 78583 8637/
AAXX 29181 29726 41996 81804 11015 21038 39978 40145 57012 77173 8802/
AAXX 29181 29814 41499 81806 11008 21018 39944 40090 53003 70283 883// 333 88914
AAXX 29181 29827 41697 81809 11010 21032 39980 40133 57014 73633 883//
AAXX 29181 29923 41996 81807 11022 21034 39897 40173 57012 77173 8002/
AAXX 29181 29939 42997 81501 11102 21138 39936 40231 57013 80001
AAXX 29181 35026 11495 83206 11052 21073 39488 40135 52048 60020 78583 889// 333 11044
AAXX 29181 36021 41497 82007 11003 21027 39948 40127 57012 78583 889//
AAXX 29181 36022 41497 81812 11017 21041 39894 40155 58016 73773 8575/ 333 85714
AAXX 29181 36038 41996 81607 11018 21023 39767 40210 58016 77173 8802/
AAXX 29181 36058 42999 00000 11123 21136 39730 40278 57009
AAXX 29181 36064 42999 50404 11018 21112 39663 40263 53012 80001
AAXX 29181 36229 42999 50000 11196 21203 39107 40373 57013 82034
AAXX 29181 36259 42999 50000 11294 21324 38282 48573 52001 80001
AAXX 29181 01160 41789 60505 10005 21062 39839 49856 53011 70222 86800 333 10010 91111
AAXX 29184 71300 16/// /2504 11147 21195 30029 40158 58010 60001 333 11147 21214 70005 555 10010
AAXX 29184 71309 17/// /1301 11202 21232 30156 40168 58003 60011 7//4/ 333 11202 21324 70013
AAXX 29184 71320 16/// /1407 11205 21224 30152 40153 58004 60001 333 11204 21372 70003
AAXX 29184 71340 17/// /2602 11008 21022 69951 7//4/ 333 11007 21114 70005
AAXX 29184 71341 16/// /2616 10059 21069 60001 333 10061 20017 70000
AAXX 29184 71342 17/// /3105 10014 20005 60031 7//4/ 333 10016 21077 70034
AAXX 29184 71344 16/// /3226 10011 21013 60001 333 10044 20001 70000
AAXX 29184 71347 16/// /2512 10016 21037 60001 333 10017 21068 70000
AAXX 29184 71348 16/// /2514 10026 21041 60001 333 10027 21074 70000
AAXX 29184 71349 16/// ///// 11068 21074 60001 333 11068 21123 70006
AAXX 29184 71018 16/// ///04 11261 21288 30073 40164 51007 60001 333 11248 21297 70000
AAXX 29184 71357 16/// /2203 11259 21280 30183 40190 58002 60001 333 11247 21310 70000
AAXX 29184 71374 46/// /2234 11025 21038 6///1 333 10025 21029 7////
AAXX 29184 71387 16/// /2805 11194 21236 39619 40014 53017 60001 333 11148 21197 70000
AAXX 29184 71886 16/// /1509 11074 21093 39397 40008 58010 60001 333 11074 21139 70000
AAXX 29184 71682 16/// /0000 11215 21232 39761 49997 52007 60001 333 11203 21306 70003
AAXX 29184 71550 16/// /0502 11105 21121 39650 40031 58015 60001 333 11096 21165 70000
AAXX 29184 71551 16/// /1007 11017 21019 39288 49940 58002 60001 333 11016 21096 70009
AAXX 29184 71553 16/// /0805 11117 21128 60001 333 11117 21187 70000
AAXX 29184 71575 16/// /3203 11213 21233 30102 40169 58006 60001 333 11172 21213 70000
AAXX 29184 71268 11312 80910 11125 21154 39687 40107 57021 69961 77172 887// 333 11125 21225 70006 90959 93101
AAXX 29184 71269 16/// /2923 10043 21008 60001 333 10053 20012 7////
AAXX 29184 71285 46/// /3106 10003 21013 6///1 333 10003 21122 7////
AAXX 29184 71296 16/// /1105 11067 21080 39802 40118 58024 60001 333 11067 70000
AAXX 29184 71423 17/// /2730 11059 21067 39761 49770 53018 69941 7//4/ 333 10025 21059 70259
AAXX 29184 71434 16/// /1605 11206 21244 30079 40149 57004 60001 333 11206 70000
AAXX 29184 71442 16/// /1604 11076 21083 39738 40057 58007 60001 333 11075 21100 70000
AAXX 29184 71503 46/// /0509 11235 21262 39731 40009 52001 6///1 333 11205 21293 7////
AAXX 29184 71506 46/// /2806 11234 21260 39041 49947 53015 6///1 333 11212 21268 7////
AAXX 29184 71511 16/// /1311 11026 21037 39329 49963 58008 60001 333 11026 21067 70000
AAXX 29184 71539 17/// /1206 10000 21003 39254 49943 58019 60021 7//4/ 333 10000 21067 70029 555 10020
AAXX 29184 71737 16/// /2609 11171 21223 39559 40104 55003 60001 333 11171 21250 70000 555 10010
AAXX 29184 71743 16/// /3104 11280 21306 39910 40144 55012 60001 333 11280 21372 70000
AAXX 29184 71747 16/// /3603 11063 21079 39554 40033 58002 60001 333 11039 7//// 555 10060
AAXX 29184 71748 16/// /1706 11067 21076 39765 40056 58006 60001 333 11065 21086 70000
AAXX 29184 71158 16/// /1903 11071 21078 39768 40047 50000 60001 333 11070 21122 70000
AAXX 29184 71186 46/// /2928 11171 21221 6///1 333 11134 21179 7////
AAXX 29184 71190 46/// /3030 11122 21166 6///1 333 11081 21131 7////
AAXX 29184 71915 11669 70707 11234 21272 30069 40154 58004 69941 77177 81501 333 11234 21371 44041 70004 90983
AAXX 29184 71421 17/// ///// 11067 21073 39030 49720 55003 60081 7//4/ 333 11007 21067 70426
AAXX 29184 71435 16/// /0503 11070 21087 39429 40027 58003 60001 333 11062 21153 70049 555 10060
AAXX 29184 71465 46/// /1817 10022 20003 39850 40067 58039 6///1 333 10024 21056 7////
AAXX 29184 71478 46/// /1630 10047 20028 39958 40094 58020 6///1 333 10063 20042 7////
AAXX 29184 71479 16/// /1422 10057 20018 39984 40104 58022 60001 333 10068 20048 7////
AAXX 29184 71482 46/// /1302 10022 30085 40123 51003 6///1 333 10065 20010 7////
AAXX 29184 71752 16/// /1707 11002 21049 39888 40109 58035 60001 333 11002 21102 70000
AAXX 29184 71771 46/// /2004 10031 21008 30048 40069 50000 6///1 333 10047 20011 7////
AAXX 29184 71903 46/// /1908 10002 21015 39999 40048 6///1 333 10028 7////
AAXX 29184 41529 12995 00000 10089 20003 39827 40219 60003 333 58005 60007
AAXX 29184 41598 11996 00000 10070 20035 39916 40200 60003 70500 333 58001
AAXX 29184 41620 32995 01305 10050 21116 38633 48531 333 58018
AAXX 29184 41624 02995 00000 10090 20018 39994 40203 60003 333 58007 60007
AAXX 29184 41640 01994 00000 10125 20085 39950 40207 60003 70400 333 58006 60007
AAXX 29184 41660 119// 00000 10015 21041 38478 48569 60003 70500 333 58015
AAXX 29184 41675 11995 00000 10085 20052 30058 40202 60003 70400 333 58008
AAXX 29184 41712 12996 02302 10065 21026 39260 48544 60003 333 58014
AAXX 29184 41715 01996 00000 10130 20068 30142 40210 60003 70500 333 58011 60007
AAXX 29184 41756 01595 61804 10210 20173 30112 40177 60003 70504 84430 333 56990 58008 60007 84625 82358
AAXX 29184 41764 32996 03410 10170 20043 30134 40186 60003 333 58000 60007
AAXX 29184 41768 02996 00502 10105 20037 30179 40186 60003 333 58019 60007
AAXX 29184 41780 02996 00504 10170 20012 30162 40190 60003 333 59001 60007
AAXX 29184 40153 11958 01012 10090 21002 39124 48519 52005 60002 70500 333 10114
AAXX 29184 40179 12960 01502 10114 20075 30151 40189 52004 60002 333 10205
AAXX 29184 40180 12960 01202 10127 20067 30142 40192 50003 60002 333 10198
AAXX 29184 40190 16/// ///// 10105 20084 39857 40194 52007 60002 333 10194
AAXX 29184 40199 13/// /0404 10154 20005 30157 40180 52009 60002 333 10211
AAXX 29184 71228 17/// /3107 11026 21039 60021 7//4/ 333 11026 21104 70020
AAXX 29184 71107 16/// /2014 10037 21009 39961 40074 58012 60001 333 10042 20018 70000
AAXX 29184 71139 16/// /2918 10013 21012 38504 49933 53012 60001 333 10044 21004 70000
AAXX 29184 41529 12995 00000 10089 20003 39827 40219 60003 333 58005 60007
AAXX 29184 41598 11996 00000 10070 20035 39916 40200 60003 70500 333 58001
AAXX 29184 41620 32995 01305 10050 21116 38633 48531 333 58018
AAXX 29184 41624 02995 00000 10090 20018 39994 40203 60003 333 58007 60007
AAXX 29184 41640 01994 00000 10125 20085 39950 40207 60003 70400 333 58006 60007
AAXX 29184 41660 119// 00000 10015 21041 38478 48569 60003 70500 333 58015
AAXX 29184 41675 11995 00000 10085 20052 30058 40202 60003 70400 333 58008
AAXX 29184 41712 12996 02302 10065 21026 39260 48544 60003 333 58014
AAXX 29184 41715 01996 00000 10130 20068 30142 40210 60003 70500 333 58011 60007
AAXX 29184 41756 01595 61804 10210 20173 30112 40177 60003 70504 84430 333 56990 58008 60007 84625 82358
AAXX 29184 41764 32996 03410 10170 20043 30134 40186 60003 333 58000 60007
AAXX 29184 41768 02996 00502 10105 20037 30179 40186 60003 333 58019 60007
AAXX 29184 41780 02996 00504 10170 20012 30162 40190 60003 333 59001 60007
AAXX 29184 71970 16/// /1106 11052 21060 39381 49965 53004 60001 333 11038 21072 70000
AAXX 29184 71971 16/// /1201 11269 21295 30125 40173 51002 60001 333 11267 21322 70000
AAXX 29184 71976 46/// /0603 11196 21218 39505 40162 56012 6///1 333 11196 21362 7////
AAXX 29181 15613 11/00 92302 11079 21090 37676 47004 57004 60002 74942 333 11031 21079 48045 555 593// 92711
AAXX 29181 13463 32970 30000 10034 21002 30143 40204 55000 81042 333 10107
AAXX 29181 13459 32970 30201 11002 21006 39430 40225 56003 81230 333 10066 45001 81896
AAXX 29181 13461 NIL
AAXX 29181 13363 32962 82501 11051 21059 39281 48472 58001 8802/ 333 11019 43011
AAXX 29184 48407 31959 30301 10215 20174 39993 40137 57007 71011 80001 333 58001
AAXX 29184 71915 11669 70707 11234 21272 30069 40154 58004 69941 77177 81501 333 11234 21371 44041 70004 90983
AAXX 29184 71421 17/// ///// 11067 21073 39030 49720 55003 60081 7//4/ 333 11007 21067 70426
AAXX 29184 71435 16/// /0503 11070 21087 39429 40027 58003 60001 333 11062 21153 70049 555 10060
AAXX 29181 38611 41695 73302 10008 20003 39721 40309 57001 71022 82570 333 10043
BBXX C6FY8 29183 99405 11319 41797 73330 11050 21060 40300 5//// 70222 8774/ 22243 0//// 20803 333 // 40806 5//// 6//// 81050 ICE /////
BBXX C6SI6 29184 99356 11409 46/// /3519 10075 20004 40169 53001 7//// 8//// 22213 0//// 2////
BBXX DDZB2 29183 99390 11362 41396 82928 11025 21055 40210 51020 71066 8777/ 22254 04120 20609 328// 40804 81035
BBXX UFLC 29180 99475 11454 41/96 90812 10010 40219 54000 77077 89/// 22212 06030 20402 30900 40704
BBXX V7NV4 29184 99324 11486 41797 72418 10150 20116 40150 52020 7//21 85191 22263 00200 20206 32424 40206 50206 6//// 80130 ICE /////
BBXX WCX8882 29184 99325 11345 41498 53324 10130 20050 40210 56008 70211 852// 22215 00220 2//// 3//// 4//// 5//// 6//// 80090 ICE /////
AAXX 29181 38944 329// 00000 11006 21018 39670 40225 53002 333 10052
AAXX 29184 91643 11599 73304 10269 20243 40089 53010 60001 70200 83208 333 567/9 83820 87280
AAXX 29184 91648 11599 71912 10277 20256 40073 60001 70222 82108 333 566/9
BBXX 46249 29181 99338 71197 46/// ///// 1//// 91810 22200 00147 11302 20802 326// 41302 70011
BBXX 46247 29181 99378 71228 46/// ///// 1//// 91751 22200 00114 11304 21003 328// 41303 70021
BBXX 46248 29181 99461 71247 46/// ///// 1//// 91804 22200 00096 11308 20906 327// 41306 70042
BBXX 46244 29181 99409 71244 46/// ///// 1//// 91805 22200 00102 11306 20904 329// 41305 70031
BBXX 42099 29181 99273 70842 46/// ///// 1//// 91757 22200 00240 10301 20301 70005
BBXX 41115 29181 99184 70673 46/// ///// 1//// 91805 22200 11504 21002 301// 41504 70021
AAXX 29184 41315 36/// /3417 10149 20006 39201 42838 333 0E/// 10196 59000
AAXX 29181 48826 32797 83402 10168 20149 30059 40198 51002 885// 333 59001 88697
AAXX 29181 48839 32497 80511 10170 20134 30138 40205 51007 888// 222// 00183 2//// 333 58015 83894 88696
BBXX 46241 29181 99330 71173 46/// ///// 1//// 91741 22200 00142 11302 21001 327// 41301 70010
AAXX 29184 41515 02995 00000 10067 21085 38593 48553 60003 333 58023 60007
AAXX 29184 41560 22696 41802 10010 21080 38287 48520 60003 82340 333 59012 60007
AAXX 29184 41571 NIL
AAXX 29184 41594 319// 00000 10080 20046 39984 40212 70500 333 58005
AAXX 29184 41685 32993 00000 10100 21042 38968 48540 333 58022
AAXX 29184 41710 01995 03102 10080 21137 39433 40236 60003 70600 333 58017 60007
AAXX 29184 41718 11995 00000 10090 20057 30099 40207 60003 70400 333 58012
AAXX 29184 41739 02996 03604 10110 21025 39090 48535 60003 333 58040 60007
AAXX 29184 41744 32996 01302 10100 21024 38807 48526 333 58017
AAXX 29184 41749 01994 03104 10130 20056 30181 40217 60003 70400 333 58006 60007
AAXX 29181 22140 11597 21905 11051 21065 39884 49899 57002 69922 70281 82500 333 11006 91007 91114
AAXX 29181 22004 11562 71005 11039 21076 39813 49926 54000 69902 78584 87900 333 11038 91009
AAXX 29184 41515 02995 00000 10067 21085 38593 48553 60003 333 58023 60007
AAXX 29184 41560 22696 41802 10010 21080 38287 48520 60003 82340 333 59012 60007
AAXX 29184 41571 NIL
AAXX 29184 41594 319// 00000 10080 20046 39984 40212 70500 333 58005
AAXX 29184 41685 32993 00000 10100 21042 38968 48540 333 58022
AAXX 29184 41710 01995 03102 10080 21137 39433 40236 60003 70600 333 58017 60007
AAXX 29184 41718 11995 00000 10090 20057 30099 40207 60003 70400 333 58012
AAXX 29184 41739 02996 03604 10110 21025 39090 48535 60003 333 58040 60007
AAXX 29184 41744 32996 01302 10100 21024 38807 48526 333 58017
AAXX 29184 41749 01994 03104 10130 20056 30181 40217 60003 70400 333 58006 60007
AAXX 29181 22003 11499 70608 11015 21059 39923 49932 52002 69982 73683 85930 333 11004 91010 91112
AAXX 29181 22100 32399 80000 11203 21220 39775 49929 57001 886// 333 11145 88709 91001
AAXX 29181 22213 11582 70000 11103 21109 39738 49909 57005 69902 78582 83930 333 11101 93505
AAXX 29181 28216 11698 82704 11043 21069 39789 40074 52028 69940 70272 885// 333 11038
AAXX 29181 28428 11597 83106 11026 21062 39903 40089 52037 69920 73632 885// 333 11019
AAXX 29181 28451 11996 83107 11064 21094 39829 49989 52045 69950 73673 80007 333 11021
AAXX 29181 28541 11581 73005 11057 21083 39538 40033 52050 69940 73683 87500 333 11031
AAXX 29181 28655 11996 73304 11046 21057 39777 49999 52047 69900 77172 87010 333 11026
AAXX 29181 28756 11996 82702 11052 21060 39848 49997 52031 60010 77072 8807/ 333 11008
AAXX 29181 29557 42998 21402 11054 21114 39951 40223 57012 80001
AAXX 29181 29625 41596 82008 11024 21040 39929 40108 57010 78583 889// 333 88920
AAXX 29181 29813 41497 81907 11012 21022 39910 40087 56001 78583 8697/ 333 84711
AAXX 29181 29822 41997 81808 11025 21044 39978 40142 57009 73632 8805/
AAXX 29181 29915 41497 82009 11004 21010 39942 40099 57008 78583 889// 333 88914
AAXX 29181 36020 41498 81812 11020 21020 39942 40142 57012 72683 889// 333 88915
BBXX 46212 29181 99408 71243 46/// ///// 1//// 91812 22200 00104 11106 21004 330// 41104 70028
BBXX 46216 29181 99343 71198 46/// ///// 1//// 91757 22200 00138 11202 20902 327// 41201 70011
AAXX 29181 48830 31796 83604 10122 20100 39916 40233 51008 71022 885// 333 58023 88697
AAXX 29181 48808 11496 81101 10120 20117 39950 40244 52006 69931 76062 888// 333 58028 83894 88696 96010 9616 0
AAXX 29181 38598 426// 80901 10021 20005 40311 52004 885//
AAXX 29181 38599 31914 80000 10005 21003 39772 40303 51003 71022 8805E 333 10032
AAXX 29181 38725 426// 60000 11029 21171 48560 52002 85502
AAXX 29181 38734 425// 60910 11063 21139 47080 51001 85903
AAXX 29181 38744 426// 30000 11110 21130 38074 48600 54000 83500
AAXX 29181 38836 326// 20000 11012 21027 39340 40315 52009 82900 333 10086
AAXX 29181 38838 429// 00502 10005 21009 39611 40304 52006
AAXX 29181 38844 429// 00502 11035 21143 38530 52007
AAXX 29181 38846 429// 00504 11048 21092 38556 48520 53003
AAXX 29181 38847 NIL
AAXX 29181 38932 NIL
AAXX 29181 38933 329// 00000 11002 21020 39788 40324 54014 333 10070
AAXX 29181 38944 NIL
AAXX 29181 38954 329// 00000 11048 21120 38022 48610 52007 333 10018
AAXX 29181 23226 11450 81805 11120 21140 39676 49897 58003 69940 77172 8552/ 333 11100 85613
AAXX 29181 23701 11482 82305 11050 21067 39863 49993 56014 69900 885// 333 11015 88613
AAXX 29181 28909 11999 82903 11039 21072 30089 40192 52028 69900 70232 8802/ 333 11014 91115
BBXX 46223 29181 99335 71178 46/// ///// 1//// 91800 22200 00145 11302 21001 327// 41301 70008
AAXX 29181 15561 11450 82002 10068 20050 30198 40205 57003 69902 75152 886// 222// 00078 302// 4//00 333 10074 20040 555 58800 65499 92012 92416
AAXX 29184 04203 46/// /1803 11195 21239 30160 40178 52004
AAXX 29184 04205 47/45 /0101 11209 21250 30150 40174 52005 77177 333 11175 21229
AAXX 29184 04208 46/// ///// 11162 21184 30120 40167 57007
AAXX 29184 04213 46/// /2206 11153 21260 30015 40131 57017 333 11126 21158
AAXX 29184 04214 46/// /0412 11118 21196 30090 40123 57013
AAXX 29184 04224 47481 72205 11124 21159 30067 40101 57020 77177 333 11100 21138 84/14 87/57
AAXX 29184 04228 NIL
AAXX 29184 04242 46/// /3512 11111 21163 30079 40096 57030
AAXX 29184 04253 46/// /0115 11056 21115 39988 40015 57060
AAXX 29184 04266 46/// /0315 11051 21134 39934 49972 57070
AAXX 29184 04285 46/// /1505 11046 21057 39935 49954 57085
AAXX 29184 04301 NIL
AAXX 29184 04313 46/// /3609 11254 21297 30137 40149 52012
AAXX 29184 04330 46/// ///// 11275 21316 30128 40146 52016
AAXX 29184 04351 46/// /0305 11049 21055 39987 40003 52015
AAXX 29184 04373 46/// /3242 11105 21188 39930 40024 54000 333 91057
AAXX 29184 04382 46/// /3505 11059 21124 39999 40048 57029
AAXX 29184 04416 46/// ///// 11391 21408 36530 57011
BBXX 46211 29181 99469 71242 46/// ///// 1//// 91806 22200 00085 11308 20905 326// 41305 70038
BBXX 46231 29181 99327 71174 46/// ///// 1//// 91754 22200 00145 11302 20901 328// 41302 70010
BBXX 46222 29181 99336 71183 46/// ///// 1//// 91756 22200 00148 11202 21001 327// 41202 70011
BBXX 46242 29181 99332 71174 46/// ///// 1//// 91758 22200 00142 11201 21001 325// 41201 70006
AAXX 29181 37661 42597 72401 10048 20031 39564 40339 53009 875// 333 10092
AAXX 29181 37675 41495 80000 10012 20007 39660 40341 52013 70254 8802/ 333 10048 555 53005
AAXX 29181 37729 42997 02504 11019 21028 38607 52011 333 10065 53005
AAXX 29181 37735 42999 00000 10012 21008 39871 40259 52011 333 10090
AAXX 29181 37740 42596 81801 10034 21001 39514 40341 52010 885// 333 10075
AAXX 29181 37749 42598 82701 10068 20027 30257 40376 52013 885// 333 10096 555 53004
AAXX 29181 37832 32997 70301 10054 20032 40335 52012 87010 333 10110
AAXX 29181 37851 42998 72801 10063 20024 30282 40353 52010 87030 333 10080
AAXX 29181 37864 32997 60000 10047 20026 40344 52010 86400 333 10074
AAXX 29181 37905 42997 80000 10031 20018 40334 52015 886// 333 10103
AAXX 29181 37923 42996 70000 10066 20033 40284 53034 87070 333 10087 555 53004
AAXX 29181 37925 42997 80901 10076 20056 30364 40335 52012 8807/ 333 10105
AAXX 29181 37985 41596 50000 10067 20058 30345 40330 52004 70162 85540 333 10099
AAXX 29181 37989 41596 82702 10076 20065 40341 52004 76066 8872/ 333 10098
AAXX 29184 60595 36/// /0000 11451 333 11451
AAXX 29184 60381 16/// /2501 10126 20098 60092 333 10148
AAXX 29184 60639 36/// /3413 10118 20007 333 10160
AAXX 29184 60605 36/// /0505 10135 21007 333 10160
AAXX 29181 56146 32980 00000 11086 21201 36738 52002 333 05151 10090
AAXX 29181 56444 32780 22501 11039 21078 36820 57007 82100 333 05101 10075
AAXX 29181 56492 31730 80000 10088 20062 39879 40294 52005 71000 885// 333 00201 10117
AAXX 29181 56571 32980 00401 10066 20003 38411 52007 333 00352 10209
AAXX 29181 57799 11757 82902 10066 20065 30210 40302 52004 69991 71060 885// 333 10088
AAXX 29181 57866 11758 80401 10057 20023 30104 40319 52005 69901 71060 885// 333 10080
AAXX 29181 57957 31757 80206 10071 20020 30093 40299 52004 71000 885// 333 10083
AAXX 29181 57993 11460 83401 10066 20059 30121 40294 52007 69981 76066 885// 333 10109
AAXX 29181 58027 32962 00702 11003 21078 30301 40355 54000 333 10051
AAXX 29181 58141 31957 00202 11010 21047 30336 40356 57001 71000 333 10064
AAXX 29181 58265 32965 00204 10050 21010 30326 40334 52005 333 10094
AAXX 29181 58472 11468 83608 10075 20018 30213 40310 52008 69901 70060 8217/ 333 10108
AAXX 29181 58477 32463 80204 10083 20030 30256 40302 52005 8517/ 333 10118
AAXX 29181 58527 31656 80000 10083 20045 30219 40297 52006 71000 885// 333 10101
AAXX 29181 58633 11930 80703 10075 20063 30201 40304 52005 69941 76060 8807/ 333 10106
AAXX 29181 58666 NIL
AAXX 29181 58725 11750 82901 10083 20071 30009 40277 52004 60031 76060 885// 333 10106
AAXX 29181 58921 11430 83602 10117 20114 30005 40256 52007 60031 76060 8377/ 333 10136
AAXX 29181 59082 11665 83404 10089 20056 30123 40273 52009 60011 72166 885// 333 10128
AAXX 29181 59211 11820 83601 10118 20107 30051 40263 52007 69911 71060 885// 333 10135
AAXX 29181 59265 11758 80201 10108 20066 30115 40256 52012 69901 76000 885// 333 10167
AAXX 29181 59293 32763 80403 10125 20068 30159 40245 52010 885// 333 10215
AAXX 29181 59501 32960 70401 10163 20127 30199 40220 52001 8704/ 333 10222
AAXX 29181 59663 31950 70404 10151 20107 30117 40225 52012 70500 87040 333 10225
AAXX 29181 59838 32762 70404 10192 20170 30179 40189 52007 875// 333 10255
AAXX 29181 59948 32370 70405 10185 20161 39702 40187 57004 87802 333 10223
AAXX 29181 59981 11570 70705 10234 20213 30155 40162 57003 69911 70060 878// 333 10257
AAXX 29184 41506 02994 03602 10040 21011 48571 60003 333 58025 60007
AAXX 29184 41508 22996 00000 10056 21081 48570 60003 333 58015 60007
AAXX 29184 41523 12996 00000 10065 21010 48560 60003 333 58012 60007
AAXX 29184 41535 12997 00000 10050 21014 48524 60003 333 58011
AAXX 29184 41536 NIL
AAXX 29184 41573 12996 03604 10040 21037 48533 60003 333 58006
AAXX 29184 41600 01995 00000 10080 20046 39893 40200 60003 70400 333 58003 60007
AAXX 29184 41630 11995 00000 10070 20047 40211 60003 71000 333 58004
AAXX 29184 41678 11995 00000 10110 20079 40207 60003 71000 333 59001 60007
AAXX 29184 41696 NIL
AAXX 29184 41697 02996 00000 10111 20068 40212 60003 333 58015 60007
AAXX 29184 41700 11995 00000 10105 20074 40205 60003 70400 333 58012
AAXX 29184 41725 02996 00000 10140 20080 40200 60003 333 58010 60007
AAXX 29184 41746 02996 03602 10130 20091 40214 60003 333 58013 60007
AAXX 29184 41759 11696 61302 10220 20189 30182 40188 60002 70500 86500 333 56900 58009 86630
AAXX 29184 41785 02996 00000 10150 20092 40194 60003 333 58011 60007
AAXX 29181 22271 11498 61802 11046 21070 39892 49902 54000 60020 70281 86300 333 20001
AAXX 29181 22583 11480 71801 11056 21067 39879 49960 58014 69930 70288 875// 333 11018 87611
AAXX 29181 23205 11498 82506 11033 21050 39868 49883 52009 69940 70372 886// 333 11010 88710 91110
AAXX 29184 60105 32560 12606 10128 20094 40306 53004 81500 333 10162 81620
AAXX 29184 60096 32960 03515 1073/ 20104 40253 53009 333 10205
AAXX 29184 60101 32460 32401 10096 20065 40314 53008 82502 333 10160 82616
AAXX 29184 60115 32570 43503 10100 20062 40301 53006 83282 333 10141 83826
AAXX 29184 60135 32456 10000 10094 20070 40309 53006 81600 333 10168 81710
AAXX 29184 60156 15960 20106 10133 20066 40315 52005 60002 80002 333 10171 81070
AAXX 29184 60230 12958 20104 10158 20033 40287 53001 60002 81082 91745 333 10199 81360
AAXX 29184 60252 15960 02205 10152 20091 40277 53002 60002 333 10206
AAXX 29181 50353 32970 00000 11299 21338 30076 40328 52004 333 11235
AAXX 29181 50557 32970 00000 11270 21311 30007 40346 57005 333 11200
AAXX 29181 50756 32960 01401 11280 21305 30045 40381 57007 333 11200
AAXX 29181 50949 32965 03601 11228 21271 30190 40379 57007 333 11128
AAXX 29181 50963 32962 01801 11267 21298 30229 40384 52001 333 11182
AAXX 29181 50978 32980 12705 11191 21246 39965 40347 52006 80002 333 11156
AAXX 29181 51087 32980 00000 11177 21209 39336 40380 57011 333 00052 11087
AAXX 29181 51156 32780 52901 11105 21158 38766 40340 57002 83502 333 00002 11052
AAXX 29181 51644 32960 00201 11142 21163 39045 40400 57004 333 00354 11049
AAXX 29181 51656 31959 72201 11088 21106 39226 40392 52003 70400 80002 333 00400 11050
AAXX 29181 51886 32980 21401 11156 21279 37142 52002 80002 333 00251 11029
AAXX 29181 52602 32980 01802 11162 21294 37290 52004 333 00202 11006
AAXX 29181 52713 32980 00000 11136 21264 36925 52006 333 00101 11010
AAXX 29181 52754 32980 03404 11130 21227 36799 57003 333 00101 11022
AAXX 29181 52818 32980 02202 11098 21241 37268 52007 333 00202 10015
AAXX 29181 52836 32980 00000 11133 21240 36908 52008 333 00153 10024
AAXX 29181 52955 32980 01802 11152 21235 36981 54000 333 00152 10031
AAXX 29181 53068 32980 00703 11213 21240 39146 40401 57007 333 05202 11157
AAXX 29181 53276 32980 02505 11142 21190 38927 40347 57009 333 11040
AAXX 29181 54135 32980 00000 11209 21261 30141 40386 57010 333 11109
AAXX 29181 54236 32970 03401 11220 21265 30274 40391 57006 333 11099
AAXX 29181 54539 32765 70701 11067 21134 30366 40382 57008 875// 333 11048
AAXX 29181 54662 32968 03603 11102 21180 30248 40371 52001 333 11063
AAXX 29181 54753 32565 70203 11023 21084 30363 40370 57003 874// 333 11014
AAXX 29181 54857 32967 03606 11036 21072 30268 40366 52001 333 10010
AAXX 29181 57067 31920 80000 11004 21034 39646 40353 57009 71000 8807/ 333 10024
AAXX 29181 57178 31920 80903 10025 21009 30194 40359 57006 71000 8807/ 333 10069
AAXX 29181 57245 32962 80901 10054 21011 39970 40331 54000 8807/ 333 00402 10084
AAXX 29181 57297 31720 80402 10028 20005 30205 40352 52003 71000 885// 333 10032
AAXX 29181 51243 32965 40000 11178 21198 39769 40377 57007 80002 333 05100 11120
AAXX 29181 51709 32962 72901 11095 21118 38812 40379 52005 80002 333 00352 11013
AAXX 29181 58666 11675 83610 10087 20060 30179 40283 57001 69901 70060 885// 333 10110
AAXX 29181 51431 32980 00902 11092 21119 39451 40286 57019 333 05454 11017
AAXX 29181 51747 32965 00000 11207 21241 39030 40432 57001 333 00354 11042
AAXX 29181 52203 32980 00402 11128 21180 39457 40401 52003 333 00502 11047
AAXX 29181 58221 31958 70403 10014 21018 30327 40357 52005 71000 8707/ 333 10060
AAXX 29181 58666 11675 83610 10087 20060 30179 40283 57001 69901 70060 885// 333 10110
AAXX 29184 91945 36/// /0214 10280 20222 30149 40154 51004
AAXX 29181 89062 42482 82106 10029 21007 39746 49786 57001 8752/ 333 81610 84630
AAXX 29184 40582 31957 02805 10081 21057 40240 52011 70500 333 55300 00000 10257 20000 30000 41002 51258 60000 55407 40000 90400 91005 91117 91211 91307
AAXX 29184 41150 NIL
AAXX 29184 41168 NIL
AAXX 29184 41170 42962 22903 10165 20030 30219 40232 82030 333 10206 58003 82364
AAXX 29184 41176 NIL
AAXX 29184 41184 42660 22005 10170 20127 40200 82500 333 10254 58007 82640
AAXX 29184 41194 12660 23107 10201 20119 30205 40210 60001 82500 333 10232 58009 82635
AAXX 29184 41196 42560 22803 10182 20116 30172 40213 82500 333 10239 58008 82630
AAXX 29184 41198 42960 03112 10202 20127 40201 333 10256 58008
AAXX 29184 41210 NIL
AAXX 29184 41216 NIL
AAXX 29184 41217 42660 23004 10181 20106 30179 40209 82500 333 10218 58006 82640
AAXX 29184 41218 42960 03205 10148 20092 39904 40219 333 10226 58007
AAXX 29184 41226 NIL
AAXX 29184 41244 36/// /3205 10155 20096 39863 48413 333 0E017 10220 58006
AAXX 29184 41246 NIL
AAXX 29184 41254 36/// /2804 10070 20049 37980 47985 333 0E007 10148 59005
AAXX 29184 41256 32960 01904 10208 20133 30187 40197 333 10244 58007
AAXX 29184 41258 36/// /2504 10224 20137 30183 40188 333 0E/// 10237 58007
AAXX 29184 41268 36/// /0005 10230 20157 30176 48379 333 0E024 10258 58007
AAXX 29184 41312 36/// /3412 10242 20049 30156 40195 333 0E/// 10296 58011
AAXX 29184 41314 36/// /3104 10163 20006 39700 40255 333 0E015 10228 58008
AAXX 29184 41316 36/67 /0008 10231 20017 30174 40200 333 0E022 10298 58012
AAXX 29184 41404 42960 09902 10129 21059 37906 48566 333 10255 58001
AAXX 29184 41407 NIL
AAXX 29184 41431 42960 01409 10260 20209 30148 40161 333 10290 59005
AAXX 29184 41466 42960 00000 10150 20138 38596 48496 333 10250 59006
AAXX 29184 41477 NIL
AAXX 29184 41480 42460 61008 10254 20159 30185 40188 86500 333 10288 58005 82618 85630
AAXX 29184 40362 42960 01008 10080 21080 39721 40256 333 10162 58005 55///
AAXX 29184 82141 32598 53608 10297 20249 30096 40108 85200 333 59013
AAXX 29184 82145 32598 30906 10334 20205 30061 40102 83200 333 59014
AAXX 29184 82181 32498 50909 10327 20191 39990 40123 85600 333 59007
AAXX 29184 82198 32495 33606 10321 20218 30047 40098 83200 333 58012
AAXX 29184 82353 32598 61802 10327 20233 39979 40063 84230 333 59004
AAXX 29184 82361 32497 53604 10318 20236 30070 40107 85300 333 59012
AAXX 29184 82476 32595 20504 10362 20178 39973 40090 82200 333 59026
AAXX 29184 82861 31597 62704 10325 20242 39895 40062 70292 86200 333 59020
BBXX 62027 29184 99491 70022 46/// /2825 1//// 2//// 40269 56011 22200 00107 10907 329// 70035 333 90710 91134
BBXX 62163 29184 99475 70084 46/// /2820 10104 20054 40358 57009 22200 00124 10808 70041 333 90710 91127
BBXX 62001 29184 99452 70050 46/// /3012 10109 20067 40372 55001 22200 00138 10909 70045
BBXX 64045 29184 99591 70117 46/// /3026 10061 20011 40104 52027 22200 00099 11016 70080 333 90710 91145
BBXX 62105 29184 99554 70121 46/// /3022 10092 20037 40198 52013 22200 00106 10912 70062 333 90710 91136
BBXX 62029 29184 99487 70125 46/// /2620 10118 20081 40348 56011 22200 00127 10809 70045 333 90710 91127
BBXX 64046 29184 99605 70049 46/// /3610 10047 21002 40012 53029 22200 00080 10807 70037
BBXX 62081 29184 99510 70134 46/// ///// 10112 20094 40300 56008 22200 00119 10810 70051
BBXX 62442 29184 99490 70164 46/// /2220 1//// 2//// 40336 57015 22200 00122 333 90710 91131
BBXX 62301 29184 99524 70047 46/// /3121 10093 20063 40192 51010 22200 00090 10606 70031 333 90710 91136
BBXX 62303 29184 99516 70051 46/// /2729 10107 20080 40218 58002 22200 00111 10708 70038 333 90710 91141
BBXX A8RL2 29183 99407 70218 41/98 61812 10160 20151 40400 54000 70322 8457/ 22214 04171 21004 336// 41604 80155
BBXX 62112 29184 99584 70002 47898 /3110 10050 20019 49978 52012 700// 22200
BBXX PJAI 29184 99581 70014 47498 /3126 10057 20021 49986 52015 700// 22200
BBXX 62111 29184 99580 70003 46/// /3227 10049 20019 49990 53013 22200 10707 70035
BBXX 63056 29184 99597 10016 47998 /3022 10049 20004 49925 53006 700// 22200 10808 70042
BBXX 63110 29184 99595 10015 47598 /3124 10072 20016 49938 53002 700// 22200 10709 70043
BBXX 63057 29184 99592 10015 47998 /2926 10055 21008 49945 53003 700// 22200 10808 70041
BBXX 62128 29184 99587 10014 47998 /3122 10047 21037 49967 53003 700// 22200 10808 70042
BBXX 62129 29184 99584 10003 46/// ///// 10054 20009 49968 53003 22200
BBXX 62113 29184 99584 10002 47598 /3414 10059 20003 49970 53004 700// 22200
BBXX ZQSD5 29184 99583 10007 46/// /3215 10056 20005 49970 53003 22200 10909 70043
BBXX 63055 29184 99606 10016 47798 /3318 10045 20012 49927 53016 700// 22200 10808 70039
BBXX 63108 29184 99608 10017 47598 /3625 10045 20004 49919 53017 700// 22200 10907 70037
BBXX 63106 29184 99610 10017 46/// /3622 10047 49929 52025 22200
BBXX 63105 29184 99610 10017 47598 ///// 10046 21000 49931 52027 751// 22200
BBXX 63113 29184 99610 10017 46/// /3526 10042 20004 49930 52025 22200 10807 70037
BBXX 63112 29184 99611 10010 46/// /0126 10038 20006 49937 53026 22200 10709 70043
BBXX 63107 29184 99611 10017 46/// /3629 10048 49928 52025 22200
BBXX 63101 29184 99612 10009 46/// /0127 10047 21004 49943 52029 22200
BBXX 63103 29184 99612 10011 46/// /0128 10055 21006 49939 52026 22200 10808 70040
BBXX 63104 29184 99612 10016 47497 /3625 10045 20009 49934 53026 762// 22200
BBXX 63117 29184 99613 10011 47898 /0127 10089 20024 49941 52027 700// 22200
BBXX 63115 29184 99616 10013 47798 /3422 10044 20003 49949 52030 700// 22200 10809 70043
BBXX MWYG6 29184 99603 70040 47998 /3510 10046 700// 22200
BBXX 64041 29184 99607 70026 47597 /3514 10041 21001 49990 52022 700// 22200 10908 70038
BBXX 62142 29184 99530 10021 47597 /2828 10074 20041 40078 56018 700// 22200 10505 70023
BBXX 62145 29184 99531 10028 47597 /2731 10072 20021 40083 55010 700// 22200 10607 70033
BBXX 62144 29184 99534 10017 47997 /2731 10073 20019 40093 55004 700// 22200 10606 70031
BBXX 62121 29184 99535 10027 46/// ///// 22200
BBXX 62150 29184 99536 10007 47998 /2827 10068 20013 40097 53004 700// 22200 10606 70030
BBXX 62148 29184 99536 10015 46/// /2733 10073 20012 40080 56006 22200
BBXX 62149 29184 99537 10011 47998 /2830 10073 20020 40071 55009 751// 22200 10606 70028
BBXX 62131 29184 99539 10012 46/// /31// 10070 20008 40060 55009 22200
BBXX 62127 29184 99540 10007 47998 ///// 10067 21008 40065 55001 700// 22200 10607 70033
BBXX 62165 29184 99540 10009 47998 /2829 10069 21003 40080 53009 700// 22200 10608 70038
BBXX 62123 29184 99563 10022 47598 /3130 10057 20011 49973 55012 700// 22200
BBXX 62132 29184 99564 10020 46/// /3234 10057 20012 40007 52021 22200
BBXX 62120 29184 99564 10021 47598 /3133 10056 20055 49977 55008 700// 22200
BBXX 62154 29184 99564 10022 46/// /3128 10057 20018 49969 55014 22200
BBXX 62152 29184 99570 10018 47/98 /3122 10053 20011 49976 55008 700// 22200 10709 70044
BBXX 62119 29184 99570 10019 47497 /3128 10056 20013 49976 55009 761// 22200 10809 70044
BBXX 62114 29184 99583 10000 46/// /3015 10052 20018 49973 53009 22200
BBXX 62134 29184 99580 10014 47799 /3112 10042 20003 49965 55004 700// 22200 10808 70041
BBXX 62102 29184 99579 10018 46/// /3013 10057 20012 49962 55007 22200 10808 70041
BBXX 62117 29184 99579 10000 47496 /3021 10055 20014 49976 53010 762// 22200 10706 70029
BBXX 62143 29184 99577 10018 47498 /3112 10043 20018 49967 56012 700// 22200 10709 70043
BBXX 62118 29184 99577 10009 46397 /3120 10043 20019 49963 57004 22200 10808 70042
BBXX 62155 29184 99577 10007 47498 /3125 10042 20017 49971 56004 751// 22200 10808 70039
BBXX 62116 29184 99576 10011 47497 /3216 10054 20018 49962 57010 700// 22200 10809 70044
BBXX 62104 29184 99574 10013 47498 /2927 10065 20021 49959 57010 700// 22200
BBXX 62153 29184 99573 10020 47498 /3214 10053 20020 49965 56011 700// 22200 10809 70044
BBXX 62122 29184 99573 10016 47498 /2921 10053 20021 49961 56017 700// 22200 10809 70043
BBXX 62140 29184 99573 10013 46/// /30// 10056 20013 49959 57010 22200
BBXX 62146 29184 99572 10021 47/98 /3009 10051 20021 49968 56012 700// 22200 10808 70042
BBXX 62164 29184 99572 10008 47497 /3026 10067 20027 49980 53001 700// 22200 00091 10709 70046
BBXX PJGO 29184 99571 10022 47/98 /2824 10058 20018 49969 55006 700// 22200
BBXX 62133 29184 99571 10009 46/// /3030 10059 20006 49975 55003 22200
BBXX ZQTP2 29184 99356 10164 41598 71311 10147 20095 40175 58010 70381 85450 22263 04170 2//// 30000 4//// 5//// 80120
BBXX 62103 29184 99499 70029 46/98 /2738 10112 20070 40244 56009 22200 00117 10907 70037 333 90710 91155
BBXX 64045 29184 99591 70117 46/// /3026 10061 20011 40104 52067 22200 00099 11016 70080 333 90710 91145
BBXX 62094 29184 99517 70067 46/// /2623 10109 20078 40228 50003 22200 00106 10607 70034 333 90710 91131
BBXX 62170 29184 99514 10020 46/96 /2538 10096 20069 40132 57031 22200 00106 10603 70015 333 90710 91152
BBXX 62304 29184 99511 10018 46/97 /2537 10084 20055 40143 57031 22200 00108 10603 70016 333 90710 91152
BBXX 62304 29184 99511 10018 46/97 /2537 10094 20065 40143 57031 22200 00108 10603 70016 333 90710 91152
BBXX 62305 29184 99504 10000 46/97 /2636 10104 20077 40199 56018 22200 00115 10806 70029 333 90710 91147
BBXX PBHZ 29183 99537 70155 41/96 93018 10110 20101 40244 58011 70382 89/// 22213 29904 33136 40807 50806 80105
BBXX 63119 29184 99583 10009 41598 23222 10052 21013 49959 54000 70200 822// 22200 20404 332// 40806 5////
BBXX 62107 29184 99501 70061 46/// /2935 10109 20076 40279 57008 22200 00114 10807 70036 333 90710 91150
BBXX 62103 29184 99499 70029 46/97 /2839 10113 20075 40232 57016 22200 00117 10808 70040 333 90710 91150
BBXX 62095 29184 99530 70159 46/// /2515 10111 20095 40256 58005 22200 00111 10909 70047
BBXX PHBO 29183 99398 70308 41998 21813 10185 20156 40324 53006 70111 80008 22214 20402 80168
BBXX 2AUO5 29183 99606 10016 41597 43530 10051 20026 49942 53021 70266 848// 22271 20704 334// 41010 80041
BBXX A8CC4 29184 99507 70232 41/93 92326 10135 20118 40278 55008 74944 8//// 22224 04110 20403 321// 40905 80125
BBXX ZCBF3 29183 99428 70291 41997 81830 10150 20141 40315 51010 70322 88010 22224 20602 316// 41106 5//// 80145
AAXX 29181 22282 329// 82704 11042 21054 39880 49888 54000 8805/ 333 11042
AAXX 29181 29998 42999 01801 11290 21301 38690 48530 58001
AAXX 29181 30385 42999 60000 11306 21324 39771 40373 52015 80008
AAXX 29181 30469 NIL
AAXX 29181 30636 419// 20000 11278 21297 39722 40402 52002 70171 82030
AAXX 29181 30650 42984 30000 11322 21346 39155 40420 52003 80001
AAXX 29181 30664 42999 30000 11338 21356 39284 40411 53009 80001
AAXX 29181 30781 NIL
AAXX 29181 30777 42998 02402 11303 21328 39647 40383 57005
AAXX 29181 30844 42999 80000 11280 21292 39334 40424 54000 80007
AAXX 29181 30925 429// 00000 11224 21236 39357 40421 58001
AAXX 29181 31371 42999 00000 11221 21350 30032 40333 53003
AAXX 29181 31388 42984 80000 11251 21269 30028 40319 57004 8807/
AAXX 29181 31478 NIL
AAXX 29181 31532 42999 80000 11295 21313 39956 40343 57003 80001
AAXX 29181 31594 42999 01401 11258 21276 30147 40337 58002
AAXX 29181 31655 41996 80000 11206 21218 30242 40293 52004 70272 8802/
AAXX 29181 31754 41998 80000 11250 21274 39766 40319 52008 77172 80007
AAXX 29181 38847 3//// /2702 11028 21040 39510 40310 333 10042 777 92091
AAXX 29181 38388 32998 00000 11021 21056 30250 40321 52015 333 10093
AAXX 29181 38392 22797 32404 11018 21056 30206 40314 52023 87500 333 69900 10071
AAXX 29181 38507 32996 00000 11006 21030 30236 40344 52014 333 10097
AAXX 29181 38511 32998 00000 11006 21027 30189 40337 52017 333 10072
AAXX 29181 38545 32598 53302 10037 21025 30120 40299 52020 85500 333 10094
AAXX 29181 38647 32697 10902 10046 21018 30291 40334 52026 81500 333 10121
AAXX 29181 38656 32998 03203 10030 20002 30219 40331 52031 333 10116
AAXX 29181 38687 32996 02703 10042 20005 30065 40305 52016 333 10110
AAXX 29181 38750 32997 00702 10063 20052 30367 40338 52012 333 10130
AAXX 29181 38763 32597 83004 10060 20003 30230 40337 52027 885// 333 10115 88630
AAXX 29181 38774 32995 83202 10076 20000 30147 40346 52028 8807/ 333 10111
AAXX 29181 38799 32997 00000 10029 20019 30070 40308 52015 333 10120
AAXX 29181 38806 32997 02702 10033 20015 30034 40301 52010 333 10112
AAXX 29181 38880 32797 62802 10067 20026 30078 40338 52021 83530 333 10118
AAXX 29181 38886 32997 02702 10029 21007 30092 40327 52011 333 10115
AAXX 29181 38895 32996 02501 10024 20003 30030 40329 52019 333 10124
AAXX 29181 38911 32997 01403 10036 20013 39998 40301 52009 333 10113
AAXX 29181 38915 32997 01201 10037 20011 39977 40309 52016 333 10121
AAXX 29181 38974 32998 02502 10037 20000 39988 40332 52021 333 10133
AAXX 29181 38987 32996 02202 10017 21011 39574 40342 52028 333 10149
AAXX 29181 22165 12598 22706 11016 21061 39841 49902 52002 69960 82500 333 10007
AAXX 29181 23929 11550 83106 11110 21130 39858 49926 52038 60010 78583 889// 333 11038
AAXX 29181 28688 11997 71904 11030 21050 39839 49998 52017 69900 70273 8801/ 333 10003 91113
AAXX 29181 28588 11996 82004 11029 21039 39819 49976 52018 69960 77173 8802/ 333 11001 91113
AAXX 29181 28383 11996 81604 11012 21025 39864 49947 52031 69940 77173 8802/ 333 11003
AAXX 29181 28696 11997 22004 11037 21070 39894 40034 52014 60010 73631 82030 333 11002 91112
BBXX SHIP 29184 99065 11484 41/97 20616 10282 20220 40080 57011 70200 8//// 22252 06292 10903 399// 4////
AAXX 29184 82098 31596 40709 10328 20237 30084 40101 71521 82960 333 59014
AAXX 29184 82246 32797 51802 10310 20244 39919 40115 85030 333 58002
AAXX 29184 82445 21697 60505 10300 20244 30072 40124 72055 83250 333 59010 69921
AAXX 29184 82460 32597 53602 10362 20227 30049 40078 85100 333 59033
AAXX 29184 82562 32598 63604 10321 20245 39974 40081 86200 333 58039
AAXX 29184 82571 32497 31404 10329 20218 39914 40086 83200 333 59020
AAXX 29184 82765 32598 53203 10322 20234 39883 40120 85200 333 59018
BBXX 51203 29181 99208 71570 46/// ///// 1//// 91813 22200 00245 11402 21001 327// 41401 70008
BBXX 52200 29181 99134 11448 46/// ///// 1//// 91815 22200 00286 10805 20804 309// 41101 70023
BBXX 51201 29181 99217 71581 46/// ///// 1//// 91812 22200 00240 11505 21003 332// 41503 70023
BBXX 46221 29181 99339 71186 46/// ///// 1//// 91745 22200 00149 11302 21002 328// 41301 70010
BBXX 46114 29181 99364 71222 46/// ///// 1//// 91804 22200 00123 11405 21003 330// 41404 70025
BBXX 44098 29181 99428 70702 46/// ///// 1//// 91807 22200 00084 10604 20603 312// 41301 70018
BBXX 44097 29181 99410 70711 46/// ///// 1//// 91802 22200 00113 11104 20904 321// 41101 70020
BBXX 41029 29181 99328 70796 46/// /2406 1//// 91800 555 11067 22069
BBXX 44033 29181 99441 70690 46/30 /2811 11026 40056 57004 91804 22200 00067 10301 70006 333 91213 555 11136 22143
BBXX 44034 29181 99441 70681 46/30 /2813 11018 40040 55000 91804 22200 00078 11106 70032 333 91218 555 11167 22175
BBXX 44060 29181 99413 70721 46/// ///06 11011 40144 91815 22200 00091 333 91208 555 11062 22062
BBXX 44022 29181 99409 70737 46/// ///04 11005 21120 40159 91815 22200 00084 333 91206 555 11041 22041
AAXX 29181 28465 11996 83106 11050 21060 39872 49949 52034 60020 77172 8807/ 333 11006
BBXX 41114 29181 99276 70802 46/// ///// 1//// 91816 22200 00236 11402 20701 306// 41401 70008
BBXX 42362 29181 99278 70907 46/// /2501 10206 20089 40190 91815
BBXX 42363 29181 99282 70892 46/// /3303 10211 20111 40193 91815 333 91203
BBXX 42364 29181 99291 70881 46/// /0903 10211 20139 40186 91815
AAXX 29181 28586 11496 81806 11029 21046 39835 49982 52021 69930 77173 8802/ 333 10005 88516 91112
AAXX 29181 28791 11498 82006 11054 21072 39871 40017 52014 69920 70232 8802/ 333 11002 88513 91112
AAXX 29181 23219 32398 82502 11077 21095 39788 49895 58001 8802/ 333 11083
AAXX 29181 60373 16/// /2401 10102 20101 60052 333 10140
AAXX 29181 60623 36/// /0000 10130 21104 333 10163
AAXX 29181 60393 16/// /2102 10131 20098 60072 333 10153
BBXX VQNW6 29184 99033 10824 41/98 /2709 10265 20228 40114 50015 702// 8//// 22233 2//// 3//// 4//// 5//// 80240
BBXX SHIP 29184 99080 71430 41496 81015 10244 20225 40126 52029 76361 87620 22233 04262 20403 30802 40704 50803
AAXX 29181 22438 11440 81406 11029 21039 39882 49873 56008 69930 77172 8802/ 333 11028
BBXX SHIP 29184 99229 11479 41898 60318 10215 20161 40164 57006 70300 8526/ 22282 00277 80180
BBXX SHIP 29184 99368 11723 41/96 42728 10130 20113 40153 56001 70102 8//// 91750 22224 00180 2//// 3//// 4//// 5//// 80120
BBXX DFZB2 29183 99232 11708 41/98 /0609 10222 20188 40209 50009 7//00 8//// 22264 04250 21006 320// 41206 5//// 80199
BBXX 3FMH7 29184 99326 11784 41598 83124 00/// 10190 20142 40188 53015 70322 87/// 9//// 22263 00200 1//// 20504 399// 41208 5//// 6//// 80160
BBXX SHIP 29184 99142 11142 41498 10517 1025 20222 40133 58003 70002 811// 22214 00266 1//// 2//// 3//// 4//// 80230
BBXX SHIP 29184 99136 11137 41498 60417 10260 20240 40141 57007 70222 8542/ 22252 00268 80245
BBXX H9UY 29184 99302 11526 41498 73126 00/// 10190 40138 5610 70322 8789/ 9//// 22273 04220 20706 332// 40706 5//// 6//// 80160
BBXX PFBF 29184 99165 51788 41498 12315 10290 20283 40085 51012 70100 81145 22223 02280 20406 309// 40408 5//// 80285
BBXX ZCAO7 29184 99045 31256 41/98 82812 10275 20239 40078 56010 70311 8//// 22243 00298 2//// 80250
BBXX SHIP 29184 99440 31100 41497 82129 10090 20012 40068 52022 70322 8671/ 22243 00116 10423 85055
AAXX 29181 01311 47461 83407 10037 20028 39821 49882 53016 761// 333 10050 91121
BBXX ZCAO7 29184 99045 31256 41/98 82812 10275 20239 40078 56010 70311 8//// 22243 00298 2//// 80250
BBXX SHIP 29184 99440 31100 41497 82129 10090 20012 40068 52022 70322 8671/ 22243 00116 10423 85055
AAXX 29181 01025 17/84 01104 11012 21076 39884 49895 52009 60002 700// 333 10002 91111
AAXX 29181 13160 31696 82902 10012 20010 30114 40226 58004 71022 885// 333 10025
AAXX 29181 13262 31594 80000 11005 21011 30072 40227 57005 71022 886// 333 11003
AAXX 29181 13272 11115 82503 11001 21006 30097 40221 56003 69902 72454 886// 333 11001 88702
AAXX 29181 13285 31695 82702 10000 21009 30115 40221 58001 71022 885// 333 10037
AAXX 29181 13289 31097 83006 11040 21045 38966 48458 57006 70342 886// 333 10003 4/003
AAXX 29181 13376 31995 82601 10000 21019 39954 40226 55001 71022 8807/ 333 10008
AAXX 29181 13388 31996 20301 10003 21020 39963 40220 56002 71011 80001 333 10023
AAXX 29181 13462 32860 33501 10017 21013 30165 40206 50003 83030 333 10095 83358
AAXX 29181 13473 NIL
AAXX 29181 13489 31495 31801 11027 21038 39697 40241 55000 71000 83650 333 11008
AAXX 29181 21432 41996 82410 11201 21227 30069 40089 52004 73873 8805/
AAXX 29181 21824 41995 62316 11232 21242 30165 40174 58004 73832 86030 333 91020 91121
AAXX 29181 21908 42999 00000 11328 21351 30081 40171 52004
AAXX 29181 21921 41996 82005 11245 21285 30196 40244 58001 77172 8802/
AAXX 29181 21931 42998 02302 11260 21284 30178 40212 58004
AAXX 29181 21946 41598 82204 11278 21309 30147 40233 54000 77872 8553/ 333 85622
AAXX 29181 21982 31998 23410 11217 21249 30143 40172 52003 73631 80001 333 21239 48010 91114
AAXX 29181 25062 32998 02204 11356 21390 30229 40233 58003 333 21380 48038 91107
AAXX 29181 25123 41996 81504 11356 21383 30241 40278 58003 77172 8801/
AAXX 29181 25138 41998 81002 11398 21427 30162 40304 53002 77171 85037 333 91104
AAXX 29181 25173 31996 03108 11290 21301 30204 40209 52003 73630 333 21296 48054 91115
AAXX 29181 25248 41997 70000 11460 21485 39794 40327 53001 77172 87020 333 91100
AAXX 29181 25282 31938 03212 11288 21299 30153 40160 52010 73831 333 21302 46003 91117
AAXX 29181 25325 NIL
AAXX 29181 25356 32999 20000 11430 21468 30117 40233 53006 80001 333 21437 48017 55000 91000
AAXX 29181 25399 11458 83406 11232 21264 30047 40057 52014 69920 73683 85501 333 21232 48037 55000 91111 96110
AAXX 29181 25428 41937 40000 11460 21492 39951 40347 52005 71071 80001 333 91100
AAXX 29181 25551 32998 01601 11458 21492 30200 40237 53004 333 21470 47035 55002 91102
AAXX 29181 25563 32984 03506 11322 21346 30112 40199 52005 333 21323 44030 55020 91110
AAXX 29181 25594 31998 83408 11188 21221 30028 40081 52010 73632 8805/ 333 21218 49040 91113
AAXX 29181 25677 31998 03406 11234 21274 30175 40181 52006 73630 333 21246 91108
AAXX 29181 31054 42999 00000 11461 21485 30047 40372 52007
AAXX 29181 31123 42998 20000 11405 21432 30023 40405 52017 80001
BBXX ZMFR 29184 99413 31748 43/// /0205 10173 20161 40103 52011 22200 00180
BBXX V2QD4 29183 99342 31706 41/97 80515 10200 20185 49934 56015 71011 22263 00220 20401 305// 41002
BBXX ZMFR 29184 99413 31748 43/// /0205 10173 20161 40103 52011 22200 00180
BBXX V2QD4 29183 99342 31706 41/97 80515 10200 20185 49934 56015 71011 22263 00220 20401 305// 41002
AAXX 29184 41883 32930 00000 10160 20140 30134 40156 333 59004 70000
AAXX 29184 41923 31930 00000 10191 20160 30136 40146 70500 333 59002 70000
AAXX 29184 41936 31925 20000 10176 20170 40148 70500 82030 333 56090 59002 70000 82362
AAXX 29184 41943 32940 00000 10210 20200 30140 40148 333 59003 70000
AAXX 29184 41950 31940 00000 10184 20170 30145 40147 70521 333 59003 70000
AAXX 29184 41978 31931 20000 10220 20180 30136 40143 70500 82500 333 56900 59001 70000 81618
AAXX 29184 41992 11425 60000 10234 20210 30141 40143 69906 70560 83530 333 56990 59008 79999 83618 86362
AAXX 29181 14216 11665 80704 10064 20019 30042 40196 53/// 69912 760// 887// 333 10115 923// 924/7
AAXX 29181 14219 11/00 90901 11017 21022 39189 48483 53/// 60022 77576 333 10033 43005 93101
AAXX 29181 14232 11458 82301 10007 21008 30095 40235 54/// 69902 77722 8472/ 333 10007
AAXX 29181 14234 11420 83301 10006 20006 39986 40241 54/// 69952 768// 8772/ 333 10012
AAXX 29181 14236 11330 82201 11003 21005 30026 40231 55/// 60012 76167 887// 333 10015
AAXX 29181 14244 11440 80000 11006 21007 30107 40241 54/// 69942 777// 886// 333 11005
AAXX 29181 14248 11930 82702 11003 21005 30056 40237 54/// 69982 76872 8802/ 333 10000
AAXX 29181 14253 11610 82901 11001 21011 30053 40233 54/// 69962 766// 8802/ 333 11001
AAXX 29181 14256 11510 82405 11015 21017 39899 40230 51003 69912 76664 8362/ 333 11013 41998
AAXX 29181 14280 11656 82803 10000 21008 30106 40219 58006 60002 7102/ 8252/ 333 10020
AAXX 29181 14308 11820 80901 10055 20047 39840 40198 54/// 69932 760// 8802/ 333 10083
AAXX 29181 14321 12670 81001 10092 20051 30169 40193 57/// 60002 885// 333 10123 92301 92418
AAXX 29181 14370 11430 82401 11016 21021 30113 40227 57001 60002 76122 887// 333 11010 42001
AAXX 29181 14382 11510 83402 11008 21012 30100 40225 55000 60002 71042 886// 333 11002
AAXX 29181 14428 11470 71002 10092 20056 30182 40190 56/// 69992 70262 85830 333 10095 92312
AAXX 29181 14441 12782 70703 10103 20063 30154 40179 56/// 60052 82570 333 10131 92311
AAXX 29181 14452 NIL
AAXX 29181 14454 12768 70502 10090 20051 30128 40188 54/// 60012 87800 333 10097 92311
AAXX 29181 14462 12670 70701 10050 20018 30193 40199 57/// 69902 82870 333 10009
AAXX 29184 41858 31940 00502 10142 20120 30110 40158 71000 333 59008 70000
AAXX 29184 41863 NIL
AAXX 29184 41886 NIL
AAXX 29184 41895 32950 00000 10154 20130 30137 40161 333 59002 70000
AAXX 29184 41909 NIL
AAXX 29184 41915 32956 00000 10138 20130 30132 40158 333 58005 70000
AAXX 29184 41926 31940 00000 10158 20150 30145 40159 70500 333 58010 70000
AAXX 29184 41929 NIL
AAXX 29184 41933 NIL
AAXX 29184 41939 NIL
AAXX 29184 41941 31440 60000 10202 20180 30143 40149 70520 85420 333 56990 58002 70000 84616 86460
AAXX 29184 41946 31940 20000 10188 20180 30151 40156 70510 82030 333 56090 58005 70000 82362
AAXX 29184 41947 31947 00000 10202 20150 30150 40152 70544 333 59002 70000
AAXX 29184 41951 NIL
AAXX 29184 41953 NIL
AAXX 29184 41958 NIL
AAXX 29184 41960 31935 00000 10196 20195 30154 40156 70520 333 59002 70000
AAXX 29184 41963 NIL
AAXX 29184 41964 31440 40000 10216 20210 30152 40154 70522 83530 333 56990 59012 70000 83618 84362
AAXX 29184 41965 NIL
AAXX 29184 41966 NIL
AAXX 29184 41984 32940 30000 10200 20180 30142 40144 83030 333 56090 58000 70000 82362
AAXX 29184 41989 NIL
AAXX 29184 41998 NIL
BBXX 3EKU3 29184 99520 71381 41996 10919 00/// 10030 20040 49940 57004 70200 81627 22274 00032 20803 31111 40602 5//// 6//// /////
BBXX 3FCA9 29184 99516 71362 41698 81326 00/// 10020 21010 49980 56020 76166 88222 22274 00021 20565 30712 40806 50406 6//// 80020 ///// /////
BBXX 46001 29181 99563 71480 46/// /2811 11018 49956 53019 91750 22200 00043 11408 20706 300// 41405 70038 333 91213 555 11112 22117 31704 42315 61749 276107 276115 273116 267112 259108 249108
BBXX 46042 29181 99368 71224 46/// /3406 10111 40242 51014 91750 22200 00125 11305 20401 329// 41304 70023 333 91207 555 11062 22065 31736 43308 61749 337059 333063 327063 331061 337058 346053
BBXX 46207 29181 99509 71299 46/// /1409 10057 40078 57020 22200 00081 11308 70042 333 91213
BBXX DDAC2 29180 99421 71341 41/96 /1813 10120 20120 40100 54000 71066 8//// 22273 04120 2//// 325// 40506 5//// 80120
BBXX OZDL2 29183 99317 71239 41/93 /3419 10160 20108 40260 74244 8//// 22234 00160 20103 80130
BBXX SGW 29181 99335 71226 43/93 93310 10124 40241 58002 22224 00132 20504 41104
BBXX WDB9918 29184 99354 71240 41/91 91719 10111 20110 40200 51010 74944 89/// 22233 00111 2//// 327// 40804 5//// 6//// 80111 ICE /////
BBXX WDC6644 29184 99337 71212 41598 33225 10144 20100 40170 54000 70200 83/9/ 22273 00148 20201 332// 40706 5//// 6//// 80122 ICE /////
BBXX WSLH 29184 99328 71339 41498 62705 10167 20130 40285 5//// 70311 8689/ 22254 00122 20100 329// 40901 5//// 6//// 80144 ICE /////
BBXX WSRL 29183 99369 71266 41/96 82709 10125 20120 40255 52020 74522 88/// 22254 0//// 20901 32831 40904 51002 6//// 80120 ICE 0/0//
AAXX 29184 61600 32960 60606 10268 20056 30158 40164 85032 333 10286 58024 85363 83074
AAXX 29184 61612 32958 20804 10266 20003 30158 40166 80002 333 10285 58010 82073
AAXX 29184 61627 32958 40404 10280 20031 3//// 4//// 80002 333 10304 5//// 84073
AAXX 29184 61630 NIL
AAXX 29184 61641 32958 63613 10241 20167 30118 40151 82032 333 10264 58017 82363 85073
AAXX 29184 61666 32962 60404 10300 20155 30128 40146 81032 333 10317 58025 81363 85073
AAXX 29184 61679 32960 60406 10304 20173 30134 40142 81032 333 10332 58011 81363 86073
AAXX 29184 61687 32960 70410 10290 21024 30083 40140 86072 333 10348 58027 86363
AAXX 29184 61695 32960 73606 10270 20114 30106 40132 84082 333 10330 58014 84363 87073
AAXX 29184 61697 32960 73608 10266 20117 30120 40135 85082 333 10277 58019 85363 87073
AAXX 29184 61698 32960 70404 10296 20065 30117 40128 86072 333 10321 58010 86363 84073
AAXX 29184 61699 32960 41006 10313 20086 39924 40114 80002 333 10320 58014 84073
AAXX 29184 65528 NIL
AAXX 29184 65536 NIL
AAXX 29184 65545 NIL
AAXX 29184 65548 NIL
AAXX 29184 65555 NIL
AAXX 29184 65557 NIL
AAXX 29184 65560 NIL
AAXX 29184 65562 NIL
AAXX 29184 65563 NIL
AAXX 29184 65578 32457 72406 10274 20250 30112 40129 85830 333 10295 58005 82813 85620 87360 94919
AAXX 29184 65585 NIL
AAXX 29184 65592 NIL
AAXX 29184 65594 NIL
AAXX 29184 65599 NIL
AAXX 29184 41929 32956 00000 10182 20160 30139 40148 333 59002 70000
AAXX 29184 41933 31930 00000 10190 20170 30145 40154 70500 333 58000 70000
AAXX 29184 41958 31930 00000 10200 20180 30146 40149 70510 333 59004 70000
AAXX 29184 41863 31950 00000 10137 20130 30122 40167 70500 333 58007 70000
AAXX 29184 93800 16/// /2005 10106 20076 40114 52003 60001
AAXX 29184 93805 16/// /1708 10114 20053 40156 52012 60001
AAXX 29184 93994 16/// /1106 10214 20178 40151 52004 60001
BBXX 46147 29181 99518 71312 46/// /1609 10054 40066 57015 22200 00079 11210 70049 333 91212
BBXX 46147 29181 99518 71312 46/// /1609 10054 40066 57015 22200 00079 11210 70049 333 91212
AAXX 29181 25703 41996 20000 11488 21522 30036 40362 52003 77670 80001
AAXX 29181 25745 NIL
AAXX 29181 25913 41597 70406 11156 21175 30060 40216 52007 78583 86930 333 92982
AAXX 29181 25954 42998 00201 11222 21280 30075 40198 52009
AAXX 29181 25956 41/94 90612 11156 21169 30137 40143 53002 73833 333 91013 91114 92982
AAXX 29181 31088 42999 03604 11254 21309 30223 40231 52006
AAXX 29181 31873 42997 02802 11227 21249 30184 40332 53011
AAXX 29181 31909 41998 63010 11128 21211 30089 40172 53012 73631 86010 333 91018 91120
AAXX 29181 31960 42498 53610 11153 21213 30055 40308 52004 85600 333 91016 91117
AAXX 29181 31961 41597 80802 11166 21185 30284 40334 53009 70282 884// 333 88631
AAXX 29181 32053 41497 70201 11096 21112 30181 40232 54000 70282 86930 333 86917 91001 91102
AAXX 29181 32061 41583 23401 11051 21065 30189 40229 52003 70281 82900 333 91002 91102
AAXX 29181 32098 41497 80102 11057 21064 30225 40235 53002 78582 84973 333 91003 91104
AAXX 29181 32150 41594 83502 11009 21016 30140 40170 55000 78682 889// 333 91005 91108
AAXX 29181 32165 41394 81007 10001 21008 30079 40140 58019 77472 8872/ 333 91011 91113
AAXX 29181 32215 41596 63203 11040 21108 30190 40220 52009 72683 86900 333 91005 91110
AAXX 29181 32252 NIL
AAXX 29181 32389 41496 80000 11238 21256 30182 40223 54000 78582 889// 333 85714
AAXX 29181 32477 42598 50802 11201 21220 30191 40226 52007 85500
AAXX 29181 32583 42999 03303 11083 21111 30166 40198 52005
AAXX 29181 32618 41598 30106 11054 21105 30162 40184 52005 70280 83500
AAXX 29184 71276 17/// ///04 11060 21064 69991 7//4/ 333 11060 21098 70009
AAXX 29184 71189 46/// /2837 11169 21219 6///1 333 11127 21175 7////
AAXX 29184 71196 17/// /0302 11177 21220 39952 40161 58013 69931 7//4/ 333 11169 21240 70003
AAXX 29184 71979 16/// ///// 11016 21098 38347 49989 53019 60001 333 10022 21106 70000
AAXX 29184 71343 16/// /2732 10069 21063 60001 333 10074 20014 70000
AAXX 29184 71026 16/// /3024 10067 21019 39117 49950 53048 60001 333 20005 7////
AAXX 29184 71820 16/// /0103 11093 21197 30034 40153 58020 60001 333 11091 21173 70000 555 10010
AAXX 29184 71217 16/// /3010 10043 21015 60001 333 10070 20011 70000
AAXX 29184 71475 16/// /3001 10013 20012 30071 40165 50012 60001 333 10060 21004 70256
AAXX 29181 08535 32/// /9903 10137 20050 30248 40342 52010 333 10156 91106 555 60005
AAXX 29184 60691 36/// /3510 10179 21100 333 10228
AAXX 29184 60650 36/// /3610 10130 21013 333 10157
AAXX 29184 60672 36/// /0509 10095 21074 333 10121
AAXX 29184 60633 36/// /3215 10153 21047 333 10188
AAXX 29184 60692 36/// /3108 10193 21101 333 10246
AAXX 29184 60661 36/// /3613 10104 21044 333 10147
AAXX 29184 60662 36/// /0000 10083 21060 333 10133
AAXX 29184 60667 36/// /0000 10161 21074 333 10204
AAXX 29184 60677 36/// /0000 10094 21049 333 10151
AAXX 29184 60676 36/// /0000 10140 21089 333 10171
AAXX 29184 60679 36/// /0213 11014 21099 333 10068
AAXX 29184 60660 36/// /3515 10143 21025 333 10159
AAXX 29183 61701 31959 70000 10260 20139 40130 70522 87070 333 10295 58026 84462 84363
AAXX 29183 61705 32960 70903 10270 20136 4//// 87070 333 10294 5//// 83360 85461
AAXX 29183 61707 32960 60000 10280 20119 4//// 80006 333 10318 5//// 84273 83074
AAXX 29183 61711 32960 50603 10280 20185 4//// 80002 333 10300 5//// 85074
AAXX 29183 61712 NIL
AAXX 29183 61717 32960 70903 10295 20040 4//// 87070 333 10320 5//// 84462 83363
AAXX 29183 61720 NIL
AAXX 29183 61721 32960 70708 10298 20143 4//// 84036 333 10315 5//// 84362 85273
AAXX 29183 61722 32960 70000 10286 20030 4//// 87070 333 10310 5//// 84461 85362
AAXX 29183 61731 32960 60906 10288 20084 4//// 85032 333 10320 5//// 85363 84074
AAXX 29183 61733 32960 60903 10290 20164 4//// 86030 333 10322 5//// 86364
AAXX 29184 89002 42699 71912 11001 21029 39777 49830 57010 875//
BBXX 46183 29181 99536 71311 46/// /3501 10046 40073 52007 22200 00075 11002 70010 333 91205
AAXX 29181 50434 32980 20000 11324 21362 39395 40403 57010 80002 333 11249
AAXX 29181 50527 32968 01105 11324 21359 39500 40412 57010 333 11301
AAXX 29181 50603 32980 02701 11313 21351 39624 40401 57009 333 11273
AAXX 29181 50632 32980 02702 11201 21268 39379 40354 57008 333 11179
AAXX 29181 50727 32980 00000 11304 21342 39088 40419 57010 333 11215
AAXX 29181 50915 32980 00000 11247 21289 39280 40389 57013 333 11162
AAXX 29181 51716 32965 00201 11110 21136 39004 40381 52002 333 00353 10004
AAXX 29181 51765 32980 02002 11129 21155 39327 40401 52002 333 00400 11032
AAXX 29181 51777 32970 02201 11129 21167 39287 40407 52009 333 00400 11023
AAXX 29181 51811 32962 02701 11098 21126 38874 40373 52008 333 00352 11004
AAXX 29181 51828 32965 00401 11079 21145 38701 40347 52003 333 00100 10017
AAXX 29181 52267 32980 02501 11119 21212 39191 40371 57004 333 00100 11042
AAXX 29181 52323 32980 62505 11124 21205 38277 57002 80002 333 00305 11009
AAXX 29181 52495 32970 00902 11153 21217 38745 40356 57003 333 00000 11007
AAXX 29181 53149 32980 00000 11135 21171 38838 40334 57007 333 05102 11018
AAXX 29181 53192 32980 01601 11245 21270 38955 40400 57011 333 11121
AAXX 29181 53231 32970 01605 11110 21232 38536 57005 333 00002 10002
AAXX 29181 53336 32980 00000 11142 21177 38780 40355 57009 333 05102 11037
AAXX 29181 53391 32980 01101 11136 21181 38561 40345 57010 333 05103 11034
AAXX 29181 53529 32970 00000 11106 21131 38681 40327 57009 333 00001 10020
AAXX 29181 53543 32980 02002 11064 21101 38595 40321 57009 333 10001
AAXX 29181 53723 32968 03201 11094 21103 38715 40319 57007 333 00001 10038
AAXX 29181 54012 32980 01102 11246 21279 39091 40398 57015 333 11157
AAXX 29181 54026 32980 03401 11192 21275 30005 40362 57011 333 11094
AAXX 29181 54027 32970 01101 11202 21282 39728 40371 57011 333 11082
AAXX 29181 54208 32980 01801 11226 21255 38827 40397 57006 333 11085
AAXX 29181 54776 32980 03408 11015 21068 30285 40345 54000 333 10009
AAXX 29181 56004 32980 02902 11193 21319 35818 52007 333 05102 11018
AAXX 29181 56033 32980 20702 11171 21262 36013 54000 80002 333 00053 11027
AAXX 29181 56046 32980 02001 11153 21206 36256 57001 333 00055 10007
AAXX 29181 56193 NIL
AAXX 29181 56196 11830 80000 10071 20048 40298 52002 69901 76060 885// 333 00201 10106
AAXX 29181 56287 31958 80000 10067 20050 40299 52004 71000 8807/ 333 00101 10114
AAXX 29181 56684 32570 80702 10030 21008 37932 52008 884// 333 00456 10150
AAXX 29181 56751 32980 01601 10052 20015 38040 52007 333 00155 10178
AAXX 29181 56786 32560 83203 10050 20022 38144 52007 884// 333 00355 10184
AAXX 29181 56977 32465 72701 10121 20119 40184 52005 87400 333 05100 10215
AAXX 29181 57259 32963 80902 10034 20006 40342 57011 8807/ 333 10059
AAXX 29181 57279 31956 80401 10028 20018 40348 57003 71000 8807/ 333 10085
AAXX 29181 57348 31856 80000 10089 20055 40304 52003 71000 885// 333 10102
AAXX 29181 57399 31957 20401 10030 20012 40335 52011 71000 82030 333 10087
AAXX 29181 57554 31957 80701 10056 20010 40331 52005 71000 8807/ 333 10075
AAXX 29181 57793 11615 82902 10063 20063 40309 52004 69911 71060 885// 333 10089
AAXX 29181 58345 31958 80203 10046 21004 40339 52003 71000 8807/ 333 10106
AAXX 29181 58506 31/00 90905 10000 21001 40322 52006 74544 333 10059
AAXX 29181 58813 11458 83601 10067 20066 40289 52005 60021 76066 887// 333 10093
AAXX 29181 58834 11450 80701 10111 20105 40266 52004 60021 76066 885// 333 10136
AAXX 29181 58926 11420 82201 10129 20118 40246 52004 60021 76066 8372/ 333 10147
AAXX 29181 58944 11457 80205 10109 20092 40253 57005 60011 76066 885// 333 10135
AAXX 29181 59096 11561 80402 10096 20069 40260 52010 69901 76060 885// 333 10175
AAXX 29181 59102 11659 80404 10079 20062 40268 52010 69931 76060 885// 333 10128
AAXX 29181 59278 31758 83602 10157 20091 40238 52014 70500 885// 333 10217
AAXX 29181 59456 32862 70402 10156 20081 40225 52013 875// 333 10260
AAXX 29181 59493 32962 03401 10160 20135 40221 52003 333 10239
AAXX 29181 59658 32960 00202 10165 20147 40217 52007 333 10214
AAXX 29181 59673 32562 70206 10169 20149 40217 52004 878// 333 10209
AAXX 29181 59845 32565 80702 10176 20163 40202 52007 888// 333 10259
AAXX 29184 62305 12560 61306 10146 20110 40194 52006 69932 83502 333 10176
AAXX 29184 62306 32960 01010 10136 20104 40202 52005 333 10192
AAXX 29184 62318 32560 40702 10140 20116 40192 52002 84800 333 10189
AAXX 29184 62337 NIL
AAXX 29184 62366 32860 30609 10148 20080 40190 52004 83030 333 10190
AAXX 29184 62393 32960 60000 10160 20071 40182 53006 86020 333 10216
AAXX 29184 62405 32960 62902 10184 20065 40170 52010 86004 333 10240
AAXX 29184 62414 32960 63604 10201 20067 40170 52012 86050 333 10258
AAXX 29184 62417 32960 00401 10118 20063 40182 52004 333 10191
AAXX 29184 62440 32960 00207 10140 20101 40190 52003 333 10193
AAXX 29184 62463 32560 63006 10182 20096 40182 52009 81150 333 10210
AAXX 29184 62465 32960 63002 10180 20127 40174 52011 80008 333 10214
AAXX 29184 62419 NIL
AAXX 29181 40650 12960 00000 10056 21006 40255 52011 60002
AAXX 29181 40604 12960 00000 10066 20005 40247 51005 60002
AAXX 29181 40608 12960 00000 10048 20006 40253 52009 60002
AAXX 29181 40629 12960 00000 10034 21038 40261 53002 60002
AAXX 29181 40634 12960 00000 10053 21004 40253 57007 60002
AAXX 29181 40642 12960 00000 10048 21057 40257 52008 60002
AAXX 29181 40656 12960 02602 10080 20033 40234 52008 60002
AAXX 29181 40665 12960 00000 10094 20039 40256 52011 60002
AAXX 29181 40672 12960 00000 10092 20038 40260 52010 60002
AAXX 29181 40674 12960 03103 10085 20008 40149 52009 60002
AAXX 29181 40689 12960 03304 10116 20034 40240 52006 60002
AAXX 29181 40691 12960 02102 10110 20016 40252 52010 60002
AAXX 29184 61202 32970 00206 10166 21059 39616 40190 333 10196 59002
AAXX 29184 61214 NIL
AAXX 29184 61223 31920 30410 10204 21036 39878 40184 70600 80002 333 10224 58007 83075
AAXX 29184 61226 32960 23610 10230 20069 39861 40162 80002 333 10255 58003 82075
AAXX 29184 61230 31959 20412 10238 21080 39876 40151 70600 80002 333 10256 58013 82075
AAXX 29184 61233 32960 20608 10220 21047 3//// 4//// 80002 333 10250 5//// 82075
AAXX 29184 61235 31958 30614 10258 21028 3//// 4//// 70600 80002 333 10276 5//// 83075
AAXX 29184 61240 31910 73610 10235 21023 39829 40160 70622 80002 333 10275 58012 87075
AAXX 29184 61250 32960 50000 10260 20092 3//// 4//// 80002 333 10290 5//// 85075
AAXX 29184 61257 31930 60414 10272 21029 30092 40187 70611 86040 333 10289 58015 86365
AAXX 29184 61265 32965 43619 10225 21025 39846 40159 80002 333 10255 58012 84075
AAXX 29184 61270 32960 40406 10278 20040 3//// 4//// 80002 333 10320 5//// 84075
AAXX 29184 61272 32960 10404 10240 20042 39823 40155 80002 333 10284 58010 81075
AAXX 29184 61277 32960 20410 10247 21004 39827 40151 80002 333 10276 58015 82075
AAXX 29184 61285 32960 60406 10298 20002 39986 40136 85052 333 10323 58013 85365 83075
AAXX 29184 61291 32960 10808 10264 20015 39722 40136 81040 333 10288 58014 81362
AAXX 29184 61293 32960 53608 10260 20014 3//// 4//// 80002 333 10278 5//// 85075
AAXX 29184 61296 32965 60000 10272 20115 3//// 4//// 80002 333 10305 5//// 86075
AAXX 29184 61297 32960 73608 10270 20018 3//// 4//// 80002 333 10293 5//// 87075
AAXX 29181 60379 16/// /0000 10118 20118 60022 333 10126
AAXX 29181 60380 16/// /2802 10112 20101 60092 333 10146
AAXX 29181 60394 16/// /2201 10121 20103 60112 333 10148
AAXX 29181 60374 16/// /3103 10144 20103 69942 333 10155
AAXX 29181 60613 36/// /3410 10113 21018 333 10158
BBXX 46131 29181 99499 71250 46/// /1703 1//// 40153 52011 22200 00075 10200 70001 333 91204
BBXX 46131 29181 99499 71250 46/// /1703 1//// 40153 52011 22200 00075 10200 70001 333 91204
BBXX 44029 29181 99425 70706 46/30 /2709 11007 40104 56013 91804 22200 00081 10402 70008 333 91213 555 11105 22109
BBXX 44030 29181 99432 70704 46/// /2912 1//// 40084 58013 91804 22200 00077 10402 70011 333 91215 555 11151 22161
BBXX 42085 29181 99179 70665 46/// /0908 10271 40155 58026 91800 22200 00272 10702 70012 333 91210
AAXX 29181 38847 429// 02702 11028 40339 51002
AAXX 29181 10291 01782 62207 10053 21003 30015 40083 58025 69942 70286 83504 333 10067 20035 31003 55300 20000 30000 69907 83650 83076 91118 91212 96487
BBXX 42085 29181 99179 70665 46/// /0909 10272 40157 91750 333 91210
BBXX 42085 29181 99179 70665 46/// /0909 10272 40160 91740 333 91210
BBXX 46204 29181 99514 71288 46/// /1011 10053 40095 57012 22200 00080 11208 70041 333 91214
AAXX 29181 40656 12960 02602 10080 20033 40234 52008 60002
AAXX 29181 40665 12960 00000 10094 20039 40256 52011 60002
AAXX 29181 40672 12960 00000 10092 20038 40260 52010 60002
AAXX 29181 40674 12960 03103 10085 20008 40149 52009 60002
AAXX 29181 40689 12960 03304 10116 20034 40240 52006 60002
AAXX 29181 40691 12960 02102 10110 20016 40252 52010 60002
AAXX 29181 40604 12960 00000 10066 20005 40247 51005 60002
AAXX 29181 40608 12960 00000 10048 20006 40253 52009 60002
AAXX 29181 40629 12960 00000 10034 21038 40261 53002 60002
AAXX 29181 40634 12960 00000 10053 21004 40253 57007 60002
AAXX 29181 40642 12960 00000 10048 21057 40257 52008 60002
AAXX 29181 40650 12960 00000 10056 21006 40255 52011 60002
AAXX 29181 78458 31566 30906 10294 20241 40176 57029 70121 82220 333 10296 20192 31/// 56000 59001 82820
AAXX 29181 78460 32566 41206 10284 20216 40169 57017 83201 333 10285 20188 31/// 56200 59004 83825
AAXX 29181 78467 32466 40904 10270 20228 40166 57021 84200 333 10282 20185 30/// 56300 59002 84818
AAXX 29181 78479 32566 30904 10280 20218 40163 57012 82231 333 10284 20224 30/// 56200 59003 82821
AAXX 29181 78482 21566 61303 10292 20210 40189 57026 82256 333 10295 20208 30/// 56500 58006 69910 81822 83360 85280
AAXX 29181 78485 32566 41306 10294 20191 40163 57026 82201 33 10301 20205 30/// 56000 59007 82825
AAXX 29181 78486 32566 51202 10286 20224 40150 57016 82204 333 10299 20220 30/// 56000 59007 83823 83080
AAXX 29181 78488 32566 50905 10290 20218 40169 57026 84204 333 10305 20180 56200 59006 84824
BBXX 41036 29181 99342 70770 46/// ///// 10130 20024 40183 91820 22200 00177
AAXX 29181 30157 41997 81302 11269 21307 30082 40400 53009 77172 80007
AAXX 29184 82106 21197 80504 10300 20238 3//// 4//// 70362 846// 333 5//// 60101
AAXX 29184 82113 21696 71402 10300 20255 3//// 4//// 70362 85450 333 5//// 60181
AAXX 29184 82212 21698 80502 10264 20235 30048 40130 70262 887// 333 58006 60031
AAXX 29184 82336 21598 61402 10280 20240 3//// 4//// 70195 83170 333 5//// 60051
AAXX 29184 82425 32597 63602 10310 20271 3//// 4//// 84236 333 5////
AAXX 29184 82533 32497 23202 10329 20242 3//// 4//// 82200 333 5////
AAXX 29184 82704 32696 60000 10303 20244 39874 40067 86400 333 59001
AAXX 29184 82723 21197 62708 10285 20246 30047 40128 70255 86700 333 59008 69981
BBXX 9HA2479 29184 99318 31542 46/// /2022 10210 20149 30113 40142 57017 22214 04243 85171
BBXX C6FS9 29184 99364 31369 46/// /1121 10163 20136 30136 40173 57009 22233 04186 85147
BBXX VNAH 29184 99383 31416 46/// /1112 10162 20116 30169 40193 57011 22200 85135
BBXX A8TX8 29183 99053 31123 41398 82705 10280 20252 40094 58020 702// 8/7// 22234 04300 20400 30000 80260
AAXX 29184 82042 32197 60000 10317 20303 3//// 4//// 84632 333 5////
AAXX 29184 82240 21696 40000 10300 20253 3//// 4//// 70362 84900 333 5//// 60061
AAXX 29184 82317 32594 43202 10314 20253 3//// 4//// 83202 333 5////
AAXX 29184 82610 32596 50000 10297 20251 3//// 4//// 83043 333 5////
AAXX 29184 82807 32295 83602 10273 20240 3//// 4//// 887// 333 5////
BBXX 44040 29181 99410 70736 46/// /2905 11008 21115 40164 91815 22200 1//00 70001 333 91206 555 11046 22051
AAXX 29184 91650 NIL
AAXX 29184 91652 NIL
AAXX 29184 91656 NIL
AAXX 29184 91659 11699 60000 10253 2025/ 40080 55000 60001 70222 83801 333 569/9 82830 85078
AAXX 29184 91660 NIL
AAXX 29184 91669 36/// /1310 10255 20251 40087 52013 91815
AAXX 29184 91670 36/// /0400 10260 20232 40077
AAXX 29184 91676 14/// /1102 10263 20223 30017 40077 53014 60001
AAXX 29184 91680 11699 61003 10250 20243 40079 53006 60001 70322 8483/ 333 5699/ 83830 83650 85361
AAXX 29184 91682 NIL
AAXX 29184 91683 11499 70000 10241 20240 40086 53013 69901 70381 85801 333 569/9 84812 83645 86080
AAXX 29184 91691 14/// /0601 10228 20223 30087 40090 50009 60001
AAXX 29184 91693 NIL
AAXX 29184 91697 14/// /1002 10252 20212 30085 40090 50010 60001
AAXX 29184 91699 14/// /0906 10256 20216 30069 40101 53011 60001
AAXX 29181 35357 125// 22007 11070 21095 39673 40115 52020 69970 73631 82500 333 11009
AAXX 29181 35394 11498 82206 11045 21064 39454 40135 52011 60040 73673 8672/ 333 11010 86715
AAXX 29181 35497 119// 82306 11048 21068 39358 40163 52021 60050 77173 8802/ 333 11019 91015 91110
AAXX 29181 35671 11598 62407 11037 21055 39733 40166 52015 69920 73673 86500 333 10006
AAXX 29181 35746 115// 72610 11021 21053 30139 40206 52026 69900 70332 87500 333 10001 91116
AAXX 29181 35796 11597 82606 10000 21006 39786 40220 53020 60030 77177 8562/ 333 10005 91118
AAXX 29181 35849 32598 82505 11014 21054 30145 40231 52021 889// 333 10010
AAXX 29181 35953 114// 82607 11010 21039 30102 40233 52016 69900 77172 8802/ 333 10014
AAXX 29181 35969 115// 82702 11014 21040 30075 40251 52026 60040 72682 889// 333 10007
AAXX 29181 38062 115// 62402 11017 21048 30080 40246 52014 60050 70182 86900 333 10026
AAXX 29181 38069 129// 02101 11004 21022 30065 40258 52012 60060 333 10022
AAXX 29181 38222 32697 80000 11022 21061 39694 40264 58004 885// 333 10010
AAXX 29181 38341 12597 82803 10035 21039 39462 40246 52006 69900 8697/ 333 10053
AAXX 29181 38343 32697 52501 11021 21060 39402 40261 58002 83530 333 10049
AAXX 29181 21802 42999 01501 11312 21326 30128 40154 52006
AAXX 29181 24125 42998 20000 11309 21319 39892 40203 52004 80001
AAXX 29181 24136 41998 81703 11304 21334 30119 40229 52002 77171 80007
AAXX 29181 24143 41999 62007 11321 21357 30222 40277 52001 70273 83026
AAXX 29181 24266 42998 02301 11434 21461 30100 40307 52002
AAXX 29181 24329 42998 20000 11404 21432 39923 40271 52004 82010
AAXX 29181 24343 42998 41602 11356 21377 30166 40302 53001 80002
AAXX 29181 24382 41995 20000 11454 21476 30041 40340 53002 71011 80001
AAXX 29181 24639 41998 50000 11321 21343 30106 40278 52001 70271 80008
AAXX 29181 24641 42999 00601 11384 21420 30128 40293 52003
AAXX 29181 24652 42997 02003 11365 21394 30183 40325 57001
AAXX 29181 24656 42999 00501 11415 21449 30222 40341 52003
AAXX 29181 24671 42999 33402 11477 21505 39790 40393 53002 80001
AAXX 29181 24688 41996 00401 11530 21569 39375 40507 52005 71000
AAXX 29181 24724 42999 52305 11215 21240 39714 40284 51005 81031
AAXX 29181 24738 41998 82102 11212 21224 30088 40278 52008 70272 80005
AAXX 29181 24768 42997 20000 11435 21470 30064 40341 52004 80001
AAXX 29181 24923 41598 82404 11161 21187 39985 40310 52009 77172 86501 333 86630
AAXX 29181 24944 41696 80602 11270 21288 39984 40307 52006 77172 8352/
AAXX 29181 24951 42999 00000 11389 21417 30136 40331 51004
AAXX 29181 24661 41998 00000 11444 21469 30030 40347 53004 74000
AAXX 29181 24959 41994 82701 11394 21422 30181 40332 52004 71022 82031
AAXX 29181 24962 41993 00000 11460 21485 30131 40356 52004 74440
AAXX 29181 24966 42999 20000 11453 21471 30093 40354 52011 80001
AAXX 29181 24967 42999 20000 11453 21483 30109 40371 52012 80001
AAXX 29181 25206 42999 02101 11357 21386 30259 40290 52008
AAXX 29181 25400 41996 01501 11386 21407 30231 40295 53009 71000
AAXX 29181 30054 41596 80702 11220 21252 30082 40346 52011 77172 85507
AAXX 29181 30089 41999 80000 11310 21334 30074 40326 52002 70272 80007
AAXX 29181 30393 41998 80000 11316 21332 39195 40369 52006 77172 84037
AAXX 29181 30493 42999 00000 11321 21350 39191 40371 52006
AAXX 29181 31004 41997 80000 11216 21234 39409 40311 52006 77172 80007
AAXX 29181 31137 42998 80000 11387 21407 39202 40401 53015 77172 8802/
BBXX 9HA2479 29184 99318 31542 46/// /2022 10210 20149 30113 40142 57017 22214 04243 85171
BBXX C6FS9 29184 99364 31369 46/// /1121 10163 20136 30136 40173 57009 22233 04186 85147
BBXX VNAH 29184 99383 31416 46/// /1112 10162 20116 30169 40193 57011 22200 85135
BBXX A8TX8 29183 99053 31123 41398 82705 10280 20252 40094 58020 702// 8/7// 22234 04300 20400 30000 80260
BBXX WBS5272 29184 99457 70844 41/96 81318 10022 2//// 40054 57004 78522 8//// 22272 0//// 20202 3//// 4//// 5//// 6//// 8//// ICE /////
BBXX WCF3012 29184 99452 70831 41/95 81522 10000 40050 77377 22283 00060 20504
AAXX 29181 78458 31566 30906 10294 20241 40176 57029 70121 82220 333 10296 20192 31/// 56000 59001 82820
AAXX 29181 78460 32566 41206 10284 20216 40169 57017 83201 333 10285 20188 31/// 56200 59004 83825
AAXX 29181 78467 32466 40904 10270 20228 40166 57021 84200 333 10282 20185 30/// 56300 59002 84818
AAXX 29181 78479 32566 30904 10280 20218 40163 57012 82231 333 10284 20224 30/// 56200 59003 82821
AAXX 29181 78482 21566 61303 10292 20210 40189 57026 82256 333 10295 20208 30/// 56500 58006 69910 81822 83360 85280
AAXX 29181 78485 32566 41306 10294 20191 40163 57026 82201 33 10301 20205 30/// 56000 59007 82825
AAXX 29181 78486 32566 51202 10286 20224 40150 57016 82204 333 10299 20220 30/// 56000 59007 83823 83080
AAXX 29181 78488 32566 50905 10290 20218 40169 57026 84204 333 10305 20180 56200 59006 84824
AAXX 29181 78458 31566 30906 10294 20241 40176 57029 70121 82220 333 10296 20192 31/// 56000 59001 82820
AAXX 29181 78460 32566 41206 10284 20216 40169 57017 83201 333 10285 20188 31/// 56200 59004 83825
AAXX 29181 78467 32466 40904 10270 20228 40166 57021 84200 333 10282 20185 30/// 56300 59002 84818
AAXX 29181 78479 32566 30904 10280 20218 40163 57012 82231 333 10284 20224 30/// 56200 59003 82821
AAXX 29181 78482 21566 61303 10292 20210 40189 57026 82256 333 10295 20208 30/// 56500 58006 69910 81822 83360 85280
AAXX 29181 78485 32566 41306 10294 20191 40163 57026 82201 33 10301 20205 30/// 56000 59007 82825
AAXX 29181 78486 32566 51202 10286 20224 40150 57016 82204 333 10299 20220 30/// 56000 59007 83823 83080
AAXX 29181 78488 32566 50905 10290 20218 40169 57026 84204 333 10305 20180 56200 59006 84824
AAXX 29181 35357 125// 22007 11070 21095 39673 40115 52020 69970 73631 82500 333 11009
AAXX 29181 35394 11498 82206 11045 21064 39454 40135 52011 60040 73673 8672/ 333 11010 86715
AAXX 29181 35497 119// 82306 11048 21068 39358 40163 52021 60050 77173 8802/ 333 11019 91015 91110
AAXX 29181 35671 11598 62407 11037 21055 39733 40166 52015 69920 73673 86500 333 10006
AAXX 29181 35746 115// 72610 11021 21053 30139 40206 52026 69900 70332 87500 333 10001 91116
AAXX 29181 35796 11597 82606 10000 21006 39786 40220 53020 60030 77177 8562/ 333 10005 91118
AAXX 29181 35849 32598 82505 11014 21054 30145 40231 52021 889// 333 10010
AAXX 29181 35953 114// 82607 11010 21039 30102 40233 52016 69900 77172 8802/ 333 10014
AAXX 29181 35969 115// 82702 11014 21040 30075 40251 52026 60040 72682 889// 333 10007
AAXX 29181 38062 115// 62402 11017 21048 30080 40246 52014 60050 70182 86900 333 10026
AAXX 29181 38069 129// 02101 11004 21022 30065 40258 52012 60060 333 10022
AAXX 29181 38222 32697 80000 11022 21061 39694 40264 58004 885// 333 10010
AAXX 29181 38341 12597 82803 10035 21039 39462 40246 52006 69900 8697/ 333 10053
AAXX 29181 38343 32697 52501 11021 21060 39402 40261 58002 83530 333 10049
BBXX 46088 29181 99483 71232 46/// /2302 10071 40169 91820 22200 00077 10801 20301 327// 40801 70005 333 91203 555 11023 22023 31731 41906 61819 227022 216021 194025 189029 181042 195043
BBXX 46088 29181 99483 71232 46/// /2302 10071 40169 91820 22200 00077 10801 20301 327// 40801 70005 333 91203 555 11023 22023 31731 41906 61819 227022 216021 194025 189029 181042 195043
BBXX 46087 29181 99485 71247 46/// /1305 10081 20069 40163 91820 22200 00081 333 91207 555 11052 22055 31806 40909 61819 126047 090054 090042 096045 098045 102041
BBXX WDE8288 29184 99116 10658 41/// /0213 10260 2019/ 40112 54000 70000 8//// 22274 0//// 20402 335// 40603 5//// 6//// 80210 ICE /////
BBXX IDDUK02 29184 99522 50490 46/// ///// 40001 222//
AAXX 29184 60686 12960 00114 10150 21038 40212 57002 60002 333 10194
BBXX PHOB 29184 99062 10922 41/97 80516 10270 20257 40116 50004 70222 8//// 22263 00280 20302 330// 40302 5//// 80260
BBXX DFZB2 29183 99232 11708 41/98 /0609 10222 20188 40209 50009 7//00 8//// 22264 04250 21006 320// 41206 5//// 80199
BBXX 3FMH7 29184 99326 11784 41598 83124 00/// 10190 20142 40188 53015 70322 87/// 9//// 22263 00200 1//// 20504 399// 41208 5//// 6//// 80160
BBXX SHIP 29184 99136 11137 41498 60417 10260 20240 40141 57007 70222 8542/ 22252 00268 80245
BBXX SHIP 29184 99229 11479 41898 60318 10215 20161 40164 57006 70300 8526/ 22282 00277 80180
BBXX H9UY 29184 99302 11526 41498 73126 00/// 10190 40138 5610 70322 8789/ 9//// 22273 04220 20706 332// 40706 5//// 6//// 80160
BBXX SHIP 29184 99142 11142 41498 10517 1025 20222 40133 58003 70002 811// 22214 00266 1//// 2//// 3//// 4//// 80230
BBXX SHIP 29184 99368 11723 41/96 42728 10130 20113 40153 56001 70102 8//// 91750 22224 00180 2//// 3//// 4//// 5//// 80120
BBXX SHIP 29184 99065 11484 41/97 20616 10282 20220 40080 57011 70200 8//// 22252 06292 10903 399// 4////
BBXX DGXS 29184 99531 11791 41598 82322 11020 21051 40142 53004 72277 8651/ 22224 00050 20401 3//// 4//// 5//// 82030
BBXX UFLC 29180 99475 11454 41/96 90812 10010 40219 54000 77077 89/// 22212 06030 20402 30900 40704
AAXX 29184 60593 36/// /0405 10124 333 10154
AAXX 29184 60376 16/// /2001 10128 20128 60052 333 10151
BBXX WCF3012 29184 99452 70831 41/95 81522 10000 40050 77377 22283 00060 20504
BBXX WDF7020 29184 99467 70860 41/97 81420 1//// 2//// 40020 57/// 70202 88/2/ 22263 0//// 20302 3//// 4//// 5//// 6//// 8//// ICE /////
BBXX 46204 29181 99514 71288 46/// /1011 10053 40095 57012 22200 00080 11208 70041 333 91214
BBXX 42085 29181 99179 70665 46/// /0909 10272 40157 91750 333 91210
BBXX 42085 29181 99179 70665 46/// /0909 10272 40160 91740 333 91210
BBXX 42085 29181 99179 70665 46/// /0908 10271 40155 58026 91800 22200 00272 10702 70012 333 91210
BBXX 44029 29181 99425 70706 46/30 /2709 11007 40104 56013 91804 22200 00081 10402 70008 333 91213 555 11105 22109
BBXX 44030 29181 99432 70704 46/// /2912 1//// 40084 58013 91804 22200 00077 10402 70011 333 91215 555 11151 22161
BBXX 46131 29181 99499 71250 46/// /1703 1//// 40153 52011 22200 00075 10200 70001 333 91204
BBXX 46183 29181 99536 71311 46/// /3501 10046 40073 52007 22200 00075 11002 70010 333 91205
BBXX KIYI 29184 99539 71359 41498 71304 10024 2108/ 40030 51010 7//22 876// 22234 0//// 20101 324// 40905 5//// 6//// 81010 ICE /////
BBXX 9HA2583 29184 99183 70649 41598 20915 1//// 2//// 40160 53/// 7//11 82111 22200 0//// 2//// 3//// 4//// 5//// 6//// 8//// ICE /////
BBXX A8SG3 29184 99290 70430 41598 30709 10230 20161 40275 54000 70100 82111 22214 04230 20701 331// 41508 80185
BBXX 46147 29181 99518 71312 46/// /1609 10054 40066 57015 22200 00079 11210 70049 333 91212
BBXX 44034 29181 99441 70681 46/30 /2813 11018 40040 55000 91804 22200 00078 11106 70032 333 91218 555 11167 22175
BBXX 44098 29181 99428 70702 46/// ///// 1//// 91807 22200 00084 10604 20603 312// 41301 70018
BBXX 44060 29181 99413 70721 46/// ///06 11011 40144 91815 22200 00091 333 91208 555 11062 22062
BBXX 44033 29181 99441 70690 46/30 /2811 11026 40056 57004 91804 22200 00067 10301 70006 333 91213 555 11136 22143
BBXX 41029 29181 99328 70796 46/// /2406 1//// 91800 555 11067 22069
BBXX 44022 29181 99409 70737 46/// ///04 11005 21120 40159 91815 22200 00084 333 91206 555 11041 22041
BBXX 44097 29181 99410 70711 46/// ///// 1//// 91802 22200 00113 11104 20904 321// 41101 70020
BBXX 46114 29181 99364 71222 46/// ///// 1//// 91804 22200 00123 11405 21003 330// 41404 70025
BBXX 46221 29181 99339 71186 46/// ///// 1//// 91745 22200 00149 11302 21002 328// 41301 70010
BBXX 42363 29181 99282 70892 46/// /3303 10211 20111 40193 91815 333 91203
BBXX 42364 29181 99291 70881 46/// /0903 10211 20139 40186 91815
BBXX 42362 29181 99278 70907 46/// /2501 10206 20089 40190 91815
BBXX 41114 29181 99276 70802 46/// ///// 1//// 91816 22200 00236 11402 20701 306// 41401 70008
BBXX 46231 29181 99327 71174 46/// ///// 1//// 91754 22200 00145 11302 20901 328// 41302 70010
BBXX 46211 29181 99469 71242 46/// ///// 1//// 91806 22200 00085 11308 20905 326// 41305 70038
BBXX 46222 29181 99336 71183 46/// ///// 1//// 91756 22200 00148 11202 21001 327// 41202 70011
BBXX 46242 29181 99332 71174 46/// ///// 1//// 91758 22200 00142 11201 21001 325// 41201 70006
BBXX 46223 29181 99335 71178 46/// ///// 1//// 91800 22200 00145 11302 21001 327// 41301 70008
BBXX 46216 29181 99343 71198 46/// ///// 1//// 91757 22200 00138 11202 20902 327// 41201 70011
BBXX 46212 29181 99408 71243 46/// ///// 1//// 91812 22200 00104 11106 21004 330// 41104 70028
BBXX 46241 29181 99330 71173 46/// ///// 1//// 91741 22200 00142 11302 21001 327// 41301 70010
BBXX 41115 29181 99184 70673 46/// ///// 1//// 91805 22200 11504 21002 301// 41504 70021
BBXX 42099 29181 99273 70842 46/// ///// 1//// 91757 22200 00240 10301 20301 70005
BBXX 46248 29181 99461 71247 46/// ///// 1//// 91804 22200 00096 11308 20906 327// 41306 70042
BBXX 46244 29181 99409 71244 46/// ///// 1//// 91805 22200 00102 11306 20904 329// 41305 70031
BBXX 46249 29181 99338 71197 46/// ///// 1//// 91810 22200 00147 11302 20802 326// 41302 70011
BBXX 46247 29181 99378 71228 46/// ///// 1//// 91751 22200 00114 11304 21003 328// 41303 70021
BBXX WRYD 29184 99171 70565 43997 03622 10240 2013/ 40180 51010 7//// 80/// 22214 00240 20804 33636 40804 50604 6/00/ 80170 ICE /////
BBXX 46207 29181 99509 71299 46/// /1409 10057 40078 57020 22200 00081 11308 70042 333 91213
BBXX LAJK7 29184 99300 70379 41799 41110 10230 20201 40310 57010 70111 82181 22263 00240 20608 330// 40404 5//// 6//// 81210
BBXX A8MW6 29184 99271 70452 41498 30809 10240 20211 40270 54000 70300 83100 22254 299// 328// 40409 5//// 80220
BBXX 46111 29181 99481 71227 46/// /1106 10076 40167 50007 91800 22200 00051
BBXX NWS0021 29184 99322 70645 43/// /2813 10209 20124 40183 5//// 7//// 8//// 222// 04216 2//// 3//// 4//// 5//// 6//// 8//// ICE /////
BBXX 44067 29181 99384 70770 46/// /2302 10053 40169 56023 91800
BBXX FLAO 2918/ 99764 70847 46/// ///// 11313 40179 52001
BBXX ZCBF3 29183 99428 70291 41997 81830 10150 20141 40315 51010 70322 88010 22224 20602 316// 41106 5//// 80145
BBXX A8CC4 29184 99507 70232 41/93 92326 10135 20118 40278 55008 74944 8//// 22224 04110 20403 321// 40905 80125
BBXX 2AUO5 29183 99606 10016 41597 43530 10051 20026 49942 53021 70266 848// 22271 20704 334// 41010 80041
BBXX 62107 29184 99501 70061 46/// /2935 10109 20076 40279 57008 22200 00114 10807 70036 333 90710 91150
BBXX 62103 29184 99499 70029 46/97 /2839 10113 20075 40232 57016 22200 00117 10808 70040 333 90710 91150
BBXX 62170 29184 99514 10020 46/96 /2538 10096 20069 40132 57031 22200 00106 10603 70015 333 90710 91152
BBXX PHBO 29183 99398 70308 41998 21813 10185 20156 40324 53006 70111 80008 22214 20402 80168
BBXX 62095 29184 99530 70159 46/// /2515 10111 20095 40256 58005 22200 00111 10909 70047
BBXX 62304 29184 99511 10018 46/97 /2537 10094 20065 40143 57031 22200 00108 10603 70016 333 90710 91152
BBXX PBHZ 29183 99537 70155 41/96 93018 10110 20101 40244 58011 70382 89/// 22213 29904 33136 40807 50806 80105
BBXX 63119 29184 99583 10009 41598 23222 10052 21013 49959 54000 70200 822// 22200 20404 332// 40806 5////
BBXX 62304 29184 99511 10018 46/97 /2537 10084 20055 40143 57031 22200 00108 10603 70016 333 90710 91152
BBXX 62305 29184 99504 10000 46/97 /2636 10104 20077 40199 56018 22200 00115 10806 70029 333 90710 91147
BBXX 62094 29184 99517 70067 46/// /2623 10109 20078 40228 50003 22200 00106 10607 70034 333 90710 91131
BBXX ZQTP2 29184 99356 10164 41598 71311 10147 20095 40175 58010 70381 85450 22263 04170 2//// 30000 4//// 5//// 80120
BBXX 64045 29184 99591 70117 46/// /3026 10061 20011 40104 52067 22200 00099 11016 70080 333 90710 91145
BBXX 62133 29184 99571 10009 46/// /3030 10059 20006 49975 55003 22200
BBXX 62164 29184 99572 10008 47497 /3026 10067 20027 49980 53001 700// 22200 00091 10709 70046
BBXX PJGO 29184 99571 10022 47/98 /2824 10058 20018 49969 55006 700// 22200
BBXX 62103 29184 99499 70029 46/98 /2738 10112 20070 40244 56009 22200 00117 10907 70037 333 90710 91155
BBXX 62140 29184 99573 10013 46/// /30// 10056 20013 49959 57010 22200
BBXX 62122 29184 99573 10016 47498 /2921 10053 20021 49961 56017 700// 22200 10809 70043
BBXX 62153 29184 99573 10020 47498 /3214 10053 20020 49965 56011 700// 22200 10809 70044
BBXX 62146 29184 99572 10021 47/98 /3009 10051 20021 49968 56012 700// 22200 10808 70042
BBXX 62118 29184 99577 10009 46397 /3120 10043 20019 49963 57004 22200 10808 70042
BBXX 62104 29184 99574 10013 47498 /2927 10065 20021 49959 57010 700// 22200
BBXX 62116 29184 99576 10011 47497 /3216 10054 20018 49962 57010 700// 22200 10809 70044
BBXX 62143 29184 99577 10018 47498 /3112 10043 20018 49967 56012 700// 22200 10709 70043
BBXX 62117 29184 99579 10000 47496 /3021 10055 20014 49976 53010 762// 22200 10706 70029
BBXX 62155 29184 99577 10007 47498 /3125 10042 20017 49971 56004 751// 22200 10808 70039
BBXX 62134 29184 99580 10014 47799 /3112 10042 20003 49965 55004 700// 22200 10808 70041
BBXX 62102 29184 99579 10018 46/// /3013 10057 20012 49962 55007 22200 10808 70041
BBXX 62119 29184 99570 10019 47497 /3128 10056 20013 49976 55009 761// 22200 10809 70044
BBXX 62114 29184 99583 10000 46/// /3015 10052 20018 49973 53009 22200
BBXX 62152 29184 99570 10018 47/98 /3122 10053 20011 49976 55008 700// 22200 10709 70044
BBXX 62120 29184 99564 10021 47598 /3133 10056 20055 49977 55008 700// 22200
BBXX 62154 29184 99564 10022 46/// /3128 10057 20018 49969 55014 22200
BBXX 62165 29184 99540 10009 47998 /2829 10069 21003 40080 53009 700// 22200 10608 70038
BBXX 62132 29184 99564 10020 46/// /3234 10057 20012 40007 52021 22200
BBXX ZMFR 29184 99413 31748 43/// /0205 10173 20161 40103 52011 22200 00180
BBXX V2QD4 29183 99342 31706 41/97 80515 10200 20185 49934 56015 71011 22263 00220 20401 305// 41002
BBXX ZCAO7 29184 99045 31256 41/98 82812 10275 20239 40078 56010 70311 8//// 22243 00298 2//// 80250
BBXX SHIP 29184 99440 31100 41497 82129 10090 20012 40068 52022 70322 8671/ 22243 00116 10423 85055
BBXX VQNW6 29184 99033 10824 41/98 /2709 10265 20228 40114 50015 702// 8//// 22233 2//// 3//// 4//// 5//// 80240
BBXX PFBF 29184 99165 51788 41498 12315 10290 20283 40085 51012 70100 81145 22223 02280 20406 309// 40408 5//// 80285
BBXX SHIP 29184 99080 71430 41496 81015 10244 20225 40126 52029 76361 87620 22233 04262 20403 30802 40704 50803
BBXX PCBZ 29184 99095 70913 41998 72310 10255 20245 40130 54000 70322 86033 22223 00225 20502 33105 40703 50402 80248 90927
BBXX 62123 29184 99563 10022 47598 /3130 10057 20011 49973 55012 700// 22200
BBXX 62127 29184 99540 10007 47998 ///// 10067 21008 40065 55001 700// 22200 10607 70033
BBXX 62131 29184 99539 10012 46/// /31// 10070 20008 40060 55009 22200
BBXX 62149 29184 99537 10011 47998 /2830 10073 20020 40071 55009 751// 22200 10606 70028
BBXX 62142 29184 99530 10021 47597 /2828 10074 20041 40078 56018 700// 22200 10505 70023
BBXX 62148 29184 99536 10015 46/// /2733 10073 20012 40080 56006 22200
BBXX 62150 29184 99536 10007 47998 /2827 10068 20013 40097 53004 700// 22200 10606 70030
BBXX 64041 29184 99607 70026 47597 /3514 10041 21001 49990 52022 700// 22200 10908 70038
BBXX 62121 29184 99535 10027 46/// ///// 22200
BBXX 62145 29184 99531 10028 47597 /2731 10072 20021 40083 55010 700// 22200 10607 70033
BBXX 62144 29184 99534 10017 47997 /2731 10073 20019 40093 55004 700// 22200 10606 70031
BBXX MWYG6 29184 99603 70040 47998 /3510 10046 700// 22200
BBXX 63104 29184 99612 10016 47497 /3625 10045 20009 49934 53026 762// 22200
BBXX 63115 29184 99616 10013 47798 /3422 10044 20003 49949 52030 700// 22200 10809 70043
BBXX 63103 29184 99612 10011 46/// /0128 10055 21006 49939 52026 22200 10808 70040
BBXX 63117 29184 99613 10011 47898 /0127 10089 20024 49941 52027 700// 22200
BBXX ZQSD5 29184 99583 10007 46/// /3215 10056 20005 49970 53003 22200 10909 70043
BBXX 63101 29184 99612 10009 46/// /0127 10047 21004 49943 52029 22200
BBXX 63105 29184 99610 10017 47598 ///// 10046 21000 49931 52027 751// 22200
BBXX 63055 29184 99606 10016 47798 /3318 10045 20012 49927 53016 700// 22200 10808 70039
BBXX 63107 29184 99611 10017 46/// /3629 10048 49928 52025 22200
BBXX 63112 29184 99611 10010 46/// /0126 10038 20006 49937 53026 22200 10709 70043
BBXX 63106 29184 99610 10017 46/// /3622 10047 49929 52025 22200
BBXX 63113 29184 99610 10017 46/// /3526 10042 20004 49930 52025 22200 10807 70037
BBXX 63108 29184 99608 10017 47598 /3625 10045 20004 49919 53017 700// 22200 10907 70037
BBXX 62113 29184 99584 10002 47598 /3414 10059 20003 49970 53004 700// 22200
BBXX 62129 29184 99584 10003 46/// ///// 10054 20009 49968 53003 22200
BBXX 63110 29184 99595 10015 47598 /3124 10072 20016 49938 53002 700// 22200 10709 70043
BBXX 62128 29184 99587 10014 47998 /3122 10047 21037 49967 53003 700// 22200 10808 70042
BBXX 63056 29184 99597 10016 47998 /3022 10049 20004 49925 53006 700// 22200 10808 70042
BBXX 63057 29184 99592 10015 47998 /2926 10055 21008 49945 53003 700// 22200 10808 70041
BBXX 62111 29184 99580 70003 46/// /3227 10049 20019 49990 53013 22200 10707 70035
BBXX A8RL2 29183 99407 70218 41/98 61812 10160 20151 40400 54000 70322 8457/ 22214 04171 21004 336// 41604 80155
BBXX 62112 29184 99584 70002 47898 /3110 10050 20019 49978 52012 700// 22200
BBXX 62303 29184 99516 70051 46/// /2729 10107 20080 40218 58002 22200 00111 10708 70038 333 90710 91141
BBXX PJAI 29184 99581 70014 47498 /3126 10057 20021 49986 52015 700// 22200
BBXX 62301 29184 99524 70047 46/// /3121 10093 20063 40192 51010 22200 00090 10606 70031 333 90710 91136
BBXX 62105 29184 99554 70121 46/// /3022 10092 20037 40198 52013 22200 00106 10912 70062 333 90710 91136
BBXX 62001 29184 99452 70050 46/// /3012 10109 20067 40372 55001 22200 00138 10909 70045
BBXX 64046 29184 99605 70049 46/// /3610 10047 21002 40012 53029 22200 00080 10807 70037
BBXX 62442 29184 99490 70164 46/// /2220 1//// 2//// 40336 57015 22200 00122 333 90710 91131
BBXX 62163 29184 99475 70084 46/// /2820 10104 20054 40358 57009 22200 00124 10808 70041 333 90710 91127
BBXX 64045 29184 99591 70117 46/// /3026 10061 20011 40104 52027 22200 00099 11016 70080 333 90710 91145
BBXX 62081 29184 99510 70134 46/// ///// 10112 20094 40300 56008 22200 00119 10810 70051
BBXX 62027 29184 99491 70022 46/// /2825 1//// 2//// 40269 56011 22200 00107 10907 329// 70035 333 90710 91134
BBXX 62029 29184 99487 70125 46/// /2620 10118 20081 40348 56011 22200 00127 10809 70045 333 90710 91127
BBXX LF5T 29184 99660 10081 41696 /0120 10017 21007 49874 52030 780// 22200 06082 333 91134
BBXX LF3F 29184 99643 10078 43/// /0116 10045 21015 49877 52027 22200 04084 10806 70032 333 91126
BBXX LF4C 29184 99584 10019 41597 73118 10060 21015 49959 54000 70282 89/// 22200 00071 10809 70043 333 91129
BBXX 3ERR2 29184 99635 10053 41598 80120 10053 21005 49901 52029 70282 82210 22200 06096 10808 70038 333 91131
BBXX LF4B 29184 99606 10037 47/98 /3525 10054 49898 52022 723// 22200 00058 10809 70044 333 91138
BBXX LF3N 29184 99653 10073 41597 60121 10034 21020 49877 52018 72682 868// 22200 00090 10708 70042
BBXX UCJL 29181 99656 10067 41698 60112 10050 49890 52025 70222 865// 22253 00050 20704
BBXX DGZT2 29183 99362 70039 41/98 /3108 10145 20072 40290 53015 70200 8//// 22264 04160 2//// 80106
AAXX 29184 40250 NIL
AAXX 29184 40265 NIL
AAXX 29184 40296 32960 00000 10125 20068 40191 57007 333 10204
AAXX 29184 40310 NIL
AAXX 29184 42309 31995 20000 10124 20109 40161 70500 82030 333 59018
AAXX 29184 42314 31595 40000 10140 20114 40180 70500 82530 333 58015 82620 84360
AAXX 29184 42410 31595 30000 10152 20144 40161 70500 82530 333 59006 82620
AAXX 29184 42415 31996 00000 10148 20137 40181 70500 333 59007
AAXX 29184 42623 31495 50000 10098 20086 39287 40190 70511 84530 333 58001 84618
AAXX 29184 42809 31795 20000 10200 20149 40156 70511 82030 333 58000 82360
AAXX 29184 42398 NIL
AAXX 29184 42492 NIL
AAXX 29184 42587 NIL
AAXX 29184 42591 NIL
AAXX 29184 42701 NIL
AAXX 29184 42706 NIL
AAXX 29184 42724 NIL
AAXX 29184 42798 NIL
AAXX 29184 42886 NIL
AAXX 29184 42895 NIL
AAXX 29184 42971 NIL
AAXX 29184 42977 NIL
AAXX 29184 43333 NIL
AAXX 29184 43368 NIL
AAXX 29184 94996 47237 83012 10206 20197 39892 40027 53014 7//44 91830
AAXX 29184 94996 47237 83012 10206 20197 39892 40027 53014 7//44 91830
BBXX 46185 29181 99524 71298 46/// /1807 10057 40086 52002 22200 00070 11305 70025 333 91209
BBXX 46185 29181 99524 71298 46/// /1807 10057 40086 52002 22200 00070 11305 70025 333 91209
AAXX 29184 89050 41295 80412 10012 20006 49829 54000 71022 8762/
AAXX 29184 89512 31396 81330 11023 21048 39674 49822 57015 77172 8802/ 333 11014
AAXX 29184 89574 42998 10709 11014 21070 49703 57001 80001
AAXX 29184 89592 42398 80000 11021 21036 49783 52027 886//
AAXX 29184 89606 41996 81110 11291 21341 36337 47711 57006 77672 80007 333 11240
AAXX 29181 55299 32980 00000 11152 21296 35861 52011 333 00001 10033
AAXX 29181 55591 32980 01102 11042 21174 36514 52011 333 05251 10092
AAXX 29181 56739 32980 00401 10061 20044 38382 52007 333 00054 10184
AAXX 29181 56951 32970 03401 10079 20048 38540 52010 333 00155 10222
AAXX 29181 56964 32565 50000 10123 20110 38739 40178 52004 85200 333 05151 10216
AAXX 29181 57328 31930 80401 10072 20043 39880 40301 52002 71000 8807/ 333 10088
AAXX 29181 57411 31920 81401 10078 20059 39919 40299 52003 71000 8807/ 333 10106
AAXX 29181 57447 31915 80000 10052 20046 39762 40324 52002 71000 8807/ 333 10062
AAXX 29181 57662 11861 80701 10069 21008 30286 40331 52005 69901 70060 885// 333 10085
AAXX 29181 57745 32960 80703 10066 21036 39984 40321 52004 8807/ 333 10079
AAXX 29181 57972 11450 83401 10055 20049 30079 40313 52005 69981 76066 8772/ 333 10083
AAXX 29181 58203 32660 80702 10032 21027 30313 40356 52005 885// 333 10062
AAXX 29181 58314 11956 83401 10043 20039 30229 40340 52005 69911 71060 8807/ 333 10056
AAXX 29181 58424 31940 80403 10063 20024 30297 40323 52006 71000 8807/ 333 10072
AAXX 29181 59023 32760 82701 10100 20078 39960 40279 52006 885// 333 10104
AAXX 29181 59417 11450 81101 10126 20107 30091 40248 52007 69921 76066 887// 333 10147
AAXX 29181 59985 11568 70405 10232 20228 30155 40160 57006 60021 78080 872// 333 10260
AAXX 29181 59995 NIL
AAXX 29181 47008 42970 00000 11084 21174 30263 40320 52001
AAXX 29181 47014 42950 00000 11250 21261 39939 40393 54000
AAXX 29181 47016 42970 00000 11238 21270 39472 40394 52049
AAXX 29181 47020 42965 00000 11192 21204 39973 40391 54000
AAXX 29181 47025 42960 00000 11082 21185 30279 40310 52006
AAXX 29181 47035 42970 00503 11096 21175 30334 40343 57002
AAXX 29181 47041 42970 03601 11092 21117 30285 40314 52011
AAXX 29181 47055 42965 00000 11063 21099 30270 40318 52004
AAXX 29181 47058 41903 40000 11139 21152 30284 40335 53005 74844 80002
AAXX 29181 47069 42965 00000 11074 21139 30210 40316 52004
AAXX 29181 47090 32668 22903 11029 21083 30282 40305 52006 82500 333 92032
AAXX 29181 47095 31915 00501 11120 21134 30121 40326 52010 71000
AAXX 29181 47097 329// /2701 11085 21107 30213 40316 52011
AAXX 29181 47098 329// /0201 11091 21104 30170 40314 52009
AAXX 29181 47099 329// /3401 11087 21112 30279 40318 52008
AAXX 29181 47100 32460 20000 11126 21143 39355 40341 52022 82500
AAXX 29181 47102 32968 03207 11032 21086 30139 40326 52007
AAXX 29181 47104 32668 22302 11036 21057 30201 40303 52006 82500
AAXX 29181 47106 329// /2303 11001 21034 30247 40298 52004
AAXX 29181 47112 31930 03605 11056 21096 30227 40316 52008 70500 333 92012
AAXX 29181 47114 31930 00701 11080 21110 30120 40315 52011 71000
AAXX 29181 47119 31940 00001 11083 21093 30269 40314 52010 71000
AAXX 29181 47121 329// /2501 11084 21098 30006 40320 52012
AAXX 29181 47127 329// /0902 11079 21101 30166 40317 52011
AAXX 29181 47129 31958 00501 11071 21084 30281 40319 53006 71000
AAXX 29181 47130 32663 60000 11025 21034 30233 40298 52007 86500 333 92030
AAXX 29181 47131 32962 00000 11061 21088 30239 40314 52010
AAXX 29181 47135 329// /3204 11061 21099 39996 40312 53006
AAXX 29181 47136 31950 21401 11068 21095 30124 40307 52010 71000 80001
AAXX 29181 47137 329// /0001 11050 21107 30180 40305 53007
AAXX 29181 47140 32962 00000 11061 21086 30283 40313 53006 333 92011
AAXX 29181 47143 32961 00201 11025 21100 30222 40305 53006
AAXX 29181 47145 32963 00001 11080 21096 30280 40308 53008
AAXX 29181 47146 32961 01401 11057 21076 30243 40313 52009
AAXX 29181 47150 32963 00203 11059 21089 30292 40312 53007
AAXX 29181 47152 32663 50001 10007 21090 30240 40284 52006 85500
AAXX 29181 47154 329// /3601 11059 21089 30241 40305 53005
AAXX 29181 47155 32961 20905 10013 21093 30236 40283 52006 80001
AAXX 29181 47156 32963 00204 11038 21065 30218 40312 53009
AAXX 29181 47157 31956 02902 11073 21086 30010 40297 52008 71000
AAXX 29181 47162 32960 00704 11004 21070 30238 40280 52006 333 92022
AAXX 29181 47169 32665 63615 10035 21028 30206 40302 52005 85500 333 92055
AAXX 29181 47170 32968 03407 10001 21069 30253 40298 52005 333 92023
AAXX 29181 47171 329// /0001 11063 21085 30257 40315 52009
AAXX 29181 47172 329// /1401 11057 21078 30238 40309 52010
AAXX 29181 47173 329// /0001 11087 21103 30194 40313 52010
AAXX 29181 47174 32962 02907 11032 21079 30087 40299 52006
AAXX 29181 47175 32967 03413 11034 21058 39701 40299 53003 333 92024
AAXX 29181 47185 32670 53225 10058 21011 30192 40285 51005 85500 333 92036
AAXX 29181 47188 32670 22704 10029 21024 30261 40283 52007 81500 333 92022
AAXX 29181 47189 32668 23604 10053 20019 30206 40267 52006 82500 333 92022
AAXX 29181 47192 31958 00001 11063 21087 30254 40294 52007 71000
AAXX 29181 24790 42999 00000 11508 21524 39462 40454 53009
AAXX 29181 24988 42999 00301 11363 21397 39983 40272 52013
AAXX 29181 25378 32998 03206 11184 21274 30135 40170 52007 333 21193 48004 91112
AAXX 29181 25503 42699 51302 11455 21476 30194 40346 52006 82501
AAXX 29181 25705 41996 00000 11462 21485 39970 40366 52008 77670
AAXX 29181 25927 41696 80407 11167 21179 30232 40239 52005 77373 885// 333 91112
AAXX 29181 25932 42999 03101 11210 21235 30195 40237 52007
AAXX 29181 31152 42997 00000 11464 21492 39885 40367 52005
AAXX 29181 31174 41999 32705 11153 21170 30243 40255 52004 70230 80002
AAXX 29181 31489 41997 72001 11213 21232 30137 40264 52006 77171 80007
AAXX 29181 31866 41998 80206 11009 21066 30166 40171 53013 70272 8802/ 333 91016 91120
AAXX 29181 31959 41498 62711 11120 21192 30125 40170 53007 70282 82902 333 91018 91121
AAXX 29181 31989 42999 00605 11076 21198 30157 40213 55001 333 91013 91114
AAXX 29181 32027 NIL
AAXX 29181 32076 42598 53001 11101 21107 30224 40234 54000 85900 333 91001 91102
AAXX 29181 32099 42598 20704 11030 21047 30017 40225 54000 82500 333 91006 91107
AAXX 29181 32121 41497 80706 11017 21041 30169 40192 53003 78583 889// 333 91010 91112
AAXX 29181 32213 42598 43207 11045 21088 30142 40207 52006 84500
AAXX 29181 32287 41397 81403 11160 21179 30203 40213 53002 78582 8695/ 333 84707
AAXX 29181 32408 41999 10202 11245 21270 30170 40213 52006 70241 80001
AAXX 29181 32509 42698 23206 11060 21145 30148 40183 54000 82500
AAXX 29181 32594 42998 20403 11095 21130 30180 40218 52016 80002
AAXX 29181 47003 42980 03211 11086 21219 30305 40309 52003
AAXX 29181 47005 42980 00000 11280 21298 38659 52006
AAXX 29181 47022 42975 00000 11215 21247 38898 52001
AAXX 29181 47028 42962 03601 11101 21164 30247 40348 58002
AAXX 29181 47031 42970 00000 11222 21233 39002 52008
AAXX 29181 47037 42970 03206 11107 21170 30201 40333 52004
AAXX 29181 47039 42960 00000 11136 21163 30145 40352 52004
AAXX 29181 47046 42969 00000 11089 21118 30282 40306 52011
AAXX 29181 47050 42965 00000 11099 21178 30289 40325 52003
AAXX 29181 47052 42965 00000 11166 21185 39974 40345 52010
AAXX 29181 47060 42960 00204 11095 21178 30255 40318 52002
AAXX 29181 47061 42980 03201 11031 21066 30263 40309 57005
AAXX 29181 47065 42970 00000 11122 21142 30255 40323 52004
AAXX 29181 47067 42965 00000 11111 21135 30212 40342 52005
AAXX 29181 47068 42970 03601 11095 21130 30278 40315 52003
AAXX 29181 47070 41960 00000 11083 21093 30227 40320 52009 71000
AAXX 29181 47075 42980 00000 11141 21154 39799 40261 52007
AAXX 29181 47101 31915 00000 11083 21095 30218 40321 52010 71000
AAXX 29181 47105 369// /2705 11015 21050 30270 40304 52007
AAXX 29181 47108 31940 02902 11055 21088 30201 40313 52008 71000
AAXX 29181 47115 32668 50712 11009 21079 30009 40291 53002 85500 333 92044
AAXX 29181 47133 32962 03202 11060 21090 30225 40315 53007
AAXX 29181 47138 32562 72003 10015 21078 30287 40290 52006 87500 333 92033
AAXX 29181 47159 32962 03204 10016 21108 30189 40277 52007 333 92022
AAXX 29181 47165 32968 00504 11024 21064 30256 40305 52005 333 92022
AAXX 29181 47168 32968 03410 11001 21073 30201 40284 52009 333 92023
AAXX 29181 47184 32670 53207 10046 21027 30272 40298 53003 85500 333 92023
AAXX 29184 89132 NIL
AAXX 29184 89542 46/// /3002 11045 20006 49895 57017
AAXX 29184 89575 NIL
AAXX 29184 89657 NIL
AAXX 29184 40255 32960 00000 10104 20010 39485 40215 53004 333 10162
AAXX 29184 40260 NIL
AAXX 29184 40270 31956 01904 10097 21021 39293 40210 54002 70500 333 10145
AAXX 29184 40272 32960 00812 10090 21009 39360 40213 52011 333 10165
AAXX 29184 40290 NIL
AAXX 29184 40340 32960 00000 10128 20018 40179 52018 333 10205
AAXX 29184 08171 11410 83301 10042 20022 30057 40306 53005 60002 71022 886// 333 10098
AAXX 29184 40250 NIL
AAXX 29184 40265 NIL
AAXX 29184 40296 32960 00000 10125 20068 40191 57007 333 10204
AAXX 29184 40310 NIL
BBXX NIL
BBXX NIL
BBXX NIL
BBXX NIL
BBXX NIL
AAXX 29184 06610 32675 72006 10023 21025 39699 40302 53000 8387/ 333 10058 31/// 55300 20000 82834 83647 85363 90766 93100 91115 91207
AAXX 29184 06670 32680 82409 10029 21029 39751 40277 57006 885// 333 10047 31/// 55300 20000 82643 87656 90766 93100 91117 91210
AAXX 29184 06700 31684 72103 10030 21021 39799 40308 55001 71511 878// 333 10073 31/// 55300 20000 82835 86650 90766 93100 91115 91207
AAXX 29184 06680 01/01 92527 11118 21118 37494 47014 57001 60102 77374 333 11078 47314 55300 20000 69915 90766 93110 91149 91228
AAXX 29184 06990 31450 61603 10026 21041 39716 40279 50000 71022 866// 333 10050 42/// 55300 20000 86719 91118 91207
AAXX 29184 06760 32965 03306 10075 21125 39772 40224 52017 333 10088 30/// 55300 20000 90766 93100 91114 91208
AAXX 29184 06720 32970 02804 10019 21035 39706 40301 52010 333 10053 43003 55300 20000 90766 93100 91122 91215
AAXX 29184 62309 32560 30803 10158 20105 40190 52003 83200 333 10194
AAXX 29184 62325 32960 00000 10147 20095 40198 57003 333 10198
AAXX 29184 62332 32560 30507 10161 20109 40196 52002 83100 333 10195
AAXX 29184 62387 32960 03402 10134 20074 40183 52012 333 10202
AAXX 29184 62459 32960 43210 10182 20110 40178 52013 84040 333 10202
AAXX 29184 62452 32960 00403 10082 21004 40213 52007 333 10164
AAXX 29184 62458 32960 00000 10142 20079 40163 52005 333 10206
AAXX 29184 62420 32960 00000 10148 20072 40187 52005 333 10208
AAXX 29184 62432 32960 70000 10168 20088 40172 52010 8702/ 333 10220
AAXX 29184 62435 32960 70108 10184 20029 40167 52004 8702/ 333 10226
AAXX 29184 62455 32960 03405 10154 20030 40169 52008 333 10200
AAXX 29184 62476 32960 00404 10210 20174 40162 52012 333 10236
AAXX 29184 89528 46/// /3629 4//// 5////
AAXX 29184 89628 46/// /3234 4//// 5////
AAXX 29184 62309 32560 30803 10158 20105 40190 52003 83200 333 10194
AAXX 29184 62325 32960 00000 10147 20095 40198 57003 333 10198
AAXX 29184 62332 32560 30507 10161 20109 40196 52002 83100 333 10195
AAXX 29184 62387 32960 03402 10134 20074 40183 52012 333 10202
AAXX 29184 62459 32960 43210 10182 20110 40178 52013 84040 333 10202
AAXX 29184 62452 32960 00403 10082 21004 40213 52007 333 10164
AAXX 29181 23973 41999 81807 11058 21080 30106 40169 58003 73673 8802/ 333 91114
AAXX 29181 23975 429// 51403 11079 21106 30042 40153 57005 80008
AAXX 29181 23986 41599 51604 11081 21095 39564 40211 50000 73683 85300
AAXX 29181 23987 41999 01506 11079 21106 30110 40186 58005 73683
AAXX 29181 24606 429// 00000 11352 21374 39995 40301 52003
AAXX 29181 29253 429// 00000 11069 21111 30018 40194 57007
AAXX 29181 29471 42998 01301 11121 21127 30029 40268 57005
AAXX 29181 29481 42999 81502 11123 21136 30023 40272 57011 80007
AAXX 29181 29553 42973 01404 11097 21133 39862 40240 57008
AAXX 29181 29562 42984 01403 11066 21143 39832 40257 57008
AAXX 29181 29581 429// 01201 11152 21165 30027 40301 57003
AAXX 29181 29594 42999 81101 11157 21170 39906 40317 57006 80001
AAXX 29181 29653 42997 01903 11161 21180 39764 40277 57009
AAXX 29181 29675 42998 00000 11151 21164 39680 40307 57007
AAXX 29181 29676 42998 00101 11218 21238 39841 40302 57007
AAXX 29181 29752 429// 01903 11088 21142 38795 48450 57015
AAXX 29181 29759 429// 00000 11126 21132 39211 40281 58015
AAXX 29181 29766 42999 00902 11226 21238 39938 40328 56002
AAXX 29181 29789 NIL
AAXX 29181 29864 429// 03203 11213 21232 39620 40326 57009
AAXX 29181 29866 419// 80000 11246 21263 39971 40326 58007 71011 8807/
AAXX 29181 29869 429// 00000 11252 21271 39921 40335 58008
AAXX 29181 29956 42984 03201 11239 21257 39727 40342 57006
AAXX 29181 30337 41998 80000 11227 21246 39888 40379 52002 77187 80008
AAXX 29181 30405 429// 80000 11189 21208 39780 40350 57008 80005
AAXX 29181 30504 42997 70000 11193 21199 39657 40356 57007 82032
AAXX 29181 30603 41996 03301 11235 21241 39746 40373 58004 71000
AAXX 29181 30612 415// 83301 11213 21225 39800 40381 57004 78582 8697/
AAXX 29181 30622 429// 80000 11275 21293 39704 40425 54000 80003
AAXX 29181 30627 42997 00301 11215 21233 39384 40395 58002
AAXX 29181 30703 429// 00000 11272 21278 39641 40391 58001
AAXX 29181 36307 42997 01101 11341 21365 39066 48563 53002
AAXX 29181 23074 41496 81408 11111 21139 30016 40041 57016 78587 889// 333 91113
AAXX 29181 23274 41397 81505 11103 21116 30018 40054 57014 78583 889// 333 86709
AAXX 29181 23383 41897 80000 11209 21234 39810 40186 57005 77172 8802/
AAXX 29181 23472 41497 71204 11087 21125 30031 40080 57012 78583 87900
AAXX 29181 23678 419// 81204 11063 21082 30051 40110 57007 77173 8802/
AAXX 29181 23884 415// 81501 11054 21068 30086 40160 57002 70272 8552/
AAXX 29181 23891 41996 80000 11245 21277 39915 58003 77177 83036
AAXX 29181 24507 419// 80000 11325 21348 30001 40276 58002 70272 84037
AAXX 29181 24817 NIL
AAXX 29181 24908 41997 80000 11211 21236 39946 40303 57002 77172 84037
AAXX 29181 29263 42976 71502 11072 21097 30123 40226 57005 84032
AAXX 29181 29282 41984 80000 11117 21130 30103 40281 58002 70272 80007
AAXX 29181 29379 42998 20000 11130 21143 30057 40276 58005 80001
AAXX 29181 29570 41996 02305 11048 21120 39903 40256 57004 73630 333 91113
AAXX 29181 29698 419// 60000 11240 21255 39791 40356 57007 70422 84071
AAXX 29181 30230 41998 60000 11289 21310 30009 40377 52002 70282 82041
AAXX 29181 30252 419// 80000 11299 21324 30060 40418 52008 77172 8805/
AAXX 29181 30309 41998 81701 11142 21155 39782 40331 57002 77172 80005
AAXX 29181 30328 419// 81102 11194 21213 39922 40382 56001 77177 86027
AAXX 29181 30521 419// 80000 11268 21281 39822 40407 54000 70282 80001
AAXX 29181 30710 42997 40302 11187 21204 39746 40376 58008 80006
AAXX 29184 71214 16/// /0503 11038 21052 60001 333 11021 21081 70000
AAXX 29184 71224 16/// /2721 10023 21032 60001 333 10061 20002 70000
AAXX 29184 71225 16/// /2923 10070 21054 60001 333 10074 20017 70000
AAXX 29184 71227 46/// /3117 10005 20004 6///1 333 10005 21097 7////
AAXX 29184 71351 17/// /2803 10020 20012 60041 7//4/ 333 10020 21099 70039
AAXX 29184 71353 46/// /3111 10014 21015 6///1 333 7////
AAXX 29184 71375 46/// /2730 11053 6///1 333 10009 21056 7////
AAXX 29184 71385 46/// /2430 11134 6///1 333 11080 21135 7////
AAXX 29184 71916 46/// /3104 11365 21398 30118 40177 51010 6///1 333 11360 21390 7////
AAXX 29184 71683 46/// /0706 11192 39877 49990 51003 6///1 333 11187 21257 7////
AAXX 29184 71345 16/// /2722 10064 21052 60001 333 10079 20014 70000
AAXX 29184 71445 16/// /2106 11064 21078 39764 40044 58001 60001 333 11063 21116 70075 555 10010
AAXX 29184 71525 17/// /3025 10056 20006 69971 7//4/ 333 10074 20003 70013
AAXX 29184 71535 16/// /3121 10076 21014 60001 333 10078 20018 70000
AAXX 29184 71536 16/// /2731 10070 21069 60001 333 10082 20027 70000
AAXX 29184 71537 16/// /3027 10035 21001 60001 333 10051 21033 7////
AAXX 29184 71411 16/// /2618 10004 21067 39984 49996 53010 60001 333 10028 21019 70036
AAXX 29184 71432 16/// /1105 11009 21050 30016 40114 56035 60001 333 11008 21063 70000
AAXX 29184 71464 46/// ///17 10008 39866 40082 58040 6///1 333 10009 21065 7////
AAXX 29184 71010 47/// /3008 11028 21033 6///1 7//4/ 333 10001 21065 7////
AAXX 29184 71257 16/// /3310 10025 21004 60001 333 10034 21042 70019
AAXX 29184 71258 16/// /3111 10024 21025 60001 333 10048 21023 70000
AAXX 29184 71259 16/// /3127 10028 21017 60001 333 10047 21055 70000
AAXX 29184 71274 17/// /2703 11054 21061 60011 7//4/ 333 11054 21105 70011
AAXX 29184 71275 46/// /2206 11065 21071 6///1 333 11064 21102 7////
AAXX 29184 71278 16/// /2903 11052 21060 60001 333 11052 21094 70004
AAXX 29184 71286 17/// /3005 11020 21023 60021 7//4/ 333 11020 21101 70017
AAXX 29184 71287 16/// /2306 11067 21081 60001 333 11067 21114 70000
AAXX 29184 71289 16/// /3112 10018 20001 60001 333 10050 21063 70000
AAXX 29184 42111 31996 00000 10100 20063 39398 40194 70500 333 59002
AAXX 29184 42131 31994 03201 10084 20076 40202 71000 333 58008
AAXX 29184 42339 31995 03603 10160 20040 40184 70500 333 58007
AAXX 29184 42379 31995 00000 10126 20103 40170 71000 333 58004
AAXX 29184 42027 NIL
AAXX 29184 42071 NIL
AAXX 29184 42101 NIL
AAXX 29184 42165 NIL
AAXX 29184 42182 NIL
AAXX 29184 42189 NIL
AAXX 29184 42260 NIL
AAXX 29184 42328 NIL
AAXX 29184 42348 NIL
AAXX 29184 42361 NIL
AAXX 29184 42369 NIL
AAXX 29184 42452 NIL
AAXX 29184 42475 NIL
AAXX 29184 65557 32458 8//// 10288 20241 39875 40113 82208 333 10/// 59001 82815 88276 94904
AAXX 29184 65563 32958 80000 10283 20217 39874 40113 80002 333 10332 58000 88076
AAXX 29184 65592 12460 6//// 10271 20242 30093 40116 69942 82232 333 10295 58000 82813 84360 94908
AAXX 29184 65594 11458 80000 10233 20210 30092 40126 60022 72996 8497/ 333 10302 58005 81913 83813 88460 94908 94946 95876
AAXX 29184 65599 32460 8//// 10263 20237 30032 40106 83932 333 10290 58003 83913 84660 87076 94965 95835
AAXX 29184 71411 16/// /2618 10004 21067 39984 49996 53010 60001 333 10028 21019 70036
AAXX 29184 71432 16/// /1105 11009 21050 30016 40114 56035 60001 333 11008 21063 70000
AAXX 29181 51711 32980 02501 11167 21186 38061 57004 333 00454 11029
AAXX 29181 51730 32970 00000 11151 21172 40391 57005 333 00300 11009
AAXX 29181 52112 32970 02502 11158 21207 40387 57001 333 00151 11069
AAXX 29181 52737 32980 00000 11123 21297 37092 52007 333 00101 10015
AAXX 29181 52787 32980 01402 11061 21234 37033 57003 333 00003 10008
AAXX 29181 53352 32980 01102 11162 21190 40358 57008 333 11009
AAXX 29181 53593 32960 02501 11120 21149 40361 57004 333 11010
AAXX 29181 53705 32965 00701 11055 21092 40318 57006 333 00003 10019
AAXX 29181 53863 31956 70000 11075 21086 40365 57004 71000 80002 333 10009
AAXX 29181 53975 31950 72701 11031 21059 40363 57003 71000 80002 333 10023
AAXX 29181 54273 32970 00701 11289 21325 40419 54000 333 11159
AAXX 29181 54324 32970 01401 11195 21251 40385 57006 333 11074
AAXX 29181 54405 31750 82001 11081 21100 40371 57008 71000 885// 333 11044
AAXX 29181 54436 32970 03601 11132 21173 40389 57005 333 11028
AAXX 29181 54808 32961 80201 11042 21067 40372 57002 80007 333 10016
AAXX 29181 54826 31/00 92708 11071 21082 38533 57005 74944 333 11028
AAXX 29181 54836 32962 70000 11045 21073 40373 57004 80002 333 10011
AAXX 29181 54863 32965 02904 11046 21092 40362 52001 333 10016
AAXX 29181 56018 32980 01802 11120 21281 36181 52012 333 00001 10033
AAXX 29181 56021 32980 00000 11187 21292 36074 52009 333 05151 11002
AAXX 29181 57071 31914 80402 11011 21030 40365 57005 71000 8807/ 333 10028
AAXX 29184 86330 32998 10710 10296 20100 40098 57025 80001
AAXX 29184 86360 32897 40912 10312 20075 40103 57029 81075
AAXX 29184 86460 32598 50912 10298 20123 40125 57026 81106
AAXX 29184 86490 32998 70908 10324 20091 40115 57023 81026
AAXX 29184 86530 32698 40906 10300 20110 40116 57028 81106
AAXX 29184 86545 32997 70805 10290 20152 40134 57023 80006
AAXX 29184 86565 32597 30708 10287 20158 40128 57017 81406
AAXX 29184 86580 32998 71211 10241 20191 40139 57014 81036
AAXX 29181 23803 11599 80000 11030 21040 39798 49978 58004 60010 70273 8802/ 333 11020 88525
AAXX 29184 68513 36/// /1318 10189 20148 30005 40116 53006 333 10258 20189 91026 555 91011
AAXX 29184 68514 32/// ///// 10328 20080 39620 48533 52010 333 10396 20328 91028 555 91009
AAXX 29184 68523 36/// /2203 10320 21017 39079 48518 53002 333 10344 20320 91004 555 91014
AAXX 29184 68527 36/// /0902 10282 20003 39051 48508 52003 333 10330 20282 91003 555 91014
AAXX 29184 68572 31324 81105 10138 20116 38417 48526 52003 71022 886// 333 10213 20138 91008 555 91021
AAXX 29184 68575 36/// /0902 10159 20144 39121 48539 53005 333 10219 20158 91004 555 91020
AAXX 29184 68581 36/// /1203 10167 20155 39403 48541 53006 333 10226 20167 91006 555 91018
AAXX 29184 68583 36/// /0000 10225 20161 30054 40163 53003 333 10260 20225 91003 555 91016
AAXX 29184 68589 16/// /0304 10134 20121 38274 48536 53005 60012 333 10166 20134 91005 555 20014 91023
AAXX 29184 68613 36/// /2210 10202 20146 30005 40119 51002 333 10263 20202 91015 555 91012
AAXX 29184 68647 NIL
AAXX 29184 68651 NIL
AAXX 29184 68715 NIL
AAXX 29184 68717 36/// /1502 10272 20134 39975 40114 52017 333 10354 20272 91007 555 91012
AAXX 29184 68723 36/// /1906 10274 20095 39364 48519 52008 333 10342 20274 91014 555 91012
AAXX 29184 68737 32975 01906 10225 20056 39242 48525 52004 333 10281 20225 91010 555 91015
AAXX 29184 68744 36/// /1608 10196 20071 39098 48514 52005 333 10257 20196 91011 555 91016
AAXX 29184 68747 36/// /1408 10200 20144 39629 48544 53006 333 10268 20200 91013 555 91016
AAXX 29184 68754 36/// /1204 10152 20137 39163 48541 53008 333 10250 20150 91006 555 91020
AAXX 29184 68817 36/// /1717 10228 20137 30111 40123 53001 333 10283 20228 91030 555 91012
AAXX 29184 68821 36/// /1208 10252 20129 39881 40114 52018 333 10334 20252 91016 555 91012
AAXX 29184 68835 36/// /1202 10210 20145 30033 40146 53003 333 10279 20210 91004 555 91014
AAXX 29184 68843 36/// /0806 10193 20144 30062 40161 56000 333 10229 20193 91008 555 91016
AAXX 29184 68849 36/// /1209 10157 20123 39429 48531 53001 333 10245 20157 91013 555 91017
AAXX 29184 68912 NIL
AAXX 29184 68918 36/// /1508 10206 20170 30129 40147 53006 333 10235 20206 91013 555 91014
AAXX 29184 68921 NIL
AAXX 29184 68925 NIL
AAXX 29184 68926 32570 11207 10214 20146 39965 40142 52010 81500 333 10286 20214 91011 555 91014
AAXX 29184 68935 36/// /0902 10199 20143 30078 40141 53001 333 10243 20199 91005 555 91014
AAXX 29184 68647 NIL
AAXX 29184 68651 NIL
AAXX 29184 68715 NIL
AAXX 29184 68912 NIL
AAXX 29184 68921 NIL
AAXX 29184 68925 NIL
AAXX 29184 61630 31940 10608 10271 20059 30137 40157 706// 80002 333 10298 58022 81073
AAXX 29184 61017 32960 70000 10190 20049 39730 40143 80008 333 10272 59007 87280
AAXX 29184 61024 32960 72804 10239 21010 39571 40145 80006 333 10293 58002 87280
AAXX 29184 61036 32962 70404 10266 20038 39897 40138 80008 333 10316 58007 87280
AAXX 29184 61043 32960 70208 10265 21061 39686 40129 80008 333 10307 58008 87280
AAXX 29184 61045 32965 50000 10255 21053 39620 40119 80002 333 10320 59002 85080
AAXX 29184 61049 32960 50000 10262 20011 39788 40108 80002 333 10331 59001 85080
AAXX 29184 61052 32960 30208 10280 21012 39878 40137 80002 333 10316 58017 83080
AAXX 29184 61075 32960 50000 10280 20068 39808 40118 80002 333 10335 58008 85080
AAXX 29184 61080 42960 70202 10273 20076 39701 40123 80008 333 10326 58002 87280
AAXX 29184 61090 32965 50000 10260 20043 39611 40123 80002 333 10322 58008 85080
AAXX 29184 61091 32965 50000 10250 20122 39676 40135 80002 333 10330 58002 85080
AAXX 29184 61096 32965 73602 10278 20018 39738 40121 80008 333 10345 59001 87280
AAXX 29184 61099 32965 73608 10294 20032 39881 40110 80008 333 10337 58006 87280
BBXX PCSV 29183 99346 30188 41698 41211 10204 20170 40149 55/// 70200 82460 22273 04208 20503 327// 41003 80182
BBXX A8IE6 29184 99101 11100 41/97 60217 10250 20219 40120 56020 70200 8//// 22254 04255 20806 307// 40806 80228
BBXX 2AQK9 29184 99048 10003 41/94 82313 10270 20241 40122 53020 71022 8761/ 22213 04300 20402 80250
BBXX A8ZP9 29183 99234 30524 41597 41308 10270 40135 54000 70211 82141 22254 00280 2//// 3//// 4//// 5////
AAXX 29184 6372932580 40000 10235 20202 38867 48/// 81930 333 10273 55300 58004 81620 81922 84360
AAXX 29184 63733 32580 50000 10234 20194 38857 48498 81931 333 10289 55300 59001 81922 85359
AAXX 29184 63756 32580 60000 10240 20195 38864 48502 81932 333 10297 58000 81621 81922 86360
AAXX 29184 63791 32580 61410 10250 20173 39123 48509 86900 333 10316 55300 59016 81925 85627
AAXX 29184 63801 31580 50000 10235 20213 39202 48525 71300 81901 333 10300 59003 81822 81923 85075
AAXX 29184 63832 32580 50000 10228 20188 38822 48498 8197/ 333 110281 58001 81821 81922 85458
AAXX 29184 63862 01480 60000 10196 20186 38898 48502 60442 72262 83970 333 0//52 10285 59004 69937 83818 81919 86357
AAXX 29184 63866 11580 30610 10238 20196 39514 48/// 60042 79596 83900 333 0//11 10300 59004 82620 81922
AAXX 29184 63870 32480 10610 10277 20252 30089 40107 81200 333 10325 55300 59010 81818
AAXX 29184 6388112480 30000 10168 20160 38207 48/// 60092 82900 333 0//94 10221 55300 59001 82617 81919
AAXX 29184 63887 12480 70000 10186 20176 38592 48514 60062 84872 333 10275 55300 58001 83819 86358
AAXX 29184 63894 32580 50313 10276 20252 30055 40115 85900 333 10317 55300 59005 85822 81923
AAXX 29184 63932 12580 20000 10177 20158 38316 48514 60242 82900 333 10241 58003 82622 81923
AAXX 29184 63962 11580 70000 10224 20187 38950 48509 60012 76192 333 0//51 10283 58002 83622 81924 87457
AAXX 29184 63971 32580 30112 10272 20249 39975 40103 83930 333 10313 55300 59005 83820 81921
AAXX 29181 50548 32980 00000 11302 21341 40352 57006 333 11176
AAXX 29181 50564 32970 02201 11250 21286 40335 57003 333 11147
AAXX 29181 51334 32965 00000 11186 21210 40367 57015 333 05153 11115
AAXX 29181 51818 32965 03201 11097 21138 40359 52006 333 00200 10013
AAXX 29181 52378 32980 02204 11131 21202 40379 57003 333 00103 11037
AAXX 29181 53487 31959 03403 11132 21162 40360 57004 70400 333 11008
AAXX 29181 53502 32980 00000 11146 21184 40372 57002 333 00000 11032
AAXX 29181 53923 32980 71601 11019 21052 40319 57002 8703/ 333 10013
AAXX 29181 54049 32970 01803 11185 21251 40381 57007 333 11117
AAXX 29181 54115 32980 02701 11189 21228 40365 57010 333 11070
AAXX 29181 54157 32962 00000 11224 21253 40390 57010 333 11122
AAXX 29181 54186 32970 02001 11241 21277 40400 52004 333 11156
AAXX 29181 54311 32970 53602 11162 21188 40378 57005 80002 333 11057
AAXX 29181 54346 32965 00702 11184 21217 40384 57002 333 11089
AAXX 29181 54377 32970 00201 11176 21211 40379 52001 333 11068
AAXX 29181 54386 32970 00202 11256 21293 40414 52006 333 11125
AAXX 29181 54493 32974 00000 11174 21226 40363 57001 333 11057
AAXX 29181 54587 NIL
AAXX 29181 54715 32965 00702 11053 21084 40376 57005 333 10006
AAXX 29181 54929 32968 01601 11030 21077 40366 54000 333 10037
AAXX 29181 54945 32970 03403 11029 21071 40366 57002 333 10027
AAXX 29181 56065 32980 20000 11170 21201 36626 57002 80002 333 00056 10024
AAXX 29181 57193 31616 83602 10015 21009 40362 54000 71000 885// 333 10028
AAXX 29181 57290 31950 83401 10018 21004 40359 57004 71000 8802/ 333 10024
AAXX 29184 62357 32960 20404 10134 20087 40192 52006 80001 333 10198
AAXX 29184 62423 32960 40000 10144 20055 40184 57003 84050 333 10188
AAXX 29184 62403 32960 22902 10192 20081 40174 52014 80002 333 10242
AAXX 2918/ 89828 46/// ///// 11226 36553 4//// 5//// 91820
AAXX 2918/ 89869 46/// ///// 11033 39750 4//// 5//// 91810
BBXX 46206 29181 99488 71260 46/// /1208 10078 40146 57012 22200 00080 11208 70040 333 91210
AAXX 29184 68647 16/// /1108 10180 20094 38930 48527 52006 69982 333 10233 20180 91012 555 20008 91019
AAXX 29184 68174 31665 60409 10184 20145 38799 48522 53010 70522 82570 333 10238 20184 91013 555 91019
AAXX 29184 68191 36/// /1503 10235 20161 39645 48549 53008 333 10274 20234 91005 555 91015
AAXX 29184 68242 12680 40407 10254 20144 38702 48486 53004 69922 81370 333 10300 20254 91010 555 20002 91015
AAXX 29184 68262 36/// /0702 10221 20150 38695 48504 52012 333 10283 20221 91004 555 91017
AAXX 29184 68263 32880 50103 10204 20152 38482 48507 53008 85070 333 10256 20202 91005 555 91019
AAXX 29184 68267 32470 41012 10159 20135 38255 48527 52007 84100 333 10226 20159 91016 555 91022
AAXX 29184 68289 16/// /1003 10212 20139 39166 48539 53010 69922 333 10249 20212 91005 555 20002 91018
AAXX 29184 68350 36/// /0000 10241 20152 38659 48512 53015 333 10323 20241 91001 555 91018
AAXX 29184 68368 11960 41003 10201 20146 38321 48511 53008 69902 70582 84080 333 10223 555 20000 91021
AAXX 29184 68403 36/// /2013 10197 20162 30103 40136 52015 333 10244 20197 91021 555 91013
AAXX 29184 68424 32782 11305 10292 20042 39159 48503 53001 81100 333 10366 20292 91006 555 91012
AAXX 29184 68438 32982 02106 10229 20041 38795 48493 53003 333 10313 20229 91007 555 91015
AAXX 29184 68442 32882 11704 10214 20028 38647 48501 53004 81070 333 10290 20214 91005 555 91017
AAXX 29184 68461 32580 20909 10162 20124 38329 48515 53008 82500 333 10258 20162 91013 555 91020
AAXX 29184 68512 32982 02110 10240 20069 39012 48519 53008 333 10314 20240 91014 555 91016
AAXX 29184 68538 32982 00902 10262 20030 38710 48500 53001 333 10297 20262 91004 555 91016
AAXX 29184 68587 NIL
AAXX 29184 68588 36/// /1608 10227 20154 30163 40179 53001 333 10267 20225 91011 555 91017
AAXX 29184 68591 NIL
AAXX 29184 68592 NIL
AAXX 29184 68618 32780 12113 10285 20068 39035 48520 53002 81400 333 10343 20285 91018 555 91015
AAXX 29184 68633 36/// /1504 10194 20037 38506 48501 52003 333 10249 20194 91007 555 91018
AAXX 29184 68668 32570 71209 10166 20133 39322 48540 53010 876// 333 10238 20166 91012 555 91019
AAXX 29184 68714 36/// /2012 10193 20139 30083 40119 52005 333 10303 20193 91017 555 91012
AAXX 29184 68727 36/// /0709 10261 20023 39105 48507 52002 333 10298 20261 91014 555 91014
AAXX 29184 68752 36/// /0711 10181 20144 39487 48541 53003 333 10250 20181 91015 555 91017
AAXX 29184 68816 32680 12017 10202 20168 30078 40133 56004 81500 333 10260 91024 555 91013
AAXX 29184 68828 42470 31207 10181 20165 39914 40146 55005 83500 333 10233 555 91014
AAXX 29184 68842 32980 00807 10202 20152 30087 40160 53003 333 10249 555 91016
AAXX 29184 68858 32980 00505 10190 20143 30012 40168 53002 333 10242 555 91017
AAXX 29184 68906 32698 62412 10140 20064 30156 40221 52002 82106 222// 00135 320// 40501 333 10158 20138 91021 555 91022
AAXX 29184 68994 32598 63208 10064 20028 30109 40138 57003 82570 222// 00071 333 10088 20061 91013 555 91013
AAXX 29184 89004 31000 80727 11081 21084 38829 49841 53007 73933 886// 333 11066 21119 91032 555
AAXX 29184 42559 NIL
AAXX 29184 42571 NIL
AAXX 29184 42667 NIL
AAXX 29184 42675 NIL
AAXX 29184 42754 NIL
AAXX 29184 42779 NIL
AAXX 29184 42867 NIL
AAXX 29184 42874 NIL
AAXX 29184 42933 NIL
AAXX 29184 43041 NIL
BBXX PCSV 29183 99346 30188 41698 41211 10204 20170 40149 55/// 70200 82460 22273 04208 20503 327// 41003 80182
BBXX A8ZP9 29183 99234 30524 41597 41308 10270 40135 54000 70211 82141 22254 00280 2//// 3//// 4//// 5////
BBXX 2AQK9 29184 99048 10003 41/94 82313 10270 20241 40122 53020 71022 8761/ 22213 04300 20402 80250
BBXX C6JE4 29183 99039 30663 41798 32815 10274 20224 40127 57002 70100 80001 22253 04281 20803 312// 41102 5//// 80240
BBXX PDKK 29183 99040 30004 41698 62005 10248 20226 40120 53005 70222 86400 22271 20201 316// 41002 80233
BBXX A8AX3 29183 99047 30117 41397 31402 10250 40122 50/// 7//// 83211 22200 2//// 30000
BBXX BATFR19 29184 99067 30055 46/// /1816 10234 20187 40122 52005 22200 00255
BBXX MIBR 29183 99094 30804 41/97 82515 10280 20252 40061 54000 70222 8//// 22254 00290 2//// 3//// 4//// 5//// 80260
BBXX ELVF4 29181 99118 30691 41/97 82004 10245 20230 40168 54000 7//// 88/// 22213 06220 20301 31719 40303 50403 80235
BBXX ONDY 29184 99161 30690 41/98 31517 10250 2022/ 40130 54000 78010 8//// 22214 00280 2//// 3//// 4//// 5//// 6//// 80230 /////
BBXX TBWUK42 29184 99173 30701 41397 61110 10265 20236 40143 54000 70211 857/7 22213 20001 307// 40002 5//// 80245
BBXX A8KH9 29184 99180 30654 41598 40618 10270 20257 40090 53120 70322 83496 22224 02240 20101 30102 40202 50303 80260
BBXX BATFR55 29184 99185 30559 44/97 00912 10272 20239 40129 70000 22232 00279 20804 30909 41204 51204
BBXX 3FMV6 29183 99272 30478 41298 70120 10240 20225 40067 51010 70222 87778 22213 06240 20102 80230
BBXX DBBT 29181 99339 30184 46/// /9900 10231 20122 40120 57003 22220 00155
BBXX A8RL4 29184 99351 30198 41698 31707 10230 40150 54000 7//// 825// 22224 00220 20201
BBXX SHIP 29184 99440 31100 41497 82129 10090 20012 40068 52022 70322 8671/ 22243 00116 10423 85055
BBXX DBLK 29181 99534 30000 41497 72712 10010 21006 49913 53001 70272 878// 22200 04009 20504 326// 41007
BBXX BAREU56 29184 99367 10122 46/// ///// 40191 57001 22282
BBXX TESTFR9 29184 99508 70011 46/// /2732 10097 29078 40205 57030 22272
BBXX BAREU63 29184 99382 10156 46/// /0211 10134 29073 40182 57002 22243
BBXX BAREU08 29184 99514 10020 46/// ///// 40124 57024 22263
BBXX BAREU05 29184 99429 70292 46/// ///// 40312 52015 22223
AAXX 29184 07019 11/97 82724 10102 69952 70262 333 10105 92447
AAXX 29184 BAREU00 29184 99502 70059 46/// ///// 40261 57012 22263
AAXX 29184 BATEU05 29184 99578 10079 46/// /2831 10059 49895 51015 22262
AAXX 29184 BATFR20 29184 99414 10094 46/// ///// 10122 20080 40175 22244
AAXX 29184 BATFR14 29184 99495 10002 46/// /2720 10094 20074 40229 56017 22200 00102
AAXX 29184 BATFR04 29184 99594 70093 46/// /3142 10039 20002 4//// 22261 00102
AAXX 29184 BATFR54 29184 99473 70040 44/97 32926 10107 20050 40336 55003 702// 8//// 22232 00125 20802 313// 41002 5////
AAXX 29184 BATFR60 29184 99496 70038 46/// /2542 10112 20070 40256 51016 22252 00112
AAXX 29184 BATFR46 29184 99433 10052 46/// /3341 10097 20005 40228 58017 22281 00142
AAXX 29184 BATFR52 29184 99508 70011 46/// /2624 10100 20054 40184 58027 22282 00085
AAXX 29184 BATEU09 29184 99411 10088 46/// /2807 10132 20077 40171 52004 22262 00160
AAXX 29184 BATFR09 29184 99373 10019 44498 63114 10144 20060 40285 51018 70222 86800 22263 00170 20202 305// 40506 5//// 60//0 ICE 0/0//
AAXX 29184 BATEU01 29184 99522 10030 44796 72735 10085 20054 40080 56002 72022 8661/ 22253 00099 21006 327// 41006 5////
AAXX 29184 BATEU08 29184 99589 70301 46/// /1618 10022 21002 40081 58040 22223
AAXX 29184 BATFR02 29184 99497 70004 46/// /2746 10104 20075 40223 22283 00114
AAXX 29184 PCEO 29183 99339 70343 41498 52404 10204 20170 40323 53002 7//// 82142 22253 04193 20601 328// 41003 5//// 80182
AAXX 29184 61001 29184 99434 10078 46/// /0307 10128 20078 40194 52014 22200 00142 10802 70009
AAXX 29184 BATUK01 29184 99560 70032 46/// /2608 10030 21017 40073 52023 22200 00062
AAXX 29184 OXHY2 29183 99366 70004 41498 13105 10159 20113 40292 53002 70222 81140 22224 00162 20301 30000 40000 5//// 80132
AAXX 29184 61002 29184 99421 10047 46/// ///38 10110 2//// 40260 52018 22200 00133 10910 70052 555 1/050
AAXX 29184 BAREU06 29184 99389 10042 46/// ///// 40271 52006 22224
BBXX TBWUK17 29183 99299 30334 41597 41916 10226 20175 40177 54000 70111 84463 22263 04250 20305 32120 40305 50304 80194
BBXX A8HD5 29181 99305 11233 41598 63509 10110 20043 40290 54000 70322 82464 22284 04100 20403 33500 40603 5//// 80080
BBXX TBWUK18 29183 99325 30358 41598 41717 10210 20194 40147 54000 70111 844// 22222 00240 20502 334// 41003 5//// 80200
AAXX 29181 37001 32997 00703 10031 21001 30199 40241 57009 333 10096
AAXX 29181 37031 32997 01501 11002 21006 30059 40260 57012 333 10087
AAXX 29184 68587 NIL
AAXX 29184 68591 NIL
AAXX 29184 68592 NIL
AAXX 29181 50658 31950 03601 11273 21288 40362 57008 70400 333 11188
AAXX 29181 50888 32980 71601 11188 21227 40324 52009 80002 333 11145
AAXX 29181 50983 11970 82901 11176 21208 40332 52010 69901 70070 82037 333 11174
AAXX 29181 51053 32977 20907 11121 21172 40335 57012 80002 333 05202 11095
AAXX 29181 51542 11680 40702 11224 21248 37596 52006 69921 70070 81502 333 00202 11148
AAXX 29181 52436 32980 02704 11121 21155 38545 40383 57005 333 00404 11036
AAXX 29181 52908 32980 22701 11207 21356 35757 52006 80002 333 00051 11045
AAXX 29181 52996 31/00 91104 11072 21075 37585 57005 74940 333 00051 11009
AAXX 29181 53083 32980 00000 11225 21247 40382 57010 333 05451 11124
AAXX 29181 53764 32962 03202 11049 21083 40339 57002 333 10046
AAXX 29181 53787 31959 80000 11055 21078 40354 57001 71000 8802/ 333 10017
AAXX 29181 54096 11968 02709 11205 21250 40349 52002 69901 70070 333 11172
AAXX 29181 54226 32980 00000 11228 21292 40385 57010 333 11090
AAXX 29181 54259 32965 03601 11239 21277 40404 57003 333 11119
AAXX 29181 54527 32960 82201 11031 21059 40375 57007 8802/ 333 11016
AAXX 29181 54534 32965 72001 11056 21117 40379 57008 8703/ 333 11038
AAXX 29181 34927 31992 00501 10029 20025 30219 40256 57011 74544 333 10052
BBXX 46205 29181 99542 71343 46/// /1604 10037 40047 52006 22200 00070 11110 70048 333 91207
BBXX 46132 29181 99497 71279 46/// /1211 10066 40108 57022 22200 00084 11309 70043 333 91214
AAXX 29181 34824 31993 81302 11007 21008 30252 40257 56009 74444 8803/ 333 11001
AAXX 29181 37018 32698 70301 10080 20027 30159 40235 58012 87800 333 10084
AAXX 29181 34838 31495 80102 11023 21024 30169 40270 57008 71042 886// 333 10001
AAXX 29184 87349 11456 81804 10188 20165 39734 40122 58011 60201 76096 8352/ 333 56309 83615 85540
AAXX 29181 30455 429// 60000 11305 21330 38968 48471 54000 80002
AAXX 29181 30731 419// 81803 11097 21123 39705 40340 54000 70271 8807/
AAXX 29181 30739 429// 00000 11332 21356 39506 40443 52004
AAXX 29181 30741 419// 80000 11168 21174 38742 48526 52001 70272 80001
AAXX 29181 30745 419// 21803 11260 21284 39125 40393 53002 71011 80002
AAXX 29181 30764 42998 00000 11345 21374 39491 40404 58002
AAXX 29181 30829 42984 00000 11292 21309 39669 40447 58002
AAXX 29181 30838 42998 50000 11286 21292 39347 40450 58001 81042
AAXX 29181 30846 42999 22305 11140 21183 39380 40336 53002 80003
AAXX 29181 30859 42999 00000 11341 21371 39452 40410 57007
AAXX 29181 30862 42984 02605 11282 21321 39546 40369 57002
AAXX 29181 30957 429// 02103 11273 21285 39403 40399 57002
AAXX 29181 30967 NIL
AAXX 29181 30975 42898 33201 11332 21363 39672 40411 57011 82031
BBXX ZDLP 29183 99522 50490 41598 72720 10089 20061 49995 54000 70352 878// 22223 04059 20204 326// 40406 5//// 80076
BBXX SHIP 29181 99033 70782 41398 62507 10260 20218 40100 51010 70311 82668 22253 20302 327// 40402 80230
BBXX MLRM6 29183 99363 30031 41598 42406 10170 20104 40187 54000 70200 84200 22200 00207 2//// 31924 40302 50302
BBXX VQIB9 29183 99301 30370 41/98 82132 10215 20183 40119 52010 70222 8//// 22254 00250 2//// 3//// 4//// 5//// 80195
BBXX VQHO7 29184 99017 70347 41498 21020 10270 20232 40112 57016 70200 81140 22234 00270 20405 314// 40406 5//// 80244
AAXX 29184 89020 46/// /0210 11052 21064 39713 49748 52015 91730
AAXX 29181 30499 41999 02402 11323 21333 39618 40362 52008 70271
AAXX 29181 30683 429// 53202 11306 21324 39629 40358 52004 81044
AAXX 29181 30695 42999 02703 11328 21351 39966 40349 53007
AAXX 29181 31253 41999 20000 11327 21358 39818 40338 53005 70271 80001
AAXX 29181 31295 42999 00000 11282 21307 39824 40331 53006
AAXX 29181 31348 42999 80000 11268 21274 30056 40272 53006 80001
AAXX 29181 31418 42984 00000 11225 21237 39990 40267 52008
AAXX 29181 31439 41598 80202 11152 21165 30198 40245 53003 77172 889//
AAXX 29181 31442 NIL
AAXX 29181 31445 42984 00000 11306 21336 30035 40322 54000
AAXX 29181 31474 42998 60000 11297 21328 39798 40340 58002 80007
AAXX 29181 31521 32984 01002 11286 21310 30006 40333 57007
AAXX 29181 31527 42998 01601 11267 21285 39993 40330 57007
AAXX 29181 31534 42999 40000 11308 21332 39964 40354 58002 80005
AAXX 29181 31587 42998 00000 11310 21322 30167 40332 57012
AAXX 29181 31632 NIL
AAXX 29181 31702 42998 00202 11304 21341 39976 40356 57002
AAXX 29181 31713 42998 02301 11236 21249 30188 40297 52004
AAXX 29181 31725 42998 52302 11245 21257 30218 40292 53004 85050
AAXX 29181 31801 41997 80000 11238 21256 30063 40314 52010 77171 82047
AAXX 29181 31825 42684 73101 10147 21160 30025 40246 53007 87500
AAXX 29181 31845 42998 00000 11335 21366 30147 40336 52016
AAXX 29181 31878 41659 70000 11228 21254 30200 40337 52012 72272 87500
AAXX 29181 31915 42998 62702 11173 21232 30050 40336 52010 80001
AAXX 29181 31921 41697 63402 11136 21207 30227 40332 53008 70272 85900
AAXX 29181 31969 42/// /2910 11142 21239 30276 40329 51012
AAXX 29181 31981 42599 80000 11204 21230 30078 40336 53013 885//
AAXX 29181 31987 42998 03609 11169 21223 30021 40301 51012 333 91014 91115
AAXX 29181 32069 42998 01405 11091 21106 30220 40225 53001 333 91006 91107
BBXX PHHD 29181 99286 70595 41497 63615 10250 20207 40226 58006 71311 81164 22243 04210 20202 80220
BBXX LAXP4 29184 99184 70677 41598 60716 00/// 10290 2024/ 40182 57015 70222 84291 22253 00270 20503 334// 40603 80250 NNNN
BBXX ELWZ5 29184 99456 71664 41597 42908 10052 20028 40183 51005 7//00 8346/ 22224 04120 2//01 333// 4//01 5//// 80041
BBXX ZCDM6 29183 99205 70869 41298 80506 10285 20211 40170 56006 70222 8976/ 22200 00275 2//// 3//// 4//// 5//// 80235
AAXX 29184 83599 31898 899// 10250 20208 40100 57010 70262 8807/ 222// 20502 80225
AAXX 29184 83650 41698 80208 10270 20236 40175 57020 71522 83530 222// 02260 21005 80245
AAXX 29184 83925 32899 11800 10234 20195 40141 57012 7010/ 8108/ 222// 20000 80208
AAXX 29184 83970 41598 30703 10250 20159 40209 57007 7010/ 83200 222// 02210 20301 80190
AAXX 29184 83552 32498 8//// 10299 20229 39944 4//// 885// 333 59011
AAXX 29184 83565 32697 60506 10288 20191 39610 40070 84290 333 59016
AAXX 29184 83630 32597 52308 10272 20198 3//// 4//// 57031 82330
AAXX 29184 83702 21498 83614 10210 20208 39329 40078 58022 78292 88900 333 60291
AAXX 29184 83704 32698 73204 10319 20238 39627 40022 57028 85230
AAXX 29184 83726 32597 82302 10275 20179 39148 40103 58039 88231
AAXX 29184 68155 36/// /1402 10239 20199 39178 48513 56001 333 10302 20239 91003 555 91014
AAXX 29184 68171 NIL
AAXX 29184 68176 16/// /0803 10207 20167 39142 48526 53011 69922 333 10244 20207 91010 555 20002 91017
AAXX 29184 68181 NIL
AAXX 29184 68182 16/// /0000 10203 20177 39351 48536 53008 69962 333 10241 20199 91002 555 20006 91017
AAXX 29184 68185 NIL
AAXX 29184 68253 36/// /0000 10250 20180 39033 48512 53007 333 10304 20249 91010 555 91015
AAXX 29184 68255 36/// /1002 10239 20165 38847 48499 53015 333 10296 20239 91006 555 91015
AAXX 29184 68271 36/// /0506 10215 20158 38912 48517 53007 333 10266 20215 91015 555 91017
AAXX 29184 68273 16/// /0610 10212 20160 38459 48513 52011 69922 333 10271 20212 91014 555 20002 91020
AAXX 29184 68287 36/// /1104 10148 20138 38593 48527 53005 333 10188 20148 91011 555 91021
AAXX 29184 68291 NIL
AAXX 29184 68297 NIL
AAXX 29184 68329 36/// /1403 10292 20091 39057 48504 52006 333 10352 20292 91004 555 91013
AAXX 29184 68331 36/// /1805 10263 20076 38823 48514 53000 333 10320 20263 91006 555 91017
AAXX 29184 68335 36/// /1702 10258 20102 38906 48522 53001 333 10316 20258 91004 555 91017
AAXX 29184 68341 36/// /1004 10229 20165 38523 48508 53005 333 10285 20229 91007 555 91019
AAXX 29184 68342 NIL
AAXX 29184 68343 36/// /0000 10248 20132 38765 48493 53002 333 10294 20248 91001 555 91015
AAXX 29184 68349 36/// /0506 10216 20159 38500 48493 52010 333 10293 20216 91009 555 91017
AAXX 29184 68353 36/// /0103 10216 20136 38512 48491 53006 333 10264 20215 91004 555 91017
AAXX 29184 68355 36/// /3502 10242 20095 38565 48500 52007 333 10288 20242 91003 555 91017
AAXX 29184 68370 32670 31310 10204 20178 38373 48520 52012 83200 333 10265 2//// 555 91021
AAXX 29184 68377 36/// /1113 10198 20151 38770 48510 53012 333 10259 20198 91017 555 91018
AAXX 29184 68380 36/// /2707 10150 20130 3//// 4//// 5//// 333 10248 20150 91015 555
AAXX 29184 68387 NIL
AAXX 29184 68411 36/// /1611 10341 20091 39886 40083 53008 333 10403 20341 91016 555 91009
AAXX 29184 68429 16/// ///// 10254 20047 38671 48495 56001 69922 333 10303 20254 555 20002 91016
AAXX 29184 68449 36/// /0402 10201 20111 38382 48494 53002 333 10261 20201 91003 555 91018
AAXX 29184 68471 NIL
AAXX 29184 68474 36/// /0000 10151 20117 38646 48535 52011 333 10180 20151 91004 555 91022
AAXX 29184 68479 36/// /1107 10197 20132 38969 48532 52012 333 10229 20197 91012 555 91019
AAXX 29184 68481 36/// /1405 10220 20149 39797 40164 52016 333 10261 20220 91010 555 91017
AAXX 29184 68487 16/// /1103 10153 20133 39020 48534 53008 69942 333 10204 20153 91005 555 20004 91020
AAXX 29184 68491 16/// /2004 10212 20180 30147 40156 52011 69922 333 10278 20210 91008 555 20002 91015
AAXX 29184 68497 16/// /2103 10213 20169 30127 40171 52006 69962 333 10262 20213 91005 555 20006 91017
AAXX 29184 68183 12578 83303 10223 20183 39449 48542 53006 69982 84570 333 10236 20213 91004 555 20008 91016
AAXX 29184 68188 36/// /0000 10203 20182 39216 48542 53008 333 10235 20203 91001 555 91018
AAXX 29184 68268 36/// /0404 10220 20182 38878 48521 52010 333 10278 20217 91005 555 91018
AAXX 29184 68272 16/// /0902 10203 20186 39070 48515 53022 60102 333 10314 20197 91006 555 20100 60265 91016
AAXX 29184 68296 16/// /0000 1//// 2//// 38916 4//// 53001 69922 333 1//// 2//// 91002 555 20002
AAXX 29184 68322 32982 00000 10286 20069 39102 48492 52007 333 10384 20286 91002 555 91011
AAXX 29184 68338 12780 11702 10215 20127 38750 48485 52010 69922 81070 333 10310 20215 91003 555 20002 91014
AAXX 29184 68345 36/// /3404 10223 20145 38657 48501 53003 333 10291 20223 91005 555 91017
AAXX 29184 68362 32980 10000 10189 20140 38496 48498 52008 81060 333 10280 20189 91002 555 91018
AAXX 29184 68400 36/// /1705 10225 20159 30077 40150 52012 333 10301 20225 91013 555 91015
AAXX 29184 68408 32980 01509 10169 20149 30117 40125 52011 333 10215 20169 91016 555 91012
AAXX 29184 68416 36/// /1503 10315 21009 39009 48505 52006 333 10360 20315 91005 555 91013
AAXX 29184 68478 32589 61502 10174 20135 38892 48529 52011 86500 333 10222 20174 91005 555 91020
AAXX 29184 68488 36/// /1402 10166 20131 39297 48539 52012 333 10224 20166 91005 555 91019
AAXX 29184 68494 16/// /0000 10202 20154 30036 40167 52003 69922 333 10249 20201 91003 555 20002 91017
AAXX 29184 68524 32986 00402 10300 21021 39031 48504 52003 333 10357 20300 91003 555 91013
AAXX 29184 68546 36/// /1804 10189 20083 38656 48502 53005 333 10275 20189 91010 555 91017
AAXX 29184 68558 16/// /1506 10134 20100 38198 48516 52006 69922 333 10229 20134 91009 555 20002 91021
AAXX 29184 68570 12360 51302 10161 20100 38525 48517 52006 69922 85500 333 10224 20161 91006 555 20002 91020
AAXX 29184 68580 36/// /1004 10135 20127 38978 48533 52005 333 10209 20135 91007 555 91020
AAXX 29184 68614 32980 01902 10259 20122 30060 40100 52015 333 10361 20259 91009 555 91010
AAXX 29184 68624 32882 11106 10264 21020 38726 48505 52006 81200 333 10323 20264 91012 555 91017
AAXX 29184 68674 NIL
AAXX 29184 68712 32970 01820 10162 20145 30052 40117 53001 333 10198 20162 91026 555 91011
AAXX 29184 68718 NIL
AAXX 29184 68722 32980 02206 10241 21000 38547 48506 52003 333 10298 20241 91011 555 91018
AAXX 29184 68814 NIL
AAXX 29184 68832 36/// /0911 10227 20086 39185 48518 52008 333 10303 20227 91019 555 91015
AAXX 29184 68916 32370 10812 10191 20161 39875 40141 58001 81500 333 10231 20191 91022 555 91014
AAXX 29184 68920 NIL
AAXX 29184 68928 NIL
BBXX 44059 29181 99368 70763 46/// /1702 1//// 91820 333 91203
BBXX 44059 29181 99368 70763 46/// /2002 1//// 40171 91810 333 91203
BBXX 44059 29181 99368 70763 46/// /2203 10088 40171 56023 91800 22200 00102 333 91204
BBXX 44057 29181 99395 70761 46/// /2102 1//// 91820 333 91203
BBXX 44057 29181 99395 70761 46/// /2002 1//// 40172 91810 333 91203
BBXX 44057 29181 99395 70761 46/// /1803 10007 40173 56022 91800 22200 00047 333 91203
BBXX 44058 29181 99376 70763 46/// /1806 1//// 91810 333 91208
BBXX 44058 29181 99376 70763 46/// /1806 10062 40176 56021 91800 22200 00088 10201 70003 333 91207
BBXX 44032 29181 99437 70694 46/30 /2711 11015 40060 57005 91804 22200 00081 10603 70017 333 91214 555 11132 22138
AAXX 29184 82863 32698 60504 10316 20237 39875 40084 81248 333 59044
AAXX 29184 83228 32799 63601 10336 20214 39805 40076 86100 333 59020
AAXX 29184 83270 32798 40000 10300 20219 39638 40117 81038 333 59011
AAXX 29184 83309 31595 40000 10316 20257 39780 40098 70591 8431/ 333 59008
AAXX 29184 83319 32697 72309 10288 20236 39764 40134 83480 333 59004
AAXX 29184 83368 21698 80000 10246 20219 39731 40096 70352 8421/ 333 58002 60011
AAXX 29184 83374 32598 62704 10274 20214 39535 40101 86800 333 59008
AAXX 29184 83405 32597 60000 10354 20243 39942 40075 86200 333 59008
AAXX 29184 83526 21498 83205 10245 20199 39154 40085 70362 885// 333 59029 60011
AAXX 29184 83064 31498 71402 10283 20234 39814 40108 79292 87900 333 59024
AAXX 29184 83264 32797 53202 10315 20217 39661 40121 82214 333 59024
AAXX 29184 83332 32697 73202 10291 20197 39184 40074 85220 333 59018
AAXX 29184 83358 31598 83208 10263 20212 39683 40092 72921 8359/ 333 59004
AAXX 29184 83423 21698 82703 10255 20207 39279 40085 76022 8497/ 333 59017 69921
AAXX 29184 83470 32698 83610 10241 20209 39235 40085 885// 333 59014
BBXX 44062 29181 99386 70764 46/// /1805 1//// 91820 22200 00081 333 91207
BBXX 44062 29181 99386 70764 46/// /1905 1//// 40155 91810 22200 00081 333 91206
BBXX 44062 29181 99386 70764 46/// /1905 10044 40157 56023 91800 22200 00081 10301 70004 333 91207
BBXX 44063 29181 99390 70764 46/// /2205 1//// 91820 333 91206
BBXX 44063 29181 99390 70764 46/// /2205 1//// 40190 91810 333 91206
BBXX 44063 29181 99390 70764 46/// /2205 10034 40191 56018 91800 22200 00069 1//00 70002 333 91206
BBXX 44041 29181 99372 70768 46/// /1202 1//// 91820 333 91202
BBXX 44041 29181 99372 70768 46/// /1102 1//// 40197 91810 333 91203
BBXX 44041 29181 99372 70768 46/// /1502 10070 40198 56023 91800 22200 00085 1//00 70001 333 91203
BBXX 44042 29181 99380 70763 46/// /2002 1//// 91820 333 91203
BBXX 44042 29181 99380 70763 46/// /2002 1//// 40175 91810 333 91203
BBXX 44042 29181 99380 70763 46/// /2002 10055 40175 57025 91800 22200 00082 1//00 70002 333 91203
BBXX 44043 29181 99392 70764 46/// /2005 1//// 91820 333 91205
BBXX 44043 29181 99392 70764 46/// /2004 1//// 40168 91810 333 91206
BBXX 44043 29181 99392 70764 46/// /2004 10034 40169 56023 91800 22200 00064 1//00 70001 333 91205
BBXX 46092 29181 99368 71220 46/// /3204 10114 40239 53015 91757 22200 00121 555 11036 22041
BBXX 46181 29181 99538 71288 46/// /2206 10024 40092 52018 22200 00041 10200 70001 333 91208
BBXX 46181 29181 99538 71288 46/// /2206 10024 40092 52018 22200 00041 10200 70001 333 91208
AAXX 2918/ 89767 46/// ///// 11016 39612 4//// 5////
BBXX 46184 29181 99539 71389 46/// /1403 10029 40024 52006 22200 00060 11710 70048 333 91204
AAXX 29184 89507 46/89 /3311 11213 29070 36806 4//// 5////
AAXX 29181 24817 429// 00000 11285 21310 39924 40334 52006
AAXX 29184 68171 NIL
AAXX 29184 68181 NIL
AAXX 29184 68185 NIL
AAXX 29184 68291 NIL
AAXX 29184 68297 NIL
AAXX 29184 68342 NIL
AAXX 29184 68387 NIL
AAXX 29184 68471 NIL
AAXX 29184 91723 NIL
AAXX 29184 91759 11598 40000 10251 20239 40079 53018 60001 82101 333 82820 83078
AAXX 29184 91762 11599 50000 10252 20238 40075 53018 60001 70301 811/1 333 81820 85079
AAXX 29184 89667 46/// /3111 11036 29092 39815 4//// 5//// 91810
AAXX 2918/ 89108 46/// ///// 11209 36920 4//// 5//// 91810
AAXX 2918/ 89108 46/// ///// 11209 36921 4//// 5//// 91820
AAXX 2918/ 89879 46/// ///// 10023 39750 4//// 5//// 91810
AAXX 2918/ 89667 46/// ///// 11035 39815 4//// 5////
AAXX 2918/ 89872 46/// ///// 11020 39763 4//// 5//// 91810
AAXX 2918/ 89866 46/// ///// 10013 39711 4//// 5//// 91810
AAXX 2918/ 89866 46/// ///// 11001 39710 4//// 5//// 91820
AAXX 2918/ 89329 46/// ///// 11076 38656 4//// 5//// 91810
AAXX 2918/ 89799 46/// ///// 11239 4//// 5//// 91810
AAXX 2918/ 89332 46/// ///// 11048 39149 4//// 5//// 91810
AAXX 2918/ 89769 46/// ///// 11005 39790 4//// 5//// 91810
AAXX 2918/ 89314 46/// ///// 11106 38113 4//// 5//// 91810
AAXX 2918/ 89314 46/// ///// 11108 38112 4//// 5//// 91820
AAXX 2918/ 89667 46/// ///// 11036 39814 4//// 5////
AAXX 29184 42921 32996 10000 10156 20062 40176 80001 333 59014 81075
AAXX 29184 43003 31995 00000 10194 20153 40134 70500 333 59003
AAXX 29184 43063 32996 00000 10134 20097 39507 40152 333 58001
AAXX 29184 43110 31996 03603 10228 20147 40124 70544 333 59001
AAXX 29184 43192 31996 00203 10224 20179 40111 333 59010
AAXX 29184 42634 NIL
AAXX 29184 42647 NIL
AAXX 29184 42737 NIL
AAXX 29184 42840 NIL
AAXX 29184 42909 NIL
AAXX 29184 43014 NIL
AAXX 29184 43117 NIL
AAXX 29181 31913 NIL
AAXX 29181 32128 41598 70101 11015 21026 30111 40163 53001 78582 87300 333 91002 91104
AAXX 29181 24856 41996 00000 11443 21469 30158 40342 52004 71000
AAXX 29181 30679 NIL
AAXX 29181 30686 42999 00000 11338 21362 39929 40355 52005
AAXX 29181 30961 42999 01502 11299 21324 39507 40394 57007
AAXX 29181 30971 42999 31601 11290 21321 39284 40381 57009 80001
AAXX 29181 30978 42999 00201 11320 21350 39630 40404 57013
AAXX 29181 31513 42999 21801 11249 21267 30068 40317 56003 80001
AAXX 29181 31624 NIL
AAXX 29181 31832 42963 00000 11297 21321 30228 40325 52007
AAXX 29184 68674 NIL
AAXX 29181 40001 32970 00403 10022 21016 40255 53006 333 10130
AAXX 29181 40007 31901 02802 10013 20012 40255 51009 74340 333 10104
AAXX 29181 40025 32960 00502 10072 20045 40211 52006 333 10166
AAXX 29181 40045 32970 00000 10026 21033 40256 53008 333 10125
AAXX 29181 40061 32970 03601 10064 21021 40240 52014 333 10126
AAXX 29181 40080 32965 00000 10038 21043 39499 40240 52009 333 10142
AAXX 29181 40087 NIL
AAXX 29181 40095 NIL
AAXX 29181 40009 32970 00000 10029 20005 40227 52008 333 10136
AAXX 29181 40016 NIL
AAXX 29181 40022 32965 00301 10098 20050 40203 51002 333 10172
AAXX 29181 40030 31/06 90000 10052 20047 40240 52005 74044 89/// 333 10060 89/02
AAXX 29181 40039 31903 00000 10010 20005 40240 51005 74340
AAXX 29181 40066 32970 00504 10083 20005 40203 53003 333 10168
AAXX 29181 40072 32970 00000 10064 20015 40260 53004 333 10132
AAXX 29181 40083 32970 01401 10020 21035 48506 52007 333 10100
BBXX A8UE5 29184 99540 71582 41297 72819 11010 21011 40055 52015 77077 8499/ 22224 04040 20402 330// 40905 5//// 81010
BBXX ELWZ5 29184 99456 71664 41597 42908 10052 20028 40183 51005 7//00 8346/ 22224 04120 2//01 333 // 4//01 5//// 80041
BBXX OZBY2 29184 99382 71526 41596 83125 10140 20090 40210 52030 70222 884// 22224 00150 20802 310// 41206 5//// 6//// 80110 ICE /////
BBXX WCX8883 29184 99424 71612 41398 63607 10080 20040 40198 52008 7//11 864// 22225 00100 20805 32535 40802 5//// 6//// 80060 ICE /////
BBXX 3FMH7 29184 99326 11784 41598 83124 00/// 10190 20142 40188 53015 70322 87/// 9//// 22263 00200 1//// 20504 399// 41208 5//// 6//// 80160
BBXX DGXS 29184 99531 11791 41598 82322 11020 21051 40142 53004 72277 8651/ 22224 00050 20401 3//// 4//// 5//// 82030
BBXX H9UY 29184 99302 11526 41498 73126 00/// 10190 40138 5610 70322 8789/ 9//// 22273 04220 20706 332// 40706 5//// 6//// 80160
BBXX SHIP 29184 99368 11723 41/96 42728 10130 20113 40153 56001 70102 8//// 91750 22224 00180 2//// 3//// 4//// 5//// 80120
BBXX WCX8812 29184 99510 11794 41299 23600 10010 21020 40154 56007 71570 824// 22254 00050 2//// 3//// 4//// 5//// 6//// 80000 ICE /////
BBXX 46004 29181 99509 71361 46/// /1111 10036 49971 57049 22200 00074 11009 70047 333 91214
AAXX 29181 31442 42997 50000 11272 21296 39927 40320 54000 80001
BBXX 46004 29181 99509 71361 46/// /1111 10036 49971 57049 22200 00074 11009 70047 333 91214
AAXX 29181 56671 32980 00000 10029 20000 38226 52007 333 00255 10185
AAXX 29181 57378 31920 83402 10038 20018 40340 54000 71000 8807/ 333 10066
AAXX 29181 57426 31756 80000 10059 20056 40304 52003 71000 885// 333 00300 10074
AAXX 29181 57476 32960 80203 10052 20017 40335 52006 8807/ 333 10074
AAXX 29181 57584 31950 80203 10054 20021 40330 52008 71000 8807/ 333 10077
AAXX 29181 57598 32760 80201 10075 20045 40313 52007 885// 333 10093
AAXX 29181 57655 32960 83602 10068 21006 40325 52001 8807/ 333 10086
AAXX 29181 57713 NIL
AAXX 29181 57776 31/00 93603 11021 21027 40325 52003 74944 333 10011
AAXX 29181 58321 31656 80703 10052 20004 40349 52007 71000 885// 333 10090
AAXX 29181 58437 31/00 91403 11028 21028 38210 52002 74944 333 10013
AAXX 29181 58445 NIL
AAXX 29181 58556 11657 80205 10071 20030 40312 52006 69911 70560 885// 333 10102
AAXX 29181 58569 11562 83406 10078 20042 40299 52005 69901 70060 8117/ 333 10110
AAXX 29181 58646 11650 80000 10087 20065 40295 52003 60021 76066 885// 333 10121
AAXX 29181 58653 NIL
AAXX 29181 58660 NIL
AAXX 29181 58715 11340 83203 10071 20056 40293 52002 60021 76066 887// 333 10086
AAXX 29181 58730 11256 82902 10089 20075 40279 52006 60021 76166 8272/ 333 10114
AAXX 29181 58731 11240 80701 10081 20073 40280 54000 60021 76066 885// 333 10101
AAXX 29181 58754 11557 83601 10095 20071 40288 54000 60031 76066 885// 333 10136
AAXX 29181 58911 11450 82702 10076 20059 40275 52007 60021 76066 885// 333 10121
AAXX 29181 58931 11/00 92501 10054 20054 38397 54000 60041 76064 333 10095
AAXX 29181 59254 31758 80701 10125 20099 40253 52008 71000 885// 333 10170
AAXX 29181 59632 32760 83603 10130 20083 40239 52011 885// 333 10204
AAXX 29181 59855 32570 73201 10196 20168 40195 57002 871// 333 10251
AAXX 29184 43198 32996 20000 10164 20063 39287 40126 80001 333 59010 82075
AAXX 29184 43201 32996 09902 10196 20087 39393 40120 333 59005
AAXX 29184 43213 32996 40903 10250 20187 39801 40119 82032 333 59001
AAXX 29184 43226 32996 00901 10206 20174 30079 40109 333 59014
AAXX 29184 43233 32996 30000 10204 20134 39301 40114 80001 333 59008
AAXX 29184 43284 32996 63610 10254 20174 39977 40093 80001 333 59015 86075
AAXX 29184 43295 32496 80902 10220 20163 39085 48494 83531 333 56299 59015 83616 84358 85075
AAXX 29184 43311 32996 03606 10268 20211 40094 333 59020
AAXX 29184 43314 32996 20000 10250 20204 40091 80001 333 59019
AAXX 29184 43321 31496 72106 10236 20171 39647 40094 70522 84531 333 59015
AAXX 29184 43346 21495 82721 10228 20216 30031 40038 75065 8472/ 333 59050 6009/ 84718 86458
AAXX 29184 43369 32596 33206 10215 40111 81501 333 59004 81620 83075
AAXX 29184 43371 32596 62706 10250 20232 30022 40095 83802 333 59008 82620 85075
AAXX 29184 43086 NIL
AAXX 29184 43128 NIL
AAXX 29184 43150 NIL
AAXX 29184 43185 NIL
AAXX 29184 43189 NIL
AAXX 29184 43237 NIL
AAXX 29184 43245 NIL
AAXX 29184 43279 NIL
AAXX 29184 43329 NIL
AAXX 29184 43344 NIL
AAXX 29184 43353 NIL
AAXX 29181 45032 36/// /2701 10148 20135 30206 40223 54000
AAXX 29181 45035 36/// /0101 10160 20140 30180 40222 54000
AAXX 29181 45039 36/// /0002 10171 20141 30204 40218 54000
AAXX 29181 45044 36/// /0405 10169 20134 30122 40217 54000
AAXX 29181 45032 36/// /2701 10148 20135 30206 40223 54000
AAXX 29181 45035 36/// /0101 10160 20140 30180 40222 54000
AAXX 29181 45039 36/// /0002 10171 20141 30204 40218 54000
AAXX 29181 45044 36/// /0405 10169 20134 30122 40217 54000
BBXX 46232 29181 99325 71174 46/// ///// 1//// 91808 22200 00147 11303 20802 327// 41302 70014
BBXX 46247 29181 99378 71228 46/// ///// 1//// 91821 22200 00114 11204 21003 328// 41204 70022
BBXX 46246 29181 99500 71451 46/// ///// 1//// 91829 22200 00069 11408 21004 326// 41406 70038
BBXX 46246 29181 99500 71451 46/// ///// 1//// 91759 22200 00069 11306 20904 326// 41305 70032
AAXX 29184 71153 17/// /2816 10049 21057 69931 7//4/ 333 10067 20019 70003
AAXX 29184 71359 16/// /2102 11051 21054 60001 333 11051 21092 70005
AAXX 29184 71315 16/// ///// 11130 21192 39842 49896 53021 60001 333 11035 21131 70011
AAXX 29184 71500 17/// /2813 10027 21005 60021 7//4/ 333 10028 21057 70021
AAXX 29184 71504 17/// ///// 10025 21001 69991 7//4/ 333 10026 21083 70009
AAXX 29184 71541 16/// /2412 10004 21038 60001 333 10006 21061 70000
AAXX 29184 71543 16/// /2420 10001 21053 60001 333 10003 21125 70000
AAXX 29184 71546 16/// /2518 10027 21057 60001 333 10031 21075 70000
AAXX 29184 71547 16/// /2523 10016 21062 60001 333 10022 21091 70000
AAXX 29184 71549 16/// ///// 11005 21016 60001 333 11005 21097 7////
AAXX 29184 71283 16/// /2509 11003 21038 60001 333 10012 21121 70000
AAXX 29184 71011 16/// ///// 10024 21003 60001 333 10036 21048 70000
AAXX 29184 71049 16/// /0000 11261 30109 40134 58007 60001 333 11261 21352 70000
AAXX 29184 71221 16/// /2514 10014 21041 60001 333 10017 21106 70000
AAXX 29184 71226 17/// /2615 10036 21032 69941 7//4/ 333 10037 21082 70008
AAXX 29184 71229 46/// /1905 11105 21118 6///1 333 10020 7////
AAXX 29184 71244 16/// /2823 10054 21049 38794 49993 51047 60001 333 10075 20017 70000
AAXX 29184 71405 17/// ///// 10014 20006 60031 7//4/ 333 10014 21108 70025
AAXX 29184 71417 17/// /2416 10013 21005 39729 49762 55002 69961 7//4/ 333 10042 21003 70078
AAXX 29184 71426 46/// /3024 11145 6///1 333 11092 21150 7////
AAXX 29184 71888 17/// ///// 11044 21051 60011 7//4/ 333 11044 21086 70011
AAXX 29184 71895 17/// ///// 10020 20006 60011 7//4/ 333 10022 21090 70011
AAXX 29184 71761 17/// ///// 11045 21051 69951 7//4/ 333 11045 21120 70005
AAXX 29184 71788 16/// /3122 10074 21018 60001 333 10088 20037 70000
AAXX 29184 71792 16/// ///// 10010 20002 60001 333 10037 21090 7////
AAXX 29184 71673 17/// ///// 10016 20007 60011 7//4/ 333 10016 21116 70011
AAXX 29184 71690 16/// ///// 11003 21048 60001 333 11002 21101 70004
AAXX 29184 71067 17/// ///// 10011 21002 60011 7//4/ 333 10011 21092 70011
AAXX 29184 71461 16/// /2524 10027 21042 60001 333 10032 21072 70000
AAXX 29184 71468 16/// /1221 11066 21068 39725 40051 58009 60001 333 21155 70000
AAXX 29184 71483 16/// ///// 10030 21021 60001 333 10030 21125 70000
AAXX 29184 71359 16/// /2102 11051 21054 60001 333 11051 21092 70005
AAXX 29184 71153 17/// /2816 10049 21057 69931 7//4/ 333 10067 20019 70003
AAXX 29184 71500 17/// /2813 10027 21005 60021 7//4/ 333 10028 21057 70021
AAXX 29184 71504 17/// ///// 10025 21001 69991 7//4/ 333 10026 21083 70009
AAXX 29184 71541 16/// /2412 10004 21038 60001 333 10006 21061 70000
AAXX 29184 71543 16/// /2420 10001 21053 60001 333 10003 21125 70000
AAXX 29184 71546 16/// /2518 10027 21057 60001 333 10031 21075 70000
AAXX 29184 71547 16/// /2523 10016 21062 60001 333 10022 21091 70000
AAXX 29184 71549 16/// ///// 11005 21016 60001 333 11005 21097 7////
AAXX 29184 71315 16/// ///// 11130 21192 39842 49896 53021 60001 333 11035 21131 70011
AAXX 29184 71283 16/// /2509 11003 21038 60001 333 10012 21121 70000
AAXX 29184 71888 17/// ///// 11044 21051 60011 7//4/ 333 11044 21086 70011
AAXX 29184 71895 17/// ///// 10020 20006 60011 7//4/ 333 10022 21090 70011
AAXX 29184 71011 16/// ///// 10024 21003 60001 333 10036 21048 70000
AAXX 29184 71049 16/// /0000 11261 30109 40134 58007 60001 333 11261 21352 70000
AAXX 29184 71221 16/// /2514 10014 21041 60001 333 10017 21106 70000
AAXX 29184 71226 17/// /2615 10036 21032 69941 7//4/ 333 10037 21082 70008
AAXX 29184 71229 46/// /1905 11105 21118 6///1 333 10020 7////
AAXX 29184 71244 16/// /2823 10054 21049 38794 49993 51047 60001 333 10075 20017 70000
AAXX 29184 71761 17/// ///// 11045 21051 69951 7//4/ 333 11045 21120 70005
AAXX 29184 71788 16/// /3122 10074 21018 60001 333 10088 20037 70000
AAXX 29184 71792 16/// ///// 10010 20002 60001 333 10037 21090 7////
AAXX 29184 71405 17/// ///// 10014 20006 60031 7//4/ 333 10014 21108 70025
AAXX 29184 71417 17/// /2416 10013 21005 39729 49762 55002 69961 7//4/ 333 10042 21003 70078
AAXX 29184 71426 46/// /3024 11145 6///1 333 11092 21150 7////
AAXX 29184 71067 17/// ///// 10011 21002 60011 7//4/ 333 10011 21092 70011
AAXX 29184 71673 17/// ///// 10016 20007 60011 7//4/ 333 10016 21116 70011
AAXX 29184 71690 16/// ///// 11003 21048 60001 333 11002 21101 70004
AAXX 29184 71461 16/// /2524 10027 21042 60001 333 10032 21072 70000
AAXX 29184 71468 16/// /1221 11066 21068 39725 40051 58009 60001 333 21155 70000
AAXX 29184 71483 16/// ///// 10030 21021 60001 333 10030 21125 70000
BBXX 46146 29181 99493 71237 46/// /1802 10070 40165 52017 22200 00074 10300 70002 333 91202
BBXX 46146 29181 99493 71237 46/// /1802 10070 40165 52017 22200 00074 10300 70002 333 91202
AAXX 29181 56144 32980 00000 11065 21194 36868 52005 333 05152 10100
AAXX 29181 56152 32980 02701 11157 21213 36311 57002 333 00052 10042
AAXX 29181 56167 32980 00000 11086 21133 37100 52003 333 00051 10126
AAXX 29181 56182 32980 00000 11071 21135 37218 52001 333 00253 10120
AAXX 29181 56357 32980 00000 11101 21220 36460 57002 333 00052 10088
AAXX 29181 56586 11458 83601 10003 21011 38099 52005 69901 76060 885// 333 00301 10050
AAXX 29181 56748 32980 00000 10065 20048 38383 52009 333 00053 10183
AAXX 29181 56763 32980 01602 10128 20045 40141 52011 333 00154 10257
AAXX 29181 56768 32980 03401 10069 20042 38205 52006 333 00054 10183
AAXX 29181 56838 32668 13401 10126 20108 40184 52005 81400 333 05153 10247
AAXX 29181 56886 31756 81803 10061 20051 38337 52005 71000 884// 333 00356 10201
AAXX 29181 56946 32580 12001 10098 20090 40186 52006 81100 333 00055 10239
AAXX 29181 56959 32965 02701 10140 20140 40180 52011 333 05152 10252
AAXX 29181 56969 31/06 90401 10141 20138 40191 52008 74340 333 05151 10213
AAXX 29181 57731 32662 80000 10069 21010 40312 52003 885// 333 00400 10086
AAXX 29181 57766 31758 82701 10059 20031 40321 52002 71000 885// 333 10072
AAXX 29181 57845 11760 83601 10048 20015 40309 54000 69911 70060 885// 333 10053
AAXX 29181 57853 11730 80000 10048 20023 40325 52004 69911 71060 885// 333 10050
AAXX 29181 57916 32662 81101 10101 20036 40274 52005 885// 333 00500 10129
AAXX 29181 57922 32661 83603 10043 21017 40294 52006 885// 333 00400 10080
AAXX 29181 57932 31656 80000 10069 20033 40308 52003 71000 885// 333 00451 10079
AAXX 29181 58338 31759 80403 10054 20008 40332 52006 71000 885// 333 10103
AAXX 29181 59007 11462 80202 10056 20036 40260 52004 69921 70060 885// 333 10096
AAXX 29181 59046 11760 83602 10089 20049 40280 52007 69911 70060 885// 333 10108
AAXX 29181 59058 11457 83203 10080 20051 40279 52009 69911 71060 885// 333 10117
AAXX 29181 59072 11762 83603 10073 20046 40290 52009 69901 70060 885// 333 10096
AAXX 29181 59087 11760 83201 10112 20082 40257 52014 69901 76000 885// 333 10196
AAXX 29181 59209 11460 83401 10090 20068 40257 52007 69911 76066 887// 333 10122
BBXX 46243 29181 99462 71241 46/// ///// 1//// 91829 22200 00090 11307 21005 326// 41305 70033
BBXX 46240 29181 99366 71219 46/// ///// 1//// 91812 22200 00121 11302 21001 335// 41302 70012
BBXX 46236 29181 99368 71219 46/// ///// 1//// 91820 22200 00122 11404 20902 328// 41403 70018
BBXX 46229 29181 99438 71246 46/// ///// 1//// 91821 22200 00092 11207 21005 328// 41205 70036
BBXX 46217 29181 99342 71194 46/// ///// 1//// 91812 22200 00145 11302 21002 327// 41302 70012
BBXX 46225 29181 99329 71174 46/// ///// 1//// 91814 22200 00150 11302 21001 327// 41301 70009
BBXX 46215 29181 99352 71209 46/// ///// 1//// 91808 22200 00152 11304 21003 327// 41303 70019
BBXX 44039 29181 99411 70727 46/// /2705 11012 21098 40160 91753 22200 00084 10401 70006 333 91207
BBXX 44099 29181 99369 70757 46/// ///// 1//// 91822 22200 00110 11301 20901 309// 41301 70007
AAXX 29184 87938 32680 83220 10143 21016 39904 49972 57040 8687/ 333 56009 86835 88360
BBXX 42013 29181 99272 70829 46/// ///// 1//// 40199 91740 22200 00204
BBXX 41010 29181 99289 70785 46/// /2706 10189 40196 91820 22200 00236 11502 20501 300// 41502 70010 333 91207 555 11062 22064
BBXX 41009 29181 99285 70802 46/// /3404 10172 20072 40199 91820 22200 00236 11402 20401 300// 41402 70009 333 91205 555 11038 22039
BBXX 44100 29181 99363 70756 46/// ///// 1//// 91822 22200 00125 11402 20602 307// 41401 70011
BBXX 41110 29181 99341 70777 46/// ///// 1//// 91821 22200 00141 11501 20801 311// 41501 70007
BBXX 42099 29181 99273 70842 46/// ///// 1//// 91827 22200 00240 10301 20301 70005
BBXX 41113 29181 99284 70805 46/// ///// 1//// 91821 22200 00215 11401 20801 308// 41401 70005
BBXX 41112 29181 99307 70813 46/// ///// 1//// 91821 22200 00168 11701 309// 41701 70005
BBXX 42361 29181 99276 70925 46/// ///04 10256 20089 40166 58024 91830 555 11036 22038
BBXX 42362 29181 99278 70907 46/// /2502 10211 20089 40186 91830
BBXX 42363 29181 99282 70892 46/// /3104 10211 20111 40190 91830 333 91204
BBXX 42364 29181 99291 70881 46/// /0902 10217 20133 40183 91830
BBXX 46145 29181 99544 71324 46/// /2006 10032 40063 52012 22200 00069 11107 70034 333 91208
BBXX KS094 29184 99170 70618 43/// /1216 10268 40176 22200 06259
BBXX KS088 29184 99267 70801 43/// /0703 10203 40183 22200 06215
BBXX KS007 29184 99267 70801 43/// ///// 10200 40145 22200
BBXX 46145 29181 99544 71324 46/// /2006 10032 40063 52012 22200 00069 11107 70034 333 91208
BBXX 44258 29181 99445 70634 46/// /2515 11003 49958 52013 22200 00059 11209 70044 333 91219
BBXX 44258 29181 99445 70634 46/// /2515 11003 49958 52013 22200 00059 11209 70044 333 91219
BBXX 44140 29181 99429 70515 46/// /2105 10144 40051 52005 22200 00083 10906 70030 333 91206
AAXX 29184 96009 31450 50903 10256 20244 30078 40113 52002 70511 82221 333 56000 57803 82816 80860
AAXX 29184 96011 32559 50904 10256 20241 30090 40116 57001 83531 333 56000 83620
AAXX 29184 96035 31550 60000 10258 20241 30084 40122 52004 70522 83536 333 56000 83620
AAXX 29184 96073 31450 70000 10260 20245 30096 40108 56005 70522 84972 333 56000 57901 84913 80959
AAXX 29184 96091 31456 60000 10244 20229 30096 40119 57009 70522 82528 333 56000 82613 85460
AAXX 29184 96109 32457 60000 10246 20231 30066 40106 58002 83531 333 56000 83618
AAXX 29184 96145 01420 80104 10248 20242 30103 40106 50000 60051 72162 8652/ 333 56809 60057 86615 88460
AAXX 29184 96147 NIL
AAXX 29184 96163 32558 40000 10220 20209 30111 40113 57003 82521 333 56000 82620
AAXX 29184 96179 NIL
AAXX 29184 96195 NIL
AAXX 29184 96221 32460 60000 10264 20246 30091 40106 57007 82531 333 56999 82615
AAXX 29184 96237 32457 80000 10250 20242 30064 40106 58006 83272 333 56000 57803 83817 84360 86080 80858
AAXX 29184 96249 32460 70000 10256 20250 30043 40104 57011 84932 333 56700 57971 57871 81917 83820 80981
AAXX 29184 96253 32558 60303 10250 20237 30073 40093 57008 82832 333 56000 57800 81820 83080
AAXX 29184 96295 NIL
AAXX 29184 96509 32458 70000 10258 20248 30092 40103 58016 83271 333 56000 57802 83815 80865
AAXX 29184 96581 01456 80000 10247 20244 30103 40110 55004 60201 76162 8697/ 333 56609 57962 60127 81912 85810 88462 80980 80856
AAXX 29184 96633 32458 72804 10270 20234 30084 40092 57011 83571 333 56000 83618 85460
AAXX 29184 96645 NIL
AAXX 29184 96655 NIL
AAXX 29184 96685 NIL
AAXX 29184 96749 31558 72506 10262 20237 30099 40112 55004 70522 82543 333 56000 82625 85362
AAXX 29184 96781 NIL
AAXX 29184 96805 01558 72605 10266 20236 30105 40114 56004 69901 72122 83271 333 56000 57801 69907 83820 80858
AAXX 29184 96839 32557 70000 10254 20239 30091 40098 57021 84132 333 56000 83820
AAXX 29184 96935 NIL
BBXX 44140 29181 99429 70515 46/// /2105 10144 40051 52005 22200 00083 10906 70030 333 91206
AAXX 29184 97008 01458 60000 10246 20237 30083 40093 57006 60111 72162 83572 333 56000 60117 83619
AAXX 29184 97016 01559 80804 10262 20213 30087 40089 57021 60061 70262 8222/ 333 56009 57801 60037 82820 88459 80860
AAXX 29184 97126 01456 83001 10246 20237 30045 40105 56010 60031 70262 8392/ 333 56009 57900 69967 82915 88460 80980
AAXX 29184 97182 NIL
AAXX 29184 97240 NIL
AAXX 29184 97310 11450 70000 10251 20245 30068 40080 57023 60021 71462 84221 333 56000 57802 60017 84818 87460 80840
AAXX 29184 97320 01458 80000 10258 20252 30071 40084 57024 60061 72162 8482/ 333 56009 57801 60017 82818 88459 80858
AAXX 29184 97378 01560 60000 10242 20232 39927 40090 56017 60021 72996 83971 333 56000 81920 83820
AAXX 29184 97406 32460 50000 10238 20235 30056 40081 57013 83241 333 56000 57802 83819 80860
AAXX 29184 97570 32459 53504 10256 20232 30073 40080 57010 83101 333 56600 83815
AAXX 29184 97630 NIL
AAXX 29184 97700 NIL
AAXX 29184 97722 32462 70000 10245 20224 30065 40080 57025 84872 333 56600 57861 83818 80857
AAXX 29184 96001 NIL
AAXX 29184 96015 32440 60000 10260 20248 30114 40121 52008 84572 333 56000 84617
AAXX 29184 96033 31450 60000 10268 20247 30116 40122 51003 70522 82928 333 56000 57903 81920 82617 80980
AAXX 29184 96075 32457 60000 10241 20238 30094 40100 57008 83571 333 56000 83617
AAXX 29184 96087 31458 70000 10248 20222 30081 40115 56007 70522 81571 333 56000 81615 85360 86080
AAXX 29184 96171 31440 70000 10246 20231 30087 40112 57002 70521 84522 333 56000 84616
AAXX 29184 96207 31410 70000 10218 20172 39250 40172 52011 70522 84531 333 56000 84614
AAXX 29184 96525 31456 80000 10250 20237 30097 40106 57013 71522 84271 333 56000 84614 86460
AAXX 29184 96529 32450 70000 10250 20237 30100 40124 58010 84121 333 56000 84818 86460
AAXX 29184 96559 01325 80000 10236 20234 30072 40110 52015 60041 76166 8692/ 333 56609 57963 57864 69947 81913 85808 88460 80972 80847
AAXX 29184 96607 32458 80000 10265 20246 30100 40115 56007 8592/ 333 56009 57980 81915 85614 88460 809//
AAXX 29184 96615 32456 70000 10266 20252 30100 40114 57010 83171 333 56000 57802 83812 87462 80856
AAXX 29184 96737 31450 60000 10246 20234 30064 40094 58006 70522 84521 333 56000 84618
AAXX 29184 96739 32450 72403 10245 20229 30060 40109 57008 83522 333 56000 83618
AAXX 29184 96741 32550 82604 10272 20228 30095 40099 57006 8357/ 333 56009 83620 86460
AAXX 29184 96745 32556 70000 10268 20229 30100 40105 57006 84521 333 56000 84620 87460
AAXX 29184 96751 NIL
AAXX 29184 96791 11440 80000 10263 20251 30048 40124 84971 333 56009 57000 69917 579// 81915 84618 85460 809//
AAXX 29184 96797 11558 62003 10248 20242 30095 40101 57015 60021 70162 82271 333 56000 57802 82820 80862
AAXX 29184 96837 NIL
AAXX 29184 96925 11462 80000 10261 20244 30095 40100 56012 69901 71462 8527/ 333 56609 57860 85817 87460 80860
AAXX 29184 96933 32460 52802 10273 20236 30094 40097 57007 82571 333 56600 81618
AAXX 29184 96937 32557 62705 10278 20233 30090 40095 58010 83111 333 56000 83820
AAXX 29184 96973 32558 73106 10274 20245 30085 40091 57012 83231 333 56000 57803 83820 80850
AAXX 29184 96987 31457 72203 10254 20230 30034 40098 57013 71422 83528 333 56400 83618
AAXX 29184 97014 01450 71201 10225 20218 30022 40115 57016 60541 76166 84871 333 56700 57871 60067 83817 80860
AAXX 29184 97028 NIL
AAXX 29184 97048 01450 80205 10264 20257 30062 40086 57012 69931 76062 85973 333 56000 57901 69937 81914 83614 85460 80980
AAXX 29184 97072 NIL
AAXX 29184 97086 NIL
AAXX 29184 97096 01458 80000 10256 20246 30085 40106 57010 60041 76166 8522/ 333 56009 60037 85613 88460
AAXX 29184 97120 01457 83602 10234 20228 30074 40107 57012 60561 76196 8382/ 333 56009 57802 60177 82818 88460 80860
AAXX 29184 97146 NIL
AAXX 29184 97180 01450 70504 10243 20243 30084 40102 58018 60021 76162 83272 333 56000 69967 83618 85460
AAXX 29184 97192 NIL
AAXX 29184 97230 32460 72306 10255 20236 30090 40097 56010 85232 333 56600 57861 85817 80858
AAXX 29184 97260 01456 71201 10247 20241 30072 40079 57024 60011 71562 86931 333 56000 57904 60017 81918 80980 85618
AAXX 29184 97270 31440 80000 10244 20238 30081 40086 57028 71422 8682/ 333 56009 82813 84617 87460
AAXX 29184 97300 NIL
AAXX 29184 97340 NIL
AAXX 29184 97372 32458 40000 10244 20240 39960 40080 57024 81131 333 56000 81818 83359
AAXX 29184 97430 11460 73408 10260 20230 30060 40090 57019 69981 70262 84232 333 56700 57871 84818 80860
AAXX 29184 97460 32459 60000 10254 20234 30059 40083 57008 83836 333 56000 57802 82818 80858
AAXX 29184 97502 32450 40000 10256 20247 30069 40073 57020 82432 333 56000 82610
AAXX 29184 97530 NIL
AAXX 29184 97560 32460 73202 10259 20248 30058 40073 57013 83977 333 56000 57903 57804 81917 82820 84361 86279 80980 80860
AAXX 29184 97686 NIL
AAXX 29184 97690 NIL
AAXX 29184 97724 01459 83202 10254 20244 30061 40078 57022 60011 70562 8587/ 333 56709 57871 60017 83818 80856
AAXX 29184 97748 31456 82416 10276 20250 30054 40056 56002 70592 8494/ 333 56609 57960 83913 86358 80940
AAXX 29184 97760 32456 71002 10270 20241 30083 40092 57009 83932 333 56000 57901 81915 82816 80960
AAXX 29184 97796 01450 70000 10247 20241 30033 40083 57010 60021 72166 84321 333 56000 57900 69987 81912 84611 86460
AAXX 29184 97810 32458 73007 10276 20253 30058 40067 56009 84872 333 56700 57871 82819 80858
AAXX 29184 97900 11560 72903 10267 20258 30043 40072 55013 70262 84220 333 56600 57861 84820 87460 80850
AAXX 29184 97980 NIL
AAXX 29184 89610 46/// /0410 11031 39680 4//// 5//// 333 90700 91113
AAXX 20181 98134 NIL
AAXX 20181 98223 32562 70000 10240 20208 40131 53001 81260 333 56999 81820 87360
AAXX 20181 98232 31570 80401 10236 20191 40163 58010 71522 8457/ 333 56999 84620 88358
AAXX 20181 98325 NIL
AAXX 20181 98328 11450 81103 10172 20169 38540 40107 58003 69941 74684 885// 333 56999 88612
AAXX 20181 98330 32470 30000 10250 20238 30103 40135 58005 81230 333 56999 81818 83358
AAXX 20181 98336 11462 70402 10230 20229 30148 40153 58010 69951 72162 82521 333 56199 82615 84457
AAXX 20181 98429 31560 31001 10262 20229 40134 58006 70544 82200 333 56999 82825 83360
AAXX 20181 98430 31558 11102 10255 20216 40135 58002 70540 81100 333 56999 81820
AAXX 20181 98431 11458 81201 10250 20236 30080 40127 58009 60021 70282 83870 333 56999 83818 88359
AAXX 20181 98440 31462 40905 10264 20232 30131 40136 58010 70544 82230 333 56299 82815 83358
AAXX 20181 98444 NIL
AAXX 20181 98526 32570 63604 10273 20245 40117 58019 81108 333 56999 81820 86274
AAXX 20181 98531 31568 20901 10267 20230 30120 40124 51003 70544 81230 333 56199 81820
AAXX 20181 98536 32465 30402 10238 20217 39925 40131 58002 82260 333 56199 82818
AAXX 20181 98543 NIL
AAXX 20181 98550 NIL
AAXX 20181 98618 32570 62702 10255 20230 40112 58012 83208 333 56999 83820 86274
AAXX 20181 98630 NIL
AAXX 20181 98637 NIL
AAXX 20181 98646 11558 83603 10248 20237 30110 40138 57010 60071 76166 8382/ 333 56899 83820 88458
AAXX 20181 98653 NIL
AAXX 20181 98741 NIL
AAXX 20181 98747 31460 42402 10236 20225 39902 40106 57009 70544 82260 333 56999 82818 84358
AAXX 20181 98753 NIL
AAXX 20181 98755 11460 83601 10250 20248 40102 58017 60031 78082 8452/ 333 56999 84618 88458
AAXX 20181 98836 31460 70000 10260 20233 40111 57015 70544 82270 333 56999 82818 87362
BBXX WDB8583 29194 99554 71321 42/97 21220 10000 2//// 40800 5//// 7//// 8//// 222// 0//// 2//01 3//// 4//// 6////
BBXX 46036 29181 99484 71339 46/// /1614 10080 49975 57056 22200 00080 11209 70044 333 91217
BBXX 64045 29184 99591 70117 46/// /3026 10061 20011 40104 52027 22200 00099 11016 70080 333 90710 91145
BBXX 63055 29184 99606 10016 47798 /3318 10045 20012 49927 53016 700// 22200 10808 70039
BBXX 63106 29184 99610 10017 46/// /3622 10047 49929 52025 22200
BBXX 63105 29184 99610 10017 47598 ///// 10046 21000 49931 52027 751// 22200
BBXX 62304 29184 99511 10018 46/97 /2537 10084 20055 40143 57031 22200 00108 10603 70016 333 90710 91152
BBXX 62103 29184 99499 70029 46/98 /2738 10112 20070 40244 56009 22200 00117 10907 70037 333 90710 91155
BBXX 63110 29183 99595 10015 41/98 /3327 10080 49935 700// 8//// 22200 10808 70040
AAXX 29184 63688 32480 10808 10162 20109 48/// 81500 333 10247 59005 81618
AAXX 29184 63708 32980 10000 10236 20198 48486 81030 333 10300 59011 81359
AAXX 29184 63740 32480 60610 10188 20140 48517 83530 333 10231 59006 83619 84358
AAXX 29184 63820 32580 20805 10270 20240 40116 81130 333 10321 59005 81824
AAXX 29184 63612 NIL
AAXX 29184 63661 NIL
AAXX 29184 63671 NIL
AAXX 29184 63695 NIL
AAXX 29184 63714 NIL
AAXX 29184 63723 NIL
AAXX 29184 63772 NIL
AAXX 29184 63793 NIL
AAXX 29184 83766 32597 60502 10298 20195 39446 40086 5//// 86200
AAXX 29184 83836 32497 81403 10230 20172 39128 40091 56013 8427/
AAXX 29184 83881 32597 51403 10316 20192 39795 40070 58020 83304
AAXX 29184 83980 31796 20906 10270 20123 39842 40118 57022 70510 82040
AAXX 29184 83997 32497 20908 10265 20147 30124 40167 58010 81101
AAXX 29181 20046 NIL
AAXX 29181 20069 NIL
AAXX 29181 20087 NIL
AAXX 29181 20292 NIL
AAXX 29181 20353 46/// /0000 11069 21095 39813 49817 57001
AAXX 29181 20667 11998 81607 11119 21132 39876 49883 51001 69930 73673 8805/ 333 11116
AAXX 29181 20674 41/93 92014 11132 21145 39890 49951 52004 73832 333 91120 92981
AAXX 29181 20744 11998 21605 11087 21111 39835 49853 52011 69900 70282 82030 333 11042
AAXX 29181 20891 42998 31602 11215 21247 30074 40119 53010 80001 333 91105
AAXX 29181 23022 11596 81809 11090 21106 39792 49853 52001 69900 78583 889// 333 11093 91113
AAXX 29181 23032 11597 81506 11104 21124 39848 49878 58003 69900 70232 885// 333 11094 88631
AAXX 29181 23058 11496 81405 11133 21146 39947 49951 58016 69930 77173 8802/ 333 11129 88510
AAXX 29181 23242 11497 31302 11124 21144 39899 49915 57012 69900 70231 83500 333 11118
AAXX 29181 23256 11496 81606 11098 21115 39922 49958 57011 60010 78583 883// 333 11114 84910
AAXX 29181 23330 11297 80000 11139 21152 39882 49903 57006 69920 70272 83736 333 11114 83706
AAXX 29181 23445 11597 81102 11073 21078 39869 49895 57011 69980 77187 8652/ 333 11093 86624
AAXX 29181 23552 11396 81303 11049 21059 39905 49939 57010 60020 78587 889// 333 11060 88908
AAXX 29181 23631 11997 83102 11127 21140 39873 49915 52013 60010 77172 8807/ 333 11100
AAXX 29181 23662 11497 81504 11042 21058 39956 40000 57011 69930 77872 8552/ 333 11062
AAXX 29181 23724 32998 00000 11196 21215 39881 49950 52012 333 11116
AAXX 29181 23734 11997 83101 11105 21118 39800 49892 52019 60020 77172 8807/ 333 11077
AAXX 29181 23849 41356 71506 11026 21043 49885 54000 73633 87900 333 83709
AAXX 29181 23867 11496 81605 11048 21068 39937 40009 57001 60020 77173 8872/ 333 11035 91112
AAXX 29181 23933 11995 80000 11032 21036 39797 49852 52010 60032 77382 8807/ 333 11016
AAXX 29181 28064 11496 83004 11085 21096 39832 49924 52043 60020 77172 8802/ 333 11012
AAXX 29181 28275 12597 82102 11056 21078 39866 49925 52032 60040 885// 333 11009
AAXX 29181 28493 11996 72005 11020 21041 39895 49986 52018 69950 77173 87070 333 10003 91112
AAXX 29181 28698 11597 82002 11042 21072 39866 40021 52015 60020 70232 885// 333 11002 88630 91113
AAXX 29181 23426 11965 80000 11121 21134 39888 49913 52002 69950 77172 8802/ 333 11109
AAXX 29181 23625 11998 03201 11175 21194 39898 49933 52012 60040 70271 333 11105
AAXX 29181 28076 11495 82302 11020 21020 39807 49877 52036 60050 77372 8872/ 333 11017
AAXX 29181 28367 11984 62602 11072 21097 39822 49951 52037 69920 77172 86070 333 11007
AAXX 29181 28382 11497 81903 11011 21043 39869 49939 52027 69980 78788 889// 333 10000
AAXX 29181 28481 11597 82004 11020 21045 39860 49957 51018 69960 70272 885// 333 10003
AAXX 29181 28491 11497 82105 11017 21028 39854 49963 52024 60040 73673 8802/ 333 11003 88516 91112
AAXX 29181 28573 11997 21803 11050 21067 39860 49964 52028 69920 70231 82030 333 10000
AAXX 29181 28593 11697 82005 11023 21070 39903 40000 52018 69920 73632 8657/ 333 10002 86638 91115
AAXX 29181 28786 11997 81704 11064 21083 39861 40020 52014 69900 70231 8807/ 333 11007 91112
AAXX 29181 28797 12997 21804 11084 21099 39874 40034 52012 69900 80001 333 10001 91114
AAXX 29181 28799 11997 52003 11051 21072 39908 40053 52010 60010 70232 85070 333 11002
BBXX 44060 29181 99413 70721 46/// ///06 11010 40145 91830 22200 00091 333 91208 555 11062 22067
BBXX 44022 29181 99409 70737 46/// ///04 11004 21121 40158 91830 22200 00084 333 91207 555 11041 22041
BBXX 51205 29181 99210 71564 46/// ///// 1//// 91818 22200 00233 11506 21005 331// 41503 70028
BBXX 46238 29181 99334 71195 46/// ///// 1//// 91820 22200 00139 11204 20803 329// 41203 70020
BBXX 46239 29181 99363 71221 46/// ///// 1//// 91821 22200 00123 11305 20903 330// 41304 70025
BBXX 46219 29181 99332 71199 46/// ///// 1//// 91828 22200 00134 11305 20804 330// 41304 70025
BBXX 46224 29181 99332 71175 46/// ///// 1//// 91806 22200 00145 11101 21001 325// 41101 70006
BBXX 46214 29181 99379 71235 46/// ///// 1//// 91820 22200 00124 11305 20903 330// 41304 70025
BBXX 51204 29181 99213 71581 46/// ///// 1//// 91822 22200 00243 11403 20602 330// 41402 70015
BBXX 51202 29181 99214 71577 46/// ///// 1//// 91809 22200 00239 10705 20705 306// 41102 70024
BBXX 46036 29181 99484 71339 46/// /1614 10080 49975 57056 22200 00080 11209 70044 333 91217
BBXX WRAH 29184 99275 70917 41598 32609 10240 2//// 40190 52010 7//00 838// 22273 00236 20102 322// 40304 5//// 6//// 8//// ICE /////
BBXX WDA2768 29184 99458 70871 43/// /1413 00/// 10007 21006 40007 57018 7//// 8//// 22200 0//// 2//// 3//// 4//// 5//// 6//// 80002 ICE /////
BBXX WL3108 29184 99423 70876 41/98 02323 10028 49990 70200 22243 00061 20602
BBXX WAZV 29184 99566 71430 41498 81313 10000 2000/ 49980 52020 70222 887// 22232 00050 20602 332// 41109 5//// 6//// 80000 ICE /////
BBXX C6FR6 29184 99182 10768 41/// /2721 10280 2//// 40100 5//// 7//// 8//// 22274 0//// 2//// 3//// 4//// 5//// 6//// 8//// ICE /////
BBXX VQHO7 29184 99017 70347 41498 21020 10270 20232 40112 57016 70200 81140 22234 00270 20405 314// 40406 5//// 80244
BBXX VQIB9 29183 99301 30370 41/98 82132 10215 20183 40119 52010 70222 8//// 22254 00250 2//// 3//// 4//// 5//// 80195
BBXX MLRM6 29183 99363 30031 41598 42406 10170 20104 40187 54000 70200 84200 22200 00207 2//// 31924 40302 50302
BBXX TBWUK18 29183 99325 30358 41598 41717 10210 20194 40147 54000 70111 844// 22222 00240 20502 334// 41003 5//// 80200
BBXX TBWUK17 29183 99299 30334 41597 41916 10226 20175 40177 54000 70111 84463 22263 04250 20305 32120 40305 50304 80194
BBXX 2AQK9 29184 99048 10003 41/94 82313 10270 20241 40122 53020 71022 8761/ 22213 04300 20402 80250
BBXX A8ZP9 29183 99234 30524 41597 41308 10270 40135 54000 70211 82141 22254 00280 2//// 3//// 4//// 5////
BBXX PCSV 29183 99346 30188 41698 41211 10204 20170 40149 55/// 70200 82460 22273 04208 20503 327// 41003 80182
BBXX 3EPD8 29184 99253 70167 41598 30719 10171 20152 40269 52020 7//11 8/4// 22213 04205 29904 80160
BBXX SHIP 29181 99033 70782 41398 62507 10260 20218 40100 51010 70311 82668 22253 20302 327// 40402 80230
BBXX ZDLP 29183 99522 50490 41598 72720 10089 20061 49995 54000 70352 878// 22223 04059 20204 326// 40406 5//// 80076
BBXX C6FR6 29184 99182 10768 41/// /2721 10280 2//// 40100 5//// 7//// 8//// 22274 0//// 2//// 3//// 4//// 5//// 6//// 8//// ICE /////
BBXX UGOS 29181 99541 11479 41/93 /3008 11040 40225 54000 77172 22283 00010 20302 30600 40803
BBXX A8HD5 29181 99305 11233 41598 63509 10110 20043 40290 54000 70322 82464 22284 04100 20403 33500 40603 5//// 80080
BBXX A8IE6 29184 99101 11100 41/97 60217 10250 20219 40120 56020 70200 8//// 22254 04255 20806 307// 40806 80228
BBXX 46036 29181 99484 71339 46/// /1614 10080 49975 57056 22200 00080 11209 70044 333 91217
BBXX 44140 29181 99429 70515 46/// /2105 10144 40051 52005 22200 00083 10906 70030 333 91206
BBXX WDJK 29184 99498 71299 41598 81413 10074 20045 40089 56010 76011 8814/ 22233 00090 20804 329// 41006 5//// 6//// 80060 ICE /////
BBXX 9HXC9 29184 99213 70687 41598 21320 10280 20158 40165 55003 7//11 82001 22274 04268 20504 3//// 40602 5//// 6//// 80200 ICE /////
BBXX 44258 29181 99445 70634 46/// /2515 11003 49958 52013 22200 00059 11209 70044 333 91219
BBXX KS094 29184 99170 70618 43/// /1216 10268 40176 22200 06259
BBXX KS088 29184 99267 70801 43/// /0703 10203 40183 22200 06215
BBXX KS007 29184 99267 70801 43/// ///// 10200 40145 22200
BBXX 46145 29181 99544 71324 46/// /2006 10032 40063 52012 22200 00069 11107 70034 333 91208
BBXX 42363 29181 99282 70892 46/// /3104 10211 20111 40190 91830 333 91204
BBXX 42013 29181 99272 70829 46/// ///// 1//// 40199 91740 22200 00204
BBXX 42364 29181 99291 70881 46/// /0902 10217 20133 40183 91830
BBXX 42362 29181 99278 70907 46/// /2502 10211 20089 40186 91830
BBXX 42361 29181 99276 70925 46/// ///04 10256 20089 40166 58024 91830 555 11036 22038
BBXX 41110 29181 99341 70777 46/// ///// 1//// 91821 22200 00141 11501 20801 311// 41501 70007
BBXX 41112 29181 99307 70813 46/// ///// 1//// 91821 22200 00168 11701 309// 41701 70005
BBXX 41113 29181 99284 70805 46/// ///// 1//// 91821 22200 00215 11401 20801 308// 41401 70005
BBXX 44100 29181 99363 70756 46/// ///// 1//// 91822 22200 00125 11402 20602 307// 41401 70011
BBXX 42099 29181 99273 70842 46/// ///// 1//// 91827 22200 00240 10301 20301 70005
BBXX 41009 29181 99285 70802 46/// /3404 10172 20072 40199 91820 22200 00236 11402 20401 300// 41402 70009 333 91205 555 11038 22039
BBXX 41010 29181 99289 70785 46/// /2706 10189 40196 91820 22200 00236 11502 20501 300// 41502 70010 333 91207 555 11062 22064
BBXX 44099 29181 99369 70757 46/// ///// 1//// 91822 22200 00110 11301 20901 309// 41301 70007
BBXX 44039 29181 99411 70727 46/// /2705 11012 21098 40160 91753 22200 00084 10401 70006 333 91207
BBXX 46215 29181 99352 71209 46/// ///// 1//// 91808 22200 00152 11304 21003 327// 41303 70019
BBXX 46217 29181 99342 71194 46/// ///// 1//// 91812 22200 00145 11302 21002 327// 41302 70012
BBXX 46236 29181 99368 71219 46/// ///// 1//// 91820 22200 00122 11404 20902 328// 41403 70018
BBXX 46225 29181 99329 71174 46/// ///// 1//// 91814 22200 00150 11302 21001 327// 41301 70009
BBXX 46229 29181 99438 71246 46/// ///// 1//// 91821 22200 00092 11207 21005 328// 41205 70036
BBXX 46240 29181 99366 71219 46/// ///// 1//// 91812 22200 00121 11302 21001 335// 41302 70012
BBXX 46243 29181 99462 71241 46/// ///// 1//// 91829 22200 00090 11307 21005 326// 41305 70033
BBXX 46146 29181 99493 71237 46/// /1802 10070 40165 52017 22200 00074 10300 70002 333 91202
BBXX 46246 29181 99500 71451 46/// ///// 1//// 91759 22200 00069 11306 20904 326// 41305 70032
BBXX 46246 29181 99500 71451 46/// ///// 1//// 91829 22200 00069 11408 21004 326// 41406 70038
BBXX 46232 29181 99325 71174 46/// ///// 1//// 91808 22200 00147 11303 20802 327// 41302 70014
BBXX 46247 29181 99378 71228 46/// ///// 1//// 91821 22200 00114 11204 21003 328// 41204 70022
BBXX 46004 29181 99509 71361 46/// /1111 10036 49971 57049 22200 00074 11009 70047 333 91214
BBXX S6IH 29181 99256 70460 41598 61006 10250 20204 40275 57010 70311 85462 22223 04233 20401 335// 41204 5//// 80220
BBXX WAZV 29184 99566 71430 41498 81313 10000 2000/ 49980 52020 70222 887// 22232 00050 20602 332// 41109 5//// 6//// 80000 ICE /////
BBXX 9V7962 29184 99513 71348 41295 80630 00/// 11029 2103/ 49980 54000 76262 88/// 22234 00070 20606 30606 40707 50505 6//// 80030
BBXX 46184 29181 99539 71389 46/// /1403 10029 40024 52006 22200 00060 11710 70048 333 91204
BBXX 46092 29181 99368 71220 46/// /3204 10114 40239 53015 91757 22200 00121 555 11036 22041
BBXX 46181 29181 99538 71288 46/// /2206 10024 40092 52018 22200 00041 10200 70001 333 91208
BBXX 44043 29181 99392 70764 46/// /2005 1//// 91820 333 91205
BBXX 44041 29181 99372 70768 46/// /1202 1//// 91820 333 91202
BBXX 44043 29181 99392 70764 46/// /2004 10034 40169 56023 91800 22200 00064 1//00 70001 333 91205
BBXX 44042 29181 99380 70763 46/// /2002 1//// 40175 91810 333 91203
BBXX 44041 29181 99372 70768 46/// /1102 1//// 40197 91810 333 91203
BBXX 44042 29181 99380 70763 46/// /2002 10055 40175 57025 91800 22200 00082 1//00 70002 333 91203
BBXX 44043 29181 99392 70764 46/// /2004 1//// 40168 91810 333 91206
BBXX 44042 29181 99380 70763 46/// /2002 1//// 91820 333 91203
BBXX 44063 29181 99390 70764 46/// /2205 10034 40191 56018 91800 22200 00069 1//00 70002 333 91206
BBXX 44041 29181 99372 70768 46/// /1502 10070 40198 56023 91800 22200 00085 1//00 70001 333 91203
BBXX 44063 29181 99390 70764 46/// /2205 1//// 40190 91810 333 91206
BBXX 44062 29181 99386 70764 46/// /1905 10044 40157 56023 91800 22200 00081 10301 70004 333 91207
BBXX 44063 29181 99390 70764 46/// /2205 1//// 91820 333 91206
BBXX 44062 29181 99386 70764 46/// /1905 1//// 40155 91810 22200 00081 333 91206
BBXX 44062 29181 99386 70764 46/// /1805 1//// 91820 22200 00081 333 91207
BBXX 44059 29181 99368 70763 46/// /1702 1//// 91820 333 91203
BBXX 44057 29181 99395 70761 46/// /2102 1//// 91820 333 91203
BBXX 44059 29181 99368 70763 46/// /2203 10088 40171 56023 91800 22200 00102 333 91204
BBXX 44057 29181 99395 70761 46/// /2002 1//// 40172 91810 333 91203
BBXX 44058 29181 99376 70763 46/// /1806 10062 40176 56021 91800 22200 00088 10201 70003 333 91207
BBXX 44032 29181 99437 70694 46/30 /2711 11015 40060 57005 91804 22200 00081 10603 70017 333 91214 555 11132 22138
BBXX 44058 29181 99376 70763 46/// /1806 1//// 91810 333 91208
BBXX 44057 29181 99395 70761 46/// /1803 10007 40173 56022 91800 22200 00047 333 91203
BBXX 44059 29181 99368 70763 46/// /2002 1//// 40171 91810 333 91203
BBXX ELWZ5 29184 99456 71664 41597 42908 10052 20028 40183 51005 7//00 8346/ 22224 04120 2//01 333// 4//01 5//// 80041
BBXX ZCDM6 29183 99205 70869 41298 80506 10285 20211 40170 56006 70222 8976/ 22200 00275 2//// 3//// 4//// 5//// 80235
BBXX LAXP4 29184 99184 70677 41598 60716 00/// 10290 2024/ 40182 57015 70222 84291 22253 00270 20503 334// 40603 80250 NNNN
BBXX PHHD 29181 99286 70595 41497 63615 10250 20207 40226 58006 71311 81164 22243 04210 20202 80220
BBXX 46205 29181 99542 71343 46/// /1604 10037 40047 52006 22200 00070 11110 70048 333 91207
BBXX 46132 29181 99497 71279 46/// /1211 10066 40108 57022 22200 00084 11309 70043 333 91214
BBXX 46206 29181 99488 71260 46/// /1208 10078 40146 57012 22200 00080 11208 70040 333 91210
BBXX WRAH 29184 99275 70917 41598 32609 10240 2//// 40190 52010 7//00 838// 22273 00236 20102 322// 40304 5//// 6//// 8//// ICE /////
BBXX 46185 29181 99524 71298 46/// /1807 10057 40086 52002 22200 00070 11305 70025 333 91209
BBXX 46087 29181 99485 71247 46/// /1305 10081 20069 40163 91820 22200 00081 333 91207 555 11052 22055 31806 40909 61819 126047 090054 090042 096045 098045 102041
BBXX 46088 29181 99483 71232 46/// /2302 10071 40169 91820 22200 00077 10801 20301 327// 40801 70005 333 91203 555 11023 22023 31731 41906 61819 227022 216021 194025 189029 181042 195043
BBXX 41036 29181 99342 70770 46/// ///// 10130 20024 40183 91820 22200 00177
BBXX WL3108 29184 99423 70876 41/98 02323 10028 49990 70200 22243 00061 20602
BBXX WDA2768 29184 99458 70871 43/// /1413 00/// 10007 21006 40007 57018 7//// 8//// 22200 0//// 2//// 3//// 4//// 5//// 6//// 80002 ICE /////
BBXX WBS5272 29184 99457 70844 41/96 81318 10022 2//// 40054 57004 78522 8//// 22272 0//// 20202 3//// 4//// 5//// 6//// 8//// ICE /////
BBXX VNAH 29184 99383 31416 46/// /1112 10162 20116 30169 40193 57011 22200 85135
BBXX 9HA2479 29184 99318 31542 46/// /2022 10210 20149 30113 40142 57017 22214 04243 85171
BBXX C6FS9 29184 99364 31369 46/// /1121 10163 20136 30136 40173 57009 22233 04186 85147
BBXX A8TX8 29183 99053 31123 41398 82705 10280 20252 40094 58020 702// 8/7// 22234 04300 20400 30000 80260
BBXX ZCBU3 29184 99339 31554 41298 61630 10197 20112 40141 50002 70222 8671/ 22224 00225 20404 31500 40506 5//// 80150
BBXX 44040 29181 99410 70736 46/// /2905 11008 21115 40164 91815 22200 1//00 70001 333 91206 555 11046 22051
BBXX WKAP 29183 99470 70473 41197 32321 10070 2007/ 40010 52025 70151 81035 22264 00010 20402 321// 40805 5//// 6//// 80070 ICE /////
BBXX BAREU06 29184 99389 10042 46/// ///// 40271 52006 22224
BBXX OXHY2 29183 99366 70004 41498 13105 10159 20113 40292 53002 70222 81140 22224 00162 20301 30000 40000 5//// 80132
BBXX 61002 29184 99421 10047 46/// ///38 10110 2//// 40260 52018 22200 00133 10910 70052 555 1/050
BBXX 61001 29184 99434 10078 46/// /0307 10128 20078 40194 52014 22200 00142 10802 70009
BBXX BATUK01 29184 99560 70032 46/// /2608 10030 21017 40073 52023 22200 00062
BBXX BATFR02 29184 99497 70004 46/// /2746 10104 20075 40223 22283 00114
BBXX BATEU08 29184 99589 70301 46/// /1618 10022 21002 40081 58040 22223
BBXX PCEO 29183 99339 70343 41498 52404 10204 20170 40323 53002 7//// 82142 22253 04193 20601 328// 41003 5//// 80182
BBXX BATEU01 29184 99522 10030 44796 72735 10085 20054 40080 56002 72022 8661/ 22253 00099 21006 327// 41006 5////
BBXX BATEU09 29184 99411 10088 46/// /2807 10132 20077 40171 52004 22262 00160
BBXX BATFR09 29184 99373 10019 44498 63114 10144 20060 40285 51018 70222 86800 22263 00170 20202 305// 40506 5//// 60//0 ICE 0/0//
BBXX BATFR52 29184 99508 70011 46/// /2624 10100 20054 40184 58027 22282 00085
BBXX BATFR46 29184 99433 10052 46/// /3341 10097 20005 40228 58017 22281 00142
BBXX BATFR60 29184 99496 70038 46/// /2542 10112 20070 40256 51016 22252 00112
BBXX BATFR54 29184 99473 70040 44/97 32926 10107 20050 40336 55003 702// 8//// 22232 00125 20802 313// 41002 5////
BBXX BATFR04 29184 99594 70093 46/// /3142 10039 20002 4//// 22261 00102
BBXX BATFR14 29184 99495 10002 46/// /2720 10094 20074 40229 56017 22200 00102
BBXX BATFR20 29184 99414 10094 46/// ///// 10122 20080 40175 22244
BBXX BATEU05 29184 99578 10079 46/// /2831 10059 49895 51015 22262
BBXX BAREU00 29184 99502 70059 46/// ///// 40261 57012 22263
BBXX BAREU08 29184 99514 10020 46/// ///// 40124 57024 22263
BBXX BAREU05 29184 99429 70292 46/// ///// 40312 52015 22223
BBXX BAREU63 29184 99382 10156 46/// /0211 10134 29073 40182 57002 22243
BBXX TESTFR9 29184 99508 70011 46/// /2732 10097 29078 40205 57030 22272
BBXX BAREU56 29184 99367 10122 46/// ///// 40191 57001 22282
AAXX 29184 42398 31996 00000 10114 20109 40170 71000 333 59002
AAXX 29184 42706 31495 50000 10196 20137 40158 70510 81530 333 58005 81618 84360
AAXX 29184 43333 31495 60904 10266 20237 40130 70522 85401 333 56209 58011 83616 84818
AAXX 29181 31152 42997 00000 11464 21492 39885 40367 52005
AAXX 29181 31163 NIL
AAXX 29181 31285 NIL
AAXX 29181 31561 41998 81805 11186 21205 30248 40278 52006 70271 82040
AAXX 29181 31683 41598 80000 11118 21118 30167 40245 52004 70272 889//
AAXX 29181 32010 41496 80000 11150 21170 30194 40246 54000 78582 889// 333 85915 83633 91001 91103
AAXX 29184 91723 NIL
AAXX 29184 91964 36/// /0810 10243 20214 40216 57006
AAXX 29183 63671 32980 00805 10254 20123 333 10330
AAXX 29183 63695 32980 02703 10142 20116 333 10242
AAXX 29183 63723 32980 00000 10293 20150 40107 333010356 58017
AAXX 29183 63772 32980 00711 10270 20231 333 10323
AAXX 29183 63793 32480 70000 10244 20181 40097 8253/ 333 10288 58000 82618 87358
BBXX 44137 29181 99423 70620 46/// /2617 10064 40035 52012 22200 00109 11115 70077 333 91221
BBXX 44137 29181 99423 70620 46/// /2617 10064 40035 52012 22200 00109 11115 70077 333 91221
AAXX 29184 89514 21/94 91122 11015 49822 57005 73833 333 6012/
AAXX 29184 71963 16/// /0409 11243 21266 39620 40034 51010 60001 333 11210 21244 70000 555 10020
AAXX 29184 71592 16/// /3302 11285 21320 30167 40181 50001 60001 333 11283 21326 70000
AAXX 29184 71923 16/// ///04 11134 21144 39563 40010 51005 60001 333 11125 21179 7//// 555 10010
AAXX 29184 71463 46/// /1911 11006 21075 39889 40116 56035 6///1 333 11006 21084 7////
AAXX 29184 71490 16/// /0209 11283 21308 39749 40082 51011 60001 333 11232 21288 70000
AAXX 29184 42724 31995 00000 10166 20149 40157 70500 333 58001
AAXX 29183 42071 31993 00000 10054 20049 40204 74440 333 58002
AAXX 29184 42101 31994 00000 10108 20104 40192 71000 333 59002
AAXX 29184 42165 31995 00502 10122 20068 40192 70500 333 58009
AAXX 29184 42328 31995 00204 10138 21015 40194 70500 333 58015
AAXX 29184 42361 31994 00000 10102 20090 40184 71044 333 58001
AAXX 29184 62002 32960 53410 10100 20036 39494 48535 51009 85010 333 10110 85560
AAXX 29184 62007 12556 72113 10145 20074 40202 55004 60152 87800 333 0XX15 84820 083625
AAXX 29184 62010 11557 72512 10-103 20078 40197 56002 60022 78082 82800 333 10137 83820 85630
AAXX 29184 62016 31560 42706 10123 20062 40213 53007 71391 84900 333 10120 81920 83625
AAXX 29184 62124 32660 22110 10153 20020 39670 40186 55003 82800 333 10191 82840
AAXX 29184 62161 32960 00000 10151 20067 40170 54000 333 10198
AAXX 29184 62271 32960 60000 10205 21026 40199 53009 86030 333 10226 86360
AAXX 29184 71963 16/// /0409 11243 21266 39620 40034 51010 60001 333 11210 21244 70000 555 10020
AAXX 29184 71923 16/// ///04 11134 21144 39563 40010 51005 60001 333 11125 21179 7//// 555 10010
AAXX 29184 71463 46/// /1911 11006 21075 39889 40116 56035 6///1 333 11006 21084 7////
AAXX 29184 71490 16/// /0209 11283 21308 39749 40082 51011 60001 333 11232 21288 70000
AAXX 29184 71592 16/// /3302 11285 21320 30167 40181 50001 60001 333 11283 21326 70000
BBXX 44138 29181 99443 70536 46/// /2412 10099 40008 52006 22200 00095 11008 70040 333 91214
BBXX 44138 29181 99443 70536 46/// /2412 10099 40008 52006 22200 00095 11008 70040 333 91214
AAXX 29184 71860 11583 73206 10016 21025 38639 40022 51057 60001 71511 86870 333 10053 21045 70000
AAXX 29184 71860 11583 73206 10016 21025 38639 40022 51057 60001 71511 86870 333 10053 21045 70000
BBXX 46004 29181 99509 71361 46/// /1111 10036 49971 57049 22200 00074 11009 70047 333 91214
BBXX 46036 29181 99484 71339 46/// /1614 10080 49975 57056 22200 00080 11209 70044 333 91217
BBXX 46145 29181 99544 71324 46/// /2006 10032 40063 52012 22200 00069 11107 70034 333 91208
BBXX 46181 29181 99538 71288 46/// /2206 10024 40092 52018 22200 00041 10200 70001 333 91208
BBXX 46183 29181 99536 71311 46/// /3501 10046 40073 52007 22200 00075 11002 70010 333 91205
BBXX 46185 29181 99524 71298 46/// /1807 10057 40086 52002 22200 00070 11305 70025 333 91209
BBXX 46204 29181 99514 71288 46/// /1011 10053 40095 57012 22200 00080 11208 70041 333 91214
BBXX 46205 29181 99542 71343 46/// /1604 10037 40047 52006 22200 00070 11110 70048 333 91207
BBXX 46206 29181 99488 71260 46/// /1208 10078 40146 57012 22200 00080 11208 70040 333 91210
BBXX 9V7962 29184 99513 71348 41295 80630 00/// 11029 21030 49980 54000 76262 88/// 22234 00070 20606 30606 40707 50505 6//// 80030
BBXX KIYI 29184 99539 71359 41498 71304 10024 21080 40030 51010 7//22 876// 22234 0//// 20101 324// 40905 5//// 6//// 81010 ICE /////
BBXX WAZV 29184 99566 71430 41498 81313 10000 20000 49980 52020 70222 887// 22232 00050 20602 332// 41109 5//// 6//// 80000 ICE /////
BBXX WDJK 29184 99498 71299 41598 81413 10074 20045 40089 56010 76011 8814/ 22233 00090 20804 329// 41006 5//// 6//// 80060 ICE /////
AAXX 29184 84455 31460 61804 10306 20228 39820 40162 70222 83130 333 56000 58000 83820 83360
AAXX 29184 84542 31670 53005 10220 20095 37343 70222 8254/ 333 5699/ 59014 82645 83465
AAXX 29184 84773 31660 61408 10260 20202 30101 40126 70122 86500 333 56900 59002 86640
AAXX 29184 84452 31960 01913 10286 20197 30080 40110 70126 333 5609/ 59019
AAXX 29184 84564 31560 60719 10238 20157 38145 7022/ 8322/ 333 5611/ 59007 83830 83465
AAXX 29184 84735 31360 60605 10150 20061 36447 70222 82150 333 56990 59016 82810 84630
AAXX 29184 84370 31960 03511 10290 20238 30070 40103 70222 333 59009
AAXX 29184 84401 31960 02108 10314 20217 30063 40106 70222 333 59011
AAXX 29184 84691 31958 52707 10278 20211 30098 40105 70544 80001 333 56000 59031 85073
AAXX 29184 84472 31560 6//// 10202 20126 37402 70300 867// 333 56900 59010 86733
AAXX 29184 84673 41556 80105 10160 20111 37367 76026 8352/ 333 5699/ 59021 60011 83630 88461
AAXX 29184 84515 31960 80308 10270 20242 39942 40118 70222 885// 333 569// 59003 88614
AAXX 29184 84782 31762 52110 10252 20162 39607 40102 70222 855// 333 569// 58002 85650
AAXX 29184 42559 32996 00000 10126 20062 40170 333 59003
AAXX 29184 42571 31996 00000 10126 20095 40174 70500 333 58002
AAXX 29184 42667 31996 00504 10144 20104 39566 40171 70500 333 58000
AAXX 29184 42675 31996 00000 10148 20083 40167 70500 333 59004
AAXX 29184 42754 31996 00506 10140 20061 39512 40168 70500 333 58000
AAXX 29184 42779 32996 00000 10154 20115 39453 40167 333 59003
AAXX 29184 42874 32596 20202 10224 20172 40137 81530 333 59010 81620
AAXX 29184 84688 31458 80110 10129 20074 36661 70222 886// 333 568// 59011 83613 85630
AAXX 29184 84531 31960 01917 10238 20165 30077 40094 70100 333 59004
AAXX 29184 84501 31159 81808 10210 20176 30092 40119 71000 886// 333 56000 59014 84703 86340
AAXX 29184 84628 34960 81909 10259 20194 30097 40112 70242 85031 333 56011 59024 85366 83073
AAXX 29184 84377 31560 83404 10318 20238 39996 40101 70225 85230 333 5600/ 59019 85817 83360
AAXX 29184 84474 31560 70000 10306 20235 39770 7022/ 877// 333 5690/ 59010 87730
AAXX 29184 84390 31960 31813 10303 20205 30006 40105 70300 83500 333 564// 59009 83650
AAXX 29184 84534 21660 3//// 10285 20212 39370 40073 7025/ 83200 333 56900 58010 83840
AAXX 29184 84658 21462 82508 10295 20261 39858 40091 71622 8822/ 333 5669/ 59011 69901 84810 82640 82460
AAXX 29184 84720 31960 50604 10330 20236 39483 40149 70122 85010 333 56090 59012 85466
AAXX 29184 84752 32560 82512 10182 20111 37524 70322 8553/ 333 5699/ 59010 85633 83356
AAXX 29184 84686 31665 89905 10182 20077 36872 70222 8451/ 333 56900 59012 81640 83656 85458
AAXX 29184 84686 31665 89905 10182 20077 36872 70222 8451/ 333 56900 59012 81640 83650 85458
AAXX 29184 84425 31560 80904 10285 20237 39930 40139 70222 8653/ 333 5689/ 59013 86615 82360
AAXX 29184 94290 46/// /1612 10258 30046 40055 56018 91824
AAXX 29184 94997 46/// ///// 10026 39823 49838 5////
AAXX 29184 94210 35/// /0000 10281 30059 40064 57003
AAXX 29184 94289 46/// /1414 10265 30042 40049 56015 91815
AAXX 29184 94379 46/// /1216 10257 30079 40088 53004 91826
AAXX 29184 89610 46/// /0410 11031 39680 4//// 5//// 333 90700 91113
AAXX 29184 89614 46/// /0615 11099 29083 4//// 5//// 333 90700 91119
AAXX 29184 89807 46/// /2612 11024 29100 39765 4//// 5//// 333 90700 91114
AAXX 29184 88963 32360 70000 10018 21006 39800 49829 56003 87500 333 56700 84708 87625 92407 94070 95060
AAXX 29184 88968 31250 80908 10025 20006 39098 49813 52012 71022 886// 333 56599 84705 87710 90039 90090 92416 92731 92851 94075 95075
AAXX 29184 89034 32970 10206 11016 21057 39442 49753 53012 81070 333 56010 81360 92407 92800
AAXX 29184 89053 32562 82303 10048 20023 39820 49833 55003 8451/ 333 56779 84620 87457 90304 92407 94070 94477 95000 96410 97501 98562
AAXX 29184 89055 32260 70503 10005 20000 39589 49830 56003 87700 333 56100 83706 87709 92734 92850 95110
AAXX 29184 89066 32570 81404 10026 21019 39790 49799 56001 8667/ 333 56779 8667/ 333 56779 86730 84360 92407 94070
AAXX 29184 94997 46/// ///// 10026 39823 49838 5////
AAXX 29184 94290 46/// /1612 10258 30046 40055 56018 91824
AAXX 29184 89610 46/// /0410 11031 39680 4//// 5//// 333 90700 91113
AAXX 29184 89614 46/// /0615 11099 29083 4//// 5//// 333 90700 91119
AAXX 29184 89807 46/// /2612 11024 29100 39765 4//// 5//// 333 90700 91114
BBXX 44040 29181 99410 70736 46/// /2705 11006 21116 40163 91819 22200 1//00 70001 333 91207 555 11057 22057
BBXX 41033 29181 99323 70804 46/// /2206 1//// 40194 58024 91800 555 11064 22065
AAXX 29181 80001 32570 10602 10286 20243 30135 40136 81201 333 561/0 59011 81820
AAXX 29181 80002 NIL
AAXX 29181 80009 31560 30000 10304 20242 30088 40093 70500 81804 333 56090 59009 81820 83070
AAXX 29181 80022 31465 63303 10308 20240 30101 40103 70511 81106 333 566/9 59005 81817 86270
AAXX 29181 80028 31965 50405 10287 20235 30079 40114 70510 80006 333 56//0 59009 85270
AAXX 29181 80035 31565 30809 10316 20224 30011 40119 70500 81106 333 562/9 59012 81820 83070
AAXX 29181 80036 31568 50606 10319 20230 70521 82808 333 82820 85270
AAXX 29181 80063 31465 70000 10318 20243 70522 86410 333 5600/ 86620
AAXX 29181 80084 31459 80304 10284 20240 70522 8351/ 333 5659/ 83617 88459
AAXX 29181 80091 31465 30702 10316 20233 70510 83100 333 569// 83810
AAXX 29181 80094 31465 62705 10250 20193 38813 70511 83870 333 5669/ 59003 83815 83357
AAXX 29181 80097 31568 73605 10283 20197 39757 40103 71522 84830 333 5699/ 58007 84822 83359
AAXX 29181 80099 31466 40705 10304 20219 39934 40079 70522 84802 333 563/9 57892 59013 84810
AAXX 29181 80110 31565 80403 10254 20139 38510 71522 8427/ 333 5600/ 57895 59004 84830 88358
AAXX 29181 80112 01462 80804 10178 20147 37904 69961 71555 8427/ 333 56009 57893 59002 69917 84815 85358
AAXX 29181 80139 NIL
AAXX 29181 80144 01350 70102 10270 20243 60041 75152 85270 333 5600/ 69927 85815 87358
AAXX 29181 80149 NIL
AAXX 29181 80210 31463 62402 10261 20185 38649 70522 84231 333 56550 57891 59010 84815
AAXX 29181 80211 31570 52702 10278 20181 70522 83230 333 5651/ 83830 83362
AAXX 29181 80214 31560 71202 10265 20213 39114 70522 82870 333 5650/ 59008 82820 86359
AAXX 29181 80222 31568 60603 10191 20098 37520 70522 85801 333 563/9 59006 85820
AAXX 29181 80234 11562 70000 10284 20210 39618 40110 69911 70352 85571 333 56239 59012 85623 83359
AAXX 29181 80241 NIL
AAXX 29181 80259 31560 40000 10296 20182 39039 70521 83830 333 5629/ 59010 83820
AAXX 29181 80315 32665 60000 10317 20201 39586 40076 81150 333 5655/ 59004 81835 86362
AAXX 29181 80342 32565 43504 10213 20174 38224 84800 333 564// 84823
AAXX 29181 80370 11570 60904 10160 20099 69941 70252 86800 333 563// 86820
AAXX 29181 80398 32470 60000 10298 20252 30018 40113 85130 333 5619/ 59019 85815 84358
AAXX 29184 62002 32960 53410 10100 20036 39494 48535 51009 85010 333 10110 85560
AAXX 29184 62007 12556 72113 10145 20074 40202 55004 60152 87800 333 0//15 84820 83625
AAXX 29184 62010 11557 72512 10103 20078 40197 56002 60022 78082 82800 333 10137 83820 85630
AAXX 29184 62016 31560 42706 10123 20062 40213 53007 71391 84900 333 10120 81920 83625
AAXX 29184 62124 32660 22110 10153 20020 39670 40186 55003 82800 333 10191 82840
AAXX 29184 62161 32960 00000 10151 20067 40170 54000 333 10198
AAXX 29184 62271 32960 60000 10205 21026 40199 53009 86030 333 10226 86360
BBXX ZCDQ5 29183 99332 10302 43798 20612 10140 20120 40200 54000 70200 8///1 22274 00165 20100 3//// 4//// 5//// 80130
BBXX 7JJA 29184 99320 11357 41797 43320 00 10140 20063 40190 54 70011 82/// 9//// 22200 0 2//01 3 4 5 6//// 80100 ICE /////
AAXX 29181 55228 32980 03401 11126 21380 36031 52005 333 00151 11010
AAXX 29181 55578 32980 00000 11099 21242 36378 52006 333 05102 10082
AAXX 29181 55664 32980 00000 11077 21279 36023 52004 333 05104 10088
AAXX 29181 55773 32970 00000 11113 21222 36036 52004 333 00003 10059
AAXX 29181 56116 32980 03201 11087 21172 36346 52008 333 05100 10053
AAXX 29181 56137 32980 00000 11070 21217 36801 52007 333 05252 10111
AAXX 29181 56172 32980 00000 11056 21130 37359 52002 333 00151 10122
AAXX 29181 56247 32980 01602 10004 21160 37437 52009 333 05151 10154
AAXX 29181 56312 32680 72701 10016 21085 37111 52002 874// 333 05107 10113
AAXX 29181 56462 32980 03202 11038 21104 37157 52005 333 00200 10129
AAXX 29181 56651 32980 00901 10042 21040 37654 52001 333 00053 10150
AAXX 29181 56691 11358 81102 11002 21009 37813 52003 69911 76666 887// 333 00301 10017 93427
AAXX 29181 56985 32568 21604 10119 20091 38742 40172 52008 82400 333 00151 10234
AAXX 29181 57633 32961 80000 10047 21022 39520 40324 52002 8807/ 333 00451 10066
AAXX 29181 57902 11450 81101 10040 20034 38696 40282 52002 69901 76060 887// 333 00552 10061
AAXX 29181 55279 32980 02506 11046 21317 35705 52005 333 00009 10023
AAXX 29181 55472 32980 02205 11062 21294 35745 52010 333 00009 10048
AAXX 29181 55696 32980 00000 11091 21122 36364 52012 333 05100 10104
AAXX 29181 56079 32980 00901 11113 21168 36683 57007 333 00054 10043
AAXX 29181 56106 32980 03401 11130 21250 36217 52014 333 05152 10049
AAXX 29181 56257 32980 01101 11076 21208 36282 57001 333 00000 10076
AAXX 29181 56374 32980 00000 11037 21073 37455 52004 333 00203 10039
AAXX 29181 56385 31/01 90000 11079 21082 37033 54000 74944 333 00201 11031
AAXX 29181 56954 32662 10901 10106 20106 40192 52006 81100 333 00054 10237
AAXX 29181 56966 32765 21107 10185 20120 40165 52017 82400 333 05101 10286
AAXX 29181 57237 32960 83601 10054 21017 40310 52005 8807/ 333 10079
AAXX 29181 57306 31957 80000 10073 20058 40299 54000 71000 8807/ 333 10106
AAXX 29181 57604 31830 80401 10083 20054 40292 52002 71000 885// 333 10101
AAXX 29181 57707 11456 80000 10021 20018 38564 52004 69901 76060 887// 333 00301 10040
AAXX 29181 57832 32664 80701 10045 21040 39553 40313 52001 885// 333 00551 10069
AAXX 29181 80001 32570 10602 10286 20243 30135 40136 81201 333 561/0 59011 81820
AAXX 29181 80002 NIL
AAXX 29181 80009 31560 30000 10304 20242 30088 40093 70500 81804 333 56090 59009 81820 83070
AAXX 29181 80022 31465 63303 10308 20240 30101 40103 70511 81106 333 566/9 59005 81817 86270
AAXX 29181 80028 31965 50405 10287 20235 30079 40114 70510 80006 333 56//0 59009 85270
AAXX 29181 80035 31565 30809 10316 20224 30011 40119 70500 81106 333 562/9 59012 81820 83070
AAXX 29181 80036 31568 50606 10319 20230 70521 82808 333 82820 85270
AAXX 29181 80063 31465 70000 10318 20243 70522 86410 333 5600/ 86620
AAXX 29181 80084 31459 80304 10284 20240 70522 8351/ 333 5659/ 83617 88459
AAXX 29181 80091 31465 30702 10316 20233 70510 83100 333 569// 83810
AAXX 29181 80094 31465 62705 10250 20193 38813 70511 83870 333 5669/ 59003 83815 83357
AAXX 29181 80097 31568 73605 10283 20197 39757 40103 71522 84830 333 5699/ 58007 84822 83359
AAXX 29181 80099 31466 40705 10304 20219 39934 40079 70522 84802 333 563/9 57892 59013 84810
AAXX 29181 80110 31565 80403 10254 20139 38510 71522 8427/ 333 5600/ 57895 59004 84830 88358
AAXX 29181 80112 01462 80804 10178 20147 37904 69961 71555 8427/ 333 56009 57893 59002 69917 84815 85358
AAXX 29181 80139
AAXX 29181 80144 01350 70102 10270 20243 60041 75152 85270 333 5600/ 69927 85815 87358
AAXX 29181 80149 NIL
AAXX 29181 80210 31463 62402 10261 20185 38649 70522 84231 333 56550 57891 59010 84815
AAXX 29181 80211 31570 52702 10278 20181 70522 83230 333 5651/ 83830 83362
AAXX 29181 80214 31560 71202 10265 20213 39114 70522 82870 333 5650/ 59008 82820 86359
AAXX 29181 80222 31568 60603 10191 20098 37520 70522 85801 333 563/9 59006 85820
AAXX 29181 80234 11562 70000 10284 20210 39618 40110 69911 70352 85571 333 56239 59012 85623 83359
AAXX 29181 80241 NIL
AAXX 29181 80259 31560 40000 10296 20182 39039 70521 83830 333 5629/ 59010 83820
AAXX 29181 80315 32665 60000 10317 20201 39586 40076 81150 333 5655/ 59004 81835 86362
AAXX 29181 80342 32565 43504 10213 20174 38224 84800 333 564// 84823
AAXX 29181 80370 11570 60904 10160 20099 69941 70252 86800 333 563// 86820
AAXX 29181 80398 32470 60000 10298 20252 30018 40113 85130 333 5619/ 59019 85815 84358
AAXX 29181 80001 32570 10602 10286 20243 30135 40136 81201 333 561/0 59011 81820
AAXX 29181 80002 NIL
AAXX 29181 80009 31560 30000 10304 20242 30088 40093 70500 81804 333 56090 59009 81820 83070
AAXX 29181 80022 31465 63303 10308 20240 30101 40103 70511 81106 333 566/9 59005 81817 86270
AAXX 29181 80028 31965 50405 10287 20235 30079 40114 70510 80006 333 56//0 59009 85270
AAXX 29181 80035 31565 30809 10316 20224 30011 40119 70500 81106 333 562/9 59012 81820 83070
AAXX 29181 80036 31568 50606 10319 20230 70521 82808 333 82820 85270
AAXX 29181 80063 31465 70000 10318 20243 70522 86410 333 5600/ 86620
AAXX 29181 80084 31459 80304 10284 20240 70522 8351/ 333 5659/ 83617 88459
AAXX 29181 80091 31465 30702 10316 20233 70510 83100 333 569// 83810
AAXX 29181 80094 31465 62705 10250 20193 38813 70511 83870 333 5669/ 59003 83815 83357
AAXX 29181 80097 31568 73605 10283 20197 39757 40103 71522 84830 333 5699/ 58007 84822 83359
AAXX 29181 80099 31466 40705 10304 20219 39934 40079 70522 84802 333 563/9 57892 59013 84810
AAXX 29181 80110 31565 80403 10254 20139 38510 71522 8427/ 333 5600/ 57895 59004 84830 88358
AAXX 29181 80112 01462 80804 10178 20147 37904 69961 71555 8427/ 333 56009 57893 59002 69917 84815 85358
AAXX 29181 80139
AAXX 29181 80144 01350 70102 10270 20243 60041 75152 85270 333 5600/ 69927 85815 87358
AAXX 29181 80149 NIL
AAXX 29181 80210 31463 62402 10261 20185 38649 70522 84231 333 56550 57891 59010 84815
AAXX 29181 80211 31570 52702 10278 20181 70522 83230 333 5651/ 83830 83362
AAXX 29181 80214 31560 71202 10265 20213 39114 70522 82870 333 5650/ 59008 82820 86359
AAXX 29181 80222 31568 60603 10191 20098 37520 70522 85801 333 563/9 59006 85820
AAXX 29181 80234 11562 70000 10284 20210 39618 40110 69911 70352 85571 333 56239 59012 85623 83359
AAXX 29181 80241 NIL
AAXX 29181 80259 31560 40000 10296 20182 39039 70521 83830 333 5629/ 59010 83820
AAXX 29181 80315 32665 60000 10317 20201 39586 40076 81150 333 5655/ 59004 81835 86362
AAXX 29181 80342 32565 43504 10213 20174 38224 84800 333 564// 84823
AAXX 29181 80370 11570 60904 10160 20099 69941 70252 86800 333 563// 86820
AAXX 29181 80398 32470 60000 10298 20252 30018 40113 85130 333 5619/ 59019 85815 84358
AAXX 2918/ 48969 NIL
AAXX 2918/ 48962 NIL
AAXX 2918/ 48990 NIL
AAXX 2918/ 48986 NIL
AAXX 2918/ 48995 NIL
AAXX 2918/ 48967 NIL
AAXX 2918/ 48992 NIL
AAXX 2918/ 48965 NIL
AAXX 2918/ 48985 NIL
AAXX 2918/ 48970 NIL
AAXX 2918/ 48991 NIL
AAXX 2918/ 48964 NIL
AAXX 2918/ 48997 NIL
AAXX 2918/ 48968 NIL
AAXX 2918/ 48973 NIL
AAXX 2918/ 48966 NIL
AAXX 2918/ 48983 NIL
AAXX 2918/ 48972 NIL
AAXX 2918/ 48998 NIL
AAXX 2918/ 48993 NIL
AAXX 2918/ 48971 NIL
AAXX 2918/ 48963 NIL
AAXX 2918/ 48987 NIL
AAXX 29184 71406 17/// /2333 10004 21023 39723 49732 58004 60021 7//4/ 333 10051 20003 70032
AAXX 29184 71418 46/// /2446 11035 21065 39811 49843 51012 6///1 333 10052 21038 7////
AAXX 29184 71981 16/// /0106 10033 21017 60001 333 10063 20003 70000
AAXX 29184 71982 16/// /3507 10028 21017 60001 333 10052 21006 70000
AAXX 29184 71986 16/// /3126 10026 21009 60001 333 10054 21012 70000
AAXX 29184 71990 17/// /0503 11197 21218 38305 49929 53019 69931 7//4/ 333 11188 21235 70003
AAXX 29184 71354 47/// /3015 10005 20005 6///1 7//4/ 333 10005 21099 7////
AAXX 29184 71277 46/// /2618 10028 21050 6///1 333 10028 21053 7////
AAXX 29184 71733 16/// /0904 11174 21215 39689 40152 58017 60001 333 11172 21249 70000
AAXX 29184 71019 46/// /2815 11114 21151 39640 49944 53014 6///1 333 11087 21139 7////
AAXX 29184 71048 17/// /3407 10022 20011 69971 7//4/ 333 10022 21072 70007
BBXX 44056 29181 99362 70757 46/// ///// 1//// 91750 22200 00121 11502 20501 308// 41501 70009
AAXX 29184 48372 31956 20000 10219 20205 30083 40142 52004 71000 80001 333 59011
AAXX 29184 89657 46/// /1112 11030 20001 49834 53011
AAXX 29184 65338 32958 50000 10307 20230 39925 40111 80002 333 10331 58026 85076
AAXX 29184 DUPE
BBXX 7JJA 29184 99320 11357 41797 43320 00 10140 20063 40190 54 70011 82/// 9//// 22200 0 2//01 3 4 5 6//// 80100 ICE /////
BBXX A8HD5 29181 99305 11233 41598 63509 10110 20043 40290 54000 70322 82464 22284 04100 20403 33500 40603 5//// 80080
BBXX UGOS 29181 99541 11479 41/93 /3008 11040 40225 54000 77172 22283 00010 20302 30600 40803
AAXX 29184 03008 12580 63210 10039 21023 49970 60002 868// 91750 333 10041 84820
BBXX 41052 29181 99183 70648 46/// /0807 10267 40160 58025 91800 22200 00270 10602 70012 333 91208
BBXX 41053 29181 99185 70661 46/// /0807 10269 40159 91830 333 91210
BBXX 41053 29181 99185 70661 46/// /0908 10269 40160 91820 333 91209
BBXX 41053 29181 99185 70661 46/// /0907 10268 40161 91810 333 91210
BBXX 44024 29181 99423 70659 46/28 /2812 10023 40064 53013 91804 22200 00074 11111 70056 333 91216 555 11144 22152
BBXX 42360 29181 99267 70905 46/// /2703 10211 91800 22200 00245 10301 70004 333 91204
BBXX WDJK 29184 99498 71299 41598 81413 10074 20045 40089 56010 76011 8814/ 22233 00090 20804 329// 41006 5//// 6//// 80060 ICE /////
BBXX WHKM 29184 99078 30744 41197 42313 10270 20256 40100 54000 7//22 83202 22223 0//// 2//// 3//// 4//// 5//// 6//// 80260 ICE /////
BBXX 44056 29181 99362 70757 46/// ///// 1//// 91750 22200 00121 11502 20501 308// 41501 70009
BBXX 44040 29181 99410 70736 46/// /2705 11006 21116 40163 91819 22200 1//00 70001 333 91207 555 11057 22057
BBXX 41033 29181 99323 70804 46/// /2206 1//// 40194 58024 91800 555 11064 22065
BBXX 44138 29181 99443 70536 46/// /2412 10099 40008 52006 22200 00095 11008 70040 333 91214
BBXX 44137 29181 99423 70620 46/// /2617 10064 40035 52012 22200 00109 11115 70077 333 91221
BBXX 46224 29181 99332 71175 46/// ///// 1//// 91806 22200 00145 11101 21001 325// 41101 70006
BBXX 46214 29181 99379 71235 46/// ///// 1//// 91820 22200 00124 11305 20903 330// 41304 70025
BBXX 46219 29181 99332 71199 46/// ///// 1//// 91828 22200 00134 11305 20804 330// 41304 70025
BBXX 44022 29181 99409 70737 46/// ///04 11004 21121 40158 91830 22200 00084 333 91207 555 11041 22041
BBXX 44060 29181 99413 70721 46/// ///06 11010 40145 91830 22200 00091 333 91208 555 11062 22067
BBXX 46239 29181 99363 71221 46/// ///// 1//// 91821 22200 00123 11305 20903 330// 41304 70025
BBXX 46238 29181 99334 71195 46/// ///// 1//// 91820 22200 00139 11204 20803 329// 41203 70020
BBXX 51205 29181 99210 71564 46/// ///// 1//// 91818 22200 00233 11506 21005 331// 41503 70028
BBXX 7JJA 29184 99320 11357 41797 43320 00 10140 20063 40190 54 70011 82/// 9//// 22200 0 2//01 3 4 5 6//// 80100 ICE /////
BBXX ZCDQ5 29183 99332 10302 43798 20612 10140 20120 40200 54000 70200 8///1 22274 00165 20100 3//// 4//// 5//// 80130
BBXX 63110 29183 99595 10015 41/98 /3327 10080 49935 700// 8//// 22200 10808 70040
BBXX WHKM 29184 99078 30744 41197 42313 10270 20256 40100 54000 7//22 83202 22223 0//// 2//// 3//// 4//// 5//// 6//// 80260 ICE /////
AAXX 29184 83811 32597 41402 10276 20186 39203 40095 58020 84400
AAXX 29184 83844 32597 709// 10236 20183 30122 40129 57008 84460
AAXX 29184 83887 32597 40506 10222 20151 39075 40117 57010 83230
AAXX 29184 83907 32497 20504 10320 20146 39806 40082 56018 81180
AAXX 29184 83914 31596 41406 10268 20142 39332 40088 57012 70510 84100
AAXX 29184 83919 31496 60908 10216 20122 38962 40138 56010 70521 86200
AAXX 29184 83927 32997 00910 10290 20159 30019 40091 57023
AAXX 29184 83936 32997 21411 10298 20127 39996 40116 57017 80001
AAXX 29184 83948 32597 10904 10249 20180 30136 40142 56012 81200
AAXX 29184 83964 31996 01402 10265 20123 39642 40127 57012 70500
AAXX 29184 83995 32497 30908 10252 20166 30146 40149 58020 83100
BBXX A8SZ5 29184 99021 31187 41497 /1209 10270 20243 40090 56020 703// 8/21/ 22283 00/// 2//// 80250
BBXX A8HJ8 29183 99012 11034 41/96 /3614 10248 20227 40123 51003 70222 8//// 222// 00/// 20201 80233
BBXX DPFP 29183 99111 10837 41397 81728 10250 20229 40100 54000 70322 87717 22272 04240 20908 327// 41008 80235
BBXX DGZS2 29183 99182 11134 41497 80725 10230 20201 40170 5//// 70222 8677/ 22244 00240 20605 304// 40805 80210
BBXX ELYP7 29184 99009 31190 41497 81909 10280 20267 40090 57010 71322 875// 22243 00/// 20301 80270
BBXX S6JT 29184 99517 11596 41597 22814 11015 21032 40190 54000 70100 818/8 22254 04010 20603 310// 40704 81020
BBXX VRFH2 29183 99311 11312 41398 43224 10130 20070 40240 5//// 7//// 820// 22215 00/// 20203 303// 40203 80170
BBXX VRDN3 29184 99092 10757 41/97 /3014 10270 20260 40155 52005 70200 8//// 22233 00/// 2//// 80240
BBXX ZIPR 29183 99134 30750 41/98 /1622 10276 20246 40105 51008 71511 8//// 22214 00285 2//// 80255
BBXX 9MCN8 29184 99212 11211 41397 /0719 10232 20217 40185 5//// 75052 8//// 22213 00260 2//// 80222
BBXX WDE8264 29183 99138 10726 41998 03509 10250 20191 40130 5//// 7//// 80000 22234 00250 20802 332// 41204 80210
AAXX 29184 71073 16/// /3217 10032 21015 60001 333 10048 20006 70000
AAXX 29184 71013 16/// ///// 10016 20006 60001 333 10069 21072 7////
AAXX 29184 71060 16/// /3002 10021 21026 38489 40034 51022 60001 333 10023 21021 70000
AAXX 29184 71399 17/// ///// 10014 20007 69961 7//4/ 333 10014 21106 70010
AAXX 29184 71565 16/// /3407 10011 21029 60001 333 10030 21120 70004
AAXX 29184 71566 17/// /2912 10039 21036 60011 7//4/ 333 10039 21056 70014
AAXX 29184 71567 16/// /2203 11057 21061 60001 333 11057 21083 70004
AAXX 29184 71974 46/// /1603 11381 21417 30161 40206 50009 6///1 333 11317 21385 7////
AAXX 29184 71495 16/// /3313 10016 21018 60001 333 10047 21009 70000
AAXX 29184 71793 17/// ///// 11001 21007 60021 7//4/ 333 10002 21084 70020
AAXX 29181 45032 36/// /2701 10148 20135 30206 40223 54000
AAXX 29181 45035 36/// /0502 10161 20141 30180 40222 54000
AAXX 29181 45039 36/// /3502 10170 20141 30204 40218 54000
AAXX 29181 45044 36/// /0504 10169 20139 30124 40218 52002
AAXX 29184 89646 46/// ///21 11156 29086 37613 4//// 5////
AAXX 29184 89648 46/// /2211 11266 29073 37245 4//// 5////
AAXX 29184 89659 46/// /29// 11207 29052 37708 4//// 5////
AAXX 29184 89661 46/// /2314 11017 29040 39213 4//// 5////
AAXX 29184 89662 42980 22736 10037 21133 39718 49822 57004 80001 222 ICE 98012 333 21021
AAXX 29184 89666 46/// /2336 10015 29046 39629 4//// 5////
AAXX 29181 45032 36/// /2701 10148 20135 30206 40223 54000
AAXX 29181 45035 36/// /0502 10161 20141 30180 40222 54000
AAXX 29181 45039 36/// /3502 10170 20141 30204 40218 54000
AAXX 29181 45044 36/// /0504 10169 20139 30124 40218 52002
BBXX ZCDL9 29183 99157 30109 41498 42025 10180 20146 40179 50000 70211 8/2// 22244 04200 20606 323// 40606 5//// 80160
BBXX 46241 29181 99330 71173 46/// ///// 1//// 91811 22200 00143 11302 21001 327// 41302 70010
BBXX 46237 29181 99378 71226 46/// ///// 1//// 91811 22200 00109 11304 21002 326// 41303 70021
BBXX 46216 29181 99343 71198 46/// ///// 1//// 91827 22200 00138 11302 21002 326// 41302 70011
BBXX 46223 29181 99335 71178 46/// ///// 1//// 91830 22200 00146 11302 21001 328// 41301 70008
BBXX 46213 29181 99403 71247 46/// ///// 1//// 91824 22200 00104 11205 21003 329// 41204 70027
BBXX 46231 29181 99327 71174 46/// ///// 1//// 91824 22200 00146 11302 21002 327// 41302 70011
BBXX 46222 29181 99336 71183 46/// ///// 1//// 91826 22200 00149 11302 20801 327// 41302 70012
BBXX 46242 29181 99332 71174 46/// ///// 1//// 91828 22200 00142 11201 20901 325// 41201 70006
AAXX 29181 89063 42698 81402 10017 20009 39789 49800 57004 8561/ 222// ICE 54892 333 44113
AAXX 29184 97980 01458 73304 10258 20249 30052 40059 57016 60061 76066 85842 333 56000 60067 82816 84618
AAXX 29184 96195 31456 50000 10252 20235 30077 40114 58008 70522 82531 333 56000 82615
AAXX 29184 97630 11320 80105 10234 20231 39929 40090 56013 69901 72162 84972 333 56600 57962 83809 81910 86360 80972
AAXX 29181 98543 32468 50901 10254 20241 30102 40113 58017 82201 333 56999 82818 84075
AAXX 29181 98550 11460 83202 10251 20244 40114 58014 60111 72186 82267 333 56999 82818 88273
AAXX 29181 98653 11450 80000 10257 20249 30050 40095 57008 60381 76166 8322/ 333 56999 83818 88457
AAXX 29181 98753 31465 33602 10253 20240 40097 58019 70544 81201 333 56999 81816 83079
BBXX 63110 29184 99595 10015 47598 /3124 10072 20016 49938 53002 700// 22200 10709 70043
BBXX 63106 29184 99610 10017 46/// /3622 10047 49929 52025 22200
BBXX 63113 29184 99610 10017 46/// /3526 10042 20004 49930 52025 22200 10807 70037
BBXX 62304 29184 99511 10018 46/97 /2537 10094 20065 40143 57031 22200 00108 10603 70016 333 90710 91152
BBXX 64045 29184 99591 70117 46/// /3026 10061 20011 40104 52067 22200 00099 11016 70080 333 90710 91145
BBXX 62103 29184 99499 70029 46/97 /2839 10113 20075 40232 57016 22200 00117 10808 70040 333 90710 91150
BBXX 2AUO5 29183 99606 10016 41597 43530 10051 20026 49942 53021 70266 848// 22271 20704 334// 41010 80041
BBXX C6NI8 29183 99383 70135 41598 73618 10140 20068 40383 54000 70322 86710 22283 04170 21007 336// 41507 5//// 80105
AAXX 29184 83437 31598 80504 10264 20214 39373 40082 71592 8577/ 333 59015
AAXX 29184 83579 32598 73602 10218 20194 38984 40094 87700 333 59027
AAXX 29184 83592 21596 83606 10210 20198 39439 40121 75065 8472/ 333 58004 60111
BBXX 2ALE5 29183 99302 70119 416// 30420 40300 53001 7//// 83180 22253 20604
BBXX 61001 29184 99434 10078 46/// /0307 10128 20078 40194 52014 22200 00142 10802 70009
BBXX BATFR46 29184 99433 10052 46/// /3341 10097 20005 40228 58017 22281 00142
BBXX 61002 29184 99421 10047 46/// ///38 10110 2//// 40260 52018 22200 00133 10910 70052 555 1/050
BBXX BATFR20 29184 99414 10094 46/// ///// 10122 20080 40175 22244
BBXX BATEU09 29184 99411 10088 46/// /2807 10132 20077 40171 52004 22262 00160
BBXX BAREU06 29184 99389 10042 46/// ///// 40271 52006 22224
BBXX DBBH 29181 99383 10120 41/98 /3002 10134 20072 40186 57008 71311 22223 04160
BBXX BAREU63 29184 99382 10156 46/// /0211 10134 29073 40182 57002 22243
BBXX BATFR09 29184 99373 10019 44498 63114 10144 20060 40285 51018 70222 86800 22263 00170 20202 305// 40506 5//// 60//0 ICE 0/0//
BBXX BAREU56 29184 99367 10122 46/// ///// 40191 57001 22282
BBXX OXHY2 29183 99366 70004 41498 13105 10159 20113 40292 53002 70222 81140 22224 00162 20301 30000 40000 5//// 80132
BBXX A8OZ4 29184 99361 10167 43698 70404 10160 20110 40180 54/// 7//// 87/// 22234 00169 80125
BBXX A8MZ9 29184 99359 10165 41597 59904 10158 20128 54000 70351 843// 22264 04178 29990801
BBXX ZQTP2 29184 99356 10164 41598 71311 10147 20095 40175 58010 70381 85450 22263 04170 2//// 30000 4//// 5//// 80120
BBXX BATFR04 29184 99594 70093 46/// /3142 10039 20002 4//// 22261 00102
BBXX 64045 29184 99591 70117 46/// /3026 10061 20011 40104 52027 22200 00099 11016 70080 333 90710 91145
BBXX 62112 29184 99584 70002 47898 /3110 10050 20019 49978 52012 700// 22200
BBXX 62113 29184 99584 10002 47598 /3414 10059 20003 49970 53004 700// 22200
BBXX 62129 29184 99584 10003 46/// ///// 10054 20009 49968 53003 22200
BBXX 62114 29184 99583 10000 46/// /3015 10052 20018 49973 53009 22200
BBXX PJAI 29184 99581 70014 47498 /3126 10057 20021 49986 52015 700// 22200
BBXX 62111 29184 99580 70003 46/// /3227 10049 20019 49990 53013 22200 10707 70035
BBXX 62117 29184 99579 10000 47496 /3021 10055 20014 49976 53010 762// 22200 10706 70029
BBXX BATUK01 29184 99560 70032 46/// /2608 10030 21017 40073 52023 22200 00062
BBXX 62105 29184 99554 70121 46/// /3022 10092 20037 40198 52013 22200 00106 10912 70062 333 90710 91136
BBXX PBHZ 29183 99537 70155 41/96 93018 10110 20101 40244 58011 70382 89/// 22213 29904 33136 40807 50806 80105
BBXX 62095 29184 99530 70159 46/// /2515 10111 20095 40256 58005 22200 00111 10909 70047
BBXX 62301 29184 99524 70047 46/// /3121 10093 20063 40192 51010 22200 00090 10606 70031 333 90710 91136
BBXX 62094 29184 99517 70067 46/// /2623 10109 20078 40228 50003 22200 00106 10607 70034 333 90710 91131
BBXX 62303 29184 99516 70051 46/// /2729 10107 20080 40218 58002 22200 00111 10708 70038 333 90710 91141
BBXX 62023 29183 99514 70079 46/96 /2732 10105 2//// 40260 5//// 22200 10607 70036 333 91140 555 70058 80001
BBXX 62081 29184 99510 70134 46/// ///// 10112 20094 40300 56008 22200 00119 10810 70051
BBXX TESTFR9 29184 99508 70011 46/// /2732 10097 29078 40205 57030 22272
BBXX A8CC4 29184 99507 70232 41/93 92326 10135 20118 40278 55008 74944 8//// 22224 04110 20403 321// 40905 80125
BBXX 62305 29184 99504 10000 46/97 /2636 10104 20077 40199 56018 22200 00115 10806 70029 333 90710 91147
BBXX VRFX8 29184 99503 70292 41/93 /2030 10130 20130 40170 54000 74544 8//// 22214 0//// 20404 318// 40707 80130
BBXX BAREU00 29184 99502 70059 46/// ///// 40261 57012 22263
BBXX 62107 29184 99501 70061 46/// /2935 10109 20076 40279 57008 22200 00114 10807 70036 333 90710 91150
BBXX 62103 29184 99499 70029 46/98 /2738 10112 20070 40244 56009 22200 00117 10907 70037 333 90710 91155
BBXX BATFR02 29184 99497 70004 46/// /2746 10104 20075 40223 22283 00114
BBXX BATFR60 29184 99496 70038 46/// /2542 10112 20070 40256 51016 22252 00112
BBXX PHAM 29184 99495 70011 41/97 /2731 10110 20072 40240 54000 7//// 8//// 22200 20408 80090 90926
BBXX BATFR14 29184 99495 10002 46/// /2720 10094 20074 40229 56017 22200 00102
BBXX 62027 29184 99491 70022 46/// /2825 1//// 2//// 40269 56011 22200 00107 10907 329// 70035 333 90710 91134
BBXX 62442 29184 99490 70164 46/// /2220 1//// 2//// 40336 57015 22200 00122 333 90710 91131
BBXX 62029 29184 99487 70125 46/// /2620 10118 20081 40348 56011 22200 00127 10809 70045 333 90710 91127
BBXX 62163 29184 99475 70084 46/// /2820 10104 20054 40358 57009 22200 00124 10808 70041 333 90710 91127
BBXX BATFR54 29184 99473 70040 44/97 32926 10107 20050 40336 55003 702// 8//// 22232 00125 20802 313// 41002 5////
BBXX C6KD6 29184 99452 70168 41/98 92018 10128 20082 40395 54000 70322 8972/ 22214 02137 21008 80105
BBXX 62001 29184 99452 70050 46/// /3012 10109 20067 40372 55001 22200 00138 10909 70045
BBXX BAREU05 29184 99429 70292 46/// ///// 40312 52015 22223
BBXX ZCBF3 29183 99428 70291 41997 81830 10150 20141 40315 51010 70322 88010 22224 20602 316// 41106 5//// 80145
BBXX A8RL2 29183 99407 70218 41/98 61812 10160 20151 40400 54000 70322 8457/ 22214 04171 21004 336// 41604 80155
BBXX OXHY2 29183 99366 70004 41498 13105 10159 20113 40292 53002 70222 81140 22224 00162 20301 30000 40000 5//// 80132
BBXX DGZT2 29183 99362 70039 41/98 /3108 10145 20072 40290 53015 70200 8//// 22264 04160 2//// 80106
BBXX 46221 29181 99339 71186 46/// ///// 1//// 91815 22200 00149 11102 20902 327// 41101 70010
BBXX 42023 29181 99261 70831 46/// /0602 1//// 91830 333 91203
BBXX 42023 29181 99261 70831 46/// /0602 1//// 91800 333 91203
BBXX VRBQ6 29184 99531 71595 41298 83022 10000 20000 40089 52040 70222 87/// 22273 00045 2//// 3//// 4//// 80000
BBXX VRBQ6 29184 99531 71595 41298 83022 10000 20000 40089 52040 70222 87/// 22273 00045 2//// 3//// 4//// 80000
BBXX 2ALE5 29183 99302 70119 416// 30420 40300 53001 7//// 83180 22253 20604
AAXX 20184 63705 32560 31706 10230 20203 38851 48507 82905 333 10265 59002 81820 81923 555 10210
AAXX 29181 63332 NIL
AAXX 29181 63333 42980 00000 10144 20083 38196 40232 333 10243 58003
AAXX 29181 63334 42980 00000 10121 21021 37646 40174 333 10220 58003
AAXX 29181 63340 42980 00000 10148 20085 37961 40188 333 10262 58010
AAXX 29181 63402 NIL
AAXX 29181 63450 74980 00505 10133 20035 37757 40168 333 10220 59004
AAXX 29181 63451 42980 0//// 1//// 2//// 38167 4//// 333 10237 58000
AAXX 29181 63453 NIL
AAXX 29181 63460 NIL
AAXX 29181 63471 NIL
AAXX 29181 63478 NIL
AAXX 29181
AAXX 29184 67765 41681 70801 10215 20203 38663 48507 71392 81973 333 10270 58003 81938 87460
AAXX 29184 67775 41650 71604 10187 20185 38506 48510 79596 83273 333 10265 58006 81930 83835 88458
AAXX 29184 67779 NIL
AAXX 29184 67853 NIL
AAXX 29184 67861 NIL
AAXX 29184 67867 NIL
AAXX 29184 67881 NIL
AAXX 29184 67965 41475 71710 10199 20169 38671 48495 70198 8257/ 333 10277 59011 82615 87459
AAXX 29184 67975 41465 81407 10191 20187 38929 48518 75896 8757/ 333 10260 5//// 81704 87608 88459
AAXX 29184 67977 NIL
AAXX 29184 67983 41000 80000 10196 20191 38885 48511 75965 8877/ 333 10252 58017 88700
AAXX 29184 67991 42675 51402 10238 20187 39592 48498 85500 333 10255 58028 85630
AAXX 29184 71102 16/// ///// 11048 21054 60001 333 11048 7////
AAXX 29184 71105 16/// ///// 10063 21013 60001 333 10087 20016 70000
AAXX 29184 71383 16/// ///// 11192 21229 39350 49972 53006 60001 333 11181 21213 70069
AAXX 29184 71409 16/// ///// 10044 20012 60001 333 10073 20009 70000
AAXX 29184 71006 47/// /3112 10000 20000 6///1 7//4/ 333 7////
AAXX 29184 71007 16/// ///// 10066 21058 60001 333 10074 20027 70005
AAXX 29184 71008 16/// /3325 10032 21005 60001 333 10055 20013 70000
AAXX 29184 71009 16/// /3312 10022 21002 60001 333 10051 21016 70000
AAXX 29184 71012 16/// /3208 11043 21053 60001 333 11042 21101 70000
AAXX 29184 71035 16/// ///// 10031 21015 60001 333 10041 21049 70000
AAXX 29184 71051 16/// ///// 10047 21009 60001 333 10067 21010 70000
AAXX 29184 71057 16/// ///// 10031 21013 60001 333 10057 21003 70000
AAXX 29184 71070 16/// ///// 10072 21052 60001 333 10075 20023 70000
AAXX 29184 71089 16/// ///// 11048 21055 60001 333 11047 21100 70000
AAXX 29184 71433 46/// /1426 11008 21013 39796 40027 58020 6///1 333 11006 21122 7////
AAXX 29184 71502 16/// /0819 11230 21247 39979 49995 52004 60001 333 11220 21241 70000
AAXX 29184 71509 16/// /2622 10077 21067 60001 333 10077 20024 70000
AAXX 29184 71517 16/// /2729 10062 21060 60001 333 10070 20011 70000
AAXX 29184 71518 16/// /3215 10059 21005 60001 333 10086 20016 70000
AAXX 29184 71519 16/// /3118 10069 21003 60001 333 10088 20032 70000
AAXX 29184 71520 16/// /3313 11202 21229 39285 49972 53011 60001 333 11194 21224 70000
AAXX 29184 71521 16/// ///// 11195 21227 60001 333 11176 21211 70014
AAXX 29184 71523 16/// ///// 11189 21237 39662 40051 53006 60001 333 11187 21244 70000
AAXX 29184 71528 16/// /3417 10071 21025 60001 333 10085 20014 70000
AAXX 29184 71841 17/// /1002 11098 21119 39662 40068 58009 69961 7//4/ 333 11098 21222 70006 555 10060
AAXX 29184 71789 16/// ///// 10071 21089 60001 333 10074 20027 70000
AAXX 29184 71794 16/// ///// 11053 21064 60001 333 11040 21097 70000
AAXX 29184 71795 16/// ///// 10066 21016 60001 333 10093 20028 70000
AAXX 29184 71796 16/// ///// 11021 21029 60001 333 11012 21073 7////
AAXX 29181 63332 NIL
AAXX 29181 63333 42980 00000 10144 20083 38196 40232 333 10243 58003
AAXX 29181 63334 42980 00000 10121 21021 37646 40174 333 10220 58003
AAXX 29181 63340 42980 00000 10148 20085 37961 40188 333 10262 58010
AAXX 29181 63402 NIL
AAXX 29181 63450 74980 00505 10133 20035 37757 40168 333 10220 59004
AAXX 29181 63451 42980 0//// 1//// 2//// 38167 4//// 333 10237 58000
AAXX 29181 63453 NIL
AAXX 29181 63460 NIL
AAXX 29181 63471 NIL
AAXX 29181 63478 NIL
AAXX 29184 71433 46/// /1426 11008 21013 39796 40027 58020 6///1 333 11006 21122 7////
AAXX 29184 67765 41681 70801 10215 20203 38663 48507 71392 81973 333 10270 58003 81938 87460
AAXX 29184 67775 41650 71604 10187 20185 38506 48510 79596 83273 333 10265 58006 81930 83835 88458
AAXX 29184 67779 NIL
AAXX 29184 67853 NIL
AAXX 29184 67861 NIL
AAXX 29184 67867 NIL
AAXX 29184 67881 NIL
AAXX 29184 67965 41475 71710 10199 20169 38671 48495 70198 8257/ 333 10277 59011 82615 87459
AAXX 29184 67975 41465 81407 10191 20187 38929 48518 75896 8757/ 333 10260 5//// 81704 87608 88459
AAXX 29184 67977 NIL
AAXX 29184 67983 41000 80000 10196 20191 38885 48511 75965 8877/ 333 10252 58017 88700
AAXX 29184 67991 42675 51402 10238 20187 39592 48498 85500 333 10255 58028 85630
AAXX 29184 71841 17/// /1002 11098 21119 39662 40068 58009 69961 7//4/ 333 11098 21222 70006 555 10060
AAXX 29184 63729 32580 40000 10235 20202 38867 48/// 81930 333 10273 55300 58004 81620 81922 84360
AAXX 29184 63733 32580 50000 10234 20194 38857 48498 81931 333 10289 55300 59001 81922 85359
AAXX 29184 63756 32580 60000 10240 20195 38864 48502 81932 333 10297 58000 81621 81922 86360
AAXX 29184 63791 32580 61410 10250 20173 39123 48509 86900 333 10316 55300 59016 81925 85627
AAXX 29184 63801 31580 50000 10235 20213 39202 48525 71300 81901 333 10300 59003 81822 81923 85075
AAXX 29184 63832 32580 50000 10228 20188 38822 48498 8197/ 333 10281 58001 81821 81922 85458
AAXX 29184 63862 01480 60000 10196 20186 38898 48502 60442 72262 83970 333 0//52 10285 59004 69937 83818 81919 86357
AAXX 29184 63866 11580 30610 10238 20196 39514 48/// 60042 79596 83900 333 0//11 10300 59004 82620 81922
AAXX 29184 63870 32480 10610 10277 20252 30089 40107 81200 333 10325 55300 59010 81818
AAXX 29184 63881 12480 30000 10168 20160 38207 48/// 60092 82900 333 0//94 10221 55300 59001 82617 81919
AAXX 29184 63887 12480 70000 10186 20176 38592 48514 60062 84872 333 10275 55300 58001 83819 86358
AAXX 29184 63894 32580 50313 10276 20252 30055 40115 85900 333 10317 55300 59005 85822 81923
AAXX 29184 63932 12580 20000 10177 20158 38316 48514 60242 82900 333 10241 58003 82622 81923
AAXX 29184 63962 11580 70000 10224 20187 38950 48509 60012 76192 333 0//51 10283 58002 83622 81924 87457
AAXX 29184 63971 32580 30112 10272 20249 39975 40103 83930 333 10313 55300 59005 83820 81921
AAXX 29184 61017 32960 70000 10190 20049 39730 40143 80008 333 10272 59007 87280
AAXX 29184 61024 32960 72804 10239 21010 39571 40145 80006 333 10293 58002 87280
AAXX 29184 61036 32962 70404 10266 20038 39897 40138 80008 333 10316 58007 87280
AAXX 29184 61043 32960 70208 10265 21061 39686 40129 80008 333 10307 58008 87280
AAXX 29184 61045 32965 50000 10255 21053 39620 40119 80002 333 10320 59002 85080
AAXX 29184 61049 32960 50000 10262 20011 39788 40108 80002 333 10331 59001 85080
AAXX 29184 61052 32960 30208 10280 21012 39878 40137 80002 333 10316 58017 83080
AAXX 29184 61075 32960 50000 10280 20068 39808 40118 80002 333 10335 58008 85080
AAXX 29184 61080 42960 70202 10273 20076 39701 40123 80008 333 10326 58002 87280
AAXX 29184 61090 32965 50000 10260 20043 39611 40123 80002 333 10322 58008 85080
AAXX 29184 61091 32965 50000 10250 20122 39676 40135 80002 333 10330 58002 85080
AAXX 29184 61096 32965 73602 10278 20018 39738 40121 80008 333 10345 59001 87280
AAXX 29184 61099 32965 73608 10294 20032 39881 40110 80008 333 10337 58006 87280
AAXX 29184
AAXX 29183 63671 32980 00805 10254 20123 333 10330
AAXX 29183 63695 32980 02703 10142 20116 333 10242
AAXX 29183 63723 32980 00000 10293 20150 40107 333 10356 58017
AAXX 29183 63772 32980 00711 10270 20231 333 10323
AAXX 29183 63793 32480 70000 10244 20181 40097 8253/ 333 10288 58000 82618 87358
AAXX 29184 61017 32960 70000 10190 20049 39730 40143 80008 333 10272 59007 87280
AAXX 29184 61024 32960 72804 10239 21010 39571 40145 80006 333 10293 58002 87280
AAXX 29184 61036 32962 70404 10266 20038 39897 40138 80008 333 10316 58007 87280
AAXX 29184 61043 32960 70208 10265 21061 39686 40129 80008 333 10307 58008 87280
AAXX 29184 61045 32965 50000 10255 21053 39620 40119 80002 333 10320 59002 85080
AAXX 29184 61049 32960 50000 10262 20011 39788 40108 80002 333 10331 59001 85080
AAXX 29184 61052 32960 30208 10280 21012 39878 40137 80002 333 10316 58017 83080
AAXX 29184 61075 32960 50000 10280 20068 39808 40118 80002 333 10335 58008 85080
AAXX 29184 61080 42960 70202 10273 20076 39701 40123 80008 333 10326 58002 87280
AAXX 29184 61090 32965 50000 10260 20043 39611 40123 80002 333 10322 58008 85080
AAXX 29184 61091 32965 50000 10250 20122 39676 40135 80002 333 10330 58002 85080
AAXX 29184 61096 32965 73602 10278 20018 39738 40121 80008 333 10345 59001 87280
AAXX 29184 61099 32965 73608 10294 20032 39881 40110 80008 333 10337 58006 87280
AAXX 29184 96995 46/// /2804 10241 20237 39798 40092
AAXX 29184 96995 46/// /2804 10241 20237 39798 40092
AAXX 29181 98741 11465 80000 10256 20240 40096 57009 60011 70282 8327/ 333 56199 83817 88358
AAXX 29181 89063 42698 81402 10017 20009 39789 49800 57004 8561/ 222// ICE 54892 333 44113
BBXX GRFP 29184 99329 31738 41297 80425 10210 20194 40098 54000 7//// 8762/ 22284 00200 20303 30510 40404 50303 80200
BBXX GRFP 29184 99329 31738 41297 80425 10210 20194 40098 54000 7//// 8762/ 22284 00200 20303 30510 40404 50303 80200
BBXX 9V7645 29184 99195 71063 41/// 40106 10230 20185 40140 54/// 70300 84296 22273 00250 20202 33434 40202 50102 6//// 80200 ICE /////
BBXX ZCDL9 29183 99157 30109 41498 42025 10180 20146 40179 50000 70211 8/2// 22244 04200 20606 323// 40606 5//// 80160
BBXX OYCY2 29184 99390 11364 41797 83235 10000 2103/ 40210 54000 77077 8672/ 22253 00160 2//// 3//// 4//// 5//// 62//2 81010 ICE /////
BBXX VQGQ4 29184 99273 11241 41/// /0130 10150 20113 40240 58020 70322 8//// 22233 00213 20603 335// 40604 80130
BBXX SHIP 29184 99195 11197 41/98 80726 10260 20246 40151 52010 70222 88/// 22234 00210 2//// 3//// 4//// 80250
BBXX VRDN3 29184 99092 10757 41/97 /3014 10270 20260 40155 52005 70200 8//// 22233 00/// 2//// 80240
BBXX SHIP 29184 99212 11211 41397 /0719 10232 20217 40185 5//// 75052 8//// 22213 00260 2//// 80222
BBXX DGZS2 29183 99182 11134 41497 80725 10230 20201 40170 5//// 70222 8677/ 22244 00240 20605 304// 40805 80210
BBXX S6JT 29184 99517 11596 41597 22814 11015 21032 40190 54000 70100 818/8 22254 04010 20603 310// 40704 81020
BBXX DPFP 29183 99111 10837 41397 81728 10250 20229 40100 54000 70322 87717 22272 04240 20908 327// 41008 80235
BBXX VRFH2 29183 99311 11312 41398 43224 10130 20070 40240 5//// 7//// 820// 22215 00/// 20203 303// 40203 80170
BBXX WDE8264 29183 99138 10726 41998 03509 10250 20191 40130 5//// 7//// 80000 22234 00250 20802 332// 41204 80210
BBXX 2ALE5 29183 99302 70119 416// 30420 40300 53001 7//// 83180 22253 20604
BBXX C6NI8 29183 99383 70135 41598 73618 10140 20068 40383 54000 70322 86710 22283 04170 21007 336// 41507 5//// 80105
BBXX 66022 29181 99541 10142 46/// /2112 10056 30040 22200 00042
BBXX ELYP7 29184 99009 31190 41497 81909 10280 20267 40090 57010 71322 875// 22243 00/// 20301 80270
BBXX ZIPR 29183 99134 30750 41/98 /1622 10276 20246 40105 51008 71511 8//// 22214 00285 2//// 80255
BBXX A8SZ5 29184 99021 31187 41497 /1209 10270 20243 40090 56020 703// 8/21/ 22283 00/// 2//// 80250
BBXX A8HJ8 29183 99012 11034 41/96 /3614 10248 20227 40123 51003 70222 8//// 222// 00/// 20201 80233
BBXX 9V7645 29184 99195 71063 41/// 40106 10230 20185 40140 54/// 70300 84296 22273 00250 20202 33434 40202 50102 6//// 80200 ICE /////
BBXX 42023 29181 99261 70831 46/// /0602 1//// 91830 333 91203
BBXX 42023 29181 99261 70831 46/// /0602 1//// 91800 333 91203
BBXX SHIP 29184 99531 71595 41298 83022 10000 20000 40089 52040 70222 87/// 22273 00045 2//// 3//// 4//// 80000
BBXX 46221 29181 99339 71186 46/// ///// 1//// 91815 22200 00149 11102 20902 327// 41101 70010
BBXX 46216 29181 99343 71198 46/// ///// 1//// 91827 22200 00138 11302 21002 326// 41302 70011
BBXX 46242 29181 99332 71174 46/// ///// 1//// 91828 22200 00142 11201 20901 325// 41201 70006
BBXX 46231 29181 99327 71174 46/// ///// 1//// 91824 22200 00146 11302 21002 327// 41302 70011
BBXX 46223 29181 99335 71178 46/// ///// 1//// 91830 22200 00146 11302 21001 328// 41301 70008
BBXX 46213 29181 99403 71247 46/// ///// 1//// 91824 22200 00104 11205 21003 329// 41204 70027
BBXX 46222 29181 99336 71183 46/// ///// 1//// 91826 22200 00149 11302 20801 327// 41302 70012
BBXX 46237 29181 99378 71226 46/// ///// 1//// 91811 22200 00109 11304 21002 326// 41303 70021
BBXX 46241 29181 99330 71173 46/// ///// 1//// 91811 22200 00143 11302 21001 327// 41302 70010
BBXX DDSC2 29183 99250 70562 41398 51115 10255 20189 40250 54000 70300 83245 22254 00247 20402 336// 40706 80210
BBXX 42360 29181 99267 70905 46/// /2703 10211 91800 22200 00245 10301 70004 333 91204
BBXX 41053 29181 99185 70661 46/// /0908 10269 40160 91820 333 91209
BBXX 41053 29181 99185 70661 46/// /0807 10269 40159 91830 333 91210
BBXX 41052 29181 99183 70648 46/// /0807 10267 40160 58025 91800 22200 00270 10602 70012 333 91208
BBXX 41053 29181 99185 70661 46/// /0907 10268 40161 91810 333 91210
BBXX 44024 29181 99423 70659 46/28 /2812 10023 40064 53013 91804 22200 00074 11111 70056 333 91216 555 11144 22152
AAXX 29184 60590 12975 03004 10100 20019 40278 53009 60002 333 10140
BBXX MINUK01 2918/ 99573 70019 46/// ///// 10040 40011 54000
AAXX 29184 71249 16/// /3117 10008 21016 60001 333 10046 21042 7////
AAXX 29184 71857 16/// ///// 11057 21065 60001 333 11054 7////
AAXX 29184 71360 16/// ///// 11052 21052 60001 333 11050 21090 7////
AAXX 29184 71380 16/// /3016 10026 21022 60001 333 10059 21107 70000
AAXX 29184 71346 16/// /3215 10078 21025 60001 333 10078 20011 7////
AAXX 29184 71014 16/// /3009 10021 21002 60001 333 10069 21050 7////
AAXX 29184 71481 17/// /2808 10025 21036 69941 7//4/ 333 10028 21054 70004
AAXX 29184 71498 16/// /3217 10035 20001 60001 333 10056 20016 70000
AAXX 29184 71055 46/// /0708 11250 21276 39666 40006 52002 6///1 333 11221 21250 7////
AAXX 29184 71065 16/// ///// 11054 21065 60001 333 11054 21101 70004
AAXX 29184 71904 16/// ///// 10020 21020 60001 333 10045 21055 7////
AAXX 29184 71413 17/// ///// 10005 21008 69941 7//4/ 333 10036 21091 70004
AAXX 29184 71414 16/// ///// 11055 21060 60001 333 11054 21119 70004
AAXX 29184 71440 16/// ///// 10028 21003 60001 333 10049 20023 70000
AAXX 29184 71791 16/// /2905 11060 21066 60001 333 11059 21091 70000
AAXX 29184 71797 16/// ///// 11055 21058 60001 333 11055 21081 70000
AAXX 29184 71674 17/// ///// 10010 20002 60011 7//4/ 333 10010 21087 70011
AAXX 29184 71540 16/// /3004 10020 21028 60001 333 10044 21106 70000
AAXX 29184 71544 17/// ///// 10019 20010 60061 7//4/ 333 21105 7////
AAXX 29184 71548 16/// ///// 11059 21069 60001 333 11059 21112 70000
BBXX 42085 29181 99179 70665 46/// /0908 10272 40155 91830 333 91210
BBXX 42085 29181 99179 70665 46/// /0909 10272 40155 91820 333 91211
BBXX 42085 29181 99179 70665 46/// /0908 10273 40155 91810 333 91210
AAXX 29181 58968 11556 80903 10163 20148 30215 40223 58006 69921 76162 887//
AAXX 29181 58974 46/// /0412 10151 20123 30103 40229 58004
AAXX 29181 59358 31640 80104 10177 20137 30172 40204 55001 71011 885//
AAXX 29181 59559 32562 40404 10215 20168 30155 40183 58003 84200
AAXX 29184 48383 31957 00501 10190 20165 39990 40154 56001 71000 333 58000
AAXX 29181 59158 32560 60202 10175 20128 30094 40196 58003 86500
AAXX 29181 59562 32670 83401 10200 20153 30186 40198 55005 885//
BBXX ZIPR 29183 99134 30750 41/98 /1622 10276 20246 40105 51008 71511 8//// 22214 00285 2//// 80255
BBXX ZCDL9 29183 99157 30109 41498 42025 10180 20146 40179 50000 70211 8/2// 22244 04200 20606 323// 40606 5//// 80160
AAXX 29184 45011 47557 /0110 10158 20138 40220 52003 71011 333 58014
AAXX 29184 88903 45/// /3220 10070 20008 39848 49848 58014
AAXX 29184 83384 32597 63202 10308 20206 39520 40089 84380 333 59019
AAXX 29184 83386 21296 82713 10245 20209 39559 40086 78182 8372/ 333 59017 60181
AAXX 29184 83388 32497 53205 10331 20174 39403 40056 83206 333 59021
AAXX 29184 83393 31599 82303 10252 20189 39374 40089 71692 86820 333 59016
AAXX 29184 83442 32597 60000 10317 20225 39722 40059 81135 333 59010
AAXX 29184 83479 21598 83612 10212 20193 39310 40105 79596 889// 333 59016 60121
AAXX 29184 83483 32597 60902 10273 20228 39517 40072 83436 333 59023
AAXX 29184 83531 21597 83604 10192 20192 39071 40102 70122 887// 333 59004 60191
AAXX 29184 83538 21493 82704 10183 20167 38701 40091 78196 887// 333 59006 60061
AAXX 29184 83574 32794 60902 10352 20207 39563 40155 5//// 86100
AAXX 29184 83582 21596 81404 10212 20197 39335 40098 57002 76362 88600 333 60151
AAXX 29184 83595 21596 80000 10234 20222 30028 40113 76065 885// 333 58020 60221
AAXX 29184 83692 21697 81806 10190 20173 39075 40114 58005 72162 882// 333 60091
OOXX SEP63 29161 99594 10180 ///// 00401 26/// /0803 10049 29082 39760 91610 333 60000
OOXX SEP63 29161 99594 10180 ///// 00401 26/// /0803 10048 29082 39760 91620 333 60000
OOXX SEP63 29161 99594 10180 ///// 00401 26/// /0604 10048 29082 39760 91630 333 60000
OOXX SEP63 29161 99594 10180 ///// 00401 26/// /0604 10048 29082 39760 91640 333 69920
OOXX SEP63 29161 99594 10180 ///// 00401 26/// /0804 10048 29082 39760 91650 333 60000
OOXX SEP63 29171 99594 10180 ///// 00401 26/// /0603 10048 29083 39760 91700 333 60000
OOXX SEP63 29171 99594 10180 ///// 00401 26/// /0603 10047 29084 39760 91710 333 60000
OOXX SEP63 29171 99594 10180 ///// 00401 26/// /0804 10047 29084 39760 91720 333 60000
OOXX SEP63 29171 99594 10180 ///// 00401 26/// /0904 10046 29085 39760 91730 333 60000
OOXX SEP63 29171 99594 10180 ///// 00401 26/// /1004 10045 29086 39760 91740 333 60000
OOXX SEP63 29171 99594 10180 ///// 00401 26/// /0803 10044 29087 39760 91750 333 60000
OOXX SEP63 29181 99594 10180 ///// 00401 26/// /0804 10043 29088 39760 91800 333 60000
BBXX OYCY2 29184 99390 11364 41797 83235 10000 21030 40210 54000 77077 8672/ 22253 00160 2//// 3//// 4//// 5//// 62//2 81010 ICE /////
BBXX VRFH2 29183 99311 11312 41398 43224 10130 20070 40240 5//// 7//// 820// 22215 00/// 20203 303// 40203 80170
BBXX S6JT 29184 99517 11596 41597 22814 11015 21032 40190 54000 70100 818/8 22254 04010 20603 310// 40704 81020
AAXX 29184 71437 46/// /0706 11015 21045 30010 40107 58037 6///1 333 11015 21077 7////
AAXX 29184 71573 16/// /1505 11005 21029 39799 40087 58035 60001 333 11004 21148 70000
AAXX 29184 71005 16/// ///// 11054 21071 60001 333 11053 21122 70000
AAXX 29184 71437 46/// /0706 11015 21045 30010 40107 58037 6///1 333 11015 21077 7////
AAXX 29184 71005 16/// ///// 11054 21071 60001 333 11053 21122 70000
AAXX 29184 71573 16/// /1505 11005 21029 39799 40087 58035 60001 333 11004 21148 70000
AAXX 29184 91844 46/// /2504 10240 40069 22200 00262
BBXX 64045 29184 99591 70117 46/// /3026 10061 20011 40104 52027 22200 00099 11016 70080 333 90710 91145
BBXX 63055 29184 99606 10016 47798 /3318 10045 20012 49927 53016 700// 22200 10808 70039
BBXX 63106 29184 99610 10017 46/// /3622 10047 49929 52025 22200
BBXX 63105 29184 99610 10017 47598 ///// 10046 21000 49931 52027 751// 22200
BBXX 62304 29184 99511 10018 46/97 /2537 10084 20055 40143 57031 22200 00108 10603 70016 333 90710 91152
BBXX 62103 29184 99499 70029 46/98 /2738 10112 20070 40244 56009 22200 00117 10907 70037 333 90710 91155
BBXX 63110 29183 99595 10015 41/98 /3327 10080 49935 700// 8//// 22200 10808 70040
AAXX 29184 03008 12580 63210 10039 21023 49981 60002 868// 91750 333 10041 84820
BBXX 42085 29181 99179 70665 46/// /0908 10273 40155 91810 333 91210
BBXX 42085 29181 99179 70665 46/// /0909 10272 40155 91820 333 91211
BBXX 42085 29181 99179 70665 46/// /0908 10272 40155 91830 333 91210
BBXX WRGD 29184 99375 71559 41698 63215 10140 2009/ 40220 5//// 70121 84187 22225 00160 20206 3//// 40608 5//// 6//// 80110 ICE /////
BBXX GRFP 29184 99329 31738 41297 80425 10210 20194 40098 54000 7//// 8762/ 22284 00200 20303 30510 40404 50303 80200
BBXX BSH03 29181 99540 10081 46/// ///// 22200 00066 21106 70028
BBXX BSH05 29181 99549 10082 46/// ///// 22200 22013 70067
BBXX MINUK01 2918/ 99573 70019 46/// ///// 10040 40011 54000
OOXX CAP17 29161 99476 70527 ///// 01331 26/// /0912 10055 29065 39754 91600 333 60000
OOXX CAP17 29161 99476 70527 ///// 01331 26/// /0813 10054 29065 39754 91610 333 60000
OOXX CAP17 29161 99476 70527 ///// 01331 26/// /0813 10053 29065 39757 91620 333 60000
OOXX CAP17 29161 99476 70527 ///// 01331 26/// /0811 10052 29067 39757 91630 333 60000
OOXX CAP17 29161 99476 70527 ///// 01331 26/// /0811 10053 29067 39760 91640 333 60000
OOXX CAP17 29161 99476 70527 ///// 01331 26/// /0912 10052 29066 39759 91650 333 60000
OOXX CAP17 29171 99476 70527 ///// 01331 26/// /0912 10050 29066 39759 91700 333 60000
OOXX CAP17 29171 99476 70527 ///// 01331 26/// /0911 10050 29067 39756 91710 333 60000
OOXX CAP17 29171 99476 70527 ///// 01331 26/// /0912 10050 29066 39759 91720 333 60000
OOXX CAP17 29171 99476 70527 ///// 01331 26/// /0911 10049 29066 39761 91730 333 60000
OOXX CAP17 29171 99476 70527 ///// 01331 26/// /0812 10048 29066 39763 91740 333 60000
OOXX CAP17 29171 99476 70527 ///// 01331 26/// /0811 10048 29066 39762 91750 333 60000
OOXX FRP29 29161 99210 30556 ///// 00751 26/// /2205 10266 29082 39856 91609 333 60000
OOXX FRP29 29161 99210 30556 ///// 00751 26/// /2205 10265 29082 39857 91619 333 60000
OOXX FRP29 29161 99210 30556 ///// 00751 26/// /2205 10262 29083 39854 91629 333 60000
OOXX FRP29 29161 99210 30556 ///// 00751 26/// /2205 10262 29083 39855 91639 333 60000
OOXX FRP29 29161 99210 30556 ///// 00751 26/// /2205 10259 29084 39853 91649 333 60000
OOXX FRP29 29161 99210 30556 ///// 00751 26/// /2206 10259 29084 39855 91659 333 60000
OOXX FRP29 29171 99210 30556 ///// 00751 26/// /2206 10258 29084 39857 91709 333 60000
OOXX FRP29 29171 99210 30556 ///// 00751 26/// /2206 10256 29084 39856 91719 333 60000
OOXX FRP29 29171 99210 30556 ///// 00751 26/// /2206 10257 29085 39857 91729 333 60000
OOXX FRP29 29171 99210 30556 ///// 00751 26/// /2206 10257 29084 39857 91739 333 60000
OOXX FRP29 29171 99210 30556 ///// 00751 26/// /2206 10256 29084 39854 91749 333 60000
OOXX FRP29 29171 99210 30556 ///// 00751 26/// /2206 10256 29084 39857 91759 333 60000
OOXX MYP42 29161 99045 11014 ///// 15551 26/// /2403 10176 29092 38449 91604 333 60000
OOXX MYP42 29161 99045 11014 ///// 15551 26/// /0304 10177 29092 38434 91614 333 60000
OOXX MYP42 29161 99045 11014 ///// 15551 26/// /1301 10176 29092 38451 91624 333 60000
OOXX MYP42 29161 99045 11014 ///// 15551 26/// /0301 10174 29093 38440 91634 333 60000
OOXX MYP42 29161 99045 11014 ///// 15551 26/// /0201 10172 29094 38456 91644 333 60000
OOXX MYP42 29161 99045 11014 ///// 15551 26/// /0605 10174 29095 38444 91654 333 60000
OOXX MYP42 29171 99045 11014 ///// 15551 26/// /1305 10173 29095 38429 91704 333 60000
OOXX MYP42 29171 99045 11014 ///// 15551 26/// /2401 10174 29095 38438 91714 333 60000
OOXX MYP42 29171 99045 11014 ///// 15551 26/// /1101 10169 29095 38451 91724 333 60000
OOXX MYP42 29171 99045 11014 ///// 15551 26/// /0202 10169 29096 38438 91734 333 60000
OOXX MYP42 29171 99045 11014 ///// 15551 26/// /1603 10173 29096 38449 91744 333 60000
OOXX MYP42 29171 99045 11014 ///// 15551 26/// /1001 10170 29096 38451 91754 333 60000
OOXX RUP54 29161 99586 10494 ///// 01271 26/// /0805 11049 29089 39933 91627 333 60120
OOXX RUP54 29161 99586 10494 ///// 01271 26/// /0905 11049 29089 39932 91637 333 60120
OOXX RUP54 29161 99586 10494 ///// 01271 26/// /0404 11050 29089 39931 91647 333 60120
OOXX RUP54 29171 99586 10494 ///// 01271 26/// /0804 11051 29089 39930 91707 333 60120
OOXX RUP54 29171 99586 10494 ///// 01271 26/// /0705 11051 29089 39929 91717 333 60120
OOXX RUP54 29171 99586 10494 ///// 01271 26/// /0704 11051 29089 39927 91727 333 60120
OOXX RUP54 29171 99586 10494 ///// 01271 26/// /0704 11052 29089 39927 91737 333 60120
OOXX RUP54 29171 99586 10494 ///// 01271 26/// /0804 11052 29089 39928 91747 333 60120
OOXX RUP54 29171 99586 10494 ///// 01271 26/// /0705 11052 29089 39928 91757 333 60120
OOXX RUP54 29181 99586 10494 ///// 01271 26/// /0705 11053 29089 39928 91807 333 60120
OOXX RUP54 29181 99586 10494 ///// 01271 26/// /0706 11053 29089 39928 91817 333 60120
OOXX MRP43 29161 99181 70159 ///// 00101 26/// /0607 10240 29012 30173 91650 333 60000
OOXX MRP43 29171 99181 70159 ///// 00101 26/// /0507 10237 29012 30176 91700 333 60000
OOXX MRP43 29171 99181 70159 ///// 00101 26/// /0607 10240 29012 30176 91710 333 60000
OOXX MRP43 29171 99181 70159 ///// 00101 26/// /0507 10237 29012 30176 91720 333 60000
OOXX MRP43 29171 99181 70159 ///// 00101 26/// /0507 10237 29012 30177 91730 333 60000
OOXX MRP43 29171 99181 70159 ///// 00101 26/// /0507 10236 29012 30178 91740 333 60000
OOXX MRP43 29171 99181 70159 ///// 00101 26/// /0506 10236 29012 30179 91750 333 60000
OOXX MRP43 29181 99181 70159 ///// 00101 26/// /0507 10235 29013 30179 91800 333 60000
OOXX MRP43 29181 99181 70159 ///// 00101 26/// /0505 10233 29013 30182 91810 333 60000
OOXX MRP43 29181 99181 70159 ///// 00101 26/// /0506 10231 29013 30183 91820 333 60000
OOXX MRP43 29181 99181 70159 ///// 00101 26/// /0405 10229 29013 30185 91830 333 60000
OOXX MRP43 29181 99181 70159 ///// 00101 26/// /0405 10228 29013 30185 91840 333 60000
OOXX ARP01 29161 99345 50585 ///// 00311 26/// /1101 10118 29032 30116 91610 333 60000
OOXX ARP01 29161 99345 50585 ///// 00311 26/// /0000 10118 29032 30115 91620 333 60000
OOXX ARP01 29161 99345 50585 ///// 00311 26/// /0000 10118 29032 30114 91630 333 60000
OOXX ARP01 29161 99345 50585 ///// 00311 26/// /0000 10118 29032 30112 91640 333 60000
OOXX ARP01 29161 99345 50585 ///// 00311 26/// /0000 10117 29032 30112 91650 333 60000
OOXX ARP01 29171 99345 50585 ///// 00311 26/// /0000 10119 29032 30111 91700 333 60000
OOXX ARP01 29171 99345 50585 ///// 00311 26/// /0000 10120 29031 30110 91710 333 60000
OOXX ARP01 29171 99345 50585 ///// 00311 26/// /0000 10119 29031 30109 91720 333 60000
OOXX ARP01 29171 99345 50585 ///// 00311 26/// /0000 10120 29031 30106 91730 333 60000
OOXX ARP01 29171 99345 50585 ///// 00311 26/// /0000 10122 29031 30104 91740 333 60000
OOXX ARP01 29171 99345 50585 ///// 00311 26/// /0000 10124 29030 30103 91750 333 60000
OOXX ARP01 29181 99345 50585 ///// 00311 26/// /0000 10124 29030 30102 91800 333 60000
OOXX ARP03 29161 99412 50712 ///// 08491 26/// /2502 10251 29016 39180 91600 333 60000
OOXX ARP03 29161 99412 50712 ///// 08491 26/// /2502 10263 29015 39179 91610 333 60000
OOXX ARP03 29161 99412 50712 ///// 08491 26/// /2702 10260 29015 39177 91620 333 60000
OOXX ARP03 29161 99412 50712 ///// 08491 26/// /2802 10262 29015 39176 91630 333 60000
OOXX ARP03 29161 99412 50712 ///// 08491 26/// /2802 10264 29016 39175 91640 333 60000
OOXX ARP03 29161 99412 50712 ///// 08491 26/// /2802 10261 29015 39174 91650 333 60000
OOXX ARP03 29171 99412 50712 ///// 08491 26/// /2602 10271 29013 39172 91700 333 60000
OOXX ARP03 29171 99412 50712 ///// 08491 26/// /2502 10272 29013 39173 91710 333 60000
OOXX ARP03 29171 99412 50712 ///// 08491 26/// /2402 10266 29014 39173 91720 333 60000
OOXX ARP03 29171 99412 50712 ///// 08491 26/// /2502 10272 29014 39173 91730 333 60000
OOXX ARP03 29171 99412 50712 ///// 08491 26/// /2402 10275 29013 39170 91740 333 60000
OOXX ARP03 29171 99412 50712 ///// 08491 26/// /2502 10276 29013 39168 91750 333 60000
OOXX GBP68 29161 99371 50123 ///// 00641 26/// /3505 10000 29070 30188 91610 333 60000
OOXX GBP68 29161 99371 50123 ///// 00641 26/// /3506 10000 29072 30188 91620 333 60000
OOXX GBP68 29161 99371 50123 ///// 00641 26/// /3505 10000 29069 30186 91630 333 60000
OOXX GBP68 29161 99371 50123 ///// 00641 26/// /3505 10000 29070 30185 91640 333 60000
OOXX GBP68 29161 99371 50123 ///// 00641 26/// /3505 10000 29070 30185 91650 333 60000
OOXX GBP68 29171 99371 50123 ///// 00641 26/// /3504 10000 29070 30183 91700 333 60000
OOXX GBP68 29171 99371 50123 ///// 00641 26/// /3504 10000 29071 30185 91710 333 60000
OOXX GBP68 29171 99371 50123 ///// 00641 26/// /3504 10000 29072 30186 91720 333 60000
OOXX GBP68 29171 99371 50123 ///// 00641 26/// /3504 10000 29071 30186 91730 333 60000
OOXX GBP68 29171 99371 50123 ///// 00641 26/// /3504 10497 29072 30185 91740 333 60000
OOXX GBP68 29171 99371 50123 ///// 00641 26/// /3504 10000 29072 30185 91750 333 60000
OOXX GBP68 29181 99371 50123 ///// 00641 26/// /3504 10000 29072 30187 91800 333 60000
OOXX RUP60 29161 99531 11588 ///// 00651 26/// /3202 11128 29081 30099 91652 333 60000
OOXX RUP60 29171 99531 11588 ///// 00651 26/// /3302 11134 29079 30099 91702 333 60000
OOXX RUP60 29171 99531 11588 ///// 00651 26/// /3202 11121 29077 30099 91712 333 60000
OOXX RUP60 29171 99531 11588 ///// 00651 26/// /3306 11118 29075 30099 91722 333 60000
OOXX RUP60 29171 99531 11588 ///// 00651 26/// /3102 11115 29075 30100 91732 333 60000
OOXX RUP60 29171 99531 11588 ///// 00651 26/// /3001 11098 29068 30100 91742 333 60000
OOXX RUP60 29171 99531 11588 ///// 00651 26/// /2902 11088 29064 30101 91752 333 60000
OOXX RUP60 29181 99531 11588 ///// 00651 26/// /3006 11081 29062 30101 91802 333 60000
OOXX RUP60 29181 99531 11588 ///// 00651 26/// /2904 11080 29061 30102 91812 333 60000
OOXX RUP60 29181 99531 11588 ///// 00651 26/// /3002 11078 29060 30102 91822 333 60000
OOXX RUP60 29181 99531 11588 ///// 00651 26/// /3605 11077 29059 30104 91832 333 60000
OOXX RUP60 29181 99531 11588 ///// 00651 26/// /3404 11078 29059 30104 91842 333 60000
OOXX NZP46 29161 99438 51765 ///// 00221 26/// /3409 10154 29/// 30159 91630 333 60000
OOXX NZP46 29161 99438 51765 ///// 00221 26/// /3409 10155 29/// 30159 91640 333 60000
OOXX NZP46 29161 99438 51765 ///// 00221 26/// /3509 10155 29/// 30158 91650 333 60000
OOXX NZP46 29171 99438 51765 ///// 00221 26/// /3509 10156 29/// 30157 91700 333 60000
OOXX NZP46 29171 99438 51765 ///// 00221 26/// /3509 10156 29100 30157 91710 333 60000
OOXX NZP46 29171 99438 51765 ///// 00221 26/// /3509 10156 29100 30156 91720 333 60000
OOXX NZP46 29171 99438 51765 ///// 00221 26/// /3510 10157 29100 30155 91730 333 60000
OOXX NZP46 29171 99438 51765 ///// 00221 26/// /3510 10158 29100 30155 91740 333 60000
OOXX NZP46 29171 99438 51765 ///// 00221 26/// /3510 10158 29099 30154 91750 333 60000
OOXX NZP46 29181 99438 51765 ///// 00221 26/// /3510 10159 29099 30155 91800 333 60000
OOXX NZP46 29181 99438 51765 ///// 00221 26/// /3510 10160 29098 30154 91810 333 60000
OOXX NZP46 29181 99438 51765 ///// 00221 26/// /3510 10161 29097 30154 91820 333 60000
OOXX GBP67 29161 99159 50057 ///// 04381 26/// /0904 10184 29081 39673 91620 333 60000
OOXX GBP67 29161 99159 50057 ///// 04381 26/// /0904 10188 29079 39673 91630 333 60000
OOXX GBP67 29161 99159 50057 ///// 04381 26/// /0904 10190 29075 39672 91640 333 60000
OOXX GBP67 29161 99159 50057 ///// 04381 26/// /0804 10184 29081 39673 91650 333 60000
OOXX GBP67 29171 99159 50057 ///// 04381 26/// /0904 10182 29083 39673 91700 333 60000
OOXX GBP67 29171 99159 50057 ///// 04381 26/// /0904 10181 29084 39675 91710 333 60000
OOXX GBP67 29171 99159 50057 ///// 04381 26/// /0904 10177 29087 39676 91720 333 60000
OOXX GBP67 29171 99159 50057 ///// 04381 26/// /0904 10175 29090 39678 91730 333 60000
OOXX GBP67 29171 99159 50057 ///// 04381 26/// /0904 10173 29090 39678 91740 333 60000
OOXX GBP67 29171 99159 50057 ///// 04381 26/// /0904 10172 29090 39678 91750 333 60000
OOXX GBP67 29181 99159 50057 ///// 04381 26/// /0904 10172 29091 39679 91800 333 60000
OOXX GBP67 29181 99159 50057 ///// 04381 26/// /0904 10172 29090 39678 91810 333 60000
OOXX FJP26 29161 99178 31775 ///// 00311 26/// /1101 10252 29092 30038 91620 333 60000
OOXX FJP26 29161 99178 31775 ///// 00311 26/// /1101 10252 29092 30038 91630 333 60000
OOXX FJP26 29161 99178 31775 ///// 00311 26/// /1101 10252 29092 30038 91640 333 60000
OOXX FJP26 29161 99178 31775 ///// 00311 26/// /0801 10252 29092 30039 91650 333 60000
OOXX FJP26 29171 99178 31775 ///// 00311 26/// /0901 10253 29091 30040 91700 333 60000
OOXX FJP26 29171 99178 31775 ///// 00311 26/// /1101 10253 29090 30040 91710 333 60000
OOXX FJP26 29171 99178 31775 ///// 00311 26/// /1202 10254 29090 30041 91720 333 60000
OOXX FJP26 29171 99178 31775 ///// 00311 26/// /1302 10254 29090 30042 91730 333 60000
OOXX FJP26 29171 99178 31775 ///// 00311 26/// /1302 10252 29091 30043 91740 333 60000
OOXX FJP26 29171 99178 31775 ///// 00311 26/// /1102 10251 29092 30045 91750 333 60000
OOXX FJP26 29181 99178 31775 ///// 00311 26/// /1102 10251 29092 30046 91800 333 60000
OOXX FJP26 29181 99178 31775 ///// 00311 26/// /1002 10252 29091 30046 91810 333 60000
OOXX RUP58 29161 99442 11320 ///// 01121 26/// /0000 11159 29079 30145 91652 333 60000
OOXX RUP58 29171 99442 11320 ///// 01121 26/// /2601 11158 29078 30146 91702 333 60000
OOXX RUP58 29171 99442 11320 ///// 01121 26/// /2801 11160 29079 30148 91712 333 60000
OOXX RUP58 29171 99442 11320 ///// 01121 26/// /2501 11161 29079 30150 91722 333 60000
OOXX RUP58 29171 99442 11320 ///// 01121 26/// /2601 11160 29079 30151 91732 333 60000
OOXX RUP58 29171 99442 11320 ///// 01121 26/// /2201 11160 29079 30150 91742 333 60000
OOXX RUP58 29171 99442 11320 ///// 01121 26/// /3501 11159 29079 30151 91752 333 60000
OOXX RUP58 29181 99442 11320 ///// 01121 26/// /0301 11158 29079 30152 91802 333 60000
OOXX RUP58 29181 99442 11320 ///// 01121 26/// /3501 11158 29078 30153 91812 333 60000
OOXX RUP58 29181 99442 11320 ///// 01121 26/// /0701 11158 29078 30153 91822 333 60000
OOXX RUP58 29181 99442 11320 ///// 01121 26/// /0901 11157 29077 30153 91832 333 60000
OOXX RUP58 29181 99442 11320 ///// 01121 26/// /1001 11155 29075 30152 91842 333 60000
OOXX KIP39 29161 99020 51574 ///// 00181 26/// /1003 10243 29096 30112 91630 333 69920
OOXX KIP39 29161 99020 51574 ///// 00181 26/// /1003 10245 29096 30112 91640 333 60000
OOXX KIP39 29161 99020 51574 ///// 00181 26/// /1003 10247 29096 30114 91650 333 60000
OOXX KIP39 29171 99020 51574 ///// 00181 26/// /1003 10245 29095 30117 91700 333 60000
OOXX KIP39 29171 99020 51574 ///// 00181 26/// /1104 10241 29096 30118 91710 333 69920
OOXX KIP39 29171 99020 51574 ///// 00181 26/// /1104 10244 29097 30119 91720 333 60000
OOXX KIP39 29171 99020 51574 ///// 00181 26/// /1004 10245 29096 30121 91730 333 60000
OOXX KIP39 29171 99020 51574 ///// 00181 26/// /1104 10246 29096 30122 91740 333 60000
OOXX KIP39 29171 99020 51574 ///// 00181 26/// /1104 10246 29096 30123 91750 333 60000
OOXX KIP39 29181 99020 51574 ///// 00181 26/// /1104 10245 29096 30122 91800 333 60000
OOXX KIP39 29181 99020 51574 ///// 00181 26/// /1104 10247 29095 30123 91810 333 60000
OOXX KIP39 29181 99020 51574 ///// 00181 26/// /1104 10252 29094 30124 91820 333 60000
OOXX CAP14 29161 99487 71234 ///// 00431 26/// /1901 10064 29066 30099 91640 333 60000
OOXX CAP14 29161 99487 71234 ///// 00431 26/// /2502 10065 29068 30100 91650 333 60000
OOXX CAP14 29171 99487 71234 ///// 00431 26/// /2402 10065 29071 30099 91700 333 60000
OOXX CAP14 29171 99487 71234 ///// 00431 26/// /2202 10066 29072 30100 91710 333 60000
OOXX CAP14 29171 99487 71234 ///// 00431 26/// /2603 10069 29066 30100 91720 333 60000
OOXX CAP14 29171 99487 71234 ///// 00431 26/// /2703 10073 29062 30098 91730 333 60000
OOXX CAP14 29171 99487 71234 ///// 00431 26/// /2702 10074 29062 30100 91740 333 60000
OOXX CAP14 29171 99487 71234 ///// 00431 26/// /2703 10073 29066 30099 91750 333 60000
OOXX CAP14 29181 99487 71234 ///// 00431 26/// /2702 10076 29065 30099 91800 333 60000
OOXX CAP14 29181 99487 71234 ///// 00431 26/// /2603 10077 29063 30101 91810 333 60000
OOXX CAP14 29181 99487 71234 ///// 00431 26/// /2502 10078 29063 30099 91820 333 60000
OOXX CAP14 29181 99487 71234 ///// 00431 26/// /1801 10076 29065 30100 91830 333 60000
OOXX NOP49 29161 99782 10154 ///// 04691 26/// /0403 11190 29084 39437 91610 333 6///0
OOXX NOP49 29161 99782 10154 ///// 04691 26/// /0303 11188 29084 39438 91620 333 6///0
OOXX NOP49 29161 99782 10154 ///// 04691 26/// /0602 11188 29083 39439 91630 333 6///0
OOXX NOP49 29161 99782 10154 ///// 04691 26/// /0503 11188 29084 39439 91640 333 6///0
OOXX NOP49 29161 99782 10154 ///// 04691 26/// /0703 11188 29084 39440 91650 333 6///0
OOXX NOP49 29171 99782 10154 ///// 04691 26/// /0503 11188 29084 39441 91700 333 6///0
OOXX NOP49 29171 99782 10154 ///// 04691 26/// /0603 11189 29083 39441 91710 333 6///0
OOXX NOP49 29171 99782 10154 ///// 04691 26/// /0703 11192 29083 39442 91720 333 6///0
OOXX NOP49 29171 99782 10154 ///// 04691 26/// /1003 11192 29084 39443 91730 333 6///0
OOXX NOP49 29171 99782 10154 ///// 04691 26/// /0902 11192 29083 39444 91740 333 6///0
OOXX NOP49 29171 99782 10154 ///// 04691 26/// /0903 11191 29083 39445 91750 333 6///0
OOXX NOP49 29181 99782 10154 ///// 04691 26/// /0803 11193 29083 39446 91800 333 6///0
OOXX AUP07 29161 99/// ///// ///// ///// 26/// /3109 10057 29091 39959 91650 333 69920
OOXX AUP07 29171 99/// ///// ///// ///// 26/// /3110 10058 29092 39956 91700 333 60000
OOXX AUP07 29171 99/// ///// ///// ///// 26/// /3011 10058 29090 39953 91710 333 60000
OOXX AUP07 29171 99/// ///// ///// ///// 26/// /3111 10058 29091 39949 91720 333 60000
OOXX AUP07 29171 99/// ///// ///// ///// 26/// /3111 10057 29092 39946 91730 333 60000
OOXX AUP07 29171 99/// ///// ///// ///// 26/// /3111 10056 29092 39944 91740 333 69920
OOXX AUP07 29171 99/// ///// ///// ///// 26/// /3211 10056 29093 39941 91750 333 69920
OOXX AUP07 29181 99/// ///// ///// ///// 26/// /3210 10057 29094 39938 91800 333 69920
OOXX AUP07 29181 99/// ///// ///// ///// 26/// /3211 10057 29094 39934 91810 333 69920
OOXX AUP07 29181 99/// ///// ///// ///// 26/// /3211 10058 29094 39930 91820 333 60000
OOXX AUP07 29181 99/// ///// ///// ///// 26/// /3212 10059 29094 39927 91830 333 69920
OOXX AUP07 29181 99/// ///// ///// ///// 26/// /3213 10060 29094 39922 91840 333 60000
OOXX AUP04 29171 99377 31451 ///// 00311 26/// /3601 10133 29090 30120 91707 333 60000
OOXX AUP04 29171 99377 31451 ///// 00311 26/// /0201 10135 29090 30121 91717 333 60000
OOXX AUP04 29171 99377 31451 ///// 00311 26/// /0801 10138 29089 30122 91727 333 60000
OOXX AUP04 29171 99377 31451 ///// 00311 26/// /0101 10141 29088 30121 91737 333 60000
OOXX AUP04 29171 99377 31451 ///// 00311 26/// /3401 10143 29088 30122 91747 333 60000
OOXX AUP04 29171 99377 31451 ///// 00311 26/// /2101 10146 29087 30121 91757 333 60000
OOXX AUP04 29181 99377 31451 ///// 00311 26/// /2201 10147 29087 30122 91807 333 60000
OOXX AUP04 29181 99377 31451 ///// 00311 26/// /1701 10147 29086 30122 91817 333 60000
OOXX AUP04 29181 99377 31451 ///// 00311 26/// /1301 10148 29086 30123 91827 333 60000
OOXX AUP04 29181 99377 31451 ///// 00311 26/// /1001 10148 29086 30123 91837 333 60000
OOXX AUP04 29181 99377 31451 ///// 00311 26/// /0401 10148 29086 30122 91847 333 60000
OOXX AUP04 29181 99377 31451 ///// 00311 26/// /0201 10148 29086 30123 91857 333 60000
AAXX 29184 97700 31457 80000 10252 20239 30062 40076 57016 71522 84872 333 56000 57803 82817 84457 80850
BBXX MINUK05 2918/ 99571 70021 46/// ///// 10035 40016 52013
BBXX MINUK03 2918/ 99525 10041 46/// ///// 10075 40055 57055
BBXX SHIP 29184 99531 71595 41298 83022 10000 20000 40089 52040 70222 87/// 22273 00045 2//// 3//// 4//// 80000
BBXX VRBQ6 29184 99531 71595 41298 83022 10000 20000 40089 52040 70222 87/// 22273 00045 2//// 3//// 4//// 80000
BBXX WRGD 29184 99375 71559 41698 63215 10140 20090 40220 5//// 70121 84187 22225 00160 20206 3//// 40608 5//// 6//// 80110 ICE /////
AAXX 29184 91559 46/// /0000 10229 40062 22200 00291
AAXX 29184 71554 17/// /2722 11127 21157 39944 49950 53017 60011 7//4/ 333 11079 21130 70056
AAXX 29184 71612 17/// /2705 11146 21206 30045 40139 55003 60011 7//4/ 333 11146 21184 70032
AAXX 29184 71619 17/// /2723 11112 21158 39796 49854 53014 60011 7//4/ 333 11009 21113 70050
AAXX 29184 71721 16/// /2603 11173 21228 39893 40152 58010 60001 333 11172 21262 70000
AAXX 29184 71724 16/// /2411 11126 21169 30100 40108 55002 60001 333 11124 21176 70012
AAXX 29184 71734 16/// /2003 11204 21258 39740 40154 58012 60001 333 11199 21289 70000
AAXX 29184 71307 17/// /1708 10006 20000 39821 40073 58039 69941 7//4/ 333 10011 21088 70004 555 10010
AAXX 29184 71554 17/// /2722 11127 21157 39944 49950 53017 60011 7//4/ 333 11079 21130 70056
AAXX 29184 71721 16/// /2603 11173 21228 39893 40152 58010 60001 333 11172 21262 70000
AAXX 29184 71724 16/// /2411 11126 21169 30100 40108 55002 60001 333 11124 21176 70012
AAXX 29184 71734 16/// /2003 11204 21258 39740 40154 58012 60001 333 11199 21289 70000
AAXX 29184 71612 17/// /2705 11146 21206 30045 40139 55003 60011 7//4/ 333 11146 21184 70032
AAXX 29184 71619 17/// /2723 11112 21158 39796 49854 53014 60011 7//4/ 333 11009 21113 70050
AAXX 29184 71307 17/// /1708 10006 20000 39821 40073 58039 69941 7//4/ 333 10011 21088 70004 555 10010
AAXX 29184 40100 12960 00802 10142 20074 30170 40202 52002 60001 918// 333 10180 92417
BBXX DAJT 29184 99311 50054 41498 42611 10220 20183 40195 56005 70211 8/1// 22264 04200 2//02 80195
BBXX ELWO6 29183 99353 70339 41297 61817 10203 40320 58005 70311 82614 22253 20508 32328 40907 51006
BBXX A8RU5 29184 99133 10527 41/98 /0614 10235 20166 40195 51010 70200 22265 80190
BBXX DGOQ 29184 99544 10113 43/97 /2316 10034 40020 54000 22200 04054 2//01
BBXX A8FA6 29184 99133 70983 41497 20711 10300 20273 40160 54000 70100 82145 22274 00280 20802 320// 40702 80280
BBXX VOXS 29184 99467 70480 41997 62026 10048 2004/ 40015 51018 71011 80002 22200 04023 20504 318// 40804 80044
AAXX 29184 91531 46/// /0705 1//// 40068 22200 00263
BBXX VOXS 29184 99467 70480 41997 62026 10048 2004/ 40015 51018 71011 80002 22200 04023 20504 318// 40804 80044
BBXX CFO383 29184 99439 70602 47697 /2435 10042 2104/ 49962 5//// 700// 8//// 22200 0//// 1//// 2//// 70/// 80017 333 91050
AAXX 29184 65501 32960 73602 10246 21003 39825 40144 80002 333 10292 58005 87076
AAXX 29184 65502 32960 70404 10246 21022 39759 40142 80002 333 10275 58009 87076
AAXX 29184 65503 32960 70204 10272 21041 39786 40133 80002 333 10308 58008 87076
AAXX 29184 65505 32965 73606 10265 21012 39797 40136 80002 333 10304 58010 87076
AAXX 29184 65507 32960 73606 10274 20017 39774 40125 80002 333 10332 58006 87076
AAXX 29184 65510 32960 70204 10272 21041 39786 40133 80002 333 10308 58008 87076
AAXX 29184 65516 32960 50410 10279 21039 39822 40131 80002 333 10314 58010 85076
AAXX 29184 65518 32960 73604 10280 21037 39756 40121 80002 333 10325 58010 87076
AAXX 29184 65522 32960 70406 10304 21022 39786 40115 80002 333 10327 58000 87076
BBXX CFO383 29184 99439 70602 47697 /2435 10042 2104/ 49962 5//// 700// 8//// 22200 0//// 1//// 2//// 70/// 80017 333 91050
AAXX 29181 13492 NIL
AAXX 29181 13585 41/92 90000 11057 21061 39406 40242 56001 74544 333 11043 94000
AAXX 29181 13597 NIL
AAXX 29181 13598 42998 00000 11036 21044 48452 56001 333 10046 43003 94015
AAXX 29184 71016 17/// ///// 10035 69941 7//4/ 333 10068 20005 70015
BBXX 46109 29181 99481 71234 46/// /1202 10071 40170 91757 22200 00076
BBXX 46110 29181 99481 71230 46/// /0507 10077 40166 91758
BBXX 44056 29181 99362 70757 46/// ///// 1//// 91820 22200 00120 11502 20801 307// 41501 70010
BBXX 44055 29181 99391 70753 46/// ///// 1//// 91830 22200 00070 1//00 70002
AAXX 29184 71016 17/// ///// 10035 69941 7//4/ 333 10068 20005 70015
AAXX 29184 91642 46/// /0000 1//// 40082 22200 0////
BBXX 42043 29181 99290 70949 46/// /2504 1//// 40167 57010 91800 22200 00139 333 91205
BBXX 42044 29181 99262 70971 46/// /2901 10155 20092 40176 57015 91800 22200 00161 333 91202
BBXX 42047 29181 99279 70936 46/// /2107 10205 20109 40168 58017 91800 22200 00221 333 91207
BBXX 42045 29181 99262 70965 46/// /2502 10154 40177 91800 22200 00211 333 91203
BBXX 46094 29181 99446 71243 46/// /1506 10097 91830
BBXX 46094 29181 99446 71243 46/// /1406 10098 91820
BBXX 46094 29181 99446 71243 46/// /1606 10098 91810
BBXX 46094 29181 99446 71243 46/// /1605 10098 91800
BBXX 46094 29181 99446 71243 46/// /1405 10099 91750
BBXX 46094 29181 99446 71243 46/// /1304 10099 91740
AAXX 2918/ 89872 46/// ///// 11020 39764 4//// 5//// 91820
AAXX 2918/ 89329 46/// ///// 11083 38655 4//// 5//// 91820
AAXX 2918/ 89799 46/// ///// 11236 4//// 5//// 91820
AAXX 2918/ 89327 46/// ///// 11033 30077 4//// 5//// 91820
AAXX 2918/ 89332 46/// ///// 11048 39149 4//// 5//// 91820
AAXX 2918/ 89769 46/// ///// 11008 39790 4//// 5//// 91820
AAXX 29184 89667 46/// /3109 11034 29088 39816 4//// 5//// 91820
AAXX 29184 89667 46/// /2908 11033 39818 4//// 5//// 91840
AAXX 29184 89667 46/// /3110 11033 39816 4//// 5//// 91830
BBXX A8RU5 29184 99133 10527 41/98 /0614 10235 20166 40195 51010 70200 22265 80190
BBXX DAJT 29184 99311 50054 41498 42611 10220 20183 40195 56005 70211 8/1// 22264 04200 2//02 80195
BBXX A8FA6 29184 99133 70983 41497 20711 10300 20273 40160 54000 70100 82145 22274 00280 20802 320// 40702 80280
BBXX DGOQ 29184 99544 10113 43/97 /2316 10034 40020 54000 22200 04054 2//01
BBXX ELWO6 29183 99353 70339 41297 61817 10203 40320 58005 70311 82614 22253 20508 32328 40907 51006
BBXX MINUK03 2918/ 99525 10041 46/// ///// 10075 40055 57055
BBXX MINUK05 2918/ 99571 70021 46/// ///// 10035 40016 52013
BBXX 46094 29181 99446 71243 46/// /1506 10097 91830
BBXX 46094 29181 99446 71243 46/// /1406 10098 91820
BBXX 46094 29181 99446 71243 46/// /1606 10098 91810
BBXX 46094 29181 99446 71243 46/// /1605 10098 91800
BBXX 46094 29181 99446 71243 46/// /1405 10099 91750
BBXX 46094 29181 99446 71243 46/// /1304 10099 91740
BBXX 42047 29181 99279 70936 46/// /2107 10205 20109 40168 58017 91800 22200 00221 333 91207
BBXX 42045 29181 99262 70965 46/// /2502 10154 40177 91800 22200 00211 333 91203
BBXX 42044 29181 99262 70971 46/// /2901 10155 20092 40176 57015 91800 22200 00161 333 91202
BBXX 42043 29181 99290 70949 46/// /2504 1//// 40167 57010 91800 22200 00139 333 91205
BBXX 44056 29181 99362 70757 46/// ///// 1//// 91820 22200 00120 11502 20801 307// 41501 70010
BBXX 44055 29181 99391 70753 46/// ///// 1//// 91830 22200 00070 1//00 70002
BBXX 46109 29181 99481 71234 46/// /1202 10071 40170 91757 22200 00076
BBXX 46110 29181 99481 71230 46/// /0507 10077 40166 91758
BBXX CFO383 29184 99439 70602 47697 /2435 10042 2104/ 49962 5//// 700// 8//// 22200 0//// 1//// 2//// 70/// 80017 333 91050
BBXX VOXS 29184 99467 70480 41997 62026 10048 2004/ 40015 51018 71011 80002 22200 04023 20504 318// 40804 80044
AAXX 29184 89016 46/89 /3213 11039 29085 39418 4//// 5////
AAXX 29184 89003 46/89 /3220 11061 29066 39028 4//// 5////
AAXX 29181 20292 41496 72109 11165 21184 39984 40004 53003 73873 875// 333 91113
AAXX 29181 20046 11998 00109 11226 21238 39867 49900 52011 69920 73630 333 11150 91113
AAXX 29181 20069 41875 71807 11059 21094 39842 49855 52003 73673 8707/ 333 91112
AAXX 29184 92036 46/// /0000 10267 40069 22200 00318
BBXX 63110 29184 99595 10015 47598 /3124 10072 20016 49938 53002 700// 22200 10709 70043
BBXX 63106 29184 99610 10017 46/// /3622 10047 49929 52025 22200
BBXX 63113 29184 99610 10017 46/// /3526 10042 20004 49930 52025 22200 10807 70037
BBXX 62304 29184 99511 10018 46/97 /2537 10094 20065 40143 57031 22200 00108 10603 70016 333 90710 91152
BBXX 64045 29184 99591 70117 46/// /3026 10061 20011 40104 52067 22200 00099 11016 70080 333 90710 91145
BBXX 62103 29184 99499 70029 46/97 /2839 10113 20075 40232 57016 22200 00117 10808 70040 333 90710 91150
BBXX 2AUO5 29183 99606 10016 41597 43530 10051 20026 49942 53021 70266 848// 22271 20704 334// 41010 80041
BBXX A8JC5 29184 99327 70345 41398 31513 10215 20169 40314 52009 70211 8244/ 22223 00221 20202 32815 41206 50804 80185
AAXX 29184 96935 32560 70102 10272 20233 30090 40097 58010 81171 333 56000 81820 86360
AAXX 29184 93713 46/// /0000 10139 40068 22200 00169
AAXX 29181 54401 32965 73402 11105 21154 39456 40375 57006 80002 333 11044
AAXX 29184 42867 31995 30203 10200 20117 40141 70500 82031 333 59009 82360
AAXX 29184 42933 32996 00000 10168 20096 40149 333 59001
AAXX 29184 43041 32596 50000 10220 20190 39520 40139 85500 333 58002 85625
AAXX 29184 42634 32996 09901 10180 20114 40167 333 58003
AAXX 29184 42647 31995 00000 10158 20092 40163 70500 333 58006
AAXX 29184 42737 32996 00203 10166 20089 40166 333 58004
AAXX 29184 42840 32996 00202 10188 20120 40151 333 58001
AAXX 29184 42909 32996 00205 10186 20077 40156 333 58009
AAXX 29184 43014 32996 02502 10166 20101 39487 40147 333 58001
AAXX 29184 43117 32996 00702 10192 20072 40129 333 59006
AAXX 29184 96685 32460 70000 10240 20233 30092 40118 56004 85811 333 56000 85615
OOXX AAPIG 29184 99758 51003 56251 08502 46/// /0910 11083 21215 38765 49726 57004 91800
AAXX 29184 91689 46/// /1212 10256 40080 22200 00296
BBXX FHZI 29184 99658 31416 46/// /2117 11000 21012 39784 49795 52006 22222 05017 86005
AAXX 2918/ 89872 46/// ///// 11023 39761 4//// 5////
AAXX 2918/ 89869 46/// ///// 11031 39749 4//// 5////
AAXX 2918/ 89866 46/// ///// 10025 39709 4//// 5////
AAXX 2918/ 89329 46/// ///// 11078 38655 4//// 5////
AAXX 2918/ 89799 46/// ///// 11244 4//// 5////
AAXX 2918/ 89332 46/// ///// 11048 39149 4//// 5////
AAXX 2918/ 89769 46/// ///// 11005 39789 4//// 5////
AAXX 2918/ 89314 46/// ///// 11104 38114 4//// 5////
AAXX 2918/ 89327 46/// ///// 11034 30079 4//// 5////
AAXX 2918/ 89828 46/// ///// 11226 36553 4//// 5////
AAXX 2918/ 89108 46/// ///// 11204 36920 4//// 5////
AAXX 2918/ 89879 46/// ///// 10019 39750 4//// 5////
AAXX 2918/ 89872 46/// ///// 11026 39760 4//// 5////
AAXX 2918/ 89869 46/// ///// 11030 39748 4//// 5////
AAXX 2918/ 89799 46/// ///// 11249 4//// 5////
AAXX 2918/ 89769 46/// ///// 10001 39788 4//// 5////
AAXX 2918/ 89879 46/// ///// 10018 39750 4//// 5////
AAXX 29184 42492 31994 00000 10140 20118 40166 71000 333 59002
AAXX 29184 42587 31995 00000 10142 20116 40168 70500 333 58002
AAXX 29184 42591 31994 01803 10112 20096 40176 71000 333 58003
AAXX 29184 42701 31995 00000 10144 20100 39428 40175 70500 333 58006
AAXX 29184 42798 31995 30000 10174 20135 40158 70500 83030 333 58003 83360
AAXX 29184 42886 31996 70501 10210 20164 40152 70522 87030 333 58000 87360
AAXX 29184 42895 32596 70000 10214 20142 40152 84530 333 58001 84620 85360
AAXX 29184 42971 21595 70204 10234 20166 40148 70522 84520 333 58003 6990/ 84620 87459
BBXX A8JC5 29184 99327 70345 41398 31513 10215 20169 40314 52009 70211 8244/ 22223 00221 20202 32815 41206 50804 80185
BBXX MINFR05 2918/ 99057 70113 46/// ///// 10268 40128 52005
BBXX MINUK01 2918/ 99573 70019 46/// ///// 10040 40011 54000
BBXX MINUK05 2918/ 99571 70021 46/// ///// 10035 40016 52013
BBXX C6NI8 29183 99383 70135 41598 73618 10140 20068 40383 54000 70322 86710 22283 04170 21007 336// 41507 5//// 80105
BBXX MINUK04 2918/ 99548 10066 46/// ///// 10060 4//// 57059
BBXX A8GH5 29183 99217 70179 41897 10311 10215 20162 40255 56025 70200 80008 22254 20301 80181
AAXX 29184 43086 32996 20000 10214 20185 39941 40121 82030 333 59009
AAXX 29184 43128 31596 50000 10212 20154 39523 40133 70522 82501 333 59003 82620 83070
AAXX 29184 43150 32496 50212 10248 20215 30063 40138 83502 333 58006 83618
AAXX 29184 43185 32596 50906 10254 20224 30112 40116 84530 333 58004 84620 83360
AAXX 29184 43189 32596 60904 10250 20229 30121 40130 84530 333 58008
AAXX 29184 43237 32596 70505 10256 20201 39710 83532 333 59005 83620 85360
AAXX 29184 43245 21596 80505 10244 20232 30072 40099 70262 8457/ 333 59006 6004/
AAXX 29184 43279 21396 80512 10246 20237 30054 40072 72165 8472/ 333 56199 59021 6026/ 84710 88458
AAXX 29184 43329 21496 83418 10230 20230 30004 40017 76365 8472/ 333 59069 6014/
AAXX 29184 43344 21496 82504 10238 20207 39975 40076 75052 83527 333 59022 6994/ 83618 86458 88270
AAXX 29184 43353 31496 60000 10252 20228 40100 70522 82571 333 56699 59009 82614 85459
AAXX 29184 42027 31595 21402 11004 21018 38469 48557 70500 82500 333 58010
AAXX 29184 42182 31992 00000 10110 20098 40192 74440 333 58004
AAXX 29184 42348 31995 00000 10126 20086 40185 71000 333 58000
AAXX 29184 42369 31995 00000 10114 20086 40180 71000 333 58002
AAXX 29184 42452 32996 00000 10134 20086 40182 333 58000
AAXX 29184 42475 31994 00000 10128 20105 40185 71000 333 58011
BBXX 42013 29181 99272 70829 46/// ///// 1//// 40194 91820 22200 00205
BBXX 42013 29181 99272 70829 46/// ///// 1//// 40194 58033 91800 22200 00205
AAXX 29181 98132 31465 80902 10220 20191 40212 5/012 70544 84270 333 56299 84816 87357
AAXX 29181 98133 NIL
AAXX 29181 98222 31575 30401 10253 20228 40127 51001 70544 81201 333 56999 81820
AAXX 29181 98233 11565 83601 10215 20208 40156 58003 60061 76064 885// 333 56999 88620
AAXX 29181 98324 31462 50701 10264 20232 40127 56005 70544 81161 333 56999 81816 85080
AAXX 29181 98327 11665 82802 10237 20221 39969 40143 57001 69961 72584 8447/ 333 56999 84636 88359
AAXX 29181 98334 11468 50202 10233 20229 39955 40161 58003 60041 70182 82270 333 56999 82817 85358
AAXX 29181 98425 31558 60902 10267 20238 40132 58005 83208 333 56999 83820 86280
AAXX 29181 98426 21562 10904 10252 20221 40139 58005 69921 70544 81100 333 56999 81820
AAXX 29181 98427 32475 30000 10233 20218 39940 40120 58007 82202 333 56999 82818
AAXX 29181 98428 32458 21404 10268 20232 40133 54000 81101 333 56999 81819
AAXX 29181 98432 30702 10261 20227 40131 58008 70544 81270 333 56199 81820
AAXX 29181 98433 32462 30903 10208 20194 39410 40134 54000 82270 333 56999 82812
AAXX 29181 98434 32468 40000 10244 20239 30137 40145 58010 82201 333 56199 82817 83075
AAXX 29181 98435 32470 60000 10252 20234 40138 5//// 83270 333 56999 83818 85358
AAXX 29181 98442 NIL
AAXX 29181 98446 32470 53201 10254 20238 30094 40140 57010 82201 333 56199 82818 85070
AAXX 29181 98447 32470 60402 10240 20226 39875 40141 5//// 82202 333 56999 82818 84070
AAXX 29181 98538 32466 70205 10270 20243 30120 40125 58010 82268 333 56119 82811 84357 87272
AAXX 29181 98546 32575 50404 10265 20245 30116 40124 57010 82208 333 56999 82820 85275
AAXX 29181 98548 32465 80000 10250 20241 30110 40116 58010 84207 333 56999 84816 88273
AAXX 29181 98553 31464 70401 10272 20248 30111 40115 58008 70544 82208 333 56999 82818 86272
AAXX 29181 98558 11462 80610 10250 20246 40114 58013 60171 71586 8397/ 333 56999 82915 88357
AAXX 29181 98642 11456 83602 10254 20243 30104 40113 58016 60041 76188 8522/ 333 56199 85815 88457
AAXX 29181 98644 11458 80302 10255 20243 30107 40116 56012 60071 76086 8557/ 333 56199 85617 88358
AAXX 29181 98648 11465 80301 10232 20217 30031 40113 57016 60101 78084 83967 333 56299 82912 84358 88270
AAXX 29181 98746 31462 80301 10244 20219 40085 58026 71344 8397/ 333 56999 83918 88358
AAXX 29181 98751 11470 20000 10210 20201 39432 40103 57018 60011 70262 82200 333 56999 82815
AAXX 29181 98752 11458 70000 10257 20250 40114 58014 69951 72582 83970 333 56999 83916 87358
AAXX 29181 98851 32470 62701 10242 20226 39952 40100 58018 82270 333 56999 82818 86358
BBXX 64045 29184 99591 70117 46/// /3026 10061 20011 40104 52027 22200 00099 11016 70080 333 90710 91145
BBXX 63055 29184 99606 10016 47798 /3318 10045 20012 49927 53016 700// 22200 10808 70039
BBXX 63106 29184 99610 10017 46/// /3622 10047 49929 52025 22200
BBXX 63105 29184 99610 10017 47598 ///// 10046 21000 49931 52027 751// 22200
BBXX 62304 29184 99511 10018 46/97 /2537 10084 20055 40143 57031 22200 00108 10603 70016 333 90710 91152
BBXX 62103 29184 99499 70029 46/98 /2738 10112 20070 40244 56009 22200 00117 10907 70037 333 90710 91155
BBXX 63110 29183 99595 10015 41/98 /3327 10080 49935 700// 8//// 22200 10808 70040
BBXX 42013 29181 99272 70829 46/// ///// 1//// 40194 91820 22200 00205
BBXX 42013 29181 99272 70829 46/// ///// 1//// 40194 58033 91800 22200 00205
BBXX MINUK04 2918/ 99548 10066 46/// ///// 10060 4//// 57059
BBXX A8GH5 29183 99217 70179 41897 10311 10215 20162 40255 56025 70200 80008 22254 20301 80181
BBXX MINFR05 2918/ 99057 70113 46/// ///// 10268 40128 52005
BBXX FHZI 29184 99658 31416 46/// /2117 11000 21012 39784 49795 52006 22222 05017 86005
OOXX AABRI 29184 99839 51342 60134 05251 46/// /2904 11044 21229 39152 49763 57008 91800
OOXX AAPEG 29184 99779 31666 57186 00051 46/// /3111 11036 21047 39815 49821 57001 91810
OOXX AAEMI 29184 99785 31731 57083 00521 46/// /2615 11060 21108 39771 49836 57005 91810
OOXX AALAU 29184 99775 31708 57070 00371 46/// /3010 11036 21061 39773 49819 57007 91800
OOXX AAMIZ 29184 99707 30443 58304 22602 46/// /1105 11165 2//// 37425 49658 57014 91810
OOXX AAERI 29184 99849 51288 60048 09901 46/// /1205 11115 21209 38685 49808 57009 91800
OOXX AAERC 29184 99815 31639 60713 00451 46/// /3305 11065 21070 39755 49811 52001 91810
OOXX AAVIT 29184 99785 31778 57087 00501 46/// /2614 11052 21098 39731 49793 57015 91810
AAXX 29184 71408 46/// /2247 10018 21018 39785 49862 5/011 6///1 333 20012 7////
AAXX 29184 71408 46/// /2247 10018 21018 39785 49862 5/011 6///1 333 20012 7////
AAXX 29184 96179 32460 70000 10256 20237 30082 40119 57005 83238 333 56000 57802 83817 80850
AAXX 29184 97900 11458 70000 10256 20238 30011 40111 57011 69901 70262 83521 333 56000 83619
BBXX 42369 29181 99272 70903 46/// /2903 1//// 91740 22200 10401 70004
BBXX 42370 29181 99273 70905 46/// ///// 10208 91740 22200 10401 70004
BBXX 42376 29181 99291 70879 46/// /1002 10198 40170 91740 22200 10101 70004
AAXX 29184 97072 11458 70000 10256 20238 30011 40111 57011 69901 70262 83521 333 56000 83619
BBXX 42392 29181 99272 70900 46/// ///// 1//// 91740 22200 10301 70005
BBXX 42887 29181 99282 70885 46/// /3604 10234 91740 22200 10501 70006
AAXX 29184 89108 46/// /2910 11209 36919 4//// 52007 91800
AAXX 29184 89314 46/// /1019 11106 38105 4//// 57002 91800
AAXX 29184 89327 46/// /0000 11034 3//// 4//// 5//// 91750
AAXX 29184 89329 46/// ///01 11076 38651 49703 57005 91810
AAXX 29184 89332 46/// /0606 11048 39149 49753 57009 91810
AAXX 29184 89376 46/// /2106 11043 39718 49785 57006 91800
AAXX 29184 89667 46/// /3111 11036 39815 49825 57001 91810
AAXX 29184 89734 46/// /1504 11289 36041 4//// 57007 91810
AAXX 29184 89744 46/// /0509 11281 36413 4//// 57009 91820
AAXX 29184 89769 46/// /2605 11005 39762 49813 52004 91800
AAXX 29184 89799 46/// /1912 11239 36733 4//// 52010 91810
AAXX 29184 89828 46/// /0617 11228 36526 4//// 52001 91800
AAXX 29184 89832 46/// /1806 10004 39488 49776 52023 91800
AAXX 29184 89834 46/// /1413 11072 38095 4//// 52018 91810
AAXX 29184 89865 46/// ///// 1//// 3//// 4//// 5//// 91800
AAXX 29184 89866 46/// /1412 10012 39677 49807 57006 91800
AAXX 29184 89869 46/// /1904 11031 39741 49819 52011 91800
AAXX 29184 89872 46/// /3104 11020 39757 49812 57005 91810
AAXX 29184 89873 46/// /2602 11067 39728 49805 57002 91750
AAXX 29184 89879 46/// /0000 10019 39736 49772 57003 91800
BBXX ZCDG7 29184 99290 71275 41398 50422 10152 20118 40268 54000 70111 8444/ 22225 00190 20304 307// 40403 5////
BBXX 42392 29181 99272 70900 46/// ///// 1//// 91740 22200 10301 70005
BBXX 42887 29181 99282 70885 46/// /3604 10234 91740 22200 10501 70006
BBXX ZCDG7 29184 99290 71275 41398 50422 10152 20118 40268 54000 70111 8444/ 22225 00190 20304 307// 40403 5////
BBXX 42376 29181 99291 70879 46/// /1002 10198 40170 91740 22200 10101 70004
BBXX 42369 29181 99272 70903 46/// /2903 1//// 91740 22200 10401 70004
BBXX 42370 29181 99273 70905 46/// ///// 10208 91740 22200 10401 70004
AAXX 29181 22271 11498 61802 11046 21070 39892 49902 54000 60020 70281 86300 333 10001
BBXX A8PB2 29184 99058 10798 41397 42715 10260 20232 40050 54000 70322 8444/ 22234 04300 20401 80240
BBXX V7SY6 29184 99088 11103 41597 83630 10260 20246 40260 56010 75066 88/// 22213 00260 20606 305// 40606 80250
BBXX WHKM 29184 99078 30744 41197 42313 10270 20256 40100 54000 7//22 83202 22223 0//// 2//// 3//// 4//// 5//// 6//// 80260 /////
BBXX A8ZP9 29183 99234 30524 41597 41308 10270 40135 54000 70211 82141 22254 00280 2//// 3//// 4//// 5////
BBXX TBWUK17 29183 99299 30334 41597 41916 10226 20175 40177 54000 70111 84463 22263 04250 20305 32120 40305 50304 80194
BBXX VQIB9 29183 99301 30370 41/98 82132 10215 20183 40119 52010 70222 8//// 22254 00250 2//// 3//// 4//// 5//// 80195
BBXX TBWUK18 29183 99325 30358 41598 41717 10210 20194 40147 54000 70111 844// 22222 00240 20502 334// 41003 5//// 80200
BBXX PCSV 29183 99346 30188 41698 41211 10204 20170 40149 55/// 70200 82460 22273 04208 20503 327// 41003 80182
BBXX MLRM6 29183 99363 30031 41598 42406 10170 20104 40187 54000 70200 84200 22200 00207 2//// 31924 40302 50302
BBXX 63110 29184 99595 10015 47598 /3124 10072 20016 49938 53002 700// 22200 10709 70043
BBXX 63106 29184 99610 10017 46/// /3622 10047 49929 52025 22200
BBXX 63113 29184 99610 10017 46/// /3526 10042 20004 49930 52025 22200 10807 70037
BBXX 62304 29184 99511 10018 46/97 /2537 10094 20065 40143 57031 22200 00108 10603 70016 333 90710 91152
BBXX 64045 29184 99591 70117 46/// /3026 10061 20011 40104 52067 22200 00099 11016 70080 333 90710 91145
BBXX 62103 29184 99499 70029 46/97 /2839 10113 20075 40232 57016 22200 00117 10808 70040 333 90710 91150
BBXX 2AUO5 29183 99606 10016 41597 43530 10051 20026 49942 53021 70266 848// 22271 20704 334// 41010 80041
BBXX VRDW2 29184 99167 31166 41398 32620 10280 20266 40076 58010 70200 81640 22284 04290 20602 80270
BBXX VRDW2 29184 99167 31166 41398 32620 10280 20266 40076 58010 70200 81640 22284 04290 20602 80270
AAXX 29184 71522 46/// /2917 11192 21242 39490 49990 53011 6///1 333 11161 21198 70000
AAXX 2918/ 89327 46/// ///// 11034 30069 4//// 5//// 91810
AAXX 29183 63612 32980 20000 10256 20162 40112 80001 333 10336 58006 82078
BBXX MINFR00 2918/ 99045 51110 46/// ///// 10235 40153 52008
BBXX VRDW2 29184 99167 31166 41398 32620 10280 20266 40076 58010 70200 81640 22284 04290 20602 80270
BBXX MINFR00 2918/ 99045 51110 46/// ///// 10235 40153 52008
BBXX V7SY6 29184 99088 11103 41597 83630 10260 20246 40260 56010 75066 88/// 22213 00260 20606 305// 40606 80250
BBXX A8PB2 29184 99058 10798 41397 42715 10260 20232 40050 54000 70322 8444/ 22234 04300 20401 80240
AAXX 29184 89257 46/// /2904 11048 21076 39724 49793 54000 91810
AAXX 29184 89013 46/// /0712 11174 21305 3//// 4//// 5//// 91800
AAXX 29184 89257 46/// /2604 11038 21069 39724 49793 54000 91800
AAXX 29184 89272 46/// /3311 11089 21129 37977 49582 57001 91800
AAXX 29184 91375 46/// /0308 10212 40088 22200 00280
BBXX 42369 29181 99272 70903 46/// /2903 1//// 91800 22200 10401 70004
AAXX 29184 91165 12566 40714 10228 20178 30182 40218 53008 69931 91753
AAXX 29184 91212 12666 80810 10237 20230 31375 40111 55009 60051 91754
AAXX 29184 91245 31458 40508 10250 20250 30154 710// 91755
AAXX 29184 91285 32566 62403 10200 20178 30208 40221 53014 91753
AAXX 29184 91334 32474 80608 10275 20222 30081 40084 56008 82171
AAXX 29184 91348 32474 81005 10272 20233 30047 40100 55002 84201
AAXX 29184 91376 32474 80510 10279 20238 30085 40088 53005 83878
AAXX 29184 91408 11472 80707 10267 20258 30041 40079 57012 69951 72582 83208
AAXX 29184 91413 32469 60610 10274 20240 30069 40095 57012 82272
AAXX 29184 91610 11499 20914 10269 20240 40082 53004 60001 70211 82200
AAXX 29184 91155 NIL
AAXX 29184 91203 NIL
AAXX 29184 91217 NIL
AAXX 29184 91232 NIL
AAXX 29184 91250 NIL
AAXX 29184 91275 NIL
AAXX 29184 91317 NIL
AAXX 29184 91324 NIL
AAXX 29184 91339 NIL
AAXX 29184 91353 NIL
AAXX 29184 91356 NIL
AAXX 29184 91366 NIL
AAXX 29184 91367 NIL
AAXX 29184 91369 NIL
AAXX 29184 91371 NIL
AAXX 29184 91378 NIL
AAXX 29184 91425 NIL
AAXX 29184 91434 NIL
AAXX 29184 91601 NIL
AAXX 2918/ 89108 46/// ///// 11215 36921 4//// 5//// 91830
AAXX 2918/ 89879 46/// ///// 10019 39750 4//// 5//// 91820
AAXX 2918/ 89869 46/// ///// 11029 39751 4//// 5//// 91820
AAXX 2918/ 89868 46/// ///// 11055 39746 4//// 5//// 91810
AAXX 2918/ 89868 46/// ///// 11055 39746 4//// 5//// 91820
AAXX 2918/ 89314 46/// ///// 11106 38112 4//// 5//// 91830
BBXX 64045 29184 99591 70117 46/// /3026 10061 20011 40104 52027 22200 00099 11016 70080 333 90710 91145
BBXX 63055 29184 99606 10016 47798 /3318 10045 20012 49927 53016 700// 22200 10808 70039
BBXX 63106 29184 99610 10017 46/// /3622 10047 49929 52025 22200
BBXX 63105 29184 99610 10017 47598 ///// 10046 21000 49931 52027 751// 22200
BBXX 62304 29184 99511 10018 46/97 /2537 10084 20055 40143 57031 22200 00108 10603 70016 333 90710 91152
BBXX 62103 29184 99499 70029 46/98 /2738 10112 20070 40244 56009 22200 00117 10907 70037 333 90710 91155
BBXX 63110 29183 99595 10015 41/98 /3327 10080 49935 700// 8//// 22200 10808 70040
AAXX 29184 03227 46/// /2935 11020 2//// 91750 333 10002 90710 91155 91045
AAXX 29184 91245 31458 40508 10250 20250 30154 710// 91755
AAXX 29184 91165 12566 40714 10228 20178 30182 40218 53008 69931 91753
AAXX 29184 91212 12666 80810 10237 20230 31375 40111 55009 60051 91754
AAXX 29184 91285 32566 62403 10200 20178 30208 40221 53014 91753
AAXX 29184 91334 32474 80608 10275 20222 30081 40084 56008 82171
AAXX 29184 91348 32474 81005 10272 20233 30047 40100 55002 84201
AAXX 29184 91376 32474 80510 10279 20238 30085 40088 53005 83878
AAXX 29184 91408 11472 80707 10267 20258 30041 40079 57012 69951 72582 83208
AAXX 29184 91413 32469 60610 10274 20240 30069 40095 57012 82272
BBXX 42369 29181 99272 70903 46/// /2903 1//// 91800 22200 10401 70004
AAXX 29184 89614 46/// /0615 11102 29084 39000 4//// 5//// 91830 333 90700 91118
AAXX 29184 89807 46/// /2613 11022 29100 39765 4//// 5//// 91830 333 90700 91116
AAXX 29184 89807 46/// /2613 11022 29100 39765 4//// 5//// 91830 333 90700 91116
AAXX 29184 89614 46/// /0615 11102 29084 39000 4//// 5//// 91830 333 90700 91118
AAXX 29184 71427 17/// /2822 11121 21139 39874 49881 53014 60011 7//4/ 333 11044 21130 70060
AAXX 29184 71212 16/// /2905 11170 21218 39185 40010 53011 60001 333 11166 21211 70004
AAXX 29184 71390 46/// /2818 11084 6///1 333 11031 21090 7////
BBXX 42370 29181 99273 70905 46/// ///// 10209 91800 22200 10401 70004
BBXX 42376 29181 99291 70879 46/// /0901 10198 40165 58024 91800 22200 10101 70004
BBXX 42392 29181 99272 70900 46/// ///// 1//// 91800 22200 10301 70005
BBXX 42887 29181 99282 70885 46/// /0103 10234 91800 22200 10401 70006
AAXX 29184 91367 11474 70912 10272 20242 60031 70361 84524 333 56229 85815 83460 83180 555 92918 91371 32474 30910 10256 20248 30105 40108 82113 333 56229 83815 555 92918
AAXX 29184 91367 11474 70912 10272 20242 60031 70361 84524 333 56229 85815 83460 83180 555 92918 91371 32474 30910 10256 20248 30105 40108 82113 333 56229 83815 555 92918
AAXX 29184 91367 11474 70912 10272 20242 60031 70361 84524 333 56229 85815 83460 83180 555 92918 91371 32474 30910 10256 20248 30105 40108 82113 333 56229 83815 555 92918
AAXX 29184 96645 01430 80000 10236 20232 30075 40107 57011 60021 76162 86372 333 56000 57901 60027 81912 85612 80981
BBXX 42043 29181 99290 70949 46/// /2404 1//// 40161 91830 22200 00140 333 91205
BBXX 42045 29181 99262 70965 46/// /2502 10159 40167 91830 22200 00211 333 91202
AAXX 2918/ 89828 46/// ///// 11226 36552 4//// 5//// 91830
AAXX 2918/ 89866 46/// ///// 11001 39709 4//// 5//// 91830
AAXX 2918/ 89799 46/// ///// 11236 4//// 5//// 91830
BBXX 42045 29181 99262 70965 46/// /2502 10159 40167 91830 22200 00211 333 91202
BBXX 42043 29181 99290 70949 46/// /2404 1//// 40161 91830 22200 00140 333 91205
BBXX 42376 29181 99291 70879 46/// /0901 10198 40165 58024 91800 22200 10101 70004
BBXX 42887 29181 99282 70885 46/// /0103 10234 91800 22200 10401 70006
BBXX 42392 29181 99272 70900 46/// ///// 1//// 91800 22200 10301 70005
BBXX 42370 29181 99273 70905 46/// ///// 10209 91800 22200 10401 70004
BBXX PHDL 29183 99242 70815 41598 29904 10238 20165 40190 58010 70200 8/1// 22224 00258 29901 30000 80190 90929
AAXX 29184 97690 32430 80000 10250 20238 39969 40070 57018 83867 333 56000 57800 82816 88279
AAXX 29184 97300 01556 80000 10258 20251 30056 40096 57013 60011 79196 84271 333 56000 57801 60017 84820 80858
BBXX 63110 29184 99595 10015 47598 /3124 10072 20016 49938 53002 700// 22200 10709 70043
BBXX 63106 29184 99610 10017 46/// /3622 10047 49929 52025 22200
BBXX 63113 29184 99610 10017 46/// /3526 10042 20004 49930 52025 22200 10807 70037
BBXX 62304 29184 99511 10018 46/97 /2537 10094 20065 40143 57031 22200 00108 10603 70016 333 90710 91152
BBXX 64045 29184 99591 70117 46/// /3026 10061 20011 40104 52067 22200 00099 11016 70080 333 90710 91145
BBXX 62103 29184 99499 70029 46/97 /2839 10113 20075 40232 57016 22200 00117 10808 70040 333 90710 91150
BBXX 2AUO5 29183 99606 10016 41597 43530 10051 20026 49942 53021 70266 848// 22271 20704 334// 41010 80041
BBXX 41052 29181 99183 70648 46/// /0807 10266 40161 91750 333 91209
BBXX 41052 29181 99183 70648 46/// /0807 10266 40162 91740 333 91209
BBXX 41052 29181 99183 70648 46/// /0807 10267 40159 91810 333 91209
BBXX 41052 29181 99183 70648 46/// /0807 10266 40159 91830 333 91209
BBXX 41052 29181 99183 70648 46/// /0807 10266 40159 91820 333 91209
BBXX 42369 29181 99272 70903 46/// /2903 1//// 91820 22200 10401 70004
BBXX 42370 29181 99273 70905 46/// ///// 10209 91820 22200 10401 70004
BBXX 42376 29181 99291 70879 46/// /0901 10198 40165 91820 22200 10101 70004
BBXX 42392 29181 99272 70900 46/// ///// 1//// 91820 22200 10301 70005
BBXX 42887 29181 99282 70885 46/// /3602 10233 91820 22200 10401 70006
BBXX 42369 29181 99272 70903 46/// /2903 1//// 91820 22200 10401 70004
BBXX 42392 29181 99272 70900 46/// ///// 1//// 91820 22200 10301 70005
BBXX 42370 29181 99273 70905 46/// ///// 10209 91820 22200 10401 70004
BBXX 42887 29181 99282 70885 46/// /3602 10233 91820 22200 10401 70006
BBXX 42376 29181 99291 70879 46/// /0901 10198 40165 91820 22200 10101 70004
BBXX 41052 29181 99183 70648 46/// /0807 10266 40159 91820 333 91209
BBXX 41052 29181 99183 70648 46/// /0807 10266 40159 91830 333 91209
BBXX 41052 29181 99183 70648 46/// /0807 10266 40162 91740 333 91209
BBXX 41052 29181 99183 70648 46/// /0807 10267 40159 91810 333 91209
BBXX 41052 29181 99183 70648 46/// /0807 10266 40161 91750 333 91209
BBXX 52243 29181 99193 11666 46/// ///// 1//// 91800 22200 00272
BBXX 51179 29181 99143 51708 46/// ///// 1//// 91800 22200 00286
BBXX 51178 29181 99142 51695 46/// ///// 1//// 91800 22200 00284
BBXX 51176 29181 99278 71758 46/// ///// 1//// 91800 22200 00238
BBXX 52245 29181 99181 11458 46/// ///// 1//// 91800 22200 00276
BBXX 51174 29181 99142 51697 46/// ///// 1//// 91800 22200 00285
BBXX 52244 29181 99200 11452 46/// ///// 1//// 91800 22200 00263
BBXX 51173 29181 99260 71739 46/// ///// 1//// 91800 22200 00247
BBXX 51172 29181 99284 71783 46/// ///// 1//// 91800 22200 00228
BBXX 51171 29181 99064 71623 46/// ///// 1//// 91800 22200 00276
BBXX 51170 29181 99168 71695 46/// ///// 1//// 91800 22200 00255
BBXX 51169 29181 99004 51600 46/// ///// 1//// 91800 22200 00256
BBXX 52248 29181 99135 11448 46/// ///// 1//// 91800 22200 00280
BBXX 64045 29184 99591 70117 46/// /3026 10061 20011 40104 52027 22200 00099 11016 70080 333 90710 91145
BBXX 63055 29184 99606 10016 47798 /3318 10045 20012 49927 53016 700// 22200 10808 70039
BBXX 63106 29184 99610 10017 46/// /3622 10047 49929 52025 22200
BBXX 63105 29184 99610 10017 47598 ///// 10046 21000 49931 52027 751// 22200
BBXX 62304 29184 99511 10018 46/97 /2537 10084 20055 40143 57031 22200 00108 10603 70016 333 90710 91152
BBXX 62103 29184 99499 70029 46/98 /2738 10112 20070 40244 56009 22200 00117 10907 70037 333 90710 91155
BBXX 63110 29183 99595 10015 41/98 /3327 10080 49935 700// 8//// 22200 10808 70040
BBXX WC5932 29184 99431 70877 43/// /2514 00/// 10049 21150 49993 57035 7//// 8//// 22284 0//// 2//// 3//// 4//// 5//// 6//// 81009 ICE /////
BBXX 52244 29181 99200 11452 46/// ///// 1//// 91800 22200 00263
BBXX 52245 29181 99181 11458 46/// ///// 1//// 91800 22200 00276
BBXX 52248 29181 99135 11448 46/// ///// 1//// 91800 22200 00280
BBXX 52243 29181 99193 11666 46/// ///// 1//// 91800 22200 00272
BBXX 51178 29181 99142 51695 46/// ///// 1//// 91800 22200 00284
BBXX 51174 29181 99142 51697 46/// ///// 1//// 91800 22200 00285
BBXX 51179 29181 99143 51708 46/// ///// 1//// 91800 22200 00286
BBXX 51169 29181 99004 51600 46/// ///// 1//// 91800 22200 00256
BBXX 51172 29181 99284 71783 46/// ///// 1//// 91800 22200 00228
BBXX 51176 29181 99278 71758 46/// ///// 1//// 91800 22200 00238
BBXX 51173 29181 99260 71739 46/// ///// 1//// 91800 22200 00247
BBXX 51170 29181 99168 71695 46/// ///// 1//// 91800 22200 00255
BBXX 51171 29181 99064 71623 46/// ///// 1//// 91800 22200 00276
BBXX WC5932 29184 99431 70877 43/// /2514 00/// 10049 21150 49993 57035 7//// 8//// 22284 0//// 2//// 3//// 4//// 5//// 6//// 81009 ICE /////
AAXX 29184 97086 31458 72305 10270 20241 30082 40106 56004 71522 83570 333 56000 83617 86460
BBXX WCOB 29184 99273 70623 419// 01704 10240 20219 40230 56010 7//// 8//// 22223 0//// 20603 302// 41404 5//// 6//// 80225 ICE /////
BBXX WCOB 29184 99273 70623 419// 01704 10240 20219 40230 56010 7//// 8//// 22223 0//// 20603 302// 41404 5//// 6//// 80225 ICE /////
BBXX UEYO 29181 99513 11465 42/98 /2008 11020 40227 54000 77072 22253 00002 20402
AAXX 29184 97192 01410 80903 10250 20241 30053 40110 57020 60081 76162 8552/ 333 60087 85615 88460
AAXX 29181 01008 11485 71106 11161 21196 30016 40052 53014 69902 70272 875// 333 11141 91108
BBXX 63110 29184 99595 10015 47598 /3124 10072 20016 49938 53002 700// 22200 10709 70043
BBXX 63106 29184 99610 10017 46/// /3622 10047 49929 52025 22200
BBXX 63113 29184 99610 10017 46/// /3526 10042 20004 49930 52025 22200 10807 70037
BBXX 62304 29184 99511 10018 46/97 /2537 10094 20065 40143 57031 22200 00108 10603 70016 333 90710 91152
BBXX 64045 29184 99591 70117 46/// /3026 10061 20011 40104 52067 22200 00099 11016 70080 333 90710 91145
BBXX 62103 29184 99499 70029 46/97 /2839 10113 20075 40232 57016 22200 00117 10808 70040 333 90710 91150
BBXX 2AUO5 29183 99606 10016 41597 43530 10051 20026 49942 53021 70266 848// 22271 20704 334// 41010 80041
BBXX SHIP 29184 99113 31306 41/97 52805 10287 20282 40019 70222 222// 0//// 20601 303// 40601 5////
BBXX SHIP 29184 99113 31306 41/97 52805 10287 20282 40019 70222 222// 0//// 20601 303// 40601 5////
BBXX WYP8657 29184 99448 70829 41/96 81616 10003 2//// 40054 5//// 78372 8/6// 22233 00050 20403 3//// 4//// 5//// 61//1 8//// ICE /////
BBXX UGOD 29181 99476 11475 42/97 81110 10000 40215 57011 22253 00023 20402 30200 40603
BBXX WYP8657 29184 99448 70829 41/96 81616 10003 2//// 40054 5//// 78372 8/6// 22233 00050 20403 3//// 4//// 5//// 61//1 8//// ICE /////
AAXX 29184 16021 11562 82907 11042 21073 37956 48482 58004 60012 70171 886// 333 11016 47011 88730 92802 93197
BBXX UEYO 29181 99513 11465 42/98 /2008 11020 40227 54000 77072 22253 00002 20402
BBXX UGOD 29181 99476 11475 42/97 81110 10000 40215 57011 22253 00023 20402 30200 40603
AAXX 29181 34123 32997 01903 11012 21032 30027 40246 57006 333 10016
AAXX 29181 27402 41497 82003 10010 21013 39873 40053 57007 77172 8872/ 333 88712
AAXX 29181 02805 11334 83604 11103 21117 39799 49936 54000 69912 78581 887// 333 11073 21153 47///
AAXX 29181 28138 42599 82802 11052 21062 39475 40049 52024 885//
AAXX 29184 96295 32560 52603 10260 20236 30007 40109 56006 82531 333 56000 82615
AAXX 29181 38933 429// 03601 11008 21026 39788 40324 54000
AAXX 29181 38598 425// 80000 10003 21003 40312 57003 886//
AAXX 29181 38954 429// 00000 11063 21117 38025 48640 52003
BBXX 64045 29184 99591 70117 46/// /3026 10061 20011 40104 52027 22200 00099 11016 70080 333 90710 91145
BBXX 63055 29184 99606 10016 47798 /3318 10045 20012 49927 53016 700// 22200 10808 70039
BBXX 63106 29184 99610 10017 46/// /3622 10047 49929 52025 22200
BBXX 63105 29184 99610 10017 47598 ///// 10046 21000 49931 52027 751// 22200
BBXX 62304 29184 99511 10018 46/97 /2537 10084 20055 40143 57031 22200 00108 10603 70016 333 90710 91152
BBXX 62103 29184 99499 70029 46/98 /2738 10112 20070 40244 56009 22200 00117 10907 70037 333 90710 91155
BBXX 63110 29183 99595 10015 41/98 /3327 10080 49935 700// 8//// 22200 10808 70040
BBXX SHIP 29184 99113 31306 41/97 52805 10287 20282 40019 70222 222// 0//// 20601 303// 40601 5////
AAXX 29181 32027 42599 83604 11123 21136 30234 40243 54000 889// 333 91005 91106
AAXX 29184 71824 46/// /2906 11206 21243 6///1 333 11205 21276 7////
AAXX 29181 30781 42999 10000 11313 21333 39842 40375 52002 80001
AAXX 29181 59567 46/// /0208 10181 20178 39811 40193 55003
AAXX 29181 59792 32460 80309 10205 20187 30183 40188 58004 8542/
AAXX 29181 59997 32460 20503 10277 20250 30012 40120 57008 82200
AAXX 29184 96837 31558 70000 10258 20243 30092 40089 57005 70522 85221 333 56000 57800 85823
AAXX 29181 20087 41896 81609 11139 21159 39910 49921 58002 77373 8802/ 333 91112
AAXX 2918/ 89872 46/// ///// 11025 39764 4//// 5//// 91830
AAXX 2918/ 89869 46/// ///// 11029 39751 4//// 5//// 91830
AAXX 2918/ 89329 46/// ///// 11080 38654 4//// 5//// 91830
AAXX 2918/ 89108 46/// ///// 11219 36921 4//// 5//// 91840
AAXX 2918/ 89332 46/// ///// 11046 39149 4//// 5//// 91830
AAXX 2918/ 89769 46/// ///// 11014 39790 4//// 5//// 91830
BBXX 42044 29181 99262 70971 46/// /3501 10154 20080 40168 91830 22200 00161 333 91201
BBXX 42046 29181 99279 70940 46/// /2408 1//// 40162 91830 22200 00218 333 91209
BBXX 42046 29181 99279 70940 46/// /2407 1//// 40167 91800 22200 00218 333 91208
BBXX 42047 29181 99279 70936 46/// /2107 10205 20109 40161 91830 22200 00221 333 91208
AAXX 29181 31285 41998 80000 11214 21247 30203 40288 53011 77172 83026
BBXX 63110 29184 99595 10015 47598 /3124 10072 20016 49938 53002 700// 22200 10709 70043
BBXX 63106 29184 99610 10017 46/// /3622 10047 49929 52025 22200
BBXX 63113 29184 99610 10017 46/// /3526 10042 20004 49930 52025 22200 10807 70037
BBXX 62304 29184 99511 10018 46/97 /2537 10094 20065 40143 57031 22200 00108 10603 70016 333 90710 91152
BBXX 64045 29184 99591 70117 46/// /3026 10061 20011 40104 52067 22200 00099 11016 70080 333 90710 91145
BBXX 62103 29184 99499 70029 46/97 /2839 10113 20075 40232 57016 22200 00117 10808 70040 333 90710 91150
BBXX 2AUO5 29183 99606 10016 41597 43530 10051 20026 49942 53021 70266 848// 22271 20704 334// 41010 80041
AAXX 29184 43404 21970 8//// 10234 20223 30064 40074 70255 83037 333 58/// 69937 83358 88280
AAXX 2918/ 68902 46/// ///// 40189 52002
AAXX 29184 64005 NIL
AAXX 29184 64040 NIL
AAXX 29184 64210 12559 12702 10268 20227 39742 40092 69902 81500 333 58001 81620
AAXX 29184 64360 NIL
AAXX 29181 25745 42698 20000 11402 21427 30198 40258 52003 82500
BBXX 42047 29181 99279 70936 46/// /2107 10205 20109 40161 91830 22200 00221 333 91208
BBXX 42046 29181 99279 70940 46/// /2407 1//// 40167 91800 22200 00218 333 91208
BBXX 42046 29181 99279 70940 46/// /2408 1//// 40162 91830 22200 00218 333 91209
BBXX 42044 29181 99262 70971 46/// /3501 10154 20080 40168 91830 22200 00161 333 91201
BBXX MINFR03 2918/ 99224 10687 46/// ///// 10220 40172 52003
AAXX 29181 29789 42999 00000 11219 21225 39102 40387 58003
BBXX 64045 29184 99591 70117 46/// /3026 10061 20011 40104 52027 22200 00099 11016 70080 333 90710 91145
BBXX 63055 29184 99606 10016 47798 /3318 10045 20012 49927 53016 700// 22200 10808 70039
BBXX 63106 29184 99610 10017 46/// /3622 10047 49929 52025 22200
BBXX 63105 29184 99610 10017 47598 ///// 10046 21000 49931 52027 751// 22200
BBXX 62304 29184 99511 10018 46/97 /2537 10084 20055 40143 57031 22200 00108 10603 70016 333 90710 91152
BBXX 62103 29184 99499 70029 46/98 /2738 10112 20070 40244 56009 22200 00117 10907 70037 333 90710 91155
BBXX 63110 29183 99595 10015 41/98 /3327 10080 49935 700// 8//// 22200 10808 70040
BBXX MINFR03 2918/ 99224 10687 46/// ///// 10220 40172 52003
AAXX 29184 48386 31950 00000 10190 20182 30099 40144 57007 71000 333 58001
AAXX 29184 97340 32560 80000 10256 20242 30074 40089 56012 82232 333 56000 82620 87360
BBXX 63110 29184 99595 10015 47598 /3124 10072 20016 49938 53002 700// 22200 10709 70043
BBXX 63106 29184 99610 10017 46/// /3622 10047 49929 52025 22200
BBXX 63113 29184 99610 10017 46/// /3526 10042 20004 49930 52025 22200 10807 70037
BBXX 62304 29184 99511 10018 46/97 /2537 10094 20065 40143 57031 22200 00108 10603 70016 333 90710 91152
BBXX 64045 29184 99591 70117 46/// /3026 10061 20011 40104 52067 22200 00099 11016 70080 333 90710 91145
BBXX 62103 29184 99499 70029 46/97 /2839 10113 20075 40232 57016 22200 00117 10808 70040 333 90710 91150
BBXX 2AUO5 29183 99606 10016 41597 43530 10051 20026 49942 53021 70266 848// 22271 20704 334// 41010 80041
AAXX 29181 10015 01560 72509 10071 20042 30009 40019 58032 60102 72586 879// 222// 02065 333 10075 20043 31004 55300 20000 30000 60037 83823 82923 85656 91123 91217 96481 96463
BBXX 64045 29184 99591 70117 46/// /3026 10061 20011 40104 52027 22200 00099 11016 70080 333 90710 91145
BBXX 63055 29184 99606 10016 47798 /3318 10045 20012 49927 53016 700// 22200 10808 70039
BBXX 63106 29184 99610 10017 46/// /3622 10047 49929 52025 22200
BBXX 63105 29184 99610 10017 47598 ///// 10046 21000 49931 52027 751// 22200
BBXX 62304 29184 99511 10018 46/97 /2537 10084 20055 40143 57031 22200 00108 10603 70016 333 90710 91152
BBXX 62103 29184 99499 70029 46/98 /2738 10112 20070 40244 56009 22200 00117 10907 70037 333 90710 91155
BBXX 63110 29183 99595 10015 41/98 /3327 10080 49935 700// 8//// 22200 10808 70040
BBXX 64049 29183 99571 10022 41/97 63030 10050 20041 49954 54000 70211 8//// 22200 04086 20606 330// 40608 5//// 80046
BBXX 64049 29183 99571 10022 41/97 63030 10050 20041 49954 54000 70211 8//// 22200 04086 20606 330// 40608 5//// 80046
BBXX PJGO 29184 99571 10022 47/98 /2824 10058 20018 49969 55006 700// 22200
BBXX 63110 29184 99595 10015 47598 /3124 10072 20016 49938 53002 700// 22200 10709 70043
BBXX 63106 29184 99610 10017 46/// /3622 10047 49929 52025 22200
BBXX 63113 29184 99610 10017 46/// /3526 10042 20004 49930 52025 22200 10807 70037
BBXX 62304 29184 99511 10018 46/97 /2537 10094 20065 40143 57031 22200 00108 10603 70016 333 90710 91152
BBXX 64045 29184 99591 70117 46/// /3026 10061 20011 40104 52067 22200 00099 11016 70080 333 90710 91145
BBXX 62103 29184 99499 70029 46/97 /2839 10113 20075 40232 57016 22200 00117 10808 70040 333 90710 91150
BBXX 2AUO5 29183 99606 10016 41597 43530 10051 20026 49942 53021 70266 848// 22271 20704 334// 41010 80041
BBXX 52249 29181 99052 31503 46/// ///// 1//// 91800 22200 00306
AAXX 29184 17310 12670 21602 10139 20061 30209 40216 54000 60002 82200 333 10171 82835 91105 92428
BBXX A8VL8 29184 99192 11127 41597 70222 10230 20169 40190 52020 70222 8769/ 22283 0//// 2//// 3//// 4//// 5//// 6//// 80190 ICE /////
BBXX 64045 29184 99591 70117 46/// /3026 10061 20011 40104 52027 22200 00099 11016 70080 333 90710 91145
BBXX 63055 29184 99606 10016 47798 /3318 10045 20012 49927 53016 700// 22200 10808 70039
BBXX 63106 29184 99610 10017 46/// /3622 10047 49929 52025 22200
BBXX 63105 29184 99610 10017 47598 ///// 10046 21000 49931 52027 751// 22200
BBXX 62304 29184 99511 10018 46/97 /2537 10084 20055 40143 57031 22200 00108 10603 70016 333 90710 91152
BBXX 62103 29184 99499 70029 46/98 /2738 10112 20070 40244 56009 22200 00117 10907 70037 333 90710 91155
BBXX 63110 29183 99595 10015 41/98 /3327 10080 49935 700// 8//// 22200 10808 70040
BBXX 64049 29183 99571 10022 41/97 63030 10050 20041 49954 54000 70211 8//// 22200 04086 20606 330// 40608 5//// 80046
BBXX A8VL8 29184 99192 11127 41597 70222 10230 20169 40190 52020 70222 8769/ 22283 0//// 2//// 3//// 4//// 5//// 6//// 80190 ICE /////
BBXX 52249 29181 99052 31503 46/// ///// 1//// 91800 22200 00306
AAXX 29184 96751 32540 60000 10212 20164 39046 48920 56007 84510 333 56000 84620 83460
BBXX PJGO 29184 99571 10022 47/98 /2824 10058 20018 49969 55006 700// 22200
BBXX 63110 29184 99595 10015 47598 /3124 10072 20016 49938 53002 700// 22200 10709 70043
BBXX 63106 29184 99610 10017 46/// /3622 10047 49929 52025 22200
BBXX 63113 29184 99610 10017 46/// /3526 10042 20004 49930 52025 22200 10807 70037
BBXX 62304 29184 99511 10018 46/97 /2537 10094 20065 40143 57031 22200 00108 10603 70016 333 90710 91152
BBXX 64045 29184 99591 70117 46/// /3026 10061 20011 40104 52067 22200 00099 11016 70080 333 90710 91145
BBXX 62103 29184 99499 70029 46/97 /2839 10113 20075 40232 57016 22200 00117 10808 70040 333 90710 91150
BBXX 2AUO5 29183 99606 10016 41597 43530 10051 20026 49942 53021 70266 848// 22271 20704 334// 41010 80041
AAXX 29184 97028 01560 81103 10236 20248 30103 40109 51006 60027 72162 84521 333 56000 69907 84620 87460
AAXX 29181 78090 15/// /0000 10213 30197 40200 69901 91800 222// 00376
BBXX 64045 29184 99591 70117 46/// /3026 10061 20011 40104 52027 22200 00099 11016 70080 333 90710 91145
BBXX 63055 29184 99606 10016 47798 /3318 10045 20012 49927 53016 700// 22200 10808 70039
BBXX 63106 29184 99610 10017 46/// /3622 10047 49929 52025 22200
BBXX 63105 29184 99610 10017 47598 ///// 10046 21000 49931 52027 751// 22200
BBXX 62304 29184 99511 10018 46/97 /2537 10084 20055 40143 57031 22200 00108 10603 70016 333 90710 91152
BBXX 62103 29184 99499 70029 46/98 /2738 10112 20070 40244 56009 22200 00117 10907 70037 333 90710 91155
BBXX 63110 29183 99595 10015 41/98 /3327 10080 49935 700// 8//// 22200 10808 70040
BBXX 64049 29183 99571 10022 41/97 63030 10050 20041 49954 54000 70211 8//// 22200 04086 20606 330// 40608 5//// 80046
BBXX PJGO 29184 99571 10022 47/98 /2824 10058 20018 49969 55006 700// 22200
BBXX 63110 29184 99595 10015 47598 /3124 10072 20016 49938 53002 700// 22200 10709 70043
BBXX 63106 29184 99610 10017 46/// /3622 10047 49929 52025 22200
BBXX 63113 29184 99610 10017 46/// /3526 10042 20004 49930 52025 22200 10807 70037
BBXX 62304 29184 99511 10018 46/97 /2537 10094 20065 40143 57031 22200 00108 10603 70016 333 90710 91152
BBXX 64045 29184 99591 70117 46/// /3026 10061 20011 40104 52067 22200 00099 11016 70080 333 90710 91145
BBXX 62103 29184 99499 70029 46/97 /2839 10113 20075 40232 57016 22200 00117 10808 70040 333 90710 91150
BBXX 2AUO5 29183 99606 10016 41597 43530 10051 20026 49942 53021 70266 848// 22271 20704 334// 41010 80041
BBXX 64045 29184 99591 70117 46/// /3026 10061 20011 40104 52027 22200 00099 11016 70080 333 90710 91145
BBXX 63055 29184 99606 10016 47798 /3318 10045 20012 49927 53016 700// 22200 10808 70039
BBXX 63106 29184 99610 10017 46/// /3622 10047 49929 52025 22200
BBXX 63105 29184 99610 10017 47598 ///// 10046 21000 49931 52027 751// 22200
BBXX 62304 29184 99511 10018 46/97 /2537 10084 20055 40143 57031 22200 00108 10603 70016 333 90710 91152
BBXX 62103 29184 99499 70029 46/98 /2738 10112 20070 40244 56009 22200 00117 10907 70037 333 90710 91155
BBXX 63110 29183 99595 10015 41/98 /3327 10080 49935 700// 8//// 22200 10808 70040
BBXX 64049 29183 99571 10022 41/97 63030 10050 20041 49954 54000 70211 8//// 22200 04086 20606 330// 40608 5//// 80046
AAXX 29184 85832 12980 09905 10251 20021 40137 56011 60001
AAXX 29184 85836 12980 02616 10261 20036 40186 56012 60001
AAXX 29184 85864 12980 32508 10245 20042 40139 56006 60001 83030 333 56060 83360
AAXX 29184 85874 12982 33017 10229 20020 39522 40115 58012 60001 80001 333 56006
AAXX 29184 85892 12980 72507 10206 20005 40105 60001 84031 333 56066 84360 87070
AAXX 29184 85934 12580 52927 10160 20021 40017 57036 60001 82101 333 56606 82820 83070
AAXX 29184 89056 11250 80218 10011 20004 49823 54002 69903 71085 886// 333 56899 88705
AAXX 29184 89057 11460 83104 10017 20005 49820 54002 69923 72022 886// 333 56599 88715
AAXX 29184 89058 11563 83412 10020 20002 39807 49828 57001 69901 70070 8757/
AAXX 29184 89059 12460 81903 10007 21012 49829 56001 60003 886// 333 74099 88713
AAXX 29184 89251 32465 81607 10029 20001 49813 58002 77072 8652/
AAXX 29184 85930 11596 83621 10101 20082 40026 57044 69941 71682 887// 333 56899 88723 91162 91536
AAXX 29184 85972 11496 83325 10078 20070 49955 57025 60031 71682 887// 333 56799 88716 91533 91145
AAXX 29184 85406 12980 02011 10243 20140 40117 57019 60001
AAXX 29184 85418 12565 42215 10235 20128 40126 57014 60001 81510 333 56000 81630 83463
AAXX 29184 85432 12970 32522 10246 20040 37747 48399 57013 60001 80001 333 56006 83072
AAXX 29184 85442 12570 72014 10210 20135 40125 57012 60001 81504 333 56407 81625 87080
AAXX 29184 85467 12560 69905 10210 20120 40150 57017 60001 86500 333 56600 86630
AAXX 29184 85469 42570 50719 10251 20186 40194 52005 85800 333 56200 85820
AAXX 29184 85488 12462 83007 10182 20140 40147 58009 60001 885// 333 56099 84612 88620
AAXX 29184 85574 12960 01808 10318 20096 39566 40086 57017 60001
AAXX 29184 85577 12960 02306 10317 20114 39520 40093 57014 60001
AAXX 29184 85585 12498 52308 10188 20133 40205 57013 60001 85500 333 56400 85617
AAXX 29184 85586 11457 52508 10184 20119 40155 57004 60001 70511 85500 333 56600 85615
AAXX 29184 85629 12970 02608 10296 20144 40106 57011 60001
AAXX 29184 85672 12970 01812 10308 20082 40123 57011 60001 333
AAXX 29184 85682 12970 02416 10245 20116 40142 57012 60001
AAXX 29184 85743 12960 12509 10260 20100 40156 57015 60001 80001 333 56006 81075
AAXX 29184 85766 12975 01706 10263 20112 40163 57013 60001
AAXX 29184 85782 12965 01812 10235 20115 40179 57011 60001
AAXX 29184 85799 12960 01411 10187 20127 40192 57002
AAXX 29184 85830 NIL
AAXX 29184 89573 35980 00411 11016 21086 39680 49701 52001
AAXX 29184 89573 35980 00411 11016 21086 39680 49701 52001
AAXX 29184 91723 NIL
AAXX 29184 91964 36/// /0810 10243 20214 40216 57006
AAXX 29184 48583 31558 80000 10237 20227 30107 40113 57009 71022 82876 333 59003
BBXX PJGO 29184 99571 10022 47/98 /2824 10058 20018 49969 55006 700// 22200
BBXX 63110 29184 99595 10015 47598 /3124 10072 20016 49938 53002 700// 22200 10709 70043
BBXX 63106 29184 99610 10017 46/// /3622 10047 49929 52025 22200
BBXX 63113 29184 99610 10017 46/// /3526 10042 20004 49930 52025 22200 10807 70037
BBXX 62304 29184 99511 10018 46/97 /2537 10094 20065 40143 57031 22200 00108 10603 70016 333 90710 91152
BBXX 64045 29184 99591 70117 46/// /3026 10061 20011 40104 52067 22200 00099 11016 70080 333 90710 91145
BBXX 62103 29184 99499 70029 46/97 /2839 10113 20075 40232 57016 22200 00117 10808 70040 333 90710 91150
BBXX 2AUO5 29183 99606 10016 41597 43530 10051 20026 49942 53021 70266 848// 22271 20704 334// 41010 80041
AAXX 29184 71770 16/// /1713 10053 21011 39373 40141 50012 60001 333 10095 20018 70024
BBXX VRDT5 29184 99040 31260 41196 83213 10280 2022/ 40080 57040 7//22 88/4/ 22223 0//// 20403 300// 40406 5//// 6//// 80240 ICE /////
BBXX 64045 29184 99591 70117 46/// /3026 10061 20011 40104 52027 22200 00099 11016 70080 333 90710 91145
BBXX 63055 29184 99606 10016 47798 /3318 10045 20012 49927 53016 700// 22200 10808 70039
BBXX 63106 29184 99610 10017 46/// /3622 10047 49929 52025 22200
BBXX 63105 29184 99610 10017 47598 ///// 10046 21000 49931 52027 751// 22200
BBXX 62304 29184 99511 10018 46/97 /2537 10084 20055 40143 57031 22200 00108 10603 70016 333 90710 91152
BBXX 62103 29184 99499 70029 46/98 /2738 10112 20070 40244 56009 22200 00117 10907 70037 333 90710 91155
BBXX 63110 29183 99595 10015 41/98 /3327 10080 49935 700// 8//// 22200 10808 70040
BBXX 64049 29183 99571 10022 41/97 63030 10050 20041 49954 54000 70211 8//// 22200 04086 20606 330// 40608 5//// 80046
BBXX VRDT5 29184 99040 31260 41196 83213 10280 2022/ 40080 57040 7//22 88/4/ 22223 0//// 20403 300// 40406 5//// 6//// 80240 ICE /////
AAXX 29184 48581 31556 60000 10232 20226 30088 40130 56001 71022 82246 333 58004 70020
AAXX 29181 30469 429// 80000 11342 21359 39544 40411 52002 80005
BBXX PJGO 29184 99571 10022 47/98 /2824 10058 20018 49969 55006 700// 22200
BBXX 63110 29184 99595 10015 47598 /3124 10072 20016 49938 53002 700// 22200 10709 70043
BBXX 63106 29184 99610 10017 46/// /3622 10047 49929 52025 22200
BBXX 63113 29184 99610 10017 46/// /3526 10042 20004 49930 52025 22200 10807 70037
BBXX 62304 29184 99511 10018 46/97 /2537 10094 20065 40143 57031 22200 00108 10603 70016 333 90710 91152
BBXX 64045 29184 99591 70117 46/// /3026 10061 20011 40104 52067 22200 00099 11016 70080 333 90710 91145
BBXX 62103 29184 99499 70029 46/97 /2839 10113 20075 40232 57016 22200 00117 10808 70040 333 90710 91150
BBXX 2AUO5 29183 99606 10016 41597 43530 10051 20026 49942 53021 70266 848// 22271 20704 334// 41010 80041
BBXX UGSN 29181 99514 11409 42/98 /3101 11080 40240 52004 22200 00015 2//// ICE 20092
AAXX 29184 89054 31460 81306 10020 20004 49833 54000 71022 887// 333 56399 88703
AAXX 29184 89054 31460 81306 10020 20004 49833 54000 71022 887// 333 56399 88703
BBXX UGSN 29181 99514 11409 42/98 /3101 11080 40240 52004 22200 00015 2//// ICE 20092
BBXX 64045 29184 99591 70117 46/// /3026 10061 20011 40104 52027 22200 00099 11016 70080 333 90710 91145
BBXX 63055 29184 99606 10016 47798 /3318 10045 20012 49927 53016 700// 22200 10808 70039
BBXX 63106 29184 99610 10017 46/// /3622 10047 49929 52025 22200
BBXX 63105 29184 99610 10017 47598 ///// 10046 21000 49931 52027 751// 22200
BBXX 62304 29184 99511 10018 46/97 /2537 10084 20055 40143 57031 22200 00108 10603 70016 333 90710 91152
BBXX 62103 29184 99499 70029 46/98 /2738 10112 20070 40244 56009 22200 00117 10907 70037 333 90710 91155
BBXX 63110 29183 99595 10015 41/98 /3327 10080 49935 700// 8//// 22200 10808 70040
BBXX 64049 29183 99571 10022 41/97 63030 10050 20041 49954 54000 70211 8//// 22200 04086 20606 330// 40608 5//// 80046
AAXX 29184 94268 46/// /1305 10237 20230 30011 40023
AAXX 29184 94268 46/// /1305 10237 20230 30011 40023
AAXX 29181 98133 31465 70704 10/// 20/// 40159 5//// 70544 83270 333 56299 83818 87359
AAXX 28184 67002 32580 20604 10265 20239 30090 40124 81802 333 10324 59004 81802 92408
AAXX 28184 67009 NIL
AAXX 28184 67012 NIL
AAXX 28184 67025 NIL
AAXX 28184 67027 32580 53010 10282 20239 30086 40107 51009 83902 333 10332 81820 81920 83640 94961 95831 555 82073
AAXX 28184 67072 NIL
AAXX 28184 67073 NIL
AAXX 28184 67083 11470 70000 10196 20193 38737 48512 52016 60022 70396 878// 333 10270 81817 87620 RR 1.8MM 67095 31465 73608 10270 20247 30107 40113 52019 71511 879// 333 10316 81917 83817 86633 94966 95816
AAXX 28184 67113 NIL
AAXX 28184 67137 NIL
AAXX 28184 67157 NIL
AAXX 28184 67197 11465 73404 10248 20229 30091 40101 52018 60032 71796 879// 333 10318 83817 82917 85633 94967/8 95837/8 RR 3.2MM
AAXX 28184 67002 32580 20604 10265 20239 30090 40124 81802 333 10324 59004 81802 92408
AAXX 28184 67009 NIL
AAXX 28184 67012 NIL
AAXX 28184 67025 NIL
AAXX 28184 67027 32580 53010 10282 20239 30086 40107 51009 83902 333 10332 81820 81920 83640 94961 95831 555 82073
AAXX 28184 67072 NIL
AAXX 28184 67073 NIL
AAXX 28184 67083 11470 70000 10196 20193 38737 48512 52016 60022 70396 878// 333 10270 81817 87620 RR 1.8MM 67095 31465 73608 10270 20247 30107 40113 52019 71511 879// 333 10316 81917 83817 86633 94966 95816
AAXX 28184 67113 NIL
AAXX 28184 67137 NIL
AAXX 28184 67157 NIL
AAXX 28184 67197 11465 73404 10248 20229 30091 40101 52018 60032 71796 879// 333 10318 83817 82917 85633 94967/8 95837/8 RR 3.2MM
AAXX 29184 67002 32580 20604 10265 20239 30090 40124 81802 333 10324 59004 81802 92408
AAXX 29184 67009 NIL
AAXX 29184 67012 NIL
AAXX 29184 67025 NIL
AAXX 29184 67027 32580 53010 10282 20239 30086 40107 51009 83902 333 10332 81820 81920 83640 94961 95831 555 82073
AAXX 29184 67072 NIL
AAXX 29184 67073 NIL
AAXX 29184 67083 11470 70000 10196 20193 38737 48512 52016 60022 70396 878// 333 10270 81817 87620 RR 1.8MM 67095 31465 73608 10270 20247 30107 40113 52019 71511 879// 333 10316 81917 83817 86633 94966 95816
AAXX 29184 67113 NIL
AAXX 29184 67137 NIL
AAXX 29184 67157 NIL
AAXX 29184 67197 11465 73404 10248 20229 30091 40101 52018 60032 71796 879// 333 10318 83817 82917 85633 94967/8 95837/8 RR 3.2MM
AAXX 29184 67002 32580 20604 10265 20239 30090 40124 81802 333 10324 59004 81802 92408
AAXX 29184 67009 NIL
AAXX 29184 67012 NIL
AAXX 29184 67025 NIL
AAXX 29184 67027 32580 53010 10282 20239 30086 40107 51009 83902 333 10332 81820 81920 83640 94961 95831 555 82073
AAXX 29184 67072 NIL
AAXX 29184 67073 NIL
AAXX 29184 67083 11470 70000 10196 20193 38737 48512 52016 60022 70396 878// 333 10270 81817 87620
AAXX 29184 67095 31465 73608 10270 20247 30107 40113 52019 71511 879// 333 10316 81917 83817 86633 94966 95816
AAXX 29184 67113 NIL
AAXX 29184 67137 NIL
AAXX 29184 67157 NIL
AAXX 29184 67197 11465 73404 10248 20229 30091 40101 52018 60032 71796 879// 333 10318 83817 82917 85633 94967/8 95837/8 RR 3.2MM
BBXX ONAN 29184 99298 11308 41598 80516 10140 2009/ 40210 54000 7//11 8824/ 22273 00150 20301 303// 40703 5//// 6//// 80110 ICE /////
BBXX ONAN 29184 99298 11308 41598 80516 10140 2009/ 40210 54000 7//11 8824/ 22273 00150 20301 303// 40703 5//// 6//// 80110 ICE /////
AAXX 29183 91551 31598 70000 10231 20228 40071 53002 70311 82204 333 569/9 82820 87279
AAXX 29183 91551 31598 70000 10231 20228 40071 53002 70311 82204 333 569/9 82820 87279
AAXX 29184 41696 02996 00000 11010 21111 38052 48580 60003 333 58014 60007
AAXX 29184 97240 31458 53105 10262 20239 39988 40103 57013 70511 82131 333 56000 82816
AAXX 29184 67002 32580 20604 10265 20239 30090 40124 81802 333 10324 59004 81802 92408
AAXX 29184 67009 NIL
AAXX 29184 67012 NIL
AAXX 29184 67025 NIL
AAXX 29184 67027 32580 53010 10282 20239 30086 40107 51009 83902 333 10332 81820 81920 83640 94961 95831 555 82073
AAXX 29184 67072 NIL
AAXX 29184 67073 NIL
AAXX 29184 67083 11470 70000 10196 20193 38737 48512 52016 60022 70396 878// 333 10270 81817 87620
AAXX 29184 67095 31465 73608 10270 20247 30107 40113 52019 71511 879// 333 10316 81917 83817 86633 94966 95816
AAXX 29184 67113 NIL
AAXX 29184 67137 NIL
AAXX 29184 67157 NIL
AAXX 29184 67197 11465 73404 10248 20229 30091 40101 52018 60032 71796 879// 333 10318 83817 82917 85633 94967
AAXX 29184 67002 32580 20604 10265 20239 30090 40124 81802 333 10324 59004 81802 92408
AAXX 29184 67009 NIL
AAXX 29184 67012 NIL
AAXX 29184 67025 NIL
AAXX 29184 67027 32580 53010 10282 20239 30086 40107 51009 83902 333 10332 81820 81920 83640 94961 95831 555 82073
AAXX 29184 67072 NIL
AAXX 29184 67073 NIL
AAXX 29184 67083 11470 70000 10196 20193 38737 48512 52016 60022 70396 878// 333 10270 81817 87620
AAXX 29184 67095 31465 73608 10270 20247 30107 40113 52019 71511 879// 333 10316 81917 83817 86633 94966 95816
AAXX 29184 67113 NIL
AAXX 29184 67137 NIL
AAXX 29184 67157 NIL
AAXX 29184 67197 11465 73404 10248 20229 30091 40101 52018 60032 71796 879// 333 10318 83817 82917 85633 94967
AAXX 29184 67002 32580 20604 10265 20239 30090 40124 81802 333 10324 59004 81802 92408
AAXX 29184 67009 NIL
AAXX 29184 67012 NIL
AAXX 29184 67025 NIL
AAXX 29184 67027 32580 53010 10282 20239 30086 40107 51009 83902 333 10332 81820 81920 83640 94961 95831 555 82073
AAXX 29184 67072 NIL
AAXX 29184 67073 NIL
AAXX 29184 67083 11470 70000 10196 20193 38737 48512 52016 60022 70396 878// 333 10270 81817 87620
AAXX 29184 67095 31465 73608 10270 20247 30107 40113 52019 71511 879// 333 10316 81917 83817 86633 94966 95816
AAXX 29184 67113 NIL
AAXX 29184 67137 NIL
AAXX 29184 67157 NIL
AAXX 29184 67197 11465 73404 10248 20229 30091 40101 52018 60032 71796 879// 333 10318 83817 82917 85633 94967
AAXX 29184 67009 32580 70000 10270 20255 39980 40099 54000 879// 333 10330 82820 81920 86640 94974/6 95834/6
AAXX 29181 01257 11475 82403 10009 21015 39701 49861 53021 60012 70222 85507 333 10016 91107
AAXX 29184 67009 32580 70000 10270 20255 39980 40099 54000 879// 333 10330 82820 81920 86640 94974 94976 95834 95836
AAXX 29184 89257 46/// /2803 11053 21083 39723 49792 5//// 91830
AAXX 29184 89272 46/// /3211 11090 21129 37977 49582 5//// 91830
AAXX 29184 89266 46/// /0502 11001 21016 39648 49783 5//// 91830
AAXX 29184 89065 46/// /9901 10016 21041 39695 49771 5//// 91830
AAXX 29184 89262 46/// /0314 11003 21019 39765 49808 5//// 91840
AAXX 29184 89266 46/// /0502 11001 21016 39648 49783 5//// 91830
AAXX 29184 89065 46/// /9901 10016 21041 39695 49771 5//// 91830
AAXX 29184 60190 31965 12004 10119 22032 40297 53002 70144 81032 333 10149 81358
AAXX 29181 10162 07465 82409 10044 20026 39966 40049 58025 69982 72386 333 10060 20042 3/003 55300 20000 30000 69927 87/15 88/21 88/31 91119 91212
AAXX 29181 11867 11224 82102 10008 21006 39889 40214 53001 69902 71022 886// 333 10010 88706
AAXX 29184 62393 32960 60000 10160 20071 40180 53006 86020 333 10216
AAXX 29184 62463 32560 63006 10182 20096 40182 52009 81150 333 10210
AAXX 29181 10113 01564 82308 10063 20047 30010 40029 58040 60082 72186 888// 333 10071 20045 32003 55300 20000 30000 60057 83820 87630 91119 91212 96488
AAXX 29181 10393 11784 72308 10050 20001 39987 40115 58017 69992 70381 8454/ 333 10067 20039 31001 55300 20000 30000 84650 85360 91116 91211 96488
BBXX DEFY 29183 99162 70702 41598 60719 10291 20230 40145 50016 70311 842/4 22271 02277 80247
BBXX DEFY 29183 99162 70702 41598 60719 10291 20230 40145 50016 70311 842/4 22271 02277 80247
AAXX 29184 67291 11565 8//// 10235 20228 3//// 48/// 60122 795// 889// 333 10/// 5//// 94390
AAXX 29184 67327 32980 20908 10230 20166 40168 52008 82030 333 10299 94300
AAXX 29184 67346 32565 20000 10/// 20/// 40155 52014 82100 333 10288 94310
AAXX 29184 71931 16/// /2226 10035 21005 39793 49805 58010 60001 333 10070 21005 70000
AAXX 29184 71931 16/// /2226 10035 21005 39793 49805 58010 60001 333 10070 21005 70000
AAXX 29181 24382 41995 30000 11436 21461 30010 40306 57002 71011 80001
AAXX 29184 44454 42558 10000 10056 20024 38698 48530 81100 333 59004
BBXX PHKM 29183 99386 70099 41597 20207 10142 20127 40339 53014 70100 825// 22282 2//// 80133
BBXX PHKM 29183 99386 70099 41597 20207 10142 20127 40339 53014 70100 825// 22282 2//// 80133
AAXX 29181 10980 11/01 92417 11082 21082 38148 48505 56006 60072 74974 333 11040 21082 3/109 48080 55300 20000 30000 91125 90206 91218 91219 96471 96449
AAXX 29181 10200 01380 82306 10056 20039 30045 40043 58039 60022 76086 877// 333 10068 20054 32005 55300 20000 30000 60027 87708 91115
