BBXX C6XE9 23123 99370 10121 41597 50507 10140 2011/ 40190 54010 70322 85948 22233 00170 20704 332// 41206 5//// 6//// 80120 ICE /////
BBXX ZMFR 23114 99413 31748 43/// /0000 10139 20100 40242 52006 22200 00150
BBXX ZMENA 23114 99368 31748 46/// ///// 10171 20099 40235 52012 22200
AAXX 23124 40272 31958 22706 10152 20028 39314 40150 57019 70500 80001 333 82070
BBXX 44172 23121 99445 70634 46/// ///// 1//// 91131 22200 00064 11105 21003 319// 41103 70024
BBXX 44097 23121 99410 70711 46/// ///// 1//// 91132 22200 00114 10703 20703 320// 41101 70016
AAXX 23124 40340 32960 43503 10212 20081 40131 57032 80001 333 84070
AAXX 23124 40270 31956 02604 10150 21006 39246 40139 57017 70500
AAXX 23124 40255 32660 42804 10152 20054 39434 40148 57018 84800 333 83830 82635
BBXX 3EBL5 23124 99241 70740 41696 60920 10250 20191 40200 51020 71522 8534/ 22274 04260 2//06 311// 4//06 5//// 6//// 80210 ICE /////
AAXX 23124 40296 32960 00000 10230 20097 40146 57025
AAXX 23124 08495 12580 12307 10182 20111 30263 40271 58001 60001 81500 91150 333 81626
AAXX 23124 66160 35560 53009 10271 20212 40109 8323/ 333 58001
AAXX 23124 62010 11560 63215 10157 20073 40201 51009 60021 70388 86800 333 84820 85630
AAXX 23124 68392 36/// /1610 10217 20173 30135 4//// 58002 333 10231 20191 91017 555
AAXX 23124 68906 31398 72811 10189 20154 30086 40149 55000 75055 8767/ 222// 00129 333 10202 20153 91021 555 91015
BBXX DBEB 23121 99539 10079 41/// /2210 10077 20077 40146 57014 7//// 22200 00064
BBXX DBKV 23121 99169 70250 46/// /0405 10229 20170 40186 52017 22210 00235
BBXX DBFR 23121 99535 10086 46/// /2205 10089 20088 40162 57014 22250 00048
BBXX DBJM 23121 99542 10069 46/// /2313 10097 20083 40137 57010 22222 00086
BBXX DBBT 23121 99339 30184 46/// /1409 10208 20104 40176 57011 22230 00162
BBXX DBFH 23121 99535 10086 46/// /2205 10091 20083 40160 57016 22230 00047
AAXX 23124 61901 11486 71317 10190 20130 39681 40186 69921 70282 878// 91150 333 59007 84814 87627
BBXX DBBU 23121 99544 10121 46/// /2309 10063 20065 40146 57008 22252 00051
BBXX DBEA 23121 99540 10082 46/// /2211 10079 20072 40147 57012 22220 00062
BBXX 46249 23121 99338 71197 46/// ///// 1//// 91142 22200 00142 11202 21001 327// 41201 70010
BBXX 46248 23121 99461 71247 46/// ///// 1//// 91134 22200 00086 11404 20903 330// 41403 70022
BBXX 46244 23121 99409 71244 46/// ///// 1//// 91135 22200 00095 11303 21002 328// 41302 70015
BBXX 46114 23121 99364 71222 46/// ///// 1//// 91134 22200 00124 11303 21002 329// 41302 70016
BBXX 41115 23121 99184 70673 46/// ///// 1//// 91135 22200 11103 20802 301// 41101 70014
BBXX 46240 23121 99366 71219 46/// ///// 1//// 91142 22200 00122 11301 21001 335// 41301 70007
BBXX 46212 23121 99408 71243 46/// ///// 1//// 91142 22200 00094 11203 20802 329// 41202 70014
BBXX 46217 23121 99342 71194 46/// ///// 1//// 91142 22200 00143 11201 21001 327// 41201 70006
BBXX 46218 23121 99345 71208 46/// ///// 1//// 91132 22200 00139 11304 21003 330// 41303 70022
BBXX 44098 23121 99428 70702 46/// ///// 1//// 91137 22200 00086 11101 21001 312// 41101 70007
AAXX 23124 91334 32474 80710 10281 20238 30054 40057 50008 82171 333 10322 56299 58000 70097 555 92312
AAXX 23124 91334 32474 80710 10281 20238 30054 40057 50008 82171 333 10322 56299 58000 70097 555 92312
AAXX 23124 16597 32775 43513 10131 20015 30093 40180 57002 84100 333 84853 91124 91535
BBXX 46060 23121 99606 71468 46/// /2807 11012 49835 53063 91150 22200 00056 333 91209 555 11073 22076 31115 42810 61149 285070 285076 285072 285074 285077 280078 82809 91105
BBXX 32012 23121 99197 50856 46/// ///// 1//// 91150 22200 11405 70025
BBXX 46088 23121 99483 71232 46/// /0904 10052 40292 51024 91150 22200 00077 1//00 70002 333 91205 555 11045 22046 31136 40906 61149 089043 083045 088040 083039 093031 096028
BBXX 41114 23121 99276 70802 46/// ///// 1//// 91146 22200 00247 11102 21001 307// 41101 70008
BBXX 51203 23121 99208 71570 46/// ///// 1//// 91143 22200 00248 11401 20801 322// 41401 70007
BBXX 52200 23121 99134 11448 46/// ///// 1//// 91145 22200 00288 11004 21004 310// 41102 70022
BBXX 51201 23121 99217 71581 46/// ///// 1//// 91142 22200 00241 10804 20803 331// 41301 70018
AAXX 23124 61902 32484 51417 10273 20186 40152 85800 333 58010 82818 83645
BBXX TESTFR9 23124 99492 70028 46/// /1717 10113 29093 40212 22274
BBXX BAREU63 23124 99441 10092 46/// /1412 10139 29061 40236 57006 22273
AAXX 23124 68994 12598 62711 10087 20023 30013 40042 53002 69921 86500 222// 00070 333 10094 20040 91021 555 20002 91004
BBXX 44025 23121 99402 70732 46/// /3612 10096 20085 40084 53021 91150 22200 00109 10803 20402 318// 40802 70013 333 91214 555 11123 22130 31149 40114 61149 004115 012106 016106 020107 021103 015101
BBXX 41008 23121 99314 70809 46/// /2107 10187 20178 40187 55000 91150 22200 00168 10502 20502 300// 41101 70010 333 91208 555 11080 22090 31147 42108 61149 206072 205071 203072 201066 202067 201070
BBXX 41004 23121 99325 70791 46/// /2210 10230 20184 40179 55000 91150 22200 00215 10704 20703 3//// 41101 70019 333 91211 555 11104 22114 31111 42213 61149 217097 216094 219099 220105 216105 218108
BBXX 44009 23121 99385 70747 46/// /2406 10126 40115 53028 91150 22200 00114 10604 20503 300// 40603 70021 333 91207 555 11066 22074 31116 42416 61149 238061 237078 237097 233114 211112 208117
BBXX 44014 23121 99366 70748 46/// /2108 1//// 40138 52035 91150 22200 00145 10705 20704 316// 40803 70023 333 91210 555 11084 22084 31102 42112 61149 211084 212085 213090 214092 211099 206098
BBXX 44039 23121 99411 70727 46/// /0308 10084 20078 40113 91145 22200 00093 10201 70005 333 91210
BBXX 44060 23121 99413 70721 46/// ///08 10075 40100 91145 22200 00103 333 91210 555 11088 22088
AAXX 23124 08583 31545 60617 10245 20163 40187 70522 82531 333 58019 82620 85360
AAXX 23124 08589 31440 60719 10248 20184 40162 70522 83531 333 58004 83617 85070
AAXX 23124 08594 31456 40919 10245 20154 40173 70610 81531 333 58010 81615 83360
BBXX A8YW2 23124 99004 30889 41397 82623 10280 20239 40060 55020 70322 85770 22214 00270 20102 326// 40903 80250
BBXX 44039 23121 99411 70727 46/// /0308 10084 20078 40113 91145 22200 00093 10201 70005 333 91210
AAXX 23124 89664 31961 20000 11010 21057 39763 49804 53003 74002 80007 333 10000 21011 56005 59113 82265
AAXX 23124 89664 31961 20000 11010 21057 39763 49804 53003 74002 80007 333 10000 21011 56005 59113 82265
AAXX 23124 89664 31961 20000 11010 21057 39763 49804 53003 74002 80007 333 10000 21011 56005 59113 82265
AAXX 23124 91408 11474 80604 10261 20246 30024 40062 52010 60061 70282 82108 333 10317 562/9 59001 70061 555 92312
AAXX 23124 91408 11474 80604 10261 20246 30024 40062 52010 60061 70282 82108 333 10317 562/9 59001 70061 555 92312
BBXX C6CL6 23124 99438 70219 41498 32724 10270 2026/ 40390 52020 70000 83940 22263 00180 2//// 3//// 4//// 5//// 6//// 80260 0/0/0
BBXX WDC6698 23124 99089 71471 43/// /3525 1//// 2//// 40080 5//// 7//// 8//// 222// 04265 2//// 3//// 4//// 5//// 6//// 8//// ICE /////
BBXX WZZF 23124 99205 11429 41397 80121 10220 20205 40110 54000 78062 886// 22244 00300 20304 302// 40506 5//// 6//// 80210 ICE /////
BBXX WACW 23124 99502 71350 41298 82225 10070 2002/ 40220 52050 7//22 8869/ 22233 00080 20204 321// 40809 5//// 6//// 80048 ICE /////
BBXX 3EMK6 23124 99266 70925 41/// /0118 10203 2//// 40210 54000 7//// 8//// 22200 00232 2//// 3//// 4//// 5//// 6//// 8//// ICE /////
BBXX WKAE 23124 99461 70430 41397 82434 10125 20107 40130 52000 71622 884// 22263 00150 20605 322// 40907 5//// 6//// 80115 ICE /////
BBXX C6FR6 23124 99227 10601 41/// /3412 10230 2//// 40210 54/// 7//// 8//// 222// 0//// 2//// 3//// 4//// 5//// 6//// 8//// ICE /////
BBXX WZZF 23124 99205 11429 41397 80121 10220 20205 40110 54000 78062 886// 22244 00300 20304 302// 40506 5//// 6//// 80210 ICE /////
BBXX ONFE 23124 99212 11214 41/98 80427 10220 2017/ 40180 5//// 75052 88/// 22254 00240 2//// 3//// 4//// 5//// 6//// 80190 ICE /////
BBXX WDB3161 23124 99333 11357 41798 23519 10080 2003/ 40142 52020 70200 821// 22254 00221 20302 3//// 4//// 5//// 6//// 80055 ICE /////
BBXX 32012 23121 99197 50856 46/// ///// 1//// 91150 22200 11405 70025
BBXX 3EPD8 23124 99096 50341 41698 60921 10270 20207 40147 7//00 84460 22283 04276 20214 80228
BBXX DBKV 23121 99169 70250 46/// /0405 10229 20170 40186 52017 22210 00235
BBXX DBBT 23121 99339 30184 46/// /1409 10208 20104 40176 57011 22230 00162
BBXX DDDI2 23124 99298 50272 41698 63620 10235 20199 40220 54000 70311 81171 22264 04240 20303 318// 40403 5//// 80210
BBXX ELZU2 23124 99106 70253 41998 00315 00/// 10230 2019/ 40140 54000 70222 80/// 22253 0//// 20405 3//// 4//// 5//// 6//// 80190
BBXX SHIP 23123 99322 71181 41798 10310 10130 2009/ 40320 52010 70200 8//// 22200 00162 2//// 3//// 4//// 5//// 6//// 80110 ICE /////
BBXX LAIG7 23124 99330 71785 41596 30920 10170 2010/ 40270 54000 70121 8216/ 22223 00204 20503 333// 40705 5//// 6//// 80130 ICE /////
BBXX DMDZ 23123 99220 70680 41498 60915 10240 20211 40215 54000 7//22 85244 22263 00260 20702 307// 40804 5//// 80220
BBXX A8RL2 23124 99176 70686 41/98 50918 10280 40165 52015 70222 8417/ 22214 04280 2//06 307// 41106
BBXX WDE5381 23124 99335 71208 41998 03520 10106 2006/ 40295 54000 7//00 80000 22234 0//// 2//// 333// 40602 5//// 6//// 80083 ICE /////
BBXX A8SI3 23123 99547 71746 43/98 1//// 10010 2103/ 40150 52030 22264 00020 81010
BBXX ZCDA9 23123 99296 71313 41798 80315 10140 20122 40277 57006 70222 8807/ 22265 00170 20201 334// 40503 5//// 80130
BBXX 9HJB9 23124 99120 70617 41898 60617 10260 20217 40135 54000 70211 84163 22200 04275 20000 3//// 4//// 5//// 6//// 85230 ICE /////
BBXX C6OT4 23124 99177 71360 41698 41024 10230 20186 40034 57016 70222 84463 22223 04243 20707 30511 40507 50608 80202
BBXX A8YW2 23124 99004 30889 41397 82623 10280 20239 40060 55020 70322 85770 22214 00270 20102 326// 40903 80250
BBXX C6UA2 23124 99216 31670 41696 71024 10260 2//// 40100 54/// 7//22 87670 22242 02290 2//05 3//// 4//// 5//// 6//// 8//// ICE /////
BBXX 44060 23121 99413 70721 46/// ///08 10075 40100 91145 22200 00103 333 91210 555 11088 22088
BBXX 44039 23121 99411 70727 46/// /0308 10084 20078 40113 91145 22200 00093 10201 70005 333 91210
BBXX 44009 23121 99385 70747 46/// /2406 10126 40115 53028 91150 22200 00114 10604 20503 300// 40603 70021 333 91207 555 11066 22074 31116 42416 61149 238061 237078 237097 233114 211112 208117
BBXX 41008 23121 99314 70809 46/// /2107 10187 20178 40187 55000 91150 22200 00168 10502 20502 300// 41101 70010 333 91208 555 11080 22090 31147 42108 61149 206072 205071 203072 201066 202067 201070
BBXX 44014 23121 99366 70748 46/// /2108 1//// 40138 52035 91150 22200 00145 10705 20704 316// 40803 70023 333 91210 555 11084 22084 31102 42112 61149 211084 212085 213090 214092 211099 206098
BBXX 41004 23121 99325 70791 46/// /2210 10230 20184 40179 55000 91150 22200 00215 10704 20703 3//// 41101 70019 333 91211 555 11104 22114 31111 42213 61149 217097 216094 219099 220105 216105 218108
BBXX 44025 23121 99402 70732 46/// /3612 10096 20085 40084 53021 91150 22200 00109 10803 20402 318// 40802 70013 333 91214 555 11123 22130 31149 40114 61149 004115 012106 016106 020107 021103 015101
BBXX LAZV5 23124 99367 70525 41598 82621 10200 2019/ 40260 51005 70322 88622 22223 00210 20402 326// 40403 5//// 6//// 80190
BBXX WKAE 23124 99461 70430 41397 82434 10125 20107 40130 52000 71622 884// 22263 00150 20605 322// 40907 5//// 6//// 80115 ICE /////
BBXX 9HXC9 23124 99214 70757 41498 31222 10260 20169 40170 52000 7//11 83781 22274 00270 2//// 3//// 4//// 5//// 6//// 80200 ICE /////
BBXX A8HG2 23124 99544 71698 41398 20125 10030 21021 40040 52030 70200 821// 22264 04040 20405 3//// 4//// 5//// 80010
BBXX WACW 23124 99502 71350 41298 82225 10070 2002/ 40220 52050 7//22 8869/ 22233 00080 20204 321// 40809 5//// 6//// 80048 ICE /////
BBXX 46060 23121 99606 71468 46/// /2807 11012 49835 53063 91150 22200 00056 333 91209 555 11073 22076 31115 42810 61149 285070 285076 285072 285074 285077 280078 82809 91105
BBXX 46088 23121 99483 71232 46/// /0904 10052 40292 51024 91150 22200 00077 1//00 70002 333 91205 555 11045 22046 31136 40906 61149 089043 083045 088040 083039 093031 096028
BBXX 41114 23121 99276 70802 46/// ///// 1//// 91146 22200 00247 11102 21001 307// 41101 70008
BBXX 44098 23121 99428 70702 46/// ///// 1//// 91137 22200 00086 11101 21001 312// 41101 70007
BBXX 46218 23121 99345 71208 46/// ///// 1//// 91132 22200 00139 11304 21003 330// 41303 70022
BBXX 46217 23121 99342 71194 46/// ///// 1//// 91142 22200 00143 11201 21001 327// 41201 70006
BBXX 46212 23121 99408 71243 46/// ///// 1//// 91142 22200 00094 11203 20802 329// 41202 70014
BBXX 46240 23121 99366 71219 46/// ///// 1//// 91142 22200 00122 11301 21001 335// 41301 70007
BBXX 41115 23121 99184 70673 46/// ///// 1//// 91135 22200 11103 20802 301// 41101 70014
BBXX 46114 23121 99364 71222 46/// ///// 1//// 91134 22200 00124 11303 21002 329// 41302 70016
BBXX 46249 23121 99338 71197 46/// ///// 1//// 91142 22200 00142 11202 21001 327// 41201 70010
BBXX 46244 23121 99409 71244 46/// ///// 1//// 91135 22200 00095 11303 21002 328// 41302 70015
BBXX 46248 23121 99461 71247 46/// ///// 1//// 91134 22200 00086 11404 20903 330// 41403 70022
BBXX VRCI9 23124 99370 71491 41/98 83318 10160 20144 40155 51020 75152 8//// 22225 00169 2//// 3//// 4//// 80150
BBXX LAVX4 23124 99385 70555 41/97 62646 1020/ 2019/ 40200 54000 86423 85433 22213 20404 3//// 4//// 5//// 8020/
BBXX A8XD5 23124 99419 71617 41/97 /2643 10080 20038 40080 54000 70085 8//// 22223 04090 29910 325// 40510 80060
BBXX DBFH 23121 99535 10086 46/// /2205 10091 20083 40160 57016 22230 00047
BBXX DBFR 23121 99535 10086 46/// /2205 10089 20088 40162 57014 22250 00048
BBXX DBJM 23121 99542 10069 46/// /2313 10097 20083 40137 57010 22222 00086
BBXX DBEA 23121 99540 10082 46/// /2211 10079 20072 40147 57012 22220 00062
BBXX DBBU 23121 99544 10121 46/// /2309 10063 20065 40146 57008 22252 00051
BBXX DBEB 23121 99539 10079 41/// /2210 10077 20077 40146 57014 7//// 22200 00064
BBXX C6CL6 23124 99438 70219 41498 32724 0/// 10270 2026/ 40390 52020 70000 83940 22263 00180 2//// 3//// 4//// 5//// 6//// 80260 0/0/0
BBXX KABL 23124 99334 10263 41398 33006 10160 2013/ 40080 58010 7//11 833// 22235 00200 20803 324// 40804 5//// 6//// 80140 ICE /////
AAXX 23124 64910 31556 62808 10321 20245 30100 40109 70522 86200 333 0//00 59003 86820
AAXX 23121 76220 32920 00000 11086 21086 38121 40235 5//// 91145 333 10126 21086 31110 59015 70000
AAXX 23121 76342 32940 00903 10070 20034 39536 40258 52019 91150 333 10236 20066 30060 58060 70000
AAXX 23121 76382 32960 20701 10076 20032 38906 40167 52001 80001 91154 333 10209 20070 30040 56005 58003 70000 82070
AAXX 23121 76390 31950 01801 10006 21003 38234 40221 54000 70544 91130 333 10192 21015 31025 58022 70000
AAXX 23121 76499 31856 60000 10125 20085 30178 40200 5//// 70311 86030 91140 333 10245 20124 30121 56090 58079 70000 86357
AAXX 23121 76525 32960 02007 10074 20029 37464 40137 54000 91150 333 10162 20068 30061 55080 22472 58028
AAXX 23121 76548 32860 13201 10152 20125 30199 40209 52006 81030 91140 333 10240 20148 30144 56050 58086 70000 81357
AAXX 23121 76556 32960 01602 10134 20114 39119 40142 58002 91130 333 10260 20133 30115 58009 70000
AAXX 23121 76577 32960 00000 10078 20069 38049 40172 51002 91140 333 10226 20073 30064 58013 70000
AAXX 23121 76644 32650 21401 10218 20215 30151 40164 57003 82030 91150 333 10325 20218 30212 56/// 58025 70000
AAXX 23121 76654 31956 00402 10212 20176 30135 40139 5//// 70544 91151 333 10288 20212 30190 58012 70000
AAXX 23121 76675 32960 02001 11001 21024 37379 40203 5//// 91145 333 10216 21013 31035 58010 70000
AAXX 23121 76680 31958 02301 10095 20062 37762 40104 52004 70400 91150 333 10245 20095 30081 58021 70000
AAXX 23121 76683 32962 00000 10064 20050 37840 40211 55004 91145 333 10237 20064 30040 50281 55087 21943 58022 70000
AAXX 23121 76685 32950 00000 10070 20044 37880 40164 52006 91150 333 10242 20068 30025 58026 70000
AAXX 23121 76743 31240 83301 10245 20230 30142 40150 53009 70211 885// 91145 333 10301 20240 30232 567// 58035 70000 88606
AAXX 23121 76775 31960 00701 10120 20077 38535 40167 52010 70200 91145 333 10316 20115 30/// 58021 70000
AAXX 23121 76840 32901 00305 10276 20215 30058 40113 5//// 80000 91145 333 10360 20188 30/// 56000 58007 70000 80000
AAXX 23121 76845 31/10 90000 10072 20068 37959 40231 5//// 74244 98/// 91145 333 10234 20058 30046 58019 70000 98///
AAXX 23121 76243 32970 03602 10048 20027 39976 40296 54000 91135 333 10220 20030 30024 58112 70000
AAXX 23121 76412 32960 00000 10100 20077 30132 40179 52003 91145 333 10278 20090 30/// 58000 70000
BBXX 42003 23121 99260 70856 46/// /1504 1//// 91150 22200 10701 20401 314// 40701 70007 333 91204 555 11037 22039 31053 41604 61149 153035 162033 154031 156032 163031 162033 81604 91148
BBXX 42040 23121 99292 70882 46/// /0209 10163 40203 53012 91150 22200 00227 10603 20603 70015 333 91210 555 11090 22094 31052 43611 61149 017089 018091 019089 023088 013089 011092
BBXX 41012 23121 99300 70805 46/// /2108 10215 40201 53007 91150 22200 00223 10702 20502 310// 40701 70010 333 91209 555 11080 22084 31053 42009 61149 205075 204072 204076 201077 199078 198079
BBXX 41060 23121 99148 70510 46/// ///// 1//// 91150 22200 11105 70027
BBXX 41001 23121 99347 70727 46/// ///// 10222 20186 40182 54000 91150 22200 00218 10806 70030
BBXX 41049 23121 99275 70630 46/// /0807 10223 20161 40271 53014 91150 22200 00234 11003 20602 300// 41002 70017 333 91208 555 11071 22074 31146 40908 61149 079067 072068 075067 069070 073069 074068 80708 91123
BBXX 42020 23121 99270 70967 46/// /0112 10176 20146 40213 54000 91150 22200 00232 10503 20503 70014 333 91214 555 11127 22134 31102 43514 61149 010119 006117 004118 005112 001113 003105
BBXX 41044 23121 99217 70587 46/// /0809 10246 20182 40212 53012 91150 22200 00261 11005 20704 300// 41003 70026 333 91211 555 11099 22104 31120 40714 61149 081091 077082 066105 067110 071082 074105 80712 91120
BBXX 41048 23121 99320 70696 46/// /1908 10220 20165 40249 54000 91150 22200 00221 10802 20601 3//// 40802 70012 333 91210 555 11083 22088 31130 41810 61149 193084 189086 190084 190081 193076 194074 81909 91148
BBXX 42065 23121 99149 70750 46/// /0709 10269 20223 91150 22200 11107 20805 3//// 41105 70033 333 91211 555 11097 22104 31055 40712 61149 072091 071094 073096 070099 070096 073102 80711 91053
BBXX 42012 23121 99301 70876 46/// /0109 10128 20121 40204 53015 91150 22200 00198 10702 20402 318// 40701 70010 333 91210 555 11090 22094 31112 43611 61149 004085 004085 000089 358092 002087 359082
BBXX 42001 23121 99259 70897 46/// /0000 10236 20222 40196 55000 91150 22200 00243 10803 20401 3//// 40803 70013 333 91201 555 11005 22005 31100 41602 61149 285005 259005 211005 171008 162015 169013
BBXX 42035 23121 99292 70944 46/// /0408 10126 20118 40236 52007 91150 22200 00156 10801 20301 314// 40801 70006 333 91209 555 11081 22085 31133 40409 61149 040077 037079 035075 024068 023070 022069
BBXX 42060 23121 99163 70635 46/// /0609 10265 20203 40171 53016 91150 22200 00275 10705 20705 300// 40902 70026 333 91211 555 11093 22098 31051 40712 61149 058087 061083 059087 060084 059086 060092 80610 91051
BBXX 42058 23121 99149 70749 46/// /0811 10269 20226 40122 53011 91150 22200 00275 10905 20703 309// 40904 70026 333 91213 555 11122 22130 31110 40814 61149 076112 082105 082110 081110 075107 074107 80812 91147
BBXX 42362 23121 99278 70907 46/// /0210 10194 20150 40203 91145
BBXX 42363 23121 99282 70892 46/// /0109 10200 20150 40207 91145 333 91209
BBXX 42364 23121 99291 70881 46/// /0109 10172 20144 40207 91145
BBXX 42036 23121 99285 70845 46/// /1805 10223 20216 40192 53010 91150 22200 00218 10602 20401 318// 40602 70010 333 91206 555 11052 22058 31051 41808 61149 182047 187053 187054 180061 178063 177066
BBXX 42056 23121 99198 70849 46/// /0706 10263 20235 40164 53008 91150 22200 00271 10903 20602 312// 40903 70017 333 91208 555 11067 22070 31136 40808 61149 073063 074063 074063 078063 074063 080061 80707 91148
BBXX 42019 23121 99279 70954 46/// /0109 10169 20139 40219 53008 91150 333 91212 555 11094 22100 31149 40212 61149 000088 283092 283080 283081 282087 285077
BBXX 42059 23121 99151 70675 46/// /0712 10277 20195 40151 53014 91150 22200 00279 10907 20706 3//// 40904 70037 333 91214 555 11126 22135 31123 40715 61149 069118 066120 069128 072126 073116 073125 80714 91124
BBXX 44005 23121 99432 70691 46/// /1001 10049 20034 40129 56013 91150 22200 00076 11002 20401 3//// 41002 70011 333 91202 555 11013 22014 31115 41404 61149 093013 086008 134015 152022 251005 191006
BBXX 44060 23121 99413 70721 46/// ///08 10075 40100 91145 22200 00103 333 91210 555 11088 22088
BBXX 44022 23121 99409 70737 46/// ///06 10080 20062 40112 91145 22200 00084 333 91207 555 11062 22067
BBXX 44027 23121 99443 70673 46/// /0607 10021 20009 40147 58012 91150 22200 00081 10903 20401 3//// 40903 70015 333 91208 555 11069 22072 31147 40508 61149 055065 049062 047059 046058 046056 043054
BBXX 41013 23121 99334 70777 46/// /2307 10219 20198 40174 53009 91150 22200 00202 10704 20704 316// 40803 70022 333 91209 555 11080 22089 31053 42112 61149 232073 229080 225087 223090 220095 210100
BBXX 44065 23121 99404 70737 46/// /3609 10089 20083 40098 53014 91150 22200 00099 10802 20402 317// 40801 70012 333 91212 555 11098 22104 31113 43612 61149 003092 004100 358099 358102 004098 014097 80111 91140
BBXX 46105 23121 99590 71522 46/// ///// 1//// 91150 22200 10909 70047
BBXX 46070 23121 99551 11753 46/// /0511 10008 21040 40170 53037 91150 22200 00037 10908 20806 3//// 40905 70038 333 91213 555 11114 22120 31058 40414 61149 048107 050108 052109 048113 048113 044118 80513 91058
BBXX 46078 23121 99561 71526 46/// /3307 10004 21053 49933 57007 91150 333 91208 555 11069 22074
BBXX 46006 23121 99408 71375 46/// /1808 10133 40276 54000 91150 22200 00122 11609 20502 3//// 41609 70046 333 91209 555 11082 22089 31124 41709 61149 179074 178074 178075 179074 180072 181071
BBXX 46002 23121 99426 71305 46/// ///// 10123 40309 51011 91150 22200 00119 11911 70057
BBXX 46084 23121 99566 71361 46/// /2707 10053 21012 40046 51101 91150 22200 00071 11312 20605 300// 41311 70058 333 91209 555 11072 22075 31057 42615 61149 269071 267077 272076 267093 268106 264111
BBXX 46078 23121 99561 71526 46/// /3307 10004 21053 49933 57007 91150 333 91208 555 11069 22074
BBXX 46075 23121 99539 71608 46/// /0512 10025 21029 49935 53008 91150 22200 00049 10604 20604 300// 41102 70022 333 91214 555 11129 22136 31149 40514 61149 050121 047115 051119 055119 055119 053118 80513 91143
BBXX 46005 23121 99461 71310 46/// ///06 10098 40273 51019 91150 22200 00099 11715 20502 3//// 41715 70074 333 91209 555 11061 22064
BBXX 46059 23121 99380 71300 46/// /1305 10120 40327 50000 91150 22200 00146 12103 20401 3//// 42103 70016 333 91206 555 11048 22050 31143 41306 61149 131044 121036 122028 121032 120024 108020
BBXX 46080 23121 99580 71500 46/// /2710 10005 21071 49910 53025 91150 22200 00058 11008 20606 3//// 41005 70039 333 91213 555 11105 22110 31140 42714 61149 266100 275106 274097 279094 279095 277098 82911 91052
BBXX 46014 23121 99394 71240 46/// /0804 10084 40338 53007 91150 22200 00106 11303 3//// 41303 70014 333 91205 555 11045 22046 31113 40706 61149 074044 070048 069046 066045 064042 059040
BBXX 46011 23121 99350 71210 46/// /3507 10117 40312 50004 91150 22200 00137 11303 20501 330// 41303 70016 333 91209 555 11078 22082 31143 43409 61149 346074 346070 344064 345057 341051 342048
BBXX 46047 23121 99324 71195 46/// /0103 10136 40292 51003 91150 22200 00134 11304 20301 330// 41304 70019 333 91204 555 11037 22040 31050 43605 61149 008034 004031 007035 009035 015034 015036
BBXX 46086 23121 99325 71180 46/// /0802 10137 40280 50000 91150 22200 00149 11303 20401 327// 41303 70014 333 91203 555 11023 22023 31050 40803 61149 077022 084017 047015 010015 350013 307012
BBXX 46027 23121 99419 71244 46/// /1304 10085 40333 51005 91150 22200 00089 11202 20301 329// 41202 70011 333 91205 555 11038 22039 31054 41107 61149 133038 125045 117051 116050 112051 109058
BBXX 46088 23121 99483 71232 46/// /0904 10052 40292 91150 22200 00077 1//00 70002 333 91205 555 11045 22046 31136 40906 61149 089043 083045 088040 083039 093031 096028
BBXX 46050 23121 99442 71246 46/// /1705 10096 40317 50007 91150 22200 00097 11403 20401 329// 41403 70017 333 91206 555 11054 22057 31147 41606 61149 172050 180050 183048 187051 190051 193049
BBXX 46069 23121 99337 71202 46/// /3406 10130 40301 52004 91150 22200 00141 11203 20401 330// 41203 70015 333 91207 555 11060 22063 31105 43408 61149 335057 336061 335063 333062 335066 337059
BBXX 46013 23121 99382 71233 46/// /1102 10099 40330 51008 91150 22200 00115 11103 3//// 41103 70014 333 91203 555 11015 22016 31058 40903 61149 105015 102016 082015 068017 080018 095020
BBXX 46012 23121 99374 71229 46/// /3602 10113 40330 53010 91150 22200 00118 11203 20301 327// 41203 70014 333 91203 555 11018 22018 31050 40104 61149 003017 004020 019022 013021 013025 011031
BBXX 46087 23121 99485 71247 46/// /1009 10068 20063 40279 51018 91150 22200 00075 333 91212 555 11097 22103 31118 41013 61149 104091 104085 104085 101082 103055 105059
BBXX 46029 23121 99461 71245 46/// /2106 10094 20093 40301 51014 91150 22200 00086 11204 20502 329// 41203 70019 333 91207 555 11063 22070 31056 42008 61149 209057 209059 206057 208059 205064 207064
BBXX 46028 23121 99357 71219 46/// /3504 10124 40315 51006 91150 22200 00126 11103 20401 331// 41103 70015 333 91204 555 11037 22038 31053 43505 61149 348035 354033 359028 354027 347033 346036
BBXX 46054 23121 99342 71204 46/// /3305 10122 40301 52006 91150 22200 00134 11303 20401 300// 41303 70016 333 91206 555 11051 22053 31104 43106 61149 325048 326047 319049 314049 311048 304047
BBXX 46025 23121 99337 71191 46/// /3611 10155 21003 40278 54000 91150 22200 00149 11302 20402 331// 41301 70011 333 91213 555 11117 22126 31124 43514 61149 000110 358111 356114 354102 357095 354091
AAXX 23121 76220 32920 00000 11086 21086 38121 40235 5//// 91145 33310126 21086 31110 59015 70000
AAXX 23121 76342 32940 00903 10070 20034 39536 40258 52019 91150 33310236 20066 30060 58060 70000
AAXX 23121 76382 32960 20701 10076 20032 38906 40167 52001 80001 91154333 10209 20070 30040 56005 58003 70000 82070
AAXX 23121 76390 31950 01801 10006 21003 38234 40221 54000 70544 91130333 10192 21015 31025 58022 70000
AAXX 23121 76499 31856 60000 10125 20085 30178 40200 5//// 70311 8603091140 333 10245 20124 30121 56090 58079 70000 86357
AAXX 23121 76525 32960 02007 10074 20029 37464 40137 54000 91150 33310162 20068 30061 55080 22472 58028
AAXX 23121 76548 32860 13201 10152 20125 30199 40209 52006 81030 91140333 10240 20148 30144 56050 58086 70000 81357
AAXX 23121 76556 32960 01602 10134 20114 39119 40142 58002 91130 33310260 20133 30115 58009 70000
AAXX 23121 76577 32960 00000 10078 20069 38049 40172 51002 91140 33310226 20073 30064 58013 70000
AAXX 23121 76644 32650 21401 10218 20215 30151 40164 57003 82030 91150333 10325 20218 30212 56/// 58025 70000
AAXX 23121 76654 31956 00402 10212 20176 30135 40139 5//// 70544 91151333 10288 20212 30190 58012 70000
AAXX 23121 76675 32960 02001 11001 21024 37379 40203 5//// 91145 33310216 21013 31035 58010 70000
AAXX 23121 76680 31958 02301 10095 20062 37762 40104 52004 70400 91150333 10245 20095 30081 58021 70000
AAXX 23121 76683 32962 00000 10064 20050 37840 40211 55004 91145 33310237 20064 30040 50281 55087 21943 58022 70000
AAXX 23121 76685 32950 00000 10070 20044 37880 40164 52006 91150 33310242 20068 30025 58026 70000
AAXX 23121 76743 31240 83301 10245 20230 30142 40150 53009 70211 885//91145 333 10301 20240 30232 567// 58035 70000 88606
AAXX 23121 76775 31960 00701 10120 20077 38535 40167 52010 70200 91145333 10316 20115 30/// 58021 70000
AAXX 23121 76840 32901 00305 10276 20215 30058 40113 5//// 80000 91145333 10360 20188 30/// 56000 58007 70000 80000
AAXX 23121 76845 31/10 90000 10072 20068 37959 40231 5//// 74244 98///91145 333 10234 20058 30046 58019 70000 98///
AAXX 23121 76243 32970 03602 10048 20027 39976 40296 54000 91135 33310220 20030 30024 58112 70000
AAXX 23121 76412 32960 00000 10100 20077 30132 40179 52003 91145 33310278 20090 30/// 58000 70000
AAXX 23124 68382 36/// /1509 10220 20156 39361 48545 58001 333 10258 20204 91017 555 91017
AAXX 23124 68352 36/// /1111 10240 20030 39067 48523 57003 333 10289 20201 91015 555 91016
AAXX 23124 81405 04584 /0613 10280 20227 30118 40127 60294 700// 333 20256 60007 58008 555 60005
BBXX BAREU51 23124 99400 10121 46/// ///// 40204 57020 22235
BBXX BAREU54 23124 99171 70717 46/// ///// 40137 52016 22223
BBXX BAREU11 23124 99400 70401 46/// ///// 40309 52013 22214
BBXX BAREU00 23124 99513 10041 46/// ///// 40186 22200
BBXX BAREU06 23124 99429 70376 46/// ///// 40297 52021 22224
BBXX BAREU04 23124 99446 70626 46/// ///// 40166 57024 22263
BBXX VRYO3 23124 99510 70368 41395 81118 10086 20097 40078 57084 7//62 869// 22264 00090 20405
BBXX VEP717 23124 99467 70487 41297 83022 10010 2001/ 40146 52042 71022 886// 22200 06025 20402 318// 40807 80010
AAXX 23124 97180 01450 71004 10237 20237 30059 40077 51016 61101 76166 85272 333 10306 56000 58006 60307 85618 84460
AAXX 23124 85574 12960 59901 10184 20042 39569 40112 53023 60004 80001 333 20143 30/// 55128 56006 70000 85075
AAXX 23124 85577 12960 30000 10187 20044 39514 40114 52018 60004 80001 333 20132 30011 50680 55120 56007 70000 83075
AAXX 23124 85585 12598 71916 10155 20071 30179 40215 53005 60004 87500 333 20151 30/// 55004 56400 70000 87627
AAXX 23124 85586 12960 21807 10170 20038 40129 52012 60004 80001 333 20072 30/// 50310 55125 56006 82075
AAXX 23124 85629 12980 01908 10104 20062 40145 53/// 60004 333 20082 30/// 50790 55136 70000
AAXX 23124 85672 12980 02112 10102 20065 40158 52010 60004 333 20076 30/// 55099 70000
AAXX 23124 85682 12965 02313 10123 20019 40166 53002 60004 333 20082 30/// 51300 55138 70000
AAXX 23124 85703 12960 01816 10100 20075 40162 5//// 60004 333 20032 30/// 7////
AAXX 23124 85743 12960 02009 10103 20036 40209 58003 60004 333 20012 30/// 50400 55100 70000
AAXX 23124 85766 12470 11706 10106 20064 40241 53006 60004 81100 333 20038 30/// 56117 56400 70000 81825
AAXX 23124 85799 12560 31607 10106 20076 40263 52008 60024 83500 333 20024 32/// 50250 55106 56400 70024 83630
AAXX 23124 96315 33460 73502 10277 20253 40069 81848 333 10316 81815 85080
AAXX 23124 96323 NIL
AAXX 23124 85406 12970 70000 10214 20149 40110 53022 60004 87030 333 20202 30/// 55044 56000 70000 87362
AAXX 23124 85418 12565 72109 10204 20147 40109 55015 60004 87530 333 20188 30/// 55085 56000 70000 82630 85364
AAXX 23124 85432 12970 21014 10166 20015 37744 48421 53004 60004 82030 333 20078 30/// 51490 55109 56000 70000 82363
AAXX 23124 85442 12470 71906 10184 20147 40111 52017 60004 82506 333 20170 30/// 50600 55084 56407 82613 86280
AAXX 23124 85469 41462 80803 10199 20180 40181 57005 70282 888// 333 56299 83817 85640
AAXX 23124 85488 12460 61902 10155 20117 40129 50014 60004 86500 333 20118 30006 50960 55122 56600 70000 86614
AAXX 23124 67665 42780 50803 10308 20155 48509 85200 333 58009 85850
AAXX 23124 85406 12970 70000 10214 20149 40110 53022 60004 87030 333 20202 30/// 55044 56000 70000 87362
AAXX 23124 85418 12565 72109 10204 20147 40109 55015 60004 87530 333 20188 30/// 55085 56000 70000 82630 85364
AAXX 23124 85432 12970 21014 10166 20015 37744 48421 53004 60004 82030 333 20078 30/// 51490 55109 56000 70000 82363
AAXX 23124 85442 12470 71906 10184 20147 40111 52017 60004 82506 333 20170 30/// 50600 55084 56407 82613 86280
AAXX 23124 85469 41462 80803 10199 20180 40181 57005 70282 888// 333 56299 83817 85640
AAXX 23124 85488 12460 61902 10155 20117 40129 50014 60004 86500 333 20118 30006 50960 55122 56600 70000 86614
AAXX 23124 91772 31498 50000 10265 20241 4//// 60001 70222 858// 333 10325 569// 83817 85640
AAXX 23124 91776 31498 20000 1//// 2//// 4//// 60001 70110 82200 333 1//// 569// 82817
AAXX 23124 91779 11398 53405 10268 20242 40075 58012 69901 78022 85701 333 10298 567/9 81709 85817
AAXX 23124 91784 11498 70000 10259 20236 40075 58004 69921 70228 8223/ 333 10296 5699/ 82817 87362
AAXX 23124 91792 11398 70204 10235 20228 40080 58013 60071 70222 8423/ 333 10298 5619/ 84816 86362
BBXX 46002 23121 99426 71305 46/// ///// 10123 40309 51011 91150 22200 00119 11911 70057
BBXX 46005 23121 99461 71310 46/// ///06 10098 40273 51019 91150 22200 00099 11715 20502 3//// 41715 70074 333 91209 555 11061 22064
BBXX 46006 23121 99408 71375 46/// /1808 10133 40276 54000 91150 22200 00122 11609 20502 3//// 41609 70046 333 91209 555 11082 22089 31124 41709 61149 179074 178074 178075 179074 180072 181071
BBXX 46013 23121 99382 71233 46/// /1102 10099 40330 51008 91150 22200 00115 11103 3//// 41103 70014 333 91203 555 11015 22016 31058 40903 61149 105015 102016 082015 068017 080018 095020
BBXX 46014 23121 99394 71240 46/// /0804 10084 40338 53007 91150 22200 00106 11303 3//// 41303 70014 333 91205 555 11045 22046 31113 40706 61149 074044 070048 069046 066045 064042 059040
BBXX 46028 23121 99357 71219 46/// /3504 10124 40315 51006 91150 22200 00126 11103 20401 331// 41103 70015 333 91204 555 11037 22038 31053 43505 61149 348035 354033 359028 354027 347033 346036
BBXX 46029 23121 99461 71245 46/// /2106 10094 20093 40301 51014 91150 22200 00086 11204 20502 329// 41203 70019 333 91207 555 11063 22070 31056 42008 61149 209057 209059 206057 208059 205064 207064
BBXX 46050 23121 99442 71246 46/// /1705 10096 40317 50007 91150 22200 00097 11403 20401 329// 41403 70017 333 91206 555 11054 22057 31147 41606 61149 172050 180050 183048 187051 190051 193049
BBXX VRCI9 23124 99370 71491 41/98 83318 10160 20144 40155 51020 75152 8//// 22225 00169 2//// 3//// 4//// 80150
BBXX WACW 23124 99502 71350 41298 82225 10070 20020 40220 52050 7//22 8869/ 22233 00080 20204 321// 40809 5//// 6//// 80048 ICE /////
BBXX WDE5381 23124 99335 71208 41998 03520 10106 20060 40295 54000 7//00 80000 22234 0//// 2//// 333 // 40602 5//// 6//// 80083 ICE /////
AAXX 23124 91503 31475 10000 10253 20239 40043 52012 70500 81200 333 10326 56000 59022 81817
AAXX 23124 91517 31475 21806 10250 20235 40053 52010 70500 81201 333 10325 55/// 56209 59022 82816
AAXX 23124 78855 11480 70820 10250 20213 30172 40176 60022 70282 87800 333 10282 20/// 58001 70019 86816 83650
AAXX 23124 78858 11477 70616 10245 20223 30124 40180 69922 7168/ 86800 333 10277 20230 58001 86815 85650
AAXX 23124 89009 41424 82916 11193 36904 53006 71072 886// 333 11193 21237 88710
AAXX 23124 85832 12580 22302 10051 20023 40283 52012 60054 82200 333 20002 31/// 56000 70053 82820
AAXX 23124 85836 12570 22704 10060 20026 40335 51011 60004 82600 333 20009 30/// 56600 70000 82730
AAXX 23124 85864 11680 10504 10090 20047 40246 51007 69904 81100 333 20072 30/// 55110 56500 79999 81833
AAXX 23124 85874 12680 23115 10078 20012 39607 40239 50001 60004 333 21021 30/// 56606 70000 81840
AAXX 23124 85886 12970 33012 10124 20097 40225 51006 60004 80001 333 20026 30/// 56006 70000 83070
AAXX 23124 85892 12670 32708 10096 21003 40231 52013 60004 81101 333 20054 30/// 56606 70000 81840 83070
AAXX 23124 85968 11660 52423 10088 21006 40071 52/// 60014 70282 84201 333 20071 31/// 55/// 56505 70012 84841 84066
AAXX 23124 89056 12480 61312 10007 21045 49910 52030 69952 81501 333 10009 21008 41998 55005 56305 81612 85068
AAXX 23124 89057 12470 50000 10013 21050 49922 52040 69912 83101 333 10007 21003 42060 56606 83815 85070
AAXX 23124 89058 11580 21120 10007 21043 39878 49899 52025 69901 70070 81501
AAXX 23124 89059 12660 62106 11004 21086 49897 52033 60002 865// 333 11004 21009 42030 55006 56099 86633
AAXX 23124 89251 12668 40918 10007 21043 49890 52020 69922 82502 333 21004
AAXX 23124 91503 31475 10000 10253 20239 40043 52012 70500 81200 333 10326 56000 59022 81817
AAXX 23124 91517 31475 21806 10250 20235 40053 52010 70500 81201 333 10325 55/// 56209 59022 82816
AAXX 23124 78925 11570 60507 10245 20222 40159 53017 60021 72586 86800 333 10294 20227 58003 70044 84831 84650
AAXX 23124 78925 11570 60507 10245 20222 40159 53017 60021 72586 86800 333 10294 20227 58003 70044 84831 84650
AAXX 23124 89009 41424 82916 11193 36904 53006 71072 886// 333 11193 21237 88710
BBXX 44020 23121 99414 70702 46/// /0107 10072 20072 40096 55026 91150 22200 00079 10401 20401 70004 333 91209 555 11079 22084 31050 40710 61149 355074 249075 249075 252070 254073 259079
BBXX 44040 23121 99410 70736 46/// /0306 10082 20082 40121 91145 22200 10301 70004 333 91207 555 11072 22088
AAXX 23124 78925 11570 60507 10245 20222 40159 53017 60021 72586 86800 333 10294 20227 58003 70044 84831 84650
AAXX 23124 86011 32970 23613 10296 20214 39915 40072 52013 80005 333 20246 82270
AAXX 23124 86033 31858 13611 10298 20230 39994 40087 52015 70511 81030 333 20265 5//// 81357
AAXX 23124 86065 32970 10512 10288 20216 39811 40043 52010 80001 333 20247 5//// 81070
AAXX 23124 86068 32970 23616 10300 20212 39858 40046 51003 80001 333 20256 51804 82070
AAXX 23124 86086 32570 23605 10310 20167 39969 40053 54000 82100 333 20254 5//// 82833
AAXX 23124 86097 32970 03612 10276 20204 39458 40088 52009 333 20223 50784
AAXX 23124 86128 32970 00205 10312 20209 39940 40050 52011 333 20270 5////
AAXX 23124 86134 32970 00510 10314 20220 39982 40066 53016 333 20262 51324
AAXX 23124 86170 32970 03610 10316 20219 39941 40040 52013 333 20252 51864
AAXX 23124 86185 32970 03608 10308 20223 39979 40070 52015 333 20242 5////
AAXX 23124 86192 32970 03204 10294 20137 39890 40106 51006 333 20245 5////
AAXX 23124 86210 32970 00906 10284 20204 39743 40077 52018 333 20222 51064
AAXX 23124 86218 32670 53611 10314 20218 39973 40066 52021 81505 333 20272 51474 81640 85070
AAXX 23124 86221 32970 00000 10300 20195 39959 40090 52005 333 20270 51404
AAXX 23124 86233 32970 13605 10304 20200 39893 40076 51014 80001 333 20252 5//// 81070
AAXX 23124 86234 32970 33608 10304 20208 39845 40023 51013 80004 333 20240 50094 83070
AAXX 23124 86246 32970 10310 10296 20243 39811 40089 52018 80001 333 20232 5//// 81070
AAXX 23124 86251 32970 73604 10290 20202 39881 40044 53038 80004 333 20245 5////
AAXX 23124 86255 32870 23608 10316 20220 39977 40042 51008 82080 333 20244 50174 82360
AAXX 23124 86260 32670 30906 10284 20184 39902 40051 52011 83400 333 20214 51104 83640
AAXX 23124 86268 32970 30602 10294 20197 39907 40068 52003 80001 333 20240 5//// 83270
AAXX 23124 86285 32870 70908 10238 20177 39802 40080 53012 87070 333 20220 50624
AAXX 23124 86297 32870 80513 10262 20178 39911 40013 53002 85077 333 20246 51604 85458 88270
BBXX 41047 23121 99275 70715 46/// /1506 10242 40249 52010 91150 22200 00248 10804 20402 313// 40803 70019 333 91207 555 11061 22064 31055 41409 61149 152061 152060 148058 152065 150068 142073 81408 91059
BBXX 42055 23121 99222 70940 46/// /0503 10249 20218 40167 53009 91150 22200 00253 10603 20401 329// 40602 70013 333 91204 555 11036 22037 31120 40404 61149 043034 040035 039034 041037 037033 037033 80404 91128
BBXX 42002 23121 99258 70937 46/// /0310 10219 20193 40196 52009 91150 22200 00239 10603 20603 70016 333 91211 555 11098 22104 31124 40212 61149 032099 030100 024101 024092 026095 025097
BBXX 41043 23121 99211 70650 46/// /0910 10252 20199 40208 53014 91150 22200 00260 10806 20705 300// 40804 70030 333 91212 555 11108 22114 31113 40814 61149 085100 081099 081103 081104 080101 078111 80812 91055
BBXX 41036 23121 99342 70770 46/// ///// 10201 20177 40173 53020 91150 22200 00198 10704 70021
BBXX 44066 23121 99396 70726 46/// /2314 10161 20147 40063 55005 91150 22200 00132 10806 20806 70028 333 91218 555 11154 22168 31117 42218 61149 228140 225138 223141 222142 220135 219130
AAXX 23124 81225 11260 51004 10255 20241 40125 60084 70511 84832 333 56199 59001 81705 83810
AAXX 23124 81200 11470 40000 10274 20224 40121 60224 70261 83132 333 56299 59001 83815
AAXX 23124 81202 12460 51304 10256 20239 40124 60064 705// 83842 333 20235 56229 58000 83815 83080
AAXX 23124 81209 NIL
AAXX 23124 81251 NIL
AAXX 23124 85574 12960 59901 10184 20042 39569 40112 53023 60004 80001 333 20143 30/// 55128 56006 70000 85075
AAXX 23124 85577 12960 30000 10187 20044 39514 40114 52018 60004 80001 333 20132 30011 50680 55120 56007 70000 83075
AAXX 23124 85585 12598 71916 10155 20071 30179 40215 53005 60004 87500 333 20151 30/// 55004 56400 70000 87627
AAXX 23124 85586 12960 21807 10170 20038 40129 52012 60004 80001 333 20072 30/// 50310 55125 56006 82075
AAXX 23124 85629 12980 01908 10104 20062 40145 53/// 60004 333 20082 30/// 50790 55136 70000
AAXX 23124 85672 12980 02112 10102 20065 40158 52010 60004 333 20076 30/// 55099 70000
AAXX 23124 85682 12965 02313 10123 20019 40166 53002 60004 333 20082 30/// 51300 55138 70000
AAXX 23124 85703 12960 01816 10100 20075 40162 5//// 60004 333 20032 30/// 7////
AAXX 23124 85743 12960 02009 10103 20036 40209 58003 60004 333 20012 30/// 50400 55100 70000
AAXX 23124 85766 12470 11706 10106 20064 40241 53006 60004 81100 333 20038 30/// 56117 56400 70000 81825
AAXX 23124 85799 12560 31607 10106 20076 40263 52008 60024 83500 333 20024 32/// 50250 55106 56400 70024 83630
AAXX 23124 78862 11476 70618 10232 20213 30151 40174 60051 78082 87800 333 10274 20219 59004 70051 84811 86634
AAXX 23124 TUPJ 231000Z 2312/2412 060616KT 9999 SCT019 PROB40 TEMPO 2312/2412 06016G28KT SHRA BKN015
AAXX 23124 TAF TQPF 231000Z 2312/2412 060616KT 9999 SCT019 PROB40 TEMPO 2312/2412 06016G28KT SHRA BKN015
AAXX 23124 TAF TAPA 231000Z 2312/2412 060616KT 9999 SCT019 PROB40 TEMPO 2312/2412 06016G28KT SHRA BKN015
AAXX 23124 EMPO 0600/0624 SHRA BKN015=+TSRA SCT012CB
AAXX 23124 TAF TUPJ 041000Z 04012/0512 07008KT 9999 SCT016 BKN038 SCT270 TEMPO 0412/0512 SHRA BKN015 PROB40 TEMPO 0418/0512 5000 SHRA BKN014 BKN036 PROB30 0420/0512 4000 TSRA FEW012CB
AAXX 23124 918 4000 TSRA FEW012CB
AAXX 23124 N015 BKN036 PROB40 TEMPO 0704/0724 3000 +TSRA SCT011CB BKN012 BECMG 0712/0714 14008KT
AAXX 23124 21/2712 07017G28KT 5000 SHRA BKN015 BKN036 PROB TEMPO 2700/2712 4000 TSRA FEW013CB
AAXX 23124 PROB30 TEMPO 0800/0806 4000 TSRA FEW012CB PROB40 TEMPO 0800/0824 2000 +SHRA/TSRA SCT010CB BKN012 BKN250
AAXX 23121 12772 31206 80301 11024 21032 39961 40259 57012 74241 886// 333 88704
AAXX 23121 12822 36/// /2103 10014 20011 30105 40253 57012
AAXX 23121 12843 31/08 92102 11025 21029 30086 40265 57008 74344 333 89/03
AAXX 23121 12882 31456 22502 10018 21011 30117 40254 57013 70311 82100 333 82813
AAXX 23121 12925 36/// /2302 10027 21007 30089 40266 58010
AAXX 23121 12942 31450 82501 11007 21018 30017 40273 58007 71042 886// 333 88710
AAXX 23121 12982 31456 82403 11016 21032 30163 40269 56008 70122 886// 333 88710
BBXX BATFR54 23124 99460 70019 46/// /2222 10125 20092 40260 58008 22232 00139
BBXX BATFR03 23124 99498 70005 46/// /2341 10105 20082 40189 50001 22244
BBXX BATFR12 23124 99480 70053 46/// /2127 10124 20117 40197 58019 22231 00147
BBXX BATFR53 23124 99188 51678 46/// /0514 10277 20214 40092 57010 22222 00284
BBXX FVNM 23124 99089 70795 46/// /3306 10255 20237 40092 53019 22200 00270
BBXX BATFR56 23124 99139 30668 46/// /1226 10262 20259 40079 56015 22213 00289
BBXX BATFR02 23124 99506 70009 44497 72030 10102 20085 40174 58060 702// 865// 22275 00107 20204 325// 40306 5////
BBXX BATFR27 23124 99499 70026 46/// /2127 10115 20084 40174 58036 22224 00124
BBXX BATFR01 23124 99367 10192 46/// /3530 10140 20075 40100 53006 22261 00180
BBXX BATFR04 23124 99577 70067 44596 62825 10062 20012 40072 53035 702// 864// 22253 00104 20304 323// 40304 5////
BBXX BATEU07 23124 99115 31066 46/// /2514 10279 40056 53013 22284
BBXX BATEU05 23124 99584 70168 46/// /2724 10060 21023 40095 53008 22223
BBXX BATFR14 23124 99420 70224 44297 21110 10137 20062 40394 51019 70200 82100 22214 00160 20502 327// 40704 5////
BBXX BATFR52 23124 99492 70028 46/// /1717 10114 20092 40199 22273 00124
BBXX BATEU04 23124 99630 70117 46/// /2933 10047 21036 4//// 22262
BBXX BATFR19 23124 99066 30057 46/// /1717 10239 20187 40131 58018 22200 00254
BBXX BATFR08 23124 99335 30721 46/// /1707 10177 20087 40275 56011 22273 00189
BBXX BATEU08 23124 99668 70542 46/// /0913 11065 21093 49878 52008 22283
BBXX BATFR45 23124 99230 10610 46/// ///// 10219 20062 40166 55009 22274 00255
AAXX 23121 10004 NIL
AAXX 23121 10015 11657 82210 10081 20070 30133 40143 58016 60001 71022 875// 333 31/// 55300 20110 30110 87639 91114 91211
AAXX 23121 10020 07657 82209 10074 20074 30088 40120 58016 69901 72250 333 55300 20076 30076 69907 88/36 91114
AAXX 23121 10035 01235 82206 10080 20077 30082 40141 58015 69911 75152 877// 333 32/// 55300 20080 30077 41262 69917 87704 91114
AAXX 23121 10055 01450 82305 10066 20066 30131 40141 58013 69901 71054 876// 333 31/// 55300 20111 30111 69907 87710
AAXX 23121 10147 01357 82405 10093 20083 30143 40161 58014 69901 75052 876// 333 31/// 55300 20137 30136 41275 69907 87707
AAXX 23121 10162 11330 82305 10086 20079 30079 40162 58013 60001 71042 886// 333 31/// 55300 20067 30067 88708
AAXX 23121 10184 01244 82304 10087 20080 30147 40155 58012 69981 71065 876// 333 31/// 55300 20096 30096 69957 87706
AAXX 23121 10200 03337 72205 10089 20083 30161 40159 58016 69901 8//// 333 55300 20078 30078 69907 87/08
AAXX 23121 10224 01456 82305 10094 20082 30166 40172 58014 69901 72052 885// 333 32/// 55300 20102 30102 69907 85710 87640
AAXX 23121 10270 06118 82503 10086 20086 30126 40181 58010 69961 222// 06044 333 55300 69907 88/02
AAXX 23121 10338 01456 82502 10095 20079 30111 40183 58014 69901 75152 876// 333 31/// 55300 20111 30111 69907 87712
AAXX 23121 10361 11458 82504 10097 20080 30089 40193 58009 69911 70265 885// 333 31/// 55300 20144 30144 84710 88636
AAXX 23121 10393 01225 82504 10079 20078 30055 40182 58015 69961 72054 876// 333 31/// 55300 20165 30160 69947 87705
AAXX 23121 10400 01270 82106 10094 20082 30153 40203 58019 69911 72065 875// 333 32/// 55300 20086 30086 69907 81705 83710 87635
AAXX 23121 10438 07356 81703 10079 20072 39928 40210 58014 69901 75150 333 55300 69907 87/09 87/13 88/35
AAXX 23121 10469 01465 82305 10084 20076 30035 40200 58011 69901 70352 872// 333 31/// 55300 69907 87810
AAXX 23121 10488 01256 82504 10076 20068 39921 40204 58011 69931 75152 877// 333 32/// 55300 20105 30101 41266 69907 87705
AAXX 23121 10506 01156 72404 10072 20059 39635 40220 58019 69911 72162 872// 333 31/// 55301 20473 30448 69907 87803 95910
AAXX 23121 10548 11256 72101 10051 20050 39676 40224 58015 69911 72854 875// 333 31/// 4/998 55300 20338 30338 83706 87620
AAXX 23121 10637 01461 72004 10087 20078 30090 40228 58019 69911 72052 878// 333 31/// 55300 69917 82810 87632 94909 96250 96453
AAXX 23121 10685 01106 82604 10051 20049 39539 40219 58012 69921 74652 885// 333 31/// 4/998 55300 20206 30206 69917 86702 87630 96450
AAXX 23121 10738 01575 82402 10074 20054 39776 40249 58017 69901 70252 875// 333 31/// 55300 69907 87630
AAXX 23121 10763 01368 82202 10078 20065 39851 40236 58011 69931 70252 878// 333 31/// 55300 20178 30178 69927 81807 87611
AAXX 23121 10788 07137 20802 10036 20036 39809 40251 58012 60011 75165 333 55300 20138 30138 69957 81/02
AAXX 23121 10852 01265 82203 10067 20062 39679 40253 58015 69901 70265 885// 333 31/// 55300 20132 30132 69907 85706 88619
AAXX 23121 10946 17361 81101 10052 20044 39416 40257 58019 69901 70065 333 4/001 55300 20334 30334 88/07
AAXX 23124 78862 11476 70618 10232 20213 30151 40174 60051 78082 87800 333 10274 20219 59004 70051 84811 86634
AAXX 23124 TUPJ 231000Z 2312/2412 060616KT 9999 SCT019 PROB40 TEMPO 2312/2412 06016G28KT SHRA BKN015
AAXX 23124 TAF TQPF 231000Z 2312/2412 060616KT 9999 SCT019 PROB40 TEMPO 2312/2412 06016G28KT SHRA BKN015
AAXX 23124 TAF TAPA 231000Z 2312/2412 060616KT 9999 SCT019 PROB40 TEMPO 2312/2412 06016G28KT SHRA BKN015
AAXX 23124 EMPO 0600/0624 SHRA BKN015=+TSRA SCT012CB
AAXX 23124 TAF TUPJ 041000Z 04012/0512 07008KT 9999 SCT016 BKN038 SCT270 TEMPO 0412/0512 SHRA BKN015 PROB40 TEMPO 0418/0512 5000 SHRA BKN014 BKN036 PROB30 0420/0512 4000 TSRA FEW012CB
AAXX 23124 918 4000 TSRA FEW012CB
AAXX 23124 N015 BKN036 PROB40 TEMPO 0704/0724 3000 +TSRA SCT011CB BKN012 BECMG 0712/0714 14008KT
AAXX 23124 21/2712 07017G28KT 5000 SHRA BKN015 BKN036 PROB TEMPO 2700/2712 4000 TSRA FEW013CB
AAXX 23124 PROB30 TEMPO 0800/0806 4000 TSRA FEW012CB PROB40 TEMPO 0800/0824 2000 +SHRA/TSRA SCT010CB BKN012 BKN250
AAXX 23121 01001 11465 83513 10004 21013 39665 49676 53023 69921 72162 8572/ 222// 00002 333 91121
AAXX 23121 01008 41682 71014 10015 21047 39743 49776 58030 73673 8357/ 333 91121
AAXX 23121 01010 41485 71909 10054 20022 39739 49754 58019 71562 878// 333 91119
AAXX 23121 01026 41586 81910 10040 21021 39637 49774 56014 70222 8657/ 333 4/019 91119
AAXX 23121 01055 46/// /1807 10029 21001 39768 49785 58025 333 91123
AAXX 23121 01062 11580 80808 11009 21017 39813 49826 56041 69901 70282 883// 333 91111
AAXX 23121 01098 16/// /1921 10016 21011 39872 49890 56049 6//// 333 91127
AAXX 23121 01115 41470 72117 10079 20038 39754 49775 58027 72162 87500 333 91129
AAXX 23121 01152 NIL
AAXX 23121 01205 NIL
AAXX 23121 01212 16/// /2223 10070 20036 39889 49905 58005 6//// 333 91142
AAXX 23121 01271 16/// /1901 10050 20015 39890 49910 58017 6//// 333 91110
AAXX 23121 01288 41680 22102 11017 21026 39202 49948 57004 70110 81130 333 91105
AAXX 23121 01300 NIL
AAXX 23121 01317 41577 7//// 10071 20023 39990 40005 50000 78062 8696/ 333 91109
AAXX 23121 01367 11560 80000 11039 21053 39548 49997 58002 60002 70222 86722 333 91106
AAXX 23121 01384 41116 82106 10033 20033 39744 49991 55013 71042 886// 333 91109
AAXX 23121 01403 11560 62710 10070 20031 39960 40028 51009 69941 70186 84930 333 91121
AAXX 23121 01415 16/// /2806 10085 20051 30027 40038 50007 6//// 333 91112
AAXX 23121 01482 46/// /2311 10070 20059 30004 40011 57010 333 91118
AAXX 23121 01492 NIL
AAXX 23121 01003 NIL
AAXX 23121 01007 11689 81113 10005 21049 39772 49782 57035 60001 70322 87057 333 91118
AAXX 23121 01028 11560 81217 10018 20000 39690 49709 58053 60031 76366 885// 333 91122
AAXX 23121 01047 41630 82210 11018 21035 39492 49861 58032 77173 8802/
AAXX 23121 01049 16/// /2008 10007 21049 39837 49841 56033 60001 333 91114
AAXX 23121 01078 41380 8//// 10019 21019 39807 49820 56045 70322 86717 333 91121
AAXX 23121 01102 46/// /2123 10079 20036 39812 49830 58019 333 91131
AAXX 23121 01160 NIL
AAXX 23121 01218 11787 61605 10098 21038 39910 49931 58005 60021 70182 83280 333 91121
AAXX 23121 01238 46/// /2006 10005 21039 38819 49946 58000 333 91117
AAXX 23121 01241 11582 22311 10070 20011 39875 49886 58012 69991 70162 81962 333 91123
AAXX 23121 01281 NIL
AAXX 23121 01338 16/// /1502 10046 20026 39913 49979 58009 60071 333 91108
AAXX 23121 01359 11589 62305 10021 21024 39077 49978 58004 69931 70162 84279 333 91117
AAXX 23121 01397 16/// /1203 10000 21001 39544 49980 58015 69921 333 91105
AAXX 23121 01400 NIL
AAXX 23121 01427 11460 83304 10071 20056 30026 40042 53002 60031 76165 8762/ 333 91118
AAXX 23121 01447 NIL
AAXX 23121 01448 46/// /2609 10078 20072 30021 40030 57014 333 91112
AAXX 23124 78897 14885 /0706 10261 20204 40172 53016 60001 700// 333 10277 20202 58004 70028
AAXX 23124 78897 14885 /0706 10261 20204 40172 53016 60001 700// 333 10277 20202 58004 70028
AAXX 23124 85832 12580 22302 10051 20023 40283 52012 60054 82200 333 20002 31/// 56000 70053 82820
AAXX 23124 85836 12570 22704 10060 20026 40335 51011 60004 82600 333 20009 30/// 56600 70000 82730
AAXX 23124 85864 11680 10504 10090 20047 40246 51007 69904 81100 333 20072 30/// 55110 56500 79999 81833
AAXX 23124 85874 12680 23115 10078 20012 39607 40239 50001 60004 333 21021 30/// 56606 70000 81840
AAXX 23124 85886 12970 33012 10124 20097 40225 51006 60004 80001 333 20026 30/// 56006 70000 83070
AAXX 23124 85892 12670 32708 10096 21003 40231 52013 60004 81101 333 20054 30/// 56606 70000 81840 83070
AAXX 23124 85968 11660 52423 10088 21006 40071 52/// 60014 70282 84201 333 20071 31/// 55/// 56505 70012 84841 84066
AAXX 23124 89056 12480 61312 10007 21045 49910 52030 69952 81501 333 10009 21008 41998 55005 56305 81612 85068
AAXX 23124 89057 12470 50000 10013 21050 49922 52040 69912 83101 333 10007 21003 42060 56606 83815 85070
AAXX 23124 89058 11580 21120 10007 21043 39878 49899 52025 69901 70070 81501
AAXX 23124 89059 12660 62106 11004 21086 49897 52033 60002 865// 333 11004 21009 42030 55006 56099 86633
AAXX 23124 89251 12668 40918 10007 21043 49890 52020 69922 82502 333 21004
AAXX 23124 91376 32474 80710 10276 20219 30054 40058 58002 84878 333 10300 56137 59005 70003 555 92312
AAXX 23121 78221 41458 20301 10215 20202 30163 40190 52010 70200 82700 333 82814
AAXX 23121 78224 11530 19901 10152 20141 30117 40193 53007 69924 71244 81100 333 20152 81820
AAXX 23121 78229 NIL
AAXX 23121 78239 11459 60904 10237 20208 30184 40188 52010 60004 70500 86800 333 20222 85818
AAXX 23121 78244 NIL
AAXX 23121 78243 NIL
AAXX 23121 78255 11556 10703 10188 20177 30045 40194 52010 60004 74044 81500 333 20187 81620
AAXX 23121 78264 11959 03503 10192 20164 30104 40179 52010 60004 70500 333 20200
AAXX 23121 78265 11/00 90601 10171 20161 30083 40183 52010 60004 74744 333 20169
AAXX 23121 78256 NIL
AAXX 23121 78259 11557 11002 10161 20148 30100 40194 54000 60004 70544 81100 333 81820 20160
AAXX 23121 78268 11457 61204 10248 20225 30175 40194 54000 60004 70500 82200 333 83815 86830
AAXX 23124 78384 12460 10906 10243 20222 40167 60002 81202 333 10298 20241 58012 70000 81818
AAXX 23124 41170 32960 30508 10222 20175 30169 40182 80001 333 59017 83072
BBXX A8QJ7 23124 99254 70176 41/98 /0410 10220 20205 40262 50006 70200 8/1// 22213 06210 2//// 3//// 4//// 5//// 80210
AAXX 23121 10055 01450 82305 10066 20066 30131 40141 58013 69901 72054 876// 333 31/// 55300 20111 30111 69907 87710
AAXX 23121 10200 01222 82205 10089 20083 30161 40159 58016 69901 75052 887// 333 32/// 55300 20078 30078 69907 87705
AAXX 23121 13579 32770 73405 10008 21045 39348 40205 58001 87500 333 87650
AAXX 23121 10609 01367 82207 10078 20065 39900 40232 58019 69911 72065 875// 333 31/// 55300 20262 30256 69907 85707 87613
AAXX 23121 10616 01045 82503 10062 20057 39625 40230 58017 69931 75066 888// 333 31/// 55300 69917 81701 83802 87604 96010 96458
AAXX 23121 10641 07360 72104 10086 20074 30082 40230 5//// 6///1 722// 333 55300 6///7 85/08 87/28 87/34
AAXX 23121 10655 12460 82504 10077 20069 39901 40232 58015 60001 878// 333 31/// 55300 20206 30203 84810 87614
AAXX 23121 10675 17466 72103 10079 20067 39939 40232 58011 69941 70065 333 55300 20095 30095 87/10
AAXX 23121 10688 07/50 /2003 10057 20055 39707 40235 58011 60011 75165 333 55300 20097 30097 69987
AAXX 23121 10708 01259 82104 10071 20062 39855 40244 58016 69901 70152 875// 333 32/// 55300 20153 30151 69907 84705 87623
AAXX 23121 10729 07663 82103 10087 20078 30124 40247 58017 69901 72250 333 55300 20178 30178 69907 88/33
AAXX 23121 10731 01475 82504 10087 20065 30098 40242 58018 69901 72122 888// 333 31/// 55300 20197 30197 69907 82813 88625
AAXX 23121 10742 07470 82403 10081 20065 39909 40242 58016 69911 72250 333 55300 20204 30204 69907 84/16 88/29
AAXX 23121 10776 01365 81602 10058 20056 39793 40243 58012 69911 70252 885// 333 31/// 55300 20260 30260 69907 86609 88633
AAXX 23121 10791 01/90 92611 10003 20003 38570 48512 58007 69921 75054 333 49096 55300 69927 96045
AAXX 23121 10805 12483 81903 10090 20074 30060 40252 58020 60001 878// 333 31/// 55300 20189 30189 81816 87636
AAXX 23121 10815 01375 82703 10033 20026 39298 48523 58017 69901 70265 875// 333 43014 55300 20174 30174 69907 87607 96461 96451
AAXX 23121 10836 01/45 82606 10034 20034 39368 40252 58015 60011 72164 888// 333 42008 55300 20255 30255 69947 827// 86807
AAXX 23121 10870 01257 82604 10072 20066 39713 40251 58012 69921 72052 886// 333 31/// 55300 69907 82705 87707 96010
AAXX 23121 10895 01/02 90401 10026 20026 39669 40252 58012 60011 75165 333 42002 55300 20198 30198 69957 96045 96261 96461 96459
AAXX 23121 10908 01/00 92111 11007 21007 38530 48524 58017 69901 74954 333 49060 55300 20417 30417 69907 89/01 91115 91211 96256 96450
AAXX 23121 10929 11460 82201 10075 20064 39723 40258 58018 69901 70252 885// 333 31/// 55300 20232 30231 83712 84618 88629
AAXX 23121 10948 11482 11503 10034 20024 39298 48529 58023 60001 71111 81502 333 43044 55310 21085 30218 81616
AAXX 23121 10961 11/84 13407 11043 21059 37111 47084 58006 60001 72841 81500 333 49230 55310 21397 40820 816// 91113 95172 96241 96449 444 26209 46276
AAXX 23121 10962 01/02 72404 10034 20033 39094 48531 58015 69911 74165 875// 333 44010 55300 20489 30478 69907 857// 87640 96458 96447
AAXX 23121 10980 11/01 92706 11009 21010 38189 48536 58009 60031 74974 333 44080 55300 20324 30324 96271 96471 96449
AAXX 23121 10007 NIL
AAXX 23121 10044 NIL
AAXX 23121 10046 41257 82306 10088 20075 30104 40143 58016 71052 876// 333 87706
AAXX 23121 10091 01135 82408 10073 20073 30089 40140 58014 69981 71065 876// 222// 06053 333 31/// 55300 20205 30205 69927 85703 87708 91113 96445
AAXX 23121 10113 01358 82106 10074 20069 30133 40152 58015 69901 75052 885// 333 32/// 55300 20120 30115 69907 85708 88632
AAXX 23121 10124 NIL
AAXX 23121 10131 01357 82205 10091 20080 30139 40154 58017 69901 72052 875// 333 31/// 55300 20081 30081 69907 83707 87614 96010
AAXX 23121 10170 11456 82305 10092 20078 30134 40150 58018 69911 71052 885// 333 31/// 55300 20148 30147 85611 84646
AAXX 23121 10264 01250 82404 10088 20082 30059 40165 58011 69951 71062 886// 333 31/// 55300 20107 30107 69907 88706
AAXX 23121 10291 01258 82505 10081 20078 30104 40172 57015 69931 72052 876// 333 31/// 55300 20078 30078 69927 87705
AAXX 23121 10315 01357 82104 10095 20085 30125 40189 58018 69901 72162 885// 333 31/// 55300 20072 30072 69907 82708 87612 96010
AAXX 23121 10379 01122 82505 10083 20082 30061 40183 58009 60011 71065 886// 333 31/// 55300 20057 30055 41284 69967 88703
AAXX 23121 10382 01131 82504 10085 20085 30136 40181 58012 69951 75152 886// 333 32/// 55300 20032 30032 69927 85702 88703
AAXX 23121 10384 06/// /2603 10088 20085 30121 40181 58012 69981 333 55300 20040 30039 69947
AAXX 23121 10427 01/00 92607 10034 20034 39191 48489 58016 60011 75154 333 44040 55300 20185 30185 69937 91113 96045 96147 96455 96453
AAXX 23121 10430 01330 82303 10088 20080 30004 40196 58018 69911 75152 885// 333 31/// 55300 20141 30141 69917 85708 87611
AAXX 23121 10439 41462 82104 10083 20067 39989 40210 58016 76062 878// 333 81812 87635
AAXX 23121 10453 11/90 92517 10015 20015 38840 48468 58022 60041 75154 333 49119 55300 91122 90206 91218 91218 96049 96453 96449
AAXX 23121 10496 01140 82403 10080 20077 30104 40189 58015 60011 72055 876// 333 31/// 55300 20126 30126 69957 87703
AAXX 23121 10499 01258 82106 10050 20040 39906 40200 58012 69921 70352 886// 333 32/// 55300 20209 30207 69917 88706
AAXX 23121 10505 01368 72306 10083 20075 39928 40210 58019 69901 72052 878// 333 31/// 55300 20204 30204 69907 84807 87625
AAXX 23121 10513 01682 72103 10097 20078 30093 40214 58019 69901 70152 875// 333 31/// 55300 20098 30098 69907 87634
AAXX 23121 10532 17473 72104 10086 20075 39966 40215 58018 60001 70030 333 55300 20211 30210 85/11 87/28 87/45
AAXX 23121 10544 03001 82409 10026 20026 39125 48496 58018 60021 8//// 333 55300 60017 88/00
AAXX 23121 10554 01480 72707 10081 20064 39818 40207 58015 69921 70165 875// 333 31/// 55300 20251 30251 69907 81614 83623 87632 96459 96451
AAXX 23121 10567 01481 82505 10077 20064 39833 40210 58011 69921 70252 875// 333 31/// 55300 20168 30168 69927 83710 87623 96453
AAXX 23121 10578 11/01 92610 10013 20013 38804 48497 58004 60031 75354 333 35/// 44063 55300 20355 30347 91116 91214 96045
BBXX CGDS 23124 99453 70739 46/// /3301 10009 20005 4//// 5//// 7//// 8//// 22200 0//// 2////
AAXX 23124 91376 32474 80710 10276 20219 30054 40058 58002 84878 333 10300 56137 59005 70003 555 92312
AAXX 23124 78954 11466 70915 10261 20230 30082 40147 71582 85802 333 10299 20241 58000 70005 85814 84080 90910
BBXX CGDS 23124 99453 70739 46/// /3301 10009 20005 4//// 5//// 7//// 8//// 22200 0//// 2////
AAXX 23124 78954 11466 70915 10261 20230 30082 40147 71582 85802 333 10299 20241 58000 70005 85814 84080 90910
AAXX 23121 01015 NIL
AAXX 23121 01023 41588 81303 10026 21019 39709 49801 58022 71522 8657/ 333 91108
AAXX 23121 01033 46/// /1709 10079 20019 39729 49759 56016 333 91119
AAXX 23121 01059 41585 71920 10015 21023 39821 49831 58039 77073 875// 333 91125
AAXX 23121 01089 41560 81813 11005 21023 39808 49914 58028 70272 8472/ 333 91118
AAXX 23121 01167 41584 81911 10079 20020 39755 49758 58034 76062 8372/ 333 91121
AAXX 23121 01180 NIL
AAXX 23121 01210 41475 62214 10076 20023 39894 49920 58002 72782 83961 333 91129
AAXX 23121 01228 46/// /2420 10077 20034 39860 49867 58015 333 91130
AAXX 23121 01240 16/// /2223 10080 20037 39834 49853 58018 6//// 333 91134
AAXX 23121 01304 46/// /2310 10067 20037 39924 49955 50001 333 91118
AAXX 23121 01311 46/// /2507 10066 20032 39946 40008 52001 333 91112
AAXX 23121 01340 NIL
AAXX 23121 01355 16/// ///// 10017 20009 39976 49981 58007 60031
AAXX 23121 01360 NIL
AAXX 23121 01392 11268 82102 10046 20039 39765 49988 56010 69921 70122 888// 333 91110
AAXX 23121 01406 46/// /2112 10074 20036 39992 40010 50001 333 91116
AAXX 23121 01411 16/// /2709 10082 20040 30007 40032 50009 6//// 333 91118
AAXX 23121 01425 NIL
AAXX 23121 01433 46/// /0000 11008 21015 38763 40014 50004 333 91113
AAXX 23121 01442 11580 83202 10066 20037 39771 40025 55003 69941 76065 885// 333 91109
AAXX 23121 01450 NIL
AAXX 23121 01452 11268 81903 10065 20058 30009 40030 57013 69931 76065 875// 333 91109
AAXX 23121 01473 16/// /2901 11004 21008 39792 40001 56009 6//// 333 91104
AAXX 23121 01494 11156 82107 10070 20064 39938 40002 58013 60001 71042 886// 333 91113
AAXX 23121 01121 46/// /2015 10069 20039 39797 49809 58023 333 91124
AAXX 23121 01135 16/// /2003 10037 20021 39695 49843 58023 60081 333 4/003 91109
AAXX 23121 01143 16/// /2104 10064 20009 60001 333 91110
AAXX 23121 01150 16/// /1902 10043 21003 60131 333 91110
AAXX 23121 01192 16/// /1303 10062 21016 60011 333 4/002 91120
AAXX 23121 01225 46/// /2023 10070 20031 39870 49875 55006 333 91132
AAXX 23121 01230 16/// /2206 10041 21064 60001 333 4/034 91114
AAXX 23121 01232 16/// /0403 10067 21010 39844 49922 50001 60021 333 4/013 91110
AAXX 23121 01234 16/// /2004 10030 20021 60021 333 91108
AAXX 23121 01253 16/// /1701 10007 21003 60001 333 4/036 91107
AAXX 23121 01254 16/// /0201 10000 21005 69941 333 4/023 91110
AAXX 23121 01257 11482 62402 10037 20020 39750 49909 56016 60021 70321 84571 333 91109
AAXX 23121 01277 NIL
AAXX 23121 01291 16/// /1603 10034 20019 60021 333 4/024 91106
AAXX 23121 01332 16/// /2801 10010 20000 60101 333 91104
AAXX 23121 01366 46/// /2411 11037 21045 38356 49961 58005 333 91120
AAXX 23121 01370 16/// /2202 11005 21032 38877 40042 58005 60001 333 4/027 91108
AAXX 23121 01376 16/// /0501 11031 21044 60001 333 91103
AAXX 23121 01383 46/// /1206 10005 20004 39663 49976 58012 333 91112
AAXX 23121 01386 16/// ///// 11007 21012 60001
AAXX 23121 01416 16/// ///// 10070 20070 60081
AAXX 23121 01419 16/// /3401 10028 20024 60291 333 91111
AAXX 23121 01430 16/// ///// 10082 20074 60021
AAXX 23121 01434 16/// /2501 10014 21013 39048 40009 50006 60071 333 91109
AAXX 23121 01455 16/// /2303 10076 20049 39706 40010 55006 60001 333 91108
AAXX 23121 01468 16/// /2404 10057 20044 60001 333 91107
AAXX 23121 01470 16/// /3102 10002 21001 39894 40009 57011 60001 333 4/007 91105
AAXX 23121 01476 NIL
AAXX 23121 01481 16/// /2104 10068 20063 39974 40006 58010 69921 333 91112
AAXX 23121 01488 NIL
AAXX 23121 01037 16/// /1907 10009 21049 39813 49819 58035 60001 333 91116
AAXX 23121 01046 16/// /1609 10022 21045 39793 49800 56030 6//// 333 91117
AAXX 23121 01058 16/// /1705 11030 21045 39403 49864 58025 69951 333 4/018 91113
AAXX 23121 01065 11689 82105 10010 21019 39718 49877 56037 60001 70222 888// 333 91112
AAXX 23121 01092 NIL
AAXX 23121 01107 16/// /2116 10074 21015 39750 49755 58022 60031 333 91128
AAXX 23121 01114 16/// /2211 10066 20025 39790 49800 58022 60091 333 91129
AAXX 23121 01144 46/// /1916 10064 20029 333 91128
AAXX 23121 01199 NIL
AAXX 23121 01245 11683 22605 10036 21052 39227 49917 58001 60001 70161 82800 333 91112
AAXX 23121 01259 16/// /2018 10078 20021 39823 49845 55024 69971 333 91128
AAXX 23121 01262 NIL
AAXX 23121 01278 NIL
AAXX 23121 01293 11480 71301 10022 20015 39717 49922 50001 69941 74162 87500 333 91110
AAXX 23121 01329 NIL
AAXX 23121 01337 16/// /1701 10037 20016 39933 49999 58004 60061 333 91106
AAXX 23121 01344 16/// ///// 10005 21005 60111 333 4/065
AAXX 23121 01364 16/// /2709 10007 21030 38859 49963 50007 60011 333 4/040 91113
AAXX 23121 01373 11680 50000 11057 21067 39793 49998 58005 60001 71122 82805 333 91102
AAXX 23121 01374 41/04 90000 11044 21046 74442
AAXX 23121 01380 16/// /0701 11034 21044 6//// 333 4/017 91106
AAXX 23121 01389 11110 81703 10003 21002 39681 49992 56010 60001 71072 8162/ 333 91105
AAXX 23121 01393 NIL
AAXX 23121 01424 16/// ///// 10028 20018 30023 40026 50003 60051
AAXX 23121 01431 16/// /3002 10028 20002 39377 40038 51009 60081 333 91106
AAXX 23121 01436 NIL
AAXX 23121 01465 11370 72208 10070 20064 30007 40025 58013 60001 71054 876// 333 91114
AAXX 23121 01471 11485 63001 11038 21047 60001 72682 85355 333 91107
AAXX 23121 01483 NIL
AAXX 23121 01025 16/// /1812 10042 21022 39765 49775 58014 6//// 333 91119
AAXX 23121 01052 16/// /1907 10005 21030 39699 49795 58022 60001 333 91120
AAXX 23121 01122 16/// /1906 10063 20014 39765 49852 56022 60061 333 91115
AAXX 23121 01132 16/// /1706 10027 20004 39504 49885 58019 60051 333 4/041 91114
AAXX 23121 01156 16/// /1918 10072 20047 39735 49744 58022 60031 333 91125
AAXX 23121 01203 46/// /2121 10078 20037 39880 49927 51007 333 91130
AAXX 23121 01233 16/// /1903 11039 21044 69951 333 91108
AAXX 23121 01265 NIL
AAXX 23121 01273 16/// /1401 10001 21028 39726 49922 58004 60001 333 91107
AAXX 23121 01307 46/// /2411 10077 20034 39956 49983 58003 333 91117
AAXX 23121 01321 16/// /1603 10046 20002 39707 49956 58006 60061 333 91110
AAXX 23121 01327 16/// /2606 10035 20002 60131 333 91117
AAXX 23121 01350 16/// /2701 11017 21018 38594 49969 58007 60011 222// 00044 333 91127
AAXX 23121 01361 16/// /2703 11001 21021 38934 49949 58005 60021 333 91112
AAXX 23121 01375 NIL
AAXX 23121 01378 16/// /0000 11040 21047 39693 49989 58009 60001 333 91103
AAXX 23121 01385 16/// /2401 11008 21010 39720 49993 56006 60001 333 91103
AAXX 23121 01412 16/// /2706 10080 20048 30010 40039 50007 60051 333 91114
AAXX 23121 01422 16/// /1704 10077 20050 60061 333 91112
AAXX 23121 01440 NIL
AAXX 23121 01441 NIL
AAXX 23121 01467 NIL
AAXX 23121 01469 NIL
AAXX 23121 01477 16/// /3601 10010 20007 60001 333 4/021 91102
AAXX 23121 01480 16/// /3301 11006 21012 60001 333 91104
AAXX 23121 01484 16/// /1805 10053 20043 39843 49997 56008 60001 333 91111
AAXX 23121 01490 16/// /2204 10019 20018 69941 333 91109
AAXX 23121 01495 16/// /2214 10073 20064 39994 40007 58014 60001 333 91117
AAXX 23121 11816 11115 81002 11017 21027 30082 40253 57014 69901 75676 886// 333 81702 87703 934//
AAXX 23121 11826 11415 80000 11012 21018 30041 40249 57016 60001 71044 886// 333 88711 93501
AAXX 23121 11903 11250 69901 11049 21058 39860 40261 58016 60001 71042 85542 333 81705 84633 85069 93501
AAXX 23121 11934 11570 19902 11039 21064 39388 42813 57016 60001 70241 81542 333 81620
AAXX 23121 11968 11556 79901 11011 21036 39956 40248 57015 60001 71022 87500 333 87625
AAXX 23124 07005 01482 81910 10094 20070 30119 40209 58022 69921 70352 888// 333 60007 81810 88630 90710 91116 93100 555 60005
AAXX 23124 07015 01481 72214 10100 20079 30148 40205 58022 69921 70165 875// 333 69907 85614 87630 90710 91122 93100 555 60005
AAXX 23124 07020 06/// /2022 10106 20098 30164 40191 58026 69961 333 69947 90710 91133 555 69925
AAXX 23124 07027 01480 72013 10100 20079 30132 40214 58021 69901 76062 878// 333 69907 83816 86633 90710 91121 93100 555 69905
AAXX 23124 07037 02580 82013 10083 20064 30037 40223 57024 69901 875// 333 60007 85625 87631 90710 91117 93100 555 60005
AAXX 23124 07070 04470 82209 10089 20067 30120 40232 58022 60001 700// 333 60007 90710 91117 555 60005
AAXX 23124 07110 01358 82118 10116 20102 30083 40198 58023 69981 70365 885// 333 69907 84708 86611 90710 91129 555 60005
AAXX 23124 07117 01468 62214 10124 20096 30120 40190 58028 60001 70262 86850 333 60007 90710 91129 92437 555 60005
AAXX 23124 07130 04485 82110 10105 20086 30177 40230 58022 69901 700// 333 69907 90710 91118 555 69905
AAXX 23124 07139 01440 82109 10086 20064 30058 40234 58022 60001 75152 885// 333 60007 86713 87630 90710 91117 93100 555 60005
AAXX 23124 07149 01475 82107 10089 20065 30127 40237 58022 69901 70352 888// 333 60007 82813 88623 90710 91111 93100 555 60005
AAXX 23124 07168 02570 82004 10087 20060 30107 40252 58018 60001 885// 333 60007 88623 90710 91108 93100 555 60005
AAXX 23124 07181 04377 82108 10071 20060 39834 40250 58018 60001 700// 333 60007 90710 91112 555 60005
AAXX 23124 07190 04685 82207 10091 20058 30064 40249 58020 60001 700// 333 60007 90710 91111 555 60005
AAXX 23124 07207 02660 72617 10117 20096 60001 875// 222// 327// 333 60007 91027 90710 91132 92437 555 60005
AAXX 23124 07222 01340 82206 10106 20097 30216 40248 58016 69901 75865 875// 333 69907 85706 87614 90710 91112 555 69905
AAXX 23124 07240 04584 82008 10097 20064 30113 40250 58018 60001 700// 333 60007 90710 91113 555 60005
AAXX 23124 07255 02570 82104 10099 20068 30054 40256 58020 60001 875// 333 60007 87625 90710 91106 93100 555 60005
AAXX 23124 07280 04581 82004 10086 20071 39981 40258 58022 60001 700// 333 60007 90710 91105 555 60005
AAXX 23124 07299 02570 82103 10092 20061 39924 40255 58019 60001 878// 333 60007 81820 87632 90710 91105 93100 555 60005
AAXX 23124 07314 06/// /1917 10113 20094 30239 40267 58012 60001 333 60007 90710 91122 555 60005
AAXX 23124 07335 02580 82007 10098 20070 30117 40264 58014 60001 875// 333 60007 87631 90710 91111 555 60005
AAXX 23124 07434 02480 72604 10076 20052 39779 40266 58010 60001 875// 333 60007 87612 90710 91106 555 60005
AAXX 23124 07460 02480 81708 10085 20061 39863 40258 58023 60001 885// 333 60007 81613 87615 90710 91111 93100 555 60005
AAXX 23124 07471 02268 71104 10054 20040 39278 48858 58018 60001 875// 333 60007 87606 90710 91106 93100 555 60005
AAXX 23124 07481 02465 41204 10116 20079 39965 40254 58021 60001 84800 333 60007 81813 84618 90710 91106 93100 555 60005
AAXX 23124 07510 01359 72505 10084 20078 30213 40280 58005 60001 72841 875// 333 60007 83608 86612 90710 91107 93100 555 60005
AAXX 23124 07535 01/02 92102 10057 20057 39954 40275 58004 60001 74544 333 60007 90710 91104 93100 555 60005
AAXX 23124 07558 06/// /2503 10053 20052 39408 40261 58013 60001 333 60007 90710 91105 555 60005
AAXX 23124 07577 02584 10412 10130 20070 30156 40246 58006 60001 81101 333 60007 81823 90710 91124 93100 555 60005
AAXX 23124 07591 04/// /2501 10074 20008 39225 4//// 57013 60001 700// 333 60007 90710 91106 555 60005
AAXX 23124 07607 04/08 92704 10068 20068 30214 40287 50002 60001 745// 333 60007 90710 91108 555 60005
AAXX 23124 07621 02480 12907 10100 20069 39840 40278 50000 60001 81100 333 60007 81813 90710 91111 93100 555 60005
AAXX 23124 07627 02980 02703 10097 20049 39776 40269 50001 60001 333 60007 90710 91108 93100 555 60005
AAXX 23124 07630 01/05 92605 10058 20055 30092 40278 58005 69921 74344 333 60007 90710 91110 93100 555 60005
AAXX 23124 07643 02986 00106 10160 20056 30229 40239 58013 60001 333 60007 90710 91112 555 60005
AAXX 23124 07650 04959 /2803 10128 20066 30198 40237 58004 60001 700// 333 60007 90710 91104 555 60005
AAXX 23124 07661 02570 30806 10122 20098 30074 40236 58001 60001 83200 333 60007 83826 90710 91109 555 60005
AAXX 23124 07690 02680 12102 10148 20073 30204 40238 58009 60001 81500 333 60007 81633 90710 91106 93100 555 60005
AAXX 23124 07747 02981 11303 10175 20044 30187 40240 58011 60001 80001 333 60007 81075 90710 91106 555 60005
AAXX 23124 07761 02984 02402 10159 20058 30225 40236 58010 60001 333 60007 90710 91105 93100 555 60005
AAXX 23124 07790 02986 00601 10151 20056 30218 40232 58009 60001 333 60007 90710 91105 93100 555 60005
AAXX 23124 91413 11469 80508 10255 20235 30046 40071 52022 69981 72582 83271 333 10320 56199 58000 70018 555 92312
AAXX 23124 03005 11468 52630 10048 20009 39879 49978 51010 60011 72781 85900 91150 333 55301 20141 84915 90710 91145
AAXX 23124 03017 17764 /2619 10041 20020 39996 40028 53008 60021 723// 91150 333 55300 20102 82/50 90710 91138
AAXX 23124 03023 17767 /2618 10051 20008 30078 40083 52019 69901 723// 91150 333 81/50 85/57 90710 91137
AAXX 23124 03026 16/// /2311 10032 20017 3//// 4//// 5//// 69921 91150 333 55301 20157 90710 91125
AAXX 23124 03063 15981 /2107 10026 20000 39802 40082 53006 69901 91150 333 55307 20286 81/59
AAXX 23124 03066 17982 /2412 10050 20010 30062 40069 53009 69901 723// 91150 333 55308 20356 8//99
AAXX 23124 03075 15969 /2315 10044 20002 39999 40043 50006 69901 91150 333 8//99 90710 91126
AAXX 23124 03091 15980 /2405 10046 21002 39995 40075 51005 60001 91150 333 55300 20174 82/66
AAXX 23124 03100 17772 /2921 10061 20011 30085 40101 51008 69941 723// 91150 333 55301 20203 81/50 90710 91131
AAXX 23124 03111 16579 /3218 10059 20030 30104 40116 51014 69921 91150 333 81/23 84/50 90710 91129
AAXX 23124 03134 15881 /2808 10055 20033 30029 40102 50011 69981 91150 333 55300 20243 87/57
AAXX 23124 03136 17674 /2411 10050 20035 30078 40112 50015 69961 723// 91150 333 55300 20115 87/41
AAXX 23124 03162 11460 72206 10052 20037 39822 40111 50001 69921 78086 878// 91150 333 55300 20126 83816 86639
AAXX 23124 03166 17663 /2611 10065 20038 30026 40096 51007 69901 723// 91150 333 55300 20217 81/33 86/64
AAXX 23124 03171 12582 72609 10061 20026 30073 40086 50003 60001 81132 91150 333 55301 20319 81820 86365
AAXX 23124 03204 11580 82912 10078 20027 30107 40127 50008 60011 71462 8387/ 91150 333 55300 20094 82825 88359
AAXX 23124 03240 17966 /2610 10075 20048 30068 40097 58003 69921 720// 91150 333 55300 20121 88/59
AAXX 23124 03257 17568 /3203 10077 20066 30064 40104 58002 60021 761// 91150 333 55300 20095 81/27 87/34
AAXX 23124 03292 163// /2306 10095 20090 30073 40092 58020 60021 91150 333 86/06 86/19
AAXX 23124 03302 17438 /3015 10068 20035 30126 40138 50020 60081 762// 91150 333 55300 20051 81/19 85/27
AAXX 23124 03354 17335 /2009 10096 20089 39960 40102 58030 60021 761// 91150 333 55300 20073 87/06 91020
AAXX 23124 03377 11465 82119 10100 20088 30018 40102 58030 69921 76061 885// 91150 333 55300 20113 85711 88656 90710 91127
AAXX 23124 03414 17450 /3311 10082 20082 30017 40105 56014 60131 763// 91150 333 55300 20046 81/11 86/23
AAXX 23124 03462 17465 /1914 10099 20094 30029 40118 58027 69901 781// 91150 333 55300 20147 87/10 90710 91125
AAXX 23124 03482 15477 /2016 10107 20078 30103 40129 58025 60001 91150 333 86/18 83/25 86/31
AAXX 23124 03502 17450 /3324 10058 20045 39986 40150 53032 60201 767// 91150 333 55300 20033 87/16 90710 91139
AAXX 23124 03535 17362 /1914 10100 20097 39987 40103 58034 69981 761// 91150 333 55300 20131 86/07 87/13
AAXX 23124 03590 15482 /2014 10103 20081 30035 40144 58029 60001 91150 333 55303 20424 81/16 87/26
AAXX 23124 03649 11462 82110 10111 20089 30029 40128 58031 69901 76065 885// 91150 333 55300 2//// 82712 88615 91021
AAXX 23124 03716 17567 /2116 10112 20092 30053 40112 58035 69901 761// 91150 333 55300 20109 86/23 83/50
AAXX 23124 03740 16470 /2014 10108 20086 39956 40131 58031 60001 91150 333 55300 2//// 88/12 90710 91128 91024
AAXX 23124 03746 11359 82218 10105 20099 39993 40146 58029 69901 758// 887// 91150 333 87707 90710 91126
AAXX 23124 03772 17462 /2115 10113 20090 30121 40151 58027 69901 781// 91150 333 55300 20188 87/15
AAXX 23124 03796 46/// /2322 10094 20089 30029 40172 58024 91150 333 90710 91135 91034
AAXX 23124 03803 NIL
AAXX 23124 03808 11457 83424 10075 20061 30069 40176 53011 60031 76365 8552/ 91150 333 55300 20133 82710 85616 88530 90710 91142 91036
AAXX 23124 03809 11358 83418 10078 20065 30077 40171 53002 60021 76162 887// 91150 333 83706 86708 87615 90710 91145 91033
AAXX 23124 03827 17456 /2125 10114 20110 30079 40140 58038 69921 761// 91150 333 85/10 86/16 90710 91136
AAXX 23124 03840 17359 /2115 10098 20094 39834 40138 58029 69921 757// 91150 333 88/06 90710 91127 91025
AAXX 23124 03853 17462 /2117 10119 20099 30117 40141 58029 69901 723// 91150 333 55300 20130 87/15 85/25 90710 91128
AAXX 23124 03874 46/// /2323 10106 20091 30150 40161 58028 91150 333 90710 91134
AAXX 23124 03882 17363 /2210 10095 20089 30112 40175 58024 60011 781// 91150 333 55300 20155 87/06 86/18
AAXX 23124 03894 11262 72018 10102 20094 40191 58025 69921 75052 877// 333 82704 84706 86709 90710 91127
AAXX 23124 03917 17480 /2808 10053 20026 30059 40137 51014 69901 723// 91150 333 55300 20187 84/19 84/66
AAXX 23124 61901 11486 71317 10190 20130 39681 40186 69921 70282 878// 91150 333 59007 84814 87627
AAXX 23124 61902 32484 51417 10273 20186 40152 85800 333 58010 82818 83645
BBXX 46072 23121 99517 71722 46/// /3410 10015 21032 40062 53031 91150 22200 00048 11007 20704 3//// 41005 70033 333 91212 555 11108 22114 31124 43415 61149 344101 348110 348122 338118 333109 331109 83513 91124
BBXX 46082 23121 99597 71434 46/// ///// 10025 49902 51068 91150 22200 00062 11009 70047
BBXX 46072 23121 99517 71722 46/// /3410 10015 21032 40062 53031 91150 22200 00048 11007 20704 3//// 41005 70033 333 91212 555 11108 22114 31124 43415 61149 344101 348110 348122 338118 333109 331109 83513 91124
BBXX 46035 23121 99571 71778 46/// /3612 1//// 40141 53026 91150 22200 10806 20806 70032 333 91214 555 11122 22130 31128 43514 61149 356121 353123 346116 341109 350106 357108 83513 91134
BBXX 46077 23121 99579 71543 46/// /2805 11004 21111 49908 50008 91150 22200 00052 10602 20402 3//// 40602 70011 333 91207 555 11052 22054 31055 42711 61149 274051 254067 259071 253083 255094 262096 82610 91107
BBXX 42039 23121 99288 70860 46/// /3304 10220 40183 53012 91150 22200 00232 10602 20401 300// 40602 70011 333 91205 555 11042 22043 31127 43306 61149 332039 321047 326046 325041 311041 314046 83205 91131
BBXX 41040 23121 99145 70530 46/// /0508 10260 20212 40158 53021 91150 22200 00275 11206 20604 3//// 41205 70031 333 91210 555 11087 22091 31135 40712 61149 054084 059092 067088 064085 062089 058082 80610 91135
AAXX 23124 91824 11499 60303 10238 20229 40084 57014 60001 70222 8487/ 70222 8487/ 333 10305 5619/ 555 1////
AAXX 23124 Scanned by MailMarshal - M86 Security's comprehensive email content s ecur
AAXX 23124 ity solution.
AAXX 23124 --_000_15A73B2E9A32B34CBBB7D7F59DAEB2C0DCC03974mailniuegovloca_ html code found in mail The rest of this message has been deleted
BBXX 51004 23121 99175 71524 46/// /0608 10233 20177 91150 555 11090 22096
BBXX 51002 23121 99171 71578 46/// /0711 10241 40143 58005 91150 22200 00250 333 91213 555 11119 22126 31059 40614 61149 065111 065111 062114 064107 065109 067111
BBXX 51100 23121 99236 71539 46/// /0809 10223 40207 58004 91150 22200 00230 10905 20404 311// 40903 70025 333 91211 555 11098 22104 31117 40711 61149 078093 074089 071087 070094 068092 071092
BBXX 44007 23121 99435 70701 46/// /0608 10029 20023 40135 56014 91150 22200 00079 10403 20402 3//// 40802 70013 333 91209 555 11083 22087 31114 40710 61149 063079 062080 062079 062080 063078 066082
BBXX 46026 23121 99378 71228 46/// /0702 10102 40330 52007 91150 22200 00115 11102 330// 41102 70011 333 91202 555 11017 22018 31146 40702 61149 054016 294010 299015 299016 301014 301013
BBXX 46041 23121 99474 71247 46/// /2203 10089 40285 51019 91150 22200 00080 11406 20401 3//// 41406 70030 333 91204 555 11032 22038 31126 42105 61149 214029 207036 206040 197038 193035 200033
AAXX 23121 33815 41597 83405 11029 21052 30017 40234 58011 77172 8852/ 555 14102
AAXX 23121 14648 12770 10503 10065 21063 30091 40213 56007 60001 81500 333 81650
AAXX 23121 14652 12970 00218 11120 21131 37888 48475 58002 60001 444 38199
AAXX 23121 14542 11620 52901 10025 21033 30078 40275 57008 60001 71011 81206 333 81840 85280 95990
AAXX 23124 78958 01570 10912 10279 20221 30134 40144 60001 70600 81201 333 10304 20248 58006 70000 81820
AAXX 23121 02741 47134 72009 10047 20044 30030 40045 57031 76165 87/// 91139
AAXX 23121 02755 47258 81706 10007 20003 39925 40021 57037 72474 88/// 91139
AAXX 23121 02805 47440 81706 11003 21020 39758 49889 57035 78587 88/// 91139
AAXX 23121 02807 47465 82008 11008 21027 39750 49931 771// 88/// 91200
AAXX 23121 02836 47369 81706 11018 21028 39747 49970 57030 77187 88/// 91139
AAXX 23121 02845 47250 81707 11022 21024 39733 49982 57034 77176 88/// 91139
AAXX 23121 02849 47499 81705 11026 21042 39735 40011 57033 70074 88/// 91139
AAXX 23121 02866 47335 71705 11015 21019 39873 40023 57040 77174 87/// 91139
AAXX 23121 02897 47399 81804 11013 21023 39868 40052 700// 88/// 91200
AAXX 23121 02913 47399 81707 10023 20011 39954 40006 700// 88///
AAXX 23121 02917 47399 71607 11007 21020 39959 40083 700// 87/// 91200
AAXX 23121 02924 47248 71803 10007 20007 39851 40049 57033 77487 87/// 91139
AAXX 23121 02926 47261 81805 10038 20036 30026 40039 58032 751// 88/// 91200
AAXX 23121 02935 47263 81704 10010 20002 39899 40073 57028 70084 88/// 91139
AAXX 23121 02939 47980 01704 11040 21043 39928 40127 57022 70010 91139
AAXX 23121 02944 47248 81705 10016 20013 39919 40067 761// 88/// 91200
AAXX 23121 02947 47480 71704 11001 21014 40115 57021 70000 87/// 91151
AAXX 23121 02963 41225 81907 10020 20018 40081 57022 75176 886//
AAXX 23121 02974 41265 82007 10021 20013 30052 40119 57022 72062 886//
AAXX 23121 02976 46/// /2107 10017 20003 30123 40139 57017 91139
AAXX 23121 02981 47245 72017 10048 20040 30071 40081 57023 78085 87/// 91139
AAXX 23121 02982 46/// /2117 10047 20028 30093 40101 57021 91139
AAXX 23123 91802 NIL
AAXX 23123 91809 NIL
AAXX 23123 91831 36/// /0608 10256 20211 40114 58010 333 1//// 91841 36/// /0604 10246 20204 40100 57027 333 10301
AAXX 23123 91843 11498 30510 10262 20234 40103 58018 69901 70318 82101 333 10299 561/9 82816 83079
AAXX 23123 91848 36/// /0605 10248 20226 40095 57020 333 10302
AAXX 23124 89642 41458 71010 11022 21033 39879 49933 56003 76877 8571/ 333 10000 21022 85710 87457
AAXX 23124 91413 11469 80508 10255 20235 30046 40071 52022 69981 72582 83271 333 10320 56199 58000 70018 555 92312
BBXX A8SI8 23124 99373 10056 43498 83015 10160 2013/ 40330 52030 8662/ 22265 00160 20302 336// 40607 80140
AAXX 23121 13586 32665 83405 10024 21028 39934 40233 57006 8652/ 333 86633 88457
AAXX 23121 14528 11965 40000 11002 21027 39963 40273 57004 60001 70241 84050 333 84360
AAXX 23121 14537 11770 70000 11025 21033 30068 40264 58007 60001 70244 81130 333 81850 87360
AAXX 23121 14544 12670 13602 10019 21041 39569 40254 56014 60001 81500 333 81643
AAXX 23121 14557 12660 60101 10012 21022 39895 40276 57011 60001 82570 333 82646 84360 86461
AAXX 23121 14640 12870 23402 10047 21032 39355 48505 57007 60001 82040 333 82358
AAXX 23121 40676 42960 00908 10244 20049 40140 57025
AAXX 23121 40650 41530 61903 10195 20090 40141 57018 70522 86800
AAXX 23121 40608 41958 01602 10186 20071 40141 56018 70500
AAXX 23121 40621 42560 51804 10185 20068 40160 57012 85800
AAXX 23121 40634 42960 00000 10184 20053 40147 58015
AAXX 23121 40629 42960 02603 10172 20027 40166 57014
AAXX 23121 40689 42960 31509 10224 20104 40160 57018 80001
AAXX 23121 40642 42960 30000 10188 20021 40141 57009 80004
AAXX 23121 40670 42560 60000 10202 20075 40134 57010 82132
AAXX 23121 40665 41957 61006 10208 20107 40149 57029 70622 80006
AAXX 23121 40672 41958 61906 10220 20088 40142 55011 70622 80005
AAXX 23121 89061 379// 03401 11007 21013 39894 49900 52003 70070 333 10028 21018 91003 91106
AAXX 23124 78948 11570 60921 10262 20224 30148 40156 60031 72582 85841 333 05225 10299 20229 58004 70029 83822 90916
AAXX 23124 78762 32970 30402 10190 20176 39086 40104 530138 80002 333 10275 20173 30/// 56//4 58013 83075
BBXX VCRG 23124 99474 70619 46/// /0112 10011 21017 40176 58004 7//// 8//// 22200 0//// 2////
BBXX CGUM 23124 99445 70635 46/// /0611 10009 20008 40169 58015 7//// 8//// 22262 0//// 2////
BBXX CG2350 23124 99433 70798 46/// /3109 10009 21021 40204 51031 7//// 8//// 22200 0//// 2////
AAXX 23124 78958 01570 10912 10279 20221 30134 40144 60001 70600 81201 333 10304 20248 58006 70000 81820
BBXX CGSB 23124 99504 70588 46/// /3418 11071 21145 40146 51013 7//// 8//// 22213 00028 2////
AAXX 23124 78762 32970 30402 10190 20176 39086 40104 530138 80002 333 10275 20173 30/// 56//4 58013 83075
AAXX 23124 81401 06/// /1103 10273 20240 30114 40120 6///4 333 20216 60007 555 60005
AAXX 23124 81408 06/// /3301 10254 20233 30115 40123 60344 333 20234 69927 58005 555 69925
AAXX 23121 89061 379// 03401 11007 21013 39894 49900 52003 70070 333 10028 21018 91003 91106
AAXX 23121 01152 16/// /1910 10057 20025 39789 49805 58015 6//// 333 91123
AAXX 23121 01205 46/// /2220 10081 20047 39862 49906 58008 333 91133
AAXX 23121 01160 41470 81815 10057 20029 39764 49781 58009 76082 8672/ 333 91125
AAXX 23121 01281 16/// /0000 10002 21008 39722 49896 58020 60071 333 91103
AAXX 23121 01238 41575 52006 10005 21039 38819 49946 58000 70152 84240 333 91117
BBXX CG2958 23124 99541 71303 46/// /2617 10059 20037 40131 51054 7//// 8//// 22272 0//// 2////
BBXX CGBR 23124 99516 71281 46/// /1010 10060 20059 40219 52046 7//// 8//// 22200 0//// 2////
BBXX CGJK 23124 99484 71234 46/// /0902 10038 20031 40297 53025 7//// 8//// 22200 0//// 2////
BBXX CZ9742 23124 99506 70969 46/// /3204 11063 21064 40115 53006 7//// 8//// 22200 0//// 2////
BBXX VOLG 23124 99446 70636 46/// /0404 10005 20003 40168 56015 7//// 8//// 22200 0//// 2////
BBXX CGDG 23124 99447 70636 46/// /0703 11000 20074 40171 56014 7//// 8//// 22200 0//// 2////
BBXX VCWL 23124 99456 70735 46/// /0306 11005 21009 40144 51005 7//// 8//// 22200 0//// 2////
BBXX CGHL 23124 99476 70527 46/// /2902 10022 21006 40158 51034 7//// 8//// 22200 0//// 2////
BBXX VOFG 23124 99456 70614 46/// /1301 10014 21014 40180 55004 7//// 8//// 22200 0//// 2////
BBXX CGTF 23124 99476 70527 46/// /2004 10018 21009 40159 51035 7//// 8//// 22200 0//// 2////
BBXX CGBY 23124 99487 71235 46/// /3601 10026 20016 40298 53023 7//// 8//// 22200 0//// 2////
BBXX CGDR 23124 99491 71237 46/// /1406 10048 20046 40296 53022 7//// 8//// 22200 0//// 2////
BBXX VOKF 23124 99490 70669 46/// /0214 11079 21120 40205 51012 7//// 8//// 22200 0//// 2////
BBXX CGDT 23124 99468 70712 46/// /0614 11020 21030 40156 55003 7//// 8//// 22200 0//// 2////
BBXX VCLM 23124 99468 70712 46/// /0820 11021 21026 40151 55004 7//// 8//// 22200 0//// 2////
BBXX VAAP 23124 99458 70598 46/// /0104 10019 21018 40169 58009 7//// 8//// 22213 0//// 2////
BBXX CGBN 23124 99447 70636 46/// /0704 10002 20000 40171 56014 7//// 8//// 22200 0//// 2////
BBXX CGDX 23124 99490 70669 46/// /0308 11077 21116 40208 51012 7//// 8//// 22200 0//// 2////
BBXX VCSZ 23124 99476 70527 46/// /2905 10015 20015 40154 51038 7//// 8//// 22281 0//// 2////
BBXX CG2960 23124 99423 70830 46/// /0104 11028 21080 4//// 5//// 7//// 8//// 22200 0//// 2////
BBXX 3FZK3 23124 99456 71228 46/// /1904 10007 21008 40335 53027 7//// 8//// 22200 0//// 2////
BBXX VOKJ 23124 99455 70735 46/// /0108 11004 21004 40142 51006 7//// 8//// 22200 0//// 2////
BBXX VXKF 23124 99476 70591 46/// /3102 10008 21037 40164 53015 7//// 8//// 22282 0//// 2////
BBXX CG2965 23124 99487 71235 46/// /0101 10035 20027 40299 53022 7//// 8//// 22200 0//// 2////
BBXX C6SI6 23124 99351 11291 46/// /3307 11002 21175 40227 58001 7//// 8//// 22200 0//// 2////
BBXX VOPP 23124 99456 70735 46/// /3506 11003 21001 4//// 5//// 7//// 8//// 22200 0//// 2////
BBXX VCBW 23124 99470 70655 46/// /0502 11014 21027 40169 56012 7//// 8//// 22200 0//// 2////
AAXX 23124 64500 32470 62208 10286 20240 30096 40109 83230 333 0//00 59006 83813 86363 94912 95832
AAXX 23121 11423 NIL
AAXX 23121 11487 01232 82705 10052 20051 39598 40227 58013 69961 75354 886// 333 69945 88704
AAXX 23121 11518 01462 72405 10060 20050 39774 40217 58012 69901 76022 875// 333 69905 82613 87618
AAXX 23121 11603 01157 81202 10023 20008 39725 40218 58014 60011 71065 887// 333 60005 82703 87708
AAXX 23121 11659 01/04 91101 10020 20014 39573 40226 55016 60001 74744 333 60005 89/02
AAXX 23121 11723 01111 81601 10004 21006 39931 40239 57017 69921 71075 886// 333 60005 88702 93601
AAXX 23121 11782 NIL
AAXX 23124 81401 06/// /1103 10273 20240 30114 40120 6///4 333 20216 60007 555 60005
AAXX 23124 81408 06/// /3301 10254 20233 30115 40123 60344 333 20234 69927 58005 555 69925
AAXX 23124 78862 11476 70618 10232 20213 30151 40174 60051 78082 87800 333 10274 20219 59004 70051 84811 86634
AAXX 23124 TUPJ 231000Z 2312/2412 060616KT 9999 SCT019 PROB40 TEMPO 2312/2412 06016G28KT SHRA BKN015
AAXX 23124 TAF TQPF 231000Z 2312/2412 060616KT 9999 SCT019 PROB40 TEMPO 2312/2412 06016G28KT SHRA BKN015
AAXX 23124 TAF TAPA 231000Z 2312/2412 060616KT 9999 SCT019 PROB40 TEMPO 2312/2412 06016G28KT SHRA BKN015
AAXX 23124 EMPO 0600/0624 SHRA BKN015=+TSRA SCT012CB
AAXX 23124 TAF TUPJ 041000Z 04012/0512 07008KT 9999 SCT016 BKN038 SCT270 TEMPO 0412/0512 SHRA BKN015 PROB40 TEMPO 0418/0512 5000 SHRA BKN014 BKN036 PROB30 0420/0512 4000 TSRA FEW012CB
AAXX 23124 918 4000 TSRA FEW012CB
AAXX 23124 N015 BKN036 PROB40 TEMPO 0704/0724 3000 +TSRA SCT011CB BKN012 BECMG 0712/0714 14008KT
AAXX 23124 21/2712 07017G28KT 5000 SHRA BKN015 BKN036 PROB TEMPO 2700/2712 4000 TSRA FEW013CB
AAXX 23124 PROB30 TEMPO 0800/0806 4000 TSRA FEW012CB PROB40 TEMPO 0800/0824 2000 +SHRA/TSRA SCT010CB BKN012 BKN250
AAXX 23124 78583 32470 41004 10251 20240 40151 60001 83802 333 01303 10300 20/ / / 58021 83815 83076
AAXX 23124 78397 111572 43106 10245 20190 30139 40155 60001 70511 82440 333 00990 10334 20241 58004 81822 83357
BBXX A8SI8 23124 99373 10056 43498 83015 10160 2013/ 40330 52030 8662/ 22265 00160 20302 336// 40607 80 140
BBXX VAAZ 23124 99/// ///// 46/// /3130 11007 21021 40068 53038 7//// 8//// 22200 0//// 2////
BBXX CGCC 23124 99464 70725 46/// /0210 11028 21036 40152 53002 7//// 8//// 22200 00026 2////
AAXX 23124 60101 32458 62209 10162 20124 40297 50004 86500 333 82710 86616
AAXX 23124 60115 32970 03602 10180 20056 40265 56007
AAXX 23124 60150 32560 33103 10141 20097 39632 40287 50000 83600 333 83710
AAXX 23124 60155 32458 508// 10170 20114 40285 50004 85800 333 84816
AAXX 23124 60156 17460 40206 10134 20134 40301 56005 69901 70030 84200 333 84816
AAXX 23124 60230 12957 00702 10204 20064 40263 50004 60001
AAXX 23124 60096 NIL
AAXX 23124 60135 NIL
AAXX 23124 60252 NIL
AAXX 23121 11812 36/// /2402 11002 21004 39526 42820 57012
AAXX 23121 11813 11/02 99901 11018 21021 39889 40252 57015 69931 75674 333 89/00 93401
AAXX 23121 11816 11115 81002 11017 21027 30082 40253 57014 69901 75676 886// 333 81702 87703 934//
AAXX 23121 11819 16/// /0000 11020 21024 30028 40254 57015 69911
AAXX 23121 11826 11415 80000 11012 21018 30041 40249 57016 60001 71044 886// 333 88711 93501
AAXX 23121 11841 11456 81001 11007 21034 39856 40246 58016 69901 72272 885// 333 88618
AAXX 23121 11855 11358 81102 11018 21040 30082 40255 57017 60001 71022 885// 333 87707 88620
AAXX 23121 11856 36/// /0000 11028 21040 39923 40256 57013
AAXX 23121 11858 11413 81501 11008 21012 30096 40254 57015 60001 71042 886// 333 88710
AAXX 23121 11867 11557 80000 11007 21040 39923 40252 58014 69901 77122 885// 333 88626
AAXX 23121 11880 11513 80000 11029 21039 30080 40260 58014 60001 71044 885// 333 88620 93504
AAXX 23121 11900 16/// /0000 11035 21061 39912 40264 57015 60001
AAXX 23121 11903 11250 69901 11049 21058 39860 40261 58016 60001 71042 85542 333 81705 84633 85069 93501
AAXX 23121 11916 12689 33207 11092 21151 37944 48468 58006 60001 82071 333 82440 93598 444 16189 27090
AAXX 23121 11918 11682 22606 11020 21058 39390 42814 57016 60001 70241 81542 333 81643
AAXX 23121 11927 11005 80000 11050 21055 39985 40262 57013 60001 74844 886// 333 88701 93504
AAXX 23121 11930 12588 23306 11087 21105 37318 47988 58003 60001 82040 333 82330 93556 444 27110
AAXX 23121 11933 12986 29901 11031 21071 38666 48479 57009 60001 81042 333 81358
AAXX 23121 11934 11570 19902 11039 21064 39388 42813 57016 60001 70241 81542 333 81620
AAXX 23121 11938 12986 29901 11023 21082 39137 42807 57014 60001 82041 333 82361
AAXX 23121 11952 16/// /9901 11013 21062 39378 42813 57018 60001
AAXX 23121 11958 36/// /2204 11063 21072 38756 48480 57010
AAXX 23121 11968 11556 79901 11011 21036 39956 40248 57015 60001 71022 87500 333 87625
AAXX 23121 11976 11957 20000 10014 21031 39974 40246 57014 60001 71044 81031 333 81360
AAXX 23121 11978 12662 79901 11010 21029 30111 40247 57014 60001 87500 333 87640
AAXX 23121 11993 11656 70000 11009 21020 30025 40250 58017 60001 71044 87500 333 87635
AAXX 23124 89577 46/// /1513 11258 35826 4//// 5////
AAXX 23124 89578 46/// /1108 11330 36870 4//// 5////
AAXX 23124 63980 41483 72705 10301 20227 40086 70282 83933 333 58000 81915 83817 86074 943// 91114
AAXX 23124 60060 32460 13204 10170 20112 40270 50001 81500 333 81616 95300
AAXX 23124 60105 32550 31006 10153 20129 40294 50004 83500 333 83620
AAXX 23124 60107 32965 03604 10175 20078 40279 50005
AAXX 23124 60127 32965 00000 10174 20084 39688 40279 50001
AAXX 23124 60141 32960 00000 10156 20081 39620 40285 50000
AAXX 23124 60185 32470 30810 10150 20106 40299 55006 83500 333 83616
AAXX 23124 60190 32975 03602 10171 20073 40274 58001
AAXX 23124 60191 32970 00000 10168 20083 40283 50002
AAXX 23124 60195 32965 00000 10125 21009 38604 48617 52003 333 95500
AAXX 23124 60210 32970 02406 10184 21037 39084 48610 58010
AAXX 23124 60220 32958 00210 10164 20103 40270 54000
AAXX 23124 60265 32970 00000 10139 21048 38989 48610 58004
AAXX 23124 60106 NIL
AAXX 23124 60318 NIL
AAXX 23124 60285 32458 10407 10178 20128 40271 50005 81500 333 81616
AAXX 23124 60340 32970 02402 10169 20086 40281 57001
AAXX 23124 78970 11470 10410 10282 20215 30110 40135 69931 70511 81800 333 01200 10295 20249 58003 70034 81818 90970
BBXX DBCK 23121 99/// ///// 46/// ///// 10092 20092 40161 57014 22220 00047
BBXX DBBC 23121 99535 10100 46/// /2406 10091 2//// 40164 57017 22240 00038
BBXX DBKR 23121 99541 10121 46/// /2305 10091 20091 40150 57017 22200 00050
BBXX 41101 23124 99146 70562 46/// /0720 10265 20213 40148 52018 22200 00270 10906 70032 555 1/026
BBXX DBLK 23121 99697 50014 41297 71302 11016 21023 49872 54000 70222 875// 22212 05019 20100 ICE 1/780
BBXX DBBA 23121 99541 10121 46/// /2503 10094 20080 40150 57017 22220 00053
BBXX DBND 23121 99536 10486 46/// /2305 10089 20085 40160 57013 22220 00054
BBXX DBBI 23121 99535 10100 46/// /2506 10094 20094 40163 57015 22220 00032
BBXX 62087 23121 99547 10068 46/// /0702 10098 20077 4//// 5//// 22270 00084
AAXX 23124 78583 32470 41004 10251 20240 40151 60001 83802 333 01303 10300 20/ / / 58021 83815 83076
AAXX 23121 76220 32920 00000 11086 21086 38121 40235 5//// 91145 333 10126 21086 31110 59015 70000
AAXX 23121 76305 32970 03403 10145 20047 30196 40205 5//// 91150 333 10218 20140 30125 58020 70000
AAXX 23121 76342 32940 00903 10070 20034 39536 40258 52019 91150 333 10236 20066 30060 58060 70000
AAXX 23121 76382 32960 20701 10076 20032 38906 40167 52001 80001 91154 333 10209 20070 30040 56005 58003 70000 82070
AAXX 23121 76390 31950 01801 10006 21003 38234 40221 54000 70544 91130 333 10192 21015 31025 58022 70000
AAXX 23121 76393 32920 00000 10102 20072 39630 40215 52007 91155 3333 10246 20100 30090 58069 70000
AAXX 23121 76423 32960 30000 10042 21008 38144 40155 57002 80005 91155 333 10262 20038 30/// 56009 58014 70000 83070
AAXX 23121 76458 32960 03502 10144 20118 30149 40154 53001 91145 333 10231 20119 30115 58008 70000
AAXX 23121 76471 32980 42102 10062 20048 37686 40144 5//// 80005 91150 333 10206 20039 30014 55080 56004 58025 70000 84075
AAXX 23121 76499 31856 60000 10125 20085 30178 40200 5//// 70311 86030 91140 333 10245 20124 30121 56090 58079 70000 86357
AAXX 23121 76525 32960 02007 10074 20029 37464 40137 54000 91150 333 10162 20068 30061 55080 22472 58028
AAXX 23121 76548 32860 13201 10152 20125 30199 40209 52006 81030 91140 333 10240 20148 30144 56050 58086 70000 81357
AAXX 23121 76556 32960 01602 10134 20114 39119 40142 58002 91130 333 10260 20133 30115 58009 70000
AAXX 23121 76577 32960 00000 10078 20069 38049 40172 51002 91140 333 10226 20073 30064 58013 70000
AAXX 23121 76581 12965 71402 10149 20138 39062 40168 5//// 69941 87020 91155 333 10290 20136 30128 56020 58044 70004 87459
AAXX 23121 76585 01680 80000 10160 20155 30041 40200 53020 69931 72055 8542/ 91140 333 10253 20159 30155 55043 5688/ 58086 69907 70003 85640 83458
AAXX 23121 76625 32960 10000 10110 20085 38151 40137 52004 81005 91145 333 10253 20106 30085 5600/ 58020 70000 81070
AAXX 23121 76632 31957 00504 10080 20064 37627 40154 5//// 70500 91145 333 10220 20078 30/// 58077 70000
AAXX 23121 76634 31970 01502 10081 20078 37862 40187 5//// 70500 91150 333 10236 20075 30056 58022 70000
AAXX 23121 76644 32650 21401 10218 20215 30151 40164 57003 82030 91150 333 10325 20218 30212 56/// 58025 70000
AAXX 23121 76654 31956 00402 10212 20176 30135 40139 5//// 70544 91151 333 10288 20212 30190 58012 70000
AAXX 23121 76662 32960 01301 10082 20059 38469 40171 52002 91140 333 10276 20050 30042 58015 70000
AAXX 23121 76675 32960 02001 11001 21024 37379 40203 5//// 91145 333 10216 21013 31035 58010 70000
AAXX 23121 76680 31958 02301 10095 20062 37762 40104 52004 70400 91150 333 10245 20095 30081 58021 70000
AAXX 23121 76683 32962 00000 10064 20050 37840 40211 55004 91145 333 10237 20064 30040 50281 55087 21943 58022 70000
AAXX 23121 76685 32950 00000 10070 20044 37880 40164 52006 91150 333 10242 20068 30025 58026 70000
AAXX 23121 76687 31358 62201 10125 20112 38701 40191 52005 70222 865// 91148 333 10256 20090 30075 563// 58048 70000 82716 84618
AAXX 23121 76692 31420 73604 10239 20215 30152 40171 55005 71044 8525/ 91145 333 10291 20236 30/// 568// 58054 70000 82817 83640
AAXX 23121 76737 31465 80000 10155 20124 38796 40177 50005 70222 886// 91135 333 10287 20154 30140 569// 58056 70000 88710
AAXX 23121 76743 31240 83301 10245 20230 30142 40150 53009 70211 885// 91145 333 10301 20240 30232 567// 58035 70000 88606
AAXX 23121 76750 32560 73202 10236 20229 30147 40157 5//// 87700 91150 333 10328 20230 30225 56200 58024 70000 87920
AAXX 23121 76773 32930 01801 10084 20049 38430 40158 52004 91146 333 10290 20080 30/// 50331 55100 58016 70000
AAXX 23121 76775 31960 00701 10120 20077 38535 40167 52010 70200 91145 333 10316 20115 30/// 58021 70000
AAXX 23121 76840 32901 00305 10276 20215 30058 40113 5//// 80000 91145 333 10360 20188 30/// 56000 58007 70000 80000
AAXX 23121 76845 31/10 90000 10072 20068 37959 40231 5//// 74244 98/// 91145 333 10234 20058 30046 58019 70000 98///
AAXX 23121 76848 32250 23601 10124 20111 38392 40118 51011 82600 91150 333 10276 20124 30090 56100 58023 70000 82705
AAXX 23121 76243 32970 03602 10048 20027 39976 40296 54000 91135 333 10220 20030 30024 58112 70000
AAXX 23121 76311 32920 00000 10042 20036 39896 40183 51006 91155 333 10267 20040 30030 58007 70000
AAXX 23121 76405 32940 23604 10175 20115 30168 40190 52006 82030 91150 333 10224 20150 30135 58020 70000 82356
AAXX 23121 76412 32960 00000 10100 20077 30132 40179 52003 91145 333 10278 20090 30/// 58000 70000
AAXX 23121 76640 31110 70403 10196 20190 30179 40191 52010 70222 8427/ 91145 333 10264 20192 30190 5699/ 58072 70003 84802 83345
AAXX 23121 76741 31240 33203 10237 20223 30127 40146 52008 70120 83100 91135 333 10286 20221 30218 568// 58046 70000 83805
AAXX 23121 76220 32920 00000 11086 21086 38121 40235 5//// 91145 33310126 21086 31110 59015 70000
AAXX 23121 76305 32970 03403 10145 20047 30196 40205 5//// 91150 33310218 20140 30125 58020 70000
AAXX 23121 76342 32940 00903 10070 20034 39536 40258 52019 91150 33310236 20066 30060 58060 70000
AAXX 23121 76382 32960 20701 10076 20032 38906 40167 52001 80001 91154333 10209 20070 30040 56005 58003 70000 82070
AAXX 23121 76390 31950 01801 10006 21003 38234 40221 54000 70544 91130333 10192 21015 31025 58022 70000
AAXX 23121 76393 32920 00000 10102 20072 39630 40215 52007 91155 3333 10246 20100 30090 58069 70000
AAXX 23121 76423 32960 30000 10042 21008 38144 40155 57002 80005 91155333 10262 20038 30/// 56009 58014 70000 83070
AAXX 23121 76458 32960 03502 10144 20118 30149 40154 53001 91145 33310231 20119 30115 58008 70000
AAXX 23121 76471 32980 42102 10062 20048 37686 40144 5//// 80005 91150333 10206 20039 30014 55080 56004 58025 70000 84075
AAXX 23121 76499 31856 60000 10125 20085 30178 40200 5//// 70311 8603091140 333 10245 20124 30121 56090 58079 70000 86357
AAXX 23121 76525 32960 02007 10074 20029 37464 40137 54000 91150 33310162 20068 30061 55080 22472 58028
AAXX 23121 76548 32860 13201 10152 20125 30199 40209 52006 81030 91140333 10240 20148 30144 56050 58086 70000 81357
AAXX 23121 76556 32960 01602 10134 20114 39119 40142 58002 91130 33310260 20133 30115 58009 70000
AAXX 23121 76577 32960 00000 10078 20069 38049 40172 51002 91140 33310226 20073 30064 58013 70000
AAXX 23121 76581 12965 71402 10149 20138 39062 40168 5//// 69941 8702091155 333 10290 20136 30128 56020 58044 70004 87459
AAXX 23121 76585 01680 80000 10160 20155 30041 40200 53020 69931 720558542/ 91140 333 10253 20159 30155 55043 5688/ 58086 6990770003 85640 83458
AAXX 23121 76625 32960 10000 10110 20085 38151 40137 52004 81005 91145333 10253 20106 30085 5600/ 58020 70000 81070
AAXX 23121 76632 31957 00504 10080 20064 37627 40154 5//// 70500 91145333 10220 20078 30/// 58077 70000
AAXX 23121 76634 31970 01502 10081 20078 37862 40187 5//// 70500 91150333 10236 20075 30056 58022 70000
AAXX 23121 76644 32650 21401 10218 20215 30151 40164 57003 82030 91150333 10325 20218 30212 56/// 58025 70000
AAXX 23121 76654 31956 00402 10212 20176 30135 40139 5//// 70544 91151333 10288 20212 30190 58012 70000
AAXX 23121 76662 32960 01301 10082 20059 38469 40171 52002 91140 33310276 20050 30042 58015 70000
AAXX 23121 76675 32960 02001 11001 21024 37379 40203 5//// 91145 33310216 21013 31035 58010 70000
AAXX 23121 76680 31958 02301 10095 20062 37762 40104 52004 70400 91150333 10245 20095 30081 58021 70000
AAXX 23121 76683 32962 00000 10064 20050 37840 40211 55004 91145 33310237 20064 30040 50281 55087 21943 58022 70000
AAXX 23121 76685 32950 00000 10070 20044 37880 40164 52006 91150 33310242 20068 30025 58026 70000
AAXX 23121 76687 31358 62201 10125 20112 38701 40191 52005 70222 865//91148 333 10256 20090 30075 563// 58048 70000 82716 84618
AAXX 23121 76692 31420 73604 10239 20215 30152 40171 55005 71044 8525/91145 333 10291 20236 30/// 568// 58054 70000 82817 83640
AAXX 23121 76737 31465 80000 10155 20124 38796 40177 50005 70222 886//91135 333 10287 20154 30140 569// 58056 70000 88710
AAXX 23121 76743 31240 83301 10245 20230 30142 40150 53009 70211 885//91145 333 10301 20240 30232 567// 58035 70000 88606
AAXX 23121 76750 32560 73202 10236 20229 30147 40157 5//// 87700 91150333 10328 20230 30225 56200 58024 70000 87920
AAXX 23121 76773 32930 01801 10084 20049 38430 40158 52004 91146 33310290 20080 30/// 50331 55100 58016 70000
AAXX 23121 76775 31960 00701 10120 20077 38535 40167 52010 70200 91145333 10316 20115 30/// 58021 70000
AAXX 23121 76840 32901 00305 10276 20215 30058 40113 5//// 80000 91145333 10360 20188 30/// 56000 58007 70000 80000
AAXX 23121 76845 31/10 90000 10072 20068 37959 40231 5//// 74244 98///91145 333 10234 20058 30046 58019 70000 98///
AAXX 23121 76848 32250 23601 10124 20111 38392 40118 51011 82600 91150333 10276 20124 30090 56100 58023 70000 82705
AAXX 23121 76243 32970 03602 10048 20027 39976 40296 54000 91135 33310220 20030 30024 58112 70000
AAXX 23121 76311 32920 00000 10042 20036 39896 40183 51006 91155 33310267 20040 30030 58007 70000
AAXX 23121 76405 32940 23604 10175 20115 30168 40190 52006 82030 91150333 10224 20150 30135 58020 70000 82356
AAXX 23121 76412 32960 00000 10100 20077 30132 40179 52003 91145 33310278 20090 30/// 58000 70000
AAXX 23121 76640 31110 70403 10196 20190 30179 40191 52010 70222 8427/91145 333 10264 20192 30190 5699/ 58072 70003 84802 83345
AAXX 23121 76741 31240 33203 10237 20223 30127 40146 52008 70120 8310091135 333 10286 20221 30218 568// 58046 70000 83805
AAXX 23124 78970 11470 10410 10282 20215 30110 40135 69931 70511 81800 333 01200 10295 20249 58003 70034 81818 90970
AAXX 23124 48698 01462 70208 10266 20254 30048 40066 60011 72586 84878 333 10292 50130 55006 69947 81613 83640 85277
AAXX 23124 48698 01462 70208 10266 20254 30048 40066 60011 72586 84878 333 10292 50130 55006 69947 81613 83640 85277
AAXX 23124 78583 32470 41004 10251 20240 40151 60001 83802 333 01303 10300 20/// 58021 83815 83076
AAXX 23123 91487 NIL
AAXX 23123 91490 NIL
AAXX 23123 91533 NIL
AAXX 23123 91601 NIL
AAXX 23123 91610 11499 40711 10261 20233 40051 58001 69901 70282 84300 333 10///
AAXX 23123 561//
AAXX 23123 91623 NIL
AAXX 23123 91629 NIL
AAXX 23123 91701 NIL
AAXX 23121 10004 46/60 /2211 10093 20081 30132 40132 58018 222// 00079 333 55300 91113 91211
AAXX 23124 71805 04984 63108 10008 21016 30165 40174 51021 60001 700// 333 60007 90710 91112 555 60005
BBXX SHIP 23124 99427 70438 41696 82045 10168 20136 40200 55010 70542 8771/ 22262 04170 20812 320// 41212 80150
BBXX 61001 23124 99434 10078 46/// /2204 10134 20088 40234 57004 22200 00146 10701 70007
BBXX A8UQ3 23123 99158 70176 41997 41012 10255 20172 40180 50010 70211 83036 22283 00240 21004 305// 41205 80200
AAXX 23123 91487 NIL
AAXX 23123 91490 NIL
AAXX 23123 91533 NIL
AAXX 23123 91601 NIL
AAXX 23123 91610 11499 40711 10261 20233 40051 58001 69901 70282 84300 333 10///
AAXX 23123 561//
AAXX 23123 91623 NIL
AAXX 23123 91629 NIL
AAXX 23123 91701 NIL
AAXX 23124 16021 12989 02808 10016 21062 38031 48547 51007 60001 333 92842
AAXX 23124 16022 12984 03610 10012 21049 37891 48528 58001 60001 333 55310 92835
AAXX 23124 16033 12975 02604 10014 21012 38805 48508 53002 60001 333 92802
AAXX 23124 16040 12965 01803 10016 21007 39312 42832 58007 60001 333 92850
AAXX 23124 16052 12986 00412 11066 21101 36683 47125 52003 60001 333 55310
AAXX 23124 16061 12962 00000 10050 20013 39399 42840 50001 60001 333 55310
AAXX 23124 16098 12982 01203 10068 20009 30201 40253 58006 60001
AAXX 23124 16138 12962 00000 10050 21015 30247 40258 58003 60001
AAXX 23124 16148 12975 03601 10069 20016 30240 40252 58012 60001 333 55310
AAXX 23124 16168 12984 00403 10120 21074 39475 42831 51009 60001
AAXX 23124 16172 12970 00000 10076 21058 39945 40249 58003 60001
AAXX 23124 16179 12980 00102 10042 20004 39554 42836 50003 60001 333 92851
AAXX 23124 16224 12970 00310 10122 20008 39890 40208 50000 60001 333 55310
AAXX 23124 16232 12597 72930 10110 20067 30154 40208 58003 60001 87200 333 55304 83823 85826 555 0657/
AAXX 23124 16245 12984 03508 10128 20015 30180 40206 58003 60001
AAXX 23124 16253 12572 10701 10134 21034 30184 40196 58007 60001 81100 333 55310 81830
AAXX 23124 16258 12470 13529 10020 21033 39168 42775 50008 60001 81500 333 81610
AAXX 23124 16263 12268 63218 10014 21007 38923 48481 51012 60001 86200 333 86604 92802
AAXX 23124 16294 NIL
AAXX 23124 16337 NIL
AAXX 23124 16344 NIL
AAXX 23124 16434 12468 40419 10044 21010 38966 48467 50008 60001 84200 333 84815 95010 95100
AAXX 23124 16450 12264 72204 10054 20034 39059 48520 51007 60001 87700 333 84704 85807
AAXX 23124 16459 12560 22904 10150 20001 30122 40157 51009 60001 82200 333 82620
AAXX 23124 16546 12975 03305 10132 20051 30199 40228 58007 60001
AAXX 23124 16564 12998 00000 10164 20076 30081 40222 58006 60001 555 0100/
AAXX 23124 13600 12970 00412 10092 21030 30131 40183 54003 60001
AAXX 23124 13610 12460 53618 10026 21039 39787 40223 52008 60001 85500 333 85616
AAXX 23124 13611 12965 03204 10092 20023 30050 40141 52005 60001
AAXX 23124 13619 12665 53206 10010 21019 39434 42814 52029 60001 85500 333 85643
AAXX 23124 13622 12670 20404 10098 21001 30120 40127 54002 60001 82200 333 82840
AAXX 23124 13624 12970 11804 10142 21002 30095 40134 54001 60001 81030 333 81360
AAXX 23124 13625 NIL
AAXX 23124 13629 12666 13206 10012 21025 39097 42754 52014 60001 81500 333 81640
AAXX 23124 13601 12668 13606 10118 21031 30030 40130 52009 60001 81400 333 81646
AAXX 23124 13602 NIL
AAXX 23124 13623 12970 03606 10090 21085 30182 40188 54003 60001
AAXX 23124 16008 12970 03606 10042 21033 38584 48541 50004 60001 333 92811
AAXX 23124 16084 12962 00603 10040 21020 30088 40261 50004 60001 333 55310
AAXX 23124 16088 12970 02003 10072 20006 30147 40268 58001 60001
AAXX 23124 16110 12998 03203 10100 20021 30238 40243 58007 60001 333 55310 555 0100/
AAXX 23124 16134 12984 03210 10018 21063 37860 48538 51002 60001 333 55310 92845
AAXX 23124 16153 NIL
AAXX 23124 16158 12970 01304 10088 21002 30241 40248 56003 60001 333 55310
AAXX 23124 16206 12980 03609 10125 21014 30223 40232 57011 60001
AAXX 23124 16219 42465 30358 11012 21015 38110 48500 51010 6///1 83400 333 55310 83610
AAXX 23124 16252 12262 73315 10032 21010 39261 42816 51010 60001 84230 333 55300 81805 83610 85357
AAXX 23124 16280 12998 03506 10130 20052 39978 40200 52008 60001 333 55310 555 0328/
AAXX 23124 16310 12598 12006 10120 21022 39940 40162 50001 60001 81100 333 55310 81830 555 0215/
AAXX 23124 16320 12560 50214 10110 20058 30155 40167 51005 60001 85000 333 55310 82820 84630 555 0321/
AAXX 23124 16325 12598 33318 10110 20026 30156 40170 51004 60001 83500 333 83625 98070 555 0432/
AAXX 23124 16360 12998 00125 10106 20012 39999 40134 51002 60001 333 55310 555 0428/
AAXX 23124 16400 12498 20205 10144 20023 39911 40199 50003 60001 82100 333 55310 82817 555 0438/
AAXX 23124 16420 12597 40406 10126 20019 30104 40169 52004 60001 84800 333 55310 81830 83640 555 0218/
AAXX 23124 16429 12570 10114 10140 20040 30184 40196 58001 60001 81100 333 55310 81830
AAXX 23124 16470 12560 33517 10134 20091 39959 40196 50001 60001 83500 333 55310 22/// 83623 95000
AAXX 23124 16480 12498 40206 10132 20033 30094 40155 51004 60001 83230 333 55310 83815 555 0200/
AAXX 23124 16522 12998 00000 10140 20100 39990 40234 51007 60001 333 55310 555 0200/
AAXX 23124 16539 NIL
AAXX 23124 16550 12998 00413 10132 20072 30034 40214 50003 60001 333 55310 555 0200/
AAXX 23124 61766 31959 80607 10262 20040 30084 40127 70522 80001 333 0//00 58001 88075
AAXX 23124 61769 31958 73604 10262 20072 3//// 4//// 70522 80001 333 0//00 5//// 87075
AAXX 23124 16045 NIL
AAXX 23124 16090 12960 01803 10080 21007 30170 40255 58008 60001 333 55310
AAXX 23124 16149 NIL
AAXX 23124 16261 12570 23126 10108 20008 30124 40198 50004 60001 82500 333 55310 82630
AAXX 23124 16453 12597 40411 10146 21007 30092 40170 58001 60001 82130 333 55310 82821 84357 555 0215/
AAXX 23124 16560 12970 03109 10140 20037 30223 40230 58004 60001 333 55310
AAXX 23121 11782 01450 82304 10004 20000 39914 40229 57017 69901 72272 886// 333 69905 88711
AAXX 23121 01492 16/// /2601 10037 20033 39877 49994 57013 6//// 333 91103
AAXX 23121 01098 41280 81921 10016 21011 39872 49890 56049 70222 886// 333 91127
AAXX 23121 01447 16/// /3601 10012 20009 39341 40009 58006 60001 333 91103
AAXX 23124 61980 11560 71113 10267 20212 40150 60001 71522 878// 333 58002 82826 86640 90710 91119 92437 555 60005
AAXX 23124 67005 12580 21810 10311 20237 40113 60001 82200 333 58007 82825 90710 91114 555 60005
AAXX 23124 48300 32560 10602 10238 20188 39783 40095 52013 81100 333 10280 59015
AAXX 23124 48327 32560 40000 10250 20180 39758 40113 52010 82535 333 10296 59012
AAXX 23124 48331 32562 20000 10245 20183 39882 40113 52016 81141 333 10307 59010
AAXX 23124 48353 31956 00000 10232 20172 39829 40120 52016 71000 333 10278 58002
AAXX 23124 48356 31956 20902 10230 20157 39936 40135 52020 70510 81031 333 10284 59001
AAXX 23124 48375 32960 40000 10262 20180 39860 40085 52014 80006 333 10315 59014
AAXX 23124 48378 31956 40000 10261 20206 30049 40102 51009 71022 81045 333 10307 59018
AAXX 23124 48381 32960 40404 10250 20166 39899 40116 52011 80006 333 10289 59004
AAXX 23124 48407 31958 80307 10243 20168 39967 40109 51019 70522 81047 333 10316 59002
AAXX 23124 48431 NIL
AAXX 23124 48456 NIL
AAXX 23124 48480 31957 10305 10271 20207 30071 40075 52007 71000 80001 333 10325 59018
AAXX 23124 48500 NIL
AAXX 23124 48551 31550 60303 10270 20241 30064 40072 52011 71022 82876 333 10305 59011 70523
AAXX 23124 48565 32460 70904 10290 20243 30047 40057 52014 83246 333 10324 59015
AAXX 23124 48569 01458 80000 10249 20209 30040 40080 52018 60062 76022 8487/ 333 10310 59005 60065 70057
AAXX 23124 48583 11559 81003 10274 20235 30073 40079 52009 60012 71022 82256 333 10297 59010 70074
AAXX 23124 48302 31558 31003 10150 20132 38470 40108 52007 71011 82806 333 10179 59010
AAXX 23124 48304 32560 40000 10216 20182 39651 40114 52011 81135 333 10279 59015
AAXX 23124 48334 31558 40000 10235 20196 39748 40110 52013 71011 82545 333 10295 59004
AAXX 23124 48360 32957 20705 10238 20177 39855 40116 52001 80005 333 10280 59011
AAXX 23124 48372 NIL
AAXX 23124 48373 31958 20000 10262 20206 30036 40098 52006 71000 80001 333 10303 59013
AAXX 23124 48386 NIL
AAXX 23124 48387 NIL
AAXX 23124 48408 32960 70202 10240 20176 39959 40109 52017 80006 333 10322 59003
AAXX 23124 48415 31958 50506 10285 20194 30075 40086 52011 70511 81045 333 10325 59021
AAXX 23124 48433 31957 30104 10258 20191 39942 40108 52013 71021 80006 333 10298 59005
AAXX 23124 48437 32960 20000 10245 20190 39903 40114 52012 80005 333 10300 59006
AAXX 23124 48440 31958 30000 10253 20212 30042 40091 52006 71021 80005 333 10297 59007
AAXX 23124 48451 32960 60000 10261 20211 30083 40094 52006 80005 333 10297 59014
AAXX 23124 48454 32960 30503 10301 20196 30079 40086 52012 80005 333 10326 59011
AAXX 23124 48457 31558 30510 10283 20202 30070 40087 52006 70511 81501 333 10285 59010
AAXX 23124 48463 31958 50412 10287 20188 39996 40088 52008 70521 80006 333 10347 59023
AAXX 23124 48464 31957 30303 10275 20198 30070 40082 53001 70511 80004 333 10312 59007
AAXX 23124 48479 31556 40000 10270 20226 30034 40085 52010 71011 81506 333 10333 59010
AAXX 23124 48520 31959 40000 10260 20215 30073 40088 52013 71011 80005 333 10299 59003
AAXX 23124 48554 12460 80000 10263 20256 30070 40074 52007 60072 83857 333 10297 59016 70150
AAXX 23124 48563 32560 51004 10273 20230 30028 40063 52013 82255 333 10322 59010
AAXX 23124 48571 01559 70808 10250 20229 30061 40072 52014 60022 76062 82876 333 10303 59007 60015 70026
AAXX 23121 45007 12950 10506 10148 20057 30210 40219 52020 60002 80001 333 10174 58027 81080
AAXX 23124 48601 11559 83503 10262 20250 30062 40066 69961 72162 83538 333 10296 83623 84364 87276
AAXX 23124 48615 11462 70811 10271 20230 30076 40082 60001 70522 83542 333 10290 81710 83620 87074
AAXX 23124 48620 11361 70501 10245 20241 30058 40067 60171 76162 83548 333 10295 81709 83629 87276
AAXX 23124 48647 11240 83107 10255 20249 30048 40073 60181 76366 85957 333 10319 82705 81917 83625 88275
AAXX 23124 48650 11459 73406 10258 20245 30052 40071 60011 71322 83948 333 10294 81917 83630 86277
AAXX 23124 48657 11456 73504 10257 20244 30059 40077 69901 76162 85548 333 10294 81710 84622 87276
AAXX 23124 48665 11462 73606 10261 20244 30066 40076 69901 76086 83542 333 10287 81712 83628 86077
AAXX 23124 96413 11558 73504 10239 20232 30049 40076 60891 76198 8552/ 333 10331 85620 87465
AAXX 23124 96421 11465 71402 10247 20235 30030 40066 60101 71392 84931 333 10320 81915 83618 85365
AAXX 23124 96441 12468 70904 10255 20239 30039 40066 60001 83531 333 10315 83616 85365
AAXX 23124 96449 11465 70703 10252 20247 30047 40066 69961 70362 83531 333 10315 83614 85365
AAXX 23124 96465 12470 73603 10279 20241 30036 40069 60001 82842 333 10317 82812 87279
AAXX 23124 96471 12468 70103 10283 20238 30067 40070 60001 82848 333 10324 81814 83364 87277
AAXX 23124 96481 11462 70704 10276 20249 30041 40060 69921 72582 82841 333 10335 81817 83364 86080
AAXX 23124 96491 12465 70305 10280 20241 30058 40070 60001 82832 333 10305 81816 83364 87078
AAXX 23121 45032 36/// /0002 10121 20046 30207 40224 52001
AAXX 23121 45035 36/// /0605 10129 20060 30180 40223 52004
AAXX 23121 45039 36/// /0204 10131 20060 30202 40218 52001 333 91109
AAXX 23121 45044 36/// /0107 10133 20066 30116 40212 52001
AAXX 23124 48310 32560 60000 10229 20196 39658 40115 52012 84536 333 10285 59016
AAXX 23124 48325 32660 40000 10260 20207 39848 40090 52014 82545 333 10320 59014
AAXX 23124 48329 31957 00000 10245 20190 39765 40104 52011 71000 333 10301 59011
AAXX 23124 48352 NIL
AAXX 23124 48357 31958 40604 10223 20145 39971 40142 52021 70511 80006 333 10285 58001
AAXX 23124 48380 32960 40000 10259 20223 30010 40104 51007 80006 333 10303 59012
AAXX 23124 48383 31957 40606 10220 20153 39971 40133 52023 71021 80006 333 10277 58003
AAXX 23124 48403 31956 60405 10257 20181 39901 40111 52015 70522 81046 333 10294 59001
AAXX 23124 48405 NIL
AAXX 23124 48420 31957 40604 10272 20202 30080 40085 52008 71011 80006 333 10312 59014
AAXX 23124 48421 31957 20000 10263 20226 39976 40089 52013 71000 80005 333 10330 59013
AAXX 23124 48425 31950 40603 10277 20202 30085 40095 52008 70521 80006 333 10312 59013
AAXX 23124 48426 31958 30202 10289 20183 30079 40092 52012 70511 80005 333 10323 59016
AAXX 23124 48429 32560 40804 10285 20193 30082 40089 52005 81145 333 10314 59012
AAXX 23124 48430 31959 30605 10278 20197 30085 40092 52014 70521 82045 333 10330 59008
AAXX 23124 48450 31958 20000 10278 20191 30059 40092 52012 70500 80005 333 10323 59012
AAXX 23124 48459 32960 00602 10290 20202 30080 40082 52012 333 10330 59014
AAXX 23124 48465 31958 40603 10274 20212 30081 40085 52007 71011 80006 333 10307 59015
AAXX 23124 48550 11558 70806 10278 20228 30066 40072 52006 69902 71062 82176 333 10301 59010 70008
AAXX 23124 48552 01458 70000 10254 20239 30066 40073 52010 60182 72166 83236 333 10304 59014 60037 70180
AAXX 23124 48566 32560 40506 10278 20226 30059 40067 52015 82145 333 10324 59002
AAXX 23124 48568 01456 81403 10256 20244 30065 40073 52012 60102 76162 8582/ 333 10303 59011 60097 70107
AAXX 23121 45007 12950 10506 10148 20057 30210 40219 52020 60002 80001 333 10174 58027 81080
AAXX 23121 45032 36/// /0002 10121 20046 30207 40224 52001
AAXX 23121 45035 36/// /0605 10129 20060 30180 40223 52004
AAXX 23121 45039 36/// /0204 10131 20060 30202 40218 52001 333 91109
AAXX 23121 45044 36/// /0107 10133 20066 30116 40212 52001
AAXX 23121 06206 46566 82212 10097 20069 30073 40126 58021 8//// 333 88/28 91014 91116 91213
AAXX 23121 06207 45561 8//14 10080 20061 30077 40130 58026 8//// 333 82/31 88/36 91016 91116 91214
AAXX 23121 06239 47465 8//14 10096 20073 3//// 4//// 5//// 72300 8//// 333 81/10 88/25 91017 91117 91214
AAXX 23121 06252 46/// /2212 10103 20081 30084 40130 58025 222// 00098 10504 333 91014 91115 91212
AAXX 23121 06260 17359 82206 10102 20088 30176 40178 58021 69911 72381 8//// 333 81/07 84/08 87/10 91010 91111 91206
AAXX 23121 06270 17358 82306 10091 20080 30154 40154 58019 60001 71000 8//// 333 82/08 84/10 87/23 91008 91110 91207
AAXX 23121 06290 17218 82105 10093 20091 30140 40180 58021 69911 75281 8//// 333 82/04 85/06 88/07 91008 91109 91205
AAXX 23121 06201 47447 82210 10085 20073 30051 40103 58020 75210 8//// 333 81/10 85/17 87/20 91012 91120 91216
AAXX 23121 06203 47260 82212 10100 20088 30102 40153 58025 70285 8//// 333 83/06 84/08 85/10 91014 91115 91212
AAXX 23121 06204 45571 82213 10104 20081 30085 40136 58024 8//// 333 84/31 88/36 91015 91115 91213
AAXX 23121 06205 47361 82313 10088 20071 30024 40083 58018 70285 8//// 333 81/08 86/14 88/17 91015 91116 91214
AAXX 23121 06208 45565 82209 10089 20073 30102 40151 58018 8//// 333 87/28 88/32 91011 91112 91209
AAXX 23121 06211 45466 82113 10094 20071 30064 40120 58021 8//// 333 85/19 88/34 91016 91117 91214
AAXX 23121 06212 47261 82210 1//// 2//// 30088 40151 58021 78151 8//// 333 81/06 84/15 86/22 91012 91114 91212
AAXX 23121 06235 17257 82209 10089 20080 30154 40154 58022 60001 71000 8//// 333 87/04 88/05 91013 91113 91209
AAXX 23121 06240 17276 82209 10101 20094 30176 40171 58022 69911 72380 8//// 333 82/06 84/08 86/10 91012 91112 91209
AAXX 23121 06251 15461 82106 10078 20074 30146 40147 58021 60001 8//// 333 81/10 84/27 88/31 91008 91110 91208
AAXX 23121 06258 46/// /2208 333 91010 91111 91210
AAXX 23121 06269 17357 82307 10098 20088 30176 40170 58021 60001 71010 8//// 333 84/07 87/08 88/10 91011 91111 91207
AAXX 23121 06280 17256 82305 10092 20087 30157 40161 58018 69911 72381 8//// 333 81/05 83/06 86/07 91007 91110 91207
AAXX 23121 06310 15570 82110 10094 20075 30178 40188 58017 60001 8//// 333 84/29 88/33 91012 91112 91210
AAXX 23121 06344 17474 82208 10102 20088 30184 40177 58021 69921 72281 8//// 333 82/10 83/13 87/31 91011 91113 91209
AAXX 23121 06370 17265 82205 10102 20095 30170 40196 58017 69911 72281 8//// 333 81/05 85/13 86/16 91008 91109 91207
AAXX 23121 06380 17369 82207 10092 20079 30069 40209 58021 69901 70281 8//// 333 83/07 88/08 91010 91110 91207
AAXX 23124 91574 46/// ///// 29093 30037 40043 56028
AAXX 23124 91570 NIL
AAXX 23124 91598 NIL
AAXX 23124 91573 06/// /0417 10259 20234 39965 40061 58001 60014 333 20248 59043 60007
AAXX 23124 91577 06/// /0202 10234 20205 30042 40063 58004 60014 333 20233 59037 60007
AAXX 23124 91579 06/// /0912 10258 20212 30075 40083 50002 60004 333 20258 59027 60007
AAXX 23124 91582 04570 81012 10254 20217 30051 40085 50001 60001 700// 333 60007 90710 91122 555 60005
AAXX 23124 91583 06/// /1704 10237 20216 30070 40085 58002 60124 333 20224 59024 69947
AAXX 23124 91587 06/// /1008 10246 20192 30050 40095 50002 60004 333 20245 59022 60007
AAXX 23124 91590 04969 81201 10213 20201 30043 40086 58007 60041 700// 333 60037 90710 91109 555 69945
AAXX 23124 91592 06/// /0514 10241 20194 30010 40095 50000 60004 333 20244 59030 60007
AAXX 23124 91596 06/// /0914 10239 20188 39995 40104 50000 69944 333 20234 59024 60007
AAXX 23124 48307 31958 20000 10226 20195 39738 40120 52016 71000 80005 333 10308 59014
AAXX 23124 48324 32560 20501 10233 20197 39887 40108 52011 81105 333 10300 59009
AAXX 23124 48333 31958 00000 10230 20180 39811 40114 52013 71000 333 10292 59010
AAXX 23124 48350 NIL
AAXX 23124 48355 31956 00000 10220 20162 39911 40133 50019 71000 333 10285 58004
AAXX 23124 48358 NIL
AAXX 23124 48384 NIL
AAXX 23124 48401 31958 20000 10281 20197 39997 40103 52013 70500 80005 333 10314 59014
AAXX 23124 48404 31958 30807 10241 20172 39937 40116 53017 70522 80005 333 10282 59004
AAXX 23124 48409 NIL
AAXX 23124 48419 31559 60902 10294 20222 30082 40090 56002 71022 82545 333 10320 59009
AAXX 23124 48427 31957 20000 10259 20207 30085 40093 52008 71000 80005 333 10309 59012
AAXX 23124 48435 31958 20000 10240 20174 39666 40104 52013 71011 80001 333 10290 59008
AAXX 23124 48453 32960 60000 10294 20207 30082 40085 52011 81036 333 10326 59015
AAXX 23124 48458 32960 10000 10264 20203 30026 40107 52010 80001 333 10305 59006
AAXX 23124 48474 31956 20000 10265 20199 39964 40087 52013 71020 80005 333 10323 59009
AAXX 23124 48481 31958 22802 10283 20204 30050 40078 52007 70500 80001 333 10331 59021
AAXX 23124 48555 01557 70000 10255 20225 30062 40105 52010 69942 76022 83876 333 10315 59003 69945 70314
AAXX 23124 48556 01560 60000 10275 20233 30054 40070 52013 69902 70262 82246 333 10320 59013 69907 70008
AAXX 23124 48557 01558 60000 10263 20249 30039 40074 52010 60012 71062 85806 333 10328 59011 69907 70065
AAXX 23124 48560 31558 80802 10272 20243 30065 40070 52006 71022 82876 333 10300 59011 70019
AAXX 23124 48574 NIL
AAXX 23124 48581 31557 60804 10266 20241 30038 40079 52015 71022 82876 333 10310 59010 70024
BBXX DDLK 23123 99478 70242 41698 42718 10120 20083 40375 53015 70311 83538 22224 20404 327// 40606 80100
BBXX 41010 23121 99289 70785 46/// /2104 10233 40214 53005 91150 22200 00238 10803 20401 300// 40803 70015 333 91205 555 11043 22045
BBXX 41009 23121 99285 70802 46/// /1806 10241 20206 40211 53006 91150 22200 00242 10702 20501 300// 40702 70010 333 91207 555 11061 22064
BBXX 42057 23121 99168 70815 46/// /0811 10278 20225 40141 52008 91150 22200 00276 10705 20604 3//// 40703 70023 333 91214 555 11111 22119 31110 40815 61149 076112 076115 075118 077121 078126 076122 80814 91110
BBXX 42363 23121 99282 70892 46/// /0210 10194 20150 40207 53007 91200 333 91210
BBXX 42364 23121 99291 70881 46/// /0109 10172 20144 40210 53013 91200
BBXX 44011 23121 99411 70666 46/// /1309 10095 20093 40094 58056 91150 22200 00095 10804 20402 3//// 40803 70018 333 91210 555 11091 22097 31107 43012 61149 126085 120089 117092 116093 114099 115093
BBXX 41046 23121 99238 70683 46/// /0911 10237 20201 40226 53015 91150 22200 00254 10805 20704 300// 40803 70024 333 91214 555 11116 22123 31142 41014 61149 094110 091090 087084 088086 086083 091082 81012 91143
BBXX TBWUK03 23123 99201 70200 41997 00819 10214 20135 40213 51008 70200 80000 22253 20603 335// 40803 5//// 80165
AAXX 23121 10044 46/// /2310 10087 20071 30106 40138 58015 222// 00044 333 55300 91113 91211
AAXX 23121 10124 46/// ///// 10081 2//// 30106 40144 58017 222// 00054 333 553// 911// 912//
BBXX DGPT2 23124 99256 70201 41498 21623 10220 20183 40255 52015 70200 821// 22213 00210 20604 80195
BBXX DBBH 23121 99376 70010 41/98 /3501 10158 20092 40273 58009 7//// 22200 04164
BBXX DEGI 23123 99283 70129 41998 10416 10185 20162 40290 51010 70200 81060 22253 04181 29902 80170
AAXX 23123 91551 31598 70000 10265 20251 40058 51003 70222 879// 333 10315 569// 59020 84820 81925 87640
AAXX 23123 91553 11598 79902 10265 20244 40063 58001 60044 70225 879// 333 10310 569// 59022 60044 85820 81925 87640
AAXX 23123 91554 NIL
AAXX 23123 91555 11598 70907 10264 20250 40063 51005 60071 72992 879// 333 10306 5629/ 59023 60071 83823 81924 87640
AAXX 23123 91557 31598 80607 10264 20238 40048 51002 70222 8687/ 333 10/// 5629/ 59028 84820 86640 88461
AAXX 23123 91565 31598 70906 10262 20222 40068 52008 70222 8397/ 333 10295 5629/ 59021 82822 81925 87461
AAXX 23123 91568 NIL
AAXX 23124 48601 11559 83503 10262 20250 30062 40066 69961 72162 83538 333 10296 83623 84364 87276
AAXX 23124 48615 11462 70811 10271 20230 30076 40082 60001 70522 83542 333 10290 81710 83620 87074
AAXX 23124 48620 11361 70501 10245 20241 30058 40067 60171 76162 83548 333 10295 81709 83629 87276
AAXX 23124 48647 11240 83107 10255 20249 30048 40073 60181 76366 85957 333 10319 82705 81917 83625 88275
AAXX 23124 48657 11456 73504 10257 20244 30059 40077 69901 76162 85548 333 10294 81710 84622 87276
AAXX 23124 48665 11462 73606 10261 20244 30066 40076 69901 76086 83542 333 10287 81712 83628 86077
AAXX 23124 96413 11558 73504 10239 20232 30049 40076 60891 76198 8552/ 333 10331 85620 87465
AAXX 23124 96421 11465 71402 10247 20235 30030 40066 60101 71392 84931 333 10320 81915 83618 85365
AAXX 23124 96441 12468 70904 10255 20239 30039 40066 60001 83531 333 10315 83616 85365
AAXX 23124 96449 11465 70703 10252 20247 30047 40066 69961 70362 83531 333 10315 83614 85365
AAXX 23124 96465 12470 73603 10279 20241 30036 40069 60001 82842 333 10317 82812 87279
AAXX 23124 96471 12468 70103 10283 20238 30067 40070 60001 82848 333 10324 81814 83364 87277
AAXX 23124 96481 11462 70704 10276 20249 30041 40060 69921 72582 82841 333 10335 81817 83364 86080
AAXX 23124 96491 12465 70305 10280 20241 30058 40070 60001 82832 333 10305 81816 83364 87078
AAXX 23121 03951 17541 /3213 10054 20023 30196 40223 52042 60021 76286 84/// 333 84/22 90710 91119
AAXX 23121 03953 11580 73109 10073 20019 30193 40230 52033 60011 78082 873// 333 85920 83631 92448 90710 91120
AAXX 23121 03955 11475 12907 10054 20023 30002 40203 52028 60041 72586 81302 333 81713 81917
AAXX 23121 03956 17571 /2803 10059 20036 30093 40171 51032 60061 72286 85/// 333 83/27 85/49 87/60
AAXX 23121 03962 11580 32908 10060 20027 30171 40195 52029 69961 72586 83330 333 81920 83825
AAXX 23121 03963 17/65 /2912 10064 20014 30165 40194 52032 69911 78185 333 90710 91123 91219 91319 90402 91312
AAXX 23121 03966 17481 /3006 10051 20026 30091 40185 52031 69911 7818/ 87/// 333 81/19 83/26 85/34
AAXX 23121 03967 32483 42807 10057 20034 30041 40156 53015 81610 333 81719 84463
AAXX 23121 03969 11475 72808 10058 20037 30047 40152 51016 69901 70262 8167/ 333 81712 87362
AAXX 23121 03973 11481 12908 10041 20010 39916 40175 51025 69961 72581 81900 333 81918
AAXX 23121 03976 11569 62911 10070 20032 30168 40180 51027 69911 71581 869// 333 85920 81820 96483 90710 91119
AAXX 23121 03980 17667 /2912 10068 20006 30102 40127 52014 69941 7025/ 81/// 333 81/43
BBXX 46089 23121 99459 71258 46/// /2203 10098 20097 40301 51018 91150 22200 00093 11406 20401 329// 41405 70028 333 91204 555 11033 22038 31149 42405 61149 218030 211032 210034 214036 218039 221042
BBXX 51101 23121 99243 71621 46/// /0809 10226 20188 40210 50000 91150 22200 00238 10805 20804 333// 41103 70025 333 91212 555 11098 22103 31135 40614 61149 078093 066099 061099 068099 073102 070079
BBXX 46061 23121 99602 71468 46/// /3403 11008 49836 53060 91150 22200 00056 11203 20401 300// 41203 70017 333 91204 555 11031 22032 31055 43406 61149 348030 001030 010035 353027 350037 340044
BBXX 46083 23121 99582 71380 46/// /3111 10035 21005 49986 51092 91150 22200 00068 11211 20506 300// 41209 70054 333 91215 555 11122 22130 31108 42916 61149 307113 286103 286100 289114 287128 296105 82814 91106
AAXX 23124 78982 02482 30714 10272 20230 30128 40133 52018 60001 83201 333 10298 20255 58005 60007 70022 83818
AAXX 23124 78700 32578 73604 10260 20224 30125 40130 81106 333 10358 20250 30/// 59009 70000 81828 87075
AAXX 23124 78703 31464 60812 10262 20232 30145 40147 705/// 84470 333 10294 20262 30/// 56200 58014 84817 85358
AAXX 23124 78704 31570 50906 10260 20235 30145 40150 705// 84230 333 10304 20240 30/// 56200 58024 70000 84822
AAXX 23124 78705 31568 61002 10217 20207 30130 40148 53014 70544 83231 333 10288 20214 30/// 56000 58023 83828 85358
AAXX 23124 78706 31568 52607 10220 20220 30150 40155 710/// 83170 333 10307 20216 30/// 56100 58000 70000 83826 84458
AAXX 23124 78707 NIL
AAXX 23124 78708 31560 72304 10222 20221 30116 40147 53011 70544 82532 333 10308 20221 30/// 56000 58020 70000 82625 84358
AAXX 23124 78711 NIL
AAXX 23124 78714 12568 81204 10216 20210 60011 8452/ 333 10293 20216 31/// 56399 84625 88457
AAXX 23124 78717 31560 50000 10162 20159 38963 40143 5//// 710// 83560 333 10250 20152 30/// 56100 58019 70000 83625
AAXX 23124 78718 31560 33604 10196 705// 81431 333 10302 20176 30/// 56800 70000 81830
AAXX 23124 78719 32460 70404 10160 20151 38355 40121 86401 333 10232 20132 30/// 56100 58011 70000 86618
AAXX 23124 78720 31258 50105 10188 20186 39042 40140 52011 70544 86500 333 10207 20186 30/// 56100 58011 79999 81706 85620
AAXX 23124 78724 32578 70508 10272 20207 30050 40107 5//// 81570 333 10340 20260 30/// 56100 58016 70000 81630 87458
AAXX 23123 91551 31598 70000 10265 20251 40058 51003 70222 879// 333 10315 569// 59020 84820 81925 87640
AAXX 23123 91553 11598 79902 10265 20244 40063 58001 60044 70225 879// 333 10310 569// 59022 60044 85820 81925 87640
AAXX 23123 91554 NIL
AAXX 23123 91555 11598 70907 10264 20250 40063 51005 60071 72992 879// 333 10306 5629/ 59023 60071 83823 81924 87640
AAXX 23123 91557 31598 80607 10264 20238 40048 51002 70222 8687/ 333 10/// 5629/ 59028 84820 86640 88461
AAXX 23123 91565 31598 70906 10262 20222 40068 52008 70222 8397/ 333 10295 5629/ 59021 82822 81925 87461
AAXX 23123 91568 NIL
BBXX 51000 23121 99235 71541 46/// /0809 10222 40202 58004 91150 22200 00230 10905 20503 310// 40904 70026 333 91211 555 11098 22104 31119 40712 61149 074092 072091 070092 071093 073095 076091
AAXX 23121 11423 01/02 92606 10028 20027 39338 42825 58012 69931 75154 333 69905 89/01 91111
OOXX AAUNI 23124 99798 50833 56093 07671 46/// /2212 11051 21116 39041 49925 52009 91200
AAXX 23124 89532 42/80 61808 10021 21017 39832 49859 51002 81502 333 10035 21015
BBXX 44008 23121 99405 70692 46/// /2212 10156 20151 40066 56052 91150 22200 00117 10803 20502 322// 40802 70013 333 91214 555 11127 22140 31147 42214 61149 219114 211070 153041 097053 092068 087077
BBXX 44172 23121 99445 70634 46/// ///// 1//// 91201 22200 00064 11005 21004 320// 41103 70024
BBXX 44097 23121 99410 70711 46/// ///// 1//// 91202 22200 00115 10903 20903 322// 41101 70017
BBXX 46232 23121 99325 71174 46/// ///// 1//// 91138 22200 00150 11302 21001 328// 41302 70010
BBXX 46247 23121 99378 71228 46/// ///// 1//// 91151 22200 00118 11302 20902 328// 41302 70012
BBXX 46243 23121 99462 71241 46/// ///// 1//// 91159 22200 00082 11404 20603 326// 41402 70020
BBXX 46236 23121 99368 71219 46/// ///// 1//// 91150 22200 00124 11203 20902 328// 41202 70015
BBXX 46237 23121 99378 71226 46/// ///// 1//// 91140 22200 00108 11102 21001 327// 41102 70011
BBXX 46229 23121 99438 71246 46/// ///// 1//// 91151 22200 00098 11503 21001 329// 41502 70013
BBXX 46225 23121 99329 71174 46/// ///// 1//// 91144 22200 00143 11301 21001 324// 41301 70007
BBXX 46213 23121 99403 71247 46/// ///// 1//// 91154 22200 00100 11103 21002 329// 41102 70013
BBXX 46215 23121 99352 71209 46/// ///// 1//// 91138 22200 00134 11303 21002 326// 41302 70013
AAXX 23124 78073 11465 70000 10220 20214 40209 60121 72582 878// 333 10278 20210 58007 70012 83815 87635 90935
AAXX 23121 01277 16/// /0000 10027 20020 60021 333 91104
AAXX 23121 01476 16/// /2310 10062 20056 30001 40008 58010 6//// 333 91113
AAXX 23121 01092 46/// /2019 10006 21026 333 91130
AAXX 23121 01262 46/// /2324 10074 20035 333 91131
AAXX 23121 01329 11120 82305 10051 20034 39943 40004 58009 60101 76366 887// 333 91115
AAXX 23121 01393 16/// /2102 10014 21004 39161 49951 58013 6//// 333 91106
AAXX 23121 01265 16/// /2702 11039 21051 39376 49962 58010 60001 333 91111
AAXX 23121 01375 16/// /2310 11010 21023 6//// 333 91116
AAXX 23121 01440 46/// /2608 11014 21015 38745 40025 53006 333 91116
AAXX 23121 01469 16/// /2803 11015 21030 39830 40004 55001 60001 333 91104
AAXX 23121 01473 41670 62901 11004 21008 39792 40001 56009 70342 86079 333 91104
AAXX 23121 01436 41261 82909 10072 20061 76162 8772/ 222// 00077 333 91118
AAXX 23121 01327 11370 72606 10035 20002 60131 70162 85724 333 91117
AAXX 23121 01015 46/// /1615 10058 20001 333 91124
AAXX 23121 01180 11560 81704 10044 20021 39721 49776 58020 60031 76162 8582/ 333 91112
AAXX 23121 01340 16/// /2904 11001 21006 39134 40002 58009 60061 333 91110
AAXX 23121 01425 16/// /3502 10025 20019 39962 40042 53009 60131 333 91109
AAXX 23121 01450 16/// /2306 10008 21016 38869 40001 55000 69971 333 91112
BBXX 46218 23121 99345 71208 46/// ///// 1//// 91202 22200 00139 11104 21003 332// 41102 70019
BBXX 51204 23121 99213 71581 46/// ///// 1//// 91152 22200 00246 10803 20803 329// 41301 70016
BBXX 51202 23121 99214 71577 46/// ///// 1//// 91139 22200 00243 10805 20804 301// 41301 70023
BBXX 44100 23121 99363 70756 46/// ///// 1//// 91152 22200 00125 10703 20703 70013
BBXX 41110 23121 99341 70777 46/// ///// 1//// 91151 22200 00142 10703 20703 70015
BBXX 42099 23121 99273 70842 46/// ///// 1//// 91157 22200 00230 10602 20602 70010
BBXX 41113 23121 99284 70805 46/// ///// 1//// 91151 22200 00217 11301 20701 307// 41301 70007
BBXX 41112 23121 99307 70813 46/// ///// 1//// 91151 22200 00167 10602 20602 312// 41101 70010
BBXX 46224 23121 99332 71175 46/// ///// 1//// 91136 22200 00145 11801 21001 320// 41801 70006
BBXX 46211 23121 99469 71242 46/// ///// 1//// 91136 22200 00083 11405 21003 327// 41404 70024
BBXX 46214 23121 99379 71235 46/// ///// 1//// 91153 22200 00117 11203 21002 328// 41202 70013
AAXX 23124 78073 11465 70000 10220 20214 40209 60121 72582 878// 333 10278 20210 58007 70012 83815 87635 90935
BBXX 44099 23121 99369 70757 46/// ///// 1//// 91152 22200 00114 10602 20602 70012
AAXX 23121 15015 02597 60801 11002 21045 39621 42818 57012 60001 86500 333 42998 60007 91002 91102
AAXX 23121 15020 01597 63502 11020 21053 30048 40256 57015 69901 70371 84270 333 43002 60007 91005 91105
AAXX 23121 15090 01596 83302 11016 21045 30158 40255 58011 69901 71072 8657/ 333 55300 0//// 20275 30269 60007 91004 91106 92600
AAXX 23121 15108 01/91 92902 11112 21112 38056 48489 58009 69911 77144 333 48016 69917 96045
AAXX 23121 15120 02597 62601 10011 21029 39735 40246 57013 60001 84570 333 55302 00293 20654 30618 60007 91002 91103
AAXX 23121 15150 02597 83402 11009 21026 30028 40250 58010 60001 8557/ 333 41998 60007 91004 91106 92870
AAXX 23121 15170 01995 82301 11065 21087 39432 42814 58012 60001 71022 8807/ 333 47005 60007 91002 91102
AAXX 23121 15200 01494 83401 11002 21015 30110 40261 57008 60001 71022 886// 333 60007 91001 91102
AAXX 23121 15230 02997 83500 11025 21056 39958 40265 57014 60001 8807/ 333 55300 00166 20315 30303 60007 91001 91101
AAXX 23121 15260 02598 81401 11046 21071 39702 40266 57011 60001 8357/ 333 43001 60007 91001 91102 95000
AAXX 23121 15280 02599 23206 11138 21218 37432 47947 58005 60001 81041 333 48043 60007 444 86224
AAXX 23121 15292 02597 83602 11027 21027 39954 40263 57015 60001 885// 333 60007 91003 91104 92600 95090
AAXX 23121 15310 02597 80204 11013 21037 30151 40241 57005 60001 8457/ 333 55300 00052 20124 30114 60007 91007 91110
AAXX 23121 15335 01496 83605 11002 21030 30219 40226 57011 60001 71022 886// 333 60007 91009 91109
AAXX 23121 15346 02597 21702 10033 21031 39936 40233 58016 60001 82100 333 60007 91004 91104 95090
AAXX 23121 15350 02997 40506 10016 21018 30113 40237 57012 60001 84070 333 60007 91008 91109
AAXX 23121 15360 02497 83611 10005 21019 30187 40202 57011 60001 886// 222// 06052 20503 333 60007 91014 91114 92447
AAXX 23121 15410 02997 03002 10034 21050 30145 40243 58016 60001 333 60007 91003 91104
AAXX 23121 15420 02997 32403 10028 21030 30121 40236 57011 60001 83030 333 55306 0//// 20857 3//// 60007 91005 91105
AAXX 23121 15450 02597 83102 10013 21014 39999 40242 58012 60001 8357/ 333 55300 00262 20489 30440 60007 91003 91104
AAXX 23121 15460 02497 80205 10007 21011 30205 40231 57010 60001 8567/ 333 43002 60007 91007 91109
AAXX 23121 15470 01996 82703 10006 20003 30110 40241 57013 60001 71022 8807/ 333 41998 60007 91004 91104
AAXX 23121 15480 02497 83506 10007 21019 30191 40209 56012 60001 8467/ 222// 06053 2//// 333 60007 91012 91114 92437
AAXX 23121 06400 11480 72008 10101 20079 30183 40194 58021 69921 70365 875// 333 81710 83625 87630 91110 91208
AAXX 23121 06428 NIL
AAXX 23121 06451 11360 72305 10094 20078 30143 40210 58017 60001 72052 875// 333 84709 86613 91109 91207
AAXX 23121 06456 11135 82306 10076 20070 39850 40219 58022 69941 75155 877// 333 84702 87704 91109 91206
AAXX 23121 06476 17008 82204 10054 20050 39559 40228 58019 69981 7//63 333 88/00 91108 91204
AAXX 23121 06479 31336 82205 10097 20085 30128 40208 58019 75022 886// 333 81707 83709 87711 91109 91206
AAXX 23121 06490 17248 82404 10066 20056 39648 40222 58019 69951 75261 333 86/03 88/04 91108 91205
AAXX 23121 06590 11228 72203 10066 20065 39779 40236 57018 69931 75152 876// 333 85704 86706 91106 91204
AAXX 23121 06431 NIL
AAXX 23121 06432 NIL
AAXX 23121 06449 11230 82206 10081 20073 39988 40217 58021 69911 75065 877// 333 83705 86707 91110 91206
AAXX 23121 06450 11462 52305 10104 20080 30187 40203 58018 69931 70265 83270 333 83813 85532 91110 91206
AAXX 23121 06458 NIL
AAXX 23121 06465 NIL
AAXX 23121 06478 12257 82105 10083 20072 39996 40216 58018 60001 867// 333 84706 86708 91109 91206
AAXX 23121 06496 NIL
AAXX 23121 06407 11475 72007 10095 20072 30188 40194 58020 69901 70252 875// 333 81618 87632 91110 91208
AAXX 23121 06447 NIL
AAXX 23124 78962 11470 20606 10266 20208 30137 40145 60001 70500 82800 333 02100 10288 20232 58005 82816
AAXX 23124 13625 12966 03604 10085 20043 39907 40139 52025 60001
AAXX 23121 11010 01135 82902 10049 20049 39865 40250 57014 69911 75052 333 69915 82703 88706
AAXX 23121 11012 17/// /2505 10068 20057 39773 40246 58013 69921 7//8/ 333 55300
AAXX 23121 11022 11567 72501 10046 20029 39836 40228 58017 69901 70252 878// 333 55300 86825
AAXX 23121 11035 11217 81101 10041 20039 39977 40235 57017 69981 75152 887// 333 88705
AAXX 23121 11036 01018 81503 10021 20016 30013 40242 58015 69921 75164 333 69905 81701 85702 87712
AAXX 23121 11101 11268 72003 10042 20037 39735 40273 57023 69941 70265 875// 333 81705 87625
AAXX 23121 11120 11262 39901 10042 20020 39554 40273 58017 69911 70165 333 81705 83656
AAXX 23121 11126 17/// /3106 11016 21016 37777 48538 58007 69901 7//8/ 333 55303 91113
AAXX 23121 11130 17/// /2201 10024 20017 39673 40276 58014 69911 7//8/ 333 55300
AAXX 23121 11146 31/01 73610 11071 21089 36957 47066 58006 60051 74142 333 55307 877// 92611 91125
AAXX 23121 11150 01165 81403 10031 20025 39714 40267 57011 60021 72162 333 69905 81702 84614 86625
AAXX 23121 11155 17/// /3206 10000 21002 38403 48529 58008 60031 7404/ 333 55300 91116
AAXX 23121 11157 11365 79901 10029 20021 39468 40251 58010 69901 76066 875// 333 81708 83628 87645
AAXX 23121 11172 NIL
AAXX 23121 11190 11605 80801 10027 20020 30003 40243 58017 60021 75152 885// 333 55300 88638
AAXX 23121 11204 31/01 91301 11004 21011 39452 40268 58007 74522
AAXX 23121 11212 31/85 13607 11019 21044 37861 48533 50000 73630 81802 333 818// 91113 444 16159 26086
AAXX 23121 11231 31106 79901 11020 21020 39678 40273 57015 74644 333 87702
AAXX 23121 11240 11760 29901 10041 21004 39802 40248 58017 69901 70271 333 81850
AAXX 23121 11244 17/// /1801 10042 21018 39915 40250 58017 69901 721// 333 55310
AAXX 23121 11389 11570 82205 10063 20050 39910 40239 58015 69901 70222 885// 333 55300
AAXX 23121 03973 11481 12908 10041 20010 39916 40175 51025 69961 72581 81900 333 81918 96485
AAXX 23121 33135 NIL
AAXX 23121 33317 32598 83602 11043 21085 39904 40257 58009 885// 333 88621
AAXX 23121 33345 NIL
AAXX 23121 33393 31997 21502 11033 21079 39847 40256 58017 70241 82030
AAXX 23121 33506 /1597 72905 11014 21040 30000 40202 58009 70282 87900 555 69901
AAXX 23121 33587 32597 83401 11024 21068 39966 40240 58012 889// 333 88920
AAXX 23121 33631 32697 80000 10000 21018 30104 40253 58012 885// 333 88640
AAXX 23121 33663 NIL
AAXX 23121 33658 32997 43303 11030 21064 39946 40259 57014 84030
AAXX 23121 33711 32598 73306 11023 21059 30001 40219 58016 87500 333 87621
AAXX 23121 33791 32697 83605 11010 21039 30056 40212 57011 84550 333 84640
AAXX 23121 33837 32573 80108 11012 21035 30165 40219 58008 8345/
AAXX 23121 33924 32498 80508 10016 21019 30174 40186 58002 8772/ 333 87717
AAXX 23121 33946 /1221 80410 11009 21013 39942 40169 55003 77787 886// 333 88705 93400 555 60011
AAXX 23121 34300 /1497 72804 11007 21038 39994 40191 58007 70282 87500 333 87619 555 69901
AAXX 23121 34504 32497 73604 11016 21043 30017 40202 57011 87500 333 87616
AAXX 23121 34519 32460 73504 11015 21052 39902 40185 57015 87600 333 87714
AAXX 23121 34601 32560 60206 11011 21031 30062 40203 57009 86500 333 86620
BBXX TFBKF 23124 99635 70202 46/// ///// 22200 10707 70033
BBXX TFBLK 23124 99657 70248 46/// ///// 22200 10604 70022
BBXX TFDRN 23124 99658 70212 46/// ///// 22200 10804 70020
BBXX TFGRS 23124 99663 70182 46/// ///// 22200 10606 70028
BBXX TFGRV 23124 99638 70225 46/// ///// 22200 10907 70034
BBXX TFGSK 23124 99641 70229 46/// ///// 22200 10808 70040
BBXX TFHFN 23124 99642 70152 46/// ///// 22200 11008 70042
BBXX TFKGR 23124 99657 70136 46/// ///// 22200 10709 70043
BBXX TFSRT 23124 99633 70203 46/// ///// 22200 10910 70049
BBXX TFSTD 23124 99664 70234 46/// ///// 22200 10604 70020
BBXX 51205 23121 99210 71564 46/// ///// 1//// 91148 22200 00237 10905 20904 334// 41302 70023
BBXX 46238 23121 99334 71195 46/// ///// 1//// 91150 22200 00141 11303 21002 329// 41302 70016
BBXX 46239 23121 99363 71221 46/// ///// 1//// 91151 22200 00134 11303 21002 330// 41302 70017
AAXX 23124 48405 31958 50506 10243 20165 39952 40116 52017 70522 80006 333 10283 59008
AAXX 23124 48358 31959 30902 10205 20172 39968 40147 51025 71011 80006 333 10284 58005
AAXX 23124 68399 36/// /1812 10297 20199 30026 40132 58002 333 10312 20249 91074 555 91013
AAXX 23124 68383 36/// /0000 10274 20180 39906 48583 57001 333 10291 20241 91000 555 91015
AAXX 23124 03008 16/// /2622 10054 20016 39932 40001 51011 60011 91150 333 90710 91147
AAXX 23124 03010 46/// /2728 10063 20031 40025 52016 333 90710 91145
AAXX 23124 03014 46/// /2835 10034 21001 49981 50010 91150 333 8//// 90710 91148
AAXX 23124 03031 17665 /2716 10034 21003 39741 40069 50010 60011 723// 91150 333 553// 20210 81/34 90710 91128 91027
AAXX 23124 03034 17569 /2615 10064 20017 30055 40068 52012 60021 723// 91150 333 81/28 90710 91128
AAXX 23124 03037 17571 /2406 10042 20019 30062 40085 50010 69921 781// 91150 333 82/25 83/50
AAXX 23124 03039 46/// /2920 11017 21017 91150 333 90710 91137
AAXX 23124 03041 46/// /2523 11034 21034 91150 333 90710 91133
AAXX 23124 03044 17661 /2816 10044 20003 39953 40053 53013 69901 781// 91150 333 553// 20194 81/44 83/50 90710 91127 91027
AAXX 23124 03047 17683 /3203 10024 20011 39796 40103 52010 60031 741// 91150 333 553// 20184 82/37 85/45
AAXX 23124 03062 15976 /2214 10047 21004 30060 40065 53008 69901 91150 333 553// 20334 81/58
AAXX 23124 03065 46/// /2732 11047 21051 91150 333 90710 91153 91045
AAXX 23124 03068 12780 22610 10048 20007 30058 40067 51009 60001 82500 91150 333 82650
AAXX 23124 03080 15982 /1902 10043 21003 39904 40076 51005 60001 91150 333 8//99
AAXX 23124 03088 15967 /2414 10046 20011 39914 40079 50002 60001 91150 333 553// 20266 81/65
AAXX 23124 03094 15968 /2416 10054 20002 30054 40059 50003 60001 91150 333 82/69
AAXX 23124 03105 17964 /2816 10062 20026 30101 40118 51017 60031 723// 91150 333 84/58
AAXX 23124 03144 17776 /2309 10049 20020 30052 40095 50009 69901 723// 91150 333 553// 20157 81/50
AAXX 23124 03148 46/// /2811 10003 20003 91150
AAXX 23124 03153 17667 /2810 10061 20046 39972 40111 50004 69901 723// 91150 333 553// 20116 81/42 86/60
AAXX 23124 03155 16772 /2414 10053 20032 39803 40102 50005 60001 91150 333 81/50 85/62
AAXX 23124 03158 15973 /2207 10059 20042 39959 40096 50001 60001 91150 333 553// 20171 83/62
AAXX 23124 03210 16665 /2916 10071 20047 39966 40118 50004 60021 91150 333 87/47
AAXX 23124 03212 15863 /2804 10071 20052 30016 40116 52003 60041 91150 333 88/57
AAXX 23124 03214 17662 /2704 10073 20060 30101 40119 52005 60041 781// 91150 333 81/31 86/50
AAXX 23124 03220 16772 ///// 10070 20058 30076 40111 50005 60011 91150 333 81/50 87/59
AAXX 23124 03225 16667 /2705 10061 20017 39808 40115 55001 60021 91150 333 553// 20092 87/40
AAXX 23124 03226 17558 /3205 10059 20047 39838 40114 53004 60041 781// 91150 333 81/26 87/44
AAXX 23124 03227 46/// /2818 10007 2//// 91150
AAXX 23124 03230 16970 /2502 10054 20048 39849 40107 50001 69961 91150 333 87/59
AAXX 23124 03238 15761 /2708 10063 20048 39928 40102 50002 69941 91150 333 83/56 88/59
AAXX 23124 03261 16463 /3410 10079 20063 30063 40103 57007 60021 91150 333 86/12 85/50
AAXX 23124 03265 17464 /3409 10077 20057 30073 40104 57006 60021 757// 91150 333 81/11 86/23
AAXX 23124 03266 16450 /3208 10089 20078 30082 40099 58012 60031 91150 333 81/10 83/23 85/50
AAXX 23124 03275 17665 /3004 10066 20050 39905 40098 58007 60021 761// 91150 333 86/35 84/50
AAXX 23124 03281 16/// /3408 10062 20061 60051 91150
AAXX 23124 03903 16666 /3010 10057 20027 30090 40148 51018 69921 91150 333 553// 20470 81/38
AAXX 23124 03904 17777 /2506 10045 20022 30082 40142 50015 69981 723// 91150 333 82/56
AAXX 23124 03907 17778 /2412 10055 20030 30124 40131 50012 69961 723// 91150 333 55301 20257 81/50
AAXX 23124 03911 16882 /2910 10038 20014 39861 40139 51014 60001 91150 333 83/57
AAXX 23124 03915 16781 /2908 10044 20042 30053 40133 51016 69921 91150 333 81/50 85/59
AAXX 23124 03916 16488 /2805 10036 20028 39936 40128 51013 60011 91150 333 553// 20187 83/11
AAXX 23124 03923 17477 /3109 10047 20025 39944 40142 53019 69921 723// 91150 333 85/19
AAXX 23124 03301 16463 /3206 10063 20056 30063 40137 50013 60081 91150 333 81/18 87/29
AAXX 23124 03305 17556 /3407 10054 20018 39875 40139 53018 60211 762// 91150 333 87/21 90710 91125 91018
AAXX 23124 03313 16561 /3013 10063 20049 30037 40131 53011 60081 91150 333 81/23 87/27
AAXX 23124 03316 17456 /3110 10069 20062 30113 40124 53009 60091 761// 91150 333 81/16 84/30 86/36
AAXX 23124 03318 16/// /3109 10074 20060 60101 91150
AAXX 23124 03321 16250 /3209 10072 20058 30110 40122 53007 60131 91150 333 553// 20035 81/04 87/27
AAXX 23124 03330 17121 /3005 10072 20071 39743 40103 56020 60061 763// 91150 333 87/02 84/11
AAXX 23124 03344 17356 /3110 10070 20065 39788 40106 56010 60071 763// 91150 333 83/08 86/14
AAXX 23124 03346 16/// /3005 10073 20072 60071 91150
AAXX 23124 03348 17239 /3006 10085 20085 39998 40105 56006 60071 763// 91150 333 55300 20061 85/03 84/25
AAXX 23124 03355 17657 /2402 10094 20091 30088 40099 58012 60031 781// 91150 333 55300 20148 87/32
AAXX 23124 03373 16457 /2116 10098 20086 30027 40096 58029 69921 91150 333 87/10 90710 91125
AAXX 23124 03379 16457 /2121 10099 20091 30030 40106 58029 60001 91150 333 81/15 87/40 90710 91131
AAXX 23124 03382 17235 /2605 10093 20091 30085 40093 58019 60011 762// 91150 333 55300 20051 87/05
AAXX 23124 03385 46457 /2015 10096 20095 30091 40101 58025 91150 333 83/19 84/39 85/50 90710 91127
AAXX 23124 03391 11470 82018 10103 20086 30100 40107 58032 69901 76161 885// 91150 333 83711 87618 90710 91125
AAXX 23124 03392 16471 /2019 10098 20088 30106 40110 58032 60001 91150 333 81/16 87/50 90710 91125
AAXX 23124 03405 16567 /3319 10065 20054 30033 40150 51027 60121 91150 333 553// 20049 87/25 90710 91129
AAXX 23124 03409 16/// /3004 10056 20038 69961 91150 333 55300 2////
AAXX 23124 03410 16657 /0108 10034 20030 39680 40120 53002 60141 91150 333 553// 20079 87/30 91018
AAXX 23124 03469 17450 /2120 10104 20093 30114 40117 58030 69901 757// 91150 333 553// 20309 83/17 86/50 90710 91127
AAXX 23124 03488 15584 /2120 10111 20080 30096 40121 58026 60001 91150 333 87/23 83/56 90710 91129
AAXX 23124 03503 17457 /3311 10065 20053 30060 40138 53018 60201 762// 91150 333 82/12 85/16 90710 91128 91021
AAXX 23124 03507 17363 /3207 10054 20047 39754 40128 55006 60141 762// 91150 333 86/09 84/45 90710 91131 91021
AAXX 23124 03520 16463 /2107 10103 20095 39976 40096 58038 60041 91150 333 553// 20138 84/19 83/27
AAXX 23124 03522 17562 /1904 10105 20105 30010 40102 58038 60021 761// 91150 333 81/23 84/29 85/50
AAXX 23124 03529 17474 /2015 10110 20100 30070 40112 58038 69961 781// 91150 333 84/12 86/50 90710 91126
AAXX 23124 03544 17350 /1808 10097 20091 39984 40114 58030 60021 762// 91150 333 553// 20069 87/08 84/15
AAXX 23124 03560 15484 /2015 10106 20088 30023 40126 58029 60001 91150 333 553// 20254 85/12 85/19 90710 91128
AAXX 23124 03604 16456 /3420 10059 20050 30102 40157 53034 60221 91150 333 87/18 90710 91131
AAXX 23124 03605 16439 /3521 10069 20054 30131 40139 53010 60211 91150 333 81/15 86/38 90710 91138 91034
AAXX 23124 03609 16/// /3119 10082 20078 30073 40126 55010 60101 91150 333 90710 91145 91032
AAXX 23124 03628 17476 /2116 10115 20094 30049 40121 58034 69901 761// 91150 333 55300 20091 82/15 87/50 90710 91126 91026
AAXX 23124 03647 16360 /2121 10097 20092 39867 40120 58030 69921 91150 333 553// 20089 88/07 90710 91131
AAXX 23124 03658 16477 /1914 10113 20089 30069 40138 58031 60001 91150 333 84/14 86/20
AAXX 23124 03660 17258 /2310 10095 20087 39895 40141 58030 69901 723// 91150 333 87/05 91021
AAXX 23124 03672 11480 82211 10113 20084 30108 40149 58028 69901 70252 885// 91150 333 87615
AAXX 23124 03684 15480 /2112 10106 20079 30039 40144 58027 60001 91150 333 87/15
AAXX 23124 03693 16481 /2214 10110 20087 30157 40159 58026 60001 91150 333 84/15 85/36
AAXX 23124 03707 17225 /2423 10094 20090 30114 40122 58033 60021 763// 91150 333 81/04 86/16 90710 91133 91033
AAXX 23124 03710 16231 /2120 10092 20092 39706 40123 58033 60011 91150 333 553// 20053 88/03 90710 91130 91030
AAXX 23124 03743 11459 82211 10104 20095 39982 40142 58031 69901 75165 885// 91150 333 84711 87627 98259
AAXX 23124 03749 16375 /2216 10107 20097 30038 40148 58030 69921 91150 333 88/08 90710 91126
AAXX 23124 03761 11361 82017 10102 20085 30008 40152 58030 69901 76065 887// 91150 333 55300 20101 88708 90710 91128
AAXX 23124 03768 16470 /2219 10106 20091 30072 40151 58028 69921 91150 333 87/10 90710 91126
AAXX 23124 03769 17367 /2112 10102 20091 30079 40161 58028 69901 757// 91150 333 55300 20132 88/09 91022
AAXX 23124 03770 16/// ///// 10114 20090 60001 91150
AAXX 23124 03781 17256 /2016 10093 20087 39952 40158 58028 69901 781// 91150 333 553// 20126 88/05 90710 91127
AAXX 23124 03797 17357 /2218 10099 20088 30111 40171 58024 69901 704// 91150 333 55300 20184 87/09 90710 91125
AAXX 23124 03823 17257 /3228 10071 20066 39902 40146 55021 60021 761// 91150 333 553// 20075 87/03 90710 91142 91042
AAXX 23124 03839 16/// ///// 10118 20107 60001 91150 333 553// 20091
AAXX 23124 03857 17357 /2320 10111 20111 30096 40159 58029 69941 723// 91150 333 86/09 86/23 90710 91129
AAXX 23124 03862 17365 /2215 10112 20102 30145 40157 58029 69961 781// 91150 333 55300 20139 87/09 83/20 90710 91125
AAXX 23124 03866 16/// /2321 10106 20093 30144 40168 58026 69921 91150 333 90710 91128
AAXX 23124 03872 17363 /2119 10103 20098 30159 40164 58028 69901 723// 91150 333 553// 20193 81/08 87/10 90710 91126
AAXX 23124 03876 16/// /2217 10104 20098 30169 40171 58027 69921 91150 333 90710 91126
AAXX 23124 03895 41262 82016 10103 20086 40200 57029 75065 885// 333 81703 83707 86611 90710 91125
AAXX 23121 40608 41958 01602 10186 20071 40141 56018 70500
AAXX 23121 40621 42560 51804 10185 20068 40160 57012 85800
AAXX 23121 40629 42960 02603 10172 20027 40166 57014
AAXX 23121 40634 42960 00000 10184 20053 40147 58015
AAXX 23121 40642 42960 30000 10188 20021 40141 57009 80004
AAXX 23121 40650 41530 61903 10195 20090 40141 57018 70522 86800
AAXX 23124 91930 36/// ///// 10249 20212 333 10277
AAXX 23124 91943 16/// /0906 10240 20224 30115 40117 57013 69941 333 58022
AAXX 23121 40665 41957 61006 10208 20107 40149 57029 70622 80006
AAXX 23121 40670 42560 60000 10202 20075 40134 57010 82132
AAXX 23121 40672 41958 61906 10220 20088 40142 55011 70622 80005
AAXX 23121 40676 42960 00908 10244 20049 40140 57025
AAXX 23121 40689 42960 31509 10224 20104 40160 57018 80001
AAXX 23121 89061 379// 03401 11007 21013 39894 49900 52003 70070 333 10028 21018 91003 91106
AAXX 23124 87692 32960 51815 10168 20058 30128 40152 53008 83056 333 10168 20074 56066 83360 83270 555 10152 60652 64088 65035 72027 74166 89451 90127
AAXX 23124 68024 42660 70905 10316 20157 48497 57017 83980
AAXX 23124 68026 42660 51004 10301 20205 48492 57025 83282
AAXX 23124 68029 42560 53207 10325 20181 48502 57017 84873
AAXX 23124 68032 42660 50906 10334 20189 48497 57018 85200
AAXX 23124 68038 42660 40507 10337 20206 48492 57023 84202
AAXX 23124 68054 41660 20908 10305 20175 48414 57028 70500 82900
AAXX 23124 68148 42960 80000 10244 20211 48501 56009 88080
AAXX 23124 68226 42660 60711 10330 20027 48504 57009 81180
AAXX 23124 68234 42960 80905 10251 20180 48506 57003
AAXX 23124 68240 42960 80603 10241 20172 48499 57015 8808/
AAXX 23124 68320 42660 63609 10326 20096 48505 50005 82882
AAXX 23124 68325 42660 60212 10284 20175 48502 57012 81170
AAXX 23124 68328 42660 42705 10350 20101 48494 57019 84280
AAXX 23124 70026 NIL
AAXX 23124 70133 NIL
AAXX 23124 70174 NIL
AAXX 23124 70200 NIL
AAXX 23124 70219 NIL
AAXX 23124 70231 NIL
AAXX 23124 70261 NIL
AAXX 23124 70267 NIL
AAXX 23124 70271 NIL
AAXX 23124 70273 NIL
AAXX 23124 70308 NIL
AAXX 23124 70316 NIL
AAXX 23124 70326 NIL
AAXX 23124 70340 NIL
AAXX 23124 70350 NIL
AAXX 23124 70361 NIL
AAXX 23124 70381 NIL
AAXX 23124 70398 NIL
AAXX 23124 70414 NIL
AAXX 23121 26554 42465 82403 11028 21051 30054 40223 58008 886// 333 88709 555 1/102
AAXX 23121 26666 41460 82801 11031 21062 30000 40223 54000 70272 886// 333 88711 555 1/102
AAXX 23121 26850 42460 82501 11034 21074 39951 40234 58008 885// 333 88714 555 1/102
AAXX 23121 26863 41660 23104 11037 21059 39983 40229 53001 70171 82500 555 1/106
AAXX 23121 26941 41250 82401 11052 21066 39998 40247 58011 71022 887// 333 88706 555 14102
AAXX 23121 26951 42464 72802 11030 21057 30036 40243 58007 875// 333 87616 555 1/102
AAXX 23121 33008 42960 62103 11009 21059 30053 40237 58017 86030 555 1/000
AAXX 23121 33019 41459 81902 11039 21061 30069 40252 58012 71022 886// 333 86710 555 1/102
AAXX 23121 33036 42570 73401 11022 21073 30001 40241 58004 875// 333 87625 555 1/102
AAXX 23121 33041 41660 73005 11015 21049 30064 40225 58001 70272 87500 333 87648 555 1/102
BBXX 46001 23121 99563 71480 46/// /2607 10027 49945 51013 91150 22200 00046 11208 20604 300// 41207 70039 333 91209 555 11078 22082 31055 42711 61149 256074 255079 256077 256077 256087 263089
BBXX 41041 23121 99142 70460 46/// /0607 10257 20205 40156 51021 91150 22200 00264 10904 20603 3//// 40904 70022 333 91209 555 11075 22080 31135 40710 61149 063071 075076 092068 090062 073066 071064 80709 91135
AAXX 23124 78526 NIL
AAXX 23124 78543 NIL
BBXX PFBF 23123 99103 31624 41/98 10804 10278 20181 40053 50008 70100 8/0// 22233 02291 2//// 3//// 4//// 5//// 80212
BBXX PCDE 23123 99304 31533 41/98 60313 10223 20176 40138 54000 7//22 8//// 22213 20502 316// 40603 80192
AAXX 23124 78255 11556 10703 10188 20177 30045 40194 52010 60004 74044 81500 333 20187 81620
AAXX 23124 78317 NIL
AAXX 23124 78318 NIL
AAXX 23124 78325 NIL
AAXX 23124 78333 NIL
AAXX 23124 78338 NIL
AAXX 23124 78348 NIL
AAXX 23124 78349 NIL
AAXX 23124 78353 NIL
AAXX 23124 78360 NIL
AAXX 23124 78367 NIL
AAXX 23124 78369 NIL
BBXX UCKG 23121 99716 10008 41/97 93404 10030 49598 57013 75122 22233 00020 20101 31800 40603
BBXX PBEN 23123 99374 10112 41/98 33625 10180 20131 40220 52020 7//11 831// 22263 21004 336// 41504 80150
BBXX MGSM5 23123 99538 10006 41297 82219 10085 20074 40095 57050 75122 886// 22253 04127 2//04 322// 4//06 5//// 80080
BBXX C6KD8 23123 99394 70268 41298 71215 10162 20141 40368 51012 70322 84778 22254 02168 20905 327// 41305 5//// 80150
BBXX ELVZ6 23124 99301 70129 41798 70416 10200 20176 40290 54000 70322 86770 22254 00190 20902 301// 41004 5//// 80185
AAXX 23124 91165 NIL
AAXX 23124 91182 NIL
AAXX 23124 91190 NIL
AAXX 23124 91212 NIL
AAXX 23124 91217 NIL
AAXX 23124 91285 NIL
AAXX 23124 91317 NIL
AAXX 23124 91334 32474 80710 10281 20238 30054 40057 50008 82171 333 10322 56299 58000 70097 555 92312
AAXX 23124 91348 NIL
AAXX 23124 91356 NIL
AAXX 23124 91366 NIL
AAXX 23124 91369 NIL
AAXX 23124 91371 NIL
AAXX 23124 91376 32474 80710 10276 20219 30054 40058 58002 84878 333 10300 56137 59005 70003 555 92312
AAXX 23124 91408 11474 80604 10261 20246 30024 40062 52010 60061 70282 82108 333 10317 562/9 59001 70061 555 92312
AAXX 23124 91413 11469 80508 10255 20235 30046 40071 52022 69981 72582 83271 333 10320 56199 58000 70018 555 92312
AAXX 23124 91425 NIL
AAXX 23124 91434 NIL
AAXX 23124 91765 NIL
BBXX PCHM 23124 99464 31666 41598 60617 10170 20162 40238 53000 70222 8437/ 22223 00160 20202 30000 80165
BBXX KAOU 23124 99005 10815 43/// /3016 10281 20236 40056 5//// 7//// 8//// 222// 04288 2//// 3//// 4//// 5//// 6//// 8//// ICE /////
BBXX C6VG7 23124 99204 70858 41598 20615 10258 2020/ 40166 52004 7//00 821// 22275 00280 20203 309// 4//// 5//// 6//// 80217 ICE /////
BBXX NWS0029 23124 99415 70707 43/// /0815 10070 20054 40092 5//// 7//// 8//// 222// 04093 2//// 3//// 4//// 5//// 6//// 8//// ICE /////
BBXX ZCDG7 23124 99205 71570 41998 00729 10225 20194 40175 53002 70200 80000 22264 00250 20303 309// 40404 5//// 80205
BBXX WJBJ 23124 99206 70682 41398 61022 10245 2019/ 40185 52006 7//22 864// 22234 00270 20506 309// 40909 5//// 6//// 80210 ICE /////
BBXX C6YA5 23124 99465 50567 41497 62028 10113 2//// 40050 52020 70222 821// 22244 00160 20404 319// 4//// 5//// 6//// 8//// ICE /////
BBXX 51003 23121 99193 71606 46/// /0709 10248 40155 58008 91150 22200 00255 10805 20805 3//// 41503 70027 333 91211 555 11096 22102 31054 40511 61149 065090 061088 056091 054092 056090 054097
AAXX 23124 91222 NIL
AAXX 23124 91245 NIL
AAXX 23124 91323 NIL
AAXX 23124 91339 NIL
AAXX 23124 91343 NIL
AAXX 23124 91353 NIL
AAXX 23124 91442 NIL
BBXX 44060 23121 99413 70721 46/// ///07 10074 40103 55000 91200 22200 00103 333 91210 555 11082 22082
AAXX 23121 76123 06/// /2904 10007 21010 3//// 4//// 5//// 60001 7//// 8//// 91150 333 0//// 10140 21018 4//// 50179 55086 56/// 57/// 5//// 60007 70000 8//// 8//// 8//// 8//// 9//// 9/
AAXX 23121 76220 32920 00000 11086 21086 38121 40235 5//// 91145 333 10126 21086 31110 59015 70000
AAXX 23121 76305 32970 03403 10145 20047 30196 40205 5//// 91150 333 10218 20140 30125 58020 70000
AAXX 23121 76323 32910 00000 11025 21118 38253 40244 55000 91155 333 10160 21025 31053 59005 70000
AAXX 23121 76342 32940 00903 10070 20034 39536 40258 52019 91150 333 10236 20066 30060 58060 70000
AAXX 23121 76373 32910 00000 11045 21117 38218 40167 5//// 91150 333 10210 21063 31075 58029 70000
AAXX 23121 76382 32960 20701 10076 20032 38906 40167 52001 80001 91154 333 10209 20070 30040 56005 58003 70000 82070
AAXX 23121 76390 31950 01801 10006 21003 38234 40221 54000 70544 91130 333 10192 21015 31025 58022 70000
AAXX 23121 76393 32920 00000 10102 20072 39630 40215 52007 91155 3333 10246 20100 30090 58069 70000
AAXX 23121 76423 32960 30000 10042 21008 38144 40155 57002 80005 91155 333 10262 20038 30/// 56009 58014 70000 83070
AAXX 23121 76458 32960 03502 10144 20118 30149 40154 53001 91145 333 10231 20119 30115 58008 70000
AAXX 23121 76471 32980 42102 10062 20048 37686 40144 5//// 80005 91150 333 10206 20039 30014 55080 56004 58025 70000 84075
AAXX 23121 76490 06/// /2301 10150 20076 39813 40209 54000 60001 7//// 8//// 91150 333 0//// 10268 20105 30/// 50349 54/// 55082 56/// 57/// 58068 60007 70000 8//// 8//// 8//// 8//// 9/
AAXX 23121 76499 31856 60000 10125 20085 30178 40200 5//// 70311 86030 91140 333 10245 20124 30121 56090 58079 70000 86357
AAXX 23121 76525 32960 02007 10074 20029 37464 40137 54000 91150 333 10162 20068 30061 55080 22472 58028
AAXX 23121 76547 06/// /3201 10157 20124 30188 40200 52008 60001 7//// 8//// 91150 333 0//// 10241 20150 4//// 50229 55042 56/// 57/// 58087 60007 70000 8//// 8//// 8//// 8//// 9//// 9/
AAXX 23121 76548 32860 13201 10152 20125 30199 40209 52006 81030 91140 333 10240 20148 30144 56050 58086 70000 81357
AAXX 23121 76556 32960 01602 10134 20114 39119 40142 58002 91130 333 10260 20133 30115 58009 70000
AAXX 23121 76577 32960 00000 10078 20069 38049 40172 51002 91140 333 10226 20073 30064 58013 70000
AAXX 23121 76581 12965 71402 10149 20138 39062 40168 5//// 69941 87020 91155 333 10290 20136 30128 56020 58044 70004 87459
AAXX 23121 76585 01680 80000 10160 20155 30041 40200 53020 69931 72055 8542/ 91140 333 10253 20159 30155 55043 5688/ 58086 69907 70003 85640 83458
AAXX 23121 76586 06/// /0000 10175 20169 30044 40202 53004 60001 7//// 8//// 91150 333 0//// 10269 20175 30/// 4//// 50209 54/// 55041 56/// 57/// 58087 60007 70004 8//// 8//// 8//// 9/
AAXX 23121 76592 06/// /1002 10212 20067 30167 40167 52013 60001 7//// 8//// 91150 333 0//// 10325 20212 30/// 4//// 50619 54/// 55052 56/// 57/// 58029 60007 70000 8//// 8//// 8//// 9/
AAXX 23121 76593 31910 01101 10210 20210 30171 40173 51013 71000 91150 333 10314 20208 30207 58036 70000 97100
AAXX 23121 76612 32958 00000 10082 20079 38478 40178 52004 91155 333 10248 20080 30070 55081 21003 58009 70000
AAXX 23121 76625 32960 10000 10110 20085 38151 40137 52004 81005 91145 333 10253 20106 30085 5600/ 58020 70000 81070
AAXX 23121 76632 31957 00504 10080 20064 37627 40154 5//// 70500 91145 333 10220 20078 30/// 58077 70000
AAXX 23121 76634 31970 01502 10081 20078 37862 40187 5//// 70500 91150 333 10236 20075 30056 58022 70000
AAXX 23121 76641 06/// /0702 10197 20174 30189 40201 53009 60001 7//// 8//// 91150 333 0//// 10269 20197 30/// 4//// 50169 54/// 55000 56/// 57/// 58084 60007 70000 8//// 8//// 8//// 8/
AAXX 23121 76644 32650 21401 10218 20215 30151 40164 57003 82030 91150 333 10325 20218 30212 56/// 58025 70000
AAXX 23121 76645 06/// /1101 10217 20214 30158 40171 52013 60001 7//// 8//// 91150 333 0//// 10325 20217 30/// 4//// 50359 54/// 55054 56/// 57/// 58029 60007 70000 8//// 8//// 8//// 9/
AAXX 23121 76654 31956 00402 10212 20176 30135 40139 5//// 70544 91151 333 10288 20212 30190 58012 70000
AAXX 23121 76656 32968 00000 10065 20059 38518 40181 52005 91150 333 10253 20052 30015 58015 70000
AAXX 23121 76662 32960 01301 10082 20059 38469 40171 52002 91140 333 10276 20050 30042 58015 70000
AAXX 23121 76665 32958 02101 10068 20023 38119 40154 57003 91155 333 10270 20055 30045 58006 70000
AAXX 23121 76675 32960 02001 11001 21024 37379 40203 5//// 91145 333 10216 21013 31035 58010 70000
AAXX 23121 76680 31958 02301 10095 20062 37762 40104 52004 70400 91150 333 10245 20095 30081 58021 70000
AAXX 23121 76683 32962 00000 10064 20050 37840 40211 55004 91145 333 10237 20064 30040 50281 55087 21943 58022 70000
AAXX 23121 76685 32950 00000 10070 20044 37880 40164 52006 91150 333 10242 20068 30025 58026 70000
AAXX 23121 76687 31358 62201 10125 20112 38701 40191 52005 70222 865// 91148 333 10256 20090 30075 563// 58048 70000 82716 84618
AAXX 23121 76692 31420 73604 10239 20215 30152 40171 55005 71044 8525/ 91145 333 10291 20236 30/// 568// 58054 70000 82817 83640
AAXX 23121 76693 06/// /3504 10240 20220 30155 40174 53007 60001 7//// 8//// 91150 333 0//// 10291 20239 30/// 4//// 50249 55000 56/// 57/// 58058 60007 70000 8//// 8//// 8//// 8//// 9/
AAXX 23121 76695 31156 91201 10219 20215 30148 40159 52017 71033 88600 91148 333 10335 20195 30190 560// 59035 70000 88701
AAXX 23121 76698 12558 40000 10219 20215 30154 40166 5//// 60011 84200 91155 333 10318 20216 30194 56300 58023 70040 84820
AAXX 23121 76737 31465 80000 10155 20124 38796 40177 50005 70222 886// 91135 333 10287 20154 30140 569// 58056 70000 88710
AAXX 23121 76738 06/// /3601 10150 20134 38798 40189 53007 60001 7//// 8//// 333 10295 20150 30/// 50259 55000 56/// 57/// 58056 60007 70000 8//// 8//// 8//// 8//// 9//// 9//// 9//// 44
AAXX 23121 76743 31240 83301 10245 20230 30142 40150 53009 70211 885// 91145 333 10301 20240 30232 567// 58035 70000 88606
AAXX 23121 76750 32560 73202 10236 20229 30147 40157 5//// 87700 91150 333 10328 20230 30225 56200 58024 70000 87920
AAXX 23121 76751 06/// /3501 10233 20230 30147 40157 52011 60001 7//// 8//// 91150 333 0//// 10311 20231 30/// 4//// 50219 54/// 55000 56/// 57/// 58025 60007 70000 8//// 8//// 8//// 9/
AAXX 23121 76762 32904 00000 10130 20116 38762 40135 53003 91156 333 10310 20128 30120 58016 70000
AAXX 23121 76772 06/// /0000 10076 20048 38437 40218 52008 60001 7//// 8//// 91150 333 0//// 10302 20075 30/// 4//// 5///9 55000 56/// 57/// 58016 60007 70000 8//// 8//// 8//// 9//// 9/
AAXX 23121 76773 32930 01801 10084 20049 38430 40158 52004 91146 333 10290 20080 30/// 50331 55100 58016 70000
AAXX 23121 76775 31960 00701 10120 20077 38535 40167 52010 70200 91145 333 10316 20115 30/// 58021 70000
AAXX 23121 76776 06/// /0402 10123 20083 38521 40184 52013 60001 7//// 8//// 91150 333 0//// 10326 20109 30/// 4//// 50409 55095 56/// 57/// 58021 60007 70000 8//// 8//// 8//// 9//// 9/
AAXX 23121 76806 06/// /3402 10214 20196 30116 40120 55000 60001 7//// 8//// 91150 333 10314 20197 30191 30/// 50229 55000 56/// 57/// 58006 60007 70000 8//// 8//// 8//// 8//// 9//// 9/
AAXX 23121 76833 32965 03608 10270 20179 30109 40111 52004 91155 333 10310 20259 30251 58008 70000 92023
AAXX 23121 76840 32901 00305 10276 20215 30058 40113 5//// 91145 333 10360 20188 30/// 56000 58007 70000
AAXX 23121 76845 31/10 90000 10072 20068 37959 40231 5//// 74244 98/// 91145 333 10234 20058 30046 58019 70000 98///
AAXX 23121 76848 32250 23601 10124 20111 38392 40118 51011 82600 91150 333 10276 20124 30090 56100 58023 70000 82705
AAXX 23121 76855 32580 03601 10220 20184 30050 40098 56001 91155 333 10328 20210 30206 55101 56000 58012 70000 92001
AAXX 23121 76902 06/// /0501 10228 20172 39977 40116 53008 60001 7//// 8//// 91150 333 0//// 10339 20218 30/// 4//// 50419 54/// 56/// 57/// 58001 60007 70000 8//// 8//// 8//// 8//// 9/
AAXX 23121 76243 32970 03602 10048 20027 39976 40296 54000 91135 333 10220 20030 30024 58112 70000
AAXX 23121 76311 32920 00000 10042 20036 39896 40183 51006 91155 333 10267 20040 30030 58007 70000
AAXX 23121 76405 32940 23604 10175 20115 30168 40190 52006 82030 91150 333 10224 20150 30135 58020 70000 82356
AAXX 23121 76412 32960 00000 10100 20077 30132 40179 52003 91145 333 10278 20090 30/// 58000 70000
AAXX 23121 76640 31110 70403 10196 20190 30179 40191 52010 70222 8427/ 91145 333 10264 20192 30190 5699/ 58072 70003 84802 83345
AAXX 23121 76647 31810 70501 10215 20210 30149 40180 5//// 71022 8702/ 91150 333 10292 20205 30195 560// 58026 70004 87858
AAXX 23121 76741 31240 33203 10237 20223 30127 40146 52008 70120 83100 91135 333 10286 20221 30218 568// 58046 70000 83805
BBXX 46042 23121 99368 71224 46/// /1003 10106 40326 53006 91150 22200 00124 11103 20301 331// 41103 70017 333 91204 555 11029 22030 31056 41105 61149 099029 104029 107031 107032 108035 113037
BBXX 46053 23121 99342 71198 46/// /0703 10135 40299 51005 91150 22200 00139 11302 325// 41302 70009 333 91204 555 11030 22031 31054 40404 61149 066029 059029 055032 049029 043027 036033
AAXX 23124 65201 32460 70000 10325 20251 30079 40132 86208 333 56600 57892 58000 86815 94919
AAXX 23123 61701 31959 20815 10272 20010 40137 70500 80002 333 58004 82073
AAXX 23123 61705 32960 20808 10275 20024 4//// 80002 333 5//// 82073
AAXX 23123 61707 NIL
AAXX 23123 61711 32960 00905 10265 20135 4//// 80000 333 5////
AAXX 23123 61712 32960 33607 10290 20035 4//// 80002 333 5//// 83072
AAXX 23123 61717 32960 30909 10285 21024 4//// 80002 333 5//// 83074
AAXX 23123 61720 NIL
AAXX 23123 61721 32960 52012 10285 20016 4//// 80002 333 5//// 85073
AAXX 23123 61722 32960 50817 10385 20057 4//// 80002 333 5//// 84073
AAXX 23123 61731 32960 33412 10322 20006 4//// 80002 333 5//// 83074
AAXX 23123 61733 32960 50908 10305 20010 4//// 84052 333 5//// 83360 84072
AAXX 23124 16149 12965 00602 10089 20013 30232 40248 58009 60001
AAXX 23121 26509 31322 81403 11013 21015 30167 40177 57018 71022 885// 333 88608 91006 91106 93602 555 1/101 4/997
AAXX 23121 26518 31115 81804 11035 21040 39981 40193 57016 71022 886// 333 88702 91004 91106 93511 555 1/103 4/014
AAXX 23121 26524 31396 81703 11030 21034 30056 40194 58019 71022 886// 333 88707 91007 91108 935// 555 1/102 4/997
AAXX 23121 26531 31458 21703 11032 21046 30126 40205 58020 71011 82600 333 91006 91108 555 1/102
AAXX 23121 26629 31657 81605 11032 21042 30113 40213 57020 71022 885// 333 88633 91006 91107 935// 555 1/102
AAXX 23121 26633 32360 81802 11037 21052 30082 40218 58017 886// 333 88708 91004 91105 555 1/101
AAXX 23121 26730 31259 81402 11054 21058 30030 40231 58013 71022 886// 333 88706 91003 91103 93502 555 1/103 42997
AAXX 23121 06414 16/// /2105 10096 20073 30166 40198 58018 69941 333 91109 91206
AAXX 23121 06459 36/// /2104 10084 20084 30026 40220 58020 60001 333 91108 91206
AAXX 23121 06494 16/// /2305 10045 20042 39416 40222 58019 69921 333 4/007 91108 91205
AAXX 23124 64810 NIL
AAXX 23124 64820 32460 43010 10307 20244 30105 40114 82202 333 59004 82813 84070
AAXX 23124 65338 32558 72404 10225 20213 39922 40107 83102 333 0//00 59004 83826 85076 94909 95839
BBXX WCX8883 23124 99335 11367 41498 10119 10100 2003/ 40150 57010 7//00 811// 22215 00180 20803 33001 40802 5//// 6//// 80065 ICE /////
BBXX OZBY2 23124 99357 11478 41/// /3336 10090 2005/ 40070 54000 7//21 8//// 22224 00180 20412 3//// 4//// 5//// 6//// 80070 ICE /////
BBXX C6SI6 23124 99351 11291 46/// /3307 11002 21175 40227 58001 7//// 8//// 22200 0//// 2////
BBXX 46070 23121 99551 11753 46/// /0511 10008 21040 40170 53037 91150 22200 00037 10908 20806 3//// 40905 70038 333 91213 555 11114 22120 31058 40414 61149 048107 050108 052109 048113 048113 044118 80513 91058
BBXX OYCY2 23124 99544 11760 43/96 /0219 10000 2000/ 40160 5//// 7//// 8//// 22263 00060 2//// 3//// 4//// 5//// 6//// 80000 ICE /////
BBXX A8AJ4 23124 99447 11495 41096 61237 10020 21004 49920 57020 72672 84343 22253 04040 20606 307// 41212 5//// 6//// 80010 ICE /////
BBXX TBWUK03 23123 99201 70200 41997 00819 10214 20135 40213 51008 70200 80000 22253 20603 335// 40803 5//// 80165
BBXX DGPT2 23124 99256 70201 41498 21623 10220 20183 40255 52015 70200 821// 22213 00210 20604 80195
BBXX DEGI 23123 99283 70129 41998 10416 10185 20162 40290 51010 70200 81060 22253 04181 29902 80170
BBXX A8UQ3 23123 99158 70176 41997 41012 10255 20172 40180 50010 70211 83036 22283 00240 21004 305// 41205 80200
BBXX A8QJ7 23124 99254 70176 41/98 /0410 10220 20205 40262 50006 70200 8/1// 22213 06210 2//// 3//// 4//// 5//// 80210
BBXX BATFR19 23124 99066 30057 46/// /1717 10239 20187 40131 58018 22200 00254
BBXX BATFR56 23124 99139 30668 46/// /1226 10262 20259 40079 56015 22213 00289
BBXX BATFR45 23124 99230 10610 46/// ///// 10219 20062 40166 55009 22274 00255
BBXX TBWUK18 23124 99335 30090 41/98 21807 10186 20111 40234 57005 70200 80008 22222 00190 20201 318// 40703 5//// 80145
BBXX ZCBZ5 23123 99263 10566 41597 61614 10228 20161 40158 58012 70322 82544 22234 02249 20201 312// 40401 5//// 80187
BBXX C6FR6 23124 99227 10601 41/// /3412 10230 2//// 40210 54/// 7//// 8//// 222// 0//// 2//// 3//// 4//// 5//// 6//// 8//// ICE /////
BBXX C6YA5 23124 99465 50567 41497 62028 10113 2//// 40050 52020 70222 821// 22244 00160 20404 319// 4//// 5//// 6//// 8//// ICE /////
BBXX 3FBC9 23124 99022 71023 41697 51519 10240 40080 52005 70222 85892 9//// 22233 00260 20303 317// 40304 5//// 6//// 80220
BBXX ZCDD6 23123 99204 50396 41498 60518 10252 20235 40161 53003 70311 8/5// 22254 00260 20504 305// 40504 5//// 80240
BBXX WCX7445 23124 99531 50709 43/// /3118 10090 2//// 40107 5//// 7//// 8//// 22200 00151 2//// 3//// 4//// 5//// 6//// ICE /////
BBXX WBP3210 23124 99531 50709 43/// /2417 10088 2//// 40163 5//// 7//// 8//// 22200 00121 2//// 3//// 4//// 5//// 6//// ICE /////
BBXX A8DE3 23124 99107 50787 41/97 61110 10185 20177 40125 52005 7//22 847/2 22234 29901 316// 40402 80180
BBXX 46238 23121 99334 71195 46/// ///// 1//// 91150 22200 00141 11303 21002 329// 41302 70016
BBXX 51205 23121 99210 71564 46/// ///// 1//// 91148 22200 00237 10905 20904 334// 41302 70023
BBXX 46239 23121 99363 71221 46/// ///// 1//// 91151 22200 00134 11303 21002 330// 41302 70017
BBXX V7NV4 23124 99300 71702 41797 80722 10190 20175 40250 53015 7//21 86722 22263 00220 20306 30606 40306 50306 6//// 80180 ICE /////
BBXX KGTX 23124 99554 71435 41/98 12324 10039 2123/ 49990 52007 7//00 81/// 22234 00059 2//// 3//// 4//// 5//// 6//// 81022 ICE /////
BBXX ZCDF4 23123 99183 71039 41/98 /0410 10250 20235 40127 58002 70200 8//// 22235 00260 20301 316// 40803 5//// 80240
BBXX 44099 23121 99369 70757 46/// ///// 1//// 91152 22200 00114 10602 20602 70012
BBXX 41113 23121 99284 70805 46/// ///// 1//// 91151 22200 00217 11301 20701 307// 41301 70007
BBXX 41110 23121 99341 70777 46/// ///// 1//// 91151 22200 00142 10703 20703 70015
BBXX 41112 23121 99307 70813 46/// ///// 1//// 91151 22200 00167 10602 20602 312// 41101 70010
BBXX 42099 23121 99273 70842 46/// ///// 1//// 91157 22200 00230 10602 20602 70010
BBXX 44100 23121 99363 70756 46/// ///// 1//// 91152 22200 00125 10703 20703 70013
BBXX 46211 23121 99469 71242 46/// ///// 1//// 91136 22200 00083 11405 21003 327// 41404 70024
BBXX 46214 23121 99379 71235 46/// ///// 1//// 91153 22200 00117 11203 21002 328// 41202 70013
BBXX 46224 23121 99332 71175 46/// ///// 1//// 91136 22200 00145 11801 21001 320// 41801 70006
BBXX 46218 23121 99345 71208 46/// ///// 1//// 91202 22200 00139 11104 21003 332// 41102 70019
BBXX 46213 23121 99403 71247 46/// ///// 1//// 91154 22200 00100 11103 21002 329// 41102 70013
BBXX 46247 23121 99378 71228 46/// ///// 1//// 91151 22200 00118 11302 20902 328// 41302 70012
BBXX 46237 23121 99378 71226 46/// ///// 1//// 91140 22200 00108 11102 21001 327// 41102 70011
BBXX 46229 23121 99438 71246 46/// ///// 1//// 91151 22200 00098 11503 21001 329// 41502 70013
BBXX 46215 23121 99352 71209 46/// ///// 1//// 91138 22200 00134 11303 21002 326// 41302 70013
BBXX 46225 23121 99329 71174 46/// ///// 1//// 91144 22200 00143 11301 21001 324// 41301 70007
BBXX 46243 23121 99462 71241 46/// ///// 1//// 91159 22200 00082 11404 20603 326// 41402 70020
BBXX 46236 23121 99368 71219 46/// ///// 1//// 91150 22200 00124 11203 20902 328// 41202 70015
BBXX 46232 23121 99325 71174 46/// ///// 1//// 91138 22200 00150 11302 21001 328// 41302 70010
BBXX 44097 23121 99410 70711 46/// ///// 1//// 91202 22200 00115 10903 20903 322// 41101 70017
BBXX 44008 23121 99405 70692 46/// /2212 10156 20151 40066 56052 91150 22200 00117 10803 20502 322// 40802 70013 333 91214 555 11127 22140 31147 42214 61149 219114 211070 153041 097053 092068 087077
BBXX 44172 23121 99445 70634 46/// ///// 1//// 91201 22200 00064 11005 21004 320// 41103 70024
BBXX 51101 23121 99243 71621 46/// /0809 10226 20188 40210 50000 91150 22200 00238 10805 20804 333// 41103 70025 333 91212 555 11098 22103 31135 40614 61149 078093 066099 061099 068099 073102 070079
BBXX 46083 23121 99582 71380 46/// /3111 10035 21005 49986 51092 91150 22200 00068 11211 20506 300// 41209 70054 333 91215 555 11122 22130 31108 42916 61149 307113 286103 286100 289114 287128 296105 82814 91106
BBXX 46061 23121 99602 71468 46/// /3403 11008 49836 53060 91150 22200 00056 11203 20401 300// 41203 70017 333 91204 555 11031 22032 31055 43406 61149 348030 001030 010035 353027 350037 340044
BBXX 46089 23121 99459 71258 46/// /2203 10098 20097 40301 51018 91150 22200 00093 11406 20401 329// 41405 70028 333 91204 555 11033 22038 31149 42405 61149 218030 211032 210034 214036 218039 221042
AAXX 23124 91925 06/// /3003 10237 20208 30047 40108 56015 60011 333 10305 58017 60017 90710 91110 555 60015 13010
AAXX 23124 91929 04981 80814 10259 20213 30110 40113 57010 69901 700// 333 69907 90710 91121 555 69905
AAXX 23124 91938 02570 40702 10243 20189 30120 40122 58018 60001 81231 333 60007 81823 83080 90710 91107 555 60005 11609
AAXX 23124 91944 06/// /0917 10262 20208 30134 40137 58014 60001 333 60007 90710 91122 555 60005
AAXX 23124 91948 06/// /1408 10234 20185 30081 40184 56012 69921 333 10279 58018 69927 90710 91114 555 60005 11216
AAXX 23124 91954 06/// /0614 10264 20227 30154 40157 56011 60001 333 10285 58024 60007
AAXX 23124 91958 06/// /1804 10222 20207 30194 40196 56013 60001 333 10277 58029 60007 90710 91106 555 60005 10511
AAXX 23124 91943 NIL
AAXX 23124 91945 NIL
BBXX 42055 23121 99222 70940 46/// /0503 10249 20218 40167 53009 91150 22200 00253 10603 20401 329// 40602 70013 333 91204 555 11036 22037 31120 40404 61149 043034 040035 039034 041037 037033 037033 80404 91128
BBXX 41047 23121 99275 70715 46/// /1506 10242 40249 52010 91150 22200 00248 10804 20402 313// 40803 70019 333 91207 555 11061 22064 31055 41409 61149 152061 152060 148058 152065 150068 142073 81408 91059
BBXX 44040 23121 99410 70736 46/// /0306 10082 20082 40121 91145 22200 10301 70004 333 91207 555 11072 22088
BBXX 44020 23121 99414 70702 46/// /0107 10072 20072 40096 55026 91150 22200 00079 10401 20401 70004 333 91209 555 11079 22084 31050 40710 61149 355074 249075 249075 252070 254073 259079
BBXX VRYO3 23124 99510 70368 41395 81118 10086 20097 40078 57084 7//62 869// 22264 00090 20405
BBXX BAREU04 23124 99446 70626 46/// ///// 40166 57024 22263
BBXX BAREU54 23124 99171 70717 46/// ///// 40137 52016 22223
BBXX BAREU11 23124 99400 70401 46/// ///// 40309 52013 22214
BBXX BAREU06 23124 99429 70376 46/// ///// 40297 52021 22224
BBXX 46105 23121 99590 71522 46/// ///// 1//// 91150 22200 10909 70047
BBXX 46054 23121 99342 71204 46/// /3305 10122 40301 52006 91150 22200 00134 11303 20401 300// 41303 70016 333 91206 555 11051 22053 31104 43106 61149 325048 326047 319049 314049 311048 304047
BBXX 46029 23121 99461 71245 46/// /2106 10094 20093 40301 51014 91150 22200 00086 11204 20502 329// 41203 70019 333 91207 555 11063 22070 31056 42008 61149 209057 209059 206057 208059 205064 207064
BBXX 46028 23121 99357 71219 46/// /3504 10124 40315 51006 91150 22200 00126 11103 20401 331// 41103 70015 333 91204 555 11037 22038 31053 43505 61149 348035 354033 359028 354027 347033 346036
BBXX 46025 23121 99337 71191 46/// /3611 10155 21003 40278 54000 91150 22200 00149 11302 20402 331// 41301 70011 333 91213 555 11117 22126 31124 43514 61149 000110 358111 356114 354102 357095 354091
BBXX 46013 23121 99382 71233 46/// /1102 10099 40330 51008 91150 22200 00115 11103 3//// 41103 70014 333 91203 555 11015 22016 31058 40903 61149 105015 102016 082015 068017 080018 095020
BBXX 46012 23121 99374 71229 46/// /3602 10113 40330 53010 91150 22200 00118 11203 20301 327// 41203 70014 333 91203 555 11018 22018 31050 40104 61149 003017 004020 019022 013021 013025 011031
BBXX 46087 23121 99485 71247 46/// /1009 10068 20063 40279 51018 91150 22200 00075 333 91212 555 11097 22103 31118 41013 61149 104091 104085 104085 101082 103055 105059
BBXX 46069 23121 99337 71202 46/// /3406 10130 40301 52004 91150 22200 00141 11203 20401 330// 41203 70015 333 91207 555 11060 22063 31105 43408 61149 335057 336061 335063 333062 335066 337059
BBXX 46050 23121 99442 71246 46/// /1705 10096 40317 50007 91150 22200 00097 11403 20401 329// 41403 70017 333 91206 555 11054 22057 31147 41606 61149 172050 180050 183048 187051 190051 193049
BBXX 46088 23121 99483 71232 46/// /0904 10052 40292 91150 22200 00077 1//00 70002 333 91205 555 11045 22046 31136 40906 61149 089043 083045 088040 083039 093031 096028
BBXX 46027 23121 99419 71244 46/// /1304 10085 40333 51005 91150 22200 00089 11202 20301 329// 41202 70011 333 91205 555 11038 22039 31054 41107 61149 133038 125045 117051 116050 112051 109058
BBXX 46086 23121 99325 71180 46/// /0802 10137 40280 50000 91150 22200 00149 11303 20401 327// 41303 70014 333 91203 555 11023 22023 31050 40803 61149 077022 084017 047015 010015 350013 307012
BBXX 46014 23121 99394 71240 46/// /0804 10084 40338 53007 91150 22200 00106 11303 3//// 41303 70014 333 91205 555 11045 22046 31113 40706 61149 074044 070048 069046 066045 064042 059040
BBXX 42364 23121 99291 70881 46/// /0109 10172 20144 40210 53013 91200
BBXX 41010 23121 99289 70785 46/// /2104 10233 40214 53005 91150 22200 00238 10803 20401 300// 40803 70015 333 91205 555 11043 22045
BBXX 41009 23121 99285 70802 46/// /1806 10241 20206 40211 53006 91150 22200 00242 10702 20501 300// 40702 70010 333 91207 555 11061 22064
BBXX 42363 23121 99282 70892 46/// /0210 10194 20150 40207 53007 91200 333 91210
BBXX 41046 23121 99238 70683 46/// /0911 10237 20201 40226 53015 91150 22200 00254 10805 20704 300// 40803 70024 333 91214 555 11116 22123 31142 41014 61149 094110 091090 087084 088086 086083 091082 81012 91143
BBXX 44011 23121 99411 70666 46/// /1309 10095 20093 40094 58056 91150 22200 00095 10804 20402 3//// 40803 70018 333 91210 555 11091 22097 31107 43012 61149 126085 120089 117092 116093 114099 115093
BBXX 42057 23121 99168 70815 46/// /0811 10278 20225 40141 52008 91150 22200 00276 10705 20604 3//// 40703 70023 333 91214 555 11111 22119 31110 40815 61149 076112 076115 075118 077121 078126 076122 80814 91110
BBXX SHIP 23124 99427 70438 41696 82045 10168 20136 40200 55010 70542 8771/ 22262 04170 20812 320// 41212 80150
BBXX 41101 23124 99146 70562 46/// /0720 10265 20213 40148 52018 22200 00270 10906 70032 555 1/026
BBXX CGCC 23124 99464 70725 46/// /0210 11028 21036 40152 53002 7//// 8//// 22200 00026 2////
BBXX WSRH 23124 99316 71394 41498 20212 10178 2014/ 40265 50000 7//00 824// 22254 00167 20301 303// 42003 5//// 6//// 80156 ICE /////
BBXX WJBJ 23124 99206 70682 41398 61022 10245 2019/ 40185 52006 7//22 864// 22234 00270 20506 309// 40909 5//// 6//// 80210 ICE /////
BBXX DDAC2 23120 99187 71054 41998 03408 10229 20210 40110 54000 7//00 80000 22273 04249 20201 325// 40704 5//// 80216
BBXX ZCDG7 23124 99205 71570 41998 00729 10225 20194 40175 53002 70200 80000 22264 00250 20303 309// 40404 5//// 80205
BBXX CGDR 23124 99491 71237 46/// /1406 10048 20046 40296 53022 7//// 8//// 22200 0//// 2////
BBXX CGHL 23124 99476 70527 46/// /2902 10022 21006 40158 51034 7//// 8//// 22200 0//// 2////
BBXX CGJK 23124 99484 71234 46/// /0902 10038 20031 40297 53025 7//// 8//// 22200 0//// 2////
BBXX CG2965 23124 99487 71235 46/// /0101 10035 20027 40299 53022 7//// 8//// 22200 0//// 2////
BBXX CGBY 23124 99487 71235 46/// /3601 10026 20016 40298 53023 7//// 8//// 22200 0//// 2////
BBXX VXKF 23124 99476 70591 46/// /3102 10008 21037 40164 53015 7//// 8//// 22282 0//// 2////
BBXX VOKF 23124 99490 70669 46/// /0214 11079 21120 40205 51012 7//// 8//// 22200 0//// 2////
BBXX CGTF 23124 99476 70527 46/// /2004 10018 21009 40159 51035 7//// 8//// 22200 0//// 2////
BBXX VOFG 23124 99456 70614 46/// /1301 10014 21014 40180 55004 7//// 8//// 22200 0//// 2////
BBXX VOLG 23124 99446 70636 46/// /0404 10005 20003 40168 56015 7//// 8//// 22200 0//// 2////
BBXX CGDG 23124 99447 70636 46/// /0703 11000 20074 40171 56014 7//// 8//// 22200 0//// 2////
BBXX 3FZK3 23124 99456 71228 46/// /1904 10007 21008 40335 53027 7//// 8//// 22200 0//// 2////
BBXX CGBN 23124 99447 70636 46/// /0704 10002 20000 40171 56014 7//// 8//// 22200 0//// 2////
BBXX VOKJ 23124 99455 70735 46/// /0108 11004 21004 40142 51006 7//// 8//// 22200 0//// 2////
BBXX VCSZ 23124 99476 70527 46/// /2905 10015 20015 40154 51038 7//// 8//// 22281 0//// 2////
BBXX CZ9742 23124 99506 70969 46/// /3204 11063 21064 40115 53006 7//// 8//// 22200 0//// 2////
BBXX CGDX 23124 99490 70669 46/// /0308 11077 21116 40208 51012 7//// 8//// 22200 0//// 2////
BBXX VCBW 23124 99470 70655 46/// /0502 11014 21027 40169 56012 7//// 8//// 22200 0//// 2////
BBXX VCWL 23124 99456 70735 46/// /0306 11005 21009 40144 51005 7//// 8//// 22200 0//// 2////
AAXX 23124 78951 11472 61212 10274 20214 30140 40155 69912 7018/ 86800 333 10304 20235 58004 70001 85818
BBXX 46047 23121 99324 71195 46/// /0103 10136 40292 51003 91150 22200 00134 11304 20301 330// 41304 70019 333 91204 555 11037 22040 31050 43605 61149 008034 004031 007035 009035 015034 015036
BBXX 46011 23121 99350 71210 46/// /3507 10117 40312 50004 91150 22200 00137 11303 20501 330// 41303 70016 333 91209 555 11078 22082 31143 43409 61149 346074 346070 344064 345057 341051 342048
BBXX 46084 23121 99566 71361 46/// /2707 10053 21012 40046 51101 91150 22200 00071 11312 20605 300// 41311 70058 333 91209 555 11072 22075 31057 42615 61149 269071 267077 272076 267093 268106 264111
BBXX 46080 23121 99580 71500 46/// /2710 10005 21071 49910 53025 91150 22200 00058 11008 20606 3//// 41005 70039 333 91213 555 11105 22110 31140 42714 61149 266100 275106 274097 279094 279095 277098 82911 91052
BBXX 46075 23121 99539 71608 46/// /0512 10025 21029 49935 53008 91150 22200 00049 10604 20604 300// 41102 70022 333 91214 555 11129 22136 31149 40514 61149 050121 047115 051119 055119 055119 053118 80513 91143
BBXX 46059 23121 99380 71300 46/// /1305 10120 40327 50000 91150 22200 00146 12103 20401 3//// 42103 70016 333 91206 555 11048 22050 31143 41306 61149 131044 121036 122028 121032 120024 108020
BBXX 46005 23121 99461 71310 46/// ///06 10098 40273 51019 91150 22200 00099 11715 20502 3//// 41715 70074 333 91209 555 11061 22064
BBXX 46006 23121 99408 71375 46/// /1808 10133 40276 54000 91150 22200 00122 11609 20502 3//// 41609 70046 333 91209 555 11082 22089 31124 41709 61149 179074 178074 178075 179074 180072 181071
BBXX 46002 23121 99426 71305 46/// ///// 10123 40309 51011 91150 22200 00119 11911 70057
BBXX 46078 23121 99561 71526 46/// /3307 10004 21053 49933 57007 91150 333 91208 555 11069 22074
BBXX 44022 23121 99409 70737 46/// ///06 10080 20062 40112 91145 22200 00084 333 91207 555 11062 22067
BBXX 41013 23121 99334 70777 46/// /2307 10219 20198 40174 53009 91150 22200 00202 10704 20704 316// 40803 70022 333 91209 555 11080 22089 31053 42112 61149 232073 229080 225087 223090 220095 210100
BBXX 44065 23121 99404 70737 46/// /3609 10089 20083 40098 53014 91150 22200 00099 10802 20402 317// 40801 70012 333 91212 555 11098 22104 31113 43612 61149 003092 004100 358099 358102 004098 014097 80111 91140
BBXX 44027 23121 99443 70673 46/// /0607 10021 20009 40147 58012 91150 22200 00081 10903 20401 3//// 40903 70015 333 91208 555 11069 22072 31147 40508 61149 055065 049062 047059 046058 046056 043054
BBXX 42065 23121 99149 70750 46/// /0709 10269 20223 91150 22200 11107 20805 3//// 41105 70033 333 91211 555 11097 22104 31055 40712 61149 072091 071094 073096 070099 070096 073102 80711 91053
BBXX 42012 23121 99301 70876 46/// /0109 10128 20121 40204 53015 91150 22200 00198 10702 20402 318// 40701 70010 333 91210 555 11090 22094 31112 43611 61149 004085 004085 000089 358092 002087 359082
BBXX 41012 23121 99300 70805 46/// /2108 10215 40201 53007 91150 22200 00223 10702 20502 310// 40701 70010 333 91209 555 11080 22084 31053 42009 61149 205075 204072 204076 201077 199078 198079
BBXX 41001 23121 99347 70727 46/// ///// 10222 20186 40182 54000 91150 22200 00218 10806 70030
BBXX 42020 23121 99270 70967 46/// /0112 10176 20146 40213 54000 91150 22200 00232 10503 20503 70014 333 91214 555 11127 22134 31102 43514 61149 010119 006117 004118 005112 001113 003105
BBXX 41048 23121 99320 70696 46/// /1908 10220 20165 40249 54000 91150 22200 00221 10802 20601 3//// 40802 70012 333 91210 555 11083 22088 31130 41810 61149 193084 189086 190084 190081 193076 194074 81909 91148
BBXX CG2958 23124 99541 71303 46/// /2617 10059 20037 40131 51054 7//// 8//// 22272 0//// 2////
BBXX VOPP 23124 99456 70735 46/// /3506 11003 21001 4//// 5//// 7//// 8//// 22200 0//// 2////
BBXX VCLM 23124 99468 70712 46/// /0820 11021 21026 40151 55004 7//// 8//// 22200 0//// 2////
BBXX VAAP 23124 99458 70598 46/// /0104 10019 21018 40169 58009 7//// 8//// 22213 0//// 2////
BBXX CGDT 23124 99468 70712 46/// /0614 11020 21030 40156 55003 7//// 8//// 22200 0//// 2////
BBXX CGBR 23124 99516 71281 46/// /1010 10060 20059 40219 52046 7//// 8//// 22200 0//// 2////
BBXX VCRG 23124 99474 70619 46/// /0112 10011 21017 40176 58004 7//// 8//// 22200 0//// 2////
BBXX CGSB 23124 99504 70588 46/// /3418 11071 21145 40146 51013 7//// 8//// 22213 00028 2////
BBXX CGUM 23124 99445 70635 46/// /0611 10009 20008 40169 58015 7//// 8//// 22262 0//// 2////
BBXX 46026 23121 99378 71228 46/// /0702 10102 40330 52007 91150 22200 00115 11102 330// 41102 70011 333 91202 555 11017 22018 31146 40702 61149 054016 294010 299015 299016 301014 301013
BBXX 46041 23121 99474 71247 46/// /2203 10089 40285 51019 91150 22200 00080 11406 20401 3//// 41406 70030 333 91204 555 11032 22038 31126 42105 61149 214029 207036 206040 197038 193035 200033
BBXX 44007 23121 99435 70701 46/// /0608 10029 20023 40135 56014 91150 22200 00079 10403 20402 3//// 40802 70013 333 91209 555 11083 22087 31114 40710 61149 063079 062080 062079 062080 063078 066082
BBXX 46072 23121 99517 71722 46/// /3410 10015 21032 40062 53031 91150 22200 00048 11007 20704 3//// 41005 70033 333 91212 555 11108 22114 31124 43415 61149 344101 348110 348122 338118 333109 331109 83513 91124
BBXX 42039 23121 99288 70860 46/// /3304 10220 40183 53012 91150 22200 00232 10602 20401 300// 40602 70011 333 91205 555 11042 22043 31127 43306 61149 332039 321047 326046 325041 311041 314046 83205 91131
BBXX 46082 23121 99597 71434 46/// ///// 10025 49902 51068 91150 22200 00062 11009 70047
BBXX 46035 23121 99571 71778 46/// /3612 1//// 40141 53026 91150 22200 10806 20806 70032 333 91214 555 11122 22130 31128 43514 61149 356121 353123 346116 341109 350106 357108 83513 91134
BBXX 46077 23121 99579 71543 46/// /2805 11004 21111 49908 50008 91150 22200 00052 10602 20402 3//// 40602 70011 333 91207 555 11052 22054 31055 42711 61149 274051 254067 259071 253083 255094 262096 82610 91107
BBXX 41040 23121 99145 70530 46/// /0508 10260 20212 40158 53021 91150 22200 00275 11206 20604 3//// 41205 70031 333 91210 555 11087 22091 31135 40712 61149 054084 059092 067088 064085 062089 058082 80610 91135
BBXX CGDS 23124 99453 70739 46/// /3301 10009 20005 4//// 5//// 7//// 8//// 22200 0//// 2////
BBXX BATEU08 23124 99668 70542 46/// /0913 11065 21093 49878 52008 22283
BBXX WABS 23124 99483 71239 41598 80914 10061 2004/ 40300 54000 7//22 8872/ 22263 0//// 2//// 3//// 4//// 5//// 6//// 80050 ICE /////
BBXX C6JS 23123 99249 70591 41498 50513 10230 2019/ 40250 53010 70322 894// 22254 20402 334// 40603 5//// 80200
BBXX 42002 23121 99258 70937 46/// /0310 10219 20193 40196 52009 91150 22200 00239 10603 20603 70016 333 91211 555 11098 22104 31124 40212 61149 032099 030100 024101 024092 026095 025097
BBXX 44066 23121 99396 70726 46/// /2314 10161 20147 40063 55005 91150 22200 00132 10806 20806 70028 333 91218 555 11154 22168 31117 42218 61149 228140 225138 223141 222142 220135 219130
BBXX 41043 23121 99211 70650 46/// /0910 10252 20199 40208 53014 91150 22200 00260 10806 20705 300// 40804 70030 333 91212 555 11108 22114 31113 40814 61149 085100 081099 081103 081104 080101 078111 80812 91055
BBXX 41036 23121 99342 70770 46/// ///// 10201 20177 40173 53020 91150 22200 00198 10704 70021
BBXX DBLK 23121 99697 50014 41297 71302 11016 21023 49872 54000 70222 875// 22212 05019 20100 ICE 1/780
BBXX CG2960 23124 99423 70830 46/// /0104 11028 21080 4//// 5//// 7//// 8//// 22200 0//// 2////
BBXX CG2350 23124 99433 70798 46/// /3109 10009 21021 40204 51031 7//// 8//// 22200 0//// 2////
BBXX 42001 23121 99259 70897 46/// /0000 10236 20222 40196 55000 91150 22200 00243 10803 20401 3//// 40803 70013 333 91201 555 11005 22005 31100 41602 61149 285005 259005 211005 171008 162015 169013
BBXX 41044 23121 99217 70587 46/// /0809 10246 20182 40212 53012 91150 22200 00261 11005 20704 300// 41003 70026 333 91211 555 11099 22104 31120 40714 61149 081091 077082 066105 067110 071082 074105 80712 91120
BBXX 41049 23121 99275 70630 46/// /0807 10223 20161 40271 53014 91150 22200 00234 11003 20602 300// 41002 70017 333 91208 555 11071 22074 31146 40908 61149 079067 072068 075067 069070 073069 074068 80708 91123
BBXX 44005 23121 99432 70691 46/// /1001 10049 20034 40129 56013 91150 22200 00076 11002 20401 3//// 41002 70011 333 91202 555 11013 22014 31115 41404 61149 093013 086008 134015 152022 251005 191006
BBXX 42059 23121 99151 70675 46/// /0712 10277 20195 40151 53014 91150 22200 00279 10907 20706 3//// 40904 70037 333 91214 555 11126 22135 31123 40715 61149 069118 066120 069128 072126 073116 073125 80714 91124
BBXX 42019 23121 99279 70954 46/// /0109 10169 20139 40219 53008 91150 333 91212 555 11094 22100 31149 40212 61149 000088 283092 283080 283081 282087 285077
BBXX 42056 23121 99198 70849 46/// /0706 10263 20235 40164 53008 91150 22200 00271 10903 20602 312// 40903 70017 333 91208 555 11067 22070 31136 40808 61149 073063 074063 074063 078063 074063 080061 80707 91148
BBXX 42036 23121 99285 70845 46/// /1805 10223 20216 40192 53010 91150 22200 00218 10602 20401 318// 40602 70010 333 91206 555 11052 22058 31051 41808 61149 182047 187053 187054 180061 178063 177066
BBXX 42364 23121 99291 70881 46/// /0109 10172 20144 40207 91145
BBXX 42363 23121 99282 70892 46/// /0109 10200 20150 40207 91145 333 91209
BBXX 42362 23121 99278 70907 46/// /0210 10194 20150 40203 91145
BBXX 42058 23121 99149 70749 46/// /0811 10269 20226 40122 53011 91150 22200 00275 10905 20703 309// 40904 70026 333 91213 555 11122 22130 31110 40814 61149 076112 082105 082110 081110 075107 074107 80812 91147
BBXX 42060 23121 99163 70635 46/// /0609 10265 20203 40171 53016 91150 22200 00275 10705 20705 300// 40902 70026 333 91211 555 11093 22098 31051 40712 61149 058087 061083 059087 060084 059086 060092 80610 91051
BBXX 42035 23121 99292 70944 46/// /0408 10126 20118 40236 52007 91150 22200 00156 10801 20301 314// 40801 70006 333 91209 555 11081 22085 31133 40409 61149 040077 037079 035075 024068 023070 022069
BBXX 41060 23121 99148 70510 46/// ///// 1//// 91150 22200 11105 70027
BBXX 42003 23121 99260 70856 46/// /1504 1//// 91150 22200 10701 20401 314// 40701 70007 333 91204 555 11037 22039 31053 41604 61149 153035 162033 154031 156032 163031 162033 81604 91148
BBXX 42040 23121 99292 70882 46/// /0209 10163 40203 53012 91150 22200 00227 10603 20603 70015 333 91210 555 11090 22094 31052 43611 61149 017089 018091 019089 023088 013089 011092
BBXX 3EMK6 23124 99266 70925 41/// /0118 10203 2//// 40210 54000 7//// 8//// 22200 00232 2//// 3//// 4//// 5//// 6//// 8//// ICE /////
BBXX DQXQ 23124 99320 71648 41/97 80116 10182 20118 40265 58005 70022 8//// 22225 00190 299// 329// 41006 80144
BBXX A8JX8 23121 99455 71457 41598 52414 10100 20061 40120 52015 7//22 8344/ 22225 20510 323// 40510 5//// 80080
BBXX 9VVN 23124 99539 71539 41897 80730 10040 2104/ 49950 57040 70322 8877/ 22224 04060 2//// 3//// 4//// 5//// 6//// 80010 ICE /////
BBXX SHIP 23124 99318 71284 41597 50914 10140 20123 40240 51/// 7//11 8526/ 22263 00160 20402 33536 40604 50905 6//// 80130 ICE /////
BBXX WDC6736 23124 99314 70801 43/// /2019 10220 2019/ 40170 54005 7//// 8//// 22211 00230 2//// 3//// 4//// 5//// 6//// 80200 ICE /////
BBXX FVNM 23124 99089 70795 46/// /3306 10255 20237 40092 53019 22200 00270
BBXX ELZA8 23124 99058 70517 41598 20940 10270 20221 40122 53040 70100 82100 22275 04280 20502 306// 40906 80235
BBXX WDC6698 23124 99089 71471 43/// /3525 1//// 2//// 40080 5//// 7//// 8//// 222// 04265 2//// 3//// 4//// 5//// 6//// 8//// ICE /////
BBXX 3FSB4 23124 99147 70963 41798 23205 10270 2024/ 40120 55020 7//00 8218/ 22234 0//// 2//// 3//// 4//// 5//// 6//// 80250 ICE /////
BBXX TFBKF 23124 99635 70202 46/// ///// 22200 10707 70033
BBXX TFSTD 23124 99664 70234 46/// ///// 22200 10604 70020
BBXX TFGSK 23124 99641 70229 46/// ///// 22200 10808 70040
BBXX TFSRT 23124 99633 70203 46/// ///// 22200 10910 70049
BBXX TFGRS 23124 99663 70182 46/// ///// 22200 10606 70028
BBXX TFBLK 23124 99657 70248 46/// ///// 22200 10604 70022
BBXX TFDRN 23124 99658 70212 46/// ///// 22200 10804 70020
BBXX TFGRV 23124 99638 70225 46/// ///// 22200 10907 70034
BBXX TFKGR 23124 99657 70136 46/// ///// 22200 10709 70043
BBXX TFHFN 23124 99642 70152 46/// ///// 22200 11008 70042
BBXX DBBH 23121 99376 70010 41/98 /3501 10158 20092 40273 58009 7//// 22200 04164
BBXX 62087 23121 99547 10068 46/// /0702 10098 20077 4//// 5//// 22270 00084
BBXX DBBI 23121 99535 10100 46/// /2506 10094 20094 40163 57015 22220 00032
BBXX DBBA 23121 99541 10121 46/// /2503 10094 20080 40150 57017 22220 00053
BBXX DBND 23121 99536 10486 46/// /2305 10089 20085 40160 57013 22220 00054
BBXX DBKR 23121 99541 10121 46/// /2305 10091 20091 40150 57017 22200 00050
BBXX DBBC 23121 99535 10100 46/// /2406 10091 2//// 40164 57017 22240 00038
BBXX BSH02 23121 99542 10079 46/// ///// 22200 00072 20703 70016
BBXX A8SI8 23124 99373 10056 43498 83015 10160 2013/ 40330 52030 8662/ 22265 00160 20302 336// 40607 80 140
BBXX WDD6126 23124 99420 70314 41598 81816 10150 2008/ 40360 54000 70222 885// 22254 00150 20403 327// 40806 5//// 6//// 80110 ICE /////
BBXX A8SI8 23124 99373 10056 43498 83015 10160 2013/ 40330 52030 8662/ 22265 00160 20302 336// 40607 80140
BBXX WCZ5535 23124 99345 70229 41898 20919 10200 2012/ 40300 52025 70200 822// 22223 0//// 20302 309// 40302 50302 6//// 80150 ICE /////
BBXX A8JH8 23124 99385 10137 41597 33515 10180 20092 40180 57020 70200 82100 22224 20502 330// 40902
BBXX DK7210 23121 99540 10066 46/// /2211 10094 20094 30117 222// 20603 70015
BBXX C6CL6 23124 99438 70219 41498 32724 10270 2026/ 40390 52020 70000 83940 22263 00180 2//// 3//// 4//// 5//// 6//// 80260 0/0/0
BBXX ZCDE3 23123 99141 30917 41398 71328 10255 20221 40035 57010 75022 85774 22213 00280 20404 31612 40605 50504 80232
BBXX BATEU07 23124 99115 31066 46/// /2514 10279 40056 53013 22284
BBXX BATFR08 23124 99335 30721 46/// /1707 10177 20087 40275 56011 22273 00189
BBXX BATFR53 23124 99188 51678 46/// /0514 10277 20214 40092 57010 22222 00284
BBXX PCHM 23124 99464 31666 41598 60617 10170 20162 40238 53000 70222 8437/ 22223 00160 20202 30000 80165
AAXX 23124 04005 41/02 99901 11029 21080 49876 57001 78688 555 3/202
AAXX 23124 04018 41470 52320 11012 21076 49933 52014 71582 83360 555 3//28 81916 83650 85357
AAXX 23124 04030 41580 52410 10004 21056 49930 52016 71588 83330 555 3//18 82824 83932 85350
AAXX 23124 04048 41478 42726 10006 21032 49943 52023 72688 84900 555 3/636
AAXX 23124 04063 42582 11503 11030 21077 49893 52022 81300 555 3//08
AAXX 23124 04077 NIL
AAXX 23124 04082 42988 33414 11015 21068 49889 8385/ 555 3//17 83461 84561 81460
AAXX 23124 04097 41589 23215 11009 21080 49883 52054 71531 82300 555 3/317
AAXX 23123 04013 42689 62313 11015 21039 49901 52007 82520 555 3//13
AAXX 23123 04064 42688 32905 11042 21062 49939 52037 82242 555 3//09
AAXX 23121 76123 06/// /2904 10007 21010 3//// 4//// 5//// 60001 7//// 8//// 91150 333 0//// 10140 21018 4//// 50179 55086 56/// 57/// 5//// 60007 70000 8//// 8//// 8//// 8//// 9//// 9/
AAXX 23121 76220 32920 00000 11086 21086 38121 40235 5//// 91145 333 10126 21086 31110 59015 70000
AAXX 23121 76305 32970 03403 10145 20047 30196 40205 5//// 91150 333 10218 20140 30125 58020 70000
AAXX 23121 76323 32910 00000 11025 21118 38253 40244 55000 91155 333 10160 21025 31053 59005 70000
AAXX 23121 76342 32940 00903 10070 20034 39536 40258 52019 91150 333 10236 20066 30060 58060 70000
AAXX 23121 76373 32910 00000 11045 21117 38218 40167 5//// 91150 333 10210 21063 31075 58029 70000
AAXX 23121 76382 32960 20701 10076 20032 38906 40167 52001 80001 91154 333 10209 20070 30040 56005 58003 70000 82070
AAXX 23121 76390 31950 01801 10006 21003 38234 40221 54000 70544 91130 333 10192 21015 31025 58022 70000
AAXX 23121 76393 32920 00000 10102 20072 39630 40215 52007 91155 3333 10246 20100 30090 58069 70000
AAXX 23121 76423 32960 30000 10042 21008 38144 40155 57002 80005 91155 333 10262 20038 30/// 56009 58014 70000 83070
AAXX 23121 76458 32960 03502 10144 20118 30149 40154 53001 91145 333 10231 20119 30115 58008 70000
AAXX 23121 76471 32980 42102 10062 20048 37686 40144 5//// 80005 91150 333 10206 20039 30014 55080 56004 58025 70000 84075
AAXX 23121 76490 06/// /2301 10150 20076 39813 40209 54000 60001 7//// 8//// 91150 333 0//// 10268 20105 30/// 50349 54/// 55082 56/// 57/// 58068 60007 70000 8//// 8//// 8//// 8//// 9/
AAXX 23121 76499 31856 60000 10125 20085 30178 40200 5//// 70311 86030 91140 333 10245 20124 30121 56090 58079 70000 86357
AAXX 23121 76525 32960 02007 10074 20029 37464 40137 54000 91150 333 10162 20068 30061 55080 22472 58028
AAXX 23121 76547 06/// /3201 10157 20124 30188 40200 52008 60001 7//// 8//// 91150 333 0//// 10241 20150 4//// 50229 55042 56/// 57/// 58087 60007 70000 8//// 8//// 8//// 8//// 9//// 9/
AAXX 23121 76548 32860 13201 10152 20125 30199 40209 52006 81030 91140 333 10240 20148 30144 56050 58086 70000 81357
AAXX 23121 76556 32960 01602 10134 20114 39119 40142 58002 91130 333 10260 20133 30115 58009 70000
AAXX 23121 76577 32960 00000 10078 20069 38049 40172 51002 91140 333 10226 20073 30064 58013 70000
AAXX 23121 76581 12965 71402 10149 20138 39062 40168 5//// 69941 87020 91155 333 10290 20136 30128 56020 58044 70004 87459
AAXX 23121 76585 01680 80000 10160 20155 30041 40200 53020 69931 72055 8542/ 91140 333 10253 20159 30155 55043 5688/ 58086 69907 70003 85640 83458
AAXX 23121 76586 06/// /0000 10175 20169 30044 40202 53004 60001 7//// 8//// 91150 333 0//// 10269 20175 30/// 4//// 50209 54/// 55041 56/// 57/// 58087 60007 70004 8//// 8//// 8//// 9/
AAXX 23121 76592 06/// /1002 10212 20067 30167 40167 52013 60001 7//// 8//// 91150 333 0//// 10325 20212 30/// 4//// 50619 54/// 55052 56/// 57/// 58029 60007 70000 8//// 8//// 8//// 9/
AAXX 23121 76593 31910 01101 10210 20210 30171 40173 51013 71000 91150 333 10314 20208 30207 58036 70000 97100
AAXX 23121 76612 32958 00000 10082 20079 38478 40178 52004 91155 333 10248 20080 30070 55081 21003 58009 70000
AAXX 23121 76625 32960 10000 10110 20085 38151 40137 52004 81005 91145 333 10253 20106 30085 5600/ 58020 70000 81070
AAXX 23121 76632 31957 00504 10080 20064 37627 40154 5//// 70500 91145 333 10220 20078 30/// 58077 70000
AAXX 23121 76634 31970 01502 10081 20078 37862 40187 5//// 70500 91150 333 10236 20075 30056 58022 70000
AAXX 23121 76641 06/// /0702 10197 20174 30189 40201 53009 60001 7//// 8//// 91150 333 0//// 10269 20197 30/// 4//// 50169 54/// 55000 56/// 57/// 58084 60007 70000 8//// 8//// 8//// 8/
AAXX 23121 76644 32650 21401 10218 20215 30151 40164 57003 82030 91150 333 10325 20218 30212 56/// 58025 70000
AAXX 23121 76645 06/// /1101 10217 20214 30158 40171 52013 60001 7//// 8//// 91150 333 0//// 10325 20217 30/// 4//// 50359 54/// 55054 56/// 57/// 58029 60007 70000 8//// 8//// 8//// 9/
AAXX 23121 76654 31956 00402 10212 20176 30135 40139 5//// 70544 91151 333 10288 20212 30190 58012 70000
AAXX 23121 76656 32968 00000 10065 20059 38518 40181 52005 91150 333 10253 20052 30015 58015 70000
AAXX 23121 76662 32960 01301 10082 20059 38469 40171 52002 91140 333 10276 20050 30042 58015 70000
AAXX 23121 76665 32958 02101 10068 20023 38119 40154 57003 91155 333 10270 20055 30045 58006 70000
AAXX 23121 76675 32960 02001 11001 21024 37379 40203 5//// 91145 333 10216 21013 31035 58010 70000
AAXX 23121 76680 31958 02301 10095 20062 37762 40104 52004 70400 91150 333 10245 20095 30081 58021 70000
AAXX 23121 76683 32962 00000 10064 20050 37840 40211 55004 91145 333 10237 20064 30040 50281 55087 21943 58022 70000
AAXX 23121 76685 32950 00000 10070 20044 37880 40164 52006 91150 333 10242 20068 30025 58026 70000
AAXX 23121 76687 31358 62201 10125 20112 38701 40191 52005 70222 865// 91148 333 10256 20090 30075 563// 58048 70000 82716 84618
AAXX 23121 76692 31420 73604 10239 20215 30152 40171 55005 71044 8525/ 91145 333 10291 20236 30/// 568// 58054 70000 82817 83640
AAXX 23121 76693 06/// /3504 10240 20220 30155 40174 53007 60001 7//// 8//// 91150 333 0//// 10291 20239 30/// 4//// 50249 55000 56/// 57/// 58058 60007 70000 8//// 8//// 8//// 8//// 9/
AAXX 23121 76695 31156 91201 10219 20215 30148 40159 52017 71033 88600 91148 333 10335 20195 30190 560// 59035 70000 88701
AAXX 23121 76698 12558 40000 10219 20215 30154 40166 5//// 60011 84200 91155 333 10318 20216 30194 56300 58023 70040 84820
AAXX 23121 76737 31465 80000 10155 20124 38796 40177 50005 70222 886// 91135 333 10287 20154 30140 569// 58056 70000 88710
AAXX 23121 76738 06/// /3601 10150 20134 38798 40189 53007 60001 7//// 8//// 333 10295 20150 30/// 50259 55000 56/// 57/// 58056 60007 70000 8//// 8//// 8//// 8//// 9//// 9//// 9//// 44
AAXX 23121 76743 31240 83301 10245 20230 30142 40150 53009 70211 885// 91145 333 10301 20240 30232 567// 58035 70000 88606
AAXX 23121 76750 32560 73202 10236 20229 30147 40157 5//// 87700 91150 333 10328 20230 30225 56200 58024 70000 87920
AAXX 23121 76751 06/// /3501 10233 20230 30147 40157 52011 60001 7//// 8//// 91150 333 0//// 10311 20231 30/// 4//// 50219 54/// 55000 56/// 57/// 58025 60007 70000 8//// 8//// 8//// 9/
AAXX 23121 76762 32904 00000 10130 20116 38762 40135 53003 91156 333 10310 20128 30120 58016 70000
AAXX 23121 76772 06/// /0000 10076 20048 38437 40218 52008 60001 7//// 8//// 91150 333 0//// 10302 20075 30/// 4//// 5///9 55000 56/// 57/// 58016 60007 70000 8//// 8//// 8//// 9//// 9/
AAXX 23121 76773 32930 01801 10084 20049 38430 40158 52004 91146 333 10290 20080 30/// 50331 55100 58016 70000
AAXX 23121 76775 31960 00701 10120 20077 38535 40167 52010 70200 91145 333 10316 20115 30/// 58021 70000
AAXX 23121 76776 06/// /0402 10123 20083 38521 40184 52013 60001 7//// 8//// 91150 333 0//// 10326 20109 30/// 4//// 50409 55095 56/// 57/// 58021 60007 70000 8//// 8//// 8//// 9//// 9/
AAXX 23121 76806 06/// /3402 10214 20196 30116 40120 55000 60001 7//// 8//// 91150 333 10314 20197 30191 30/// 50229 55000 56/// 57/// 58006 60007 70000 8//// 8//// 8//// 8//// 9//// 9/
AAXX 23121 76833 32965 03608 10270 20179 30109 40111 52004 91155 333 10310 20259 30251 58008 70000 92023
AAXX 23121 76840 32901 00305 10276 20215 30058 40113 5//// 91145 333 10360 20188 30/// 56000 58007 70000
AAXX 23121 76845 31/10 90000 10072 20068 37959 40231 5//// 74244 98/// 91145 333 10234 20058 30046 58019 70000 98///
AAXX 23121 76848 32250 23601 10124 20111 38392 40118 51011 82600 91150 333 10276 20124 30090 56100 58023 70000 82705
AAXX 23121 76855 32580 03601 10220 20184 30050 40098 56001 91155 333 10328 20210 30206 55101 56000 58012 70000 92001
AAXX 23121 76902 06/// /0501 10228 20172 39977 40116 53008 60001 7//// 8//// 91150 333 0//// 10339 20218 30/// 4//// 50419 54/// 56/// 57/// 58001 60007 70000 8//// 8//// 8//// 8//// 9/
AAXX 23121 76243 32970 03602 10048 20027 39976 40296 54000 91135 333 10220 20030 30024 58112 70000
AAXX 23121 76311 32920 00000 10042 20036 39896 40183 51006 91155 333 10267 20040 30030 58007 70000
AAXX 23121 76405 32940 23604 10175 20115 30168 40190 52006 82030 91150 333 10224 20150 30135 58020 70000 82356
AAXX 23121 76412 32960 00000 10100 20077 30132 40179 52003 91145 333 10278 20090 30/// 58000 70000
AAXX 23121 76640 31110 70403 10196 20190 30179 40191 52010 70222 8427/ 91145 333 10264 20192 30190 5699/ 58072 70003 84802 83345
AAXX 23121 76647 31810 70501 10215 20210 30149 40180 5//// 71022 8702/ 91150 333 10292 20205 30195 560// 58026 70004 87858
AAXX 23121 76741 31240 33203 10237 20223 30127 40146 52008 70120 83100 91135 333 10286 20221 30218 568// 58046 70000 83805
AAXX 23124 48569 01458 80000 10249 20209 30040 40080 52018 60062 76062 8487/ 333 10310 59005 60067 70057
AAXX 23121 76123 06/// /2904 10007 21010 3//// 4//// 5//// 60001 7////8//// 91150 333 0//// 10140 21018 4//// 50179 55086 56///57/// 5//// 60007 70000 8//// 8//// 8//// 8//// 9//// 9/
AAXX 23121 76220 32920 00000 11086 21086 38121 40235 5//// 91145 33310126 21086 31110 59015 70000
AAXX 23121 76305 32970 03403 10145 20047 30196 40205 5//// 91150 33310218 20140 30125 58020 70000
AAXX 23121 76323 32910 00000 11025 21118 38253 40244 55000 91155 33310160 21025 31053 59005 70000
AAXX 23121 76342 32940 00903 10070 20034 39536 40258 52019 91150 33310236 20066 30060 58060 70000
AAXX 23121 76373 32910 00000 11045 21117 38218 40167 5//// 91150 33310210 21063 31075 58029 70000
AAXX 23121 76382 32960 20701 10076 20032 38906 40167 52001 80001 91154333 10209 20070 30040 56005 58003 70000 82070
AAXX 23121 76390 31950 01801 10006 21003 38234 40221 54000 70544 91130333 10192 21015 31025 58022 70000
AAXX 23121 76393 32920 00000 10102 20072 39630 40215 52007 91155 3333 10246 20100 30090 58069 70000
AAXX 23121 76423 32960 30000 10042 21008 38144 40155 57002 80005 91155333 10262 20038 30/// 56009 58014 70000 83070
AAXX 23121 76458 32960 03502 10144 20118 30149 40154 53001 91145 33310231 20119 30115 58008 70000
AAXX 23121 76471 32980 42102 10062 20048 37686 40144 5//// 80005 91150333 10206 20039 30014 55080 56004 58025 70000 84075
AAXX 23121 76490 06/// /2301 10150 20076 39813 40209 54000 60001 7////8//// 91150 333 0//// 10268 20105 30/// 50349 54/// 5508256/// 57/// 58068 60007 70000 8//// 8//// 8//// 8//// 9/
AAXX 23121 76499 31856 60000 10125 20085 30178 40200 5//// 70311 8603091140 333 10245 20124 30121 56090 58079 70000 86357
AAXX 23121 76525 32960 02007 10074 20029 37464 40137 54000 91150 33310162 20068 30061 55080 22472 58028
AAXX 23121 76547 06/// /3201 10157 20124 30188 40200 52008 60001 7////8//// 91150 333 0//// 10241 20150 4//// 50229 55042 56///57/// 58087 60007 70000 8//// 8//// 8//// 8//// 9//// 9/
AAXX 23121 76548 32860 13201 10152 20125 30199 40209 52006 81030 91140333 10240 20148 30144 56050 58086 70000 81357
AAXX 23121 76556 32960 01602 10134 20114 39119 40142 58002 91130 33310260 20133 30115 58009 70000
AAXX 23121 76577 32960 00000 10078 20069 38049 40172 51002 91140 33310226 20073 30064 58013 70000
AAXX 23121 76581 12965 71402 10149 20138 39062 40168 5//// 69941 8702091155 333 10290 20136 30128 56020 58044 70004 87459
AAXX 23121 76585 01680 80000 10160 20155 30041 40200 53020 69931 720558542/ 91140 333 10253 20159 30155 55043 5688/ 58086 6990770003 85640 83458
AAXX 23121 76586 06/// /0000 10175 20169 30044 40202 53004 60001 7////8//// 91150 333 0//// 10269 20175 30/// 4//// 50209 54///55041 56/// 57/// 58087 60007 70004 8//// 8//// 8//// 9/
AAXX 23121 76592 06/// /1002 10212 20067 30167 40167 52013 60001 7////8//// 91150 333 0//// 10325 20212 30/// 4//// 50619 54///55052 56/// 57/// 58029 60007 70000 8//// 8//// 8//// 9/
AAXX 23121 76593 31910 01101 10210 20210 30171 40173 51013 71000 91150333 10314 20208 30207 58036 70000 97100
AAXX 23121 76612 32958 00000 10082 20079 38478 40178 52004 91155 33310248 20080 30070 55081 21003 58009 70000
AAXX 23121 76625 32960 10000 10110 20085 38151 40137 52004 81005 91145333 10253 20106 30085 5600/ 58020 70000 81070
AAXX 23121 76632 31957 00504 10080 20064 37627 40154 5//// 70500 91145333 10220 20078 30/// 58077 70000
AAXX 23121 76634 31970 01502 10081 20078 37862 40187 5//// 70500 91150333 10236 20075 30056 58022 70000
AAXX 23121 76641 06/// /0702 10197 20174 30189 40201 53009 60001 7////8//// 91150 333 0//// 10269 20197 30/// 4//// 50169 54///55000 56/// 57/// 58084 60007 70000 8//// 8//// 8//// 8/
AAXX 23121 76644 32650 21401 10218 20215 30151 40164 57003 82030 91150333 10325 20218 30212 56/// 58025 70000
AAXX 23121 76645 06/// /1101 10217 20214 30158 40171 52013 60001 7////8//// 91150 333 0//// 10325 20217 30/// 4//// 50359 54///55054 56/// 57/// 58029 60007 70000 8//// 8//// 8//// 9/
AAXX 23121 76654 31956 00402 10212 20176 30135 40139 5//// 70544 91151333 10288 20212 30190 58012 70000
AAXX 23121 76656 32968 00000 10065 20059 38518 40181 52005 91150 33310253 20052 30015 58015 70000
AAXX 23121 76662 32960 01301 10082 20059 38469 40171 52002 91140 33310276 20050 30042 58015 70000
AAXX 23121 76665 32958 02101 10068 20023 38119 40154 57003 91155 33310270 20055 30045 58006 70000
AAXX 23121 76675 32960 02001 11001 21024 37379 40203 5//// 91145 33310216 21013 31035 58010 70000
AAXX 23121 76680 31958 02301 10095 20062 37762 40104 52004 70400 91150333 10245 20095 30081 58021 70000
AAXX 23121 76683 32962 00000 10064 20050 37840 40211 55004 91145 33310237 20064 30040 50281 55087 21943 58022 70000
AAXX 23121 76685 32950 00000 10070 20044 37880 40164 52006 91150 33310242 20068 30025 58026 70000
AAXX 23121 76687 31358 62201 10125 20112 38701 40191 52005 70222 865//91148 333 10256 20090 30075 563// 58048 70000 82716 84618
AAXX 23121 76692 31420 73604 10239 20215 30152 40171 55005 71044 8525/91145 333 10291 20236 30/// 568// 58054 70000 82817 83640
AAXX 23121 76693 06/// /3504 10240 20220 30155 40174 53007 60001 7////8//// 91150 333 0//// 10291 20239 30/// 4//// 50249 5500056/// 57/// 58058 60007 70000 8//// 8//// 8//// 8//// 9/
AAXX 23121 76695 31156 91201 10219 20215 30148 40159 52017 71033 8860091148 333 10335 20195 30190 560// 59035 70000 88701
AAXX 23121 76698 12558 40000 10219 20215 30154 40166 5//// 60011 8420091155 333 10318 20216 30194 56300 58023 70040 84820
AAXX 23121 76737 31465 80000 10155 20124 38796 40177 50005 70222 886//91135 333 10287 20154 30140 569// 58056 70000 88710
AAXX 23121 76738 06/// /3601 10150 20134 38798 40189 53007 60001 7////8//// 333 10295 20150 30/// 50259 55000 56/// 57/// 5805660007 70000 8//// 8//// 8//// 8//// 9//// 9//// 9//// 44
AAXX 23121 76743 31240 83301 10245 20230 30142 40150 53009 70211 885//91145 333 10301 20240 30232 567// 58035 70000 88606
AAXX 23121 76750 32560 73202 10236 20229 30147 40157 5//// 87700 91150333 10328 20230 30225 56200 58024 70000 87920
AAXX 23121 76751 06/// /3501 10233 20230 30147 40157 52011 60001 7////8//// 91150 333 0//// 10311 20231 30/// 4//// 50219 54///55000 56/// 57/// 58025 60007 70000 8//// 8//// 8//// 9/
AAXX 23121 76762 32904 00000 10130 20116 38762 40135 53003 91156 33310310 20128 30120 58016 70000
AAXX 23121 76772 06/// /0000 10076 20048 38437 40218 52008 60001 7////8//// 91150 333 0//// 10302 20075 30/// 4//// 5///9 5500056/// 57/// 58016 60007 70000 8//// 8//// 8//// 9//// 9/
AAXX 23121 76773 32930 01801 10084 20049 38430 40158 52004 91146 33310290 20080 30/// 50331 55100 58016 70000
AAXX 23121 76775 31960 00701 10120 20077 38535 40167 52010 70200 91145333 10316 20115 30/// 58021 70000
AAXX 23121 76776 06/// /0402 10123 20083 38521 40184 52013 60001 7////8//// 91150 333 0//// 10326 20109 30/// 4//// 50409 5509556/// 57/// 58021 60007 70000 8//// 8//// 8//// 9//// 9/
AAXX 23121 76806 06/// /3402 10214 20196 30116 40120 55000 60001 7////8//// 91150 333 10314 20197 30191 30/// 50229 55000 56///57/// 58006 60007 70000 8//// 8//// 8//// 8//// 9//// 9/
AAXX 23121 76833 32965 03608 10270 20179 30109 40111 52004 91155 33310310 20259 30251 58008 70000 92023
AAXX 23121 76840 32901 00305 10276 20215 30058 40113 5//// 91145 33310360 20188 30/// 56000 58007 70000
AAXX 23121 76845 31/10 90000 10072 20068 37959 40231 5//// 74244 98///91145 333 10234 20058 30046 58019 70000 98///
AAXX 23121 76848 32250 23601 10124 20111 38392 40118 51011 82600 91150333 10276 20124 30090 56100 58023 70000 82705
AAXX 23121 76855 32580 03601 10220 20184 30050 40098 56001 91155 33310328 20210 30206 55101 56000 58012 70000 92001
AAXX 23121 76902 06/// /0501 10228 20172 39977 40116 53008 60001 7////8//// 91150 333 0//// 10339 20218 30/// 4//// 50419 54///56/// 57/// 58001 60007 70000 8//// 8//// 8//// 8//// 9/
AAXX 23121 76243 32970 03602 10048 20027 39976 40296 54000 91135 33310220 20030 30024 58112 70000
AAXX 23121 76311 32920 00000 10042 20036 39896 40183 51006 91155 33310267 20040 30030 58007 70000
AAXX 23121 76405 32940 23604 10175 20115 30168 40190 52006 82030 91150333 10224 20150 30135 58020 70000 82356
AAXX 23121 76412 32960 00000 10100 20077 30132 40179 52003 91145 33310278 20090 30/// 58000 70000
AAXX 23121 76640 31110 70403 10196 20190 30179 40191 52010 70222 8427/91145 333 10264 20192 30190 5699/ 58072 70003 84802 83345
AAXX 23121 76647 31810 70501 10215 20210 30149 40180 5//// 71022 8702/91150 333 10292 20205 30195 560// 58026 70004 87858
AAXX 23121 76741 31240 33203 10237 20223 30127 40146 52008 70120 8310091135 333 10286 20221 30218 568// 58046 70000 83805
OOXX AABRI 23124 99839 51342 60134 05251 46/// /0617 11018 21209 39176 49782 5//// 91140
OOXX AAEMI 23124 99785 31731 57083 00521 46/// /3108 11081 21103 39781 49847 5//// 91140
AAXX 23124 68070 41960 20714 10340 20172 48507 57020 70400 82080
AAXX 23124 07650 02962 02803 10128 20066 30198 40237 58004 60001 333 60007 90710 91104 93100 555 60005
AAXX 23124 48500 31956 30108 10262 20222 30075 40082 52008 71011 80005 333 10302 59014
AAXX 23124 07558 01001 72503 10053 20052 39408 40261 58013 60001 74241 876// 333 60007 87700 90710 91105 93100 555 60005
AAXX 23124 78951 11472 61212 10274 20214 30140 40155 69912 7018/ 86800 333 10304 20235 58004 70001 85818
AAXX 23124 48372 31958 20000 10271 20233 30041 40099 52006 71000 82031 333 10316 59012
AAXX 23124 78951 11472 61212 10274 20214 30140 40155 69912 7018/ 86800 333 10304 20235 58004 70001 85818
AAXX 23124 47101 32670 60201 11071 21127 30135 40236 57007 85500 333 11009 30107
AAXX 23124 47105 369// /2507 11020 21177 30184 40217 57002 333 10027 3/101
AAXX 23124 47108 11570 81603 11026 21104 30116 40226 57017 69902 77177 8572/ 333 11011 34102
AAXX 23124 47115 11560 73205 11007 21064 39920 40199 57008 60032 78588 87800 333 11003 3/000 49004 92042
AAXX 23124 47133 32970 02702 11041 21140 30153 40242 57014 333 10003 34104
AAXX 23124 47138 32970 02005 11011 21177 30222 40225 58001 333 10035 30103 92022
AAXX 23124 47159 32975 03407 11011 21207 30132 40220 58003 333 10047 30103 92023
AAXX 23124 47165 12970 00000 11027 21107 30200 40249 55003 69902 333 10026 34102 92020
AAXX 23124 47168 32670 53606 11006 21164 30148 40230 50004 81501 333 10025 30102 92022
AAXX 23124 47184 12670 63408 10028 21053 30222 40248 51002 69902 86500 333 10036 31002 92033
AAXX 23121 38353 42997 00000 11092 21148 39353 40310 57006 70400
AAXX 23121 38613 42999 02501 10009 21076 39351 40277 57008 555 11101
AAXX 23121 38616 42999 00000 11002 21056 39228 40270 57010
AAXX 23121 38345 42999 00000 11015 21079 38826 48519 54000 555 14107
AAXX 23121 36911 42999 00000 11071 21114 39280 40293 57009 555 1/116
AAXX 23121 36974 429// 02302 11174 21200 38027 48605 57004 555 17120
AAXX 23121 36982 429// 20000 11199 21248 36531 47196 57004 82010
BBXX UITJ 23121 99644 10054 41497 52328 10080 49797 57003 70282 85900 22251 00100 21312
BBXX MFLM9 23123 99230 31128 41397 31820 10250 20235 40055 56010 70311 82943 22273 04251 20303 318// 40304 5//// 80240
BBXX PHIN 23124 99475 70209 41598 42816 10148 20076 40376 52048 70311 84200 22263 00130 20302 330// 41107 80109
BBXX LAHV 23121 99589 10057 43/// /2703 10079 20060 40033 222// 04090 1////
BBXX LDGJ 23121 99603 10053 43/// /1703 10070 20022 40007 5//// 222/0 04096 1//// 3//// 4//// 5////
BBXX LF4H 23124 99596 10022 46/98 12523 10070 20011 40008 52003 8//// 22200 06087 10810 70048 333 91136
BBXX LMEL 23121 99603 10053 43/// /1703 10054 20039 40006 5//// 222/0 04097 1//// 3//// 4//// 5////
BBXX 3FZK3 23124 99456 71228 46/// /1904 10007 21008 40335 53027 7//// 8//// 22200 0//// 2////
BBXX 46001 23121 99563 71480 46/// /2607 10027 49945 51013 91150 22200 00046 11208 20604 300// 41207 70039 333 91209 555 11078 22082 31055 42711 61149 256074 255079 256077 256077 256087 263089
BBXX 46012 23121 99374 71229 46/// /3602 10113 40330 53010 91150 22200 00118 11203 20301 327// 41203 70014 333 91203 555 11018 22018 31050 40104 61149 003017 004020 019022 013021 013025 011031
BBXX 46026 23121 99378 71228 46/// /0702 10102 40330 52007 91150 22200 00115 11102 330// 41102 70011 333 91202 555 11017 22018 31146 40702 61149 054016 294010 299015 299016 301014 301013
BBXX 46042 23121 99368 71224 46/// /1003 10106 40326 53006 91150 22200 00124 11103 20301 331// 41103 70017 333 91204 555 11029 22030 31056 41105 61149 099029 104029 107031 107032 108035 113037
BBXX 46054 23121 99342 71204 46/// /3305 10122 40301 52006 91150 22200 00134 11303 20401 300// 41303 70016 333 91206 555 11051 22053 31104 43106 61149 325048 326047 319049 314049 311048 304047
BBXX CG2958 23124 99541 71303 46/// /2617 10059 20037 40131 51054 7//// 8//// 22272 0//// 2////
BBXX CG2965 23124 99487 71235 46/// /0101 10035 20027 40299 53022 7//// 8//// 22200 0//// 2////
BBXX CGBR 23124 99516 71281 46/// /1010 10060 20059 40219 52046 7//// 8//// 22200 0//// 2////
BBXX CGBY 23124 99487 71235 46/// /3601 10026 20016 40298 53023 7//// 8//// 22200 0//// 2////
BBXX CGDR 23124 99491 71237 46/// /1406 10048 20046 40296 53022 7//// 8//// 22200 0//// 2////
BBXX CGJK 23124 99484 71234 46/// /0902 10038 20031 40297 53025 7//// 8//// 22200 0//// 2////
AAXX 23124 48431 32560 80403 10266 20195 39894 40106 52013 85536 333 10289 59006
AAXX 23124 47090 32973 00000 11016 21158 30184 40207 57009 333 10013 3/104 42/// 92030
AAXX 23124 47095 32570 50000 11069 21140 30032 40231 57013 85500 333 11019 34104
AAXX 23124 47097 32667 20502 11047 21126 30133 40234 57013 82500 333 10002 30105
AAXX 23124 47098 11557 80902 11056 21072 30084 40225 57013 69992 77177 8572/ 333 11002 3/102
AAXX 23124 47099 11520 80000 11042 21046 30189 40227 57016 60032 77177 8372/ 333 11004 3/101
AAXX 23124 47100 32970 02706 11107 21186 39273 40244 50008 333 11063 3/107 49025
AAXX 23124 47102 11530 82918 11009 21013 30032 40215 57012 60072 77177 8672/ 333 11006 3/000 43008
AAXX 23124 47104 32970 01104 11038 21170 30114 40215 57003 333 10011 3/103 43002
AAXX 23124 47106 329// /2708 11012 21174 30163 40214 57004 333 10016 3/102
AAXX 23124 47112 11506 81405 11031 21051 30139 40226 57018 60022 773// 8572/ 333 10007 34000
AAXX 23124 47114 32968 00701 11062 21162 30045 40237 58006 333 11019 30106
AAXX 23124 47119 32666 61803 11037 21126 30184 40228 57019 85500 333 11002 34104
AAXX 23124 47121 329// /0001 11075 21159 39934 40244 54000 333 11013 3/108
AAXX 23124 47127 32968 00903 11069 21144 30093 40243 57008 333 11014 3/104
AAXX 23124 47129 32670 61607 11013 21087 30195 40232 57020 85500 333 10014 30102
AAXX 23124 47130 32970 02302 11019 21180 30154 40218 57004 333 10033 30105 92031
AAXX 23124 47131 32970 01603 11039 21161 30164 40238 57015 333 11005 30103
AAXX 23124 47135 32970 00000 11070 21152 39932 40247 56003 333 11009 30105
AAXX 23124 47136 32968 01401 11048 21163 30057 40237 58001 333 10008 30107
AAXX 23124 47137 329// /2002 11045 21187 30116 40240 57006 333 11001 3/105
AAXX 23124 47140 32670 21104 11032 21114 30213 40243 57011 82500 333 10006 31102 92012
AAXX 23124 47143 32675 22703 11020 21181 30163 40245 58002 82500 333 10014 30106
AAXX 23124 47145 32970 01106 11045 21141 30199 40227 57018 333 10000 34104
AAXX 23124 47146 32670 21402 11042 21133 30175 40244 57009 82500 333 10008 34102
AAXX 23124 47150 32670 50001 11030 21103 30215 40235 57015 85500 333 10006 34103
AAXX 23124 47152 32975 03205 11013 21170 30178 40222 58004 333 10028 30103
AAXX 23124 47154 329// /3202 11044 21154 30178 40241 57005 333 10007 3/103
AAXX 23124 47155 32970 23204 11009 21185 30184 40231 50001 80001 333 10027 30103
AAXX 23124 47156 32975 00504 11030 21132 30157 40250 56004 333 10017 34101
AAXX 23124 47157 32970 02706 11059 21141 39948 40231 58003 333 10003 30106
AAXX 23124 47162 32975 00508 11004 21159 30189 40231 50003 333 10037 30101 92023
AAXX 23124 47169 12670 63407 10021 21055 30149 40245 55004 69972 86500 333 10024 31002 92043
AAXX 23124 47170 32970 03406 11016 21154 30207 40252 52009 333 10018 30102 92022
AAXX 23124 47171 329// /1104 11041 21125 30189 40247 58008 333 11001 3/104
AAXX 23124 47172 329// /1802 11051 21093 30171 40241 56008 333 10001 3/102
AAXX 23124 47173 329// /3203 11061 21128 30130 40247 50002 333 10011 3/104
AAXX 23124 47174 32665 32906 11036 21162 30030 40241 51003 83500 333 10008 34103
AAXX 23124 47175 12973 03409 11053 21087 39653 40253 53003 69902 333 11011 34103 92023
AAXX 23124 47185 12670 73216 10042 21033 30148 40241 51008 69902 87500 333 10049 31003 92035
AAXX 23124 47188 32670 20203 10009 21062 30215 40238 52005 82500 333 10048 31001 92022
AAXX 23124 47189 32670 50203 10030 21019 30161 40222 51004 85500 333 10084 30002 92022
AAXX 23124 47192 32975 40201 11019 21184 30197 40236 54000 80001 333 10033 30102
AAXX 23121 14240 12665 62302 10049 21012 30103 40262 58008 60001 83530 333 70000
AAXX 23121 14258 12960 53302 10013 20001 30070 40265 57008 60001 82031 333 70000
AAXX 23121 14445 12684 13204 10090 21063 30053 40209 58011 60001 81200 222// 00150 333 70000 81896 92311
AAXX 23121 15502 12562 60000 10032 21007 30209 40249 58005 60001 86800 333 10034 21004 555 576//
AAXX 23121 15525 11540 80000 10011 21013 39968 40242 58015 69911 77172 885// 333 10014 21018 47006 555 58400 61899
AAXX 23121 15528 11910 80000 10008 21042 30018 40214 57016 69901 71072 8802/ 333 10013 21016 48004 555 570// 69199 71200
AAXX 23121 15535 12970 80000 10011 21015 30178 40226 58004 60001 8807/ 333 10018 20001 43005 555 583//
AAXX 23121 15549 11550 80504 11012 21034 39802 40235 58009 60001 71022 886// 333 11010 21024 47012 555 583//
AAXX 23121 15552 11460 83210 10011 21031 30147 40198 54000 69941 70272 8562/ 222// 2//01 314// 4//01 333 10014 20006 555 573// 71269 92025 92427
AAXX 23121 15614 11660 73402 10000 21049 39495 40222 57007 69901 70172 87500 333 10002 21016 47015 555 566// 69499 71200
AAXX 23121 15615 11/00 90506 11101 21114 37042 47969 58002 60001 74944 333 11098 21109 92980 555 590// 92717
AAXX 23121 15626 12670 82702 10032 21025 30011 40204 58005 60001 8122/ 333 10034 20014 47009 555 566//
AAXX 23121 15627 11/02 90208 11106 21119 37550 47966 58003 60011 74974 333 11105 21134 48019 93508 555 590// 69499 92712 96041
AAXX 23121 15640 12674 73416 10018 21074 39864 40185 58007 60001 83520 333 10022 20004 91118 555 550//
AAXX 23121 15655 11570 83416 10027 21043 30156 40190 52009 69921 70272 885// 222// 00074 20503 333 10027 20014 91124 555 560// 71200 81341 92049 92448
AAXX 23121 15712 12570 73403 10037 21036 39932 40188 58003 60001 82610 333 10039 20023 43003 555 559//
AAXX 23121 15730 11670 83606 10009 21027 39792 40196 58006 69901 70272 85877 333 10020 20002 43013 555 57700 69980 71200
AAXX 23124 16622 11360 83409 10044 20008 30175 40186 50005 69921 72160 8572/ 333 82708 84635 88458 90730 91124 555 30000 10050 2//// 30060 4//// 5//// 40000 47662 44215 50000 50030 60000 60002 60300 70000 77R// 7R///
AAXX 23124 16641 12970 00000 10140 20023 30111 40116 50002 60001 333 90730 91104 555 40000 47610 44180 50000 50088
AAXX 23124 16682 11560 63512 10122 20032 30082 40100 51004 69941 70262 83150 333 83820 84358 90730 91114 555 30000 10128 20110 30106 40108 50126 60180 40000 47595 44230 50000 50082 70000 77/// 7R///
AAXX 23124 16716 11457 73614 10088 20062 30083 40102 52004 60081 76162 86820 333 84818 86625 87458 555 40000 47587 44150 50000 50076 60000 60016 60240 70000 77R// 7R///
AAXX 23124 16734 12570 50516 10150 20049 30007 40070 53006 83250 333 83820 85360 90730 91120 555 40000 47530 44145 50000 50102
AAXX 23124 16743 NIL
AAXX 23124 16749 11358 82206 10112 20092 30029 40043 57005 60031 79596 8692/ 333 82708 82920 86625 88457 90730 91111 555 40000 47555 44230 50000 50102 60000 60011 60050 70000 77TRY 7TRY/
AAXX 23124 16754 12465 43015 10144 20080 30016 40063 58003 60001 84800 333 82818 83630 90730 91120 555 40000 47542 44190 50000 50112
AAXX 23124 91356 11456 80813 10264 20245 30040 40047 50003 60171 78082 8627/ 333 10289 56299 59020 70386 86818 555 92312
AAXX 23124 78951 11472 61212 10274 20214 30140 40155 69912 7018/ 86800 333 10304 20235 58004 70001 85818
AAXX 23121 15015 02597 60801 11002 21045 39621 42818 57012 60001 86500 333 42998 60007 91002 91102
AAXX 23121 15020 01597 63502 11020 21053 30048 40256 57015 69901 70371 84270 333 43002 60007 91005 91105
AAXX 23121 15090 01596 83302 11016 21045 30158 40255 58011 69901 71072 8657/ 333 55300 0//// 20275 30269 60007 91004 91106 92600
AAXX 23121 15108 01/91 92902 11112 21112 38056 48489 58009 69911 77144 333 48016 69917 96045
AAXX 23121 15120 02597 62601 10011 21029 39735 40246 57013 60001 84570 333 55302 00293 20654 30618 60007 91002 91103
AAXX 23121 15150 02597 83402 11009 21026 30028 40250 58010 60001 8557/ 333 41998 60007 91004 91106 92870
AAXX 23121 15170 01995 82301 11065 21087 39432 42814 58012 60001 71022 8807/ 333 47005 60007 91002 91102
AAXX 23121 15200 01494 83401 11002 21015 30110 40261 57008 60001 71022 886// 333 60007 91001 91102
AAXX 23121 15230 02997 83500 11025 21056 39958 40265 57014 60001 8807/ 333 55300 00166 20315 30303 60007 91001 91101
AAXX 23121 15260 02598 81401 11046 21071 39702 40266 57011 60001 8357/ 333 43001 60007 91001 91102 95000
AAXX 23121 15280 02599 23206 11138 21218 37432 47947 58005 60001 81041 333 48043 60007 444 86224
AAXX 23121 15292 02597 83602 11027 21027 39954 40263 57015 60001 885// 333 60007 91003 91104 92600 95090
AAXX 23121 15310 02597 80204 11013 21037 30151 40241 57005 60001 8457/ 333 55300 00052 20124 30114 60007 91007 91110
AAXX 23121 15335 01496 83605 11002 21030 30219 40226 57011 60001 71022 886// 333 60007 91009 91109
AAXX 23121 15346 02597 21702 10033 21031 39936 40233 58016 60001 82100 333 60007 91004 91104 95090
AAXX 23121 15350 02997 40506 10016 21018 30113 40237 57012 60001 84070 333 60007 91008 91109
AAXX 23121 15360 02497 83611 10005 21019 30187 40202 57011 60001 886// 222// 06052 20503 333 60007 91014 91114 92447
AAXX 23121 15410 02997 03002 10034 21050 30145 40243 58016 60001 333 60007 91003 91104
AAXX 23121 15420 02997 32403 10028 21030 30121 40236 57011 60001 83030 333 55306 0//// 20857 3//// 60007 91005 91105
AAXX 23121 15450 02597 83102 10013 21014 39999 40242 58012 60001 8357/ 333 55300 00262 20489 30440 60007 91003 91104
AAXX 23121 15460 02497 80205 10007 21011 30205 40231 57010 60001 8567/ 333 43002 60007 91007 91109
AAXX 23121 15470 01996 82703 10006 20003 30110 40241 57013 60001 71022 8807/ 333 41998 60007 91004 91104
AAXX 23121 15480 02497 83506 10007 21019 30191 40209 56012 60001 8467/ 222// 06053 2//// 333 60007 91012 91114 92437
AAXX 23124 48384 32960 00000 10240 20176 39927 40119 51009 333 10298 59002
AAXX 23124 78866 02481 60715 10259 20179 30179 40184 52017 60001 86800 333 10286 20236 59002 60007 70006 83819 85640
AAXX 23124 78906 11578 40404 10256 20193 30152 40157 60012 703// 84840 333 10278 20215 58003 70166 84820 90999
AAXX 23124 43533 11459 61605 10288 20230 30072 40075 60002 70522 81248 333 10309 59004 81818 85276
AAXX 23124 43555 11459 70506 10285 20248 30071 40074 60002 70522 84972 333 10303 59006 82818 81919 87363
AAXX 23124 43577 12463 43403 10283 20244 30072 40074 69992 82202 333 10313 59012 82818 84077
AAXX 23124 43588 11462 72912 10268 20255 30067 40069 60062 72582 83938 333 10306 59013 82817 81918 84362 87276
AAXX 23124 43599 11460 72710 10265 20249 30074 40076 60052 72522 83968 333 10303 59014 83817 81918 87275
AAXX 23124 93004 16/// /1012 10139 20132 40217 57003 69921 333 10210
AAXX 23124 93023 16/// /1605 10142 20120 40226 57006 60001 333 10208
AAXX 23124 93069 16/// /1214 10158 20128 40227 57002 60001 333 10192
AAXX 23124 93110 17898 /0503 10143 20105 40232 52001 60001 333 10216
AAXX 23124 93186 17698 /1405 10148 20108 40238 52004 69981 333 10212
AAXX 23124 93196 16/// /1711 10130 20120 40236 57001 69921 333 10192
AAXX 23124 93245 16/98 /0403 10088 20061 40255 52011 60001 333 10196
AAXX 23124 93292 17698 /1604 10154 20094 40246 57002 60001 333 10182
AAXX 23124 93309 17/98 /1305 10141 20122 40229 52001 60001 333 10202
AAXX 23124 93334 16/// /1002 10070 20050 39285 52001 60001 333 10168
AAXX 23124 93339 16/// /0709 10071 20055 39290 52001 60001 333 10171
AAXX 23124 93373 17598 /2402 10131 20107 40251 57003 60001 333 10209
AAXX 23124 93404 17/98 /1010 10135 20094 40238 57002 60001 333 10226
AAXX 23124 93420 17/98 /1001 10096 20076 40240 52004 60001 333 10184
AAXX 23124 93439 17/98 /0402 10133 20094 40241 52003 60001 333 10178
AAXX 23124 93498 16/// /3606 10127 20096 40251 57004 60001 333 10178
AAXX 23124 93515 17998 /2208 10157 20142 40238 57006 60001 333 10202
AAXX 23124 93527 16/// /0000 10148 20138 40237 54000 60001 333 10201
AAXX 23124 93546 17/98 /0000 10138 20122 40236 57004 60001 333 10218
AAXX 23124 93597 16/// /1908 10132 20110 40241 6///1
AAXX 23124 93615 17997 /0804 10138 20130 40241 57001 60001 333 10210
AAXX 23124 93678 16/98 /3606 10106 20100 40247 57003 60001 333 10179
AAXX 23124 93709 16/// /0000 10125 20115 40241 52002 60001 333 10199
AAXX 23124 93773 17998 /2703 10118 20113 40245 52003 60001 333 10207
AAXX 23124 93781 17998 /0405 10115 20104 40245 54000 60001 333 10206
AAXX 23124 93800 NIL
AAXX 23124 93805 NIL
AAXX 23124 93831 17698 /1710 10156 20113 40240 52017 60001 333 10262
AAXX 23124 93845 17398 /1404 10133 20121 40249 54000 60001 333 10217
AAXX 23124 93891 17998 /2402 10130 20118 40244 52004 60001 333 10213
AAXX 23124 93909 16/// /0705 10104 20098 40246 57003 60001
AAXX 23124 93929 16/// /0000 10099 20097 40224 52002 60001
AAXX 23124 93947 16/// /2811 10082 20079 40205 52001 60001
AAXX 23124 93987 16/// /2207 10110 20088 40237 57004 69921 333 10152
AAXX 23124 93994 NIL
AAXX 23124 43533 11459 61605 10288 20230 30072 40075 60002 70522 81248 333 10309 59004 81818 85276
AAXX 23124 43555 11459 70506 10285 20248 30071 40074 60002 70522 84972 333 10303 59006 82818 81919 87363
AAXX 23124 43577 12463 43403 10283 20244 30072 40074 69992 82202 333 10313 59012 82818 84077
AAXX 23124 43588 11462 72912 10268 20255 30067 40069 60062 72582 83938 333 10306 59013 82817 81918 84362 87276
AAXX 23124 43599 11460 72710 10265 20249 30074 40076 60052 72522 83968 333 10303 59014 83817 81918 87275
AAXX 23121 26645 41/07 92202 11054 21054 39956 40228 58013 74974 333 93506 555 1/103
AAXX 23121 26659 42567 62902 11028 21062 30006 40228 58007 82530 555 1/103
AAXX 23121 26763 42560 73203 11033 21065 39988 40225 52002 87500 333 87623 555 1/104
AAXX 23121 26825 41340 81602 11034 21038 30035 40225 58017 71022 886// 333 88708 93602 555 14102
AAXX 23121 26832 41257 81702 11046 21059 30037 40239 58013 71072 8667/ 333 86706 555 14102
AAXX 23121 26887 41497 83103 11018 21032 30002 40214 52006 77172 8872/ 333 88713 555 1/102
AAXX 23121 26961 42662 72803 11019 21057 30035 40235 57004 87500 333 87639 555 1////
AAXX 23121 33027 41597 72702 11026 21049 30073 40247 58005 70272 875// 555 1/102
AAXX 23121 14241 12675 72602 10043 21017 30128 40262 58011 60001 84530
AAXX 23121 14284 12660 82702 10001 21015 30158 40271 58009 60001 8352/
AAXX 23121 14307 32980 02403 10113 21013 30165 40242 58010 333 70000
AAXX 23121 14317 12980 10101 10101 21023 30138 40239 58008 60001 81040
AAXX 23121 14431 12780 43103 10117 21009 30135 40229 58004 60001 82140 333 82850
AAXX 23121 14444 32980 03005 10109 21059 30185 40214 57012 333
AAXX 23121 14474 12981 00307 10104 21115 39982 40173 51001 60001 333 91122 91503
AAXX 23121 14008 12399 13201 11033 21083 37502 47060 51004 60001 81200 333 95100
AAXX 23121 14015 11656 10301 10007 21011 39897 40269 58018 60001 71044 81100 333 81840
AAXX 23121 14023 12699 12801 10035 21021 39956 40259 58017 60001 81500 333 81648
AAXX 23121 14024 12399 12003 11005 21031 39126 48509 57009 60001 81130 333 81809 95000
AAXX 23121 14026 12897 21804 10054 21015 39921 40247 58019 60001 82030
AAXX 23121 14031 11596 61202 10035 20007 30020 40254 57017 60001 71022 86500 333 86626
AAXX 23121 14105 12999 12903 10092 20012 30240 40245 58014 60001 80001
AAXX 23121 14106 12999 02001 10091 21003 30171 40240 58013 60001 333 95000
AAXX 23121 14112 12/97 03601 10035 29066 60001
AAXX 23121 14121 12997 02701 10038 21013 39984 40257 58014 60001
AAXX 23121 14122 11970 22502 10046 21001 30061 40262 57015 69901 70162 82030
AAXX 23124 17024 12570 70701 10111 20083 30015 40092 57011 60001 84550 333 84632 87360 91109 92438
AAXX 23124 17056 11570 73105 10037 20035 30139 40143 51005 69921 76062 84570 333 84628 87358 91129 92438
AAXX 23124 17067 11556 71102 10098 20086 30067 40089 57014 69961 78022 87200 333 87830 91107 92406
AAXX 23124 17092 12670 51412 10078 21027 38810 48444 57015 60001 83550 333 83640 85359
AAXX 23124 17112 12570 70214 10036 20007 30139 40141 52010 60001 85270 333 85830 87359 91138 92437
AAXX 23124 17115 11457 80236 10062 20041 30046 40097 55001 60061 78088 8722/ 333 83710 85830 88459 91049
AAXX 23124 17116 11557 73606 10100 20074 39968 40089 55008 69981 78082 85250 333 85830 87358 91109
AAXX 23124 17188 11656 80403 10059 20043 38994 40052 57015 60021 76162 8552/ 333 85633 88458 91110
AAXX 23124 17202 11670 70608 10076 20024 39127 40158 56015 69921 70162 84550 333 84635 87359
AAXX 23124 17248 12670 72603 10064 20031 38887 48405 57026 60001 83570 333 83640 87360
AAXX 23124 17292 11570 71101 10056 20053 39298 40054 58005 60141 70282 85270 333 85830 87359 91110
AAXX 23124 17300 11460 73002 10121 20109 39972 40043 55023 60141 79599 87900 333 82915 85825
AAXX 23124 17310 NIL
AAXX 23124 17330 11660 72102 10123 20094 30088 40106 57032 60041 72582 83270 333 83839 87359
AAXX 23124 17022 11559 70103 10108 20091 39924 40088 57011 60001 71022 85520 333 85630 87459 91108 92426
AAXX 23124 17031 12670 53302 10172 20046 30073 40079 57015 60001 83250 333 83836 85360
AAXX 23124 17038 12970 60000 10137 20046 30046 40097 57010 60001 86050 333 86360 92428
AAXX 23124 17050 12670 83510 10024 21020 30119 40183 53003 60001 8552/ 333 85635 88460 91023 91128
AAXX 23124 17060 11540 70124 10068 20052 30075 40115 50004 60041 78122 85250 333 85820 86358
AAXX 23124 17096 11560 50801 11010 21015 38193 48465 57012 69901 71071 83550 333 83630 85358
AAXX 23124 17124 11558 80910 10058 20040 39158 40073 57019 69961 76022 8452/ 333 84630 88458
AAXX 23124 17128 11558 81405 10066 20029 38998 40095 57019 69901 76022 8552/ 333 85625 88458
AAXX 23124 17170 NIL
AAXX 23124 17195 12670 71104 10108 21019 38889 48422 57019 60001 83250 333 83840 87360
AAXX 23124 17199 12670 63202 10078 20015 39048 40145 56013 60001 83550 333 83635 86360
AAXX 23124 17219 12565 70112 10119 20068 39907 40050 55007 60001 84250 333 84830 87360
AAXX 23124 17240 11559 71103 10033 20005 38910 40057 57015 60081 78088 85250 333 85830 87360 91115
AAXX 23124 17244 11560 71613 10069 20045 38891 48397 57031 60011 76162 85520 333 82720 84635 87459
AAXX 23124 17280 12660 63003 10115 20021 39357 40148 57017 60001 83130 333 83840 86360
AAXX 23124 17350 11658 70407 10112 20107 30044 40122 58021 60071 78022 84250 333 84835 87360
AAXX 23124 60106 32965 02006 10159 20094 40293 58005
AAXX 23124 60318 32960 02610 10206 20086 40277 50001
AAXX 23121 26038 21260 81906 10012 20006 30095 40136 57017 70252 886// 333 10012 21019 69937 88705 91012 91112 555 1/000 21019 3/103 51008 52103
AAXX 23121 26045 27359 81906 10002 21006 30147 40149 57017 70000 88/// 333 10002 21008 60007 88/09 91009 91111 555 1/100 21008 3/102 51005
AAXX 23121 26058 27369 72104 11005 21020 30161 40168 57013 70000 87/// 333 11003 21018 60007 87/10 555 1/101 21018 3/103 51011 52103
AAXX 23121 26115 27330 72008 10038 20027 30105 40113 57021 75185 87/// 333 10051 20036 69937 87/09 91014 91117 555 1/003 20036 3/000 50036
AAXX 23121 26135 27363 71903 11008 21018 30084 40160 58016 70011 87/// 333 11007 21020 60007 87/08 555 1/100 21020 3/101 51011 52103
AAXX 23121 26141 21257 82106 11012 21017 30008 40160 57015 71072 886// 333 11010 21014 60007 88704 91109 555 1/101 21014 3/101 51013 52101
AAXX 23121 26231 21461 71809 10004 21012 30144 40160 57014 70286 83630 333 10016 21027 60007 83711 91013 91114 555 1/000 21027 3/101 51005
AAXX 23121 26242 21577 22003 11012 21043 30088 40177 57017 70171 82530 333 11006 21024 60007 82630 555 1/101 21024 3/102 51013 52103
AAXX 23121 26247 27/70 /2104 11014 21044 30104 40186 57014 70000 333 11010 21023 60007 555 1/101 21023 3/101 51015
AAXX 23124 17026 12670 63407 10105 20090 30054 40093 57009 60001 83250 333 83835 86360 91108 92418
AAXX 23124 17034 12670 52203 10128 20088 30049 40095 55010 60001 82130 333 82835 85360 92428
AAXX 23124 17070 12565 71402 10092 20027 39218 40076 57018 60001 83570 333 83630 87460 91105
AAXX 23124 17084 12670 60102 10094 20030 39197 40106 57026 60001 84550 333 84635 86360
AAXX 23124 17090 12965 61505 10078 21014 38654 48432 57021 60001 83046 333 83360 86270
AAXX 23124 17098 11515 80404 11014 21036 38158 48471 57012 69961 77077 8552/ 333 85630 88457 93102 96010
AAXX 23124 17150 11460 73517 10071 20042 39965 40089 55002 60081 78088 86250 333 83715 85835 86359 91127
AAXX 23124 17160 12670 61802 10086 20022 38934 48414 57021 60001 84550 333 84640 86360 91105
AAXX 23124 17184 11660 83508 10099 20072 39953 40063 55008 60031 76062 8552/ 333 85634 88459 91116
AAXX 23124 17189 11457 72106 10036 20019 38908 48381 57017 60041 76162 84550 333 82715 84630 87360
AAXX 23124 17210 12670 63402 10118 20011 39117 40145 57014 60001 84170 333 84840 86360
AAXX 23124 17234 11660 70902 10095 20081 39987 40055 56009 60021 78082 84270 333 84836 87359 91109
AAXX 23124 17260 11557 79902 10098 20038 39324 40142 57015 60001 71022 84530 333 84630 87359
AAXX 23124 17290 11570 71604 10125 20083 30019 40051 55004 60061 70382 85970 333 81920 84830 87359 91115 92428
AAXX 23124 17370 11660 72304 10125 20078 30127 40131 55006 69901 78082 84270 333 84835 87460 92437
AAXX 23124 17042 12670 71104 10179 20006 30066 40105 57004 60001 84250 333 84835 87360 92438
AAXX 23124 17074 12665 60204 10085 20041 39159 40095 57022 60001 84230 333 84833 86360 91106
AAXX 23124 17086 12670 62906 10126 21057 39372 40077 57025 60001 84550 333 84635 86360
AAXX 23124 17088 12670 72103 10082 21053 38735 48440 57018 60001 84550 333 84640 87360
AAXX 23124 17140 12665 72003 10061 20008 38623 48415 57017 60001 87200 333 87838
AAXX 23124 17155 11557 83604 10042 20033 38950 40069 57019 60021 76122 8552/ 333 85630 88458 91108
AAXX 23124 17203 11670 80000 10033 20018 38854 48506 57017 69961 70262 8452/ 333 84640 88460
AAXX 23124 17237 11665 80602 10081 20075 39548 40050 55010 60021 72162 8452/ 333 84637 88458 91106
AAXX 23124 17250 12675 60907 10088 21012 38717 48418 57023 60001 84550 333 84640 86360
AAXX 23124 17270 12670 41202 10115 20022 39501 40149 57022 60001 83230 333 83840 84360
AAXX 23124 17295 11560 61010 10123 20078 30048 40055 57012 60081 70282 83250 333 83820 85358
AAXX 23124 17320 11670 71123 10156 20122 30075 40080 57036 60021 70282 85270 333 85836 87359 92448
AAXX 23124 17375 11558 73602 10114 20114 30050 40052 57016 60121 78082 84270 333 84830 87358 91109 92436
AAXX 23124 16643 12560 40608 10122 21005 30122 40127 51003 60001 83450 333 83630 84360 90730 91116 555 40000 47621 44200 50000 50070
AAXX 23124 16648 12460 83106 10068 20019 30071 40162 52011 60001 8687/ 333 83815 85625 88356 90730 91117 555 30000 10072 2//// 30074 40080 5//// 6//// 40000 47584 44210 50000 50048
AAXX 23124 16650 11460 70428 10068 20019 30122 40126 52009 69901 70162 87660 333 82710 86625 85358 90730 91145 555 30000 10068 20074 30084 40080 50116 60134 40000 47619 44190 50000 50048 60000 65555 60030 70000 77/// 7R///
AAXX 23124 16684 11458 80430 10084 20033 30080 40109 52020 60001 71022 8667/ 333 83710 86618 88357 90730 91144 555 40000 47590 44200 50000 50062 70000 77Y// 7/Y//
AAXX 23124 16732 11465 73115 10126 20103 30042 40054 57005 60021 72162 86870 333 83812 85625 87358 90730 91120 555 40000 47558 44170 50000 50114 60000 60004 60115 70000 77R// 7R///
AAXX 23124 08001 NIL
AAXX 23124 08015 12965 01903 10104 20048 39902 40311 51008 60001
AAXX 23124 08023 12562 82410 10120 20090 30225 40297 50004 60001 888//
AAXX 23124 08027 12481 12704 10102 20064 39971 40285 52003 60001 81100
AAXX 23124 08045 02220 22005 10100 20094 30016 40331 50004 69901 82601 333 60007
AAXX 23124 08141 11330 82802 10022 20016 39435 40325 50004 60001 71042 886// 333 50011
AAXX 23124 08160 12965 12809 10098 20033 39969 40282 58008 60001 80001
AAXX 23124 08181 02969 03508 10141 20051 30240 40246 58014 60001 333 60007
AAXX 23124 08221 02977 02002 10091 20018 39595 40288 58009 60001 333 60007
AAXX 23124 08231 12970 02602 10115 21020 39179 48583 58009 60001
AAXX 23124 08261 11902 03502 10048 20033 39822 40319 50004 60001 74444
AAXX 23124 08284 02925 00000 10178 20040 30182 40257 58014 60001 333 60007
AAXX 23124 08306 12980 02305 10170 20119 30250 40256 58010 60001
AAXX 23124 08314 02583 32609 10171 20120 30147 40249 58007 60001 82138 333 60007
AAXX 23124 08430 12970 02603 10172 20020 30197 40271 58008 60001
AAXX 23124 08482 12981 09902 10174 20103 30264 40272 58001 60001
AAXX 23124 16614 12560 83508 10024 21033 39389 40183 58001 60001 8452/ 333 84625 88458 90730 91116
AAXX 23124 16627 11460 73621 10040 21028 30150 40154 52010 69901 70262 84620 333 81710 84630 87458 90730 91141 555 30000 10058 20062 30070 40078 50100 6//// 40000 47643 44215 50000 50016 70000 77/// 7R///
AAXX 23124 16667 11565 73620 10104 20052 30071 40076 51009 69901 76162 85850 333 82820 84625 86358 90730 91134 555 30000 20106 30120 40000 47583 44200 50000 50080 60000 65555 60100 70000 77R// 7R///
AAXX 23124 16675 NIL
AAXX 23124 16710 36/// /0309 10066 20005 39339 40110 52005 333 90730 91121
AAXX 23124 16723 12560 73605 10136 20066 30030 40046 57008 60001 87800 333 82820 87630 90730 91106 555 40000 47556 44230 50000 50102
AAXX 23124 16738 17/// /3621 10100 20087 39865 40064 57010 60021 7414/ 333 90730 91131 555 60000 60023 60250
AAXX 23124 16746 11459 73512 10102 20082 39890 40073 52003 69911 76162 87600 333 83714 87625 90730 91117 555 40000 47446 44180 50000 50092 60000 60001 60045 70000 77R// 7R///
AAXX 23124 60135 32458 52503 10172 20117 40290 56002 85500 333 84616
AAXX 23124 17500 11560 70000 10143 20108 30044 40104 57021 69981 78082 86831 333 83825 84630
AAXX 23124 17501 11560 61004 10157 20088 30063 40082 53001 69911 70282 86800 333 83830 84635 92437
AAXX 23124 17505 11560 61108 10148 20101 39983 40095 57015 69941 70282 86800 333 83830 84635
AAXX 23124 17507 11560 71309 10153 20089 39982 40101 57024 60011 72582 86831 333 83825 84630
AAXX 23124 17510 11560 60000 10169 20085 30068 40078 55020 60021 72582 86800 333 83825 84630 92427
AAXX 23124 17515 11560 61309 10164 20071 39932 40105 57021 60011 70282 86800 333 83830 84635
AAXX 23124 17521 11560 52014 10175 20079 39951 40090 57028 60021 70182 84930 333 81925 83830
AAXX 23124 17530 11560 62122 10175 20081 30048 40103 57027 60011 70282 86800 333 83830 84635
AAXX 23124 17535 11560 62011 10179 20100 30055 40090 57024 60041 70282 86800 333 83830 84635
AAXX 23124 17540 11560 71816 10184 20072 30088 40111 56031 69981 87800 333 83625 84830 92437
AAXX 23124 17547 12560 72020 10152 20089 39858 40098 56031 60001 87800 333 83625 84830 92437
AAXX 23124 17550 11560 61103 10170 20084 39953 40095 57029 60041 70282 86800 333 83830 84635 92427
AAXX 23124 17572 11560 6//// 10164 20080 30072 40096 57033 60011 72582 86800 333 83830 84630 92427
BBXX BATUK01 23124 99561 70030 46/// /2719 10070 20024 40088 50004 22251 00084
AAXX 23124 78947 11478 51012 10251 20220 30159 40162 60072 7258/ 84901 333 06209 10293 20226 58004 70065 81918 83819 90919
AAXX 23124 08055 11105 80000 10014 20014 39232 48574 50002 60001 74244 886// 333 5///0 95090
AAXX 23124 08075 11220 82604 10002 20002 39252 48568 50003 60001 71042 886// 333 50001
AAXX 23124 08084 02982 02710 10098 20018 39846 40284 58009 60001 333 60007
AAXX 23124 08171 11308 82401 10056 20056 30046 40293 58006 60001 74442 886//
AAXX 23124 08184 02980 00000 10163 20072 30080 40234 58015 60001 333 60007
AAXX 23124 08202 01115 82602 10028 20022 39374 42902 50002 60001 74044 886// 333 50000 60007
AAXX 23124 08235 NIL
AAXX 23124 08238 12960 01008 10154 20058 30190 40250 58007 60001
AAXX 23124 08280 12960 03504 10096 20038 39455 40285 58006 60001
AAXX 23124 08330 11/01 92801 10038 20026 30070 40310 51003 60001 74544 333 89/01
AAXX 23124 08348 11965 02902 10102 20056 39550 40294 58006 60001 70040
AAXX 23124 08360 02965 01905 10166 20071 30228 40266 58009 60001 333 60007
AAXX 23124 08373 NIL
AAXX 23124 08410 02975 00702 10134 20052 30172 40284 58008 60001 333 60007
AAXX 23124 08419 02975 00000 10123 20028 39607 40278 58014 60001 333 60007
AAXX 23124 08451 01002 72401 10130 20130 30254 40287 50002 69901 74642 876// 333 60007
AAXX 23124 08487 02360 12305 10158 20118 30245 40270 58006 60001 81600 333 60007
AAXX 23124 78866 02481 60715 10259 20179 30179 40184 52017 60001 86800 333 10286 20236 59002 60007 70006 83819 85640
AAXX 23121 26106 42/97 81606 11026 21050 30145 40189 57018 886// 333 91010 91112
AAXX 23121 26313 43/// /2004 11006 21021 30149 40156 57017
AAXX 23121 26346 42497 82003 11029 21042 39944 40197 57013 886// 333 88711
AAXX 23121 26406 41222 81505 11006 21015 30155 40161 57020 71022 886// 333 88706
AAXX 23121 26416 43/// /1903 11029 21039 30034 40179 57019
AAXX 23121 26424 41457 82106 11022 21038 30130 40185 57018 71022 885// 333 88613 91010 91110
AAXX 23121 26544 41563 82402 11033 21046 30057 40216 57014 70282 883//
AAXX 23124 78906 11578 40404 10256 20193 30152 40157 60012 703// 84840 333 10278 20215 58003 70166 84820 90999
OOXX AAMIZ 23124 99707 30443 58304 22602 46/// /0715 11111 2//// 37437 49628 5//// 91140
OOXX AAPEG 23124 99779 31666 57186 00051 46/// /0503 11035 21069 39803 49809 57001 91140
OOXX AAERC 23124 99815 31639 60713 00451 46/// /1912 11019 21033 39753 49808 5//// 91140
AAXX 23121 01271 17/84 /1901 10050 20015 39890 49910 58017 6//// 722// 333 91110
AAXX 23121 01415 17858 82806 10085 20051 30027 40038 50007 6//// 700// 333 91112
AAXX 23124 85041 12870 70000 10240 20234 39817 40081 51007 60144 85031 333 20223 30/// 55020 56000 58024 70141 86358 86070
AAXX 23124 85140 32470 83204 10246 20232 39878 40086 50008 885// 333 20228 30/// 55012 56799 59014 88612
AAXX 23124 85141 12484 70000 10248 20235 39851 40078 52008 60024 87500 333 20218 30/// 56700 59017 70022 84610 87615
AAXX 23124 85151 NIL
AAXX 23124 85152 32470 83204 10252 20235 39842 40070 52008 885// 333 20230 30/// 55045 56799 59016 88613
AAXX 23124 85201 11140 89902 10050 20036 36297 52015 60154 74062 8461/ 333 10038 32004 55020 5600/ 58003 70145 81703 83615 88457
AAXX 23124 85230 NIL
AAXX 23124 85242 32484 83605 10097 20041 36553 52011 81233 333 20062 30/// 56277 58000 81815 85357 88070
AAXX 23121 33088 32997 82902 11031 21051 30054 40254 58011 8802/
AAXX 23121 33177 32577 82201 11018 21060 30005 40252 58016 885//
AAXX 23121 33261 /1596 83202 11012 21035 30019 40207 58001 78582 889// 333 88923 555 69921
AAXX 23121 33275 /1497 63203 11016 21046 39964 40195 58004 70282 83330 555 69941
AAXX 23121 33301 32597 80000 11034 21069 39961 40256 58012 885// 333 88621
AAXX 23121 33325 /1397 83501 11031 21055 39969 40248 58009 77172 885// 333 85708 555 69901
AAXX 23121 33377 /1497 73402 11017 21051 30013 40214 58009 70282 85370 555 69901
AAXX 23121 33415 32497 83602 11035 21071 39842 40258 58013 886// 333 88712
AAXX 23121 33429 32497 70103 11042 21068 39813 40256 58009 87500 333 87613
AAXX 23121 33466 NIL
AAXX 23121 33526 /1560 80000 11021 21060 39904 40259 58013 77172 885// 333 88620 555 69901
AAXX 23121 33562 32498 83203 11045 21072 39874 40253 57007 8555/ 333 85617
AAXX 23121 33614 32598 83305 11008 21050 30106 40214 58008 883// 333 88920
AAXX 23121 33761 32498 73603 11029 21060 30002 40235 57008 83680
AAXX 23121 33902 32597 83606 10000 21050 30132 40201 57007 883//
AAXX 23121 33983 32497 80208 10022 20000 30087 40149 57013 883// 333 85612
AAXX 23121 34415 32670 33202 10003 21042 30092 40191 57012 83500
AAXX 23121 34523 32697 80201 10002 21054 30111 40189 57010 8655/
AAXX 23121 34712 31450 80304 11007 21035 30090 40178 57012 77172 8772/
AAXX 23121 34712 /1450 80304 11007 21035 30090 40178 57012 77172 8772/ 555 69901
AAXX 23121 33791 32697 83605 11010 21039 30056 40212 57011 8455/ 333 84640
AAXX 23121 33345 /1498 83403 11014 21044 30023 40235 58005 77172 885// 333 88618 555 69901
AAXX 23121 33663 32598 83402 11013 21050 30148 40248 58011 8752/ 333 87626
AAXX 23124 96481 11462 70704 10276 20249 30041 40060 69921 70182 82841 333 10335 81817 83364 86080
AAXX 23124 06030 01359 82416 10080 20070 30055 40071 57018 6///1 71062 886// 333 6///7 82707 86708
AAXX 23124 06060 01225 82313 10090 20085 30026 40090 57018 69921 75852 887// 333 69927 82704 87706
AAXX 23124 06070 07249 82209 10082 20069 30068 40098 57018 69901 78188 333 6///7 83/05 85/07 88/09
AAXX 23124 06120 NIL
AAXX 23124 06180 01250 82312 10072 20068 30111 40117 57017 69921 71054 887// 333 69917 82705 87708
AAXX 23124 06193 07/05 92316 10061 20059 30117 40129 57018 60011 74085 333 55300 20112 69937 89/01
AAXX 23124 60715 12560 43213 10166 20075 30218 40225 50010 60001 83240 333 58047 50221 83826 91020 91121
AAXX 23124 60723 12570 23008 10166 20131 30054 40242 51007 60001 82280 333 50111 82826
AAXX 23124 60725 12560 53308 10151 2//// 30070 40248 56003 60001 85800 333 50121 83820 83630
AAXX 23124 60735 12562 53206 10167 20110 30134 40215 58004 60001 85800 333 50161 85820
AAXX 23124 60745 12562 33509 10187 20048 39854 40219 56009 60001 83200 333 50231 83826
AAXX 23124 60748 12560 62918 10171 20077 39807 40221 58003 60001 86800 333 50311 85823
AAXX 23124 60750 12560 63514 10169 20083 30194 40219 56007 60001 86800 333 85820
AAXX 23124 60760 12560 22702 10197 20026 30127 40230 56008 60001 82200 333 50201 82830
AAXX 23124 60765 12558 53604 10168 20110 30230 40234 58008 60001 85800 333 83820 83630 92426 925//
AAXX 23124 60767 12560 42410 10270 20071 30083 40226 58004 60001 84800 333 50501 82820 83630
AAXX 23124 60769 12560 53008 10168 20092 30212 40216 58007 60001 84802 333 50411 84820
AAXX 23124 71001 15461 83108 11106 21114 38871 49830 51008 60001 333 11091 21106 70005
AAXX 23124 71002 15966 02606 11246 21278 39612 40181 50012 60001 333 11079 21247 70000
AAXX 23124 71003 15666 82205 11269 21297 39832 40238 53010 60001 333 11135 21284 70000
AAXX 23124 71005 16/// ///// 11113 21137 60001 333 10011 21113 70000
AAXX 23124 71006 NIL
AAXX 23124 71007 NIL
AAXX 23124 71008 NIL
AAXX 23124 71009 NIL
AAXX 23124 71010 NIL
AAXX 23124 71011 NIL
AAXX 23124 71012 NIL
AAXX 23124 71013 NIL
AAXX 23124 71014 NIL
AAXX 23124 71015 NIL
AAXX 23124 71016 NIL
AAXX 23124 71017 NIL
AAXX 23124 71018 NIL
AAXX 23124 71019 NIL
AAXX 23124 71020 NIL
AAXX 23124 71021 NIL
AAXX 23124 71022 17556 82512 10050 20027 30090 40134 53088 60041 76144 333 10071 20036 70126
AAXX 23124 71023 16964 02406 11092 21100 39341 40121 58021 60001 333 11025 21096 70000
AAXX 23124 71024 16/// /0603 11092 21095 60001 333 11075 21132 4/013 70000
AAXX 23124 71026 NIL
AAXX 23124 71027 16/// /1401 11003 21014 30163 40173 51001 60001 333 10072 21008 70006
AAXX 23124 71028 16/// /2203 10010 21064 39134 40175 53023 60001 333 10067 21005 4/001 70000
AAXX 23124 71029 16/// /0306 11274 21302 39998 40039 58005 60001 333 11199 21274 4/029 70000
AAXX 23124 71030 17/08 /0904 10000 21002 30061 40152 58003 60031 7//4/ 333 10093 21033 4/001 70028 555 10010
AAXX 23124 71032 46/// /0000 11123 21135 39454 40325 53010 6///1 333 11056 21156 4/012 7//// 555 10010
AAXX 23124 71033 46/// /2104 11145 21157 39488 40134 55011 6///1 333 11098 21151 4/021 55/// 20000 7////
AAXX 23124 71035 NIL
AAXX 23124 71036 15566 82706 11070 21093 39773 40155 51016 60001 333 11021 21098 70000
AAXX 23124 71039 46/// /2402 11095 6///1 333 11092 21162 7////
AAXX 23124 71040 46/// /2704 11132 21168 39997 40202 56001 6///1 333 11002 21132 7////
AAXX 23124 71041 15566 82203 11005 21025 30036 40179 55005 60001 333 10094 21002 70005
AAXX 23124 71042 16/// /0501 10021 20011 30293 40297 51022 60001 333 10061 21025 70000
AAXX 23124 71044 16/// /0419 11227 21269 39680 40007 51004 60001 333 11189 21232 4/016 70000 555 10050
AAXX 23124 71046 460// /2609 11261 30068 40086 56002 6///1 333 11220 21313 7////
AAXX 23124 71047 16/// ///// 11046 21091 60001 333 10023 21068 70000
AAXX 23124 71048 NIL
AAXX 23124 71049 NIL
AAXX 23124 71060 NIL
AAXX 23124 71063 NIL
AAXX 23124 71350 16/// /2303 11010 21023 30102 40168 55009 60001 333 10055 21017 70000
AAXX 23124 71351 NIL
AAXX 23124 71352 16/// /3410 11036 21052 39746 40208 53028 60001 333 10033 21036 70008
AAXX 23124 71353 NIL
AAXX 23124 71354 NIL
AAXX 23124 71355 NIL
AAXX 23124 71356 16/// /1806 11318 21351 30048 40119 56020 60001 333 11301 21348 4/006 70000
AAXX 23124 71357 NIL
AAXX 23124 71358 16/// /3505 11222 21244 39972 40007 54000 60001 333 11180 21225 4/059 70000
AAXX 23124 71359 NIL
AAXX 23124 71360 NIL
AAXX 23124 71361 NIL
AAXX 23124 71362 NIL
AAXX 23124 71363 NIL
AAXX 23124 71364 NIL
AAXX 23124 71365 NIL
AAXX 23124 71368 15466 83312 11027 21040 39817 40213 53031 69931 333 10050 21027 70016
AAXX 23124 71369 15966 81503 11047 21065 39379 40088 58007 60001 333 10014 21071 70000
AAXX 23124 71370 46/// /3410 11054 21074 30018 40156 53008 6///1 333 10014 21054 7////
AAXX 23124 71371 17232 83606 10001 20001 30116 40150 53009 60031 7714/ 333 10038 21001 70035
AAXX 23124 71372 NIL
AAXX 23124 71373 17/// /0000 10000 21009 60031 7//4/ 333 10041 21007 70034
AAXX 23124 71374 NIL
AAXX 23124 71375 NIL
AAXX 23124 71376 16/// /2803 11036 21043 39868 40166 53013 60001 333 10004 21036 70000
AAXX 23124 71377 17/// /0000 10002 21002 30099 40148 53009 60011 7//4/ 333 10036 20001 4/001 70058 555 10010
AAXX 23124 71378 16/// /3512 11121 21169 39984 40198 53010 60001 333 10003 21121 4/003 70000
AAXX 23124 71379 16/// /3312 11164 21204 30037 40214 53008 60001 333 10001 21164 70000
AAXX 23124 71380 NIL
AAXX 23124 71381 NIL
AAXX 23124 71382 17/// /0303 11096 21107 39192 40144 58004 60021 7//4/ 333 11031 21100 70022
AAXX 23124 71383 NIL
AAXX 23124 71384 16/// /0716 11023 21046 30148 40156 55003 60001 333 10019 21023 70000
AAXX 23124 71385 NIL
AAXX 23124 71386 16/// /3506 11088 21132 39976 40186 51006 60001 333 11004 21088 70000
AAXX 23124 71387 NIL
AAXX 23124 71388 NIL
AAXX 23124 71389 NIL
AAXX 23124 71390 NIL
AAXX 23124 71391 17/// ///// 11061 21078 60011 7//4/ 333 10007 21061 70024
AAXX 23124 71392 17/// /0914 11028 21035 60011 7//4/ 333 10003 21028 70014
AAXX 23124 71393 NIL
AAXX 23124 71395 11/12 90904 11009 21014 39987 40167 56018 60021 77171 333 10100 21012 47002 70028 90921 93102
AAXX 23124 71398 15966 02303 11310 21339 30268 40280 53006 60001 333 11159 21314 70000
AAXX 23124 71399 NIL
AAXX 23124 71201 16/// ///// 10045 20011 60001 333 10059 20023 70000
AAXX 23124 71202 16/// ///// 11051 21094 60001 333 10023 21092 70009
AAXX 23124 71203 15666 81906 11036 21065 39788 40325 53015 60001 333 11010 21099 70000
AAXX 23124 71209 46/// /1015 10040 6///1 333 10046 20029 7////
AAXX 23124 71211 46/// /0702 10049 20008 30282 40294 51018 6///1 333 10046 20031 7////
AAXX 23124 71212 17/// /0502 11059 21071 39324 40136 55004 60021 7//4/ 333 11014 21059 4/021 70021 555 10020
AAXX 23124 71213 46/// /3105 11232 21250 39958 40277 53010 6///1 333 11007 21232 7////
AAXX 23124 71214 NIL
AAXX 23124 71215 46/// /1705 11018 21060 39966 40321 51005 6///1 333 11005 21033 7////
AAXX 23124 71216 16/// /1405 11054 21089 39694 40333 53004 60001 333 11003 21077 4/003 70000 555 10010
AAXX 23124 71217 NIL
AAXX 23124 71218 16/// /0504 11024 21065 39859 40299 58003 60001 333 10007 21058 4/001 70000
AAXX 23124 71219 46/// /2520 10073 20031 30126 40132 53085 6///1 333 10071 20042 7////
AAXX 23124 71220 46/// /2507 10056 20029 6///1 333 10060 20033 7////
AAXX 23124 71221 NIL
AAXX 23124 71222 16/// /1907 10003 21053 39013 49960 53013 60001 333 10019 21048 4/033 70000
AAXX 23124 71223 NIL
AAXX 23124 71224 NIL
AAXX 23124 71225 NIL
AAXX 23124 71226 NIL
AAXX 23124 71227 NIL
AAXX 23124 71228 NIL
AAXX 23124 71229 NIL
AAXX 23124 71230 16/// /2509 11005 21088 39192 40082 50001 60001 333 10031 21056 70000
AAXX 23124 71231 16/// /2009 11035 21090 60001 333 10024 21056 70000
AAXX 23124 71232 16/// /2511 11021 21156 38644 40154 58023 60001 333 11004 21057 70000
AAXX 23124 71233 16/// /2604 10007 21119 60001 333 10024 21070 70000
AAXX 23124 71234 16/// /2906 10023 21165 38993 40186 56001 60001 333 10058 20008 70000
AAXX 23124 71235 16/// /2808 10026 21150 60001 333 10039 21012 70000
AAXX 23124 71236 46/// /3117 11037 21153 6///1 333 11021 21047 7////
AAXX 23124 71237 46/// /1608 11106 21123 39315 40145 58029 6///1 333 10002 21132 7////
AAXX 23124 71238 16/// /2502 11028 21089 60001 333 10010 21082 4/004 70000
AAXX 23124 71239 16/// /3106 11096 21114 39678 40152 53018 60001 333 11013 21096 4/002 70000
AAXX 23124 71240 16/// ///// 11071 21105 39304 40163 58019 60001 333 10020 21085 70000
AAXX 23124 71241 NIL
AAXX 23124 71242 16/// /2804 11051 21098 60001 333 11005 21096 4/007 70000
AAXX 23124 71243 NIL
AAXX 23124 71244 16/// /2619 10019 21136 38949 40186 57014 60001 333 10027 21042 4/002 70000
AAXX 23124 71245 46/// /2352 11054 21195 6///1 333 21098 7////
AAXX 23124 71246 NIL
AAXX 23124 71247 15966 02112 11027 21071 39315 40182 58020 60001 333 10011 21054 70000
AAXX 23124 71248 16/// /1002 11003 21131 38836 40144 55011 60001 333 10052 21107 4/017 70000
AAXX 23124 71249 NIL
AAXX 23124 71043 11540 83008 11197 21244 39870 49965 58001 60031 77177 885// 333 11142 21198 48027 70036 90983 93103
AAXX 23124 71045 16/// /1004 10002 21047 39060 49898 53010 60001 333 10019 21006 4/033 70013
AAXX 23124 71050 46/// /2901 11167 21185 39100 40213 51022 6///1 333 11039 21167 7////
AAXX 23124 71051 NIL
AAXX 23124 71052 NIL
AAXX 23124 71066 12974 10000 11136 21166 39566 49989 58034 60001 81070 333 11006 21141 44017 70000
AAXX 23124 71068 12974 02312 11014 21071 39366 40057 58014 60001 333 10023 21060 42002 70000
AAXX 23124 71069 16964 01502 11048 21059 39379 40087 58007 60001 333 10014 21075 70000
AAXX 23124 71076 16/// /0803 11154 21169 39682 40085 56029 60001 333 11132 21170 4/031 55/// 20000 70000
AAXX 23124 71077 16/// /1704 11141 21154 39582 40136 58019 60001 333 11037 21158 4/014 55/// 20000 70006
AAXX 23124 71079 11274 80402 11252 21292 39907 40205 53007 69901 77177 88500 333 11219 21282 48009 70004 90983
AAXX 23124 71081 46964 03214 11301 21345 30026 40039 51005 6///1 333 11302 21313 7////
AAXX 23124 71082 NIL
AAXX 23124 71083 11974 02405 11313 21350 30102 40147 57014 69901 77677 333 11300 21326 48054 79999 90983
AAXX 23124 71090 46264 83505 11224 21256 39974 40009 5/001 6///1 333 7////
AAXX 23124 71091 460// /0311 11196 39783 49994 50010 6///1 333 7////
AAXX 23124 71092 46964 00715 11181 39308 49977 51007 6///1 333 11174 21181 7////
AAXX 23124 71093 460// /0106 11203 39485 49987 53010 6///1 333 11174 21206 7////
AAXX 23124 71094 46002 /0124 11170 38990 49885 51009 6///1 333 11159 21170 7////
AAXX 23124 71095 46964 01404 11301 21341 39934 40017 58002 6///1 333 11240 21325 7////
AAXX 23124 71101 160// /2212 30127 51063 60011 333 70020
AAXX 23124 71104 12674 11313 11032 21117 39080 40206 51015 60001 81500 333 11014 21039 44029 70000
AAXX 23124 71108 11574 83603 10010 21001 30233 40307 51022 69941 72582 8657/ 333 10038 21030 70004 90931
AAXX 23124 71109 11474 81305 10048 20029 30224 40251 51038 60051 78082 888// 333 10062 20041 70062 90927
AAXX 23124 71300 NIL
AAXX 23124 71301 16/// ///// 11282 21304 39848 40275 53009 60001 333 11013 21287 4/014 70009 555 10020
AAXX 23124 71302 16/// /1917 11010 21090 39330 40157 51014 60001 333 10010 21052 4/024 70000
AAXX 23124 71303 46/// ///// 11020 21063 6///1 333 10052 21020 7////
AAXX 23124 71305 15966 11208 11110 21121 39736 40033 58052 60001 333 11111 21197 70000
AAXX 23124 71306 17940 32919 11180 21205 30101 40134 53007 60001 771// 333 11153 21182 70000
AAXX 23124 71307 16/// /3109 11022 21046 39984 40239 53029 60001 333 10057 21022 4/001 70007
AAXX 23124 71308 16/// /2005 10003 21018 30097 40182 55006 60001 333 10098 21005 70000
AAXX 23124 71309 NIL
AAXX 23124 71310 16/// /2003 11011 21023 30133 40170 55008 60001 333 10060 21011 70000
AAXX 23124 71311 NIL
AAXX 23124 71312 16/// /1303 11124 21138 39706 40175 51011 60001 333 11048 21162 70000
AAXX 23124 71314 16/// /3112 11055 21075 39848 40206 53031 60001 333 10035 21055 70006
AAXX 23124 71315 16/// /3306 11036 21082 30125 40179 57002 60001 333 10007 21039 4/013 70000
AAXX 23124 71316 16/// /2001 11055 21078 39403 40091 58031 60001 333 10008 21083 70000
AAXX 23124 71317 NIL
AAXX 23124 71318 16/// /1710 11092 21126 39183 40144 58026 60001 333 10023 21119 4/005 70000
AAXX 23124 71319 17/// /0506 11081 21085 39269 40144 56005 60011 7//4/ 333 11025 21081 70011
AAXX 23124 71320 16/// /3114 11303 21332 30030 40030 51005 60001 333 11302 21312 4/062 70000
AAXX 23124 71321 16/// /3217 11202 21224 39931 49975 51021 60001 333 11120 21233 4/009 70000
AAXX 23124 71322 NIL
AAXX 23124 71323 17/// /1701 11011 21016 39850 40133 56009 60021 7//4/ 333 10008 21015 70050
AAXX 23124 71331 16/// /0801 11146 21169 60001 333 11117 21147 4/019 55/// 20000 70011 555 10010
AAXX 23124 71332 NIL
AAXX 23124 71334 46/// /1602 11238 21265 39834 40184 55006 6///1 333 11256 21301 7////
AAXX 23124 71335 46964 02740 11209 50006 6///1 333 11150 21222 7////
AAXX 23124 71336 46/// ///15 10006 21025 30110 40133 53039 6///1 333 10074 20005 7////
AAXX 23124 71337 46/// /2805 11048 21061 39880 40119 51021 6///1 333 10006 21049 7////
AAXX 23124 71338 46448 80511 11168 21196 39973 49980 52014 6///1 333 11141 21168 7////
AAXX 23124 71339 16964 03215 11138 21193 30113 40128 51040 60001 333 11009 21138 70000
AAXX 23124 71340 NIL
AAXX 23124 71341 NIL
AAXX 23124 71342 NIL
AAXX 23124 71343 NIL
AAXX 23124 71344 NIL
AAXX 23124 71345 NIL
AAXX 23124 71346 NIL
AAXX 23124 71347 NIL
AAXX 23124 71348 NIL
AAXX 23124 71349 NIL
AAXX 23124 71900 46/// /23// 11206 21262 30081 40094 50000 6///1 333 11086 21207 7////
AAXX 23124 71903 NIL
AAXX 23124 71904 NIL
AAXX 23124 71914 16/// /2203 10031 20007 30077 40304 52024 60001 333 10026 21007 70000
AAXX 23124 71916 NIL
AAXX 23124 71918 460// ///// 11308 6///1 333 7////
AAXX 23124 71920 NIL
AAXX 23124 71921 NIL
AAXX 23124 71923 NIL
AAXX 23124 71927 17/// /0000 10003 21004 30243 40302 51024 69971 7//4/ 333 10072 21027 70007
AAXX 23124 71941 15966 03105 11240 21261 39824 40265 53011 60001 333 11025 21243 70000
AAXX 23124 71947 15966 03003 11300 21323 39902 40275 53009 60001 333 11080 21309 70000
AAXX 23124 71816 12574 12507 11202 21254 30112 40176 51034 60001 81100 333 11062 21203 47049 55021 70002
AAXX 23124 71817 12974 13117 11133 21185 30109 40123 52011 60001 81040 333 42012 70000
AAXX 23124 71818 12574 22717 11151 21186 30101 40120 52015 60001 82500 333 11053 21153 43017 79999
AAXX 23124 71822 NIL
AAXX 23124 71825 12974 02705 11279 21326 39491 40203 50011 60001 333 11071 21284 47086 79999
AAXX 23124 71827 11474 12202 11290 21333 39992 40255 52012 69901 77671 81600 333 11194 21293 47020 79999 90917
AAXX 23124 71828 16958 02911 11270 21319 39485 40159 50003 60001 333 11120 21274 70000
AAXX 23124 71831 11974 00000 11271 21323 39980 40282 53007 69901 70170 333 11121 21277 48039 79999 90952
AAXX 23124 71832 NIL
AAXX 23124 71834 11574 80000 11205 21244 39801 40256 57014 69901 77111 885// 333 11130 21258 48026 79999 90931
AAXX 23124 71841 NIL
AAXX 23124 71842 11440 81205 11105 21120 39681 40165 57026 69941 77177 885// 333 11107 21114 47011 70006 90983
AAXX 23124 71844 NIL
AAXX 23124 71845 11569 81405 11157 21184 39716 40215 56015 69902 771// 885// 333 11152 21227 44018 79999 90999 555 10000 20000
AAXX 23124 71850 11/12 91506 11068 21079 39611 40120 56020 60031 77177 333 11073 21082 48010 70034 90983 93105
AAXX 23124 71852 16964 33110 11077 21093 39820 40119 53011 60001 333 11039 21081 70000
AAXX 23124 71854 11328 81111 11094 21114 39659 40145 56012 60022 771// 8372/ 333 11104 21115 48016 70016 90999 555 19999 29999
AAXX 23124 71858 16/// /0105 11104 21117 39876 40164 53032 60001 333 11068 21104 70020
AAXX 23124 71861 16/// /2805 11095 21108 39430 40169 51009 60001 333 11028 21110 4/001 70000
AAXX 23124 71862 12974 33013 11056 21086 39473 40187 53014 60001 82071 333 11016 21057 41002 70000
AAXX 23124 71863 46964 32907 11106 21133 39475 40190 51010 6///1 333 11024 21113 7////
AAXX 23124 71401 16/// /2902 11069 21095 39641 40351 53004 60001 333 11039 21076 4/005 70012
AAXX 23124 71402 NIL
AAXX 23124 71404 NIL
AAXX 23124 71405 NIL
AAXX 23124 71406 NIL
AAXX 23124 71407 NIL
AAXX 23124 71408 NIL
AAXX 23124 71409 NIL
AAXX 23124 71410 15566 83502 11160 21177 39883 40174 53015 60001 333 11123 21165
AAXX 23124 71413 NIL
AAXX 23124 71414 NIL
AAXX 23124 71415 16/// /2303 11001 21014 30166 40169 55009 60001 333 10091 21002 70000
AAXX 23124 71417 NIL
AAXX 23124 71418 NIL
AAXX 23124 71419 46/// /2206 10014 21010 30179 40189 55002 6///1 333 10101 20013 7////
AAXX 23124 71423 NIL
AAXX 23124 71424 46/// /0429 6///1 333 7////
AAXX 23124 71425 16/// /3310 11075 21135 30163 40200 51016 60001 333 10006 21077 70000
AAXX 23124 71426 NIL
AAXX 23124 71427 NIL
AAXX 23124 71428 16/// /0311 11090 21139 30201 40207 53017 60001 333 10004 21091 70000
AAXX 23124 71429 16/// /3612 11046 21101 30148 40168 50000 60001 333 10009 21046 70000
AAXX 23124 71434 NIL
AAXX 23124 71436 17440 83210 11004 21011 39949 40187 53025 60011 7714/ 333 10049 21004 70030
AAXX 23124 71437 46/// /3111 10009 21033 30109 40205 53034 6///1 333 10070 20009 7////
AAXX 23124 71438 NIL
AAXX 23124 71439 NIL
AAXX 23124 71440 NIL
AAXX 23124 71442 16/// /3209 11073 21081 39810 40130 53015 60001 333 11049 21098 70006
AAXX 23124 71445 NIL
AAXX 23124 71446 16/// /2408 11073 21109 39188 40186 58007 60001 333 11008 21083 70000
AAXX 23124 71448 17/// /3601 11056 21064 39773 40108 55003 60031 7//4/ 333 11053 21066 70030
AAXX 23124 71449 NIL
AAXX 23124 71700 17316 80602 11008 21011 30138 40164 56010 69981 771// 333 10031 21011 70011
AAXX 23124 71701 NIL
AAXX 23124 71702 16/// /1602 11016 21025 30150 40165 56009 60001 333 10046 21030 4/001 70000
AAXX 23124 71703 11424 80602 11030 21034 39858 40159 56012 69923 7717/ 885// 333 11001 21043 42007 70002 90999 555 19999 29999
AAXX 23124 71704 15566 83315 11025 21051 30017 40242 52023 60001 333 10054 21025 70025
AAXX 23124 71710 NIL
AAXX 23124 71712 17/// /3302 10003 20000 30089 40150 53010 60021 7//4/ 333 10033 20002 70066
AAXX 23124 71713 17/// /0412 11050 21061 60011 7//4/ 333 10009 21050 70014
AAXX 23124 71716 NIL
AAXX 23124 71717 NIL
AAXX 23124 71720 16/// /1111 10047 20000 30124 40279 51017 60001 333 10044 20021 70000
AAXX 23124 71721 17/// /3405 11105 21121 39945 40197 53022 60011 7//4/ 333 10004 21105 70030
AAXX 23124 71723 17/// /3504 11019 21030 30143 40153 53004 60021 7//4/ 333 10009 21019 70073
AAXX 23124 71724 NIL
AAXX 23124 71732 16/// /3409 11166 21189 60001 333 10009 21168 70000
AAXX 23124 71733 16/// /3610 11178 21200 39811 40267 53014 60001 333 11011 21178 4/002 70000
AAXX 23124 71734 16/// /3504 11231 21262 39854 40269 52010 60001 333 11016 21241 70012
AAXX 23124 71736 NIL
AAXX 23124 71737 NIL
AAXX 23124 71741 16/// /0912 11009 21062 39842 40274 51006 60001 333 10001 21022 70000
AAXX 23124 71742 46/// /2708 11025 21043 39956 40144 51024 6///1 333 10037 21026 7////
AAXX 23124 71743 NIL
AAXX 23124 71744 NIL
AAXX 23124 71745 NIL
AAXX 23124 71746 NIL
AAXX 23124 71747 NIL
AAXX 23124 71748 NIL
AAXX 23124 06011 07659 72724 10046 21012 39854 49921 52043 60021 78185 333 55305 20108 60017 81/33 85/45 87/57 91035 91161 91244
AAXX 23124 71604 16/// /0000 11029 21029 60001 333 10053 21031 4/027 70022
AAXX 23124 71605 16/// /2101 10043 21007 30139 40291 51017 60001 333 10073 20016 70000
AAXX 23124 71611 17/// /0000 10000 21005 60031 7//4/ 333 10020 21002 70030
AAXX 23124 71612 NIL
AAXX 23124 71614 NIL
AAXX 23124 71616 17/// /3403 11009 21009 30033 40155 55001 60011 7//4/ 333 10007 21013 70011
AAXX 23124 71617 16/// /2605 11132 21162 30042 40217 53001 60001 333 11002 21133 7////
AAXX 23124 71618 NIL
AAXX 23124 71619 16/// /3505 11037 21100 30112 40171 58005 60001 333 10005 21038 70000
AAXX 23124 71622 NIL
AAXX 23124 71632 46/// /1502 11225 21248 39713 40174 58004 6///1 333 11181 21287 4/016 7////
AAXX 23124 71634 16/// /0000 11047 21052 30022 40178 56008 60001 333 11002 21049 4/009 70013
AAXX 23124 71638 16/// /1407 10046 20000 30179 40286 51025 60001 333 10067 21001 70000
AAXX 23124 71639 11474 83315 11026 21067 39957 40202 53030 69921 70272 885// 333 10061 21026 41997 70016 90927
AAXX 23124 71642 11474 80000 11185 21212 39701 40278 53006 69901 7227/ 885// 333 11040 21210 48022 70004 90999
AAXX 23124 71550 NIL
AAXX 23124 71551 NIL
AAXX 23124 71552 46/// /0903 11054 21064 6///1 333 11035 21068 7////
AAXX 23124 71553 16/// /3107 11125 21136 60001 333 11055 21125 70000
AAXX 23124 71554 16/// /0210 11089 21116 30199 40205 52007 60001 333 10004 21090 70000
AAXX 23124 71555 16/// /2810 10011 21165 38608 40180 58005 60001 333 10034 21006 70000
AAXX 23124 71556 NIL
AAXX 23124 71557 46/// /0407 11033 21077 6///1 333 11023 21075 7////
AAXX 23124 71558 46/// ///// 11105 21147 30082 40120 51029 6///1 333 10003 21108 7////
AAXX 23124 71559 46/// /3010 11055 21082 39470 40183 53014 6///1 333 11016 21055 55/// 20000 7////
AAXX 23124 71560 16/// /3111 11056 21082 39814 40121 53010 60001 333 11034 21057 7////
AAXX 23124 71563 NIL
AAXX 23124 71564 NIL
AAXX 23124 71565 NIL
AAXX 23124 71566 NIL
AAXX 23124 71567 NIL
AAXX 23124 71568 16/// /1311 10048 20013 30264 40277 51036 60001 333 10051 20043 70000
AAXX 23124 71569 16/// /3007 11085 21104 39459 40174 51008 60001 333 11014 21085 70000
AAXX 23124 71570 17/// /1103 11055 21070 39801 40118 55002 60031 7//4/ 333 11050 21069 70032
AAXX 23124 71571 NIL
AAXX 23124 71572 NIL
AAXX 23124 71573 16/// /3310 11004 21036 39921 40207 53031 60001 333 10052 21004 70018
AAXX 23124 71574 12674 83304 11027 21070 30100 40174 55005 60001 885// 333 10011 21035 43020 70000
AAXX 23124 71575 16/// /3118 11196 21222 39938 40004 53008 60001 333 11168 21227 4/016 70000
AAXX 23124 71576 NIL
AAXX 23124 71577 46/// /3404 11064 21069 6///1 333 11047 21070 7////
AAXX 23124 71578 17/// /0818 11022 21039 60011 7//4/ 333 10011 21022 70012
AAXX 23124 71579 NIL
AAXX 23124 71580 11762 21507 11327 21383 30030 40068 58016 60001 77600 82500 333 11324 21349 44030 79999
AAXX 23124 71581 NIL
AAXX 23124 71582 17348 81808 10063 20057 30164 40217 53043 60161 76144 333 10090 20046 70171
AAXX 23124 71583 NIL
AAXX 23124 71584 15966 63105 11146 21188 30150 40199 53027 60001 333 21157 70000
AAXX 23124 71585 NIL
AAXX 23124 71586 16/// /1904 11104 21114 39681 40157 58003 60001 333 11047 21182 4/028 70000
AAXX 23124 71587 NIL
AAXX 23124 71588 16/// /3102 11020 21030 60001 333 10037 21020 70000
AAXX 23124 71589 16/// /2605 11029 21039 30011 40145 51035 60001 333 10050 21029 70052
AAXX 23124 71590 16/// /3401 11033 21045 39965 40159 56008 60001 333 10012 21060 4/011 70000
AAXX 23124 71592 NIL
AAXX 23124 71593 NIL
AAXX 23124 71596 NIL
AAXX 23124 71598 16/64 /3505 11011 21072 30169 40175 56004 60001 333 10006 21019 4/003 70005
AAXX 23124 71599 NIL
AAXX 23124 71744 NIL
AAXX 23124 71750 16/// /0704 11133 21168 30001 40246 58015 60001 333 11064 21134 4/006 70000
AAXX 23124 71751 NIL
AAXX 23124 71752 NIL
AAXX 23124 71753 17/// /0000 11009 21012 30134 40163 56018 60011 7//4/ 333 10097 21026 70013
AAXX 23124 71754 16/// /1704 11114 21129 39491 40168 57010 60001 333 10007 21131 55/// 20000 70000
AAXX 23124 71755 43/// /0903 11201 21237 39848 40214 58003 6///1 333 11194 21326 7////
AAXX 23124 71756 16/// /0401 11021 21051 39159 40274 51014 60001 333 10006 21039 4/043 70000
AAXX 23124 71758 NIL
AAXX 23124 71760 NIL
AAXX 23124 71761 NIL
AAXX 23124 71762 NIL
AAXX 23124 71763 NIL
AAXX 23124 71765 16/// /0106 11025 21076 39972 40253 51022 60001 333 11002 21051 70000
AAXX 23124 71766 16/// /1106 10037 20009 30203 40276 51013 60001 333 10062 20000 70000
AAXX 23124 71767 16/// /0108 11099 21124 39987 40256 53023 60001 333 10033 21100 4/001 70033
AAXX 23124 71768 46/// /1505 11013 21062 39756 40319 51014 6///1 333 11001 21029 7////
AAXX 23124 71769 16/// /1225 10049 20022 30256 40272 51016 60001 333 10052 20044 70000
AAXX 23124 71770 NIL
AAXX 23124 71771 NIL
AAXX 23124 71772 16/// /1419 10057 20032 30277 40283 51024 60001 333 10058 20046 70000
AAXX 23124 71773 16/// /1709 11001 21015 39021 49853 53008 60001 333 10011 21002 4/024 70013
AAXX 23124 71774 46/// ///// 10010 6///1 333 10019 21003 7////
AAXX 23124 71775 46/// /0306 10020 20013 30303 40309 51022 6///1 333 10051 21019 7////
AAXX 23124 71776 46/// /1603 11076 21099 39683 40350 53002 6///1 333 11022 21078 7////
AAXX 23124 71777 16/// ///// 11050 21055 30026 40287 50009 60001 333 11064 21097 4/009 70000
AAXX 23124 71778 46/// /0213 6///1 333 7////
AAXX 23124 71779 16/// /1308 11014 21092 39526 40194 51020 60001 333 10006 21015 4/022 70000
AAXX 23124 71780 17/// /0805 10036 20017 30272 40300 51024 69941 7//4/ 333 10055 20031 70004
AAXX 23124 71781 46/// /1231 10054 20020 30233 40258 50004 6///1 333 10057 20050 7////
AAXX 23124 71782 46/// /1906 11075 21098 38929 40294 56026 6///1 333 11026 21145 7////
AAXX 23124 71783 17/// /0902 10039 20026 30219 40294 50026 69921 7//4/ 333 10053 20007 70004
AAXX 23124 71784 16/// /1003 10039 21003 30085 40293 51022 60001 333 10080 20010 70000
AAXX 23124 71785 NIL
AAXX 23124 71786 46/// /2726 11124 21139 38392 40285 55014 6///1 333 11105 21130 7////
AAXX 23124 71787 17/// /0903 11024 21024 39668 40161 55011 60011 7//4/ 333 10064 21025 4/003 70011 555 10020
AAXX 23124 71788 NIL
AAXX 23124 71789 NIL
AAXX 23124 71791 NIL
AAXX 23124 71792 NIL
AAXX 23124 71793 NIL
AAXX 23124 71794 NIL
AAXX 23124 71795 NIL
AAXX 23124 71796 NIL
AAXX 23124 71797 NIL
AAXX 23124 71051 NIL
AAXX 23124 71055 NIL
AAXX 23124 71057 NIL
AAXX 23124 71059 460// ///// 11232 39963 40056 56009 6///1 333 11132 21236 7////
AAXX 23124 71061 16/// /2304 11033 21083 39303 40089 56013 60001 333 10028 21076 4/005 70000
AAXX 23124 71062 46/// /2612 11003 21095 39023 40089 56008 6///1 333 10017 21053 4/014 7////
AAXX 23124 71064 460// /3219 11273 39803 40026 57003 6///1 333 11236 21274 7////
AAXX 23124 71065 NIL
AAXX 23124 71067 NIL
AAXX 23124 71070 NIL
AAXX 23124 71073 NIL
AAXX 23124 71074 NIL
AAXX 23124 71075 16/// /1808 11188 21209 39500 40127 56023 60001 333 11166 21208 4/053 70000
AAXX 23124 71078 NIL
AAXX 23124 71084 460// ///// 11230 39969 40018 57019 6///1 333 11292 21320 7////
AAXX 23124 71085 15966 12716 11019 21157 38818 40218 56008 60001 333 10003 21033 70000
AAXX 23124 71087 NIL
AAXX 23124 71088 460// /3217 11252 52006 6///1 333 11234 21275 7////
AAXX 23124 71089 NIL
AAXX 23124 71096 460// ///// 11188 39226 49964 51009 6///1 333 11172 21189 7////
AAXX 23124 71097 47464 80110 11154 39421 49896 50006 6///1 745// 333 11140 21161 7////
AAXX 23124 71098 43/// /1107 11158 21183 39809 40188 55004 6///1 333 11168 21255 7////
AAXX 23124 71099 43/// /2204 11349 21390 30228 40250 53007 6///1 333 11260 21350 7////
AAXX 23124 71102 NIL
AAXX 23124 71105 NIL
AAXX 23124 71107 NIL
AAXX 23124 71110 NIL
AAXX 23124 71111 15666 62211 10048 20011 30127 40135 51072 69931 333 10089 20048 70137
AAXX 23124 71112 17/// ///// 69921 7//4/ 333 70002
AAXX 23124 71113 16/// /3002 10003 21009 30284 40308 51032 60001 333 10053 21009 70002
AAXX 23124 71115 16/// /1010 11066 21086 39715 40318 51011 60001 333 11030 21082 70000
AAXX 23124 71116 16/// /0906 11085 21114 39099 40218 58014 60001 333 10021 21087 70000
AAXX 23124 71118 16/// /1610 11058 21102 39294 40128 58027 60001 333 10006 21087 70006
AAXX 23124 71121 16964 02309 11039 21127 39272 40099 55030 60001 333 10016 21077 70000
AAXX 23124 71127 16/// /2511 11009 21081 39184 40094 56024 60001 333 10026 21048 4/013 70000
AAXX 23124 71130 15366 81103 11116 21128 39708 40177 51011 60001 333 11047 21156 70000
AAXX 23124 71132 17140 81703 11155 21171 39788 40112 58018 60001 710// 333 11154 21215 70000
AAXX 23124 71133 46/// /1704 11121 21139 39424 40143 58012 6///1 333 11025 21127 7////
AAXX 23124 71139 16/// /2805 11019 21110 38711 40184 56006 60001 333 11003 21048 70000
AAXX 23124 71141 NIL
AAXX 23124 71142 15966 02215 11070 21099 39199 40184 58012 60001 333 11009 21076 70000
AAXX 23124 71143 NIL
AAXX 23124 71144 NIL
AAXX 23124 71147 NIL
AAXX 23124 71149 NIL
AAXX 23124 71450 16/// /2206 11061 21073 39455 40187 53004 60001 333 11008 21090 70000
AAXX 23124 71451 16/// /2201 11136 21152 39720 40160 58008 60001 333 11117 21146 4/022 70018 555 10020
AAXX 23124 71452 NIL
AAXX 23124 71453 16/// /2008 11080 21114 39266 40203 58013 60001 333 10002 21119 4/001 55/// 20000 70005 555 10010
AAXX 23124 71454 16/// /2002 11125 21143 39451 40157 58005 60001 333 11036 21125 55/// 20000 70000
AAXX 23124 71455 NIL
AAXX 23124 71456 NIL
AAXX 23124 71457 16/// /1804 11053 21086 39253 40154 58020 60001 333 10010 21104 4/010 70000
AAXX 23124 71458 16/// /1809 11070 21099 39329 40106 58036 60001 333 10003 21113 4/007 70005 555 10010
AAXX 23124 71459 NIL
AAXX 23124 71460 16/// /0208 11156 21200 30022 40274 53018 60001 333 10029 21156 70000
AAXX 23124 71461 NIL
AAXX 23124 71462 NIL
AAXX 23124 71463 46/// /3310 10015 21015 39973 40199 53025 6///1 333 10057 20014 7////
AAXX 23124 71464 NIL
AAXX 23124 71465 NIL
AAXX 23124 71466 NIL
AAXX 23124 71468 NIL
AAXX 23124 71470 NIL
AAXX 23124 71471 15966 12113 10025 21048 39280 40066 58008 60001 333 10020 21076 70000
AAXX 23124 71473 17/// /1613 10033 21004 30267 40298 51024 69921 7//4/ 333 10037 20010 70002
AAXX 23124 71475 16/// /2902 11001 21003 30188 40284 51015 60001 333 11004 21014 70000
AAXX 23124 71476 NIL
AAXX 23124 71477 NIL
AAXX 23124 71478 NIL
AAXX 23124 71479 NIL
AAXX 23124 71480 NIL
AAXX 23124 71481 NIL
AAXX 23124 71482 NIL
AAXX 23124 71483 NIL
AAXX 23124 71484 NIL
AAXX 23124 71485 17/// /1221 10060 20039 30219 40240 51036 60011 7//4/ 333 10065 20050 70016
AAXX 23124 71486 16/// /1806 11037 21094 38965 40180 57008 60001 333 11012 21107 4/016 70000
AAXX 23124 71487 NIL
AAXX 23124 71489 16/// /2106 11103 21119 39353 40171 58008 60001 333 10003 21123 70000
AAXX 23124 71490 NIL
AAXX 23124 71491 NIL
AAXX 23124 71492 NIL
AAXX 23124 71493 17/// /0803 11005 21008 30127 40166 56009 60021 7//4/ 333 10089 21029 4/001 70023 555 10010
AAXX 23124 71494 17/// /0000 11021 21022 39610 40135 56006 60021 7//4/ 333 10005 21024 4/003 70023 555 10030
AAXX 23124 71495 NIL
AAXX 23124 71496 16/// /2005 11103 21116 39546 40170 58006 60001 333 11013 21111 55/// 20000 70000
AAXX 23124 71497 46/// /2309 11075 21091 39657 49919 57027 6///1 333 10030 21080 7////
AAXX 23124 71498 NIL
AAXX 23124 71499 17266 82107 11135 21148 39488 40130 55011 60001 771// 333 11092 21141 70000
AAXX 23124 71950 17666 81608 10020 20005 39449 40077 53022 60001 761// 333 10015 21007 70000
AAXX 23124 71952 16/// /2902 11071 21074 39249 40109 53016 60001 333 11017 21101 4/036 70000
AAXX 23124 71954 NIL
AAXX 23124 71956 NIL
AAXX 23124 71959 NIL
AAXX 23124 71960 460// /0415 11271 39926 40063 58004 6///1 333 11200 21271 7////
AAXX 23124 71962 17/// /1707 11052 21065 39696 40125 56041 69981 7//4/ 333 11061 21070 4/004 70008 555 10010
AAXX 23124 71963 NIL
AAXX 23124 71967 17/// /3608 11007 21007 30051 40157 53003 60021 7//4/ 333 10015 21007 4/002 70021 555 10020
AAXX 23124 71970 NIL
AAXX 23124 71971 NIL
AAXX 23124 71972 460// /2917 11148 39447 49912 51007 6///1 333 11096 21169 7////
AAXX 23124 71973 46/// /2205 11019 21042 39963 40152 51011 6///1 333 10045 21024 7////
AAXX 23124 71974 NIL
AAXX 23124 71975 460// /0413 11143 39171 49895 53017 6///1 333 11143 21152 7////
AAXX 23124 71976 NIL
AAXX 23124 71977 NIL
AAXX 23124 71978 NIL
AAXX 23124 71979 NIL
AAXX 23124 71980 46/// /1501 11186 21207 6///1 333 11141 21189 4/028 7//// 555 10020
AAXX 23124 71981 NIL
AAXX 23124 71982 NIL
AAXX 23124 71983 NIL
AAXX 23124 71984 16/// /0511 11210 21231 30033 40041 58013 60001 333 11110 21216 70000
AAXX 23124 71985 NIL
AAXX 23124 71986 NIL
AAXX 23124 71987 16/// /3609 10007 21032 30153 40163 55011 60001 333 10023 20006 70000
AAXX 23124 71988 17/// /1108 10015 20013 30143 40163 58006 60071 7//4/ 333 10107 20012 70066
AAXX 23124 71989 NIL
AAXX 23124 71990 NIL
AAXX 23124 71999 46/// ///// 11034 6///1 333 10011 21060 7////
AAXX 23124 71603 11/24 90905 10002 21002 30105 40159 55012 60041 78581 333 10106 21002 42997 70044 90942
AAXX 23124 71607 17/// /0000 11005 21006 30126 40159 58006 60031 7//4/ 333 10066 21029 4/003 70032 555 10020
AAXX 23124 71609 11324 80000 11005 21022 30030 40166 58002 60021 78522 885// 333 10088 21015 43001 70019 90921 93101
AAXX 23124 71610 17216 80000 11004 21005 39841 40139 56003 60031 77144 333 10013 21014 70031
AAXX 23124 71621 11474 83507 10010 21002 30069 40176 53044 60021 7007/ 885// 333 10060 20006 70020 90999
AAXX 23124 71623 NIL
AAXX 23124 71624 11469 83316 11019 21047 39996 40211 53037 69921 70286 885// 333 10059 21019 55021 70024 90952
AAXX 23124 71625 17464 83611 11103 21133 30050 40215 51024 60001 745// 333 10009 21104 70015
AAXX 23124 71627 11124 80104 10002 21014 30106 40151 53009 60031 77177 886// 333 10038 20001 43002 70042 90973 93102
AAXX 23124 71628 11460 83314 11040 21059 30028 40171 52022 60021 77177 88500 333 10039 21041 4-3003 70026 909/7
AAXX 23124 71630 NIL
AAXX 23124 71631 NIL
AAXX 23124 71633 11456 23205 11085 21108 39965 40243 52028 69941 77171 82700 333 10037 21086 47997 55000 70014 90936
AAXX 23124 71705 11/16 90000 11015 21019 30082 40171 55012 69921 77111 333 10051 21056 47997 70004 90910
AAXX 23124 71706 11462 82602 11008 21024 30116 40177 55008 69901 77122 885// 333 10059 21019 79999 90910
AAXX 23124 71707 11574 82003 11002 21024 30105 40182 55000 69901 70282 885// 333 10099 21010 79999 90950
AAXX 23124 71709 13580 80207 11004 21029 30157 40170 58003 60002 8257/ 333 10052 21010 41997 79999 555 10000 20000
AAXX 23124 71711 NIL
AAXX 23124 71714 17/// /0908 11023 21033 30079 40172 55000 69991 7//4/ 333 10008 21023 4/009 70009
AAXX 23124 71715 17/// /0213 11076 21091 39995 40180 53003 69951 7//4/ 333 11003 21076 70005
AAXX 23124 71718 11448 80112 11092 21119 30139 40206 52007 60001 78522 885// 333 10005 21092 47997 79999 90921
AAXX 23124 71719 16/// /0309 11017 21057 30168 40174 58005 60001 333 10018 21017 4/003 70000
AAXX 23124 71893 11480 61708 10049 20011 30249 40281 51026 69901 72582 82570 333 10058 20021 55035 79999 90925
AAXX 23124 71894 17/// /0807 10059 20059 30255 40264 51020 60031 7//4/ 333 10075 20040 70098
AAXX 23124 71896 15966 81918 11012 21093 39319 40160 51014 60001 333 10006 21066 70000
AAXX 23124 71897 11224 82325 10075 20055 3//// 4//// 52056 60081 75162 887XX 333 10078 20048 70078 90999
AAXX 23124 71898 160// ///// 10056 52090 60041 333 10072 20037 70120
AAXX 23124 71899 11466 72937 10059 20015 3//// 4//// 52080 60011 70282 88200 333 10077 20051 70106 90963
AAXX 23124 71902 12574 32820 11209 21306 30065 40074 58007 60002 83500 333 11119 21220 43020 70000 555 10000 20000
AAXX 23124 71905 NIL
AAXX 23124 71906 11974 42717 11189 21225 30040 40092 52028 69901 77177 84070 333 11172 21214 48015 79999 90983
AAXX 23124 71907 16459 32815 11212 21250 30104 40138 53009 60001 333 11183 21215 70005
AAXX 23124 71909 16019 63220 11203 21240 39914 49958 51021 60001 333 11120 21235 70000
AAXX 23124 71910 47658 82919 11197 21235 39947 40011 53008 6///1 745// 333 11169 21228 7////
AAXX 23124 71911 46964 01009 11344 30005 40065 56022 6///1 333 11318 21371 7////
AAXX 23124 71912 12974 01304 11354 21405 30020 40219 55003 60001 333 11244 21361 45016 70000
AAXX 23124 71915 11974 03419 11272 21317 39985 40070 53006 69901 77677 333 11211 21302 48042 55/// 79999 90983
AAXX 23124 71917 11874 20000 11342 21382 30004 40018 51007 69901 77677 82070 333 11279 21342 47015 55/// 10078 20000 70002 90993
AAXX 23124 71922 12274 81805 11102 21109 39683 40160 57005 60001 886// 333 11046 21183 70000
AAXX 23124 71924 11869 81206 11254 21294 39942 40034 57010 69901 77177 8803/ 333 11236 21294 48038 55/// 70002 90973
AAXX 23124 71925 11374 82703 11239 21280 39980 40022 55008 69901 77077 885// 333 11257 21293 42021 79999 90983
AAXX 23124 71926 12974 00000 11323 21380 30089 40115 55019 60001 333 11297 21359 44042 79999
AAXX 23124 71928 16/// /2616 10049 21112 38961 40128 56009 60001 333 10003 21137 4/009 70000
AAXX 23124 71500 NIL
AAXX 23124 71501 NIL
AAXX 23124 71502 NIL
AAXX 23124 71503 NIL
AAXX 23124 71504 NIL
AAXX 23124 71505 46/// /0709 11016 21033 39130 49837 53019 6///1 333 11027 21083 7////
AAXX 23124 71506 NIL
AAXX 23124 71507 16/// /1912 11010 21062 60001 333 11013 21096 70000
AAXX 23124 71508 16/// ///// 11007 21027 30069 40209 53035 60001 333 10069 21008 70014
AAXX 23124 71509 NIL
AAXX 23124 71511 16/// /2806 11093 21106 39529 40181 51003 60001 333 11019 21093 55/// 20000 70000
AAXX 23124 71512 16/// /3602 11167 21192 30194 40209 53031 60001 333 10000 21169 70000
AAXX 23124 71513 15966 03307 11154 21199 30175 40191 53039 60001 333 11023 21154 70000
AAXX 23124 71514 NIL
AAXX 23124 71515 16/// /3108 11099 21112 39462 40178 51009 60001 333 11030 21101 55/// 20000 70000
AAXX 23124 71516 16/// /2907 11068 21098 60001 333 11016 21077 70000
AAXX 23124 71517 NIL
AAXX 23124 71518 NIL
AAXX 23124 71519 NIL
AAXX 23124 71520 NIL
AAXX 23124 71521 NIL
AAXX 23124 71522 NIL
AAXX 23124 71523 NIL
AAXX 23124 71524 17/// /0203 11014 21016 30135 40161 53010 60021 7//4/ 333 10021 21015 4/001 70090 555 10010
AAXX 23124 71525 NIL
AAXX 23124 71526 NIL
AAXX 23124 71527 17428 81312 11077 21088 39622 40140 56034 60001 771// 333 11090 21096 70000
AAXX 23124 71528 NIL
AAXX 23124 71529 46/// /0906 11151 21171 39802 40034 58037 6///1 333 11147 21164 4/018 7////
AAXX 23124 71532 17448 83313 11084 21096 39862 40214 53031 60001 771// 333 10021 21084 70003
AAXX 23124 71534 17464 83111 11052 21069 39944 40221 53037 60011 74544 333 10049 21052 70025
AAXX 23124 71535 NIL
AAXX 23124 71536 NIL
AAXX 23124 71537 NIL
AAXX 23124 71539 NIL
AAXX 23124 71540 NIL
AAXX 23124 71541 NIL
AAXX 23124 71542 16/// /0307 11105 21119 60001 333 11018 21115 70000
AAXX 23124 71543 NIL
AAXX 23124 71544 NIL
AAXX 23124 71545 17/// ///// 11084 21103 69951 7//4/ 333 10007 21093 70016
AAXX 23124 71546 NIL
AAXX 23124 71547 NIL
AAXX 23124 71548 NIL
AAXX 23124 71549 NIL
AAXX 23124 71665 16/// /2818 11211 21272 30058 40068 58008 60001 333 11113 21214 4/034 70000
AAXX 23124 71666 16/// /1602 11015 21020 30122 40167 55010 60001 333 10036 21029 4/001 70000
AAXX 23124 71667 NIL
AAXX 23124 71668 17/// /0802 11007 21014 30116 40160 56012 60011 7//4/ 333 10032 21010 70010
AAXX 23124 71669 NIL
AAXX 23124 71670 16/// ///// 11022 21025 60001 333 10008 21026 70003
AAXX 23124 71671 17/// /0000 11001 21001 30100 40161 56012 60031 7//4/ 333 10090 21001 4/001 70034 555 10020
AAXX 23124 71672 17/// /3204 11005 21018 39916 40183 53026 69941 7//4/ 333 10056 21005 4/001 70025 555 10010
AAXX 23124 71673 NIL
AAXX 23124 71674 NIL
AAXX 23124 71675 15966 01604 11296 21326 39940 40240 56004 60001 333 11212 21316 70000
AAXX 23124 71679 NIL
AAXX 23124 71680 NIL
AAXX 23124 71681 46/// /1202 11067 21094 6///1 333 10002 21083 7////
AAXX 23124 71682 NIL
AAXX 23124 71683 NIL
AAXX 23124 71684 15966 03006 11233 21254 39960 40280 53010 60001 333 11009 21234 70000
AAXX 23124 71685 15566 81617 11022 21057 39756 40310 58010 60001 333 11006 21054 70000
AAXX 23124 71686 469// /1907 10005 21051 39013 49946 53013 6///1 333 21040
AAXX 23124 71687 NIL
AAXX 23124 71688 16/// /2001 11031 21042 39219 40276 51016 60001 333 11003 21049 4/056 70000
AAXX 23124 71689 15966 81106 11089 21097 39615 40075 58035 60001 333 11020 21126 70000
AAXX 23124 71690 NIL
AAXX 23124 71691 15766 83612 11133 21181 30184 40212 51007 60001 333 10001 21133 70000
AAXX 23124 71692 NIL
AAXX 23124 71694 16/// /3505 11103 21128 39858 40230 53027 60001 333 10022 21103 4/002 70000
AAXX 23124 71695 16/// /0304 11126 21147 39825 40169 50014 60001 333 11082 21126 4/021 70000
AAXX 23124 71696 16/// /2005 11331 21364 30154 40194 58005 60001 333 11258 21331 70000
AAXX 23124 71697 15466 83315 11011 21032 30020 40193 53028 60001 333 10059 21011 70008
AAXX 23124 71699 17/// /0503 10001 21003 30154 40162 58003 69981 7//4/ 333 10089 21016 4/002 70008 555 10020
AAXX 23124 71726 NIL
AAXX 23124 71727 11532 82806 11129 21154 30005 40208 50001 69901 78522 885// 333 10001 21131 48025 70008 90952
AAXX 23124 71728 11562 83408 11138 21185 39993 40221 52005 69901 77177 885// 333 10010 21138 46001 70010 90983
AAXX 23124 71730 11474 60115 11177 21191 39819 40264 53015 69901 70177 86500 333 11010 21177 41997 79999 90962
AAXX 23124 71731 11574 10308 11176 21212 39774 40244 53022 69901 72277 81501 333 11009 21176 41997 79999 90973
AAXX 23124 71735 NIL
AAXX 23124 71738 11474 80503 11160 21160 39901 40273 55001 69901 7717/ 885// 333 11010 21180 47024 79999 90999 555 19999 29999
AAXX 23124 71739 41574 80000 11236 21278 39889 40276 53006 6//// 77111 885// 333 11221 21265 4//// 7//// 90931
AAXX 23124 71749 16461 80709 11085 21101 39972 40227 56027 60001 333 11046 21179 70000
AAXX 23124 71799 11569 83102 10019 20016 30275 40300 51024 69941 76162 885// 333 10052 21028 55047 70004 90916
AAXX 23124 71800 16/// /2808 10015 20013 30127 40160 51032 60001 333 10070 20005 70146
AAXX 23124 71801 11474 73113 10001 21016 39982 40156 53034 69901 70252 87500 333 10071 20001 41997 70082 90920
AAXX 23124 71803 12480 22710 11026 21057 39956 40144 52025 60001 81501 333 10036 21028 42001 70040
AAXX 23124 71807 NIL
AAXX 23124 71808 12574 32911 11119 21171 30089 40137 51034 60001 83500 333 11010 21120 48022 79999
AAXX 23124 71809 11574 72307 11016 21042 30114 40142 50010 69901 78511 87500 333 10022 21024 45003 70010 90921
AAXX 23124 71810 16/// /0206 11128 21176 30123 40191 51022 60001 333 10001 21128 70000
AAXX 23124 71811 NIL
AAXX 23124 71813 16/// /3307 11151 21191 30171 40185 53038 60001 333 11023 21156 7////
AAXX 23124 71814 16/// /3404 11134 21169 30154 40164 53033 60001 333 11018 21134 70005
AAXX 23124 71815 12474 62808 11004 21037 30131 40162 53011 60001 86500 333 10061 21012 42004 70004
AAXX 23124 71930 NIL
AAXX 23124 71931 NIL
AAXX 23124 71934 12874 21205 11119 21142 39746 40008 57056 60001 82070 333 11139 21200 47021 70000
AAXX 23124 71935 12974 21507 11072 21100 39736 49945 57054 60001 82070 333 11105 21192 44012 70000
AAXX 23124 71936 11774 70912 11151 21168 39716 49980 57063 69921 77177 83570 333 11172 21181 48021 70004 90983
AAXX 23124 71937 NIL
AAXX 23124 71938 11469 80505 11193 21230 30017 40047 58014 69901 77177 885// 333 11150 21198 48024 79999 90983
AAXX 23124 71940 12982 32525 11061 21092 39289 40100 50001 60001 80001 333 10023 21099 43001 70000
AAXX 23124 71943 12974 32220 11002 21069 39217 40049 57022 60001 80001 333 10010 21021 44003 70000
AAXX 23124 71944 160// ///// 11009 50001 60001 333 11019 21058 70000
AAXX 23124 71945 12874 82206 10002 21084 39480 49946 56008 60001 8807/ 333 11031 21095 43010 79999
AAXX 23124 71946 11674 21407 11105 21118 39700 49914 57035 69901 70171 82500 333 11113 21147 48034 79999 90931
AAXX 23124 71948 46064 /0405 11255 39945 40062 56006 6///1 333 11185 21257 7////
AAXX 23124 71949 46/// /1411 11014 21043 38998 49845 56004 6///1 333 11012 21039 7////
AAXX 23124 71951 NIL
AAXX 23124 71957 47448 83608 11238 21311 39964 40055 56001 6///1 745// 333 11204 21238 7////
AAXX 23124 71964 11480 61415 11002 21027 39024 49856 52008 69901 70172 84531 333 10010 21003 47020 79999
AAXX 23124 71966 17/// /0000 11109 21122 39393 49851 58004 60011 7//4/ 333 11131 21160 4/038 70094 555 10080
AAXX 23124 71968 460// /3305 11256 30009 40076 58002 6///1 333 11216 21265 7////
AAXX 23124 71864 NIL
AAXX 23124 71865 16/// /2606 11101 21116 39481 40176 51004 60001 333 11038 21108 70000
AAXX 23124 71866 46964 01905 11103 21122 39550 40178 58005 6///1 333 11012 21111 7////
AAXX 23124 71867 11474 80403 11128 21140 39829 40174 50015 69901 77122 885// 333 11084 21128 47021 70003 90921
AAXX 23124 71868 NIL
AAXX 23124 71869 12974 00000 11151 21153 39629 40167 58006 60001 333 11039 21151 70000
AAXX 23124 71871 15966 02111 11086 21107 39325 40144 57016 60001 333 10013 21094 70000
AAXX 23124 71877 12974 32904 10045 21144 38885 40154 57012 60001 80001 333 10048 21016 41997 70000
AAXX 23124 71878 12974 62710 11009 21078 39053 40135 56023 60001 86070 333 11018 21110 48013 70000
AAXX 23124 71879 16964 02106 11041 21102 39295 40103 55028 60001 333 10030 21057 70005
AAXX 23124 71880 12582 22307 11103 21128 39187 40334 57008 60001 82500 333 11032 21117 70000
AAXX 23124 71882 160// /1516 11022 21071 39758 40312 58009 60001 333 11001 21061 70000
AAXX 23124 71883 46/// /0000 11120 21130 39438 40292 51008 6///1 333 11028 21144 7////
AAXX 23124 71887 12986 61011 11007 21070 39845 40276 50006 60001 86070 333 10009 21023 70000
AAXX 23124 71889 12474 81610 10001 21060 39890 40319 53015 60001 885// 333 10000 21021 70000
AAXX 23124 71891 16964 30206 11024 21076 39974 40255 51022 60001 333 11001 21049 70000
AAXX 23124 71892 11569 70909 10033 20004 30298 40303 51025 69921 72052 84570 333 10050 20006 55049 70002 90931
AAXX 23124 71114 160// /0602 11007 21025 30254 40303 51024 60001 333 10016 21031 70000
AAXX 23124 71120 12974 21705 11065 21087 39457 40121 58024 60001 82071 333 11003 21085 42002 70000
AAXX 23124 71122 46/// /2413 11105 21143 38581 40227 56030 6///1 333 21115 4/017 7////
AAXX 23124 71123 11974 62205 11063 21105 39239 40117 55027 60001 71411 85072 333 10001 21112 44007 70000
AAXX 23124 71125 13974 01404 11100 21108 39546 40141 58013 60002 333 40997 70000
AAXX 23124 71129 12974 01605 11088 21117 39325 40170 58022 60001 333 10022 21097 41997 70000
AAXX 23124 71131 16/// /2702 11115 21132 38920 40213 58008 60001 333 11069 21124 70000
AAXX 23124 71135 16/// /2910 11049 21101 39098 40204 51004 60001 333 11038 21068 4/008 70000
AAXX 23124 71137 16/// /2806 11069 21106 39242 40206 58002 60001 333 11029 21096 70000
AAXX 23124 71140 12974 03213 11093 21109 39642 40155 5/011 60001 333 11034 21093 43002 79999
AAXX 23124 71145 11974 00802 11173 21205 39879 40189 55000 69901 70277 333 11168 21237 48040 79999 90922
AAXX 23124 71148 16/// /3112 11074 21096 39558 40149 53015 60001 333 11030 21074 70000
AAXX 23124 71185 16464 33211 11036 30114 40138 51022 60001 333 10026 21037 70045
AAXX 23124 71188 12574 73304 11063 21127 30145 40188 52009 60007 87500 333 10012 21067 43011 55037 70000
AAXX 23124 71200 17/// /0806 10038 20025 69941 7//4/ 333 10060 20018 70004
AAXX 23124 71207 16/// /3501 11008 21021 30229 40295 53016 60001 333 10024 21021 70000
AAXX 23124 71260 13/// ///// 11119 21152 30023 40269 52008 69901 333 10025 21120 45997 79999
AAXX 23124 71812 46964 02209 11320 21366 30151 40165 6///1 333 21324 7////
AAXX 23124 71819 15966 03110 11104 21148 30085 40127 51029 60001 333 10002 21112 70000
AAXX 23124 71820 17/// /3408 10004 20000 30047 40162 53015 60011 7//4/ 333 10061 20003 4/001 70024 555 10010
AAXX 23124 71823 16664 82304 11313 21333 39833 40242 53010 60001 333 11146 21326 70000
AAXX 23124 71824 46/// /0000 11325 21360 6///1 333 11035 21325 7////
AAXX 23124 71826 16/// /2605 11129 21155 39883 49925 51015 60001 333 11088 21136 4/013 70000
AAXX 23124 71829 16/// /3113 11155 21203 30039 40205 51007 60001 333 11004 21155 7////
AAXX 23124 71833 46/// /3307 11030 21046 6///1 333 10045 21030 7////
AAXX 23124 71835 16/// /1407 11156 21174 39705 40209 56015 60001 333 11152 21227 4/016 70000
AAXX 23124 71837 NIL
AAXX 23124 71839 NIL
AAXX 23124 71840 46/// /3113 11057 21088 6///1 333 11020 21071 7////
AAXX 23124 71846 16/// /0601 11332 21359 39916 40259 56008 60001 333 11192 21351 4/002 70000
AAXX 23124 71847 NIL
AAXX 23124 71848 NIL
AAXX 23124 71849 NIL
AAXX 23124 71397 11412 80000 10000 21007 30133 40168 57008 60011 78522 887// 333 10085 20000 43001 70024 90921 93101
AAXX 23124 71400 NIL
AAXX 23124 71403 46/// /0806 10007 21003 30152 40172 58010 6///1 333 10094 20007 7////
AAXX 23124 71411 16/// /0105 10021 20014 30152 40165 58012 60001 333 10113 21016 70000
AAXX 23124 71412 16/// /2303 10000 21013 30158 40168 55008 60001 333 10070 21001 70000
AAXX 23124 71421 NIL
AAXX 23124 71430 NIL
AAXX 23124 71431 16/// /3410 10013 21012 30078 40175 53026 60001 333 10054 20013 70012
AAXX 23124 71432 16/// /3223 10018 21009 30099 40197 53030 60001 333 10071 20018 70011
AAXX 23124 71433 NIL
AAXX 23124 71435 NIL
AAXX 23124 71441 46/// /3111 11054 21084 39809 40122 53013 6///1 333 11025 21058 7////
AAXX 23124 71443 16/// /2803 11065 21087 39740 40159 51015 60001 333 11034 21095 4/005 70000
AAXX 23124 71444 NIL
AAXX 23124 71447 16/// /2906 11087 21102 39610 40165 53008 60001 333 11015 21090 70000
AAXX 23124 71467 16/// /0000 11321 21353 39947 40068 58002 60001 333 11214 21337 4/003 70000 555 10010
AAXX 23124 71472 NIL
AAXX 23124 71474 16964 01808 11066 21113 38976 40243 51014 60001 333 11043 21106 70000
AAXX 23124 71510 16/// /2310 11082 21106 39452 40172 58007 60001 333 11002 21105 70000
AAXX 23124 71538 11674 73409 11033 21087 30016 40251 52025 69901 70182 87500 333 10062 21033 70012 90951
AAXX 23124 71600 16461 80000 10042 20023 30185 40191 55004 60001 333 10111 20039 70120
AAXX 23124 71601 NIL
AAXX 23124 71914 46/// /2203 10031 20007 30077 6///1 333 10026 21007 7////
AAXX 23124 71250 16/// /2907 10005 21018 30014 40150 53037 60001 333 10065 20005 70131
AAXX 23124 71251 16/// /2620 10008 21106 39238 40172 58021 60001 333 10031 21048 70000
AAXX 23124 71252 NIL
AAXX 23124 71253 46/// /0000 11189 21203 6///1 333 11073 21189 4/016 7////
AAXX 23124 71254 16/// /1908 11047 21090 60001 333 10008 21100 4/005 70000
AAXX 23124 71255 16/// /1608 11065 21083 60001 333 11012 21113 4/017 70000
AAXX 23124 71256 46/// /3102 11062 21081 39166 40109 55004 6///1 333 10021 21086 7////
AAXX 23124 71257 NIL
AAXX 23124 71258 NIL
AAXX 23124 71259 NIL
AAXX 23124 71261 16/// /3513 11040 21081 39968 40234 51030 60001 333 10044 21040 70015
AAXX 23124 71263 11460 83111 11005 21024 39916 40209 53032 60011 70282 865// 333 10059 21005 70012 909/5
AAXX 23124 71264 17/// /0506 11001 21003 30136 40168 58016 60011 7//4/ 333 10102 21001 70020
AAXX 23124 71265 15466 83215 11008 21038 30110 40205 53034 69931 333 10068 21008 70018
AAXX 23124 71266 NIL
AAXX 23124 71267 15966 32418 10006 21143 39099 40205 58005 60001 333 10027 21016 70000
AAXX 23124 71268 12974 00000 11170 21190 39849 40271 52012 60001 333 10014 21170 79999
AAXX 23124 71269 NIL
AAXX 23124 71270 NIL
AAXX 23124 71271 16/// ///// 11025 21090 60001 333 10018 21038 70000
AAXX 23124 71272 15266 81602 11235 21255 39808 40183 56005 60001 333 11255 21291 70000
AAXX 23124 71273 16/// /2005 11069 21078 39460 40126 56019 60001 333 10001 21111 55/// 20000 70000
AAXX 23124 71274 NIL
AAXX 23124 71275 NIL
AAXX 23124 71276 NIL
AAXX 23124 71277 NIL
AAXX 23124 71278 NIL
AAXX 23124 71279 16/// /3002 11218 21251 30152 40221 53026 60001 333 11011 21218 70000
AAXX 23124 71281 NIL
AAXX 23124 71282 46/// /3216 11044 21047 39935 40209 53032 6///1 333 10032 21044 7////
AAXX 23124 71283 NIL
AAXX 23124 71284 16/// ///// 11068 21102 60001 333 10015 21099 70000
AAXX 23124 71285 NIL
AAXX 23124 71286 NIL
AAXX 23124 71287 NIL
AAXX 23124 71288 NIL
AAXX 23124 71289 NIL
AAXX 23124 71290 15766 81514 11010 21066 39283 40118 55000 60001 333 11017 21054 70000
AAXX 23124 71291 NIL
AAXX 23124 71292 15966 03406 11104 21108 39550 40171 51013 60001 333 11037 21104 70000
AAXX 23124 71294 17/// /0206 11068 21085 39779 40188 53022 69991 7//4/ 333 10030 4/003 70025 555 10030
AAXX 23124 71295 NIL
AAXX 23124 71296 NIL
AAXX 23124 71297 16/// /3207 10003 21024 60001 333 10070 20003 70005
AAXX 23124 71298 16/// /3506 11025 21065 30007 40243 51024 60001 333 10058 21025 70000
AAXX 23124 71299 NIL
AAXX 23124 71150 NIL
AAXX 23124 71151 NIL
AAXX 23124 71152 16/// /3402 11013 21035 30154 40167 51016 60001 333 10066 21014 70077
AAXX 23124 71153 16/// /2610 10032 21177 60001 333 10026 21005 70000
AAXX 23124 71154 17/// /2226 11001 21165 60011 7//4/ 333 11004 21037 70096
AAXX 23124 71155 NIL
AAXX 23124 71156 NIL
AAXX 23124 71157 NIL
AAXX 23124 71158 NIL
AAXX 23124 71159 NIL
AAXX 23124 71160 NIL
AAXX 23124 71161 17/// /3309 11012 21023 30004 40154 53017 69971 7//4/ 333 10060 21012 70022
AAXX 23124 71162 NIL
AAXX 23124 71163 46/// /1209 11146 21158 39607 49953 56051 6///1 333 11171 21201 7////
AAXX 23124 71164 NIL
AAXX 23124 71165 NIL
AAXX 23124 71166 NIL
AAXX 23124 71167 15966 02404 11020 21109 39024 40123 51002 60001 333 10030 21084 70000
AAXX 23124 71168 NIL
AAXX 23124 71170 NIL
AAXX 23124 71171 16/// /3615 10013 21012 30096 40194 53032 60001 333 10072 20013 70003
AAXX 23124 71172 NIL
AAXX 23124 71175 16/// /3401 10009 21010 30144 40179 51002 60001 333 10093 20009 70000
AAXX 23124 71176 460// /2438 11182 39224 49919 50012 6///1 333 11171 21242 7////
AAXX 23124 71177 460// /2426 11268 38928 49966 51007 6///1 333 11182 21275 7////
AAXX 23124 71178 16/// /3022 11001 21028 30115 40147 53042 60001 333 10059 21002 55/// 20000 70043
AAXX 23124 71179 460// /2206 11247 39205 40058 51016 6///1 333 11114 21247 7////
AAXX 23124 71180 16/// /3113 10014 21028 30133 40173 50006 60001 333 10081 20001 70000
AAXX 23124 71181 16964 03005 11005 21033 30112 40149 51031 60001 333 10080 21005 70180
AAXX 23124 71183 17/// /0104 30107 53009 60021 7//4/ 333 70077
AAXX 23124 71184 46/// /0408 11009 21016 6///1 333 10035 21009 7////
AAXX 23124 71186 NIL
AAXX 23124 71187 17766 80602 11007 21017 30254 40303 51024 60001 771// 333 10014 21030 70000
AAXX 23124 71189 NIL
AAXX 23124 71190 NIL
AAXX 23124 71191 17/// ///// 10000 21005 60011 7//4/ 333 10054 21014 4/002 70014
AAXX 23124 71192 15966 81409 11013 21092 39529 40198 51020 60001 333 10005 21014 70000
AAXX 23124 71193 16/// /1901 11250 21272 39889 40277 53006 60001 333 11041 21283 4/031 70000
AAXX 23124 71196 17/// /3311 11105 21127 30006 40210 53024 69961 7//4/ 333 10005 21105 4/004 70028 555 10020
AAXX 23124 71197 16964 03105 10002 21038 30122 40172 50007 60001 333 10069 21003 70015
AAXX 23124 71198 46/// /3615 11021 21042 6///1 333 10023 21021 7////
AAXX 23124 71199 46/// /1203 11042 21077 39111 49932 58002 6///1 333 11007 21042 4/028 7//// 555 10020
AAXX 23124 71851 NIL
AAXX 23124 71857 NIL
AAXX 23124 71860 12774 12613 10016 21132 38756 40157 58019 60002 81570 333 10031 21058 70000 555 10000 20000
AAXX 23124 71876 15966 01604 11101 21109 39495 40172 58009 60001 333 10008 21110 70000
AAXX 23124 71885 NIL
AAXX 23124 71886 NIL
AAXX 23124 71888 NIL
AAXX 23124 71890 16/// /0511 11133 21192 30180 40208 50006 60001 333 10000 21134 4/013 7////
AAXX 23124 71895 NIL
AAXX 23124 60020 12570 20908 10203 20144 30246 40291 51007 60001 82500 333 92438
AAXX 23124 60030 02580 20213 10201 20118 30221 40277 50007 60001 82500 333 60007 92428
AAXX 23124 60040 02575 10412 10212 20120 30262 40286 50004 60001 81800 333 60007 92428
AAXX 23124 60338 12970 00000 10180 20118 30210 40275 58001 60001 333 92427
AAXX 23124 71043 11540 83008 11197 21244 39870 49965 58001 60031 77177 885// 333 11142 21198 48027 70036 90983 93103
AAXX 23124 71045 16/// /1004 10002 21047 39060 49898 53010 60001 333 10019 21006 4/033 70013
AAXX 23124 71050 46/// /2901 11167 21185 39100 40213 51022 6///1 333 11039 21167 7////
AAXX 23124 71051 NIL
AAXX 23124 71052 NIL
AAXX 23124 71066 12974 10000 11136 21166 39566 49989 58034 60001 81070 333 11006 21141 44017 70000
AAXX 23124 71068 12974 02312 11014 21071 39366 40057 58014 60001 333 10023 21060 42002 70000
AAXX 23124 71069 16964 01502 11048 21059 39379 40087 58007 60001 333 10014 21075 70000
AAXX 23124 71076 16/// /0803 11154 21169 39682 40085 56029 60001 333 11132 21170 4/031 55/// 20000 70000
AAXX 23124 71077 16/// /1704 11141 21154 39582 40136 58019 60001 333 11037 21158 4/014 55/// 20000 70006
AAXX 23124 71079 11274 80402 11252 21292 39907 40205 53007 69901 77177 88500 333 11219 21282 48009 70004 90983
AAXX 23124 71081 46964 03214 11301 21345 30026 40039 51005 6///1 333 11302 21313 7////
AAXX 23124 71082 NIL
AAXX 23124 71083 11974 02405 11313 21350 30102 40147 57014 69901 77677 333 11300 21326 48054 79999 90983
AAXX 23124 71090 46264 83505 11224 21256 39974 40009 5/001 6///1 333 7////
AAXX 23124 71091 460// /0311 11196 39783 49994 50010 6///1 333 7////
AAXX 23124 71092 46964 00715 11181 39308 49977 51007 6///1 333 11174 21181 7////
AAXX 23124 71093 460// /0106 11203 39485 49987 53010 6///1 333 11174 21206 7////
AAXX 23124 71094 46002 /0124 11170 38990 49885 51009 6///1 333 11159 21170 7////
AAXX 23124 71095 46964 01404 11301 21341 39934 40017 58002 6///1 333 11240 21325 7////
AAXX 23124 71101 160// /2212 30127 51063 60011 333 70020
AAXX 23124 71104 12674 11313 11032 21117 39080 40206 51015 60001 81500 333 11014 21039 44029 70000
AAXX 23124 71108 11574 83603 10010 21001 30233 40307 51022 69941 72582 8657/ 333 10038 21030 70004 90931
AAXX 23124 71109 11474 81305 10048 20029 30224 40251 51038 60051 78082 888// 333 10062 20041 70062 90927
AAXX 23124 60710 11560 72912 10157 20113 30159 40238 51010 69921 70262 878// 333 50301 84820 84630
AAXX 23124 60714 12570 43512 1//// 2//// 30235 40241 58003 60001 84800 333 50301 83820
AAXX 23124 60720 12560 33212 10166 20088 30175 40208 56005 60001 83200 333 50241 83820
AAXX 23124 60728 11562 33217 10159 20121 30120 40213 58005 60001 83800 333 5//// 82823
AAXX 23124 60729 12565 63414 10149 20128 30048 40234 58003 60001 86800 333 50171 82820 85626
AAXX 23124 60731 05560 13318 10167 20084 30207 40214 56007 60001 333 58043 60007 81/31 91028 91130
AAXX 23124 60732 12560 53208 10134 20095 39633 40240 50005 60001 85800 333 50181 83820 83626
AAXX 23124 60734 12560 73210 10133 20112 39709 40230 58003 60001 8688/ 333 50081 83823 84630
AAXX 23124 60738 12456 70121 10086 20082 38986 40237 56003 60001 872// 333 50241 82710 86823
AAXX 23124 60739 12660 33216 10130 20077 39412 40230 50001 60001 83242 333 50401 83833 94239
AAXX 23124 60740 12560 43415 10168 20074 30215 40217 50004 60001 84200 333 50421 84820
AAXX 23124 60742 NIL
AAXX 23124 60764 12562 22502 10195 20075 30177 40228 58010 60001 82200 333 50461 82830
AAXX 23124 60770 12575 73608 10164 20107 30084 40222 58015 60001 8688/ 333 50121 83826 84630
AAXX 23124 60772 12565 72812 10156 20093 39970 40225 56007 60001 875// 333 5///1 87630
AAXX 23124 60775 12565 63506 10157 20053 39875 40229 50001 60001 86800 333 5///1 83826 84630
AAXX 23124 60780 12960 13502 10182 20079 39940 40243 57006 60001 80002 333 5///1 81070
AAXX 23121 10616 01045 82503 10062 20057 39625 40230 58017 69931 75065 888// 333 31/// 55300 69917 81701 83802 87604 96010 96458
AAXX 23121 63330 42580 11505 10240 20037 37785 40251 81100 333 59009 81820
AAXX 23121 63331 42580 12703 10270 20048 38038 40213 81100 333 59006 81825
AAXX 23121 63332 42580 33602 10252 20082 38220 40074 83100 333 58002 83825
AAXX 23121 63333 42580 11502 10262 20075 38150 40091 81100 333 59001 81825
AAXX 23121 63334 41570 62402 10230 20042 37626 40042 70521 85806 58000 85828 84270
AAXX 23121 63340 42580 30902 10254 20098 37940 40161 83200 333 59010 83826
AAXX 23121 63402
AAXX 23121 63403 41560 50103 10240 20131 70522 82530 333 82624 84360
AAXX 23121 63450
AAXX 23121 63451 42580 10000 10270 20038 38123 40016 81100 333 59007 81826
AAXX 23121 63453 41975 02302 10320 2//// 39056 70500 333 59010
AAXX 23121 63460 42580 20401 10278 20108 82200 333 82825
AAXX 23121 63471 42580 10302 10290 20093 38851 40083 81101 333 59010 81827
AAXX 23121 63474 42580 20904 10228 20008 82100 333 82823
AAXX 23121 63478 41970 00904 10342 20219 39777 40155 70500 333 58006
AAXX 23121 63500 41570 20602 10296 20138 70500 82100 333 82825
AAXX 23121 63533
AAXX 23121 12105 11225 81604 10031 20028 30115 40158 58021 69911 75152 886// 333 88703 93091
AAXX 23121 12195 11321 81801 11035 21036 39975 40213 57018 69901 77772 886// 333 93097
AAXX 23121 12235 11/08 91802 10001 20001 39962 40178 57016 69911 74375 333 93091
AAXX 23121 12270 11327 81803 11011 21012 30017 40206 58020 60001 71042 886// 333 93000
AAXX 23121 12280 11326 82003 11021 21027 30043 40206 57017 60001 71022 886// 333 93000
AAXX 23121 12300 11/01 92302 10062 20062 30085 40175 57018 69981 75554 333 93001
AAXX 23121 12400 11/01 92202 10059 20058 39950 40187 58015 69931 75154 333 93093
AAXX 23121 12435 11316 81603 11002 21010 30025 40202 57020 69901 75164 886// 333 93097
AAXX 23121 12495 11659 81602 11022 21045 39932 40237 57015 60001 71022 885// 333 93000
AAXX 23121 12530 11520 81802 11007 21011 30011 40218 58016 69901 72311 885// 333 93097
AAXX 23121 12570 11440 31703 10008 21011 39898 40225 57017 69901 71071 81138 333 93097
AAXX 23121 12580 11656 71703 10005 21031 39970 40238 57019 60001 71022 8553/ 333 93000
AAXX 23121 12160 11328 81604 11002 21010 30131 40185 57021 69901 77122 8672/ 333 93097
AAXX 23121 12205 11230 82305 10070 20070 30155 40163 56017 60011 76154 8772/ 333 93001
AAXX 23121 12465 11540 81702 10007 21014 39970 40210 58018 60001 71011 885// 333 93000
AAXX 23121 12566 11457 52601 10011 21027 39923 40226 58019 60001 71041 85500 333 93000
AAXX 23121 12120 11356 81904 10020 20016 30150 40157 57020 69911 71065 886// 333 93091
AAXX 23121 12250 11324 81602 10007 20001 30101 40192 57020 69911 76176 8772/ 333 87708 93091
AAXX 23121 12295 11332 81902 11025 21025 30030 40222 56017 69901 77722 886// 333 93097
AAXX 23121 12330 11/04 92002 10019 20019 30078 40189 58017 69921 75154 333 93092
AAXX 23121 12375 11540 61602 10006 21012 30081 40216 57020 60001 71022 86500 333 93000
AAXX 23121 12424 11225 82002 10037 20036 30048 40203 57016 69971 72065 876// 333 81705 87707 93001
AAXX 23121 15501 12670 22702 10039 21014 30192 40237 58013 60001 82100 333 10039 20003 555 568//
AAXX 23121 15505 11659 62701 10002 21021 39855 40241 57011 69921 71074 86500 333 10007 21020 43013 555 585//
AAXX 23121 15511 11550 31801 10020 20004 30205 40246 58014 60001 71011 83500 333 10022 21003 45998 555 589//
AAXX 23121 15514 11558 60000 10010 21005 30197 40234 57008 60001 71042 86500 333 10014 20004 43001 555 589//
AAXX 23121 15530 11957 83202 10003 21014 39996 40243 58012 60001 71022 8802/ 333 10008 21008 47017 555 589//
AAXX 23121 15533 12966 82301 10016 21004 30185 40218 58006 60001 8802/ 333 10018 20001 43005 555 587//
AAXX 23121 15550 12670 80207 10010 21007 30207 40227 58006 60001 8552/ 333 10012 20002 42001 555 588//
AAXX 23121 15561 11468 83416 10020 21011 30179 40187 58002 60011 70276 885// 222// 00080 2//03 333 10022 20002 41/// 91116 555 58000 69399 71248 81280 92047 92447
AAXX 23121 15562 11962 80712 10000 21012 30114 40189 52002 69961 77177 8802/ 333 10008 21002 91120 555 59200 69999 92038 92437
AAXX 23121 15600 11/00 93610 11100 21112 38264 48476 58005 60001 74943 333 11100 21115 49013 92982 555 591// 92712
AAXX 23121 15601 12682 83203 10010 21043 39570 40205 58007 60001 885// 333 10014 21004 47007 555 564//
AAXX 23121 15605 12674 72703 11017 21033 39355 40227 58004 60001 86530 333 11013 21032 48009 555 588//
AAXX 23121 15613 11/01 90710 11098 21110 37650 47978 57006 60001 74144 333 11096 21114 48045 555 592//
AAXX 23121 15628 12675 80000 10024 21035 39942 40206 58010 60001 885// 333 10024 20006 43012 555 565//
AAXX 23121 15642 11580 83618 10018 21023 30015 40188 58006 69911 70272 885// 333 10020 20004 91118 555 575//
AAXX 23121 15661 11565 83412 10028 20012 30141 40177 54000 60071 70266 8802/ 333 10060 20025 555 58900 69999 71243
AAXX 23121 15726 11/03 93405 11076 21081 38199 48470 58002 69931 74374 333 11070 21076 48045 555 59600 69272 71247
AAXX 23124 71816 12574 12507 11202 21254 30112 40176 51034 60001 81100 333 11062 21203 47049 55021 70002
AAXX 23124 71817 12974 13117 11133 21185 30109 40123 52011 60001 81040 333 42012 70000
AAXX 23124 71818 12574 22717 11151 21186 30101 40120 52015 60001 82500 333 11053 21153 43017 79999
AAXX 23124 71822 NIL
AAXX 23124 71825 12974 02705 11279 21326 39491 40203 50011 60001 333 11071 21284 47086 79999
AAXX 23124 71827 11474 12202 11290 21333 39992 40255 52012 69901 77671 81600 333 11194 21293 47020 79999 90917
AAXX 23124 71828 16958 02911 11270 21319 39485 40159 50003 60001 333 11120 21274 70000
AAXX 23124 71831 11974 00000 11271 21323 39980 40282 53007 69901 70170 333 11121 21277 48039 79999 90952
AAXX 23124 71832 NIL
AAXX 23124 71834 11574 80000 11205 21244 39801 40256 57014 69901 77111 885// 333 11130 21258 48026 79999 90931
AAXX 23124 71841 NIL
AAXX 23124 71842 11440 81205 11105 21120 39681 40165 57026 69941 77177 885// 333 11107 21114 47011 70006 90983
AAXX 23124 71844 NIL
AAXX 23124 71845 11569 81405 11157 21184 39716 40215 56015 69902 771// 885// 333 11152 21227 44018 79999 90999 555 10000 20000
AAXX 23124 71850 11/12 91506 11068 21079 39611 40120 56020 60031 77177 333 11073 21082 48010 70034 90983 93105
AAXX 23124 71852 16964 33110 11077 21093 39820 40119 53011 60001 333 11039 21081 70000
AAXX 23124 71854 11328 81111 11094 21114 39659 40145 56012 60022 771// 8372/ 333 11104 21115 48016 70016 90999 555 19999 29999
AAXX 23124 71858 16/// /0105 11104 21117 39876 40164 53032 60001 333 11068 21104 70020
AAXX 23124 71861 16/// /2805 11095 21108 39430 40169 51009 60001 333 11028 21110 4/001 70000
AAXX 23124 71862 12974 33013 11056 21086 39473 40187 53014 60001 82071 333 11016 21057 41002 70000
AAXX 23124 71863 46964 32907 11106 21133 39475 40190 51010 6///1 333 11024 21113 7////
AAXX 23124 71930 NIL
AAXX 23124 71931 NIL
AAXX 23124 71934 12874 21205 11119 21142 39746 40008 57056 60001 82070 333 11139 21200 47021 70000
AAXX 23124 71935 12974 21507 11072 21100 39736 49945 57054 60001 82070 333 11105 21192 44012 70000
AAXX 23124 71936 11774 70912 11151 21168 39716 49980 57063 69921 77177 83570 333 11172 21181 48021 70004 90983
AAXX 23124 71937 NIL
AAXX 23124 71938 11469 80505 11193 21230 30017 40047 58014 69901 77177 885// 333 11150 21198 48024 79999 90983
AAXX 23124 71940 12982 32525 11061 21092 39289 40100 50001 60001 80001 333 10023 21099 43001 70000
AAXX 23124 71943 12974 32220 11002 21069 39217 40049 57022 60001 80001 333 10010 21021 44003 70000
AAXX 23124 71944 160// ///// 11009 50001 60001 333 11019 21058 70000
AAXX 23124 71945 12874 82206 10002 21084 39480 49946 56008 60001 8807/ 333 11031 21095 43010 79999
AAXX 23124 71946 11674 21407 11105 21118 39700 49914 57035 69901 70171 82500 333 11113 21147 48034 79999 90931
AAXX 23124 71948 46064 /0405 11255 39945 40062 56006 6///1 333 11185 21257 7////
AAXX 23124 71949 46/// /1411 11014 21043 38998 49845 56004 6///1 333 11012 21039 7////
AAXX 23124 71951 NIL
AAXX 23124 71957 47448 83608 11238 21311 39964 40055 56001 6///1 745// 333 11204 21238 7////
AAXX 23124 71964 11480 61415 11002 21027 39024 49856 52008 69901 70172 84531 333 10010 21003 47020 79999
AAXX 23124 71966 17/// /0000 11109 21122 39393 49851 58004 60011 7//4/ 333 11131 21160 4/038 70094 555 10080
AAXX 23124 71968 460// /3305 11256 30009 40076 58002 6///1 333 11216 21265 7////
AAXX 23124 71726 NIL
AAXX 23124 71727 11532 82806 11129 21154 30005 40208 50001 69901 78522 885// 333 10001 21131 48025 70008 90952
AAXX 23124 71728 11562 83408 11138 21185 39993 40221 52005 69901 77177 885// 333 10010 21138 46001 70010 90983
AAXX 23124 71730 11474 60115 11177 21191 39819 40264 53015 69901 70177 86500 333 11010 21177 41997 79999 90962
AAXX 23124 71731 11574 10308 11176 21212 39774 40244 53022 69901 72277 81501 333 11009 21176 41997 79999 90973
AAXX 23124 71735 NIL
AAXX 23124 71738 11474 80503 11160 21160 39901 40273 55001 69901 7717/ 885// 333 11010 21180 47024 79999 90999 555 19999 29999
AAXX 23124 71739 41574 80000 11236 21278 39889 40276 53006 6//// 77111 885// 333 11221 21265 4//// 7//// 90931
AAXX 23124 71749 16461 80709 11085 21101 39972 40227 56027 60001 333 11046 21179 70000
AAXX 23124 71799 11569 83102 10019 20016 30275 40300 51024 69941 76162 885// 333 10052 21028 55047 70004 90916
AAXX 23124 71800 16/// /2808 10015 20013 30127 40160 51032 60001 333 10070 20005 70146
AAXX 23124 71801 11474 73113 10001 21016 39982 40156 53034 69901 70252 87500 333 10071 20001 41997 70082 90920
AAXX 23124 71803 12480 22710 11026 21057 39956 40144 52025 60001 81501 333 10036 21028 42001 70040
AAXX 23124 71807 NIL
AAXX 23124 71808 12574 32911 11119 21171 30089 40137 51034 60001 83500 333 11010 21120 48022 79999
AAXX 23124 71809 11574 72307 11016 21042 30114 40142 50010 69901 78511 87500 333 10022 21024 45003 70010 90921
AAXX 23124 71810 16/// /0206 11128 21176 30123 40191 51022 60001 333 10001 21128 70000
AAXX 23124 71811 NIL
AAXX 23124 71813 16/// /3307 11151 21191 30171 40185 53038 60001 333 11023 21156 7////
AAXX 23124 71814 16/// /3404 11134 21169 30154 40164 53033 60001 333 11018 21134 70005
AAXX 23124 71815 12474 62808 11004 21037 30131 40162 53011 60001 86500 333 10061 21012 42004 70004
AAXX 23124 71397 11412 80000 10000 21007 30133 40168 57008 60011 78522 887// 333 10085 20000 43001 70024 90921 93101
AAXX 23124 71400 NIL
AAXX 23124 71403 46/// /0806 10007 21003 30152 40172 58010 6///1 333 10094 20007 7////
AAXX 23124 71411 16/// /0105 10021 20014 30152 40165 58012 60001 333 10113 21016 70000
AAXX 23124 71412 16/// /2303 10000 21013 30158 40168 55008 60001 333 10070 21001 70000
AAXX 23124 71421 NIL
AAXX 23124 71430 NIL
AAXX 23124 71431 16/// /3410 10013 21012 30078 40175 53026 60001 333 10054 20013 70012
AAXX 23124 71432 16/// /3223 10018 21009 30099 40197 53030 60001 333 10071 20018 70011
AAXX 23124 71433 NIL
AAXX 23124 71435 NIL
AAXX 23124 71441 46/// /3111 11054 21084 39809 40122 53013 6///1 333 11025 21058 7////
AAXX 23124 71443 16/// /2803 11065 21087 39740 40159 51015 60001 333 11034 21095 4/005 70000
AAXX 23124 71444 NIL
AAXX 23124 71447 16/// /2906 11087 21102 39610 40165 53008 60001 333 11015 21090 70000
AAXX 23124 71467 16/// /0000 11321 21353 39947 40068 58002 60001 333 11214 21337 4/003 70000 555 10010
AAXX 23124 71472 NIL
AAXX 23124 71474 16964 01808 11066 21113 38976 40243 51014 60001 333 11043 21106 70000
AAXX 23124 71510 16/// /2310 11082 21106 39452 40172 58007 60001 333 11002 21105 70000
AAXX 23124 71538 11674 73409 11033 21087 30016 40251 52025 69901 70182 87500 333 10062 21033 70012 90951
AAXX 23124 71600 16461 80000 10042 20023 30185 40191 55004 60001 333 10111 20039 70120
AAXX 23124 71601 NIL
AAXX 23124 71114 160// /0602 11007 21025 30254 40303 51024 60001 333 10016 21031 70000
AAXX 23124 71120 12974 21705 11065 21087 39457 40121 58024 60001 82071 333 11003 21085 42002 70000
AAXX 23124 71122 46/// /2413 11105 21143 38581 40227 56030 6///1 333 21115 4/017 7////
AAXX 23124 71123 11974 62205 11063 21105 39239 40117 55027 60001 71411 85072 333 10001 21112 44007 70000
AAXX 23124 71125 13974 01404 11100 21108 39546 40141 58013 60002 333 40997 70000
AAXX 23124 71129 12974 01605 11088 21117 39325 40170 58022 60001 333 10022 21097 41997 70000
AAXX 23124 71131 16/// /2702 11115 21132 38920 40213 58008 60001 333 11069 21124 70000
AAXX 23124 71135 16/// /2910 11049 21101 39098 40204 51004 60001 333 11038 21068 4/008 70000
AAXX 23124 71137 16/// /2806 11069 21106 39242 40206 58002 60001 333 11029 21096 70000
AAXX 23124 71140 12974 03213 11093 21109 39642 40155 5/011 60001 333 11034 21093 43002 79999
AAXX 23124 71145 11974 00802 11173 21205 39879 40189 55000 69901 70277 333 11168 21237 48040 79999 90922
AAXX 23124 71148 16/// /3112 11074 21096 39558 40149 53015 60001 333 11030 21074 70000
AAXX 23124 71185 16464 33211 11036 30114 40138 51022 60001 333 10026 21037 70045
AAXX 23124 71188 12574 73304 11063 21127 30145 40188 52009 60007 87500 333 10012 21067 43011 55037 70000
AAXX 23124 71200 17/// /0806 10038 20025 69941 7//4/ 333 10060 20018 70004
AAXX 23124 71207 16/// /3501 11008 21021 30229 40295 53016 60001 333 10024 21021 70000
AAXX 23124 71260 13/// ///// 11119 21152 30023 40269 52008 69901 333 10025 21120 45997 79999
AAXX 23124 71864 NIL
AAXX 23124 71865 16/// /2606 11101 21116 39481 40176 51004 60001 333 11038 21108 70000
AAXX 23124 71866 46964 01905 11103 21122 39550 40178 58005 6///1 333 11012 21111 7////
AAXX 23124 71867 11474 80403 11128 21140 39829 40174 50015 69901 77122 885// 333 11084 21128 47021 70003 90921
AAXX 23124 71868 NIL
AAXX 23124 71869 12974 00000 11151 21153 39629 40167 58006 60001 333 11039 21151 70000
AAXX 23124 71871 15966 02111 11086 21107 39325 40144 57016 60001 333 10013 21094 70000
AAXX 23124 71877 12974 32904 10045 21144 38885 40154 57012 60001 80001 333 10048 21016 41997 70000
AAXX 23124 71878 12974 62710 11009 21078 39053 40135 56023 60001 86070 333 11018 21110 48013 70000
AAXX 23124 71879 16964 02106 11041 21102 39295 40103 55028 60001 333 10030 21057 70005
AAXX 23124 71880 12582 22307 11103 21128 39187 40334 57008 60001 82500 333 11032 21117 70000
AAXX 23124 71882 160// /1516 11022 21071 39758 40312 58009 60001 333 11001 21061 70000
AAXX 23124 71883 46/// /0000 11120 21130 39438 40292 51008 6///1 333 11028 21144 7////
AAXX 23124 71887 12986 61011 11007 21070 39845 40276 50006 60001 86070 333 10009 21023 70000
AAXX 23124 71889 12474 81610 10001 21060 39890 40319 53015 60001 885// 333 10000 21021 70000
AAXX 23124 71891 16964 30206 11024 21076 39974 40255 51022 60001 333 11001 21049 70000
AAXX 23124 71892 11569 70909 10033 20004 30298 40303 51025 69921 72052 84570 333 10050 20006 55049 70002 90931
AAXX 23124 71603 11/24 90905 10002 21002 30105 40159 55012 60041 78581 333 10106 21002 42997 70044 90942
AAXX 23124 71607 17/// /0000 11005 21006 30126 40159 58006 60031 7//4/ 333 10066 21029 4/003 70032 555 10020
AAXX 23124 71609 11324 80000 11005 21022 30030 40166 58002 60021 78522 885// 333 10088 21015 43001 70019 90921 93101
AAXX 23124 71610 17216 80000 11004 21005 39841 40139 56003 60031 77144 333 10013 21014 70031
AAXX 23124 71621 11474 83507 10010 21002 30069 40176 53044 60021 7007/ 885// 333 10060 20006 70020 90999
AAXX 23124 71623 NIL
AAXX 23124 71624 11469 83316 11019 21047 39996 40211 53037 69921 70286 885// 333 10059 21019 55021 70024 90952
AAXX 23124 71625 17464 83611 11103 21133 30050 40215 51024 60001 745// 333 10009 21104 70015
AAXX 23124 71627 11124 80104 10002 21014 30106 40151 53009 60031 77177 886// 333 10038 20001 43002 70042 90973 93102
AAXX 23124 71628 11460 83314 11040 21059 30028 40171 52022 60021 77177 88500 333 10039 21041 4-3003 70026 909/7
AAXX 23124 71630 NIL
AAXX 23124 71631 NIL
AAXX 23124 71633 11456 23205 11085 21108 39965 40243 52028 69941 77171 82700 333 10037 21086 47997 55000 70014 90936
AAXX 23124 71705 11/16 90000 11015 21019 30082 40171 55012 69921 77111 333 10051 21056 47997 70004 90910
AAXX 23124 71706 11462 82602 11008 21024 30116 40177 55008 69901 77122 885// 333 10059 21019 79999 90910
AAXX 23124 71707 11574 82003 11002 21024 30105 40182 55000 69901 70282 885// 333 10099 21010 79999 90950
AAXX 23124 71709 13580 80207 11004 21029 30157 40170 58003 60002 8257/ 333 10052 21010 41997 79999 555 10000 20000
AAXX 23124 71711 NIL
AAXX 23124 71714 17/// /0908 11023 21033 30079 40172 55000 69991 7//4/ 333 10008 21023 4/009 70009
AAXX 23124 71715 17/// /0213 11076 21091 39995 40180 53003 69951 7//4/ 333 11003 21076 70005
AAXX 23124 71718 11448 80112 11092 21119 30139 40206 52007 60001 78522 885// 333 10005 21092 47997 79999 90921
AAXX 23124 71719 16/// /0309 11017 21057 30168 40174 58005 60001 333 10018 21017 4/003 70000
AAXX 23124 71893 11480 61708 10049 20011 30249 40281 51026 69901 72582 82570 333 10058 20021 55035 79999 90925
AAXX 23124 71894 17/// /0807 10059 20059 30255 40264 51020 60031 7//4/ 333 10075 20040 70098
AAXX 23124 71896 15966 81918 11012 21093 39319 40160 51014 60001 333 10006 21066 70000
AAXX 23124 71897 11224 82325 10075 20055 3//// 4//// 52056 60081 75162 887XX 333 10078 20048 70078 90999
AAXX 23124 71898 160// ///// 10056 52090 60041 333 10072 20037 70120
AAXX 23124 71899 11466 72937 10059 20015 3//// 4//// 52080 60011 70282 88200 333 10077 20051 70106 90963
AAXX 23124 71902 12574 32820 11209 21306 30065 40074 58007 60002 83500 333 11119 21220 43020 70000 555 10000 20000
AAXX 23124 71905 NIL
AAXX 23124 71906 11974 42717 11189 21225 30040 40092 52028 69901 77177 84070 333 11172 21214 48015 79999 90983
AAXX 23124 71907 16459 32815 11212 21250 30104 40138 53009 60001 333 11183 21215 70005
AAXX 23124 71909 16019 63220 11203 21240 39914 49958 51021 60001 333 11120 21235 70000
AAXX 23124 71910 47658 82919 11197 21235 39947 40011 53008 6///1 745// 333 11169 21228 7////
AAXX 23124 71911 46964 01009 11344 30005 40065 56022 6///1 333 11318 21371 7////
AAXX 23124 71912 12974 01304 11354 21405 30020 40219 55003 60001 333 11244 21361 45016 70000
AAXX 23124 71915 11974 03419 11272 21317 39985 40070 53006 69901 77677 333 11211 21302 48042 55/// 79999 90983
AAXX 23124 71917 11874 20000 11342 21382 30004 40018 51007 69901 77677 82070 333 11279 21342 47015 55/// 10078 20000 70002 90993
AAXX 23124 71922 12274 81805 11102 21109 39683 40160 57005 60001 886// 333 11046 21183 70000
AAXX 23124 71924 11869 81206 11254 21294 39942 40034 57010 69901 77177 8803/ 333 11236 21294 48038 55/// 70002 90973
AAXX 23124 71925 11374 82703 11239 21280 39980 40022 55008 69901 77077 885// 333 11257 21293 42021 79999 90983
AAXX 23124 71926 12974 00000 11323 21380 30089 40115 55019 60001 333 11297 21359 44042 79999
AAXX 23124 71928 16/// /2616 10049 21112 38961 40128 56009 60001 333 10003 21137 4/009 70000
AAXX 23124 71893 11480 61708 10049 20011 30249 40281 51026 69901 72582 82570 333 10058 20021 55035 79999 90925
AAXX 23124 71894 17/// /0807 10059 20059 30255 40264 51020 60031 7//4/ 333 10075 20040 70098
AAXX 23124 71896 15966 81918 11012 21093 39319 40160 51014 60001 333 10006 21066 70000
AAXX 23124 71897 11224 82325 10075 20055 3//// 4//// 52056 60081 75162 887XX 333 10078 20048 70078 90999
AAXX 23124 71898 160// ///// 10056 52090 60041 333 10072 20037 70120
AAXX 23124 71899 11466 72937 10059 20015 3//// 4//// 52080 60011 70282 88200 333 10077 20051 70106 90963
AAXX 23124 71902 12574 32820 11209 21306 30065 40074 58007 60002 83500 333 11119 21220 43020 70000 555 10000 20000
AAXX 23124 71905 NIL
AAXX 23124 71906 11974 42717 11189 21225 30040 40092 52028 69901 77177 84070 333 11172 21214 48015 79999 90983
AAXX 23124 71907 16459 32815 11212 21250 30104 40138 53009 60001 333 11183 21215 70005
AAXX 23124 71909 16019 63220 11203 21240 39914 49958 51021 60001 333 11120 21235 70000
AAXX 23124 71910 47658 82919 11197 21235 39947 40011 53008 6///1 745// 333 11169 21228 7////
AAXX 23124 71911 46964 01009 11344 30005 40065 56022 6///1 333 11318 21371 7////
AAXX 23124 71912 12974 01304 11354 21405 30020 40219 55003 60001 333 11244 21361 45016 70000
AAXX 23124 71915 11974 03419 11272 21317 39985 40070 53006 69901 77677 333 11211 21302 48042 55/// 79999 90983
AAXX 23124 71917 11874 20000 11342 21382 30004 40018 51007 69901 77677 82070 333 11279 21342 47015 55/// 10078 20000 70002 90993
AAXX 23124 71922 12274 81805 11102 21109 39683 40160 57005 60001 886// 333 11046 21183 70000
AAXX 23124 71924 11869 81206 11254 21294 39942 40034 57010 69901 77177 8803/ 333 11236 21294 48038 55/// 70002 90973
AAXX 23124 71925 11374 82703 11239 21280 39980 40022 55008 69901 77077 885// 333 11257 21293 42021 79999 90983
AAXX 23124 71926 12974 00000 11323 21380 30089 40115 55019 60001 333 11297 21359 44042 79999
AAXX 23124 71928 16/// /2616 10049 21112 38961 40128 56009 60001 333 10003 21137 4/009 70000
AAXX 23124 71350 16/// /2303 11010 21023 30102 40168 55009 60001 333 10055 21017 70000
AAXX 23124 71351 NIL
AAXX 23124 71352 16/// /3410 11036 21052 39746 40208 53028 60001 333 10033 21036 70008
AAXX 23124 71353 NIL
AAXX 23124 71354 NIL
AAXX 23124 71355 NIL
AAXX 23124 71356 16/// /1806 11318 21351 30048 40119 56020 60001 333 11301 21348 4/006 70000
AAXX 23124 71357 NIL
AAXX 23124 71358 16/// /3505 11222 21244 39972 40007 54000 60001 333 11180 21225 4/059 70000
AAXX 23124 71359 NIL
AAXX 23124 71360 NIL
AAXX 23124 71361 NIL
AAXX 23124 71362 NIL
AAXX 23124 71363 NIL
AAXX 23124 71364 NIL
AAXX 23124 71365 NIL
AAXX 23124 71368 15466 83312 11027 21040 39817 40213 53031 69931 333 10050 21027 70016
AAXX 23124 71369 15966 81503 11047 21065 39379 40088 58007 60001 333 10014 21071 70000
AAXX 23124 71370 46/// /3410 11054 21074 30018 40156 53008 6///1 333 10014 21054 7////
AAXX 23124 71371 17232 83606 10001 20001 30116 40150 53009 60031 7714/ 333 10038 21001 70035
AAXX 23124 71372 NIL
AAXX 23124 71373 17/// /0000 10000 21009 60031 7//4/ 333 10041 21007 70034
AAXX 23124 71374 NIL
AAXX 23124 71375 NIL
AAXX 23124 71376 16/// /2803 11036 21043 39868 40166 53013 60001 333 10004 21036 70000
AAXX 23124 71377 17/// /0000 10002 21002 30099 40148 53009 60011 7//4/ 333 10036 20001 4/001 70058 555 10010
AAXX 23124 71378 16/// /3512 11121 21169 39984 40198 53010 60001 333 10003 21121 4/003 70000
AAXX 23124 71379 16/// /3312 11164 21204 30037 40214 53008 60001 333 10001 21164 70000
AAXX 23124 71380 NIL
AAXX 23124 71381 NIL
AAXX 23124 71382 17/// /0303 11096 21107 39192 40144 58004 60021 7//4/ 333 11031 21100 70022
AAXX 23124 71383 NIL
AAXX 23124 71384 16/// /0716 11023 21046 30148 40156 55003 60001 333 10019 21023 70000
AAXX 23124 71385 NIL
AAXX 23124 71386 16/// /3506 11088 21132 39976 40186 51006 60001 333 11004 21088 70000
AAXX 23124 71387 NIL
AAXX 23124 71388 NIL
AAXX 23124 71389 NIL
AAXX 23124 71390 NIL
AAXX 23124 71391 17/// ///// 11061 21078 60011 7//4/ 333 10007 21061 70024
AAXX 23124 71392 17/// /0914 11028 21035 60011 7//4/ 333 10003 21028 70014
AAXX 23124 71393 NIL
AAXX 23124 71395 11/12 90904 11009 21014 39987 40167 56018 60021 77171 333 10100 21012 47002 70028 90921 93102
AAXX 23124 71398 15966 02303 11310 21339 30268 40280 53006 60001 333 11159 21314 70000
AAXX 23124 71399 NIL
AAXX 23124 71300 NIL
AAXX 23124 71301 16/// ///// 11282 21304 39848 40275 53009 60001 333 11013 21287 4/014 70009 555 10020
AAXX 23124 71302 16/// /1917 11010 21090 39330 40157 51014 60001 333 10010 21052 4/024 70000
AAXX 23124 71303 46/// ///// 11020 21063 6///1 333 10052 21020 7////
AAXX 23124 71305 15966 11208 11110 21121 39736 40033 58052 60001 333 11111 21197 70000
AAXX 23124 71306 17940 32919 11180 21205 30101 40134 53007 60001 771// 333 11153 21182 70000
AAXX 23124 71307 16/// /3109 11022 21046 39984 40239 53029 60001 333 10057 21022 4/001 70007
AAXX 23124 71308 16/// /2005 10003 21018 30097 40182 55006 60001 333 10098 21005 70000
AAXX 23124 71309 NIL
AAXX 23124 71310 16/// /2003 11011 21023 30133 40170 55008 60001 333 10060 21011 70000
AAXX 23124 71311 NIL
AAXX 23124 71312 16/// /1303 11124 21138 39706 40175 51011 60001 333 11048 21162 70000
AAXX 23124 71314 16/// /3112 11055 21075 39848 40206 53031 60001 333 10035 21055 70006
AAXX 23124 71315 16/// /3306 11036 21082 30125 40179 57002 60001 333 10007 21039 4/013 70000
AAXX 23124 71316 16/// /2001 11055 21078 39403 40091 58031 60001 333 10008 21083 70000
AAXX 23124 71317 NIL
AAXX 23124 71318 16/// /1710 11092 21126 39183 40144 58026 60001 333 10023 21119 4/005 70000
AAXX 23124 71319 17/// /0506 11081 21085 39269 40144 56005 60011 7//4/ 333 11025 21081 70011
AAXX 23124 71320 16/// /3114 11303 21332 30030 40030 51005 60001 333 11302 21312 4/062 70000
AAXX 23124 71321 16/// /3217 11202 21224 39931 49975 51021 60001 333 11120 21233 4/009 70000
AAXX 23124 71322 NIL
AAXX 23124 71323 17/// /1701 11011 21016 39850 40133 56009 60021 7//4/ 333 10008 21015 70050
AAXX 23124 71331 16/// /0801 11146 21169 60001 333 11117 21147 4/019 55/// 20000 70011 555 10010
AAXX 23124 71332 NIL
AAXX 23124 71334 46/// /1602 11238 21265 39834 40184 55006 6///1 333 11256 21301 7////
AAXX 23124 71335 46964 02740 11209 50006 6///1 333 11150 21222 7////
AAXX 23124 71336 46/// ///15 10006 21025 30110 40133 53039 6///1 333 10074 20005 7////
AAXX 23124 71337 46/// /2805 11048 21061 39880 40119 51021 6///1 333 10006 21049 7////
AAXX 23124 71338 46448 80511 11168 21196 39973 49980 52014 6///1 333 11141 21168 7////
AAXX 23124 71339 16964 03215 11138 21193 30113 40128 51040 60001 333 11009 21138 70000
AAXX 23124 71340 NIL
AAXX 23124 71341 NIL
AAXX 23124 71342 NIL
AAXX 23124 71343 NIL
AAXX 23124 71344 NIL
AAXX 23124 71345 NIL
AAXX 23124 71346 NIL
AAXX 23124 71347 NIL
AAXX 23124 71348 NIL
AAXX 23124 71349 NIL
AAXX 23124 71864 NIL
AAXX 23124 71865 16/// /2606 11101 21116 39481 40176 51004 60001 333 11038 21108 70000
AAXX 23124 71866 46964 01905 11103 21122 39550 40178 58005 6///1 333 11012 21111 7////
AAXX 23124 71867 11474 80403 11128 21140 39829 40174 50015 69901 77122 885// 333 11084 21128 47021 70003 90921
AAXX 23124 71868 NIL
AAXX 23124 71869 12974 00000 11151 21153 39629 40167 58006 60001 333 11039 21151 70000
AAXX 23124 71871 15966 02111 11086 21107 39325 40144 57016 60001 333 10013 21094 70000
AAXX 23124 71877 12974 32904 10045 21144 38885 40154 57012 60001 80001 333 10048 21016 41997 70000
AAXX 23124 71878 12974 62710 11009 21078 39053 40135 56023 60001 86070 333 11018 21110 48013 70000
AAXX 23124 71879 16964 02106 11041 21102 39295 40103 55028 60001 333 10030 21057 70005
AAXX 23124 71880 12582 22307 11103 21128 39187 40334 57008 60001 82500 333 11032 21117 70000
AAXX 23124 71882 160// /1516 11022 21071 39758 40312 58009 60001 333 11001 21061 70000
AAXX 23124 71883 46/// /0000 11120 21130 39438 40292 51008 6///1 333 11028 21144 7////
AAXX 23124 71887 12986 61011 11007 21070 39845 40276 50006 60001 86070 333 10009 21023 70000
AAXX 23124 71889 12474 81610 10001 21060 39890 40319 53015 60001 885// 333 10000 21021 70000
AAXX 23124 71891 16964 30206 11024 21076 39974 40255 51022 60001 333 11001 21049 70000
AAXX 23124 71892 11569 70909 10033 20004 30298 40303 51025 69921 72052 84570 333 10050 20006 55049 70002 90931
AAXX 23124 71603 11/24 90905 10002 21002 30105 40159 55012 60041 78581 333 10106 21002 42997 70044 90942
AAXX 23124 71607 17/// /0000 11005 21006 30126 40159 58006 60031 7//4/ 333 10066 21029 4/003 70032 555 10020
AAXX 23124 71609 11324 80000 11005 21022 30030 40166 58002 60021 78522 885// 333 10088 21015 43001 70019 90921 93101
AAXX 23124 71610 17216 80000 11004 21005 39841 40139 56003 60031 77144 333 10013 21014 70031
AAXX 23124 71621 11474 83507 10010 21002 30069 40176 53044 60021 7007/ 885// 333 10060 20006 70020 90999
AAXX 23124 71623 NIL
AAXX 23124 71624 11469 83316 11019 21047 39996 40211 53037 69921 70286 885// 333 10059 21019 55021 70024 90952
AAXX 23124 71625 17464 83611 11103 21133 30050 40215 51024 60001 745// 333 10009 21104 70015
AAXX 23124 71627 11124 80104 10002 21014 30106 40151 53009 60031 77177 886// 333 10038 20001 43002 70042 90973 93102
AAXX 23124 71628 11460 83314 11040 21059 30028 40171 52022 60021 77177 88500 333 10039 21041 4-3003 70026 909/7
AAXX 23124 71630 NIL
AAXX 23124 71631 NIL
AAXX 23124 71633 11456 23205 11085 21108 39965 40243 52028 69941 77171 82700 333 10037 21086 47997 55000 70014 90936
AAXX 23124 71705 11/16 90000 11015 21019 30082 40171 55012 69921 77111 333 10051 21056 47997 70004 90910
AAXX 23124 71706 11462 82602 11008 21024 30116 40177 55008 69901 77122 885// 333 10059 21019 79999 90910
AAXX 23124 71707 11574 82003 11002 21024 30105 40182 55000 69901 70282 885// 333 10099 21010 79999 90950
AAXX 23124 71709 13580 80207 11004 21029 30157 40170 58003 60002 8257/ 333 10052 21010 41997 79999 555 10000 20000
AAXX 23124 71711 NIL
AAXX 23124 71714 17/// /0908 11023 21033 30079 40172 55000 69991 7//4/ 333 10008 21023 4/009 70009
AAXX 23124 71715 17/// /0213 11076 21091 39995 40180 53003 69951 7//4/ 333 11003 21076 70005
AAXX 23124 71718 11448 80112 11092 21119 30139 40206 52007 60001 78522 885// 333 10005 21092 47997 79999 90921
AAXX 23124 71719 16/// /0309 11017 21057 30168 40174 58005 60001 333 10018 21017 4/003 70000
AAXX 23124 71604 16/// /0000 11029 21029 60001 333 10053 21031 4/027 70022
AAXX 23124 71605 16/// /2101 10043 21007 30139 40291 51017 60001 333 10073 20016 70000
AAXX 23124 71611 17/// /0000 10000 21005 60031 7//4/ 333 10020 21002 70030
AAXX 23124 71612 NIL
AAXX 23124 71614 NIL
AAXX 23124 71616 17/// /3403 11009 21009 30033 40155 55001 60011 7//4/ 333 10007 21013 70011
AAXX 23124 71617 16/// /2605 11132 21162 30042 40217 53001 60001 333 11002 21133 7////
AAXX 23124 71618 NIL
AAXX 23124 71619 16/// /3505 11037 21100 30112 40171 58005 60001 333 10005 21038 70000
AAXX 23124 71622 NIL
AAXX 23124 71632 46/// /1502 11225 21248 39713 40174 58004 6///1 333 11181 21287 4/016 7////
AAXX 23124 71634 16/// /0000 11047 21052 30022 40178 56008 60001 333 11002 21049 4/009 70013
AAXX 23124 71638 16/// /1407 10046 20000 30179 40286 51025 60001 333 10067 21001 70000
AAXX 23124 71639 11474 83315 11026 21067 39957 40202 53030 69921 70272 885// 333 10061 21026 41997 70016 90927
AAXX 23124 71642 11474 80000 11185 21212 39701 40278 53006 69901 7227/ 885// 333 11040 21210 48022 70004 90999
AAXX 23124 71900 46/// /23// 11206 21262 30081 40094 50000 6///1 333 11086 21207 7////
AAXX 23124 71903 NIL
AAXX 23124 71904 NIL
AAXX 23124 71914 16/// /2203 10031 20007 30077 40304 52024 60001 333 10026 21007 70000
AAXX 23124 71916 NIL
AAXX 23124 71918 460// ///// 11308 6///1 333 7////
AAXX 23124 71920 NIL
AAXX 23124 71921 NIL
AAXX 23124 71923 NIL
AAXX 23124 71927 17/// /0000 10003 21004 30243 40302 51024 69971 7//4/ 333 10072 21027 70007
AAXX 23124 71941 15966 03105 11240 21261 39824 40265 53011 60001 333 11025 21243 70000
AAXX 23124 71947 15966 03003 11300 21323 39902 40275 53009 60001 333 11080 21309 70000
AAXX 23124 71102 NIL
AAXX 23124 71105 NIL
AAXX 23124 71107 NIL
AAXX 23124 71110 NIL
AAXX 23124 71111 15666 62211 10048 20011 30127 40135 51072 69931 333 10089 20048 70137
AAXX 23124 71112 17/// ///// 69921 7//4/ 333 70002
AAXX 23124 71113 16/// /3002 10003 21009 30284 40308 51032 60001 333 10053 21009 70002
AAXX 23124 71115 16/// /1010 11066 21086 39715 40318 51011 60001 333 11030 21082 70000
AAXX 23124 71116 16/// /0906 11085 21114 39099 40218 58014 60001 333 10021 21087 70000
AAXX 23124 71118 16/// /1610 11058 21102 39294 40128 58027 60001 333 10006 21087 70006
AAXX 23124 71121 16964 02309 11039 21127 39272 40099 55030 60001 333 10016 21077 70000
AAXX 23124 71127 16/// /2511 11009 21081 39184 40094 56024 60001 333 10026 21048 4/013 70000
AAXX 23124 71130 15366 81103 11116 21128 39708 40177 51011 60001 333 11047 21156 70000
AAXX 23124 71132 17140 81703 11155 21171 39788 40112 58018 60001 710// 333 11154 21215 70000
AAXX 23124 71133 46/// /1704 11121 21139 39424 40143 58012 6///1 333 11025 21127 7////
AAXX 23124 71139 16/// /2805 11019 21110 38711 40184 56006 60001 333 11003 21048 70000
AAXX 23124 71141 NIL
AAXX 23124 71142 15966 02215 11070 21099 39199 40184 58012 60001 333 11009 21076 70000
AAXX 23124 71143 NIL
AAXX 23124 71144 NIL
AAXX 23124 71147 NIL
AAXX 23124 71149 NIL
AAXX 23124 71401 16/// /2902 11069 21095 39641 40351 53004 60001 333 11039 21076 4/005 70012
AAXX 23124 71402 NIL
AAXX 23124 71404 NIL
AAXX 23124 71405 NIL
AAXX 23124 71406 NIL
AAXX 23124 71407 NIL
AAXX 23124 71408 NIL
AAXX 23124 71409 NIL
AAXX 23124 71410 15566 83502 11160 21177 39883 40174 53015 60001 333 11123 21165
AAXX 23124 71413 NIL
AAXX 23124 71414 NIL
AAXX 23124 71415 16/// /2303 11001 21014 30166 40169 55009 60001 333 10091 21002 70000
AAXX 23124 71417 NIL
AAXX 23124 71418 NIL
AAXX 23124 71419 46/// /2206 10014 21010 30179 40189 55002 6///1 333 10101 20013 7////
AAXX 23124 71423 NIL
AAXX 23124 71424 46/// /0429 6///1 333 7////
AAXX 23124 71425 16/// /3310 11075 21135 30163 40200 51016 60001 333 10006 21077 70000
AAXX 23124 71426 NIL
AAXX 23124 71427 NIL
AAXX 23124 71428 16/// /0311 11090 21139 30201 40207 53017 60001 333 10004 21091 70000
AAXX 23124 71429 16/// /3612 11046 21101 30148 40168 50000 60001 333 10009 21046 70000
AAXX 23124 71434 NIL
AAXX 23124 71436 17440 83210 11004 21011 39949 40187 53025 60011 7714/ 333 10049 21004 70030
AAXX 23124 71437 46/// /3111 10009 21033 30109 40205 53034 6///1 333 10070 20009 7////
AAXX 23124 71438 NIL
AAXX 23124 71439 NIL
AAXX 23124 71440 NIL
AAXX 23124 71442 16/// /3209 11073 21081 39810 40130 53015 60001 333 11049 21098 70006
AAXX 23124 71445 NIL
AAXX 23124 71446 16/// /2408 11073 21109 39188 40186 58007 60001 333 11008 21083 70000
AAXX 23124 71448 17/// /3601 11056 21064 39773 40108 55003 60031 7//4/ 333 11053 21066 70030
AAXX 23124 71449 NIL
AAXX 23124 71150 NIL
AAXX 23124 71151 NIL
AAXX 23124 71152 16/// /3402 11013 21035 30154 40167 51016 60001 333 10066 21014 70077
AAXX 23124 71153 16/// /2610 10032 21177 60001 333 10026 21005 70000
AAXX 23124 71154 17/// /2226 11001 21165 60011 7//4/ 333 11004 21037 70096
AAXX 23124 71155 NIL
AAXX 23124 71156 NIL
AAXX 23124 71157 NIL
AAXX 23124 71158 NIL
AAXX 23124 71159 NIL
AAXX 23124 71160 NIL
AAXX 23124 71161 17/// /3309 11012 21023 30004 40154 53017 69971 7//4/ 333 10060 21012 70022
AAXX 23124 71162 NIL
AAXX 23124 71163 46/// /1209 11146 21158 39607 49953 56051 6///1 333 11171 21201 7////
AAXX 23124 71164 NIL
AAXX 23124 71165 NIL
AAXX 23124 71166 NIL
AAXX 23124 71167 15966 02404 11020 21109 39024 40123 51002 60001 333 10030 21084 70000
AAXX 23124 71168 NIL
AAXX 23124 71170 NIL
AAXX 23124 71171 16/// /3615 10013 21012 30096 40194 53032 60001 333 10072 20013 70003
AAXX 23124 71172 NIL
AAXX 23124 71175 16/// /3401 10009 21010 30144 40179 51002 60001 333 10093 20009 70000
AAXX 23124 71176 460// /2438 11182 39224 49919 50012 6///1 333 11171 21242 7////
AAXX 23124 71177 460// /2426 11268 38928 49966 51007 6///1 333 11182 21275 7////
AAXX 23124 71178 16/// /3022 11001 21028 30115 40147 53042 60001 333 10059 21002 55/// 20000 70043
AAXX 23124 71179 460// /2206 11247 39205 40058 51016 6///1 333 11114 21247 7////
AAXX 23124 71180 16/// /3113 10014 21028 30133 40173 50006 60001 333 10081 20001 70000
AAXX 23124 71181 16964 03005 11005 21033 30112 40149 51031 60001 333 10080 21005 70180
AAXX 23124 71183 17/// /0104 30107 53009 60021 7//4/ 333 70077
AAXX 23124 71184 46/// /0408 11009 21016 6///1 333 10035 21009 7////
AAXX 23124 71186 NIL
AAXX 23124 71187 17766 80602 11007 21017 30254 40303 51024 60001 771// 333 10014 21030 70000
AAXX 23124 71189 NIL
AAXX 23124 71190 NIL
AAXX 23124 71191 17/// ///// 10000 21005 60011 7//4/ 333 10054 21014 4/002 70014
AAXX 23124 71192 15966 81409 11013 21092 39529 40198 51020 60001 333 10005 21014 70000
AAXX 23124 71193 16/// /1901 11250 21272 39889 40277 53006 60001 333 11041 21283 4/031 70000
AAXX 23124 71196 17/// /3311 11105 21127 30006 40210 53024 69961 7//4/ 333 10005 21105 4/004 70028 555 10020
AAXX 23124 71197 16964 03105 10002 21038 30122 40172 50007 60001 333 10069 21003 70015
AAXX 23124 71198 46/// /3615 11021 21042 6///1 333 10023 21021 7////
AAXX 23124 71199 46/// /1203 11042 21077 39111 49932 58002 6///1 333 11007 21042 4/028 7//// 555 10020
AAXX 23124 71812 46964 02209 11320 21366 30151 40165 6///1 333 21324 7////
AAXX 23124 71819 15966 03110 11104 21148 30085 40127 51029 60001 333 10002 21112 70000
AAXX 23124 71820 17/// /3408 10004 20000 30047 40162 53015 60011 7//4/ 333 10061 20003 4/001 70024 555 10010
AAXX 23124 71823 16664 82304 11313 21333 39833 40242 53010 60001 333 11146 21326 70000
AAXX 23124 71824 46/// /0000 11325 21360 6///1 333 11035 21325 7////
AAXX 23124 71826 16/// /2605 11129 21155 39883 49925 51015 60001 333 11088 21136 4/013 70000
AAXX 23124 71829 16/// /3113 11155 21203 30039 40205 51007 60001 333 11004 21155 7////
AAXX 23124 71833 46/// /3307 11030 21046 6///1 333 10045 21030 7////
AAXX 23124 71835 16/// /1407 11156 21174 39705 40209 56015 60001 333 11152 21227 4/016 70000
AAXX 23124 71837 NIL
AAXX 23124 71839 NIL
AAXX 23124 71840 46/// /3113 11057 21088 6///1 333 11020 21071 7////
AAXX 23124 71846 16/// /0601 11332 21359 39916 40259 56008 60001 333 11192 21351 4/002 70000
AAXX 23124 71847 NIL
AAXX 23124 71848 NIL
AAXX 23124 71849 NIL
AAXX 23124 71250 16/// /2907 10005 21018 30014 40150 53037 60001 333 10065 20005 70131
AAXX 23124 71251 16/// /2620 10008 21106 39238 40172 58021 60001 333 10031 21048 70000
AAXX 23124 71252 NIL
AAXX 23124 71253 46/// /0000 11189 21203 6///1 333 11073 21189 4/016 7////
AAXX 23124 71254 16/// /1908 11047 21090 60001 333 10008 21100 4/005 70000
AAXX 23124 71255 16/// /1608 11065 21083 60001 333 11012 21113 4/017 70000
AAXX 23124 71256 46/// /3102 11062 21081 39166 40109 55004 6///1 333 10021 21086 7////
AAXX 23124 71257 NIL
AAXX 23124 71258 NIL
AAXX 23124 71259 NIL
AAXX 23124 71261 16/// /3513 11040 21081 39968 40234 51030 60001 333 10044 21040 70015
AAXX 23124 71263 11460 83111 11005 21024 39916 40209 53032 60011 70282 865// 333 10059 21005 70012 909/5
AAXX 23124 71264 17/// /0506 11001 21003 30136 40168 58016 60011 7//4/ 333 10102 21001 70020
AAXX 23124 71265 15466 83215 11008 21038 30110 40205 53034 69931 333 10068 21008 70018
AAXX 23124 71266 NIL
AAXX 23124 71267 15966 32418 10006 21143 39099 40205 58005 60001 333 10027 21016 70000
AAXX 23124 71268 12974 00000 11170 21190 39849 40271 52012 60001 333 10014 21170 79999
AAXX 23124 71269 NIL
AAXX 23124 71270 NIL
AAXX 23124 71271 16/// ///// 11025 21090 60001 333 10018 21038 70000
AAXX 23124 71272 15266 81602 11235 21255 39808 40183 56005 60001 333 11255 21291 70000
AAXX 23124 71273 16/// /2005 11069 21078 39460 40126 56019 60001 333 10001 21111 55/// 20000 70000
AAXX 23124 71274 NIL
AAXX 23124 71275 NIL
AAXX 23124 71276 NIL
AAXX 23124 71277 NIL
AAXX 23124 71278 NIL
AAXX 23124 71279 16/// /3002 11218 21251 30152 40221 53026 60001 333 11011 21218 70000
AAXX 23124 71281 NIL
AAXX 23124 71282 46/// /3216 11044 21047 39935 40209 53032 6///1 333 10032 21044 7////
AAXX 23124 71283 NIL
AAXX 23124 71284 16/// ///// 11068 21102 60001 333 10015 21099 70000
AAXX 23124 71285 NIL
AAXX 23124 71286 NIL
AAXX 23124 71287 NIL
AAXX 23124 71288 NIL
AAXX 23124 71289 NIL
AAXX 23124 71290 15766 81514 11010 21066 39283 40118 55000 60001 333 11017 21054 70000
AAXX 23124 71291 NIL
AAXX 23124 71292 15966 03406 11104 21108 39550 40171 51013 60001 333 11037 21104 70000
AAXX 23124 71294 17/// /0206 11068 21085 39779 40188 53022 69991 7//4/ 333 10030 4/003 70025 555 10030
AAXX 23124 71295 NIL
AAXX 23124 71296 NIL
AAXX 23124 71297 16/// /3207 10003 21024 60001 333 10070 20003 70005
AAXX 23124 71298 16/// /3506 11025 21065 30007 40243 51024 60001 333 10058 21025 70000
AAXX 23124 71299 NIL
AAXX 23124 71914 46/// /2203 10031 20007 30077 6///1 333 10026 21007 7////
AAXX 23124 71816 12574 12507 11202 21254 30112 40176 51034 60001 81100 333 11062 21203 47049 55021 70002
AAXX 23124 71817 12974 13117 11133 21185 30109 40123 52011 60001 81040 333 42012 70000
AAXX 23124 71818 12574 22717 11151 21186 30101 40120 52015 60001 82500 333 11053 21153 43017 79999
AAXX 23124 71822 NIL
AAXX 23124 71825 12974 02705 11279 21326 39491 40203 50011 60001 333 11071 21284 47086 79999
AAXX 23124 71827 11474 12202 11290 21333 39992 40255 52012 69901 77671 81600 333 11194 21293 47020 79999 90917
AAXX 23124 71828 16958 02911 11270 21319 39485 40159 50003 60001 333 11120 21274 70000
AAXX 23124 71831 11974 00000 11271 21323 39980 40282 53007 69901 70170 333 11121 21277 48039 79999 90952
AAXX 23124 71832 NIL
AAXX 23124 71834 11574 80000 11205 21244 39801 40256 57014 69901 77111 885// 333 11130 21258 48026 79999 90931
AAXX 23124 71841 NIL
AAXX 23124 71842 11440 81205 11105 21120 39681 40165 57026 69941 77177 885// 333 11107 21114 47011 70006 90983
AAXX 23124 71844 NIL
AAXX 23124 71845 11569 81405 11157 21184 39716 40215 56015 69902 771// 885// 333 11152 21227 44018 79999 90999 555 10000 20000
AAXX 23124 71850 11/12 91506 11068 21079 39611 40120 56020 60031 77177 333 11073 21082 48010 70034 90983 93105
AAXX 23124 71852 16964 33110 11077 21093 39820 40119 53011 60001 333 11039 21081 70000
AAXX 23124 71854 11328 81111 11094 21114 39659 40145 56012 60022 771// 8372/ 333 11104 21115 48016 70016 90999 555 19999 29999
AAXX 23124 71858 16/// /0105 11104 21117 39876 40164 53032 60001 333 11068 21104 70020
AAXX 23124 71861 16/// /2805 11095 21108 39430 40169 51009 60001 333 11028 21110 4/001 70000
AAXX 23124 71862 12974 33013 11056 21086 39473 40187 53014 60001 82071 333 11016 21057 41002 70000
AAXX 23124 71863 46964 32907 11106 21133 39475 40190 51010 6///1 333 11024 21113 7////
AAXX 23124 71201 16/// ///// 10045 20011 60001 333 10059 20023 70000
AAXX 23124 71202 16/// ///// 11051 21094 60001 333 10023 21092 70009
AAXX 23124 71203 15666 81906 11036 21065 39788 40325 53015 60001 333 11010 21099 70000
AAXX 23124 71209 46/// /1015 10040 6///1 333 10046 20029 7////
AAXX 23124 71211 46/// /0702 10049 20008 30282 40294 51018 6///1 333 10046 20031 7////
AAXX 23124 71212 17/// /0502 11059 21071 39324 40136 55004 60021 7//4/ 333 11014 21059 4/021 70021 555 10020
AAXX 23124 71213 46/// /3105 11232 21250 39958 40277 53010 6///1 333 11007 21232 7////
AAXX 23124 71214 NIL
AAXX 23124 71215 46/// /1705 11018 21060 39966 40321 51005 6///1 333 11005 21033 7////
AAXX 23124 71216 16/// /1405 11054 21089 39694 40333 53004 60001 333 11003 21077 4/003 70000 555 10010
AAXX 23124 71217 NIL
AAXX 23124 71218 16/// /0504 11024 21065 39859 40299 58003 60001 333 10007 21058 4/001 70000
AAXX 23124 71219 46/// /2520 10073 20031 30126 40132 53085 6///1 333 10071 20042 7////
AAXX 23124 71220 46/// /2507 10056 20029 6///1 333 10060 20033 7////
AAXX 23124 71221 NIL
AAXX 23124 71222 16/// /1907 10003 21053 39013 49960 53013 60001 333 10019 21048 4/033 70000
AAXX 23124 71223 NIL
AAXX 23124 71224 NIL
AAXX 23124 71225 NIL
AAXX 23124 71226 NIL
AAXX 23124 71227 NIL
AAXX 23124 71228 NIL
AAXX 23124 71229 NIL
AAXX 23124 71230 16/// /2509 11005 21088 39192 40082 50001 60001 333 10031 21056 70000
AAXX 23124 71231 16/// /2009 11035 21090 60001 333 10024 21056 70000
AAXX 23124 71232 16/// /2511 11021 21156 38644 40154 58023 60001 333 11004 21057 70000
AAXX 23124 71233 16/// /2604 10007 21119 60001 333 10024 21070 70000
AAXX 23124 71234 16/// /2906 10023 21165 38993 40186 56001 60001 333 10058 20008 70000
AAXX 23124 71235 16/// /2808 10026 21150 60001 333 10039 21012 70000
AAXX 23124 71236 46/// /3117 11037 21153 6///1 333 11021 21047 7////
AAXX 23124 71237 46/// /1608 11106 21123 39315 40145 58029 6///1 333 10002 21132 7////
AAXX 23124 71238 16/// /2502 11028 21089 60001 333 10010 21082 4/004 70000
AAXX 23124 71239 16/// /3106 11096 21114 39678 40152 53018 60001 333 11013 21096 4/002 70000
AAXX 23124 71240 16/// ///// 11071 21105 39304 40163 58019 60001 333 10020 21085 70000
AAXX 23124 71241 NIL
AAXX 23124 71242 16/// /2804 11051 21098 60001 333 11005 21096 4/007 70000
AAXX 23124 71243 NIL
AAXX 23124 71244 16/// /2619 10019 21136 38949 40186 57014 60001 333 10027 21042 4/002 70000
AAXX 23124 71245 46/// /2352 11054 21195 6///1 333 21098 7////
AAXX 23124 71246 NIL
AAXX 23124 71247 15966 02112 11027 21071 39315 40182 58020 60001 333 10011 21054 70000
AAXX 23124 71248 16/// /1002 11003 21131 38836 40144 55011 60001 333 10052 21107 4/017 70000
AAXX 23124 71249 NIL
AAXX 23124 71700 17316 80602 11008 21011 30138 40164 56010 69981 771// 333 10031 21011 70011
AAXX 23124 71701 NIL
AAXX 23124 71702 16/// /1602 11016 21025 30150 40165 56009 60001 333 10046 21030 4/001 70000
AAXX 23124 71703 11424 80602 11030 21034 39858 40159 56012 69923 7717/ 885// 333 11001 21043 42007 70002 90999 555 19999 29999
AAXX 23124 71704 15566 83315 11025 21051 30017 40242 52023 60001 333 10054 21025 70025
AAXX 23124 71710 NIL
AAXX 23124 71712 17/// /3302 10003 20000 30089 40150 53010 60021 7//4/ 333 10033 20002 70066
AAXX 23124 71713 17/// /0412 11050 21061 60011 7//4/ 333 10009 21050 70014
AAXX 23124 71716 NIL
AAXX 23124 71717 NIL
AAXX 23124 71720 16/// /1111 10047 20000 30124 40279 51017 60001 333 10044 20021 70000
AAXX 23124 71721 17/// /3405 11105 21121 39945 40197 53022 60011 7//4/ 333 10004 21105 70030
AAXX 23124 71723 17/// /3504 11019 21030 30143 40153 53004 60021 7//4/ 333 10009 21019 70073
AAXX 23124 71724 NIL
AAXX 23124 71732 16/// /3409 11166 21189 60001 333 10009 21168 70000
AAXX 23124 71733 16/// /3610 11178 21200 39811 40267 53014 60001 333 11011 21178 4/002 70000
AAXX 23124 71734 16/// /3504 11231 21262 39854 40269 52010 60001 333 11016 21241 70012
AAXX 23124 71736 NIL
AAXX 23124 71737 NIL
AAXX 23124 71741 16/// /0912 11009 21062 39842 40274 51006 60001 333 10001 21022 70000
AAXX 23124 71742 46/// /2708 11025 21043 39956 40144 51024 6///1 333 10037 21026 7////
AAXX 23124 71743 NIL
AAXX 23124 71744 NIL
AAXX 23124 71745 NIL
AAXX 23124 71746 NIL
AAXX 23124 71747 NIL
AAXX 23124 71748 NIL
AAXX 23124 71001 15461 83108 11106 21114 38871 49830 51008 60001 333 11091 21106 70005
AAXX 23124 71002 15966 02606 11246 21278 39612 40181 50012 60001 333 11079 21247 70000
AAXX 23124 71003 15666 82205 11269 21297 39832 40238 53010 60001 333 11135 21284 70000
AAXX 23124 71005 16/// ///// 11113 21137 60001 333 10011 21113 70000
AAXX 23124 71006 NIL
AAXX 23124 71007 NIL
AAXX 23124 71008 NIL
AAXX 23124 71009 NIL
AAXX 23124 71010 NIL
AAXX 23124 71011 NIL
AAXX 23124 71012 NIL
AAXX 23124 71013 NIL
AAXX 23124 71014 NIL
AAXX 23124 71015 NIL
AAXX 23124 71016 NIL
AAXX 23124 71017 NIL
AAXX 23124 71018 NIL
AAXX 23124 71019 NIL
AAXX 23124 71020 NIL
AAXX 23124 71021 NIL
AAXX 23124 71022 17556 82512 10050 20027 30090 40134 53088 60041 76144 333 10071 20036 70126
AAXX 23124 71023 16964 02406 11092 21100 39341 40121 58021 60001 333 11025 21096 70000
AAXX 23124 71024 16/// /0603 11092 21095 60001 333 11075 21132 4/013 70000
AAXX 23124 71026 NIL
AAXX 23124 71027 16/// /1401 11003 21014 30163 40173 51001 60001 333 10072 21008 70006
AAXX 23124 71028 16/// /2203 10010 21064 39134 40175 53023 60001 333 10067 21005 4/001 70000
AAXX 23124 71029 16/// /0306 11274 21302 39998 40039 58005 60001 333 11199 21274 4/029 70000
AAXX 23124 71030 17/08 /0904 10000 21002 30061 40152 58003 60031 7//4/ 333 10093 21033 4/001 70028 555 10010
AAXX 23124 71032 46/// /0000 11123 21135 39454 40325 53010 6///1 333 11056 21156 4/012 7//// 555 10010
AAXX 23124 71033 46/// /2104 11145 21157 39488 40134 55011 6///1 333 11098 21151 4/021 55/// 20000 7////
AAXX 23124 71035 NIL
AAXX 23124 71036 15566 82706 11070 21093 39773 40155 51016 60001 333 11021 21098 70000
AAXX 23124 71039 46/// /2402 11095 6///1 333 11092 21162 7////
AAXX 23124 71040 46/// /2704 11132 21168 39997 40202 56001 6///1 333 11002 21132 7////
AAXX 23124 71041 15566 82203 11005 21025 30036 40179 55005 60001 333 10094 21002 70005
AAXX 23124 71042 16/// /0501 10021 20011 30293 40297 51022 60001 333 10061 21025 70000
AAXX 23124 71044 16/// /0419 11227 21269 39680 40007 51004 60001 333 11189 21232 4/016 70000 555 10050
AAXX 23124 71046 460// /2609 11261 30068 40086 56002 6///1 333 11220 21313 7////
AAXX 23124 71047 16/// ///// 11046 21091 60001 333 10023 21068 70000
AAXX 23124 71048 NIL
AAXX 23124 71049 NIL
AAXX 23124 71060 NIL
AAXX 23124 71063 NIL
AAXX 23124 71930 NIL
AAXX 23124 71931 NIL
AAXX 23124 71934 12874 21205 11119 21142 39746 40008 57056 60001 82070 333 11139 21200 47021 70000
AAXX 23124 71935 12974 21507 11072 21100 39736 49945 57054 60001 82070 333 11105 21192 44012 70000
AAXX 23124 71936 11774 70912 11151 21168 39716 49980 57063 69921 77177 83570 333 11172 21181 48021 70004 90983
AAXX 23124 71937 NIL
AAXX 23124 71938 11469 80505 11193 21230 30017 40047 58014 69901 77177 885// 333 11150 21198 48024 79999 90983
AAXX 23124 71940 12982 32525 11061 21092 39289 40100 50001 60001 80001 333 10023 21099 43001 70000
AAXX 23124 71943 12974 32220 11002 21069 39217 40049 57022 60001 80001 333 10010 21021 44003 70000
AAXX 23124 71944 160// ///// 11009 50001 60001 333 11019 21058 70000
AAXX 23124 71945 12874 82206 10002 21084 39480 49946 56008 60001 8807/ 333 11031 21095 43010 79999
AAXX 23124 71946 11674 21407 11105 21118 39700 49914 57035 69901 70171 82500 333 11113 21147 48034 79999 90931
AAXX 23124 71948 46064 /0405 11255 39945 40062 56006 6///1 333 11185 21257 7////
AAXX 23124 71949 46/// /1411 11014 21043 38998 49845 56004 6///1 333 11012 21039 7////
AAXX 23124 71951 NIL
AAXX 23124 71957 47448 83608 11238 21311 39964 40055 56001 6///1 745// 333 11204 21238 7////
AAXX 23124 71964 11480 61415 11002 21027 39024 49856 52008 69901 70172 84531 333 10010 21003 47020 79999
AAXX 23124 71966 17/// /0000 11109 21122 39393 49851 58004 60011 7//4/ 333 11131 21160 4/038 70094 555 10080
AAXX 23124 71968 460// /3305 11256 30009 40076 58002 6///1 333 11216 21265 7////
AAXX 23124 71043 11540 83008 11197 21244 39870 49965 58001 60031 77177 885// 333 11142 21198 48027 70036 90983 93103
AAXX 23124 71045 16/// /1004 10002 21047 39060 49898 53010 60001 333 10019 21006 4/033 70013
AAXX 23124 71050 46/// /2901 11167 21185 39100 40213 51022 6///1 333 11039 21167 7////
AAXX 23124 71051 NIL
AAXX 23124 71052 NIL
AAXX 23124 71066 12974 10000 11136 21166 39566 49989 58034 60001 81070 333 11006 21141 44017 70000
AAXX 23124 71068 12974 02312 11014 21071 39366 40057 58014 60001 333 10023 21060 42002 70000
AAXX 23124 71069 16964 01502 11048 21059 39379 40087 58007 60001 333 10014 21075 70000
AAXX 23124 71076 16/// /0803 11154 21169 39682 40085 56029 60001 333 11132 21170 4/031 55/// 20000 70000
AAXX 23124 71077 16/// /1704 11141 21154 39582 40136 58019 60001 333 11037 21158 4/014 55/// 20000 70006
AAXX 23124 71079 11274 80402 11252 21292 39907 40205 53007 69901 77177 88500 333 11219 21282 48009 70004 90983
AAXX 23124 71081 46964 03214 11301 21345 30026 40039 51005 6///1 333 11302 21313 7////
AAXX 23124 71082 NIL
AAXX 23124 71083 11974 02405 11313 21350 30102 40147 57014 69901 77677 333 11300 21326 48054 79999 90983
AAXX 23124 71090 46264 83505 11224 21256 39974 40009 5/001 6///1 333 7////
AAXX 23124 71091 460// /0311 11196 39783 49994 50010 6///1 333 7////
AAXX 23124 71092 46964 00715 11181 39308 49977 51007 6///1 333 11174 21181 7////
AAXX 23124 71093 460// /0106 11203 39485 49987 53010 6///1 333 11174 21206 7////
AAXX 23124 71094 46002 /0124 11170 38990 49885 51009 6///1 333 11159 21170 7////
AAXX 23124 71095 46964 01404 11301 21341 39934 40017 58002 6///1 333 11240 21325 7////
AAXX 23124 71101 160// /2212 30127 51063 60011 333 70020
AAXX 23124 71104 12674 11313 11032 21117 39080 40206 51015 60001 81500 333 11014 21039 44029 70000
AAXX 23124 71108 11574 83603 10010 21001 30233 40307 51022 69941 72582 8657/ 333 10038 21030 70004 90931
AAXX 23124 71109 11474 81305 10048 20029 30224 40251 51038 60051 78082 888// 333 10062 20041 70062 90927
AAXX 23124 71051 NIL
AAXX 23124 71055 NIL
AAXX 23124 71057 NIL
AAXX 23124 71059 460// ///// 11232 39963 40056 56009 6///1 333 11132 21236 7////
AAXX 23124 71061 16/// /2304 11033 21083 39303 40089 56013 60001 333 10028 21076 4/005 70000
AAXX 23124 71062 46/// /2612 11003 21095 39023 40089 56008 6///1 333 10017 21053 4/014 7////
AAXX 23124 71064 460// /3219 11273 39803 40026 57003 6///1 333 11236 21274 7////
AAXX 23124 71065 NIL
AAXX 23124 71067 NIL
AAXX 23124 71070 NIL
AAXX 23124 71073 NIL
AAXX 23124 71074 NIL
AAXX 23124 71075 16/// /1808 11188 21209 39500 40127 56023 60001 333 11166 21208 4/053 70000
AAXX 23124 71078 NIL
AAXX 23124 71084 460// ///// 11230 39969 40018 57019 6///1 333 11292 21320 7////
AAXX 23124 71085 15966 12716 11019 21157 38818 40218 56008 60001 333 10003 21033 70000
AAXX 23124 71087 NIL
AAXX 23124 71088 460// /3217 11252 52006 6///1 333 11234 21275 7////
AAXX 23124 71089 NIL
AAXX 23124 71096 460// ///// 11188 39226 49964 51009 6///1 333 11172 21189 7////
AAXX 23124 71097 47464 80110 11154 39421 49896 50006 6///1 745// 333 11140 21161 7////
AAXX 23124 71098 43/// /1107 11158 21183 39809 40188 55004 6///1 333 11168 21255 7////
AAXX 23124 71099 43/// /2204 11349 21390 30228 40250 53007 6///1 333 11260 21350 7////
AAXX 23124 71550 NIL
AAXX 23124 71551 NIL
AAXX 23124 71552 46/// /0903 11054 21064 6///1 333 11035 21068 7////
AAXX 23124 71553 16/// /3107 11125 21136 60001 333 11055 21125 70000
AAXX 23124 71554 16/// /0210 11089 21116 30199 40205 52007 60001 333 10004 21090 70000
AAXX 23124 71555 16/// /2810 10011 21165 38608 40180 58005 60001 333 10034 21006 70000
AAXX 23124 71556 NIL
AAXX 23124 71557 46/// /0407 11033 21077 6///1 333 11023 21075 7////
AAXX 23124 71558 46/// ///// 11105 21147 30082 40120 51029 6///1 333 10003 21108 7////
AAXX 23124 71559 46/// /3010 11055 21082 39470 40183 53014 6///1 333 11016 21055 55/// 20000 7////
AAXX 23124 71560 16/// /3111 11056 21082 39814 40121 53010 60001 333 11034 21057 7////
AAXX 23124 71563 NIL
AAXX 23124 71564 NIL
AAXX 23124 71565 NIL
AAXX 23124 71566 NIL
AAXX 23124 71567 NIL
AAXX 23124 71568 16/// /1311 10048 20013 30264 40277 51036 60001 333 10051 20043 70000
AAXX 23124 71569 16/// /3007 11085 21104 39459 40174 51008 60001 333 11014 21085 70000
AAXX 23124 71570 17/// /1103 11055 21070 39801 40118 55002 60031 7//4/ 333 11050 21069 70032
AAXX 23124 71571 NIL
AAXX 23124 71572 NIL
AAXX 23124 71573 16/// /3310 11004 21036 39921 40207 53031 60001 333 10052 21004 70018
AAXX 23124 71574 12674 83304 11027 21070 30100 40174 55005 60001 885// 333 10011 21035 43020 70000
AAXX 23124 71575 16/// /3118 11196 21222 39938 40004 53008 60001 333 11168 21227 4/016 70000
AAXX 23124 71576 NIL
AAXX 23124 71577 46/// /3404 11064 21069 6///1 333 11047 21070 7////
AAXX 23124 71578 17/// /0818 11022 21039 60011 7//4/ 333 10011 21022 70012
AAXX 23124 71579 NIL
AAXX 23124 71580 11762 21507 11327 21383 30030 40068 58016 60001 77600 82500 333 11324 21349 44030 79999
AAXX 23124 71581 NIL
AAXX 23124 71582 17348 81808 10063 20057 30164 40217 53043 60161 76144 333 10090 20046 70171
AAXX 23124 71583 NIL
AAXX 23124 71584 15966 63105 11146 21188 30150 40199 53027 60001 333 21157 70000
AAXX 23124 71585 NIL
AAXX 23124 71586 16/// /1904 11104 21114 39681 40157 58003 60001 333 11047 21182 4/028 70000
AAXX 23124 71587 NIL
AAXX 23124 71588 16/// /3102 11020 21030 60001 333 10037 21020 70000
AAXX 23124 71589 16/// /2605 11029 21039 30011 40145 51035 60001 333 10050 21029 70052
AAXX 23124 71590 16/// /3401 11033 21045 39965 40159 56008 60001 333 10012 21060 4/011 70000
AAXX 23124 71592 NIL
AAXX 23124 71593 NIL
AAXX 23124 71596 NIL
AAXX 23124 71598 16/64 /3505 11011 21072 30169 40175 56004 60001 333 10006 21019 4/003 70005
AAXX 23124 71599 NIL
AAXX 23124 71950 17666 81608 10020 20005 39449 40077 53022 60001 761// 333 10015 21007 70000
AAXX 23124 71952 16/// /2902 11071 21074 39249 40109 53016 60001 333 11017 21101 4/036 70000
AAXX 23124 71954 NIL
AAXX 23124 71956 NIL
AAXX 23124 71959 NIL
AAXX 23124 71960 460// /0415 11271 39926 40063 58004 6///1 333 11200 21271 7////
AAXX 23124 71962 17/// /1707 11052 21065 39696 40125 56041 69981 7//4/ 333 11061 21070 4/004 70008 555 10010
AAXX 23124 71963 NIL
AAXX 23124 71967 17/// /3608 11007 21007 30051 40157 53003 60021 7//4/ 333 10015 21007 4/002 70021 555 10020
AAXX 23124 71970 NIL
AAXX 23124 71971 NIL
AAXX 23124 71972 460// /2917 11148 39447 49912 51007 6///1 333 11096 21169 7////
AAXX 23124 71973 46/// /2205 11019 21042 39963 40152 51011 6///1 333 10045 21024 7////
AAXX 23124 71974 NIL
AAXX 23124 71975 460// /0413 11143 39171 49895 53017 6///1 333 11143 21152 7////
AAXX 23124 71976 NIL
AAXX 23124 71977 NIL
AAXX 23124 71978 NIL
AAXX 23124 71979 NIL
AAXX 23124 71980 46/// /1501 11186 21207 6///1 333 11141 21189 4/028 7//// 555 10020
AAXX 23124 71981 NIL
AAXX 23124 71982 NIL
AAXX 23124 71983 NIL
AAXX 23124 71984 16/// /0511 11210 21231 30033 40041 58013 60001 333 11110 21216 70000
AAXX 23124 71985 NIL
AAXX 23124 71986 NIL
AAXX 23124 71987 16/// /3609 10007 21032 30153 40163 55011 60001 333 10023 20006 70000
AAXX 23124 71988 17/// /1108 10015 20013 30143 40163 58006 60071 7//4/ 333 10107 20012 70066
AAXX 23124 71989 NIL
AAXX 23124 71990 NIL
AAXX 23124 71999 46/// ///// 11034 6///1 333 10011 21060 7////
AAXX 23124 71500 NIL
AAXX 23124 71501 NIL
AAXX 23124 71502 NIL
AAXX 23124 71503 NIL
AAXX 23124 71504 NIL
AAXX 23124 71505 46/// /0709 11016 21033 39130 49837 53019 6///1 333 11027 21083 7////
AAXX 23124 71506 NIL
AAXX 23124 71507 16/// /1912 11010 21062 60001 333 11013 21096 70000
AAXX 23124 71508 16/// ///// 11007 21027 30069 40209 53035 60001 333 10069 21008 70014
AAXX 23124 71509 NIL
AAXX 23124 71511 16/// /2806 11093 21106 39529 40181 51003 60001 333 11019 21093 55/// 20000 70000
AAXX 23124 71512 16/// /3602 11167 21192 30194 40209 53031 60001 333 10000 21169 70000
AAXX 23124 71513 15966 03307 11154 21199 30175 40191 53039 60001 333 11023 21154 70000
AAXX 23124 71514 NIL
AAXX 23124 71515 16/// /3108 11099 21112 39462 40178 51009 60001 333 11030 21101 55/// 20000 70000
AAXX 23124 71516 16/// /2907 11068 21098 60001 333 11016 21077 70000
AAXX 23124 71517 NIL
AAXX 23124 71518 NIL
AAXX 23124 71519 NIL
AAXX 23124 71520 NIL
AAXX 23124 71521 NIL
AAXX 23124 71522 NIL
AAXX 23124 71523 NIL
AAXX 23124 71524 17/// /0203 11014 21016 30135 40161 53010 60021 7//4/ 333 10021 21015 4/001 70090 555 10010
AAXX 23124 71525 NIL
AAXX 23124 71526 NIL
AAXX 23124 71527 17428 81312 11077 21088 39622 40140 56034 60001 771// 333 11090 21096 70000
AAXX 23124 71528 NIL
AAXX 23124 71529 46/// /0906 11151 21171 39802 40034 58037 6///1 333 11147 21164 4/018 7////
AAXX 23124 71532 17448 83313 11084 21096 39862 40214 53031 60001 771// 333 10021 21084 70003
AAXX 23124 71534 17464 83111 11052 21069 39944 40221 53037 60011 74544 333 10049 21052 70025
AAXX 23124 71535 NIL
AAXX 23124 71536 NIL
AAXX 23124 71537 NIL
AAXX 23124 71539 NIL
AAXX 23124 71540 NIL
AAXX 23124 71541 NIL
AAXX 23124 71542 16/// /0307 11105 21119 60001 333 11018 21115 70000
AAXX 23124 71543 NIL
AAXX 23124 71544 NIL
AAXX 23124 71545 17/// ///// 11084 21103 69951 7//4/ 333 10007 21093 70016
AAXX 23124 71546 NIL
AAXX 23124 71547 NIL
AAXX 23124 71548 NIL
AAXX 23124 71549 NIL
AAXX 23124 71851 NIL
AAXX 23124 71857 NIL
AAXX 23124 71860 12774 12613 10016 21132 38756 40157 58019 60002 81570 333 10031 21058 70000 555 10000 20000
AAXX 23124 71876 15966 01604 11101 21109 39495 40172 58009 60001 333 10008 21110 70000
AAXX 23124 71885 NIL
AAXX 23124 71886 NIL
AAXX 23124 71888 NIL
AAXX 23124 71890 16/// /0511 11133 21192 30180 40208 50006 60001 333 10000 21134 4/013 7////
AAXX 23124 71895 NIL
AAXX 23124 71744 NIL
AAXX 23124 71750 16/// /0704 11133 21168 30001 40246 58015 60001 333 11064 21134 4/006 70000
AAXX 23124 71751 NIL
AAXX 23124 71752 NIL
AAXX 23124 71753 17/// /0000 11009 21012 30134 40163 56018 60011 7//4/ 333 10097 21026 70013
AAXX 23124 71754 16/// /1704 11114 21129 39491 40168 57010 60001 333 10007 21131 55/// 20000 70000
AAXX 23124 71755 43/// /0903 11201 21237 39848 40214 58003 6///1 333 11194 21326 7////
AAXX 23124 71756 16/// /0401 11021 21051 39159 40274 51014 60001 333 10006 21039 4/043 70000
AAXX 23124 71758 NIL
AAXX 23124 71760 NIL
AAXX 23124 71761 NIL
AAXX 23124 71762 NIL
AAXX 23124 71763 NIL
AAXX 23124 71765 16/// /0106 11025 21076 39972 40253 51022 60001 333 11002 21051 70000
AAXX 23124 71766 16/// /1106 10037 20009 30203 40276 51013 60001 333 10062 20000 70000
AAXX 23124 71767 16/// /0108 11099 21124 39987 40256 53023 60001 333 10033 21100 4/001 70033
AAXX 23124 71768 46/// /1505 11013 21062 39756 40319 51014 6///1 333 11001 21029 7////
AAXX 23124 71769 16/// /1225 10049 20022 30256 40272 51016 60001 333 10052 20044 70000
AAXX 23124 71770 NIL
AAXX 23124 71771 NIL
AAXX 23124 71772 16/// /1419 10057 20032 30277 40283 51024 60001 333 10058 20046 70000
AAXX 23124 71773 16/// /1709 11001 21015 39021 49853 53008 60001 333 10011 21002 4/024 70013
AAXX 23124 71774 46/// ///// 10010 6///1 333 10019 21003 7////
AAXX 23124 71775 46/// /0306 10020 20013 30303 40309 51022 6///1 333 10051 21019 7////
AAXX 23124 71776 46/// /1603 11076 21099 39683 40350 53002 6///1 333 11022 21078 7////
AAXX 23124 71777 16/// ///// 11050 21055 30026 40287 50009 60001 333 11064 21097 4/009 70000
AAXX 23124 71778 46/// /0213 6///1 333 7////
AAXX 23124 71779 16/// /1308 11014 21092 39526 40194 51020 60001 333 10006 21015 4/022 70000
AAXX 23124 71780 17/// /0805 10036 20017 30272 40300 51024 69941 7//4/ 333 10055 20031 70004
AAXX 23124 71781 46/// /1231 10054 20020 30233 40258 50004 6///1 333 10057 20050 7////
AAXX 23124 71782 46/// /1906 11075 21098 38929 40294 56026 6///1 333 11026 21145 7////
AAXX 23124 71783 17/// /0902 10039 20026 30219 40294 50026 69921 7//4/ 333 10053 20007 70004
AAXX 23124 71784 16/// /1003 10039 21003 30085 40293 51022 60001 333 10080 20010 70000
AAXX 23124 71785 NIL
AAXX 23124 71786 46/// /2726 11124 21139 38392 40285 55014 6///1 333 11105 21130 7////
AAXX 23124 71787 17/// /0903 11024 21024 39668 40161 55011 60011 7//4/ 333 10064 21025 4/003 70011 555 10020
AAXX 23124 71788 NIL
AAXX 23124 71789 NIL
AAXX 23124 71791 NIL
AAXX 23124 71792 NIL
AAXX 23124 71793 NIL
AAXX 23124 71794 NIL
AAXX 23124 71795 NIL
AAXX 23124 71796 NIL
AAXX 23124 71797 NIL
AAXX 23124 71450 16/// /2206 11061 21073 39455 40187 53004 60001 333 11008 21090 70000
AAXX 23124 71451 16/// /2201 11136 21152 39720 40160 58008 60001 333 11117 21146 4/022 70018 555 10020
AAXX 23124 71452 NIL
AAXX 23124 71453 16/// /2008 11080 21114 39266 40203 58013 60001 333 10002 21119 4/001 55/// 20000 70005 555 10010
AAXX 23124 71454 16/// /2002 11125 21143 39451 40157 58005 60001 333 11036 21125 55/// 20000 70000
AAXX 23124 71455 NIL
AAXX 23124 71456 NIL
AAXX 23124 71457 16/// /1804 11053 21086 39253 40154 58020 60001 333 10010 21104 4/010 70000
AAXX 23124 71458 16/// /1809 11070 21099 39329 40106 58036 60001 333 10003 21113 4/007 70005 555 10010
AAXX 23124 71459 NIL
AAXX 23124 71460 16/// /0208 11156 21200 30022 40274 53018 60001 333 10029 21156 70000
AAXX 23124 71461 NIL
AAXX 23124 71462 NIL
AAXX 23124 71463 46/// /3310 10015 21015 39973 40199 53025 6///1 333 10057 20014 7////
AAXX 23124 71464 NIL
AAXX 23124 71465 NIL
AAXX 23124 71466 NIL
AAXX 23124 71468 NIL
AAXX 23124 71470 NIL
AAXX 23124 71471 15966 12113 10025 21048 39280 40066 58008 60001 333 10020 21076 70000
AAXX 23124 71473 17/// /1613 10033 21004 30267 40298 51024 69921 7//4/ 333 10037 20010 70002
AAXX 23124 71475 16/// /2902 11001 21003 30188 40284 51015 60001 333 11004 21014 70000
AAXX 23124 71476 NIL
AAXX 23124 71477 NIL
AAXX 23124 71478 NIL
AAXX 23124 71479 NIL
AAXX 23124 71480 NIL
AAXX 23124 71481 NIL
AAXX 23124 71482 NIL
AAXX 23124 71483 NIL
AAXX 23124 71484 NIL
AAXX 23124 71485 17/// /1221 10060 20039 30219 40240 51036 60011 7//4/ 333 10065 20050 70016
AAXX 23124 71486 16/// /1806 11037 21094 38965 40180 57008 60001 333 11012 21107 4/016 70000
AAXX 23124 71487 NIL
AAXX 23124 71489 16/// /2106 11103 21119 39353 40171 58008 60001 333 10003 21123 70000
AAXX 23124 71490 NIL
AAXX 23124 71491 NIL
AAXX 23124 71492 NIL
AAXX 23124 71493 17/// /0803 11005 21008 30127 40166 56009 60021 7//4/ 333 10089 21029 4/001 70023 555 10010
AAXX 23124 71494 17/// /0000 11021 21022 39610 40135 56006 60021 7//4/ 333 10005 21024 4/003 70023 555 10030
AAXX 23124 71495 NIL
AAXX 23124 71496 16/// /2005 11103 21116 39546 40170 58006 60001 333 11013 21111 55/// 20000 70000
AAXX 23124 71497 46/// /2309 11075 21091 39657 49919 57027 6///1 333 10030 21080 7////
AAXX 23124 71498 NIL
AAXX 23124 71499 17266 82107 11135 21148 39488 40130 55011 60001 771// 333 11092 21141 70000
AAXX 23124 71665 16/// /2818 11211 21272 30058 40068 58008 60001 333 11113 21214 4/034 70000
AAXX 23124 71666 16/// /1602 11015 21020 30122 40167 55010 60001 333 10036 21029 4/001 70000
AAXX 23124 71667 NIL
AAXX 23124 71668 17/// /0802 11007 21014 30116 40160 56012 60011 7//4/ 333 10032 21010 70010
AAXX 23124 71669 NIL
AAXX 23124 71670 16/// ///// 11022 21025 60001 333 10008 21026 70003
AAXX 23124 71671 17/// /0000 11001 21001 30100 40161 56012 60031 7//4/ 333 10090 21001 4/001 70034 555 10020
AAXX 23124 71672 17/// /3204 11005 21018 39916 40183 53026 69941 7//4/ 333 10056 21005 4/001 70025 555 10010
AAXX 23124 71673 NIL
AAXX 23124 71674 NIL
AAXX 23124 71675 15966 01604 11296 21326 39940 40240 56004 60001 333 11212 21316 70000
AAXX 23124 71679 NIL
AAXX 23124 71680 NIL
AAXX 23124 71681 46/// /1202 11067 21094 6///1 333 10002 21083 7////
AAXX 23124 71682 NIL
AAXX 23124 71683 NIL
AAXX 23124 71684 15966 03006 11233 21254 39960 40280 53010 60001 333 11009 21234 70000
AAXX 23124 71685 15566 81617 11022 21057 39756 40310 58010 60001 333 11006 21054 70000
AAXX 23124 71686 469// /1907 10005 21051 39013 49946 53013 6///1 333 21040
AAXX 23124 71687 NIL
AAXX 23124 71688 16/// /2001 11031 21042 39219 40276 51016 60001 333 11003 21049 4/056 70000
AAXX 23124 71689 15966 81106 11089 21097 39615 40075 58035 60001 333 11020 21126 70000
AAXX 23124 71690 NIL
AAXX 23124 71691 15766 83612 11133 21181 30184 40212 51007 60001 333 10001 21133 70000
AAXX 23124 71692 NIL
AAXX 23124 71694 16/// /3505 11103 21128 39858 40230 53027 60001 333 10022 21103 4/002 70000
AAXX 23124 71695 16/// /0304 11126 21147 39825 40169 50014 60001 333 11082 21126 4/021 70000
AAXX 23124 71696 16/// /2005 11331 21364 30154 40194 58005 60001 333 11258 21331 70000
AAXX 23124 71697 15466 83315 11011 21032 30020 40193 53028 60001 333 10059 21011 70008
AAXX 23124 71699 17/// /0503 10001 21003 30154 40162 58003 69981 7//4/ 333 10089 21016 4/002 70008 555 10020
AAXX 23124 68040 42660 60303 10330 20165 48489 57024 86303
AAXX 23121 02019 07/65 /2703 11028 21029 39207 49821 58031 60011 77177 333 69915 90710 91110
AAXX 23121 02081 07/16 /1807 11020 21026 39476 49876 58030 69971 77171 333 69955 90710 91114
AAXX 23121 02095 07480 /1706 10006 21006 39719 49922 58037 69911 72471 333 69905 88/10 90710 91112
AAXX 23121 02101 47550 /1204 11025 21033 39337 49893 5//// 771// 8//// 333 83/21 86/29 87/39 88/57
AAXX 23121 02119 07628 /2201 11114 21125 39512 49903 58034 60041 77177 333 69985 88/34 90710 91102
AAXX 23121 02124 07520 /1804 11038 21046 39379 49903 56031 60021 77174 333 60015 89/26 90710 91107
AAXX 23121 02126 07434 /1201 11021 21025 39585 49922 56028 60031 77187 333 60015 88/14 90710 91106
AAXX 23121 02151 07458 91404 11025 21025 39568 49903 58038 69981 77177 333 69915 89/16 91006 90710 91106 90710 91205
AAXX 23121 02186 07358 81908 10017 20013 39913 49938 58044 69971 76786 333 69965 88/07 91011 90710 91112 90710 91209
AAXX 23121 02197 07/40 /1806 10009 20009 39947 49967 58045 69971 76187 333 69925 90710 91112
AAXX 23121 02207 07799 /1602 10016 21007 39226 49916 50004 69901 70060 333 60005 81/56 90710 91105
AAXX 23121 02219 07/65 /1501 11010 21011 39253 49916 58006 60031 77176 333 69925 90710 91104
AAXX 23121 02226 45984 /2004 10016 21001 39477 49927 55009 8////
AAXX 23121 02243 27/60 /1802 11003 21005 39667 49935 56032 764// 333 69915 90710 91104
AAXX 23121 02269 07350 /2014 10033 20030 69911 76161 333 69915 88/06 90710 91118
AAXX 23121 02287 07357 /2110 10033 20025 39952 49961 58039 60011 76186 333 60015 88/08 90710 91117
AAXX 23121 02297 07257 /1912 10029 20026 39901 49947 58045 60011 76186 333 69985 81/06 83/08 87/10 90710 91123
AAXX 23121 02308 07499 /1302 10007 21003 39093 49947 58010 69961 70074 333 60005 88/10 90710 91104
AAXX 23121 02327 07/99 /2402 10025 20018 39527 49959 56019 69901 70084 333 60005 90710 91107
AAXX 23121 02355 07145 /1907 10016 20015 39963 49976 58034 69921 71086 333 60005 87/02 88/07 90710 91113
AAXX 23121 02366 47062 /1605 10005 20004 39955 49961 56036 761// 8//// 333 88/01
AAXX 23121 02407 07328 /2005 10040 20036 39614 49978 56023 60001 71010 333 60005 88/07 90710 91112
AAXX 23121 02418 45273 /2005 10074 20069 39884 40013 57015 8//// 333 81/04 83/06 85/08 88/09
AAXX 23121 02435 47133 /1803 10031 20022 39807 49994 58029 710// 8//// 333 88/02
AAXX 23121 02440 07246 /2103 10022 20017 60001 71010 333 60005 88/03 90710 91107
AAXX 23121 02452 07118 /2406 10057 20057 69911 72087 333 60005 88/02 90710 91110
AAXX 23121 02456 07130 /2003 10020 20018 39980 40022 57031 69901 72141 333 69905 88/02 90710 91108
AAXX 23121 02469 07/44 /2105 10034 20028 60011 72386 333 69915 90710 91108
AAXX 23121 02498 07122 /2012 10050 20047 30036 40052 58030 69961 78186 333 69965 88/03 90710 91116
AAXX 23121 02518 462// /2210 10071 20071 333 81/05 85/07 90710 91113
AAXX 23121 02520 07143 82108 10072 20065 39982 40049 58012 69901 78151 333 69905 82/03 88/06 91011 90710 91111 90710 91209
AAXX 23121 02550 47/13 /2107 10051 20051 39795 40069 58020 710// 8//// 333 89/02
AAXX 23121 02562 35383 82109 10056 20051 39940 40055 58023 60001 333 60005 88/08 91011 90710 91111 90710 91209
AAXX 23121 02563 07271 /2006 10041 20038 30042 40064 58024 69971 70086 333 60005 88/04 90710 91108
AAXX 23121 02565 07365 /2002 10049 20044 39968 40088 58020 60001 70010 333 60005 88/07 90710 91104
AAXX 23121 02589 07258 /2110 10048 20037 30062 40083 57024 69901 78186 333 69905 88/04 90710 91118
AAXX 23121 02590 47230 /1908 10042 20042 30035 40097 58024 753// 8//// 333 88/04
AAXX 23121 02618 07/11 /2103 10060 20060 39927 40090 58017 69961 78186 333 69915 90710 91107
AAXX 23121 02664 11115 82103 10058 20054 30041 40113 58021 69901 71054 886// 333 60005 88702 91005 90710 91105 90710 91203
AAXX 23121 02679 07104 /2009 10042 20042 30072 40117 58021 69951 75265 333 69925 89/02 90710 91114
AAXX 23121 01144 41586 81916 10064 20029 76262 8472/ 333 91128
AAXX 23121 01199 16/// /1712 11019 21025 39409 49869 57035 6//// 333 91116
AAXX 23121 01278 41689 11001 10046 20023 39803 49904 58021 70181 81960
AAXX 23121 01311 47662 82507 10066 20032 39946 40008 52001 700// 333 91112
AAXX 23121 01441 16/// /2503 10008 21016 39028 40007 50004 60041 333 91112
AAXX 23121 01025 17/83 11812 10042 21022 39765 49775 58014 6//// 781// 333 91119
AAXX 23121 01488 16/// /2601 10006 20002 60001 333 4/017 91103
AAXX 23121 13160 31596 82201 11005 21015 30155 40268 57006 71022 886//
AAXX 23121 13262 32697 60501 10027 21029 30111 40265 57015 86500
AAXX 23121 13272 32460 73002 10008 21034 30142 40266 57012 87600 333 87717
AAXX 23121 13285 31596 82902 10010 21019 30155 40262 57008 71022 886//
AAXX 23121 13289 31/92 93105 11058 21068 38991 48476 57010 74544 333 91011 91112
AAXX 23121 13376 31696 82401 10006 21022 39995 40268 57013 71022 885//
AAXX 23121 13388 11596 53304 10013 21026 39989 40249 51005 69901 71022 84530
AAXX 23121 13462 32970 00306 10087 21070 30143 40183 57007
AAXX 23121 13473 NIL
AAXX 23121 13489 11595 70602 11004 21028 39700 40239 58003 69901 71072 87600
AAXX 23124 17026 12670 63407 10105 20090 30054 40093 57009 60001 83250 333 83835 86360 91108 92418
AAXX 23124 17034 12670 52203 10128 20088 30049 40095 55010 60001 82130 333 82835 85360 92428
AAXX 23124 17070 12565 71402 10092 20027 39218 40076 57018 60001 83570 333 83630 87460 91105
AAXX 23124 17084 12670 60102 10094 20030 39197 40106 57026 60001 84550 333 84635 86360
AAXX 23124 17090 12965 61505 10078 21014 38654 48432 57021 60001 83046 333 83360 86270
AAXX 23124 17098 11515 80404 11014 21036 38158 48471 57012 69961 77077 8552/ 333 85630 88457 93102 96010
AAXX 23124 17150 11460 73517 10071 20042 39965 40089 55002 60081 78088 86250 333 83715 85835 86359 91127
AAXX 23124 17160 12670 61802 10086 20022 38934 48414 57021 60001 84550 333 84640 86360 91105
AAXX 23124 17184 11660 83508 10099 20072 39953 40063 55008 60031 76062 8552/ 333 85634 88459 91116
AAXX 23124 17189 11457 72106 10036 20019 38908 48381 57017 60041 76162 84550 333 82715 84630 87360
AAXX 23124 17210 12670 63402 10118 20011 39117 40145 57014 60001 84170 333 84840 86360
AAXX 23124 17234 11660 70902 10095 20081 39987 40055 56009 60021 78082 84270 333 84836 87359 91109
AAXX 23124 17260 11557 79902 10098 20038 39324 40142 57015 60001 71022 84530 333 84630 87359
AAXX 23124 17290 11570 71604 10125 20083 30019 40051 55004 60061 70382 85970 333 81920 84830 87359 91115 9242 8
AAXX 23124 17370 11660 72304 10125 20078 30127 40131 55006 69901 78082 84270 333 84835 87460 92437
AAXX 23124 17024 12570 70701 10111 20083 30015 40092 57011 60001 84550 333 84632 87360 91109 92438
AAXX 23124 17056 11570 73105 10037 20035 30139 40143 51005 69921 76062 84570 333 84628 87358 91129 92438
AAXX 23124 17067 11556 71102 10098 20086 30067 40089 57014 69961 78022 87200 333 87830 91107 92406
AAXX 23124 17092 12670 51412 10078 21027 38810 48444 57015 60001 83550 333 83640 85359
AAXX 23124 17112 12570 70214 10036 20007 30139 40141 52010 60001 85270 333 85830 87359 91138 92437
AAXX 23124 17115 11457 80236 10062 20041 30046 40097 55001 60061 78088 8722/ 333 83710 85830 88459 91049
AAXX 23124 17116 11557 73606 10100 20074 39968 40089 55008 69981 78082 85250 333 85830 87358 91109
AAXX 23124 17188 11656 80403 10059 20043 38994 40052 57015 60021 76162 8552/ 333 85633 88458 91110
AAXX 23124 17202 11670 70608 10076 20024 39127 40158 56015 69921 70162 84550 333 84635 87359
AAXX 23124 17248 12670 72603 10064 20031 38887 48405 57026 60001 83570 333 83640 87360
AAXX 23124 17292 11570 71101 10056 20053 39298 40054 58005 60141 70282 85270 333 85830 87359 91110
AAXX 23124 17300 11460 73002 10121 20109 39972 40043 55023 60141 79599 87900 333 82915 85825
AAXX 23124 17310 NIL
AAXX 23124 17330 11660 72102 10123 20094 30088 40106 57032 60041 72582 83270 333 83839 87359
AAXX 23124 17022 11559 70103 10108 20091 39924 40088 57011 60001 71022 85520 333 85630 87459 91108 92426
AAXX 23124 17031 12670 53302 10172 20046 30073 40079 57015 60001 83250 333 83836 85360
AAXX 23124 17038 12970 60000 10137 20046 30046 40097 57010 60001 86050 333 86360 92428
AAXX 23124 17050 12670 83510 10024 21020 30119 40183 53003 60001 8552/ 333 85635 88460 91023 91128
AAXX 23124 17060 11540 70124 10068 20052 30075 40115 50004 60041 78122 85250 333 85820 86358
AAXX 23124 17096 11560 50801 11010 21015 38193 48465 57012 69901 71071 83550 333 83630 85358
AAXX 23124 17124 11558 80910 10058 20040 39158 40073 57019 69961 76022 8452/ 333 84630 88458
AAXX 23124 17128 11558 81405 10066 20029 38998 40095 57019 69901 76022 8552/ 333 85625 88458
AAXX 23124 17170 NIL
AAXX 23124 17195 12670 71104 10108 21019 38889 48422 57019 60001 83250 333 83840 87360
AAXX 23124 17199 12670 63202 10078 20015 39048 40145 56013 60001 83550 333 83635 86360
AAXX 23124 17219 12565 70112 10119 20068 39907 40050 55007 60001 84250 333 84830 87360
AAXX 23124 17240 11559 71103 10033 20005 38910 40057 57015 60081 78088 85250 333 85830 87360 91115
AAXX 23124 17244 11560 71613 10069 20045 38891 48397 57031 60011 76162 85520 333 82720 84635 87459
AAXX 23124 17280 12660 63003 10115 20021 39357 40148 57017 60001 83130 333 83840 86360
AAXX 23124 17350 11658 70407 10112 20107 30044 40122 58021 60071 78022 84250 333 84835 87360
AAXX 23124 85032 12365 63404 10270 20236 39915 40074 52015 60034 81504 333 20212 30/// 55015 56706 59016 70031 81608 86070
AAXX 23124 85043 12865 70000 10250 20239 39922 40083 52016 60064 83034 333 20217 30/// 55000 56080 59010 70064 83358 87070
AAXX 23124 85104 12865 60000 10246 20238 39922 40082 52010 60114 83038 333 20228 31/// 55048 56076 59007 70107 83358 86270
AAXX 23124 85109 12865 70000 10245 20231 39933 40094 52018 60084 87030 333 20228 31/// 56070 59007 70082 87358
AAXX 23124 85114 12865 60000 10245 20230 39932 40095 52011 60094 86030 333 20226 31/// 55000 56070 59008 70092 86358
AAXX 23124 85116 12865 70000 10246 20232 39913 40094 52011 60014 87030 333 2O230 30/// 55022 56080 59014 70013 87358
AAXX 23124 85123 12365 73206 10246 20232 39920 40086 52017 60024 82534 333 20230 31/// 55032 56776 59010 70016 82610 83358 86070
AAXX 23124 85139 32465 63506 10244 20227 39854 40048 52013 82534 333 20231 31/// 55037 56776 59010 82610 84358 86070
AAXX 23124 85153 32465 60000 10250 20233 39898 40082 51008 84530 333 20237 30/// 56770 59010 84612 86358
AAXX 23124 85154 12270 43010 10256 20243 39906 40083 50014 69944 82632 333 20232 30023 55038 56776 59014 70004 82706 83360=1
AAXX 23121 13173 31696 82502 10004 21009 30161 40265 57009 71022 885//
AAXX 23121 13180 32697 83402 10002 21008 30152 40267 57009 885//
AAXX 23121 13266 32697 83102 10006 21012 30163 40268 57012 888//
AAXX 23121 13369 32497 80701 11044 21066 39008 48472 58002 885//
AAXX 23121 13383 32697 83103 10013 21033 30048 40259 58008 885//
AAXX 23121 13384 32697 83201 10008 21012 30105 40263 57010 885//
AAXX 23121 13389 32597 83404 10009 21036 39952 40243 58005 886//
AAXX 23121 13477 NIL
AAXX 23124 64500 32470 62208 10286 20240 30096 40109 83230 333 0//00 59006 83813 86363 94942 95832
AAXX 23124 64501 32460 42110 10285 20241 3//// 4//// 84200 333 0//00 5//// 84810 94919 95839
AAXX 23124 64507 32460 8//// 102 64510 32570 4//// 10300 20214 3//// 4//// 84200 333 0//00 5//// 84820 94929 95839
AAXX 23124 64550 31470 7//// 10302 20230 30/// 40/// 70142 878// 333 0//00 5//// 83816 87626 94939 95839
AAXX 23124 64551 32470 71806 10295 20230 30087 40116 8323/ 333 0//00 58005 83815 87362 94941 95831
AAXX 23124 64556 32460 8//// 10275 20224 39527 40109 882// 333 0//00 59004 8813
AAXX 23124 64570 32465 72003 10287 20236 39611 40112 875// 333 0//00 59011 84616 87640
AAXX 23121 13168 32697 82702 11008 21016 30165 40277 57008 885//
AAXX 23121 13174 31696 82902 10004 21022 30159 40264 56010 71022 885//
AAXX 23121 13269 31596 73402 10014 21022 30048 40270 57014 71022 87500
AAXX 23121 13274 32597 73202 10007 21040 30100 40267 57011 87800
AAXX 23121 13278 31696 83202 10012 21019 30034 40268 57010 71022 885//
AAXX 23121 13378 31297 40102 11089 21097 38248 48465 58004 70242 84600
AAXX 23121 13397 32698 72904 10003 21022 39682 40238 58008 86830
AAXX 23121 13457 42960 00103 10118 21080 30166 40173 58005
AAXX 23121 13481 NIL
AAXX 23124 64600 31975 70406 10310 20141 39446 40084 70144 83032 333 58005 83365 87080
AAXX 23124 64601 32960 00419 10306 20018 38992 48510 333 59001
AAXX 23124 64605 32980 43402 10310 20054 39348 40077 84030 333 59005 84365
AAXX 23124 64610 32970 31404 10338 20087 3//// 4//// 80002 333 5//// 83080
AAXX 23124 64650 NIL
AAXX 23124 64654 32980 00000 10355 20069 39515 40077 333 59019
AAXX 23124 64655 NIL
AAXX 23124 64656 31565 50000 10295 20212 39544 40091 70144 83130 333 58003 83820 84365 94919 95839
AAXX 23124 64659 NIL
AAXX 23124 64660 32965 03206 10332 20147 39550 40068 333 59005
AAXX 23124 64662 32580 61604 10315 20225 39584 40077 82102 333 59005 82820 86080 94919 95819
AAXX 23124 64665 31580 80000 10315 20222 3//// 4//// 70344 83102 333 5//// 83828 88080 94919 95879
AAXX 23124 65352 31950 70404 10325 21009 3//// 4//// 70522 80002 333 5//// 87076
AAXX 23124 65361 32958 70000 10320 20020 3//// 4//// 80002 333 5//// 87076
AAXX 23124 65376 32958 70406 10310 20064 39662 40118 80002 333 59003 87076
AAXX 23124 65387 32458 52006 10324 20253 30086 40104 82202 333 59010 82816 84073
AAXX 23124 91643 11498 83507 10253 20234 40062 50004 60111 71582 83270 333 10296 5689/ 83819 88460
AAXX 23121 34712 /1450 80304 11007 21035 30090 40178 57012 77172 8772/ 555 69901
AAXX 23121 33088 32997 82902 11031 21051 30054 40254 58011 8802/
AAXX 23121 33177 32577 82201 11018 21060 30005 40252 58016 885//
AAXX 23121 33261 /1596 83202 11012 21035 30019 40207 58001 78582 889// 333 88923 555 69921
AAXX 23121 33275 /1497 63203 11016 21046 39964 40195 58004 70282 83330 555 69941
AAXX 23121 33301 32597 80000 11034 21069 39961 40256 58012 885// 333 88621
AAXX 23121 33325 /1397 83501 11031 21055 39969 40248 58009 77172 885// 333 85708 555 69901
AAXX 23121 33377 /1497 73402 11017 21051 30013 40214 58009 70282 85370 555 69901
AAXX 23121 33415 32497 83602 11035 21071 39842 40258 58013 886// 333 88712
AAXX 23121 33429 32497 70103 11042 21068 39813 40256 58009 87500 333 87613
AAXX 23121 33466 NIL
AAXX 23121 33526 /1560 80000 11021 21060 39904 40259 58013 77172 885// 333 88620 555 69901
AAXX 23121 33562 32498 83203 11045 21072 39874 40253 57007 8555/ 333 85617
AAXX 23121 33614 32598 83305 11008 21050 30106 40214 58008 883// 333 88920
AAXX 23121 33761 32498 73603 11029 21060 30002 40235 57008 83680
AAXX 23121 33902 32597 83606 10000 21050 30132 40201 57007 883//
AAXX 23121 33983 32497 80208 10022 20000 30087 40149 57013 883// 333 85612
AAXX 23121 34415 32670 33202 10003 21042 30092 40191 57012 83500
AAXX 23121 34523 32697 80201 10002 21054 30111 40189 57010 8655/
AAXX 23121 34712 31450 80304 11007 21035 30090 40178 57012 77172 8772/
AAXX 23124 41859 31305 83102 10130 20120 30085 40124 74544 8662/ 333 10135 56699 59011 70000 83708 85614 88458
AAXX 23124 41883 31914 40000 10127 20110 30105 40127 71044 83021 333 10140 56099 59009 70000 83460
AAXX 23124 41891 31930 32702 10185 20140 30058 40098 70510 83030 333 10252 56090 59029 70000 83365
AAXX 23124 41907 NIL
AAXX 23124 41923 31930 20000 10148 20110 30101 40111 71042 80001 333 10170 56009 59013 70000 82080
AAXX 23124 41936 31914 20000 10148 20130 40117 70511 82030 333 10198 56090 59013 70000 82362
AAXX 23124 41943 31930 00000 10178 20150 30104 40112 70500 333 10217 59024 70000
AAXX 23124 41950 31925 10000 10135 20120 30107 40109 71021 80001 333 10189 56009 59013 70000 81080
AAXX 23124 41978 31418 60000 10152 20130 30098 40104 71022 83520 333 10164 56990 59012 70000 83616 85460
AAXX 23124 41992 31915 90000 10168 20160 30093 40095 71041 89/// 333 10210 56999 59017 70000
AAXX 23121 01400 41497 73004 10083 20074 40072 52002 75865 875// 22200 06082 10605 70025 333 91115
AAXX 23121 01300 41497 62514 10075 20021 49961 52002 72582 862// 22200 02064 10914 70069 333 91120
AAXX 23121 01152 11370 81910 10057 20025 39789 49805 58015 60021 78086 889// 333 91123
AAXX 23124 68386 16/// /1206 10289 20205 39690 48635 57006 69921 333 10303 20225 91012 555 20002 91022
AAXX 23124 68398 36/// /3610 10236 20204 39373 48527 56001 333 10254 20212 91016 555 91015
AAXX 23124 68299 36/// /1608 10193 20142 38940 48534 57005 333 10196 20150 91015 555 91019
AAXX 23124 78962 11470 20606 10266 20208 30137 40145 60001 70500 82800 333 02100 10288 20232 58005 82816
AAXX 23121 02464 47160 /1805 10036 20033 30029 40047 57026 722// 8//// 333 88/02
AAXX 23121 02500 07250 /2211 10076 20072 39979 40020 55015 69901 71063 333 60005 88/04 90710 91117
AAXX 23121 02513 NIL
AAXX 23121 02615 07117 /2308 10062 20060 30119 40124 58016 69911 71086 333 60005 88/02 90710 91110
AAXX 23121 02635 07/24 /2403 10069 20066 69931 71053 333 60005 90710 91107
AAXX 23121 11816 11115 81002 11017 21027 30082 40253 57014 69901 75676 886// 333 81702 87703 93401
AAXX 23121 06447 16/// /2306 10090 20079 30084 40209 58018 69911 333 91111 91206
AAXX 23121 06428 11463 72206 10098 20079 30157 40206 58019 69921 70265 875// 333 81710 87634 91109 91207
AAXX 23121 15661 11565 83412 10028 20012 30141 40177 54000 60071 70266 8802/ 222// 00082 20504 333 10060 20025 555 589// 69999 71243 92056 92457
AAXX 23124 65351 32960 70412 10305 20101 3//// 4//// 80002 333 5//// 87076
AAXX 23124 65355 32960 70810 10315 21030 39607 40118 80002 333 59007 87073
AAXX 23124 65357 32960 60806 10330 20018 39731 40116 80002 333 59002 86076
AAXX 23124 65380 31460 72204 10314 20232 3//// 4//// 70142 84202 333 5//// 84816 87076
AAXX 23121 11816 11115 81002 11017 21027 30082 40253 57014 69901 75676 886// 333 81702 87703 93401
AAXX 23121 06431 36/// /2105 10100 20082 30186 40198 58018 60001 333 91109 91206
AAXX 23121 06432 37/42 /2206 10090 20083 30137 40214 58021 71086 333 81/05 83/08 87/10 91109 91206
AAXX 23121 06458 11240 82206 10088 20085 30059 40213 58018 72162 886// 333 81704 85706 87709 91108 91206
AAXX 23121 06465 11316 72205 10093 20086 30141 40207 58017 69902 75265 877// 333 82707 85710 87712 91108 91205
AAXX 23121 06496 37/39 /2204 10053 20051 39536 40216 58021 720// 333 85/01 88/03 91105 91204
AAXX 23124 78906 11578 40404 10256 20193 30152 40157 60012 703// 84840 333 10278 20215 58003 70166 84820 90999
AAXX 23124 60252 32960 02804 10203 20039 40265 56008 333 95800
AAXX 23124 91925 06/// /3003 10237 20208 30047 40108 56015 60011 333 10305 58017 60017 90710 91110 555 60015 13010
AAXX 23124 91929 04981 80814 10259 20213 30110 40113 57010 69901 700// 333 69907 90710 91121 555 69905
AAXX 23124 91938 02570 40702 10243 20189 30120 40122 58018 60001 81231 333 60007 81823 83080 90710 91107 555 60005 11609
AAXX 23124 91944 06/// /0917 10262 20208 30134 40137 58014 60001 333 60007 90710 91122 555 60005
AAXX 23124 91948 06/// /1408 10234 20185 30081 40184 56012 69921 333 10279 58018 69927 90710 91114 555 60005 11216
AAXX 23124 91954 06/// /0614 10264 20227 30154 40157 56011 60001 333 10285 58024 60007
AAXX 23124 91958 06/// /1804 10222 20207 30194 40196 56013 60001 333 10277 58029 60007 90710 91106 555 60005 10511
AAXX 23124 91945 36/// /0712 10258 20221 30143 40148 56013 333 10293
AAXX 23123 NIL
AAXX 23124 NIL
AAXX 23124 94102 46/// /2511 10299 20283 30026 40035
AAXX 23124 94103 NIL
AAXX 23124 94120 46/// /0507 10251 20244 39984 40024
AAXX 23124 94122 46/// /1303 10252 20236 30016 40024
AAXX 23124 94131 46/// /0913 10291 20200 39880 40030
AAXX 23124 94132 NIL
AAXX 23124 94147 NIL
AAXX 23124 94150 46/// /0311 10258 20247 39977 40036
AAXX 23124 94151 46/// /0611 10278 20236 30019 4////
AAXX 23124 94170 46/// /1005 10249 20240 30035 40057
AAXX 23124 94200 NIL
AAXX 23124 94203 46/// /2908 10304 20259 30022 40032
AAXX 23124 94206 46/// /1604 10327 2//// 39886 40013
AAXX 23124 94207 46/// /3607 10293 30022 40030 53012
AAXX 23124 94211 NIL
AAXX 23124 94212 46/// /0803 10324 20167 39565 40025
AAXX 23124 94216 46/// /3605 10308 20215 39972 40022
AAXX 23124 94236 NIL
AAXX 23124 94238 46/// /0904 10292 20134 39626 40038
AAXX 23124 94248 NIL
AAXX 23124 94255 46/// /1004 10278 20191 39786 40041
AAXX 23124 94268 46/// /0000 10267 20244 30037 40049
AAXX 23124 94287 46/// /2804 10261 20236 30050 40059
AAXX 23124 94290 NIL
AAXX 23124 94294 NIL
AAXX 23124 94296 35/// /0000 10267 30024 40034 52006
AAXX 23124 94298 46/// /2116 10266 30019 40025 51004
AAXX 23124 95641 NIL
BBXX 44022 23121 99409 70737 46/// ///06 10079 20061 40109 53004 91200 22200 00084 333 91207 555 11062 22067
BBXX VRZN7 23124 99313 31531 41597 60515 10200 2019/ 40140 52018 70111 82623 22253 04245 2//// 3//// 4//// 5//// 85200
BBXX VRAE3 23124 99012 11340 41697 33613 10291 20255 40040 54005 70103 83125 22234 00310 2//// 3//// 4//// 5//// 80265
BBXX A8VJ2 23123 99279 31539 41598 50811 10240 20202 40103 58/// 70322 83972 22213 00205 21005 307// 40505 80215
BBXX SHIP 23124 99104 31056 41/97 62208 10286 20275 49977 70322 222// 0//// 20201 301// 40201 5////
BBXX V2BE4 23121 99020 31456 41498 30405 10290 20248 40045 52025 70200 82180 22244 04305 20201 80260
BBXX PCAM 23123 99386 31702 41997 09902 10172 20136 40255 54000 7//00 80000 22273 2//// 399// 4//// 80150
BBXX VRDG4 23123 99387 31493 41596 61935 10195 20149 40126 50004 703// 85368 22223 20403 80168
BBXX VNSZ 23114 99381 31449 46/// /1518 10215 20175 30097 40123 52019 22245 04203 85188
BBXX C6FS9 23114 99340 31516 46/// /0511 10216 20194 30115 40151 52012 22254 04221 85201
BBXX VNAH 23114 99357 31202 46/// /1814 10178 20112 30144 40168 52012 22223 04202 85139
BBXX VNSZ 23104 99378 31449 46/// /1915 10221 20184 30094 40120 52015 22200 04238 85196
BBXX C6FS9 23104 99338 31518 46/// /0616 10218 20191 30110 40146 52013 22254 04225 85199
BBXX VROB 23104 99383 31447 46/// /2011 10187 20155 30099 40124 52027 22263 04195 85167
BBXX VNAH 23104 99356 31199 46/// /1817 10179 20120 30139 40163 52006 22223 04192 85144
BBXX 2AGH7 23103 99159 31676 41/98 50620 10275 20239 40082 54000 71399 834// 22233 2//// 30000 80250
BBXX ZMKA 23124 99449 31719 41598 10807 10132 20125 40246 54000 70200 811// 22252 2//// 80128
AAXX 23121 48823 32697 73602 10165 20100 30202 40205 52021 875// 333 00017 10195 58029 70000 87696 555 20164
AAXX 23124 41241 32960 43408 10246 20077 30124 40159 80001 333 59018 84070
AAXX 23124 41242 36/// /0206 10231 20084 30153 40177 333 0E013 59020
AAXX 23124 41244 36/// /2305 10241 21011 39814 48134 333 0E011 59006
AAXX 23124 41246 32960 30809 10227 20118 30159 40163 80001 333 59020 83070
AAXX 23124 41251 32967 32104 10131 21012 38026 40126 80001 333 59005 83075
AAXX 23124 41252 36/// /3004 10244 20016 39783 40073 333 0E015 59009
AAXX 23124 41253 36/// /0204 10235 20044 39783 40166 333 0E012 59023
AAXX 23124 41254 NIL
AAXX 23124 41255 32960 12404 10248 21011 39621 40137 80001 333 59011 81080
AAXX 23124 41256 32965 20307 10223 20092 30156 40166 80001 333 59023 82075
AAXX 23124 41257 36/// /0202 10230 20013 39677 40165 333 0E008 59018
AAXX 23124 41258 36/// /0405 10222 20099 30156 40161 333 0E/// 59021
AAXX 23124 41259 36/// /0804 10110 21306 37115 40283 333 0E/// 58003
AAXX 23124 41262 NIL
AAXX 23124 41263 NIL
AAXX 23124 41264 36/70 /2706 10243 21002 39776 40142 333 0E015 59009
AAXX 23124 41265 36/// /9902 10241 21086 39613 40165 333 0E017 59010
AAXX 23124 41267 35/// /3508 10222 20083 30151 40167 333 0E017 59015
AAXX 23124 41268 32960 03608 10227 20092 30149 40165 333 59015
AAXX 23124 41270 36/70 /0209 10224 20076 30109 40120 333 0E017 59015
AAXX 23124 41275 NIL
AAXX 23124 41287 NIL
AAXX 23124 41288 32460 10911 10237 20111 30143 40165 81600 333 59009 81710
AAXX 23124 41290 NIL
AAXX 23124 41295 36/// /0105 10244 20068 39972 40150 333 0E016 59007
AAXX 23124 41304 NIL
AAXX 23124 41312 36/// /1008 10252 20137 30103 40142 333 0E/// 59001
AAXX 23124 41314 32960 09907 10237 20046 39655 40155 333 59009
AAXX 23124 41315 36/// /0108 10202 20027 39161 42799 333 0E/// 59005
AAXX 23124 41316 32960 01208 10253 20115 30117 40144 333 59005
AAXX 23124 89564 41781 82305 10013 21041 39841 49861 57002 70222 8451/
AAXX 23124 89570 46/// /1302 10050 21107 39173 56013 333 10105
AAXX 23124 89571 41575 32211 10023 21018 39797 49825 56016 70211 81551
AAXX 23124 89573 NIL
AAXX 23124 89610 NIL
AAXX 23124 89611 41758 70706 10010 21037 39675 49726 56015 77022 83528
AAXX 23124 89614 NIL
AAXX 23124 89615 46319 80925 11045 21082 38843 56007 333 11032
AAXX 23124 89807 NIL
AAXX 23124 89809 46/// /0603 11012 21026 39283 56011 333 10018
AAXX 23124 94299 46/// /1813 10273 20249 30036 40046
AAXX 23124 94300 46/// /2019 10253 20219 30057 40067
AAXX 23124 94302 46/// /1919 10328 20158 30009 40015
AAXX 23124 94312 46/// /3509 10293 20266 30019 40028
AAXX 23124 94313 NIL
AAXX 23124 94317 46/// /1206 10359 21035 39457 40024
AAXX 23124 94319 46/// /1305 10378 20117 39691 40012
AAXX 23124 94324 NIL
AAXX 23124 94326 46/// /1208 10303 20005 39463 40063
AAXX 23124 94327 46/// /0903 10273 20103 39694 40057
AAXX 23124 94332 46/// /0000 10256 20198 39667 40042
AAXX 23124 94333 NIL
AAXX 23124 94341 46/// /1502 10272 20124 39817 40046
AAXX 23124 94346 46/// /1606 10289 20149 39845 40059
AAXX 23124 94363 46/// /1006 10245 20170 39855 40067
AAXX 23124 94366 NIL
AAXX 23124 94367 46/// /1507 10243 20214 30022 40063
AAXX 23124 94374 46/// /1414 10221 20204 30061 40077
AAXX 23124 94388 46/// /1510 10244 20212 30062 40067
AAXX 23124 94393 46/// /1627 10253 39997 40009 51007
AAXX 23124 94394 46/// /1337 10242 30004 40012 58002
AAXX 23124 94403 46/// /1817 10222 20178 30060 40101
AAXX 23124 94429 46/// /1809 10338 20091 39611 40063
AAXX 23124 94430 46/// /2011 10371 20043 39474 40041
AAXX 23124 94449 46/// /1506 10354 20038 39536 40052
AAXX 23124 94451 NIL
AAXX 23124 94461 46/// /0806 10308 20096 39400 40051
AAXX 23124 94462 46/// /1505 10278 20176 39516 40056
AAXX 23124 94477 NIL
AAXX 23124 94488 NIL
AAXX 23123 91502 31470 63608 10270 20240 40044 53013 71522 82906 333 10332 56809 59020 81815 81916 86280
AAXX 23123 91507 NIL
AAXX 23123 91520 31475 60000 10250 20243 40051 52009 70510 82238 333 10319 56999 59023 82815 86280
AAXX 23123 91541 NIL
AAXX 23121 48820 32598 80502 10170 20093 30207 40215 52026 888// 333 00017 10194 58044 70000 83895 88697
AAXX 23124 94500 NIL
AAXX 23124 94510 46/// /1306 10252 20148 39741 40080
AAXX 23124 94515 46/// /1506 10210 20158 39737 40078
AAXX 23124 94552 46/// /1110 10201 20169 39640 40097
AAXX 23124 94578 46/// /1210 10234 20203 30086 40097
AAXX 23124 94584 46/// /1210 10208 20195 39970 40078
AAXX 23124 94601 46/// /1319 10190 20130 30147 40164
AAXX 23124 94610 46/// /2114 10224 20148 30094 40117
AAXX 23124 94637 46/// /1513 10239 20126 39681 40098
AAXX 23124 94638 46/// /1609 10176 20122 30131 40162
AAXX 23124 94642 NIL
AAXX 23124 94643 NIL
AAXX 23124 94647 46/// /1205 10203 20180 39969 40088
AAXX 23124 94651 46/// /1311 10220 20158 30013 40089
AAXX 23124 94653 46/// /1701 10241 20179 30062 40080
AAXX 23124 94659 46/// /0509 10317 20019 39887 40077
AAXX 23124 94672 46/// /1405 10223 20013 30100 40110
AAXX 23124 94691 46/// /1507 10263 20035 39779 40098
AAXX 23124 94693 46/// /2605 10239 20084 30037 40097
AAXX 23124 94700 NIL
AAXX 23124 94703 46/// /0706 10255 20164 39970 40092
AAXX 23124 94710 46/// /0707 10268 20139 39848 40095
AAXX 23124 94729 46/// /1505 10166 20137 39296 40131
AAXX 23124 94750 46/// /0000 10176 20170 30026 40149
AAXX 23124 94767 46/// /0505 10214 20187 30141 40147
AAXX 23124 94776 46/// /0906 10213 20190 30126 40136
AAXX 23124 94791 NIL
AAXX 23124 94802 46/// /1507 10168 20119 30089 40171
AAXX 23124 94804 46/// /1112 10200 20172 30070 40107
AAXX 23124 94807 NIL
AAXX 23124 94821 46/// /1807 10151 20144 30054 40136
AAXX 23124 94842 46/// /0910 10167 20150 30034 40132
AAXX 23124 94847 NIL
AAXX 23124 94850 46/// /1405 10136 20129 30092 40138
AAXX 23124 94865 46/// /2310 10189 20165 30096 40120
AAXX 23124 94866 46/// /2609 10187 20160 39983 40122
AAXX 23124 94875 46/// /0304 10223 20120 39970 40103
AAXX 23124 94500 NIL
AAXX 23124 94510 46/// /1306 10252 20148 39741 40080
AAXX 23124 94515 46/// /1506 10210 20158 39737 40078
AAXX 23124 94552 46/// /1110 10201 20169 39640 40097
AAXX 23124 94578 46/// /1210 10234 20203 30086 40097
AAXX 23124 94584 46/// /1210 10208 20195 39970 40078
AAXX 23124 94601 46/// /1319 10190 20130 30147 40164
AAXX 23124 94610 46/// /2114 10224 20148 30094 40117
AAXX 23124 94637 46/// /1513 10239 20126 39681 40098
AAXX 23124 94638 46/// /1609 10176 20122 30131 40162
AAXX 23124 94642 NIL
AAXX 23124 94643 NIL
AAXX 23124 94647 46/// /1205 10203 20180 39969 40088
AAXX 23124 94651 46/// /1311 10220 20158 30013 40089
AAXX 23124 94653 46/// /1701 10241 20179 30062 40080
AAXX 23124 94659 46/// /0509 10317 20019 39887 40077
AAXX 23124 94672 46/// /1405 10223 20013 30100 40110
AAXX 23124 94691 46/// /1507 10263 20035 39779 40098
AAXX 23124 94693 46/// /2605 10239 20084 30037 40097
AAXX 23124 94700 NIL
AAXX 23124 94703 46/// /0706 10255 20164 39970 40092
AAXX 23124 94710 46/// /0707 10268 20139 39848 40095
AAXX 23124 94729 46/// /1505 10166 20137 39296 40131
AAXX 23124 94750 46/// /0000 10176 20170 30026 40149
AAXX 23124 94767 46/// /0505 10214 20187 30141 40147
AAXX 23124 94776 46/// /0906 10213 20190 30126 40136
AAXX 23124 94791 NIL
AAXX 23124 94802 46/// /1507 10168 20119 30089 40171
AAXX 23124 94804 46/// /1112 10200 20172 30070 40107
AAXX 23124 94807 NIL
AAXX 23124 94821 46/// /1807 10151 20144 30054 40136
AAXX 23124 94842 46/// /0910 10167 20150 30034 40132
AAXX 23124 94847 NIL
AAXX 23124 94850 46/// /1405 10136 20129 30092 40138
AAXX 23124 94865 46/// /2310 10189 20165 30096 40120
AAXX 23124 94866 46/// /2609 10187 20160 39983 40122
AAXX 23124 94875 46/// /0304 10223 20120 39970 40103
AAXX 23124 94893 46/// /0423 10169 20171 3//// 4////
AAXX 23124 94907 46/// /1307 10172 20162 30118 40128
AAXX 23124 94910 46/// /0810 10227 20122 39869 40114
AAXX 23124 94926 46/// /1006 10183 20135 39486 40143
AAXX 23124 94935 46/// /3406 10194 20170 30108 40134
AAXX 23124 94954 46/// /1906 10152 20127 30036 40146
AAXX 23124 94956 46/// /3305 10126 20107 30121 40147
AAXX 23124 94975 46/// /2006 10144 20114 30124 40156
AAXX 23124 94983 46/// /0706 10169 20156 30131 40156
AAXX 23124 94995 46/// /0622 10217 20183 30153 40161
AAXX 23124 94996 46/// /0915 10196 20145 30038 40166
AAXX 23124 94997 NIL
AAXX 23124 94998 46/// /3015 10071 20064 30120 40131
AAXX 23124 95111 46/// /0000 10291 20221 39985 40020
AAXX 23124 95205 46/// /3113 10323 20265 30017 40024
AAXX 23124 95322 NIL
AAXX 23124 95448 46/// /1808 10373 20019 39487 40033
AAXX 23124 95458 46/// /0607 10326 20067 39820 40074
AAXX 23124 95480 46/// /1807 10315 20043 30022 40080
AAXX 23124 95481 46/// /1507 10320 20031 30031 40075
AAXX 23124 95482 46/// /1406 10327 20017 30006 40060
AAXX 23124 95485 46/// /2604 10268 2//// 39879 40077
AAXX 23124 95492 46/// /0806 10288 20160 39927 40078
AAXX 23124 95527 46/// /1009 10207 20179 39856 40104
AAXX 23124 95634 46/// /1517 10238 20134 39717 40111
AAXX 23124 95637 46/// /1109 10185 20108 39818 40146
AAXX 23124 95646 46/// /1510 10248 20151 39895 40078
AAXX 23124 95666 NIL
AAXX 23124 95719 46/// /1007 10199 20167 39793 40117
AAXX 23124 95762 46/// /1507 10178 20158 39670 40118
AAXX 23124 95826 NIL
AAXX 23124 95839 46/// /1910 10226 20142 39950 40107
AAXX 23124 95864 NIL
AAXX 23124 95909 NIL
AAXX 23124 95954 NIL
AAXX 23124 95966 46/// /3008 10170 20125 39953 40152
AAXX 23124 96995 NIL
AAXX 23124 96996 47333 81110 10265 20257 30035 40039 53010 7//44
AAXX 23124 94102 46/// /2511 10299 20283 30026 40035
AAXX 23124 94103 NIL
AAXX 23124 94120 46/// /0507 10251 20244 39984 40024
AAXX 23124 94122 46/// /1303 10252 20236 30016 40024
AAXX 23124 94131 46/// /0913 10291 20200 39880 40030
AAXX 23124 94132 NIL
AAXX 23124 94147 NIL
AAXX 23124 94150 46/// /0311 10258 20247 39977 40036
AAXX 23124 94151 46/// /0611 10278 20236 30019 4////
AAXX 23124 94170 46/// /1005 10249 20240 30035 40057
AAXX 23124 94200 NIL
AAXX 23124 94203 46/// /2908 10304 20259 30022 40032
AAXX 23124 94206 46/// /1604 10327 2//// 39886 40013
AAXX 23124 94207 46/// /3607 10293 30022 40030 53012
AAXX 23124 94211 NIL
AAXX 23124 94212 46/// /0803 10324 20167 39565 40025
AAXX 23124 94216 46/// /3605 10308 20215 39972 40022
AAXX 23124 94236 NIL
AAXX 23124 94238 46/// /0904 10292 20134 39626 40038
AAXX 23124 94248 NIL
AAXX 23124 94255 46/// /1004 10278 20191 39786 40041
AAXX 23124 94268 46/// /0000 10267 20244 30037 40049
AAXX 23124 94287 46/// /2804 10261 20236 30050 40059
AAXX 23124 94290 NIL
AAXX 23124 94294 NIL
AAXX 23124 94296 35/// /0000 10267 30024 40034 52006
AAXX 23124 94298 46/// /2116 10266 30019 40025 51004
AAXX 23124 95641 NIL
AAXX 23124 94299 46/// /1813 10273 20249 30036 40046
AAXX 23124 94300 46/// /2019 10253 20219 30057 40067
AAXX 23124 94302 46/// /1919 10328 20158 30009 40015
AAXX 23124 94312 46/// /3509 10293 20266 30019 40028
AAXX 23124 94313 NIL
AAXX 23124 94317 46/// /1206 10359 21035 39457 40024
AAXX 23124 94319 46/// /1305 10378 20117 39691 40012
AAXX 23124 94324 NIL
AAXX 23124 94326 46/// /1208 10303 20005 39463 40063
AAXX 23124 94327 46/// /0903 10273 20103 39694 40057
AAXX 23124 94332 46/// /0000 10256 20198 39667 40042
AAXX 23124 94333 NIL
AAXX 23124 94341 46/// /1502 10272 20124 39817 40046
AAXX 23124 94346 46/// /1606 10289 20149 39845 40059
AAXX 23124 94363 46/// /1006 10245 20170 39855 40067
AAXX 23124 94366 NIL
AAXX 23124 94367 46/// /1507 10243 20214 30022 40063
AAXX 23124 94374 46/// /1414 10221 20204 30061 40077
AAXX 23124 94388 46/// /1510 10244 20212 30062 40067
AAXX 23124 94393 46/// /1627 10253 39997 40009 51007
AAXX 23124 94394 46/// /1337 10242 30004 40012 58002
AAXX 23124 94403 46/// /1817 10222 20178 30060 40101
AAXX 23124 94429 46/// /1809 10338 20091 39611 40063
AAXX 23124 94430 46/// /2011 10371 20043 39474 40041
AAXX 23124 94449 46/// /1506 10354 20038 39536 40052
AAXX 23124 94451 NIL
AAXX 23124 94461 46/// /0806 10308 20096 39400 40051
AAXX 23124 94462 46/// /1505 10278 20176 39516 40056
AAXX 23124 94477 NIL
AAXX 23124 94488 NIL
AAXX 23124 94893 46/// /0423 10169 20171 3//// 4////
AAXX 23124 94907 46/// /1307 10172 20162 30118 40128
AAXX 23124 94910 46/// /0810 10227 20122 39869 40114
AAXX 23124 94926 46/// /1006 10183 20135 39486 40143
AAXX 23124 94935 46/// /3406 10194 20170 30108 40134
AAXX 23124 94954 46/// /1906 10152 20127 30036 40146
AAXX 23124 94956 46/// /3305 10126 20107 30121 40147
AAXX 23124 94975 46/// /2006 10144 20114 30124 40156
AAXX 23124 94983 46/// /0706 10169 20156 30131 40156
AAXX 23124 94995 46/// /0622 10217 20183 30153 40161
AAXX 23124 94996 46/// /0915 10196 20145 30038 40166
AAXX 23124 94997 NIL
AAXX 23124 94998 46/// /3015 10071 20064 30120 40131
AAXX 23124 95111 46/// /0000 10291 20221 39985 40020
AAXX 23124 95205 46/// /3113 10323 20265 30017 40024
AAXX 23124 95322 NIL
AAXX 23124 95448 46/// /1808 10373 20019 39487 40033
AAXX 23124 95458 46/// /0607 10326 20067 39820 40074
AAXX 23124 95480 46/// /1807 10315 20043 30022 40080
AAXX 23124 95481 46/// /1507 10320 20031 30031 40075
AAXX 23124 95482 46/// /1406 10327 20017 30006 40060
AAXX 23124 95485 46/// /2604 10268 2//// 39879 40077
AAXX 23124 95492 46/// /0806 10288 20160 39927 40078
AAXX 23124 95527 46/// /1009 10207 20179 39856 40104
AAXX 23124 95634 46/// /1517 10238 20134 39717 40111
AAXX 23124 95637 46/// /1109 10185 20108 39818 40146
AAXX 23124 95646 46/// /1510 10248 20151 39895 40078
AAXX 23124 95666 NIL
AAXX 23124 95719 46/// /1007 10199 20167 39793 40117
AAXX 23124 95762 46/// /1507 10178 20158 39670 40118
AAXX 23124 95826 NIL
AAXX 23124 95839 46/// /1910 10226 20142 39950 40107
AAXX 23124 95864 NIL
AAXX 23124 95909 NIL
AAXX 23124 95954 NIL
AAXX 23124 95966 46/// /3008 10170 20125 39953 40152
AAXX 23124 96995 NIL
AAXX 23124 96996 47333 81110 10265 20257 30035 40039 53010 7//44
AAXX 23124 89564 41781 82305 10013 21041 39841 49861 57002 70222 8451/
AAXX 23124 89570 46/// /1302 10050 21107 39173 56013 333 10105
AAXX 23124 89571 41575 32211 10023 21018 39797 49825 56016 70211 81551
AAXX 23124 89573 NIL
AAXX 23124 89610 NIL
AAXX 23124 89611 41758 70706 10010 21037 39675 49726 56015 77022 83528
AAXX 23124 89614 NIL
AAXX 23124 89615 46319 80925 11045 21082 38843 56007 333 11032
AAXX 23124 89807 NIL
AAXX 23124 89809 46/// /0603 11012 21026 39283 56011 333 10018
BBXX UCKZ 23121 99630 30705 42398 82203 11014 21025 49828 57003 8667/ 22223 01005 2//// ICE 37992
BBXX FHZI 23104 99666 31400 46/// /1018 11021 21021 39923 49934 57003 22200 05019 86021
BBXX VRZN7 23124 99313 31531 41597 60515 10200 2019/ 40140 52018 70111 82623 22253 04245 2//// 3//// 4//// 5//// 85200
BBXX VRAE3 23124 99012 11340 41697 33613 10291 20255 40040 54005 70103 83125 22234 00310 2//// 3//// 4//// 5//// 80265
BBXX A8VJ2 23123 99279 31539 41598 50811 10240 20202 40103 58/// 70322 83972 22213 00205 21005 307// 40505 80215
BBXX SHIP 23124 99104 31056 41/97 62208 10286 20275 49977 70322 222// 0//// 20201 301// 40201 5////
BBXX V2BE4 23121 99020 31456 41498 30405 10290 20248 40045 52025 70200 82180 22244 04305 20201 80260
BBXX PCAM 23123 99386 31702 41997 09902 10172 20136 40255 54000 7//00 80000 22273 2//// 399// 4//// 80150
BBXX VRDG4 23123 99387 31493 41596 61935 10195 20149 40126 50004 703// 85368 22223 20403 80168
BBXX VNSZ 23114 99381 31449 46/// /1518 10215 20175 30097 40123 52019 22245 04203 85188
BBXX C6FS9 23114 99340 31516 46/// /0511 10216 20194 30115 40151 52012 22254 04221 85201
BBXX VNAH 23114 99357 31202 46/// /1814 10178 20112 30144 40168 52012 22223 04202 85139
BBXX VNSZ 23104 99378 31449 46/// /1915 10221 20184 30094 40120 52015 22200 04238 85196
BBXX C6FS9 23104 99338 31518 46/// /0616 10218 20191 30110 40146 52013 22254 04225 85199
BBXX VROB 23104 99383 31447 46/// /2011 10187 20155 30099 40124 52027 22263 04195 85167
BBXX VNAH 23104 99356 31199 46/// /1817 10179 20120 30139 40163 52006 22223 04192 85144
BBXX 2AGH7 23103 99159 31676 41/98 50620 10275 20239 40082 54000 71399 834// 22233 2//// 30000 80250
BBXX ZMKA 23124 99449 31719 41598 10807 10132 20125 40246 54000 70200 811// 22252 2//// 80128
AAXX 23121 38141 42598 50904 11088 21167 30045 40212 57022 81501 555 1/110
AAXX 23121 38149 42998 00301 11003 21095 30124 40202 57020 555 14101
AAXX 23121 38178 42998 30903 11019 21160 39949 40245 57024 82071 555 10105
AAXX 23121 38262 42998 30503 11007 21088 30123 40207 57022 80002 555 14102
AAXX 23121 38264 42998 20603 11004 21112 30110 40206 57017 80003 555 14102
AAXX 23121 38396 42997 40903 10012 21111 30077 40205 57019 80001 555 14101
AAXX 23121 38403 42997 00902 10011 21107 30103 40226 57023 80001 555 10006
AAXX 23121 38413 42998 20803 11018 21066 39954 40256 57023 80001 555 1/102
AAXX 23121 38457 42997 22701 10024 21059 39644 40241 57010 82040 555 14101
AAXX 23121 38462 42999 00000 11010 21102 38783 48514 54000 555 1/107
AAXX 23121 38565 32998 50000 10033 21089 39637 40229 57011 80003 555 14103
AAXX 23121 38579 32997 00000 10027 21095 39817 40243 56009 555 14101
AAXX 23121 38583 32997 03401 10002 21069 39919 40249 57017 555 11000
AAXX 23121 38611 41996 02301 10000 21046 39695 40284 57010 71000 555 11000
AAXX 23121 38618 42997 00000 11002 21080 39552 40262 56010 555 10102
AAXX 23121 38683 42997 80702 10016 21104 39939 40222 57018 80001 555 10001
AAXX 23121 38696 32999 00502 10068 21048 39352 40207 57007 555 11102
AAXX 23121 38812 42997 60000 10054 21042 39748 40204 57016 80001 555 10004
AAXX 23121 38927 31957 61503 10058 21065 39842 40223 57014 70512 80001 555 11000
AAXX 23124 40356 32960 01904 10160 20030 39166 48474 84020 333 59009 84360 555 04410 50135
AAXX 23124 40357 32660 20705 10209 20070 39502 40132 82500 333 58002 82640
AAXX 23124 40360 32960 40304 10168 20010 39551 40131 80005 333 58000 84270
AAXX 23124 40361 32960 22705 10232 20020 39370 40129 82040 333 58001 82360
AAXX 23124 40362 32960 03112 10235 20000 39614 40120 333 59018
AAXX 23124 40373 32960 32308 10268 20080 39715 40128 83030 333 59044 83360
AAXX 23124 40375 32660 32405 10221 20010 39248 40108 82200 333 59007 82840
AAXX 23124 40377 32960 02710 10252 20070 39663 40141 333 59034
AAXX 23124 40394 32960 02310 10248 20060 39009 48494 333 59023 555 04410 50118
AAXX 23124 40400 32960 02910 10260 20170 30106 40134 333 59004
AAXX 23124 40401 32660 32306 10264 20090 39429 40117 83500 333 59008 83640
AAXX 23124 40405 32960 02005 10253 20060 39401 40138 333 59023
AAXX 23124 40416 32960 61407 10225 20110 30134 40154 86010 333 59027 86458
AAXX 23124 40417 32960 51606 10231 20060 30149 40164 80002 333 59032 85070
AAXX 23124 40420 32960 41809 10226 20050 39959 40168 80002 333 59026 84070
AAXX 23124 40430 32960 01904 10286 20090 39402 40111 333 59015
AAXX 23124 40435 32960 02212 10240 20010 39108 40159 333 59024
AAXX 23124 40437 32960 22108 10226 20030 39454 40159 80002 333 59031 82070
AAXX 23124 40439 32660 42108 10278 20190 30106 40116 82530 333 59003 82640
AAXX 23124 41024 32960 02607 10310 20190 30092 40111 333 59007
AAXX 23124 41030 32660 41902 10326 20180 39832 40100 84400 333 59009 84640
AAXX 23124 41036 32560 23108 10244 20060 38554 48504 82100 333 59009 82830 555 04410 50101
AAXX 23124 41055 32960 01303 10244 20070 38353 48499 333 59012 555 04410 50114
AAXX 23124 41061 32960 01210 10233 20110 39434 40142 333 59022
AAXX 23124 41084 32960 00108 10281 20050 38844 48500 333 59017 555 04410 50104
AAXX 23124 41112 32460 11810 10211 20110 37942 48508 81100 333 59007 81818 555 04410 50142
AAXX 23124 41114 32960 00000 10242 21080 37972 48503 333 59007 555 04410 50121
AAXX 23124 41128 32960 01504 10260 21030 38806 48510 333 59021 555 04410 50137
AAXX 23124 41136 32960 00000 10235 20050 39330 40153 333 59018
AAXX 23124 41140 32560 21814 10293 20200 30111 40123 82100 333 59009 82830
AAXX 23124 94310 46/// /3212 10292 20271 30010 40021 52019 333 10344
AAXX 23124 95283 46/// /3006 10257 20245 30055 40062
AAXX 23124 95288 46/// /1210 10280 30034 40049 52010
AAXX 23124 95675 46/// /1208
AAXX 23124 95872 46/// /2110
AAXX 23124 95961 35/// /1607 10137 30108 40149 52001
BBXX ZCAS2 23123 99326 11347 41298 70113 10105 20008 40160 54000 70222 87700 22243 00220 21001 30000 80065
BBXX 2ALD3 23123 99130 11297 41/98 30516 10280 20253 40073 53014 70311 83/// 22234 04270 299// 80260
AAXX 23124 89571 41575 32211 10023 21018 39797 49825 56016 71511 81551
AAXX 23121 33135 /1697 83105 11018 21046 30041 40227 52003 72682 8235/ 555 69901
AAXX 23121 37395 42999 70906 10152 20043 39975 40111 57007 87030 555 10015
AAXX 23121 37409 41598 80906 10021 20016 38720 48448 57002 70242 8654/ 333 95000 555 1/101
AAXX 23121 37432 41697 80000 10048 20031 38907 48453 57013 70362 885// 555 12003
AAXX 23121 37514 42699 30000 10080 21014 38988 40125 57024 83540
AAXX 23121 37545 41594 70000 10062 20036 39646 40160 57009 71062 87400
AAXX 23121 37621 42697 70000 10059 21004 39515 40156 57013 87500 555 11006
AAXX 23121 37484 NIL
AAXX 23124 89571 41575 32211 10023 21018 39797 49825 56016 71511 81551
AAXX 23124 40550 37/65 /1907 10223 20086 40151 58017 70063 333 0/025 55307 00428 10000 21156 30352 41182 51560 61507 55407 40804 90069 90400 91019 91121 91207 91305
AAXX 23124 40551 36/// /1108 10229 20046 333 0//// 90401 91023 91123 91217 91309
AAXX 23124 40552 35/66 /1215 10216 20096 40150 56016 333 0/023 55310 90069 90401 91019 91121 91215 91315
AAXX 23124 40553 37/65 /1520 10197 20112 40155 56014 70063 333 0/021 55310 90069 90400 91023 91125 91219 91317
AAXX 23124 40568 36/// /1210 10170 20142 333 0//// 90400 91011 91113 91211 91307
AAXX 23124 40569 NIL
AAXX 23124 40570 35/70 /1604 10248 21013 40137 56020 333 0/027 55307 90069 90400 91007 91115 91209 91307
AAXX 23124 40571 NIL
AAXX 23124 40572 NIL
AAXX 23124 40573 36/// /1511 10234 20007 333 0//// 90400 91015 91117 91211 91305
AAXX 23124 40580 36/// /1105 10224 20092 333 0/028 553// 00692 10000 21440 30278 41179 51657 61719 55407 41162 90401 91013 91117 91207 91305
AAXX 23124 40581 36/// /1504 10207 20112 333 0//// 90401 91009 91117 91205 91303
AAXX 23124 40582 42960 51212 10209 20101 40156 55014 80001 333 00024 55302 00601 10000 21501 30476 41195 51629 61977 55407 41025 85070 90400 91017 91123 91217 91313
AAXX 23124 40583 NIL
AAXX 23124 40585 36/// /1613 10171 20134 222// 1//// 3//// 4//// 70/// 333 0//// 90400 91017 91125 91219 91317
AAXX 23124 40586 46/// /1308 10239 20047 333 0//// 90401 91015 91117 91211 91309
AAXX 23124 40587 36/// /1308 10248 20050 333 0/029 553// 00637 10000 21461 30394 41194 51629 61855 55407 41067 90401 91015 91117 91211 91309
AAXX 23124 40588 45/68 /1312 10202 20111 40164 55013 333 0/023 55301 90069 90400 91019 91123 91215 91311
AAXX 23124 40589 NIL
AAXX 23124 40590 36/// /1412 10242 20013 333 0//// 90401 91015 91117 91213 91311
AAXX 23124 40591 NIL
AAXX 23124 40592 35/67 /1508 10222 20050 40155 55017 333 0/024 55309 00546 10000 21141 30245 41198 51562 61386 55407 40897 90069 90400 91013 91117 91211 91307
AAXX 23124 40593 46/// /1408 10180 20136 333 0//// 90400 91011 91119 91215 91311
AAXX 23124 40594 46/// /1907 10214 20107 333 0//// 90400 91017 91123 91217 91311
AAXX 23124 40596 46/// /1413 10194 20133 333 0//// 90400 91015 91119 91217 91313
BBXX PDNN 23123 99469 70093 41598 33040 10132 20061 40284 52035 70111 82260 22223 02138 20307 327// 40806 80095 90697
BBXX UELS 23121 99492 10049 41497 82220 10130 40162 54000 72162 82400 22232 20405 330//
AAXX 23124 61401 32960 00812 10230 20106 39825 40245 333 0//00 58005
AAXX 23124 61404 33960 00814 10216 21080 39838 40238 333 0//00 59002
AAXX 23124 61415 31958 30611 10210 20041 30220 40225 70600 80002 333 0//00 58007 83080
AAXX 23124 61421 32970 00610 10250 20010 39917 40175 333 0//00 59001
AAXX 23124 61437 31956 20408 10245 20080 30081 40220 705// 80002 333 0//00 58018 82073
AAXX 23124 61442 31925 50918 10243 21092 30194 40198 70722 80002 333 0//00 58008 85080
AAXX 23124 61450 31940 21016 10224 21021 39737 40199 707// 80001 333 0//00 59002 82073
AAXX 23124 61461 NIL
AAXX 23124 61489 NIL
AAXX 23124 61492 32958 51010 10265 21050 30171 40191 80002 333 0//00 59002 85073
AAXX 23124 61497 34956 00812 10270 21017 39919 4//// 707// 333 0//00 59001
AAXX 23124 61498 31957 30406 10246 20062 30038 40172 705// 80001 333 0//00 59004 83073
AAXX 23124 61499 31956 30408 10250 21032 39923 40180 706// 80001 333 0//00 59003 83073
AAXX 23124 61974 12580 51805 10320 20239 40084 60001 83842 333 59015 83820 94323
AAXX 23124 61986 12580 51310 10292 20247 40109 60001 85800 333 59002 85820 94323
AAXX 23124 61988 11358 81117 10248 20231 40135 60021 72582 88802 333 0//11 59004 81708 85816 84645 91137
AAXX 23124 61989 11460 71018 10254 20234 40143 69961 78082 87802 333 0//11 59001 81710 86815 84645
AAXX 23124 61990 12475 31210 10284 20220 40147 60001 83200 333 58000 83818 94323
AAXX 23124 61995 12475 41208 10261 20194 39664 60001 84800 333 58004 84818 94322
AAXX 23121 50468 NIL
AAXX 23121 50953 NIL
AAXX 23121 51076 NIL
AAXX 23121 51243 NIL
AAXX 23121 51288 32980 01601 11147 21204 38420 57007 333 05300
AAXX 23121 51463 NIL
AAXX 23121 51573 NIL
AAXX 23121 51709 NIL
AAXX 23121 52533 NIL
AAXX 23121 52652 NIL
AAXX 23121 52866 NIL
AAXX 23121 52983 NIL
AAXX 23121 53463 NIL
AAXX 23121 53513 NIL
AAXX 23121 53588 NIL
AAXX 23121 53772 NIL
AAXX 23121 53915 NIL
AAXX 23121 54218 NIL
AAXX 23121 54337 NIL
AAXX 23121 54342 NIL
AAXX 23121 54401 NIL
AAXX 23121 54471 NIL
AAXX 23121 54497 NIL
AAXX 23121 54511 NIL
AAXX 23121 54823 NIL
AAXX 23121 56080 NIL
AAXX 23121 56096 NIL
AAXX 23121 57083 NIL
AAXX 23121 48845 02498 80202 10184 20153 30185 40192 52016 60014 888// 333 01017 10196 58013 60012 70014 8389 4 88697
AAXX 23121 48840 32498 80501 10178 20130 30184 40190 52013 888// 333 00017 10180 58023 70000 83894 88696
BBXX 44139 23121 99442 70571 46/// /0602 10044 40197 52006 22200 00065 11006 70032 333 91203
AAXX 23124 17600 11560 71911 10185 20108 30075 40084 58024 69911 70282 879// 333 82820 81930 85650 92446
AAXX 23124 17601 11668 62019 10179 20065 30062 40092 56021 60041 70181 84850 91150 333 81830 83835 85362 90710 91131 98664 98175
AAXX 23124 17607 41565 51811 10171 20073 39898 40087 57029 72582 84980 333 82820 81925 83640
AAXX 23124 17609 11565 62122 10185 20087 30091 40095 58021 60021 70182 85880 333 81825 83840 91031 91134
AAXX 23124 17370 11560 72304 10125 20078 30127 40131 55006 69961 78082 84270 333 84830 87459 92437
BBXX A8AJ4 23124 99447 11495 41096 61237 10020 21004 49920 57020 72672 84343 22253 04040 20606 307// 41212 5//// 6//// 80010 ICE /////
BBXX C6SI6 23124 99351 11291 46/// /3307 11002 21175 40227 58001 7//// 8//// 22200 0//// 2////
BBXX DGHX 23123 99316 11399 41/98 /3230 10130 20063 40115 52015 70022 8//// 22264 00200 2//// 80095
BBXX OZBY2 23124 99357 11478 41/// /3336 10090 20050 40070 54000 7//21 8//// 22224 00180 20412 3//// 4//// 5//// 6//// 80070 ICE /////
BBXX PBOF 23123 99379 11226 41/96 /2721 10030 21053 40230 52010 77488 8//// 22234 04097 20605 80000 90696
BBXX WCX8883 23124 99335 11367 41498 10119 10100 20030 40150 57010 7//00 811// 22215 00180 20803 33001 40802 5//// 6//// 80065 ICE /////
BBXX WDB3161 23124 99333 11357 41798 23519 10080 20030 40142 52020 70200 821// 22254 00221 20302 3//// 4//// 5//// 6//// 80055 ICE /////
BBXX ZCAS2 23123 99326 11347 41298 70113 10105 20008 40160 54000 70222 87700 22243 00220 21001 30000 80065
BBXX 46035 23121 99571 71778 46/// /3612 1//// 40141 53026 91150 22200 10806 20806 70032 333 91214 555 11122 22130 31128 43514 61149 356121 353123 346116 341109 350106 357108 83513 91134
BBXX 9VVN 23124 99539 71539 41897 80730 10040 21040 49950 57040 70322 8877/ 22224 04060 2//// 3//// 4//// 5//// 6//// 80010 ICE /////
BBXX A8HG2 23124 99544 71698 41398 20125 10030 21021 40040 52030 70200 821// 22264 04040 20405 3//// 4//// 5//// 80010
BBXX A8SI3 23123 99547 71746 43/98 1//// 10010 21030 40150 52030 22264 00020 81010
BBXX A8XD5 23124 99419 71617 41/97 /2643 10080 20038 40080 54000 70085 8//// 22223 04090 29910 325// 40510 80060
BBXX DQXQ 23124 99320 71648 41/97 80116 10182 20118 40265 58005 70022 8//// 22225 00190 299// 329// 41006 80144
BBXX LAIG7 23124 99330 71785 41596 30920 10170 20100 40270 54000 70121 8216/ 22223 00204 20503 333 // 40705 5//// 6//// 80130 ICE /////
BBXX V7NV4 23124 99300 71702 41797 80722 10190 20175 40250 53015 7//21 86722 22263 00220 20306 30606 40306 50306 6//// 80180 ICE /////
BBXX 44139 23121 99442 70571 46/// /0602 10044 40197 52006 22200 00065 11006 70032 333 91203
AAXX 23124 64650 32560 42206 10307 20188 39683 40088 82102 333 59004 82826 83080 94902 95872
AAXX 23124 88963 12560 31815 10016 21040 39873 49903 52013 69904 83500 333 10016 21009 41000 56300 83625 92407 94060 95000
AAXX 23124 88968 01359 83204 10003 21013 39782 49797 50003 69954 77072 8472/ 333 10010 21006 56609 69901 84708 88530 90004 90088 90240 90292 90910 92416 92732 92801 93000 93100 94075 95075 96010
AAXX 23124 89034 01240 80502 11033 21054 39592 49908 52008 69904 77172 886// 333 11033 21054 56199 69901 88705 90020 90070 92406 92800
AAXX 23124 89053 01562 30904 10018 20010 39906 49920 52023 69924 70270 83700 333 10022 21010 56700 69901 83720 92417 94070 95000
AAXX 23124 89055 32265 51408 11022 21025 39656 49899 52005 85630 333 11018 21050 56450 85706 95177
AAXX 23124 89066 12570 70000 10000 21011 39902 49911 58001 60044 84670 333 10010 21014 56770 84730 87360 92407 94070
AAXX 23124 06670 01256 81404 10064 20051 39743 40261 5//// 69911 71022 886// 333 553// 20205 60005 82704 87726
AAXX 23124 06700 31259 73101 10067 20050 39764 40264 5//// 71022 875// 333 553// 20580 82705 87630
AAXX 23124 06680 31989 02518 11009 21022 37548 47092 5//// 70241 333 553// 21462 444 87171
AAXX 23124 06990 31564 31203 10068 20022 39707 40261 5//// 70511 83500 333 553// 21274 83632
AAXX 23124 06760 31935 01703 10073 20005 39789 40242 5//// 70500 333 553// 21192
AAXX 23124 06720 33/// ///// 10049 20032 39695 40282 5//// 333 553// 20731
AAXX 23124 41287 36/// /0105 10256 20010 30113 40181 333 0E013 59009
AAXX 23124 06610 31559 80000 10065 20051 39672 40264 5//// 71022 886// 333 553// 20342 88726
AAXX 23124 91753 04586 /0705 10269 20240 30034 40066 58009 69921 700// 333 69907 90710 91109 555 69905
AAXX 23124 91754 06/// /0402 10271 20238 30021 40062 58010 60001 333 10312 55047 2//// 59008 60007 555 60005
AAXX 23123 64810 32459 52812 10312 20253 30078 40104 82230 333 55/// 58001 82813 85363
BBXX 41053 23121 99185 70661 46/// /1304 10250 40177 53009 91200 22200 00267 10904 70021 333 91207
AAXX 23121 33466 /1464 82903 11015 21045 30036 40230 58010 77177 8657/ 333 85719 555 69901
BBXX 41053 23121 99185 70661 46/// /1106 10251 40177 91150 333 91208
BBXX 41053 23121 99185 70661 46/// /1306 10249 40175 91140 333 91210
AAXX 23124 71951 11256 81820 10012 20010 39848 40115 52050 60061 76176 887// 333 10052 20001 43023 70112 90983 93101
AAXX 23124 71311 16/// /2002 11014 21019 30145 40170 56014 60001 333 10081 21028 70003
AAXX 23124 71317 17/// /1202 11014 21018 30123 40170 56015 60011 7//4/ 333 10078 21038 4/001 70016 555 10010
AAXX 23124 71954 46/// /0804 11127 21141 39783 40171 50001 6///1 333 11105 21128 7////
AAXX 23124 71959 16/// ///// 10004 20000 60001 333 10089 20001 70000
AAXX 23124 71970 16/// /1504 11099 21107 39542 40138 58013 60001 333 11006 21121 70000
AAXX 23124 71977 46/// /3603 11202 21202 39284 40010 58005 6///1 333 11183 21235 4/027 7////
AAXX 23124 71978 46/// /0208 11258 21286 39726 40050 58002 6///1 333 11208 21268 4/003 7////
AAXX 23124 71989 16/// /0602 11363 21401 30046 40063 58002 60001 333 11240 21387 4/051 70000
AAXX 23124 71556 16/// /1906 11120 21130 39568 40188 51007 60001 333 11018 21124 4/002 70000
AAXX 23124 71564 16/// /3109 11050 21089 39761 40137 53025 60001 333 11014 21057 70000
AAXX 23124 71579 16/// /3103 11056 21086 39823 40110 53008 60001 333 11032 21056 70000
AAXX 23124 71581 17/// /3503 11110 21129 39710 40203 53024 69931 7//4/ 333 10006 4/003 70020 555 10020
AAXX 23124 71585 46/// /1105 11089 21094 39606 40068 58036 6///1 333 21131 4/012 7////
AAXX 23124 71837 16/// ///// 10006 60001 333 10019 21020 70000
AAXX 23124 71839 16/// ///// 10026 60001 333 10026 21010 70000
AAXX 23124 71849 16/// /3110 11079 21094 39819 40122 53011 60001 333 11040 21081 4/001 70000
AAXX 23124 71822 12574 10000 11312 21365 39749 40255 53006 60001 81501 333 11142 21313 79999
AAXX 23124 71758 16/// /1903 11007 21017 30105 40183 53001 60001 333 10092 21017 70000
AAXX 23124 71771 46/// /2604 10066 20019 30122 40143 51069 6///1 333 10089 20062 7////
AAXX 23124 71087 46/// /1205 11069 21089 39715 49920 58053 6///1 333 11122 21216 7////
AAXX 23124 71501 16/// /3207 11257 21284 30073 40075 58004 60001 333 11219 21299 4/054 70000
AAXX 23124 71270 17/// /3215 11051 21082 30002 40227 53033 69951 7//4/ 333 10051 21051 70049
AAXX 23124 71291 16/// /1402 11121 21143 39935 40241 56018 60001 333 11070 21128 4/010 55/// 20000 70000
AAXX 23124 71295 17/// /1006 11090 21104 39688 40144 56022 60011 7//4/ 333 11092 21105 4/018 55/// 20000 70010 555 10010
AAXX 23124 71296 17/// /3312 11048 21061 39899 40210 53035 69931 7//4/ 333 10045 4/002 70023 555 10020
AAXX 23124 71920 16/// /1119 10048 20034 30142 40148 58022 60001 333 10099 20023 70006
AAXX 23124 71452 46/// /3008 11073 21093 39463 40187 53015 6///1 333 11006 21075 7////
AAXX 23124 71455 46/// /2410 11081 21097 39370 40182 56008 6///1 333 11015 21087 7////
AAXX 23124 71456 16/// /2305 11124 21129 39567 40179 51008 60001 333 11043 21127 70000
AAXX 23124 71459 16/// /2312 11069 21102 39356 40181 58013 60001 333 11008 21122 70000
AAXX 23124 71465 46/// /3109 11017 21048 30011 40231 53029 6///1 333 10062 21017 7////
AAXX 23124 71470 16/// /0000 11188 21207 39393 40028 56024 60001 333 11164 21214 70000
AAXX 23124 71476 17/// /2219 30112 53093 60061 7//4/ 333 70214
AAXX 23124 71478 17/// /2321 10071 20047 30086 40223 51043 60011 7//4/ 333 10083 20052 70042
AAXX 23124 71480 17/// /3005 11199 21223 39834 49957 58001 60031 7//4/ 333 11146 21200 4/025 70038 555 10040
AAXX 23124 71482 46/// /2514 10056 30178 40217 51051 6///1 333 10059 20030 7////
AAXX 23124 71484 16/// /2610 10068 20041 30125 40143 51085 60001 333 10078 20059 70000
AAXX 23124 71487 16/// /2512 11080 21101 39312 40195 51005 60001 333 11016 21082 70000
AAXX 23124 71492 46/// ///04 11227 21247 39300 40011 56010 6///1 333 11127 21258 4/014 7//// 555 10010
AAXX 23124 71868 16/// /0904 11085 21100 39718 40168 51016 60001 333 11040 21122 70000
AAXX 23124 71015 16/// ///// 11002 60001 333 10008 21020 70000
AAXX 23124 71017 16/// /2014 11261 21290 39989 40004 58014 60001 333 11202 21261 70000
AAXX 23124 71018 16/// ///04 11254 21279 39944 40034 58012 60001 333 11234 21294 70000
AAXX 23124 71019 46/// /0601 11030 21030 39852 40157 55011 6///1 333 11001 21043 7////
AAXX 23124 71020 46/// /0302 11084 21093 39630 49880 56027 6///1 333 10034 21084 4/008 7////
AAXX 23124 71021 46/// /0000 11166 21187 39555 49907 56025 6///1 333 11104 21166 4/004 7////
AAXX 23124 71631 16/// /3309 11061 21078 39709 40219 53029 60001 333 10025 21061 70000
AAXX 23124 71150 46/// /3007 11140 21151 39458 40156 52012 6///1 333 11045 21146 7////
AAXX 23124 71155 16/// ///// 11067 21096 60001 333 10001 21112 4/002 70000
AAXX 23124 71157 46/// ///// 11042 21082 6///1 333 10028 21057 7////
AAXX 23124 71158 17/// /0604 11074 21085 39853 40135 53017 69951 7//4/ 333 11077 21108 70022
AAXX 23124 71159 16/// /2806 11007 21042 30084 40157 53011 60001 333 10054 21017 70000
AAXX 23124 71160 16/// /1202 11154 21173 39830 40048 58030 60001 333 11154 21165 70000
AAXX 23124 71162 16/// /1022 11143 21158 39762 49974 58061 60001 333 11139 21161 70000
AAXX 23124 71164 46/// /0306 11196 21224 39925 40007 56015 6///1 333 11136 21198 7////
AAXX 23124 71166 46/// /0201 39319 56022 6///1 333 7////
AAXX 23124 71168 16/// /0000 11069 21104 39631 40241 56034 60001 333 11004 21111 70000
AAXX 23124 71170 16/// /3008 11108 21126 60001 333 11023 21109 70000
AAXX 23124 71172 16/// ///// 11117 21144 30006 40229 53030 60001 333 10035 21118 4/015 70000 555 10140
AAXX 23124 71726 16/// /3602 11179 21201 39655 40217 53011 60001 333 11017 21179 4/019 70000 555 10030
AAXX 23124 71807 16/// /3310 10015 21019 30148 40167 51031 60001 333 10084 20015 70101
AAXX 23124 71472 17/// /2813 10062 20003 69921 7//4/ 333 10084 20055 70046
AAXX 23124 71669 16/// /0801 11025 21143 38550 40185 56016 60001 333 10021 21031 70000
AAXX 23124 71851 16/// /3213 11065 21087 39796 40137 53023 60001 333 11013 21065 70000
AAXX 23124 71885 16/// ///// 10009 60001 333 10039 21014 70000
AAXX 23124 71886 16/// /3406 11106 21124 39549 40169 51012 60001 333 11038 21106 4/006 55/// 20000 70000
AAXX 23124 71246 16/// /1607 11006 21055 39390 40054 58022 60001 333 10001 21081 70000
AAXX 23124 71701 11912 80000 11008 21011 30102 40165 58010 60011 77122 8877/ 333 10032 21008 42001 70006 90921 93101
AAXX 23124 71724 16/// /0205 11025 21039 30147 40155 53006 60001 333 10009 21025 70043
AAXX 23124 71744 16/// /0401 11023 21031 30131 40173 55006 60001 333 10013 21027 4/001 70009
AAXX 23124 71402 46/// /2818 11017 21056 30013 40128 51027 6///1 333 10015 21019 7////
AAXX 23124 71407 16/// /2511 11292 21327 30057 40079 57011 60001 333 11291 21321 70000
AAXX 23124 71427 16/// /3604 11121 21171 30203 40211 52014 60001 333 10005 21121 70000
AAXX 23124 71449 17/// /2303 11044 21055 39694 40102 56018 60021 7//4/ 333 11055 21061 70026
AAXX 23124 71355 16/// /3408 11291 21321 39919 40007 52020 60001 333 11203 21291 4/012 70000
AAXX 23124 71357 16/// /0510 11169 21186 39976 49983 52013 60001 333 11140 21169 4/056 70009 555 10030
AAXX 23124 71362 16/// /1404 11118 21133 39742 40002 58055 60001 333 11137 21209 70000
AAXX 23124 71363 16/// /1913 11297 21329 39983 40040 58025 60001 333 11319 21354 70000
AAXX 23124 71364 16/// /3609 11243 21271 39912 40050 55000 60001 333 11210 21243 4/025 70000
AAXX 23124 71365 16/// /1409 11102 21115 39694 49906 56035 60001 333 11113 21142 4/020 70000 555 10010
AAXX 23124 71372 17/// /3601 10001 21001 60041 7//4/ 333 10035 20001 70036
AAXX 23124 71388 46/// /3004 11128 21158 30012 40205 50004 6///1 333 10001 21128 7////
AAXX 23124 71110 16/// /2909 11003 21006 30105 40165 51026 60001 333 10073 21008 4/001 70189
AAXX 23124 71141 16/// /1310 11262 21287 39996 40023 56025 60001 333 11310 21324 4/004 70000
AAXX 23124 71147 16/// /3208 11058 21089 60001 333 11021 21060 70000
AAXX 23124 71149 16/// /3311 11052 21092 60001 333 11024 21054 70003
BBXX 41037 23121 99340 70775 46/// /2508 10193 40172 53018 91200 22200 00175 333 91210
AAXX 23124 71631 16/// /3309 11061 21078 39709 40219 53029 60001 333 10025 21061 70000
AAXX 23124 71472 17/// /2813 10062 20003 69921 7//4/ 333 10084 20055 70046
AAXX 23124 71726 16/// /3602 11179 21201 39655 40217 53011 60001 333 11017 21179 4/019 70000 555 10030
AAXX 23124 71807 16/// /3310 10015 21019 30148 40167 51031 60001 333 10084 20015 70101
AAXX 23124 71837 16/// ///// 10006 60001 333 10019 21020 70000
AAXX 23124 71839 16/// ///// 10026 60001 333 10026 21010 70000
AAXX 23124 71849 16/// /3110 11079 21094 39819 40122 53011 60001 333 11040 21081 4/001 70000
AAXX 23124 60664 36/// /0000 10164 21006
AAXX 23124 71951 11256 81820 10012 20010 39848 40115 52050 60061 76176 887// 333 10052 20001 43023 70112 90983 93101
AAXX 23124 60645 36/// /0000 10222 20020
AAXX 23124 71822 12574 10000 11312 21365 39749 40255 53006 60001 81501 333 11142 21313 79999
AAXX 23124 60612 36/// /0708 10173 21061
AAXX 23124 78922 46/// /0821 10251 20214 30116 40161 53016
AAXX 23124 60621 36/// /0311 10208 20011
AAXX 23124 71758 16/// /1903 11007 21017 30105 40183 53001 60001 333 10092 21017 70000
AAXX 23124 71771 46/// /2604 10066 20019 30122 40143 51069 6///1 333 10089 20062 7////
AAXX 23124 71311 16/// /2002 11014 21019 30145 40170 56014 60001 333 10081 21028 70003
AAXX 23124 71317 17/// /1202 11014 21018 30123 40170 56015 60011 7//4/ 333 10078 21038 4/001 70016 555 10010
AAXX 23121 89064 11580 70502 10009 29079 49912 52021 69974 70177 8254/ 333 21008
AAXX 23124 71452 46/// /3008 11073 21093 39463 40187 53015 6///1 333 11006 21075 7////
AAXX 23124 71455 46/// /2410 11081 21097 39370 40182 56008 6///1 333 11015 21087 7////
AAXX 23124 71456 16/// /2305 11124 21129 39567 40179 51008 60001 333 11043 21127 70000
AAXX 23124 71459 16/// /2312 11069 21102 39356 40181 58013 60001 333 11008 21122 70000
AAXX 23124 71465 46/// /3109 11017 21048 30011 40231 53029 6///1 333 10062 21017 7////
AAXX 23124 71470 16/// /0000 11188 21207 39393 40028 56024 60001 333 11164 21214 70000
AAXX 23124 71476 17/// /2219 30112 53093 60061 7//4/ 333 70214
AAXX 23124 71478 17/// /2321 10071 20047 30086 40223 51043 60011 7//4/ 333 10083 20052 70042
AAXX 23124 71480 17/// /3005 11199 21223 39834 49957 58001 60031 7//4/ 333 11146 21200 4/025 70038 555 10040
AAXX 23124 71482 46/// /2514 10056 30178 40217 51051 6///1 333 10059 20030 7////
AAXX 23124 71484 16/// /2610 10068 20041 30125 40143 51085 60001 333 10078 20059 70000
AAXX 23124 71487 16/// /2512 11080 21101 39312 40195 51005 60001 333 11016 21082 70000
AAXX 23124 71492 46/// ///04 11227 21247 39300 40011 56010 6///1 333 11127 21258 4/014 7//// 555 10010
AAXX 23124 71246 16/// /1607 11006 21055 39390 40054 58022 60001 333 10001 21081 70000
AAXX 23124 71920 16/// /1119 10048 20034 30142 40148 58022 60001 333 10099 20023 70006
AAXX 23124 71868 16/// /0904 11085 21100 39718 40168 51016 60001 333 11040 21122 70000
AAXX 23124 60663 36/// /0310 10178 21014
AAXX 23124 71270 17/// /3215 11051 21082 30002 40227 53033 69951 7//4/ 333 10051 21051 70049
AAXX 23124 71291 16/// /1402 11121 21143 39935 40241 56018 60001 333 11070 21128 4/010 55/// 20000 70000
AAXX 23124 71295 17/// /1006 11090 21104 39688 40144 56022 60011 7//4/ 333 11092 21105 4/018 55/// 20000 70010 555 10010
AAXX 23124 71296 17/// /3312 11048 21061 39899 40210 53035 69931 7//4/ 333 10045 4/002 70023 555 10020
AAXX 23124 71087 46/// /1205 11069 21089 39715 49920 58053 6///1 333 11122 21216 7////
AAXX 23124 71150 46/// /3007 11140 21151 39458 40156 52012 6///1 333 11045 21146 7////
AAXX 23124 71155 16/// ///// 11067 21096 60001 333 10001 21112 4/002 70000
AAXX 23124 71157 46/// ///// 11042 21082 6///1 333 10028 21057 7////
AAXX 23124 71158 17/// /0604 11074 21085 39853 40135 53017 69951 7//4/ 333 11077 21108 70022
AAXX 23124 71159 16/// /2806 11007 21042 30084 40157 53011 60001 333 10054 21017 70000
AAXX 23124 71160 16/// /1202 11154 21173 39830 40048 58030 60001 333 11154 21165 70000
AAXX 23124 71162 16/// /1022 11143 21158 39762 49974 58061 60001 333 11139 21161 70000
AAXX 23124 71164 46/// /0306 11196 21224 39925 40007 56015 6///1 333 11136 21198 7////
AAXX 23124 71166 46/// /0201 39319 56022 6///1 333 7////
AAXX 23124 71168 16/// /0000 11069 21104 39631 40241 56034 60001 333 11004 21111 70000
AAXX 23124 71170 16/// /3008 11108 21126 60001 333 11023 21109 70000
AAXX 23124 71172 16/// ///// 11117 21144 30006 40229 53030 60001 333 10035 21118 4/015 70000 555 10140
AAXX 23124 71954 46/// /0804 11127 21141 39783 40171 50001 6///1 333 11105 21128 7////
AAXX 23124 71959 16/// ///// 10004 20000 60001 333 10089 20001 70000
AAXX 23124 71970 16/// /1504 11099 21107 39542 40138 58013 60001 333 11006 21121 70000
AAXX 23124 71977 46/// /3603 11202 21202 39284 40010 58005 6///1 333 11183 21235 4/027 7////
AAXX 23124 71978 46/// /0208 11258 21286 39726 40050 58002 6///1 333 11208 21268 4/003 7////
AAXX 23124 71989 16/// /0602 11363 21401 30046 40063 58002 60001 333 11240 21387 4/051 70000
AAXX 23124 71556 16/// /1906 11120 21130 39568 40188 51007 60001 333 11018 21124 4/002 70000
AAXX 23124 71564 16/// /3109 11050 21089 39761 40137 53025 60001 333 11014 21057 70000
AAXX 23124 71579 16/// /3103 11056 21086 39823 40110 53008 60001 333 11032 21056 70000
AAXX 23124 71581 17/// /3503 11110 21129 39710 40203 53024 69931 7//4/ 333 10006 4/003 70020 555 10020
AAXX 23124 71585 46/// /1105 11089 21094 39606 40068 58036 6///1 333 21131 4/012 7////
AAXX 23124 60619 36/// /0110 10164 20028
BBXX 61002 23124 99421 10047 46/// ///15 10129 2//// 40236 57006 22200 00140 10503 70015
AAXX 23124 71669 16/// /0801 11025 21143 38550 40185 56016 60001 333 10021 21031 70000
AAXX 23124 71501 16/// /3207 11257 21284 30073 40075 58004 60001 333 11219 21299 4/054 70000
AAXX 23124 60692 36/// /0217 10243 21055
AAXX 23124 71110 16/// /2909 11003 21006 30105 40165 51026 60001 333 10073 21008 4/001 70189
AAXX 23124 71141 16/// /1310 11262 21287 39996 40023 56025 60001 333 11310 21324 4/004 70000
AAXX 23124 71147 16/// /3208 11058 21089 60001 333 11021 21060 70000
AAXX 23124 71149 16/// /3311 11052 21092 60001 333 11024 21054 70003
AAXX 23124 71015 16/// ///// 11002 60001 333 10008 21020 70000
AAXX 23124 71017 16/// /2014 11261 21290 39989 40004 58014 60001 333 11202 21261 70000
AAXX 23124 71018 16/// ///04 11254 21279 39944 40034 58012 60001 333 11234 21294 70000
AAXX 23124 71019 46/// /0601 11030 21030 39852 40157 55011 6///1 333 11001 21043 7////
AAXX 23124 71020 46/// /0302 11084 21093 39630 49880 56027 6///1 333 10034 21084 4/008 7////
AAXX 23124 71021 46/// /0000 11166 21187 39555 49907 56025 6///1 333 11104 21166 4/004 7////
AAXX 23124 71355 16/// /3408 11291 21321 39919 40007 52020 60001 333 11203 21291 4/012 70000
AAXX 23124 71357 16/// /0510 11169 21186 39976 49983 52013 60001 333 11140 21169 4/056 70009 555 10030
AAXX 23124 71362 16/// /1404 11118 21133 39742 40002 58055 60001 333 11137 21209 70000
AAXX 23124 71363 16/// /1913 11297 21329 39983 40040 58025 60001 333 11319 21354 70000
AAXX 23124 71364 16/// /3609 11243 21271 39912 40050 55000 60001 333 11210 21243 4/025 70000
AAXX 23124 71365 16/// /1409 11102 21115 39694 49906 56035 60001 333 11113 21142 4/020 70000 555 10010
AAXX 23124 71372 17/// /3601 10001 21001 60041 7//4/ 333 10035 20001 70036
AAXX 23124 71388 46/// /3004 11128 21158 30012 40205 50004 6///1 333 10001 21128 7////
AAXX 23124 71701 11912 80000 11008 21011 30102 40165 58010 60011 77122 8877/ 333 10032 21008 42001 70006 90921 93101
AAXX 23124 71724 16/// /0205 11025 21039 30147 40155 53006 60001 333 10009 21025 70043
AAXX 23124 71744 16/// /0401 11023 21031 30131 40173 55006 60001 333 10013 21027 4/001 70009
AAXX 23124 71851 16/// /3213 11065 21087 39796 40137 53023 60001 333 11013 21065 70000
AAXX 23124 71885 16/// ///// 10009 60001 333 10039 21014 70000
AAXX 23124 71886 16/// /3406 11106 21124 39549 40169 51012 60001 333 11038 21106 4/006 55/// 20000 70000
AAXX 23124 71402 46/// /2818 11017 21056 30013 40128 51027 6///1 333 10015 21019 7////
AAXX 23124 71407 16/// /2511 11292 21327 30057 40079 57011 60001 333 11291 21321 70000
AAXX 23124 71427 16/// /3604 11121 21171 30203 40211 52014 60001 333 10005 21121 70000
AAXX 23124 71449 17/// /2303 11044 21055 39694 40102 56018 60021 7//4/ 333 11055 21061 70026
AAXX 23124 60667 36/// /0000 10158 21025
BBXX 44150 23121 99425 70640 46/// /1107 10071 40155 57035 22200 00082 11004 70021 333 91208
BBXX 44150 23121 99425 70640 46/// /1107 10071 40155 57035 22200 00082 11004 70021 333 91208
AAXX 23124 61017 32960 50410 10218 21021 39756 40166 80002 333 0//00 59006 85080
AAXX 23124 61024 32960 11604 10278 21023 39590 40156 80002 333 0//00 58003 81080
AAXX 23124 61036 32962 70610 10300 20008 39906 40144 80008 333 0//00 58003 87280
AAXX 23124 61043 32960 70812 10287 21067 39700 40140 80008 333 0//00 59004 87280
AAXX 23124 61045 32965 50606 10260 21070 39647 40145 80002 333 0//00 58000 85080
AAXX 23124 61049 32960 70804 10272 21007 39808 40127 80008 333 0//00 58000 87280
AAXX 23124 61052 32960 20808 10283 21033 39889 40146 80002 333 0//00 59001 82080
AAXX 23124 61075 32960 51002 10294 20007 39825 40133 80002 333 0//00 58000 87280
AAXX 23124 61080 32960 71008 10275 21038 39730 40150 80008 333 0//00 58003 87280
AAXX 23124 61090 32965 60206 10265 21057 39635 40145 80008 333 0//00 58004 86280
AAXX 23124 61091 32965 30606 10284 20080 39699 40153 80002 333 0//00 58002 83080
AAXX 23124 61096 32962 60408 10283 21035 39760 40141 80008 333 0//00 58001 86280
AAXX 23124 61099 32960 70604 10314 20040 39891 40118 80008 333 0//00 59010 87280
BBXX SBHI 23123 99614 10174 43/92 81824 10024 40093 56040 22202 06042
BBXX SFIR 23124 99461 70289 43/97 42027 10119 40358 53012 22223 00140 20602 41404
BBXX SJCD 23121 99534 71493 43/94 90910 10001 49917 58064 22263 00041
BBXX SMGW 23121 99345 71727 43/98 03005 10153 40293 50000 22224 00195 2//// 4////
BBXX SBLW 23123 99104 70882 43/98 31018 10254 40117 53019 22274 00254 2//// 4////
BBXX SERW 23123 99211 70208 43898 00914 10220 2//// 40214 50006 72000 80030 22252 06210 20604 3//// 4////
AAXX 23124 89002 43/// /0907 11009 21034 39824 49878 54000 7//// 8//// 91147 333 11008 21036 929// 96111
BBXX 9V8797 23124 99063 10943 43/97 82110 10265 40041 54018 22224 00285 2//// 4////
AAXX 23124 78384 12460 10906 10243 20222 40167 60002 81202 333 10298 20241 58012 70000 81818
AAXX 23124
AAXX 23124 78383 12460 10805 10245 20210 40177 60001 81301 333 10295 20240 58010 70000 81916
AAXX 23121 40706 11656 52702 10080 20002 38622 40166 57012 60001 70521 81142 333 81835 85069
AAXX 23121 40718 12560 60000 10108 20079 30167 40138 56013 60001 83606 333 222// 00104 20301 83720 86268
AAXX 23121 40732 11440 51204 10120 20088 30148 40123 56019 60001 71021 85300 333 82712 83935
AAXX 23121 40745 12660 71702 10082 21075 39019 40188 55009 60001 81532 333 81640 83362
AAXX 23121 40754 11658 62302 10065 21099 38826 40191 55015 60001 70522 83370 333 81935 82840 86360
AAXX 23121 40766 12660 72005 10150 21051 38692 40160 57017 60001 84370 333 82935 83640 87359
AAXX 23121 40800 11950 50000 10128 21027 38446 40168 57018 60001 70522 80006 333 85270
AAXX 23121 40811 12660 41802 10220 20078 30151 40177 55005 60001 81439 333 81640 83360
AAXX 23121 40841 12965 60000 10188 21092 38242 40164 56010 60001 80006 333 86270
AAXX 23121 40848 11656 51002 10154 21075 38528 40176 56020 60001 70511 81402 333 81640 85069
AAXX 23121 40856 11958 61006 10114 21432 38637 40206 55009 60001 70522 80006 333 86270
AAXX 23121 40875 12962 61903 10216 21074 30156 40168 56017 60001 80006 333 86269
AAXX 23124 78615 32982 30000 10196 20196 30030 40170 53016 83030 333 10324 20196 30/// 56090 58032 83359
AAXX 23124 78627 31957 00000 10050 20049 38170 53004 71000 333 10268 20046 30/// 58022
AAXX 23124 78637 31482 30000 10222 20216 30129 40145 53008 70391 83500 333 10284 20218 30/// 56200 58023 83618
AAXX 23124 78641 32382 53614 10146 20136 38551 40141 53012 82601 333 10278 20144 30/// 56809 58018 82706 83070
AAXX 23124 78647 31958 00000 10208 20202 30127 40134 53017 71044 333 10340 20200 30/// 58012
AAXX 23121 48916 12698 70000 10268 20236 30026 40073 53001 60044 85508 333 00/// 10286 59018 70035 85696 8729 9
AAXX 23121 48919 02598 70512 10261 20242 30062 40084 52011 69904 8321/ 22200 02272 2//05 333 10278 58002 6990 2 79999 83895 87499
AAXX 23121 48900 32497 51808 10282 20234 30065 40075 52009 85800 333 10324 59006 81894 85696
AAXX 23121 48917 32598 60000 10281 20230 30091 40097 52005 81208 222// 00290 2//00 333 00028 10320 58003 7000 0 81895 86299
AAXX 23121 48914 12598 70702 10279 20232 30076 40078 53011 69904 82208 333 00028 10305 59010 79999 82895 8729 9
AAXX 23121 48918 32498 70704 10256 20214 30080 40091 52010 85208 222// 00267 2//03 333 00026 10287 59003 7000 0 82894 87299
AAXX 23124 78384 12460 10906 10243 20222 40167 60002 81202 333 10298 20241 58012 70000 81818
AAXX 23124 78383 12460 10805 10245 20210 40177 60001 81301 333 10295 20240 58010 70000 81916
AAXX 23124 91631 11599 20913 10278 20236 40063 60001 70200 82100 333 10302 562//
AAXX 23124 78615 32982 30000 10196 20196 30030 40170 53016 83030 333 10324 20196 30/// 56090 58032 83359
AAXX 23124 78627 31957 00000 10050 20049 38170 53004 71000 333 10268 20046 30/// 58022
AAXX 23124 78637 31482 30000 10222 20216 30129 40145 53008 70391 83500 333 10284 20218 30/// 56200 58023 83618
AAXX 23124 78641 32382 53614 10146 20136 38551 40141 53012 82601 333 10278 20144 30/// 56809 58018 82706 83070
AAXX 23124 78647 31958 00000 10208 20202 30127 40134 53017 71044 333 10340 20200 30/// 58012
AAXX 23124 85223 31558 79902 10177 20099 37500 47131 52017 70421 81536 333 20114 30/// 55080 59002 81627 84357 87270
AAXX 23124 85283 32484 70000 10162 20116 37200 47134 52013 81524 333 20122 30011 55100 56100 58007 81613 87070
AAXX 23124 85293 32984 60000 10126 20060 36370 52002 80009 333 20040 30/// 56000 58004 86170
AAXX 23124 85312 32984 20000 10215 20194 38735 52013 80001 333 20175 30/// 55080 56000 58005 82070
AAXX 23124 85345 32984 00000 10264 20201 39568 40021 52006 333 20200 30/// 58007
AAXX 23124 85364 32970 20000 10222 20176 38128 48221 52008 80001 333 20160 30/// 55070 56000 58008 82070
AAXX 23124 85365 32984 00000 10275 20235 39307 40005 51008 333 20189 30/// 58009 555 10057 29079
AAXX 23124 85394 32984 00000 10270 20246 39612 40039 52010 333 20230 30/// 58013
AAXX 23121 37279 42898 70901 10160 20085 39966 40104 58005 87070
AAXX 23121 37308 42998 70000 10057 20006 39505 40156 57009 84530
AAXX 23121 37531 42598 61407 10064 20028 39427 40148 58018 85552
AAXX 23121 37553 41596 80801 10041 20026 39510 40161 57015 76166 8802/ 555 11005
AAXX 23121 37651 16/// ///00 10034 20029 3//// 4//// 5//// 60021
AAXX 23121 37492 NIL
AAXX 23124 65306 32960 50000 10314 20007 39777 40120 80002 333 0//00 58005 85076
AAXX 23124 65319 32958 50000 10325 20040 39611 40121 80002 333 0//00 58001 85076
AAXX 23124 65330 31940 51012 10333 20026 39673 40104 70522 80002 333 0//00 58001 85076
AAXX 23124 65335 32960 51804 10330 20142 39891 40113 80002 333 0//00 58000 85076
AAXX 23124 65344 32458 72008 10310 20247 30100 40111 83802 333 0//00 58000 81613 83815 85076 94919 95837
AAXX 23124 04211 45/84 /0608 11154 21184 39784 49949 54000
AAXX 23124 04220 05584 10509 11118 21160 39855 49908 52007 6///1 333 55300 20004 6///7 81/23
AAXX 23124 04221 45/84 /1301 11189 21302 39866 49906 52006
AAXX 23124 04231 12589 70608 11203 21247 39833 49910 52005 6///1 875// 333 81631 83639 87648
AAXX 23124 04234 47583 30201 11089 21119 39874 49884 52003 70088 333 82/20 83/60
AAXX 23124 04241 47680 80815 11066 21090 39837 49876 52001 70055 333 83/37 88/43 91130
AAXX 23124 04250 07429 72716 11060 21078 39774 49879 52001 60031 78587 333 55300 20000 69917 81/10 83/15 85/29 87/50 91142 91232
AAXX 23124 04254 47420 82711 11063 21094 39782 49897 52011 78588 333 88/12 91143 91231
AAXX 23124 04260 47580 71001 11067 21105 39874 49918 57007 72487 333 87/27
AAXX 23124 04270 47962 80710 11058 21089 39887 49926 57021 72288 333 88/59
AAXX 23124 04272 07872 8//// 11041 21061 39848 49920 57020 69921 77187 333 69917 88/59
AAXX 23124 04312 46/// ///// 11183 21208 39914 49956 57006
AAXX 23124 04320 47/01 /3644 11084 21102 39762 49777 57032 77377 333 55300 91157 91246 91055
AAXX 23124 04339 45/84 ///// 11091 21131 39726 49816 54000 333 55300 20000
AAXX 23124 04360 06/// /2825 11111 21197 39816 49887 52008 6///1 333 55300 20000 6///7 91142
AAXX 23124 04361 46/// /2805 11110 21236 39838 49891 52003
AAXX 23124 04390 05681 52905 11044 21079 39824 49918 57024 60111 333 60067 81/36 85/41
AAXX 23124 41858 31912 42704 10128 20110 30072 40120 71042 84030 333 10145 56090 59020 70000 84362
AAXX 23124 41863 31950 02702 10125 20110 30073 40118 333 10140 59014 70000
AAXX 23124 41886 31430 53202 10152 20130 30090 40112 71042 82570 333 10190 56990 59023 70000 82618 84460
AAXX 23124 41895 NIL
AAXX 23124 41909 NIL
AAXX 23124 41915 NIL
AAXX 23124 41926 NIL
AAXX 23124 41929 NIL
AAXX 23124 41933 31930 53101 10160 20160 30103 40112 70500 83011 333 10205 56099 59020 70000 83458
AAXX 23124 41939 NIL
AAXX 23124 41941 NIL
AAXX 23124 41946 31950 20000 10168 20120 30112 40116 70500 80001 333 10197 56009 70000 82080
AAXX 23124 41947 NIL
AAXX 23124 41951 NIL
AAXX 23124 41953 31940 00000 10166 20140 30099 40105 70500 333 10193 59017 70000
AAXX 23124 41958 31940 00000 10148 20130 30104 40106 70500 333 10186 59020 70000
AAXX 23124 41960 32950 00000 10147 20130 30106 40111 333 10182 59017 70000
AAXX 23124 41963 NIL
AAXX 23124 41964 NIL
AAXX 23124 41965 NIL
AAXX 23124 41966 31440 23601 10153 20140 30033 40116 70522 82510 333 10172 56990 59017 82618 83460
AAXX 23124 41984 NIL
AAXX 23124 41989 NIL
AAXX 23124 41998 NIL
AAXX 23120 44214 32998 03403 11148 21210 38354 40466 57004 333 11100
AAXX 23120 44231 329// 03204 11123 21218 38752 40377 53004 333 11104
AAXX 23120 44259 319// 20000 11257 21287 39332 40334 50001 70442 80002 333 11174
AAXX 23120 44277 319// 02706 11157 21199 37847 40475 57004 70232 333 11131 91112
AAXX 23120 44288 32899 22604 11137 21236 38176 40379 57003 82040 333 11083
AAXX 23120 44292 319// 00501 11219 21244 38718 40391 56003 70400 333 11164
AAXX 23120 44304 329// 22302 11224 21256 39002 40346 53004 82040 333 11140
AAXX 23120 44354 329// 02907 11155 21197 39130 40325 56002 333 11121
AAXX 23120 44373 32999 22703 11119 21193 38574 40353 58005 80001 333 11081
AAXX 23121 33466 /1464 82903 11015 21045 30036 40230 58010 77177 8657/ 333 85719 555 69901
AAXX 23124 47407 11/58 72018 11030 21083 39795 49970 58005 60032 78588 872// 333 10012
AAXX 23124 47409 11/70 62108 11018 21075 39889 49943 53001 69902 70182 84270 333 10037
AAXX 23124 47418 13/// /2519 10005 21068 39918 49967 50002 69902 333 10029
AAXX 23124 47421 17/25 /3010 11036 21081 39979 40023 51005 60052 77177 333 11007
AAXX 23124 47430 11/58 72714 11049 21080 39986 40042 50002 60032 78581 873// 333 11004
AAXX 23124 47570 17/60 /3106 11020 21036 39882 40150 51006 60032 77177 333 11003
AAXX 23124 47575 11/08 82112 11038 21052 30073 40078 53008 60042 78583 883// 333 10004
AAXX 23124 47584 11/60 32714 11028 21085 39888 40083 58002 69902 72682 83300 333 10001
AAXX 23124 47604 11/70 62812 10020 21052 30147 40156 58002 69952 70281 86200 333 10034
AAXX 23124 47605 11/60 71005 10003 21016 30129 40172 58009 60022 72682 87200 333 10043
AAXX 23124 47610 11/75 33601 11026 21044 39646 40168 50002 69902 72681 83200 333 10026
AAXX 23124 47624 12/75 13107 10017 21090 30000 40143 50008 60002 81201 333 10066
AAXX 23124 47629 12980 02606 10015 21089 30087 40126 51015 60002 333 10085
AAXX 23124 47636 12/65 13404 10021 21062 30093 40164 52006 60002 81800 333 10086
AAXX 23124 47651 11/80 73006 10032 21014 30145 40168 50001 69902 72582 872// 333 10063
AAXX 23124 47655 15/70 /2812 10033 21103 30067 40125 51010 60002 333 10108
AAXX 23124 47675 17/70 /0609 10058 21028 30025 40118 51007 69902 70060 333 10080
AAXX 23124 47741 11/65 71303 10008 20001 30158 40186 58005 60082 72682 872// 333 10054
AAXX 23124 47746 11/60 81204 10011 20001 30163 40183 50002 60042 78382 882// 333 10061
AAXX 23124 47750 11/65 62403 10007 21001 30149 40178 58002 60022 72682 86200 333 10048
AAXX 23124 47765 11/75 10105 10030 21006 30123 40191 58002 69902 70281 81200 333 10073
AAXX 23124 47772 12/80 13603 10035 21029 30073 40176 50001 60002 81200 333 10086
AAXX 23124 47800 15/84 /3502 10012 21076 30206 40211 58007 60002 333 10048
AAXX 23124 47815 12/70 62909 10050 21071 30182 40199 50001 60002 83401 333 10095
AAXX 23124 47817 11/82 10402 10034 21043 30165 40210 57003 69902 70281 81500 333 10076
AAXX 23124 47830 12/84 22703 10035 21031 30172 40191 51009 60002 81401 333 10111
AAXX 23124 47887 11/65 71505 10036 20005 30149 40192 51004 69952 72782 872// 333 10094
AAXX 23124 47891 11/80 33104 10050 21026 30166 40183 52003 69902 70281 83800 333 10088
AAXX 23124 47895 11/75 22908 10049 21018 30169 40177 51002 69902 70281 82200 333 10090
AAXX 23124 47927 11/65 80213 10173 20104 30138 40187 53011 69902 72582 888// 333 10190
AAXX 23120 44203 329// 60000 11262 21280 38420 40443 54000 82846 333 11246
AAXX 23120 44207 329// 32704 11167 21236 38312 40339 52004 81046 333 11111
AAXX 23120 44212 325// 70000 11244 21269 39263 40519 57008 8671/ 333 11232
AAXX 23120 44213 12999 60000 11254 21280 38882 40528 57005 69922 86010 333 11225 555 93100
AAXX 23120 44215 31998 22706 11090 21170 38471 40362 54000 70131 82040 333 11080 91114
AAXX 23120 44218 329// 02302 11222 21247 38686 40479 57001 333 11154
AAXX 23120 44225 NIL
AAXX 23120 44230 329// 30204 11174 21216 38809 40391 57004 83040 333 11123
AAXX 23120 44232 329// 00000 11161 21212 39127 40334 54001 333 11091
AAXX 23120 44237 32999 52704 11116 21178 38502 40316 57003 82041 333 11094
AAXX 23120 44239 326// 23602 11158 21218 38810 40325 57001 82500 333 11141 555 99601 99905
AAXX 23120 44241 329// 01604 11212 21237 39293 40353 57002 333 11141
AAXX 23120 44256 32999 00000 11299 21317 39369 40336 56003 333 11181
AAXX 23120 44265 329// 00000 11240 21272 38959 40519 56019 333 11155
AAXX 23120 44272 NIL
AAXX 23120 44275 325// 53207 11140 21167 37750 40362 56001 83570 333 11132
AAXX 23120 44282 31999 03205 11106 21226 38309 40326 54000 70131 333 11086
AAXX 23120 44284 32899 00501 11252 21288 37875 40550 56002 333 11171
AAXX 23120 44285 32999 03104 11123 21302 38328 40336 57004 333 11090 91110
AAXX 23120 44287 32999 00104 11175 21235 38150 40448 53003 333 11112
AAXX 23120 44294 319// 01001 11239 21265 38574 40430 57002 70131 333 11143
AAXX 23120 44298 329// 00000 11198 21204 38730 40356 57007 333 11160
AAXX 23120 44302 329// 22703 11228 21262 39118 40343 53005 81044 333 11124
AAXX 23120 44305 32999 03203 11196 21280 39057 40304 56003 333 11137
AAXX 23120 44313 32999 00000 11301 21339 39411 40357 51004 333 11223
AAXX 23120 44314 12998 00000 11263 21294 39160 40371 54000 69902 333 11149 555 93100
AAXX 23120 44317 11998 50000 11205 21238 38946 40314 52011 69922 70272 80008 333 11155 555 93100
AAXX 23120 44336 329// 01503 11195 21235 38722 40418 56001 333 11074
AAXX 23120 44341 329// 33005 11162 21203 38619 40373 58008 83030 333 11101
AAXX 23120 44347 32999 12708 11144 21195 38747 40357 58008 81040 333 11086
AAXX 23120 44352 32999 02705 11194 21220 38922 40317 58005 333 11135
AAXX 23120 44358 329// 03203 11178 21197 39123 40360 54000 333 11103
AAXX 23124 47401 11/70 70803 10006 21004 39856 49870 58014 60092 78582 872// 333 10016
AAXX 23124 47412 11/50 72607 11022 21105 39963 49996 50001 69952 78582 872// 333 10020
AAXX 23124 47420 15/70 /2415 11005 21077 39920 49954 53006 60002 333 10034
AAXX 23124 47426 17/64 /2826 11012 21086 39965 40013 51001 60022 77170 333 10022
AAXX 23124 47582 11/60 72722 11009 21070 30091 40119 56002 60012 72682 873// 333 10008
AAXX 23124 47590 11/70 32811 10010 21088 30054 40109 52007 69902 70381 82302 333 10046
AAXX 23124 47600 17/70 /3112 10022 21041 30161 40169 57009 60012 77176 333 10025
AAXX 23124 47648 12/80 73112 10043 21063 30090 40125 51016 60002 8657/ 333 10084
AAXX 23124 47662 12/80 63310 10045 21108 30087 40132 51012 60002 86500 333 10082
AAXX 23124 47678 15/70 /2810 10087 20004 39931 40120 58002 69902 333 10109
AAXX 23124 47740 17/84 /3104 10011 21013 30145 40181 58005 60022 72487 333 10050
AAXX 23124 47778 15/70 /0203 10054 21044 30077 40163 58001 60002 333 10085
AAXX 23124 47807 11/70 22305 10040 21055 30186 40205 58006 69902 70281 82200 333 10093
AAXX 23124 47827 12/70 13603 10049 21024 30161 40200 53005 60002 81400 333 10111
AAXX 23124 47843 15/84 /3405 10051 21042 30179 40213 58002 60002 333 10073
AAXX 23124 47893 12/70 22703 10047 21013 30172 40178 53002 60002 82200 333 10106
AAXX 23124 47909 11/65 70306 10131 20076 30178 40188 53003 69952 78082 87200 333 10161
AAXX 23124 47918 11/60 80212 10156 20124 30171 40189 51012 69952 76162 888// 333 10182
AAXX 23124 47936 11/80 70112 10155 20101 30126 40186 53007 69902 72582 8383/ 333 10177
AAXX 23124 47945 11/65 70210 10175 20106 30137 40162 50004 69902 70282 878// 333 10196
AAXX 23124 47971 11/70 70605 10199 20109 30115 40125 50008 69902 70282 8527/ 333 10214
AAXX 23124 47991 16/// /2412 10254 20227 30097 40107 51006 60012 333 10284
AAXX 23124 40100 12560 72207 10179 20097 30100 40131 56016 60001 87200 912// 333 87826 92437
AAXX 23124 40101 12560 72106 10124 20037 39062 48472 56017 60001 87200 912// 333 87826
AAXX 23124 40103 32565 42608 10184 20080 40125 56015 84100 333 84824 555 10180
AAXX 23124 40102 NIL
AAXX 23121 56778 32560 81105 10055 20018 38137 52036 888// 333 00456
AAXX 23121 58040 32960 22502 10005 21087 30259 40273 52010 80002
AAXX 23121 58150 32960 02502 11009 21079 30274 40278 52007
AAXX 23121 56029 32980 00701 11049 21194 36419 52011 333 00258
AAXX 23121 52866 32968 00000 11101 21176 37753 52013 333 00453
AAXX 23121 53588 32480 22910 11153 21192 37771 52010 82100 333 91120 91529
AAXX 23121 53772 32970 02904 11021 21174 39372 40347 52020
AAXX 23121 54337 32660 20202 11051 21163 30167 40255 52021 82500
AAXX 23121 54342 32965 63602 11088 21166 30187 40253 52014 80002
AAXX 23121 54511 32680 13202 10019 21181 30231 40273 52015 81100
AAXX 23124 61017 32960 50410 10218 21021 39756 40166 80002 333 0//00 59006 85080
AAXX 23124 61024 32960 11604 10278 21023 39590 40156 80002 333 0//00 58003 81080
AAXX 23124 61036 32962 70610 10300 20008 39906 40144 80008 333 0//00 58003 87280
AAXX 23124 61043 32960 70812 10287 21067 39700 40140 80008 333 0//00 59004 87280
AAXX 23124 61045 32965 50606 10260 21070 39647 40145 80002 333 0//00 58000 85080
AAXX 23124 61049 32960 70804 10272 21007 39808 40127 80008 333 0//00 58000 87280
AAXX 23124 61052 32960 20808 10283 21033 39889 40146 80002 333 0//00 59001 82080
AAXX 23124 61075 32960 51002 10294 20007 39825 40133 80002 333 0//00 58000 87280
AAXX 23124 61080 32960 71008 10275 21038 39730 40150 80008 333 0//00 58003 87280
AAXX 23124 61090 32965 60206 10265 21057 39635 40145 80008 333 0//00 58004 86280
AAXX 23124 61091 32965 30606 10284 20080 39699 40153 80002 333 0//00 58002 83080
AAXX 23124 61096 32962 60408 10283 21035 39760 40141 80008 333 0//00 58001 86280
AAXX 23124 61099 32960 70604 10314 20040 39891 40118 80008 333 0//00 59010 87280
AAXX 23121 52418 32980 01601 11091 21161 39022 40460 57011 333 05353
AAXX 23121 52681 32980 02502 11071 21170 38748 40419 52005 333 00002
AAXX 23121 56187 32961 02201 10027 21006 39670 40343 52025 333 00754
AAXX 23121 57461 31958 00401 10055 21036 30160 40330 52029 70500
AAXX 23121 57816 11656 80406 10008 21018 38877 40331 52022 69901 71060 885// 333 00500 93427
AAXX 23121 58102 32962 00000 11014 21062 30250 40301 52018
AAXX 23121 59644 31756 83606 10135 20049 30209 40226 52023 70500 885//
AAXX 23121 59758 32464 70404 10170 20129 30125 40202 52019 878//
AAXX 23121 51747 32970 00000 11131 21168 39066 40465 57007 333 05253
AAXX 23121 53798 32960 00202 10031 21146 30189 40290 52019
AAXX 23121 54423 32980 03203 11047 21209 39741 40290 52014
AAXX 23121 54618 32962 50000 11031 21109 30261 40280 52017 80002
AAXX 23121 54401 32970 03204 11060 21190 39407 40317 52014
AAXX 23121 50953 32970 03203 11194 21272 30055 40252 52013
AAXX 23121 54471 32960 00703 11065 21154 30242 40248 52014
AAXX 23121 54497 32665 73402 11081 21169 30219 40236 52004 875//
AAXX 23121 57083 32967 02705 10058 21137 30155 40295 52019
AAXX 23121 50468 32970 03401 11313 21339 30030 40269 52005
AAXX 23121 57265 32966 00000 10039 21046 30198 40314 52019
AAXX 23121 57494 32962 02701 10009 21034 30280 40312 52017
AAXX 23121 58362 32970 03402 10040 21047 30271 40280 52008
AAXX 23121 58752 32965 43202 10084 21038 30220 40267 52021 84030
AAXX 23121 53463 32980 00401 11074 21196 39034 40362 52009 333 00002
AAXX 23121 53513 32970 02203 11086 21189 39068 40371 54000 333 00051
AAXX 23121 54823 31956 01402 11014 21082 30066 40284 52011 70500
AAXX 23121 54218 32780 22903 11103 21216 39441 40296 52015 82500
AAXX 23121 53564 32978 00000 11088 21160 39279 40375 52011 333 00003
AAXX 23121 53959 32970 03601 11016 21107 39879 40345 52011
AAXX 23121 57127 32965 00000 10033 21078 39708 40339 52017
AAXX 23121 53614 32980 03201 11050 21154 39012 40387 52008 333 00003
AAXX 23121 54161 11960 23602 11163 21245 39938 40256 52017 69911 70070 80002
AAXX 23121 54292 32970 22503 11141 21220 39870 40214 52002 80002
AAXX 23121 53646 32970 02907 11060 21147 38943 40378 52004 333 00102
AAXX 23121 53845 32965 02701 11029 21140 39185 40374 52017 333 00102
AAXX 23121 54102 32980 02203 11206 21237 39050 40350 52008
AAXX 23121 57131 32968 02503 10037 21103 39842 40357 52015
AAXX 23121 58221 32962 02501 10013 21063 30261 40291 52010
AAXX 23121 58606 32961 01401 10052 21049 30234 40295 52012
AAXX 23121 59287 32664 60403 10122 20044 30148 40236 52022 83540
AAXX 23121 59431 32760 83403 10126 20033 30104 40254 52022 885//
AAXX 23121 50745 32965 00000 11244 21291 30068 40275 52012
AAXX 23121 50774 31958 00000 11293 21319 39907 40257 52003 70400
AAXX 23121 54094 32960 01401 11191 21249 39899 40231 52004
AAXX 23121 54374 32962 03602 11161 21213 39747 40258 52005
AAXX 23121 57516 11730 83402 10073 20048 30013 40334 52030 69911 71060 885// 333 00851
AAXX 23121 59134 32663 73405 10123 20043 30066 40238 52019 875//
AAXX 23121 50136 11970 40000 11358 21402 39705 40334 52008 69901 70070 80002
AAXX 23121 50788 32970 02702 11238 21276 30117 40212 57004
AAXX 23121 54843 32964 02902 10000 21073 30243 40272 52017
AAXX 23121 54909 32964 00000 11014 21056 30223 40290 52014
AAXX 23121 57687 31940 03202 10061 21038 30226 40313 52020 70500
AAXX 23121 58457 32960 03201 10031 21055 30233 40288 52015
AAXX 23121 52533 32980 02002 11085 21173 38635 40444 57003 333 05152
AAXX 23121 52652 32980 02003 11117 21198 38652 40472 54000 333 00001
AAXX 23121 52983 32980 02201 11098 21153 38188 52007 333 00252
AAXX 23121 53915 32980 02902 11033 21166 38766 40381 52013 333 00202
AAXX 23121 56080 32980 02001 11114 21245 37174 52012 333 00453
AAXX 23121 56096 32975 00402 10036 21132 39054 40339 52022 333 00600
AAXX 23121 58238 32964 02701 10004 21081 30246 40293 52012
AAXX 23121 58251 32960 02702 11002 21064 30276 40281 52002
AAXX 23121 58847 31958 43204 10102 20041 30145 40249 52019 71000 80002
AAXX 23121 59117 32666 73603 10107 20020 30140 40249 52015 875//
AAXX 23121 59316 32960 01602 10121 20048 30220 40225 52018
AAXX 23124 64655 32980 00000 10314 20150 39449 40088 333 58005
AAXX 23121 08501 12/// /0000 10145 20135 30318 40354 52010 60041
AAXX 23121 08505 32470 71207 10172 20146 30299 40349 52018 86832 333 86812
AAXX 23121 08509 11340 80804 10162 20157 30294 40359 52015 69981 78085 882// 333 85707 84812
AAXX 23121 08512 32470 51404 10178 20173 30271 40357 52018 83831 222// 0//// 333 83813 91106
AAXX 23121 08515 32470 21308 10179 20141 30238 40360 52022 82800 222// 00179 333 82814 910// 911//
AAXX 23121 08533 32/// /0107 10137 20107 30272 40302 52005 333 91010 91112
AAXX 23121 08541 12/// /3504 10138 20110 30184 40304 54000 69911 333 91107
AAXX 23121 08545 31460 20203 10127 20076 30242 40327 52006 70111 82800 222// 00146 333 81817 91005 91106
AAXX 23121 08548 32/// /0402 10086 20069 30115 40325 52005
AAXX 23121 08554 32970 03202 10164 20075 30285 40294 52005
AAXX 23121 08558 31456 33503 10117 20086 39999 40297 50002 71041 83600 333 83710 91005 91107
AAXX 23121 08560 31982 00000 10125 20062 39547 40306 52005 70200
AAXX 23121 08567 32/// /0000 10041 20038 39651 40337 52004
AAXX 23121 08570 31880 10000 10137 20075 39829 40288 58001 70300 81040 333 81358
AAXX 23121 08575 31/01 90000 10020 20017 39495 40337 52002 74544
AAXX 23121 08579 31465 33505 10142 20104 30182 40307 52005 70111 83801 333 82815 91009 91110
BBXX UFTA 23121 99848 71244 41596 53407 11221 21247 40037 53005 73883 85500 333 11167
AAXX 23121 40703 12660 30000 10038 21026 38888 40181 57012 60001 83500 333 83635
AAXX 23121 40712 11630 30302 10080 21011 38645 40167 57017 60001 70500 81102 333 81835
AAXX 23121 40729 12660 70000 10084 21035 38314 40140 57014 60001 86370 333 82935 84635 85359
AAXX 23121 40736 12960 31202 10126 20077 30148 40123 57040 60001 80002 333 83068
AAXX 23121 40739 12965 02402 10044 21098 38688 40216 56005 60001 333
AAXX 23121 40743 12665 62402 10064 21099 39075 40218 56006 60001 82572 333 82635 83360
AAXX 23121 40762 12665 60000 10048 21155 38550 40223 57013 60001 81406 333 81635 86269
AAXX 23121 40768 12660 72209 10115 21022 38240 40157 56011 60001 85350 333 82935 84640 85360
AAXX 23121 40769 12660 10802 10142 21043 38285 40149 56015 60001 81101 333 81835
AAXX 23121 40785 12660 50000 10080 21076 39083 40196 57025 60001 81502 333 81640 84070
AAXX 23121 40809 12962 70000 10111 21172 38502 40210 55013 60001 81035 333 87270
AAXX 23121 40821 12960 60000 10134 21112 38782 40183 57014 60001 81048 333 81360 86270
AAXX 23121 40831 12960 31605 10218 20096 30155 40163 56018 60001 80001 333 83070
AAXX 23121 40703 12660 30000 10038 21026 38888 40181 57012 60001 83500 333 83635
AAXX 23121 40712 11630 30302 10080 21011 38645 40167 57017 60001 70500 81102 333 81835
AAXX 23121 40729 12660 70000 10084 21035 38314 40140 57014 60001 86370 333 82935 84635 85359
AAXX 23121 40736 12960 31202 10126 20077 30148 40123 57040 60001 80002 333 83068
AAXX 23121 40739 12965 02402 10044 21098 38688 40216 56005 60001 333
AAXX 23121 40743 12665 62402 10064 21099 39075 40218 56006 60001 82572 333 82635 83360
AAXX 23121 40762 12665 60000 10048 21155 38550 40223 57013 60001 81406 333 81635 86269
AAXX 23121 40768 12660 72209 10115 21022 38240 40157 56011 60001 85350 333 82935 84640 85360
AAXX 23121 40769 12660 10802 10142 21043 38285 40149 56015 60001 81101 333 81835
AAXX 23121 40785 12660 50000 10080 21076 39083 40196 57025 60001 81502 333 81640 84070
AAXX 23121 40809 12962 70000 10111 21172 38502 40210 55013 60001 81035 333 87270
AAXX 23121 40821 12960 60000 10134 21112 38782 40183 57014 60001 81048 333 81360 86270
AAXX 23121 40831 12960 31605 10218 20096 30155 40163 56018 60001 80001 333 83070
BBXX 44067 23121 99384 70770 46/// /0304 10101 40157 53055 91200
BBXX 44032 23121 99437 70694 46/26 /0709 10028 40128 56018 91204 22200 00085 10803 70015 333 91210 555 11103 22108
BBXX 42085 23121 99179 70665 46/// /0710 10256 40174 91200 22200 00271 10803 70017 333 91212
AAXX 23123 87007 32970 10000 10122 21010 36742 47143 52012 80005 333 10165 20052 56000 81270
AAXX 23123 87148 31958 23618 10346 20214 39913 40015 51013 70500 80006 333 10354 20286 30028 56000 82270
AAXX 23124 87022 31958 03602 10278 20223 39510 49992 50012 70400 333 10330 20210
AAXX 23124 87046 32965 00903 10290 20172 39038 48448 52012 333 10318 20215
AAXX 23124 87047 12965 12002 10232 20172 38734 48458 52009 60034 80001 333 10274 20177 31/// 56006 81070
AAXX 23124 87097 32970 30510 10290 20210 39788 40090 51013 80008 333 10292 20202 56006 83270
AAXX 23124 87121 11959 31805 10265 20215 39544 40034 52025 69924 71011 80002 333 10324 20231 56007 83070
AAXX 23124 87129 32662 61410 10280 20208 39826 40047 52037 84170 333 10352 20245 84840 82360
AAXX 23124 87155 31958 63608 10306 20208 39982 40041 52017 70410 81076 333 10307 20250 56033 81360 86270
AAXX 23124 87162 31562 43617 10326 20222 39981 40047 51015 70400 82810 333 10342 20250 56840 81830
AAXX 23124 87166 31657 70210 10296 20214 39970 40041 51015 70410 81576 333 10296 20251 56455 81635 84360 86270
AAXX 23124 87178 32565 80511 10274 20173 39926 40068 51011 8357/ 333 10275 20247 56409 83630 88360
AAXX 23124 87217 32970 71808 10270 20203 39579 40048 5//// 87050 333 10360 20240 56000 87360
AAXX 23124 87222 32670 82007 10271 20163 39534 40030 52037 885// 333 10350 20254 56300 88645
AAXX 23124 87257 NIL
AAXX 23124 87270 32465 80918 10243 20200 39997 40057 50017 8257/ 333 10296 20232 30022 56259 82615 88360
AAXX 23124 87289 01356 81125 10202 20193 30006 40087 50011 60924 7959/ 8392/ 333 10236 20198 56339 57970 60562 82708 88535 81945
AAXX 23124 87311 31940 31626 10185 21060 39474 40142 52053 70700 80004 333 10275 20182 56007 83070
AAXX 23124 87320 32670 80000 10263 20202 39549 40055 5//// 84576 333 10332 20253 56499 84645 82360 82270
AAXX 23124 87328 31765 71409 10222 20059 39440 40070 52031 70421 87400 333 10285 20184 30000 56500 87650 95000
AAXX 23121 48855 01597 83201 10201 20198 30154 40162 53014 60144 76062 888// 333 01021 10213 58008 60032 7014 4 85895 88697 96160 555 20200
AAXX 23121 48848 01497 83403 10182 20179 30167 40175 52016 60054 76066 8672/ 333 01019 10189 58006 60052 7005 2 86894 88499 96160
AAXX 23121 30372 11999 30000 11393 21423 39375 40392 58007 69902 70171 80001 333 11316
AAXX 23121 30433 11998 83501 11232 21257 39654 40303 57005 69922 77177 8802/ 333 11216
AAXX 23121 30554 329// 50000 11306 21336 39134 40358 53005 80001 333 11263
AAXX 23121 30635 118// 81203 11226 21244 39673 40296 57006 69962 73673 8807/ 333 11220
AAXX 23121 30673 32999 03003 11304 21334 39467 40331 52005 333 11239
AAXX 23121 30692 11998 80202 11343 21359 39735 40301 53/// 69932 70272 80007 333 11240
AAXX 23121 30758 31926 80000 11271 21302 39420 40332 58005 70522 8807/ 333 11251
AAXX 23121 30802 31698 82506 11096 21166 38696 48484 55001 71522 84301 333 11067 95750
AAXX 23121 30823 11999 63001 11165 21178 39610 40287 57006 69902 72272 84011 333 11134
AAXX 23121 30879 32999 00000 11331 21354 39473 40338 52005 333 11279
AAXX 23121 30935 12999 22601 11154 21196 39312 40303 52006 69902 82040 333 11087
AAXX 23121 30949 32999 20000 11214 21232 39124 40306 57003 82030 333 11125
AAXX 23121 30965 329// 01401 11355 21377 39425 40378 52005 333 11251
AAXX 23121 31168 11996 80506 11124 21130 30289 40301 53016 69960 77173 8802/ 333 11119 91012 91112
AAXX 23121 31300 11984 31001 11221 21254 39934 40249 52004 69902 70273 83030 333 11200
AAXX 23121 31329 11595 80000 11213 21231 39503 40222 53003 60022 77372 8802/ 333 11211
AAXX 23121 31369 11495 83102 11178 21190 30129 40220 53004 69970 78682 889// 333 11196 88913
AAXX 23121 31416 11997 83605 11149 21155 30113 40210 58004 60020 77172 8802/ 333 11155
AAXX 23121 31484 11995 80000 11174 21180 39852 40210 58004 60030 77372 8802/ 333 11174
AAXX 23121 31512 119// 52901 11289 21321 30072 40259 52003 69902 72211 85010 333 11217
AAXX 23121 31538 12998 80000 11273 21285 39758 40238 58002 69900 80001 333 11228
AAXX 23121 31707 32998 62905 11229 21269 30117 40218 58004 80001 333 11192
AAXX 23121 31735 11995 82904 11197 21221 30085 40180 57012 60020 77172 8802/ 333 11178
AAXX 23121 31770 11539 80212 11042 21072 30035 40065 57015 60030 78583 889// 333 11042 91012
AAXX 23121 20107 41597 70803 10018 21051 39683 49776 57030 70232 85530 333 91007 91114
AAXX 23121 22113 41584 81810 11016 21053 39914 49977 57028 73632 885// 333 88623 91016 91117
AAXX 23121 22217 41497 81803 11021 21039 30014 40046 57024 70283 889// 333 86622 91007 91111 93730
AAXX 23121 22235 41380 82306 11032 21053 39869 40066 58022 70282 885// 333 86709 91009 91110
AAXX 23121 22349 41498 82306 10000 21046 30097 40109 57012 72682 889// 333 91008 91111
AAXX 23121 22408 42599 51803 11040 21059 39930 40083 57026 85500 333 85621
AAXX 23121 22602 42474 62002 11032 21042 39879 40109 57023 86500 333 86612
AAXX 23121 22619 42583 82002 11040 21055 39972 40137 57013 885// 333 88625
AAXX 23121 22721 42699 80000 11039 21051 30045 40149 57012 885// 333 88636
AAXX 23121 22802 42981 31402 11019 21021 30129 40152 58014 83030 333 93703
AAXX 23121 22820 42980 72301 11045 21054 30013 40155 58011 87030 333 93700
AAXX 23121 26059 42497 82202 11005 21029 30149 40174 58011 886// 333 88718
AAXX 23121 26063 41397 82203 11003 21015 30160 40168 57011 70272 885// 333 88610
AAXX 23121 26094 41330 81802 11034 21038 30098 40177 58003 71041 886// 333 88706
AAXX 23121 26157 42461 82005 11012 21022 30131 40182 58013 885// 333 86710
AAXX 23121 26167 41467 82403 11008 21036 30070 40184 58008 70282 885// 333 88619
AAXX 23121 26258 42598 82402 11021 21036 30144 40200 58009 885//
AAXX 23121 26298 41597 73002 11028 21051 39950 40186 52003 72682 87900
AAXX 23121 26359 41473 82302 11027 21043 30075 40214 58006 70282 889//
AAXX 23121 26702 41496 81902 11008 21021 30161 40188 57019 71022 885// 333 91004 91105
AAXX 23121 26781 41597 73103 11023 21048 39910 40212 52007 70272 875// 333 87623
AAXX 23121 27208 41997 83403 11029 21052 39986 40167 52006 77172 8802/
AAXX 23121 27402 41597 83001 11028 21041 39981 40166 52003 77172 8802/ 333 88527
AAXX 23124 NIL
AAXX 23124 NIL
AAXX 23124 88878 46/// /2229 10092 20060 40021 54000 555 1//39
AAXX 23124 88883 46/// /2119 10072 20054 40045 52002 555 1//36
AAXX 23124 88889 11462 82426 10075 20060 39928 40012 57008 60021 76186 885// 91150 333 84712 85619 86630 90710 91139 91037
AAXX 23124 88897 46/// /2430 10065 20037 49995 57001 555 1//43
AAXX 23124 83437 NIL
AAXX 23124 83550 21597 6//// 10274 20234 30114 40143 70310 84240 333 20234 58017 60044
AAXX 23124 83552 NIL
AAXX 23124 83565 NIL
AAXX 23124 83579 NIL
AAXX 23124 83592 NIL
AAXX 23124 83623 NIL
AAXX 23124 83630 NIL
AAXX 23124 83676 NIL
AAXX 23124 83698 32999 03603 10290 20212 30119 40133 51006 333 20228
AAXX 23124 83702 NIL
AAXX 23124 83704 NIL
AAXX 23124 83716 NIL
AAXX 23124 83726 NIL
AAXX 23124 83738 32999 00000 10250 20177 39630 40118 52002 333 20175
AAXX 23124 82143 NIL
AAXX 23124 82599 32570 60912 10282 20214 30073 40133 86200 333 20244 59009
AAXX 23124 82824 32970 00000 10282 20237 39993 40094 333 20244 59011
AAXX 23124 82899 32570 50810 10290 20200 30131 40143 83250 333 20263 58012
AAXX 23124 83117 NIL
AAXX 23124 83248 21458 62608 10256 20237 30127 40149 72161 85230 333 20256 59008 60034
AAXX 23124 83746 32970 23005 10313 20182 30107 40117 51015 80001 333 20226
BBXX 42362 23121 99278 70907 46/// /0211 10189 20144 40207 51014 91200
BBXX 42362 23121 99278 70907 46/// /0210 10189 20144 40210 91215
BBXX 42364 23121 99291 70881 46/// /0109 10172 20144 40210 91215
AAXX 23124 NIL
AAXX 23124 03132 15681 /2912 10068 20042 30107 40121 50010 60001 91150 333 86/48 85/62
AAXX 23124 NIL
AAXX 23124 83384 NIL
AAXX 23124 83386 NIL
AAXX 23124 83388 NIL
AAXX 23124 83393 NIL
AAXX 23124 83442 NIL
AAXX 23124 83479 NIL
AAXX 23124 83483 NIL
AAXX 23124 83531 NIL
AAXX 23124 83538 NIL
AAXX 23124 83574 NIL
AAXX 23124 83582 NIL
AAXX 23124 83595 NIL
AAXX 23124 83687 NIL
AAXX 23124 83692 NIL
AAXX 23124 83695 32998 00501 10270 20206 30006 40142 54000 333 20204
AAXX 23124 83718 31599 30000 10260 20189 39575 40133 51010 70311 83100 333 20183
AAXX 23124 82022 22970 00614 10278 20218 30015 40111 333 20244 59001 60254
AAXX 23124 82193 22570 40709 10289 20237 30096 40114 84200 333 20247 59004 69984
AAXX 23124 82281 32470 50614 10291 20190 30053 40115 85100 333 20267 58003
AAXX 23124 82332 32970 30304 10298 20241 30003 40095 80001 333 20261 59006
AAXX 23124 82398 32570 40911 10275 20215 30100 40129 84200 333 20253 58006
AAXX 23124 82400 32470 31212 10277 20225 30071 40136 83100 333 20253 59003
AAXX 23124 82579 21470 61502 10280 20246 30038 40114 70362 83550 333 20244 58004 69974
AAXX 23124 82917 22970 52605 1//// 2//// 39877 4//// 85030 333 20000 59013 60044
AAXX 23124 82965 31265 81206 10237 20223 39785 40114 7106/ 8167/ 333 20211 58001
AAXX 23124 82993 32470 50710 10267 20224 30006 40142 85200 333 20226 59012
AAXX 23124 83208 32970 62606 10254 20220 39419 48540 86030 333 20215 59006
AAXX 23124 83349 21570 70709 10277 20248 30147 40153 72161 83234 333 20259 59010 60034
AAXX 23124 83362 22470 53611 10261 20211 39892 40106 83530 333 20241 59004 60014
AAXX 23124 83378 22470 60510 10215 20163 38967 48520 82639 333 20186 59014 60014
AAXX 23124 83460 32570 51007 10260 20226 30097 40154 82230 333 20215 58013
AAXX 23124 83497 NIL
AAXX 23124 83566 22570 40805 10219 20165 39224 48540 84100 333 20153 58006 60124
AAXX 23124 83599 NIL
AAXX 23124 83612 22970 00208 10277 20178 39475 48520 52022 333 20204 60024
AAXX 23124 83649 32570 40314 10301 20215 30140 40145 50004 84200 333 20243
AAXX 23124 83650 NIL
AAXX 23124 83780 22970 03506 10275 20133 39237 48540 51012 333 20214 69944
AAXX 23124 83827 32970 00310 10304 20195 39816 40086 51016 333 20237
AAXX 23124 83840 32970 03507 10268 20166 39116 48530 51007 333 20174
AAXX 23124 83899 32970 03105 10306 20216 30075 40081 50004 333 20260
AAXX 23124 83925 NIL
AAXX 23124 83970 NIL
AAXX 23124 83971 22570 52708 10279 20215 30085 40089 51019 81131 333 20231 69914
AAXX 23121 48852 01497 80000 10189 20187 30151 40161 52014 60184 76166 8672/ 333 01019 10195 58006 60062 7017 6 86894 88499 96161
AAXX 23124 NIL
AAXX 23121 26997 41456 73203 11024 21036 39976 40201 52002 71072 87500 333 87618
AAXX 23121 27595 41395 81603 11066 21076 30004 40154 55001 77372 8802/ 333 88507
AAXX 23121 27612 41596 83101 11048 21078 39959 40158 52004 77172 885//
AAXX 23121 27707 41858 63403 11035 21046 39876 40178 52003 71022 86070
AAXX 23121 27719 41496 83203 11046 21081 39906 40164 52008 77172 8672/
AAXX 23121 27786 41496 81809 11044 21060 30000 40165 58002 77173 8552/ 333 85613 91012 91112
AAXX 23121 27857 41998 31703 11027 21057 39979 40146 54000 70171 84030
AAXX 23121 27906 41598 73004 11039 21072 39927 40177 52003 70282 81331
AAXX 23121 27928 41597 73102 11029 21056 39939 40151 52005 77172 85530
AAXX 23121 27947 41597 82304 11015 21045 39987 40150 56005 78582 883// 333 86920
AAXX 23121 27962 41497 82106 11016 21036 39938 40161 54000 70276 885// 333 88612 93400
AAXX 23121 27983 41497 81404 11049 21059 30054 40187 58003 70272 886// 333 88714 93402
AAXX 23121 27995 41598 81401 11068 21084 40202 57004 77177 8802/
AAXX 23121 28506 41996 81803 11073 21097 30072 40189 57002 77173 8802/
AAXX 23121 28704 41496 81806 11085 21100 30092 40191 55004 77175 8802/ 333 88511
AAXX 23121 28711 41498 81805 11112 21131 39820 40216 57005 78583 883// 333 88911 91110
AAXX 23121 28807 41497 81503 11082 21109 30159 40213 57005 77177 885// 333 88616
AAXX 23121 34009 41597 63202 11033 21068 39870 40185 53004 72682 82532
AAXX 23121 34110 41498 73104 11026 21059 39892 40177 52004 72682 86330
AAXX 23121 34123 41560 72504 11019 21047 39972 40160 52001 70282 86930 333 86920
AAXX 23121 34152 42699 72202 11015 21042 39972 40172 58006 875// 333 87639
AAXX 23121 34163 42498 82004 11017 21043 40187 57006 885// 333 88619
AAXX 23121 34171 41570 82105 11012 21055 39986 40183 57007 72772 883// 333 88926
AAXX 23121 34186 41295 81802 11037 21042 30061 40204 58005 71022 886// 333 88704
AAXX 23121 34247 42572 82503 11003 21058 30071 40187 58001 885// 333 88624
AAXX 23121 34336 42570 82602 10000 21057 30080 40186 58010 8531/
AAXX 23121 34391 41496 82002 11035 21040 30181 40213 58006 71022 886// 333 88719
AAXX 23121 35011 42999 80902 11100 21144 30080 40242 57006 8802/
AAXX 23121 35121 42998 31601 11121 21164 30104 40260 57009 80001
BBXX 42085 23121 99179 70665 46/// /0709 10256 40173 91150 333 91212
BBXX 42085 23121 99179 70665 46/// /0608 10256 40170 91140 333 91210
AAXX 23124 NIL
AAXX 23121 22271 42598 62406 11009 21051 30085 40095 57010 84530
AAXX 23121 22520 42698 81904 11036 21061 30098 40108 57015 885// 333 88636
AAXX 23121 22550 41496 71801 11046 21070 30127 40137 57008 71042 85530 333 85614
AAXX 23121 22583 41584 70000 11091 21106 30059 40143 57003 70277 875// 333 87630
AAXX 23121 22768 41497 83301 11074 21087 30077 40135 54000 77172 8657/ 333 86614
AAXX 23121 22845 41496 83301 11049 21059 39990 40152 58001 77177 8672/ 333 86711
AAXX 23121 22887 41499 71201 11078 21092 30052 40125 55001 70287 8655/ 333 84711 91103
AAXX 23121 23205 42698 81902 11083 21111 30108 40123 57007 885// 333 88640 91104
AAXX 23121 23219 42998 81402 11113 21133 30046 40157 57008 8802/
AAXX 23121 23418 41950 81201 11081 21095 30066 40143 57006 77172 8802/
AAXX 23121 23606 41340 81801 11087 21094 39958 40136 57005 78587 889// 333 86709
AAXX 23121 23711 41597 80000 11122 21142 39976 40159 57007 78582 8696/
AAXX 23121 23804 41597 81802 11082 21092 39983 40137 57003 77172 8452/
AAXX 23121 27037 41497 83203 11072 21093 39973 40140 52002 77172 8672/ 333 86713
AAXX 23121 27199 41439 81503 11078 21092 39932 40136 57004 77372 8872/
AAXX 23121 27271 41696 70000 11076 21089 39956 40118 54000 77172 82570
AAXX 23121 27459 41498 82901 11055 21066 39924 40125 52009 70282 8462/ 333 93400
AAXX 23121 27730 41397 83401 11042 21065 39943 40143 52011 77172 8872/ 333 88509
AAXX 23124 NIL
AAXX 23124 NIL
AAXX 23121 38598 NIL
AAXX 23121 38599 NIL
AAXX 23121 38725 42999 00000 11029 21226 37765 48510 57009
AAXX 23121 38734 NIL
AAXX 23121 38744 42999 00000 11105 21180 38065 48600 56005
AAXX 23121 38836 42999 00000 10027 21090 39283 40238 57010
AAXX 23121 38838 42998 00000 10014 21069 39552 40236 57012
AAXX 23121 38844 42999 01802 11046 21157 48500 53009
AAXX 23121 38846 42999 01803 10001 21061 38525 48500 57001
AAXX 23121 38847 42999 00000 10025 21042 40256 57015
AAXX 23121 38932 NIL
AAXX 23121 38933 42998 03601 10050 21061 39724 40247 57011
AAXX 23121 38944 42997 00000 10016 21012 39625 40172 57028
AAXX 23121 38954 42999 02701 11044 21199 38981 48570 57009
AAXX 23124 70133 32966 00209 11217 21261 30017 40024 51002 91153 333 21239 555 92312
AAXX 23124 70174 12766 83103 11178 21205 39712 49965 55001 69901 91153 333 21183 70005 555 92312
AAXX 23124 70200 32866 63311 11178 21228 30029 40035 55000 91153 333 21250 555 92312
AAXX 23124 70219 32966 03008 11217 21244 39972 40029 50007 91153 333 21217 4/003 555 92312
AAXX 23124 70231 32966 00000 11289 21317 39844 49980 53013 91153 333 21289 4/097 555 92312
AAXX 23124 70261 11532 80000 11122 21139 39711 49885 53008 69951 771// 91153 333 21150 70010 96010 555 92312
AAXX 23124 70267 17420 82906 11117 21133 39407 49897 53013 60011 771// 91153 333 21117 70051 96010 555 92312
AAXX 23124 70271 15866 81806 11111 21122 39254 49847 53034 69931 91153 333 21144 70048 555 92312
AAXX 23124 70273 11432 81103 11050 21067 39814 49873 53030 60021 771// 91153 333 21061 4/063 70053 555 92312
AAXX 23124 70316 32666 80000 11056 21089 39948 49986 53015 91153 333 21117 555 92312
AAXX 23124 70326 32066 20000 11189 21211 39964 49978 53005 91154 333 21189 4/005 555 92312
AAXX 23124 70340 35966 0//05 11106 21167 39908 49970 51028 91153 333 21111 555 92312
AAXX 23124 70350 32966 02506 11028 21122 39882 49923 53019 91153 333 21044 555 92312
AAXX 23124 70361 12666 82509 10017 21039 39941 49952 51083 60041 91153 333 20017 4/030 70442 91019 555 92312
AAXX 23124 70381 11566 82408 10039 20011 39976 49987 53091 60031 761// 91153 333 20039 70137 555 92312
AAXX 23124 70414 35566 63313 10000 21044 30139 40176 53025 91156 333 21006 555 92312
AAXX 23124 78526 12666 80000 10228 20206 30166 40187 53012 60011 91156 333 10283 20222 70010 555 92312
AAXX 23124 78543 12766 20409 10250 20189 30102 40184 53011 69931 91153 333 10289 20217 70005 555 92312
AAXX 23121 22028 41598 72311 11022 21044 39951 49989 57030 73631 86904 333 91014 91119
AAXX 23121 22106 42598 72103 11013 21046 39910 49988 58030 87500 333 87624 91003 91113
AAXX 23121 22127 42998 32104 11049 21059 39823 40027 57026 82031 333 91007 93505
AAXX 23121 22324 41582 82106 11016 21040 30022 40072 57020 78582 889// 333 91010 91111
AAXX 23121 22621 42598 82103 11045 21051 39992 40136 57013 885// 333 88628
AAXX 23121 22831 41998 83101 11033 21047 30094 40156 58005 70272 8802/
AAXX 23121 22892 41597 72106 10013 21013 30138 40154 57013 70282 87500 333 87628
AAXX 23121 26275 41397 82102 11009 21022 30161 40192 58002 77172 8872/ 333 88709
AAXX 23121 26389 41459 83202 11024 21043 39920 40191 58002 71022 886//
AAXX 23121 26499 41497 83205 11026 21052 39947 40183 52005 78582 889// 333 88915
AAXX 23121 26695 41496 83303 11025 21047 39876 40192 52005 77172 8652/ 333 86616
AAXX 23121 26882 41956 83303 11019 21043 39922 40206 52005 77172 8807/
BBXX V7NV4 23124 99300 71702 41797 80722 10190 20175 40250 53015 7//21 86722 22263 00220 20306 30606 40306 50306 6//// 80180 ICE /////
BBXX C6PZ8 23124 99257 70801 417// 41310 10230 2022/ 40240 54/// 7//// 83292 22200 00250 2//// 3//// 4//// 5//// 6//// 80220 ICE /////
BBXX SCKB 23123 99504 70169 41797 32927 10100 20037 40310 51003 7//// 83/78 22263 00110 21008 3//// 40806 5//// 6//// 80070 ICE /////
BBXX NWS0020 23124 99316 70375 43/// /1416 10212 20173 40240 5//// 7//// 8//// 222// 04220 2//// 3//// 4//// 5//// 6//// 8//// ICE /////
BBXX WCX9106 23123 99603 71465 41295 82205 10006 2//// 49830 52030 77577 88/// 22200 0//// 2//00 322// 4//01 5//// 6//// 8//// ICE /////
BBXX C6FN5 23123 99240 70887 41798 31214 10230 2017/ 40150 54/// 70111 83800 22274 00250 20000 3//// 40000 50000 6//// 80190 ICE /////
BBXX WZP8164 23124 99467 70921 41/98 81705 11066 2//// 40179 57000 70222 8//// 22200 0//// 2//// 3//// 4//// 5//// 6//// 8//// ICE /////
BBXX C6FM8 23124 99260 70778 41798 51215 10250 20207 40220 54/// 7//// 852// 22234 0//// 21000 3//// 41000 51000 6//// 80220 ICE /////
BBXX NWS0003 23124 99539 71665 43/// /0000 10014 21014 49993 5//// 7//// 8//// 222// 0//// 2//// 3//// 4//// 5//// 6//// 8//// ICE /////
BBXX V7HP4 23124 99100 70800 41596 80924 10260 20246 40070 56010 7//// 88777 22243 00250 21006 3//// 4//// 5//// 6//// 80250 ICE /////
BBXX 3FPQ9 23123 99244 70877 41696 61415 10240 2021/ 40170 54000 70222 86070 22285 00270 20802 31414 40802 50802 6//// 80220 ICE /////
AAXX 23124 91165 32966 00515 10228 20178 30155 40191 55003 91153 333 20211 70013 555 92312
AAXX 23124 91182 12566 40711 10233 20167 30171 40176 58006 69931 91153 333 20228 70003 555 92312
AAXX 23124 91190 37666 80715 10200 20156 30168 40188 58001 761// 91154 333 20200 91021 555 92312
AAXX 23124 91212 32466 40807 10267 20233 31338 40076 51016 91154 333 70003 555 92312
AAXX 23124 91285 11466 82203 10189 20183 30168 40180 58004 60051 761// 91153 333 20189 70183 555 92312
AAXX 23124 91356 11456 80813 10264 20245 30040 40047 50003 60171 78082 8627/ 333 10289 56299 59020 70386 86818 555 92312
AAXX 23120 44210 32999 20000 11180 21206 38608 54000 82080 333 11129
AAXX 23120 44216 32999 03203 11280 21304 39124 40540 56003 333 11253
AAXX 23120 44217 32998 00000 11196 21215 37923 40513 56003 333 11127
AAXX 23120 44219 NIL
AAXX 23120 44221 NIL
AAXX 23120 44224 NIL
AAXX 23120 44229 31999 72705 11151 21185 37944 40368 53005 70232 87010 333 11132
AAXX 23120 44242 329// 01102 11227 21247 39351 40357 54000 333 11139
AAXX 23120 44243 329// 42301 11216 21240 39451 40362 54000 84070 333 11174
AAXX 23120 44254 329// 72904 11167 21221 39031 40280 58003 80008 333 11110
AAXX 23120 44257 329// 21101 11177 21219 38968 40321 52002 82040 333 11106
AAXX 23120 44263 32998 00000 11224 21272 38134 40542 57009 333 11181
AAXX 23120 44266 329// 03603 11162 21204 37819 40430 54003 333 11118
AAXX 23120 44286 329// 42905 11138 21197 38659 40337 57003 84070 333 11118
AAXX 23120 44291 319// 01601 11286 21316 38756 40458 58003 70400 333 11188
AAXX 23120 44325 329// 00000 11103 21176 38927 40382 57005 333 11051
AAXX 23120 44329 32998 03205 11136 21207 37802 40394 56003 333 11100
AAXX 23120 44338 32999 01802 11131 21192 38510 40355 57001 333 11054
AAXX 23120 44348 329// 23203 11147 21160 38711 40328 56007 80004 333 11138
AAXX 23120 44374 32999 02707 11122 21195 38302 40404 58002 333 11054
AAXX 23120 44385 32999 02704 11090 21177 38969 40341 56004 333 11047
AAXX 23120 44386 329// 02702 11149 21191 39091 40345 54000 333 11102
AAXX 23121 28676 426// 50000 11137 21217 30207 40343 57019 82530 555 1/115
AAXX 23121 28766 429// 82005 11163 21195 30133 40338 57015 82031 555 1/118
AAXX 23121 28867 NIL
AAXX 23121 28879 429// 61904 11074 21157 30054 40354 57013 80005 555 1/113
AAXX 23121 28952 NIL
AAXX 23121 28966 429// 61401 11139 21202 30052 40356 57025 83035 555 1/116
AAXX 23121 29802 429// 21903 11169 21227 30229 40385 57007 80001 555 1/119
AAXX 23121 29807 429// 00000 11168 21199 30255 40383 57018 555 1/119
AAXX 23121 34691 41998 81101 11024 21058 30236 40223 53014 70242 8802/ 555 1/102
AAXX 23121 35067 429// 61101 11130 21178 30057 40351 57020 80005 555 1/116
AAXX 23121 35078 42998 30803 11189 21219 39971 40385 57016 80001 555 1/120
AAXX 23121 35085 429// 60000 11152 21177 39876 40388 57016 80001 555 1/120
AAXX 23121 35108 41496 81803 11094 21110 30182 40230 57006 77772 886//
AAXX 23121 35188 429// 31601 11094 21184 39921 40378 57017 80001 555 1/117
AAXX 23121 35217 42998 71503 11110 21147 30200 40243 57003 87080 555 1/110
AAXX 23121 35229 42998 71601 11112 21158 39987 40275 57011 82031 555 1/114
AAXX 23121 35302 42598 81702 11084 21116 30210 40232 57006 885// 555 1/107
AAXX 23121 35357 42997 21103 11164 21198 39897 40366 57018 82030 555 1/121
AAXX 23121 35394 42998 21201 11097 21211 39674 40386 57016 80001 555 1/121
AAXX 23121 35406 42997 61502 11111 21155 30226 40228 57010 86030 555 1/110
AAXX 23121 35416 42997 71204 11116 21174 30125 40252 57007 87070 555 1/112
AAXX 23121 35426 42999 81002 11142 21177 39966 40277 56014 8801/ 555 1/115
AAXX 23121 35497 429// 00000 11084 21192 39541 40374 57017 555 1/112
AAXX 23121 35532 41993 71112 11178 21219 39755 40283 57022 73933 87030 333 91016 555 1/117
AAXX 23121 35671 42998 00704 11109 21168 39892 40345 57019 555 1/114
AAXX 23121 35700 42998 80703 11082 21114 30231 40207 57010 8807/ 555 1/108
AAXX 23121 35746 42998 80803 11162 21196 30214 40286 57017 80001 555 1/117
AAXX 23121 35796 42997 00305 11114 21182 39901 40361 57023 555 1/115
AAXX 23121 35849 42998 40702 11149 21191 30185 40277 57014 80002 333 1/115
AAXX 23121 35925 42998 70905 11096 21126 30100 40217 57022 87010 555 1/109
AAXX 23121 35953 42999 20804 11140 21183 30147 40285 57015 80002 555 1/115
AAXX 23121 35969 42999 00904 11136 21179 30123 40307 57030 555 1/115
AAXX 23121 36003 42998 41601 11180 21214 30240 40405 57006 82031 555 1/120
AAXX 23121 36152 429// 21604 11189 21244 30212 40418 57014 80001 555 1/122
AAXX 23121 36177 429// 61104 11196 21231 30172 40442 57012 80001 555 1/122
AAXX 23121 36208 429// 00902 11130 21178 39399 40440 57015 555 1/118
AAXX 23121 36397 419// 01608 11192 21227 39831 40446 57010 73833 555 1/121
AAXX 23121 36428 429// 00000 11274 21298 39945 40512 57013 333 95090 555 1/130
AAXX 23121 36535 429// 00000 11276 21313 39802 40520 57011 555 1/130
AAXX 23121 36639 429// 00000 11186 21227 39723 40378 57009 555 1/122
AAXX 23121 36821 429// 00000 11167 21206 39827 40355 57011
AAXX 23121 36859 429// 00000 11117 21157 39516 40342 57014 555 1/118
AAXX 23121 36864 NIL
AAXX 23121 36870 419// 00000 11111 21143 39251 40319 57012 70400 555 1/115
AAXX 23121 38001 42997 30203 10004 21067 30195 40165 57019 83040 555 10002
AAXX 23121 38062 42999 00802 11134 21186 30109 40283 57014 555 1/114
AAXX 23121 38069 42998 00701 11027 21122 30068 40264 57012
AAXX 23121 38196 42998 00000 11010 21093 39258 40253 56007
AAXX 23121 38198 41996 02701 11056 21117 39999 40268 57016 71000 555 1/111
AAXX 23121 38222 42997 02001 11140 21183 39721 40320 57013 555 1/118
AAXX 23121 38232 41996 71103 11006 21116 30067 40167 57020 70522 80006 555 1/100
AAXX 23121 38328 42999 00000 11006 21059 39507 40248 57012 555 1/112
AAXX 23121 38334 42998 00000 10002 21087 39271 40243 57013 555 1/109
AAXX 23121 38341 42997 01901 11128 21171 39471 40308 57010 555 1/111
AAXX 23121 38343 42998 00000 11110 21146 39416 40308 57006
AAXX 23121 38439 41996 00701 11003 21069 39907 40252 57012 71000 555 14101
AAXX 23121 28676 426// 50000 11137 21217 30207 40343 57019 82530 555 1/115
AAXX 23121 28766 429// 82005 11163 21195 30133 40338 57015 82031 555 1/118
AAXX 23121 28867 NIL
AAXX 23121 28879 429// 61904 11074 21157 30054 40354 57013 80005 555 1/113
AAXX 23121 28952 NIL
AAXX 23121 28966 429// 61401 11139 21202 30052 40356 57025 83035 555 1/116
AAXX 23121 29802 429// 21903 11169 21227 30229 40385 57007 80001 555 1/119
AAXX 23121 29807 429// 00000 11168 21199 30255 40383 57018 555 1/119
AAXX 23121 34691 41998 81101 11024 21058 30236 40223 53014 70242 8802/ 555 1/102
AAXX 23121 35067 429// 61101 11130 21178 30057 40351 57020 80005 555 1/116
AAXX 23121 35078 42998 30803 11189 21219 39971 40385 57016 80001 555 1/120
AAXX 23121 35085 429// 60000 11152 21177 39876 40388 57016 80001 555 1/120
AAXX 23121 35108 41496 81803 11094 21110 30182 40230 57006 77772 886//
AAXX 23121 35188 429// 31601 11094 21184 39921 40378 57017 80001 555 1/117
AAXX 23121 35217 42998 71503 11110 21147 30200 40243 57003 87080 555 1/110
AAXX 23121 35229 42998 71601 11112 21158 39987 40275 57011 82031 555 1/114
AAXX 23121 35302 42598 81702 11084 21116 30210 40232 57006 885// 555 1/107
AAXX 23121 35357 42997 21103 11164 21198 39897 40366 57018 82030 555 1/121
AAXX 23121 35394 42998 21201 11097 21211 39674 40386 57016 80001 555 1/121
AAXX 23121 35406 42997 61502 11111 21155 30226 40228 57010 86030 555 1/110
AAXX 23121 35416 42997 71204 11116 21174 30125 40252 57007 87070 555 1/112
AAXX 23121 35426 42999 81002 11142 21177 39966 40277 56014 8801/ 555 1/115
AAXX 23121 35497 429// 00000 11084 21192 39541 40374 57017 555 1/112
AAXX 23121 35532 41993 71112 11178 21219 39755 40283 57022 73933 87030 333 91016 555 1/117
AAXX 23121 35671 42998 00704 11109 21168 39892 40345 57019 555 1/114
AAXX 23121 35700 42998 80703 11082 21114 30231 40207 57010 8807/ 555 1/108
AAXX 23121 35746 42998 80803 11162 21196 30214 40286 57017 80001 555 1/117
AAXX 23121 35796 42997 00305 11114 21182 39901 40361 57023 555 1/115
AAXX 23121 35849 42998 40702 11149 21191 30185 40277 57014 80002 333 1/115
AAXX 23121 35925 42998 70905 11096 21126 30100 40217 57022 87010 555 1/109
AAXX 23121 35953 42999 20804 11140 21183 30147 40285 57015 80002 555 1/115
AAXX 23121 35969 42999 00904 11136 21179 30123 40307 57030 555 1/115
AAXX 23121 36003 42998 41601 11180 21214 30240 40405 57006 82031 555 1/120
AAXX 23121 36152 429// 21604 11189 21244 30212 40418 57014 80001 555 1/122
AAXX 23121 36177 429// 61104 11196 21231 30172 40442 57012 80001 555 1/122
AAXX 23121 36208 429// 00902 11130 21178 39399 40440 57015 555 1/118
AAXX 23121 36397 419// 01608 11192 21227 39831 40446 57010 73833 555 1/121
AAXX 23121 36428 429// 00000 11274 21298 39945 40512 57013 333 95090 555 1/130
AAXX 23121 36535 429// 00000 11276 21313 39802 40520 57011 555 1/130
AAXX 23121 36639 429// 00000 11186 21227 39723 40378 57009 555 1/122
AAXX 23121 36821 429// 00000 11167 21206 39827 40355 57011
AAXX 23121 36859 429// 00000 11117 21157 39516 40342 57014 555 1/118
AAXX 23121 36864 NIL
AAXX 23121 36870 419// 00000 11111 21143 39251 40319 57012 70400 555 1/115
AAXX 23121 38001 42997 30203 10004 21067 30195 40165 57019 83040 555 10002
AAXX 23121 38062 42999 00802 11134 21186 30109 40283 57014 555 1/114
AAXX 23121 38069 42998 00701 11027 21122 30068 40264 57012
AAXX 23121 38196 42998 00000 11010 21093 39258 40253 56007
AAXX 23121 38198 41996 02701 11056 21117 39999 40268 57016 71000 555 1/111
AAXX 23121 38222 42997 02001 11140 21183 39721 40320 57013 555 1/118
AAXX 23121 38232 41996 71103 11006 21116 30067 40167 57020 70522 80006 555 1/100
AAXX 23121 38328 42999 00000 11006 21059 39507 40248 57012 555 1/112
AAXX 23121 38334 42998 00000 10002 21087 39271 40243 57013 555 1/109
AAXX 23121 38341 42997 01901 11128 21171 39471 40308 57010 555 1/111
AAXX 23121 38343 42998 00000 11110 21146 39416 40308 57006
AAXX 23121 38439 41996 00701 11003 21069 39907 40252 57012 71000 555 14101
AAXX 23124 91245 32566 2//// 10270 20200 30127 91155 555 92312
BBXX 46111 23121 99481 71227 46/// /2402 10046 40297 51027 91200 22200 00050
BBXX 46112 23121 99481 71227 46/// /2901 10046 40295 51023 91200
AAXX 23123 64800 NIL
AAXX 23123 64820 NIL
AAXX 23123 64860 32960 52602 10330 20037 39841 40109 80002 333 0//00 59001 85080
AAXX 23123 64861 NIL
AAXX 23123 64870 32560 70804 10287 20009 38907 48503 80002 333 0//00 59018 87080
AAXX 23123 64871 NIL
AAXX 23123 64892 NIL
AAXX 23123 64893 NIL
AAXX 23123 64894 NIL
AAXX 23123 64910 NIL
AAXX 23123 64911 NIL
AAXX 23123 64950 NIL
AAXX 23124 91943 16/// /0906 10240 20224 30115 40117 57013 69941 333 58022
AAXX 23124 91945 36/// /0712 10258 20221 30143 40148 56013 333 10293
AAXX 23121 37575 41595 80702 10057 20038 39580 40168 57019 72166 882// 555 12007
AAXX 23121 37675 41495 80701 10026 20010 39492 40157 57018 70242 8802/ 555 11004
AAXX 23121 37735 42596 83602 10059 20035 39772 40149 58009 887// 555 11008
AAXX 23121 37749 42598 81602 10082 20051 30075 40191 57019 887// 555 11009
AAXX 23121 37756 41597 82804 10034 20021 39307 40226 57017 70242 887// 555 11009
AAXX 23121 37864 32497 80000 10077 20046 40155 57013 8661/ 333 86713
AAXX 23121 37985 41495 83201 10087 20081 30171 40164 57020 75055 886// 555 11009
BBXX WAHV 23123 99185 10652 43498 80410 10240 2021/ 40137 55005 885// 22265 00266 20402 80215
BBXX SERW 23123 99211 70208 43898 00914 10220 2//// 40214 50006 72000 80030 22252 06210 20604 3//// 4////
BBXX ZCBO2 23124 99264 50266 41297 41105 10251 20218 40253 54000 70111 82165 22233 20701 304// 40702 5//// 80228
BBXX ONDY 23124 99313 30348 41698 81729 10250 2019/ 40170 52020 70222 88/7/ 22213 00254 2//// 3//// 4//// 5//// 6//// 80210 ICE /////
BBXX VRGJ6 23123 99171 10408 41598 12021 10275 20216 40107 58014 70100 81100 22244 04279 20604 316// 40705 5//// 80235
BBXX OYGR2 23124 99232 10367 41397 13611 10250 20158 40134 58017 70200 81600 22235 04253 20201 80190
BBXX UBAU 23121 99121 70176 41498 70507 10253 40151 57001 70310 8765/ 22211 04245 20401
BBXX PDHO 23123 99212 10665 41998 40318 10220 20117 40125 56024 70200 80005 22234 00263 20504 30000 80158
BBXX A8TC4 23124 99089 50345 41398 30927 10250 20235 40135 52005 70200 8/468 22283 04290 20604 311// 40703 5//// 80240
BBXX C6IO9 23124 99241 70189 41598 13320 10210 20151 40252 54000 70200 81044 22253 06200 20502 305// 40802 5//// 80175
BBXX A8KH9 23124 99350 30233 41498 31212 10180 20148 40175 54000 70300 83200 22224 20402 32200 41208 5//// 80160
BBXX ELWR5 23120 99024 50819 41698 71908 10236 20210 40106 53016 70011 86038 22200 04250 20304 316// 40404 80218
AAXX 23124 41915 31440 52902 10158 20130 30085 40111 70522 82531 333 10217 56999 59021 70000 82618 83362
AAXX 23124 41926 31950 23601 10149 20130 30107 40121 70500 82030 333 10195 56090 59013 70000 82365
AAXX 23124 41941 31440 60000 10142 20120 30090 40096 70522 85420 333 10172 56990 59016 70000 84616 86460
AAXX 23124 41947 31450 13601 10156 20140 30114 40116 70544 81500 333 10180 56800 59012 70000 81618
AAXX 23124 41963 31925 73601 10164 20130 30102 40105 70522 87010 333 10207 56090 59015 70000 87460
AAXX 23124 41964 31940 60000 10149 20140 30115 40118 70522 82011 333 10207 56099 59016 70000 82460 85082
AAXX 23124 41984 31440 33602 10150 20130 30099 40101 70520 83500 333 10185 56900 59019 70000 83618
AAXX 23124 41989 31440 40000 10162 20140 30103 40106 70521 82530 333 10182 56990 59015 70000 82618 83362
BBXX 44067 23121 99384 70770 46/// /0304 10101 40157 53055 91200
BBXX 42085 23121 99179 70665 46/// /0710 10256 40174 91200 22200 00271 10803 70017 333 91212
BBXX 44032 23121 99437 70694 46/26 /0709 10028 40128 56018 91204 22200 00085 10803 70015 333 91210 555 11103 22108
BBXX UFTA 23121 99848 71244 41596 53407 11221 21247 40037 53005 73883 85500 333 11167
BBXX WGAX 23124 99349 70657 43498 42333 10205 2017/ 40179 58003 7//// 83039 22262 00212 20504 327// 41202 5//// 6//// 80180 ICE /////
BBXX V7HP4 23124 99100 70800 41596 80924 10260 20246 40070 56010 7//// 88777 22243 00250 21006 3//// 4//// 5//// 6//// 80250 ICE /////
BBXX SMGW 23121 99345 71727 43/98 03005 10153 40293 50000 22224 00195 2//// 4////
BBXX SJCD 23121 99534 71493 43/94 90910 10001 49917 58064 22263 00041
BBXX 44150 23121 99425 70640 46/// /1107 10071 40155 57035 22200 00082 11004 70021 333 91208
BBXX 41037 23121 99340 70775 46/// /2508 10193 40172 53018 91200 22200 00175 333 91210
BBXX 41053 23121 99185 70661 46/// /1106 10251 40177 91150 333 91208
BBXX 41053 23121 99185 70661 46/// /1306 10249 40175 91140 333 91210
BBXX 41053 23121 99185 70661 46/// /1304 10250 40177 53009 91200 22200 00267 10904 70021 333 91207
BBXX 44139 23121 99442 70571 46/// /0602 10044 40197 52006 22200 00065 11006 70032 333 91203
BBXX 44022 23121 99409 70737 46/// ///06 10079 20061 40109 53004 91200 22200 00084 333 91207 555 11062 22067
BBXX WCX9106 23123 99603 71465 41295 82205 10006 2//// 49830 52030 77577 88/// 22200 0//// 2//00 322// 4//01 5//// 6//// 8//// ICE /////
BBXX A8EH2 23124 99531 71548 41/96 /0525 10015 20015 49855 58065 76875 8//// 22265 00035 20606 80015
BBXX C6FM8 23124 99260 70778 41798 51215 10250 20207 40220 54/// 7//// 852// 22234 0//// 21000 3//// 41000 51000 6//// 80220 ICE /////
BBXX C6FN5 23123 99240 70887 41798 31214 10230 2017/ 40150 54/// 70111 83800 22274 00250 20000 3//// 40000 50000 6//// 80190 ICE /////
BBXX 9HA2583 23124 99349 70706 41798 82035 1//// 2//// 40210 54/// 7//// 88476 22274 04224 2//// 3//// 4//// 5//// 6//// 8//// ICE /////
BBXX SHIP 23124 99341 71327 41798 31112 10150 2012/ 40310 54000 70200 83466 22234 00190 20102 310// 40102 5//// 6//// 85130 ICE /////
BBXX A8SZ4 23123 99257 70484 41498 50421 10230 20185 40222 70311 8412/ 22223 20404 303// 41407 80200
BBXX C6PZ8 23124 99257 70801 417// 41310 10230 2022/ 40240 54/// 7//// 83292 22200 00250 2//// 3//// 4//// 5//// 6//// 80220 ICE /////
BBXX KRGB 23124 99335 71351 41698 41317 10139 20120 40288 57010 70300 84400 22254 00156 21004 330// 41204 5//// 6//// 80128 ICE /////
BBXX PECF 23123 99223 70859 41498 40908 10250 20229 40180 53/// 70211 83170 22273 02250 20301 318// 40604 80235
BBXX C6VR5 23123 99257 70412 41597 41316 10225 20199 40205 51014 70311 84441 22224 04241 20804 302// 41204 80208
BBXX C6KD6 23124 99254 70664 41598 50916 10245 20199 40259 53030 70322 83565 22214 02247 20805 80215
BBXX PJKV 23123 99185 70562 41497 40725 10260 20199 40188 53011 70300 84221 22254 04280 20604 305// 41004 5//// 80220
BBXX 44060 23121 99413 70721 46/// ///07 10074 40103 55000 91200 22200 00103 333 91210 555 11082 22082
BBXX 46053 23121 99342 71198 46/// /0703 10135 40299 51005 91150 22200 00139 11302 325// 41302 70009 333 91204 555 11030 22031 31054 40404 61149 066029 059029 055032 049029 043027 036033
BBXX 46042 23121 99368 71224 46/// /1003 10106 40326 53006 91150 22200 00124 11103 20301 331// 41103 70017 333 91204 555 11029 22030 31056 41105 61149 099029 104029 107031 107032 108035 113037
BBXX C6VG7 23124 99204 70858 41598 20615 10258 2020/ 40166 52004 7//00 821// 22275 00280 20203 309// 4//// 5//// 6//// 80217 ICE /////
BBXX NWS0029 23124 99415 70707 43/// /0815 10070 20054 40092 5//// 7//// 8//// 222// 04093 2//// 3//// 4//// 5//// 6//// 8//// ICE /////
BBXX OWFD2 23124 99204 70594 41497 20712 10250 20226 40200 58150 71600 8/1// 22254 04260 20304 306// 41005 80233
BBXX 2AKI3 23124 99264 70918 41/98 /2109 10212 20188 40182 54000 70382 8//// 22234 04237 2//// 3//// 4//// 5//// 80197
BBXX A8IN8 23123 99287 70550 41298 60520 10210 20155 40255 53015 70311 84441 22254 04260 20504 303// 40803 80175
BBXX C6KD4 23123 99288 70456 41498 60421 10220 20189 40228 52010 70322 85442 22254 04232 20710 399// 40508 80200
BBXX PDHW 23123 99467 70567 41499 32929 10020 21024 40170 52030 70211 821/2 22273 00040 20101 329// 40303 80005
BBXX A8IP3 23123 99416 70391 41297 62119 10148 20108 40303 51005 72555 85768 22214 04160 20503 327// 41004 80125
BBXX 41041 23121 99142 70460 46/// /0607 10257 20205 40156 51021 91150 22200 00264 10904 20603 3//// 40904 70022 333 91209 555 11075 22080 31135 40710 61149 063071 075076 092068 090062 073066 071064 80709 91135
BBXX 46001 23121 99563 71480 46/// /2607 10027 49945 51013 91150 22200 00046 11208 20604 300// 41207 70039 333 91209 555 11078 22082 31055 42711 61149 256074 255079 256077 256077 256087 263089
BBXX 9V8797 23124 99063 10943 43/97 82110 10265 40041 54018 22224 00285 2//// 4////
BBXX 2ALD3 23123 99130 11297 41/98 30516 10280 20253 40073 53014 70311 83/// 22234 04270 299// 80260
BBXX ZCAS2 23123 99326 11347 41298 70113 10105 20008 40160 54000 70222 87700 22243 00220 21001 30000 80065
BBXX 2AKI2 23123 99122 11143 41/98 80427 10265 20244 40087 53011 70222 8//// 22214 00275 20101 302// 40307 5//// 80250
BBXX PHOB 23124 99060 10961 41298 61320 10280 20267 40054 53013 70211 85275 22223 00270 20303 3//// 4//// 5//// 80270
BBXX MIBR 23124 99123 11113 41397 70330 10245 20207 40116 54000 70222 8477/ 22254 00262 20406 3//// 4//// 5//// 80220
BBXX OXOR2 23124 99086 11091 41397 70327 10252 20220 40085 53006 70522 8677/ 22254 00256 20606 80229
BBXX DGDD 23121 99344 11501 41/97 83611 10140 20085 40070 52020 70222 88/// 22224 00200 2//// 3//// 4//// 5//// 80110
BBXX DGZR2 23123 99053 11067 41/97 /0425 10260 20232 40052 52006 70222 8//// 22214 00250 2//06 80240
BBXX PHPP 23123 99059 10877 41598 80917 10273 20244 40036 53007 71582 83378 22264 00295 20304 303// 41205 80252
BBXX DGHX 23123 99316 11399 41/98 /3230 10130 20063 40115 52015 70022 8//// 22264 00200 2//// 80095
BBXX DPCK 23123 99521 11681 41297 42705 11010 21023 40210 52010 70171 831// 22215 00030 20101 3//// 4//// 5//// 81015
BBXX PBOF 23123 99379 11226 41/96 /2721 10030 21053 40230 52010 77488 8//// 22234 04097 20605 80000 90696
BBXX DGXS 23124 99271 11238 41/98 /1507 10140 20075 40215 52015 70022 8//// 22214 00220 2//// 3//// 4//// 5//// 80105
BBXX VRZN7 23124 99313 31531 41597 60515 10200 20190 40140 52018 70111 82623 22253 04245 2//// 3//// 4//// 5//// 85200
BBXX ZMKA 23124 99449 31719 41598 10807 10132 20125 40246 54000 70200 811// 22252 2//// 80128
BBXX A8VJ2 23123 99279 31539 41598 50811 10240 20202 40103 58/// 70322 83972 22213 00205 21005 307// 40505 80215
BBXX SHIP 23124 99104 31056 41/97 62208 10286 20275 49977 70322 222// 0//// 20201 301// 40201 5////
BBXX VRDG4 23123 99387 31493 41596 61935 10195 20149 40126 50004 703// 85368 22223 20403 80168
BBXX V2BE4 23121 99020 31456 41498 30405 10290 20248 40045 52025 70200 82180 22244 04305 20201 80260
BBXX VRAE3 23124 99012 11340 41697 33613 10291 20255 40040 54005 70103 83125 22234 00310 2//// 3//// 4//// 5//// 80265
BBXX VRZN7 23124 99313 31531 41597 60515 10200 2019/ 40140 52018 70111 82623 22253 04245 2//// 3//// 4//// 5//// 85200
BBXX PCAM 23123 99386 31702 41997 09902 10172 20136 40255 54000 7//00 80000 22273 2//// 399// 4//// 80150
BBXX MFLM9 23123 99230 31128 41397 31820 10250 20235 40055 56010 70311 82943 22273 04251 20303 318// 40304 5//// 80240
BBXX KAOU 23124 99005 10815 43/// /3016 10281 20236 40056 5//// 7//// 8//// 222// 04288 2//// 3//// 4//// 5//// 6//// 8//// ICE /////
BBXX PCDE 23123 99304 31533 41/98 60313 10223 20176 40138 54000 7//22 8//// 22213 20502 316// 40603 80192
BBXX PFBF 23123 99103 31624 41/98 10804 10278 20181 40053 50008 70100 8/0// 22233 02291 2//// 3//// 4//// 5//// 80212
BBXX SBHI 23123 99614 10174 43/92 81824 10024 40093 56040 22202 06042
BBXX SFIR 23124 99461 70289 43/97 42027 10119 40358 53012 22223 00140 20602 41404
BBXX UELS 23121 99492 10049 41497 82220 10130 40162 54000 72162 82400 22232 20405 330//
BBXX PDNN 23123 99469 70093 41598 33040 10132 20061 40284 52035 70111 82260 22223 02138 20307 327// 40806 80095 90697
BBXX 62023 23123 99514 70079 46/96 /3027 10078 2//// 40208 5//// 22200 10606 70029 333 91135 555 70044 81010
BBXX SCKB 23123 99504 70169 41797 32927 10100 20037 40310 51003 7//// 83/78 22263 00110 21008 3//// 40806 5//// 6//// 80070 ICE /////
BBXX WRYD 23124 99323 10311 41598 62529 10170 2010/ 40095 57020 70222 8664/ 22200 00193 20606 330// 40805 5//// 6//// 80130 ICE /////
BBXX LF4H 23124 99596 10022 46/98 12523 10070 20011 40008 52003 8//// 22200 06087 10810 70048 333 91136
BBXX LMEL 23121 99603 10053 43/// /1703 10054 20039 40006 5//// 222/0 04097 1//// 3//// 4//// 5////
BBXX LDGJ 23121 99603 10053 43/// /1703 10070 20022 40007 5//// 222/0 04096 1//// 3//// 4//// 5////
BBXX LAHV 23121 99589 10057 43/// /2703 10079 20060 40033 222// 04090 1////
BBXX PHIN 23124 99475 70209 41598 42816 10148 20076 40376 52048 70311 84200 22263 00130 20302 330// 41107 80109
BBXX UITJ 23121 99644 10054 41497 52328 10080 49797 57003 70282 85900 22251 00100 21312
BBXX ELVZ6 23124 99301 70129 41798 70416 10200 20176 40290 54000 70322 86770 22254 00190 20902 301// 41004 5//// 80185
BBXX C6KD8 23123 99394 70268 41298 71215 10162 20141 40368 51012 70322 84778 22254 02168 20905 327// 41305 5//// 80150
BBXX PBEN 23123 99374 10112 41/98 33625 10180 20131 40220 52020 7//11 831// 22263 21004 336// 41504 80150
BBXX UCKG 23121 99716 10008 41/97 93404 10030 49598 57013 75122 22233 00020 20101 31800 40603
BBXX MGSM5 23123 99538 10006 41297 82219 10085 20074 40095 57050 75122 886// 22253 04127 2//04 322// 4//06 5//// 80080
AAXX 23124 78062 11561 30000 10212 20209 40216 69923 71082 82830 333 10268 20209 58006 70002 82818 90999
BBXX SBLW 23123 99104 70882 43/98 31018 10254 40117 53019 22274 00254 2//// 4////
BBXX UCKZ 23121 99630 30705 42398 82203 11014 21025 49828 57003 8667/ 22223 01005 2//// ICE 37992
AAXX 23121 08521 11459 70206 10179 20126 30255 40326 50006 69901 72582 87800 333 85815
AAXX 23121 08524 12465 70404 10178 20126 30231 40330 52009 69911 87800 333 84814 84630 91008 91111
AAXX 23124 16153 12598 41606 10130 20081 39980 40246 50002 60001 81580 333 55307 81630 84357 555 0214/
BBXX SKOZ 23124 99472 70511 43/98 73215 10014 40153 53031 22214 00033 25021 41008
AAXX 23124 60360 NIL
AAXX 23124 60390 12560 42605 10164 20113 40277 56006 60001 83830 333 82820 83640 95900
AAXX 23124 60402 11557 73006 10137 20119 40271 50000 69941 70166 8683/ 333 0//13 83820 84640 95900
AAXX 23124 60419 11258 83104 10103 20082 40268 51004 69921 70362 888// 333 0//12 82805 84813 86626 95900
AAXX 23124 60475 12565 73214 10115 20080 39291 48553 58004 60001 879// 333 83826 81933 86840 95910
AAXX 23124 60490 12470 22604 10145 20084 40274 58004 60001 82600 333 82710 95900
AAXX 23124 60525 12665 22304 10205 20033 40226 50008 60001 82200 333 0//00 82840 95900
AAXX 23124 60531 12975 00000 10173 20057 40281 58008 60001 333 0//00 95900
AAXX 23124 60566 12960 00210 10166 20054 40260 58004 60001 333 0//00
AAXX 23124 60571 12970 00000 10188 20060 39337 48604 58008 60001 333 0//00 95900
AAXX 23124 60580 12960 00310 10188 20075 40243 58012 60001
AAXX 23124 60590 12960 03408 10170 20072 40263 56010 60001
AAXX 23124 60611 12560 60000 10165 20052 40214 57015 60001 84230 333 0//00 84830 83358
AAXX 23124 60620 12960 00206 10213 20024 40250 58009 60001 333 0//00
AAXX 23124 60630 12982 00314 10200 20051 40240 58012 60001 333 0//00
AAXX 23124 60656 12975 00910 10215 20033 40255 50005 60001 333 0//00
AAXX 23124 60670 12983 00000 10177 21013 39096 48536 58016 60001 333 0//00 95900
AAXX 23124 60680 12982 03004 10177 21062 38668 48545 56013 60001 333 0//00 95900
AAXX 23124 60351 11330 80206 10138 20131 40254 51003 60071 75266 886// 333 0//51 83710 83816 85630 95930
AAXX 23124 60355 NIL
AAXX 23124 60445 12458 71203 10076 20069 39092 48564 58001 60001 872// 333 82710 87826 95970
AAXX 23124 60468 12460 70000 10106 20052 39299 48562 58002 60001 878// 333 0//00 81710 87823 95970
AAXX 23124 60507 12970 02608 10160 20072 40279 58005 60001 333 95900
AAXX 23124 60511 12970 03010 10131 20047 39142 48571 50002 60001 333 95900
AAXX 23124 60535 12570 23612 10095 20054 38898 48560 58008 60001 82100 333 0//00 82823 95900
AAXX 23124 60536 12970 02606 10160 20061 39397 48577 50000 60002 333 95900
AAXX 23124 60549 12960 03506 10140 20044 39000 48594 50000 60001 333 95900
AAXX 23124 60550 12970 00000 10099 20025 38744 48578 50000 60001 333 95900
AAXX 23124 60555 12970 00000 10180 20076 40247 58005 60001 333 0//00
AAXX 23124 60559 12960 00000 10195 20079 40243 58016 60001 333 0//00
AAXX 23124 60581 12960 03604 10185 20076 40240 58009 60001 333 0//00
AAXX 23124 60602 12970 00000 10171 20016 40269 58005 60001 333 0//00 95900
AAXX 23124 60607 12960 00000 10179 20000 40249 58005 60001 333 0//00
AAXX 23124 60640 12960 00000 10175 20039 40229 56015 60001 333 0//00
AAXX 23124 60690 NIL
AAXX 23124 60351 11330 80206 10138 20131 40254 51003 60071 75266 886// 333 0//51 83710 83816 85630 95930
AAXX 23124 60355 NIL
AAXX 23124 60445 12458 71203 10076 20069 39092 48564 58001 60001 872// 333 82710 87826 95970
AAXX 23124 60468 12460 70000 10106 20052 39299 48562 58002 60001 878// 333 0//00 81710 87823 95970
AAXX 23124 60507 12970 02608 10160 20072 40279 58005 60001 333 95900
AAXX 23124 60511 12970 03010 10131 20047 39142 48571 50002 60001 333 95900
AAXX 23124 60535 12570 23612 10095 20054 38898 48560 58008 60001 82100 333 0//00 82823 95900
AAXX 23124 60536 12970 02606 10160 20061 39397 48577 50000 60002 333 95900
AAXX 23124 60549 12960 03506 10140 20044 39000 48594 50000 60001 333 95900
AAXX 23124 60550 12970 00000 10099 20025 38744 48578 50000 60001 333 95900
AAXX 23124 60555 12970 00000 10180 20076 40247 58005 60001 333 0//00
AAXX 23124 60559 12960 00000 10195 20079 40243 58016 60001 333 0//00
AAXX 23124 60581 12960 03604 10185 20076 40240 58009 60001 333 0//00
AAXX 23124 60602 12970 00000 10171 20016 40269 58005 60001 333 0//00 95900
AAXX 23124 60607 12960 00000 10179 20000 40249 58005 60001 333 0//00
AAXX 23124 60640 12960 00000 10175 20039 40229 56015 60001 333 0//00
AAXX 23124 60690 NIL
AAXX 23124 60360 NIL
AAXX 23124 60390 12560 42605 10164 20113 40277 56006 60001 83830 333 82820 83640 95900
AAXX 23124 60402 11557 73006 10137 20119 40271 50000 69941 70166 8683/ 333 0//13 83820 84640 95900
AAXX 23124 60419 11258 83104 10103 20082 40268 51004 69921 70362 888// 333 0//12 82805 84813 86626 95900
AAXX 23124 60475 12565 73214 10115 20080 39291 48553 58004 60001 879// 333 83826 81933 86840 95910
AAXX 23124 60490 12470 22604 10145 20084 40274 58004 60001 82600 333 82710 95900
AAXX 23124 60525 12665 22304 10205 20033 40226 50008 60001 82200 333 0//00 82840 95900
AAXX 23124 60531 12975 00000 10173 20057 40281 58008 60001 333 0//00 95900
AAXX 23124 60566 12960 00210 10166 20054 40260 58004 60001 333 0//00
AAXX 23124 60571 12970 00000 10188 20060 39337 48604 58008 60001 333 0//00 95900
AAXX 23124 60580 12960 00310 10188 20075 40243 58012 60001
AAXX 23124 60590 12960 03408 10170 20072 40263 56010 60001
AAXX 23124 60611 12560 60000 10165 20052 40214 57015 60001 84230 333 0//00 84830 83358
AAXX 23124 60620 12960 00206 10213 20024 40250 58009 60001 333 0//00
AAXX 23124 60630 12982 00314 10200 20051 40240 58012 60001 333 0//00
AAXX 23124 60656 12975 00910 10215 20033 40255 50005 60001 333 0//00
AAXX 23124 60670 12983 00000 10177 21013 39096 48536 58016 60001 333 0//00 95900
AAXX 23124 60680 12982 03004 10177 21062 38668 48545 56013 60001 333 0//00 95900
BBXX DCUJ2 23123 99364 70013 41498 39902 10150 20110 40270 50000 70200 83100 22224 00140 20000 321// 40402 80127
BBXX MDGV9 23124 99437 70099 41/97 83115 10142 20120 40323 52028 70252 887// 22253 10603 70017 80130
BBXX 46207 23121 99509 71299 46/// /2508 10082 40213 52051 22200 00082 11615 70074 333 91212
AAXX 23124 78062 11561 30000 10212 20209 40216 69923 71082 82830 333 10268 20209 58006 70002 82818 90999
BBXX 46207 23121 99509 71299 46/// /2508 10082 40213 52051 22200 00082 11615 70074 333 91212
AAXX 23121 11782 01450 82304 10004 20000 39914 40229 57017 69901 72272 886// 333 69905 88711 93502
BBXX 3ERR2 23124 99635 10053 41496 62440 10082 20029 49837 52005 78082 86900 22200 06098 11216 70080 333 91163
BBXX LF3F 23124 99643 10078 41595 62343 10071 20040 49824 57010 78180 869// 22200 04087 10917 70084 333 91154
BBXX LF3N 23124 99653 10073 41596 52536 10056 20039 49764 52005 72582 84930 22200 00090 10914 70072
BBXX LF4B 23124 99606 10037 47/96 /2728 10057 49991 52006 700// 22200 00054 10912 70062 333 91136
BBXX LF4C 23124 99584 10019 41697 72721 10079 20006 40041 52008 70221 81110 22200 00077 10707 70034 333 91132
BBXX LF5T 23124 99660 10081 41997 62540 10069 20027 49729 57015 71522 869// 22200 11015 70073 333 91157
AAXX 23124 41909 31440 83202 10138 20120 30099 40111 70542 8352/ 333 10161 56999 59015 70000 83615 88458
AAXX 23124 41998 31920 00000 10175 20160 30093 40099 70500 333 10234 59013 70000
AAXX 23123 87480 32962 81114 10208 20155 30069 40098 52027 8807/ 333 10264 20196 56069 88360
AAXX 23123 87532 32970 71824 10140 20085 39998 40169 52025 87070 333 10220 20110 56070 87360
AAXX 23121 78458 32466 60000 10211 20199 40200 52010 85830 333 10288 20199 31/// 56200 58007 79999 85818
AAXX 23121 78460 21466 60000 10196 20192 40190 51007 70361 84520 333 10284 20185 31/// 56200 58000 69957 70013 84614 85457
AAXX 23121 78467 21466 10000 10220 20205 40183 5//// 702// 81200 333 10284 20190 31/// 56100 59005 60022 70025 81818
AAXX 23121 78479 32566 40805 10248 20209 40172 52012 84200 333 10295 20246 30/// 56200 58008 70026 84820
AAXX 23121 78482 32566 40000 10222 20183 40206 5//// 81256 333 10305 20205 30/// 65000 58009 81818 83358
AAXX 23121 78485 32466 20203 10200 20183 40187 52012 82201 333 10304 20183 30/// 56000 58001 82816
AAXX 23121 78486 32466 63602 10222 20204 40168 52004 83206 333 10305 20215 30/// 50213 56400 59004 83816 85280
AAXX 23121 78488 32466 10000 10200 20195 40185 5//// 81200 333 10290 20175 30/// 56000 58001 81816
AAXX 23124 87344 32560 81809 10217 20065 39566 40099 52023 83576 333 10261 20200 56555 83625 84360
AAXX 23124 87349 32570 71805 10206 20039 39718 40103 52025 83576 333 10255 20192 30017 56532 83620 83360
AAXX 23124 87371 01258 81612 10234 20216 30062 40084 52020 69934 72992 8667/ 333 10265 20220 56339 69931 82705 84707 88360 96010
AAXX 23124 87374 01340 81413 10213 20207 39994 40079 52027 60154 79196 8662/ 333 10253 20212 56269 60151 84707 84618 88550 96010
AAXX 23124 87395 01558 81404 10219 20214 30048 40092 53023 60084 71792 8792/ 333 10224 20199 56799 57910 80071 86630 84540 81950 96010
AAXX 23124 87418 31958 01813 10174 21031 39370 40155 52039 70700 333 10256 20164
AAXX 23124 87436 42970 71113 10171 21009 39326 40124 52052 87070 333 10252 20144 56080 87360
AAXX 23124 87448 31660 81810 10176 20020 39594 40148 52032 70292 8457/ 333 10244 20145 56579 84635 84360
AAXX 23124 87453 32965 81811 10177 20098 39642 40123 52023 8807/ 333 10237 20170 56069 88360
AAXX 23124 87467 32970 51418 10205 20159 39961 40093 52013 83066 333 10236 20156 56076 83360 83270
AAXX 23124 87497 01565 81110 10204 20135 30077 40104 52019 69904 70352 885// 333 10266 20200 56399 69902 88630
AAXX 23124 87506 32965 01413 10082 21062 38606 48530 52019 333 10198 20042 95000
AAXX 23124 87509 31950 01416 10138 21038 39336 40184 52025 70700 333 10222 20108 30010 90020 90079 90085
AAXX 23124 87534 32460 81112 10173 20080 39978 40138 52032 8252/ 333 10231 20156 30014 56659 82615 88556
AAXX 23124 87548 31459 81406 10164 20136 30048 40142 52037 76162 8662/ 333 10256 20146 56779 86718 88550
AAXX 23124 87576 32960 71114 10211 20104 30120 40142 52023 84076 333 10279 20156 56076 84360 83270
AAXX 23124 87582 32960 71119 10212 20103 30128 40135 52020 87080 333 10285 20185 56060 87360
AAXX 23124 87585 32660 80904 10214 20114 30100 40128 52019 8687/ 333 10272 20167 30016 56679 83835 85640
AAXX 23121 22165 42598 71509 11006 21076 30006 40068 57014 87500
AAXX 23121 22676 41858 83001 11082 21092 30055 40137 57004 77072 8807/
AAXX 23121 22837 42598 72301 11032 21046 30086 40158 58001 70272 8657/
AAXX 23121 22954 41358 83303 11077 21091 39888 40147 52001 77172 8572/ 333 85709
AAXX 23121 23405 41470 69901 11105 21118 30037 40140 57003 72272 85530 333 85615
AAXX 23121 23412 41396 80901 11110 21123 30046 40147 57010 77172 8677/ 333 86708
AAXX 23121 23803 42599 81501 11090 21106 39962 40148 58007 885// 333 88624
AAXX 23121 27066 41596 80000 11082 21101 39936 40121 54000 77177 8457/
AAXX 23121 27083 41458 81201 11086 21101 39896 40128 58006 77172 8802/
AAXX 23121 27113 41460 83202 11056 21074 39999 40150 51001 72272 8535/ 333 84913
AAXX 23121 27242 41458 83001 11066 21074 39995 40128 52007 78582 8692/ 333 88915
AAXX 23121 27329 42570 73303 11054 21079 30017 40147 51002 87500
AAXX 23121 27355 42497 82702 11066 21074 39964 40134 52012 885//
AAXX 23121 27373 41996 81501 11058 21069 39890 40114 54000 77173 8802/
AAXX 23121 27665 42996 82102 11024 21040 39858 40133 52008 77172 8802/
AAXX 23121 27835 41450 81702 11023 21035 39976 40138 52002 77172 8872/ 333 87710
AAXX 23121 28009 41456 81802 11075 21092 39943 40161 58003 78582 889//
AAXX 23121 28411 41597 81605 11080 21102 39989 40192 57005 78582 8597/
AAXX 23121 28418 41599 81504 11077 21103 30027 40201 57006 70282 885// 333 88620
AAXX 23121 22282 425// 72303 11015 21038 30099 40107 53002 85550
AAXX 23121 22438 NIL
AAXX 23121 22471 41984 81801 11057 21064 30102 40127 58008 70282 8803/
AAXX 23121 22563 42661 81401 11066 21071 30102 40142 58005 885// 333 88640
AAXX 23121 22641 42699 70000 11025 21041 30124 40140 58007 83530 333 91102
AAXX 23121 22695 41396 80502 11084 21090 39977 40136 57003 77172 8672/ 333 86709
AAXX 23121 22867 41497 80000 11070 21087 30016 40133 52004 77172 8872/ 333 88711 91103
AAXX 23121 22939 41496 83201 11051 21072 39987 40155 54000 77072 8372/
AAXX 23121 22996 41596 81601 11082 21105 39942 40139 53001 77172 8552/
AAXX 23121 23324 42481 70000 11140 21153 30071 40153 57010 87600 333 87712
AAXX 23121 27008 41997 82901 11028 21041 39991 40166 52001 77072 8807/
AAXX 23121 27051 41497 73501 11084 21099 39949 40122 52004 70272 86530 333 83915
AAXX 23121 27225 41859 83504 11062 21081 30022 40157 52014 77172 8802/
AAXX 23121 27252 41956 82901 11078 21088 39927 40120 52006 77172 8802/
AAXX 23121 27333 41827 83402 11064 21076 39970 40132 52006 77372 8802/
AAXX 23121 27369 41958 82801 11059 21070 39976 40118 52006 77172 8801/
AAXX 23121 27393 41496 81806 11072 21089 39973 40145 57006 77173 8677/
AAXX 23121 27479 41457 82104 11010 21026 39979 40114 52002 78587 889// 333 88917
AAXX 23121 27532 41496 83302 11058 21063 39924 40143 52007 77187 8577/
AAXX 23121 27648 41496 82801 11044 21053 39971 40144 52013 71072 8872/
AAXX 23121 27675 41496 82205 11015 21029 39956 40128 52002 8872/
AAXX 23121 27679 41497 82004 11018 21036 39914 40140 52001 77172 8872/ 333 88515
AAXX 23121 28214 41596 81602 11071 21088 39953 40172 57004 77172 8872/
AAXX 23121 34560 42597 70703 10002 21018 30019 40188 57011 87500 333 87627
AAXX 23121 34720 42599 80204 10008 21027 30125 40165 56018 885//
AAXX 23121 34730 41596 80205 10005 21019 30071 40165 57014 71062 8355/
AAXX 23121 34740 41596 80904 10041 20031 30054 40151 56010 71022 889//
AAXX 23121 34824 41597 80405 10019 21006 30140 40145 56016 78082 883//
AAXX 23121 34858 41496 81402 10050 20037 30051 40159 56014 71042 886//
AAXX 23121 34866 41498 81104 10041 20020 30180 40171 57019 70244 8860/
AAXX 23121 34880 42597 70302 10032 21031 30214 40188 56014 87500 333 87625
AAXX 23121 37018 42998 60503 10123 20029 30020 40094 57015 80001
AAXX 23121 37054 41496 81104 10034 20024 39765 40151 57012 71022 885//
AAXX 23121 37472 41596 81003 10052 20041 30168 40145 58021 71022 8557/
AAXX 23124 78016 32664 62209 10203 20129 30272 40276 53004 86500 333 10216 20174 70000
AAXX 23124 61202 32970 00000 10244 21094 39620 40178 333 59004
AAXX 23124 61214 NIL
AAXX 23124 61223 31958 00814 10265 21069 39876 40175 70700 333 0//00 58003
AAXX 23124 61226 32960 00812 10275 20058 39868 40165 333 58009
AAXX 23124 61230 32960 30812 10272 21080 39876 40149 80002 333 0//00 59005 83075
AAXX 23124 61233 32960 10808 10276 21079 3//// 4//// 80002 333 0//00 5//// 81075
AAXX 23124 61235 32960 20812 10284 21034 3//// 4//// 80002 333 0//00 5//// 82075
AAXX 23124 61240 32960 20810 10285 20019 39828 40152 80002 333 0//00 58002 82075
AAXX 23124 61250 32960 00000 10280 20082 3//// 4//// 333 0//00 5////
AAXX 23124 61257 32960 20812 10268 21057 30098 40193 80002 333 0//00 59008 82075
AAXX 23124 61265 32960 00410 10300 21057 39836 40141 333 59007
AAXX 23124 61270 32960 00406 10298 20029 3//// 4//// 333 0//00 5////
AAXX 23124 61272 32960 00406 10302 20034 39822 40148 333 0//00 59009
AAXX 23124 61277 32960 00810 10307 21005 39816 40135 333 0//00 59007
AAXX 23124 61285 32960 40804 10305 21006 39995 40145 80002 333 59006 84075
AAXX 23124 61291 32960 10608 10280 21010 39723 40137 80002 333 0//00 59008 81075
AAXX 23124 61293 32960 10610 10294 20034 3//// 4//// 80002 333 0//00 5//// 81075
AAXX 23124 61296 32970 60806 10308 20105 3//// 4//// 80002 333 0//00 5//// 86075
AAXX 23124 61297 32960 50410 10295 20017 3//// 4//// 80002 333 0//00 5//// 85075
AAXX 23124 48386 31950 50000 10255 20222 30060 40104 52013 71011 80006 333 10300 59002
AAXX 23124 48387 31958 01003 10184 20160 39150 40114 52012 71000 333 10236 59019
BBXX TESTFR9 23124 99492 70028 46/// /1717 10113 29093 40212 22274
BBXX BAREU63 23124 99441 10092 46/// /1412 10139 29061 40236 57006 22273
BBXX BAREU00 23124 99513 10041 46/// ///// 40186 22200
BBXX BAREU51 23124 99400 10121 46/// ///// 40204 57020 22235
BBXX BATFR27 23124 99499 70026 46/// /2127 10115 20084 40174 58036 22224 00124
BBXX BATFR14 23124 99420 70224 44297 21110 10137 20062 40394 51019 70200 82100 22214 00160 20502 327// 40704 5////
BBXX BATFR54 23124 99460 70019 46/// /2222 10125 20092 40260 58008 22232 00139
BBXX BATFR03 23124 99498 70005 46/// /2341 10105 20082 40189 50001 22244
BBXX BATFR02 23124 99506 70009 44497 72030 10102 20085 40174 58060 702// 865// 22275 00107 20204 325// 40306 5////
BBXX BATFR04 23124 99577 70067 44596 62825 10062 20012 40072 53035 702// 864// 22253 00104 20304 323// 40304 5////
BBXX BATFR52 23124 99492 70028 46/// /1717 10114 20092 40199 22273 00124
BBXX BATEU04 23124 99630 70117 46/// /2933 10047 21036 4//// 22262
BBXX BATFR12 23124 99480 70053 46/// /2127 10124 20117 40197 58019 22231 00147
BBXX BATFR01 23124 99367 10192 46/// /3530 10140 20075 40100 53006 22261 00180
BBXX BATEU05 23124 99584 70168 46/// /2724 10060 21023 40095 53008 22223
BBXX 61001 23124 99434 10078 46/// /2204 10134 20088 40234 57004 22200 00146 10701 70007
BBXX DDLK 23123 99478 70242 41698 42718 10120 20083 40375 53015 70311 83538 22224 20404 327// 40606 80100
BBXX BATUK01 23124 99561 70030 46/// /2719 10070 20024 40088 50004 22251 00084
BBXX 61002 23124 99421 10047 46/// ///15 10129 2//// 40236 57006 22200 00140 10503 70015
BBXX BAREU54 23124 99171 70717 46/// ///// 40137 52016 22223
BBXX BAREU04 23124 99446 70626 46/// ///// 40166 57024 22263
BBXX BAREU11 23124 99400 70401 46/// ///// 40309 52013 22214
BBXX BAREU06 23124 99429 70376 46/// ///// 40297 52021 22224
BBXX FVNM 23124 99089 70795 46/// /3306 10255 20237 40092 53019 22200 00270
BBXX BATEU08 23124 99668 70542 46/// /0913 11065 21093 49878 52008 22283
BBXX 41101 23124 99146 70562 46/// /0720 10265 20213 40148 52018 22200 00270 10906 70032 555 1/026
BBXX SHIP 23124 99427 70438 41696 82045 10168 20136 40200 55010 70542 8771/ 22262 04170 20812 320// 41212 80150
BBXX BATFR56 23124 99139 30668 46/// /1226 10262 20259 40079 56015 22213 00289
BBXX BATFR45 23124 99230 10610 46/// ///// 10219 20062 40166 55009 22274 00255
BBXX BATFR19 23124 99066 30057 46/// /1717 10239 20187 40131 58018 22200 00254
BBXX A8QJ7 23124 99254 70176 41/98 /0410 10220 20205 40262 50006 70200 8/1// 22213 06210 2//// 3//// 4//// 5//// 80210
BBXX A8UQ3 23123 99158 70176 41997 41012 10255 20172 40180 50010 70211 83036 22283 00240 21004 305// 41205 80200
BBXX TBWUK03 23123 99201 70200 41997 00819 10214 20135 40213 51008 70200 80000 22253 20603 335// 40803 5//// 80165
BBXX DEGI 23123 99283 70129 41998 10416 10185 20162 40290 51010 70200 81060 22253 04181 29902 80170
BBXX DGPT2 23124 99256 70201 41498 21623 10220 20183 40255 52015 70200 821// 22213 00210 20604 80195
BBXX IDDUK02 23124 99523 50503 46/// ///// 49930 222//
BBXX A8YW2 23124 99004 30889 41397 82623 10280 20239 40060 55020 70322 85770 22214 00270 20102 326// 40903 80250
BBXX BATFR53 23124 99188 51678 46/// /0514 10277 20214 40092 57010 22222 00284
BBXX BATFR08 23124 99335 30721 46/// /1707 10177 20087 40275 56011 22273 00189
BBXX BATEU07 23124 99115 31066 46/// /2514 10279 40056 53013 22284
AAXX 23124 48409 32960 20104 10250 20177 39965 40113 52017 80001 333 10296 58003
AAXX 23124 48574 11560 60000 10284 20238 30043 40072 52013 69902 70162 82146 333 10322 59008 79999
AAXX 23121 78458 32466 60000 10211 20199 40200 52010 85830 333 10288 20199 31/// 56200 58007 79999 85818
AAXX 23121 78460 21466 60000 10196 20192 40190 51007 70361 84520 333 10284 20185 31/// 56200 58000 69957 70013 84614 85457
AAXX 23121 78467 21466 10000 10220 20205 40183 5//// 702// 81200 333 10284 20190 31/// 56100 59005 60022 70025 81818
AAXX 23121 78479 32566 40805 10248 20209 40172 52012 84200 333 10295 20246 30/// 56200 58008 70026 84820
AAXX 23121 78482 32566 40000 10222 20183 40206 5//// 81256 333 10305 20205 30/// 65000 58009 81818 83358
AAXX 23121 78485 32466 20203 10200 20183 40187 52012 82201 333 10304 20183 30/// 56000 58001 82816
AAXX 23121 78486 32466 63602 10222 20204 40168 52004 83206 333 10305 20215 30/// 50213 56400 59004 83816 85280
AAXX 23121 78488 32466 10000 10200 20195 40185 5//// 81200 333 10290 20175 30/// 56000 58001 81816
AAXX 23124 78016 32664 62209 10203 20129 30272 40276 53004 86500 333 10216 20174 70000
AAXX 23121 78458 32466 60000 10211 20199 40200 52010 85830 333 10288 20199 31/// 56200 58007 79999 85818
AAXX 23121 78460 21466 60000 10196 20192 40190 51007 70361 84520 333 10284 20185 31/// 56200 58000 69957 70013 84614 85457
AAXX 23121 78467 21466 10000 10220 20205 40183 5//// 702// 81200 333 10284 20190 31/// 56100 59005 60022 70025 81818
AAXX 23121 78479 32566 40805 10248 20209 40172 52012 84200 333 10295 20246 30/// 56200 58008 70026 84820
AAXX 23121 78482 32566 40000 10222 20183 40206 5//// 81256 333 10305 20205 30/// 65000 58009 81818 83358
AAXX 23121 78485 32466 20203 10200 20183 40187 52012 82201 333 10304 20183 30/// 56000 58001 82816
AAXX 23121 78486 32466 63602 10222 20204 40168 52004 83206 333 10305 20215 30/// 50213 56400 59004 83816 85280
AAXX 23121 78488 32466 10000 10200 20195 40185 5//// 81200 333 10290 20175 30/// 56000 58001 81816
AAXX 23124 60353 11356 80000 10138 20133 40252 58001 60121 72165 888// 333 0//51 82710 83820 86630 91856 95930
AAXX 23124 60367 12565 6//// 10143 20097 40253 51004 60001 86800 333 0//00 83820 85833
AAXX 23124 60369 12559 40000 10174 20089 40263 58007 60001 82280 333 0//00 81826 91836
AAXX 23124 60401 NIL
AAXX 23124 60403 11560 73204 10150 20107 40256 58006 69921 70262 878// 333 0//55 82826 87836 95950
AAXX 23124 60425 12960 00000 10150 20081 40279 58002 60001 333 0//00 95900
AAXX 23124 60461 12570 30000 10168 20113 40277 50002 83500 222// 20000 333 83626 91808 95900
AAXX 23124 60467 12665 42810 10149 20072 40262 54000 60001 84230 333 0//00 84833 95900
AAXX 23124 60492 12965 00000 10148 20094 40284 51005 60001 333 0//00 95900
AAXX 23124 60515 12660 30000 10167 20061 40254 58008 60001 81230 333 0//00 81833 95900
AAXX 23124 60517 12965 03403 10163 20113 40275 58007 60001 333 0//00 95900
AAXX 23124 60522 12975 00000 10176 20039 40280 58007 60001 333 0//00 95900
AAXX 23124 60557 12975 03206 10125 20024 38939 48579 58006 60001 333 95900
AAXX 23124 60563 12960 00320 10146 20045 39362 48569 58002 60001 333 0//00
AAXX 23124 60603 12958 00000 10175 20065 40249 58015 60001 333 0//00
AAXX 23124 60638 12960 0//// 10181 20050 40230 58013 60001 333 0//00
AAXX 23124 60686 12960 00810 10225 21024 40201 57011 60001 333 0//00
AAXX 23124 60395 11356 20000 10130 20107 40265 58007 60001 70244 82200 333 81710 95900
AAXX 23124 60421 11560 73208 10100 20074 39211 48553 58009 69901 70262 872// 333 0//13 87830 95900
AAXX 23124 60423 11660 70000 10091 20085 39261 48528 54000 60011 70262 878// 333 0//12 83833 86640 95900
AAXX 23124 60430 12557 10000 10149 20095 40276 58004 60001 81100 333 0//00 81820 95900
AAXX 23124 60437 12570 22604 10107 20074 39047 48548 50000 60001 82200 333 0//00 82826 95900
AAXX 23124 60444 12560 70208 10112 20056 39155 48566 58001 60001 872// 333 87830 95900
AAXX 23124 60452 12565 4//// 10181 20117 40272 58002 60001 83502 222// 20000 333 83623 91826
AAXX 23124 60457 12565 62405 10165 20112 40276 58001 60001 86200 333 86820 95900
AAXX 23124 60514 12960 00000 10135 20054 39349 48582 54000 60001 333 0//00 95900
AAXX 23124 60518 12965 00000 10176 20130 40260 58001 60001 222// 20000 333 0//00 91807 95900
AAXX 23124 60520 12970 02605 10170 20060 40272 58007 60001 333 95900
AAXX 23124 60540 12970 02807 10115 20041 39106 48565 58005 60001 333 95900
AAXX 23124 60560 12970 00000 10159 20019 39034 48579 58005 60001 333 95900
AAXX 23124 78016 32664 62209 10203 20129 30272 40276 53004 86500 333 10216 20174 70000
AAXX 23121 28676 426// 50000 11137 21217 30207 40343 57019 82530 555 1/115
AAXX 23121 28766 429// 82005 11163 21195 30133 40338 57015 82031 555 1/118
AAXX 23121 28867 42998 42501 11170 21220 30049 40342 57018 80002 555 1/118
AAXX 23121 28879 429// 61904 11074 21157 30054 40354 57013 80005 555 1/113
AAXX 23121 28952 42999 70000 11124 21176 30124 40327 57014 80004 555 1/113
AAXX 23121 28966 429// 61401 11139 21202 30052 40356 57025 83035 555 1/116
AAXX 23121 29802 429// 21903 11169 21227 30229 40385 57007 80001 555 1/119
AAXX 23121 29807 429// 00000 11168 21199 30255 40383 57018 555 1/119
AAXX 23121 34691 41998 81101 11024 21058 30236 40223 53014 70242 8802/ 555 1/102
AAXX 23121 35067 429// 61101 11130 21178 30057 40351 57020 80005 555 1/116
AAXX 23121 35078 42998 30803 11189 21219 39971 40385 57016 80001 555 1/120
AAXX 23121 35085 429// 60000 11152 21177 39876 40388 57016 80001 555 1/120
AAXX 23121 35108 41496 81803 11094 21110 30182 40230 57006 77772 886//
AAXX 23121 35188 429// 31601 11094 21184 39921 40378 57017 80001 555 1/117
AAXX 23121 35217 42998 71503 11110 21147 30200 40243 57003 87080 555 1/110
AAXX 23121 35229 42998 71601 11112 21158 39987 40275 57011 82031 555 1/114
AAXX 23121 35302 42598 81702 11084 21116 30210 40232 57006 885// 555 1/107
AAXX 23121 35357 42997 21103 11164 21198 39897 40366 57018 82030 555 1/121
AAXX 23121 35394 42998 21201 11097 21211 39674 40386 57016 80001 555 1/121
AAXX 23121 35406 42997 61502 11111 21155 30226 40228 57010 86030 555 1/110
AAXX 23121 35416 42997 71204 11116 21174 30125 40252 57007 87070 555 1/112
AAXX 23121 35426 42999 81002 11142 21177 39966 40277 56014 8801/ 555 1/115
AAXX 23121 35497 429// 00000 11084 21192 39541 40374 57017 555 1/112
AAXX 23121 35532 41993 71112 11178 21219 39755 40283 57022 73933 87030 333 91016 555 1/117
AAXX 23121 35671 42998 00704 11109 21168 39892 40345 57019 555 1/114
AAXX 23121 35700 42998 80703 11082 21114 30231 40207 57010 8807/ 555 1/108
AAXX 23121 35746 42998 80803 11162 21196 30214 40286 57017 80001 555 1/117
AAXX 23121 35796 42997 00305 11114 21182 39901 40361 57023 555 1/115
AAXX 23121 35849 42998 40702 11149 21191 30185 40277 57014 80002 333 1/115
AAXX 23121 35925 42998 70905 11096 21126 30100 40217 57022 87010 555 1/109
AAXX 23121 35953 42999 20804 11140 21183 30147 40285 57015 80002 555 1/115
AAXX 23121 35969 42999 00904 11136 21179 30123 40307 57030 555 1/115
AAXX 23121 36003 42998 41601 11180 21214 30240 40405 57006 82031 555 1/120
AAXX 23121 36152 429// 21604 11189 21244 30212 40418 57014 80001 555 1/122
AAXX 23121 36177 429// 61104 11196 21231 30172 40442 57012 80001 555 1/122
AAXX 23121 36208 429// 00902 11130 21178 39399 40440 57015 555 1/118
AAXX 23121 36397 419// 01608 11192 21227 39831 40446 57010 73833 555 1/121
AAXX 23121 36428 429// 00000 11274 21298 39945 40512 57013 333 95090 555 1/130
AAXX 23121 36535 429// 00000 11276 21313 39802 40520 57011 555 1/130
AAXX 23121 36639 429// 00000 11186 21227 39723 40378 57009 555 1/122
AAXX 23121 36821 429// 00000 11167 21206 39827 40355 57011
AAXX 23121 36859 429// 00000 11117 21157 39516 40342 57014 555 1/118
AAXX 23121 36864 NIL
AAXX 23121 36870 419// 00000 11111 21143 39251 40319 57012 70400 555 1/115
AAXX 23121 38001 42997 30203 10004 21067 30195 40165 57019 83040 555 10002
AAXX 23121 38062 42999 00802 11134 21186 30109 40283 57014 555 1/114
AAXX 23121 38069 42998 00701 11027 21122 30068 40264 57012
AAXX 23121 38196 42998 00000 11010 21093 39258 40253 56007
AAXX 23121 38198 41996 02701 11056 21117 39999 40268 57016 71000 555 1/111
AAXX 23121 38222 42997 02001 11140 21183 39721 40320 57013 555 1/118
AAXX 23121 38232 41996 71103 11006 21116 30067 40167 57020 70522 80006 555 1/100
AAXX 23121 38328 42999 00000 11006 21059 39507 40248 57012 555 1/112
AAXX 23121 38334 42998 00000 10002 21087 39271 40243 57013 555 1/109
AAXX 23121 38341 42997 01901 11128 21171 39471 40308 57010 555 1/111
AAXX 23121 38343 42998 00000 11110 21146 39416 40308 57006
AAXX 23121 38439 41996 00701 11003 21069 39907 40252 57012 71000 555 14101
AAXX 23121 50844 32962 00201 11256 21318 40272 52007
AAXX 23121 50854 32970 00703 11212 21287 40263 52007
AAXX 23121 50968 32962 02501 11205 21236 40243 52008
AAXX 23121 51379 NIL
AAXX 23121 51467 32980 02002 11079 21178 38338 52008 333 05303
AAXX 23121 51495 32980 00000 11080 21184 40445 57003 333 05201
AAXX 23121 53480 32980 02704 11121 21204 40351 52003
AAXX 23121 53673 32961 13602 11037 21150 40337 52007 80002
AAXX 23121 53698 32965 02501 10000 21126 40291 52021
AAXX 23121 53898 32963 01601 11017 21072 40288 52019
AAXX 23121 54308 32980 00201 11081 21219 40309 52006
AAXX 23121 54602 32962 02702 11033 21127 40284 52021
AAXX 23121 54725 32960 00000 11041 21091 40280 52015
AAXX 23121 54751 32965 03208 10018 21089 40245 52008
AAXX 23121 54916 31957 02901 11010 21056 40288 52014 71000
AAXX 23121 57014 32970 22501 11040 21124 40392 52011 80002 333 00451
AAXX 23121 57025 32978 00203 11011 21110 40368 52011
AAXX 23121 57046 32971 02910 11078 21167 37991 52012 333 00202 91120 91529
AAXX 23121 58208 32962 02502 11002 21032 40304 52019
AAXX 23121 60370 36/// /2501 10156 20114
AAXX 23121 60371 36/// /2002 10163 20119
AAXX 23121 60372 36/// /2703 10137 20123
AAXX 23121 60373 NIL
AAXX 23121 60374 NIL
AAXX 23121 60376 NIL
AAXX 23121 60379 NIL
AAXX 23121 60380 NIL
AAXX 23121 60381 NIL
AAXX 23121 60393 NIL
AAXX 23121 60394 NIL
AAXX 23121 60593 NIL
AAXX 23121 60595 NIL
AAXX 23121 60605 NIL
AAXX 23121 60613 NIL
AAXX 23121 60623 NIL
AAXX 23124 60624 36/// /0000 10211 21054
AAXX 23124 60639 NIL
AAXX 23124 60645 36/// /0000 10222 20020
AAXX 23121 45032 36/// /0102 10119 20040 30208 40225 52001
AAXX 23121 45035 36/// /0704 10125 20063 30180 40223 54000
AAXX 23121 45039 36/// /0205 10130 20055 30204 40220 52002 333 91110
AAXX 23121 45044 36/// /0107 10132 20064 30118 40213 52002
AAXX 23121 08501 12/// /0000 10145 20135 30318 40354 52010 60041 555 50044 60025
AAXX 23121 08505 32470 71207 10172 20146 30299 40349 52018 86832 333 86812 555 59904 60007
AAXX 23121 08506 32/// /1708 10172 20147 30284 40356 52017 333 91012 91112 555 50014 60005
AAXX 23121 08509 11340 80804 10162 20157 30294 40359 52015 69981 78085 882// 333 85707 84812 555 50034 69907
AAXX 23121 08511 NIL
AAXX 23121 08512 32470 51404 10178 20173 30271 40357 52018 83831 222// 0//// 333 83813 91106 555 50004 60005
AAXX 23121 08515 32470 21308 10179 20141 30238 40360 52022 82800 222// 00179 333 82814 910// 911// 555 50004 60007 912//
AAXX 23121 08521 11459 70206 10179 20126 30255 40326 50006 69901 72582 87800 333 85815 555 59904 69907
AAXX 23121 08522 32570 29901 10198 20102 30251 40320 52004 82800 222// 00201 314// 40301 333 81823 555 50004 60005
AAXX 23121 08524 12465 70404 10178 20126 30231 40330 52009 69911 87800 333 84814 84630 91008 91111 555 59914 60005
AAXX 23121 08530 NIL
AAXX 23121 08531 32/// /0406 10136 20115 30282 40321 52007 333 91109 555 50004 60005
AAXX 23121 08532 31465 83508 10134 20109 30152 40315 50008 7022/ 882// 333 88810 91013 91113 555 50004 60007
AAXX 23121 08533 32/// /0107 10137 20107 30272 40302 52005 333 91010 91112 555 50004 60005
AAXX 23120 08534 31460 30103 10142 20125 30290 40308 50004 71041 83200 333 83816 555 50004 60007 96641 90333
AAXX 23121 08535 32460 43407 10149 20113 30214 40307 52004 84200 333 84813 91013 91113 555 50004 60005
AAXX 23121 08537 32460 33406 10148 20113 30299 40303 50005 83200 333 83815 91110 555 50004 60007
AAXX 23121 08540 32460 80204 10106 20079 30254 40324 51004 882// 333 88814 555 50004 60007
AAXX 23121 08541 12/// /3504 10138 20110 30184 40304 54000 69911 333 91107 555 59924 60005
AAXX 23121 08544 32460 20404 10118 20084 30301 40322 50010 82800 333 81815 555 50004 60007
AAXX 23121 08545 31460 20203 10127 20076 30242 40327 52006 70111 82800 222// 00146 333 81817 91005 91106 555 50004 60005
AAXX 23121 08548 32/// /0402 10086 20069 30115 40325 52005 555 50004 60005
AAXX 23121 08551 31964 09902 10121 20100 30266 40325 52003 70220 555 50004 60005
AAXX 23121 08554 32970 03202 10164 20075 30285 40294 52005 555 50004 60005
AAXX 23121 08558 31456 33503 10117 20086 39999 40297 50002 71041 83600 333 83710 91005 91107 555 50004 60005
AAXX 23121 08560 31982 00000 10125 20062 39547 40306 52005 70200 555 50004 60005
AAXX 23121 08561 31350 73403 10084 20084 30065 40304 50007 71042 876// 333 83704 87707 555 50004 60007 96642 90312
AAXX 23121 08562 12/// /3403 10078 20074 30000 40301 52003 69911 333 91106 555 59924 60005
AAXX 23121 08567 32/// /0000 10041 20038 39651 40337 52004 555 50004 60005
AAXX 23121 08568 32/// /3108 10122 21018 38736 48608 52003 333 91112 555 50004 60005
AAXX 23121 08570 31880 10000 10137 20075 39829 40288 58001 70300 81040 333 81358 555 50004 60005
AAXX 23121 08571 32/// /3402 10120 20070 39585 40290 52004 555 50004 60005
AAXX 23121 08575 31/01 90000 10020 20017 39495 40337 52002 74544 555 50004 60005
AAXX 23121 08579 31465 33505 10142 20104 30182 40307 52005 70111 83801 333 82815 91009 91110 555 50004 60005
AAXX 23121 40716 12660 40000 10076 20037 38886 40161 57018 60001 82430 333 82635 83358
AAXX 23121 40719 11440 83503 10112 20083 30147 40136 56016 60001 71022 8652/ 333 86610 88458
AAXX 23121 40721 12960 70000 10066 20018 39623 40174 58006 60001 80006 333 87268
AAXX 23121 40858 12960 00000 10206 20093 30164 40175 57020 60001 80006 333 86268
AAXX 23121 40872 12960 40000 10230 20121 30161 40166 57014 60001 84030 222// 00242 20000 333 84360
AAXX 23121 40877 12960 20000 10198 21086 39593 40145 57022 60001 80002 333 82070
AAXX 23121 40898 12962 21902 10220 21005 30152 40161 57026 60001 80002 222// 00239 10900 333 82070
AAXX 23121 14235 11460 8//// 11012 21014 39068 48506 58006 69951 70177 885// 333 70005
AAXX 23121 14246 11675 72001 10041 20003 30046 40255 58014 60001 72176 87500 333 70000
AAXX 23121 14314 12682 10305 10100 21009 30169 40234 58009 60001 81100 333 70000 92322 92428
AAXX 23121 14323 12681 10506 10076 21025 30201 40235 58014 60001 81640 333 70000 92323 92438
AAXX 23121 14324 12370 30911 11015 21020 38420 48523 51018 60001 82640 333 70002
AAXX 23121 14328 11658 20000 10035 21023 39854 40259 58008 60001 710// 81530 333 70000
AAXX 23121 14330 12684 33603 10033 21043 39568 40250 54000 60001 83100 333 70000
AAXX 23121 14438 12682 13405 10105 21069 30116 40208 58011 60001 81440 333 70000 92322
AAXX 23121 14443 32699 134// 10110 20090 30101 40201 52002 81100 333 70000 92334 911//
AAXX 23121 14447 12984 03504 10117 21028 30178 40208 58003 60001 222// 00162 333 70000 92311
AAXX 23121 14472 12980 01103 10106 21080 30104 40169 56003 60001 222// 00159 333 70000 92312
AAXX 23121 40701 11658 51202 10010 21038 38567 40198 57013 60001 70521 85500 333 85640
AAXX 23121 40704 12665 62405 10100 21020 38577 40120 56003 60001 82352 333 81940 81640 83358 83070
AAXX 23121 40708 12962 22007 10116 21014 38612 40093 56003 60001 80001 333 82068
AAXX 23121 40710 12675 22805 10066 21010 38287 40156 56014 60001 82500 333 82635
AAXX 23121 40713 12570 42403 10122 21048 38628 40144 56020 60001 83205 333 83830
AAXX 23121 40719 11440 83503 10112 20083 30147 40136 56016 60001 71022 8652/ 333 86610 88458
AAXX 23121 40731 11657 71002 10084 21038 38725 40179 56015 60001 70521 86550 333 86645 84358
AAXX 23121 40738 11550 20605 10114 20081 30152 40154 57039 60001 70542 82100 333 82820
AAXX 23121 40740 12660 50000 10060 21009 38710 40194 53007 60001 82406 333 82640 85270
AAXX 23121 40747 12660 41807 10135 21010 38607 40135 56017 60001 84200 333 81835 83640
AAXX 23121 40757 12962 29903 10080 21103 38904 40210 56014 60001 80001 333 82070
AAXX 23121 40763 12665 70000 10068 21121 38927 40223 55006 60001 82510 333 82640 87460
AAXX 23121 40782 12660 52503 10148 21069 38876 40181 56011 60001 81530 333 81640 85359
AAXX 23121 40783 12668 62904 10124 21057 37985 40150 57009 60001 81506 333 81640 86269
AAXX 23121 40789 12965 50000 10098 21080 39208 40198 56015 60001 80006 333 85270
AAXX 23121 40798 12960 62705 10138 21150 37958 40173 57012 60001 80006 333 86270
AAXX 23121 40818 12970 50102 10138 21100 37971 40138 56012 60001 81034 333 81360 84070
AAXX 23121 40827 12970 81605 10068 21176 38850 40263 55007 60001 8802/ 333 88460
AAXX 23121 40836 12970 61804 10148 21176 38203 40173 56011 60001 80006 333 86268
AAXX 23121 40851 12660 40000 10166 21068 38265 40170 56013 60001 81502 333 81640 83070
AAXX 23121 40853 12965 42404 10136 21202 37759 40167 56006 60001 80004 333 84070
AAXX 23121 40854 12960 60504 10160 21243 38941 40150 55015 60001 80006 333 86270
AAXX 23121 40857 11958 60000 10216 20116 30160 40169 57024 60001 70522 80006 222// 00198 20000 333 86268
AAXX 23121 40859 12665 51502 10166 21104 38720 40166 56015 60001 81502 333 81640 85070
AAXX 23121 40878 12965 30304 10184 21244 38845 40200 56017 60001 80002 333 83070
AAXX 23121 40879 12970 42102 10203 21307 39487 40177 56021 60001 80006 333 84270
AAXX 23121 40883 12960 42103 10226 20072 30150 40173 56011 60001 80001 333 84070
AAXX 23121 40898 12962 21902 10220 21005 30152 40161 57026 60001 80002 222// 00239 10900 333 82070
AAXX 23121 40701 11658 51202 10010 21038 38567 40198 57013 60001 70521 85500 333 85640
AAXX 23121 40704 12665 62405 10100 21020 38577 40120 56003 60001 82352 333 81940 81640 83358 83070
AAXX 23121 40708 12962 22007 10116 21014 38612 40093 56003 60001 80001 333 82068
AAXX 23121 40710 12675 22805 10066 21010 38287 40156 56014 60001 82500 333 82635
AAXX 23121 40713 12570 42403 10122 21048 38628 40144 56020 60001 83205 333 83830
AAXX 23121 40719 11440 83503 10112 20083 30147 40136 56016 60001 71022 8652/ 333 86610 88458
AAXX 23121 40731 11657 71002 10084 21038 38725 40179 56015 60001 70521 86550 333 86645 84358
AAXX 23121 40738 11550 20605 10114 20081 30152 40154 57039 60001 70542 82100 333 82820
AAXX 23121 40740 12660 50000 10060 21009 38710 40194 53007 60001 82406 333 82640 85270
AAXX 23121 40747 12660 41807 10135 21010 38607 40135 56017 60001 84200 333 81835 83640
AAXX 23121 40757 12962 29903 10080 21103 38904 40210 56014 60001 80001 333 82070
AAXX 23121 40763 12665 70000 10068 21121 38927 40223 55006 60001 82510 333 82640 87460
AAXX 23121 40782 12660 52503 10148 21069 38876 40181 56011 60001 81530 333 81640 85359
AAXX 23121 40783 12668 62904 10124 21057 37985 40150 57009 60001 81506 333 81640 86269
AAXX 23121 40789 12965 50000 10098 21080 39208 40198 56015 60001 80006 333 85270
AAXX 23121 40798 12960 62705 10138 21150 37958 40173 57012 60001 80006 333 86270
AAXX 23121 40818 12970 50102 10138 21100 37971 40138 56012 60001 81034 333 81360 84070
AAXX 23121 40827 12970 81605 10068 21176 38850 40263 55007 60001 8802/ 333 88460
AAXX 23121 40836 12970 61804 10148 21176 38203 40173 56011 60001 80006 333 86268
AAXX 23121 40851 12660 40000 10166 21068 38265 40170 56013 60001 81502 333 81640 83070
AAXX 23121 40853 12965 42404 10136 21202 37759 40167 56006 60001 80004 333 84070
AAXX 23121 40854 12960 60504 10160 21243 38941 40150 55015 60001 80006 333 86270
AAXX 23121 40857 11958 60000 10216 20116 30160 40169 57024 60001 70522 80006 222// 00198 20000 333 86268
AAXX 23121 40859 12665 51502 10166 21104 38720 40166 56015 60001 81502 333 81640 85070
AAXX 23121 40878 12965 30304 10184 21244 38845 40200 56017 60001 80002 333 83070
AAXX 23121 40879 12970 42102 10203 21307 39487 40177 56021 60001 80006 333 84270
AAXX 23121 40883 12960 42103 10226 20072 30150 40173 56011 60001 80001 333 84070
AAXX 23121 40898 12962 21902 10220 21005 30152 40161 57026 60001 80002 222// 00239 10900 333 82070
AAXX 23121 45032 36/// /0102 10119 20040 30208 40225 52001
AAXX 23121 45035 36/// /0704 10125 20063 30180 40223 54000
AAXX 23121 45039 36/// /0205 10130 20055 30204 40220 52002 333 91110
AAXX 23121 45044 36/// /0107 10132 20064 30118 40213 52002
AAXX 23121 28676 426// 50000 11137 21217 30207 40343 57019 82530 555 1/115
AAXX 23121 28766 429// 82005 11163 21195 30133 40338 57015 82031 555 1/118
AAXX 23121 28867 42998 42501 11170 21220 30049 40342 57018 80002 555 1/118
AAXX 23121 28879 429// 61904 11074 21157 30054 40354 57013 80005 555 1/113
AAXX 23121 28952 42999 70000 11124 21176 30124 40327 57014 80004 555 1/113
AAXX 23121 28966 429// 61401 11139 21202 30052 40356 57025 83035 555 1/116
AAXX 23121 29802 429// 21903 11169 21227 30229 40385 57007 80001 555 1/119
AAXX 23121 29807 429// 00000 11168 21199 30255 40383 57018 555 1/119
AAXX 23121 34691 41998 81101 11024 21058 30236 40223 53014 70242 8802/ 555 1/102
AAXX 23121 35067 429// 61101 11130 21178 30057 40351 57020 80005 555 1/116
AAXX 23121 35078 42998 30803 11189 21219 39971 40385 57016 80001 555 1/120
AAXX 23121 35085 429// 60000 11152 21177 39876 40388 57016 80001 555 1/120
AAXX 23121 35108 41496 81803 11094 21110 30182 40230 57006 77772 886//
AAXX 23121 35188 429// 31601 11094 21184 39921 40378 57017 80001 555 1/117
AAXX 23121 35217 42998 71503 11110 21147 30200 40243 57003 87080 555 1/110
AAXX 23121 35229 42998 71601 11112 21158 39987 40275 57011 82031 555 1/114
AAXX 23121 35302 42598 81702 11084 21116 30210 40232 57006 885// 555 1/107
AAXX 23121 35357 42997 21103 11164 21198 39897 40366 57018 82030 555 1/121
AAXX 23121 35394 42998 21201 11097 21211 39674 40386 57016 80001 555 1/121
AAXX 23121 35406 42997 61502 11111 21155 30226 40228 57010 86030 555 1/110
AAXX 23121 35416 42997 71204 11116 21174 30125 40252 57007 87070 555 1/112
AAXX 23121 35426 42999 81002 11142 21177 39966 40277 56014 8801/ 555 1/115
AAXX 23121 35497 429// 00000 11084 21192 39541 40374 57017 555 1/112
AAXX 23121 35532 41993 71112 11178 21219 39755 40283 57022 73933 87030 333 91016 555 1/117
AAXX 23121 35671 42998 00704 11109 21168 39892 40345 57019 555 1/114
AAXX 23121 35700 42998 80703 11082 21114 30231 40207 57010 8807/ 555 1/108
AAXX 23121 35746 42998 80803 11162 21196 30214 40286 57017 80001 555 1/117
AAXX 23121 35796 42997 00305 11114 21182 39901 40361 57023 555 1/115
AAXX 23121 35849 42998 40702 11149 21191 30185 40277 57014 80002 333 1/115
AAXX 23121 35925 42998 70905 11096 21126 30100 40217 57022 87010 555 1/109
AAXX 23121 35953 42999 20804 11140 21183 30147 40285 57015 80002 555 1/115
AAXX 23121 35969 42999 00904 11136 21179 30123 40307 57030 555 1/115
AAXX 23121 36003 42998 41601 11180 21214 30240 40405 57006 82031 555 1/120
AAXX 23121 36152 429// 21604 11189 21244 30212 40418 57014 80001 555 1/122
AAXX 23121 36177 429// 61104 11196 21231 30172 40442 57012 80001 555 1/122
AAXX 23121 36208 429// 00902 11130 21178 39399 40440 57015 555 1/118
AAXX 23121 36397 419// 01608 11192 21227 39831 40446 57010 73833 555 1/121
AAXX 23121 36428 429// 00000 11274 21298 39945 40512 57013 333 95090 555 1/130
AAXX 23121 36535 429// 00000 11276 21313 39802 40520 57011 555 1/130
AAXX 23121 36639 429// 00000 11186 21227 39723 40378 57009 555 1/122
AAXX 23121 36821 429// 00000 11167 21206 39827 40355 57011
AAXX 23121 36859 429// 00000 11117 21157 39516 40342 57014 555 1/118
AAXX 23121 36864 NIL
AAXX 23121 36870 419// 00000 11111 21143 39251 40319 57012 70400 555 1/115
AAXX 23121 38001 42997 30203 10004 21067 30195 40165 57019 83040 555 10002
AAXX 23121 38062 42999 00802 11134 21186 30109 40283 57014 555 1/114
AAXX 23121 38069 42998 00701 11027 21122 30068 40264 57012
AAXX 23121 38196 42998 00000 11010 21093 39258 40253 56007
AAXX 23121 38198 41996 02701 11056 21117 39999 40268 57016 71000 555 1/111
AAXX 23121 38222 42997 02001 11140 21183 39721 40320 57013 555 1/118
AAXX 23121 38232 41996 71103 11006 21116 30067 40167 57020 70522 80006 555 1/100
AAXX 23121 38328 42999 00000 11006 21059 39507 40248 57012 555 1/112
AAXX 23121 38334 42998 00000 10002 21087 39271 40243 57013 555 1/109
AAXX 23121 38341 42997 01901 11128 21171 39471 40308 57010 555 1/111
AAXX 23121 38343 42998 00000 11110 21146 39416 40308 57006
AAXX 23121 38439 41996 00701 11003 21069 39907 40252 57012 71000 555 14101
AAXX 23121 40701 11658 51202 10010 21038 38567 40198 57013 60001 70521 85500 333 85640
AAXX 23121 40704 12665 62405 10100 21020 38577 40120 56003 60001 82352 333 81940 81640 83358 83070
AAXX 23121 40708 12962 22007 10116 21014 38612 40093 56003 60001 80001 333 82068
AAXX 23121 40710 12675 22805 10066 21010 38287 40156 56014 60001 82500 333 82635
AAXX 23121 40713 12570 42403 10122 21048 38628 40144 56020 60001 83205 333 83830
AAXX 23121 40719 11440 83503 10112 20083 30147 40136 56016 60001 71022 8652/ 333 86610 88458
AAXX 23121 40731 11657 71002 10084 21038 38725 40179 56015 60001 70521 86550 333 86645 84358
AAXX 23121 40738 11550 20605 10114 20081 30152 40154 57039 60001 70542 82100 333 82820
AAXX 23121 40740 12660 50000 10060 21009 38710 40194 53007 60001 82406 333 82640 85270
AAXX 23121 40747 12660 41807 10135 21010 38607 40135 56017 60001 84200 333 81835 83640
AAXX 23121 40757 12962 29903 10080 21103 38904 40210 56014 60001 80001 333 82070
AAXX 23121 40763 12665 70000 10068 21121 38927 40223 55006 60001 82510 333 82640 87460
AAXX 23121 40782 12660 52503 10148 21069 38876 40181 56011 60001 81530 333 81640 85359
AAXX 23121 40783 12668 62904 10124 21057 37985 40150 57009 60001 81506 333 81640 86269
AAXX 23121 40789 12965 50000 10098 21080 39208 40198 56015 60001 80006 333 85270
AAXX 23121 40798 12960 62705 10138 21150 37958 40173 57012 60001 80006 333 86270
AAXX 23121 40818 12970 50102 10138 21100 37971 40138 56012 60001 81034 333 81360 84070
AAXX 23121 40827 12970 81605 10068 21176 38850 40263 55007 60001 8802/ 333 88460
AAXX 23121 40836 12970 61804 10148 21176 38203 40173 56011 60001 80006 333 86268
AAXX 23121 40851 12660 40000 10166 21068 38265 40170 56013 60001 81502 333 81640 83070
AAXX 23121 40853 12965 42404 10136 21202 37759 40167 56006 60001 80004 333 84070
AAXX 23121 40854 12960 60504 10160 21243 38941 40150 55015 60001 80006 333 86270
AAXX 23121 40857 11958 60000 10216 20116 30160 40169 57024 60001 70522 80006 222// 00198 20000 333 86268
AAXX 23121 40859 12665 51502 10166 21104 38720 40166 56015 60001 81502 333 81640 85070
AAXX 23121 40878 12965 30304 10184 21244 38845 40200 56017 60001 80002 333 83070
AAXX 23121 40879 12970 42102 10203 21307 39487 40177 56021 60001 80006 333 84270
AAXX 23121 40883 12960 42103 10226 20072 30150 40173 56011 60001 80001 333 84070
AAXX 23121 40898 12962 21902 10220 21005 30152 40161 57026 60001 80002 222// 00239 10900 333 82070
AAXX 23121 40700 11558 73303 10076 20039 30067 40156 57011 60001 70530 87600 333 87725
AAXX 23121 40723 12960 50000 10056 21028 38899 40202 57008 60001 82046 333 82360 83267
AAXX 23121 40726 12560 22106 10120 21036 38627 40132 56012 60001 82300 333 81930 81840
AAXX 23121 40727 12660 12105 10124 21034 38450 40124 57018 60001 81100 333 81840
AAXX 23121 40734 11556 71003 10118 20090 30154 40129 56025 60001 71021 85830 333 83825 84630 86358
AAXX 23121 40737 11950 10903 10130 20082 30107 40125 57055 60001 70520 80001 333 81070
AAXX 23121 40741 12560 70000 10090 21032 39827 40173 56012 60001 82506 333 82645 87268
AAXX 23121 40780 12660 81904 10130 21097 38683 40155 56009 60001 85370 333 82935 83640 88459
AAXX 23121 40791 12960 53402 10104 21159 39363 40203 56015 60001 84032 333 84360
AAXX 23121 40792 12662 71104 10116 21169 38718 40187 58018 60001 83536 333 83635 87269
AAXX 23121 40794 12960 60000 10204 20043 30082 40180 56010 60001 80006 91145 333 84070
AAXX 23121 40812 12960 00000 10208 21016 39788 40162 56012 60001 84070 333 84360
AAXX 23121 40829 11/12 90602 10088 21268 39633 40232 57019 60001 70640 333 89/20
AAXX 23121 40833 12960 41802 10222 20035 30147 40180 57019 60001 82031 333 82360 84070
AAXX 23121 40835 12960 40000 10206 21036 39342 40176 56016 60001 80002 333 84070
AAXX 23121 40845 11958 50000 10196 20116 30165 40170 57015 60001 70521 80008 91145 333 85270
AAXX 23121 40882 12960 42302 10234 20089 30131 40166 56017 60001 80002 333 84068
AAXX 23121 40889 12960 13603 10232 20119 30165 40170 56017 60001 80002 222// 40890 12965 43602 10236 20041 30154 40162 56016 60001 80005 222// 00232 20301 333 84269
AAXX 23121 40890 12965 43602 10236 20041 30154 40162 56016 60001 80005 222// 00232 20301 333 84269
AAXX 23121 40893 12962 52403 10230 20105 30161 40167 56015 60001 80006 222// 00200 20401 333 85268
AAXX 23121 40897 90069 90400 91013 91117 91211 91307
AAXX 23123 87016 32960 12304 10282 20216 39615 40002 52023 80001 333 10346 20249 56008
AAXX 23123 87896 32680 22318 10103 20024 30084 40181 5//// 81105 333 10110 2//// 56606 81840
AAXX 23124 87078 32970 03603 10335 20207 39904 40047 52012 333 10348 20255
AAXX 23124 87244 01465 81408 10240 20207 39694 40077 5//// 69904 71096 885// 333 10280 20226 56399 69902 88619
AAXX 23124 87393 01340 80509 10218 20193 30060 40122 52041 61074 79592 8792/ 333 10250 20193 56009 57900 60822 86609 88535 83945
AAXX 23124 87416 31957 02313 10165 21037 39426 40162 52047 70600 333 10259 20145 30014
AAXX 23124 87563 NIL
AAXX 23124 87640 31565 70910 10171 20110 30064 40174 52043 702// 81570 333 10213 20076 30007 56660 81630 86360
AAXX 23124 87688 32965 71808 10156 21035 30037 40175 54000 84036 333 10156 20080 56040 84360 83260
AAXX 23124 87774 32982 02305 10072 20022 39196 48532 5//// 333 10100 21022
AAXX 23124 87852 12984 22520 10104 20011 39712 40225 52025 69904 82070 333 10104 20006 56040 82360
AAXX 23123 87791 32580 32020 10170 20003 30182 40190 51012 83206 333 10175 20054 30000 56000 57842 83830
AAXX 23124 87593 32960 41411 10206 20076 30110 40137 52/// 82055 333 10250 20150 56054 82360
AAXX 23124 87623 31956 51414 10171 20082 39964 40188 52039 70710 83082 333 10208 20106 56066 83360 96104
AAXX 23124 87641 32965 41411 10148 20081 39996 40170 52029 83059 333 10188 20053 30005 56066 83359
AAXX 23124 87645 31970 61811 10161 20031 39957 40163 52027 70410 83079 333 10161 20051 56066 83360 84170
AAXX 23124 87648 32960 11406 10176 20064 30133 40144 52013 81070 333 10180 20088 56060 81365
AAXX 23124 87692 32960 51815 10168 20058 30128 40152 53008 83056 333 10168 20074 56066 83360 83270
AAXX 23124 87715 32970 00000 10140 21033 39914 40234 52028 333 10181 20090
AAXX 23124 87750 32565 32012 10163 20018 30084 40183 52021 81150 333 10163 20089 56550 81830
AAXX 23124 87765 32960 00000 10053 21138 39273 48545 52012 333 10060 21044 96120
AAXX 23124 87784 32980 02015 10150 20043 30172 40195 52027 333 10181 20140
AAXX 23124 87800 32980 00000 10081 20040 39872 40281 52017 333 10105 20000
AAXX 23124 87803 32980 02313 10044 21018 39306 40252 41012 69902 333 10072 21036
AAXX 23124 87828 32980 02310 10130 21020 30156 40208 52020 333 10130 20060
AAXX 23124 87860 12680 12009 10134 20020 30155 40211 52020 69934 81160 333 10138 20065 56540 81840
AAXX 23124 87904 31980 22714 10112 20000 39953 40199 5//// 702// 80005 333 10128 20048 56006 82270
AAXX 23124 87909 02980 72322 10093 20017 30114 40190 52012 60064 82078 333 10111 20042 56000 60012 82360 87270
AAXX 23124 87925 12680 62523 10105 20006 30136 40159 51003 69904 82146 333 10115 20060 56559 57357 82840 84270
AAXX 23124 87938 32580 52340 10075 20025 40092 50004 81240 333 10086 20050 56550 81830 84358
AAXX 23121 28049 41997 81904 11069 21079 30018 40187 57003 77172 8802/
AAXX 23121 28144 41598 82101 11053 21073 30029 40191 57002 70272 8357/
AAXX 23121 28319 41498 81803 11078 21114 30036 40206 57001 70272 885//
AAXX 23121 28321 41497 81403 11077 21103 39983 40194 57004 78587 8332/
AAXX 23121 28334 41598 82202 11061 21119 39901 40214 57004 70272 885//
AAXX 23121 28434 42598 81302 11060 21124 39957 40222 56001 885// 333 88632
AAXX 23121 28552 42597 32303 11126 21168 30147 40267 57009 82502
AAXX 23121 28666 42999 61704 11129 21177 30124 40310 57020 84012
AAXX 23121 28825 42997 32002 11101 21160 30070 40251 57007 83030
AAXX 23121 29111 12998 82203 11095 21136 30161 40252 57004 69952 8807/ 333 11063
AAXX 23121 29209 32998 82002 11090 21145 30154 40286 58008 82032 333 11066
AAXX 23121 29551 11497 82105 11102 21122 30116 40307 57005 60012 78583 883// 333 11100
AAXX 23121 29602 32999 52003 11116 21178 30195 40344 54000 80002 333 11071
AAXX 23121 29636 12598 32502 11100 21153 30103 40332 53001 69972 83300 333 11092
AAXX 23121 29654 11396 81804 11127 21147 39694 40343 53001 60032 78283 889// 333 11125 85708
AAXX 23121 29712 32998 22404 11114 21187 30216 40368 54000 80002 333 11094
AAXX 23121 29724 31997 22305 11131 21183 30151 40368 58003 73631 80002 333 11117
AAXX 23121 29726 31998 82303 11125 21187 30188 40367 58002 70232 83071 333 11109
AAXX 23121 29814 32999 22103 11161 21203 30233 40391 57003 82070 333 11120
AAXX 23121 29827 31997 22302 11165 21215 30230 40397 57001 70131 82040 333 11134
AAXX 23121 29923 31999 22506 11123 21195 30103 40397 54000 70231 80002 333 11123
AAXX 23121 29939 31997 32603 11067 21203 30100 40396 53003 70131 80005 333 11050
AAXX 23121 35026 42998 31801 11139 21185 39607 40285 57010 83040
AAXX 23121 36021 32999 32201 11125 21208 30215 40407 57006 80001 333 11072
AAXX 23121 36022 32998 61803 11144 21187 30137 40418 57009 80002 333 11128
AAXX 23121 36038 32999 31501 11149 21192 39964 40439 57010 82031 333 11061
AAXX 23121 36058 32699 80902 11084 21131 39887 40435 54000 82505 333 11053
AAXX 23121 36064 32999 80301 11041 21087 39805 40418 53006 8801/ 333 11015
AAXX 23121 36229 32999 20000 11218 21239 39235 40530 52005 80001 333 11190
AAXX 23121 36259 32599 60000 11238 21270 38338 48622 57003 82902 333 11177
AAXX 23121 48892 01598 70509 10263 20242 30088 40093 53005 60134 70382 879// 333 10274 58008 60112 70134 8399 5 87697
AAXX 23121 48803 32497 81402 10160 20124 30086 40202 52021 888// 333 00016 10176 58032 70000 84894 88696 555 20160
AAXX 23124 89022 42465 70613 11040 21064 39857 49895 52005 875// 333 11037 21058 83614 87627
AAXX 23124 89062 42482 81605 11012 21037 39859 49900 57002 886// 333 10002 21016 82710 87715
AAXX 23121 48887 32798 70705 10267 20212 30067 40073 53009 81508 333 00027 10289 59012 70000 81697 87299
AAXX 23121 48870 01498 80203 10234 20200 30132 40139 53016 60034 72162 888// 333 01023 10262 58007 69962 7002 5 84894 88696 555 20232
AAXX 23121 48877 02598 73604 10245 20189 30119 40124 52013 69994 878// 333 01025 10268 58002 69982 70009 8289 5 86697
AAXX 23121 48920 01598 60210 10269 20248 30078 40081 52016 60154 70382 869// 222// 00280 2//04 333 10287 5800 6 60152 70150 82895 81996 86697
AAXX 23121 23914 41496 81803 11084 21095 39908 40175 57005 78587 889//
AAXX 23121 23921 41497 80000 11070 21095 30047 40169 54000 72682 889// 333 88918
AAXX 23121 23955 12984 82204 11094 21119 30156 40220 57007 60022 83072 333 11061
AAXX 23121 23966 11999 80000 11091 21102 30083 40214 52003 60012 70272 8805/ 333 11088
AAXX 23121 28138 41596 82602 11088 21099 39618 40208 57001 78582 883//
AAXX 23121 28224 41498 81903 11070 21091 39975 40196 57004 77172 88/2/
AAXX 23121 28255 42594 82101 11095 21142 30085 40220 56005 885// 333 88626
AAXX 23121 28440 42597 71701 11063 21138 39861 40221 57003 87500
AAXX 23121 28645 42997 61802 11124 21167 39957 40270 57010 83031
AAXX 23121 28661 42997 82106 11111 21156 30191 40288 56016 83034
AAXX 23121 28722 41697 81806 11094 21151 30097 40234 57009 73632 885//
AAXX 23121 28748 42960 61803 11134 21161 30039 40295 57008 84031
AAXX 23121 28838 42997 32201 11168 21181 39790 40306 57010 80001
AAXX 23121 29231 11598 72302 11070 21113 30160 40261 53003 60022 70272 87900 333 11069
AAXX 23121 29313 32998 52303 11088 21155 30155 40282 54000 82031 333 11068
AAXX 23121 29612 32998 62104 11120 21164 30183 40344 57003 80004 333 11091
AAXX 23121 29638 32998 81804 11123 21166 30175 40351 54000 80001 333 11103
AAXX 23121 29838 32597 62101 11124 21186 30136 40384 54000 82531 333 11103
AAXX 23121 29846 11560 82408 11089 21162 39961 40365 58003 69902 73683 8695/ 333 11087 86921
AAXX 23121 36061 32998 80000 11125 21133 39980 40415 54000 86071 333 11077
AAXX 23121 23909 41497 81903 11085 21104 39906 40162 58005 77172 8652/
AAXX 23121 28044 41597 61701 11064 21084 30010 40178 57006 70172 86500
AAXX 23121 28116 41597 81602 11075 21092 39935 40175 57004 77172 889//
AAXX 23121 28240 41998 82503 11053 21092 39873 40205 55001 70272 8807/
AAXX 23121 28522 41997 82006 11083 21135 39955 40223 57006 77172 8802/
AAXX 23121 28621 42998 81605 11097 21143 39979 40223 57006 8807/
AAXX 23121 29023 11396 82501 11074 21087 30132 40232 52002 60022 78582 889// 333 11064 87708
AAXX 23121 29122 11999 82203 11096 21122 30176 40252 50000 69962 70283 86032 333 11069
AAXX 23121 29328 12598 82102 11101 21145 30146 40292 53004 69942 8697/ 333 11067
AAXX 23121 29348 11496 82402 11082 21101 30130 40280 53001 60012 78583 8697/ 333 11081 85922
AAXX 23121 29405 32997 62405 11080 21142 30161 40314 57001 86031 333 11072
AAXX 23121 29418 32598 62405 11080 21167 30149 40315 53002 82931 333 11070
AAXX 23121 29430 11998 52403 11115 21135 30120 40305 53002 60022 70272 85070 333 11088
AAXX 23121 29524 32998 82404 11095 21153 30152 40323 57003 80002 333 11079
AAXX 23121 29605 32998 82203 11119 21181 30197 40347 57003 80001 333 11075
AAXX 23121 29631 32697 62104 11125 21160 30137 40334 58001 86500 333 11096
AAXX 23121 29645 11598 81702 11101 21145 30139 40334 53003 60032 70282 8353/ 333 11092
AAXX 23121 29706 32998 22405 11138 21209 30214 40371 57003 80001 333 11111
AAXX 23121 29736 32998 82102 11124 21176 30103 40368 52005 80001 333 11105
AAXX 23121 29937 31997 52003 11138 21199 30176 40413 57002 70232 80005 333 11113
AAXX 23121 36034 32998 82103 11164 21198 30134 40433 57012 80002 333 11144
AAXX 23121 36096 11995 80000 11183 21209 39576 40416 57008 69932 77172 8807/ 333 11175 95090
AAXX 23121 34357 42498 82101 11005 21035 30024 40182 55009 889//
AAXX 23121 34363 42597 82502 11004 21030 30039 40194 56009 885//
AAXX 23121 34545 41697 80503 11001 21010 30067 40181 57013 78588 8695/
AAXX 23121 34579 41595 80801 10000 20000 30152 40197 57008 71042 8850/
AAXX 23121 34838 41497 81002 10052 20034 30040 40136 57009 70282 886//
AAXX 23121 34927 41496 80501 10050 20033 30098 40134 57013 71022 886//
AAXX 23121 34949 41297 81408 10011 20008 39595 40147 57007 70242 8665/ 333 88706
AAXX 23121 37001 42597 80508 10036 20019 30075 40116 57009 8455/
AAXX 23121 37031 42597 81403 10062 20035 39934 40128 56011 84504
AAXX 23121 37061 41496 81204 10042 20029 39991 40157 58014 71022 886//
AAXX 23121 37085 42598 70806 10033 21000 30190 40217 56012 8750/
AAXX 23121 37126 42998 83003 10002 21118 37873 48436 57007 85031
AAXX 23121 37171 42998 80903 10144 20053 30078 40096 57012 81031
AAXX 23121 37228 41495 80201 10034 20016 39301 40135 55006 71022 886//
AAXX 23121 37470 42498 81301 10054 20041 30169 40146 58024 889//
AAXX 23121 37663 42999 71003 10024 20007 38946 48428 56017 87014
AAXX 23124 71752 16/// /3307 10017 20001 39975 40194 53026 60001 333 10059 20017 4/003 70018
AAXX 23124 71479 16/// /2114 10077 20048 30126 40248 51029 60001 333 10079 20051 70000
AAXX 23124 71228 16/// /1708 11068 21108 60001 333 10017 21104 70000
AAXX 23124 71243 16/// /2615 10022 21159 39113 40203 58003 60001 333 10034 21004 70000
AAXX 23124 71423 16/// /3010 11076 21101 30167 40177 51017 60001 333 10007 21076 4/001 70009 555 10010
AAXX 23124 71434 16/// /2205 11335 21367 30183 40255 53004 60001 333 11246 4/010 70000
AAXX 23124 71421 16/// ///// 11250 21282 39452 40196 50007 60001 333 11063 21253 70000
AAXX 23124 71435 16/// /1306 11122 21135 39577 40195 58025 60001 333 11078 21182 4/014 70000 555 10010
AAXX 23124 71444 16/// /3203 11092 21104 39372 40144 52013 60001 333 11054 21105 4/013 70000 555 10010
AAXX 23124 71736 46/// ///// 11019 21150 6///1 333 10006 21035 4/001 7////
AAXX 23124 71737 16/// /3506 11105 21127 39640 40172 53013 60001 333 11004 21105 4/002 70000
AAXX 23124 71743 16/// /2711 11205 21230 39894 40121 51008 60001 333 11198 21248 70000
AAXX 23124 71747 17/// /1305 11073 21085 39679 40167 56031 69951 7//4/ 333 11037 21104 4/006 7////
AAXX 23124 71748 16/// /3404 11131 21143 39827 40124 53009 60001 333 11045 21138 70003
AAXX 23124 71622 16/// ///// 11025 21038 39879 40222 53030 60001 333 10048 21025 70019
AAXX 23124 71956 16/// /0408 11125 21148 30025 40266 53021 60001 333 10028 21129 70000
AAXX 23124 71976 46/// /2409 11277 21307 39385 40038 51013 6///1 333 11228 21277 7////
AAXX 23124 71832 16/// /0000 11332 21367 39923 40276 53002 60001 333 11144 21332 4/046 70000
AAXX 23124 71903 46/// /2828 10054 20022 30051 40100 6///1 333 7////
AAXX 23124 71682 16/// /0000 11129 21135 39680 49907 58028 60001 333 10035 21133 70003
AAXX 23124 71107 16/// /3129 10058 20035 30062 40175 51068 60001 333 10076 20054 70000
AAXX 23124 71300 17/// /3208 11025 21034 30038 40162 53021 69971 7//4/ 333 10049 21025 4/001 70022
AAXX 23124 71309 16/// /2302 11316 21351 30267 40279 53007 60001 333 11159 21319 4/024 70003
AAXX 23124 71340 46/// /0805 11088 21106 6///1 333 10012 21112 7////
AAXX 23124 71341 16/// /2315 11007 21144 60001 333 10011 21019 70000
AAXX 23124 71342 16/// /2113 11054 21107 60001 333 11008 21078 70000
AAXX 23124 71344 16/// /2416 11011 21092 60001 333 10002 21046 70000
AAXX 23124 71347 16/// /2312 10011 21067 60001 333 10021 21056 70000
AAXX 23124 71348 16/// /2414 10043 21061 60001 333 10036 21066 70000
AAXX 23124 71349 16/// ///// 11052 21084 60001 333 10001 21108 70000
AAXX 23124 71156 16/// /2604 11045 21109 39022 40127 51002 60001 333 10038 21091 4/017 70000
AAXX 23124 71165 46/// ///08 11161 21178 39683 49970 57049 6///1 333 11161 21200 7////
AAXX 23124 71186 46/// /2906 11111 21141 6///1 333 11003 7////
AAXX 23124 71190 46/// /3205 11059 21088 6///1 333 10021 21060 7////
AAXX 23124 71503 46/// /0403 11122 21137 39657 49930 56027 6///1 333 11151 21223 4/005 7////
AAXX 23124 71506 46/// /0818 11230 21249 39047 49942 51042 6///1 333 11108 21253 7////
AAXX 23124 71514 16/// /2907 11102 21124 39477 40193 51011 60001 333 11025 21114 55/// 20000 70000
AAXX 23124 71522 46/// /3303 11214 21244 39714 40223 53006 6///1 333 21216 70000
AAXX 23124 71539 16/// /2708 11103 21115 39488 40201 51003 60001 333 11003 21109 55/// 20000 70000
AAXX 23124 71361 16/// /1705 11071 21102 39727 49935 56055 60001 333 11107 21190 70000
AAXX 23124 71374 46/// /3413 11091 21149 6///1 333 11006 21093 7////
AAXX 23124 71381 47/// /3312 11137 21184 6///1 7//4/ 333 10001 7////
AAXX 23124 71387 16/// /3611 11150 21175 39806 40197 50002 60001 333 11014 21150 70000
AAXX 23124 71393 16/// ///// 10030 21143 38878 40149 58010 60001 333 10043 21018 4/006 70000
AAXX 23124 40153 11450 81904 10105 20073 39065 48468 57017 60001 71022 86480
AAXX 23124 40179 12570 12107 10207 20038 30097 40133 57024 60001 81500
AAXX 23124 40180 12660 11808 10205 20025 30089 40137 58027 60001 81100
AAXX 23124 40190 16/// ///// 10195 20013 39808 40133 57022 60001
AAXX 23124 40199 13/// /0705 10229 20072 30107 40129 57029 60001
AAXX 23124 16294 12998 01204 10120 20025 39994 40188 58001 60001 555 0321/
AAXX 23124 71269 16/// /2319 11035 21081 60001 333 11016 21087 70000
AAXX 23124 71285 46/// /1903 11095 21113 6///1 333 10001 21112 7////
AAXX 23124 71288 16/// /2803 11236 21258 39990 40015 55007 60001 333 11255 21292 70000
AAXX 23124 71299 16/// /1902 11293 21321 39982 40287 53007 60001 333 11119 21293 4/034 70000
AAXX 23124 71550 16/// /2606 11077 21099 39773 40154 51016 60001 333 11022 21105 4/002 70000
AAXX 23124 71551 16/// /2609 11058 21080 39507 40176 58009 60001 333 11005 21071 70000
AAXX 23124 71576 46/// /0000 11300 21333 39930 40018 58002 6///1 333 11240 21326 4/002 7////
AAXX 23124 71421 16/// ///// 11250 21282 39452 40196 50007 60001 333 11063 21253 70000
AAXX 23124 71435 16/// /1306 11122 21135 39577 40195 58025 60001 333 11078 21182 4/014 70000 555 10010
AAXX 23124 71444 16/// /3203 11092 21104 39372 40144 52013 60001 333 11054 21105 4/013 70000 555 10010
AAXX 23121 13463 32970 00505 10090 21057 30122 40182 57008 333 91116
AAXX 23121 13459 32670 13606 10024 21099 39419 40201 57010 81200 333 47007 81896 91116
AAXX 23121 13461 32975 00506 10110 21065 30162 40170 58005 333 91116 92323 92438 92515
AAXX 23121 13363 32968 82302 11018 21056 39305 48501 57011 8802/ 333 47008
AAXX 23124 71832 16/// /0000 11332 21367 39923 40276 53002 60001 333 11144 21332 4/046 70000
AAXX 23124 71752 16/// /3307 10017 20001 39975 40194 53026 60001 333 10059 20017 4/003 70018
AAXX 23124 71736 46/// ///// 11019 21150 6///1 333 10006 21035 4/001 7////
AAXX 23124 71737 16/// /3506 11105 21127 39640 40172 53013 60001 333 11004 21105 4/002 70000
AAXX 23124 71743 16/// /2711 11205 21230 39894 40121 51008 60001 333 11198 21248 70000
AAXX 23124 71747 17/// /1305 11073 21085 39679 40167 56031 69951 7//4/ 333 11037 21104 4/006 7////
AAXX 23124 71748 16/// /3404 11131 21143 39827 40124 53009 60001 333 11045 21138 70003
AAXX 23124 71479 16/// /2114 10077 20048 30126 40248 51029 60001 333 10079 20051 70000
AAXX 23124 71682 16/// /0000 11129 21135 39680 49907 58028 60001 333 10035 21133 70003
AAXX 23124 71503 46/// /0403 11122 21137 39657 49930 56027 6///1 333 11151 21223 4/005 7////
AAXX 23124 71506 46/// /0818 11230 21249 39047 49942 51042 6///1 333 11108 21253 7////
AAXX 23124 71514 16/// /2907 11102 21124 39477 40193 51011 60001 333 11025 21114 55/// 20000 70000
AAXX 23124 71522 46/// /3303 11214 21244 39714 40223 53006 6///1 333 21216 70000
AAXX 23124 71539 16/// /2708 11103 21115 39488 40201 51003 60001 333 11003 21109 55/// 20000 70000
AAXX 23124 71423 16/// /3010 11076 21101 30167 40177 51017 60001 333 10007 21076 4/001 70009 555 10010
AAXX 23124 71434 16/// /2205 11335 21367 30183 40255 53004 60001 333 11246 4/010 70000
AAXX 23124 71300 17/// /3208 11025 21034 30038 40162 53021 69971 7//4/ 333 10049 21025 4/001 70022
AAXX 23124 71309 16/// /2302 11316 21351 30267 40279 53007 60001 333 11159 21319 4/024 70003
AAXX 23124 71340 46/// /0805 11088 21106 6///1 333 10012 21112 7////
AAXX 23124 71341 16/// /2315 11007 21144 60001 333 10011 21019 70000
AAXX 23124 71342 16/// /2113 11054 21107 60001 333 11008 21078 70000
AAXX 23124 71344 16/// /2416 11011 21092 60001 333 10002 21046 70000
AAXX 23124 71347 16/// /2312 10011 21067 60001 333 10021 21056 70000
AAXX 23124 71348 16/// /2414 10043 21061 60001 333 10036 21066 70000
AAXX 23124 71349 16/// ///// 11052 21084 60001 333 10001 21108 70000
AAXX 23124 71107 16/// /3129 10058 20035 30062 40175 51068 60001 333 10076 20054 70000
AAXX 23124 61968 16/// /1803 10315 20241 40105 60001 333 58004 90710 91106 555 60005
AAXX 23124 61970 16/// ///// 10321 20247 40118 60001 333 58006 555 60005
AAXX 23124 61972 16/// /0508 10302 20239 40124 60001 333 58021 90710 91112 555 60005
AAXX 23124 71361 16/// /1705 11071 21102 39727 49935 56055 60001 333 11107 21190 70000
AAXX 23124 71374 46/// /3413 11091 21149 6///1 333 11006 21093 7////
AAXX 23124 71381 47/// /3312 11137 21184 6///1 7//4/ 333 10001 7////
AAXX 23124 71387 16/// /3611 11150 21175 39806 40197 50002 60001 333 11014 21150 70000
AAXX 23124 71393 16/// ///// 10030 21143 38878 40149 58010 60001 333 10043 21018 4/006 70000
AAXX 23124 71622 16/// ///// 11025 21038 39879 40222 53030 60001 333 10048 21025 70019
AAXX 23124 71956 16/// /0408 11125 21148 30025 40266 53021 60001 333 10028 21129 70000
AAXX 23124 71976 46/// /2409 11277 21307 39385 40038 51013 6///1 333 11228 21277 7////
AAXX 23124 71903 46/// /2828 10054 20022 30051 40100 6///1 333 7////
AAXX 23124 71156 16/// /2604 11045 21109 39022 40127 51002 60001 333 10038 21091 4/017 70000
AAXX 23124 71165 46/// ///08 11161 21178 39683 49970 57049 6///1 333 11161 21200 7////
AAXX 23124 71186 46/// /2906 11111 21141 6///1 333 11003 7////
AAXX 23124 71190 46/// /3205 11059 21088 6///1 333 10021 21060 7////
AAXX 23124 71228 16/// /1708 11068 21108 60001 333 10017 21104 70000
AAXX 23124 71243 16/// /2615 10022 21159 39113 40203 58003 60001 333 10034 21004 70000
AAXX 23124 41529 12997 00000 10183 21005 39785 40166 60002 333 10210 59032
AAXX 23124 41598 12997 03102 10200 20031 39868 40138 60002 333 10218 59031
AAXX 23124 41620 32997 03105 10140 21172 38576 48480 333 10150 59024
AAXX 23124 41624 02997 00000 10205 20039 39950 40150 60002 333 10215 59032 60007
AAXX 23124 41640 01996 03104 10170 20028 39897 40148 60002 70500 333 10188 59019 60007
AAXX 23124 41660 11996 03110 10090 21032 38431 48522 60002 70500 333 10115 59021
AAXX 23124 41675 11996 00000 10180 20029 30015 40158 60002 70500 333 10205 59022
AAXX 23124 41712 11995 00904 10120 21162 39223 48524 60002 70500 333 10142 59024
AAXX 23124 41715 01996 00000 10195 20022 30091 40158 60002 70400 333 10200 59027 60007
AAXX 23124 41756 01996 22304 10230 20165 30087 40151 60002 70400 82030 333 10240 56090 59024 60007 82358
AAXX 23124 41764 31996 03610 10190 21025 30099 40149 60002 70400 333 10200 59017 60007
AAXX 23124 41768 02996 03604 10225 20043 30135 40142 60002 333 10255 59008 60007
AAXX 23124 41780 02996 00504 10230 21021 30132 40159 60002 333 10240 59006 60007
AAXX 23124 41254 36/// /3204 10131 21013 38042 48047 333 0E000 59018
AAXX 23121 28216 41598 81405 11080 21090 39889 40182 57004 77172 885//
AAXX 23121 28428 41997 82005 11081 21133 30032 40225 57008 73673 8805/
AAXX 23121 28451 42996 01902 11126 21165 30074 40242 57008
AAXX 23121 28541 42983 70000 11058 21154 39728 40235 57001 87030
AAXX 23121 28655 42998 72206 11128 21162 30045 40282 57017 80002
AAXX 23121 28756 42997 82005 11136 21172 30156 40315 57015 86075
AAXX 23121 29557 11496 82706 11097 21128 30029 40307 57006 69972 78583 883// 333 11097
AAXX 23121 29625 32998 02504 11111 21173 30150 40338 57007 333 11103
AAXX 23121 29813 32999 82103 11158 21200 30171 40364 54000 80002 333 11111
AAXX 23121 29822 32997 32304 11154 21196 30206 40383 54000 82035 333 11125
AAXX 23121 29915 32998 22003 11167 21209 30228 40400 57004 80002 333 11123
AAXX 23121 36020 32998 51904 11120 21203 30194 40408 57002 80001 333 11114
AAXX 23124 41529 12997 00000 10183 21005 39785 40166 60002 333 10210 59032
AAXX 23124 41598 12997 03102 10200 20031 39868 40138 60002 333 10218 59031
AAXX 23124 41620 32997 03105 10140 21172 38576 48480 333 10150 59024
AAXX 23124 41624 02997 00000 10205 20039 39950 40150 60002 333 10215 59032 60007
AAXX 23124 41640 01996 03104 10170 20028 39897 40148 60002 70500 333 10188 59019 60007
AAXX 23124 41660 11996 03110 10090 21032 38431 48522 60002 70500 333 10115 59021
AAXX 23124 41675 11996 00000 10180 20029 30015 40158 60002 70500 333 10205 59022
AAXX 23124 41712 11995 00904 10120 21162 39223 48524 60002 70500 333 10142 59024
AAXX 23124 41715 01996 00000 10195 20022 30091 40158 60002 70400 333 10200 59027 60007
AAXX 23124 41756 01996 22304 10230 20165 30087 40151 60002 70400 82030 333 10240 56090 59024 60007 82358
AAXX 23124 41764 31996 03610 10190 21025 30099 40149 60002 70400 333 10200 59017 60007
AAXX 23124 41768 02996 03604 10225 20043 30135 40142 60002 333 10255 59008 60007
AAXX 23124 41780 02996 00504 10230 21021 30132 40159 60002 333 10240 59006 60007
BBXX 46249 23121 99338 71197 46/// ///// 1//// 91212 22200 00142 11302 21001 325// 41301 70010
BBXX 46248 23121 99461 71247 46/// ///// 1//// 91204 22200 00086 11405 20903 329// 41403 70023
BBXX 46244 23121 99409 71244 46/// ///// 1//// 91205 22200 00095 11203 21002 329// 41202 70013
AAXX 23124 60595 36/// /0000 11451
AAXX 23124 60381 36/// /1902 10164 20115
AAXX 23124 60639 36/// /2501 10175 20035
AAXX 23124 60605 36/// /1006 10191 20006
BBXX 46241 23121 99330 71173 46/// ///// 1//// 91141 22200 00140 11301 21001 325// 41301 70005
BBXX VRBK6 23124 99019 11193 41397 63313 10260 2025/ 40060 52010 7//11 85333 22273 00290 20901 33333 40901 50901 6//// 80250 ICE /////
BBXX 46240 23121 99366 71219 46/// ///// 1//// 91212 22200 00122 11202 21001 335// 41201 70008
BBXX 46237 23121 99378 71226 46/// ///// 1//// 91210 22200 00109 11202 21001 326// 41202 70012
BBXX 46212 23121 99408 71243 46/// ///// 1//// 91212 22200 00095 11303 21002 329// 41302 70014
BBXX 46217 23121 99342 71194 46/// ///// 1//// 91212 22200 00143 11301 21001 326// 41301 70007
BBXX 46216 23121 99343 71198 46/// ///// 1//// 91157 22200 00144 11302 20901 327// 41301 70010
BBXX 46223 23121 99335 71178 46/// ///// 1//// 91200 22200 00146 11302 21001 328// 41301 70008
AAXX 23124 41515 02997 00916 10087 21286 38560 48522 60002 333 10110 59025 60007
AAXX 23124 41560 22696 31803 10082 21045 38276 48506 60002 82230 333 10086 58028 60007
AAXX 23124 41571 11996 12318 10150 21010 39559 40146 60002 70500 81030 333 10185 56090 59029
AAXX 23124 41594 31996 02704 10190 21025 39937 40155 70500 333 10210 59025
AAXX 23124 41685 32997 02302 10145 21084 38905 48489 333 10180 59021
AAXX 23124 41710 01995 31302 10110 21156 39388 40177 60002 70600 80001 333 10116 56009 59031 60007 83070
AAXX 23124 41718 11996 00000 10190 20030 30051 40155 60002 70500 333 10204 59022
AAXX 23124 41739 01995 03606 10190 21102 39073 48534 60002 70500 333 10195 59015 60007
AAXX 23124 41744 32996 02702 10210 21071 38777 48507 333 10220 59012
AAXX 23124 41749 01995 03108 10190 20045 30115 40148 70400 333 10190 58007 60007
AAXX 23121 56146 32880 13401 10006 21217 36688 52022 81400 333 00354
AAXX 23121 56444 32980 02703 11006 21138 36793 52019 333 00151
AAXX 23121 56492 11458 80000 10060 20032 39924 40347 52028 69971 76066 885// 333 00851
AAXX 23121 56571 32680 80204 10067 21041 38445 52030 888// 333 00851
AAXX 23121 57799 32965 02701 10062 21037 30201 40294 52013
AAXX 23121 57866 32760 83201 10077 20013 30095 40309 52017 885//
AAXX 23121 57957 31756 80204 10083 21002 30093 40298 52018 70500 885//
AAXX 23121 57993 32760 83202 10084 21023 30111 40283 52019 885//
AAXX 23121 58027 32961 02902 10017 21081 30227 40281 52014
AAXX 23121 58141 31940 02702 10007 21060 30265 40285 52008 70500
AAXX 23121 58265 31958 02901 10011 21032 30275 40283 52005 71000
AAXX 23121 58472 32475 23406 10042 21031 30174 40272 52003 82100
AAXX 23121 58477 32965 03602 10038 21044 30222 40268 52002
AAXX 23121 58527 32960 02701 10050 21096 30211 40291 52016
AAXX 23121 58633 31957 02701 10026 21005 30177 40282 52012 70500
AAXX 23121 58666 32575 23610 10066 20007 30157 40263 52014 82100
AAXX 23121 58725 32965 02502 10057 21017 30005 40276 52017
AAXX 23121 58921 31959 71801 10072 20050 30011 40266 52017 71000 87040
AAXX 23121 59082 31658 83405 10099 20005 30115 40266 52021 70500 885//
AAXX 23121 59211 32960 80202 10109 20037 30064 40277 52027 8807/
AAXX 23121 59265 31858 80203 10118 20017 30108 40251 52026 70500 885//
AAXX 23121 59293 32962 70204 10100 20016 30160 40248 52018 8704/
AAXX 23121 59501 31959 03605 10111 20043 30201 40223 52021 70500
AAXX 23121 59663 31957 00205 10136 20053 30107 40217 52021 70500
AAXX 23121 59838 32760 70406 10203 20137 30167 40177 52018 875//
AAXX 23121 59948 32370 70708 10167 20167 39692 40183 52016 878//
AAXX 23121 59981 32570 60407 10228 20161 30147 40154 52019 83102
AAXX 23124 41515 02997 00916 10087 21286 38560 48522 60002 333 10110 59025 60007
AAXX 23124 41560 22696 31803 10082 21045 38276 48506 60002 82230 333 10086 58028 60007
AAXX 23124 41571 11996 12318 10150 21010 39559 40146 60002 70500 81030 333 10185 56090 59029
AAXX 23124 41594 31996 02704 10190 21025 39937 40155 70500 333 10210 59025
AAXX 23124 41685 32997 02302 10145 21084 38905 48489 333 10180 59021
AAXX 23124 41710 01995 31302 10110 21156 39388 40177 60002 70600 80001 333 10116 56009 59031 60007 83070
AAXX 23124 41718 11996 00000 10190 20030 30051 40155 60002 70500 333 10204 59022
AAXX 23124 41739 01995 03606 10190 21102 39073 48534 60002 70500 333 10195 59015 60007
AAXX 23124 41744 32996 02702 10210 21071 38777 48507 333 10220 59012
AAXX 23124 41749 01995 03108 10190 20045 30115 40148 70400 333 10190 58007 60007
BBXX 46231 23121 99327 71174 46/// ///// 1//// 91154 22200 00147 11302 21001 325// 41302 70009
BBXX 46222 23121 99336 71183 46/// ///// 1//// 91156 22200 00149 11302 21001 326// 41301 70008
BBXX 46242 23121 99332 71174 46/// ///// 1//// 91158 22200 00141 11301 323// 41301 70005
BBXX 46211 23121 99469 71242 46/// ///// 1//// 91206 22200 00083 11205 21003 328// 41203 70023
AAXX 23124 41506 02997 03616 10080 21058 48522 60002 333 10106 59021 60007
AAXX 23124 41508 22997 01802 10078 21106 48531 60002 333 10122 59024 60007
AAXX 23124 41523 12997 00000 10115 21017 48515 60002 333 10145 59035 60007
AAXX 23124 41535 12997 00000 10110 21008 48478 60002 333 10130 59020
AAXX 23124 41536 12997 30000 10110 20007 48496 60002 80001 333 10167 56009 59020 83070
AAXX 23124 41573 12997 00000 10050 21039 48484 60002 333 10102 59020
AAXX 23124 41600 01995 00000 10175 20051 39836 40131 60002 70400 333 10177 59022 60007
AAXX 23124 41630 11996 00000 10180 20013 40160 60002 70500 333 10200 59020
AAXX 23124 41678 12997 03104 10185 20004 40164 60002 333 10195 59020
AAXX 23124 41696 02997 03102 10120 21156 38000 48507 60002 333 10140 59013 60007
AAXX 23124 41697 02997 00000 10200 20074 39999 40156 60002 333 10215 59020 60007
AAXX 23124 41700 11996 00000 10180 20058 30019 40148 60002 70500 333 10207 59025
AAXX 23124 41725 02996 03602 10190 21025 30076 40155 60002 333 10195 59018 60007
AAXX 23124 41746 02996 03602 10185 20021 30115 40174 333 10195 59005 60007
AAXX 23124 41759 11996 01804 10230 21000 30161 40167 60002 70500 333 10240 59009
AAXX 23124 41785 02997 00502 10200 20031 30131 40144 60002 333 10210 59013 60007
AAXX 23121 23226 41242 80000 11090 21106 39926 40149 57012 71022 886// 333 86703
AAXX 23121 23701 41462 80000 11082 21101 30005 40139 56009 77172 8872/ 333 86711
AAXX 23121 28909 41497 81604 11100 21128 30124 40229 57006 72272 8472/
AAXX 23124 78016 32664 62209 10203 20129 30272 40276 53004 86500 333 10216 20174 70000
AAXX 23124 78062 11561 30000 10212 20209 40216 69923 71082 82830 333 10268 20209 58006 70002 82818 90999
AAXX 23124 04203 46/// /2907 11174 21216 39956 49974 57007
AAXX 23124 04205 45/75 /3301 11248 21316 39955 49979 57006
AAXX 23124 04208 46/// /3208 11170 21210 39909 49955 57001
AAXX 23124 04213 46/// /2006 11164 21224 39815 49930 57002
AAXX 23124 04214 46/// /0609 11132 21228 39883 49916 54000
AAXX 23124 04224 45/84 /0410 11110 21173 39871 49905 52005
AAXX 23124 04228 NIL
AAXX 23124 04242 46/// /1126 11058 21076 39849 49865 57011
AAXX 23124 04253 46/// /2616 11056 21091 39889 49916 57003
AAXX 23124 04266 46/// /2107 11033 21079 39873 49911 57015
AAXX 23124 04285 46/// /3606 11030 21058 39892 49911 57032
AAXX 23124 04301 46/// /2608 11193 21246 30012 40017 57003
AAXX 23124 04313 46/// /3533 11125 21143 39848 49860 57021 333 91044
AAXX 23124 04330 46/// /0113 11063 21110 39771 49788 57017
AAXX 23124 04351 46/// /3411 11125 21214 39825 49841 57004
AAXX 23124 04373 46/// /3220 11099 21178 39807 49900 57004
AAXX 23124 04382 46/// /3202 11046 21118 39870 49919 57006
AAXX 23124 04416 NIL
AAXX 23124 85041 12870 70000 10240 20234 39817 40081 51007 60144 85031 333 20223 30/// 55020 56000 58024 70141 86358 86070
AAXX 23121 50353 31965 30201 11284 21310 30018 40273 52006 77600 80002
AAXX 23121 50557 32970 03201 11329 21365 39932 40283 52003
AAXX 23121 50756 32960 03203 11276 21310 39927 40265 52009
AAXX 23121 50949 32965 00201 11197 21286 30078 40266 52014
AAXX 23121 50963 32960 02903 11217 21260 30075 40229 52003
AAXX 23121 50978 32975 02701 11207 21264 39841 40224 52002
AAXX 23121 51087 NIL
AAXX 23121 51156 NIL
AAXX 23121 51644 32960 22202 11079 21121 39083 40447 57002 80002 333 05252
AAXX 23121 51656 32975 02501 11072 21125 39262 40445 57002 333 05251
AAXX 23121 51886 32980 00000 11118 21275 37133 57001 333 00053
AAXX 23121 52602 32980 02201 11137 21319 37292 57004 333 00251
AAXX 23121 52713 32980 00702 11096 21274 36923 57003 333 00351
AAXX 23121 52754 32980 00201 11126 21259 36805 52010 333 00400
AAXX 23121 52818 32980 03601 11096 21260 37263 57001 333 00253
AAXX 23121 52836 32980 01802 11137 21272 36910 57005 333 00356
AAXX 23121 52955 32980 01601 11152 21285 36993 52003 333 00451
AAXX 23121 53068 32980 02904 11161 21195 39118 40362 52005 333 00154
AAXX 23121 53276 32980 02505 11152 21198 38909 40369 52007
AAXX 23121 54135 32975 50401 11134 21236 30033 40275 52012 80002
AAXX 23121 54236 32975 00202 11112 21191 30150 40264 52013
AAXX 23121 54539 32970 03201 11018 21175 30250 40265 52013
AAXX 23121 54662 32970 00203 11017 21121 30127 40245 52017
AAXX 23121 54753 32560 13203 10022 21088 30245 40252 52008 81400
AAXX 23121 54857 31956 02907 10020 21068 30165 40261 52008 70400
AAXX 23121 57067 32968 02001 11023 21118 39634 40353 52020
AAXX 23121 57178 32963 00000 10020 21066 30150 40317 52023
AAXX 23121 57245 32970 01101 10050 21028 39969 40333 52022 333 00452
AAXX 23121 57297 32960 02701 10042 21099 30164 40311 52021
BBXX 46221 23121 99339 71186 46/// ///// 1//// 91145 22200 00147 11302 20901 326// 41301 70009
AAXX 23121 89062 42482 81605 11012 21037 39859 49900 57002 886// 333 10002 21016 82710 87715
AAXX 23121 91943 16/// /0906 10240 20224 30115 40117 57013 69941 333 58022
AAXX 23121 91945 36/// /0712 10258 20221 30143 40148 56013 333 10293
AAXX 23124 40582 42960 51212 10209 20101 40156 55014 80001 333 00024 55302 00601 10000 21501 30476 41195 51629 61977 55407 41025 85070 90400 91017 91123 91217 91313
AAXX 23124 41150 NIL
AAXX 23124 41168 NIL
AAXX 23124 41170 32960 30508 10222 20175 30169 40182 80001 333 59017 83072
AAXX 23124 41176 NIL
AAXX 23124 41184 NIL
AAXX 23124 41194 NIL
AAXX 23124 41196 NIL
AAXX 23124 41198 NIL
AAXX 23124 41210 NIL
AAXX 23124 41216 NIL
AAXX 23124 41217 NIL
AAXX 23124 41218 NIL
AAXX 23124 41226 NIL
AAXX 23124 41244 36/// /2305 10241 21011 39814 48134 333 0E011 59006
AAXX 23124 41246 32960 30809 10227 20118 30159 40163 80001 333 59020 83070
AAXX 23124 41254 36/// /3204 10131 21013 38042 48047 333 0E000 59018
AAXX 23124 41256 32965 20307 10223 20092 30156 40166 80001 333 59023 82075
AAXX 23124 41258 36/// /0405 10222 20099 30156 40161 333 0E/// 59021
AAXX 23124 41268 32960 03608 10227 20092 30149 40165 333 59015
AAXX 23124 41312 36/// /1008 10252 20137 30103 40142 333 0E/// 59001
AAXX 23124 41314 32960 09907 10237 20046 39655 40155 333 59009
AAXX 23124 41316 32960 01208 10253 20115 30117 40144 333 59005
AAXX 23124 41404 12960 00411 10211 21129 37861 48499 60002 333 58001
AAXX 23124 41407 12970 00908 10242 21067 38928 48494 60002 333 58012
AAXX 23124 41431 11930 01818 10290 20223 30100 40113 60002 70744 333 59009
AAXX 23124 41466 NIL
AAXX 23124 41477 12960 01714 10274 20204 60002 333
AAXX 23124 41480 12560 21013 10271 20168 30142 40145 60002 82500 333 59003 82620
BBXX GHJV 23123 99311 70160 41497 80706 10186 20126 40317 52008 70222 8/100 22252 02193 20302 80152
BBXX LAXP4 23124 99345 70339 41497 80914 00/// 10190 2019/ 40302 51008 70222 8852/ 22253 00190 20402 327// 40503 5//// 6//// 80190 NNNN
BBXX 62159 23124 99605 10017 41597 62527 10082 20016 49955 53006 70222 8482/ 22200 10905 70026
BBXX 62027 23124 99491 70022 46/// /2018 1//// 2//// 40208 57023 22200 00114 11303 331// 70016
BBXX 62001 23124 99453 70050 46/// /2415 10137 20096 40270 58007 22200 00141 10604 70020
BBXX 62442 23124 99490 70164 46/// /3019 1//// 2//// 40342 51033 22200 00125 333 90710 91127
BBXX 62081 23124 99510 70134 46/// ///// 10085 20031 40280 51040 22200 00119 10811 70053
BBXX 62163 23124 99475 70084 46/// /3225 10110 20059 40272 52060 22200 00126 10709 70044 333 90710 91138
BBXX 64046 23124 99605 70049 46/// /2730 10069 20017 49970 53026 22200 00079 10914 70070
BBXX 64045 23124 99591 70117 46/// /3029 10049 20013 40058 52041 22200 00100 11015 70077 333 90710 91142
BBXX 62301 23124 99524 70047 46/// /3321 10076 20043 40148 52035 22200 00085 10504 70022 333 90710 91132
BBXX 62303 23124 99516 70051 46/// /3323 10080 20060 40158 52034 22200 00111 10605 70027 333 90710 91136
BBXX 62029 23124 99487 70125 46/// /3229 10093 20035 40310 52041 22200 00129 10809 70045 333 90710 91138
BBXX 62105 23124 99554 70122 46/// /2829 10064 20023 40166 52030 22200 00106 10810 70052 333 90710 91141
BBXX 63055 23124 99606 10016 47997 /2626 10076 20016 49979 50005 700// 22200 10809 70047
BBXX 62112 23124 99584 70002 47698 /2822 10069 20006 40041 50003 700// 22200
BBXX PJAI 23124 99581 70014 47998 /2519 10083 20003 40051 50005 700// 22200
BBXX 62111 23124 99580 70003 46/// /2722 10071 20011 40068 58001 22200 10605 70026
BBXX 63056 23124 99597 10016 47597 /2427 10073 20015 49989 51003 700// 22200 10809 70047
BBXX 63110 23124 99595 10015 47597 /2624 10079 20021 40004 50004 700// 22200 10809 70047
BBXX 63057 23124 99592 10015 47698 /2629 10075 20017 40017 51004 700// 22200 10910 70049
BBXX 62128 23124 99587 10014 47698 /2625 10071 20003 40033 51008 700// 22200 10807 70037
BBXX 62129 23124 99584 10003 46/// ///// 10071 21002 40047 50004 22200
BBXX 62113 23124 99584 10002 47698 /2623 10071 21003 40050 51001 700// 22200
BBXX 63108 23124 99608 10017 47597 /2632 10069 20011 49967 51003 700// 22200 11012 70060
BBXX 63106 23124 99610 10017 46/// /2527 10069 49949 51005 22200
BBXX 63105 23124 99610 10017 47997 ///// 10072 20005 49948 50004 700// 22200
BBXX 63113 23124 99610 10017 46/// /2627 10073 21004 49969 53005 22200 11015 70075
BBXX 63112 23124 99611 10010 47496 /2732 10086 20014 49942 51007 751// 22200 11115 70076
BBXX 63107 23124 99611 10017 46/// /2428 10073 49944 51004 22200
BBXX 63101 23124 99612 10009 46/// /2724 10079 20025 49935 52011 22200
BBXX 63103 23124 99612 10011 46/// /2730 10067 20008 49955 50005 22200 11015 70074
BBXX 63104 23124 99612 10016 47597 /2529 10078 20018 49935 50005 700// 22200
BBXX 63117 23124 99613 10011 47698 /2528 10160 20036 49942 51009 700// 22200
BBXX 63115 23124 99616 10013 47697 /2431 10075 20001 49927 51010 700// 22200 11016 70081
BBXX MWYG6 23124 99603 70040 47998 /2829 10070 700// 22200
BBXX 64041 23124 99607 70026 47997 /2532 10068 21003 49955 52015 700// 22200 11116 70079
BBXX 62164 23124 99572 10008 47998 /2813 10097 20007 40071 51009 700// 22200 00094 10504 70022
BBXX PJGO 23124 99571 10022 47998 /3013 10083 20039 40069 50010 700// 22200
BBXX 62133 23124 99571 10009 46/// /2917 10085 21010 40070 50006 22200 10604 70019
BBXX 62119 23124 99570 10019 47997 /3116 10082 20025 40074 50008 700// 22200 10604 70022
BBXX 62152 23124 99570 10018 47/98 /3113 10084 20040 40075 50006 700// 22200 10504 70021
BBXX 62154 23124 99564 10022 46/// /3313 10093 20047 40073 50002 22200
BBXX 62120 23124 99564 10021 47798 /3315 10083 40079 50007 700// 22200
BBXX 62132 23124 99564 10020 46/// /3406 10088 20061 40081 50009 22200
BBXX 62123 23124 99563 10022 47697 /3109 10089 20068 40077 50003 700// 22200
BBXX 62165 23124 99540 10009 47397 /2220 10085 20074 40103 58020 700// 22200 10503 70016
BBXX 62127 23124 99540 10007 47297 ///// 10085 20074 40101 57023 762// 22200 10402 70012
BBXX 62131 23124 99539 10012 46/// /20// 10087 20076 40104 58022 22200
BBXX 62145 23124 99531 10028 47598 /2024 10106 20068 40134 58023 700// 22200 10403 70016
BBXX 62149 23124 99537 10011 47597 /2024 10082 20079 40106 58023 751// 22200 10403 70013
BBXX 62148 23124 99536 10015 46/// /2120 10093 20067 40118 58026 22200
BBXX 62150 23124 99536 10007 47496 /2021 10084 20067 40113 58024 762// 22200 10402 70008
BBXX 62121 23124 99535 10027 46/// ///// 22200
BBXX 62144 23124 99534 10017 47598 /2020 10095 20065 40121 58029 700// 22200 10402 70010
BBXX ZQSD5 23124 99583 10007 46/// /2626 10075 21003 40046 51010 22200 10809 70044
BBXX 62114 23124 99583 10000 46/// /2630 10071 21003 40039 50001 22200
BBXX 62134 23124 99580 10014 47697 /2821 10076 20024 40057 51012 700// 22200 10605 70024
BBXX 62102 23124 99579 10018 46/// /2823 10079 20029 40055 51007 22200 10605 70026
BBXX 62117 23124 99579 10000 47998 /2618 10074 20024 40058 51007 700// 22200 10605 70025
BBXX 62143 23124 99577 10018 47998 /3114 10079 21002 40068 50008 700// 22200 10504 70022
BBXX 62142 23124 99530 10021 47597 /2118 10088 20068 40131 58023 700// 22200 10302 70010
BBXX 62118 23124 99577 10009 47997 /2718 10080 20002 40057 51007 700// 22200 10605 70023
BBXX 62155 23124 99577 10007 47998 /2722 10077 21002 40066 51009 751// 22200 10605 70023
BBXX 62116 23124 99576 10011 47997 /2817 10081 20003 40061 51009 700// 22200 10605 70025
BBXX 62104 23124 99574 10013 47998 /2919 10093 20014 40062 50007 700// 22200
BBXX 62153 23124 99573 10020 47998 /2809 10083 20004 40068 51010 700// 22200 10605 70023
BBXX 62122 23124 99573 10016 47998 /2919 10083 20002 40066 50008 700// 22200 10605 70025
BBXX 62140 23124 99573 10013 46/// /29// 10082 20015 40064 51006 22200
BBXX 62146 23124 99572 10021 47/98 /2704 10082 21013 40072 50010 700// 22200 10605 70023
BBXX PENR 23123 99424 70186 41598 30210 10134 20068 40390 51029 70211 83100 22254 20202 399// 40804 80102
BBXX 62169 23123 99614 10014 41397 22440 10080 20058 49932 52010 71880 82200 22200 20714 3//// 4//// 5//// 80070
BBXX MJCE3 23124 99555 70051 41698 83113 10057 20035 40106 53030 71528 887// 22243 00094 20401 30000 40000 50000 60000 80046
BBXX 62170 23124 99514 10020 46/96 /2232 10104 20094 40172 58022 22200 00107 10502 70010 333 90710 91142
BBXX 62304 23124 99511 10018 46/97 /2125 10103 20081 40175 58026 22200 00109 10503 70013 333 90710 91143
BBXX 62103 23124 99499 70029 46/98 /2030 10119 20098 40178 57018 22200 00123 10703 70017 333 90710 91139
BBXX 62305 23124 99504 10000 46/98 /2234 10107 20090 40189 58025 22200 00120 10603 70015 333 90710 91141
BBXX 62094 23124 99517 70067 46/// /2919 10090 20048 40180 51032 22200 00107 10606 70028 333 90710 91135
BBXX DANV 23124 99352 10187 41297 83628 10162 20108 40125 57015 72588 887// 22224 04170 20104 301// 40408 80131
BBXX 63110 23123 99595 10015 41697 42635 10076 40003 70511 8/1// 22200 10809 70047
BBXX 63119 23124 99583 10009 41597 32932 10073 20003 40038 55/// 701// 8/4// 22200 2//// 325// 41007 5////
BBXX VQIV8 23124 99379 10059 41/98 73013 10150 20128 40256 52010 70222 85710 22233 02160 20401 336// 40804 5//// 80138
BBXX 62103 23124 99499 70029 46/97 /2033 10117 20099 40160 57033 22200 00123 10704 70019 333 90710 91140
BBXX 62095 23124 99531 70159 46/// /2722 10079 20028 40256 52029 22200 00112 10810 70048 333 90710 91133
BBXX 62107 23124 99501 70061 46/// /3436 10086 20056 40191 53037 22200 00117 10907 70036 333 90710 91150
BBXX A8UT7 23124 99435 70157 41598 63518 10155 20082 40275 51015 70322 8249/ 22263 20303 331// 40504 80115
BBXX VRVQ9 23124 99490 70185 41598 22528 10097 20043 40344 52050 70100 8/100 22264 20409 328// 40608 5//// 80073
AAXX 23121 29998 32799 53602 11134 21177 38625 48490 57001 85500 333 11101
AAXX 23121 30385 32999 03402 11348 21365 39745 40355 52005 333 11346
AAXX 23121 30469 NIL
AAXX 23121 30636 119// 80000 11285 21304 39652 40330 57007 69902 70372 8801/ 333 11282
AAXX 23121 30650 32984 80000 11294 21318 39095 40336 55007 86042 333 11260
AAXX 23121 30664 32999 00000 11375 21393 39242 40383 54000 333 11264
AAXX 23121 30781 NIL
AAXX 23121 30777 32998 02502 11342 21371 39610 40354 54000 333 11276
AAXX 23121 30844 11998 82501 11169 21182 39258 40291 57002 69932 77172 8802/ 333 11148
AAXX 23121 30925 328// 80000 11155 21182 39284 40309 53004 86071 333 11082
AAXX 23121 31371 32999 02501 11272 21303 39972 40264 52001 333 11243
AAXX 23121 31388 13894 00000 11328 21345 39953 40250 53003 69922 333 11219
AAXX 23121 31478 NIL
AAXX 23121 31532 11996 82003 11224 21242 39851 40220 58001 69940 77172 8802/ 333 11201
AAXX 23121 31594 32998 03201 11313 21330 30049 40242 56001 333 11247
AAXX 23121 31655 11995 80000 11174 21180 30121 40171 58012 60070 8802/ 333 11122
AAXX 23121 31754 NIL
AAXX 23124 82586 21598 70508 10270 20241 39890 40126 70252 87400 333 20230 59003 69964
AAXX 23124 82678 22596 81802 10267 20239 39979 40119 86200 333 20229 58003 60014
AAXX 23124 82784 21598 80903 10238 20226 39677 40133 70262 87400 333 20221 58010 60104
AAXX 23124 82791 32599 40506 10290 20196 39852 40129 83100 333 2//// 58011
AAXX 23124 82983 32597 61406 10268 20211 39715 40122 83122 333 20241 58011
AAXX 23121 40700 11558 73303 10076 20039 30067 40156 57011 60001 70530 87600 333 87725
AAXX 23121 40723 12960 50000 10056 21028 38899 40202 57008 60001 82046 333 82360 83267
AAXX 23121 40726 12560 22106 10120 21036 38627 40132 56012 60001 82300 333 81930 81840
AAXX 23121 40727 12660 12105 10124 21034 38450 40124 57018 60001 81100 333 81840
AAXX 23121 40734 11556 71003 10118 20090 30154 40129 56025 60001 71021 85830 333 83825 84630 86358
AAXX 23121 40737 11950 10903 10130 20082 30107 40125 57055 60001 70520 80001 333 81070
AAXX 23121 40741 12560 70000 10090 21032 39827 40173 56012 60001 82506 333 82645 87268
AAXX 23121 40780 12660 81904 10130 21097 38683 40155 56009 60001 85370 333 82935 83640 88459
AAXX 23121 40791 12960 53402 10104 21159 39363 40203 56015 60001 84032 333 84360
AAXX 23121 40792 12662 71104 10116 21169 38718 40187 58018 60001 83536 333 83635 87269
AAXX 23121 40794 12960 60000 10204 20043 30082 40180 56010 60001 80006 91145 333 84070
AAXX 23121 40812 12960 00000 10208 21016 39788 40162 56012 60001 84070 333 84360
AAXX 23121 40829 11/12 90602 10088 21268 39633 40232 57019 60001 70640 333 89/20
AAXX 23121 40833 12960 41802 10222 20035 30147 40180 57019 60001 82031 333 82360 84070
AAXX 23121 40835 12960 40000 10206 21036 39342 40176 56016 60001 80002 333 84070
AAXX 23121 40845 11958 50000 10196 20116 30165 40170 57015 60001 70521 80008 91145 333 85270
AAXX 23121 40882 12960 42302 10234 20089 30131 40166 56017 60001 80002 333 84068
AAXX 23121 40889 12960 13603 10232 20119 30165 40170 56017 60001 80002 222// 40890 12965 43602 10236 20041 30154 40162 56016 60001 80005 222// 00232 20301 333 84269
AAXX 23121 40890 12965 43602 10236 20041 30154 40162 56016 60001 80005 222// 00232 20301 333 84269
AAXX 23121 40893 12962 52403 10230 20105 30161 40167 56015 60001 80006 222// 00200 20401 333 85268
AAXX 23121 40897 90069 90400 91013 91117 91211 91307
AAXX 23121 28791 42998 82202 11159 21201 30200 40357 57013 80001
AAXX 23121 28688 42997 72002 11134 21195 30177 40348 57013 80001
AAXX 23121 28465 41998 82108 11088 21142 30187 40269 57015 73632 83032 333 91012 91112
AAXX 23121 28383 42997 81703 11067 21145 30189 40276 57016 80002
AAXX 23121 28588 42998 72004 11132 21193 30160 40330 57014 87070
AAXX 23121 38388 42998 70000 10040 21108 30112 40183 57022 80003 555 18003
AAXX 23121 38392 42998 21006 10030 21094 30100 40205 57018 80002 555 10002
AAXX 23121 38507 42497 81203 10066 20014 30055 40158 57022 885// 333 88612 555 10008
AAXX 23121 38511 41994 70903 10023 21073 30021 40165 57023 70522 87030 555 10002
AAXX 23121 38545 42998 20903 10021 21085 30036 40215 57019 80008 555 10001
AAXX 23121 38647 41694 70904 10036 21075 30111 40154 57017 71011 85506 555 10005
AAXX 23121 38656 42998 51102 10054 21058 30067 40177 57006 80002 555 10004
AAXX 23121 38687 42997 60902 10043 21086 39980 40219 57021 80001 555 10003
AAXX 23121 38750 42997 21203 10103 20062 30175 40147 58042 80001 555 10010
AAXX 23121 38763 41993 60202 10041 20041 30065 40172 57015 74444 80001 555 10006
AAXX 23121 38774 42997 60000 10050 21056 39995 40192 54000 80008 555 10006
AAXX 23121 38799 42997 51105 10067 21092 39959 40192 57021 80003 555 10004
AAXX 23121 38806 42997 20902 10040 21082 39954 40219 57020 80002 555 10003
AAXX 23121 38880 41994 80101 10052 21066 39920 40178 54000 70522 82031 555 10004
AAXX 23121 38886 42697 60000 10069 21042 39947 40176 57008 82202 555 10005
AAXX 23121 38895 42996 61202 10103 21103 39889 40179 56015 86070 555 10007
AAXX 23121 38911 42998 50502 10036 21014 39916 40216 57014 80002 555 11000
AAXX 23121 38915 42999 20000 10066 21004 39889 40216 57019 80002 555 11004
AAXX 23121 38974 42998 60201 10076 21025 39827 40161 57009 83082 555 11006
AAXX 23121 38987 42996 70502 10094 21014 39442 40179 57016 8702/ 555 11002
BBXX 51205 23121 99210 71564 46/// ///// 1//// 91218 22200 00237 10805 20805 332// 41301 70025
BBXX 46114 23121 99364 71222 46/// ///// 1//// 91204 22200 00124 11103 21002 330// 41103 70017
AAXX 23121 23929 42578 82603 11054 21114 30115 40184 57003 889//
BBXX 44098 23121 99428 70702 46/// ///// 1//// 91207 22200 00087 11101 21001 311// 41101 70007
BBXX 44039 23121 99411 70727 46/// /0207 10083 20077 40117 55000 91200 22200 00094 10201 70005 333 91209
BBXX 44060 23121 99413 70721 46/// ///07 10073 40103 91215 22200 00103 333 91209 555 11077 22082
BBXX 44022 23121 99409 70737 46/// ///06 10079 20060 40113 91215 22200 00084 333 91208 555 11067 22072
BBXX 51203 23121 99208 71570 46/// ///// 1//// 91213 22200 00248 11401 20801 322// 41401 70007
BBXX 52200 23121 99134 11448 46/// ///// 1//// 91215 22200 00288 11005 21004 309// 41101 70023
BBXX 51201 23121 99217 71581 46/// ///// 1//// 91212 22200 00241 11303 20703 332// 41301 70017
BBXX 41115 23121 99184 70673 46/// ///// 1//// 91205 22200 11303 20902 301// 41302 70013
BBXX 41114 23121 99276 70802 46/// ///// 1//// 91216 22200 00247 11202 20701 307// 41201 70008
BBXX 46088 23121 99483 71232 46/// /1104 10055 40294 91220 22200 00077 1//00 70002 333 91205 555 11045 22046 31201 41006 61219 112044 098046 094038 089043 083045 088040
AAXX 23121 22438 42570 72007 11011 21040 30087 40109 57012 87900
AAXX 23124 16337 12998 01704 10086 21002 39591 40166 52006 60001 555 0216/
AAXX 23124 67017 NIL
AAXX 23124 67020 32582 22002 10360 20226 30055 40082 57032 81903 333 0//00 81820 81920 94971/2/4 95831/2/4 555 81640 81073
AAXX 23124 67023 32582 41612 10318 20254 30103 40109 57015 83930 333 0//00 83820 81920 94964 95814 555 81360
AAXX 23124 67037 32582 3//// 10/// 20/// 30060 40101 5/019 81202 333 0//00 81820 83073
AAXX 23124 67067 31565 5//// 10287 20185 39246 48/// 57021 71790 84932 333 0//00 83823 82923 94961/2/3/8 95871 555 81360 81073
AAXX 23124 67107 NIL
AAXX 23124 67131 32582 12806 10/// 20/// 30115 40120 57015 81100 333 0//00 81820
AAXX 23121 14216 12970 12802 10111 21010 30086 40238 58012 60001 81060 333 70000 92322 92428
AAXX 23121 14219 12465 10802 10003 21032 39221 48515 50006 60001 81100 333 70000
AAXX 23121 14232 11750 71902 10039 21005 30126 40265 58010 60001 71022 87500 333 70000
AAXX 23121 14234 11975 61502 10043 20003 30009 40261 58013 69901 70272 86030 333 70000
AAXX 23121 14236 12670 62201 10047 21017 30057 40259 58008 60001 84530 333 70000
AAXX 23121 14244 11956 61401 10019 20002 30132 40266 58011 60001 71022 86070 333 70000
AAXX 23121 14248 11660 72002 10036 20000 30085 40263 58009 69901 70272 81520 333 70000
AAXX 23121 14253 11650 62301 10010 21016 30085 40265 57008 60001 71022 86400 333 70000
AAXX 23121 14256 12660 52302 10021 21020 39935 40263 58007 60001 83532 333 70000
AAXX 23121 14280 11940 82101 10002 21022 30153 40267 56008 60001 7102/ 8807/ 333 70000
AAXX 23121 14308 12982 03601 10101 21024 39881 40234 58012 60001 333 70000
AAXX 23121 14321 12682 20103 10097 21014 30213 40237 58002 60001 81440 333 70000 92323 92438
AAXX 23121 14370 11558 62402 10023 21015 30152 40265 57007 60001 71022 86600 333 70000
AAXX 23121 14382 12560 82501 10006 21029 30143 40267 58010 60001 886// 333 70000
AAXX 23121 14428 12470 23302 10126 20008 30220 40227 58002 60001 82800 222// 00140 333 70000 92312
AAXX 23121 14441 12984 00205 10115 21011 30182 40206 58002 60001 333 70000 92323
AAXX 23121 14452 12999 03406 10092 21008 39966 40193 56003 60001 333 92322
AAXX 23121 14454 12981 02703 10124 21041 30131 40191 51007 60001 333 70000
AAXX 23121 14462 12980 00603 10100 21043 30195 40201 57010 60001 333 70000
AAXX 23121 28696 42997 82103 11134 21205 30208 40358 57007 80001
AAXX 23121 28586 42997 52104 11103 21166 30172 40328 57009 85030
AAXX 23121 60373 36/// /3103 10157 20115
AAXX 23121 60623 36/// /0000 10165 21037
AAXX 23121 60393 16/// /2401 10170 20112 69921
BBXX ZCAO7 23124 99286 11271 41/98 73520 10119 20054 40197 53005 70122 87/// 22243 2//// 80089
BBXX ELWZ5 23124 99359 11427 41697 33325 10091 20034 40110 51015 7//00 838// 22214 2//05 3//// 4//// 5//// 80064
BBXX SHIP 23124 99204 11330 41/93 93419 10220 20220 40111 51009 7472/ 89/// 22273 00300 20202 302// 40706 80220
BBXX A8CN8 23120 99493 11614 41/97 /0911 10010 20010 40215 54000 70122 8//// 22254 00022 2//// 336// 40403 5//// 80010
BBXX DGZL 23123 99364 70021 41998 03204 10160 20127 40272 50012 70100 80000 22263 00170 20200 325// 40601 80140
AAXX 23121 51087 32980 00000 11215 21245 39411 40510 57010 333 05402
AAXX 23121 51156 32980 00901 11141 21191 38828 40462 57003 333 05302
AAXX 23121 51076 32980 03602 11198 21237 39497 40493 57015 333 05506
AAXX 23121 51243 32965 03601 11195 21222 39864 40491 57006 333 05501
AAXX 23121 51463 31758 50901 11181 21203 39254 40473 57007 71040 85502 333 05454
AAXX 23121 51573 32975 02901 11062 21149 30391 40438 57001 333 05100
AAXX 23121 51709 32968 21601 11065 21124 38844 40426 57005 80002 333 05252
BBXX SHIP 23124 99122 31279 41/97 /2008 10298 20294 40022 51030 70022 8//// 22200 00306 10601 80295
AAXX 23121 51379 32970 01401 11202 21230 40492 57006 333 05501
AAXX 23121 51133 32980 00403 11047 21148 39674 40372 57010 333 06112
AAXX 23121 51431 32970 00401 11126 21159 39490 40361 57011 333 06101
AAXX 23121 52203 32980 00000 11107 21189 39483 40440 57003 333 05200
BBXX SHIP 23124 99122 31279 41/97 /2008 10298 20294 40022 51030 70022 8//// 22200 00306 10601 80295
AAXX 23120 44225 319// 82902 11193 21212 38320 40446 56005 70232 8802/ 333 11140 91108
AAXX 23120 44285 32999 03104 11123 21199 38328 40336 57004 333 11090 91110
AAXX 23124 43400 NIL
AAXX 23124 43404 21470 8//// 10254 20221 30079 40089 72055 8527/ 333 00022 10256 59006 69907 85818 88458
AAXX 23124 43410 NIL
AAXX 23124 43413 21460 83611 10252 20237 30078 40083 70282 8597/ 333 00023 10257 59003 69907 83716 83920
AAXX 23124 43415 21470 80000 10244 20238 39976 40084 75052 8517/ 333 00023 10252 59003 60017 85818 85460
AAXX 23124 43418 21460 80207 10249 20245 3//// 4//// 78086 8572/ 333 10254 5//// 60017 83716 85818 88460
AAXX 23124 43421 21470 80201 10243 20234 39979 40081 70288 8617/ 333 02023 10254 58002 69957 86818 88460
AAXX 23124 43422 21368 836// 10244 20238 39948 40078 76066 8572/ 333 00023 10251 59003 69947 82710 84818 88455
AAXX 23124 43424 21476 80204 10250 20238 30069 49962 65972 7563/ 333 01023 10255 58001 69907 83712 84816 86358
AAXX 23124 43436 21450 83602 10219 20200 30074 40077 78088 8577/ 333 02023 10248 58003 60157 83714 85818 88456
AAXX 23124 43441 21470 80000 10250 20235 39941 40070 70262 8562/ 333 02021 20265 59001 69927 85716 88460
AAXX 23124 43444 21470 80000 10224 20215 39548 40083 70388 8772/ 333 10227 58002 69977 84710 87816 88456
AAXX 23124 43467 22460 80205 10266 20228 30063 40068 8217/ 333 00023 10274 59001 60007 82816 88458
AAXX 23124 43473 21250 80504 10146 20119 38103 48469 70282 8572/ 333 00014 10158 59001 69907 83704 84806 88456
AAXX 23124 43475 21365 80502 10240 20237 30071 40079 76066 8672/ 333 10242 58003 60027 83712 84818 88460
AAXX 23124 43476 21460 83401 10173 20169 38749 48492 70362 8522/ 333 10181 58000 69937 85811 88459
AAXX 23124 43479 21440 80501 10200 20193 39237 78088 8677/ 333 10203 58000 69947 86712 87450
AAXX 23124 43486 21360 83202 10243 20239 39977 40071 70286 8622/ 333 00023 10/// 58007 60007 86808 88456
AAXX 23124 43495 22466 8//// 10268 20236 30055 40071 8211/ 333 10231 58001 60007 82818 88458
AAXX 23124 43497 21470 80205 10250 20238 30052 40069 70262 8417/ 333 10250 58008 69907 84818 88460
AAXX 23121 21432 32998 01501 11307 21336 30366 40387 52001 333 11275
AAXX 23121 21824 32998 02001 21413 30381 40391 52005 333 11348
AAXX 23121 21908 32999 20000 11467 21489 30218 40315 57002 80002 333 11467
AAXX 23121 21921 32999 00802 11487 21522 30351 40406 52003 333 11440
AAXX 23121 21931 32998 02302 11420 21455 30361 40398 52007 333 11405
AAXX 23121 21946 11498 82403 11308 21332 30328 40417 52008 69920 77872 885// 333 11320 88610
AAXX 23121 21982 41996 83110 11169 21195 30215 40243 53027 73832 8805/ 333 91117
AAXX 23121 25062 41596 82707 11230 21249 30332 40336 52006 77073 885// 333 91109
AAXX 23121 25123 11796 81503 11333 21362 30384 40421 52013 69900 77111 8257/ 333 11332 82650
AAXX 23121 25138 32599 70000 11346 21367 30285 40425 52009 85531 333 11361 91101
AAXX 23121 25173 41492 83114 11192 21204 30267 40272 52004 73931 885// 333 91124
AAXX 23121 25248 32998 00000 11430 21455 39909 40441 53014 333 11371 91100
AAXX 23121 25282 41920 83413 11218 21224 30218 40225 52003 73832 8803/ 333 91119
AAXX 23121 25325 NIL
AAXX 23121 25356 42999 23202 11220 21277 30212 40320 52012 80001 333 91004
AAXX 23121 25399 41569 43407 11197 21216 30129 40139 52006 73632 86530 333 91109
AAXX 23121 25428 11959 70000 11408 21444 30051 40443 52009 69900 71022 82031 333 1//// 91100
AAXX 23121 25551 42998 03201 11314 21342 30289 40323 52016 333 91102
AAXX 23121 25563 41970 03408 11273 21298 30192 40278 52013 77670 333 91109
AAXX 23121 25594 41698 83308 11150 21177 30094 40147 53013 73632 8655/ 333 91113
AAXX 23121 25677 41996 23108 11194 21213 30245 40251 52015 73831 80001 333 91114
AAXX 23121 31054 32999 50000 11433 21461 30099 40422 54000 80006 333 11394
AAXX 23121 31123 11997 83001 11310 21340 30015 40382 53013 69912 77172 82037 333 11296
AAXX 23121 48806 31496 81402 10145 20118 39405 40193 52017 71022 888// 333 00016 10190 58016 70000 83894 8869 6
AAXX 23124 43466 22470 83630 10266 20229 30060 40072 8622/ 333 00023 10271 58006 60007 83713 83818 88460
AAXX 23124 78388 111574 11602 10240 20201 30155 40164 60001 70500 81840 333 00990 10305 20234 58008 81824
AAXX 23124 DUPE DUPE
AAXX 23121 10496 01140 82403 10080 20077 30104 40189 58015 60011 72052 876// 333 31/// 55300 20126 30126 69957 87703
AAXX 23124 65528 NIL
AAXX 23124 65536 NIL
AAXX 23124 65545 31940 0//// 10328 20038 39702 40135 70500 333 58001
AAXX 23124 65548 NIL
AAXX 23124 65555 NIL
AAXX 23124 65557 31458 5//// 10277 20226 39885 40125 70144 85200 333 59003 85813 94919
AAXX 23124 65560 31458 4//// 10280 20227 39810 40118 70344 84200 333 59003 84813 94919
AAXX 23124 65562 NIL
AAXX 23124 65563 31458 12004 10285 20227 39882 40121 70141 81200 333 58001 81813 94907
AAXX 23124 65578 32457 61806 10305 20264 30108 40125 86800 333 58000 82813 86620 94908
AAXX 23124 65585 NIL
AAXX 23124 65592 32458 5//// 10295 20257 30092 40115 85200 333 58000 85815 94918
AAXX 23124 65594 31458 41606 10298 20256 30088 40123 70244 84200 333 59001 84813 94917
AAXX 23124 65599 31458 3//// 10300 20258 30036 40110 70144 83200 333 59003 83815 94917
AAXX 23124 61600 NIL
AAXX 23124 61612 NIL
AAXX 23124 61627 NIL
AAXX 23124 61630 NIL
AAXX 23124 61641 32956 40812 10267 20102 30128 40161 80002 333 0//00 58012 84073
AAXX 23124 61666 NIL
AAXX 23124 61679 NIL
AAXX 23124 61687 NIL
AAXX 23124 61695 NIL
AAXX 23124 61697 NIL
AAXX 23124 61698 NIL
AAXX 23124 61699 NIL
AAXX 23124 78388 111574 11602 10240 20201 30155 40164 60001 70500 81840 333 00990 10305 20234 58008 81824
AAXX 23124 DUPE DUPE
AAXX 23124 40250 32960 22504 10170 20003 39345 40133 57022 80002 333 82070
AAXX 23124 40260 32660 21706 10152 20039 39361 40142 57021 82200 333 82830
AAXX 23124 40265 31650 11306 10154 20003 39363 40159 57015 70522 81100 333 81835
AAXX 23124 40270 31956 02604 10150 21006 39246 40139 57017 70500
AAXX 23124 40310 32960 32308 10179 21031 38916 48469 57026 80002 333 83070
AAXX 23121 08511 32365 70804 10175 20158 30246 40354 52013 86802 333 83708 85820 91007 91109 555 59944 60005
AAXX 23124 65501 32960 73608 10292 21069 39832 40147 80002 333 0//00 58000 87076
AAXX 23124 65502 32960 60410 10294 21099 39763 40140 80002 333 0//00 58001 86076
AAXX 23124 65503 31958 70410 10302 21040 39794 40138 70622 80002 333 0//00 58004 87076
AAXX 23124 65505 32965 50412 10310 21036 39798 40135 80002 333 0//00 59002 85076
AAXX 23124 65507 32960 70804 10305 21025 39779 40126 80002 333 0//00 59003 87076
AAXX 23124 65510 32960 50612 10297 21006 39618 40128 80002 333 0//00 59002 85076
AAXX 23124 65516 32965 50806 10308 21058 39824 40129 80002 333 0//00 58002 85076
AAXX 23124 65518 32965 70410 10314 21044 39757 40117 80002 333 0//00 58000 87076
AAXX 23124 65522 32960 70410 10318 21047 39793 40120 80002 333 0//00 59006 87076
BBXX 46207 23121 99509 71299 46/// /2508 10082 40213 52051 22200 00082 11615 70074 333 91212
BBXX A8JX8 23121 99455 71457 41598 52414 10100 20061 40120 52015 7//22 8344/ 22225 20510 323// 40510 5//// 80080
BBXX KGTX 23124 99554 71435 41/98 12324 10039 21230 49990 52007 7//00 81/// 22234 00059 2//// 3//// 4//// 5//// 6//// 81022 ICE /////
BBXX KRGB 23124 99335 71351 41698 41317 10139 20120 40288 57010 70300 84400 22254 00156 21004 330// 41204 5//// 6//// 80128 ICE /////
BBXX SHIP 23124 99341 71327 41798 31112 10150 20120 40310 54000 70200 83466 22234 00190 20102 310// 40102 5//// 6//// 85130 ICE /////
BBXX SHIP 23124 99318 71284 41597 50914 10140 20123 40240 51/// 7//11 8526/ 22263 00160 20402 33536 40604 50905 6//// 80130 ICE /////
BBXX SJCD 23121 99534 71493 43/94 90910 10001 49917 58064 22263 00041
BBXX WABS 23124 99483 71239 41598 80914 10061 20040 40300 54000 7//22 8872/ 22263 0//// 2//// 3//// 4//// 5//// 6//// 80050 ICE /////
BBXX WSRH 23124 99316 71394 41498 20212 10178 20140 40265 50000 7//00 824// 22254 00167 20301 303// 42003 5//// 6//// 80156 ICE /////
BBXX A8CN8 23120 99493 11614 41/97 /0911 10010 20010 40215 54000 70122 8//// 22254 00022 2//// 336// 40403 5//// 80010
BBXX DGDD 23121 99344 11501 41/97 83611 10140 20085 40070 52020 70222 88/// 22224 00200 2//// 3//// 4//// 5//// 80110
BBXX DPCK 23123 99521 11681 41297 42705 11010 21023 40210 52010 70171 831// 22215 00030 20101 3//// 4//// 5//// 81015
BBXX OYCY2 23124 99544 11760 43/96 /0219 10000 20000 40160 5//// 7//// 8//// 22263 00060 2//// 3//// 4//// 5//// 6//// 80000 ICE /////
BBXX 46147 23121 99518 71312 46/// /2509 10072 40180 52059 22200 00079 11516 70082 333 91212
AAXX 23124 93800 16/// /1503 10147 20136 40248 57002 60001
AAXX 23124 93805 16/// /3314 10157 20136 40246 52001 60001
AAXX 23124 93994 16/// /1107 10194 20156 40120 57005 60021
BBXX 46147 23121 99518 71312 46/// /2509 10072 40180 52059 22200 00079 11516 70082 333 91212
AAXX 23124 41263 36/// /2306 10236 21020 39479 40170 333 0E011 59009
AAXX 23121 25703 11698 81801 11372 21407 30144 40456 52011 69950 77172 83537 333 11368
AAXX 23121 25745 32698 30000 11301 21325 30267 40325 52014 83500 333 11267
AAXX 23121 25913 32699 60805 11190 21258 30150 40310 52007 82531 333 11181
AAXX 23121 25954 32998 83601 11184 21234 30151 40273 52011 8803/ 333 11165
AAXX 23121 25956 32699 50609 11159 21201 30244 40250 52012 85500 333 11142 91012 91113
AAXX 23121 31088 32999 53605 11251 21290 30309 40317 52003 82041 333 11232
AAXX 23121 31873 32997 02802 11260 21291 30067 40215 55000 333 11184
AAXX 23121 31909 11498 82812 11159 21201 39988 40070 58008 60090 73673 8872/ 333 11127 91018 91121
AAXX 23121 31960 32998 03505 11168 21248 39952 40205 58003 333 11144
AAXX 23121 31961 32998 00601 11235 21268 30161 40212 53001 333 11134
AAXX 23121 32053 11597 80507 11044 21078 30123 40173 53001 69930 73632 86502 333 11044 86631 91011 91112
AAXX 23121 32061 31550 80405 11036 21084 30085 40124 58006 78583 8594/ 333 11034 91008 91109
AAXX 23121 32098 11395 80105 11027 21030 30077 40087 57013 60010 78583 889// 333 11022 88908 91011 91112
AAXX 23121 32150 11493 80909 11007 21020 39919 49948 58006 60250 78683 889// 333 11003 91014 91125
AAXX 23121 32165 12598 22902 11001 21034 39883 49943 53002 60060 82100 333 10027 91004 91104
AAXX 23121 32215 31596 80908 11026 21052 30172 40202 56002 78582 889// 333 11033 91011 91112
AAXX 23121 32252 NIL
AAXX 23121 32389 31998 30000 11345 21362 30255 40298 52003 74000 83030 333 11310
AAXX 23121 32477 32998 00502 11237 21263 30197 40232 53008 333 11103
AAXX 23121 32583 32598 23204 11125 21168 30226 40258 53011 82530 333 11126
AAXX 23121 32618 11598 30106 11042 21080 30203 40225 52008 69930 70281 83400 333 11038 91112
AAXX 23121 31909 11498 82812 11159 21201 39988 40070 58008 60090 73673 8872/ 333 11127 91018 91121
AAXX 23121 31960 32998 03505 11168 21248 39952 40205 58003 333 11144
AAXX 23121 31961 32998 00601 11235 21268 30161 40212 53001 333 11134
AAXX 23124 45011 17956 /0110 10136 20078 40215 52016 60002 71011 333 10159 58023
AAXX 23121 31873 32997 02802 11260 21291 30067 40215 55000 333 11184
AAXX 23120 44219 329// 00000 11228 21253 38710 40507 57005 333 11145
AAXX 23124 71151 17/// /1307 11068 21076 39601 40113 56021 60021 7//4/ 333 11074 21083 4/003 55/// 20000 70016 555 10020
AAXX 23124 71189 46/// /2812 11100 21134 6///1 333 10002 21100 7////
AAXX 23124 71276 16/// ///14 11056 21101 60001 333 10007 21077 70000
AAXX 23124 71746 16/// /3314 11025 21055 30012 40237 53023 60001 333 10055 21025 70030
AAXX 23124 71343 16/// /2415 11013 21099 60001 333 10026 21032 70000
AAXX 23124 71345 16/// /2011 11010 21123 60001 333 10043 21042 70000
AAXX 23124 71217 16/// /2211 10007 21109 60001 333 10064 21096 70000
AAXX 23124 71224 16/// /2522 11006 21137 60001 333 11003 21041 70000
AAXX 23124 71225 16/// /1912 11023 21093 60001 333 10027 21057 70000
AAXX 23124 71979 16/// ///// 11005 21112 38440 40092 56001 60001 333 10024 21100 4/045 70000
AAXX 23124 71063 17/// /3210 11040 21056 30071 40170 52025 69981 7//4/ 333 10042 21040 4/001 70028
AAXX 23124 71770 16/// /0602 11063 21081 39548 40348 55003 60001 333 10004 21067 70000
AAXX 23124 71785 17/// /0303 10032 20010 30295 40311 51026 60011 7//4/ 333 10066 20000 70010
AAXX 23124 71667 16/// /0709 11084 21105 39966 40221 56028 60001 333 11046 21179 4/006 70000
AAXX 23124 71375 46/// /3609 11145 6///1 333 10012 21147 7////
AAXX 23124 71537 16/// /2204 11113 21129 60001 333 10015 21117 7////
AAXX 23124 89002 43/// /0907 11009 21034 39824 49878 54000 7//// 8//// 91147 333 11008 21036 929// 96111
AAXX 23124 64700 32960 20208 10311 21039 39779 40116 80002 333 // 59001 82075
AAXX 23124 64701 NIL
AAXX 23124 64702 NIL
AAXX 23124 64705 32965 23604 10365 20063 3//// 4//// 80002 91200 333 0//00 5//// 82075
AAXX 23124 64706 32965 33212 10340 20044 39625 40092 80002 333 0//00 58000 83075
AAXX 23124 64708 32962 00000 10335 20034 3//// 4//// 91200 333 0//00 5////
AAXX 23124 64709 32962 20406 10312 20020 3//// 4//// 80002 91150 333 0//00 5//// 82075
AAXX 23124 64710 NIL
AAXX 23124 64713 NIL
AAXX 23124 64722 32962 20404 10360 20018 3//// 4//// 80002 91150 333 0//00 5//// 82075
AAXX 23124 64750 32965 60000 10364 20062 39679 40082 80002 91155 333 0//00 59002 86075 64751 32960 00000 10334 21002 3//// 4//// 91149 333 0//00 5////
AAXX 23124 64753 NIL
AAXX 23124 64754 32962 51404 10368 20077 3//// 4//// 80002 91150 333 0//00 5//// 85075
AAXX 23124 64756 32962 30000 10364 21010 39485 4//// 80002 91150 333 0//00 59005 83075
AAXX 23124 64757 32965 00000 10300 20035 3//// 4//// 91147 333 0//00 5////
AAXX 23124 64758 NIL
AAXX 23124 64761 NIL
AAXX 23124 71979 16/// ///// 11005 21112 38440 40092 56001 60001 333 10024 21100 4/045 70000
AAXX 23124 71375 46/// /3609 11145 6///1 333 10012 21147 7////
AAXX 23124 71063 17/// /3210 11040 21056 30071 40170 52025 69981 7//4/ 333 10042 21040 4/001 70028
AAXX 23124 71217 16/// /2211 10007 21109 60001 333 10064 21096 70000
AAXX 23124 71224 16/// /2522 11006 21137 60001 333 11003 21041 70000
AAXX 23124 71225 16/// /1912 11023 21093 60001 333 10027 21057 70000
AAXX 23124 71151 17/// /1307 11068 21076 39601 40113 56021 60021 7//4/ 333 11074 21083 4/003 55/// 20000 70016 555 10020
AAXX 23124 71189 46/// /2812 11100 21134 6///1 333 10002 21100 7////
AAXX 23124 71343 16/// /2415 11013 21099 60001 333 10026 21032 70000
AAXX 23124 71345 16/// /2011 11010 21123 60001 333 10043 21042 70000
AAXX 23124 71770 16/// /0602 11063 21081 39548 40348 55003 60001 333 10004 21067 70000
AAXX 23124 71785 17/// /0303 10032 20010 30295 40311 51026 60011 7//4/ 333 10066 20000 70010
AAXX 23124 71667 16/// /0709 11084 21105 39966 40221 56028 60001 333 11046 21179 4/006 70000
AAXX 23124 71537 16/// /2204 11113 21129 60001 333 10015 21117 7////
AAXX 23121 56193 NIL
AAXX 23121 56196 32968 02502 10063 21039 40336 52025 333 00600
AAXX 23121 56287 11968 82504 10050 20008 40364 52022 69901 70060 8807/ 333 00800
AAXX 23121 56684 11560 80903 11008 21027 37944 52024 69901 76060 885// 333 00654
AAXX 23121 56751 32980 02502 10110 21002 37993 52019 333 00053
AAXX 23121 56786 11558 83404 10011 21005 38153 52025 69911 76060 885// 333 00654
AAXX 23121 56977 32980 02701 10125 20119 40172 52017 333 00000
AAXX 23121 57259 32975 00201 10027 21018 40337 52022
AAXX 23121 57279 32961 00000 10031 21030 40316 52016
AAXX 23121 57348 32860 73402 10074 20033 40316 52026 875//
AAXX 23121 57399 32960 00701 10032 21065 40316 52025
AAXX 23121 57554 32962 82502 10061 21004 40319 52020 8807/
AAXX 23121 57793 31956 02001 10058 20006 40301 52019 71000
AAXX 23121 58345 32965 02501 10022 21064 40292 52008
AAXX 23121 58506 32963 03403 11037 21078 40325 52011
AAXX 23121 58813 32963 03601 10057 21019 40288 52019
AAXX 23121 58834 32963 23201 10072 20034 40267 52018 82040
AAXX 23121 58926 31659 72902 10088 20032 40261 52021 71000 8254/
AAXX 23121 58944 32562 80204 10115 20038 40248 52017 885//
AAXX 23121 59096 32963 03603 10101 21043 40261 52022
AAXX 23121 59102 31659 83602 10085 21013 40262 52014 70500 885//
AAXX 23121 59278 32760 20205 10142 20039 40235 52021 82500
AAXX 23121 59456 32970 00702 10142 20045 40223 52024
AAXX 23121 59493 31950 00203 10127 20051 40222 52021 70500
AAXX 23121 59658 31956 03602 10137 20058 40213 52024 70500
AAXX 23121 59673 32963 03611 10149 20062 40211 52017
AAXX 23121 59845 32560 80903 10170 20137 40200 52019 888//
AAXX 23124 71276 16/// ///14 11056 21101 60001 333 10007 21077 70000
AAXX 23124 71746 16/// /3314 11025 21055 30012 40237 53023 60001 333 10055 21025 70030
AAXX 23121 50434 32980 00000 11379 21419 39320 40370 52009
AAXX 23121 50527 32970 00701 11351 21386 39442 40365 52001
AAXX 23121 50603 32980 32701 11282 21314 39578 40345 52005 80002
AAXX 23121 50632 32980 03205 11272 21339 39305 40312 52005
AAXX 23121 50727 32980 00000 11323 21362 39012 40351 52003 333 91105 91502
AAXX 23121 50915 32980 30402 11204 21260 39232 40332 52008 80002
AAXX 23121 51716 32965 72201 11040 21096 39037 40420 57004 86032 333 05301
AAXX 23121 51765 32980 63401 11076 21136 39364 40458 57005 80002 333 05301
AAXX 23121 51777 32970 00201 11070 21143 39318 40446 57005 333 05300
AAXX 23121 51811 32962 00701 11063 21114 38912 40440 57005 333 05152
AAXX 23121 51828 32965 03201 11059 21124 38753 40430 57005 333 05251
AAXX 23121 52267 32980 02701 11074 21213 39212 40399 54000 333 00001
AAXX 23121 52323 32980 02503 11121 21202 38310 57002 333 05151
AAXX 23121 52495 32980 02706 11080 21215 38772 40394 57001 333 00003
AAXX 23121 53149 32980 02704 11127 21192 38833 40368 52003 333 00152
AAXX 23121 53192 32980 02903 11210 21233 38913 40377 52001
AAXX 23121 53231 32970 02004 11141 21206 38551 57001 333 00000
AAXX 23121 53336 32980 02904 11107 21191 38777 40366 54000 333 00101
AAXX 23121 53391 32980 02905 11159 21195 38521 40354 52004 333 05151
AAXX 23121 53529 32970 02706 11079 21210 38696 40376 52002 333 00002
AAXX 23121 53543 32980 12701 11095 21195 38591 40367 52003 80002
AAXX 23121 53723 32970 02703 11084 21170 38747 40403 52006 333 00102
AAXX 23121 54012 32980 02503 11199 21230 39035 40328 52008
AAXX 23121 54026 32980 03204 11132 21258 39927 40279 52019
AAXX 23121 54027 32980 03202 11117 21220 39651 40292 52012
AAXX 23121 54208 32980 02704 11159 21190 38769 40329 52001
AAXX 23121 54776 32980 31802 10005 21101 30180 40239 57001 80002
AAXX 23121 56004 32980 03205 11071 21287 35789 52007 333 00102 91120 91525
AAXX 23121 56033 32980 10402 11140 21278 36002 54000 80002 333 00354
AAXX 23121 56046 32980 01602 11110 21235 36245 52010 333 00353
BBXX 46183 23121 99536 71311 46/// /2608 10071 40143 52081 22200 00080 11005 70027 333 91210
BBXX 46183 23121 99536 71311 46/// /2608 10071 40143 52081 22200 00080 11005 70027 333 91210
AAXX 23121 10506 01156 72404 10072 20059 39635 40220 58019 69911 72162 872// 333 31/// 55301 20473 30448 69907 87803 96010
AAXX 23121 60379 36/// /2702 10169 20144
AAXX 23121 60380 36/// /3103 10165 20110
AAXX 23121 60394 16/// /2101 10165 20118 69921
AAXX 23121 60374 36/// /2404 10159 20140
AAXX 23121 60613 36/// /0000 10164 20041
AAXX 23121 80402 NIL
AAXX 23121 80412 NIL
AAXX 23121 80416 NIL
AAXX 23121 80420 12470 31104 10242 20205 30110 40116 60034 83800 333 20240 31/// 50144 55001 2//// 56900 58004 83813 555 10129
AAXX 23121 80425 32570 11402 10246 20238 30077 40108 81100 333 20242 30/// 50234 55082 20821 56900 59018 81820 555 10109
AAXX 23121 80426 32570 62301 10208 20190 39479 40124 8352/ 333 20206 30/// 55025 20796 5699/ 58000 83623 83460 555 10154
AAXX 23121 80427 12468 80202 10244 20230 39873 40127 60014 8453/ 333 20234 30/// 5///4 55060 21858 5699/ 58009 84613 84356 555 10142
AAXX 23121 80431 12570 2//// 10240 20193 39635 40114 60024 82800 333 20198 30/// 50194 55045 20492 56900 58006 82820 555 10137
AAXX 23121 80434 NIL
AAXX 23121 80437 11460 80000 10242 20238 30005 40091 60204 70282 885// 333 20242 32/// 5//// 55041 2//// 569// 59005 88613
AAXX 23121 80440 32568 80701 10238 20233 39909 40119 8352/ 333 20232 30/// 50454 55065 21556 5699/ 58017 83620 85458 555 10139
AAXX 23121 80442 12470 6//// 10248 22/// 33001 44/// 60064 8153/ 333 30/// 55086 5699/ 58005 81613 85360 555 10123
AAXX 23121 80472 12465 50202 10230 20215 39642 40123 60014 8222/ 333 20227 30/// 50274 55043 21139 5699/ 58007 82816 83460 555 10144
AAXX 23121 80475 12460 70000 10214 20214 39766 40135 60124 875// 333 20214 31/// 5//// 55059 2//// 569// 59005 87617 555 10148
AAXX 23121 80476 32370 1//// 10256 20239 30094 40124 81500 333 20256 30/// 50470 55063 21288 56900 58000 81610
AAXX 23121 80478 NIL
AAXX 23121 80479 NIL
BBXX 46131 23121 99499 71250 46/// /1609 1//// 40280 52026 22200 00073 10502 70009 333 91210
BBXX 46131 23121 99499 71250 46/// /1609 1//// 40280 52026 22200 00073 10502 70009 333 91210
AAXX 23121 48808 32498 83402 10134 20061 39949 40241 52018 888// 333 00013 10155 58044 70000 83894 88696
AAXX 23121 48830 31796 83603 10122 20048 39917 40234 52017 71022 885// 333 00013 10138 58040 70000 88697
AAXX 23121 48826 31595 83603 10156 20107 30067 40206 53019 71022 888// 333 00017 10193 58026 70000 82895 8869 7
AAXX 23121 48839 32697 80211 10165 20113 30132 40199 53018 885// 222// 00187 2//03 333 00/// 10178 58023 7000 0 88696 555 20159
AAXX 23124 60677 36/// /0000 10145 20000
AAXX 23124 60691 36/// /0515 10244 21078
AAXX 23124 60679 36/// /3109 10091 21101
AAXX 23124 60650 36/// /0000 10180 20006
AAXX 23124 60662 36/// /0000 10120 21017
AAXX 23121 10544 01/01 92409 10026 20026 39125 48496 58018 60021 75154 333 44/// 55300 60017 96045 96253 96453
AAXX 23124 60661 36/// /0408 10167 21026
AAXX 23124 60672 36/// /0804 10148 21061
AAXX 23124 60676 36/// /0311 10153 21034
AAXX 23124 60633 36/// /0115 10233 21071
AAXX 23121 80400 NIL
AAXX 23121 80403 11470 40000 10265 20240 30107 40126 60154 70165 8230/ 333 20261 31/// 50114 55007 2//// 56990 59006 82813 555 10129
AAXX 23121 80405 NIL
AAXX 23121 80407 32470 3//// 10249 20218 30045 4//// 60034 83400 333 20234 31/// 50594 55066 2//// 56900 5//// 83613 555 10120
AAXX 23121 80410 12470 51103 10219 20206 39454 40136 60024 855// 333 20210 30/// 55034 569// 58008 85616 555 10167
AAXX 23121 80413 12470 53601 10214 20195 39641 40130 60014 8353/ 333 20204 31/// 50104 55021 21176 5699/ 59002 83613 555 10160
AAXX 23121 80415 NIL
AAXX 23121 80419 NIL
AAXX 23121 80421 NIL
AAXX 23121 80423 NIL
AAXX 23121 80428 12465 70000 10241 20233 39919 40104 60104 8357/ 333 20234 31/// 50204 55039 21410 5699/ 58009 83617 84357 555 10115
AAXX 23121 80432 NIL
AAXX 23121 80435 11470 60703 10240 20239 30039 40114 60154 75025 868// 333 20235 31/// 50044 55003 2//// 569// 58010 86613 555 10113
AAXX 23121 80438 11440 60000 10176 20174 38521 48518 60044 71052 867// 333 20156 30/// 50114 55680 21592 569// 58000 86710 555 10204
AAXX 23121 80444 12370 5//// 10250 2//// 30064 4//// 60014 857// 333 20227 30/// 55037 562// 58002 85710 555 10112
AAXX 23121 80447 11550 60000 10220 20220 39666 40086 60054 70262 865// 333 20220 31/// 50224 55088 21577 569// 58000 86620 10138
AAXX 23121 80448 32468 80702 10239 20209 3//// 4//// 8453/ 333 20228 30/// 5//// 55080 21520 5699/ 84617 84357
AAXX 23121 80450 32475 70901 10246 20229 30075 40130 82508 333 20242 30/// 55075 21501 56909 58012 82616 85280 555 10127
AAXX 23121 80453 NIL
AAXX 23121 80457 12470 5//// 10266 20245 30027 40112 60034 83520 333 20258 31/// 50744 55085 56990 58007 83613 555 10112
AAXX 23121 80462 NIL
AAXX 23121 78310 12/68 10703 10212 20204 30172 40182 53007 60001 81200 333 10279 20207 30/// 56900 58016 818// 92023
AAXX 23121 78315 11470 70401 10173 20169 30118 40184 51005 60001 71011 878// 333 10284 20170 30/// 50770 56999 58012 85819 86621
AAXX 23121 78318 11557 11102 10184 20175 30181 40185 52008 60001 71000 81800 333 10280 20178 30/// 56900 58011 81820
AAXX 23121 78322 11958 00301 10194 20187 30173 40191 53007 60001 71000 333 10283 20193 30/// 58009
AAXX 23121 78324 11/10 20301 10236 20225 30171 40182 51011 60001 70500 82300 333 10271 20215 30/// 56900 57932 58018 828// 819//
AAXX 23121 78325 11964 00901 10208 20201 30132 40190 53010 60001 70400 333 10317 20203 30/// 55100 56/// 58009
AAXX 23121 78328 11/61 11504 10228 20211 30186 40/// 53006 60001 70511 81100 333 10270 20225 30/// 50510 56900 58007 818// 92427
AAXX 23121 78333 12/10 10401 10185 20176 30178 40185 52012 60001 81200 333 10278 20178 30/// 56900 58013 818//
AAXX 23121 78344 11963 00000 10197 20188 30134 40183 53015 60001 70500 333 10309 20191 30/// 50570 56000 58012
AAXX 23121 78345 11550 10402 10200 20195 30182 40186 53011 60001 71000 81500 333 10294 20178 30/// 56900 58006 81623
AAXX 23121 78348 11540 40000 10211 20209 30134 40187 53010 60001 70500 84800 333 10263 20211 30/// 56200 57854 58005 70002 83820 555 10902
AAXX 23121 78349 11508 13301 10184 20182 30085 40195 53013 60001 74240 81200 333 10298 20184 30/// 50524 56900 58008 81820
AAXX 23121 78351 12550 10103 10191 20187 30154 40156 53005 60001 81500 333 10301 20181 30/// 56900 59005 81626
AAXX 23121 78353 12570 61301 10225 20217 30166 40188 53007 60001 85802 333 10274 20215 30/// 50104 56909 58006 82820 83626
AAXX 23121 78355 11530 10601 10200 20197 30047 40184 53008 60001 74240 81501 333 10288 20200 30/// 55079 56909 58007 81820
AAXX 23121 78358 11530 31101 10215 20208 30164 40179 52010 60001 71011 83800 333 10278 20200 31/// 50094 56900 58007 82823
AAXX 23121 78360 12/70 10302 10197 20192 30166 40178 53016 60001 81200 333 10300 20197 30/// 56900 58012 818// 92022
AAXX 23121 78363 11957 00000 10153 20147 30054 40171 53017 60001 71000 333 10298 20153 30/// 50480 56/// 58009
AAXX 23121 78365 11562 50910 10262 20211 30184 40189 53017 60001 70511 85800 333 10271 20244 31/// 56200 57863 58006 70012 84820 92045 555 10903
AAXX 23121 78369 11568 30908 10253 20208 30169 40178 52012 60001 70500 83200 333 10275 20250 30/// 55085 56900 57866 58012 83820 92044
BBXX 46204 23121 99514 71288 46/// /1608 10080 40218 52049 22200 00083 11412 70059 333 91210
AAXX 23121 80400 NIL
AAXX 23121 80403 11470 40000 10265 20240 30107 40126 60154 70165 8230/ 333 20261 31/// 50114 55007 2//// 56990 59006 82813 555 10129
AAXX 23121 80405 NIL
AAXX 23121 80407 32470 3//// 10249 20218 30045 4//// 60034 83400 333 20234 31/// 50594 55066 2//// 56900 5//// 83613 555 10120
AAXX 23121 80410 12470 51103 10219 20206 39454 40136 60024 855// 333 20210 30/// 55034 569// 58008 85616 555 10167
AAXX 23121 80413 12470 53601 10214 20195 39641 40130 60014 8353/ 333 20204 31/// 50104 55021 21176 5699/ 59002 83613 555 10160
AAXX 23121 80415 NIL
AAXX 23121 80419 NIL
AAXX 23121 80421 NIL
AAXX 23121 80423 NIL
AAXX 23121 80428 12465 70000 10241 20233 39919 40104 60104 8357/ 333 20234 31/// 50204 55039 21410 5699/ 58009 83617 84357 555 10115
AAXX 23121 80432 NIL
AAXX 23121 80435 11470 60703 10240 20239 30039 40114 60154 75025 868// 333 20235 31/// 50044 55003 2//// 569// 58010 86613 555 10113
AAXX 23121 80438 11440 60000 10176 20174 38521 48518 60044 71052 867// 333 20156 30/// 50114 55680 21592 569// 58000 86710 555 10204
AAXX 23121 80444 12370 5//// 10250 2//// 30064 4//// 60014 857// 333 20227 30/// 55037 562// 58002 85710 555 10112
AAXX 23121 80447 11550 60000 10220 20220 39666 40086 60054 70262 865// 333 20220 31/// 50224 55088 21577 569// 58000 86620 10138
AAXX 23121 80448 32468 80702 10239 20209 3//// 4//// 8453/ 333 20228 30/// 5//// 55080 21520 5699/ 84617 84357
AAXX 23121 80450 32475 70901 10246 20229 30075 40130 82508 333 20242 30/// 55075 21501 56909 58012 82616 85280 555 10127
AAXX 23121 80453 NIL
AAXX 23121 80457 12470 5//// 10266 20245 30027 40112 60034 83520 333 20258 31/// 50744 55085 56990 58007 83613 555 10112
AAXX 23121 80462 NIL
AAXX 23124 41907 31910 20000 10138 20120 30100 40116 70544 80001 333 10172 56009 59008 70000 82080
BBXX 46204 23121 99514 71288 46/// /1608 10080 40218 52049 22200 00083 11412 70059 333 91210
AAXX 23121 21824 32998 02001 11399 21413 30381 40391 52005 333 11348
BBXX ZDLS1 23123 99693 50076 41297 82003 11011 21028 49868 52002 70222 886// 22252 05019 20101 30000 82016 ICE 67192
BBXX VNSZ 23124 99383 31448 46/// /2110 10187 20159 30100 40126 52016 22264 04196 85169
BBXX C6FS9 23124 99343 31515 46/// /0408 10215 20196 30116 40152 52012 22254 04223 85202
BBXX 9HA2479 23124 99188 31686 46/// /1028 10265 20226 30048 40077 52010 22243 04280 85237
BBXX VROB 23124 99386 31449 46/// /1506 10180 20161 30098 40124 52013 22233 04176 85168
BBXX VNAH 23124 99357 31204 46/// /1912 10180 20104 30146 40170 52010 22223 04201 85136
AAXX 23124 91650 NIL
AAXX 23124 91652 NIL
AAXX 23124 91656 NIL
AAXX 23124 91659 11598 50706 10243 2023/ 40070 58004 60001 70222 83871 333 10298 56999 81828 83648
AAXX 23124 91660 NIL
AAXX 23124 91669 36/// /1804 10240 20240 40073 57003 91215 333 10294
AAXX 23124 91670 36/// /0300 10256 20227 40067
AAXX 23124 91676 14/// /0502 10254 20229 39998 40058 55009 60001 333 10315
AAXX 23124 91680 11698 30000 10240 20234 40070 58003 69901 70181 82801 333 10285 569/9 82830 83080
AAXX 23124 91682 NIL
AAXX 23124 91683 11498 70000 10233 20232 40071 58002 69901 70382 8587/ 333 10295 5699/ 83818 85645 86461
AAXX 23124 91691 14/// /0301 10236 20233 30072 40075 50003 60061 333 10317
AAXX 23124 91693 NIL
AAXX 23124 91697 14/// /0901 10234 20227 30067 40072 55001 60011 333 10297
AAXX 23124 91699 14/// /2102 10241 20230 30049 40081 55000 60001 333 10308
AAXX 23121 38734 42999 00704 11082 21171 37460 47050 57003
BBXX FHZI 23124 99666 31400 46/// /0911 11021 21022 39924 49935 54000 22200 05018 86021
AAXX 23124 83064 22598 82303 10265 20223 39832 40099 8551/ 333 2//// 58003 69964
AAXX 23124 83235 22698 60000 10250 20194 39442 40107 86030 333 20202 58003 60224
AAXX 23124 83332 22697 71406 10233 20180 39212 40113 83470 333 20190 59003 60064
AAXX 23124 83423 22698 50501 10246 20185 39299 40109 82431 333 20182 59032 60054
AAXX 23124 83470 32698 53606 10242 20203 39254 40099 85100 333 20195 58004
AAXX 23121 21802 32999 01502 11460 21478 30290 40319 57002 333 11453
AAXX 23121 24125 32998 20000 11465 21483 39974 40309 58001 80001 333 11455
AAXX 23121 24136 32999 00000 11433 21468 30223 40342 54000 333 11422
AAXX 23121 24143 32999 00000 11472 21501 30341 40401 52004 333 11469
AAXX 23121 24266 31997 02401 11517 21544 30260 40478 52007 70400 333 11516
AAXX 23121 24329 32999 00000 11418 21443 39992 40346 52002 333 11415
AAXX 23121 24343 41995 20000 11471 21494 30261 40405 52002 71040 80002 333 11426
AAXX 23121 24382 11992 20000 11482 21505 30172 40478 52003 69900 77674 80001 333 11474 96044
AAXX 23121 24639 31995 00000 11485 21505 30192 40379 52001 71000 333 11473
AAXX 23121 24641 32999 00000 11483 21517 30216 40390 58001 333 11474
AAXX 23121 24652 31995 00000 11417 21443 30263 40408 54000 71000 333 11417
AAXX 23121 24656 11998 80000 11416 21449 30302 40423 51004 69902 77171 80007 333 11416
AAXX 23121 24671 32999 00000 11476 21494 39847 40461 52006 333 11464
AAXX 23121 24688 31999 00000 11511 21535 39444 40573 52006 70400 333 11501
AAXX 23121 24724 11996 80601 11392 21417 39719 40333 53001 69932 77172 8802/ 333 11353
AAXX 23121 24738 31996 00000 11465 21489 30145 40357 53001 71000 333 11447
AAXX 23121 24768 32997 20000 11409 21444 30139 40415 58002 80001 333 11409
AAXX 23121 24923 12999 10201 11427 21461 39977 40340 57006 69922 80001 333 11409
AAXX 23121 24944 31996 00000 11465 21489 30029 40383 58006 71000 333 11451
AAXX 23121 24951 32998 00000 11440 21469 30197 40397 58004 333 11419
AAXX 23121 24661 31998 80000 11409 21444 39998 40412 51007 74022 80007 333 11409
AAXX 23121 24959 11993 80000 11379 21409 30248 40399 58004 69922 77174 80005 333 11379 96048
AAXX 23121 24962 32998 50702 11437 21461 30186 40411 58008 80001 333 11408
AAXX 23121 24966 32999 30000 11428 21449 30151 40411 51001 80001 333 11423
AAXX 23121 24967 32999 80000 11412 21444 30159 40419 52003 80007 333 11355
AAXX 23121 25206 11999 72001 11342 21371 30402 40433 52010 69930 70272 80001 333 11312
AAXX 23121 25400 11998 81801 11381 21403 30375 40441 52010 69900 77172 83037 333 11371
AAXX 23121 30054 11998 30000 11388 21417 30041 40322 57006 69922 70271 80001 333 11346
AAXX 23121 30089 32999 60000 11466 21494 30134 40406 58001 80001 333 11440
AAXX 23121 30393 11998 80000 11354 21377 39174 40366 54000 69902 77172 85037 333 11354 47///
AAXX 23121 30493 11998 81102 11310 21347 39163 40333 52002 69902 77172 8801/ 333 21308
AAXX 23121 31004 32998 30000 11360 21384 39415 40375 57003 80001 333 11344
AAXX 23121 31137 11997 00000 11352 21374 39182 40359 52003 69972 77172 8802/ 333 11310
AAXX 23124 42314 31995 20000 10176 20118 40129 70500 82030 333 10251 59014 83360
AAXX 23124 42398 31994 29901 10130 20127 40118 71000 82030 333 10188 59018
AAXX 23124 42706 31495 63603 10198 20062 40109 70522 84530 333 10233 56790 59009 84618 86360
AAXX 23124 42886 31996 70000 10230 20078 40115 70521 83031 333 10287 59013 83360 84075
AAXX 23124 42895 32996 33602 10210 20090 40109 80001 333 10275 59014 83075
AAXX 23124 42971 31995 63404 10238 20105 40111 70522 83031 333 10286 59011 83360 85075
AAXX 23124 43333 31495 80705 10274 20251 40070 70522 84407 333 10305 56209 59015 82618 83820 88270
AAXX 23124 42309 NIL
AAXX 23124 42410 NIL
AAXX 23124 42415 NIL
AAXX 23124 42492 NIL
AAXX 23124 42587 NIL
AAXX 23124 42591 NIL
AAXX 23124 42623 NIL
AAXX 23124 42701 NIL
AAXX 23124 42724 NIL
AAXX 23124 42798 NIL
AAXX 23124 42809 NIL
AAXX 23124 42977 NIL
AAXX 23124 43368 NIL
BBXX VNSZ 23124 99383 31448 46/// /2110 10187 20159 30100 40126 52016 22264 04196 85169
BBXX C6FS9 23124 99343 31515 46/// /0408 10215 20196 30116 40152 52012 22254 04223 85202
BBXX 9HA2479 23124 99188 31686 46/// /1028 10265 20226 30048 40077 52010 22243 04280 85237
BBXX VROB 23124 99386 31449 46/// /1506 10180 20161 30098 40124 52013 22233 04176 85168
BBXX VNAH 23124 99357 31204 46/// /1912 10180 20104 30146 40170 52010 22223 04201 85136
BBXX 41029 23121 99328 70796 46/// /2406 1//// 91200 555 11077 22092
BBXX 44033 23121 99441 70690 46/26 /0505 10021 40141 56020 91204 22200 00073 10801 70007 333 91206 555 11061 22063
BBXX 44034 23121 99441 70681 46/28 /0607 10021 40143 56020 91204 22200 00083 11103 70015 333 91208 555 11080 22083
BBXX 44024 23121 99423 70659 46/18 /0908 10075 40126 56032 91204 22200 00078 11104 70021 333 91209 555 11095 22101
BBXX 44029 23121 99425 70706 46/30 /0206 10049 40110 58024 91204 22200 00085 11101 70006 333 91207 555 11074 22077
BBXX 44030 23121 99432 70704 46/// /0408 1//// 40121 56020 91204 22200 00085 10502 70009 333 91210 555 11095 22101
BBXX 44040 23121 99410 70736 46/// /0306 10081 20081 40118 91215 22200 10301 70004 333 91208 555 11082 22098
BBXX 41036 23121 99342 70770 46/// ///// 10203 20179 40173 91220 22200 00198
AAXX 23121 28867 42998 42501 11170 21220 30049 40342 57018 80002 555 1/118
AAXX 23121 28952 42999 70000 11124 21176 30124 40327 57014 80004 555 1/113
AAXX 23124 67765 42980 50403 10311 20122 38653 48501 81108 333 58011 81858 85280
AAXX 23124 67775 42780 31104 10276 20134 38501 48505 83100 333 58014 83856
AAXX 23124 67779 42980 21704 10341 20151 39021 48494 82100 333 58007 82858
AAXX 23124 67853 NIL
AAXX 23124 67861 NIL
AAXX 23124 67867 NIL
AAXX 23124 67881 NIL
AAXX 23124 67965 NIL
AAXX 23124 67975 NIL
AAXX 23124 67977 NIL
AAXX 23124 67983 NIL
AAXX 23124 67991 42780 41203 10364 20156 39540 48485 81232 333 58022 81856 84080
AAXX 23124 67755 NIL
AAXX 23124 67771 42980 41503 10317 20122 3//// 48/// 84102 333 5//// 84858
AAXX 23124 67773 NIL
AAXX 23124 67774 NIL
AAXX 23124 67785 NIL
AAXX 23124 67789 NIL
AAXX 23124 67855 NIL
AAXX 23124 67857 NIL
AAXX 23124 67863 NIL
AAXX 23124 67871 NIL
AAXX 23124 67875 NIL
AAXX 23124 67891 NIL
AAXX 23124 67895 NIL
AAXX 23124 67897 NIL
AAXX 23124 67899 42983 31803 10301 20112 3//// 48/// 83200 333 5//// 83858
AAXX 23124 67951 NIL
AAXX 23124 67963 NIL
AAXX 23124 67967 NIL
AAXX 23124 67971 NIL
AAXX 23124 67976 NIL
AAXX 23124 67979 NIL
BBXX WRAH 23124 99304 70453 41698 50719 10210 2//// 40220 52006 7//00 8328/ 22264 00227 20304 33501 40407 50805 6//// 8//// ICE /////
BBXX WHKM 23124 99132 10558 41497 80320 10260 20186 40125 57030 70522 887// 22233 0//// 20304 305// 40605 5//// 6//// 80210 ICE /////
BBXX WZJC 23124 99284 70932 41398 80109 10144 2011/ 40220 52003 70222 886// 22233 00217 2//// 3//// 4//// 5//// 6//// 80122 ICE /////
AAXX 23124 62305 32560 22523 10150 20047 40111 57007 82200
AAXX 23124 62306 31940 02728 10172 20012 40115 57018 70700
AAXX 23124 62318 31958 02319 10182 20040 40115 57019 70700
AAXX 23124 62337 NIL
AAXX 23124 62366 32960 02218 10192 20041 40142 57020
AAXX 23124 62393 32960 02807 10212 20013 40165 57024
AAXX 23124 62405 32960 03504 10230 20031 40146 57024
AAXX 23124 62414 32960 03409 10226 20049 40154 57022
AAXX 23124 62417 32560 12712 10186 20063 40136 57016 81100
AAXX 23124 62419 NIL
AAXX 23124 62440 31930 02117 10208 20012 40131 57024 70700
AAXX 23124 62463 32960 00205 10222 20081 40142 57026
AAXX 23124 62465 32960 00107 10220 20096 40135 57003
BBXX 46088 23121 99483 71232 46/// /1104 10055 40294 91220 22200 00077 1//00 70002 333 91205 555 11045 22046 31201 41006 61219 112044 098046 094038 089043 083045 088040
BBXX 46087 23121 99485 71247 46/// /1010 10064 20060 40283 91220 22200 00075 333 91212 555 11101 22107 31152 41012 61219 104094 099085 096087 104091 104085 104085
AAXX 23121 30157 11997 81706 11295 21333 30016 40336 56002 69962 77172 80007 333 11290
BBXX WHKM 23124 99132 10558 41497 80320 10260 20186 40125 57030 70522 887// 22233 0//// 20304 305// 40605 5//// 6//// 80210 ICE /////
BBXX OZDM2 23124 99144 10533 41997 10420 10245 20143 40133 56021 70200 80001 22225 04250 20104 303// 40205 80180
BBXX MZFR9 23124 99152 50358 41698 40719 10275 20190 40152 52009 70200 83250 22283 02289 20404 307// 40604 5//// 80220
BBXX C6TZ9 23124 99287 50484 416// 73113 10260 20217 40130 54/// 7//22 87/6/ 22254 00260 2//// 3//// 4//// 5//// 6//// 80230 ICE /////
BBXX MZDL7 23123 99263 50986 41598 70918 10210 20194 40209 54000 70322 875// 22243 00240 20302 310// 40403 5//// 80200
BBXX IDDUK02 23124 99523 50503 46/// ///// 49930 222//
BBXX A8CN8 23120 99493 11614 41/97 /0911 10010 20010 40215 54000 70122 8//// 22254 00022 2//// 336// 40403 5//// 80010
BBXX ZCAO7 23124 99286 11271 41/98 73520 10119 20054 40197 53005 70122 87/// 22243 2//// 80089
BBXX ELWZ5 23124 99359 11427 41697 33325 10091 20034 40110 51015 7//00 838// 22214 2//05 3//// 4//// 5//// 80064
BBXX SHIP 23124 99204 11330 41/93 93419 10220 20220 40111 51009 7472/ 89/// 22273 00300 20202 302// 40706 80220
BBXX DPRB 23121 99304 11226 41/97 /3403 10060 21012 40265 54000 70211 8//// 22200 20504 309// 40605 5//// 80030
BBXX MSDM7 23123 99135 11120 41396 40326 10265 20244 40110 52030 70311 8372/ 22214 04252 20606 303// 40507 5//// 80250
BBXX SBLI 23121 99300 11507 43/98 83113 10187 40070 51003 22263 00219 2//// 4//// 426621110
BBXX MINFR00 2312/ 99129 70786 46/// ///// 10260 40116 52006
AAXX 23124 89050 11498 51710 10009 21043 49912 52035 69902 70371 82104
AAXX 23124 89512 42598 61004 10030 21064 39706 49852 52002 83530
AAXX 23124 89574 32998 60000 10037 21037 49831 57014 82031 333 10059
AAXX 23124 89592 32999 00000 10005 21058 49783 57012
AAXX 23124 89606 11996 81512 11263 21308 36244 47827 53014 69932 77673 80007
BBXX 46204 23121 99514 71288 46/// /1608 10080 40218 52049 22200 00083 11412 70059 333 91210
BBXX 46131 23121 99499 71250 46/// /1609 1//// 40280 52026 22200 00073 10502 70009 333 91210
BBXX 46183 23121 99536 71311 46/// /2608 10071 40143 52081 22200 00080 11005 70027 333 91210
BBXX WZJC 23124 99284 70932 41398 80109 10144 2011/ 40220 52003 70222 886// 22233 00217 2//// 3//// 4//// 5//// 6//// 80122 ICE /////
BBXX 9VAW8 23124 99296 70949 41397 41010 10140 20123 40200 54000 7//// 8497/ 22273 04250 20502 31213 40502 50502 6//// 80130 ICE /////
BBXX C6KJ5 23124 99246 70912 41497 20402 10230 2022/ 40182 52004 70210 82510 22273 00253 80225
BBXX 46147 23121 99518 71312 46/// /2509 10072 40180 52059 22200 00079 11516 70082 333 91212
BBXX PCBT 23123 99250 70489 41598 60321 10231 20165 40210 53014 70222 84206 22214 20503 301// 41004 80188
BBXX 44060 23121 99413 70721 46/// ///07 10073 40103 91215 22200 00103 333 91209 555 11077 22082
BBXX 44098 23121 99428 70702 46/// ///// 1//// 91207 22200 00087 11101 21001 311// 41101 70007
BBXX 44022 23121 99409 70737 46/// ///06 10079 20060 40113 91215 22200 00084 333 91208 555 11067 22072
BBXX 44039 23121 99411 70727 46/// /0207 10083 20077 40117 55000 91200 22200 00094 10201 70005 333 91209
BBXX 41114 23121 99276 70802 46/// ///// 1//// 91216 22200 00247 11202 20701 307// 41201 70008
BBXX 41115 23121 99184 70673 46/// ///// 1//// 91205 22200 11303 20902 301// 41302 70013
BBXX 46088 23121 99483 71232 46/// /1104 10055 40294 91220 22200 00077 1//00 70002 333 91205 555 11045 22046 31201 41006 61219 112044 098046 094038 089043 083045 088040
BBXX 51205 23121 99210 71564 46/// ///// 1//// 91218 22200 00237 10805 20805 332// 41301 70025
BBXX 46114 23121 99364 71222 46/// ///// 1//// 91204 22200 00124 11103 21002 330// 41103 70017
BBXX 46221 23121 99339 71186 46/// ///// 1//// 91145 22200 00147 11302 20901 326// 41301 70009
BBXX WRAH 23124 99304 70453 41698 50719 10210 2//// 40220 52006 7//00 8328/ 22264 00227 20304 33501 40407 50805 6//// 8//// ICE /////
BBXX 46242 23121 99332 71174 46/// ///// 1//// 91158 22200 00141 11301 323// 41301 70005
BBXX 46231 23121 99327 71174 46/// ///// 1//// 91154 22200 00147 11302 21001 325// 41302 70009
BBXX 46222 23121 99336 71183 46/// ///// 1//// 91156 22200 00149 11302 21001 326// 41301 70008
BBXX 46211 23121 99469 71242 46/// ///// 1//// 91206 22200 00083 11205 21003 328// 41203 70023
BBXX 46223 23121 99335 71178 46/// ///// 1//// 91200 22200 00146 11302 21001 328// 41301 70008
BBXX 46212 23121 99408 71243 46/// ///// 1//// 91212 22200 00095 11303 21002 329// 41302 70014
BBXX 46237 23121 99378 71226 46/// ///// 1//// 91210 22200 00109 11202 21001 326// 41202 70012
BBXX 46217 23121 99342 71194 46/// ///// 1//// 91212 22200 00143 11301 21001 326// 41301 70007
BBXX 46240 23121 99366 71219 46/// ///// 1//// 91212 22200 00122 11202 21001 335// 41201 70008
BBXX 46216 23121 99343 71198 46/// ///// 1//// 91157 22200 00144 11302 20901 327// 41301 70010
BBXX 46241 23121 99330 71173 46/// ///// 1//// 91141 22200 00140 11301 21001 325// 41301 70005
BBXX 46244 23121 99409 71244 46/// ///// 1//// 91205 22200 00095 11203 21002 329// 41202 70013
BBXX 46248 23121 99461 71247 46/// ///// 1//// 91204 22200 00086 11405 20903 329// 41403 70023
BBXX 46249 23121 99338 71197 46/// ///// 1//// 91212 22200 00142 11302 21001 325// 41301 70010
BBXX 46207 23121 99509 71299 46/// /2508 10082 40213 52051 22200 00082 11615 70074 333 91212
BBXX SKOZ 23124 99472 70511 43/98 73215 10014 40153 53031 22214 00033 25021 41008
BBXX 46111 23121 99481 71227 46/// /2402 10046 40297 51027 91200 22200 00050
BBXX 46112 23121 99481 71227 46/// /2901 10046 40295 51023 91200
BBXX SHIP 23124 99122 31279 41/97 /2008 10298 20294 40022 51030 70022 8//// 22200 00306 10601 80295
BBXX VRBK6 23124 99019 11193 41397 63313 10260 2025/ 40060 52010 7//11 85333 22273 00290 20901 33333 40901 50901 6//// 80250 ICE /////
AAXX 23121 60376 36/// /2502 10175 20119
AAXX 23121 60593 36/// /0000 10195
BBXX WZP8164 23124 99467 70921 41/98 81705 11066 2//// 40179 57000 70222 8//// 22200 0//// 2//// 3//// 4//// 5//// 6//// 8//// ICE /////
BBXX 3FPQ9 23123 99244 70877 41696 61415 10240 2021/ 40170 54000 70222 86070 22285 00270 20802 31414 40802 50802 6//// 80220 ICE /////
BBXX NWS0003 23124 99539 71665 43/// /0000 10014 21014 49993 5//// 7//// 8//// 222// 0//// 2//// 3//// 4//// 5//// 6//// 8//// ICE /////
BBXX NWS0020 23124 99316 70375 43/// /1416 10212 20173 40240 5//// 7//// 8//// 222// 04220 2//// 3//// 4//// 5//// 6//// 8//// ICE /////
BBXX 42085 23121 99179 70665 46/// /0709 10256 40173 91150 333 91212
BBXX 42085 23121 99179 70665 46/// /0608 10256 40170 91140 333 91210
BBXX 42364 23121 99291 70881 46/// /0109 10172 20144 40210 91215
BBXX 42362 23121 99278 70907 46/// /0211 10189 20144 40207 51014 91200
BBXX 42362 23121 99278 70907 46/// /0210 10189 20144 40210 91215
BBXX A8OH5 23123 99145 70943 41197 13626 10250 20242 40120 54000 7//11 817// 22223 00300 20804 80244
BBXX P3GY9 23124 99061 70512 41797 60724 10280 2024/ 40140 51015 70322 86263 22231 00290 20905 305// 41105 5//// 6//// 80250 ICE /////
BBXX PCBZ 23124 99177 71234 41/98 30625 10212 20159 40150 57019 70111 832// 22223 00205 20805 399// 41001 80178 90697
BBXX DGZL 23123 99364 70021 41998 03204 10160 20127 40272 50012 70100 80000 22263 00170 20200 325// 40601 80140
BBXX VRVQ9 23124 99490 70185 41598 22528 10097 20043 40344 52050 70100 8/100 22264 20409 328// 40608 5//// 80073
BBXX A8UT7 23124 99435 70157 41598 63518 10155 20082 40275 51015 70322 8249/ 22263 20303 331// 40504 80115
BBXX 62107 23124 99501 70061 46/// /3436 10086 20056 40191 53037 22200 00117 10907 70036 333 90710 91150
BBXX 62095 23124 99531 70159 46/// /2722 10079 20028 40256 52029 22200 00112 10810 70048 333 90710 91133
BBXX DANV 23124 99352 10187 41297 83628 10162 20108 40125 57015 72588 887// 22224 04170 20104 301// 40408 80131
BBXX 62103 23124 99499 70029 46/97 /2033 10117 20099 40160 57033 22200 00123 10704 70019 333 90710 91140
BBXX 62170 23124 99514 10020 46/96 /2232 10104 20094 40172 58022 22200 00107 10502 70010 333 90710 91142
BBXX 62305 23124 99504 10000 46/98 /2234 10107 20090 40189 58025 22200 00120 10603 70015 333 90710 91141
BBXX 62304 23124 99511 10018 46/97 /2125 10103 20081 40175 58026 22200 00109 10503 70013 333 90710 91143
BBXX 63110 23123 99595 10015 41697 42635 10076 40003 70511 8/1// 22200 10809 70047
BBXX 63119 23124 99583 10009 41597 32932 10073 20003 40038 55/// 701// 8/4// 22200 2//// 325// 41007 5////
BBXX VQIV8 23124 99379 10059 41/98 73013 10150 20128 40256 52010 70222 85710 22233 02160 20401 336// 40804 5//// 80138
BBXX 62103 23124 99499 70029 46/98 /2030 10119 20098 40178 57018 22200 00123 10703 70017 333 90710 91139
BBXX 62094 23124 99517 70067 46/// /2919 10090 20048 40180 51032 22200 00107 10606 70028 333 90710 91135
BBXX 62114 23124 99583 10000 46/// /2630 10071 21003 40039 50001 22200
BBXX 62149 23124 99537 10011 47597 /2024 10082 20079 40106 58023 751// 22200 10403 70013
BBXX MJCE3 23124 99555 70051 41698 83113 10057 20035 40106 53030 71528 887// 22243 00094 20401 30000 40000 50000 60000 80046
BBXX 62144 23124 99534 10017 47598 /2020 10095 20065 40121 58029 700// 22200 10402 70010
BBXX 62169 23123 99614 10014 41397 22440 10080 20058 49932 52010 71880 82200 22200 20714 3//// 4//// 5//// 80070
BBXX 62150 23124 99536 10007 47496 /2021 10084 20067 40113 58024 762// 22200 10402 70008
BBXX PENR 23123 99424 70186 41598 30210 10134 20068 40390 51029 70211 83100 22254 20202 399// 40804 80102
BBXX 62146 23124 99572 10021 47/98 /2704 10082 21013 40072 50010 700// 22200 10605 70023
BBXX 62140 23124 99573 10013 46/// /29// 10082 20015 40064 51006 22200
BBXX 62122 23124 99573 10016 47998 /2919 10083 20002 40066 50008 700// 22200 10605 70025
BBXX 62153 23124 99573 10020 47998 /2809 10083 20004 40068 51010 700// 22200 10605 70023
BBXX 62104 23124 99574 10013 47998 /2919 10093 20014 40062 50007 700// 22200
BBXX 62155 23124 99577 10007 47998 /2722 10077 21002 40066 51009 751// 22200 10605 70023
BBXX 62116 23124 99576 10011 47997 /2817 10081 20003 40061 51009 700// 22200 10605 70025
BBXX 62118 23124 99577 10009 47997 /2718 10080 20002 40057 51007 700// 22200 10605 70023
BBXX 62143 23124 99577 10018 47998 /3114 10079 21002 40068 50008 700// 22200 10504 70022
BBXX 62142 23124 99530 10021 47597 /2118 10088 20068 40131 58023 700// 22200 10302 70010
BBXX 62148 23124 99536 10015 46/// /2120 10093 20067 40118 58026 22200
BBXX 62117 23124 99579 10000 47998 /2618 10074 20024 40058 51007 700// 22200 10605 70025
BBXX 62121 23124 99535 10027 46/// ///// 22200
BBXX 62102 23124 99579 10018 46/// /2823 10079 20029 40055 51007 22200 10605 70026
BBXX 62131 23124 99539 10012 46/// /20// 10087 20076 40104 58022 22200
BBXX 62145 23124 99531 10028 47598 /2024 10106 20068 40134 58023 700// 22200 10403 70016
BBXX 62134 23124 99580 10014 47697 /2821 10076 20024 40057 51012 700// 22200 10605 70024
BBXX ZQSD5 23124 99583 10007 46/// /2626 10075 21003 40046 51010 22200 10809 70044
BBXX 62127 23124 99540 10007 47297 ///// 10085 20074 40101 57023 762// 22200 10402 70012
BBXX 62152 23124 99570 10018 47/98 /3113 10084 20040 40075 50006 700// 22200 10504 70021
BBXX 62132 23124 99564 10020 46/// /3406 10088 20061 40081 50009 22200
BBXX 62123 23124 99563 10022 47697 /3109 10089 20068 40077 50003 700// 22200
BBXX 62120 23124 99564 10021 47798 /3315 10083 40079 50007 700// 22200
BBXX 62119 23124 99570 10019 47997 /3116 10082 20025 40074 50008 700// 22200 10604 70022
BBXX 62165 23124 99540 10009 47397 /2220 10085 20074 40103 58020 700// 22200 10503 70016
BBXX 62164 23124 99572 10008 47998 /2813 10097 20007 40071 51009 700// 22200 00094 10504 70022
BBXX PJGO 23124 99571 10022 47998 /3013 10083 20039 40069 50010 700// 22200
BBXX 64041 23124 99607 70026 47997 /2532 10068 21003 49955 52015 700// 22200 11116 70079
BBXX MWYG6 23124 99603 70040 47998 /2829 10070 700// 22200
BBXX 62133 23124 99571 10009 46/// /2917 10085 21010 40070 50006 22200 10604 70019
BBXX 62154 23124 99564 10022 46/// /3313 10093 20047 40073 50002 22200
BBXX 63115 23124 99616 10013 47697 /2431 10075 20001 49927 51010 700// 22200 11016 70081
BBXX 63117 23124 99613 10011 47698 /2528 10160 20036 49942 51009 700// 22200
BBXX 63104 23124 99612 10016 47597 /2529 10078 20018 49935 50005 700// 22200
BBXX 63103 23124 99612 10011 46/// /2730 10067 20008 49955 50005 22200 11015 70074
BBXX 63112 23124 99611 10010 47496 /2732 10086 20014 49942 51007 751// 22200 11115 70076
BBXX 63107 23124 99611 10017 46/// /2428 10073 49944 51004 22200
BBXX 63108 23124 99608 10017 47597 /2632 10069 20011 49967 51003 700// 22200 11012 70060
BBXX 63101 23124 99612 10009 46/// /2724 10079 20025 49935 52011 22200
BBXX 62113 23124 99584 10002 47698 /2623 10071 21003 40050 51001 700// 22200
BBXX 63105 23124 99610 10017 47997 ///// 10072 20005 49948 50004 700// 22200
BBXX 63106 23124 99610 10017 46/// /2527 10069 49949 51005 22200
BBXX 63113 23124 99610 10017 46/// /2627 10073 21004 49969 53005 22200 11015 70075
BBXX 62129 23124 99584 10003 46/// ///// 10071 21002 40047 50004 22200
BBXX 63110 23124 99595 10015 47597 /2624 10079 20021 40004 50004 700// 22200 10809 70047
BBXX 63056 23124 99597 10016 47597 /2427 10073 20015 49989 51003 700// 22200 10809 70047
BBXX 62111 23124 99580 70003 46/// /2722 10071 20011 40068 58001 22200 10605 70026
BBXX 62128 23124 99587 10014 47698 /2625 10071 20003 40033 51008 700// 22200 10807 70037
BBXX 62029 23124 99487 70125 46/// /3229 10093 20035 40310 52041 22200 00129 10809 70045 333 90710 91138
BBXX PJAI 23124 99581 70014 47998 /2519 10083 20003 40051 50005 700// 22200
BBXX 63057 23124 99592 10015 47698 /2629 10075 20017 40017 51004 700// 22200 10910 70049
BBXX 63055 23124 99606 10016 47997 /2626 10076 20016 49979 50005 700// 22200 10809 70047
BBXX 62303 23124 99516 70051 46/// /3323 10080 20060 40158 52034 22200 00111 10605 70027 333 90710 91136
BBXX 62105 23124 99554 70122 46/// /2829 10064 20023 40166 52030 22200 00106 10810 70052 333 90710 91141
BBXX 62112 23124 99584 70002 47698 /2822 10069 20006 40041 50003 700// 22200
BBXX 64046 23124 99605 70049 46/// /2730 10069 20017 49970 53026 22200 00079 10914 70070
BBXX 64045 23124 99591 70117 46/// /3029 10049 20013 40058 52041 22200 00100 11015 70077 333 90710 91142
BBXX 62163 23124 99475 70084 46/// /3225 10110 20059 40272 52060 22200 00126 10709 70044 333 90710 91138
BBXX 62001 23124 99453 70050 46/// /2415 10137 20096 40270 58007 22200 00141 10604 70020
BBXX 62301 23124 99524 70047 46/// /3321 10076 20043 40148 52035 22200 00085 10504 70022 333 90710 91132
BBXX 62081 23124 99510 70134 46/// ///// 10085 20031 40280 51040 22200 00119 10811 70053
BBXX 62442 23124 99490 70164 46/// /3019 1//// 2//// 40342 51033 22200 00125 333 90710 91127
BBXX GHJV 23123 99311 70160 41497 80706 10186 20126 40317 52008 70222 8/100 22252 02193 20302 80152
BBXX 62159 23124 99605 10017 41597 62527 10082 20016 49955 53006 70222 8482/ 22200 10905 70026
BBXX 62027 23124 99491 70022 46/// /2018 1//// 2//// 40208 57023 22200 00114 11303 331// 70016
BBXX LAXP4 23124 99345 70339 41497 80914 00/// 10190 2019/ 40302 51008 70222 8852/ 22253 00190 20402 327// 40503 5//// 6//// 80190 NNNN
BBXX WRYC 23124 99341 10238 41498 62520 10150 2011/ 40054 55020 71522 86200 22265 00172 20405 328// 40708 5//// 6//// 80125 ICE /////
BBXX BATFR54 23124 99460 70019 46/// /2222 10125 20092 40260 58008 22232 00139
BBXX BATFR03 23124 99498 70005 46/// /2341 10105 20082 40189 50001 22244
BBXX DDLK 23123 99478 70242 41698 42718 10120 20083 40375 53015 70311 83538 22224 20404 327// 40606 80100
BBXX 61002 23124 99421 10047 46/// ///15 10129 2//// 40236 57006 22200 00140 10503 70015
BBXX 61001 23124 99434 10078 46/// /2204 10134 20088 40234 57004 22200 00146 10701 70007
BBXX BATUK01 23124 99561 70030 46/// /2719 10070 20024 40088 50004 22251 00084
BBXX BATEU05 23124 99584 70168 46/// /2724 10060 21023 40095 53008 22223
BBXX BATFR52 23124 99492 70028 46/// /1717 10114 20092 40199 22273 00124
BBXX BATFR12 23124 99480 70053 46/// /2127 10124 20117 40197 58019 22231 00147
BBXX BATFR01 23124 99367 10192 46/// /3530 10140 20075 40100 53006 22261 00180
BBXX BATEU04 23124 99630 70117 46/// /2933 10047 21036 4//// 22262
BBXX BATFR04 23124 99577 70067 44596 62825 10062 20012 40072 53035 702// 864// 22253 00104 20304 323// 40304 5////
BBXX BATFR14 23124 99420 70224 44297 21110 10137 20062 40394 51019 70200 82100 22214 00160 20502 327// 40704 5////
BBXX BATFR02 23124 99506 70009 44497 72030 10102 20085 40174 58060 702// 865// 22275 00107 20204 325// 40306 5////
BBXX BAREU00 23124 99513 10041 46/// ///// 40186 22200
BBXX BAREU63 23124 99441 10092 46/// /1412 10139 29061 40236 57006 22273
BBXX BATFR27 23124 99499 70026 46/// /2127 10115 20084 40174 58036 22224 00124
BBXX BAREU51 23124 99400 10121 46/// ///// 40204 57020 22235
BBXX TESTFR9 23124 99492 70028 46/// /1717 10113 29093 40212 22274
BBXX LF4C 23124 99584 10019 41697 72721 10079 20006 40041 52008 70221 81110 22200 00077 10707 70034 333 91132
BBXX LF4B 23124 99606 10037 47/96 /2728 10057 49991 52006 700// 22200 00054 10912 70062 333 91136
BBXX LF5T 23124 99660 10081 41997 62540 10069 20027 49729 57015 71522 869// 22200 11015 70073 333 91157
BBXX 3ERR2 23124 99635 10053 41496 62440 10082 20029 49837 52005 78082 86900 22200 06098 11216 70080 333 91163
BBXX LF3N 23124 99653 10073 41596 52536 10056 20039 49764 52005 72582 84930 22200 00090 10914 70072
BBXX LF3F 23124 99643 10078 41595 62343 10071 20040 49824 57010 78180 869// 22200 04087 10917 70084 333 91154
BBXX MDGV9 23124 99437 70099 41/97 83115 10142 20120 40323 52028 70252 887// 22253 10603 70017 80130
BBXX DCUJ2 23123 99364 70013 41498 39902 10150 20110 40270 50000 70200 83100 22224 00140 20000 321// 40402 80127
AAXX 23124 40250 32960 22504 10170 20003 39345 40133 57022 80002 333 82070
AAXX 23124 40265 31650 11306 10154 20003 39363 40159 57015 70522 81100 333 81835
AAXX 23124 40296 32960 00000 10230 20097 40146 57025
AAXX 23124 40310 32960 32308 10179 21031 38916 48469 57026 80002 333 83070
AAXX 23121 55299 32980 03602 11051 21301 35834 57002 333 00051
AAXX 23121 55591 32980 02901 10094 21265 36463 57002 333 00006
AAXX 23121 56739 32980 11802 10119 20058 38334 52015 80002 333 05100
AAXX 23121 56951 32970 20000 10142 20073 38491 52021 80002 333 00000
AAXX 23121 56964 32570 10901 10153 20111 38704 40155 52014 81100 333 05100
AAXX 23121 57328 32965 01401 10075 20028 39898 40322 52025
AAXX 23121 57411 31930 02001 10064 20044 39948 40333 52025 71000
AAXX 23121 57447 32962 80701 10069 20028 39758 40319 52021 8807/
AAXX 23121 57662 32962 00000 10045 21058 30272 40318 52016
AAXX 23121 57745 31956 62501 10060 21019 39981 40320 52017 70500 86040
AAXX 23121 57972 32961 83401 10081 20001 30068 40300 52018 8807/
AAXX 23121 58203 32965 02201 11009 21077 30260 40304 52020
AAXX 23121 58314 32965 00000 11006 21058 30190 40304 52021
AAXX 23121 58424 31958 03401 10026 21063 30276 40303 52017 70500
AAXX 23121 59023 31758 80402 10090 20002 39974 40294 52024 70500 885//
AAXX 23121 59417 32562 80701 10136 20045 30089 40246 52025 888//
AAXX 23121 59985 32570 60407 10228 20182 30148 40153 52023 82102
AAXX 23121 59995 NIL
BBXX 46185 23121 99524 71298 46/// /2308 10078 40178 52065 22200 00074 11409 70045 333 91212
AAXX 23124 62309 31920 82616 10178 20036 40111 57014 70720 80007
AAXX 23124 62325 31958 03112 10189 20067 40123 57016 70700
AAXX 23124 62332 31957 02219 10196 20045 40128 57026 70700
AAXX 23124 62387 32960 22512 10211 20011 40158 52024 80002
AAXX 23124 62452 32960 31706 10181 20019 40149 57026 80005
AAXX 23124 62459 32960 03018 10209 20063 40143 57022
AAXX 23120 44282 31999 03205 11106 21226 38309 40326 54000 70131 333 11086 91112
AAXX 23120 44272 119// 21802 11239 21271 38286 40495 58002 69942 72272 82040 333 11169
BBXX 46185 23121 99524 71298 46/// /2308 10078 40178 52065 22200 00074 11409 70045 333 91212
AAXX 23121 47008 31960 33201 11066 21112 30149 40205 57006 71000 83050 333 11017
AAXX 23121 47014 32950 80000 11171 21205 39802 40235 57001 8802/ 333 11112
AAXX 23121 47016 32970 20000 11134 21177 39312 40227 53014 82070 333 11098
AAXX 23121 47020 32965 70000 11114 21149 39840 40241 53001 87030 333 11078
AAXX 23121 47025 32960 03202 11066 21103 30165 40195 57006 333 10016
AAXX 23121 47035 32970 00000 11065 21137 30226 40235 52003 333 11040
AAXX 23121 47041 32570 13203 11033 21145 30167 40195 53004 81500 333 10015
AAXX 23121 47055 32965 00000 11030 21193 30166 40213 57005 333 10005
AAXX 23121 47058 11560 80501 11047 21064 30189 40238 57008 60022 77172 8802/ 333 11018
AAXX 23121 47069 11539 81802 11032 21053 30124 40228 57015 69902 77377 8802/ 333 11015
AAXX 23121 47003 32980 00000 11097 21190 30199 40203 53002 333 11064
AAXX 23121 47005 11560 81801 11169 21181 38529 57013 69922 77172 885// 333 11132
AAXX 23121 47022 32975 00000 11145 21188 38778 53001 333 11079
AAXX 23121 47028 32962 00000 11091 21136 30131 40231 53002 333 11033
AAXX 23121 47031 32970 00000 11139 21166 38883 54000 333 11094
AAXX 23121 47037 32970 00000 11086 21136 30104 40215 57010 333 11040
AAXX 23121 47039 32560 80000 11080 21142 30034 40235 57008 86501 333 11033
AAXX 23121 47046 32969 30000 11056 21117 30167 40191 57003 80002 333 10010
AAXX 23121 47050 32565 80000 11054 21124 30202 40237 54000 885// 333 11046
AAXX 23121 47052 32565 80000 11066 21103 39871 40225 57009 885// 333 11034
AAXX 23121 47060 11550 80901 11026 21026 30169 40229 57007 60022 77377 8802/ 333 11014
AAXX 23121 47061 32980 83203 11013 21108 30178 40223 54000 80003 333 10025
AAXX 23121 47065 11540 81402 11039 21051 30160 40228 57012 60012 77377 8802/ 333 11006
AAXX 23121 47067 31960 82704 11055 21106 30113 40239 57024 71022 8801/ 333 11010
AAXX 23121 47068 11560 80905 11045 21058 30179 40216 57009 60032 70272 885// 333 11005
AAXX 23121 47070 11560 80000 11051 21065 30152 40243 57008 69982 77172 8802/ 333 11003
AAXX 23121 47075 32980 02301 11080 21160 39713 40160 57020 333 11030
AAXX 23121 38599 41936 00807 11002 21064 39726 40257 57011 71000
AAXX 23121 47101 32670 60201 11071 21127 30135 40236 57007 85500 333 11009 30107
AAXX 23121 47105 369// /2507 11020 21177 30184 40217 57002 333 10027 3/101
AAXX 23121 47108 11570 81603 11026 21104 30116 40226 57017 69902 77177 8572/ 333 11011 34102
AAXX 23121 47115 11560 73205 11007 21064 39920 40199 57008 60032 78588 87800 333 11003 3/000 49004 92042
AAXX 23121 47133 32970 02702 11041 21140 30153 40242 57014 333 10003 34104
AAXX 23121 47138 32970 02005 11011 21177 30222 40225 58001 333 10035 30103 92022
AAXX 23121 47159 32975 03407 11011 21207 30132 40220 58003 333 10047 30103 92023
AAXX 23121 47165 12970 00000 11027 21107 30200 40249 55003 69902 333 10026 34102 92020
AAXX 23121 47168 32670 53606 11006 21164 30148 40230 50004 81501 333 10025 30102 92022
AAXX 23121 47184 12670 63408 10028 21053 30222 40248 51002 69902 86500 333 10036 31002 92033
AAXX 23121 47090 32973 00000 11016 21158 30184 40207 57009 333 10013 3/104 42/// 92030
AAXX 23121 47095 32570 50000 11069 21140 30032 40231 57013 85500 333 11019 34104
AAXX 23121 47097 32667 20502 11047 21126 30133 40234 57013 82500 333 10002 30105
AAXX 23121 47098 11557 80902 11056 21072 30084 40225 57013 69992 77177 8572/ 333 11002 3/102
AAXX 23121 47099 11520 80000 11042 21046 30189 40227 57016 60032 77177 8372/ 333 11004 3/101
AAXX 23121 47100 32970 02706 11107 21186 39273 40244 50008 333 11063 3/107 49025
AAXX 23121 47102 11530 82918 11009 21013 30032 40215 57012 60072 77177 8672/ 333 11006 3/000 43008
AAXX 23121 47104 32970 01104 11038 21170 30114 40215 57003 333 10011 3/103 43002
AAXX 23121 47106 329// /2708 11012 21174 30163 40214 57004 333 10016 3/102
AAXX 23121 47112 11506 81405 11031 21051 30139 40226 57018 60022 773// 8572/ 333 10007 34000
AAXX 23121 47114 32968 00701 11062 21162 30045 40237 58006 333 11019 30106
AAXX 23121 47119 32666 61803 11037 21126 30184 40228 57019 85500 333 11002 34104
AAXX 23121 47121 329// /0001 11075 21159 39934 40244 54000 333 11013 3/108
AAXX 23121 47127 32968 00903 11069 21144 30093 40243 57008 333 11014 3/104
AAXX 23121 47129 32670 61607 11013 21087 30195 40232 57020 85500 333 10014 30102
AAXX 23121 47130 32970 02302 11019 21180 30154 40218 57004 333 10033 30105 92031
AAXX 23121 47131 32970 01603 11039 21161 30164 40238 57015 333 11005 30103
AAXX 23121 47135 32970 00000 11070 21152 39932 40247 56003 333 11009 30105
AAXX 23121 47136 32968 01401 11048 21163 30057 40237 58001 333 10008 30107
AAXX 23121 47137 329// /2002 11045 21187 30116 40240 57006 333 11001 3/105
AAXX 23121 47140 32670 21104 11032 21114 30213 40243 57011 82500 333 10006 31102 92012
AAXX 23121 47143 32675 22703 11020 21181 30163 40245 58002 82500 333 10014 30106
AAXX 23121 47145 32970 01106 11045 21141 30199 40227 57018 333 10000 34104
AAXX 23121 47146 32670 21402 11042 21133 30175 40244 57009 82500 333 10008 34102
AAXX 23121 47150 32670 50001 11030 21103 30215 40235 57015 85500 333 10006 34103
AAXX 23121 47152 32975 03205 11013 21170 30178 40222 58004 333 10028 30103
AAXX 23121 47154 329// /3202 11044 21154 30178 40241 57005 333 10007 3/103
AAXX 23121 47155 32970 23204 11009 21185 30184 40231 50001 80001 333 10027 30103
AAXX 23121 47156 32975 00504 11030 21132 30157 40250 56004 333 10017 34101
AAXX 23121 47157 32970 02706 11059 21141 39948 40231 58003 333 10003 30106
AAXX 23121 47162 32975 00508 11004 21159 30189 40231 50003 333 10037 30101 92023
AAXX 23121 47169 12670 63407 10021 21055 30149 40245 55004 69972 86500 333 10024 31002 92043
AAXX 23121 47170 32970 03406 11016 21154 30207 40252 52009 333 10018 30102 92022
AAXX 23121 47171 329// /1104 11041 21125 30189 40247 58008 333 11001 3/104
AAXX 23121 47172 329// /1802 11051 21093 30171 40241 56008 333 10001 3/102
AAXX 23121 47173 329// /3203 11061 21128 30130 40247 50002 333 10011 3/104
AAXX 23121 47174 32665 32906 11036 21162 30030 40241 51003 83500 333 10008 34103
AAXX 23121 47175 12973 03409 11053 21087 39653 40253 53003 69902 333 11011 34103 92023
AAXX 23121 47185 12670 73216 10042 21033 30148 40241 51008 69902 87500 333 10049 31003 92035
AAXX 23121 47188 32670 20203 10009 21062 30215 40238 52005 82500 333 10048 31001 92022
AAXX 23121 47189 32670 50203 10030 21019 30161 40222 51004 85500 333 10084 30002 92022
AAXX 23121 47192 32975 40201 11019 21184 30197 40236 54000 80001 333 10033 30102
AAXX 23124 62420 32960 02308 10204 20048 40148 57023
AAXX 23124 62432 32960 02704 10204 20037 40168 57021
AAXX 23124 62435 32960 03602 10226 20046 40159 57014
AAXX 23124 62455 32960 01708 10214 20029 40128 57028
AAXX 23124 62458 32960 43106 10200 20023 40140 57020 80004
AAXX 23124 62476 32960 00406 10244 20179 40129 56015
AAXX 23121 24790 31999 30501 11473 21483 39543 40527 52008 77670 80001 333 11449
AAXX 23121 24988 32999 03202 11299 21330 30064 40347 52011 333 11271
AAXX 23121 25378 41998 02805 11124 21219 30205 40239 52013 70231 333 91112
AAXX 23121 25503 12999 21002 11375 21399 30299 40448 52010 69900 80001 333 11328
AAXX 23121 25705 11696 81601 11410 21438 30074 40466 52013 69930 77172 83537 333 11405
AAXX 23121 25927 32698 83203 11217 21249 30329 40336 52008 885// 333 11211
AAXX 23121 25932 32999 03202 11183 21224 30264 40306 52007 333 11179
AAXX 23121 31152 32997 60000 11372 21405 39912 40376 52005 82032 333 11350
AAXX 23121 31174 11997 80204 11117 21123 30247 40259 52001 69900 77172 80007 333 11140
AAXX 23121 31489 11595 83203 11149 21169 30070 40192 57005 60050 77372 8802/ 333 11154
AAXX 23121 31866 11996 83208 11106 21134 39989 49994 57012 60020 77173 8802/ 333 11069 91015 91118
AAXX 23121 31959 32598 82710 11146 21239 30038 40083 52011 82542 333 11115 91021 91124
AAXX 23121 31989 32999 03604 11129 21313 30091 40148 51006 333 11102 91113
AAXX 23121 32027 11597 83404 11083 21089 30183 40192 53001 60030 78583 889// 333 11099 91005 91108
AAXX 23121 32076 12598 80704 11035 21060 30127 40137 58014 69960 889// 333 11034 91007 91109
AAXX 23121 32099 11594 80913 11020 21023 30044 40052 58024 69970 78683 889// 333 11011 91015 91118
AAXX 23121 32121 11493 80909 11012 21025 39977 49999 56003 60070 78683 889// 333 11010 91015 91122
AAXX 23121 32213 32598 80912 11033 21044 30130 40195 56001 885// 333 11026 91015 91115
AAXX 23121 32287 32999 00204 11203 21236 30266 40277 58001 333 11152
AAXX 23121 32408 32999 00104 11270 21302 30229 40272 52004 333 11196
AAXX 23121 32509 NIL
AAXX 23121 32594 32598 21010 11053 21090 30156 40193 57005 82400 333 11070 91013 91115
BBXX ZMFR 23124 99413 31748 43/// /9901 10131 20098 40242 52002 22200 00150
BBXX ZMENA 23124 99368 31748 46/// ///// 10165 20109 40233 52004 22200
BBXX ZMFR 23124 99413 31748 43/// /9901 10131 20098 40242 52002 22200 00150
BBXX ZMENA 23124 99368 31748 46/// ///// 10165 20109 40233 52004 22200
AAXX 23124 89132 NIL
AAXX 23124 89542 46/// /0802 10027 20101 49858 57002
AAXX 23124 89575 NIL
AAXX 23124 89657 NIL
AAXX 23124 06610 31559 80000 10065 20051 39672 40264 58019 71022 886// 333 55300 20342 88726 91104 91203
AAXX 23124 61600 32960 50608 10257 21000 30160 40166 80002 333 58001 85073
AAXX 23124 61612 32959 50406 10250 21038 30170 40178 80002 333 0//00 59003 85073
AAXX 23124 61627 32957 40406 10282 21019 3//// 4//// 80002 333 0//00 5//// 84073
AAXX 23124 61630 32960 21406 10272 20057 30144 40164 80002 333 0//00 59008 82073
AAXX 23124 61666 32960 31004 10275 20060 30150 40158 80002 333 0//00 58002 83073
AAXX 23124 61679 32965 50814 10285 20188 30154 40162 80001 333 0//00 58001 85073
AAXX 23124 61687 31940 20814 10294 20009 30094 40151 70600 80001 333 0//00 59002 82073
AAXX 23124 61695 32960 30410 10264 20049 30120 40146 80002 333 0//00 58007 83073
AAXX 23124 61697 32960 00610 10270 20051 30124 40139 333 0//00 58003
AAXX 23124 61698 32960 30606 10290 20069 30133 40144 80002 333 0//00 59001 83073
AAXX 23124 61699 32958 01006 10300 20056 39934 40123 333 0//00 59001
AAXX 23124 06670 01256 81404 10064 20051 39743 40261 58018 69911 71022 886// 333 55300 20205 60005 82704 87726 91107 91206
AAXX 23124 06700 31259 73101 10067 20050 39764 40264 57020 71022 875// 333 55300 20580 82705 87630 91105 91203
AAXX 23124 06680 31989 02518 11009 21022 37548 47092 57010 70241 333 55310 21462 91123 91218 444 87171
AAXX 23124 06990 31564 31203 10068 20022 39707 40261 58028 70511 83500 333 55310 21274 83632 91113 91208
AAXX 23124 06760 31935 01703 10073 20005 39789 40242 57011 70500 333 55310 21192 91106 91203
AAXX 23124 06720 33/// ///// 10049 20032 39695 40282 58016 333 55301 20731
AAXX 23124 94996 455// 11017 10196 20148 30029 40165 58004 91230 333 10233
AAXX 23124 48350 32960 10000 10207 20176 39821 40125 52017 80001 333 10279 58003
BBXX NIL
BBXX NIL
BBXX NIL
BBXX NIL
AAXX 23124 40255 32660 42804 10152 20054 39434 40148 57018 84800 333 83830 82635
AAXX 23124 40260 32660 21706 10152 20039 39361 40142 57021 82200 333 82830
AAXX 23124 40270 31956 02604 10150 21006 39246 40139 57017 70500
AAXX 23124 40272 31958 22706 10152 20028 39314 40150 57019 70500 80001 333 82070
AAXX 23124 40290 NIL
AAXX 23124 40340 32960 43503 10212 20081 40131 57032 80001 333 84070
AAXX 23124 40250 32960 22504 10170 20003 39345 40133 57022 80002 333 82070
AAXX 23124 40265 31650 11306 10154 20003 39363 40159 57015 70522 81100 333 81835
AAXX 23124 40296 32960 00000 10230 20097 40146 57025
AAXX 23124 40310 32960 32308 10179 21031 38916 48469 57026 80002 333 83070
BBXX NIL
AAXX 23124 94996 455// 11017 10196 20148 30029 40165 58004 91230 333 10233
AAXX 23124 62357 32960 32312 10200 20032 40125 57027 80004
AAXX 23124 62403 32960 02705 10218 20051 40153 57024
AAXX 23124 62423 32960 02711 10214 20007 40161 57025
BBXX 51171 23121 99064 71623 46/// ///// 1//// 91146 22200 00279
BBXX 51170 23121 99168 71695 46/// ///// 1//// 91148 22200 00259
BBXX 51169 23121 99004 51600 46/// ///// 1//// 91154 22200 00258
BBXX 52243 23121 99193 11666 46/// ///// 1//// 91155 22200 00263
BBXX 51174 23121 99142 51697 46/// ///// 1//// 91155 22200 00286
BBXX 51178 23121 99142 51695 46/// ///// 1//// 91158 22200 00286
AAXX 23121 36864 42999 00000 11119 21171 39387 40333 57009
AAXX 23124 63729 11480 70000 10197 20187 38869 48/// 60041 76196 8397/ 333 0//55 55300 58017 83616 81918 87358
AAXX 23124 63733 32580 72710 10250 20189 38855 48498 84932 333 55310 58014 83624 81925 85359
AAXX 23124 63791 31680 51310 10340 20147 39102 48509 71722 85900 333 55310 58011 81933 84834 Q1012
AAXX 23124 63801 01580 72708 10232 20210 39218 48543 60011 72166 8397/ 333 0//11 55300 58036 69917 83621 81922 87359
AAXX 23124 63832 32580 70000 10240 20188 38824 48500 879// 333 55300 58026 87822 81923
AAXX 23124 63862 32580 60908 10256 20187 38894 48514 82973 333 55308 58020 82822 81924 84077
AAXX 23124 63866 32680 40610 10305 20210 39506 48/// 84900 333 55310 58008 86830 81932
AAXX 23124 63870 32580 30511 10316 20228 30082 40100 83900 333 55310 59005 83822 81924
AAXX 23124 63881 32480 53003 10199 20151 38209 48/// 60051 85900 333 0//66 55300 58018 85618 81921
AAXX 23124 63894 12580 53610 10304 20252 30047 40107 600015 8593/ 333 55310 58016 85824 81925 83357
AAXX 23124 63962 12580 40510 10280 20183 38940 48509 60031 83903 333 0//25 55310 58011 83825 81927 83075
AAXX 23124 63971 11580 50805 10287 20256 39979 40107 60011 70162 85901 333 0//13 55300 58011 85820 81921
AAXX 23124 63756 NIL
AAXX 23124 63887 NIL
AAXX 23124 63932 NIL
AAXX 23121 23973 11997 81803 11143 21156 30152 40218 57005 60022 77172 8802/ 333 11117
AAXX 23121 23975 115// 72502 11109 21129 30101 40214 54000 60012 78582 87900 333 11108
AAXX 23121 23986 11996 81902 11170 21189 39555 40226 57015 60012 77172 8801/ 333 11155
AAXX 23121 23987 11495 81403 11138 21165 30148 40225 57006 69972 78582 889// 333 11138
AAXX 23121 24606 118// 80000 11390 21418 39990 40302 53001 69922 77172 84037 333 11390
AAXX 23121 29253 119// 82302 11116 21144 30070 40249 57003 60022 77172 8802/ 333 11116
AAXX 23121 29471 11495 82302 11118 21146 30043 40282 57006 60012 78582 889// 333 11118 88916
AAXX 23121 29481 11997 82301 11133 21146 30029 40280 57005 69952 77172 8802/ 333 11130
AAXX 23121 29553 11941 82505 11117 21130 39917 40300 57004 60022 77187 8802/ 333 11115
AAXX 23121 29562 11561 82504 11119 21139 39865 40301 57003 60012 78583 889// 333 11118
AAXX 23121 29581 119// 82504 11114 21127 30019 40287 57004 69952 77172 8802/ 333 11111
AAXX 23121 29594 11597 82602 11121 21141 39886 40290 57001 69952 78582 889// 333 11105
AAXX 23121 29653 11996 82202 11101 21129 39806 40309 57001 60012 77172 8802/ 333 11101
AAXX 23121 29675 11995 80000 11067 21072 39757 40336 57001 60022 77377 8802/ 333 11054 95990
AAXX 23121 29676 11696 63002 11094 21124 39850 40289 54000 60032 77072 86500 333 11094
AAXX 23121 29752 114// 82509 11142 21148 38829 48477 58002 60032 78683 889// 333 11134 91122
AAXX 23121 29759 119// 82903 11119 21154 39259 40331 58002 60022 77172 8802/ 333 11119
AAXX 23121 29766 11896 80901 11093 21105 39957 40326 52002 60032 77172 8802/ 333 11063
AAXX 23121 29789 32997 82001 11082 21145 39055 40265 58003 8802/ 333 11066
AAXX 23121 29864 118// 82603 11056 21108 39641 40306 57002 69922 77172 8802/ 333 11055
AAXX 23121 29866 115// 82804 11055 21066 39991 40319 52001 69922 78682 889// 333 11033
AAXX 23121 29869 115// 82805 11041 21056 39947 40329 53003 60022 77173 8872/ 333 11024 91117 95090
AAXX 23121 29956 31684 82706 11026 21143 39783 40350 53008 73632 889// 333 11024 88937 91118
AAXX 23121 30337 11997 82101 11204 21230 39809 40290 57010 60022 77172 8801/ 333 11204
AAXX 23121 30405 115// 82502 11114 21134 39726 40274 57008 69922 78582 82935 333 11099
AAXX 23121 30504 11997 80000 11114 21120 39612 40285 57002 69962 77172 8801/ 333 11081
AAXX 23121 30603 11996 82101 11104 21104 39693 40284 57004 60012 77172 80007 333 11084
AAXX 23121 30612 115// 81302 11184 21196 39736 40307 57006 69922 78582 8592/ 333 11142
AAXX 23121 30622 119// 80000 11256 21275 39628 40338 57008 60012 77177 8802/ 333 11252
AAXX 23121 30627 11997 80000 11176 21195 39320 40308 57001 69942 77172 8807/ 333 11175
AAXX 23121 30703 129// 80000 11154 21167 39594 40304 58001 69972 86077 333 11089
AAXX 23121 36307 12897 83501 11238 21256 39057 48574 57006 69962 8801/ 333 11226 95090
AAXX 23120 44221 119// 80000 11225 21250 38658 40475 57008 60022 77177 8802/ 333 11211
AAXX 23120 44224 119// 40000 11201 21234 38108 40470 54000 69922 70232 84050 333 11166 91110
AAXX 23121 23074 11997 81703 11197 21223 30150 40177 52002 60012 77172 8802/ 333 11167
AAXX 23121 23274 11797 71701 11258 21282 30151 40190 54000 69962 72272 82505 333 11192
AAXX 23121 23383 11997 80000 11342 21371 39857 40256 58003 69942 77172 80007 333 11300
AAXX 23121 23472 11597 80603 11203 21229 30134 40186 53001 60022 77187 885// 333 11164
AAXX 23121 23678 119// 00000 11176 21195 30138 40200 52002 60022 70281 333 11128
AAXX 23121 23884 119// 40000 11158 21177 30136 40213 57003 60012 77171 80006 333 11132
AAXX 23121 23891 11996 80000 11257 21288 39892 57007 69902 77122 8807/ 333 11257
AAXX 23121 24507 119// 50000 11352 21380 39994 40271 57001 69902 70272 85030 333 11335
AAXX 23121 24817 319// 00000 11419 21444 39870 40301 58006 74000 333 11405
AAXX 23121 24908 11998 80000 11281 21312 39893 40258 57004 60012 77177 82037 333 11280
AAXX 23121 29263 11559 82102 11119 21146 30139 40244 57013 69992 78582 8395/ 333 11119
AAXX 23121 29282 11965 82503 11130 21165 30072 40249 57005 69922 77072 8807/ 333 11127
AAXX 23121 29379 11497 82001 11126 21146 30054 40272 57008 69942 78582 889// 333 11124
AAXX 23121 29570 11596 82702 11106 21142 39931 40292 57006 69932 78582 889// 333 11099
AAXX 23121 29698 116// 80000 11125 21138 39752 40289 54000 69942 77172 82471 333 11110
AAXX 23121 30230 11997 80000 11315 21345 39922 40291 57011 69962 77172 82041 333 11314
AAXX 23121 30252 119// 70000 11322 21346 39994 40352 56004 69922 70172 82041 333 11303
AAXX 23121 30309 11994 82301 11128 21141 39720 40264 57003 60012 77372 8802/ 333 11121
AAXX 23121 30328 119// 80000 11238 21263 39845 40311 57008 60022 77172 8802/ 333 11238
AAXX 23121 30521 116// 81201 11225 21243 39748 40316 57009 60022 78587 889// 333 11225
AAXX 23121 30710 11596 80000 11121 21132 39693 40303 56002 69962 72682 85901 333 11085
AAXX 23121 36864 42999 00000 11119 21171 39387 40333 57009
AAXX 23124 65028 12962 70606 10284 20014 39589 40180 60001 80008 333 59006 87280
AAXX 23124 65123 11930 71404 10350 20141 30083 40097 60001 70522 80008 333 59001 87280
AAXX 23124 65125 32958 62804 10330 20097 3//// 40143 80008 333 58005 86280
AAXX 23124 65134 12960 70708 10270 20028 38721 60001 80008 333 59003 87280
AAXX 23124 65232 31450 72305 10327 20205 30735 40106 70522 84208 333 59006 84814 85280
AAXX 23124 65250 42460 73005 10334 20211 30068 40100 86278 333 59005 86817
AAXX 23124 65252 32460 73005 10328 20206 39971 40104 862/8 333 59001 86814
AAXX 23124 65257 32956 72106 10332 20166 3//// 40094 80008 333 59002 87280
AAXX 23124 65271 11940 50906 10325 20074 30014 40111 60001 70522 80008 333 59007 85280
AAXX 23124 71445 16/// /0707 11092 21110 39860 40144 51020 60001 333 11079 21106 4/045 70008 555 10050
AAXX 23124 71916 46/// /3206 11352 21384 39983 40040 50000 6///1 333 11246 21360 7////
AAXX 23124 71464 46/// ///17 10015 39975 40190 53026 6///1 333 10052 20015 7////
AAXX 23124 71351 17/// /2704 11029 21091 69941 7//4/ 333 10024 21063 70004
AAXX 23124 71353 16/// /2715 10008 21097 60001 333 10004 21034 70000
AAXX 23124 71385 46/// /0222 11088 6///1 333 10025 21090 7////
AAXX 23124 71683 46/// /0113 11245 39923 40037 58003 6///1 333 11207 21245 7////
AAXX 23124 71010 16/// /1616 11051 21103 60001 333 10020 21063 7////
AAXX 23124 71257 16/// /1910 11063 21114 60001 333 11029 21088 70019
AAXX 23124 71258 16/// /2119 11003 21098 60001 333 10004 21053 70000
AAXX 23124 71259 16/// /1602 11151 21170 60001 333 11037 21151 70000
AAXX 23124 71274 16/// /1704 11070 21102 60001 333 11004 21097 70000
AAXX 23124 71275 46/// /1407 11046 21082 6///1 333 10001 21084 7////
AAXX 23124 71278 16/// /1708 11078 21100 60001 333 10015 21119 70000
AAXX 23124 71286 16/// /1607 11078 21103 60001 333 10010 21091 70000
AAXX 23124 71287 16/// /2005 11028 21077 60001 333 10015 21062 70000
AAXX 23124 71289 16/// /1915 11037 21092 60001 333 10020 7////
AAXX 23124 71525 16/// /2211 11046 21078 60001 333 10008 21067 70000
AAXX 23124 71526 16/// /2308 11044 21100 60001 333 10020 21067 70000
AAXX 23124 71535 16/// /2419 10024 21123 60001 333 10033 21006 70000
AAXX 23124 71536 16/// /2514 11004 21120 60001 333 10031 21035 70000
AAXX 23124 71599 17/// /1002 11004 21004 39964 40169 58005 60041 7//4/ 333 10093 21008 4/003 70042 555 10030
AAXX 23124 71214 16/// /1905 11069 21109 60001 333 10033 21092 70000
AAXX 23124 71223 16/// /2314 11095 21122 60001 333 10015 21097 70000
AAXX 23124 71227 46/// /1812 11058 21095 6///1 333 11003 21091 7////
AAXX 23123 41150 31558 40804 10199 20139 40177 70500 82501 333 59023 82625 84275
AAXX 23121 10544 01/01 92409 10026 20026 39125 48496 58018 60021 75154 333 44016 55300 60017 96045 96253 96453
BBXX DEGL 23124 99257 30469 41/98 10315 10265 20236 40120 57030 702// 8//// 22214 20402 309// 4//04 5//// 80245
AAXX 23124 71445 16/// /0707 11092 21110 39860 40144 51020 60001 333 11079 21106 4/045 70008 555 10050
AAXX 23124 71916 46/// /3206 11352 21384 39983 40040 50000 6///1 333 11246 21360 7////
AAXX 23124 71257 16/// /1910 11063 21114 60001 333 11029 21088 70019
AAXX 23124 71258 16/// /2119 11003 21098 60001 333 10004 21053 70000
AAXX 23124 71259 16/// /1602 11151 21170 60001 333 11037 21151 70000
AAXX 23124 71274 16/// /1704 11070 21102 60001 333 11004 21097 70000
AAXX 23124 71275 46/// /1407 11046 21082 6///1 333 10001 21084 7////
AAXX 23124 71278 16/// /1708 11078 21100 60001 333 10015 21119 70000
AAXX 23124 71286 16/// /1607 11078 21103 60001 333 10010 21091 70000
AAXX 23124 71287 16/// /2005 11028 21077 60001 333 10015 21062 70000
AAXX 23124 71289 16/// /1915 11037 21092 60001 333 10020 7////
AAXX 23124 71351 17/// /2704 11029 21091 69941 7//4/ 333 10024 21063 70004
AAXX 23124 71353 16/// /2715 10008 21097 60001 333 10004 21034 70000
AAXX 23124 71385 46/// /0222 11088 6///1 333 10025 21090 7////
AAXX 23124 71683 46/// /0113 11245 39923 40037 58003 6///1 333 11207 21245 7////
AAXX 23124 71010 16/// /1616 11051 21103 60001 333 10020 21063 7////
AAXX 23124 71599 17/// /1002 11004 21004 39964 40169 58005 60041 7//4/ 333 10093 21008 4/003 70042 555 10030
AAXX 23124 71214 16/// /1905 11069 21109 60001 333 10033 21092 70000
AAXX 23124 71223 16/// /2314 11095 21122 60001 333 10015 21097 70000
AAXX 23124 71227 46/// /1812 11058 21095 6///1 333 11003 21091 7////
AAXX 23124 71525 16/// /2211 11046 21078 60001 333 10008 21067 70000
AAXX 23124 71526 16/// /2308 11044 21100 60001 333 10020 21067 70000
AAXX 23124 71535 16/// /2419 10024 21123 60001 333 10033 21006 70000
AAXX 23124 71536 16/// /2514 11004 21120 60001 333 10031 21035 70000
AAXX 23124 71464 46/// ///17 10015 39975 40190 53026 6///1 333 10052 20015 7////
BBXX A8EH2 23124 99531 71548 41/96 /0525 10015 20015 49855 58065 76875 8//// 22265 00035 20606 80015
BBXX NWS0003 23124 99539 71665 43/// /0000 10014 21014 49993 5//// 7//// 8//// 222// 0//// 2//// 3//// 4//// 5//// 6//// 8//// ICE /////
BBXX SMGW 23121 99345 71727 43/98 03005 10153 40293 50000 22224 00195 2//// 4////
AAXX 23121 51711 32780 32703 11126 21178 38080 57004 81402 333 05304
AAXX 23121 51730 32970 41402 11065 21130 40433 57006 80002 333 05301
AAXX 23121 52112 32970 00000 11128 21197 40445 57008 333 05252
AAXX 23121 52737 32980 00000 11122 21249 37102 57004 333 00453
AAXX 23121 52787 32980 21603 11155 21219 37051 52005 80002 333 00351
AAXX 23121 53352 32980 01401 11149 21207 40398 52004
AAXX 23121 53593 32970 02702 11074 21196 40332 52010
AAXX 23121 53705 32970 03201 11035 21182 40391 52007 333 00101
AAXX 23121 53863 32970 02002 11027 21154 40355 52014
AAXX 23121 53975 32980 02903 10004 21164 40329 52017
AAXX 23121 54273 11670 72201 11168 21196 40254 52010 69911 70070 875//
AAXX 23121 54324 32970 03603 11047 21196 40261 52020
AAXX 23121 54405 32980 02909 11040 21186 40292 52008
AAXX 23121 54436 32980 02001 11033 21180 40277 52011
AAXX 23121 54808 32961 01401 11027 21072 40286 52013
AAXX 23121 54826 32970 03607 11092 21175 38468 52007
AAXX 23121 54836 32962 02502 11015 21080 40290 52016
AAXX 23121 54863 31958 02702 11005 21104 40252 52004 70500
AAXX 23121 56018 32980 02202 11002 21282 36147 52008 333 00152
AAXX 23121 56021 32980 02202 11084 21337 36045 52005 333 00254
AAXX 23121 57071 32962 02503 10028 21131 40321 52026
AAXX 23124 42027 32596 50000 10058 21021 38426 48514 83514 333 10086 59021
AAXX 23124 42071 31996 00000 10144 20051 40147 70400 333 10185 59020
AAXX 23124 42101 31995 02702 10152 20040 40144 70500 333 10190 59018
AAXX 23124 42111 31996 02302 10144 20066 39343 40120 70500 333 10206 59021
AAXX 23124 42131 32996 22701 10150 20059 40154 80001 333 10197 59017
AAXX 23124 42165 32996 00502 10180 20083 40144 333 10211 59016
AAXX 23124 42182 31994 02704 10160 20051 40142 70400 333 10199 59016
AAXX 23124 42260 31995 23202 10161 20067 40142 70510 82010 333 10202 59012
AAXX 23124 42328 32996 00204 10182 21053 40146 333 10196 59014
AAXX 23124 42339 31995 00000 10216 20045 40125 70500 333 10230 59018
AAXX 23124 42348 31995 01804 10190 20045 40134 70500 333 10227 59017
AAXX 23124 42361 31994 40000 10180 20097 40141 71044 84030 333 10222 59007 84360
AAXX 23124 42369 31995 42704 10190 20077 40133 70500 82031 333 10234 59011 82360 83070
AAXX 23124 42379 31995 40000 10136 20093 40126 71021 83031 333 10163 59018 83360
AAXX 23124 42452 31996 50000 10210 20075 40132 70522 82032 333 10226 59007
AAXX 23124 42475 31594 50000 10184 20131 40144 71022 83520 333 10213 59011 83620 85460
AAXX 23124 42189 NIL
AAXX 23124 68513 36/// /1521 10228 20086 30033 40143 58006 333 10236 20135 91027 555 91014
AAXX 23124 68514 NIL
AAXX 23124 68523 36/// /2907 10290 21041 39096 48529 57013 333 10290 20118 91012 555 91016
AAXX 23124 68527 36/// /0803 10321 20006 39047 48511 57013 333 10321 20178 91007 555 91013
AAXX 23124 68572 NIL
AAXX 23124 68575 16/// /1804 10172 20145 39125 48545 58001 69921 333 10172 20162 91007 555 20002 91020
AAXX 23124 68581 16/// /1404 10186 20172 39402 48546 58001 60041 333 10194 20176 91010 555 20048 91018
AAXX 23124 68583 16/// /2304 10215 20192 30058 40168 58001 60031 333 10220 20204 91009 555 20030 91017
AAXX 23124 68589 16/// /2002 10147 20127 38271 48532 58001 60041 333 10196 20141 91009 555 20042 69965 91023
AAXX 23124 68613 36/// /2510 10227 20112 30050 40164 58005 333 10227 20110 91018 555 91016
AAXX 23124 68647 36/// /1311 10165 20112 38944 48538 58003 333 10170 20126 91016 555 91020
AAXX 23124 68651 16/// /1410 10131 20120 38584 48545 57005 69921 333 10134 20107 91016 555 20002 69925 91023
AAXX 23124 68715 NIL
AAXX 23124 68717 36/// /1604 10277 20088 30009 40148 57016 333 10277 20100 91013 555 91015
AAXX 23124 68723 36/// /2108 10251 20055 39405 48552 57006 333 10254 20134 91017 555 91017
AAXX 23124 68737 36/// /2010 10218 20088 39261 48541 57010 333 10229 20147 91018 555 91018
AAXX 23124 68744 36/// /1716 10198 20108 39112 48528 57008 333 10208 20133 91022 555 91018
AAXX 23124 68747 36/// /1406 10192 20118 39661 48570 58007 333 10203 20162 91010 555 91019
AAXX 23124 68754 36/// /1803 10163 20128 39176 48556 57005 333 10187 20131 91006 555 91021
AAXX 23124 68817 36/// /1814 10224 20107 30168 40180 57008 333 10231 20173 91027 555 91018
AAXX 23124 68821 36/// /1909 10257 20060 39919 40152 58008 333 10258 20112 91014 555 91016
AAXX 23124 68835 36/// /1403 10195 20123 30082 40196 52004 333 10223 20158 91008 555 91019
AAXX 23124 68843 36/// /1206 10184 20143 30097 40196 58000 333 10199 20168 91010 555 91019
AAXX 23124 68849 36/// /1606 10162 20124 39452 48554 58003 333 10162 20129 91009 555 91020
AAXX 23124 68912 36/// /1719 10169 20114 30182 40191 57003 333 10173 20147 91023 555 91019
AAXX 23124 68918 36/// /1712 10207 20109 30176 40194 58003 333 10209 20157 91020 555 91019
AAXX 23124 68921 NIL
AAXX 23124 68925 NIL
AAXX 23124 68926 NIL
AAXX 23124 68935 36/// /2004 10222 20126 30129 40192 58002 333 10231 20145 91011 555 91019
AAXX 23124 67002 32581 32605 10308 20240 30098 40131 83802 333 0//00 58013 82823 92408
AAXX 23124 67009 31575 62818 10310 20245 39984 40102 56016 71792 86900 333 0//00 86820 91920 94976 95836 555 10340
AAXX 23124 67012 32582 32808 10326 20233 30088 40099 57023 83900 333 0//00 81920 83820 94961/4 95811/4
AAXX 23124 67025 31575 20608 10303 20240 30013 40111 57016 70400 82900 333 0//00 82820 81920 94967 95837 555 81640
AAXX 23124 67027 32582 12816 10321 20247 30080 40101 57021 81202 333 0//00 81820 555 81073
AAXX 23124 67045 NIL
AAXX 23124 67072 32581 21008 10310 20254 30125 40128 57018 82903 333 0//00 82820 81920 92428 94996/7 95836/7 555 81075
AAXX 23124 67073 32582 2//// 10318 20222 30087 40113 57018 81905 333 0//00 81823 81923 94961 95831 555 82273
AAXX 23124 67083 32582 60602 10293 20143 38750 48526 57021 86900 333 0//00 85820 81920 94971 94973 95813
AAXX 23124 67095 32481 30608 10308 20255 30122 40128 56010 83802 333 0//00 83817 555 81633 81073
AAXX 23124 67113 32570 5//// 10285 20253 30/// 40/// 5//// 71591 85903 333 0//00 82820 82920 85073 94995/6 95875/6
AAXX 23124 67117 NIL
AAXX 23124 67137 11460 7//04 10259 20197 38899 48505 56013 69971 76011 86903 333 0//10 84817 93917 94991/3/4/8 95811/3/4/8 555 10301 82820 81073
AAXX 23124 67143 32582 1//// 10/// 20/// 30140 401147 57012 81230 333 0//00 81820 92438 555 81360
AAXX 23124 67152 32582 3//// 10296 20244 39213 48528 58006 83200 333 0//00 83820
AAXX 23124 67157 32580 2//// 10/// 20/// 30140 40147 57025 82800 333 0//00 82820 555 81640
AAXX 23124 67161 NIL
AAXX 23124 67197 11465 60804 10280 20238 30123 40133 55001 69951 71796 86900 333 0//11 83817 83917 84633 94965 94966 94967 95875 95876 95877
AAXX 23124 08001 12575 8//// 10140 20096 30226 40308 50003 60001 8457/ 333 92438
AAXX 23124 68514 NIL
AAXX 23124 68572 NIL
AAXX 23124 68715 NIL
AAXX 23124 68921 NIL
AAXX 23124 68925 NIL
AAXX 23124 68926 NIL
AAXX 23121 50548 32980 00701 11309 21350 40294 52012
AAXX 23121 50564 32970 02202 11333 21361 40278 52007
AAXX 23121 51334 11975 12001 11192 21233 40484 57002 69901 70070 80002 333 05452
AAXX 23121 51818 32965 03201 11078 21110 40452 57002 333 05153
AAXX 23121 52378 32980 22205 11076 21198 40396 57001 80002 333 00001
AAXX 23121 53487 32960 03602 11082 21188 40343 52011
AAXX 23121 53502 32980 02704 11064 21204 40398 52004 333 00102
AAXX 23121 53923 32980 03202 11037 21184 40388 52011
AAXX 23121 54049 32970 00402 11182 21261 40267 52011
AAXX 23121 54115 32980 02503 11140 21213 40298 52012
AAXX 23121 54157 32962 00201 11140 21222 40262 52017
AAXX 23121 54186 11670 23202 11161 21189 40239 52002 69901 70070 82500
AAXX 23121 54311 32980 03202 11128 21193 40318 52009
AAXX 23121 54346 32665 40000 11085 21168 40255 52013 84500
AAXX 23121 54377 32970 03605 11137 21194 40252 52005
AAXX 23121 54386 32970 00000 11142 21209 40243 52002
AAXX 23121 54493 32974 01601 11132 21177 40250 52004
AAXX 23121 54587 NIL
AAXX 23121 54715 32965 00401 11012 21122 40281 52013
AAXX 23121 54929 32962 33201 11006 21068 40283 52015 80002
AAXX 23121 54945 32962 22702 10004 21083 40272 52011 80002
AAXX 23121 56065 32980 02201 11148 21236 36635 52008 333 00556
AAXX 23121 57193 32962 02501 10008 21092 40297 52017
AAXX 23121 57290 32963 02902 10047 21110 40306 52019
AAXX 23124 68174 31765 80000 10274 20156 38779 48511 58007 70522 8227/ 333 10283 20178 91001 555 91017
AAXX 23124 68191 36/// /1811 10341 20149 39600 48545 58011 333 10362 20249 91019 555 91010
AAXX 23124 68242 12680 43405 10288 20133 38707 48494 58006 69921 81172 333 10290 20162 91011 555 20002 91015
AAXX 23124 68262 36/// /0705 10291 20136 38691 48505 58011 333 10297 20183 91011 555 91017
AAXX 23124 68263 32680 50406 10268 20141 38478 48503 58009 82170 333 10271 20162 91011 555 91018
AAXX 23124 68267 32570 61116 10230 20141 38246 48512 58010 86100 333 10232 20170 91025 555 91021
AAXX 23124 68289 36/// /0205 10266 20183 39146 48532 57008 333 10276 20193 91008 555 91016
AAXX 23124 68350 36/// /0106 10315 20136 38654 48511 58011 333 10317 20180 91011 555 91018
AAXX 23124 68368 41680 60408 10253 20139 38319 48510 58013 70522 86170 333 20192 555 91020
AAXX 23124 68403 36/// /2125 10234 20096 30120 40152 57015 333 10241 20147 91033 555 91015
AAXX 23124 68424 32982 12306 10324 21014 39186 48537 58002 80002 333 10328 20139 91014 555 91015
AAXX 23124 68438 32782 22908 10322 21042 38789 48496 58008 82130 333 10324 20108 91016 555 91014
AAXX 23124 68442 32782 43210 10289 20113 38641 48498 58011 84200 333 10302 20120 91017 555 91016
AAXX 23124 68461 32680 63405 10255 20122 38317 48497 58008 82200 333 10260 20143 91010 555 91019
AAXX 23124 68512 32982 12607 10249 20032 39015 48523 58002 80002 333 10252 20118 91012 555 91017
AAXX 23124 68538 32782 22612 10285 20029 38699 48491 58013 81102 333 10290 20128 91018 555 91015
AAXX 23124 68587 16/// /2706 10199 20182 30164 40177 58006 60011 333 10203 20186 91010 555 20014 91017
AAXX 23124 68588 16/// /2010 10210 20180 30165 40181 51002 60021 333 10223 20193 91013 555 20020 91018
AAXX 23124 68591 NIL
AAXX 23124 68592 NIL
AAXX 23124 68618 32780 12608 10270 20055 39050 48532 58008 81181 333 10274 20098 91019 555 91017
AAXX 23124 68633 36/// /1809 10227 20078 38503 48498 58007 333 10233 20112 91016 555 91018
AAXX 23124 68668 11435 81904 10162 20142 39335 48550 58002 69961 75122 886// 333 10167 20147 91006 555 20006 91020
AAXX 23124 68714 36/// /2021 10228 20090 30128 40164 57006 333 10241 20098 91029 555 91016
AAXX 23124 68727 36/// /1406 10237 20062 39128 48524 57008 333 10237 20144 91015 555 91016
AAXX 23124 68752 36/// /1409 10184 20149 39513 48566 57003 333 10214 20162 91013 555 91020
AAXX 23124 68816 32682 11726 10212 20111 30130 40184 58006 81500 333 20188 91030 555 91018
AAXX 23124 68828 42570 61513 10200 20121 39961 40194 58006 86500 333 20154 555 91019
AAXX 23124 68842 32480 71810 10204 20122 30128 40198 57002 875// 333 20167 555 91019
AAXX 23124 68858 11965 80703 10182 20170 30041 40198 58004 60042 72122 885// 333 20168 91020
AAXX 23124 68906 31398 72811 10189 20154 30086 40149 55000 75055 8767/ 222// 00129 333 10202 20153 91021 555 91015
AAXX 23124 68994 12598 62711 10087 20023 30013 40042 53002 69921 86500 222// 00070 333 10094 20040 91021 555 20002 91004
AAXX 23124 89004 32880 30809 11034 21079 38870 49868 53001 80008 333 11033 21089 91011 555 90982
AAXX 23124 16344 11/00 90632 11038 21038 38261 48451 51007 60001 74544 333 55300 89/00 95090 95190
BBXX 46206 23121 99488 71260 46/// /2102 10090 40275 52023 22200 00087 11207 70033 333 91204
BBXX 46206 23121 99488 71260 46/// /2102 10090 40275 52023 22200 00087 11207 70033 333 91204
AAXX 23121 38598 49997 00912 10016 21000 40257 57012 333 91017
AAXX 23121 50658 31940 03401 11276 21305 40273 52005 70400
AAXX 23121 50888 32975 02202 11226 21264 40217 57003
AAXX 23121 50983 32970 00202 11214 21266 40220 54000
AAXX 23121 51053 32975 00901 11197 21231 40492 57015 333 05504
AAXX 23121 51542 32980 03601 11293 21326 37618 57003 333 05351
AAXX 23121 52436 32980 02702 11108 21163 38580 40446 57004 333 05251
AAXX 23121 52908 32980 02704 11100 21333 35726 52004 333 00152 91121 91527
AAXX 23121 52996 32975 13403 11116 21199 37618 52005 80002 333 00301
AAXX 23121 53083 32980 03203 11210 21238 40382 52005 333 00004
AAXX 23121 53764 32970 02702 11066 21144 40386 52008
AAXX 23121 53787 32980 02703 11048 21157 40352 52018
AAXX 23121 54096 32965 02905 11202 21260 40218 57008
AAXX 23121 54226 32680 23403 11094 21199 40272 52020 82500
AAXX 23121 54259 32968 03202 11104 21184 40256 52015
AAXX 23121 54527 32960 02903 11013 21163 40275 52013
AAXX 23121 54534 32965 02904 11031 21157 40266 52013
AAXX 23124 68591 NIL
AAXX 23124 68592 NIL
BBXX 46132 23121 99497 71279 46/// /1906 10085 40253 52027 22200 00089 11311 70054 333 91207
BBXX 46205 23121 99542 71343 46/// /2608 10064 40115 52063 22200 00079 11415 70076 333 91210
AAXX 23124 42559 32996 40000 10232 20116 40110 80002 333 10266 59011 84075
AAXX 23124 42571 31996 60000 10208 20101 40125 70500 86030 333 10242 59010
AAXX 23124 42667 31996 10504 10236 20117 39530 40114 70500 81030 333 10280 59011 81360
AAXX 23124 42675 31996 63602 10220 20079 40126 70521 86030 333 10250 59010 86360
AAXX 23124 42754 31996 00205 10244 20093 39479 40108 70500 333 10290 59007
AAXX 23124 42867 31995 41103 10248 20095 40114 70500 84030 333 10291 59009 84360
AAXX 23124 42933 32597 70000 10259 20058 40114 83530 333 10308 59003 83630 86360
AAXX 23124 42779 NIL
AAXX 23124 42874 NIL
AAXX 23124 43041 NIL
BBXX 46132 23121 99497 71279 46/// /1906 10085 40253 52027 22200 00089 11311 70054 333 91207
BBXX 46205 23121 99542 71343 46/// /2608 10064 40115 52063 22200 00079 11415 70076 333 91210
BBXX LEQZ3 23123 99531 11698 41/96 31117 10000 2000/ 40214 52010 70100 22263 02090 20708 41008 80000 NNNN
BBXX ZCBZ4 23123 99076 11167 41698 60911 10290 20255 40084 54000 70322 84444 22254 02275 20201 310// 40403 5//// 80265
AAXX 23124 88900 46/// /2314 10024 20007 39880 49882 53005 333 10034 20019
BBXX A8RW4 23123 99278 50318 41498 40214 10260 20225 40200 52/// 70200 84144 22234 04239 20303 304// 40303 80235
BBXX LAVN4 23124 99244 50409 41798 50621 10255 2021/ 40138 51010 70110 85401 22213 00230 20603 304// 40502 NNNN
BBXX 62141 23123 99493 50591 41597 62535 10098 40084 52010 72122 86362 22200 20607 32121 40504 50607
BBXX V2OG6 23123 99216 50399 41598 30217 10255 20205 40150 52/// 703// 8/24/ 22214 00260 20403 303// 40403 80220
BBXX ZDLP 23123 99522 50502 41/97 52822 10075 20027 49919 57011 70261 83866 22262 04067 20503 328// 40705 5//// 80055
BBXX ZCDD6 23123 99204 50396 41498 60518 10252 20235 40161 53003 70311 8/5// 22254 00260 20504 305// 40504 5//// 80240
BBXX ZCEF3 23124 99294 71293 41298 51015 10160 20103 40276 52004 70211 84778 22264 00180 20501 306// 40704 5//// 80130
BBXX TBWUK19 23124 99536 71577 41/97 40332 10031 20013 49936 7//// 8//7/ 22263 20807 320// 41204 5//// 80024
BBXX LAVD4 23124 99162 71131 41497 50617 10240 2023/ 40130 51002 70222 85263 22273 00265 21004 334// 43605 5//// 6//// 80230 NNNN
BBXX ZCDF4 23123 99183 71039 41/98 /0410 10250 20235 40127 58002 70200 8//// 22235 00260 20301 316// 40803 5//// 80240
BBXX A8IY4 23121 99238 70602 41/98 40708 10240 20210 40235 51008 70311 8246/ 22254 04255 2//02 312// 41002 80220
BBXX A8MH2 23124 99064 31253 41698 62612 10270 20228 40030 51015 70322 8544/ 22224 20302 399// 4//// 5//// 80240
AAXX 23124 89020 46/// /0514 11041 21067 39853 49888 52005 91140
BBXX 41010 23121 99289 70785 46/// /2105 10233 40218 91220 22200 00238 10703 20401 300// 40703 70015 333 91205 555 11048 22051
BBXX 41009 23121 99285 70802 46/// /1806 10241 20205 40216 91220 22200 00242 10702 20501 300// 40701 70009 333 91206 555 11061 22064
AAXX 23124 68183 31670 71403 10332 20155 39406 48535 57015 71799 83972 333 10340 20215 91006 555 91012
AAXX 23124 68188 16/// /2402 10287 20186 39183 48530 58005 69921 333 10287 20200 91004 555 20002 91015
AAXX 23124 68268 16/// /0204 10278 20172 38874 48524 57013 69921 333 10315 20188 91007 555 20002 91017
AAXX 23124 68272 36/// /2402 10287 20165 39062 48523 58006 333 10289 20205 91006 555 91015
AAXX 23124 68296 32/// /1705 1//// 2//// 38913 4//// 58001 333 1//// 2//// 91013 555
AAXX 23124 68322 36/// /3203 10345 21010 39124 48526 57013 333 10349 20153 91007 555 91014
AAXX 23124 68338 32578 50103 10314 20105 38740 48483 57017 85500 333 10321 20144 91008 555 91013
AAXX 23124 68345 36/// /3408 10285 20156 38656 48503 58006 333 10288 20163 91014 555 91017
AAXX 23124 68362 32680 72102 10279 20121 38494 48496 57013 84274 333 10297 20162 91003 555 91018
AAXX 23124 68400 NIL
AAXX 23124 68408 32980 01609 10200 20133 30148 40156 57008 333 10203 20131 91017 555 91015
AAXX 23124 68416 32984 02906 10279 20000 39029 48518 57013 333 10293 20122 91012 555 91015
AAXX 23124 68478 36/// /1406 10235 20156 38878 48524 57014 333 10251 20189 91011 555 91018
AAXX 23124 68488 16/// /1807 10204 20154 39286 48539 57006 60021 333 10207 20183 91013 555 20026 91018
AAXX 23124 68494 16/// /1903 10218 20182 30034 40164 51001 69941 333 10224 20197 91009 555 20004 91016
AAXX 23124 68524 32986 12604 10313 21000 39041 48516 57013 81080 333 10315 20152 91007 555 91014
AAXX 23124 68546 36/// /3303 10272 20123 38640 48490 57017 333 10278 20137 91009 555 91016
AAXX 23124 68558 16/// /1718 10176 20133 38189 48502 57005 69921 333 10203 20095 91024 555 20002 69925 91020
AAXX 23124 68570 NIL
AAXX 23124 68580 NIL
AAXX 23124 68614 32780 12010 10293 20092 30098 40137 57017 81060 333 10306 20146 91019 555 91014
AAXX 23124 68624 32882 30705 10244 20027 38741 48518 57011 83200 333 10258 20116 91011 555 91018
AAXX 23124 68674 NIL
AAXX 23124 68712 32970 01819 10195 20123 30102 40167 57005 333 10199 20128 91023 555 91016
AAXX 23124 68718 NIL
AAXX 23124 68722 32/// /1407 10246 20035 38554 48513 57007 333 10247 20049 91014 555 91019
AAXX 23124 68814 NIL
AAXX 23124 68832 36/// /0708 10211 20052 39210 48539 57010 333 10226 20123 91017 555 91018
AAXX 23124 68916 36/// /0506 10198 20106 39927 40193 57005 333 10199 20150 91016 555 91019
AAXX 23124 68920 NIL
AAXX 23124 68928 36/// /1407 10216 20123 30038 40197 57006 333 10228 20160 91013 555 91020
AAXX 23124 68155 36/// /2602 10311 20158 39171 48523 58010 333 10311 20208 91005 555 91013
AAXX 23124 68171 NIL
AAXX 23124 68176 36/// /2103 10316 20122 39114 48522 58011 333 10317 20216 91008 555 91014
AAXX 23124 68181 NIL
AAXX 23124 68182 36/// /1206 10312 20163 39310 48527 57012 333 10352 20212 91010 555 91012
AAXX 23124 68185 NIL
AAXX 23124 68253 36/// /0000 10274 20185 39034 48517 58007 333 10277 20205 91003 555 91015
AAXX 23124 68255 36/// /3305 10294 20154 38843 48502 57015 333 10294 20185 91011 555 91015
AAXX 23124 68271 36/// /0802 10253 20160 38905 48516 58002 333 10255 20182 91004 555 91016
AAXX 23124 68273 16/// /3505 10252 20159 38455 48508 58007 69921 333 10272 20172 91009 555 20002 91019
AAXX 23124 68287 36/// /1305 10185 20168 38586 48522 57002 333 10235 20157 91008 555 91020
AAXX 23124 68291 36/// /1609 10301 20184 39518 48544 58009 333 10304 20229 91018 555 91013
AAXX 23124 68297 NIL
AAXX 23124 68329 36/// /2105 10353 21034 39069 48528 58010 333 10362 20168 91010 555 91014
AAXX 23124 68331 36/// /2508 10333 21034 38823 48522 58003 333 10342 20157 91016 555 91017
AAXX 23124 68335 36/// /3105 10324 20076 38907 48532 58010 333 10324 20167 91010 555 91017
AAXX 23124 68341 16/// /0304 10294 20142 38522 48507 58008 69941 333 10294 20177 91007 555 20004 91019
AAXX 23124 68342 NIL
AAXX 23124 68343 NIL
AAXX 23124 68349 36/// /3407 10271 20143 38498 48491 58006 333 10276 20181 91011 555 91017
AAXX 23124 68353 16/// /3407 10282 20128 38504 48483 58011 69921 333 10284 20174 91011 555 20002 91016
AAXX 23124 68355 36/// /3205 10298 20121 38559 48495 57013 333 10302 20165 91010 555 91017
AAXX 23124 68370 32680 62310 10269 20203 38367 48511 57015 86200 333 1//// 20194 555 91020
AAXX 23124 68377 36/// /1312 10265 20171 38747 48493 57013 333 10287 20210 91017 555 91015
AAXX 23124 68380 36/// /2706 10204 20163 3//// 4//// 5//// 333 10276 20159 91013 555
AAXX 23124 68387 NIL
AAXX 23124 68411 36/// /3603 10323 20045 39923 40122 58016 333 10329 20182 91007 555 91013
AAXX 23124 68429 36/// /2502 10315 21034 38669 48497 58005 333 10318 20127 91007 555 91016
AAXX 23124 68449 36/// /3610 10268 20115 38375 48484 58010 333 10274 20134 91014 555 91017
AAXX 23124 68471 NIL
AAXX 23124 68474 NIL
AAXX 23124 68479 36/// /1110 10264 20162 38948 48522 58012 333 10268 20202 91017 555 91017
AAXX 23124 68481 NIL
AAXX 23124 68487 16/// /1507 10187 20165 39018 48538 58002 60011 333 10188 20171 91010 555 20010 91020
AAXX 23124 68491 16/// /2108 10231 20208 30132 40141 52001 60011 333 10255 20230 91014 555 20016 91014
AAXX 23124 68497 16/// /2409 10218 20199 30124 40168 54000 60021 333 10228 20214 91014 555 20024 91016
AAXX 23124 82863 21597 71404 10262 20250 39898 40110 70152 86830 333 20229 58003 60074
AAXX 23124 83228 32799 70902 10267 20197 39830 40102 82131 333 20226 59003
AAXX 23124 83368 21698 60902 10244 20213 39746 40110 70362 84204 333 20216 58000 60334
AAXX 23124 83374 32598 82306 10230 20207 39554 40123 885// 333 20222 59002
AAXX 23124 83526 32998 00000 10239 20182 39198 40134 333 20218 58008
AAXX 23124 83117 31196 21301 10260 20233 40127 52012 7010/ 8468/ 222// 02210 20101 80240 333 20220
AAXX 23124 83096 32695 10906 10285 20223 30132 40139 81100 333 20240 58010
AAXX 23124 83186 32598 71407 10253 20195 39591 40117 83518 333 20203 58004
AAXX 23124 83236 32598 61408 10259 20203 39618 40106 84242 333 20220 58003
AAXX 23124 83242 32497 71403 10249 20187 39656 40147 87700 333 20232 58012
AAXX 23124 83288 32798 70000 10252 20202 39632 40120 85079 333 20215 58011
AAXX 23124 83344 32598 70907 10222 20182 39179 40140 84210 333 20161 58013
AAXX 23124 82098 21497 30503 10280 20246 30089 40106 70352 83400 333 20245 58000 69924
AAXX 23124 82106 21194 80000 10240 20237 3//// 4//// 76026 887// 333 20230 5//// 60104
AAXX 23124 82113 32596 63604 10272 20248 3//// 4//// 86200 333 20250 5////
AAXX 23124 82212 21696 80000 10244 20239 30042 40124 70362 887// 333 20230 58008 60064
AAXX 23124 82246 32497 50503 10272 20239 39913 40110 83201 333 20232 59002
AAXX 23124 82336 21196 80502 10240 20233 3//// 4//// 75196 886// 333 20239 5//// 60264
AAXX 23124 82425 21196 80902 10250 20245 3//// 4//// 70262 886// 333 20244 5//// 60154
AAXX 23124 82445 21495 80901 10258 20244 30071 40123 72196 8277/ 333 20245 59007 60284
AAXX 23124 82460 21597 60506 10294 20233 30087 40116 70262 84240 333 20250 58002 60114
AAXX 23124 82533 32297 81802 10250 20232 3//// 4//// 886// 333 20239 5////
AAXX 23124 82562 32598 40504 10271 20225 30005 40113 83201 333 20242 58003
AAXX 23124 82571 22497 60507 10264 20227 39935 40109 86200 333 20240 58001 69914
AAXX 23124 82704 22195 80000 10225 20219 39871 40066 886// 333 20217 59011 60304
AAXX 23124 82723 32998 21802 10254 20238 30022 40110 80001 333 20226 59018
AAXX 23124 82765 21598 70503 10236 20231 39907 40150 75062 82370 333 20225 58005 60054
AAXX 23124 82392 32499 60502 10284 20212 30009 40111 83430 333 20228 58004
AAXX 23124 82583 32599 60913 10283 20204 39779 40113 86200 333 20244 58003
AAXX 23124 82594 32697 51407 10290 20217 30116 40124 83200 333 20236 58009
AAXX 23124 82683 32595 70914 10269 20199 39676 40125 87700 333 20236 58007
AAXX 23124 82780 32598 31410 10304 20209 39879 40128 83200 333 20258 58002
AAXX 23124 82789 21599 71411 10205 20178 39846 40051 70066 84520 333 20173 58011 60124
AAXX 23124 82795 32597 61407 10249 20200 39523 40138 86200 333 20213 58000
AAXX 23124 82879 32598 60909 10296 20196 39853 40115 86100 333 20242 58007
AAXX 23124 82979 32498 40000 10271 20181 39666 40109 83140 333 20244 58003
AAXX 23124 82986 32597 60906 10286 20201 39841 40123 86200 333 20230 58011
AAXX 23124 83179 32598 50506 10282 20180 39661 40101 81141 333 20228 58011
AAXX 23124 83192 21597 71409 10274 20181 39973 40137 70361 85320 333 20212 58001 60014
AAXX 23124 83339 31497 60509 10199 20164 39156 40118 71000 86200 333 20182 58006
AAXX 23124 83498 32595 63603 10271 20228 30166 40171 83230 333 20227 58025
AAXX 23124 83599 31996 099// 10305 20297 40111 51017 70500 80000 222// 02268 20501 80300
AAXX 23124 83650 41698 41007 10260 20233 40205 52010 71522 83530 222// 02250 21004 80240 333 20220
AAXX 23124 83925 32897 40900 10270 20237 40075 54000 7032/ 8709/ 222// 20000 80248 333 20244
AAXX 23124 83970 41396 62403 10270 20243 30080 40084 52020 7012/ 865// 222// 02240 20301 80250 333 20200
AAXX 23124 82042 32598 50504 10265 20231 3//// 4//// 83321 333 20248 5////
AAXX 23124 82141 32698 50507 10294 20243 30096 40108 83210 333 20266 58004
AAXX 23124 82145 32598 40904 10288 20228 30068 40109 84200 333 20191 58001
AAXX 23124 82181 32497 60511 10271 20248 39990 40129 84208 333 20246 59002
AAXX 23124 82198 32495 70709 10292 20234 30061 40112 85260 333 20241 59001
AAXX 23124 82240 32696 60000 10270 20241 3//// 4//// 86900 333 20258 5////
AAXX 23124 82317 21493 80000 10235 20233 3//// 4//// 70296 8196/ 333 20213 5//// 60184
AAXX 23124 82353 32598 63604 10263 20241 39999 40083 84130 333 20234 59004
AAXX 23124 82361 32497 60504 10272 20237 30080 40117 85310 333 20253 58000
AAXX 23124 82476 21595 70505 10271 20237 39995 40114 70362 87500 333 20232 58008 60224
AAXX 23124 82610 22595 80000 10236 20229 3//// 4//// 887// 333 20192 5//// 60084
AAXX 23124 82807 22595 51802 10226 20221 3//// 4//// 85800 333 20224 5//// 60044
AAXX 23124 82861 22597 61804 10261 20233 39903 40072 84230 333 20241 59011 69934
AAXX 23121 31825 11512 80202 11143 21156 39865 40081 56006 60080 77573 8872/ 333 11117
AAXX 23121 31845 11998 52602 11214 21247 30012 40189 57006 69920 70272 82031 333 11184
AAXX 23121 31878 32971 00000 11279 21304 30083 40222 54000 333 11180
AAXX 23121 31915 32998 09901 11207 21274 39929 40217 53002 333 11118
AAXX 23121 31921 32998 02902 11201 21259 30107 40213 50000 333 11137
AAXX 23121 31969 32/// /3002 11121 21240 30151 40203 57002 333 11083
AAXX 23121 31981 32999 02302 11266 21297 39962 40224 58001 333 11159
AAXX 23121 31987 32999 03505 11189 21280 39919 40199 50000 333 11146
AAXX 23121 32069 11598 80703 11013 21068 30070 40075 57014 69900 70282 889// 333 11016 91007 91114
AAXX 23121 30455 NIL
AAXX 23121 30731 114// 81901 11113 21133 39635 40269 54000 60022 77172 8272/ 333 11100
AAXX 23121 30739 329// 81702 11169 21195 39417 40285 57007 84042 333 11157
AAXX 23121 30741 329// 82702 11218 21230 38654 48443 57009 8802/ 333 11200
AAXX 23121 30745 329// 82404 11183 21209 39059 40276 58008 8802/ 333 11181
AAXX 23121 30764 32998 00000 11363 21397 39456 40373 53002 333 11281
AAXX 23121 30829 32984 33002 11166 21192 39578 40310 57004 80001 333 11117
AAXX 23121 30838 11998 22602 11186 21192 39261 40308 57004 69922 70281 82040 333 11128
AAXX 23121 30846 31997 80000 11230 21263 39326 40313 57002 70422 80003 333 11151
AAXX 23121 30859 11998 80000 11304 21334 39408 40347 54000 69902 77171 80007 333 11202
AAXX 23121 30862 32982 02102 11312 21350 39514 40344 58002 333 11278
AAXX 23121 30957 329// 60000 11257 21263 39345 40329 53002 80002 333 11156
AAXX 23121 30975 32998 00901 11374 21415 39615 40365 53005 333 11313
BBXX 51179 23121 99143 51708 46/// ///// 1//// 91203 22200 00287
BBXX 52245 23121 99181 11458 46/// ///// 1//// 91206 22200 00281
BBXX 52248 23121 99135 11448 46/// ///// 1//// 91206 22200 00283
BBXX 52244 23121 99200 11452 46/// ///// 1//// 91207 22200 00269
BBXX 52246 23121 99152 11457 46/// ///// 1//// 91207 22200 00282
BBXX 51173 23121 99260 71739 46/// ///// 1//// 91211 22200 00243
BBXX 51172 23121 99284 71783 46/// ///// 1//// 91214 22200 00221
AAXX 23121 30499 11997 72402 11308 21325 39582 40318 58005 69922 77172 87020 333 11295
AAXX 23121 30683 329// 50000 11292 21322 39581 40302 52006 81044 333 11240
AAXX 23121 30695 11996 83202 11297 21322 39916 40292 51005 69932 77172 82018 333 11256
AAXX 23121 31253 11998 80000 11270 21302 39761 40265 52004 69992 77072 80007 333 11238
AAXX 23121 31295 11999 82702 11289 21314 39766 40272 52003 69922 70272 82037 333 11228
AAXX 23121 31348 11996 80000 11160 21160 30037 40243 54000 69960 77172 8802/ 333 11152
AAXX 23121 31418 11910 83602 11153 21187 39959 40227 57001 60040 77572 8802/ 333 11146
AAXX 23121 31439 11996 80508 11179 21198 30149 40196 58006 60010 77173 8807/ 333 11196 91112
AAXX 23121 31442 32997 00000 11346 21374 39864 40268 52001 333 11251
AAXX 23121 31445 32984 02902 11299 21324 39970 40253 51003 333 11231
AAXX 23121 31474 NIL
AAXX 23121 31521 32974 02601 11304 21321 39930 40256 54000 333 11232
AAXX 23121 31527 32998 00000 11299 21311 39914 40252 51003 333 11220
AAXX 23121 31534 NIL
AAXX 23121 31587 32998 00000 11330 21348 30093 40258 53002 333 11231
AAXX 23121 31632 NIL
AAXX 23121 31702 32998 00000 11327 21365 39874 40255 54000 333 11223
AAXX 23121 31713 32998 11801 11266 21277 30087 40195 58004 81030 333 11161
AAXX 23121 31725 11496 83202 11189 21208 30113 40184 58010 69900 78582 883// 333 11160
AAXX 23121 31801 NIL
BBXX A8FA5 23123 99164 70180 41797 30820 10265 20119 40180 51010 7//00 83166 22284 20501 304// 40804 5//// 80175
BBXX C6CN4 23120 99326 70169 41598 22403 10206 20131 40331 51011 7//00 81390 22200 06120 29901 3//// 4//// 5//// 80160
BBXX C6NI8 23123 99095 70264 41697 70617 10271 20218 40138 54000 70222 87417 22283 04260 20803 314// 41004 5//// 80235
BBXX MINUK03 2312/ 99525 10046 46/// ///// 10085 40129 57004
BBXX MINUK01 2312/ 99571 70021 46/// ///// 10068 40085 52006
AAXX 23121 13492 ///// 5//// 11040
AAXX 23121 13584 NIL
AAXX 23121 13585 11596 80505 11005 21033 39395 40212 52005 69911 77177 8802/
AAXX 23121 13597 42697 83607 10046 21009 30103 40177 51001 885//
AAXX 23121 13598 12597 83604 11010 21053 48448 51001 69931 886//
BBXX A8GA8 23121 99161 10565 413// 10308 10220 20158 40120 52020 701// 811// 22255 2//05 303// 4//03 5//// 80180
BBXX 46181 23121 99538 71288 46/// /2304 10036 40139 52055 22200 00055 10300 70002 333 91205
BBXX A8GH5 23123 99489 70056 41297 73227 10100 20100 40200 54000 76166 8677/ 22254 04120 20404 324// 41007 80100
AAXX 23124 68171 NIL
AAXX 23124 68181 NIL
AAXX 23124 68185 NIL
AAXX 23124 68297 NIL
AAXX 23124 68342 NIL
AAXX 23124 68343 NIL
AAXX 23124 68387 NIL
AAXX 23124 68471 NIL
AAXX 23124 68474 NIL
AAXX 23124 68481 NIL
AAXX 23121 80001 01462 80805 10246 20237 30122 40123 60204 333 20258 31/// 5///0 55076 5622/ 57981 58024 60197 70200 82930 88457
AAXX 23121 80009 31560 30000 10236 20217 30076 40081 70500 81801 333 20234 30/// 50353 55093 560/0 58009 81820
AAXX 23121 80028 NIL
AAXX 23121 80035 31965 10000 10240 20223 30128 40133 7050/ 80030 333 20235 30/// 50390 55082 56/9/ 58009
AAXX 23121 80036 21468 30508 10269 20211 7050/ 83800 333 20266 30/// 50790 55099 560// 83815
AAXX 23121 80063 31430 70000 10246 20240 7102/ 86610 333 20230 30/// 5600/ 86610
AAXX 23121 80084 01457 60000 10250 20238 60034 7412/ 83505 333 20238 31/// 55073 560/9 60002 83612 83270
AAXX 23121 80091 31460 30000 10250 20244 7051/ 81488 333 20246 30/// 50360 55086 56009 81615
AAXX 23121 80094 31465 61801 10192 20183 38801 7052/ 81575 333 20184 30/// 50380 55093 56499 58001 81610 84359
AAXX 23121 80097 NIL
AAXX 23121 80099 31462 70703 10240 20228 39928 40072 7052/ 86836 333 20229 30/// 50630 55089 56999 58001 86815
AAXX 23121 80110 31465 70000 10190 20164 38497 7052/ 83586 333 20182 30/// 55097 56009 59003 83615 86270
AAXX 23121 80112 31220 70000 10146 20136 37898 74122 85681 333 20140 30/// 55095 56999 58002 85705 83358
AAXX 23121 80139 NIL
AAXX 23121 80144 01230 80000 10244 20241 60974 7102/ 8671/ 333 20240 31/// 50480 55042 5600/ 60722 86706 88457
AAXX 23121 80149 NIL
AAXX 23121 80210 NIL
AAXX 23121 80211 NIL
AAXX 23121 80214 31558 62201 10238 20200 39114 7112/ 81270 333 20205 30/// 50640 55099 5605/ 57862 59003 81820 85358
AAXX 23121 80234 32562 70000 10238 20196 39603 40090 83572 333 20226 300// 50570 55083 56339 59007 83623 85359
AAXX 23121 80241 NIL
AAXX 23121 80259 31558 60000 10192 20181 39049 70522 83830 333 20182 30/// 50480 55075 5624/ 58008 83823 83359
AAXX 23121 80398 31260 81901 10244 20234 30017 40112 71721 889// 333 20243 30/// 50580 55088 564// 57961 59004 81905 88607
AAXX 23121 80342 32570 30000 10136 20105 38210 83800 333 20134 30/// 50400 55081 562// 58010 83825
AAXX 23121 80370 12470 60000 10024 20016 69924 81455 333 20014 30/// 50100 55001 56320 81618
AAXX 23121 80398 31260 81901 10244 20234 30017 40112 71721 889// 333 20243 30/// 50580 55088 564// 57961 59004 81905 88607
AAXX 23124 68674 NIL
BBXX 46184 23121 99539 71389 46/// /2110 10058 40069 52014 22200 00064 11214 70072 333 91213
AAXX 23124 91723 NIL
AAXX 23124 91759 11598 20906 10247 20228 40074 58008 60001 71510 82101 333 82820
AAXX 23124 91762 11598 19902 10251 20239 40072 58012 60001 70200 81100 333 81823
AAXX 23124 42634 32995 00506 10222 20106 40124 333 10235 59007
AAXX 23124 42647 31996 00000 10276 20151 40115 70400 333 10294 59002
AAXX 23124 42737 32996 03608 10254 20108 40115 333 10276 59006
AAXX 23124 42840 32996 03402 10258 20175 40112 333 10321 59004
AAXX 23124 42909 32997 03605 10282 20101 40109 222// 20000 333 10310 58000
AAXX 23124 42921 32996 40901 10264 20078 40135 84060 333 10280 58001
AAXX 23124 43003 31595 50205 10288 20178 40097 70400 82530 333 10337 59003 82620 84360
AAXX 23124 43014 32596 70902 10260 20120 39460 40098 84530 333 10288 59001 84620 86360
AAXX 23124 43063 32797 70000 10266 20101 39481 40096 87030 333 10287 58004 87358
AAXX 23124 43110 31896 73204 10282 20186 40099 70544 87030 333 10336 58006 87356
AAXX 23124 43117 32597 60000 10294 20124 40087 81550 333 10311 59001
AAXX 23124 43192 31596 32305 10300 20186 40087 70522 81432 333 10338 58001
AAXX 23124 41895 31950 20000 10147 20130 30095 40118 70510 80001 333 10185 56009 59020 70000 82082
AAXX 23124 41929 31430 63203 10146 20130 30105 40115 71040 85540 333 10166 56790 59016 70000 85616
AAXX 23121 24856 11998 80201 11404 21432 30220 40402 58004 69952 70272 80001 333 11395
AAXX 23121 30679 NIL
AAXX 23121 30686 NIL
AAXX 23121 30961 32999 00000 11307 21324 39466 40351 54000 333 11267
AAXX 23121 30971 32999 02101 11376 21419 39246 40382 52005 333 11230
AAXX 23121 30978 32999 00501 11342 21378 39575 40352 51002 333 11255
AAXX 23121 31513 31996 00000 11298 21309 30000 40252 51003 70400 333 11255
AAXX 23121 31624 NIL
AAXX 23121 31832 32968 80000 11240 21272 30110 40204 57003 83032 333 11152
AAXX 23121 31913 NIL
AAXX 23121 32128 11497 70202 11013 21023 39890 49941 56003 60080 78583 87300 333 11007 91006 91111
BBXX A8GA8 23121 99161 10565 413// 10308 10220 20158 40120 52020 701// 811// 22255 2//05 303// 4//03 5//// 80180
BBXX C6NI8 23123 99095 70264 41697 70617 10271 20218 40138 54000 70222 87417 22283 04260 20803 314// 41004 5//// 80235
BBXX A8FA5 23123 99164 70180 41797 30820 10265 20119 40180 51010 7//00 83166 22284 20501 304// 40804 5//// 80175
BBXX A8KM8 23123 99390 11521 41/97 83129 10070 40040 54000 7//// 8//// 22224 2//// 399// 4////
BBXX C6CN4 23120 99326 70169 41598 22403 10206 20131 40331 51011 7//00 81390 22200 06120 29901 3//// 4//// 5//// 80160
BBXX A8YW2 23124 99004 30889 41397 82623 10280 20239 40060 55020 70322 85770 22214 00270 20102 326// 40903 80250
BBXX BATFR19 23124 99066 30057 46/// /1717 10239 20187 40131 58018 22200 00254
BBXX SHIP 23124 99104 31056 41/97 62208 10286 20275 49977 70322 222// 0//// 20201 301// 40201 5////
BBXX BATEU07 23124 99115 31066 46/// /2514 10279 40056 53013 22284
BBXX BATFR56 23124 99139 30668 46/// /1226 10262 20259 40079 56015 22213 00289
BBXX ZCDE3 23123 99141 30917 41398 71328 10255 20221 40035 57010 75022 85774 22213 00280 20404 31612 40605 50504 80232
BBXX ONDY 23124 99313 30348 41698 81729 10250 2019/ 40170 52020 70222 88/7/ 22213 00254 2//// 3//// 4//// 5//// 6//// 80210 /////
BBXX TBWUK18 23124 99335 30090 41/98 21807 10186 20111 40234 57005 70200 80008 22222 00190 20201 318// 40703 5//// 80145
BBXX BATFR08 23124 99335 30721 46/// /1707 10177 20087 40275 56011 22273 00189
BBXX DBBT 23121 99339 30184 46/// /1409 10208 20104 40176 57011 22230 00162
BBXX A8KH9 23124 99350 30233 41498 31212 10180 20148 40175 54000 70300 83200 22224 20402 32200 41208 5//// 80160
BBXX DPRB 23121 99304 11226 41/97 /3403 10060 21012 40265 54000 70211 8//// 22200 20504 309// 40605 5//// 80030
BBXX UGSN 23121 99505 11418 42/98 /0216 11037 40117 57031 22233 00009 2//// ICE 31091
AAXX 23121 56671 32980 00204 10059 21017 38220 52039 333 00653
AAXX 23121 57378 31956 00000 10065 21052 40319 52019 70500
AAXX 23121 57426 31758 72001 10074 20027 40323 52026 71000 875// 333 00501
AAXX 23121 57476 32960 00000 10030 20011 40319 52022
AAXX 23121 57584 31958 00202 10064 21033 40323 52021 70500
AAXX 23121 57598 31957 01101 10028 21023 40311 52021 70500
AAXX 23121 57655 32960 83601 10052 21022 40320 52018 8807/
AAXX 23121 57713 NIL
AAXX 23121 57776 32665 73604 11048 21066 40332 52014 875//
AAXX 23121 58321 31958 02501 10001 21047 40306 52016 71000
AAXX 23121 58437 32980 03411 11083 21179 38167 52005
AAXX 23121 58445 NIL
AAXX 23121 58556 32965 03402 10029 21050 40284 52011
AAXX 23121 58569 32975 03404 10035 21040 40274 52014
AAXX 23121 58646 32962 00000 10051 21058 40280 52020
AAXX 23121 58653 NIL
AAXX 23121 58660 NIL
AAXX 23121 58715 31950 20201 10048 21042 40294 52013 70500 82040
AAXX 23121 58730 32965 00403 10059 21024 40282 52021
AAXX 23121 58731 32965 23603 10049 21015 40283 52021 82040
AAXX 23121 58754 32962 03401 10074 20002 40265 52024
AAXX 23121 58911 31558 72902 10074 21023 40275 52021 70600 8354/
AAXX 23121 58931 31/00 90207 11025 21025 38367 52013 74944
AAXX 23121 59254 31757 83601 10133 20039 40249 52024 70500 885//
AAXX 23121 59632 31757 70203 10140 20038 40235 52020 70500 875//
AAXX 23121 59855 32568 83602 10184 20141 40193 52015 888//
BBXX 46004 23121 99509 71361 46/// /2008 10072 40159 52014 22200 00075 11615 70076 333 91211
AAXX 23121 01199 11450 81712 11019 21025 39409 49869 57035 6//// 77273 8672/ 333 91116
AAXX 23124 89528 46/// /3631 4//// 5////
AAXX 23124 89628 46/// /3131 4//// 5////
AAXX 23124 43086 NIL
AAXX 23124 43128 NIL
AAXX 23124 43150 NIL
AAXX 23124 43185 NIL
AAXX 23124 43189 NIL
AAXX 23124 43198 NIL
AAXX 23124 43201 NIL
AAXX 23124 43213 NIL
AAXX 23124 43226 NIL
AAXX 23124 43233 NIL
AAXX 23124 43237 NIL
AAXX 23124 43245 NIL
AAXX 23124 43279 NIL
AAXX 23124 43284 NIL
AAXX 23124 43295 NIL
AAXX 23124 43311 NIL
AAXX 23124 43314 NIL
AAXX 23124 43321 NIL
AAXX 23124 43329 NIL
AAXX 23124 43344 NIL
AAXX 23124 43346 NIL
AAXX 23124 43353 NIL
AAXX 23124 43369 NIL
AAXX 23124 43371 NIL
BBXX 46004 23121 99509 71361 46/// /2008 10072 40159 52014 22200 00075 11615 70076 333 91211
AAXX 23121 45032 36/// /0104 10120 20036 30210 40227 52002
AAXX 23121 45035 36/// /0605 10122 20062 30182 40226 52002
AAXX 23121 45039 36/// /0206 10128 20051 30205 40221 52001
AAXX 23121 45044 36/// /0207 10135 20066 30121 40217 52003
AAXX 23121 45032 36/// /0104 10120 20036 30210 40227 52002
AAXX 23121 45035 36/// /0605 10122 20062 30182 40226 52002
AAXX 23121 45039 36/// /0206 10128 20051 30205 40221 52001
AAXX 23121 45044 36/// /0207 10135 20066 30121 40217 52003
AAXX 23124 48352 31956 20902 10241 20159 39931 40133 52022 70510 80005 333 10297 58003
AAXX 23124 71067 16/// ///// 11042 21102 60001 333 10008 21086 70000
AAXX 23124 71888 16/// ///// 11073 21106 60001 333 11003 21096 70006
AAXX 23124 71895 16/// ///// 11042 21095 60001 333 21119 7////
AAXX 23124 71461 16/// /2411 10034 21074 60001 333 10025 21034 70000
AAXX 23124 71468 16/// /2007 11102 21119 39895 40229 56016 60001 333 21111 70000
AAXX 23124 71483 17/// ///// 11041 21076 69941 7//4/ 333 10031 21096 70004
AAXX 23124 71359 16/// /1403 11087 21103 60001 333 10018 21095 70000
AAXX 23124 71405 16/// ///// 11064 21095 60001 333 10008 21097 70000
AAXX 23124 71417 16/// /2910 11055 21078 30092 40127 51024 60001 333 10007 21055 70000
AAXX 23124 71426 46/// /0417 11062 6///1 333 10019 21064 7////
AAXX 23124 71673 16/// ///// 11054 21108 60001 333 10016 21103 70000
AAXX 23124 71690 16/// ///// 11053 21082 60001 333 10017 21083 70004
AAXX 23124 71011 16/// ///// 11070 21114 60001 333 11012 21093 70000
AAXX 23124 71049 16/// /0305 11305 30083 40108 58003 60001 333 11252 21314 70000
AAXX 23124 71500 16/// /2303 11006 21092 60001 333 10030 21035 70000
AAXX 23124 71504 46/// ///// 11013 21099 6///1 333 10013 21101 7////
AAXX 23124 71541 16/// /2209 11017 21060 60001 333 10012 21051 70005
AAXX 23124 71543 16/// /2711 10020 21055 60001 333 10007 21108 70000
AAXX 23124 71546 16/// /2311 10028 21066 60001 333 10042 21038 70000
AAXX 23124 71547 16/// /2211 10004 21072 60001 333 10013 21062 70000
AAXX 23124 71788 16/// /2208 11006 21095 60001 333 10028 21028 70000
AAXX 23124 71792 16/// ///// 11003 21096 60001 333 11008 21076 70000
AAXX 23124 71400 16/64 /3101 11053 21055 60001 333 10030 21053 70021
AAXX 23124 71221 16/// /2410 10016 21052 60001 333 21086 70000
AAXX 23124 71226 16/// /2408 10030 21055 60001 333 10032 21052 70000
AAXX 23124 71229 46/// /2316 10032 21055 6///1 333 11005 21063 4/001 7////
AAXX 23124 71332 16/// /0505 11195 21216 30007 40037 58015 60001 333 11165 21195 4/012 70000
AAXX 23124 71283 16/// /2210 10006 21068 60001 333 10021 21045 70000
BBXX 44059 23121 99368 70763 46/// /3104 1//// 91220 333 91207
BBXX 44059 23121 99368 70763 46/// /2903 1//// 40137 91210 333 91207
BBXX 44059 23121 99368 70763 46/// /2903 10203 40131 53036 91200 22200 00116 333 91208
BBXX 44057 23121 99395 70761 46/// /3405 1//// 91220 333 91206
BBXX 44057 23121 99395 70761 46/// /3405 1//// 40141 91210 333 91207
BBXX 44057 23121 99395 70761 46/// /3405 10086 40139 53054 91200 22200 00062 333 91207
BBXX 44058 23121 99376 70763 46/// /3407 1//// 91220 333 91209
BBXX 44058 23121 99376 70763 46/// /3407 1//// 40152 91210 333 91209
BBXX 44058 23121 99376 70763 46/// /3307 10120 40147 53058 91200 22200 00097 10301 70005 333 91211
BBXX 46232 23121 99325 71174 46/// ///// 1//// 91208 22200 00150 11302 21001 327// 41302 70009
BBXX 46247 23121 99378 71228 46/// ///// 1//// 91221 22200 00118 11303 20902 328// 41302 70013
BBXX 46246 23121 99500 71451 46/// ///// 1//// 91229 22200 00072 11109 20807 327// 41105 70043
BBXX 46246 23121 99500 71451 46/// ///// 1//// 91159 22200 00072 11009 21007 326// 41105 70046
AAXX 23121 56144 32980 00201 10035 21224 36815 52019 333 00352
AAXX 23121 56152 32980 02501 11050 21188 36283 52016 333 00301
AAXX 23121 56167 32980 00000 10010 21164 37030 52028 333 00251
AAXX 23121 56182 32980 02203 11030 21122 37222 52026 333 00652
AAXX 23121 56357 32980 01401 10008 21237 36426 52017 333 00000
AAXX 23121 56586 11460 83602 11014 21041 38115 52026 69901 77077 885// 333 00652
AAXX 23121 56748 32980 02502 10127 20034 38336 52016 333 00000
AAXX 23121 56763 32980 01404 10200 20037 40105 52027 333 00200
AAXX 23121 56768 32980 01803 10123 20070 38173 52018 333 00100
AAXX 23121 56838 32670 20000 10158 20125 40134 52011 81402 333 00051
AAXX 23121 56886 32760 80405 10032 20011 38337 52030 884// 333 00451
AAXX 23121 56946 32980 00000 10154 20074 40155 52017 333 00001
AAXX 23121 56959 32770 62501 10195 20162 40133 52019 86400 333 05101
AAXX 23121 56969 32660 70000 10181 20152 40156 52022 874// 333 05102
AAXX 23121 57731 32763 83401 10065 21005 40319 52022 885// 333 00400
AAXX 23121 57766 32760 82501 10077 21038 40315 52019 885//
AAXX 23121 57845 32960 83402 10056 21022 40314 52023 8807/
AAXX 23121 57853 31756 82201 10063 21031 40319 52017 70500 885//
AAXX 23121 57916 32661 81401 10067 20042 40305 52022 885// 333 00552
AAXX 23121 57922 32661 73601 10022 21019 40324 52022 875// 333 00400
AAXX 23121 57932 32661 80000 10067 20020 40317 52026 885// 333 00451
AAXX 23121 58338 32961 02201 10020 21041 40293 52012
AAXX 23121 59007 11665 80202 10042 20012 40284 52027 69901 70060 885//
AAXX 23121 59046 31756 83203 10088 20012 40286 52027 70500 885//
AAXX 23121 59058 31850 83403 10095 21012 40273 52027 70500 885//
AAXX 23121 59072 31756 83602 10085 21013 40284 52020 70500 885//
AAXX 23121 59087 32760 70703 10114 20016 40247 52021 875//
AAXX 23121 59209 11462 82902 10072 20029 40270 52022 69901 70060 888//
AAXX 23124 71400 16/64 /3101 11053 21055 60001 333 10030 21053 70021
BBXX 46146 23121 99493 71237 46/// /1209 10055 40296 52020 22200 00066 10402 70008 333 91211
BBXX 46146 23121 99493 71237 46/// /1209 10055 40296 52020 22200 00066 10402 70008 333 91211
BBXX 46243 23121 99462 71241 46/// ///// 1//// 91229 22200 00081 11404 20503 327// 41403 70021
BBXX 46236 23121 99368 71219 46/// ///// 1//// 91220 22200 00124 11303 21002 328// 41302 70014
BBXX 46229 23121 99438 71246 46/// ///// 1//// 91221 22200 00097 11403 21001 329// 41402 70014
BBXX 46225 23121 99329 71174 46/// ///// 1//// 91214 22200 00143 11301 21001 325// 41301 70006
BBXX 46213 23121 99403 71247 46/// ///// 1//// 91224 22200 00099 11203 21002 328// 41202 70015
BBXX 46215 23121 99352 71209 46/// ///// 1//// 91208 22200 00133 11303 20802 327// 41302 70013
AAXX 23124 87563 32965 20510 10192 20060 30093 40136 53033 820340 333 10245 20088 56060 82360
BBXX VCXF 23124 99464 70484 41296 83023 10016 2001/ 40140 52048 71022 887// 22200 02024 20504 320// 40806 80015
BBXX 44258 23121 99445 70634 46/// /0704 10016 40167 57015 22200 00064 11105 70023 333 91205
AAXX 23124 48001 31310 02701 10140 20107 40126 70500 333 10210 58004
AAXX 23124 48004 32520 30000 10189 20159 84801 333 10252 56808
AAXX 23124 48008 32540 50000 10200 20150 40109 83430 333 10265 56330 59012
AAXX 23124 48010 32510 30000 10210 20195 40085 81501 333 10265 56509 59032
AAXX 23124 48018 32340 60000 10217 20173 40096 84810 333 10283 56550 59013
AAXX 23124 48019 32550 20000 10208 20160 40117 80001 333 10265 56004 59003
AAXX 23124 48020 32470 20000 10200 20150 82800 333 10250 56700
AAXX 23124 48025 32356 52701 10208 20175 40112 83840 333 10263 56440 59011
AAXX 23124 48035 31510 50000 10190 20139 40114 70522 83530 333 10245 56590 58019
AAXX 23124 48037 32540 30000 10235 20174 40097 82502 333 10279 56909 59008
AAXX 23124 48042 32557 50000 10245 20205 40105 81402 333 10283 56909 59003
AAXX 23124 48045 32558 60000 10146 20135 81106 333 10192 56909
AAXX 23124 48048 32540 70000 10230 20181 40099 85976 333 10274 56990 59006
AAXX 23124 48053 32550 70000 10250 20167 40094 83556 333 10280 56699 59011
AAXX 23124 48057 32939 42201 10190 20118 80006 333 10244 56009
AAXX 23124 48060 32410 60000 10210 20143 40107 83120 333 10243 56560 58009
AAXX 23124 48062 31557 72701 10250 20160 40095 71022 82836 333 10260 56699 59012
AAXX 23124 48071 32956 23203 10245 20205 40105 80006 333 10268 56009 59018
AAXX 23124 48077 31956 20000 10270 20172 40095 70511 80001 333 10314 56009 59006
AAXX 23124 48078 32550 23201 10266 20166 40093 81201 333 10315 56909 59014
AAXX 23124 48080 32556 30000 10280 20203 40096 82570 333 10335 56990 59011
AAXX 23124 48094 32950 00000 10255 20230 40089 333 10312 59013
AAXX 23124 48097 32956 20401 10270 20201 40106 80001 333 10342 56009 58002
AAXX 23124 48108 31596 50901 10290 20215 40086 70522 82205 333 10347 56209 59021
AAXX 23124 48109 32496 70402 10280 20233 40084 82571 333 10319 56999 59013
AAXX 23124 48110 31596 53204 10285 20217 40075 705// 81406 333 10320 56909 59020
AAXX 23124 48112 31597 60405 10272 20220 40064 70522 82846 333 10305 56199 59014
AAXX 23124 48001 31310 02701 10140 20107 40126 70500 333 10210 58004
AAXX 23124 48004 32520 30000 10189 20159 84801 333 10252 56808
AAXX 23124 48008 32540 50000 10200 20150 40109 83430 333 10265 56330 59012
AAXX 23124 48010 32510 30000 10210 20195 40085 81501 333 10265 56509 59032
AAXX 23124 48018 32340 60000 10217 20173 40096 84810 333 10283 56550 59013
AAXX 23124 48019 32550 20000 10208 20160 40117 80001 333 10265 56004 59003
AAXX 23124 48020 32470 20000 10200 20150 82800 333 10250 56700
AAXX 23124 48025 32356 52701 10208 20175 40112 83840 333 10263 56440 59011
AAXX 23124 48035 31510 50000 10190 20139 40114 70522 83530 333 10245 56590 58019
AAXX 23124 48037 32540 30000 10235 20174 40097 82502 333 10279 56909 59008
AAXX 23124 48042 32557 50000 10245 20205 40105 81402 333 10283 56909 59003
AAXX 23124 48045 32558 60000 10146 20135 81106 333 10192 56909
AAXX 23124 48048 32540 70000 10230 20181 40099 85976 333 10274 56990 59006
AAXX 23124 48053 32550 70000 10250 20167 40094 83556 333 10280 56699 59011
AAXX 23124 48057 32939 42201 10190 20118 80006 333 10244 56009
AAXX 23124 48060 32410 60000 10210 20143 40107 83120 333 10243 56560 58009
AAXX 23124 48062 31557 72701 10250 20160 40095 71022 82836 333 10260 56699 59012
AAXX 23124 48071 32956 23203 10245 20205 40105 80006 333 10268 56009 59018
AAXX 23124 48077 31956 20000 10270 20172 40095 70511 80001 333 10314 56009 59006
AAXX 23124 48078 32550 23201 10266 20166 40093 81201 333 10315 56909 59014
AAXX 23124 48080 32556 30000 10280 20203 40096 82570 333 10335 56990 59011
AAXX 23124 48094 32950 00000 10255 20230 40089 333 10312 59013
AAXX 23124 48097 32956 20401 10270 20201 40106 80001 333 10342 56009 58002
AAXX 23124 48108 31596 50901 10290 20215 40086 70522 82205 333 10347 56209 59021
AAXX 23124 48109 32496 70402 10280 20233 40084 82571 333 10319 56999 59013
AAXX 23124 48110 31596 53204 10285 20217 40075 705// 81406 333 10320 56909 59020
AAXX 23124 48112 31597 60405 10272 20220 40064 70522 82846 333 10305 56199 59014
BBXX 42361 23121 99276 70925 46/// ///11 10189 20139 40207 53011 91230 333 91213 555 11086 22092
BBXX 44062 23121 99386 70764 46/// /3208 1//// 91220 22200 00087 333 91210
BBXX 44062 23121 99386 70764 46/// /3208 1//// 40135 91210 22200 00087 333 91210
BBXX 44062 23121 99386 70764 46/// /3309 10093 40132 53059 91200 22200 00087 10301 70004 333 91211
BBXX 44063 23121 99390 70764 46/// /3206 1//// 91220 333 91209
BBXX 44063 23121 99390 70764 46/// /3206 1//// 40166 91210 333 91207
BBXX 44063 23121 99390 70764 46/// /3306 10091 40165 52054 91200 22200 00086 1//00 70002 333 91208
BBXX 44041 23121 99372 70768 46/// /3407 1//// 91220 333 91208
BBXX 44041 23121 99372 70768 46/// /3407 1//// 40180 91210 333 91208
BBXX 44041 23121 99372 70768 46/// /3407 10133 40177 53057 91200 22200 00102 1//00 70001 333 91209
BBXX 44042 23121 99380 70763 46/// /3308 1//// 91220 333 91209
BBXX 44042 23121 99380 70763 46/// /3308 1//// 40154 91210 333 91210
BBXX 44042 23121 99380 70763 46/// /3208 10105 40150 51070 91200 22200 00094 10301 70006 333 91209
BBXX 44043 23121 99392 70764 46/// /3205 1//// 91220 333 91207
BBXX 44043 23121 99392 70764 46/// /3206 1//// 40145 91210 333 91207
BBXX 44043 23121 99392 70764 46/// /3206 10092 40142 53056 91200 22200 00077 10201 70004 333 91207
BBXX 44100 23121 99363 70756 46/// ///// 1//// 91222 22200 00124 10703 20703 70014
BBXX 41110 23121 99341 70777 46/// ///// 1//// 91221 22200 00142 10803 20803 70014
BBXX 42099 23121 99273 70842 46/// ///// 1//// 91227 22200 00230 10502 20502 70010
BBXX 41113 23121 99284 70805 46/// ///// 1//// 91221 22200 00218 10602 20601 309// 41101 70008
BBXX 41112 23121 99307 70813 46/// ///// 1//// 91221 22200 00167 10502 20502 311// 41101 70009
BBXX VCXF 23124 99464 70484 41296 83023 10016 2001/ 40140 52048 71022 887// 22200 02024 20504 320// 40806 80015
BBXX 44258 23121 99445 70634 46/// /0704 10016 40167 57015 22200 00064 11105 70023 333 91205
BBXX 42013 23121 99272 70829 46/// ///// 1//// 40205 91140 22200 00202
BBXX 44099 23121 99369 70757 46/// ///// 1//// 91222 22200 00114 10602 20602 70012
BBXX 44039 23121 99411 70727 46/// /0107 10080 20076 40120 91153 22200 00094 10201 70005 333 91209
AAXX 2312/ 89314 46/// ///// 11050 38243 4//// 5////
BBXX 46219 23121 99332 71199 46/// ///// 1//// 91228 22200 00134 11104 21002 330// 41103 70018
BBXX 46224 23121 99332 71175 46/// ///// 1//// 91206 22200 00145 11801 21001 321// 41801 70006
BBXX 46214 23121 99379 71235 46/// ///// 1//// 91223 22200 00117 11103 21002 329// 41102 70015
AAXX 23124 96009 01420 80503 10244 20238 30034 40069 52020 60411 79596 8592/ 333 10300 56009 57902 57803 58003 60417 82915 83816 85460 80965 80860
AAXX 23124 96011 01459 70000 10252 20242 30043 40069 52015 60171 76166 83921 333 10328 56000 57901 59013 60027 82918 83619 809//
AAXX 23124 96035 01456 80000 10252 20239 30034 40072 52019 60021 76162 86978 333 10306 56000 57900 60027 81917 85617 80900
AAXX 23124 96073 01410 70000 10238 20235 30067 40078 52019 60731 76162 83972 333 10310 56000 57901 60677 83910 80960
AAXX 23124 96091 32460 60205 10269 20249 30045 40068 53012 84871 333 10291 56000 57803 59017 81613 83817 80860
AAXX 23124 96109 01440 83004 10246 20236 30017 40056 52016 60231 72996 83872 333 10332 56000 57802 59014 60097 82615 80840
AAXX 23124 96145 01420 80106 10262 20241 30058 40060 51005 60031 72162 8552/ 333 10286 56809 59015 60037 85616 88460
AAXX 23124 96147 31456 43615 10260 20245 30078 40085 51003 70511 82531 333 10296 56000 58002 82616
AAXX 23124 96163 01458 80000 10260 20248 30060 40063 52024 60071 72162 8452/ 333 10309 56009 59009 60057 84616
AAXX 23124 96179 11460 73408 10269 20250 30026 40063 52012 60031 70262 84238 333 10317 56800 57882 59013 84817 80840
AAXX 23124 96195 NIL
AAXX 23124 96221 32460 70000 10278 20246 30042 40057 52023 84236 333 10318 56999 57893 59011 84815 80858
AAXX 23124 96237 32457 83303 10275 20241 30013 40055 51015 83278 333 10322 56000 57803 59014 83816 84360 87280 80860
AAXX 23124 96249 32560 73005 10270 20250 39999 40060 52019 84232 333 10308 56600 57861 59012 84820 80863
AAXX 23124 96253 31458 73109 10288 20253 30018 40039 52025 71322 83972 333 10318 56000 57900 57800 59010 81915 82820 83460
AAXX 23124 96295 32460 60000 10262 20232 39955 40058 51014 84521 333 10326 56000 59009 84618
AAXX 23124 96509 32457 30000 10279 20254 30047 40058 52017 81131 333 10321 56000 59003 81815
AAXX 23124 96581 32458 70104 10268 20254 30060 40068 52029 84131 333 10324 56100 59001 84812 80860
AAXX 23124 96633 NIL
AAXX 23124 96645 01430 80000 10248 20247 30025 40057 52018 60111 71696 86972 333 10306 56000 57902 59010 69937 81912 86612 80982
AAXX 23124 96655 01456 82308 10240 20232 30048 40083 52013 60101 76162 86572 333 10306 56000 60077 86612
AAXX 23124 96685 12459 60603 10242 20239 30039 40065 53012 60031 80511 333 10278 56000 59010 82080
AAXX 23124 96749 31557 72707 10274 20233 30040 40054 51024 72992 84972 333 10316 56000 57990 57890 59012 81920 83821 85461
AAXX 23124 96781 NIL
AAXX 23124 96805 32558 62405 10288 20251 30053 40062 51016 83271 333 10324 56000 57801 59007 83820 80858
AAXX 23124 96839 32457 70000 10294 20251 30041 40048 52016 83936 333 10322 56000 57902 59015 81919 83820 80980
AAXX 23124 96935 11558 72304 10266 20238 30047 40054 51020 69901 71396 83972 333 10329 56000 57901 59007 69907 81920 82820 84080 80975
AAXX 23124 96001 01440 81012 10244 20238 39933 40081 51012 60081 76166 85522 333 10288 56200 59005 60087 85618
AAXX 23124 96015 01410 80000 10240 20237 30068 40075 51014 60381 76066 8652/ 333 10294 56009 58013 60087 86610 88456
AAXX 23124 96033 NIL
AAXX 23124 96075 01420 83606 10244 20241 30059 40065 52009 60190 76166 8692/ 333 56009 57901 58002 60177 82915 84617 86462 80965
AAXX 23124 96087 31459 70312 10274 20245 30030 40063 51014 70292 83538 333 10296 56100 59016 83615 84360 87280
AAXX 23124 96171 11450 70000 10274 20242 30034 40059 53015 60041 70562 84922 333 10324 56000 59014 81912 83613 80958
AAXX 23124 96207 NIL
AAXX 23124 96525 32458 60000 10278 20260 30055 40062 52020 83471 333 10320 56000 58004 83615
AAXX 23124 96529 32556 30000 10258 20249 30055 40079 51016 82131 333 10294 56000 58000 82820
AAXX 23124 96535 32458 71302 10268 20250 30098 40118 52061 84231 333 10324 56000 57802 58038 84815 86362 80865
AAXX 23124 96557 01456 60000 10277 20259 30008 40057 52020 60021 70262 85921 333 10318 56400 57940 57840 58001 60027 82912 83813 85460 80980 80857
AAXX 23124 96559 31450 50000 10282 20256 30034 40072 53015 71322 83930 333 10315 56000 57903 57801 58008 81914 82811 84362 80974 80857
AAXX 23124 96565 31456 70000 10270 20262 30019 40071 52013 70522 83221 333 10304 56000 57802 58010 83810 84457 80850
AAXX 23124 96595 31457 70000 10261 20240 30020 40072 52020 71422 87532 333 10320 56000 59001 87610
AAXX 23124 96607 32458 50000 10272 20248 30056 40071 52014 83421 333 10300 56000 58002 83615
AAXX 23124 96615 NIL
AAXX 23124 96695 31457 50000 10276 20251 30047 40053 51018 71322 84931 333 10316 56000 57902 59010 81915 83618 80975
AAXX 23124 96737 32458 62905 10304 20231 30012 40042 53015 84271 333 10338 56000 59014 84615
AAXX 23124 96739 01457 72008 10260 20242 30015 40064 52025 60031 79196 85971 333 10340 56000 57901 59007 60017 82918 86330 80981
AAXX 23124 96741 31556 83007 10292 20238 30039 40043 52013 71522 8457/ 333 10324 56009 59014 84620 86360
AAXX 23124 96745 31456 82404 10286 20243 30056 40060 52027 71622 8582/ 333 10336 56609 57861 59009 84819 88459 80825
AAXX 23124 96751 01550 82402 10225 20203 39002 48920 53007 69901 71796 8792/ 333 10278 56609 57961 59016 69907 83920 84620 80980
AAXX 23124 96791 01450 80000 10255 20236 39995 40070 51025 60031 79596 8697/ 333 10332 56009 57801 59019 60037 81917 85816 88460 80858
AAXX 23124 96797 01456 81302 10256 20244 30053 40058 50023 60531 79596 8597/ 333 10318 56009 57902 59006 60537 81918 85618 80980
AAXX 23124 96837 32458 72503 10296 20251 30063 40066 51017 85971 333 10320 56000 57900 58001 81920 83823
AAXX 23124 96925 32464 72902 10282 20260 30048 40053 52017 83272 333 56600 57860 59008 83817 85080 80860
AAXX 23124 96933 01450 50000 10256 20244 30050 40053 52017 60631 72162 83511 333 10353 56600 59008 60637 83610
AAXX 23124 96937 01458 81402 10266 20248 30068 40065 52030 60201 71362 84926 333 10348 56000 57901 58000 60204 82919 84620 86460 80960
AAXX 23124 96973 11458 80000 10289 20267 30050 40055 52016 69921 71396 85971 333 10334 56000 57901 59003 82919 80977 83820 80850
AAXX 23124 96987 31457 70000 10244 20231 30000 40060 52018 71592 85918 333 10334 56400 57941 59007 82917 84617 80980
AAXX 23124 97014 32560 70303 10257 20232 39973 40066 52024 83271 333 10312 56000 57800 59008 83821 808//
AAXX 23124 97028 01560 81003 10252 20243 30042 40048 51006 69931 76062 84521 333 10312 56000 59010 69907 84620 87460
AAXX 23124 97048 31458 53502 10278 20243 30030 40054 52023 71311 84931 333 10327 56000 57901 57801 59002 81912 83812 80980 80860
AAXX 23124 97072 01458 50000 10244 20237 39968 40068 57007 60021 70166 82521 333 10278 56000 58016 69907 82620
AAXX 23124 97086 32560 42504 10284 20238 30028 40053 51023 82471 333 10320 56000 59009 82620
AAXX 23124 97096 11458 60000 10252 20242 30041 40062 53001 60061 70262 82231 333 10314 56000 57803 59014 60067 82816 85360 80857
AAXX 23124 97120 01459 73403 10280 20233 30026 40059 52019 69901 72162 83871 333 10334 56600 57862 59004 69907 82818 85460 80860
AAXX 23124 97146 NIL
AAXX 23124 97180 01450 71004 10237 20237 30059 40077 51016 61101 76166 85272 333 10306 56000 58006 60307 85618 84460
AAXX 23124 97192 01430 81504 10258 20252 30014 40071 52022 60031 72196 8422/ 333 10320 56609 59003 60037 84615 88460
AAXX 23124 97230 31460 83108 10264 20238 30042 40049 51008 70292 82218 333 10296 56700 57872 59010 82816 85460 80858
AAXX 23124 97260 01558 63004 10258 20250 30044 40051 52005 60061 72162 84501 333 10324 56000 69907 84620
AAXX 23124 97270 11440 80000 10268 20247 30052 40057 52022 60081 71422 8682/ 333 10344 56009 58009 82815 84617 87460
AAXX 23124 97300 32560 60000 10286 20245 30015 40055 52018 83271 333 10330 56000 57803 58005 83820 80856
AAXX 23124 97340 01560 82208 10254 20245 30047 40062 52030 69951 70262 87232 333 10322 56000 58021 69957 87620
AAXX 23124 97372 12458 70000 10257 20248 39933 40053 52021 60131 83271 333 10310 56000 58004 83818 84459
AAXX 23124 97430 11458 73011 10262 20229 30034 40063 52017 69941 71522 84932 333 10312 56700 57971 59002 81915 83818 80980 80860
AAXX 23124 97460 32460 60000 10264 20244 30027 40041 52021 83836 333 10326 56000 57802 59010 82818 80858
AAXX 23124 97502 11450 60504 10265 20244 30043 52021 69901 70261 85531 333 10316 56000 59010 85620
AAXX 23124 97530 NIL
AAXX 23124 97560 01460 70706 10274 20254 30039 40054 51018 69901 78082 84977 333 10304 56000 57902 57803 59001 69907 82917 83620 84461 88279 80980 80860
AAXX 23124 97580 NIL
AAXX 23124 97600 32560 63003 10286 20252 30049 40055 52025 82271 333 10338 56600 57864 59003 82820 85460 80860
AAXX 23124 97686 11450 71503 10188 20156 38320 40048 52019 69901 71662 85833 333 10276 56000 59013 85815 87360
AAXX 23124 97690 32450 70000 10268 20248 39943 40045 52025 83832 333 10330 56000 57800 82816 86080
AAXX 23124 97724 01459 83204 10269 20247 30033 40049 52022 60021 70562 84872 333 10308 56700 57872 59007 60027 83819 80858
AAXX 23124 97748 01440 83116 10258 20249 30055 40057 54000 60231 79596 86921 333 10330 56709 57970 58000 60237 82912 84713 87457 80940
AAXX 23124 97760 32450 70902 10283 20256 30039 40048 52022 83832 333 10338 56000 57801 59013 83816 80860
AAXX 23124 97796 01420 80000 10246 20243 30049 40070 52019 60201 76196 8697/ 333 10345 56009 57901 58002 60207 82910 85611 87460 80980
AAXX 23124 97810 11458 23105 10274 20260 30023 40032 51017 60041 70262 82202 333 10334 56700 57874 59014 82819 80835
AAXX 23124 97876 32450 70000 10294 20259 30051 40081 51019 86842 333 10342 56000 57801 59015 82810 84611 80858
AAXX 23124 97900 01460 82803 10270 20257 39996 40025 52021 60011 72122 8482/ 333 10288 56609 57861 59006 60017 83615 88460 80857
AAXX 23124 97980 32558 41203 10284 20249 30030 40037 51012 82541 333 10324 56000 59019 82620
BBXX 44140 23121 99429 70515 46/// /2803 10133 40204 52032 22200 00076 11106 70032 333 91204
AAXX 23124 97008 01440 70000 10260 20236 30037 40048 52016 69961 76062 84572 333 10308 56000 59006 69967 84618
AAXX 23124 97016 32562 73008 10295 20224 30051 40053 52020 84272 333 10344 56000 57801 59009 84820 80860
AAXX 23124 97126 11457 80000 10282 20262 39998 40058 52027 69901 70162 8392/ 333 10320 56009 57901 59018 81915 82615 88460 80980
AAXX 23124 97142 NIL
AAXX 23124 97182 01465 80903 10243 20237 30063 40068 52018 60801 70396 8361/ 333 10314 56009 58003 60107 83716 85458
AAXX 23124 97240 31458 70000 10256 20247 39948 40062 51017 70522 84131 333 10306 56000 59001 84816
AAXX 23124 97284 01450 70000 10204 20194 38837 40076 52017 60081 72996 85921 333 10264 56000 57901 58020 60027 81910 85612 80959
AAXX 23124 97310 32558 30000 10276 20247 30035 40047 52017 83101 333 10324 56000 58004 83820
AAXX 23124 97320 32560 62705 10276 20253 30032 40045 52016 82128 333 10336 56000 58002 82820 84460
AAXX 23124 97378 32560 60000 10264 20252 39896 40059 51027 84171 333 10322 56000 58009 84820
AAXX 23124 97380 32558 60000 10269 20250 30025 40045 52018 81131 333 10327 56000 58011 81820 84080
AAXX 23124 97406 31459 60000 10258 20246 30021 40047 52027 70292 84231 333 10312 56000 57801 58000 84818 80860
AAXX 23124 97570 32460 30000 10264 20246 30031 40038 52015 81101 333 10322 56000 59008 81815
AAXX 23124 97630 32440 30103 10250 20230 39888 40042 51016 82830 333 10324 56000 59016 82612
AAXX 23124 97682 32458 51604 10268 20251 30031 40038 52021 82842 333 10329 56000 57802 59016 82816 85080 80860
AAXX 23124 97698 31450 80000 10282 20244 30059 40066 52028 70522 85942 333 10316 56000 57901 57802 58/// 82915 84617 84361 87078 80980 80860
AAXX 23124 97700 32460 52204 10277 20248 30023 40038 51023 82232 333 10314 56000 57804 58020 82817 80850
AAXX 23124 97722 32564 42905 10295 20240 30038 40053 52028 84802 333 10340 56600 57864 58000 83820 80856
AAXX 23124 97780 NIL
AAXX 23124 97790 31459 72713 10294 20247 29998 40019 52014 70522 83872 333 10318 56600 57861 59008 81819 85458 80858
BBXX 46036 23121 99484 71339 46/// /2008 10083 40229 52020 22200 00082 11814 70069 333 91210
BBXX VOXS 23124 99467 70480 41296 82822 10022 2002/ 40149 51054 71022 886// 22200 04018 20503 320// 40807 80020
AAXX 23121 98134 11460 70402 10206 20186 39957 40150 53010 69941 70284 84270 333 10208 56199 58009 84818 87357
AAXX 23121 98223 31462 10406 10240 20211 40100 52028 70140 81100 333 10292 56999 58011 81819
AAXX 23121 98232 31565 80406 10240 20227 40129 53005 70242 8557/ 333 10264 56199 58008 85620 88358
AAXX 23121 98325 31458 53405 10280 20254 40086 53013 70142 82270 333 10318 56999 58004 82817 84359
AAXX 23121 98328 31460 60000 10190 20217 38450 40078 53012 70544 86200 333 10254 56999 58002 86813
AAXX 23121 98330 31475 10401 10270 20254 30066 40098 52024 70544 81200 333 10330 56999 58007 81818
AAXX 23121 98336 31463 80705 10248 20230 30107 40112 53014 71522 8257/ 333 10306 56199 58011 82615 88357
AAXX 23121 98429 31560 61303 10273 20238 40094 52022 70544 82830 333 10314 56999 58007 82825 86360
AAXX 23121 98430 31457 70401 10267 20230 40091 52018 70544 83870 333 10324 56199 58012 83620 84358
AAXX 23121 98431 31458 70401 10266 20234 30045 40092 53022 70342 82270 333 10307 56999 58004 82818 87359
AAXX 23121 98440 11465 60406 10270 20250 30085 40090 52017 69951 71564 83208 333 10297 56199 58002 83815 85278
AAXX 23121 98444 32465 30402 10275 20242 30059 40078 53018 82202 333 10318 56999 59007 82818
AAXX 23121 98526 32570 83602 10264 20248 40084 52028 81207 333 10/// 56999 58004 81820 88274
AAXX 23121 98531 31568 20901 10279 20253 30073 40077 53018 70544 81240 333 10316 56199 59004 81820
AAXX 23121 98536 11465 80304 10258 20234 39883 40081 53017 60011 70384 8327/ 333 10278 56199 59001 83818 88357
AAXX 23121 98543 32468 60000 10276 20248 30058 40069 52025 83201 333 10328 56999 59007 83818 84075
AAXX 23121 98550 32460 33601 10271 20243 40074 52020 81201 333 10319 56999 59004 81818
AAXX 23121 98618 11470 53203 10276 20244 40078 53016 69981 70182 82261 333 10322 56999 58005 82820 84075
AAXX 23121 98630 32470 80203 10282 20258 40122 53005 8422/ 222// 2//02 333 10310 56199 59002 84818 88459
AAXX 23121 98637 NIL
AAXX 23121 98646 32560 73602 10278 20257 30068 40096 52020 82238 333 10298 56999 59000 82820 83360 86275
AAXX 23121 98653 31465 30000 10277 20248 30018 40063 52023 70544 82201 333 10314 56999 58007 82818
AAXX 23121 98741 31470 60000 10278 20249 40070 52029 70144 82208 333 10306 56999 59014 82817 86275
AAXX 23121 98747 31460 52102 10261 20233 39860 40064 52035 70544 83260 333 10320 56999 59005 83818 85358
AAXX 23121 98753 31468 43603 10280 20248 40057 52019 70544 82231 333 10322 56999 59007 82816 83079
AAXX 23121 98755 11468 73602 10269 20250 40070 52019 69901 78000 84570 333 10310 56199 59002 84616 88458
AAXX 23121 98836 31460 40000 10282 20256 40067 52021 70544 81271 333 10329 56999 59004 81818 83081
BBXX VOXS 23124 99467 70480 41296 82822 10022 2002/ 40149 51054 71022 886// 22200 04018 20503 320// 40807 80020
BBXX 46036 23121 99484 71339 46/// /2008 10083 40229 52020 22200 00082 11814 70069 333 91210
AAXX 23124 88900 46/// /2314 10024 20007 39880 49882 53005 333 10034 20019
BBXX 63110 23124 99595 10015 47597 /2624 10079 20021 40004 50004 700// 22200 10809 70047
BBXX 63106 23124 99610 10017 46/// /2527 10069 49949 51005 22200
BBXX 63105 23124 99610 10017 47997 ///// 10072 20005 49948 50004 700// 22200
BBXX 62103 23124 99499 70029 46/98 /2030 10119 20098 40178 57018 22200 00123 10703 70017 333 90710 91139
BBXX A8IG2 23123 99424 70349 41598 51920 10160 20152 40330 51010 70311 84462 22224 2//// 327// 40705 80155
BBXX DPLE 23123 99536 10051 41598 82325 10090 20071 40140 57020 70222 889// 22263 00090 20804 80080
AAXX 23121 20046 42998 21504 11194 21213 30075 40109 57007 80001
AAXX 23121 20069 31957 01110 11170 21201 30118 40132 54000 73831 333 11147 91114
AAXX 23121 20087 31996 61412 11236 21261 30202 40213 51002 73831 86030 333 11215 91116
AAXX 23121 20292 32998 00000 11215 21233 30260 40281 57002 333 11209 91101
AAXX 23121 20353 46/// /2303 11107 21124 30080 40084 57003
AAXX 23121 20667 42598 80504 11160 21179 30096 40104 52004 885//
AAXX 23121 20674 11294 81912 11141 21147 30027 40088 57007 60022 77173 8672/ 333 11141 86705 91116 92982
AAXX 23121 20744 41496 71509 11023 21038 30044 40062 57006 78583 86930 333 86913
AAXX 23121 20891 32998 00504 11356 21377 30181 40229 57004 333 11314 91105
AAXX 23121 23022 41597 82108 11082 21096 30060 40123 57002 73683 8555/ 333 91112
AAXX 23121 23032 41496 82305 11058 21065 30092 40123 58006 78587 889// 333 88913
AAXX 23121 23058 NIL
AAXX 23121 23242 41496 82305 11103 21116 30136 40152 57002 78582 889// 333 86914
AAXX 23121 23256 41498 81801 11170 21189 30128 40165 57002 77187 885// 333 88617
AAXX 23121 23330 41996 80000 11207 21226 30138 40160 57004 77172 8807/
AAXX 23121 23445 42597 81801 11164 21177 30148 40175 57004 885// 333 88621
AAXX 23121 23552 41496 81901 11182 21201 30148 40185 57001 77172 885// 333 88616
AAXX 23121 23631 41397 80000 11103 21109 30107 40150 57009 77172 8457/ 333 82708
AAXX 23121 23662 41497 82402 11140 21160 30144 40190 52003 77872 885// 333 88614
AAXX 23121 23724 42999 82001 11089 21100 30087 40154 58011 8805/
AAXX 23121 23734 42997 80000 11102 21108 30057 40152 56008 8807/
AAXX 23121 23849 42996 82102 11092 21123 40192 57011 8802/
AAXX 23121 23867 41996 82302 11068 21084 30136 40210 57006 77172 8802/
AAXX 23121 23933 42697 81903 11089 21128 30118 40176 57009 85507 333 85634
AAXX 23121 28064 42598 82001 11100 21153 30105 40199 57003 82542
AAXX 23121 28275 42997 82104 11062 21143 30178 40239 57010 85052
AAXX 23121 28493 42997 81902 11098 21169 30211 40308 57007 83041
AAXX 23121 28698 42997 62202 11132 21193 30188 40353 57010 80002
AAXX 23124 63688 32580 60714 10246 20073 48/// 83901 333 58006 81926 83827 85080
AAXX 23124 63708 32580 32412 10292 20151 48482 82931 333 58006 81929
AAXX 23124 63740 32575 40513 10257 20081 48499 82201 333 58014 82826 84077
AAXX 23124 63772 32580 10908 10313 20239 81300 333 81927
AAXX 23124 63820 32580 20615 10315 20232 40098 82102 333 58011 82829
AAXX 23124 63612 NIL
AAXX 23124 63661 NIL
AAXX 23124 63671 NIL
AAXX 23124 63695 NIL
AAXX 23124 63714 NIL
AAXX 23124 63723 NIL
AAXX 23124 63793 NIL
AAXX 23124 83264 21796 80504 10230 20218 39692 40158 70066 885// 333 20216 58011 60024
AAXX 23124 83358 32698 63604 10250 20211 39690 40087 82208 333 20216 59002
AAXX 23124 83766 32897 20506 10264 20195 39474 40102 5//// 82030 333 20214
AAXX 23124 83836 32897 13603 10250 20187 39143 40098 51025 81040 333 20165
AAXX 23124 83881 31996 60000 10290 20187 39806 40078 51012 70542 80004 333 20210
AAXX 23124 83980 21596 82702 10210 20188 39819 40095 53017 71052 887// 333 20185 69904
AAXX 23124 83997 32897 81416 10219 20144 30087 40130 52027 8801/ 333 20209
AAXX 23124 78318 11557 11102 10184 20175 30181 40185 52008 60001 71000 81800 333 10280 20178 30/// 56900 58011 81820
AAXX 23124 78325 11964 00901 10208 20201 30132 40190 53010 60001 70400 333 10317 20203 30/// 55100 56/// 58009
AAXX 23124 78333 12/10 10401 10185 20176 30178 40185 52012 60001 81200 333 10278 20178 30/// 56900 58013 818//
AAXX 23124 78348 11540 40000 10211 20209 30134 40187 53010 60001 70500 84800 333 10263 20211 30/// 56200 57854 58005 70002 83820 555 10902
AAXX 23124 78349 11508 13301 10184 20182 30085 40195 53013 60001 74240 81200 333 10298 20184 30/// 50524 56900 58008 81820
AAXX 23124 78353 12570 61301 10225 20217 30166 40188 53007 60001 85802 333 10274 20215 30/// 50104 56909 58006 82820 83626
AAXX 23124 78360 12/70 10302 10197 20192 30166 40178 53016 60001 81200 333 10300 20197 30/// 56900 58012 818// 92022
AAXX 23124 78369 11568 30908 10253 20208 30169 40178 52012 60001 70500 83200 333 10275 20250 30/// 55085 56900 57866 58012 83820 92044
BBXX 46238 23121 99334 71195 46/// ///// 1//// 91220 22200 00141 11303 20902 328// 41302 70015
BBXX 46239 23121 99363 71221 46/// ///// 1//// 91221 22200 00134 11203 20802 331// 41202 70015
AAXX 23121 23426 42984 80000 11219 21237 30128 40154 57007 80001
AAXX 23121 23625 41996 80000 11085 21086 30107 40142 57008 77172 8801/
AAXX 23121 28076 42997 82302 11087 21136 30131 40205 57014 80007
AAXX 23121 28367 42984 62103 11106 21179 30116 40251 57012 80001
AAXX 23121 28382 42998 81903 11072 21136 30194 40267 57016 85032
AAXX 23121 28481 42998 72005 11088 21142 30193 40297 57014 87070
AAXX 23121 28491 42997 62204 11088 21142 30184 40299 57013 80004
AAXX 23121 28573 42997 22005 11128 21163 30209 40320 57011 80001
AAXX 23121 28593 42997 82104 11110 21172 30223 40327 57007 83035
AAXX 23121 28786 42998 81903 11135 21178 30194 40364 57017 80002
AAXX 23121 28797 42997 31601 11142 21185 30199 40368 57018 80001
AAXX 23121 28799 42997 81801 11155 21206 30218 40374 57010 80007
BBXX 44060 23121 99413 70721 46/// ///07 10071 40108 91230 22200 00103 333 91208 555 11072 22072
BBXX 44039 23121 99411 70727 46/// /0207 10083 20077 40117 91200 22200 00094 10201 70005 333 91209
BBXX 44060 23121 99413 70721 46/// ///07 10073 40103 91215 22200 00103 333 91209 555 11077 22082
BBXX 46092 23121 99368 71220 46/// /0907 10084 40319 52004 91157 22200 00126 555 11072 22072
BBXX 42362 23121 99278 70907 46/// /0311 10189 20144 40210 91230
BBXX 42363 23121 99282 70892 46/// /0211 10194 20144 40214 91230 333 91211
BBXX 42364 23121 99291 70881 46/// /0109 10172 20144 40214 91230
BBXX 51204 23121 99213 71581 46/// ///// 1//// 91222 22200 00246 10703 20703 327// 41101 70015
BBXX 51202 23121 99214 71577 46/// ///// 1//// 91209 22200 00243 10805 20805 335// 41201 70024
BBXX 46036 23121 99484 71339 46/// /2008 10083 40229 52020 22200 00082 11814 70069 333 91210
BBXX VOXS 23124 99467 70480 41296 82822 10022 2002/ 40149 51054 71022 886// 22200 04018 20503 320// 40807 80020
BBXX 44140 23121 99429 70515 46/// /2803 10133 40204 52032 22200 00076 11106 70032 333 91204
BBXX 46214 23121 99379 71235 46/// ///// 1//// 91223 22200 00117 11103 21002 329// 41102 70015
BBXX 46224 23121 99332 71175 46/// ///// 1//// 91206 22200 00145 11801 21001 321// 41801 70006
BBXX 46219 23121 99332 71199 46/// ///// 1//// 91228 22200 00134 11104 21002 330// 41103 70018
BBXX 44039 23121 99411 70727 46/// /0107 10080 20076 40120 91153 22200 00094 10201 70005 333 91209
BBXX 44099 23121 99369 70757 46/// ///// 1//// 91222 22200 00114 10602 20602 70012
BBXX 41110 23121 99341 70777 46/// ///// 1//// 91221 22200 00142 10803 20803 70014
BBXX 41112 23121 99307 70813 46/// ///// 1//// 91221 22200 00167 10502 20502 311// 41101 70009
BBXX 44100 23121 99363 70756 46/// ///// 1//// 91222 22200 00124 10703 20703 70014
BBXX 41113 23121 99284 70805 46/// ///// 1//// 91221 22200 00218 10602 20601 309// 41101 70008
BBXX 42099 23121 99273 70842 46/// ///// 1//// 91227 22200 00230 10502 20502 70010
BBXX 44043 23121 99392 70764 46/// /3206 10092 40142 53056 91200 22200 00077 10201 70004 333 91207
BBXX 44043 23121 99392 70764 46/// /3205 1//// 91220 333 91207
BBXX 44042 23121 99380 70763 46/// /3208 10105 40150 51070 91200 22200 00094 10301 70006 333 91209
BBXX 44043 23121 99392 70764 46/// /3206 1//// 40145 91210 333 91207
BBXX 44042 23121 99380 70763 46/// /3308 1//// 40154 91210 333 91210
BBXX 44041 23121 99372 70768 46/// /3407 1//// 91220 333 91208
BBXX 44041 23121 99372 70768 46/// /3407 10133 40177 53057 91200 22200 00102 1//00 70001 333 91209
BBXX 44042 23121 99380 70763 46/// /3308 1//// 91220 333 91209
BBXX 44063 23121 99390 70764 46/// /3306 10091 40165 52054 91200 22200 00086 1//00 70002 333 91208
BBXX 44041 23121 99372 70768 46/// /3407 1//// 40180 91210 333 91208
BBXX 44063 23121 99390 70764 46/// /3206 1//// 40166 91210 333 91207
BBXX 44062 23121 99386 70764 46/// /3309 10093 40132 53059 91200 22200 00087 10301 70004 333 91211
BBXX 44063 23121 99390 70764 46/// /3206 1//// 91220 333 91209
BBXX 44062 23121 99386 70764 46/// /3208 1//// 40135 91210 22200 00087 333 91210
BBXX 42013 23121 99272 70829 46/// ///// 1//// 40205 91140 22200 00202
BBXX 44062 23121 99386 70764 46/// /3208 1//// 91220 22200 00087 333 91210
BBXX 42361 23121 99276 70925 46/// ///11 10189 20139 40207 53011 91230 333 91213 555 11086 22092
BBXX 44258 23121 99445 70634 46/// /0704 10016 40167 57015 22200 00064 11105 70023 333 91205
BBXX VCXF 23124 99464 70484 41296 83023 10016 2001/ 40140 52048 71022 887// 22200 02024 20504 320// 40806 80015
BBXX 46229 23121 99438 71246 46/// ///// 1//// 91221 22200 00097 11403 21001 329// 41402 70014
BBXX 46215 23121 99352 71209 46/// ///// 1//// 91208 22200 00133 11303 20802 327// 41302 70013
BBXX 46213 23121 99403 71247 46/// ///// 1//// 91224 22200 00099 11203 21002 328// 41202 70015
BBXX 46225 23121 99329 71174 46/// ///// 1//// 91214 22200 00143 11301 21001 325// 41301 70006
BBXX 46243 23121 99462 71241 46/// ///// 1//// 91229 22200 00081 11404 20503 327// 41403 70021
BBXX 46236 23121 99368 71219 46/// ///// 1//// 91220 22200 00124 11303 21002 328// 41302 70014
BBXX 46146 23121 99493 71237 46/// /1209 10055 40296 52020 22200 00066 10402 70008 333 91211
BBXX 46246 23121 99500 71451 46/// ///// 1//// 91229 22200 00072 11109 20807 327// 41105 70043
BBXX 46247 23121 99378 71228 46/// ///// 1//// 91221 22200 00118 11303 20902 328// 41302 70013
BBXX ZDLP 23123 99522 50502 41/97 52822 10075 20027 49919 57011 70261 83866 22262 04067 20503 328// 40705 5//// 80055
BBXX LAVN4 23124 99244 50409 41798 50621 10255 2021/ 40138 51010 70110 85401 22213 00230 20603 304// 40502 NNNN
BBXX 62141 23123 99493 50591 41597 62535 10098 40084 52010 72122 86362 22200 20607 32121 40504 50607
BBXX V2OG6 23123 99216 50399 41598 30217 10255 20205 40150 52/// 703// 8/24/ 22214 00260 20403 303// 40403 80220
BBXX A8KM8 23123 99390 11521 41/97 83129 10070 40040 54000 7//// 8//// 22224 2//// 399// 4////
BBXX UGSN 23121 99505 11418 42/98 /0216 11037 40117 57031 22233 00009 2//// ICE 31091
BBXX 52246 23121 99152 11457 46/// ///// 1//// 91207 22200 00282
BBXX 52245 23121 99181 11458 46/// ///// 1//// 91206 22200 00281
BBXX 52248 23121 99135 11448 46/// ///// 1//// 91206 22200 00283
BBXX 52244 23121 99200 11452 46/// ///// 1//// 91207 22200 00269
BBXX LEQZ3 23123 99531 11698 41/96 31117 10000 2000/ 40214 52010 70100 22263 02090 20708 41008 80000 NNNN
BBXX ZCBZ4 23123 99076 11167 41698 60911 10290 20255 40084 54000 70322 84444 22254 02275 20201 310// 40403 5//// 80265
BBXX WECH 23123 99191 11285 43/95 60230 10240 2020/ 40140 51002 7//// 86/// 22275 00250 2//// 3//// 4//// 5//// 6//// 80210 ICE /////
BBXX 52243 23121 99193 11666 46/// ///// 1//// 91155 22200 00263
BBXX SBLI 23121 99300 11507 43/98 83113 10187 40070 51003 22263 00219 2//// 4//// NNNN 426621110
BBXX VRXL7 23123 99243 70262 41297 71017 10230 2017/ 40235 50005 70311 87268 22253 00230 20105 30910 40104 50104 6//// 80190 ICE 0/0//
BBXX A8GA8 23121 99161 10565 413// 10308 10220 20158 40120 52020 701// 811// 22255 2//05 303// 4//03 5//// 80180
BBXX A8FA5 23123 99164 70180 41797 30820 10265 20119 40180 51010 7//00 83166 22284 20501 304// 40804 5//// 80175
BBXX C6NI8 23123 99095 70264 41697 70617 10271 20218 40138 54000 70222 87417 22283 04260 20803 314// 41004 5//// 80235
BBXX A8RW4 23123 99278 50318 41498 40214 10260 20225 40200 52/// 70200 84144 22234 04239 20303 304// 40303 80235
BBXX SHIP 23124 99228 10648 41/96 00608 10200 2012/ 40170 51010 70500 8//// 22264 0//// 2//// 3//// 4//// 5//// 6//// 80150 ICE /////
BBXX DEGL 23124 99257 30469 41/98 10315 10265 20236 40120 57030 702// 8//// 22214 20402 309// 4//04 5//// 80245
AAXX 23124 68296 32570 81705 10318 20097 38913 4//// 58001 885// 333 1//// 20270 91013 555
BBXX V7MO2 23124 99262 70914 41/97 /0216 10200 20182 40193 52011 7//// 8//// 22200 00232 20301 306// 40502 5//// 6//// 80188 ICE /////
BBXX WC5932 23124 99445 70872 43/// /3412 00/// 11051 21100 40268 53002 7//// 8//// 22284 0//// 2//// 3//// 4//// 5//// 6//// 81065 ICE /////
BBXX WDA2768 23124 99457 70870 43/// /3013 00/// 11084 21117 40245 50008 7//// 8//// 22243 0//// 2//// 3//// 4//// 5//// 6//// 81093 ICE /////
BBXX WAHP 23124 99375 70373 41298 71013 10180 20172 40350 54000 70222 8794/ 22274 00173 20402 329// 41005 5//// 6//// 80175 ICE /////
BBXX 46246 23121 99500 71451 46/// ///// 1//// 91159 22200 00072 11009 21007 326// 41105 70046
BBXX 46232 23121 99325 71174 46/// ///// 1//// 91208 22200 00150 11302 21001 327// 41302 70009
BBXX 44059 23121 99368 70763 46/// /2903 10203 40131 53036 91200 22200 00116 333 91208
BBXX 44058 23121 99376 70763 46/// /3307 10120 40147 53058 91200 22200 00097 10301 70005 333 91211
BBXX 44057 23121 99395 70761 46/// /3405 10086 40139 53054 91200 22200 00062 333 91207
BBXX 44058 23121 99376 70763 46/// /3407 1//// 40152 91210 333 91209
BBXX 44057 23121 99395 70761 46/// /3405 1//// 91220 333 91206
BBXX 44057 23121 99395 70761 46/// /3405 1//// 40141 91210 333 91207
BBXX 44059 23121 99368 70763 46/// /2903 1//// 40137 91210 333 91207
BBXX 44059 23121 99368 70763 46/// /3104 1//// 91220 333 91207
BBXX 44058 23121 99376 70763 46/// /3407 1//// 91220 333 91209
BBXX 46004 23121 99509 71361 46/// /2008 10072 40159 52014 22200 00075 11615 70076 333 91211
BBXX C6JE2 23123 99234 70873 41898 41011 10245 20223 40178 56010 70222 82/3/ 22233 00251 20401 80230
BBXX 46184 23121 99539 71389 46/// /2110 10058 40069 52014 22200 00064 11214 70072 333 91213
BBXX 46181 23121 99538 71288 46/// /2304 10036 40139 52055 22200 00055 10300 70002 333 91205
BBXX 51173 23121 99260 71739 46/// ///// 1//// 91211 22200 00243
BBXX 51172 23121 99284 71783 46/// ///// 1//// 91214 22200 00221
BBXX ZCEF3 23124 99294 71293 41298 51015 10160 20103 40276 52004 70211 84778 22264 00180 20501 306// 40704 5//// 80130
BBXX A8IY4 23121 99238 70602 41/98 40708 10240 20210 40235 51008 70311 8246/ 22254 04255 2//02 312// 41002 80220
BBXX TBWUK19 23124 99536 71577 41/97 40332 10031 20013 49936 7//// 8//7/ 22263 20807 320// 41204 5//// 80024
BBXX 41009 23121 99285 70802 46/// /1806 10241 20205 40216 91220 22200 00242 10702 20501 300// 40701 70009 333 91206 555 11061 22064
BBXX 41010 23121 99289 70785 46/// /2105 10233 40218 91220 22200 00238 10703 20401 300// 40703 70015 333 91205 555 11048 22051
BBXX 46205 23121 99542 71343 46/// /2608 10064 40115 52063 22200 00079 11415 70076 333 91210
BBXX 46132 23121 99497 71279 46/// /1906 10085 40253 52027 22200 00089 11311 70054 333 91207
BBXX 46206 23121 99488 71260 46/// /2102 10090 40275 52023 22200 00087 11207 70033 333 91204
BBXX SHIP 23124 99544 71656 41596 60617 10015 21010 40983 51003 77017 85/// 91200 22224 00050 2//// 3//// 4//// 80005
BBXX WAHP 23124 99375 70373 41298 71013 10180 20172 40350 54000 70222 8794/ 22274 00173 20402 329// 41005 5//// 6//// 80175 ICE /////
BBXX 46185 23121 99524 71298 46/// /2308 10078 40178 52065 22200 00074 11409 70045 333 91212
BBXX MINFR00 2312/ 99129 70786 46/// ///// 10260 40116 52006
BBXX 46087 23121 99485 71247 46/// /1010 10064 20060 40283 91220 22200 00075 333 91212 555 11101 22107 31152 41012 61219 104094 099085 096087 104091 104085 104085
BBXX 44033 23121 99441 70690 46/26 /0505 10021 40141 56020 91204 22200 00073 10801 70007 333 91206 555 11061 22063
BBXX 44034 23121 99441 70681 46/28 /0607 10021 40143 56020 91204 22200 00083 11103 70015 333 91208 555 11080 22083
BBXX 44030 23121 99432 70704 46/// /0408 1//// 40121 56020 91204 22200 00085 10502 70009 333 91210 555 11095 22101
BBXX 44040 23121 99410 70736 46/// /0306 10081 20081 40118 91215 22200 10301 70004 333 91208 555 11082 22098
BBXX 44029 23121 99425 70706 46/30 /0206 10049 40110 58024 91204 22200 00085 11101 70006 333 91207 555 11074 22077
BBXX 41029 23121 99328 70796 46/// /2406 1//// 91200 555 11077 22092
BBXX 44024 23121 99423 70659 46/18 /0908 10075 40126 56032 91204 22200 00078 11104 70021 333 91209 555 11095 22101
BBXX 41036 23121 99342 70770 46/// ///// 10203 20179 40173 91220 22200 00198
BBXX WDA2768 23124 99457 70870 43/// /3013 00/// 11084 21117 40245 50008 7//// 8//// 22243 0//// 2//// 3//// 4//// 5//// 6//// 81093 ICE /////
BBXX WC5932 23124 99445 70872 43/// /3412 00/// 11051 21100 40268 53002 7//// 8//// 22284 0//// 2//// 3//// 4//// 5//// 6//// 81065 ICE /////
BBXX V7MO2 23124 99262 70914 41/97 /0216 10200 20182 40193 52011 7//// 8//// 22200 00232 20301 306// 40502 5//// 6//// 80188 ICE /////
BBXX WDC6736 23124 99312 70802 43/98 02019 10220 2019/ 40175 5//// 7//// 8//// 22244 00250 2//// 3//// 4//// 5//// 6//// 80200 ICE /////
BBXX 51179 23121 99143 51708 46/// ///// 1//// 91203 22200 00287
BBXX A8MH2 23124 99064 31253 41698 62612 10270 20228 40030 51015 70322 8544/ 22224 20302 399// 4//// 5//// 80240
BBXX 51169 23121 99004 51600 46/// ///// 1//// 91154 22200 00258
BBXX 51178 23121 99142 51695 46/// ///// 1//// 91158 22200 00286
BBXX 51174 23121 99142 51697 46/// ///// 1//// 91155 22200 00286
BBXX ZMENA 23124 99368 31748 46/// ///// 10165 20109 40233 52004 22200
BBXX ZMFR 23124 99413 31748 43/// /9901 10131 20098 40242 52002 22200 00150
BBXX VROB 23124 99386 31449 46/// /1506 10180 20161 30098 40124 52013 22233 04176 85168
BBXX VNAH 23124 99357 31204 46/// /1912 10180 20104 30146 40170 52010 22223 04201 85136
BBXX VNSZ 23124 99383 31448 46/// /2110 10187 20159 30100 40126 52016 22264 04196 85169
BBXX 9HA2479 23124 99188 31686 46/// /1028 10265 20226 30048 40077 52010 22243 04280 85237
BBXX C6FS9 23124 99343 31515 46/// /0408 10215 20196 30116 40152 52012 22254 04223 85202
BBXX LAVD4 23124 99162 71131 41497 50617 10240 2023/ 40130 51002 70222 85263 22273 00265 21004 334// 43605 5//// 6//// 80230 NNNN
BBXX 51171 23121 99064 71623 46/// ///// 1//// 91146 22200 00279
BBXX 51170 23121 99168 71695 46/// ///// 1//// 91148 22200 00259
BBXX FHZI 23124 99666 31400 46/// /0911 11021 21022 39924 49935 54000 22200 05018 86021
BBXX ZDLS1 23123 99693 50076 41297 82003 11011 21028 49868 52002 70222 886// 22252 05019 20101 30000 82016 ICE 67192
BBXX C6CN4 23120 99326 70169 41598 22403 10206 20131 40331 51011 7//00 81390 22200 06120 29901 3//// 4//// 5//// 80160
BBXX A8GH5 23123 99489 70056 41297 73227 10100 20100 40200 54000 76166 8677/ 22254 04120 20404 324// 41007 80100
BBXX MINUK03 2312/ 99525 10046 46/// ///// 10085 40129 57004
BBXX MINUK01 2312/ 99571 70021 46/// ///// 10068 40085 52006
AAXX 23124 63705 32560 71805 10244 20184 38851 48507 8191/ 333 58015 81823 81925 87465 555 10201
AAXX 23124 63705 32560 71805 10244 20184 38851 48507 8191/ 333 58015 81823 81925 87465 555 10201
AAXX 23124 86330 11696 83203 10204 20191 40103 53019 60934 79596 8397/ 333 10213 20194 32018
AAXX 23124 86360 11496 81008 10216 20207 40090 52029 60094 79596 8697/ 333 10230 20204 32020
AAXX 23124 86460 12497 81006 10202 20143 40103 52013 69934 8157/ 333 1//// 20198 30018
AAXX 23124 86490 32497 71420 10209 20108 40100 52013 86550 333 10253 20194 30016
AAXX 23124 86530 12597 81513 10190 20108 40110 52020 69904 8157/ 333 10250 20180 30///
AAXX 23124 86545 32497 71513 10186 20121 40120 52007 83270 333 10186 20164 31015
AAXX 23124 86565 32598 71804 10216 20105 40113 50024 83276 333 10231 20194 30017
AAXX 23124 86580 42897 71113 10202 20112 40121 52/// 87070 333 10244 20182 30///
AAXX 23124 42492 31994 20000 10164 20108 40128 71000 82030 333 10180 59020 82360
AAXX 23124 42587 31995 40000 10206 20079 40125 70500 84030 333 10264 59012 84360
AAXX 23124 42591 31995 22706 10190 20082 40130 70500 82030 333 10219 59017 82360
AAXX 23124 42623 31595 41802 10178 20115 39221 40092 70522 84500 333 10237 59017 84620
AAXX 23124 42701 31996 33204 10180 20055 39386 40121 70500 80001 333 10220 59015 83075
AAXX 23124 42724 31995 53203 10166 20130 40116 70522 80001 333 10217 59021 85070
AAXX 23124 42798 31995 60000 10212 20088 40106 70522 84031 333 10253 59017 84360 85075
AAXX 23124 42809 31995 20000 10176 20122 40112 70511 80001 333 10210 59016 82075
AAXX 23124 91723 NIL
AAXX 23124 91964 NIL
BBXX CFO383 23124 99439 70602 47498 /9905 10041 2003/ 40189 5//// 700// 8/ // 22200 00076 11006 2//// 3//// 70031 80035 333 91005
BBXX KS098 23124 99442 71246 43/// /1109 10098 40318 22261 06000
BBXX KS089 23124 99456 70084 43/// /3431 10122 22253
BBXX KS094 23124 99130 70612 43/// /1019 10272 40149 22200 06266
BBXX KS007 23124 99267 70801 43/// ///// 10230 40168 22200
BBXX 44137 23121 99423 70620 46/// /1504 10092 40167 57019 22200 00103 11006 70030 333 91205
BBXX 44137 23121 99423 70620 46/// /1504 10092 40167 57019 22200 00103 11006 70030 333 91205
AAXX 23121 31152 32997 60000 11372 21405 39912 40376 52005 82032 333 11350
AAXX 23121 31163 NIL
AAXX 23121 31285 11495 80202 11141 21176 30171 40255 52005 69930 77372 8872/ 333 11146
AAXX 23121 31561 41598 83604 11143 21163 30145 40184 57011 77173 8802/ 333 91010
AAXX 23121 31683 11995 70000 11073 21078 30023 40098 58018 60020 77372 8802/ 333 11065
AAXX 23121 32010 11598 80704 11060 21083 30169 40219 52004 60010 70282 8595/ 333 11067 85921 91007 91108
AAXX 23124 71592 16/// /0710 11274 21315 30013 40027 56001 60001 333 11245 21288 4/011 70000
AAXX 23124 71277 46/// /1707 11039 21065 6///1 333 10029 21045 7////
AAXX 23124 71923 16/// ///07 11184 21199 39658 40121 58019 60001 333 11211 21298 70000
AAXX 23124 71963 16/// /2202 11167 21181 39646 40059 58026 60001 333 11189 21258 4/005 70000
AAXX 23124 71490 16/// /2409 11202 21219 39752 40085 58018 60001 333 11302 21322 4/008 70000
AAXX 23124 71761 16/// ///// 11057 21093 60001 333 10002 21084 70000
BBXX 44138 23121 99443 70536 46/// /2907 10060 40201 52036 22200 00097 11008 70041 333 91209
BBXX 44138 23121 99443 70536 46/// /2907 10060 40201 52036 22200 00097 11008 70041 333 91209
AAXX 23124 91324 11474 80909 10294 20252 30048 40050 60022 70282 82201 333 562/9 58000 70020 82818 88075 555 92312
AAXX 23124 91329 NIL
AAXX 23124 91336 NIL
AAXX 23124 91339 11474 80810 10289 20243 30051 40057 60031 70282 8637/ 333 56299 58000 70030 86918 88362 555 92312
AAXX 23124 91320 32474 80712 10289 20272 30078 40083 83202 333 562/9 59017 83816 85074 555 92312
AAXX 23123 63612 32680 50818 10350 20137 40077 81162 333 58002 81834 85080
AAXX 23123 63661 32580 33604 10265 20090 48506 82104 58010 82827
AAXX 23123 63671 32680 30000 10326 20204 83200 333 83830
AAXX 23123 63695 32581 50903 10236 20158 85200 333 85824
AAXX 23123 63723 32682 42406 10345 20196 40091 84200 333 58014 84830
AAXX 23123 63793 32580 33608 10318 20164 40059 83200 333 58010 83827
AAXX 23124 91324 11474 80909 10294 20252 30048 40050 60022 70282 82201 333 562/9 58000 70020 82818 88075 555 92312
AAXX 23124 91329 NIL
AAXX 23124 91336 NIL
AAXX 23124 91339 11474 80810 10289 20243 30051 40057 60031 70282 8637/ 333 56299 58000 70030 86918 88362 555 92312
AAXX 23124 91320 32474 80712 10289 20272 30078 40083 83202 333 562/9 59017 83816 85074 555 92312
AAXX 23124 91324 11474 80909 10294 20252 30048 40050 60022 70282 82201 333 562/9 58000 70020 82818 88075 555 92312
AAXX 23124 91329 NIL
AAXX 23124 91336 NIL
AAXX 23124 91339 11474 80810 10289 20243 30051 40057 60031 70282 8637/ 333 56299 58000 70030 86918 88362 555 92312
AAXX 23124 91320 32474 80712 10289 20272 30078 40083 83202 333 562/9 59017 83816 85074 555 92312
BBXX 46004 23121 99509 71361 46/// /2008 10072 40159 52014 22200 00075 11615 70076 333 91211
BBXX 46036 23121 99484 71339 46/// /2008 10083 40229 52020 22200 00082 11814 70069 333 91210
BBXX 46181 23121 99538 71288 46/// /2304 10036 40139 52055 22200 00055 10300 70002 333 91205
BBXX 46183 23121 99536 71311 46/// /2608 10071 40143 52081 22200 00080 11005 70027 333 91210
BBXX 46185 23121 99524 71298 46/// /2308 10078 40178 52065 22200 00074 11409 70045 333 91212
BBXX 46204 23121 99514 71288 46/// /1608 10080 40218 52049 22200 00083 11412 70059 333 91210
BBXX 46205 23121 99542 71343 46/// /2608 10064 40115 52063 22200 00079 11415 70076 333 91210
BBXX 46206 23121 99488 71260 46/// /2102 10090 40275 52023 22200 00087 11207 70033 333 91204
BBXX KS098 23124 99442 71246 43/// /1109 10098 40318 22261 06000
BBXX 44022 23121 99409 70737 46/// ///06 10079 20059 40116 91230 22200 00084 333 91208 555 11067 22072
BBXX 44040 23121 99410 70736 46/// /0206 10081 20081 40123 91219 22200 10301 70004 333 91207 555 11077 22093
BBXX 44039 23121 99411 70727 46/// /0107 10080 20076 40120 91153 22200 00094 10201 70005 333 91209
AAXX 23121 37682 31596 70000 11022 21025 38085 48471 58010 72272 875//
AAXX 23121 37717 31599 62002 11009 21041 38033 48459 57010 70282 84531 555 1/102
AAXX 23121 37788 41495 62602 11004 21025 39186 40210 57015 71022 866// 333 86716
AAXX 23124 67843 42680 50904 10320 20146 38926 48493 84201 333 58010 84845 83080
AAXX 23124 67969 42980 60301 10354 20144 3//// 48/// 82202 333 5//// 82858 85080
AAXX 23124 67983 41770 21204 10298 20188 38868 48502 70511 81202 333 58013 81850
AAXX 23124 67975 42980 31801 10322 20170 38905 48506 83102 333 58027 83860
AAXX 23124 67965 42675 40905 10325 20120 38668 48498 84203 333 58010 81940 84845
AAXX 23124 67867 42880 51201 10290 20124 38566 48495 84231 333 58010 84858
AAXX 23124 67861 42980 11701 10322 20111 38708 48495 82100 333 58008 82859
AAXX 23124 67977 42980 11608 10370 20165 39630 48541 81102 333 58010 81858
AAXX 23124 67755 42485 70301 10373 20143 3//// 48/// 81101 333 5//// 81857 87081
AAXX 23124 67855 42680 43303 10352 20155 3//// 48/// 84201 333 5//// 84840
AAXX 23124 67971 42975 31507 10349 20091 3//// 48/// 83232 333 5//// 83858
AAXX 23124 67951 41680 51508 10271 20167 3//// 48/// 71791 85203 333 5//// 81920 85830
AAXX 23124 67863 42880 42801 10343 20163 3//// 48/// 83102 333 5//// 83857
AAXX 23124 67773 42980 30904 10320 20134 3//// 48/// 83130 333 5//// 83858
AAXX 23124 67871 41870 43402 10300 20124 38538 48497 70500 84200 333 5//// 84857
AAXX 23124 89667 46/// /0703 11044 29078 39804 4//// 5////
AAXX 2312/ 89872 46/// ///// 11076 39755 4//// 5////
AAXX 2312/ 89869 46/// ///// 11036 39737 4//// 5////
AAXX 2312/ 89866 46/// ///// 11013 39708 4//// 5////
AAXX 2312/ 89329 46/// ///// 11073 38722 4//// 5////
AAXX 2312/ 89799 46/// ///// 11193 4//// 5////
AAXX 2312/ 89799 46/// ///// 11193 4//// 5//// 91210
AAXX 2312/ 89327 46/// ///// 11013 39401 4//// 5////
AAXX 2312/ 89327 46/// ///// 11014 39403 4//// 5//// 91220
AAXX 2312/ 89332 46/// ///// 11025 39150 4//// 5////
AAXX 2312/ 89769 46/// ///// 11068 39770 4//// 5////
AAXX 2312/ 89828 46/// ///// 11255 36485 4//// 5////
AAXX 2312/ 89108 46/// ///// 11183 37010 4//// 5////
AAXX 2312/ 89879 46/// ///// 10011 39747 4//// 5////
AAXX 2312/ 89314 46/// ///// 11050 38242 4//// 5////
AAXX 2312/ 89872 46/// ///// 11078 39755 4//// 5////
AAXX 2312/ 89866 46/// ///// 11014 39708 4//// 5////
AAXX 2312/ 89332 46/// ///// 11030 39151 4//// 5////
AAXX 23124 89667 46/// /0603 11046 39804 4//// 5////
AAXX 23124 71701 11/12 90000 11008 21011 30102 40165 58010 60011 77122 333 10032 21008 42001 70006 90921 93101
AAXX 23124 42779 32596 60000 10206 20051 39422 40121 83530 333 10260 59013 83620 85360
AAXX 23124 42874 32996 30000 10246 20092 40114 80001 333 10285 59012 83075
AAXX 23124 43041 32996 50000 10240 20110 39501 40115 80001 333 10278 59004 85075
BBXX 44060 23121 99413 70721 46/// ///07 10071 40108 91230 22200 00103 333 91208 555 11072 22072
AAXX 23124 94290 46/// /1512 10274 30044 40053 53013 91224
AAXX 23124 94210 35/// /2709 10292 30032 40037 52019
AAXX 23124 94289 46/// /1311 10279 30041 40048 53011 91215
AAXX 23124 94379 46/// /1217 10241 30036 40045 51010 91226
AAXX 23124 94290 46/// /1512 10274 30044 40053 53013 91224
AAXX 23124 83552 32698 2//// 10295 20245 39939 40110 80006 333 2//// 58000
AAXX 23124 83565 32697 30504 10272 20210 39640 40099 83100 333 20215 58002
AAXX 23124 83623 32996 6//// 1//// 2//// 39530 4//// 53026 85204 333 2////
AAXX 23124 83630 21597 50506 10216 20180 3//// 4//// 51015 70396 83242 333 20166 60534
AAXX 23124 83676 32997 23604 10252 20225 39480 40101 53013 80005 333 20210
AAXX 23124 83702 32099 03608 10295 20201 39349 40086 5//// 333 20219
AAXX 23124 83704 32898 60502 10300 20233 39367 40061 53010 80001 333 2////
AAXX 23124 83716 32997 00903 10280 20213 39614 40097 52020 333 20235
AAXX 23124 83726 21997 23602 10246 20185 39184 40140 51015 70566 80001 333 20189 60074
AAXX 23123 63702 32570 70507 10261 20168 82966 333 82825 81928 87278 555 10200
AAXX 23123 63630 32580 70704 10306 20142 3//// 48/// 81208 333 5//// 81825 87281 555 10202
AAXX 23123 63674 32568 70506 10290 20186 39036 48498 8393/ 333 58012 83827 81929 87363 555 10220
BBXX 44056 23121 99362 70757 46/// ///// 1//// 91150 22200 00130 10702 20702 70009
AAXX 23124 41184 32960 33107 10253 20070 40149 80004 333 59023 83070
AAXX 23124 41194 12960 33311 10231 20100 30163 40168 60001 80001 333 59013 83075
AAXX 23124 41196 32960 23309 10230 20089 30128 40166 80001 333 59014 82075
AAXX 23124 41198 32960 21006 10229 20096 40165 80001 333 59021 82070
AAXX 23124 41217 32960 33311 10227 20070 30134 40163 80001 333 59010 83075
AAXX 23124 41218 32960 12704 10242 21007 39855 40158 80001 333 59008 81075
BBXX A8KM8 23123 99390 11521 41/97 83129 10070 40040 54000 7//// 8//// 22224 2//// 399// 4////
BBXX LEQZ3 23123 99531 11698 41/96 31117 10000 20000 40214 52010 70100 22263 02090 20708 41008 80000
BBXX SBLI 23121 99300 11507 43/98 83113 10187 40070 51003 22263 00219 2//// 4////
BBXX H9UY 23124 99245 71729 41698 60825 00/// 10220 40206 56010 70322 84516 9//// 22263 04250 20306 327// 40305 5//// 6//// 80200
BBXX A8ER9 23121 99538 71745 41998 23506 10005 21036 40080 52030 70200 81045 22264 04090 20602 3//// 4//// 5//// 81010
AAXX 23121 55279 32880 11804 11068 21272 35688 57003 81400 333 00054
AAXX 23121 55472 32980 00000 11035 21217 35716 57001 333 05101
AAXX 23121 55696 32980 00901 10052 21110 36302 52009 333 05102
AAXX 23121 56079 32980 00201 11110 21189 36696 52012 333 00652
AAXX 23121 56106 32780 62703 10015 21293 36185 57001 83102 333 00102
AAXX 23121 56257 32980 03601 10029 21212 36250 52019 333 00101
AAXX 23121 56374 11580 80902 11052 21100 37474 52041 69901 78580 884// 333 00652
AAXX 23121 56385 11/00 93602 11111 21117 37049 52024 69911 77074 333 00652
AAXX 23121 56954 32970 20000 10162 20129 40152 52018 82040 333 05100
AAXX 23121 56966 32765 21108 10192 20105 40141 52030 82400 333 00253
AAXX 23121 57237 32965 03201 10021 21053 40337 52022
AAXX 23121 57306 32963 02501 10053 21012 40329 52025
AAXX 23121 57604 11720 83403 10062 20061 40339 52030 60021 76066 885//
AAXX 23121 57707 11472 80202 10009 21013 38578 52026 69911 77077 887// 333 00600
AAXX 23121 57832 32665 82901 10032 21036 39559 40327 52021 885// 333 00451
AAXX 23121 55228 32780 12505 11035 21345 35987 57007 81100 333 05100
AAXX 23121 55578 32880 10000 10001 21243 36336 57007 81400 333 05100
AAXX 23121 55664 32880 22701 10014 21308 35990 52003 82400 333 00051
AAXX 23121 55773 32970 00000 11009 21205 35999 52011 333 05101
AAXX 23121 56116 32980 03402 11019 21189 36313 52009 333 00100
AAXX 23121 56137 32980 00000 10049 21254 36755 52011 333 00201
AAXX 23121 56172 32980 00000 11005 21102 37345 52031 333 00600
AAXX 23121 56247 32980 00901 10095 21176 37376 52018 333 00252
AAXX 23121 56312 32980 02001 10063 21080 37055 52018 333 05201
AAXX 23121 56462 32980 00000 10028 21049 37122 52039 333 00301
AAXX 23121 56651 32980 00000 10111 21063 37611 52021 333 00152
AAXX 23121 56691 11467 80204 11035 21046 37823 52022 69901 76877 887// 333 00652 93430
AAXX 23121 56985 32560 71604 10113 20082 38727 40191 52022 874// 333 00252
AAXX 23121 57633 32763 70000 10023 21030 39521 40335 52024 875// 333 00300
AAXX 23121 57902 32462 80702 10029 20016 38702 40304 52024 886// 333 00551
AAXX 23124 87257 31565 60714 10250 20196 39960 40060 52024 70292 82208 333 10288 20220 56606 82825 86270
AAXX 2312/ 48969 NIL
AAXX 2312/ 48962 NIL
AAXX 2312/ 48990 NIL
AAXX 2312/ 48986 NIL
AAXX 2312/ 48995 NIL
AAXX 2312/ 48967 NIL
AAXX 2312/ 48992 NIL
AAXX 2312/ 48965 NIL
AAXX 2312/ 48985 NIL
AAXX 2312/ 48970 NIL
AAXX 2312/ 48991 NIL
AAXX 2312/ 48964 NIL
AAXX 2312/ 48997 NIL
AAXX 2312/ 48968 NIL
AAXX 2312/ 48973 NIL
AAXX 2312/ 48966 NIL
AAXX 2312/ 48983 NIL
AAXX 2312/ 48972 NIL
AAXX 2312/ 48998 NIL
AAXX 2312/ 48993 NIL
AAXX 2312/ 48971 NIL
AAXX 2312/ 48963 NIL
AAXX 2312/ 48987 NIL
AAXX 23124 16539 12998 02104 10132 20072 30116 40231 56006 60001 555 0399/
AAXX 23124 71048 16/// /2108 11098 21123 60001 333 10001 21102 70000
AAXX 23124 71406 17/// /3022 11067 21118 30116 40126 51028 69961 7//4/ 333 10007 21068 70012
AAXX 23124 71418 46/// /3310 10013 21027 30132 40165 51008 6///1 333 10065 20005 7////
AAXX 23124 71981 16/// /2516 10035 21158 60001 333 10049 21019 7////
AAXX 23124 71982 16/// /2606 11047 21112 60001 333 10025 21073 70000
AAXX 23124 71986 16/// /1609 11093 21119 60001 333 11030 21109 70000
AAXX 23124 71990 17/// /1906 11046 21052 38294 49866 56007 60041 7//4/ 333 11080 21105 4/084 55/// 00000 70131 555 10140
AAXX 23124 71354 16/// /2106 11062 21099 60001 333 10003 21086 70007
AAXX 23123 63602 32570 60703 10305 20154 38786 84901 58003 84825 81929 83080 555 10207
AAXX 23123 63631 32570 61906 10302 20/// 82305 333 82823 81924 85280 555 10///
AAXX 23124 71354 16/// /2106 11062 21099 60001 333 10003 21086 70007
AAXX 23124 71048 16/// /2108 11098 21123 60001 333 10001 21102 70000
AAXX 23124 71981 16/// /2516 10035 21158 60001 333 10049 21019 7////
AAXX 23124 71982 16/// /2606 11047 21112 60001 333 10025 21073 70000
AAXX 23124 71986 16/// /1609 11093 21119 60001 333 11030 21109 70000
AAXX 23124 71990 17/// /1906 11046 21052 38294 49866 56007 60041 7//4/ 333 11080 21105 4/084 55/// 00000 70131 555 10140
AAXX 23124 71406 17/// /3022 11067 21118 30116 40126 51028 69961 7//4/ 333 10007 21068 70012
AAXX 23124 71418 46/// /3310 10013 21027 30132 40165 51008 6///1 333 10065 20005 7////
AAXX 23121 31474 11997 80000 11200 21226 39693 40208 58003 60020 77172 8802/ 333 11190
AAXX 23121 31754 11597 80000 11220 21246 39640 40180 58008 60040 78582 889// 333 11180
AAXX 23121 31801 11597 83401 11220 21255 39936 40171 57008 60020 78582 85907 333 11170
BBXX 46145 23121 99544 71324 46/// /2812 10070 40110 52074 22200 00072 11306 70032 333 91216
BBXX 46145 23121 99544 71324 46/// /2812 10070 40110 52074 22200 00072 11306 70032 333 91216
AAXX 23124 68342 36/// /3305 10317 20118 38498 48495 57012 333 10318 2//// 91010 555 91017
BBXX 46208 23121 99525 71327 46/// /2606 10074 40163 52045 22200 00076 11516 70081 333 91210
BBXX 46208 23121 99525 71327 46/// /2606 10074 40163 52045 22200 00076 11516 70081 333 91210
BBXX FLAO 2312/ 99764 70847 46/// ///// 11338 40019 57002
AAXX 23124 89016 46/89 /3409 10005 29065 39468 4//// 5////
AAXX 23124 89667 46/// /0604 11063 29086 39804 4//// 5//// 91220
AAXX 23124 89667 46/// /0704 11054 39804 4//// 5//// 91210
AAXX 2312/ 89327 46/// ///// 11014 39406 4//// 5//// 91230
AAXX 2312/ 89828 46/// ///// 11251 36487 4//// 5//// 91220
AAXX 2312/ 89108 46/// ///// 11189 37012 4//// 5//// 91220
AAXX 2312/ 89879 46/// ///// 10016 39746 4//// 5//// 91220
AAXX 2312/ 89872 46/// ///// 11078 39756 4//// 5//// 91220
AAXX 2312/ 89869 46/// ///// 11034 39738 4//// 5//// 91220
AAXX 2312/ 89866 46/// ///// 11010 39707 4//// 5//// 91220
AAXX 2312/ 89329 46/// ///// 11054 38722 4//// 5//// 91230
AAXX 2312/ 89868 46/// ///// 11029 4//// 5//// 91220
AAXX 2312/ 89332 46/// ///// 11015 39148 4//// 5//// 91230
AAXX 2312/ 89314 46/// ///// 11053 38241 4//// 5//// 91220
AAXX 23124 42309 32996 00000 10238 20144 40085 333 59022
AAXX 23124 42410 31995 92203 10144 20144 40117 70500 333 10174 59017
AAXX 23124 42415 31996 10000 10188 20132 40122 70500 81030 333 10250 59016 81360
BBXX 42360 23121 99267 70905 46/// /0210 10211 91200 22200 00242 10702 70011 333 91213
AAXX 23124 89657 46/// /2711 11065 20043 49885 58022
BBXX TBWUK17 23123 99239 30663 41397 71024 10251 20223 40212 57006 70322 85710 22263 04260 20202 312// 40405 5//// 80232
BBXX A8HD5 23121 99012 11033 41496 70208 10250 20243 40080 54000 76262 83895 22234 04260 20301 30000 4//// 5//// 80245
BBXX A8IY8 23124 99113 11107 41397 60327 10250 20207 40110 57/// 70122 86738 22254 04260 20306 30204 40506 50506 80220
BBXX DBIP 23123 99365 10187 41097 83635 10110 20050 40110 56015 70322 887// 22223 04170 21010 3//// 4//// 5//// 80080
BBXX ZNQO3 23120 99466 70072 41297 63120 10115 20095 40251 57015 71144 85460 22213 04144 20705 328// 41006 5//// 80105
AAXX 23124 68572 11324 80905 10140 20122 38418 48527 57004 69921 71055 886// 333 10158 20137 91009 555 20002 91022
AAXX 23124 68400 36/// /2009 10266 20188 30057 40129 58000 333 10282 20236 91018 555 91013
AAXX 23124 68570 16/// /1204 10160 20103 38529 48521 57003 69921 333 10199 20157 91006 555 20002 91020
AAXX 23124 68580 16/// /1206 10158 20146 38976 48535 57002 60011 333 10168 20150 91011 555 20012 69925 91020
AAXX 23124 68474 11570 71003 10242 20136 38622 48516 57012 69921 70288 333 10256 20139 91007 555 20002 91019
AAXX 23124 68481 36/// /1413 10256 20179 39778 40140 58002 333 10276 20250 91021 555 91015
BBXX E5U2123 23123 99297 70153 41598 50519 10193 20115 40293 51030 70211 85800 22283 00204 20304 30402 40504 50603 80150
BBXX DGUG2 23124 99115 70273 41396 50820 10265 20208 40150 50005 70522 83610 22244 04270 20604 30000 80225
BBXX UGWJ 23121 99056 30812 42598 62505 10300 40085 56015 86710 22252 00281 20301 33300 40805
BBXX UGWJ 23121 99056 30812 42598 62505 10300 40085 56015 86710 22252 00281 20301 33300 40805
AAXX 23124 83811 22997 03202 10272 20188 39225 40095 53009 333 20184 69954
AAXX 23124 83844 21597 318// 10289 20230 30079 40086 53010 70122 81260 333 20225 60064
AAXX 23124 83887 22597 53202 10250 20170 39080 40109 53017 82130 333 20197 69904
AAXX 23124 83907 21497 81406 10228 20183 39817 40096 50011 70295 8572/ 333 20217 60024
AAXX 23124 83914 31596 70000 10248 20173 39350 40098 52018 70522 83466 333 20195
AAXX 23124 83919 32997 23606 10236 20169 38961 40120 54000 82030 333 20170
AAXX 23124 83927 21596 80910 10224 20207 39993 40064 52010 76596 887// 333 20202 61204
AAXX 23124 83936 32997 83204 10228 20188 39998 40117 52018 8801/ 333 20206
AAXX 23124 83948 21596 60000 10273 20232 30070 40076 52009 70511 82206 333 20214 60144
AAXX 23124 83964 31896 82302 10241 20179 39614 40092 52028 70522 8801/ 333 20210
AAXX 23124 83995 32496 81408 10244 20221 30092 40095 53010 886// 333 20190
AAXX 23124 83270 21595 80000 10202 20202 39679 40163 72162 887// 333 20197 59032 60324
AAXX 23124 83309 21695 80000 10232 20229 39796 40118 71096 887// 333 20213 58002 60784
AAXX 23124 83319 21697 80000 10240 20232 39786 40159 70162 8372/ 333 20218 58012 60064
AAXX 23124 83405 32896 4//// 10260 20227 39936 40069 84050 333 20246 58002
AAXX 23124 83437 32599 30505 10250 20187 39408 40122 82450 333 20193 58000
AAXX 23124 83579 32599 53606 10224 20167 39019 40121 85200 333 20176 58003
AAXX 23124 83592 32597 63605 10238 20203 39464 40142 84260 333 20184 58012
AAXX 23124 83384 21597 50000 10236 20210 39550 40131 70365 84260 333 20200 59005 60034
AAXX 23124 83386 32598 60507 10247 20205 39589 40118 81135 333 20199 58002
AAXX 23124 83388 32497 60909 10248 20165 39438 40099 84236 333 20222 59005
AAXX 23124 83442 32597 70502 10252 20205 39783 40124 81252 333 20205 58013
AAXX 23124 83479 21598 31406 10222 20199 39334 40130 70240 83200 333 20174 59012 60044
AAXX 23124 83483 22597 30902 10242 20213 39559 40124 81160 333 20200 58000 60034
AAXX 23124 83531 32997 30503 10228 20173 39095 40125 80004 333 20155 59001
AAXX 23124 83538 32497 60506 10201 20162 38723 40116 86500 333 20165 58007
AAXX 23124 83574 32994 00904 10274 20187 39574 40173 5//// 333 20212
AAXX 23124 83582 32598 33602 10228 20196 39362 42123 52012 83200 333 20178
AAXX 23124 83595 32597 60502 10290 20234 30074 40158 84254 333 20234 58010
AAXX 23124 83687 22698 53202 10224 20188 39123 40124 53004 85700 333 20162 60344
AAXX 23124 83692 21699 53606 10224 20184 39099 40117 53005 72122 85200 333 20170 60024
BBXX 41053 23121 99185 70661 46/// /1007 10258 40182 91230 333 91212
BBXX 41053 23121 99185 70661 46/// /1006 10250 40180 91220 333 91210
BBXX 41053 23121 99185 70661 46/// /1204 10250 40179 91210 333 91206
BBXX 41033 23121 99323 70804 46/// /2604 10161 40187 53016 91200 555 11055 22065
BBXX 41052 23121 99183 70648 46/// /0609 10265 40172 52014 91200 22200 00271 10803 70017 333 91212
BBXX VRXL7 23123 99243 70262 41297 71017 10230 2017/ 40235 50005 70311 87268 22253 00230 20105 30910 40104 50104 6//// 80190 ICE 0/0//
BBXX A8HD5 23121 99012 11033 41496 70208 10250 20243 40080 54000 76262 83895 22234 04260 20301 30000 4//// 5//// 80245
BBXX TBWUK17 23123 99239 30663 41397 71024 10251 20223 40212 57006 70322 85710 22263 04260 20202 312// 40405 5//// 80232
BBXX A8IY8 23124 99113 11107 41397 60327 10250 20207 40110 57/// 70122 86738 22254 04260 20306 30204 40506 50506 80220
BBXX SHIP 23124 99175 11269 41797 80332 10240 2023/ 40130 54000 70522 88/// 22244 00280 20807 303// 40908 5//// 6//// 80230 ICE /////
BBXX 42360 23121 99267 70905 46/// /0210 10211 91200 22200 00242 10702 70011 333 91213
BBXX FLAO 2312/ 99764 70847 46/// ///// 11338 40019 57002
BBXX MVQP8 23124 99286 70942 41497 80116 10150 20113 40235 52023 70322 85111 22200 00180 20402 302// 40402 5//// 80130
BBXX 46208 23121 99525 71327 46/// /2606 10074 40163 52045 22200 00076 11516 70081 333 91210
BBXX 46145 23121 99544 71324 46/// /2812 10070 40110 52074 22200 00072 11306 70032 333 91216
BBXX H9UY 23124 99245 71729 41698 60825 00/// 10220 40206 56010 70322 84516 9//// 22263 04250 20306 327// 40305 5//// 6//// 80200
BBXX A8ER9 23121 99538 71745 41998 23506 10005 21036 40080 52030 70200 81045 22264 04090 20602 3//// 4//// 5//// 81010
BBXX 44056 23121 99362 70757 46/// ///// 1//// 91150 22200 00130 10702 20702 70009
BBXX 44022 23121 99409 70737 46/// ///06 10079 20059 40116 91230 22200 00084 333 91208 555 11067 22072
BBXX 44040 23121 99410 70736 46/// /0206 10081 20081 40123 91219 22200 10301 70004 333 91207 555 11077 22093
BBXX 44138 23121 99443 70536 46/// /2907 10060 40201 52036 22200 00097 11008 70041 333 91209
BBXX 44137 23121 99423 70620 46/// /1504 10092 40167 57019 22200 00103 11006 70030 333 91205
BBXX KS094 23124 99130 70612 43/// /1019 10272 40149 22200 06266
BBXX KS007 23124 99267 70801 43/// ///// 10230 40168 22200
BBXX KS098 23124 99442 71246 43/// /1109 10098 40318 22261 06000
BBXX CFO383 23124 99439 70602 47498 /9905 10041 2003/ 40189 5//// 700// 8/ // 22200 00076 11006 2//// 3//// 70031 80035 333 91005
BBXX 46239 23121 99363 71221 46/// ///// 1//// 91221 22200 00134 11203 20802 331// 41202 70015
BBXX 46238 23121 99334 71195 46/// ///// 1//// 91220 22200 00141 11303 20902 328// 41302 70015
BBXX 46092 23121 99368 71220 46/// /0907 10084 40319 52004 91157 22200 00126 555 11072 22072
BBXX 44060 23121 99413 70721 46/// ///07 10071 40108 91230 22200 00103 333 91208 555 11072 22072
BBXX 44039 23121 99411 70727 46/// /0207 10083 20077 40117 91200 22200 00094 10201 70005 333 91209
BBXX 42364 23121 99291 70881 46/// /0109 10172 20144 40214 91230
BBXX 42362 23121 99278 70907 46/// /0311 10189 20144 40210 91230
BBXX 42363 23121 99282 70892 46/// /0211 10194 20144 40214 91230 333 91211
BBXX DBIP 23123 99365 10187 41097 83635 10110 20050 40110 56015 70322 887// 22223 04170 21010 3//// 4//// 5//// 80080
BBXX ZNQO3 23120 99466 70072 41297 63120 10115 20095 40251 57015 71144 85460 22213 04144 20705 328// 41006 5//// 80105
BBXX KS089 23124 99456 70084 43/// /3431 10122 22253
BBXX DPLE 23123 99536 10051 41598 82325 10090 20071 40140 57020 70222 889// 22263 00090 20804 80080
BBXX A8IG2 23123 99424 70349 41598 51920 10160 20152 40330 51010 70311 84462 22224 2//// 327// 40705 80155
AAXX 23121 63330 42580 11505 10240 20037 37785 40251 81100 333 59009 81820
AAXX 23121 63331 42580 12703 10270 20048 38038 40213 81100 333 59006 81825
AAXX 23121 63332 42580 33602 10252 20082 38220 40074 83100 333 58002 83825
AAXX 23121 63333 42580 11502 10262 20075 38150 40091 81100 333 59001 81825
AAXX 23121 63334 41570 62402 10230 20042 37626 40042 70521 85806
AAXX 23121 63340 42580 30902 10254 20098 37940 40161 83200 333 59010 83826
AAXX 23121 63403 41560 50103 10240 20131 70522 82530 333 82624 84360
AAXX 23121 63451 42580 10000 10270 20038 38123 40016 81100 333 59007 81826
AAXX 23121 63453 41975 02302 10320 2//// 39056 70500 333 59010
AAXX 23121 63460 42580 20401 10278 20108 82200 333 82825
AAXX 23121 63471 42580 10302 10290 20093 38851 40083 81101 333 59010 81827
AAXX 23121 63474 42580 20904 10228 20008 82100 333 82823
AAXX 23121 63478 41970 00904 10342 20219 39777 40155 70500 333 58006
AAXX 23121 63500 41570 20602 10296 20138 70500 82100 333 82825
AAXX 23124 42189 31995 20000 10170 20080 40121 70500 80001 333 10208 59007 82070
AAXX 23121 47008 31960 33201 11066 21112 30149 40205 57006 71000 83050 333 11017
AAXX 23121 47014 32950 80000 11171 21205 39802 40235 57001 8802/ 333 11112
AAXX 23121 47016 32970 20000 11134 21177 39312 40227 53014 82070 333 11098
AAXX 23121 47020 32965 70000 11114 21149 39840 40241 53001 87030 333 11078
AAXX 23121 47025 32960 03202 11066 21103 30165 40195 57006 333 10016
AAXX 23121 47035 32970 00000 11065 21137 30226 40235 52003 333 11040
AAXX 23121 47041 32570 13203 11033 21145 30167 40195 53004 81500 333 10015
AAXX 23121 47055 32965 00000 11030 21193 30166 40213 57005 333 10005
AAXX 23121 47058 11560 80501 11047 21064 30189 40238 57008 60022 77172 8802/ 333 11018
AAXX 23121 47069 11539 81802 11032 21053 30124 40228 57015 69902 77377 8802/ 333 11015
AAXX 23121 47003 32980 00000 11097 21190 30199 40203 53002 333 11064
AAXX 23121 47005 11560 81801 11169 21181 38529 57013 69922 77172 885// 333 11132
AAXX 23121 47022 32975 00000 11145 21188 38778 53001 333 11079
AAXX 23121 47028 32962 00000 11091 21136 30131 40231 53002 333 11033
AAXX 23121 47031 32970 00000 11139 21166 38883 54000 333 11094
AAXX 23121 47037 32970 00000 11086 21136 30104 40215 57010 333 11040
AAXX 23121 47039 32560 80000 11080 21142 30034 40235 57008 86501 333 11033
AAXX 23121 47046 32969 30000 11056 21117 30167 40191 57003 80002 333 10010
AAXX 23121 47050 32565 80000 11054 21124 30202 40237 54000 885// 333 11046
AAXX 23121 47052 32565 80000 11066 21103 39871 40225 57009 885// 333 11034
AAXX 23121 47060 11550 80901 11026 21026 30169 40229 57007 60022 77377 8802/ 333 11014
AAXX 23121 47061 32980 83203 11013 21108 30178 40223 54000 80003 333 10025
AAXX 23121 47065 11540 81402 11039 21051 30160 40228 57012 60012 77377 8802/ 333 11006
AAXX 23121 47067 31960 82704 11055 21106 30113 40239 57024 71022 8801/ 333 11010
AAXX 23121 47068 11560 80905 11045 21058 30179 40216 57009 60032 70272 885// 333 11005
AAXX 23121 47070 11560 80000 11051 21065 30152 40243 57008 69982 77172 8802/ 333 11003
AAXX 23121 47075 32980 02301 11080 21160 39713 40160 57020 333 11030
AAXX 23124 47418 12/65 12519 10005 21068 39918 49967 50002 69902 81200 333 10029
AAXX 23124 47575 11/15 82112 11038 21052 30073 40078 53008 60042 78583 883// 333 10004
AAXX 23124 47887 11/65 71505 10036 20005 30149 40192 51004 69952 72782 872// 333 10094
AAXX 23124 64700 32960 20208 10311 21039 39779 40116 80002 333 59001 82075
AAXX 23124 64701 NIL
AAXX 23124 64702 NIL
AAXX 23124 64705 32965 23604 10365 20063 3//// 4//// 80002 91200 333 0//00 5//// 82075
AAXX 23124 64706 32965 33212 10340 20044 39625 40092 80002 333 0//00 58000 83075
AAXX 23124 64708 32962 00000 10335 20034 3//// 4//// 91200 333 0//00 5////
AAXX 23124 64709 32962 20406 10312 20020 3//// 4//// 80002 91150 333 0//00 5//// 82075
AAXX 23124 64710 NIL
AAXX 23124 64713 NIL
AAXX 23124 64722 32962 20404 10360 20018 3//// 4//// 80002 91150 333 0//00 5//// 82075
AAXX 23124 64750 32965 60000 10364 20062 39679 40082 80002 91155 333 0//00 59002 86075
AAXX 23124 64751 32960 00000 10334 21002 3//// 4//// 91149 333 0//00 5////
AAXX 23124 64753 NIL
AAXX 23124 64754 32962 51404 10368 20077 3//// 4//// 80002 91150 333 0//00 5//// 85075
AAXX 23124 64756 32962 30000 10364 21010 39485 4//// 80002 91150 333 0//00 59005 83075
AAXX 23124 64757 32965 00000 10300 20035 3//// 4//// 91147 333 0//00 5////
AAXX 23124 64758 NIL
AAXX 23124 64761 NIL
AAXX 23124 63729 11480 70000 10197 20187 38869 48/// 60041 76196 8397/ 333 0//55 55300 58017 83616 81918 87358
AAXX 23124 63733 32580 72710 10250 20189 38855 48498 84932 333 55310 58014 83624 81925 85359
AAXX 23124 63791 31680 51310 10340 20147 39102 48509 71722 85900 333 55310 58011 81933 84834
AAXX 23124 63801 01580 72708 10232 20210 39218 48543 60011 72166 8397/ 333 0//11 55300 58036 69917 83621 81922 87359
AAXX 23124 63832 32580 70000 10240 20188 38824 48500 879// 333 55300 58026 87822 81923
AAXX 23124 63862 32580 60908 10256 20187 38894 48514 82973 333 55308 58020 82822 81924 84077
AAXX 23124 63866 32680 40610 10305 20210 39506 48/// 84900 333 55310 58008 86830 81932
AAXX 23124 63870 32580 30511 10316 20228 30082 40100 83900 333 55310 59005 83822 81924
AAXX 23124 63881 32480 53003 10199 20151 38209 48/// 60051 85900 333 0//66 55300 58018 85618 81921
AAXX 23124 63894 12580 53610 10304 20252 30047 40107 60001 8593/ 333 55310 58016 85824 81925 83357
AAXX 23124 63962 12580 40510 10280 20183 38940 48509 60031 83903 333 0//25 55310 58011 83825 81927 83075
AAXX 23124 63971 11580 50805 10287 20256 39979 40107 60011 70162 85901 333 0//13 55300 58011 85820 81921
AAXX 23124 63756 NIL
AAXX 23124 63887 NIL
AAXX 23124 63932 NIL
BBXX A8ER9 23121 99538 71745 41998 23506 10005 21036 40080 52030 70200 81045 22264 04090 20602 3//// 4//// 5//// 81010
BBXX SHIP 23124 99544 71656 41596 60617 10015 21010 40983 51003 77017 85/// 91200 22224 00050 2//// 3//// 4//// 80005
BBXX TBWUK19 23124 99536 71577 41/97 40332 10031 20013 49936 7//// 8//7/ 22263 20807 320// 41204 5//// 80024
AAXX 23124 89625 46/// /3108 11271 29073 36458 4//// 5//// 91200
AAXX 23124 89646 46/// ///// 11221 29079 37612 4//// 5////
AAXX 23124 89648 46/// /2406 11215 29069 37154 4//// 5////
AAXX 23124 89659 46/// /2914 11209 29072 37649 4//// 5////
AAXX 23124 89661 46/// /2804 11033 29040 39199 4//// 5////
AAXX 23124 89662 42980 12930 10017 21151 39688 49791 57008 81040 222 ICE 98015 333 81367
AAXX 23124 89666 46/// /1707 11037 29085 39619 4//// 5////
AAXX 23121 45032 36/// /0104 10121 20031 30211 40228 52001 333 91109
AAXX 23121 45035 36/// /0505 10120 20062 30183 40226 52001
AAXX 23121 45039 36/// /0205 10127 20050 30206 40222 52001 333 91110
AAXX 23121 45044 36/// /0206 10134 20066 30122 40218 52001
AAXX 23124 71974 46/// /3507 11299 21325 30014 40058 51002 6///1 333 11239 21302 7////
AAXX 23124 71073 16/// /2012 11029 21101 60001 333 10025 21056 70000
AAXX 23124 71012 16/// /1706 11069 21106 60001 333 10017 21083 70000
AAXX 23124 71013 46/// ///// 11019 21091 6///1 333 11010 21074 7////
AAXX 23124 71060 16/// /2507 10014 21132 38597 40166 58005 60001 333 10012 21028 4/017 70000
AAXX 23124 71495 16/// /2519 10023 21137 60001 333 10019 21006 70000
AAXX 23124 71399 16/// ///// 11096 21119 60001 333 10006 21111 70000
AAXX 23124 71848 16/// ///// 11006 21111 60001 333 10025 21047 70000
AAXX 23124 71565 16/// /2321 10058 21092 60001 333 11022 21109 4/001 70007
AAXX 23124 71567 16/// /1406 11097 21107 60001 333 10003 21107 70000
AAXX 23124 71793 16/// ///// 11118 21135 60001 333 10013 21130 70000
AAXX 23121 45032 36/// /0104 10121 20031 30211 40228 52001 333 91109
AAXX 23121 45035 36/// /0505 10120 20062 30183 40226 52001
AAXX 23121 45039 36/// /0205 10127 20050 30206 40222 52001 333 91110
AAXX 23121 45044 36/// /0206 10134 20066 30122 40218 52001
BBXX AUYK 23124 99292 11241 44197 80128 10104 20060 4//// 54000 70106 86300 22212 00206 29906
BBXX DQVN 23124 99098 10699 41597 30812 10291 20204 40080 56010 70200 81145 22265 00293 2//02 80230
BBXX A8CI9 23124 99100 30571 41598 31514 10295 20226 40085 57015 7//00 82106 22244 04300 20203 316// 40604 80245
BBXX PHJV 23124 99010 31075 41498 60606 10278 20240 40052 53019 70111 8389/ 22273 06288 20501 335// 40801 80250
BBXX VQOG5 23124 99062 10782 41398 80225 10270 20234 40075 55000 70222 8672/ 22264 00272 20405 399// 40302 80245
BBXX ZQDI9 23123 99165 11160 41397 80230 10250 20204 40131 53020 71586 887// 22212 00259 20506 303// 40607 80220
BBXX PCSV 23124 99235 30512 41/97 /0701 10280 20280 40160 54000 702// 8/1// 22253 04260 20502 307// 40502 80280
BBXX V7SY6 23124 99059 10864 41798 83605 10260 20246 40170 57020 76162 87348 222// 00240 20218 303// 40216 80250
BBXX AUYK 23124 99292 11241 44197 80128 10104 20060 4//// 54000 70106 86300 22212 00206 29906
BBXX DQVN 23124 99098 10699 41597 30812 10291 20204 40080 56010 70200 81145 22265 00293 2//02 80230
BBXX A8CI9 23124 99100 30571 41598 31514 10295 20226 40085 57015 7//00 82106 22244 04300 20203 316// 40604 80245
BBXX PHJV 23124 99010 31075 41498 60606 10278 20240 40052 53019 70111 8389/ 22273 06288 20501 335// 40801 80250
BBXX VQOG5 23124 99062 10782 41398 80225 10270 20234 40075 55000 70222 8672/ 22264 00272 20405 399// 40302 80245
BBXX ZQDI9 23123 99165 11160 41397 80230 10250 20204 40131 53020 71586 887// 22212 00259 20506 303// 40607 80220
BBXX PCSV 23124 99235 30512 41/97 /0701 10280 20280 40160 54000 702// 8/1// 22253 04260 20502 307// 40502 80280
BBXX V7SY6 23124 99059 10864 41798 83605 10260 20246 40170 57020 76162 87348 222// 00240 20218 303// 40216 80250
BBXX 46241 23121 99330 71173 46/// ///// 1//// 91211 22200 00140 11301 326// 41301 70004
AAXX 23124 71073 16/// /2012 11029 21101 60001 333 10025 21056 70000
AAXX 23124 71793 16/// ///// 11118 21135 60001 333 10013 21130 70000
AAXX 23124 71974 46/// /3507 11299 21325 30014 40058 51002 6///1 333 11239 21302 7////
AAXX 23124 71848 16/// ///// 11006 21111 60001 333 10025 21047 70000
AAXX 23124 71495 16/// /2519 10023 21137 60001 333 10019 21006 70000
AAXX 23124 71565 16/// /2321 10058 21092 60001 333 11022 21109 4/001 70007
AAXX 23124 71567 16/// /1406 11097 21107 60001 333 10003 21107 70000
AAXX 23124 71012 16/// /1706 11069 21106 60001 333 10017 21083 70000
AAXX 23124 71013 46/// ///// 11019 21091 6///1 333 11010 21074 7////
AAXX 23124 71060 16/// /2507 10014 21132 38597 40166 58005 60001 333 10012 21028 4/017 70000
AAXX 23124 71399 16/// ///// 11096 21119 60001 333 10006 21111 70000
AAXX 23124 67002 32581 32605 10308 20240 30098 40131 83802 333 0//00 58013 82823 92408
AAXX 23124 67009 31575 62818 10310 20245 39984 40102 56016 71792 86900 333 0//00 86820 91920 94976 95836 555 10340
AAXX 23124 67012 32582 32808 10326 20233 30088 40099 57023 83900 333 0//00 81920 83820
AAXX 23124 67025 31575 20608 10303 20240 30013 40111 57016 70400 82900 333 0//00 82820 81920 94967 95837 555 81640
AAXX 23124 67027 32582 12816 10321 20247 30080 40101 57021 81202 333 0//00 81820 555 81073
AAXX 23124 67045 NIL
AAXX 23124 67072 32581 21008 10310 20254 30125 40128 57018 82903 333 0//00 82820 81920 92428
AAXX 23124 67073 32582 2//// 10318 20222 30087 40113 57018 81905 333 0//00 81823 81923 94961 95831 555 82273
AAXX 23124 67083 32582 60602 10293 20143 38750 48526 57021 86900 333 0//00 85820 81920 94971 94973 95813
AAXX 23124 67095 32481 30608 10308 20255 30122 40128 56010 83802 333 0//00 83817 555 81633 81073
AAXX 23124 67113 32570 5//// 10285 20253 30/// 40/// 5//// 71591 85903 333 0//00 82820 82920 85073
AAXX 23124 67117 NIL
AAXX 23124 67137 11460 7//04 10259 20197 38899 48505 56013 69971 76011 86903 333 0//10 84817 93917
AAXX 23124 67143 32582 1//// 10/// 20/// 30140 333 0//00 81820 92438 555 81360
AAXX 23124 67152 32582 3//// 10296 20244 39213 48528 58006 83200 333 0//00 83820
AAXX 23124 67157 32580 2//// 10/// 20/// 30140 40147 57025 82800 333 0//00 82820 555 81640
AAXX 23124 67161 NIL
AAXX 23124 67197 11465 60804 10280 20238 30123 40133 55001 69951 71796 86900 333 0//11 83817 83917 84633 94965 94966 94967 95875 95876 95877
AAXX 23123 63612 32680 50818 10350 20137 40077 81162 333 58002 81834 85080
AAXX 23123 63661 32580 33604 10265 20090 48506 82104
AAXX 23123 63671 32680 30000 10326 20204 83200 333 83830
AAXX 23123 63695 32581 50903 10236 20158 85200 333 85824
AAXX 23123 63723 32682 42406 10345 20196 40091 84200 333 58014 84830
AAXX 23123 63793 32580 33608 10318 20164 40059 83200 333 58010 83827
BBXX 46216 23121 99343 71198 46/// ///// 1//// 91227 22200 00144 11102 21001 327// 41101 70009
BBXX 46223 23121 99335 71178 46/// ///// 1//// 91230 22200 00146 11302 21001 327// 41302 70009
BBXX 46231 23121 99327 71174 46/// ///// 1//// 91224 22200 00147 11302 21001 327// 41301 70008
BBXX 46222 23121 99336 71183 46/// ///// 1//// 91226 22200 00149 11302 21001 327// 41301 70008
BBXX 46242 23121 99332 71174 46/// ///// 1//// 91228 22200 00141 11301 21001 323// 41301 70005
AAXX 23123 63602 32570 60703 10305 20154 38786 84901
AAXX 23123 63631 32570 61906 10302 20/// 82305 333 82823 81924 85280 555 10///
AAXX 23121 89063 42497 83601 11019 21025 39892 49903 52005 886// 333 11016 21041
AAXX 23121 37661 41093 93401 10048 20046 39392 40153 57025 74544 555 11007
AAXX 23121 37675 41495 80701 10026 20010 39492 40157 57018 70242 8802/ 555 11004
AAXX 23121 37729 42598 82903 10075 20043 38528 57012 885//
AAXX 23121 37735 42596 83602 10059 20035 39772 40149 58009 887// 555 11008
AAXX 23121 37740 42497 82702 10045 20038 39347 40153 57016 885// 555 10006
AAXX 23121 37749 42598 81602 10082 20051 30075 40191 57019 887// 555 11009
AAXX 23121 37832 42998 73201 10074 20061 30079 40164 57018 87/20 555 10010
AAXX 23121 37851 42496 81503 10073 20048 30077 40146 57030 71022 886//
AAXX 23121 37864 32497 80000 10077 20046 40155 57013 8661/ 333 86713
AAXX 23121 37905 42996 73402 10067 20046 30076 40164 57025 87030 555 10009
AAXX 23121 37923 41496 80000 10074 20061 30169 40149 58020 75055 886// 555 11009
AAXX 23121 37925 41598 80000 10096 20085 30181 40152 57017 75052 886// 555 11010
AAXX 23121 37985 41495 83201 10087 20081 30171 40164 57020 75055 886// 555 11009
AAXX 23121 37989 42497 83602 10095 20085 30185 40158 57013 887// 555 10012
AAXX 23121 37470 42498 81301 10054 20041 30169 40146 58024 889//
AAXX 23121 37472 41596 81003 10052 20041 30168 40145 58021 71022 8557/
AAXX 23121 38111 42597 80802 10014 21107 30186 40157 57018 885// 555 10002
AAXX 23121 38750 42997 21203 10103 20062 30175 40147 58042 80001 555 10010
BBXX 63106 23124 99610 10017 46/// /2527 10069 49949 51005 22200
BBXX 63113 23124 99610 10017 46/// /2627 10073 21004 49969 53005 22200 11015 70075
BBXX 63110 23123 99595 10015 41697 42635 10076 40003 70511 8/1// 22200 10809 70047
BBXX 62103 23124 99499 70029 46/97 /2033 10117 20099 40160 57033 22200 00123 10704 70019 333 90710 91140
BBXX DIHE 23124 99458 70317 41/98 81932 10125 20057 40320 54000 70222 8777/ 22224 00140 20908 326// 41307 80090
BBXX DDSC2 23123 99497 70036 41296 82234 10125 20107 40145 57041 76166 87620 22254 00119 21210 327// 41310 80115
BBXX 46221 23121 99339 71186 46/// ///// 1//// 91215 22200 00148 11302 20901 327// 41301 70008
AAXX 23124 89507 46/89 /1411 11175 29061 36861 4//// 5////
AAXX 2312/ 89767 46/// ///// 11011 39746 4//// 5////
AAXX 23124 94997 46/// ///// 10119 39921 49936 5////
AAXX 23124 94997 46/// ///// 10119 39921 49936 5////
BBXX 44039 23121 99411 70727 46/// /0107 10080 20076 40120 91230 22200 00094 10201 70005 333 91209
AAXX 23124 71409 16/// ///// 11057 21098 60001 333 10029 21098 70000
AAXX 23124 71433 46/// /1012 11068 21075 30008 40246 50000 6///1 333 10022 21075 7////
AAXX 23124 71502 16/// /3303 11281 21304 30033 40049 50000 60001 333 11208 7////
AAXX 23124 71509 16/// /2620 10022 21141 60001 333 10029 21004 70000
AAXX 23124 71517 16/// /2709 11010 21146 60001 333 10026 21032 70000
AAXX 23124 71518 16/// /2317 11004 21094 60001 333 10045 21044 70000
AAXX 23124 71519 16/// /1708 11050 21077 60001 333 10017 21053 70000
AAXX 23124 71520 16/// /1501 11336 21370 39508 40228 53006 60001 333 11054 21336 70000
AAXX 23124 71521 16/// ///// 11217 21256 60001 333 11043 21217 70000
AAXX 23124 71523 16/// ///// 11254 21280 39830 40225 51009 60001 333 11027 21254 70000
AAXX 23124 71528 16/// /2423 10007 21130 60001 333 10033 21023 70000
AAXX 23124 71051 16/// ///// 11115 21135 60001 333 10012 21147 70000
AAXX 23124 71057 16/// ///// 11001 21097 60001 333 10029 21091 70000
AAXX 23124 71070 16/// ///// 11008 21102 60001 333 10027 21056 70000
AAXX 23124 71089 16/// ///// 11077 21103 60001 333 10020 21089 70000
AAXX 23124 71383 16/// ///// 11223 21257 39580 40218 53010 60001 333 11044 21224 70000
AAXX 23124 71841 16/// /1103 11137 21154 39811 40229 56017 60001 333 11124 21258 4/020 70000
AAXX 23124 71102 16/// ///// 11091 21114 60001 333 10011 21098 70000
AAXX 23124 71105 16/// ///// 11024 21088 60001 333 10023 21093 70000
AAXX 23124 71789 16/// ///// 10003 21145 60001 333 10042 21013 70000
AAXX 23124 71791 16/// /1306 11066 21101 60001 333 10011 21080 70000
AAXX 23124 71794 17/// ///// 11072 21109 69941 7//4/ 333 10009 21093 70004
AAXX 23124 71795 16/// ///// 11004 21069 60001 333 10009 21043 70000
AAXX 23124 71796 16/// ///// 11039 21103 60001 333 10024 21087 70000
AAXX 23124 71006 16/// /2013 11032 21084 60001 333 10022 21073 70000
AAXX 23124 71007 46/// ///// 11008 21115 6///1 333 10045 21051 7////
AAXX 23124 71008 16/// /2208 11061 21096 60001 333 11004 21123 70000
AAXX 23124 71009 16/// /1306 11023 21110 60001 333 10023 21079 70000
AAXX 23124 71035 16/// ///// 10030 21100 60001 333 10018 21051 70000
AAXX 23124 71433 46/// /1012 11068 21075 30008 40246 50000 6///1 333 10022 21075 7////
AAXX 23124 71841 16/// /1103 11137 21154 39811 40229 56017 60001 333 11124 21258 4/020 70000
AAXX 23124 63887 31580 73010 10230 20156 38585 48507 71792 8597/ 333 55300 58006 85620 81921 87358
AAXX 23124 96995 46/// /2704 10255 20241 39762 40055
AAXX 23124 96995 46/// /2704 10255 20241 39762 40055
AAXX 23124 89614 46/// ///// 38871 4//// 5//// 91230 333 90700 91129
AAXX 23124 89807 46/// /1617 10006 29086 39659 4//// 5//// 91230 333 90700 91124
AAXX 23124 89807 46/// /1617 10006 29086 39659 4//// 5//// 91230 333 90700 91124
AAXX 23124 89614 46/// ///// 38871 4//// 5//// 91230 333 90700 91129
AAXX 23124 89667 46/// /0503 11064 29088 39805 4//// 5//// 91230
AAXX 2312/ 89828 46/// ///// 11251 36487 4//// 5//// 91230
AAXX 2312/ 89828 46/// ///// 11258 36487 4//// 5//// 91240
AAXX 2312/ 89108 46/// ///// 11186 37013 4//// 5//// 91230
AAXX 2312/ 89108 46/// ///// 11188 37013 4//// 5//// 91240
AAXX 2312/ 89879 46/// ///// 10015 39743 4//// 5//// 91230
AAXX 2312/ 89872 46/// ///// 11081 39755 4//// 5//// 91230
AAXX 2312/ 89869 46/// ///// 11029 39737 4//// 5//// 91230
AAXX 2312/ 89869 46/// ///// 11025 39737 4//// 5//// 91240
AAXX 2312/ 89866 46/// ///// 11008 39707 4//// 5//// 91230
AAXX 2312/ 89329 46/// ///// 11054 38722 4//// 5//// 91240
AAXX 2312/ 89799 46/// ///// 11191 4//// 5//// 91230
AAXX 2312/ 89799 46/// ///// 11191 4//// 5//// 91240
AAXX 2312/ 89769 46/// ///// 11068 39770 4//// 5//// 91230
AAXX 2312/ 89314 46/// ///// 11055 38241 4//// 5//// 91230
AAXX 23121 89063 42497 83601 11019 21025 39892 49903 52005 886// 333 11016 21041
BBXX VREN5 23123 99342 31662 41598 40914 10190 20138 40227 50020 70011 84441 22262 2//// 80160
BBXX mpjh9 23124 99133 31544 41698 43315 10286 20255 40047 71322 8339/ 22244 00299 2//// 80264
BBXX VREN5 23123 99342 31662 41598 40914 10190 20138 40227 50020 70011 84441 22262 2//// 80160
BBXX mpjh9 23124 99133 31544 41698 43315 10286 20255 40047 71322 8339/ 22244 00299 2//// 80264
BBXX SHIP 23124 99274 11219 41/97 50420 10110 20050 40231 54000 70222 83/// 22212 00100 2//// 3//// 4//// 80080
BBXX V7SY6 23124 99059 10864 41798 83605 10260 20246 40170 57020 76162 87348 222// 00240 20218 303// 40216 80250
BBXX ZQDI9 23123 99165 11160 41397 80230 10250 20204 40131 53020 71586 887// 22212 00259 20506 303// 40607 80220
BBXX VQOG5 23124 99062 10782 41398 80225 10270 20234 40075 55000 70222 8672/ 22264 00272 20405 399// 40302 80245
BBXX AUYK 23124 99292 11241 44197 80128 10104 20060 4//// 54000 70106 86300 22212 00206 29906
BBXX DACP 23123 99101 10756 41398 60510 10295 40090 51005 701// 8473/ 22244 2//01 3//// 4//// 5////
BBXX DQVN 23124 99098 10699 41597 30812 10291 20204 40080 56010 70200 81145 22265 00293 2//02 80230
BBXX PCSV 23124 99235 30512 41/97 /0701 10280 20280 40160 54000 702// 8/1// 22253 04260 20502 307// 40502 80280
BBXX A8CI9 23124 99100 30571 41598 31514 10295 20226 40085 57015 7//00 82106 22244 04300 20203 316// 40604 80245
BBXX E5U2123 23123 99297 70153 41598 50519 10193 20115 40293 51030 70211 85800 22283 00204 20304 30402 40504 50603 80150
BBXX DGUG2 23124 99115 70273 41396 50820 10265 20208 40150 50005 70522 83610 22244 04270 20604 30000 80225
BBXX PHJV 23124 99010 31075 41498 60606 10278 20240 40052 53019 70111 8389/ 22273 06288 20501 335// 40801 80250
BBXX UGWJ 23121 99056 30812 42598 62505 10300 40085 56015 86710 22252 00281 20301 333 00 40805
BBXX UGWJ 23121 99056 30812 42598 62505 10300 40085 56015 86710 22252 00281 20301 33300 40805
BBXX 44039 23121 99411 70727 46/// /0107 10080 20076 40120 91230 22200 00094 10201 70005 333 91209
BBXX WADN 23123 99314 70471 41497 50512 10210 2018/ 40250 54003 70110 8427/ 22223 0//// 20401 30233 41004 50802 6//// 80190 ICE//
BBXX 46221 23121 99339 71186 46/// ///// 1//// 91215 22200 00148 11302 20901 327// 41301 70008
BBXX 46222 23121 99336 71183 46/// ///// 1//// 91226 22200 00149 11302 21001 327// 41301 70008
BBXX 46242 23121 99332 71174 46/// ///// 1//// 91228 22200 00141 11301 21001 323// 41301 70005
BBXX 46231 23121 99327 71174 46/// ///// 1//// 91224 22200 00147 11302 21001 327// 41301 70008
BBXX 46223 23121 99335 71178 46/// ///// 1//// 91230 22200 00146 11302 21001 327// 41302 70009
BBXX 46216 23121 99343 71198 46/// ///// 1//// 91227 22200 00144 11102 21001 327// 41101 70009
BBXX 46241 23121 99330 71173 46/// ///// 1//// 91211 22200 00140 11301 326// 41301 70004
BBXX 41053 23121 99185 70661 46/// /1007 10258 40182 91230 333 91212
BBXX 41052 23121 99183 70648 46/// /0609 10265 40172 52014 91200 22200 00271 10803 70017 333 91212
BBXX 41053 23121 99185 70661 46/// /1006 10250 40180 91220 333 91210
BBXX 41053 23121 99185 70661 46/// /1204 10250 40179 91210 333 91206
BBXX 41033 23121 99323 70804 46/// /2604 10161 40187 53016 91200 555 11055 22065
BBXX DDSC2 23123 99497 70036 41296 82234 10125 20107 40145 57041 76166 87620 22254 00119 21210 327// 41310 80115
BBXX DIHE 23124 99458 70317 41/98 81932 10125 20057 40320 54000 70222 8777/ 22224 00140 20908 326// 41307 80090
AAXX 2312/ 89866 46/// ///// 10000 39707 4//// 5//// 91240
AAXX 2312/ 89769 46/// ///// 11073 39769 4//// 5//// 91240
BBXX TBWUK17 23123 99239 30663 41397 71024 10251 20223 40212 57006 70322 85710 22263 04260 20202 312// 40405 5//// 80232
BBXX DEGL 23124 99257 30469 41/98 10315 10265 20236 40120 57030 702// 8//// 22214 20402 309// 4//04 5//// 80245
AAXX 23124 71249 16/// /2317 11021 21090 60001 333 11005 21058 70000
AAXX 23124 71413 16/// ///// 11097 21116 60001 333 10025 21111 70000
AAXX 23124 71414 16/// ///// 11115 21127 60001 333 10009 21115 70000
AAXX 23124 71440 16/// ///// 11003 21088 60001 333 10020 21051 70000
AAXX 23124 71014 16/// /1508 11016 21095 60001 333 21069 7////
AAXX 23124 71674 16/// ///// 11032 21088 60001 333 10019 21088 70000
AAXX 23124 71481 16/// /2714 10040 21095 60001 333 10030 21065 70000
AAXX 23124 71498 16/// /2111 11056 21099 60001 333 10000 21070 70000
AAXX 23124 71360 16/// ///// 11104 21123 60001 333 10012 21112 70000
AAXX 23124 71380 16/// /2315 10003 21098 60001 333 10022 21109 70000
AAXX 23124 71346 16/// /2327 10011 21119 60001 333 10033 21025 70000
AAXX 23124 71857 17/// ///// 11102 21114 69941 7//4/ 333 10011 21121 70004
AAXX 23124 71055 46/// /0117 11206 21225 39628 49964 58019 6///1 333 11164 21226 7////
AAXX 23124 71065 16/// ///// 11078 21103 60001 333 10024 21125 70000
AAXX 23124 71797 16/// ///// 11057 21088 60001 333 10008 21088 70000
AAXX 23124 71540 16/// /2711 10003 21093 60001 333 11029 21137 70000
AAXX 23124 71544 16/// ///// 11035 21087 60001 333 10009 21057 70007
AAXX 23124 71548 16/// ///// 11029 21080 60001 333 10010 21065 70000
AAXX 23124 71014 16/// /1508 11016 21095 60001 333 21069 7////
AAXX 23124 71413 16/// ///// 11097 21116 60001 333 10025 21111 70000
AAXX 23124 71414 16/// ///// 11115 21127 60001 333 10009 21115 70000
AAXX 23124 71440 16/// ///// 11003 21088 60001 333 10020 21051 70000
AAXX 23124 71674 16/// ///// 11032 21088 60001 333 10019 21088 70000
AAXX 23121 30493 11998 81102 11310 21347 39163 40333 52002 69902 77172 8801/ 333 11308
BBXX 46145 23121 99544 71324 46/// /2812 10070 40110 52074 22200 00072 11306 70032 333 91216
BBXX 46208 23121 99525 71327 46/// /2606 10074 40163 52045 22200 00076 11516 70081 333 91210
AAXX 23121 59158 32562 80103 10151 20092 30094 40197 51022 885//
AAXX 23121 59562 32660 83401 10174 20119 30171 40183 51014 885//
AAXX 23121 59567 12460 80107 10167 20151 39793 40176 53014 60022 885//
AAXX 23121 58968 11560 80801 10139 20109 30211 40219 51017 69902 76162 887//
AAXX 23121 58974 11560 80208 10132 20094 30094 40221 51013 69902 76162 885//
AAXX 23121 59358 31650 60106 10154 20101 30163 40195 51021 70511 86500
AAXX 23121 59559 32570 40206 10189 20131 30142 40171 52009 84400
AAXX 23121 59792 32560 80210 10188 20146 30180 40185 52015 8562/
AAXX 23121 59997 32460 50605 10274 20261 30086 40094 52022 83810
AAXX 23124 88903 45/// /2912 10098 21017 39843 49843 52005 333 10098 20054
BBXX 42085 23121 99179 70665 46/// /0609 10256 40178 91230 333 91211
BBXX 42085 23121 99179 70665 46/// /0608 10255 40176 91220 333 91210
BBXX 42085 23121 99179 70665 46/// /0609 10254 40176 91210 333 91211
OOXX PTP53 23101 99377 70257 ///// 00121 26/// /1103 10171 29001 30282 91010 333 60000
OOXX PTP53 23101 99377 70257 ///// 00121 26/// /1003 10173 29001 30285 91020 333 60000
OOXX PTP53 23101 99377 70257 ///// 00121 26/// /1103 10176 29001 30286 91030 333 60000
OOXX PTP53 23101 99377 70257 ///// 00121 26/// /1104 10177 29001 30287 91040 333 60000
OOXX PTP53 23101 99377 70257 ///// 00121 26/// /1103 10179 29001 30288 91050 333 60000
OOXX PTP53 23111 99377 70257 ///// 00121 26/// /1004 10180 29001 30289 91100 333 60000
OOXX PTP53 23111 99377 70257 ///// 00121 26/// /1105 10180 29001 30290 91110 333 60000
OOXX PTP53 23111 99377 70257 ///// 00121 26/// /1206 10179 29001 30292 91120 333 60000
OOXX PTP53 23111 99377 70257 ///// 00121 26/// /1206 10179 29001 30292 91130 333 60000
OOXX PTP53 23111 99377 70257 ///// 00121 26/// /1105 10178 29001 30293 91140 333 60000
OOXX PTP53 23111 99377 70257 ///// 00121 26/// /1206 10176 29001 30293 91150 333 60000
OOXX PTP53 23121 99377 70257 ///// 00121 26/// /1206 10173 29001 30293 91200 333 60000
OOXX FRP29 23101 99210 30556 ///// 00751 26/// /1809 10279 29078 39886 91009 333 60000
OOXX FRP29 23101 99210 30556 ///// 00751 26/// /1809 10280 29077 39880 91019 333 60000
OOXX FRP29 23101 99210 30556 ///// 00751 26/// /2010 10280 29077 39882 91029 333 60000
OOXX FRP29 23101 99210 30556 ///// 00751 26/// /2109 10276 29078 39877 91039 333 60000
OOXX FRP29 23101 99210 30556 ///// 00751 26/// /2008 10276 29079 39879 91049 333 60000
OOXX FRP29 23101 99210 30556 ///// 00751 26/// /2009 10274 29078 39877 91059 333 60000
OOXX FRP29 23111 99210 30556 ///// 00751 26/// /2009 10276 29077 39877 91109 333 60000
OOXX FRP29 23111 99210 30556 ///// 00751 26/// /2008 10278 29077 39879 91119 333 60000
OOXX FRP29 23111 99210 30556 ///// 00751 26/// /1808 10277 29076 39881 91129 333 60000
OOXX FRP29 23111 99210 30556 ///// 00751 26/// /1907 10277 29076 39882 91139 333 60000
OOXX FRP29 23111 99210 30556 ///// 00751 26/// /2007 10278 29076 39882 91149 333 60000
OOXX FRP29 23111 99210 30556 ///// 00751 26/// /2008 10275 29078 39878 91159 333 60000
AAXX 23123 63684 32580 72904 10291 20150 38813 48/// 86933 333 58007 85823 81929 86278 555 10201
AAXX 23123 63658 32580 71805 10300 20150 38858 48488 83907 333 58012 83820 81922 87280 555 10205
AAXX 23123 63680 32575 82503 10250 20187 38828 8696/ 333 58013 86823 91925 88362 555 10208
AAXX 23123 63682 32582 72606 10256 20147 48/// 82908 333 81822 81925 87280 555 10188
AAXX 23124 08373 02968 02106 10172 20117 30240 40261 58006 69901 333 60007
AAXX 23124 91844 46/// /0407 10268 40097 22200 00282
AAXX 23124 89610 46/// /0425 11021 39530 4//// 5//// 333 90700 91129
AAXX 23124 89610 46/// /0425 11021 39530 4//// 5//// 333 90700 91129
AAXX 23124 89610 46/// /0425 11021 39530 4//// 5//// 333 90700 91129
BBXX 63110 23124 99595 10015 47597 /2624 10079 20021 40004 50004 700// 22200 10809 70047
BBXX 63106 23124 99610 10017 46/// /2527 10069 49949 51005 22200
BBXX 63105 23124 99610 10017 47997 ///// 10072 20005 49948 50004 700// 22200
BBXX 62103 23124 99499 70029 46/98 /2030 10119 20098 40178 57018 22200 00123 10703 70017 333 90710 91139
AAXX 23124 03008 11465 62622 10054 20016 40001 60011 72781 869// 91150 333 84915 83818 90710 91147
BBXX C6VG8 23124 99285 70766 41/// /1714 10230 2//// 40210 54010 7//00 8//// 22284 00250 20102 3//// 40204 5//// 6//// 8//// ICE /////
BBXX WUR8857 23124 99436 70876 43/98 13007 11050 2//// 40254 5//// 7//// 8//// 22243 00050 20201 3//// 4//// 5//// 6//// 8//// ICE /////
BBXX ONFP 23124 99164 30722 43596 71230 10280 2024/ 40100 56010 76022 87363 22212 04270 20807 31313 40807 51007 6//// 80250 ICE /////
BBXX 9V7645 23123 99143 70772 41797 70830 10270 20235 40120 56005 70310 8582/ 22254 04290 20303 306// 40806 5//// 6//// 80245 ICE /////
BBXX BSH05 23121 99549 10082 46/// ///// 22200 20603 70013
BBXX BSH03 23121 99540 10081 46/// ///// 22200 00067 20703 70013
BBXX ONFP 23124 99164 30722 43596 71230 10280 2024/ 40100 56010 76022 87363 22212 04270 20807 31313 40807 51007 6//// 80250 ICE /////
BBXX MPJH9 23124 99133 31544 41698 43315 10286 20255 40047 71322 8339/ 22244 00299 2//// 80264
BBXX mpjh9 23124 99133 31544 41698 43315 10286 20255 40047 71322 8339/ 22244 00299 2//// 80264
BBXX VREN5 23123 99342 31662 41598 40914 10190 20138 40227 50020 70011 84441 22262 2//// 80160
BBXX 9V7645 23123 99143 70772 41797 70830 10270 20235 40120 56005 70310 8582/ 22254 04290 20303 306// 40806 5//// 6//// 80245 ICE /////
BBXX 42085 23121 99179 70665 46/// /0609 10254 40176 91210 333 91211
BBXX 42085 23121 99179 70665 46/// /0608 10255 40176 91220 333 91210
BBXX 42085 23121 99179 70665 46/// /0609 10256 40178 91230 333 91211
BBXX 9V8796 23124 99393 70600 41498 61815 10180 20164 40200 58009 70222 8471/ 22224 00203 20301 327// 40905 80170
BBXX AVMI 23123 99330 31517 41298 70606 10210 20/// 40230 54000 70312 85/// 22200 00260
OOXX ARP01 23101 99345 50585 ///// 00311 26/// /1402 10094 29037 30093 91010 333 60000
OOXX ARP01 23101 99345 50585 ///// 00311 26/// /1101 10094 29035 30094 91020 333 60000
OOXX ARP01 23101 99345 50585 ///// 00311 26/// /1602 10093 29035 30095 91030 333 60000
OOXX ARP01 23101 99345 50585 ///// 00311 26/// /1602 10094 29034 30097 91040 333 60000
OOXX ARP01 23101 99345 50585 ///// 00311 26/// /1402 10097 29033 30098 91050 333 60000
OOXX ARP01 23111 99345 50585 ///// 00311 26/// /1402 10096 29032 30099 91100 333 60000
OOXX ARP01 23111 99345 50585 ///// 00311 26/// /1601 10096 29032 30099 91110 333 60000
OOXX ARP01 23111 99345 50585 ///// 00311 26/// /1101 10095 29033 30100 91120 333 60000
OOXX ARP01 23111 99345 50585 ///// 00311 26/// /1403 10096 29032 30102 91130 333 60000
OOXX ARP01 23111 99345 50585 ///// 00311 26/// /1401 10098 29031 30106 91140 333 60000
OOXX ARP01 23111 99345 50585 ///// 00311 26/// /1101 10098 29032 30109 91150 333 60000
OOXX ARP01 23121 99345 50585 ///// 00311 26/// /1602 10097 29032 30110 91200 333 60000
OOXX AUP07 23101 99/// ///// ///// ///// 26/// /3109 10073 29096 30124 91049 333 60000
OOXX AUP07 23101 99/// ///// ///// ///// 26/// /3109 10074 29096 30124 91059 333 60000
OOXX AUP07 23111 99/// ///// ///// ///// 26/// /3109 10074 29096 30124 91109 333 60000
OOXX AUP07 23111 99/// ///// ///// ///// 26/// /3009 10073 29096 30124 91119 333 60000
OOXX AUP07 23111 99/// ///// ///// ///// 26/// /3008 10073 29096 30124 91129 333 60000
OOXX AUP07 23111 99/// ///// ///// ///// 26/// /3008 10073 29096 30124 91139 333 60000
OOXX AUP07 23111 99/// ///// ///// ///// 26/// /3008 10073 29096 30124 91149 333 60000
OOXX AUP07 23111 99/// ///// ///// ///// 26/// /3009 10072 29096 30123 91159 333 60000
OOXX AUP07 23121 99/// ///// ///// ///// 26/// /3008 10072 29096 30123 91209 333 60000
OOXX AUP07 23121 99/// ///// ///// ///// 26/// /2907 10072 29095 30122 91219 333 60000
OOXX AUP07 23121 99/// ///// ///// ///// 26/// /3007 10072 29096 30121 91229 333 60000
OOXX AUP07 23121 99/// ///// ///// ///// 26/// /3009 10072 29095 30120 91239 333 60000
OOXX AUP04 23111 99377 31451 ///// 00311 26/// /1901 10244 29069 30055 91107 333 60000
OOXX AUP04 23111 99377 31451 ///// 00311 26/// /1902 10242 29069 30054 91117 333 60000
OOXX AUP04 23111 99377 31451 ///// 00311 26/// /2001 10240 29069 30055 91127 333 60000
OOXX AUP04 23111 99377 31451 ///// 00311 26/// /2302 10239 29069 30057 91137 333 60000
OOXX AUP04 23111 99377 31451 ///// 00311 26/// /2302 10237 29069 30056 91147 333 60000
OOXX AUP04 23111 99377 31451 ///// 00311 26/// /2602 10231 29071 30056 91157 333 60000
OOXX AUP04 23121 99377 31451 ///// 00311 26/// /2702 10228 29073 30056 91207 333 60000
OOXX AUP04 23121 99377 31451 ///// 00311 26/// /2702 10227 29073 30056 91217 333 60000
OOXX AUP04 23121 99377 31451 ///// 00311 26/// /2601 10224 29073 30057 91227 333 60000
OOXX AUP04 23121 99377 31451 ///// 00311 26/// /2701 10221 29073 30059 91237 333 60000
OOXX AUP04 23121 99377 31451 ///// 00311 26/// /2602 10220 29073 30059 91247 333 60000
OOXX AUP04 23121 99377 31451 ///// 00311 26/// /2602 10218 29074 30061 91257 333 60000
OOXX AUP06 23101 99192 31468 ///// 00071 26/// /0604 10271 29078 30046 91053 333 60000
OOXX AUP06 23111 99192 31468 ///// 00071 26/// /0504 10271 29078 30047 91103 333 60000
OOXX AUP06 23111 99192 31468 ///// 00071 26/// /0504 10271 29079 30049 91113 333 60000
OOXX AUP06 23111 99192 31468 ///// 00071 26/// /0504 10271 29078 30048 91123 333 60000
OOXX AUP06 23111 99192 31468 ///// 00071 26/// /0504 10271 29078 30048 91133 333 60000
OOXX AUP06 23111 99192 31468 ///// 00071 26/// /0504 10270 29079 30049 91143 333 60000
OOXX AUP06 23111 99192 31468 ///// 00071 26/// /0503 10270 29080 30051 91153 333 60000
OOXX AUP06 23121 99192 31468 ///// 00071 26/// /0504 10271 29081 30052 91203 333 60000
OOXX AUP06 23121 99192 31468 ///// 00071 26/// /0603 10269 29081 30053 91213 333 60000
OOXX AUP06 23121 99192 31468 ///// 00071 26/// /0603 10270 29079 30054 91223 333 60000
OOXX AUP06 23121 99192 31468 ///// 00071 26/// /0503 10269 29079 30053 91233 333 60000
OOXX AUP06 23121 99192 31468 ///// 00071 26/// /0503 10265 29083 30052 91243 333 60000
OOXX MRP43 23101 99181 70159 ///// 00101 26/// /0707 10213 29013 30191 91040 333 60000
OOXX MRP43 23101 99181 70159 ///// 00101 26/// /0708 10214 29013 30194 91050 333 60000
OOXX MRP43 23111 99181 70159 ///// 00101 26/// /0708 10222 29013 30192 91100 333 60000
OOXX MRP43 23111 99181 70159 ///// 00101 26/// /0708 10224 29012 30193 91110 333 60000
OOXX MRP43 23111 99181 70159 ///// 00101 26/// /0707 10231 29012 30193 91120 333 60000
OOXX MRP43 23111 99181 70159 ///// 00101 26/// /0808 10233 29012 30191 91130 333 60000
OOXX MRP43 23111 99181 70159 ///// 00101 26/// /0809 10231 29012 30189 91140 333 60000
OOXX MRP43 23111 99181 70159 ///// 00101 26/// /0808 10236 29012 30189 91150 333 60000
OOXX MRP43 23121 99181 70159 ///// 00101 26/// /0708 10235 29012 30188 91200 333 60000
OOXX MRP43 23121 99181 70159 ///// 00101 26/// /0807 10242 29011 30184 91210 333 60000
OOXX MRP43 23121 99181 70159 ///// 00101 26/// /0808 10239 29011 30183 91220 333 60000
OOXX MRP43 23121 99181 70159 ///// 00101 26/// /0808 10244 29011 30179 91230 333 60000
OOXX MNP45 23101 99479 11063 ///// 17291 26/// /2705 11179 29074 38437 91011 333 60000
OOXX MNP45 23101 99479 11063 ///// 17291 26/// /2706 11178 29074 38437 91021 333 60000
OOXX MNP45 23101 99479 11063 ///// 17291 26/// /2806 11177 29074 38436 91031 333 60000
OOXX MNP45 23101 99479 11063 ///// 17291 26/// /2806 11172 29072 38436 91041 333 60000
OOXX MNP45 23101 99479 11063 ///// 17291 26/// /2806 11167 29069 38434 91051 333 60000
OOXX MNP45 23111 99479 11063 ///// 17291 26/// /2806 11168 29069 38435 91101 333 60000
OOXX MNP45 23111 99479 11063 ///// 17291 26/// /2907 11164 29066 38433 91111 333 60000
OOXX MNP45 23111 99479 11063 ///// 17291 26/// /2807 11164 29067 38432 91121 333 60000
OOXX MNP45 23111 99479 11063 ///// 17291 26/// /2907 11162 29066 38432 91131 333 60000
OOXX MNP45 23111 99479 11063 ///// 17291 26/// /2907 11158 29065 38432 91141 333 60000
OOXX MNP45 23111 99479 11063 ///// 17291 26/// /2907 11156 29064 38433 91151 333 60000
OOXX MNP45 23121 99479 11063 ///// 17291 26/// /2906 11158 29064 38435 91201 333 60000
OOXX RUP54 23101 99586 10494 ///// 01271 26/// /3603 11083 29089 39976 91027 333 60120
OOXX RUP54 23101 99586 10494 ///// 01271 26/// /0202 11083 29089 39975 91037 333 60120
OOXX RUP54 23101 99586 10494 ///// 01271 26/// /0202 11084 29089 39974 91047 333 60120
OOXX RUP54 23101 99586 10494 ///// 01271 26/// /0103 11084 29089 39975 91057 333 60120
OOXX RUP54 23111 99586 10494 ///// 01271 26/// /3603 11084 29089 39975 91107 333 60120
OOXX RUP54 23111 99586 10494 ///// 01271 26/// /0202 11084 29089 39974 91117 333 60120
OOXX RUP54 23111 99586 10494 ///// 01271 26/// /3603 11084 29089 39974 91127 333 60120
OOXX RUP54 23111 99586 10494 ///// 01271 26/// /0103 11084 29089 39974 91137 333 60120
OOXX RUP54 23111 99586 10494 ///// 01271 26/// /0202 11085 29089 39974 91147 333 60120
OOXX RUP54 23111 99586 10494 ///// 01271 26/// /0202 11086 29089 39974 91157 333 60120
OOXX RUP54 23121 99586 10494 ///// 01271 26/// /0203 11085 29089 39974 91207 333 60120
OOXX RUP54 23121 99586 10494 ///// 01271 26/// /3602 11085 29089 39974 91217 333 60120
OOXX RUP59 23101 99539 10848 ///// 02121 26/// /0801 11123 29060 30062 91040 333 60000
OOXX RUP59 23101 99539 10848 ///// 02121 26/// /1001 11125 29060 30065 91050 333 60000
OOXX RUP59 23111 99539 10848 ///// 02121 26/// /0901 11131 29062 30063 91100 333 60000
OOXX RUP59 23111 99539 10848 ///// 02121 26/// /0901 11132 29063 30061 91110 333 60000
OOXX RUP59 23111 99539 10848 ///// 02121 26/// /0902 11127 29061 30062 91120 333 60000
OOXX RUP59 23111 99539 10848 ///// 02121 26/// /1002 11123 29059 30063 91130 333 60000
OOXX RUP59 23111 99539 10848 ///// 02121 26/// /1102 11121 29058 30062 91140 333 60000
OOXX RUP59 23111 99539 10848 ///// 02121 26/// /1002 11121 29058 30061 91150 333 60000
OOXX RUP59 23121 99539 10848 ///// 02121 26/// /1003 11121 29057 30062 91200 333 60000
OOXX RUP59 23121 99539 10848 ///// 02121 26/// /1102 11119 29056 30062 91210 333 60000
OOXX RUP59 23121 99539 10848 ///// 02121 26/// /1102 11120 29056 30063 91220 333 60000
OOXX RUP59 23121 99539 10848 ///// 02121 26/// /1002 11118 29056 30064 91230 333 60000
OOXX KIP39 23101 99020 51574 ///// 00181 26/// /1303 10244 29089 30086 91030 333 60000
OOXX KIP39 23101 99020 51574 ///// 00181 26/// /1403 10243 29090 30085 91040 333 60000
OOXX KIP39 23101 99020 51574 ///// 00181 26/// /1403 10245 29091 30085 91050 333 60000
OOXX KIP39 23111 99020 51574 ///// 00181 26/// /1203 10240 29092 30084 91100 333 69960
OOXX KIP39 23111 99020 51574 ///// 00181 26/// /1503 10235 29094 30084 91110 333 60000
OOXX KIP39 23111 99020 51574 ///// 00181 26/// /1402 10237 29094 30083 91120 333 60000
OOXX KIP39 23111 99020 51574 ///// 00181 26/// /1402 10239 29095 30081 91130 333 60000
OOXX KIP39 23111 99020 51574 ///// 00181 26/// /1402 10242 29095 30081 91140 333 60000
OOXX KIP39 23111 99020 51574 ///// 00181 26/// /1403 10244 29095 30077 91150 333 60000
OOXX KIP39 23121 99020 51574 ///// 00181 26/// /1402 10243 29095 30078 91200 333 60000
OOXX KIP39 23121 99020 51574 ///// 00181 26/// /1302 10244 29095 30077 91210 333 60000
OOXX KIP39 23121 99020 51574 ///// 00181 26/// /1302 10245 29095 30076 91220 333 60000
OOXX RUP58 23101 99442 11320 ///// 01121 26/// /0901 11189 29052 30029 91052 333 60000
OOXX RUP58 23111 99442 11320 ///// 01121 26/// /0201 11189 29052 30029 91102 333 60000
OOXX RUP58 23111 99442 11320 ///// 01121 26/// /0000 11188 29051 30028 91112 333 60000
OOXX RUP58 23111 99442 11320 ///// 01121 26/// /1501 11198 29055 30028 91122 333 60000
OOXX RUP58 23111 99442 11320 ///// 01121 26/// /1301 11189 29053 30028 91132 333 60000
OOXX RUP58 23111 99442 11320 ///// 01121 26/// /1801 11191 29054 30028 91142 333 60000
OOXX RUP58 23111 99442 11320 ///// 01121 26/// /1501 11182 29053 30028 91152 333 60000
OOXX RUP58 23121 99442 11320 ///// 01121 26/// /0101 11195 29053 30028 91202 333 60000
OOXX RUP58 23121 99442 11320 ///// 01121 26/// /3301 11191 29054 30029 91212 333 60000
OOXX RUP58 23121 99442 11320 ///// 01121 26/// /1001 11189 29056 30028 91222 333 60000
OOXX RUP58 23121 99442 11320 ///// 01121 26/// /0301 11189 29055 30027 91232 333 60000
OOXX RUP58 23121 99442 11320 ///// 01121 26/// /0801 11190 29054 30026 91242 333 60000
OOXX CAP14 23101 99487 71234 ///// 00431 26/// /2601 10023 29087 30222 91030 333 69920
OOXX CAP14 23101 99487 71234 ///// 00431 26/// /2901 10022 29087 30224 91040 333 60000
OOXX CAP14 23101 99487 71234 ///// 00431 26/// /3201 10022 29087 30225 91050 333 60000
OOXX CAP14 23111 99487 71234 ///// 00431 26/// /3101 10023 29087 30227 91100 333 60000
OOXX CAP14 23111 99487 71234 ///// 00431 26/// /2701 10023 29088 30229 91110 333 60000
OOXX CAP14 23111 99487 71234 ///// 00431 26/// /3001 10024 29088 30228 91120 333 60000
OOXX CAP14 23111 99487 71234 ///// 00431 26/// /2901 10026 29087 30229 91130 333 60000
OOXX CAP14 23111 99487 71234 ///// 00431 26/// /0000 10027 29087 30226 91140 333 60000
OOXX CAP14 23111 99487 71234 ///// 00431 26/// /0000 10023 29087 30226 91150 333 60000
OOXX CAP14 23121 99487 71234 ///// 00431 26/// /0000 10028 29088 30227 91200 333 60000
OOXX CAP14 23121 99487 71234 ///// 00431 26/// /0000 10029 29087 30229 91210 333 60000
OOXX CAP14 23121 99487 71234 ///// 00431 26/// /3201 10029 29087 30231 91220 333 60000
OOXX GBP68 23101 99371 50123 ///// 00641 26/// /3506 10000 29094 30154 91010 333 60000
OOXX GBP68 23101 99371 50123 ///// 00641 26/// /3506 10000 29094 30154 91020 333 60000
OOXX GBP68 23101 99371 50123 ///// 00641 26/// /3506 10000 29093 30153 91030 333 60000
OOXX GBP68 23101 99371 50123 ///// 00641 26/// /3506 10000 29093 30151 91040 333 60000
OOXX GBP68 23101 99371 50123 ///// 00641 26/// /3506 10000 29091 30150 91050 333 60000
OOXX GBP68 23111 99371 50123 ///// 00641 26/// /3505 10000 29092 30148 91100 333 60000
OOXX GBP68 23111 99371 50123 ///// 00641 26/// /3504 10000 29093 30147 91110 333 60000
OOXX GBP68 23111 99371 50123 ///// 00641 26/// /3503 10000 29093 30150 91120 333 60000
OOXX GBP68 23111 99371 50123 ///// 00641 26/// /3504 10000 29095 30151 91130 333 60000
OOXX GBP68 23111 99371 50123 ///// 00641 26/// /3505 10000 29094 30151 91140 333 60000
OOXX GBP68 23111 99371 50123 ///// 00641 26/// /3506 10000 29094 30152 91150 333 60000
OOXX GBP68 23121 99371 50123 ///// 00641 26/// /3506 10000 29094 30151 91200 333 60000
OOXX NZP46 23101 99438 51765 ///// 00221 26/// /2003 10112 29/// 30227 91030 333 60000
OOXX NZP46 23101 99438 51765 ///// 00221 26/// /2103 10113 29/// 30228 91040 333 60000
OOXX NZP46 23101 99438 51765 ///// 00221 26/// /2003 10113 29/// 30227 91050 333 60000
OOXX NZP46 23111 99438 51765 ///// 00221 26/// /2003 10113 29/// 30226 91100 333 60000
OOXX NZP46 23111 99438 51765 ///// 00221 26/// /2005 10114 29/// 30226 91110 333 60000
OOXX NZP46 23111 99438 51765 ///// 00221 26/// /2005 10115 29100 30226 91120 333 60000
OOXX NZP46 23111 99438 51765 ///// 00221 26/// /1905 10115 29099 30225 91130 333 60000
OOXX NZP46 23111 99438 51765 ///// 00221 26/// /2004 10115 29099 30224 91140 333 60000
OOXX NZP46 23111 99438 51765 ///// 00221 26/// /2004 10116 29100 30224 91150 333 60000
OOXX NZP46 23121 99438 51765 ///// 00221 26/// /2004 10116 29099 30223 91200 333 60000
OOXX NZP46 23121 99438 51765 ///// 00221 26/// /2004 10116 29099 30222 91210 333 60000
OOXX NZP46 23121 99438 51765 ///// 00221 26/// /2004 10117 29099 30221 91220 333 60000
OOXX AUP09 23101 99124 31309 ///// 00321 26/// ///// 1//// 29/// 3//// 91014 333 6///0
OOXX AUP09 23101 99124 31309 ///// 00321 26/// ///// 1//// 29/// 3//// 91024 333 6///0
OOXX AUP09 23101 99124 31309 ///// 00321 26/// ///// 1//// 29/// 3//// 91034 333 6///0
OOXX AUP09 23101 99124 31309 ///// 00321 26/// ///// 1//// 29/// 3//// 91044 333 6///0
OOXX AUP09 23101 99124 31309 ///// 00321 26/// ///// 1//// 29/// 3//// 91054 333 6///0
OOXX AUP09 23111 99124 31309 ///// 00321 26/// ///// 1//// 29/// 3//// 91104 333 6///0
OOXX AUP09 23111 99124 31309 ///// 00321 26/// ///// 1//// 29/// 3//// 91114 333 6///0
OOXX AUP09 23111 99124 31309 ///// 00321 26/// ///// 1//// 29/// 3//// 91124 333 6///0
OOXX AUP09 23111 99124 31309 ///// 00321 26/// ///// 1//// 29/// 3//// 91134 333 6///0
OOXX AUP09 23111 99124 31309 ///// 00321 26/// ///// 1//// 29/// 3//// 91144 333 6///0
OOXX AUP09 23111 99124 31309 ///// 00321 26/// ///// 1//// 29/// 3//// 91154 333 6///0
OOXX AUP09 23121 99124 31309 ///// 00321 26/// ///// 1//// 29/// 3//// 91204 333 6///0
AAXX 23120 67423 41582 73403 10275 20233 39552 48534 71799 83933 333 58031 82925 86360 555 10283 29074
AAXX 23120 67586 31670 60906 10278 20163 38770 48497 71799 86900 333 58013 81935 85840 555 10279 29048
AAXX 23120 67421 41680 70802 10251 20174 38696 48480 71798 84978 333 81935 83835 85460 87280 555 10256 29061
AAXX 23120 67489 31680 60502 10270 20184 38750 48503 71722 86933 333 58011 81932 85835 555 10274 29058
AAXX 23120 67693 32680 50504 10324 20174 39240 48508 85900 333 58009 81930 85835 555 10330 29041
AAXX 23124 91559 46/// /0000 10258 40055 22200 00280
AAXX 23124 71612 17/// /0104 10004 21004 30062 40153 53010 60031 7//4/ 333 10038 20003 70098
AAXX 23124 71389 46/// /3503 11015 21020 6///1 333 10012 21015 7////
AAXX 23124 91531 46/// /0502 1//// 40038 22200 00258
AAXX 23124 96633 32459 70000 10256 20246 30041 40049 52005 82521 333 10299 56000 59003 82618 86460
AAXX 23124 78767 11365 72304 10195 20183 30120 40130 53010 60072 715// 84470 333 10209 20193 32/// 56000 58010 70169 84607 83360
AAXX 23124 78767 11365 72304 10195 20183 30120 40130 53010 60072 715// 84470 333 10209 20193 32/// 56000 58010 70169 84607 83360
AAXX 2312/ 89872 46/// ///// 11076 39756 4//// 5//// 91210
AAXX 2312/ 89869 46/// ///// 11036 39737 4//// 5//// 91210
AAXX 2312/ 89866 46/// ///// 11008 39707 4//// 5//// 91210
AAXX 2312/ 89329 46/// ///// 11053 38723 4//// 5//// 91210
AAXX 2312/ 89327 46/// ///// 11013 39403 4//// 5//// 91210
AAXX 2312/ 89332 46/// ///// 11025 39150 4//// 5//// 91210
AAXX 2312/ 89769 46/// ///// 11064 39770 4//// 5//// 91210
AAXX 2312/ 89108 46/// ///// 11184 37011 4//// 5//// 91210
AAXX 2312/ 89879 46/// ///// 10016 39747 4//// 5//// 91210
AAXX 2312/ 89314 46/// ///// 11050 38242 4//// 5//// 91210
AAXX 23124 71016 16/// ///// 10025 60001 333 10012 21015 70003
AAXX 23124 71016 16/// ///// 10025 60001 333 10012 21015 70003
BBXX 44056 23121 99362 70757 46/// ///// 1//// 91220 22200 00129 10702 20702 70008
BBXX 46109 23121 99481 71234 46/// /1803 10042 40293 91157 22200 00077
BBXX 46110 23121 99481 71230 46/// /1403 10044 40293 91158
AAXX 23124 91642 46/// /0000 1//// 40054 22200 0////
BBXX 44055 23121 99391 70753 46/// ///// 1//// 91230 22200 00090 10402 70008
BBXX 42043 23121 99290 70949 46/// /0608 1//// 40244 91230 22200 00152 333 91209
BBXX 42043 23121 99290 70949 46/// /0607 1//// 40240 53012 91200 22200 00153 333 91209
BBXX 42044 23121 99262 70971 46/// /0305 10160 20139 40211 91230 22200 00170 333 91211
BBXX 42044 23121 99262 70971 46/// /0106 10164 20142 40207 52007 91200 22200 00170 333 91211
BBXX 46094 23121 99446 71243 46/// /1507 10086 91230
BBXX 46094 23121 99446 71243 46/// /1407 10088 91220
BBXX 46094 23121 99446 71243 46/// /1406 10090 91210
BBXX 46094 23121 99446 71243 46/// /1507 10094 91200
BBXX 46094 23121 99446 71243 46/// /1707 10094 91150
BBXX 46094 23121 99446 71243 46/// /1507 10093 91140
BBXX 42045 23121 99262 70965 46/// /0407 10182 40202 91230 22200 00217 333 91209
BBXX 42045 23121 99262 70965 46/// /0307 10184 40201 52005 91200 22200 00218 333 91210
BBXX S6SR 23124 99057 50000 41797 81407 10270 20228 40150 54000 7//22 88/4/ 22281 00250 2//// 3//// 4//// 5//// 6//// 80240 ICE /////
AAXX 23124 83393 32599 71402 10242 20184 39427 40145 84430 333 20188 58011
AAXX 23124 89614 46/// /0921 11047 29081 38871 4//// 5//// 333 90700 91130
AAXX 23124 89807 46/// /1619 10007 29089 39659 4//// 5//// 333 90700 91127
AAXX 23124 89614 46/// /0921 11047 29081 38871 4//// 5//// 333 90700 91130
AAXX 23124 89807 46/// /1619 10007 29089 39659 4//// 5//// 333 90700 91127
AAXX 23124 71026 46/// /2307 11050 21089 39310 40179 58018 6///1 333 21061 7////
AAXX 23124 71026 46/// /2307 11050 21089 39310 40179 58018 6///1 333 21061 7////
BBXX S6SR 23124 99057 50000 41797 81407 10270 20228 40150 54000 7//22 88/4/ 22281 00250 2//// 3//// 4//// 5//// 6//// 80240 ICE /////
BBXX WDF9323 23123 99066 11788 41/98 /0424 10280 2024/ 40065 51005 700// 8//// 22211 0//// 29907 399// 4//09 5//// 6//// 80250 ICE /////
AAXX 23124 92036 46/// /2402 10271 40040 22200 00316
BBXX AVMI 23123 99330 31517 41298 70606 10210 20/// 40230 54000 70312 85/// 22200 00260
BBXX 42045 23121 99262 70965 46/// /0407 10182 40202 91230 22200 00217 333 91209
BBXX 42045 23121 99262 70965 46/// /0307 10184 40201 52005 91200 22200 00218 333 91210
BBXX 46094 23121 99446 71243 46/// /1507 10093 91140
BBXX 46094 23121 99446 71243 46/// /1707 10094 91150
BBXX 46094 23121 99446 71243 46/// /1507 10086 91230
BBXX 46094 23121 99446 71243 46/// /1507 10094 91200
BBXX 46094 23121 99446 71243 46/// /1406 10090 91210
BBXX 46094 23121 99446 71243 46/// /1407 10088 91220
BBXX 42044 23121 99262 70971 46/// /0106 10164 20142 40207 52007 91200 22200 00170 333 91211
BBXX 42044 23121 99262 70971 46/// /0305 10160 20139 40211 91230 22200 00170 333 91211
BBXX 42043 23121 99290 70949 46/// /0607 1//// 40240 53012 91200 22200 00153 333 91209
BBXX 42043 23121 99290 70949 46/// /0608 1//// 40244 91230 22200 00152 333 91209
BBXX 44055 23121 99391 70753 46/// ///// 1//// 91230 22200 00090 10402 70008
BBXX A8OU4 23124 99195 71072 41598 23515 10210 20142 40170 57010 70100 81169 22234 00260 20603 3//// 4//// 5//// 80170
BBXX 46109 23121 99481 71234 46/// /1803 10042 40293 91157 22200 00077
BBXX 46110 23121 99481 71230 46/// /1403 10044 40293 91158
BBXX 44056 23121 99362 70757 46/// ///// 1//// 91220 22200 00129 10702 20702 70008
BBXX C6VG8 23124 99285 70766 41/// /1714 10230 2//// 40210 54010 7//00 8//// 22284 00250 20102 3//// 40204 5//// 6//// 8//// ICE /////
BBXX 66022 23121 99541 10142 46/// /2306 10062 30150 22200 00033
BBXX WUR8857 23124 99436 70876 43/98 13007 11050 2//// 40254 5//// 7//// 8//// 22243 00050 20201 3//// 4//// 5//// 6//// 8//// ICE /////
BBXX 63106 23124 99610 10017 46/// /2527 10069 49949 51005 22200
BBXX 63113 23124 99610 10017 46/// /2627 10073 21004 49969 53005 22200 11015 70075
BBXX 63110 23123 99595 10015 41697 42635 10076 40003 70511 8/1// 22200 10809 70047
BBXX 62103 23124 99499 70029 46/97 /2033 10117 20099 40160 57033 22200 00123 10704 70019 333 90710 91140
AAXX 23124 93713 46/// /0000 10144 40228 22200 00147
BBXX A8UA9 23124 99082 70157 41596 61318 10260 20232 40140 50/// 710// 86617 22233 00260 20502 313// 40402 80240
BBXX A8UA9 23124 99082 70157 41596 61318 10260 20232 40140 50/// 710// 86617 22233 00260 20502 313// 40402 80240
BBXX A8ZS7 23124 99345 50147 41697 82911 10230 20199 40230 53010 70322 8467/ 22264 04180 29901 80210
BBXX DGOQ 23124 99544 10103 41296 82418 10071 40140 54000 75055 886// 22263 04050
BBXX A8RU5 23124 99054 10977 41/97 /1113 10293 20264 40072 54000 70211 22274 299// 300// 80271
BBXX DAJT 23124 99281 30419 41598 63315 10260 20218 40080 50/// 70322 83466 22254 04240 2//01 80230
BBXX DAJT 23124 99281 30419 41598 63315 10260 20218 40080 50/// 70322 83466 22254 04240 2//01 80230
AAXX 23124 91689 46/// /0325 10246 40062 22200 00256
BBXX MYNJ6 23123 99163 71004 41998 13212 10260 20246 40120 54000 70000 80001 22273 0//// 20802 332// 4//// 5//// 6//// 80250 ICE /////
BBXX MINUK05 2312/ 99571 70021 46/// ///// 10063 40077 52006
BBXX MINUK04 2312/ 99555 10084 46/// ///// 10078 4//// 57061
BBXX 4XFB 23124 99393 10068 41498 53215 10195 20130 40240 54000 70200 862// 22234 00190 20311 313// 4//// 5//// 80155
BBXX DBIP 23123 99365 10187 41097 83635 10110 20050 40110 56015 70322 887// 22223 04170 21010 3//// 4//// 5//// 80080
BBXX DDSC2 23123 99497 70036 41296 82234 10125 20107 40145 57041 76166 87620 22254 00119 21210 327// 41310 80115
BBXX ZNQO3 23120 99466 70072 41297 63120 10115 20095 40251 57015 71144 85460 22213 04144 20705 328// 41006 5//// 80105
BBXX KS089 23124 99456 70084 43/// /3431 10122 22253
BBXX A8RU5 23124 99054 10977 41/97 /1113 10293 20264 40072 54000 70211 22274 299// 300// 80271
BBXX A8ZS7 23124 99345 50147 41697 82911 10230 20199 40230 53010 70322 8467/ 22264 04180 29901 80210
BBXX A8UA9 23124 99082 70157 41596 61318 10260 20232 40140 50/// 710// 86617 22233 00260 20502 313// 40402 80240
BBXX DAJT 23124 99281 30419 41598 63315 10260 20218 40080 50/// 70322 83466 22254 04240 2//01 80230
BBXX A8QM9 23124 99386 70480 41398 62121 10180 20164 40250 54000 70388 85679 22263 04180 2//05 80170
BBXX MYNJ6 23123 99163 71004 41998 13212 10260 20246 40120 54000 70000 80001 22273 0//// 20802 332// 4//// 5//// 6//// 80250 ICE /////
BBXX DGOQ 23124 99544 10103 41296 82418 10071 40140 54000 75055 886// 22263 04050
AAXX 2312/ 89667 46/// ///// 11066 39805 4//// 5//// 91240
AAXX 23124 04418 NIL
AAXX 23124 04425 NIL
AAXX 23124 04432 NIL
AAXX 23124 04436 NIL
AAXX 23124 04464 46/// /2108 11296 21324 333 553// 20004
AAXX 23124 04485 46/// /2108 11377 21402 37154 52011 333 553// 20000
AAXX 23124 04488 NIL
BBXX 4XFB 23124 99393 10068 41498 53215 10195 20130 40240 54000 70200 862// 22234 00190 20311 313// 4//// 5//// 80155
AAXX 23124 71701 11/12 90000 11008 21011 30102 40165 58010 69961 77122 333 10032 21008 42001 70006 90921 93101
AAXX 23124 41268 32960 03608 10227 20092 30149 40165 91340 333 59015
AAXX 23121 98132 31460 70704 10215 20178 40189 52030 70544 84270 333 10228 56199 58008 84816 87357
AAXX 23121 98133 11460 80704 10/// 20/// 40132 5//// 60031 71664 8557/ 333 10/// 56199 58012 85618 88360
AAXX 23121 98222 31575 13604 10238 20201 40096 53017 70544 81200 333 10300 56999 58005 81820
AAXX 23121 98233 31570 73602 10230 20200 40114 52013 70544 87500 333 10275 56999 58006 87625
AAXX 23121 98324 31462 30101 10272 20243 40090 52018 70544 81261 333 10314 56999 58012 81816
AAXX 23121 98327 31665 63502 10253 20218 39926 40100 52026 70544 82208 333 10311 56999 58004 82842 86280
AAXX 23121 98334 32468 80000 10250 20239 39901 40105 52014 8327/ 333 10302 56999 58006 83817 88358
AAXX 23121 98425 31558 60902 10281 20222 40089 52018 70142 82108 333 10310 56999 58013 82820 86280
AAXX 23121 98426 31562 43503 10275 20240 40096 52020 70544 81100 333 10330 56999 58007 81820
AAXX 23121 98427 11472 50202 10252 20233 39900 40077 53018 69901 70182 83270 333 10280 56199 59001 83818 85357
AAXX 23121 98428 32458 51104 10280 20240 40083 52020 82431 333 10313 56999 58008 82618 83360
AAXX 23121 98432 31568 30402 10263 20233 40096 52025 70544 81272 333 10312 56199 58022 81820
AAXX 23121 98433 31464 80405 10220 20203 39374 40096 53014 71544 8487/ 333 10250 56999 58004 84612 88357
AAXX 23121 98434 11459 83602 10249 20242 30097 40105 53022 60101 76066 8552/ 333 10271 56199 58009 85817 88457
AAXX 23121 98435 11465 80402 10242 20227 40095 5//// 60011 72182 8527/ 333 10281 56999 58001 85817 88357
AAXX 23121 98442 NIL
AAXX 23121 98446 31470 83001 10268 20258 30050 40096 52017 71522 84207 333 10308 56999 59001 84818 88270
AAXX 23121 98447 11465 83604 10240 20226 39829 40093 5//// 60051 72582 84607 333 10/// 56899 59001 84715 88270
AAXX 23121 98538 31468 43604 10285 20255 30074 40079 53025 70142 82201 333 10307 56199 58006 82811 83075
AAXX 23121 98546 32575 50402 10280 20263 30071 40079 52014 82208 333 10312 56999 58002 82820 85275
AAXX 23121 98548 11465 10000 10255 20242 30073 40079 53023 60021 70181 81100 333 10316 56999 58014 81816
AAXX 23121 98553 31468 33201 10264 20251 30075 40079 52021 70544 83200 333 10310 56999 58000 83818
AAXX 23121 98558 31466 50407 10275 20248 40075 52016 70242 82271 333 10277 56999 59006 82818 83075
AAXX 23121 98642 31460 43202 10271 20252 30058 40067 53026 70544 82202 333 10304 56199 59001 82815
AAXX 23121 98644 31465 50000 10277 20249 30066 40075 53015 70244 81268 333 10328 56999 58002 81817 85272
AAXX 23121 98648 31470 10000 10264 20240 30000 40082 52020 70544 81200 333 10310 56999 59008 81817
AAXX 23121 98746 11460 80902 10276 20236 40100 52028 69911 71384 8397/ 333 10341 56399 58003 83918 88358
AAXX 23121 98751 31470 23601 10230 20216 39394 40067 52032 70544 82200 333 10315 56999 58004 82815
AAXX 23121 98752 11460 40000 10267 20251 40078 52026 69921 71582 82531 333 10303 56999 59001 82616 84075
AAXX 23121 98851 31470 43002 10275 20236 39910 40058 53026 70141 81171 333 10320 56999 59003 81818 84358
BBXX C6TH9 23123 99165 51517 41297 81018 10240 2021/ 40140 54/// 7//22 886// 22200 00250 2//// 3//// 4//// 5//// 6//// 80220 ICE /////
BBXX 42013 23121 99272 70829 46/// ///// 1//// 40207 91220 22200 00201
BBXX 42013 23121 99272 70829 46/// ///// 1//// 40205 53007 91200 22200 00201
BBXX 63110 23124 99595 10015 47597 /2624 10079 20021 40004 50004 700// 22200 10809 70047
BBXX 63106 23124 99610 10017 46/// /2527 10069 49949 51005 22200
BBXX 63105 23124 99610 10017 47997 ///// 10072 20005 49948 50004 700// 22200
BBXX 62103 23124 99499 70029 46/98 /2030 10119 20098 40178 57018 22200 00123 10703 70017 333 90710 91139
BBXX 4XFB 23124 99393 10068 41498 53215 10195 20130 40240 54000 70200 862// 22234 00190 20311 313// 4//// 5//// 80155
BBXX MINUK04 2312/ 99555 10084 46/// ///// 10078 4//// 57061
BBXX MINUK05 2312/ 99571 70021 46/// ///// 10063 40077 52006
AAXX 23124 71408 46/// /3013 10011 21037 30079 40159 6///1 333 20006 7////
AAXX 23124 41268 32960 03608 10227 20092 30149 40165 91340 333 59015
AAXX 23124 43086 32997 50000 10254 20067 39934 40112 81032 333 10300 59004
AAXX 23124 43128 35997 40903 10262 20105 39505 40105 83130 333 10295 59002 82020 82070
AAXX 23124 43150 31596 70000 10250 20162 30042 40117 70522 82532 222// 20000 333 10290 59009 82620 85360
AAXX 23124 43185 31596 70903 10260 20181 30107 40111 70522 82532 333 10296 59001 82620 85360
AAXX 23124 43189 32597 70000 10256 20146 30110 40119 82532 333 10299 59002
AAXX 23124 43198 32996 40903 10252 20070 39271 40084 80001 333 10284 58003 84075
AAXX 23124 43201 32897 50903 10266 20066 39376 40084 83032 333 10285 58006 83358
AAXX 23124 43213 32997 39901 10276 20086 39783 40097 80002 333 10306 59001
AAXX 23124 43226 32997 20502 10310 20134 30056 40085 80002 333 10328 58003
AAXX 23124 43233 32897 30503 10254 20093 39287 40084 81031 333 10278 58002
AAXX 23124 43237 32997 31106 10260 20126 39710 40101 80001 333 10286 58004 83075
AAXX 23124 43245 32597 73603 10258 20193 30084 40110 82477 333 10288 59001
AAXX 23124 43279 32597 70203 10260 20181 30089 40107 8353/ 333 10278 59008 83620 86358
AAXX 23124 43284 32997 22308 10286 20179 39961 40075 80001 333 10325 59001 82075
AAXX 23124 43295 32597 70902 10212 20107 39085 48494 81531 333 10240 56299 58003 81620 83358 85075
AAXX 23124 43311 32597 43602 10314 20220 40071 81531 333 10330 58001 81625 83075
AAXX 23124 43314 32997 60000 10298 20186 40082 81032 333 10326 58000
AAXX 23124 43321 31896 60906 10252 20161 39653 40098 70522 82038 333 10267 58001
AAXX 23124 43329 32597 80202 10254 20208 30078 40091 82437 333 10274 59005
AAXX 23124 43344 31496 80708 10252 20186 30998 40098 70522 82537 333 10273 59006 82618 85360 88270
AAXX 23124 43346 32497 83606 10254 20202 30077 40084 84538 333 10262 59004 84615 88270
AAXX 23124 43353 32496 10286 20201 40082 70522 82871 333 10336 56699 58003 82614 85459
AAXX 23124 43369 21497 80000 10246 20240 40081 75062 8447/ 333 10308 58005 6026/ 84616 87458
AAXX 23124 43371 32597 72703 10286 20214 30004 40076 82458 333 10325 59002 81620 84360 86270
BBXX 42369 23121 99272 70903 46/// /0310 1//// 91140 22200 10403 70014
BBXX 42370 23121 99273 70905 46/// ///// 10232 91140 22200 10603 70016
BBXX 42376 23121 99291 70879 46/// /2608 10168 40207 91140 22200 10503 70015
BBXX 42887 23121 99282 70885 46/// /0306 10204 91140 22200 10502 70012
BBXX 41052 23121 99183 70648 46/// /0710 10265 40173 91210 333 91212
BBXX 41052 23121 99183 70648 46/// /0709 10265 40170 91150 333 91212
BBXX 41052 23121 99183 70648 46/// /0710 10266 40168 91140 333 91212
BBXX 41052 23121 99183 70648 46/// /0710 10266 40168 91140 333 91212
BBXX 41052 23121 99183 70648 46/// /0709 10265 40170 91150 333 91212
BBXX 41052 23121 99183 70648 46/// /0710 10265 40173 91210 333 91212
BBXX 42369 23121 99272 70903 46/// /0310 1//// 91140 22200 10403 70014
BBXX 42370 23121 99273 70905 46/// ///// 10232 91140 22200 10603 70016
BBXX 42376 23121 99291 70879 46/// /2608 10168 40207 91140 22200 10503 70015
BBXX 42887 23121 99282 70885 46/// /0306 10204 91140 22200 10502 70012
BBXX 42013 23121 99272 70829 46/// ///// 1//// 40205 53007 91200 22200 00201
BBXX 42013 23121 99272 70829 46/// ///// 1//// 40207 91220 22200 00201
BBXX C6TH9 23123 99165 51517 41297 81018 10240 2021/ 40140 54/// 7//22 886// 22200 00250 2//// 3//// 4//// 5//// 6//// 80220 ICE /////
BBXX MTDU5 23123 99138 30704 41398 61521 10278 20242 40088 53005 78122 867// 22214 04288 203// 311// 40503 80253
BBXX MTDU5 23123 99138 30704 41398 61521 10278 20242 40088 53005 78122 867// 22214 04288 203// 311// 40503 80253
BBXX 63106 23124 99610 10017 46/// /2527 10069 49949 51005 22200
BBXX 63113 23124 99610 10017 46/// /2627 10073 21004 49969 53005 22200 11015 70075
BBXX 63110 23123 99595 10015 41697 42635 10076 40003 70511 8/1// 22200 10809 70047
BBXX 62103 23124 99499 70029 46/97 /2033 10117 20099 40160 57033 22200 00123 10704 70019 333 90710 91140
AAXX 2312/ 89329 46/// ///// 11053 38724 4//// 5//// 91220
AAXX 2312/ 89332 46/// ///// 11003 39147 4//// 5//// 91240
AAXX 2312/ 89769 46/// ///// 11065 39770 4//// 5//// 91220
AAXX 2312/ 89879 46/// ///// 10019 39742 4//// 5//// 91240
BBXX ONFP 23124 99164 30722 43596 71230 10280 2024/ 40100 56010 76022 87363 22212 04270 20807 31313 40807 51007 6//// 80250 /////
BBXX S6SR 23124 99057 50000 41797 81407 10270 20228 40150 54000 7//22 88/4/ 22281 00250 2//// 3//// 4//// 5//// 6//// 80240 /////
BBXX PHJV 23124 99010 31075 41498 60606 10278 20240 40052 53019 70111 8389/ 22273 06288 20501 335// 40801 80250
BBXX UGWJ 23121 99056 30812 42598 62505 10300 40085 56015 86710 22252 00281 20301 333 40805
BBXX A8CI9 23124 99100 30571 41598 31514 10295 20226 40085 57015 7//00 82106 22244 04300 20203 316// 40604 80245
BBXX PCSV 23124 99235 30512 41/97 /0701 10280 20280 40160 54000 702// 8/1// 22253 04260 20502 307// 40502 80280
BBXX BAREU63 23124 99441 10092 46/// /1412 10139 29061 40236 57006 22273
BBXX 61001 23124 99434 10078 46/// /2204 10134 20088 40234 57004 22200 00146 10701 70007
BBXX 61002 23124 99421 10047 46/// ///15 10129 2//// 40236 57006 22200 00140 10503 70015
BBXX BAREU51 23124 99400 10121 46/// ///// 40204 57020 22235
BBXX A8JH8 23124 99385 10137 41597 33515 10180 20092 40180 57020 70200 82100 22224 20502 330// 40902
BBXX VQIV8 23124 99379 10059 41/98 73013 10150 20128 40256 52010 70222 85710 22233 02160 20401 336// 40804 5//// 80138
BBXX PBEN 23123 99374 10112 41/98 33625 10180 20131 40220 52020 7//11 831// 22263 21004 336// 41504 80150
BBXX A8SI8 23124 99373 10056 43498 83015 10160 2013/ 40330 52030 8662/ 22265 00160 20302 336// 40607 80140
BBXX BATFR01 23124 99367 10192 46/// /3530 10140 20075 40100 53006 22261 00180
BBXX DANV 23124 99352 10187 41297 83628 10162 20108 40125 57015 72588 887// 22224 04170 20104 301// 40408 80131
BBXX WRYC 23124 99341 10238 41498 62520 10150 2011/ 40054 55020 71522 86200 22265 00172 20405 328// 40708 5//// 6//// 80125 /////
BBXX KABL 23124 99334 10263 41398 33006 10160 2013/ 40080 58010 7//11 833// 22235 00200 20803 324// 40804 5//// 6//// 80140 ICE /////
BBXX 64045 23124 99591 70117 46/// /3029 10049 20013 40058 52041 22200 00100 11015 70077 333 90710 91142
BBXX BATEU05 23124 99584 70168 46/// /2724 10060 21023 40095 53008 22223
BBXX 62112 23124 99584 70002 47698 /2822 10069 20006 40041 50003 700// 22200
BBXX 62113 23124 99584 10002 47698 /2623 10071 21003 40050 51001 700// 22200
BBXX 62129 23124 99584 10003 46/// ///// 10071 21002 40047 50004 22200
BBXX 62114 23124 99583 10000 46/// /2630 10071 21003 40039 50001 22200
BBXX PJAI 23124 99581 70014 47998 /2519 10083 20003 40051 50005 700// 22200
BBXX 62111 23124 99580 70003 46/// /2722 10071 20011 40068 58001 22200 10605 70026
BBXX 62117 23124 99579 10000 47998 /2618 10074 20024 40058 51007 700// 22200 10605 70025
BBXX BATFR04 23124 99577 70067 44596 62825 10062 20012 40072 53035 702// 864// 22253 00104 20304 323// 40304 5////
BBXX MINUK01 2312/ 99571 70021 46/// ///// 10068 40085 52006
BBXX BATUK01 23124 99561 70030 46/// /2719 10070 20024 40088 50004 22251 00084
BBXX MJCE3 23124 99555 70051 41698 83113 10057 20035 40106 53030 71528 887// 22243 00094 20401 30000 40000 50000 60000 80046
BBXX 62105 23124 99554 70122 46/// /2829 10064 20023 40166 52030 22200 00106 10810 70052 333 90710 91141
BBXX 62095 23124 99531 70159 46/// /2722 10079 20028 40256 52029 22200 00112 10810 70048 333 90710 91133
BBXX 62301 23124 99524 70047 46/// /3321 10076 20043 40148 52035 22200 00085 10504 70022 333 90710 91132
BBXX 62094 23124 99517 70067 46/// /2919 10090 20048 40180 51032 22200 00107 10606 70028 333 90710 91135
BBXX 62303 23124 99516 70051 46/// /3323 10080 20060 40158 52034 22200 00111 10605 70027 333 90710 91136
BBXX 62023 23123 99514 70079 46/96 /3027 10078 2//// 40208 5//// 22200 10606 70029 333 91135 555 70044 81010
BBXX 62081 23124 99510 70134 46/// ///// 10085 20031 40280 51040 22200 00119 10811 70053
BBXX BATFR02 23124 99506 70009 44497 72030 10102 20085 40174 58060 702// 865// 22275 00107 20204 325// 40306 5////
BBXX SCKB 23123 99504 70169 41797 32927 10100 20037 40310 51003 7//// 83/78 22263 00110 21008 3//// 40806 5//// 6//// 80070 /////
BBXX 62305 23124 99504 10000 46/98 /2234 10107 20090 40189 58025 22200 00120 10603 70015 333 90710 91141
BBXX 62107 23124 99501 70061 46/// /3436 10086 20056 40191 53037 22200 00117 10907 70036 333 90710 91150
BBXX 62103 23124 99499 70029 46/98 /2030 10119 20098 40178 57018 22200 00123 10703 70017 333 90710 91139
BBXX BATFR27 23124 99499 70026 46/// /2127 10115 20084 40174 58036 22224 00124
BBXX BATFR03 23124 99498 70005 46/// /2341 10105 20082 40189 50001 22244
BBXX TESTFR9 23124 99492 70028 46/// /1717 10113 29093 40212 22274
BBXX 62027 23124 99491 70022 46/// /2018 1//// 2//// 40208 57023 22200 00114 11303 331// 70016
BBXX VRVQ9 23124 99490 70185 41598 22528 10097 20043 40344 52050 70100 8/100 22264 20409 328// 40608 5//// 80073
BBXX 62442 23124 99490 70164 46/// /3019 1//// 2//// 40342 51033 22200 00125 333 90710 91127
BBXX A8GH5 23123 99489 70056 41297 73227 10100 20100 40200 54000 76166 8677/ 22254 04120 20404 324// 41007 80100
BBXX 62029 23124 99487 70125 46/// /3229 10093 20035 40310 52041 22200 00129 10809 70045 333 90710 91138
BBXX BATFR12 23124 99480 70053 46/// /2127 10124 20117 40197 58019 22231 00147
BBXX DDLK 23123 99478 70242 41698 42718 10120 20083 40375 53015 70311 83538 22224 20404 327// 40606 80100
BBXX PHIN 23124 99475 70209 41598 42816 10148 20076 40376 52048 70311 84200 22263 00130 20302 330// 41107 80109
BBXX 62163 23124 99475 70084 46/// /3225 10110 20059 40272 52060 22200 00126 10709 70044 333 90710 91138
BBXX PDNN 23123 99469 70093 41598 33040 10132 20061 40284 52035 70111 82260 22223 02138 20307 327// 40806 80095 90697
BBXX SFIR 23124 99461 70289 43/97 42027 10119 40358 53012 22223 00140 20602 41404
BBXX BATFR54 23124 99460 70019 46/// /2222 10125 20092 40260 58008 22232 00139
BBXX 62001 23124 99453 70050 46/// /2415 10137 20096 40270 58007 22200 00141 10604 70020
BBXX C6CL6 23124 99438 70219 41498 32724 0/// 10270 2026/ 40390 52020 70000 83940 22263 00180 2//// 3//// 4//// 5//// 6//// 80260 0/0/0
BBXX MDGV9 23124 99437 70099 41/97 83115 10142 20120 40323 52028 70252 887// 22253 10603 70017 80130
BBXX A8UT7 23124 99435 70157 41598 63518 10155 20082 40275 51015 70322 8249/ 22263 20303 331// 40504 80115
BBXX PENR 23123 99424 70186 41598 30210 10134 20068 40390 51029 70211 83100 22254 20202 399// 40804 80102
BBXX BATFR14 23124 99420 70224 44297 21110 10137 20062 40394 51019 70200 82100 22214 00160 20502 327// 40704 5////
BBXX C6KD8 23123 99394 70268 41298 71215 10162 20141 40368 51012 70322 84778 22254 02168 20905 327// 41305 5//// 80150
BBXX DBBH 23121 99376 70010 41/98 /3501 10158 20092 40273 58009 7//// 22200 04164
BBXX DGZL 23123 99364 70021 41998 03204 10160 20127 40272 50012 70100 80000 22263 00170 20200 325// 40601 80140
BBXX DCUJ2 23123 99364 70013 41498 39902 10150 20110 40270 50000 70200 83100 22224 00140 20000 321// 40402 80127
BBXX AVEY 23124 99523 50624 41897 92318 10100 20060 40181 52031 72505 89461 22253
BBXX MTDU5 23123 99138 30704 41398 61521 10278 20242 40088 53005 78122 867// 22214 04288 203// 311// 40503 80253
BBXX MTDU5 23123 99138 30704 41398 61521 10278 20242 40088 53005 78122 867// 22214 04288 203// 311// 40503 80253
AAXX 23124 89257 46/// /2116 11072 21089 39829 49900 52018 91230
AAXX 23124 89272 46/// /9902 11072 21151 38099 49717 52004 91230
AAXX 23124 88889 11462 82426 10075 20060 39928 40012 57008 60024 76186 885// 91150 333 20032 31002 84712 85619 86630 90710 91139 91037
AAXX 23124 89065 46/// /1710 10008 21043 39820 49897 52004 91220
AAXX 23124 89257 46/// /2116 11073 21089 39829 49900 52018 91220
AAXX 23124 89262 46/// /3612 11014 21031 39827 49870 52001 91220
AAXX 23124 89266 46/// /1723 11040 21053 39738 49876 52015 91230
AAXX 23124 89272 46/// /9901 11092 21151 38099 49730 52005 91220
AAXX 23124 91375 46/// /0610 10230 40057 22200 00281
BBXX 42369 23121 99272 70903 46/// /0410 1//// 91200 22200 10403 70014
BBXX 42370 23121 99273 70905 46/// ///// 10232 91200 22200 10603 70015
BBXX 42376 23121 99291 70879 46/// /1008 10167 40210 53022 91200 22200 10503 70014
AAXX 23124 91165 32966 00515 10228 20178 30155 40191 55003 91153
AAXX 23124 91212 32466 40807 10267 20233 31338 40076 51016 91154
AAXX 23124 91245 32566 2//// 10270 20200 30127 91155
AAXX 23124 91285 11466 82203 10189 20183 30168 40180 58004 60051 761// 91153
AAXX 23124 91324 11474 80909 10294 20252 30048 40050 60022 70282 82201
AAXX 23124 91334 32474 80710 10281 20238 30054 40057 50008 82171
AAXX 23124 91356 11456 80813 10264 20245 30040 40047 50003 60171 78082 8627/
AAXX 23124 91376 32474 80710 10276 20219 30054 40058 58002 84878
AAXX 23124 91408 11474 80604 10261 20246 30024 40062 52010 60061 70282 82108
AAXX 23124 91413 11469 80508 10255 20235 30046 40071 52022 69981 72582 83271
AAXX 23124 91155 NIL
AAXX 23124 91203 NIL
AAXX 23124 91217 NIL
AAXX 23124 91232 NIL
AAXX 23124 91250 NIL
AAXX 23124 91275 NIL
AAXX 23124 91317 NIL
AAXX 23124 91339 NIL
AAXX 23124 91348 NIL
AAXX 23124 91353 NIL
AAXX 23124 91366 NIL
AAXX 23124 91367 NIL
AAXX 23124 91369 NIL
AAXX 23124 91371 NIL
AAXX 23124 91378 NIL
AAXX 23124 91425 NIL
AAXX 23124 91434 NIL
AAXX 23124 91601 NIL
AAXX 23124 91610 NIL
BBXX 42887 23121 99282 70885 46/// /0407 10204 91200 22200 10503 70013
AAXX 23121 89065 46/// /1710 10008 21043 39820 49897 52004 91220
BBXX 63110 23124 99595 10015 47597 /2624 10079 20021 40004 50004 700// 22200 10809 70047
BBXX 63106 23124 99610 10017 46/// /2527 10069 49949 51005 22200
BBXX 63105 23124 99610 10017 47997 ///// 10072 20005 49948 50004 700// 22200
BBXX 62103 23124 99499 70029 46/98 /2030 10119 20098 40178 57018 22200 00123 10703 70017 333 90710 91139
AAXX 23124 91245 32566 2//// 10270 20200 30127 91155
AAXX 23124 91165 32966 00515 10228 20178 30155 40191 55003 91153
AAXX 23124 91212 32466 40807 10267 20233 31338 40076 51016 91154
AAXX 23124 91285 11466 82203 10189 20183 30168 40180 58004 60051 761// 91153
AAXX 23124 91334 32474 80710 10281 20238 30054 40057 50008 82171
AAXX 23124 91356 11456 80813 10264 20245 30040 40047 50003 60171 78082 8627/
AAXX 23124 91376 32474 80710 10276 20219 30054 40058 58002 84878
AAXX 23124 91408 11474 80604 10261 20246 30024 40062 52010 60061 70282 82108
AAXX 23124 91413 11469 80508 10255 20235 30046 40071 52022 69981 72582 83271
BBXX NWS0022 23124 99416 70714 43/// /0115 10080 20070 40099 5//// 7//// 8//// 222// 04113 2//// 3//// 4//// 5//// 6//// 8//// ICE /////
BBXX AVEY 23124 99523 50624 41897 92318 10100 20060 40181 52031 72505 89461 22253
BBXX 42887 23121 99282 70885 46/// /0407 10204 91200 22200 10503 70013
BBXX 42369 23121 99272 70903 46/// /0410 1//// 91200 22200 10403 70014
BBXX 42376 23121 99291 70879 46/// /1008 10167 40210 53022 91200 22200 10503 70014
BBXX 42370 23121 99273 70905 46/// ///// 10232 91200 22200 10603 70015
BBXX PDAN 23124 99333 31518 41998 00622 10230 40140 54000 70000 80000 22214 00230 20603
OOXX AAMIZ 23124 99707 30443 58304 22602 46/// /0812 11115 2//// 37440 49635 5//// 91230
AAXX 23124 71390 46/// /3306 11148 6///1 333 10018 21150 7////
AAXX 23124 71679 16/// /2514 10028 21021 39098 40108 53028 60001 333 10027 21016 70000
AAXX 23124 71710 16/// /0307 11003 21026 30156 40166 58003 60001 333 10044 21007 70000
BBXX DHSI 23124 99411 70107 41498 62010 10180 20148 40330 54000 70211 86146 22284 00160 20904 80160
BBXX DHSI 23124 99411 70107 41498 62010 10180 20148 40330 54000 70211 86146 22284 00160 20904 80160
BBXX DHSI 23124 99411 70107 41498 62010 10180 20148 40330 54000 70211 86146 22284 00160 20904 80160
AAXX 23124 60360 32558 53609 10175 20122 40248 58004 85800 333 0//00 83820 83633 95910
BBXX 42046 23121 99279 70940 46/// /0309 1//// 40221 91230 22200 00225 333 91211
BBXX 42046 23121 99279 70940 46/// /0410 1//// 40213 91200 22200 00225 333 91211
BBXX 42047 23121 99279 70936 46/// /0309 10157 20119 40220 91230 22200 00225 333 91211
BBXX 42047 23121 99279 70936 46/// /0210 10156 20116 40216 52008 91200 22200 00225 333 91210
AAXX 23124 89269 46/// /3003 11066 3//// 4//// 5//// 91150
BBXX PDAN 23124 99333 31518 41998 00622 10230 40140 54000 70000 80000 22214 00230 20603
BBXX PDGS 23124 99289 71294 41/98 /1216 10150 40280 54000 702// 8//// 22264 00180 2////
BBXX 42047 23121 99279 70936 46/// /0210 10156 20116 40216 52008 91200 22200 00225 333 91210
BBXX 42047 23121 99279 70936 46/// /0309 10157 20119 40220 91230 22200 00225 333 91211
BBXX 42046 23121 99279 70940 46/// /0410 1//// 40213 91200 22200 00225 333 91211
BBXX 42046 23121 99279 70940 46/// /0309 1//// 40221 91230 22200 00225 333 91211
BBXX PDGS 23124 99289 71294 41/98 /1216 10150 40280 54000 702// 8//// 22264 00180 2////
BBXX NWS0022 23124 99416 70714 43/// /0115 10080 20070 40099 5//// 7//// 8//// 222// 04113 2//// 3//// 4//// 5//// 6//// 8//// ICE /////
BBXX DHSI 23124 99411 70107 41498 62010 10180 20148 40330 54000 70211 86146 22284 00160 20904 80160
BBXX PDAN 23124 99333 31518 41998 00622 10230 40140 54000 70000 80000 22214 00230 20603
AAXX 23124 96615 32556 70000 10266 20242 30056 40070 52024 81531 333 10298 56000 59008 81620 84362
BBXX A8CB7 23123 99277 30435 41398 23320 10270 20243 40120 54000 70100 82145 22254 06270 21004 33132 41104 51005 80250
BBXX A8CB7 23123 99277 30435 41398 23320 10270 20243 40120 54000 70100 82145 22254 06270 21004 33132 41104 51005 80250
AAXX 23124 71322 17/// /2308 11323 21353 30152 40166 56013 69931 7//4/ 333 11265 21325 4/008 70019
BBXX 63106 23124 99610 10017 46/// /2527 10069 49949 51005 22200
BBXX 63113 23124 99610 10017 46/// /2627 10073 21004 49969 53005 22200 11015 70075
BBXX 63110 23123 99595 10015 41697 42635 10076 40003 70511 8/1// 22200 10809 70047
BBXX 62103 23124 99499 70029 46/97 /2033 10117 20099 40160 57033 22200 00123 10704 70019 333 90710 91140
AAXX 23124 89514 32697 60002 10064 49844 52002 70322 86050 333 10064 21006 86450
BBXX 42369 23121 99272 70903 46/// /0410 1//// 91220 22200 10403 70014
BBXX 42370 23121 99273 70905 46/// ///// 10233 91220 22200 10503 70014
BBXX 42376 23121 99291 70879 46/// /1008 10167 40210 91220 22200 10503 70014
BBXX 42887 23121 99282 70885 46/// /0307 10205 91220 22200 10403 70013
BBXX A8CB7 23123 99277 30435 41398 23320 10270 20243 40120 54000 70100 82145 22254 06270 21004 33132 41104 51005 80250
BBXX 42887 23121 99282 70885 46/// /0307 10205 91220 22200 10403 70013
BBXX 42376 23121 99291 70879 46/// /1008 10167 40210 91220 22200 10503 70014
BBXX 42370 23121 99273 70905 46/// ///// 10233 91220 22200 10503 70014
BBXX 42369 23121 99272 70903 46/// /0410 1//// 91220 22200 10403 70014
AAXX 23124 89573 35980 52702 10037 21045 39807 49829 57014 85030
AAXX 23124 89573 35980 52702 10037 21045 39807 49829 57014 85030
BBXX C6XE5 23124 99436 10298 41896 80332 10060 2101/ 40150 56010 75052 887// 22213 00100 21012 3//// 4//// 5//// 6//// 80030 ICE /////
BBXX 63110 23124 99595 10015 47597 /2624 10079 20021 40004 50004 700// 22200 10809 70047
BBXX 63106 23124 99610 10017 46/// /2527 10069 49949 51005 22200
BBXX 63105 23124 99610 10017 47997 ///// 10072 20005 49948 50004 700// 22200
BBXX 62103 23124 99499 70029 46/98 /2030 10119 20098 40178 57018 22200 00123 10703 70017 333 90710 91139
BBXX ZCDM8 23123 99029 70025 41298 70509 10300 20243 40146 54/// 7//// 85130 22223 00280 20000 31800 40202 50000 80260
BBXX ZCDM8 23123 99029 70025 41298 70509 10300 20243 40146 54/// 7//// 85130 22223 00280 20000 31800 40202 50000 80260
BBXX C6XE5 23124 99436 10298 41896 80332 10060 2101/ 40150 56010 75052 887// 22213 00100 21012 3//// 4//// 5//// 6//// 80030 ICE /////
AAXX 23121 01492 41360 82601 10037 20033 39877 49994 57013 71042 886// 333 91103
BBXX C6XE5 23124 99436 10298 41896 80332 10060 2101/ 40150 56010 75052 887// 22213 00100 21012 3//// 4//// 5//// 6//// 80030 /////
BBXX ONGI 23124 99018 50414 41798 70930 10300 20274 40110 54000 7//21 861// 22222 00280 20605 309// 40403 5//// 6//// 80280 ICE /////
BBXX ONGI 23124 99018 50414 41798 70930 10300 20274 40110 54000 7//21 861// 22222 00280 20605 309// 40403 5//// 6//// 80280 ICE /////
BBXX A8PB2 23124 99187 10726 41/96 /3407 10264 20208 40050 55010 70500 8///9 22200 04280 29901 80225
BBXX A8PB2 23124 99187 10726 41/96 /3407 10264 20208 40050 55010 70500 8///9 22200 04280 29901 80225
BBXX 63106 23124 99610 10017 46/// /2527 10069 49949 51005 22200
BBXX 63113 23124 99610 10017 46/// /2627 10073 21004 49969 53005 22200 11015 70075
BBXX 63110 23123 99595 10015 41697 42635 10076 40003 70511 8/1// 22200 10809 70047
BBXX 62103 23124 99499 70029 46/97 /2033 10117 20099 40160 57033 22200 00123 10704 70019 333 90710 91140
AAXX 23121 02845 41356 81707 11022 21024 39733 49982 57034 77177 875//
AAXX 23124 91532 45/// /0607 10271 20234 30048 40056 52002 333 10305
BBXX A8PB2 23124 99187 10726 41/96 /3407 10264 20208 40050 55010 70500 8///9 22200 04280 29901 80225
BBXX MINFR09 2312/ 99221 31540 46/// ///// 40030 52022
AAXX 23124 96685 12459 60603 10242 20239 30039 40065 53012 60031 83531 333 10278 56000 59010 82080
AAXX 23121 02805 41440 81706 11003 21020 39758 49889 57035 78687 887//
AAXX 23121 25503 42999 61102 11380 21403 30308 40458 52009 80005
AAXX 23124 89013 46/// /1113 11130 21170 37711 49704 57002 91220
AAXX 23121 30455 329// 80000 11302 21326 38897 48425 58001 83032 333 11282
AAXX 23124 97260 32558 41403 10255 20241 30053 40050 52009 82501 333 56000 82620
AAXX 23121 23058 41396 81603 11115 21128 30132 40136 57008 77172 8802/ 333 88507
AAXX 23121 30455 23121 329// 80000 11302 21326 38897 48425 58001 83032 333 11282
BBXX 63110 23124 99595 10015 47597 /2624 10079 20021 40004 50004 700// 22200 10809 70047
BBXX 63106 23124 99610 10017 46/// /2527 10069 49949 51005 22200
BBXX 63105 23124 99610 10017 47997 ///// 10072 20005 49948 50004 700// 22200
BBXX 62103 23124 99499 70029 46/98 /2030 10119 20098 40178 57018 22200 00123 10703 70017 333 90710 91139
AAXX 23121 31123 11997 83001 11310 21340 30015 40382 53013 69922 77172 82037 333 11296
BBXX MINFR09 2312/ 99221 31540 46/// ///// 40030 52022
AAXX 23121 26531 31458 21703 11032 21046 30126 40205 58020 71011 82600 333 91006 91108 555 1/102 4/997
BBXX MINFR03 2312/ 99190 10729 46/// ///// 10300 40099 57004
BBXX MINFR05 2312/ 99237 70170 46/// ///// 10200 40259 52004
AAXX 23121 30686 11999 00000 11356 21377 39893 40320 52007 69902 70271 333 11295
AAXX 23123 91554 31498 70000 10258 20247 40052 58002 70222 878// 333 10305 569// 59030 83818 87640
AAXX 23123 91568 11598 70810 10258 20213 40078 58004 69921 70228 878// 333 10290 562// 59028 69921 84825 87640
AAXX 23123 91554 31498 70000 10258 20247 40052 58002 70222 878// 333 10305 569// 59030 83818 87640
AAXX 23123 91568 11598 70810 10258 20213 40078 58004 69921 70228 878// 333 10290 562// 59028 69921 84825 87640
BBXX MINFR05 2312/ 99237 70170 46/// ///// 10200 40259 52004
BBXX MINFR03 2312/ 99190 10729 46/// ///// 10300 40099 57004
BBXX 63106 23124 99610 10017 46/// /2527 10069 49949 51005 22200
BBXX 63113 23124 99610 10017 46/// /2627 10073 21004 49969 53005 22200 11015 70075
BBXX 63110 23123 99595 10015 41697 42635 10076 40003 70511 8/1// 22200 10809 70047
BBXX 62103 23124 99499 70029 46/97 /2033 10117 20099 40160 57033 22200 00123 10704 70019 333 90710 91140
AAXX 23121 31534 12999 00000 11313 21336 39863 40249 58004 69900 333 11217
AAXX 23121 01046 41889 81609 10022 21045 39793 49800 56030 70222 8801/ 333 91117
BBXX MINFR05 2312/ 99237 70170 46/// ///// 4//// 5//// 91245
AAXX 2312/ 68902 46/// ///// 40151 57003
AAXX 23124 64500 32470 62208 10286 20240 30096 40109 83230 333 0//00 59006 83813 86363 94942 95832
AAXX 23124 64501 32460 42110 10285 20241 3//// 4//// 84200 333 0//00 5//// 84810 94919 95839
AAXX 23124 64507 32460 8////
AAXX 23124 64510 32570 4//// 10300 20214 3//// 4//// 84200 333 0//00 5//// 84820 94929 95839
AAXX 23124 64550 31470 7//// 10302 20230 30/// 40/// 70142 878// 333 0//00 5//// 83816 87626 94939 95839
AAXX 23124 64551 32470 71806 10295 20230 30087 40116 8323/ 333 0//00 58005 83815 87362 94941 95831
AAXX 23124 64556 32460 8//// 10275 20224 39527 40109 882// 333 0//00 59004
AAXX 23124 64570 32465 72003 10287 20236 39611 40112 875// 333 0//00 59011 84616 87640
BBXX 63110 23124 99595 10015 47597 /2624 10079 20021 40004 50004 700// 22200 10809 70047
BBXX 63106 23124 99610 10017 46/// /2527 10069 49949 51005 22200
BBXX 63105 23124 99610 10017 47997 ///// 10072 20005 49948 50004 700// 22200
BBXX 62103 23124 99499 70029 46/98 /2030 10119 20098 40178 57018 22200 00123 10703 70017 333 90710 91139
BBXX MINFR05 2312/ 99237 70170 46/// ///// 4//// 5//// 91245
BBXX WBS5272 23124 99445 70868 43/98 53215 11016 2//// 40298 54/// 70011 8//// 22252 0//// 20201 3//// 4//// 5//// 6//// 8//// ICE /////
BBXX 63106 23124 99610 10017 46/// /2527 10069 49949 51005 22200
BBXX 63113 23124 99610 10017 46/// /2627 10073 21004 49969 53005 22200 11015 70075
BBXX 63110 23123 99595 10015 41697 42635 10076 40003 70511 8/1// 22200 10809 70047
BBXX 62103 23124 99499 70029 46/97 /2033 10117 20099 40160 57033 22200 00123 10704 70019 333 90710 91140
BBXX WBS5272 23124 99445 70868 43/98 53215 11016 2//// 40298 54/// 70011 8//// 22252 0//// 20201 3//// 4//// 5//// 6//// 8//// ICE /////
BBXX 63110 23124 99595 10015 47597 /2624 10079 20021 40004 50004 700// 22200 10809 70047
BBXX 63106 23124 99610 10017 46/// /2527 10069 49949 51005 22200
BBXX 63105 23124 99610 10017 47997 ///// 10072 20005 49948 50004 700// 22200
BBXX 62103 23124 99499 70029 46/98 /2030 10119 20098 40178 57018 22200 00123 10703 70017 333 90710 91139
AAXX 23124 71614 17/// /0000 10002 21006 30071 40137 53006 60021 7//4/ 333 10032 21003 70762
AAXX 23124 71614 17/// /0000 10002 21006 30071 40137 53006 60021 7//4/ 333 10032 21003 70762
AAXX 23124 71971 16/// /3401 11317 21347 39966 40013 58003 60001 333 11263 21329 70000
AAXX 23124 71971 16/// /3401 11317 21347 39966 40013 58003 60001 333 11263 21329 70000
BBXX 63106 23124 99610 10017 46/// /2527 10069 49949 51005 22200
BBXX 63113 23124 99610 10017 46/// /2627 10073 21004 49969 53005 22200 11015 70075
BBXX 63110 23123 99595 10015 41697 42635 10076 40003 70511 8/1// 22200 10809 70047
BBXX 62103 23124 99499 70029 46/97 /2033 10117 20099 40160 57033 22200 00123 10704 70019 333 90710 91140
BBXX 52243 23121 99193 11666 46/// ///// 1//// 91200 22200 00261
BBXX 51178 23121 99142 51695 46/// ///// 1//// 91200 22200 00285
BBXX 51174 23121 99142 51697 46/// ///// 1//// 91200 22200 00286
BBXX 51171 23121 99064 71623 46/// ///// 1//// 91200 22200 00279
BBXX 51170 23121 99168 71695 46/// ///// 1//// 91200 22200 00258
BBXX 51169 23121 99004 51600 46/// ///// 1//// 91200 22200 00258
BBXX 63110 23124 99595 10015 47597 /2624 10079 20021 40004 50004 700// 22200 10809 70047
BBXX 63106 23124 99610 10017 46/// /2527 10069 49949 51005 22200
BBXX 63105 23124 99610 10017 47997 ///// 10072 20005 49948 50004 700// 22200
BBXX 62103 23124 99499 70029 46/98 /2030 10119 20098 40178 57018 22200 00123 10703 70017 333 90710 91139
BBXX 52243 23121 99193 11666 46/// ///// 1//// 91200 22200 00261
BBXX 51170 23121 99168 71695 46/// ///// 1//// 91200 22200 00258
BBXX 51171 23121 99064 71623 46/// ///// 1//// 91200 22200 00279
BBXX 51169 23121 99004 51600 46/// ///// 1//// 91200 22200 00258
BBXX 51178 23121 99142 51695 46/// ///// 1//// 91200 22200 00285
BBXX 51174 23121 99142 51697 46/// ///// 1//// 91200 22200 00286
AAXX 23124 64005 32565 70000 10306 20239 39731 40096 85230 333 0//00 58011 85864
AAXX 23124 64006 NIL
AAXX 23124 64008 NIL
AAXX 23124 64018 NIL
AAXX 23124 64040 32460 81704 10252 20217 39621 40082 70242 8422/ 333 0//00 59004 84817 88462
AAXX 23124 64062 NIL
AAXX 23124 64076 NIL
AAXX 23124 64108 NIL
AAXX 23124 64115 NIL
AAXX 23124 64126 NIL
AAXX 23124 64146 NIL
AAXX 23124 64155 NIL
AAXX 23124 64180 NIL
AAXX 23124 64184 NIL
AAXX 23124 64207 32568 82404 10245 20223 39728 40113 888// 333 0//00 58005 82822 88624
AAXX 23124 64210 32560 62908 10290 20223 39754 40102 84230 333 0//00 59004 84820
AAXX 23124 64220 NIL
AAXX 23124 64222 11557 71704 10269 20223 39553 40091 69901 70562 8557/ 333 0//00 58006 85625 87363
AAXX 23124 64228 NIL
AAXX 23124 64235 NIL
AAXX 23124 64247 11458 83502 10226 20212 39380 48/// 60051 70562 8457/ 333 0//00 58009 84615 86460
AAXX 23124 64276 NIL
AAXX 23124 64282 NIL
AAXX 23124 64285 NIL
AAXX 23124 64315 NIL
AAXX 23124 64328 NIL
AAXX 23124 64360 NIL
BBXX 63106 23124 99610 10017 46/// /2527 10069 49949 51005 22200
BBXX 63113 23124 99610 10017 46/// /2627 10073 21004 49969 53005 22200 11015 70075
BBXX 63110 23123 99595 10015 41697 42635 10076 40003 70511 8/1// 22200 10809 70047
BBXX 62103 23124 99499 70029 46/97 /2033 10117 20099 40160 57033 22200 00123 10704 70019 333 90710 91140
AAXX 23121 78090 15/// /0000 10266 30235 40239 69901 91200 222// 00203
BBXX 63110 23124 99595 10015 47597 /2624 10079 20021 40004 50004 700// 22200 10809 70047
BBXX 63106 23124 99610 10017 46/// /2527 10069 49949 51005 22200
BBXX 63105 23124 99610 10017 47997 ///// 10072 20005 49948 50004 700// 22200
BBXX 62103 23124 99499 70029 46/98 /2030 10119 20098 40178 57018 22200 00123 10703 70017 333 90710 91139
BBXX 63106 23124 99610 10017 46/// /2527 10069 49949 51005 22200
BBXX 63113 23124 99610 10017 46/// /2627 10073 21004 49969 53005 22200 11015 70075
BBXX 63110 23123 99595 10015 41697 42635 10076 40003 70511 8/1// 22200 10809 70047
BBXX 62103 23124 99499 70029 46/97 /2033 10117 20099 40160 57033 22200 00123 10704 70019 333 90710 91140
BBXX 63110 23124 99595 10015 47597 /2624 10079 20021 40004 50004 700// 22200 10809 70047
BBXX 63106 23124 99610 10017 46/// /2527 10069 49949 51005 22200
BBXX 63105 23124 99610 10017 47997 ///// 10072 20005 49948 50004 700// 22200
BBXX 62103 23124 99499 70029 46/98 /2030 10119 20098 40178 57018 22200 00123 10703 70017 333 90710 91139
BBXX WDE8265 23124 99408 70331 43/// /1708 10170 2010/ 40340 54000 7//// 8//// 22224 0//// 2//// 331// 41005 5//// 6//// 80130 ICE /////
AAXX 23124 91723 NIL
AAXX 23124 91964 NIL
BBXX 63106 23124 99610 10017 46/// /2527 10069 49949 51005 22200
BBXX 63113 23124 99610 10017 46/// /2627 10073 21004 49969 53005 22200 11015 70075
BBXX 63110 23123 99595 10015 41697 42635 10076 40003 70511 8/1// 22200 10809 70047
BBXX 62103 23124 99499 70029 46/97 /2033 10117 20099 40160 57033 22200 00123 10704 70019 333 90710 91140
BBXX A8SI8 23184 99371 10031 43398 62810 10185 2014/ 40330 54000 22265 00160 80155
AAXX 23124 71618 15666 32312 11227 21252 30131 40171 57018 60001 333 11256 21330 70000
AAXX 23121 08521 11459 70206 10179 20126 30255 40326 50006 69911 72582 87800 333 85815
AAXX 23124 71618 15666 32312 11227 21252 30131 40171 57018 60001 333 11256 21330 70000
AAXX 23121 08521 11459 70206 10179 20126 30255 40326 50006 69911 72582 87800 333 85815 555 59914 69917
AAXX 23121 30469 329// 00000 11410 21432 39508 40398 53006 333 11286
BBXX 63110 23124 99595 10015 47597 /2624 10079 20021 40004 50004 700// 22200 10809 70047
BBXX 63106 23124 99610 10017 46/// /2527 10069 49949 51005 22200
BBXX 63105 23124 99610 10017 47997 ///// 10072 20005 49948 50004 700// 22200
BBXX 62103 23124 99499 70029 46/98 /2030 10119 20098 40178 57018 22200 00123 10703 70017 333 90710 91139
AAXX 23121 01380 41480 40701 11034 21044 71142 82680 333 4/017 91106
BBXX 63106 23124 99610 10017 46/// /2527 10069 49949 51005 22200
BBXX 63113 23124 99610 10017 46/// /2627 10073 21004 49969 53005 22200 11015 70075
BBXX 63110 23123 99595 10015 41697 42635 10076 40003 70511 8/1// 22200 10809 70047
BBXX 62103 23124 99499 70029 46/97 /2033 10117 20099 40160 57033 22200 00123 10704 70019 333 90710 91140
AAXX 23124 91636 11599 30414 10265 20248 40042 60001 70122 83200 333 10314 562//
BBXX 63110 23124 99595 10015 47597 /2624 10079 20021 40004 50004 700// 22200 10809 70047
BBXX 63106 23124 99610 10017 46/// /2527 10069 49949 51005 22200
BBXX 63105 23124 99610 10017 47997 ///// 10072 20005 49948 50004 700// 22200
BBXX 62103 23124 99499 70029 46/98 /2030 10119 20098 40178 57018 22200 00123 10703 70017 333 90710 91139
AAXX 23124 89532 41/80 61808 10021 21017 39832 49859 51002 70172 81502 333 10035 21015
AAXX 23124 89272 46/// /9902 11072 21151 38099 49717 5//// 91230
AAXX 23124 89257 46/// /2116 11073 21089 39829 49900 52018 91220
AAXX 23124 89266 46/// /1723 11040 21053 39738 49876 5//// 91230
AAXX 23124 89272 46/// /9901 11092 21151 38099 49730 5//// 91220
AAXX 23124 71477 17/// /2521 10047 20025 69921 7//4/ 333 10065 20047 70188
AAXX 23121 32098 11395 80105 11027 21030 30077 40087 57013 60010 78583 889// 333 11022 88708 91011 91112
AAXX 23124 71430 17/// /3305 10007 20005 30067 40165 53015 60011 7//4/ 333 10054 20007 70023
AAXX 23124 71430 17/// /3305 10007 20005 30067 40165 53015 60011 7//4/ 333 10054 20007 70023
BBXX WDB9949 23124 99538 11732 41796 83219 10000 2000/ 40160 52020 75777 886// 22264 00020 2//// 332// 41008 511// 61//1 80000 ICE 0//0/
AAXX 23121 30781 32999 00000 11395 21417 39808 40359 52003 333 11295
AAXX 23124 97530 31458 70000 10270 20250 30043 40048 52023 71522 85872 333 56000 57802 59006 82814 84615 86460 80833
AAXX 23121 10338 01456 82502 10095 20079 30111 40183 58014 69901 75052 876// 333 31/// 55300 20111 30111 69907 87712
AAXX 23124 68300 36/// /1928 10228 20104 39968 40115 57009 333 10238 20126 91035 555 91011
AAXX 23124 68014 32689 50204 10272 20134 38586 48504 58013 82105 333 10272 20150 91009 555 91018
AAXX 23124 68110 32689 31006 10328 20065 38269 48478 58002 83102 333 10328 20182 91014 555 91018
AAXX 23124 68300 36/// /1927 10229 20101 39969 40116 57015 333 10238 20126 91036 555 91012
AAXX 23124 68004 36/// /3103 10327 20116 38521 48477 57006 333 10327 20128 91010 555 91015
AAXX 23124 68010 36/// /2304 10330 20051 38900 48516 57013 333 10330 2//// 91010 555 91015
AAXX 23124 68102 36/// /2306 10295 20065 38724 48481 57008 333 10304 20133 91011 555 91013
AAXX 23124 68116 36/// /0907 10302 20124 38553 48503 57009 333 10328 20190 91013 555 91018
AAXX 23124 68212 36/// /1003 10341 20011 38890 48523 57016 333 10345 20170 91009 555 91016
AAXX 23124 68004 36/// /0604 10320 20115 38522 48478 58006 333 10324 20128 91008 555 91015
AAXX 23124 68006 32989 32804 10292 20002 38915 48504 58007 80008 333 1//// 20203 555 91014
AAXX 23124 68010 36/// /2505 10329 20050 38900 48516 58010 333 10329 2//// 91011 555 91015
AAXX 23124 68018 36/// /3506 10301 20149 38880 48496 57020 333 10304 20197 91010 555 91014
AAXX 23124 68102 36/// /2206 10293 20063 38724 48481 58008 333 10304 20133 91014 555 91013
AAXX 23124 68116 36/// /1005 10295 20122 38554 48504 58008 333 10328 20190 91014 555 91018
AAXX 23124 68212 36/// /0905 10341 20011 38892 48525 58013 333 10345 20170 91014 555 91016
AAXX 23124 68098 32989 02510 10206 20113 30039 40145 58008 333 10208 20117 91015 555 91014
AAXX 23124 68312 32989 13103 10331 20052 38940 48521 58013 80001 333 10331 20142 91009 555 91015
AAXX 23124 85585 12598 71916 10155 20071 30179 40215 53005 60004 87500 333 20151 30/// 55004 56400 70000 87627
AAXX 23124 85586 12960 21807 10170 20038 40129 52012 60004 80001 333 20072 30/// 50310 55125 56006 82075
AAXX 23124 85629 12980 01908 10104 20062 40145 53/// 60004 333 20082 30/// 50790 55136 70000
AAXX 23124 85672 12980 02112 10102 20065 40158 52010 60004 333 20076 30/// 55099 70000
AAXX 23124 85682 12965 02313 10123 20019 40166 53002 60004 333 20082 30/// 51300 55138 70000
AAXX 23124 85743 12960 02009 10103 20036 40209 58003 60004 333 20012 30/// 50400 55100 70000
AAXX 23124 85766 12470 11706 10106 20064 40241 53006 60004 81100 333 20038 30/// 56117 56400 70000 81825
AAXX 23124 85782 12560 21506 10100 20067 40253 52005 69954 82100 333 20038 30/// 56000 70005 82820
AAXX 23124 85799 12560 31607 10106 20076 40263 52008 60024 83500 333 20024 32/// 50250 55106 56400 70024 83630
AAXX 23124 85830 NIL
AAXX 23124 85406 12970 70000 10214 20149 40110 53022 60004 87030 333 20202 30/// 55044 56000 70000 87362
AAXX 23124 85418 12565 72109 10204 20147 40109 55015 60004 87530 333 20188 30/// 55085 56000 70000 82630 85364
AAXX 23124 85432 12970 21014 10166 20015 37744 48421 53004 60004 82030 333 20078 30/// 51490 55109 56000 70000 82363
AAXX 23124 85442 12470 71906 10184 20147 40111 52017 60004 82506 333 20170 30/// 50600 55084 56407 82613 86280
AAXX 23124 85467 NIL
AAXX 23124 85469 41462 80803 10199 20180 40181 57005 70282 888// 333 56299 83817 85640
AAXX 23124 85488 12460 61902 10155 20117 40129 50014 60004 86500 333 20118 30006 50960 55122 56600 70000 86614
AAXX 23124 85574 12960 59901 10184 20042 39569 40112 53023 60004 80001 333 20143 30/// 55128 56006 70000 85075
AAXX 23124 85577 12960 30000 10187 20044 39514 40114 52018 60004 80001 333 20132 30011 50680 55120 56007 70000 83075
AAXX 23124 85467 13470 80603 10154 20124 40134 50001 60001 885// 333 20141 30/// 5///0 55083 56099 70000 82710 88615
AAXX 23124 85442 12470 71906 10184 20147 40111 52017 60004 82506 333 20170 30/// 50600 55084 56407 70000 82613 86280
AAXX 23121 10788 07137 80802 10036 20036 39809 40251 58012 60011 75165 333 55300 20138 30138 69957 81/02
