BBXX WDD9433 07064 99315 71478 41398 30718 10180 20130 40209 56020 70200 838// 22254 00200 20101 329// 41607 5//// 6//// 80150 ICE /////
BBXX ZMENA 07054 99435 31729 46/// ///// 10159 20133 40092 222//
BBXX ZMFR 07054 99433 51754 43/// /0119 10160 20152 40140 57004 22211 00155
BBXX 44172 07061 99445 70634 46/// ///// 1//// 90531 22200 00055 10902 20902 315// 41101 70010
BBXX 44097 07061 99410 70711 46/// ///// 1//// 90532 22200 00100 10804 20804 319// 41101 70022
BBXX 46218 07061 99345 71208 46/// ///// 1//// 90532 22200 00128 11709 21006 331// 41706 70043
AAXX 07064 40272 31957 00000 10009 21013 39336 40194 52004 71000 333 21015 30102
BBXX 3ETA8 07064 99220 70869 41898 80820 10230 2013/ 40170 54000 7//// 884// 22275 04240 2//// 3//// 4//// 5//// 6//// 80170 ICE /////
AAXX 07064 40270 31935 00000 10038 20013 39269 40187 52003 70400 333 21025 35104
AAXX 07064 40296 32960 00000 10106 20028 40166 57003 333 20080 30004
BBXX VCXF 07064 99464 70484 41598 73223 11004 2000/ 40064 52024 70072 87100 22200 02025 20605 81004
BBXX VCXF 07064 99464 70484 41598 73223 11004 2000/ 40064 52024 70072 87100 22200 02025 20605 81004
BBXX WDE2719 07064 99597 71520 41497 80350 11122 2//// 49960 57/// 70722 8762/ 22211 0//// 20303 3//// 4//// 5//// 61041 8//// ICE /////
BBXX WDD2876 07064 99433 70824 41/98 82608 10055 2//// 40047 53/// 70222 8//// 22243 00044 2//01 3//// 4//// 5//// 6//// 8//// ICE /////
AAXX 07064 91334 32474 80707 10311 20240 30090 40093 55007 83178 333 56299 70274 555 90706
AAXX 07064 91334 32474 80707 10311 20240 30090 40093 55007 83178 333 56299 70274 555 90706
AAXX 07064 08495 12262 61015 10144 20139 30260 40268 53007 60002 866// 90550 333 20120 30008 70000 81703 85706
BBXX BAREU56 07064 99444 10089 46/// ///// 40194 22200
AAXX 07064 40250 32960 02504 10017 20010 39390 40203 52006 333 21014 300//
AAXX 07064 40260 32960 00000 10014 20011 39402 40204 52008 333 21014 31003
AAXX 07064 40340 32960 03606 10100 21018 40162 54000 333 20078 30005
AAXX 07064 78583 32470 50000 10230 20201 40181 60001 85800 333 00100 59028 81818 85645
BBXX DBBT 07061 99299 30152 46/// /1613 10201 20179 40146 52004 22273 00198
BBXX DBKV 07061 99279 70153 46/// /0208 10177 20136 40232 57002 22211 00197
BBXX DBFR 07061 99535 10048 46/// /2716 10088 20081 40076 57011 22261 00084
BBXX DBEA 07061 99540 10084 46/// /2316 10055 20048 40042 57039 22261 00047
BBXX DBJM 07061 99543 10074 46/// /2714 10079 20071 40049 57020 22231 00063
BBXX DBBU 07061 99545 10124 46/// /2213 10033 20034 40051 57033/ 22251 00049
BBXX 46249 07061 99338 71197 46/// ///// 1//// 90537 22200 00139 11505 21003 327// 41504 70025
BBXX 46248 07061 99461 71247 46/// ///// 1//// 90534 22200 00094 11106 20905 327// 41104 70032
BBXX 46244 07061 99409 71244 46/// ///// 1//// 90535 22200 00105 11307 21004 328// 41306 70036
BBXX 46240 07061 99366 71219 46/// ///// 1//// 90542 22200 00117 11404 21003 336// 41403 70022
BBXX 46237 07061 99378 71226 46/// ///// 1//// 90540 22200 00110 11306 21003 325// 41305 70029
BBXX 46212 07061 99408 71243 46/// ///// 1//// 90542 22200 00105 11306 20903 330// 41305 70030
BBXX 46217 07061 99342 71194 46/// ///// 1//// 90542 22200 00144 11504 21003 326// 41503 70021
BBXX 46211 07061 99469 71242 46/// ///// 1//// 90536 22200 00088 11306 21004 326// 41304 70029
BBXX 44098 07061 99428 70702 46/// ///// 1//// 90537 22200 00078 10502 20502 70009
BBXX 41115 07061 99184 70673 46/// ///// 1//// 90535 22200 11104 20703 336// 41102 70018
BBXX 41114 07061 99276 70802 46/// ///// 1//// 90546 22200 00210 11101 21001 307// 41101 70005
BBXX 41012 07061 99300 70805 46/// /2207 10194 40199 58012 90550 22200 00210 11001 20401 309// 41001 70007 333 91209 555 11075 22079 30549 42309 60549 222071 217065 215063 213063 212064 211064
BBXX 51205 07061 99210 71564 46/// ///// 1//// 90548 22200 00236 11404 20903 300// 41403 70019
BBXX 46114 07061 99364 71222 46/// ///// 1//// 90534 22200 00110 11509 20906 329// 41506 70043
BBXX 46060 07061 99606 71468 46/// /0803 11024 49992 57007 90550 22200 00045 333 91204 555 11026 22026
BBXX 52200 07061 99134 11448 46/// ///// 1//// 90545 22200 00286 10805 20804 309// 41101 70023
AAXX 07064 91408 32474 80912 10304 20238 30049 40087 57015 83278 333 56999 70013 555 90706
AAXX 07064 91408 32474 80912 10304 20238 30049 40087 57015 83278 333 56999 70013 555 90706
AAXX 07064 61902 12482 41312 10237 20203 40144 69904 84800 333 20235 58007 81819 83645
AAXX 07064 91772 31398 83008 10269 20243 4//// 60001 70222 8671/ 333 5679/ 83707 86640 88460
AAXX 07064 91776 NIL
AAXX 07064 91779 11398 82915 10246 20236 40056 53005 60071 76066 8671/ 333 5679/ 84707 86815 88459
AAXX 07064 91784 11398 82714 10264 20253 40038 55001 69981 70228 888// 333 566// 82709 86817 88635
AAXX 07064 91792 31398 62606 10280 20250 40041 53001 60001 70222 84706 333 566/9 81709 84816 86277
AAXX 07064 91376 32474 80610 10274 20241 30090 40093 53008 85878 333 56119 70008 555 90706
AAXX 07064 91413 32469 70715 10303 20235 30071 40096 55015 83171 333 56199 70000 555 90706
AAXX 07064 91772 31398 83008 10269 20243 4//// 60001 70222 8671/ 333 5679/ 83707 86640 88460
AAXX 07064 91776 NIL
AAXX 07064 91779 11398 82915 10246 20236 40056 53005 60071 76066 8671/ 333 5679/ 84707 86815 88459
AAXX 07064 91784 11398 82714 10264 20253 40038 55001 69981 70228 888// 333 566// 82709 86817 88635
AAXX 07064 91792 31398 62606 10280 20250 40041 53001 60001 70222 84706 333 566/9 81709 84816 86277
AAXX 07064 89054 11262 82842 10012 21002 49870 50003 60011 70262 886// 333 56699 88703 91056 96461
AAXX 07064 89056 12260 82724 10005 21011 49844 58002 60001 886// 333 56699 88706
AAXX 07064 89057 12460 62324 10021 21021 49842 57004 60001 86400 333 56600 86617
AAXX 07064 89058 11566 82718 10007 21014 39834 49855 52013 69901 70070 885//
AAXX 07064 89059 11460 83221 11001 21035 49803 52006 69971 70272 886// 333 75099 88713
AAXX 07064 89251 32362 82923 10009 210059 49844 52010 8652/
AAXX 07064 91413 32469 70715 10303 20235 30071 40096 55015 83171 333 56199 70000 555 90706
BBXX 44025 07061 99402 70732 46/// /2307 10100 20066 40086 56009 90550 22200 00092 10703 20602 318// 40702 70015 333 91208 555 11074 22081 30527 42209 60549 226068 224070 222073 226070 226066 222073
BBXX 41008 07061 99314 70809 46/// /2206 10149 20127 40198 58010 90550 22200 00148 11101 20301 300// 41101 70006 333 91207 555 11060 22064 30525 42207 60549 223056 222056 218058 217059 216059 217059
BBXX 41004 07061 99325 70791 46/// /2308 10182 20113 90550 22200 00190 10502 20502 3//// 41101 70011 333 91210 555 11089 22094 30528 42310 60549 231085 231087 229085 229086 233085 228084
BBXX 44009 07061 99385 70747 46/// /2107 10098 40118 57009 90550 22200 00080 10603 20602 300// 40901 70013 333 91208 555 11073 22082 30506 42109 60549 207066 211068 214072 212070 210072 209071
BBXX 44014 07061 99366 70748 46/// ///08 1//// 40139 56006 90550 22200 00129 10603 20603 313// 41001 70017 333 91210 555 11081 22081
AAXX 07064 08594 31457 30411 10196 20171 70600 81501 333 20195 81615 83070
AAXX 07064 08589 31545 50314 10208 20200 40153 70522 83530 333 20202 59008 83620 85360
AAXX 07064 08583 31956 10713 10205 20162 40170 70600 80001 333 20203 59005 81070
AAXX 07064 68994 12598 62925 10076 20027 39923 49952 53006 60254 83530 222// 00062 20801 333 20057 91036 555 10115 20254 90995
AAXX 07064 91376 32474 80610 10274 20241 30090 40093 53008 85878 333 56119 70008 555 90706
AAXX 07064 91643 11498 80808 10264 20244 40081 53005 69921 78008 8437/ 333 5629/ 84918 88460
AAXX 07064 91643 11498 80808 10264 20244 40081 53005 69921 78008 8437/ 333 5629/ 84918 88460
AAXX 07064 16597 12662 13419 10110 20005 30032 40120 53020 60022 81100 333 20071 30006 70046 81848 91134 91535
AAXX 07064 40255 32960 01706 10082 20027 39456 40184 54002 333 20046 30101 70008
AAXX 07064 68906 32698 53104 10164 20116 30065 40129 57003 85500 222// 00135 333 20160 91022 555 10195 91012
AAXX 07064 96315 42465 73504 10295 20241 40090 83848 333 83817 85364
AAXX 07064 96323 NIL
BBXX TESTFR9 07064 99507 70011 46/// /2721 10102 29094 40225 57001 22273
AAXX 07064 61901 169// /1315 10165 20141 39669 40178 52006 60002 90550 333 20164 3/016 70000 8//99 555 7/090
AAXX 07064 89009 41361 20306 11264 36795 53002 70270 81601 333 81707
AAXX 07064 89009 41361 20306 11264 36795 53002 70270 81601 333 81707
BBXX NWS0022 07064 99416 70714 43/// /2305 10086 20039 40068 5//// 7//// 8//// 222// 04087 2//// 3//// 4//// 5//// 6//// 8//// ICE /////
BBXX C6XC2 07064 99118 11271 41498 70722 10270 20228 40130 57010 70322 8697/ 22244 00290 20705 304// 40905 5//// 6//// 80240 ICE /////
BBXX NEPP 07064 99606 71679 41496 81607 11210 2123/ 40058 56006 77172 886// 22281 01005 2//// 3//// 4//// 5//// 6//// 86210 ICE 54092
BBXX KRPP 07063 99231 70872 41998 11213 10220 20205 40198 58/// 7//00 81/3/ 22233 0//// 20201 312// 40202 5//// 6//// 80210 ICE /////
BBXX PFRO 07064 99149 70619 41498 20914 10250 20220 40136 56016 70200 82100 22244 2//// 80230
BBXX PHSG 07064 99242 70794 41/98 30813 10210 40210 56010 70222 81170 22244 00280 20203
BBXX LAIP5 07063 99337 30169 41297 71823 10205 20181 40155 51002 70322 8/84/ 22232 04200 20805 319// 40906 5//// 80190
BBXX DBKV 07061 99279 70153 46/// /0208 10177 20136 40232 57002 22211 00197
BBXX DBBT 07061 99299 30152 46/// /1613 10201 20179 40146 52004 22273 00198
BBXX A8EH5 07061 99385 11755 41498 52710 10132 20100 40065 52012 70211 8346/ 22225 00124 20403 302// 41404 5//// 80114
BBXX C6XC2 07064 99118 11271 41498 70722 10270 20228 40130 57010 70322 8697/ 22244 00290 20705 304// 40905 5//// 6//// 80240 ICE /////
BBXX D5BC5 07064 99413 11577 41/98 42311 00/// 10040 2101/ 40060 57015 70322 846// 22225 04/// 20608 30322 40711 50610 6//// 80020 ICE /////
BBXX UBNY 07061 99737 10765 41/96 91509 11193 40203 51008 77177 22232 ICE52
BBXX SHIP 07064 99198 11427 41698 30517 10260 20217 40180 54/// 7//00 8326/ 22253 00270 20502 33436 40805 51606 6//// 80230 ICE /////
BBXX 41004 07061 99325 70791 46/// /2308 10182 20113 90550 22200 00190 10502 20502 3//// 41101 70011 333 91210 555 11089 22094 30528 42310 60549 231085 231087 229085 229086 233085 228084
BBXX 44009 07061 99385 70747 46/// /2107 10098 40118 57009 90550 22200 00080 10603 20602 300// 40901 70013 333 91208 555 11073 22082 30506 42109 60549 207066 211068 214072 212070 210072 209071
BBXX 44014 07061 99366 70748 46/// ///08 1//// 40139 56006 90550 22200 00129 10603 20603 313// 41001 70017 333 91210 555 11081 22081
BBXX 41008 07061 99314 70809 46/// /2206 10149 20127 40198 58010 90550 22200 00148 11101 20301 300// 41101 70006 333 91207 555 11060 22064 30525 42207 60549 223056 222056 218058 217059 216059 217059
BBXX 44025 07061 99402 70732 46/// /2307 10100 20066 40086 56009 90550 22200 00092 10703 20602 318// 40702 70015 333 91208 555 11074 22081 30527 42209 60549 226068 224070 222073 226070 226066 222073
BBXX V2NA1 07064 99356 70520 41597 53220 10200 20135 40140 53030 70322 85478 22264 04190 21407 80160
BBXX A8UT7 07064 99398 70684 41598 42523 10155 20092 40080 57005 70000 81107 22213 20704 326// 40903 80120
BBXX PFRO 07064 99149 70619 41498 20914 10250 20220 40136 56016 70200 82100 22244 2//// 80230
BBXX KRPP 07063 99231 70872 41998 11213 10220 20205 40198 58/// 7//00 81/3/ 22233 0//// 20201 312// 40202 5//// 6//// 80210 ICE /////
BBXX NEPP 07064 99606 71679 41496 81607 11210 2123/ 40058 56006 77172 886// 22281 01005 2//// 3//// 4//// 5//// 6//// 86210 ICE 54092
BBXX WKAW 07064 99405 70638 41497 82129 10159 2014/ 40110 57050 78082 88/// 22264 00180 20403 3//// 4//// 5//// 6//// 80145 ICE /////
BBXX 4XFV 07063 99261 71178 43498 73115 10170 2014/ 40180 54000 87/// 22234 80150
BBXX 41115 07061 99184 70673 46/// ///// 1//// 90535 22200 11104 20703 336// 41102 70018
BBXX 46114 07061 99364 71222 46/// ///// 1//// 90534 22200 00110 11509 20906 329// 41506 70043
BBXX 46060 07061 99606 71468 46/// /0803 11024 49992 57007 90550 22200 00045 333 91204 555 11026 22026
BBXX 51205 07061 99210 71564 46/// ///// 1//// 90548 22200 00236 11404 20903 300// 41403 70019
BBXX 41012 07061 99300 70805 46/// /2207 10194 40199 58012 90550 22200 00210 11001 20401 309// 41001 70007 333 91209 555 11075 22079 30549 42309 60549 222071 217065 215063 213063 212064 211064
BBXX 41114 07061 99276 70802 46/// ///// 1//// 90546 22200 00210 11101 21001 307// 41101 70005
BBXX 44098 07061 99428 70702 46/// ///// 1//// 90537 22200 00078 10502 20502 70009
BBXX 46211 07061 99469 71242 46/// ///// 1//// 90536 22200 00088 11306 21004 326// 41304 70029
BBXX 46237 07061 99378 71226 46/// ///// 1//// 90540 22200 00110 11306 21003 325// 41305 70029
BBXX 46212 07061 99408 71243 46/// ///// 1//// 90542 22200 00105 11306 20903 330// 41305 70030
BBXX 46217 07061 99342 71194 46/// ///// 1//// 90542 22200 00144 11504 21003 326// 41503 70021
BBXX 46240 07061 99366 71219 46/// ///// 1//// 90542 22200 00117 11404 21003 336// 41403 70022
BBXX 46244 07061 99409 71244 46/// ///// 1//// 90535 22200 00105 11307 21004 328// 41306 70036
BBXX 46249 07061 99338 71197 46/// ///// 1//// 90537 22200 00139 11505 21003 327// 41504 70025
BBXX 46248 07061 99461 71247 46/// ///// 1//// 90534 22200 00094 11106 20905 327// 41104 70032
BBXX WPGK 07064 99402 70736 41998 02513 10083 2005/ 40068 57010 70200 80000 22232 00083 2//// 3//// 4//// 5//// 6//// 80067 ICE /////
BBXX WKAP 07063 99245 70807 43998 00510 10200 2015/ 40220 58005 7//// 80/// 22264 00260 20202 3//// 4//// 5//// 6//// 80170 ICE /////
BBXX WGAX 07064 99449 70515 41798 83026 10015 2102/ 40075 52013 7//22 8864/ 22213 00035 2//// 3//// 4//// 5//// 6//// 80000 ICE /////
BBXX WAHV 07064 99413 70462 41998 72635 10170 2014/ 40027 56005 7//22 8707/ 22264 00171 2//// 3//// 4//// 5//// 6//// 80150 ICE /////
BBXX DQVK 07063 99273 70795 41598 40000 10205 20132 40210 54000 70211 84100 22285 00264 20000 3//// 4//// 5//// 80160
BBXX SHIP 07064 99266 71343 41698 80926 10185 2015/ 40250 54000 70322 88942 22223 00230 20406 327// 41208 5//// 6//// 80165 ICE /////
BBXX ICGU 07064 99159 70615 41797 50917 10260 20202 40150 54/// 70311 859// 22253 04270 21000 30910 41401 51602 6//// 85220 ICE /////
BBXX HO7723 07064 99260 70781 41797 51813 10200 2012/ 40210 54000 70200 85/85 22273 00250 20201 31716 40202 50201 6//// 80150 ICE /////
BBXX SHIP 07063 99380 71417 41/98 /2220 10170 20154 40200 52030 70222 8//// 22224 00143 2//// 3//// 4//// 80160
BBXX WDE2719 07064 99597 71520 41497 80350 11122 2//// 49960 57/// 70722 8762/ 22211 0//// 20303 3//// 4//// 5//// 61041 8//// ICE /////
BBXX DNCQ 07063 99110 70922 41998 00808 10260 20178 40125 50005 70200 80000 22233 04270 2//// 3//// 4//// 5//// 80205
BBXX WDD2876 07064 99433 70824 41/98 82608 10055 2//// 40047 53/// 70222 8//// 22243 00044 2//01 3//// 4//// 5//// 6//// 8//// ICE /////
BBXX TFNA 07061 99669 70133 42/97 80312 10019 49940 22221 00021
BBXX DBBU 07061 99545 10124 46/// /2213 10033 20034 40051 57033/ 22251 00049
BBXX DBEA 07061 99540 10084 46/// /2316 10055 20048 40042 57039 22261 00047
BBXX DBJM 07061 99543 10074 46/// /2714 10079 20071 40049 57020 22231 00063
BBXX DBFR 07061 99535 10048 46/// /2716 10088 20081 40076 57011 22261 00084
BBXX KSPH 07063 99365 10140 41398 23330 10120 2006/ 40110 5//// 7//00 82100 22262 00190 20503 399// 40807 5//// 6//// 80090 ICE /////
BBXX MGRX2 07063 99568 10058 41297 83225 10080 20063 40009 57/// 700// 8/7// 22213 2//// 3//// 4//// 5//// 80072
AAXX 07064 85406 12660 83102 10219 20146 40136 58017 60001 885// 333 56099 88633
AAXX 07064 85442 12475 21703 10176 20150 40137 58006 60001 82500 333 56400 82610
AAXX 07064 85467 33489 /2403 10174 20140 40150 57007
AAXX 07064 85469 42560 70814 10220 20165 40250 52020 87800 333 56200 84820 85630
AAXX 07064 85488 12460 10000 10149 20130 40137 58009 60001 81500 333 56600 81610
BBXX BAREU60 07064 99435 10164 46/// ///// 40136 52015 22223
BBXX BAREU08 07064 99186 70673 46/// ///// 40167 57014 22254
BBXX BAREU00 07064 99452 70465 46/// ///// 40038 52033 22263
BBXX BAREU51 07064 99400 10136 46/// ///// 40121 52028 22284
BBXX BAREU04 07064 99477 70248 46/// ///// 40308 52003 22223
AAXX 07061 13586 12660 73407 10042 21021 39776 40069 52039 60022 87500 333 20021 31/// 87643
AAXX 07064 81225 11265 70000 10236 20233 40117 60101 72586 86832 333 56299 59002 83704 85620 86360
AAXX 07064 81200 NIL
AAXX 07064 81202 NIL
AAXX 07064 81209 NIL
AAXX 07064 81251 NIL
AAXX 07064 78970 11466 20000 10244 20221 30104 40129 60001 70511 81840 333 01290 10328 20223 59002 81815
AAXX 07064 78962 11470 20603 10244 20215 30130 40138 69901 70181 82800 333 01200 10309 20228 59001 82815 90930
AAXX 07061 76225 32920 02502 10090 21061 38632 40128 52006 90545 333 10206 21010 30/// 55094 59021
AAXX 07061 76458 32960 03501 10186 20177 30144 40148 53002 90537 333 10275 20139 30/// 55055 58003
AAXX 07061 76556 32960 30901 10154 20080 39123 40126 52011 80001 90530 333 10265 20108 30/// 55054 56005 58005 83070
AAXX 07061 76612 32958 02401 10093 20031 38482 40148 50005 90547 333 10227 20060 30/// 55077 21053 58/// 70000
AAXX 07061 76680 31560 42902 10116 20026 37760 40130 52001 70300 81810 90550 333 10210 20069 30/// 55091 21442 56110 58005 81825 83458
AAXX 07061 76685 32950 00000 10102 20017 37878 40128 52014 90545 333 10200 20040 30/// 55096 58002
AAXX 07061 76243 32970 00702 10136 20094 39842 40131 54000 90530 333 10260 20040 30/// 55094 59073
AAXX 07061 76390 31950 02603 10081 21043 38232 40153 52001 70544 90530 333 10185 20023 30/// 55096 21367 59024
AAXX 07061 76412 32960 00000 10150 20140 30125 40171 52002 90550 333 10260 20120 30/// 55073 58008
AAXX 07064 85874 32982 /9903 10143 20100 39485 40095 58012
AAXX 07064 85934 12980 22511 10073 20016 40057 57016 60001 82030 333 56060 82359
AAXX 07064 89056 12260 82724 10005 21011 49844 58002 60001 886// 333 56699 88706
AAXX 07064 89057 12460 62324 10021 21021 49842 57004 60001 86400 333 56600 86617
AAXX 07064 89058 11566 82718 10007 21014 39834 49855 52013 69901 70070 885//
AAXX 07064 89059 11460 83221 11001 21035 49803 52006 69971 70272 886// 333 75099 88713
AAXX 07064 89251 32362 82923 10009 210059 49844 52010 8652/
AAXX 07064 85574 12960 01607 10163 20119 40119 58013 60001
AAXX 07064 85577 12960 02402 10166 20125 39522 40125 57013 60001
AAXX 07064 85585 339// 99903 10173 20148 30072 40108 58011
AAXX 07064 85682 12560 70203 10163 20152 40129 58014 60001 87500 333 56800 87623
AAXX 07064 85743 12460 89903 10149 20133 40129 58016 60001 885// 333 56699 88610
AAXX 07064 85799 12460 51804 10122 20121 40127 57004 60001 85500 333 56400 85610
AAXX 07061 76225 32920 02502 10090 21061 38632 40128 52006 90545 333 10206 21010 30/// 55094 59021
AAXX 07061 76458 32960 03501 10186 20177 30144 40148 53002 90537 333 10275 20139 30/// 55055 58003
AAXX 07061 76556 32960 30901 10154 20080 39123 40126 52011 80001 90530 333 10265 20108 30/// 55054 56005 58005 83070
AAXX 07061 76612 32958 02401 10093 20031 38482 40148 50005 90547 333 10227 20060 30/// 55077 21053 58/// 70000
AAXX 07061 76680 31560 42902 10116 20026 37760 40130 52001 70300 81810 90550 333 10210 20069 30/// 55091 21442 56110 58005 81825 83458
AAXX 07061 76685 32950 00000 10102 20017 37878 40128 52014 90545 333 10200 20040 30/// 55096 58002
AAXX 07061 76243 32970 00702 10136 20094 39842 40131 54000 90530 333 10260 20040 30/// 55094 59073
AAXX 07061 76390 31950 02603 10081 21043 38232 40153 52001 70544 90530 333 10185 20023 30/// 55096 21367 59024
AAXX 07061 76412 32960 00000 10150 20140 30125 40171 52002 90550 333 10260 20120 30/// 55073 58008
BBXX 41049 07061 99275 70630 46/// /0502 10208 20092 40216 54000 90550 22200 00228 11104 20401 300// 41104 70021 333 91203 555 11025 22025 30515 40606 60549 047024 049036 050028 052034 051024 045023 80505 90515
BBXX 41001 07061 99347 70727 46/// ///// 10195 20119 40173 56011 90550 22200 00218 10704 70020
BBXX 42020 07061 99270 70967 46/// /1905 10206 20175 40154 57004 90550 22200 00216 10703 20401 315// 40702 70013 333 91206 555 11054 22056 30548 41806 60549 186052 186052 186050 180048 177048 174047
BBXX 41060 07061 99148 70510 46/// ///// 1//// 90550 22200 11306 70028
BBXX 41044 07061 99217 70587 46/// /0304 10243 20197 40184 56009 90550 22200 00255 11105 20301 300// 41105 70023 333 91206 555 11043 22044 30532 40306 60549 035041 034043 033045 035040 038038 041038 80305 90528
BBXX 41048 07061 99320 70696 46/// /2405 10181 20097 40215 56009 90550 22200 00213 10803 20401 3//// 40803 70015 333 91207 555 11052 22054 30545 42407 60549 242051 238045 252035 245052 255039 242040 82506 90546
BBXX 42065 07061 99170 70817 46/// /0507 10255 20197 90550 22200 10804 20602 3//// 40803 70018 333 91209 555 11074 22078 30501 40509 60549 047070 046069 048073 048075 050076 050072 80508 90502
BBXX 42012 07061 99301 70876 46/// /1805 10174 20159 40195 57004 90550 22200 00167 1//00 70002 333 91206 555 11053 22059 30527 41806 60549 180048 181050 181050 183048 184046 184042
BBXX 42001 07061 99259 70897 46/// /1406 10220 20131 40201 56005 90550 22200 00236 10301 20301 70004 333 91207 555 11062 22065 30508 41508 60549 142060 145061 136056 140062 143056 139060
BBXX 42035 07061 99292 70944 46/// /1503 10165 20164 40164 57006 90550 22200 00153 10602 20401 318// 40602 70009 333 91203 555 11033 22039 30533 41404 60549 146029 142032 141031 133028 128027 128027
BBXX 42058 07061 99149 70749 46/// /0708 10257 20224 40134 58005 90550 22200 00270 10604 20604 308// 40802 70020 333 91210 555 11089 22094 30451 40514 60549 070084 066092 066093 065095 057090 051107 80612 90452
BBXX 42060 07061 99163 70635 46/// /0607 10263 20202 40157 56009 90550 22200 00272 11103 20402 300// 41102 70013 333 91208 555 11074 22078 30501 40609 60549 061071 065068 059068 059068 060074 063074 80608 90501
BBXX 42056 07061 99198 70849 46/// /0606 10240 20189 40187 58007 90550 22200 00265 10703 20602 309// 40702 70013 333 91207 555 11063 22065 30507 40608 60549 062060 056063 057062 062060 067064 067065 80708 90451
BBXX 42036 07061 99285 70845 46/// /1605 10196 20149 40201 58009 90550 22200 00201 10501 70003 333 91206 555 11054 22056 30548 41606 60549 162050 157047 159044 162045 167041 165047
BBXX 42059 07061 99151 70675 46/// /0806 10267 20213 40146 58008 90550 22200 00276 10703 20602 3//// 40702 70016 333 91207 555 11066 22069 30453 40808 60549 079062 074063 071065 072064 067064 078066 80807 90453
BBXX 42019 07061 99279 70954 46/// /1807 10218 20174 40154 57008 90550 22200 10702 20602 319// 40701 70012 333 91209 555 11079 22084 30546 41809 60549 193072 282074 283068 283072 282071 277073
BBXX 44005 07061 99432 70691 46/// /3002 10055 20052 40066 55000 90550 22200 00077 10602 20401 3//// 40602 70011 333 91202 555 11016 22017 30453 43004 60549 297017 296020 298024 294026 301027 301027
BBXX 42040 07061 99292 70882 46/// /1604 10195 40198 57006 90550 22200 00220 10401 70003 333 91205 555 11040 22041 30527 41605 60549 155040 155039 158041 156037 156037 152040
BBXX 42003 07061 99260 70856 46/// /1803 1//// 90550 22200 10501 20301 332// 40501 70005 333 91204 555 11033 22035 30500 41805 60549 181033 181034 176038 182035 187037 181037 81804 90500
AAXX 07061 76225 32920 02502 10090 21061 38632 40128 52006 90545 33310206 21010 30/// 55094 59021
AAXX 07061 76458 32960 03501 10186 20177 30144 40148 53002 90537 33310275 20139 30/// 55055 58003
AAXX 07061 76556 32960 30901 10154 20080 39123 40126 52011 80001 90530333 10265 20108 30/// 55054 56005 58005 83070
AAXX 07061 76612 32958 02401 10093 20031 38482 40148 50005 90547 33310227 20060 30/// 55077 21053 58/// 70000
AAXX 07061 76680 31560 42902 10116 20026 37760 40130 52001 70300 8181090550 333 10210 20069 30/// 55091 21442 56110 58005 8182583458
AAXX 07061 76685 32950 00000 10102 20017 37878 40128 52014 90545 33310200 20040 30/// 55096 58002
AAXX 07061 76243 32970 00702 10136 20094 39842 40131 54000 90530 33310260 20040 30/// 55094 59073
AAXX 07061 76390 31950 02603 10081 21043 38232 40153 52001 70544 90530333 10185 20023 30/// 55096 21367 59024
AAXX 07061 76412 32960 00000 10150 20140 30125 40171 52002 90550 33310260 20120 30/// 55073 58008
AAXX 07064 91203 32474 80710 10311 20267 30110 40115 56017 82206 333 562/9 70000 82818 88080 555 90706
AAXX 07064 78388 111575 31307 10238 20183 30158 40167 60001 70511 81208 333 01905 10287 20224 59002 81824 83274
AAXX 07064 81225 11265 70000 10236 20233 40117 60101 72586 86832 333 56299 59002 83704 85620 86360
AAXX 07064 81200 NIL
AAXX 07064 81202 NIL
AAXX 07064 81209 NIL
AAXX 07064 81251 NIL
AAXX 07064 78862 11478 10608 10245 20199 30133 40156 69901 70580 81100 333 10284 20228 58000 81818
AAXX 07064 077
AAXX 07064 TAF TKPN 041000Z 0412/0512 09010KT 9999 SCT020 SCT040 TEMPO 0416/0512 SHRA PROB30 TEMPO 0500/0510 00000KT
AAXX 07064 TAF TQPF 041000Z 0412/0512 08010KT 9999 SCT020 SCT040 TEMPO 0414/0512 SHRA PROB30 TEMPO 0500/0510 00000KT
AAXX 07064 TAF TUPJ 041000Z 0412/0512 05012KT 9999 SCT018 SCT035 TEMPO 0412/0512 SHRA PROB30 TEMPO 0412/0422 VRB02KT 5000 +SHRA FEW015CB BKN018
AAXX 07064 032200Z 0400/0424 09014KT 9999 SCT022 SCT038 BKN270 TEMPO 0400/0424 4000 SHRA BKN013 BKN036 BKN260
AAXX 07064 BKN038 SCT270 TEMPO 0412/0512 SHRA BKN015 PROB40 TEMPO 0418/0512 5000 SHRA BKN014 BKN036 PROB30 0420/0512 4000 TSRA FEW012CB
AAXX 07064 918 4000 TSRA FEW012CB
AAXX 07064 N015 BKN036 PROB40 TEMPO 0704/0724 3000 +TSRA SCT011CB BKN012 BECMG 0712/0714 14008KT
AAXX 07064 21/2712 07017G28KT 5000 SHRA BKN015 BKN036 PROB TEMPO 2700/2712 4000 TSRA FEW013CB
AAXX 07064 PROB30 TEMPO 0800/0806 4000 TSRA FEW012CB PROB40 TEMPO 0800/0824 2000 +SHRA/TSRA SCT010CB BKN012 BKN250
BBXX 44060 07061 99413 70721 46/// ///05 10079 40078 90545 22200 00084 333 91206 555 11057 22062
BBXX 44022 07061 99409 70737 46/// ///04 10076 20029 40083 90545 22200 00057 333 91204 555 11046 22051
BBXX 44027 07061 99443 70673 46/// /2304 10070 20047 40060 56008 90550 22200 00072 10603 20401 3//// 40603 70016 333 91205 555 11040 22042 30528 42205 60549 229038 226039 215037 199033 188033 180037
BBXX 44065 07061 99404 70737 46/// /2204 10089 20053 40087 58007 90550 22200 00083 10602 20401 318// 40602 70010 333 91205 555 11047 22053 30455 42106 60549 219042 222043 216042 212040 208045 210050 82105 90455
BBXX 41013 07061 99334 70777 46/// /2409 10171 20104 40174 57007 90550 22200 00162 10603 20603 311// 41101 70015 333 91210 555 11093 22101 30522 42411 60549 236086 236089 237089 239088 239083 240082
BBXX 44020 07061 99414 70702 46/// /2305 10072 20059 40074 57010 90550 22200 00050 10301 20301 70003 333 91206 555 11058 22061 30526 42607 60549 235055 263059 264061 263056 265051 264053
BBXX 46070 07061 99551 11753 46/// /2910 11020 21087 40038 57003 90550 22200 00026 10604 20604 3//// 40901 70021 333 91214 555 11109 22114 30524 43015 60549 294105 293116 296110 302114 281096 272088 82913 90533
BBXX 46105 07061 99590 71522 46/// ///// 1//// 90550 22200 11102 70012
BBXX 42055 07061 99222 70940 46/// /1406 10231 20162 40176 50000 90550 22200 00244 10602 20602 310// 41001 70010 333 91208 555 11066 22070 30502 41509 60549 139062 147060 150062 148058 146062 147062 81407 90454
BBXX 42002 07061 99258 70937 46/// /1708 10230 20166 40175 58003 90550 22200 00244 10602 20602 70010 333 91210 555 11080 22085 30549 41710 60549 166080 173076 179071 178075 172076 174079
BBXX 41047 07061 99275 70715 46/// /1203 10212 40223 57007 90550 22200 00248 10804 20401 333// 40804 70018 333 91203 555 11025 22026 30520 40904 60549 119024 110017 087026 101024 101025 089025 80803 90523
BBXX 32012 07061 99197 50856 46/// ///// 1//// 90550 22200 11404 70022
BBXX 46002 07061 99426 71305 46/// ///// 10109 40284 53008 90550 22200 00116 11105 70026
BBXX 46006 07061 99408 71375 46/// /1708 10125 40256 57005 90550 22200 00119 11205 20703 3//// 41204 70024 333 91210 555 11087 22094 30451 41810 60549 173082 175083 176083 177082 176082 178082
BBXX 46084 07061 99566 71361 46/// ///// 10036 20020 40064 51010 90550 22200 00071 11410 70049
BBXX 46075 07061 99539 71608 46/// /0220 11013 21020 49752 56019 90550 22200 00035 11216 20607 300// 41214 70081 333 91224 555 11209 22223 30459 40226 60549 021198 021194 023187 023189 023194 026190 80222 90459
BBXX 46005 07061 99461 71310 46/// ///05 10094 40233 57004 90550 22200 00096 11206 20401 3//// 41206 70031 333 91206 555 11052 22055
BBXX 46059 07061 99380 71300 46/// /3605 10119 40305 52006 90550 22200 00136 11305 20401 3//// 41305 70024 333 91206 555 11049 22051 30544 43506 60549 359047 005046 007044 005046 003045 003041
BBXX 46080 07061 99580 71500 46/// /0712 11031 21054 49924 58057 90550 22200 00043 11206 20403 3//// 41205 70030 333 91215 555 11130 22137 30549 40615 60549 066125 073122 077118 075111 077114 079113 80614 90550
BBXX 46014 07061 99394 71240 46/// /3411 10103 40242 52008 90550 22200 00106 11408 20805 3//// 41407 70041 333 91214 555 11120 22128 30525 43415 60549 341110 341118 340118 341114 341116 342115
BBXX 46011 07061 99350 71210 46/// /3210 10120 40178 52005 90550 22200 00125 11609 20705 330// 41608 70047 333 91212 555 11107 22113 30518 43215 60549 324100 324109 321108 322114 322114 320116
BBXX 46047 07061 99324 71195 46/// /3109 10123 40169 52004 90550 22200 00136 11610 20805 330// 41608 70048 333 91212 555 11096 22101 30519 43212 60549 306090 308091 303094 306093 313095 306097
BBXX 46086 07061 99325 71180 46/// /2806 10135 40157 51006 90550 22200 00150 11007 20401 329// 41007 70035 333 91207 555 11058 22060 30459 42908 60549 281055 282054 279054 287053 290056 299059
BBXX 46027 07061 99419 71244 46/// /3307 10091 40275 52005 90550 22200 00096 11406 20602 327// 41406 70031 333 91208 555 11073 22077 30455 43409 60549 333069 335064 337064 339065 342062 346065
BBXX 46088 07061 99483 71232 46/// /1209 10050 40251 53007 90550 22200 00078 10301 20301 325// 41101 70007 333 91210 555 11092 22097 30454 41111 60549 119088 117087 114089 114090 119089 116093
BBXX 46050 07061 99442 71246 46/// /1910 10080 40257 55000 90550 22200 00094 11206 20703 328// 41205 70030 333 91211 555 11104 22110 30527 41912 60549 190098 188094 193093 188091 186094 188094
BBXX 46069 07061 99337 71202 46/// /3309 10126 40159 52006 90550 22200 00137 11609 20705 331// 41607 70043 333 91212 555 11100 22106 30500 43214 60549 328096 326105 328106 327100 330111 329105
BBXX 46012 07061 99374 71229 46/// /3311 10111 40211 55000 90550 22200 00115 11609 20605 331// 41608 70045 333 91213 555 11114 22122 30510 43314 60549 326108 324106 325110 327114 325113 321109
BBXX 46013 07061 99382 71233 46/// /3210 10107 40216 53009 90550 22200 00107 11508 20704 3//// 41507 70039 333 91213 555 11105 22112 30509 43214 60549 324099 322102 321110 317117 316118 315112
BBXX 46087 07061 99485 71247 46/// /1306 10058 20057 40251 53008 90550 22200 00083 11105 20401 327// 41105 70026 333 91208 555 11061 22063 30459 41208 60549 128058 125059 125057 123060 125063 123066
BBXX 46029 07061 99461 71245 46/// /2601 10093 20072 40249 53012 90550 22200 00091 333 91203 555 11014 22017 30503 42703 60549 255012 270017 254014 257017 276020 284007
BBXX 46054 07061 99342 71204 46/// /3213 10123 40155 52006 90550 22200 00127 11609 20704 300// 41608 70045 333 91215 555 11136 22145 30452 43218 60549 323127 322126 321122 322124 323127 322138
BBXX 46028 07061 99357 71219 46/// /3312 10119 40180 53004 90550 22200 00128 11509 20705 331// 41507 70045 333 91214 555 11124 22132 30451 43315 60549 330116 327111 328113 327122 327119 326118
BBXX 46025 07061 99337 71191 46/// /0203 10147 20135 40146 53006 90550 22200 00150 11605 20401 329// 41605 70023 333 91204 555 11035 22036 30530 40205 60549 024033 022037 021040 023026 020025 026025
AAXX 07064 91203 32474 80710 10311 20267 30110 40115 56017 82206 333 562/9 70000 82818 88080 555 90706
AAXX 07064 78862 11478 10608 10245 20199 30133 40156 69901 70580 81100 333 10284 20228 58000 81818
AAXX 07064 077
AAXX 07064 TAF TKPN 041000Z 0412/0512 09010KT 9999 SCT020 SCT040 TEMPO 0416/0512 SHRA PROB30 TEMPO 0500/0510 00000KT
AAXX 07064 TAF TQPF 041000Z 0412/0512 08010KT 9999 SCT020 SCT040 TEMPO 0414/0512 SHRA PROB30 TEMPO 0500/0510 00000KT
AAXX 07064 TAF TUPJ 041000Z 0412/0512 05012KT 9999 SCT018 SCT035 TEMPO 0412/0512 SHRA PROB30 TEMPO 0412/0422 VRB02KT 5000 +SHRA FEW015CB BKN018
AAXX 07064 032200Z 0400/0424 09014KT 9999 SCT022 SCT038 BKN270 TEMPO 0400/0424 4000 SHRA BKN013 BKN036 BKN260
AAXX 07064 BKN038 SCT270 TEMPO 0412/0512 SHRA BKN015 PROB40 TEMPO 0418/0512 5000 SHRA BKN014 BKN036 PROB30 0420/0512 4000 TSRA FEW012CB
AAXX 07064 918 4000 TSRA FEW012CB
AAXX 07064 N015 BKN036 PROB40 TEMPO 0704/0724 3000 +TSRA SCT011CB BKN012 BECMG 0712/0714 14008KT
AAXX 07064 21/2712 07017G28KT 5000 SHRA BKN015 BKN036 PROB TEMPO 2700/2712 4000 TSRA FEW013CB
AAXX 07064 PROB30 TEMPO 0800/0806 4000 TSRA FEW012CB PROB40 TEMPO 0800/0824 2000 +SHRA/TSRA SCT010CB BKN012 BKN250
AAXX 07064 78388 111575 31307 10238 20183 30158 40167 60001 70511 81208 333 01905 10287 20224 59002 81824 83274
AAXX 07064 78862 11478 10608 10245 20199 30133 40156 69901 70580 81100 333 10284 20228 58000 81818
AAXX 07064 077
AAXX 07064 TAF TKPN 041000Z 0412/0512 09010KT 9999 SCT020 SCT040 TEMPO 0416/0512 SHRA PROB30 TEMPO 0500/0510 00000KT
AAXX 07064 TAF TQPF 041000Z 0412/0512 08010KT 9999 SCT020 SCT040 TEMPO 0414/0512 SHRA PROB30 TEMPO 0500/0510 00000KT
AAXX 07064 TAF TUPJ 041000Z 0412/0512 05012KT 9999 SCT018 SCT035 TEMPO 0412/0512 SHRA PROB30 TEMPO 0412/0422 VRB02KT 5000 +SHRA FEW015CB BKN018
AAXX 07064 032200Z 0400/0424 09014KT 9999 SCT022 SCT038 BKN270 TEMPO 0400/0424 4000 SHRA BKN013 BKN036 BKN260
AAXX 07064 BKN038 SCT270 TEMPO 0412/0512 SHRA BKN015 PROB40 TEMPO 0418/0512 5000 SHRA BKN014 BKN036 PROB30 0420/0512 4000 TSRA FEW012CB
AAXX 07064 918 4000 TSRA FEW012CB
AAXX 07064 N015 BKN036 PROB40 TEMPO 0704/0724 3000 +TSRA SCT011CB BKN012 BECMG 0712/0714 14008KT
AAXX 07064 21/2712 07017G28KT 5000 SHRA BKN015 BKN036 PROB TEMPO 2700/2712 4000 TSRA FEW013CB
AAXX 07064 PROB30 TEMPO 0800/0806 4000 TSRA FEW012CB PROB40 TEMPO 0800/0824 2000 +SHRA/TSRA SCT010CB BKN012 BKN250
AAXX 07064 81405 04476 80000 10246 20241 30105 40114 60081 700// 333 3/024 55037 69947 59003 70088 555 60005
BBXX 41043 07061 99211 70650 46/// /0709 10233 20219 40183 58007 90550 22200 00259 11106 20804 300// 41104 70029 333 91210 555 11097 22102 30523 40612 60549 068091 065087 069098 060091 027053 ////// 80711 90523
BBXX 41036 07061 99342 70770 46/// ///// 10170 20094 40164 58006 90550 22200 00183 10603 70016
BBXX 44066 07061 99396 70726 46/// /2409 10130 20081 40096 58013 90550 22200 00129 10803 20803 70017 333 91210 555 11093 22100 30532 42410 60549 236087 237088 234084 231085 231084 231085
BBXX 46002 07061 99426 71305 46/// ///// 10109 40284 53008 90550 22200 00116 11105 70026
BBXX 46005 07061 99461 71310 46/// ///05 10094 40233 57004 90550 22200 00096 11206 20401 3//// 41206 70031 333 91206 555 11052 22055
BBXX 46006 07061 99408 71375 46/// /1708 10125 40256 57005 90550 22200 00119 11205 20703 3//// 41204 70024 333 91210 555 11087 22094 30451 41810 60549 173082 175083 176083 177082 176082 178082
BBXX 46012 07061 99374 71229 46/// /3311 10111 40211 55000 90550 22200 00115 11609 20605 331// 41608 70045 333 91213 555 11114 22122 30510 43314 60549 326108 324106 325110 327114 325113 321109
BBXX 46013 07061 99382 71233 46/// /3210 10107 40216 53009 90550 22200 00107 11508 20704 3//// 41507 70039 333 91213 555 11105 22112 30509 43214 60549 324099 322102 321110 317117 316118 315112
BBXX 46014 07061 99394 71240 46/// /3411 10103 40242 52008 90550 22200 00106 11408 20805 3//// 41407 70041 333 91214 555 11120 22128 30525 43415 60549 341110 341118 340118 341114 341116 342115
BBXX 46028 07061 99357 71219 46/// /3312 10119 40180 53004 90550 22200 00128 11509 20705 331// 41507 70045 333 91214 555 11124 22132 30451 43315 60549 330116 327111 328113 327122 327119 326118
BBXX 46029 07061 99461 71245 46/// /2601 10093 20072 40249 53012 90550 22200 00091 333 91203 555 11014 22017 30503 42703 60549 255012 270017 254014 257017 276020 284007
BBXX 46050 07061 99442 71246 46/// /1910 10080 40257 55000 90550 22200 00094 11206 20703 328// 41205 70030 333 91211 555 11104 22110 30527 41912 60549 190098 188094 193093 188091 186094 188094
BBXX 46054 07061 99342 71204 46/// /3213 10123 40155 52006 90550 22200 00127 11609 20704 300// 41608 70045 333 91215 555 11136 22145 30452 43218 60549 323127 322126 321122 322124 323127 322138
BBXX SHIP 07063 99380 71417 41/98 /2220 10170 20154 40200 52030 70222 8//// 22224 00143 2//// 3//// 4//// 80160
AAXX 07064 78705 31564 70000 10197 20182 30161 40179 58005 70544 81530 333 10259 20188 30/// 56000 59029 81628 87358
AAXX 07064 78708 31560 31806 10185 20183 30153 40183 58002 70544 82530 333 10249 20186 30/// 56000 59026 82628
AAXX 07064 78714 32560 80000 10194 20176 8422/ 333 10260 20140 30/// 56299 84828 88458
AAXX 07064 78717 31960 30000 10148 20143 38985 40183 53001 71044 83050 333 10190 20124 30/// 56000 59019 83359
AAXX 07064 78720 31560 70108 10180 20141 39061 40166 51001 70544 87500 333 10241 20099 30/// 56100 59022 87626
AAXX 07064 78724 32578 70310 10260 20201 30070 40127 56010 82530 333 10328 20230 30/// 56330 59010 82630 87357
BBXX A8TG2 07063 99258 71559 41/// /0510 10220 20189 40200 50000 7//11 8//// 22263 00180 21001 30229 41506 51806 80200
AAXX 07064 78970 11466 20000 10244 20221 30104 40129 60001 70511 81840 333 01290 10328 20223 59002 81815
AAXX 07064 78962 11470 20603 10244 20215 30130 40138 69901 70181 82800 333 01200 10309 20228 59001 82815 90930
AAXX 07064 89664 31661 80000 10009 21112 39687 49728 51002 71422 8257/ 333 56449 82640 84457
AAXX 07064 85406 12660 83102 10219 20146 40136 58017 60001 885// 333 56099 88633
AAXX 07064 85442 12475 21703 10176 20150 40137 58006 60001 82500 333 56400 82610
AAXX 07064 85467 33489 /2403 10174 20140 40150 57007
AAXX 07064 85469 42560 70814 10220 20165 40250 52020 87800 333 56200 84820 85630
AAXX 07064 85488 12460 10000 10149 20130 40137 58009 60001 81500 333 56600 81610
AAXX 07064 85574 12960 01607 10163 20119 40119 58013 60001
AAXX 07064 85577 12960 02402 10166 20125 39522 40125 57013 60001
AAXX 07064 85585 339// 99903 10173 20148 30072 40108 58011
AAXX 07064 85682 12560 70203 10163 20152 40129 58014 60001 87500 333 56800 87623
AAXX 07064 85743 12460 89903 10149 20133 40129 58016 60001 885// 333 56699 88610
AAXX 07064 85799 12460 51804 10122 20121 40127 57004 60001 85500 333 56400 85610
AAXX 07064 89664 31661 80000 10009 21112 39687 49728 51002 71422 8257/ 333 56449 82640 84457
AAXX 07064 85874 32982 /9903 10143 20100 39485 40095 58012
AAXX 07064 85934 12980 22511 10073 20016 40057 57016 60001 82030 333 56060 82359
AAXX 07064 89056 12260 82724 10005 21011 49844 58002 60001 886// 333 56699 88706
AAXX 07064 89057 12460 62324 10021 21021 49842 57004 60001 86400 333 56600 86617
AAXX 07064 89058 11566 82718 10007 21014 39834 49855 52013 69901 70070 885//
AAXX 07064 89059 11460 83221 11001 21035 49803 52006 69971 70272 886// 333 75099 88713
AAXX 07064 89251 32362 82923 10009 210059 49844 52010 8652/
BBXX BATFR15 07064 99495 70041 46/// /2727 10114 20104 40250 53011 22253 00120
BBXX BATFR08 07064 99471 30578 46/// /3533 10092 20072 40000 58044 22223 00079
BBXX BATFR21 07064 99427 10089 46/// /1904 40197 53001 22233
BBXX FVNM 07064 99210 70866 46/// /0814 10237 20165 40189 58006 22281 00267
BBXX BATFR31 07064 99433 10053 46/// /3319 10070 20064 40232 53035 22232 00127
BBXX BATFR35 07064 99167 51512 46/// /3221 10257 20217 40094 22222 00287
BBXX BATFR14 07064 99298 70411 44/98 81714 10210 20179 40204 57020 70122 8//// 22254 00212
AAXX 07064 78925 14686 /0509 10246 20209 40149 58009 60001 700// 333 10296 20231 55084 21833 58001 79999
BBXX BATFR22 07064 99413 10093 46/// /0706 10140 40200 53002 22214 00147
BBXX BATEU05 07064 99662 70540 46/// /1311 11098 49989 56043 22282
BBXX BATFR02 07064 99572 10084 46/// /3035 10074 20059 49972 56048 22214 00094
AAXX 07064 78925 14686 /0509 10246 20209 40149 58009 60001 700// 333 10296 20231 55084 21833 58001 79999
AAXX 07061 12772 31581 23403 11010 21056 39866 40160 52018 70110 81540 333 21010 4/000 55068 81630
AAXX 07061 12822 36/// /3302 10013 21036 30040 40187 53005 333 20011
AAXX 07061 12843 31983 13207 10020 21056 39986 40160 53013 70300 81040 333 20016 4/000 55036
AAXX 07061 12882 31975 10105 10016 21025 30005 40140 53014 70200 81042 333 20011 4/000 55047
AAXX 07061 12925 36/// /0203 10020 21043 30015 40191 53009 333 20011
AAXX 07061 12942 31986 13511 10017 21050 39917 40168 52006 70200 81040 333 20015 4/000 55010
AAXX 07061 12982 31980 53306 10009 21030 30044 40148 53013 70311 84072 333 20007 4/000 55011
AAXX 07061 10004 NIL
AAXX 07061 10015 01121 82510 10070 20063 30032 40042 56034 60082 75166 887// 222// 02052 333 10070 20056 32005 55042 55300 20000 30000 60067 70075 88702 91117 91213 96010
AAXX 07061 10020 07007 72607 10068 20068 39983 40015 56033 60022 75365 333 10068 20050 3/004 55051 55300 20000 30000 60017 70024 87/01 91116 91212
AAXX 07061 10035 01225 82307 10052 20049 39972 40031 56042 60032 76162 877// 333 10052 20028 32001 55063 55300 20000 30000 41212 60027 70028 87704 91116
AAXX 07061 10055 01570 82209 10043 20035 30027 40037 56043 69902 76162 885// 333 10049 20040 31003 55034 55300 20000 30000 69907 79999 88623 91113 91211
AAXX 07061 10147 01257 82307 10047 20039 30043 40061 56044 69982 75862 877// 333 10053 20041 32002 55065 55300 20000 30000 41203 69977 70008 87706
AAXX 07061 10162 01258 82307 10032 20027 39984 40068 58039 69952 75165 876// 333 10040 20005 31101 55013 55300 20000 30000 69927 70005 87704
AAXX 07061 10184 01465 82105 10037 20016 30057 40065 58031 69922 76062 888// 333 10039 20003 31102 55027 55300 20000 30000 69927 70002 81812 88650
AAXX 07061 10200 07229 72405 10068 20066 30073 40071 56032 60022 75865 333 10068 20041 3/002 55018 55300 20000 30000 60027 70029 87/03 87/09 91113
AAXX 07061 10224 01240 82307 10050 20043 30071 40077 56043 69942 75962 887// 333 10053 20039 32003 55036 55300 20000 30000 69947 70009 83704 87706
AAXX 07061 10270 06458 72305 10033 20015 30050 40106 58029 69922 222// 06038 333 10036 21008 3/103 55004 55300 69927 70002 85/14 85/23 87/28
AAXX 07061 10338 01265 82306 10048 20030 30026 40099 56040 69922 75862 876// 333 10050 20036 31002 55051 55300 20000 30000 69927 70002 82706 87712
AAXX 07061 10361 01681 82003 10040 20007 30011 40116 58034 69902 76062 885// 333 10045 20016 31101 55047 55300 20000 30000 69907 79999 88636
AAXX 07061 10393 11570 72306 10023 20009 39993 40122 58021 69902 70362 875// 333 10030 21004 31102 55003 55300 20000 30000 79999 87632
AAXX 07061 10400 01150 82307 10062 20055 30091 40141 58031 60012 75865 886// 333 10063 20033 32002 55007 55300 20000 30000 69977 70028 81703 86705 88707
AAXX 07061 10438 07469 81804 10022 20008 39858 40144 58035 69932 75176 333 10043 20015 3/100 55022 55300 69907 70020 87/15 88/36 88/58
AAXX 07061 10469 01680 82208 10037 21003 39971 40138 58031 69902 76022 8152/ 333 10038 21007 31103 55037 55300 69907 79999 81635 88456 91113
AAXX 07061 10488 11980 62406 10027 21003 39863 40149 58025 69912 70161 86030 333 10032 20009 31101 55000 55300 20000 30000 40989 70001 86361
AAXX 07061 10506 01256 82306 10020 20013 39587 40181 56023 69932 72162 885// 333 10021 20009 31100 55004 55300 20000 30000 69927 70023 85705 88615
AAXX 07061 10548 01365 82004 10008 21008 39620 40174 58028 69912 72276 876// 333 10024 20007 3/000 43002 55034 55300 20000 30000 69917 70032 87708 96273
AAXX 07061 10637 01370 82209 10036 20017 30046 40187 58034 69912 72162 875// 333 10056 20032 31001 55014 55300 69917 70002 81707 83618 87635 91113
AAXX 07061 10685 01480 82406 10001 21021 39484 40174 56025 69922 70276 875// 333 10009 21008 3/103 44006 55021 55300 20000 30000 69907 70013 87610 91113
AAXX 07061 10738 11675 72005 10020 21014 39752 40234 56021 69902 70261 875// 333 10032 20017 34101 55012 55300 70003 82638 87650
AAXX 07061 10763 11475 82305 10026 21015 39817 40209 56017 69902 70262 888// 333 10039 20025 31001 55029 55300 20000 30000 70004 82810 85623 87633
AAXX 07061 10788 07582 82504 10025 20003 39776 40218 58008 60022 72376 333 10027 20007 3/100 55010 55300 20000 30000 69927 70026 81/27 85/37 88/43
AAXX 07061 10852 11582 72308 10014 21005 39652 40237 58010 69902 70262 84530 333 10027 20009 31101 55001 55300 20000 30000 70003 84631 86359
AAXX 07061 10946 07581 82205 10005 21021 39402 40258 56007 69982 72476 333 10015 20002 3/102 55000 55300 20000 30000 69907 70020 86/20 87/25 88/37
AAXX 07064 89664 31661 80000 10009 21112 39687 49728 51002 71422 8257/ 333 56449 82640 84457
AAXX 07064 40250 32960 02504 10017 20010 39390 40203 52006 333 21014 300//
AAXX 07064 40260 32960 00000 10014 20011 39402 40204 52008 333 21014 31003
AAXX 07064 40265 31940 01404 10010 21006 39391 40212 54001 71022 333 21010 30104
AAXX 07061 33815 11597 83502 10020 20010 39860 40069 52020 60062 76162 8802/ 333 20021 555 80015
AAXX 07061 01003 NIL
AAXX 07061 01007 11789 10000 11109 21156 30135 40145 57005 60002 70200 81050 333 21125 42/// 70000 91105
AAXX 07061 01028 NIL
AAXX 07061 01047 11670 83603 11045 21061 39592 49966 57006 60012 77072 8802/ 333 21059 48044 70015
AAXX 07061 01049 NIL
AAXX 07061 01078 16/// /0707 10016 21035 39978 49991 57003 6//// 333 20002 91111
AAXX 07061 01102 46/// /0504 10002 21048 39929 49949 57015 333 20001 91107
AAXX 07061 01160 NIL
AAXX 07061 01218 NIL
AAXX 07061 01238 46/// /0301 11090 21099 38796 49919 56018 333 21090 91104
AAXX 07061 01241 NIL
AAXX 07061 01281 NIL
AAXX 07061 01338 16/// /0802 10002 21005 39870 49937 57014 60042 333 20001 70038 91109
AAXX 07061 01359 NIL
AAXX 07061 01397 NIL
AAXX 07061 01400 NIL
AAXX 07061 01427 11460 82913 10076 20051 39940 49955 56011 60062 72162 8567/ 333 20049 70058 91117
AAXX 07061 01447 NIL
AAXX 07061 01448 46/// /3103 10035 20026 39942 49952 56026 333 20027 91108
AAXX 07061 01001 NIL
AAXX 07061 01008 11585 11409 11084 21139 30107 40142 57002 60002 70300 81500 333 21085 70000 91115
AAXX 07061 01010 11689 32001 11068 21102 39962 49979 57008 60002 70100 81130 333 21084 91104
AAXX 07061 01026 NIL
AAXX 07061 01055 NIL
AAXX 07061 01062 NIL
AAXX 07061 01098 16/// /0205 10009 21005 39959 49977 57008 6//// 333 21002 91111
AAXX 07061 01115 16/// /0000 11015 21054 39940 49961 57007 6//// 333 21015 91107
AAXX 07061 01152 NIL
AAXX 07061 01205 NIL
AAXX 07061 01212 NIL
AAXX 07061 01271 16/// /1202 11055 21066 39934 49955 58020 60002 333 21090 47017 70055 91105
AAXX 07061 01288 16/// /0000 11173 21190 39207 40001 57020 6//// 333 21182 91104
AAXX 07061 01300 NIL
AAXX 07061 01317 NIL
AAXX 07061 01367 NIL
AAXX 07061 01384 11887 80201 11064 21074 39716 49966 57016 60002 70322 8802/ 333 21064 91103
AAXX 07061 01403 11570 42912 10063 20038 39884 49952 58003 60052 70281 84900 333 20037 70073 91122
AAXX 07061 01415 16/// /3008 10074 20038 39947 49957 58009 6//// 333 20031 91116
AAXX 07061 01482 46/// /1704 10021 21003 39949 49956 57023 333 20020 91109
AAXX 07061 01492 NIL
BBXX VEP717 07064 99467 70487 41598 63125 11005 2105/ 40070 52027 70122 86500 22200 06021 20403 327// 40704 81020
AAXX 07064 48698 01468 70208 10304 20238 30106 40124 60001 70522 83832 333 60007 81818 86080
AAXX 07064 48698 01468 70208 10304 20238 30106 40124 60001 70522 83832 333 60007 81818 86080
AAXX 07064 78016 32664 73106 10176 20077 30221 40225 53002 87500 333 10194 20152 70048
AAXX 07064 91317 32474 50910 10300 20278 30078 40082 56010 81101 333 562/9 81818 83080 555 90706
AAXX 07061 78221 NIL
AAXX 07061 78224 33580 21102 10136 20098 30135 40212 58008 82500 333 82640
AAXX 07061 78229 42959 01001 10116 20101 30137 40212 57010
AAXX 07061 78239 31559 20705 10206 20151 30192 40195 57010 70500 82200 333 82820
AAXX 07061 78244 NIL
AAXX 07061 78243 42959 02400 10131 20122 30084 40208 57010
AAXX 07061 78255 42559 40503 10184 20151 30046 40195 57010 84500 333 84620
AAXX 07061 78264 31959 03503 10195 20157 30106 40181 57010 70500
AAXX 07061 78265 41560 00803 10189 20167 30081 40181 57010 70000
AAXX 07061 78256 NIL
AAXX 07061 78259 NIL
AAXX 07061 78268 NIL
AAXX 07064 78016 32664 73106 10176 20077 30221 40225 53002 87500 333 10194 20152 70048
AAXX 07064 78897 12575 20000 10213 20201 40156 58010 69921 82200 333 02/// 10292 20200 58000 70004 82829
AAXX 07064 91317 32474 50910 10300 20278 30078 40082 56010 81101 333 562/9 81818 83080 555 90706
AAXX 07064 78016 32664 73106 10176 20077 30221 40225 53002 87500 333 10194 20152 70048
AAXX 07064 78954 12582 30809 10254 20201 30073 40138 60001 83200 333 10290 20217 59001 83820
AAXX 07064 78897 12575 20000 10213 20201 40156 58010 69921 82200 333 02/// 10292 20200 58000 70004 82829
AAXX 07064 78954 12582 30809 10254 20201 30073 40138 60001 83200 333 10290 20217 59001 83820
AAXX 07064 68396 12365 70000 10206 20196 39503 48558 51015 60024 875// 333 20205 555 10295 20018 91020
BBXX A8QJ7 07064 99493 70098 41/97 82812 10120 20110 40294 58003 75800 8//// 22263 2//// 3//// 4//// 5//// 80115
BBXX PHCQ 07064 99406 70665 41998 02208 10090 20073 40174 70200 80000 22214 20204 3//// 4//// 5//// 80081
AAXX 07061 10609 01358 82307 10026 20019 39868 40206 56024 69992 76162 887// 333 10042 20021 31000 55013 55300 20000 30000 69997 70014 88707 91113
AAXX 07061 10616 01160 82706 10025 20017 39579 40190 58024 69942 75872 875// 333 10025 20009 32000 55005 55300 69937 70012 81703 87605 91113
AAXX 07061 10641 07467 82005 10031 20012 30038 40188 56032 69912 75165 333 10053 20029 3/001 55012 55300 69917 70001 88/16
AAXX 07061 10655 01583 82508 10026 20001 39857 40193 56032 69902 72122 8657/ 333 10038 20025 31001 55011 55300 20000 30000 69907 70018 83628 85656 86358 91116
AAXX 07061 10675 17482 72104 10028 21008 39900 40198 56023 69902 70065 333 10044 20023 3/101 55015 55300 20000 30000 70017 87/19
AAXX 07061 10688 07580 82205 10015 21014 39667 40202 56015 69912 70076 333 10019 21004 3/104 4/002 55022 55300 20000 30000 69917 70014 87/23 88/34 88/42 91113
AAXX 07061 10708 01465 82106 10025 20009 39828 40223 56024 69902 75862 875// 333 10043 20015 32000 55014 55300 20000 30000 69907 70001 85711 87630
AAXX 07061 10729 07561 71805 10036 20008 30092 40217 56030 69932 76165 333 10059 20021 3/101 55007 55300 20000 30000 69917 70004 87/25
AAXX 07061 10731 01482 82312 10046 21010 30073 40219 56030 69902 76022 888// 333 10052 20033 31002 55001 55300 20000 30000 69907 79999 82812 86622 91116 91212
AAXX 07061 10742 07684 72506 10029 21011 39879 40218 56025 69912 72475 333 10042 20026 3/001 55008 55300 20000 30000 69907 70004 85/37 86/50 87/56
AAXX 07061 10776 01683 72806 10022 21014 39763 40218 56007 69992 70186 875// 333 10027 20012 31100 55029 55300 20000 30000 69907 70010 87640 91113
AAXX 07061 10791 01/90 92515 11054 21054 38507 48452 56012 60022 77174 333 11049 21063 49135 55000 55300 69977 70027 96049 96038
AAXX 07061 10805 12682 72006 10034 21005 30055 40251 56023 69902 8453/ 333 10057 20019 31000 55000 55300 20000 30000 79999 82636 84656 87358
AAXX 07061 10815 01470 72508 11017 21026 39271 48486 56019 60022 77872 875// 333 10005 21019 3/103 44015 55000 55300 20000 30000 69907 70052 87613 91115
AAXX 07061 10836 11586 82608 11007 21027 39341 40237 56012 60032 70272 885// 333 10003 21010 3/102 44008 55000 553// 2//// 3//// 70051 88630 91117 91212
AAXX 07061 10870 11582 72507 10020 21001 39687 40235 55007 69922 70252 875// 333 10031 20006 31000 55003 55300 70011 82620 86640
AAXX 07061 10895 01263 62606 10007 21002 39635 40221 58006 60022 72687 83801 333 10013 20001 3/101 42001 55008 55300 20000 30000 69927 70043 81806 83646 91113 96286
AAXX 07061 10908 01/01 92215 11065 21068 38505 48500 58004 69912 74944 333 11044 21067 3/107 49101 55000 55300 20000 30000 69907 70016 89/01 91122 90230 91218 90330 91218 96036
AAXX 07061 10929 12686 72405 10014 21015 39722 40270 56007 69912 875// 222// 06047 333 10028 20013 31100 55004 55300 20000 30000 70001 87636
AAXX 07061 10948 01586 31503 11030 21031 39295 48510 56005 60042 70171 81532 333 10006 21056 3/108 47050 55000 55300 20000 30000 69907 70111 81633
AAXX 07061 10961 12/89 63313 11161 21199 37029 47991 57009 60142 81542 333 11143 21164 49300 55000 55300 20000 40810 70429 816// 85068 91122 91213 444 26206
AAXX 07061 10962 01384 22408 11028 21030 39062 48490 56010 60012 73672 82840 333 11013 21029 3/104 48016 55000 55300 20000 30000 69907 70035 81807 91115 96285
AAXX 07061 10980 11/01 92508 11080 21083 38135 48492 56011 60042 77174 333 11066 21080 3/108 49090 55000 55300 20000 30000 70116 91114 96049
AAXX 07061 10007 NIL
AAXX 07061 10044 NIL
AAXX 07061 10046 11250 82206 10051 20040 30001 40040 57042 69972 76165 877// 333 10052 20024 32000 55056 70007 87705
AAXX 07061 10091 01475 82410 10037 20020 39992 40043 58028 69902 76122 875// 222// 06052 333 10046 20013 31100 55042 55300 20000 30000 69907 79999 82710 87632 91117 91214
AAXX 07061 10113 01150 82609 10071 20067 30041 40060 56029 60022 72166 877// 222// 06055 333 10071 20051 32005 55022 55300 20000 30000 60027 70019 83702 87703 91115
AAXX 07061 10124 NIL
AAXX 07061 10131 01225 82308 10054 20047 30036 40051 56041 60012 75165 877// 222// 02050 333 10058 20043 31004 55046 55300 20000 30000 69987 70014 87704 91115 96010 98025
AAXX 07061 10170 01358 82005 10033 20024 30040 40056 58038 69942 76062 875// 333 10045 20010 31101 55039 55300 20000 30000 69947 70004 83707 87613
AAXX 07061 10264 01358 82105 10030 20021 39971 40079 58035 69952 76162 8802/ 333 10037 21001 31102 55005 55300 20000 30000 69957 70009 88508
AAXX 07061 10291 01580 72305 10035 20010 30031 40100 58028 69902 70162 875// 333 10037 21004 31102 55001 55300 20000 30000 69907 79999 82630 87657
AAXX 07061 10315 01358 82307 10059 20051 30049 40114 56036 69922 75862 876// 333 10059 20043 31004 55021 55300 20000 30000 69927 70003 87707 91113
AAXX 07061 10379 01581 82206 10031 20008 39991 40114 58025 69902 76062 875// 333 10036 21007 31104 55001 55300 20000 30000 41116 69907 79999 85626 87658
AAXX 07061 10382 11582 82306 10038 20009 30065 40111 58028 69902 70265 875// 333 10041 21013 31104 55000 55300 20000 30000 79999 87626
AAXX 07061 10384 16/// /2204 10036 20013 30051 40112 58027 69922 333 10044 20007 3/102 55000 55300 20000 30000 70002
AAXX 07061 10427 01/02 92510 11004 21004 39122 48420 56025 60032 77376 333 11003 21022 3/102 44033 55000 55300 20000 30000 60017 70079 91120 91215 96043 96269 96266 96473 96449
AAXX 07061 10430 01240 82405 10044 20036 39933 40127 58034 60022 75962 886// 333 10044 20029 31001 55004 55300 20000 30000 60017 70048 87706 96010
AAXX 07061 10439 11465 82203 10028 20007 39931 40155 56033 69942 75862 875// 333 10035 21001 32103 70040 87615
AAXX 07061 10453 11/90 92420 11036 21037 38750 48381 58024 60032 74973 333 11028 21043 3/105 49127 55000 55300 70070 91129 91223 96038 96471
AAXX 07061 10496 01682 82404 10032 20009 30046 40132 58022 69902 70265 8651/ 333 10035 21006 31102 55000 55300 20000 30000 69907 79999 86638 88461
AAXX 07061 10499 01572 82505 10027 20003 39850 40145 58020 69912 70262 885// 333 10028 21006 31103 55000 55300 20000 30000 69917 70002 88620
AAXX 07061 10505 01150 82308 10048 20043 39876 40161 58023 60022 75862 887// 333 10051 20023 32001 55004 55300 20000 30000 60017 70033 87703 91114
AAXX 07061 10513 01261 82003 10053 20042 30037 40160 56033 60022 75861 886// 333 10061 20024 31100 55002 55300 20000 30000 60027 70052 81706 88713 96459
AAXX 07061 10532 07457 82207 10030 20021 39914 40167 56031 69952 71065 333 10037 20016 3/101 55035 55300 20000 30000 69907 70012 87/10 88/60 88/75
AAXX 07061 10544 01/01 92312 11021 21021 39065 48434 58023 69942 77174 333 11010 21027 3/103 48020 55000 55300 69947 70059 91119 91215 96049 96037 96273 96238 96438
AAXX 07061 10554 01581 82409 10021 21004 39750 40145 58035 69902 72122 875// 333 10028 20012 31100 55051 55300 20000 30000 69907 70001 82623 87637 91113
AAXX 07061 10567 01683 82306 10024 21016 39775 40158 56026 69902 70162 875// 333 10029 20008 31101 55047 55300 20000 30000 69907 79999 87640
AAXX 07061 10578 11/60 82615 11047 21050 38727 48422 56026 60012 74174 875// 333 11037 21052 3/105 49072 55000 55300 20000 30000 70034 876// 96036 96477 96471 96449
BBXX DBEB 07061 99538 10081 41/// /2313 10054 20054 40049 57041 7//// 22200 00052
BBXX DBFH 07061 99535 10086 46/// /2308 10055 20049 40064 57042 22260 00054
BBXX DBBA 07061 99541 10121 46/// /1703 10034 20023 40058 57037 22220 00042
BBXX DBBC 07061 99535 10100 46/// /2307 10047 20035 40067 57040 22260 00049
BBXX DBKR 07061 99541 10121 46/// /2006 10032 20032 40058 57036 22200 00050
BBXX DBCK 07061 99/// ///// 46/// ///// 10055 20055 40051 57042 22220 00066
BBXX DBBI 07061 99535/10100 46/// /2/06 10047 20047 40066 57039 22240 00048
BBXX DBND 07061 99/// ///// 46/// ///// 10051 20047 40040 57043 22220 00058
AAXX 07064 78862 11478 10608 10245 20199 30133 40156 69901 70580 81100 333 10284 20228 58000 81818
AAXX 07064 077
AAXX 07064 TAF TKPN 041000Z 0412/0512 09010KT 9999 SCT020 SCT040 TEMPO 0416/0512 SHRA PROB30 TEMPO 0500/0510 00000KT
AAXX 07064 TAF TQPF 041000Z 0412/0512 08010KT 9999 SCT020 SCT040 TEMPO 0414/0512 SHRA PROB30 TEMPO 0500/0510 00000KT
AAXX 07064 TAF TUPJ 041000Z 0412/0512 05012KT 9999 SCT018 SCT035 TEMPO 0412/0512 SHRA PROB30 TEMPO 0412/0422 VRB02KT 5000 +SHRA FEW015CB BKN018
AAXX 07064 032200Z 0400/0424 09014KT 9999 SCT022 SCT038 BKN270 TEMPO 0400/0424 4000 SHRA BKN013 BKN036 BKN260
AAXX 07064 BKN038 SCT270 TEMPO 0412/0512 SHRA BKN015 PROB40 TEMPO 0418/0512 5000 SHRA BKN014 BKN036 PROB30 0420/0512 4000 TSRA FEW012CB
AAXX 07064 918 4000 TSRA FEW012CB
AAXX 07064 N015 BKN036 PROB40 TEMPO 0704/0724 3000 +TSRA SCT011CB BKN012 BECMG 0712/0714 14008KT
AAXX 07064 21/2712 07017G28KT 5000 SHRA BKN015 BKN036 PROB TEMPO 2700/2712 4000 TSRA FEW013CB
AAXX 07064 PROB30 TEMPO 0800/0806 4000 TSRA FEW012CB PROB40 TEMPO 0800/0824 2000 +SHRA/TSRA SCT010CB BKN012 BKN250
AAXX 07061 01015 NIL
AAXX 07061 01023 NIL
AAXX 07061 01033 NIL
AAXX 07061 01059 11384 83303 11022 21032 39979 49988 57003 69932 78587 888// 333 21061 70003 91106
AAXX 07061 01089 16/// /2901 11024 21024 39864 49972 57006 6//// 333 21054 91102
AAXX 07061 01167 31989 03602 11050 21069 39970 49974 57010 70100 333 21065 91104
AAXX 07061 01180 NIL
AAXX 07061 01210 11470 81206 10016 21000 39876 49903 57017 60094 76872 8757/ 333 20009 41997 70091 91110
AAXX 07061 01228 NIL
AAXX 07061 01240 16/// /1606 10016 21029 39916 49936 57018 6//// 333 20015 91108
AAXX 07061 01304 46/// ///// 10050 20029 39873 49904 56004 333 20029
AAXX 07061 01311 46/// /3304 10052 20029 39872 49933 57003 333 20011 91112
AAXX 07061 01340 NIL
AAXX 07061 01355 16/// ///// 11001 21009 39934 49939 55017 60022 333 21013 70019
AAXX 07061 01360 NIL
AAXX 07061 01392 16/// /0000 11076 21084 39746 49979 57015 60002 333 21082 70000 91102
AAXX 07061 01406 NIL
AAXX 07061 01411 16/// /2811 10069 20042 39927 49952 58008 6//// 333 20041 91117
AAXX 07061 01425 NIL
AAXX 07061 01433 46/// /0000 11021 21030 38686 49933 56016 333 21042 91105
AAXX 07061 01442 NIL
AAXX 07061 01450 NIL
AAXX 07061 01452 16/// /1401 10002 21002 39930 49952 56029 69922 333 21002 70002 91103
AAXX 07061 01473 11410 80000 11016 21021 39749 49959 57021 60022 77170 8472/ 333 21043 70015 91103
AAXX 07061 01494 11325 80901 11006 21012 39895 49961 56020 69932 77172 887// 333 21010 70003 91103
AAXX 07064 67665 12480 20501 10224 20224 48529 60054 82131 333 10294 20161 59005 82810 82360 81080
AAXX 07061 01025 16/// /0000 11063 21074 39977 49989 57006 6//// 333 21102 91102
AAXX 07061 01052 16/// /0304 11040 21047 39892 49992 57003 60002 333 21074 70000 91105
AAXX 07061 01122 16/// /1901 11168 21184 39890 49986 57007 60002 333 21170 70005 91102
AAXX 07061 01132 NIL
AAXX 07061 01156 NIL
AAXX 07061 01203 46/// /2013 10059 20024 39842 49890 55013 333 20010 91118
AAXX 07061 01233 16/// /2001 11060 21065 60002 333 21060 70031 91102
AAXX 07061 01265 NIL
AAXX 07061 01273 NIL
AAXX 07061 01307 46/// /2810 10059 20027 39888 49915 50001 333 20029 91118
AAXX 07061 01321 16/// /1301 11009 21011 39662 49915 55018 60032 333 21021 70078 91105
AAXX 07061 01327 11258 81501 11008 21015 60092 78588 889// 333 21017 44085 70144 91106
AAXX 07061 01350 16/// /1202 11054 21056 38538 49910 56017 60022 333 21063 70022 91108
AAXX 07061 01361 NIL
AAXX 07061 01375 NIL
AAXX 07061 01378 NIL
AAXX 07061 01385 16/// /1101 11049 21059 39696 49973 57014 60002 333 21061 70000 91103
AAXX 07061 01412 16/// /3012 10061 20033 39930 49959 58011 60092 333 20042 70130 91121
AAXX 07061 01422 NIL
AAXX 07061 01440 NIL
AAXX 07061 01441 NIL
AAXX 07061 01467 NIL
AAXX 07061 01469 NIL
AAXX 07061 01477 NIL
AAXX 07061 01480 16/// /3601 11010 21021 60002 333 21023 70000 91103
AAXX 07061 01484 16/// /2401 11063 21076 39809 49969 58017 60002 333 21090 70005 91102
AAXX 07061 01490 16/// /1902 11032 21037 69922 333 21038 70002 91104
AAXX 07061 01495 16/// /3401 10020 21005 39946 49959 57022 60002 333 20012 70000 91108
AAXX 07061 01121 46/// /1204 11034 21076 39951 49964 57009 333 21034 91106
AAXX 07061 01135 NIL
AAXX 07061 01143 16/// /2202 11127 21141 60002 333 21133 70000 91105
AAXX 07061 01150 NIL
AAXX 07061 01192 NIL
AAXX 07061 01225 46/// /0808 10013 21056 39915 49919 56030 333 20011 91111
AAXX 07061 01230 NIL
AAXX 07061 01232 NIL
AAXX 07061 01234 16/// /2104 11098 21109 60002 333 21098 91107
AAXX 07061 01253 NIL
AAXX 07061 01254 NIL
AAXX 07061 01257 NIL
AAXX 07061 01277 NIL
AAXX 07061 01291 NIL
AAXX 07061 01332 16/// /0000 10000 21009 60022 333 21011 70029 91101
AAXX 07061 01366 46/// /1606 11083 21096 38310 49935 56018 333 21092 91108
AAXX 07061 01370 NIL
AAXX 07061 01376 16/// /3001 11045 21052 60022 333 21126 70023 91103
AAXX 07061 01383 46/// /0000 11106 21112 39659 49985 56017 333 21108 91100
AAXX 07061 01386 NIL
AAXX 07061 01416 16/// ///// 10058 20053 60082 333 20028 70097
AAXX 07061 01419 NIL
AAXX 07061 01430 16/// ///// 10010 20004 60032 333 20010 70028
AAXX 07061 01434 16/// /0000 11042 21053 38979 49939 56017 60022 333 21044 70021 91102
AAXX 07061 01455 NIL
AAXX 07061 01468 16/// /1101 11072 21082 60002 333 21086 70000 91103
AAXX 07061 01470 NIL
AAXX 07061 01476 NIL
AAXX 07061 01481 NIL
AAXX 07061 01488 NIL
AAXX 07061 01037 NIL
AAXX 07061 01046 11889 81301 11082 21099 39987 49994 57005 60002 70222 8807/ 333 21115 44008 70000 91102
AAXX 07061 01058 16/// /3104 11056 21066 39515 49986 57006 60012 333 21084 4/019 70014 91106
AAXX 07061 01065 NIL
AAXX 07061 01092 NIL
AAXX 07061 01107 16/// /0704 10002 21070 39962 49966 57008 60002 333 21016 70000 91107
AAXX 07061 01114 NIL
AAXX 07061 01144 46/// /1204 11026 21065 333 21035 91107
AAXX 07061 01199 NIL
AAXX 07061 01245 NIL
AAXX 07061 01259 16/// /1105 10005 21038 39918 49941 56016 60002 333 20005 70000 91107
AAXX 07061 01262 NIL
AAXX 07061 01278 31985 81505 11055 21063 39853 49958 57015 70211 8802/ 333 21070 47021 70025
AAXX 07061 01293 16/// /0000 11082 21088 39750 49965 57018 60002 333 21086 70051 91103
AAXX 07061 01329 NIL
AAXX 07061 01337 NIL
AAXX 07061 01344 NIL
AAXX 07061 01364 NIL
AAXX 07061 01373 16/// /0000 11066 21074 39756 49960 58021 60022 333 21140 70020 91101
AAXX 07061 01374 11770 80000 11067 21072 69902 77871 8802/ 333 21076 43043 79999
AAXX 07061 01380 16/// /1001 11085 21098 6//// 333 21089 4/050 91102
AAXX 07061 01389 NIL
AAXX 07061 01393 NIL
AAXX 07061 01424 11540 8//// 10000 21007 39948 49951 58015 60122 77172 887// 333 21011 43010 70160
AAXX 07061 01431 16/// /3402 10017 20010 39291 49948 56017 60042 333 21022 70047 91107
AAXX 07061 01436 NIL
AAXX 07061 01465 11365 83605 10026 20016 39929 49948 57038 69962 76166 8372/ 333 20025 70006 91110
AAXX 07061 01471 16/// /0000 11022 21033 60022 333 21024 70019 91103
AAXX 07061 01483 NIL
AAXX 07061 11816 12670 69902 10027 21022 30020 40187 52008 69902 85540 333 20021 31001 79999 83640 85357
AAXX 07061 11826 12982 43205 10002 21032 39977 40183 53007 60002 84040 333 20000 31101 70003 84360
AAXX 07061 11903 12675 31001 11044 21061 39775 40172 52009 60002 81542 333 21046 3/107 43007 70000 81633
AAXX 07061 11934 11582 59901 11106 21126 39309 42745 51010 69982 70373 81541 333 21116 3/114 48003 70010 81626 84070
AAXX 07061 11968 12680 50105 10010 21063 39868 40155 52014 60002 85500 333 20010 31101 70000 85645
AAXX 07063 91502 01470 70000 10280 20244 40073 55009 69901 71552 82977 333 56799 69907 82815 81916 83360 87280
AAXX 07063 91507 31470 71804 10290 20242 40075 55009 71522 8697/ 333 56709 82816 82917 83628 85360
AAXX 07063 91520 01470 82302 10260 20251 40073 56016 60081 75065 8582/ 333 56999 60057 81814 84628 88460
AAXX 07063 91541 12480 82704 10270 20249 40082 57005 69921 82238 333 56699 82818 83360 88280
AAXX 07064 91503 31470 82704 10278 20249 40073 55013 70522 8487/ 333 56699 81818 84628 88360
AAXX 07064 91517 01475 80000 10260 20251 40074 57013 60101 75085 8287/ 333 56699 60017 81710 88460
AAXX 07064 91324 NIL
AAXX 07064 91329 12474 80910 10306 20283 30132 40135 60071 8331/ 333 56299 70071 83918 88462 555 90706
AAXX 07064 91336 32474 80712 10311 20250 30098 40101 83201 333 562/9 70000 83818 88075 555 90706
AAXX 07064 91339 32474 80405 10289 20243 30078 40084 84202 333 561/9 70000 84818 88075 555 90706
AAXX 07064 91320 32474 80409 10306 20278 30112 40117 8211/ 333 56299 70056 82816 86464 555 90706
AAXX 07064 61901 169// /1315 10165 20141 39669 40178 52006 60002 90550 333 20164 3/016 70000 8//99 555 7/090
AAXX 07064 61902 12482 41312 10237 20203 40144 69904 84800 333 20235 58007 81819 83645
AAXX 07064 88878 46/// /2922 10103 20082 40085 57031
AAXX 07064 88883 46/// /3020 10106 20089 40078 57029
AAXX 07064 88889 12782 63119 10096 20073 30015 40099 58027 60001 81532 90550 333 70006 81650 85360 91027 90710 91131
AAXX 07063 91502 01470 70000 10280 20244 40073 55009 69901 71552 82977 333 56799 69907 82815 81916 83360 87280
AAXX 07063 91507 31470 71804 10290 20242 40075 55009 71522 8697/ 333 56709 82816 82917 83628 85360
AAXX 07063 91520 01470 82302 10260 20251 40073 56016 60081 75065 8582/ 333 56999 60057 81814 84628 88460
AAXX 07063 91541 12480 82704 10270 20249 40082 57005 69921 82238 333 56699 82818 83360 88280
AAXX 07061 10004 46/60 /2712 10086 20076 30052 40052 56019 222// 00070 333 10088 20060 55036 55300 91119 91215
AAXX 07064 03005 11458 72926 10050 20020 39858 49958 58003 60042 78082 878// 90550 333 20050 31004 55000 55300 20000 70070 85818 87633 90710 91138 91038
AAXX 07064 03017 17780 /2922 10061 20024 39980 40012 50000 60032 723// 90550 333 20044 3/003 55000 55300 20000 70064 81/50 86/64 90710 91137
AAXX 07064 03023 17761 /2927 10073 20030 30106 40111 53008 60022 723// 90550 333 20055 3/005 70046 82/50 90710 91138
AAXX 07064 03026 17764 /2723 10059 20021 30053 40071 51010 60022 723// 90550 333 20050 3/003 55000 55300 20000 70046 81/50 83/57 90710 91137
AAXX 07064 03063 17567 /2405 10035 20006 39807 40087 51010 60012 782// 90550 333 20028 3/000 55007 55300 20000 70016 81/22 83/56
AAXX 07064 03066 15680 /2414 10054 20020 30062 40068 53006 69922 90550 333 20049 3/003 55004 55300 20000 70008 85/37 83/58 90710 91127
AAXX 07064 03075 17767 /2721 10042 20027 39989 40033 52005 60012 781// 90550 333 20036 3/002 70016 82/50 90710 91140
AAXX 07064 03091 15780 /2915 10060 20004 39986 40065 53003 69922 90550 333 20056 3/004 55009 55300 20000 70002 81/50 90710 91127
AAXX 07064 03100 NIL
AAXX 07064 03111 16564 /2923 10076 20050 30146 40158 51007 60032 90550 333 20063 3/005 70048 81/23 83/34 86/44 90710 91139 91033
AAXX 07064 03134 16/// /2817 10059 20025 3//// 4//// 5//// 60012 90550 333 20056 3/004 55002 55300 20000 70032 90710 91138 91027
AAXX 07064 03136 17672 /3021 10073 20032 30103 40136 52005 69962 723// 90550 333 20072 3/005 55000 55300 20000 70014 81/34 90710 91133 91033
AAXX 07064 03162 17572 /3117 10051 20019 39843 40132 53013 60032 723// 90550 333 20049 3/003 55000 55300 20000 70048 87/26 90710 91132 91032
AAXX 07064 03166 17681 /2613 10060 20015 30038 40108 53008 69902 723// 90550 333 20059 3/004 55006 55300 20000 79999 81/39 90710 91129
AAXX 07064 03171 12680 22914 10065 20005 30075 40087 50004 60002 82530 90550 333 20051 31002 55010 55300 20000 70000 82640
AAXX 07064 03204 12575 52918 10081 20037 30156 40176 53002 60002 85800 90550 333 20079 31006 55000 55300 20000 70010 82825 84635 90710 91133 91031
AAXX 07064 03240 15678 /2818 10074 20021 30081 40109 53006 69902 90550 333 20073 3/005 55018 55300 20000 79999 81/45 90710 91126
AAXX 07064 03257 15670 /2713 10077 20032 30103 40144 53010 69902 90550 333 20066 3/004 55029 55300 20000 79999 81/36 83/42 87/56
AAXX 07064 03292 166// /2914 10075 20032 30110 40128 51011 60002 90550 333 20061 3/005 70000 81/41 83/56 90710 91126
AAXX 07064 03302 15661 /2816 10089 20039 30195 40207 52010 69922 90550 333 20085 3/007 55000 55300 20000 70002 87/33 83/44 90710 91127
AAXX 07064 03354 15673 /2814 10083 20021 30028 40171 53010 69942 90550 333 20067 3/006 55023 55300 20000 70004 87/35 90710 91128 91024
AAXX 07064 03377 11680 62914 10081 20030 30074 40158 53011 69922 70262 865// 90550 333 20066 31006 55035 55300 20000 70002 86632
AAXX 07064 03414 15673 /2510 10082 20025 30103 40192 53012 69902 90550 333 20075 3/004 55019 55300 20000 79999 82/41 84/50
AAXX 07064 03462 15679 /2812 10081 20016 30085 40175 53018 69902 90550 333 20069 3/006 55036 55300 20000 79999 83/39 90710 91131
AAXX 07064 03482 17671 /2912 10085 20048 30133 40159 53009 69922 723// 90550 333 20059 3/005 70002 81/33 84/38 87/49 90710 91125
AAXX 07064 03502 17660 /2920 10085 20055 30064 40228 53006 69962 704// 90550 333 20085 3/007 55000 55300 20000 70008 87/39 90710 91129
AAXX 07064 03535 15666 /2909 10083 20021 30064 40181 53009 69942 90550 333 20070 3/005 55033 55300 20000 70004 83/36
AAXX 07064 03590 17/85 /3016 10084 20068 30052 40162 53005 60012 723// 90550 333 20049 3/004 55063 55300 20000 70012 90710 91125
AAXX 07064 03649 11580 72813 10100 20070 30096 40196 53006 69922 70252 878// 90550 333 20075 31007 55034 55300 2//// 70002 82822 87650 91024
AAXX 07064 03716 15281 /2818 10099 20076 30151 40211 57002 69982 90550 333 20094 3/009 55009 55300 20000 70012 81/04 90710 91127
AAXX 07064 03740 NIL
AAXX 07064 03746 15475 /2916 10093 20073 30050 40204 55006 69902 90550 333 20074 3/007 79999 82/13 84/46 90710 91128 91026
AAXX 07064 03772 15980 /2710 10093 20072 30155 40186 54000 69902 90550 333 20080 3/006 55048 55300 20000 79999 8//99
AAXX 07064 03796 46/// /2812 10097 20079 30036 40179 55007 90550 333 20058
AAXX 07064 03803 17256 /2817 10110 20108 30236 40274 56004 69922 710// 90550 333 20098 3/009 70004 88/04 90710 91125
AAXX 07064 03808 17124 /3017 10104 20101 30154 40261 57003 69922 720// 90550 333 20093 3/009 55002 55300 20000 70004 87/02 85/07 90710 91126
AAXX 07064 03809 11257 82911 10106 20102 30166 40260 55004 69902 76162 887// 90550 333 20093 31009 70002 84704 88710 90710 91125 91022
AAXX 07064 03827 17332 /2916 10107 20107 30181 40243 57007 69922 723// 90550 333 20092 3/009 70004 85/07 85/15
AAXX 07064 03840 17250 /2911 10091 20090 39920 40227 55003 60032 762// 90550 333 20072 3/007 70028 86/05
AAXX 07064 03853 15473 /2817 10105 20088 30193 40218 55005 60012 90550 333 20086 3/007 55026 55300 20000 70014 85/13 84/48
AAXX 07064 03874 46/// /2918 10099 20084 30195 40206 55004 90550 333 20089
AAXX 07064 03882 17340 /2707 10094 20086 30127 40191 55009 69922 782// 90550 333 20070 3/006 55049 55300 20000 70002 87/06 83/21
AAXX 07064 03894 11258 82722 10104 20098 40256 57008 69952 75065 887// 333 20095 31009 83703 86705 90710 91129
AAXX 07064 03917 17667 /2710 10067 20028 30112 40190 52012 69942 781// 90550 333 20064 3/004 55000 55300 20000 70008 81/40 84/50
AAXX 07064 48001 32556 30401 10180 20108 40199 82510 333 56190 58023
AAXX 07064 48004 32562 20401 10212 20143 82800 333 56900
AAXX 07064 48008 32557 41303 10220 20136 40204 82430 333 56440 58034
AAXX 07064 48010 31558 30000 10205 20150 40188 70244 83800 333 56500 58019
AAXX 07064 48018 32358 70401 10225 20169 40192 84810 333 56990 58024
AAXX 07064 48019 32560 20402 10216 20136 40199 80002 333 56004 58023
AAXX 07064 48020 31458 40401 10200 20159 70144 83830 333 56550
AAXX 07064 48025 31356 63601 10220 20185 40189 70144 84840 333 56770 58012
AAXX 07064 48035 31558 50000 10210 20091 40174 70544 83560 333 56490 58037
AAXX 07064 48037 32460 60401 10239 20114 40191 86600 333 56500 58034
AAXX 07064 48042 31557 42201 10257 20179 40180 71022 82402 333 56909 58015
AAXX 07064 48045 NIL
AAXX 07064 48048 32560 41401 10216 20167 40187 84800 333 56500 58024
AAXX 07064 48053 32556 53602 10280 20146 40181 82556 333 56599 58011
AAXX 07064 48057 32457 22201 10222 20111 82800 333 56600
AAXX 07064 48060 32440 10000 10224 20136 40182 81101 333 56506 58025
AAXX 07064 48062 31556 73206 10260 20170 40178 70522 84750 333 56590 58012
AAXX 07064 48071 /1560 53603 10270 20226 40182 70511 82531 333 56599 58014
AAXX 07064 48077 32959 30401 10304 20185 40161 80001 333 56009 58012
AAXX 07064 48078 32956 13202 10287 20168 40170 80001 333 56009 58012
AAXX 07064 48080 32561 43201 10316 20163 40157 82870 333 56990 58003
AAXX 07064 48094 32962 00402 10300 20250 40158 333 58004
AAXX 07064 48097 32957 10403 10310 20169 40154 80006 333 56009 58010
AAXX 07064 48108 31596 50506 10345 20193 40146 70522 82105 333 56109 58002
AAXX 07064 48109 NIL
AAXX 07064 48110 31596 43203 10300 20223 40144 70522 81206 333 56409 58006
AAXX 07064 48112 NIL
AAXX 07064 91503 31470 82704 10278 20249 40073 55013 70522 8487/ 333 56699 81818 84628 88360
AAXX 07064 91517 01475 80000 10260 20251 40074 57013 60101 75085 8287/ 333 56699 60017 81710 88460
AAXX 07064 91324 NIL
AAXX 07064 91329 12474 80910 10306 20283 30132 40135 60071 8331/ 333 56299 70071 83918 88462 555 90706
AAXX 07064 91336 32474 80712 10311 20250 30098 40101 83201 333 562/9 70000 83818 88075 555 90706
AAXX 07064 91339 32474 80405 10289 20243 30078 40084 84202 333 561/9 70000 84818 88075 555 90706
AAXX 07064 91320 32474 80409 10306 20278 30112 40117 8211/ 333 56299 70056 82816 86464 555 90706
BBXX 42039 07061 99288 70860 46/// /0000 10197 40199 58008 90550 22200 00211 10401 20401 70004 333 91201 555 11005 22005 30512 40403 60549 119006 096010 077015 043020 034021 042021 80403 90513
BBXX 41040 07061 99145 70530 46/// /0607 10262 20229 40147 58011 90550 22200 00270 11306 20603 3//// 41305 70028 333 91209 555 11075 22079 30454 40709 60549 057072 063069 062073 064071 070076 070075 80708 90506
BBXX CGDS 07064 99429 70792 46/// /2805 10058 20035 40051 58016 7//// 8//// 22200 0//// 2////
BBXX 46072 07061 99517 71722 46/// /0113 11008 21083 49982 52016 90550 22200 00040 11210 20807 3//// 41207 70050 333 91216 555 11135 22142 30519 40217 60549 009126 012131 013130 017139 016137 018129 80215 90520
BBXX 46082 07061 99597 71434 46/// ///// 11012 40002 56003 90550 22200 00056 11008 70041
BBXX 46072 07061 99517 71722 46/// /0113 11008 21083 49982 52016 90550 22200 00040 11210 20807 3//// 41207 70050 333 91216 555 11135 22142 30519 40217 60549 009126 012131 013130 017139 016137 018129 80215 90520
BBXX 46035 07061 99571 71778 46/// /2505 1//// 40015 56008 90550 22200 11102 20401 300// 41102 70011 333 91207 555 11054 22057 30515 42310 60549 255055 271064 249074 236072 219037 229049 82308 90515
BBXX 46077 07061 99579 71543 46/// /0418 11049 21061 49915 56051 90550 22200 00034 10605 20605 70025 333 91221 555 11193 22205 30548 40421 60549 038179 040173 041168 043164 047157 048155 80419 90548
BBXX 51101 07061 99243 71621 46/// /1604 10232 20186 40202 52009 90550 22200 00239 11705 20401 331// 41705 70026 333 91205 555 11037 22038 30539 41605 60549 158034 165036 164033 173032 173030 168032
BBXX 44007 07061 99435 70701 46/// /3402 11011 21014 40072 57003 90550 22200 00063 10602 20401 3//// 40601 70008 333 91203 555 11024 22024 30453 43605 60549 342023 354025 356027 357027 005031 003037
AAXX 07064 86033 NIL
AAXX 07064 86086 32870 32702 10234 20160 30017 40108 52004 83070 333 83457
AAXX 07064 86097 32970 61105 10242 20094 39468 40106 57015 80006 333 86270
AAXX 07064 86134 32970 00000 10234 20178 30011 40097 56005
AAXX 07064 86170 NIL
AAXX 07064 86192 32970 00000 10258 20164 39903 40120 51010
AAXX 07064 86210 NIL
AAXX 07064 86218 32970 31703 10243 20153 30001 40097 57021 81031 333 81360 83070
AAXX 07064 86221 32970 00000 10206 20147 39971 40106 52010
AAXX 07064 86233 32970 01804 10236 20176 39923 40111 56002
AAXX 07064 86234 NIL
AAXX 07064 86246 32870 22210 10240 20176 39802 40080 57012 82060 333 82357
AAXX 07064 86255 NIL
AAXX 07064 86260 NIL
AAXX 07064 86268 NIL
AAXX 07064 86297 NIL
AAXX 07064 07005 01470 82616 10099 20087 30111 40201 55012 69942 76066 885// 333 10100 20045 31004 55070 69927 70004 88613 90710 91130 555 69905
AAXX 07064 07015 01365 82715 10091 20085 30125 40182 56012 60012 721// 887// 333 10091 20024 32001 55029 60017 70012 88708 90710 91123 93100 555 69945
AAXX 07064 07020 02665 82821 10115 20101 30222 40249 56008 69962 885// 333 10115 20107 55/// 60007 70006 88640 90710 91133 555 60005
AAXX 07064 07027 01475 72619 10098 20082 30164 40246 55007 69942 70362 875// 333 10101 20070 31006 55035 60007 70004 85612 87623 90710 91128 93100 555 60005
AAXX 07064 07037 01259 82711 10088 20085 30044 40229 56009 60012 75155 887// 333 10088 20024 31103 55051 60017 70012 88704 90710 91121 93100 555 69925
AAXX 07064 07070 04359 82410 10064 20055 30102 40214 57020 69942 700// 333 10065 20006 31101 55061 69927 70004 90710 91117 555 69905
AAXX 07064 07110 01462 82808 10098 20089 30176 40293 56004 69922 75052 875// 333 10105 20092 32009 55006 69907 70004 86611 87623 90710 91114 93100 555 69905
AAXX 07064 07117 01465 82612 10105 20093 30205 40276 56005 69982 76065 887// 333 10109 20094 69927 90710 91125 92437 555 69905
AAXX 07064 07130 04586 82609 10100 20079 30227 40280 56007 60002 700// 333 10100 20072 30004 55056 60007 70000 90710 91114 555 60005
AAXX 07064 07139 01358 82611 10090 20073 30079 40255 56014 69902 75055 877// 333 10090 20043 31001 55057 69907 79999 87706 90710 91119 93100 555 69905
AAXX 07064 07149 01362 82411 10079 20065 30127 40238 56017 69902 72052 875// 333 10079 20029 30101 55042 69907 79999 82708 84710 87614 90710 91120 93100 555 69905
AAXX 07064 07168 01365 72315 10062 20048 30098 40244 56019 69922 72165 877// 333 10064 21005 32102 55062 69907 70002 87709 90710 91124 93100 555 69905
AAXX 07064 07181 04449 82217 10028 20019 39817 40240 56022 69902 758// 333 10040 20009 3/100 55/// 69907 79999 90710 91124 555 69905
AAXX 07064 07190 04583 81811 10027 21006 30053 40242 56023 60002 700// 333 10056 20013 30000 55018 60007 79999 90710 91119 555 60005
AAXX 07064 07207 01965 83110 10104 20088 60012 70262 88070 222// 328// 333 10114 20102 69967 90710 91129 92437 555 69905
AAXX 07064 07222 01570 82404 10089 20083 30265 40297 58003 69902 701// 875// 333 10099 20072 31005 55070 69907 79999 83624 87633 90710 91109 555 69905
AAXX 07064 07240 01257 82509 10082 20074 30143 40281 56007 69902 701// 877// 333 10082 20045 32001 55076 69907 79999 87706 90710 91114 93100 555 60005
AAXX 07064 07255 01258 82508 10057 20053 30080 40286 56008 69942 72165 877// 333 10057 20017 32101 55072 69947 70004 87704 90710 91116 93100 555 69945
AAXX 07064 07280 04569 81909 10024 20008 30000 40284 56010 60002 700// 333 10025 21001 30103 55043 60007 70000 90710 91114 555 60005
AAXX 07064 07299 02665 72005 10033 21018 39935 40274 56010 60002 8753/ 333 10041 20010 31102 55007 60007 70004 83643 87358 90710 91115 93100 555 60005
AAXX 07064 07314 06/// /2907 10110 20102 30288 40316 55002 60002 333 10113 20098 55/// 60007 70000 90710 91115 555 60005
AAXX 07064 07335 01250 82308 10072 20068 30156 40305 55004 69902 75052 885// 333 10072 20021 31000 55073 60007 79999 85705 87611 90710 91111 555 60005
AAXX 07064 07434 01330 80000 10021 20018 39819 40318 56005 69902 71022 885// 333 10036 20012 30102 55016 69907 79999 87606 90710 91101 93100 555 69905
AAXX 07064 07460 01670 71507 10025 21006 39902 40307 56004 60002 702// 875// 333 10026 21014 31104 55032 60007 70002 81633 87650 90710 91110 93100 555 60005
AAXX 07064 07471 02475 72502 11018 21029 39308 48883 53006 60002 87500 333 10003 21021 3/104 41998 55036 60007 70006 87615 90710 91104 93100 555 60005
AAXX 07064 07481 02870 71403 10004 21012 30010 40313 53003 60002 87030 333 10038 21004 31103 55/// 60007 79999 87357 90710 91104 93100 555 60005
AAXX 07064 07510 02560 72207 10080 20063 30255 40322 56004 60002 875// 333 10081 20036 31001 55066 60007 70000 82620 87630 90710 91111 93100 555 60005
AAXX 07064 07535 02650 81503 10018 20018 30004 40332 55001 60002 8557/ 333 10040 21009 31103 55023 60007 70000 85633 83361 90710 91104 93100 555 60005
AAXX 07064 07558 02570 63213 10009 21017 39447 40319 53008 60002 86500 333 10023 21001 30101 55062 60007 70000 86620 90710 91126 93100 555 60005
AAXX 07064 07577 02982 00411 10038 21012 30191 40284 53001 60002 333 10080 20034 30003 55042 60007 79999 90710 91118 93100 555 60005
AAXX 07064 07591 04/// /0301 11048 21087 39211 4//// 53003 60002 700// 333 10045 21051 3/108 55074 60007 70000 90710 91105 555 60005
AAXX 07064 07607 04561 80000 10052 20048 30259 40333 56005 60002 700// 333 10071 20011 3/102 55048 60007 70000 90710 91103 555 60005
AAXX 07064 07621 02680 71806 10039 20001 39891 40342 58003 60002 875// 333 10055 20012 30101 55039 60007 79999 81646 87650 90710 91110 93100 555 60005
AAXX 07064 07627 02980 61301 10011 21010 39838 40351 53002 60002 86031 333 10059 20006 30102 55013 60007 70000 86360 83073 90710 91104 93100 555 60005
AAXX 07064 07630 02568 71903 10040 20027 30151 40339 53003 60002 875// 333 10069 20034 30002 55043 60007 70000 84628 85640 85656 90710 91109 93100 555 60005
AAXX 07064 07643 02984 02904 10046 21037 30272 40282 53002 60002 333 10091 20023 30100 55074 60007 70000 90710 91113 555 60005
AAXX 07064 07650 02986 03228 10064 21018 30195 40235 53002 60002 333 10084 20063 30005 55084 60007 70000 91038 90710 91144 93100 555 60005
AAXX 07064 07661 06/// /2712 10060 21054 30039 40204 53002 60002 333 10083 20053 55/// 60007 70000 90710 91118 555 60005
AAXX 07064 07690 02980 03208 10059 21096 30162 40197 53004 60002 333 10098 20058 30004 55087 60007 70000 90710 91117 93100 555 60005
AAXX 07064 07747 02980 03219 10101 20017 30234 40288 52010 60002 333 10109 20096 30007 55029 60007 70000 91031 90710 91137 555 60005
AAXX 07064 07761 04986 /0608 10025 21047 30193 40204 53010 60002 700// 333 10137 20013 3/100 55076 60007 70000 90710 91111 555 60005
AAXX 07064 07790 02980 02208 10074 21021 30180 40195 53009 60002 333 10133 20059 30100 55081 60007 70000 90710 91112 93100 555 60005
BBXX BATFR19 07064 99061 30059 46/// /2109 10247 20209 40129 53011 22200 00257
BBXX BATEU04 07064 99581 10018 46/// /3026 10069 20034 40004 56013 22222
BBXX BATFR05 07064 99314 70122 46/// /0517 10159 20122 40244 56007 22212 00167
BBXX BATEU06 07064 99478 70101 46/// /2818 10144 20112 40316 52009 22254 00134
BBXX BATFR42 07064 99507 70020 46/// /2818 10099 20094 40216 55013 22261 00117
BBXX BAREU06 07064 99364 70025 46/// ///// 40282 52005 22264
BBXX BATFR34 07064 99476 70053 46/// /3117 4//// 22231 00132
BBXX BATFR04 07064 99575 70061 46/// /2509 10069 20012 40100 50007 22200 00097
BBXX BATEU08 07064 99587 70056 46/// /3437 10077 20032 40033 53006 22251
BBXX BATFR16 07064 99463 70171 44497 82508 10129 20120 40350 56004 70222 885// 22224 00134 20300
BBXX BATFR58 07064 99432 10067 46/// /3014 40200 53005 22200 00154
BBXX 51004 07061 99175 71524 46/// /0308 10221 20196 90550 555 11089 22095
BBXX 51002 07061 99171 71578 46/// /0708 10238 40183 53018 90550 22200 00242 333 91210 555 11090 22095 30510 40611 60549 069085 069082 070082 071088 061089 062090
BBXX 51100 07061 99236 71539 46/// /0906 10223 40213 52006 90550 22200 00234 12104 20501 333// 42104 70022 333 91207 555 11064 22067 30544 40907 60549 093061 092059 092055 092057 088054 090053
BBXX BATFR60 07064 99531 10041 46/// /2634 10090 20057 40092 53001 22252 00079
BBXX BATFR12 07064 99487 70065 46/// /2716 10114 20107 40298 58001 22200 00132
BBXX 46026 07061 99378 71228 46/// /3207 10111 40213 52005 90550 22200 00112 11507 20602 329// 41507 70035 333 91208 555 11073 22077 30521 42610 60549 311067 279069 279076 280076 278074 285081
BBXX 46041 07061 99474 71247 46/// /1209 10050 40241 53010 90550 22200 00086 11106 20703 3//// 41105 70031 333 91212 555 11099 22104 30450 41214 60549 122094 123095 123098 121096 121102 118102
BBXX BATFR52 07064 99508 70011 46/// /2623 10104 20084 40205 56015 22282 00087
AAXX 07061 14528 12670 10000 10000 21066 39901 40209 52028 60003 81500 333 10108 20000 30101 55015 70000 81640
AAXX 07061 14537 12670 20000 11006 21030 30002 40197 53025 60003 82500 333 10125 21015 34104 55000 70000 82640
AAXX 07061 14544 12665 60206 10008 21027 39498 40181 52016 69923 86500 333 10082 20006 31000 55000 70004 86643
AAXX 07061 14557 12965 33002 10012 21061 39809 40187 53013 60002 83040 333 10100 20007 34101 55000 70001 83360
AAXX 07061 14640 12565 53605 11004 21047 39294 48438 53024 69923 85500 333 10057 21005 34102 55005 70008 85630
AAXX 07061 14648 12665 20202 10061 21070 39998 40120 52074 60002 82500 333 20058 31003 55038 70001 82643
AAXX 07061 14652 11000 93632 11118 21121 37773 48358 52021 69982 74574 333 21118 3//// 49078 55000 70078 89/00
AAXX 07061 14542 12670 22501 11008 21029 30011 40208 52024 60002 82500 333 21010 34103 50000 70000 82640 95900
BBXX 41101 07064 99146 70562 46/// /0516 10258 20215 40136 57012 22200 00266 11005 70026
BBXX 61001 07064 99434 10078 46/// /1409 10123 20048 40184 52002 22200 00133 10702 70010
AAXX 07061 10044 46/// /2212 10048 20037 39997 40029 56045 222// 00045 333 10052 20035 55056 55300 91117 91214
BBXX CGDR 07064 99546 71304 46/// /1007 10053 20043 40157 54000 7//// 8//// 22200 0//// 2////
AAXX 07061 11423 01566 72708 11015 21018 39287 42780 57016 69932 726// 872// 333 21032 3/106 48013 69905 70023 87822 91118
AAXX 07061 11487 01468 82605 10013 21007 39553 40189 58015 69922 722// 885// 333 20004 3/101 43997 69905 70003 85616 88643 91011 91112
AAXX 07061 11518 02684 72204 10013 21011 39728 40177 57017 60002 8557/ 333 20007 31100 60005 70000 85648 85362
AAXX 07061 11603 01470 82603 10016 21013 39667 40159 58019 69932 702// 885// 333 21005 3/101 44002 60005 70018 85616 86640
AAXX 07061 11659 01575 82905 10011 21003 39527 40180 58001 60002 702// 885// 333 21003 3/102 44002 60005 70004 88632
AAXX 07061 11723 02580 62704 10008 21033 39877 40183 55000 60002 84551 333 21013 31104 60005 70001 82627 84650 85364
AAXX 07061 11782 02675 72004 11001 21034 39864 40179 55000 60002 875// 333 21027 34106 60005 70004 87643
AAXX 07061 02741 17573 82904 11020 21053 39920 49936 57006 69972 77187 88/// 90539 333 11008 21043 3/109
AAXX 07061 02755 369// 00000 11222 21243 39843 49946 52002 90539 333 11057 21222 3//// 4/011
AAXX 07061 02805 17535 80104 11028 21042 39846 49979 57005 60012 77176 88/// 90539 333 11026 21040 3/104
AAXX 07061 02807 47365 80000 11067 21071 39785 49971 771// 88/// 90600 333 11058 21073 3////
AAXX 07061 02836 17350 83401 11050 21056 39724 49949 57005 69962 77170 88/// 90539 333 11048 21065 3/107 4/048
AAXX 07061 02845 47359 80303 11050 21054 39686 49937 57003 77476 88/// 90539 333 11044 21062 3/106 4/057
AAXX 07061 02849 47532 83202 11049 21054 39663 49940 57004 77170 88/// 90539 333 11045 21056 3////
AAXX 07061 02866 17520 83002 11038 21038 39772 49922 54001 60022 77170 88/// 90539 333 11005 21038 3/104 4/040
AAXX 07061 02897 47443 82502 11082 21091 39744 49930 771// 88/// 90600 333 11019 21082 3////
AAXX 07061 02913 47681 31002 11119 21131 39879 49933 700// 83/// 333 11073 21129 3////
AAXX 07061 02917 47260 82302 11087 21092 39814 49940 700// 88/// 90600 333 11029 21087 3////
AAXX 07061 02924 47981 70000 11124 21131 39728 49933 54002 72487 87/// 90539 333 11079 21124 3/117
AAXX 07061 02926 17646 83201 11044 21047 39895 49908 54001 60022 771// 88/// 90600 333 11025 21045 3//// 4/007
AAXX 07061 02935 37229 80802 11103 21112 39757 49937 57006 77170 88/// 90539 333 11069 21103 3/112 4/024
AAXX 07061 02939 17264 72601 11036 21038 39727 49922 52009 60032 77170 87/// 90539 333 10000 21036 3//// 4/031
AAXX 07061 02944 47281 81502 11047 21050 39761 49910 771// 88/// 90600 333 11046 21098 3////
AAXX 07061 02947 47/75 80501 11079 21087 49938 57006 70088 88/// 90551 333 11030 21083 3////
AAXX 07061 02963 11282 82402 11030 21034 49909 57001 69964 77877 885// 333 1//// 2//// 3/111 47001
AAXX 07061 02974 11370 43501 11061 21069 39845 49913 57007 60022 70371 84500 333 11033 21068 3/110 47009
AAXX 07061 02976 46/// /1808 11005 21006 39900 49916 57025 90539 333 10001 21056 3////
AAXX 07061 02981 37599 72910 11006 2//// 39921 49931 57003 70087 87/// 90539 333 10011 21008 3////
AAXX 07061 02982 46/// /3111 10000 21042 39915 49923 54002 90539 333 10015 21011 3////
BBXX CG2960 07064 99453 70817 46/// /1908 10040 20028 40030 56010 7//// 8//// 22200 0//// 2////
BBXX C6SI6 07064 99546 71640 46/// /1906 11055 21113 49855 57010 7//// 8//// 22200 0//// 2////
BBXX CZ9742 07064 99506 70969 46/// /3606 11080 21091 4//// 5//// 7//// 8//// 22200 0//// 2////
BBXX VCRG 07064 99474 70619 46/// /2206 11062 21110 40130 56006 7//// 8//// 22200 0//// 2////
BBXX CG2350 07064 99433 70798 46/// /2505 10056 20028 40034 57014 7//// 8//// 22200 0//// 2////
BBXX CGBR 07064 99534 71293 46/// /0109 10042 20042 40190 50000 7//// 8//// 22200 0//// 2////
AAXX 07061 02741 17573 82904 11020 21053 39920 49936 57006 69972 77187 88/// 90539 333 11008 21043 3/109
AAXX 07061 02755 369// 00000 11222 21243 39843 49946 52002 90539 333 11057 21222 3//// 4/011
AAXX 07061 02805 17535 80104 11028 21042 39846 49979 57005 60012 77176 88/// 90539 333 11026 21040 3/104
AAXX 07061 02807 47365 80000 11067 21071 39785 49971 771// 88/// 90600 333 11058 21073 3////
AAXX 07061 02836 17350 83401 11050 21056 39724 49949 57005 69962 77170 88/// 90539 333 11048 21065 3/107 4/048
AAXX 07061 02845 47359 80303 11050 21054 39686 49937 57003 77476 88/// 90539 333 11044 21062 3/106 4/057
AAXX 07061 02849 47532 83202 11049 21054 39663 49940 57004 77170 88/// 90539 333 11045 21056 3////
AAXX 07061 02866 17520 83002 11038 21038 39772 49922 54001 60022 77170 88/// 90539 333 11005 21038 3/104 4/040
AAXX 07061 02897 47443 82502 11082 21091 39744 49930 771// 88/// 90600 333 11019 21082 3////
AAXX 07061 02913 47681 31002 11119 21131 39879 49933 700// 83/// 333 11073 21129 3////
AAXX 07061 02917 47260 82302 11087 21092 39814 49940 700// 88/// 90600 333 11029 21087 3////
AAXX 07061 02924 47981 70000 11124 21131 39728 49933 54002 72487 87/// 90539 333 11079 21124 3/117
AAXX 07061 02926 17646 83201 11044 21047 39895 49908 54001 60022 771// 88/// 90600 333 11025 21045 3//// 4/007
AAXX 07061 02935 37229 80802 11103 21112 39757 49937 57006 77170 88/// 90539 333 11069 21103 3/112 4/024
AAXX 07061 02939 17264 72601 11036 21038 39727 49922 52009 60032 77170 87/// 90539 333 10000 21036 3//// 4/031
AAXX 07061 02944 47281 81502 11047 21050 39761 49910 771// 88/// 90600 333 11046 21098 3////
AAXX 07061 02947 47/75 80501 11079 21087 49938 57006 70088 88/// 90551 333 11030 21083 3////
AAXX 07061 02963 11282 82402 11030 21034 49909 57001 69964 77877 885// 333 1//// 2//// 3/111 47001
AAXX 07061 02974 11370 43501 11061 21069 39845 49913 57007 60022 70371 84500 333 11033 21068 3/110 47009
AAXX 07061 02976 46/// /1808 11005 21006 39900 49916 57025 90539 333 10001 21056 3////
AAXX 07061 02981 37599 72910 11006 2//// 39921 49931 57003 70087 87/// 90539 333 10011 21008 3////
AAXX 07061 02982 46/// /3111 10000 21042 39915 49923 54002 90539 333 10015 21011 3////
AAXX 07061 01098 11X30 90205 10009 21005 39959 49977 57008 60032 78687 333 21002 44005 70061 91111
AAXX 07064 78948 11577 40815 10259 20214 30137 40145 69901 70581 84800 333 02200 10283 20225 58001 70046 84824 90950
AAXX 07061 89061 379// 02805 10005 21002 39837 49843 57006 73077 333 91007 91109
BBXX 3FZK3 07064 99556 71411 46/// /1428 10029 20014 49978 58076 7//// 8//// 22263 0//// 2////
BBXX VOXS 07064 99467 70480 41598 83214 10005 2103/ 40085 52023 70222 885// 22200 04018 20404 321// 40804 81009
AAXX 07064 48601 11559 60607 10323 20220 30122 40126 60001 70522 81241 333 81820 86080
AAXX 07064 48615 11460 70908 10286 20233 30139 40145 60001 70522 84232 333 84818 83364 87074
AAXX 07064 48620 11564 70702 10321 20219 30117 40126 60001 70522 81135 333 81822 83276 86078
AAXX 07064 48647 11567 73204 10350 20224 30097 40121 6///1 70522 82127 333 82820 87078
AAXX 07064 48657 11464 73610 10292 20234 30118 40136 69901 72582 84242 333 84818 85366 87078
AAXX 07064 48665 11564 70208 10308 20225 30124 40134 60001 70521 83131 333 83822 86080
AAXX 07064 96413 11560 73314 10287 20246 30075 40101 69941 71582 84131 333 84820 84365 85080
AAXX 07064 96421 11480 73503 10266 20245 30055 40091 60031 72582 8457/ 333 84816 87365
AAXX 07064 96441 11468 73204 10291 20239 30061 40088 60011 72586 84931 333 84814 81915 86365
AAXX 07064 96449 11459 72807 10255 20250 30071 40090 60091 78182 8427/ 333 84814 87365
AAXX 07064 96465 12478 70404 10307 20249 30053 40086 60001 81842 333 81813 87080
AAXX 07064 96471 12478 82702 10287 20240 30084 40087 69921 83848 333 82814 83640 87277
AAXX 07064 96481 11462 70802 10293 20246 30084 40103 60011 70362 8387/ 333 82817 86364
AAXX 07064 96491 11467 70905 10305 20245 30089 40101 69901 70362 84842 333 83816 87079
BBXX CGJV 07064 99483 70605 46/// /2516 11062 21114 40113 56010 7//// 8//// 22213 00021 2////
BBXX VOKJ 07064 99464 70724 46/// /0409 11081 21089 40049 58007 7//// 8//// 22212 0//// 2////
BBXX CGBN 07064 99475 70527 46/// /2915 11055 21110 40093 51013 7//// 8//// 22200 0//// 2////
BBXX VXKF 07064 99468 70601 46/// /2411 11060 21108 40127 56012 7//// 8//// 22283 0//// 2////
BBXX VOFG 07064 99456 70614 46/// /0901 11075 21115 40144 58002 7//// 8//// 22200 0//// 2////
BBXX VOKF 07064 99490 70669 46/// /1706 11122 21175 40108 56012 7//// 8//// 22200 0//// 2////
BBXX CGDG 07064 99447 70636 46/// /0801 11036 21034 40115 58023 7//// 8//// 22200 0//// 2////
BBXX CGUM 07064 99447 70625 46/// /1509 11013 21052 40129 56023 7//// 8//// 22252 0//// 2////
BBXX VCSZ 07064 99455 70735 46/// /0103 11076 21077 40047 58004 7//// 8//// 22200 0//// 2////
BBXX CGDT 07064 99463 70725 46/// /0804 11078 21085 40051 57008 7//// 8//// 22200 0//// 2////
BBXX VCLM 07064 99468 70712 46/// /0506 11073 21086 40064 56006 7//// 8//// 22200 0//// 2////
BBXX CGHL 07064 99476 70527 46/// /2608 11058 21116 40098 51015 7//// 8//// 22200 0//// 2////
BBXX VOLG 07064 99444 70632 46/// /1413 10005 21006 40109 58028 7//// 8//// 22232 0//// 2////
BBXX CGSB 07064 99479 70695 46/// /0505 11129 21141 40088 57018 7//// 8//// 22200 0//// 2////
BBXX CGTF 07064 99476 70527 46/// /1808 11060 21116 40098 51014 7//// 8//// 22200 0//// 2////
BBXX VAAP 07064 99495 70607 46/// /2923 11082 21098 40084 53007 7//// 8//// 22262 0//// 2////
BBXX VRYO3 07064 99472 70584 46/// /2715 11039 21089 40123 51003 7//// 8//// 22224 00039 2////
BBXX CGCC 07064 99463 70725 46/// /0703 11086 21093 40051 56009 7//// 8//// 22200 0//// 2////
BBXX VCWL 07064 99468 70712 46/// /0512 11087 21095 40067 56003 7//// 8//// 22200 0//// 2////
BBXX VCBW 07064 99488 70644 46/// /2509 11136 21177 40111 55003 7//// 8//// 22200 0//// 2////
BBXX CG2958 07064 99500 71272 46/// /0905 10052 20046 40244 51017 7//// 8//// 22200 0//// 2////
BBXX CGBY 07064 99487 71235 46/// /1006 10048 20028 40266 51012 7//// 8//// 22200 0//// 2////
BBXX VOPP 07064 99456 70735 46/// /3102 11089 21090 4//// 5//// 7//// 8//// 22200 0//// 2////
BBXX CGDX 07064 99468 70712 46/// /0509 11083 21097 40068 56008 7//// 8//// 22200 0//// 2////
AAXX 07064 78397 112570 70000 10244 20169 30142 40158 60001 81808 333 00909 10300 20214 59004 81822 87274
AAXX 07061 89061 379// 02805 10005 21002 39837 49843 57006 73077 333 91007 91109
BBXX VOXS 07064 99467 70480 41598 83214 10005 2103/ 40085 52023 70222 885// 22200 04018 20404 321// 40804 81009
AAXX 07064 78397 112570 70000 10244 20169 30142 40158 60001 81808 333 00909 10300 20214 59004 81822 87274
BBXX 41010 07061 99289 70785 46/// /2305 10203 40210 58009 90550 22200 00230 11001 20401 300// 41001 70007 333 91206 555 11054 22056
BBXX 41009 07061 99285 70802 46/// /2006 10196 20113 40213 58010 90550 22200 00218 11001 20501 300// 41001 70006 333 91207 555 11065 22068
BBXX 42057 07061 99168 70815 46/// /0508 10262 20198 40163 58008 90550 22200 00269 10804 20603 3//// 40802 70020 333 91210 555 11084 22089 30450 40611 60549 050085 053088 046086 051085 050091 050090 80410 90531
AAXX 07064 60141 32960 00000 10004 21042 39577 40278 58011 333 20001
AAXX 07064 60210 32970 00000 10018 21083 39065 48561 53002 333 20016 34105
AAXX 07064 60265 32970 03001 11002 21153 38967 48566 53001 333 21017 30106
AAXX 07064 60060 NIL
AAXX 07064 60105 NIL
AAXX 07064 60106 NIL
AAXX 07064 60107 NIL
AAXX 07064 60127 NIL
AAXX 07064 60185 NIL
AAXX 07064 60190 NIL
AAXX 07064 60191 NIL
AAXX 07064 60195 NIL
AAXX 07064 60220 NIL
AAXX 07064 60318 NIL
AAXX 07064 60150 32960 01209 10042 21053 39586 40265 56012 333 20027 30001
AAXX 07064 60096 NIL
AAXX 07064 60101 NIL
AAXX 07064 60115 NIL
AAXX 07064 60135 NIL
AAXX 07064 60155 NIL
AAXX 07064 60156 NIL
AAXX 07064 60230 NIL
AAXX 07064 60252 NIL
BBXX DBLK 07061 99339 30184 41/97 /3203 10187 20140 40139 52007 7//// 22200 04152
AAXX 07064 81401 06/// /0000 10242 20235 30107 40113 60011 333 55/// 60007 58000 7//// 555 60005
AAXX 07064 81408 06/// /0000 10239 2//// 30103 40111 60001 333 55/// 60007 59005 7//// 555 60005
AAXX 07064 89642 42982 43009 11010 21089 39773 49826 58002 80001 333 55134 23204 84070
BBXX VAAZ 07064 99/// ///// 46/// /2702 11068 21107 40101 51015 7//// 8//// 22200 0//// 2////
BBXX 46061 07061 99602 71468 46/// /0407 11028 49983 58008 90550 22200 00035 11305 20602 300// 41305 70025 333 91208 555 11071 22074 30547 40308 60549 038068 040064 041060 037065 035063 036066
AAXX 07061 11812 36/// /3211 11011 21026 39466 42769 52010 333 21017 3////
AAXX 07061 11813 11670 72905 10013 21018 39827 40185 52005 69902 77022 87500 333 20003 3/104 42997 79999 84635 87656 91010
AAXX 07061 11816 12670 69902 10027 21022 30020 40187 52008 69902 85540 333 20021 31001 79999 83640 85357
AAXX 07061 11819 36/// /3204 10003 21029 39964 40187 52006 333 21001 3/102
AAXX 07061 11826 12982 43205 10002 21032 39977 40183 53007 60002 84040 333 20000 31101 70003 84360
AAXX 07061 11841 11680 60000 11028 21042 39800 40191 53010 69912 70371 86500 333 21030 3/106 47003 70009 86644
AAXX 07061 11855 12482 23005 10004 21037 30009 40180 52007 60002 81841 333 20000 31101 70000 81816
AAXX 07061 11856 36/// /9902 11003 21044 39849 40177 52007 333 21003 3/102
AAXX 07061 11858 12975 29901 11009 21039 30028 40185 52013 60002 81041 333 21009 34106 70000 81358
AAXX 07061 11867 11684 40000 11013 21055 39856 40183 53007 69902 70171 83501 333 21013 3/104 42002 70014 83633
AAXX 07061 11880 12870 29901 11014 21014 39998 40176 51010 60002 82030 333 21015 34105 79999 82357
AAXX 07061 11900 16/// /0000 11008 21052 39834 40179 52010 69902 333 21008 3//// 79999
AAXX 07061 11903 12675 31001 11044 21061 39775 40172 52009 60002 81542 333 21046 3/107 43007 70000 81633
AAXX 07061 11916 11/00 93524 11134 21154 37828 48360 55009 60012 74973 333 21134 3//// 49083 70067 89/00 91131 92992 93598
AAXX 07061 11918 12578 63003 11038 21066 39337 42768 53008 69982 86500 333 21040 3/105 48014 70053 86620
AAXX 07061 11927 12980 23004 11007 21062 39888 40158 52008 60002 80001 333 21015 34106 70000 82070
AAXX 07061 11930 11588 43319 11177 21193 37222 47874 52019 60132 70274 81041 333 21180 3//// 48060 70391 81330 84061 91028 91136 93561 444 36235
AAXX 07061 11933 11981 39901 11093 21114 38590 48406 53006 60032 70171 81041 333 21102 3/114 48066 70078 81358 83068 9513/ 444 17082
AAXX 07061 11934 11582 59901 11106 21126 39309 42745 51010 69982 70373 81541 333 21116 3/114 48003 70010 81626 84070
AAXX 07061 11938 12580 39902 11088 21107 39061 42744 52007 69992 81531 333 21089 3/111 44032 70011 81630
AAXX 07061 11952 16/// /1401 11054 21078 39301 42746 52008 69922 333 21057 3/109 70004
AAXX 07061 11958 36/// ///// 11083 21095 38671 48402 52014 333 21084 3////
AAXX 07061 11968 12680 50105 10010 21063 39868 40155 52014 60002 85500 333 20010 31101 70000 85645
AAXX 07061 11976 11575 43302 10003 21034 39887 40157 52011 69942 70261 84500 333 20002 31100 70005 84626
AAXX 07061 11978 12675 53403 10014 21038 30021 40154 52021 60002 85500 333 20013 32000 70000 85643
AAXX 07061 11993 11668 50103 10014 21036 39937 40158 52019 69902 70272 85500 333 20013 31000 70001 85647
AAXX 07064 65338 32956 53204 10210 20166 39927 40115 80002 333 02200 20210 50444 55002 59012 85076
AAXX 07064 64550 32470 8//// 10240 20225 30/// 40/// 885// 333 02200 20230 50114 55/// 5//// 84613 88620
AAXX 07064 64551 32260 70000 10238 20226 30088 40117 8453/ 333 0//00 20224 50054 55/// 58004 84605 87360
AAXX 07064 60285 NIL
AAXX 07064 60340 NIL
BBXX 44172 07061 99445 70634 46/// ///// 1//// 90601 22200 00055 10802 20802 315// 41101 70011
BBXX 44097 07061 99410 70711 46/// ///// 1//// 90602 22200 00100 10804 20804 70021
AAXX 07064 48300 31562 10000 10254 20170 39850 40163 57033 70140 81100 333 58013
AAXX 07064 48327 32660 21002 10298 20181 39811 40162 57043 82500 333 58021
AAXX 07064 48331 32560 20000 10300 20193 39932 40159 57034 81201 333 58018
AAXX 07064 48353 32660 41004 10270 20165 39880 40169 57028 84200 333 58023
AAXX 07064 48356 32965 21103 10260 20143 39986 40184 57031 80001 333 58027
AAXX 07064 48375 NIL
AAXX 07064 48378 31557 23204 10313 20198 30106 40158 57027 70500 81205 333 58010
AAXX 07064 48381 32962 30803 10278 20147 39959 40176 57025 80005 333 58026
AAXX 07064 48407 32960 40305 10287 20143 30014 40155 57029 80005 333 58014
AAXX 07064 48431 32962 40406 10276 20184 39952 40165 57031 80006 333 58017
AAXX 07064 48456 NIL
AAXX 07064 48480 31559 40107 10321 20197 30133 40137 57026 70521 82505 333 58013
AAXX 07064 48500 31956 30308 10307 20235 30135 40142 57019 71011 80005 333 58003
AAXX 07064 48551 31556 20404 10300 20235 30132 40140 57015 71000 82201 333 58003
AAXX 07064 48565 32560 30803 10313 20222 30122 40132 57013 81205 333 58005
AAXX 07064 48569 32560 70507 10292 20226 30099 40139 57013 83846 333 58005
AAXX 07064 48583 32562 50705 10285 20236 30137 40143 57008 82106 333 58007
AAXX 07064 48310 31550 21903 10280 20187 39700 40150 57033 70500 82100 333 58016
AAXX 07064 48325 31662 20000 10285 20178 39921 40162 57057 70141 82501 333 58017
AAXX 07064 48329 31556 10000 10290 20191 39815 40150 57032 70500 81500 333 58016
AAXX 07064 48352 NIL
AAXX 07064 48357 32964 60905 10272 20142 30014 40183 57033 80006 333 58028
AAXX 07064 48380 31558 20903 10311 20201 30063 40156 57028 70500 82101 333 58014
AAXX 07064 48383 31960 40807 10270 20153 30010 40170 57034 70521 80006 333 58022
AAXX 07064 48403 31958 60504 10281 20169 39957 40167 57031 70522 80006 333 58026
AAXX 07064 48405 32960 60608 10278 20156 30005 40168 57030 80006 333 58024
AAXX 07064 48420 31958 40404 10314 20201 30143 40148 57021 70511 80005 333 58012
AAXX 07064 48421 31557 20000 10325 20223 30029 40141 57033 70500 82200 333 58000
AAXX 07064 48425 31956 20302 10314 20201 30147 40157 57021 70500 80005 333 58016
AAXX 07064 48426 32960 30000 10315 20193 30137 40150 57027 80005 333 58016
AAXX 07064 48429 32560 40611 10306 20174 30144 40151 57026 81105 333 58009
AAXX 07064 48430 31959 20807 10327 20166 30140 40147 57029 70500 80005 333 58011
AAXX 07064 48450 31956 00000 10332 20219 30113 40146 57028 70500 333 58017
AAXX 07064 48459 31959 30605 10326 20192 30137 40140 57027 70511 80006 333 58011
AAXX 07064 48465 31958 21010 10300 20219 30142 40146 57020 70500 80005 333 58006
AAXX 07064 48550 31558 60607 10300 20227 30134 40141 57007 71021 82106 333 58000
AAXX 07064 48552 31459 60404 10300 20233 30132 40139 57015 71022 82236 333 58002
AAXX 07064 48566 32560 60903 10309 20224 30130 40138 57011 82146 333 58004
AAXX 07064 48568 31458 71006 10288 20237 30133 40140 57008 71021 82836 333 58004
AAXX 07064 48302 32560 22703 10185 20132 38520 40147 57014 81205 333 58029
AAXX 07064 48304 32564 20000 10280 20196 39698 40153 57035 82200 333 58018
AAXX 07064 48334 31558 40000 10294 20178 39795 40152 57028 70511 82205 333 58018
AAXX 07064 48360 32560 60000 10263 20164 39923 40184 57011 84505 333 58025
AAXX 07064 48372 31958 20000 10310 20232 30102 40159 57022 70500 80001 333 58017
AAXX 07064 48373 31558 20000 10314 20194 30091 40152 57028 70500 82101 333 58010
AAXX 07064 48386 31950 03205 10308 20211 30108 40151 57025 70500 333 58014
AAXX 07064 48387 31558 20903 10250 20178 39199 40146 57018 71000 82100 333 58018
AAXX 07064 48408 32962 30506 10297 20164 30011 40159 57030 80001 333 58017
AAXX 07064 48415 32960 40507 10315 20186 30144 40155 57019 81045 333 58014
AAXX 07064 48433 31959 20000 10285 20174 30001 40166 57030 70500 80005 333 58021
AAXX 07064 48437 32965 20402 10280 20172 39957 40166 57029 80001 333 58015
AAXX 07064 48440 NIL
AAXX 07064 48451 NIL
AAXX 07064 48454 32960 20402 10310 20169 30139 40146 57024 80005 333 58012
AAXX 07064 48457 31958 40414 10282 20180 30131 40148 57025 70511 80005 333 58008
AAXX 07064 48463 31956 60810 10348 20160 30059 40151 58029 70522 80006 333 58004
AAXX 07064 48464 31558 30902 10320 20181 30119 40132 57027 70511 82101 333 58002
AAXX 07064 48479 NIL
AAXX 07064 48520 31559 50905 10312 20229 30123 40138 55020 70511 82546 333 58000
AAXX 07064 48554 31457 70310 10290 20247 30132 40136 57013 71021 82336 333 58002
AAXX 07064 48563 NIL
AAXX 07064 48571 32562 60904 10288 20217 30114 40125 57018 82256 333 59005
BBXX 46035 07061 99571 71778 46/// /2505 1//// 40015 56008 90550 22200 11102 20401 300// 41102 70011 333 91207 555 11054 22057 30515 42310 60549 255055 271064 249074 236072 219037 229049 82308 90515
BBXX C6SI6 07064 99546 71640 46/// /1906 11055 21113 49855 57010 7//// 8//// 22200 0//// 2////
BBXX WDE2719 07064 99597 71520 41497 80350 11122 2//// 49960 57/// 70722 8762/ 22211 0//// 20303 3//// 4//// 5//// 61041 8//// ICE /////
AAXX 07064 48307 32562 10000 10296 20179 39780 40155 57036 81200 333 58012
AAXX 07064 48324 31557 43001 10295 20170 39934 40151 57028 70511 82105 333 58011
AAXX 07064 48333 31559 10000 10292 20187 39856 40154 57040 70500 81100 333 58006
AAXX 07064 48350 NIL
AAXX 07064 48355 32965 60705 10270 20141 39957 40176 57030 80001 333 58022
AAXX 07064 48358 NIL
AAXX 07064 48384 NIL
AAXX 07064 48401 31559 10505 10307 20177 30054 40160 57025 70500 81105 333 58015
AAXX 07064 48404 NIL
AAXX 07064 48409 32560 20403 10288 20178 30015 40162 57029 81101 333 58022
AAXX 07064 48419 NIL
AAXX 07064 48427 31559 80000 10310 20215 30143 40150 57024 70522 82206 333 58015
AAXX 07064 48435 32965 60914 10285 20165 39717 40151 57024 80006 333 58017
AAXX 07064 48453 32960 61304 10313 20194 30143 40146 57024 80006 333 58015
AAXX 07064 48458 32961 70506 10320 20171 30081 40161 52022 80006 333 58013
AAXX 07064 48474 32560 40914 10328 20163 30022 40143 57020 82205 333 58012
AAXX 07064 48481 NIL
AAXX 07064 48555 31557 43202 10300 20224 30118 40160 55016 70511 82105 333 58005
AAXX 07064 48556 32560 53606 10310 20232 30119 40135 57012 82206 333 58003
AAXX 07064 48557 32560 50605 10310 20217 30100 40134 57013 82806 333 58006
AAXX 07064 48560 01557 80000 10275 20254 30131 40136 56012 60011 71062 83876 333 59003 60017 70012
AAXX 07064 48574 32562 50504 10313 20227 30098 40126 57019 82101 333 58000
AAXX 07064 48581 32460 60706 10303 20214 30101 40142 57009 83101 333 58004
BBXX 44100 07061 99363 70756 46/// ///// 1//// 90552 22200 00099 10502 20502 70009
BBXX 41110 07061 99341 70777 46/// ///// 1//// 90551 22200 00120 10502 20501 70008
BBXX 42099 07061 99273 70842 46/// ///// 1//// 90557 22200 00228 10602 20602 70009
BBXX 41113 07061 99284 70805 46/// ///// 1//// 90551 22200 00190 11101 21001 70005
BBXX 41112 07061 99307 70813 46/// ///// 1//// 90551 22200 00148 11101 21001 311// 41101 70006
BBXX 46232 07061 99325 71174 46/// ///// 1//// 90538 22200 00147 11705 20903 328// 41704 70025
BBXX 46247 07061 99378 71228 46/// ///// 1//// 90551 22200 00113 11407 20904 329// 41406 70036
BBXX 46243 07061 99462 71241 46/// ///// 1//// 90559 22200 00091 11305 21004 326// 41303 70025
BBXX 46236 07061 99368 71219 46/// ///// 1//// 90550 22200 00118 11407 21004 327// 41406 70034
BBXX 46229 07061 99438 71246 46/// ///// 1//// 90551 22200 00096 11206 21004 328// 41204 70030
BBXX 46225 07061 99329 71174 46/// ///// 1//// 90544 22200 00152 11304 21002 327// 41303 70018
BBXX 46213 07061 99403 71247 46/// ///// 1//// 90554 22200 00107 11307 21005 330// 41306 70037
BBXX 46215 07061 99352 71209 46/// ///// 1//// 90538 22200 00122 11506 21004 326// 41505 70031
BBXX 44099 07061 99369 70757 46/// ///// 1//// 90552 22200 00088 10501 20501 70007
BBXX 44039 07061 99411 70727 46/// /2205 10081 20046 40088 90545 22200 00067 10301 70003 333 91206
AAXX 07061 76040 32902 01501 10108 20049 30129 40143 52005 90542 333 10130 20051 30/// 55920 59024 98602
AAXX 07061 76225 32920 02502 10090 21061 38632 40128 52006 90545 333 10206 21010 30/// 55094 59021
AAXX 07061 76305 32970 50000 10145 20070 30145 40153 52002 82014 90550 333 10276 20120 30/// 55089 21314 56055 58/// 82460 83070
AAXX 07061 76342 32940 01803 10153 20040 39456 40147 52007 90550 333 10285 20080 30/// 55098 20638 59079
AAXX 07061 76382 32960 00000 10116 20080 38901 40129 52003 90547 333 10247 20048 30/// 55075 2//// 59039
AAXX 07061 76393 31920 02901 10154 20095 39567 40133 52002 70400 90551 333 10268 20094 30/// 55091 59056
AAXX 07061 76402 32950 30000 10134 20106 30100 40156 52004 80007 90547 333 10295 20086 30/// 55063 2//// 56005 58006
AAXX 07061 76458 32960 03501 10186 20177 30144 40148 53002 90537 333 10275 20139 30/// 55055 58003
AAXX 07061 76525 32960 32106 10090 21033 37471 40135 52001 80006 90540 333 10139 20041 30/// 55081 22653 56//5 59004 83080
AAXX 07061 76539 32958 03001 10104 20049 38164 40153 52010 90550 333 10220 20023 30/// 55057 59017
AAXX 07061 76548 32360 52901 10170 20167 30170 40180 58001 82430 90545 333 10230 20168 31/// 55033 56340 59049 82608 83357
AAXX 07061 76556 32960 30901 10154 20080 39123 40126 52011 80001 90530 333 10265 20108 30/// 55054 56005 58005 83070
AAXX 07061 76571 32910 00000 10096 20021 38172 40151 54004 90550 333 10210 20050 30/// 55059 59001 70000
AAXX 07061 76577 32960 50000 10094 20070 38051 40152 52006 80003 90540 333 10200 20055 30/// 55047 56005 58005 85081
AAXX 07061 76612 32958 02401 10093 20031 38482 40148 50005 90547 333 10227 20060 30/// 55077 21053 58/// 70000
AAXX 07061 76625 32550 01401 10112 20003 38145 40119 54006 90530 333 10200 20089 30/// 55040 56000 58000
AAXX 07061 76634 31970 01303 10084 20045 37860 40155 52003 70500 90550 333 10200 20030 30/// 55082 59002
AAXX 07061 76644 23250 11203 10198 20167 30180 40193 52028 81200 90550 333 10295 20135 30/// 55092 21268 561// 59042 81810
AAXX 07061 76654 31956 00401 10234 20206 30166 40170 52011 70544 90550 333 10289 20207 30/// 55078 20968 58008
AAXX 07061 76665 31458 22201 10123 20082 38133 40127 52006 70200 82200 90550 333 10243 20065 30/// 55076 21176 56100 57813 58008 82812
AAXX 07061 76680 31560 42902 10116 20026 37760 40130 52001 70300 81810 90550 333 10210 20069 30/// 55091 21442 56110 58005 81825 83458
AAXX 07061 76683 32860 40000 10086 20039 37831 40155 52006 84030 90550 333 10198 20019 30/// 50231 55088 21785 56060 59001 84358 98810
AAXX 07061 76685 32950 00000 10102 20017 37878 40128 52014 90545 333 10200 20040 30/// 55096 58002
AAXX 07061 76695 32956 00000 10176 20154 30167 40173 58002 90545 333 10300 20127 30/// 55085 59035
AAXX 07061 76750 32558 20000 10172 20159 30174 40185 57005 81130 90550 333 10305 20141 30/// 55078 56110 59029 81820
AAXX 07061 76762 31602 71603 10182 20164 38774 40126 52019 70324 83470 90540 333 10294 20108 30/// 55090 20744 56420 58005 83638 84358
AAXX 07061 76775 31960 22301 10140 20063 38535 40139 52011 70100 82040 90550 333 10289 20060 30/// 55075 56080 59014 82398
AAXX 07061 76845 32930 00000 10070 20064 37962 40162 50002 90547 333 10226 20038 30/// 55091 59002
AAXX 07061 76848 31950 00000 10102 20082 38397 40113 58001 70040 90550 333 10237 20098 30/// 55082 59010
AAXX 07061 76243 32970 00702 10136 20094 39842 40131 54000 90530 333 10260 20040 30/// 55094 59073
AAXX 07061 76311 32958 00000 10136 20081 39872 40144 52005 90555 333 10322 20080 30/// 55088 59004
AAXX 07061 76390 31950 02603 10081 21043 38232 40153 52001 70544 90530 333 10185 20023 30/// 55096 21367 59024
AAXX 07061 76405 32840 50000 10178 20145 30140 40162 52015 85060 90550 333 10263 20118 30/// 55048 2//// 56050 58002 85356
AAXX 07061 76412 32960 00000 10150 20140 30125 40171 52002 90550 333 10260 20120 30/// 55073 58008
AAXX 07061 76647 32365 10702 10186 20166 30170 40200 58003 81500 90550 333 10297 20130 30/// 55077 56300 59041 81608
AAXX 07064 48419 31957 53210 10320 20199 30145 40153 57022 70511 80005 333 58017
AAXX 07061 45007 12456 73504 10134 20081 30249 40258 58025 60001 8353/ 333 58033 81615 83625 85359
AAXX 07061 45007 12456 73504 10134 20081 30249 40258 58025 60001 8353/ 333 58033 81615 83625 85359
AAXX 07064 85201 32265 70706 10044 20028 36300 57014 82532 333 56200 58001 82605 84357 86070
AAXX 07064 85223 31570 42306 10150 20101 37510 47137 57012 70422 81531 333 56000 59009 81627 84357 85070
AAXX 07064 85244 11565 71807 10234 20207 39673 40103 58019 60021 70296 85570 333 56490 58017 85623 87357
BBXX 51204 07061 99213 71581 46/// ///// 1//// 90552 22200 00246 11803 20903 330// 41801 70015
BBXX 51203 07061 99208 71570 46/// ///// 1//// 90543 22200 00246 11002 21002 320// 41101 70010
BBXX 51201 07061 99217 71581 46/// ///// 1//// 90555 22200 00241 11803 20902 331// 41803 70017
BBXX 51202 07061 99214 71577 46/// ///// 1//// 90540 22200 00238 11404 21003 302// 41402 70018
AAXX 07061 45032 36/// /3301 10127 20080 30240 40257 54000
AAXX 07061 45035 36/// /3503 10126 20084 30218 40262 54000
AAXX 07061 45039 36/// /0902 10128 20097 30237 40252 57004
AAXX 07061 45044 36/// /3504 10140 20098 30153 40248 57002
AAXX 07061 76040 32902 01501 10108 20049 30129 40143 52005 90542 33310130 20051 30/// 55920 59024 98602
AAXX 07061 76225 32920 02502 10090 21061 38632 40128 52006 90545 33310206 21010 30/// 55094 59021
AAXX 07061 76305 32970 50000 10145 20070 30145 40153 52002 82014 90550333 10276 20120 30/// 55089 21314 56055 58/// 82460 83070
AAXX 07061 76342 32940 01803 10153 20040 39456 40147 52007 90550 33310285 20080 30/// 55098 20638 59079
AAXX 07061 76382 32960 00000 10116 20080 38901 40129 52003 90547 33310247 20048 30/// 55075 2//// 59039
AAXX 07061 76393 31920 02901 10154 20095 39567 40133 52002 70400 90551333 10268 20094 30/// 55091 59056
AAXX 07061 76402 32950 30000 10134 20106 30100 40156 52004 80007 90547333 10295 20086 30/// 55063 2//// 56005 58006
AAXX 07061 76458 32960 03501 10186 20177 30144 40148 53002 90537 33310275 20139 30/// 55055 58003
AAXX 07061 76525 32960 32106 10090 21033 37471 40135 52001 80006 90540333 10139 20041 30/// 55081 22653 56//5 59004 83080
AAXX 07061 76539 32958 03001 10104 20049 38164 40153 52010 90550 33310220 20023 30/// 55057 59017
AAXX 07061 76548 32360 52901 10170 20167 30170 40180 58001 82430 90545333 10230 20168 31/// 55033 56340 59049 82608 83357
AAXX 07061 76556 32960 30901 10154 20080 39123 40126 52011 80001 90530333 10265 20108 30/// 55054 56005 58005 83070
AAXX 07061 76571 32910 00000 10096 20021 38172 40151 54004 90550 33310210 20050 30/// 55059 59001 70000
AAXX 07061 76577 32960 50000 10094 20070 38051 40152 52006 80003 90540333 10200 20055 30/// 55047 56005 58005 85081
AAXX 07061 76612 32958 02401 10093 20031 38482 40148 50005 90547 33310227 20060 30/// 55077 21053 58/// 70000
AAXX 07061 76625 32550 01401 10112 20003 38145 40119 54006 90530 33310200 20089 30/// 55040 56000 58000
AAXX 07061 76634 31970 01303 10084 20045 37860 40155 52003 70500 90550333 10200 20030 30/// 55082 59002
AAXX 07061 76644 23250 11203 10198 20167 30180 40193 52028 81200 90550333 10295 20135 30/// 55092 21268 561// 59042 81810
AAXX 07061 76654 31956 00401 10234 20206 30166 40170 52011 70544 90550333 10289 20207 30/// 55078 20968 58008
AAXX 07061 76665 31458 22201 10123 20082 38133 40127 52006 70200 8220090550 333 10243 20065 30/// 55076 21176 56100 57813 5800882812
AAXX 07061 76680 31560 42902 10116 20026 37760 40130 52001 70300 8181090550 333 10210 20069 30/// 55091 21442 56110 58005 8182583458
AAXX 07061 76683 32860 40000 10086 20039 37831 40155 52006 84030 90550333 10198 20019 30/// 50231 55088 21785 56060 59001 8435898810
AAXX 07061 76685 32950 00000 10102 20017 37878 40128 52014 90545 33310200 20040 30/// 55096 58002
AAXX 07061 76695 32956 00000 10176 20154 30167 40173 58002 90545 33310300 20127 30/// 55085 59035
AAXX 07061 76750 32558 20000 10172 20159 30174 40185 57005 81130 90550333 10305 20141 30/// 55078 56110 59029 81820
AAXX 07061 76762 31602 71603 10182 20164 38774 40126 52019 70324 8347090540 333 10294 20108 30/// 55090 20744 56420 58005 8363884358
AAXX 07061 76775 31960 22301 10140 20063 38535 40139 52011 70100 8204090550 333 10289 20060 30/// 55075 56080 59014 82398
AAXX 07061 76845 32930 00000 10070 20064 37962 40162 50002 90547 33310226 20038 30/// 55091 59002
AAXX 07061 76848 31950 00000 10102 20082 38397 40113 58001 70040 90550333 10237 20098 30/// 55082 59010
AAXX 07061 76243 32970 00702 10136 20094 39842 40131 54000 90530 33310260 20040 30/// 55094 59073
AAXX 07061 76311 32958 00000 10136 20081 39872 40144 52005 90555 33310322 20080 30/// 55088 59004
AAXX 07061 76390 31950 02603 10081 21043 38232 40153 52001 70544 90530333 10185 20023 30/// 55096 21367 59024
AAXX 07061 76405 32840 50000 10178 20145 30140 40162 52015 85060 90550333 10263 20118 30/// 55048 2//// 56050 58002 85356
AAXX 07061 76412 32960 00000 10150 20140 30125 40171 52002 90550 33310260 20120 30/// 55073 58008
AAXX 07061 76647 32365 10702 10186 20166 30170 40200 58003 81500 90550333 10297 20130 30/// 55077 56300 59041 81608
AAXX 07061 45032 36/// /3301 10127 20080 30240 40257 54000
AAXX 07061 45035 36/// /3503 10126 20084 30218 40262 54000
AAXX 07061 45039 36/// /0902 10128 20097 30237 40252 57004
AAXX 07061 45044 36/// /3504 10140 20098 30153 40248 57002
AAXX 07064 17600 11562 71712 10169 20086 30121 40130 53009 60062 721// 878// 333 10171 20135 31012 50281 55052 70074 81825 87650 92447
AAXX 07064 17601 12680 51911 10158 20079 30104 40135 53010 60012 85800 90550 333 20122 30009 70040 82835 85656
AAXX 07064 17607 11565 71405 10127 20094 39947 40139 52/// 69904 725// 878// 333 20106 79999 83820 85640
AAXX 07064 17609 11562 71815 10155 20092 30136 40140 51011 60142 78081 878// 333 10157 20106 31008 50211 55080 70140 82830 83835 85656
AAXX 07061 76040 32902 01501 10108 20049 30129 40143 52005 90542 333 10130 20051 30/// 55920 59024 98602
AAXX 07061 76225 32920 02502 10090 21061 38632 40128 52006 90545 333 10206 21010 30/// 55094 59021
AAXX 07061 76305 32970 50000 10145 20070 30145 40153 52002 82014 90550 333 10276 20120 30/// 55089 21314 56055 58/// 82460 83070
AAXX 07061 76342 32940 01803 10153 20040 39456 40147 52007 90550 333 10285 20080 30/// 55098 20638 59079
AAXX 07061 76382 32960 00000 10116 20080 38901 40129 52003 90547 333 10247 20048 30/// 55075 2//// 59039
AAXX 07061 76393 31920 02901 10154 20095 39567 40133 52002 70400 90551 333 10268 20094 30/// 55091 59056
AAXX 07061 76402 32950 30000 10134 20106 30100 40156 52004 80007 90547 333 10295 20086 30/// 55063 2//// 56005 58006
AAXX 07061 76458 32960 03501 10186 20177 30144 40148 53002 90537 333 10275 20139 30/// 55055 58003
AAXX 07061 76525 32960 32106 10090 21033 37471 40135 52001 80006 90540 333 10139 20041 30/// 55081 22653 56//5 59004 83080
AAXX 07061 76539 32958 03001 10104 20049 38164 40153 52010 90550 333 10220 20023 30/// 55057 59017
AAXX 07061 76548 32360 52901 10170 20167 30170 40180 58001 82430 90545 333 10230 20168 31/// 55033 56340 59049 82608 83357
AAXX 07061 76556 32960 30901 10154 20080 39123 40126 52011 80001 90530 333 10265 20108 30/// 55054 56005 58005 83070
AAXX 07061 76571 32910 00000 10096 20021 38172 40151 54004 90550 333 10210 20050 30/// 55059 59001 70000
AAXX 07061 76577 32960 50000 10094 20070 38051 40152 52006 80003 90540 333 10200 20055 30/// 55047 56005 58005 85081
AAXX 07061 76612 32958 02401 10093 20031 38482 40148 50005 90547 333 10227 20060 30/// 55077 21053 58/// 70000
AAXX 07061 76625 32550 01401 10112 20003 38145 40119 54006 90530 333 10200 20089 30/// 55040 56000 58000
AAXX 07061 76634 31970 01303 10084 20045 37860 40155 52003 70500 90550 333 10200 20030 30/// 55082 59002
AAXX 07061 76644 23250 11203 10198 20167 30180 40193 52028 81200 90550 333 10295 20135 30/// 55092 21268 561// 59042 81810
AAXX 07061 76654 31956 00401 10234 20206 30166 40170 52011 70544 90550 333 10289 20207 30/// 55078 20968 58008
AAXX 07061 76665 31458 22201 10123 20082 38133 40127 52006 70200 82200 90550 333 10243 20065 30/// 55076 21176 56100 57813 58008 82812
AAXX 07061 76680 31560 42902 10116 20026 37760 40130 52001 70300 81810 90550 333 10210 20069 30/// 55091 21442 56110 58005 81825 83458
AAXX 07061 76683 32860 40000 10086 20039 37831 40155 52006 84030 90550 333 10198 20019 30/// 50231 55088 21785 56060 59001 84358 98810
AAXX 07061 76685 32950 00000 10102 20017 37878 40128 52014 90545 333 10200 20040 30/// 55096 58002
AAXX 07061 76695 32956 00000 10176 20154 30167 40173 58002 90545 333 10300 20127 30/// 55085 59035
AAXX 07061 76750 32558 20000 10172 20159 30174 40185 57005 81130 90550 333 10305 20141 30/// 55078 56110 59029 81820
AAXX 07061 76762 31602 71603 10182 20164 38774 40126 52019 70324 83470 90540 333 10294 20108 30/// 55090 20744 56420 58005 83638 84358
AAXX 07061 76775 31960 22301 10140 20063 38535 40139 52011 70100 82040 90550 333 10289 20060 30/// 55075 56080 59014 82398
AAXX 07061 76845 32930 00000 10070 20064 37962 40162 50002 90547 333 10226 20038 30/// 55091 59002
AAXX 07061 76848 31950 00000 10102 20082 38397 40113 58001 70040 90550 333 10237 20098 30/// 55082 59010
AAXX 07061 76243 32970 00702 10136 20094 39842 40131 54000 90530 333 10260 20040 30/// 55094 59073
AAXX 07061 76311 32958 00000 10136 20081 39872 40144 52005 90555 333 10322 20080 30/// 55088 59004
AAXX 07061 76390 31950 02603 10081 21043 38232 40153 52001 70544 90530 333 10185 20023 30/// 55096 21367 59024
AAXX 07061 76405 32840 50000 10178 20145 30140 40162 52015 85060 90550 333 10263 20118 30/// 55048 2//// 56050 58002 85356
AAXX 07061 76412 32960 00000 10150 20140 30125 40171 52002 90550 333 10260 20120 30/// 55073 58008
AAXX 07061 76647 32365 10702 10186 20166 30170 40200 58003 81500 90550 333 10297 20130 30/// 55077 56300 59041 81608
AAXX 07064 71805 04585 82912 11032 21081 30111 40120 53010 69902 700// 333 11008 21037 30104 55033 69907 70014 90710 91118 555 69905
AAXX 07064 16021 12960 03506 11072 21161 37953 48485 52014 60002 333 21076 43044 55/// 2//// 92865
AAXX 07064 16022 12986 00107 11070 21157 37821 48475 51008 60002 333 21088 48019 55044 2//// 92862
AAXX 07064 16033 12662 30000 11068 21097 38745 48447 51001 60002 83500 333 21068 47050 55/// 2//// 83635 92802
AAXX 07064 16040 13965 00000 11050 21064 39260 42786 5//// 60002 333 21050 43002 55/// 2//// 92845
AAXX 07064 16052 12962 00624 11136 21300 36594 47032 52007 60002 333 21194 49999 55000 22531
AAXX 07064 16061 12984 02003 10048 21087 39341 42789 58003 60002 333 20040 30/// 55078 2////
AAXX 07064 16098 12968 00402 11010 21071 30122 40176 52011 60002 333 21010 30/// 55/// 2////
AAXX 07064 16138 11975 03003 10018 21027 30167 40178 51008 60002 702// 333 20004 32/// 55/// 2////
AAXX 07064 16148 12980 02604 10002 21032 30171 40183 53012 60002 333 21012 31/// 55049 2//// 55300
AAXX 07064 16168 12972 03322 10050 21167 39420 42779 52010 60002 333 20048 30///
AAXX 07064 16172 12975 00000 11032 21045 39890 40205 52011 60002 333 21040 34/// 55/// 2//// 92601
AAXX 07064 16179 12981 02108 10034 21121 39494 42785 52013 60002 333 20032 30/// 55/// 2////
AAXX 07064 16224 12970 03613 10070 21085 39845 40167 52022 60002 333 20068 30/// 55042 2////
AAXX 07064 16232 12597 53331 10104 21026 30080 40133 52030 60002 83230 333 20100 30/// 55000 20063 83823 83358 555 0767/
AAXX 07064 16245 12965 03406 10046 21055 30139 40166 51015 60002 333 20046 30/// 55/// 2////
AAXX 07064 16253 12770 30209 10080 21051 30135 40147 52031 60002 83030 333 20064 30/// 55056 20775 83356
AAXX 07064 16258 12470 23436 10004 21065 39070 42690 52010 60002 82500 333 20004 30/// 55/// 2//// 82613
AAXX 07064 16263 12470 33221 10004 21039 38850 48415 52027 60002 83500 333 21008 43001 55/// 2//// 83610 92815
AAXX 07064 16294 NIL
AAXX 07064 16337 12998 02418 10054 21081 39500 40076 52028 60002 333 20042 30/// 55/// 2//// 555 0547/
AAXX 07064 16344 NIL
AAXX 07064 16434 NIL
AAXX 07064 16450 NIL
AAXX 07064 16459 12560 32809 10100 21026 30053 40089 51012 69942 81130 333 20050 31/// 55/// 2//// 81825 83358
AAXX 07064 16546 12970 00201 10030 20007 30178 40207 52015 60002 333 20030 30/// 55/// 2////
AAXX 07064 16564 12597 12815 10102 20021 30051 40194 52014 60002 81100 333 20098 30/// 55/// 2//// 81820 555 0////
AAXX 07063 64501 32358 72104 10260 20237 3//// 4//// 878// 333 0//00 20258 50314 55081 5//// 84808 87626 94919 95839
AAXX 07064 16008 NIL
AAXX 07064 16084 12975 12613 10030 21093 30017 40188 51004 60002 80001 333 20018 30/// 55077 20609
AAXX 07064 16088 12970 09901 11037 21037 30063 40187 54000 60002 333 21037 30/// 55/// 2//// 92600
AAXX 07064 16110 NIL
AAXX 07064 16134 12980 03120 11048 21176 37792 48485 52008 60002 333 21070 44028 55062 2//// 92845
AAXX 07064 16153 NIL
AAXX 07064 16158 12965 01010 11012 21026 30181 40189 52010 60002 333 21012 30/// 55069 2////
AAXX 07064 16206 NIL
AAXX 07064 16219 42960 00426 11060 21113 38053 48451 52/// 6///2 333 21066 44012 55060 2//// 92825 9500/ 9510/
AAXX 07064 16252 12570 33316 10026 21035 39203 42766 52034 60002 82530 333 20000 31/// 55015 2//// 82620
AAXX 07064 16280 12998 00118 10098 20024 39913 40136 52023 60002 333 20098 30/// 55040 2//// 555 0541/
AAXX 07064 16310 12898 20312 10080 21065 39878 40101 52027 60002 82030 333 20054 30/// 55042 2//// 82358 555 0////
AAXX 07064 16320 11457 63526 10098 21004 30058 40070 52042 60002 71022 86200 333 20092 32008 55000 20204 55300 83815 85825 555 0////
AAXX 07064 16325 12597 43215 10098 20022 30063 40077 52039 60002 84500 333 20076 31/// 55/// 2//// 84625 98065 555 0321/
AAXX 07064 16360 12597 33123 10088 20012 39895 40030 52037 60002 81540 333 20074 32/// 55000 2//// 81620 91156 555 0537/
AAXX 07064 16400 12997 03118 10104 21019 39848 40139 53019 69922 333 20100 30/// 55007 2//// 55300 555 0547/
AAXX 07064 16420 12497 50209 10120 21002 30027 40092 52031 60002 85800 333 20112 32/// 55025 2//// 82818 83630 91025 555 0317/
AAXX 07064 16429 12566 23416 10124 21001 30139 40151 52024 69982 82100 333 20112 32/// 55033 2//// 55300 82821
AAXX 07064 16470 12562 43422 10122 20058 39916 40152 51018 60012 84200 333 20090 30/// 55037 2//// 22/// 84826 95000
AAXX 07064 16480 12498 23107 10080 20007 30020 40082 52021 60002 82230 333 20074 30/// 55036 2//// 55300 82815 555 0326/
AAXX 07064 16522 12498 13506 10106 20082 39965 40212 53005 60002 81100 333 20106 30/// 55055 2//// 55300 81815 555 0////
AAXX 07064 16539 NIL
AAXX 07064 16550 12698 23115 10088 20019 30003 40185 52013 60002 82200 333 20082 30/// 55033 2//// 82840 555 0////
AAXX 07064 16045 NIL
AAXX 07064 16090 12970 02806 10042 21067 30091 40175 58002 60002 333 20024 30/// 55080 20696
AAXX 07064 16149 12970 02201 10020 21039 30173 40189 52016 60002 333 20010 30/// 55/// 2////
AAXX 07064 16261 12570 22620 10084 21023 30041 40114 52010 60002 82100 333 20082 30/// 55/// 20377 55300 82830
AAXX 07064 16453 11597 53509 10098 20014 30027 40105 52011 60052 702// 85800 333 20080 32/// 55040 2//// 55300 82821 83624 555 0315/
AAXX 07064 16560 12960 03004 10040 20017 30202 40209 52022 60002 333 20038 30003 55060 20864
AAXX 07064 61968 16/// /0105 10308 20235 40126 60004 333 20262 55/// 58013 90710 91112 555 60005
AAXX 07064 61980 12562 30814 10288 20203 40144 60004 82832 333 021// 20225 55016 58001 82823 90710 91122 92437 555 60005
AAXX 07064 67005 12570 43611 10298 20230 40120 60224 83832 333 02629 20266 55037 58012 83823 90710 91124 555 60005
BBXX 46238 07061 99334 71195 46/// ///// 1//// 90550 22200 00135 11507 21004 328// 41505 70034
BBXX 46239 07061 99363 71221 46/// ///// 1//// 90551 22200 00113 11509 20905 330// 41507 70045
AAXX 07064 44404 NIL
AAXX 07064 44406 NIL
AAXX 07064 44409 NIL
AAXX 07064 44416 41320 80000 10132 20082 39434 40178 71044 888// 333 59019
AAXX 07064 44418 41240 42903 10150 20128 30022 40218 70544 84600 333 58019
AAXX 07064 44424 NIL
AAXX 07064 44429 NIL
AAXX 07064 44434 NIL
AAXX 07064 44438 NIL
AAXX 07064 44449 41915 00904 10194 2//// 30046 40207 71044 333 58012
AAXX 07064 44454 41940 00000 10100 20066 38710 48541 71044 333 58022
AAXX 07064 44462 42365 30000 10130 20026 38290 48512 83400 333 58022
AAXX 07064 44474 NIL
AAXX 07064 44477 42050 30000 10198 20116 38856 48559 83101 333 58012
AAXX 07064 44478 41956 31205 10220 20128 30122 40204 70544 80030 333 58006
AAXX 07061 01397 16/// /0000 11153 21164 39534 49996 56013 60002 333 21172 70007 91102
AAXX 07061 01078 11375 70707 10016 21035 39978 49991 57003 69952 78582 86350 333 20002 70047 91111
AAXX 07061 01238 41565 80301 11090 21099 38796 49919 56018 70272 888// 333 21090 91104
AAXX 07061 01115 11886 20000 11015 21054 39940 49961 57007 60002 70200 82070 333 21015 70009 91107
AAXX 07061 01288 11430 80000 11173 21190 39207 40001 57020 69922 71074 86610 333 21182 47041 70032 91104
AAXX 07061 01026 11480 72601 11054 21062 39843 49988 57006 69912 70222 8153/ 333 21091 43015 70002 91102
AAXX 07061 01152 11489 10907 11069 21105 39953 49969 55005 60002 70200 81600 333 21082 70000 91109
AAXX 07061 01317 11450 82903 10039 20021 39920 49935 55004 60092 78086 8797/ 333 20019 70125 91113
AAXX 07061 11723 02580 62704 10008 21033 39877 40183 50000 60002 84551 333 21013 31104 60005 70001 82627 84650 85364
AAXX 07061 15015 01596 73600 11005 21007 39498 42715 53012 60002 7102/ 85570 333 10007 21006 34101 60007 70000 91001 91102 92600
AAXX 07061 15020 02597 83003 10022 20009 39904 40105 52018 60002 8557/ 333 10039 20006 31102 60007 70000 91007 91107
AAXX 07061 15090 02597 83402 10024 20005 39996 40090 51015 60002 8457/ 333 10044 20023 31001 55300 10068 20003 3//// 60007 70000 91006 91106
AAXX 07061 15108 01/91 92714 11089 21089 37958 48398 52006 60002 74944 333 11063 21089 3//// 44018 60007 70000 91020 92723 92873
AAXX 07061 15120 02597 73208 10009 20004 39600 40105 52012 60002 83570 333 10017 21005 31103 55300 10081 2//// 3//// 60007 70000 91012 91114 92600
AAXX 07061 15150 02497 83404 10030 20005 39873 40088 51018 69922 886// 333 10052 20029 31001 60007 70002 91007 91109
AAXX 07061 15170 02998 83604 10008 21033 39283 42691 51014 60002 8807/ 333 10011 21004 3/101 41998 60007 70000 91007 91107
AAXX 07061 15200 02998 73603 10016 21001 39984 40132 52025 60002 87070 333 10029 21003 31000 60007 70000 91006 91106
AAXX 07061 15230 02597 63203 10032 21011 39804 40101 53017 60002 86500 333 10040 21015 31102 55300 10103 20003 3//// 60007 70000 91007 91107 92600
AAXX 07061 15260 02997 83204 10013 21005 39559 40102 53020 60002 8807/ 333 10022 20001 31100 60007 70004 91007 91107
AAXX 07061 15280 01/90 90524 11131 21131 37307 47827 52003 60032 77174 333 11107 21133 3//// 49040 60017 70040 91034 92723 92818 92956 96039 96049
AAXX 07061 15292 02998 53405 10022 20004 39800 40099 52019 60002 85070 333 10027 20009 31000 60007 70000 91009 91109
AAXX 07061 15310 01496 80106 10027 20022 39962 40049 53018 60182 76166 8272/ 333 10060 20027 31003 55300 10057 20000 3//// 60067 70235 91013 91116 96010
AAXX 07061 15335 01496 80205 10049 20049 30018 40025 51018 60432 7616/ 8672/ 333 10079 20049 32005 6///7 70463 91010 91112 96010
AAXX 07061 15346 02597 80105 10057 21024 39744 40033 53035 60002 885// 333 10071 20055 31003 60007 70000 91010 91113
AAXX 07061 15350 01597 81108 10034 20014 39927 40048 53042 60012 70262 8802/ 333 10067 20033 31003 69947 70047 91016 91117
AAXX 07061 15360 01497 80510 10073 20069 39994 40008 53006 60112 76122 8672/ 222// 06068 20402 333 10087 20073 3//// 60097 70128 91012 91112 92437
AAXX 07061 15410 02597 83102 10059 21025 39950 40046 53029 60002 885// 333 10066 20042 31001 60007 70001 91004 91106
AAXX 07061 15420 01497 80408 10034 20017 39914 40026 53040 60202 76166 8572/ 333 10067 20032 31002 55300 0//// 20000 3//// 60067 70240 91015 91116
AAXX 07061 15450 01497 80104 10036 20024 39805 40041 53041 60032 76176 8672/ 333 10066 20036 31003 55300 10140 20003 3//// 60037 70049 91008 91110
AAXX 07061 15460 01497 80212 10033 20028 39984 40009 51047 60422 7616/ 8672/ 333 10082 20033 32003 60227 70528 91020 91122
AAXX 07061 15470 01497 80306 10025 20022 39906 40034 53053 60222 7616/ 8672/ 333 10071 20025 31002 6///7 70258 91010 91112
AAXX 07061 15480 01497 80206 10077 20077 39985 40002 53027 60192 72162 8672/ 222// 06068 2//// 333 10093 20077 32004 60017 70315 91010 91110 92437
AAXX 07064 48375 32560 10000 10310 20196 39909 40130 57037 81500 333 58005
AAXX 07064 48440 31958 20608 10320 20190 30094 40143 57030 70500 80005 333 58015
AAXX 07064 48563 32560 50309 10301 20220 30097 40133 57013 82245 333 58004
AAXX 07064 64570 31100 8//// 10228 20228 3//// 4//// 74442 886// 333 02200 2//// 50154 55/// 5//// 85702 88610
AAXX 07064 48601 11559 60607 10323 20220 30122 40126 60001 70522 81241 333 81820 86080
AAXX 07064 48615 11460 70908 10286 20233 30139 40145 60001 70522 84232 333 84818 83364 87074
AAXX 07064 48620 11564 70702 10321 20219 30117 40126 60001 70522 81135 333 81822 83276 86078
AAXX 07064 48647 11567 73204 10350 20224 30097 40121 6///1 70522 82127 333 82820 87078
AAXX 07064 48650 11462 60904 10336 20225 30104 40122 60001 70522 83142 333 83818 85080
AAXX 07064 48657 11464 73610 10292 20234 30118 40136 69901 72582 84242 333 84818 85366 87078
AAXX 07064 48665 11564 70208 10308 20225 30124 40134 60001 70521 83131 333 83822 86080
AAXX 07064 96413 11560 73314 10287 20246 30075 40101 69941 71582 84131 333 84820 84365 85080
AAXX 07064 96421 11480 73503 10266 20245 30055 40091 60031 72582 8457/ 333 84816 87365
AAXX 07064 96441 11468 73204 10291 20239 30061 40088 60011 72586 84931 333 84814 81915 86365
AAXX 07064 96449 11459 72807 10255 20250 30071 40090 60091 78182 8427/ 333 84814 87365
AAXX 07064 96465 12478 70404 10307 20249 30053 40086 60001 81842 333 81813 87080
AAXX 07064 96471 12478 82702 10287 20240 30084 40087 69921 83848 333 82814 83640 87277
AAXX 07064 96481 11462 70802 10293 20246 30084 40103 60011 70362 8387/ 333 82817 86364
AAXX 07064 96491 11467 70905 10305 20245 30089 40101 69901 70362 84842 333 83816 87079
BBXX 41046 07061 99238 70683 46/// /0806 10230 20136 40202 58012 90550 22200 00248 11103 20602 300// 41103 70017 333 91208 555 11066 22069 30543 40808 60549 081063 071065 073065 071060 073062 075060 80707 90528
BBXX 44011 07061 99411 70666 46/// /2306 10106 20087 40094 57006 90550 22200 00086 10703 20602 3//// 40702 70014 333 91207 555 11068 22077 30532 40507 60549 228062 227065 228064 228061 229062 228065
AAXX 07061 06206 46563 7//15 10086 20052 30028 40081 55007 8//// 333 20063 82/29 85/34 87/40 91019 91122 91216
AAXX 07061 06207 47562 72712 1//// 2//// 30021 40076 56006 78086 8//// 333 2//// 83/22 85/27 87/32 91015 91118 91214
AAXX 07061 06239 47565 7//11 10080 20053 39987 40049 53001 72281 8//// 333 20063 81/32 87/50 91013 91118 91215
AAXX 07061 06252 46/// /2912 10083 20061 30056 40102 55006 222// 0//// 10605 333 20061 91015 91118 91215
AAXX 07061 06260 17366 82706 10091 20082 30121 40123 56020 60042 72385 8//// 333 20042 3/003 70049 82/07 84/08 86/09 91012 91112 91206
AAXX 07061 06270 17364 72709 10080 20069 30084 40084 56017 60022 70185 8//// 333 20047 3/004 70022 82/08 83/10 86/37 91014 91114 91210
AAXX 07061 06290 17222 82306 10065 20064 30068 40109 56033 60022 76285 8//// 333 20042 3/004 70032 83/04 86/05 87/06 91009 91112 91207
AAXX 07061 06201 47661 72916 10083 20055 30030 40083 53005 72286 8//// 333 20065 81/39 84/46 87/50 91019 91123 91218
AAXX 07061 06203 47568 72813 10097 20082 30075 40126 56009 72385 8//// 333 20068 81/20 83/48 87/56 91016 91118 91214
AAXX 07061 06204 47765 83012 10089 20053 30049 40100 55006 72280 8//// 333 20063 88/50 91017 91121 91216
AAXX 07061 06205 47863 8//12 10083 20060 39988 40047 53003 70281 8//// 333 20065 88/57 91014 91117 91214
AAXX 07061 06208 47361 72911 10085 20073 30023 40072 56023 72385 8//// 333 20058 81/08 83/10 85/19 91014 91115 91212
AAXX 07061 06211 47762 12714 10085 20046 30035 40091 55004 70286 8//// 333 20064 81/50 91017 91121 91217
AAXX 07061 06212 47469 82814 1//// 2//// 30042 40105 55003 72385 8//// 333 2//// 81/11 83/49 88/50 91017 91122 91218
AAXX 07061 06235 17458 82810 10085 20072 30103 40103 56010 60022 78185 8//// 333 20055 3/005 70019 82/11 83/13 85/28 91016 91116 91211
AAXX 07061 06240 17364 82711 10092 20077 30127 40122 55013 69962 72385 8//// 333 20044 3/003 70008 82/08 83/10 86/17 91014 91115 91211
AAXX 07061 06251 17564 72811 10084 20068 30082 40083 56013 69992 72286 8//// 333 20051 3/005 70010 81/25 83/45 87/50 91015 91117 91212
AAXX 07061 06258 46/// /2713 333 91016 91116 91213
AAXX 07061 06269 17366 82708 10086 20074 30117 40111 56019 60022 70286 8//// 333 20038 3/003 70024 81/07 83/09 88/11 91012 91113 91208
AAXX 07061 06280 17257 82707 10083 20077 30078 40082 56026 60042 76285 8//// 333 20044 3/004 70038 83/05 88/08 91011 91114 91210
AAXX 07061 06310 17462 72612 10087 20078 30142 40152 56012 60022 70185 8//// 333 20046 3/004 70020 81/12 83/16 85/43 91015 91116 91213
AAXX 07061 06344 17456 82709 10093 20083 30140 40133 56014 60032 75286 8//// 333 20041 3/003 70029 85/10 86/13 86/23 91013 91114 91210
AAXX 07061 06370 17237 82408 10075 20074 30113 40139 56027 60022 75381 8//// 333 20030 3/002 70020 83/04 85/06 86/07 91010 91111 91208
AAXX 07061 06380 17233 82308 10064 20058 30019 40160 56027 69982 72280 8//// 333 20029 3/003 70028 88/04 91013 91113 91209
AAXX 07064 91574 46/// ///// 29076 30216 40222 51021
AAXX 07064 91570 NIL
AAXX 07064 91598 NIL
AAXX 07064 91573 06/// /1310 10263 2//// 39990 4//// 55003 60001 333 58025 60007
AAXX 07064 91577 06/// /1814 10273 20189 30058 40078 55003 60001 333 58019 60007
AAXX 07064 91579 06/// /1112 10270 20203 30069 40077 55004 60001 333 58029 60007
AAXX 07064 91582 04670 /1310 10271 20181 30044 40078 55001 60002 700// 333 10295 20223 3/022 55/// 60007 70000 90710 91118 555 60005
AAXX 07064 91583 06/// /0000 10257 20228 30064 40079 55000 60031 333 58032 60037
AAXX 07064 91587 06/// /1912 10259 20162 30035 40079 55000 60001 333 58028 60007
AAXX 07064 91590 04986 /1706 10271 20176 30043 40085 56008 60002 700// 333 10279 20200 55094 60007 79999 90710 91112 555 60005
AAXX 07064 91592 06/// /1406 10264 20180 30006 40090 55007 60001 333 58027 60007
AAXX 07064 91596 06/// /1912 10253 20162 39976 40084 55003 60001 333 58026 60007
AAXX 07061 06431 NIL
AAXX 07061 06432 NIL
AAXX 07061 06449 11132 82307 10064 20057 39950 40180 57023 60022 75862 877// 333 20020 32001 82703 86704 91112 91209
AAXX 07061 06450 11235 82506 10081 20067 30140 40156 56023 60032 76162 877// 333 20041 32003 87705 91111 91207
AAXX 07061 06458 NIL
AAXX 07061 06465 NIL
AAXX 07061 06478 11259 82408 10061 20051 39949 40170 58023 60022 72165 876// 333 20021 32002 87705 91112 91209
AAXX 07061 06496 NIL
AAXX 07061 06400 11665 72709 10098 20084 30167 40178 55009 60012 70162 875// 333 20028 31004 81636 85656 91115 91212
AAXX 07061 06428 NIL
AAXX 07061 06451 11235 82407 10073 20064 30096 40164 56022 60012 76365 877// 333 20031 32003 83705 87706 91113 91209
AAXX 07061 06456 11241 82506 10054 20050 39816 40187 57021 60022 75162 877// 333 20015 31000 83703 85705 87707 91112 91208
AAXX 07061 06476 17/01 92404 10020 20018 39521 40197 57019 60012 76171 333 21001 3/000 91109 91205
AAXX 07061 06479 11350 82407 10072 20066 30074 40154 56027 60022 76166 887// 333 20029 32100 83706 87708 91112 91209
AAXX 07061 06490 17150 82406 10038 20030 39602 40180 58020 60012 76165 333 20009 3/001 87/02 88/03 91114 91207
AAXX 07061 06590 11150 72205 10021 20020 39748 40211 57022 69922 75165 876// 333 20009 31000 83702 87704 91108 91206
AAXX 07064 13600 12962 30904 10044 20002 30026 40079 52033 60002 83030 333 20040 30/// 83360
AAXX 07064 13610 12660 70412 10052 21049 39626 40051 52038 60042 87500 333 20010 31/// 87633
AAXX 07064 13611 12662 63604 10076 20037 39937 40027 52006 60002 84530 333 20065 31/// 84633
AAXX 07064 13619 11556 83628 10020 21033 39270 42674 52027 69902 77077 885// 333 21024 47001 88630
AAXX 07064 13622 11962 80412 10088 21040 30008 40015 52005 60002 70266 885// 333 20038 32/// 88681
AAXX 07064 13624 12965 83204 10058 20005 39968 40008 52028 60002 8801/ 333 20042 30/// 88460
AAXX 07064 13625 11657 83204 10065 21011 39735 49964 52035 60022 71022 885// 333 20028 31/// 88633
AAXX 07064 13629 11660 80408 11006 21012 38949 42624 52021 60022 77177 886// 333 21018 47018 88736
AAXX 07064 13601 12660 73316 10082 21056 39919 40019 52028 60002 84520 333 20078 31/// 84636 83459
AAXX 07064 13602 NIL
AAXX 07064 13623 11960 33206 10062 21065 30040 40047 52010 60022 70262 83030 333 20040 31/// 83360
AAXX 07061 06407 11565 72609 10089 20072 30167 40174 55009 60012 70165 868// 333 20020 32002 82820 85650 91115 91210
AAXX 07061 06447 NIL
AAXX 07064 78016 32664 73106 10176 20077 30221 40225 53002 87500 333 10194 20152 70048
BBXX A8CG7 07060 99343 31655 41597 52310 10223 40110 51010 7//// 84446 22274 29904 3//// 4//// 5////
BBXX C6CU6 07063 99076 70490 41597 50920 10270 20263 40120 57010 70211 843/5 22233 04274 20805 308// 41005 5//// 80265
AAXX 07061 03951 17659 /3107 10095 20047 30249 40276 53013 69922 7101/ 82/// 333 20091 3/007 82/32
AAXX 07061 03953 12665 83204 10091 20036 30243 40280 52010 69942 885// 333 20091 31007 55000 88630 92437
AAXX 07061 03955 11580 63007 10071 20038 30061 40262 53010 69902 70351 865// 333 20069 31004 55005 86626
AAXX 07061 03956 15664 /3105 10078 20022 30166 40244 51024 69912 87/// 333 20078 3/006 87/35
AAXX 07061 03962 11570 72706 10084 20052 30229 40253 50006 60032 70252 875// 333 20066 3/008 55000 81627 87633
AAXX 07061 03963 17561 /2810 10092 20047 30221 40250 52013 69912 7011/ 88/// 333 20088 3/008 88/26
AAXX 07061 03966 15665 /2806 10072 20031 30147 40241 50006 60012 87/// 333 20072 3/005 87/35
AAXX 07061 03967 12670 52509 10069 20042 30106 40221 52010 60012 85500 333 20067 31004 55001 85630
AAXX 07061 03969 12481 32608 10067 20039 30112 40217 53010 69932 83500 333 20065 31005 55005 81716
AAXX 07061 03973 12575 72807 10063 20029 39974 40232 51006 69942 875// 333 20063 3/004 55000 83625 86642
AAXX 07061 03976 NIL
AAXX 07061 03980 17565 /2913 10078 20044 30152 40177 53006 60022 72386 87/// 333 20068 3/005 81/22 87/50 90710 91120
AAXX 07064 89532 41/70 10303 11019 21047 39730 49757 56013 70240 81630 333 55219 23300
AAXX 07061 33135 31396 80000 10001 21005 39888 40070 52016 71042 886// 333 21002 88707
AAXX 07061 33317 31496 82905 10017 20001 39768 40108 52023 71022 885// 333 20002 88614
AAXX 07061 33345 NIL
AAXX 07061 33393 11660 82906 10000 21040 39745 40145 52015 69932 70282 885// 333 20000 88634
AAXX 07061 33506 11496 81802 10052 20050 39879 40074 52019 60062 76062 8772/ 333 20051
AAXX 07061 33587 NIL
AAXX 07061 33631 32697 73604 10024 21054 30003 40149 52019 87500 333 20018 87640
AAXX 07061 33663 32597 80000 10022 20009 30006 40103 52023 8653/ 333 20006 86627
AAXX 07061 33658 32497 83105 10025 20007 39816 40118 52019 886// 333 20018 88712
AAXX 07061 33711 11295 83604 10050 20048 39860 40068 52021 60092 76162 8772/ 333 20050 87706
AAXX 07061 33791 11650 80803 10049 20042 39914 40064 52012 60022 71022 8655/ 333 20049 86633
AAXX 07061 33837 11417 83502 10062 20060 39988 40039 52007 60122 76366 8672/ 333 20062
AAXX 07061 33924 NIL
AAXX 07061 33946 32997 81603 10087 20011 39819 40035 52014 8807/ 333 20041
AAXX 07061 34300 11650 71304 10033 20018 39900 40090 52013 60022 71062 83530 333 20033
AAXX 07061 34504 12997 61305 10020 20007 39896 40076 52010 60062 80001 333 20020
AAXX 07061 34519 32960 61306 10010 21010 39832 40110 52013 86030 333 20004
AAXX 07061 34601 12660 71303 10019 20010 39941 40078 52006 60022 84530 333 20013
AAXX 07064 48352 32966 61007 10285 20155 39979 40179 57033 80006 333 58008
BBXX 3EIZ7 07064 99389 70172 41/// 50519 10150 2//// 40310 57040 7//62 8//// 22235 0//// 2//// 3//// 4//// 5//// 6//// 8//// ICE /////
AAXX 07061 01361 16/// /0805 11054 21069 38900 49932 56020 60012 333 21078 4/087 70029 91108
AAXX 07061 01378 16/// /1501 11055 21062 39667 49964 57013 60022 333 21078 70015 91101
AAXX 07061 01422 16/// /1402 10042 20030 60052 333 20018 70060 91107
AAXX 07061 01477 16/// /0000 11017 21023 69962 333 21029 4/027 70006 91101
AAXX 07061 01373 11X11 90000 11066 21074 39756 49960 58021 60022 77372 333 21140 47028 70020 91101
AAXX 07061 01471 11419 80000 11022 21033 60022 77372 8772/ 333 21024 70019 91103
AAXX 07061 01150 16/// /0201 11185 21215 60002 333 21193 4/060 70000 91105
AAXX 07061 01230 16/// /2003 11045 21054 60012 333 21054 4/073 70153 91106
AAXX 07061 01254 16/// /1401 11105 21119 60002 333 21105 4/051 70000 91102
AAXX 07061 01291 16/// /2601 11178 21196 69942 333 21180 4/044 70031 91102
AAXX 07061 01386 16/// ///// 11055 21065 60002 333 21091 70000
AAXX 07061 01470 16/// /0000 10001 21003 39838 49953 57027 60012 333 21024 4/008 70011 91105
AAXX 07061 01023 11588 80000 11141 21151 39894 49994 57009 69912 71572 85578 333 21190 42002 70001 91102
AAXX 07061 01392 11677 80000 11076 21084 39746 49979 57015 60002 70221 888// 333 21082 43005 70000 91102
BBXX 44008 07061 99405 70692 46/// /2205 10111 20097 40096 57007 90550 22200 00102 10804 20502 323// 40804 70020 333 91206 555 11057 22064 30528 42206 60549 217052 217054 217055 222047 230042 230042
BBXX 44022 07061 99409 70737 46/// ///03 10074 20030 40082 57007 90600 22200 00057 333 91204 555 11041 22051
AAXX 07061 15015 01596 73600 11005 21007 39498 42715 53012 60002 7102/ 85570 333 10007 21006 34101 60007 70000 91001 91102 92600
AAXX 07061 15020 02597 83003 10022 20009 39904 40105 52018 60002 8557/ 333 10039 20006 31102 60007 70000 91007 91107
AAXX 07061 15090 02597 83402 10024 20005 39996 40090 51015 60002 8457/ 333 10044 20023 31001 55300 10068 20003 3//// 60007 70000 91006 91106
AAXX 07061 15108 01/91 92714 11089 21089 37958 48398 52006 60002 74944 333 11063 21089 3//// 44018 60007 70000 91020 92723 92873
AAXX 07061 15120 02597 73208 10009 20004 39600 40105 52012 60002 83570 333 10017 21005 31103 55300 10081 2//// 3//// 60007 70000 91012 91114 92600
AAXX 07061 15150 02497 83404 10030 20005 39873 40088 51018 69922 886// 333 10052 20029 31001 60007 70002 91007 91109
AAXX 07061 15170 02998 83604 10008 21033 39283 42691 51014 60002 8807/ 333 10011 21004 3/101 41998 60007 70000 91007 91107
AAXX 07061 15200 02998 73603 10016 21001 39984 40132 52025 60002 87070 333 10029 21003 31000 60007 70000 91006 91106
AAXX 07061 15230 02597 63203 10032 21011 39804 40101 53017 60002 86500 333 10040 21015 31102 55300 10103 20003 3//// 60007 70000 91007 91107 92600
AAXX 07061 15260 02997 83204 10013 21005 39559 40102 53020 60002 8807/ 333 10022 20001 31100 60007 70004 91007 91107
AAXX 07061 15280 01/90 90524 11131 21131 37307 47827 52003 60032 77174 333 11107 21133 3//// 49040 60017 70040 91034 92723 92818 92956 96039 96049
AAXX 07061 15292 02998 53405 10022 20004 39800 40099 52019 60002 85070 333 10027 20009 31000 60007 70000 91009 91109
AAXX 07061 15310 01496 80106 10027 20022 39962 40049 53018 60182 76166 8272/ 333 10060 20027 31003 55300 10057 20000 3//// 60067 70235 91013 91116 96010
AAXX 07061 15335 01496 80205 10049 20049 30018 40025 51018 60432 7616/ 8672/ 333 10079 20049 32005 6///7 70463 91010 91112 96010
AAXX 07061 15346 02597 80105 10057 21024 39744 40033 53035 60002 885// 333 10071 20055 31003 60007 70000 91010 91113
AAXX 07061 15350 01597 81108 10034 20014 39927 40048 53042 60012 70262 8802/ 333 10067 20033 31003 69947 70047 91016 91117
AAXX 07061 15360 01497 80510 10073 20069 39994 40008 53006 60112 76122 8672/ 222// 06068 20402 333 10087 20073 3//// 60097 70128 91012 91112 92437
AAXX 07061 15410 02597 83102 10059 21025 39950 40046 53029 60002 885// 333 10066 20042 31001 60007 70001 91004 91106
AAXX 07061 15420 01497 80408 10034 20017 39914 40026 53040 60202 76166 8572/ 333 10067 20032 31002 55300 0//// 20000 3//// 60067 70240 91015 91116
AAXX 07061 15450 01497 80104 10036 20024 39805 40041 53041 60032 76176 8672/ 333 10066 20036 31003 55300 10140 20003 3//// 60037 70049 91008 91110
AAXX 07061 15460 01497 80212 10033 20028 39984 40009 51047 60422 7616/ 8672/ 333 10082 20033 32003 60227 70528 91020 91122
AAXX 07061 15470 01497 80306 10025 20022 39906 40034 53053 60222 7616/ 8672/ 333 10071 20025 31002 6///7 70258 91010 91112
AAXX 07061 15480 01497 80206 10077 20077 39985 40002 53027 60192 72162 8672/ 222// 06068 2//// 333 10093 20077 32004 60017 70315 91010 91110 92437
AAXX 07063 91487 NIL
AAXX 07063 91490 NIL
AAXX 07063 91533 NIL
AAXX 07063 91601 NIL
AAXX 07063 91610 11499 41009 10284 20241 40082 53011 60001 70200 82201 333 562/9
AAXX 07063 91623 NIL
AAXX 07063 91629 NIL
AAXX 07063 91701 NIL
AAXX 07063 91487 NIL
AAXX 07063 91490 NIL
AAXX 07063 91533 NIL
AAXX 07063 91601 NIL
AAXX 07063 91610 11499 41009 10284 20241 40082 53011 60001 70200 82201 333 562/9
AAXX 07063 91623 NIL
AAXX 07063 91629 NIL
AAXX 07063 91701 NIL
BBXX C6JE5 07063 99236 50345 41/97 40515 10240 20194 40173 54000 70211 8//// 22273 04260 2//// 3//// 4//// 5//// 80210
BBXX DCPC2 07064 99261 11664 41699 52916 10240 20196 40180 54000 70222 85770 22264 00240 21204 329// 41204 5//// 80210
BBXX DCSL2 07064 99369 71474 41298 82025 10160 20160 40180 53020 70222 887// 22224 00157 20304 327// 40306 80160
AAXX 07064 63980 12470 30304 10290 20248 40137 69984 83802 333 20260 50300 55057 58006 81710 83816 943// 91114
AAXX 07061 37682 12997 23401 11044 21078 38101 48491 52006 60010 82048 333 21103 7001/
AAXX 07061 37717 12599 22107 11029 21075 38056 48484 52018 69950 82500 333 21050 7995/
AAXX 07061 37788 41995 20000 11032 21052 39221 40261 52017 71011 82030 333 21059
BBXX A8RW3 07063 99354 30118 41598 71810 10190 20142 40180 54000 70322 86462 22224 04200 21402 325// 41407 80160
BBXX DPTL 07064 99110 70173 41/97 31512 10260 20194 40100 56010 70200 83/// 22274 2//// 3//// 4//// 5//// 80215
BBXX V2JU 07060 99359 70063 41198 10905 10200 20193 40260 57000 7//42 8117/ 22264 20201 3//// 4//// 5//// 80195
BBXX C6QF4 07063 99355 11243 41197 53615 10025 40385 54000 70222 8/203 22233 06100 20403 333// 40101 5//// 6///0 ICE ////0
BBXX DGLM 07063 99038 10095 41996 19902 10265 20237 40111 53011 70500 80007 22200 299// 30000 80245
BBXX A8SG2 07061 99350 51790 41396 80521 10200 20192 40015 58023 78082 887// 22223 00190 20607 306// 41006 5//// 80195
BBXX A8VL7 07064 99161 70578 41697 50905 10250 20207 40145 58005 70322 83575 22274 04260 20804 335// 40804 80220
AAXX 07061 11010 11475 82506 10031 20005 39830 40216 57008 69952 70382 333 20014 31001 82816 85632 87656
AAXX 07061 11012 11762 82406 10021 20003 39745 40225 58003 69942 72162 8562/ 333 10025 20011 3/000 55300
AAXX 07061 11022 12567 72806 10029 21011 39792 40185 52002 60002 875// 333 10031 20015 3/001 55300 91115
AAXX 07061 11035 11683 72905 10038 21010 39933 40190 53004 69902 72522 875// 333 10044 20033 81640 86650 91114
AAXX 07061 11036 32684 73107 10041 21020 39963 40190 53004 333 20030 30003 81633 86656 91115 91210
AAXX 07061 11101 11675 62101 10030 21013 39740 40281 55003 69912 70262 86500 333 10035 20021 86635
AAXX 07061 11120 01157 49901 11019 21025 39534 40268 53003 60022 74074 333 21022 3/000 43014 69905 81703 84705
AAXX 07061 11126 17/// /3207 11116 21118 37719 48507 55002 60022 7//8/ 333 11096 21117 55300 91120
AAXX 07061 11130 17/// /2501 10005 20001 39646 40252 50007 60042 7408/ 333 10023 20003 3/000 55300
AAXX 07061 11146 NIL
AAXX 07061 11150 11570 82904 10031 21030 39690 40241 55003 69932 78082 333 20010 31001 83620 86627
AAXX 07061 11155 11/00 93109 11065 21075 38352 48484 52004 60072 77374 333 11054 21069 3/107 49125 55300 89/01 93130
AAXX 07061 11157 NIL
AAXX 07061 11172 NIL
AAXX 07061 11190 12665 32804 10043 21030 39953 40190 53006 69902 83500 333 10049 20025 3/101 55300 83638 91119
AAXX 07061 11204 32980 13102 11037 21080 39410 40234 53019 81040 333 10028 21042 47008 81363 93101 555 10020 6994/
AAXX 07061 11212 32388 23306 11094 21122 37786 48475 53010 81570 333 21094 42014 81607 91116
AAXX 07061 11231 32888 42803 11037 21052 39624 40219 53014 333 21044 3/108 42097 81857 84080
AAXX 07061 11240 32784 52802 10011 21031 39750 40199 52017 333 21005 34106 81850 83657 85075
AAXX 07061 11244 16/// /3401 11022 21046 39860 40201 53014 60002 333 10052 21035 55300
AAXX 07061 11389 12550 52305 10023 21001 39870 40203 57003 69902 855// 333 10031 20015 3/000 55300
AAXX 07061 01055 46/// /0804 10002 21016 39979 49997 55004 333 21011 91113
AAXX 07061 01367 16/// /0000 11049 21057 39513 49962 57019 6//// 333 21162 91103
AAXX 07061 01241 16/// /1307 11019 21048 39926 49938 57022 6//// 333 21034 91110
AAXX 07064 91930 36/// ///// 10243 20218 555 69944
AAXX 07064 91943 16/// /3410 10272 20219 30119 40121 51023 60024 333 20263 59011
AAXX 07061 89061 379// 02805 10005 21002 39837 49843 57006 73077 333 91007 91109
AAXX 07064 03808 11125 83017 10104 20101 30154 40261 57003 69922 886// 90550 333 20093 31009 55002 55300 20000 70004 88702
AAXX 07064 68024 32960 41206 10266 20145 48530 5//// 84080 333 20237
AAXX 07064 68026 33960 13605 10251 20174 48521 52013 81080 333 20174
AAXX 07064 68029 32960 21008 10245 20168 48528 52018 80002 333 20174
AAXX 07064 68030 32960 20708 10256 20143 48530 52018 80001 333 20192
AAXX 07064 68038 42960 20916 10272 20185 48542 51014 82070 333 20226
AAXX 07064 68040 32960 71014 10240 20167 48536 50005 87080 333 20225
AAXX 07064 68054 32960 21408 10226 20167 48557 50009 82080 333 20189
AAXX 07064 68226 32960 33608 10276 20126 48528 51010 83081 333 20223
AAXX 07064 68240 12960 30709 10228 20174 48540 52014 69904 83080 333 20194
AAXX 07064 68325 32960 53615 10225 20159 48532 52011 80004 333 20195
AAXX 07064 03301 16670 /2816 10082 20049 30133 40207 52005 69922 90550 333 20077 70006 87/39
AAXX 07064 03313 16671 /2817 10084 20036 30096 40191 55001 60002 90550 333 20081 3/006 70000 87/41 90710 91128 91027
AAXX 07064 03316 15661 /2720 10083 20055 30176 40187 53012 69922 90550 333 20082 3/007 70002 82/30 83/37 85/50 90710 91129
AAXX 07064 03318 16/// /2818 10081 20043 69922 90550 333 20076 70002 90710 91127
AAXX 07064 03321 16671 /2917 10090 20035 30174 40186 53002 69922 90550 333 20086 3/007 55/// 553// 20000 70002 87/46 90710 91125
AAXX 07064 03330 15664 /3019 10063 20027 39812 40176 51014 60052 90550 333 20058 3/005 70046 87/38 90710 91131 91029
AAXX 07064 03344 17461 /2813 10057 20030 39835 40156 53014 60022 781// 90550 333 20057 3/005 70024 83/19 85/41 90710 91125
AAXX 07064 03346 16/// /2830 10060 20029 69982 90550 333 20057 3/004 70008 90710 91143 91041
AAXX 07064 03348 15567 /2915 10081 20040 30070 40178 53008 60062 90550 333 20069 3/006 55011 55300 20000 70064 81/27 87/38 90710 91125
AAXX 07064 03355 17673 /2820 10082 20039 30135 40146 50009 69902 723// 90550 333 20073 3/006 55029 55300 20000 79999 81/39 85/50 90710 91129
AAXX 07064 03373 16663 /3118 10073 20030 30085 40155 51013 60002 90550 333 20061 3/005 70000 82/32 90710 91129
AAXX 07064 03379 16675 /2812 10081 20031 30086 40163 53012 60002 90550 333 20064 3/005 70000 82/33 85/43 90710 91129
AAXX 07064 03382 15668 /2711 10073 20041 30130 40139 51012 69902 90550 333 20065 3/005 55046 55300 20000 79999 81/39 83/44
AAXX 07064 03385 46669 /2715 10078 20040 30131 40141 51011 90550 333 20059 82/44 90710 91126
AAXX 07064 03391 11680 73015 10088 20022 30150 40158 53015 69902 70262 875// 90550 333 20060 31005 79999 87640 90710 91126
AAXX 07064 03392 16668 /2821 10083 20041 30148 40152 51014 60002 90550 333 20051 3/004 70000 81/40 88/49 90710 91128
AAXX 07064 03405 16674 /2924 10086 20036 30109 40226 52008 69982 90550 333 20082 3/007 55/// 553// 20000 70010 86/42 90710 91139
AAXX 07064 03409 16/// /2507 10072 20025 60032 90550 333 20072 3/005 55003 55300 2//// 70042 90710 91128
AAXX 07064 03410 16674 /2713 10058 20017 39760 40200 53016 60042 90550 333 20055 3/004 55/// 553// 20000 70050 87/32 90710 91127 91027
AAXX 07064 03469 17676 /2911 10082 20045 30157 40160 51016 69902 723// 90550 333 20055 3/004 55/// 553// 20000 79999 85/47
AAXX 07064 03488 15775 /2821 10085 20042 30119 40145 53012 69902 90550 333 20056 79999 85/50 90710 91133
AAXX 07064 03503 15666 /3110 10087 20035 30144 40222 53012 60012 90550 333 20086 3/007 70026 83/34 87/44
AAXX 07064 03507 15563 /2703 10064 20043 39845 40220 53012 60042 90550 333 20062 3/004 70058 87/21
AAXX 07064 03520 16667 /3012 10082 20021 30082 40204 53016 60002 90550 333 20078 3/005 55/// 553// 20000 70002 81/35 90710 91126
AAXX 07064 03522 15965 /2913 10085 20023 30113 40207 53013 69902 90550 333 20085 3/006 79999 8//99 90710 91128
AAXX 07064 03529 15672 /2917 10087 20035 30149 40193 52002 69902 90550 333 20074 3/006 79999 82/38 90710 91128
AAXX 07064 03544 15667 /2912 10082 20030 30054 40185 53013 60012 90550 333 20066 3/006 55/// 553// 20000 70014 87/45
AAXX 07064 03560 17578 /3023 10084 20034 30074 40178 53008 69922 723// 90550 333 20066 3/006 55/// 553// 20000 70002 81/28 83/35 86/48 90710 91133 91033
AAXX 07064 03604 16681 /3112 10094 20066 30182 40236 53009 60002 90550 333 20090 3/007 70000 87/37
AAXX 07064 03605 16965 /2918 10093 20044 30226 40234 53011 60002 90550 333 20093 70002 8//99 90710 91126
AAXX 07064 03609 16/// /2918 10094 20056 30173 40226 53002 69922 90550 333 20094 3/008 70006 90710 91128 91028
AAXX 07064 03628 15684 /2910 10105 20060 30137 40209 53005 69922 90550 333 20079 3/008 55025 55300 20000 70002 86/30 83/46
AAXX 07064 03647 16678 /3121 10082 20018 39932 40188 53004 69922 90550 333 20067 3/005 55/// 553// 20000 70002 83/39 90710 91131
AAXX 07064 03658 16679 /2510 10100 20076 30121 40191 55000 60002 90550 333 20073 3/007 70000 81/43 87/49
AAXX 07064 03660 15582 /2911 10088 20078 39936 40185 55000 69902 90550 333 20065 3/005 79999 84/29 86/41
AAXX 07064 03672 16787 /2812 10100 20071 30143 40183 57001 60002 90550 333 20078 3/006 70000 81/56
AAXX 07064 03684 17782 /2713 10091 20069 30061 40167 53002 69902 723// 90550 333 20058 3/005 79999 86/56
AAXX 07064 03693 16481 /2714 10101 20077 30166 40168 56007 60002 90550 333 20066 3/005 70000 81/18
AAXX 07064 03710 16274 /3022 10073 20073 39798 40222 56005 60032 90550 333 20070 3/006 55/// 553// 20000 70038 81/03 87/10 90710 91138 91033
AAXX 07064 03743 16476 /2708 10092 20078 30043 40205 56002 60002 90550 333 20070 3/007 70000 81/14 84/44
AAXX 07064 03749 16477 /2815 10099 20078 30092 40202 56006 60002 90550 333 20076 3/006 70000 81/17 86/35 90710 91125
AAXX 07064 03761 11475 62615 10095 20072 30049 40193 56007 69902 70252 85501 90550 333 20069 31006 55047 55300 20000 79999 82713 85650
AAXX 07064 03768 16980 /2711 10097 20075 30113 40193 56005 60002 90550 333 20076 3/007 70000 8//99
AAXX 07064 03769 17481 /2307 10092 20084 30108 40190 56006 6///2 723// 90550 333 20070 3/005 55060 55300 20000 7//// 82/18
AAXX 07064 03770 16/// ///// 10097 20079 60002 90550 333 20081 3/006 70000
AAXX 07064 03781 15483 /2613 10086 20076 39979 40187 56003 60002 90550 333 20066 3/005 55/// 553// 20000 70000 83/10 83/16
AAXX 07064 03797 15584 /2718 10103 20073 30115 40175 55006 60002 90550 333 20047 3/003 55062 55300 20000 70000 84/22 83/29 90710 91125
AAXX 07064 03823 17/05 /3017 10095 20095 30000 40245 56003 60032 731// 90550 333 20084 3/008 55/// 553// 20000 70036 90710 91129
AAXX 07064 03839 16/// ///// 10110 20101 69922 90550 333 20091 55/// 553// 20000 70002
AAXX 07064 03857 15361 /2821 10104 20101 30160 40224 55006 69922 90550 333 20098 3/009 70002 85/08 85/12 90710 91131
AAXX 07064 03862 17480 /2911 10099 20086 30202 40215 55004 69902 723// 90550 333 20081 3/006 55/// 55300 20000 7//// 84/16
AAXX 07064 03866 16/// /2717 10101 20088 30186 40211 55006 60002 90550 333 20095 3/009 70000 90710 91128
AAXX 07064 03872 15482 /2609 10099 20087 30201 40206 55003 60002 90550 333 20085 3/008 55/// 553// 20000 70000 87/16
AAXX 07064 03876 16/// /2711 10096 20089 30198 40201 55004 60002 90550 333 20079 70000
AAXX 07064 03895 41358 82818 10103 20091 40256 57008 75052 887// 333 20096 86706 90710 91129 91028
AAXX 07064 03008 16/// /2922 10062 20019 39907 49976 57002 60012 90550 333 20059 70020 90710 91143 91035
AAXX 07064 03010 46/// /2834 10077 20043 40017 51003 333 90710 91153
AAXX 07064 03014 46/// /3034 10020 21012 49961 58007 90550 333 8//// 90710 91146
AAXX 07064 03031 17450 /2817 10030 20015 39754 40084 52010 60062 782// 90550 333 20023 3/001 55/// 553// 20000 70078 82/18 83/32 90710 91135
AAXX 07064 03034 17562 /2816 10064 20030 30074 40088 51010 60042 781// 90550 333 20049 3/002 70098 81/21 86/50 90710 91131 91029
AAXX 07064 03037 17662 /3112 10069 20035 30088 40110 51008 60032 723// 90550 333 20058 3/004 70114 81/30 87/56 90710 91129
AAXX 07064 03039 46/// /3028 10000 21031 90550 333 21005 90710 91139
AAXX 07064 03041 46/// /2625 11020 21020 90550 333 21024 90710 91149 91041
AAXX 07064 03044 17559 /2922 10046 20025 39950 40050 52006 60022 782// 90550 333 20031 3/002 55/// 553// 20000 70020 86/21 83/50 90710 91138
AAXX 07064 03047 17424 /2909 10036 20018 39809 40115 52014 60062 782// 90550 333 20034 3/002 55/// 553// 20000 70084 85/13 85/29 90710 91126 91020
AAXX 07064 03062 17480 /2408 10045 20018 30062 40067 50006 60022 781// 90550 333 20044 3/003 55/// 553// 20000 70018 85/18 84/50
AAXX 07064 03065 46/// /2848 11036 21039 90550 333 21037 90710 91172 91067
AAXX 07064 03068 11570 72720 10057 20019 30056 40064 53003 60012 78081 878/2 90550 333 20050 31002 70014 82824 86650 90710 91128
AAXX 07064 03080 15682 /2812 10055 20003 39903 40074 53008 69902 90550 333 20042 3/002 79999 83/31 90710 91129
AAXX 07064 03088 17681 /2506 10053 20013 39909 40073 55001 69902 723// 90550 333 20044 3/002 55/// 553// 20000 79999 87/39
AAXX 07064 03094 15562 /2729 10063 20026 30038 40043 53001 69942 90550 333 20049 3/004 70006 81/22 90710 91142
AAXX 07064 03105 17559 /2924 10074 20042 30143 40160 52008 60022 723// 90550 333 20065 3/005 70038 81/28 86/50 90710 91137
AAXX 07064 03132 15770 /3020 10069 20043 30149 40163 53008 60012 90550 333 20069 3/005 70018 82/56 90710 91131
AAXX 07064 03144 17982 /2615 10065 21001 30060 40103 52013 69902 723// 90550 333 20061 3/004 55/// 553// 20000 70002 8//99 90710 91128 91028
AAXX 07064 03148 46/// /2827 10014 21002 90550 333 20010 90710 91149 91037
AAXX 07064 03153 17967 /2920 10059 20031 30006 40145 50006 69982 723// 90550 333 20059 3/004 55/// 553// 20000 70020 81/74 90710 91131
AAXX 07064 03155 16576 /2718 10049 20019 39824 40124 53005 69962 90550 333 20046 3/003 70010 83/21 85/30 85/56 90710 91139 91028
AAXX 07064 03158 17980 /2715 10058 20024 39967 40104 52001 69922 723// 90550 333 20054 3/004 55/// 553// 20000 70002 8//99 90710 91125
AAXX 07064 03210 16564 /2924 10067 20040 30009 40162 52007 69942 90550 333 20063 3/005 70022 84/20 83/28 90710 91133
AAXX 07064 03212 17567 /2913 10068 20040 30053 40153 53007 6///2 723// 90550 333 20063 3/005 7//// 82/20 85/50 90710 91129 91023
AAXX 07064 03214 15567 /2824 10077 20043 30143 40161 51006 69902 90550 333 20075 3/006 70006 81/29 86/36 90710 91133
AAXX 07064 03220 16580 ///// 10069 20044 30106 40140 53005 69942 90550 333 20065 3/005 70010 83/29 85/35
AAXX 07064 03224 17561 /2620 10042 20032 39781 40130 51008 60012 782// 90550 333 20042 3/003 70024 85/21 85/27 90710 91126
AAXX 07064 03225 16566 /2917 10061 20016 39839 40147 52002 60022 90550 333 20055 3/003 55/// 553// 20000 70026 86/27 83/50 90710 91131 91027
AAXX 07064 03226 15581 /3017 10055 20031 39861 40139 53002 69982 90550 333 20053 3/004 70008 82/24 83/34 85/50 90710 91131
AAXX 07064 03227 46/// /2841 10003 21017 90550 333 20003 90710 91157 91052
AAXX 07064 03230 16680 /2908 10058 20016 39861 40119 53005 69962 90550 333 20051 3/003 70008 81/30 86/35 91018
AAXX 07064 03238 17563 /2818 10054 20036 39940 40115 53003 69902 781// 90550 333 20053 3/004 70002 81/28 85/40 90710 91127
AAXX 07064 03261 16670 /2913 10070 20030 30103 40144 53007 60002 90550 333 20066 3/005 79999 81/44 84/50
AAXX 07064 03265 17667 /2909 10076 20033 30115 40146 53011 69902 723// 90550 333 20075 3/006 70002 85/37 87/46
AAXX 07064 03266 16770 /2809 10072 20031 30126 40144 53012 60002 90550 333 20068 3/005 70000 82/50
AAXX 07064 03275 15774 /2723 10055 20023 39930 40124 53008 69902 90550 333 20053 3/004 79999 81/50 90710 91132
AAXX 07064 03281 16/// /2512 10056 20029 69922 90550 333 20047 70002 91023
AAXX 07064 03903 16662 /3014 10071 20045 30148 40206 53007 69962 90550 333 20069 3/005 55/// 553// 20000 70018 81/36 83/46
AAXX 07064 03904 17562 /2809 10074 20035 30138 40198 53007 69982 781// 90550 333 20069 3/005 70016 83/29 83/50 91020
AAXX 07064 03907 15672 /2718 10070 20027 30175 40182 53009 69922 90550 333 20068 3/005 55000 55300 20000 70010 83/34 90710 91132
AAXX 07064 03911 16480 /2922 10055 20035 39910 40187 53010 60012 90550 333 20053 3/003 70028 81/17 83/25 90710 91129
AAXX 07064 03915 16579 /2809 10063 20050 30104 40184 53011 69922 90550 333 20061 3/003 70002 84/21 85/50
AAXX 07064 03916 16677 /3309 10061 20034 39979 40171 51008 60042 90550 333 20054 3/004 55/// 553// 20000 70052 81/35 85/50 90710 91127 91019
AAXX 07064 03923 17465 /3114 10061 20034 39995 40194 53010 60012 781// 90550 333 20058 3/003 70014 82/19 83/31
AAXX 07064 43533 12465 20908 10300 20246 30144 40147 60001 81202 333 58003 81818
AAXX 07064 43555 12465 71107 10278 20245 30140 40143 60001 86430 333 58004 83818 83622
AAXX 07064 43577 12472 31105 10300 20244 30138 40140 60001 82242 333 58004 82818
AAXX 07064 43588 12468 31404 10302 20239 30135 40137 60001 82201 333 58005 82818
AAXX 07064 43599 12465 11604 10303 20235 30136 40138 60001 81100 333 58001 81819
AAXX 07064 43533 12465 20908 10300 20246 30144 40147 60001 81202 333 58003 81818
AAXX 07064 43555 12465 71107 10278 20245 30140 40143 60001 86430 333 58004 83818 83622
AAXX 07064 43577 12472 31105 10300 20244 30138 40140 60001 82242 333 58004 82818
AAXX 07064 43588 12468 31404 10302 20239 30135 40137 60001 82201 333 58005 82818
AAXX 07064 43599 12465 11604 10303 20235 30136 40138 60001 81100 333 58001 81819
BBXX PCHM 07064 99226 31674 41598 22019 10240 20176 40077 56000 70100 8214/ 22200 00250 29901 399// 4//01 80200
BBXX NWS0029 07064 99415 70707 43/// /2307 10090 20048 40076 5//// 7//// 8//// 222// 04057 2//// 3//// 4//// 5//// 6//// 8//// ICE /////
BBXX KAOU 07064 99078 10984 43/// /1003 10275 20204 40134 5//// 7//// 8//// 222// 04290 2//// 3//// 4//// 5//// 6//// 8//// ICE /////
BBXX NWS0003 07064 99607 71680 43/// /1804 11213 21248 40053 5//// 7//// 8//// 222// 0//// 2//// 3//// 4//// 5//// 6//// 8//// ICE /////
BBXX C6WK7 07064 99326 70164 41698 60320 1//// 2//// 40280 54/// 7//22 866// 22254 00170 20301 3//// 40301 5//// 6//// 8//// ICE /////
BBXX NWS0020 07064 99243 70818 43/// /0313 10198 20133 40204 5//// 7//// 8//// 222// 04258 2//// 3//// 4//// 5//// 6//// 8//// ICE /////
BBXX A8TG2 07063 99258 71559 41/// /0510 10220 20189 40200 50000 7//11 8//// 22263 00180 21001 30229 41506 51806 80200
BBXX PBAD 07061 99254 70779 41298 61905 10210 20100 40206 57008 70022 864// 22224 00250 20000 300// 4//// 5//// 80150
BBXX WZJC 07064 99269 70900 41398 71609 10211 2012/ 40180 52003 70222 8781/ 22233 00222 2//// 3//// 4//// 5//// 6//// 80156 ICE /////
BBXX WXJ63 07063 99611 71464 41/97 70403 11070 21109 49992 5//// 702// 8//// 222// 00044 2//// 3//// 4//// 5//// 6//// 8//// ICE /////
BBXX WE3806 07064 99441 70825 41/97 82712 10044 2//// 40030 54/// 70311 8//// 22233 00056 20502 3//// 4//// 5//// 6//// 8//// ICE /////
BBXX 9V7645 07063 99541 71627 41593 80140 11045 21050 49852 52050 75677 887// 22264 04040 2//// 3//// 4//// 5//// 6//// 81045 ICE /////
BBXX WQZ9670 07064 99472 70900 43/95 /3333 11005 2//// 40058 5//// 7//// 8//// 22263 0//// 2//04 3//// 4//// 5//// 6//// 8//// ICE /////
BBXX WL3108 07064 99466 70871 41/99 73224 10000 2//// 49997 54/// 70222 8//// 22263 00039 20603 3//// 4//// 5//// 6//// 8//// ICE /////
BBXX 46089 07061 99459 71258 46/// /3303 10094 20052 40256 51015 90550 22200 00091 11106 20401 329// 41106 70029 333 91204 555 11029 22032 30530 43105 60549 324026 314034 309038 311027 308028 314030
BBXX 46053 07061 99342 71198 46/// /0503 10138 40150 52009 90550 22200 00141 11506 20301 329// 41505 70028 333 91204 555 11027 22028 30546 40604 60549 050026 044027 048020 049018 044017 040016
BBXX 46042 07061 99368 71224 46/// /3510 10113 40203 53006 90550 22200 00114 11509 20804 331// 41508 70044 333 91212 555 11102 22108 30506 43513 60549 346096 346094 346095 347105 344105 344112
BBXX 46083 07061 99582 71380 46/// /2307 10028 20010 40018 51023 90550 22200 00067 11208 20603 300// 41208 70040 333 91209 555 11074 22078 30500 42411 60549 228069 243072 240079 239082 241087 236085 82409 90506
BBXX 46001 07061 99563 71480 46/// /1018 10001 49863 56091 90550 22200 00039 10708 20707 300// 41103 70039 333 91222 555 11189 22201 30504 40922 60549 095177 090173 090176 089172 088177 086178
BBXX MGRH9 07064 99266 31532 41597 41310 10255 20202 40125 57011 7//11 845// 22200 00245 20000 310// 40801 5//// 80220
BBXX PBOF 07063 99049 11409 41693 60916 10290 20222 40060 55/// 70311 8/3// 22234 04270 20802 80241 91255
BBXX A8KX4 07064 99102 31686 41597 82515 10270 20243 40055 54000 78186 888// 22275 04297 2//02 80250
BBXX PFBF 07063 99136 31723 41397 33506 10290 20277 40058 58002 70311 8247/ 22263 20610 336// 40712 5//// 80280
BBXX PHDL 07063 99442 70211 41598 71508 10150 20116 40360 56005 70222 85560 22213 00143 20301 399// 4//04 80130 91255
BBXX PCBT 07060 99459 70126 41598 8//// 10129 20077 40343 51002 7//// 885// 22254 20101 399// 4//03 80101
BBXX PCGM 07063 99555 10065 41396 82822 10100 20077 40019 57025 76055 887// 22213 20606 80088
BBXX UBEF5 07061 99712 10285 41/98 90910 11010 40001 54000 70010 89/// 22233 00060 2////
BBXX PDHW 07063 99494 70084 41/98 /2716 10122 20101 40290 57010 70222 8//// 22223 00100 2//// 80110
BBXX PBEN 07063 99360 70045 41/97 90605 10148 20133 40272 52002 7//22 89/// 22263 04174 20400 30000 80139
BBXX OXOR2 07064 99330 10272 41598 62033 10162 20082 40052 56020 70222 8457/ 22264 00184 20606 329// 40808 80118
BBXX 41041 07061 99142 70460 46/// /0707 10255 20198 40146 58015 90550 22200 00260 11405 20603 3//// 41404 70023 333 91209 555 11075 22080 30535 40709 60549 074070 072072 082072 077073 078077 075073 80708 90502
BBXX 41038 07061 99341 70777 46/// /2406 10138 40165 58010 90600 22200 00121 333 91207
BBXX 44022 07061 99409 70737 46/// ///04 10076 20029 40083 90545 22200 00057 333 91204 555 11046 22051
BBXX 44040 07061 99410 70736 46/// /2404 10083 20022 40087 90545 22200 1//00 70000 333 91205 555 11057 22067
AAXX 07061 26554 11962 02403 11020 21039 39875 40041 52015 69942 70281 333 21020 43004 555 90012
AAXX 07061 26666 11360 72603 10002 21015 39825 40042 52025 69932 72675 87600 333 20001 43004 87708 87619 555 90012
AAXX 07061 26850 11559 82801 11006 21021 39791 40067 52020 69932 77187 8553/ 333 21007 47004 85622 555 90010
AAXX 07061 26863 11240 82805 10005 21001 39810 40048 52018 69932 77172 8872/ 333 20004 88705
AAXX 07061 26941 32560 33103 11014 21034 39852 40094 52019 83500 333 21015 43002 91110 555 90010
AAXX 07061 26951 32565 73004 10004 21010 39877 40079 52026 875// 333 20004 87631 555 90011
AAXX 07061 33008 12962 02502 11012 21031 39939 40121 52012 69902 333 21012 555 90010
AAXX 07061 33019 11660 72503 10004 21016 39926 40104 52021 69932 70276 875// 333 20003 87649 555 90010
AAXX 07061 33036 31258 82201 10015 20011 39845 40078 52024 71022 886// 333 21015 88704 555 90011
AAXX 07061 33041 31356 82402 10014 20009 39908 40064 52019 71022 886// 333 20007 88707 555 90011
BBXX 51000 07061 99235 71541 46/// /0906 10224 40208 52005 90550 22200 00233 11905 20501 332// 41904 70023 333 91207 555 11062 22065 30528 41007 60549 090058 091057 090054 092051 088049 088047
BBXX 51003 07061 99193 71606 46/// /0503 10240 40192 53011 90550 22200 00252 11905 20301 3//// 41905 70025 333 91204 555 11034 22035 30455 40605 60549 050033 048035 047034 051039 059035 060037
AAXX 07064 70026 NIL
AAXX 07064 70133 NIL
AAXX 07064 70174 NIL
AAXX 07064 70200 NIL
AAXX 07064 70219 NIL
AAXX 07064 70231 NIL
AAXX 07064 70261 NIL
AAXX 07064 70267 NIL
AAXX 07064 70271 NIL
AAXX 07064 70273 NIL
AAXX 07064 70308 NIL
AAXX 07064 70316 NIL
AAXX 07064 70326 NIL
AAXX 07064 70340 NIL
AAXX 07064 70350 NIL
AAXX 07064 70361 NIL
AAXX 07064 70381 NIL
AAXX 07064 70398 NIL
AAXX 07064 70414 NIL
BBXX C6QF4 07063 99355 11243 41197 53615 10025 40385 54000 70222 8/203 22233 06100 20403 333// 40101 5//// 6///0 ICE ////0
BBXX DCPC2 07064 99261 11664 41699 52916 10240 20196 40180 54000 70222 85770 22264 00240 21204 329// 41204 5//// 80210
BBXX A8UT8 07064 99116 11205 41198 70522 10290 20216 40120 55010 70322 87778 22283 20604 305// 40804 80240
BBXX C6FY8 07063 99412 11493 41898 33419 10010 2102/ 40150 5//// 70110 832// 22223 0//// 20602 333// 41006 5//// 6//// 80000 ICE /////
BBXX S6JU 07064 99502 11785 41397 70616 11010 21030 40065 52030 70323 8742/ 22254 04010 2//// 3//// 4//// 5//// 6//// 81015 ICE /////
BBXX WDB3161 07064 99380 11471 41498 63124 10060 2099/ 40160 54000 70222 867// 22214 00130 20805 333// 41007 5//// 6//// 81030 ICE /////
BBXX 46070 07061 99551 11753 46/// /2910 11020 21087 40038 57003 90550 22200 00026 10604 20604 3//// 40901 70021 333 91214 555 11109 22114 30524 43015 60549 294105 293116 296110 302114 281096 272088 82913 90533
BBXX LAYG5 07064 99466 11671 41598 73505 10030 21020 49990 51000 70322 875// 22213 00066 20602 328// 41404 80010
BBXX DGLM 07063 99038 10095 41996 19902 10265 20237 40111 53011 70500 80007 22200 299// 30000 80245
BBXX A8RW3 07063 99354 30118 41598 71810 10190 20142 40180 54000 70322 86462 22224 04200 21402 325// 41407 80160
BBXX DPTL 07064 99110 70173 41/97 31512 10260 20194 40100 56010 70200 83/// 22274 2//// 3//// 4//// 5//// 80215
BBXX C6JE5 07063 99236 50345 41/97 40515 10240 20194 40173 54000 70211 8//// 22273 04260 2//// 3//// 4//// 5//// 80210
BBXX OVYB2 07061 99038 30606 41699 20303 10283 20225 40159 51010 70200 824// 22214 00290 20200 315// 41003 5//// 80243
BBXX DPKZ 07063 99205 70175 41/98 /0110 10180 20155 40185 57010 7//22 8//// 22244 299// 80165
BBXX HZGN 07063 99240 10664 41/// 13106 10230 20042 40203 51034 70100 81//5 22264 02242 20100 331// 40502 5//// 80130
BBXX DBLK 07061 99339 30184 41/97 /3203 10187 20140 40139 52007 7//// 22200 04152
BBXX BATFR19 07064 99061 30059 46/// /2109 10247 20209 40129 53011 22200 00257
BBXX BATFR08 07064 99471 30578 46/// /3533 10092 20072 40000 58044 22223 00079
BBXX 32012 07061 99197 50856 46/// ///// 1//// 90550 22200 11404 70022
BBXX A8VL7 07064 99161 70578 41697 50905 10250 20207 40145 58005 70322 83575 22274 04260 20804 335// 40804 80220
BBXX DCSL2 07064 99369 71474 41298 82025 10160 20160 40180 53020 70222 887// 22224 00157 20304 327// 40306 80160
BBXX OZBY2 07064 99344 71267 43/// /0128 1//// 2//// 4//// 5//// 7//// 8//// 22211 0//// 2//// 3//// 4//// 5//// 6//// ICE /////
BBXX 9HXD9 07064 99121 70823 41597 70423 10278 2//// 40110 54000 70322 8712/ 22254 00288 2//// 3//// 4//// 5//// 6//// 8//// ICE /////
BBXX VQAJ8 07063 99385 71225 41/97 81215 10052 20020 40272 54000 70222 88/// 22200 00085 20501 300// 40000 5//// 80039
BBXX WDC6736 07064 99394 70542 41298 63016 10150 2010/ 40150 54000 70222 86200 22224 00220 20404 332// 40805 5//// 6//// 80120 ICE /////
BBXX KABP 07063 99427 70503 43/95 /0319 10150 2010/ 40130 52050 7//// 8//// 22211 0//// 2//// 3//// 4//// 5//// 6//// 80120 ICE /////
BBXX J8PE4 07063 99158 70638 414// 60712 10270 2020/ 40160 51010 70311 86188 22274 00280 20503 307// 40302 5//// 6//// 80220 ICE /////
BBXX C6UZ7 07064 99238 70721 41/// /0713 10220 20190 40190 54000 7//// 8//// 22274 00250 2//// 3//// 4//// 5//// 6//// 80200 ICE /////
BBXX DANM 07064 99403 70597 41698 62812 10116 20028 40158 57003 70311 8213/ 22224 00180 2//// 80074
BBXX WCX8882 07064 99430 71428 41295 81937 10125 2010/ 40128 52028 76022 8892/ 22234 00100 20610 322// 40810 5//// 6//// 80110 ICE /////
BBXX OUJS2 07063 99377 71320 43999 11705 10140 2006/ 40340 54000 7//// 81/// 22211 00130 21201 3//// 4//// 5//// 6//// 80100 ICE /////
BBXX ICGU 07064 99159 70615 41797 60817 10260 20202 40150 54/// 70322 869// 22253 04270 21001 30910 41201 51401 6//// 85220 ICE /////
BBXX SHIP 07064 99315 71326 41597 80611 10150 2013/ 40320 51010 70322 8799/ 22263 00190 2//// 3//// 4//// 5//// 6//// 80140 ICE /////
BBXX ZCDF4 07063 99115 70744 41998 20823 10250 20238 40128 56011 70100 80004 22255 00260 20401 305// 40503 5//// 80242
BBXX 44022 07061 99409 70737 46/// ///03 10074 20030 40082 57007 90600 22200 00057 333 91204 555 11041 22051
BBXX 44008 07061 99405 70692 46/// /2205 10111 20097 40096 57007 90550 22200 00102 10804 20502 323// 40804 70020 333 91206 555 11057 22064 30528 42206 60549 217052 217054 217055 222047 230042 230042
BBXX 44011 07061 99411 70666 46/// /2306 10106 20087 40094 57006 90550 22200 00086 10703 20602 3//// 40702 70014 333 91207 555 11068 22077 30532 40507 60549 228062 227065 228064 228061 229062 228065
BBXX 41046 07061 99238 70683 46/// /0806 10230 20136 40202 58012 90550 22200 00248 11103 20602 300// 41103 70017 333 91208 555 11066 22069 30543 40808 60549 081063 071065 073065 071060 073062 075060 80707 90528
BBXX 46239 07061 99363 71221 46/// ///// 1//// 90551 22200 00113 11509 20905 330// 41507 70045
BBXX 46238 07061 99334 71195 46/// ///// 1//// 90550 22200 00135 11507 21004 328// 41505 70034
BBXX 44099 07061 99369 70757 46/// ///// 1//// 90552 22200 00088 10501 20501 70007
BBXX 44039 07061 99411 70727 46/// /2205 10081 20046 40088 90545 22200 00067 10301 70003 333 91206
BBXX 46229 07061 99438 71246 46/// ///// 1//// 90551 22200 00096 11206 21004 328// 41204 70030
BBXX 46215 07061 99352 71209 46/// ///// 1//// 90538 22200 00122 11506 21004 326// 41505 70031
BBXX 46225 07061 99329 71174 46/// ///// 1//// 90544 22200 00152 11304 21002 327// 41303 70018
BBXX 46236 07061 99368 71219 46/// ///// 1//// 90550 22200 00118 11407 21004 327// 41406 70034
BBXX 46213 07061 99403 71247 46/// ///// 1//// 90554 22200 00107 11307 21005 330// 41306 70037
BBXX 46247 07061 99378 71228 46/// ///// 1//// 90551 22200 00113 11407 20904 329// 41406 70036
BBXX 46243 07061 99462 71241 46/// ///// 1//// 90559 22200 00091 11305 21004 326// 41303 70025
BBXX 46232 07061 99325 71174 46/// ///// 1//// 90538 22200 00147 11705 20903 328// 41704 70025
BBXX 42099 07061 99273 70842 46/// ///// 1//// 90557 22200 00228 10602 20602 70009
BBXX 41113 07061 99284 70805 46/// ///// 1//// 90551 22200 00190 11101 21001 70005
BBXX 41110 07061 99341 70777 46/// ///// 1//// 90551 22200 00120 10502 20501 70008
BBXX 41112 07061 99307 70813 46/// ///// 1//// 90551 22200 00148 11101 21001 311// 41101 70006
BBXX 44100 07061 99363 70756 46/// ///// 1//// 90552 22200 00099 10502 20502 70009
BBXX 44097 07061 99410 70711 46/// ///// 1//// 90602 22200 00100 10804 20804 70021
BBXX 44172 07061 99445 70634 46/// ///// 1//// 90601 22200 00055 10802 20802 315// 41101 70011
BBXX 46061 07061 99602 71468 46/// /0407 11028 49983 58008 90550 22200 00035 11305 20602 300// 41305 70025 333 91208 555 11071 22074 30547 40308 60549 038068 040064 041060 037065 035063 036066
BBXX 41010 07061 99289 70785 46/// /2305 10203 40210 58009 90550 22200 00230 11001 20401 300// 41001 70007 333 91206 555 11054 22056
BBXX 42057 07061 99168 70815 46/// /0508 10262 20198 40163 58008 90550 22200 00269 10804 20603 3//// 40802 70020 333 91210 555 11084 22089 30450 40611 60549 050085 053088 046086 051085 050091 050090 80410 90531
BBXX 41009 07061 99285 70802 46/// /2006 10196 20113 40213 58010 90550 22200 00218 11001 20501 300// 41001 70006 333 91207 555 11065 22068
BBXX DHDM 07064 99544 71604 41/95 /3653 11020 21020 49760 58030 73977 8//// 22213 04030 20516 3//// 4//// 5//// 61/// 81020
BBXX WZJC 07064 99269 70900 41398 71609 10211 2012/ 40180 52003 70222 8781/ 22233 00222 2//// 3//// 4//// 5//// 6//// 80156 ICE /////
BBXX C6FU4 07064 99254 70758 41898 50612 10210 20146 40220 54/// 7//11 8546/ 22274 00240 20202 3//// 4//// 5//// 6//// 80170 ICE /////
BBXX 9V7645 07063 99541 71627 41593 80140 11045 21050 49852 52050 75677 887// 22264 04040 2//// 3//// 4//// 5//// 6//// 81045 ICE /////
BBXX PBAD 07061 99254 70779 41298 61905 10210 20100 40206 57008 70022 864// 22224 00250 20000 300// 4//// 5//// 80150
BBXX CGDG 07064 99447 70636 46/// /0801 11036 21034 40115 58023 7//// 8//// 22200 0//// 2////
BBXX CGBY 07064 99487 71235 46/// /1006 10048 20028 40266 51012 7//// 8//// 22200 0//// 2////
BBXX CG2958 07064 99500 71272 46/// /0905 10052 20046 40244 51017 7//// 8//// 22200 0//// 2////
BBXX CGCC 07064 99463 70725 46/// /0703 11086 21093 40051 56009 7//// 8//// 22200 0//// 2////
BBXX CGTF 07064 99476 70527 46/// /1808 11060 21116 40098 51014 7//// 8//// 22200 0//// 2////
BBXX CGBN 07064 99475 70527 46/// /2915 11055 21110 40093 51013 7//// 8//// 22200 0//// 2////
BBXX CGUM 07064 99447 70625 46/// /1509 11013 21052 40129 56023 7//// 8//// 22252 0//// 2////
BBXX VOKJ 07064 99464 70724 46/// /0409 11081 21089 40049 58007 7//// 8//// 22212 0//// 2////
BBXX CGDT 07064 99463 70725 46/// /0804 11078 21085 40051 57008 7//// 8//// 22200 0//// 2////
BBXX VCBW 07064 99488 70644 46/// /2509 11136 21177 40111 55003 7//// 8//// 22200 0//// 2////
BBXX CGDX 07064 99468 70712 46/// /0509 11083 21097 40068 56008 7//// 8//// 22200 0//// 2////
BBXX VOKF 07064 99490 70669 46/// /1706 11122 21175 40108 56012 7//// 8//// 22200 0//// 2////
BBXX VXKF 07064 99468 70601 46/// /2411 11060 21108 40127 56012 7//// 8//// 22283 0//// 2////
BBXX VAAP 07064 99495 70607 46/// /2923 11082 21098 40084 53007 7//// 8//// 22262 0//// 2////
BBXX VOPP 07064 99456 70735 46/// /3102 11089 21090 4//// 5//// 7//// 8//// 22200 0//// 2////
BBXX VOFG 07064 99456 70614 46/// /0901 11075 21115 40144 58002 7//// 8//// 22200 0//// 2////
AAXX 07064 04005 NIL
AAXX 07064 04018 41465 82717 10028 20015 49979 52048 71582 888// 555 3//22 82711 84819 88623
AAXX 07064 04030 41466 73011 10027 20022 49973 52049 78086 8683/ 555 3//12 82812 84624 86637
AAXX 07064 04048 NIL
AAXX 07064 04063 41450 83004 10006 21010 49968 52043 76877 889// 555 3//05
AAXX 07064 04077 NIL
AAXX 07064 04082 NIL
AAXX 07064 04097 41580 83521 10020 20004 49908 52037 71522 8572/ 555 3/423
BBXX SHIP 07064 99461 70193 41398 82409 10135 20127 40350 54000 70222 888// 22224 04130 2//// 80130
AAXX 07063 04013 42260 80502 10011 20006 49974 52047 83620 555 3//05
AAXX 07063 04064 42784 33209 10028 21017 49946 52038 82542 555 3//13
BBXX TFBKF 07064 99635 70202 46/// ///// 22200 10808 70041
BBXX TFDRN 07064 99658 70212 46/// ///// 22200 10603 70017
BBXX TFGRS 07064 99663 70182 46/// ///// 22200 10604 70022
BBXX TFGRV 07064 99638 70225 46/// ///// 22200 11011 70057
BBXX TFGSK 07064 99641 70229 46/// ///// 22200 11013 70066
BBXX TFHFN 07064 99642 70152 46/// ///// 22200 11109 70046
BBXX TFKGR 07064 99657 70136 46/// ///// 22200 10707 70036
BBXX TFSRT 07064 99633 70203 46/// ///// 22200 11115 70075
BBXX TFSTD 07064 99664 70234 46/// ///// 22200 10707 70037
BBXX A8CE9 07064 99169 10540 41298 10305 10258 20203 40183 51020 70200 81100 22200 04270 29901 311// 41401 80220
BBXX 46011 07061 99350 71210 46/// /3210 10120 40178 52005 90550 22200 00125 11609 20705 330// 41608 70047 333 91212 555 11107 22113 30518 43215 60549 324100 324109 321108 322114 322114 320116
BBXX 46050 07061 99442 71246 46/// /1910 10080 40257 55000 90550 22200 00094 11206 20703 328// 41205 70030 333 91211 555 11104 22110 30527 41912 60549 190098 188094 193093 188091 186094 188094
BBXX 46047 07061 99324 71195 46/// /3109 10123 40169 52004 90550 22200 00136 11610 20805 330// 41608 70048 333 91212 555 11096 22101 30519 43212 60549 306090 308091 303094 306093 313095 306097
BBXX 41047 07061 99275 70715 46/// /1203 10212 40223 57007 90550 22200 00248 10804 20401 333// 40804 70018 333 91203 555 11025 22026 30520 40904 60549 119024 110017 087026 101024 101025 089025 80803 90523
BBXX 42002 07061 99258 70937 46/// /1708 10230 20166 40175 58003 90550 22200 00244 10602 20602 70010 333 91210 555 11080 22085 30549 41710 60549 166080 173076 179071 178075 172076 174079
BBXX 42055 07061 99222 70940 46/// /1406 10231 20162 40176 50000 90550 22200 00244 10602 20602 310// 41001 70010 333 91208 555 11066 22070 30502 41509 60549 139062 147060 150062 148058 146062 147062 81407 90454
BBXX 46105 07061 99590 71522 46/// ///// 1//// 90550 22200 11102 70012
BBXX 44020 07061 99414 70702 46/// /2305 10072 20059 40074 57010 90550 22200 00050 10301 20301 70003 333 91206 555 11058 22061 30526 42607 60549 235055 263059 264061 263056 265051 264053
BBXX 44065 07061 99404 70737 46/// /2204 10089 20053 40087 58007 90550 22200 00083 10602 20401 318// 40602 70010 333 91205 555 11047 22053 30455 42106 60549 219042 222043 216042 212040 208045 210050 82105 90455
BBXX 41013 07061 99334 70777 46/// /2409 10171 20104 40174 57007 90550 22200 00162 10603 20603 311// 41101 70015 333 91210 555 11093 22101 30522 42411 60549 236086 236089 237089 239088 239083 240082
BBXX 44060 07061 99413 70721 46/// ///05 10079 40078 90545 22200 00084 333 91206 555 11057 22062
BBXX 44022 07061 99409 70737 46/// ///04 10076 20029 40083 90545 22200 00057 333 91204 555 11046 22051
BBXX 44027 07061 99443 70673 46/// /2304 10070 20047 40060 56008 90550 22200 00072 10603 20401 3//// 40603 70016 333 91205 555 11040 22042 30528 42205 60549 229038 226039 215037 199033 188033 180037
BBXX 46080 07061 99580 71500 46/// /0712 11031 21054 49924 58057 90550 22200 00043 11206 20403 3//// 41205 70030 333 91215 555 11130 22137 30549 40615 60549 066125 073122 077118 075111 077114 079113 80614 90550
BBXX 46006 07061 99408 71375 46/// /1708 10125 40256 57005 90550 22200 00119 11205 20703 3//// 41204 70024 333 91210 555 11087 22094 30451 41810 60549 173082 175083 176083 177082 176082 178082
BBXX 46002 07061 99426 71305 46/// ///// 10109 40284 53008 90550 22200 00116 11105 70026
BBXX 46059 07061 99380 71300 46/// /3605 10119 40305 52006 90550 22200 00136 11305 20401 3//// 41305 70024 333 91206 555 11049 22051 30544 43506 60549 359047 005046 007044 005046 003045 003041
BBXX 46084 07061 99566 71361 46/// ///// 10036 20020 40064 51010 90550 22200 00071 11410 70049
BBXX 46005 07061 99461 71310 46/// ///05 10094 40233 57004 90550 22200 00096 11206 20401 3//// 41206 70031 333 91206 555 11052 22055
BBXX 46075 07061 99539 71608 46/// /0220 11013 21020 49752 56019 90550 22200 00035 11216 20607 300// 41214 70081 333 91224 555 11209 22223 30459 40226 60549 021198 021194 023187 023189 023194 026190 80222 90459
BBXX 41049 07061 99275 70630 46/// /0502 10208 20092 40216 54000 90550 22200 00228 11104 20401 300// 41104 70021 333 91203 555 11025 22025 30515 40606 60549 047024 049036 050028 052034 051024 045023 80505 90515
BBXX 42040 07061 99292 70882 46/// /1604 10195 40198 57006 90550 22200 00220 10401 70003 333 91205 555 11040 22041 30527 41605 60549 155040 155039 158041 156037 156037 152040
BBXX 42003 07061 99260 70856 46/// /1803 1//// 90550 22200 10501 20301 332// 40501 70005 333 91204 555 11033 22035 30500 41805 60549 181033 181034 176038 182035 187037 181037 81804 90500
BBXX 44005 07061 99432 70691 46/// /3002 10055 20052 40066 55000 90550 22200 00077 10602 20401 3//// 40602 70011 333 91202 555 11016 22017 30453 43004 60549 297017 296020 298024 294026 301027 301027
BBXX 42019 07061 99279 70954 46/// /1807 10218 20174 40154 57008 90550 22200 10702 20602 319// 40701 70012 333 91209 555 11079 22084 30546 41809 60549 193072 282074 283068 283072 282071 277073
BBXX 42059 07061 99151 70675 46/// /0806 10267 20213 40146 58008 90550 22200 00276 10703 20602 3//// 40702 70016 333 91207 555 11066 22069 30453 40808 60549 079062 074063 071065 072064 067064 078066 80807 90453
BBXX 42058 07061 99149 70749 46/// /0708 10257 20224 40134 58005 90550 22200 00270 10604 20604 308// 40802 70020 333 91210 555 11089 22094 30451 40514 60549 070084 066092 066093 065095 057090 051107 80612 90452
BBXX 42036 07061 99285 70845 46/// /1605 10196 20149 40201 58009 90550 22200 00201 10501 70003 333 91206 555 11054 22056 30548 41606 60549 162050 157047 159044 162045 167041 165047
BBXX 42056 07061 99198 70849 46/// /0606 10240 20189 40187 58007 90550 22200 00265 10703 20602 309// 40702 70013 333 91207 555 11063 22065 30507 40608 60549 062060 056063 057062 062060 067064 067065 80708 90451
BBXX 42060 07061 99163 70635 46/// /0607 10263 20202 40157 56009 90550 22200 00272 11103 20402 300// 41102 70013 333 91208 555 11074 22078 30501 40609 60549 061071 065068 059068 059068 060074 063074 80608 90501
BBXX 42035 07061 99292 70944 46/// /1503 10165 20164 40164 57006 90550 22200 00153 10602 20401 318// 40602 70009 333 91203 555 11033 22039 30533 41404 60549 146029 142032 141031 133028 128027 128027
BBXX 42012 07061 99301 70876 46/// /1805 10174 20159 40195 57004 90550 22200 00167 1//00 70002 333 91206 555 11053 22059 30527 41806 60549 180048 181050 181050 183048 184046 184042
BBXX 42001 07061 99259 70897 46/// /1406 10220 20131 40201 56005 90550 22200 00236 10301 20301 70004 333 91207 555 11062 22065 30508 41508 60549 142060 145061 136056 140062 143056 139060
BBXX 42065 07061 99170 70817 46/// /0507 10255 20197 90550 22200 10804 20602 3//// 40803 70018 333 91209 555 11074 22078 30501 40509 60549 047070 046069 048073 048075 050076 050072 80508 90502
BBXX 41044 07061 99217 70587 46/// /0304 10243 20197 40184 56009 90550 22200 00255 11105 20301 300// 41105 70023 333 91206 555 11043 22044 30532 40306 60549 035041 034043 033045 035040 038038 041038 80305 90528
BBXX 41048 07061 99320 70696 46/// /2405 10181 20097 40215 56009 90550 22200 00213 10803 20401 3//// 40803 70015 333 91207 555 11052 22054 30545 42407 60549 242051 238045 252035 245052 255039 242040 82506 90546
BBXX 41060 07061 99148 70510 46/// ///// 1//// 90550 22200 11306 70028
BBXX 42020 07061 99270 70967 46/// /1905 10206 20175 40154 57004 90550 22200 00216 10703 20401 315// 40702 70013 333 91206 555 11054 22056 30548 41806 60549 186052 186052 186050 180048 177048 174047
BBXX 41001 07061 99347 70727 46/// ///// 10195 20119 40173 56011 90550 22200 00218 10704 70020
BBXX BAREU08 07064 99186 70673 46/// ///// 40167 57014 22254
BBXX BAREU00 07064 99452 70465 46/// ///// 40038 52033 22263
BBXX NWS0022 07064 99416 70714 43/// /2305 10086 20039 40068 5//// 7//// 8//// 222// 04087 2//// 3//// 4//// 5//// 6//// 8//// ICE /////
BBXX A8SG2 07061 99350 51790 41396 80521 10200 20192 40015 58023 78082 887// 22223 00190 20607 306// 41006 5//// 80195
BBXX A8CG7 07060 99343 31655 41597 52310 10223 40110 51010 7//// 84446 22274 29904 3//// 4//// 5////
BBXX BATFR35 07064 99167 51512 46/// /3221 10257 20217 40094 22222 00287
BBXX PCHM 07064 99226 31674 41598 22019 10240 20176 40077 56000 70100 8214/ 22200 00250 29901 399// 4//01 80200
BBXX BATEU05 07064 99662 70540 46/// /1311 11098 49989 56043 22282
BBXX FVNM 07064 99210 70866 46/// /0814 10237 20165 40189 58006 22281 00267
BBXX WRGD 07064 99281 71402 41598 30913 10189 2014/ 40250 54000 70211 82181 22265 00202 20203 330// 40905 5//// 6//// 80156 ICE /////
BBXX C6JS 07063 99311 70743 41498 43112 10180 2011/ 40210 54000 70200 89/// 22285 20201 331// 40402 80140
BBXX DHYW 07061 99525 71430 41/97 81421 10070 20070 49860 56010 76166 8//// 22224 2//// 3//// 4//// 5//// 80070
BBXX A8EY7 07063 99307 71240 41/98 73615 10140 20095 40250 58010 702// 8//// 22234 2//03 3//// 4//// 5//// 80115
BBXX A8TG2 07063 99258 71559 41/// /0510 10220 20189 40200 50000 7//11 8//// 22263 00180 21001 30229 41506 51806 80200
BBXX 44066 07061 99396 70726 46/// /2409 10130 20081 40096 58013 90550 22200 00129 10803 20803 70017 333 91210 555 11093 22100 30532 42410 60549 236087 237088 234084 231085 231084 231085
BBXX 41036 07061 99342 70770 46/// ///// 10170 20094 40164 58006 90550 22200 00183 10603 70016
BBXX 41043 07061 99211 70650 46/// /0709 10233 20219 40183 58007 90550 22200 00259 11106 20804 300// 41104 70029 333 91210 555 11097 22102 30523 40612 60549 068091 065087 069098 060091 027053 ////// 80711 90523
BBXX 46028 07061 99357 71219 46/// /3312 10119 40180 53004 90550 22200 00128 11509 20705 331// 41507 70045 333 91214 555 11124 22132 30451 43315 60549 330116 327111 328113 327122 327119 326118
BBXX 46054 07061 99342 71204 46/// /3213 10123 40155 52006 90550 22200 00127 11609 20704 300// 41608 70045 333 91215 555 11136 22145 30452 43218 60549 323127 322126 321122 322124 323127 322138
BBXX 46025 07061 99337 71191 46/// /0203 10147 20135 40146 53006 90550 22200 00150 11605 20401 329// 41605 70023 333 91204 555 11035 22036 30530 40205 60549 024033 022037 021040 023026 020025 026025
BBXX 46029 07061 99461 71245 46/// /2601 10093 20072 40249 53012 90550 22200 00091 333 91203 555 11014 22017 30503 42703 60549 255012 270017 254014 257017 276020 284007
BBXX 46087 07061 99485 71247 46/// /1306 10058 20057 40251 53008 90550 22200 00083 11105 20401 327// 41105 70026 333 91208 555 11061 22063 30459 41208 60549 128058 125059 125057 123060 125063 123066
BBXX 46013 07061 99382 71233 46/// /3210 10107 40216 53009 90550 22200 00107 11508 20704 3//// 41507 70039 333 91213 555 11105 22112 30509 43214 60549 324099 322102 321110 317117 316118 315112
BBXX 46012 07061 99374 71229 46/// /3311 10111 40211 55000 90550 22200 00115 11609 20605 331// 41608 70045 333 91213 555 11114 22122 30510 43314 60549 326108 324106 325110 327114 325113 321109
BBXX 46014 07061 99394 71240 46/// /3411 10103 40242 52008 90550 22200 00106 11408 20805 3//// 41407 70041 333 91214 555 11120 22128 30525 43415 60549 341110 341118 340118 341114 341116 342115
BBXX 46088 07061 99483 71232 46/// /1209 10050 40251 53007 90550 22200 00078 10301 20301 325// 41101 70007 333 91210 555 11092 22097 30454 41111 60549 119088 117087 114089 114090 119089 116093
BBXX 46069 07061 99337 71202 46/// /3309 10126 40159 52006 90550 22200 00137 11609 20705 331// 41607 70043 333 91212 555 11100 22106 30500 43214 60549 328096 326105 328106 327100 330111 329105
BBXX 46086 07061 99325 71180 46/// /2806 10135 40157 51006 90550 22200 00150 11007 20401 329// 41007 70035 333 91207 555 11058 22060 30459 42908 60549 281055 282054 279054 287053 290056 299059
BBXX 46027 07061 99419 71244 46/// /3307 10091 40275 52005 90550 22200 00096 11406 20602 327// 41406 70031 333 91208 555 11073 22077 30455 43409 60549 333069 335064 337064 339065 342062 346065
BBXX ONAI 07064 99079 70535 41697 30913 10260 2023/ 40110 56010 701// 83100 22273 00283 2//// 3//// 4//// 5//// 6//// 80240 ICE /////
BBXX C6CU6 07063 99076 70490 41597 50920 10270 20263 40120 57010 70211 843/5 22233 04274 20805 308// 41005 5//// 80265
BBXX WJBJ 07063 99138 71039 41398 60909 10266 2022/ 40142 50007 7//22 84231 22264 00285 20302 334// 40705 5//// 6//// 80233 ICE /////
BBXX VCWL 07064 99468 70712 46/// /0512 11087 21095 40067 56003 7//// 8//// 22200 0//// 2////
BBXX CGJV 07064 99483 70605 46/// /2516 11062 21114 40113 56010 7//// 8//// 22213 00021 2////
BBXX CGSB 07064 99479 70695 46/// /0505 11129 21141 40088 57018 7//// 8//// 22200 0//// 2////
BBXX VCSZ 07064 99455 70735 46/// /0103 11076 21077 40047 58004 7//// 8//// 22200 0//// 2////
BBXX VRYO3 07064 99472 70584 46/// /2715 11039 21089 40123 51003 7//// 8//// 22224 00039 2////
BBXX VCLM 07064 99468 70712 46/// /0506 11073 21086 40064 56006 7//// 8//// 22200 0//// 2////
BBXX VOLG 07064 99444 70632 46/// /1413 10005 21006 40109 58028 7//// 8//// 22232 0//// 2////
BBXX CGHL 07064 99476 70527 46/// /2608 11058 21116 40098 51015 7//// 8//// 22200 0//// 2////
BBXX VOXS 07064 99467 70480 41598 83214 10005 2103/ 40085 52023 70222 885// 22200 04018 20404 321// 40804 81009
BBXX 3FZK3 07064 99556 71411 46/// /1428 10029 20014 49978 58076 7//// 8//// 22263 0//// 2////
BBXX CZ9742 07064 99506 70969 46/// /3606 11080 21091 4//// 5//// 7//// 8//// 22200 0//// 2////
BBXX VCRG 07064 99474 70619 46/// /2206 11062 21110 40130 56006 7//// 8//// 22200 0//// 2////
BBXX CGBR 07064 99534 71293 46/// /0109 10042 20042 40190 50000 7//// 8//// 22200 0//// 2////
BBXX C6SI6 07064 99546 71640 46/// /1906 11055 21113 49855 57010 7//// 8//// 22200 0//// 2////
BBXX CGDR 07064 99546 71304 46/// /1007 10053 20043 40157 54000 7//// 8//// 22200 0//// 2////
BBXX 41101 07064 99146 70562 46/// /0516 10258 20215 40136 57012 22200 00266 11005 70026
BBXX 46041 07061 99474 71247 46/// /1209 10050 40241 53010 90550 22200 00086 11106 20703 3//// 41105 70031 333 91212 555 11099 22104 30450 41214 60549 122094 123095 123098 121096 121102 118102
BBXX 46026 07061 99378 71228 46/// /3207 10111 40213 52005 90550 22200 00112 11507 20602 329// 41507 70035 333 91208 555 11073 22077 30521 42610 60549 311067 279069 279076 280076 278074 285081
BBXX 41040 07061 99145 70530 46/// /0607 10262 20229 40147 58011 90550 22200 00270 11306 20603 3//// 41305 70028 333 91209 555 11075 22079 30454 40709 60549 057072 063069 062073 064071 070076 070075 80708 90506
BBXX 44007 07061 99435 70701 46/// /3402 11011 21014 40072 57003 90550 22200 00063 10602 20401 3//// 40601 70008 333 91203 555 11024 22024 30453 43605 60549 342023 354025 356027 357027 005031 003037
BBXX 46077 07061 99579 71543 46/// /0418 11049 21061 49915 56051 90550 22200 00034 10605 20605 70025 333 91221 555 11193 22205 30548 40421 60549 038179 040173 041168 043164 047157 048155 80419 90548
BBXX 51101 07061 99243 71621 46/// /1604 10232 20186 40202 52009 90550 22200 00239 11705 20401 331// 41705 70026 333 91205 555 11037 22038 30539 41605 60549 158034 165036 164033 173032 173030 168032
BBXX 46082 07061 99597 71434 46/// ///// 11012 40002 56003 90550 22200 00056 11008 70041
BBXX 46035 07061 99571 71778 46/// /2505 1//// 40015 56008 90550 22200 11102 20401 300// 41102 70011 333 91207 555 11054 22057 30515 42310 60549 255055 271064 249074 236072 219037 229049 82308 90515
BBXX 42039 07061 99288 70860 46/// /0000 10197 40199 58008 90550 22200 00211 10401 20401 70004 333 91201 555 11005 22005 30512 40403 60549 119006 096010 077015 043020 034021 042021 80403 90513
BBXX 46072 07061 99517 71722 46/// /0113 11008 21083 49982 52016 90550 22200 00040 11210 20807 3//// 41207 70050 333 91216 555 11135 22142 30519 40217 60549 009126 012131 013130 017139 016137 018129 80215 90520
BBXX PHCQ 07064 99406 70665 41998 02208 10090 20073 40174 70200 80000 22214 20204 3//// 4//// 5//// 80081
BBXX BATFR14 07064 99298 70411 44/98 81714 10210 20179 40204 57020 70122 8//// 22254 00212
BBXX CG2350 07064 99433 70798 46/// /2505 10056 20028 40034 57014 7//// 8//// 22200 0//// 2////
BBXX CG2960 07064 99453 70817 46/// /1908 10040 20028 40030 56010 7//// 8//// 22200 0//// 2////
BBXX CGDS 07064 99429 70792 46/// /2805 10058 20035 40051 58016 7//// 8//// 22200 0//// 2////
BBXX C6LU3 07063 99162 70708 41/97 /0416 10250 2022/ 40190 55005 70221 8//// 22254 20404 80230
BBXX PHSG 07064 99242 70794 41/98 30813 10210 40210 56010 70222 81170 22244 00280 20203
BBXX WSRL 07063 99411 71374 41998 01926 10130 2009/ 40245 58010 70200 8/000 22214 0//// 2//// 3//// 4//// 5//// 6//// 80110 ICE 0/0//
BBXX DGAF 07063 99294 71164 41396 73316 10150 20133 40160 51015 70311 8/778 22274 00170 29902 80140
BBXX C6OR4 07063 99357 10170 41597 63540 10130 20013 40071 53040 79165 86320 22233 06169 20910 3//// 4//// 5//// 80080
BBXX 3EIZ7 07064 99389 70172 41/// 50519 10150 2//// 40310 57040 7//62 8//// 22235 0//// 2//// 3//// 4//// 5//// 6//// 8//// ICE /////
BBXX DBBI 07061 99535/10100 46/// /2/06 10047 20047 40066 57039 22240 00048
BBXX DBEB 07061 99538 10081 41/// /2313 10054 20054 40049 57041 7//// 22200 00052
BBXX DBKR 07061 99541 10121 46/// /2006 10032 20032 40058 57036 22200 00050
BBXX DBBA 07061 99541 10121 46/// /1703 10034 20023 40058 57037 22220 00042
BBXX DBBC 07061 99535 10100 46/// /2307 10047 20035 40067 57040 22260 00049
BBXX DBFH 07061 99535 10086 46/// /2308 10055 20049 40064 57042 22260 00054
BBXX DK7210 07061 99540 10066 46/// /2713 10088 20088 30030
BBXX ZQTP2 07064 99472 70068 41297 82718 10120 20101 40321 58018 70252 8/700 22213 00120 2//// 3//// 4//// 5//// 80110
BBXX WCX7445 07064 99649 50644 43/// /2514 10024 2//// 49785 5//// 7//// 8//// 22261 01004 2//// 3//// 4//// 5//// 6//// ICE /////
BBXX MGGK4 07060 99139 70176 41/97 /3607 10220 20166 40145 56018 70000 8//// 22243 04231 2//// 3//// 4//// 5//// 80185
AAXX 07064 78526 NIL
AAXX 07064 78543 NIL
AAXX 07061 06414 16/// /2706 10094 20075 30139 40171 55012 60022 333 20022 91111 91207
AAXX 07061 06459 16/// /2407 10065 20065 39985 40179 57024 60012 333 20016 3/100 91111 91207
AAXX 07061 06494 16/// /2507 10023 20020 39368 40177 57019 60022 333 21006 91112 91208
AAXX 07064 78255 42559 40503 10184 20151 30046 40195 57010 84500 333 84620
AAXX 07064 78317 NIL
AAXX 07064 78318 NIL
AAXX 07064 78325 NIL
AAXX 07064 78333 NIL
AAXX 07064 78338 NIL
AAXX 07064 78348 NIL
AAXX 07064 78349 NIL
AAXX 07064 78353 NIL
AAXX 07064 78360 NIL
AAXX 07064 78367 NIL
AAXX 07064 78369 NIL
AAXX 07064 91925 06/// /3005 10235 20190 30062 40123 51021 60001 333 55099 60007 90710 91108 555 60005 13008 59015
AAXX 07064 91929 04206 83416 10228 20213 30104 40107 51019 60172 765// 333 10265 20226 55/// 60117 70308 90710 91123 555 60105
AAXX 07064 91938 01458 83015 10250 20213 30106 40108 51020 60282 76162 8687/ 333 10276 20237 32/// 55016 60187 70359 82816 84820 88459 90710 91125 555 69985 13226 59007
AAXX 07064 91944 06/// /3610 10264 20216 30116 40119 52022 60002 333 10288 20256 55095 60007 70093 90710 91115 555 60005
AAXX 07064 91948 06/// /3605 10233 20210 30047 40149 51014 60021 333 55086 60027 90710 91110 555 60005 10112 59013
AAXX 07064 91954 06/// /1308 10215 20192 30101 40104 52017 60041 333 55/// 60047 555 59008
AAXX 07064 91958 06/// /3603 10225 20161 30112 40114 53012 60001 333 55001 60007 90710 91110 555 60005 10524 58006
AAXX 07064 91943 NIL
AAXX 07064 91945 NIL
AAXX 07064 93004 16/// /1934 10161 20149 49999 52004 60031
AAXX 07064 93023 16/// /1615 10169 20159 49980 57019 60101
AAXX 07064 93069 16/// /1533 10170 20167 49974 57022 6///1
AAXX 07064 93110 17796 /1815 10170 20156 40021 57021 60081
AAXX 07064 93186 17497 /1409 10182 20170 40033 57024 60151
AAXX 07064 93196 16/// /1216 10176 20176 40046 57020 60201
AAXX 07064 93245 16897 /1903 10160 20154 40063 57016 60061
AAXX 07064 93292 17497 /0902 10179 20166 40070 57008 60041
AAXX 07064 93309 17697 /2302 10180 20162 40063 57010 69961
AAXX 07064 93334 16/// /1001 10134 20119 39143 57001 60041
AAXX 07064 93339 16/// /1105 10129 20115 39149 57002 60041
AAXX 07064 93373 17498 /1307 10196 20163 40079 54000 60001
AAXX 07064 93404 17898 /1802 10184 20159 40074 54000 60001
AAXX 07064 93420 17/98 /2209 10184 20129 40080 57003 60001
AAXX 07064 93439 17698 /2010 10165 20129 40094 52008 60001
AAXX 07064 93498 16/// /1505 10164 20133 40094 52005 60001
AAXX 07064 93515 17998 /2317 10199 20148 40074 57007 60001
AAXX 07064 93527 16/// /0608 10184 20155 40079 52003 60001
AAXX 07064 93546 17698 /0310 10185 20152 40081 52005 60001
AAXX 07064 93597 16/// /1311 10162 20144 40098 52010 60001
AAXX 07064 93615 17497 /2511 10190 20148 40082 57007 60001
AAXX 07064 93678 16398 /1810 10147 20135 40103 52008 60001
AAXX 07064 93709 16/// /2513 10171 20112 40087 57005 60001
AAXX 07064 93773 17498 /1005 10163 20123 40106 52005 60001
AAXX 07064 93781 17/98 /2109 10176 20123 40099 52009 60001
AAXX 07064 93800 NIL
AAXX 07064 93805 NIL
AAXX 07064 93831 17998 /1825 10175 20067 40073 52013 60001
AAXX 07064 93845 17/98 /2418 10152 20072 40121 52007 60001
AAXX 07064 93891 17598 /1408 10147 20087 40119 52016 60001
AAXX 07064 93909 16/// /2926 10139 20083 40110 52006 60001
AAXX 07064 93929 16/// /2416 10110 20050 40050 52025 69921
AAXX 07064 93947 16/// /2828 10089 20037 49982 6///1
AAXX 07064 93987 16/// /3515 10167 20150 40129 52001 60001
AAXX 07064 93994 NIL
BBXX A8CP6 07060 99149 31522 41698 51606 10290 20276 40095 56005 70211 84472 22244 00285 20402 314// 40803 5//// 80280
AAXX 07064 91165 NIL
AAXX 07064 91182 NIL
AAXX 07064 91190 NIL
AAXX 07064 91212 NIL
AAXX 07064 91217 NIL
AAXX 07064 91285 NIL
AAXX 07064 91317 32474 50910 10300 20278 30078 40082 56010 81101 333 562/9 81818 83080 555 90706
AAXX 07064 91334 32474 80707 10311 20240 30090 40093 55007 83178 333 56299 70274 555 90706
AAXX 07064 91348 NIL
AAXX 07064 91356 NIL
AAXX 07064 91366 NIL
AAXX 07064 91369 NIL
AAXX 07064 91371 NIL
AAXX 07064 91376 32474 80610 10274 20241 30090 40093 53008 85878 333 56119 70008 555 90706
AAXX 07064 91408 32474 80912 10304 20238 30049 40087 57015 83278 333 56999 70013 555 90706
AAXX 07064 91413 32469 70715 10303 20235 30071 40096 55015 83171 333 56199 70000 555 90706
AAXX 07064 91425 NIL
AAXX 07064 91434 NIL
AAXX 07064 91765 NIL
BBXX A8QR9 07060 99039 11058 41397 820// 10265 20245 40130 75855 8/7// 22254 20504 80250
AAXX 07064 91222 NIL
AAXX 07064 91245 NIL
AAXX 07064 91323 NIL
AAXX 07064 91339 NIL
AAXX 07064 91343 NIL
AAXX 07064 91353 NIL
AAXX 07064 91442 NIL
AAXX 07061 38353 12597 82701 11044 21064 39399 40342 57006 69920 885// 333 21055
AAXX 07061 38613 42998 80201 11027 21076 40316 58006 8802/ 333 21032
AAXX 07061 38616 42597 70000 11032 21067 39247 40303 56004 87500 333 21055
AAXX 07061 38345 31596 82601 11080 21102 38845 48530 57008 71022 886// 333 21097
AAXX 07061 36911 41598 80000 11042 21049 39329 40336 58005 69904 70272 8562/ 333 21055
AAXX 07061 36974 32998 80701 11142 21185 38024 48600 53004 8805/ 333 21215
AAXX 07061 36982 42598 73201 11146 21227 36518 47145 58002 84530 333 21247
AAXX 07064 47101 32970 02002 10017 21140 30245 40344 57028
AAXX 07064 47105 369// /0704 10052 21086 30293 40326 57018
AAXX 07064 47108 31958 02704 10014 21151 30235 40344 55019 70500
AAXX 07064 47115 32575 50707 10009 21041 30048 40329 55009 85500 333 92043
AAXX 07064 47133 32963 01103 10022 21120 30256 40344 57023
AAXX 07064 47138 32668 20502 10072 21048 30321 40324 57017 82500 333 92031
AAXX 07064 47159 32970 01804 10088 21123 30230 40316 57019 333 92022
AAXX 07064 47165 32970 03615 10023 21065 30290 40338 57020 333 92024
AAXX 07064 47168 32968 01403 10049 21135 30239 40320 57022 333 92021
AAXX 07064 47184 32975 03406 10060 21053 30309 40335 56017 333 92022
AAXX 07061 26038 NIL
AAXX 07061 26045 NIL
AAXX 07061 26058 NIL
AAXX 07061 26115 NIL
AAXX 07061 26135 01225 82203 11005 21007 39864 49938 56012 60022 77177 8872/ 333 11005 21045 47004 60027 88505 555 1/100 21045 3/111 51011 52108
AAXX 07061 26141 NIL
AAXX 07061 26231 01457 82406 10005 21009 39933 49948 55006 69902 78582 889// 333 10019 21036 60017 88919 91009 91112 555 14100 21036 34100 51002
AAXX 07061 26242 01484 72005 11007 21029 39874 49961 57013 69902 70212 86530 333 10000 21037 43001 60007 86611 91008 91109 555 1/101 21037 3/102 51005 52106
AAXX 07061 26247 NIL
AAXX 07061 15502 12970 82903 10048 20001 30009 40048 52032 69952 8807/ 333 10054 20044 55000 70062 555 32003 572//
AAXX 07061 15525 11558 82904 10007 20004 39764 40033 53031 60062 77177 8802/ 333 10030 21002 70157 555 3/000 598// 69999 70641
AAXX 07061 15528 11/03 90000 10000 20000 39837 40030 52042 60552 77377 333 10060 20000 43013 55000 70702 555 3/000 50014 69999 70651 93055
AAXX 07061 15535 11562 80720 10036 20021 39955 40002 52043 60322 76566 8372/ 333 10069 20034 55000 70396 555 32/// 59007 69999 93032
AAXX 07061 15549 11456 80508 10020 20010 39590 40008 52057 60132 76362 8872/ 333 10060 20020 70268 555 31002 59302 69908 70653
AAXX 07061 15552 11570 61602 10092 20075 39935 49983 52035 60072 70262 85530 222// 2//01 311// 4//02 333 10105 20084 55000 70131 555 32006 589// 92035 92438
AAXX 07061 15614 11540 82702 10002 21003 39327 40040 52038 60072 77377 8802/ 333 10007 20002 48012 55000 70195 555 3/000 596// 69999 70652
AAXX 07061 15615 11/01 90220 11145 21162 36912 47827 52026 60252 77377 333 11122 21164 49999 55000 70315 91128 92982 555 587// 69999 70651 92712 93025
AAXX 07061 15626 11665 82706 10022 20017 39809 49999 52052 60442 76172 8802/ 333 10030 20004 43005 55000 70505 555 3/101 59605 69999 70666 93044
AAXX 07061 15627 11/01 93224 11098 21110 37384 47797 53004 60052 77174 333 11068 21098 47045 55000 70098 91134 93509 555 591// 69999 92713
AAXX 07061 15640 11464 80000 10048 20029 39669 49980 52032 60142 71062 886// 333 10100 20045 55000 70556 555 33004 58701 69999 70652
AAXX 07061 15655 11570 81407 10088 20075 39938 49970 52040 60022 70262 885// 222// 00068 309// 40602 333 10099 20084 70056 555 32/// 592// 70649 92034 92438
AAXX 07061 15712 12570 83409 10042 21003 39739 49989 52042 60032 85207 333 10050 20030 55000 70180 555 31100 573//
AAXX 07061 15730 11670 80000 10002 21003 39608 40005 52059 60302 77087 8652/ 333 10050 21002 42001 55000 70878 555 3/101 59603 69999 70655 93030
AAXX 07061 14240 12970 03301 11022 21051 30039 40201 52020 60002 333 21023 34108
AAXX 07061 14258 NIL
AAXX 07061 14445 12680 10214 10063 21073 39963 40119 52020 60002 81200 222// 00135 333 20059 31002 81896 92324
AAXX 07064 47090 32975 00204 10033 21087 30309 40332 57017 333 92012
AAXX 07064 47095 32970 02003 10008 21165 30146 40341 57026
AAXX 07064 47097 329// /1602 10019 21127 30245 40344 57023
AAXX 07064 47098 329// /2303 10021 21154 30201 40339 57021
AAXX 07064 47099 329// /2303 10013 21140 30311 40349 56017
AAXX 07064 47100 32970 01803 11014 21126 39377 40323 57019
AAXX 07064 47102 32970 00204 11019 21104 30166 40352 57015
AAXX 07064 47104 32970 03603 10036 21087 30226 40325 57017
AAXX 07064 47106 329// /0206 10038 21041 30274 40324 57017
AAXX 07064 47112 32962 02706 10007 21149 30261 40348 56017 333 92012
AAXX 07064 47114 32968 03403 10008 21136 30149 40338 57025
AAXX 07064 47119 32961 02902 10006 21134 30303 40347 57020
AAXX 07064 47121 329// /2502 10025 21100 30030 40331 57031
AAXX 07064 47127 329// /3402 10012 21133 30196 40343 57025
AAXX 07064 47129 32965 02704 10016 21087 30315 40352 57017
AAXX 07064 47130 32670 20904 10045 21061 30261 40324 57018 82500 333 92032
AAXX 07064 47131 32960 03403 10008 21144 30271 40344 57022
AAXX 07064 47135 329// /2508 10018 21139 30025 40332 57026
AAXX 07064 47136 32965 02902 10040 21116 30154 40330 57026
AAXX 07064 47137 329// /0702 10022 21153 30210 40332 57026
AAXX 07064 47140 32968 02505 10011 21064 30319 40349 57017 333 92012
AAXX 07064 47143 32962 02703 10055 21116 30253 40333 57028
AAXX 07064 47145 32968 02706 10013 21152 30313 40340 55018
AAXX 07064 47146 32970 02704 10019 21151 30276 40344 57020
AAXX 07064 47150 32970 03202 10018 21086 30327 40347 57016
AAXX 07064 47152 32970 03202 10077 21072 30273 40316 57021
AAXX 07064 47154 329// /3203 10038 21154 30271 40333 57027
AAXX 07064 47155 32970 01402 10062 21134 30274 40321 57022
AAXX 07064 47156 32970 03203 10031 21105 30248 40340 57021
AAXX 07064 47157 32980 00702 10048 21223 30033 40308 57031
AAXX 07064 47162 32975 00506 10056 21115 30279 40320 57020 333 92022
AAXX 07064 47169 32670 33612 10033 21035 30240 40337 57015 83500 333 92044
AAXX 07064 47170 32975 03406 10037 21123 30286 40331 57018 333 92022
AAXX 07064 47171 329// /3603 10013 21108 30290 40347 57019
AAXX 07064 47172 329// /3205 10012 21086 30272 40341 57018
AAXX 07064 47173 329// /2502 10035 21142 30219 40333 57027
AAXX 07064 47174 32975 02709 10041 21169 30116 40322 57026
AAXX 07064 47175 32973 03406 10009 21053 39739 40330 56015 333 92022
AAXX 07064 47185 32675 13417 10052 21031 30233 40326 56017 81500 333 92035
AAXX 07064 47188 32675 23407 10056 21057 30296 40318 57019 81500 333 92022
AAXX 07064 47189 32670 22506 10094 20020 30250 40310 55012 82500 333 92022
AAXX 07064 47192 32972 01104 10058 21174 30284 40322 57024
BBXX LAHV 07061 99660 10125 43/// /0810 11054 21085 49961 222// 04058 1////
BBXX LDGJ 07061 99603 10053 43/// /1802 10053 20028 49934 5//// 222/0 04081 1//// 3//// 4//// 5////
BBXX LF4H 07064 99596 10022 46/// /2822 10074 20037 49955 57003 8//// 22200 06082 10706 70029 333 91133
BBXX LMEL 07061 99603 10053 43/// /1601 10045 20043 49932 5//// 222/0 04082 1//// 3//// 4//// 5////
AAXX 07064 17024 12570 71710 10164 20009 39948 40023 52010 60002 84550 333 20153 30012 55053 84632 87360 91025 91137 92438
AAXX 07064 17056 12670 70903 10110 20109 39974 49978 52032 69902 84230 333 20104 32008 55000 20142 70032 84833 87359 91126 92458
AAXX 07064 17067 11670 71610 10131 20049 39979 40001 52018 69902 70282 87200 333 20124 31009 55000 79999 87835 91023 91123 92438
AAXX 07064 17092 12670 40301 11051 21054 38864 48486 52012 60002 82540 333 21075 34108 50064 55026 20645 82640 84360
AAXX 07064 17112 11665 72403 10106 20088 39966 49968 52038 60042 72588 84270 333 20106 33009 50204 55002 20025 70194 84835 87360 91129 92417
AAXX 07064 17115 12660 71407 10090 20058 39934 49984 52032 60092 84270 333 20088 32008 50074 55005 20314 70092 84835 87460
AAXX 07064 17116 11560 71904 10092 20070 39892 40011 52024 60042 78082 85250 333 20092 32007 55002 20017 70038 85829 87359 91118
AAXX 07064 17188 11556 71009 10049 20039 38968 40019 52013 60342 78188 85270 333 20044 32004 55000 70337 85830 87359 91127
AAXX 07064 17202 12665 63103 11002 21004 39179 40231 52010 69922 84550 333 21020 34104 70008 84635 86360
AAXX 07064 17248 12970 31401 10020 21013 38897 48410 52008 60002 83040 333 21008 34103 55081 2//// 83360
AAXX 07064 17292 11540 71708 10080 20078 39262 40009 53005 60592 78192 84270 333 20070 32007 50044 55000 20239 70894 84830 87359 91126
AAXX 07064 17300 11420 71826 10121 20098 39991 40061 52013 60122 79592 87900 333 20119 33/// 50131 55/// 2//// 70196 82915 85825 91040 91140
AAXX 07064 17310 11670 70604 10126 20091 30107 40114 50002 60322 70282 84250 333 20114 32010 55012 70439 84835 87360 91116 92448
AAXX 07064 17330 1//// /1201 10127 20084 30127 40147 5//// 60072 333 20096 3//// 4////
AAXX 07064 16622 NIL
AAXX 07064 16641 12660 83216 10106 21024 39980 49986 52030 60002 84557 333 20076 30/// 55000 70000 84635 85358 88268 90730 91125 555 10000 30106 20000 89054 99097 40000 47513 44185 50000 50056
AAXX 07064 16682 12560 50105 10060 20046 39950 49969 52083 69992 84141 333 20060 30/// 50670 55007 70117 84820 84358 90730 91107 555 10000 30102 20000 89068 99095 30000 10075 20090 30092 40104 50114 60160 40000 47492 44200 50000 50054 60000 60009 60200
AAXX 07064 16716 12570 33404 10076 20034 39951 49970 52031 60002 81132 333 20076 30/// 55009 70007 81825 83070 555 10000 30130 20000 89062 99079 40000 47486 44140 50000 50058
AAXX 07064 16734 NIL
AAXX 07064 16743 NIL
AAXX 07064 16749 11458 81910 10136 20093 39994 40007 52009 60122 76196 8387/ 333 20130 32/// 55044 70218 82818 83625 88358 90730 91120 555 10000 30150 20000 89064 99087 40000 47525 44200 50000 50114 60000 60122 61200 70000 77R// 7TR//
AAXX 07064 16754 11565 71808 10102 20073 39945 49991 52009 60082 70262 82270 333 20096 31/// 50390 55016 70231 82825 87358 90730 91115 555 10000 30144 20000 89054 99089 40000 47487 44180 50000 50088 60000 60084 60400 70000 77/// 7R///
AAXX 07061 11146 11/00 93614 11169 21192 36869 47972 53006 60042 77074 333 11154 21169 49251 55300 89/00 92612 93112 91132
AAXX 07061 26509 12497 62306 10040 20014 30007 40016 57020 69942 86500 333 20004 31/// 91012 91114 555 53014 7995/
AAXX 07061 26518 12670 82006 11013 21019 40029 57012 69902 83532 333 21024 34/// 91009 91109 555 53009 7994/
AAXX 07061 26524 32998 61904 11014 21026 39886 40020 58015 86030 333 21021 34/// 91008 91109 555 53009 7996/
AAXX 07061 26531 32570 52203 11015 21026 40019 58010 83570 333 21015 34/// 91007 91109 555 53009 7998/
AAXX 07061 26629 11970 02305 11016 21028 39959 40056 58007 69902 70271 333 21016 47997 91007 91108 555 53008 7998/
AAXX 07061 26633 11570 22102 11019 21037 39907 40040 58002 60012 70377 82500 333 21024 34/// 91005 91108 555 53008 7001/
AAXX 07061 26730 11970 02302 11031 21041 39870 40066 52005 69932 70271 333 21031 42997 91004 91105 555 53010 7002/
AAXX 07064 17022 12665 71607 10155 20014 39852 40012 52020 60002 85270 333 20149 30009 55019 85834 87360 91126 92437
AAXX 07064 17031 12670 61504 10107 21004 30072 40078 52014 60002 83130 333 20080 30007 83836 86360
AAXX 07064 17038 12970 62120 10167 21059 30055 40105 52010 60002 83031 333 20154 30005 55021 20678 83360 86070 91031 92428
AAXX 07064 17050 1//// /2908 10037 20028 39926 49987 52041 60072 333 20037 3//// 4//// 70312
AAXX 07064 17060 11560 61712 10124 20039 39957 49996 52024 60012 70282 84250 333 20108 31009 50101 55003 20285 70012 84830 86360
AAXX 07064 17096 12570 52403 11031 21067 38228 48502 52010 60002 83550 333 21082 3/108 47010 50044 55025 20184 70004 83630 85358
AAXX 07064 17124 11560 70708 10052 20031 39124 40033 52012 69982 76022 84550 333 20041 32003 50014 55012 20465 70008 84630 86359
AAXX 07064 17128 12670 71510 10059 20014 38991 40092 52007 60002 84250 333 20019 32001 50054 55028 20218 84840 86360
AAXX 07064 17170 NIL
AAXX 07064 17195 11660 51902 10032 21015 38891 48415 54000 60002 71011 82530 333 21028 34104 50074 55028 21038 82640 85360
AAXX 07064 17199 11558 72301 10015 20010 39094 40215 52010 69912 71022 85670 333 20006 34101 55000 20188 70001 81720 84640 87460
AAXX 07064 17219 11565 71708 10102 20081 39841 49983 52020 60142 78098 84250 333 20098 32009 55000 20051 702 06 84830 87360 91136
AAXX 07064 17240 11570 71718 10076 20027 38894 40026 53008 60192 72588 85250 333 20056 32005 55009 20477 70188 85830 87360 91036 91136
AAXX 07064 17244 12670 51720 10059 20021 38887 48394 53005 60002 82550 333 20030 30/// 82640 85360
AAXX 07064 17280 11656 52803 10018 20013 39423 40236 52015 60002 71022 82550 333 20001 31101 50111 55000 20071 70018 82640 85360
AAXX 07064 17350 12660 70409 10092 20088 30082 40161 52008 60082 85250 333 20083 32/// 70088 85835 87360
AAXX 07064 68032 32960 61313 10275 20174 48527 52019 86080 333 20236
AAXX 07064 17026 12570 81706 10154 20015 30017 40055 52015 60002 8452/ 333 20129 30007 55056 21126 84630 88459 91117 92418
AAXX 07064 17034 12970 01905 10168 21048 30053 40098 52005 60002 333 20105 30008 92428
AAXX 07064 17070 12565 60804 10091 20022 39180 40032 52025 60002 86500 333 20084 31006 50124 55010 20448 86630 91121
AAXX 07064 17084 12670 60301 11006 21019 39208 40132 52010 60002 82550 333 21020 34104 55023 82635 86360 91104
AAXX 07064 17090 12665 60000 10021 21024 38689 48462 52011 60002 84550 333 20002 3/101 45998 55038 84640 86360
AAXX 07064 17098 12660 10000 11105 21112 38191 48509 52013 60002 81400 333 21203 3/122 44013 50014 55007 20787 70002 81640
AAXX 07064 17150 11660 72006 10103 20058 39871 49992 52030 60112 72582 85270 333 20096 32009 50021 55020 2049 0 70110 85835 87360 91122
AAXX 07064 17160 12670 70101 10026 21018 38944 48421 52014 60002 84550 333 21004 31103 55053 84640 87360 91107
AAXX 07064 17184 11665 81805 10094 20083 39885 49994 52021 60212 78182 8422/ 333 20087 32008 55000 70350 84836 88459 91120
AAXX 07064 17189 11570 71621 10054 20025 38883 48361 51010 60032 78082 85250 333 20053 32004 70032 85830 87359
AAXX 07064 17210 12670 11901 10040 20009 39175 40228 53012 60002 81100 333 20027 30000 55006 81840
AAXX 07064 17234 11670 70101 10093 20086 39932 49999 50014 60152 72588 84270 333 20092 32009 55020 70158 84836 87360 91108
AAXX 07064 17260 11241 80802 10041 20041 39375 40210 52014 60022 76162 8572/ 333 20041 32002 20105 70016 83705 85625 88458 96010
AAXX 07064 17290 11670 71710 10131 20098 39968 49999 52006 60202 70282 84270 333 20121 32011 50094 55032 7021 9 84835 87360 91128 92438
AAXX 07064 17370 11665 51906 10136 20056 30158 40162 52008 69912 72582 83230 333 20111 32010 50154 55004 2//// 70005 83835 85360 92427
AAXX 07061 26645 11597 32302 11027 21037 39792 40056 52011 69992 70171 83500 333 21028 47001 555 90010
AAXX 07061 26659 11562 72602 11006 21018 39835 40052 52018 69932 70272 875// 333 21006 43002 87621 555 90010
AAXX 07061 26763 11350 82602 10004 21002 39815 40043 52017 69952 77172 8872/ 333 20004 42997 88707 555 90010
AAXX 07061 26825 11960 22403 11011 21026 39902 40088 52011 69902 70181 82030 333 21011 45998
AAXX 07061 26832 12960 02403 11016 21033 39888 40085 52017 69902 333 21017 555 90010
AAXX 07061 26887 31496 81902 10012 20004 39840 40046 52013 71011 886// 333 20012 88711 555 90011
AAXX 07061 26961 11357 82704 10012 20002 39870 40063 52018 69908 76162 885// 333 20006 88709 555 90011
AAXX 07061 33027 32597 72802 10016 21003 39922 40091 52028 875// 333 20015 555 90012
BBXX 3FZK3 07064 99556 71411 46/// /1428 10029 20014 49978 58076 7//// 8//// 22263 0//// 2////
BBXX 46001 07061 99563 71480 46/// /1018 10001 49863 56091 90550 22200 00039 10708 20707 300// 41103 70039 333 91222 555 11189 22201 30504 40922 60549 095177 090173 090176 089172 088177 086178
BBXX 46026 07061 99378 71228 46/// /3207 10111 40213 52005 90550 22200 00112 11507 20602 329// 41507 70035 333 91208 555 11073 22077 30521 42610 60549 311067 279069 279076 280076 278074 285081
BBXX 46042 07061 99368 71224 46/// /3510 10113 40203 53006 90550 22200 00114 11509 20804 331// 41508 70044 333 91212 555 11102 22108 30506 43513 60549 346096 346094 346095 347105 344105 344112
BBXX CG2958 07064 99500 71272 46/// /0905 10052 20046 40244 51017 7//// 8//// 22200 0//// 2////
BBXX CGBR 07064 99534 71293 46/// /0109 10042 20042 40190 50000 7//// 8//// 22200 0//// 2////
BBXX CGBY 07064 99487 71235 46/// /1006 10048 20028 40266 51012 7//// 8//// 22200 0//// 2////
BBXX CGDR 07064 99546 71304 46/// /1007 10053 20043 40157 54000 7//// 8//// 22200 0//// 2////
BBXX DCSL2 07064 99369 71474 41298 82025 10160 20160 40180 53020 70222 887// 22224 00157 20304 327// 40306 80160
BBXX DHDE 07063 99330 71391 41298 61810 10170 20162 40280 54000 75452 85723 22264 00180 20302 318// 40608 80165
BBXX DHYW 07061 99525 71430 41/97 81421 10070 20070 49860 56010 76166 8//// 22224 2//// 3//// 4//// 5//// 80070
BBXX OUJS2 07063 99377 71320 43999 11705 10140 20060 40340 54000 7//// 81/// 22211 00130 21201 3//// 4//// 5//// 6//// 80100 ICE /////
BBXX VQAJ8 07063 99385 71225 41/97 81215 10052 20020 40272 54000 70222 88/// 22200 00085 20501 300// 40000 5//// 80039
AAXX 07064 08001 NIL
AAXX 07064 08015 11/02 91003 10097 20075 39930 40341 52011 69982 745// 333 20095 32006 50044 55000 70019 89/03
AAXX 07064 08023 11562 22004 10109 20103 30269 40341 57003 60022 70181 82800 333 20109 50082 55000 70039
AAXX 07064 08027 12462 43004 10092 20080 30015 40331 55000 60002 81530 333 20086 31006 50170 55031 70010
AAXX 07064 08045 02980 02202 10083 20075 39999 40315 56004 60002 333 20075 3/004 55083 60007 79999
AAXX 07064 08141 11/01 93002 10016 20016 39457 40351 57002 60002 74544 333 20012 31001 55035 70000 89/91
AAXX 07064 08160 12670 12509 10082 20035 39996 40312 53005 60002 81501 333 20076 55064 70000
AAXX 07064 08181 02970 03512 10050 21017 30270 40277 53013 60002 333 20044 3/007 55027 60007 70000
AAXX 07064 08221 02980 01701 10007 21009 39618 40334 53003 60002 333 20007 30102 55082 60007 70000
AAXX 07064 08231 11970 03602 10014 21015 39193 48573 55000 60002 700// 333 20012 30101 50194 55058 70000
AAXX 07064 08261 12770 10000 10044 20029 39827 40325 55001 60002 81041 333 20036 31001 55078 70000
AAXX 07064 08284 02965 03006 10054 20019 30206 40284 55000 60002 333 20052 30004 50394 55058 60007 70000
AAXX 07064 08306 12565 20902 10026 20020 30274 40280 53009 60002 82800 333 20022 55000 70000
AAXX 07064 08314 02560 63302 10098 20061 30164 40269 53014 60002 84511 333 20096 3//// 55019 60007 70000
AAXX 07064 08430 NIL
AAXX 07064 08482 12970 02810 10096 20029 30278 40287 52011 60002 333 20090 55085 70000
AAXX 07064 16643 12560 63405 10080 20005 39993 49998 52033 60002 83850 333 20074 32/// 70095 82820 83635 86358 90730 91110 555 10000 30090 20000 89069 99090 40000 47526 44220 50000 50050
AAXX 07064 16648 11360 70000 10038 20023 39899 49990 52039 60032 70162 85670 333 20038 31/// 52500 55000 70120 83707 85625 87358 90730 91106 555 10000 30056 20000 89072 99092 30000 10050 2//// 30058 40050 5//// 6//// 40000 47454 44210 50000 50032 60000 60030 60330 70000 77/// 7R///
AAXX 07064 16650 12560 20000 10072 20045 39949 49953 52031 60032 82430 333 20072 30/// 55000 70109 90730 91113 555 10000 30142 20000 89064 99084 30000 10070 20074 30084 40082 50100 60116 40000 47494 44235 50000 50060 60000 60031 60210
AAXX 07064 16684 12460 83013 10082 20046 39935 49963 51029 60042 8567/ 333 20078 31/// 55003 70047 82712 85625 88358 90730 91120 555 10000 30124 20000 89059 99081 40000 47480 44200 50000 50066 60000 60039 60110
AAXX 07064 16732 11465 72120 10132 20080 39963 49975 53007 60002 702// 84870 333 20124 31/// 55005 70058 82818 83625 87359 90730 91128 555 10000 30134 20000 89063 99094 40000 47496 44150 50000 50106
AAXX 07061 14008 12099 53214 11122 21148 37426 47964 52015 60002 82270 333 21123 49110 55033 70000 92868 95100
AAXX 07061 14015 12783 13001 11006 21068 39831 40203 53025 60002 81140 333 21006 34106 55062 70000 81856 555 20006 30014
AAXX 07061 14023 12799 10501 11019 21053 39898 40205 52020 60002 81540 333 21023 34106 55053 70000 81650 555 20006 30015
AAXX 07061 14024 12499 10302 11009 21108 39074 48458 52014 6990/ 81800 333 21015 30103 55055 70000 81814 81615 95000
AAXX 07061 14026 12899 31501 11022 21067 39871 40205 52019 60002 83070 333 21029 34107 55075 70000 555 20007 30018
AAXX 07061 14031 12599 31301 11030 21055 39966 40205 52017 60002 81530 333 21035 34107 55058 70000 81630 555 21001 30008
AAXX 07061 14105 11999 11105 11008 21056 30178 40183 52018 60002 702// 80002 333 21018 34104 55063 70000 555 20008 30025
AAXX 07061 14106 12999 21101 11032 21042 30111 40183 52020 60002 80002 333 21040 34106 55073 70000 92611 95000 555 20007 30014
AAXX 07061 14112 12/97 00000 11030 29065 60004 333 10079 21032 3/105 70000
AAXX 07061 14121 12999 00000 11029 21048 39923 40202 52020 60002 333 21029 31107 55033 70000 555 20009 30020
AAXX 07061 14122 12984 12901 11047 21061 30001 40208 52019 60002 81030 333 21049 34/// 70000
BBXX BATUK01 07064 99580 70035 46/// /2833 10059 20012 40048 53016 22251 00077
AAXX 07064 16614 11460 83106 10014 21012 39246 40031 52074 69952 77072 8762/ 333 20003 41998 55000 70154 82710 86620 88458 90730 91118 93199 555 10000 30023 20000 89064 99095 60000 60005 61100 70000 77*// 7*///
AAXX 07064 16627 12460 60000 10094 20078 39963 49967 52036 69992 84740 333 20094 31/// 50240 55000 70079 82710 84620 90730 91115 555 10000 30130 20000 89077 99088 30000 10088 20088 30090 40088 50084 6//// 40000 47502 44210 50000 50086 60000 60009 60210
AAXX 07064 16667 12560 72014 10134 20078 39950 49955 51010 69952 85850 333 20134 31/// 55000 70048 82820 84625 86359 90730 91134 555 10000 30152 20000 89066 99089 30000 20102 30112 40000 47491 44200 50000 50106 60000 60005 60130
AAXX 07064 16675 NIL
AAXX 07064 16710 36/// /2806 10030 20014 39210 49981 52023 333 20027 90730 91109 555 10000 30054 20000 89069 99090
AAXX 07064 16723 11460 81915 10140 20129 39975 49991 53019 60162 72996 8682/ 333 20140 32/// 55/// 70171 83818 85625 88458 90730 91123 555 10000 30154 20000 89076 99091 40000 47514 44220 50000 50134 60000 60159 60400 70000 77TR/ 7TR//
AAXX 07064 16738 17/// /3506 10113 20042 39778 49974 52023 69902 7414/ 333 20108 90730 91115 555 10000 30126 20000 89059 99089 60000 65555 60936
AAXX 07064 16746 12560 72209 10096 20037 39807 49989 52005 60022 82270 333 20090 31/// 55075 70049 82820 87359 90730 91114 555 10000 30118 20000 89049 99088 40000 47385 44190 50000 50070 60000 60024 60130
AAXX 07064 60106 32965 22202 10000 21012 40296 56004 80002 333 21003 82070
AAXX 07064 60318 32958 01601 10055 20040 40268 53001 333 20051
AAXX 07064 17026 12570 81706 10154 20015 30017 40055 52015 60002 8452/ 333 20129 30007 55056 21126 84630 88459 91117 92418
AAXX 07064 17034 12970 01905 10168 21048 30053 40098 52005 60002 333 20105 30008 92428
AAXX 07064 17070 12565 60804 10091 20022 39180 40032 52025 60002 86500 333 20084 31006 50124 55010 20448 86630 91121
AAXX 07064 17084 12670 60301 11006 21019 39208 40132 52010 60002 82550 333 21020 34104 55023 82635 86360 91104
AAXX 07064 17090 12665 60000 10021 21024 38689 48462 52011 60002 84550 333 20002 3/101 45998 55038 84640 86360
AAXX 07064 17098 12660 10000 11105 21112 38191 48509 52013 60002 81400 333 21203 3/122 44013 50014 55007 20787 70002 81640
AAXX 07064 17150 11660 72006 10103 20058 39871 49992 52030 60112 72582 85270 333 20096 32009 50021 55020 20490 70110 85835 87360 91122
AAXX 07064 17160 12670 70101 10026 21018 38944 48421 52014 60002 84550 333 21004 31103 55053 84640 87360 91107
AAXX 07064 17184 11665 81805 10094 20083 39885 49994 52021 60212 78182 8422/ 333 20087 32008 55000 70350 84836 88459 91120
AAXX 07064 17189 11570 71621 10054 20025 38883 48361 51010 60032 78082 85250 333 20053 32004 70032 85830 87359
AAXX 07064 17210 12670 11901 10040 20009 39175 40228 53012 60002 81100 333 20027 30000 55006 81840
AAXX 07064 17234 11670 70101 10093 20086 39932 49999 50014 60152 72588 84270 333 20092 32009 55020 70158 84836 87360 91108
AAXX 07064 17260 11241 80802 10041 20041 39375 40210 52014 60022 76162 8572/ 333 20041 32002 20105 70016 83705 85625 88458 96010
AAXX 07064 17290 11670 71710 10131 20098 39968 49999 52006 60202 70282 84270 333 20121 32011 50094 55032 70219 84835 87360 91128 92438
AAXX 07064 17370 11665 51906 10136 20056 30158 40162 52008 69912 72582 83230 333 20111 32010 50154 55004 2//// 70005 83835 85360 92427
AAXX 07064 17022 12665 71607 10155 20014 39852 40012 52020 60002 85270 333 20149 30009 55019 85834 87360 91126 92437
AAXX 07064 17031 12670 61504 10107 21004 30072 40078 52014 60002 83130 333 20080 30007 83836 86360
AAXX 07064 17038 12970 62120 10167 21059 30055 40105 52010 60002 83031 333 20154 30005 55021 20678 83360 86070 91031 92428
AAXX 07064 17050 1//// /2908 10037 20028 39926 49987 52041 60072 333 20037 3//// 4//// 70312
AAXX 07064 17060 11560 61712 10124 20039 39957 49996 52024 60012 70282 84250 333 20108 31009 50101 55003 20285 70012 84830 86360
AAXX 07064 17096 12570 52403 11031 21067 38228 48502 52010 60002 83550 333 21082 3/108 47010 50044 55025 20184 70004 83630 85358
AAXX 07064 17124 11560 70708 10052 20031 39124 40033 52012 69982 76022 84550 333 20041 32003 50014 55012 20465 70008 84630 86359
AAXX 07064 17128 12670 71510 10059 20014 38991 40092 52007 60002 84250 333 20019 32001 50054 55028 20218 84840 86360
AAXX 07064 17170 NIL
AAXX 07064 17195 11660 51902 10032 21015 38891 48415 54000 60002 71011 82530 333 21028 34104 50074 55028 21038 82640 85360
AAXX 07064 17199 11558 72301 10015 20010 39094 40215 52010 69912 71022 85670 333 20006 34101 55000 20188 70001 81720 84640 87460
AAXX 07064 17219 11565 71708 10102 20081 39841 49983 52020 60142 78098 84250 333 20098 32009 55000 20051 70206 84830 87360 91136
AAXX 07064 17240 11570 71718 10076 20027 38894 40026 53008 60192 72588 85250 333 20056 32005 55009 20477 70188 85830 87360 91036 91136
AAXX 07064 17244 12670 51720 10059 20021 38887 48394 53005 60002 82550 333 20030 30/// 82640 85360
AAXX 07064 17280 11656 52803 10018 20013 39423 40236 52015 60002 71022 82550 333 20001 31101 50111 55000 20071 70018 82640 85360
AAXX 07064 17350 12660 70409 10092 20088 30082 40161 52008 60082 85250 333 20083 32/// 70088 85835 87360
AAXX 07064 64500 32460 81404 10256 20239 30095 40108 885// 333 02400 20252 50191 55052 59008 84610 88633
AAXX 07064 17042 12970 01117 10135 21059 30085 40124 52007 60002 333 20132 30012 55035 92438
AAXX 07064 17074 3//// /0405 10079 20011 39140 40067 53003 60002 333 20037 3//// 4//// 70000
AAXX 07064 17086 12670 62902 10073 21024 39400 40112 52017 60002 84530 333 20032 30001 55066 20976 84635 86360
AAXX 07064 17088 12670 52801 11014 21061 38783 48481 52011 60002 83550 333 21022 34103 55000 20243 83640 85360
AAXX 07064 17140 12665 71607 10037 21021 38630 48421 52012 60002 87200 333 20016 32000 55037 2//// 87840
AAXX 07064 17155 11530 81604 10032 20020 38919 40029 53005 60512 76366 8552/ 333 20030 32003 55010 70514 85632 88558 91121
AAXX 07064 17203 11670 80000 11023 21028 38908 48548 52015 60022 70272 8452/ 333 21039 3/104 47080 55000 2//// 70072 84640 88460 93102
AAXX 07064 17237 11658 81505 10082 20072 39516 40012 52015 60772 76398 8552/ 333 20078 32007 55044 70764 85633 88458 91122
AAXX 07064 17250 12975 31616 10082 21012 38728 48427 52013 60002 83030 333 20055 30004 55082 83360
AAXX 07064 17270 12665 80000 10055 20025 39560 40220 52015 60002 8552/ 333 20048 32004 55000 70013 85640 88460
AAXX 07064 17295 11560 71725 10154 20111 30019 40026 52013 60122 78082 84270 333 20137 33012 50104 55018 70202 84830 87360
AAXX 07064 17320 11670 73605 10120 20102 30126 40131 53013 60522 72588 85201 333 20097 32009 50111 55009 70915 85836 87067 92448
AAXX 07064 17375 11570 71908 10161 20101 30061 40063 53004 60232 72582 84270 333 20129 32012 50241 55035 70308 84830 87360 92447
AAXX 07064 17500 12560 61212 10134 20073 30078 40138 57002 69922 86800 333 20086 31006 50221 55079 20672 70002 82825 85630
AAXX 07064 17501 12560 63103 10145 20072 30108 40127 52011 60002 84830 333 20121 30011 55056 20990 82625 83830 92427
AAXX 07064 17505 12560 60603 10124 20076 30023 40136 52009 60002 84830 333 20110 30009 55068 21125 82625 83830
AAXX 07064 17507 12560 62106 10135 20071 30028 40148 53005 60022 86800 333 20093 31007 5///1 55/// 2//// 70016 82825 85630
AAXX 07064 17510 12560 51816 10158 20060 30094 40104 53004 60002 84230 333 20116 30009 50121 55068 20795 70002 84830 92447
AAXX 07064 17515 12560 61103 10118 20074 39979 40155 52011 69992 84830 333 20084 31007 50091 55068 21151 70009 82625 83830
AAXX 07064 17521 11560 72108 10128 20089 39998 40138 53008 69962 70382 86830 333 20088 31007 50201 55080 21161 70006 83625 84830
AAXX 07064 17530 12560 60000 10103 20080 30092 40149 53008 60022 70282 84830 333 20082 31007 55073 21170 70024 82625 83830
AAXX 07064 17535 12560 62104 10110 20078 30092 40128 52009 69982 70282 84830 333 20092 31007 55040 21122 70008 82625 83830
AAXX 07064 17540 12560 41510 10153 20086 30134 40158 52008 69942 82130 333 20103 31006 50091 55/// 2//// 70004 82825 83360 92437
AAXX 07064 17547 11560 41816 10133 20076 39896 40138 52003 60032 70282 83130 333 20101 31008 5//// 55027 20648 70034 82825 83360 92437
AAXX 07064 17550 12560 61607 10143 20074 39992 40136 52006 60002 84830 333 20108 30009 55045 20956 82625 83830 92427
AAXX 07064 17572 12560 5//// 10153 20061 30110 40134 52006 60002 84230 333 20115 30009 84830 92447
AAXX 07061 14241 12884 12501 11033 21058 30066 40203 52022 60002 81500 333 21033 31///
AAXX 07061 14284 12980 13306 10013 21042 30060 40172 52016 60002 81030 333 20012 31100
AAXX 07061 14307 32984 00502 10025 21065 30106 40185 52021 333 21014 30///
AAXX 07061 14317 NIL
AAXX 07061 14431 12780 12603 10077 21069 30068 40162 53023 60002 81100 333 20062 30/// 81856
AAXX 07061 14444 33980 00104 10065 21071 30117 40147 52034 333 20065 30/// 91119 91536
AAXX 07061 14474 12980 13108 10061 21064 39895 40087 51044 60002 81030 333 20061 30/// 70014 91015 91533 91122 91533
AAXX 07061 12105 11358 82204 10022 20013 30026 40069 58020 69912 75182 886// 333 10023 21002 32102 70003 88707 93091
AAXX 07061 12195 11369 52305 11021 21027 39846 40079 57003 69912 70381 856// 333 10013 21026 3/103 47997 55009 70011 93091
AAXX 07061 12235 11229 82207 10002 20002 39869 40083 57014 69902 77182 8672/ 333 10002 21011 3/102 47997 70006 86704 88515 93097
AAXX 07061 12270 12462 82406 11006 21017 39914 40100 58010 60002 885// 333 10011 21018 34103 70014 93000
AAXX 07061 12280 12476 62306 11013 21023 39924 40085 58006 69942 86500 333 10018 21022 34104 70008 91011 91111 93000
AAXX 07061 12300 12365 82603 10022 20018 30017 40108 57020 60002 886// 333 10022 21013 31102 70006 91108 93000
AAXX 07061 12400 11565 72405 10018 20009 39889 40129 58018 69912 70182 875// 333 10021 21012 31102 70003 91110 93091
AAXX 07061 12435 12565 82606 10007 21008 39954 40130 58013 60002 885// 333 10016 20001 34103 70009 93000
AAXX 07061 12495 11484 62804 11008 21025 39840 40140 52012 60012 70182 86500 333 10031 21008 34100 70041 91110 93097
AAXX 07061 12530 12680 72302 10009 21018 39952 40156 56008 60002 875// 333 10021 20000 31101 70014 93000
AAXX 07061 12570 12483 62603 11013 21027 39825 40153 52007 69972 85501 333 10027 21013 34102 70032 93000
AAXX 07061 12580 12570 72905 10004 21027 39885 40151 50010 69922 875// 333 10033 20002 34102 70020 91112 93000
AAXX 07061 03976 11574 72909 10090 20050 30227 40239 53010 69922 70382 873// 333 20086 31007 55000 81920 81820 86636
AAXX 07061 33088 12597 73102 10003 21011 39918 40113 52030 69902 87500 333 20000
AAXX 07061 33177 NIL
AAXX 07061 33261 11310 82801 10030 20027 39888 40071 52019 60012 71062 886// 333 20029 88707
AAXX 07061 33275 11295 81803 10054 20052 39838 40060 52013 60082 76164 8772/ 333 20048 87704
AAXX 07061 33301 11396 83104 10000 21011 39827 40114 51019 69972 77175 8672/ 333 21004 86708
AAXX 07061 33325 32597 80000 10018 21001 39826 40097 52025 8757/ 333 20002 87622
AAXX 07061 33377 NIL
AAXX 07061 33415 NIL
AAXX 07061 33429 11396 83201 10008 20003 39684 40113 52023 69902 78782 883// 333 20005 43997 86709
AAXX 07061 33466 11916 82901 10010 20005 39894 40084 52022 69982 71062 8807/ 333 20010
AAXX 07061 33526 11460 83206 10008 21018 39792 40138 52029 69932 78582 883// 333 20007 85916
AAXX 07061 33562 32497 83204 10010 21001 39729 40094 52020 885// 333 20000 88619
AAXX 07061 33614 11994 92602 10041 20039 39962 40066 52024 60072 76164 333 20041 96047
AAXX 07061 33761 11340 81805 10031 20023 39845 40069 52014 60052 76166 8872/ 333 20031
AAXX 07061 33902 11594 80000 10053 20048 39974 40037 52011 60032 71022 885// 333 20049
AAXX 07061 33983 32997 81609 10100 20051 30001 40061 53007 80001 333 20074
AAXX 07061 34415 32967 81802 10021 20005 30008 40105 53010 86035 333 20021
AAXX 07061 34523 32497 81003 10024 20008 30053 40130 52009 885// 333 20020 88616
AAXX 07061 34712 32572 81008 10016 20011 30018 40105 53012 885// 333 20015 88627
AAXX 07061 13160 32997 13504 10010 21036 30055 40167 53006 81030 333 20010 31001 55000 70000
AAXX 07061 13262 32698 73405 10027 21047 30020 40172 52019 84570 333 20027 31002 55000 70000
AAXX 07061 13272 32970 33508 10011 21027 30019 40142 52022 83030 333 20011 31000 55000 83360
AAXX 07061 13285 32697 82903 10024 21002 30000 40104 52018 885// 333 20020 31002 55000 70000 91008
AAXX 07061 13289 11/92 93212 11044 21049 38845 48350 52019 69942 74944 333 21044 3/106 47004 55000 70014 91028 91128
AAXX 07061 13376 32698 82906 10020 21022 39871 40139 52029 885// 333 20010 21002 55000 70005 91113
AAXX 07061 13388 12598 83206 10024 21007 39826 40077 52028 69902 886// 333 20022 31018 55000 70063 91116
AAXX 07061 13462 32570 40212 10082 21057 30034 40074 52039 84800 333 20070 30007 55/// 81830 83640
AAXX 07061 13473 NIL
AAXX 07061 13489 11494 80504 10007 20004 39549 40076 52044 60112 77177 887// 333 20006 3/000 47005 55000 70232 91011 91113 93105
AAXX 07061 33587 11696 83302 10014 20006 39821 40087 52022 69942 71082 885// 333 20014 88638 555 32001
AAXX 07061 33924 32997 80903 10066 20043 30019 40031 52009 8807/ 333 20056
AAXX 07061 26038 01556 62402 11013 21013 39886 49927 55002 60042 78582 86900 333 11007 21045 47007 60047 86921 91109 555 1/102 21045 3/105 51013 52104
AAXX 07061 26106 12997 71905 11002 21028 49993 57014 60012 87050 333 21016 43997
AAXX 07061 26346 12597 62203 11027 21035 49995 57005 69932 86100 333 21044 43005 86128 93700
AAXX 07061 26406 32597 62407 10037 21002 49991 57021 86500 333 20013 86624 91011 91115
AAXX 07061 26416 33/// /2204 10001 21017 49993 57019 333 21023
AAXX 07061 26424 12497 62204 11002 21026 49995 57018 69902 86530 333 21017 46997 86618
AAXX 07061 26544 11697 52102 11030 21039 40034 52005 69942 70381 83530 333 21030 47997
AAXX 07061 26313 NIL
AAXX 07061 26141 01211 82106 11018 21023 39784 49933 56021 60022 77373 8872/ 333 11008 21081 47005 60017 88504 91111 555 1/101 21081 3/112 51021 52107
AAXX 07061 01001 11465 60608 10003 21010 30014 40026 52012 69902 70222 85860 333 21012 44999 79999 91112
AAXX 07061 01212 16/// /1805 10030 21003 39890 49905 57023 6//// 333 20009 91112
AAXX 07061 01492 16/// /0701 11012 21033 39843 49962 56018 6//// 333 21019 91104
AAXX 07061 01028 11480 60411 11017 21036 30039 40059 57003 60002 70221 86800 333 21020 70000 91114
AAXX 07061 01049 16/// /2301 11052 21059 39986 49990 57005 60012 333 21091 70010 91103
AAXX 06181 80001 11470 70603 10266 20240 30135 40136 69911 70252 82236 333 56200 59011 82816 85270
AAXX 06181 80002 NIL
AAXX 06181 80009 NIL
AAXX 06181 80022 31462 30502 10252 20229 30110 40112 70500 82401 333 566/6 59001 82618
AAXX 06181 80028 31960 00205 10253 20228 30089 40124 70500 333 58001
AAXX 06181 80035 NIL
AAXX 06181 80036 NIL
AAXX 06181 80063 NIL
AAXX 06181 80084 NIL
AAXX 06181 80091 NIL
AAXX 06181 80094 31462 80000 10200 20188 38822 71022 8187/ 333 5673/ 81610 87457
AAXX 06181 80097 NIL
AAXX 06181 80099 NIL
AAXX 06181 80110 NIL
AAXX 06181 80112 31250 80102 10142 20135 37907 74122 8557/ 333 56099 58001 85707 85358
AAXX 06181 80139 NIL
AAXX 06181 80144 NIL
AAXX 06181 80149 NIL
AAXX 06181 80210 NIL
AAXX 06181 80211 NIL
AAXX 06181 80214 NIL
AAXX 06181 80222 NIL
AAXX 06181 80234 NIL
AAXX 06181 80241 NIL
AAXX 06181 80259 31560 60000 10193 20183 39063 70511 82530 333 5649/ 82623 85359
AAXX 06181 80315 NIL
AAXX 06181 80342 NIL
AAXX 06181 80370 NIL
AAXX 06181 80398 NIL
AAXX 06181 80001 11470 70603 10266 20240 30135 40136 69911 70252 82236 333 56200 59011 82816 85270
AAXX 06181 80002 NIL
AAXX 06181 80009 NIL
AAXX 06181 80022 31462 30502 10252 20229 30110 40112 70500 82401 333 566/6 59001 82618
AAXX 06181 80028 31960 00205 10253 20228 30089 40124 70500 333 58001
AAXX 06181 80035 NIL
AAXX 06181 80036 NIL
AAXX 06181 80063 NIL
AAXX 06181 80084 NIL
AAXX 06181 80091 NIL
AAXX 06181 80094 31462 80000 10200 20188 38822 71022 8187/ 333 5673/ 81610 87457
AAXX 06181 80097 NIL
AAXX 06181 80099 NIL
AAXX 06181 80110 NIL
AAXX 06181 80112 31250 80102 10142 20135 37907 74122 8557/ 333 56099 58001 85707 85358
AAXX 06181 80139 NIL
AAXX 06181 80144 NIL
AAXX 06181 80149 NIL
AAXX 06181 80210 NIL
AAXX 06181 80211 NIL
AAXX 06181 80214 NIL
AAXX 06181 80222 NIL
AAXX 06181 80234 NIL
AAXX 06181 80241 NIL
AAXX 06181 80259 31560 60000 10193 20183 39063 70511 82530 333 5649/ 82623 85359
AAXX 06181 80315 NIL
AAXX 06181 80342 NIL
AAXX 06181 80370 NIL
AAXX 06181 80398 NIL
AAXX 07064 68234 12960 30910 10223 20167 48533 52016 60014 81082 333 20172
AAXX 07064 06030 01035 82211 10051 20045 39950 49966 57041 60032 75822 886// 333 10051 20016 32000 69957 70025 81701 85703
AAXX 07064 06060 01130 82407 10066 20064 39921 49985 57030 60022 75862 887// 333 10067 20025 31000 69967 70019 83702 87704
AAXX 07064 06070 07250 82206 10045 20034 39959 49989 57044 69982 71050 333 10045 20005 69907 70008 83/04 87/06 88/08
AAXX 07064 06120 NIL
AAXX 07064 06180 01458 82109 10032 20020 30012 40019 57033 60012 76262 885// 333 10042 20004 32101 60017 70013 88611
AAXX 07064 06193 07461 72525 10045 20032 30020 40032 57021 69992 70086 333 10049 20027 55300 20000 69987 70009 81/12 85/61 87/63
AAXX 07064 16434 13470 40114 10020 21040 38921 48423 52018 60052 84200 333 21002 45998 55/// 2//// 84816 95000 95100
AAXX 07061 13378 11/91 90208 11080 21091 38131 48349 52033 60012 74544 333 21080 3/110 48034 55000 70042 91018 91121 93101
AAXX 07061 13278 32698 73207 10021 21014 39895 40125 52023 87500 333 20020 31002 55000 70000 91013 91116
AAXX 07061 13397 11595 82806 10004 20001 39516 40062 52034 60092 77172 8802/ 333 20004 3/100 43015 55000 70296 91009 91112 93115
AAXX 07061 13168 32698 23205 10004 21028 30040 40150 53020 82500 333 20001 31000 50000 70000
AAXX 07061 13174 32998 23406 10012 21025 30038 40141 52020 82030 333 20011 31000 55000 70000
AAXX 07061 13269 32697 83205 10023 21012 39933 40152 52016 885// 333 20023 31002 55002 70000 91011 91111
AAXX 07061 13274 32697 63304 10012 21019 39976 40142 52020 86500 333 20012 31000 55000 70000
AAXX 07061 13278 NIL
AAXX 07061 13378 NIL
AAXX 07061 13397 NIL
AAXX 07061 13457 32970 23306 10087 21053 30069 40076 52050 82030 333 20069 31006 55/// 82360 91113
AAXX 07061 13481 NIL
AAXX 07061 13180 32698 43407 10012 20010 30010 40123 52023 84500 333 20007 31000 55000 70000 91111
AAXX 07061 13173 32998 23404 10007 21014 30034 40137 52021 82030 333 20007 31000 55000 70000
AAXX 07061 13389 12597 83406 10027 21022 39793 40077 51037 69992 886// 333 20027 31003 55000 70147
AAXX 07061 13266 32698 63407 10018 21030 30051 40154 52025 86500 333 20014 31001 55000 70000 91013 91113
AAXX 07061 13384 32697 83403 10027 21002 39956 40110 52034 885// 333 20027 31002 55000 70000
AAXX 07061 13369 11496 72905 11035 21048 38897 48376 52022 60032 77172 87500 333 21035 3/104 44029 55000 70081 91011 91115 93104
AAXX 07061 13383 32698 83107 10034 21009 39898 40104 52023 885// 333 20033 31003 55000 70000
AAXX 07061 12160 12470 81904 10002 21009 30018 40072 57016 69902 885// 333 10017 21021 34103 55003 70017 93000
AAXX 07061 12205 11665 62306 10031 20022 30079 40087 57026 69902 70182 86500 333 10031 21004 31101 70003 93097
AAXX 07061 12465 12474 62404 11009 21020 39891 40131 57012 60002 8353/ 333 10018 21010 34102 55/// 20055 70064 83615 93000
AAXX 07061 12566 11580 52305 11005 21029 39866 40169 52007 69922 70372 85500 333 10026 21005 3/101 43997 70029 93097
AAXX 07061 12120 11462 82309 10028 20025 30038 40045 58021 60032 78081 883// 333 10028 20001 31101 70036 91112 93003
AAXX 07061 12250 12364 82304 10004 21006 30011 40102 57011 69902 885// 333 10018 21018 34103 70001 93000
AAXX 07061 12295 11969 12302 11026 21030 39912 40102 51006 69922 70171 80002 333 10017 21026 3/104 43997 70015 93097
AAXX 07061 12330 12270 82405 10018 20012 30006 40116 57016 60002 886// 333 10019 21004 31101 70001 88705 93000
AAXX 07061 12375 12470 42301 11009 21017 39987 40121 58002 60002 82530 333 10032 21009 31102 70026 82516 93000
AAXX 07061 12424 11482 72503 10024 20008 39991 40146 57012 69902 70281 875// 333 10027 21012 31103 70012 87615 93097
AAXX 07064 08055 12987 00104 10004 21002 39256 48592 55002 60002 333 20002 31102 55087 70000 95090
AAXX 07064 08075 12362 60203 10050 20046 39276 48601 55002 60002 868// 333 20045 55014 70000
AAXX 07064 08084 02565 42802 10079 20052 39894 40337 53002 60002 82670 333 20060 3/002 55011 60007 70003
AAXX 07064 08171 12980 00202 11002 21013 30041 40294 52001 60002 333 21005 31010 50140 55055 70000
AAXX 07064 08184 02960 40000 11006 21025 30114 40278 53009 60002 80006 333 21006 3/102 55069 60007 70000
AAXX 07064 08202 01965 30705 10015 20008 39388 42914 55003 60002 70240 80001 333 20007 30104 55090 60007 70000
AAXX 07064 08235 NIL
AAXX 07064 08238 12865 22814 10122 20025 30201 40263 55001 60002 82040 333 20119 55055 70000
AAXX 07064 08280 11106 19902 11014 21020 39461 40327 55001 60002 74140 81601 333 21014 50344 55028 70000
AAXX 07064 08330 11/01 90604 10023 20013 30068 40309 57001 60002 74540 333 20022 31002 50024 55012 70000 89/01
AAXX 07064 08348 12963 10000 10014 20008 39566 40337 54000 60002 80002 333 20014 50104 55079 70000
AAXX 07064 08360 02670 62702 10105 20064 30248 40286 53005 60002 86500 333 20105 3/012 55068 60007 70000
AAXX 07064 08373 02560 20000 10078 20069 30259 40281 53005 60002 82500 333 20071 3/005 55076 60007 70000
AAXX 07064 08410 02970 01203 10069 20039 30177 40291 53004 60002 333 20046 31003 55086 60007 70000
AAXX 07064 08419 02966 30000 10001 21012 39616 40320 53006 60002 80008 333 20001 3/101 55045 60007 70000
AAXX 07064 08451 02975 00000 10032 20023 30229 40264 55002 60002 333 20028 3/001 55/// 60007 70000
AAXX 07064 08487 02970 03509 10115 20063 30260 40286 53011 60002 333 20112 3/010 55045 60007 79999
AAXX 07064 08001 11365 70803 10108 20103 30247 40330 56003 60002 70341 875// 333 20102 31007 50044 55000 70027 924/7
AAXX 07064 08430 12980 20000 10080 20058 30218 40295 53005 60002 82030 333 20072 30004 50521 55068 70000
AAXX 07064 16206 12980 00201 11012 21026 30183 40192 52013 60002 333 21020 30/// 55/// 2////
AAXX 07061 15501 12570 83207 10049 20005 39996 40040 52034 60002 885// 333 10056 20048 70025 555 32/// 573//
AAXX 07061 15511 11570 83204 10042 20014 30024 40063 52043 60082 76166 8802/ 333 10050 20036 55000 70213 555 32/// 58203 69999
AAXX 07061 15514 11558 83205 10028 20018 39997 40033 52031 60272 76366 8802/ 333 10060 20026 70411 555 32/// 59309 69999 93027
AAXX 07061 15530 11664 82703 10015 20004 39771 40011 52055 60152 76876 8352/ 333 10022 20006 42001 70273 555 3/101 59302 69999 70660 93015
AAXX 07061 15533 11566 80508 10037 20025 39971 40003 52071 60232 78186 889// 333 10070 20030 70386 91120 555 32/// 59205 69999 93023
AAXX 07061 15550 11465 80714 10035 20025 39984 40004 52038 60372 76166 8562/ 333 10078 20035 70480 91120 555 32/// 59303 69999 93037
AAXX 07061 15561 11470 82504 10094 20073 39975 49982 52034 60052 70262 8552/ 222// 00082 314// 4//02 333 10102 20086 70124 555 31008 587// 70649 92035 92438
AAXX 07061 15562 12481 72310 10102 20068 39924 49995 52043 60062 87500 222// 2//02 333 10108 20088 55000 70102 555 31008 580// 92035 92438
AAXX 07061 15600 11/00 93620 11077 21087 38121 48336 52046 60122 77174 333 11068 21077 49025 55000 70199 91124 555 593// 69999 92711 92993
AAXX 07061 15601 11770 83202 10024 21026 39387 40007 52032 69942 70272 883// 333 10024 20004 43002 55000 70323 555 3/000 570// 70600
AAXX 07061 15605 11630 82707 11014 21014 39193 40051 52046 60032 77177 8802/ 333 11008 21016 48017 70259 555 3/101 500// 69999 70653
AAXX 07061 15613 11/00 93424 11108 21116 37509 47833 52040 60062 74974 333 11096 21108 48067 55000 70094 91128 92991 555 593// 92717
AAXX 07061 15628 11665 82506 10028 21001 39751 40009 52045 60292 70262 885// 333 10030 20011 42003 55000 70379 555 3/000 58103 69599 70651 93029
AAXX 07061 15642 12570 83203 10026 20023 39804 49972 52042 60022 885// 333 10104 20026 55000 70238 555 32000 598//
AAXX 07061 15661 12570 81602 10104 20061 39930 49965 52032 60002 885// 222// 20000 333 10120 20090 70000 555 31005 575// 92012 92418
AAXX 07061 15726 11/00 93403 11066 21071 38050 48325 52041 60262 77377 333 11016 21066 49088 55000 70514 555 59703 69999 70656 93026
AAXX 07064 71397 11458 80508 11057 21074 30060 40095 57032 69961 77122 885// 333 11042 21094 47005 70006 90952 93101 555 10012 20006 32917 40080
AAXX 07064 71400 16/64 /1601 11196 21210 60001 333 11011 21196 70036 555 32620 40171
AAXX 07064 71403 46/// /1508 11013 21046 30103 40123 56022 6///1 333 11013 21078 7////
AAXX 07064 71411 17/// /1212 10028 20023 30079 40092 58025 69971 7//4/ 333 10028 21083 70007 555 31418 40051
AAXX 07064 71412 16/// /2402 11077 21119 30114 40124 56013 60001 333 11051 21118 70000 555 33031 40112
AAXX 07064 71421 NIL
AAXX 07064 71430 16/// /2507 10048 20039 39942 40038 56011 60001 333 10072 20020 70003 555 32027 40111
AAXX 07064 71431 16/// /2801 10027 20019 39937 40032 56007 60001 333 10053 21007 70000
AAXX 07064 71432 NIL
AAXX 07064 71433 NIL
AAXX 07064 71435 NIL
AAXX 07064 71441 46/// /1004 11048 21076 39833 40144 56003 6///1 333 10038 21051 7//// 555 32834 40093
AAXX 07064 71443 16/// /0302 11064 21069 39725 40143 53011 60001 333 11015 21065 70041
AAXX 07064 71444 NIL
AAXX 07064 71447 16/// /2906 11016 21041 39604 40152 51007 60001 333 10025 21016 70000 555 33133 40182
AAXX 07064 71467 16/// /1208 11220 21241 39911 40028 57017 60001 333 11202 21230 70000
AAXX 07064 71472 NIL
AAXX 07064 71474 16006 81903 11047 21063 38984 40247 53008 60001 333 11018 21068 70000
AAXX 07064 71510 16/// /2807 11072 21104 39456 40174 53008 60001 333 10020 21072 7////
AAXX 07064 71538 12974 72307 10051 20017 39820 40047 56012 60001 87030 333 10111 20033 70000 555 10000 20000 32420 40171
AAXX 07064 71600 16864 80000 11001 21059 30140 40146 56004 60001 333 10039 21024 70000 555 33026 40101
AAXX 07064 71601 NIL
AAXX 07064 71300 NIL
AAXX 07064 71301 NIL
AAXX 07064 71302 16/// /1812 11022 21032 39379 40210 58004 60001 333 11009 21064 70000
AAXX 07064 71303 46/// ///// 10041 20016 6///1 333 10074 20022 7////
AAXX 07064 71305 15966 00505 11263 21289 39863 40168 58007 60001 333 11121 21266 70000
AAXX 07064 71306 15966 02201 11230 21254 30082 40116 57003 60001 333 11218 21288 70000
AAXX 07064 71307 NIL
AAXX 07064 71308 16/// /1502 11076 21126 30051 40137 56009 60001 333 11036 21111 70000 555 10010 33221 40141
AAXX 07064 71309 NIL
AAXX 07064 71310 16/// /1505 11097 21139 30089 40127 57006 60001 333 11067 21138 70000 555 10050 32828 40102
AAXX 07064 71311 17/// /1004 11068 21085 30078 40103 58024 69951 7//4/ 333 11062 21127 70005 555 10010 20005 33024 40091
AAXX 07064 71312 17/// /0206 11024 21031 39674 40135 53005 69951 7//4/ 333 10019 21039 70038 555 33225 40081
AAXX 07064 71314 16/// /3402 10003 21008 39681 40030 58005 60001 333 10055 21057 70000
AAXX 07064 71315 16/// /1903 11138 21162 30055 40110 56018 60001 333 11125 21178 70000 555 32817 40171
AAXX 07064 71316 16/// /2606 11031 21084 39468 40158 51006 60001 333 10016 21032 70000 555 33021 40211
AAXX 07064 71317 NIL
AAXX 07064 71318 16/// /2706 11098 21126 39229 40191 53004 60001 333 10021 21107 70000 555 32817 40171
AAXX 07064 71319 17/// /0103 11149 21160 39165 40046 56010 60011 7//4/ 333 11133 21231 70020
AAXX 07064 71320 16/// /3112 11419 21462 39987 49987 51001 60001 333 11324 21422 70000
AAXX 07064 71321 NIL
AAXX 07064 71322 NIL
AAXX 07064 71323 17/// /1603 11057 21064 39757 40041 57009 60011 7//4/ 333 11057 21187 70030
AAXX 07064 71331 16/// /0000 11152 21180 60001 333 11093 21152 70000
AAXX 07064 71332 NIL
AAXX 07064 71334 46/// /2003 11262 21292 39827 40175 56003 6///1 333 11217 21262 7////
AAXX 07064 71335 46058 ///// 11130 39330 49951 53004 6///1 333 11085 21138 7////
AAXX 07064 71336 46/// ///19 11065 21110 30042 40065 53016 6///1 333 10055 21065 7////
AAXX 07064 71337 46/// /2609 11125 21146 39808 40050 53003 6///1 333 11025 21139 7//// 555 32729 40182
AAXX 07064 71338 46964 30000 11328 21379 30028 40036 56008 6///1 333 11277 21362 7////
AAXX 07064 71339 16964 02514 11186 21227 39989 40004 53005 60001 333 11007 21187 70050 555 33031 40182
AAXX 07064 71340 NIL
AAXX 07064 71341 NIL
AAXX 07064 71342 NIL
AAXX 07064 71343 NIL
AAXX 07064 71344 NIL
AAXX 07064 71345 NIL
AAXX 07064 71346 NIL
AAXX 07064 71347 NIL
AAXX 07064 71348 NIL
AAXX 07064 71349 NIL
AAXX 07064 71102 NIL
AAXX 07064 71105 NIL
AAXX 07064 71107 NIL
AAXX 07064 71110 NIL
AAXX 07064 71111 15966 82008 10040 20016 30140 40148 57013 60001 333 10067 20002 70000
AAXX 07064 71112 17/// ///// 69941 7//4/ 333 70030
AAXX 07064 71113 17/// /1502 10002 20000 30245 40269 53009 69921 7//4/ 333 10052 20002 70010
AAXX 07064 71115 NIL
AAXX 07064 71116 16/// /3608 11076 21113 39088 40201 53003 60001 333 10041 21078 70000 555 32828 40072
AAXX 07064 71118 16/// /2807 11048 21103 39344 40181 53004 60001 333 10014 21053 70000 555 32619 40071
AAXX 07064 71121 16964 02505 11082 21150 39346 40183 51001 60001 333 10012 21091 70000 555 32917 40191
AAXX 07064 71127 16/// /2804 11040 21083 39256 40177 55000 60001 333 10011 21046 70000 555 32817 40131
AAXX 07064 71130 17416 83506 11023 21030 39678 40140 52006 60001 771// 333 10021 21038 70048
AAXX 07064 71132 15666 61003 11248 21275 39845 40176 58002 60001 333 11162 21271 70000
AAXX 07064 71133 NIL
AAXX 07064 71139 16/// /1803 11046 21128 38698 40170 55003 60001 333 11003 21060 70000 555 32823 40091
AAXX 07064 71141 NIL
AAXX 07064 71142 15966 02310 11051 21079 39202 40183 53001 60001 333 10017 21054 70000
AAXX 07064 71143 NIL
AAXX 07064 71144 NIL
AAXX 07064 71147 NIL
AAXX 07064 71149 16/// /1303 11051 21058 60001 333 10037 21053 70003 555 33032 40072
AAXX 07064 71001 15966 00812 11080 21100 38993 49958 53008 60001 333 11050 21084 70000
AAXX 07064 71002 15666 82709 11203 21232 39513 40075 53010 60001 333 11203 21264 70000
AAXX 07064 71003 15966 00502 11324 21359 39712 40117 56004 60001 333 11203 21327 70000
AAXX 07064 71005 16/// ///// 11077 21109 60001 333 10016 21087 70000
AAXX 07064 71006 NIL
AAXX 07064 71007 NIL
AAXX 07064 71008 NIL
AAXX 07064 71009 NIL
AAXX 07064 71010 NIL
AAXX 07064 71011 NIL
AAXX 07064 71012 NIL
AAXX 07064 71013 NIL
AAXX 07064 71014 NIL
AAXX 07064 71015 NIL
AAXX 07064 71016 NIL
AAXX 07064 71017 NIL
AAXX 07064 71018 NIL
AAXX 07064 71019 NIL
AAXX 07064 71020 NIL
AAXX 07064 71021 NIL
AAXX 07064 71022 17566 81409 10040 20030 30117 40161 55000 60021 7614/ 333 10049 20022 70040 555 31528 40222
AAXX 07064 71023 NIL
AAXX 07064 71024 16/// /0801 11147 21152 60001 333 11086 21202 70000
AAXX 07064 71026 NIL
AAXX 07064 71027 16/// /2003 11075 21109 30119 40129 55000 60001 333 11016 21088 70000
AAXX 07064 71028 16/// /0102 11069 21074 39192 40252 51008 60001 333 10000 21069 70000 555 31317 40031
AAXX 07064 71029 16/// /1104 11230 21253 30005 40045 58016 60001 333 11205 21236 70008 555 10030 20008 31320 40131
AAXX 07064 71030 17/40 /2103 10033 20031 39970 40060 55018 60041 7//4/ 333 10033 21096 70038 555 10020 20038
AAXX 07064 71032 46/// /2601 11026 21032 39411 40259 53013 6///1 333 10005 21034 7////
AAXX 07064 71033 NIL
AAXX 07064 71035 NIL
AAXX 07064 71036 15266 80405 11045 21049 39761 40141 53010 60001 333 10026 21049 70006
AAXX 07064 71039 46/// /2501 11134 6///1 333 11059 21253 7//// 555 31325 40171
AAXX 07064 71040 NIL
AAXX 07064 71041 15766 80602 11090 21122 39992 40137 58003 60001 333 11026 21117 70000 555 33027 40151
AAXX 07064 71042 16/// /0901 10031 20027 30273 40277 53014 60001 333 10046 20005 70024
AAXX 07064 71044 16/// /2515 11208 21240 39684 40015 53013 60001 333 11207 21335 70000 555 32723 40061
AAXX 07064 71046 460// /2613 11260 39961 49979 56003 6///1 333 11225 21316 7//// 555 32619 40201
AAXX 07064 71047 16/// ///// 11063 21111 60001 333 10014 21067 70000
AAXX 07064 71048 NIL
AAXX 07064 71049 NIL
AAXX 07064 71060 NIL
AAXX 07064 71063 NIL
AAXX 07064 71900 46/// /21// 11167 21197 39951 49964 53005 6///1 333 11131 21223 7////
AAXX 07064 71903 NIL
AAXX 07064 71904 NIL
AAXX 07064 71914 16/// /0901 10028 20014 30045 40270 52016 60001 333 10039 20015 70000
AAXX 07064 71916 NIL
AAXX 07064 71918 460// ///// 11395 6///1 333 7////
AAXX 07064 71920 16/// /1509 10058 20045 30066 40072 56031 60001 333 10058 21051 70000 555 31621 40041
AAXX 07064 71921 NIL
AAXX 07064 71923 NIL
AAXX 07064 71927 NIL
AAXX 07064 71941 17466 81302 11079 21086 39594 40015 55001 60001 771// 333 11079 21160 70013
AAXX 07064 71947 17448 80703 11139 21149 39679 40034 50001 60001 771// 333 11139 21220 70000
AAXX 07064 71350 16/// /1504 11091 21113 30050 40117 58011 60001 333 11063 21141 70000 555 10010 32919 40091
AAXX 07064 71351 NIL
AAXX 07064 71352 16/// /3003 10030 20012 39584 40033 58012 60001 333 10040 21016 70000 555 32420 40191
AAXX 07064 71353 NIL
AAXX 07064 71354 NIL
AAXX 07064 71355 NIL
AAXX 07064 71356 NIL
AAXX 07064 71357 NIL
AAXX 07064 71358 17/// /2701 11304 21336 39991 40027 55000 69931 7//4/ 333 11279 21409 70039 555 10010 20039
AAXX 07064 71359 NIL
AAXX 07064 71360 NIL
AAXX 07064 71361 NIL
AAXX 07064 71362 NIL
AAXX 07064 71363 NIL
AAXX 07064 71364 NIL
AAXX 07064 71365 NIL
AAXX 07064 71368 15966 81903 10030 20007 39651 40036 56013 60001 333 10055 21006 70000
AAXX 07064 71369 15766 83602 11040 21089 39445 40156 56003 60001 333 10014 21048 70000
AAXX 07064 71370 NIL
AAXX 07064 71371 15466 80202 11081 21095 30022 40057 56003 60001 333 11080 21124 70003
AAXX 07064 71372 NIL
AAXX 07064 71373 NIL
AAXX 07064 71374 NIL
AAXX 07064 71375 NIL
AAXX 07064 71376 NIL
AAXX 07064 71377 16/// /3402 11086 21105 30005 40055 58003 60001 333 11085 21129 70006 555 30518 40131
AAXX 07064 71378 17/// /0000 11129 21146 39835 40050 56012 60011 7//4/ 333 11129 21268 70020 555 10040 20020
AAXX 07064 71379 16/// /3003 11166 21190 39873 40050 56014 60001 333 11166 21317 70000
AAXX 07064 71380 NIL
AAXX 07064 71381 NIL
AAXX 07064 71382 NIL
AAXX 07064 71383 NIL
AAXX 07064 71384 17/// /0801 11081 21118 30060 40068 56008 60021 7//4/ 333 11080 21166 70020 555 33618 40061
AAXX 07064 71385 NIL
AAXX 07064 71386 16/// /1601 11142 21173 39883 40096 56014 60001 333 11142 21169 70000 555 32819 40071
AAXX 07064 71387 NIL
AAXX 07064 71388 46/// /0805 11120 21141 39867 40061 56013 6///1 333 11119 21295 7////
AAXX 07064 71389 46/// /0905 11085 21096 6///1 333 11085 21234 7//// 555 30817 40211
AAXX 07064 71390 NIL
AAXX 07064 71391 16/// ///// 11087 21103 60001 333 11087 21126 70037
AAXX 07064 71392 NIL
AAXX 07064 71393 NIL
AAXX 07064 71395 11674 81110 11064 21078 39928 40110 58025 69901 77122 885// 333 11055 21103 47005 79999 90952 555 19999 29999
AAXX 07064 71398 15866 80206 11133 21150 30053 40065 53005 60001 333 11124 21183 70000
AAXX 07064 71399 NIL
AAXX 07064 71700 17456 80305 11086 21100 30065 40091 56018 60011 7714/ 333 11081 21149 70010
AAXX 07064 71701 11432 80000 11087 21102 30027 40091 56018 60021 77177 885// 333 11085 21147 43002 70024 90973 93102 555 10024 20024
AAXX 07064 71702 16/// /1604 11070 21104 30090 40106 58018 60001 333 11064 21125 70000 555 33123 40091
AAXX 07064 71703 NIL
AAXX 07064 71704 15966 82603 10061 20020 39819 40036 58010 60001 333 10122 20019 70000
AAXX 07064 71710 NIL
AAXX 07064 71712 16/// /0902 11091 21103 39997 40060 53002 60001 333 11087 21114 70013 555 30618 40141
AAXX 07064 71713 NIL
AAXX 07064 71716 NIL
AAXX 07064 71717 NIL
AAXX 07064 71720 16/// /1106 10027 20020 30110 40265 53013 60001 333 10035 20012 70013
AAXX 07064 71721 NIL
AAXX 07064 71723 NIL
AAXX 07064 71724 NIL
AAXX 07064 71732 17/// /1302 10015 21004 60011 7//4/ 333 10026 21095 70046 555 10010 20046
AAXX 07064 71733 16/// /2208 10008 21011 39587 40009 58005 60001 333 10019 21077 70000
AAXX 07064 71734 17/// /0303 11087 21102 39614 40010 58001 60011 7//4/ 333 11085 21152 70020
AAXX 07064 71736 NIL
AAXX 07064 71737 NIL
AAXX 07064 71741 16/// /1011 11006 21011 39825 40255 52009 60001 333 10019 21066 70000
AAXX 07064 71742 46/// /2613 11107 21129 39897 40087 53012 6///1 333 10004 21111 7//// 555 32429 40152
AAXX 07064 71743 NIL
AAXX 07064 71744 17/// /0602 11102 21119 30066 40108 57018 69931 7//4/ 333 11084 21160 70003 555 10020 20003
AAXX 07064 71745 NIL
AAXX 07064 71746 NIL
AAXX 07064 71747 NIL
AAXX 07064 71748 NIL
AAXX 07064 71889 12774 61404 10004 21057 39832 40257 52011 60001 85570 333 10047 21028 70000 555 10000 20000 31720 40170
AAXX 07064 71893 11459 81214 10045 20028 30227 40259 51012 69921 78062 887// 333 10052 20016 70008 90947 555 10000 20000 31322 40001
AAXX 07064 71894 16/// /1014 10053 20043 30231 40240 52020 60001 333 10054 20032 70164 555 31128 40012
AAXX 07064 71896 17766 81813 11024 21035 39368 40215 58004 60001 771// 333 11011 21066 70000
AAXX 07064 71897 11466 81430 10060 20039 3//// 4//// 52010 60011 78082 888XX 333 10066 20060 70076 90966
AAXX 07064 71898 160// ///// 10042 55000 60001 333 10052 20024 70000
AAXX 07064 71899 11566 81608 10035 20022 3//// 4//// 58003 69961 8422X 333 10054 20014 70032 555 32728 40212
AAXX 07064 71902 NIL
AAXX 07064 71905 NIL
AAXX 07064 71906 11974 02103 11285 21331 30041 40094 53002 69901 77600 333 11170 21300 48027 70002 90921 555 10002 20002
AAXX 07064 71907 16964 00000 11279 21314 30083 40118 57003 60001 333 11264 21315 70000
AAXX 07064 71909 16964 03203 11285 21326 30000 40046 56014 60001 333 11276 21322 70000
AAXX 07064 71910 47337 62614 11205 21238 39933 49997 56003 6///1 745// 333 11169 21271 7//// 555 32631 40052
AAXX 07064 71911 46022 02705 11383 30006 40066 50003 6///1 333 11300 21406 7//// 555 32820 40211
AAXX 07064 71912 11574 70405 11213 21249 39987 40179 51007 69901 77177 87500 333 11176 21214 48020 70002 90983 555 10002 20002
AAXX 07064 71915 NIL
AAXX 07064 71917 11974 20802 11398 21443 30063 40078 53008 69901 7767/ 80001 333 11381 21431 48015 79999 90999 555 19999 29999
AAXX 07064 71922 11474 80000 11094 21103 39677 40153 52009 69901 77177 885// 333 11040 21094 47041 70018 90973 555 10020 20018
AAXX 07064 71924 12674 13304 11333 21389 39944 40038 57003 60001 81530 333 11304 21361 48038 79999 555 19999 29999 30419 40141
AAXX 07064 71925 11574 71204 11321 21369 30059 40103 58016 69901 77677 82570 333 11293 21368 44018 79999 90983 555 19999 29999
AAXX 07064 71926 11974 00000 11360 21420 30126 40152 50000 69901 77677 333 11262 21362 44043 79999 90983 555 19999 29999 32927 40111
AAXX 07064 71928 16/// /2702 11145 21172 39007 40202 53004 60001 333 11024 21147 70000
AAXX 07064 71930 NIL
AAXX 07064 71931 16/// /2612 11111 21141 30050 40062 53017 60001 333 10033 21111 7//// 555 31634 40083
AAXX 07064 71934 11974 01502 11267 21295 39890 40161 58009 69901 70270 333 11155 21267 47033 70008 90960 555 10012 20008
AAXX 07064 71935 11874 31403 11246 21285 39917 40137 58019 69901 72270 81071 333 11163 21269 47032 79999 90911 555 19999 29999
AAXX 07064 71936 11974 01404 11256 21295 39860 40136 57015 69901 70270 333 11239 21300 48025 79999 555 19999 29999
AAXX 07064 71937 NIL
AAXX 07064 71938 11474 60000 11281 21310 30035 40066 56020 69901 77677 86570 333 11223 21309 46024 79999 90973 555 19999 29999
AAXX 07064 71940 12982 62610 11048 21092 39351 40169 57005 60001 80001 333 10007 21072 70000 555 10000 20000 32725 40221
AAXX 07064 71943 12974 52410 11025 21099 39301 40145 57009 60001 82071 333 10000 21038 70000 555 10000 20000 32325 40111
AAXX 07064 71944 160// ///// 11028 55004 60001 333 11015 21073 70000
AAXX 07064 71945 12974 00000 11218 21273 39630 40122 57025 60001 333 11150 21233 70000 555 10000 20000
AAXX 07064 71946 12974 41503 11218 21242 39865 40088 58026 60001 80004 333 11189 21273 79999 555 19999 29999
AAXX 07064 71948 46064 /1112 11258 39910 40026 56022 6///1 333 11200 21265 7////
AAXX 07064 71949 46/// /1511 11089 21132 39144 40025 56016 6///1 333 11089 21197 7//// 555 31420 40051
AAXX 07064 71951 11132 80000 10006 20004 39911 40181 50001 69901 77177 886// 333 10012 21007 43043 70010 90983 555 10012 20010
AAXX 07064 71957 46964 03203 11229 21299 39887 49978 55010 6///1 333 11197 21260 7////
AAXX 07064 71964 12786 71618 11064 21112 39165 40022 55004 60001 73611 86071 333 11060 21092 70000 555 10000 20000 31730 40051
AAXX 07064 71966 16/// /0000 11235 21261 39534 40013 53017 60001 333 11130 21278 70000
AAXX 07064 71968 460// /3502 11246 39901 49966 55010 6///1 333 11147 21264 7//// 555 31926 40181
AAXX 07064 71150 NIL
AAXX 07064 71151 NIL
AAXX 07064 71152 16/// /3107 11068 21102 30100 40113 53002 60001 333 10018 21091 70000 555 32930 40112
AAXX 07064 71153 NIL
AAXX 07064 71154 16/// /2217 11022 21098 60001 333 10011 21024 70000 555 32335 40103
AAXX 07064 71155 NIL
AAXX 07064 71156 NIL
AAXX 07064 71157 46/// ///// 11057 21088 6///1 333 10018 21057 7////
AAXX 07064 71158 NIL
AAXX 07064 71159 16/// /3008 11069 21091 30024 40097 55000 60001 333 10002 21086 70003 555 32927 40071
AAXX 07064 71160 NIL
AAXX 07064 71161 16/// /0601 11040 21056 39893 40042 57003 60001 333 11037 21065 70016
AAXX 07064 71162 NIL
AAXX 07064 71163 46/// /1305 11257 21280 39733 40091 58024 6///1 333 11227 21319 7////
AAXX 07064 71164 NIL
AAXX 07064 71165 NIL
AAXX 07064 71166 NIL
AAXX 07064 71167 15966 32705 11129 21151 39072 40203 50000 60001 333 11001 21135 70000
AAXX 07064 71168 NIL
AAXX 07064 71170 NIL
AAXX 07064 71171 16/// /2406 10063 20023 39934 40028 58009 60001 333 10099 20042 70000 555 32428 40162
AAXX 07064 71172 NIL
AAXX 07064 71175 16/// /3003 11075 21101 30111 40147 53008 60001 333 11015 21094 70000 555 33021 40181
AAXX 07064 71176 460// /3016 11177 39309 40004 55003 6///1 333 11159 21178 7//// 555 33129 40002
AAXX 07064 71177 460// ///// 11145 38921 49925 53002 6///1 333 11096 21166 7////
AAXX 07064 71178 16/// /2924 11069 21108 30045 40077 53014 60001 333 10040 21069 70079 555 31643 40103
AAXX 07064 71179 460// /2409 11207 39090 49931 53008 6///1 333 11161 21236 7////
AAXX 07064 71180 16/// /2709 11053 21088 30084 40124 53005 60001 333 11007 21061 70000 555 32933 40132
AAXX 07064 71181 17564 82912 11050 21117 30054 40091 53012 60001 745// 333 70120
AAXX 07064 71183 16/// /3502 30015 58004 60001 333 70012 555 30418 40151
AAXX 07064 71184 NIL
AAXX 07064 71186 NIL
AAXX 07064 71187 17112 80903 10010 20010 30224 40273 51009 60001 710// 333 10053 20001 70000
AAXX 07064 71189 NIL
AAXX 07064 71190 NIL
AAXX 07064 71191 NIL
AAXX 07064 71192 15866 81509 11016 21020 39564 40239 51003 60001 333 11015 21056 70000
AAXX 07064 71193 16/// /3604 11096 21106 39644 40011 51001 60001 333 11078 21137 70019 555 10020 20019
AAXX 07064 71196 16/// /1002 11095 21101 39832 40034 57008 60001 333 11082 21107 70017 555 10020 20017
AAXX 07064 71197 16564 82815 11050 21097 30071 40121 53003 60001 333 11006 21064 70000 555 32736 40143
AAXX 07064 71198 46/// /3502 11075 21086 6///1 333 11074 21147 7//// 555 30418 40161
AAXX 07064 71199 46/// /0000 11176 21194 39248 40114 56021 6///1 333 11176 21286 7////
AAXX 07064 71864 NIL
AAXX 07064 71865 16/// /2608 11044 21066 39464 40151 53001 60001 333 11003 21054 70000 555 32622 40081
AAXX 07064 71866 46664 82807 11048 21079 39544 40165 53006 6///1 333 10015 21068 7//// 555 33030 40082
AAXX 07064 71867 11569 80000 11133 21147 39818 40162 52012 69901 77172 885// 333 11068 21134 47028 70024 90937 555 10046 20024 3////
AAXX 07064 71868 16/// /0000 11063 21067 39689 40135 51007 60001 333 10007 21063 70024
AAXX 07064 71869 12674 63006 11019 21047 39617 40145 52005 60001 86500 333 10027 21023 70002 555 10002 20002
AAXX 07064 71871 15966 02613 11079 21109 39353 40173 51005 60001 333 10009 21081 70000
AAXX 07064 71877 12974 03205 11040 21121 38902 40188 52004 60001 333 10037 21054 70000 555 10000 20000 32727 40181
AAXX 07064 71878 12974 00000 11117 21137 39104 40207 53001 60001 333 10022 21130 70000 555 10000 20000
AAXX 07064 71879 16964 02403 11053 21107 39367 40182 51002 60001 333 10019 21062 70000
AAXX 07064 71880 12682 30000 11038 21074 39108 40233 53004 60001 81571 333 10020 21052 70000 555 10000 20000
AAXX 07064 71882 160// /0000 11001 21003 39700 40247 53006 60001 333 10013 21006 70005
AAXX 07064 71883 46/// /0000 11022 21024 39418 40251 53010 6///1 333 10004 21030 7////
AAXX 07064 71887 NIL
AAXX 07064 71889 12774 61404 10004 21057 39832 40257 52011 60001 85570 333 10047 20003 70000 555 10000 20000 31720 40170
AAXX 07064 71891 16964 00302 11001 21014 39980 40259 52013 60001 333 10055 21004 70000 555 32029 40132
AAXX 07064 71892 11466 81006 10038 20022 30267 40272 53013 60011 75162 885// 333 10043 20012 70042 90973 555 10000 20000
AAXX 07064 71950 17766 81306 11020 21045 39538 40178 58001 60001 771// 333 11011 21062 70000
AAXX 07064 71952 16/// /1003 11023 21051 39323 40186 56001 60001 333 11022 21139 70000
AAXX 07064 71954 NIL
AAXX 07064 71956 NIL
AAXX 07064 71959 NIL
AAXX 07064 71960 460// /0711 11273 39856 49993 56025 6///1 333 11171 21292 7////
AAXX 07064 71962 16/// /3012 11061 21089 39694 40119 51025 60001 333 10043 21061 70000 555 32726 40111
AAXX 07064 71963 NIL
AAXX 07064 71967 16/// /2703 11066 21074 39959 40066 55001 60001 333 11052 21148 70000 555 10010
AAXX 07064 71970 NIL
AAXX 07064 71971 NIL
AAXX 07064 71972 460// ///// 11195 39552 40027 56012 6///1 333 11195 21205 7////
AAXX 07064 71973 46/// /2504 11089 21104 39900 40091 53006 6///1 333 11003 21096 7//// 555 32721 40081
AAXX 07064 71974 NIL
AAXX 07064 71975 460// /2710 11229 39259 40006 58020 6///1 333 11229 21251 7//// 555 32619 40081
AAXX 07064 71976 NIL
AAXX 07064 71977 NIL
AAXX 07064 71978 NIL
AAXX 07064 71979 NIL
AAXX 07064 71980 46/// ///// 11314 21350 6///1 333 11174 21314 7////
AAXX 07064 71981 NIL
AAXX 07064 71982 NIL
AAXX 07064 71983 NIL
AAXX 07064 71984 16/// /2101 11244 21275 30010 40018 58021 60001 333 11173 21262 70000 555 32023 40131
AAXX 07064 71985 NIL
AAXX 07064 71986 NIL
AAXX 07064 71987 16/// /1803 11080 21139 30100 40110 56013 60001 333 11061 21120 70000 555 32332 40092
AAXX 07064 71988 NIL
AAXX 07064 71989 NIL
AAXX 07064 71990 NIL
AAXX 07064 71999 46/// ///// 11007 6///1 333 10046 21008 7////
AAXX 07064 71250 NIL
AAXX 07064 71251 16/// /2102 11083 21122 39252 40193 53001 60001 333 10057 21084 70000 555 32620 40191
AAXX 07064 71252 NIL
AAXX 07064 71253 46/// /0601 11186 21198 6///1 333 11113 21218 7////
AAXX 07064 71254 16/// /2902 11072 21088 60001 333 10008 21107 70000 555 10010
AAXX 07064 71255 16/// /3001 11135 21154 60001 333 11087 21135 70006
AAXX 07064 71256 46/// /2501 11068 21100 39225 40173 56005 6///1 333 10009 21068 7////
AAXX 07064 71257 NIL
AAXX 07064 71258 NIL
AAXX 07064 71259 NIL
AAXX 07064 71261 16/// /2008 10048 20022 39772 40029 57010 60001 333 10076 20024 70000 555 32125 40151
AAXX 07064 71263 13960 72006 10036 20016 39755 40041 57012 60001 87070 333 10089 20003 70000
AAXX 07064 71264 17/// /0606 11039 21048 30079 40111 58022 69931 7//4/ 333 11026 21073 70003 555 10010 20003 33219 40081
AAXX 07064 71265 15966 81302 10027 20015 39945 40038 57009 60001 333 10071 20022 70000
AAXX 07064 71266 NIL
AAXX 07064 71267 15966 02909 11033 21082 39089 40197 53002 60001 333 10040 21045 70000
AAXX 07064 71268 NIL
AAXX 07064 71269 NIL
AAXX 07064 71270 NIL
AAXX 07064 71271 16/// ///// 11047 21107 60001 333 10024 21060 70000
AAXX 07064 71272 15666 82004 11233 21252 39801 40173 57002 60001 333 11219 21248 70002
AAXX 07064 71273 16/// /2702 11053 21073 39484 40150 52007 60001 333 10011 21064 70000 555 32917 40081
AAXX 07064 71274 NIL
AAXX 07064 71275 NIL
AAXX 07064 71276 NIL
AAXX 07064 71277 NIL
AAXX 07064 71278 NIL
AAXX 07064 71279 16/// /0107 11206 21239 30049 40118 58005 60001 333 11145 21281 70000
AAXX 07064 71281 NIL
AAXX 07064 71282 46/// /3501 10022 20022 39768 40036 58007 6///1 333 10023 21009 7//// 555 31717 40071
AAXX 07064 71283 NIL
AAXX 07064 71284 16/// ///// 11092 21121 60001 333 10002 21098 70000
AAXX 07064 71285 NIL
AAXX 07064 71286 NIL
AAXX 07064 71287 NIL
AAXX 07064 71288 NIL
AAXX 07064 71289 NIL
AAXX 07064 71290 17461 81507 11030 21044 39357 40202 55002 60001 771// 333 11014 21066 70000
AAXX 07064 71291 16/// /3306 11100 21116 39780 40075 53016 60001 333 11023 21102 70009 555 30019 40201
AAXX 07064 71292 15566 12709 11054 21054 39534 40149 51005 60001 333 10019 21056 70000
AAXX 07064 71294 16/// /1702 10012 20012 39629 40027 58006 60001 333 10028 21058 70000
AAXX 07064 71295 NIL
AAXX 07064 71296 NIL
AAXX 07064 71297 16/// /2603 10056 20027 60001 333 10093 20000 70000 555 32619 40201
AAXX 07064 71298 16/// /2307 10039 20014 39821 40049 56011 60001 333 10090 20027 70000 555 32323 40181
AAXX 07064 71299 NIL
AAXX 07064 71401 16/// /2005 11028 21051 39556 40255 53007 60001 333 10023 21043 70007
AAXX 07064 71402 NIL
AAXX 07064 71404 NIL
AAXX 07064 71405 NIL
AAXX 07064 71406 NIL
AAXX 07064 71407 NIL
AAXX 07064 71408 NIL
AAXX 07064 71409 NIL
AAXX 07064 71410 15666 80203 11158 21179 39872 40162 53007 60001 333 11105 21158 70000
AAXX 07064 71413 NIL
AAXX 07064 71414 NIL
AAXX 07064 71415 16/// /2004 11067 21100 30118 40121 56013 60001 333 11042 21092 70000 555 10010 32933 40112
AAXX 07064 71417 NIL
AAXX 07064 71418 NIL
AAXX 07064 71419 46/// /2503 11067 21127 30132 40142 57008 6///1 333 11006 21087 7//// 555 33125 40151
AAXX 07064 71423 NIL
AAXX 07064 71424 46/// /0421 6///1 333 7//// 555 30329 40052
AAXX 07064 71425 NIL
AAXX 07064 71426 NIL
AAXX 07064 71427 NIL
AAXX 07064 71428 NIL
AAXX 07064 71429 16/// /3303 11130 21174 30083 40103 56010 60001 333 11093 21158 70000 555 33018 40091
AAXX 07064 71434 NIL
AAXX 07064 71436 15966 80801 10003 21003 39804 40037 56006 60001 333 10053 21065 70003
AAXX 07064 71437 46/// /2503 10064 20014 39939 40033 56008 6///1 333 10088 20035 7//// 555 31919 40141
AAXX 07064 71438 NIL
AAXX 07064 71439 NIL
AAXX 07064 71440 NIL
AAXX 07064 71442 NIL
AAXX 07064 71445 NIL
AAXX 07064 71446 16/// /2807 11049 21091 39189 40178 51001 60001 333 10014 21051 70000 555 32825 40121
AAXX 07064 71448 16/// /3103 11089 21106 39804 40141 51006 60001 333 10025 21091 70028 555 33219 40221
AAXX 07064 71449 NIL
AAXX 07064 71201 17/// ///// 10044 20024 69921 7//4/ 333 10059 20040 70034
AAXX 07064 71202 17/// ///// 11075 21098 69941 7//4/ 333 10022 21097 70004
AAXX 07064 71203 15666 81502 10008 21028 39724 40251 53013 60001 333 10041 21031 70000
AAXX 07064 71209 46/// /1111 10040 6///1 333 10064 20037 7////
AAXX 07064 71211 46/// /3304 10032 20025 30257 40269 53012 6///1 333 10057 20030 7////
AAXX 07064 71212 NIL
AAXX 07064 71213 46/// /3504 11051 21053 39700 40002 55000 6///1 333 11049 21128 7////
AAXX 07064 71214 NIL
AAXX 07064 71215 46/// /0000 11021 21047 39904 40256 53012 6///1 333 10045 21047 7////
AAXX 07064 71216 16/// /0102 10004 21011 39610 40234 53007 60001 333 10035 21010 70000
AAXX 07064 71217 NIL
AAXX 07064 71218 16/// /1502 11014 21030 39815 40251 53012 60001 333 10024 21044 70000
AAXX 07064 71219 46/// /1521 10037 20017 30158 40164 55001 6///1 333 10043 20020 7//// 555 31535 40233
AAXX 07064 71220 46/// /1424 10046 20035 6///1 333 10050 20026 7////
AAXX 07064 71221 NIL
AAXX 07064 71222 16/// /0502 11157 21171 39133 40129 55005 60001 333 11097 21184 70000
AAXX 07064 71223 NIL
AAXX 07064 71224 NIL
AAXX 07064 71225 NIL
AAXX 07064 71226 NIL
AAXX 07064 71227 NIL
AAXX 07064 71228 NIL
AAXX 07064 71229 NIL
AAXX 07064 71230 16/// /2511 11021 21083 39254 40154 58004 60001 333 10004 21046 70000 555 32429 40142
AAXX 07064 71231 16/// /2404 11066 21113 60001 333 10056 21070 70000 555 32923 40201
AAXX 07064 71232 16/// /2508 11026 21124 38661 40169 53003 60001 333 10006 21027 70000 555 32625 40101
AAXX 07064 71233 16/// /1301 11093 21126 60001 333 10030 21093 70000
AAXX 07064 71234 16/// /3503 11040 21112 38985 40184 53005 60001 333 10033 21051 70000 555 32722 40201
AAXX 07064 71235 16/// /3007 11038 21119 60001 333 10026 21042 70000 555 33018 40091
AAXX 07064 71236 46/// /3008 11032 21097 6///1 333 10012 21032 7//// 555 33028 40072
AAXX 07064 71237 46/// /3301 11107 21119 39356 40191 53007 6///1 333 10052 21108 7////
AAXX 07064 71238 16/// /2802 11087 21117 60001 333 10019 21091 70000
AAXX 07064 71239 16/// /2807 11008 21028 39671 40132 56004 60001 333 10034 21041 70000 555 10010 32833 40072
AAXX 07064 71240 16/// ///// 11075 21111 39334 40194 53006 60001 333 10035 21076 70000
AAXX 07064 71241 NIL
AAXX 07064 71242 16/// /2602 11114 21128 60001 333 10041 21126 70000
AAXX 07064 71243 NIL
AAXX 07064 71244 16/// /3105 11092 21108 38943 40188 56002 60001 333 10036 21097 70000 555 10010 32825 40191
AAXX 07064 71245 46/// /2507 11116 21155 6///1 333 11106 21119 7//// 555 32456 40073
AAXX 07064 71246 NIL
AAXX 07064 71247 15966 02306 11077 21101 39323 40191 53001 60001 333 10051 21083 70000
AAXX 07064 71248 16/// /0000 11120 21147 38864 40193 53004 60001 333 10029 21127 70000
AAXX 07064 71249 NIL
AAXX 07064 71744 NIL
AAXX 07064 71750 NIL
AAXX 07064 71751 NIL
AAXX 07064 71752 NIL
AAXX 07064 71753 16/// /0404 11070 21093 30084 40114 58018 60001 333 11051 21132 70000 555 10020
AAXX 07064 71754 NIL
AAXX 07064 71755 43/// /0105 11170 21188 39779 40136 53016 6///1 333 11147 21171 7////
AAXX 07064 71756 16/// /0000 11029 21033 39139 40250 51009 60001 333 11010 21029 70000
AAXX 07064 71758 16/// /2104 11109 21120 30064 40143 55000 60001 333 11028 21133 70000 555 32724 40161
AAXX 07064 71760 NIL
AAXX 07064 71761 NIL
AAXX 07064 71762 NIL
AAXX 07064 71763 NIL
AAXX 07064 71765 16/// /0302 11005 21018 39977 40256 51012 60001 333 10054 21006 70000 555 31926 40151
AAXX 07064 71766 16/// /1206 10040 20022 30180 40253 53014 60001 333 10056 21008 70000
AAXX 07064 71767 16/// /1602 10009 20007 39772 40030 56010 60001 333 10052 21008 70000 555 32317 40071
AAXX 07064 71768 46/// /2603 11008 21038 39700 40258 53013 6///1 333 10047 21029 7////
AAXX 07064 71769 17/// /1219 10045 20034 30234 40250 53013 69941 7//4/ 333 10067 20043 70004 555 31227 40011
AAXX 07064 71770 16/// /0807 11023 21053 39462 40248 53004 60001 333 10033 21028 70000
AAXX 07064 71771 NIL
AAXX 07064 71772 17/// /1315 10047 20040 30247 40253 53011 69941 7//4/ 333 10065 20041 70008 555 31321 40001
AAXX 07064 71773 16/// /1904 11071 21103 39164 40022 55003 60001 333 11057 21093 70000 555 31618 40051
AAXX 07064 71774 46/// ///// 10018 6///1 333 10030 20008 7////
AAXX 07064 71775 16/// /0000 10018 20015 30269 40275 53010 60001 333 10051 20016 70007
AAXX 07064 71776 46/// /2506 11002 21026 39593 40245 53008 6///1 333 10031 21013 7////
AAXX 07064 71777 16/// ///// 11006 21007 30012 40269 51013 60001 333 10025 21009 70000
AAXX 07064 71778 46/// /0417 6///1 333 7//// 555 32424 40071
AAXX 07064 71779 16/// /1407 11019 21026 39560 40234 51003 60001 333 11017 21055 70000
AAXX 07064 71780 NIL
AAXX 07064 71781 46/// /1123 10047 20032 30222 40247 53015 6///1 333 10061 20045 7//// 555 31131 40022
AAXX 07064 71782 46/// /3604 11059 21081 38875 40224 53004 6///1 333 10000 21059 7//// 555 31919 40081
AAXX 07064 71783 NIL
AAXX 07064 71784 17/// /0603 10032 20012 30055 40263 53010 69931 7//4/ 333 10048 20020 70026
AAXX 07064 71785 16/// /0403 10040 20020 30262 40278 52011 60001 333 10065 20038 70000
AAXX 07064 71786 46/// /2410 11070 21082 38364 40226 53001 6///1 333 11051 21072 7//// 555 32417 40071
AAXX 07064 71787 17/// /1310 11071 21075 39584 40080 56026 60021 7//4/ 333 11070 21169 70027 555 10020 20027 33019 40071
AAXX 07064 71788 NIL
AAXX 07064 71789 NIL
AAXX 07064 71791 NIL
AAXX 07064 71792 NIL
AAXX 07064 71793 NIL
AAXX 07064 71794 NIL
AAXX 07064 71795 NIL
AAXX 07064 71796 NIL
AAXX 07064 71797 NIL
AAXX 07064 71550 NIL
AAXX 07064 71551 NIL
AAXX 07064 71552 NIL
AAXX 07064 71553 16/// /2807 11024 21041 60001 333 10018 21036 70007 555 32931 40072
AAXX 07064 71554 16/// /0802 11119 21154 30089 40095 56017 60001 333 11114 21157 70000
AAXX 07064 71555 16/// /2809 11047 21136 38604 40186 53002 60001 333 10013 21054 70000 555 32624 40121
AAXX 07064 71556 16/// /2807 11073 21082 39549 40162 51006 60001 333 10010 21084 70000 555 10020 33130 40122
AAXX 07064 71557 46/// /0000 11036 21036 6///1 333 10038 21044 7//// 555 32117 40201
AAXX 07064 71558 46/// ///// 11140 21158 39990 40027 53003 6///1 333 11017 21152 7////
AAXX 07064 71559 46/// /2807 11037 21056 39462 40169 51006 6///1 333 10022 21044 7//// 555 33134 40153
AAXX 07064 71560 NIL
AAXX 07064 71563 NIL
AAXX 07064 71564 17/// /1306 11046 21057 39775 40145 55002 69931 7//4/ 333 10042 21046 70003 555 33034 40093
AAXX 07064 71565 NIL
AAXX 07064 71566 NIL
AAXX 07064 71567 NIL
AAXX 07064 71568 17/// /1307 10040 20022 30244 40257 52011 69921 7//4/ 333 10050 20032 70042 555 31317 40221
AAXX 07064 71569 16/// /2609 11051 21069 39449 40157 50004 60001 333 10022 21056 70000 555 32825 40131
AAXX 07064 71570 16/// /3103 11096 21123 39831 40150 53009 60001 333 11006 21097 70040 555 33119 40001
AAXX 07064 71571 NIL
AAXX 07064 71572 NIL
AAXX 07064 71573 16/// /1903 10032 20012 39754 40033 56016 60001 333 10075 20031 70000 555 32223 40161
AAXX 07064 71574 11456 80000 11126 21141 30035 40110 56017 69901 77122 885// 333 11105 21168 43023 79999 90962 555 19999 29999
AAXX 07064 71575 16/// /2814 11204 21229 39926 49992 55004 60001 333 11169 21270 70000 555 10050 32628 40062
AAXX 07064 71576 NIL
AAXX 07064 71577 NIL
AAXX 07064 71578 NIL
AAXX 07064 71579 NIL
AAXX 07064 71580 12674 13405 11380 30020 40059 51004 60001 81500 333 11347 21399 79999 555 19999 29999 33023 40201
AAXX 07064 71581 NIL
AAXX 07064 71582 17566 81206 10042 20029 30171 40225 50007 60001 761// 333 10054 20005 70003
AAXX 07064 71583 NIL
AAXX 07064 71584 15966 03402 11211 21234 30065 40115 53003 60001 333 11109 21215 70000
AAXX 07064 71585 NIL
AAXX 07064 71586 NIL
AAXX 07064 71587 NIL
AAXX 07064 71588 NIL
AAXX 07064 71589 NIL
AAXX 07064 71590 17/// /1501 11130 21148 39887 40084 56018 69941 7//4/ 333 11130 21287 70004 555 10020 20004
AAXX 07064 71592 NIL
AAXX 07064 71593 NIL
AAXX 07064 71596 NIL
AAXX 07064 71598 16/64 /1902 11107 21153 30109 40115 55012 60001 333 11090 21122 70000 555 32733 40092
AAXX 07064 71599 NIL
AAXX 07064 71812 46964 33209 11331 21374 30148 40163 53005 6///1 333 11313 21364 7////
AAXX 07064 71819 17456 82709 11139 21159 39992 40034 53002 60001 771// 333 11016 21151 70000
AAXX 07064 71820 16/// /1703 10030 20020 39930 40043 55005 60001 333 10062 21027 70000 555 31721 40111
AAXX 07064 71823 16964 00902 11340 21382 39713 40119 56004 60001 333 11197 21348 70005
AAXX 07064 71824 NIL
AAXX 07064 71826 16/// /0000 11291 21334 39995 40041 58012 60001 333 11270 21310 70000
AAXX 07064 71829 16/// /3008 11176 21217 39932 40100 56018 60001 333 11160 21209 70000
AAXX 07064 71833 46/// /3201 10019 20007 6///1 333 10058 21039 7//// 555 32619 40181
AAXX 07064 71835 16/// /3502 11149 21163 39609 40103 53012 60001 333 11118 21149 70000
AAXX 07064 71837 NIL
AAXX 07064 71839 NIL
AAXX 07064 71840 NIL
AAXX 07064 71846 16/// /0203 11162 21176 39787 40113 53011 60001 333 11147 21165 70000
AAXX 07064 71847 NIL
AAXX 07064 71848 NIL
AAXX 07064 71849 16/// /3004 11056 21087 39846 40148 51002 60001 333 10042 21075 70011 555 10010 20011 33032 40102
AAXX 07064 71851 NIL
AAXX 07064 71857 NIL
AAXX 07064 71860 NIL
AAXX 07064 71876 15766 82909 11040 21078 39503 40176 53009 60001 333 10020 21061 70000
AAXX 07064 71885 NIL
AAXX 07064 71886 16/// /2708 11054 21065 39534 40148 51006 60001 333 10019 21056 70000 555 32927 40071
AAXX 07064 71888 NIL
AAXX 07064 71890 16/// /0505 11144 21183 30073 40101 56019 60001 333 11144 21227 70000
AAXX 07064 71895 NIL
AAXX 07064 71603 11466 80906 10010 20007 30020 40073 56022 69941 72022 885// 333 10011 21054 41997 70004 90962 555 10004 20004
AAXX 07064 71607 17/// /3302 11042 21048 30039 40072 56017 60011 7//4/ 333 11042 21119 70011 555 10010 20011
AAXX 07064 71609 NIL
AAXX 07064 71610 15566 82202 11013 21030 39750 40048 58004 60001 333 11013 21172 70005
AAXX 07064 71621 16962 00000 10022 20008 39934 40039 55009 60001 333 10077 21025 70005 555 32524 40181
AAXX 07064 71623 NIL
AAXX 07064 71624 12974 80000 10043 20017 39827 40036 57009 60001 8807/ 333 10090 20013 70000 555 10000 20000
AAXX 07064 71625 16961 00000 11099 21108 39874 40038 58007 60001 333 11080 21104 70030
AAXX 07064 71627 11369 80000 11085 21114 30011 40057 58005 69901 70272 886// 333 11084 21127 46002 70016 90930 555 10016 20016
AAXX 07064 71628 13960 80507 11093 21114 39905 40049 57013 69901 88070 333 11093 21117 70028 555 10399 20199
AAXX 07064 71630 NIL
AAXX 07064 71631 16/// /1803 10010 20000 39541 40036 56008 60001 333 10041 21005 70000 555 32417 40171
AAXX 07064 71633 12974 81303 10020 20018 39762 40031 58010 60001 8807/ 333 10068 21006 70000 555 10000 20000 32324 40200
AAXX 07064 71705 11548 80806 11091 21106 30011 40101 58026 69981 77122 885// 333 11074 21146 47001 70008 90952 93101 555 10010 20008 32917 40070
AAXX 07064 71706 11866 81303 11090 21116 30062 40124 58012 69901 77111 8807/ 333 11061 21152 47003 79999 90921 555 19999 29999 33120 40100
AAXX 07064 71707 11974 62303 11106 21132 30064 40143 55001 69901 70288 86070 333 11022 21131 44024 79999 90952 555 19999 29999 32819 40150
AAXX 07064 71709 NIL
AAXX 07064 71711 NIL
AAXX 07064 71714 17/// /0707 11089 21103 39987 40081 56008 60011 7//4/ 333 11089 21203 70018
AAXX 07064 71715 17/// /0802 11126 21143 39891 40078 58014 69991 7//4/ 333 11125 21221 70009 555 10040 20009
AAXX 07064 71718 11566 81104 11132 21162 30031 40099 56016 69921 78582 8257/ 333 11128 21156 47010 70004 90947 555 10004 20004
AAXX 07064 71719 NIL
AAXX 07064 71051 NIL
AAXX 07064 71055 NIL
AAXX 07064 71057 NIL
AAXX 07064 71059 460// ///// 11246 39950 40044 56020 6///1 333 11225 21280 7////
AAXX 07064 71061 16/// /2305 11056 21101 39373 40163 56002 60001 333 10013 21076 70000
AAXX 07064 71062 46/// /2503 11078 21123 39080 40163 51003 6///1 333 10033 21095 7////
AAXX 07064 71064 460// /1305 11298 39865 40092 56017 6///1 333 11256 21345 7//// 555 30320 40091
AAXX 07064 71065 NIL
AAXX 07064 71067 NIL
AAXX 07064 71070 NIL
AAXX 07064 71073 NIL
AAXX 07064 71074 NIL
AAXX 07064 71075 NIL
AAXX 07064 71078 NIL
AAXX 07064 71084 460// ///// 11352 30060 40111 58002 6///1 333 11273 21355 7////
AAXX 07064 71085 15966 02711 11039 21088 38798 40196 51010 60001 333 10013 21039 70000
AAXX 07064 71087 NIL
AAXX 07064 71088 460// /0306 11318 58008 6///1 333 11297 21350 7////
AAXX 07064 71089 NIL
AAXX 07064 71096 460// ///// 11252 39256 40008 56009 6///1 333 11226 21264 7////
AAXX 07064 71097 46964 00306 11237 39539 40029 56018 6///1 333 11226 21237 7////
AAXX 07064 71098 43/// /3503 11163 21177 39765 40137 52012 6///1 333 11127 21163 7////
AAXX 07064 71099 43/// /3204 11219 21257 30133 40154 53007 6///1 333 11178 21268 7////
AAXX 07064 71450 NIL
AAXX 07064 71451 16/// /0201 11165 21185 39722 40165 52001 60001 333 11106 21182 70006
AAXX 07064 71452 46/// /3008 11037 21060 39451 40169 53003 6///1 333 10024 21037 7//// 555 33132 40152
AAXX 07064 71453 16/// /1801 11085 21107 39265 40193 55000 60001 333 10040 21085 70000 555 33217 40101
AAXX 07064 71454 17/// /3206 11039 21064 39445 40141 51010 69931 7//4/ 333 10000 21044 70012 555 33122 40101
AAXX 07064 71455 46/// /2909 11045 21086 39370 40176 53005 6///1 333 10019 21045 7//// 555 32929 40112
AAXX 07064 71456 16/// /2808 11030 21047 39539 40141 51003 60001 333 10009 21048 70008 555 33222 40121
AAXX 07064 71457 16/// /1805 11085 21104 39270 40172 56002 60001 333 10053 21098 70000
AAXX 07064 71458 16/// /2604 11079 21110 39400 40182 53007 60001 333 10016 21098 70000 555 32719 40071
AAXX 07064 71459 16/// /2305 11068 21094 39366 40186 52003 60001 333 10035 21072 70000 555 33125 40091
AAXX 07064 71460 16/// /3002 10029 21007 39787 40026 58007 60001 333 10062 21033 70000 555 32819 40211
AAXX 07064 71461 NIL
AAXX 07064 71462 NIL
AAXX 07064 71463 NIL
AAXX 07064 71464 NIL
AAXX 07064 71465 NIL
AAXX 07064 71466 NIL
AAXX 07064 71468 NIL
AAXX 07064 71470 NIL
AAXX 07064 71471 15966 33002 11030 21085 39355 40154 58008 60001 333 10015 21079 70000
AAXX 07064 71473 16/// /1611 10034 20003 30235 40265 53008 60001 333 10043 20029 70000 555 32220 40071
AAXX 07064 71475 NIL
AAXX 07064 71476 NIL
AAXX 07064 71477 16/// /1910 10031 20019 60001 333 10061 20001 70024 555 31638 40183
AAXX 07064 71478 NIL
AAXX 07064 71479 NIL
AAXX 07064 71480 NIL
AAXX 07064 71481 NIL
AAXX 07064 71482 NIL
AAXX 07064 71483 NIL
AAXX 07064 71484 NIL
AAXX 07064 71485 16/// /1421 10058 20026 30207 40228 53013 60001 333 10061 20045 70000 555 31139 40183
AAXX 07064 71486 16/// /1902 11022 21061 38987 40201 53005 60001 333 10007 21038 70000
AAXX 07064 71487 NIL
AAXX 07064 71489 16/// /2808 11078 21108 39364 40176 53005 60001 333 10009 21082 70000 555 32819 40081
AAXX 07064 71490 NIL
AAXX 07064 71491 NIL
AAXX 07064 71492 NIL
AAXX 07064 71493 17/// /1008 11047 21058 30057 40096 56028 69951 7//4/ 333 11045 21139 70005 555 10010 20005
AAXX 07064 71494 NIL
AAXX 07064 71495 NIL
AAXX 07064 71496 NIL
AAXX 07064 71497 46/// /2108 11205 21230 39827 40105 56018 6///1 333 11196 21276 7////
AAXX 07064 71498 NIL
AAXX 07064 71499 15966 83002 11150 21168 39509 40158 51007 60001 333 11127 21191 70000
AAXX 07064 71114 160// /0903 10012 20006 30225 40274 52010 60001 333 10055 20002 70010
AAXX 07064 71120 12874 12607 11074 21095 39497 40165 53006 60001 81070 333 10011 21074 70000 555 10000 20000
AAXX 07064 71122 16/// /2603 11062 21100 38578 40204 53003 60001 333 11009 21062 70000 555 32818 40191
AAXX 07064 71123 12874 71903 11068 21110 39308 40191 52001 60001 86072 333 10007 21112 70000 555 10000 20000
AAXX 07064 71125 NIL
AAXX 07064 71129 12974 02805 11062 21101 39342 40185 53005 60001 333 10016 21073 70000 555 10000 20000
AAXX 07064 71131 16/// /2202 11050 21113 38911 40184 55001 60001 333 10000 21090 70000 555 33021 40101
AAXX 07064 71135 NIL
AAXX 07064 71137 NIL
AAXX 07064 71140 12974 33012 11026 21037 39638 40143 5/004 60001 83070 333 10026 21026 70002 555 10002 20002 32732 40071
AAXX 07064 71145 11769 80104 11173 21198 39849 40155 51012 69901 77177 88500 333 11128 21174 48037 70006 90983 555 10006 20006
AAXX 07064 71148 16/// /2506 11021 21033 39561 40145 56003 60001 333 10026 21042 70003 555 33128 40202
AAXX 07064 71185 17564 32621 11083 30043 40067 53003 60001 745// 333 11008 21089 70015 555 32735 40193
AAXX 07064 71188 12774 70000 11154 21193 30071 40115 56010 60001 87500 333 11100 21168 70000 555 10000 20000
AAXX 07064 71200 16/// /0908 10043 20021 60001 333 10057 20039 70000 555 32517 40071
AAXX 07064 71207 16/// /0701 10020 30200 40265 53011 60001 333 10048 20012 70004
AAXX 07064 71260 13/// ///// 10018 21011 39787 40021 57005 60001 333 10051 21072 70000 555 10000 20000
AAXX 07064 71816 11974 02524 11200 21254 39972 40036 53008 60001 73611 333 11159 21215 70000 555 10000 20000 32631 40221
AAXX 07064 71817 NIL
AAXX 07064 71818 12974 62415 11180 21221 39968 49986 53012 60001 86030 333 11073 21188 70064 555 10064 20064 33133 40171
AAXX 07064 71822 NIL
AAXX 07064 71825 11369 42407 11274 21321 39403 40111 55001 69901 77611 84600 333 11211 21274 48107 79999 90942 555 19999 29999 33020 40230
AAXX 07064 71827 11974 20705 11256 21296 39841 40098 58001 69901 77671 82070 333 11212 21262 48020 79999 90916 555 19999 29999
AAXX 07064 71828 16964 03406 11267 21310 39422 40094 53008 60001 333 11219 21268 70005
AAXX 07064 71831 11340 83407 11117 21137 39750 40035 52006 60021 75675 886// 333 11091 21128 48055 70032 90983 93102 555 10026 20026
AAXX 07064 71832 NIL
AAXX 07064 71834 11462 83502 11154 21172 39637 40077 52012 60011 77177 885// 333 11108 21154 48037 70032 90983 93101 555 10038 20032
AAXX 07064 71841 NIL
AAXX 07064 71842 11562 83307 11103 21118 39629 40108 51019 69981 77175 885// 333 11041 21103 48017 70098 90973 555 10110 20098
AAXX 07064 71844 NIL
AAXX 07064 71845 NIL
AAXX 07064 71850 11369 82908 11101 21121 39621 40130 51018 60011 77177 88500 333 10011 21101 48013 70088 90983 93101 555 10094 20088 33217 40000
AAXX 07064 71852 17564 83104 11055 21087 39847 40146 51002 60001 745// 333 10043 21075 70020 555 33233 40112
AAXX 07064 71854 NIL
AAXX 07064 71858 NIL
AAXX 07064 71861 NIL
AAXX 07064 71862 12974 42708 11038 21061 39465 40174 52005 60001 84070 333 10021 21047 70002 555 10002 20002 33126 40171
AAXX 07064 71863 46964 32807 11075 21099 39462 40171 50004 6///1 333 10012 21080 7//// 555 33131 40132
AAXX 07064 71877 12974 03105 11040 21121 38902 40188 52004 60001 333 10037 21054 70000 555 10000 20000 32727 40181
AAXX 07064 71043 11683 51303 11184 21224 39866 49961 56035 69901 70277 83570 333 11150 21293 48035 70004 90961 555 10004 20004
AAXX 07064 71045 16/// /0404 11078 21100 39190 40058 55000 60001 333 11045 21146 70000 555 10010 31017 40031
AAXX 07064 71050 46/// /2701 11087 21097 39142 40250 52006 6///1 333 11052 21113 7////
AAXX 07064 71051 NIL
AAXX 07064 71052 NIL
AAXX 07064 71066 11/08 00000 11214 21246 39719 40157 58005 69901 74674 333 11097 21223 48029 79999 90915 555 19999 29999
AAXX 07064 71068 12974 22704 11100 21130 39451 40154 57002 60001 80001 333 10001 21100 70000 555 10000 20000 32825 40071
AAXX 07064 71069 16764 33602 11045 21084 39444 40154 57004 60001 333 10015 21054 70000 555 32831 40102
AAXX 07064 71076 16/// /0602 11254 21281 39756 40168 55001 60001 333 11179 21262 70000
AAXX 07064 71077 NIL
AAXX 07064 71079 11774 80502 11191 21220 39881 40173 52006 69901 77177 885// 333 11165 21191 48017 70006 90983 555 10012 20006
AAXX 07064 71081 46964 03212 11417 21452 39983 49996 51001 6///1 333 11324 21420 7////
AAXX 07064 71082 NIL
AAXX 07064 71083 11974 03512 11354 21399 30102 40147 50008 69901 77677 333 11273 21355 48060 79999 90983 555 19999 29999 33419 40021
AAXX 07064 71090 46964 00000 11305 21351 39993 40030 55000 6///1 333 11278 21400 7////
AAXX 07064 71091 460// /1016 11285 39757 49974 57020 6///1 333 7//// 555 31323 40221
AAXX 07064 71092 46408 81317 11277 39310 40000 58009 6///1 333 11277 21328 7//// 555 31425 40031
AAXX 07064 71093 460// ///// 11250 39505 40017 58008 6///1 333 11242 21272 7////
AAXX 07064 71094 46064 /2208 11209 39055 49972 58015 6///1 333 11208 21270 7//// 555 32119 40201
AAXX 07064 71095 46764 60000 11335 21374 39947 40031 51003 6///1 333 11297 21363 7////
AAXX 07064 71101 160// /2006 30139 57012 60001 333 70000 555 31526 40161
AAXX 07064 71104 NIL
AAXX 07064 71108 11774 70000 10014 20007 30200 40274 52010 69901 70182 81509 333 10063 20002 79999 90926 555 10000 20000
AAXX 07064 71109 12674 61309 10045 20014 30207 40234 51011 60001 86500 333 10055 20018 70000 555 10000 20000 31024 40201
AAXX 07064 71665 16/// /2503 11152 21166 39953 49963 53004 60001 333 11075 21238 70021 555 10070 20021 32525 40071
AAXX 07064 71666 17/// /1004 11093 21104 30057 40103 58021 69951 7//4/ 333 11074 21146 70005 555 10010 20005
AAXX 07064 71667 NIL
AAXX 07064 71668 17/// /0402 11086 21102 30046 40090 56018 69991 7//4/ 333 11079 21147 70009 555 10020 20009 33018 40081
AAXX 07064 71669 NIL
AAXX 07064 71670 16/// ///// 11097 21112 60001 333 11087 21153 70000
AAXX 07064 71671 17/// /0603 11054 21062 30034 40095 58027 69981 7//4/ 333 11050 21105 70008
AAXX 07064 71672 16/// /0401 10007 21006 39772 40034 56006 60001 333 10061 21056 70000
AAXX 07064 71673 NIL
AAXX 07064 71674 NIL
AAXX 07064 71675 17756 80204 11169 21187 39845 40134 53013 60041 77144 333 11154 21172 70176
AAXX 07064 71679 16/// /1706 11007 21037 39161 40187 53002 60001 333 11005 21061 70000
AAXX 07064 71680 NIL
AAXX 07064 71681 46/// /1801 11009 21023 6///1 333 10015 21045 7////
AAXX 07064 71682 NIL
AAXX 07064 71683 NIL
AAXX 07064 71684 17264 83405 11052 21057 39703 40006 55000 69931 7004/ 333 11052 21129 70016
AAXX 07064 71685 17112 80501 11001 21001 39699 40247 53006 60001 710// 333 10011 21007 70000
AAXX 07064 71686 469// /0502 11138 21154 39133 40110 55005 6///1 333 11102 21162
AAXX 07064 71687 16/// /0000 11015 21022 39460 40255 51011 60001 333 10012 21015 70000
AAXX 07064 71688 16/// /0000 11028 21028 39191 40242 51009 60001 333 11006 21030 70000
AAXX 07064 71689 15666 81103 11107 21116 39693 40160 56003 60001 333 11066 21121 70000
AAXX 07064 71690 NIL
AAXX 07064 71691 17866 83605 11144 21177 30076 40104 56020 60001 771// 333 11144 21225 70000
AAXX 07064 71692 NIL
AAXX 07064 71694 16/// /0000 11008 21010 39683 40043 58006 60001 333 10042 21030 70003
AAXX 07064 71695 16/// /0601 11132 21154 39814 40158 51012 60001 333 11067 21132 70013 555 10040 20013
AAXX 07064 71696 NIL
AAXX 07064 71697 15964 80602 10003 20003 39868 40038 56009 60001 333 10061 21009 70000
AAXX 07064 71699 16/// /1710 10031 20024 30063 40070 56025 60001 333 10030 21120 70000
AAXX 07064 71500 NIL
AAXX 07064 71501 NIL
AAXX 07064 71502 NIL
AAXX 07064 71503 NIL
AAXX 07064 71504 NIL
AAXX 07064 71505 46/// /0102 11125 21151 39264 49995 55004 6///1 333 11027 21186 7////
AAXX 07064 71506 NIL
AAXX 07064 71507 16/// /2107 11098 21123 60001 333 11012 21191 70000
AAXX 07064 71508 16/// ///// 10056 20030 39904 40040 58008 60001 333 10084 20032 70006
AAXX 07064 71509 NIL
AAXX 07064 71511 16/// /2807 11048 21068 39514 40159 53006 60001 333 10013 21048 70000 555 33027 40121
AAXX 07064 71512 16/// /3405 11209 21233 30104 40119 55000 60001 333 11115 21246 70000
AAXX 07064 71513 15966 03105 11220 21243 30094 40110 53008 60001 333 11099 21241 70000
AAXX 07064 71514 NIL
AAXX 07064 71515 16/// /2908 11051 21068 39451 40160 52005 60001 333 10009 21053 70000 555 33029 40152
AAXX 07064 71516 16/// /2806 11079 21093 60001 333 10037 21087 70000 555 33030 40202
AAXX 07064 71517 NIL
AAXX 07064 71518 NIL
AAXX 07064 71519 NIL
AAXX 07064 71520 NIL
AAXX 07064 71521 NIL
AAXX 07064 71522 NIL
AAXX 07064 71523 NIL
AAXX 07064 71524 16/// /3601 11094 21105 30038 40065 57006 60001 333 11094 21146 70000
AAXX 07064 71525 NIL
AAXX 07064 71526 NIL
AAXX 07064 71527 17524 83304 11086 21095 39597 40110 51017 69931 771// 333 11011 21086 70031
AAXX 07064 71528 NIL
AAXX 07064 71529 46/// /2003 11243 21271 39910 40149 56007 6///1 333 11230 21298 7////
AAXX 07064 71532 15964 62103 10004 20004 39691 40033 58006 69931 333 10039 21029 70071
AAXX 07064 71534 16961 00000 10006 20003 39767 40036 58006 60001 333 10069 21027 70005
AAXX 07064 71535 NIL
AAXX 07064 71536 NIL
AAXX 07064 71537 NIL
AAXX 07064 71539 NIL
AAXX 07064 71540 NIL
AAXX 07064 71541 NIL
AAXX 07064 71542 16/// /0603 11169 21186 60001 333 11079 21196 70000
AAXX 07064 71543 NIL
AAXX 07064 71544 NIL
AAXX 07064 71545 16/// ///// 11051 21098 60001 333 10013 21083 70000
AAXX 07064 71546 NIL
AAXX 07064 71547 NIL
AAXX 07064 71548 NIL
AAXX 07064 71549 NIL
AAXX 07064 71726 17/// /0902 11125 21138 39477 40029 55002 60021 7//4/ 333 11125 21292 70056 555 10050 20056
AAXX 07064 71727 11548 81013 11122 21137 39860 40063 56014 60011 77177 885// 333 11120 21273 47049 70012 90973 555 10020 20012
AAXX 07064 71728 11532 82904 11173 21215 39837 40067 56012 60011 77177 885// 333 11172 21226 44004 70012 90983 93101 555 10012 20012
AAXX 07064 71730 11674 62208 10009 21004 39595 40017 58005 69901 70176 86500 333 10020 21079 44015 70022 90921 555 10034 20022
AAXX 07064 71731 12674 62808 10009 21009 39569 40018 58004 60001 86500 333 10013 21080 70006 555 10006 20006
AAXX 07064 71735 NIL
AAXX 07064 71738 NIL
AAXX 07064 71739 41574 80306 11094 21107 39645 40012 50000 6//// 77175 887// 333 11075 21136 4//// 7//// 90983 90902 555 1//// 2////
AAXX 07064 71749 16564 83406 11049 21079 39826 40072 53021 60001 333 10045 21087 70000 555 32725 40201
AAXX 07064 71799 11469 81007 10050 20027 30242 40266 52012 69981 75162 885// 333 10060 21006 70014 90937 555 10000 20000
AAXX 07064 71800 NIL
AAXX 07064 71801 12574 33015 11076 21124 39917 40092 53014 60001 83500 333 10056 21076 70040 555 19999 29999 31538 40091
AAXX 07064 71803 12480 12612 11108 21141 39896 40086 53013 60001 81500 333 10005 21113 70042 555 10042 20042 32631 40141
AAXX 07064 71807 16/// /3013 11051 21104 30094 40113 53018 60001 333 10067 21054 70007 555 31536 40093
AAXX 07064 71808 12974 02713 11177 21232 39999 40047 53005 60001 333 11020 21177 70058 555 10058 20058 32730 40151
AAXX 07064 71809 11558 82409 11074 21095 30057 40085 55001 60011 78588 885// 333 11037 21109 47045 70078 90973 93101 555 10078 20078 32528 40191
AAXX 07064 71810 NIL
AAXX 07064 71811 NIL
AAXX 07064 71813 16/// /3005 11221 21244 30090 40104 53007 60001 333 11099 21237 70000
AAXX 07064 71814 16/// /3208 11192 21224 30075 40085 51007 60001 333 11053 21202 70007 555 33117 40101
AAXX 07064 71815 NIL
AAXX 07064 71604 16/// /2607 11108 21114 60001 333 11062 21111 70000 555 10010 32830 40112
AAXX 07064 71605 17/// /3504 10033 20033 30113 40265 53010 60011 7//4/ 333 10050 20024 70046
AAXX 07064 71611 16/// /1902 10000 21026 60001 333 10001 21151 70026
AAXX 07064 71612 NIL
AAXX 07064 71614 NIL
AAXX 07064 71616 17/// /0803 11080 21087 39936 40059 56004 60011 7//4/ 333 11079 21231 70030
AAXX 07064 71617 17/// /1005 11124 21144 39895 40072 56015 69951 7//4/ 333 11123 21265 70005 555 31118 40051
AAXX 07064 71618 15966 02712 11278 21305 30129 40169 58002 60001 333 11199 21282 70000
AAXX 07064 71619 NIL
AAXX 07064 71622 NIL
AAXX 07064 71632 46/// /2702 11234 21258 39709 40170 53001 6///1 333 11169 21252 7////
AAXX 07064 71634 16/// /2301 11115 21131 39957 40115 56013 60001 333 11100 21201 70000
AAXX 07064 71638 17/// /1102 10032 20014 30153 40260 53012 60021 7//4/ 333 10047 20004 70041
AAXX 07064 71639 12974 73002 10027 21008 39798 40038 58007 60001 87070 333 10072 21010 70000 555 10000 20000
AAXX 07064 71642 NIL
AAXX 07064 06011 07537 72728 10059 20027 39844 49911 52002 60062 74085 333 10069 20037 55300 20000 69997 70158 81/31 83/39 85/49 87/64 91044 91144
AAXX 07064 68070 12960 31104 10233 20206 48542 58006 60094 83072 333 20187
AAXX 07064 60020 NIL
AAXX 07064 60030 02460 73511 10164 20124 30167 40223 56009 60004 8287/ 333 015// 20158 55070 60007 924/7
AAXX 07064 60040 02470 53507 10154 20114 30215 40240 55007 60004 82501 333 013// 20144 55094 60007 924/8
AAXX 07064 60338 NIL
AAXX 07064 71889 12774 61404 10004 21057 39832 40257 52011 60001 85570 333 10047 21028 70000 555 10000 20000 31720 40170
AAXX 07064 71603 11466 80906 10010 20007 30020 40073 56022 69941 72022 885// 333 10011 21054 41997 70004 90962 555 10004 20004
AAXX 07064 71607 17/// /3302 11042 21048 30039 40072 56017 60011 7//4/ 333 11042 21119 70011 555 10010 20011
AAXX 07064 71609 NIL
AAXX 07064 71610 15566 82202 11013 21030 39750 40048 58004 60001 333 11013 21172 70005
AAXX 07064 71621 16962 00000 10022 20008 39934 40039 55009 60001 333 10077 21025 70005 555 32524 40181
AAXX 07064 71623 NIL
AAXX 07064 71624 12974 80000 10043 20017 39827 40036 57009 60001 8807/ 333 10090 20013 70000 555 10000 20000
AAXX 07064 71625 16961 00000 11099 21108 39874 40038 58007 60001 333 11080 21104 70030
AAXX 07064 71627 11369 80000 11085 21114 30011 40057 58005 69901 70272 886// 333 11084 21127 46002 70016 90930 555 10016 20016
AAXX 07064 71628 13960 80507 11093 21114 39905 40049 57013 69901 88070 333 11093 21117 70028 555 10399 20199
AAXX 07064 71630 NIL
AAXX 07064 71631 16/// /1803 10010 20000 39541 40036 56008 60001 333 10041 21005 70000 555 32417 40171
AAXX 07064 71633 12974 81303 10020 20018 39762 40031 58010 60001 8807/ 333 10068 21006 70000 555 10000 20000 32324 40200
AAXX 07064 71705 11548 80806 11091 21106 30011 40101 58026 69981 77122 885// 333 11074 21146 47001 70008 90952 93101 555 10010 20008 32917 40070
AAXX 07064 71706 11866 81303 11090 21116 30062 40124 58012 69901 77111 8807/ 333 11061 21152 47003 79999 90921 555 19999 29999 33120 40100
AAXX 07064 71707 11974 62303 11106 21132 30064 40143 55001 69901 70288 86070 333 11022 21131 44024 79999 90952 555 19999 29999 32819 40150
AAXX 07064 71709 NIL
AAXX 07064 71711 NIL
AAXX 07064 71714 17/// /0707 11089 21103 39987 40081 56008 60011 7//4/ 333 11089 21203 70018
AAXX 07064 71715 17/// /0802 11126 21143 39891 40078 58014 69991 7//4/ 333 11125 21221 70009 555 10040 20009
AAXX 07064 71718 11566 81104 11132 21162 30031 40099 56016 69921 78582 8257/ 333 11128 21156 47010 70004 90947 555 10004 20004
AAXX 07064 71719 NIL
AAXX 07061 33088 12597 73102 10003 21011 39918 40113 52030 69902 87500 333 20000
AAXX 07061 33177 NIL
AAXX 07061 33261 11310 82801 10030 20027 39888 40071 52019 60012 71062 886// 333 20029 88707
AAXX 07061 33275 11295 81803 10054 20052 39838 40060 52013 60082 76164 8772/ 333 20048 87704
AAXX 07061 33301 11396 83104 10000 21011 39827 40114 51019 69972 77175 8672/ 333 21004 86708
AAXX 07061 33325 32597 80000 10018 21001 39826 40097 52025 8757/ 333 20002 87622
AAXX 07061 33377 NIL
AAXX 07061 33415 NIL
AAXX 07061 33429 11396 83201 10008 20003 39684 40113 52023 69902 78782 883// 333 20005 43997 86709
AAXX 07061 33466 11916 82901 10010 20005 39894 40084 52022 69982 71062 8807/ 333 20010
AAXX 07061 33526 11460 83206 10008 21018 39792 40138 52029 69932 78582 883// 333 20007 85916
AAXX 07061 33562 32497 83204 10010 21001 39729 40094 52020 885// 333 20000 88619
AAXX 07061 33614 11994 92602 10041 20039 39962 40066 52024 60072 76164 333 20041 96047
AAXX 07061 33761 11340 81805 10031 20023 39845 40069 52014 60052 76166 8872/ 333 20031
AAXX 07061 33902 11594 80000 10053 20048 39974 40037 52011 60032 71022 885// 333 20049
AAXX 07061 33983 32997 81609 10100 20051 30001 40061 53007 80001 333 20074
AAXX 07061 34415 32967 81802 10021 20005 30008 40105 53010 86035 333 20021
AAXX 07061 34523 32497 81003 10024 20008 30053 40130 52009 885// 333 20020 88616
AAXX 07061 34712 32572 81008 10016 20011 30018 40105 53012 885// 333 20015 88627
AAXX 07064 71864 NIL
AAXX 07064 71865 16/// /2608 11044 21066 39464 40151 53001 60001 333 11003 21054 70000 555 32622 40081
AAXX 07064 71866 46664 82807 11048 21079 39544 40165 53006 6///1 333 10015 21068 7//// 555 33030 40082
AAXX 07064 71867 11569 80000 11133 21147 39818 40162 52012 69901 77172 885// 333 11068 21134 47028 70024 90937 555 10046 20024 3////
AAXX 07064 71868 16/// /0000 11063 21067 39689 40135 51007 60001 333 10007 21063 70024
AAXX 07064 71869 12674 63006 11019 21047 39617 40145 52005 60001 86500 333 10027 21023 70002 555 10002 20002
AAXX 07064 71871 15966 02613 11079 21109 39353 40173 51005 60001 333 10009 21081 70000
AAXX 07064 71877 12974 03205 11040 21121 38902 40188 52004 60001 333 10037 21054 70000 555 10000 20000 32727 40181
AAXX 07064 71878 12974 00000 11117 21137 39104 40207 53001 60001 333 10022 21130 70000 555 10000 20000
AAXX 07064 71879 16964 02403 11053 21107 39367 40182 51002 60001 333 10019 21062 70000
AAXX 07064 71880 12682 30000 11038 21074 39108 40233 53004 60001 81571 333 10020 21052 70000 555 10000 20000
AAXX 07064 71882 160// /0000 11001 21003 39700 40247 53006 60001 333 10013 21006 70005
AAXX 07064 71883 46/// /0000 11022 21024 39418 40251 53010 6///1 333 10004 21030 7////
AAXX 07064 71887 NIL
AAXX 07064 71889 12774 61404 10004 21057 39832 40257 52011 60001 85570 333 10047 20003 70000 555 10000 20000 31720 40170
AAXX 07064 71891 16964 00302 11001 21014 39980 40259 52013 60001 333 10055 21004 70000 555 32029 40132
AAXX 07064 71892 11466 81006 10038 20022 30267 40272 53013 60011 75162 885// 333 10043 20012 70042 90973 555 10000 20000
AAXX 07064 71397 11458 80508 11057 21074 30060 40095 57032 69961 77122 885// 333 11042 21094 47005 70006 90952 93101 555 10012 20006 32917 40080
AAXX 07064 71400 16/64 /1601 11196 21210 60001 333 11011 21196 70036 555 32620 40171
AAXX 07064 71403 46/// /1508 11013 21046 30103 40123 56022 6///1 333 11013 21078 7////
AAXX 07064 71411 17/// /1212 10028 20023 30079 40092 58025 69971 7//4/ 333 10028 21083 70007 555 31418 40051
AAXX 07064 71412 16/// /2402 11077 21119 30114 40124 56013 60001 333 11051 21118 70000 555 33031 40112
AAXX 07064 71421 NIL
AAXX 07064 71430 16/// /2507 10048 20039 39942 40038 56011 60001 333 10072 20020 70003 555 32027 40111
AAXX 07064 71431 16/// /2801 10027 20019 39937 40032 56007 60001 333 10053 21007 70000
AAXX 07064 71432 NIL
AAXX 07064 71433 NIL
AAXX 07064 71435 NIL
AAXX 07064 71441 46/// /1004 11048 21076 39833 40144 56003 6///1 333 10038 21051 7//// 555 32834 40093
AAXX 07064 71443 16/// /0302 11064 21069 39725 40143 53011 60001 333 11015 21065 70041
AAXX 07064 71444 NIL
AAXX 07064 71447 16/// /2906 11016 21041 39604 40152 51007 60001 333 10025 21016 70000 555 33133 40182
AAXX 07064 71467 16/// /1208 11220 21241 39911 40028 57017 60001 333 11202 21230 70000
AAXX 07064 71472 NIL
AAXX 07064 71474 16006 81903 11047 21063 38984 40247 53008 60001 333 11018 21068 70000
AAXX 07064 71510 16/// /2807 11072 21104 39456 40174 53008 60001 333 10020 21072 7////
AAXX 07064 71538 12974 72307 10051 20017 39820 40047 56012 60001 87030 333 10111 20033 70000 555 10000 20000 32420 40171
AAXX 07064 71600 16864 80000 11001 21059 30140 40146 56004 60001 333 10039 21024 70000 555 33026 40101
AAXX 07064 71601 NIL
AAXX 07064 71114 160// /0903 10012 20006 30225 40274 52010 60001 333 10055 20002 70010
AAXX 07064 71120 12874 12607 11074 21095 39497 40165 53006 60001 81070 333 10011 21074 70000 555 10000 20000
AAXX 07064 71122 16/// /2603 11062 21100 38578 40204 53003 60001 333 11009 21062 70000 555 32818 40191
AAXX 07064 71123 12874 71903 11068 21110 39308 40191 52001 60001 86072 333 10007 21112 70000 555 10000 20000
AAXX 07064 71125 NIL
AAXX 07064 71129 12974 02805 11062 21101 39342 40185 53005 60001 333 10016 21073 70000 555 10000 20000
AAXX 07064 71131 16/// /2202 11050 21113 38911 40184 55001 60001 333 10000 21090 70000 555 33021 40101
AAXX 07064 71135 NIL
AAXX 07064 71137 NIL
AAXX 07064 71140 12974 33012 11026 21037 39638 40143 5/004 60001 83070 333 10026 21026 70002 555 10002 20002 32732 40071
AAXX 07064 71145 11769 80104 11173 21198 39849 40155 51012 69901 77177 88500 333 11128 21174 48037 70006 90983 555 10006 20006
AAXX 07064 71148 16/// /2506 11021 21033 39561 40145 56003 60001 333 10026 21042 70003 555 33128 40202
AAXX 07064 71185 17564 32621 11083 30043 40067 53003 60001 745// 333 11008 21089 70015 555 32735 40193
AAXX 07064 71188 12774 70000 11154 21193 30071 40115 56010 60001 87500 333 11100 21168 70000 555 10000 20000
AAXX 07064 71200 16/// /0908 10043 20021 60001 333 10057 20039 70000 555 32517 40071
AAXX 07064 71207 16/// /0701 10020 30200 40265 53011 60001 333 10048 20012 70004
AAXX 07064 71260 13/// ///// 10018 21011 39787 40021 57005 60001 333 10051 21072 70000 555 10000 20000
AAXX 07064 71864 NIL
AAXX 07064 71865 16/// /2608 11044 21066 39464 40151 53001 60001 333 11003 21054 70000 555 32622 40081
AAXX 07064 71866 46664 82807 11048 21079 39544 40165 53006 6///1 333 10015 21068 7//// 555 33030 40082
AAXX 07064 71867 11569 80000 11133 21147 39818 40162 52012 69901 77172 885// 333 11068 21134 47028 70024 90937 555 10046 20024 3////
AAXX 07064 71868 16/// /0000 11063 21067 39689 40135 51007 60001 333 10007 21063 70024
AAXX 07064 71869 12674 63006 11019 21047 39617 40145 52005 60001 86500 333 10027 21023 70002 555 10002 20002
AAXX 07064 71871 15966 02613 11079 21109 39353 40173 51005 60001 333 10009 21081 70000
AAXX 07064 71877 12974 03205 11040 21121 38902 40188 52004 60001 333 10037 21054 70000 555 10000 20000 32727 40181
AAXX 07064 71878 12974 00000 11117 21137 39104 40207 53001 60001 333 10022 21130 70000 555 10000 20000
AAXX 07064 71879 16964 02403 11053 21107 39367 40182 51002 60001 333 10019 21062 70000
AAXX 07064 71880 12682 30000 11038 21074 39108 40233 53004 60001 81571 333 10020 21052 70000 555 10000 20000
AAXX 07064 71882 160// /0000 11001 21003 39700 40247 53006 60001 333 10013 21006 70005
AAXX 07064 71883 46/// /0000 11022 21024 39418 40251 53010 6///1 333 10004 21030 7////
AAXX 07064 71887 NIL
AAXX 07064 71889 12774 61404 10004 21057 39832 40257 52011 60001 85570 333 10047 20003 70000 555 10000 20000 31720 40170
AAXX 07064 71891 16964 00302 11001 21014 39980 40259 52013 60001 333 10055 21004 70000 555 32029 40132
AAXX 07064 71892 11466 81006 10038 20022 30267 40272 53013 60011 75162 885// 333 10043 20012 70042 90973 555 10000 20000
AAXX 07064 71930 NIL
AAXX 07064 71931 16/// /2612 11111 21141 30050 40062 53017 60001 333 10033 21111 7//// 555 31634 40083
AAXX 07064 71934 11974 01502 11267 21295 39890 40161 58009 69901 70270 333 11155 21267 47033 70008 90960 555 10012 20008
AAXX 07064 71935 11874 31403 11246 21285 39917 40137 58019 69901 72270 81071 333 11163 21269 47032 79999 90911 555 19999 29999
AAXX 07064 71936 11974 01404 11256 21295 39860 40136 57015 69901 70270 333 11239 21300 48025 79999 555 19999 29999
AAXX 07064 71937 NIL
AAXX 07064 71938 11474 60000 11281 21310 30035 40066 56020 69901 77677 86570 333 11223 21309 46024 79999 90973 555 19999 29999
AAXX 07064 71940 12982 62610 11048 21092 39351 40169 57005 60001 80001 333 10007 21072 70000 555 10000 20000 32725 40221
AAXX 07064 71943 12974 52410 11025 21099 39301 40145 57009 60001 82071 333 10000 21038 70000 555 10000 20000 32325 40111
AAXX 07064 71944 160// ///// 11028 55004 60001 333 11015 21073 70000
AAXX 07064 71945 12974 00000 11218 21273 39630 40122 57025 60001 333 11150 21233 70000 555 10000 20000
AAXX 07064 71946 12974 41503 11218 21242 39865 40088 58026 60001 80004 333 11189 21273 79999 555 19999 29999
AAXX 07064 71948 46064 /1112 11258 39910 40026 56022 6///1 333 11200 21265 7////
AAXX 07064 71949 46/// /1511 11089 21132 39144 40025 56016 6///1 333 11089 21197 7//// 555 31420 40051
AAXX 07064 71951 11132 80000 10006 20004 39911 40181 50001 69901 77177 886// 333 10012 21007 43043 70010 90983 555 10012 20010
AAXX 07064 71957 46964 03203 11229 21299 39887 49978 55010 6///1 333 11197 21260 7////
AAXX 07064 71964 12786 71618 11064 21112 39165 40022 55004 60001 73611 86071 333 11060 21092 70000 555 10000 20000 31730 40051
AAXX 07064 71966 16/// /0000 11235 21261 39534 40013 53017 60001 333 11130 21278 70000
AAXX 07064 71968 460// /3502 11246 39901 49966 55010 6///1 333 11147 21264 7//// 555 31926 40181
AAXX 07064 71930 NIL
AAXX 07064 71931 16/// /2612 11111 21141 30050 40062 53017 60001 333 10033 21111 7//// 555 31634 40083
AAXX 07064 71934 11974 01502 11267 21295 39890 40161 58009 69901 70270 333 11155 21267 47033 70008 90960 555 10012 20008
AAXX 07064 71935 11874 31403 11246 21285 39917 40137 58019 69901 72270 81071 333 11163 21269 47032 79999 90911 555 19999 29999
AAXX 07064 71936 11974 01404 11256 21295 39860 40136 57015 69901 70270 333 11239 21300 48025 79999 555 19999 29999
AAXX 07064 71937 NIL
AAXX 07064 71938 11474 60000 11281 21310 30035 40066 56020 69901 77677 86570 333 11223 21309 46024 79999 90973 555 19999 29999
AAXX 07064 71940 12982 62610 11048 21092 39351 40169 57005 60001 80001 333 10007 21072 70000 555 10000 20000 32725 40221
AAXX 07064 71943 12974 52410 11025 21099 39301 40145 57009 60001 82071 333 10000 21038 70000 555 10000 20000 32325 40111
AAXX 07064 71944 160// ///// 11028 55004 60001 333 11015 21073 70000
AAXX 07064 71945 12974 00000 11218 21273 39630 40122 57025 60001 333 11150 21233 70000 555 10000 20000
AAXX 07064 71946 12974 41503 11218 21242 39865 40088 58026 60001 80004 333 11189 21273 79999 555 19999 29999
AAXX 07064 71948 46064 /1112 11258 39910 40026 56022 6///1 333 11200 21265 7////
AAXX 07064 71949 46/// /1511 11089 21132 39144 40025 56016 6///1 333 11089 21197 7//// 555 31420 40051
AAXX 07064 71951 11132 80000 10006 20004 39911 40181 50001 69901 77177 886// 333 10012 21007 43043 70010 90983 555 10012 20010
AAXX 07064 71957 46964 03203 11229 21299 39887 49978 55010 6///1 333 11197 21260 7////
AAXX 07064 71964 12786 71618 11064 21112 39165 40022 55004 60001 73611 86071 333 11060 21092 70000 555 10000 20000 31730 40051
AAXX 07064 71966 16/// /0000 11235 21261 39534 40013 53017 60001 333 11130 21278 70000
AAXX 07064 71968 460// /3502 11246 39901 49966 55010 6///1 333 11147 21264 7//// 555 31926 40181
AAXX 07064 71893 11459 81214 10045 20028 30227 40259 51012 69921 78062 887// 333 10052 20016 70008 90947 555 10000 20000 31322 40001
AAXX 07064 71894 16/// /1014 10053 20043 30231 40240 52020 60001 333 10054 20032 70164 555 31128 40012
AAXX 07064 71896 17766 81813 11024 21035 39368 40215 58004 60001 771// 333 11011 21066 70000
AAXX 07064 71897 11466 81430 10060 20039 3//// 4//// 52010 60011 78082 888XX 333 10066 20060 70076 90966
AAXX 07064 71898 160// ///// 10042 55000 60001 333 10052 20024 70000
AAXX 07064 71899 11566 81608 10035 20022 3//// 4//// 58003 69961 8422X 333 10054 20014 70032 555 32728 40212
AAXX 07064 71902 NIL
AAXX 07064 71905 NIL
AAXX 07064 71906 11974 02103 11285 21331 30041 40094 53002 69901 77600 333 11170 21300 48027 70002 90921 555 10002 20002
AAXX 07064 71907 16964 00000 11279 21314 30083 40118 57003 60001 333 11264 21315 70000
AAXX 07064 71909 16964 03203 11285 21326 30000 40046 56014 60001 333 11276 21322 70000
AAXX 07064 71910 47337 62614 11205 21238 39933 49997 56003 6///1 745// 333 11169 21271 7//// 555 32631 40052
AAXX 07064 71911 46022 02705 11383 30006 40066 50003 6///1 333 11300 21406 7//// 555 32820 40211
AAXX 07064 71912 11574 70405 11213 21249 39987 40179 51007 69901 77177 87500 333 11176 21214 48020 70002 90983 555 10002 20002
AAXX 07064 71915 NIL
AAXX 07064 71917 11974 20802 11398 21443 30063 40078 53008 69901 7767/ 80001 333 11381 21431 48015 79999 90999 555 19999 29999
AAXX 07064 71922 11474 80000 11094 21103 39677 40153 52009 69901 77177 885// 333 11040 21094 47041 70018 90973 555 10020 20018
AAXX 07064 71924 12674 13304 11333 21389 39944 40038 57003 60001 81530 333 11304 21361 48038 79999 555 19999 29999 30419 40141
AAXX 07064 71925 11574 71204 11321 21369 30059 40103 58016 69901 77677 82570 333 11293 21368 44018 79999 90983 555 19999 29999
AAXX 07064 71926 11974 00000 11360 21420 30126 40152 50000 69901 77677 333 11262 21362 44043 79999 90983 555 19999 29999 32927 40111
AAXX 07064 71928 16/// /2702 11145 21172 39007 40202 53004 60001 333 11024 21147 70000
AAXX 07064 71043 11683 51303 11184 21224 39866 49961 56035 69901 70277 83570 333 11150 21293 48035 70004 90961 555 10004 20004
AAXX 07064 71045 16/// /0404 11078 21100 39190 40058 55000 60001 333 11045 21146 70000 555 10010 31017 40031
AAXX 07064 71050 46/// /2701 11087 21097 39142 40250 52006 6///1 333 11052 21113 7////
AAXX 07064 71051 NIL
AAXX 07064 71052 NIL
AAXX 07064 71066 11/08 00000 11214 21246 39719 40157 58005 69901 74674 333 11097 21223 48029 79999 90915 555 19999 29999
AAXX 07064 71068 12974 22704 11100 21130 39451 40154 57002 60001 80001 333 10001 21100 70000 555 10000 20000 32825 40071
AAXX 07064 71069 16764 33602 11045 21084 39444 40154 57004 60001 333 10015 21054 70000 555 32831 40102
AAXX 07064 71076 16/// /0602 11254 21281 39756 40168 55001 60001 333 11179 21262 70000
AAXX 07064 71077 NIL
AAXX 07064 71079 11774 80502 11191 21220 39881 40173 52006 69901 77177 885// 333 11165 21191 48017 70006 90983 555 10012 20006
AAXX 07064 71081 46964 03212 11417 21452 39983 49996 51001 6///1 333 11324 21420 7////
AAXX 07064 71082 NIL
AAXX 07064 71083 11974 03512 11354 21399 30102 40147 50008 69901 77677 333 11273 21355 48060 79999 90983 555 19999 29999 33419 40021
AAXX 07064 71090 46964 00000 11305 21351 39993 40030 55000 6///1 333 11278 21400 7////
AAXX 07064 71091 460// /1016 11285 39757 49974 57020 6///1 333 7//// 555 31323 40221
AAXX 07064 71092 46408 81317 11277 39310 40000 58009 6///1 333 11277 21328 7//// 555 31425 40031
AAXX 07064 71093 460// ///// 11250 39505 40017 58008 6///1 333 11242 21272 7////
AAXX 07064 71094 46064 /2208 11209 39055 49972 58015 6///1 333 11208 21270 7//// 555 32119 40201
AAXX 07064 71095 46764 60000 11335 21374 39947 40031 51003 6///1 333 11297 21363 7////
AAXX 07064 71101 160// /2006 30139 57012 60001 333 70000 555 31526 40161
AAXX 07064 71104 NIL
AAXX 07064 71108 11774 70000 10014 20007 30200 40274 52010 69901 70182 81509 333 10063 20002 79999 90926 555 10000 20000
AAXX 07064 71109 12674 61309 10045 20014 30207 40234 51011 60001 86500 333 10055 20018 70000 555 10000 20000 31024 40201
AAXX 07061 76040 32902 01501 10108 20049 30129 40143 52005 90542 333 10130 20051 30/// 55920 59024 98602
AAXX 07061 76225 32920 02502 10090 21061 38632 40128 52006 90545 333 10206 21010 30/// 55094 59021
AAXX 07061 76305 32970 50000 10145 20070 30145 40153 52002 82014 90550 333 10276 20120 30/// 55089 21314 56055 58/// 82460 83070
AAXX 07061 76342 32940 01803 10153 20040 39456 40147 52007 90550 333 10285 20080 30/// 55098 20638 59079
AAXX 07061 76382 32960 00000 10116 20080 38901 40129 52003 90547 333 10247 20048 30/// 55075 2//// 59039
AAXX 07061 76393 31920 02901 10154 20095 39567 40133 52002 70400 90551 333 10268 20094 30/// 55091 59056
AAXX 07061 76402 32950 30000 10134 20106 30100 40156 52004 80007 90547 333 10295 20086 30/// 55063 2//// 56005 58006
AAXX 07061 76423 32960 82301 10125 21013 38153 40113 52007 80007 90555 333 10235 20005 30/// 55091 21208 56009 59021 88270
AAXX 07061 76458 32960 03501 10186 20177 30144 40148 53002 90537 333 10275 20139 30/// 55055 58003
AAXX 07061 76525 32960 32106 10090 21033 37471 40135 52001 80006 90540 333 10139 20041 30/// 55081 22653 56//5 59004 83080
AAXX 07061 76539 32958 03001 10104 20049 38164 40153 52010 90550 333 10220 20023 30/// 55057 59017
AAXX 07061 76548 32360 52901 10170 20167 30170 40180 58001 82430 90545 333 10230 20168 31/// 55033 56340 59049 82608 83357
AAXX 07061 76556 32960 30901 10154 20080 39123 40126 52011 80001 90530 333 10265 20108 30/// 55054 56005 58005 83070
AAXX 07061 76571 32910 00000 10096 20021 38172 40151 54004 90550 333 10210 20050 30/// 55059 59001 70000
AAXX 07061 76577 32960 50000 10094 20070 38051 40152 52006 80003 90540 333 10200 20055 30/// 55047 56005 58005 85081
AAXX 07061 76612 32958 02401 10093 20031 38482 40148 50005 90547 333 10227 20060 30/// 55077 21053 58/// 70000
AAXX 07061 76625 32550 01401 10112 20003 38145 40119 54006 90530 333 10200 20089 30/// 55040 56000 58000
AAXX 07061 76634 31970 01303 10084 20045 37860 40155 52003 70500 90550 333 10200 20030 30/// 55082 59002
AAXX 07061 76644 23250 11203 10198 20167 30180 40193 52028 81200 90550 333 10295 20135 30/// 55092 21268 561// 59042 81810
AAXX 07061 76654 31956 00401 10234 20206 30166 40170 52011 70544 90550 333 10289 20207 30/// 55078 20968 58008
AAXX 07061 76665 31458 22201 10123 20082 38133 40127 52006 70200 82200 90550 333 10243 20065 30/// 55076 21176 56100 57813 58008 82812
AAXX 07061 76680 31560 42902 10116 20026 37760 40130 52001 70300 81810 90550 333 10210 20069 30/// 55091 21442 56110 58005 81825 83458
AAXX 07061 76683 32860 40000 10086 20039 37831 40155 52006 84030 90550 333 10198 20019 30/// 50231 55088 21785 56060 59001 84358 98810
AAXX 07061 76685 32950 00000 10102 20017 37878 40128 52014 90545 333 10200 20040 30/// 55096 58002
AAXX 07061 76695 32956 00000 10176 20154 30167 40173 58002 90545 333 10300 20127 30/// 55085 59035
AAXX 07061 76750 32558 20000 10172 20159 30174 40185 57005 81130 90550 333 10305 20141 30/// 55078 56110 59029 81820
AAXX 07061 76762 31602 71603 10182 20164 38774 40126 52019 70324 83470 90540 333 10294 20108 30/// 55090 20744 56420 58005 83638 84358
AAXX 07061 76775 31960 22301 10140 20063 38535 40139 52011 70100 82040 90550 333 10289 20060 30/// 55075 56080 59014 82398
AAXX 07061 76845 32930 00000 10070 20064 37962 40162 50002 90547 333 10226 20038 30/// 55091 59002
AAXX 07061 76848 31950 00000 10102 20082 38397 40113 58001 70040 90550 333 10237 20098 30/// 55082 59010
AAXX 07061 76243 32970 00702 10136 20094 39842 40131 54000 90530 333 10260 20040 30/// 55094 59073
AAXX 07061 76311 32958 00000 10136 20081 39872 40144 52005 90555 333 10322 20080 30/// 55088 59004
AAXX 07061 76390 31950 02603 10081 21043 38232 40153 52001 70544 90530 333 10185 20023 30/// 55096 21367 59024
AAXX 07061 76405 32840 50000 10178 20145 30140 40162 52015 85060 90550 333 10263 20118 30/// 55048 2//// 56050 58002 85356
AAXX 07061 76412 32960 00000 10150 20140 30125 40171 52002 90550 333 10260 20120 30/// 55073 58008
AAXX 07061 76647 32365 10702 10186 20166 30170 40200 58003 81500 90550 333 10297 20130 30/// 55077 56300 59041 81608
AAXX 07061 01037 16/// /1201 11069 21077 39985 49991 57007 60002 333 21095 70000 91102
AAXX 07061 01065 11660 80202 11023 21040 39816 49978 57003 60012 78588 888// 333 21054 70012 91103
AAXX 07061 01114 16/// /0601 11102 21126 39952 49963 57007 60002 333 21120 70000 91104
AAXX 07061 01245 11880 72801 11098 21124 39227 49953 56026 60002 70381 8701/ 333 21111 48055 70061 91104
AAXX 07061 01344 16/// ///// 11017 21028 60022 333 21027 4/082 70027
AAXX 07061 01364 16/// /1004 11054 21065 38818 49943 50020 60032 333 21070 4/174 70030 91107
AAXX 07061 01389 11885 81101 11117 21129 39666 49991 56013 69952 70220 8802/ 333 21127 43027 70007 91102
AAXX 07061 01132 16/// /0201 11222 21248 39579 40001 58008 69932 333 21222 70025 91103
AAXX 07061 01156 16/// /0503 11034 21088 39962 49972 57007 60002 333 21044 70000 91106
AAXX 07061 01273 16/// /1501 11085 21097 39759 49961 57022 60002 333 21106 70070 91102
AAXX 07061 01033 46/// /0302 11004 21044 39955 49986 55005 333 21018 91103
AAXX 07061 01406 46/// /1909 10074 20049 39919 49936 58004 333 20035 91116
AAXX 07061 01442 11120 83502 10005 20001 39694 49952 57024 69952 71072 886// 333 21015 70005 91106
AAXX 07061 01135 16/// ///// 11155 21170 39823 49985 58006 60002 333 21155 4/094 70050
AAXX 07061 01192 16/// /2901 11056 21102 60002 333 21081 4/015 70000 91103
AAXX 07061 01232 16/// /1502 10002 21031 39844 49923 56025 60022 333 21004 4/017 70103 91107
AAXX 07061 01253 16/// /1801 11128 21140 69922 333 21128 70071 91105
AAXX 07061 01455 16/// /1901 11002 21018 39640 49950 57027 60002 333 21004 70000 91105
AAXX 07061 01481 16/// /0701 10003 21005 39927 49959 56022 69972 333 20003 70007 91104
AAXX 07061 76040 32902 01501 10108 20049 30129 40143 52005 90542 33310130 20051 30/// 55920 59024 98602
AAXX 07061 76225 32920 02502 10090 21061 38632 40128 52006 90545 33310206 21010 30/// 55094 59021
AAXX 07061 76305 32970 50000 10145 20070 30145 40153 52002 82014 90550333 10276 20120 30/// 55089 21314 56055 58/// 82460 83070
AAXX 07061 76342 32940 01803 10153 20040 39456 40147 52007 90550 33310285 20080 30/// 55098 20638 59079
AAXX 07061 76382 32960 00000 10116 20080 38901 40129 52003 90547 33310247 20048 30/// 55075 2//// 59039
AAXX 07061 76393 31920 02901 10154 20095 39567 40133 52002 70400 90551333 10268 20094 30/// 55091 59056
AAXX 07061 76402 32950 30000 10134 20106 30100 40156 52004 80007 90547333 10295 20086 30/// 55063 2//// 56005 58006
AAXX 07061 76423 32960 82301 10125 21013 38153 40113 52007 80007 90555333 10235 20005 30/// 55091 21208 56009 59021 88270
AAXX 07061 76458 32960 03501 10186 20177 30144 40148 53002 90537 33310275 20139 30/// 55055 58003
AAXX 07061 76525 32960 32106 10090 21033 37471 40135 52001 80006 90540333 10139 20041 30/// 55081 22653 56//5 59004 83080
AAXX 07061 76539 32958 03001 10104 20049 38164 40153 52010 90550 33310220 20023 30/// 55057 59017
AAXX 07061 76548 32360 52901 10170 20167 30170 40180 58001 82430 90545333 10230 20168 31/// 55033 56340 59049 82608 83357
AAXX 07061 76556 32960 30901 10154 20080 39123 40126 52011 80001 90530333 10265 20108 30/// 55054 56005 58005 83070
AAXX 07061 76571 32910 00000 10096 20021 38172 40151 54004 90550 33310210 20050 30/// 55059 59001 70000
AAXX 07061 76577 32960 50000 10094 20070 38051 40152 52006 80003 90540333 10200 20055 30/// 55047 56005 58005 85081
AAXX 07061 76612 32958 02401 10093 20031 38482 40148 50005 90547 33310227 20060 30/// 55077 21053 58/// 70000
AAXX 07061 76625 32550 01401 10112 20003 38145 40119 54006 90530 33310200 20089 30/// 55040 56000 58000
AAXX 07061 76634 31970 01303 10084 20045 37860 40155 52003 70500 90550333 10200 20030 30/// 55082 59002
AAXX 07061 76644 23250 11203 10198 20167 30180 40193 52028 81200 90550333 10295 20135 30/// 55092 21268 561// 59042 81810
AAXX 07061 76654 31956 00401 10234 20206 30166 40170 52011 70544 90550333 10289 20207 30/// 55078 20968 58008
AAXX 07061 76665 31458 22201 10123 20082 38133 40127 52006 70200 8220090550 333 10243 20065 30/// 55076 21176 56100 57813 5800882812
AAXX 07061 76680 31560 42902 10116 20026 37760 40130 52001 70300 8181090550 333 10210 20069 30/// 55091 21442 56110 58005 8182583458
AAXX 07061 76683 32860 40000 10086 20039 37831 40155 52006 84030 90550333 10198 20019 30/// 50231 55088 21785 56060 59001 8435898810
AAXX 07061 76685 32950 00000 10102 20017 37878 40128 52014 90545 33310200 20040 30/// 55096 58002
AAXX 07061 76695 32956 00000 10176 20154 30167 40173 58002 90545 33310300 20127 30/// 55085 59035
AAXX 07061 76750 32558 20000 10172 20159 30174 40185 57005 81130 90550333 10305 20141 30/// 55078 56110 59029 81820
AAXX 07061 76762 31602 71603 10182 20164 38774 40126 52019 70324 8347090540 333 10294 20108 30/// 55090 20744 56420 58005 8363884358
AAXX 07061 76775 31960 22301 10140 20063 38535 40139 52011 70100 8204090550 333 10289 20060 30/// 55075 56080 59014 82398
AAXX 07061 76845 32930 00000 10070 20064 37962 40162 50002 90547 33310226 20038 30/// 55091 59002
AAXX 07061 76848 31950 00000 10102 20082 38397 40113 58001 70040 90550333 10237 20098 30/// 55082 59010
AAXX 07061 76243 32970 00702 10136 20094 39842 40131 54000 90530 33310260 20040 30/// 55094 59073
AAXX 07061 76311 32958 00000 10136 20081 39872 40144 52005 90555 33310322 20080 30/// 55088 59004
AAXX 07061 76390 31950 02603 10081 21043 38232 40153 52001 70544 90530333 10185 20023 30/// 55096 21367 59024
AAXX 07061 76405 32840 50000 10178 20145 30140 40162 52015 85060 90550333 10263 20118 30/// 55048 2//// 56050 58002 85356
AAXX 07061 76412 32960 00000 10150 20140 30125 40171 52002 90550 33310260 20120 30/// 55073 58008
AAXX 07061 76647 32365 10702 10186 20166 30170 40200 58003 81500 90550333 10297 20130 30/// 55077 56300 59041 81608
AAXX 07061 01144 41886 21204 11026 21065 70300 81046 333 21035 91107
AAXX 07061 48823 01396 83402 10120 20114 30242 40245 57028 69913 75155 8772/ 333 58025 69911 87793 88499 96150 555 20105
AAXX 07061 78458 32466 80000 10210 20195 40196 57019 8482/ 333 10293 20194 30/// 56000 59010 84616 88457
AAXX 07061 78460 31460 70000 10198 20185 40183 58013 70544 82570 333 10251 20186 31/// 56200 59007 82613 87358
AAXX 07061 78479 21466 60206 10226 20219 40153 56001 72166 85220 333 10251 20204 32/// 56000 58000 60066 85816
AAXX 07061 78485 32466 43604 10197 20171 40171 57010 82230 333 10290 20183 30/// 56000 59004 82818 84358
AAXX 07061 78486 32466 33503 10214 20184 40160 57008 82230 333 10322 20207 30/// 56000 59001 82818
AAXX 07064 48451 31558 10904 10311 20216 30129 40140 57037 70500 81100 333 58001
AAXX 07064 48479 32560 60303 10326 20177 30096 40147 57016 81107 333 58023
AAXX 07061 48820 01597 80502 10125 20089 30241 40249 69903 76062 888// 333 58027 69901 85895 88697 96160
AAXX 07064 48358 32962 10903 10270 20145 30007 40183 56032 80005 333 58025
AAXX 07064 48384 32562 40000 10277 20156 39985 40176 57026 81506 333 58024
AAXX 07064 48404 32962 60609 10280 20201 39983 40160 57033 80006 333 58016
AAXX 07064 48481 31558 33304 10323 20158 30113 40141 57027 70510 82201 333 58017
AAXX 07061 02019 07/99 /0901 11100 21122 39344 49976 57009 69902 70070 333 11084 21123 60005 70002 90710 91103
AAXX 07061 02081 07/75 /0203 11048 21061 39561 49967 57003 69952 70074 333 11048 21067 60005 70006 90710 91105
AAXX 07061 02095 07356 /0002 11050 21058 39748 49952 54001 69992 77174 333 11048 21054 69915 70017 81/09 86/18 87/57 90710 91103
AAXX 07061 02101 45984 /1601 11277 21308 39419 40008 55004 8//// 333 11215 21277
AAXX 07061 02119 07683 /3201 11124 21141 39579 49973 57008 69912 70087 333 11040 21136 60005 70001 88/35 90710 91102
AAXX 07061 02124 05499 /3102 11068 21092 39430 49960 57007 60002 333 11055 21068 60005 70010 88/16 90710 91104
AAXX 07061 02126 07482 /3102 11049 21074 39615 49955 55002 69902 78580 333 11046 21070 69905 70006 88/19 90710 91105
AAXX 07061 02151 37483 83402 11049 21059 39614 49952 56003 60002 70087 333 11048 21058 60005 70050 82/16 88/23 91004 90710 91105 90710 91205
AAXX 07061 02186 17477 83402 11043 21054 39914 49939 55000 69972 70084 333 11042 21059 60005 70033 88/15 91004 90710 91104 90710 91203
AAXX 07061 02197 07/60 /3602 11043 21045 39910 49929 57002 60022 77174 333 11040 21051 69935 70053 90710 91105
AAXX 07061 02207 07583 /1400 11088 21095 39246 49953 57016 69902 70087 333 11050 21088 60005 70042 87/23 87/67 90710 91102
AAXX 07061 02219 07/60 /1002 11153 21167 39287 49970 58006 60002 70010 333 11088 21163 60005 70023 90710 91103
AAXX 07061 02226 45584 /0302 11081 21097 39502 49962 55007 8//// 333 11057 21085 81/27 88/36
AAXX 07061 02243 07/58 /3301 11062 21071 39679 49950 52002 69992 71087 333 11061 21172 60005 70009 90710 91104
AAXX 07061 02269 07434 /3102 11046 21052 69952 77170 333 11046 21083 69905 70005 81/14 87/35 90710 91103
AAXX 07061 02287 07581 /0902 11041 21057 39928 49938 51011 69942 70070 333 11037 21079 60005 70009 87/21 90710 91105
AAXX 07061 02297 07477 /2603 11036 21036 39890 49935 51004 60032 70070 333 11033 21066 60005 70070 85/13 87/23 90710 91105
AAXX 07061 02308 05/99 /0801 11120 21132 39092 49968 58010 60002 333 11066 21126 60005 70000 90710 91102
AAXX 07061 02327 05/99 /2503 11138 21144 39527 49973 57008 69902 333 11045 21183 60005 70000 90710 91104
AAXX 07061 02355 05699 /3207 11041 21069 39931 49944 58001 69902 333 11015 21049 60005 70000 83/46 87/58 90710 91111
AAXX 07061 02366 45584 /3602 11054 21070 39942 49948 54000 8//// 333 11054 21105 83/20 88/31
AAXX 07061 02407 05983 /1601 11161 21175 39598 49979 57011 60002 333 11038 21174 60005 70000 90710 91102
AAXX 07061 02418 45884 /0701 11039 21051 39837 49970 56018 8//// 333 11013 21047 83/57
AAXX 07061 02435 45984 /2604 11086 21109 39775 49967 57009 8//// 333 11025 21086
AAXX 07061 02440 05/82 /2502 11094 21110 60002 333 11030 21094 60005 70000 90710 91103
AAXX 07061 02452 05999 /3401 11049 21075 60002 333 11009 21049 60005 70000 90710 91103
AAXX 07061 02456 05/99 /2501 11065 21080 39913 49957 55005 60002 333 11029 21065 60005 70000 90710 91104
AAXX 07061 02469 06/// /3003 11050 21070 60002 333 11007 21077 60005 70000 90710 91104
AAXX 07061 02498 05599 /2910 11014 21051 39934 49951 57004 69902 333 10004 21016 60005 70001 81/22 90710 91113
AAXX 07061 02518 463// /2107 10036 20029 333 10045 20031 86/08 87/10 90710 91109
AAXX 07061 02520 35871 81702 10003 21007 39904 49972 56021 60002 333 10028 21020 60005 70000 88/57 91003 90710 91103 90710 91203
AAXX 07061 02550 45280 /2203 10006 20006 39705 49981 56016 8//// 333 10008 21061 85/06 87/08
AAXX 07061 02562 37859 12101 11028 21031 39866 49983 57007 60002 71000 333 10005 21036 60005 70000 81/57 91001 90710 91102 90710 91201
AAXX 07061 02563 05999 /2802 11001 21030 39956 49978 55005 60002 333 10010 21010 60005 70000 88/58 90710 91104
AAXX 07061 02565 05461 /2201 10000 21007 39869 49989 57011 60002 333 10018 21032 60005 70000 87/18 88/40 90710 91102
AAXX 07061 02589 07/99 /2904 11004 21036 39942 49963 58004 69942 70087 333 10025 21005 60005 70005 90710 91109
AAXX 07061 02590 45584 /2604 10017 21021 39919 49980 55002 8//// 333 10024 20009 86/21 87/28 88/59
AAXX 07061 02618 07/61 /2303 10021 20021 39829 49993 58025 60032 76161 333 10032 21038 69925 70025 90710 91107
AAXX 07061 02664 11459 52403 10021 20013 39943 40015 58014 69902 76062 85500 333 10021 21032 34/// 60005 79999 85615 91005 90710 91105 90710 91203
AAXX 07061 02679 05/99 /2706 10025 20010 39948 49992 58009 60002 333 10025 20002 60005 70004 90710 91110
AAXX 07064 78958 11465 70805 10245 20231 30124 40134 60041 70681 86802 333 10291 20232 59003 83829 83640
AAXX 07061 78458 32466 80000 10210 20195 40196 57019 8482/ 333 10293 20194 30/// 56000 59010 84616 88457
AAXX 07061 78460 31460 70000 10198 20185 40183 58013 70544 82570 333 10251 20186 31/// 56200 59007 82613 87358
AAXX 07061 78479 21466 60206 10226 20219 40153 56001 72166 85220 333 10251 20204 32/// 56000 58000 60066 85816
AAXX 07061 78485 32466 43604 10197 20171 40171 57010 82230 333 10290 20183 30/// 56000 59004 82818 84358
AAXX 07061 78486 32466 33503 10214 20184 40160 57008 82230 333 10322 20207 30/// 56000 59001 82818
AAXX 07064 78958 11465 70805 10245 20231 30124 40134 60041 70681 86802 333 10291 20232 59003 83829 83640
AAXX 07061 13397 11595 82806 10004 20001 39516 40062 52034 60092 77172 8802/ 333 20004 3/100 43015 55000 70296 91009 91112 93105
AAXX 07064 60060 32456 31405 10128 20104 40234 5//// 83500 333 20127 30005 83616 95300
AAXX 07064 65352 31940 70404 10175 20039 3//// 4//// 70522 80002 333 20175 5//// 87076
AAXX 07064 65361 32958 70000 10175 20079 3//// 4//// 80002 333 20175 5//// 87076
AAXX 07064 65376 31945 70206 10230 20058 39662 40121 70522 80002 333 20210 59008 87073
AAXX 07064 65387 31201 70404 10236 20227 30084 40102 74642 877// 333 20236 59001 84706
AAXX 07064 64600 32956 80000 10160 20146 39465 40116 80002 333 01400 20155 55034 59009 88080
AAXX 07064 64601 31940 73614 10168 20027 39002 48511 70522 80002 333 01500 20164 59008 87080
AAXX 07064 64605 32958 70000 10150 20098 39367 40111 80002 333 01100 20135 5//// 87080
AAXX 07064 64610 32970 70000 10135 20115 3//// 4//// 80002 333 00800 20125 5//// 87080
AAXX 07064 64650 31930 83204 10162 20129 39705 40120 71011 80002 333 01500 20160 55070 59006 88080
AAXX 07064 64654 32970 80604 10152 20076 39557 40133 80002 333 01300 20140 58001 88080
AAXX 07064 64655 32960 70000 10138 20124 39470 40121 80002 333 01200 20135 59005 87080
AAXX 07064 64656 31903 30000 10195 20187 39555 40107 74644 80002 333 01600 20171 59007 83080
AAXX 07064 64659 NIL
AAXX 07064 64660 32958 60000 10161 20137 39581 40110 80002 333 01000 20152 58014 86080
AAXX 07064 64662 32965 50402 10157 20142 39604 40106 80002 333 01500 20150 59003 85080
AAXX 07064 64665 32970 80000 10170 20144 3//// 4//// 80002 333 00500 20148 5//// 88080
AAXX 07061 11157 11230 82606 10014 21034 39436 40222 52007 60012 73677 875// 333 21005 3/101 44034 82705 87633 91013 91116 91207
AAXX 07064 68148 12560 80000 10206 20190 48535 53010 60064 83970 333 20175
AAXX 07061 01062 11580 40507 11038 21049 30088 40101 57003 69902 70181 84300 333 21039 44999 79999 91113
AAXX 07061 01300 41598 72811 10068 20031 49923 52004 70222 87/// 22200 02061 10708 70038 333 91115
AAXX 07061 01160 46/// /0304 11020 21071 39951 49968 57008 333 21022 91109
AAXX 07061 01359 11346 80000 11047 21058 39031 49951 57020 60012 77172 8802/ 333 21049 48046 70016 91102
AAXX 07061 01400 41598 53013 10079 20043 40024 54000 70182 83201 22200 06075 10605 70027 333 91117
AAXX 07064 17260 11241 80802 10041 20041 39375 40210 52014 60022 76122 8672/ 333 20041 32002 50124 55003 2010 5 70016 84705 85625 88458 96010
AAXX 07061 33177 32568 81903 10006 21014 39881 40122 52022 885// 333 20004
AAXX 07061 33377 11217 83102 10042 20035 39884 40078 53026 60062 76164 8772/ 333 20041 86704
AAXX 07061 33415 11597 73205 10009 21008 39719 40123 52028 69902 78582 86330 333 20008 86920
BBXX 44039 07061 99411 70727 46/// /2205 10081 20046 40088 90545 22200 00067 10301 70003 333 91206
AAXX 07064 65352 31940 70404 10175 20039 3//// 4//// 70522 80002 333 20175 5//// 87076
AAXX 07064 65361 32958 70000 10175 20079 3//// 4//// 80002 333 20175 5//// 87076
AAXX 07064 65376 31945 70206 10230 20058 39662 40121 70522 80002 333 20210 59008 87073
AAXX 07064 65387 31201 70404 10236 20227 30084 40102 74642 877// 333 20236 59001 87706
AAXX 07061 14024 12499 10302 11009 21108 39074 48458 52014 60002 81800 333 21015 30103 55055 70000 81814 81615 95000
AAXX 07064 60645 36/// /0000 10112 21101 333 20094
AAXX 07061 06447 11294 82504 10072 20062 30041 40167 57023 60022 75866 877// 333 20028 32100 91112 91207
AAXX 07064 60619 36/// /0209 10053 21055 333 20053
AAXX 07061 02464 45984 /2502 11038 21061 39948 49966 57003 8//// 333 10004 21038
AAXX 07061 02500 07460 /2002 10024 20009 39918 49960 56023 69942 76160 333 10046 20024 69945 70004 83/14 86/25 90710 91105
AAXX 07061 02513 47/80 /1902 10035 20023 39970 49975 58027 76186 333 10051 21014 90710 91105
AAXX 07061 02615 07456 /2209 10037 20025 30020 40024 58033 69982 76160 333 10045 20028 69975 70008 88/11 90710 91112
AAXX 07061 02635 07/50 /2403 10031 20017 69972 76186 333 10042 20010 69975 70007 90710 91108
AAXX 07061 06431 16/// /2507 10089 20085 30148 40160 55017 60032 333 20035 3/001 91111 91207
AAXX 07061 06432 17/21 /2306 10076 20073 30103 40180 56018 69942 78186 333 20023 3/101 81/03 85/06 87/09 91112 91208
AAXX 07061 06458 17232 /2308 10071 20070 30013 40167 56025 69922 75186 333 20028 3/001 83/04 85/06 88/08 91111 91208
AAXX 07061 06465 17250 /2306 10075 20067 30091 40157 56025 60012 72386 333 20032 3/000 81/05 83/07 85/09 91111 91207
AAXX 07061 06496 17047 /2306 10029 20028 39490 40173 58021 60052 76186 333 20004 3/100 85/01 88/03 91112 91207
AAXX 07064 60663 36/// /1105 10115 21080 333 20106
AAXX 07064 17260 11241 80802 10041 20041 39375 40210 52014 60022 76122 8672/ 333 20041 32002 50124 55003 20105 70016 84705 85625 88458 96010
AAXX 07064 60621 36/// /0511 10103 21053 333 20092
AAXX 07064 60612 36/// /3210 10056 21095 333 20056
AAXX 07061 89064 36/// /2202 10008 29082 49861 52003
AAXX 07061 06428 17242 /2605 10089 20085 30122 40171 56017 60022 75286 333 20032 3/100 81/03 83/05 85/07 91110 91207
AAXX 07064 78922 46/// /1013 10257 20207 30106 40151 58010
BBXX 61002 07064 99421 10047 46/// ///34 10107 2//// 40238 52006 22200 00132 10809 70047 555 1/046
AAXX 07061 03969 12481 32608 10067 20039 30112 40217 53010 69932 83500 333 20065 31005 55004 81716
AAXX 07064 91925 06/// /3005 10235 20190 30062 40123 51021 60001 333 55099 60007 90710 91108 555 60005 13008 59015
AAXX 07064 91929 04206 83416 10228 20213 30104 40107 51019 60172 765// 333 10265 20226 55/// 60117 70308 90710 91123 555 60105
AAXX 07064 91938 01458 83015 10250 20213 30106 40108 51020 60282 76162 8687/ 333 10276 20237 32/// 55016 60187 70359 82816 84820 88459 90710 91125 555 69985 13226 59007
AAXX 07064 91944 06/// /3610 10264 20216 30116 40119 52022 60002 333 10288 20256 55095 60007 70093 90710 91115 555 60005
AAXX 07064 91948 06/// /3605 10233 20210 30047 40149 51014 60021 333 55086 60027 90710 91110 555 60005 10112 59013
AAXX 07064 91954 06/// /1308 10215 20192 30101 40104 52017 60041 333 55/// 60047 555 59008
AAXX 07064 91958 06/// /3603 10225 20161 30112 40114 53012 60001 333 55001 60007 90710 91110 555 60005 10524 58006
AAXX 07064 91945 06/// /2708 10247 20229 30101 40106 51022 60051 333 69987 555 59015 60064
AAXX 07064 94299 46/// /1408 10286 20194 30089 40099
AAXX 07064 94300 46/// /1923 10286 20128 30084 40094
AAXX 07064 94302 46/// /2310 10357 20118 30061 40067
AAXX 07064 94312 46/// /3115 10336 20203 30059 40068
AAXX 07064 94313 NIL
AAXX 07064 94317 46/// /2607 10375 20128 39464 40031
AAXX 07064 94319 46/// /2709 10375 20147 39718 40038
AAXX 07064 94324 NIL
AAXX 07064 94326 46/// /2412 10375 20153 39440 40036
AAXX 07064 94327 46/// /1909 10405 20139 39667 40028
AAXX 07064 94332 46/// /2708 10392 20140 39667 40042
AAXX 07064 94333 NIL
AAXX 07064 94341 46/// /3606 10400 20135 39819 40048
AAXX 07064 94346 46/// /2909 10414 20118 39815 40028
AAXX 07064 94363 46/// /0807 10352 20179 39861 40073
AAXX 07064 94366 NIL
AAXX 07064 94367 46/// /1006 10283 20201 30069 40110
AAXX 07064 94374 46/// /1109 10301 20149 30090 40106
AAXX 07064 94388 46/// /1111 10274 20188 30113 40118
AAXX 07064 94393 46/// /1616 10249 30091 40103 56010
AAXX 07064 94394 46/// /1615 10249 30106 40114 56008
AAXX 07064 94403 46/// /2019 10256 20106 30087 40127
AAXX 07064 94429 46/// /2010 10293 20060 39638 40086
AAXX 07064 94430 46/// /2206 10322 20078 39500 40064
AAXX 07064 94449 46/// /2209 10300 20095 39561 40074
AAXX 07064 94451 NIL
AAXX 07064 94461 46/// /3009 10312 20187 39398 40046
AAXX 07064 94462 46/// /3206 10321 20197 39515 40052
AAXX 07064 94477 NIL
AAXX 07064 94488 NIL
AAXX 07064 41024 42660 50206 10236 20150 30123 40143 82530 333 20190 59008 82640 83360
AAXX 07064 41030 42660 60000 10222 20160 39865 40139 86400 333 20202 59008 86635
AAXX 07064 41036 42960 02904 10164 20120 38573 48523 333 20130 59004 555 04410 50136
AAXX 07064 41055 42960 00000 10175 20120 38379 48526 333 20130 59001 555 04410 50152
AAXX 07064 41061 42960 01308 10173 20100 39464 40174 333 20110 59012
AAXX 07064 41084 42960 00000 10188 20090 38879 48534 333 20110 59003 555 04410 50143
AAXX 07064 41112 42960 00000 10157 20100 37969 48539 333 20084 59005 555 04410 50183
AAXX 07064 41114 42960 00000 10162 20100 38002 48536 333 20070 59004 555 04410 50175
AAXX 07064 41128 42960 00000 10198 20040 38834 48540 333 20100 59015 555 04410 50157
AAXX 07064 41136 42960 02312 10204 20100 39346 40156 333 20140 59016
AAXX 07064 41140 42960 01412 10271 20230 30144 40153 333 20230 59007
AAXX 07064 41241 36/// /1904 10215 20066 30164 40202 333 0E019 20166 59006
AAXX 07064 41242 36/// /0000 10229 20114 30190 40214 333 0E016 20138 59002
AAXX 07064 41244 NIL
AAXX 07064 41246 NIL
AAXX 07064 41251 NIL
AAXX 07064 41252 31959 00906 10209 20126 39829 40203 70500 333 20169 58000
AAXX 07064 41253 36/// /9902 10224 20140 39821 40205 333 0E016 20153 59007
AAXX 07064 41254 36/// /2808 10164 21004 38197 48202 333 0E007 20090 58011
AAXX 07064 41255 NIL
AAXX 07064 41256 31959 10205 10231 20169 30192 40202 70500 80001 333 20177 59003 81070
AAXX 07064 41257 NIL
AAXX 07064 41258 NIL
AAXX 07064 41259 NIL
AAXX 07064 41262 NIL
AAXX 07064 41263 36/// /1402 10194 20129 39532 40226 333 0E014 20140 58009
AAXX 07064 41264 NIL
AAXX 07064 41265 36/// /3004 10211 20159 39666 40221 333 0E021 20149 58008
AAXX 07064 41267 35/// /0704 10237 20133 30187 40202 333 0E019 20197 58001
AAXX 07064 41268 32960 02408 10235 20148 30187 40203 333 20182 3/020 58002
AAXX 07064 41270 NIL
AAXX 07064 41275 NIL
AAXX 07064 41287 36/// /0000 10232 20170 30163 40214 333 0E017 20147 58010
AAXX 07064 41288 NIL
AAXX 07064 41290 NIL
AAXX 07064 41295 36/// /0103 10192 20191 30018 40202 333 0E018 20140 58005
AAXX 07064 41304 NIL
AAXX 07064 41312 36/// /0203 10242 20166 30150 40189 333 0E/// 20183 58001
AAXX 07064 41314 32960 01206 10225 20036 39694 40198 333 20123 59008
AAXX 07064 41315 36/// /1506 10211 20061 39200 42836 333 0E/// 20161 59003
AAXX 07064 41316 32960 09903 10250 20154 30165 40191 333 20174 58003
AAXX 07064 89564 41981 62408 10022 21059 39682 49701 56014 70222 86030
AAXX 07064 89570 46/// /0844 11047 21074 38974 58003
AAXX 07064 89571 41470 80622 10021 21089 39612 49640 56004 71522 8557/
AAXX 07064 89573 44965 83204 10020 21079 39655 49676 57008 70070 8802/
AAXX 07064 89610 NIL
AAXX 07064 89611 41480 70214 11017 21070 39753 49805 56010 70222 81608
AAXX 07064 89614 NIL
AAXX 07064 89615 46/// /2004 11052 21155 38905 56011
AAXX 07064 89807 NIL
AAXX 07064 89809 46/// /0513 11058 21072 39350 56009
AAXX 07064 85585 339// 99903 10173 20148 30072 40108 58011
AAXX 07064 85586 NIL
AAXX 07064 85629 NIL
AAXX 07064 85672 NIL
AAXX 07064 85682 12560 70203 10163 20152 40129 58014 60001 87500 333 56800 87623
AAXX 07064 85743 12460 89903 10149 20133 40129 58016 60001 885// 333 56699 88610
AAXX 07064 85766 NIL
AAXX 07064 85782 NIL
AAXX 07064 85799 12460 51804 10122 20121 40127 57004 60001 85500 333 56400 85610
AAXX 07064 85830 NIL
AAXX 07064 40356 41958 00910 10050 20040 39204 48499 71000 333 20010 58026 555 04410 50196
AAXX 07064 40357 42960 02801 10060 20040 39555 40207 333 20024 58052
AAXX 07064 40360 42960 02002 10022 21010 39593 40202 333 20010 58019
AAXX 07064 40361 42960 00000 10060 21020 39419 40208 333 20026 58028
AAXX 07064 40362 NIL
AAXX 07064 40373 42660 43506 10120 20010 39769 40190 84500 333 20078 58018 84635
AAXX 07064 40375 42960 01005 10085 21020 39287 40175 333 20031 59001
AAXX 07064 40377 42660 30204 10120 20030 39716 40201 83400 333 20080 58032 83640
AAXX 07064 40394 42660 40706 10100 21010 39048 48517 84400 333 20030 58021 84645 555 04410 50191
AAXX 07064 40400 42960 00603 10164 20090 30134 40162 333 20130 59010
AAXX 07064 40401 42960 10000 10100 21030 39463 40181 81030 333 20050 58005 81360
AAXX 07064 40405 42660 60305 10120 20030 39449 40193 86430 333 20100 58029 84640 83360
AAXX 07064 40416 41958 02004 10155 20130 30160 40180 71000 333 20110 59013
AAXX 07064 40417 42960 01510 10161 20080 30175 40190 333 20103 59018
AAXX 07064 40420 42960 01814 10162 20070 39977 40187 333 20100 59017
AAXX 07064 40430 42660 30000 10170 20090 39427 40146 82101 333 20142 59001 82840
AAXX 07064 40435 42960 00000 10152 20010 39132 40159 333 20090 59002
AAXX 07064 40437 42960 00000 10142 20010 39480 40189 333 20085 59007
AAXX 07064 40439 42660 53604 10182 20090 30128 40147 81541 333 20138 59005 81640
AAXX 07060 67586 11580 71806 10208 20190 38790 48511 60024 70352 875// 333 20185 50611 55074 70015 87620 555 10268 7//62
AAXX 07064 85406 12660 83102 10219 20146 40136 58017 60001 885// 333 56099 88633
AAXX 07064 85418 12965 00000 10190 20140 40138 50017 60001
AAXX 07064 85432 NIL
AAXX 07064 85442 12475 21703 10176 20150 40137 58006 60001 82500 333 56400 82610
AAXX 07064 85467 33489 /2403 10174 20140 40150 57007
AAXX 07064 85469 42560 70814 10220 20165 40250 52020 87800 333 56200 84820 85630
AAXX 07064 85488 12460 10000 10149 20130 40137 58009 60001 81500 333 56600 81610
AAXX 07064 85574 12960 01607 10163 20119 40119 58013 60001
AAXX 07064 85577 12960 02402 10166 20125 39522 40125 57013 60001
AAXX 07060 67584 11460 61801 10217 20201 60254 71562 85830 333 10186 5//// 55/// 70251 84615 86359 555 10291 7//96
AAXX 07060 67690 11560 71901 10252 20214 69904 71762 8697/ 333 20236 5//// 55/// 79999 81920 86625 86458 555 10282 7//96
AAXX 07064 94893 NIL
AAXX 07064 94907 46/// /0713 10237 20150 30049 40059
AAXX 07064 94910 46/// /0304 10327 20036 39812 40054
AAXX 07064 94926 46/// /2910 10296 20069 39426 40076
AAXX 07064 94935 46/// /0311 10248 20143 30051 40077
AAXX 07064 94954 46/// /0415 10164 20159 39946 40055
AAXX 07064 94956 46/// /0211 10210 20096 30007 40033
AAXX 07064 94975 46/// /0109 10225 20062 30016 40048
AAXX 07064 94983 46/// /0109 10216 20161 30050 40075
AAXX 07064 94995 46/// /0706 10240 20191 30106 40114
AAXX 07064 94996 46/// /2015 10215 20146 39956 40082
AAXX 07064 94997 NIL
AAXX 07064 94998 46/// /2423 10064 20011 39993 40004
AAXX 07064 95111 46/// /3407 10324 20244 30038 40074
AAXX 07064 95205 46/// /2911 10352 20223 30051 40058
AAXX 07064 95322 NIL
AAXX 07064 95448 46/// /1707 10296 20086 39520 40065
AAXX 07064 95458 46/// /2713 10252 20215 39798 40051
AAXX 07064 95480 46/// /2514 10375 20147 39977 40033
AAXX 07064 95481 46/// /3512 10443 20085 39960 40003
AAXX 07064 95482 46/// /2917 10455 20081 39955 40007
AAXX 07064 95485 46/// /3505 10400 2//// 39832 40028
AAXX 07064 95492 46/// /2311 10416 20052 39883 40031
AAXX 07064 95527 46/// /3506 10330 20163 39833 40079
AAXX 07064 95634 46/// /2315 10263 20047 39711 40101
AAXX 07064 95637 46/// /2111 10232 20050 39790 40115
AAXX 07064 95646 46/// /2211 10294 20128 39881 40063
AAXX 07064 95666 NIL
AAXX 07064 95719 46/// /0305 10311 20178 39748 40068
AAXX 07064 95762 46/// /2803 10316 20143 39642 40085
AAXX 07064 95826 NIL
AAXX 07064 95839 46/// /3612 10216 20180 39875 40029
AAXX 07064 95864 NIL
AAXX 07064 95909 NIL
AAXX 07064 95954 NIL
AAXX 07064 95966 46/// /3414 10218 20106 39867 40064
AAXX 07064 96995 46/// /0305 10270 20225 39806 40100
AAXX 07064 96996 41470 40604 10288 20242 30085 40089 56026 70211 81802
AAXX 07064 94102 46/// /1003 10309 20264 30062 40071
AAXX 07064 94103 NIL
AAXX 07064 94120 46/// /3411 10321 20243 30036 40076
AAXX 07064 94122 46/// /3610 10313 20249 30067 40075
AAXX 07064 94131 46/// /3405 10365 20156 39909 40059
AAXX 07064 94132 NIL
AAXX 07064 94147 NIL
AAXX 07064 94150 46/// /0408 10310 20230 30018 40077
AAXX 07064 94151 46/// /0205 10321 20219 30062 4////
AAXX 07064 94170 46/// /2607 10315 20243 30060 40082
AAXX 07064 94200 NIL
AAXX 07064 94203 46/// /3010 10321 20239 30060 40070
AAXX 07064 94206 NIL
AAXX 07064 94207 46/// /0704 10305 30061 40069 58013
AAXX 07064 94211 NIL
AAXX 07064 94212 46/// /2006 10322 20207 39598 40061
AAXX 07064 94216 46/// /0203 10270 20235 30019 40069
AAXX 07064 94236 NIL
AAXX 07064 94238 46/// /2708 10366 20156 39636 40049
AAXX 07064 94248 NIL
AAXX 07064 94255 46/// /2408 10403 20145 39791 40047
AAXX 07064 94268 46/// /3009 10320 20237 30069 40081
AAXX 07064 94287 46/// /0308 10298 20225 30089 40098
AAXX 07064 94290 NIL
AAXX 07064 94294 46/// /0815 10305 20214 30090 40100
AAXX 07064 94296 35/// /0000 10265 30082 40092 57013
AAXX 07064 94298 46/// /1415 10261 30094 40100 56011
AAXX 07064 95641 NIL
AAXX 07064 94500 NIL
AAXX 07064 94510 46/// /2703 10390 20390 39700 40037
AAXX 07064 94515 46/// /0407 10342 20151 39723 40061
AAXX 07064 94552 46/// /0707 10302 20162 39645 40101
AAXX 07064 94578 46/// /0709 10257 20181 30112 40123
AAXX 07064 94584 46/// /1011 10266 20179 30011 40120
AAXX 07064 94601 46/// /2015 10201 20096 30150 40167
AAXX 07064 94610 46/// /2416 10240 20097 30119 40142
AAXX 07064 94637 46/// /2611 10293 21007 39665 40079
AAXX 07064 94638 46/// /2316 10197 20105 30081 40112
AAXX 07064 94642 NIL
AAXX 07064 94643 NIL
AAXX 07064 94647 46/// /2010 10233 20156 39962 40080
AAXX 07064 94651 46/// /2216 10223 20154 30000 40076
AAXX 07064 94653 46/// /2217 10207 20194 30032 40050
AAXX 07064 94659 46/// /3118 10313 20175 39850 40038
AAXX 07064 94672 46/// /3519 10288 20193 30004 40014
AAXX 07064 94691 46/// /2914 10345 20059 39730 40046
AAXX 07064 94693 46/// /2609 10249 20195 30004 40064
AAXX 07064 94700 NIL
AAXX 07064 94703 46/// /2905 10396 20100 39916 40037
AAXX 07064 94710 46/// /3208 10383 20098 39795 40040
AAXX 07064 94729 46/// /2709 10283 20122 39250 40075
AAXX 07064 94750 46/// /0611 10254 20151 39967 40088
AAXX 07064 94767 46/// /0520 10249 20132 30100 40106
AAXX 07064 94776 46/// /0713 10252 20140 30098 40108
AAXX 07064 94791 NIL
AAXX 07064 94802 NIL
AAXX 07064 94804 46/// /2811 10198 20186 39983 40020
AAXX 07064 94807 NIL
AAXX 07064 94821 46/// /1004 10254 20089 39920 40000
AAXX 07064 94842 46/// /0714 10213 20090 39938 40035
AAXX 07064 94847 NIL
AAXX 07064 94850 46/// /0808 10156 20147 39998 40042
AAXX 07064 94865 46/// /0511 10278 20071 30007 40031
AAXX 07064 94866 46/// /0509 10263 20077 39900 40037
AAXX 07064 94875 46/// /0307 10313 20057 39916 40046
AAXX 07063 NIL
AAXX 07064 94500 NIL
AAXX 07064 94510 46/// /2703 10390 20390 39700 40037
AAXX 07064 94515 46/// /0407 10342 20151 39723 40061
AAXX 07064 94552 46/// /0707 10302 20162 39645 40101
AAXX 07064 94578 46/// /0709 10257 20181 30112 40123
AAXX 07064 94584 46/// /1011 10266 20179 30011 40120
AAXX 07064 94601 46/// /2015 10201 20096 30150 40167
AAXX 07064 94610 46/// /2416 10240 20097 30119 40142
AAXX 07064 94637 46/// /2611 10293 21007 39665 40079
AAXX 07064 94638 46/// /2316 10197 20105 30081 40112
AAXX 07064 94642 NIL
AAXX 07064 94643 NIL
AAXX 07064 94647 46/// /2010 10233 20156 39962 40080
AAXX 07064 94651 46/// /2216 10223 20154 30000 40076
AAXX 07064 94653 46/// /2217 10207 20194 30032 40050
AAXX 07064 94659 46/// /3118 10313 20175 39850 40038
AAXX 07064 94672 46/// /3519 10288 20193 30004 40014
AAXX 07064 94691 46/// /2914 10345 20059 39730 40046
AAXX 07064 94693 46/// /2609 10249 20195 30004 40064
AAXX 07064 94700 NIL
AAXX 07064 94703 46/// /2905 10396 20100 39916 40037
AAXX 07064 94710 46/// /3208 10383 20098 39795 40040
AAXX 07064 94729 46/// /2709 10283 20122 39250 40075
AAXX 07064 94750 46/// /0611 10254 20151 39967 40088
AAXX 07064 94767 46/// /0520 10249 20132 30100 40106
AAXX 07064 94776 46/// /0713 10252 20140 30098 40108
AAXX 07064 94791 NIL
AAXX 07064 94802 NIL
AAXX 07064 94804 46/// /2811 10198 20186 39983 40020
AAXX 07064 94807 NIL
AAXX 07064 94821 46/// /1004 10254 20089 39920 40000
AAXX 07064 94842 46/// /0714 10213 20090 39938 40035
AAXX 07064 94847 NIL
AAXX 07064 94850 46/// /0808 10156 20147 39998 40042
AAXX 07064 94865 46/// /0511 10278 20071 30007 40031
AAXX 07064 94866 46/// /0509 10263 20077 39900 40037
AAXX 07064 94875 46/// /0307 10313 20057 39916 40046
AAXX 07064 88963 32560 12515 10029 21029 39749 49778 53011 81500 333 56700 81630 92407 94062 95000
AAXX 07064 88968 32465 73226 10004 21012 39934 49950 57029 83670 333 56800 83715 86360 92437 92734 92840 94070 95000
AAXX 07064 89034 11370 81802 11056 21082 39542 49858 54000 69901 72272 886// 333 56000 88707 90112 90967 92407 92800 93100
AAXX 07064 89053 31110 82730 10006 21004 39844 49857 53012 71022 887// 333 88703 90037 90084 92434 94070 94479 95090 97536 98510
AAXX 07064 89055 32365 62009 11003 21006 39537 49775 53005 86670 333 56550 86708 83360 92730 92840 95100
AAXX 07064 89066 11558 83206 10002 21004 39804 49813 56003 60011 77072 886// 333 56499 88720 90025 92406 93191 94070 95090 97514
AAXX 07064 89564 41981 62408 10022 21059 39682 49701 56014 70222 86030
AAXX 07064 89570 46/// /0844 11047 21074 38974 58003
AAXX 07064 89571 41470 80622 10021 21089 39612 49640 56004 71522 8557/
AAXX 07064 89573 44965 83204 10020 21079 39655 49676 57008 70070 8802/
AAXX 07064 89610 NIL
AAXX 07064 89611 41480 70214 11017 21070 39753 49805 56010 70222 81608
AAXX 07064 89614 NIL
AAXX 07064 89615 46/// /2004 11052 21155 38905 56011
AAXX 07064 89807 NIL
AAXX 07064 89809 46/// /0513 11058 21072 39350 56009
AAXX 07064 94893 NIL
AAXX 07064 94907 46/// /0713 10237 20150 30049 40059
AAXX 07064 94910 46/// /0304 10327 20036 39812 40054
AAXX 07064 94926 46/// /2910 10296 20069 39426 40076
AAXX 07064 94935 46/// /0311 10248 20143 30051 40077
AAXX 07064 94954 46/// /0415 10164 20159 39946 40055
AAXX 07064 94956 46/// /0211 10210 20096 30007 40033
AAXX 07064 94975 46/// /0109 10225 20062 30016 40048
AAXX 07064 94983 46/// /0109 10216 20161 30050 40075
AAXX 07064 94995 46/// /0706 10240 20191 30106 40114
AAXX 07064 94996 46/// /2015 10215 20146 39956 40082
AAXX 07064 94997 NIL
AAXX 07064 94998 46/// /2423 10064 20011 39993 40004
AAXX 07064 95111 46/// /3407 10324 20244 30038 40074
AAXX 07064 95205 46/// /2911 10352 20223 30051 40058
AAXX 07064 95322 NIL
AAXX 07064 95448 46/// /1707 10296 20086 39520 40065
AAXX 07064 95458 46/// /2713 10252 20215 39798 40051
AAXX 07064 95480 46/// /2514 10375 20147 39977 40033
AAXX 07064 95481 46/// /3512 10443 20085 39960 40003
AAXX 07064 95482 46/// /2917 10455 20081 39955 40007
AAXX 07064 95485 46/// /3505 10400 2//// 39832 40028
AAXX 07064 95492 46/// /2311 10416 20052 39883 40031
AAXX 07064 95527 46/// /3506 10330 20163 39833 40079
AAXX 07064 95634 46/// /2315 10263 20047 39711 40101
AAXX 07064 95637 46/// /2111 10232 20050 39790 40115
AAXX 07064 95646 46/// /2211 10294 20128 39881 40063
AAXX 07064 95666 NIL
AAXX 07064 95719 46/// /0305 10311 20178 39748 40068
AAXX 07064 95762 46/// /2803 10316 20143 39642 40085
AAXX 07064 95826 NIL
AAXX 07064 95839 46/// /3612 10216 20180 39875 40029
AAXX 07064 95864 NIL
AAXX 07064 95909 NIL
AAXX 07064 95954 NIL
AAXX 07064 95966 46/// /3414 10218 20106 39867 40064
AAXX 07064 96995 46/// /0305 10270 20225 39806 40100
AAXX 07064 96996 41470 40604 10288 20242 30085 40089 56026 70211 81802
AAXX 07064 94102 46/// /1003 10309 20264 30062 40071
AAXX 07064 94103 NIL
AAXX 07064 94120 46/// /3411 10321 20243 30036 40076
AAXX 07064 94122 46/// /3610 10313 20249 30067 40075
AAXX 07064 94131 46/// /3405 10365 20156 39909 40059
AAXX 07064 94132 NIL
AAXX 07064 94147 NIL
AAXX 07064 94150 46/// /0408 10310 20230 30018 40077
AAXX 07064 94151 46/// /0205 10321 20219 30062 4////
AAXX 07064 94170 46/// /2607 10315 20243 30060 40082
AAXX 07064 94200 NIL
AAXX 07064 94203 46/// /3010 10321 20239 30060 40070
AAXX 07064 94206 NIL
AAXX 07064 94207 46/// /0704 10305 30061 40069 58013
AAXX 07064 94211 NIL
AAXX 07064 94212 46/// /2006 10322 20207 39598 40061
AAXX 07064 94216 46/// /0203 10270 20235 30019 40069
AAXX 07064 94236 NIL
AAXX 07064 94238 46/// /2708 10366 20156 39636 40049
AAXX 07064 94248 NIL
AAXX 07064 94255 46/// /2408 10403 20145 39791 40047
AAXX 07064 94268 46/// /3009 10320 20237 30069 40081
AAXX 07064 94287 46/// /0308 10298 20225 30089 40098
AAXX 07064 94290 NIL
AAXX 07064 94294 46/// /0815 10305 20214 30090 40100
AAXX 07064 94296 35/// /0000 10265 30082 40092 57013
AAXX 07064 94298 46/// /1415 10261 30094 40100 56011
AAXX 07064 95641 NIL
AAXX 07064 94299 46/// /1408 10286 20194 30089 40099
AAXX 07064 94300 46/// /1923 10286 20128 30084 40094
AAXX 07064 94302 46/// /2310 10357 20118 30061 40067
AAXX 07064 94312 46/// /3115 10336 20203 30059 40068
AAXX 07064 94313 NIL
AAXX 07064 94317 46/// /2607 10375 20128 39464 40031
AAXX 07064 94319 46/// /2709 10375 20147 39718 40038
AAXX 07064 94324 NIL
AAXX 07064 94326 46/// /2412 10375 20153 39440 40036
AAXX 07064 94327 46/// /1909 10405 20139 39667 40028
AAXX 07064 94332 46/// /2708 10392 20140 39667 40042
AAXX 07064 94333 NIL
AAXX 07064 94341 46/// /3606 10400 20135 39819 40048
AAXX 07064 94346 46/// /2909 10414 20118 39815 40028
AAXX 07064 94363 46/// /0807 10352 20179 39861 40073
AAXX 07064 94366 NIL
AAXX 07064 94367 46/// /1006 10283 20201 30069 40110
AAXX 07064 94374 46/// /1109 10301 20149 30090 40106
AAXX 07064 94388 46/// /1111 10274 20188 30113 40118
AAXX 07064 94393 46/// /1616 10249 30091 40103 56010
AAXX 07064 94394 46/// /1615 10249 30106 40114 56008
AAXX 07064 94403 46/// /2019 10256 20106 30087 40127
AAXX 07064 94429 46/// /2010 10293 20060 39638 40086
AAXX 07064 94430 46/// /2206 10322 20078 39500 40064
AAXX 07064 94449 46/// /2209 10300 20095 39561 40074
AAXX 07064 94451 NIL
AAXX 07064 94461 46/// /3009 10312 20187 39398 40046
AAXX 07064 94462 46/// /3206 10321 20197 39515 40052
AAXX 07064 94477 NIL
AAXX 07064 94488 NIL
AAXX 07064 91375 NIL
AAXX 07064 91519 NIL
AAXX 07064 91531 NIL
AAXX 07064 91532 45/// /0110 10282 20251 30077 40085 57003
AAXX 07064 91559 NIL
AAXX 07064 91611 NIL
AAXX 07064 91642 NIL
AAXX 07064 91679 NIL
AAXX 07064 91689 NIL
AAXX 07064 91756 NIL
AAXX 07064 91844 NIL
AAXX 07064 92036 NIL
AAXX 07064 93713 NIL
AAXX 07064 44404 41460 80916 10031 20020 38166 48527 77050 888// 333 58024
AAXX 07064 44406 NIL
AAXX 07064 44409 41465 70000 10120 20115 39975 40184 72052 85620 333 58016
AAXX 07064 44416 41320 80000 10132 20082 39434 40178 71044 888// 333 59019
AAXX 07064 44418 41240 42903 10150 20128 30022 40218 70544 84600 333 58019
AAXX 07064 44424 NIL
AAXX 07064 44429 NIL
AAXX 07064 44434 NIL
AAXX 07064 44438 NIL
AAXX 07064 44449 41915 00904 10194 2//// 30046 40207 71044 333 58012
AAXX 07064 44454 41940 00000 10100 20066 38710 48541 71044 333 58022
AAXX 07064 44462 42365 30000 10130 20026 38290 48512 83400 333 58022
AAXX 07064 44474 NIL
AAXX 07064 44477 42050 30000 10198 20116 38856 48559 83101 333 58012
AAXX 07064 44478 41956 31205 10220 20128 30122 40204 70544 80030 333 58006
BBXX VRAE3 07064 99207 31715 41697 51911 10270 20240 40061 55005 70212 84224 22230 00290 20301 30205 40503 50302 80250
BBXX VROC 07064 99290 31537 41698 21206 10275 20181 40119 58010 70300 8/1// 22283 04260 20401 80215
BBXX PCDE 07063 99352 31167 41497 22306 10180 20139 40140 52010 7//00 82110 22263 20312 80155
BBXX 9KWP 07063 99184 31015 41397 61021 10260 20207 40128 58010 70252 83442 22233 06280 2//// 80225
BBXX 3ECI3 07064 99382 31659 41497 51613 10175 20140 40149 54000 70111 85242 22263 00180 20302 318// 40802 80155
BBXX VNSZ 07054 99378 31449 46/// /0312 10287 20047 30026 40051 57027 22200 04220 85153
BBXX C6FS9 07054 99344 31514 46/// /0421 10208 20141 30088 40124 57025 22253 04231 85166
BBXX 9HA2479 07054 99196 31624 46/// /1618 10257 20197 30050 40079 57015 22254 04273 85215
BBXX VNSZ 07044 99378 31449 46/// /3510 10294 20046 30036 40061 57025 22200 04220 85155
BBXX C6FS9 07044 99342 31516 46/// /0316 10214 20129 30099 40135 57023 22253 04233 85162
BBXX 9HA2479 07044 99194 31626 46/// /1616 10256 20205 30060 40089 57005 22254 04269 85220
BBXX VROB 07044 99068 31470 46/// /1708 10279 20226 30048 40073 57035 22200 04304 85240
BBXX VNAH 07044 99357 31280 46/// /2934 10182 20120 30005 40028 52011 22262 04184 85145
BBXX FHZI 07044 99429 31473 46/// /1407 10200 20123 30051 40062 57024 22200 04176 85153
BBXX VROB 07054 99068 31470 46/// /1609 10291 20228 30037 40061 57037 22200 04305 85245
BBXX VNAH 07054 99357 31278 46/// /2936 10184 20116 39999 40022 57004 22262 04182 85143
BBXX FHZI 07054 99429 31473 46/// /1304 10214 20081 30042 40052 57024 22200 04177 85138
BBXX ZM2619 07063 99442 31764 41/96 81809 10155 20146 40085 53010 70321 22222 29901 321// 40902 80150
BBXX VJD2969 07044 99156 31363 41598 13610 10325 20263 40094 57018 70100 81100 22200 20601 80280
BBXX AUYI 07064 99054 10805 41898 23303 10280 20239 40087 51015 70200 84111 22233 00300
AAXX 07061 38141 32998 00702 11090 21151 30154 40324 52019 333 21113
AAXX 07061 38149 42998 00902 11080 21131 30235 40317 52003 333 21110
AAXX 07061 38178 42998 00000 11141 21235 30041 40353 57002 333 21154
AAXX 07061 38262 32998 00503 11083 21125 30229 40315 53011 333 21132
AAXX 07061 38264 42998 00703 11113 21126 30214 40315 52004 333 21136
AAXX 07061 38396 42296 81003 11087 21102 30183 40317 53010 886// 333 21145 88704
AAXX 07061 38403 42997 00903 11072 21125 30189 40317 53002 333 21175
AAXX 07061 38413 42498 61303 11080 21112 30022 40332 57018 86600 333 21104
AAXX 07061 38457 11595 51101 11028 21041 39700 40313 57005 69902 71072 82440 333 21072
AAXX 07061 38462 NIL
AAXX 07061 38565 31/93 60000 11059 21066 39703 40320 56004 74144 333 21089
AAXX 07061 38579 31595 80000 11058 21062 39886 40328 54000 71022 885// 333 21060
AAXX 07061 38583 31595 81401 11065 21070 39993 40335 54000 71044 887// 333 21080
AAXX 07061 38611 41696 83401 11004 21041 39725 40317 57009 69902 71072 8802/ 333 21034 83385
AAXX 07061 38618 11597 80401 11017 21031 39583 40298 57005 69900 77172 8252/ 333 21030
AAXX 07061 38683 41996 00000 11052 21085 30012 40305 54000 71000 333 21105
AAXX 07061 38696 32997 71402 11054 21069 39412 40314 57005 83034 333 21060
AAXX 07061 38812 42997 00403 11046 21081 39812 40290 57007 333 21095
AAXX 07061 38927 32960 00203 10003 21024 39906 40296 50006 333 21045
AAXX 07064 85874 32982 /9903 10143 20100 39485 40095 58012
AAXX 07064 85934 12980 22511 10073 20016 40057 57016 60001 82030 333 56060 82359
AAXX 07064 89054 11262 82842 10012 21002 49870 50003 60011 70262 886// 333 56699 88703 91056 96461
AAXX 07064 89056 12260 82724 10005 21011 49844 58002 60001 886// 333 56699 88706
AAXX 07064 89057 12460 62324 10021 21021 49842 57004 60001 86400 333 56600 86617
AAXX 07064 89058 11566 82718 10007 21014 39834 49855 52013 69901 70070 885//
AAXX 07064 89059 11460 83221 11001 21035 49803 52006 69971 70272 886// 333 75099 88713
BBXX VRAE3 07064 99207 31715 41697 51911 10270 20240 40061 55005 70212 84224 22230 00290 20301 30205 40503 50302 80250
BBXX VROC 07064 99290 31537 41698 21206 10275 20181 40119 58010 70300 8/1// 22283 04260 20401 80215
BBXX PCDE 07063 99352 31167 41497 22306 10180 20139 40140 52010 7//00 82110 22263 20312 80155
BBXX 9KWP 07063 99184 31015 41397 61021 10260 20207 40128 58010 70252 83442 22233 06280 2//// 80225
BBXX 3ECI3 07064 99382 31659 41497 51613 10175 20140 40149 54000 70111 85242 22263 00180 20302 318// 40802 80155
BBXX VNSZ 07054 99378 31449 46/// /0312 10287 20047 30026 40051 57027 22200 04220 85153
BBXX C6FS9 07054 99344 31514 46/// /0421 10208 20141 30088 40124 57025 22253 04231 85166
BBXX 9HA2479 07054 99196 31624 46/// /1618 10257 20197 30050 40079 57015 22254 04273 85215
BBXX VNSZ 07044 99378 31449 46/// /3510 10294 20046 30036 40061 57025 22200 04220 85155
BBXX C6FS9 07044 99342 31516 46/// /0316 10214 20129 30099 40135 57023 22253 04233 85162
BBXX 9HA2479 07044 99194 31626 46/// /1616 10256 20205 30060 40089 57005 22254 04269 85220
BBXX VROB 07044 99068 31470 46/// /1708 10279 20226 30048 40073 57035 22200 04304 85240
BBXX VNAH 07044 99357 31280 46/// /2934 10182 20120 30005 40028 52011 22262 04184 85145
BBXX FHZI 07044 99429 31473 46/// /1407 10200 20123 30051 40062 57024 22200 04176 85153
BBXX VROB 07054 99068 31470 46/// /1609 10291 20228 30037 40061 57037 22200 04305 85245
BBXX VNAH 07054 99357 31278 46/// /2936 10184 20116 39999 40022 57004 22262 04182 85143
BBXX FHZI 07054 99429 31473 46/// /1304 10214 20081 30042 40052 57024 22200 04177 85138
BBXX ZM2619 07063 99442 31764 41/96 81809 10155 20146 40085 53010 70321 22222 29901 321// 40902 80150
BBXX VJD2969 07044 99156 31363 41598 13610 10325 20263 40094 57018 70100 81100 22200 20601 80280
AAXX 07064 94310 46/// /3308 10324 20156 30059 40070 57012
AAXX 07064 95283 46/// /0910 10292 20213 30086 40093
AAXX 07064 95287 41/98 31303 10310 20222 3//// 4//// 70200 83200
AAXX 07064 95288 46/// /1710 10273 30080 40095 56013
AAXX 07064 95290 41/99 41106 10280 20235 3//// 4//// 70211 82448
AAXX 07064 95675 46/// /3415
AAXX 07064 95872 46/// /0312
AAXX 07064 95961 35/// /3304 10191 39991 40032 57023
AAXX 07064 68004 16/// /1202 10284 20121 38546 48502 52008 69924 333 20201 91004 555 10362 20002 91018
AAXX 07064 68006 36/// /1108 10269 20148 38916 48502 52008 333 20230 91012 555 10388 91014
AAXX 07064 68018 36/// /0505 10247 20140 38910 48519 52013 333 20193 91009 555 10377 91017
AAXX 07064 68098 32689 82609 10154 20129 30012 40120 53002 88500 333 20140 91011 555 10216 91012
AAXX 07064 68102 36/// /0702 10256 20149 38740 48494 52008 333 20171 91005 555 10373 91015
AAXX 07064 68112 32889 52707 10263 20114 38340 48519 53002 85080 333 20223 91010 555 10378 91022
AAXX 07064 68116 16/// /2602 10235 20149 38580 48529 52011 69924 333 20215 91003 555 10378 20002 91021
AAXX 07064 68212 36/// /2003 10309 21014 38902 48531 52007 333 20259 91006 555 10424 91017
AAXX 07064 68312 32989 02504 10270 20077 38954 48526 53010 333 20211 91008 555 10402 91017
AAXX 07064 68014 36/// /2603 10241 20138 38613 48531 53008 333 20147 91005 555 10352 91021
AAXX 07064 68110 32889 61602 10256 20104 38288 48503 53000 86080 333 20213 91004 555 10395 91020
AAXX 07064 68300 36/// /1612 10177 20120 39953 40102 52006 333 20126 91015 555 10250 91010
AAXX 07061 37395 32999 20908 10082 21027 30010 40150 57015 82030 333 20052
AAXX 07061 37409 32998 00904 11034 21081 38750 48470 52018 333 21064 95000
AAXX 07061 37432 32997 00000 11055 21076 38929 48448 52008 333 21075
AAXX 07061 37514 32999 00000 11057 21088 39031 40221 52015 333 21095
AAXX 07061 37545 32999 03402 11010 21028 39672 40202 52012 555 21030 7000/
AAXX 07061 37621 32999 00000 10002 21057 39530 40186 52011 333 21028
AAXX 07061 37484 NIL
AAXX 07064 89514 22597 83210 11042 49814 57005 8352/ 333 83620 88440
AAXX 07064 89514 22597 83210 11042 49814 57005 8352/ 333 83620 88440
AAXX 07064 40550 37/62 /3604 10124 20005 40200 53021 70086 333 55300 00091 10008 20302 30085 41190 51320 60387 55407 40217 90069 90401 91005 91107 91203 91301
AAXX 07064 40551 46/// /2710 10114 20003 333 90401 91013 91113 91211 91307
AAXX 07064 40552 47/66 /3409 10112 20049 40199 53022 78186 333 55300 90002 90400 91013 91117 91211 91309
AAXX 07064 40553 37/60 /0303 10106 20054 40201 53026 78286 333 55300 90003 90401 91005 91111 91209 91303
AAXX 07064 40568 46/// /3303 10154 20144 333 90401 91003 91107 91205 91303
AAXX 07064 40569 NIL
AAXX 07064 40570 35/69 /3407 10119 21007 40201 51020 333 55300 90069 90400 91009 91109 91207 91305
AAXX 07064 40571 NIL
AAXX 07064 40572 NIL
AAXX 07064 40573 36/// /3308 10118 20028 333 90401 91011 91113 91209 91307
AAXX 07064 40580 46/// /3205 10146 20055 333 553// 00248 10000 20514 30111 41254 51408 60625 55407 40403 90400 91009 91111 91205 91301
AAXX 07064 40581 36/// /3403 10145 20059 333 90401 91009 91109 91203 91301
AAXX 07064 40582 31657 63409 10151 20076 40197 53023 70522 82450 333 55300 00283 10000 20629 30183 41263 51425 60812 55407 40446 82640 86358 90401 91015 91115 91211 91303
AAXX 07064 40583 NIL
AAXX 07064 40585 36/// /3107 10150 20105 222// 1//// 3//// 4//// 70/// 333 90400 91015 91115 91207 91303
AAXX 07064 40586 36/// /3204 10144 20016 333 90400 91009 91111 91205 91301
AAXX 07064 40587 36/// /3408 10147 20013 333 553// 00217 10000 20489 30151 41274 51394 60640 55407 40338 90400 91013 91115 91209 91305
AAXX 07064 40588 37/58 /0104 10160 20136 40191 51019 71086 333 55300 90069 90400 91005 91111 91207 91305
AAXX 07064 40589 NIL
AAXX 07064 40590 36/// /3414 10136 20005 333 90401 91017 91117 91215 91309
AAXX 07064 40591 NIL
AAXX 07064 40592 37/56 /3504 10146 20071 40189 53019 71011 333 55308 00291 10000 20688 30178 41160 51377 60866 55407 40511 90069 90401 91005 91109 91205 91301
AAXX 07064 40593 36/// /0408 10165 20126 333 90400 91009 91109 91207 91303
AAXX 07064 40594 36/// /1203 10161 20069 333 90401 91005 91109 91207 91303
AAXX 07064 40596 46/// /1714 10186 20124 333 90400 91015 91121 91217 91315
AAXX 07061 02947 47/75 80501 11079 21087 49938 57006 70088 88/// 90551 333 11030 21083 3////
BBXX 44022 07061 99409 70737 46/// ///03 10074 20030 40082 90600 22200 00057 333 91204 555 11041 22051
AAXX 07064 84452 31560 81909 10212 20194 30104 40135 70222 8351/ 333 5649/ 59008 83630 85460
AAXX 07064 84515 31960 60000 10240 20225 39926 40103 70300 8603/ 333 5690/ 59003 86360
AAXX 07064 84782 31462 80000 10190 20146 39625 40132 70222 885// 333 569// 59022 88625
AAXX 07064 84752 22960 49902 10114 20100 37528 70126 84030 333 56090 59010 6991 84360
AAXX 07064 84691 31458 72404 10227 20198 30116 40123 71044 8263/ 333 5600/ 59007 82713 85360
AAXX 07064 84377 31450 80000 10238 20224 30005 40110 76021 84520 333 56000 58015 84615 86460
AAXX 07064 84501 31960 71507 10207 20185 30101 40128 70122 8703/ 333 56000 59004 87360
AAXX 07064 84686 21660 80000 10098 20064 36879 70222 885// 333 56900 59007 60061 85640 83646
AAXX 07064 84628 34760 81707 10219 20196 30114 40130 70221 83530 333 5641/ 58000 83650 85358
AAXX 07064 84401 31660 61505 10240 20186 30090 40134 70222 8653/ 333 5600/ 59014 83640 83360
AAXX 07064 68328 32660 13407 10285 20148 48519 52013 81082 333 20169
AAXX 07061 33345 31396 83203 10007 20002 39880 40088 52025 71011 886// 333 20004 88707
BBXX UCKD 07061 99554 10059 41/97 93114 10068 40023 54000 70222 89/// 22252 00080 20905
AAXX 07061 26313 11/97 72503 10003 20000 49965 57010 60022 72682 87900 333 21007 43002
AAXX 07061 56187 11450 81601 10048 20020 39627 40297 57032 69921 76066 8277/ 333 00200 20035
AAXX 07061 56778 32575 22208 10158 21004 38130 57031 81102 333 00201 20023
AAXX 07061 57265 32962 83602 10041 21074 30232 40349 57039 8807/ 333 21023
AAXX 07061 57461 32962 41403 10071 21073 30169 40338 57035 84040 333 20013
AAXX 07061 57494 32968 80202 10031 21030 30299 40330 57032 8807/ 333 21040
AAXX 07061 57516 11757 80401 10082 20018 39972 40292 57033 69901 72160 885// 333 00200 20062
AAXX 07061 57687 32762 83203 10051 21027 30237 40324 57025 885// 333 20048
AAXX 07061 57816 11430 80702 10001 21003 38848 40298 57034 69901 76660 885// 333 00251 21013 93428
AAXX 07061 58040 32662 31102 10020 21059 30353 40367 57029 83500 333 21060
AAXX 07061 58102 32970 00901 10054 21074 30309 40359 57037 333 21034
AAXX 07061 58150 32560 70202 10043 21055 30362 40366 57022 875// 333 21016
AAXX 07061 58221 32664 30904 10063 21045 30317 40347 57039 83500 333 21036
AAXX 07061 58238 32566 11104 10078 21046 30294 40340 57029 81100 333 21013
AAXX 07061 58251 32567 70703 10051 21027 30351 40356 57021 875// 333 21036
AAXX 07061 58362 32980 70704 10084 21017 30334 40342 57019 8703/ 333 20036
AAXX 07061 58457 31940 70901 10073 21024 30283 40338 57027 70500 8704/ 333 21004
AAXX 07061 58606 32760 80902 10058 21030 30256 40316 57030 885// 333 20041
AAXX 07061 58752 32668 70203 10099 20043 30269 40316 57020 875// 333 20057
AAXX 07061 58847 32580 80203 10109 20066 30189 40294 57024 884// 333 20084
AAXX 07061 59117 32662 82202 10107 20063 30160 40269 57028 885// 333 20082
AAXX 07061 59134 32780 70903 10150 20080 30097 40267 57022 875// 333 20112
AAXX 07061 59287 32665 80204 10112 20059 30183 40271 57027 885// 333 20081
AAXX 07061 59316 32662 81101 10161 20113 30243 40248 57029 885// 333 20117
AAXX 07061 59431 11556 80402 10089 20062 30127 40279 57029 69901 72166 888// 333 20076
AAXX 07061 59644 11558 83603 10104 20076 30241 40258 57027 69901 71060 888// 333 20079
AAXX 07061 59758 11456 80406 10140 20132 30160 40238 57028 69941 76066 887// 333 20122
AAXX 07061 33177 32568 81903 10006 21014 39881 40122 52022 885// 333 20004
AAXX 07061 33377 11217 83102 10042 20035 39884 40078 53026 60062 76164 8772/ 333 20041 86704
AAXX 07061 33415 11597 73205 10009 21008 39719 40123 52028 69902 78582 86330 333 20008 86920
AAXX 07064 60715 12558 52809 10108 20038 30193 40200 53014 60024 82282 333 20096 58111 70016 82823 83360 91013 91130
AAXX 07064 60723 13560 23006 10104 20060 30033 40225 53012 69984 82280 333 20103 70008 82826
AAXX 07064 60725 12558 53104 10097 2//// 30051 40225 53002 69944 85800 333 20095 70004 83820 83630
AAXX 07064 60735 12560 13004 10096 20038 30121 40205 52010 60004 81200 333 20095 81823
AAXX 07064 60745 12558 12212 10067 21014 39849 40230 53019 60004 81200 333 20067 58076 81826 91000 91100
AAXX 07064 60748 13958 01104 10075 20016 39790 40218 53004 60004 333 20073
AAXX 07064 60750 12557 33413 10104 20015 30172 40198 53010 60004 83800 333 20090 82820
AAXX 07064 60760 12958 12504 10071 21031 30128 40236 53016 60004 80002 333 20065 70000 81070 91006 91124
AAXX 07064 60765 13950 02708 10093 20002 30229 40233 53025 60004 333 20091 92436 925//
AAXX 07064 60767 12560 12506 10072 21031 30072 40221 53015 60004 81200 333 20069 81820
AAXX 07064 60769 11540 23421 10127 20042 30193 40197 53008 60004 70700 82802 333 20126 81820
AAXX 07061 01205 46/// /1605 10041 20021 39847 49892 57016 333 20023 91112
AAXX 07061 50468 32970 01604 11145 21196 30090 40320 57026 333 21255
AAXX 07061 50953 32970 02503 11088 21191 30175 40369 57017 333 21205
AAXX 07061 51076 32980 00401 11127 21201 39475 40444 57004 333 00251 21221
AAXX 07061 51243 NIL
AAXX 07061 51288 32980 00000 11073 21172 38409 57005 333 00201 21159
AAXX 07061 51463 NIL
AAXX 07061 51573 32970 00901 11049 21147 30362 40409 57017 333 00300 21117
AAXX 07061 51709 NIL
AAXX 07061 52533 32980 01401 11031 21178 38604 40385 57021 333 00300 21167
AAXX 07061 52652 32980 03202 11016 21200 38616 40385 57023 333 00302 21198
AAXX 07061 52866 32970 21801 11046 21142 37724 57029 80002 333 00554 21152
AAXX 07061 52983 32963 73602 11040 21124 38160 57023 80002 333 00401 21137
AAXX 07061 53463 32962 52201 11046 21188 39045 40362 57026 80002 333 00151 21136
AAXX 07061 53513 32968 02202 11051 21182 39075 40381 57023 333 00202 21173
AAXX 07061 53588 32975 62705 11096 21144 37808 57018 80002 333 21148
AAXX 07061 53772 31950 71401 11021 21142 39383 40353 57035 70400 80002 333 21102
AAXX 07061 53915 11770 72002 11001 21093 38730 40323 57025 69901 70070 875// 333 00302 21041
AAXX 07061 54218 32970 01101 11070 21196 39516 40385 57025 333 21209
AAXX 07061 54337 32960 01602 11051 21182 30281 40371 57033 333 21165
AAXX 07061 54342 32962 03602 11067 21181 30306 40373 57027 333 21202
AAXX 07061 54401 32965 72002 11078 21146 39390 40378 57031 83032 333 21160
AAXX 07061 54471 32960 00703 11053 21180 30368 40374 57027 333 21162
AAXX 07061 54497 32970 00702 11010 21186 30340 40357 57022 333 21096
AAXX 07061 54511 11765 72003 11017 21072 30321 40363 57031 69901 72277 86502 333 21046
AAXX 07061 54823 32965 32504 10036 21132 30143 40363 57031 80002 333 21052
AAXX 07061 56080 11975 01401 11048 21193 37134 57027 69901 70070 333 00456 21145
AAXX 07061 56096 11775 80901 10048 21032 39009 40283 57033 69901 70070 885// 333 00302 20012
AAXX 07061 57083 31957 70401 10022 21100 30216 40360 57035 70500 8703/ 333 21051
AAXX 07061 48855 32560 70202 10233 20189 30195 40203 58027 878// 333 58024 83895 87697
AAXX 07061 48848 01497 83203 10168 20158 30218 40226 58005 69903 70262 888// 333 58024 69901 85894 88697 9616 0
AAXX 07061 48918 32570 70504 10268 20208 30133 40144 58016 83808 222// 00262 2//02 333 58005 81894 87299
AAXX 07061 48917 32598 60705 10302 20215 30129 40135 58011 82208 222// 00302 2//00 333 58002 82895 86299
AAXX 07061 48900 32497 30405 10326 20170 30116 40126 57025 84800 333 58001 81894 83696
AAXX 07061 48914 32698 70502 10285 20227 30133 40135 57016 86501 333 58008 86696
AAXX 07061 48852 01460 82901 10189 20181 30202 40212 57025 69983 76162 888// 333 58019 69931 86894 88697 9616 0
BBXX 44139 07061 99442 70571 46/// /2806 11003 40162 52008 22200 00048 10804 70020 333 91208
AAXX 07064 60710 12558 32817 10122 20047 30137 40217 53011 60004 83800 333 20121 82820
AAXX 07064 60714 12458 33414 10120 20045 30208 40214 52015 60004 84200 333 20118 84816
AAXX 07064 60720 13558 43108 10110 20055 30146 40180 53019 60164 84800 333 20090 70157 83820
AAXX 07064 60728 13562 33108 10090 20075 30100 40195 53019 60044 83200 333 20090 70044 83823
AAXX 07064 60729 13560 52408 10080 20059 30028 40219 53018 60004 85500 333 20071 85626
AAXX 07064 60731 06957 /3010 10107 20035 30191 40198 53018 60004 333 10125 20091 3//// 58102 5///4 60007 70000 91013 91132
AAXX 07064 60732 13558 42204 10059 20016 39610 40233 53010 60004 84800 333 20056 83820
AAXX 07064 60734 13558 22804 10054 20042 39683 40218 51004 60004 82500 333 20053 82630
AAXX 07064 60738 NIL
AAXX 07064 60739 13656 43316 10054 20008 39384 40224 53003 60004 83202 333 20050 83833 94249
AAXX 07064 60740 12460 53015 10120 20047 30187 40189 53011 60004 84202 333 20114 84816
AAXX 07064 60742 13558 12508 10102 20050 30192 40194 52018 69944 81200 333 20101 70004 81820
AAXX 07064 60764 NIL
AAXX 07064 60770 13960 03216 10102 20013 30072 40212 53015 60004 333 20095
AAXX 07064 60772 13965 03108 10090 21011 39954 40215 53015 60004 333 20090
AAXX 07064 60775 13965 03206 10067 21035 39861 40227 53016 60004 333 20065 55086
AAXX 07064 60780 13960 03308 10041 21021 39932 40251 53013 60004 333 20041
AAXX 07064 61974 12575 70203 10300 20248 40131 60024 83943 333 0//19 20255 58010 819// 82820 83360 85075 94329
AAXX 07064 61986 12580 61203 10311 20213 40132 60004 81202 333 20257 58006 81820 86075 94329
AAXX 07064 61988 12475 62013 10280 20198 40135 60004 86800 333 20222 50512 58002 86818
AAXX 07064 61989 12475 51912 10280 20205 40145 60004 85800 333 20226 58003 83818 83650
AAXX 07064 61990 12575 61507 10285 20162 40146 60004 81202 333 01700 20209 50872 58000 81820 86075 94329
AAXX 07064 61995 12575 51306 10259 20159 39666 60004 81141 333 20197 50702 58001 81820 85075
BBXX A8EH5 07061 99385 11755 41498 52710 10132 20100 40065 52012 70211 8346/ 22225 00124 20403 302// 41404 5//// 80114
BBXX D5BC5 07064 99413 11577 41/98 42311 00/// 10040 21010 40060 57015 70322 846// 22225 04/// 20608 30322 40711 50610 6//// 80020 ICE /////
BBXX LAYG5 07064 99466 11671 41598 73505 10030 21020 49990 51000 70322 875// 22213 00066 20602 328// 41404 80010
BBXX S6JU 07064 99502 11785 41397 70616 11010 21030 40065 52030 70323 8742/ 22254 04010 2//// 3//// 4//// 5//// 6//// 81015 ICE /////
AAXX 07061 26045 27449 71905 11016 21017 39925 49927 56021 77187 86/// 333 10007 21043 69957 86/11 91008 91110 555 1/100 21043 3/102 51006
AAXX 07061 26247 27/81 /2105 11011 21026 39896 49976 58010 70000 333 10003 21032 60007 91009 91110 555 1/101 21032 3/102 51000
AAXX 07061 26115 27584 52804 10010 21044 39934 49942 55000 70080 85/// 333 10026 21001 60007 85/31 91111 555 1/101 21001 3/101 50011
AAXX 07061 26058 27684 81803 11024 21043 39940 49948 58014 70000 88/// 333 10016 21036 60007 88/44 555 1/102 21036 3/104 50001 52104
AAXX 07061 01092 46/// /0605 10005 21020 333 21032 91108
AAXX 07061 01329 11260 80000 10002 21008 39880 49942 57010 60062 70282 888// 333 20001 43002 91109
AAXX 07061 01337 16/// /0000 11003 21014 39872 49938 55009 60042 333 21041 70041 91104
AAXX 07061 01436 11370 82910 10073 20055 60032 70286 887// 333 20048 70034 91118
AAXX 07061 01228 46/// /1407 10010 21048 39923 49930 56025 333 20006 91109
AAXX 07061 01340 16/// /0000 11027 21036 39069 49940 55014 60022 333 21033 70046 91107
AAXX 07061 01425 16/// /2502 10029 20026 39876 49956 56019 60082 333 20001 70076 91105
AAXX 07061 01452 11020 51401 10002 21002 39930 49952 56029 69922 71042 85600 333 21002 70002 91103
AAXX 07061 01257 11478 12103 11046 21071 39786 49950 56020 60002 70100 81100 333 21072 70016 91105
AAXX 07061 01370 16/// /3601 11076 21084 38851 40044 57016 60002 333 21076 4/039 70000 91103
AAXX 07061 01419 16/// /1803 10038 20027 60122 333 20002 70135 91114
AAXX 07061 01065 11660 80202 11023 21040 39816 49978 57003 60012 78588 888// 333 21054 47029 70012 91103
AAXX 07061 01469 16/// /3302 11038 21054 39791 49966 57017 60012 333 21078 70012 91104
AAXX 07064 41255 36/// /1202 10205 20135 39676 40232 333 0E019 20148 58010
AAXX 07064 06610 32868 82208 10001 21026 39695 40303 58/// 8801/ 333 21015 34104 55006 55300 20000 70000 88757 90768 93100 91111 91208
AAXX 07061 48845 01497 80000 10153 20148 30222 40229 57022 60053 76166 888// 333 58018 69981 85894 88696 9616 0
AAXX 07061 48919 12498 80513 10262 20236 30111 40133 58010 69973 889// 22200 02262 2//05 333 58001 81894 8399 5 84696
AAXX 07061 48916 12598 60502 10290 20244 30089 40135 57015 60533 862// 333 58004 86895
AAXX 07064 06670 32475 62206 10013 21023 39752 40281 57/// 8355/ 333 21002 32103 55009 55300 20000 70005 81716 83636 86358 90768 93100 91112 91207
AAXX 07064 06700 32875 62202 11020 21027 39797 40316 52/// 8605/ 333 21042 34106 55001 55300 20004 70004 86357 90768 93100 91106 91204
AAXX 07064 06680 01770 82428 11131 21142 37492 47009 55/// 60062 70272 8802/ 333 21130 47375 55000 55300 20000 60005 70233 88457 90768 93105 91142 91228
AAXX 07064 06990 31961 01402 10007 21023 39715 40282 55/// 71011 333 21009 34104 55000 55300 20000 70007 91111 91204
AAXX 07064 06760 32986 00104 10040 21079 39751 40208 52/// 333 20039 30001 55001 55300 20000 70000 90768 93100 91113 91207
AAXX 07064 06720 32875 70401 11026 21046 39713 40319 52/// 87080 333 21043 3/107 41004 55001 55300 20000 70000 87357 90768 93100 91105 91203
BBXX SCKM 07063 99473 70243 43/98 71820 10120 40308 58017 22264 00120 20303 40303
BBXX SBHI 07063 99570 10184 43/96 72318 10027 49996 58010 22200 06051
AAXX 07061 37279 32999 00000 10067 21003 39986 40130 53001 555 20016
AAXX 07061 37308 32999 00903 11016 21049 39536 40202 52045 333 21055
AAXX 07061 37531 32999 00000 11065 21077 39477 40240 53015 333 21090
AAXX 07061 37553 32999 01801 10026 21040 39517 40173 53014 333 21039
AAXX 07061 37651 16/// ///00 11008 21051 3//// 4//// 5//// 60002 333 21044
AAXX 07061 37492 NIL
AAXX 07064 91753 01480 73306 10271 20242 30048 40080 53002 60032 70362 8399/ 333 10298 20251 30025 55004 69927 70030 83818 81918 85463 90710 91113 555 69905
AAXX 07064 91754 06/// /3304 10272 20236 30030 40071 53007 69941 333 60007 555 10280 20234 60514 60005
AAXX 07064 89002 42499 71806 11074 21091 39795 49849 52003 875//
AAXX 07064 65306 32960 50000 10163 20011 39801 40135 80002 333 01400 20150 50774 55099 59011 85076
AAXX 07064 65319 32958 53404 10188 21006 39611 40126 80002 333 01800 20184 50694 55087 59012 85076
AAXX 07064 65330 31930 53606 10185 21007 39678 40117 70522 80002 333 01800 20180 50834 55094 00400 59007 85076
AAXX 07064 65335 31940 50404 10208 20053 39892 40115 70522 80002 333 01800 20203 50554 55078 59014 85076
AAXX 07064 65344 31430 63604 10240 20233 30102 40113 71022 82502 333 02200 20235 50274 55036 59005 82611 85076
BBXX SKWI 07064 99396 70610 43/98 62212 10122 40169 53001 22213 00200 2//// 4////
BBXX SBLW 07063 99539 71531 43/96 81618 10044 49734 56051 22263 00039 2//// 4////
BBXX SKUN 07063 99453 70464 43/97 73428 10023 40031 53028 22263 00071 2//// 4////
BBXX SBLI 07061 99051 11067 43/97 80213 10258 40132 57016 22254 00258 2//02 4//05
BBXX SLCO 07064 99086 11441 43/98 50532 10292 40081 56020 22274 00282 20604 40605
AAXX 07064 04211 47/80 /1003 11164 21194 39904 40072 57009 70088 333 11157 21195
AAXX 07064 04220 05/84 00906 11166 21191 39993 40048 57028 69902 333 11154 21182 55300 20004 6///7 70001
AAXX 07064 04221 45/84 /1010 11156 21241 30010 40049 57028 333 11144 21167
AAXX 07064 04231 45/84 00707 11308 21350 39972 40054 57033 333 11263 21309
AAXX 07064 04234 45/84 /0811 11093 21208 39994 40005 57038 333 11091 21151
AAXX 07064 04241 45/84 /0405 11098 21201 39941 49982 57047 333 11088 21108
AAXX 07064 04250 07984 70322 11083 21133 39841 49948 57045 69932 78587 333 11076 21089 55300 20000 69927 70003 87/69
AAXX 07064 04254 47965 10418 11096 21149 39840 49956 57051 70088 333 11073 21112 81/70
AAXX 07064 04260 46/// /////
AAXX 07064 04270 47856 70728 10009 21083 39818 49855 57073 78088 333 10032 21081 87/57 91135 91037
AAXX 07064 04272 06/// ///// 39766 57083 69932 333 69937 70006
AAXX 07064 04312 46/// /0208 11165 21207 30016 40059 52023
AAXX 07064 04320 NIL
AAXX 07064 04339 47/// ///// 11026 21052 39992 40082 52014 7//87 333 11008 21069 55300 20000
AAXX 07064 04360 06/// /0602 11036 21049 39982 40053 52012 6///2 333 11021 21056 55300 20000 6///7 70000
AAXX 07064 04361 467// 81002 11032 21104 30004 40057 52011 333 11009 21072 86/50 88/56
AAXX 07064 04390 07101 70230 11040 21046 39817 49911 57055 60092 77374 333 11027 21048 60047 70193 83/03 87/05 91042 91145
BBXX 44150 07061 99425 70640 46/// /1710 10081 40094 57032 22200 00091 10803 70017 333 91212
AAXX 07064 71619 16/// /3604 11126 21175 30048 40109 55013 60001 333 11113 21151 70000 555 32923 40061
AAXX 07064 71402 46/// /2620 11080 21124 39947 40063 53009 6///1 333 11001 21083 7//// 555 31243 40093
AAXX 07064 71407 16/// /2616 11365 21407 30030 40052 53003 60001 333 11275 21370 70000 555 32924 40011
AAXX 07064 71425 16/// /1709 11135 21169 30075 40112 56006 60001 333 11106 21138 70011 555 32835 40083
AAXX 07064 71427 16/// /0107 11158 21198 30104 40112 56012 60001 333 11130 21196 70000 555 32721 40101
AAXX 07064 71428 16/// /2005 11133 21173 30102 40108 55011 60001 333 11114 21135 70000 555 32826 40091
AAXX 07064 71442 16/// /0502 11099 21112 39830 40151 51008 60001 333 11021 21099 7////
AAXX 07064 71015 16/// ///// 11040 60001 333 10008 21046 70000
AAXX 07064 71017 16/// /2306 11286 21322 30024 40039 58013 60001 333 11269 21381 70000
AAXX 07064 71019 46/// /0804 11120 21131 39775 40086 56016 6///1 333 11108 21229 7////
AAXX 07064 71021 46/// /0000 11225 21250 39724 40093 56021 6///1 333 11192 21299 7////
AAXX 07064 71040 46/// /0805 11126 21149 39850 40055 56014 6///1 333 11126 21290 7////
AAXX 07064 71212 17/// /3301 11109 21120 39223 40040 55007 60021 7//4/ 333 11109 21269 70031 555 10040 20031
AAXX 07064 71243 16/// /2809 11022 21102 39103 40197 53001 60001 333 10050 21038 70000 555 32625 40221
AAXX 07064 71246 16/// /1503 11115 21140 39472 40145 57007 60001 333 11002 21132 70000
AAXX 07064 71837 46/// ///// 11042 6///1 333 10023 21058 7////
AAXX 07064 71839 16/// ///// 11046 60001 333 10025 21075 7////
AAXX 07064 71840 46/// /1407 11047 21055 6///1 333 10041 21047 7//// 555 32738 40083
AAXX 07064 71155 16/// ///// 11068 21085 60001 333 10008 21110 70000
AAXX 07064 71156 16/// /2704 11106 21130 39072 40195 54000 60001 333 10000 21135 70000
AAXX 07064 71158 16/// /3402 11144 21163 39864 40148 51010 60001 333 11052 21145 70003 555 33222 40201
AAXX 07064 71160 16/// /2003 11236 21268 39922 40148 56011 60001 333 11236 21312 70000
AAXX 07064 71162 16/// /1708 11228 21254 39913 40132 56011 60001 333 11195 21228 7////
AAXX 07064 71164 46/// /0000 11288 21320 39905 49989 56018 6///1 333 11231 21309 7////
AAXX 07064 71165 46/// ///04 11242 21267 39789 40085 58027 6///1 333 11229 21321 7////
AAXX 07064 71166 46/// /0802 11269 21294 39469 40107 56020 6///1 333 11161 21285 7////
AAXX 07064 71170 16/// /2709 11017 21034 60001 333 10032 21045 70000 555 32834 40073
AAXX 07064 71172 16/// ///// 10011 20009 39805 40019 56008 60001 333 10052 21019 70000
AAXX 07064 71750 17/// /0404 11117 21140 39810 40047 53017 69931 7//4/ 333 11038 21117 70020 555 10010 20020
AAXX 07064 71754 16/// /2909 11044 21093 39499 40171 53008 60001 333 10019 21063 70000 555 33034 40073
AAXX 07064 71771 46/// /1718 10058 20031 30127 40148 58012 6///1 333 10078 20039 7////
AAXX 07064 71783 16/// /1003 10045 20025 30180 40255 52009 60001 333 10057 20018 70000
AAXX 07064 71550 16/// /0304 11049 21053 39760 40140 53010 60001 333 10027 21054 70006 555 10010 20006 32727 40071
AAXX 07064 71551 16/// /2806 11052 21081 39506 40170 53006 60001 333 10016 21052 70000 555 32724 40091
AAXX 07064 71578 16/// /0612 11087 21107 60001 333 11086 21172 70011 555 30722 40231
AAXX 07064 71585 16/// /1102 11115 21122 39685 40158 58002 60001 333 11066 21129 70000
AAXX 07064 71588 16/// /2512 11074 21083 60001 333 11026 21084 70000
AAXX 07064 71589 16/// /2607 11127 21148 39945 40080 53010 60001 333 11002 21127 70078 555 10060 20078 32724 40161
AAXX 07064 71599 17/// /1003 11032 21032 39889 40094 58026 60011 7//4/ 333 11032 21095 70013 555 10010 20013
AAXX 07064 71355 16/// /0707 11300 21332 39977 40066 52008 60001 333 11232 21342 70000
AAXX 07064 71362 16/// /1702 11265 21295 39886 40155 58009 60001 333 11157 21272 70000
AAXX 07064 71364 16/// /3203 11225 21249 39834 49970 55010 60001 333 11176 21254 70000
AAXX 07064 71365 16/// /1505 11221 21240 39860 40082 58026 60001 333 11188 21286 70000
AAXX 07064 71373 16/// /1803 10019 21026 60001 333 10023 21121 70010
AAXX 07064 71381 47/// /2402 11144 21163 6///1 7//4/ 333 21311 70005
AAXX 07064 71387 16/// /0000 11154 21174 39663 40060 56016 60001 333 11154 21327 70000
AAXX 07064 71393 16/// ///// 11050 21117 38897 40182 53004 60001 333 10037 21057 70000
AAXX 07064 71077 16/// /0302 11099 21120 39621 40172 51007 60001 333 11046 21099 7////
AAXX 07064 71104 11258 81407 11043 21055 39107 40244 51005 69921 77174 85701 333 11024 21105 44017 70002 90917 555 10002 20002
AAXX 07064 71137 16/// /0403 11091 21103 39229 40188 56001 60001 333 10034 21091 70000 555 33024 40091
AAXX 07064 71858 16/// /0203 11132 21153 39870 40159 53009 60001 333 11071 21132 70013
AAXX 07064 71861 16/// /2906 11050 21067 39422 40155 53006 60001 333 10008 21056 70000 555 33231 40152
AAXX 07064 71609 11356 81206 11018 21037 39947 40083 56023 60011 77176 887// 333 11018 21134 70013 90973 93101 555 10013 20013 33420 40081
AAXX 07064 71719 16/// /2004 11111 21139 30108 40114 56010 60001 333 11085 21133 70000 555 32827 40081
AAXX 07064 71301 16/// ///// 11073 21075 39600 40001 51001 60001 333 11071 21142 70007 555 10010 20007
AAXX 07064 71309 16/// /0206 11134 21156 30051 40063 53005 60001 333 11125 21182 70000
AAXX 07064 71317 16/// /0606 11076 21096 30068 40116 58020 60001 333 11068 21150 70000
AAXX 07064 71321 16/// /3304 11285 21311 30016 40062 56014 60001 333 11279 21320 70000
AAXX 07064 71736 46/// ///// 11040 21096 6///1 333 10017 21040 7////
AAXX 07064 71746 16/// /2503 10063 20014 39813 40030 58010 60001 333 10121 20019 70000 555 32017 40151
AAXX 07064 71747 16/// /3404 39614 52022 60001 333 7////
AAXX 07064 71954 46/// /0702 11143 21162 39776 40164 51006 6///1 333 11069 21143 7////
AAXX 07064 71956 16/// /2303 10014 21001 39790 40019 56008 60001 333 10070 21026 70000 555 32719 40191
AAXX 07064 71959 16/// ///// 11073 21106 60001 333 11011 21073 70007
AAXX 07064 71970 16/// /2609 11085 21101 39557 40152 52007 60001 333 10004 21094 70003 555 33418 40061
AAXX 07064 71977 46/// /1603 11210 21210 39243 49973 6///1 333 11202 21313 7////
AAXX 07064 71978 46/// /0210 11236 21263 39618 49936 56014 6///1 333 11176 21241 7//// 555 10020 32229 40092
AAXX 07064 71989 16/// /1501 11260 21286 30016 40033 58011 60001 333 11257 21346 70000 555 31917 40131
AAXX 07064 71667 17/// /3406 11049 21084 39821 40067 53022 69931 7//4/ 333 10044 21085 70006 555 32625 40201
AAXX 07064 71669 16/// /2402 11044 21120 38548 40187 53004 60001 333 11012 21054 70000 555 32517 40141
AAXX 07064 71696 16/// /2606 11281 21309 30125 40164 56002 60001 333 11200 21286 70000
AAXX 07064 71074 16/// ///04 11361 21398 39940 40021 53003 60001 333 11312 21368 7////
AAXX 07064 71075 16/// /2202 11217 21242 39531 40168 51007 60001 333 11182 21269 70000
AAXX 07064 71087 46/// /1104 11241 21268 39898 40113 57025 6///1 333 11173 21269 7////
AAXX 07064 71444 16/// /3103 11026 21042 39367 40131 53004 60001 333 10016 21059 70003 555 32924 40081
AAXX 07064 71472 17/// /1719 69921 7//4/ 333 7////
AAXX 07064 71851 16/// /1304 11048 21050 39804 40143 58002 60001 333 10053 21048 70013 555 32927 40091
AAXX 07064 71885 46/// ///// 11038 6///1 333 10026 21079 7////
AAXX 07064 71250 16/// /3109 11068 21120 39947 40084 53013 60001 333 10059 21068 70055 555 31434 40093
AAXX 07064 71270 16/// /0000 10026 20006 39814 40030 58006 60001 333 10089 20017 70000 555 32419 40141
AAXX 07064 71295 16/// /3303 11101 21119 39662 40115 52013 60001 333 11038 21101 70140 555 10170 20140
AAXX 07064 71296 16/// /0000 10023 20007 39729 40031 58007 60001 333 10059 21015 70000
AAXX 07064 71450 16/// /2606 11050 21076 39449 40176 51006 60001 333 10016 21056 70000 555 32926 40081
AAXX 07064 71465 46/// /2308 10045 20024 39831 40046 56014 6///1 333 10059 20041 7//// 555 32027 40171
AAXX 07064 71470 16/// /2301 11247 21273 39440 40091 58015 60001 333 11247 21347 70000
AAXX 07064 71475 17/// /0000 10026 20022 30167 40262 53013 69921 7//4/ 333 10038 20001 70022
AAXX 07064 71476 17/// /1522 30141 55000 60021 7//4/ 333 70044 555 31637 40233
AAXX 07064 71478 16/// /1814 10051 20047 30077 40215 51011 60001 333 10059 20035 70004 555 31547 40153
AAXX 07064 71479 16/// /1022 10049 20042 30093 40215 50010 60001 333 10059 20038 70000 555 31151 40203
AAXX 07064 71480 16/// /1304 11144 21176 39832 49955 56034 60001 333 11126 21289 70003 555 10010 20003 31417 40001
AAXX 07064 71484 16/// /1920 10061 20029 30133 40151 56004 60001 333 10073 20035 70000 555 31744 40153
AAXX 07064 71487 16/// /2408 11061 21075 39301 40178 53003 60001 333 10025 21067 70000 555 32827 40201
AAXX 07064 71492 46/// ///05 11219 21243 39290 49998 58021 6///1 333 11182 21254 7////
AAXX 07064 71887 11887 60000 11006 21018 39828 40259 52008 60021 70182 86700 333 10019 21066 43997 70001 90923 555 10002 20002
AAXX 07064 71800 16/// /3015 11030 21063 30068 40101 53018 60001 333 10059 21047 70000 555 31844 40093
AAXX 07064 71810 16/// /3603 11155 21183 30037 40106 56001 60001 333 11112 21178 70000 555 32718 40091
AAXX 07064 71815 11474 62910 11063 21091 30071 40102 50000 69901 70288 86500 333 10011 21077 48024 70006 90943 555 10006 20006 32822 40181
AAXX 07064 71141 46/// /2905 11369 21408 30053 40081 6///1 333 7////
AAXX 07064 71147 16/// /1405 11053 21063 60001 333 10050 21053 70000 555 32837 40093
AAXX 07064 71501 16/// /3308 11258 21285 39966 49968 55007 60001 333 11219 21302 70000
AAXX 07064 71514 16/// /2707 11077 21094 39462 40171 50004 60001 333 10011 21079 70000 555 33130 40132
AAXX 07064 71539 16/// /2808 11064 21085 39475 40180 52002 60001 333 10031 21064 70000 555 32825 40101
AAXX 07064 71077 16/// /0302 11099 21120 39621 40172 51007 60001 333 11046 21099 7////
AAXX 07064 71104 11258 81407 11043 21055 39107 40244 51005 69921 77174 85701 333 11024 21105 44017 70002 90917 555 10002 20002
BBXX 44150 07061 99425 70640 46/// /1710 10081 40094 57032 22200 00091 10803 70017 333 91212
AAXX 07064 86330 32998 01209 10222 20143 40133 52011
AAXX 07064 86360 NIL
AAXX 07064 86460 NIL
AAXX 07064 86490 NIL
AAXX 07064 86530 NIL
AAXX 07064 86545 31996 00000 10166 20159 40179 52/// 71000
AAXX 07064 86565 32497 20000 10182 20148 40169 57001 82400
AAXX 07064 86580 42597 41109 10202 20166 40177 56002 84500
AAXX 07064 71887 11887 60000 11006 21018 39828 40259 52008 60021 70182 86700 333 10019 21066 43997 70001 90923 555 10002 20002
AAXX 07064 71858 16/// /0203 11132 21153 39870 40159 53009 60001 333 11071 21132 70013
AAXX 07064 71861 16/// /2906 11050 21067 39422 40155 53006 60001 333 10008 21056 70000 555 33231 40152
AAXX 07064 71800 16/// /3015 11030 21063 30068 40101 53018 60001 333 10059 21047 70000 555 31844 40093
AAXX 07064 71810 16/// /3603 11155 21183 30037 40106 56001 60001 333 11112 21178 70000 555 32718 40091
AAXX 07064 71815 11474 62910 11063 21091 30071 40102 50000 69901 70288 86500 333 10011 21077 48024 70006 90943 555 10006 20006 32822 40181
AAXX 07064 71609 11356 81206 11018 21037 39947 40083 56023 60011 77176 887// 333 11018 21134 70013 90973 93101 555 10013 20013 33420 40081
AAXX 07064 71719 16/// /2004 11111 21139 30108 40114 56010 60001 333 11085 21133 70000 555 32827 40081
AAXX 07064 71137 16/// /0403 11091 21103 39229 40188 56001 60001 333 10034 21091 70000 555 33024 40091
AAXX 07064 71444 16/// /3103 11026 21042 39367 40131 53004 60001 333 10016 21059 70003 555 32924 40081
AAXX 07064 71472 17/// /1719 69921 7//4/ 333 7////
AAXX 07061 01367 11250 80000 11049 21057 39513 49962 57019 60012 77372 87720 333 21162 47031 70010 91103
AAXX 07061 01492 11X57 90701 11012 21033 39843 49962 56018 69902 77172 333 21019 42998 79999 91104
AAXX 07061 01218 16/// /1505 10025 21021 39898 49919 55017 60022 333 21004 70133 91110
AAXX 07061 01281 16/// ///// 1//// 2//// 39803 49996 56012 60002 333 70080
AAXX 07061 01241 11886 41307 11019 21048 39926 49938 57022 60002 70121 81072 333 21034 44997 70003 91110
AAXX 07061 48840 01498 83601 10140 20122 30232 40238 57024 69913 70252 888// 333 58026 69901 83894 88696
AAXX 07064 43400 NIL
AAXX 07064 43404 21470 7//// 10274 20237 30149 40159 72582 85263 333 58015 69917 70001 85818
AAXX 07064 43410 NIL
AAXX 07064 43413 22470 70511 10287 20245 30146 40150 8317/ 333 58004 60007 70000 83816 86358
AAXX 07064 43415 21470 60502 10276 20250 30046 40154 70282 8437/ 333 58006 60117 70121 83818 81920 86460
AAXX 07064 43418 21470 80703 10272 20246 3//// 4//// 70385 8622/ 333 5//// 69907 70017 86818 87460
AAXX 07064 43421 21460 73202 10261 20243 30052 40154 76082 872// 333 58006 69907 70083 87818
AAXX 07064 43422 22470 70203 10284 20239 30016 40146 85336 333 58006 60007 70005 85818 81920
AAXX 07064 43424 22478 50506 10290 20250 30136 40139 8423/ 333 58005 60007 70000 84816
AAXX 07064 43436 22470 63602 10288 20248 30144 40147 83101 333 58006 60007 70417 83818 85080
AAXX 07064 43441 22470 536// 10299 20227 30006 40135 85130 333 58003 60007 70074 85818
AAXX 07064 43444 22470 51406 10284 20221 39609 40141 82106 333 58000 60007 70082 82818 84280
AAXX 07064 43467 22466 32103 10310 20229 30132 40137 83201 333 58004 60007 70037 82818 83080
AAXX 07064 43473 22470 41302 10189 20151 38161 48525 82131 333 58006 60007 70038 82814 83360
AAXX 07064 43475 22470 30502 10292 20246 30135 40144 82201 333 58006 60007 70324 82818
AAXX 07064 43476 22470 52703 10228 20182 38809 48556 85200 333 58004 60007 70115 85811
AAXX 07064 43479 21470 30000 10250 20196 39303 70140 82101 333 58002 60007 70017 82818
AAXX 07064 43486 22470 30000 10302 20213 30038 40132 83100 333 58000 60007 70005 83814
AAXX 07064 43495 22470 3//// 10294 20242 30130 40146 82901 333 58005 60007 70012 81818 81920
AAXX 07064 43497 22476 10504 10306 20252 30119 40136 81100 333 58002 60007 70056 81818
BBXX 44255 07061 99473 70573 46/// /2809 11029 40108 52004 22200 00029 10803 70017 333 91211
OOXX AAUNI 07064 99798 50833 56093 07671 46/// /0906 11149 21164 38953 49861 5//// 90600
BBXX 41053 07061 99185 70661 46/// /1304 10250 40153 58009 90600 22200 00270 11103 70017 333 91209
BBXX 41052 07061 99183 70648 46/// /0606 10260 40150 90550 333 91208
BBXX 41052 07061 99183 70648 46/// /0606 10260 40150 90540 333 91208
BBXX 41052 07061 99183 70648 46/// /0908 10257 40150 58005 90600 22200 00266 333 91210
AAXX 07061 50136 32970 32503 11139 21235 39727 40320 57024 80002 333 21353
AAXX 07061 50745 32968 02902 11102 21201 30160 40361 57022 333 21217
AAXX 07061 50774 32960 00000 11132 21199 30021 40358 57022 333 21308
AAXX 07061 50788 32970 02505 11118 21169 30232 40326 57010 333 21217
AAXX 07061 51133 32980 01101 11055 21136 39697 40391 57013 333 00001 21148
AAXX 07061 51431 NIL
AAXX 07061 51747 NIL
AAXX 07061 52203 NIL
AAXX 07061 52418 32980 03202 11050 21168 38991 40407 57017 333 00452 21174
AAXX 07061 52681 32980 23202 11025 21181 38723 40375 57023 80002 333 00401 21151
AAXX 07061 53564 32968 70000 11016 21147 39276 40351 57031 80002 333 00003 21149
AAXX 07061 53614 32965 61802 11028 21148 39003 40364 57026 82032 333 00300 21116
AAXX 07061 53646 32665 80000 11026 21124 38933 40342 57022 83507 333 00251 21094
AAXX 07061 53798 32960 70701 11012 21073 30258 40360 57041 80002 333 21054
AAXX 07061 53845 11960 81101 10013 21067 39162 40328 57026 69901 77070 8802/ 333 00200 21048
AAXX 07061 53959 31959 73602 10031 21105 39880 40338 57032 70500 82032 333 21007
AAXX 07061 54094 32965 02003 11105 21189 30044 40372 57017 333 21231
AAXX 07061 54102 32980 01803 11184 21244 39127 40463 57017 333 21333
AAXX 07061 54161 32962 12502 11089 21201 30061 40380 57020 80002 333 21213
AAXX 07061 54292 32980 12904 11074 21202 30019 40361 57019 81032 333 21174
AAXX 07061 54374 32970 01601 11108 21179 39886 40395 57030 333 21238
AAXX 07061 54423 11670 70401 11062 21121 39826 40380 57032 69921 70070 83502 333 21154
AAXX 07061 54618 32962 71601 10008 21077 30342 40361 57035 80002 333 21075
AAXX 07061 54843 32974 00901 10013 21077 30342 40371 57030 333 21096
AAXX 07061 54909 32968 01102 10039 21078 30289 40356 57037 333 21067
AAXX 07061 56029 32680 72701 11017 21162 36423 57029 86902 333 00151 21160
AAXX 07061 57127 11960 80902 10034 20006 39692 40320 57027 69921 70076 8807/ 333 20027
AAXX 07061 57131 32960 80702 10018 21078 39834 40350 57031 8807/ 333 21011
BBXX 44255 07061 99473 70573 46/// /2809 11029 40108 52004 22200 00029 10803 70017 333 91211
BBXX 41053 07061 99185 70661 46/// /1203 10252 40153 90550 333 91204
BBXX 41053 07061 99185 70661 46/// /1303 10249 40154 90540 333 91204
AAXX 07060 44214 32998 60402 11150 21247 38351 40464 58007 82084
AAXX 07060 44231 31996 60000 11197 21258 38802 40487 58011 70422 80008
AAXX 07060 44259 32997 02404 11245 21279 39416 40425 58014
AAXX 07060 44277 32999 02001 11123 21206 37835 40420 58010
AAXX 07060 44288 32999 01402 11083 21213 38197 40355 58013
AAXX 07060 44292 31896 41401 11215 21263 38771 40450 58014 70410 81047
AAXX 07060 44304 32999 12302 11244 21276 39080 40438 58016 80001
AAXX 07060 44354 32999 22502 11205 21230 39198 40424 58019 80004
AAXX 07060 44373 32999 53204 11130 21176 38590 40387 58012 80008
AAXX 07064 43466 22470 42702 10298 20228 30125 40137 83101 333 58004 60007 70029 83818
AAXX 07060 44203 41597 60000 11289 21313 38490 40556 58009 71572 82518
AAXX 07060 44207 32999 72302 11221 21261 38372 40457 58006 82088
AAXX 07060 44212 31595 70000 11274 21304 39323 40603 54000 71022 876//
AAXX 07060 44213 41698 60000 11281 21318 38925 40599 57007 72272 84514
AAXX 07060 44215 32998 70000 11229 21269 38503 40516 54000 82048
AAXX 07060 44218 31995 23402 11246 21285 38710 40539 58008 70400 80001
AAXX 07060 44225 31998 30000 11316 21338 38359 40624 58010 70240 80005
AAXX 07060 44230 32998 60000 11174 21228 38870 40463 58013 80006
AAXX 07060 44232 32999 33601 11254 21288 39210 40476 57014 82041
AAXX 07060 44237 32999 22002 11179 21229 38539 40411 58008 82041
AAXX 07060 44239 32999 22101 11200 21249 38861 40409 56012 80004
AAXX 07060 44241 32999 01803 11262 21287 39370 40465 58013
AAXX 07060 44256 32999 00000 11269 21286 39448 40412 58025
AAXX 07060 44265 32999 00000 11156 21207 38946 40455 58009
AAXX 07060 44272 32998 30000 11212 21269 38280 40453 57012 80004
AAXX 07060 44275 32998 00000 11151 21178 37742 40360 58010
AAXX 07060 44282 31999 03205 11078 21264 38328 40326 58016 70240
AAXX 07060 44284 32999 00000 11197 21265 37880 40490 57011
AAXX 07060 44285 32999 00000 11174 21226 38363 40424 57015
AAXX 07060 44287 32999 01902 11134 21207 38151 40407 58014
AAXX 07060 44294 32998 33502 11232 21257 38614 40472 58017 80003
AAXX 07060 44298 32999 23605 11252 21258 38772 40440 58018 80004
AAXX 07060 44302 32999 02705 11242 21278 39196 40439 57018
AAXX 07060 44305 32999 02703 11216 21244 39140 40411 58015
AAXX 07060 44313 32999 00000 11228 21276 39498 40430 57012
AAXX 07060 44314 32998 02303 11168 21202 39235 40411 58012
AAXX 07060 44317 32998 00000 11136 21207 39020 40390 56018
AAXX 07060 44336 32999 01302 11188 21229 38753 40450 58016
AAXX 07060 44341 31999 11501 11187 21218 38655 40434 58014 70240 80001
AAXX 07060 44347 32999 22703 11166 21208 38779 40413 57009 80008
AAXX 07060 44352 32999 02702 11173 21199 38996 40399 56007
AAXX 07060 44358 32998 01101 11204 21229 39182 40437 57016
AAXX 07064 61401 NIL
AAXX 07064 61404 32960 61214 10170 21031 39786 40184 85072 333 0//00 20170 5//// 55/// 59033 85363 83073
AAXX 07064 61415 32958 43606 10167 20041 30180 40185 84030 333 20160 50574 55/// 59012 84363
AAXX 07064 61421 NIL
AAXX 07064 61437 NIL
AAXX 07064 61442 32956 40605 10180 21053 30161 40165 84080 333 01600 20180 50824 55054 59010 84363
AAXX 07064 61450 NIL
AAXX 07064 61461 NIL
AAXX 07064 61489 NIL
AAXX 07064 61492 NIL
AAXX 07064 61497 NIL
AAXX 07064 61498 31956 00406 10170 20060 30017 40150 705// 333 0//00 20170 5//// 55/// 59001
AAXX 07064 61499 NIL
AAXX 07064 16153 12999 02503 10080 21103 39916 40184 53004 60002 333 20071 30/// 55085 2//// 555 0////
AAXX 07064 16622 11460 83323 10056 20010 39983 49994 52043 60122 70262 8677/ 333 20036 32/// 50250 55000 70209 82710 85625 88358 90730 91139 555 10000 30056 20000 89075 99100 30000 10050 2//// 30058 4//// 5//// 40000 47516 44205 50000 50038 60000 60119 60930 70000 77/// 7R///
AAXX 07063 68452 NIL
AAXX 07063 68454 32989 13604 10205 20140 38423 48/// 5//// 80001 333 20165 555 10300
AAXX 07063 68456 NIL
AAXX 07061 80400 NIL
AAXX 07061 80403 32460 60000 10240 20220 30114 40133 8152/ 333 30/// 5699/ 59008 81613 85456 555 10136
AAXX 07061 80405 NIL
AAXX 07061 80407 NIL
AAXX 07061 80410 32460 80000 10210 20200 39466 40141 886// 333 30/// 569// 58010 88716 555 10180
AAXX 07061 80413 32960 00201 10203 20174 39646 40132 333 30/// 58003 555 10162
AAXX 07061 80415 32460 20000 10233 20217 30071 40125 82500 333 30/// 56900 59006 82616 555 10127
AAXX 07061 80419 NIL
AAXX 07061 80421 NIL
AAXX 07061 80423 NIL
AAXX 07061 80428 32560 10901 10228 20207 39921 40104 81500 333 30/// 56900 59001 81620 555 10117
AAXX 07061 80432 NIL
AAXX 07061 80435 32960 30503 10238 20238 30038 40114 80003 333 30/// 56009 59001 555 10112
AAXX 07061 80438 31310 82502 10172 20165 38536 48533 71022 887// 333 30/// 569// 59008 88703 555 10221
AAXX 07061 80444 32360 30703 10242 2//// 30060 4//// 83700 333 30/// 56200 59002 83710 555 10108
AAXX 07061 80447 32560 40000 10230 20220 39681 40101 84500 333 30/// 56900 59004 84620 555 10154
AAXX 07061 80448 32960 00000 10218 20211 3//// 4//// 333 30/// 5////
AAXX 07061 80450 32960 30902 10260 20235 30067 40122 80008 333 30/// 56009 59011 555 10119
AAXX 07061 80453 NIL
AAXX 07061 80457 32960 2//// 10264 20221 30020 40105 82020 333 30/// 56090 59003 555 10104
AAXX 07061 80462 NIL
AAXX 07061 80402 NIL
AAXX 07061 80412 NIL
AAXX 07061 80416 NIL
AAXX 07061 80420 32960 00703 10241 20213 30119 40115 333 30/// 59004 555 10131
AAXX 07061 80425 32460 31402 10250 20236 30090 40121 83400 333 30/// 56900 59021 83613 555 10122
AAXX 07061 80426 32560 20502 10222 20196 39491 40135 82500 333 30/// 56900 59008 82633 555 10166
AAXX 07061 80427 32560 43603 10234 20210 39874 40124 83530 333 30/// 56990 58004 83520 555 10143
AAXX 07061 80431 NIL
AAXX 07061 80434 NIL
AAXX 07061 80437 NIL
AAXX 07061 80440 32960 03602 10239 20181 39916 40126 333 30/// 58006 555 10136
AAXX 07061 80442 32960 0//// 10250 2//// 30003 4//// 333 30/// 59007 555 10114
AAXX 07061 80472 32460 30502 10232 20201 39649 40121 81508 333 30/// 56909 59006 81616 555 10151
AAXX 07061 80475 32560 40000 10204 20191 39793 40123 84500 333 30/// 56900 58013 84620 555 10177
AAXX 07061 80476 32360 4//// 10262 20246 30098 40128 82530 333 30/// 56990 59004 82610
AAXX 07061 80478 NIL
AAXX 07061 80479 NIL
AAXX 07064 47401 12/89 73607 11019 21072 30216 40231 53004 60001 84202
AAXX 07064 47412 11/65 23307 10002 21069 30186 40219 52005 69901 70182 82202
AAXX 07064 47420 17/70 /3417 10000 21039 30134 40168 53013 69901 70070
AAXX 07064 47426 15/70 /3405 10020 21073 30143 40191 53008 60001
AAXX 07064 47582 11/60 72918 10021 21019 30216 40244 53008 60121 78582 873//
AAXX 07064 47590 12/81 22914 10043 21066 30178 40233 53003 60001 82800
AAXX 07064 47600 17/70 /3107 10031 21048 30285 40293 55002 69901 70076
AAXX 07064 47648 12/80 23509 10073 21057 30201 40236 56001 60001 81202
AAXX 07064 47662 12/82 13410 10085 21132 30189 40234 56005 60001 81100
AAXX 07064 47678 15/70 /2811 10091 21013 30047 40238 55002 60001
AAXX 07064 47740 17/81 /3505 10040 21028 30280 40316 55005 69951 70086
AAXX 07064 47778 15/70 /3010 10097 21032 30184 40269 55004 60001
AAXX 07064 47807 11/70 70103 10090 21006 30284 40303 56014 69901 70282 87200
AAXX 07064 47827 12/82 10105 10128 21043 30243 40282 56021 60001 81100
AAXX 07064 47843 15/77 /3607 10096 20005 30270 40303 56013 60001
AAXX 07064 47893 12/80 20308 10098 21042 30276 40282 56010 60001 82200
AAXX 07064 47909 11/70 80405 10150 20083 30255 40265 56017 69901 70262 8627/
AAXX 07064 47918 11/65 70518 10213 20158 30200 40217 56021 69901 76162 878//
AAXX 07064 47936 11/70 80313 10171 20138 30183 40243 56018 69951 70262 8787/
AAXX 07064 47945 12/65 70609 10200 20142 30209 40233 56017 60001 8387/
AAXX 07064 47971 11/58 71205 10179 20144 30211 40221 55003 69951 78082 872//
AAXX 07064 47991 16/// /0204 10228 20149 30177 40187 55001 60001
AAXX 07064 47407 12/70 73509 11017 21068 30042 40220 53007 60001 81202
AAXX 07064 47409 11/60 73517 11011 21036 30145 40200 53015 60031 78588 872//
AAXX 07064 47418 11/70 73511 10005 21045 30139 40189 53018 69901 78522 83272
AAXX 07064 47421 15/70 /0104 10011 21053 30175 40219 55000 60001
AAXX 07064 47430 12/70 43210 10024 21072 30160 40215 53003 60001 83201
AAXX 07064 47570 15/70 /2813 10017 21052 39988 40255 55002 60001
AAXX 07064 47575 11/50 82407 10004 21010 30224 40229 53008 69901 78511 883//
AAXX 07064 47584 11/65 71705 10003 21013 30033 40229 53005 69901 72622 873//
AAXX 07064 47604 11/80 42911 10041 21030 30259 40268 53001 69901 72681 84200
AAXX 07064 47605 11/50 73308 10018 21001 30261 40304 53002 69951 78582 872//
AAXX 07064 47610 11/80 50610 10020 21076 39748 40266 55001 69901 70281 85200
AAXX 07064 47624 12/80 23308 10065 21107 30103 40245 53003 60001 82200
AAXX 07064 47629 12/80 12906 10073 21100 30197 40236 55000 60001 81100
AAXX 07064 47636 12/70 23314 10068 21069 30200 40270 55001 60001 82200
AAXX 07064 47651 11/82 43110 10071 21037 30256 40279 56006 69901 70181 84230
AAXX 07064 47655 15/70 /2817 10092 21103 30172 40229 56004 60001
AAXX 07064 47675 17/70 /0608 10088 21031 30137 40230 55001 69901 70060
AAXX 07064 47741 11/80 71303 10045 20020 30286 40314 56007 60021 78088 872//
AAXX 07064 47746 11/60 73404 10036 20010 30293 40313 55002 69951 78082 873//
AAXX 07064 47750 11/65 62103 10045 20020 30272 40301 55002 69951 72782 86200
AAXX 07064 47765 12/75 63613 10073 21027 30238 40305 56007 69901 86800
AAXX 07064 47772 12/80 23209 10072 21045 30188 40291 56004 60001 82200
AAXX 07064 47800 15/81 /0703 10084 21020 30302 40307 56017 60001
AAXX 07064 47815 11/81 43403 10094 21025 30282 40299 56013 69901 70281 84230
AAXX 07064 47817 12/75 13405 10104 21019 30251 40295 56018 60001 81100
AAXX 07064 47830 12/84 11006 10115 21034 30265 40284 56018 60001 81100
AAXX 07064 47887 12/75 63005 10092 21033 30254 40296 56006 60001 86800
AAXX 07064 47891 11/80 73503 10076 21021 30280 40297 56010 69901 72582 87800
AAXX 07064 47895 11/81 63111 10081 21017 30285 40293 56007 69901 72582 86800
AAXX 07064 47927 11/65 80516 10191 20165 30176 40225 56017 69951 72162 888//
AAXX 07061 38462 42999 00000 11071 21158 38789 48514 58018 333 21141
AAXX 07061 48803 32460 80000 10152 20103 30121 40237 57031 888// 333 58021 85894 88696
AAXX 07061 48921 01310 80000 10149 20149 38596 48099 57012 69991 71064 886// 333 58010 69997
AAXX 07061 48924 31556 51802 10208 20179 39538 40167 57028 71044 84860 333 58027
AAXX 07061 48925 31458 30404 10228 20171 39432 40161 57022 71044 83200 333 58028
AAXX 07061 48926 31558 22001 10284 20185 39701 40165 57030 70544 82100 333 58018
AAXX 07061 48927 01320 80702 10123 20110 39204 48656 57030 69931 75054 888// 333 58024 69917
AAXX 07061 48928 31440 81404 10141 20113 39119 48568 57026 71044 888// 333 58036
AAXX 07061 48930 32470 31801 10235 20168 39834 40185 57031 83100 333 58025
AAXX 07061 48935 32470 33602 10223 20114 38999 48501 57033 82101 333 58017
AAXX 07061 48938 31558 21802 10269 20188 39838 40166 57022 70544 82101 333 58010
AAXX 07061 48940 31658 31203 10271 20167 39977 40175 57029 70544 83500 333 58023
AAXX 07061 48941 31962 02003 10274 20208 3//// 4//// 5//// 70544 333 5////
AAXX 07061 48944 31458 30407 10196 20117 39529 40123 57003 70544 83800 333 59001
AAXX 07061 48945 31457 31801 10256 20158 30010 40189 57026 70544 82101 333 58031
AAXX 07061 48946 31558 40402 10269 20212 30012 40177 57020 70544 83240 333 58023
AAXX 07061 48947 32461 40902 10270 20164 30031 40197 57010 83230 333 58013
AAXX 07061 48948 32965 20904 10257 20132 39778 40188 57022 80001 333 58028
AAXX 07061 48952 32560 12702 10310 20147 39960 40149 57019 81101 333 58012
AAXX 07061 48953 32575 22703 10305 20152 39955 40119 57028 81101 333 58021
AAXX 07061 48955 32460 23603 10308 20159 30036 40152 57032 82102 333 58011
AAXX 07061 48957 31565 23602 10307 20150 30034 40140 57030 70544 82101 333 58027
AAXX 07063 68452 NIL
AAXX 07063 68454 32989 13604 10205 20140 38423 48/// 5//// 80001 333 20165 555 10300
AAXX 07063 68456 NIL
AAXX 07061 80400 NIL
AAXX 07061 80403 32460 60000 10240 20220 30114 40133 8152/ 333 30/// 5699/ 59008 81613 85456 555 10136
AAXX 07061 80405 NIL
AAXX 07061 80407 NIL
AAXX 07061 80410 32460 80000 10210 20200 39466 40141 886// 333 30/// 569// 58010 88716 555 10180
AAXX 07061 80413 32960 00201 10203 20174 39646 40132 333 30/// 58003 555 10162
AAXX 07061 80415 32460 20000 10233 20217 30071 40125 82500 333 30/// 56900 59006 82616 555 10127
AAXX 07061 80419 NIL
AAXX 07061 80421 NIL
AAXX 07061 80423 NIL
AAXX 07061 80428 32560 10901 10228 20207 39921 40104 81500 333 30/// 56900 59001 81620 555 10117
AAXX 07061 80432 NIL
AAXX 07061 80435 32960 30503 10238 20238 30038 40114 80003 333 30/// 56009 59001 555 10112
AAXX 07061 80438 31310 82502 10172 20165 38536 48533 71022 887// 333 30/// 569// 59008 88703 555 10221
AAXX 07061 80444 32360 30703 10242 2//// 30060 4//// 83700 333 30/// 56200 59002 83710 555 10108
AAXX 07061 80447 32560 40000 10230 20220 39681 40101 84500 333 30/// 56900 59004 84620 555 10154
AAXX 07061 80448 32960 00000 10218 20211 3//// 4//// 333 30/// 5////
AAXX 07061 80450 32960 30902 10260 20235 30067 40122 80008 333 30/// 56009 59011 555 10119
AAXX 07061 80453 NIL
AAXX 07061 80457 32960 2//// 10264 20221 30020 40105 82020 333 30/// 56090 59003 555 10104
AAXX 07061 80462 NIL
BBXX BAREU12 07064 99473 70243 46/// ///// 40305 57014 22264
AAXX 07061 08501 NIL
AAXX 07061 08505 NIL
AAXX 07061 08509 32460 21502 10140 20133 30244 40309 58004 82800 333 20140 50124 55068 81815
AAXX 07061 08512 12/// /0603 10142 20130 30219 40306 57005 60052 333 20138 30013 5//// 55066 20981 91107
AAXX 07061 08515 31480 2//// 10140 20121 30194 40310 57005 70151 82800 333 20130 32012 50234 55076 21070 81815
AAXX 07061 08533 32/// /0702 10078 20029 30239 40269 54000 333 20055 30001 5//// 55086 21382
AAXX 07061 08541 32/// /9901 10094 20025 30156 40278 57003 333 20082 30002 5//// 55081 21174
AAXX 07061 08545 31962 30805 10107 20053 30216 40301 54000 70300 80001 333 20090 31004 50154 55076 20848 83075 91108
AAXX 07061 08548 NIL
AAXX 07061 08554 31970 00505 10143 20049 30258 40268 57001 70200 333 20062 30007 5//// 55086 21218
AAXX 07061 08558 32/// /0702 10051 20038 39986 40290 57003 333 20045 30000 5//// 55002 21039
AAXX 07061 08560 32/// /0708 10078 20039 39536 40306 54000 333 20074 30006 5//// 55076 20997 91112
AAXX 07061 08567 32/// /0502 10068 20044 39657 40337 52001 333 20042 30001 5//// 55064 20844
AAXX 07061 08570 32/// /0602 10083 20046 39837 40305 54000 333 20081 30006 5//// 55083 21026
AAXX 07061 08575 32/// /0000 10008 20000 39511 40358 57002 333 20007 30101 5//// 55068 20773
AAXX 07061 08579 32/// /2402 10075 20059 30160 40288 54000 333 20075 30006 5//// 55084 21054
AAXX 07061 37575 42999 00502 11003 21063 38595 40198 52005
AAXX 07061 37675 42999 00000 10018 21016 39505 40174 51033
AAXX 07061 37735 42999 00000 10029 21036 39769 40151 58007
AAXX 07061 37749 42998 01102 10012 21023 30097 40217 52016
AAXX 07061 37756 41999 23002 10017 21060 39389 40208 52023 70241 82070
AAXX 07061 37864 32497 60000 10053 20033 40177 52025 83680 333 20016 555 30///
AAXX 07061 37985 42998 00000 10004 21001 40174 53013
BBXX A8OZ4 31201 07064 99259 10353 43498 10103 10220 20100 40160 51010 811// 22234 00210 20400 331// 40501 80150
AAXX 07060 67693 11330 72304 10220 20207 39261 48509 60444 75865 8667/ 333 20203 5//// 55/// 59001 70436 84706 86610 87458 555 10227 7//96
BBXX UFTA 07061 99843 71198 11494 80004 11108 21125 49913 57018 60022 78683 889// 555 48041
AAXX 07061 01003 11682 10507 11068 21118 30110 40122 57005 60001 70300 81500 333 41998 91113
AAXX 07061 01447 16/// /0000 11056 21061 39280 49961 57022 69972 333 21089 70008 91101
AAXX 07063 87007 11460 70502 10068 20043 36750 47157 58008 60061 70296 84535 333 56770 84618
AAXX 07063 87047 11250 82303 10172 20162 38826 48544 57007 60021 76162 8672/ 333 56109 83704 86710 88540
AAXX 07063 87148 32970 81405 10245 20157 30005 40110 56009 8807/ 333 56069 88360
AAXX 07064 87022 32960 82702 10234 20201 39610 40110 58005 8807/ 333 56099 88360
AAXX 07064 87046 11558 83204 10188 20166 39136 48529 57004 69901 76062 8362/ 333 56699 83720 88545 90002 94075 94479 98358
AAXX 07064 87097 32960 20511 10220 20194 39790 40094 56008 82070 333 56060 82360
AAXX 07064 87121 32965 73206 10212 20174 39621 40123 58003 87070 333 56060 87360
AAXX 07064 87129 NIL
AAXX 07064 87155 31962 40000 10176 20138 30056 40116 57011 70400 81056 333 56076 81360 84270
AAXX 07064 87162 32970 52002 10216 20160 30036 40102 58014 85070 333 56070 85360
AAXX 07064 87166 31957 41603 10193 20138 30042 40113 57009 70400 80006 333 56005 84270
AAXX 07064 87178 32970 21404 10246 20108 39958 40099 57008 80001 333 56005 82070
AAXX 07064 87217 NIL
AAXX 07064 87222 32970 53203 10237 20151 39598 40104 51003 82059 333 56066 82360 83170
AAXX 07064 87257 32965 03601 10216 20120 30024 40124 58009
AAXX 07064 87270 NIL
AAXX 07064 87289 32962 31405 10220 20161 30044 40123 58003 80004 333 56006 83070
AAXX 07064 87311 32965 62010 10240 20139 39465 40120 52004 86070 333 56000 86360
AAXX 07064 87320 NIL
AAXX 07064 87328 NIL
AAXX 07064 40394 42660 40706 10100 21010 39058 48526 84400 333 20030 58031 84645 555 04410 50201
AAXX 07064 88897 46/// /3317 10094 20067 40063 57030
AAXX 07063 91551 31598 59902 10284 20246 40068 56001 70222 83101 333 566/9 83820 85080
AAXX 07063 91553 31598 69902 10290 20237 40068 56002 70222 86900 333 565/9 83820 81925 86640
AAXX 07063 91554 31598 22010 10295 20241 40068 54000 70122 82100 333 565// 82825
AAXX 07063 91555 31598 29903 10302 20231 40080 52016 70111 82100 333 569// 82830 91557 31598 41608 10295 20245 40070 54000 70222 84200 333 564// 84825
AAXX 07063 91565 31598 71210 10270 20218 40061 53002 70222 878// 333 563// 83822 87645
AAXX 07063 91568 31598 61008 10272 20248 40074 54000 70322 83830 333 5649/ 83825 86364
AAXX 07064 03896 16/// ///// 10104 60022 333 20098 55037
AAXX 07063 91551 31598 59902 10284 20246 40068 56001 70222 83101 333 566/9 83820 85080
AAXX 07063 91553 31598 69902 10290 20237 40068 56002 70222 86900 333 565/9 83820 81925 86640
AAXX 07063 91554 31598 22010 10295 20241 40068 54000 70122 82100 333 565// 82825
AAXX 07063 91555 31598 29903 10302 20231 40080 52016 70111 82100 333 569// 82830 91557 31598 41608 10295 20245 40070 54000 70222 84200 333 564// 84825
AAXX 07063 91565 31598 71210 10270 20218 40061 53002 70222 878// 333 563// 83822 87645
AAXX 07063 91568 31598 61008 10272 20248 40074 54000 70322 83830 333 5649/ 83825 86364
AAXX 07064 70133 32966 00000 11333 21361 30061 40068 53004 90553 333 11244 21344 555 90706
AAXX 07064 70174 12664 21607 11317 21344 39802 40066 51012 69931 90553 333 11267 21322 4/076 555 90706
AAXX 07064 70200 32966 00000 11350 30069 40076 55000 90553 333 11300 21367 555 90706
AAXX 07064 70219 31966 00108 11339 21378 39999 40058 56014 90553 333 11317 21350 555 90706
AAXX 07064 70231 35966 00000 11456 39948 40092 56015 90553 333 11344 21456 555 90706
AAXX 07064 70261 11359 40000 11361 39908 40096 53006 69901 710// 90553 333 11239 21378 555 90706
AAXX 07064 70267 32764 22306 11311 21344 39576 40107 53000 90553 333 11139 21317 555 90706
AAXX 07064 70271 32766 60000 11261 21289 39409 40028 53004 90553 333 11017 21261 4/018 555 90706
AAXX 07064 70273 31159 63608 11167 21183 39949 40011 58009 710// 90553 333 4/076 555 90706
AAXX 07064 70316 17556 80221 11106 21128 39857 49892 55009 69951 728// 90553 333 11094 21111 555 90706
AAXX 07064 70326 32966 60115 11228 21256 39930 49946 56033 90554 333 11228 21311 4/010 91021 555 90706
AAXX 07064 70340 32966 60214 11228 21283 39918 49983 56038 90553 333 11200 21261 555 90706
AAXX 07064 70350 11112 /0617 11039 21056 39878 56039 60021 773// 90553 333 4/005 91028 96010 555 90706
AAXX 07064 70361 17348 80000 10000 20000 39992 40002 50007 60051 710// 90553 333 10006 21005 555 90706
AAXX 07064 70381 11458 80911 10017 20011 30051 40061 53014 69981 761// 90553 333 10022 21010 4/008 96010 555 90706
AAXX 07064 70414 35666 62810 11033 21094 30042 40080 51002 90556 333 11022 21044 555 90706
AAXX 07061 28676 31597 81902 11080 21098 30240 40373 52015 70272 8657/ 333 21068
AAXX 07061 28766 31996 81803 11119 21143 30167 40369 52008 71011 84031 333 21117
AAXX 07061 28867 32598 62505 11116 21144 30096 40384 52015 86500 333 21125
AAXX 07061 28879 11597 81603 11094 21119 30087 40391 52007 69900 70272 8652/ 333 21085 91110
AAXX 07061 28952 32999 22003 11116 21144 30184 40388 52013 82040 333 21128
AAXX 07061 28966 11598 52104 11122 21132 30095 40397 52006 69900 70273 82530 333 21111
AAXX 07061 29802 11596 82503 11057 21072 30216 40365 53008 69900 71022 885// 333 21171
AAXX 07061 29807 32597 82504 11050 21083 30256 40378 52006 885// 333 21160
AAXX 07061 34691 32998 71107 11052 21073 30224 40211 53016 87030 333 21049
AAXX 07061 35067 32998 52003 11116 21133 30125 40420 52015 83032 333 21111
AAXX 07061 35078 11998 72605 11096 21103 30018 40419 52008 69900 70274 87010 333 21107
AAXX 07061 35085 32998 82403 11082 21092 39908 40407 52005 8805/ 333 21085
AAXX 07061 35108 32997 71604 11093 21123 30242 40290 52012 80001 333 21093
AAXX 07061 35188 11296 81901 11087 21106 39963 40420 52005 69900 71022 886// 333 21114 88703
AAXX 07061 35217 32998 31308 11088 21108 30251 40292 53008 80001 333 21104
AAXX 07061 35229 12998 00000 11158 21173 30095 40391 52018 69900 333 21174
AAXX 07061 35302 32998 21706 11094 21120 30254 40274 52009 80001 333 21094
AAXX 07061 35357 11597 81603 11143 21170 39959 40427 52005 69940 70272 885// 333 21256
AAXX 07061 35394 31998 21301 11167 21188 39709 40443 52002 70241 80002 333 21201
AAXX 07061 35406 32997 41505 11070 21104 30272 40275 52010 84030 333 21086
AAXX 07061 35416 32997 31208 11099 21147 30211 40338 51012 80001 333 21112
AAXX 07061 35426 32999 20000 11136 21156 30072 40385 53015 82031 333 21142
AAXX 07061 35497 32998 03401 11189 21216 39572 40444 52005 333 21233
AAXX 07061 35532 31992 01314 11138 21165 39843 40370 52012 73933 333 21136 91018
AAXX 07061 35671 32998 03502 11187 21216 39963 40434 52006 333 21227
AAXX 07061 35700 32998 01310 11051 21092 30281 40256 53021 333 21056 91015 91116
AAXX 07061 35746 32998 00404 11166 21185 30317 40390 53011 333 21173
AAXX 07061 35796 12999 00504 11155 21185 39948 40418 58001 69900 333 21180
AAXX 07061 35849 32998 00902 11152 21179 30281 40374 53006 333 21183
AAXX 07061 35925 32998 01407 11091 21111 40320 52010 333 21096
AAXX 07061 35953 11999 50602 11164 21190 30234 40375 57004 69900 70172 80002 333 21205
AAXX 07061 35969 32999 00503 11141 21168 30197 40383 54000 333 21215
AAXX 07061 36003 11597 82503 11066 21082 30236 40393 52006 69900 77072 8257/ 333 21203
AAXX 07061 36152 31996 81802 11138 21176 30218 40420 52001 71041 8802/ 333 21240
AAXX 07061 36177 12997 73102 11095 21126 30162 40422 52003 69920 87030 333 21107
AAXX 07061 36208 11699 62801 11078 21104 39382 40400 52003 69920 70277 82530 333 21100
AAXX 07061 36397 32699 61804 11105 21170 39822 40414 58003 86500 333 21117
AAXX 07061 36428 32799 41102 11187 21245 39907 40452 58003 81541 333 21258 95000
AAXX 07061 36535 32599 30000 11182 21225 39772 40459 52002 82530 333 21274
AAXX 07061 36639 32999 00000 11113 21166 39754 40393 57006 333 21244
AAXX 07061 36821 11599 80000 11071 21100 39867 40377 58006 69900 72682 889// 333 21082
AAXX 07061 36859 31/92 90401 11096 21112 39559 40382 58008 74942 333 21138
AAXX 07061 36864 31596 80703 11068 21080 39428 40359 57004 77772 886// 333 21076
AAXX 07061 36870 11/93 90000 11075 21088 39296 40353 58006 69900 77774 333 21074 96049
AAXX 07061 38001 32997 80509 11008 21050 30214 40184 53008 8807/ 333 21019
AAXX 07061 38062 11699 20903 11132 21167 30186 40361 58006 69900 70171 82080 333 21194
AAXX 07061 38069 32998 00000 11066 21094 30143 40344 53003 333 21156
AAXX 07061 38196 NIL
AAXX 07061 38198 NIL
AAXX 07061 38222 32998 20000 11050 21086 39764 40343 58007 82030 333 21085
AAXX 07061 38232 32998 11303 11015 21063 30145 40246 53013 81080 333 21047
AAXX 07061 38328 NIL
AAXX 07061 38334 NIL
AAXX 07061 38341 11596 80504 11050 21060 39518 40334 54000 69900 77772 886// 333 21051
AAXX 07061 38343 32698 80901 11049 21077 39462 40336 57002 885// 333 21062
AAXX 07061 38439 NIL
AAXX 07061 30372 42999 80000 11232 21264 39356 40302 57016 84016
AAXX 07061 30433 42699 80000 11198 21217 39723 40368 57011 83532
AAXX 07061 30554 41998 80000 11271 21302 39173 40383 57033 70241 80002
AAXX 07061 30635 41899 81102 11207 21232 39764 40388 58012 70132 85052
AAXX 07061 30673 42999 20000 11209 21242 39489 40321 58023 81041
AAXX 07061 30692 42999 40000 11240 21259 39768 40312 57/// 80001
AAXX 07061 30758 41995 00000 11291 21322 39503 40431 57024 70500
AAXX 07061 30802 42799 82701 11097 21149 38754 48527 58012 82538
AAXX 07061 30823 42999 22501 11280 21305 39729 40448 58018 80001
AAXX 07061 30879 42999 00501 11266 21290 39555 40404 57023
AAXX 07061 30935 41999 80000 11282 21313 39412 40469 58017 70341 80001
AAXX 07061 30949 42999 00000 11215 21255 39226 40423 58018
AAXX 07061 30965 42999 03001 11250 21281 39502 40420 57020
AAXX 07061 31168 42999 72302 11140 21211 30189 40201 57010 80001
AAXX 07061 31300 41997 50000 11227 21233 39989 40307 56014 74041 80001
AAXX 07061 31329 42699 60000 11256 21288 39589 40328 57023 81541
AAXX 07061 31369 42999 02502 11211 21229 30148 40239 57009
AAXX 07061 31416 42998 21902 11161 21174 30152 40247 56016 80001
AAXX 07061 31484 42999 02303 11104 21177 39903 40253 57012
AAXX 07061 31512 429// 01502 11147 21198 30137 40315 57025
AAXX 07061 31538 42999 00000 11186 21236 39865 40334 57012
AAXX 07061 31707 42999 03203 11103 21187 30227 40324 57014
AAXX 07061 31735 42997 02504 11163 21217 30209 40304 56007
AAXX 07061 31770 42999 63202 11078 21163 30220 40252 57009 80001
AAXX 07061 22028 12580 71802 11034 21037 39941 49979 58009 69902 81535 333 21061 48046 91003 93504
AAXX 07061 22106 11998 00000 11096 21108 39885 49966 57008 69982 72681 333 21099 47023
AAXX 07061 22127 11496 81001 11027 21030 39762 49963 57005 60022 78582 889// 333 21042 47032 86913 91003
AAXX 07061 22324 11457 81303 10001 21005 39896 49945 57008 60032 78582 889// 333 21002 43040 93707
AAXX 07061 22621 11358 81302 11005 21008 39791 49930 58011 60012 77172 8672/ 333 21005 47034 86707
AAXX 07061 22831 11496 80000 10000 20000 39888 49948 57004 60062 78582 889// 333 20000 43048 93700
AAXX 07061 22892 12997 21701 11030 21047 39925 49941 58002 69952 82030 333 21038 43002
AAXX 07061 26275 11598 72203 10001 21008 39961 49992 52016 60032 70272 87500 333 20001 47997 87626
AAXX 07061 26389 11496 81902 10003 21008 39731 49994 52009 60032 78582 889// 333 20001 43004
AAXX 07061 26499 12598 71803 10009 21002 39791 40020 52019 60012 87500 333 20009 43004 87628
AAXX 07061 26695 11396 82102 10014 20003 39722 40029 54000 69962 71022 886// 333 20013 43006 88708
AAXX 07061 26882 31450 72303 10012 20007 39769 40045 52011 71022 87500 333 20012 42997 87617
AAXX 07064 78526 11566 60000 10233 20230 30139 40162 58009 60041 761// 90556 333 10250 20228 555 90706
AAXX 07064 78543 35966 00505 10217 20217 30082 40161 58007 90553 333 10228 20211 555 90706
AAXX 07061 26997 11417 82301 10020 20017 39840 40059 52009 69992 71062 886// 333 20018 88710
AAXX 07061 27595 32597 81702 11071 21088 30074 40225 53010 8850/ 333 21073 88620 91111
AAXX 07061 27612 11396 81701 10018 20010 39848 40040 52010 60042 78082 889// 333 20018 43006
AAXX 07061 27707 11443 72501 10014 20009 39750 40043 52013 60032 72584 87900 333 20013 43014 84919
AAXX 07061 27719 11495 81604 10019 20014 39806 40055 51003 60042 78082 883// 333 20014 42004
AAXX 07061 27786 31496 81706 11075 21088 30065 40234 52009 77172 885// 333 21069 88612
AAXX 07061 27857 12498 81907 10005 21012 39974 40138 53010 69900 886// 333 20005 88710 91114
AAXX 07061 27906 11/93 91503 10036 20036 39816 40056 52016 60042 74782 333 20031 41997
AAXX 07061 27928 11496 81704 10019 20014 39871 40079 52002 60030 76162 885// 333 20010 42001
AAXX 07061 27947 31296 81608 10009 21002 39963 40123 54000 76162 8872/ 333 20005 42006 88706
AAXX 07061 27962 12397 81308 11048 21061 40190 52011 69900 885// 333 21031 88609
AAXX 07061 27983 31497 81703 11080 21090 30117 40252 53013 77172 886// 333 21078 88714
AAXX 07061 27995 31497 71603 11075 21092 40264 52007 77172 87500 333 21080 87714
AAXX 07061 28506 32997 81602 11071 21100 30146 40264 52009 86047 333 21066
AAXX 07061 28704 32998 81808 11080 21095 30166 40266 52012 8807/ 333 21079 91012 91113
AAXX 07061 28711 31998 81708 11091 21110 39889 40284 52004 73632 8005/ 333 21088 91014 91115
AAXX 07061 28807 31496 81705 11076 21102 30228 40281 52010 77172 885// 333 21082 88610
AAXX 07061 34009 11294 81703 10035 20033 39759 40061 52009 60052 76164 8872/ 333 20034 41997
AAXX 07061 34110 11496 81904 10024 20019 39808 40085 52011 60052 75165 886// 333 20022 88715
AAXX 07061 34123 11340 81605 10014 20009 39922 40107 52013 60020 71062 886// 333 20009 41997 88707
AAXX 07061 34152 32397 81403 11006 21010 39976 40176 52018 886// 333 20000 88707
AAXX 07061 34163 31498 80703 11056 21063 40209 70210 885// 333 88620 93401
AAXX 07061 34171 /1210 81506 11062 21063 30017 40217 52011 69900 77174 886// 333 21056 88703 93401 96042
AAXX 07061 34186 31296 81707 11076 21084 30104 40249 52007 77172 887// 333 21084 88705
AAXX 07061 34247 11559 10011 21003 30041 40156 52018 69900 71022 885// 333 20010 43005 88622
AAXX 07061 34336 32660 81604 10013 20008 30049 40154 52017 885// 333 20012 44009
AAXX 07061 34391 32597 81405 11061 21065 30213 40245 52018 885// 333 21080 88624
AAXX 07061 35011 32999 81102 11101 21137 40320 52010 85035 333 21098
AAXX 07061 35121 32998 71003 11126 21156 30198 40356 52006 87030 333 21120
AAXX 07064 91165 12466 43403 10222 20189 30165 40201 53012 69931 90553 333 10261 20222 555 90706
AAXX 07064 91182 32666 20609 10233 20178 30188 40194 53013 90553 333 10272 20217 555 90706
AAXX 07064 91190 32966 00610 10206 20139 30175 40195 53015 90554 333 10278 20167 91017 555 90706
AAXX 07064 91212 12566 40617 10294 20233 31387 40119 55012 69901 90554 333 10306 20267 555 90706
AAXX 07064 91285 32666 42405 10194 20156 30185 40199 53013 90553 333 10261 20161 555 90706
AAXX 07060 44210 32999 40000 11186 21235 38607 58019 84030
AAXX 07060 44216 32999 33203 11305 21327 39165 40518 58005 81059
AAXX 07060 44217 32998 30000 11174 21224 37915 40480 51003 80004
AAXX 07060 44219 32998 10000 11256 21288 38723 40542 58008 80004
AAXX 07060 44221 41995 80000 11275 21293 38695 40571 58005 77172 8802/
AAXX 07060 44224 NIL
AAXX 07060 44229 32999 52702 11230 21287 37966 40495 58007 82044
AAXX 07060 44242 32998 02301 11272 21303 39436 40472 57013
AAXX 07060 44243 32999 40501 11287 21321 39539 40486 58014 80004
AAXX 07060 44254 32998 12504 11235 21272 39120 40421 57016 80004
AAXX 07060 44257 32998 40000 11252 21299 39052 40462 57021 80006
AAXX 07060 44263 32998 00000 11222 21278 38130 40542 57009
AAXX 07060 44266 32999 00000 11144 21225 37812 40393 58002
AAXX 07060 44286 32998 11801 11143 21203 38704 40385 57009 80004
AAXX 07060 44291 31996 20000 11237 21271 38809 40485 58015 70410 80001
AAXX 07060 44325 32999 00502 11155 21189 38935 40431 58012
AAXX 07060 44329 32998 02302 11108 21161 37794 40347 58005 555 81003 82008
AAXX 07060 44338 32999 00000 11123 21185 38535 40385 58010
AAXX 07060 44348 32997 20000 11168 21174 38760 40401 57010 80004
AAXX 07060 44374 32999 00501 11085 21174 38308 40379 58013
AAXX 07060 44385 32999 02903 11092 21181 38988 40364 57025
AAXX 07060 44386 32999 22704 11171 21213 39135 40412 58022 80001
AAXX 07061 22271 31496 81507 11014 21025 30016 40026 58003 77187 8872/ 333 21036
AAXX 07061 22520 11396 81305 11006 21012 39919 49928 57007 69942 77172 8872/ 333 21006 88708
AAXX 07061 22550 11457 81503 10000 21011 39973 49983 57012 69930 77172 8802/ 333 21004 88517
AAXX 07061 22583 32380 81302 11009 21013 39963 40043 57016 886// 333 21016 88708
AAXX 07061 22768 NIL
AAXX 07061 22845 11496 81704 10007 21001 39814 49969 57006 60010 77172 8672/ 333 21009 86718
AAXX 07061 22887 11398 81703 10009 20004 39994 40064 58008 60020 78382 889// 333 20002 86709 91108
AAXX 07061 23205 NIL
AAXX 07061 23219 NIL
AAXX 07061 23418 11421 81503 11021 21036 30062 40136 52004 69900 77772 886// 333 21017 88711
AAXX 07061 23606 11462 81605 11017 21019 39943 40116 54000 69960 72272 8555/ 333 21019 85613
AAXX 07061 23711 NIL
AAXX 07061 23804 11298 81903 10007 21001 39968 40116 52002 60030 70276 8872/ 333 21005 86706
AAXX 07061 27037 11498 81705 10010 21001 39849 40010 53002 60010 72176 885// 333 20006 86712
AAXX 07061 27199 11498 81804 11010 21020 39957 40156 54000 69910 70252 886// 333 21001 93400
AAXX 07061 27271 11497 81405 10011 20006 39943 40099 56002 60020 70275 886// 333 20009 91112
AAXX 07061 27459 32498 81804 10012 21014 39916 40111 53003 8662/ 333 20012 88713
AAXX 07061 27730 11396 81704 10008 20000 39879 40074 52003 60060 76176 8872/ 333 20005 43012 88507
AAXX 07064 91245 32566 40610 10270 20230 30150 90559 555 90706
AAXX 07061 38598 41696 80000 11034 21055 40322 57010 71022 86531
AAXX 07061 38599 NIL
AAXX 07061 38725 42999 20000 11072 21197 48520 58009 80001
AAXX 07061 38734 42999 00502 11123 21175 47020 54000
AAXX 07061 38744 42999 00000 11134 21161 38018 48550 53002
AAXX 07061 38836 32999 40000 11007 21096 39330 40303 54000 80001 333 21098
AAXX 07061 38838 41993 00000 11091 21106 39620 40344 57003 74440
AAXX 07061 38844 42999 00503 11095 21220 48530 58012
AAXX 07061 38846 41996 32103 11082 21096 38525 48500 57004 71010 80003
AAXX 07061 38847 NIL
AAXX 07061 38932 NIL
AAXX 07061 38933 31997 20201 11023 21052 39777 40317 57002 70241 80001 333 21081
AAXX 07061 38944 32998 30000 11020 21039 39689 40248 57003 80001 333 21054
AAXX 07061 38954 32999 00000 11060 21145 37951 48560 52020 333 21100
BBXX 46111 07061 99481 71227 46/// /1707 10052 40259 53009 90600 22200 00049
BBXX 46112 07061 99481 71227 46/// /1305 10049 40262 53011 90600
AAXX 07061 38598 41696 80000 11034 21055 40322 57010 71022 86531
AAXX 07061 38599 NIL
AAXX 07061 38725 42999 20000 11072 21197 48520 58009 80001
AAXX 07061 38734 42999 00502 11123 21175 47020 54000
AAXX 07061 38744 42999 00000 11134 21161 38018 48550 53002
AAXX 07061 38836 32999 40000 11007 21096 39330 40303 54000 80001 333 21098
AAXX 07061 38838 41993 00000 11091 21106 39620 40344 57003 74440
AAXX 07061 38844 42999 00503 11095 21220 48530 58012
AAXX 07061 38846 41996 32103 11082 21096 38525 48500 57004 71010 80003
AAXX 07061 38847 NIL
AAXX 07061 38932 NIL
AAXX 07061 38933 31997 20201 11023 21052 39777 40317 57002 70241 80001 333 21081
AAXX 07061 38944 32998 30000 11020 21039 39689 40248 57003 80001 333 21054
AAXX 07061 38954 32999 00000 11060 21145 37951 48560 52020 333 21100
BBXX 44067 07061 99384 70770 46/// /2201 10098 40102 57003 90600
BBXX 41029 07061 99328 70796 46/// /2405 1//// 90600 555 11054 22055
BBXX 44034 07061 99441 70681 46/30 /3103 10046 40063 55000 90604 22200 00072 10603 70015 333 91204 555 11030 22031
BBXX 41037 07061 99340 70775 46/// /2610 10162 40165 58009 90600 22200 00189 333 91211
AAXX 07061 20107 32997 50902 11092 21148 30043 40142 57003 83031 333 21092 48085
AAXX 07061 22003 NIL
AAXX 07061 22004 NIL
AAXX 07061 22100 NIL
AAXX 07061 22140 NIL
AAXX 07061 22113 11359 80402 11063 21067 39909 49973 57006 69932 71082 889// 333 21069 47012 83707 91003 93514
AAXX 07061 22212 11457 83201 11042 21047 39799 49964 57005 69992 77172 8572/ 333 21065 47034 85714 91002
AAXX 07061 22213 NIL
AAXX 07061 22217 11456 80603 11005 21011 39913 49945 57009 60022 78582 889// 333 21037 47044 86711 91005
AAXX 07061 22235 11448 81202 11016 21018 39771 49965 57008 60032 78582 889// 333 21016 47039 88912 91004
AAXX 07061 22249 11478 81602 11017 21019 39798 49986 57004 60022 78582 889// 333 21017 47028 91003
AAXX 07061 22312 11460 81002 11004 21007 39920 49942 57006 60022 78582 889// 333 21010 44033 91004
AAXX 07061 22334 11464 81306 10004 21007 39941 49948 57009 69992 78582 889// 333 20001 44009 91006
AAXX 07061 22349 11496 81406 11004 21007 39963 49975 57010 60042 78582 889// 333 21004 47017 91008 91110
AAXX 07061 22408 11340 81301 11004 21007 39774 49922 53002 60022 77372 8872/ 333 21010 47039 88707
AAXX 07061 22602 NIL
AAXX 07061 22619 12280 81902 11001 21004 39760 49919 57007 69902 886// 333 21002 43019 88705
AAXX 07061 22721 11297 80000 10002 20002 39825 49925 57009 60052 77087 8872/ 333 20000 43058 86705 93709
AAXX 07061 22802 11582 82902 11027 21043 39919 49942 52007 60072 70282 885// 333 21027 43009 93710
AAXX 07061 22820 11384 71601 11001 21004 39790 49927 57001 60012 70272 87500 333 21002 47012 87608
AAXX 07061 26059 12697 71502 11039 21054 39936 49961 58003 69962 87500 333 21044 47001 87638
AAXX 07061 26063 11497 22502 11013 21042 39951 49959 53009 60022 70271 82500 333 21013 41000
AAXX 07061 26094 11358 82402 10004 21002 39880 49956 52009 60042 77775 886// 333 20004 43008 88709
AAXX 07061 26157 12697 61905 11018 21036 39915 49965 58013 69912 82530 333 21049
AAXX 07061 26167 11965 22302 11034 21051 39876 49990 52016 69972 70272 82031 333 21037 42003
AAXX 07061 26258 12998 42101 11036 21047 39937 49993 58001 60022 84030 333 21044 43004
AAXX 07061 26298 11496 81903 10005 21001 39767 49996 52014 60022 77772 886// 333 20003 43006
AAXX 07061 26359 11578 72002 11024 21053 39882 40018 52023 60012 70282 87500 333 21028 43004
AAXX 07061 26702 11496 52503 11002 21020 30028 40054 57015 69902 71011 855// 333 21002 45000 91006 91108
AAXX 07061 26781 11296 82502 10003 21003 39737 40030 52007 69932 77172 8802/ 333 20001 43003 88505
AAXX 07061 27208 11596 72003 10011 20003 39822 49997 53010 60022 71065 87500 333 20008 43005
AAXX 07061 27402 11597 71803 10017 20003 39838 40018 52006 60012 70262 87500 333 20013 43003 87632
AAXX 07061 28676 31597 81902 11080 21098 30240 40373 52015 70272 8657/ 333 21068
AAXX 07061 28766 31996 81803 11119 21143 30167 40369 52008 71011 84031 333 21117
AAXX 07061 28867 32598 62505 11116 21144 30096 40384 52015 86500 333 21125
AAXX 07061 28879 11597 81603 11094 21119 30087 40391 52007 69900 70272 8652/ 333 21085 91110
AAXX 07061 28952 32999 22003 11116 21144 30184 40388 52013 82040 333 21128
AAXX 07061 28966 11598 52104 11122 21132 30095 40397 52006 69900 70273 82530 333 21111
AAXX 07061 29802 11596 82503 11057 21072 30216 40365 53008 69900 71022 885// 333 21171
AAXX 07061 29807 32597 82504 11050 21083 30256 40378 52006 885// 333 21160
AAXX 07061 34691 32998 71107 11052 21073 30224 40211 53016 87030 333 21049
AAXX 07061 35067 32998 52003 11116 21133 30125 40420 52015 83032 333 21111
AAXX 07061 35078 11998 72605 11096 21103 30018 40419 52008 69900 70274 87010 333 21107
AAXX 07061 35085 32998 82403 11082 21092 39908 40407 52005 8805/ 333 21085
AAXX 07061 35108 32997 71604 11093 21123 30242 40290 52012 80001 333 21093
AAXX 07061 35188 11296 81901 11087 21106 39963 40420 52005 69900 71022 886// 333 21114 88703
AAXX 07061 35217 32998 31308 11088 21108 30251 40292 53008 80001 333 21104
AAXX 07061 35229 12998 00000 11158 21173 30095 40391 52018 69900 333 21174
AAXX 07061 35302 32998 21706 11094 21120 30254 40274 52009 80001 333 21094
AAXX 07061 35357 11597 81603 11143 21170 39959 40427 52005 69940 70272 885// 333 21256
AAXX 07061 35394 31998 21301 11167 21188 39709 40443 52002 70241 80002 333 21201
AAXX 07061 35406 32997 41505 11070 21104 30272 40275 52010 84030 333 21086
AAXX 07061 35416 32997 31208 11099 21147 30211 40338 51012 80001 333 21112
AAXX 07061 35426 32999 20000 11136 21156 30072 40385 53015 82031 333 21142
AAXX 07061 35497 32998 03401 11189 21216 39572 40444 52005 333 21233
AAXX 07061 35532 31992 01314 11138 21165 39843 40370 52012 73933 333 21136 91018
AAXX 07061 35671 32998 03502 11187 21216 39963 40434 52006 333 21227
AAXX 07061 35700 32998 01310 11051 21092 30281 40256 53021 333 21056 91015 91116
AAXX 07061 35746 32998 00404 11166 21185 30317 40390 53011 333 21173
AAXX 07061 35796 12999 00504 11155 21185 39948 40418 58001 69900 333 21180
AAXX 07061 35849 32998 00902 11152 21179 30281 40374 53006 333 21183
AAXX 07061 35925 32998 01407 11091 21111 40320 52010 333 21096
AAXX 07061 35953 11999 50602 11164 21190 30234 40375 57004 69900 70172 80002 333 21205
AAXX 07061 35969 32999 00503 11141 21168 30197 40383 54000 333 21215
AAXX 07061 36003 11597 82503 11066 21082 30236 40393 52006 69900 77072 8257/ 333 21203
AAXX 07061 36152 31996 81802 11138 21176 30218 40420 52001 71041 8802/ 333 21240
AAXX 07061 36177 12997 73102 11095 21126 30162 40422 52003 69920 87030 333 21107
AAXX 07061 36208 11699 62801 11078 21104 39382 40400 52003 69920 70277 82530 333 21100
AAXX 07061 36397 32699 61804 11105 21170 39822 40414 58003 86500 333 21117
AAXX 07061 36428 32799 41102 11187 21245 39907 40452 58003 81541 333 21258 95000
AAXX 07061 36535 32599 30000 11182 21225 39772 40459 52002 82530 333 21274
AAXX 07061 36639 32999 00000 11113 21166 39754 40393 57006 333 21244
AAXX 07061 36821 11599 80000 11071 21100 39867 40377 58006 69900 72682 889// 333 21082
AAXX 07061 36859 31/92 90401 11096 21112 39559 40382 58008 74942 333 21138
AAXX 07061 36864 31596 80703 11068 21080 39428 40359 57004 77772 886// 333 21076
AAXX 07061 36870 11/93 90000 11075 21088 39296 40353 58006 69900 77774 333 21074 96049
AAXX 07061 38001 32997 80509 11008 21050 30214 40184 53008 8807/ 333 21019
AAXX 07061 38062 11699 20903 11132 21167 30186 40361 58006 69900 70171 82080 333 21194
AAXX 07061 38069 32998 00000 11066 21094 30143 40344 53003 333 21156
AAXX 07061 38196 NIL
AAXX 07061 38198 NIL
AAXX 07061 38222 32998 20000 11050 21086 39764 40343 58007 82030 333 21085
AAXX 07061 38232 32998 11303 11015 21063 30145 40246 53013 81080 333 21047
AAXX 07061 38328 NIL
AAXX 07061 38334 NIL
AAXX 07061 38341 11596 80504 11050 21060 39518 40334 54000 69900 77772 886// 333 21051
AAXX 07061 38343 32698 80901 11049 21077 39462 40336 57002 885// 333 21062
AAXX 07061 38439 NIL
AAXX 07061 08521 32470 50104 10162 20106 30198 40269 58002 85800 333 20154 30/// 55057 84816
AAXX 07061 08524 32465 70403 10155 20102 30174 40272 57009 87800 333 20152 30014 5//// 55037 20800 86815 91006 91108
BBXX C6XP7 07063 99262 70789 41799 21809 1//// 2//// 40200 54/// 7//// 81289 22264 00240 2//// 3//// 4//// 5//// 6//// 8//// ICE /////
BBXX C6VG7 07064 99216 70860 41697 41117 10270 2//// 40190 54/// 7//// 83616 22214 00270 20402 3//// 40402 50402 6//// 8//// ICE /////
BBXX PDGS 07064 99275 71358 41/98 40715 10180 20160 40255 54000 70200 8//// 22264 00198 2//// 307// 40904 80167
BBXX HPYE 07063 99247 70801 41898 21408 10210 2015/ 40170 54/// 703// 82/5/ 22215 00260 2//01 3//// 4//// 5//// 6//// 80170 ICE /////
BBXX V7MO3 07064 99262 70910 41/// 41819 10219 20133 40155 5//// 7//10 8//// 22200 00230 20303 318// 40603 5//// 6//// 80166 ICE /////
BBXX C6FN2 07064 99260 70780 41397 41817 10200 20116 40210 56010 7//// 84640 22224 00260 20702 320// 41203 5//// 6//// 80150 ICE /////
BBXX C6TQ6 07064 99216 70864 41798 30924 10240 20196 40210 55020 70211 8346/ 22285 00270 20306 32222 40206 50204 6//// 80210 ICE /////
BBXX VRWG3 07064 99484 70076 41/// /2820 10130 20051 40310 54000 718// 8//// 22253 00150 21505 3//// 4//// 5//// 6//// 80090 ICE /////
BBXX V7HC6 07064 99273 70907 41/// /1618 10200 20185 40187 56003 702// 8//// 22200 00218 20402 323// 40502 5//// 6//// 80190 ICE /////
BBXX WBN3013 07064 99229 70717 41/// /0716 10233 2//// 40047 54000 7//// 8//// 22232 0//// 20502 30508 40702 50402 6//// 8//// ICE /////
BBXX WDF2728 07064 99285 70889 41597 60604 10183 2016/ 40200 54/// 7//22 83463 22273 0//// 20301 303// 40701 5//// 6//// 80167 ICE /////
AAXX 0706/ 89667 46/// ///// 4//// 5////
AAXX 0706/ 89799 46/// ///// 11249 4//// 5////
AAXX 0706/ 89108 46/// ///// 11199 36884 4//// 5////
AAXX 0706/ 89869 46/// ///// 11026 39658 4//// 5////
AAXX 0706/ 89866 46/// ///// 10006 39632 4//// 5////
AAXX 0706/ 89329 46/// ///// 11080 38638 4//// 5////
AAXX 0706/ 89332 46/// ///// 11048 39103 4//// 5////
AAXX 0706/ 89314 46/// ///// 11095 38133 4//// 5////
AAXX 07064 89667 46/// /0407 11005 39726 4//// 5////
AAXX 07064 91943 16/// /3410 10272 20219 30119 40121 51023 60024 333 20263 59011
AAXX 07064 91945 06/// /2708 10247 20229 30101 40106 51022 60051 333 69987 555 59015 60064
BBXX PHAL 07063 99303 70147 41/98 70217 10178 20121 40250 52008 70322 8//// 22283 2//// 80144 91256
AAXX 07061 45032 36/// /3302 10127 20080 30240 40257 54000
AAXX 07061 45035 36/// /3402 10128 20083 30214 40257 57004
AAXX 07061 45039 36/// /0502 10129 20095 30237 40252 54000
AAXX 07061 45044 36/// /0004 10144 20101 30151 40247 57002
BBXX DCPI2 07063 99363 70015 41/98 /1013 10168 20123 40276 53006 70200 8//// 22224 00140 2//// 80141
AAXX 07061 28676 31597 81902 11080 21098 30240 40373 52015 70272 8657/ 333 21068
AAXX 07061 28766 31996 81803 11119 21143 30167 40369 52008 71011 84031 333 21117
AAXX 07061 28867 32598 62505 11116 21144 30096 40384 52015 86500 333 21125
AAXX 07061 28879 11597 81603 11094 21119 30087 40391 52007 69900 70272 8652/ 333 21085 91110
AAXX 07061 28952 32999 22003 11116 21144 30184 40388 52013 82040 333 21128
AAXX 07061 28966 11598 52104 11122 21132 30095 40397 52006 69900 70273 82530 333 21111
AAXX 07061 29802 11596 82503 11057 21072 30216 40365 53008 69900 71022 885// 333 21171
AAXX 07061 29807 32597 82504 11050 21083 30256 40378 52006 885// 333 21160
AAXX 07061 34691 32998 71107 11052 21073 30224 40211 53016 87030 333 21049
AAXX 07061 35067 32998 52003 11116 21133 30125 40420 52015 83032 333 21111
AAXX 07061 35078 11998 72605 11096 21103 30018 40419 52008 69900 70274 87010 333 21107
AAXX 07061 35085 32998 82403 11082 21092 39908 40407 52005 8805/ 333 21085
AAXX 07061 35108 32997 71604 11093 21123 30242 40290 52012 80001 333 21093
AAXX 07061 35188 11296 81901 11087 21106 39963 40420 52005 69900 71022 886// 333 21114 88703
AAXX 07061 35217 32998 31308 11088 21108 30251 40292 53008 80001 333 21104
AAXX 07061 35229 12998 00000 11158 21173 30095 40391 52018 69900 333 21174
AAXX 07061 35302 32998 21706 11094 21120 30254 40274 52009 80001 333 21094
AAXX 07061 35357 11597 81603 11143 21170 39959 40427 52005 69940 70272 885// 333 21256
AAXX 07061 35394 31998 21301 11167 21188 39709 40443 52002 70241 80002 333 21201
AAXX 07061 35406 32997 41505 11070 21104 30272 40275 52010 84030 333 21086
AAXX 07061 35416 32997 31208 11099 21147 30211 40338 51012 80001 333 21112
AAXX 07061 35426 32999 20000 11136 21156 30072 40385 53015 82031 333 21142
AAXX 07061 35497 32998 03401 11189 21216 39572 40444 52005 333 21233
AAXX 07061 35532 31992 01314 11138 21165 39843 40370 52012 73933 333 21136 91018
AAXX 07061 35671 32998 03502 11187 21216 39963 40434 52006 333 21227
AAXX 07061 35700 32998 01310 11051 21092 30281 40256 53021 333 21056 91015 91116
AAXX 07061 35746 32998 00404 11166 21185 30317 40390 53011 333 21173
AAXX 07061 35796 12999 00504 11155 21185 39948 40418 58001 69900 333 21180
AAXX 07061 35849 32998 00902 11152 21179 30281 40374 53006 333 21183
AAXX 07061 35925 32998 01407 11091 21111 40320 52010 333 21096
AAXX 07061 35953 11999 50602 11164 21190 30234 40375 57004 69900 70172 80002 333 21205
AAXX 07061 35969 32999 00503 11141 21168 30197 40383 54000 333 21215
AAXX 07061 36003 11597 82503 11066 21082 30236 40393 52006 69900 77072 8257/ 333 21203
AAXX 07061 36152 31996 81802 11138 21176 30218 40420 52001 71041 8802/ 333 21240
AAXX 07061 36177 12997 73102 11095 21126 30162 40422 52003 69920 87030 333 21107
AAXX 07061 36208 11699 62801 11078 21104 39382 40400 52003 69920 70277 82530 333 21100
AAXX 07061 36397 32699 61804 11105 21170 39822 40414 58003 86500 333 21117
AAXX 07061 36428 32799 41102 11187 21245 39907 40452 58003 81541 333 21258 95000
AAXX 07061 36535 32599 30000 11182 21225 39772 40459 52002 82530 333 21274
AAXX 07061 36639 32999 00000 11113 21166 39754 40393 57006 333 21244
AAXX 07061 36821 11599 80000 11071 21100 39867 40377 58006 69900 72682 889// 333 21082
AAXX 07061 36859 31/92 90401 11096 21112 39559 40382 58008 74942 333 21138
AAXX 07061 36864 31596 80703 11068 21080 39428 40359 57004 77772 886// 333 21076
AAXX 07061 36870 11/93 90000 11075 21088 39296 40353 58006 69900 77774 333 21074 96049
AAXX 07061 38001 32997 80509 11008 21050 30214 40184 53008 8807/ 333 21019
AAXX 07061 38062 11699 20903 11132 21167 30186 40361 58006 69900 70171 82080 333 21194
AAXX 07061 38069 32998 00000 11066 21094 30143 40344 53003 333 21156
AAXX 07061 38196 31498 11403 11038 21105 39313 40324 58005 73633 81600 333 21070 91117
AAXX 07061 38198 32997 00804 11020 21062 30066 40333 58005 333 21093
AAXX 07061 38222 32998 20000 11050 21086 39764 40343 58007 82030 333 21085
AAXX 07061 38232 32998 11303 11015 21063 30145 40246 53013 81080 333 21047
AAXX 07061 38328 32999 01901 11054 21105 39559 40319 58006 333 21135
AAXX 07061 38334 12497 20803 11042 21088 39320 40314 58004 69920 82600 333 21065
AAXX 07061 38341 11596 80504 11050 21060 39518 40334 54000 69900 77772 886// 333 21051
AAXX 07061 38343 32698 80901 11049 21077 39462 40336 57002 885// 333 21062
AAXX 07061 38439 31596 80901 11060 21075 39974 40329 54000 71022 885// 333 21075
AAXX 07061 01015 46/// /1608 11033 21052 333 21044 91110
AAXX 07061 01180 11680 73303 11033 21071 39919 49977 57009 60002 70222 87500 333 21058 70000 91105
AAXX 07061 01450 16/// /1701 11048 21060 38801 49949 56018 69962 333 21061 70006 91104
AAXX 07061 01262 46/// /1108 10000 21024 333 21001 91110
AAXX 07061 01393 16/// /3201 11181 21199 39155 40006 56015 6//// 333 21204 91103
AAXX 07061 45032 36/// /3302 10127 20080 30240 40257 54000
AAXX 07061 45035 36/// /3402 10128 20083 30214 40257 57004
AAXX 07061 45039 36/// /0502 10129 20095 30237 40252 54000
AAXX 07061 45044 36/// /0004 10144 20101 30151 40247 57002
AAXX 07061 01277 16/// /0802 11035 21047 60002 333 21093 70011 91104
AAXX 07061 01476 16/// /2604 10030 20017 39944 49950 56032 6//// 333 20023 91108
AAXX 07061 01488 16/// /2801 11055 21062 60002 333 21066 70000 91103
AAXX 07061 28676 31597 81902 11080 21098 30240 40373 52015 70272 8657/ 333 21068
AAXX 07061 28766 31996 81803 11119 21143 30167 40369 52008 71011 84031 333 21117
AAXX 07061 28867 32598 62505 11116 21144 30096 40384 52015 86500 333 21125
AAXX 07061 28879 11597 81603 11094 21119 30087 40391 52007 69900 70272 8652/ 333 21085 91110
AAXX 07061 28952 32999 22003 11116 21144 30184 40388 52013 82040 333 21128
AAXX 07061 28966 11598 52104 11122 21132 30095 40397 52006 69900 70273 82530 333 21111
AAXX 07061 29802 11596 82503 11057 21072 30216 40365 53008 69900 71022 885// 333 21171
AAXX 07061 29807 32597 82504 11050 21083 30256 40378 52006 885// 333 21160
AAXX 07061 34691 32998 71107 11052 21073 30224 40211 53016 87030 333 21049
AAXX 07061 35067 32998 52003 11116 21133 30125 40420 52015 83032 333 21111
AAXX 07061 35078 11998 72605 11096 21103 30018 40419 52008 69900 70274 87010 333 21107
AAXX 07061 35085 32998 82403 11082 21092 39908 40407 52005 8805/ 333 21085
AAXX 07061 35108 32997 71604 11093 21123 30242 40290 52012 80001 333 21093
AAXX 07061 35188 11296 81901 11087 21106 39963 40420 52005 69900 71022 886// 333 21114 88703
AAXX 07061 35217 32998 31308 11088 21108 30251 40292 53008 80001 333 21104
AAXX 07061 35229 12998 00000 11158 21173 30095 40391 52018 69900 333 21174
AAXX 07061 35302 32998 21706 11094 21120 30254 40274 52009 80001 333 21094
AAXX 07061 35357 11597 81603 11143 21170 39959 40427 52005 69940 70272 885// 333 21256
AAXX 07061 35394 31998 21301 11167 21188 39709 40443 52002 70241 80002 333 21201
AAXX 07061 35406 32997 41505 11070 21104 30272 40275 52010 84030 333 21086
AAXX 07061 35416 32997 31208 11099 21147 30211 40338 51012 80001 333 21112
AAXX 07061 35426 32999 20000 11136 21156 30072 40385 53015 82031 333 21142
AAXX 07061 35497 32998 03401 11189 21216 39572 40444 52005 333 21233
AAXX 07061 35532 31992 01314 11138 21165 39843 40370 52012 73933 333 21136 91018
AAXX 07061 35671 32998 03502 11187 21216 39963 40434 52006 333 21227
AAXX 07061 35700 32998 01310 11051 21092 30281 40256 53021 333 21056 91015 91116
AAXX 07061 35746 32998 00404 11166 21185 30317 40390 53011 333 21173
AAXX 07061 35796 12999 00504 11155 21185 39948 40418 58001 69900 333 21180
AAXX 07061 35849 32998 00902 11152 21179 30281 40374 53006 333 21183
AAXX 07061 35925 32998 01407 11091 21111 40320 52010 333 21096
AAXX 07061 35953 11999 50602 11164 21190 30234 40375 57004 69900 70172 80002 333 21205
AAXX 07061 35969 32999 00503 11141 21168 30197 40383 54000 333 21215
AAXX 07061 36003 11597 82503 11066 21082 30236 40393 52006 69900 77072 8257/ 333 21203
AAXX 07061 36152 31996 81802 11138 21176 30218 40420 52001 71041 8802/ 333 21240
AAXX 07061 36177 12997 73102 11095 21126 30162 40422 52003 69920 87030 333 21107
AAXX 07061 36208 11699 62801 11078 21104 39382 40400 52003 69920 70277 82530 333 21100
AAXX 07061 36397 32699 61804 11105 21170 39822 40414 58003 86500 333 21117
AAXX 07061 36428 32799 41102 11187 21245 39907 40452 58003 81541 333 21258 95000
AAXX 07061 36535 32599 30000 11182 21225 39772 40459 52002 82530 333 21274
AAXX 07061 36639 32999 00000 11113 21166 39754 40393 57006 333 21244
AAXX 07061 36821 11599 80000 11071 21100 39867 40377 58006 69900 72682 889// 333 21082
AAXX 07061 36859 31/92 90401 11096 21112 39559 40382 58008 74942 333 21138
AAXX 07061 36864 31596 80703 11068 21080 39428 40359 57004 77772 886// 333 21076
AAXX 07061 36870 11/93 90000 11075 21088 39296 40353 58006 69900 77774 333 21074 96049
AAXX 07061 38001 32997 80509 11008 21050 30214 40184 53008 8807/ 333 21019
AAXX 07061 38062 11699 20903 11132 21167 30186 40361 58006 69900 70171 82080 333 21194
AAXX 07061 38069 32998 00000 11066 21094 30143 40344 53003 333 21156
AAXX 07061 38196 31498 11403 11038 21105 39313 40324 58005 73633 81600 333 21070 91117
AAXX 07061 38198 32997 00804 11020 21062 30066 40333 58005 333 21093
AAXX 07061 38222 32998 20000 11050 21086 39764 40343 58007 82030 333 21085
AAXX 07061 38232 32998 11303 11015 21063 30145 40246 53013 81080 333 21047
AAXX 07061 38328 32999 01901 11054 21105 39559 40319 58006 333 21135
AAXX 07061 38334 12497 20803 11042 21088 39320 40314 58004 69920 82600 333 21065
AAXX 07061 38341 11596 80504 11050 21060 39518 40334 54000 69900 77772 886// 333 21051
AAXX 07061 38343 32698 80901 11049 21077 39462 40336 57002 885// 333 21062
AAXX 07061 38439 31596 80901 11060 21075 39974 40329 54000 71022 885// 333 21075
AAXX 07061 01265 16/// /0000 11173 21191 39383 40002 56017 60002 333 21195 70013 91102
AAXX 07061 01375 16/// /1705 11080 21085 6//// 333 21081 91107
AAXX 07061 01440 46/// /2909 11021 21023 38664 49935 58015 333 21047 91112
AAXX 07061 01441 16/// /0000 11031 21041 38952 49937 56014 60032 333 21043 70038 91102
BBXX 3ERR2 07064 99635 10053 41698 81117 10040 21028 49899 57021 70222 8802/ 22200 06089 11105 70025 333 91122
BBXX LF3F 07064 99643 10078 41698 61209 10029 21044 49929 57021 70222 8650/ 22200 04084 10905 70024 333 91113
BBXX LF3N 07064 99653 10073 41598 60911 10032 21038 49936 57015 70282 8//// 22200 00091 10806 70031
BBXX LF4B 07064 99606 10037 47/98 /3020 10063 49928 52003 723// 22200 00058 10706 70032 333 91130
BBXX LF4C 07064 99584 10019 41597 72928 10071 20041 49988 57004 702// 89/// 22200 00065 10706 70032 333 91134
BBXX LF5T 07064 99660 10081 41598 /0911 10024 21045 49948 57010 715// 22200 10806 70032 333 91116
AAXX 07061 01380 11375 81001 11085 21098 69952 70222 886// 333 21089 49050 70018 91102
BBXX 46207 07061 99509 71299 46/// /1808 10075 40197 57007 22200 00079 11407 70035 333 91210
AAXX 07064 NIL
AAXX 07064 82022 32570 41006 10258 20211 30014 40110 82130 333 59014
AAXX 07064 82193 32970 00402 10249 20234 30086 40104 333 59001
AAXX 07064 82281 32970 00609 10270 20202 30036 40098 333 59004
AAXX 07064 82332 21250 81102 10228 20223 30023 40117 71062 8662/ 333 59013 60051
AAXX 07064 82398 32470 41111 10253 20222 30081 40110 84500 333 59002
AAXX 07064 82400 NIL
AAXX 07064 82579 32970 03602 10253 20233 30022 40098 333 59002
AAXX 07064 82917 32570 33203 10215 20212 39875 40096 81230 333 59006
AAXX 07064 82965 NIL
AAXX 07064 82993 32570 30403 10231 20222 39995 40131 83200 333 59004
AAXX 07064 83208 NIL
AAXX 07064 83349 21456 52803 10237 20229 30133 40139 76086 85800 333 58000 60041
AAXX 07064 83362 21569 73013 10234 20213 39885 40097 79592 84330 333 59017 69911
AAXX 07064 83378 21462 63605 10178 20165 38968 48520 76162 85510 333 58016 60021
AAXX 07064 83460 32570 52703 10218 20208 30083 40140 85100 333 58002
AAXX 07064 83497 NIL
AAXX 07064 83566 21130 60000 10170 20166 39221 48490 71022 85730 333 69941
AAXX 07064 83599 NIL
AAXX 07064 83612 32970 00706 10222 20163 39465 48510 57017
AAXX 07064 83649 32570 73403 10240 20219 30141 40146 58013 83534
AAXX 07064 83650 NIL
AAXX 07064 83780 NIL
AAXX 07064 83827 32970 01202 10202 20170 39818 40089 55006
AAXX 07064 83840 32970 02602 10168 20162 39116 48520 58019
AAXX 07064 83899 32570 12506 10215 20203 30110 40116 56013 81500
AAXX 07064 83925 NIL
AAXX 07064 83970 NIL
AAXX 07064 83971 32470 11705 10223 20214 30130 40134 58003 81500
AAXX 07064 82143 NIL
AAXX 07064 82599 32570 31108 10256 20219 30060 40120 83100 333 59002
AAXX 07064 82824 32970 41004 10257 20240 30007 40108 84070 333 59014
AAXX 07064 82899 32570 20808 10267 20211 30117 40129 82100 333 58005
AAXX 07064 83117 NIL
AAXX 07064 83248 32470 30102 10269 20246 30112 40134 83200 333 59000
AAXX 07064 83746 21470 71606 10240 20206 30101 40111 57013 70262 84530 333 69911
AAXX 07064 NIL
AAXX 07064 NIL
AAXX 07064 NIL
AAXX 07064 NIL
AAXX 07064 NIL
AAXX 07064 NIL
AAXX 07064 NIL
AAXX 07064 NIL
AAXX 07064 NIL
AAXX 07063 87480 32962 10910 10222 20162 30125 40154 51007 81070 333 56020 81360
AAXX 07063 87532 31965 50913 10244 20140 39977 40139 50007 70721 80002 333 56006 85070
AAXX 07064 87344 32960 22906 10204 20069 39614 40143 54000 82070 333 56000 82360
AAXX 07064 87349 32970 22302 10183 20128 39764 40146 58004 80006 333 56006 82270
AAXX 07064 87371 32962 00909 10237 20170 30128 40149 51005
AAXX 07064 87374 32965 00905 10251 20113 30058 40142 51008
AAXX 07064 87395 32965 01410 10230 20141 30098 40142 50005
AAXX 07064 87418 32665 63604 10225 20144 39361 40125 52023 84570 333 56660 84640
AAXX 07064 87436 11670 63607 10212 20148 39348 40128 52017 60211 70292 84575 333 56556 84640 84360
AAXX 07064 87448 32965 73605 10218 20142 39586 40124 50001 82076 333 56076 82360 85270
AAXX 07064 87453 NIL
AAXX 07064 87467 32970 50911 10223 20155 30018 40148 52007 80006 333 56009 85270
AAXX 07064 87497 NIL
AAXX 07064 87506 NIL
AAXX 07064 87509 11670 63207 10193 20148 39290 40114 57020 60011 70162 86500 333 56500 86640
AAXX 07064 87534 32960 60508 10231 20117 39989 40143 52012 80006 333 56006 86270
AAXX 07064 87548 32965 00908 10190 20142 30066 40159 52001
AAXX 07064 87576 32960 01406 10182 20155 30157 40180 58008
AAXX 07064 87582 NIL
AAXX 07064 87585 32460 31403 10220 20174 30144 40173 58008 83600 333 56200 83715
AAXX 07064 17330 11670 61302 10113 20081 30125 40143 52006 60072 70282 82270 333 20096 32009 50081 55000 70068 82840 86360
AAXX 07061 34560 11217 81206 11013 21013 30023 40193 52017 69940 74942 886// 333 21016 41001 88704
AAXX 07061 34720 32397 80904 10014 20007 30083 40123 53013 87630 333 20010
AAXX 07061 34730 31230 81008 10013 20009 30042 40135 52013 71042 886// 333 20000 88703
AAXX 07061 34740 31494 81205 10015 20015 30051 40149 53009 71054 886// 333 20014
AAXX 07061 34824 32597 81203 10019 21014 30093 40098 52015 82531 333 20023
AAXX 07061 34858 31495 81202 10020 20016 30059 40168 52014 71042 886// 333 20015
AAXX 07061 34866 32498 81105 10018 20012 30185 40177 51017 8860/ 333 20022
AAXX 07061 34880 31596 80903 11010 21028 30228 40201 51020 71022 8637/ 333 21006 88922
AAXX 07061 37018 32998 81504 10126 21008 30027 40101 53012 80004 333 20103
AAXX 07061 37054 31/93 91602 11037 21039 39783 40181 52018 74544 333 21031 93400
AAXX 07061 37472 32597 82604 10034 20002 30190 40167 52021 8657/ 333 20011
AAXX 07064 17096 12570 52403 11031 21067 38228 48502 52010 60002 83550 333 21082 3/108 47010 50044 55000 20184 70004 83630 85358
AAXX 07061 22165 NIL
AAXX 07061 22676 11473 81203 10005 21001 39957 40035 56010 69900 77072 885// 333 21008
AAXX 07061 22954 11359 81806 10003 21003 39749 49996 56003 60020 77172 887// 333 21006 85708
AAXX 07061 23405 32269 81303 11011 21021 39997 40097 58003 886// 333 21017 88706
AAXX 07061 23412 11399 81203 11019 21030 40031 50128 69940 70282 887// 333 21029 86707
AAXX 07061 23803 11499 81805 10004 21002 39970 40150 52005 60040 70272 889// 333 21022 88917
AAXX 07061 27066 11496 81804 10007 20001 39902 40079 57002 60030 77172 8872/ 333 20004 88710
AAXX 07061 27083 11468 81705 10007 21004 39887 40109 58005 60020 76162 885// 333 20002
AAXX 07061 27113 11256 81904 10011 20006 39847 49992 53006 60040 76186 8672/ 333 20006 86704
AAXX 07061 27242 11465 83404 10008 20008 39915 40042 53006 60032 78582 889// 333 20008 88717
AAXX 07061 27329 11464 81303 10009 20004 39912 40037 53009 60020 76186 887// 333 20009
AAXX 07061 27355 11496 81605 10002 21004 39921 40086 53003 60010 77172 8872/ 333 20005
AAXX 07061 27373 12399 81608 10004 21002 39912 40131 53006 60020 886// 333 20004 88708 91114
AAXX 07061 27665 32497 81704 11008 21033 39871 40144 52004 886// 333 21002 88714
AAXX 07061 27835 11345 81604 10010 20002 39936 40095 53007 60040 71076 886// 333 20004 88707
AAXX 07061 28009 32598 81905 11008 21027 39970 40182 52001 69900 885// 333 21006
AAXX 07061 28411 32997 71407 11082 21109 30062 40266 52008 87030 333 21069
AAXX 07061 28418 31999 81502 11068 21105 30097 40271 52001 70231 80004 333 21063
AAXX 07064 64500 32460 81404 10256 20239 30095 40108 885// 333 02400 20252 50191 55052 59008 84610 88633
AAXX 07063 64501 32358 72104 10260 20237 3//// 4//// 878// 333 0//00 20258 50314 55081 5//// 84808 87626 94919 95839
AAXX 07063 64507 NIL
AAXX 07063 64510 NIL
AAXX 07064 64550 32470 8//// 10240 20225 30/// 40/// 885// 333 02200 20230 50114 55/// 5//// 84613 88620
AAXX 07064 64551 32260 70000 10238 20226 30088 40117 8453/ 333 0//00 20224 50054 55/// 58004 84605 87360
AAXX 07064 64556 NIL
AAXX 07064 64570 31100 8//// 10228 20228 3//// 4//// 74442 886// 333 02200 2//// 50154 55/// 5//// 85702 88610
AAXX 07061 22282 129// 61801 11015 21026 30027 40035 54000 69920 86050 333 21020
AAXX 07061 22438 NIL
AAXX 07061 22471 11484 81604 11008 21021 39998 4002/ 57005 69900 70282 885// 333 21011 88615
AAXX 07061 22563 NIL
AAXX 07061 22641 11397 81303 10002 21004 39937 49953 57013 60030 77187 8872/ 333 21005 86707 91107
AAXX 07061 22695 11498 81803 11007 21014 39919 40072 57002 69960 70272 887// 333 21014 87712
AAXX 07061 22867 11497 81502 10008 21000 39899 40012 57006 69950 77172 8872/ 333 21007 88713 91107
AAXX 07061 22939 11496 81805 10008 20003 39812 49973 53003 60020 77172 8872/ 333 20004 84712
AAXX 07061 22996 11496 81804 10003 21005 39936 40127 58001 60030 78587 8592/ 333 21007
AAXX 07061 23324 11476 81702 11027 21040 30076 40155 52005 69920 70272 886// 333 21067 88712
AAXX 07061 27051 11396 81604 10008 20003 39865 40030 57005 60030 77187 8652/ 333 20004 84707
AAXX 07061 27225 11459 82203 10016 20005 39887 40017 53007 60010 75152 886// 333 20011 88716
AAXX 07061 27252 11450 81604 10004 21002 39877 40063 57007 60020 77172 8877/ 333 20004 88714
AAXX 07061 27333 11275 81708 10008 20003 39884 40042 52004 60030 77172 8777/ 333 20004 43003 87705 91012
AAXX 07061 27369 12698 81705 10015 21010 39982 40120 53002 69900 8851/ 333 20011
AAXX 07061 27393 31998 81808 11068 21097 30032 40206 52017 73632 8802/ 333 21018 91114
AAXX 07061 27479 32478 81505 11027 21040 30021 40157 53011 886// 333 20004 88710
AAXX 07061 27532 11396 81706 10005 21001 39850 40063 52006 60030 77177 8872/ 333 20005 86706
AAXX 07061 27648 11395 81705 10001 21007 39932 40101 58001 69980 71022 886// 333 20004 88708
AAXX 07061 27675 32597 81410 11034 21048 30000 40174 52013 885// 333 21035 88621 91116
AAXX 07061 27679 31497 81506 11051 21061 39956 40186 52003 77173 8872/ 333 21028 88516
AAXX 07061 28214 32699 81806 11049 21098 30007 40228 53008 82506 333 21020
AAXX 07063 64400 11340 80000 10250 20235 30097 40117 69914 887// 333 02351 20235 50204 55067 59006 84705 88620
AAXX 07063 64401 NIL
AAXX 07064 64450 32158 30000 10228 20216 39754 40107 81130 333 02100 20225 50184 55014 59010 81703
AAXX 07063 64453 32260 82204 10219 20213 39/// 40/// 8667/ 333 02100 20212 50024 55041 5//// 86705 88363
AAXX 07063 64456 32458 80000 10228 20216 39/// 40/// 8392/ 333 0//00 20225 50224 55056 5//// 82613 81926 88462 94943 95813
AAXX 07063 64458 31430 50000 10222 20216 39712 40098 71011 83502 333 01800 20209 50224 55/// 59004 83610 85080
AAXX 07063 64459 31920 62202 10193 20185 39757 40118 71011 80002 333 02000 20186 50034 55/// 58011 86076
AAXX 07063 64460 NIL
BBXX 46207 07061 99509 71299 46/// /1808 10075 40197 57007 22200 00079 11407 70035 333 91210
AAXX 07064 40100 12560 11103 10151 20027 30132 40164 53006 60164 81200 906// 333 20114 32/// 50334 55024 20527 81826 92428
AAXX 07064 40101 12958 00000 10031 20016 39099 48487 52008 60054 906// 333 20022 31/// 50074 55017 20606
AAXX 07064 40103 12565 11604 10078 20043 40174 52012 60104 81100 333 20075 32/// 50164 20337 81824 555 10184
AAXX 07064 40102 NIL
AAXX 0706/ 89767 46/// ///// 11037 39604 4//// 5////
AAXX 07064 89578 46/// /1010 11306 36850 4//// 5////
BBXX BAREU08 07064 99186 70673 46/// ///// 40167 57014 22254
BBXX BAREU00 07064 99452 70465 46/// ///// 40038 52033 22263
BBXX BATFR14 07064 99298 70411 44/98 81714 10210 20179 40204 57020 70122 8//// 22254 00212
BBXX BATEU05 07064 99662 70540 46/// /1311 11098 49989 56043 22282
BBXX FVNM 07064 99210 70866 46/// /0814 10237 20165 40189 58006 22281 00267
BBXX PHCQ 07064 99406 70665 41998 02208 10090 20073 40174 70200 80000 22214 20204 3//// 4//// 5//// 80081
BBXX 41101 07064 99146 70562 46/// /0516 10258 20215 40136 57012 22200 00266 11005 70026
BBXX C6CU6 07063 99076 70490 41597 50920 10270 20263 40120 57010 70211 843/5 22233 04274 20805 308// 41005 5//// 80265
BBXX DCSL2 07064 99369 71474 41298 82025 10160 20160 40180 53020 70222 887// 22224 00157 20304 327// 40306 80160
BBXX A8VL7 07064 99161 70578 41697 50905 10250 20207 40145 58005 70322 83575 22274 04260 20804 335// 40804 80220
BBXX BATFR08 07064 99471 30578 46/// /3533 10092 20072 40000 58044 22223 00079
BBXX BATFR19 07064 99061 30059 46/// /2109 10247 20209 40129 53011 22200 00257
BBXX C6JE5 07063 99236 50345 41/97 40515 10240 20194 40173 54000 70211 8//// 22273 04260 2//// 3//// 4//// 5//// 80210
BBXX DPTL 07064 99110 70173 41/97 31512 10260 20194 40100 56010 70200 83/// 22274 2//// 3//// 4//// 5//// 80215
BBXX A8RW3 07063 99354 30118 41598 71810 10190 20142 40180 54000 70322 86462 22224 04200 21402 325// 41407 80160
BBXX DGLM 07063 99038 10095 41996 19902 10265 20237 40111 53011 70500 80007 22200 299// 30000 80245
BBXX A8CE9 07064 99169 10540 41298 10305 10258 20203 40183 51020 70200 81100 22200 04270 29901 311// 41401 80220
BBXX MGGK4 07060 99139 70176 41/97 /3607 10220 20166 40145 56018 70000 8//// 22243 04231 2//// 3//// 4//// 5//// 80185
BBXX BATFR35 07064 99167 51512 46/// /3221 10257 20217 40094 22222 00287
BBXX A8CG7 07060 99343 31655 41597 52310 10223 40110 51010 7//// 84446 22274 29904 3//// 4//// 5////
BBXX A8SG2 07061 99350 51790 41396 80521 10200 20192 40015 58023 78082 887// 22223 00190 20607 306// 41006 5//// 80195
AAXX 07061 14258 12670 10000 11003 21024 30000 40194 52021 60002 81100 333 21003 32100
BBXX BAREU54 07064 99021 70795 46/// ///// 40114 57010 22253
BBXX BATFR53 07064 99107 51030 44598 21216 10232 20162 40167 50013 70100 82100 22223 00232 202// 31322 40602 5////
BBXX IDDUK02 07064 99539 50376 46/// ///// 40021 222//
BBXX DCAX2 07063 99334 51114 41496 80922 10190 20125 40290 54000 70322 87779 22223 21004 311// 41004 5//// 80151
AAXX 07064 60101 32456 31406 1//// 2//// 40260 56010 83500 333 2//// 82710 83616
AAXX 07064 60156 17303 00000 10024 20015 40264 58003 60004 73310 333 20010
AAXX 07064 60230 15960 01602 10051 21018 40254 58007 60004 333 20034
AAXX 07064 78762 32670 50206 10195 20156 39106 40122 52007 8253/ 333 10247 20182 30/// 5622/ 59004 82635 83360
AAXX 07061 11130 17/// /2501 10005 20001 39646 40252 55007 60042 7408/ 333 10023 20003 3/000 55300
AAXX 07063 64401 32460 60000 10222 20213 39746 40118 86500 333 02100 20212 50214 55047 59001 83616 85620
AAXX 07064 65501 32960 70000 10140 21019 39828 40148 80002 333 01200 20140 50634 55089 59010 87076
AAXX 07064 65502 32960 50000 10151 21002 39759 40142 80002 333 01400 20151 51094 55099 59005 85076
AAXX 07064 65503 32960 50404 10161 20014 39791 40139 81032 333 01000 20159 50640 55100 51768 59006 81363 85076
AAXX 07064 65505 32960 50406 10175 21010 39796 40136 80002 333 01600 20170 51114 55102 59005 85076
AAXX 07064 65507 32960 70406 10156 21027 39779 40132 80002 333 01500 20156 50844 55092 59010 87076
AAXX 07064 65510 32960 50406 10185 21002 39613 40128 80002 333 01600 20183 51090 55098 59004 85076
AAXX 07064 65516 32960 60000 10159 20015 39823 40132 80002 333 01400 20151 50754 55101 59004 86076
AAXX 07064 65518 32965 73602 10158 21004 39760 40125 80002 333 01200 20146 50794 55099 59007 87076
AAXX 07064 65522 32960 70000 10161 20039 39798 40127 80002 333 01200 20161 50894 55100 59005 87076
AAXX 07061 08501 NIL
AAXX 07061 08505 NIL
AAXX 07061 08506 32/// /1606 10157 20128 30230 40302 57009 333 20155 30015 5//// 55027 20541 555 60005
AAXX 07061 08509 32460 21502 10140 20133 30244 40309 58004 82800 333 20140 50124 55068 81815 555 60007
AAXX 07061 08511 32/// /0503 10141 20140 30200 40309 57003 333 20140 30012 5//// 55024 25202 555 60005
AAXX 07061 08512 12/// /0603 10142 20130 30219 40306 57005 60052 333 20138 30013 5//// 55066 20981 91107 555 69945
AAXX 07061 08515 31480 2//// 10140 20121 30194 40310 57005 70151 82800 333 20130 32012 50234 55076 21070 81815 555 60005
AAXX 07061 08521 32470 50104 10162 20106 30198 40269 58002 85800 333 20154 30/// 55057 84816 555 60007
AAXX 07061 08522 32/// /0201 10152 20103 30197 40267 57006 333 20145 30011 5//// 55074 21220 555 60005
AAXX 07061 08524 32465 70403 10155 20102 30174 40272 57009 87800 333 20152 30014 5//// 55037 20800 86815 91006 91108 555 60005
AAXX 07061 08530 NIL
AAXX 07061 08531 32/// /0702 10102 20090 30249 40289 57003 333 20100 30007 5//// 55053 20773 555 60005
AAXX 07061 08532 NIL
AAXX 07061 08533 32/// /0702 10078 20029 30239 40269 54000 333 20055 30001 5//// 55086 21382 555 60005
AAXX 07060 08534 32970 10603 10076 20072 30268 40286 55002 80001 333 20058 50064 55090 81072 555 60007
AAXX 07060 08535 NIL
AAXX 07060 08537 NIL
AAXX 07061 08540 31935 21601 10036 20032 30218 40290 55006 71011 80001 333 20036 50074 55081 82071 555 60007
AAXX 07061 08541 32/// /9901 10094 20025 30156 40278 57003 333 20082 30002 5//// 55081 21174 555 60005
AAXX 07061 08544 31950 22002 10028 20023 30272 40293 55001 71000 80001 333 20028 50094 55078 82070 555 60007
AAXX 07061 08545 31962 30805 10107 20053 30216 40301 54000 70300 80001 333 20090 31004 50154 55076 20848 83075 91108 555 60005
AAXX 07061 08548 NIL
AAXX 07061 08551 32/// /1003 10072 20057 30247 40307 54000 333 20072 30005 5//// 55081 21335 91105 555 60005
AAXX 07061 08554 31970 00505 10143 20049 30258 40268 57001 70200 333 20062 30007 5//// 55086 21218 555 60005
AAXX 07061 08558 32/// /0702 10051 20038 39986 40290 57003 333 20045 30000 5//// 55002 21039 555 60005
AAXX 07061 08560 32/// /0708 10078 20039 39536 40306 54000 333 20074 30006 5//// 55076 20997 91112 555 60005
AAXX 07061 08561 32970 21104 10058 20031 30045 40286 55003 80001 333 20033 50074 55047 82070 555 60007
AAXX 07061 08562 32/// /1103 10070 20025 39980 40281 57002 333 20059 30000 5//// 55054 21016 91105 555 60005
AAXX 07061 08567 32/// /0502 10068 20044 39657 40337 52001 333 20042 30001 5//// 55064 20844 555 60005
AAXX 07061 08568 NIL
AAXX 07061 08570 32/// /0602 10083 20046 39837 40305 54000 333 20081 30006 5//// 55083 21026 555 60005
AAXX 07061 08571 32/// /0803 10130 20038 39584 40286 57003 333 20118 30010 5//// 55072 21054 91006 91107 555 60005
AAXX 07061 08575 32/// /0000 10008 20000 39511 40358 57002 333 20007 30101 5//// 55068 20773 555 60005
AAXX 07061 08579 32/// /2402 10075 20059 30160 40288 54000 333 20075 30006 5//// 55084 21054 555 60005
AAXX 07061 14235 12970 0//// 11029 21070 39008 48451 53014 60002 333 21029 34/// 41998
AAXX 07061 14246 12984 22802 11024 21047 39986 40199 53014 60002 81031 333 21027 34108
AAXX 07061 14314 12980 00506 10079 21067 30111 40176 52022 60002 333 20078 31003 70000 92323 92438
AAXX 07061 14323 12682 10102 10044 21041 30151 40186 52026 60002 81500 333 20036 31001 92312 92428
AAXX 07061 14324 NIL
AAXX 07061 14328 12670 20000 11040 21048 39795 40209 53020 60002 81540 333 21040 34109
AAXX 07061 14330 NIL
AAXX 07061 14438 12680 13406 10058 21070 30056 40149 53025 60002 81100 222// 00140 333 20056 31002 9232/
AAXX 07061 14443 32998 034// 10090 20040 30014 40113 52025 333 20090 92356
AAXX 07061 14447 12684 13506 10074 21056 30100 40131 52/// 60002 81100 222// 00148 333 20071 31007 92322
AAXX 07061 14472 12670 20208 10077 21078 30006 40071 53037 60002 82200 222// 00145 333 20077 31/// 92312
BBXX BAREU56 07064 99444 10089 46/// ///// 40194 22200
BBXX TESTFR9 07064 99507 70011 46/// /2721 10102 29094 40225 57001 22273
BBXX BAREU60 07064 99435 10164 46/// ///// 40136 52015 22223
BBXX BAREU04 07064 99477 70248 46/// ///// 40308 52003 22223
BBXX BAREU51 07064 99400 10136 46/// ///// 40121 52028 22284
BBXX BATFR21 07064 99427 10089 46/// /1904 40197 53001 22233
BBXX BATFR02 07064 99572 10084 46/// /3035 10074 20059 49972 56048 22214 00094
BBXX BATFR22 07064 99413 10093 46/// /0706 10140 40200 53002 22214 00147
BBXX BATFR15 07064 99495 70041 46/// /2727 10114 20104 40250 53011 22253 00120
BBXX BATFR31 07064 99433 10053 46/// /3319 10070 20064 40232 53035 22232 00127
BBXX A8QJ7 07064 99493 70098 41/97 82812 10120 20110 40294 58003 75800 8//// 22263 2//// 3//// 4//// 5//// 80115
BBXX BATEU04 07064 99581 10018 46/// /3026 10069 20034 40004 56013 22222
BBXX BATFR05 07064 99314 70122 46/// /0517 10159 20122 40244 56007 22212 00167
BBXX BATFR52 07064 99508 70011 46/// /2623 10104 20084 40205 56015 22282 00087
BBXX BATFR58 07064 99432 10067 46/// /3014 40200 53005 22200 00154
BBXX BATFR60 07064 99531 10041 46/// /2634 10090 20057 40092 53001 22252 00079
BBXX BATFR04 07064 99575 70061 46/// /2509 10069 20012 40100 50007 22200 00097
BBXX BATFR12 07064 99487 70065 46/// /2716 10114 20107 40298 58001 22200 00132
BBXX BATFR16 07064 99463 70171 44497 82508 10129 20120 40350 56004 70222 885// 22224 00134 20300
BBXX BATFR42 07064 99507 70020 46/// /2818 10099 20094 40216 55013 22261 00117
BBXX BATEU08 07064 99587 70056 46/// /3437 10077 20032 40033 53006 22251
BBXX BATEU06 07064 99478 70101 46/// /2818 10144 20112 40316 52009 22254 00134
BBXX BAREU06 07064 99364 70025 46/// ///// 40282 52005 22264
BBXX BATFR34 07064 99476 70053 46/// /3117 4//// 22231 00132
BBXX 61001 07064 99434 10078 46/// /1409 10123 20048 40184 52002 22200 00133 10702 70010
BBXX V2JU 07060 99359 70063 41198 10905 10200 20193 40260 57000 7//42 8117/ 22264 20201 3//// 4//// 5//// 80195
BBXX SHIP 07064 99461 70193 41398 82409 10135 20127 40350 54000 70222 888// 22224 04130 2//// 80130
BBXX BATUK01 07064 99580 70035 46/// /2833 10059 20012 40048 53016 22251 00077
BBXX 61002 07064 99421 10047 46/// ///34 10107 2//// 40238 52006 22200 00132 10809 70047 555 1/046
BBXX BAREU12 07064 99473 70243 46/// ///// 40305 57014 22264
AAXX 07064 04005 41480 83606 10026 21001 49988 52049 76162 8422/ 555 3/207
AAXX 07064 04048 41459 72934 10043 21005 49971 52054 72588 878// 555 3/748
AAXX 07064 78762 32670 50206 10195 20156 39106 40122 52007 8253/ 333 10247 20182 30/// 5622/ 59004 82635 83360
AAXX 07061 50844 32962 02502 11091 21199 40369 57022 333 21251
AAXX 07061 50854 32970 02504 11099 21204 40368 57016 333 21231
AAXX 07061 50968 32962 02203 11105 21189 40386 57017 333 21228
AAXX 07061 51379 32970 03601 11076 21146 40429 57013 333 00251 21214
AAXX 07061 51467 32980 10901 11075 21185 38283 57021 80002 333 00353 21173
AAXX 07061 51495 32980 01602 11052 21183 40406 57011 333 00300 21136
AAXX 07061 53480 32670 71101 11052 21193 40361 57027 82502 333 21167
AAXX 07061 53673 31957 71801 11039 21161 40361 57034 70500 80002 333 21130
AAXX 07061 53698 32963 70701 11014 21071 40362 57036 8703/ 333 21047
AAXX 07061 53898 31957 20701 10003 21061 40357 57040 71000 80002 333 21067
AAXX 07061 54308 11980 60201 11071 21153 40384 57030 69901 70070 80002 333 21180
AAXX 07061 54602 32961 81102 11022 21073 40362 57033 8801/ 333 21055
AAXX 07061 54725 32962 41602 10020 21087 40366 57031 80002 333 21082
AAXX 07061 54751 32965 03402 11001 21078 40373 57019 333 21041
AAXX 07061 54916 32963 81402 10043 21066 40362 57034 80007 333 21089
AAXX 07061 57014 11965 81401 10014 21027 40316 57025 69931 72277 8807/ 333 00400 21025
AAXX 07061 57025 11940 81402 11008 21074 40346 57026 69901 77070 8802/ 333 21022
AAXX 07061 57046 11/57 82202 11053 21064 37971 57023 69921 77070 885// 333 00252 21084
AAXX 07061 58208 32965 51104 10056 21037 40339 57033 80002 333 21021
AAXX 07064 78762 32670 50206 10195 20156 39106 40122 52007 8253/ 333 10247 20182 30/// 5622/ 59004 82635 83360
AAXX 07064 87016 NIL
AAXX 07064 87078 NIL
AAXX 07064 87244 NIL
AAXX 07064 87393 31958 11403 10222 20167 30070 40132 52005 70400 80005 333 56006 81270
AAXX 07064 87416 32665 30502 10213 20143 39406 40122 53005 83500 333 56800 83635
AAXX 07064 87563 NIL
AAXX 07064 87640 NIL
AAXX 07064 87688 NIL
AAXX 07064 87774 NIL
AAXX 07064 87852 NIL
AAXX 07064 87896 NIL
AAXX 07064 87593 NIL
AAXX 07064 87623 31925 40517 10236 20126 39925 40139 50001 70710 80007 333 56007 84270
AAXX 07064 87641 32965 01412 10136 20118 30026 40197 57009
AAXX 07064 87645 32965 00908 10124 20095 39998 40202 58007
AAXX 07064 87648 32960 00000 10133 20114 30196 40206 54000
AAXX 07064 87692 NIL
AAXX 07064 87715 NIL
AAXX 07064 87750 32965 30718 10170 20103 30069 40166 57017 81086 333 56066 81360 83270
AAXX 07064 87765 31930 00504 10220 20079 39180 48513 58007 70400 333 96104 96120
AAXX 07064 87784 NIL
AAXX 07064 87791 NIL
AAXX 07064 87800 NIL
AAXX 07064 87803 31965 40000 10220 20053 39186 40052 58009 70422 81036 333 56000 81360 83270 96104
AAXX 07064 87828 32980 23614 10156 20099 30090 40141 57036 80004 333 56000 82070
AAXX 07064 87860 32980 62708 10214 20082 30026 40080 57027 80006 333 56006 86270
AAXX 07064 87904 NIL
AAXX 07064 87909 NIL
AAXX 07064 87925 11565 82704 10123 20106 30041 40064 58012 60071 75165 8452/ 333 56669 84625 84556
AAXX 07064 87938 NIL
AAXX 07063 NIL
AAXX 07061 48826 01556 83401 10144 20120 30105 40245 58025 69943 71062 888// 333 58025 69911 82895 88697
AAXX 07061 48839 32497 80209 10143 20115 30176 40244 57027 888// 222// 00174 2//03 333 58027 85894 88696
AAXX 07063 NIL
AAXX 07061 28049 32999 52004 11026 21050 30077 40245 50004 82051 333 21055
AAXX 07061 28144 32599 72103 11017 21049 30097 40257 51010 85550 333 21024
AAXX 07061 28319 32499 81603 11064 21100 30101 40272 52008 8457/ 333 21046
AAXX 07061 28321 31999 51404 11061 21092 30053 40265 52009 70231 83031 333 21039
AAXX 07061 28334 12999 62002 11058 21096 39986 40301 52008 69900 86080 333 21042
AAXX 07061 28434 12599 70501 11064 21104 30045 40313 53009 69900 82538 333 21051
AAXX 07061 28552 32597 72502 11039 21076 30216 40332 52014 86502 333 21044
AAXX 07061 28666 32998 61802 11105 21115 30172 40357 51014 86010 333 21108
AAXX 07061 28825 32597 71803 11077 21108 30160 40341 52012 82531 333 21072
AAXX 07061 29111 41497 82303 11125 21145 30228 40321 52008 78582 82939
AAXX 07061 29209 41496 72002 11117 21130 30200 40335 52008 78582 87900
AAXX 07061 29551 41497 80000 11125 21152 30174 40368 58002 78581 84332
AAXX 07061 29602 41497 81902 11080 21086 30211 40358 52007 78582 889//
AAXX 07061 29636 41596 82201 11128 21148 30148 40381 52002 78582 883//
AAXX 07061 29654 41496 72203 11103 21116 39728 40370 52004 78583 86971 333 84710
AAXX 07061 29712 41998 81902 11107 21113 30218 40370 54000 70272 8807/
AAXX 07061 29724 41598 82205 11123 21136 30162 40378 52004 78582 8637/
AAXX 07061 29726 41596 82502 11118 21138 30208 40386 53009 78587 8437/
AAXX 07061 29814 41499 82103 11080 21090 30234 40387 52009 70282 883// 333 88918
AAXX 07061 29827 41696 82503 11116 21129 30226 40389 58001 78688 889//
AAXX 07061 29923 41597 82204 11106 21126 30106 40398 58004 77172 8802/ 333 88523
AAXX 07061 29939 42598 82502 11073 21098 30109 40405 52001 885// 333 88623
AAXX 07061 35026 32997 60000 11127 21148 39708 40390 52011 80008 333 21149
AAXX 07061 36021 41598 72102 11113 21126 30210 40402 58001 78582 82950
AAXX 07061 36022 42497 82002 11131 21137 30131 40411 50000 885// 333 88616
AAXX 07061 36038 42599 72901 11072 21106 39954 40416 52004 82530
AAXX 07061 36058 42999 82402 11058 21161 39871 40414 58001 8807/
AAXX 07061 36064 41699 83202 11045 21101 39794 40407 58004 70287 8392/ 333 95000 95879
AAXX 07061 36229 42999 20000 11184 21216 39216 40491 58003 82070
AAXX 07061 36259 42599 60000 11252 21284 38329 48614 58005 83901
AAXX 07061 23914 11499 81806 11024 21033 39953 40215 52013 60030 73632 8872/ 333 21035
AAXX 07061 23921 12678 70000 11081 21091 30091 40214 53003 69900 83530 333 21133
AAXX 07061 23955 41698 82102 11123 21137 30228 40293 52004 77172 82572
AAXX 07061 23966 41496 82001 11145 21165 30150 40285 52005 78582 889//
AAXX 07061 28138 11599 52303 11056 21067 39689 40276 52008 69930 70232 82531 333 21051 93517
AAXX 07061 28224 11898 81904 11045 21088 30042 40263 52009 69900 70273 81087 333 21022 91110
AAXX 07061 28255 32599 82903 11019 21051 30154 40286 53019 82531 333 21061
AAXX 07061 28440 12599 72503 11030 21096 39954 40313 52012 69900 83506 333 21023
AAXX 07061 28645 32969 61801 11115 21121 30036 40350 52008 86030 333 21094
AAXX 07061 28661 32997 82104 11098 21109 30253 40351 52011 84031 333 21112
AAXX 07061 28722 32997 71805 11066 21095 30183 40320 52007 87030 333 21067
AAXX 07061 28748 32960 82301 11095 21111 30114 40368 52017 83036 333 21106
AAXX 07061 28838 32997 31001 11113 21113 39878 40386 52015 83030 333 21120
AAXX 07061 29231 41597 71902 11159 21186 30235 40338 52011 78582 82930
AAXX 07061 29313 41497 82002 11146 21166 30212 40343 52006 78582 889// 333 86611
AAXX 07061 29612 41498 82102 11099 21103 30202 40362 52005 70272 883// 333 88919
AAXX 07061 29638 41569 81803 11119 21139 30203 40379 52001 78582 86931
AAXX 07061 29838 41596 81902 11103 21131 30149 40395 58001 77172 885//
AAXX 07061 29846 41330 82105 11081 21087 39984 40387 52006 78587 889// 333 86708
AAXX 07061 36061 41995 80000 11079 21093 39986 40413 52003 77172 8802/
AAXX 07064 89022 46/// /0603 11080 21090 39835 49873 57001
AAXX 07064 89062 46/// /0904 10001 21011 39762 49802 57006 333 55000
AAXX 07061 48808 32470 81402 10116 20084 39966 40260 57027 888// 333 58024 83894 88696
AAXX 07061 48830 12460 83603 10093 20074 39937 40258 58031 69903 888// 333 58021 83894 86697
AAXX 07061 23909 12398 82104 11015 21029 39937 40188 52008 69990 886// 333 21026
AAXX 07061 28044 32599 62202 11023 21054 30068 40234 51011 84531 333 21046
AAXX 07061 28116 32899 71404 11021 21046 39980 40217 52004 87070 333 21022
AAXX 07061 28240 31998 82303 11034 21083 39957 40290 52011 70132 8807/ 333 21028
AAXX 07061 28522 12998 71805 11069 21098 30037 40306 52001 69900 84075 333 21072
AAXX 07061 28621 32998 61404 11073 21099 30061 40304 52006 82032 333 21080
AAXX 07061 28719 32998 716// 11104 21124 39859 40323 52003 87030 333 21094
AAXX 07061 29023 41396 82202 11142 21162 30209 40313 52009 78582 8791/ 333 86708
AAXX 07061 29122 41495 82203 11139 21152 30244 40321 52007 78582 8735/ 333 83915
AAXX 07061 29328 42998 82203 11158 21175 30208 40358 52007 8805/
AAXX 07061 29348 41597 71902 11160 21184 30214 40370 53009 70282 82930
AAXX 07061 29405 42597 82202 11100 21120 30194 40349 52007 883// 333 88921
AAXX 07061 29418 42598 82202 11117 21137 30190 40359 52007 8595/
AAXX 07061 29430 41998 82101 11143 21163 30185 40373 52007 70272 8802/
AAXX 07061 29524 42498 82201 11144 21157 30187 40361 52006 885//
AAXX 07061 29605 42297 82301 11065 21066 30211 40359 52009 886//
AAXX 07061 29631 41596 82002 11138 21151 30176 40375 51001 78582 889//
AAXX 07061 29645 41597 81601 11111 21131 30181 40379 52001 70282 885// 333 88623
AAXX 07061 29706 42998 82503 11073 21086 30215 40368 52006 8802/
AAXX 07061 29736 41997 82102 11120 21140 30124 40390 52004 77172 8802/
AAXX 07061 29937 41597 82103 11097 21128 30175 40408 52002 70282 885//
AAXX 07061 36034 41496 82403 11124 21137 30125 40419 58002 71072 885// 333 88616
AAXX 07061 36096 41996 80000 11239 21271 39664 40530 58004 77177 8807/ 333 95090
AAXX 07061 34357 31/93 91504 11005 21005 30013 40171 53011 74542 333 21000
AAXX 07061 34363 11/93 91304 11035 21035 30057 40215 52017 69920 74542 333 21029
AAXX 07061 34545 31294 81507 10005 20005 30051 40164 52012 72822 886// 333 20011
AAXX 07061 34579 12998 81104 11024 21036 30167 40213 52020 69980 8005/ 333 21024
AAXX 07061 34838 32997 80104 11000 21003 30032 40130 51013 8007/ 333 21007
AAXX 07061 34927 32997 80601 10028 21023 30072 40110 57002 80039 333 20024
AAXX 07061 34949 31904 31201 11056 21061 39605 40172 53014 74840 83030 333 21071 93612
AAXX 07061 37001 32997 61709 10117 20041 30038 40078 54001 86030 333 91119
AAXX 07061 37031 32997 81202 10002 21029 39938 40137 53013 80004 333 21019
AAXX 07061 37061 31596 70501 10030 20020 39995 40163 51015 71022 87500 333 20027
AAXX 07061 37085 31996 80000 10033 20023 30193 40220 52021 76162 8807/ 333 20034
AAXX 07061 37107 32999 80301 10031 21030 39467 40149 52005 80002 333 21002
AAXX 07061 37126 32999 31904 11023 21177 37880 48471 53005 82031 333 21056 48003
AAXX 07061 37171 32998 80706 10073 21027 30092 40111 53006 80001 333 20052
AAXX 07061 37228 32999 01602 10059 21101 39314 40143 53016 333 21018
AAXX 07061 37470 32598 73102 10051 20021 30187 40165 52027 86530 333 20035
AAXX 07061 37663 32999 03104 10041 21117 38986 48464 52024 333 20026
AAXX 07064 48350 32665 71303 10267 20182 39864 40164 57031 87500 333 58022
AAXX 07061 15505 11520 82903 10002 21001 39669 40047 52039 60382 77177 8802/ 333 10010 20000 43019 70590 555 31100 59813 69999 70654 93038
AAXX 07061 15635 11540 82905 10010 20005 39781 49993 52050 60292 76166 8802/ 333 10016 20004 43009 55000 70470 555 3/102 59602 69999 70646 93029
AAXX 07061 13463 32670 80206 10084 21040 30016 40076 52047 8584/ 333 20080 31005 55000 91117
AAXX 07061 13459 32670 63607 10024 21057 39311 40081 52038 86800 333 21022 31001 55000 86696 91125
AAXX 07061 13461 32770 30209 10091 21060 30056 40064 52059 82520 333 20091 31005 55000 82650 91132 92355 92458 92511
AAXX 07061 13363 11665 83202 11014 21036 39208 48419 52024 60022 70272 8352/ 333 21014 3/103 43014 93108 55000
AAXX 07064 71300 16/// /1202 11076 21090 39920 40045 58005 60001 333 11072 21094 70023 555 10050 20023
AAXX 07064 71322 46/// /3408 11330 21364 30149 40163 53005 6///1 333 11312 21365 7////
AAXX 07064 71341 16/// ///// 11062 21107 60001 333 10026 21062 70000
AAXX 07064 71342 17/// /2904 11062 21094 69991 7//4/ 333 10029 21064 70009 555 33222 40191
AAXX 07064 71344 16/// /1407 11061 21119 60001 333 10032 21061 70000 555 32717 40131
AAXX 07064 71347 16/// /2304 11075 21106 60001 333 11002 21082 70000 555 32621 40211
AAXX 07064 71348 16/// /3002 11070 21095 60001 333 10005 21096 70000 555 32723 40201
AAXX 07064 71349 16/// ///// 11044 21097 60001 333 10010 21052 7////
AAXX 07064 71903 47/// /1505 10030 20021 30069 40118 5/010 6///1 7//4/ 333 7////
AAXX 07064 71682 17/// /0201 11295 21320 39846 40089 58025 69941 7//4/ 333 11202 21298 70012
AAXX 07064 71135 16/// /3005 11048 21098 39088 40185 53003 60001 333 10019 21048 70000 555 33227 40201
AAXX 07064 71357 16/// /0101 11329 21364 30032 40039 56007 60001 333 11277 21357 70000
AAXX 07064 71361 16/// /1804 11245 21274 39907 40125 58019 60001 333 11161 21268 70000
AAXX 07064 71374 46/// /3016 11145 21182 6///1 333 11055 21149 7//// 555 32829 40162
AAXX 07064 71552 46/// /3408 11093 21115 6///1 333 11009 21093 7//// 555 33423 40231
AAXX 07064 71560 16/// /3503 11048 21082 39842 40145 56001 60001 333 10034 21049 70000 555 32929 40092
AAXX 07064 71579 16/// /3102 11053 21099 39852 40140 50003 60001 333 10048 21063 70023 555 33225 40111
AAXX 07064 71581 16/// /2401 11019 21022 39542 40021 58006 60001 333 10021 70000
AAXX 07064 71107 16/// ///15 10051 20018 30065 40178 58006 60001 333 10064 20038 70000
AAXX 07064 71133 46/// /2807 11039 21076 39428 40141 52007 6///1 333 10002 21039 7//// 555 33325 40091
AAXX 07064 71752 16/// /2203 10057 20022 39826 40040 58015 60001 333 10085 20042 70000
AAXX 07064 71503 46/// /0706 11198 21222 39727 40005 56034 6///1 333 11197 21287 7////
AAXX 07064 71506 46/// /2503 11088 21154 39054 49928 53003 6///1 333 11059 21234 7////
AAXX 07064 71423 16/// /3207 11123 21153 30100 40110 53001 60001 333 11097 21150 70000 555 33123 40141
AAXX 07064 71434 16/// /3403 11198 21217 30065 40134 50003 60001 333 11183 70000
AAXX 07064 71622 16/// ///// 10035 20014 39706 40039 58013 60001 333 10074 20017 70000
AAXX 07064 71150 46/// /3008 11032 21050 39454 40141 53011 6///1 333 10019 21032 7//// 555 32932 40072
AAXX 07064 71151 16/// /3008 11102 21117 39611 40123 51017 60001 333 10010 21102 70045 555 10060 20045 33121 40021
AAXX 07064 71168 16/// /0000 11011 21068 39582 40166 53007 60001 333 10081 21012 70000 555 33023 40201
AAXX 07064 71186 46/// /0826 11118 21139 6///1 333 11113 21220 7//// 555 30833 40012
AAXX 07064 71190 46/// /0203 11091 21118 6///1 333 11084 21146 7//// 555 32934 40073
AAXX 07064 71832 16/// /2804 11140 21155 39716 40049 52009 60001 333 11102 21140 70000
AAXX 07064 71228 16/// /2705 11058 21098 60001 333 10009 21087 70000 555 33019 40081
AAXX 07064 71421 16/// ///// 11270 21298 39361 40112 51008 60001 333 11202 21271 70004
AAXX 07064 71435 17/// /2803 11086 21096 39478 40075 53020 60011 7//4/ 333 10012 21092 70038 555 10040 20038 32217 40171
AAXX 07064 71033 46/// /3102 11162 21179 39508 40160 51007 6///1 333 11135 21213 7//// 555 10020
AAXX 07064 71063 16/// /0504 11086 21102 39947 40048 57011 60001 333 11085 21117 70015 555 10010 20015 30619 40131
AAXX 07064 71743 16/// /1801 11349 21380 39888 40121 56001 60001 333 11282 21367 7////
AAXX 07064 71748 16/// /3603 11078 21096 39856 40150 53007 60001 333 11004 21083 70023 555 33320 40201
AAXX 07064 71269 16/// /0000 11069 21096 60001 333 10034 21073 70000 555 33223 40091
AAXX 07064 71285 46/// /2606 11064 21107 6///1 333 10003 21078 7//// 555 33122 40161
AAXX 07064 71288 16/// /1103 11319 21352 30070 40096 58015 60001 333 11300 21366 70000 555 30217 40071
AAXX 07064 71299 16/// /0107 11115 21126 39751 40030 53006 60001 333 11093 21129 70000
AAXX 07064 71135 16/// /3005 11048 21098 39088 40185 53003 60001 333 10019 21048 70000 555 33227 40201
AAXX 07064 71496 16/// /2906 11049 21071 39541 40159 53007 60001 333 10014 21067 70000 555 33234 40083
AAXX 07064 71832 16/// /2804 11140 21155 39716 40049 52009 60001 333 11102 21140 70000
AAXX 07064 71421 16/// ///// 11270 21298 39361 40112 51008 60001 333 11202 21271 70004
AAXX 07064 71435 17/// /2803 11086 21096 39478 40075 53020 60011 7//4/ 333 10012 21092 70038 555 10040 20038 32217 40171
AAXX 07064 87582 32560 20917 10224 20178 30170 40177 58005 82500 333 56200 82620
AAXX 07064 41257 36/// /1906 10221 20156 39722 40212 333 0E015 20158 58000
AAXX 07064 41258 36/// /3503 10237 20160 30192 40197 333 0E/// 20213 59001
AAXX 07061 28216 11899 31606 11054 21096 39951 40242 52008 69900 70171 83070 333 21032
AAXX 07061 28428 11998 81904 11061 21092 30113 40307 53015 69900 70232 8805/ 333 21067
AAXX 07061 28451 32998 72303 11017 21071 30151 40314 52014 84041 333 21020
AAXX 07061 28541 32984 70000 11058 21088 39822 40334 52008 80002 333 21062
AAXX 07061 28655 32998 62303 11101 21110 30113 40348 52009 86030 333 21098
AAXX 07061 28756 32998 71902 11108 21120 30210 40368 52013 83089 333 21123
AAXX 07061 29557 41697 61001 11118 21138 30084 40367 58003 72682 81570
AAXX 07061 29625 41498 82502 11118 21131 30181 40372 52003 78582 889// 333 88919
AAXX 07061 29813 41497 81903 11115 21128 30174 40364 52004 77187 8572/
AAXX 07061 29822 41596 82002 11114 21120 30214 40388 52002 77172 8802/ 333 88525
AAXX 07061 29915 41498 82203 11087 21094 30215 40381 52002 70282 889// 333 88916
AAXX 07061 36020 41496 81905 11125 21131 30180 40393 57002 78582 889// 333 88915
AAXX 07064 91636 11599 50106 10286 20246 40079 60001 70222 83230 333 5689/
AAXX 07064 91631 11599 30713 10284 20238 40080 60001 70110 83100 333 562//
AAXX 07064 91648 11599 53412 10289 20249 40071 60001 70222 83208 333 568/9
AAXX 07061 22003 11599 32102 11030 21047 39965 49975 57004 60012 70181 82530 333 21030 44013 91003 91110
AAXX 07061 22004 12980 80000 11058 21058 39865 49979 57002 69902 8807/ 333 21098 47997
AAXX 07061 22100 11598 70000 11091 21106 39830 49977 58007 69922 78582 87900 333 21092 47022 91001
AAXX 07061 22213 11482 83503 11042 21044 39790 49958 57001 60022 78582 8697/ 333 21046 47042 85715 91004
AAXX 07061 22140 11597 81405 11008 21030 39966 49981 58009 69982 78582 889// 333 21016 47013 91006
AAXX 07061 48877 32570 83607 10256 20194 30169 40174 57016 888// 333 58020 84895 86697
AAXX 07061 48870 32574 72504 10254 20205 30175 40182 58017 8623/ 333 58025 86895
AAXX 07061 48887 32570 70907 10276 20217 30126 40132 57024 83808 333 59001 82895 86299
AAXX 07061 48920 01497 80211 10256 20246 30112 40115 58018 60113 76186 8272/ 222// 00278 2//04 333 59004 60031 82894 88499 91116 91502 96161
AAXX 07061 48892 01497 80207 10264 20235 30121 40126 57013 69913 78082 889// 333 58007 69911 81894 83995 85697 96160
BBXX 46249 07061 99338 71197 46/// ///// 1//// 90607 22200 00140 11404 21003 327// 41403 70022
BBXX 46248 07061 99461 71247 46/// ///// 1//// 90604 22200 00094 11207 21005 328// 41205 70033
BBXX 46244 07061 99409 71244 46/// ///// 1//// 90605 22200 00105 11306 21004 329// 41305 70031
AAXX 07061 23226 11360 82106 11032 21046 39930 40148 52009 69940 77172 887// 333 21119 86707 93401
AAXX 07061 23701 11459 81803 10005 21001 39980 40109 51012 60010 77172 8802/ 333 21008 88511
AAXX 07061 28909 32997 41406 11090 21115 30191 40297 52004 82031 333 21088
AAXX 07064 60135 31201 50403 10086 20080 40249 58009 74442 85600 333 20025 31/// 55040 20879 85704
AAXX 07064 60252 12960 01003 10025 20007 40235 58002 60004 333 20025 95800
BBXX 46241 07061 99330 71173 46/// ///// 1//// 90541 22200 00143 11503 21002 326// 41503 70017
BBXX 46216 07061 99343 71198 46/// ///// 1//// 90557 22200 00142 11404 21003 327// 41403 70020
BBXX 46240 07061 99366 71219 46/// ///// 1//// 90612 22200 00117 11304 21003 335// 41303 70020
BBXX 46237 07061 99378 71226 46/// ///// 1//// 90610 22200 00110 11506 21003 326// 41505 70032
BBXX 46212 07061 99408 71243 46/// ///// 1//// 90612 22200 00105 11406 20904 329// 41405 70031
BBXX 46217 07061 99342 71194 46/// ///// 1//// 90612 22200 00144 11504 21003 327// 41503 70021
BBXX 46223 07061 99335 71178 46/// ///// 1//// 90600 22200 00153 11504 20902 328// 41503 70019
BBXX 46231 07061 99327 71174 46/// ///// 1//// 90554 22200 00149 11505 21003 328// 41504 70026
BBXX 46222 07061 99336 71183 46/// ///// 1//// 90556 22200 00150 11704 20903 327// 41703 70020
AAXX 07061 56146 32780 10901 11050 21136 36723 57030 81100 333 05102 21200
AAXX 07061 56444 32780 20704 10026 21100 36807 57022 82100 333 00102 21084
AAXX 07061 56492 11740 80000 10067 20028 39868 40288 57035 69901 76060 885// 333 00251 20056
AAXX 07061 56571 32680 22004 10175 21051 38386 57040 81102 333 00101 20032
AAXX 07061 57799 32765 83402 10071 20010 30219 40312 57028 885// 333 20046
AAXX 07061 57866 32962 80202 10064 21015 30101 40317 57028 8807/ 333 20033
AAXX 07061 57957 32760 80204 10072 21017 30099 40306 57026 885// 333 20042
AAXX 07061 57993 11760 81401 10055 20025 30131 40305 57027 69901 76060 885// 333 20038
AAXX 07061 58027 32962 81402 10044 21068 30301 40355 57033 80007 333 21060
AAXX 07061 58141 32560 60704 10043 21037 30342 40362 57029 86500 333 21035
AAXX 07061 58265 32966 20403 10063 21013 30346 40352 57020 82040 333 20021
AAXX 07061 58472 32780 10409 10080 20000 30236 40334 57016 81500 333 20057
AAXX 07061 58477 32473 70405 10090 20014 30276 40322 57022 87800 333 20046
AAXX 07061 58527 11660 80701 10069 21003 30236 40315 57028 69901 70060 885// 333 20043
AAXX 07061 58633 11640 80406 10048 20009 30223 40328 57025 69941 76060 885// 333 20024
AAXX 07061 58666 32768 83611 10081 20034 30203 40309 57020 885// 333 20051
AAXX 07061 58725 11660 80701 10081 20057 30029 40300 57023 69911 76060 885// 333 20053
AAXX 07061 58921 31659 80402 10094 20067 30030 40286 57031 71000 885// 333 20059
AAXX 07061 59082 NIL
AAXX 07061 59211 32563 81401 10110 20062 30055 40269 57032 8747/ 333 20086
AAXX 07061 59265 11761 80702 10093 20041 30137 40281 57026 69901 70060 885// 333 20061
AAXX 07061 59293 32765 83603 10097 20037 30187 40276 57022 885// 333 20066
AAXX 07061 59501 32770 80701 10153 20109 30227 40249 57024 885// 333 20113
AAXX 07061 59663 11660 80404 10111 20072 30144 40255 57028 69901 70060 885// 333 20096
AAXX 07061 59838 32565 60207 10184 20135 30212 40222 57026 82102 333 20146
AAXX 07061 59948 32480 71105 10198 20159 39726 40217 57027 86802 333 20160
AAXX 07061 59981 11580 60706 10250 20182 30185 40192 57025 60011 70080 85102 333 20219
BBXX 46219 07061 99332 71199 46/// ///// 1//// 90558 22200 00133 11709 20906 329// 41707 70046
BBXX 46242 07061 99332 71174 46/// ///// 1//// 90558 22200 00154 11803 21002 324// 41802 70014
BBXX 46218 07061 99345 71208 46/// ///// 1//// 90602 22200 00128 11709 21006 330// 41707 70047
BBXX 46214 07061 99379 71235 46/// ///// 1//// 90618 22200 00113 11510 20907 330// 41507 70048
AAXX 07064 87692 32560 31111 10156 20103 30189 40214 58012 83500 333 56300 83625
AAXX 07064 87715 42960 30903 10232 20131 39825 40132 57005 82076 333 56099 82360 83270
AAXX 07061 22563 11496 81603 11006 21012 39975 40013 57016 69900 77172 8802/ 333 21008 88510
AAXX 07061 23205 11698 81903 11015 21035 30077 40092 52008 69920 70282 885// 333 21049 88642 91107
AAXX 07061 22768 31396 81505 10011 20003 39951 40007 57009 77172 8872/ 333 20004 86707
AAXX 07064 87692 32560 31111 10156 20103 30189 40214 58012 83500 333 56300 83625 555 10213
AAXX 07064 60351 12458 53215 10125 20061 40256 53014 60004 84830 333 01000 20059 82816 83633 95990
AAXX 07064 60355 12658 63518 10126 20060 40243 53011 60004 86200 333 0//00 20123 86833 95990
AAXX 07064 60445 12460 52604 10030 20008 39079 48546 53013 60034 85200 333 05114 20025 81710 85826 95990
AAXX 07064 60468 12560 40404 10025 20013 39281 48525 53030 69984 84200 333 05519 20012 84826 95990
AAXX 07064 60507 12960 20000 10027 20022 40298 53009 60004 81082 333 00200 20020 81360 82073 95990
AAXX 07064 60511 11302 70000 10043 20043 39138 48567 53013 60004 74440 876// 333 05100 20022 87710 95990
AAXX 07064 60535 11465 63620 10030 20005 38890 48549 53015 60004 700// 86700 333 00100 20025 86720 95900
AAXX 07064 60536 12960 40000 10027 20025 39380 48552 54000 60004 80002 333 05300 20022 84073 95990
AAXX 07064 60549 11960 23110 10043 20022 38990 48583 53005 60004 700// 81032 333 00100 20036 81360 95990
AAXX 07064 60550 11320 80206 10027 20025 38729 48564 53006 72842 886// 333 00200 20025 88703 95990
AAXX 07064 60555 12965 10000 10047 20009 40247 53024 60004 81030 333 00100 20045 81360
AAXX 07064 60559 12958 10000 10041 21001 40244 53020 60004 80002 333 0//00 20035 81073
AAXX 07064 60581 12958 20205 10093 20076 40247 52024 60004 80001 333 00600 20081 82073
AAXX 07064 60602 11960 00000 10049 21085 40251 53006 60004 700// 333 0//00 20047 95990
AAXX 07064 60607 12960 03610 10090 21012 40218 52007 60004 333 0//00 20090
AAXX 07064 60640 12957 32704 10065 21016 40217 53020 60004 80002 333 00300 20058 83073
AAXX 07064 60690 NIL
AAXX 07061 60370 16/// /0000 10103 20076 60014 333 20103
AAXX 07061 60371 16/// /3101 10130 20032 69924 333 20130
AAXX 07061 60372 16/// /0703 10098 20042 69924 333 20098
AAXX 07061 60373 NIL
AAXX 07061 60374 NIL
AAXX 07061 60376 NIL
AAXX 07061 60379 NIL
AAXX 07061 60380 NIL
AAXX 07061 60381 16/// /1901 10085 20078 60024 333 20084
AAXX 07061 60393 NIL
AAXX 07061 60394 NIL
AAXX 07061 60593 NIL
AAXX 07064 60595 36/// /0000 11451 333 21451
AAXX 07064 60605 36/// /1104 10105 21167 333 20101
AAXX 07064 60613 NIL
AAXX 07064 60623 NIL
AAXX 07064 60624 36/// /0000 10116 21091 333 20114
AAXX 07064 60639 36/// /0113 10099 21051 333 20097
AAXX 07064 60645 36/// /0000 10112 21101 333 20094
AAXX 07064 60395 12660 40000 10068 20064 40285 54000 60034 84200 333 00400 20065 84840 95990
AAXX 07064 60421 NIL
AAXX 07064 60423 11550 8//// 10038 20031 39227 48489 52010 60034 760// 888// 333 0//11 20029 83820 87633 95990
AAXX 07064 60430 11360 60000 10069 20051 40288 53011 69974 700// 86700 333 004// 20060 82706 85816 95990
AAXX 07064 60437 11560 30000 10040 20030 39047 48542 53006 60034 700// 83200 333 00198 20038 83823 95990
AAXX 07064 60444 11560 60608 10041 20025 39142 48545 53009 60024 70166 86200 333 00112 20031 86830 95990
AAXX 07064 60452 12460 3//// 10127 20089 40273 53012 60004 82602 222// 2//// 333 0//// 20120 82716 91826
AAXX 07064 60457 12956 30000 10068 20064 40283 51011 60004 80001 333 05100 20046 83073 95990
AAXX 07064 60514 NIL
AAXX 07064 60518 11960 32406 10116 20034 40258 53005 60004 700// 81032 222// 20000 334// 49902 333 00600 20110 81360 83073 91836 95990
AAXX 07064 60520 11960 20000 10011 21000 40278 55000 60004 700// 82500 333 05300 20008 82630 95990
AAXX 07064 60540 11560 10000 10014 20004 39087 48542 5//// 60004 700// 81200 333 05200 20014 81830 95990
AAXX 07064 60560 11960 20000 10028 20008 39023 48568 53010 60004 700// 80002 333 00100 20028 83073 95990
AAXX 07064 60353 11565 53016 10138 20093 40272 53009 60024 700// 85800 333 008// 20130 83820 83633 91856 95990
AAXX 07064 60367 NIL
AAXX 07064 60369 12560 40418 10138 20016 40284 53016 69904 82280 333 20135 82826 91837
AAXX 07064 60401 NIL
AAXX 07064 60403 11558 73208 10085 20064 40247 53012 60024 700// 888// 333 004// 20073 83826 86836 95990
AAXX 07064 60425 12965 20000 10076 20063 40284 53015 60004 80002 333 00100 20070 82073 95990
AAXX 07064 60461 13570 21810 10115 20076 40282 53029 60004 82500 222// 20000 333 20115 82626 91808 95990
AAXX 07064 60467 11660 30416 10082 20024 40261 53011 60004 700// 82130 333 00600 20080 82833 95990
AAXX 07064 60492 11940 40000 10084 20073 40285 53022 60004 710// 84030 333 00300 20059 84360 95990
AAXX 07064 60515 NIL
AAXX 07064 60517 11960 01404 10082 20044 40277 58002 60004 700// 333 0//00 20081 95990
AAXX 07064 60522 11970 00000 10023 20002 40292 5//// 60004 700// 333 05200 20023 95990
AAXX 07064 60557 11965 20000 10010 21003 38935 48575 53001 60004 700// 80002 333 05200 20004 82073 95990
AAXX 07064 60563 12960 31610 10047 20030 39366 48564 52031 60004 80002 333 05100 20038 83073
AAXX 07064 60603 12658 53604 10069 21030 40239 52003 60004 82830 333 0//00 20068 82840 83360
AAXX 07064 60638 12960 20314 10098 21024 40222 53030 60004 82030 333 00800 20090 82360
AAXX 07064 60686 NIL
BBXX VRCZ7 07063 99303 10323 41/98 11505 10133 20064 40157 54000 70200 81/// 22200 2//// 3//// 4//// 5//// 80100
BBXX ZNQO3 07060 99325 10290 41698 22015 10160 20069 40099 51015 70200 82100 22224 04193 20304 320// 40410 5//// 80115
BBXX DDJU2 07063 99219 10378 41599 70113 10243 20174 40145 53012 70322 877// 22234 04250 20301 300// 4//// 5//// 80200
BBXX TBWUK17 07063 99234 30083 41398 51306 10206 20203 40247 52010 70222 84460 22273 04220 20101 307// 40102 5//// 80204
BBXX TBWUK18 07063 99242 30689 41497 42316 10245 20238 40091 51006 70111 8446/ 22212 00260 20602 311// 41204 5//// 80240
BBXX MSTM6 07063 99085 10820 41598 60519 10270 20241 40151 51/// 70322 85476 22284 00272 20203 309// 40302 80250
AAXX 07064 60360 11560 53114 10095 20061 40237 53011 69924 72581 85800 333 00751 20092 82826 84640 95990
AAXX 07064 60390 12560 41802 10074 20064 40298 53016 60024 82830 333 00419 20066 82820 83358 95990
AAXX 07064 60402 12558 30000 10107 20074 40277 53012 60084 82230 333 00759 20101 82820 95990
AAXX 07064 60419 11560 33210 10053 21000 40257 53008 60024 70162 81800 333 00113 20045 81820 83626 95990
AAXX 07064 60475 12458 73210 10035 20028 39261 48514 53003 60004 878// 333 00300 20035 83820 86830 95990
AAXX 07064 60490 12960 51402 10060 20051 40271 53003 60004 80002 333 05100 20055 85073 95990
AAXX 07064 60525 12960 40604 10104 20002 40231 53019 60004 80002 333 0//06 20093 84073 95990
AAXX 07064 60531 12970 31003 10057 20015 40290 53007 60004 80002 333 00000 20045 83073 95990
AAXX 07064 60566 12960 3//// 10086 20039 40264 53018 82032 333 00300 20080 82360
AAXX 07064 60571 12962 00000 10035 21035 39325 48572 52013 60004 333 0//00 20033 95990
AAXX 07064 60580 12960 30000 10054 20030 40258 53026 60004 80002 333 00400 20050 83073
AAXX 07064 60590 12960 43206 10066 20028 40258 53015 60004 80002 333 0//00 20049 84073
AAXX 07064 60611 12958 03510 10047 21043 40231 52025 60004 333 00200 20041
AAXX 07064 60620 NIL
AAXX 07064 60630 12965 00111 10124 21021 40213 53008 60004 333 05300 20071
AAXX 07064 60656 12970 63008 10085 21052 40216 56002 60004 80002 333 00500 20085 86073
AAXX 07064 60670 12980 00000 10040 21059 39081 48516 51004 60004 333 05300 20006 95900
AAXX 07064 60680 12980 10604 10031 21136 38645 48515 58005 60004 80002 333 05300 20028 81073 95900
AAXX 07061 50353 32970 00000 11186 21246 30061 40309 57026 333 21311
AAXX 07061 50557 32970 02002 11176 21237 30026 40360 57018 333 21320
AAXX 07061 50756 31958 01802 11185 21226 30050 40383 57011 71000 333 21271
AAXX 07061 50949 32965 02702 11076 21222 30188 40374 57017 333 21218
AAXX 07061 50963 32960 02502 11115 21185 30220 40371 57016 333 21271
AAXX 07061 50978 32980 02705 11093 21188 39975 40351 57010 333 21194
AAXX 07061 51087 NIL
AAXX 07061 51156 NIL
AAXX 07061 51644 NIL
AAXX 07061 51656 NIL
AAXX 07061 51886 32980 22001 11097 21280 37115 57015 80002 333 00200 21214
AAXX 07061 52602 32980 11401 11060 21278 37270 57013 80002 333 00200 21243
AAXX 07061 52713 32980 22502 11078 21240 36899 57016 80002 333 00251 21209
AAXX 07061 52754 32980 71402 11056 21190 36768 57022 80002 333 00251 21176
AAXX 07061 52818 32980 62701 11046 21242 37236 57022 80002 333 00102 21127
AAXX 07061 52836 32680 73202 11047 21196 36881 57018 81102 333 00200 21152
AAXX 07061 52955 32980 13402 11019 21180 36948 57026 80002 333 00352 21170
AAXX 07061 53068 32980 00202 11177 21234 39171 40446 57021 333 00003 21304
AAXX 07061 53276 32980 03202 11099 21191 38948 40408 57018 333 21220
AAXX 07061 54135 32980 72702 11114 21195 30146 40391 57020 86032 333 21231
AAXX 07061 54236 32975 10201 11072 21185 30264 40379 57027 80002 333 21209
AAXX 07061 54539 32770 72702 11021 21088 30360 40375 57027 875// 333 21092
AAXX 07061 54662 32974 73403 11035 21168 30250 40372 57021 80002 333 21099
AAXX 07061 54753 32960 03602 10001 21088 30368 40375 57021 333 21062
AAXX 07061 54857 32960 03404 10006 21076 30273 40371 57026 333 21052
AAXX 07061 57067 31957 80000 11005 21084 39638 40356 57034 71000 8807/ 333 21065
AAXX 07061 57178 32963 70403 10033 21107 30187 40354 57037 8703/ 333 21025
AAXX 07061 57245 32965 80702 10049 21052 39966 40329 57036 8807/ 333 00554 20035
AAXX 07061 57297 32960 70202 10032 21057 30195 40343 57037 8703/ 333 21041
AAXX 07064 17050 11670 63006 10038 20029 39925 49987 52042 60102 70182 84570 333 20037 32004 55000 70325 84635 86360 91112
AAXX 07061 01199 16/// /0606 11048 21054 39499 49969 57007 6//// 333 21070 91108
AAXX 07061 40706 11540 79901 11004 21014 38665 40243 52012 60001 71021 84372 333 3/105 41997 70003 82830 81935 85360
AAXX 07061 40718 12560 53106 10090 20082 30213 40184 52024 60001 85500 222// 00094 20201 333 30000 50101 70000 85630
AAXX 07061 40732 12670 10000 10106 20063 30192 40167 52012 60001 81100 333 30101 50091 70000
AAXX 07061 40745 11956 00802 11040 21106 39049 40267 51001 60001 70500 333 3/117 47007 70000
AAXX 07061 40754 11660 52602 10030 21061 38852 40234 52015 69901 70272 82578 333 30102 5//// 79999 82640 83360
AAXX 07061 40766 12660 32302 10038 21022 38717 40216 52021 60001 83400 333 30106 70000 83645
AAXX 07061 40800 12960 50000 10028 21070 38464 40224 52014 60001 80006 333 30106 5///1 70000 85270
AAXX 07061 40811 11650 61503 10146 20120 30167 40194 52024 60001 71022 83506 333 31000 50201 70001 83640 86270
AAXX 07061 40841 12965 41502 10080 21101 38277 40214 52017 60001 84040 333 30105 5//// 70000 84360
AAXX 07061 40848 11657 41002 10070 21061 38556 40226 52015 60001 70510 84330 333 30104 5//// 70000 81935 83640
AAXX 07061 40856 12962 40202 10073 21162 38669 40234 51016 60001 81042 333 30109 5///1 70000 81360 84070
AAXX 07061 40875 11935 00102 10210 21064 30194 40206 52020 60001 70500 333 30006 50971 70000
AAXX 07061 40706 11540 79901 11004 21014 38665 40243 52012 60001 71021 84372 333 3/105 41997 70003 82830 81935 85360
AAXX 07061 40718 12560 53106 10090 20082 30213 40184 52024 60001 85500 222// 00094 20201 333 30000 50101 70000 85630
AAXX 07061 40732 12670 10000 10106 20063 30192 40167 52012 60001 81100 333 30101 50091 70000
AAXX 07061 40745 11956 00802 11040 21106 39049 40267 51001 60001 70500 333 3/117 47007 70000
AAXX 07061 40754 11660 52602 10030 21061 38852 40234 52015 69901 70272 82578 333 30102 5//// 79999 82640 83360
AAXX 07061 40766 12660 32302 10038 21022 38717 40216 52021 60001 83400 333 30106 70000 83645
AAXX 07061 40800 12960 50000 10028 21070 38464 40224 52014 60001 80006 333 30106 5///1 70000 85270
AAXX 07061 40811 11650 61503 10146 20120 30167 40194 52024 60001 71022 83506 333 31000 50201 70001 83640 86270
AAXX 07061 40841 12965 41502 10080 21101 38277 40214 52017 60001 84040 333 30105 5//// 70000 84360
AAXX 07061 40848 11657 41002 10070 21061 38556 40226 52015 60001 70510 84330 333 30104 5//// 70000 81935 83640
AAXX 07061 40856 12962 40202 10073 21162 38669 40234 51016 60001 81042 333 30109 5///1 70000 81360 84070
AAXX 07061 40875 11935 00102 10210 21064 30194 40206 52020 60001 70500 333 30006 50971 70000
AAXX 07061 89062 46/// /0904 10001 21011 39762 49802 57006 333 55000
AAXX 07061 91943 16/// /3410 10272 20219 30119 40121 51023 60024 333 20263 59011
AAXX 07061 91945 06/// /2708 10247 20229 30101 40106 51022 60051 333 69987 555 59015 60064
AAXX 07064 40362 42960 02803 10095 21010 39675 40198 333 20054 58052
BBXX 41115 07061 99184 70673 46/// ///// 1//// 90605 22200 11204 20703 300// 41202 70019
BBXX 41114 07061 99276 70802 46/// ///// 1//// 90616 22200 00209 11101 21001 307// 41101 70006
BBXX ONFE 07064 99261 10542 433// 40513 10210 2016/ 40200 54000 7//// 8/556 22224 00240 2//// 3//// 4//// 5//// 6//// 80180 ICE /////
BBXX MLJA8 07063 99253 10566 41/96 21604 10240 20176 40196 54000 70211 8//// 22200 00250 2//00 3//// 4//00 5//// 80200
BBXX DDYZ2 07064 99123 10437 41396 31323 10260 20260 40160 51/// 70122 83/66 22235 20308 80260
BBXX DCHO 07064 99218 70195 41/98 /0221 10213 20160 40180 50000 70222 8//// 22214 04200 20603 334// 41203 80179
BBXX A8CE9 07064 99169 10540 41298 10305 10258 20203 40183 51020 70200 81100 22200 04270 29901 311// 41401 80220
BBXX MGGK4 07060 99139 70176 41/97 /3607 10220 20166 40145 56018 70000 8//// 22243 04231 2//// 3//// 4//// 5//// 80185
BBXX A8XA3 07063 99047 30117 41598 70000 10250 40116 53002 70252 83320 22200 20000 319// 40503
BBXX UBAU 07061 99122 70176 41498 50610 10260 40143 54000 70321 85608 22211 04225 20502
BBXX PHPP 07064 99195 10374 41697 73606 10240 20185 40138 53023 70222 875// 22241 00270 2//01 80203
AAXX 07064 40582 31657 63409 10151 20076 40197 53023 70522 82450 333 55300 00283 10000 20629 30183 41263 51425 60812 55407 40446 82640 86358 90401 91015 91115 91211 91303
AAXX 07064 41150 NIL
AAXX 07064 41168 NIL
AAXX 07064 41170 NIL
AAXX 07064 41176 NIL
AAXX 07064 41184 42960 02203 10212 20125 40193 333 20110 59005
AAXX 07064 41194 11957 01704 10209 20111 30201 40206 60001 70600 333 20159 59002
AAXX 07064 41196 41956 01505 10197 20105 30168 40209 70600 333 20094 30008 59002
AAXX 07064 41198 31950 02503 10224 20140 30173 40202 70500 333 20175 59001
AAXX 07064 41210 NIL
AAXX 07064 41216 NIL
AAXX 07064 41217 41957 01107 10184 20122 30171 40201 70500 333 20142 30011 59002
AAXX 07064 41218 42960 01612 10195 20126 39895 40205 333 20140 30013 59002
AAXX 07064 41226 NIL
AAXX 07064 41244 NIL
AAXX 07064 41246 NIL
AAXX 07064 41254 36/// /2808 10164 21004 38197 48202 333 0E007 20090 58011
AAXX 07064 41256 31959 10205 10231 20169 30192 40202 70500 80001 333 20177 59003 81070
AAXX 07064 41258 36/// /3503 10237 20160 30192 40197 333 0E/// 20213 59001
AAXX 07064 41268 32960 02408 10235 20148 30187 40203 333 20182 3/020 58002
AAXX 07064 41312 36/// /0203 10242 20166 30150 40189 333 0E/// 20183 58001
AAXX 07064 41314 32960 01206 10225 20036 39694 40198 333 20123 59008
AAXX 07064 41316 32960 09903 10250 20154 30165 40191 333 20174 58003
AAXX 07064 41404 41958 09901 10148 20010 37896 48550 70500 333 20056 30101 58000
AAXX 07064 41407 42970 00605 10212 20077 38956 48517 333 20125 30/// 59011
AAXX 07064 41431 42960 01606 10270 20193 30136 40149 333 20210 30/// 59002
AAXX 07064 41466 42460 21310 10180 20115 38597 48498 82600 333 20128 30/// 58001 82715
AAXX 07064 41477 42960 01711 10260 20189 333 20236 30///
AAXX 07064 41480 42465 50711 10274 20207 30170 40173 85830 333 20220 30/// 59005 85818
AAXX 07061 29998 42999 61401 11190 21231 38700 48545 58009 86030
AAXX 07061 30385 42999 70000 11316 21333 39732 40334 57012 83032
AAXX 07061 30469 42999 72701 11306 21344 39543 40397 58037 80002
AAXX 07061 30636 42998 80000 11316 21327 39740 40433 57015 85051
AAXX 07061 30650 42999 32002 11266 21297 39171 40407 58020 82041
AAXX 07061 30664 41999 40000 11221 21247 39280 40351 57026 70341 80001
AAXX 07061 30781 42999 00000 11213 21261 39844 40355 57029
AAXX 07061 30777 42998 00000 11259 21291 39668 40392 57022
AAXX 07061 30844 42999 02701 11258 21305 39362 40446 57020
AAXX 07061 30925 42999 71702 11204 21230 39367 40423 58011 80005
AAXX 07061 31371 42999 00000 11211 21259 30018 40305 57026
AAXX 07061 31388 42999 00000 11189 21230 30026 40310 57019
AAXX 07061 31478 NIL
AAXX 07061 31532 42999 02001 11223 21255 39966 40340 57015
AAXX 07061 31594 42998 02201 11170 21212 30151 40335 57014
AAXX 07061 31655 42997 02002 11154 21188 30245 40295 57009
AAXX 07061 31754 42999 61801 11138 21181 39773 40303 57009 80002
BBXX 64045 07064 99591 70117 46/// /2833 10081 20030 40072 52012 22200 00098 11017 70083 333 90710 91147
BBXX 62105 07064 99554 70122 46/// /2827 10096 20049 40210 52009 22200 00106 10810 70050 333 90710 91140
BBXX 62081 07064 99510 70134 46/// ///// 10105 20097 40300 52007 22200 00113 10706 70028
BBXX 62442 07064 99490 70164 46/// /2613 1//// 2//// 40328 52003 22200 00119
BBXX 62029 07064 99487 70125 46/// /2911 10122 20113 40324 53001 22200 00124 10705 70025
BBXX 62163 07064 99475 70084 46/// /2811 10116 20094 40326 57006 22200 00123 10905 70026
BBXX 62001 07064 99452 70050 46/// /3210 10127 20094 40334 55001 22200 00132 10905 70027
BBXX 64046 07064 99605 70049 46/// /3039 10076 20042 49962 56002 22200 00075 10811 70054
BBXX 62301 07064 99524 70047 46/// /2817 10093 20057 40222 52009 22200 00084 10504 70021
BBXX 62303 07064 99516 70051 46/// /3119 10107 20069 40236 52007 22200 00107 10605 70024
BBXX 62107 07064 99501 70061 46/// /3024 10112 20102 40267 55004 22200 00114 10704 70021 333 90710 91133
BBXX 62112 07064 99584 70002 47997 /2917 10070 20036 40008 58002 700// 22200
BBXX PJAI 07064 99581 70014 47597 /2824 10077 20021 40035 53003 700// 22200
BBXX 62111 07064 99580 70003 46/// /3031 10072 20027 40042 55002 22200 10606 70028
BBXX 63056 07064 99597 10016 47597 /2827 10072 20029 49942 56005 700// 22200 10607 70033
BBXX 63109 07064 99596 10015 46/// /3028 10068 20021 49956 56004 22200
BBXX 63110 07064 99595 10015 47598 /2925 10064 20025 49959 56003 700// 22200 10707 70033
BBXX 63057 07064 99592 10015 47697 /2825 10074 20026 49967 56003 700// 22200 10606 70032
BBXX 62128 07064 99587 10014 47597 /2827 10070 20038 49993 52002 700// 22200 10707 70035
BBXX 62129 07064 99584 10003 46/// ///// 10069 20029 40005 58004 22200
BBXX 62113 07064 99584 10002 47998 /2925 10070 20029 40009 58006 700// 22200
BBXX 63055 07064 99606 10016 47897 /2823 10071 20025 49938 51001 704// 22200 10707 70034
BBXX 63108 07064 99608 10017 47697 /2924 10068 20022 49926 54000 700// 22200 10706 70028
BBXX 63106 07064 99610 10017 46/// /2826 10069 49921 53001 22200
BBXX 63105 07064 99610 10017 47597 ///// 10076 20024 49919 52001 700// 22200
BBXX 63113 07064 99610 10017 46/// /3023 10073 20020 49936 50003 22200 10707 70034
BBXX 63112 07064 99611 10010 46/// /2923 10059 20017 49919 54000 22200 10707 70034
BBXX 63107 07064 99611 10017 46/// /2818 10069 49918 52001 22200
BBXX 63101 07064 99612 10009 46/// /3016 10071 20033 49915 51001 22200
BBXX 63103 07064 99612 10011 46/// /3017 10066 20022 49922 58004 22200 10707 70034
BBXX 63104 07064 99612 10016 47498 /3026 10066 20023 49912 56001 700// 22200
BBXX 63117 07064 99613 10011 47598 /2817 10062 20013 49917 56001 700// 22200
BBXX 63115 07064 99616 10013 47498 /2624 10064 20026 49909 58004 700// 22200 10708 70042
BBXX MWYG6 07064 99603 70040 47997 /2829 10064 762// 22200
BBXX 64041 07064 99607 70026 47597 /2628 10065 20032 49941 57006 700// 22200 10809 70043
BBXX 62133 07064 99571 10009 46/// /2929 10076 20019 40034 56003 22200 10605 70027
BBXX 62119 07064 99570 10019 47597 /3027 10080 20032 40039 50002 700// 22200 10605 70027
BBXX 62152 07064 99570 10018 47/97 /2921 10079 20034 40039 50002 700// 22200 10506 70029
BBXX 62154 07064 99564 10022 46/// /2925 10080 20035 40035 55000 22200
BBXX 62120 07064 99564 10021 47597 /2927 10079 20050 40039 56001 700// 22200
BBXX 62132 07064 99564 10020 46/// /3126 10082 20039 40058 50007 22200
BBXX 62123 07064 99563 10022 47597 /2827 10084 20041 40037 56002 700// 22200
BBXX 62165 07064 99540 10009 47998 /2826 10084 20030 40129 52013 700// 22200 10504 70021
BBXX 62127 07064 99540 10007 46/// ///// 10083 20031 40121 53006 22200 10503 70017
BBXX 62131 07064 99539 10012 46/// /29// 10084 20038 40116 52006 22200
BBXX 62149 07064 99537 10011 47998 /2822 10088 20043 40127 52010 751// 22200 10503 70016
BBXX 62148 07064 99536 10015 46/// /2825 10086 20039 40128 52007 22200
BBXX 62150 07064 99536 10007 47698 /2725 10083 20043 40145 52012 700// 22200 10403 70013
BBXX 62121 07064 99535 10027 46/// /2925 10084 20033 22200
BBXX 62144 07064 99534 10017 47997 /2824 10080 20054 40139 52013 700// 22200 10403 70016
BBXX 62145 07064 99531 10028 47997 /2824 10081 20047 40126 50008 700// 22200 10505 70024
BBXX 62142 07064 99530 10021 47797 /2930 10084 20047 40122 55001 700// 22200 10504 70018
BBXX ZQSD5 07064 99583 10007 46/// /2926 10074 20024 40008 57006 22200 10709 70045
BBXX 62114 07064 99583 10000 46/// /2831 10069 20020 40002 56004 22200
BBXX 62134 07064 99580 10014 47497 /2925 10072 20036 40005 58005 700// 22200 10607 70033
BBXX 62102 07064 99579 10018 46/// /3030 10072 20026 40002 57005 22200 10707 70034
BBXX 62117 07064 99579 10000 47997 /2830 10075 20035 40023 55002 700// 22200 10605 70027
BBXX 62143 07064 99577 10018 47597 /3120 10076 20035 40026 58002 700// 22200 10606 70032
BBXX 62118 07064 99577 10009 47997 /2923 10059 20024 40020 50000 700// 22200 10606 70031
BBXX 62155 07064 99577 10007 47597 /2828 10059 20029 40030 57002 762// 22200 10607 70034
BBXX 62116 07064 99576 10011 47496 /2930 10076 20033 40014 57005 761// 22200 10607 70033
BBXX 62104 07064 99574 10013 47597 /2929 10087 20041 40018 58003 700// 22200
BBXX 62153 07064 99573 10020 47598 /2613 10075 20039 40018 58002 700// 22200 10606 70030
BBXX 62122 07064 99573 10016 47598 /2831 10075 20034 40023 57003 700// 22200 10606 70028
BBXX 62140 07064 99573 10013 46/// /29// 10078 20033 40018 58002 22200
BBXX 62146 07064 99572 10021 47/98 /2403 10074 20032 40033 50003 700// 22200 10606 70029
BBXX 62164 07064 99572 10008 47597 /2823 10083 20033 40040 55000 700// 22200 00087 10606 70032
BBXX PJGO 07064 99571 10022 47/97 /2724 10071 40030 51002 700// 22200
BBXX 62027 07064 99491 70022 46/// /2919 1//// 2//// 40257 58007 22200 00115 10704 330// 70020 333 90710 91126
BBXX 62094 07064 99517 70067 46/// /2920 10100 20066 40252 52020 22200 00102 10504 70020 333 90710 91127
BBXX 62103 07064 99499 70029 46/98 ///30 10112 20098 40236 57008 22200 00115 10603 70017 333 90710 91139
BBXX 62170 07064 99514 10020 46/97 /2522 10108 20093 40170 55007 22200 00102 10502 70010 333 90710 91129
BBXX 62304 07064 99511 10018 46/98 /2522 10104 20085 40181 55007 22200 00101 10602 70011 333 90710 91130
BBXX 62305 07064 99504 10000 46/98 /2735 10110 20094 40215 55008 22200 00112 10603 70017 333 90710 91143
BBXX 62095 07064 99531 70159 46/// /2814 10095 20048 40280 51008 22200 00110 10808 70039
BBXX 62103 07064 99499 70029 46/97 /2930 10109 20097 40236 57005 22200 00115 10604 70018 333 90710 91137
AAXX 07061 22438 11540 81305 11003 21015 39918 49939 56010 69900 78582 889// 333 21008
BBXX SHIP 07064 99009 11464 41498 40610 10284 20244 40073 57006 70222 84114 22211 06298 10902 2//02 304// 40403
AAXX 07061 28791 11496 82603 11044 21053 30211 40361 52008 69900 77172 8802/ 333 21071 88514
BBXX 46221 07061 99339 71186 46/// ///// 1//// 90545 22200 00149 11704 21003 326// 41703 70020
BBXX 51205 07061 99210 71564 46/// ///// 1//// 90618 22200 00236 12004 21003 331// 42003 70019
BBXX 46114 07061 99364 71222 46/// ///// 1//// 90604 22200 00110 11509 20905 329// 41507 70045
BBXX 51203 07061 99208 71570 46/// ///// 1//// 90613 22200 00246 10602 20602 320// 41201 70010
BBXX 52200 07061 99134 11448 46/// ///// 1//// 90615 22200 00285 10805 20805 309// 41101 70024
BBXX 44098 07061 99428 70702 46/// ///// 1//// 90607 22200 00079 10502 20502 70008
AAXX 07061 28586 12998 82203 11047 21057 30189 40342 52009 69900 70272 8801/ 333 21117
AAXX 07061 28383 11958 81702 11081 21091 30237 40325 57001 69900 71022 8802/ 333 21149
AAXX 07061 28465 32599 82005 11075 21088 30248 40328 52015 85331 333 21105
AAXX 07061 28696 11940 82402 11061 21069 30217 40363 52011 69900 77172 8802/ 333 21134
AAXX 07061 28688 11998 82403 11044 21057 30196 40361 52009 69900 70272 8801/ 333 21064
AAXX 07061 23929 32578 82103 11029 21033 30162 40230 52005 83537 333 21092
AAXX 07061 28588 32980 82203 11042 21054 30184 40348 52008 8802/ 333 21092
AAXX 07064 67767 NIL
AAXX 07064 67843 32980 40904 10253 20122 38962 48519 80001 333 20165 58004 84080
AAXX 07064 67969 NIL
AAXX 07061 38847 3//// /2603 11085 21100 39490 40310 333 21125 777 92089
AAXX 07061 22165 31496 81008 11018 21023 39954 40015 58013 77174 8802/ 333 21020
BBXX SLCO 07064 99086 11441 43/98 50532 10292 40081 56020 22274 00282 20604 40605
BBXX SBLI 07061 99051 11067 43/97 80213 10258 40132 57016 22254 00258 2//02 4//05
BBXX AUYI 07064 99054 10805 41898 23303 10280 20239 40087 51015 70200 84111 22233 00300
BBXX ZCBH7 07064 99120 11100 41496 40130 10263 20250 40183 51031 70322 8/472 22282 04261 20207 301// 40207 5//// 80254
BBXX C6OT4 07064 99125 10722 41697 70917 10251 20231 40165 50013 70200 87145 22223 04259 20104 30000 4//// 5//// 80237
BBXX 3FCA9 07064 99388 11449 41493 93225 00/// 10060 20020 40185 52020 78522 877// 22254 00090 20805 332// 40804 5//// 6//// 80040 ///// /////
BBXX VNVS 07063 99216 11323 41299 31011 10235 20188 40211 57/// 70211 82770 22242 00267 20105 315// 40402 80205
BBXX DFNB2 07063 99340 11284 41698 13608 10065 21034 40318 57009 70211 81100 22214 00160 20401 335// 40904 80026
BBXX DFGX2 07063 99363 11455 41598 53535 10070 20001 40175 52015 70211 83463 22254 04130 21209 330// 41008 80040
BBXX DGTX 07063 99353 11454 41297 73334 10100 21017 40180 56005 70300 82772 22214 00210 20606 332// 40606 80050
BBXX MTFH5 07063 99143 10872 41497 60906 10293 20220 40170 50010 70222 83510 22234 20301 325// 40702 5//// 80241
BBXX PHKL 07063 99061 10955 41/98 30918 10308 20235 40128 58006 70200 83140 22223 00288 29903 30900 4//02 5//// 80255
BBXX KAOU 07064 99078 10984 43/// /1003 10275 20204 40134 5//// 7//// 8//// 222// 04290 2//// 3//// 4//// 5//// 6//// 8//// ICE /////
AAXX 07061 34949 31904 31201 11056 21061 39605 40172 53014 74840 83030 333 21071 93612
AAXX 07063 64800 NIL
AAXX 07063 64820 NIL
AAXX 07063 64860 31950 70000 10172 20081 39864 40136 70522 80002 333 00600 20169 50600 55085 59007 87080
AAXX 07063 64861 NIL
AAXX 07063 64870 NIL
AAXX 07063 64871 NIL
AAXX 07063 64892 NIL
AAXX 07063 64893 NIL
AAXX 07063 64894 NIL
AAXX 07064 64910 31412 70000 10245 20238 30108 40117 71022 86302 333 01900 20245 50261 55052 59003 86616 81920 87080 94945 95835
AAXX 07064 64911 NIL
AAXX 07064 64950 NIL
AAXX 07064 78866 02582 11009 10248 20206 30156 40161 57009 60001 81200 333 58003 60007 81820
BBXX UFTA 07061 99843 71198 11494 80004 11108 21125 49913 57018 60022 78683 889// 555 48041
BBXX 41053 07061 99185 70661 46/// /1203 10252 40153 90550 333 91204
BBXX 41053 07061 99185 70661 46/// /1303 10249 40154 90540 333 91204
BBXX 41052 07061 99183 70648 46/// /0606 10260 40150 90550 333 91208
BBXX 41053 07061 99185 70661 46/// /1304 10250 40153 58009 90600 22200 00270 11103 70017 333 91209
BBXX 41052 07061 99183 70648 46/// /0606 10260 40150 90540 333 91208
BBXX 41052 07061 99183 70648 46/// /0908 10257 40150 58005 90600 22200 00266 333 91210
BBXX 44255 07061 99473 70573 46/// /2809 11029 40108 52004 22200 00029 10803 70017 333 91211
BBXX WDF2728 07064 99285 70889 41597 60604 10183 2016/ 40200 54/// 7//22 83463 22273 0//// 20301 303// 40701 5//// 6//// 80167 ICE /////
BBXX WBN3013 07064 99229 70717 41/// /0716 10233 2//// 40047 54000 7//// 8//// 22232 0//// 20502 30508 40702 50402 6//// 8//// ICE /////
BBXX WGJT 07064 99220 70709 41497 81008 10228 2017/ 40189 5//// 78082 8836/ 22273 00244 20202 302// 40805 5//// 6//// 80194 ICE /////
BBXX 9VVP 07064 99574 71419 41392 71222 10045 20034 40010 56040 75022 8564/ 22264 00070 20806 316// 41510 5//// 6//// 80040 ICE /////
BBXX 44150 07061 99425 70640 46/// /1710 10081 40094 57032 22200 00091 10803 70017 333 91212
BBXX SKWI 07064 99396 70610 43/98 62212 10122 40169 53001 22213 00200 2//// 4////
BBXX SBLW 07063 99539 71531 43/96 81618 10044 49734 56051 22263 00039 2//// 4////
BBXX 44139 07061 99442 70571 46/// /2806 11003 40162 52008 22200 00048 10804 70020 333 91208
BBXX DDSD2 07063 99185 70673 41697 60814 10255 20212 40162 58018 70311 8559/ 22254 04270 20403 332// 40807 5//// 80225
BBXX C6KD7 07063 99291 70473 41398 82020 10214 20205 40191 57/// 70311 86770 22254 02228 20905 329// 41306 5//// 80208
BBXX 44022 07061 99409 70737 46/// ///03 10074 20030 40082 90600 22200 00057 333 91204 555 11041 22051
BBXX WHRN 07063 99383 71240 41597 13330 10105 2006/ 40228 51012 70200 81/// 22274 00117 20707 333// 41411 5//// 6//// 80080 ICE /////
BBXX WADN 07063 99221 70374 41398 70109 10220 2017/ 40160 56023 70222 8667/ 22223 0//// 20201 3//// 4//// 5//// 6//// 80190 ICE//
BBXX C6FN2 07064 99260 70780 41397 41817 10200 20116 40210 56010 7//// 84640 22224 00260 20702 320// 41203 5//// 6//// 80150 ICE /////
BBXX PDGS 07064 99275 71358 41/98 40715 10180 20160 40255 54000 70200 8//// 22264 00198 2//// 307// 40904 80167
BBXX HPYE 07063 99247 70801 41898 21408 10210 2015/ 40170 54/// 703// 82/5/ 22215 00260 2//01 3//// 4//// 5//// 6//// 80170 ICE /////
BBXX V7MO3 07064 99262 70910 41/// 41819 10219 20133 40155 5//// 7//10 8//// 22200 00230 20303 318// 40603 5//// 6//// 80166 ICE /////
BBXX J8PR3 07063 99095 70597 41398 20919 10280 2025/ 40130 54000 70111 82485 22231 00280 20402 30909 40402 50402 6//// 80260 ICE /////
BBXX WDF2960 07064 99346 71439 41/97 91716 10183 20158 40210 54000 71022 89/// 22214 0//// 20201 329// 40805 5//// 6//// 80167 ICE /////
BBXX VQKR7 07064 99322 71171 41991 52001 10120 20120 40175 50003 71242 84010 22200 04050 20401 80120
BBXX C6XP7 07063 99262 70789 41799 21809 1//// 2//// 40200 54/// 7//// 81289 22264 00240 2//// 3//// 4//// 5//// 6//// 8//// ICE /////
BBXX C6KJ5 07064 99220 70865 41497 10715 10220 2016/ 40205 52005 70200 81100 22233 00253 80185
BBXX J8PB 07064 99177 70667 41698 80713 10250 20222 40150 54000 7//22 88296 22222 0//// 20402 30708 40402 50402 6////
BBXX MCUV3 07063 99225 70495 41298 61113 10220 20172 40205 54000 72511 867// 22253 2//02 309// 4//02 5//// 80190
BBXX V7OQ7 07064 99370 70596 41/95 23013 10170 2010/ 40190 51030 70121 8/1// 22263 00180 20503 33027 41006 51008 6//// 80130 ICE /////
BBXX 3FCA9 07064 99388 11449 41493 93225 00/// 10060 20020 40185 52020 78522 877// 22254 00090 20805 332// 40804 5//// 6//// 80040 ///// /////
BBXX C6FY8 07063 99412 11493 41898 33419 10010 21020 40150 5//// 70110 832// 22223 0//// 20602 333 // 41006 5//// 6//// 80000 ICE /////
BBXX C6QF4 07063 99355 11243 41197 53615 10025 40385 54000 70222 8/203 22233 06100 20403 333 // 40101 5//// 6///0 ICE ////0
BBXX DFGX2 07063 99363 11455 41598 53535 10070 20001 40175 52015 70211 83463 22254 04130 21209 330// 41008 80040
BBXX DFNB2 07063 99340 11284 41698 13608 10065 21034 40318 57009 70211 81100 22214 00160 20401 335// 40904 80026
BBXX DGTX 07063 99353 11454 41297 73334 10100 21017 40180 56005 70300 82772 22214 00210 20606 332// 40606 80050
BBXX UHMI 07061 99462 11409 41397 43410 11020 40248 54000 77022 84430 22273 06020 20302 33400 40604
BBXX WDB3161 07064 99380 11471 41498 63124 10060 2099/ 40160 54000 70222 867// 22214 00130 20805 333 // 41007 5//// 6//// 81030 ICE /////
BBXX DQVJ 07061 99429 11681 41598 81506 10055 20033 49955 53015 76066 888// 22223 00085 20802 322// 41206 5//// 80045
BBXX DDAC2 07060 99510 11616 41498 60406 11003 21022 40090 54000 7//22 85870 22263 04020 20302 311// 40804 5//// 81010
BBXX DQVJ 07061 99429 11681 41598 81506 10055 20033 49955 53015 76066 888// 22223 00085 20802 322// 41206 5//// 80045
BBXX SHIP 07064 99335 11361 41697 53621 10130 20025 40260 56/// 70111 84235 22213 00210 20403 336// 40403 80080
BBXX SHIP 07064 99058 10831 41697 20310 10290 20250 40156 52004 70300 821/2 90600 22234 00290 1//// 2//// 307// 4//02 5//// 6//// 80260 /////
AAXX 07064 78866 02582 11009 10248 20206 30156 40161 57009 60001 81200 333 58003 60007 81820
BBXX WDBH 07064 99264 71452 41698 80811 1//// 2//// 40211 51009 7//22 88/5/ 22263 0//// 2//// 330// 41503 5//// 6//// ICE 0/0//
BBXX DCDP2 07063 99408 70487 41/97 /3533 10085 20065 40090 51065 76288 8//// 22264 00200 20606 324// 41208 80075
BBXX DGNB 07063 99321 70557 41697 33426 10190 20114 40192 54000 70111 8/145 22224 00219 2//// 80145
BBXX DDJG2 07063 99368 70648 41798 82515 10180 20148 40190 54000 70222 8/7// 22224 04200 20602 80160
BBXX 46042 07061 99368 71224 46/// /3510 10113 40203 53006 90550 22200 00114 11509 20804 331// 41508 70044 333 91212 555 11102 22108 30506 43513 60549 346096 346094 346095 347105 344105 344112
BBXX 46053 07061 99342 71198 46/// /0503 10138 40150 52009 90550 22200 00141 11506 20301 329// 41505 70028 333 91204 555 11027 22028 30546 40604 60549 050026 044027 048020 049018 044017 040016
BBXX 46089 07061 99459 71258 46/// /3303 10094 20052 40256 51015 90550 22200 00091 11106 20401 329// 41106 70029 333 91204 555 11029 22032 30530 43105 60549 324026 314034 309038 311027 308028 314030
BBXX 46001 07061 99563 71480 46/// /1018 10001 49863 56091 90550 22200 00039 10708 20707 300// 41103 70039 333 91222 555 11189 22201 30504 40922 60549 095177 090173 090176 089172 088177 086178
BBXX 46083 07061 99582 71380 46/// /2307 10028 20010 40018 51023 90550 22200 00067 11208 20603 300// 41208 70040 333 91209 555 11074 22078 30500 42411 60549 228069 243072 240079 239082 241087 236085 82409 90506
BBXX 41041 07061 99142 70460 46/// /0707 10255 20198 40146 58015 90550 22200 00260 11405 20603 3//// 41404 70023 333 91209 555 11075 22080 30535 40709 60549 074070 072072 082072 077073 078077 075073 80708 90502
BBXX 44040 07061 99410 70736 46/// /2404 10083 20022 40087 90545 22200 1//00 70000 333 91205 555 11057 22067
BBXX 41038 07061 99341 70777 46/// /2406 10138 40165 58010 90600 22200 00121 333 91207
BBXX DFFA2 07063 99178 70752 41998 30515 10250 20199 40160 58025 70200 80008 22254 00270 20402 3//// 4//// 5//// 80215
BBXX PHIN 07064 99481 70436 41/93 92416 10055 20053 49971 58013 74386 8//// 22223 00060 20402 80054
BBXX DDJS2 07063 99526 71659 41596 80234 11040 49863 52053 70272 874// 22264 00040 20707 3//// 4//// 5////
BBXX SKUN 07063 99453 70464 43/97 73428 10023 40031 53028 22263 00071 2//// 4////
BBXX PJFF 07064 99298 70478 41/98 82318 10218 20187 40182 54000 70222 8//// 22214 04220 20602 80197
BBXX PCEX 07063 99255 70893 41/98 81516 10215 20121 40190 54000 70200 89/// 22233 02210 20602 80158
BBXX DHDE 07063 99330 71391 41298 61810 10170 20162 40280 54000 75452 85723 22264 00180 20302 318// 40608 80165
BBXX A8IP5 07063 99242 70733 41097 43210 10220 20220 40205 58005 70211 83145 22244 20802 330// 40801 5//// 80220
BBXX DILE 07063 99441 70625 41/97 /9903 10030 21021 40120 58010 70000 8//// 22274 04060 2//// 80010
BBXX A8OF6 07063 99155 70782 41598 50424 10265 20215 40135 56005 70322 852// 22213 04270 20504 80230
BBXX OZDQ2 07063 99243 71135 41/98 /0107 10170 40150 54000 70022 8//// 22234 00190 20301 30000
BBXX PECF 07063 99223 70732 41198 40815 10220 20175 40195 58005 70111 83264 22243 02250 20804 308// 41003 80190
BBXX C6KD4 07063 99260 70531 41598 42712 10218 20186 40193 54000 70222 82575 22214 02242 20806 399// 41205 80198
BBXX A8IN8 07063 99320 70487 41597 62020 10210 20180 40140 58005 70111 85464 22214 04250 20604 80190
BBXX WXJ63 07063 99611 71464 41/97 70403 11070 21109 49992 5//// 702// 8//// 222// 00044 2//// 3//// 4//// 5//// 6//// 8//// ICE /////
BBXX NWS0020 07064 99243 70818 43/// /0313 10198 20133 40204 5//// 7//// 8//// 222// 04258 2//// 3//// 4//// 5//// 6//// 8//// ICE /////
BBXX NWS0003 07064 99607 71680 43/// /1804 11213 21248 40053 5//// 7//// 8//// 222// 0//// 2//// 3//// 4//// 5//// 6//// 8//// ICE /////
BBXX NWS0029 07064 99415 70707 43/// /2307 10090 20048 40076 5//// 7//// 8//// 222// 04057 2//// 3//// 4//// 5//// 6//// 8//// ICE /////
BBXX WL3108 07064 99466 70871 41/99 73224 10000 2//// 49997 54/// 70222 8//// 22263 00039 20603 3//// 4//// 5//// 6//// 8//// ICE /////
BBXX WQZ9670 07064 99472 70900 43/95 /3333 11005 2//// 40058 5//// 7//// 8//// 22263 0//// 2//04 3//// 4//// 5//// 6//// 8//// ICE /////
BBXX WE3806 07064 99441 70825 41/97 82712 10044 2//// 40030 54/// 70311 8//// 22233 00056 20502 3//// 4//// 5//// 6//// 8//// ICE /////
BBXX SHIP 07064 99343 71557 41498 72123 10210 20180 40138 57007 7012 2 8581/ 22263 00230 80190
BBXX SHIP 07064 99548 71533 41697 70239 10010 21015 49780 57025 70277 87757 22263 06040 20810 334// 40810 80000
BBXX SHIP 07064 99546 71752 41597 60128 11004 21040 40021 51037 72222 867// 90600 22264 00040 2//// 3//// 4//// 82040
BBXX 2AKI2 07063 99049 30847 41698 63115 10294 20249 40123 57011 70222 83466 22254 00289 20402 32400 40703 5//// 80262
BBXX A8ID9 07064 99107 71391 41/98 80417 10240 20240 40130 52230 70222 8//// 22254 04250 2//04 327// 4//05 5//// 80240
BBXX DQXQ 07064 99084 70876 41397 20406 10240 20220 40120 58010 70300 81105 22233 00220 20100 303// 40504 80226
BBXX WDF9323 07063 99115 71145 41297 20905 10260 2023/ 40140 54000 7//00 828// 22224 0//// 2//// 3//// 4//// 5//// 6//// 80240 ICE /////
BBXX A8KC6 07064 99164 71469 41597 30412 10230 20199 40160 52020 75011 83743 22214 04270 20503 3//// 4//// 5//// 80210 46379 1738070124
AAXX 07061 14216 12682 23302 10050 21071 30030 40185 52023 60002 81101 333 20034 34103 70000 923// 924/8
AAXX 07061 14219 12980 12002 11026 21090 39161 48456 53/// 60002 80001 333 21030 34106 41998
AAXX 07061 14232 12981 01601 11037 21042 30067 40209 52025 60002 333 21040 34107
AAXX 07061 14234 12681 13401 11007 21047 39948 40203 52018 60002 81530 333 21007 34105
AAXX 07061 14236 NIL
AAXX 07061 14244 12981 02202 11027 21036 30075 40210 53024 60002 333 21029 34105
AAXX 07061 14248 12980 11802 11019 21044 30018 40199 52/// 60002 81040 333 21025 34107
AAXX 07061 14253 12960 03602 10023 21042 30009 40187 52017 60002 333 21002 31102
AAXX 07061 14256 12970 03404 10005 21038 39858 40185 53013 60002 333 20005 34///
AAXX 07061 14280 12960 03403 10014 21037 30060 40172 52021 60002 333 20012 31101
AAXX 07061 14308 12980 03601 11010 21067 39822 40188 51020 60002 333 21012 34107 92611
AAXX 07061 14321 12684 13302 10065 21068 30153 40178 52/// 60002 81400 222// 00109 333 20065 31002 92323 92439
AAXX 07061 14370 12680 23502 10028 21042 30064 40175 52024 60002 82500 333 20025 32101
AAXX 07061 14382 12980 13306 10010 21036 39991 40113 52010 60002 81010 333 20010 31000
AAXX 07061 14428 12470 13308 10086 21055 30155 40162 52025 60002 81100 222// 00130 333 20080 31005 92323 91122 91501
AAXX 07061 14441 12980 01406 10084 21043 30099 40124 51027 60002 222// 00156 333 20082 30005 92323
AAXX 07061 14452 12599 13612 10069 21010 39374 40105 52/// 60002 81100 333 20064 92333
AAXX 07061 14454 11720 10321 10075 21057 39982 40042 50038 60002 707// 81400 333 20070 31103 910// 91503 911// 91503 92323
AAXX 07061 14462 12680 10207 10068 21070 30110 40116 52/// 60002 81100 333 20065 31004
AAXX 07061 63330 32980 10000 10168 20043 37813 40288 80001 333 20095 58002 81070
AAXX 07061 63331 32980 03602 10180 20052 38069 40253 333 20127 59004
AAXX 07061 63332 32980 21801 101580 20059 38234 40156 80001 333 20051 58002 82071
AAXX 07061 63333 32980 20000 10154 20075 38188 40214 80002 333 20026 59007 82070
AAXX 07061 63334 31970 20000 10136 20016 37643 40159 7050/ 80001 333 20070 59001 82070
AAXX 07061 63340 32880 40301 10170 20103 37955 40180 84030 333 20130 59012 84358
AAXX 07061 63402 31540 40000 10160 20128 38370 4//// 7102/ 83230 333 20084 59010 83828
AAXX 07061 63403 31960 33502 10190 20107 7052/ 83030 333 20152 83360
AAXX 07061 63450 NIL
AAXX 07061 63451 32980 10000 10138 20045 38166 40173 80001 333 20026 59002 81072
AAXX 07061 63453 31975 00000 10174 2//// 39103 7050/ 333 20095 58002
AAXX 07061 63460 31978 33501 10170 20103 7050/ 80005 333 20092 83070
AAXX 07061 63471 31959 00000 10216 20089 38888 40162 70500 333 20143 58014
AAXX 07061 63474 32980 00902 10148 20034 333 20045 63478 31570 30906 10280 20180 39833 40213 7050/ 81101 333 20220 58006 81828 82070
AAXX 07061 63500 31970 00000 10208 20145 7050/ 333 20130
AAXX 07061 63533 NIL
AAXX 07061 40001 32970 03304 10045 20017 40208 53016 333 20014 30
AAXX 07061 40007 11560 50903 10066 20057 40203 51012 60012 70162 85500 333 20051 31 85630
AAXX 07061 40025 12560 20902 10095 20069 40166 52010 60132 82200 333 20085 32 82826
AAXX 07061 40045 31950 00000 10030 20003 40224 53008 333 21005 30
AAXX 07061 40061 32970 00000 10024 21006 40205 52017 333 20017 30
AAXX 07061 40080 31101 50404 10000 20000 39475 40204 52014 74644 85600 333 21015 30 85702
AAXX 07061 40087 NIL
AAXX 07061 40095 NIL
BBXX DGOQ 07064 99544 10101 41/97 92416 10042 21020 40030 702// 22200 04053 80020
BBXX A8RU5 07064 99376 10093 41597 63428 10113 20083 40214 52022 71811 83995 22294 20503 334// 41212 80097
BBXX DAJT 07064 99309 50500 41598 61712 10225 20211 40090 50/// 70322 8487/ 22253 00220 2//01 80215
BBXX A8TG2 07063 99258 71559 41/// /0510 10220 20189 40200 50000 7//11 22263 00180 21001 30229 41506 51806 80200
AAXX 07064 40153 12960 01111 10047 20020 39090 48479 52006 60002 333 20042 70177
AAXX 07064 40179 12570 11102 10075 20051 30123 40161 54000 60002 81100 333 20052 50241 55075 70000
AAXX 07064 40180 12960 09901 10092 20036 30114 40164 58002 60002 333 20065 70000
AAXX 07064 40190 16/// ///// 10066 20012 39829 40170 54000 60002 333 20049 70000
AAXX 07064 40199 13/// /0406 10109 21003 30144 40167 52006 60002 333 20062 55090 70000
AAXX 07061 40009 32570 50000 10060 20036 40187 52005 85500 333 20056 30 85630
AAXX 07061 40016 32970 00000 10032 20011 40246 51022 333 20000 30
AAXX 07061 40022 11565 21002 10103 20075 40156 52010 60132 70299 82200 222 20000 333 20094 32 82830
AAXX 07061 40030 31560 70000 10068 20059 40187 52015 71022 84570 333 20066 31 84630 87360
AAXX 07061 40039 32970 30000 10046 20024 40200 52009 83050 333 20033 30 83360
AAXX 07061 40066 12970 00000 10094 20041 40165 52010 6002 333 20090 31
AAXX 07061 40072 32970 00000 10048 21005 40232 52010 333 20025 30
AAXX 07061 40083 32970 00000 10012 21032 48476 53006 333 21016 30
AAXX 07064 04203 46/// /1508 11222 21260 30060 40078 54000
AAXX 07064 04205 45/84 /2602 11248 21322 30062 40086 52005 333 11230 21278
AAXX 07064 04208 46/// /0508 11179 21231 30026 40073 57012
AAXX 07064 04213 46/// /1407 11159 21228 39940 40056 57017 333 11137 21166
AAXX 07064 04214 46/// /0903 11151 21199 30021 40054 57019
AAXX 07064 04224 45/84 /1009 11159 21201 30009 40043 57029 333 11155 21183
AAXX 07064 04228 NIL
AAXX 07064 04242 46/// /0421 11091 21138 39964 49980 57046
AAXX 07064 04253 46/// /3517 11063 21136 39859 49886 57073
AAXX 07064 04266 46/// /0626 11032 21044 39786 49824 57087
AAXX 07064 04285 46/// /1037 10020 21031 39796 49815 57075
AAXX 07064 04301 46/// /2406 11267 21311 30077 40082 52028
AAXX 07064 04313 46/// ///// 11078 21088 30072 40084 54000
AAXX 07064 04330 46/// /3502 11114 21132 30088 40106 52001
AAXX 07064 04351 46/// /0712 11030 21035 30048 40065 52034
AAXX 07064 04373 46/// /3212 11064 21095 39938 40032 52008
AAXX 07064 04382 46/// /3415 11023 21068 39935 49984 57025
AAXX 07064 04416 NIL
AAXX 07061 37989 42999 20000 10038 20023 40195 52019 82030
AAXX 07061 37661 42998 03301 10032 21025 39407 40175 53009
AAXX 07061 37925 42997 0000 10022 21006 30203 40173 53009* 333 20011
AAXX 07061 37905 42997 00000 10011 21009 40192 52010
AAXX 07061 37749 42998 01102 10012 21023 30097 40217 52016
AAXX 07061 37923 42997 00000 10040 21009 40159 52022 333 20021
AAXX 07061 37740 42999 00902 10029 21017 39359 40174 52009
AAXX 07061 37851 42596 80000 10051 20037 30111 40184 52035 885// 555 20023
AAXX 07061 37985 42998 00000 10004 21001 40174 53013
AAXX 07061 37832 32998 03201 10009 21017 40180 52016 333 21023
AAXX 07061 40701 12660 10000 11028 21056 38600 40246 52019 60001 81400 333 3/110 41002 70000 81635
AAXX 07061 40704 12670 12403 10020 21016 38614 40199 53013 60001 81100 333 31106 70000 81840
AAXX 07061 40708 12960 02011 10040 21022 38654 40176 52010 60001 333 3/101 45001 70000
AAXX 07061 40710 12670 20000 11040 21051 38328 40246 52018 60001 82500 333 3/112 47001 70012 82635
AAXX 07061 40713 12965 10705 11008 21054 38681 40238 51003 60001 80001 333 3/104 43005 70000
AAXX 07061 40719 11530 42503 10070 20052 30194 40184 52026 60001 71020 84500 333 30000 50241 70000 84620
AAXX 07061 40731 11958 11302 10019 21044 38760 40244 52014 60001 70510 81030 333 31106 70000
AAXX 07061 40738 11304 60000 10048 20033 30200 40202 52036 60001 71021 81692 333 311004 50201 70000 81708 86363
AAXX 07061 40740 12960 20000 11096 21120 38724 40261 51005 60001 80001 333 3/119 47020 70000 82070
AAXX 07061 40747 11/01 90000 11030 21034 38657 40250 52019 60001 74500 333 34107 70002 89/06
AAXX 07061 40757 12965 01401 10038 21061 38922 40244 51014 60001 333 30105 5///1 70000
AAXX 07061 40763 12965 20000 10004 21104 38939 40252 50001 60001 80001 333 30107 70000 82070
AAXX 07061 40782 12960 20000 10048 21007 38903 40218 53020 60001 82030 333 30102 5//// 70000 82359
AAXX 07061 40783 12662 41805 10056 21054 37994 40178 52020 60001 81502 333 30001 5///1 70000 81640 84069
AAXX 07061 40789 12665 70000 10032 21036 39233 40235 52019 60001 83531 333 30104 50151 70000 83640 83360
AAXX 07061 40798 12660 61306 10070 21053 37971 40177 51017 60001 83470 333 30001 70000 83635 85359
AAXX 07061 40818 12965 53003 10082 21022 37987 40183 53017 60001 83032 333 30104 5///1 70000 83360 83070
AAXX 07061 40827 12970 20000 10028 21012 38870 40290 51013 60001 82030 333 30109 70000 82360
AAXX 07061 40836 12660 61402 10084 20019 38226 40211 52015 60001 85370 333 30001 5///1 70001 81940 84645 83360
AAXX 07061 40851 12660 41203 10080 21135 38296 40212 51015 60001 84500 333 30108 5///1 70000 84640
AAXX 07061 40853 12665 43007 10092 21093 37774 40196 52018 60001 84100 333 30108 5//// 70000 84840
AAXX 07061 40854 12960 00000 10106 21153 38974 40198 53013 60001 333 30102 50191 70000
AAXX 07061 40857 12660 60000 10188 20147 30184 40193 52014 60001 86100 222// 00188 318// 40502 333 30012 50131 70000 86835
AAXX 07061 40859 12662 10000 10076 21088 38747 40217 52012 60001 81500 333 30104 50251 70000 81640
AAXX 07061 40878 12965 02802 10076 21145 38885 40262 52018 60001 333 30103 5/// 70000
AAXX 07061 40879 11956 00402 10142 21129 39531 40225 51013 60001 70500 333 30003 50381 70000
AAXX 07061 40883 11930 00503 10208 20036 30174 40197 51017 60001 70500 222// 00190 20500 333 30012 50431 70000
AAXX 07061 40898 11958 30202 10208 21063 30187 40196 53017 60001 70500 83030 222// 00232 10500 333 30014 50351 70000 83359
AAXX 07061 40700 12960 02002 10008 21026 30091 40182 52022 60001 333 30105 70000
AAXX 07061 40723 11930 30000 11070 21110 38928 40283 51008 60001 70510 83070 333 3/120 43005 70000 83360
AAXX 07061 40726 12960 00000 10010 21032 38675 40234 52020 60001 333 34108 70005
AAXX 07061 40727 11/01 90000 11026 21032 38499 40252 52022 60001 74742 333 3/105 47001 70006 89/10
AAXX 07061 40734 12965 10000 10106 20058 30206 40180 53021 60001 81030 333 31000 50130 70000 81359
AAXX 07061 40737 12960 41804 10058 20034 30168 40187 52039 60001 84030 333 31004 50031 70000 84359
AAXX 07061 40741 12960 01105 10013 21038 39887 40236 58005 60001 333 30104 70000
AAXX 07061 40780 12960 01402 10068 21036 38702 40198 52020 60001 333 34101 5//// 79999
AAXX 07061 40791 12562 71802 10028 21083 39388 40240 52018 60001 83370 333 30103 50381 70000 83930 86460
AAXX 07061 40792 12970 20000 10020 21082 38735 40237 53008 60001 333 30106 70000
AAXX 07061 40794 12960 61003 10144 20098 30105 40203 52019 60001 80006 90545 333 30007 50221 70000 86070
AAXX 07061 40812 12660 60000 10150 20084 39811 40186 52014 60001 84510 333 30009 50271 70000 84640 86460
AAXX 07061 40829 12660 33302 10026 21071 39672 40273 52017 60001 81502 333 30107 5///1 70000 81640
AAXX 07061 40833 12660 60000 10160 20103 30172 40204 53017 60001 86400 90550 333 30011 50501 79999 86640
AAXX 07061 40835 12660 70000 10146 21022 39379 40213 52022 60001 83430 333 30007 50281 70000 83640 87360
AAXX 07061 40845 12960 41505 10192 20155 30189 40194 52019 60003 83072 333 30009 50181 70000 83360 84070
AAXX 07061 40882 11940 00000 10202 20107 30160 40195 52018 60001 70500 333 30013 50421 70000
AAXX 07061 40889 12960 00603 10226 20097 30196 40201 52024 60003 222// 00232 20400 333 30014 50401 70000
AAXX 07061 40890 11935 00000 10230 20093 30182 40190 51021 60003 70500 222// 00226 20200 333 30012 50630 70000
AAXX 07061 40893 11950 00302 10218 20129 30190 40196 52016 60001 70500 222// 00185 20401 333 30016 50441 70000
AAXX 07061 40897 14956 10602 10218 21037 30191 40205 51017 60001 70500 80001 333 30012 50601 70000 81068 Q1020 A3013
AAXX 07061 40703 12960 00000 11014 21027 38930 40235 52015 60001 333 34110 70000
AAXX 07061 40712 11958 02402 11006 21035 38697 40248 52014 60001 71000 333 34112 70000
AAXX 07061 40729 12560 10000 11024 21064 38353 40248 53016 60001 81600 333 3/109 46002 70008 81720
AAXX 07061 40736 12560 41603 10086 20055 30210 40184 52023 60001 81230 333 31100 50091 70000 81830 83360
AAXX 07061 40739 12665 40000 11046 21086 38702 40274 53009 60001 84500 333 30110 70000 84635
AAXX 07061 40743 12970 31103 11030 21127 39098 40274 53005 60001 80001 333 34110 70000 83070
AAXX 07061 40762 12965 20000 11036 21104 38566 40283 53013 60001 80002 333 3/114 46003 70000 82070
AAXX 07061 40768 12960 00402 11008 21029 38273 40239 52014 60001 333 34110 79999
AAXX 07061 40769 12960 00502 10034 21069 38311 40217 51014 60001 333 30105 5//// 70000
AAXX 07061 40785 12960 00000 10044 21046 39116 40246 52010 60001 333 30103 5///1 70000
AAXX 07061 40809 12665 61102 10002 21135 38520 40262 51011 60001 81572 333 30112 70000 81640 84360 85070
AAXX 07061 40821 12660 42603 10008 21095 38815 40253 52027 60001 81136 333 30103 5///1 70000 81835 83270
AAXX 07061 40831 11556 73102 10130 20081 30190 40198 52020 60001 70511 85370 333 30008 50271 70000 82930 83720 87360
AAXX 07061 40703 12960 00000 11014 21027 38930 40235 52015 60001 333 34110 70000
AAXX 07061 40712 11958 02402 11006 21035 38697 40248 52014 60001 71000 333 34112 70000
AAXX 07061 40729 12560 10000 11024 21064 38353 40248 53016 60001 81600 333 3/109 46002 70008 81720
AAXX 07061 40736 12560 41603 10086 20055 30210 40184 52023 60001 81230 333 31100 50091 70000 81830 83360
AAXX 07061 40739 12665 40000 11046 21086 38702 40274 53009 60001 84500 333 30110 70000 84635
AAXX 07061 40743 12970 31103 11030 21127 39098 40274 53005 60001 80001 333 34110 70000 83070
AAXX 07061 40762 12965 20000 11036 21104 38566 40283 53013 60001 80002 333 3/114 46003 70000 82070
AAXX 07061 40768 12960 00402 11008 21029 38273 40239 52014 60001 333 34110 79999
AAXX 07061 40769 12960 00502 10034 21069 38311 40217 51014 60001 333 30105 5//// 70000
AAXX 07061 40785 12960 00000 10044 21046 39116 40246 52010 60001 333 30103 5///1 70000
AAXX 07061 40809 12665 61102 10002 21135 38520 40262 51011 60001 81572 333 30112 70000 81640 84360 85070
AAXX 07061 40821 12660 42603 10008 21095 38815 40253 52027 60001 81136 333 30103 5///1 70000 81835 83270
AAXX 07061 40831 11556 73102 10130 20081 30190 40198 52020 60001 70511 85370 333 30008 50271 70000 82930 83720 87360
AAXX 07061 21432 41998 23202 11282 21313 30290 40311 53002 70271 82030
AAXX 07061 21824 42998 32002 11334 21347 30343 40353 53001 80001
AAXX 07061 21908 41997 20000 11451 21471 30322 40417 52003 70400 80001
AAXX 07061 21921 41999 30804 11336 21372 30300 40351 53008 80001
AAXX 07061 21931 42998 22702 11341 21371 30290 40326 52002 82030
AAXX 07061 21946 42999 22402 11376 21405 30200 40291 53003 82030
AAXX 07061 21982 31998 63302 11225 21243 30035 40063 57005 70232 83041 333 11225 91108
AAXX 07061 25062 32497 82303 11378 21418 30094 40098 52006 82605 333 11264 91105
AAXX 07061 25123 41996 61303 11365 21394 30153 40190 57005 77172 86030
AAXX 07061 25138 41598 82002 11378 21405 30053 40192 57002 77172 82537 333 91104
AAXX 07061 25173 11998 03107 11302 21319 30074 40079 52004 69902 73630 333 11252 91110
AAXX 07061 25248 41998 83001 11352 21387 39661 40162 53009 70272 8805/ 333 91107
AAXX 07061 25282 32984 63003 11298 21315 30060 40067 52002 80001 333 11282 91106
AAXX 07061 25325 NIL
AAXX 07061 25356 11998 80000 11296 21340 39972 40081 52002 69902 77872 82037 333 11262 91004
AAXX 07061 25399 32984 02301 11332 21362 30061 40071 58001 333 1//// 91102
AAXX 07061 25428 41957 80000 11398 21433 39864 40246 57001 77872 85037 333 91101
AAXX 07061 25551 11996 80000 11360 21390 30062 40096 54000 69900 77172 80007 333 11/// 91102
AAXX 07061 25563 31984 63204 11385 21413 39984 40074 58002 70272 80005 333 11357 91106
AAXX 07061 25594 32998 83604 11271 21282 39998 40052 57007 8807/ 333 11270 91110
AAXX 07061 25677 31998 33107 11295 21326 30044 40050 53003 73631 80001 333 11278 91111
AAXX 07061 31054 42999 80501 11299 21393 39957 40258 57009 8802/
AAXX 07061 31123 41996 80501 11303 21334 39891 40252 57021 77372 8802/
AAXX 07061 40700 12960 02002 10008 21026 30091 40182 52022 60001 333 30105 70000
AAXX 07061 40723 11930 30000 11070 21110 38928 40283 51008 60001 70510 83070 333 3/120 43005 70000 83360
AAXX 07061 40726 12960 00000 10010 21032 38675 40234 52020 60001 333 34108 70005
AAXX 07061 40727 11/01 90000 11026 21032 38499 40252 52022 60001 74742 333 3/105 47001 70006 89/10
AAXX 07061 40734 12965 10000 10106 20058 30206 40180 53021 60001 81030 333 31000 50130 70000 81359
AAXX 07061 40737 12960 41804 10058 20034 30168 40187 52039 60001 84030 333 31004 50031 70000 84359
AAXX 07061 40741 12960 01105 10013 21038 39887 40236 58005 60001 333 30104 70000
AAXX 07061 40780 12960 01402 10068 21036 38702 40198 52020 60001 333 34101 5//// 79999
AAXX 07061 40791 12562 71802 10028 21083 39388 40240 52018 60001 83370 333 30103 50381 70000 83930 86460
AAXX 07061 40792 12970 20000 10020 21082 38735 40237 53008 60001 333 30106 70000
AAXX 07061 40794 12960 61003 10144 20098 30105 40203 52019 60001 80006 90545 333 30007 50221 70000 86070
AAXX 07061 40812 12660 60000 10150 20084 39811 40186 52014 60001 84510 333 30009 50271 70000 84640 86460
AAXX 07061 40829 12660 33302 10026 21071 39672 40273 52017 60001 81502 333 30107 5///1 70000 81640
AAXX 07061 40833 12660 60000 10160 20103 30172 40204 53017 60001 86400 90550 333 30011 50501 79999 86640
AAXX 07061 40835 12660 70000 10146 21022 39379 40213 52022 60001 83430 333 30007 50281 70000 83640 87360
AAXX 07061 40845 12960 41505 10192 20155 30189 40194 52019 60003 83072 333 30009 50181 70000 83360 84070
AAXX 07061 40882 11940 00000 10202 20107 30160 40195 52018 60001 70500 333 30013 50421 70000
AAXX 07061 40889 12960 00603 10226 20097 30196 40201 52024 60003 222// 00232 20400 333 30014 50401 70000
AAXX 07061 40890 11935 00000 10230 20093 30182 40190 51021 60003 70500 222// 00226 20200 333 30012 50630 70000
AAXX 07061 40893 11950 00302 10218 20129 30190 40196 52016 60001 70500 222// 00185 20401 333 30016 50441 70000
AAXX 07061 40897 14956 10602 10218 21037 30191 40205 51017 60001 70500 80001 333 30012 50601 70000 81068 Q1020 A3013
AAXX 07061 40701 12660 10000 11028 21056 38600 40246 52019 60001 81400 333 3/110 41002 70000 81635
AAXX 07061 40704 12670 12403 10020 21016 38614 40199 53013 60001 81100 333 31106 70000 81840
AAXX 07061 40708 12960 02011 10040 21022 38654 40176 52010 60001 333 3/101 45001 70000
AAXX 07061 40710 12670 20000 11040 21051 38328 40246 52018 60001 82500 333 3/112 47001 70012 82635
AAXX 07061 40713 12965 10705 11008 21054 38681 40238 51003 60001 80001 333 3/104 43005 70000
AAXX 07061 40719 11530 42503 10070 20052 30194 40184 52026 60001 71020 84500 333 30000 50241 70000 84620
AAXX 07061 40731 11958 11302 10019 21044 38760 40244 52014 60001 70510 81030 333 31106 70000
AAXX 07061 40738 11304 60000 10048 20033 30200 40202 52036 60001 71021 81692 333 311004 50201 70000 81708 86363
AAXX 07061 40740 12960 20000 11096 21120 38724 40261 51005 60001 80001 333 3/119 47020 70000 82070
AAXX 07061 40747 11/01 90000 11030 21034 38657 40250 52019 60001 74500 333 34107 70002 89/06
AAXX 07061 40757 12965 01401 10038 21061 38922 40244 51014 60001 333 30105 5///1 70000
AAXX 07061 40763 12965 20000 10004 21104 38939 40252 50001 60001 80001 333 30107 70000 82070
AAXX 07061 40782 12960 20000 10048 21007 38903 40218 53020 60001 82030 333 30102 5//// 70000 82359
AAXX 07061 40783 12662 41805 10056 21054 37994 40178 52020 60001 81502 333 30001 5///1 70000 81640 84069
AAXX 07061 40789 12665 70000 10032 21036 39233 40235 52019 60001 83531 333 30104 50151 70000 83640 83360
AAXX 07061 40798 12660 61306 10070 21053 37971 40177 51017 60001 83470 333 30001 70000 83635 85359
AAXX 07061 40818 12965 53003 10082 21022 37987 40183 53017 60001 83032 333 30104 5///1 70000 83360 83070
AAXX 07061 40827 12970 20000 10028 21012 38870 40290 51013 60001 82030 333 30109 70000 82360
AAXX 07061 40836 12660 61402 10084 20019 38226 40211 52015 60001 85370 333 30001 5///1 70001 81940 84645 83360
AAXX 07061 40851 12660 41203 10080 21135 38296 40212 51015 60001 84500 333 30108 5///1 70000 84640
AAXX 07061 40853 12665 43007 10092 21093 37774 40196 52018 60001 84100 333 30108 5//// 70000 84840
AAXX 07061 40854 12960 00000 10106 21153 38974 40198 53013 60001 333 30102 50191 70000
AAXX 07061 40857 12660 60000 10188 20147 30184 40193 52014 60001 86100 222// 00188 318// 40502 333 30012 50131 70000 86835
AAXX 07061 40859 12662 10000 10076 21088 38747 40217 52012 60001 81500 333 30104 50251 70000 81640
AAXX 07061 40878 12965 02802 10076 21145 38885 40262 52018 60001 333 30103 5/// 70000
AAXX 07061 40879 11956 00402 10142 21129 39531 40225 51013 60001 70500 333 30003 50381 70000
AAXX 07061 40883 11930 00503 10208 20036 30174 40197 51017 60001 70500 222// 00190 20500 333 30012 50431 70000
AAXX 07061 40898 11958 30202 10208 21063 30187 40196 53017 60001 70500 83030 222// 00232 10500 333 30014 50351 70000 83359
BBXX ZM2619 07063 99442 31764 41/96 81809 10155 20146 40085 53010 70321 22222 29901 321// 40902 80150
BBXX PCDE 07063 99352 31167 41497 22306 10180 20139 40140 52010 7//00 82110 22263 20312 80155
BBXX VRAE3 07064 99207 31715 41697 51911 10270 20240 40061 55005 70212 84224 22230 00290 20301 30205 40503 50302 80250
BBXX 3ECI3 07064 99382 31659 41497 51613 10175 20140 40149 54000 70111 85242 22263 00180 20302 318// 40802 80155
BBXX VROC 07064 99290 31537 41698 21206 10275 20181 40119 58010 70300 8/1// 22283 04260 20401 80215
BBXX 9KWP 07063 99184 31015 41397 61021 10260 20207 40128 58010 70252 83442 22233 06280 2//// 80225
BBXX A8QR9 07060 99039 11058 41397 820// 10265 20245 40130 75855 8/7// 22254 20504 80250
BBXX A8CP6 07060 99149 31522 41698 51606 10290 20276 40095 56005 70211 84472 22244 00285 20402 314// 40803 5//// 80280
BBXX PFBF 07063 99136 31723 41397 33506 10290 20277 40058 58002 70311 8247/ 22263 20610 336// 40712 5//// 80280
BBXX MGRH9 07064 99266 31532 41597 41310 10255 20202 40125 57011 7//11 845// 22200 00245 20000 310// 40801 5//// 80220
BBXX PBOF 07063 99049 11409 41693 60916 10290 20222 40060 55/// 70311 8/3// 22234 04270 20802 80241 91255
BBXX A8KX4 07064 99102 31686 41597 82515 10270 20243 40055 54000 78186 888// 22275 04297 2//02 80250
AAXX 07061 40700 12960 02002 10008 21026 30091 40182 52022 60001 333 30105 70000
AAXX 07061 40723 11930 30000 11070 21110 38928 40283 51008 60001 70510 83070 333 3/120 43005 70000 83360
AAXX 07061 40726 12960 00000 10010 21032 38675 40234 52020 60001 333 34108 70005
AAXX 07061 40727 11/01 90000 11026 21032 38499 40252 52022 60001 74742 333 3/105 47001 70006 89/10
AAXX 07061 40734 12965 10000 10106 20058 30206 40180 53021 60001 81030 333 31000 50130 70000 81359
AAXX 07061 40737 12960 41804 10058 20034 30168 40187 52039 60001 84030 333 31004 50031 70000 84359
AAXX 07061 40741 12960 01105 10013 21038 39887 40236 58005 60001 333 30104 70000
AAXX 07061 40780 12960 01402 10068 21036 38702 40198 52020 60001 333 34101 5//// 79999
AAXX 07061 40791 12562 71802 10028 21083 39388 40240 52018 60001 83370 333 30103 50381 70000 83930 86460
AAXX 07061 40792 12970 20000 10020 21082 38735 40237 53008 60001 333 30106 70000
AAXX 07061 40794 12960 61003 10144 20098 30105 40203 52019 60001 80006 90545 333 30007 50221 70000 86070
AAXX 07061 40812 12660 60000 10150 20084 39811 40186 52014 60001 84510 333 30009 50271 70000 84640 86460
AAXX 07061 40829 12660 33302 10026 21071 39672 40273 52017 60001 81502 333 30107 5///1 70000 81640
AAXX 07061 40833 12660 60000 10160 20103 30172 40204 53017 60001 86400 90550 333 30011 50501 79999 86640
AAXX 07061 40835 12660 70000 10146 21022 39379 40213 52022 60001 83430 333 30007 50281 70000 83640 87360
AAXX 07061 40845 12960 41505 10192 20155 30189 40194 52019 60003 83072 333 30009 50181 70000 83360 84070
AAXX 07061 40882 11940 00000 10202 20107 30160 40195 52018 60001 70500 333 30013 50421 70000
AAXX 07061 40889 12960 00603 10226 20097 30196 40201 52024 60003 222// 00232 20400 333 30014 50401 70000
AAXX 07061 40890 11935 00000 10230 20093 30182 40190 51021 60003 70500 222// 00226 20200 333 30012 50630 70000
AAXX 07061 40893 11950 00302 10218 20129 30190 40196 52016 60001 70500 222// 00185 20401 333 30016 50441 70000
AAXX 07061 40897 14956 10602 10218 21037 30191 40205 51017 60001 70500 80001 333 30012 50601 70000 81068 Q1020 A3013
AAXX 07064 93800 16/// /2812 10153 20082 40122 57004 60001
AAXX 07064 93805 16/// /3114 10143 20085 40133 52004 60001
AAXX 07064 93994 16/// /9901 10220 20210 40049 52001 60261
BBXX ZMENA 07064 99436 31727 46/// ///// 10186 20131 40094 222//
BBXX ZMFR 07064 99433 51751 43/// /0120 10158 20151 40146 52004 22222 00148
BBXX V2QD4 07063 99375 31551 41599 10314 10206 20174 40145 50008 70200 8/561 22224 00196 20402 318// 41002
BBXX ZMENA 07064 99436 31727 46/// ///// 10186 20131 40094 222//
BBXX ZMFR 07064 99433 51751 43/// /0120 10158 20151 40146 52004 22222 00148
BBXX V2QD4 07063 99375 31551 41599 10314 10206 20174 40145 50008 70200 8/561 22224 00196 20402 318// 41002
AAXX 07061 40701 12660 10000 11028 21056 38600 40246 52019 60001 81400 333 3/110 41002 70000 81635
AAXX 07061 40704 12670 12403 10020 21016 38614 40199 53013 60001 81100 333 31106 70000 81840
AAXX 07061 40708 12960 02011 10040 21022 38654 40176 52010 60001 333 3/101 45001 70000
AAXX 07061 40710 12670 20000 11040 21051 38328 40246 52018 60001 82500 333 3/112 47001 70012 82635
AAXX 07061 40713 12965 10705 11008 21054 38681 40238 51003 60001 80001 333 3/104 43005 70000
AAXX 07061 40719 11530 42503 10070 20052 30194 40184 52026 60001 71020 84500 333 30000 50241 70000 84620
AAXX 07061 40731 11958 11302 10019 21044 38760 40244 52014 60001 70510 81030 333 31106 70000
AAXX 07061 40738 11304 60000 10048 20033 30200 40202 52036 60001 71021 81692 333 311004 50201 70000 81708 86363
AAXX 07061 40740 12960 20000 11096 21120 38724 40261 51005 60001 80001 333 3/119 47020 70000 82070
AAXX 07061 40747 11/01 90000 11030 21034 38657 40250 52019 60001 74500 333 34107 70002 89/06
AAXX 07061 40757 12965 01401 10038 21061 38922 40244 51014 60001 333 30105 5///1 70000
AAXX 07061 40763 12965 20000 10004 21104 38939 40252 50001 60001 80001 333 30107 70000 82070
AAXX 07061 40782 12960 20000 10048 21007 38903 40218 53020 60001 82030 333 30102 5//// 70000 82359
AAXX 07061 40783 12662 41805 10056 21054 37994 40178 52020 60001 81502 333 30001 5///1 70000 81640 84069
AAXX 07061 40789 12665 70000 10032 21036 39233 40235 52019 60001 83531 333 30104 50151 70000 83640 83360
AAXX 07061 40798 12660 61306 10070 21053 37971 40177 51017 60001 83470 333 30001 70000 83635 85359
AAXX 07061 40818 12965 53003 10082 21022 37987 40183 53017 60001 83032 333 30104 5///1 70000 83360 83070
AAXX 07061 40827 12970 20000 10028 21012 38870 40290 51013 60001 82030 333 30109 70000 82360
AAXX 07061 40836 12660 61402 10084 20019 38226 40211 52015 60001 85370 333 30001 5///1 70001 81940 84645 83360
AAXX 07061 40851 12660 41203 10080 21135 38296 40212 51015 60001 84500 333 30108 5///1 70000 84640
AAXX 07061 40853 12665 43007 10092 21093 37774 40196 52018 60001 84100 333 30108 5//// 70000 84840
AAXX 07061 40854 12960 00000 10106 21153 38974 40198 53013 60001 333 30102 50191 70000
AAXX 07061 40857 12660 60000 10188 20147 30184 40193 52014 60001 86100 222// 00188 318// 40502 333 30012 50131 70000 86835
AAXX 07061 40859 12662 10000 10076 21088 38747 40217 52012 60001 81500 333 30104 50251 70000 81640
AAXX 07061 40878 12965 02802 10076 21145 38885 40262 52018 60001 333 30103 5/// 70000
AAXX 07061 40879 11956 00402 10142 21129 39531 40225 51013 60001 70500 333 30003 50381 70000
AAXX 07061 40883 11930 00503 10208 20036 30174 40197 51017 60001 70500 222// 00190 20500 333 30012 50431 70000
AAXX 07061 40898 11958 30202 10208 21063 30187 40196 53017 60001 70500 83030 222// 00232 10500 333 30014 50351 70000 83359
BBXX WDE8288 07064 99350 10201 41398 73240 10140 2006/ 40030 53030 7//62 8721/ 22263 0//// 20910 332// 40910 5//// 6//// 80100 ICE /////
BBXX VRWG3 07064 99484 70076 41/// /2820 10130 20051 40310 54000 718// 8//// 22253 00150 21505 3//// 4//// 5//// 6//// 80090 ICE /////
BBXX SCKM 07063 99473 70243 43/98 71820 10120 40308 58017 22264 00120 20303 40303
BBXX SBHI 07063 99570 10184 43/96 72318 10027 49996 58010 22200 06051
BBXX UCKD 07061 99554 10059 41/97 93114 10068 40023 54000 70222 89/// 22252 00080 20905
BBXX 4XFB 07064 99359 70091 04169 13515 10160 20110 40250 54020
BBXX 62023 07063 99514 70079 46/96 /3216 10102 2//// 40272 5//// 22200 10504 70020 555 70032 80007
BBXX TFEA 07061 99640 70157 42/98 59905 10044 49875 22221 00070
BBXX LDGJ 07061 99603 10053 43/// /1802 10053 20028 49934 5//// 222/0 04081 1//// 3//// 4//// 5////
BBXX LF4H 07064 99596 10022 46/// /2822 10074 20037 49955 57003 8//// 22200 06082 10706 70029 333 91133
BBXX LMEL 07061 99603 10053 43/// /1601 10045 20043 49932 5//// 222/0 04082 1//// 3//// 4//// 5////
BBXX LAHV 07061 99660 10125 43/// /0810 11054 21085 49961 222// 04058 1////
BBXX TFGRV 07064 99638 70225 46/// ///// 22200 11011 70057
BBXX TFSTD 07064 99664 70234 46/// ///// 22200 10707 70037
BBXX TFKGR 07064 99657 70136 46/// ///// 22200 10707 70036
BBXX TFGSK 07064 99641 70229 46/// ///// 22200 11013 70066
BBXX TFSRT 07064 99633 70203 46/// ///// 22200 11115 70075
BBXX TFDRN 07064 99658 70212 46/// ///// 22200 10603 70017
BBXX TFGRS 07064 99663 70182 46/// ///// 22200 10604 70022
BBXX TFBKF 07064 99635 70202 46/// ///// 22200 10808 70041
BBXX TFHFN 07064 99642 70152 46/// ///// 22200 11109 70046
BBXX PDHW 07063 99494 70084 41/98 /2716 10122 20101 40290 57010 70222 8//// 22223 00100 2//// 80110
BBXX PHDL 07063 99442 70211 41598 71508 10150 20116 40360 56005 70222 85560 22213 00143 20301 399// 4//04 80130 91255
BBXX UBEF5 07061 99712 10285 41/98 90910 11010 40001 54000 70010 89/// 22233 00060 2////
BBXX PBEN 07063 99360 70045 41/97 90605 10148 20133 40272 52002 7//22 89/// 22263 04174 20400 30000 80139
BBXX PCGM 07063 99555 10065 41396 82822 10100 20077 40019 57025 76055 887// 22213 20606 80088
BBXX OXOR2 07064 99330 10272 41598 62033 10162 20082 40052 56020 70222 8457/ 22264 00184 20606 329// 40808 80118
BBXX PCBT 07060 99459 70126 41598 8//// 10129 20077 40343 51002 7//// 885// 22254 20101 399// 4//03 80101
BBXX C6WK7 07064 99326 70164 41698 60320 1//// 2//// 40280 54/// 7//22 866// 22254 00170 20301 3//// 40301 5//// 6//// 8//// ICE /////
AAXX 07061 51243 32970 02501 11146 21182 39831 40445 57006 333 00300 21203
AAXX 07061 51463 31958 00702 11065 21120 39229 40407 57011 71000 333 00352 21137
AAXX 07061 51709 32861 62001 11051 21097 38833 40401 54000 81502 333 00401 21102
BBXX SHIP 07064 99643 31050 41496 80624 11021 21037 49718 57044 70272 83421 22262 00003 10502 20401 306// 40602 86027
AAXX 07061 51087 32980 01801 11142 21213 39389 40460 57006 333 00201 21257
AAXX 07061 51156 32980 01601 11054 21152 38814 40405 57005 333 00200 21158
AAXX 07061 51644 32960 32701 11042 21106 39061 40409 57005 80002 333 00301 21154
AAXX 07061 51656 32961 72201 11048 21112 39239 40410 57006 80002 333 00400 21140
AAXX 07064 61600 32960 00606 10189 20086 30139 40144 333 20184 50734 55071 59007
AAXX 07064 61612 32958 40000 10168 20019 30143 40151 84080 333 01900 20167 50751 55058 59008 84363
AAXX 07064 61627 32957 31004 10190 20020 3//// 4//// 80002 333 01300 20179 50754 55063 5//// 83073
AAXX 07064 61630 32958 20000 10176 20046 30119 40139 82080 333 01800 20170 50652 55060 59005 82363
AAXX 07064 61641 NIL
AAXX 07064 61666 32956 60804 10200 20039 30125 40133 82032 333 01500 20160 50554 55058 58000 82363 85073
AAXX 07064 61679 32957 63608 10206 20070 30135 40143 86030 333 01900 20200 50894 55066 59002 86363
AAXX 07064 61687 31940 03406 10202 21002 30073 40130 70600 333 01400 20180 50771 55075 59003
AAXX 07064 61695 32960 33604 10206 20087 30108 40134 80002 333 01700 20188 50464 55082 58000 83073
AAXX 07064 61697 31958 50208 10205 20115 30117 40132 70622 80002 333 01700 20195 50534 55078 58002 85073
AAXX 07064 61698 32957 71802 10156 20127 30124 40135 87070 333 00900 20155 50524 55024 58000 87363
AAXX 07064 61699 32958 31402 10183 20076 39924 40112 80002 333 01600 20177 50764 55087 58004 83073
AAXX 07061 59082 32673 83404 10078 20027 30140 40292 57029 885// 333 20052
AAXX 07061 08535 32/// /0204 10104 20069 30192 40287 54000 333 20096 30005 5//// 55084 21206 91108 555 60005
AAXX 07061 14324 12380 20914 11083 21100 38346 48456 53016 60002 82600 333 21086 3/110 44026 70000
AAXX 07061 14330 12670 22001 11021 21071 39504 40196 52020 60002 81230 333 21021 34107 70000
AAXX 07061 08548 32/// /0803 10094 20050 30087 40296 57003 333 20080 30003 5//// 55080 21006 91006 91106 555 60005
AAXX 07061 08548 32/// /0803 10094 20050 30087 40296 57003 333 20080 30003 5//// 55080 21006 91006 91106
AAXX 07061 51431 11/06 90701 11105 21121 39526 40384 57018 69901 74974 333 05256 21155
AAXX 07061 51747 32970 73601 11059 21149 39044 40437 57008 80002 333 00301 21241
AAXX 07061 52203 32980 10201 11042 21177 39457 40399 57016 80002 333 00300 21169
BBXX 46207 07061 99509 71299 46/// /1808 10075 40197 57007 22200 00079 11407 70035 333 91210
BBXX 9VVP 07064 99574 71419 41392 71222 10045 20034 40010 56040 75022 8564/ 22264 00070 20806 316// 41510 5//// 6//// 80040 ICE /////
BBXX A8EY7 07063 99307 71240 41/98 73615 10140 20095 40250 58010 702// 8//// 22234 2//03 3//// 4//// 5//// 80115
BBXX OZBY2 07064 99344 71267 43/// /0128 1//// 2//// 4//// 5//// 7//// 8//// 22211 0//// 2//// 3//// 4//// 5//// 6//// ICE /////
BBXX SHIP 07064 99315 71326 41597 80611 10150 20130 40320 51010 70322 8799/ 22263 00190 2//// 3//// 4//// 5//// 6//// 80140 ICE /////
BBXX WCX8882 07064 99430 71428 41295 81937 10125 20100 40128 52028 76022 8892/ 22234 00100 20610 322// 40810 5//// 6//// 80110 ICE /////
BBXX WDF2960 07064 99346 71439 41/97 91716 10183 20158 40210 54000 71022 89/// 22214 0//// 20201 329// 40805 5//// 6//// 80167 ICE /////
BBXX WHRN 07063 99383 71240 41597 13330 10105 20060 40228 51012 70200 81/// 22274 00117 20707 333 // 41411 5//// 6//// 80080 ICE /////
BBXX WSRL 07063 99411 71374 41998 01926 10130 20090 40245 58010 70200 8/000 22214 0//// 2//// 3//// 4//// 5//// 6//// 80110 ICE 0/0//
BBXX 9V7645 07063 99541 71627 41593 80140 11045 21050 49852 52050 75677 887// 22264 04040 2//// 3//// 4//// 5//// 6//// 81045 ICE /////
BBXX DDJS2 07063 99526 71659 41596 80234 11040 49863 52053 70272 874// 22264 00040 20707 3//// 4//// 5////
BBXX DHDM 07064 99544 71604 41/95 /3653 11020 21020 49760 58030 73977 8//// 22213 04030 20516 3//// 4//// 5//// 61/// 81020
BBXX SBLW 07063 99539 71531 43/96 81618 10044 49734 56051 22263 00039 2//// 4////
BBXX SHIP 07064 99548 71533 41697 70239 10010 21015 49780 57025 70277 87757 22263 06040 20810 334// 40810 80000
BBXX SHIP 07064 99343 71557 41498 72123 10210 20180 2 40138 57007 7012 8581/ 22263 00230 80190
BBXX SHIP 07064 99546 71752 41597 60128 11004 21040 40021 51037 72222 867// 90600 22264 00040 2//// 3//// 4//// 82040
AAXX 07061 78310 12505 10801 10160 20148 30193 40204 58008 60001 81100 333 10232 20150 30/// 56900 59031 81820 92011
AAXX 07061 78315 12564 10000 10136 20124 30130 40197 58008 81100 333 10243 20114 30/// 56900 59029 81820
AAXX 07061 78318 12565 10902 10158 20130 30199 40203 58010 60001 81100 333 10234 20108 30/// 56900 59029 81820
AAXX 07061 78322 12956 00000 10136 20110 30193 40211 58011 60001 333 10238 20102 30/// 59018
AAXX 07061 78324 12/00 10803 10194 20138 30181 40192 58014 600001 81102 333 10228 20147 30/// 56909 59033 818//
AAXX 07061 78325 NIL
AAXX 07061 78328 12/62 41402 10191 20155 30205 40/// 58005 60001 81102 333 10233 20184 30/// 56900 59015 818// 84073
AAXX 07061 78333 12/10 70302 10160 20128 30193 40200 58006 60001 8113/ 333 10249 20093 30/// 56909 59022 818// 87360
AAXX 07061 78344 12550 50804 10173 20142 30147 40196 58006 60001 85500 333 10258 20113 30/// 56900 59019 85630
AAXX 07061 78345 12565 70303 10183 20163 30188 40192 58011 60001 875// 333 10253 20116 30/// 56099 59023 87623
AAXX 07061 78348 11557 60000 10197 20162 30145 40198 58007 60001 70511 86800 333 10226 20131 30/// 56100 59019 81820 85630 555 10502
AAXX 07061 78349 12440 63101 10155 20145 30099 40210 58006 60001 86200 333 10237 2098 30/// 56100 59011 86819 555 10502
AAXX 07061 78351 12950 03603 10160 20148 30174 40176 58015 60001 333 10270 20127 30/// 56000 59023
AAXX 07061 78353 12460 20803 10220 20149 30166 40188 58016 60001 81802 333 10251 20189 30/// 56909 59016 81818
AAXX 07061 78355 12560 30101 10182 20171 30051 40188 56009 60001 82801 333 10244 20140 30/// 56909 59016 81820
AAXX 07061 78358 12530 50903 10221 20197 30166 40181 58008 60001 85800 333 10257 20202 30/// 56900 59019 84823 83629
AAXX 07061 78360 12/60 10202 10193 20179 30163 40175 58009 60001 81200 333 10289 20174 30/// 56900 59018 818// 92022
AAXX 07061 78363 12958 00000 10170 20155 30048 40164 58011 60001 333 10265 20113 30/// 56/// 59021
AAXX 07061 78365 12/50 30912 10244 20176 30181 40186 56013 60001 83888 33 10254 20226 30/// 56900 57835 59021 828// 92046
AAXX 07061 78369 12464 60506 10241 20174 30167 40176 57011 60001 85240 333 10262 20225 30/// 56990 57860 59014 85818
BBXX 46147 07061 99518 71312 46/// /1809 10069 40168 57016 22200 00076 11409 70043 333 91211
AAXX 07060 44224 32998 40000 11241 21273 38115 40525 58005 84030
AAXX 07064 41259 36/// /2716 10079 21017 37153 40334 333 0E/// 20047 58010
AAXX 07061 25703 41996 80000 11425 21455 39986 40302 53004 77172 84037
AAXX 07061 25745 42698 42302 11350 21380 30073 40131 57002 84500
AAXX 07061 25913 41697 80504 11206 21255 39994 40152 53003 77172 82507
AAXX 07061 25954 41998 03601 11281 21312 39998 40123 52006 70230
AAXX 07061 25956 42999 40502 11285 21324 30059 40066 52005 84030
AAXX 07061 31088 42999 20202 11220 21277 30149 40157 57003 81041
AAXX 07061 31873 42997 02303 11132 21195 30198 40341 56012
AAXX 07061 31909 42999 02908 11063 21163 30189 40270 56010 333 91112
AAXX 07061 31960 42998 00207 11096 21196 30089 40339 55008 333 91114
AAXX 07061 31961 42997 01002 11093 21168 30296 40344 57016
AAXX 07061 32053 42999 02702 11116 21178 30180 40231 57006 333 91003 91105
AAXX 07061 32061 41598 80401 11111 21155 30206 40247 56007 78582 83902 333 91002 91104
AAXX 07061 32098 42998 20102 11092 21173 30226 40236 55002 80001 333 91004 91107
AAXX 07061 32150 41598 70102 11042 21092 30197 40227 54000 70282 87300 333 91005 91107
AAXX 07061 32165 41598 63305 11011 21037 30106 40169 52008 78583 86900 333 91011 91112
AAXX 07061 32215 42576 63507 11055 21097 30105 40135 53001 86900 333 91012 91114
AAXX 07061 32252 NIL
AAXX 07061 32389 41996 50000 11304 21328 30110 40151 53003 74041 82031
AAXX 07061 32477 42999 50000 11174 21216 30113 40147 54000 85070
AAXX 07061 32583 42999 03203 11109 21153 30093 40124 53002
AAXX 07061 32618 42598 63606 11074 21133 30094 40116 53003 86500
AAXX 07064 71026 16/// /2307 11075 21109 39316 40180 53001 60001 333 7////
AAXX 07064 71217 16/// /2906 11093 21129 60001 333 10052 21093 70000
AAXX 07064 71224 16/// /2406 11092 21110 60001 333 10016 21095 70000 555 32724 40071
AAXX 07064 71976 46/// /2306 11302 21336 39402 40065 56008 6///1 333 11287 21343 7//// 555 10020
AAXX 07064 71979 16/// ///// 11050 21114 38484 40164 53003 60001 333 11019 21133 70000
AAXX 07064 71737 16/// /3401 11104 21114 39496 40027 55008 60001 333 11104 21233 70021 555 10030 20021
AAXX 07064 71307 16/// /2107 10030 20011 39800 40048 56013 60001 333 10080 20021 70000 555 32422 40191
AAXX 07064 71340 16/// /2103 11051 21094 60001 333 10012 21070 70000 555 32619 40081
AAXX 07064 71343 16/// /2409 11055 21095 60001 333 10041 21056 70000 555 32527 40201
AAXX 07064 71345 16/// /2209 11063 21093 60001 333 10046 21069 70000 555 32725 40201
AAXX 07064 71432 16/// /2003 10050 20020 39939 40035 58011 60001 333 10090 20036 70000 555 32227 40171
AAXX 07064 71276 16/// ///10 11075 21118 60001 333 10003 21083 70000
AAXX 07064 71537 16/// /2205 11099 21114 60001 333 10047 21099 7////
AAXX 07064 71370 46/// /0703 11093 21100 39907 40046 56007 6///1 333 11093 21200 7////
AAXX 07064 71189 46/// /0910 11119 21147 6///1 333 11113 21207 7//// 555 32819 40091
AAXX 07064 71191 17/// ///// 11054 21064 60021 7//4/ 333 11053 21144 70018 555 10010 20018
AAXX 07064 71432 16/// /2003 10050 20020 39939 40035 58011 60001 333 10090 20036 70000 555 32227 40171
BBXX 46147 07061 99518 71312 46/// /1809 10069 40168 57016 22200 00076 11409 70043 333 91211
AAXX 07064 89002 42499 71806 11074 21091 39795 49849 52003 875//
BBXX 46183 07061 99536 71311 46/// /1610 10065 40151 57009 22200 00075 10804 70019 333 91213
AAXX 07061 50434 32980 10000 11232 21283 39419 40433 57020 81030 333 21382
AAXX 07061 50527 32970 01802 11251 21278 39542 40442 57016 333 21335
AAXX 07061 50603 11980 00000 11257 21302 39662 40438 57019 69911 70070 333 21329
AAXX 07061 50632 32980 02905 11156 21218 39408 40388 57014 333 21238
AAXX 07061 50727 32980 03601 11194 21258 39113 40448 57017 333 21346
AAXX 07061 50915 32980 02502 11192 21256 39321 40448 57015 333 21317
AAXX 07061 51716 32965 71401 11039 21099 39024 40396 57004 80002 333 00304 21121
AAXX 07061 51765 32980 03601 11040 21119 39338 40413 57013 333 00401 21188
AAXX 07061 51777 32975 12201 11033 21144 39292 40410 57016 80002 333 00401 21162
AAXX 07061 51811 32962 72901 11053 21095 38896 40408 57003 80002 333 00301 21120
AAXX 07061 51828 32962 72701 11049 21128 38733 40392 57004 80002 333 00401 21104
AAXX 07061 52267 32980 02703 11058 21210 39216 40406 57021 333 00301 21179
AAXX 07061 52323 32980 03201 11066 21158 38286 57017 333 00351 21226
AAXX 07061 52495 32980 03203 11040 21194 38763 40393 57023 333 00400 21203
AAXX 07061 53149 32980 02903 11107 21196 38857 40397 57019 333 00100 21222
AAXX 07061 53192 32980 01601 11211 21250 38982 40464 57018 333 21309
AAXX 07061 53231 32980 32207 11090 21188 38549 57016 80002 333 00351 21196
AAXX 07061 53336 32980 02503 11058 21202 38786 40376 57023 333 00102 21188
AAXX 07061 53391 32980 02903 11085 21183 38564 40370 57018 333 00001 21184
AAXX 07061 53529 32980 23204 11028 21192 38690 40344 57022 80002 333 00251 21127
AAXX 07061 53543 32980 72902 11040 21172 38592 40335 57020 80002 333 21087
AAXX 07061 53723 32968 73204 11034 21157 38728 40343 57020 80002 333 00353 21116
AAXX 07061 54012 32980 01601 11176 21249 39123 40457 57015 333 21347
AAXX 07061 54026 32980 00000 11074 21241 30016 40370 57025 333 21199
AAXX 07061 54027 32980 01401 11081 21251 39734 40377 57028 333 21223
AAXX 07061 54208 32980 20702 11109 21198 38833 40419 57019 80002 333 21275
AAXX 07061 54776 32980 03207 11003 21071 30307 40367 57011 333 21023
AAXX 07061 56004 11680 72904 11102 21234 35781 57015 69901 70080 86902 333 00100 21213
AAXX 07061 56033 32680 72001 11113 21177 35980 57016 83902 333 00100 21203
AAXX 07061 56046 32580 63401 11051 21142 36223 57024 81102 333 00003 21202
AAXX 07061 56193 NIL
AAXX 07061 56196 11659 80901 10055 20020 40299 57032 69921 72160 885// 333 00200 20035
AAXX 07061 56287 11456 80000 10050 20037 40298 57031 69921 76066 8172/ 333 00200 20033
AAXX 07061 56684 32580 22704 10121 21029 37895 57040 81102 333 00101 21001
AAXX 07061 56751 32778 72506 10127 21036 38047 57022 83408 333 00251 20042
AAXX 07061 56786 32580 22208 10155 21003 38108 57036 81102 333 00200 20039
AAXX 07061 56977 32580 71401 10186 20155 40183 57030 874// 333 00101 20141
AAXX 07061 57259 32970 80903 10031 21102 40346 57035 8807/ 333 21026
AAXX 07061 57279 32961 83201 10039 21088 40346 57033 8807/ 333 21037
AAXX 07061 57348 32865 81401 10088 21034 40301 57030 885// 333 20066
AAXX 07061 57399 32962 82002 10050 21075 40335 57026 8807/ 333 21018
AAXX 07061 57554 32961 80401 10057 21050 40328 57034 8807/ 333 20035
AAXX 07061 57793 31757 81101 10076 21019 40314 57030 71000 885// 333 20046
AAXX 07061 58345 32963 00905 10086 21033 40336 57032 333 21030
AAXX 07061 58506 11866 80202 10007 21066 40320 57023 69901 70060 885// 333 21045
AAXX 07061 58813 11458 80201 10048 20044 40304 57031 69921 71060 887// 333 20036
AAXX 07061 58834 32765 83602 10082 20055 40302 57026 885// 333 20051
AAXX 07061 58926 31658 82701 10124 20071 40277 57029 71000 885// 333 20079
AAXX 07061 58944 32565 70205 10108 20067 40277 57024 875// 333 20085
AAXX 07061 59096 32562 80402 10074 20035 40289 57022 885// 333 20054
AAXX 07061 59102 32662 80702 10061 20039 40287 57026 885// 333 20044
AAXX 07061 59278 32562 83402 10102 20060 40273 57028 888// 333 20092
AAXX 07061 59456 11768 80402 10113 20076 40256 57028 69901 70060 885// 333 20088
AAXX 07061 59493 31758 80203 10124 20079 40259 57024 70500 885// 333 20104
AAXX 07061 59658 11457 83402 10119 20100 40246 57028 69951 72160 888// 333 20098
AAXX 07061 59673 32564 80209 10112 20086 40251 57030 888// 333 20102
AAXX 07061 59845 11456 80702 10137 20134 40242 57026 69951 76066 887// 333 20121
BBXX 46183 07061 99536 71311 46/// /1610 10065 40151 57009 22200 00075 10804 70019 333 91213
AAXX 07064 16344 12560 63330 11032 21046 38190 48383 52036 60002 86070 333 21040 42040 55000 20613 86320 95000 95100
AAXX 07064 61017 32960 50000 10005 21050 39759 40185 80002 333 05700 20000 50254 55099 59018 85080
AAXX 07064 61024 32960 20804 10090 21080 39589 40169 80002 333 00500 20090 50931 59011 82080
AAXX 07064 61036 32960 70402 10155 21024 39903 40145 80008 333 01400 20154 51101 50814 55096 59010 87280
AAXX 07064 61043 32960 50406 10115 21050 39703 40153 80001 333 0//00 20112 51141 55105 59012 85080
AAXX 07064 61045 32965 60602 10110 21029 39657 40160 80008 333 00700 20110 50554 55100 59019 86280
AAXX 07064 61049 32960 70000 10094 21017 39823 40152 80008 333 00500 20090 50621 50454 55096 59011 87280
AAXX 07064 61052 32960 20604 10144 21044 39886 40147 80002 333 01100 20141 50881 55101 59010 82080
AAXX 07064 61075 32960 50000 10154 21045 39827 40140 80002 333 01100 20140 51021 50664 55105 59016 85080
AAXX 07064 61080 32960 71004 10115 21006 39728 40156 80008 333 00800 20110 51381 50894 55101 59012 87280
AAXX 07064 61090 32960 70204 10126 21041 39641 40175 80008 333 01200 20125 51291 51054 55103 59004 87280
AAXX 07064 61091 32960 30000 10082 20019 39706 40167 80002 333 00400 20079 50541 50404 55100 59012 83080
AAXX 07064 61096 32965 70402 10107 21020 39770 40162 80008 333 00900 20104 50801 50654 55088 59012 87280
AAXX 07064 61099 32960 70406 10155 20007 39896 40127 80008 333 0//00 20150 50871 55096 59007 87280
AAXX 07061 60379 16/// /1501 10092 20092 60034 333 20091
AAXX 07061 60380 36/// /3502 10083 20083 333 20071
AAXX 07061 60394 16/// /0000 10078 20078 60014 333 20078
AAXX 07061 60613 36/// /0211 10062 21041 333 20036
BBXX 46131 07061 99499 71250 46/// /1109 1//// 40263 52014 22200 00074 10501 70007 333 91210
BBXX 46131 07061 99499 71250 46/// /1109 1//// 40263 52014 22200 00074 10501 70007 333 91210
AAXX 07061 23711 81503 11002 20005 39983 40158 53006 60020 77172 8672/ 333 21033 86709
AAXX 07064 61641 32956 00410 10205 20166 30104 40137 333 01900 20202 50654 55050 59002
AAXX 07064 60127 32960 00000 10056 21010 39669 40287 5/002 333 20050 30003
AAXX 07064 60285 31302 70604 10115 20115 40231 5//// 746// 876// 333 20107 87706
AAXX 07064 63705 31957 63403 10210 20167 38872 48526 70544 80008 333 20180 58007 86270 555 10180
BBXX 46204 07061 99514 71288 46/// /1411 10064 40204 52002 22200 00078 11208 70038 333 91213
AAXX 07064 63705 31957 63403 10210 20167 38872 48526 70544 80008 333 20180 58007 86270 555 10180
BBXX 46204 07061 99514 71288 46/// /1411 10064 40204 52002 22200 00078 11208 70038 333 91213
AAXX 07064 91650 NIL
AAXX 07064 91652 NIL
AAXX 07064 91656 NIL
AAXX 07064 91659 NIL
AAXX 07064 91660 NIL
AAXX 07064 91669 36/// /3106 10250 2//// 40064 52002 90617
AAXX 07064 91670 36/// /2400 10265 20237 40058
AAXX 07064 91676 14/// /2604 10265 20237 39990 40050 50006 60001
AAXX 07064 91680 11498 80703 10250 20250 40060 53005 60201 70266 8687/ 333 5699/ 84816 84645 88460
AAXX 07064 91682 NIL
AAXX 07064 91683 11498 80000 10270 20256 40052 53002 60011 76066 8687/ 333 5699/ 84810 83645 88460
AAXX 07064 91691 14/// /2806 10278 20251 30055 40058 50004 60081
AAXX 07064 91693 11599 70000 10257 2025/ 40048 53006 60131 72126 8487/ 333 5699/ 83820 83643 86461
AAXX 07064 91697 14/// /3004 10253 20241 30051 40056 50005 60011
AAXX 07064 91699 14/// /2101 10269 20250 30020 40051 50004 60001
AAXX 07061 21802 42999 50000 11415 21431 30372 40400 53003 83049
AAXX 07061 24125 42998 23001 11434 21450 30105 40439 52002 80001
AAXX 07061 24136 42999 00000 11488 21522 30288 40410 52004
AAXX 07061 24143 42999 60000 11464 21492 30281 40341 53013 80006
AAXX 07061 24266 41998 80000 11439 21461 30150 40359 52008 77177 80005
AAXX 07061 24329 42999 10000 11416 21443 30087 40444 53006 81010
AAXX 07061 24343 42999 23202 11355 21383 30191 40327 52008 82032
AAXX 07061 24382 41996 80000 11437 21461 30061 40359 52007 77077 83036
AAXX 07061 24639 41993 02301 11409 21438 30205 40386 52005 74444
AAXX 07061 24641 41998 01801 11419 21455 30192 40361 52013 71200
AAXX 07061 24652 42999 02802 11445 21469 30182 40329 52014
AAXX 07061 24656 41999 42702 11421 21455 30195 40314 52010 70173 80001
AAXX 07061 24671 42999 80000 11411 21438 39719 40309 53006 80001
AAXX 07061 24688 41999 50000 11496 21522 39284 40386 53003 72272 80001
AAXX 07061 24724 42999 03203 11319 21350 39823 40425 52009
AAXX 07061 24738 42999 12101 11392 21405 30188 40395 52006 80001
AAXX 07061 24768 41998 72501 11340 21378 30022 40287 52003 70272 80005
AAXX 07061 24923 42999 00000 11306 21351 30064 40412 52008
AAXX 07061 24944 41999 82602 11353 21383 30057 40393 52015 70272 82031
AAXX 07061 24951 41999 83002 11351 21387 30159 40351 52027 70272 80007
AAXX 07061 24661 42999 30000 11409 21438 39982 40293 52003 82031
AAXX 07061 24959 42999 82701 11392 21417 30164 40314 52014 82031
AAXX 07061 24962 41998 83202 11332 21362 30080 40292 53010 77172 86071
AAXX 07061 24966 41997 80000 11292 21309 30014 40255 54000 77172 8652/ 333 86617
AAXX 07061 24967 41999 82902 11299 21345 30061 40305 53016 70272 8801/
AAXX 07061 25206 41998 82204 11359 21386 30229 40260 53003 77177 84037
AAXX 07061 25400 41997 80000 11386 21407 30222 40286 52005 77172 82037
AAXX 07061 30054 41998 70203 11219 21251 30102 40366 52005 77172 84905
AAXX 07061 30089 41599 30102 11254 21300 30102 40349 52022 70171 82900
AAXX 07061 30393 41497 83504 11196 21215 39160 40271 53003 78587 84931
AAXX 07061 30493 42699 80000 11211 21236 39158 40279 57010 82579
AAXX 07061 31004 41997 83404 11254 21292 39377 40289 53005 77173 83037 333 91110
AAXX 07061 31137 42999 80000 11296 21316 39145 40285 56014 8802/
BBXX VNSZ 07064 99378 31449 46/// /0710 10285 20054 30019 40044 57024 22200 04220 85155
BBXX 9HA2479 07064 99198 31622 46/// /1616 10256 20195 30061 40090 57003 22254 04274 85214
BBXX C6FS9 07064 99346 31513 46/// /0424 10209 20145 30078 40114 57029 22244 04228 85169
BBXX VROB 07064 99068 31470 46/// /1510 10289 20215 30037 40061 57024 22200 04306 85236
BBXX VNAH 07064 99357 31276 46/// /2734 10159 20123 30006 40029 52001 22262 04182 85138
BBXX FHZI 07064 99428 31473 46/// /0112 10223 20094 30030 40040 57026 22272 04184 85148
BBXX B2M1303 07063 99202 31099 41598 41815 10280 20224 40096 57007 703// 84400 22243 00240 20404 80240
BBXX mpjh9 07064 99280 31133 41898 31642 10272 20165 40182 70200 82180 22284 20302 319// 40505 80205
BBXX A8TX8 07063 99272 31537 41598 31008 10250 20188 40130 57020 701// 83100 22243 04280 20502 315// 40604 80210
BBXX VNAA 07064 99507 31461 41598 80116 10100 20096 40047 58015 71522 888// 22243 00111 20401 325// 41204 80098
AAXX 07061 30157 41996 80000 11243 21275 30048 40361 56003 77172 8801/
AAXX 07064 03008 11470 72922 10062 20019 49977 60012 78782 872// 90550 333 20059 31/// 70020 87818 90710 91143 91035
AAXX 07061 38196 31498 11403 11038 21105 39313 40324 58005 73633 81600 333 21070 91117
AAXX 07061 38198 32997 00804 11020 21062 30066 40333 58005 333 21093
AAXX 07061 38328 32999 01901 11054 21105 39559 40319 58006 333 21135
AAXX 07061 38334 12497 20803 11042 21088 39320 40314 58004 69920 82600 333 21065
AAXX 07061 38439 31596 80901 11060 21075 39974 40329 54000 71022 885// 333 21075
BBXX VNSZ 07064 99378 31449 46/// /0710 10285 20054 30019 40044 57024 22200 04220 85155
BBXX 9HA2479 07064 99198 31622 46/// /1616 10256 20195 30061 40090 57003 22254 04274 85214
BBXX C6FS9 07064 99346 31513 46/// /0424 10209 20145 30078 40114 57029 22244 04228 85169
BBXX VROB 07064 99068 31470 46/// /1510 10289 20215 30037 40061 57024 22200 04306 85236
BBXX VNAH 07064 99357 31276 46/// /2734 10159 20123 30006 40029 52001 22262 04182 85138
BBXX FHZI 07064 99428 31473 46/// /0112 10223 20094 30030 40040 57026 22272 04184 85148
BBXX B2M1303 07063 99202 31099 41598 41815 10280 20224 40096 57007 703// 84400 22243 00240 20404 80240
BBXX mpjh9 07064 99280 31133 41898 31642 10272 20165 40182 70200 82180 22284 20302 319// 40505 80205
BBXX A8TX8 07063 99272 31537 41598 31008 10250 20188 40130 57020 701// 83100 22243 04280 20502 315// 40604 80210
BBXX VNAA 07064 99507 31461 41598 80116 10100 20096 40047 58015 71522 888// 22243 00111 20401 325// 41204 80098
AAXX 07061 38196 31498 11403 11038 21105 39313 40324 58005 73633 81600 333 21070 91117
AAXX 07061 38198 32997 00804 11020 21062 30066 40333 58005 333 21093
AAXX 07061 38328 32999 01901 11054 21105 39559 40319 58006 333 21135
AAXX 07061 38334 12497 20803 11042 21088 39320 40314 58004 69920 82600 333 21065
AAXX 07061 38439 31596 80901 11060 21075 39974 40329 54000 71022 885// 333 21075
BBXX 46088 07061 99483 71232 46/// /1209 10050 40254 90620 22200 00078 10401 20401 333// 41101 70007 333 91210 555 11093 22098 30605 41211 60619 115087 119086 117084 119088 117087 114089
BBXX 46087 07061 99485 71247 46/// /0907 10059 20056 40254 90620 22200 00083 333 91209 555 11070 22074 30616 40909 60619 091066 113056 119057 128058 125059 125057
BBXX 44039 07061 99411 70727 46/// /2305 10084 20042 40088 90615 22200 00066 10301 70003 333 91207
BBXX 44060 07061 99413 70721 46/// ///05 10079 40079 90615 22200 00084 333 91206 555 11057 22062
BBXX 44022 07061 99409 70737 46/// ///03 10073 20031 40081 90615 22200 00056 333 91204 555 11041 22046
BBXX 41036 07061 99342 70770 46/// ///// 10169 20095 40163 90620 22200 00184
BBXX C6DM2 07064 99054 11003 416// 40309 10310 20270 40120 54000 70311 841// 22200 0//// 2//// 3//// 4//// 5//// 6//// 80280 ICE /////
BBXX C6RN3 07064 99272 70796 41797 42907 10200 20135 40250 54000 7//00 821/8 22274 00250 20102 3//// 4//// 5//// 6//// 80160 ICE /////
BBXX VRJI2 07063 99151 50356 41698 20909 10260 2022/ 40140 54000 70200 82100 22243 04280 21202 30910 41001 51001 6/00/ 80230 ICE 0////
BBXX C6VG8 07064 99336 70754 41/98 12326 10220 2//// 40160 56020 7//00 8//// 22284 00230 20204 323// 40404 5//// 6//// 8//// ICE /////
BBXX C6YA5 07064 99458 50752 418// 41917 10150 2//// 40090 5//// 7//// 8//// 22253 00170 20201 322// 40401 5//// 6//// 8//// ICE /////
BBXX WKAB 07064 99174 10594 41298 10808 10278 20195 40188 54000 70200 81100 22264 00244 20201 305// 40402 5//// 6//// 80221 ICE /////
BBXX WAZV 07063 99504 71313 41398 71820 10080 2004/ 40190 50020 70322 876// 22273 00080 20503 329// 41007 5//// 6//// 80060 ICE /////
BBXX TBWUK18 07063 99242 30689 41497 42316 10245 20238 40091 51006 70111 8446/ 22212 00260 20602 311// 41204 5//// 80240
BBXX TBWUK17 07063 99234 30083 41398 51306 10206 20203 40247 52010 70222 84460 22273 04220 20101 307// 40102 5//// 80204
BBXX DDJU2 07063 99219 10378 41599 70113 10243 20174 40145 53012 70322 877// 22234 04250 20301 300// 4//// 5//// 80200
BBXX DCLH2 07060 99326 11346 41598 73105 10100 20038 40265 52005 70222 8/4// 22254 06210 2//// 3//// 4//// 5//// 80070
BBXX VRCI9 07064 99533 11735 41298 30824 11010 21039 40055 54000 70121 8//// 22264 00036 2//// 3//// 4//// 81020
BBXX SHIP 07064 99335 11361 41697 53621 10130 20025 40260 56/// 70111 84235 22213 00210 20403 336// 40403 80080
BBXX SHIP 07064 99058 10831 41697 20310 10290 20250 40156 52004 70300 821/2 90600 22234 00290 1//// 2//// 307// 4//02 5//// 6//// 80260 /////
BBXX DDAC2 07060 99510 11616 41498 60406 11003 21022 40090 54000 7//22 85870 22263 04020 20302 311// 40804 5//// 81010
BBXX DQVJ 07061 99429 11681 41598 81506 10055 20033 49955 53015 76066 888// 22223 00085 20802 322// 41206 5//// 80045
BBXX MSTM6 07063 99085 10820 41598 60519 10270 20241 40151 51/// 70322 85476 22284 00272 20203 309// 40302 80250
BBXX C6DM2 07064 99054 11003 416// 40309 10310 20270 40120 54000 70311 841// 22200 0//// 2//// 3//// 4//// 5//// 6//// 80280 ICE /////
BBXX MEGW9 07064 99163 11163 41298 70328 10241 20225 40163 50007 70222 83972 22213 2//08 3//// 4//07 5//// 80230
BBXX UHMI 07061 99462 11409 41397 43410 11020 40248 54000 77022 84430 22273 06020 20302 33400 40604
BBXX 46204 07061 99514 71288 46/// /1411 10064 40204 52002 22200 00078 11208 70038 333 91213
BBXX 46131 07061 99499 71250 46/// /1109 1//// 40263 52014 22200 00074 10501 70007 333 91210
BBXX SHIP 07064 99343 71557 41498 72123 10210 20180 2 40138 57007 7012 8581/ 22263 00230 80190
BBXX 46183 07061 99536 71311 46/// /1610 10065 40151 57009 22200 00075 10804 70019 333 91213
BBXX WRYC 07064 99319 70803 41898 22315 10150 2013/ 40180 54010 70100 82100 22264 00150 20102 323// 40102 5//02 6//// 80140 ICE /////
BBXX 46147 07061 99518 71312 46/// /1809 10069 40168 57016 22200 00076 11409 70043 333 91211
BBXX A8TG2 07063 99258 71559 41/// /0510 10220 20189 40200 50000 7//11 22263 00180 21001 30229 41506 51806 80200
BBXX SHIP 07064 99548 71533 41697 70239 10010 21015 49780 57025 70277 87757 22263 06040 20810 334// 40810 80000
BBXX SHIP 07064 99343 71557 41498 72123 10210 20180 40138 57007 7012 2 8581/ 22263 00230 80190
BBXX SHIP 07064 99546 71752 41597 60128 11004 21040 40021 51037 72222 867// 90600 22264 00040 2//// 3//// 4//// 82040
BBXX 44098 07061 99428 70702 46/// ///// 1//// 90607 22200 00079 10502 20502 70008
BBXX 46221 07061 99339 71186 46/// ///// 1//// 90545 22200 00149 11704 21003 326// 41703 70020
BBXX 46114 07061 99364 71222 46/// ///// 1//// 90604 22200 00110 11509 20905 329// 41507 70045
BBXX 51205 07061 99210 71564 46/// ///// 1//// 90618 22200 00236 12004 21003 331// 42003 70019
BBXX 41114 07061 99276 70802 46/// ///// 1//// 90616 22200 00209 11101 21001 307// 41101 70006
BBXX 41115 07061 99184 70673 46/// ///// 1//// 90605 22200 11204 20703 300// 41202 70019
BBXX DMDZ 07064 99286 70364 41498 40809 10210 20172 40225 54000 7//11 8414/ 22224 00230 20701 309// 41002 5//// 80185
BBXX ELWG7 07064 99479 71306 416// 82313 10090 2007/ 40230 54000 7//22 886// 22274 00120 20804 323// 40808 5//// 6//// 80080 ICE /////
BBXX 9HA2583 07064 99323 70701 41598 32320 1//// 2//// 40230 53/// 7//11 83276 22234 0//// 2//// 3//// 4//// 5//// 6//// 8//// ICE /////
BBXX C6RN3 07064 99272 70796 41797 42907 10200 20135 40250 54000 7//00 821/8 22274 00250 20102 3//// 4//// 5//// 6//// 80160 ICE /////
BBXX 46214 07061 99379 71235 46/// ///// 1//// 90618 22200 00113 11510 20907 330// 41507 70048
BBXX 46218 07061 99345 71208 46/// ///// 1//// 90602 22200 00128 11709 21006 330// 41707 70047
BBXX 46242 07061 99332 71174 46/// ///// 1//// 90558 22200 00154 11803 21002 324// 41802 70014
BBXX 46219 07061 99332 71199 46/// ///// 1//// 90558 22200 00133 11709 20906 329// 41707 70046
BBXX 46223 07061 99335 71178 46/// ///// 1//// 90600 22200 00153 11504 20902 328// 41503 70019
BBXX 46231 07061 99327 71174 46/// ///// 1//// 90554 22200 00149 11505 21003 328// 41504 70026
BBXX 46222 07061 99336 71183 46/// ///// 1//// 90556 22200 00150 11704 20903 327// 41703 70020
BBXX 46216 07061 99343 71198 46/// ///// 1//// 90557 22200 00142 11404 21003 327// 41403 70020
BBXX 46237 07061 99378 71226 46/// ///// 1//// 90610 22200 00110 11506 21003 326// 41505 70032
BBXX 46212 07061 99408 71243 46/// ///// 1//// 90612 22200 00105 11406 20904 329// 41405 70031
BBXX 46240 07061 99366 71219 46/// ///// 1//// 90612 22200 00117 11304 21003 335// 41303 70020
BBXX 46217 07061 99342 71194 46/// ///// 1//// 90612 22200 00144 11504 21003 327// 41503 70021
BBXX 46241 07061 99330 71173 46/// ///// 1//// 90541 22200 00143 11503 21002 326// 41503 70017
BBXX 46244 07061 99409 71244 46/// ///// 1//// 90605 22200 00105 11306 21004 329// 41305 70031
BBXX 46248 07061 99461 71247 46/// ///// 1//// 90604 22200 00094 11207 21005 328// 41205 70033
BBXX 46249 07061 99338 71197 46/// ///// 1//// 90607 22200 00140 11404 21003 327// 41403 70022
BBXX DAJT 07064 99309 50500 41598 61712 10225 20211 40090 50/// 70322 8487/ 22253 00220 2//01 80215
BBXX C6YA5 07064 99458 50752 418// 41917 10150 2//// 40090 5//// 7//// 8//// 22253 00170 20201 322// 40401 5//// 6//// 8//// ICE /////
BBXX VRJI2 07063 99151 50356 41698 20909 10260 2022/ 40140 54000 70200 82100 22243 04280 21202 30910 41001 51001 6/00/ 80230 ICE 0////
BBXX BAREU54 07064 99021 70795 46/// ///// 40114 57010 22253
BBXX DCAX2 07063 99334 51114 41496 80922 10190 20125 40290 54000 70322 87779 22223 21004 311// 41004 5//// 80151
BBXX IDDUK02 07064 99539 50376 46/// ///// 40021 222//
BBXX BATFR53 07064 99107 51030 44598 21216 10232 20162 40167 50013 70100 82100 22223 00232 202// 31322 40602 5////
BBXX WDC6907 07064 99378 70515 41598 73430 10141 2011/ 40126 52042 70222 8726/ 22263 00210 20604 331// 41407 5//// 6//// 80120 ICE /////
BBXX 46207 07061 99509 71299 46/// /1808 10075 40197 57007 22200 00079 11407 70035 333 91210
BBXX PFBE 07063 99429 70475 41/96 92223 10105 20032 40065 52010 78066 897// 22224 04125 29905 80070 91256
BBXX A8NQ5 07063 99417 70637 41598 41711 10080 21015 40090 56010 71311 84876 22214 04090 22002 80040
BBXX C6TQ6 07064 99216 70864 41798 30924 10240 20196 40210 55020 70211 8346/ 22285 00270 20306 32222 40206 50204 6//// 80210 ICE /////
BBXX V7HC6 07064 99273 70907 41/// /1618 10200 20185 40187 56003 702// 8//// 22200 00218 20402 323// 40502 5//// 6//// 80190 ICE /////
BBXX C6VG7 07064 99216 70860 41697 41117 10270 2//// 40190 54/// 7//// 83616 22214 00270 20402 3//// 40402 50402 6//// 8//// ICE /////
BBXX 46112 07061 99481 71227 46/// /1305 10049 40262 53011 90600
BBXX 46111 07061 99481 71227 46/// /1707 10052 40259 53009 90600 22200 00049
BBXX 41037 07061 99340 70775 46/// /2610 10162 40165 58009 90600 22200 00189 333 91211
BBXX 44034 07061 99441 70681 46/30 /3103 10046 40063 55000 90604 22200 00072 10603 70015 333 91204 555 11030 22031
BBXX 41029 07061 99328 70796 46/// /2405 1//// 90600 555 11054 22055
BBXX 44067 07061 99384 70770 46/// /2201 10098 40102 57003 90600
BBXX ZMENA 07064 99436 31727 46/// ///// 10186 20131 40094 222//
BBXX V2QD4 07063 99375 31551 41599 10314 10206 20174 40145 50008 70200 8/561 22224 00196 20402 318// 41002
BBXX ZMFR 07064 99433 51751 43/// /0120 10158 20151 40146 52004 22222 00148
BBXX 2AKI2 07063 99049 30847 41698 63115 10294 20249 40123 57011 70222 83466 22254 00289 20402 32400 40703 5//// 80262
BBXX SHIP 07064 99009 11464 41498 40610 10284 20244 40073 57006 70222 84114 22211 06298 10902 2//02 304// 40403
BBXX DDSC2 07063 99066 70797 41298 83606 10275 20234 40120 50010 70322 8586/ 22244 00262 20300 80245
BBXX A8RU5 07064 99376 10093 41597 63428 10113 20083 40214 52022 71811 83995 22294 20503 334// 41212 80097
BBXX DGOQ 07064 99544 10101 41/97 92416 10042 21020 40030 702// 22200 04053 80020
BBXX 62095 07064 99531 70159 46/// /2814 10095 20048 40280 51008 22200 00110 10808 70039
BBXX 62103 07064 99499 70029 46/97 /2930 10109 20097 40236 57005 22200 00115 10604 70018 333 90710 91137
BBXX 62304 07064 99511 10018 46/98 /2522 10104 20085 40181 55007 22200 00101 10602 70011 333 90710 91130
BBXX 62305 07064 99504 10000 46/98 /2735 10110 20094 40215 55008 22200 00112 10603 70017 333 90710 91143
BBXX 62170 07064 99514 10020 46/97 /2522 10108 20093 40170 55007 22200 00102 10502 70010 333 90710 91129
BBXX 62103 07064 99499 70029 46/98 ///30 10112 20098 40236 57008 22200 00115 10603 70017 333 90710 91139
BBXX 62094 07064 99517 70067 46/// /2920 10100 20066 40252 52020 22200 00102 10504 70020 333 90710 91127
BBXX 63115 07064 99616 10013 47498 /2624 10064 20026 49909 58004 700// 22200 10708 70042
BBXX MWYG6 07064 99603 70040 47997 /2829 10064 762// 22200
BBXX 62027 07064 99491 70022 46/// /2919 1//// 2//// 40257 58007 22200 00115 10704 330// 70020 333 90710 91126
BBXX PJGO 07064 99571 10022 47/97 /2724 10071 40030 51002 700// 22200
BBXX 62164 07064 99572 10008 47597 /2823 10083 20033 40040 55000 700// 22200 00087 10606 70032
BBXX 62146 07064 99572 10021 47/98 /2403 10074 20032 40033 50003 700// 22200 10606 70029
BBXX 62140 07064 99573 10013 46/// /29// 10078 20033 40018 58002 22200
BBXX 62122 07064 99573 10016 47598 /2831 10075 20034 40023 57003 700// 22200 10606 70028
BBXX 62153 07064 99573 10020 47598 /2613 10075 20039 40018 58002 700// 22200 10606 70030
BBXX 62104 07064 99574 10013 47597 /2929 10087 20041 40018 58003 700// 22200
BBXX 62116 07064 99576 10011 47496 /2930 10076 20033 40014 57005 761// 22200 10607 70033
BBXX 62155 07064 99577 10007 47597 /2828 10059 20029 40030 57002 762// 22200 10607 70034
BBXX 62118 07064 99577 10009 47997 /2923 10059 20024 40020 50000 700// 22200 10606 70031
BBXX 63112 07064 99611 10010 46/// /2923 10059 20017 49919 54000 22200 10707 70034
BBXX 63113 07064 99610 10017 46/// /3023 10073 20020 49936 50003 22200 10707 70034
BBXX 63107 07064 99611 10017 46/// /2818 10069 49918 52001 22200
BBXX 63105 07064 99610 10017 47597 ///// 10076 20024 49919 52001 700// 22200
BBXX 62143 07064 99577 10018 47597 /3120 10076 20035 40026 58002 700// 22200 10606 70032
BBXX 62117 07064 99579 10000 47997 /2830 10075 20035 40023 55002 700// 22200 10605 70027
BBXX 62102 07064 99579 10018 46/// /3030 10072 20026 40002 57005 22200 10707 70034
BBXX 62134 07064 99580 10014 47497 /2925 10072 20036 40005 58005 700// 22200 10607 70033
BBXX 62114 07064 99583 10000 46/// /2831 10069 20020 40002 56004 22200
BBXX ZQSD5 07064 99583 10007 46/// /2926 10074 20024 40008 57006 22200 10709 70045
BBXX 62142 07064 99530 10021 47797 /2930 10084 20047 40122 55001 700// 22200 10504 70018
BBXX 62145 07064 99531 10028 47997 /2824 10081 20047 40126 50008 700// 22200 10505 70024
BBXX 62144 07064 99534 10017 47997 /2824 10080 20054 40139 52013 700// 22200 10403 70016
BBXX 62121 07064 99535 10027 46/// /2925 10084 20033 22200
BBXX 64045 07064 99591 70117 46/// /2833 10081 20030 40072 52012 22200 00098 11017 70083 333 90710 91147
BBXX 62150 07064 99536 10007 47698 /2725 10083 20043 40145 52012 700// 22200 10403 70013
BBXX 62148 07064 99536 10015 46/// /2825 10086 20039 40128 52007 22200
BBXX 62149 07064 99537 10011 47998 /2822 10088 20043 40127 52010 751// 22200 10503 70016
BBXX 62131 07064 99539 10012 46/// /29// 10084 20038 40116 52006 22200
BBXX 62127 07064 99540 10007 46/// ///// 10083 20031 40121 53006 22200 10503 70017
BBXX PDZS 07063 99619 50602 41297 82830 10015 21010 49880 51013 70282 887// 22281 02012 20606 332// 40706 5//// 80005
BBXX BATEU00 07064 99696 30212 46/// /2305 11042 21083 49829 57004 22252
BBXX 62165 07064 99540 10009 47998 /2826 10084 20030 40129 52013 700// 22200 10504 70021
BBXX 62123 07064 99563 10022 47597 /2827 10084 20041 40037 56002 700// 22200
BBXX 62132 07064 99564 10020 46/// /3126 10082 20039 40058 50007 22200
BBXX 62120 07064 99564 10021 47597 /2927 10079 20050 40039 56001 700// 22200
BBXX 62154 07064 99564 10022 46/// /2925 10080 20035 40035 55000 22200
BBXX 62152 07064 99570 10018 47/97 /2921 10079 20034 40039 50002 700// 22200 10506 70029
BBXX 62119 07064 99570 10019 47597 /3027 10080 20032 40039 50002 700// 22200 10605 70027
BBXX 62133 07064 99571 10009 46/// /2929 10076 20019 40034 56003 22200 10605 70027
BBXX 64041 07064 99607 70026 47597 /2628 10065 20032 49941 57006 700// 22200 10809 70043
BBXX 63117 07064 99613 10011 47598 /2817 10062 20013 49917 56001 700// 22200
BBXX 63104 07064 99612 10016 47498 /3026 10066 20023 49912 56001 700// 22200
BBXX 63103 07064 99612 10011 46/// /3017 10066 20022 49922 58004 22200 10707 70034
BBXX 63101 07064 99612 10009 46/// /3016 10071 20033 49915 51001 22200
BBXX 63106 07064 99610 10017 46/// /2826 10069 49921 53001 22200
BBXX 63108 07064 99608 10017 47697 /2924 10068 20022 49926 54000 700// 22200 10706 70028
BBXX 63055 07064 99606 10016 47897 /2823 10071 20025 49938 51001 704// 22200 10707 70034
BBXX 62113 07064 99584 10002 47998 /2925 10070 20029 40009 58006 700// 22200
BBXX 63057 07064 99592 10015 47697 /2825 10074 20026 49967 56003 700// 22200 10606 70032
BBXX 62129 07064 99584 10003 46/// ///// 10069 20029 40005 58004 22200
BBXX 62128 07064 99587 10014 47597 /2827 10070 20038 49993 52002 700// 22200 10707 70035
BBXX 63110 07064 99595 10015 47598 /2925 10064 20025 49959 56003 700// 22200 10707 70033
BBXX 63109 07064 99596 10015 46/// /3028 10068 20021 49956 56004 22200
BBXX 63056 07064 99597 10016 47597 /2827 10072 20029 49942 56005 700// 22200 10607 70033
BBXX 62111 07064 99580 70003 46/// /3031 10072 20027 40042 55002 22200 10606 70028
BBXX PJAI 07064 99581 70014 47597 /2824 10077 20021 40035 53003 700// 22200
BBXX 62303 07064 99516 70051 46/// /3119 10107 20069 40236 52007 22200 00107 10605 70024
BBXX 62112 07064 99584 70002 47997 /2917 10070 20036 40008 58002 700// 22200
BBXX 62107 07064 99501 70061 46/// /3024 10112 20102 40267 55004 22200 00114 10704 70021 333 90710 91133
BBXX 62301 07064 99524 70047 46/// /2817 10093 20057 40222 52009 22200 00084 10504 70021
BBXX 64046 07064 99605 70049 46/// /3039 10076 20042 49962 56002 22200 00075 10811 70054
BBXX 62001 07064 99452 70050 46/// /3210 10127 20094 40334 55001 22200 00132 10905 70027
BBXX 62029 07064 99487 70125 46/// /2911 10122 20113 40324 53001 22200 00124 10705 70025
BBXX 62163 07064 99475 70084 46/// /2811 10116 20094 40326 57006 22200 00123 10905 70026
BBXX 62442 07064 99490 70164 46/// /2613 1//// 2//// 40328 52003 22200 00119
BBXX 62081 07064 99510 70134 46/// ///// 10105 20097 40300 52007 22200 00113 10706 70028
BBXX 62105 07064 99554 70122 46/// /2827 10096 20049 40210 52009 22200 00106 10810 70050 333 90710 91140
BBXX ZNQO3 07060 99325 10290 41698 22015 10160 20069 40099 51015 70200 82100 22224 04193 20304 320// 40410 5//// 80115
BBXX VRCZ7 07063 99303 10323 41/98 11505 10133 20064 40157 54000 70200 81/// 22200 2//// 3//// 4//// 5//// 80100
BBXX BATUK01 07064 99580 70035 46/// /2833 10059 20012 40048 53016 22251 00077
BBXX 61002 07064 99421 10047 46/// ///34 10107 2//// 40238 52006 22200 00132 10809 70047 555 1/046
BBXX BAREU12 07064 99473 70243 46/// ///// 40305 57014 22264
BBXX V2JU 07060 99359 70063 41198 10905 10200 20193 40260 57000 7//42 8117/ 22264 20201 3//// 4//// 5//// 80195
BBXX SHIP 07064 99461 70193 41398 82409 10135 20127 40350 54000 70222 888// 22224 04130 2//// 80130
BBXX BATFR34 07064 99476 70053 46/// /3117 4//// 22231 00132
BBXX 61001 07064 99434 10078 46/// /1409 10123 20048 40184 52002 22200 00133 10702 70010
BBXX BAREU06 07064 99364 70025 46/// ///// 40282 52005 22264
BBXX BATFR12 07064 99487 70065 46/// /2716 10114 20107 40298 58001 22200 00132
BBXX BATEU06 07064 99478 70101 46/// /2818 10144 20112 40316 52009 22254 00134
BBXX BATFR04 07064 99575 70061 46/// /2509 10069 20012 40100 50007 22200 00097
BBXX BATFR16 07064 99463 70171 44497 82508 10129 20120 40350 56004 70222 885// 22224 00134 20300
BBXX BATFR60 07064 99531 10041 46/// /2634 10090 20057 40092 53001 22252 00079
BBXX BATFR42 07064 99507 70020 46/// /2818 10099 20094 40216 55013 22261 00117
BBXX BATEU08 07064 99587 70056 46/// /3437 10077 20032 40033 53006 22251
BBXX BATFR58 07064 99432 10067 46/// /3014 40200 53005 22200 00154
BBXX BATFR05 07064 99314 70122 46/// /0517 10159 20122 40244 56007 22212 00167
BBXX BATFR52 07064 99508 70011 46/// /2623 10104 20084 40205 56015 22282 00087
BBXX BATEU04 07064 99581 10018 46/// /3026 10069 20034 40004 56013 22222
BBXX BATFR31 07064 99433 10053 46/// /3319 10070 20064 40232 53035 22232 00127
BBXX BATFR22 07064 99413 10093 46/// /0706 10140 40200 53002 22214 00147
BBXX BATFR15 07064 99495 70041 46/// /2727 10114 20104 40250 53011 22253 00120
BBXX A8QJ7 07064 99493 70098 41/97 82812 10120 20110 40294 58003 75800 8//// 22263 2//// 3//// 4//// 5//// 80115
BBXX BATFR21 07064 99427 10089 46/// /1904 40197 53001 22233
BBXX BATFR02 07064 99572 10084 46/// /3035 10074 20059 49972 56048 22214 00094
BBXX BAREU51 07064 99400 10136 46/// ///// 40121 52028 22284
BBXX BAREU04 07064 99477 70248 46/// ///// 40308 52003 22223
BBXX BAREU60 07064 99435 10164 46/// ///// 40136 52015 22223
BBXX TESTFR9 07064 99507 70011 46/// /2721 10102 29094 40225 57001 22273
BBXX BAREU56 07064 99444 10089 46/// ///// 40194 22200
BBXX 3ERR2 07064 99635 10053 41698 81117 10040 21028 49899 57021 70222 8802/ 22200 06089 11105 70025 333 91122
BBXX LF4C 07064 99584 10019 41597 72928 10071 20041 49988 57004 702// 89/// 22200 00065 10706 70032 333 91134
BBXX LF5T 07064 99660 10081 41598 /0911 10024 21045 49948 57010 715// 22200 10806 70032 333 91116
BBXX LF3F 07064 99643 10078 41698 61209 10029 21044 49929 57021 70222 8650/ 22200 04084 10905 70024 333 91113
BBXX LF4B 07064 99606 10037 47/98 /3020 10063 49928 52003 723// 22200 00058 10706 70032 333 91130
BBXX LF3N 07064 99653 10073 41598 60911 10032 21038 49936 57015 70282 8//// 22200 00091 10806 70031
BBXX DCPI2 07063 99363 70015 41/98 /1013 10168 20123 40276 53006 70200 8//// 22224 00140 2//// 80141
BBXX PHAL 07063 99303 70147 41/98 70217 10178 20121 40250 52008 70322 8//// 22283 2//// 80144 91256
AAXX 07063 61701 31959 40207 10192 20090 40140 70511 82030 333 20182 50801 55091 58001 82360
AAXX 07063 61705 NIL
AAXX 07063 61707 NIL
AAXX 07063 61711 NIL
AAXX 07063 61712 32960 30905 10170 20071 4//// 80002 333 20/// 50501 55083
AAXX 07063 61717 31959 30000 10206 20045 4//// 70500 82032 333 20200 50111 55094 5//// 82360
AAXX 07063 61720 NIL
AAXX 07063 61721 NIL
AAXX 07063 61722 32960 00000 10209 20020 4//// 80000 333 20202 50971 55087 5////
AAXX 07063 61731 NIL
AAXX 07063 61733 NIL
AAXX 07061 60376 16/// /1502 10090 20090 60014 333 20090
AAXX 07061 60593 36/// /0000 10094 333 20093
OOXX AAEMI 07064 99785 31731 57083 00521 46/// /2212 11034 21067 39676 49740 5//// 90540
AAXX 07064 89050 41397 73120 10005 21009 49857 52009 72274 86610
AAXX 07064 89512 32598 83310 11045 21092 39670 49820 57006 885// 333 21047
AAXX 07064 89574 42498 80801 10023 21064 49678 57008 83678
AAXX 07064 89592 41393 81019 11046 21058 49689 57004 78883 889//
AAXX 07064 89606 41995 82118 11255 21307 36245 47828 57005 77673 80007 333 21320
AAXX 07061 55299 32880 72707 11060 21318 35822 57018 87400 333 00100 21190
AAXX 07061 55591 32680 12502 10032 21202 36505 57024 81100 333 00201 21101
AAXX 07061 56739 32575 72004 10143 20043 38390 57023 86402 333 00251 20025
AAXX 07061 56951 32780 70201 10197 21003 38538 57031 81402 333 00202 20052
AAXX 07061 56964 32580 32904 10209 20101 38742 40181 57031 83200 333 00202 20091
AAXX 07061 57328 11865 82001 10087 20004 39869 40291 57031 69901 70060 885// 333 20055
AAXX 07061 57411 11560 83601 10085 20016 39913 40295 57032 69901 76060 8571/ 333 20053
AAXX 07061 57447 11458 82201 10036 20023 39757 40322 57029 69921 76066 8172/ 333 20033
AAXX 07061 57662 32965 83403 10050 21096 30139 40329 57029 8807/ 333 20029
AAXX 07061 57745 32760 80202 10061 21028 39977 40316 57031 885// 333 20040
AAXX 07061 57972 31758 81101 10056 20031 30079 40313 57029 71000 885// 333 20028
AAXX 07061 58203 32970 01103 10060 21072 30306 40350 57036 333 21056
AAXX 07061 58314 32965 70703 10060 21045 30222 40334 57035 8704/ 333 21063
AAXX 07061 58424 32961 80903 10057 21042 30302 40329 57032 8807/ 333 20008
AAXX 07061 59023 32568 81102 10083 20038 39966 40287 57032 888// 333 20064
AAXX 07061 59417 11462 80902 10102 20071 30111 40271 57029 69901 76066 887// 333 20085
AAXX 07061 59985 32580 20406 10262 20194 30187 40192 57026 82100 333 20222
AAXX 07061 59995 NIL
BBXX 46185 07061 99524 71298 46/// /1908 10062 40186 57004 22200 00068 10906 70028 333 91209
AAXX 07064 42309 31596 30902 10196 20141 40199 70521 81530 333 58009
AAXX 07064 42314 31596 40000 10212 20120 40202 70522 82530 333 58010 82620 83360
AAXX 07064 42410 31995 03605 10208 20172 40209 70500 333 58021
AAXX 07064 42415 32996 20203 10232 20124 40220 82030 333 58018 82360
AAXX 07064 42492 31594 81106 10152 20141 40204 74422 8452/ 333 58011 82620 88458
AAXX 07064 42587 31495 70000 10184 20160 40186 70522 84530 333 58007 84618 86360
AAXX 07064 42591 31994 07008 10208 20172 40192 71000 333 58005
AAXX 07064 42623 31495 21402 10194 20106 39307 40179 70511 82500 333 58023 82618
AAXX 07064 42701 31/92 90904 10164 20161 39448 40185 74544 89/// 333 58019
AAXX 07064 42706 21494 83202 10186 20166 40190 71096 8652/ 333 58020 6990/ 86615 88458
AAXX 07064 42724 31595 50502 10250 20121 40186 70522 82530 333 58008 82620 84360
AAXX 07064 42798 21493 80903 10190 20174 40180 76066 8632/ 333 57990 58007 6001/ 84615 83825 81930 88458
AAXX 07064 42809 21495 80902 10184 20178 40188 76096 8642/ 333 56699 58018 6022/ 85615 88456
AAXX 07064 42886 21494 70000 10214 20192 40177 71096 84530 333 58011 6001/ 84618 86360
AAXX 07064 42895 21495 83201 10216 20194 40179 70362 8652/ 333 58023 6002/ 86618 87458
AAXX 07064 42971 31596 40704 10272 20199 40174 70521 83430 333 58018 83620
AAXX 07064 43333 32496 40706 10302 20229 40143 82401 333 58005 81616
AAXX 07064 42398 NIL
AAXX 07064 42977 NIL
AAXX 07064 43368 NIL
BBXX 46185 07061 99524 71298 46/// /1908 10062 40186 57004 22200 00068 10906 70028 333 91209
AAXX 07061 38847 42999 22504 11079 21093 40366 53014 80004
AAXX 07061 47008 42970 01401 11011 21131 30298 40354 57003
AAXX 07061 47014 42950 20000 11127 21199 39937 40370 58014 80001
AAXX 07061 47016 42970 00000 11116 21188 39457 40378 57034
AAXX 07061 47020 42965 00000 11064 21140 39978 40377 58022
AAXX 07061 47025 42980 01402 10013 21058 30306 40336 57016
AAXX 07061 47035 42970 00000 11012 21092 30350 40359 57018
AAXX 07061 47041 42970 00000 10018 21130 30303 40331 53020
AAXX 07061 47055 42970 00501 10000 21065 30286 40333 57028
AAXX 07061 47058 41959 00000 11022 21124 30311 40361 58022 71000
AAXX 07061 47069 42965 01802 10002 21042 30243 40346 58019
AAXX 07064 41270 36/69 /2303 10235 20153 30151 40163 333 0E018 20182 58006
AAXX 07061 47090 32975 00204 10033 21087 30309 40332 57017 333 92012
AAXX 07061 47095 32970 02003 10008 21165 30146 40341 57026
AAXX 07061 47097 329// /1602 10019 21127 30245 40344 57023
AAXX 07061 47098 329// /2303 10021 21154 30201 40339 57021
AAXX 07061 47099 329// /2303 10013 21140 30311 40349 56017
AAXX 07061 47100 32970 01803 11014 21126 39377 40323 57019
AAXX 07061 47102 32970 00204 11019 21104 30166 40352 57015
AAXX 07061 47104 32970 03603 10036 21087 30226 40325 57017
AAXX 07061 47106 329// /0206 10038 21041 30274 40324 57017
AAXX 07061 47112 32962 02706 10007 21149 30261 40348 56017 333 92012
AAXX 07061 47114 32968 03403 10008 21136 30149 40338 57025
AAXX 07061 47119 32961 02902 10006 21134 30303 40347 57020
AAXX 07061 47121 329// /2502 10025 21100 30030 40331 57031
AAXX 07061 47127 329// /3402 10012 21133 30196 40343 57025
AAXX 07061 47129 32965 02704 10016 21087 30315 40352 57017
AAXX 07061 47130 32670 20904 10045 21061 30261 40324 57018 82500 333 92032
AAXX 07061 47131 32960 03403 10008 21144 30271 40344 57022
AAXX 07061 47135 329// /2508 10018 21139 30025 40332 57026
AAXX 07061 47136 32965 02902 10040 21116 30154 40330 57026
AAXX 07061 47137 329// /0702 10022 21153 30210 40332 57026
AAXX 07061 47140 32968 02505 10011 21064 30319 40349 57017 333 92012
AAXX 07061 47143 32962 02703 10055 21116 30253 40333 57028
AAXX 07061 47145 32968 02706 10013 21152 30313 40340 55018
AAXX 07061 47146 32970 02704 10019 21151 30276 40344 57020
AAXX 07061 47150 32970 03202 10018 21086 30327 40347 57016
AAXX 07061 47152 32970 03202 10077 21072 30273 40316 57021
AAXX 07061 47154 329// /3203 10038 21154 30271 40333 57027
AAXX 07061 47155 32970 01402 10062 21134 30274 40321 57022
AAXX 07061 47156 32970 03203 10031 21105 30248 40340 57021
AAXX 07061 47157 32980 00702 10048 21223 30033 40308 57031
AAXX 07061 47162 32975 00506 10056 21115 30279 40320 57020 333 92022
AAXX 07061 47169 32670 33612 10033 21035 30240 40337 57015 83500 333 92044
AAXX 07061 47170 32975 03406 10037 21123 30286 40331 57018 333 92022
AAXX 07061 47171 329// /3603 10013 21108 30290 40347 57019
AAXX 07061 47172 329// /3205 10012 21086 30272 40341 57018
AAXX 07061 47173 329// /2502 10035 21142 30219 40333 57027
AAXX 07061 47174 32975 02709 10041 21169 30116 40322 57026
AAXX 07061 47175 32973 03406 10009 21053 39739 40330 56015 333 92022
AAXX 07061 47185 32675 13417 10052 21031 30233 40326 56017 81500 333 92035
AAXX 07061 47188 32675 23407 10056 21057 30296 40318 57019 81500 333 92022
AAXX 07061 47189 32670 22506 10094 20020 30250 40310 55012 82500 333 92022
AAXX 07061 47192 32972 01104 10058 21174 30284 40322 57024
AAXX 07061 47003 42980 63204 11030 21151 30341 40345 57015 80001
AAXX 07061 47005 42980 10000 11120 21182 38667 57012 80002
AAXX 07061 47022 42975 00201 11061 21216 38904 57019
AAXX 07061 47028 42967 00000 11030 21112 30254 40354 58029
AAXX 07061 47031 42970 00000 11074 21150 39002 57030
AAXX 07061 47037 42970 00000 10021 21134 30224 40350 58022
AAXX 07061 47039 42960 00000 11001 21128 30150 40347 57032
AAXX 07061 47046 42969 02302 10016 21094 30308 40331 57012
AAXX 07061 47050 42965 00000 11010 21141 30314 40349 57028
AAXX 07061 47052 42965 02903 11017 21115 39997 40349 57008
AAXX 07061 47060 41950 00000 11036 21116 30303 40364 58016 71000
AAXX 07061 47061 42980 00501 10012 21051 30290 40335 57015
AAXX 07061 47065 41960 03201 11038 21110 30288 40357 58010 71000
AAXX 07061 47067 42965 00000 10008 21081 30245 40369 57027
AAXX 07061 47068 42970 00000 11008 21114 30313 40349 58017
AAXX 07061 47070 42970 00000 10009 21135 30258 40348 58015
AAXX 07061 47075 42980 02302 10005 21168 39840 40278 57022
AAXX 07061 24790 41999 30000 11483 21499 39389 40362 53001 77670 80001
AAXX 07061 24988 42999 02701 11329 21357 39893 40176 57001
AAXX 07061 25378 32998 20000 11308 21338 30029 40066 57005 80001 333 11284 91102
AAXX 07061 25503 41699 70000 11450 21471 30139 40290 53005 70272 82535
AAXX 07061 25705 41996 82601 11452 21476 39916 40309 52004 77072 80007
AAXX 07061 25927 42999 83301 11255 21273 30159 40167 57001 82047
AAXX 07061 25932 42999 02904 11236 21302 30099 40141 58002
AAXX 07061 31152 42997 80000 11276 21307 39795 40238 57020 84036
AAXX 07061 31174 41599 61503 11137 21164 30220 40232 57002 70231 82501 333 91111
AAXX 07061 31489 42997 01602 11167 21201 30141 40265 57011
AAXX 07061 31866 42999 02804 11042 21163 30247 40253 55007
AAXX 07061 31959 42998 22706 11051 21142 30225 40269 57003 80001 333 91112
AAXX 07061 31989 42999 03504 11034 21220 30232 40288 55006
AAXX 07061 32027 42999 01801 11145 21172 30230 40239 57011 333 91002 91103
AAXX 07061 32076 42999 01101 11134 21169 30222 40233 57004 333 91001 91102
AAXX 07061 32099 42998 50105 11098 21119 30218 40226 54000 80001 333 91006 91109
AAXX 07061 32121 42599 83403 11067 21128 30213 40236 57003 82901 333 91004 91106
AAXX 07061 32213 42999 23209 11057 21100 30054 40119 53001 80001 333 91012 91112
AAXX 07061 32287 41998 01502 11153 21166 30118 40129 57002 70181
AAXX 07061 32408 42999 21203 11211 21230 30088 40129 53002 80001
AAXX 07061 32509 42999 03102 11091 21231 30086 40121 56001
AAXX 07061 32594 42999 23603 11096 21181 30099 40136 53002 80001 333 91116
AAXX 07064 40250 32960 02504 10017 20010 39390 40203 52006 333 21014 300//
AAXX 07064 40265 31940 01404 10010 21006 39391 40212 54001 71022 333 21010 30104
AAXX 07064 40296 32960 00000 10106 20028 40166 57003 333 20080 30004
AAXX 07064 40310 NIL
AAXX 07064 63729 32580 40000 10220 20190 38885 48/// 82932 333 20185 50341 55007 55300 58008 82820 81922 84072
AAXX 07064 63733 32580 60000 10225 20174 38878 48519 81931 333 20174 50261 55051 55300 58005 81920 86359
AAXX 07064 63791 32580 61106 10250 20176 39142 48518 81501 333 20196 50901 55058 55310 58005 81628 86077
AAXX 07064 63801 01480 70908 10225 20210 39226 48553 69904 70296 8197/ 333 0//11 20200 50201 55/// 553// 58008 69907 81819 81920 87359
AAXX 07064 63866 12480 60000 10237 20211 39533 48/// 865// 333 20200 50191 55008 55300 58012 86618
AAXX 07064 63881 32480 80000 10171 20156 38216 48/// 869// 333 20148 50451 55035 55300 58004 86616 81919
AAXX 07064 63887 12480 80406 10197 20172 38604 48525 69914 8397/ 333 0//19 20180 50261 55033 55300 58010 70001 83816 81917 87358
AAXX 07064 63932 12580 72510 10183 20157 38323 48511 60044 8297/ 333 0//19 20167 50161 55021 55300 58001 82821 81923 87358
AAXX 07064 63962 32480 70305 10220 20194 38950 48509 8523/ 333 20195 50151 55/// 553// 58003 85619 81921 83357
AAXX 07064 63971 11480 73615 10232 20229 39993 40123 60234 76162 8497/ 333 0//51 20217 50511 55000 55300 58015 84819 81920 87480
AAXX 07064 63756 NIL
AAXX 07064 63832 NIL
AAXX 07064 63862 NIL
AAXX 07064 63870 NIL
AAXX 07064 63894 NIL
AAXX 07064 16008 12860 30105 11060 21097 38549 48506 51006 69902 83040 333 21060 47047 55/// 2//// 83357 92810
AAXX 07064 07299 02680 72005 10033 21018 39935 40274 56010 60002 8357/ 333 10041 20010 31102 55007 60007 70004 83643 87358 90710 91115 93100 555 60005
AAXX 07064 40255 32960 01706 10082 20027 39456 40184 54002 333 20046 30101 70008
AAXX 07064 40260 32960 00000 10014 20011 39402 40204 52008 333 21014 31003
AAXX 07064 40270 31935 00000 10038 20013 39269 40187 52003 70400 333 21025 35104
AAXX 07064 40272 31957 00000 10009 21013 39336 40194 52004 71000 333 21015 30102
AAXX 07064 40290 NIL
AAXX 07064 40340 32960 03606 10100 21018 40162 54000 333 20078 30005
BBXX NIL
AAXX 07064 40250 32960 02504 10017 20010 39390 40203 52006 333 21014 300//
AAXX 07064 40265 31940 01404 10010 21006 39391 40212 54001 71022 333 21010 30104
AAXX 07064 40296 32960 00000 10106 20028 40166 57003 333 20080 30004
AAXX 07064 40310 NIL
BBXX NIL
AAXX 07064 89132 NIL
AAXX 07064 89542 46/// /1103 11027 20018 49756 57018
AAXX 07064 89575 NIL
AAXX 07064 89657 NIL
BBXX NIL
BBXX NIL
BBXX OVYB2 07061 99038 30606 41699 20303 10283 20225 40159 51010 70200 824// 22214 00290 20200 315// 41003 5//// 80243
BBXX A8XA3 07063 99047 30117 41598 70000 10250 40116 53002 70252 83320 22200 20000 319// 40503
BBXX BATFR19 07064 99061 30059 46/// /2109 10247 20209 40129 53011 22200 00257
BBXX 9KWP 07063 99184 31015 41397 61021 10260 20207 40128 58010 70252 83442 22233 06280 2//// 80225
BBXX TBWUK17 07063 99234 30083 41398 51306 10206 20203 40247 52010 70222 84460 22273 04220 20101 307// 40102 5//// 80204
BBXX TBWUK18 07063 99242 30689 41497 42316 10245 20238 40091 51006 70111 8446/ 22212 00260 20602 311// 41204 5//// 80240
BBXX DBBT 07061 99299 30152 46/// /1613 10201 20179 40146 52004 22273 00198
BBXX LAIP5 07063 99337 30169 41297 71823 10205 20181 40155 51002 70322 8/84/ 22232 04200 20805 319// 40906 5//// 80190
BBXX DBLK 07061 99339 30184 41/97 /3203 10187 20140 40139 52007 7//// 22200 04152
BBXX A8RW3 07063 99354 30118 41598 71810 10190 20142 40180 54000 70322 86462 22224 04200 21402 325// 41407 80160
BBXX BATFR08 07064 99471 30578 46/// /3533 10092 20072 40000 58044 22223 00079
BBXX NIL
OOXX AAPEG 07064 99779 31666 57186 00051 46/// /0804 10007 21124 39727 49733 5//// 90540
AAXX 07064 67765 NIL
AAXX 07064 67775 31970 11605 10205 20140 38522 48526 70500 80002 333 20154 59015 81080
AAXX 07064 67779 32580 31702 10237 20171 39062 48520 81132 333 20162 58005 81829 83080
AAXX 07064 67853 NIL
AAXX 07064 67861 NIL
AAXX 07064 67867 NIL
AAXX 07064 67881 32580 11002 10206 20150 38593 48521 81101 333 20134 59007 81825
AAXX 07064 67965 NIL
AAXX 07064 67975 NIL
AAXX 07064 67977 NIL
AAXX 07064 67983 NIL
AAXX 07064 67991 NIL
AAXX 07064 67755 32975 20602 10288 20130 3//// 48/// 80001 333 20228 5//// 82080
AAXX 07064 67771 NIL
AAXX 07064 67773 NIL
AAXX 07064 67774 NIL
AAXX 07064 67785 NIL
AAXX 07064 67789 NIL
AAXX 07064 67855 NIL
AAXX 07064 67857 NIL
AAXX 07064 67863 NIL
AAXX 07064 67871 NIL
AAXX 07064 67875 NIL
AAXX 07064 67891 NIL
AAXX 07064 67895 NIL
AAXX 07064 67897 NIL
AAXX 07064 67899 32683 11804 10216 20145 3//// 48/// 81140 333 20142 5//// 81831
AAXX 07064 67951 NIL
AAXX 07064 67963 NIL
AAXX 07064 67967 NIL
AAXX 07064 67971 NIL
AAXX 07064 67976 NIL
AAXX 07064 67979 32580 71701 10231 20188 3//// 48/// 875// 333 20183 5//// 87621
AAXX 07061 47101 32970 02002 10017 21140 30245 40344 57028
AAXX 07061 47105 369// /0704 10052 21086 30293 40326 57018
AAXX 07061 47108 31958 02704 10014 21151 30235 40344 55019 70500
AAXX 07061 47115 32575 50707 10009 21041 30048 40329 55009 85500 333 92043
AAXX 07061 47133 32963 01103 10022 21120 30256 40344 57023
AAXX 07061 47138 32668 20502 10072 21048 30321 40324 57017 82500 333 92031
AAXX 07061 47159 32970 01804 10088 21123 30230 40316 57019 333 92022
AAXX 07061 47165 32970 03615 10023 21065 30290 40338 57020 333 92024
AAXX 07061 47168 32968 01403 10049 21135 30239 40320 57022 333 92021
AAXX 07061 47184 32975 03406 10060 21053 30309 40335 56017 333 92022
AAXX 07064 06610 32868 82208 10001 21026 39695 40303 58002 8801/ 333 21015 34104 55006 55300 20000 70000 88757 90768 93100 91111 91208
AAXX 07061 23074 41998 81002 11187 21213 30208 40235 53006 72272 8802/
AAXX 07061 23274 41696 71405 11178 21204 30193 40232 53007 77172 8252/
AAXX 07061 23383 41896 80000 11239 21271 39923 40308 54000 77172 8802/
AAXX 07061 23472 41497 71805 11183 21216 30195 40247 53010 78583 87900
AAXX 07061 23678 41996 81302 11186 21212 30210 40273 53004 77177 8807/
AAXX 07061 23884 41567 81801 11174 21193 30225 40303 57004 78587 86903
AAXX 07061 23891 41997 80000 11276 21314 39987 58002 77177 83077
AAXX 07061 24507 41997 80000 11263 21287 30097 40366 52007 77172 86022
AAXX 07061 24817 41999 80603 11264 21289 39984 40393 52006 70172 82049
AAXX 07061 24908 41962 80000 11248 21280 39987 40351 52001 77172 8801/
AAXX 07061 29263 41996 70000 11203 21229 30247 40355 52004 77172 84032
AAXX 07061 29282 41997 02901 11266 21290 30177 40367 58001 70471
AAXX 07061 29379 41998 60000 11227 21245 30146 40376 58002 70281 80001
AAXX 07061 29570 41598 72502 11103 21116 30004 40370 52004 78582 86930
AAXX 07061 29698 41997 80000 11142 21172 39835 40381 54000 77072 85071
AAXX 07061 30230 41997 80000 11253 21285 30005 40367 57004 77172 85076
AAXX 07061 30252 41997 81401 11247 21272 30012 40361 58006 77172 8805/
AAXX 07061 30309 41997 82401 11220 21239 39810 40380 52002 78582 82931
AAXX 07061 30328 41997 80000 11251 21276 39931 40404 58018 77172 86077
AAXX 07061 30521 41597 70000 11266 21290 39845 40431 58006 78582 82901
AAXX 07061 30710 41593 80000 11173 21188 39770 40398 58006 78584 85901
AAXX 07064 06670 32475 62206 10013 21023 39752 40281 57003 8355/ 333 21002 32103 55009 55300 20000 70005 81716 83636 86358 90768 93100 91112 91207
AAXX 07064 06700 32875 62202 11020 21027 39797 40316 52000 8605/ 333 21042 34106 55001 55300 20004 70004 86357 90768 93100 91106 91204
AAXX 07064 06680 01770 82428 11131 21142 37492 47009 55003 60062 70272 8802/ 333 21130 47375 55000 55300 20000 60005 70233 88457 90768 93105 91142 91228
AAXX 07064 06990 31961 01402 10007 21023 39715 40282 55001 71011 333 21009 34104 55000 55300 20000 70007 91111 91204
AAXX 07064 06760 32986 00104 10040 21079 39751 40208 52001 333 20039 30001 55001 55300 20000 70000 90768 93100 91113 91207
AAXX 07064 06720 32875 70401 11026 21046 39713 40319 52007 87080 333 21043 3/107 41004 55001 55300 20000 70000 87357 90768 93100 91105 91203
AAXX 07064 67969 31570 41103 10249 20179 3//// 48/// 70511 84500 333 20176 5//// 84628
AAXX 07064 67867 32580 11312 10218 20150 38598 48527 81100 333 20120 59006 81820
AAXX 07064 67861 32980 10903 10228 20144 38733 48516 81042 333 20178 59011 81359
AAXX 07064 67765 32984 30703 10221 20179 38675 48519 80002 333 20171 59007 83080
AAXX 07064 67975 32580 51406 10227 20177 38941 48532 85530 333 20161 59004 85620
AAXX 07064 67983 11460 71703 10200 20173 38903 48528 69904 70554 8753/ 333 20173 59005 87612
AAXX 07064 67991 32980 21103 10265 20173 39613 48524 80002 333 20239 58003 82080
AAXX 07064 67965 32580 11611 10225 20141 38708 48536 81502 333 20170 59004 81625
AAXX 07064 71214 16/// /2406 11055 21107 60001 333 10028 21070 70000 555 33018 40211
AAXX 07064 71223 16/// /2808 11064 21110 60001 333 10024 21075 70000 555 33124 40211
AAXX 07064 71225 16/// /2310 11051 21093 60001 333 10048 21063 7////
AAXX 07064 71227 46/// /2708 11043 21086 6///1 333 10016 21087 7//// 555 33117 40221
AAXX 07064 71229 46/// /1803 11127 21141 6///1 333 10001 21143 7////
AAXX 07064 71257 16/// /0605 11096 21129 60001 333 10016 21100 70000
AAXX 07064 71258 16/// /2507 11088 21129 60001 333 10022 21088 70000 555 33518 40161
AAXX 07064 71259 16/// /0105 11124 21148 60001 333 10057 21124 70000 555 33418 40071
AAXX 07064 71274 16/// /2604 11087 21129 60001 333 10007 21092 70000 555 32917 40201
AAXX 07064 71275 46/// /2506 11101 21123 6///1 333 11002 21110 7//// 555 32517 40071
AAXX 07064 71278 16/// /2708 11074 21108 60001 333 10021 21077 70000 555 32919 40081
AAXX 07064 71286 16/// /2708 11061 21096 60001 333 10011 21082 70000 555 33021 40201
AAXX 07064 71287 16/// /2506 11066 21104 60001 333 10023 21066 70000 555 32721 40151
AAXX 07064 71289 16/// /1804 11079 21115 60001 333 10027 21081 70000
AAXX 07064 71445 17/// /0208 11142 21177 39868 40154 52010 69981 7//4/ 333 11061 21142 70008 555 10020 20008 33323 40211
AAXX 07064 71916 46/// /1502 11300 21326 39973 40030 56012 6///1 333 11275 21366 7////
AAXX 07064 71464 46/// ///20 10071 39819 40030 56019 6///1 333 10074 20047 7////
AAXX 07064 71466 46/// ///// 10041 39822 40058 56012 6///1 333 10077 20036 7////
AAXX 07064 71351 16/// /2702 11073 21108 60001 333 10022 21074 70000
AAXX 07064 71353 16/// /1803 11070 21120 60001 333 10019 21070 70000
AAXX 07064 71375 46/// /3513 11170 6///1 333 11095 21170 7//// 555 33328 40122
AAXX 07064 71385 46/// /0805 11112 6///1 333 11081 21158 7////
AAXX 07064 71010 16/// /2604 11058 21100 60001 333 10020 21066 70000 555 33022 40211
AAXX 07064 71525 16/// /2204 11083 21105 60001 333 10051 21093 70000 555 32721 40181
AAXX 07064 71526 16/// /3107 11062 21109 60001 333 10036 21063 70000
AAXX 07064 71535 16/// /2206 11072 21102 60001 333 10053 21084 70000 555 32722 40101
AAXX 07064 71536 16/// /2306 11064 21098 60001 333 10039 21065 70000 555 32631 40202
AAXX 07064 71683 46/// /3403 11253 39842 49955 56014 6///1 333 11211 21267 7//// 555 31920 40151
AAXX 07061 23973 41997 81805 11182 21208 30250 40318 54000 77173 8802/
AAXX 07061 23975 41599 82102 11178 21204 30199 40316 53004 70282 889//
AAXX 07061 23986 41999 81702 11200 21226 39654 40339 58005 70272 86027
AAXX 07061 23987 41597 71505 11199 21232 30253 40333 54000 78582 83930
AAXX 07061 24606 41899 80801 11292 21322 30112 40414 52009 70272 82041
AAXX 07061 29253 41998 70000 11222 21255 30162 40352 52004 77172 87070
AAXX 07061 29471 41595 50000 11180 21192 30130 40377 52001 71081 82901
AAXX 07061 29481 41997 81701 11197 21209 30111 40370 52001 77171 80007
AAXX 07061 29553 41538 62502 11114 21134 39984 40369 52001 78581 86900
AAXX 07061 29562 41997 82102 11123 21136 39933 40372 52003 77172 8801/
AAXX 07061 29581 41996 50000 11171 21197 30107 40384 52005 71072 85020
AAXX 07061 29594 41597 52501 11149 21162 39968 40380 52005 70472 82901
AAXX 07061 29653 42997 21602 11162 21181 39865 40383 52007 80001
AAXX 07061 29675 41898 60000 11100 21113 39755 40373 52004 70272 86070
AAXX 07061 29676 41696 70000 11110 21130 39917 40361 52001 77072 82525
AAXX 07061 29752 41496 72406 11124 21137 38879 48520 58004 78583 83939 333 91115
AAXX 07061 29759 41599 62601 11088 21126 39300 40364 52004 78587 83901
AAXX 07061 29766 41898 80000 11112 21125 30012 40386 51001 77172 8801/
AAXX 07061 29789 42699 50000 11101 21129 39127 40356 58006 82541
AAXX 07061 29864 42899 23301 11094 21124 39698 40376 52006 82040
AAXX 07061 29866 41695 80000 11096 21108 30042 40377 52003 72272 83531
AAXX 07061 29869 41921 80000 11067 21076 30002 40389 51007 77372 8802/ 333 95090
AAXX 07061 29956 41697 72701 11043 21094 39810 40384 52001 70282 82900
AAXX 07061 30337 41997 80000 11270 21295 39893 40394 57009 77172 8801/
AAXX 07061 30405 41998 80000 11193 21219 39817 40389 54000 77177 80005
AAXX 07061 30504 41998 82001 11175 21194 39695 40392 58002 77172 82037
AAXX 07061 30603 41995 82101 11194 21206 39779 40398 50000 77172 80007
AAXX 07061 30612 41598 81102 11241 21260 39828 40417 54000 78582 8392/
AAXX 07061 30622 41997 81701 11304 21334 39716 40448 58014 77172 80007
AAXX 07061 30627 41999 70302 11225 21243 39391 40407 58006 72272 80009
AAXX 07061 30703 42999 80000 11142 21167 39569 40382 58005 80007
AAXX 07061 36307 41896 82501 11294 21324 39114 48595 58002 77122 8801/ 333 95050
AAXX 07064 67771 32980 32101 10228 20167 3//// 48/// 81032 333 20166 5//// 81360 83080
AAXX 07064 67871 31270 21506 10215 20142 38562 48520 70500 81602 333 20128 58000 81705
AAXX 07064 67863 32980 41202 10233 20158 3//// 48/// 80002 333 20159 5//// 84080
AAXX 07064 67976 31470 61307 10235 20191 3//// 48/// 70511 83530 333 20202 5//// 83618 83360
AAXX 07064 67857 32980 31303 10234 20141 3//// 48/// 80002 333 20170 5//// 83080
AAXX 07064 67855 31970 71303 10240 20143 3//// 48/// 70522 80001 333 20140 5//// 87080
AAXX 07064 67963 32680 41411 10228 20158 3//// 48/// 83602 333 20144 5//// 83706
AAXX 07064 67971 31570 61310 10237 20182 3//// 48/// 70511 86502 333 20195 5//// 86620
AAXX 07064 67951 32580 31507 10216 20165 3//// 48/// 82131 333 20168 5//// 82825
AAXX 07064 61980 12562 30814 10288 20203 40144 60004 82832 333 02100 20225 55016 58001 82823 90710 91122 92437 555 60005
AAXX 07061 40716 11458 50000 11006 21035 38939 40247 53014 60001 71021 85730 333 3/107 41997 70028 82710 83640
AAXX 07061 40719 11530 42503 10070 20052 30194 40184 52026 60001 71020 84500 333 30000 50241 70000 84620
AAXX 07061 40721 12960 10000 10032 21061 39630 40186 53008 60001 80002 333 3/103 45005 5///1 70000 81070
AAXX 07061 40858 11657 41302 10186 20121 30185 40196 52018 60001 70510 84500 90547 333 30012 50201 70000 84640
AAXX 07061 40872 11957 33602 10194 20142 30191 40196 52023 60001 70500 83030 222// 00218 20401 333 30012 50101 70000 83360
AAXX 07061 40877 11940 00802 10110 21054 39643 40202 52023 60001 70500 333 30001 50181 70000
AAXX 07061 40898 11958 30202 10208 21063 30187 40196 53017 60001 70500 83030 222// 00232 10500 333 30014 50351 70000 83359
AAXX 07061 51711 32980 70903 11058 21132 38071 52001 80002 333 00300 21141
AAXX 07061 51730 32970 02202 11033 21110 40417 57004 333 00401 21175
AAXX 07061 52112 32980 02902 11084 21202 40411 57019 333 00200 21178
AAXX 07061 52737 32980 61802 11036 21245 37068 57026 80002 333 00201 21167
AAXX 07061 52787 32980 70206 11088 21232 37021 57016 80002 333 00453 21181
AAXX 07061 53352 32980 71101 11075 21191 40389 57023 80002 333 21220
AAXX 07061 53593 32960 00401 11039 21182 40354 57033 333 21154
AAXX 07061 53705 32970 23202 11003 21166 40365 57025 80002 333 00302 21116
AAXX 07061 53863 31957 81801 11008 21127 40358 57034 70400 80007 333 21106
AAXX 07061 53975 32966 70000 11004 21117 40355 57038 86032 333 21064
AAXX 07061 54273 32965 70000 11118 21186 40403 57020 80002 333 21297
AAXX 07061 54324 32965 01801 11066 21209 40374 57033 333 21215
AAXX 07061 54405 11960 72202 11067 21132 40374 57032 69901 70070 82032 333 21142
AAXX 07061 54436 32970 00903 11038 21127 40376 57037 333 21156
AAXX 07061 54808 32961 02002 10017 21076 40361 57036 333 21081
AAXX 07061 54826 32970 22003 11077 21161 38532 57023 80002 333 21110
AAXX 07061 54836 32962 02503 10022 21097 40367 57035 333 21084
AAXX 07061 54863 32965 12502 10021 21092 40364 57029 80002 333 21080
AAXX 07061 56018 11680 82703 11053 21154 36143 57022 69911 70070 889// 333 00100 21138
AAXX 07061 56021 11580 31102 11092 21140 36035 57017 69901 72270 81102 333 00153 21181
AAXX 07061 57071 31958 70202 10004 21086 40360 57034 71000 8704/ 333 21039
AAXX 07061 23711 11397 81503 11002 20005 39983 40158 53006 60020 77172 8672/ 333 21033 86709
AAXX 07064 42101 31695 81404 10140 20110 40196 70522 8452/ 333 58020 84635 88458
AAXX 07064 42111 21596 70000 10110 20095 39409 40204 72196 86830 333 58015 6996/ 84625 84830
AAXX 07064 42131 31995 01403 10148 20111 40190 71000 333 58024
AAXX 07064 42165 32996 02302 10180 21105 40178 333 58027
AAXX 07064 42182 31494 70906 10156 20131 40197 71022 85530 333 58019 85620 87360
AAXX 07064 42189 31595 70504 10150 20125 40200 70596 85530 333 56290 58006 85620 86358
AAXX 07064 42328 32996 10504 10180 21154 40180 80001 333 58022 81075
AAXX 07064 42339 31995 00000 10176 21068 40191 70500 333 58029
AAXX 07064 42348 31595 40204 10180 20126 40185 71044 84500 333 58018 84630
AAXX 07064 42361 21594 80000 10168 20144 40186 71055 8452/ 333 58006 6992/ 84620 88458
AAXX 07064 42369 21494 80506 10148 20145 40199 76064 8532/ 333 58002 6002/ 84615 83820 81930 88458
AAXX 07064 42379 31595 60503 10176 20114 40194 70542 82530 333 56290 58008 82625 85360
AAXX 07064 42452 31996 03201 10204 20081 40180 70500 333 58022
AAXX 07064 42475 31495 51402 10180 20146 40188 70522 85700 333 56300 58006 81712
AAXX 07064 42027 NIL
AAXX 07064 42071 NIL
AAXX 07064 42260 NIL
AAXX 07063 42071 32696 50714 10087 20057 40210 83430 333 58039 83635 83360
AAXX 06184 91636 11498 70407 10276 20253 40116 60081 71482 83260 333 5619/
AAXX 06184 91648 11599 60608 10284 20241 40101 60001 70228 83208 333 561/9
AAXX 07004 91636 11599 50606 10312 20244 40100 60001 70122 83260 333 20262 5619/ 70077
AAXX 07004 91648 11599 53508 10311 20252 40092 60001 70222 83208 333 20262 568/9 70024
AAXX 06124 91648 11499 50512 10283 20239 40098 60001 70122 83208 333 10312 561/9
AAXX 07064 68513 36/// /1209 10197 20145 30004 40115 52005 333 20160 91013 555 10259 91011
AAXX 07064 68514 32/// /1706 10278 20050 39648 48541 52003 333 20221 91011 555 10403 91012
AAXX 07064 68523 36/// /0909 10273 20069 39116 48545 53008 333 20208 91014 555 10366 91018
AAXX 07064 68527 36/// /0807 10260 20119 39083 48535 52006 333 20216 91010 555 10383 91017
AAXX 07064 68572 32474 60804 10183 20148 38441 48549 58001 86200 333 20155 91008 555 10245 91024
AAXX 07064 68575 36/// /0402 10211 20173 39133 48561 52001 333 20184 91004 555 10244 91021
AAXX 07064 68581 36/// /1002 10243 20198 39410 48571 54000 333 20207 91005 555 10266 91019
AAXX 07064 68583 16/// /3502 10271 20212 30057 40165 52005 69924 333 20241 91005 555 10293 20002 91016
AAXX 07064 68589 16/// /0304 10164 20142 38302 48563 53005 60024 333 20149 91006 555 10256 20026 91026
AAXX 07064 68613 36/// /3102 10207 20155 30031 40145 55000 333 20152 91003 555 10240 91014
AAXX 07064 68647 36/// /1202 10201 20141 38964 48563 53006 333 20139 91003 555 10295 91023
AAXX 07064 68651 36/// /3402 10192 20143 38598 48561 53003 333 20127 91004 555 10242 91025
AAXX 07064 68715 36/// /2502 10239 20150 30013 40138 52000 333 20179 91005 555 10321 91014
AAXX 07064 68717 36/// /3604 10225 20139 39990 40131 52001 333 20182 91006 555 10345 91013
AAXX 07064 68723 36/// /1006 10253 20076 39423 48570 52007 333 20189 91010 555 10350 91019
AAXX 07064 68737 32975 02103 10207 20071 39286 48562 52002 333 20127 91004 555 10331 91020
AAXX 07064 68744 32980 01404 10207 20103 39137 48553 52006 333 20142 91006 555 10316 91020
AAXX 07064 68747 36/// /3303 10204 20154 39661 48575 52005 333 20161 91005 555 10336 91019
AAXX 07064 68754 36/// /1505 10214 20153 39184 48575 52008 333 20133 91008 555 10277 91022
AAXX 07064 68817 36/// /3603 10225 20147 30128 40140 52005 333 20189 91008 555 10310 91014
AAXX 07064 68821 36/// /1410 10220 20140 39923 40159 50000 333 20173 91016 555 10353 91016
AAXX 07064 68835 NIL
AAXX 07064 68843 36/// /2704 10210 20184 30087 40185 52008 333 20169 91006 555 10250 91018
AAXX 07064 68849 36/// /1507 10176 20161 39454 48560 52008 333 20149 91010 555 10278 91020
AAXX 07064 68912 36/// /1518 10205 20157 30141 40150 56001 333 20168 91026 555 10215 91015
AAXX 07064 68918 36/// /1109 10220 20163 30151 40169 58001 333 20189 91013 555 10250 91017
AAXX 07064 68921 36/// /0102 10225 20189 30176 40179 53002 333 20197 91002 555 10262 91017
AAXX 07064 68925 36/// /0602 10198 20146 39802 40163 52003 333 20162 91008 555 10293 91017
AAXX 07064 68926 32970 00904 10219 20148 39997 40174 57003 333 20166 91008 555 10325 91017
AAXX 07064 68935 36/// /2502 10220 20156 30117 40180 51002 333 20158 91004 555 10292 91018
AAXX 07064 68835 NIL
AAXX 07064 60667 36/// /0000 10014 21093 333 20012
AAXX 07064 60679 36/// /3515 10045 21240 333 20039
AAXX 07064 60672 36/// /0000 10018 21158 333 20016
AAXX 07064 60633 36/// /0202 10090 21103 333 20080
AAXX 07064 60660 36/// /3501 10101 21077 333 20095
AAXX 07064 60676 36/// /0000 10040 21101 333 20040
AAXX 07064 60661 36/// /0401 11003 21147 333 21003
AAXX 07064 60662 36/// /0000 10047 21105 333 20043
AAXX 07064 60650 36/// /0409 10123 21057 333 20066
AAXX 07064 60692 36/// /3202 10056 21113 333 20055
AAXX 07064 60677 36/// /0000 10000 21127 333 21003
AAXX 07064 60691 36/// /0000 10085 21119 333 20078
AAXX 07061 23219 32998 81802 11030 21047 30041 40148 52011 8802/ 333 47050
AAXX 07061 50548 32980 00000 11146 21234 40359 57022 333 21309
AAXX 07061 50564 32970 02004 11130 21195 40341 57019 333 21294
AAXX 07061 51334 32970 20401 11136 21165 40442 57011 80002 333 00352 21211
AAXX 07061 51818 32965 72201 11040 21117 40393 57008 80002 333 00301 21122
AAXX 07061 52378 32980 02906 11055 21207 40415 57018 333 00304 21199
AAXX 07061 53487 32960 72701 11036 21183 40358 57030 80002 333 21168
AAXX 07061 53502 32980 02002 11023 21188 40384 57024 333 00204 21169
AAXX 07061 53923 11980 73401 11010 21101 40329 57022 69901 70070 8703/ 333 21052
AAXX 07061 54049 32970 02703 11087 21224 40379 57020 333 21193
AAXX 07061 54115 32980 01101 11069 21246 40378 57020 333 21239
AAXX 07061 54157 32668 72901 11073 21189 40383 57022 82502 333 21224
AAXX 07061 54186 32970 03201 11091 21205 40381 57015 333 21244
AAXX 07061 54311 32970 01803 11083 21171 40384 57030 333 21228
AAXX 07061 54346 32962 01401 11062 21188 40377 57023 333 21201
AAXX 07061 54377 32970 02901 11049 21164 40375 57025 333 21185
AAXX 07061 54386 32975 00000 11117 21218 40395 57027 333 21275
AAXX 07061 54493 32974 01801 11011 21196 40365 57022 333 21188
AAXX 07061 54587 NIL
AAXX 07061 54715 31957 72201 10003 21061 40362 57033 70500 80002 333 21072
AAXX 07061 54929 32965 01102 10037 21066 40361 57037 333 21078
AAXX 07061 54945 32975 00902 10020 21068 40367 57029 333 21051
AAXX 07061 56065 32680 22001 11062 21133 36588 57023 81102 333 00105 21207
AAXX 07061 57193 32962 20902 10050 21051 40351 57038 82040 333 21038
AAXX 07061 57290 32962 81101 10036 21051 40349 57036 8807/ 333 21035
AAXX 07064 68174 31460 70603 10189 20154 38820 48543 52013 70522 875// 333 20172 91005 555 10320 91021
AAXX 07064 68191 36/// /1711 10224 20158 39675 48572 53012 333 20197 91017 555 10348 91018
AAXX 07064 68242 32980 30314 10228 20134 38742 48525 52012 80004 333 20191 91019 555 10343 91019
AAXX 07064 68262 16/// /0804 10226 20153 38741 48550 52010 69964 333 20195 91010 555 10319 20006 91022
AAXX 07064 68263 12580 71005 10207 20149 38523 48549 53008 60044 84532 333 20164 91008 555 10295 20043 91024
AAXX 07064 68267 11465 61108 10177 20155 38289 48560 51008 60134 70522 86100 333 20139 91013 555 10281 20130 91026
AAXX 07064 68289 16/// /0203 10212 20182 39190 48562 52010 60014 333 20193 91005 555 10293 20012 91021
AAXX 07064 68350 36/// /0807 10242 20158 38702 48556 53007 333 20168 91011 555 10359 91023
AAXX 07064 68368 42460 71306 10189 20150 38362 48558 53013 82507 333 20150 555 10291 91026
AAXX 07064 68403 36/// /1812 10174 20148 30108 40141 52010 333 20158 91015 555 10248 91014
AAXX 07064 68424 32982 00910 10304 20029 39181 48527 53006 333 20211 91015 555 10402 91014
AAXX 07064 68438 32982 20910 10248 20138 38826 48525 52008 80004 333 20172 91014 555 10366 91018
AAXX 07064 68442 32980 00315 10241 20140 38689 48544 52011 333 20168 91021 555 10349 91022
AAXX 07064 68461 32480 60712 10196 20151 38367 48552 53011 86501 333 20165 91017 555 10298 91025
AAXX 07064 68512 32982 01010 10250 20049 39019 48527 53006 333 20219 91019 555 10315 91017
AAXX 07064 68538 31964 31117 10219 20139 38744 48531 53011 70500 80001 333 20169 91021 555 10348 91020
AAXX 07064 68587 16/// /0903 10234 20215 30154 40166 52001 60114 333 20225 91005 555 10256 20118 69945 91016
AAXX 07064 68588 16/// /0802 10291 20224 30158 40174 55000 69924 333 20246 91005 555 10293 20002 91017
AAXX 07064 68591 16/// /2417 10241 20222 30000 40178 52003 60624 333 20221 91029 555 10243 20622 91018
AAXX 07064 68592 NIL
AAXX 07064 68618 32980 00914 10267 20079 39070 48552 53008 333 20185 91019 555 10343 91019
AAXX 07064 68633 36/// /1706 10212 20096 38539 48534 52010 333 20142 91012 555 10308 91022
AAXX 07064 68668 32370 61705 10197 20171 39335 48560 53002 86500 333 20173 91006 555 10282 91020
AAXX 07064 68714 36/// /1909 10217 20142 30102 40138 53004 333 20161 91014 555 10286 91013
AAXX 07064 68727 36/// /0509 10210 20059 39156 48546 52008 333 20175 91014 555 10336 91019
AAXX 07064 68752 36/// /0905 10203 20194 39513 48572 52008 333 20174 91006 555 10294 91020
AAXX 07064 68816 32982 01908 10235 20148 30088 40141 58003 333 20191 91011 555 10285 91014
AAXX 07064 68828 32970 01204 10209 20161 39946 40176 58002 333 20145 555 10263 91018
AAXX 07064 68842 32480 22104 10229 20168 30117 40186 51007 82500 333 20155 555 10268 91018
AAXX 07064 68858 42965 72507 10222 20214 30030 40184 51011 875// 333 20192 555 10265 91018
AAXX 07064 68906 32698 53104 10164 20116 30065 40129 57003 85500 222// 00135 333 20160 91022 555 10195 91012
AAXX 07064 68994 12598 62925 10076 20027 39923 49952 53006 60254 83530 222// 00062 20801 333 20057 91036 555 10115 20254 90995
AAXX 07064 89004 32780 11308 11062 21147 38818 49821 58001 81030 333 21074 91010 555 11030
BBXX 46206 07061 99488 71260 46/// /1210 10063 40242 52018 22200 00080 11006 70028 333 91213
AAXX 07064 94996 41570 22014 10213 20147 39950 40084 53006 71511 82200 90630
AAXX 07064 94996 41570 22014 10213 20147 39950 40084 53006 71511 82200 90630
BBXX MZDL7 07063 99188 50217 41397 61010 10215 20196 40190 58010 75252 867// 22214 00250 2//// 3//// 4//// 5//// 80203
BBXX OXHY2 07063 99134 10499 41397 33506 10250 20229 40176 51018 7//00 82146 22224 20102 30000 40000 5//// 80235
BBXX V7OX3 07061 99355 30171 41/97 /1608 10180 20146 40170 54000 703// 8/1// 22223 21006 3//// 4//// 5//// 80160
BBXX ELWD5 07063 99220 10622 41/97 10201 10250 20170 40210 54000 705// 81/// 22274 04240 2//00 80200
BBXX 2AJI3 07063 99076 70141 41998 03311 10285 20227 40098 54000 70500 80000 22274 2//// 300// 4//// 5//// 80245
BBXX 46206 07061 99488 71260 46/// /1210 10063 40242 52018 22200 00080 11006 70028 333 91213
BBXX OXHY2 07063 99134 10499 41397 33506 10250 20229 40176 51018 7//00 82146 22224 20102 30000 40000 5//// 80235
BBXX ELWD5 07063 99220 10622 41/97 10201 10250 20170 40210 54000 705// 81/// 22274 04240 2//00 80200
BBXX A8NF2 07064 99289 11238 41397 50921 10155 20048 40312 56018 70211 84542 22243 04150 21001 303// 41001 5//// 80100
AAXX 07063 41150 42962 01605 10192 20126 40197 333 20157 30011 59012
AAXX 07061 50658 31957 02201 11193 21231 40374 57012 70400 333 21294
AAXX 07061 50888 32970 03204 11093 21173 40332 57008 333 21217
AAXX 07061 50983 32970 01802 11110 21176 40343 57012 333 21230
AAXX 07061 51053 32980 00901 11146 21197 40450 57005 333 00301 21221
AAXX 07061 51542 32980 10401 11231 21271 37603 57010 80002 333 00152 21334
AAXX 07061 52436 32980 03403 11037 21173 38546 40393 57018 333 00300 21187
AAXX 07061 52908 32680 72708 11113 21234 35716 57010 83902 333 00252 21216
AAXX 07061 52996 11462 73404 11096 21102 37584 57017 69901 70070 875// 333 00400 21107
AAXX 07061 53083 32980 02901 11199 21250 40451 57014 333 05201 21296
AAXX 07061 53764 32962 81803 11001 21106 40340 57026 8802/ 333 21076
AAXX 07061 53787 32961 72502 11030 21117 40359 57031 80002 333 21127
AAXX 07061 54096 32970 02705 11112 21187 40356 57006 333 21186
AAXX 07061 54226 32980 00901 11066 21217 40380 57025 333 21245
AAXX 07061 54259 32980 10000 11044 21190 40379 57026 80002 333 21253
AAXX 07061 54527 32960 81402 11011 21070 40372 57029 8802/ 333 21046
AAXX 07061 54534 11662 82701 11029 21055 40375 57028 69901 70070 885// 333 21066
AAXX 07064 68592 NIL
AAXX 07064 42559 32996 00000 10214 20114 40156 333 58011
AAXX 07064 42571 31996 40000 10186 20141 40173 70544 80002 333 58004
AAXX 07064 42667 31995 40206 10208 20123 39580 40173 70500 80001 333 58011 84075
AAXX 07064 42675 31996 32703 10200 20156 40170 70510 83030 333 58002 83360
AAXX 07064 42754 32996 20502 10216 20056 39531 40170 70511 80001 333 58010 82075
AAXX 07064 42779 31596 61402 10216 20150 39467 40166 70262 83520 333 58000 83620 85458
AAXX 07064 42867 31995 23603 10254 20185 40155 70520 80001 333 58004 82075
AAXX 07064 42874 32596 31803 10256 20217 40159 81101 333 58006 81830 83075
AAXX 07064 42933 32997 11101 10269 20109 40165 80001 333 58013 81075
AAXX 07064 43041 32996 01804 10278 20148 39547 40155 333 58003
BBXX 46205 07061 99542 71343 46/// /1812 10059 40103 57018 22200 00068 11410 70051 333 91214
BBXX 46132 07061 99497 71279 46/// /1011 10072 40214 52006 22200 00083 11008 70038 333 91214
BBXX 44062 07061 99386 70764 46/// /2506 10091 90600 22200 00063 10201 70004 333 91207
BBXX 44063 07061 99390 70764 46/// /0000 1//// 90620 333 91200
BBXX 44063 07061 99390 70764 46/// /0000 1//// 40110 90610 333 91200
BBXX 44063 07061 99390 70764 46/// /0000 10090 40111 57006 90600 22200 00053 1//00 70001 333 91200
BBXX 44041 07061 99372 70768 46/// /2605 1//// 90620 333 91206
BBXX 44041 07061 99372 70768 46/// /2604 1//// 40142 90610 333 91206
BBXX 44041 07061 99372 70768 46/// /2603 10104 40143 58008 90600 22200 00065 1//00 70000 333 91205
BBXX 44042 07061 99380 70763 46/// /2605 1//// 90620 333 91206
BBXX 44042 07061 99380 70763 46/// /2605 1//// 40105 90610 333 91206
BBXX 44042 07061 99380 70763 46/// /2605 10103 40105 56009 90600 22200 00067 10201 70004 333 91206
BBXX 44043 07061 99392 70764 46/// /1402 1//// 90620 333 91203
BBXX 44043 07061 99392 70764 46/// /1402 1//// 40091 90610 333 91202
BBXX 44043 07061 99392 70764 46/// /1402 10053 40091 57005 90600 22200 00034 1//00 70001 333 91203
BBXX 41010 07061 99289 70785 46/// /2404 10203 40210 90620 22200 00230 11101 20301 300// 41101 70007 333 91206 555 11044 22045
BBXX 41009 07061 99285 70802 46/// /2006 10198 20107 40212 90620 22200 00218 11001 20201 300// 41001 70006 333 91207 555 11063 22066
AAXX 07064 89020 46/// /0304 11092 21100 39829 49865 57002 90550
AAXX 07064 89087 46/// /1107 11182 21200 38035 49794 5////
AAXX 07064 88900 46/// /2113 10015 21028 30016 40018 53003 333 55001
AAXX 07064 68155 16/// /1003 10225 20185 39222 48552 53012 60084 333 20198 91007 555 10368 20084 91019
AAXX 07064 68171 NIL
AAXX 07064 68176 36/// /0904 10223 20135 39172 48559 53015 333 20201 91011 555 10335 91020
AAXX 07064 68181 NIL
AAXX 07064 68182 36/// /1104 10210 20164 39379 48564 53016 333 20185 91006 555 10327 91020
AAXX 07064 68185 NIL
AAXX 07064 68253 36/// /1203 10235 20166 39079 48554 52016 333 20214 91006 555 10361 91020
AAXX 07064 68255 16/// /0402 10238 20138 38893 48545 52015 60014 333 20186 91004 555 10335 20010 91020
AAXX 07064 68271 16/// /3004 1//// 2//// 38947 4//// 53010 60254 333 2//// 91007 555 1//// 20250 91021
AAXX 07064 68273 16/// /1007 10215 20165 38498 48552 53011 60064 333 20164 91010 555 10312 20062 91024
AAXX 07064 68287 NIL
AAXX 07064 68291 36/// /1507 10223 20185 39568 48564 53010 333 20206 91011 555 10340 91018
AAXX 07064 68297 NIL
AAXX 07064 68329 36/// /0706 10262 20043 39085 48526 52007 333 20175 91010 555 10408 91016
AAXX 07064 68331 36/// /0902 10266 20058 38833 48525 52006 333 20180 91004 555 10376 91018
AAXX 07064 68335 36/// /3309 10242 20123 38942 48555 53016 333 20165 91017 555 10383 91021
AAXX 07064 68341 36/// /3608 10223 20142 38560 48545 53010 333 20177 91015 555 10345 91023
AAXX 07064 68342 NIL
AAXX 07064 68343 NIL
AAXX 07064 68349 36/// /0208 10216 20155 38540 48534 52013 333 20178 91011 555 10329 91022
AAXX 07064 68353 36/// /0507 10198 20144 38561 48540 53011 333 20161 91010 555 10305 91022
AAXX 07064 68355 36/// /0517 10211 20148 38613 48547 52011 333 20177 91023 555 10325 91023
AAXX 07064 68370 NIL
AAXX 07064 68377 16/// /1506 10221 20187 38801 48543 52008 60014 333 20197 91009 555 10324 20018 91021
AAXX 07064 68380 36/// /2605 10190 20145 38357 48565 52008 333 20139 91010 555 10299 91027
AAXX 07064 68387 36/// /0000 10205 20181 38900 48560 52007 333 20188 91011 555 10296 91023
AAXX 07064 68411 36/// /0000 10283 20061 39916 40117 52011 333 20236 91001 555 10396 91012
AAXX 07064 68429 36/// ///// 10263 20085 38693 48518 53010 333 20189 555 10364 91018
AAXX 07064 68449 36/// /1203 10217 20137 38428 48540 53012 333 20146 91006 555 10316 91023
AAXX 07064 68471 16/// /1803 10159 20149 38371 48550 53006 60284 333 20154 91006 555 10275 20282 60105 91025
AAXX 07064 68474 11325 80902 10176 20154 38674 48564 52007 60144 70299 80000 333 20160 91004 555 10287 20146 91025
AAXX 07064 68479 16/// /1406 10219 20177 38996 48562 53008 60074 333 20196 91008 555 10319 20074 91022
AAXX 07064 68481 36/// /1305 10260 20188 39811 40174 58001 333 20212 91008 555 10331 91019
AAXX 07064 68487 36/// /1504 10218 20178 39037 48562 52005 333 20182 91004 555 10244 91022
AAXX 07064 68491 36/// /2102 10271 20223 30158 40167 52005 333 20212 91005 555 10301 91016
AAXX 07064 68497 16/// /0000 10267 20220 30132 40175 53003 69924 333 20233 91004 555 10292 20002 91017
AAXX 07064 68183 32570 51207 10224 20156 39475 48567 52017 84570 333 20201 91011 555 10317 91019
AAXX 07064 68188 36/// /0000 10206 20160 39237 48563 52013 333 20198 91003 555 10304 91021
AAXX 07064 68268 NIL
AAXX 07064 68272 16/// /2504 10248 20192 39109 48562 52015 60094 333 20187 91006 555 10375 20090 91020
AAXX 07064 68296 32975 61805 10261 2//// 38920 4//// 53001 86500 333 20180 91012 555 10329
AAXX 07064 68322 32982 02303 10285 20022 39130 48519 52006 333 20164 91004 555 10432 91014
AAXX 07064 68338 36/// /3514 10247 20121 38784 48521 52006 333 20130 91021 555 10350 91018
AAXX 07064 68345 36/// /0415 10236 20136 38702 48547 53012 333 20188 91024 555 10353 91022
AAXX 07064 68362 32480 70307 10196 20161 38548 48551 52007 84510 333 20165 91010 555 10316 91024
AAXX 07064 68400 32580 61704 10279 20201 30090 40162 52002 85255 333 20209 91008 555 10342 91016
AAXX 07064 68408 32/// /1605 10154 20136 30124 40132 52006 333 20135 91007 555 10210 91013
AAXX 07064 68416 32/// /1110 10275 20035 39029 48518 52007 333 20219 91017 555 10369 91015
AAXX 07064 68478 NIL
AAXX 07064 68488 36/// /1102 10248 20166 39311 48574 52003 333 20183 91005 555 10283 91020
AAXX 07064 68494 36/// /1102 10254 20213 30042 40171 53005 333 20221 91003 555 10297 91017
AAXX 07064 68524 32986 01107 10263 20102 39072 48538 52007 333 20217 91014 555 10386 91017
AAXX 07064 68546 36/// /1703 10244 20128 38688 48538 53006 333 20153 91006 555 10329 91021
AAXX 07064 68558 36/// /1902 10200 20108 38227 48539 52004 333 20111 91004 555 10275 91024
AAXX 07064 68570 36/// /1107 10194 20132 38550 48543 58002 333 20154 91013 555 10304 91023
AAXX 07064 68580 12552 30000 10214 20172 38993 48560 52001 69924 83500 333 20165 91003 555 10282 20002 91022
AAXX 07064 68614 32980 00000 10227 20146 30092 40132 52005 333 20162 91002 555 10337 91013
AAXX 07064 68624 32982 01106 10243 20053 38773 48550 52007 333 20170 91012 555 10345 91022
AAXX 07064 68674 16/// /1602 10253 20228 30149 48614 53006 69924 333 20228 91003 555 10301 20002 91018
AAXX 07064 68712 32970 01714 10168 20148 30072 40137 52006 333 20149 91018 555 10218 91013
AAXX 07064 68718 36/// /1503 10228 20150 39930 40173 57002 333 20189 91006 555 10359 91018
AAXX 07064 68722 32980 00709 10215 20059 38584 48542 52005 333 20156 91015 555 10310 91023
AAXX 07064 68814 36/// /2011 1//// 2//// 30142 4//// 53004 333 2//// 91013 555 1//// 91015
AAXX 07064 68832 36/// /0706 10208 20053 39233 48560 52003 333 20144 91011 555 10330 91020
AAXX 07064 68916 32370 20808 10188 20162 39890 40156 54000 82200 333 20180 91018 555 10231 91016
AAXX 07064 68920 32470 70305 10213 20175 30167 40179 52001 876// 333 20201 91008 555 10253 91018
AAXX 07064 68928 36/// /0102 10235 20173 30024 40182 51001 333 20176 91004 555 10261 91018
AAXX 07061 31825 42999 01501 11088 21174 30057 40273 56017
AAXX 07061 31845 42599 72102 11131 21183 30158 40331 56004 85130
AAXX 07061 31878 42998 12502 11127 21192 30215 40347 56014 80001
AAXX 07061 31915 42999 09902 11073 21175 30060 40335 57014
AAXX 07061 31921 42998 01005 11111 21164 30240 40343 56011
AAXX 07061 31969 42997 03008 11059 21169 30288 40329 57017 333 91012 91114
AAXX 07061 31981 42999 00000 11101 21198 30094 40342 56018
AAXX 07061 31987 42999 00105 11075 21214 30045 40316 56015 333 91112
AAXX 07061 32069 42598 23404 11085 21127 30237 40242 57007 82100 333 91007 91109
AAXX 07061 30499 42999 82302 11237 21261 39586 40300 58021 8807/
AAXX 07061 30683 42999 80000 11194 21227 39605 40300 57019 80001
AAXX 07061 30695 42999 53201 11203 21244 39942 40304 57026 80004
AAXX 07061 31253 42999 80000 11287 21326 39795 40305 57018 85036
AAXX 07061 31295 42999 62504 11163 21214 39806 40288 57019 80001
AAXX 07061 31348 42999 20501 11177 21189 30054 40262 57005 80001
AAXX 07061 31418 42998 30000 11188 21221 39981 40254 57015 80004
AAXX 07061 31439 42999 00000 11172 21198 30204 40251 57012
AAXX 07061 31442 42999 01803 11113 21197 39918 40287 57026
AAXX 07061 31445 42999 01601 11139 21200 30030 40298 57024
AAXX 07061 31474 42999 02301 11190 21239 39808 40326 57012
AAXX 07061 31521 32999 02502 11144 21195 30013 40320 57016
AAXX 07061 31527 42998 02502 11141 21193 30010 40330 57007
AAXX 07061 31534 42999 00000 11188 21237 39978 40350 57010
AAXX 07061 31587 42998 00000 11164 21206 30178 40334 57020
AAXX 07061 31632 NIL
AAXX 07061 31702 42998 03401 11157 21217 39980 40339 57012
AAXX 07061 31713 42999 00000 11094 21157 30194 40297 57016
AAXX 07061 31725 42998 02304 11131 21174 30230 40301 57009
AAXX 07061 31801 41598 61801 11125 21168 30067 40306 57011 70271 82242
AAXX 07061 30455 42999 60000 11301 21326 38955 48472 58020 80005
AAXX 07061 30731 41599 31804 11150 21201 39721 40370 57009 70181 81540
AAXX 07061 30739 42999 20702 11324 21355 39530 40467 57018 80002
AAXX 07061 30741 42998 22803 11171 21190 38749 48530 57011 80001
AAXX 07061 30745 42998 62602 11217 21242 39137 40383 58024 80001
AAXX 07061 30764 41999 00000 11265 21312 39501 40384 57032 70240
AAXX 07061 30829 42999 70000 11279 21297 39692 40468 58014 80001
AAXX 07061 30838 41996 30000 11262 21281 39357 40450 58020 71000 80002
AAXX 07061 30846 42999 22104 11152 21212 39405 40369 58024 70370 80001
AAXX 07061 30859 42999 02301 11249 21297 39479 40403 57023
AAXX 07061 30862 42999 02406 11237 21277 39575 40385 57018
AAXX 07061 30957 42999 02305 11200 21233 39433 40403 58022
AAXX 07061 30975 42999 22301 11299 21330 39710 40443 58018 80001
BBXX 44029 07061 99425 70706 46/30 /0203 10055 40060 58011 90604 22200 00073 11101 70006 333 91203 555 11028 22029
BBXX 44033 07061 99441 70690 46/30 /0103 10004 40069 55000 90604 22200 00046 10602 70009 333 91204 555 11034 22034
BBXX 44059 07061 99368 70763 46/// /2404 1//// 90620 333 91206
BBXX 44059 07061 99368 70763 46/// /2404 1//// 40121 90610 333 91206
BBXX 44059 07061 99368 70763 46/// /2404 10119 40121 58007 90600 22200 00086 333 91206
BBXX 44057 07061 99395 70761 46/// /3502 1//// 90620 333 91202
BBXX 44057 07061 99395 70761 46/// /3502 1//// 40096 90610 333 91202
BBXX 44057 07061 99395 70761 46/// /3502 10023 40096 57004 90600 22200 00036 333 91202
BBXX 44058 07061 99376 70763 46/// /2504 1//// 90620 333 91204
BBXX 44058 07061 99376 70763 46/// /2503 1//// 40112 90610 333 91204
BBXX 44058 07061 99376 70763 46/// /2603 10103 40112 56010 90600 22200 00067 1//00 70002 333 91204
BBXX 44040 07061 99410 70736 46/// /2304 10082 20022 40085 90615 22200 1//00 70000 333 91205 555 11051 22062
AAXX 07064 16294 42597 30410 10102 20016 39917 40111 52028 6///2 83500 333 20092 30/// 83630 555 0////
AAXX 07064 60421 11558 42806 10036 20024 39194 48530 52021 60024 700// 84800 333 000// 20030 82826 83633 95970
BBXX 46132 07061 99497 71279 46/// /1011 10072 40214 52006 22200 00083 11008 70038 333 91214
BBXX 46205 07061 99542 71343 46/// /1812 10059 40103 57018 22200 00068 11410 70051 333 91214
BBXX 46184 07061 99539 71389 46/// /1414 10050 49992 57065 22200 00057 11309 70045 333 91218
BBXX 46181 07061 99538 71288 46/// /1602 10016 40191 57002 22200 00023 10300 70000 333 91202
AAXX 07064 68171 NIL
AAXX 07064 68181 NIL
AAXX 07064 68185 NIL
AAXX 07064 68287 NIL
AAXX 07064 68297 NIL
AAXX 07064 68342 NIL
AAXX 07064 68343 NIL
AAXX 07064 68370 NIL
BBXX 46184 07061 99539 71389 46/// /1414 10050 49992 57065 22200 00057 11309 70045 333 91218
BBXX 46181 07061 99538 71288 46/// /1602 10016 40191 57002 22200 00023 10300 70000 333 91202
AAXX 07061 14236 12802 10014 21044 39993 40196 52/// 81500 333 20007 31103
BBXX PHQW 07063 99528 10039 41/98 /2727 10108 20067 40100 53010 7//22 8//// 22243 00085 2//// 80087 91256
BBXX 46247 07061 99378 71228 46/// ///// 1//// 90621 22200 00113 11307 20905 328// 41304 70033
BBXX 46243 07061 99462 71241 46/// ///// 1//// 90629 22200 00091 11205 20905 326// 41203 70027
BBXX 46236 07061 99368 71219 46/// ///// 1//// 90620 22200 00119 11507 21004 328// 41505 70034
BBXX 46229 07061 99438 71246 46/// ///// 1//// 90621 22200 00096 11406 21004 328// 41405 70032
BBXX 46225 07061 99329 71174 46/// ///// 1//// 90614 22200 00152 11504 20902 327// 41503 70019
BBXX 46213 07061 99403 71247 46/// ///// 1//// 90624 22200 00107 11307 21004 331// 41306 70037
BBXX 46215 07061 99352 71209 46/// ///// 1//// 90608 22200 00122 11706 21004 326// 41705 70030
AAXX 07064 91723 NIL
AAXX 07064 91759 11598 71804 10272 20251 40089 53010 60001 71522 84870 333 82820 83640 87463
AAXX 07064 91762 11498 82909 10280 20249 40087 53010 60001 75062 8787/ 333 83819 84640 88461
BBXX 46224 07061 99332 71175 46/// ///// 1//// 90536 22200 00150 11503 21002 326// 41702 70013
BBXX 46219 07061 99332 71199 46/// ///// 1//// 90628 22200 00134 11509 21006 329// 41507 70047
BBXX 46224 07061 99332 71175 46/// ///// 1//// 90606 22200 00150 11703 21002 326// 41702 70013
AAXX 07061 01415 16/// /3008 10074 20038 39947 49957 58009 6//// 333 20031 70076 91116
BBXX 44099 07061 99369 70757 46/// ///// 1//// 90622 22200 00088 10502 20501 70008
AAXX 07064 42634 32996 00503 10224 20099 40181 333 58014
AAXX 07064 42647 32996 00000 10230 20088 40182 333 58014
AAXX 07064 42737 32996 03403 10220 20074 40185 333 58006
AAXX 07064 42840 32996 03604 10250 20126 40184 333 58010
AAXX 07064 42909 32997 03608 10258 20084 40179 222// 20000 333 58010
AAXX 07064 42921 32996 02703 10256 20086 40192 333 58008
AAXX 07064 43003 31995 03603 10274 20136 40170 70400 333 58014
AAXX 07064 43014 32996 30202 10272 20101 39512 40150 80001 333 58012 83075
AAXX 07064 43063 32997 02702 10276 20102 39532 40148 333 58009
AAXX 07064 43110 31996 02702 10298 20139 40155 70544 333 58008
AAXX 07064 43117 32997 01402 10318 20128 40139 333 58002
AAXX 07064 43192 31996 02502 10304 20225 40151 70540 333 58008
BBXX 44039 07061 99411 70727 46/// /2305 10084 20042 40088 90553 22200 00066 10301 70003 333 91207
AAXX 07061 24856 41997 82602 11373 21401 30139 40318 52014 77171 80007
AAXX 07061 30679 NIL
AAXX 07061 30686 42999 61601 11214 21247 39910 40312 57026 80002
AAXX 07061 30961 42999 01403 11278 21291 39546 40427 58023
AAXX 07061 30971 42999 03102 11176 21226 39317 40368 58019
AAXX 07061 30978 42999 02102 11260 21284 39669 40427 58022 82040
AAXX 07061 31513 42999 01802 11138 21181 30069 40307 57024
AAXX 07061 31624 NIL
AAXX 07061 31832 42998 61202 11142 21185 30238 40329 57010 80001
AAXX 07061 31913 43/// /3102 11083 21189 30217 40340 56015
AAXX 07061 32128 41599 73605 11049 21098 30183 40237 51001 70282 87300 333 91008 91109
AAXX 07064 62010 11560 60214 10102 20061 40174 52022 60284 72583 86800 333 0//23 20088 51184 55021 84825 86630
BBXX V7OX3 07061 99355 30171 41/97 /1608 10180 20146 40170 54000 703// 8/1// 22223 21006 3//// 4//// 5//// 80160
BBXX MZDL7 07063 99188 50217 41397 61010 10215 20196 40190 58010 75252 867// 22214 00250 2//// 3//// 4//// 5//// 80203
BBXX 2AJI3 07063 99076 70141 41998 03311 10285 20227 40098 54000 70500 80000 22274 2//// 300// 4//// 5//// 80245
AAXX 07061 56671 32780 72004 10148 21026 38215 57031 81102 333 00200 21005
AAXX 07061 57378 32960 83603 10029 21065 40343 57030 8807/ 333 21005
AAXX 07061 57426 32761 80201 10074 20019 40294 57028 885// 333 00200 20044
AAXX 07061 57476 32960 83602 10041 21071 40337 57034 8807/ 333 21001
AAXX 07061 57584 32962 80203 10048 21040 40329 57029 8807/ 333 20030
AAXX 07061 57598 32962 83602 10072 21048 40318 57036 8807/ 333 20041
AAXX 07061 57655 32962 80403 10063 21080 40321 57033 8807/ 333 20053
AAXX 07061 57713 NIL
AAXX 07061 57776 11575 80707 11031 21047 40332 57027 69901 70070 885// 333 21056
AAXX 07061 58321 32661 70703 10072 21048 40342 57037 875// 333 21012
AAXX 07061 58437 11/00 91803 11013 21013 38209 57019 69901 74574 333 21039
AAXX 07061 58445 NIL
AAXX 07061 58556 31958 71601 10075 20018 40335 57025 70500 8704/ 333 20011
AAXX 07061 58569 32770 70407 10094 20011 40320 57023 875// 333 20032
AAXX 07061 58646 11658 82501 10044 20023 40333 57027 69911 76066 885// 333 20024
AAXX 07061 58653 NIL
AAXX 07061 58660 NIL
AAXX 07061 58715 11757 83402 10048 20016 40309 57027 69901 71060 8657/ 333 20037
AAXX 07061 58730 11658 82701 10079 20067 40308 57023 69911 71060 8552/ 333 20047
AAXX 07061 58731 11663 80000 10067 20040 40313 57025 69901 70060 885// 333 20024
AAXX 07061 58754 32575 83403 10101 20029 40310 57027 8387/ 333 20071
AAXX 07061 58911 32563 82503 10060 20037 40295 57027 885// 333 20045
AAXX 07061 58931 31/00 91101 10057 20057 38410 57014 74544 333 20030
AAXX 07061 59254 11450 83601 10083 20072 40278 57032 69911 76060 885// 333 20069
AAXX 07061 59632 32562 83403 10113 20058 40262 57032 888// 333 20085
AAXX 07061 59855 11466 83201 10164 20151 40232 57027 69931 76060 887// 333 20141
BBXX 46004 07061 99509 71361 46/// /1515 10070 40058 57057 22200 00070 11209 70046 333 91218
AAXX 07063 43329 32597 70703 10300 20220 30154 40168 83431 333 58009
AAXX 07064 43086 32997 22002 10298 20183 39983 40159 80001 333 58005
AAXX 07064 43128 32997 02303 10294 20124 39556 40152 333 58009
AAXX 07064 43150 32597 31806 10282 20213 30102 40176 83800 333 58011 82620
AAXX 07064 43185 32597 31803 10302 20219 30165 40168 83400 333 58006 82620
AAXX 07064 43189 32597 40702 10306 20224 30168 40177 83801 333 58009
AAXX 07064 43198 32996 13603 10290 20135 39328 40137 80001 333 58003 81075
AAXX 07064 43201 32997 00902 10292 20162 39430 40134 333 58003
AAXX 07064 43213 32597 29902 10310 20155 39839 40152 81502 333 58003
AAXX 07064 43226 32997 00000 10314 20203 30130 40159 333 58010
AAXX 07064 43233 32997 00903 10298 20138 39348 40140 333 58003
AAXX 07064 43237 32997 00903 10302 20131 39768 40154 333 58008
AAXX 07064 43245 32597 31402 10292 20231 30142 40169 83800 333 58004
AAXX 07064 43279 32497 60903 10290 20219 30159 40177 85801 333 58010 82618 83825
AAXX 07064 43284 31496 11103 10316 20205 30033 40146 70144 81500 333 58008 81615
AAXX 07064 43295 32597 20703 10250 20127 39151 48563 81501 333 58011 81620
AAXX 07064 43311 32597 33602 10314 20254 40151 82501 333 58020 82625
AAXX 07064 43314 32597 22904 10326 20234 40152 81502 333 58006
AAXX 07064 43321 31496 40205 10264 20196 39720 40166 70542 83501 333 58004
AAXX 07064 43344 31496 60508 10286 20218 30070 40170 70511 84802 333 58008 83615 83820 85075
AAXX 07064 43346 32597 80508 10284 20231 30158 40165 84552 333 58013 84620 84360
AAXX 07064 43353 32996 40704 10308 20188 40152 82031 333 56099 59003 82059 84072
AAXX 07064 43369 32597 20904 10306 20249 40150 82500 333 58007 82620
AAXX 07064 43371 32597 22703 10316 20183 30070 40142 81501 333 58000 81620
AAXX 07064 43329 NIL
BBXX 46004 07061 99509 71361 46/// /1515 10070 40058 57057 22200 00070 11209 70046 333 91218
AAXX 07061 57259 32970 80903 10031 21102 40346 57035 8807/ 333 21026
AAXX 07061 57279 32961 83201 10039 21088 40346 57033 8807/ 333 21037
AAXX 07061 57399 32962 82002 10050 21075 40335 57026 8807/ 333 21018
AAXX 07061 57265 32962 83602 10041 21074 30232 40349 57039 8807/ 333 21023
AAXX 07061 57461 32962 41403 10071 21073 30169 40338 57035 84040 333 20013
AAXX 07061 57494 32968 80202 10031 21030 30299 40330 57032 8807/ 333 21040
AAXX 07061 57378 32960 83603 10029 21065 40343 57030 8807/ 333 21005
AAXX 07061 57476 32960 83602 10041 21071 40337 57034 8807/ 333 21001
AAXX 07061 57447 11458 82201 10036 20023 39757 40322 57029 69921 76066 8172/ 333 20033
AAXX 07064 67561 31460 70000 10204 20183 48521 70542 83232 333 10298 20174 59003 83810 84361 83080
AAXX 07064 67665 12380 20501 10224 20224 48529 60054 82131 333 10294 20161 59005 82810 82360 81080
AAXX 07064 67743 32980 41008 10248 20182 48524 80002 333 10350 20198 58002 84080
AAXX 07064 71110 16/// /2807 11051 21087 30049 40110 53011 60001 333 10037 21054 70072 555 10030 20072 32628 40182
AAXX 07064 71915 11974 03413 11360 21403 39962 40047 51006 69901 77677 333 11250 21373 48042 79999 90983 555 19999 29999
AAXX 07064 71988 17/// /1210 10029 20025 30057 40077 56019 69971 7//4/ 333 10029 21051 70007 555 33130 40102
AAXX 07064 71500 16/// /2104 11041 21107 60001 333 10006 21054 7////
AAXX 07064 71504 16/// ///// 11050 21100 60001 333 10016 21089 70000
AAXX 07064 71541 16/// /2205 11079 21101 60001 333 11001 21080 70000 555 32725 40141
AAXX 07064 71543 17/// /3401 11101 21119 69941 7//4/ 333 11024 21113 70004 555 32518 40161
AAXX 07064 71546 16/// /2106 11058 21093 60001 333 10011 21059 70000 555 32625 40201
AAXX 07064 71547 16/// /2505 11054 21096 60001 333 11005 21063 70000 555 32524 40081
AAXX 07064 71549 16/// ///// 11060 21104 60001 333 7////
AAXX 07064 71011 16/// ///// 11037 21107 60001 333 10032 21048 70000
AAXX 07064 71067 16/// ///// 11056 21107 60001 333 10001 21082 70000
AAXX 07064 71888 16/// ///// 11063 21098 60001 333 10015 21088 70000
AAXX 07064 71895 16/// ///// 11084 21114 60001 333 10013 21102 70000
AAXX 07064 71153 16/// /2806 11036 21098 60001 333 10026 21054 70000 555 32726 40071
AAXX 07064 71788 16/// /2309 11055 21093 60001 333 10056 21063 70000 555 32623 40081
AAXX 07064 71792 46/// ///// 11081 21103 6///1 333 7////
AAXX 07064 71221 16/// /2705 11047 21094 60001 333 10005 21077 70000 555 32620 40091
AAXX 07064 71226 16/// /2505 11039 21090 60001 333 10016 21039 7////
AAXX 07064 71283 16/// /2902 11069 21104 60001 333 11004 21077 70000 555 32921 40141
AAXX 07064 71332 16/// /3503 11283 21314 30025 40055 56019 60001 333 11224 21305 70000
AAXX 07064 71673 16/// ///// 11105 21121 60001 333 10013 21116 70000
AAXX 07064 71690 16/// ///// 11061 21088 60001 333 11013 21082 70000
AAXX 07064 71461 16/// /2404 11039 21085 60001 333 10001 21055 70000 555 32822 40221
AAXX 07064 71468 16/// /3513 11104 21110 39752 40080 52013 60001 333 21104 70043 555 30217 40031
AAXX 07064 71483 46/// ///// 11048 21102 6///1 333 10016 21061 7////
AAXX 07064 71356 16/// /3307 11353 21395 30083 40154 50000 60001 333 11263 21361 70000 555 33024 40161
AAXX 07064 71359 16/// /2706 11075 21106 60001 333 10010 21079 7////
AAXX 07064 71405 46/// ///// 11060 21102 6///1 333 7////
AAXX 07064 71417 17/// /2512 11111 21130 30011 40046 52005 69961 7//4/ 333 11016 21113 70117 555 32651 40143
AAXX 07064 71426 46/// /0910 11110 6///1 333 11108 21160 7//// 555 33136 40073
AAXX 07064 71449 16/// /2705 11071 21103 39729 40136 50008 60001 333 10043 21072 70000 555 32828 40112
BBXX MINFR03 0706/ 99027 10599 46/// ///// 10295 40137 52010
BBXX MINUK05 0706/ 99579 70032 46/// ///// 10065 40051 52013
BBXX MINUK04 0706/ 99532 10031 46/// ///// 10083 4//// 57008
BBXX FLAO 0706/ 99764 70847 46/// ///// 11245 40049 52007
BBXX MINUK03 0706/ 99545 10000 46/// ///// 10080 40080 57032
BBXX MINUK01 0706/ 99599 70012 46/// ///// 10075 49964 57031
BBXX BAREU11 07064 99459 70163 46/// ///// 40357 52004 22254
AAXX 07064 71915 11974 03413 11360 21403 39962 40047 51006 69901 77677 333 11250 21373 48042 79999 90983 555 19999 29999
AAXX 07064 67561 31460 70000 10204 20183 48521 70542 83232 333 10298 20174 59003 83810 84361 83080
AAXX 07064 67665 12380 20501 10224 20224 48529 60054 82131 333 10294 20161 59005 82810 82360 81080
AAXX 07064 67743 32980 41008 10248 20182 48524 80002 333 10350 20198 58002 84080
AAXX 07064 68828 32970 01204 10209 20161 39946 40176 58002 333 20143 555 10263 91018
BBXX 46146 07061 99493 71237 46/// /1208 10048 40273 52015 22200 00068 10301 70005 333 91209
AAXX 07061 56144 32680 21802 10034 21158 36843 57045 82400 333 00002 21114
AAXX 07061 56152 32780 20902 11032 21132 36282 57029 81102 333 00003 21211
AAXX 07061 56167 32780 10000 10035 21095 37067 57055 81100 333 05103 21119
AAXX 07061 56182 32680 52002 10034 21110 37164 57050 82102 333 00002 21123
AAXX 07061 56357 32980 01101 10019 21176 36430 57032 333 00001 21148
AAXX 07061 56586 11460 80000 10013 21011 38065 57035 69901 70060 885// 333 00100 21025 93427
AAXX 07061 56748 32580 72204 10144 20020 38392 57023 84202 333 00251 20026
AAXX 07061 56763 32680 62203 10229 21042 40138 57042 81102 333 00200 20099
AAXX 07061 56768 32680 62704 10153 20021 38205 57026 82102 333 00201 20035
AAXX 07061 56838 31667 72701 10173 20104 40216 57030 70040 82132 333 00353 20076
AAXX 07061 56886 31680 72207 10161 20083 38309 57043 70040 81102 333 00101 20036
AAXX 07061 56946 31580 30401 10207 20066 40197 57033 70040 81102 333 00300 20076
AAXX 07061 56959 32770 51802 10241 20166 40168 57040 85100 333 00100 20128
AAXX 07061 56969 11580 61802 10244 20164 40176 57035 69901 70080 86400 333 00201 20142
AAXX 07061 57731 32665 81601 10049 21007 40311 57033 885// 333 00200 20043
AAXX 07061 57766 11760 80000 10066 21020 40320 57029 69901 70060 885// 333 20039
AAXX 07061 57845 32962 80402 10055 21008 40307 57026 8807/ 333 20030
AAXX 07061 57853 11756 80000 10052 21015 40321 57029 69901 70560 885// 333 20025
AAXX 07061 57916 32575 81101 10085 20039 40281 57036 888// 333 00201 20055
AAXX 07061 57922 11220 83202 10016 20013 40301 57032 69911 76066 887// 333 00251 20001 93427
AAXX 07061 57932 11461 80701 10058 20021 40304 57035 69901 70060 885// 333 00200 20039
AAXX 07061 58338 32962 60905 10085 21040 40328 57033 86040 333 21011
AAXX 07061 59007 11463 80201 10070 20038 40250 57033 69911 70050 885// 333 20033
AAXX 07061 59046 32765 83401 10087 20031 40290 57031 885// 333 20065
AAXX 07061 59058 11856 83203 10072 20027 40289 57029 69901 72166 885// 333 20050
AAXX 07061 59072 32765 80202 10078 20016 40297 57028 885// 333 20046
AAXX 07061 59087 32764 80904 10089 20033 40281 57027 885// 333 20069
AAXX 07061 59209 11468 83401 10083 20051 40260 57031 69901 70060 888// 333 20060
BBXX 46146 07061 99493 71237 46/// /1208 10048 40273 52015 22200 00068 10301 70005 333 91209
AAXX 07064 45011 47550 /0210 10123 20083 40256 57025 70511 333 58034
AAXX 07064 45011 47550 /0210 10123 20083 40256 57025 70511 333 58034
AAXX 07061 38599 11395 82504 11062 21074 39773 40319 58004 69900 71072 885// 333 21058 85709 83619
AAXX 07061 45032 36/// /3402 10128 20081 30238 40255 57002
AAXX 07061 45035 36/// /3502 10129 20081 30213 40257 57001
AAXX 07061 45039 36/// /0602 10130 20097 30236 40252 57001
AAXX 07061 45044 36/// /3505 10146 20101 30151 40247 54000
AAXX 07061 45032 36/// /3402 10128 20081 30238 40255 57002
AAXX 07061 45035 36/// /3502 10129 20081 30213 40257 57001
AAXX 07061 45039 36/// /0602 10130 20097 30236 40252 57001
AAXX 07061 45044 36/// /3505 10146 20101 30151 40247 54000
AAXX 07061 01212 16/// /1805 10030 21003 39890 49905 57023 60034 333 20009 70030 91112
AAXX 07061 48806 12460 81103 10125 20106 39448 40246 57014 69903 888// 333 58028 83894 88696
AAXX 07064 16110 12598 30806 10052 21073 30171 40175 52025 60002 82140 333 20036 30/// 55068 26556 55300 82830 555 0////
BBXX BAREU11 07064 99459 70163 46/// ///// 40357 52004 22254
BBXX 44258 07061 99445 70634 46/// /1307 10011 40111 57024 22200 00054 10802 70010 333 91208
AAXX 07061 40650 12960 00202 10066 20027 40206 52021 60002
AAXX 07061 40608 11958 00000 10030 20008 40229 52015 60002 71000
AAXX 07061 40621 12960 01201 10080 20033 40236 52011 60002
AAXX 07061 40632 12960 00000 10032 20026 40203 53014 60002
AAXX 07061 40634 11958 02702 10022 20012 40215 53005 60002 71000
AAXX 07061 40656 12960 02003 10057 20033 40185 52015 60002
AAXX 07061 40691 12660 73602 10152 20138 40210 52012 60002 81702
AAXX 07061 40666 11958 01003 10125 20084 40197 52012 60002 70500
AAXX 07061 40689 12560 53305 10116 20025 40202 52019 60002 82131
AAXX 07061 40638 12960 01503 10086 20010 40199 52010 60002
AAXX 07061 40680 12960 21601 10097 20045 40192 52021 60002 81032
AAXX 07061 40690 12960 60000 10105 20037 40196 52021 60002 82131
AAXX 07061 40674 12960 02707 10070 20021 40203 52028 60002
AAXX 07061 40662 11556 60000 10122 20035 40198 52023 60002 70511 83208
AAXX 07061 40642 12960 00000 10038 21040 40218 53015 60002
AAXX 07061 40622 11957 00000 10035 20011 40191 54000 60022 71000
AAXX 07061 40623 11559 30000 10036 20013 40233 52005 60002 70511 83500
BBXX 44258 07061 99445 70634 46/// /1307 10011 40111 57024 22200 00054 10802 70010 333 91208
AAXX 07064 87453 32965 23605 10226 20093 39660 40129 58003 80001 333 56008 82070
AAXX 07064 97014 11560 62605 10287 20234 30003 40096 57032 69901 70162 82271 333 56000 57804 82821 80858
AAXX 07064 97028 01560 83104 10290 20238 30090 40096 56014 69901 72162 84221 333 56000 57802 69907 84820 87460 80860
AAXX 07064 97048 01458 80000 10283 20228 30062 40086 57021 69921 70262 83272 333 56000 57801 69907 82817 80860
AAXX 07064 97072 32459 63207 10302 20256 30005 40105 58017 82271 333 56000 57804 82820 84460 80858
AAXX 07064 97086 32460 71708 10298 20262 30070 40095 56023 83271 333 56000 57804 83819 85460 80860
AAXX 07064 97096 32460 70860 10302 20235 30088 40109 57015 84221 333 56000 57802 84816 86460 80860
AAXX 07064 97120 32462 72606 10318 20228 30053 40086 56023 82231 333 56000 57803 82818 85360 80860
AAXX 07064 97146 11457 73406 10292 20243 30025 40086 57018 69901 72162 86971 333 56000 57901 57802 81912 83814 80980 80860
AAXX 07064 97180 NIL
AAXX 07064 97192 32467 32504 10324 20257 30049 40106 58013 82132 333 56600 57863 82816 80857
AAXX 07064 97230 32460 72513 10296 20245 30071 40078 57014 84932 333 56600 57961 57861 83816 85360 80980 80859
AAXX 07064 97260 31460 73211 10296 20253 30061 40068 57015 71522 85201 333 56700 57801 85817 80860
AAXX 07064 97270 31457 73610 10294 20255 30072 40077 56009 70522 85821 333 56000 83815 86460
AAXX 07064 97300 11458 83506 10284 20258 30048 40088 57011 60011 72162 84271 333 56000 57801 60017 84818 80858
AAXX 07064 97340 32570 83508 10304 20254 30050 40065 57016 84232 333 56000 84820 86360
AAXX 07064 97372 32462 53208 10310 20267 39955 40075 57018 84931 333 56000 81916 83817
AAXX 07064 97430 12460 60303 10280 20245 30062 40091 57022 69921 83232 333 56700 57872 83818 80860
AAXX 07064 97460 11458 72903 10286 20240 30049 40063 57030 69911 71562 84876 333 56000 57802 83817 80858
AAXX 07064 97502 31456 72709 10296 20251 30070 40074 57017 71522 86931 333 56000 57901 82910 84812 80960
AAXX 07064 97530 NIL
AAXX 07064 97560 32460 62604 10308 20250 30055 40070 57025 83848 333 56000 57804 82818 84361 86279 80860
AAXX 07064 97580 NIL
AAXX 07064 97600 32460 63407 10316 20241 30081 40087 57020 83271 333 56700 57873 82818 84460 80858
AAXX 07064 97686 NIL
AAXX 07064 97690 01457 72908 10310 20249 39962 40063 57015 69901 79192 83838 333 56000 57801 69907 82816 86279 80860
AAXX 07064 97724 31558 72708 10316 20248 30063 40080 57016 70522 83272 333 56700 57871 83820 85459 80856
AAXX 07064 97748 31460 61705 10296 20253 30054 40056 57002 70592 83932 333 56400 57942 81914 82815 84075 80940 80850
AAXX 07064 97760 32462 61706 10308 20256 30071 40080 57018 83232 333 56000 57801 83816 80860
AAXX 07064 97796 01458 70000 10306 20257 30036 40087 57016 69901 72996 86932 333 56000 57903 69907 81910 86611 80980
AAXX 07064 97810 32465 62305 10312 20237 30055 40064 57025 82231 333 56700 57873 82819 84360 80835
AAXX 07064 97876 31359 62204 10316 20241 30078 40108 56022 71422 85931 333 56000 57901 82909 83610 80958
AAXX 07064 97900 01468 72205 10315 20257 30053 40082 58023 60011 70262 84820 333 56600 57861 60017 83617 87460 80857
AAXX 07064 97980 32460 32105 10312 20238 30064 40071 56025 81242 333 56000 82817
AAXX 07064 96009 32457 70607 10304 20226 30102 40138 57008 83921 333 56000 57903 57803 81917 82818 84460 80965 80865
AAXX 07064 96011 32460 50405 10316 20219 30104 40131 57013 83221 333 56000 57803 83818 80858
AAXX 07064 96035 31456 63207 10311 20221 30095 40133 57015 70522 86976 333 56000 57801 86817 80856
AAXX 07064 96073 32560 73009 10320 20239 30101 40112 56011 83222 333 56000 57802 83820 80860
AAXX 07064 96091 32460 53610 10300 20234 30108 40131 57014 85211 333 56800 57882 85817 80860
AAXX 07064 96109 01460 70405 10300 20227 30076 40115 57014 69931 72162 85232 333 56000 57801 69937 85815 80840
AAXX 07064 96145 01440 80206 10256 20241 30121 40124 56006 60061 76062 8582/ 333 56809 57882 60067 82616 83817 88460 80857
AAXX 07064 96147 NIL
AAXX 07064 96163 32560 52306 10308 20250 30112 40114 57009 83831 333 56000 57802 81620 82820 80840
AAXX 07064 96179 32460 73412 10323 20235 30081 40118 57011 85206 333 56800 57882 85817 80840
AAXX 07064 96195 32462 70111 10313 20216 30090 40126 58019 84271 333 56000 57802 84815 80850
AAXX 07064 96221 01460 73010 10307 20233 30095 40110 57020 69901 72162 84231 333 56999 57893 69907 84816 80858
AAXX 07064 96237 32459 73306 10312 20226 30069 40110 57013 83235 333 56000 57801 83816 83360 85280
AAXX 07064 96249 32461 73011 10296 20244 30046 40107 57010 85932 333 56800 57981 57881 81917 84820 80981
AAXX 07064 96253 32460 52812 10318 20240 30073 40094 57016 83932 333 56000 57900 57800 81915 82820
AAXX 07064 96295 32460 73413 10288 20222 30009 40112 56013 84221 333 56000 57800 82815 80800
AAXX 07064 96509 01457 81102 10268 20249 30099 40110 57022 60141 72162 8527/ 333 56009 57800 60037 85815 808//
AAXX 07064 96581 32460 72908 10305 20249 30091 40098 57022 85131 333 56700 85812 80860
AAXX 07064 96633 32560 70605 10300 20250 30081 40088 57016 81572 333 56000 81622 85462
AAXX 07064 96645 NIL
AAXX 07064 96655 32460 63104 10332 20223 30078 40113 57015 84523 333 56000 84613
AAXX 07064 96685 32460 72706 10316 20237 30070 40096 57018 84511 333 56000 84616
AAXX 07064 96749 01560 73118 10284 20236 30098 40111 58013 60041 72162 85921 333 56000 57920 69907 81920 84621 86460 80950
AAXX 07064 96781 NIL
AAXX 07064 96805 11559 72605 10306 20246 30097 40106 56018 60021 70262 84271 333 56000 57801 84820 85460 80860
AAXX 07064 96839 11457 73009 10294 20239 30088 40095 57005 69911 70262 84276 333 56000 57802 84819 80865
AAXX 07064 96935 32560 52712 10323 20217 30076 40082 57018 82271 333 56600 57861 82820 80860
AAXX 07064 97008 32459 73205 10292 20249 30078 40089 57014 82272 333 56000 82819 86460
AAXX 07064 97016 01460 73604 10302 20241 30083 40085 57033 69951 70262 83972 333 56000 57901 57801 69957 81918 83818 85460 80980 80860
AAXX 07064 97126 32460 71202 10320 20238 30021 40081 57024 81520 333 56000 81618 87460
AAXX 07064 97142 NIL
AAXX 07064 97182 01430 83009 10301 20255 30088 40092 57023 60151 76262 8387/ 333 56009 57800 60087 83816 85458 808//
AAXX 07064 97240 31858 62415 10278 20258 39968 40082 57013 71792 84971 333 56000 57901 81915 83816 80982 80860
AAXX 07064 97284 02458 83506 10224 20203 38855 40094 57011 60021 85221 333 56000 57801 60027 85813 80837
AAXX 07064 97310 NIL
AAXX 07064 97320 01462 80000 10264 20246 30072 40085 57013 60013 76162 8522/ 333 56000 57801 60037 85818 88460 80856
AAXX 07064 97378 32570 73405 10300 20242 39923 40086 52005 86231 333 56200 86818
AAXX 07064 97380 32464 63106 10317 20248 30056 40086 57010 82171 333 56000 82819 84360
AAXX 07064 97406 11460 80000 10274 20245 30057 40082 57015 60021 70262 84923 333 56000 57901 57801 81917 83818 86460 80975 80860
AAXX 07064 97570 32460 72412 10324 20269 30060 40067 57026 81132 333 56000 81815 83362 86080
AAXX 07064 97630 31466 71808 10294 20245 39924 40085 57020 70522 84943 333 56000 57901 81912 84813 85078 80978
AAXX 07064 97682 32465 53508 10335 20280 30043 40050 56016 83933 333 56000 57902 81916 83815 85080 80958
AAXX 07064 97698 31458 80309 10294 20248 30074 40081 57017 71542 87857 333 56000 57802 85816 83618 88277 80863
AAXX 07064 97700 32460 60208 10300 20254 30055 40069 57020 82232 333 56000 57804 82817 84358 80856
AAXX 07064 97722 NIL
AAXX 07064 97780 NIL
AAXX 07064 97790 NIL
AAXX 07064 96001 32560 71005 10290 20270 30001 40134 56013 84232 333 56200 57822 84820 80860
AAXX 07064 96015 32465 32506 10300 10265 30121 40128 57009 82231 333 56000 57804 82820 80861
AAXX 07064 96033 32460 53008 10298 20237 30129 40134 57006 70521 82931 333 56000 57902 81920 82617 80980
AAXX 07064 96075 21457 63608 10302 20253 30119 40125 52007 69971 70162 84971 333 56000 57901 82915 82816 80965 80856
AAXX 07064 96087 32459 60408 10296 20221 30094 40127 56014 84271 333 56800 57882 84815 86460 80860
AAXX 07064 96171 32459 73006 10304 20225 30089 40113 57020 85222 333 56000 57801 85816 80858
AAXX 07064 96207 31456 71304 10251 20208 39253 40175 57002 71622 83972 333 56000 57900 81915 83360
AAXX 07064 96505 01460 80305 10236 20214 39069 4//// 57012 69901 76066 8652/ 333 56009 69907 86616 88463
AAXX 07064 96525 01456 80000 10269 20241 30108 40116 57017 60081 71562 84921 333 56000 60037 81914 84614 86460
AAXX 07064 96529 01450 80000 10264 20249 30103 40127 57022 60031 72162 8512/ 333 56009 60047 85817 88460
AAXX 07064 96535 32460 73607 10285 20252 30094 40114 57019 83234 333 56200 57823 83813 85082 80864
AAXX 07064 96557 32460 73203 10300 20233 30038 40087 57025 84371 333 56600 57961 57861 81912 83813 85460 80980 80857
AAXX 07064 96559 32458 62708 10304 20243 30060 40098 57022 85931 333 56600 57962 57863 81913 84811 84362 80973 80857
AAXX 07064 96565 01458 51404 10297 20256 30059 40112 57013 69901 70262 84221 333 56000 69907 84810 80850
AAXX 07064 96595 32463 70000 10314 20229 30053 40105 57021 85536 333 56600 85613
AAXX 07064 96607 32460 70503 10313 20235 30084 40099 57026 85921 333 56000 57940 81915 85814 809//
AAXX 07064 96615 32460 73402 10304 20243 30096 40110 56015 82131 333 56800 57883 82812 86082 80856
AAXX 07064 96695 01456 71507 10318 20257 30079 40085 58021 69901 76022 86911 333 56000 57902 57800 69907 81917 85817 80960 808//
AAXX 07064 96737 01450 83109 10304 20234 30066 40097 57010 69901 70562 85221 333 56000 57801 69907 85815 83460 80860
AAXX 07064 96739 11450 82908 10278 20231 30069 40118 57008 69911 71562 8511/ 333 56009 57801 81817 84617 80860
AAXX 07064 96741 11560 83309 10290 20242 30101 40105 57005 60021 70262 8457/ 333 56009 84620 86460
AAXX 07064 96745 12559 83015 10282 20241 30110 40115 57007 69901 8552/ 333 56709 85620 88460
AAXX 07064 96751 01530 80000 10204 20194 39052 48920 50007 60121 76166 8652/ 333 56009 60127 86620 88460
AAXX 07064 96791 NIL
AAXX 07064 96797 11459 83110 10277 20254 30095 40100 57015 69921 71562 8597/ 333 56009 57901 81918 84620 80980
AAXX 07064 96837 32559 72910 10290 20247 30092 40096 56019 83276 333 56000 57800 83823
AAXX 07064 96925 01461 82802 10253 20237 30094 40099 56014 60091 76166 82242 333 56600 57860 60027 82817 87460 80860
AAXX 07064 96933 32460 62812 10315 20235 30083 40086 57023 82871 333 56600 57862 82819 84460
AAXX 07064 96937 32562 63012 10325 20241 30080 40085 57020 83131 333 56000 83820
AAXX 07064 96973 32562 63009 10312 20264 30072 40077 57020 82131 333 56600 57861 82820 80850
AAXX 07064 96987 31450 80205 10290 20247 30027 40081 57014 71622 85921 333 56000 57902 81917 84617 80980
BBXX 44140 07061 99429 70515 46/// /2910 10105 40126 5//// 22200 00097 10705 70026 333 91212
AAXX 07064 61202 32970 10000 10097 21152 39609 40174 80002 333 00800 20088 51094 55104 59018 81075
AAXX 07064 61214 NIL
AAXX 07064 61223 42960 20204 10125 21047 3//// 4//// 80002 333 01100 20100 50614 55050 5//// 82075
AAXX 07064 61226 32960 21008 10135 20023 39857 40158 80002 333 01300 20134 50794 55093 59019 82075
AAXX 07064 61230 32960 40806 10155 21008 39860 40132 83042 333 0//00 20153 51084 55047 59008 83365
AAXX 07064 61233 32960 50404 10126 20004 3//// 4//// 80002 333 01000 20126 50774 55076 5//// 85075
AAXX 07064 61235 31958 50808 10210 20018 3//// 4//// 70611 80002 333 0//00 20208 51684 55043 5//// 85075
AAXX 07064 61240 32960 30000 10175 21052 39826 40155 80002 333 01400 20165 50824 55080 59005 83075
AAXX 07064 61250 32960 20000 10145 21045 3//// 4//// 80002 333 01300 20144 50864 55004 5//// 82075
AAXX 07064 61257 31958 01004 10170 20044 30081 40175 70600 333 01500 20168 50554 55084 59003
AAXX 07064 61265 32965 50806 10134 20016 39837 40147 80002 333 01000 20130 50870 55105 59002 85075
AAXX 07064 61270 32960 20406 10198 20010 3//// 4//// 80002 333 01700 20195 50904 55095 5//// 82075
AAXX 07064 61272 32960 20000 10166 20062 39822 40151 82042 333 01200 20165 5//// 55096 58001 82365
AAXX 07064 61277 32960 20000 10160 20051 39820 40142 80002 333 01300 20154 50841 55102 59006 82075
AAXX 07064 61285 32960 50000 10225 20014 39980 40129 80002 333 01800 20221 50914 55089 58000 85075
AAXX 07064 61291 32960 00408 10200 21017 39717 40127 333 01600 20196 51171 55099 59002
AAXX 07064 61293 32960 70404 10165 20061 39717 40125 82042 333 01300 20163 50940 55092 5//// 82365 86075
AAXX 07064 61296 32960 63604 10179 20062 3//// 4//// 80002 333 00900 20175 50740 55091 5//// 86075
AAXX 07064 61297 32960 73606 10175 20041 3//// 4//// 80002 333 01100 20170 50911 55104 5//// 87075
BBXX 46036 07061 99484 71339 46/// /1513 10081 40147 57040 22200 00078 11208 70039 333 91216
AAXX 07061 98134 31460 80203 10223 20208 39987 40179 57021 70544 8327/ 333 56199 83818 88357
AAXX 07061 98223 31565 23607 10282 20210 40141 57028 70544 81106 333 56999 81820 91116 90451
AAXX 07061 98232 11565 83606 10255 20228 40173 57016 60011 71582 8357/ 222// 20101 333 56899 83620 88358
AAXX 07061 98325 31462 63603 10300 20254 40136 58023 70544 82208 333 56999 82817 85279
AAXX 07061 98328 31457 82202 10236 20203 38534 40100 57019 74644 885// 333 56999 88612
AAXX 07061 98330 31470 80402 10299 20248 30106 40138 57023 70544 8427/ 333 56999 84818 88358
AAXX 07061 98336 31470 70402 10263 20248 30148 40153 57029 60121 71562 82577 333 56199 82610 85356
AAXX 07061 98429 31560 81003 10296 20234 40129 57029 70544 83830 333 56999 83823 87360
AAXX 07061 98430 31558 70202 10288 20236 40127 58022 70544 83870 333 56999 83618 84358
AAXX 07061 98431 31470 80401 10292 20256 30072 40119 57028 70544 83277 333 56999 83818 85460 88275
AAXX 07061 98440 31468 50906 10300 20258 30124 40129 57027 70544 83231 333 56299 83815
AAXX 07061 98444 11463 70403 10298 20256 30100 40119 58027 69901 78082 84378 333 56199 83918 85459 87270
AAXX 07061 98526 32575 81203 10324 20254 40115 57030 82237 333 56999 82820 85358 88274 98325
AAXX 07061 98531 31570 70905 10322 20239 30110 40114 58016 70544 82238 333 56299 82820 86358
AAXX 07061 98536 31470 60402 10265 20237 39912 40118 57022 70544 82270 222// 20000 333 56199 82818 85357
AAXX 07061 98543 32480 60000 10296 20276 30094 40105 57023 82201 333 56199 82818 85075
AAXX 07061 98550 11460 70901 10308 20260 40101 57027 60021 70282 82268 333 56999 82818 86273
AAXX 07061 98618 32480 60904 10310 20257 40108 58021 83308 333 56999 82917 82820 86274
AAXX 07061 98630 32575 60204 10294 20260 40128 58007 82208 222// 2//03 333 56199 82820 86275
AAXX 07061 98637 NIL
AAXX 07061 98646 11560 70204 10286 20260 30098 40126 57022 69941 70262 82270 333 56199 82820 86459
AAXX 07061 98653 11465 70403 10294 20266 30042 40087 57022 60021 72584 82270 333 56199 82818 87358
AAXX 07061 98741 31470 60402 10294 20264 40094 57011 70544 82908 333 56199 82917 86275
AAXX 07061 98747 11460 50401 10300 20252 39880 40084 57032 69901 70584 83930 333 56999 81917 83818
AAXX 07061 98753 31468 60401 10312 20253 40097 57028 70544 83231 333 56999 83816 83359 85079
AAXX 07061 98755 11460 81803 10271 20257 40099 58024 60021 78082 8452/ 333 56199 84617 88458
AAXX 07061 98836 32462 72702 10308 20256 40096 57030 82378 333 56199 82918 84362 86281
BBXX 44140 07061 99429 70515 46/// /2910 10105 40126 5//// 22200 00097 10705 70026 333 91212
BBXX 46036 07061 99484 71339 46/// /1513 10081 40147 57040 22200 00078 11208 70039 333 91216
AAXX 07064 67773 32980 20602 10246 20162 3//// 48/// 80001 333 20156 5//// 82080
AAXX 07064 67785 32980 41101 10217 20151 3//// 48/// 80001 333 20115 5//// 84080
AAXX 07064 88900 46/// /2113 10015 21028 30016 40018 53003 333 55001
AAXX 07061 40656 12960 02003 10057 20033 40185 52015 60002
AAXX 07061 40662 11556 60000 10122 20035 40198 52023 60002 70511 83208
AAXX 07061 40666 11958 01003 10125 20084 40197 52012 60002 70500
AAXX 07061 40674 12960 02707 10070 20021 40203 52028 60002
AAXX 07061 40691 12660 73602 10152 20138 40210 52012 60002 81702
AAXX 07061 40680 12960 21601 10097 20045 40192 52021 60002 81032
AAXX 07061 40689 12560 53305 10116 20025 40202 52019 60002 82131
AAXX 07061 40690 12960 60000 10105 20037 40196 52021 60002 82131
AAXX 07061 40621 12960 01201 10080 20033 40236 52011 60002
AAXX 07061 40623 11559 30000 10036 20013 40233 52005 60002 70511 83500
AAXX 07061 40638 12960 01503 10086 20010 40199 52010 60002
AAXX 07061 40642 12960 00000 10038 21040 40218 53015 60002
AAXX 07061 40608 11958 00000 10030 20008 40229 52015 60002 71000
AAXX 07061 40622 11957 00000 10035 20011 40191 54000 60022 71000
AAXX 07061 40632 12960 00000 10032 20026 40203 53014 60002
AAXX 07061 40634 11958 02702 10022 20012 40215 53005 60002 71000
AAXX 07061 40650 12960 00202 10066 20027 40206 52021 60002
BBXX 63106 07064 99610 10017 46/// /2826 10069 49921 53001 22200
BBXX 63105 07064 99610 10017 47597 ///// 10076 20024 49919 52001 700// 22200
BBXX 62103 07064 99499 70029 46/98 ///30 10112 20098 40236 57008 22200 00115 10603 70017 333 90710 91139
AAXX 07061 20046 11998 31107 11148 21161 30187 40220 57006 69900 73631 80001 333 21141
AAXX 07061 20069 41975 01308 11195 21233 30274 40288 57006 73630 333 91112
AAXX 07061 20087 42998 11405 11273 21304 30332 40344 57009 80001
AAXX 07061 20292 42998 01801 11285 21315 30352 40374 56003 333 91103
AAXX 07061 20353 46/// /1414 11167 21188 30182 40186 57005 333 91117
AAXX 07061 20667 11496 81204 11179 21198 30183 40191 52007 60010 77172 8802/ 333 21178
AAXX 07061 20674 42998 31404 11254 21278 30172 40238 53002 82031 333 91106
AAXX 07061 20744 11595 51330 11111 21131 30057 40076 58007 69930 73873 82531 333 21122 91137
AAXX 07061 20891 42998 01004 11302 21325 30305 40353 57006 333 91105
AAXX 07061 23022 32497 81404 11075 21092 30067 40129 52006 885// 333 21155
AAXX 07061 23032 32997 21501 11158 21177 30114 40146 52009 80001 333 21194
AAXX 07061 23058 11496 81502 11189 21215 30190 40195 52015 69980 77172 8802/ 333 21207 88512
AAXX 07061 23242 12997 51904 11247 21278 30160 40177 52009 69900 83031 333 21227
AAXX 07061 23256 11997 81601 11206 21225 30161 40199 52017 60020 77172 80006 333 21213
AAXX 07061 23330 11298 82002 11150 21170 30159 40181 52008 69900 70272 8677/ 333 21216 86606
AAXX 07061 23445 12597 81401 11128 21141 30173 40200 52009 69900 885// 333 21204 88626
AAXX 07061 23552 11496 82301 11154 21173 30177 40214 52009 69960 78582 889// 333 21213 88913
AAXX 07061 23631 32199 82001 11066 21071 30156 40198 52012 886// 333 21207 88703
AAXX 07061 23662 11496 81601 11150 21170 30185 40232 52005 60020 78587 883// 333 21216 87914
AAXX 07061 23724 12699 80102 11046 21052 30120 40186 52004 60010 885// 333 21045
AAXX 07061 23734 11997 80000 11089 21096 30124 40219 53009 60010 70272 8802/ 333 21145
AAXX 07061 23849 41316 82002 11084 21094 40263 52001 77377 8802/ 333 88508
AAXX 07061 23867 11996 82302 11125 21145 30217 40293 52006 69960 77172 86011 333 21196
AAXX 07061 23933 11596 81902 11072 21077 30185 40243 54000 69900 77373 8652/ 333 21134 86629
AAXX 07061 28064 32599 41901 11029 21039 30161 40254 52003 84500 333 21088
AAXX 07061 28275 12998 81702 11047 21071 30232 40293 53003 69900 8805/ 333 21146
AAXX 07061 28493 31597 81701 11086 21101 30241 40339 53009 77172 885// 333 21161
AAXX 07061 28698 11417 82501 11048 21054 30202 40362 52011 69900 77172 885// 333 21114 85629
AAXX 07061 23426 32689 20000 11193 21219 30158 40184 52012 81530 333 21196
AAXX 07061 23625 32999 81201 11061 21069 30146 40181 52008 8805/ 333 21150
AAXX 07061 28076 32697 82002 11062 21066 30191 40265 57001 885// 333 21096
AAXX 07061 28367 32996 72102 11034 21062 30180 40312 52016 85031 333 21105
AAXX 07061 28382 11958 80000 11104 21110 30244 40318 58001 69900 71011 8802/ 333 21151
AAXX 07061 28481 32997 81803 11065 21073 30225 40327 52003 8802/ 333 21131
AAXX 07061 28491 32968 31902 11075 21084 30219 40334 52006 80005 333 21144
AAXX 07061 28573 32998 82004 11056 21067 30232 40340 52008 8802/ 333 21104
AAXX 07061 28593 11997 82102 11065 21065 30246 40348 52009 69900 77172 8802/ 333 21154
AAXX 07061 28786 32498 82303 11046 21059 30206 40369 52010 886// 333 21073 88717
AAXX 07061 28797 31496 82602 11048 21061 30211 40374 52013 71022 886// 333 21097 88710
AAXX 07061 28799 11394 82502 11053 21060 30218 40367 52007 69900 77172 8802/ 333 21149 88507
AAXX 07064 78318 12565 10902 10158 20130 30199 40203 58010 60001 81100 333 10234 20108 30/// 56900 59029 81820
AAXX 07064 78333 12/10 70302 10160 20128 30193 40200 58006 60001 8113/ 333 10249 20093 30/// 56909 59022 818// 87360
AAXX 07064 78348 11557 60000 10197 20162 30145 40198 58007 60001 70511 86800 333 10226 20131 30/// 56100 59019 81820 85630 555 10502
AAXX 07064 78349 12440 63101 10155 20145 30099 40210 58006 60001 86200 333 10237 2098 30/// 56100 59011 86819 555 10502
AAXX 07064 78353 12460 20803 10220 20149 30166 40188 58016 60001 81802 333 10251 20189 30/// 56909 59016 81818
AAXX 07064 78360 12/60 10202 10193 20179 30163 40175 58009 60001 81200 333 10289 20174 30/// 56900 59018 818// 92022
AAXX 07064 78369 12464 60506 10241 20174 30167 40176 57011 60001 85240 333 10262 20225 30/// 56990 57860 59014 85818
BBXX WKAU 07064 99394 70685 41598 22224 10160 2014/ 40120 57100 7//00 81/// 22215 00170 2////
BBXX WC5932 07064 99458 70871 43/// /2526 00/// 10030 21022 40014 50010 7//// 8//// 222// 0//// 2//// 3//// 4//// 5//// 6//// 80009 ICE /////
BBXX WDJK 07064 99570 71426 41598 61220 10000 21061 49990 57040 70222 8625/ 22273 00050 20502 32699 41209 5//// 6//// 81020 ICE /////
BBXX 3EUS 07063 99252 71132 41191 40323 10150 2013/ 40150 56010 703// 83475 22274 04200 21004 30203 42005 5//// 6//// 80140 ICE /////
BBXX WXY6216 07064 99419 70875 43/// /0841 00/// 10062 21006 40086 50014 7//// 8//// 22283 0//// 2//// 3//// 4//// 5//// 6//// 80034 ICE /////
BBXX 44060 07061 99413 70721 46/// ///06 10079 40080 90630 22200 00085 333 91207 555 11062 22062
BBXX 44022 07061 99409 70737 46/// ///03 10074 20026 40081 90630 22200 00057 333 91204 555 11041 22046
BBXX 44040 07061 99410 70736 46/// /2304 10082 20022 40085 90619 22200 1//00 70000 333 91205 555 11051 22062
BBXX 46211 07061 99469 71242 46/// ///// 1//// 90606 22200 00089 11106 21004 327// 41104 70030
BBXX 44100 07061 99363 70756 46/// ///// 1//// 90622 22200 00099 10502 20502 70009
BBXX 41110 07061 99341 70777 46/// ///// 1//// 90621 22200 00121 10502 20501 70008
BBXX 42099 07061 99273 70842 46/// ///// 1//// 90627 22200 00229 10502 20502 70009
BBXX 41113 07061 99284 70805 46/// ///// 1//// 90621 22200 00190 11101 21001 70005
BBXX 41112 07061 99307 70813 46/// ///// 1//// 90621 22200 00148 11101 21001 311// 41101 70006
BBXX 46238 07061 99334 71195 46/// ///// 1//// 90620 22200 00135 11707 20904 328// 41705 70034
BBXX 46239 07061 99363 71221 46/// ///// 1//// 90621 22200 00113 11509 21006 330// 41507 70047
AAXX 07064 63688 32980 60612 10190 20098 48/// 80001 333 20060 58001 86080
AAXX 07064 63708 32980 61206 10232 20138 48507 81031 333 20165 58003 81360 86080
AAXX 07064 63740 32570 40612 10199 20150 48530 84200 333 20160 58007 84820
AAXX 07064 63772 32580 40707 10278 20233 84500 333 20235 84625
AAXX 07064 63820 32580 53608 10282 20213 40136 85200 333 20244 58008 85823
AAXX 07064 63612 NIL
AAXX 07064 63661 NIL
AAXX 07064 63671 NIL
AAXX 07064 63695 NIL
AAXX 07064 63714 NIL
AAXX 07064 63723 NIL
AAXX 07064 63793 NIL
BBXX 51204 07061 99213 71581 46/// ///// 1//// 90622 22200 00246 11803 20902 331// 41801 70015
BBXX 51201 07061 99217 71581 46/// ///// 1//// 90625 22200 00242 11804 20902 331// 41803 70020
BBXX 51202 07061 99214 71577 46/// ///// 1//// 90610 22200 00238 11504 20903 302// 41502 70018
BBXX MINFR03 0706/ 99027 10599 46/// ///// 10295 40137 52010
BBXX MZDL7 07063 99188 50217 41397 61010 10215 20196 40190 58010 75252 867// 22214 00250 2//// 3//// 4//// 5//// 80203
BBXX V7OX3 07061 99355 30171 41/97 /1608 10180 20146 40170 54000 703// 8/1// 22223 21006 3//// 4//// 5//// 80160
BBXX ELWD5 07063 99220 10622 41/97 10201 10250 20170 40210 54000 705// 81/// 22274 04240 2//00 80200
BBXX 2AJI3 07063 99076 70141 41998 03311 10285 20227 40098 54000 70500 80000 22274 2//// 300// 4//// 5//// 80245
BBXX OXHY2 07063 99134 10499 41397 33506 10250 20229 40176 51018 7//00 82146 22224 20102 30000 40000 5//// 80235
BBXX PHOB 07064 99223 10602 41/97 31807 10250 20191 40194 50015 70500 8//// 22234 00230 2//// 3//// 4//// 5//// 80210
BBXX WBDS 07064 99270 10343 41598 23115 10165 2008/ 40203 52003 70100 82100 22235 00224 20302 3//// 4//// 5//// 6//// 80120 ICE /////
BBXX WKAB 07064 99174 10594 41298 10808 10278 20195 40188 54000 70200 81100 22264 00244 20201 305// 40402 5//// 6//// 80221 ICE /////
BBXX TBWUK40 07063 99240 10615 41797 30000 10242 20092 40199 52024 70500 82136 22223 20000 31011 40901 5//// 80160
BBXX UIFY 07061 99514 11409 42998 03006 11104 21163 40246 57008 22200 01005 2//// ICE 41092
BBXX UDWE 07061 99472 11486 42498 70214 11014 40161 56008 87200 22223 00031 20504 30500 41106
BBXX UGOS 07061 99483 11454 41498 50111 11035 40219 54000 70271 84331 22243 00005 20302 31000 41005
BBXX A8NF2 07064 99289 11238 41397 50921 10155 20048 40312 56018 70211 84542 22243 04150 21001 303// 41001 5//// 80100
BBXX A8HY8 07064 99236 50427 41897 70909 10228 2020/ 40111 58005 70222 86998 22261 00231 2//// 3//// 4//// 5//// 6//// 80208 ICE /////
BBXX 46036 07061 99484 71339 46/// /1513 10081 40147 57040 22200 00078 11208 70039 333 91216
BBXX 44140 07061 99429 70515 46/// /2910 10105 40126 5//// 22200 00097 10705 70026 333 91212
BBXX V7MO2 07064 99262 70914 41/// /1617 10220 20140 40188 57005 7//// 8//// 22200 00230 20401 316// 40602 5//// 6//// 80170 ICE /////
BBXX 44258 07061 99445 70634 46/// /1307 10011 40111 57024 22200 00054 10802 70010 333 91208
BBXX 46146 07061 99493 71237 46/// /1208 10048 40273 52015 22200 00068 10301 70005 333 91209
BBXX FLAO 0706/ 99764 70847 46/// ///// 11245 40049 52007
BBXX 46004 07061 99509 71361 46/// /1515 10070 40058 57057 22200 00070 11209 70046 333 91218
BBXX ICGU 07064 99158 70616 41797 60815 10260 20186 40150 54/// 70322 863// 22253 04270 21001 31011 41201 51401 6//// 85210 ICE /////
BBXX 44039 07061 99411 70727 46/// /2305 10084 20042 40088 90553 22200 00066 10301 70003 333 91207
BBXX 44099 07061 99369 70757 46/// ///// 1//// 90622 22200 00088 10502 20501 70008
BBXX 46219 07061 99332 71199 46/// ///// 1//// 90628 22200 00134 11509 21006 329// 41507 70047
BBXX 46224 07061 99332 71175 46/// ///// 1//// 90606 22200 00150 11703 21002 326// 41702 70013
BBXX 46224 07061 99332 71175 46/// ///// 1//// 90536 22200 00150 11503 21002 326// 41702 70013
BBXX 46229 07061 99438 71246 46/// ///// 1//// 90621 22200 00096 11406 21004 328// 41405 70032
BBXX 46225 07061 99329 71174 46/// ///// 1//// 90614 22200 00152 11504 20902 327// 41503 70019
BBXX 46215 07061 99352 71209 46/// ///// 1//// 90608 22200 00122 11706 21004 326// 41705 70030
BBXX 46243 07061 99462 71241 46/// ///// 1//// 90629 22200 00091 11205 20905 326// 41203 70027
BBXX 46213 07061 99403 71247 46/// ///// 1//// 90624 22200 00107 11307 21004 331// 41306 70037
BBXX 46236 07061 99368 71219 46/// ///// 1//// 90620 22200 00119 11507 21004 328// 41505 70034
BBXX 46247 07061 99378 71228 46/// ///// 1//// 90621 22200 00113 11307 20905 328// 41304 70033
BBXX DGOS 07063 99210 70927 41598 21213 10230 20159 40161 58020 70200 82100 22254 20602 80184
BBXX A8IJ4 07060 99539 71700 41297 60115 11030 21054 49984 51024 70177 8/720 22263 04066 20806 302// 41409 5//// 81038
BBXX 46184 07061 99539 71389 46/// /1414 10050 49992 57065 22200 00057 11309 70045 333 91218
BBXX 46181 07061 99538 71288 46/// /1602 10016 40191 57002 22200 00023 10300 70000 333 91202
BBXX 44040 07061 99410 70736 46/// /2304 10082 20022 40085 90615 22200 1//00 70000 333 91205 555 11051 22062
BBXX 44058 07061 99376 70763 46/// /2603 10103 40112 56010 90600 22200 00067 1//00 70002 333 91204
BBXX 44059 07061 99368 70763 46/// /2404 1//// 90620 333 91206
BBXX 44058 07061 99376 70763 46/// /2503 1//// 40112 90610 333 91204
BBXX 44058 07061 99376 70763 46/// /2504 1//// 90620 333 91204
BBXX 44033 07061 99441 70690 46/30 /0103 10004 40069 55000 90604 22200 00046 10602 70009 333 91204 555 11034 22034
BBXX 44057 07061 99395 70761 46/// /3502 1//// 90620 333 91202
BBXX 44029 07061 99425 70706 46/30 /0203 10055 40060 58011 90604 22200 00073 11101 70006 333 91203 555 11028 22029
BBXX 44059 07061 99368 70763 46/// /2404 1//// 40121 90610 333 91206
BBXX 44059 07061 99368 70763 46/// /2404 10119 40121 58007 90600 22200 00086 333 91206
BBXX 44057 07061 99395 70761 46/// /3502 10023 40096 57004 90600 22200 00036 333 91202
BBXX 44057 07061 99395 70761 46/// /3502 1//// 40096 90610 333 91202
BBXX 44043 07061 99392 70764 46/// /1402 1//// 40091 90610 333 91202
BBXX 41009 07061 99285 70802 46/// /2006 10198 20107 40212 90620 22200 00218 11001 20201 300// 41001 70006 333 91207 555 11063 22066
BBXX 44042 07061 99380 70763 46/// /2605 1//// 40105 90610 333 91206
BBXX 44042 07061 99380 70763 46/// /2605 10103 40105 56009 90600 22200 00067 10201 70004 333 91206
BBXX 41010 07061 99289 70785 46/// /2404 10203 40210 90620 22200 00230 11101 20301 300// 41101 70007 333 91206 555 11044 22045
BBXX 44043 07061 99392 70764 46/// /1402 1//// 90620 333 91203
BBXX 44043 07061 99392 70764 46/// /1402 10053 40091 57005 90600 22200 00034 1//00 70001 333 91203
BBXX 44062 07061 99386 70764 46/// /2506 10091 90600 22200 00063 10201 70004 333 91207
BBXX 44042 07061 99380 70763 46/// /2605 1//// 90620 333 91206
BBXX 44041 07061 99372 70768 46/// /2604 1//// 40142 90610 333 91206
BBXX 44041 07061 99372 70768 46/// /2603 10104 40143 58008 90600 22200 00065 1//00 70000 333 91205
BBXX 44041 07061 99372 70768 46/// /2605 1//// 90620 333 91206
BBXX 44063 07061 99390 70764 46/// /0000 1//// 40110 90610 333 91200
BBXX 44063 07061 99390 70764 46/// /0000 10090 40111 57006 90600 22200 00053 1//00 70001 333 91200
BBXX 44063 07061 99390 70764 46/// /0000 1//// 90620 333 91200
BBXX 46205 07061 99542 71343 46/// /1812 10059 40103 57018 22200 00068 11410 70051 333 91214
BBXX 46132 07061 99497 71279 46/// /1011 10072 40214 52006 22200 00083 11008 70038 333 91214
BBXX 46206 07061 99488 71260 46/// /1210 10063 40242 52018 22200 00080 11006 70028 333 91213
BBXX 9HXC9 07064 99252 70797 41598 31904 10195 21005 40199 55003 7//00 83500 22274 04263 20602 3//// 40902 5//// 6//// 80100 ICE /////
BBXX 3EUS 07063 99252 71132 41191 40323 10150 2013/ 40150 56010 703// 83475 22274 04200 21004 30203 42005 5//// 6//// 80140 ICE /////
BBXX WDJK 07064 99570 71426 41598 61220 10000 21061 49990 57040 70222 8625/ 22273 00050 20502 32699 41209 5//// 6//// 81020 ICE /////
BBXX 46185 07061 99524 71298 46/// /1908 10062 40186 57004 22200 00068 10906 70028 333 91209
BBXX C6VG8 07064 99336 70754 41/98 12326 10220 2//// 40160 56020 7//00 8//// 22284 00230 20204 323// 40404 5//// 6//// 8//// ICE /////
BBXX 46088 07061 99483 71232 46/// /1209 10050 40254 90620 22200 00078 10401 20401 333// 41101 70007 333 91210 555 11093 22098 30605 41211 60619 115087 119086 117084 119088 117087 114089
BBXX 46087 07061 99485 71247 46/// /0907 10059 20056 40254 90620 22200 00083 333 91209 555 11070 22074 30616 40909 60619 091066 113056 119057 128058 125059 125057
BBXX 41036 07061 99342 70770 46/// ///// 10169 20095 40163 90620 22200 00184
BBXX 44022 07061 99409 70737 46/// ///03 10073 20031 40081 90615 22200 00056 333 91204 555 11041 22046
BBXX 44039 07061 99411 70727 46/// /2305 10084 20042 40088 90615 22200 00066 10301 70003 333 91207
BBXX 44060 07061 99413 70721 46/// ///05 10079 40079 90615 22200 00084 333 91206 555 11057 22062
BBXX WAZV 07063 99504 71313 41398 71820 10080 2004/ 40190 50020 70322 876// 22273 00080 20503 329// 41007 5//// 6//// 80060 ICE /////
BBXX WKAU 07064 99394 70685 41598 22224 10160 2014/ 40120 57100 7//00 81/// 22215 00170 2//// 3//// 4//// 5//// 6//// 80150 ICE /////
BBXX WDE9586 07063 99243 70806 41599 21409 10200 2014/ 40200 50000 7//00 82100 22215 00260 2//// 3//// 4//// 5//// 6//// 80160 ICE /////
BBXX WXY6216 07064 99419 70875 43/// /0841 00/// 10062 21006 40086 50014 7//// 8//// 22283 0//// 2//// 3//// 4//// 5//// 6//// 80034 ICE /////
BBXX WC5932 07064 99458 70871 43/// /2526 00/// 10030 21022 40014 50010 7//// 8//// 222// 0//// 2//// 3//// 4//// 5//// 6//// 80009 ICE /////
BBXX MPJH9 07064 99280 31133 41898 31642 10272 20165 40182 70200 82180 22284 20302 319// 40505 80205
BBXX 9HA2479 07064 99198 31622 46/// /1616 10256 20195 30061 40090 57003 22254 04274 85214
BBXX VNAH 07064 99357 31276 46/// /2734 10159 20123 30006 40029 52001 22262 04182 85138
BBXX VROB 07064 99068 31470 46/// /1510 10289 20215 30037 40061 57024 22200 04306 85236
BBXX VNSZ 07064 99378 31449 46/// /0710 10285 20054 30019 40044 57024 22200 04220 85155
BBXX C6FS9 07064 99346 31513 46/// /0424 10209 20145 30078 40114 57029 22244 04228 85169
BBXX VNAA 07064 99507 31461 41598 80116 10100 20096 40047 58015 71522 888// 22243 00111 20401 325// 41204 80098
BBXX A8TX8 07063 99272 31537 41598 31008 10250 20188 40130 57020 701// 83100 22243 04280 20502 315// 40604 80210
BBXX mpjh9 07064 99280 31133 41898 31642 10272 20165 40182 70200 82180 22284 20302 319// 40505 80205
BBXX B2M1303 07063 99202 31099 41598 41815 10280 20224 40096 57007 703// 84400 22243 00240 20404 80240
BBXX FHZI 07064 99428 31473 46/// /0112 10223 20094 30030 40040 57026 22272 04184 85148
BBXX BAREU11 07064 99459 70163 46/// ///// 40357 52004 22254
BBXX MINUK04 0706/ 99532 10031 46/// ///// 10083 4//// 57008
BBXX MINUK03 0706/ 99545 10000 46/// ///// 10080 40080 57032
BBXX MINUK05 0706/ 99579 70032 46/// ///// 10065 40051 52013
BBXX MINUK01 0706/ 99599 70012 46/// ///// 10075 49964 57031
BBXX PHQW 07063 99528 10039 41/98 /2727 10108 20067 40100 53010 7//22 8//// 22243 00085 2//// 80087 91256
BBXX KS094 07064 99184 70646 43/// /1007 10252 40172 22200 06256
BBXX KS089 07064 99254 70271 43/// /1114 10208 49803 22263
BBXX KS077 07064 99180 70631 43/// ///// 10255 40164 22200 06246
BBXX KS007 07064 99267 70800 43/// ///// 10147 40174 22200
AAXX 07064 63756 32480 70000 10224 20188 38887 48522 82942 333 20180 50301 55042 55300 59007 82819 81920 87075
AAXX 07064 63832 11480 80000 10200 20192 38848 48513 60364 70322 8397/ 333 0//99 20180 50011 55038 55300 58014 83819 81920 87358
AAXX 07064 63870 32475 70212 10284 20238 30110 40128 8423/ 333 20260 50751 55102 55300 58014 84818 87358
AAXX 07064 91723 NIL
AAXX 07064 91964 36/// /0907 10222 20211 40170 52015
AAXX 07063 91802 NIL
AAXX 07063 91809 NIL
AAXX 07063 91831 36/// 1113 10235 20209 40096 52003
AAXX 07063 91841 NIL
AAXX 07063 91843 31598 61212 10246 20195 40097 533017 60001 70222 83201 333 562/9 83823 86079
AAXX 07063 91848 36/// /1308 10229 20174 40107 57042
BBXX 44137 07061 99423 70620 46/// /1706 10071 40130 57020 22200 00084 10704 70018 333 91208
AAXX 07061 10453 11/90 92420 11036 21037 38750 48381 58024 60032 74974 333 11028 21043 3/105 49127 55000 55300 70070 91129 91223 96038 96471 96449
BBXX 44137 07061 99423 70620 46/// /1706 10071 40130 57020 22200 00084 10704 70018 333 91208
BBXX DDAC2 07060 99510 11616 41498 60406 11003 21022 40090 54000 7//22 85870 22263 04020 20302 311// 40804 5//// 81010
BBXX DQVJ 07061 99429 11681 41598 81506 10055 20033 49955 53015 76066 888// 22223 00085 20802 322// 41206 5//// 80045
BBXX VRCI9 07064 99533 11735 41298 30824 11010 21039 40055 54000 70121 8//// 22264 00036 2//// 3//// 4//// 81020
BBXX DCLH2 07060 99326 11346 41598 73105 10100 20038 40265 52005 70222 8/4// 22254 06210 2//// 3//// 4//// 5//// 80070
BBXX SHIP 07064 99335 11361 41697 53621 10130 20025 40260 56/// 70111 84235 22213 00210 20403 336// 40403 80080
BBXX UDWE 07061 99472 11486 42498 70214 11014 40161 56008 87200 22223 00031 20504 30500 41106
BBXX UGOS 07061 99483 11454 41498 50111 11035 40219 54000 70271 84331 22243 00005 20302 31000 41005
BBXX UIFY 07061 99514 11409 42998 03006 11104 21163 40246 57008 22200 01005 2//// ICE 41092
AAXX 07061 01271 17/81 01202 11055 21066 39934 49955 58020 60002 700// 333 21090 47017 70055 91105
AAXX 07061 01415 17964 63008 10074 20038 39947 49957 58009 6//// 722// 333 20031 70076 91116
AAXX 07061 31152 42997 80000 11276 21307 39795 40238 57020 84036
AAXX 07061 31163 NIL
AAXX 07061 31285 42999 82001 11181 21240 30168 40253 57015 82046
AAXX 07061 31561 42998 01803 11178 21212 30258 40287 57010
AAXX 07061 31683 42699 20000 11091 21165 30179 40257 57015 82100
AAXX 07061 32010 42998 02704 11180 21206 30172 40225 57005 333 91005 91106
AAXX 07064 71963 46/// /2204 11306 21336 39709 40138 5/012 6///1 333 11301 21402 7////
AAXX 07064 71923 16/// ///04 11286 21312 39687 40159 58006 60001 333 11270 21303 70000
AAXX 07064 71592 16/// /0804 11317 21358 30011 40025 51002 60001 333 11301 21344 70000
AAXX 07064 71490 16/// /2505 11311 21340 39801 40142 56013 60001 333 11278 21351 70000 555 32617 40091
AAXX 07064 71761 16/// ///// 11083 21121 60001 333 10007 21093 70000
AAXX 07063 63671 32480 30906 10251N 20199 83500 333 20208 83618
AAXX 07063 63723 32582 70806 10267 20204 40136 872// 333 20234 58016 87825
BBXX 44138 07061 99443 70536 46/// /3010 10011 40136 52020 22200 00077 10705 70026 333 91212
AAXX 07064 42027 21494 80901 10004 21005 38409 48498 77177 8871/ 333 59001 6003/
BBXX 44138 07061 99443 70536 46/// /3010 10011 40136 52020 22200 00077 10705 70026 333 91212
AAXX 07064 67017 NIL
AAXX 07064 67020 12582 40000 10285 20250 30089 40116 51008 60534 84902 333 023// 10319 20235 50164 55/// 81820 81920 84640 94977 95837 555 81073=53.0 67023 32582 61006 10306 20242 30115 40121 51003 82932 333 02000 10298 20210 50284 55/// 82820 81920 84360 94972 95812 555 81073
AAXX 07064 67037 11565 8//// 10/// 20/// 30045 40806 5/010 60384 71796 8497/ 333 0//51 10/// 20/// 50//4 55/// 81820 81920 84633 88458 94966 95836=38.4 67067 NIL
AAXX 07064 67107 NIL
AAXX 07064 67131 12582 70606 10/// 20/// 30097 40102 51004 60064 878// 333 0//69 10/// 20/// 50//4 55/// 81820 87640
AAXX 07064 67002 31580 83615 10296 20239 30101 40134 60304 85870 333 58000 82820 85630 92417
AAXX 07064 67009 12582 11406 10290 20232 30010 40129 52009 60134 81800 333 02219 10305 20230 50184 55011 81820 555 81640=13.0 67012 32582 30208 10298 20251 30111 40122 51010 82202 333 0//00 10312 20237 50224 55/// 82820 555 82075
AAXX 07064 67025 12580 60000 10301 20238 30019 40118 50003 69944 85930 333 0//53 10312 20238 50174 55/// 82820 81920 84640 94971/2 95831/2 555 82360
AAXX 07064 67027 11582 51014 10280 20246 30089 40110 50004 60284 81232 333 02019 10298 20232 50204 55010 81820 84073 555 82360= RR=27.5MM 67045 NIL
AAXX 07064 67072 11470 62206 10279 20242 30131 40134 51009 60034 71522 86200 333 02209 10296 20256 50204 55/// 86817 92418=2.5 67073 11565 8//// 10238 20229 30066 40092 50004 60684 76062 8287/ 333 0//11 10255 20234 50//4 55/// 81820 88460 555 82633=68.3 67083 11480 71602 10204 20184 38741 48715 54001 60014 70162 8385/ 333 01813 20176 50184 55009 82817 87360=0.9 67095 11470 72006 10278 20245 30121 40127 51006 69964 71522 878// 333 02219 10317 20226 50284 55/// 84817 86653
AAXX 07064 67113 12580 7//// 10276 20236 30/// 40/// 5//// 6//// 84836 333 0//// 10291 20218 50154 55/// 83820 86273 555 82640 82360
AAXX 07064 67117 NIL
AAXX 07064 67137 11260 80000 10191 20179 38906 48508 51010 60094 76162 8287/ 333 0//10 10244 20181 50184 55/// 81707 82817 88460 555 81620
AAXX 07064 67143 32580 6//// 10/// 20/// 30122 40129 52008 86800 333 0//00 10/// 20/// 50//4 55/// 81820 85633 92438
AAXX 07064 67152 11480 7//// 10220 20205 39205 48512 51008 60134 7216/ 84830 333 01911 10308 20209 50404 55/// 84817 555 82620 83358=13.0 67157 11580 6//// 10/// 20/// 30153 40160 53010 60044 71562 86800 333 0//17 10/// 20/// 50//4 55/// 82820 86633=4.0 67161 32582 70000 10315 20220 30099 40108 51010 81232 333 0//00 10340 29239 50354 55/// 81820 83360 86073
AAXX 07064 67197 32582 10812 10272 20232 30120 40130 52011 83850 333 01600 10309 20244 50644 55116 82820 85360 555 82633
AAXX 07064 64700 33960 60206 10131 20004 39805 40151 80002 333 01100 20125 50911 ///// 55097 58002 86075
AAXX 07064 64701 33960 30000 10127 21028 3//// 4//// 80002 90600 333 0//00 2//// 51304 ///// 5//// 55/// 5//// 83075
AAXX 07064 64702 NIL
AAXX 07064 64705 33960 70000 10134 20016 3//// 4//// 80002 90558 333 0//00 2//// 50644 55/// 5//// 87075
AAXX 07064 64706 33960 50000 10180 20044 39655 40128 80002 333 01300 20176 51424 59011 85075
AAXX 07064 64708 NIL
AAXX 07064 64709 33960 53604 10177 20000 3//// 4//// 80002 90600 333 0//00 20160 5//// ///// 55/// 5//// 85075
AAXX 07064 64710 NIL
AAXX 07064 64713 NIL
AAXX 07064 64722 33960 10000 10/// 20034 3//// 4//// 80002 90600 333 0//00 20130 50514 ///// 55/// 5//// 81075
AAXX 07064 64750 32965 63010 10165 20052 39706 40120 80002 90555 333 00800 20160 50731 ///// 55082 59082 59006 86075 64751 33960 50404 10151 21021 3//// 4//// 84032 90550 333 0//00 20146 50623 ///// 55/// 5//// 84365 83075
AAXX 07064 64753 NIL
AAXX 07064 64754 33960 50000 10185 20042 3//// 4//// 80002 90600 333 0//00 20141 50504 ///// 55/// 5//// 85075
AAXX 07064 64756 NIL
AAXX 07064 64757 NIL
AAXX 07064 64758 NIL
AAXX 07064 64761 NIL
BBXX 46004 07061 99509 71361 46/// /1515 10070 40058 57057 22200 00070 11209 70046 333 91218
BBXX 46036 07061 99484 71339 46/// /1513 10081 40147 57040 22200 00078 11208 70039 333 91216
BBXX 46181 07061 99538 71288 46/// /1602 10016 40191 57002 22200 00023 10300 70000 333 91202
BBXX 46183 07061 99536 71311 46/// /1610 10065 40151 57009 22200 00075 10804 70019 333 91213
BBXX 46185 07061 99524 71298 46/// /1908 10062 40186 57004 22200 00068 10906 70028 333 91209
BBXX 46204 07061 99514 71288 46/// /1411 10064 40204 52002 22200 00078 11208 70038 333 91213
BBXX 46205 07061 99542 71343 46/// /1812 10059 40103 57018 22200 00068 11410 70051 333 91214
BBXX 46206 07061 99488 71260 46/// /1210 10063 40242 52018 22200 00080 11006 70028 333 91213
BBXX ELWG7 07064 99479 71306 416// 82313 10090 20070 40230 54000 7//22 886// 22274 00120 20804 323// 40808 5//// 6//// 80080 ICE /////
BBXX WAZV 07063 99504 71313 41398 71820 10080 20040 40190 50020 70322 876// 22273 00080 20503 329// 41007 5//// 6//// 80060 ICE /////
BBXX WDJK 07064 99570 71426 41598 61220 10000 21061 49990 57040 70222 8625/ 22273 00050 20502 32699 41209 5//// 6//// 81020 ICE /////
AAXX 07064 63862 01456 82705 10182 20175 38930 48537 63244 76269 84921 333 20186 51141 55032 55300 58025 63615 81916 87457
AAXX 07063 63654 32957 62702 10206 20175 48/// 80002 333 83080 555 10186
AAXX 07063 63602 32965 52707 10220 20125 38818 80001 333 20165 58007 85080 555 10190
AAXX 07063 63631 32956 72703 10220 20/// 80001 333 20125 87075 555 10///
AAXX 07064 60514 11560 62610 10032 20014 39354 48578 53025 60004 700// 85502 333 00100 20031 84626 83073 95990
AAXX 07061 01025 17/82 00000 11063 21074 39977 49989 57006 6//// 700// 333 21102 91102
AAXX 07061 01311 47567 83304 10052 20029 39872 49933 57003 781// 333 20011 91112
BBXX 41033 07061 99323 70804 46/// /2306 1//// 40188 56012 90600 555 11062 22064
BBXX 44032 07061 99437 70694 46/30 /3603 10013 40062 54000 90604 22200 00074 10603 70013 333 91204 555 11027 22028
BBXX 44024 07061 99423 70659 46/28 /2508 10091 40074 56018 90604 22200 00082 10803 70015 333 91209 555 11099 22108
AAXX 07064 94802 46/// /2514 10182 20078 30056 40137
AAXX 07064 94206 46/// /2106 10345 2//// 39935 40063
AAXX 07064 94290 46/// /1210 10271 30093 40102 56010 90624
AAXX 07064 94802 46/// /2514 10182 20078 30056 40137
AAXX 07064 94206 46/// /2106 10345 2//// 39935 40063
AAXX 07064 94290 46/// /1210 10271 30093 40102 56010 90624
AAXX 07064 94210 35/// /0406 10274 30065 40070 57021
AAXX 07064 94289 46/// /1311 10272 30089 40096 56012 90615
AAXX 07064 94379 46/// /1214 10264 30101 40110 56012 90626
AAXX 07061 55279 32780 62707 11077 21331 35672 57010 86100 333 00151 21205
AAXX 07061 55472 32880 22714 11061 21339 35710 57009 82400 333 00200 21171 91118 91527
AAXX 07061 55696 32980 01802 11001 21164 36337 57029 333 00201 21151
AAXX 07061 56079 32780 12003 10013 21136 36649 57027 81100 333 00002 21169
AAXX 07061 56106 32680 71802 11027 21244 36179 57023 879// 333 00252 21132
AAXX 07061 56257 32680 11802 10000 21172 36250 57031 81100 333 00002 21121
AAXX 07061 56374 32580 10906 11008 21065 37406 57038 81600 333 00153 21091
AAXX 07061 56385 11/01 92701 11085 21092 36998 57025 69921 77764 333 00162 21115 93440
AAXX 07061 56954 31580 20401 10217 20128 40193 57038 70040 82102 333 00251 20098
AAXX 07061 56966 32780 72202 10175 20094 40208 57038 874// 333 00101 20117
AAXX 07061 57237 11960 80203 10037 21009 40303 57031 69941 76066 8807/ 333 20027
AAXX 07061 57306 11962 82501 10079 20030 40293 57034 69901 70060 8807/ 333 20045
AAXX 07061 57604 11615 80000 10054 20050 40289 57034 69961 76064 885// 333 20050
AAXX 07061 57707 11340 80000 10004 20000 38533 57035 69931 76066 887// 333 00100 21006 93428
AAXX 07061 57832 11662 80702 10020 21018 39546 40317 57032 69901 70060 885// 333 00200 20011
AAXX 07061 38388 32998 00904 11047 21067 30205 40279 53014 333 21083
AAXX 07061 38392 32998 00906 11101 21121 30200 40311 53005 333 21131 93410
AAXX 07061 38507 31798 81306 10030 21002 30085 40190 53018 72582 8297/ 333 21003
AAXX 07061 38511 32998 30906 11036 21054 30088 40236 52009 80001 333 21051
AAXX 07061 38545 32998 80902 11064 21114 30119 40305 57001 8807/ 333 21123
AAXX 07061 38647 32597 71112 10002 21026 30150 40193 52017 82670 333 21002
AAXX 07061 38656 32998 20905 11001 21035 30125 40238 54000 80002 333 21028
AAXX 07061 38687 31995 00502 11038 21046 30052 40299 53007 72840 333 21080
AAXX 07061 38750 32997 32502 10019 21012 30221 40192 52006 83030 333 20006
AAXX 07061 38763 32597 71006 11006 21021 30102 40211 52018 87500 333 21006 87623
AAXX 07061 38774 31996 61102 11012 21029 30024 40327 52008 71022 80007 333 21028
AAXX 07061 38799 32997 01406 11006 21034 30042 40283 54000 333 21057
AAXX 07061 38806 32997 00902 11010 21046 30023 40295 54000 333 21057
AAXX 07061 38880 31997 51104 11017 21062 39956 40221 51009 70341 82031 333 21064
AAXX 07061 38886 32997 01107 10018 21035 39995 40230 57005 333 21015
AAXX 07061 38895 32996 01303 10004 21039 39971 40271 53003 333 21041
AAXX 07061 38911 32998 00000 11003 21065 39979 40285 57005 333 21046
AAXX 07061 38915 32999 03301 10018 21001 39946 40289 57007 333 21037
AAXX 07061 38974 32998 01806 10014 21059 39881 40225 57011 333 21032
AAXX 07061 38987 32996 02503 11047 21083 39501 40284 54000 333 21090
AAXX 07061 01241 41886 41307 11019 21048 39926 49938 57022 70222 81072 333 21034 91110
AAXX 07061 55228 32780 81602 11085 21216 35949 57009 889// 333 05251 21122
AAXX 07061 55578 32980 00702 10001 21260 36366 57019 333 00352 21156
AAXX 07061 55664 32980 00902 11031 21269 35992 57019 333 00251 21204
AAXX 07061 55773 32970 01101 11054 21203 36006 57012 333 00200 21199
AAXX 07061 56116 32680 50901 11021 21166 36319 57025 82102 333 00002 21144
AAXX 07061 56137 32680 60000 10017 21172 36776 57038 86900 333 00000 21122
AAXX 07061 56172 32980 22904 10055 21074 37323 57052 80002 333 05101 21098
AAXX 07061 56247 32880 20000 10098 21134 37415 57054 82100 333 00002 21037
AAXX 07061 56312 11580 81102 10039 21085 37089 57023 69901 78588 884// 333 00251 21018
AAXX 07061 56462 32680 11603 10096 21143 37099 57049 81102 333 00001 21068
AAXX 07061 56651 32680 32704 10097 21075 37656 57021 83400 333 00101 21026
AAXX 07061 56691 11468 71403 10061 20020 37774 57037 69901 70060 82602 333 00100 21015 93428
AAXX 07061 56985 32565 22203 10207 20084 38729 40167 57031 82102 333 00200 20098
AAXX 07061 57633 11459 80403 10005 21027 39320 40327 57033 69901 76870 885// 333 00252 20003
AAXX 07061 57902 11450 80902 10034 20034 38670 40265 57036 69901 76060 887// 333 00102 20017
AAXX 07064 71277 46/// /1806 11067 21107 6///1 333 10003 21070 7//// 555 32624 40211
AAXX 07064 71354 16/// /2607 11070 21114 60001 333 10011 21074 70000 555 32921 40211
AAXX 07064 71048 16/// /2907 11060 21098 60001 333 10037 21066 70000 555 32733 40082
AAXX 07064 71406 16/// /2822 11105 21127 30030 40040 53002 60001 333 11018 21112 70027 555 32738 40193
AAXX 07064 71418 46/// /2715 11049 21081 30080 40113 55002 6///1 333 11009 21065 7//// 555 32937 40103
AAXX 07064 71981 16/// /2805 11082 21124 60001 333 10031 21088 70004 555 32617 40181
AAXX 07064 71982 16/// /2202 11076 21123 60001 333 10035 21084 70000
AAXX 07064 71986 16/// /0505 11044 21097 60001 333 10030 21065 70000 555 33031 40072
AAXX 07064 71990 17/// /0603 11174 21195 38412 40050 56018 69931 7//4/ 333 11126 21219 70016 555 32117 40111
AAXX 07064 42260 31494 80905 10155 20155 40193 71044 8663/ 333 58012
AAXX 07064 89657 46/// /1303 11039 20011 49817 52005
AAXX 07064 60340 32965 00000 10033 20011 40285 53006 333 20032
BBXX HZGH 07063 99112 10750 41496 83310 10300 20258 40168 51/// 71022 85618 22244 02290 20302 33300 40302 5//// 80270
BBXX DPUW 07064 99124 10465 41497 20825 10270 20228 40180 52010 70100 81111 22265 00270 20701 320// 40802 5//// 80240
BBXX KS089 07064 99254 70271 43/// /1114 10208 49803 22263
BBXX V7MO2 07064 99262 70914 41/// /1617 10220 20140 40188 57005 7//// 8//// 22200 00230 20401 316// 40602 5//// 6//// 80170 ICE /////
BBXX 3FFL8 07064 99180 70637 41998 10720 10260 2022/ 40140 54000 70100 80//9 22282 04290 20404 39999 40404 50404 6//// 80230 ICE /////
BBXX 44024 07061 99423 70659 46/28 /2508 10091 40074 56018 90604 22200 00082 10803 70015 333 91209 555 11099 22108
BBXX 41033 07061 99323 70804 46/// /2306 1//// 40188 56012 90600 555 11062 22064
BBXX 44032 07061 99437 70694 46/30 /3603 10013 40062 54000 90604 22200 00074 10603 70013 333 91204 555 11027 22028
BBXX 44138 07061 99443 70536 46/// /3010 10011 40136 52020 22200 00077 10705 70026 333 91212
BBXX 3FFL8 07064 99180 70637 41998 10720 10260 2022/ 40140 54000 70100 80//9 22282 04290 20404 39999 40404 50404 6//// 80230 ICE /////
BBXX 44137 07061 99423 70620 46/// /1706 10071 40130 57020 22200 00084 10704 70018 333 91208
BBXX KS094 07064 99184 70646 43/// /1007 10252 40172 22200 06256
BBXX KS077 07064 99180 70631 43/// ///// 10255 40164 22200 06246
BBXX KS007 07064 99267 70800 43/// ///// 10147 40174 22200
BBXX 42099 07061 99273 70842 46/// ///// 1//// 90627 22200 00229 10502 20502 70009
BBXX 44060 07061 99413 70721 46/// ///06 10079 40080 90630 22200 00085 333 91207 555 11062 22062
BBXX 44040 07061 99410 70736 46/// /2304 10082 20022 40085 90619 22200 1//00 70000 333 91205 555 11051 22062
BBXX 46239 07061 99363 71221 46/// ///// 1//// 90621 22200 00113 11509 21006 330// 41507 70047
BBXX 41113 07061 99284 70805 46/// ///// 1//// 90621 22200 00190 11101 21001 70005
BBXX WKAU 07064 99394 70685 41598 22224 10160 2014/ 40120 57100 7//00 81/// 22215 00170 2////
BBXX 41110 07061 99341 70777 46/// ///// 1//// 90621 22200 00121 10502 20501 70008
BBXX 44022 07061 99409 70737 46/// ///03 10074 20026 40081 90630 22200 00057 333 91204 555 11041 22046
BBXX 41112 07061 99307 70813 46/// ///// 1//// 90621 22200 00148 11101 21001 311// 41101 70006
BBXX 46238 07061 99334 71195 46/// ///// 1//// 90620 22200 00135 11707 20904 328// 41705 70034
BBXX 44100 07061 99363 70756 46/// ///// 1//// 90622 22200 00099 10502 20502 70009
BBXX 46211 07061 99469 71242 46/// ///// 1//// 90606 22200 00089 11106 21004 327// 41104 70030
AAXX 07064 68474 11325 80902 10176 20154 38674 48564 52007 60144 70299 333 20160 91004 555 10287 20146 91025
AAXX 07061 47008 42970 01401 11011 21131 30298 40354 57003
AAXX 07061 47014 42950 20000 11127 21199 39937 40370 58014 80001
AAXX 07061 47016 42970 00000 11116 21188 39457 40378 57034
AAXX 07061 47020 42965 00000 11064 21140 39978 40377 58022
AAXX 07061 47025 42980 01402 10013 21058 30306 40336 57016
AAXX 07061 47035 42970 00000 11012 21092 30350 40359 57018
AAXX 07061 47041 42970 00000 10018 21130 30303 40331 53020
AAXX 07061 47055 42970 00501 10000 21065 30286 40333 57028
AAXX 07061 47058 41959 00000 11022 21124 30311 40361 58022 71000
AAXX 07061 47069 42965 01802 10002 21042 30243 40346 58019
AAXX 07061 47003 42980 63204 11030 21151 30341 40345 57015 80001
AAXX 07061 47005 42980 10000 11120 21182 38667 57012 80002
AAXX 07061 47022 42975 00201 11061 21216 38904 57019
AAXX 07061 47028 42967 00000 11030 21112 30254 40354 58029
AAXX 07061 47031 42970 00000 11074 21150 39002 57030
AAXX 07061 47037 42970 00000 10021 21134 30224 40350 58022
AAXX 07061 47039 42960 00000 11001 21128 30150 40347 57032
AAXX 07061 47046 42969 02302 10016 21094 30308 40331 57012
AAXX 07061 47050 42965 00000 11010 21141 30314 40349 57028
AAXX 07061 47052 42965 02903 11017 21115 39997 40349 57008
AAXX 07061 47060 41950 00000 11036 21116 30303 40364 58016 71000
AAXX 07061 47061 42980 00501 10012 21051 30290 40335 57015
AAXX 07061 47065 41960 03201 11038 21110 30288 40357 58010 71000
AAXX 07061 47067 42965 00000 10008 21081 30245 40369 57027
AAXX 07061 47068 42970 00000 11008 21114 30313 40349 58017
AAXX 07061 47070 42970 00000 10009 21135 30258 40348 58015
AAXX 07061 47075 42980 02302 10005 21168 39840 40278 57022
AAXX 07064 47765 11/75 63613 10073 21027 30238 40305 56007 69901 70382 86800
AAXX 07061 45032 36/// /3402 10128 20080 30237 40254 57001
AAXX 07061 45035 36/// /3301 10131 20082 30213 40257 54000
AAXX 07061 45039 36/// /0302 10129 20092 30236 40252 54000
AAXX 07061 45044 36/// /3504 10142 20099 30150 40245 57001
AAXX 07061 45032 36/// /3402 10128 20080 30237 40254 57001
AAXX 07061 45035 36/// /3301 10131 20082 30213 40257 54000
AAXX 07061 45039 36/// /0302 10129 20092 30236 40252 54000
AAXX 07061 45044 36/// /3504 10142 20099 30150 40245 57001
AAXX 07061 40001 32970 03304 10045 20017 40208 53016 333 20014 30
AAXX 07061 40007 11560 50903 10066 20057 40203 51012 60012 70162 85500 333 20051 31 85630
AAXX 07061 40025 12560 20902 10095 20069 40166 52010 60132 82200 333 20085 32 82826
AAXX 07061 40045 31950 00000 10030 20003 40224 53008 333 21005 30
AAXX 07061 40061 32970 00000 10024 21006 40205 52017 333 20017 30
AAXX 07061 40080 31101 50404 10000 20000 39475 40204 52014 74644 85600 333 21015 30 85702
AAXX 07061 40087 NIL
AAXX 07061 40095 NIL
AAXX 07061 40009 32570 50000 10060 20036 40187 52005 85500 333 20056 30 85630
AAXX 07061 40016 32970 00000 10032 20011 40246 51022 333 20000 30
AAXX 07061 40022 11565 21002 10103 20075 40156 52010 60132 70299 82200 222 20000 333 20094 32 82830
AAXX 07061 40030 31560 70000 10068 20059 40187 52015 71022 84570 333 20066 31 84630 87360
AAXX 07061 40039 32970 30000 10046 20024 40200 52009 83050 333 20033 30 83360
AAXX 07061 40066 12970 00000 10094 20041 40165 52010 6002 333 20090 31
AAXX 07061 40072 32970 00000 10048 21005 40232 52010 333 20025 30
AAXX 07061 40083 32970 00000 10012 21032 48476 53006 333 21016 30
BBXX A8IJ4 07060 99539 71700 41297 60115 11030 21054 49984 51024 70177 8/720 22263 04066 20806 302// 41409 5//// 81038
AAXX 07064 17115 11660 71407 10090 20058 39934 49984 52032 60092 70282 84270 333 20088 32008 50074 55005 20314 70092 84835 87460
AAXX 07064 71073 16/// /1902 11053 21121 60001 333 10051 21068 70000
AAXX 07064 71565 16/// /2301 11145 21163 60001 333 11016 21145 70006
AAXX 07064 71566 16/// /2303 11064 21108 60001 333 10020 21065 70011
AAXX 07064 71567 16/// /2507 11073 21109 60001 333 10010 21073 70000 555 33019 40071
AAXX 07064 71974 46/// /1407 11244 21263 39990 40034 58012 6///1 333 11242 21328 7////
AAXX 07064 71848 16/// ///// 11044 21116 60001 333 10042 21061 70000
AAXX 07064 71495 16/// /2903 11080 21124 60001 333 10037 21081 70000 555 32723 40101
AAXX 07064 71793 16/// ///// 11077 21112 60001 333 7////
AAXX 07064 71012 16/// /2608 11059 21103 60001 333 10024 21071 70000 555 32925 40081
AAXX 07064 71013 16/// ///// 11099 21116 60001 333 10028 21103 70000
AAXX 07064 71060 16/// /2803 11087 21123 38629 40223 53005 60001 333 10016 21095 70000 555 32217 40071
AAXX 07064 71399 16/// ///// 11084 21110 60001 333 10028 21098 70000
AAXX 07064 89646 46/// /0105 11148 29059 37497 4//// 5////
AAXX 07064 89648 46/// /2308 11248 29069 37061 4//// 5////
AAXX 07064 89659 46/// /2613 11190 29061 37568 4//// 5////
AAXX 07064 89661 46/// /0406 11051 29044 39123 4//// 5////
AAXX 07064 89662 42980 03122 10007 21211 39632 49735 54000 222 ICE 98012 333 10020
AAXX 07064 89666 46/// /3106 11003 29053 39548 4//// 5////
AAXX 07061 63330 32980 10000 10168 20043 37813 40288 80001 333 20095 58002 81070
AAXX 07061 63331 32980 03602 10180 20052 38069 40253 333 20127 59004
AAXX 07061 63332 32980 21801 20059 38234 40156 80001 333 20051 58002 82071
AAXX 07061 63333 32980 20000 10154 20075 38188 40214 80002 333 20026 59007 82070
AAXX 07061 63334 31970 20000 10136 20016 37643 40159 7050/ 80001 333 20070 59001 82070
AAXX 07061 63340 32880 40301 10170 20103 37955 40180 84030 333 20130 59012 84358
AAXX 07061 63402 31540 40000 10160 20128 38370 4//// 7102/ 83230 333 20084 59010 83828
AAXX 07061 63403 31960 33502 10190 20107 7052/ 83030 333 20152 83360
AAXX 07061 63450 NIL
AAXX 07061 63451 32980 10000 10138 20045 38166 40173 80001 333 20026 59002 81072
AAXX 07061 63453 31975 00000 10174 2//// 39103 7050/ 333 20095 58002
AAXX 07061 63460 31978 33501 10170 20103 7050/ 80005 333 20092 83070
AAXX 07061 63471 31959 00000 10216 20089 38888 40162 70500 333 20143 58014
AAXX 07061 63474 32980 00902 10148 20034 333 20045
AAXX 07061 63500 31970 00000 10208 20145 7050/ 333 20130
AAXX 07061 63533 NIL
AAXX 07064 48383 32960 40807 10270 20153 30010 40170 57034 80006 333 58022
AAXX 07064 71974 46/// /1407 11244 21263 39990 40034 58012 6///1 333 11242 21328 7////
AAXX 07064 71848 16/// ///// 11044 21116 60001 333 10042 21061 70000
AAXX 07064 71565 16/// /2301 11145 21163 60001 333 11016 21145 70006
AAXX 07064 71566 16/// /2303 11064 21108 60001 333 10020 21065 70011
AAXX 07064 71567 16/// /2507 11073 21109 60001 333 10010 21073 70000 555 33019 40071
AAXX 07064 61017 32960 50000 10005 21050 39759 40185 80002 333 05700 20000 50254 55099 59018 85080
AAXX 07064 61024 32960 20804 10090 21080 39589 40169 80002 333 00500 20090 50931 59011 82080
AAXX 07064 61036 32960 70402 10155 21024 39903 40145 80008 333 01400 20154 51101 50814 55096 59010 87280
AAXX 07064 61043 32960 50406 10115 21050 39703 40153 80001 333 0//00 20112 51141 55105 59012 85080
AAXX 07064 61045 32965 60602 10110 21029 39657 40160 80008 333 00700 20110 50554 55100 59019 86280
AAXX 07064 61049 32960 70000 10094 21017 39823 40152 80008 333 00500 20090 50621 50454 55096 59011 87280
AAXX 07064 61052 32960 20604 10144 21044 39886 40147 80002 333 01100 20141 50881 55101 59010 82080
AAXX 07064 61075 32960 50000 10154 21045 39827 40140 80002 333 01100 20140 51021 50664 55105 59016 85080
AAXX 07064 61080 32960 71004 10115 21006 39728 40156 80008 333 00800 20110 51381 50894 55101 59012 87280
AAXX 07064 61090 32960 70204 10126 21041 39641 40175 80008 333 01200 20125 51291 51054 55103 59004 87280
AAXX 07064 61091 32960 30000 10082 20019 39706 40167 80002 333 00400 20079 50541 50404 55100 59012 83080
AAXX 07064 61096 32965 70402 10107 21020 39770 40162 80008 333 00900 20104 50801 50654 55088 59012 87280
AAXX 07064 61099 32960 70406 10155 20007 39896 40127 80008 333 0//00 20150 50871 55096 59007 87280
BBXX 46246 07061 99500 71451 46/// ///// 1//// 90559 22200 00066 11107 20906 320// 41104 70034
BBXX 46246 07061 99500 71451 46/// ///// 1//// 90629 22200 00066 11008 21007 320// 41103 70041
AAXX 07063 63671 32480 30906 20199 83500 333 20208 83618
AAXX 07063 63723 32582 70806 10267 20204 40136 872// 333 20234 58016 87825
BBXX 46241 07061 99330 71173 46/// ///// 1//// 90611 22200 00143 11503 20902 326// 41503 70017
BBXX 46216 07061 99343 71198 46/// ///// 1//// 90627 22200 00142 11405 20903 327// 41404 70023
BBXX 46223 07061 99335 71178 46/// ///// 1//// 90630 22200 00153 11504 21003 328// 41503 70019
BBXX 46231 07061 99327 71174 46/// ///// 1//// 90624 22200 00149 11405 21003 328// 41403 70023
BBXX 46222 07061 99336 71183 46/// ///// 1//// 90626 22200 00150 11505 21003 327// 41503 70023
BBXX 46242 07061 99332 71174 46/// ///// 1//// 90628 22200 00154 11703 21002 324// 41702 70013
AAXX 07064 67599 32380 70000 10250 20221 8457/ 333 10344 20230 58001 84608 87460
AAXX 07061 02935 11229 80802 11103 21112 39757 49937 57006 69912 771// 88/// 333 11069 21103 3/112 4/024
AAXX 07061 02924 11981 70000 11124 21131 39728 49933 54002 69944 722// 87/// 333 11079 21124 3/117 4/027
AAXX 07061 02981 12599 72910 11006 2//// 39921 49931 57003 69922 700// 87/// 333 10011 21008 3//// 4/998
AAXX 07061 02849 11532 83202 11049 21054 39663 49940 57004 60024 771// 88/// 333 11045 21056 3//// 4/033
AAXX 07061 14236 12802 10014 21044 39993 40196 52/// 60002 81500 333 20007 31103
AAXX 07064 96791 31459 83505 10322 20210 30054 40129 55007 71622 8452/ 333 56009 84618 88458
AAXX 07063 63630 32490 83505 10236 20117 3//// 38/// 80007 333 20175 5//// 888280 555 80007 10165
BBXX 41052 07061 99183 70648 46/// /0606 10259 40147 90630 333 91207
BBXX 41052 07061 99183 70648 46/// /0805 10259 40147 90620 333 91206
BBXX 41052 07061 99183 70648 46/// /1006 10260 40148 90610 333 91209
BBXX 41053 07061 99185 70661 46/// /1502 10240 40150 90630 333 91203
BBXX 41053 07061 99185 70661 46/// /1302 10236 40152 90620 333 91204
BBXX 41053 07061 99185 70661 46/// /1104 10235 40153 90610 333 91208
BBXX 42085 07061 99179 70665 46/// /0504 10258 40146 90630 333 91205
BBXX 42085 07061 99179 70665 46/// /0504 10258 40147 90620 333 91205
BBXX 42085 07061 99179 70665 46/// /0404 10258 40148 90610 333 91205
BBXX 44039 07061 99411 70727 46/// /2305 10082 20043 40089 90630 22200 00066 10301 70003 333 91206
BBXX 63106 07064 99610 10017 46/// /2826 10069 49921 53001 22200
BBXX 63113 07064 99610 10017 46/// /3023 10073 20020 49936 50003 22200 10707 70034
BBXX 62103 07064 99499 70029 46/97 /2930 10109 20097 40236 57005 22200 00115 10604 70018 333 90710 91137
AAXX 07063 63612 32980 02907 10260 20137 40136 333 20176 58005
AAXX 07063 63695 32480 20904 10194 20153 82501 333 20111 82617
BBXX 46221 07061 99339 71186 46/// ///// 1//// 90615 22200 00149 11704 21003 326// 41703 70019
AAXX 07061 10113 01150 82609 10071 20067 30041 40060 56029 60022 72162 877// 222// 06055 333 10071 20051 32005 55022 55300 20000 30000 60027 70019 83702 87703 91115 96459
AAXX 07064 71051 16/// ///// 11127 21150 60001 333 10042 21129 7////
AAXX 07064 71057 16/// ///// 11073 21114 60001 333 10066 21117 70000
AAXX 07064 71070 16/// ///// 11076 21103 60001 333 10042 21079 70000
AAXX 07064 71089 16/// ///// 11048 21098 60001 333 10021 21060 70000
AAXX 07064 71409 16/// ///// 11074 21100 60001 333 10049 21094 70000
AAXX 07064 71006 16/// /2605 11057 21090 60001 333 10024 21083 70000 555 32820 40181
AAXX 07064 71007 47/// ///// 11074 21119 6///1 7//4/ 333 10039 21098 7////
AAXX 07064 71008 16/// /2603 11087 21113 60001 333 10045 21089 70000
AAXX 07064 71009 16/// /0000 11122 21136 60001 333 10023 21122 70000 555 30218 40171
AAXX 07064 71035 16/// ///// 11122 21135 60001 333 10048 21122 70000
AAXX 07064 71102 16/// ///// 11098 21126 60001 333 10019 21098 70000
AAXX 07064 71105 16/// ///// 11111 21135 60001 333 10057 21119 70000
AAXX 07064 71789 16/// ///// 11078 21116 60001 333 10038 21078 70000
AAXX 07064 71791 16/// /2510 11071 21108 60001 333 10017 21077 70000 555 33024 40221
AAXX 07064 71794 16/// ///// 11062 21100 60001 333 10020 21078 70000
AAXX 07064 71795 16/// ///// 11054 21094 60001 333 10043 21070 70000
AAXX 07064 71796 16/// ///// 11070 21106 60001 333 10025 21083 70000
AAXX 07064 71502 16/// /1113 11248 21267 39931 49947 56017 60001 333 11199 21310 70000 555 31819 40151
AAXX 07064 71509 16/// /2607 11049 21093 60001 333 10044 21056 70000 555 32523 40181
AAXX 07064 71517 16/// /2816 11022 21086 60001 333 10027 21037 70004 555 32636 40093
AAXX 07064 71518 16/// /2405 11096 21113 60001 333 10060 21097 70000 555 32518 40081
AAXX 07064 71519 16/// /1905 11075 21102 60001 333 10054 21085 70000 555 32618 40191
AAXX 07064 71528 16/// /2611 11063 21109 60001 333 10050 21066 70000 555 32523 40191
AAXX 07064 71433 46/// /3213 11004 21012 39785 40014 53006 6///1 333 10046 21004 7//// 555 33139 40023
AAXX 07064 71841 46/// /3602 11139 21156 39683 40091 5/011 6///1 333 7////
AAXX 07064 89253 46/// ///09 49367 5////
AAXX 07064 89807 46/// /2214 11045 29084 39729 4//// 5//// 90630 333 90700 91119
AAXX 07064 94997 46/// ///// 10079 39951 49966 5////
AAXX 07064 89614 46/// /2303 11030 29049 38941 4//// 5//// 90630 333 90700 91105
AAXX 07064 94997 46/// ///// 10079 39951 49966 5////
AAXX 07064 89614 46/// /2303 11030 29049 38941 4//// 5//// 90630 333 90700 91105
AAXX 07064 89807 46/// /2214 11045 29084 39729 4//// 5//// 90630 333 90700 91119
AAXX 0706/ 89327 46/// ///// 11021 39473 4//// 5//// 90630
AAXX 0706/ 89828 46/// ///// 11234 36410 4//// 5//// 90630
AAXX 0706/ 89879 46/// ///// 10063 39685 4//// 5//// 90630
AAXX 0706/ 89667 46/// ///// 11005 39726 4//// 5//// 90620
AAXX 0706/ 89667 46/// ///// 11005 39726 4//// 5//// 90610
AAXX 0706/ 89872 46/// ///// 11016 39668 4//// 5//// 90630
AAXX 0706/ 89872 46/// ///// 11016 39668 4//// 5//// 90640
AAXX 0706/ 89869 46/// ///// 11035 39661 4//// 5//// 90630
AAXX 0706/ 89866 46/// ///// 10001 39632 4//// 5//// 90630
AAXX 0706/ 89329 46/// ///// 11074 38640 4//// 5//// 90630
AAXX 0706/ 89329 46/// ///// 11073 38642 4//// 5//// 90640
AAXX 0706/ 89799 46/// ///// 11246 4//// 5//// 90630
AAXX 0706/ 89332 46/// ///// 11049 39105 4//// 5//// 90630
AAXX 0706/ 89769 46/// ///// 11029 39690 4//// 5//// 90630
AAXX 0706/ 89769 46/// ///// 11029 39691 4//// 5//// 90640
AAXX 0706/ 89314 46/// ///// 11103 38135 4//// 5//// 90630
AAXX 07064 89667 46/// /0307 11007 29058 39725 4//// 5//// 90630
BBXX A8RH4 07064 99060 10888 41/97 41112 10280 20/// 40150 51020 75855 8/165 22223 04300 20301
BBXX A8YW2 07063 99174 11141 41597 50327 10233 20181 40198 58030 70311 8422/ 22255 00220 20405 80198
BBXX A8SZ5 07064 99370 11233 41497 33212 10050 20003 40360 54000 703// 8/11/ 22273 00/// 2//03 80030
BBXX 9MEZ2 07064 99262 11257 41498 80430 10185 20144 40/// 55010 70302 8877/ 22213 00232 2//// 80160
BBXX A8KC5 07064 99009 30881 41898 32714 10320 20250 40110 57010 70100 821/1 22253 00/// 20403 322// 40402 80270
BBXX A8VN4 07064 99226 11169 41297 80428 10165 20108 40255 56015 70322 8572/ 22254 04153 21107 304// 41308 80132
BBXX 3FUL2 07063 99060 10860 41298 50608 10270 20256 40180 54000 70322 84168 22264 04320 20201 323// 40402 80260
BBXX VRFH2 07063 99430 71443 41296 82030 10140 20100 40080 52020 75122 88672 22224 00130 20707 314// 40707 80120
BBXX MZER8 07060 99061 10962 41698 60907 10312 20230 40136 58001 70322 85404 22264 00291 22501 309// 40402 80255
BBXX MGRX9 07064 99122 31012 41397 70909 10290 20232 40104 54000 70322 8477/ 22273 00263 20501 327// 40502 80250
BBXX ELZU8 07063 99015 11044 41498 63422 10275 20234 40125 54000 70282 84148 22200 00/// 20203 301// 40506 80245
AAXX 07061 01160 41889 20304 11020 21071 39951 49968 57008 70200 82030 333 21022 91109
AAXX 07061 11231 32888 42803 11037 21052 39624 40219 53014 333 21044 34108 81857 84080
AAXX 07064 91650 11599 83407 10284 2025/ 40069 53005 60021 70262 8587/ 333 5699/ 83820 88460
BBXX V7EM3 07063 99056 31085 41396 62725 10290 20232 40088 50015 76266 86717 22254 00290 20604 80250
BBXX SHIP 07064 99134 31245 41/96 62509 10284 20263 40059 75250 222// 0//// 20100 307// 40101 5////
BBXX V7EM3 07063 99056 31085 41396 62725 10290 20232 40088 50015 76266 86717 22254 00290 20604 80250
BBXX SHIP 07064 99134 31245 41/96 62509 10284 20263 40059 75250 222// 0//// 20100 307// 40101 5////
BBXX WCF3012 07064 99423 70830 41/98 62505 10060 40050 70222 22200 00070 20001
BBXX A8RH4 07064 99060 10888 41/97 41112 10280 20/// 40150 51020 75855 8/165 22223 04300 20301
BBXX A8VN4 07064 99226 11169 41297 80428 10165 20108 40255 56015 70322 8572/ 22254 04153 21107 304// 41308 80132
BBXX 3FUL2 07063 99060 10860 41298 50608 10270 20256 40180 54000 70322 84168 22264 04320 20201 323// 40402 80260
BBXX A8SZ5 07064 99370 11233 41497 33212 10050 20003 40360 54000 703// 8/11/ 22273 00/// 2//03 80030
BBXX SHIP 07064 99262 11257 41498 80430 10185 20144 40/// 55010 70302 8877/ 22213 00232 2//// 80160
BBXX MZER8 07060 99061 10962 41698 60907 10312 20230 40136 58001 70322 85404 22264 00291 22501 309// 40402 80255
BBXX A8YW2 07063 99174 11141 41597 50327 10233 20181 40198 58030 70311 8422/ 22255 00220 20405 80198
BBXX SHIP 07064 99228 11175 41/98 80529 10160 20127 40250 55005 70222 88/// 22213 00190 20507 305// 40604 80140
BBXX 66022 07061 99541 10142 46/// /2209 10041 30060 22200 00038
BBXX MGRX9 07064 99122 31012 41397 70909 10290 20232 40104 54000 70322 8477/ 22273 00263 20501 327// 40502 80250
BBXX A8KC5 07064 99009 30881 41898 32714 10320 20250 40110 57010 70100 821/1 22253 00/// 20403 322// 40402 80270
BBXX ELZU8 07063 99015 11044 41498 63422 10275 20234 40125 54000 70282 84148 22200 00/// 20203 301// 40506 80245
BBXX VRFH2 07063 99430 71443 41296 82030 10140 20100 40080 52020 75122 88672 22224 00130 20707 314// 40707 80120
BBXX 46221 07061 99339 71186 46/// ///// 1//// 90615 22200 00149 11704 21003 326// 41703 70019
BBXX 41053 07061 99185 70661 46/// /1502 10240 40150 90630 333 91203
BBXX 42085 07061 99179 70665 46/// /0504 10258 40147 90620 333 91205
BBXX 41053 07061 99185 70661 46/// /1104 10235 40153 90610 333 91208
BBXX 41052 07061 99183 70648 46/// /0805 10259 40147 90620 333 91206
BBXX 41052 07061 99183 70648 46/// /1006 10260 40148 90610 333 91209
BBXX 42085 07061 99179 70665 46/// /0504 10258 40146 90630 333 91205
BBXX 41053 07061 99185 70661 46/// /1302 10236 40152 90620 333 91204
BBXX 44039 07061 99411 70727 46/// /2305 10082 20043 40089 90630 22200 00066 10301 70003 333 91206
BBXX 41052 07061 99183 70648 46/// /0606 10259 40147 90630 333 91207
BBXX 42085 07061 99179 70665 46/// /0404 10258 40148 90610 333 91205
BBXX 46242 07061 99332 71174 46/// ///// 1//// 90628 22200 00154 11703 21002 324// 41702 70013
BBXX 46222 07061 99336 71183 46/// ///// 1//// 90626 22200 00150 11505 21003 327// 41503 70023
BBXX 46216 07061 99343 71198 46/// ///// 1//// 90627 22200 00142 11405 20903 327// 41404 70023
BBXX 46223 07061 99335 71178 46/// ///// 1//// 90630 22200 00153 11504 21003 328// 41503 70019
BBXX 46231 07061 99327 71174 46/// ///// 1//// 90624 22200 00149 11405 21003 328// 41403 70023
BBXX 46241 07061 99330 71173 46/// ///// 1//// 90611 22200 00143 11503 20902 326// 41503 70017
BBXX 46246 07061 99500 71451 46/// ///// 1//// 90559 22200 00066 11107 20906 320// 41104 70034
BBXX 46246 07061 99500 71451 46/// ///// 1//// 90629 22200 00066 11008 21007 320// 41103 70041
BBXX WCF3012 07064 99423 70830 41/98 62505 10060 40050 70222 22200 00070 20001
AAXX 07064 67002 31580 83615 10296 20239 30101 40134 60304 85870 333 58000 82820 85630 92417
AAXX 07064 67009 12582 11406 10290 20232 30010 40129 52009 60134 81800 333 02219 10305 20230 50184 55011 81820 555 81640 RR 13.0
AAXX 07064 67012 32582 30208 10298 20251 30111 40122 51010 82202 333 0//00 10312 20237 50224 55/// 82820 555 82075
AAXX 07064 67025 12580 60000 10301 20238 30019 40118 50003 69944 85930 333 0//53 10312 20238 50174 55/// 82820 81920 84640 94971/2 95831/2 555 82360
AAXX 07064 67027 11582 51014 10280 20246 30089 40110 50004 60284 81232 333 02019 10298 20232 50204 55010 81820 84073 555 82360 RR 27.5
AAXX 07064 67045 NIL
AAXX 07064 67072 11470 62206 10279 20242 30131 40134 51009 60034 71522 86200 333 02209 10296 20256 50204 55/// 86817 92418 RR 2.5
AAXX 07064 67073 11565 8//// 10238 20229 30066 40092 50004 60684 76062 8287/ 333 0//11 10255 20234 50//4 55/// 81820 88460 555 82633 RR 68.3
AAXX 07064 67083 11480 71602 10204 20184 38741 48715 54001 60014 70162 8385/ 333 01813 20176 50184 55009 82817 87360 RR 0.9
AAXX 07064 67085 NIL
AAXX 07064 67095 11470 72006 10278 20245 30121 40127 51006 69964 71522 878// 333 02219 10317 20226 50284 55/// 84817 86653
AAXX 07064 67113 12580 7//// 10276 20236 30/// 40/// 5//// 6//// 84836 333 0//// 10291 20218 50154 55/// 83820 86273 555 82640 82360
AAXX 07064 67117 NIL
AAXX 07064 67137 11260 80000 10191 20179 38906 48508 51010 60094 76162 8287/ 333 0//10 10244 20181 50184 55/// 81707 82817 88460 555 81620
AAXX 07064 67143 32580 6//// 10/// 20/// 30122 40129 52008 86800 333 0//00 10/// 20/// 50//4 55/// 81820 85633 92438
AAXX 07064 67152 11480 7//// 10220 20205 39205 48512 51008 60134 7216/ 84830 333 01911 10308 20209 50404 55/// 84817 555 82620 83358 RR 13.0
AAXX 07064 67157 11580 6//// 10/// 20/// 30153 40160 53010 60044 71562 86800 333 0//17 10/// 20/// 50//4 55/// 82820 86633 RR 4.0
AAXX 07064 67161 32582 70000 10315 20220 30099 40108 51010 81232 333 0//00 10340 29239 50354 55/// 81820 83360 86073
AAXX 07064 67197 32582 10812 10272 20232 30120 40130 52011 83850 333 01600 10309 20244 50644 55116 82820 85360 555 82633
AAXX 07064 67017 NIL
AAXX 07064 67020 12582 40000 10285 20250 30089 40116 51008 60534 84902 333 023// 10319 20235 50164 55/// 81820 81920 84640 94977 95837 555 81073=53.0 67023 32582 61006 10306 20242 30115 40121 51003 82932 333 02000 10298 20210 50284 55/// 82820 81920 84360 94972 95812 555 81073
AAXX 07064 67037 11565 8//// 10/// 20/// 30045 40806 5/010 60384 71796 8497/ 333 0//51 10/// 20/// 50//4 55/// 81820 81920 84633 88458 94966 95836 RR 38.4
AAXX 07064 67067 NIL
AAXX 07064 67107 NIL
AAXX 07064 67131 12582 70606 10/// 20/// 30097 40102 51004 60064 878// 333 0//69 10/// 20/// 50//4 55/// 81820 87640
AAXX 07064 60620 12960 00110 10070 21110 40228 53005 60004 333 0//00 20066
BBXX 2AKI2 07063 99049 30847 41698 63115 10294 20249 40123 57011 70222 83466 22254 00289 20402 32400 40703 5//// 80262
BBXX B2M1303 07063 99202 31099 41598 41815 10280 20224 40096 57007 703// 84400 22243 00240 20404 80240
BBXX V7OX3 07061 99355 30171 41/97 /1608 10180 20146 40170 54000 703// 8/1// 22223 21006 3//// 4//// 5//// 80160
AAXX 07061 22471 11484 81604 11008 21021 39998 40022 57005 69900 70282 885// 333 21011 88615
AAXX 07064 71014 16/// /1503 11087 21116 60001 333 10023 21087 70000
AAXX 07064 71904 16/// ///// 11101 21116 60001 333 10021 21111 70000
AAXX 07064 71857 16/// ///// 11062 21104 60001 333 10006 21068 70000
AAXX 07064 71055 46/// /2401 11245 21268 39644 49985 56027 6///1 333 11232 21311 7////
AAXX 07064 71065 16/// ///// 11064 21118 60001 333 10015 21086 70000
AAXX 07064 71481 16/// /2104 11061 21102 60001 333 10012 21105 7////
AAXX 07064 71498 16/// /2204 11067 21097 60001 333 10028 21067 7////
AAXX 07064 71346 16/// /2308 11070 21101 60001 333 10057 21085 70000 555 32525 40191
AAXX 07064 71360 16/// ///// 11079 21110 60001 333 10016 21086 70000
AAXX 07064 71383 16/// ///// 11235 21269 39454 40093 56012 60001 333 11235 21359 70000
AAXX 07064 71674 16/// ///// 11081 21112 60001 333 10023 21084 70000
AAXX 07064 71520 16/// /1403 11291 21322 39385 40091 55008 60001 333 11210 21344 70000
AAXX 07064 71521 16/// /1005 11253 21288 60001 333 11220 21350 70000
AAXX 07064 71523 16/// ///// 11169 21191 39654 40041 56011 60001 333 11169 21303 70000
AAXX 07064 71540 16/// /2702 11127 21144 60001 333 7////
AAXX 07064 71544 16/// ///// 11049 21099 60001 333 10002 21056 7////
AAXX 07064 71548 16/// ///// 11051 21105 60001 333 10019 21051 70000
AAXX 07064 71797 16/// ///// 11080 21110 60001 333 10010 21088 70000
AAXX 07064 71249 16/// /0705 11049 21108 60001 333 10029 21072 7//// 555 32822 40121
AAXX 07064 71413 16/// ///// 11067 21110 60001 333 10030 21105 70000
AAXX 07064 71414 16/// ///// 11043 21089 60001 333 10020 21085 70000
AAXX 07064 71440 16/// ///// 11068 21110 60001 333 10040 21068 70000
AAXX 07064 68474 11325 80902 10176 20154 38674 48564 52007 60144 70299 80000 333 20160 91004 555 10287 20146 91025
AAXX 07064 78982 02482 30709 10258 20227 30128 40133 57008 60001 81201 333 59002 60007 81818 83081
BBXX A8LK7 07063 99280 70467 41497 31612 10210 20047 40275 58005 70355 8377/ 22254 20403 80130
AAXX 07064 17074 12565 83503 10082 20010 39140 40066 53002 60002 8352/ 333 20037 35001 55030 20477 83630 88460 91123
AAXX 07064 41859 31940 00905 10210 20150 30160 40199 70500 333 58018 70000
AAXX 07064 41883 31950 20502 10238 20120 30174 40195 70500 82030 333 56090 58015 70000 82362
AAXX 07064 41891 31945 00905 10235 20130 30153 40192 70510 333 58016 70000
AAXX 07064 41907 31350 80502 10210 20140 30179 40194 70522 8672/ 333 56799 58023 70000 85710 88458
AAXX 07064 41859 NIL
AAXX 07064 41883 NIL
AAXX 07064 41891 NIL
AAXX 07064 41907 NIL
AAXX 07064 41923 31440 70502 10226 20130 30172 40182 70522 82570 333 56990 58015 70000 82615 86458
AAXX 07064 41936 11312 81103 10210 20170 40191 69904 76064 86730 333 56990 58018 70040 84707 83615 86362
AAXX 07064 41943 11950 60000 10215 20170 30170 40177 69904 70152 84520 333 56990 58007 79999 84616 86460
AAXX 07064 41950 11415 80000 10207 20170 30175 40177 60148 71096 8252/ 333 56999 58006 70143 82618 88459
AAXX 07064 41978 31435 40000 10247 20170 30171 40178 70522 82430 333 56990 58010 70000 81618 83362
AAXX 07064 41992 31430 60301 10275 20190 30171 40174 70522 82530 333 56990 58012 70000 82616 86362
AAXX 07064 41998 32950 02202 10280 20170 30157 40163 333 58001 70000
AAXX 07064 41984 32457 80000 10228 20160 30174 40176 8352/ 333 56999 58011 70046 83618 88458
AAXX 07064 41858 31950 00606 10228 20140 30150 40196 70540 333 58018 70000
AAXX 07064 41863 32956 00503 10225 20140 30150 40194 333 58012 70000
AAXX 07064 41886 31956 20902 10226 20140 30140 40161 70541 80001 333 56009 58000 70000 82080
AAXX 07064 41895 32457 80903 10212 20130 30173 40196 8357/ 333 56699 58015 70000 83616 86458
AAXX 07064 41909 31450 60502 10230 20140 30174 40186 70542 83510 333 56990 58018 70000 83615 86459
AAXX 07064 41915 31950 03002 10233 20110 30160 40186 70240 333 58008 70000
AAXX 07064 41926 31450 73602 10202 20150 30181 40195 70522 82510 333 56990 58028 70000 82618 86459
AAXX 07064 41929 31450 80902 10220 20150 30175 40185 70542 8351/ 333 56999 58011 70000 83618 88464
AAXX 07064 41933 31440 53603 10232 20130 30181 40190 70522 82510 333 56990 58012 70000 82616 84458
AAXX 07064 41939 11440 70000 10220 20160 40194 70564 83570 333 56290 58013 70020 83616 85460
AAXX 07064 41941 31450 51802 10236 20150 30181 41087 70522 84520 333 56990 58016 70000 84615 84460
AAXX 07064 41946 11340 83302 10188 20180 30195 40200 60034 76121 8572/ 333 56799 58027 70030 82710 84616 88457
AAXX 07064 41947 11350 80902 10202 20160 30184 40186 60026 70564 8472/ 333 56299 58016 70170 82708 85615 88458
AAXX 07064 41953 31450 70000 10230 20160 30175 40180 70522 83570 333 56990 58011 70000 83616 84458
AAXX 07064 41958 11350 80000 10195 20190 30184 40186 60014 76162 8572/ 333 56499 58022 70006 82708 84614 88458
AAXX 07064 41960 11440 80901 10220 20180 30186 40188 69904 76122 8452/ 333 56299 58006 70026 84615 88458
AAXX 07064 41963 31425 80501 10245 20170 30181 40184 70522 8352/ 333 56999 58017 70000 83618 88458
AAXX 07064 41964 32456 63601 10246 20180 30184 40186 83510 333 56990 58007 70000 83618 86460
AAXX 07064 41965 31456 70000 10236 20160 30174 40182 70542 82510 333 56990 58012 70000 82617 87460
AAXX 07064 41966 31450 43602 10230 20170 30107 40188 70522 82510 333 56990 58019 70000 82616 84460
AAXX 0706/ 41858 NIL
AAXX 0706/ 41863 NIL
AAXX 0706/ 41886 NIL
AAXX 0706/ 41895 NIL
AAXX 0706/ 41909 NIL
AAXX 0706/ 41915 NIL
AAXX 0706/ 41926 NIL
AAXX 0706/ 41929 NIL
AAXX 0706/ 41933 NIL
AAXX 0706/ 41939 NIL
AAXX 0706/ 41941 NIL
AAXX 0706/ 41946 NIL
AAXX 0706/ 41947 NIL
AAXX 0706/ 41951 NIL
AAXX 0706/ 41953 NIL
AAXX 0706/ 41958 NIL
AAXX 0706/ 41960 NIL
AAXX 0706/ 41963 NIL
AAXX 0706/ 41964 NIL
AAXX 0706/ 41965 NIL
AAXX 0706/ 41966 NIL
AAXX 0706/ 41984 NIL
AAXX 0706/ 41989 NIL
AAXX 0706/ 41998 NIL
BBXX A8KC5 07064 99009 30881 41898 32714 10320 20250 40110 57010 70100 821/1 22253 00/// 20403 322// 40402 80270
BBXX V7EM3 07063 99056 31085 41396 62725 10290 20232 40088 50015 76266 86717 22254 00290 20604 80250
BBXX MGRX9 07064 99122 31012 41397 70909 10290 20232 40104 54000 70322 8477/ 22273 00263 20501 327// 40502 80250
AAXX 07063 63630 32490 83505 10236 20117 3//// 80007 333 20175 5//// 88280 555 80007 10165
AAXX 07063 63630 32490 83505 10236 20117 3//// 80007 333 20175 5//// 88280 555 80007 10165
AAXX 07064 60367 11560 7//// 10101 20086 40227 53006 69944 700// 878// 333 20091 83820 87840
AAXX 07064 60195 32960 20000 10025 21137 38586 48597 5//// 82030 333 20008 30101 82360 95500
AAXX 07061 14008 12099 53214 11122 21148 37426 47964 52015 60002 82270 333 21123 49110 55033 79999 92868 95100
AAXX 07061 14105 11999 11105 11008 21056 30178 40183 52018 60002 702// 80002 333 21018 34104 55063 70000 92600 555 20008 30025
AAXX 07061 59158 32965 03303 10206 20141 30108 40209 57019
AAXX 07061 59562 32570 30505 10226 20165 30203 40214 57024 83201
AAXX 07061 59567 32460 70110 10185 20172 39816 40197 58014 86501
AAXX 07061 58968 11560 70905 10171 20150 30240 40248 56020 69901 70262 875//
AAXX 07061 58974 11565 80412 10158 20130 30126 40252 57023 69951 70262 885//
AAXX 07061 59358 31657 50102 10212 20150 30187 40219 57022 70522 85500
AAXX 07061 59559 32568 30206 10236 20161 30176 40204 58013 82202
AAXX 07061 59792 32560 50309 10212 20166 30213 40218 57024 82130
AAXX 07061 59997 11456 80704 10267 20253 30120 40128 57022 60071 76066 8362/
AAXX 07064 97182 01465 83009 10301 20255 30088 40092 57023 60151 76262 8387/ 333 56009 57800 60087 83816 85458 808//
AAXX 07064 71494 16/// /2002 11040 21042 39516 40040 58007 60001 333 11040 21211 70003
AAXX 07064 71376 16/// /0301 11071 21079 39754 40056 54000 60001 333 11071 21160 70000
AAXX 07064 71390 46/// /0106 11167 6///1 333 11137 21178 7//// 555 32822 40071
AAXX 07064 71184 46/// /0502 11081 21096 6///1 333 11081 21133 7//// 555 30617 40111
AAXX 07064 71713 17/// /0405 11113 21124 60011 7//4/ 333 11113 21208 70022
AAXX 07064 91844 46/// /0906 10250 40090 22200 00271
BBXX 46232 07061 99325 71174 46/// ///// 1//// 90608 22200 00147 11305 21003 327// 41304 70026
AAXX 0706/ 89872 46/// ///// 11019 39667 4//// 5////
AAXX 0706/ 89872 46/// ///// 11019 39667 4//// 5//// 90610
AAXX 0706/ 89869 46/// ///// 11029 39659 4//// 5//// 90610
AAXX 0706/ 89866 46/// ///// 10005 39632 4//// 5//// 90610
AAXX 0706/ 89329 46/// ///// 11083 38639 4//// 5//// 90610
AAXX 0706/ 89329 46/// ///// 11076 38639 4//// 5//// 90620
AAXX 0706/ 89799 46/// ///// 11249 4//// 5////
AAXX 0706/ 89868 46/// ///// 11035 39649 4//// 5//// 90610
AAXX 0706/ 89332 46/// ///// 11048 39103 4//// 5//// 90610
AAXX 0706/ 89769 46/// ///// 11023 39689 4//// 5////
AAXX 0706/ 89769 46/// ///// 11024 39690 4//// 5//// 90610
AAXX 0706/ 89314 46/// ///// 11095 38133 4//// 5//// 90610
AAXX 0706/ 89327 46/// ///// 11020 39473 4//// 5//// 90610
AAXX 0706/ 89828 46/// ///// 11236 36411 4//// 5////
AAXX 0706/ 89879 46/// ///// 10075 39685 4//// 5////
AAXX 0706/ 89879 46/// ///// 10081 39684 4//// 5//// 90610
AAXX 07064 89003 46/89 /1303 11097 29062 39033 4//// 5////
AAXX 07064 89507 46/89 /1406 11223 29067 36791 4//// 5////
AAXX 07064 89577 46/// /2005 11293 35790 4//// 5////
AAXX 07061 11130 36/// ///// 1//// 2//// 333 47021 93107
BBXX 63106 07064 99610 10017 46/// /2826 10069 49921 53001 22200
BBXX 63105 07064 99610 10017 47597 ///// 10076 20024 49919 52001 700// 22200
BBXX 62103 07064 99499 70029 46/98 ///30 10112 20098 40236 57008 22200 00115 10603 70017 333 90710 91139
BBXX ONFP 07064 99173 11170 41696 80330 10240 2023/ 40170 50020 7//22 88997 22212 04239 20508 305// 4//// 5//// 6//// 80230 ICE /////
BBXX ONFP 07064 99173 11170 41696 80330 10240 2023/ 40170 50020 7//22 88997 22212 04239 20508 305// 4//// 5//// 6//// 80230 ICE /////
BBXX BSH02 07061 99542 10079 46/// ///// 22200 00061 20704 70022
BBXX BSH03 07061 99540 10081 46/// ///// 22200 00060 20704 70020
BBXX SHIP 07064 99134 31245 41/96 62509 10284 20263 40059 75250 222// 0//// 20100 307// 40101 5////
BBXX V7EM3 07063 99056 31085 41396 62725 10290 20232 40088 50015 76266 86717 22254 00290 20604 80250
BBXX 46232 07061 99325 71174 46/// ///// 1//// 90608 22200 00147 11305 21003 327// 41304 70026
BBXX A8LK7 07063 99280 70467 41497 31612 10210 20047 40275 58005 70355 8377/ 22254 20403 80130
AAXX 0706/ 89332 46/// ///// 11048 39104 4//// 5//// 90620
AAXX 0706/ 89828 46/// ///// 11231 36411 4//// 5//// 90620
AAXX 0706/ 89108 46/// ///// 11204 36885 4//// 5//// 90620
AAXX 0706/ 89879 46/// ///// 10066 39685 4//// 5//// 90620
AAXX 07063 63682 32780 52706 10218 20164 3//// 48/// 80071 333 20150 5//// 85080 555 10182
OOXX FRP29 07041 99210 30556 ///// 00751 26/// /1806 10283 29068 39878 90455 333 60000
OOXX FRP29 07051 99210 30556 ///// 00751 26/// /1806 10283 29069 39872 90505 333 60000
OOXX FRP29 07051 99210 30556 ///// 00751 26/// /1906 10282 29069 39872 90515 333 60000
OOXX FRP29 07051 99210 30556 ///// 00751 26/// /1606 10284 29068 39872 90525 333 60000
OOXX FRP29 07051 99210 30556 ///// 00751 26/// /1706 10284 29070 39872 90535 333 60000
OOXX FRP29 07051 99210 30556 ///// 00751 26/// /1806 10283 29069 39869 90545 333 60000
OOXX FRP29 07051 99210 30556 ///// 00751 26/// /1706 10287 29067 39866 90555 333 60000
OOXX FRP29 07061 99210 30556 ///// 00751 26/// /1706 10287 29067 39867 90605 333 60000
OOXX FRP29 07061 99210 30556 ///// 00751 26/// /1606 10288 29065 39870 90615 333 60000
OOXX FRP29 07061 99210 30556 ///// 00751 26/// /1606 10286 29066 39871 90625 333 60000
OOXX FRP29 07061 99210 30556 ///// 00751 26/// /1707 10285 29066 39870 90635 333 60000
OOXX FRP29 07061 99210 30556 ///// 00751 26/// /1606 10289 29065 39872 90645 333 60000
OOXX ARP01 07041 99345 50585 ///// 00311 26/// /1101 10100 29038 30157 90410 333 60000
OOXX ARP01 07041 99345 50585 ///// 00311 26/// /1101 10099 29039 30157 90420 333 60000
OOXX ARP01 07041 99345 50585 ///// 00311 26/// /1102 10100 29039 30156 90430 333 60000
OOXX ARP01 07041 99345 50585 ///// 00311 26/// /1101 10100 29039 30155 90440 333 60000
OOXX ARP01 07041 99345 50585 ///// 00311 26/// /1101 10099 29038 30155 90450 333 60000
OOXX ARP01 07051 99345 50585 ///// 00311 26/// /1601 10099 29039 30154 90500 333 60000
OOXX ARP01 07051 99345 50585 ///// 00311 26/// /1601 10100 29039 30154 90510 333 60000
OOXX ARP01 07051 99345 50585 ///// 00311 26/// /1101 10099 29038 30153 90520 333 60000
OOXX ARP01 07051 99345 50585 ///// 00311 26/// /1102 10099 29038 30152 90530 333 60000
OOXX ARP01 07051 99345 50585 ///// 00311 26/// /1602 10099 29038 30152 90540 333 60000
OOXX ARP01 07051 99345 50585 ///// 00311 26/// /1101 10098 29038 30151 90550 333 60000
OOXX ARP01 07061 99345 50585 ///// 00311 26/// /1101 10098 29038 30151 90600 333 60000
OOXX AUP07 07041 99/// ///// ///// ///// 26/// /2414 10064 29067 39984 90453 333 60000
OOXX AUP07 07051 99/// ///// ///// ///// 26/// /2414 10063 29069 39987 90503 333 60000
OOXX AUP07 07051 99/// ///// ///// ///// 26/// /2414 10061 29069 39989 90513 333 60000
OOXX AUP07 07051 99/// ///// ///// ///// 26/// /2412 10064 29067 39991 90523 333 60000
OOXX AUP07 07051 99/// ///// ///// ///// 26/// /2412 10066 29065 39992 90533 333 60000
OOXX AUP07 07051 99/// ///// ///// ///// 26/// /2413 10063 29068 39994 90543 333 60000
OOXX AUP07 07051 99/// ///// ///// ///// 26/// /2412 10062 29066 39995 90553 333 60000
OOXX AUP07 07061 99/// ///// ///// ///// 26/// /2412 10063 29069 39996 90603 333 60000
OOXX AUP07 07061 99/// ///// ///// ///// 26/// /2412 10063 29067 39997 90613 333 60000
OOXX AUP07 07061 99/// ///// ///// ///// 26/// /2411 10065 29068 39997 90623 333 60000
OOXX AUP07 07061 99/// ///// ///// ///// 26/// /2412 10062 29066 30000 90633 333 60000
OOXX AUP07 07061 99/// ///// ///// ///// 26/// /2411 10060 29070 30002 90643 333 60000
OOXX SEP63 07041 99594 10180 ///// 00401 26/// /1304 11026 29076 39920 90410 333 60000
OOXX SEP63 07041 99594 10180 ///// 00401 26/// /1303 11027 29077 39920 90420 333 60000
OOXX SEP63 07041 99594 10180 ///// 00401 26/// /1203 11028 29077 39920 90430 333 60000
OOXX SEP63 07041 99594 10180 ///// 00401 26/// /1203 11028 29078 39920 90440 333 60000
OOXX SEP63 07041 99594 10180 ///// 00401 26/// /1303 11029 29079 39920 90450 333 60000
OOXX SEP63 07051 99594 10180 ///// 00401 26/// /1003 11030 29078 39920 90500 333 60000
OOXX SEP63 07051 99594 10180 ///// 00401 26/// /1402 11030 29079 39920 90510 333 60000
OOXX SEP63 07051 99594 10180 ///// 00401 26/// /1002 11030 29079 39920 90520 333 60000
OOXX SEP63 07051 99594 10180 ///// 00401 26/// /1202 11030 29079 39920 90530 333 60000
OOXX SEP63 07051 99594 10180 ///// 00401 26/// /1102 11030 29079 39920 90540 333 60000
OOXX SEP63 07051 99594 10180 ///// 00401 26/// /1002 11031 29079 39920 90550 333 60000
OOXX SEP63 07061 99594 10180 ///// 00401 26/// /1002 11032 29079 39920 90600 333 60000
OOXX GBP68 07041 99371 50123 ///// 00641 26/// /3607 10166 29000 30121 90420 333 60000
OOXX GBP68 07041 99371 50123 ///// 00641 26/// /3606 10168 29000 30121 90430 333 60000
OOXX GBP68 07041 99371 50123 ///// 00641 26/// /3606 10165 29000 30121 90440 333 60000
OOXX GBP68 07041 99371 50123 ///// 00641 26/// /3607 10167 29000 30123 90450 333 60000
OOXX GBP68 07051 99371 50123 ///// 00641 26/// /3606 10166 29000 30123 90500 333 60000
OOXX GBP68 07051 99371 50123 ///// 00641 26/// /3606 10165 29000 30121 90510 333 60000
OOXX GBP68 07051 99371 50123 ///// 00641 26/// /3606 10166 29000 30122 90520 333 60000
OOXX GBP68 07051 99371 50123 ///// 00641 26/// /3606 10164 29000 30122 90530 333 60000
OOXX GBP68 07051 99371 50123 ///// 00641 26/// /3607 10165 29000 30122 90540 333 60000
OOXX GBP68 07051 99371 50123 ///// 00641 26/// /3608 10165 29000 30124 90550 333 60000
OOXX GBP68 07061 99371 50123 ///// 00641 26/// /3608 10163 29000 30124 90600 333 60000
OOXX GBP68 07061 99371 50123 ///// 00641 26/// /3608 10162 29000 30125 90610 333 60000
OOXX PTP53 07041 99377 70257 ///// 00121 26/// /0405 10144 29001 30247 90410 333 60000
OOXX PTP53 07041 99377 70257 ///// 00121 26/// /0205 10142 29001 30247 90420 333 60000
OOXX PTP53 07041 99377 70257 ///// 00121 26/// /0305 10142 29001 30247 90430 333 60000
OOXX PTP53 07041 99377 70257 ///// 00121 26/// /0305 10141 29001 30246 90440 333 60000
OOXX PTP53 07041 99377 70257 ///// 00121 26/// /0206 10142 29001 30244 90450 333 60000
OOXX PTP53 07051 99377 70257 ///// 00121 26/// /0206 10142 29001 30243 90500 333 60000
OOXX PTP53 07051 99377 70257 ///// 00121 26/// /0206 10143 29001 30245 90510 333 60000
OOXX PTP53 07051 99377 70257 ///// 00121 26/// /0306 10141 29001 30245 90520 333 60000
OOXX PTP53 07051 99377 70257 ///// 00121 26/// /0105 10141 29001 30244 90530 333 60000
OOXX PTP53 07051 99377 70257 ///// 00121 26/// ///04 10141 29001 30243 90540 333 60000
OOXX PTP53 07051 99377 70257 ///// 00121 26/// /0404 10141 29001 30243 90550 333 60000
OOXX PTP53 07061 99377 70257 ///// 00121 26/// ///04 10144 29001 30243 90600 333 60000
OOXX ISP34 07041 99641 70219 ///// 01301 26/// /3202 10025 29003 39877 90410 333 6///0
OOXX ISP34 07041 99641 70219 ///// 01301 26/// /3102 10026 29002 39881 90420 333 6///0
OOXX ISP34 07041 99641 70219 ///// 01301 26/// /3203 10027 29002 39885 90430 333 6///0
OOXX ISP34 07041 99641 70219 ///// 01301 26/// /3202 10028 29002 39888 90440 333 6///0
OOXX ISP34 07041 99641 70219 ///// 01301 26/// /3202 10028 29002 39891 90450 333 6///0
OOXX ISP34 07051 99641 70219 ///// 01301 26/// /3202 10032 29002 39893 90500 333 6///0
OOXX ISP34 07051 99641 70219 ///// 01301 26/// /2701 10033 29002 39895 90510 333 6///0
OOXX ISP34 07051 99641 70219 ///// 01301 26/// /3402 10034 29002 39898 90520 333 6///0
OOXX ISP34 07051 99641 70219 ///// 01301 26/// /0802 10033 29003 39901 90530 333 6///0
OOXX ISP34 07051 99641 70219 ///// 01301 26/// ///05 10035 29003 39902 90540 333 6///0
OOXX ISP34 07051 99641 70219 ///// 01301 26/// ///05 10036 29003 39903 90550 333 6///0
OOXX ISP34 07061 99641 70219 ///// 01301 26/// ///04 10038 29003 39904 90600 333 6///0
OOXX AUP06 07041 99192 31468 ///// 00071 26/// /0506 10317 29048 30089 90458 333 60000
OOXX AUP06 07051 99192 31468 ///// 00071 26/// /0506 10314 29050 30089 90508 333 60000
OOXX AUP06 07051 99192 31468 ///// 00071 26/// /0607 10313 29046 30087 90518 333 60000
OOXX AUP06 07051 99192 31468 ///// 00071 26/// /0707 10310 29050 30086 90528 333 60000
OOXX AUP06 07051 99192 31468 ///// 00071 26/// /0807 10312 29047 30086 90538 333 60000
OOXX AUP06 07051 99192 31468 ///// 00071 26/// /0808 10313 29055 30086 90548 333 60000
OOXX AUP06 07051 99192 31468 ///// 00071 26/// /0708 10304 29057 30086 90558 333 60000
OOXX AUP06 07061 99192 31468 ///// 00071 26/// /0708 10303 29058 30086 90608 333 60000
OOXX AUP06 07061 99192 31468 ///// 00071 26/// /0607 10297 29061 30087 90618 333 60000
OOXX AUP06 07061 99192 31468 ///// 00071 26/// /0607 10303 29060 30087 90628 333 60000
OOXX AUP06 07061 99192 31468 ///// 00071 26/// /0607 10299 29060 30088 90638 333 60000
OOXX AUP06 07061 99192 31468 ///// 00071 26/// /0607 10297 29060 30089 90648 333 60000
OOXX PAP50 07031 99090 70795 ///// 00901 26/// /3101 10244 29073 30026 90350 333 60000
OOXX PAP50 07041 99090 70795 ///// 00901 26/// /3301 10247 29071 30026 90400 333 60000
OOXX PAP50 07041 99090 70795 ///// 00901 26/// /3301 10243 29073 30024 90410 333 60000
OOXX PAP50 07041 99090 70795 ///// 00901 26/// /3401 10245 29073 30024 90420 333 60000
OOXX PAP50 07041 99090 70795 ///// 00901 26/// /3402 10244 29073 30023 90430 333 60000
OOXX PAP50 07041 99090 70795 ///// 00901 26/// /3401 10244 29073 30021 90440 333 60000
OOXX PAP50 07041 99090 70795 ///// 00901 26/// /3601 10244 29074 30020 90450 333 60000
OOXX PAP50 07051 99090 70795 ///// 00901 26/// /0101 10245 29073 30019 90500 333 60000
OOXX PAP50 07051 99090 70795 ///// 00901 26/// /3501 10246 29072 30020 90510 333 60000
OOXX PAP50 07051 99090 70795 ///// 00901 26/// /3401 10241 29075 30020 90520 333 60000
OOXX PAP50 07051 99090 70795 ///// 00901 26/// /3101 10242 29075 30020 90530 333 60000
OOXX PAP50 07051 99090 70795 ///// 00901 26/// /3001 10240 29077 30019 90540 333 60000
OOXX MYP42 07041 99045 11014 ///// 15551 26/// /3610 10222 29057 38466 90414 333 60000
OOXX MYP42 07041 99045 11014 ///// 15551 26/// /0904 10221 29057 38464 90424 333 60000
OOXX MYP42 07041 99045 11014 ///// 15551 26/// /0306 10221 29057 38462 90434 333 60000
OOXX MYP42 07041 99045 11014 ///// 15551 26/// /0611 10214 29060 38462 90444 333 60000
OOXX MYP42 07041 99045 11014 ///// 15551 26/// /0411 10211 29062 38458 90454 333 60000
OOXX MYP42 07051 99045 11014 ///// 15551 26/// /0809 10208 29063 38462 90504 333 60000
OOXX MYP42 07051 99045 11014 ///// 15551 26/// /1311 10212 29062 38455 90514 333 60000
OOXX MYP42 07051 99045 11014 ///// 15551 26/// /0104 10219 29058 38455 90524 333 60000
OOXX MYP42 07051 99045 11014 ///// 15551 26/// /0210 10222 29057 38462 90534 333 60000
OOXX MYP42 07051 99045 11014 ///// 15551 26/// /0806 10217 29058 38453 90544 333 60000
OOXX MYP42 07051 99045 11014 ///// 15551 26/// /0207 10218 29056 38447 90554 333 60000
OOXX MYP42 07061 99045 11014 ///// 15551 26/// /0609 10225 29058 38451 90604 333 60000
OOXX GBP67 07041 99159 50057 ///// 04381 26/// /1004 10167 29090 39672 90420 333 60000
OOXX GBP67 07041 99159 50057 ///// 04381 26/// /1004 10167 29089 39671 90430 333 60000
OOXX GBP67 07041 99159 50057 ///// 04381 26/// /0904 10166 29089 39670 90440 333 60000
OOXX GBP67 07041 99159 50057 ///// 04381 26/// /1004 10165 29087 39670 90450 333 60000
OOXX GBP67 07051 99159 50057 ///// 04381 26/// /0904 10166 29086 39673 90500 333 60000
OOXX GBP67 07051 99159 50057 ///// 04381 26/// /0904 10166 29087 39672 90510 333 60000
OOXX GBP67 07051 99159 50057 ///// 04381 26/// /0904 10167 29088 39672 90520 333 60000
OOXX GBP67 07051 99159 50057 ///// 04381 26/// /0904 10168 29085 39674 90530 333 60000
OOXX GBP67 07051 99159 50057 ///// 04381 26/// /0904 10167 29085 39675 90540 333 60000
OOXX GBP67 07051 99159 50057 ///// 04381 26/// /1004 10167 29087 39678 90550 333 60000
OOXX GBP67 07061 99159 50057 ///// 04381 26/// /0904 10167 29088 39678 90600 333 60000
OOXX GBP67 07061 99159 50057 ///// 04381 26/// /0904 10168 29085 39677 90610 333 60000
OOXX FRP31 07041 99052 70527 ///// 00091 26/// /0405 10260 29088 30199 90414 333 60000
OOXX FRP31 07041 99052 70527 ///// 00091 26/// /0406 10259 29088 30198 90424 333 60000
OOXX FRP31 07041 99052 70527 ///// 00091 26/// /0406 10258 29089 30198 90434 333 60000
OOXX FRP31 07041 99052 70527 ///// 00091 26/// /0405 10258 29089 30197 90444 333 60000
OOXX FRP31 07041 99052 70527 ///// 00091 26/// /0406 10258 29088 30196 90454 333 60000
OOXX FRP31 07051 99052 70527 ///// 00091 26/// /0405 10258 29087 30195 90504 333 60000
OOXX FRP31 07051 99052 70527 ///// 00091 26/// /0406 10258 29087 30194 90514 333 60000
OOXX FRP31 07051 99052 70527 ///// 00091 26/// /0506 10259 29086 30194 90524 333 60000
OOXX FRP31 07051 99052 70527 ///// 00091 26/// /0505 10260 29086 30191 90534 333 60000
OOXX FRP31 07051 99052 70527 ///// 00091 26/// /0405 10260 29087 30191 90544 333 60000
OOXX FRP31 07051 99052 70527 ///// 00091 26/// /0405 10260 29087 30190 90554 333 60000
OOXX FRP31 07061 99052 70527 ///// 00091 26/// /0406 10261 29086 30191 90604 333 60000
OOXX KIP39 07041 99020 51574 ///// 00181 26/// /0904 10264 29085 30095 90420 333 60000
OOXX KIP39 07041 99020 51574 ///// 00181 26/// /0904 10262 29085 30097 90430 333 60000
OOXX KIP39 07041 99020 51574 ///// 00181 26/// /0904 10261 29086 30098 90440 333 60000
OOXX KIP39 07041 99020 51574 ///// 00181 26/// /0904 10261 29086 30099 90450 333 60000
OOXX KIP39 07051 99020 51574 ///// 00181 26/// /0904 10261 29086 30099 90500 333 60000
OOXX KIP39 07051 99020 51574 ///// 00181 26/// /0904 10262 29086 30100 90510 333 60000
OOXX KIP39 07051 99020 51574 ///// 00181 26/// /0904 10261 29086 30102 90520 333 60000
OOXX KIP39 07051 99020 51574 ///// 00181 26/// /0904 10261 29087 30104 90530 333 60000
OOXX KIP39 07051 99020 51574 ///// 00181 26/// /0805 10262 29087 30105 90540 333 60000
OOXX KIP39 07051 99020 51574 ///// 00181 26/// /0904 10260 29087 30106 90550 333 60000
OOXX KIP39 07061 99020 51574 ///// 00181 26/// /0904 10261 29088 30107 90600 333 60000
OOXX KIP39 07061 99020 51574 ///// 00181 26/// /0904 10260 29087 30109 90610 333 60000
OOXX CAP14 07041 99487 71234 ///// 00431 26/// /1302 10047 29082 30188 90440 333 60000
OOXX CAP14 07041 99487 71234 ///// 00431 26/// /1202 10046 29082 30189 90450 333 60000
OOXX CAP14 07051 99487 71234 ///// 00431 26/// /1302 10046 29081 30190 90500 333 60000
OOXX CAP14 07051 99487 71234 ///// 00431 26/// /1202 10045 29082 30188 90510 333 60000
OOXX CAP14 07051 99487 71234 ///// 00431 26/// /1203 10045 29083 30191 90520 333 60000
OOXX CAP14 07051 99487 71234 ///// 00431 26/// /1203 10045 29083 30192 90530 333 69920
OOXX CAP14 07051 99487 71234 ///// 00431 26/// /1203 10044 29083 30194 90540 333 60000
OOXX CAP14 07051 99487 71234 ///// 00431 26/// /1203 10045 29083 30193 90550 333 60000
OOXX CAP14 07061 99487 71234 ///// 00431 26/// /1203 10045 29083 30195 90600 333 60000
OOXX CAP14 07061 99487 71234 ///// 00431 26/// /1203 10044 29082 30196 90610 333 60000
OOXX CAP14 07061 99487 71234 ///// 00431 26/// /1203 10045 29081 30196 90620 333 60000
OOXX CAP14 07061 99487 71234 ///// 00431 26/// /1203 10045 29081 30197 90630 333 60000
OOXX MRP43 07041 99181 70159 ///// 00101 26/// /2903 10162 29023 30157 90450 333 60000
OOXX MRP43 07051 99181 70159 ///// 00101 26/// /3102 10161 29023 30159 90500 333 60000
OOXX MRP43 07051 99181 70159 ///// 00101 26/// /3302 10162 29023 30157 90510 333 60000
OOXX MRP43 07051 99181 70159 ///// 00101 26/// /3602 10163 29022 30156 90520 333 60000
OOXX MRP43 07051 99181 70159 ///// 00101 26/// /0202 10163 29022 30155 90530 333 60000
OOXX MRP43 07051 99181 70159 ///// 00101 26/// /0201 10164 29022 30157 90540 333 60000
OOXX MRP43 07051 99181 70159 ///// 00101 26/// /0402 10167 29022 30157 90550 333 60000
OOXX MRP43 07061 99181 70159 ///// 00101 26/// /0502 10167 29022 30157 90600 333 60000
OOXX MRP43 07061 99181 70159 ///// 00101 26/// /0602 10163 29022 30154 90610 333 60000
OOXX MRP43 07061 99181 70159 ///// 00101 26/// /0402 10163 29023 30155 90620 333 60000
OOXX MRP43 07061 99181 70159 ///// 00101 26/// /0402 10165 29022 30157 90630 333 60000
OOXX MRP43 07061 99181 70159 ///// 00101 26/// /0302 10165 29022 30156 90640 333 60000
OOXX AUP09 07041 99124 31309 ///// 00321 26/// ///// 1//// 29/// 3//// 90451 333 6///0
OOXX AUP09 07051 99124 31309 ///// 00321 26/// ///// 1//// 29/// 3//// 90501 333 6///0
OOXX AUP09 07051 99124 31309 ///// 00321 26/// ///// 1//// 29/// 3//// 90511 333 6///0
OOXX AUP09 07051 99124 31309 ///// 00321 26/// ///// 1//// 29/// 3//// 90521 333 6///0
OOXX AUP09 07051 99124 31309 ///// 00321 26/// ///// 1//// 29/// 3//// 90531 333 6///0
OOXX AUP09 07051 99124 31309 ///// 00321 26/// ///// 1//// 29/// 3//// 90541 333 6///0
OOXX AUP09 07051 99124 31309 ///// 00321 26/// ///// 1//// 29/// 3//// 90551 333 6///0
OOXX AUP09 07061 99124 31309 ///// 00321 26/// ///// 1//// 29/// 3//// 90601 333 6///0
OOXX AUP09 07061 99124 31309 ///// 00321 26/// ///// 1//// 29/// 3//// 90611 333 6///0
OOXX AUP09 07061 99124 31309 ///// 00321 26/// ///// 1//// 29/// 3//// 90621 333 6///0
OOXX AUP09 07061 99124 31309 ///// 00321 26/// ///// 1//// 29/// 3//// 90631 333 6///0
OOXX AUP09 07061 99124 31309 ///// 00321 26/// ///// 1//// 29/// 3//// 90641 333 6///0
OOXX NZP46 07041 99438 51765 ///// 00221 26/// /3509 10183 29086 30113 90440 333 60000
OOXX NZP46 07041 99438 51765 ///// 00221 26/// /3509 10181 29087 30113 90450 333 60000
OOXX NZP46 07051 99438 51765 ///// 00221 26/// /3508 10179 29087 30114 90500 333 60000
OOXX NZP46 07051 99438 51765 ///// 00221 26/// /3508 10176 29089 30114 90510 333 60000
OOXX NZP46 07051 99438 51765 ///// 00221 26/// /3508 10173 29090 30114 90520 333 60000
OOXX NZP46 07051 99438 51765 ///// 00221 26/// /3508 10172 29091 30114 90530 333 60000
OOXX NZP46 07051 99438 51765 ///// 00221 26/// /3507 10171 29091 30115 90540 333 60000
OOXX NZP46 07051 99438 51765 ///// 00221 26/// /3507 10171 29092 30116 90550 333 60000
OOXX NZP46 07061 99438 51765 ///// 00221 26/// /3507 10170 29092 30116 90600 333 60000
OOXX NZP46 07061 99438 51765 ///// 00221 26/// /3508 10170 29092 30119 90610 333 60000
OOXX NZP46 07061 99438 51765 ///// 00221 26/// /3508 10169 29093 30120 90620 333 60000
OOXX NZP46 07061 99438 51765 ///// 00221 26/// /3508 10169 29093 30121 90630 333 60000
OOXX RUP60 07051 99531 11588 ///// 00651 26/// /3403 11094 29049 30026 90502 333 60000
OOXX RUP60 07051 99531 11588 ///// 00651 26/// /3101 11102 29051 30027 90512 333 60000
OOXX RUP60 07051 99531 11588 ///// 00651 26/// /0000 11112 29054 30028 90522 333 60000
OOXX RUP60 07051 99531 11588 ///// 00651 26/// /3002 11118 29056 30028 90532 333 60000
OOXX RUP60 07051 99531 11588 ///// 00651 26/// /2606 11132 29058 30027 90542 333 60000
OOXX RUP60 07051 99531 11588 ///// 00651 26/// /3101 11139 29062 30028 90552 333 60000
OOXX RUP60 07061 99531 11588 ///// 00651 26/// /2605 11145 29062 30028 90602 333 60000
OOXX RUP60 07061 99531 11588 ///// 00651 26/// /3102 11148 29064 30027 90612 333 60000
OOXX RUP60 07061 99531 11588 ///// 00651 26/// /3101 11154 29065 30027 90622 333 60000
OOXX RUP60 07061 99531 11588 ///// 00651 26/// /3201 11159 29067 30028 90632 333 60000
OOXX RUP60 07061 99531 11588 ///// 00651 26/// /3102 11160 29072 30028 90642 333 60000
OOXX RUP60 07061 99531 11588 ///// 00651 26/// /3001 11161 29071 30028 90652 333 60000
OOXX FJP26 07041 99178 31775 ///// 00311 26/// /0802 10252 29092 30021 90430 333 60000
OOXX FJP26 07041 99178 31775 ///// 00311 26/// /1002 10251 29094 30021 90440 333 60000
OOXX FJP26 07041 99178 31775 ///// 00311 26/// /0702 10253 29093 30021 90450 333 60000
OOXX FJP26 07051 99178 31775 ///// 00311 26/// /0802 10253 29093 30023 90500 333 60000
OOXX FJP26 07051 99178 31775 ///// 00311 26/// /0602 10253 29093 30024 90510 333 60000
OOXX FJP26 07051 99178 31775 ///// 00311 26/// /1002 10254 29093 30024 90520 333 60000
OOXX FJP26 07051 99178 31775 ///// 00311 26/// /0702 10253 29093 30024 90530 333 60000
OOXX FJP26 07051 99178 31775 ///// 00311 26/// /0501 10254 29093 30024 90540 333 60000
OOXX FJP26 07051 99178 31775 ///// 00311 26/// /0702 10255 29093 30025 90550 333 60000
OOXX FJP26 07061 99178 31775 ///// 00311 26/// /0902 10254 29093 30026 90600 333 60000
OOXX FJP26 07061 99178 31775 ///// 00311 26/// /1202 10253 29094 30027 90610 333 60000
OOXX FJP26 07061 99178 31775 ///// 00311 26/// /0901 10252 29095 30028 90620 333 60000
AAXX 07064 91559 46/// /9901 10280 40057 22200 00293
AAXX 07064 71463 46/// /2407 10056 20013 39829 40050 58016 6///1 333 10065 20041 7//// 555 32436 40153
AAXX 07064 71710 16/// /2306 11065 21111 30110 40120 55005 60001 333 11031 21083 70000 555 32728 40112
AAXX 07064 71724 16/// /0803 11075 21087 30046 40054 55004 60001 333 11072 21167 70015 555 30619 40231
AAXX 07061 08568 32/// /0000 10047 20024 38735 48602 57003 333 20047 30102 5//// 55079 21294 555 60005
AAXX 07064 16754 11565 71808 10102 20073 39945 49991 52009 60092 70262 82270 333 20096 31/// 50400 55016 70232 82825 87358 90730 91115 555 10000 30144 20000 89054 99089 40000 47487 44180 50000 50088 60000 60085 60400 70000 77/// 7R///
BBXX CFO383 07064 99439 70602 47899 /9902 10013 2105/ 40142 5//// 700// 8//// 22200 00065 10702 2//// 70012 81005 333 91006
BBXX CFO383 07064 99439 70602 47899 /9902 10013 2105/ 40142 5//// 700// 8//// 22200 00065 10702 2//// 70012 81005 333 91006
AAXX 07064 89016 46/// /1007 29074 39428 4//// 5////
AAXX 07064 91531 46/// /0106 1//// 40068 22200 00275
BBXX A8SZ5 07064 99370 11233 41497 33212 10050 20003 40360 54000 703// 8/11/ 22273 00/// 2//03 80030
BBXX VRFH2 07063 99430 71443 41296 82030 10140 20100 40080 52020 75122 88672 22224 00130 20707 314// 40707 80120
BBXX VRBK6 07064 99016 11044 41597 53420 10270 2023/ 40120 54000 75052 8516/ 22200 00280 20804 302// 40804 5//// 6//// 80240 ICE /////
BBXX 44030 07061 99432 70704 46/// /3501 1//// 40068 54000 90604 22200 00076 10601 70007 333 91202 555 11013 22014
AAXX 07064 71577 46/// /0205 11082 21099 6///1 333 11014 21082 7//// 555 33419 40211
AAXX 07064 71016 16/// ///// 11042 60001 333 10007 21042 70000
BBXX 44056 07061 99362 70757 46/// ///// 1//// 90620 22200 00109 11101 21001 70004
BBXX 42085 07061 99179 70665 46/// /0504 10260 40149 57010 90600 22200 00270 10501 70007 333 91205
BBXX 46109 07061 99481 71234 46/// /1703 10050 40250 90557 22200 00080
BBXX 46110 07061 99481 71230 46/// /0803 10051 40253 90558
BBXX 42360 07061 99267 70905 46/// /1606 10217 90600 22200 00235 10301 70007 333 91208
BBXX 44055 07061 99391 70753 46/// ///// 1//// 90630 22200 00060 1//00 70002
AAXX 07064 62600 32970 03605 10120 20015 39963 40190 333 10205 20085 59021
AAXX 07064 62640 32970 00214 10145 21010 39776 40146 333 10280 20124 59003
AAXX 07064 62641 32970 73406 10240 20124 30101 40154 87070 333 10264 20222 56090 59010 87365
AAXX 07064 62650 32970 03606 10105 21020 39895 40178 333 10242 20087 59005
AAXX 07064 62660 32970 03405 10140 2000 039868 40179 333 10267 20120 59002
AAXX 07064 62680 31965 73610 10165 20025 39538 40142 70622 80007 333 10360 20145 56009 58002 87275
AAXX 07064 62721 32970 73607 10170 21080 39699 40150 80007 333 10295 20168 56009 59007 87275
AAXX 07064 62730 32970 03603 10215 20140 39580 40151 333 10350 20180 59018
AAXX 07064 62750 32970 73610 10190 20000 39688 40129 80007 333 10310 20160 56009 58001 87275
AAXX 07064 62751 32970 70206 10202 21026 39685 40151 80007 333 10345 20126 56009 59002 87275
AAXX 07064 62752 32970 00903 10227 20101 39433 40110 333 10363 20205 59018
AAXX 07064 62760 32970 70403 10142 21060 39309 40146 80007 333 10295 20105 56009 59010 87275
AAXX 07064 62762 32970 70206 10175 20040 39632 40116 80007 333 10343 20120 56009 59010 87275
AAXX 07061 34949 31904 31201 11056 21061 39605 40172 53014 69920 74840 83030 333 21071 93612
BBXX C6VG7 07064 99218 70857 41/// ///// 1//// 2//// 4//// 5//// 7//// 8//// 222// 0//// 2//// 3//// 4//// 5//// 6//// 8//// ICE /////
BBXX PHET 07061 99133 70601 41/98 /3109 10261 20200 40130 58010 78088 8//// 22232 00270 2//// 3//// 4//// 5////
BBXX 42360 07061 99267 70905 46/// /1606 10217 90600 22200 00235 10301 70007 333 91208
BBXX 44055 07061 99391 70753 46/// ///// 1//// 90630 22200 00060 1//00 70002
BBXX 46109 07061 99481 71234 46/// /1703 10050 40250 90557 22200 00080
BBXX 46110 07061 99481 71230 46/// /0803 10051 40253 90558
BBXX 42085 07061 99179 70665 46/// /0504 10260 40149 57010 90600 22200 00270 10501 70007 333 91205
BBXX 44056 07061 99362 70757 46/// ///// 1//// 90620 22200 00109 11101 21001 70004
BBXX 44030 07061 99432 70704 46/// /3501 1//// 40068 54000 90604 22200 00076 10601 70007 333 91202 555 11013 22014
BBXX CFO383 07064 99439 70602 47899 /9902 10013 2105/ 40142 5//// 700// 8//// 22200 00065 10702 2//// 70012 81005 333 91006
BBXX PHET 07061 99133 70601 41/98 /3109 10261 20200 40130 58010 78088 8//// 22232 00270 2//// 3//// 4//// 5////
BBXX VRBK6 07064 99016 11044 41597 53420 10270 2023/ 40120 54000 75052 8516/ 22200 00280 20804 302// 40804 5//// 6//// 80240 ICE /////
AAXX 07064 89610 46/// /0410 11053 39630 4//// 5//// 333 90700 91113
AAXX 07064 89610 46/// /0410 11053 39630 4//// 5//// 333 90700 91113
AAXX 07064 89610 46/// /0410 11053 39630 4//// 5//// 333 90700 91113
AAXX 07064 71018 16/// ///03 11335 21372 39945 40037 58003 60001 333 11306 21361 70000
AAXX 07064 62771 32970 73411 10160 21040 39494 40158 80007 333 10285 20140 56009 59006 87275
AAXX 07064 62772 32970 03607 10192 20016 39697 40138 333 10320 20173 59014
AAXX 07064 62781 32970 70404 10165 21010 39501 40151 80007 333 10314 20137 56009 59005 87275
AAXX 07064 62790 32970 70110 10176 20000 39415 40145 80007 333 10305 20126 56009 59005 87275
AAXX 07064 62795 32970 73603 10215 20045 39612 40119 80007 333 10365 20172 56009 59012 87275
AAXX 07064 62805 32970 73204 10210 20065 39569 40106 80007 333 10355 20170 56009 59021 87275
AAXX 07064 92036 46/// /3204 10293 40071 22200 00309
AAXX 0706/ 89799 46/// ///// 11246 4//// 5//// 90640
BBXX 63106 07064 99610 10017 46/// /2826 10069 49921 53001 22200
BBXX 63113 07064 99610 10017 46/// /3023 10073 20020 49936 50003 22200 10707 70034
BBXX 62103 07064 99499 70029 46/97 /2930 10109 20097 40236 57005 22200 00115 10604 70018 333 90710 91137
BBXX 42043 07061 99290 70949 46/// /1703 1//// 40157 90630 22200 00151 333 91203
BBXX 42043 07061 99290 70949 46/// /1703 1//// 40159 90600 22200 00151 333 91203
AAXX 07063 63661 32980 70904 10183 20118 48552 80001 333 20102 59006 87079
BBXX 42045 07061 99262 70965 46/// /1806 10180 40150 90630 22200 00173 333 91206
BBXX 42045 07061 99262 70965 46/// /1805 10178 40152 90600 22200 00173 333 91205
BBXX 42046 07061 99279 70940 46/// /1607 1//// 40164 90630 22200 00218 333 91208
BBXX 42046 07061 99279 70940 46/// /1606 1//// 40165 90600 22200 00218 333 91207
AAXX 07064 64501 32358 72104 10260 20237 3//// 4//// 878// 333 0//00 20258 50314 55081 5//// 84808 87626 94919 95839
AAXX 07064 64550 32470 8//// 10240 20225 30/// 40/// 885// 333 02200 20230 50114 55/// 5//// 84613 88620
AAXX 07063 64450 32158 30000 10228 20216 39754 40107 81130 333 02100 20225 50184 55014 59010 81703
AAXX 07063 64453 32260 82204 10219 20213 39/// 40/// 8667/ 333 02100 20212 50024 55041 5//// 86705 88363
AAXX 07064 60107 32965 21804 10065 21004 40262 53005 80002 333 20059 31004 82070 95300
AAXX 07063 64910 31412 70000 10245 20238 30108 40117 71022 86302 333 01900 20245 50261 55052 59003 86616 81920 87080 94945 95835
AAXX 07063 64910 31412 70000 10245 20238 30108 40117 71022 86302 333 01900 20245 50261 55052 59003 86616 81920 87080 94945 95835
AAXX 07064 64501 32358 72104 10260 20237 3//// 4//// 878// 333 0//00 20258 50314 55081 5//// 84808 87626 94919 95839
AAXX 07064 64550 32470 8//// 10240 20225 30/// 40/// 885// 333 02200 20230 50114 55/// 5//// 84613 88620
AAXX 07061 89108 46/// ///// 11199 36884 4//// 5////
AAXX 07061 89869 46/// ///// 11026 39658 4//// 5////
AAXX 07061 89866 46/// ///// 10006 39632 4//// 5////
AAXX 07061 89329 46/// ///// 11080 38638 4//// 5////
AAXX 07061 89332 46/// ///// 11048 39103 4//// 5////
AAXX 07061 89314 46/// ///// 11095 38133 4//// 5////
AAXX 07064 67002 31580 83615 10296 20239 30101 40134 60304 85870 333 58000 82820 85630 92417
AAXX 07064 67009 12582 11406 10290 20232 30010 40129 52009 60134 81800 333 02219 10305 20230 50184 55011 81820 555 81640
AAXX 07064 67012 32582 30208 10298 20251 30111 40122 51010 82202 333 0//00 10312 20237 50224 55/// 82820 555 82075
AAXX 07064 67025 12580 60000 10301 20238 30019 40118 50003 69944 85930 333 0//53 10312 20238 50174 55/// 82820 81920 84640 94971 94972 95831 95832 555 82360
AAXX 07064 67027 11582 51014 10280 20246 30089 40110 50004 60284 81232 333 02019 10298 20232 50204 55010 81820 84073 555 82360
AAXX 07064 67045 NIL
AAXX 07064 67072 11470 62206 10279 20242 30131 40134 51009 60034 71522 86200 333 02209 10296 20256 50204 55/// 86817 92418
AAXX 07064 67073 11565 8//// 10238 20229 30066 40092 50004 60684 76062 8287/ 333 0//11 10255 20234 50//4 55/// 81820 88460 555 82633
AAXX 07064 67083 11480 71602 10204 20184 38741 48715 54001 60014 70162 8385/ 333 01813 20176 50184 55009 82817 87360
AAXX 07064 67085 NIL
AAXX 07064 67095 11470 72006 10278 20245 30121 40127 51006 69964 71522 878// 333 02219 10317 20226 50284 55/// 84817 86653
AAXX 07064 67113 12580 7//// 10276 20236 30/// 40/// 5//// 6//// 84836 333 0//// 10291 20218 50154 55/// 83820 86273 555 82640 82360
AAXX 07064 67117 NIL
AAXX 07064 67137 11260 80000 10191 20179 38906 48508 51010 60094 76162 8287/ 333 0//10 10244 20181 50184 55/// 81707 82817 88460 555 81620
AAXX 07064 67143 32580 6//// 10/// 20/// 30122 40129 52008 86800 333 0//00 10/// 20/// 50//4 55/// 81820 85633 92438
AAXX 07064 67152 11480 7//// 10220 20205 39205 48512 51008 60134 7216/ 84830 333 01911 10308 20209 50404 55/// 84817 555 82620 83358
AAXX 07064 67157 11580 6//// 10/// 20/// 30153 40160 53010 60044 71562 86800 333 0//17 10/// 20/// 50//4 55/// 82820 86633
AAXX 07064 67161 32582 70000 10315 20220 30099 40108 51010 81232 333 0//00 10340 29239 50354 55/// 81820 83360 86073
AAXX 07064 67197 32582 10812 10272 20232 30120 40130 52011 83850 333 01600 10309 20244 50644 55116 82820 85360 555 82633
AAXX 07064 91689 46/// /2005 10257 40048 22200 00294
AAXX 07064 67017 NIL
AAXX 07064 67020 12582 40000 10285 20250 30089 40116 51008 60534 84902 333 023// 10319 20235 50164 55/// 81820 81920 84640 94977 95837 555 81073
AAXX 07064 67023 32582 61006 10306 20242 30115 40121 51003 82932 333 02000 10298 20210 50284 55/// 82820 81920 84360 94972 95812 555 81073
AAXX 07064 67037 11565 8//// 10/// 20/// 30045 40806 5/010 60384 71796 8497/ 333 0//51 10/// 20/// 50//4 55/// 81820 81920 84633 88458 94966 95836
AAXX 07064 67067 NIL
AAXX 07064 67107 NIL
AAXX 07064 67131 12582 70606 10/// 20/// 30097 40102 51004 60064 878// 333 0//69 10/// 20/// 50//4 55/// 81820 87640
BBXX VRDT5 07063 99079 31195 41497 82720 10270 2024/ 40120 54000 7//65 8825/ 22263 00280 20805 39999 41206 51206 6//// 80250 ICE /////
BBXX 42046 07061 99279 70940 46/// /1607 1//// 40164 90630 22200 00218 333 91208
BBXX 42046 07061 99279 70940 46/// /1606 1//// 40165 90600 22200 00218 333 91207
BBXX 42045 07061 99262 70965 46/// /1805 10178 40152 90600 22200 00173 333 91205
BBXX 42045 07061 99262 70965 46/// /1806 10180 40150 90630 22200 00173 333 91206
BBXX 42043 07061 99290 70949 46/// /1703 1//// 40159 90600 22200 00151 333 91203
BBXX 42043 07061 99290 70949 46/// /1703 1//// 40157 90630 22200 00151 333 91203
BBXX A8QM9 07064 99263 70783 41498 31707 10200 20153 40220 54000 70311 83145 22200 2//// 30000 80170
BBXX C6VG7 07064 99218 70857 41/// ///// 1//// 2//// 4//// 5//// 7//// 8//// 222// 0//// 2//// 3//// 4//// 5//// 6//// 8//// ICE /////
BBXX VRDT5 07063 99079 31195 41497 82720 10270 2024/ 40120 54000 7//65 8825/ 22263 00280 20805 39999 41206 51206 6//// 80250 ICE /////
AAXX 07063 63680 32458 43306 10205 20168 38850 48/// 81105 333 20164 58005 81820 83280 555 10168
AAXX 07063 63680 32458 43306 10205 20168 38850 48/// 81105 333 20164 58005 81820 83280 555 10168
AAXX 07064 89272 46/// /0708 11121 21143 37989 49616 5//// 90610
AAXX 07064 89667 46/// /0408 11012 29068 39725 4//// 5//// 90640
AAXX 0706/ 89869 46/// ///// 11033 39661 4//// 5//// 90640
AAXX 0706/ 89866 46/// ///// 10008 39632 4//// 5//// 90640
AAXX 0706/ 89332 46/// ///// 11049 39106 4//// 5//// 90640
AAXX 0706/ 89828 46/// ///// 11233 36410 4//// 5//// 90640
AAXX 0706/ 89108 46/// ///// 11198 36887 4//// 5//// 90640
AAXX 0706/ 89314 46/// ///// 11104 38134 4//// 5//// 90640
AAXX 07061 37470 32598 73102 10051 20021 30187 40165 52027 86530 333 20035
AAXX 07061 37472 32597 82604 10034 20002 30190 40167 52021 8657/ 333 20011
AAXX 07061 38111 32697 61110 11017 21051 30220 40191 53017 86500 333 21025
AAXX 07061 38750 32997 32502 10019 21012 30221 40192 52006 83030 333 20006
AAXX 07064 04418 NIL
AAXX 07064 04425 NIL
AAXX 07064 04432 NIL
AAXX 07064 04436 NIL
AAXX 07064 04464 46/// /1516 11334 21366 333 553// 20004
AAXX 07064 04485 NIL
AAXX 07064 04488 NIL
AAXX 07064 89013 46/// /0805 11212 21240 37613 49644 57001 90600
AAXX 07064 89065 46/// /1606 11016 21021 39697 49774 57002 90600
AAXX 07064 89262 46/// /2305 11016 21019 39739 49782 57004 90600
AAXX 07064 89272 46/// /0808 11121 21144 37989 49616 52002 90600
BBXX SKEC 07061 99555 10127 46/// ///// 10026 49978 57028 22234 00062
AAXX 07064 89528 46/// /3519 4//// 5////
AAXX 07064 89628 46/// /3127 4//// 5////
AAXX 07061 98132 NIL
AAXX 07061 98133 11467 63605 10/// 20/// 40167 5//// 60011 70564 83270 222// 20703 333 56899 83818 83360
AAXX 07061 98222 31575 53605 10274 20229 40135 58020 70544 81236 333 56899 81820
AAXX 07061 98233 31570 63603 10275 20228 40149 57028 70544 83570 333 56199 83620 86358
AAXX 07061 98324 31465 73202 10300 20250 40124 57030 70544 83270 333 56299 83816 87358
AAXX 07061 98327 31670 80604 10284 20204 39962 40137 57033 70544 8427/ 333 56999 84836 88360
AAXX 07061 98334 11465 80000 10225 20225 39950 40153 57020 60131 76066 885// 333 56999 88615
AAXX 07061 98425 11559 83202 10294 20235 40127 57023 69901 78084 8487/ 333 56199 84620 88358
AAXX 07061 98426 31570 40705 10286 20221 40136 57024 70544 84200 333 56999 84830
AAXX 07061 98427 11480 60204 10280 20246 39940 40118 57024 69901 70282 83260 333 56119 83820 85356
AAXX 07061 98428 31462 83604 10300 20247 40123 57028 71544 8347/ 333 56199 83618 88359
AAXX 07061 98432 31568 50404 10309 20244 40121 57039 69901 70584 83272 333 56999 83820
AAXX 07061 98433 11460 70710 10225 20215 39409 40133 57023 69911 78082 87800 333 56199 87612
AAXX 07061 98434 11460 73602 10265 20252 30129 40137 58028 60041 76166 84870 333 56199 84817 87357
AAXX 07061 98435 32472 70404 10270 20238 40116 5//// 84270 333 56199 84818 87358
AAXX 07061 98442 NIL
AAXX 07061 98446 32480 70902 10294 20258 30080 40126 57020 83208 333 56199 83818 87270
AAXX 07061 98447 31475 70906 10274 20243 39862 40126 5//// 70544 83270 333 56299 83818 87357
AAXX 07061 98538 31466 53603 10295 20263 30112 40117 58026 70544 82206 333 56199 82811 84072 98132 11462 70206 10223 20209 40215 56020 69951 70584 84270 333 56191 84816 86357
AAXX 07061 98546 11460 80704 10280 20268 30102 40110 57026 69951 78082 84967 333 56199 84915 88275
AAXX 07061 98548 11475 50702 10310 20261 30092 40098 58017 60021 70182 83208 333 56199 83816 84272 98323
AAXX 07061 98553 11462 80403 10282 20266 30109 40109 58020 60061 72186 85907 333 56199 82915 83818 88272
AAXX 07061 98558 11466 70710 10272 20264 40104 58035 60021 72584 83978 222// 20604 333 56199 82915 84357
AAXX 07061 98642 NIL
AAXX 07061 98644 11465 73202 10305 20260 30092 40101 57024 60011 70564 82268 333 56299 82817 83358 87272
AAXX 07061 98648 11470 50903 10292 20269 30025 40107 57026 60021 70584 82232 333 56299 82817 84072
AAXX 07061 98746 31465 71205 10333 20259 40084 58026 70544 83278 333 56999 83818 85358 86275
AAXX 07061 98751 11475 70000 10280 20241 39420 40088 57029 60021 70544 83261 333 56399 83815 84356
AAXX 07061 98752 11463 73403 10307 20263 40104 57026 60031 71562 83978 333 56199 83916 84358 86275
AAXX 07061 98851 31470 81802 10328 20255 39935 40083 57028 71544 8397/ 333 56299 83918 88358
AAXX 07064 89065 46/// /1606 11016 21021 39697 49774 57002 90600
BBXX 63106 07064 99610 10017 46/// /2826 10069 49921 53001 22200
BBXX 63105 07064 99610 10017 47597 ///// 10076 20024 49919 52001 700// 22200
BBXX 62103 07064 99499 70029 46/98 ///30 10112 20098 40236 57008 22200 00115 10603 70017 333 90710 91139
BBXX SKEC 07061 99555 10127 46/// ///// 10026 49978 57028 22234 00062
AAXX 07064 97790 32564 60000 10309 20268 30035 40055 57021 81236 333 56000 57803 81821 80858
AAXX 07064 71408 46/// /2919 11049 21103 30023 40103 53011 6///1 333 7////
AAXX 07064 60515 11660 30000 10065 20017 40273 53010 60004 700// 83400 333 00000 20046 83633 95990
BBXX 42369 07061 99272 70903 46/// /2005 1//// 90540 22200 10401 70007
BBXX 42370 07061 99273 70905 46/// ///// 10208 90540 22200 10402 70008
BBXX 42376 07061 99291 70879 46/// /0000 10200 40205 90540 22200 10101 70003
BBXX 42392 07061 99272 70900 46/// ///// 1//// 90540 22200 10401 70006
BBXX 42887 07061 99282 70885 46/// /0504 10199 90540 22200 10401 70005
BBXX 42370 07061 99273 70905 46/// ///// 10208 90540 22200 10402 70008
BBXX 42369 07061 99272 70903 46/// /2005 1//// 90540 22200 10401 70007
BBXX ZCBV6 07064 99042 31179 41298 52824 10301 20288 40111 50/// 70211 83140 22213 00/// 20604 334// 40604 80291
AAXX 0706/ 89872 46/// ///// 11019 39667 4//// 5//// 90620
AAXX 0706/ 89869 46/// ///// 11033 39660 4//// 5//// 90620
AAXX 0706/ 89866 46/// ///// 10005 39628 4//// 5//// 90620
AAXX 0706/ 89799 46/// ///// 11249 4//// 5//// 90610
AAXX 0706/ 89799 46/// ///// 11249 4//// 5//// 90620
AAXX 0706/ 89868 46/// ///// 11036 39649 4//// 5//// 90620
AAXX 0706/ 89769 46/// ///// 11024 39690 4//// 5//// 90620
AAXX 0706/ 89314 46/// ///// 11100 38134 4//// 5//// 90620
AAXX 0706/ 89327 46/// ///// 11020 39473 4//// 5//// 90620
AAXX 0706/ 89108 46/// ///// 11203 36885 4//// 5//// 90610
BBXX 63106 07064 99610 10017 46/// /2826 10069 49921 53001 22200
BBXX 63113 07064 99610 10017 46/// /3023 10073 20020 49936 50003 22200 10707 70034
BBXX 62103 07064 99499 70029 46/97 /2930 10109 20097 40236 57005 22200 00115 10604 70018 333 90710 91137
AAXX 0706/ 68902 46/// ///// 40122 52001
BBXX MINFR05 0706/ 99055 10000 46/// ///// 10253 40116 52004
AAXX 07064 87129 32965 20000 10198 20185 39906 40136 57004 82030
AAXX 07064 71522 46/// /0502 11185 21220 39577 40085 58015 6///1 333 11185 21298 70000
AAXX 07064 85930 12597 43206 10080 20040 40110 57010 60001 84500 333 56700 84632
AAXX 07064 71522 46/// /0502 11185 21220 39577 40085 58015 6///1 333 11185 21298 70000
AAXX 07061 23412 11399 81203 11019 21030 40128 54000 69940 70282 887// 333 21029 86707
BBXX MINFR05 0706/ 99055 10000 46/// ///// 10253 40116 52004
BBXX ZCBV6 07064 99042 31179 41298 52824 10301 20288 40111 50/// 70211 83140 22213 00/// 20604 334// 40604 80291
BBXX 42376 07061 99291 70879 46/// /0000 10200 40205 90540 22200 10101 70003
BBXX 42392 07061 99272 70900 46/// ///// 1//// 90540 22200 10401 70006
BBXX 42887 07061 99282 70885 46/// /0504 10199 90540 22200 10401 70005
BBXX A8VL8 07064 99200 11201 41597 70235 10240 20163 40190 57010 70222 877// 22222 00240 20310 30101 40310 50409 6//// 80190 ICE /////
AAXX 07063 87016 12460 80000 10232 20195 39718 40115 58007 69901 8457/ 333 84618
AAXX 07064 91375 46/// /0406 10266 40094 22200 00281
AAXX 07064 60105 31401 80806 10072 20072 40255 5//// 74442 886// 333 20069 31004 88710
BBXX 42369 07061 99272 70903 46/// /2005 1//// 90600 22200 10401 70007
BBXX 42370 07061 99273 70905 46/// ///// 10208 90600 22200 10402 70008
BBXX 42376 07061 99291 70879 46/// /0000 10200 40205 90600 22200 10101 70003
AAXX 07064 71372 16/// /3301 11074 21088 60001 333 11074 21117 70000
AAXX 07064 71382 17/// /2003 11096 21104 39081 40038 56010 60021 7//4/ 333 11096 21297 70060
BBXX A8AD7 07063 99124 70175 41695 43610 10225 20188 40130 50000 70000 83563 22283 02225 2//// 30000 80200
AAXX 07064 71372 16/// /3301 11074 21088 60001 333 11074 21117 70000
AAXX 07064 71382 17/// /2003 11096 21104 39081 40038 56010 60021 7//4/ 333 11096 21297 70060
AAXX 07064 91165 12466 43403 10222 20189 30165 40201 53012 69931 90553
AAXX 07064 91203 32474 80710 10311 20267 30110 40115 56017 82206
AAXX 07064 91212 12566 40617 10294 20233 31387 40119 55012 69901 90554
AAXX 07064 91245 32566 40610 10270 20230 30150 90559
AAXX 07064 91285 32666 42405 10194 20156 30185 40199 53013 90553
AAXX 07064 91317 32474 50910 10300 20278 30078 40082 56010 81101
AAXX 07064 91334 32474 80707 10311 20240 30090 40093 55007 83178
AAXX 07064 91376 32474 80610 10274 20241 30090 40093 53008 85878
AAXX 07064 91408 32474 80912 10304 20238 30049 40087 57015 83278
AAXX 07064 91413 32469 70715 10303 20235 30071 40096 55015 83171
AAXX 07064 91155 NIL
AAXX 07064 91217 NIL
AAXX 07064 91232 NIL
AAXX 07064 91250 NIL
AAXX 07064 91275 NIL
AAXX 07064 91324 NIL
AAXX 07064 91339 NIL
AAXX 07064 91348 NIL
AAXX 07064 91353 NIL
AAXX 07064 91356 NIL
AAXX 07064 91366 NIL
AAXX 07064 91367 NIL
AAXX 07064 91369 NIL
AAXX 07064 91371 NIL
AAXX 07064 91378 NIL
AAXX 07064 91425 NIL
AAXX 07064 91434 NIL
AAXX 07064 91601 NIL
AAXX 07064 91610 NIL
BBXX A8AD7 07063 99124 70175 41695 43610 10225 20188 40130 50000 70000 83563 22283 02225 2//// 30000 80200
BBXX 42392 07061 99272 70900 46/// ///// 1//// 90600 22200 10401 70006
BBXX 42887 07061 99282 70885 46/// /0503 10199 90600 22200 10401 70005
AAXX 07061 89327 46/// ///// 11021 39473 4//// 5//// 90630
AAXX 07061 89828 46/// ///// 11234 36410 4//// 5//// 90630
AAXX 07061 89879 46/// ///// 10063 39685 4//// 5//// 90630
AAXX 07061 89667 46/// ///// 11005 39726 4//// 5//// 90620
AAXX 07061 89667 46/// ///// 11005 39726 4//// 5//// 90610
AAXX 07061 89872 46/// ///// 11016 39668 4//// 5//// 90630
AAXX 07061 89872 46/// ///// 11016 39668 4//// 5//// 90640
AAXX 07061 89869 46/// ///// 11035 39661 4//// 5//// 90630
AAXX 07061 89866 46/// ///// 10001 39632 4//// 5//// 90630
AAXX 07061 89329 46/// ///// 11074 38640 4//// 5//// 90630
AAXX 07061 89329 46/// ///// 11073 38642 4//// 5//// 90640
AAXX 07061 89799 46/// ///// 11246 4//// 5//// 90630
AAXX 07061 89332 46/// ///// 11049 39105 4//// 5//// 90630
AAXX 07061 89769 46/// ///// 11029 39690 4//// 5//// 90630
AAXX 07061 89769 46/// ///// 11029 39691 4//// 5//// 90640
AAXX 07061 89314 46/// ///// 11103 38135 4//// 5//// 90630
BBXX 63106 07064 99610 10017 46/// /2826 10069 49921 53001 22200
BBXX 63105 07064 99610 10017 47597 ///// 10076 20024 49919 52001 700// 22200
BBXX 62103 07064 99499 70029 46/98 ///30 10112 20098 40236 57008 22200 00115 10603 70017 333 90710 91139
AAXX 07061 89872 46/// ///// 11019 39667 4//// 5////
AAXX 07061 89872 46/// ///// 11019 39667 4//// 5//// 90610
AAXX 07061 89869 46/// ///// 11029 39659 4//// 5//// 90610
AAXX 07061 89866 46/// ///// 10005 39632 4//// 5//// 90610
AAXX 07061 89329 46/// ///// 11083 38639 4//// 5//// 90610
AAXX 07061 89329 46/// ///// 11076 38639 4//// 5//// 90620
AAXX 07061 89799 46/// ///// 11249 4//// 5////
AAXX 07061 89868 46/// ///// 11035 39649 4//// 5//// 90610
AAXX 07061 89332 46/// ///// 11048 39103 4//// 5//// 90610
AAXX 07061 89769 46/// ///// 11023 39689 4//// 5////
AAXX 07061 89769 46/// ///// 11024 39690 4//// 5//// 90610
AAXX 07061 89314 46/// ///// 11095 38133 4//// 5//// 90610
AAXX 07061 89327 46/// ///// 11020 39473 4//// 5//// 90610
AAXX 07061 89828 46/// ///// 11236 36411 4//// 5////
AAXX 07061 89879 46/// ///// 10075 39685 4//// 5////
AAXX 07061 89879 46/// ///// 10081 39684 4//// 5//// 90610
AAXX 07064 91165 12466 43403 10222 20189 30165 40201 53012 69931 90553
AAXX 07064 91212 12566 40617 10294 20233 31387 40119 55012 69901 90554
AAXX 07064 91285 32666 42405 10194 20156 30185 40199 53013 90553
AAXX 07064 91317 32474 50910 10300 20278 30078 40082 56010 81101
AAXX 07064 91334 32474 80707 10311 20240 30090 40093 55007 83178
AAXX 07064 91376 32474 80610 10274 20241 30090 40093 53008 85878
AAXX 07064 91408 32474 80912 10304 20238 30049 40087 57015 83278
AAXX 07064 91413 32469 70715 10303 20235 30071 40096 55015 83171
AAXX 07064 91245 32566 40610 10270 20230 30150 90559
BBXX A8AD7 07063 99124 70175 41695 43610 10225 20188 40130 50000 70000 83563 22283 02225 2//// 30000 80200
BBXX A8VL8 07064 99200 11201 41597 70235 10240 20163 40190 57010 70222 877// 22222 00240 20310 30101 40310 50409 6//// 80190 ICE /////
BBXX 42887 07061 99282 70885 46/// /0503 10199 90600 22200 10401 70005
BBXX 42392 07061 99272 70900 46/// ///// 1//// 90600 22200 10401 70006
BBXX 42370 07061 99273 70905 46/// ///// 10208 90600 22200 10402 70008
BBXX 42376 07061 99291 70879 46/// /0000 10200 40205 90600 22200 10101 70003
BBXX 42369 07061 99272 70903 46/// /2005 1//// 90600 22200 10401 70007
BBXX MINUK01 0706/ 99599 70012 46/// ///// 10075 49964 57031
BBXX 64045 07064 99591 70117 46/// /2833 10081 20030 40072 52012 22200 00098 11017 70083 333 90710 91147
BBXX BATEU08 07064 99587 70056 46/// /3437 10077 20032 40033 53006 22251
BBXX 62112 07064 99584 70002 47997 /2917 10070 20036 40008 58002 700// 22200
BBXX 62113 07064 99584 10002 47998 /2925 10070 20029 40009 58006 700// 22200
BBXX 62129 07064 99584 10003 46/// ///// 10069 20029 40005 58004 22200
BBXX 62114 07064 99583 10000 46/// /2831 10069 20020 40002 56004 22200
BBXX PJAI 07064 99581 70014 47597 /2824 10077 20021 40035 53003 700// 22200
BBXX BATUK01 07064 99580 70035 46/// /2833 10059 20012 40048 53016 22251 00077
BBXX 62111 07064 99580 70003 46/// /3031 10072 20027 40042 55002 22200 10606 70028
BBXX MINUK05 0706/ 99579 70032 46/// ///// 10065 40051 52013
BBXX 62117 07064 99579 10000 47997 /2830 10075 20035 40023 55002 700// 22200 10605 70027
BBXX BATFR04 07064 99575 70061 46/// /2509 10069 20012 40100 50007 22200 00097
BBXX 62105 07064 99554 70122 46/// /2827 10096 20049 40210 52009 22200 00106 10810 70050 333 90710 91140
BBXX MINUK03 0706/ 99545 10000 46/// ///// 10080 40080 57032
BBXX 62095 07064 99531 70159 46/// /2814 10095 20048 40280 51008 22200 00110 10808 70039
BBXX 62301 07064 99524 70047 46/// /2817 10093 20057 40222 52009 22200 00084 10504 70021
BBXX 62094 07064 99517 70067 46/// /2920 10100 20066 40252 52020 22200 00102 10504 70020 333 90710 91127
BBXX 62303 07064 99516 70051 46/// /3119 10107 20069 40236 52007 22200 00107 10605 70024
BBXX 62023 07063 99514 70079 46/96 /3216 10102 2//// 40272 5//// 22200 10504 70020 555 70032 80007
BBXX 62081 07064 99510 70134 46/// ///// 10105 20097 40300 52007 22200 00113 10706 70028
BBXX BATFR52 07064 99508 70011 46/// /2623 10104 20084 40205 56015 22282 00087
BBXX BATFR42 07064 99507 70020 46/// /2818 10099 20094 40216 55013 22261 00117
BBXX TESTFR9 07064 99507 70011 46/// /2721 10102 29094 40225 57001 22273
BBXX 62305 07064 99504 10000 46/98 /2735 10110 20094 40215 55008 22200 00112 10603 70017 333 90710 91143
BBXX 62107 07064 99501 70061 46/// /3024 10112 20102 40267 55004 22200 00114 10704 70021 333 90710 91133
BBXX 62103 07064 99499 70029 46/98 ///30 10112 20098 40236 57008 22200 00115 10603 70017 333 90710 91139
BBXX BATFR15 07064 99495 70041 46/// /2727 10114 20104 40250 53011 22253 00120
BBXX PDHW 07063 99494 70084 41/98 /2716 10122 20101 40290 57010 70222 8//// 22223 00100 2//// 80110
BBXX A8QJ7 07064 99493 70098 41/97 82812 10120 20110 40294 58003 75800 8//// 22263 2//// 3//// 4//// 5//// 80115
BBXX 62027 07064 99491 70022 46/// /2919 1//// 2//// 40257 58007 22200 00115 10704 330// 70020 333 90710 91126
BBXX 62442 07064 99490 70164 46/// /2613 1//// 2//// 40328 52003 22200 00119
BBXX 62029 07064 99487 70125 46/// /2911 10122 20113 40324 53001 22200 00124 10705 70025
BBXX BATFR12 07064 99487 70065 46/// /2716 10114 20107 40298 58001 22200 00132
BBXX VRWG3 07064 99484 70076 41/// /2820 10130 20051 40310 54000 718// 8//// 22253 00150 21505 3//// 4//// 5//// 6//// 80090 /////
BBXX BATEU06 07064 99478 70101 46/// /2818 10144 20112 40316 52009 22254 00134
BBXX BAREU04 07064 99477 70248 46/// ///// 40308 52003 22223
BBXX BATFR34 07064 99476 70053 46/// /3117 4//// 22231 00132
BBXX 62163 07064 99475 70084 46/// /2811 10116 20094 40326 57006 22200 00123 10905 70026
BBXX SCKM 07063 99473 70243 43/98 71820 10120 40308 58017 22264 00120 20303 40303
BBXX ZQTP2 07064 99472 70068 41297 82718 10120 20101 40321 58018 70252 8/700 22213 00120 2//// 3//// 4//// 5//// 80110
BBXX BATFR16 07064 99463 70171 44497 82508 10129 20120 40350 56004 70222 885// 22224 00134 20300
BBXX SHIP 07064 99461 70193 41398 82409 10135 20127 40350 54000 70222 888// 22224 04130 2//// 80130
BBXX BAREU11 07064 99459 70163 46/// ///// 40357 52004 22254
BBXX PCBT 07060 99459 70126 41598 8//// 10129 20077 40343 51002 7//// 885// 22254 20101 399// 4//03 80101
BBXX 62001 07064 99452 70050 46/// /3210 10127 20094 40334 55001 22200 00132 10905 70027
BBXX 3EIZ7 07064 99389 70172 41/// 50519 10150 2//// 40310 57040 7//62 8//// 22235 0//// 2//// 3//// 4//// 5//// 6//// 8//// /////
BBXX BAREU06 07064 99364 70025 46/// ///// 40282 52005 22264
BBXX DCPI2 07063 99363 70015 41/98 /1013 10168 20123 40276 53006 70200 8//// 22224 00140 2//// 80141
BBXX PBEN 07063 99360 70045 41/97 90605 10148 20133 40272 52002 7//22 89/// 22263 04174 20400 30000 80139
BBXX 4XFB 07064 99359 70091 04169 13515 10160 20110 40250 54020
BBXX V2JU 07060 99359 70063 41198 10905 10200 20193 40260 57000 7//42 8117/ 22264 20201 3//// 4//// 5//// 80195
BBXX BAREU56 07064 99444 10089 46/// ///// 40194 22200
BBXX BAREU60 07064 99435 10164 46/// ///// 40136 52015 22223
BBXX 61001 07064 99434 10078 46/// /1409 10123 20048 40184 52002 22200 00133 10702 70010
BBXX BATFR31 07064 99433 10053 46/// /3319 10070 20064 40232 53035 22232 00127
BBXX BATFR58 07064 99432 10067 46/// /3014 40200 53005 22200 00154
BBXX BATFR21 07064 99427 10089 46/// /1904 40197 53001 22233
BBXX 61002 07064 99421 10047 46/// ///34 10107 2//// 40238 52006 22200 00132 10809 70047 555 1/046
BBXX BATFR22 07064 99413 10093 46/// /0706 10140 40200 53002 22214 00147
BBXX BAREU51 07064 99400 10136 46/// ///// 40121 52028 22284
BBXX A8RU5 07064 99376 10093 41597 63428 10113 20083 40214 52022 71811 83995 22294 20503 334// 41212 80097
BBXX KSPH 07063 99365 10140 41398 23330 10120 2006/ 40110 5//// 7//00 82100 22262 00190 20503 399// 40807 5//// 6//// 80090 /////
BBXX C6OR4 07063 99357 10170 41597 63540 10130 20013 40071 53040 79165 86320 22233 06169 20910 3//// 4//// 5//// 80080
BBXX WDE8288 07064 99350 10201 41398 73240 10140 2006/ 40030 53030 7//62 8721/ 22263 0//// 20910 332// 40910 5//// 6//// 80100 /////
BBXX OXOR2 07064 99330 10272 41598 62033 10162 20082 40052 56020 70222 8457/ 22264 00184 20606 329// 40808 80118
BBXX ZNQO3 07060 99325 10290 41698 22015 10160 20069 40099 51015 70200 82100 22224 04193 20304 320// 40410 5//// 80115
AAXX 07064 71612 16/// /3501 11076 21096 39967 40060 58004 60001 333 11076 21133 70000
AAXX 07061 38388 32998 00904 11047 21067 30205 40279 53014 333 21083
AAXX 07061 38392 32998 00906 11101 21121 30200 40311 53005 333 21131 93410
AAXX 07061 38507 31798 81306 10030 21002 30085 40190 53018 72582 8297/ 333 21003
AAXX 07061 38511 32998 30906 11036 21054 30088 40236 52009 80001 333 21051
AAXX 07061 38545 32998 80902 11064 21114 30119 40305 57001 8807/ 333 21123
AAXX 07061 38647 32597 71112 10002 21026 30150 40193 52017 82670 333 21002
AAXX 07061 38656 32998 20905 11001 21035 30125 40238 54000 80002 333 21028
AAXX 07061 38687 31995 00502 11038 21046 30052 40299 53007 72840 333 21080
AAXX 07061 38750 32997 32502 10019 21012 30221 40192 52006 83030 333 20006
AAXX 07061 38763 32597 71006 11006 21021 30102 40211 52018 87500 333 21006 87623
AAXX 07061 38774 31996 61102 11012 21029 30024 40327 52008 71022 80007 333 21028
AAXX 07061 38799 32997 01406 11006 21034 30042 40283 54000 333 21057
AAXX 07061 38806 32997 00902 11010 21046 30023 40295 54000 333 21057
AAXX 07061 38880 31997 51104 11017 21062 39956 40221 51009 70341 82031 333 21064
AAXX 07061 38886 32997 01107 10018 21035 39995 40230 57005 333 21015
AAXX 07061 38895 32996 01303 10004 21039 39971 40271 53003 333 21041
AAXX 07061 38911 32998 00000 11003 21065 39979 40285 57005 333 21046
AAXX 07061 38915 32999 03301 10018 21001 39946 40280 57007 333 21037
AAXX 07061 38974 32998 01806 10014 21059 39881 40225 57011 333 21032
AAXX 07061 38987 32996 02503 11047 21083 39501 40284 54000 333 21090
BBXX MINFR00 0706/ 99201 51624 46/// ///// 10235 40097 52019
AAXX 07064 97180 01458 71004 10288 20256 30080 40098 57021 60011 70362 83272 333 56000 60017 83819 85359 91130
AAXX 07064 97180 01458 71004 10288 20256 30080 40098 57021 60011 70362 83272 333 56000 60017 83819 85359
BBXX 42044 07061 99262 70971 46/// /1804 10174 20160 40146 90630 333 91205
BBXX 42044 07061 99262 70971 46/// /1804 10174 20159 40148 90600 333 91205
BBXX 42044 07061 99262 70971 46/// /1804 10174 20160 40146 90630 333 91205
BBXX 42044 07061 99262 70971 46/// /1804 10174 20159 40148 90600 333 91205
BBXX MINFR00 0706/ 99201 51624 46/// ///// 10235 40097 52019
AAXX 07064 97180 01458 71004 10288 20256 30080 40098 57021 60011 70362 83272 333 56000 60017 83819 85359
AAXX 07064 97180 01458 71004 10288 20256 30080 40098 57021 60011 70362 83272 333 56000 60017 83819 85359 91130
AAXX 07064 71363 16/// /2912 11381 21423 30021 40079 53004 60001 333 11316 21382 70000 555 33422 40101
AAXX 07064 71363 16/// /2912 11381 21423 30021 40079 53004 60001 333 11316 21382 70000 555 33422 40101
AAXX 07064 64756 33962 71004 10161 20002 39512 4//// 80002 90600 333 0//00 20135 5//// ///// 55/// 59002 87075
BBXX 63106 07064 99610 10017 46/// /2826 10069 49921 53001 22200
BBXX 63113 07064 99610 10017 46/// /3023 10073 20020 49936 50003 22200 10707 70034
BBXX 62103 07064 99499 70029 46/97 /2930 10109 20097 40236 57005 22200 00115 10604 70018 333 90710 91137
AAXX 07064 60338 12982 02202 10100 20030 30191 40257 54003 60004 333 20100 55080 92418
BBXX 42369 07061 99272 70903 46/// /2005 1//// 90620 22200 10401 70007
BBXX 42370 07061 99273 70905 46/// ///// 10208 90620 22200 10402 70008
BBXX 42887 07061 99282 70885 46/// /0503 10190 90620 22200 10401 70005
BBXX 42376 07061 99291 70879 46/// /0000 10200 40205 90620 22200 10101 70003
BBXX 42392 07061 99272 70900 46/// ///// 1//// 90620 22200 10401 70006
BBXX 42370 07061 99273 70905 46/// ///// 10208 90620 22200 10402 70008
BBXX 42392 07061 99272 70900 46/// ///// 1//// 90620 22200 10401 70006
BBXX 42376 07061 99291 70879 46/// /0000 10200 40205 90620 22200 10101 70003
BBXX 42887 07061 99282 70885 46/// /0503 10190 90620 22200 10401 70005
BBXX 42369 07061 99272 70903 46/// /2005 1//// 90620 22200 10401 70007
BBXX 52243 07061 99193 11666 46/// ///// 1//// 90600 22200 00274
BBXX 51179 07061 99143 51708 46/// ///// 1//// 90600 22200 00287
BBXX 51178 07061 99142 51695 46/// ///// 1//// 90600 22200 00286
BBXX 52246 07061 99152 11457 46/// ///// 1//// 90600 22200 00281
BBXX 51176 07061 99278 71758 46/// ///// 1//// 90600 22200 00238
BBXX 52245 07061 99181 11458 46/// ///// 1//// 90600 22200 00276
BBXX 51174 07061 99142 51697 46/// ///// 1//// 90600 22200 00287
BBXX 52244 07061 99200 11452 46/// ///// 1//// 90600 22200 00264
BBXX 51173 07061 99260 71739 46/// ///// 1//// 90600 22200 00249
BBXX 51172 07061 99284 71783 46/// ///// 1//// 90600 22200 00226
BBXX 51171 07061 99064 71623 46/// ///// 1//// 90600 22200 00272
BBXX 51170 07061 99168 71695 46/// ///// 1//// 90600 22200 00259
BBXX 52248 07061 99135 11448 46/// ///// 1//// 90600 22200 00285
AAXX 07061 10962 01384 22408 11028 21030 39062 48490 56010 60012 73687 82840 333 11013 21029 3/104 48016 55000 55300 20000 30000 69907 70035 81807 91115 96285
BBXX A8LK5 31201 07064 99388 10083 41/98 30137 10150 20080 40230 54000 70200 80000 22233 00200 20806 3//// 40806 5//// 80110
BBXX A8LK5 31201 07064 99388 10083 41/98 30137 10150 20080 40230 54000 70200 80000 22233 00200 20806 3/ /// 40806 5//// 80110
BBXX 63106 07064 99610 10017 46/// /2826 10069 49921 53001 22200
BBXX 63105 07064 99610 10017 47597 ///// 10076 20024 49919 52001 700// 22200
BBXX 62103 07064 99499 70029 46/98 ///30 10112 20098 40236 57008 22200 00115 10603 70017 333 90710 91139
BBXX 52248 07061 99135 11448 46/// ///// 1//// 90600 22200 00285
BBXX 52246 07061 99152 11457 46/// ///// 1//// 90600 22200 00281
BBXX 52244 07061 99200 11452 46/// ///// 1//// 90600 22200 00264
BBXX 52243 07061 99193 11666 46/// ///// 1//// 90600 22200 00274
BBXX 52245 07061 99181 11458 46/// ///// 1//// 90600 22200 00276
BBXX 51172 07061 99284 71783 46/// ///// 1//// 90600 22200 00226
BBXX 51173 07061 99260 71739 46/// ///// 1//// 90600 22200 00249
BBXX 51176 07061 99278 71758 46/// ///// 1//// 90600 22200 00238
BBXX 51179 07061 99143 51708 46/// ///// 1//// 90600 22200 00287
BBXX 51174 07061 99142 51697 46/// ///// 1//// 90600 22200 00287
BBXX 51178 07061 99142 51695 46/// ///// 1//// 90600 22200 00286
BBXX 51171 07061 99064 71623 46/// ///// 1//// 90600 22200 00272
BBXX 51170 07061 99168 71695 46/// ///// 1//// 90600 22200 00259
AAXX 07064 60338 12970 02502 10100 20084 30214 40281 51018 60004 333 20100 55087 92417
BBXX VCXF 07094 99464 70484 41598 72927 11008 2101/ 40084 52020 70022 87100 22200 02027 20807 81008
AAXX 07064 87328 32780 50905 10204 20142 39504 40133 51005 82275 333 56000 57850 82850 95000
BBXX VCXF 07094 99464 70484 41598 72927 11008 2101/ 40084 52020 70022 87100 22200 02027 20807 81008
BBXX VRXL7 07063 99165 70487 41397 61215 10230 2020/ 40165 54000 7//22 8674/ 22273 00270 20204 305// 40204 5//// 6//// 80210 ICE /////
BBXX VRXL7 07063 99165 70487 41397 61215 10230 2020/ 40165 54000 7//22 8674/ 22273 00270 20204 305// 40204 5//// 6//// 80210 ICE /////
AAXX 07064 97580 32462 70000 10288 20257 30075 40082 56019 82238 333 56000 57802 82814 80850
BBXX 63106 07064 99610 10017 46/// /2826 10069 49921 53001 22200
BBXX 63113 07064 99610 10017 46/// /3023 10073 20020 49936 50003 22200 10707 70034
BBXX 62103 07064 99499 70029 46/97 /2930 10109 20097 40236 57005 22200 00115 10604 70018 333 90710 91137
AAXX 07061 10488 11980 62406 10027 21003 39863 40149 58025 69912 70162 86030 333 10032 20009 31101 55000 55300 20000 30000 40989 70001 86361
BBXX VOXS 07094 99467 70480 41598 82916 11001 2102/ 40109 52024 70222 885// 22200 04018 20404 321// 40805 81008
BBXX VOXS 07094 99467 70480 41598 82916 11001 2102/ 40109 52024 70222 885// 22200 04018 20404 321// 40805 81008
AAXX 07061 02845 133// 80303 11050 21054 39686 49937 57003 60034 88/// 333 11044 21061 3/106 4/057
AAXX 07061 02805 11335 80204 11028 21042 39846 49979 57005 69992 77372 887// 333 11026 21040 3/104 47041
AAXX 07061 30949 42999 00000 11215 21255 39227 40423 58018
AAXX 07064 71721 16/// /1801 11066 21073 39787 40036 50002 60001 333 11066 21144 70030
BBXX 63106 07064 99610 10017 46/// /2826 10069 49921 53001 22200
BBXX 63105 07064 99610 10017 47597 ///// 10076 20024 49919 52001 700// 22200
BBXX 62103 07064 99499 70029 46/98 ///30 10112 20098 40236 57008 22200 00115 10603 70017 333 90710 91139
AAXX 07064 71392 17/// /0709 11090 21100 60031 7//4/ 333 11089 21173 70030 555 30819 40221
AAXX 07064 48307 32562 10000 10296 20179 39780 40154 57037 81200 333 58012
AAXX 07064 71586 16/// /0302 11095 21106 39674 40149 51010 60001 333 11042 21095 70009 555 32918 40111
BBXX 42047 07061 99279 70936 46/// /1608 10199 20150 40165 90630 22200 00220 333 91209
BBXX 42047 07061 99279 70936 46/// /1608 10200 20148 40168 90600 22200 00220 333 91209
BBXX WYP8657 07064 99474 70895 41/97 83620 10004 2//// 40054 5//// 78572 8//// 22213 00055 20302 3//// 4//// 5//// 6//// 8//// ICE /////
AAXX 07064 63705 31957 63403 10210 20167 38872 48526 70544 80008 333 20180 58007 86270 555 10180
AAXX 07061 01218 11585 81505 10025 21021 39898 49919 55017 60022 70282 882// 333 21004 43008 70133 91110
AAXX 07064 41523 01596 80000 10050 20039 48518 69991 70262 8472/ 333 58005 69927 82730 82640 84460
AAXX 07064 41749 01994 23605 10130 20043 30157 40190 60001 70400 82030 333 56090 59002 60007 82360
AAXX 07064 41696 32997 03102 10030 21140 38012 48533 60001 333 59003 60007
AAXX 07064 41739 02997 00908 10090 21083 39090 48531 60001 333 59009 60007
BBXX 42047 07061 99279 70936 46/// /1608 10199 20150 40165 90630 22200 00220 333 91209
BBXX 42047 07061 99279 70936 46/// /1608 10200 20148 40168 90600 22200 00220 333 91209
BBXX WYP8657 07064 99474 70895 41/97 83620 10004 2//// 40054 5//// 78572 8//// 22213 00055 20302 3//// 4//// 5//// 6//// 8//// ICE /////
BBXX 46208 07061 99525 71327 46/// /1611 1//// 40144 57022 22200 0//// 1//// 70/// 333 91213
BBXX 46208 07061 99525 71327 46/// /1611 1//// 40144 57022 22200 0//// 1//// 70/// 333 91213
BBXX 63106 07064 99610 10017 46/// /2826 10069 49921 53001 22200
BBXX 63113 07064 99610 10017 46/// /3023 10073 20020 49936 50003 22200 10707 70034
BBXX 62103 07064 99499 70029 46/97 /2930 10109 20097 40236 57005 22200 00115 10604 70018 333 90710 91137
AAXX 07064 71576 16/// /0000 11341 21379 39942 40031 50003 60001 333 11297 21366 70000
AAXX 07064 61401 33960 71010 10127 20066 39789 40207 8707/ 333 0//00 20119 5//// 55/// 59038 87462
AAXX 07064 61421 32960 70000 10192 21007 39932 40201 8707/ 333 0//00 20190 5//// 55/// 59013 87463
AAXX 07064 61437 32960 50404 10190 20036 30048 40177 85070 333 0//00 20190 5//// 55/// 58005 85363
AAXX 07064 61450 32960 20804 10166 21010 39717 40176 80002 333 0//00 20143 5//// 55/// 59009 82073
AAXX 07064 61461 32960 00804 10185 20051 30088 40175 333 0//00 20185 5//// 55/// 59006
AAXX 07064 61489 32958 40000 10186 20007 30159 40166 87070 333 0//00 20180 50904 55/// 59008 84363
AAXX 07064 61492 32958 40808 10195 21020 30193 40212 84070 333 0//00 20195 5//// 58003 84363
AAXX 07064 61497 35958 30806 10196 21030 39920 4//// 83030 333 0//00 20192 5//// 55/// 58007 83363
AAXX 07064 61499 32960 30406 10167 21050 39897 40154 83070 333 0//00 20160 50594 55/// 59015 83363
AAXX 07061 98132 11462 70206 10223 20209 40215 56020 69951 70584 84270 333 56191 84816 86357
AAXX 07061 98642 11462 60904 10295 20263 30091 40100 57081 60011 70584 84272 333 56199 84815 85358 84072
BBXX S6SR 07064 99227 70359 417// 80811 10220 20190 40210 56010 7//// 8//// 22273 02220 2//04 307// 4//// 5//// 6//// 80200 ICE /////
BBXX S6SR 07064 99227 70359 417// 80811 10220 20190 40210 56010 7//// 8//// 22273 02220 2//04 307// 4//// 5//// 6//// 80200 ICE /////
BBXX 46208 07061 99525 71327 46/// /1611 1//// 40144 57022 22200 0//// 1//// 70/// 333 91213
AAXX 07060 44216 32999 33203 11305 21327 39165 40598 58005 81059
AAXX 07064 63729 32580 40000 10220 20190 38885 48/// 82932 333 20185 50341 55007 55300 58008 82820 81922 84072
AAXX 07064 63733 32580 60000 10225 20174 38878 48519 81931 333 20174 50261 55051 55300 58005 81920 86359
AAXX 07064 63756 32480 70000 10224 20188 38887 48522 82942 333 20180 50301 55042 55300 59007 82819 81920 87075
AAXX 07064 63791 32580 61106 10250 20176 39142 48518 81501 333 20196 50901 55058 55310 58005 81628 86077
AAXX 07064 63801 01480 70908 10225 20210 39226 48553 69904 70296 8197/ 333 0//11 20200 50201 55/// 553// 58008 69907 81819 81920 87359
AAXX 07064 63832 11480 80000 10200 20192 38848 48513 60364 70322 8397/ 333 0//99 20180 50011 55038 55300 58014 83819 81920 87358
AAXX 07064 63862 01456 82705 10182 20175 38930 48537 63244 76269 84921 333 20186 51141 55032 55300 58025 63615 81916 87457
AAXX 07064 63866 12480 60000 10237 20211 39533 48/// 865// 333 20200 50191 55008 55300 58012 86618
AAXX 07064 63870 32475 70212 10284 20238 30110 40128 8423/ 333 20260 50751 55102 55300 58014 84818 87358
AAXX 07064 63881 32480 80000 10171 20156 38216 48/// 869// 333 20148 50451 55035 55300 58004 86616 81919
AAXX 07064 63887 12480 80406 10197 20172 38604 48525 69914 8397/ 333 0//19 20180 50261 55033 55300 58010 70001 83816 81917 87358
AAXX 07064 63932 12580 72510 10183 20157 38323 48511 60044 8297/ 333 0//19 20167 50161 55021 55300 58001 82821 81923 87358
AAXX 07064 63962 32480 70305 10220 20194 38950 48509 8523/ 333 20195 50151 55/// 553// 58003 85619 81921 83357
AAXX 07064 63971 11480 73615 10232 20229 39993 40123 60234 76162 8497/ 333 0//51 20217 50511 55000 55300 58015 84819 81920 87480
BBXX CFO383 07094 99439 70602 47699 /1511 10017 2104/ 40129 5//// 700// 8//// 22200 00062 10703 2//// 70013 81000 333 91013
BBXX CFO383 07094 99439 70602 47699 /1511 10017 2104/ 40129 5//// 700// 8//// 22200 00062 10703 2//// 70013 81000 333 91013
BBXX 63106 07064 99610 10017 46/// /2826 10069 49921 53001 22200
BBXX 63105 07064 99610 10017 47597 ///// 10076 20024 49919 52001 700// 22200
BBXX 62103 07064 99499 70029 46/98 ///30 10112 20098 40236 57008 22200 00115 10603 70017 333 90710 91139
BBXX 46208 07061 99525 71327 46/// /1611 1//// 40144 57022 22200 0//// 1//// 70/// 333 91213
BBXX MINFR09 0706/ 99340 11255 46/// ///// 40338 57009
BBXX MINFR09 0706/ 99340 11255 46/// ///// 40338 57009
BBXX 63106 07064 99610 10017 46/// /2826 10069 49921 53001 22200
BBXX 63113 07064 99610 10017 46/// /3023 10073 20020 49936 50003 22200 10707 70034
BBXX 62103 07064 99499 70029 46/97 /2930 10109 20097 40236 57005 22200 00115 10604 70018 333 90710 91137
AAXX 07064 71854 43/// ///// 333 11049 21117 48020 70010 555 10010 20010
AAXX 07064 71854 43/// ///// 333 11049 21117 48020 70010 555 10010 20010
AAXX 07061 01199 11470 80606 11048 21054 39499 49969 57007 69952 77173 887// 333 21070 47039 70013 91108
BBXX MINFR09 0706/ 99340 11255 46/// ///// 40338 57009
AAXX 07064 71614 16/// /2902 11097 21115 39978 40045 58001 60001 333 11077 21117 70008 555 10010 20008
BBXX 63106 07064 99610 10017 46/// /2826 10069 49921 53001 22200
BBXX 63105 07064 99610 10017 47597 ///// 10076 20024 49919 52001 700// 22200
BBXX 62103 07064 99499 70029 46/98 ///30 10112 20098 40236 57008 22200 00115 10603 70017 333 90710 91139
AAXX 07061 03962 11570 72706 10084 20052 30229 40253 50006 60032 70252 875// 333 20083 3/007 55000 81627 87633
BBXX 63106 07064 99610 10017 46/// /2826 10069 49921 53001 22200
BBXX 63113 07064 99610 10017 46/// /3023 10073 20020 49936 50003 22200 10707 70034
BBXX 62103 07064 99499 70029 46/97 /2930 10109 20097 40236 57005 22200 00115 10604 70018 333 90710 91137
BBXX 52249 07061 99052 31503 46/// ///// 1//// 90600 22200 00307
BBXX 63106 07064 99610 10017 46/// /2826 10069 49921 53001 22200
BBXX 63105 07064 99610 10017 47597 ///// 10076 20024 49919 52001 700// 22200
BBXX 62103 07064 99499 70029 46/98 ///30 10112 20098 40236 57008 22200 00115 10603 70017 333 90710 91139
BBXX 52249 07061 99052 31503 46/// ///// 1//// 90600 22200 00307
BBXX 63106 07064 99610 10017 46/// /2826 10069 49921 53001 22200
BBXX 63113 07064 99610 10017 46/// /3023 10073 20020 49936 50003 22200 10707 70034
BBXX 62103 07064 99499 70029 46/97 /2930 10109 20097 40236 57005 22200 00115 10604 70018 333 90710 91137
BBXX 63106 07064 99610 10017 46/// /2826 10069 49921 53001 22200
BBXX 63105 07064 99610 10017 47597 ///// 10076 20024 49919 52001 700// 22200
BBXX 62103 07064 99499 70029 46/98 ///30 10112 20098 40236 57008 22200 00115 10603 70017 333 90710 91139
AAXX 07064 71642 13/// ///// 11050 69961 333 10013 21070 70006 555 10020 20020
AAXX 07064 71845 43/// ///// 333 11135 21150 44025 79999 555 19999 29999
AAXX 07064 71845 43/// ///// 333 11135 21150 44025 79999 555 19999 29999
BBXX 63106 07064 99610 10017 46/// /2826 10069 49921 53001 22200
BBXX 63113 07064 99610 10017 46/// /3023 10073 20020 49936 50003 22200 10707 70034
BBXX 62103 07064 99499 70029 46/97 /2930 10109 20097 40236 57005 22200 00115 10604 70018 333 90710 91137
BBXX 63106 07064 99610 10017 46/// /2826 10069 49921 53001 22200
BBXX 63105 07064 99610 10017 47597 ///// 10076 20024 49919 52001 700// 22200
BBXX 62103 07064 99499 70029 46/98 ///30 10112 20098 40236 57008 22200 00115 10603 70017 333 90710 91139
AAXX 07064 91723 NIL
AAXX 07064 91964 36/// /0907 10222 20211 40170 52015
AAXX 07061 10738 11675 72005 10020 21014 39752 40234 56021 69902 70261 875// 333 10032 20017 31101 55012 55300 70003 82638 87650
BBXX 63106 07064 99610 10017 46/// /2826 10069 49921 53001 22200
BBXX 63113 07064 99610 10017 46/// /3023 10073 20020 49936 50003 22200 10707 70034
BBXX 62103 07064 99499 70029 46/97 /2930 10109 20097 40236 57005 22200 00115 10604 70018 333 90710 91137
BBXX 63106 07064 99610 10017 46/// /2826 10069 49921 53001 22200
BBXX 63105 07064 99610 10017 47597 ///// 10076 20024 49919 52001 700// 22200
BBXX 62103 07064 99499 70029 46/98 ///30 10112 20098 40236 57008 22200 00115 10603 70017 333 90710 91139
BBXX 63106 07064 99610 10017 46/// /2826 10069 49921 53001 22200
BBXX 63113 07064 99610 10017 46/// /3023 10073 20020 49936 50003 22200 10707 70034
BBXX 62103 07064 99499 70029 46/97 /2930 10109 20097 40236 57005 22200 00115 10604 70018 333 90710 91137
AAXX 07064 71971 16/// /0000 11247 21295 39997 40044 53004 60001 333 11223 21283 70000
AAXX 07064 64756 33962 71004 10161 20002 39512 4//// 80002 90600 333 0//00 20135 5//// 55/// 59002 87075
AAXX 07061 10946 07581 82205 10005 21021 39402 40258 56007 69982 72476 333 10015 20002 3/102 4/004 55000 55300 20000 30000 69907 70020 86/20 87/25 88/37
BBXX 63106 07064 99610 10017 46/// /2826 10069 49921 53001 22200
BBXX 63105 07064 99610 10017 47597 ///// 10076 20024 49919 52001 700// 22200
BBXX 62103 07064 99499 70029 46/98 ///30 10112 20098 40236 57008 22200 00115 10603 70017 333 90710 91139
AAXX 07064 03100 17664 /3027 10065 20038 30121 40137 51008 60032 781// 90550 333 20062 3/005 55000 55300 20000 70046 81/33 85/50 90710 91138 91038
AAXX 07064 83780 31358 30803 10177 20158 39253 48540 55001 71000 8350 0
BBXX DANV 07064 99062 10932 41698 40915 10286 20229 40138 57002 7//11 84450 22261 04270 20102 309// 40203 80245
BBXX C6OT4 07064 99125 10722 41697 70917 10251 20231 40165 50013 70200 87145 22223 04259 20104 30000 4//// 5//// 80237
BBXX A8CC9 07064 99145 31163 41697 71411 10320 20267 40090 55005 703// 86444 22283 04320 20801 323// 41002 5//// 80280
BBXX VQNW6 07064 99307 31141 41598 71620 10208 20137 40160 51005 70322 8/46/ 22233 00234 2//// 316// 40605 5//// 80167
BBXX TBWUK30 07064 99079 70150 41997 42703 10260 20237 40105 54000 70233 8/010 22274 00280 299// 30000 4//// 5//// 80244
BBXX TBWUK48 07063 99253 10565 41998 02705 10280 20187 40199 54000 70200 80000 22200 04245 20000 30000 80220
BBXX VQIB9 07064 99153 50201 41498 81013 10225 20186 40159 57015 70222 885// 22274 2//// 3//// 4//// 5//// 80200
BBXX MLRM6 07063 99402 50099 41297 73122 10147 20136 40133 57002 70222 877// 22200 00138 20202 333// 40303 5////
BBXX ZDLP 07063 99538 50376 41597 52116 10023 21054 40008 54000 70222 8347/ 22222 04024 29901 324// 40402 5//// 81003
BBXX DEDM 07064 99414 70526 41298 73024 10081 21017 40225 52030 70222 875// 22264 04180 2//// 329// 40608 80040
BBXX ZCDF4 07063 99115 70744 41998 20823 10250 20238 40128 56011 70100 80004 22255 00260 20401 305// 40503 5//// 80242
BBXX ZCDG4 07063 99205 70833 41598 40332 10227 20155 40187 50001 70211 84500 22274 00280 20301 303// 40603 5////
BBXX A8XD4 07064 99498 71753 41598 53524 10020 21005 40031 53010 70311 83820 22242 04060 21205 80010
BBXX A8UE4 07063 99503 71360 41297 31636 10060 20060 40060 58020 71066 83713 22224 04040 20203 318// 40309 5//// 80060
BBXX MLRM6 07063 99402 50099 41297 73122 10147 20136 40133 57002 70222 877// 22200 00138 20202 333// 40303 5////
BBXX VQIB9 07064 99153 50201 41498 81013 10225 20186 40159 57015 70222 885// 22274 2//// 3//// 4//// 5//// 80200
BBXX TBWUK48 07063 99253 10565 41998 02705 10280 20187 40199 54000 70200 80000 22200 04245 20000 30000 80220
BBXX TBWUK30 07064 99079 70150 41997 42703 10260 20237 40105 54000 70233 8/010 22274 00280 299// 30000 4//// 5//// 80244
BBXX DANV 07064 99062 10932 41698 40915 10286 20229 40138 57002 7//11 84450 22261 04270 20102 309// 40203 80245
BBXX ZDLP 07063 99538 50376 41597 52116 10023 21054 40008 54000 70222 8347/ 22222 04024 29901 324// 40402 5//// 81003
BBXX VQNW6 07064 99307 31141 41598 71620 10208 20137 40160 51005 70322 8/46/ 22233 00234 2//// 316// 40605 5//// 80167
BBXX A8CC9 07064 99145 31163 41697 71411 10320 20267 40090 55005 703// 86444 22283 04320 20801 323// 41002 5//// 80280
BBXX ZCDG4 07063 99205 70833 41598 40332 10227 20155 40187 50001 70211 84500 22274 00280 20301 303// 40603 5////
BBXX A8UE4 07063 99503 71360 41297 31636 10060 20060 40060 58020 71066 83713 22224 04040 20203 318// 40309 5//// 80060
BBXX A8XD4 07064 99498 71753 41598 53524 10020 21005 40031 53010 70311 83820 22242 04060 21205 80010
BBXX DEDM 07064 99414 70526 41298 73024 10081 21017 40225 52030 70222 875// 22264 04180 2//// 329// 40608 80040
BBXX A8XD4 07064 99498 71753 41598 53524 10020 21005 40031 53010 70311 83820 22242 04060 21205 80010
BBXX A8UE4 07063 99503 71360 41297 31636 10060 20060 40060 58020 71066 83713 22224 04040 20203 318// 40309 5//// 80060
BBXX 63106 07064 99610 10017 46/// /2826 10069 49921 53001 22200
BBXX 63105 07064 99610 10017 47597 ///// 10076 20024 49919 52001 700// 22200
BBXX 62103 07064 99499 70029 46/98 ///30 10112 20098 40236 57008 22200 00115 10603 70017 333 90710 91139
BBXX ZCEF2 07064 99517 10025 41397 62732 10105 20085 40132 56059 70222 8/7// 22214 00100 20603 331// 40704 80095
BBXX ZCEF2 07064 99517 10025 41297 62828 10105 20085 40132 56059 70222 8/7// 22214 00100 20804 399// 40804 80095
BBXX ZCEF2 07064 99517 10026 41297 52828 10105 20085 40132 56059 70222 8/7// 22214 00105 20804 399// 40804 80095
BBXX 63119 07064 99583 10009 41598 83036 10070 20015 49992 57010 70222 885// 22200 20306 330// 40808 5////
BBXX 2AUO5 07063 99606 10016 41597 62929 10079 20029 49939 54000 76366 863// 22261 20504 329// 40808 80058
BBXX 62169 07063 99614 10014 41/97 82928 10055 20055 49915 54000 78186 8//// 22200 02076 20304 328// 41007 5//// 80055
BBXX UASP 07061 99692 10352 41/97 91104 11019 49993 54000 70000 8//// 222// 2////
BBXX PBHZ 07063 99706 10320 41697 80917 10031 21017 49974 58/// 72677 887// 22233 06076 20502 310// 40702 80012
BBXX DDSB2 07063 99459 70162 41598 82512 10135 20114 40350 54000 7//22 8/4// 22254 29903 328// 40904
BBXX DGZL 07063 99340 70101 41/98 /0312 10145 20128 40298 52002 70011 8//// 22244 00150 2//// 80135
BBXX ELVL8 07063 99350 70098 41598 30624 10160 40250 58022 701// 8/2// 22224 04177 20303 305// 40504 5//// ELVL8
BBXX VREX7 07063 99394 70303 41398 32015 10170 20153 40290 51010 70222 82260 22213 20504 31818 40504 51203 80160
BBXX DDSB2 07063 99459 70162 41598 82512 10135 20114 40350 54000 7//22 8/4// 22254 29903 328// 40904
BBXX ZCEF2 07064 99517 10025 41397 62732 10105 20085 40132 56059 70222 8/7// 22214 00100 20603 331// 40704 80095
BBXX 2AUO5 07063 99606 10016 41597 62929 10079 20029 49939 54000 76366 863// 22261 20504 329// 40808 80058
BBXX VREX7 07063 99394 70303 41398 32015 10170 20153 40290 51010 70222 82260 22213 20504 31818 40504 51203 80160
BBXX 62169 07063 99614 10014 41/97 82928 10055 20055 49915 54000 78186 8//// 22200 02076 20304 328// 41007 5//// 80055
BBXX ELVL8 07063 99350 70098 41598 30624 10160 40250 58022 701// 8/2// 22224 04177 20303 305// 40504 5//// ELVL8
BBXX DGZL 07063 99340 70101 41/98 /0312 10145 20128 40298 52002 70011 8//// 22244 00150 2//// 80135
BBXX DDSB2 07063 99459 70162 41598 82512 10135 20114 40350 54000 7//22 8/4// 22254 29903 328// 40904
BBXX UASP 07061 99692 10352 41/97 91104 11019 49993 54000 70000 8//// 222// 2////
BBXX PBHZ 07063 99706 10320 41697 80917 10031 21017 49974 58/// 72677 887// 22233 06076 20502 310// 40702 80012
BBXX ZCEF2 07064 99517 10026 41297 52828 10105 20085 40132 56059 70222 8/7// 22214 00105 20804 399// 40804 80095
BBXX ZCEF2 07064 99517 10025 41297 62828 10105 20085 40132 56059 70222 8/7// 22214 00100 20804 399// 40804 80095
BBXX 63119 07064 99583 10009 41598 83036 10070 20015 49992 57010 70222 885// 22200 20306 330// 40808 5////
AAXX 07064 89262 46/// /2305 11016 21019 39739 49782 5//// 90600
AAXX 07064 89065 46/// /1606 11016 21021 39697 49774 5//// 90600
AAXX 07064 71723 16/// /0000 11084 21098 30046 40056 55003 60001 333 11084 21161 70010
AAXX 07061 38932 42999 20000 11049 21078 40332 54000 80001
BBXX 63055 07064 99606 10016 47897 /2823 10071 20025 49938 51001 704// 22200 10707 70034
BBXX 63106 07064 99610 10017 46/// /2826 10069 49921 53001 22200
BBXX 63113 07064 99610 10017 46/// /3023 10073 20020 49936 50003 22200 10707 70034
BBXX 62103 07064 99499 70029 46/97 /2930 10109 20097 40236 57005 22200 00115 10604 70018 333 90710 91137
BBXX ZCEF2 07064 99517 10025 41397 62732 10105 20085 40132 56059 70222 8/7// 22214 00100 20603 331// 40704 80095
BBXX ELVL8 07063 99350 70098 41598 30624 10160 40250 58022 701// 8/2// 22224 04177 20303 305// 40504 5//// ELVL8
BBXX ZDLS1 07063 99636 50327 41/98 72115 11029 2//// 49949 52010 70222 861// 22273 05019 20100 30000
BBXX ZSAF 07064 99691 50007 41398 81310 11033 21059 49832 52001 77022 886// 22200 05002 20000 30000 4//// 5//// ICE 18145
BBXX ONCT 07064 99285 70897 41998 41915 10180 2015/ 40160 54000 70300 80001 22253 04080 2//// 3//// 4//// 5//// 6//// 80160 ICE /////
BBXX ONCT 07064 99285 70897 41998 41915 10180 2015/ 40160 54000 70300 80001 22253 04080 2//// 3//// 4//// 5//// 6//// 80160 ICE /////
BBXX ZSAF 07064 99691 50007 41398 81310 11033 21059 49832 52001 77022 886// 22200 05002 20000 30000 4//// 5//// ICE 18145
BBXX ZDLS1 07063 99636 50327 41/98 72115 11029 2//// 49949 52010 70222 861// 22273 05019 20100 30000
BBXX 63106 07064 99610 10017 46/// /2826 10069 49921 53001 22200
BBXX 63105 07064 99610 10017 47597 ///// 10076 20024 49919 52001 700// 22200
BBXX 62103 07064 99499 70029 46/98 ///30 10112 20098 40236 57008 22200 00115 10603 70017 333 90710 91139
BBXX ZCEF2 07064 99517 10025 41297 62828 10105 20085 40132 56059 70222 8/7// 22214 00100 20804 399// 40804 80095
BBXX 2AUO5 07063 99606 10016 41597 62929 10079 20029 49939 54000 76366 863// 22261 20504 329// 40808 80058
AAXX 07064 71824 46/// /0902 11165 21186 6///1 333 11165 21258 7////
AAXX 07061 10908 01/01 92215 11065 21068 38505 48500 58004 60002 74944 333 11044 21067 3/107 49101 55000 55300 20000 30000 69907 70013 89/01 91122 90230 91218 90330 91218 96036
BBXX PCIH 07063 99138 50767 41398 51610 10230 40220 52001 70311 84618 22244 20301 314// 40301
AAXX 07063 91557 31598 41608 10294 20245 40070 54000 70222 84200 333 564// 84825
AAXX 07063 91557 31598 41608 10294 20245 40070 54000 70222 84200 333 564// 84825
AAXX 07061 20107 32997 50902 11092 21148 30043 40142 57003 83031 333 21092 91003
AAXX 07064 03707 15461 /3017 10105 20098 30229 40236 53004 69962 90550 333 20100 3/009 70006 81/13 86/42 90710 91127
BBXX A8OZ4 07064 99259 10353 43498 10103 10220 20100 40160 51010 811// 22234 00210 20400 331// 40501 80150
BBXX A8LK5 07064 99388 10083 41/98 30137 10150 20080 40230 54000 70200 80000 22233 00200 20806 3//// 40 806 5//// 80110
BBXX A8LK5 07064 99388 10083 41/98 30137 10150 20080 40230 54000 70200 80000 22233 00200 20806 3//// 40806 5//// 80110
AAXX 07061 10980 11/01 92508 11080 21083 38135 48492 56011 60042 77174 333 11066 21080 3/108 49090 55000 55300 20000 30000 70116 91114 96049 96471 96449
AAXX 07061 10113 01150 82609 10071 20067 30041 40060 56029 60022 72186 877// 222// 06055 333 10071 20051 32005 55022 55300 20000 30000 60027 70019 83702 87703 91115 96459
AAXX 07064 71268 43/// ///// 333 10038 21065 70000 555 10000 20000
AAXX 07064 71268 43/// ///// 333 10038 21065 70000 555 10000 20000
AAXX 07064 71571 16/// /2210 11059 21102 38938 40148 57006 60001 333 11021 21063 70000 555 32423 40071
AAXX 07064 71780 17/// /0306 10052 20015 30228 40256 53006 69921 7//4/ 333 10054 20033 70012
AAXX 07064 71115 16/// /1201 11012 21031 39653 40244 53011 60001 333 10041 21016 70000
AAXX 07061 10836 11586 82608 11007 21027 39341 40237 56012 60032 70272 885// 333 10003 21010 3/102 44008 55000 55300 20000 30000 70051 88630 91117 91212
AAXX 07061 10908 11/01 92215 11065 21068 38505 48500 58004 60002 74944 333 11044 21067 3/107 49101 55000 55300 20000 30000 70013 89/01 91122 90230 91218 90330 91218 96036
AAXX 07064 71356 16/// /3307 11353 21395 30083 40154 50000 60001 333 11263 21361 70000 555 33024 40161
