BBXX PHFV 28124 99226 70782 41598 52811 10240 40100 54000 7//11 855// 22224 00270 20502 3//// 4//// 5////
AAXX 28124 40255 32960 00000 10140 20032 39508 40233 57017 MAX14.6 MIN.3.2 G.M.-1.0 R.H.48
BBXX ZMFR 28114 99413 31748 43/// /0411 10178 20133 40140 52002 22200 00190
BBXX ZMENA 28114 99375 31783 46/// ///// 10180 20139 40182 52010 22283
BBXX 44172 28121 99445 70634 46/// ///// 1//// 91131 22200 00060 11104 21004 314// 41102 70022
BBXX DPJW 28124 99304 70187 41598 40821 10210 20128 40310 51020 70222 8/47/ 22214 20807 80160
AAXX 28124 40272 32960 00000 10130 20024 39384 40235 57020
AAXX 28124 40270 31956 00000 10124 21003 39325 40238 57011 70500
BBXX ONFW 28124 99245 11203 41197 60213 10180 20148 40210 56/// 70222 8627/ 22243 04120 20203 304// 40302 5//// 6//// 80160 ICE /////
AAXX 28124 78764 32960 01110 10189 20137 39047 40174 51010 333 10250 20187 30/// 56/// 58008
AAXX 28124 78764 32960 01110 10189 20137 39047 40174 51010 333 10250 20187 30/// 56/// 58008
AAXX 28124 91334 11474 80612 10280 20250 30095 40098 51008 60061 70282 82271 333 10339 56199 59003 70061 555 92812
AAXX 28124 91334 11474 80612 10280 20250 30095 40098 51008 60061 70282 82271 333 10339 56199 59003 70061 555 92812
AAXX 28124 40340 31956 03616 10204 20043 40195 57033 70500 80002 333 83070
BBXX DBKV 28121 99169 70250 46/// /0507 10228 20148 40191 52003 22210 00232
BBXX DBBU 28121 99543 10131 46/// /2108 10065 20048 40197 57037 22260 00069
BBXX DBBT 28121 99339 30184 46/// /3203 10232 20131 40162 54000 22220 00149
BBXX 46249 28121 99338 71197 46/// ///// 1//// 91140 22200 00145 11303 20902 326// 41302 70013
BBXX 46244 28121 99409 71244 46/// ///// 1//// 91135 22200 00101 11105 21004 328// 41104 70026
BBXX 46114 28121 99364 71222 46/// ///// 1//// 91134 22200 00123 11306 21003 329// 41305 70028
BBXX 41115 28121 99184 70673 46/// ///// 1//// 91135 22200 10902 20902 70008
BBXX 41114 28121 99276 70802 46/// ///// 1//// 91146 22200 00240 10503 20503 70015
BBXX 46237 28121 99378 71226 46/// ///// 1//// 91140 22200 00107 11404 21002 325// 41404 70022
BBXX 46212 28121 99408 71243 46/// ///// 1//// 91142 22200 00101 11306 20903 329// 41304 70028
BBXX 46211 28121 99469 71242 46/// ///// 1//// 91136 22200 00089 11008 21006 326// 41305 70041
AAXX 28124 68392 16/// /1609 10185 20173 30147 4//// 51009 60011 333 10221 20175 91015 555 20012
AAXX 28124 08583 32565 30727 10245 20138 40188 82501 333 59017 82622
AAXX 28124 08589 32470 20418 10250 20172 40179 82230 333 59001 86616
AAXX 28124 08594 32475 30616 10238 20167 40188 81532 333 59005 81615 83360
AAXX 28124 40296 32960 00000 10214 20065 40225 57028
AAXX 28124 89054 11107 83017 10018 20013 49724 57012 69971 74065 886// 333 10029 20008 56799 88603 96451
AAXX 28124 89056 11115 82920 10014 20010 49739 54004 60012 71077 886// 333 10015 20002 41997 55025 56699 88703
AAXX 28124 89057 11230 82415 10020 20008 49730 57005 69942 75022 886// 333 10020 20002 42035 56699 88705
AAXX 28124 89058 11456 82916 10019 20012 39722 49743 57001 60031 71076 886//
AAXX 28124 89059 11210 80820 10005 21006 49734 57025 60062 72372 884// 333 10005 21004 42022 55050 72299 88605
AAXX 28124 89251 11140 83220 10017 20009 49731 57002 60022 76176 8672/ 333 20008
AAXX 28124 67297 32580 3//// 10322 20256 40083 83801 333 59038 94380
AAXX 28124 91413 32469 70608 10277 20239 30083 40108 53005 82171 333 10306 56299 59014 70086 555 92812
AAXX 28124 91413 32469 70608 10277 20239 30083 40108 53005 82171 333 10306 56299 59014 70086 555 92812
AAXX 28124 91408 32474 80911 10279 20244 30059 40097 50007 81271 333 10322 56299 59016 70041 555 92812
AAXX 28124 91408 32474 80911 10279 20244 30059 40097 50007 81271 333 10322 56299 59016 70041 555 92812
BBXX 46060 28121 99606 71468 46/// /1107 11002 49821 58027 91150 22200 00051 333 91209 555 11071 22074 31136 41109 61149 106068 112068 128063 127063 126067 129062 81108 91137
BBXX 44098 28121 99428 70702 46/// ///// 1//// 91137 22200 00085 10806 20806 309// 41103 70032
BBXX 44097 28121 99410 70711 46/// ///// 1//// 91132 22200 00114 11109 21007 321// 41106 70047
BBXX 52200 28121 99134 11448 46/// ///// 1//// 91145 22200 00286 11105 21004 309// 41102 70023
BBXX 51201 28121 99217 71581 46/// ///// 1//// 91142 22200 00241 11303 20703 333// 41301 70015
AAXX 28124 61902 32584 31416 10277 20179 40160 83800 333 59001 81822
AAXX 28124 61901 12475 71111 10191 20127 39693 40199 60001 878// 91150 333 59004 81816 87627
BBXX 44025 28121 99402 70732 46/// /2712 10082 20032 49971 53012 91150 22200 00105 11207 20504 314// 41205 70033 333 91214 555 11124 22131 31106 42816 61149 271115 276116 275120 277124 271127 270118
BBXX 41008 28121 99314 70809 46/// /2911 10098 20056 40186 52013 91150 22200 00165 333 91213 555 11120 22125
BBXX BAREU63 28124 99424 10110 46/// /3310 10127 29063 40290 57020 22233
BBXX A8EH3 28123 99535 11754 41/98 50209 11030 21061 40120 52010 76871 8457/ 22265 04050 20502 81040
BBXX DQVI 28123 99362 70030 41597 41011 10170 20137 40310 50000 7//// 8354/ 22224 00170 2//// 80150
AAXX 28124 68906 12698 53507 10187 20087 30138 40202 58001 69921 81506 222// 00132 333 10191 20119 91018 555 20002 69925 91020
AAXX 28124 68994 32498 51821 10077 20029 30083 40112 53008 85500 222// 00069 333 10091 20060 91029 555 91011
AAXX 28124 68382 16/// /1106 10196 20172 39340 48519 53002 69981 333 10220 20184 91015 555 20008 69965 91015
AAXX 28124 68352 16/// /1110 10239 20029 39040 48496 58006 69961 333 10259 20208 91012 555 20006 69925 91013
AAXX 28124 16597 11462 50813 10138 20106 30164 40252 58024 69921 70381 83272 333 83815 84360 91123 91505
BBXX BAREU05 28124 99450 70404 46/// ///// 40177 52014 22223
AAXX 28124 91376 32474 40612 10277 20233 30090 40093 50002 82101 333 10302 561/9 59004 70008 555 92812
BBXX 41012 28121 99300 70805 46/// /3110 10130 40190 51017 91150 22200 00223 10705 20705 70024 333 91213 555 11105 22110 31101 43016 61149 313102 315106 311108 312109 310114 314115
BBXX 41060 28121 99148 70510 46/// ///// 1//// 91150 22200 10904 70018
BBXX 41049 28121 99275 70630 46/// /1906 10210 20127 40214 53007 91150 22200 00230 11308 20301 300// 41308 70039 333 91208 555 11058 22060 31104 41608 61149 192053 183047 186056 165053 162054 188058 81707 91104
BBXX 41001 28121 99347 70727 46/// ///// 10167 20103 40031 53013 91150 22200 00215 11110 70052
BBXX 42020 28121 99270 70967 46/// /0000 10174 20081 40213 56011 91150 22200 00188 1//00 70002 333 91201 555 11003 22003 31051 40802 61149 127003 110001 065008 079008 078009 092015
BBXX 41044 28121 99217 70587 46/// /0905 10244 20172 40219 53012 91150 22200 00260 11004 20501 300// 41004 70020 333 91207 555 11053 22055 31138 40907 61149 088051 087051 079050 080051 084052 077050 80806 91138
BBXX 41048 28121 99320 70696 46/// /2018 10228 20189 40086 55017 91150 22200 00224 10808 20807 3//// 41404 70039 333 91224 555 11181 22194 31134 42025 50079 61149 200181 200196 195195 194196 196193 191193 71057 82022 91135
BBXX 42065 28121 99149 70750 46/// /0507 10264 20215 91150 22200 10903 20502 3//// 40903 70017 333 91208 555 11074 22078 31120 40509 61149 046070 047072 050072 043070 044067 043066 80508 91120
BBXX 42001 28121 99259 70897 46/// /0104 10184 20090 40221 54000 91150 22200 00238 10703 20401 3//// 40702 70013 333 91205 555 11039 22040 31055 40108 61149 008041 353039 015039 002050 354052 357044
BBXX 42035 28121 99292 70944 46/// /1004 10125 20082 40221 56008 91150 22200 00127 1//00 70002 333 91205 555 11043 22045 31058 40905 61149 103040 099041 093042 093044 087044 089046
BBXX 42012 28121 99301 70876 46/// /3406 10123 20061 40218 54000 91150 22200 00192 10701 20401 320// 40701 70006 333 91207 555 11058 22060 31059 43508 61149 339056 339059 341055 338056 342057 347058
BBXX 42058 28121 99149 70749 46/// /0810 10269 20219 40145 53007 91150 22200 00273 10804 20603 309// 40803 70022 333 91212 555 11106 22112 31113 40712 61149 079099 073096 076098 072103 072105 075096 80711 91113
BBXX 42060 28121 99163 70635 46/// /0808 10266 20207 40188 53019 91150 22200 00271 10503 20503 300// 40801 70015 333 91210 555 11088 22094 31050 40611 61149 077082 076080 075076 076082 076075 067086 80610 91051
BBXX 42036 28121 99285 70845 46/// /3606 10139 20066 40214 51010 91150 22200 00211 10804 20502 327// 40803 70018 333 91209 555 11065 22067 31052 43610 61149 002062 352063 000071 357069 354068 353076
BBXX 42056 28121 99198 70849 46/// /0306 10261 20224 40177 55000 91150 22200 00270 10602 20401 309// 40602 70010 333 91208 555 11066 22069 31148 40408 61149 034061 039061 032059 032059 034057 033057 80407 91148
BBXX 42059 28121 99151 70675 46/// /0808 10274 20215 40170 51017 91150 22200 00277 10703 20703 70017 333 91209 555 11085 22091 31116 40810 61149 081081 078085 077081 077084 078077 074081 80809 91116
BBXX 42019 28121 99279 70954 46/// /1402 10177 20091 40213 56008 91150 22200 10301 70003 333 91204 555 11025 22027 31056 42905 61149 149024 285030 284029 285030 290023 281034
BBXX 44005 28121 99432 70691 46/// /2011 10097 20097 49896 56018 91150 22200 00083 10809 20808 3//// 41303 70043 333 91214 555 11116 22126 31103 41814 61149 204106 198106 192111 187107 182113 176113
BBXX 42362 28121 99278 70907 46/// /0606 10156 20061 40227 91145
BBXX 42363 28121 99282 70892 46/// /0407 10139 20061 40227 91145 333 91207
BBXX 42040 28121 99292 70882 46/// /0304 10136 40220 55000 91150 22200 00221 10502 20401 333// 40502 70011 333 91206 555 11043 22044 31058 43607 61149 026040 027045 025049 024047 011053 019053
BBXX 42003 28121 99260 70856 46/// /0105 1//// 91150 22200 10704 20401 330// 40704 70019 333 91208 555 11051 22054 31055 43509 61149 003049 348061 337047 002053 347062 351056 83507 91139
BBXX 42055 28121 99222 70940 46/// /0304 10215 20141 40210 56005 91150 22200 00248 10602 20401 301// 40602 70011 333 91205 555 11043 22044 31109 40506 61149 031041 035038 032041 039040 041040 034035 80605 91109
BBXX 42002 28121 99258 70937 46/// /3401 10182 20102 40221 54000 91150 22200 00240 10601 20401 333// 40601 70007 333 91201 555 11006 22006 31056 40204 61149 341007 007010 026006 052004 025016 020020
BBXX 41047 28121 99275 70715 46/// /2312 10242 40173 53009 91150 22200 00249 10604 20604 303// 41102 70020 333 91213 555 11118 22125 31135 42316 61149 229117 226122 229120 228122 226120 228125 82314 91135
BBXX 41043 28121 99211 70650 46/// /1005 10245 20203 40204 53007 91150 22200 00256 10903 20401 300// 40902 70013 333 91207 555 11056 22058 31103 41107 61149 097053 099052 101051 101056 107058 103056 81106 91103
BBXX 41036 28121 99342 70770 46/// ///// 10104 20034 40112 53033 91150 22200 00173 10806 70028
BBXX 44066 28121 99396 70726 46/// /2812 10097 20058 49978 52008 91150 22200 00126 11109 20805 3//// 41107 70044 333 91214 555 11127 22134 31134 42816 61149 280120 277123 273107 277112 271107 271102
BBXX 32012 28121 99197 50856 46/// ///// 1//// 91150 22200 11304 70020
BBXX 46002 28121 99426 71305 46/// ///// 10129 40160 52007 91150 22200 00117 11309 70043
BBXX 46006 28121 99408 71375 46/// /2212 10146 40135 56012 91150 22200 00122 11308 20806 3//// 41306 70041 333 91215 555 11133 22145 31123 42216 61149 218122 217123 217124 217121 216119 216123
BBXX 46084 28121 99566 71361 46/// ///// 10042 20011 49753 56027 91150 22200 00073 11107 70034
BBXX 46078 28121 99561 71526 46/// /3214 11039 21097 49898 91150 333 91217 555 11146 22156
BBXX 46075 28121 99539 71608 46/// /0302 11030 21093 49971 58003 91150 22200 00039 11704 20401 300// 41704 70021 333 91204 555 11021 22022 31104 43505 61149 024020 077009 061008 022016 001019 002020 83604 91104
BBXX 46059 28121 99380 71300 46/// /2307 10145 40262 55000 91150 22200 00142 11306 20603 3//// 41305 70028 333 91209 555 11078 22084 31059 42310 61149 233073 232074 232075 232077 228080 228081
BBXX 46005 28121 99461 71310 46/// ///11 10112 40058 51018 91150 22200 00099 11309 20805 3//// 41307 70045 333 91213 555 11119 22129
BBXX 46080 28121 99580 71500 46/// /3111 11057 21102 49867 58006 91150 22200 00048 11104 20604 3//// 41102 70021 333 91214 555 11117 22122 31101 42914 61149 308109 317103 306091 308089 309098 324087 83011 91147
BBXX C6CL6 28124 77043 41497 81736 00/// 10180 2015/ 40080 54000 70322 8862/ 22262 00190 20304 318// 40404 5//// 6//// 80160 0/0/0
BBXX 3EMK6 28124 99266 70925 41/// /0702 10170 2//// 40240 56010 7//// 8//// 22200 00232 2//// 3//// 4//// 5//// 6//// 8//// ICE /////
BBXX WDE3569 28124 99423 70875 43/// 83312 11061 2//// 40142 5//// 7//// 8//// 22243 00044 20403 3//// 4//// 5//// 6//// 8//// ICE /////
BBXX NWS0022 28124 99416 70714 43/// /2311 10090 20056 49933 5//// 7//// 8//// 222// 04103 2//// 3//// 4//// 5//// 6//// 8//// ICE /////
BBXX WDC6698 28124 99182 71552 43/// /0822 1//// 2//// 40180 5//// 7//// 8//// 222// 04246 2//// 3//// 4//// 5//// 6//// 8//// ICE /////
BBXX WDF7994 28124 99435 70877 43/98 22812 11088 2//// 40173 55000 70000 8//// 22243 00039 20202 3//// 4//// 5//// 6//// 8//// ICE /////
BBXX WYP8657 28124 99475 70886 41/98 89902 11090 40166 70272 22223 00050 2//02
BBXX 46088 28121 99483 71232 46/// /1804 10095 40065 53019 91150 22200 00078 10201 70003 333 91205 555 11043 22050 31120 42206 61149 179037 215043 205053 195046 184051 210054
BBXX 46014 28121 99394 71240 46/// /1104 10104 40281 58006 91150 22200 00108 11405 20401 3//// 41405 70024 333 91206 555 11046 22048 31149 41106 61149 112043 107032 105028 111016 124012 123023
BBXX 46011 28121 99350 71210 46/// /3608 10137 40236 58008 91150 22200 00131 11405 20502 329// 41404 70025 333 91210 555 11088 22095 31055 43511 61149 356082 355087 353092 352081 349085 346092
BBXX 46047 28121 99324 71195 46/// /2902 10132 40227 50000 91150 22200 00134 11305 20401 330// 41305 70023 333 91203 555 11018 22018 31057 43404 61149 290017 322016 340016 344019 343027 343028
BBXX 46086 28121 99325 71180 46/// /3603 10140 40223 51005 91150 22200 00149 11403 20401 329// 41403 70016 333 91204 555 11032 22033 31055 43405 61149 358031 357030 000034 353039 352043 351043
BBXX 46027 28121 99419 71244 46/// /1610 10102 40239 53010 91150 22200 00095 11206 20703 328// 41205 70029 333 91212 555 11104 22113 31104 41514 61149 161097 158107 159106 160104 156111 156112
BBXX 46088 28121 99483 71232 46/// /1804 10095 40065 91150 22200 00078 10201 70003 333 91205 555 11043 22050 31120 42206 61149 179037 215043 205053 195046 184051 210054
BBXX 46050 28121 99442 71246 46/// /2013 10104 40152 58003 91150 22200 00096 10909 20706 321// 40908 70047 333 91216 555 11140 22150 31102 41916 61149 196129 195127 193126 192130 192129 194132
BBXX 46069 28121 99337 71202 46/// /3104 10138 40225 55000 91150 22200 00140 11104 20401 330// 41104 70021 333 91205 555 11039 22041 31103 43105 61149 308037 303035 303035 311037 314040 316037
BBXX 46012 28121 99374 71229 46/// /3506 10113 40283 52003 91150 22200 00121 11305 20301 329// 41305 70026 333 91207 555 11067 22070 31105 43310 61149 348064 341067 341073 339071 336077 337075
BBXX 46013 28121 99382 71233 46/// /3002 10114 40280 50000 91150 22200 00108 11304 20401 3//// 41304 70022 333 91202 555 11018 22021 31102 43304 61149 298014 323017 339023 334026 334032 331032
BBXX 46087 28121 99485 71247 46/// /2210 10103 20102 40060 53014 91150 22200 00081 11306 20602 326// 41305 70030 333 91211 555 11104 22114 31133 42212 61149 216095 212097 210093 212095 215092 218086
BBXX 46029 28121 99461 71245 46/// /2210 10105 20104 40126 53018 91150 22200 00098 11311 20704 327// 41310 70054 333 91212 555 11107 22115 31056 42214 61149 217100 217105 216105 218104 219107 220106
BBXX 46028 28121 99357 71219 46/// /3410 10127 40246 58004 91150 22200 00130 11305 20703 331// 41304 70024 333 91212 555 11103 22109 31108 43312 61149 339096 338090 336094 337096 333101 329090
BBXX 46054 28121 99342 71204 46/// /2904 10145 40221 58004 91150 22200 00138 11404 20401 300// 41404 70021 333 91205 555 11040 22046 31143 42905 61149 286036 284030 290025 295014 305014 324010
BBXX 46025 28121 99337 71191 46/// /3304 10145 20107 40218 55000 91150 22200 00149 11402 329// 41402 70012 333 91204 555 11039 22040 31125 43205 61149 329036 333042 329044 326043 323039 325041
BBXX 46070 28121 99551 11753 46/// /0306 11035 21108 40115 51003 91150 22200 00035 11005 20502 3//// 41005 70027 333 91208 555 11059 22061 31051 40408 61149 029058 042056 042056 035055 031058 033062 80307 91051
BBXX 46078 28121 99561 71526 46/// /3214 11039 21097 49898 91150 333 91217 555 11146 22156
BBXX 41004 28121 99325 70791 46/// /2913 10107 20043 40159 52030 91150 22200 00188 10805 20805 3//// 41401 70027 333 91216 555 11133 22140 31101 42917 61149 286124 287122 288132 290131 290138 289133
BBXX 44060 28121 99413 70721 46/// ///12 10082 49948 91145 22200 00098 333 91214 555 11134 22139
BBXX 44009 28121 99385 70747 46/// /2812 10076 40033 53021 91150 22200 00111 10504 20503 300// 41102 70020 333 91215 555 11127 22133 31130 42815 61149 281119 280121 280118 282114 282119 282118
BBXX 44014 28121 99366 70748 46/// /2913 1//// 40046 53026 91150 22200 00140 10607 20606 313// 41003 70034 333 91216 555 11128 22128 31113 43016 61149 289129 290130 291124 292126 288129 292127
BBXX 44027 28121 99443 70673 46/// /1515 10098 20088 49907 56047 91150 22200 00081 10808 20808 70040 333 91218 555 11161 22174 31053 41523 61149 153150 150152 148155 150155 149158 149170
BBXX 44065 28121 99404 70737 46/// /2712 10074 20024 49974 53010 91150 22200 00100 11106 20503 312// 41105 70028 333 91215 555 11125 22132 31144 42715 61149 270117 265115 267117 268117 272115 271117 82713 91147
BBXX 41013 28121 99334 70777 46/// /2914 10112 20042 40129 53030 91150 22200 00217 10906 20806 320// 40903 70032 333 91216 555 11143 22150 31105 42918 61149 290136 292133 294141 289136 294145 289144
BBXX 44022 28121 99409 70737 46/// ///07 10071 20017 49971 91145 22200 00084 333 91210 555 11077 22082
BBXX 44020 28121 99414 70702 46/// /2410 10085 20061 49930 55000 91150 22200 00070 333 91212 555 11102 22108 31111 42612 61149 243095 255093 255101 255099 255095 254093
AAXX 28121 76220 32920 00000 11050 21050 38185 40282 5//// 91145 333 10168 21050 31080 59020 70000
AAXX 28121 76225 32920 20000 10040 21071 38655 40192 55000 82040 91135 333 10186 20040 30008 56060 59033 70000 82360
AAXX 28121 76305 32970 23405 10190 21008 30176 40186 5//// 80004 81140 333 10265 20188 30170 56005 59006 70000 82070
AAXX 28121 76342 32940 02301 10082 21023 39517 40242 57016 91150 333 10242 20074 30068 59031 70000
AAXX 28121 76390 31850 22402 10078 21099 38247 40224 57009 70544 82050 91130 333 10190 20004 31001 56080 59024 70000 82356
AAXX 28121 76402 32950 00000 10110 20052 30114 40173 57013 91145 333 10292 20100 30094 59017 70000
AAXX 28121 76471 32980 00000 10050 21124 37715 40188 5//// 91150 333 10206 20028 30009 55099 59010 70000
AAXX 28121 76525 32960 02308 10107 21016 37489 40146 57004 91150 333 10169 20092 30084 55096 22653 59007 70000
AAXX 28121 76539 32958 02701 10028 20011 38187 40245 57005 91150 333 10240 20014 31011 59002 70000
AAXX 28121 76543 32975 01601 10088 21002 30199 40232 57/// 91145 333 10273 20088 30/// 59021 70000
AAXX 28121 76548 32960 00000 10114 20107 30217 40227 57012 91140 333 10236 20108 30106 59015 70000
AAXX 28121 76556 32960 21602 10139 20087 39128 40146 57009 80001 91130 333 10286 20136 30123 56005 59003 70000 82070
AAXX 28121 76577 32960 52301 10095 20081 38070 40180 51001 80003 91140 333 10251 20089 30079 56005 58001 70000 85080
AAXX 28121 76593 32350 10402 10220 20203 30199 40201 51007 81100 91150 333 10297 20218 30211 568// 58017 70000 81720
AAXX 28121 76625 32960 01801 10098 20031 38166 40168 57010 91140 333 10263 20092 30068 58006 70000
AAXX 28121 76632 31950 01801 10070 20030 37661 40193 5//// 70500 91140 333 10191 20066 30/// 58002 70000 98550
AAXX 28121 76654 31956 00302 10227 20194 30158 40162 52006 70544 91150 333 10302 20225 30208 58016 70000
AAXX 28121 76665 31258 32401 10098 20070 38145 40174 52005 70310 83200 91145 333 10270 20089 30075 56100 57811 59003 70000 83805
AAXX 28121 76683 32960 00000 10052 20017 37857 40229 55002 91145 333 10250 20052 30030 50391 55096 21883 58004 70000
AAXX 28121 76685 32950 00000 10064 20021 37894 40173 57012 91158 333 10250 20062 30048 58004 70000
AAXX 28121 76687 32964 00000 10098 20084 38718 40232 56006 91140 333 10140 20095 30085 58005 70002
AAXX 28121 76692 31520 72401 10194 20159 30202 40221 56005 71044 8555/ 91145 333 10230 20192 30/// 5688/ 59001 70000 85622
AAXX 28121 76737 32980 00000 10113 20094 38814 40220 57004 91135 333 10153 20105 30097 58005 79999 91103 91523
AAXX 28121 76775 31960 00301 10103 20070 38566 40222 52003 70011 91145 333 10298 20092 30/// 58014 70000
AAXX 28121 76840 32920 00208 10257 20180 30085 40140 55001 91145 333 10307 20217 30/// 55102 58003 70000
AAXX 28121 76843 32565 23601 10194 20171 39532 40179 57008 82100 91130 333 10262 20190 30182 569// 59002 70000 82830
AAXX 28121 76412 32960 02201 10082 20062 30133 40181 57001 91140 333 10286 20080 30/// 58004 70000
AAXX 28121 76640 31110 21401 10140 20136 30227 40239 57014 70200 826// 91140 333 10228 20134 30130 569// 59011 70000 82702
AAXX 28121 76741 01130 83209 10206 20205 30158 40177 57004 60011 75052 86770 91135 333 10250 20176 30160 568// 59002 69997 70012 82601
AAXX 28121 76855 32580 03601 10214 20184 30075 40124 5//// 91145 333 10328 20208 30202 55097 56000 58012 70000 92000
BBXX DBBT 28121 99339 30184 46/// /3203 10232 20131 40162 54000 22220 00149
BBXX DBKV 28121 99169 70250 46/// /0507 10228 20148 40191 52003 22210 00232
BBXX BAREU05 28124 99450 70404 46/// ///// 40177 52014 22223
BBXX 44025 28121 99402 70732 46/// /2712 10082 20032 49971 53012 91150 22200 00105 11207 20504 314// 41205 70033 333 91214 555 11124 22131 31106 42816 61149 271115 276116 275120 277124 271127 270118
BBXX 41008 28121 99314 70809 46/// /2911 10098 20056 40186 52013 91150 22200 00165 333 91213 555 11120 22125
BBXX 4XIS 28123 99230 71132 43/98 33516 10190 2016/ 40190 56010 22235 80170
BBXX C6T2064 28123 99310 70403 41597 61828 10220 2021/ 40200 57005 70222 85241 22264 20906 80210
BBXX 3FQS8 28124 99268 71228 41/97 70020 00/// 10153 2014/ 40230 54000 70222 87/// 22274 0//// 2//// 3//// 4//// 5//// 6//// 80140 /////
BBXX A8UE5 28124 99544 71735 41/// /3221 11050 21057 40035 54000 72300 8//// 22224 04030 2//// 3//// 4//// 5//// 81050
BBXX C6LU4 28124 99414 70598 41298 71720 10100 2008/ 40150 57010 70311 86958 22224 20303 309// 40808 5//// 80090
BBXX LAIG7 28124 99298 71484 41498 31607 10200 2015/ 40270 54000 70200 8348/ 22223 00220 20402 330// 41004 5//// 6//// 80170 ICE /////
BBXX PCGM 28123 99118 70386 41499 50219 10265 20208 40178 52010 70322 833/2 22213 04272 20504 80225
BBXX 44098 28121 99428 70702 46/// ///// 1//// 91137 22200 00085 10806 20806 309// 41103 70032
BBXX 44097 28121 99410 70711 46/// ///// 1//// 91132 22200 00114 11109 21007 321// 41106 70047
BBXX 46060 28121 99606 71468 46/// /1107 11002 49821 58027 91150 22200 00051 333 91209 555 11071 22074 31136 41109 61149 106068 112068 128063 127063 126067 129062 81108 91137
BBXX WSRL 28123 99391 71242 41598 81613 10115 2011/ 40265 50020 70262 8//// 22234 00100 2//// 3//// 4//// 5//// 6//// 80110 ICE /////
BBXX A8SG3 28124 99241 70527 41297 60415 10230 20185 40220 50010 70322 83790 22214 04260 2//// 330// 41207 80200
BBXX WDD6126 28124 99321 70708 41495 82241 10180 2018/ 40078 57035 78162 883// 22274 00208 20411 322// 40812 5//// 6//// 80180 ICE /////
BBXX 46211 28121 99469 71242 46/// ///// 1//// 91136 22200 00089 11008 21006 326// 41305 70041
BBXX 46237 28121 99378 71226 46/// ///// 1//// 91140 22200 00107 11404 21002 325// 41404 70022
BBXX 46212 28121 99408 71243 46/// ///// 1//// 91142 22200 00101 11306 20903 329// 41304 70028
BBXX 41115 28121 99184 70673 46/// ///// 1//// 91135 22200 10902 20902 70008
BBXX 41114 28121 99276 70802 46/// ///// 1//// 91146 22200 00240 10503 20503 70015
BBXX 46244 28121 99409 71244 46/// ///// 1//// 91135 22200 00101 11105 21004 328// 41104 70026
BBXX 46114 28121 99364 71222 46/// ///// 1//// 91134 22200 00123 11306 21003 329// 41305 70028
BBXX 46249 28121 99338 71197 46/// ///// 1//// 91140 22200 00145 11303 20902 326// 41302 70013
BBXX C6CL6 28124 99367 70437 41497 81736 00/// 10180 2015/ 40080 54000 70322 8862/ 22262 00190 20304 318// 40404 5//// 6//// 80160 0/0/0
BBXX KCGH 28123 99206 70687 41797 61312 10244 2020/ 40163 52016 7//11 862// 22274 00256 20201 309// 40402 5//// 6//// 80211 ICE /////
BBXX OXBB2 28121 99319 70409 41/96 82609 10195 20174 40210 58068 76566 8//// 22254 00210 29903 80181
BBXX KRGB 28124 99239 71521 41698 21222 10211 20160 40220 54000 70110 82400 22214 00211 20805 311// 41206 5//// 6//// 80178 ICE /////
BBXX A8EH3 28123 99535 11754 41/98 50209 11030 21061 40120 52010 76871 8457/ 22265 04050 20502 81040
BBXX SHIP 28124 99337 11730 41898 42804 10160 2013/ 40190 52015 70111 84181 22223 00220 20400 329// 41504 5//// 6//// 80140 ICE /////
BBXX 4XFV 28123 99409 11548 43397 52928 00/// 10040 2104/ 40120 54000 7//// 85/// 22224 0//// 2//// 3//// 4//// 5//// 6//// 80010 ICE /////
BBXX MZDL7 28123 99524 50785 41/97 82933 10079 20059 40145 57007 70252 886// 22233 00090 20403 326// 41210 5//// 80070
BBXX WDE8265 28123 99364 10135 41498 80919 10155 2011/ 40249 56015 71552 8842/ 22234 0//// 20202 310// 40604 5//// 6//// 80130 ICE /////
BBXX DBBU 28121 99543 10131 46/// /2108 10065 20048 40197 57037 22260 00069
BBXX LAVX4 28124 99467 70190 41/97 73616 1015/ 2013/ 40375 54005 70322 86543 22213 0//// 2//// 3//// 41206 8015/
BBXX DBKR 28121 99541 10121 46/// /2006 10066 20037 40190 57039 22200 00055
BBXX DBFR 28121 99535 10086 46/// /2208 10071 20059 40185 57024 22200 00058
BBXX DBJM 28121 99542 10081 46/// /2014 10065 20052 40161 57029 22201 00059
BBXX DBEA 28121 99539 10087 46/// /2108 10067 20045 40174 57018 22232 00051
BBXX DBBC 28121 99535 10100 46/// /2204 10075 20037 40196 57031 22260 00065
BBXX DBEB 28121 99535 10086 41/// /2308 10070 20070 40187 58005 7//// 22233 00058
BBXX DBFH 28121 99535 10086 46/// /2208 10073 20052 40188 57024 22260 00058
BBXX DBBA 28121 99544 10122 46/// /1909 10060 20033 40186 57043 22202 00050
BBXX DBND 28121 99536 10086 46/// /2308 10069 20053 40181 57026 22260 00060
AAXX 28124 40250 32960 00000 10120 20004 39429 40238 57029
AAXX 28124 40260 32960 01206 10125 21005 39461 40258 54001
AAXX 28124 40265 31957 01107 10130 21021 39444 40254 57017 70522
AAXX 28124 40270 31956 00000 10124 21003 39325 40238 57011 70500
BBXX DBCK 28121 99/// ///// 46/// ///// 10074 20072 40184 57023 22220 00059
BBXX DBBI 28121 99535 10100 46/// /2204 10075 20057 40196 57029 22200 00059
AAXX 28121 76220 32920 00000 11050 21050 38185 40282 5//// 91145 333 10168 21050 31080 59020 70000
AAXX 28121 76225 32920 20000 10040 21071 38655 40192 55000 82040 91135 333 10186 20040 30008 56060 59033 70000 82360
AAXX 28121 76305 32970 23405 10190 21008 30176 40186 5//// 80004 81140 333 10265 20188 30170 56005 59006 70000 82070
AAXX 28121 76342 32940 02301 10082 21023 39517 40242 57016 91150 333 10242 20074 30068 59031 70000
AAXX 28121 76390 31850 22402 10078 21099 38247 40224 57009 70544 82050 91130 333 10190 20004 31001 56080 59024 70000 82356
AAXX 28121 76402 32950 00000 10110 20052 30114 40173 57013 91145 333 10292 20100 30094 59017 70000
AAXX 28121 76471 32980 00000 10050 21124 37715 40188 5//// 91150 333 10206 20028 30009 55099 59010 70000
AAXX 28121 76525 32960 02308 10107 21016 37489 40146 57004 91150 333 10169 20092 30084 55096 22653 59007 70000
AAXX 28121 76539 32958 02701 10028 20011 38187 40245 57005 91150 333 10240 20014 31011 59002 70000
AAXX 28121 76543 32975 01601 10088 21002 30199 40232 57/// 91145 333 10273 20088 30/// 59021 70000
AAXX 28121 76548 32960 00000 10114 20107 30217 40227 57012 91140 333 10236 20108 30106 59015 70000
AAXX 28121 76556 32960 21602 10139 20087 39128 40146 57009 80001 91130 333 10286 20136 30123 56005 59003 70000 82070
AAXX 28121 76577 32960 52301 10095 20081 38070 40180 51001 80003 91140 333 10251 20089 30079 56005 58001 70000 85080
AAXX 28121 76593 32350 10402 10220 20203 30199 40201 51007 81100 91150 333 10297 20218 30211 568// 58017 70000 81720
AAXX 28121 76625 32960 01801 10098 20031 38166 40168 57010 91140 333 10263 20092 30068 58006 70000
AAXX 28121 76632 31950 01801 10070 20030 37661 40193 5//// 70500 91140 333 10191 20066 30/// 58002 70000 98550
AAXX 28121 76654 31956 00302 10227 20194 30158 40162 52006 70544 91150 333 10302 20225 30208 58016 70000
AAXX 28121 76665 31258 32401 10098 20070 38145 40174 52005 70310 83200 91145 333 10270 20089 30075 56100 57811 59003 70000 83805
AAXX 28121 76683 32960 00000 10052 20017 37857 40229 55002 91145 333 10250 20052 30030 50391 55096 21883 58004 70000
AAXX 28121 76685 32950 00000 10064 20021 37894 40173 57012 91158 333 10250 20062 30048 58004 70000
AAXX 28121 76687 32964 00000 10098 20084 38718 40232 56006 91140 333 10140 20095 30085 58005 70002
AAXX 28121 76692 31520 72401 10194 20159 30202 40221 56005 71044 8555/ 91145 333 10230 20192 30/// 5688/ 59001 70000 85622
AAXX 28121 76737 32980 00000 10113 20094 38814 40220 57004 91135 333 10153 20105 30097 58005 79999 91103 91523
AAXX 28121 76775 31960 00301 10103 20070 38566 40222 52003 70011 91145 333 10298 20092 30/// 58014 70000
AAXX 28121 76840 32920 00208 10257 20180 30085 40140 55001 91145 333 10307 20217 30/// 55102 58003 70000
AAXX 28121 76843 32565 23601 10194 20171 39532 40179 57008 82100 91130 333 10262 20190 30182 569// 59002 70000 82830
AAXX 28121 76412 32960 02201 10082 20062 30133 40181 57001 91140 333 10286 20080 30/// 58004 70000
AAXX 28121 76640 31110 21401 10140 20136 30227 40239 57014 70200 826// 91140 333 10228 20134 30130 569// 59011 70000 82702
AAXX 28121 76741 01130 83209 10206 20205 30158 40177 57004 60011 75052 86770 91135 333 10250 20176 30160 568// 59002 69997 70012 82601
AAXX 28121 76855 32580 03601 10214 20184 30075 40124 5//// 91145 333 10328 20208 30202 55097 56000 58012 70000 92000
AAXX 28124 91376 32474 40612 10277 20233 30090 40093 50002 82101 333 10302 561/9 59004 70008 555 92812
AAXX 28121 76220 32920 00000 11050 21050 38185 40282 5//// 91145 33310168 21050 31080 59020 70000
AAXX 28121 76225 32920 20000 10040 21071 38655 40192 55000 82040 91135333 10186 20040 30008 56060 59033 70000 82360
AAXX 28121 76305 32970 23405 10190 21008 30176 40186 5//// 80004 81140333 10265 20188 30170 56005 59006 70000 82070
AAXX 28121 76342 32940 02301 10082 21023 39517 40242 57016 91150 33310242 20074 30068 59031 70000
AAXX 28121 76390 31850 22402 10078 21099 38247 40224 57009 70544 8205091130 333 10190 20004 31001 56080 59024 70000 82356
AAXX 28121 76402 32950 00000 10110 20052 30114 40173 57013 91145 33310292 20100 30094 59017 70000
AAXX 28121 76471 32980 00000 10050 21124 37715 40188 5//// 91150 33310206 20028 30009 55099 59010 70000
AAXX 28121 76525 32960 02308 10107 21016 37489 40146 57004 91150 33310169 20092 30084 55096 22653 59007 70000
AAXX 28121 76539 32958 02701 10028 20011 38187 40245 57005 91150 33310240 20014 31011 59002 70000
AAXX 28121 76543 32975 01601 10088 21002 30199 40232 57/// 91145 33310273 20088 30/// 59021 70000
AAXX 28121 76548 32960 00000 10114 20107 30217 40227 57012 91140 33310236 20108 30106 59015 70000
AAXX 28121 76556 32960 21602 10139 20087 39128 40146 57009 80001 91130333 10286 20136 30123 56005 59003 70000 82070
AAXX 28121 76577 32960 52301 10095 20081 38070 40180 51001 80003 91140333 10251 20089 30079 56005 58001 70000 85080
AAXX 28121 76593 32350 10402 10220 20203 30199 40201 51007 81100 91150333 10297 20218 30211 568// 58017 70000 81720
AAXX 28121 76625 32960 01801 10098 20031 38166 40168 57010 91140 33310263 20092 30068 58006 70000
AAXX 28121 76632 31950 01801 10070 20030 37661 40193 5//// 70500 91140333 10191 20066 30/// 58002 70000 98550
AAXX 28121 76654 31956 00302 10227 20194 30158 40162 52006 70544 91150333 10302 20225 30208 58016 70000
AAXX 28121 76665 31258 32401 10098 20070 38145 40174 52005 70310 8320091145 333 10270 20089 30075 56100 57811 59003 70000 83805
AAXX 28121 76683 32960 00000 10052 20017 37857 40229 55002 91145 33310250 20052 30030 50391 55096 21883 58004 70000
AAXX 28121 76685 32950 00000 10064 20021 37894 40173 57012 91158 33310250 20062 30048 58004 70000
AAXX 28121 76687 32964 00000 10098 20084 38718 40232 56006 91140 33310140 20095 30085 58005 70002
AAXX 28121 76692 31520 72401 10194 20159 30202 40221 56005 71044 8555/91145 333 10230 20192 30/// 5688/ 59001 70000 85622
AAXX 28121 76737 32980 00000 10113 20094 38814 40220 57004 91135 33310153 20105 30097 58005 79999 91103 91523
AAXX 28121 76775 31960 00301 10103 20070 38566 40222 52003 70011 91145333 10298 20092 30/// 58014 70000
AAXX 28121 76840 32920 00208 10257 20180 30085 40140 55001 91145 33310307 20217 30/// 55102 58003 70000
AAXX 28121 76843 32565 23601 10194 20171 39532 40179 57008 82100 91130333 10262 20190 30182 569// 59002 70000 82830
AAXX 28121 76412 32960 02201 10082 20062 30133 40181 57001 91140 33310286 20080 30/// 58004 70000
AAXX 28121 76640 31110 21401 10140 20136 30227 40239 57014 70200 826//91140 333 10228 20134 30130 569// 59011 70000 82702
AAXX 28121 76741 01130 83209 10206 20205 30158 40177 57004 60011 7505286770 91135 333 10250 20176 30160 568// 59002 69997 7001282601
AAXX 28121 76855 32580 03601 10214 20184 30075 40124 5//// 91145 33310328 20208 30202 55097 56000 58012 70000 92000
AAXX 28124 96315 11460 73602 10280 20252 40087 69902 71322 82968 333 10311 82815 81916 85364
AAXX 28124 96323 NIL
AAXX 28124 78016 32564 61919 10197 20135 30160 40164 57009 85409 333 10195 20153 70000
AAXX 28124 78905 12478 70911 10254 20206 30167 40190 60022 703// 87800 333 10259 20221 58002 70016 83817 85638 90999
AAXX 28124 89009 42661 73309 11224 36831 57009 86028 333 11219 21267 86441
AAXX 28124 68396 41465 70000 10224 20124 39426 48495 57005 795// 879// 555 10252 91013
AAXX 28124 78016 32564 61919 10197 20135 30160 40164 57009 85409 333 10195 20153 70000
AAXX 28124 89009 42661 73309 11224 36831 57009 86028 333 11219 21267 86441
AAXX 28124 78905 12478 70911 10254 20206 30167 40190 60022 703// 87800 333 10259 20221 58002 70016 83817 85638 90999
AAXX 28124 81405 02560 60712 10284 20231 30149 40158 60064 85230 333 20235 69927 59001 85820 555 60005
AAXX 28124 91772 11398 72007 10246 20227 4//// 60021 72522 8571/ 333 10260 5659/ 82707 84815 87461
AAXX 28124 91776 NIL
AAXX 28124 91779 11398 51708 10251 20238 40063 57001 60021 72588 857// 333 10300 564// 83708 85816
AAXX 28124 91784 31498 21311 10255 20229 40070 50002 60001 70110 82201 333 10296 563/9 82817
AAXX 28124 91792 31498 11309 10247 20203 40088 50001 60001 70121 81100 333 10296 563// 81816
AAXX 28124 81405 02560 60712 10284 20231 30149 40158 60064 85230 333 20235 69927 59001 85820 555 60005
BBXX BAREU51 28124 99398 10123 46/// ///// 40275 57024 22235
BBXX 41101 28124 99146 70562 46/// /0818 10265 20215 40172 52016 22200 00269 10704 70019
BBXX 61001 28124 99434 10078 46/// /1905 10129 20092 40286 57020 22200 00145 10501 70003
BBXX BAREU54 28124 99137 70763 46/// ///// 40149 52010 22254
AAXX 28121 13579 32970 01602 10028 21015 39460 40321 57026
AAXX 28124 85836 12970 09902 10149 20091 40254 51014 60004 333 20090 30/// 70000
AAXX 28124 85864 11980 10606 10172 20133 40184 52010 60004 80001 333 20120 30/// 55131 56003 70000 81070
AAXX 28124 85874 12980 33116 10158 20074 39563 40175 50010 60004 80002 333 20114 30/// 56006 70000 83070
AAXX 28124 85886 12970 40904 10164 20161 40171 52013 60004 80001 333 20104 30/// 56006 70000 84070
AAXX 28124 85934 12580 22743 10108 20014 40028 57006 69964 82101 333 20074 30/// 55017 56606 70004 82820
AAXX 28124 85968 12665 32629 10102 21004 49951 50/// 60014 83100 333 20051 30/// 55/// 56600 70011 83846
AAXX 28124 89056 11115 82920 10014 20010 49739 54004 60012 71077 886// 333 10015 20002 41997 55025 56699 88703
AAXX 28124 89057 11230 82415 10020 20008 49730 57005 69942 75022 886// 333 10020 20002 42035 56699 88705
AAXX 28124 89058 11456 82916 10019 20012 39722 49743 57001 60031 71076 886//
AAXX 28124 89059 11210 80820 10005 21006 49734 57025 60062 72372 884// 333 10005 21004 42022 55050 72299 88605
AAXX 28124 89251 11140 83220 10017 20009 49731 57002 60022 76176 8672/ 333 20008
AAXX 28124 85574 11950 21603 10171 20117 39595 40144 53012 60004 70500 80001 333 20138 30/// 55125 70000
AAXX 28124 85577 11958 23201 10174 20121 39546 40150 53012 60004 70500 80001 333 20145 30012 50640 55118 56006 70000 82075
AAXX 28124 85585 12498 52016 10172 20134 40191 53013 60004 85600 333 20161 30/// 55102 56400 70000 82712 83615
AAXX 28124 85672 12965 20303 10164 20136 40154 52031 60004 80009 333 20116 30/// 56006 70000 82170
AAXX 28124 85682 11240 83302 10135 20124 40157 53014 60004 71022 886// 333 20127 31/// 50770 55084 56799 70000 88705
AAXX 28124 85703 12960 01810 10190 20163 40142 57003 333 20160 30///
AAXX 28124 85743 12960 02804 10143 20113 40165 52013 333 20099 30/// 50700 55102 70000
AAXX 28124 85766 11960 01604 10184 20132 40176 52010 60004 7040/ 333 20094 30/// 55131 70000
AAXX 28124 85799 11360 51709 10132 20132 40200 52013 60004 70141 85600 333 20085 30/// 50550 55091 56400 70000 82707 85613
AAXX 28124 85418 12565 72104 10212 20147 40155 52009 60004 87530 333 20196 30/// 55096 56000 70000 81633 86363
AAXX 28124 85432 12970 50914 10196 20020 37781 48457 52007 69904 85030 333 20010 30/// 51450 55013 56060 79999 85362
AAXX 28124 85442 12568 79902 10185 20156 40145 54000 60004 81504 333 20193 30/// 50600 55053 56407 70000 81620 87080
AAXX 28124 85467 12460 89902 10161 20129 40182 52015 60004 885// 333 20148 30/// 55066 56699 70000 88615
AAXX 28124 85469 42565 61511 10208 20182 40191 54002 86800 333 56200 85820 83630
AAXX 28124 85488 32460 89901 10159 20127 40160 51023 885// 333 20152 3//// 5609? 70000 88615
AAXX 28124 91503 11470 80000 10250 20244 40085 51010 69941 71522 8487/ 333 10289 56999 58012 81816 84626 88460
AAXX 28124 91517 11465 61803 10245 20230 40091 52009 60031 71522 85838 333 10295 56999 58014 82814 85626
AAXX 28124 41170 32964 03211 10192 20049 30194 40207 333 58014
AAXX 28124 91503 11470 80000 10250 20244 40085 51010 69941 71522 8487/ 333 10289 56999 58012 81816 84626 88460
AAXX 28124 91517 11465 61803 10245 20230 40091 52009 60031 71522 85838 333 10295 56999 58014 82814 85626
AAXX 28121 13586 32456 80000 11013 21041 30047 40354 57024 886// 333 84712 88720
BBXX 46002 28121 99426 71305 46/// ///// 10129 40160 52007 91150 22200 00117 11309 70043
BBXX 46005 28121 99461 71310 46/// ///11 10112 40058 51018 91150 22200 00099 11309 20805 3//// 41307 70045 333 91213 555 11119 22129
BBXX 46006 28121 99408 71375 46/// /2212 10146 40135 56012 91150 22200 00122 11308 20806 3//// 41306 70041 333 91215 555 11133 22145 31123 42216 61149 218122 217123 217124 217121 216119 216123
BBXX 46012 28121 99374 71229 46/// /3506 10113 40283 52003 91150 22200 00121 11305 20301 329// 41305 70026 333 91207 555 11067 22070 31105 43310 61149 348064 341067 341073 339071 336077 337075
BBXX 46013 28121 99382 71233 46/// /3002 10114 40280 50000 91150 22200 00108 11304 20401 3//// 41304 70022 333 91202 555 11018 22021 31102 43304 61149 298014 323017 339023 334026 334032 331032
BBXX 46014 28121 99394 71240 46/// /1104 10104 40281 58006 91150 22200 00108 11405 20401 3//// 41405 70024 333 91206 555 11046 22048 31149 41106 61149 112043 107032 105028 111016 124012 123023
BBXX 46028 28121 99357 71219 46/// /3410 10127 40246 58004 91150 22200 00130 11305 20703 331// 41304 70024 333 91212 555 11103 22109 31108 43312 61149 339096 338090 336094 337096 333101 329090
BBXX 46029 28121 99461 71245 46/// /2210 10105 20104 40126 53018 91150 22200 00098 11311 20704 327// 41310 70054 333 91212 555 11107 22115 31056 42214 61149 217100 217105 216105 218104 219107 220106
BBXX 46050 28121 99442 71246 46/// /2013 10104 40152 58003 91150 22200 00096 10909 20706 321// 40908 70047 333 91216 555 11140 22150 31102 41916 61149 196129 195127 193126 192130 192129 194132
BBXX 46054 28121 99342 71204 46/// /2904 10145 40221 58004 91150 22200 00138 11404 20401 300// 41404 70021 333 91205 555 11040 22046 31143 42905 61149 286036 284030 290025 295014 305014 324010
AAXX 28124 85832 12980 09902 10157 20097 40201 51013 60004 333 20103 30/// 70000
AAXX 28121 33815 42598 43404 10088 20019 30084 40293 58014 84100 555 10011
AAXX 28124 91348 11474 50705 10277 20232 30058 40110 52007 60031 70288 83101 333 10322 561/9 58003 70137 555 92812
AAXX 28124 97180 32457 70503 10268 20265 30088 40106 51019 84272 333 10292 56000 58006 84819 84359
AAXX 28124 85418 12565 72104 10212 20147 40155 52009 60004 87530 333 20196 30/// 55096 56000 70000 81633 86363
AAXX 28124 85432 12970 50914 10196 20020 37781 48457 52007 69904 85030 333 20010 30/// 51450 55013 56060 79999 85362
AAXX 28124 85442 12568 79902 10185 20156 40145 54000 60004 81504 333 20193 30/// 50600 55053 56407 70000 81620 87080
AAXX 28124 85467 12460 89902 10161 20129 40182 52015 60004 885// 333 20148 30/// 55066 56699 70000 88615
AAXX 28124 85469 42565 61511 10208 20182 40191 54002 86800 333 56200 85820 83630
AAXX 28124 85488 32460 89901 10159 20127 40160 51023 885// 333 20152 3//// 5609* 70000 88615
AAXX 28124 85574 11950 21603 10171 20117 39595 40144 53012 60004 70500 80001 333 20138 30/// 55125 70000
AAXX 28124 85577 11958 23201 10174 20121 39546 40150 53012 60004 70500 80001 333 20145 30012 50640 55118 56006 70000 82075
AAXX 28124 85585 12498 52016 10172 20134 40191 53013 60004 85600 333 20161 30/// 55102 56400 70000 82712 83615
AAXX 28124 85672 12965 20303 10164 20136 40154 52031 60004 80009 333 20116 30/// 56006 70000 82170
AAXX 28124 85682 11240 83302 10135 20124 40157 53014 60004 71022 886// 333 20127 31/// 50770 55084 56799 70000 88705
AAXX 28124 85703 12960 01810 10190 20163 40142 57003 333 20160 30///
AAXX 28124 85743 12960 02804 10143 20113 40165 52013 333 20099 30/// 50700 55102 70000
AAXX 28124 85766 11960 01604 10184 20132 40176 52010 60004 7040/ 333 20094 30/// 55131 70000
AAXX 28124 85799 11360 51709 10132 20132 40200 52013 60004 70141 85600 333 20085 30/// 50550 55091 56400 70000 82707 85613
AAXX 28124 85418 12565 72104 10212 20147 40155 52009 60004 87530 333 20196 30/// 55096 56000 70000 81633 86363
AAXX 28124 85432 12970 50914 10196 20020 37781 48457 52007 69904 85030 333 20010 30/// 51450 55013 56060 79999 85362
AAXX 28124 85442 12568 79902 10185 20156 40145 54000 60004 81504 333 20193 30/// 50600 55053 56407 70000 81620 87080
AAXX 28124 85467 12460 89902 10161 20129 40182 52015 60004 885// 333 20148 30/// 55066 56699 70000 88615
AAXX 28124 85469 42565 61511 10208 20182 40191 54002 86800 333 56200 85820 83630
AAXX 28124 85488 32460 89901 10159 20127 40160 51023 885// 333 20152 3//// 5609* 70000 88615
BBXX 44007 28121 99435 70701 46/// /2108 10094 20094 49886 55000 91150 22200 00077 11006 20704 3//// 41005 70031 333 91210 555 11092 22101 31050 41812 61149 213084 211079 207079 202086 198083 188097
AAXX 28124 85418 12565 72104 10212 20147 40155 52009 60004 87530 333 20196 30/// 55096 56000 70000 81633 86363
AAXX 28124 85432 12970 50914 10196 20020 37781 48457 52007 69904 85030 333 20010 30/// 51450 55013 56060 79999 85362
AAXX 28124 85442 12568 79902 10185 20156 40145 54000 60004 81504 333 20193 30/// 50600 55053 56407 70000 81620 87080
AAXX 28124 85467 12460 89902 10161 20129 40182 52015 60004 885// 333 20148 30/// 55066 56699 70000 88615
AAXX 28124 85469 42565 61511 10208 20182 40191 54002 86800 333 56200 85820 83630
AAXX 28124 85488 32460 89901 10159 20127 40160 51023 885// 333 20152 3//// 5609* 70000 88615
AAXX 28124 91348 11474 50705 10277 20232 30058 40110 52007 60031 70288 83101 333 10322 561/9 58003 70137 555 92812
AAXX 28121 12772 31305 81101 10016 20010 30042 40338 58021 74244 886// 333 88706
AAXX 28121 12822 36/// /2101 10046 20021 30180 40328 57023
AAXX 28121 12843 31357 82402 10039 20026 30157 40333 58021 75052 876// 333 87708
AAXX 28121 12882 31247 80000 10033 20032 30199 40336 58021 71054 876// 333 87705
AAXX 28121 12925 36/// /1802 10030 20004 30157 40335 58025
AAXX 28121 12942 31960 71902 10033 20000 30087 40341 58022 70222 8707/
AAXX 28121 12982 11460 83402 10048 20033 30231 40335 58023 69931 70152 875// 333 87610
BBXX BATFR09 28124 99400 10121 46/// /1306 10157 20035 40282 58032 22263 00159
BBXX BATFR53 28124 99186 51456 44597 10314 10267 20207 40132 57018 70111 811// 22222 00275 20502 304// 40502 5////
BBXX FVNM 28124 99089 70795 46/// /3310 10257 20222 40128 53010 22200 00274
BBXX BATFR04 28124 99584 70062 46/// /1707 10019 21011 49821 22200 00354
BBXX BATFR02 28124 99504 70008 46/// /2634 10112 20072 40200 58059 22283 00114
BBXX BATEU07 28124 99062 10973 46/// /1018 10282 40110 53007 22263
BBXX BATFR52 28124 99494 70023 46/// /2326 10115 20079 40248 22285 00120
BBXX BATFR35 28124 99167 51511 46/// /0517 10262 20229 40106 22262 00285
BBXX BATFR54 28124 99523 70056 46/// /2540 10079 20029 40188 51032 22242 00110
BBXX BATFR13 28124 99423 70214 44498 60817 10139 20082 40407 53012 70122 861// 22264 00154 20402 330// 41204 5////
BBXX BATFR60 28124 99527 10036 46/// /2040 10089 20077 40158 58017 22252 00082
BBXX BATFR14 28124 99494 10010 46/// /2204 10079 20060 40252 58017 22200 00074
BBXX BATFR03 28124 99498 70005 46/// /2333 10109 20092 40228 50013 22244
BBXX BATFR56 28124 99032 10910 46/// /2604 10282 20279 40096 53011 22223 00299
BBXX BATEU09 28124 99413 10090 46/// /0709 10142 20077 40288 58022 22200 00164
BBXX BATFR19 28124 99066 30057 46/// /1916 10244 20199 40132 57018 22200 00255
BBXX BATFR55 28124 99145 30523 44698 31206 10284 20234 40100 70100 81364 22232 00295 20704 312// 411// 5////
BBXX BATFR15 28124 99319 70380 44598 71721 10222 20190 40256 51031 76062 8777/ 22214 00219 20406 317// 40406 5////
BBXX BATFR28 28124 99061 10867 46/// /2610 10277 20172 40083 53008 22262 00284
BBXX BATEU04 28124 99590 70436 46/// /2849 11035 21071 4//// 22262
AAXX 28124 78925 12575 30807 10261 20209 40183 53019 69901 83800 333 10292 20230 58003 70010 82826
AAXX 28124 78925 12575 30807 10261 20209 40183 53019 69901 83800 333 10292 20230 58003 70010 82826
AAXX 28124 78073 11465 60000 10225 20204 40176 69901 70381 85930 333 10280 20220 59010 79999 81915 85818 90940
BBXX VEP717 28124 99467 70487 41/91 90647 10050 2005/ 40141 57014 74742 89/// 22200 06021 20404 314// 40807 80049
AAXX 28124 78073 11465 60000 10225 20204 40176 69901 70381 85930 333 10280 20220 59010 79999 81915 85818 90940
AAXX 28124 67665 42680 60403 10300 20214 48509 85202 333 59016 85845 84080
AAXX 28124 78858 11479 60812 10252 20218 30138 40194 69952 71581 83840 333 10285 20233 58005 83818
AAXX 28124 78700 NIL
AAXX 28124 78703 31466 33403 10211 20201 30179 40178 705// 83240 333 10286 20211 30//7 56000 58003 70000 83819
AAXX 28124 78704 11568 60000 10221 20208 30154 40159 69912 705// 85960 333 10268 20206 30/// 56000 59018 70001 82922 83822 83358
AAXX 28124 78705 31570 62103 10202 20195 30167 40185 53005 705// 83270 333 10280 20193 30/// 58009 83826 86358
AAXX 28124 78706 11560 70000 10207 20200 30170 40175 60020 705// 85270 333 10299 20201 31/// 56210 59015 70021 85824 87458
AAXX 28124 78707 NIL 78708 31562 70000 10212 20212 30157 40188 53006 70544 83570 333 10275 20211 31/// 56880 58010 70037 83625 87358
AAXX 28124 78711 11570 53608 10250 20222 30152 40167 69982 705// 85250 333 10298 20230 31/// 56800 58005 70047 85828
AAXX 28124 78714 32565 60000 10183 20180 83130 333 10286 20183 30/// 56000 70000 83828 85358
AAXX 28124 78717 11340 83602 10158 20155 38992 40192 60051 710// 885// 333 10194 20154 32/// 56899 58007 70069 84707 88620
AAXX 28124 78718 31560 53414 10192 705// 83430 333 10260 20106 30//7 56800 70000 83630 83359
AAXX 28124 78719 32456 40514 10138 20116 38374 40157 84400 333 10192 20134 30/// 56100 58010 70000 84819
AAXX 28124 78720 31460 70109 10176 20156 39066 40173 53004 70544 87400 333 10253 20174 30/// 56800 58008 70000 81710 87622
AAXX 28124 78724 32578 20314 10266 20184 30084 40141 5//// 82500 333 10338 20236 30/// 56100 58008 82630
AAXX 28121 01001 11570 83406 11055 21100 30048 40060 57008 60001 70272 885// 222// 00000 333 91111
AAXX 28121 01008 16/// /3407 11130 21211 39951 49986 52023 6//// 333 91112
AAXX 28121 01010 41X12 92508 10011 21013 39966 49982 50006 78482 333 91118
AAXX 28121 01026 41X06 92501 10000 21007 39834 49976 51016 78682 333 4/026 91110
AAXX 28121 01055 46/// /2916 10024 21050 39892 49909 53011 333 91122
AAXX 28121 01062 NIL
AAXX 28121 01098 16/// /3112 10006 21031 39858 49876 53025 6//// 333 91119
AAXX 28121 01115 16/// /0501 10012 21020 39992 40013 58027 6//// 333 91120
AAXX 28121 01152 11370 71905 10003 21016 39997 40013 58022 60021 78781 8636/ 333 91116
AAXX 28121 01205 NIL
AAXX 28121 01212 NIL
AAXX 28121 01271 16/// /0905 10024 21041 39972 49993 58070 6//// 333 91108
AAXX 28121 01288 41575 81008 11018 21055 39273 40025 58058 70222 855// 333 91111
AAXX 28121 01300 NIL
AAXX 28121 01317 414// 81508 10057 20024 39926 49941 58062 76086 8472/ 333 91119
AAXX 28121 01367 41480 81203 10003 21026 39573 40017 58065 70322 886// 333 91107
AAXX 28121 01384 41250 81606 10027 20021 39797 40046 58072 76062 886// 333 91110
AAXX 28121 01403 11560 82016 10067 20055 39886 49954 58056 60031 70262 8572/ 333 91125
AAXX 28121 01415 16/// /2010 10073 20059 39970 49981 58057 6//// 333 91117
AAXX 28121 01482 46/// /1916 10060 20042 30043 40050 58063 333 91120
AAXX 28121 01492 NIL
AAXX 28121 01003 NIL
AAXX 28121 01007 11689 13306 11148 21213 39995 40005 51020 60001 70300 81040 333 91111
AAXX 28121 01028 11560 43609 11055 21082 39922 49942 53036 60041 73683 83170 333 91114
AAXX 28121 01047 41988 53603 11128 21147 39587 49964 53020 70222 80008
AAXX 28121 01049 16/// /2708 10022 21025 39935 49938 51018 60011 333 91112
AAXX 28121 01078 11385 83109 10017 21030 39872 49885 51016 6//// 78572 86360 333 91119
AAXX 28121 01102 46/// /1710 10026 21010 39987 40006 58051 333 91116
AAXX 28121 01160 41789 42703 10016 21050 39982 49999 58015 70211 84200 333 91117
AAXX 28121 01218 11787 81606 10091 21025 39914 49935 58069 60001 70222 83280 333 91114
AAXX 28121 01238 46/// /1612 11029 21043 38846 49976 56068 333 91119
AAXX 28121 01241 11888 71208 10035 21029 39951 49962 58082 60001 70222 86072 333 91112
AAXX 28121 01281 NIL
AAXX 28121 01338 16/// /1105 10059 20003 39891 49956 58071 60001 333 91112
AAXX 28121 01359 11489 81201 11016 21038 39092 40007 58067 60001 77872 8802/ 333 91104
AAXX 28121 01397 16/// /1501 11034 21043 39619 40064 58061 69931 333 91103
AAXX 28121 01400 NIL
AAXX 28121 01427 11415 82014 10073 20061 30003 40019 58064 60021 75865 8762/ 333 91118
AAXX 28121 01447 NIL
AAXX 28121 01448 46/// /2213 10074 20062 30031 40040 58067 333 91119
AAXX 28124 85836 12970 09902 10149 20091 40254 51014 60004 333 20090 30/// 70000
AAXX 28124 85864 11980 10606 10172 20133 40184 52010 60004 80001 333 20120 30/// 55131 56003 70000 81070
AAXX 28124 85874 12980 33116 10158 20074 39563 40175 50010 60004 80002 333 20114 30/// 56006 70000 83070
AAXX 28124 85886 12970 40904 10164 20161 40171 52013 60004 80001 333 20104 30/// 56006 70000 84070
AAXX 28124 85934 12580 22743 10108 20014 40028 57006 69964 82101 333 20074 30/// 55017 56606 70004 82820
AAXX 28124 85968 12665 32629 10102 21004 49951 50/// 60014 83100 333 20051 30/// 55/// 56600 70011 83846
AAXX 28124 89056 11115 82920 10014 20010 49739 54004 60012 71077 886// 333 10015 20002 41997 55025 56699 88703
AAXX 28124 89057 11230 82415 10020 20008 49730 57005 69942 75022 886// 333 10020 20002 42035 56699 88705
AAXX 28124 89058 11456 82916 10019 20012 39722 49743 57001 60031 71076 886//
AAXX 28124 89059 11210 80820 10005 21006 49734 57025 60062 72372 884// 333 10005 21004 42022 55050 72299 88605
AAXX 28124 89251 11140 83220 10017 20009 49731 57002 60022 76176 8672/ 333 20008
AAXX 28124 91356 32566 20610 10283 20238 30086 40103 51000 82201 333 10311 562/9 58010 58010 70023 82820 555 92812
AAXX 28124 85832 12980 09902 10157 20097 40201 51013 60004 333 20103 30/// 70000
AAXX 28124 78897 12575 20000 10244 20217 40190 53017 69921 82800 333 021// 10296 20195 58005 70014 82820
AAXX 28124 78897 12575 20000 10244 20217 40190 53017 69921 82800 333 021// 10296 20195 58005 70014 82820
AAXX 28123 91502 11465 82905 10273 20243 40077 51006 60011 71622 8597/ 333 10310 56699 58002 82814 81915 85628 87360
AAXX 28123 91507 01475 43202 10250 20243 40085 51006 60081 72588 83936 333 10300 56700 58009 60077 81815 81916 83360
AAXX 28123 91520 01470 60000 10246 20236 40090 51009 69971 71562 85920 333 10295 56999 59016 69927 81814 81915 84625 86460
AAXX 28123 91541 31475 33217 10285 20249 40085 52004 71510 83200 333 10310 56600 5//// 83815
AAXX 28124 91356 32566 20610 10283 20238 30086 40103 51000 82201 333 10311 562/9 58010 58010 70023 82820 555 92812
AAXX 28123 91502 11465 82905 10273 20243 40077 51006 60011 71622 8597/ 333 10310 56699 58002 82814 81915 85628 87360
AAXX 28123 91507 01475 43202 10250 20243 40085 51006 60081 72588 83936 333 10300 56700 58009 60077 81815 81916 83360
AAXX 28123 91520 01470 60000 10246 20236 40090 51009 69971 71562 85920 333 10295 56999 59016 69927 81814 81915 84625 86460
AAXX 28123 91541 31475 33217 10285 20249 40085 52004 71510 83200 333 10310 56600 5//// 83815
AAXX 28124 78905 12478 70911 10254 20206 30167 40190 60022 703// 87800 333 10259 20221 58002 70016 83817 85638 90999
AAXX 28124 78016 32564 61919 10197 20135 30160 40164 57009 85409 333 10195 20153 70000
AAXX 28124 65338 32558 70402 10323 20207 39921 40105 83202 333 0//00 59006 83826 85076 94919 95839
AAXX 28121 10007 NIL
AAXX 28121 10044 46/// /2112 10067 20036 30136 40168 57035 222// 00050 333 55300 91117 91214
AAXX 28121 10046 42565 82105 10069 20037 30132 40171 58038 875// 333 87620
AAXX 28121 10091 01564 82010 10059 20043 30132 40184 58048 69921 70252 875// 222// 06053 333 31/// 55300 20081 30081 69907 87621 91116 91213
AAXX 28121 10113 01462 82108 10066 20052 30146 40165 58037 69901 72022 886// 333 31/// 55300 20115 30111 69907 88711 91114
AAXX 28121 10124 46/// ///// 10062 2//// 30121 40159 58027 222// 00063 333 553//
AAXX 28121 10131 12464 72106 10069 20045 30160 40175 58027 60001 875// 333 31/// 55300 20073 30073 84614 85634 91114
AAXX 28121 10170 11570 71906 10068 20029 30175 40191 58040 69901 70252 83508 333 31/// 55301 20381 30347 83623 87272
AAXX 28121 10264 11959 82005 10068 20037 30094 40202 58039 69901 70262 80007 333 31/// 55310 20562 30381 88280
AAXX 28121 10291 11580 72006 10072 20032 30157 40226 58038 69901 70252 875// 333 31/// 55300 20270 30268 87625
AAXX 28121 10315 12475 82207 10079 20047 30148 40213 58021 60001 875// 333 31/// 55300 20186 30185 87617
AAXX 28121 10379 12583 62006 10072 20034 30106 40229 57036 60001 84531 333 31/// 55303 20515 30409 41022 84620 83366
AAXX 28121 10382 12580 72006 10076 20026 30185 40231 58036 60001 83201 333 31/// 55304 20520 30420 83820 86075
AAXX 28121 10384 16/// /2006 10076 20030 30172 40233 56034 60001 333 55302 20449 30401
AAXX 28121 10427 11/00 92108 10011 20011 39216 48505 58021 60001 74544 333 44019 55300 20322 30322 91113
AAXX 28121 10430 12980 71703 10078 20044 30029 40223 58023 60001 81032 333 31/// 55309 20596 30314 81360 87080
AAXX 28121 10439 41358 82007 10050 20033 30025 40249 58026 72055 886// 333 88709
AAXX 28121 10453 11/86 72318 10005 20005 38870 48493 58018 69931 74144 85508 333 49088 55310 856// 87673 91124 90226 91218 91220 444 56115
AAXX 28121 10496 12575 62105 10080 20029 30160 40246 58031 60001 83201 333 31/// 55308 20742 30387 83820 85076
AAXX 28121 10499 16480 62010 10060 20027 39959 40254 58034 60001 333 55308 20824 30443 86/16 91116
AAXX 28121 10505 12482 72209 10055 20033 39949 40235 58010 60001 83552 333 31/// 55300 20535 30524 82610 85365 87076 91114
AAXX 28121 10513 12482 61604 10078 20040 30120 40243 58024 60001 81138 333 31/// 55309 20812 30351 81816 86280
AAXX 28121 10532 15364 71504 10049 20036 39999 40252 58026 60001 333 55300 20143 30143 87/09
AAXX 28121 10544 11/01 91909 10011 20011 39153 48517 58023 69901 74554 333 42008 55300
AAXX 28121 10554 12482 72503 10063 20031 39851 40244 58026 60001 81108 333 31/// 55310 20687 30347 81813 87280
AAXX 28121 10567 12489 82308 10049 20028 39870 40253 56030 60001 875// 333 31/// 55300 20450 30447 87610 91115 91212
AAXX 28121 10578 12989 62217 10045 21018 38838 48531 58024 6///1 80004 333 44057 55310 21079 30222 86071 91119 91217 444 46105
AAXX 28121 10004 46/57 /2217 10077 20067 30143 40143 58033 222// 00075 333 55300 91121 91218
AAXX 28121 10015 01350 82114 10067 20050 30147 40157 58032 69901 75122 887// 333 31/// 55300 20079 30079 69907 87709 91119 91215 96010
AAXX 28121 10020 07227 72112 10058 20055 30104 40137 58039 69901 72265 333 55300 20047 30047 69907 87/05 91118 91213
AAXX 28121 10035 11456 82208 10061 20041 30105 40164 58039 60001 71022 875// 333 31/// 55300 20059 30057 41204 87613 91114
AAXX 28121 10055 12975 82106 10064 20036 30163 40174 58045 60001 8702/ 333 31/// 55300 20269 30269 87468
AAXX 28121 10147 12480 82107 10074 20045 30171 40190 58031 60001 8587/ 333 31/// 55300 20320 30307 41091 81816 85620 87465
AAXX 28121 10162 12965 62107 10071 20039 30109 40192 58041 60001 80002 333 31/// 55309 20682 30502 86072
AAXX 28121 10184 01562 82005 10069 20032 30192 40200 58041 69901 70252 875// 333 31/// 55300 20142 30142 69907 87625
AAXX 28121 10200 01359 82108 10067 20052 30179 40177 58025 69901 75022 876// 333 31/// 55300 20178 30178 69907 87709 91114
AAXX 28121 10224 12467 82307 10081 20051 30188 40194 58026 60001 875// 333 31/// 55300 20157 30157 87616
AAXX 28121 10270 16960 02005 10076 20036 30170 40226 58035 60001 222// 06046 333 55309
AAXX 28121 10338 12980 62005 10099 20056 30137 40210 56029 60001 83032 333 31/// 55310 20906 30467 83362 86075
AAXX 28121 10361 12980 61805 10089 20051 30119 40223 58032 60001 81042 333 31/// 55310 20815 30327 81370 86276
AAXX 28121 10393 12581 72306 10066 20020 30115 40243 56029 60001 875// 333 31/// 55300 20311 30304 87622
AAXX 28121 10400 12481 72107 10070 20042 30180 40230 58015 60001 875// 333 31/// 55300 20342 30341 87616
AAXX 28121 10438 15258 81706 10048 20038 39956 40242 58017 60001 333 55300 88/05 91113
AAXX 28121 10469 12486 62108 10074 20039 30077 40244 56032 60001 86500 333 31/// 55304 86617
AAXX 28121 10488 12981 41506 10069 20020 39961 40246 58035 60001 80004 333 31/// 55310 20898 30191 40908 84076
AAXX 28121 10506 11156 82305 10027 20022 39659 40256 58019 69901 71054 886// 333 31/// 55300 20228 30227 88703
AAXX 28121 10548 01/02 91806 10027 20026 39716 40271 58024 69901 74754 333 31/// 55300 20065 30065 69907 96251
AAXX 28121 10637 01264 82005 10051 20028 30124 40265 58023 69901 70362 885// 333 31/// 55300 69907 81704 86611 88614 96460
AAXX 28121 10685 11162 82004 10022 20018 39575 40266 58028 69901 70252 885// 333 31/// 55300 20217 30217 86703 87607 96451
AAXX 28121 10738 12965 71401 10060 20007 39800 40278 58021 60001 80001 333 31/// 55310 87076
AAXX 28121 10763 12465 81705 10040 20017 39884 40276 58027 60001 885// 333 31/// 55300 20208 30207 88611
AAXX 28121 10788 07357 71204 10039 20027 39850 40293 58029 69901 71050 333 55300 20190 30190 69907 87/09
AAXX 28121 10852 11150 71403 10007 20006 39707 40297 58028 60001 71042 876// 333 31/// 55300 20468 30467 87702
AAXX 28121 10946 15982 01902 10057 21001 39433 40275 57027 60001 333 4/001 55310 21001 30295
AAXX 28121 10609 12258 82106 10030 20018 39933 40272 58018 60001 886// 333 31/// 55300 20153 30150 88706
AAXX 28121 10616 11050 82603 10023 20018 39649 40265 58020 60001 71042 875// 333 31/// 55300 81701 83702 87603
AAXX 28121 10641 17469 82004 10049 20023 30118 40268 58021 69901 70050 333 55300 88/12
AAXX 28121 10655 11462 72004 10054 20037 39939 40274 58024 69901 70152 875// 333 31/// 55300 20333 30328 85711 86615
AAXX 28121 10675 17358 81705 10045 20028 39978 40276 58025 69901 70050 333 55300 20095 30095 88/07
AAXX 28121 10688 07233 71904 10026 20026 39747 40284 58028 69901 75165 333 55300 20085 30085 69907 87/03 87/50
AAXX 28121 10708 11145 82104 10019 20012 39886 40284 58016 60001 71022 886// 333 31/// 55300 20200 30195 84703 87705
AAXX 28121 10729 17462 81705 10050 20030 30156 40281 58026 69901 70050 333 55300 20321 30320 88/11
AAXX 28121 10731 11358 62405 10040 20013 30132 40280 58022 69901 70254 81101 333 31/// 55306 20741 30526 81809 86081
AAXX 28121 10742 15361 52904 10043 20020 39943 40283 58018 60001 333 55307 20704 30449 85/08
AAXX 28121 10776 11458 71503 10040 20024 39832 40287 58028 69901 70152 875// 333 31/// 55300 20188 30188 87610
AAXX 28121 10791 12989 61908 10044 21096 38606 48546 57025 60001 80001 333 49096 55310 86075 91211 444 76114
AAXX 28121 10805 11979 72104 10047 20023 30093 40289 58021 69901 70354 80001 333 31/// 55310 20814 30327 87077
AAXX 28121 10815 12989 62706 10048 21006 39316 48542 58014 60001 80002 333 43009 55310 21033 30384 86076 91115
AAXX 28121 10836 11983 62002 10047 20008 39388 40270 58023 60001 70242 80002 333 31/// 4/998 55310 21049 30327 86078
AAXX 28121 10870 11256 71802 10018 20011 39743 40294 58032 60001 71022 876// 333 31/// 55300 87705
AAXX 28121 10895 01130 81402 10022 20017 39711 40298 58032 69911 71065 886// 333 31/// 55300 20125 30122 69907 88702 96460 96451 96447 96445 96443
AAXX 28121 10908 02989 72414 10013 21049 38561 48553 58013 69911 80001 333 49067 55310 21120 30305 69917 87075 91118 91214
AAXX 28121 10929 11130 72402 11005 21005 39754 40308 58025 69901 71074 876// 333 31/// 55300 20394 30388 87703 96478 96477 96449
AAXX 28121 10948 12986 41501 10000 21020 39316 48535 56033 60001 80002 333 43025 55310 21042 30315 84078
AAXX 28121 10961 12989 62508 10020 21188 37156 47137 58019 60001 80002 333 49200 55310 21370 40875 86070 95122 444 17070
AAXX 28121 10962 12989 42402 10092 21034 39112 48557 58028 60001 80002 333 42003 55310 21215 30339 84075
AAXX 28121 10980 12989 22603 10051 21090 38217 48558 58025 60001 80001 333 44073 55310 21215 30187 82070 95132 444 27082
AAXX 28121 11816 11456 81503 10036 20023 30153 40322 57025 69901 71052 885// 333 88616
AAXX 28121 11826 11230 81503 10036 20027 30115 40321 57023 69901 72044 886// 333 83706 88708
AAXX 28121 11903 11123 80000 10021 20018 39936 40329 57024 69901 71054 886// 333 88702
AAXX 28121 11934 11480 79901 10025 20006 39465 42882 58028 69901 70254 875// 333 81710 87618
AAXX 28121 11968 11115 82101 10005 21001 30039 40332 57025 69901 75154 886// 333 88703
AAXX 28121 01025 16/// /2604 10002 21009 39965 49976 51014 6//// 333 91110
AAXX 28121 01052 16/// /2605 10016 21057 39830 49927 52024 60021 333 91115
AAXX 28121 01122 16/// /1502 11027 21048 39942 40033 58026 60001 333 91106
AAXX 28121 01132 16/// /0501 11040 21051 39642 40038 58036 60001 333 91105
AAXX 28121 01156 16/// /2507 10027 21038 39981 49991 58012 60001 333 91118
AAXX 28121 01203 46/// /1408 10063 20014 39847 49895 58071
AAXX 28121 01233 16/// /1705 11007 21035 60001 333 91112
AAXX 28121 01265 NIL
AAXX 28121 01273 16/// /0402 10027 21047 39799 49994 58068 6//// 333 91107
AAXX 28121 01307 46/// /1718 10065 20045 39884 49912 58069 333 91128
AAXX 28121 01321 16/// /1402 10052 21014 39682 49930 58067 60001 333 91106
AAXX 28121 01327 11230 81306 10021 20002 6//// 76376 8772/ 333 91117
AAXX 28121 01350 16/// /1611 11016 21023 38592 49967 56067 60001 222// 00045 333 91120
AAXX 28121 01361 16/// /0606 11011 21042 38941 49961 58059 60001 333 4/074 91113
AAXX 28121 01375 NIL
AAXX 28121 01378 16/// /0301 11017 21026 39739 40035 58064 69941 333 91103
AAXX 28121 01385 16/// /1203 10016 21006 39772 40044 58067 60001 333 91106
AAXX 28121 01412 16/// /1811 10071 20065 39957 49986 56058 60061 333 91121
AAXX 28121 01422 16/// /2004 10065 20035 60021 333 91119
AAXX 28121 01440 NIL
AAXX 28121 01441 NIL
AAXX 28121 01467 NIL
AAXX 28121 01469 NIL
AAXX 28121 01477 16/// /1702 10044 20031 69941 333 4/016 91107
AAXX 28121 01480 16/// /0103 10051 20034 69951 333 91107
AAXX 28121 01484 16/// /1605 10036 20018 39901 40057 56067 60001 333 91110
AAXX 28121 01490 16/// /2007 10020 20019 60021 333 91113
AAXX 28121 01495 16/// /1915 10063 20047 30042 40055 58063 60001 333 91118
AAXX 28121 01121 46/// /2102 10001 21036 30008 40020 58030 333 91113
AAXX 28121 01135 16/// /1703 11026 21044 39874 40029 58025 69941 333 4/024 91107
AAXX 28121 01143 16/// /2202 11026 21076 60001 333 91114
AAXX 28121 01150 16/// /0301 11033 21052 69951 333 91108
AAXX 28121 01192 16/// /2806 10005 21111 69941 333 4/020 91123
AAXX 28121 01225 46/// /0807 10048 20002 39935 49940 58082 333 91111
AAXX 28121 01230 16/// /0905 10005 21044 60001 333 4/039 91113
AAXX 28121 01232 16/// /1405 10065 21032 39865 49943 56084 60001 333 4/006 91113
AAXX 28121 01234 16/// /0504 10038 21019 60001 333 91109
AAXX 28121 01253 16/// /1904 10011 21033 60001 333 4/043 91111
AAXX 28121 01254 16/// /3201 11005 21017 69921 333 4/023 91103
AAXX 28121 01257 11582 80702 10018 21036 39824 49985 56070 60001 70322 885// 333 91107
AAXX 28121 01277 NIL
AAXX 28121 01291 16/// /1401 11037 21044 60001 333 4/021 91102
AAXX 28121 01332 16/// /3501 10013 21005 60001 333 91106
AAXX 28121 01366 46/// /1407 11047 21061 38366 49979 58057 333 91119
AAXX 28121 01370 NIL
AAXX 28121 01376 16/// /3501 10025 20008 69991 333 91104
AAXX 28121 01383 46/// /1305 11020 21026 39733 40052 58061 333 91107
AAXX 28121 01386 16/// ///// 10020 21004 60001
AAXX 28121 01416 16/// ///// 10065 20065 60071
AAXX 28121 01419 NIL
AAXX 28121 01430 16/// ///// 10068 20058 60031
AAXX 28121 01434 16/// /0401 11009 21020 39031 49993 58069 60011 333 91105
AAXX 28121 01455 16/// /1203 10043 20025 39719 40027 58064 60011 333 91108
AAXX 28121 01468 16/// /1102 10023 20011 60001 333 91106
AAXX 28121 01470 16/// /1603 10048 20036 39913 40026 58069 60011 333 4/003 91109
AAXX 28121 01476 NIL
AAXX 28121 01481 16/// /2006 10061 20052 30010 40042 58065 60041 333 91113
AAXX 28121 01488 NIL
AAXX 28121 01015 NIL
AAXX 28121 01023 NIL
AAXX 28121 01033 46/// /2909 10026 21030 39930 49961 51017 333 91118
AAXX 28121 01059 16/// /2911 10013 21021 39915 49924 51019 6//// 333 91119
AAXX 28121 01089 41684 72605 11016 21033 39796 49902 53026 72682 81261 333 91110
AAXX 28121 01167 41485 62203 10003 21049 39992 49997 57005 70282 84960 333 91110
AAXX 28121 01180 NIL
AAXX 28121 01210 41685 81106 10076 20004 39884 49910 58072 70222 8457/ 333 91112
AAXX 28121 01228 NIL
AAXX 28121 01240 16/// /1211 10045 21003 39953 49972 58074 6//// 333 91113
AAXX 28121 01304 46/// /0000 10064 20041 39865 49896 58072 333 91110
AAXX 28121 01311 46/// /1612 10053 20040 39874 49936 58070 333 91123
AAXX 28121 01340 NIL
AAXX 28121 01355 16/// ///// 10047 21007 39953 49958 58077 60001
AAXX 28121 01360 NIL
AAXX 28121 01392 11468 81703 10018 20006 39829 40056 58067 69921 78382 888// 333 91107
AAXX 28121 01406 46/// /1814 10075 20069 39923 49941 58063 333 91121
AAXX 28121 01411 16/// /1914 10074 20067 39939 49964 58062 6//// 333 91122
AAXX 28121 01425 NIL
AAXX 28121 01433 46/// /1605 11006 21017 38736 49983 56066 333 91116
AAXX 28121 01442 11350 81409 10048 20034 39766 40021 58068 60021 76366 887// 333 91113
AAXX 28121 01450 NIL
AAXX 28121 01452 11245 82111 10062 20052 30018 40039 58066 60051 76365 887// 333 91115
AAXX 28121 01473 41670 82001 10028 20022 39822 40029 58068 75122 83558 333 91105
AAXX 28121 01494 11259 81810 10057 20048 39987 40052 58067 60011 75065 887// 333 91114
AAXX 28121 01037 16/// /2504 10030 21029 39958 49963 51011 60001 333 91110
AAXX 28121 01046 41580 82805 10002 21012 39957 49964 51024 78682 888// 333 91110
AAXX 28121 01058 16/// /3205 11021 21038 39481 49944 52018 60001 333 4/016 91111
AAXX 28121 01065 11689 63101 11073 21088 39778 49943 53018 60001 70211 85840 333 91107
AAXX 28121 01092 NIL
AAXX 28121 01107 16/// /2406 10015 2//// 39999 40004 58023 60001 333 91117
AAXX 28121 01114 16/// /1702 11002 21016 30008 40019 58024 60021 333 91117
AAXX 28121 01144 41320 82104 10007 21034 78682 85926 333 91120
AAXX 28121 01199 NIL
AAXX 28121 01245 11683 70603 10011 21042 39276 49977 58062 60001 70222 8452/ 333 91110
AAXX 28121 01259 16/// /1107 10030 21021 39963 49986 58069 60001 333 91110
AAXX 28121 01262 NIL
AAXX 28121 01278 41889 81403 11008 21022 39902 40006 58066 70222 885//
AAXX 28121 01293 11882 81204 10016 21038 39804 40011 58065 60001 70222 8807/ 333 91107
AAXX 28121 01329 NIL
AAXX 28121 01337 NIL
AAXX 28121 01344 16/// ///// 10016 21011 6//// 333 4/065
AAXX 28121 01364 16/// /1008 11032 21040 38876 49999 50059 60001 333 91115
AAXX 28121 01373 11460 83301 10012 21017 39813 40017 58071 60001 71522 886// 333 91108
AAXX 28121 01374 NIL
AAXX 28121 01380 16/// /1502 11042 21056 6//// 333 4/030 91111
AAXX 28121 01389 11710 83101 11024 21032 39742 40058 58063 69961 77172 8272/ 333 91103
AAXX 28121 01393 NIL
AAXX 28121 01424 11450 8//// 10041 20029 39983 49986 58062 6//// 76162 887//
AAXX 28121 01431 16/// /1904 10019 20004 39346 40007 58062 6//// 333 91111
AAXX 28121 01436 NIL
AAXX 28121 01465 11345 82115 10071 20059 30025 40043 58068 60021 76366 8472/ 333 91121
AAXX 28121 01471 11381 82201 10007 21006 69971 76176 8772/ 333 91104
AAXX 28121 01483 NIL
AAXX 28121 78221 11458 53502 10214 20204 30163 40190 52010 60014 71520 85200 333 85815
AAXX 28121 78224 11559 50103 10212 20179 30115 40190 53005 60124 70546 85500 333 20195 85630
AAXX 28121 78229 12456 71001 10194 20169 30126 40201 52010 69904 8326/ 333 86815
AAXX 28121 78239 11559 12701 10180 20168 30177 40180 52010 60004 70500 81800 333 20180 81820
AAXX 28121 12345 12559 30401 10183 20180 30138 40180 52003 60004 83110 333 83820
AAXX 28121 78243 11530 01601 10188 20183 30065 40188 52003 60004 74744
AAXX 28121 78255 11559 01701 10175 20164 30043 40192 54000 60004 71044 333 20169
AAXX 28121 78264 11559 13602 10192 20176 30113 40188 52010 60004 70500 81200 333 20192 81820
AAXX 28121 78265 11550 71201 10184 20175 30088 40188 52010 60004 71144 83120 333 20175 83820 86458
AAXX 28121 78256 NIL
AAXX 28121 78259 11558 21801 10180 20155 30110 40203 54000 60004 70544 82200 333 20180 82825
AAXX 28121 78268 12060 02403 10205 20192 30175 40194 54000 60004
AAXX 28124 03005 15562 /2121 10064 20031 39735 49833 58044 60071 91150 333 55301 20144 86/29 90710 91133
AAXX 28124 03017 15664 /2023 10064 20038 39772 49803 58074 60001 91150 333 55300 20095 85/36 86/50 90710 91136
AAXX 28124 03023 17542 /2846 10083 20064 39858 49863 53024 69981 723// 91150 333 84/21 84/26 90710 91162 91062
AAXX 28124 03026 17557 /2634 10085 20061 39754 49771 55023 60031 723// 91150 333 55300 20116 81/23 83/35 90710 91149 91049
AAXX 28124 03063 17463 /2113 10042 20026 39596 49869 58038 60071 762// 91150 333 55300 20100 87/16 90710 91130 91029
AAXX 28124 03066 17779 /2221 10078 20033 39832 49838 56040 69941 723// 91150 333 55305 20288 82/50 90710 91139 91035
AAXX 28124 03075 15468 /1924 10072 20040 39768 49811 57067 69901 91150 333 87/18 90710 91134 91034
AAXX 28124 03091 15582 /2227 10065 20020 39799 49877 56058 60001 91150 333 55306 20343 81/24 90710 91148 91041
AAXX 28124 03100 17450 /2840 10073 20058 39923 49939 51022 60031 723// 91150 333 55300 20110 81/16 85/21 90710 91158 91057
AAXX 28124 03111 16557 /2644 10079 20048 30005 40017 55000 60021 91150 333 87/27 90710 91158 91058
AAXX 28124 03134 17570 /2523 10064 20037 39907 49979 57013 60021 781// 91150 333 55301 20205 81/25 86/50 90710 91150 91042
AAXX 28124 03136 17561 /2537 10078 20037 39983 40016 56012 60011 781// 91150 333 55300 20137 85/29 83/37 90710 91158 91053
AAXX 28124 03162 11475 72322 10047 20017 39748 40034 58022 69921 72582 878// 91150 333 55300 20128 83818 86627 90710 91141 91041
AAXX 28124 03166 17580 /2321 10056 20034 39905 49974 56025 60051 761// 91150 333 55300 20137 87/20 90710 91146 91036
AAXX 28124 03171 11580 52529 10064 20033 39928 49940 56042 69981 72682 85800 91150 333 55301 20285 82823 84631 90710 91155 91039
AAXX 28124 03204 12570 12632 10077 20026 30085 40105 50003 60001 81100 91150 333 55305 20470 81825 90710 91147 91044
AAXX 28124 03240 17670 /2230 10069 20031 39992 40020 57030 69981 723// 91150 333 55306 20422 81/30 83/34 90710 91144 91044
AAXX 28124 03257 17670 /2424 10077 20021 30056 40097 58005 69901 723// 91150 333 55309 20643 86/44 90710 91137 91035
AAXX 28124 03292 166// /2414 10088 20022 30087 40106 58006 60001 91150 333 81/36 90710 91125 91025
AAXX 28124 03302 15661 /2427 10078 20029 30144 40156 51011 60001 91150 333 55309 20627 82/40 90710 91141
AAXX 28124 03354 15980 /2513 10069 20017 30010 40154 50003 69941 91150 333 55300 20214 8//99 90710 91129 91025
AAXX 28124 03377 11584 62418 10080 20031 30058 40142 58002 69901 70262 81132 91150 333 55301 20449 81820 86074 90710 91127
AAXX 28124 03414 15977 /2420 10076 20014 30078 40166 50006 69921 91150 333 55310 20692 8//99 90710 91131
AAXX 28124 03462 15983 /2418 10088 20028 30073 40163 50005 69921 91150 333 55300 20434 8//99 90710 91127
AAXX 28124 03482 12580 62415 10095 20054 30135 40161 58004 69901 83802 91150 333 81820 83640 86072 90710 91127
AAXX 28124 03502 15563 /2729 10070 20025 30037 40201 51015 69941 91150 333 55305 20531 81/25 90710 91139 91039
AAXX 28124 03535 15678 /2311 10075 20025 30051 40169 55001 69901 91150 333 55300 20345 82/31
AAXX 28124 03590 NIL
AAXX 28124 03649 11580 72509 10092 20054 30090 40191 50002 69901 70282 83832 91150 333 55300 2//// 82825 84362 87070
AAXX 28124 03716 15978 /2916 10082 20033 30150 40210 51014 60011 91150 333 55300 20247 85/58
AAXX 28124 03740 16769 /2516 10079 20042 30024 40202 51005 60001 91150 333 55300 2//// 85/50 90710 91125
AAXX 28124 03746 15462 /2819 10081 20035 30053 40208 50004 69921 91150 333 82/17 83/35 90710 91129 91029
AAXX 28124 03772 17577 /2516 10105 20060 30165 40195 58002 69921 723// 91150 333 55300 20330 84/24 90710 91128
AAXX 28124 03796 46/// /2419 10098 20089 30058 40201 58010 91150 333 90710 91130
AAXX 28124 03803 NIL
AAXX 28124 03808 11481 43020 10087 20018 30147 40254 51018 69921 70161 84800 91150 333 55301 20260 81714 90710 91130 91030
AAXX 28124 03809 11470 62915 10081 20040 30162 40256 51020 60011 78086 868// 91150 333 81812 83815 86635 90710 91126 91026
AAXX 28124 03827 17966 /2815 10084 20051 30179 40242 51017 60011 723// 91150 333 82/58
AAXX 28124 03840 17780 /2706 10059 20043 39916 40226 50009 60021 723// 91150 333 84/50 83/59
AAXX 28124 03853 17671 /2614 10082 20055 30194 40218 51009 69961 723// 91150 333 55300 20222 86/43
AAXX 28124 03874 46/// /2718 10092 20076 30198 40209 58003 91150 333 90710 91133
AAXX 28124 03882 15763 /2610 10103 20073 30142 40205 58009 69961 91150 333 55304 20557 84/50
AAXX 28124 03894 11462 72621 10107 20074 40247 58004 69901 71565 85872 333 83816 83645 86462 90710 91131
AAXX 28124 03917 17561 /2422 10070 20026 30007 40085 51016 60021 723// 91150 333 55300 20193 86/29 84/36 90710 91132 91032
AAXX 28124 61901 12475 71111 10191 20127 39693 40199 60001 878// 91150 333 59004 81816 87627
AAXX 28124 61902 32584 31416 10277 20179 40160 83800 333 59001 81822
AAXX 28124 88878 46/// /2323 10140 20088 40009 52020 555 1//34
AAXX 28124 88883 46/// /2425 10134 20058 40029 52020 555 1//37
AAXX 28124 88889 11484 72620 10147 20067 39929 40011 53009 69904 71462 81172 91150 333 20112 30006 81815 86358 90710 91128 91027
AAXX 28124 78388 111576 10000 10236 20193 30167 40176 60001 70511 81800 333 01200 10034 20224 58003 81824
AAXX 28124 DUPE
BBXX 42039 28121 99288 70860 46/// /3605 10152 40212 52006 91150 555 11053 22057
BBXX 41040 28121 99145 70530 46/// /0707 10265 20220 40187 53019 91150 22200 00271 10804 20602 3//// 40803 70018 333 91209 555 11078 22082 31127 40809 61149 070073 072072 070076 073070 072072 073072 80708 91127
BBXX 46026 28121 99378 71228 46/// /3406 10110 40281 50000 91150 22200 00113 11304 20401 327// 41304 70021 333 91208 555 11064 22067 31113 42909 61149 331062 286067 289068 285069 287065 287069
BBXX 46041 28121 99474 71247 46/// /2209 10105 40090 53022 91150 22200 00091 11010 20805 3//// 41009 70051 333 91211 555 11102 22111 31105 42212 61149 220094 221093 223091 223091 223101 224096
BBXX 44040 28121 99410 70736 46/// /2707 10074 20028 49975 91145 22200 10301 70005 333 91209 555 11093 22108
BBXX 46072 28121 99517 71722 46/// /3008 11028 21047 40032 51006 91150 22200 00043 11005 20504 3//// 41004 70026 333 91210 555 11084 22087 31123 43414 61149 302078 342079 330108 296089 287092 290097 83312 91125
AAXX 28124 78388 111576 10000 10236 20193 30167 40176 60001 70511 81800 333 01200 10034 20224 58003 81824
AAXX 28124 DUPE
BBXX 46082 28121 99597 71434 46/// ///// 10028 49814 56026 91150 22200 00063 11005 70026
BBXX 46072 28121 99517 71722 46/// /3008 11028 21047 40032 51006 91150 22200 00043 11005 20504 3//// 41004 70026 333 91210 555 11084 22087 31123 43414 61149 302078 342079 330108 296089 287092 290097 83312 91125
BBXX 46077 28121 99579 71543 46/// /2507 11058 21135 49884 56017 91150 22200 00050 10603 20502 3//// 40601 70013 333 91208 555 11069 22071 31050 42509 61149 252065 257062 262064 266059 244051 242049 82508 91150
BBXX 46035 28121 99571 71778 46/// /3510 1//// 40078 51008 91150 22200 10806 20805 300// 41501 70028 333 91214 555 11103 22110 31145 43314 61149 353104 353106 338085 347109 351103 357078 83512 91134
BBXX 51004 28121 99175 71524 46/// /0611 10230 20185 91150 555 11118 22126
BBXX 51002 28121 99171 71578 46/// /0811 10243 40172 58011 91150 22200 00248 333 91214 555 11112 22119 31142 40814 61149 078106 076111 072109 072101 073101 073104
BBXX 51100 28121 99236 71539 46/// /1007 10223 40235 58011 91150 22200 00229 11005 20603 310// 41004 70024 333 91209 555 11079 22083 31054 41010 61149 096074 093075 102077 101076 094077 094082
BBXX BATEU08 28124 99593 70449 46/// /3033 11033 21092 40049 53050 22233
AAXX 28121 02741 47972 52204 10020 20008 30123 40139 57029 70000 85/// 91139
AAXX 28121 02755 47999 02703 11016 21051 39961 40058 52006 700// 91139
AAXX 28121 02805 47683 51702 11024 21047 39787 49919 52023 70087 85/// 91139
AAXX 28121 02807 47999 52506 11067 21093 39758 49944 700// 81/// 91200
AAXX 28121 02836 47999 02802 11080 21095 39747 49976 52022 70000 91139
AAXX 28121 02845 47999 02203 11073 21084 39739 49994 52019 70087 91139
AAXX 28121 02849 47983 02604 11085 21096 39703 49984 52028 70000 91139
AAXX 28121 02866 47999 02503 11043 21064 39866 40018 52023 70000 91139
AAXX 28121 02897 47999 02706 11028 21051 39848 40033 700// 91200
AAXX 28121 02913 47982 02304 11003 21033 30029 40082 700//
AAXX 28121 02917 47999 02806 11017 21055 39932 40057 700// 91200
AAXX 28121 02924 47580 12401 11011 21036 39896 40096 52002 70000 81/// 91139
AAXX 28121 02926 47968 42602 10024 21010 30104 40117 58017 700// 80/// 91200
AAXX 28121 02935 47982 02803 11011 21040 39914 40090 54000 700// 91139
AAXX 28121 02944 47981 02503 11004 21028 39969 40119 700// 91200
AAXX 28121 02947 47584 52707 11003 21040 40095 52002 70000 85/// 91151
AAXX 28121 02963 42982 72104 11004 21035 40127 58011 70211 80001
AAXX 28121 02974 42999 52503 10002 21041 30074 40141 57003 70311 80006
AAXX 28121 02976 46/// /2906 10012 21021 30111 40128 54000 91139
AAXX 28121 02981 47980 52309 10044 2//// 30140 40150 57023 70000 80/// 91139
AAXX 28121 02982 46/// /2711 10043 21012 30143 40151 57016 91139
AAXX 28121 02939 NIL
AAXX 28124 07005 02462 82011 10066 20049 30144 40236 58017 60001 878// 333 60007 81811 87623 90710 91118 93100 555 60005
AAXX 28124 07015 01261 82014 10042 20032 30178 40237 58015 69901 72052 887// 333 69907 88706 90710 91119 93100 555 69905
AAXX 28124 07020 01456 82523 10108 20092 30217 40244 58006 60011 76165 88700 333 69987 88710 90710 91138 555 69985
AAXX 28124 07027 02475 72213 10100 20081 30172 40254 58007 60001 86801 333 60007 84813 85645 87076 90710 91119 93100 555 60005
AAXX 28124 07037 01256 81909 10054 20054 30067 40255 58016 60001 70242 886// 333 60007 87705 90710 91113 93100 555 60005
AAXX 28124 07070 04368 81807 10036 20021 30158 40272 58026 60001 700// 333 60007 90710 91110 555 60005
AAXX 28124 07110 01470 62908 10091 20067 30168 40285 51006 69961 72186 83835 333 69967 81814 83635 85273 90710 91128 93100 555 69965
AAXX 28124 07117 02558 82717 10109 20066 30194 40265 50003 60001 88800 333 60007 91028 90710 91130 92436 555 60005
AAXX 28124 07130 04262 72107 10105 20096 30225 40278 58007 69901 700// 333 69907 90710 91110 555 60005
AAXX 28124 07139 01110 82004 10039 20032 30098 40278 58011 69921 75865 887// 333 69927 88701 90710 91108 93100 555 69905
AAXX 28124 07149 01130 82006 10037 20037 30165 40278 58017 69901 75052 887// 333 69907 88703 90710 91111 93100 555 69905
AAXX 28124 07168 02358 71609 10031 20015 30142 40290 58015 60001 876// 333 60007 87706 90710 91114 93100 555 60005
AAXX 28124 07181 04969 /2209 10044 20012 39863 40285 58019 60001 700// 333 60007 90710 91117 555 60005
AAXX 28124 07190 04963 /2105 10050 20015 30099 40287 58018 60001 700// 333 60007 90710 91109 555 60005
AAXX 28124 07207 06/// /2917 10125 20080 69941 333 69947 90710 91128 555 60005
AAXX 28124 07222 01112 82305 10096 20096 30259 40291 58008 69921 76064 887// 333 69927 88702 90710 91110 555 69925
AAXX 28124 07240 04250 81804 10036 20035 30156 40297 58013 60001 700// 333 60007 90710 91108 555 60005
AAXX 28124 07255 01565 72305 10063 20036 30097 40303 58019 60001 70142 81501 333 60007 81620 87073 90710 91110 93100 555 60005
AAXX 28124 07280 04/03 91906 10013 20012 30026 40312 58017 60001 745// 333 60007 90710 91109 555 60005
AAXX 28124 07299 02/62 51508 10050 20007 39961 40298 58015 60001 80001 333 60007 85076 90710 91111 93100 555 60005
AAXX 28124 07314 06/// /2409 10121 20091 30285 40313 58002 60001 333 60007 90710 91112 555 60005
AAXX 28124 07335 04549 82009 10052 20051 30160 40310 58009 60001 710// 333 60007 90710 91113 555 60005
AAXX 28124 07434 02262 71703 10061 20038 39827 40319 58006 60001 875// 333 60007 83706 87625 90710 91108 93100 555 60005
AAXX 28124 07460 01984 40202 10072 20031 39902 40300 58020 60001 70341 80001 333 60007 84073 90710 91105 93100 555 60005
AAXX 28124 07471 02982 20702 10091 20020 39316 48892 58011 60001 80001 333 60007 82076 90710 91105 93100 555 60005
AAXX 28124 07481 01/03 91204 10002 21001 30016 40319 58011 60001 74544 333 60007 90710 91107 93100 555 60005
AAXX 28124 07510 02564 72205 10097 20081 30259 40326 58003 60001 878// 333 60007 81825 87633 90710 91108 93100 555 60005
AAXX 28124 07535 02575 72501 10095 20032 30006 40325 58011 60001 875// 333 60007 87620 90710 91105 93100 555 60005
AAXX 28124 07558 02986 11804 10076 20003 39462 40313 58007 60001 80001 333 60007 81075 90710 91106 93100 555 60005
AAXX 28124 07577 02356 20309 10018 20012 30218 40312 58015 60001 82600 333 60007 82708 90710 91114 93100 555 60005
AAXX 28124 07591 04/// /2201 10076 21033 39262 4//// 58026 60001 700// 333 60007 90710 91106 555 60005
AAXX 28124 07607 04677 82504 10092 20057 30267 40340 50001 60001 700// 333 60007 90710 91110 555 60005
AAXX 28124 07621 02582 22708 10104 20054 39899 40339 58009 60001 82101 333 60007 82823 90710 91112 93100 555 60005
AAXX 28124 07627 02882 13206 10100 20041 39842 40338 50009 60001 81500 333 60007 81656 90710 91117 93100 555 60005
AAXX 28124 07630 02565 72105 10102 20062 30153 40337 50000 69921 875// 333 69927 87622 90710 91109 93100 555 60005
AAXX 28124 07643 02965 01203 10088 20026 30290 40300 58021 60001 333 60007 90710 91105 555 60005
AAXX 28124 07650 02964 02802 10098 20037 30258 40298 58017 60001 333 60007 90710 91104 555 60005
AAXX 28124 07661 02975 01905 10121 20064 30127 40290 58018 60001 333 60007 90710 91109 555 60005
AAXX 28124 07690 02584 11101 10147 20060 30256 40290 58022 60001 81100 333 60007 81830 90710 91110 93100 555 60005
AAXX 28124 07747 02983 02001 10151 20036 30247 40300 58020 60001 333 60007 90710 91103 93100 555 60005
AAXX 28124 07761 02584 12207 10143 20064 30278 40289 58021 60001 81501 333 60007 81626 90710 91109 93100 555 60005
AAXX 28124 07790 04984 /2002 10143 20009 30273 40288 58023 60001 700// 333 60007 90710 91105 555 60005
AAXX 28121 76122 32956 00000 10004 21045 38579 40245 5//// 91150 333 10175 20000 30103 55088 59017 70000
AAXX 28121 76220 32920 00000 11050 21050 38185 40282 5//// 91145 333 10168 21050 31080 59020 70000
AAXX 28121 76225 32920 20000 10040 21071 38655 40192 55000 82040 91135 333 10186 20040 30008 56060 59033 70000 82360
AAXX 28121 76305 32970 23405 10190 21008 30176 40186 5//// 80004 81140 333 10265 20188 30170 56005 59006 70000 82070
AAXX 28121 76323 32550 70000 10030 21045 38313 40282 52012 84042 91140 333 10212 20030 30/// 56055 59028 70000 84450 83268
AAXX 28121 76342 32940 02301 10082 21023 39517 40242 57016 91150 333 10242 20074 30068 59031 70000
AAXX 28121 76373 32910 00000 11006 21126 38234 40186 5//// 91155 333 10230 21025 31037 59012 70000
AAXX 28121 76382 32460 73401 10062 20004 38935 40212 57005 87400 91156 333 10216 20055 30030 56500 59028 70000 87614
AAXX 28121 76390 31850 22402 10078 21099 38247 40224 57009 70544 82050 91130 333 10190 20004 31001 56080 59024 70000 82356
AAXX 28121 76402 32950 00000 10110 20052 30114 40173 57013 91145 333 10292 20100 30094 59017 70000
AAXX 28121 76423 32760 20000 10020 21086 38179 40226 57005 81350 91157 333 10226 20015 30/// 56090 59021 70000 81357
AAXX 28121 76471 32980 00000 10050 21124 37715 40188 5//// 91150 333 10206 20028 30009 55099 59010 70000
AAXX 28121 76525 32960 02308 10107 21016 37489 40146 57004 91150 333 10169 20092 30084 55096 22653 59007 70000
AAXX 28121 76539 32958 02701 10028 20011 38187 40245 57005 91150 333 10240 20014 31011 59002 70000
AAXX 28121 76543 32975 01601 10088 21002 30199 40232 57/// 91145 333 10273 20088 30/// 59021 70000
AAXX 28121 76548 32960 00000 10114 20107 30217 40227 57012 91140 333 10236 20108 30106 59015 70000
AAXX 28121 76556 32960 21602 10139 20087 39128 40146 57009 80001 91130 333 10286 20136 30123 56005 59003 70000 82070
AAXX 28121 76577 32960 52301 10095 20081 38070 40180 51001 80003 91140 333 10251 20089 30079 56005 58001 70000 85080
AAXX 28121 76581 32960 01501 10051 20027 39103 40241 5//// 91150 333 10250 20031 30023 55082 59005 70000
AAXX 28121 76585 31965 00000 10079 20075 30058 40219 56013 71044 91135 333 10240 20078 30068 55074 59010 70000
AAXX 28121 76593 32350 10402 10220 20203 30199 40201 51007 81100 91150 333 10297 20218 30211 568// 58017 70000 81720
AAXX 28121 76612 32958 00000 10102 20082 38499 40200 52002 91155 333 10275 20103 30090 59003 70000
AAXX 28121 76625 32960 01801 10098 20031 38166 40168 57010 91140 333 10263 20092 30068 58006 70000
AAXX 28121 76632 31950 01801 10070 20030 37661 40193 5//// 70500 91140 333 10191 20066 30/// 58002 70000 98550
AAXX 28121 76634 31970 01602 10078 20036 37875 40234 5//// 91150 333 10227 20056 30052 59000 70000
AAXX 28121 76654 31956 00302 10227 20194 30158 40162 52006 70544 91150 333 10302 20225 30208 58016 70000
AAXX 28121 76662 32960 01201 10104 20059 38492 40182 52002 91145 333 10298 20080 30070 58002 70000
AAXX 28121 76665 31258 32401 10098 20070 38145 40174 52005 70310 83200 91145 333 10270 20089 30075 56100 57811 59003 70000 83805
AAXX 28121 76680 31560 70501 10106 20058 37779 40128 57002 70544 84120 91150 333 10230 20090 30088 56770 58004 70000 83827 84458
AAXX 28121 76683 32960 00000 10052 20017 37857 40229 55002 91145 333 10250 20052 30030 50391 55096 21883 58004 70000
AAXX 28121 76685 32950 00000 10064 20021 37894 40173 57012 91158 333 10250 20062 30048 58004 70000
AAXX 28121 76687 32964 00000 10098 20084 38718 40232 56006 91140 333 10140 20095 30085 58005 70002
AAXX 28121 76692 31520 72401 10194 20159 30202 40221 56005 71044 8555/ 91145 333 10230 20192 30/// 5688/ 59001 70000 85622
AAXX 28121 76698 32558 33601 10214 20211 30185 40197 5//// 83200 91150 333 10322 20214 30199 56800 58004 70000 83820
AAXX 28121 76737 32980 00000 10113 20094 38814 40220 57004 91135 333 10153 20105 30097 58005 79999 91103 91523
AAXX 28121 76750 01560 83402 10221 20214 30178 40188 5//// 60051 76162 86770 91150 333 10307 20214 30206 56110 58006 60057 70052 86920 82557
AAXX 28121 76762 32904 00000 10156 20139 38786 40158 53001 91152 333 10321 20156 30148 58013 70000
AAXX 28121 76773 32930 00000 10082 20055 38457 40191 52008 91148 333 10304 20070 30061 50451 55090 58010 70000
AAXX 28121 76775 31960 00301 10103 20070 38566 40222 52003 70011 91145 333 10298 20092 30/// 58014 70000
AAXX 28121 76840 32920 00208 10257 20180 30085 40140 55001 91145 333 10307 20217 30/// 55102 58003 70000
AAXX 28121 76843 32565 23601 10194 20171 39532 40179 57008 82100 91130 333 10262 20190 30182 569// 59002 70000 82830
AAXX 28121 76845 32340 60000 10120 20106 37972 40205 5//// 86600 91150 333 10208 20110 30098 56200 59001 70000 86707
AAXX 28121 76903 32970 00902 10237 20196 30008 40138 5//// 91140 333 10352 20224 30220 58006 70000
AAXX 28121 76243 32970 01502 10046 20025 39904 40207 57005 91135 333 10202 20026 30020 59041 70000
AAXX 28121 76405 32940 00000 10126 20109 30159 40181 52002 91150 333 10238 20124 30115 59009 70000
AAXX 28121 76412 32960 02201 10082 20062 30133 40181 57001 91140 333 10286 20080 30/// 58004 70000
AAXX 28121 76640 31110 21401 10140 20136 30227 40239 57014 70200 826// 91140 333 10228 20134 30130 569// 59011 70000 82702
AAXX 28121 76741 01130 83209 10206 20205 30158 40177 57004 60011 75052 86770 91135 333 10250 20176 30160 568// 59002 69997 70012 82601
AAXX 28121 76855 32580 03601 10214 20184 30075 40124 5//// 91145 333 10328 20208 30202 55097 56000 58012 70000 92000
BBXX CGBN 28124 99447 70636 46/// /1523 10076 20059 40041 58052 7//// 8//// 22200 0//// 2////
BBXX CZ9742 28124 99506 70969 46/// /1515 11119 21135 4//// 5//// 7//// 8//// 22200 0//// 2////
BBXX CGTF 28124 99476 70527 46/// /1404 11075 21094 40193 56015 7//// 8//// 22200 0//// 2////
BBXX VOPP 28124 99456 70735 46/// /2208 10009 20009 4//// 5//// 7//// 8//// 22200 0//// 2////
BBXX VCRG 28124 99474 70619 46/// /1713 10032 20020 40083 56030 7//// 8//// 22200 0//// 2////
BBXX CGSB 28124 99479 70695 46/// /0414 11001 21003 49876 56043 7//// 8//// 22200 0//// 2////
BBXX CGUM 28124 99445 70635 46/// /1417 10074 20064 40050 58056 7//// 8//// 22262 0//// 2////
BBXX CG2960 28124 99429 70824 46/// /3113 11059 21096 40127 51034 7//// 8//// 22200 0//// 2////
BBXX VOFG 28124 99456 70614 46/// /1308 10048 20040 40102 56033 7//// 8//// 22200 0//// 2////
BBXX CG2350 28124 99433 70798 46/// /2819 11043 21089 40053 51032 7//// 8//// 22200 0//// 2////
BBXX VRYO3 28124 99456 70735 46/// /0000 10016 20027 49877 51013 7//// 8//// 22200 0//// 2////
AAXX 28121 76122 32956 00000 10004 21045 38579 40245 5//// 91150 333 10175 20000 30103 55088 59017 70000
AAXX 28121 76220 32920 00000 11050 21050 38185 40282 5//// 91145 333 10168 21050 31080 59020 70000
AAXX 28121 76225 32920 20000 10040 21071 38655 40192 55000 82040 91135 333 10186 20040 30008 56060 59033 70000 82360
AAXX 28121 76305 32970 23405 10190 21008 30176 40186 5//// 80004 81140 333 10265 20188 30170 56005 59006 70000 82070
AAXX 28121 76323 32550 70000 10030 21045 38313 40282 52012 84042 91140 333 10212 20030 30/// 56055 59028 70000 84450 83268
AAXX 28121 76342 32940 02301 10082 21023 39517 40242 57016 91150 333 10242 20074 30068 59031 70000
AAXX 28121 76373 32910 00000 11006 21126 38234 40186 5//// 91155 333 10230 21025 31037 59012 70000
AAXX 28121 76382 32460 73401 10062 20004 38935 40212 57005 87400 91156 333 10216 20055 30030 56500 59028 70000 87614
AAXX 28121 76390 31850 22402 10078 21099 38247 40224 57009 70544 82050 91130 333 10190 20004 31001 56080 59024 70000 82356
AAXX 28121 76402 32950 00000 10110 20052 30114 40173 57013 91145 333 10292 20100 30094 59017 70000
AAXX 28121 76423 32760 20000 10020 21086 38179 40226 57005 81350 91157 333 10226 20015 30/// 56090 59021 70000 81357
AAXX 28121 76471 32980 00000 10050 21124 37715 40188 5//// 91150 333 10206 20028 30009 55099 59010 70000
AAXX 28121 76525 32960 02308 10107 21016 37489 40146 57004 91150 333 10169 20092 30084 55096 22653 59007 70000
AAXX 28121 76539 32958 02701 10028 20011 38187 40245 57005 91150 333 10240 20014 31011 59002 70000
AAXX 28121 76543 32975 01601 10088 21002 30199 40232 57/// 91145 333 10273 20088 30/// 59021 70000
AAXX 28121 76548 32960 00000 10114 20107 30217 40227 57012 91140 333 10236 20108 30106 59015 70000
AAXX 28121 76556 32960 21602 10139 20087 39128 40146 57009 80001 91130 333 10286 20136 30123 56005 59003 70000 82070
AAXX 28121 76577 32960 52301 10095 20081 38070 40180 51001 80003 91140 333 10251 20089 30079 56005 58001 70000 85080
AAXX 28121 76581 32960 01501 10051 20027 39103 40241 5//// 91150 333 10250 20031 30023 55082 59005 70000
AAXX 28121 76585 31965 00000 10079 20075 30058 40219 56013 71044 91135 333 10240 20078 30068 55074 59010 70000
AAXX 28121 76593 32350 10402 10220 20203 30199 40201 51007 81100 91150 333 10297 20218 30211 568// 58017 70000 81720
AAXX 28121 76612 32958 00000 10102 20082 38499 40200 52002 91155 333 10275 20103 30090 59003 70000
AAXX 28121 76625 32960 01801 10098 20031 38166 40168 57010 91140 333 10263 20092 30068 58006 70000
AAXX 28121 76632 31950 01801 10070 20030 37661 40193 5//// 70500 91140 333 10191 20066 30/// 58002 70000 98550
AAXX 28121 76634 31970 01602 10078 20036 37875 40234 5//// 91150 333 10227 20056 30052 59000 70000
AAXX 28121 76654 31956 00302 10227 20194 30158 40162 52006 70544 91150 333 10302 20225 30208 58016 70000
AAXX 28121 76662 32960 01201 10104 20059 38492 40182 52002 91145 333 10298 20080 30070 58002 70000
AAXX 28121 76665 31258 32401 10098 20070 38145 40174 52005 70310 83200 91145 333 10270 20089 30075 56100 57811 59003 70000 83805
AAXX 28121 76680 31560 70501 10106 20058 37779 40128 57002 70544 84120 91150 333 10230 20090 30088 56770 58004 70000 83827 84458
AAXX 28121 76683 32960 00000 10052 20017 37857 40229 55002 91145 333 10250 20052 30030 50391 55096 21883 58004 70000
AAXX 28121 76685 32950 00000 10064 20021 37894 40173 57012 91158 333 10250 20062 30048 58004 70000
AAXX 28121 76687 32964 00000 10098 20084 38718 40232 56006 91140 333 10140 20095 30085 58005 70002
AAXX 28121 76692 31520 72401 10194 20159 30202 40221 56005 71044 8555/ 91145 333 10230 20192 30/// 5688/ 59001 70000 85622
AAXX 28121 76698 32558 33601 10214 20211 30185 40197 5//// 83200 91150 333 10322 20214 30199 56800 58004 70000 83820
AAXX 28121 76737 32980 00000 10113 20094 38814 40220 57004 91135 333 10153 20105 30097 58005 79999 91103 91523
AAXX 28121 76750 01560 83402 10221 20214 30178 40188 5//// 60051 76162 86770 91150 333 10307 20214 30206 56110 58006 60057 70052 86920 82557
AAXX 28121 76762 32904 00000 10156 20139 38786 40158 53001 91152 333 10321 20156 30148 58013 70000
AAXX 28121 76773 32930 00000 10082 20055 38457 40191 52008 91148 333 10304 20070 30061 50451 55090 58010 70000
AAXX 28121 76775 31960 00301 10103 20070 38566 40222 52003 70011 91145 333 10298 20092 30/// 58014 70000
AAXX 28121 76840 32920 00208 10257 20180 30085 40140 55001 91145 333 10307 20217 30/// 55102 58003 70000
AAXX 28121 76843 32565 23601 10194 20171 39532 40179 57008 82100 91130 333 10262 20190 30182 569// 59002 70000 82830
AAXX 28121 76845 32340 60000 10120 20106 37972 40205 5//// 86600 91150 333 10208 20110 30098 56200 59001 70000 86707
AAXX 28121 76903 32970 00902 10237 20196 30008 40138 5//// 91140 333 10352 20224 30220 58006 70000
AAXX 28121 76243 32970 01502 10046 20025 39904 40207 57005 91135 333 10202 20026 30020 59041 70000
AAXX 28121 76405 32940 00000 10126 20109 30159 40181 52002 91150 333 10238 20124 30115 59009 70000
AAXX 28121 76412 32960 02201 10082 20062 30133 40181 57001 91140 333 10286 20080 30/// 58004 70000
AAXX 28121 76640 31110 21401 10140 20136 30227 40239 57014 70200 826// 91140 333 10228 20134 30130 569// 59011 70000 82702
AAXX 28121 76741 01130 83209 10206 20205 30158 40177 57004 60011 75052 86770 91135 333 10250 20176 30160 568// 59002 69997 70012 82601
AAXX 28121 76855 32580 03601 10214 20184 30075 40124 5//// 91145 333 10328 20208 30202 55097 56000 58012 70000 92000
AAXX 28121 76122 32956 00000 10004 21045 38579 40245 5//// 91150 33310175 20000 30103 55088 59017 70000
AAXX 28121 76220 32920 00000 11050 21050 38185 40282 5//// 91145 33310168 21050 31080 59020 70000
AAXX 28121 76225 32920 20000 10040 21071 38655 40192 55000 82040 91135333 10186 20040 30008 56060 59033 70000 82360
AAXX 28121 76305 32970 23405 10190 21008 30176 40186 5//// 80004 81140333 10265 20188 30170 56005 59006 70000 82070
AAXX 28121 76323 32550 70000 10030 21045 38313 40282 52012 84042 91140333 10212 20030 30/// 56055 59028 70000 84450 83268
AAXX 28121 76342 32940 02301 10082 21023 39517 40242 57016 91150 33310242 20074 30068 59031 70000
AAXX 28121 76373 32910 00000 11006 21126 38234 40186 5//// 91155 33310230 21025 31037 59012 70000
AAXX 28121 76382 32460 73401 10062 20004 38935 40212 57005 87400 91156333 10216 20055 30030 56500 59028 70000 87614
AAXX 28121 76390 31850 22402 10078 21099 38247 40224 57009 70544 8205091130 333 10190 20004 31001 56080 59024 70000 82356
AAXX 28121 76402 32950 00000 10110 20052 30114 40173 57013 91145 33310292 20100 30094 59017 70000
AAXX 28121 76423 32760 20000 10020 21086 38179 40226 57005 81350 91157333 10226 20015 30/// 56090 59021 70000 81357
AAXX 28121 76471 32980 00000 10050 21124 37715 40188 5//// 91150 33310206 20028 30009 55099 59010 70000
AAXX 28121 76525 32960 02308 10107 21016 37489 40146 57004 91150 33310169 20092 30084 55096 22653 59007 70000
AAXX 28121 76539 32958 02701 10028 20011 38187 40245 57005 91150 33310240 20014 31011 59002 70000
AAXX 28121 76543 32975 01601 10088 21002 30199 40232 57/// 91145 33310273 20088 30/// 59021 70000
AAXX 28121 76548 32960 00000 10114 20107 30217 40227 57012 91140 33310236 20108 30106 59015 70000
AAXX 28121 76556 32960 21602 10139 20087 39128 40146 57009 80001 91130333 10286 20136 30123 56005 59003 70000 82070
AAXX 28121 76577 32960 52301 10095 20081 38070 40180 51001 80003 91140333 10251 20089 30079 56005 58001 70000 85080
AAXX 28121 76581 32960 01501 10051 20027 39103 40241 5//// 91150 33310250 20031 30023 55082 59005 70000
AAXX 28121 76585 31965 00000 10079 20075 30058 40219 56013 71044 91135333 10240 20078 30068 55074 59010 70000
AAXX 28121 76593 32350 10402 10220 20203 30199 40201 51007 81100 91150333 10297 20218 30211 568// 58017 70000 81720
AAXX 28121 76612 32958 00000 10102 20082 38499 40200 52002 91155 33310275 20103 30090 59003 70000
AAXX 28121 76625 32960 01801 10098 20031 38166 40168 57010 91140 33310263 20092 30068 58006 70000
AAXX 28121 76632 31950 01801 10070 20030 37661 40193 5//// 70500 91140333 10191 20066 30/// 58002 70000 98550
AAXX 28121 76634 31970 01602 10078 20036 37875 40234 5//// 91150 33310227 20056 30052 59000 70000
AAXX 28121 76654 31956 00302 10227 20194 30158 40162 52006 70544 91150333 10302 20225 30208 58016 70000
AAXX 28121 76662 32960 01201 10104 20059 38492 40182 52002 91145 33310298 20080 30070 58002 70000
AAXX 28121 76665 31258 32401 10098 20070 38145 40174 52005 70310 8320091145 333 10270 20089 30075 56100 57811 59003 70000 83805
AAXX 28121 76680 31560 70501 10106 20058 37779 40128 57002 70544 8412091150 333 10230 20090 30088 56770 58004 70000 83827 84458
AAXX 28121 76683 32960 00000 10052 20017 37857 40229 55002 91145 33310250 20052 30030 50391 55096 21883 58004 70000
AAXX 28121 76685 32950 00000 10064 20021 37894 40173 57012 91158 33310250 20062 30048 58004 70000
AAXX 28121 76687 32964 00000 10098 20084 38718 40232 56006 91140 33310140 20095 30085 58005 70002
AAXX 28121 76692 31520 72401 10194 20159 30202 40221 56005 71044 8555/91145 333 10230 20192 30/// 5688/ 59001 70000 85622
AAXX 28121 76698 32558 33601 10214 20211 30185 40197 5//// 83200 91150333 10322 20214 30199 56800 58004 70000 83820
AAXX 28121 76737 32980 00000 10113 20094 38814 40220 57004 91135 33310153 20105 30097 58005 79999 91103 91523
AAXX 28121 76750 01560 83402 10221 20214 30178 40188 5//// 60051 7616286770 91150 333 10307 20214 30206 56110 58006 60057 7005286920 82557
AAXX 28121 76762 32904 00000 10156 20139 38786 40158 53001 91152 33310321 20156 30148 58013 70000
AAXX 28121 76773 32930 00000 10082 20055 38457 40191 52008 91148 33310304 20070 30061 50451 55090 58010 70000
AAXX 28121 76775 31960 00301 10103 20070 38566 40222 52003 70011 91145333 10298 20092 30/// 58014 70000
AAXX 28121 76840 32920 00208 10257 20180 30085 40140 55001 91145 33310307 20217 30/// 55102 58003 70000
AAXX 28121 76843 32565 23601 10194 20171 39532 40179 57008 82100 91130333 10262 20190 30182 569// 59002 70000 82830
AAXX 28121 76845 32340 60000 10120 20106 37972 40205 5//// 86600 91150333 10208 20110 30098 56200 59001 70000 86707
AAXX 28121 76903 32970 00902 10237 20196 30008 40138 5//// 91140 33310352 20224 30220 58006 70000
AAXX 28121 76243 32970 01502 10046 20025 39904 40207 57005 91135 33310202 20026 30020 59041 70000
AAXX 28121 76405 32940 00000 10126 20109 30159 40181 52002 91150 33310238 20124 30115 59009 70000
AAXX 28121 76412 32960 02201 10082 20062 30133 40181 57001 91140 33310286 20080 30/// 58004 70000
AAXX 28121 76640 31110 21401 10140 20136 30227 40239 57014 70200 826//91140 333 10228 20134 30130 569// 59011 70000 82702
AAXX 28121 76741 01130 83209 10206 20205 30158 40177 57004 60011 7505286770 91135 333 10250 20176 30160 568// 59002 69997 7001282601
AAXX 28121 76855 32580 03601 10214 20184 30075 40124 5//// 91145 33310328 20208 30202 55097 56000 58012 70000 92000
AAXX 28121 11423 01/01 92404 10006 20006 39378 42859 58027 69901 74554 333 60005 89/01
AAXX 28121 11487 01/01 91302 10019 20018 39651 40292 57026 69911 74554 333 69905 89/01
AAXX 28121 11518 01368 82204 10038 20026 39834 40284 57027 69901 70252 886// 333 60005 88707
AAXX 28121 11603 02365 81506 10043 20022 39785 40277 57025 60001 885// 333 60005 81707 85709 87612
AAXX 28121 11659 01240 81706 10029 20028 39636 40291 58029 69911 71052 886// 333 60005 88706
AAXX 28121 11723 01239 81805 10047 20037 39997 40302 58033 69901 76062 887// 333 69905 85704 88710
AAXX 28121 11782 02565 82106 10058 20028 39981 40292 58036 60001 885// 333 60005 88620
AAXX 28124 78906 61004 10233 20207 30178 40183 60032 7808/ 86400 333 10297 20221 58009 70033 86816 90919
AAXX 28121 01062 11315 43510 11135 21147 39921 49934 51031 69911 73883 84300 333 91117
AAXX 28121 01492 41380 81806 10053 20041 39918 40035 58074 76062 887// 333 91109
AAXX 28124 78906 61004 10233 20207 30178 40183 60032 7808/ 86400 333 10297 20221 58009 70033 86816 90919
AAXX 28124 81401 06/// /0806 10272 20237 30149 40155 60174 333 20217 60007 58000 555 60005
AAXX 28124 81408 06/// /0903 10276 20236 30148 40156 60024 333 20230 69927 58005 555 60005
AAXX 28124 78906 61004 10233 20207 30178 40183 60032 7808/ 86400 333 10297 20221 58009 70033 86816 90919
AAXX 28124 68386 16/// /1905 10264 20219 39670 48606 57003 69921 333 10300 20211 91008 555 20002 91020
AAXX 28124 68399 16/// /2212 10251 20204 30004 40112 53002 69921 333 10300 20227 91073 555 20002 69925 91011
BBXX CGBR 28124 99509 71277 46/// /0801 10077 20077 49969 53009 7//// 8//// 22200 0//// 2////
BBXX CGDR 28124 99484 71234 46/// /2311 10108 20106 40065 52014 7//// 8//// 22200 0//// 2////
BBXX VOLG 28124 99476 70527 46/// /2304 11073 21093 40189 56008 7//// 8//// 22271 0//// 2////
BBXX CGDG 28124 99447 70636 46/// /1318 10066 20120 40048 58048 7//// 8//// 22200 0//// 2////
BBXX CGCC 28124 99460 70731 46/// /2109 10014 20012 49874 52010 7//// 8//// 22200 0//// 2////
BBXX VCLM 28124 99468 70712 46/// /0801 10023 20015 49873 55003 7//// 8//// 22200 0//// 2////
BBXX VAAP 28124 99446 70626 46/// /1420 10066 20057 40065 57060 7//// 8//// 22253 0//// 2////
BBXX CGJK 28124 99484 71234 46/// /2318 10106 20094 40062 51014 7//// 8//// 22200 0//// 2////
BBXX VCWL 28124 99468 70712 46/// /0000 10011 20010 49880 53003 7//// 8//// 22200 0//// 2////
BBXX C6SI6 28124 99350 11385 46/// /0310 10086 20013 40238 58003 7//// 8//// 22200 0//// 2////
BBXX VOKF 28124 99490 70669 46/// /1306 10044 20022 49904 56088 7//// 8//// 22200 0//// 2////
BBXX CGDT 28124 99468 70712 46/// /0701 10022 20014 49881 55002 7//// 8//// 22200 0//// 2////
BBXX 3FZK3 28124 99493 71230 46/// /0603 10091 20091 40050 51018 7//// 8//// 22200 0//// 2////
BBXX VXKF 28124 99476 70591 46/// /1316 10029 20017 40137 55003 7//// 8//// 22282 0//// 2////
BBXX VAAZ 28124 99/// ///// 46/// /3308 10012 20002 40204 58007 7//// 8//// 22200 0//// 2////
BBXX CG2965 28124 99487 71235 46/// /2428 10129 20073 40044 53013 7//// 8//// 22200 0//// 2////
BBXX CGBY 28124 99487 71235 46/// /2419 10129 20075 40050 51015 7//// 8//// 22200 0//// 2////
BBXX CG2958 28124 99535 71300 46/// /1814 10088 20071 49866 53021 7//// 8//// 22200 0//// 2////
BBXX CGJV 28124 99457 70627 46/// /1616 10048 20030 40064 56041 7//// 8//// 22200 0//// 2////
BBXX CGHL 28124 99476 70527 46/// /2905 11077 21096 40193 56014 7//// 8//// 22200 0//// 2////
BBXX VCBW 28124 99467 70714 46/// /0606 10013 20007 49877 51015 7//// 8//// 22213 00024 2////
BBXX CGDX 28124 99468 70712 46/// /0705 10009 20008 49880 55006 7//// 8//// 22200 0//// 2////
BBXX VOKJ 28124 99467 70561 46/// /1213 10018 20002 40164 58026 7//// 8//// 22264 0//// 2////
BBXX VCSZ 28124 99455 70735 46/// /2405 10013 20013 49882 51012 7//// 8//// 22200 0//// 2////
BBXX 41010 28121 99289 70785 46/// /3213 10175 40172 53024 91150 22200 00236 10807 20807 70033 333 91216 555 11134 22141
BBXX 41009 28121 99285 70802 46/// /3311 10145 20099 40198 51018 91150 22200 00238 10705 20705 70023 333 91214 555 11116 22121
BBXX 42057 28121 99168 70815 46/// /0608 10268 20211 40172 53004 91150 22200 00275 10802 20602 3//// 40801 70011 333 91209 555 11078 22082 31137 40410 61149 056079 047073 051066 040069 044066 042067 80409 91137
AAXX 28124 81401 06/// /0806 10272 20237 30149 40155 60174 333 20217 60007 58000 555 60005
AAXX 28124 81408 06/// /0903 10276 20236 30148 40156 60024 333 20230 69927 58005 555 60005
AAXX 28124 78384 12560 10000 10220 20217 40179 60002 81100 333 10297 20219 58003 70000 81820
AAXX 28124 78383 12560 10903 10225 20203 40181 60002 81100 333 10295 20219 58003 70000 81820
AAXX 28124 78583 32170 73405 10224 20218 40187 60001 87800 333 0/100 10285 20/// 58004 87702
AAXX 28124 78951 11578 10914 10275 20199 30164 40179 69912 7018/ 81800 333 10292 20240 59008 70013 81821
AAXX 28124 78397 111578 13004 10237 20176 30157 40173 60001 70511 81440 333 01990 10314 20220 58003 81824
AAXX 28124 87692 32960 33608 10210 20164 40208 50001 81034 333 10210 20152 56055 81360 83070 555 10208 60722 64088 65055 70722 74159 89848
BBXX 51101 28121 99243 71621 46/// /0708 10232 20176 40224 58011 91150 22200 00237 10904 20502 310// 40903 70018 333 91209 555 11082 22087 31149 40809 61149 066077 069072 074075 080072 081069 070062
BBXX 46061 28121 99602 71468 46/// /0205 11010 49821 58023 91150 22200 00056 11204 20401 300// 41203 70018 333 91206 555 11048 22049 31113 40207 61149 023047 012040 017043 027051 019049 021047
AAXX 28124 78583 32170 73405 10224 20218 40187 60001 87800 333 0/100 10285 20/// 58004 87702
AAXX 28124 78384 12560 10000 10220 20217 40179 60002 81100 333 10297 20219 58003 70000 81820
AAXX 28124 78383 12560 10903 10225 20203 40181 60002 81100 333 10295 20219 58003 70000 81820
AAXX 28124 78951 11578 10914 10275 20199 30164 40179 69912 7018/ 81800 333 10292 20240 59008 70013 81821
AAXX 28124 78397 111578 13004 10237 20176 30157 40173 60001 70511 81440 333 01990 10314 20220 58003 81824
AAXX 28124 64500 32460 72408 10290 20235 30105 40117 845// 333 0//00 59005 84610 87640
AAXX 28124 89642 41960 72103 10038 20003 39612 49663 58014 76162 8702/ 333 10064 20026 87460
BBXX 46218 28121 99345 71208 46/// ///// 1//// 91202 22200 00135 11405 21003 330// 41403 70024
BBXX 46232 28121 99325 71174 46/// ///// 1//// 91138 22200 00142 11303 21002 327// 41302 70015
BBXX 46240 28121 99366 71219 46/// ///// 1//// 91142 22200 00121 11303 21001 335// 41303 70014
BBXX 46229 28121 99438 71246 46/// ///// 1//// 91151 22200 00097 10810 20808 329// 41406 70050
BBXX 46225 28121 99329 71174 46/// ///// 1//// 91144 22200 00148 11302 21001 327// 41302 70010
BBXX 46213 28121 99403 71247 46/// ///// 1//// 91154 22200 00108 11305 21003 329// 41304 70026
BBXX 46215 28121 99352 71209 46/// ///// 1//// 91138 22200 00126 11403 21002 327// 41402 70017
AAXX 28124 60101 32460 21117 10164 20076 40324 50000 82200 333 82816
AAXX 28124 60115 32565 42901 10114 20067 40313 50002 84800 333 82820 83830
AAXX 28124 60135 31450 20706 10163 20062 40298 56002 70244 82600 333 82710
AAXX 28124 60155 32940 002// 10162 20101 40289 58009
AAXX 28124 60156 17259 30404 10151 20105 40305 50001 69901 70010 83600 333 83706
AAXX 28124 60230 11440 50806 10154 20084 40286 50003 60001 70011 85200 91147 333 85816
AAXX 28124 60252 15460 01304 10177 20091 40270 56009 60001
AAXX 28124 60096 NIL
AAXX 28124 60150 NIL
AAXX 28124 07790 02984 12002 10143 20009 30273 40288 58023 60001 80001 333 60007 81076 90710 91105 93100 555 60005
AAXX 28121 14648 12970 00201 10091 21019 30177 40299 58027 60001
AAXX 28121 14652 12984 00903 11027 21073 38003 48573 58010 60001
AAXX 28121 14542 11916 03601 10026 21019 30143 40340 57021 60001 71040 333 95990
AAXX 28124 60060 32456 50403 10165 20115 40284 50006 85500 333 85616 95300
AAXX 28124 60105 32460 13206 10154 20067 40314 51003 81100 333 81816
AAXX 28124 60107 32565 42404 10147 20075 40323 50006 83230 333 83820 95300
AAXX 28124 60141 32560 10711 10128 20024 39632 40305 56001 81200 333 81830
AAXX 28124 60185 32470 20807 10165 20089 40303 50000 82500 333 82616
AAXX 28124 60191 31456 73602 10104 20096 40310 50007 72844 872// 333 83713 85826
AAXX 28124 60210 32570 32804 10104 21027 39087 48601 50002 83200 333 83826
AAXX 28124 60220 32558 20210 10174 20177 40296 52016 82500 333 82626
AAXX 28124 60265 32970 00606 10121 21029 38965 48585 50000
AAXX 28124 60106 NIL
AAXX 28124 60127 NIL
AAXX 28124 60190 NIL
AAXX 28124 60195 NIL
AAXX 28124 60318 NIL
AAXX 28124 63980 42470 63318 10296 20223 40098 83232 333 58006 83818 83076 943// 91130
AAXX 28124 60340 12465 40404 10132 20083 40325 51005 60021 84200 333 84816
AAXX 28124 60285 NIL
AAXX 28121 11812 36/// /1406 10005 20005 39596 42880 57027
AAXX 28121 11813 11020 89902 10025 20022 39962 40322 57024 60001 71044 886// 333 88701
AAXX 28121 11816 11456 81503 10036 20023 30153 40322 57025 69901 71052 885// 333 88616
AAXX 28121 11819 16/// /1603 10034 20030 30101 40324 57024 69941
AAXX 28121 11826 11230 81503 10036 20027 30115 40321 57023 69901 72044 886// 333 83706 88708
AAXX 28121 11841 11004 89901 10026 20022 39927 40314 58028 60001 74644 886// 333 88701
AAXX 28121 11855 11227 81003 10036 20030 30156 40327 57026 69921 75155 886// 333 88706
AAXX 28121 11856 16/// /1103 10025 20021 30000 40329 57024 69941
AAXX 28121 11858 11430 81602 10045 20036 30171 40327 57023 60001 71022 885// 333 84713 88623
AAXX 28121 11867 11309 89901 10033 20024 39997 40323 57023 60001 74444 886// 333 88707
AAXX 28121 11880 11205 80000 10023 20023 30155 40333 57024 69901 75054 886// 333 88703
AAXX 28121 11900 16/// /0000 10037 20020 39985 40329 57024 69901
AAXX 28121 11903 11123 80000 10021 20018 39936 40329 57024 69901 71054 886// 333 88702
AAXX 28121 11916 12989 12603 10042 21095 38041 48543 56018 60001 80001 333 81066 93598 444 87141
AAXX 28121 11918 11472 72504 10021 20017 39466 42881 58027 60001 70142 875// 333 87611
AAXX 28121 11927 11020 80000 10014 20011 30061 40333 57022 69901 71052 885// 333 85701 88610
AAXX 28121 11930 12989 13305 10010 21099 37430 47125 57014 60001 80001 333 81061 444 76174
AAXX 28121 11933 11/01 99901 11017 21021 38750 48558 58025 69911 74575 333 89/00 93401
AAXX 28121 11934 11480 79901 10025 20006 39465 42882 58028 69901 70254 875// 333 81710 87618
AAXX 28121 11938 11020 72306 11002 21008 39223 42882 57023 60011 77174 87500 333 81700 87703
AAXX 28121 11952 16/// /9902 10021 20003 39458 42884 57027 60001
AAXX 28121 11958 36/// /2008 11018 21022 38841 48562 57025
AAXX 28121 11968 11115 82101 10005 21001 30039 40332 57025 69901 75154 886// 333 88703
AAXX 28121 11976 11/03 90000 10006 20003 30059 40334 57024 69931 75154 333 89/01
AAXX 28121 11978 11313 80000 10012 20009 30196 40332 57026 60001 71042 886// 333 88707
AAXX 28121 11993 11115 89901 10019 20019 30109 40334 57026 69901 75054 886// 333 88703
AAXX 28121 14528 11430 80000 11004 21018 30030 40342 57023 60001 71022 886// 333 88716
AAXX 28121 14537 11956 00000 11020 21028 30143 40341 58026 60001 71040
AAXX 28121 14544 12970 00901 10010 21053 39642 40336 57031 60001
AAXX 28121 14557 11956 02301 10025 21044 39960 40342 57027 60001 71000
AAXX 28121 14640 12670 12501 10052 20004 39432 48572 58020 60001 81500 333 81643
AAXX 28124 89578 46/// /0509 11318 36870 4//// 5////
AAXX 28124 89577 46/// /0107 11294 35824 4//// 5////
BBXX 42363 28121 99282 70892 46/// /0604 10139 20056 40227 56007 91200 333 91205
BBXX 44100 28121 99363 70756 46/// ///// 1//// 91152 22200 00124 11103 21003 313// 41101 70015
BBXX 41110 28121 99341 70777 46/// ///// 1//// 91151 22200 00136 10902 20902 70011
BBXX 42099 28121 99273 70842 46/// ///// 1//// 91157 22200 00226 10804 20804 70019
BBXX 41112 28121 99307 70813 46/// ///// 1//// 91151 22200 00164 10301 20301 70007
BBXX 42364 28121 99291 70881 46/// /0205 10139 20050 40227 91145
BBXX 46224 28121 99332 71175 46/// ///// 1//// 91136 22200 00142 11302 20701 324// 41301 70008
BBXX 46214 28121 99379 71235 46/// ///// 1//// 91153 22200 00120 11305 21003 328// 41304 70024
AAXX 28124 85041 31230 70000 10233 20230 39860 ??71022 82740 333 20220 30/// 55002 56000 59002 82704 87358
AAXX 28124 85140 32270 60000 10250 20243 39930 40138 53022 83604 333 20218 30/// 55042 56706 58000 83706 86070
AAXX 28124 85141 32484 70000 10252 20230 39900 40128 52014 83504 333 20220 30/// 55010 56707 59007 81710 83630 87070
AAXX 28124 85151 NIL
AAXX 28124 85152 12384 70000 10260 20246 39895 40126 52010 60024 81740 333 20230 31/// 55055 56770 59006 70020 81708 86358
AAXX 28124 85201 32370 79902 10072 20042 36329 52012 83332 333 20052 30004 55035 56000 58000 82608 81917 86070
AAXX 28124 85230 NIL
AAXX 28124 85242 12584 60000 10096 20041 36585 52005 60124 82105 333 20062 30/// 56206 58001 70122 82820 86270
AAXX 28121 89061 379// 02703 10015 20001 39734 49741 54000 72144 333 10044 20007 91005 91105
AAXX 28124 78982 02482 20911 10269 20233 30144 40149 52015 60001 82200 333 10300 20256 59008 60007 82817
AAXX 28124 78947 11580 11008 10264 20206 30181 40184 7018/ 81800 333 00200 10291 20230 58000 81824 90979
AAXX 28124 17600 12582 12810 10178 20094 30226 40236 58024 60001 81100 333 81830 92428
AAXX 28124 17601 12681 12104 10165 20034 30204 40235 56022 60001 81100 91150 333 81830
AAXX 28124 17607 42582 12904 10159 20065 30045 40238 57021 81100 333 81825
AAXX 28124 17609 12575 41405 10156 20063 30237 40241 58019 60001 84800 333 81825 84645
AAXX 28121 45032 36/// /1402 10166 20134 30196 40213 54000
AAXX 28121 45035 36/// /1002 10170 20146 30166 40208 57002
AAXX 28121 45039 36/// /0000 10159 20135 30197 40213 52001
AAXX 28121 45044 36/// /1002 10158 20140 30117 40212 52001
AAXX 28124 43533 12460 73409 10283 20213 30087 40090 60002 82208 333 10301 58002 82818 87276
AAXX 28124 43555 12560 53406 10289 20223 30091 40094 60002 81102 333 10304 58003 81818 85078
AAXX 28124 43577 12460 32708 10301 20248 30090 40092 60002 82202 333 10325 59003 82818
AAXX 28124 43588 12462 52908 10294 20248 30090 40092 60002 82202 333 10308 58000 82818 83077
AAXX 28124 43599 12462 52709 10296 20248 30089 40091 60002 82232 333 10310 59001 82818 84076
AAXX 28121 45007 12950 10703 10192 20137 30201 40211 51009 60002 80001 333 10214 59024 81080
BBXX 51204 28121 99213 71581 46/// ///// 1//// 91152 22200 00243 11303 20802 331// 41301 70013
BBXX 51203 28121 99208 71570 46/// ///// 1//// 91143 22200 00245 11401 20901 326// 41401 70007
BBXX 51202 28121 99214 71577 46/// ///// 1//// 91139 22200 00240 11004 21004 334// 41302 70022
AAXX 28121 45007 12950 10703 10192 20137 30201 40211 51009 60002 80001 333 10214 59024 81080
AAXX 28121 89061 379// 02703 10015 20001 39734 49741 54000 72144 333 10044 20007 91005 91105
BBXX 51205 28121 99210 71564 46/// ///// 1//// 91148 22200 00233 11305 20905 333// 41302 70026
BBXX 46239 28121 99363 71221 46/// ///// 1//// 91151 22200 00123 11305 20903 328// 41305 70027
AAXX 28124 43533 12460 73409 10283 20213 30087 40090 60002 82208 333 10301 58002 82818 87276
AAXX 28124 43555 12560 53406 10289 20223 30091 40094 60002 81102 333 10304 58003 81818 85078
AAXX 28124 43577 12460 32708 10301 20248 30090 40092 60002 82202 333 10325 59003 82818
AAXX 28124 43588 12462 52908 10294 20248 30090 40092 60002 82202 333 10308 58000 82818 83077
AAXX 28124 43599 12462 52709 10296 20248 30089 40091 60002 82232 333 10310 59001 82818 84076
AAXX 28121 45032 36/// /1402 10166 20134 30196 40213 54000
AAXX 28121 45035 36/// /1002 10170 20146 30166 40208 57002
AAXX 28121 45039 36/// /0000 10159 20135 30197 40213 52001
AAXX 28121 45044 36/// /1002 10158 20140 30117 40212 52001
AAXX 28124 84782 31562 80000 10196 20150 39639 40144 70222 885// 333 20171 569// 58015 88630
AAXX 28124 84452 31356 41907 10186 20177 30118 40149 71022 84600 333 20184 56400 58008 84710
AAXX 28124 84658 31662 63302 10250 20242 39884 40112 702// 865// 333 20230 560// 59013 86640
AAXX 28124 84673 21630 80702 10110 20107 37394 71066 8452/ 333 20099 5699/ 58014 60144 84640 88458
AAXX 28124 84401 31660 61603 10215 20178 30101 40146 70222 8853/ 333 20215 5600/ 58007 82645 84360
AAXX 28124 84691 31456 62203 10210 20193 30121 40128 71044 8262/ 333 20162 5600/ 58003 82713 84460
AAXX 28124 16008 NIL
AAXX 28124 16084 12965 01202 10068 21007 30127 40298 56019 60001 333 55310
AAXX 28124 16088 12963 02503 10076 20025 30183 40303 58014 60001
AAXX 28124 16110 12998 03302 10114 20063 30285 40289 58022 60001 333 55310 555 0100/
AAXX 28124 16134 12989 00510 10006 21086 37901 48584 58012 60001 333 55310 92835
AAXX 28124 16153 12998 02009 10130 20100 30038 40305 57006 60001 333 55310 555 0213/
AAXX 28124 16158 12965 01104 10078 20016 30289 40297 58017 60001 333 55310
AAXX 28124 16206 NIL
AAXX 28124 16219 42965 00000 10018 21081 38192 48577 58008 6///1 333 55310
AAXX 28124 16252 12562 70000 10052 20006 39333 42880 57019 60001 86800 333 55301 84825 86630 95010
AAXX 28124 16280 12998 00906 10114 20063 30062 40287 58018 60001 333 55310 555 0300/
AAXX 28124 16310 12998 00000 10140 21057 30060 40283 56013 60001 333 55310 555 0100/
AAXX 28124 16320 12460 40802 10116 20081 30280 40293 58013 60001 84200 333 55310 81818 83820 555 0211/
AAXX 28124 16325 12598 22205 10126 20081 30266 40280 58026 60001 83130 333 82820 98070 555 0100/
AAXX 28124 16360 12598 40405 10120 20052 30155 40291 57026 60001 84100 333 55309 84825 555 0118/
AAXX 28124 16400 12498 40304 10138 20063 39993 40284 58015 60001 83270 333 55310 83818 555 0431/
AAXX 28124 16420 12698 42407 10152 20051 30210 40275 57015 60001 83580 333 55307 83640 555 0315/
AAXX 28124 16429 11570 73201 10138 20097 30254 40266 58013 69901 70162 84850 333 55300 81826 84636 87357
AAXX 28124 16470 11460 60905 10130 20096 30020 40258 58003 69981 70262 82530 333 55300 22/// 82616 86356 95010
AAXX 28124 16480 11497 80815 10132 20109 30191 40253 58019 60011 70262 8687/ 333 55300 84815 86618 555 0432/
AAXX 28124 16522 12998 00000 10148 20090 30035 40279 58010 60001 333 55310 555 0300/
AAXX 28124 16539 12598 20505 10134 20108 30166 40282 58010 60001 81101 333 81820 555 0299/
AAXX 28124 16550 12698 40000 10140 20075 30099 40280 58014 60001 84800 333 55310 81840 84640 555 0200/
AAXX 28124 16021 12989 01306 10042 21043 38069 48582 58020 60001 333 92852
AAXX 28124 16022 12989 12008 10046 21047 37942 48574 57016 60001 80001 333 55310 92852
AAXX 28124 16033 12975 02602 11004 21023 38866 48562 57020 60001 333 92832
AAXX 28124 16040 12965 01502 10026 21005 39367 42879 57028 60001
AAXX 28124 16052 12989 12405 11032 21155 36714 47157 58009 60001 80001 333 55310
AAXX 28124 16061 12975 00000 10090 20019 39457 42892 58007 60001 333 55310
AAXX 28124 16098 12970 00000 10098 20014 30243 40295 57020 60001
AAXX 28124 16138 11957 00000 10054 20010 30293 40305 58015 60001 71000
AAXX 28124 16148 12970 03302 10085 20025 30287 40300 57022 60001 333 55310
AAXX 28124 16168 12980 03402 10084 20006 39536 42882 57005 60001
AAXX 28124 16172 12964 00000 10072 21010 30000 40306 58020 60001
AAXX 28124 16179 12982 00703 10060 20004 39598 42874 58023 60001
AAXX 28124 16224 12970 03603 10080 20025 39959 40284 58015 60001 333 55310
AAXX 28124 16232 12598 32903 10134 20051 30245 40299 57010 60001 82280 333 55310 82826 83358 555 0217/
AAXX 28124 16245 12570 22605 10144 20060 30271 40297 58009 60001 81101 333 81820
AAXX 28124 16253 12966 00705 10130 20049 30279 40291 57029 60001 333 55310
AAXX 28124 16258 12468 62002 10050 20020 39282 42876 57016 60001 86500 333 86610
AAXX 28124 16263 11264 61210 10044 20014 39014 48568 58009 60001 72842 86200 333 86604
AAXX 28124 16294 NIL
AAXX 28124 16337 12998 00514 10106 20027 39700 40277 58010 60001 333 91024 91124 555 0100/
AAXX 28124 16344 NIL
AAXX 28124 16434 12470 50000 10088 20055 39060 48559 56010 60001 85800 333 82818 85626 95000 95100
AAXX 28124 16450 11/05 91009 10050 20050 39154 48603 56015 60001 74544 333 89/02
AAXX 28124 16459 12560 80708 10130 20068 30241 40277 57019 60001 83270 333 83830 87358
AAXX 28124 16546 12566 61202 10148 20081 30250 40279 58014 60001 86800 333 82820 85640
AAXX 28124 16564 12598 70618 10142 20090 30135 40278 58008 60001 83570 333 83620 84357 555 0300/
BBXX DBLK 28121 99591 30000 41396 83412 11008 21012 49764 57002 77172 8572/ 22283 05016 20301 333// 41103 ICE 6/6/0
AAXX 28124 71805 02370 41312 10019 20007 30152 40161 58023 60001 82101 333 42998 60007 82609 84075 90710 91115 555 60005
AAXX 28124 16045 12968 00602 10118 20038 30226 40291 57023 60001
AAXX 28124 16090 11958 01902 10094 20040 30219 40303 58018 60001 71000 333 55310
AAXX 28124 16149 12965 00203 10090 20024 30280 40296 57025 60001
AAXX 28124 16261 12570 42407 10098 20062 30221 40295 58018 60001 84500 333 55305 84630
AAXX 28124 16453 12597 60812 10150 20061 30185 40264 58015 60001 83550 333 55302 83630 86360 555 0322/
AAXX 28124 16560 12560 50509 10126 20093 30274 40281 58013 60001 85800 333 55300 83820 83640
AAXX 28124 13600 12970 03206 10072 20009 30261 40314 57014 60001
AAXX 28124 13610 11/06 90000 11010 21037 39898 40345 57020 60001 74500
AAXX 28124 13611 12962 03604 10114 21270 30190 40281 57021 60001
AAXX 28124 13619 12665 22204 11010 21023 39539 42902 57020 60001 82500 333 82640
AAXX 28124 13622 12665 21404 10124 21005 30288 40296 57027 60001 82200 333 82840
AAXX 28124 13624 12970 01412 10116 21037 30255 40295 57021 60001
AAXX 28124 13625 12970 00000 10067 21005 30091 40329 54001 60001
AAXX 28124 13629 11958 00000 11032 21045 39236 42877 57006 60001 71000
AAXX 28124 13601 12970 03601 10116 20000 30171 40273 57024 60001
AAXX 28124 13602 NIL
AAXX 28124 13623 12970 03204 10106 21024 30297 40304 57016 60001
AAXX 28124 48601 11559 73301 10276 20250 30099 40103 60001 70522 82542 333 10317 82625 84364 87077
AAXX 28124 48615 11558 70000 10262 20241 30112 40118 60001 70522 8253/ 333 10282 82620 87364
AAXX 28124 48620 11562 70701 10261 20249 30095 40104 69921 72162 83548 333 10305 83630 84365 87276
AAXX 28124 48647 11459 71702 10273 20247 30082 40107 60001 72992 83942 333 10326 81917 83364 87078
AAXX 28124 48657 11340 83605 10245 20229 30101 40119 69941 76166 84577 333 10280 82709 84624 88276
AAXX 28124 48665 11562 70406 10254 20235 30106 40116 69921 70182 82578 333 10298 82628 83364 86276
AAXX 28124 96413 11565 72903 10254 20241 30064 40090 69901 70162 8557/ 333 10310 85620 87365
AAXX 28124 96421 11365 73602 10245 20238 30058 40094 60301 79196 8457/ 333 10313 82707 84617 87365
AAXX 28124 96441 12468 72302 10263 20253 30058 40085 60001 82541 333 10316 82616 87080
AAXX 28124 96449 12465 70702 10266 20255 30065 40084 69921 83571 333 10297 83614 85365
AAXX 28124 96465 11458 70506 10268 20247 30054 40087 6///1 79596 86978 333 10322 83812 81915 83640 85364
AAXX 28124 96471 11462 81303 10267 20248 30080 40083 60021 76162 83948 333 10323 82814 81917 83635 87276
AAXX 28124 96481 11359 70402 10239 20227 30088 40107 60311 76162 8487/ 333 10299 81708 83624 87466
AAXX 28124 96491 11360 71708 10253 20239 30100 40112 60021 76162 83858 333 10293 81708 85364 87276
BBXX 42364 28121 99291 70881 46/// /0304 10139 20044 40227 55000 91200
BBXX 41046 28121 99238 70683 46/// /1406 10243 20196 40196 53006 91150 22200 00253 11004 20501 300// 41004 70020 333 91207 555 11058 22060 31054 41307 61149 141055 140054 142054 149053 143053 140052 81306 91054
BBXX 44011 28121 99411 70666 46/// /1410 10127 20127 49978 56039 91150 22200 00088 10910 20908 3//// 41106 70048 333 91214 555 11111 22124 31138 43323 61149 142104 144179 143141 145134 148120 149122
AAXX 28124 86011 32570 52706 10290 20232 39973 40131 52020 84570 333 20228 5//// 84633 84457
AAXX 28124 86033 32870 32710 10300 20226 30031 40125 52020 83080 333 20260 5//// 83357
AAXX 28124 86065 32970 50904 10290 20226 39883 40116 52011 80005 333 20254 5//// 85270
AAXX 28124 86068 32870 20304 10300 20212 39920 40109 52016 82081 333 20254 51104 82357 82070
AAXX 28124 86086 32970 30000 10298 20178 30023 40111 52012 80001 333 20250 5//// 83270
AAXX 28124 86097 32970 60504 10294 20194 39494 40121 52014 80006 333 20230 50724 83270
AAXX 28124 86128 NIL
AAXX 28124 86134 32970 41404 10290 20230 30027 40112 53009 80006 333 20238 50704 84270
AAXX 28124 86170 32970 50908 10298 20226 30003 40104 52010 83039 333 20228 51084 83360 82270
AAXX 28124 86185 32970 20904 10288 20233 30027 40119 52013 80006 333 20236 5//// 82270
AAXX 28124 86192 32970 00908 10304 20210 39913 40127 52002 333 20236 5////
AAXX 28124 86210 32970 01402 10268 20226 39763 40100 52006 333 20220 50684
AAXX 28124 86218 32970 31203 10290 20213 30032 40126 52015 83030 333 20256 50944 83358
AAXX 28124 86221 32870 10000 10286 20220 30006 40138 52015 81050 333 20242 50474 81358
AAXX 28124 86233 32970 00000 10284 20221 39931 40116 53006 333 20232 5////
AAXX 28124 86234 32870 11205 10284 20220 39894 40074 51013 81030 333 20235 50064 81357
AAXX 28124 86246 32970 00000 10282 20249 39829 40109 52004 333 20218 5////
AAXX 28124 86251 32970 01404 10266 20213 39951 40118 53023 333 20234 50234
AAXX 28124 86255 32870 21406 10270 20155 30074 40140 51009 82030 333 20224 50604 82360
AAXX 28124 86260 32670 21404 10274 20223 39969 40119 53016 82200 333 20227 50534 82840
AAXX 28124 86268 32970 00602 10282 20202 39945 40106 56009 333 20224 5////
AAXX 28124 86285 32970 00000
AAXX 28124 86297 32770 31403 10250 20204 39981 40084 52006 82055 333 20220 50944 82357 82270
AAXX 28124 91643 11498 83408 10284 20241 40093 58002 60001 71401 8327/ 333 10320 5689/ 83819 88361
AAXX 28124 91648 11498 72515 10264 20243 40091 69921 71482 8337/ 333 10306 5669/
AAXX 28124 ---785318740-728458159-1325073924=:50012 html code found in mail The rest of this message has been deleted
AAXX 28124 61968 16/// /2804 10318 20228 40104 60001 333 58016 90710 91108 555 60005
AAXX 28124 61980 12562 70714 10273 20206 40129 60001 878// 333 59004 83825 86656 90710 91117 92437 555 60005
AAXX 28124 67005 11458 72804 10294 20229 40110 60031 71622 879// 333 58014 81916 86820 90710 91110 555 60005
AAXX 2812/ 89108 46/// ///// 11214 36922 4//// 5////
AAXX 2812/ 89799 46/// ///// 11229 4//// 5////
AAXX 28121 01098 41470 63112 10006 21031 39858 49876 53025 73683 86300 333 91119
AAXX 28121 01115 41465 80501 10012 21020 39992 40013 58027 78782 889// 333 91120
AAXX 28121 01205 46/// /1609 10087 20018 39850 49894 58074 333 91115
AAXX 28121 01281 16/// ///// 11041 21051 39860 40039 58042 60001
AAXX 28121 01238 41304 81612 11029 21043 38846 49976 56068 73883 889// 333 91119
AAXX 28123 78970 11464 40000 10283 20236 30138 40163 69952 71511 82932 333 06299 10285 20241 59007 70049 81912 87080
AAXX 28123 78962 11468 20816 10275 20214 30162 40170 71500 81832 333 02299 10310 20231 58002 70000 81818
AAXX 28124 48601 11559 73301 10276 20250 30099 40103 60001 70522 82542 333 10317 82625 84364 87077
AAXX 28124 48615 11558 70000 10262 20241 30112 40118 60001 70522 8253/ 333 10282 82620 87364
AAXX 28124 48620 11562 70701 10261 20249 30095 40104 69921 72162 83548 333 10305 83630 84365 87276
AAXX 28124 48647 11459 71702 10273 20247 30082 40107 60001 72992 83942 333 10326 81917 83364 87078
AAXX 28124 48650 11459 73004 10263 20235 30089 40108 60011 71796 83948 333 10312 81917 83630 86277
AAXX 28124 48657 11340 83605 10245 20229 30101 40119 69941 76166 84577 333 10280 82709 84624 88276
AAXX 28124 48665 11562 70406 10254 20235 30106 40116 69921 70182 82578 333 10298 82628 83364 86276
AAXX 28124 96413 11565 72903 10254 20241 30064 40090 69901 70162 8557/ 333 10310 85620 87365
AAXX 28124 96421 11365 73602 10245 20238 30058 40094 60301 79196 8457/ 333 10313 82707 84617 87365
AAXX 28124 96441 12468 72302 10263 20253 30058 40085 60001 82541 333 10316 82616 87080
AAXX 28124 96449 12465 70702 10266 20255 30065 40084 69921 83571 333 10297 83614 85365
AAXX 28124 96465 11458 70506 10268 20247 30054 40087 6///1 79596 86978 333 10322 83812 81915 83640 85364
AAXX 28124 96471 11462 81303 10267 20248 30080 40083 60021 76162 83948 333 10323 82814 81917 83635 87276
AAXX 28124 96481 11359 70402 10239 20227 30088 40107 60311 76162 8487/ 333 10299 81708 83624 87466
AAXX 28124 96491 11360 71708 10253 20239 30100 40112 60021 76162 83858 333 10293 81708 85364 87276
AAXX 28124 91574 46/// ///// 29089 30042 40048 56110
AAXX 28124 91570 NIL
AAXX 28124 91598 NIL
AAXX 28124 91573 06/// /0000 10240 2//// 39983 4//// 51008 69944 333 20242 58025 60007
AAXX 28124 91577 06/// /0503 10227 20195 30050 40071 50004 60024 333 20233 58024 60007
AAXX 28124 91579 06/// /2806 10260 20233 30055 40063 50008 60004 333 20259 58026 60007
AAXX 28124 91582 04970 /0301 10213 20205 30030 40065 50006 60001 700// 333 60007 90710 91102 555 60005
AAXX 28124 91583 06/// /2602 10226 20184 30051 40066 50008 60004 333 20237 58027 60007
AAXX 28124 91587 06/// /0402 10232 20215 30018 40063 50004 69924 333 20224 58031 60007
AAXX 28124 91590 04986 /0202 10218 20199 30024 40067 50005 60001 700// 333 60007 90710 91105 555 60005
AAXX 28124 91592 06/// /3108 10240 20209 39981 40065 50007 60034 333 20243 58033 60007
AAXX 28124 91596 06/// /2604 10236 20211 39955 40063 50005 60004 333 20233 58033 60007
AAXX 28124 78954 11440 80809 10230 20215 30116 40182 60031 76086 8782/ 333 10291 20207 50690 58009 70187 83812 87632 90916
AAXX 28121 37575 42999 02002 10082 21033 40249 56029 555 11007
AAXX 28121 37675 42999 00903 10090 21009 39551 40204 57010 555 11013
AAXX 28121 37735 42999 03207 10098 21047 39798 40171 57034 555 10012
AAXX 28121 37749 42998 02705 10114 20009 30139 40256 57034 555 11009
AAXX 28121 37756 42999 02906 10079 20094 30219 40224 57037 555 13012
AAXX 28121 37864 32997 22210 10093 20019 40213 57017 82030
AAXX 28121 37985 42998 00901 10105 20004 30264 40250 57024 555 11015
AAXX 28121 37682 32997 01802 11040 21053 38170 48560 58002
AAXX 28121 37717 32999 01903 11022 21085 38102 48529 57015 555 1/105
AAXX 28121 37788 42999 00000 10039 21053 39270 40287 57013
AAXX 28121 06201 47964 62311 10088 20067 30057 40109 58008 72260 8//// 333 85/59 86/62 91014 91122 91217
AAXX 28121 06203 47256 82215 10087 20077 30115 40166 58020 71081 8//// 333 85/05 88/06 91018 91119 91216
AAXX 28121 06204 45365 72215 10100 20083 30099 40150 58017 8//// 333 81/09 87/50 91019 91121 91217
AAXX 28121 06205 45963 82116 10088 20062 30010 40069 58021 8//// 333 88/64 91020 91123 91218
AAXX 28121 06208 47259 82011 10067 20049 30110 40160 57029 71081 8//// 333 85/06 88/08 91014 91117 91213
AAXX 28121 06211 45563 72213 10089 20070 30072 40128 58015 8//// 333 81/25 83/30 85/40 91016 91118 91214
AAXX 28121 06212 47138 82114 1//// 2//// 30100 40164 58022 75781 8//// 333 88/02 91017 91119 91217
AAXX 28121 06235 17256 82212 10068 20057 30173 40173 58021 60001 71010 8//// 333 88/05 91018 91119 91213
AAXX 28121 06240 17358 82108 10060 20051 30202 40197 58020 60001 72381 8//// 333 88/07 91010 91114 91210
AAXX 28121 06251 17256 82215 10066 20060 30161 40162 58023 69911 71081 8//// 333 88/05 91018 91119 91215
AAXX 28121 06258 46/// ///// 333 910// 911// 912//
AAXX 28121 06269 17347 82109 10059 20047 30202 40196 56024 69901 75110 8//// 333 83/07 85/09 88/10 91012 91115 91211
AAXX 28121 06280 15460 82207 10067 20050 30177 40181 56031 60001 8//// 333 88/11 91010 91115 91209
AAXX 28121 06310 15361 82111 10062 20051 30198 40208 58025 60001 8//// 333 84/08 88/09 91013 91115 91212
AAXX 28121 06344 15360 82008 10060 20046 30209 40202 58021 60001 8//// 333 88/08 91011 91115 91211
AAXX 28121 06370 15474 82006 10059 20041 30193 40219 58030 60001 8//// 333 88/10 91009 91114 91210
AAXX 28121 06380 15483 82308 10059 20033 30098 40240 58011 60001 8//// 333 86/13 88/15 91011 91114 91211
AAXX 28123 78970 11464 40000 10283 20236 30138 40163 69952 71511 82932 333 06299 10285 20241 59007 70049 81912 87080
AAXX 28123 78962 11468 20816 10275 20214 30162 40170 71500 81832 333 02299 10310 20231 58002 70000 81818
AAXX 28121 06206 46462 72215 10093 20067 30079 40132 58017 8//// 333 82/11 83/17 86/37 91018 91122 91217
AAXX 28121 06207 47256 8//17 10066 20054 30084 40139 58026 71010 8//// 333 87/04 88/06 91020 91122 91218
AAXX 28121 06239 45463 7//17 10094 20069 3//// 4//// 5//// 8//// 333 81/10 84/16 87/66 91020 91123 91219
AAXX 28121 06252 46/// /2314 10098 20081 30099 40145 58014 222// 00097 10706 333 91017 91119 91215
AAXX 28121 06260 17343 82208 10058 20046 30202 40204 58027 60001 75110 8//// 333 87/09 88/10 91011 91113 91208
AAXX 28121 06270 17258 82108 10059 20048 30172 40172 58023 60001 71000 8//// 333 87/06 88/08 91012 91114 91210
AAXX 28121 06290 15467 82106 10068 20044 30166 40207 58016 60001 8//// 333 88/12 91009 91113 91208
AAXX 28123 91551 11598 70000 10247 20241 40079 51001 60011 70226 878// 333 10317 569// 58021 60011 84820 87640
AAXX 28123 91553 NIL
AAXX 28123 91554 31598 20000 10250 20231 40077 51007 70122 82100 333 10310 569// 58018 82820
AAXX 28123 91555 31598 12705 10258 20232 40075 51004 70111 81100 333 10318 569// 58016 81825
AAXX 28123 91557 11598 79901 10240 20231 40056 51005 60021 70222 848// 333 10/// 561// 58021 60021 84820
AAXX 28123 91565 31598 12706 10240 20218 40059 51002 70111 81100 333 10302 566// 58018 81825
AAXX 28123 91568 31598 10000 10228 20216 40068 51002 70221 81100 333 10300 569// 58020 81825
AAXX 28123 91551 11598 70000 10247 20241 40079 51001 60011 70226 878// 333 10317 569// 58021 60011 84820 87640
AAXX 28123 91553 NIL
AAXX 28123 91554 31598 20000 10250 20231 40077 51007 70122 82100 333 10310 569// 58018 82820
AAXX 28123 91555 31598 12705 10258 20232 40075 51004 70111 81100 333 10318 569// 58016 81825
AAXX 28123 91557 11598 79901 10240 20231 40056 51005 60021 70222 848// 333 10/// 561// 58021 60021 84820
AAXX 28123 91565 31598 12706 10240 20218 40059 51002 70111 81100 333 10302 566// 58018 81825
AAXX 28123 91568 31598 10000 10228 20216 40068 51002 70221 81100 333 10300 569// 58020 81825
AAXX 28121 03951 17658 /2912 10076 20033 30224 40251 52020 60021 72281 83/// 333 83/32 83/58 90710 91120
AAXX 28121 03953 11470 72912 10076 21007 30219 40256 51027 60011 72782 873// 333 83919 83631 92447 90710 91121
AAXX 28121 03955 12678 22707 10054 20022 30031 40232 50020 69901 82930 333 82930
AAXX 28121 03956 15680 /2712 10060 20015 30118 40196 50009 60001 81/// 333 81/36 90710 91118
AAXX 28121 03962 11468 72809 10077 20029 30184 40208 52026 60011 72581 873// 333 81712 84918 87638 90710 91119
AAXX 28121 03963 17658 /2921 10080 20015 30150 40179 50027 69941 71085 82/// 333 82/30 90710 91127 91221
AAXX 28121 03966 17561 /2806 10053 20028 30097 40191 52025 60021 76186 85/// 333 81/22 83/27 85/42
AAXX 28121 03967 11480 72512 10055 20028 30043 40158 51016 69911 72581 878// 333 81718 83820 85630 90710 91118
AAXX 28121 03969 11475 32513 10062 20025 30046 40151 51016 69901 70181 83800 333 81715 83640 90710 91121
AAXX 28121 03973 11462 72712 10058 20015 39902 40159 50032 69981 78081 873// 333 83714 86920 90710 91121
AAXX 28121 03976 11568 62814 10070 20027 30151 40163 52038 60011 72582 84301 333 84920 81820 83070 90710 91126
AAXX 28121 03980 17557 /2823 10076 20045 30016 40041 50035 60031 7228/ 87/// 333 87/26 90710 91133 91224
BBXX A8OZ4 28124 99375 10065 43598 50812 10140 20080 40250 56010 7//// 858// 22224 00160 2//// 3//06 40604 5//// 80115
BBXX DBBH 28121 99378 10047 41498 60413 10146 20078 40266 57016 70361 85840 22222 04159 20705
AAXX 28121 10499 12472 42010 10060 20027 39959 40254 58034 60001 83102 333 31/// 55308 20824 30443 83816 91116
AAXX 28124 78954 11440 80809 10230 20215 30116 40182 60031 76086 8782/ 333 10291 20207 50690 58009 70187 83812 87632 90916
AAXX 28124 85032 32465 40000 10254 20236 39976 40137 52026 82501 333 20210 30/// 55041 56406 59006 82610 84070
AAXX 28124 85043 11220 60000 10235 20232 39968 40139 52028 60054 71042 86630 333 20220 32/// 55045 56770 59004 70046 86704 86358
AAXX 28124 85104 12365 60000 10258 20249 39968 40130 51008 60094 82530 333 20233 30/// 55028 56770 59002 70092 82608 86358
AAXX 28124 85109 12265 70000 10252 20246 39964 40125 52010 60074 82630 333 20225 31/// 56770 59006 70065 82706 87358
AAXX 28124 85114 12265 70000 10252 20247 39969 40133 52012 60144 81638 333 20229 31/// 55070 56776 59001 70138 81706 85358 87270
AAXX 28124 85116 32465 70000 10256 20243 39964 40146 52010 82530 333 20237 30/// 55097 56880 59002 82615 87358
AAXX 28124 85123 32465 63406 10265 20250 39960 40126 52024 82531 333 20234 30/// 55019 56776 59008 82610 85070
AAXX 28124 85139 32965 50000 10260 20247 39898 40090 52013 80004 333 20240 30/// 55055 56008 59015 85070
AAXX 28124 85153 12865 63204 10260 20246 39945 40130 52012 60014 84054 333 20230 30/// 56076 59005 70011 84358 86070
AAXX 28124 85154 12870 63005 10252 20238 39958 40136 52020 60034 86030 333 20230 31022 55030 56070 59009 70028 86358
AAXX 28124 89532 42980 10503 10005 21070 39811 49838 53013 80001 333 10013 21049
AAXX 28121 01370 16/// /1702 11031 21047 38918 40100 58056 60001 333 4/026 91107
AAXX 28121 01419 16/// /2304 10043 20028 60031 333 91113
AAXX 28121 01092 46/// /3412 10016 21044 333 91118
AAXX 28121 01199 11989 02803 11136 21149 39494 49980 53012 6//// 70210 333 91105
AAXX 28121 01329 11445 80902 10042 20024 39899 49959 58066 60021 78082 888// 333 91109
AAXX 28121 01337 16/// /0901 10022 20006 39894 49960 58069 60011 333 91106
AAXX 28121 01374 41512 80501 11016 21044 77172 8272/
AAXX 28121 01436 41120 82015 10072 20061 76162 8672/ 222// 00085 333 91118
AAXX 28121 01023 41586 62003 11001 21028 39890 49985 51008 70282 84878 333 91113
AAXX 28121 01265 16/// /2004 11014 21045 39434 40018 58064 60001 333 91110
AAXX 28121 01375 16/// /1607 11056 21060 6//// 333 91114
AAXX 28121 01440 46/// /1812 11014 21016 38711 49986 57058 333 91121
AAXX 28121 01469 16/// /1604 10045 20015 39853 40023 58075 60001 333 91108
AAXX 28121 01228 46/// /1210 10041 21007 39945 49952 58081 333 91114
AAXX 28121 01340 16/// /1303 10021 21024 39111 49970 58071 60001 333 91117
AAXX 28121 01425 16/// /1708 10059 20050 39925 40004 58071 60141 333 91112
AAXX 28124 89664 11861 30000 11023 21058 39841 49883 52009 69902 74040 82075 333 10008 21038 56022 58041 81758 83268 90960 93197
AAXX 28124 91324 32474 81308 10300 20259 30088 40090 83201 333 563/9 58003 83819 88075 555 92812
AAXX 28124 91329 NIL
AAXX 28124 91336 NIL
AAXX 28124 91339 11474 80813 10294 20249 30091 40097 69951 70282 8637/ 333 56299 59007 70005 86918 88362 555 92812
AAXX 28124 91320 32474 80410 10283 20267 30112 40117 83201 333 561/9 59003 83816 85074 555 92812
BBXX A8OZ4 28124 99375 10065 43598 50812 10140 20080 40250 56010 7//// 858// 22224 00160 2//// 3//06 40 604 5//// 80115
AAXX 28124 48698 01460 73504 10263 20245 30093 40111 69921 70582 82838 333 10283 50220 55000 69927 81818 87277
AAXX 28124 48001 32440 32301 10170 20135 40139 82910 333 10240 56590 59009
AAXX 28124 48004 32520 10000 10216 20185 81100 333 10270 56900
AAXX 28124 48008 32456 70000 10230 20181 40154 84970 333 10282 56450 58029
AAXX 28124 48010 32510 40000 10230 20198 40138 82520 333 10275 56590 59000
AAXX 28124 48018 32340 80000 10225 20198 40150 8487/ 333 10247 56599 58026
AAXX 28124 48019 32450 80000 10215 20175 40151 85770 333 10238 56450 58019
AAXX 28124 48020 32440 80000 10220 20156 85630 333 10242 56550
AAXX 28124 48025 32456 70000 10228 20214 40162 85840 333 10245 56660 58022
AAXX 28124 48035 21510 80000 10168 20168 40155 75050 8597/ 333 10188 56999 58012
AAXX 28124 48037 21430 80000 10200 20200 40160 75155 8572/ 333 10210 56499 58034
AAXX 28124 48042 21456 80000 10200 20200 40165 75055 8592/ 333 10210 56779 58029
AAXX 28124 48045 21/08 90000 10133 20133 76264 333 10148
AAXX 28124 48048 21540 80401 10195 20185 40162 75065 8697/ 333 10210 5619/ 58030
AAXX 28124 48053 21430 83601 10180 20180 40158 75055 8597/ 333 10200 56599 59010
AAXX 28124 48057 21229 81402 10132 20127 75055 8687/ 333 10158 5689/
AAXX 28124 48060 31410 80000 10165 20154 40184 75055 8597/ 333 10170 5656/ 58002
AAXX 28124 48062 21440 80409 10204 20200 40137 75055 8692/ 333 10235 5619/ 58006
AAXX 28124 48071 32456 83601 10238 20209 40135 8692/ 333 10253 5659/ 58002
AAXX 28124 48077 32556 80408 10214 20207 40152 85970 333 10352 56970 58018
AAXX 28124 48078 32540 83604 10233 20181 40141 8357/ 333 10297 56599 58006
AAXX 28124 48080 32556 80000 10275 20203 40117 86870 333 10316 56490 59007
AAXX 28124 48094 32456 10000 10265 20235 40124 81500 333 10300 56900 58001
AAXX 28124 48097 32457 30401 10265 20185 40133 81530 333 10332 56990 59011
AAXX 28124 48108 31596 50501 10280 20203 40125 70522 82405 333 10350 56109 59000
AAXX 28124 48109 32496 30903 10290 20248 40106 81530 333 10320 56890 58006
AAXX 28124 48110 31996 43202 10275 20229 40115 705// 80002 333 10340 56009 59002
AAXX 28124 48112 32598 50405 10280 20220 40104 80006 333 10310 56199 59012
AAXX 28124 48698 01460 73504 10263 20245 30093 40111 69921 70582 82838 333 10283 50220 55000 69927 81818 87277
AAXX 28124 89664 11861 30000 11023 21058 39841 49883 52009 69902 74040 82075 333 10008 21038 56022 58041 81758 83268 90960 93197
AAXX 28124 48001 32440 32301 10170 20135 40139 82910 333 10240 56590 59009
AAXX 28124 48004 32520 10000 10216 20185 81100 333 10270 56900
AAXX 28124 48008 32456 70000 10230 20181 40154 84970 333 10282 56450 58029
AAXX 28124 48010 32510 40000 10230 20198 40138 82520 333 10275 56590 59000
AAXX 28124 48018 32340 80000 10225 20198 40150 8487/ 333 10247 56599 58026
AAXX 28124 48019 32450 80000 10215 20175 40151 85770 333 10238 56450 58019
AAXX 28124 48020 32440 80000 10220 20156 85630 333 10242 56550
AAXX 28124 48025 32456 70000 10228 20214 40162 85840 333 10245 56660 58022
AAXX 28124 48035 21510 80000 10168 20168 40155 75050 8597/ 333 10188 56999 58012
AAXX 28124 48037 21430 80000 10200 20200 40160 75155 8572/ 333 10210 56499 58034
AAXX 28124 48042 21456 80000 10200 20200 40165 75055 8592/ 333 10210 56779 58029
AAXX 28124 48045 21/08 90000 10133 20133 76264 333 10148
AAXX 28124 48048 21540 80401 10195 20185 40162 75065 8697/ 333 10210 5619/ 58030
AAXX 28124 48053 21430 83601 10180 20180 40158 75055 8597/ 333 10200 56599 59010
AAXX 28124 48057 21229 81402 10132 20127 75055 8687/ 333 10158 5689/
AAXX 28124 48060 31410 80000 10165 20154 40184 75055 8597/ 333 10170 5656/ 58002
AAXX 28124 48062 21440 80409 10204 20200 40137 75055 8692/ 333 10235 5619/ 58006
AAXX 28124 48071 32456 83601 10238 20209 40135 8692/ 333 10253 5659/ 58002
AAXX 28124 48077 32556 80408 10214 20207 40152 85970 333 10352 56970 58018
AAXX 28124 48078 32540 83604 10233 20181 40141 8357/ 333 10297 56599 58006
AAXX 28124 48080 32556 80000 10275 20203 40117 86870 333 10316 56490 59007
AAXX 28124 48094 32456 10000 10265 20235 40124 81500 333 10300 56900 58001
AAXX 28124 48097 32457 30401 10265 20185 40133 81530 333 10332 56990 59011
AAXX 28124 48108 31596 50501 10280 20203 40125 70522 82405 333 10350 56109 59000
AAXX 28124 48109 32496 30903 10290 20248 40106 81530 333 10320 56890 58006
AAXX 28124 48110 31996 43202 10275 20229 40115 705// 80002 333 10340 56009 59002
AAXX 28124 48112 32598 50405 10280 20220 40104 80006 333 10310 56199 59012
AAXX 28124 91324 32474 81308 10300 20259 30088 40090 83201 333 563/9 58003 83819 88075 555 92812
AAXX 28124 91329 NIL
AAXX 28124 91336 NIL
AAXX 28124 91339 11474 80813 10294 20249 30091 40097 69951 70282 8637/ 333 56299 59007 70005 86918 88362 555 92812
AAXX 28124 91320 32474 80410 10283 20267 30112 40117 83201 333 561/9 59003 83816 85074 555 92812
AAXX 28124 16206 12984 00000 10112 20017 30283 40292 57020 60001
AAXX 28121 06407 12362 72108 10062 20044 30209 40215 58024 60001 84602 333 84709 86070 91112 91209
AAXX 28121 06447 NIL
BBXX BATFR46 28124 99385 10003 44697 63419 10137 20092 40305 58010 703// 8/7// 22212 00162 22002
AAXX 28121 06400 32362 72008 10066 20051 30210 40221 58018 875// 333 82706 85710 87613 91112 91209
AAXX 28121 06428 NIL
AAXX 28121 06451 12365 82006 10054 20033 30164 40232 58031 60001 876// 333 83709 86710 91113 91209
AAXX 28121 06456 31145 82005 10029 20025 39879 40256 58019 71022 876// 333 84702 87704 91112 91209
AAXX 28121 06476 17001 82103 10005 20003 39579 40263 58017 69951 77777 333 88/00 91110 91205
AAXX 28121 06479 35480 /2206 10053 20027 30156 40237 58017 333 88/11 91112 91209
AAXX 28121 06490 15281 71904 10032 20018 39668 40251 58011 60001 333 86/04 87/05 91114 91210
AAXX 28121 06590 11122 82405 10017 20016 39810 40277 57019 60001 71042 876// 333 84702 86703 91107 91205
AAXX 28121 06431 NIL
AAXX 28121 06432 NIL
AAXX 28121 06449 11364 82006 10041 20026 30015 40249 58023 69901 70252 876// 333 87707 91114 91209
AAXX 28121 06450 12362 82206 10056 20032 30214 40230 57026 60001 886// 333 88708 91113 91208
AAXX 28121 06458 NIL
AAXX 28121 06465 NIL
AAXX 28121 06478 12470 82007 10049 20024 30020 40244 58005 60001 866// 333 86710 91113 91209
AAXX 28121 06496 NIL
AAXX 28121 11010 11361 81402 10039 20021 39911 40299 57036 69901 70252 333 82708 87710
AAXX 28121 11012 16/// /1203 10029 20015 39818 40300 58036 69901 333 55300
AAXX 28121 11022 11456 81603 10040 20028 39902 40298 58033 69901 70252 886// 333 55300
AAXX 28121 11035 32468 81505 10053 20034 30046 40304 57028 885// 333 88618
AAXX 28121 11036 31248 81204 10032 20020 30083 40313 57027 71022 333 81705 88711
AAXX 28121 11101 31111 80102 11005 21010 39771 40321 57019 71042 886// 333 55301 88702
AAXX 28121 11120 32975 39901 11001 21024 39579 40311 57036 333 83080
AAXX 28121 11126 16/// /1612 10039 21064 37807 48556 58022 69901 333 55310 91115
AAXX 28121 11130 16/// /2403 11010 21018 39699 40312 58037 60001 333 55300
AAXX 28121 11146 32989 02411 11017 21098 37020 47137 57022 333 55310
AAXX 28121 11150 32980 11603 10042 21019 39739 40291 57040 333 81080
AAXX 28121 11155 12989 12006 10070 21087 38436 48559 58029 60001 80001 333 55310 81078 444 37085
AAXX 28121 11157 31/09 99901 11035 21038 39521 40329 58035 74944 333 89/03
AAXX 28121 11172 NIL
AAXX 28121 11190 12665 81004 10041 20026 30069 40309 58031 69901 885// 333 55300 88635
AAXX 28121 11204 32975 02201 10014 21023 39504 40319 57033 333 55310
AAXX 28121 11212 32989 12003 10040 21033 37922 48583 58017 80001 333 81074 444 36076
AAXX 28121 11231 31103 79901 11027 21027 39738 40338 58032 74844 333 87702
AAXX 28121 11240 32459 89901 10011 20001 39870 40324 57026 333 88715
AAXX 28121 11244 16/// /1401 10014 21002 39987 40328 58026 60001 333 55300
AAXX 28121 11389 12570 82001 10043 20017 39970 40304 58029 60001 885// 333 55300
AAXX 28121 76122 32956 00000 10004 21045 38579 40245 5//// 91150 333 10175 20000 30103 55088 59017 70000
AAXX 28121 76220 32920 00000 11050 21050 38185 40282 5//// 91145 333 10168 21050 31080 59020 70000
AAXX 28121 76225 32920 20000 10040 21071 38655 40192 55000 82040 91135 333 10186 20040 30008 56060 59033 70000 82360
AAXX 28121 76305 32970 23405 10190 21008 30176 40186 5//// 80004 81140 333 10265 20188 30170 56005 59006 70000 82070
AAXX 28121 76323 32550 70000 10030 21045 38313 40282 52012 84042 91140 333 10212 20030 30/// 56055 59028 70000 84450 83268
AAXX 28121 76342 32940 02301 10082 21023 39517 40242 57016 91150 333 10242 20074 30068 59031 70000
AAXX 28121 76373 32910 00000 11006 21126 38234 40186 5//// 91155 333 10230 21025 31037 59012 70000
AAXX 28121 76382 32460 73401 10062 20004 38935 40212 57005 87400 91156 333 10216 20055 30030 56500 59028 70000 87614
AAXX 28121 76390 31850 22402 10078 21099 38247 40224 57009 70544 82050 91130 333 10190 20004 31001 56080 59024 70000 82356
AAXX 28121 76402 32950 00000 10110 20052 30114 40173 57013 91145 333 10292 20100 30094 59017 70000
AAXX 28121 76423 32760 20000 10020 21086 38179 40226 57005 81350 91157 333 10226 20015 30/// 56090 59021 70000 81357
AAXX 28121 76471 32980 00000 10050 21124 37715 40188 5//// 91150 333 10206 20028 30009 55099 59010 70000
AAXX 28121 76525 32960 02308 10107 21016 37489 40146 57004 91150 333 10169 20092 30084 55096 22653 59007 70000
AAXX 28121 76539 32958 02701 10028 20011 38187 40245 57005 91150 333 10240 20014 31011 59002 70000
AAXX 28121 76543 32975 01601 10088 21002 30199 40232 57/// 91145 333 10273 20088 30/// 59021 70000
AAXX 28121 76548 32960 00000 10114 20107 30217 40227 57012 91140 333 10236 20108 30106 59015 70000
AAXX 28121 76556 32960 21602 10139 20087 39128 40146 57009 80001 91130 333 10286 20136 30123 56005 59003 70000 82070
AAXX 28121 76577 32960 52301 10095 20081 38070 40180 51001 80003 91140 333 10251 20089 30079 56005 58001 70000 85080
AAXX 28121 76581 32960 01501 10051 20027 39103 40241 5//// 91150 333 10250 20031 30023 55082 59005 70000
AAXX 28121 76585 31965 00000 10079 20075 30058 40219 56013 71044 91135 333 10240 20078 30068 55074 59010 70000
AAXX 28121 76593 32350 10402 10220 20203 30199 40201 51007 81100 91150 333 10297 20218 30211 568// 58017 70000 81720
AAXX 28121 76612 32958 00000 10102 20082 38499 40200 52002 91155 333 10275 20103 30090 59003 70000
AAXX 28121 76625 32960 01801 10098 20031 38166 40168 57010 91140 333 10263 20092 30068 58006 70000
AAXX 28121 76632 31950 01801 10070 20030 37661 40193 5//// 70500 91140 333 10191 20066 30/// 58002 70000 98550
AAXX 28121 76634 31970 01602 10078 20036 37875 40234 5//// 91150 333 10227 20056 30052 59000 70000
AAXX 28121 76654 31956 00302 10227 20194 30158 40162 52006 70544 91150 333 10302 20225 30208 58016 70000
AAXX 28121 76656 32968 00000 10097 20084 38530 40168 52005 91150 333 10288 20085 30070 59002 70000
AAXX 28121 76662 32960 01201 10104 20059 38492 40182 52002 91145 333 10298 20080 30070 58002 70000
AAXX 28121 76665 31258 32401 10098 20070 38145 40174 52005 70310 83200 91145 333 10270 20089 30075 56100 57811 59003 70000 83805
AAXX 28121 76680 31560 70501 10106 20058 37779 40128 57002 70544 84120 91150 333 10230 20090 30088 56770 58004 70000 83827 84458
AAXX 28121 76683 32960 00000 10052 20017 37857 40229 55002 91145 333 10250 20052 30030 50391 55096 21883 58004 70000
AAXX 28121 76685 32950 00000 10064 20021 37894 40173 57012 91158 333 10250 20062 30048 58004 70000
AAXX 28121 76687 32964 00000 10098 20084 38718 40232 56006 91140 333 10140 20095 30085 58005 70002
AAXX 28121 76692 31520 72401 10194 20159 30202 40221 56005 71044 8555/ 91145 333 10230 20192 30/// 5688/ 59001 70000 85622
AAXX 28121 76695 32956 43402 10200 20194 30183 40189 52001 84030 91150 333 10289 20195 30183 556/0/ 59015 70000 84360
AAXX 28121 76698 32558 33601 10214 20211 30185 40197 5//// 83200 91150 333 10322 20214 30199 56800 58004 70000 83820
AAXX 28121 76737 32980 00000 10113 20094 38814 40220 57004 91135 333 10153 20105 30097 58005 79999 91103 91523
AAXX 28121 76743 31356 82201 10220 20198 30182 40190 53003 70222 885// 91145 333 10227 20220 30211 560// 59003 70106 88609
AAXX 28121 76750 01560 83402 10221 20214 30178 40188 5//// 60051 76162 86770 91150 333 10307 20214 30206 56110 58006 60057 70052 86920 82557
AAXX 28121 76762 32904 00000 10156 20139 38786 40158 53001 91152 333 10321 20156 30148 58013 70000
AAXX 28121 76773 32930 00000 10082 20055 38457 40191 52008 91148 333 10304 20070 30061 50451 55090 58010 70000
AAXX 28121 76775 31960 00301 10103 20070 38566 40222 52003 70011 91145 333 10298 20092 30/// 58014 70000
AAXX 28121 76840 32920 00208 10257 20180 30085 40140 55001 91145 333 10307 20217 30/// 55102 58003 70000
AAXX 28121 76843 32565 23601 10194 20171 39532 40179 57008 82100 91130 333 10262 20190 30182 569// 59002 70000 82830
AAXX 28121 76845 32340 60000 10120 20106 37972 40205 5//// 86600 91150 333 10208 20110 30098 56200 59001 70000 86707
AAXX 28121 76848 32450 80000 10134 20108 38408 40137 55001 886// 91151 333 10229 20129 30113 56199 58002 70000 88711
AAXX 28121 76903 32970 00902 10237 20196 30008 40138 5//// 91140 333 10352 20224 30220 58006 70000
AAXX 28121 76243 32970 01502 10046 20025 39904 40207 57005 91135 333 10202 20026 30020 59041 70000
AAXX 28121 76405 32940 00000 10126 20109 30159 40181 52002 91150 333 10238 20124 30115 59009 70000
AAXX 28121 76412 32960 02201 10082 20062 30133 40181 57001 91140 333 10286 20080 30/// 58004 70000
AAXX 28121 76640 31110 21401 10140 20136 30227 40239 57014 70200 826// 91140 333 10228 20134 30130 569// 59011 70000 82702
AAXX 28121 76741 01130 83209 10206 20205 30158 40177 57004 60011 75052 86770 91135 333 10250 20176 30160 568// 59002 69997 70012 82601
AAXX 28121 76855 32580 03601 10214 20184 30075 40124 5//// 91145 333 10328 20208 30202 55097 56000 58012 70000 92000
AAXX 28124 67341 32575 41209 10297 20224 40085 57017 84300 333 94330
AAXX 28124 89664 11861 30000 11023 21058 39841 49883 52009 69902 74040 82075 333 10008 21038 56022 58041 81758 83268 90960 93197
AAXX 28121 76122 32956 00000 10004 21045 38579 40245 5//// 91150 333 10175 20000 30103 55088 59017 70000
AAXX 28121 76220 32920 00000 11050 21050 38185 40282 5//// 91145 333 10168 21050 31080 59020 70000
AAXX 28121 76225 32920 20000 10040 21071 38655 40192 55000 82040 91135 333 10186 20040 30008 56060 59033 70000 82360
AAXX 28121 76305 32970 23405 10190 21008 30176 40186 5//// 80004 81140 333 10265 20188 30170 56005 59006 70000 82070
AAXX 28121 76323 32550 70000 10030 21045 38313 40282 52012 84042 91140 333 10212 20030 30/// 56055 59028 70000 84450 83268
AAXX 28121 76342 32940 02301 10082 21023 39517 40242 57016 91150 333 10242 20074 30068 59031 70000
AAXX 28121 76373 32910 00000 11006 21126 38234 40186 5//// 91155 333 10230 21025 31037 59012 70000
AAXX 28121 76382 32460 73401 10062 20004 38935 40212 57005 87400 91156 333 10216 20055 30030 56500 59028 70000 87614
AAXX 28121 76390 31850 22402 10078 21099 38247 40224 57009 70544 82050 91130 333 10190 20004 31001 56080 59024 70000 82356
AAXX 28121 76402 32950 00000 10110 20052 30114 40173 57013 91145 333 10292 20100 30094 59017 70000
AAXX 28121 76423 32760 20000 10020 21086 38179 40226 57005 81350 91157 333 10226 20015 30/// 56090 59021 70000 81357
AAXX 28121 76471 32980 00000 10050 21124 37715 40188 5//// 91150 333 10206 20028 30009 55099 59010 70000
AAXX 28121 76525 32960 02308 10107 21016 37489 40146 57004 91150 333 10169 20092 30084 55096 22653 59007 70000
AAXX 28121 76539 32958 02701 10028 20011 38187 40245 57005 91150 333 10240 20014 31011 59002 70000
AAXX 28121 76543 32975 01601 10088 21002 30199 40232 57/// 91145 333 10273 20088 30/// 59021 70000
AAXX 28121 76548 32960 00000 10114 20107 30217 40227 57012 91140 333 10236 20108 30106 59015 70000
AAXX 28121 76556 32960 21602 10139 20087 39128 40146 57009 80001 91130 333 10286 20136 30123 56005 59003 70000 82070
AAXX 28121 76577 32960 52301 10095 20081 38070 40180 51001 80003 91140 333 10251 20089 30079 56005 58001 70000 85080
AAXX 28121 76581 32960 01501 10051 20027 39103 40241 5//// 91150 333 10250 20031 30023 55082 59005 70000
AAXX 28121 76585 31965 00000 10079 20075 30058 40219 56013 71044 91135 333 10240 20078 30068 55074 59010 70000
AAXX 28121 76593 32350 10402 10220 20203 30199 40201 51007 81100 91150 333 10297 20218 30211 568// 58017 70000 81720
AAXX 28121 76612 32958 00000 10102 20082 38499 40200 52002 91155 333 10275 20103 30090 59003 70000
AAXX 28121 76625 32960 01801 10098 20031 38166 40168 57010 91140 333 10263 20092 30068 58006 70000
AAXX 28121 76632 31950 01801 10070 20030 37661 40193 5//// 70500 91140 333 10191 20066 30/// 58002 70000 98550
AAXX 28121 76634 31970 01602 10078 20036 37875 40234 5//// 91150 333 10227 20056 30052 59000 70000
AAXX 28121 76654 31956 00302 10227 20194 30158 40162 52006 70544 91150 333 10302 20225 30208 58016 70000
AAXX 28121 76656 32968 00000 10097 20084 38530 40168 52005 91150 333 10288 20085 30070 59002 70000
AAXX 28121 76662 32960 01201 10104 20059 38492 40182 52002 91145 333 10298 20080 30070 58002 70000
AAXX 28121 76665 31258 32401 10098 20070 38145 40174 52005 70310 83200 91145 333 10270 20089 30075 56100 57811 59003 70000 83805
AAXX 28121 76680 31560 70501 10106 20058 37779 40128 57002 70544 84120 91150 333 10230 20090 30088 56770 58004 70000 83827 84458
AAXX 28121 76683 32960 00000 10052 20017 37857 40229 55002 91145 333 10250 20052 30030 50391 55096 21883 58004 70000
AAXX 28121 76685 32950 00000 10064 20021 37894 40173 57012 91158 333 10250 20062 30048 58004 70000
AAXX 28121 76687 32964 00000 10098 20084 38718 40232 56006 91140 333 10140 20095 30085 58005 70002
AAXX 28121 76692 31520 72401 10194 20159 30202 40221 56005 71044 8555/ 91145 333 10230 20192 30/// 5688/ 59001 70000 85622
AAXX 28121 76695 32956 43402 10200 20194 30183 40189 52001 84030 91150 333 10289 20195 30183 556/0/ 59015 70000 84360
AAXX 28121 76698 32558 33601 10214 20211 30185 40197 5//// 83200 91150 333 10322 20214 30199 56800 58004 70000 83820
AAXX 28121 76737 32980 00000 10113 20094 38814 40220 57004 91135 333 10153 20105 30097 58005 79999 91103 91523
AAXX 28121 76743 31356 82201 10220 20198 30182 40190 53003 70222 885// 91145 333 10227 20220 30211 560// 59003 70106 88609
AAXX 28121 76750 01560 83402 10221 20214 30178 40188 5//// 60051 76162 86770 91150 333 10307 20214 30206 56110 58006 60057 70052 86920 82557
AAXX 28121 76762 32904 00000 10156 20139 38786 40158 53001 91152 333 10321 20156 30148 58013 70000
AAXX 28121 76773 32930 00000 10082 20055 38457 40191 52008 91148 333 10304 20070 30061 50451 55090 58010 70000
AAXX 28121 76775 31960 00301 10103 20070 38566 40222 52003 70011 91145 333 10298 20092 30/// 58014 70000
AAXX 28121 76840 32920 00208 10257 20180 30085 40140 55001 91145 333 10307 20217 30/// 55102 58003 70000
AAXX 28121 76843 32565 23601 10194 20171 39532 40179 57008 82100 91130 333 10262 20190 30182 569// 59002 70000 82830
AAXX 28121 76845 32340 60000 10120 20106 37972 40205 5//// 86600 91150 333 10208 20110 30098 56200 59001 70000 86707
AAXX 28121 76848 32450 80000 10134 20108 38408 40137 55001 886// 91151 333 10229 20129 30113 56199 58002 70000 88711
AAXX 28121 76903 32970 00902 10237 20196 30008 40138 5//// 91140 333 10352 20224 30220 58006 70000
AAXX 28121 76243 32970 01502 10046 20025 39904 40207 57005 91135 333 10202 20026 30020 59041 70000
AAXX 28121 76405 32940 00000 10126 20109 30159 40181 52002 91150 333 10238 20124 30115 59009 70000
AAXX 28121 76412 32960 02201 10082 20062 30133 40181 57001 91140 333 10286 20080 30/// 58004 70000
AAXX 28121 76640 31110 21401 10140 20136 30227 40239 57014 70200 826// 91140 333 10228 20134 30130 569// 59011 70000 82702
AAXX 28121 76741 01130 83209 10206 20205 30158 40177 57004 60011 75052 86770 91135 333 10250 20176 30160 568// 59002 69997 70012 82601
AAXX 28121 76855 32580 03601 10214 20184 30075 40124 5//// 91145 333 10328 20208 30202 55097 56000 58012 70000 92000
AAXX 28121 76122 32956 00000 10004 21045 38579 40245 5//// 91150 33310175 20000 30103 55088 59017 70000
AAXX 28121 76220 32920 00000 11050 21050 38185 40282 5//// 91145 33310168 21050 31080 59020 70000
AAXX 28121 76225 32920 20000 10040 21071 38655 40192 55000 82040 91135333 10186 20040 30008 56060 59033 70000 82360
AAXX 28121 76305 32970 23405 10190 21008 30176 40186 5//// 80004 81140333 10265 20188 30170 56005 59006 70000 82070
AAXX 28121 76323 32550 70000 10030 21045 38313 40282 52012 84042 91140333 10212 20030 30/// 56055 59028 70000 84450 83268
AAXX 28121 76342 32940 02301 10082 21023 39517 40242 57016 91150 33310242 20074 30068 59031 70000
AAXX 28121 76373 32910 00000 11006 21126 38234 40186 5//// 91155 33310230 21025 31037 59012 70000
AAXX 28121 76382 32460 73401 10062 20004 38935 40212 57005 87400 91156333 10216 20055 30030 56500 59028 70000 87614
AAXX 28121 76390 31850 22402 10078 21099 38247 40224 57009 70544 8205091130 333 10190 20004 31001 56080 59024 70000 82356
AAXX 28121 76402 32950 00000 10110 20052 30114 40173 57013 91145 33310292 20100 30094 59017 70000
AAXX 28121 76423 32760 20000 10020 21086 38179 40226 57005 81350 91157333 10226 20015 30/// 56090 59021 70000 81357
AAXX 28121 76471 32980 00000 10050 21124 37715 40188 5//// 91150 33310206 20028 30009 55099 59010 70000
AAXX 28121 76525 32960 02308 10107 21016 37489 40146 57004 91150 33310169 20092 30084 55096 22653 59007 70000
AAXX 28121 76539 32958 02701 10028 20011 38187 40245 57005 91150 33310240 20014 31011 59002 70000
AAXX 28121 76543 32975 01601 10088 21002 30199 40232 57/// 91145 33310273 20088 30/// 59021 70000
AAXX 28121 76548 32960 00000 10114 20107 30217 40227 57012 91140 33310236 20108 30106 59015 70000
AAXX 28121 76556 32960 21602 10139 20087 39128 40146 57009 80001 91130333 10286 20136 30123 56005 59003 70000 82070
AAXX 28121 76577 32960 52301 10095 20081 38070 40180 51001 80003 91140333 10251 20089 30079 56005 58001 70000 85080
AAXX 28121 76581 32960 01501 10051 20027 39103 40241 5//// 91150 33310250 20031 30023 55082 59005 70000
AAXX 28121 76585 31965 00000 10079 20075 30058 40219 56013 71044 91135333 10240 20078 30068 55074 59010 70000
AAXX 28121 76593 32350 10402 10220 20203 30199 40201 51007 81100 91150333 10297 20218 30211 568// 58017 70000 81720
AAXX 28121 76612 32958 00000 10102 20082 38499 40200 52002 91155 33310275 20103 30090 59003 70000
AAXX 28121 76625 32960 01801 10098 20031 38166 40168 57010 91140 33310263 20092 30068 58006 70000
AAXX 28121 76632 31950 01801 10070 20030 37661 40193 5//// 70500 91140333 10191 20066 30/// 58002 70000 98550
AAXX 28121 76634 31970 01602 10078 20036 37875 40234 5//// 91150 33310227 20056 30052 59000 70000
AAXX 28121 76654 31956 00302 10227 20194 30158 40162 52006 70544 91150333 10302 20225 30208 58016 70000
AAXX 28121 76656 32968 00000 10097 20084 38530 40168 52005 91150 33310288 20085 30070 59002 70000
AAXX 28121 76662 32960 01201 10104 20059 38492 40182 52002 91145 33310298 20080 30070 58002 70000
AAXX 28121 76665 31258 32401 10098 20070 38145 40174 52005 70310 8320091145 333 10270 20089 30075 56100 57811 59003 70000 83805
AAXX 28121 76680 31560 70501 10106 20058 37779 40128 57002 70544 8412091150 333 10230 20090 30088 56770 58004 70000 83827 84458
AAXX 28121 76683 32960 00000 10052 20017 37857 40229 55002 91145 33310250 20052 30030 50391 55096 21883 58004 70000
AAXX 28121 76685 32950 00000 10064 20021 37894 40173 57012 91158 33310250 20062 30048 58004 70000
AAXX 28121 76687 32964 00000 10098 20084 38718 40232 56006 91140 33310140 20095 30085 58005 70002
AAXX 28121 76692 31520 72401 10194 20159 30202 40221 56005 71044 8555/91145 333 10230 20192 30/// 5688/ 59001 70000 85622
AAXX 28121 76695 32956 43402 10200 20194 30183 40189 52001 84030 91150333 10289 20195 30183 556/0/ 59015 70000 84360
AAXX 28121 76698 32558 33601 10214 20211 30185 40197 5//// 83200 91150333 10322 20214 30199 56800 58004 70000 83820
AAXX 28121 76737 32980 00000 10113 20094 38814 40220 57004 91135 33310153 20105 30097 58005 79999 91103 91523
AAXX 28121 76743 31356 82201 10220 20198 30182 40190 53003 70222 885//91145 333 10227 20220 30211 560// 59003 70106 88609
AAXX 28121 76750 01560 83402 10221 20214 30178 40188 5//// 60051 7616286770 91150 333 10307 20214 30206 56110 58006 60057 7005286920 82557
AAXX 28121 76762 32904 00000 10156 20139 38786 40158 53001 91152 33310321 20156 30148 58013 70000
AAXX 28121 76773 32930 00000 10082 20055 38457 40191 52008 91148 33310304 20070 30061 50451 55090 58010 70000
AAXX 28121 76775 31960 00301 10103 20070 38566 40222 52003 70011 91145333 10298 20092 30/// 58014 70000
AAXX 28121 76840 32920 00208 10257 20180 30085 40140 55001 91145 33310307 20217 30/// 55102 58003 70000
AAXX 28121 76843 32565 23601 10194 20171 39532 40179 57008 82100 91130333 10262 20190 30182 569// 59002 70000 82830
AAXX 28121 76845 32340 60000 10120 20106 37972 40205 5//// 86600 91150333 10208 20110 30098 56200 59001 70000 86707
AAXX 28121 76848 32450 80000 10134 20108 38408 40137 55001 886// 91151333 10229 20129 30113 56199 58002 70000 88711
AAXX 28121 76903 32970 00902 10237 20196 30008 40138 5//// 91140 33310352 20224 30220 58006 70000
AAXX 28121 76243 32970 01502 10046 20025 39904 40207 57005 91135 33310202 20026 30020 59041 70000
AAXX 28121 76405 32940 00000 10126 20109 30159 40181 52002 91150 33310238 20124 30115 59009 70000
AAXX 28121 76412 32960 02201 10082 20062 30133 40181 57001 91140 33310286 20080 30/// 58004 70000
AAXX 28121 76640 31110 21401 10140 20136 30227 40239 57014 70200 826//91140 333 10228 20134 30130 569// 59011 70000 82702
AAXX 28121 76741 01130 83209 10206 20205 30158 40177 57004 60011 7505286770 91135 333 10250 20176 30160 568// 59002 69997 7001282601
AAXX 28121 76855 32580 03601 10214 20184 30075 40124 5//// 91145 33310328 20208 30202 55097 56000 58012 70000 92000
BBXX UFTA 28121 99844 71242 42997 22201 11356 21390 40155 57008 80001 333 11342
AAXX 28121 01447 16/// /1203 10011 20005 39343 40011 58068 60021 333 91107
AAXX 28121 15015 01596 72900 10020 20010 39712 42896 58019 60001 71042 87500 333 42998 60007 91001 91102
AAXX 28121 15020 01597 83102 10071 20051 30111 40313 58018 69921 70262 8557/ 333 69917 91004 91105
AAXX 28121 15090 02597 63102 10078 20048 30219 40313 57017 60001 83570 333 55300 00318 20462 30441 60007 91004 91105
AAXX 28121 15108 NIL
AAXX 28121 15120 01595 80702 10019 20019 39824 40338 57019 69921 71074 8557/ 333 55300 00153 20299 30297 60007 91004 91104
AAXX 28121 15150 02597 61701 10046 20010 30104 40323 57015 60001 84570 333 60007 91001 91101
AAXX 28121 15170 02597 83301 11008 21022 39529 42899 57019 60001 885// 333 4//// 60007 91001 91102
AAXX 28121 15200 01493 82101 10030 20030 30187 40337 58019 69911 74454 886// 333 69917 91001 91102
AAXX 28121 15230 02597 41302 10044 21008 30035 40337 58024 60001 82160 333 55310 00554 21262 30474 60007 91003 91105
AAXX 28121 15260 02497 81002 10020 21011 39785 40339 57024 60001 8557/ 333 41998 60007 91004 91105 95080
AAXX 28121 15280 01/93 52704 11017 21039 37568 47118 57006 60001 74141 85500 333 49037 60007
AAXX 28121 15292 01595 82101 11001 21001 30037 40345 57017 60001 71042 885// 333 60007 91001 91101 95090
AAXX 28121 15310 01596 82503 10026 20010 30232 40321 57015 60001 71011 8457/ 333 55300 00291 20372 30340 60007 91004 91104
AAXX 28121 15335 01596 73003 10052 20017 30307 40314 57015 60001 71022 87500 333 60007 91004 91105
AAXX 28121 15346 02597 21001 10100 20022 30031 40323 57018 60001 82100 333 60007 91002 91103 95090
AAXX 28121 15350 02597 62203 10082 20020 30201 40323 57019 60001 86500 333 60007 91004 91104
AAXX 28121 15360 02997 83105 10046 20020 30287 40301 56015 60001 8807/ 222// 06044 20301 333 60007 91005 91107 92427
AAXX 28121 15410 02997 00601 10072 21007 30232 40329 58020 60001 333 60007 91002 91102
AAXX 28121 15420 02997 72201 10059 20006 30214 40329 56018 60001 87070 333 55302 0//// 20701 3//// 60007 91002 91103
AAXX 28121 15450 01996 33002 10024 21006 30087 40332 58012 60001 71011 83040 333 55310 00679 21275 31261 60007 91003 91103
AAXX 28121 15460 02997 82703 10039 20011 30303 40328 57014 60001 8807/ 333 60007 91004 91105
AAXX 28121 15470 02997 12503 10025 20006 30201 40332 57018 60001 80002 333 60007 91004 91105
AAXX 28121 15480 02997 73003 10039 20022 30302 40319 56014 60001 87070 222// 06065 2//// 333 60007 91006 91106 92427
AAXX 28124 68383 36/// /0000 10252 20198 39881 48549 53001 333 10288 20223 91000 555 91012
AAXX 28124 68379 36/// /0906 10309 20210 39781 48552 57008 333 10327 20221 91010 555 91010
AAXX 28124 68398 36/// /3608 10242 20211 39345 48502 58002 333 10282 20199 91013 555 91012
AAXX 28124 68299 16/// /2014 10145 20133 38915 48502 58001 60061 333 10208 20129 91025 555 20068 60685 91017
AAXX 28124 48300 31558 43602 10225 20175 39836 40151 52019 71011 82535 333 10262 58006
AAXX 28124 48327 32560 12806 10247 20144 39791 40148 52011 81500 333 10281 59014
AAXX 28124 48331 32960 10000 10242 20183 39908 40140 52006 80001 333 10298 59025
AAXX 28124 48353 32662 10203 10255 20170 39850 40139 52014 81100 333 10299 59025
AAXX 28124 48356 32960 00903 10246 20165 39954 40152 52018 333 10296 59016
AAXX 28124 48375 31958 00000 10255 20166 39896 40122 52018 70500 333 10310 59005
AAXX 28124 48378 31956 20000 10250 20187 30080 40133 51006 71000 80005 333 10296 59025
AAXX 28124 48381 32960 20102 10260 20176 39922 40139 51012 80005 333 10301 59016
AAXX 28124 48407 31959 40203 10265 20178 39989 40131 52011 70511 80001 333 10317 59016
AAXX 28124 48431 32960 10000 10269 20191 39919 40131 52014 80001 333 10304 59021
AAXX 28124 48456 NIL
AAXX 28124 48480 31957 10000 10287 20205 30113 40117 52020 70500 80001 333 10337 59007
AAXX 28124 48500 31940 40000 10262 20209 30115 40122 52013 71011 80006 333 10310 59011
AAXX 28124 48551 31556 20303 10265 20236 30104 40112 52015 71000 81105 333 10293 59019
AAXX 28124 48565 31457 70000 10285 20237 30088 40098 52014 71022 82246 333 10321 59012
AAXX 28124 48569 32560 60000 10268 20216 30078 40118 52015 82246 333 10307 59009
AAXX 28124 48583 32560 80000 10265 20240 30113 40119 52013 82207 333 10297 59006 70025
AAXX 28124 91930 36/// ///// 10264 20218 333 10316
AAXX 28124 91943 36/// /0612 10263 20211 30124 40126 56009 333 58003
AAXX 28121 89061 379// 02703 10015 20001 39734 49741 54000 72144 333 10044 20007 91005 91105
AAXX 28124 03008 16/// /1829 10062 20021 39752 49821 58059 60011 91150 333 90710 91144 91040
AAXX 28124 03010 46/// /2030 10085 20081 49755 58080 333 90710 91143
AAXX 28124 03014 46/// /2024 10036 20005 49826 58051 91150 333 8//// 90710 91135
AAXX 28124 03031 17529 /2529 10061 20038 39504 49822 56045 60151 762// 91150 333 553// 20043 87/23 90710 91145 91045
AAXX 28124 03034 17456 /2432 10088 20065 39799 49812 56028 60051 757// 91150 333 84/18 84/28 90710 91151 91051
AAXX 28124 03037 17419 /2527 10075 20065 39838 49860 56008 60091 762// 91150 333 81/19 87/28 90710 91148 91044
AAXX 28124 03039 46/// /2655 10025 21006 91150 333 90710 91179 91074
AAXX 28124 03041 46/// /2548 11008 21008 91150 333 90710 91184 91084
AAXX 28124 03044 17556 /2119 10063 20049 39690 49786 57056 60051 762// 91150 333 553// 20061 81/26 87/31 90710 91135 91033
AAXX 28124 03047 17570 /2120 10061 20027 39608 49905 56025 60121 761// 91150 333 553// 20073 83/28 85/50 90710 91150 91035
AAXX 28124 03062 17558 /2124 10072 20039 39816 49821 58043 60011 761// 91150 333 553// 20329 81/27 87/47 90710 91133
AAXX 28124 03065 46/// /2487 1//// 2//// 91150 333 90710 91199 91099 00107
AAXX 28124 03068 11580 62325 10075 20027 39829 49837 57051 69901 72581 82832 91150 333 81824 85075 90710 91145 91036
AAXX 28124 03080 17465 /2225 10059 20026 39715 49882 56051 69961 781// 91150 333 81/14 83/17 90710 91142 91037
AAXX 28124 03088 17481 /2342 10055 20033 39736 49897 57062 69901 723// 91150 333 553// 20391 85/16 90710 91158 91052
AAXX 28124 03094 15985 /2028 10072 20010 39843 49848 58069 60001 91150 333 8//99 90710 91140 91039
AAXX 28124 03105 17546 /2640 10082 20039 39998 40015 52016 60021 704// 91150 333 84/29 85/50 90710 91162 91062
AAXX 28124 03132 15568 /2432 10069 20037 30050 40064 50001 60001 91150 333 81/23 84/39 90710 91147
AAXX 28124 03144 17519 /2221 10062 20041 39900 49943 57025 60041 762// 91150 333 553// 20146 84/23 85/50 90710 91142 91037
AAXX 28124 03148 46/// /2545 10026 20018 91150 333 90710 91172 91065
AAXX 28124 03153 17564 /2436 10063 20028 39915 40053 58013 69901 781// 91150 333 553// 20422 84/21 90710 91154 91054
AAXX 28124 03155 16420 /2333 10039 20019 39704 40002 57020 60021 91150 333 85/15 83/21 90710 91154 91054
AAXX 28124 03158 17581 /2232 10058 20029 39861 49997 56028 69901 781// 91150 333 553// 20376 82/23 86/39 90710 91145 91045
AAXX 28124 03210 16566 /2429 10068 20028 39938 40089 57002 60001 91150 333 87/23 90710 91142 91039
AAXX 28124 03212 15571 /2516 10070 20020 39989 40088 58006 60001 91150 333 85/28 85/35 90710 91137 91029
AAXX 28124 03214 15664 /2429 10075 20035 30090 40109 50000 60001 91150 333 87/30 90710 91140 91039
AAXX 28124 03220 16575 ///// 10073 20033 30027 40061 58009 60001 91150 333 83/28 87/32
AAXX 28124 03225 16564 /2421 10052 20017 39783 40090 58007 69981 91150 333 553// 20137 87/23 90710 91145 91040
AAXX 28124 03226 17570 /2518 10052 20024 39812 40089 57002 69901 781// 91150 333 84/23 85/31 90710 91134 91028
AAXX 28124 03227 46/// /2452 11008 2//// 91150 333 90710 91163 91063
AAXX 28124 03230 16563 /2426 10050 20024 39777 40034 58023 60011 91150 333 84/22 85/30 90710 91140 91040
AAXX 28124 03238 15681 /2522 10063 20015 39865 40038 58023 69901 91150 333 86/33 85/46 90710 91138 91035
AAXX 28124 03261 16672 /2422 10073 20019 30066 40107 58006 69981 91150 333 81/44 90710 91140 91033
AAXX 28124 03265 17568 /2523 10077 20023 30075 40106 58005 69921 723// 91150 333 81/27 90710 91137 91034
AAXX 28124 03266 16679 /2426 10078 20011 30089 40106 58010 69941 91150 333 84/49 90710 91138
AAXX 28124 03275 15970 /2332 10063 20010 39881 40073 58014 69941 91150 333 8//99 90710 91147 91047
AAXX 28124 03281 16/// /2424 10054 20018 69981 91150 333 90710 91139
AAXX 28124 03903 16662 /2718 10077 20031 30057 40115 53022 60021 91150 333 553// 20277 81/30 86/42 90710 91135 91031
AAXX 28124 03904 17660 /2621 10072 20025 30036 40096 53025 60021 704// 91150 333 82/36 84/42 86/50 90710 91141 91037
AAXX 28124 03907 17659 /2736 10077 20032 30051 40058 51024 60021 723// 91150 333 55300 20145 85/33 83/50 90710 91150 91049
AAXX 28124 03911 16573 /2724 10063 20022 39807 40080 52018 60011 91150 333 81/27 86/36 86/46 90710 91139 91038
AAXX 28124 03915 16564 /2720 10062 20047 39992 40071 53015 60011 91150 333 86/23 84/50 90710 91133 91033
AAXX 28124 03916 16575 /3013 10053 20028 39856 40046 51022 60021 91150 333 553// 20141 83/20 85/60 90710 91139 91029
AAXX 28124 03923 17580 /2717 10049 20016 39913 40110 52024 69981 761// 91150 333 84/20 90710 91137 91037
AAXX 28124 70026 NIL
AAXX 28124 70133 NIL
AAXX 28124 70174 NIL
AAXX 28124 70200 NIL
AAXX 28124 70219 NIL
AAXX 28124 70231 NIL
AAXX 28124 70261 NIL
AAXX 28124 70267 NIL
AAXX 28124 70271 NIL
AAXX 28124 70273 NIL
AAXX 28124 70308 NIL
AAXX 28124 70316 NIL
AAXX 28124 70326 NIL
AAXX 28124 70340 NIL
AAXX 28124 70350 NIL
AAXX 28124 70361 NIL
AAXX 28124 70381 NIL
AAXX 28124 70398 NIL
AAXX 28124 70414 NIL
AAXX 28124 03301 16672 /2424 10074 20038 30085 40159 51008 60001 91150 333 82/33 90710 91135
AAXX 28124 03305 15582 /2327 10056 20009 39895 40160 50007 69921 91150 333 87/25 90710 91152 91038
AAXX 28124 03313 16680 /2518 10075 20010 30055 40150 50004 60001 91150 333 81/32 90710 91135 91030
AAXX 28124 03316 15961 /2533 10080 20034 30130 40141 50006 69901 91150 333 8//99 90710 91143
AAXX 28124 03318 16/// /2529 10076 20033 60001 91150 333 90710 91140 91039
AAXX 28124 03321 16977 /2620 10080 20021 30137 40150 50005 69941 91150 333 553// 20672 8//99 90710 91132
AAXX 28124 03330 15573 /2618 10059 21001 39789 40153 50001 69901 91150 333 86/27 90710 91131 91031
AAXX 28124 03344 15574 /2422 10055 20005 39800 40119 58004 69901 91150 333 88/28 90710 91136 91035
AAXX 28124 03346 16/// /2521 10059 20014 60011 91150 333 90710 91136 91033
AAXX 28124 03348 15680 /2516 10077 20023 30039 40146 50005 60011 91150 333 55310 20697 81/37 90710 91129
AAXX 28124 03355 15680 /2624 10084 20015 30109 40120 58001 69901 91150 333 55305 20549 86/41 90710 91134 91034
AAXX 28124 03373 16670 /2319 10074 20032 30067 40137 58002 60001 91150 333 81/34 90710 91130
AAXX 28124 03379 16982 /2423 10079 20034 30074 40152 50003 69921 91150 333 8//99 90710 91130
AAXX 28124 03382 15681 /2417 10081 20024 30108 40117 58005 69961 91150 333 55304 20318 81/41 90710 91125
AAXX 28124 03385 46973 /2416 10086 20036 30122 40132 50000 91150 333 8//99 90710 91128 91026
AAXX 28124 03391 11981 72519 10087 20028 30139 40146 50000 69901 70262 84072 91150 333 84359 86072 90710 91129
AAXX 28124 03392 16980 /2518 10085 20040 30144 40148 50002 60001 91150 333 8//99 90710 91127
AAXX 28124 03405 16573 /2532 10072 20034 30060 40177 50012 60001 91150 333 553// 20693 83/24 90710 91145
AAXX 28124 03409 16/// /2517 10063 20017 60001 91150 333 55300 2//// 90710 91131
AAXX 28124 03410 16576 /2521 10048 20009 39729 40169 50007 69961 91150 333 553// 20354 85/29 85/37 90710 91135 91032
AAXX 28124 03469 15983 /2618 10092 20036 30152 40156 50001 69901 91150 333 553// 20467 8//99 90710 91129 91029
AAXX 28124 03488 15580 /2318 10095 20058 30127 40153 58002 69941 91150 333 81/25 90710 91130
AAXX 28124 03503 15566 /2713 10077 20025 30117 40195 51012 60021 91150 333 81/26 90710 91127 91027
AAXX 28124 03507 15574 /2511 10055 20028 39825 40202 50011 69981 91150 333 85/25 84/33 91022
AAXX 28124 03520 16677 /2716 10078 20014 30067 40189 51012 69921 91150 333 553// 20459 84/35 90710 91127 91027
AAXX 28124 03522 15677 /2613 10076 20023 30104 40198 51014 69901 91150 333 82/31 83/64 90710 91129
AAXX 28124 03529 15681 /2713 10087 20025 30148 40191 51009 69901 91150 333 82/36 90710 91126
AAXX 28124 03544 15677 /2415 10082 20032 30043 40174 50003 69901 91150 333 553// 20525 81/34 90710 91126 91026
AAXX 28124 03560 15581 /2512 10093 20053 30069 40173 50001 69901 91150 333 553// 20347 81/24
AAXX 28124 03604 16676 /2918 10081 20020 30158 40212 51016 69921 91150 333 81/33 90710 91134 91028
AAXX 28124 03605 16671 /2825 10087 20029 30206 40214 51016 69921 91150 333 81/37 90710 91133
AAXX 28124 03609 16/// /2615 10086 20032 30164 40217 51013 60011 91150 333 90710 91128
AAXX 28124 03628 17978 /2515 10077 20049 30131 40204 51010 69941 723// 91150 333 55300 20393 82/58 90710 91127
AAXX 28124 03647 16467 /2615 10078 20036 39931 40187 50006 60001 91150 333 553// 20501 82/16
AAXX 28124 03658 16578 /2512 10094 20054 30125 40195 51004 60001 91150 333 84/20 83/28 85/61
AAXX 28124 03660 15472 /2808 10084 20058 39942 40190 50001 69901 91150 333 84/15 85/23 91018
AAXX 28124 03672 11582 82614 10105 20052 30152 40193 58001 69901 70365 8387/ 91150 333 83827 87460
AAXX 28124 03684 15580 /2418 10099 20059 30071 40177 58005 69901 91150 333 81/23 87/32 90710 91127
AAXX 28124 03693 16680 /2411 10110 20065 30186 40189 58006 60001 91150 333 86/32
AAXX 28124 03707 17771 /2919 10089 20030 30217 40225 51014 60021 723// 91150 333 83/50 90710 91131
AAXX 28124 03710 16672 /2714 10056 20043 39793 40220 51009 60021 91150 333 553// 20405 86/48 90710 91125
AAXX 28124 03743 16582 /2611 10082 20033 30044 40207 51005 60001 91150 333 81/22 91021
AAXX 28124 03749 16574 /2611 10090 20064 30096 40207 50003 60001 91150 333 84/21 84/61
AAXX 28124 03761 15576 /2417 10091 20053 30056 40200 50000 69921 91150 333 55300 20390 81/23 86/56
AAXX 28124 03768 16576 /2511 10097 20057 30120 40200 58002 60001 91150 333 83/23 85/56
AAXX 28124 03769 15574 /2409 10104 20065 30119 40201 58002 69921 91150 333 55300 20252 86/27 83/56
AAXX 28124 03770 16/// ///// 10110 20061 60001 91150
AAXX 28124 03781 15573 /2414 10094 20059 39990 40198 58002 69941 91150 333 553// 20427 83/24 83/57
AAXX 28124 03797 15566 /2313 10111 20078 30137 40197 58010 69921 91150 333 55310 20848 83/21
AAXX 28124 03823 17571 /2920 10050 20029 39994 40242 51015 60051 782// 91150 333 553// 20335 84/22 84/50 90710 91133 91033
AAXX 28124 03839 16/// ///// 10076 20053 60021 91150 333 553// 20357
AAXX 28124 03857 17868 /3027 10100 20058 30153 40217 58002 60011 723// 91150 333 85/57 90710 91133
AAXX 28124 03862 17972 /2710 10090 20073 30202 40214 50001 69981 723// 91150 333 55300 20170 87/58
AAXX 28124 03866 16/// /2623 10091 20077 30186 40210 58006 60011 91150 333 90710 91132
AAXX 28124 03872 17450 /2716 10092 20074 30205 40210 58002 69961 782// 91150 333 553// 20298 81/15 85/34
AAXX 28124 03876 16/// /2514 10105 20082 30207 40210 58006 69921 91150
AAXX 28124 03895 41470 72618 10114 20081 40250 58004 71552 84832 333 83818 83360 87075 90710 91129
AAXX 28124 68024 42660 63005 10330 20175 48485 57021 84902
AAXX 28124 68026 42660 53203 10299 20199 48496 57024 84381
AAXX 28124 68029 42560 33506 10306 20192 48500 57022 83373
AAXX 28124 68030 42660 51810 10309 20200 48493 57025 83202
AAXX 28124 68032 42660 60506 10284 20219 48492 57020 86980
AAXX 28124 68038 42560 62705 10305 20224 48492 57021 84281
AAXX 28124 68040 42660 63210 10305 20201 48493 57025 86800
AAXX 28124 68054 42560 72710 10259 20201 48508 57018 79592 87900
AAXX 28124 68070 42560 71806 10228 20216 48489 58008 79596 84980
AAXX 28124 68148 41560 82704 10275 20210 48497 57021 71792 889//
AAXX 28124 68226 42660 63205 10301 20195 48498 57017 86901
AAXX 28124 68234 41560 70000 10216 20192 48493 57019 86880
AAXX 28124 68240 42560 62606 10277 20190 48500 58017 84984
AAXX 28124 68320 42660 33204 10295 20190 48507 55006 82102
AAXX 28124 68325 42560 61805 10278 20187 48497 57016 84882
AAXX 28124 48310 31957 00000 10198 20175 39696 40159 52010 71000 333 10262 59007
AAXX 28124 48325 31958 30000 10241 20198 39886 40130 52019 71011 81055 333 10309 59011
AAXX 28124 48329 31940 00000 10240 20161 39799 40140 52008 70500 333 10275 59008
AAXX 28124 48352 31958 01002 10254 20185 39939 40140 52006 71000 333 10305 59027
AAXX 28124 48357 32962 20904 10237 20169 39988 40158 52019 80001 333 10302 59014
AAXX 28124 48380 NIL
AAXX 28124 48383 31959 00501 10243 20174 39982 40143 52018 71000 333 10300 59021
AAXX 28124 48403 32960 00000 10263 20183 39922 40133 52014 333 10307 59020
AAXX 28124 48405 32960 20505 10255 20188 39969 40132 52012 80005 333 10297 59014
AAXX 28124 48420 31930 20000 10271 20212 30115 40119 52011 71000 80005 333 10317 59019
AAXX 28124 48421 31950 00000 10257 20208 30012 40126 52047 71000 333 10330 59010
AAXX 28124 48425 NIL
AAXX 28124 48426 31958 13102 10272 20203 30108 40121 53013 71000 80001 333 10328 59023
AAXX 28124 48429 32960 23506 10278 20173 30111 40118 52008 80005 333 10319 59025
AAXX 28124 48430 31959 20000 10288 20172 30112 40119 52012 70500 80002 333 10336 59018
AAXX 28124 48450 31956 00000 10266 20190 30093 40126 52013 70500 333 10314 59020
AAXX 28124 48459 31958 00000 10299 20214 30114 40116 52016 70500 333 10341 59024
AAXX 28124 48465 31958 20103 10270 20194 30117 40121 52009 70500 80005 333 10312 59016
AAXX 28124 48550 31558 50603 10277 20241 30110 40117 52013 71021 81146 333 10293 59008
AAXX 28124 48552 31458 50000 10264 20241 30110 40117 52013 71011 82206 333 10294 59009
AAXX 28124 48566 32560 50808 10285 20218 30098 40106 52014 82145 333 10322 59017
AAXX 28124 48568 01458 80502 10268 20236 30107 40114 52012 69932 76062 83977 333 10297 59013 69937 70003
AAXX 28124 48302 31550 61203 10125 20110 38498 40157 52014 71022 81836 333 10145 59003
AAXX 28124 48304 31556 80000 10210 20155 39696 40163 52013 71022 83576 333 10244 59005
AAXX 28124 48334 31958 20000 10230 20173 39776 40140 52008 71000 80005 333 10282 59014
AAXX 28124 48360 NIL
AAXX 28124 48372 31956 20000 10248 20199 30074 40132 52007 71000 80001 333 10302 59021
AAXX 28124 48373 31950 20000 10250 20187 30067 40130 52008 71000 80001 333 10303 59023
AAXX 28124 48386 31940 00000 10241 20186 30085 40129 50007 71000 333 10296 59028
AAXX 28124 48387 31956 01006 10190 20128 39189 40156 52013 71010 333 10230 59010
AAXX 28124 48408 NIL
AAXX 28124 48415 31558 73308 10280 20208 30113 40124 52014 71021 81556 333 10327 59016
AAXX 28124 48433 31958 20000 10257 20200 39968 40134 52013 71000 80005 333 10314 59016
AAXX 28124 48437 31958 20000 10235 20196 39925 40137 52009 71000 80001 333 10305 59015
AAXX 28124 48440 31958 00000 10272 20209 30070 40120 52014 71000 333 10324 59022
AAXX 28124 48451 32962 00000 10249 20209 30118 40130 52012 333 10293 59020
AAXX 28124 48454 32960 30000 10282 20196 30107 40114 51007 80005 333 10312 59013
AAXX 28124 48457 31940 63112 10272 20210 30099 40116 53007 71022 80006 333 10286 59019
AAXX 28124 48463 31957 33603 10270 20214 30030 40124 52013 71010 80005 333 10327 59015
AAXX 28124 48464 31957 00000 10261 20201 30101 40113 52010 71000 333 10304 59018
AAXX 28124 48479 31958 50000 10285 20210 30064 40116 52009 70511 80006 333 10336 59019
AAXX 28124 48520 31957 40000 10254 20218 30102 40117 50010 71011 80005 333 10292 59013
AAXX 28124 48554 31458 60000 10265 20252 30111 40115 52014 71022 81346 333 10291 59010
AAXX 28124 48563 01560 51304 10274 20227 30067 40103 52016 69962 70262 82246 333 10311 59013 69967 70006
AAXX 28124 48571 NIL
AAXX 28124 78526 NIL
AAXX 28124 78543 NIL
AAXX 28124 78255 11559 01701 10175 20164 30043 40192 54000 60004 71044 333 20169
AAXX 28124 78317 NIL
AAXX 28124 78318 NIL
AAXX 28124 78325 NIL
AAXX 28124 78333 NIL
AAXX 28124 78338 NIL
AAXX 28124 78348 NIL
AAXX 28124 78349 NIL
AAXX 28124 78353 NIL
AAXX 28124 78360 NIL
AAXX 28124 78367 NIL
AAXX 28124 78369 NIL
BBXX 44039 28121 99411 70727 46/// /2511 10083 20040 49966 91200 22200 00087 10503 70013 333 91214
BBXX 44060 28121 99413 70721 46/// ///12 10081 49948 53009 91200 22200 00098 333 91214 555 11134 22139
BBXX 44008 28121 99405 70692 46/// /2608 10119 20101 49952 52012 91150 22200 00106 11112 20805 318// 41110 70058 333 91211 555 11091 22100 31146 42611 61149 257084 255077 255072 253070 247070 245066
BBXX 44022 28121 99409 70737 46/// ///07 10070 20015 49973 53017 91200 22200 00084 333 91209 555 11077 22077
AAXX 28121 26554 42965 22703 10028 21020 30058 40223 51005 80001 555 11001
AAXX 28121 26666 42960 02704 10024 21063 39993 40212 52009 333 91112 555 14000
AAXX 28121 26850 42460 53002 10017 21014 39976 40255 58002 83501 333 83715 555 11000
AAXX 28121 26863 NIL
AAXX 28121 26941 42460 62902 10024 21009 30034 40277 58011 84101 555 12002
AAXX 28121 26951 42568 42905 10024 21009 30065 40269 58007 82501 333 91111 555 11002
AAXX 28121 33008 42360 52603 10016 21004 30112 40296 58017 85500 333 86708 555 11004
AAXX 28121 33019 41459 82402 10018 21001 30111 40291 58010 71011 886// 333 86711 555 12003
AAXX 28121 33036 42570 33303 10033 21024 30037 40273 54000 83500 555 11003
AAXX 28121 33041 42664 22804 10040 21036 30088 40246 52003 82500 333 91110 555 11004
BBXX A8CH2 28124 99373 70333 41598 51917 10210 20164 40310 5/005 70222 85455 22254 04170 20404 315// 40504 80180
BBXX C6KD6 28124 99411 70279 41296 81218 10142 20135 40371 52038 71055 886// 22214 02156 20905 335// 41304 80138
BBXX 41041 28121 99142 70460 46/// /0908 10267 20210 40190 51015 91150 22200 00263 10804 20603 3//// 40802 70019 333 91210 555 11085 22090 31109 40810 61149 087080 089083 087076 085077 081082 080082 80909 91132
BBXX 41038 28121 99341 70777 46/// /2709 10099 40130 53041 91200 22200 00136 333 91211
BBXX 46083 28121 99582 71380 46/// /1112 10042 21027 49784 56031 91150 22200 00065 11006 20604 300// 41004 70031 333 91216 555 11132 22141 31143 41016 61149 109121 109125 105124 104127 104120 107124 81114 91143
BBXX 46001 28121 99563 71480 46/// /3109 11012 49848 54000 91150 22200 00045 11104 20503 300// 41102 70018 333 91211 555 11093 22097 31050 43012 61149 304088 310082 306089 308087 313080 317086
BBXX MFLM9 28123 99201 31185 41397 22619 10300 20273 40042 54000 70200 81144 22200 00291 20403 327// 40504 5//// 80280
BBXX DCQR2 28123 99267 31532 41498 81318 10240 20183 40082 51010 70222 8477/ 22200 04240 20302 3//// 4//// 5//// 80204
BBXX A8KC6 28124 99283 31775 41597 40723 10230 20183 40090 52010 70322 824// 22214 04250 20506 307// 40506 5//// 80200 46379 173828122 011
BBXX PCDE 28123 99237 31517 41/98 71313 10252 20212 40085 52020 7//22 8//// 22233 20501 316// 40702 80224
BBXX MIBR 28124 99029 30877 41/98 73121 10280 20244 40073 57010 72586 82272 22254 00282 20403 32032 40607 50405 80255
BBXX WZP8164 28124 99451 70868 41/98 73625 11077 2//// 40163 54000 70222 8//// 22213 0//// 20402 3//// 4//// 5//// 6//// 8//// ICE /////
BBXX WE4805 28124 99475 70873 41/98 80208 11111 2//// 40166 56000 77107 8//// 22233 00039 2//// 3//// 4//// 5//// 6//// 8//// ICE /////
BBXX NWS0029 28124 99415 70707 43/// /2516 10088 20044 49935 5//// 7//// 8//// 222// 04075 2//// 3//// 4//// 5//// 6//// 8//// ICE /////
BBXX KAOU 28124 99005 10832 43/// /0093 10283 20230 40078 5//// 7//// 8//// 222// 04286 2//// 3//// 4//// 5//// 6//// 8//// ICE /////
BBXX 3ETA8 28124 99197 70870 41398 73518 10240 2021/ 40180 5//// 7//// 87/5/ 22254 00270 20304 3//// 4//// 5//// 6//// 80220 ICE /////
BBXX NWS0020 28124 99277 70640 43/// /1612 10206 20143 40200 5//// 7//// 8//// 222// 04232 2//// 3//// 4//// 5//// 6//// 8//// ICE /////
BBXX C6VG8 28124 99262 70785 41/// /3324 10190 2//// 40170 5//// 7//// 8//// 22255 0//// 2//// 3//// 4//// 5//// 6//// 8//// ICE /////
BBXX C6XC2 28124 99187 11267 41897 60738 10240 20211 40140 52/// 7//22 86298 22284 00270 20306 305// 40206 5//// 6//// 80220 ICE /////
BBXX ZCDG7 28124 99260 71386 41598 40622 10190 20138 40273 54000 70211 83480 22224 00220 20305 308// 40404 5//// 80160
BBXX NWS0003 28124 99539 71665 43/// /0000 11040 21062 49975 5//// 7//// 8//// 222// 0//// 2//// 3//// 4//// 5//// 6//// 8//// ICE /////
BBXX V7NV4 28124 99314 11571 41798 73328 10150 20116 40195 51010 70222 87462 22263 00230 20208 33030 40208 50206 6//// 80130 ICE /////
BBXX WZZF 28124 99076 31545 41397 83517 10250 20250 40085 52010 72562 886// 22244 00330 20403 336// 40704 5//// 6//// 80250 ICE /////
BBXX C6FN2 28124 99214 70858 41697 60119 10230 20201 40180 51010 7//// 8/272 22284 02270 20303 3//// 40303 50303 6//// 85210 ICE /////
BBXX WYQ4356 28124 99474 70873 41/97 80212 11120 40153 78672 22273 00040 20303
BBXX VRCP9 28124 99420 70437 41397 61323 10180 20148 40120 57030 70322 85282 22263 00160 2//// 3//// 4//// 5//// 6//// 80160 ICE /////
BBXX PCHM 28124 99406 31766 41298 30223 10175 20167 40132 55012 70222 82140 22214 00160 20202 309// 40202 80170
BBXX WKAB 28123 99218 10597 41398 30910 10245 20194 40149 57026 7//00 836// 22214 00243 21001 305// 41002 5//// 6//// 80210 ICE /////
AAXX 28124 91165 NIL
AAXX 28124 91182 NIL
AAXX 28124 91190 NIL
AAXX 28124 91212 NIL
AAXX 28124 91217 NIL
AAXX 28124 91285 NIL
AAXX 28124 91317 NIL
AAXX 28124 91334 11474 80612 10280 20250 30095 40098 51008 60061 70282 82271 333 10339 56199 59003 70061 555 92812
AAXX 28124 91348 11474 50705 10277 20232 30058 40110 52007 60031 70288 83101 333 10322 561/9 58003 70137 555 92812
AAXX 28124 91356 32566 20610 10283 20238 30086 40103 51000 82201 333 10311 562/9 58010 58010 70023 82820 555 92812
AAXX 28124 91366 NIL
AAXX 28124 91369 NIL
AAXX 28124 91371 NIL
AAXX 28124 91376 32474 40612 10277 20233 30090 40093 50002 82101 333 10302 561/9 59004 70008 555 92812
AAXX 28124 91408 32474 80911 10279 20244 30059 40097 50007 81271 333 10322 56299 59016 70041 555 92812
AAXX 28124 91413 32469 70608 10277 20239 30083 40108 53005 82171 333 10306 56299 59014 70086 555 92812
AAXX 28124 91425 NIL
AAXX 28124 91434 NIL
AAXX 28124 91765 NIL
AAXX 28124 91222 NIL
AAXX 28124 91245 NIL
AAXX 28124 91323 NIL
AAXX 28124 91339 NIL
AAXX 28124 91343 NIL
AAXX 28124 91353 NIL
AAXX 28124 91442 NIL
AAXX 28121 33393 /1141 82603 10042 20035 39915 40315 58017 71054 886// 333 88703 555 69941
AAXX 28121 33663 32598 13303 10089 21014 30205 40302 58008 81200
AAXX 28121 34601 32560 33207 10061 20004 30113 40251 52002 82501
BBXX 51000 28121 99235 71541 46/// /0908 10223 40231 58010 91150 22200 00227 10905 20503 310// 40904 70023 333 91209 555 11080 22085 31118 41011 61149 094075 097076 098083 097089 096086 092090
BBXX 51003 28121 99193 71606 46/// /0609 10246 40188 58006 91150 22200 00251 10905 20703 3//// 40904 70024 333 91210 555 11093 22098 31135 40611 61149 063086 061089 059088 057087 055078 056085
BBXX 46089 28121 99459 71258 46/// /2210 10108 20108 40122 53020 91150 22200 00095 11309 20604 326// 41308 70046 333 91212 555 11107 22116 31115 42213 61149 217099 216101 216102 215104 213102 215102
BBXX 46042 28121 99368 71224 46/// /3608 10121 40275 54000 91150 22200 00127 11305 20502 332// 41305 70025 333 91210 555 11085 22090 31144 43510 61149 357080 358078 354079 353075 353068 356067
BBXX 46053 28121 99342 71198 46/// /1201 10128 40221 56007 91150 22200 00134 11103 328// 41103 70016 333 91201 555 11007 22007 31104 40602 61149 125006 092004 046005 064004 062010 058009
AAXX 28121 33135 32998 12804 10037 21029 30075 40257 52004 81030
AAXX 28121 33317 32998 02903 10049 21001 39957 40300 58011
AAXX 28121 33345 32998 13104 10046 21028 30067 40276 58004 80001
AAXX 28121 33393 NIL
AAXX 28121 33506 32697 33010 10042 21019 30041 40240 52004 82401
AAXX 28121 33587 32997 13305 10063 20007 30021 40287 58007 80001
AAXX 28121 33631 /1294 80000 10026 20021 30191 40339 58022 72854 886// 333 88704 555 69931
AAXX 28121 33663 NIL
AAXX 28121 33658 /1497 83004 10062 20043 30012 40316 57016 70262 886// 333 88710 555 69941
AAXX 28121 33711 32998 63107 10064 21024 30057 40269 58005 80001
AAXX 28121 33791 32997 23306 10072 21024 30111 40263 56003 80001
AAXX 28121 33837 32577 53503 10091 20027 30236 40288 58012 82501
AAXX 28121 33924 32597 82903 10074 20046 30276 40288 58005 8653/
AAXX 28121 33946 /1240 82502 10057 20055 30065 40289 55009 75152 886// 333 88704 555 69951
AAXX 28121 34300 32697 43010 10039 21030 30019 40213 52013 84500
AAXX 28121 34504 32697 23208 10060 20006 30062 40242 54000 82500
AAXX 28121 34519 32560 63011 10040 21012 39933 40211 52008 86500 333 86630
AAXX 28121 34601 NIL
AAXX 28124 48307 31557 50000 10220 20182 39765 40149 51009 71011 82556 333 10295 59025
AAXX 28124 48324 31950 00901 10248 20171 39917 40138 52008 70500 333 10305 59020
AAXX 28124 48333 31958 00000 10240 20179 39844 40148 52009 71000 333 10287 59010
AAXX 28124 48350 NIL
AAXX 28124 48355 31958 01004 10240 20174 39927 40148 52017 71000 333 10300 59020
AAXX 28124 48358 32960 10908 10220 20143 39984 40162 52020 80001 333 10292 59015
AAXX 28124 48384 31958 00000 10235 20194 39948 40140 52010 71000 333 10309 59018
AAXX 28124 48401 31956 10000 10260 20198 30028 40136 52022 71000 80005 333 10315 59022
AAXX 28124 48404 32961 00000 10245 20199 39954 40133 51014 333 10300 59017
AAXX 28124 48409 32960 20000 10265 20204 39980 40128 52011 80001 333 10306 59021
AAXX 28124 48419 31559 83407 10280 20204 30115 40123 51011 70522 85545 333 10311 59023
AAXX 28124 48427 31958 00000 10243 20191 30113 40120 52010 71000 333 10296 59026
AAXX 28124 48435 31958 10000 10240 20167 39692 40131 52012 70500 80001 333 10292 59019
AAXX 28124 48453 NIL
AAXX 28124 48458 32960 00000 10277 20199 30054 40134 52016 333 10328 59019
AAXX 28124 48474 31956 20000 10260 20190 39999 40122 52015 70500 80005 333 10319 59017
AAXX 28124 48481 31958 12001 10284 20202 30094 40121 52023 70500 80001 333 10344 59009
AAXX 28124 48555 31557 50000 10262 20214 30103 40146 52016 71011 82476 333 10300 58004 70003
AAXX 28124 48556 32560 50000 10266 20237 30112 40128 52035 81106 333 10300 59003
AAXX 28124 48557 32562 50000 10270 20233 30068 40103 52004 82206 333 10320 59019
AAXX 28124 48560 31557 20000 10273 20247 30105 40110 51009 71000 81101 333 10295 59013
AAXX 28124 48574 32560 50000 10267 20235 30084 40113 52011 82146 333 10310 59009
AAXX 28124 48581 NIL
BBXX 62087 28121 99547 10068 46/// /0308 10079 20071 4//// 5//// 22270 00085
AAXX 28124 78922 46/// /1014 10271 20200 30140 40185 53019
AAXX 28124 64500 32460 72408 10290 20235 30105 40117 845// 333 0//00 59005 84610 87640
AAXX 28124 64501 32465 52010 10285 20238 3//// 4//// 82230 333 0//00 82811 84361 94919 95839
AAXX 28124 64550 32470 6//// 10300 20241 30/// 40/// 86200 333 0//00 5//// 86816 94939 95839
AAXX 28124 64551 32465 60000 10296 20242 30085 40114 86800 333 0//00 59011 83813 86633 94943 95833
AAXX 28124 64560 32460 3//// 10296 20226 39566 40099 83200 333 0//00 59002 83810 94919 95839
BBXX VRCU7 28123 99150 10419 41998 01407 10343 20316 40098 56021 70200 80000 22274 04243 29901 80322
BBXX V7HD2 28124 99338 30257 41498 21413 10220 2016/ 40180 5//// 7//00 822// 22200 00215 2//// 3//// 4//// 5//// 6//// 80180 ICE /////
BBXX WKAB 28123 99218 10597 41398 30910 10245 20194 40149 57026 7//00 836// 22214 00243 21001 305// 41002 5//// 6//// 80210 ICE /////
BBXX DCPP2 28124 99139 10512 41997 00211 10250 20158 40160 54000 70200 80000 22265 20208 312// 40503 5//// 80190
BBXX SHIP 28123 99267 10349 43999 13420 10210 2013/ 40171 58010 80001 22275 00223 20804 8015
BBXX DBLK 28121 99591 30000 41396 83412 11008 21012 49764 57002 77172 8572/ 22283 05016 20301 333// 41103 ICE 6/6/0
BBXX BATFR19 28124 99066 30057 46/// /1916 10244 20199 40132 57018 22200 00255
BBXX BATFR55 28124 99145 30523 44698 31206 10284 20234 40100 70100 81364 22232 00295 20704 312// 411// 5////
BBXX P3GY9 28124 99078 50344 41797 50913 10280 2024/ 40180 51015 70322 85263 22243 00280 20701 309// 40702 5//// 6//// 80250 ICE /////
BBXX SHIP 28124 99236 10627 41999 02107 10260 2020/ 40150 54000 70200 80/// 22223 00260 20000 3//// 40000 5//// 6//// 80220 ICE /////
BBXX ONDY 28124 99191 30620 41898 21112 10270 2023/ 40130 54000 70210 81139 22213 00278 2//// 3//// 4//// 5//// 6//// 80240 ICE /////
BBXX TBWUK30 28124 99029 70044 41398 72014 10263 20242 40114 70222 877// 22223 00280 20601 312// 40801 5////
BBXX UFTA 28121 99844 71242 42997 22201 11356 21390 40155 57008 80001 333 11342
BBXX DDAC2 28120 99375 71279 41/96 /2009 10120 20120 40270 54000 7//44 8/770 22273 04140 2//// 330// 4//06 5//// 80120
BBXX WBN6510 28124 99329 70765 41196 73040 1//// 2//// 40120 51020 79792 85977 22200 04194 20706 33028 40809 50809 6//// 8//// ICE /////
BBXX PBAD 28121 99253 70758 41598 42114 10240 20218 40156 51006 70111 844// 22234 02260 20301 310// 40802 5//// 80225
BBXX DANM 28124 99417 70624 41298 71631 10136 20097 40091 58068 70122 8577/ 22265 00130 20506 31104 41006 50804 80114
BBXX VCYL 28124 99485 70685 46/// /0412 10015 20014 49887 56043 7//// 8//// 22200 0//// 2////
BBXX WDE9193 28123 99187 70870 41598 70213 10250 2022/ 40163 53001 71422 85899 22242 00262 20304 33402 40810 50506 6//// 80229 ICE /////
BBXX OZBY2 28124 99374 71647 41/// 82326 10160 2013/ 40100 54000 7//21 8//// 22224 00150 20812 321// 41508 5//// 6//// 80140 ICE /////
BBXX DCLH2 28120 99300 71624 41/98 61713 10210 20180 40215 57005 70322 8//// 22263 06220 2//// 3//// 4//// 5//// 80190
BBXX VRCP9 28124 99420 70437 41397 61323 10180 20148 40120 57030 70322 85282 22263 00160 2//// 3//// 4//// 5//// 6//// 80160 ICE /////
BBXX 44011 28121 99411 70666 46/// /1410 10127 20127 49978 56039 91150 22200 00088 10910 20908 3//// 41106 70048 333 91214 555 11111 22124 31138 43323 61149 142104 144179 143141 145134 148120 149122
BBXX 41046 28121 99238 70683 46/// /1406 10243 20196 40196 53006 91150 22200 00253 11004 20501 300// 41004 70020 333 91207 555 11058 22060 31054 41307 61149 141055 140054 142054 149053 143053 140052 81306 91054
BBXX 42364 28121 99291 70881 46/// /0304 10139 20044 40227 55000 91200
BBXX 46239 28121 99363 71221 46/// ///// 1//// 91151 22200 00123 11305 20903 328// 41305 70027
BBXX 51205 28121 99210 71564 46/// ///// 1//// 91148 22200 00233 11305 20905 333// 41302 70026
BBXX 46224 28121 99332 71175 46/// ///// 1//// 91136 22200 00142 11302 20701 324// 41301 70008
BBXX 46214 28121 99379 71235 46/// ///// 1//// 91153 22200 00120 11305 21003 328// 41304 70024
BBXX 42364 28121 99291 70881 46/// /0205 10139 20050 40227 91145
BBXX 44100 28121 99363 70756 46/// ///// 1//// 91152 22200 00124 11103 21003 313// 41101 70015
BBXX 42099 28121 99273 70842 46/// ///// 1//// 91157 22200 00226 10804 20804 70019
BBXX 41110 28121 99341 70777 46/// ///// 1//// 91151 22200 00136 10902 20902 70011
BBXX 41112 28121 99307 70813 46/// ///// 1//// 91151 22200 00164 10301 20301 70007
BBXX 42363 28121 99282 70892 46/// /0604 10139 20056 40227 56007 91200 333 91205
BBXX 46213 28121 99403 71247 46/// ///// 1//// 91154 22200 00108 11305 21003 329// 41304 70026
BBXX 46225 28121 99329 71174 46/// ///// 1//// 91144 22200 00148 11302 21001 327// 41302 70010
BBXX 46215 28121 99352 71209 46/// ///// 1//// 91138 22200 00126 11403 21002 327// 41402 70017
BBXX 46229 28121 99438 71246 46/// ///// 1//// 91151 22200 00097 10810 20808 329// 41406 70050
BBXX 46232 28121 99325 71174 46/// ///// 1//// 91138 22200 00142 11303 21002 327// 41302 70015
BBXX 46240 28121 99366 71219 46/// ///// 1//// 91142 22200 00121 11303 21001 335// 41303 70014
BBXX 46218 28121 99345 71208 46/// ///// 1//// 91202 22200 00135 11405 21003 330// 41403 70024
BBXX 51101 28121 99243 71621 46/// /0708 10232 20176 40224 58011 91150 22200 00237 10904 20502 310// 40903 70018 333 91209 555 11082 22087 31149 40809 61149 066077 069072 074075 080072 081069 070062
BBXX 46061 28121 99602 71468 46/// /0205 11010 49821 58023 91150 22200 00056 11204 20401 300// 41203 70018 333 91206 555 11048 22049 31113 40207 61149 023047 012040 017043 027051 019049 021047
BBXX A8EY7 28123 99398 11542 41/98 13025 10055 21004 40160 58010 70100 8//// 22224 2//07 3//// 4//// 5//// 80030
BBXX LAGB5 28124 99310 11515 41697 63414 10150 2008/ 40210 52010 70222 8624/ 22223 00110 20704 332// 40905 80110
BBXX C6SI6 28124 99350 11385 46/// /0310 10086 20013 40238 58003 7//// 8//// 22200 0//// 2////
BBXX BATFR28 28124 99061 10867 46/// /2610 10277 20172 40083 53008 22262 00284
BBXX BATEU07 28124 99062 10973 46/// /1018 10282 40110 53007 22263
BBXX C6XC2 28124 99187 11267 41897 60738 10240 20211 40140 52/// 7//22 86298 22284 00270 20306 305// 40206 5//// 6//// 80220 ICE /////
BBXX WHIA 28123 99114 11183 41798 80524 10280 2027/ 40112 52020 7//11 88/7/ 22283 0//// 2//// 3//// 4//// 5//// 6//// 80270 ICE /////
BBXX V7NV4 28124 99314 11571 41798 73328 10150 20116 40195 51010 70222 87462 22263 00230 20208 33030 40208 50206 6//// 80130 ICE /////
BBXX 46070 28121 99551 11753 46/// /0306 11035 21108 40115 51003 91150 22200 00035 11005 20502 3//// 41005 70027 333 91208 555 11059 22061 31051 40408 61149 029058 042056 042056 035055 031058 033062 80307 91051
BBXX ZCBZ4 28123 99060 10876 41798 32722 10285 20219 40094 54000 80002 22264 02265 20101 32425 40204 50203 80240
BBXX 3FBC9 28124 99102 50808 41697 61217 10220 40110 51025 70322 86195 9//// 22233 00240 20303 317// 40303 5//// 6//// 80200
BBXX WCX7445 28124 99531 50709 43/// /3039 10099 2//// 49990 5//// 7//// 8//// 22200 00151 2//// 3//// 4//// 5//// 6//// ICE /////
BBXX A8DE3 28124 99307 50718 41297 81805 10168 20135 40158 52013 7//22 8761/ 22243 29901 322// 41002 80148
BBXX WBP3210 28124 99589 50774 43/// /3140 10051 2//// 49838 5//// 7//// 8//// 22261 00053 2//// 3//// 4//// 5//// 6//// ICE /////
BBXX 32012 28121 99197 50856 46/// ///// 1//// 91150 22200 11304 70020
BBXX ZCDA9 28123 99204 71569 41298 50525 10225 20210 40191 56020 70222 857// 22225 00240 20203 305// 40504 5//// 80215
BBXX 2AKI3 28124 99111 70622 41598 72722 10270 20234 40161 53021 70222 84266 22234 04267 20101 309// 40402 5//// 80245
BBXX C6FN2 28124 99214 70858 41697 60119 10230 20201 40180 51010 7//// 8/272 22284 02270 20303 3//// 40303 50303 6//// 85210 ICE /////
BBXX 42057 28121 99168 70815 46/// /0608 10268 20211 40172 53004 91150 22200 00275 10802 20602 3//// 40801 70011 333 91209 555 11078 22082 31137 40410 61149 056079 047073 051066 040069 044066 042067 80409 91137
BBXX 41009 28121 99285 70802 46/// /3311 10145 20099 40198 51018 91150 22200 00238 10705 20705 70023 333 91214 555 11116 22121
BBXX 41010 28121 99289 70785 46/// /3213 10175 40172 53024 91150 22200 00236 10807 20807 70033 333 91216 555 11134 22141
BBXX CG2965 28124 99487 71235 46/// /2428 10129 20073 40044 53013 7//// 8//// 22200 0//// 2////
BBXX VOKJ 28124 99467 70561 46/// /1213 10018 20002 40164 58026 7//// 8//// 22264 0//// 2////
BBXX VOLG 28124 99476 70527 46/// /2304 11073 21093 40189 56008 7//// 8//// 22271 0//// 2////
BBXX CG2958 28124 99535 71300 46/// /1814 10088 20071 49866 53021 7//// 8//// 22200 0//// 2////
BBXX VCLM 28124 99468 70712 46/// /0801 10023 20015 49873 55003 7//// 8//// 22200 0//// 2////
BBXX CGJK 28124 99484 71234 46/// /2318 10106 20094 40062 51014 7//// 8//// 22200 0//// 2////
BBXX CGBY 28124 99487 71235 46/// /2419 10129 20075 40050 51015 7//// 8//// 22200 0//// 2////
BBXX CGDR 28124 99484 71234 46/// /2311 10108 20106 40065 52014 7//// 8//// 22200 0//// 2////
BBXX VCSZ 28124 99455 70735 46/// /2405 10013 20013 49882 51012 7//// 8//// 22200 0//// 2////
BBXX CGCC 28124 99460 70731 46/// /2109 10014 20012 49874 52010 7//// 8//// 22200 0//// 2////
BBXX CGDX 28124 99468 70712 46/// /0705 10009 20008 49880 55006 7//// 8//// 22200 0//// 2////
BBXX CGHL 28124 99476 70527 46/// /2905 11077 21096 40193 56014 7//// 8//// 22200 0//// 2////
BBXX 3FZK3 28124 99493 71230 46/// /0603 10091 20091 40050 51018 7//// 8//// 22200 0//// 2////
BBXX CGDT 28124 99468 70712 46/// /0701 10022 20014 49881 55002 7//// 8//// 22200 0//// 2////
BBXX CGJV 28124 99457 70627 46/// /1616 10048 20030 40064 56041 7//// 8//// 22200 0//// 2////
BBXX VCBW 28124 99467 70714 46/// /0606 10013 20007 49877 51015 7//// 8//// 22213 00024 2////
BBXX CGBR 28124 99509 71277 46/// /0801 10077 20077 49969 53009 7//// 8//// 22200 0//// 2////
BBXX CGDG 28124 99447 70636 46/// /1318 10066 20120 40048 58048 7//// 8//// 22200 0//// 2////
BBXX VAAP 28124 99446 70626 46/// /1420 10066 20057 40065 57060 7//// 8//// 22253 0//// 2////
BBXX VXKF 28124 99476 70591 46/// /1316 10029 20017 40137 55003 7//// 8//// 22282 0//// 2////
BBXX VOKF 28124 99490 70669 46/// /1306 10044 20022 49904 56088 7//// 8//// 22200 0//// 2////
BBXX VCWL 28124 99468 70712 46/// /0000 10011 20010 49880 53003 7//// 8//// 22200 0//// 2////
BBXX VOPP 28124 99456 70735 46/// /2208 10009 20009 4//// 5//// 7//// 8//// 22200 0//// 2////
BBXX VOFG 28124 99456 70614 46/// /1308 10048 20040 40102 56033 7//// 8//// 22200 0//// 2////
BBXX CGBN 28124 99447 70636 46/// /1523 10076 20059 40041 58052 7//// 8//// 22200 0//// 2////
BBXX CGSB 28124 99479 70695 46/// /0414 11001 21003 49876 56043 7//// 8//// 22200 0//// 2////
BBXX CGTF 28124 99476 70527 46/// /1404 11075 21094 40193 56015 7//// 8//// 22200 0//// 2////
BBXX VCRG 28124 99474 70619 46/// /1713 10032 20020 40083 56030 7//// 8//// 22200 0//// 2////
BBXX VRYO3 28124 99456 70735 46/// /0000 10016 20027 49877 51013 7//// 8//// 22200 0//// 2////
BBXX CZ9742 28124 99506 70969 46/// /1515 11119 21135 4//// 5//// 7//// 8//// 22200 0//// 2////
BBXX 46029 28121 99461 71245 46/// /2210 10105 20104 40126 53018 91150 22200 00098 11311 20704 327// 41310 70054 333 91212 555 11107 22115 31056 42214 61149 217100 217105 216105 218104 219107 220106
BBXX 46013 28121 99382 71233 46/// /3002 10114 40280 50000 91150 22200 00108 11304 20401 3//// 41304 70022 333 91202 555 11018 22021 31102 43304 61149 298014 323017 339023 334026 334032 331032
BBXX 44014 28121 99366 70748 46/// /2913 1//// 40046 53026 91150 22200 00140 10607 20606 313// 41003 70034 333 91216 555 11128 22128 31113 43016 61149 289129 290130 291124 292126 288129 292127
BBXX 46050 28121 99442 71246 46/// /2013 10104 40152 58003 91150 22200 00096 10909 20706 321// 40908 70047 333 91216 555 11140 22150 31102 41916 61149 196129 195127 193126 192130 192129 194132
BBXX 44060 28121 99413 70721 46/// ///12 10082 49948 91145 22200 00098 333 91214 555 11134 22139
BBXX 46088 28121 99483 71232 46/// /1804 10095 40065 53019 91150 22200 00078 10201 70003 333 91205 555 11043 22050 31120 42206 61149 179037 215043 205053 195046 184051 210054
BBXX 46014 28121 99394 71240 46/// /1104 10104 40281 58006 91150 22200 00108 11405 20401 3//// 41405 70024 333 91206 555 11046 22048 31149 41106 61149 112043 107032 105028 111016 124012 123023
BBXX 46069 28121 99337 71202 46/// /3104 10138 40225 55000 91150 22200 00140 11104 20401 330// 41104 70021 333 91205 555 11039 22041 31103 43105 61149 308037 303035 303035 311037 314040 316037
BBXX 46011 28121 99350 71210 46/// /3608 10137 40236 58008 91150 22200 00131 11405 20502 329// 41404 70025 333 91210 555 11088 22095 31055 43511 61149 356082 355087 353092 352081 349085 346092
BBXX 46027 28121 99419 71244 46/// /1610 10102 40239 53010 91150 22200 00095 11206 20703 328// 41205 70029 333 91212 555 11104 22113 31104 41514 61149 161097 158107 159106 160104 156111 156112
BBXX 46047 28121 99324 71195 46/// /2902 10132 40227 50000 91150 22200 00134 11305 20401 330// 41305 70023 333 91203 555 11018 22018 31057 43404 61149 290017 322016 340016 344019 343027 343028
BBXX 44009 28121 99385 70747 46/// /2812 10076 40033 53021 91150 22200 00111 10504 20503 300// 41102 70020 333 91215 555 11127 22133 31130 42815 61149 281119 280121 280118 282114 282119 282118
BBXX 44020 28121 99414 70702 46/// /2410 10085 20061 49930 55000 91150 22200 00070 333 91212 555 11102 22108 31111 42612 61149 243095 255093 255101 255099 255095 254093
BBXX 46088 28121 99483 71232 46/// /1804 10095 40065 91150 22200 00078 10201 70003 333 91205 555 11043 22050 31120 42206 61149 179037 215043 205053 195046 184051 210054
BBXX 41013 28121 99334 70777 46/// /2914 10112 20042 40129 53030 91150 22200 00217 10906 20806 320// 40903 70032 333 91216 555 11143 22150 31105 42918 61149 290136 292133 294141 289136 294145 289144
BBXX 46012 28121 99374 71229 46/// /3506 10113 40283 52003 91150 22200 00121 11305 20301 329// 41305 70026 333 91207 555 11067 22070 31105 43310 61149 348064 341067 341073 339071 336077 337075
BBXX 44027 28121 99443 70673 46/// /1515 10098 20088 49907 56047 91150 22200 00081 10808 20808 70040 333 91218 555 11161 22174 31053 41523 61149 153150 150152 148155 150155 149158 149170
BBXX 44065 28121 99404 70737 46/// /2712 10074 20024 49974 53010 91150 22200 00100 11106 20503 312// 41105 70028 333 91215 555 11125 22132 31144 42715 61149 270117 265115 267117 268117 272115 271117 82713 91147
BBXX 41004 28121 99325 70791 46/// /2913 10107 20043 40159 52030 91150 22200 00188 10805 20805 3//// 41401 70027 333 91216 555 11133 22140 31101 42917 61149 286124 287122 288132 290131 290138 289133
BBXX CGUM 28124 99445 70635 46/// /1417 10074 20064 40050 58056 7//// 8//// 22262 0//// 2////
BBXX BATEU08 28124 99593 70449 46/// /3033 11033 21092 40049 53050 22233
BBXX 46041 28121 99474 71247 46/// /2209 10105 40090 53022 91150 22200 00091 11010 20805 3//// 41009 70051 333 91211 555 11102 22111 31105 42212 61149 220094 221093 223091 223091 223101 224096
BBXX 46026 28121 99378 71228 46/// /3406 10110 40281 50000 91150 22200 00113 11304 20401 327// 41304 70021 333 91208 555 11064 22067 31113 42909 61149 331062 286067 289068 285069 287065 287069
BBXX 44040 28121 99410 70736 46/// /2707 10074 20028 49975 91145 22200 10301 70005 333 91209 555 11093 22108
BBXX 46072 28121 99517 71722 46/// /3008 11028 21047 40032 51006 91150 22200 00043 11005 20504 3//// 41004 70026 333 91210 555 11084 22087 31123 43414 61149 302078 342079 330108 296089 287092 290097 83312 91125
BBXX 46082 28121 99597 71434 46/// ///// 10028 49814 56026 91150 22200 00063 11005 70026
BBXX 46035 28121 99571 71778 46/// /3510 1//// 40078 51008 91150 22200 10806 20805 300// 41501 70028 333 91214 555 11103 22110 31145 43314 61149 353104 353106 338085 347109 351103 357078 83512 91134
BBXX 46077 28121 99579 71543 46/// /2507 11058 21135 49884 56017 91150 22200 00050 10603 20502 3//// 40601 70013 333 91208 555 11069 22071 31050 42509 61149 252065 257062 262064 266059 244051 242049 82508 91150
BBXX 42039 28121 99288 70860 46/// /3605 10152 40212 52006 91150 555 11053 22057
BBXX 41040 28121 99145 70530 46/// /0707 10265 20220 40187 53019 91150 22200 00271 10804 20602 3//// 40803 70018 333 91209 555 11078 22082 31127 40809 61149 070073 072072 070076 073070 072072 073072 80708 91127
BBXX BATFR15 28124 99319 70380 44598 71721 10222 20190 40256 51031 76062 8777/ 22214 00219 20406 317// 40406 5////
BBXX BATEU04 28124 99590 70436 46/// /2849 11035 21071 4//// 22262
BBXX 44007 28121 99435 70701 46/// /2108 10094 20094 49886 55000 91150 22200 00077 11006 20704 3//// 41005 70031 333 91210 555 11092 22101 31050 41812 61149 213084 211079 207079 202086 198083 188097
BBXX WDD3825 28124 99378 70676 41396 82224 10170 2015/ 40010 56005 7//66 88/// 22224 00230 20605 318// 41209 5//// 6//// 80160 ICE /////
BBXX A8XD5 28124 99395 71288 41/93 82414 10140 20140 40250 52/// 71085 8//// 22223 04150 20404 322// 40406 80140
BBXX ZCDG7 28124 99260 71386 41598 40622 10190 20138 40273 54000 70211 83480 22224 00220 20305 308// 40404 5//// 80160
BBXX 3ETA8 28124 99197 70870 41398 73518 10240 2021/ 40180 5//// 7//// 87/5/ 22254 00270 20304 3//// 4//// 5//// 6//// 80220 ICE /////
BBXX 9V7955 28124 99319 71753 41/95 /2602 10200 2019/ 40150 51020 760// 8//// 22263 00180 20202 32726 40304 50204 6//// 80195 ICE /////
BBXX BAREU54 28124 99137 70763 46/// ///// 40149 52010 22254
BBXX 41101 28124 99146 70562 46/// /0818 10265 20215 40172 52016 22200 00269 10704 70019
BBXX 46028 28121 99357 71219 46/// /3410 10127 40246 58004 91150 22200 00130 11305 20703 331// 41304 70024 333 91212 555 11103 22109 31108 43312 61149 339096 338090 336094 337096 333101 329090
BBXX 46054 28121 99342 71204 46/// /2904 10145 40221 58004 91150 22200 00138 11404 20401 300// 41404 70021 333 91205 555 11040 22046 31143 42905 61149 286036 284030 290025 295014 305014 324010
BBXX 46087 28121 99485 71247 46/// /2210 10103 20102 40060 53014 91150 22200 00081 11306 20602 326// 41305 70030 333 91211 555 11104 22114 31133 42212 61149 216095 212097 210093 212095 215092 218086
BBXX 46025 28121 99337 71191 46/// /3304 10145 20107 40218 55000 91150 22200 00149 11402 329// 41402 70012 333 91204 555 11039 22040 31125 43205 61149 329036 333042 329044 326043 323039 325041
BBXX 44022 28121 99409 70737 46/// ///07 10071 20017 49971 91145 22200 00084 333 91210 555 11077 22082
BBXX 46086 28121 99325 71180 46/// /3603 10140 40223 51005 91150 22200 00149 11403 20401 329// 41403 70016 333 91204 555 11032 22033 31055 43405 61149 358031 357030 000034 353039 352043 351043
BBXX NWS0022 28124 99416 70714 43/// /2311 10090 20056 49933 5//// 7//// 8//// 222// 04103 2//// 3//// 4//// 5//// 6//// 8//// ICE /////
BBXX 3EMK6 28124 99266 70925 41/// /0702 10170 2//// 40240 56010 7//// 8//// 22200 00232 2//// 3//// 4//// 5//// 6//// 8//// ICE /////
BBXX WDC6698 28124 99182 71552 43/// /0822 1//// 2//// 40180 5//// 7//// 8//// 222// 04246 2//// 3//// 4//// 5//// 6//// 8//// ICE /////
BBXX 46078 28121 99561 71526 46/// /3214 11039 21097 49898 91150 333 91217 555 11146 22156
BBXX 46005 28121 99461 71310 46/// ///11 10112 40058 51018 91150 22200 00099 11309 20805 3//// 41307 70045 333 91213 555 11119 22129
BBXX 46080 28121 99580 71500 46/// /3111 11057 21102 49867 58006 91150 22200 00048 11104 20604 3//// 41102 70021 333 91214 555 11117 22122 31101 42914 61149 308109 317103 306091 308089 309098 324087 83011 91147
BBXX 46059 28121 99380 71300 46/// /2307 10145 40262 55000 91150 22200 00142 11306 20603 3//// 41305 70028 333 91209 555 11078 22084 31059 42310 61149 233073 232074 232075 232077 228080 228081
BBXX 46075 28121 99539 71608 46/// /0302 11030 21093 49971 58003 91150 22200 00039 11704 20401 300// 41704 70021 333 91204 555 11021 22022 31104 43505 61149 024020 077009 061008 022016 001019 002020 83604 91104
BBXX 46002 28121 99426 71305 46/// ///// 10129 40160 52007 91150 22200 00117 11309 70043
BBXX 46084 28121 99566 71361 46/// ///// 10042 20011 49753 56027 91150 22200 00073 11107 70034
BBXX 42363 28121 99282 70892 46/// /0407 10139 20061 40227 91145 333 91207
BBXX 46006 28121 99408 71375 46/// /2212 10146 40135 56012 91150 22200 00122 11308 20806 3//// 41306 70041 333 91215 555 11133 22145 31123 42216 61149 218122 217123 217124 217121 216119 216123
BBXX 42362 28121 99278 70907 46/// /0606 10156 20061 40227 91145
BBXX 42059 28121 99151 70675 46/// /0808 10274 20215 40170 51017 91150 22200 00277 10703 20703 70017 333 91209 555 11085 22091 31116 40810 61149 081081 078085 077081 077084 078077 074081 80809 91116
BBXX 42056 28121 99198 70849 46/// /0306 10261 20224 40177 55000 91150 22200 00270 10602 20401 309// 40602 70010 333 91208 555 11066 22069 31148 40408 61149 034061 039061 032059 032059 034057 033057 80407 91148
BBXX 42019 28121 99279 70954 46/// /1402 10177 20091 40213 56008 91150 22200 10301 70003 333 91204 555 11025 22027 31056 42905 61149 149024 285030 284029 285030 290023 281034
BBXX 42036 28121 99285 70845 46/// /3606 10139 20066 40214 51010 91150 22200 00211 10804 20502 327// 40803 70018 333 91209 555 11065 22067 31052 43610 61149 002062 352063 000071 357069 354068 353076
BBXX 44005 28121 99432 70691 46/// /2011 10097 20097 49896 56018 91150 22200 00083 10809 20808 3//// 41303 70043 333 91214 555 11116 22126 31103 41814 61149 204106 198106 192111 187107 182113 176113
BBXX 42060 28121 99163 70635 46/// /0808 10266 20207 40188 53019 91150 22200 00271 10503 20503 300// 40801 70015 333 91210 555 11088 22094 31050 40611 61149 077082 076080 075076 076082 076075 067086 80610 91051
BBXX 42058 28121 99149 70749 46/// /0810 10269 20219 40145 53007 91150 22200 00273 10804 20603 309// 40803 70022 333 91212 555 11106 22112 31113 40712 61149 079099 073096 076098 072103 072105 075096 80711 91113
BBXX A8OZ4 28124 99375 10065 43598 50812 10140 20080 40250 56010 7//// 858// 22224 00160 2//// 3//06 40 604 5//// 80115
BBXX DBBH 28121 99378 10047 41498 60413 10146 20078 40266 57016 70361 85840 22222 04159 20705
BBXX A8OZ4 28124 99375 10065 43598 50812 10140 20080 40250 56010 7//// 858// 22224 00160 2//// 3//06 40604 5//// 80115
BBXX BSH02 28121 99542 10079 46/// ///// 22200 00074 20605 70023
BBXX LAZV5 28124 99375 70188 41598 30615 10160 2014/ 40395 51015 70321 83166 22223 00180 20302 306// 40403 5//// 6//// 80150
BBXX A8SZ4 28123 99341 70209 41698 30914 10240 20146 40362 51015 70300 8117/ 22223 20104 311// 40504 80180
BBXX DBND 28121 99536 10086 46/// /2308 10069 20053 40181 57026 22260 00060
BBXX DBBI 28121 99535 10100 46/// /2204 10075 20057 40196 57029 22200 00059
BBXX DK7210 28121 99540 10066 46/// /2117 10074 20074 30127 222// 20706 70028
BBXX DBBC 28121 99535 10100 46/// /2204 10075 20037 40196 57031 22260 00065
BBXX DBEA 28121 99539 10087 46/// /2108 10067 20045 40174 57018 22232 00051
BBXX DBBA 28121 99544 10122 46/// /1909 10060 20033 40186 57043 22202 00050
BBXX DBEB 28121 99535 10086 41/// /2308 10070 20070 40187 58005 7//// 22233 00058
BBXX DBJM 28121 99542 10081 46/// /2014 10065 20052 40161 57029 22201 00059
BBXX DBFH 28121 99535 10086 46/// /2208 10073 20052 40188 57024 22260 00058
BBXX DBKR 28121 99541 10121 46/// /2006 10066 20037 40190 57039 22200 00055
BBXX DBFR 28121 99535 10086 46/// /2208 10071 20059 40185 57024 22200 00058
BBXX WKPF 28123 99340 10217 41898 40811 10160 2013/ 40261 58010 70211 8328/ 22225 00173 20403 30408 40504 50504 6//// 80140 ICE /////
AAXX 28124 04005 42489 21402 11053 21087 40056 57007 82800 555 3/202
AAXX 28124 04018 41582 31803 11028 21045 40069 58005 71582 82960 555 3//05 82926 83350
AAXX 28124 04030 42582 51302 11042 21051 40076 55001 70281 83935 555 3//03 81924 83836
AAXX 28124 04048 42589 23313 11013 21054 40074 52010 81905 555 3/420
AAXX 28124 04063 42784 11605 11069 21108 40062 58003 81440 555 3//05
AAXX 28124 04077 NIL
AAXX 28124 04082 42988 63412 11020 21023 40028 57010 82284 555 3//12 82456 82250
AAXX 28124 04097 41589 80114 10005 21059 40045 52003 71522 883// 555 3/318
BBXX TFBKF 28124 99635 70202 46/// ///// 22200 10804 70020
BBXX TFDRN 28124 99658 70212 46/// ///// 22200 10702 70012
BBXX TFGRS 28124 99663 70182 46/// ///// 22200 10703 70016
BBXX TFGRV 28124 99638 70225 46/// ///// 22200 10803 70016
BBXX TFGSK 28124 99641 70229 46/// ///// 22200 10804 70020
BBXX TFHFN 28124 99642 70152 46/// ///// 22200 10804 70020
BBXX TFKGR 28124 99657 70136 46/// ///// 22200 10704 70021
BBXX TFSRT 28124 99633 70203 46/// ///// 22200 10806 70028
BBXX TFSTD 28124 99664 70234 46/// ///// 22200 10804 70022
BBXX 3FSB4 28124 99137 70776 41598 40721 10272 2024/ 40140 54000 7//11 84288 22214 0//// 2//// 3//// 4//// 5//// 6//// 80245 ICE /////
BBXX MHNO6 28123 99217 70651 41598 31313 10249 20188 40203 54000 70111 81140 22273 00274 20302 31199 40602 50602 80210
BBXX A8TC4 28124 99094 70578 41/98 /0921 10260 20231 40155 52005 70200 8/479 2229/ 04300 20604 307// 40703 5//// 80240
BBXX 42012 28121 99301 70876 46/// /3406 10123 20061 40218 54000 91150 22200 00192 10701 20401 320// 40701 70006 333 91207 555 11058 22060 31059 43508 61149 339056 339059 341055 338056 342057 347058
BBXX 41060 28121 99148 70510 46/// ///// 1//// 91150 22200 10904 70018
BBXX 42001 28121 99259 70897 46/// /0104 10184 20090 40221 54000 91150 22200 00238 10703 20401 3//// 40702 70013 333 91205 555 11039 22040 31055 40108 61149 008041 353039 015039 002050 354052 357044
BBXX 41012 28121 99300 70805 46/// /3110 10130 40190 51017 91150 22200 00223 10705 20705 70024 333 91213 555 11105 22110 31101 43016 61149 313102 315106 311108 312109 310114 314115
BBXX 42065 28121 99149 70750 46/// /0507 10264 20215 91150 22200 10903 20502 3//// 40903 70017 333 91208 555 11074 22078 31120 40509 61149 046070 047072 050072 043070 044067 043066 80508 91120
BBXX 42035 28121 99292 70944 46/// /1004 10125 20082 40221 56008 91150 22200 00127 1//00 70002 333 91205 555 11043 22045 31058 40905 61149 103040 099041 093042 093044 087044 089046
BBXX 41048 28121 99320 70696 46/// /2018 10228 20189 40086 55017 91150 22200 00224 10808 20807 3//// 41404 70039 333 91224 555 11181 22194 31134 42025 50079 61149 200181 200196 195195 194196 196193 191193 71057 82022 91135
BBXX 41001 28121 99347 70727 46/// ///// 10167 20103 40031 53013 91150 22200 00215 11110 70052
BBXX 41044 28121 99217 70587 46/// /0905 10244 20172 40219 53012 91150 22200 00260 11004 20501 300// 41004 70020 333 91207 555 11053 22055 31138 40907 61149 088051 087051 079050 080051 084052 077050 80806 91138
BBXX 42020 28121 99270 70967 46/// /0000 10174 20081 40213 56011 91150 22200 00188 1//00 70002 333 91201 555 11003 22003 31051 40802 61149 127003 110001 065008 079008 078009 092015
BBXX 41049 28121 99275 70630 46/// /1906 10210 20127 40214 53007 91150 22200 00230 11308 20301 300// 41308 70039 333 91208 555 11058 22060 31104 41608 61149 192053 183047 186056 165053 162054 188058 81707 91104
BBXX 41043 28121 99211 70650 46/// /1005 10245 20203 40204 53007 91150 22200 00256 10903 20401 300// 40902 70013 333 91207 555 11056 22058 31103 41107 61149 097053 099052 101051 101056 107058 103056 81106 91103
BBXX 42003 28121 99260 70856 46/// /0105 1//// 91150 22200 10704 20401 330// 40704 70019 333 91208 555 11051 22054 31055 43509 61149 003049 348061 337047 002053 347062 351056 83507 91139
BBXX 42055 28121 99222 70940 46/// /0304 10215 20141 40210 56005 91150 22200 00248 10602 20401 301// 40602 70011 333 91205 555 11043 22044 31109 40506 61149 031041 035038 032041 039040 041040 034035 80605 91109
BBXX 42040 28121 99292 70882 46/// /0304 10136 40220 55000 91150 22200 00221 10502 20401 333// 40502 70011 333 91206 555 11043 22044 31058 43607 61149 026040 027045 025049 024047 011053 019053
BBXX 41047 28121 99275 70715 46/// /2312 10242 40173 53009 91150 22200 00249 10604 20604 303// 41102 70020 333 91213 555 11118 22125 31135 42316 61149 229117 226122 229120 228122 226120 228125 82314 91135
BBXX 41036 28121 99342 70770 46/// ///// 10104 20034 40112 53033 91150 22200 00173 10806 70028
BBXX 42002 28121 99258 70937 46/// /3401 10182 20102 40221 54000 91150 22200 00240 10601 20401 333// 40601 70007 333 91201 555 11006 22006 31056 40204 61149 341007 007010 026006 052004 025016 020020
BBXX 44066 28121 99396 70726 46/// /2812 10097 20058 49978 52008 91150 22200 00126 11109 20805 3//// 41107 70044 333 91214 555 11127 22134 31134 42816 61149 280120 277123 273107 277112 271107 271102
BBXX 9HA2583 28124 99191 70677 41898 40918 1//// 2//// 40190 54/// 7//// 83276 22224 04278 2//// 3//// 4//// 5//// 6//// 8//// ICE /////
BBXX WYQ4356 28124 99474 70873 41/97 80212 11120 40153 78672 22273 00040 20303
BBXX CG2350 28124 99433 70798 46/// /2819 11043 21089 40053 51032 7//// 8//// 22200 0//// 2////
BBXX CG2960 28124 99429 70824 46/// /3113 11059 21096 40127 51034 7//// 8//// 22200 0//// 2////
BBXX WDE3569 28124 99423 70875 43/// 83312 11061 2//// 40142 5//// 7//// 8//// 22243 00044 20403 3//// 4//// 5//// 6//// 8//// ICE /////
BBXX WDF7994 28124 99435 70877 43/98 22812 11088 2//// 40173 55000 70000 8//// 22243 00039 20202 3//// 4//// 5//// 6//// 8//// ICE /////
BBXX WYP8657 28124 99475 70886 41/98 89902 11090 40166 70272 22223 00050 2//02
BBXX WDF9323 28123 99165 71686 41/98 /0824 10250 2021/ 40140 56010 700// 8//// 22212 0//// 21306 308// 41306 5//// 6//// 80220 ICE /////
BBXX FVNM 28124 99089 70795 46/// /3310 10257 20222 40128 53010 22200 00274
BBXX PCHM 28124 99406 31766 41298 30223 10175 20167 40132 55012 70222 82140 22214 00160 20202 309// 40202 80170
BBXX BATFR56 28124 99032 10910 46/// /2604 10282 20279 40096 53011 22223 00299
BBXX BATFR35 28124 99167 51511 46/// /0517 10262 20229 40106 22262 00285
BBXX BATFR53 28124 99186 51456 44597 10314 10267 20207 40132 57018 70111 811// 22222 00275 20502 304// 40502 5////
BBXX WZZF 28124 99076 31545 41397 83517 10250 20250 40085 52010 72562 886// 22244 00330 20403 336// 40704 5//// 6//// 80250 ICE /////
BBXX ZCBU3 28124 99347 31527 41298 61812 10194 20150 40127 52010 70122 8/7// 22273 00204 20101 31300 40506 5//// 80168
BBXX SHIP 28124 99132 31211 41599 22616 10300 2026/ 40090 5//// 70111 8148/ 22253 00310 20204 3//// 4//// 5//// 6//// 80270 ICE /////
BBXX PCBT 28123 99433 70138 41598 80214 10138 20077 40388 52016 70222 8544/ 22214 20402 329// 41205 80105
BBXX PCCL 28123 99402 31707 41/97 80316 10182 40120 57015 75886 8//// 22263 04186 2////
AAXX 28124 16622 12960 03006 10060 20004 30316 40327 57023 60001 333 90730 91111 555 30000 10060 2//// 30045 4//// 5//// 40000 47768 44210 50000 50038 70000 77/// 7/Y//
AAXX 28124 16641 12570 11404 10118 21012 30293 40298 58016 60001 81100 333 90730 91110 555 40000 47748 44190 50000 50066
AAXX 28124 16682 12560 20107 10140 20061 30250 40269 57017 60001 81141 333 90730 91111 555 30000 10145 20115 30104 40098 50116 60170 40000 47718 44200 50000 50102
AAXX 28124 16716 12570 32708 10124 20035 30283 40302 57017 60001 81150 333 81830 83361 555 40000 47741 44180 50000 50084
AAXX 28124 16734 NIL
AAXX 28124 16743 NIL
AAXX 28124 16749 12960 02912 10150 20074 30229 40243 57022 60001 333 90730 91118 555 40000 47705 44225 50000 50112
AAXX 28124 16754 12565 70108 10138 20091 30230 40278 57021 60001 87800 333 82820 87635 90730 91112 555 40000 47703 44190 50000 50114
AAXX 28124 91925 06/// /0202 10227 20204 30057 40118 55008 60041 333 10286 58006 60037 90710 91108 555 60005 10615
AAXX 28124 91929 04579 /0314 10271 20233 30104 40107 57017 60001 700// 333 60007 90710 91117 555 60005
AAXX 28124 91938 02470 30708 10262 20196 30112 40114 56016 60001 81201 333 60007 81816 83076 90710 91112 555 60005 10916
AAXX 28124 91943 36/// /0612 10263 20211 30124 40126 56009 333 58003
AAXX 28124 91944 06/// /0418 10268 20213 30135 40138 56010 60021 333 60017 90710 91122 555 60005
AAXX 28124 91948 06/// /0103 10239 20202 30086 40189 56005 60001 333 10280 58012 60007 90710 91107 555 60005 13510
AAXX 28124 91954 06/// /3419 10266 20239 30099 40102 56017 60101 333 10289 59014 60007
AAXX 28124 91958 06/// /0208 10259 20228 30120 40122 58016 69921 333 10274 59010 69927 90710 91127 555 69925 13029
AAXX 28124 91945 NIL
AAXX 28121 26038 21/75 42403 10032 21033 30120 40161 58004 70200 80005 333 10035 20016 60007 80/// 91108 555 1/001 20016 3/101 50034 52101
AAXX 28121 26045 27570 62202 10019 21033 30152 40155 53003 70000 86/// 333 10036 20018 60007 86/31 91109 555 1/100 20018 3/100 50037
AAXX 28121 26058 27581 52705 10027 21024 30138 40146 51008 70000 85/// 333 10035 20025 60007 85/29 91010 91115 555 1/000 20025 3/100 50038 52002
AAXX 28121 26115 27464 42405 10052 20026 30156 40164 58026 70000 84/// 333 10055 20034 60007 84/14 91008 91110 555 1/004 20034 3/100 50051
AAXX 28121 26135 27/81 02603 10016 21035 30097 40173 57006 70000 80/// 333 10025 21004 60007 80/// 555 1/000 21004 3/102 50023 52102
AAXX 28121 26141 21581 32503 10003 21037 30013 40164 50001 70200 82539 333 10015 21008 60007 82627 555 1/000 21008 3/102 50018 52102
AAXX 28121 26231 21683 62404 10033 21018 30166 40181 58011 70211 81208 333 10039 21000 60007 81840 555 1/000 21000 3/100 50032
AAXX 28121 26242 21/82 62403 10018 21041 30093 40181 50000 70312 80004 333 10023 20006 60007 80/// 91109 555 1/000 20006 3/101 50025 52101
AAXX 28121 26247 27/81 /2504 10030 21024 30109 40189 58007 70000 333 10031 20005 60007 555 1/001 20005 3/101 50030
AAXX 28124 47090 32668 33605 10040 21047 30229 40252 56002 83500 333 10068 3/000 41/// 92022
AAXX 28124 47095 11520 82303 11010 21021 30086 40281 55001 60012 77072 8672/ 333 10009 3/101 43001
AAXX 28124 47097 129// /0501 11009 21058 30188 40288 54000 69902 333 10020 3/000
AAXX 28124 47098 129// /2702 11005 21024 30139 40278 56002 69932 333 10013 3/000
AAXX 28124 47099 129// /1601 10005 20003 30243 40281 55001 69902 333 10028 3/000
AAXX 28124 47100 11258 82514 11024 21047 39320 40263 57013 69902 77072 8672/ 333 11005 3/103 49023
AAXX 28124 47102 11630 63605 10027 20009 30102 40284 52007 69902 71022 85500 333 10054 31001
AAXX 28124 47104 32670 22702 10021 21046 30155 40254 51002 82500 333 10075 3/000 42///
AAXX 28124 47106 329// /2502 10032 21047 30203 40253 57006 333 10084 3/101
AAXX 28124 47112 11530 82304 10032 20020 30195 40281 54000 69912 75076 886// 333 10035 3/001 41/// 92011
AAXX 28124 47114 11558 80701 10002 21066 30097 40285 54000 69902 72272 8552/ 333 10015 31101
AAXX 28124 47119 11530 80000 10010 21014 30240 40283 50001 69912 72272 8552/ 333 10035 3/101 43001
AAXX 28124 47121 329// /3403 10006 21044 39981 40283 56001 333 10025 3/101
AAXX 28124 47127 329// /1401 10005 21049 30142 40288 56001 333 10030 3/000
AAXX 28124 47129 11657 72003 10021 21003 30253 40290 50001 69902 72162 87500 333 10056 31001
AAXX 28124 47130 32970 32005 10035 21047 30200 40263 55001 80001 333 10084 30102 92042
AAXX 28124 47131 31658 61602 10003 21053 30214 40287 54000 70522 86500 333 10038 34101
AAXX 28124 47135 329// /3602 11021 21070 39982 40293 52006 333 10044 3/103
AAXX 28124 47136 32962 60001 11011 21066 30104 40282 50002 80001 333 10054 30104
AAXX 28124 47137 329// /0702 11008 21073 30161 40284 50003 333 10061 3/103
AAXX 28124 47140 32961 00001 11005 21024 30265 40295 52004 333 10049 3/000 41/// 92012
AAXX 28124 47143 32961 00001 10016 21079 30211 40292 51006 333 10074 30104
AAXX 28124 47145 31658 80901 10009 21035 30250 40277 57001 70522 8552/ 333 10052 3/000 45///
AAXX 28124 47146 31956 00001 11007 21055 30226 40294 52004 70500 333 10058 34000
AAXX 28124 47150 31658 62301 10002 21028 30268 40288 54000 71022 85500 333 10058 34000
AAXX 28124 47152 32965 22702 10026 21070 30229 40273 50003 80001 333 10084 30102
AAXX 28124 47154 329// /3401 11008 21067 30224 40287 50004 333 10061 3/102
AAXX 28124 47155 32960 01103 10037 21065 30230 40277 50001 333 10073 30101
AAXX 28124 47156 32963 20506 10009 21057 30201 40293 52008 80001 333 10080 34000
AAXX 28124 47157 32960 00001 11024 21073 31000040281 40281 52013 333 10073 30104
AAXX 28124 47162 32962 00504 10023 21049 30235 40276 54000 333 10085 30101 92022
AAXX 28124 47169 32963 00206 10052 21024 30193 40289 52003 333 10055 31002 92032
AAXX 28124 47170 32965 02502 10019 21096 30239 40284 52006 333 10088 30101 92021
AAXX 28124 47171 329// /1104 11008 21059 30239 40296 51003 333 10051 3/101
AAXX 28124 47172 329// /1601 11005 21035 30219 40288 51003 333 10052 3/101
AAXX 28124 47173 329// /0001 11026 21071 30178 40294 52013 333 10074 3/102
AAXX 28124 47174 32962 00001 11024 21080 30077 40288 52010 333 10078 34103
AAXX 28124 47175 32965 03610 11001 21059 39695 40286 52004 333 10069 34101 92023
AAXX 28124 47185 12665 53608 10085 20037 30187 40278 53003 69952 85500 333 10094 31004 92033
AAXX 28124 47188 32670 63203 10061 20021 30251 40273 53002 85500 333 10112 30005 92022
AAXX 28124 47189 32675 53603 10070 20034 30211 40272 53004 85500 333 10109 30004 92022
AAXX 28124 47192 31958 00000 11026 21078 30245 40284 52006 70500 333 10080 30102
BBXX PHAM 28124 99495 70011 41597 62415 10100 20085 40230 57020 7//// 85878 22200 20701 80092 90874
AAXX 28121 14240 11/08 91301 11008 21011 30172 40335 57024 60001 74542 333 70000
AAXX 28121 14258 11/03 93301 11015 21018 30140 40338 57026 60001 74541 333 70000
AAXX 28121 14445 12684 10000 10104 20017 30133 40289 57023 60001 81100 222// 00145 333 70000 81896 92301
AAXX 28124 47101 11512 80001 11020 21028 30188 40288 57002 69962 77177 8672/ 333 11017 3/102 43///
AAXX 28124 47105 369// /2708 10040 21040 30220 40253 56002 333 10076 3/000
AAXX 28124 47108 11620 80502 10009 21005 30172 40281 56001 69932 71022 8652/ 333 10022 3/000 45///
AAXX 28124 47115 32668 62508 10048 21034 39969 40244 57009 85500 333 10062 3/001 49010
AAXX 28124 47133 31956 00001 11008 21054 30203 40291 50002 70510 333 10044 34101
AAXX 28124 47138 32964 22003 10035 21062 30273 40276 50003 80001 333 10090 30002 92032
AAXX 28124 47159 32965 33409 10052 21105 30184 40271 56001 80001 333 10096 30001 92023
AAXX 28124 47165 31959 00204 10006 21028 30239 40287 52003 71000 333 10064 31000 92022
AAXX 28124 47168 32970 02901 10037 21123 30196 40277 52003 333 10070 30000 92021
AAXX 28124 47184 32670 61603 10070 20018 30253 40278 52005 85500 333 10105 30006 92022
AAXX 28121 38353 42597 80801 11004 21028 39363 40288 53012 8653/
AAXX 28121 38613 41596 81501 10008 21012 39386 40312 53010 77377 8802/ 555 1/001
AAXX 28121 38616 41595 80000 11006 21012 39250 40295 52013 71072 886//
AAXX 28121 38345 42999 80000 11039 21101 38829 48517 53019 8802/ 555 14109
AAXX 28121 36911 42998 80000 11016 21045 39290 40283 53013 8802/ 555 1/102
AAXX 28121 36974 416// 80902 11098 21124 37999 48568 57008 70272 886// 555 17108
AAXX 28121 36982 415// 82102 11136 21156 36509 47130 53014 72277 8802/
AAXX 28124 78762 32970 01110 10199 20140 39104 40124 53004 333 10280 20193 30/// 58005
AAXX 28124 78762 32970 01110 10199 20140 39104 40124 53004 333 10280 20193 30/// 58005
AAXX 28124 78762 32970 01110 10199 20140 39104 40124 53004 333 10280 20193 30/// 58005
AAXX 28124 91203 32469 20710 10303 20293 30119 40124 51003 82101 333 562/9 59008 82818 555 92812 91317 11474 60906 10267 20259 30090 40094 5//// 60091 70282 82201 333 562/9 70091 59007 82818 83080 555 92812
BBXX LAHV 28121 99589 10057 43/// /1810 10070 20055 49981 222// 04087 1////
BBXX LF4H 28124 99596 10022 46/// /2131 10079 20036 49891 57037 8//// 22200 06084 10810 70050 333 91143
BBXX LMEL 28121 99603 10053 43/// /1508 10049 20049 49935 5//// 222/0 04091 1//// 3//// 4//// 5////
BBXX 3FZK3 28124 99493 71230 46/// /0603 10091 20091 40050 51018 7//// 8//// 22200 0//// 2////
BBXX 46001 28121 99563 71480 46/// /3109 11012 49848 54000 91150 22200 00045 11104 20503 300// 41102 70018 333 91211 555 11093 22097 31050 43012 61149 304088 310082 306089 308087 313080 317086
BBXX 46026 28121 99378 71228 46/// /3406 10110 40281 50000 91150 22200 00113 11304 20401 327// 41304 70021 333 91208 555 11064 22067 31113 42909 61149 331062 286067 289068 285069 287065 287069
BBXX 46042 28121 99368 71224 46/// /3608 10121 40275 54000 91150 22200 00127 11305 20502 332// 41305 70025 333 91210 555 11085 22090 31144 43510 61149 357080 358078 354079 353075 353068 356067
BBXX A8XD5 28124 99395 71288 41/93 82414 10140 20140 40250 52/// 71085 8//// 22223 04150 20404 322// 40406 80140
BBXX CG2958 28124 99535 71300 46/// /1814 10088 20071 49866 53021 7//// 8//// 22200 0//// 2////
BBXX CG2965 28124 99487 71235 46/// /2428 10129 20073 40044 53013 7//// 8//// 22200 0//// 2////
BBXX CGBR 28124 99509 71277 46/// /0801 10077 20077 49969 53009 7//// 8//// 22200 0//// 2////
BBXX CGBY 28124 99487 71235 46/// /2419 10129 20075 40050 51015 7//// 8//// 22200 0//// 2////
BBXX CGDR 28124 99484 71234 46/// /2311 10108 20106 40065 52014 7//// 8//// 22200 0//// 2////
BBXX CGJK 28124 99484 71234 46/// /2318 10106 20094 40062 51014 7//// 8//// 22200 0//// 2////
BBXX DFGX2 28123 99494 71301 41/97 /2334 10090 20080 49985 55005 76055 8//// 22263 04090 2//// 80085
BBXX WSRL 28123 99391 71242 41598 81613 10115 20110 40265 50020 70262 8//// 22234 00100 2//// 3//// 4//// 5//// 6//// 80110 ICE /////
AAXX 28124 68328 42660 52804 10301 20194 48498 57014 84383
AAXX 28121 26645 42369 82503 10009 21008 39980 40246 58008 886// 333 88709 555 14100
AAXX 28121 26659 42565 12903 10028 21030 30014 40231 51003 81500 333 91110 555 11000
AAXX 28121 26763 42960 02905 10025 21034 39985 40216 52008 333 91113 555 11003
AAXX 28121 26825 42562 62603 10034 20005 30089 40275 58009 86500 333 86623 555 11002
AAXX 28121 26832 42460 62704 10028 21008 30071 40268 58012 86630 333 86716 555 11002
AAXX 28121 26887 42997 13006 10030 21046 30001 40210 52013 80001 333 91010 91115 555 11001
AAXX 28121 26961 42465 22905 10034 21021 30059 40255 52003 82500 333 91110 555 11///
AAXX 28121 33027 42698 22703 10038 20001 30110 40281 58002 82500 555 11004
AAXX 28121 26106 42/97 82404 10036 20002 30170 40213 57014 885//
AAXX 28121 26313 43/// /2403 10041 20012 30185 40192 57022
AAXX 28121 26346 42997 32804 10012 21037 39942 40191 57003 81041
AAXX 28121 26406 42465 72406 10046 20016 30210 40216 57024 87600 333 87719 91010 91110
AAXX 28121 26416 43/// /2404 10029 20004 30071 40213 57023
AAXX 28121 26424 42598 72404 10034 20006 30161 40215 57019 82530
AAXX 28121 26544 42565 52604 10020 21005 30070 40226 57003 82501
AAXX 28124 91203 32469 20710 10303 20293 30119 40124 51003 82101 333 562/9 59008 82818 555 92812 91317 11474 60906 10267 20259 30090 40094 5//// 60091 70282 82201 333 562/9 70091 59007 82818 83080 555 92812
BBXX 61002 28124 99421 10047 46/// ///06 10127 2//// 40302 57020 22200 00137 10501 70006
AAXX 28124 08001 11450 8//// 10115 20082 30280 40363 50007 60001 71022 8652/ 333 92436
AAXX 28124 08015 12970 21904 10098 20054 39955 40367 52012 60001 80001
AAXX 28124 08023 12565 52511 10122 20067 30280 40352 51004 60001 82834
AAXX 28124 08027 12575 83008 10104 20075 30027 40342 51004 60001 885//
AAXX 28124 08045 01570 42105 10090 20059 30055 40373 50003 69901 70241 81105 333 60007
AAXX 28124 08141 11958 11703 10040 21020 39472 40360 58004 60001 70500 80001 333 5///1
AAXX 28124 08160 11958 02810 10070 21002 30026 40344 58008 60001 70500
AAXX 28124 08181 02980 03509 10118 20003 30303 40309 58019 60001 333 60007
AAXX 28124 08221 02974 01102 10081 21007 39646 40345 58011 60001 333 60007
AAXX 28124 08231 12970 03504 10085 21016 39225 48617 58012 60001
AAXX 28124 08261 11940 01502 10100 20042 39881 40372 58001 60001 70544
AAXX 28124 08284 02582 12302 10180 20025 30242 40317 58019 60001 81100 333 60007
AAXX 28124 08306 12580 20808 10155 20070 30295 40301 58015 60001 82800
AAXX 28124 08314 02585 30210 10141 20081 30191 40295 58013 60001 83500 333 60007
AAXX 28124 08430 12570 13105 10168 20060 30250 40325 58008 60001 81140
AAXX 28124 08482 12975 03003 10156 20055 30321 40330 58007 60001
BBXX BATUK01 28124 99560 70032 46/// /2306 10059 20014 49966 56032 22200 00069
AAXX 28124 78906 61004 10233 20207 30178 40183 60032 7808/ 86400 333 10297 20221 58009 70033 86816 90919
AAXX 28124 60106 32565 40411 10136 20061 40320 50001 84200 333 84820
AAXX 28124 60318 32660 50808 10134 20096 40328 50001 85200 333 85833
AAXX 28124 16614 12965 00000 11002 21037 39521 40335 58026 60001 333 90730 91106
AAXX 28124 16627 12960 01012 10072 20007 30311 40315 57022 60001 333 90730 91117 555 30000 10048 20046 30040 40046 50072 6//// 40000 47768 44245 50000 50046
AAXX 28124 16667 12960 03405 10112 20012 30289 40294 57014 60001 333 90730 91110 555 30000 20090 30084 40000 47749 44220 50000 50070
AAXX 28124 16675 NIL
AAXX 28124 16710 36/// /9902 10099 21007 39506 40282 57027 333 90730 91105
AAXX 28124 16723 12960 03618 10122 20038 30259 40275 57020 60001 333 90730 91122 555 40000 47726 44210 50000 50084
AAXX 28124 16738 NIL
AAXX 28124 16746 12560 80608 10118 20082 30090 40275 58023 60001 888// 333 82820 88630 90730 91113 555 40000 47595 44170 50000 50100
AAXX 28124 60621 36/// /0118 10135 20006
AAXX 28121 06414 36/// /2007 10052 20031 30187 40220 58018 60001 333 91114 91209
AAXX 28121 06459 36/// /2005 10047 20044 30052 40249 58024 60001 333 91114 91209
AAXX 28121 06494 36/// /2107 10016 20014 39431 40248 58022 60001 333 91111 91207
AAXX 28124 60612 36/// /0000 10171 21058
AAXX 28121 14241 11/06 91201 11013 21019 30198 40335 58026 60001 74344
AAXX 28121 14284 11630 81601 10003 21002 30229 40343 57021 60001 71042 8357/
AAXX 28121 14307 32980 00702 10120 20000 30214 40291 57021 333 70000
AAXX 28121 14317 12980 82602 10094 21045 30186 40186 57023 60001
AAXX 28121 14431 12580 12302 10126 20065 30197 40291 58022 60001 81101
AAXX 28121 14444 33984 00702 10117 20004 30265 40294 57023 333
AAXX 28121 14474 12580 31602 10117 20045 30101 40293 58021 60001 83500
AAXX 28121 14015 11456 82401 10025 20006 39956 40328 58028 60001 71022 886// 333 88713
AAXX 28121 14023 11295 81401 10016 20006 30023 40330 58031 60001 71022 886// 333 82705 88714
AAXX 28121 14026 11495 81502 10019 20012 39992 40324 58029 60001 71022 886// 333 88710
AAXX 28121 14031 11494 81301 10020 20015 30092 40329 57026 60001 710// 886// 333 88713
AAXX 28121 14106 12999 00901 10122 20028 30220 40289 58022 60001 333 95000
AAXX 28121 14112 12/97 23603 10023 29084 60001
AAXX 28121 14121 12698 82001 10024 20003 30048 40325 57026 60001 885// 333 88637
AAXX 28121 14122 11150 80801 10023 20013 30126 40330 57029 60001 71022 886// 333 82703 88713
AAXX 28124 60645 36/// /0000 10162 21004
AAXX 28124 60619 36/// /0117 10110 20018
AAXX 28124 60663 36/// /0302 10154 21036
AAXX 28124 16643 12960 00604 10122 20008 30291 40296 57025 60001 333 90730 91110 555 40000 47748 44200 50000 50074
AAXX 28124 16648 11958 10000 10072 20007 30220 40313 57020 60001 71000 80001 333 90730 91104 555 30000 10080 2//// 30076 40074 5//// 6//// 40000 47696 44210 50000 50046 70000 77Y// 7/Y//
AAXX 28124 16650 12560 20109 10094 20023 30295 40299 57021 60001 82100 333 90730 91113 555 30000 10090 20086 30078 40080 50094 60124 40000 47752 44215 50000 50064
AAXX 28124 16684 12560 53410 10108 20019 30262 40290 58020 60001 85100 333 90730 91117 555 40000 47725 44190 50000 50070
AAXX 28124 16732 12565 53618 10126 20048 30271 40283 57019 60001 85800 333 82820 84625 90730 91125 555 40000 47728 44150 50000 50090
AAXX 28124 93004 16/// /0749 10176 20176 40047 57016 60161 333 10185
AAXX 28124 93023 16/// /0619 10183 20173 40118 57009 60041 333 10208
AAXX 28124 93069 16/// /0723 10188 20159 40135 57006 60001 333 10206
AAXX 28124 93110 17998 /0617 10187 20152 40137 57008 60001 333 10226
AAXX 28124 93186 17798 /0511 10188 20148 40166 57003 60001 333 10224
AAXX 28124 93196 16/// /0212 10175 20150 40184 54000 60001 333 10212
AAXX 28124 93245 16698 /0806 10141 20115 40174 54000 60001 333 10209
AAXX 28124 93292 17/98 /3403 10148 20109 40174 52004 60001 333 10245
AAXX 28124 93309 17998 /0516 10179 20127 40149 54000 60001 333 10229
AAXX 28124 93334 16/// /0306 10112 20081 39214 57003 60001 333 10196
AAXX 28124 93339 16/// /0318 10107 20080 39219 57001 60001 333 10193
AAXX 28124 93373 17/98 /3208 10165 20095 40151 52002 60001 333 10232
AAXX 28124 93404 17/98 /3602 10149 20129 40150 52001 60001 333 10254
AAXX 28124 93420 17/98 /0502 10160 20117 40144 57001 60001 333 10231
AAXX 28124 93439 17/98 /0113 10179 20124 40132 57004 60001 333 10226
AAXX 28124 93498 NIL
AAXX 28124 93515 17797 /0404 10172 20158 40140 57002 60001 333 10216
AAXX 28124 93527 16/// /2404 10180 20146 40139 57003 60001 333 10228
AAXX 28124 93546 17/98 /1204 10177 20131 40136 57003 60001 333 10220
AAXX 28124 93597 16/// /3316 10171 20127 40115 57003 60001 333 10188
AAXX 28124 93615 17/97 /1503 10158 20146 40141 57001 60001 333 10212
AAXX 28124 93678 16/98 /2409 10169 20103 40106 57007 60001 333 10232
AAXX 28124 93709 16/// /0000 10145 20136 40141 52002 60001 333 10205
AAXX 28124 93773 17/98 /2701 10114 20102 40099 57007 60001 333 10241
AAXX 28124 93781 17998 /0202 10147 20103 40104 57001 60001 333 10263
AAXX 28124 93800 NIL
AAXX 28124 93805 NIL
AAXX 28124 93831 17/99 /1404 10165 20069 40111 52009 60001 333 10255
AAXX 28124 93845 17498 /2509 10142 20119 40102 57001 60001 333 10193
AAXX 28124 93891 17/94 /3201 10116 20108 40098 57002 60001 333 10228
AAXX 28124 93909 16/// /3226 10121 20087 40080 57002 60001
AAXX 28124 93929 16/// /2825 10099 20091 49975 54000 60021
AAXX 28124 93947 16/// /3419 10097 20089 49923 57020 60021
AAXX 28124 93987 16/// /3413 10151 20132 40208 57002 60001 333 10186
AAXX 28124 93994 16/// /1011 10204 20160 40144 54000 60001
AAXX 28121 15502 12570 52702 10070 20003 30297 40337 58007 60001 82506 333 10076 20004 555 562//
AAXX 28121 15525 12962 20501 10043 21012 30057 40331 53016 60001 82030 333 10049 21048 555 568//
AAXX 28121 15528 12969 22901 10046 21011 30118 40313 57016 60001 82030 333 10055 21042 555 566//
AAXX 28121 15535 11940 62503 10043 20000 30276 40324 58014 60001 70511 86050 333 10045 20004 41997 555 574//
AAXX 28121 15549 12570 73401 10017 21017 39905 40337 58014 60001 87530 333 10017 21011 43002 555 578//
AAXX 28121 15552 12568 71401 10086 20023 30275 40325 58003 60001 84542 222// 2//00 333 10088 20022 555 565// 92013 92417
AAXX 28121 15614 11658 80000 11027 21047 39604 40347 57018 60001 71022 888// 333 11024 21040 44006 555 584//
AAXX 28121 15626 12970 40000 11010 21036 30128 40326 58019 60001 82032 333 10000 21104 42003 555 582//
AAXX 28121 15627 11289 21106 11025 21041 37698 47140 58012 60001 70300 81530 333 11020 21025 48018 555 589//
AAXX 28121 15640 11968 60000 10020 21023 30002 40327 58022 60001 70342 86050 333 10042 21070 555 573//
AAXX 28121 15655 11556 62703 10030 20000 30279 40313 58020 60001 71042 86500 222// 00084 20000 333 10031 21030 555 581// 81324 92012 92416
AAXX 28121 15712 12562 83201 10016 21035 30076 40337 58023 60001 885// 333 10018 20004 41998 555 569//
AAXX 28121 15730 11912 20000 10005 21011 39920 40329 58023 60001 71041 82030 333 10007 21065 43007 555 589//
AAXX 28123 04013 42589 50905 11033 21051 40063 57007 82510 555 3//05
AAXX 28123 04064 42688 30509 11022 21096 40064 52022 81245 555 3//13
AAXX 28124 85223 11557 59902 10151 20126 37554 47181 52015 60044 70421 82832 333 20121 31/// 55047 56000 58002 70036 82627 83357 85070
AAXX 28124 85283 11457 70303 10134 20123 37248 47179 52012 60124 71566 86910 333 20120 32011 55115 56100 58002 70121 84610 82917
AAXX 28124 85293 32484 80000 10070 20056 36408 52009 87524 333 20039 30/// 56600 58007 83710 86615 87070
AAXX 28124 85312 32884 70000 10220 20192 38810 52010 87020 333 20178 30/// 55065 56000 59008 87457
AAXX 28124 85345 32584 60000 10310 20239 39658 40118 52008 81206 333 20228 30/// 56000 59022 81827 86070
AAXX 28124 85364 32570 70000 10194 20154 38192 48152 53001 84302 333 20190 30/// 55095 56000 580001 83630 81936 85070
AAXX 28124 85365 32584 71806 10290 20221 39400 40138 52010 84508 333 20242 30/// 56400 59016 84623 87270
AAXX 28124 85394 12584 80000 10227 20217 39700 40138 52007 60024 8452/ 333 20210 31/// 56009 59012 70020 84623 88457
AAXX 28124 17024 12670 22507 10099 20015 30232 40312 55012 60001 82400 333 82635 91119 92438
AAXX 28124 17056 12970 31003 10086 20052 30313 40318 57023 60001 83030 333 83360 91109 92428
AAXX 28124 17067 12970 03401 10071 21003 30289 40310 57025 60001 333 91105 92408
AAXX 28124 17092 12960 01001 10035 21077 38933 48549 57019 60001
AAXX 28124 17112 12662 30211 10084 20030 30303 40306 57024 60001 83500 333 83635 91118 92427
AAXX 28124 17115 11960 00308 10072 20008 30254 40307 57025 60001 70240
AAXX 28124 17116 12965 /1202 10072 21022 30185 40312 57025 60001 333 91114
AAXX 28124 17188 12960 01002 10069 21055 39194 40290 57018 60001 333 91107
AAXX 28124 17202 12970 02904 10062 21045 39228 40282 57015 60001
AAXX 28124 17248 11956 80704 11020 21060 39073 48560 58012 60001 71022 8802/ 333 88460
AAXX 28124 17292 12970 03005 10097 20034 39486 40257 57021 60001 333 91113
AAXX 28124 17300 12960 01706 10144 21003 30165 40238 57021 60001
AAXX 28124 17310 12970 02602 10167 20019 30238 40245 57019 60001 333 91106 92428
AAXX 28124 17330 12970 02906 10126 21046 30229 40247 57021 60001
AAXX 28124 17022 12665 32902 10066 20009 30149 40321 57019 60001 81130 333 81834 83360 91105 92427
AAXX 28124 17031 12970 23406 10098 20011 30300 40307 57016 60001 82030 333 82360
AAXX 28124 17038 12660 49903 10087 20026 30262 40314 55012 60001 83130 333 83835 84360 92427
AAXX 28124 17050 12970 03202 10060 20009 30254 40320 57028 60001
AAXX 28124 17060 12560 30604 10091 20005 30270 40311 57025 60001 83100 333 83830
AAXX 28124 17096 11957 01201 11108 21112 38298 48575 55009 60001 71040
AAXX 28124 17124 12460 71406 11012 21054 39375 40336 57018 60001 87600 333 87719
AAXX 28124 17128 12460 79902 11026 21054 39190 40354 57017 60001 87600 333 87713
AAXX 28124 17170 NIL
AAXX 28124 17195 12570 70000 11025 21059 39069 48567 57013 60001 84570 333 84630 87360
AAXX 28124 17199 12970 00602 10044 21068 39157 40288 57014 60001
AAXX 28124 17219 11940 03614 10095 20009 30127 40278 56027 60001 70500
AAXX 28124 17240 12970 03602 10047 21030 39105 40291 57021 60001 333 91107
AAXX 28124 17244 11458 70405 11011 21055 39090 48565 57013 60001 71022 87600 333 87719
AAXX 28124 17280 12970 00606 10099 21050 39438 40246 57012 60001
AAXX 28124 17350 12960 02103 10144 21030 30162 40242 57018 60001
AAXX 28124 17026 12670 33206 10085 20033 30271 40311 57012 60001 83200 333 83833 91111 92428
AAXX 28124 17034 12670 60103 10087 20018 30268 40315 57013 60001 82130 333 82835 86360 92428
AAXX 28124 17070 11956 01802 10006 21029 39417 40331 57023 69901 70271 333 91104 93100
AAXX 28124 17084 12670 22202 10023 21051 39385 40337 57019 60001 82500 333 82635 91109
AAXX 28124 17090 12665 81003 11039 21078 38802 48559 57015 60001 8552/ 333 85636 88460
AAXX 28124 17098 12960 01801 11085 21116 38245 48564 55010 60001
AAXX 28124 17150 11430 40604 10017 20005 30184 40315 57025 60001 71041 84600 333 84710
AAXX 28124 17160 12670 83603 11019 21065 39120 48565 57015 60001 8452/ 333 84640 88460 91108
AAXX 28124 17184 12970 02601 10094 20008 30175 40290 57030 60001 333 91104
AAXX 28124 17189 11450 71606 11032 21052 39121 48559 57015 60001 71022 87600 333 87711
AAXX 28124 17210 12970 02603 10077 21014 39193 40248 58007 60001
AAXX 28124 17234 12970 02902 10110 20021 30205 40275 57028 60001 333 91108
AAXX 28124 17260 12960 02001 10116 21025 39409 40245 57016 60001
AAXX 28124 17290 12970 03606 10147 20032 30231 40263 57022 60001 333 91115 92428
AAXX 28124 17370 12965 03206 10142 20047 30241 40245 57016 60001 333 92417
AAXX 28121 33088 32597 62703 10036 21002 30100 40296 58014 86200
AAXX 28121 33177 32972 32103 10055 20023 30065 40306 58012 80001
AAXX 28121 33261 32697 22805 10036 21027 30052 40237 52011 82500
AAXX 28121 33275 32497 33009 10036 21017 39991 40218 52010 83500
AAXX 28121 33301 32497 42704 10035 20012 30015 40304 58011 84500
AAXX 28121 33325 32597 22802 10040 21006 30018 40291 58007 81501
AAXX 28121 33377 32597 33106 10039 21010 30059 40256 51003 82101
AAXX 28121 33415 NIL
AAXX 28121 33429 32597 23304 10055 20007 39874 40304 58011 82500
AAXX 28121 33466 NIL
AAXX 28121 33526 /1460 83302 10063 20047 39971 40316 58014 78082 883// 333 84312 555 69931
AAXX 28121 33562 32997 23004 10056 21008 39928 40295 56009 80001
AAXX 28121 33614 32698 32803 10034 20010 30152 40259 52003 82501
AAXX 28121 33761 32998 23303 10080 20011 30064 40289 58007 80001
AAXX 28121 33902 32697 13305 10088 20019 30208 40275 55002 81100
AAXX 28121 33983 /1496 72707 10059 20043 30209 40270 58007 71052 875// 333 87613 555 69901
AAXX 28121 34415 32670 33206 10053 21037 30110 40207 52013 83200
AAXX 28121 34523 32598 53107 10064 21038 30106 40182 52006 85300
AAXX 28121 34712 32572 23207 10073 20001 30141 40227 58002 82200
AAXX 28121 26863 42564 53108 10027 21039 39986 40227 51005 81502 333 91012 91113 555 12002
AAXX 28124 60715 12562 70103 10137 20090 30257 40264 56010 60001 83270 333 59022 50201 83823 85359 91005 91109
AAXX 28124 60723 12570 51002 10129 20099 30083 40274 53007 60001 83282 333 50121 83823
AAXX 28124 60725 12565 52502 10130 2//// 30092 40271 56008 60001 83282 333 50041 83820
AAXX 28124 60735 12560 53002 10130 20091 30179 40162 58014 60001 81282 333 50051 81823 84360
AAXX 28124 60745 12560 60406 10124 20044 39879 40253 56016 60001 86800 333 50471 82823 85630
AAXX 28124 60748 12565 53002 10126 20066 39834 40255 56008 60001 84802 333 50151 82823 83640
AAXX 28124 60750 12558 70304 10151 20053 30231 40256 56016 60001 8323/ 333 5///1 83820 85360
AAXX 28124 60760 12560 50305 10143 20037 30149 40254 56015 60001 84202 333 50231 84830 91008 91111
AAXX 28124 60765 11558 60312 10137 20116 30260 40264 56012 69921 70262 86800 333 83820 84630 92446 925//
AAXX 28124 60767 12460 70310 10137 20081 30107 40252 58011 60001 85802 333 50321 83816 81923 85070
AAXX 28124 60769 12460 70708 10167 20084 30239 40243 58013 60001 85802 333 50141 83816 84623
AAXX 28121 12120 12470 72105 10062 20052 30220 40227 57038 60001 875// 333 93000
AAXX 28121 12250 11223 81501 10054 20053 30168 40258 57033 69911 75154 886// 333 88705 93091
AAXX 28121 12295 12465 62302 10019 20000 30088 40278 58018 60001 86500 333 86610 93000
AAXX 28121 12330 11225 81903 10064 20058 30144 40254 58038 69901 71065 885// 333 93097
AAXX 28121 12375 12460 71702 10058 20044 30144 40277 58029 60001 878// 333 83810 93000
AAXX 28121 12424 11580 61805 10082 20036 30107 40261 56045 69901 70162 83502 333 93097
AAXX 28121 26509 32597 82304 10048 20015 30222 40231 57022 885// 333 88621 91009 91110 555 1/005
AAXX 28121 26518 32570 72505 10031 20007 30022 40230 58024 86802 333 86620 91008 91111 555 1/003
AAXX 28121 26524 32498 82403 10030 20009 30094 40229 58021 885// 333 88619 91006 91109 555 1/001
AAXX 28121 26531 32269 72505 10023 20010 30149 40227 58011 87600 333 87706 91009 91110 555 1/000
AAXX 28121 26629 32470 82504 10030 20012 30153 40251 58020 885// 333 88615 91008 91109 555 1/003
AAXX 28121 26633 32470 72604 10011 21003 30106 40239 58006 87600 333 87713 91008 91108 555 1/001
AAXX 28121 26730 32570 72805 10027 21006 30058 40254 58012 87500 333 91008 91109 555 1/003
AAXX 28121 12105 11463 82005 10066 20046 30183 40226 57036 69901 72152 885// 333 88615 93097
AAXX 28121 12195 12465 72604 10023 20000 30028 40262 58020 60001 875// 333 93000
AAXX 28121 12235 11563 72106 10056 20056 30025 40238 57037 69921 72052 875// 333 93092
AAXX 28121 12270 11323 71601 10023 20022 30083 40270 57030 60001 72842 876// 333 93000
AAXX 28121 12280 12565 32004 10023 21003 30104 40265 57025 60001 82501 333 93000
AAXX 28121 12300 11570 82304 10070 20038 30146 40237 57036 69901 70254 885// 333 91009 91109 93097
AAXX 28121 12400 11570 52004 10075 20032 30004 40241 58043 60001 70342 84201 333 91009 91109 93000
AAXX 28121 12435 11556 81703 10067 20052 30096 40270 57034 69901 71052 875// 333 93097
AAXX 28121 12495 11461 72401 10052 20042 39998 40296 57021 60001 70341 878// 333 93000
AAXX 28121 12530 12566 81805 10063 20031 30072 40275 57043 60001 888// 333 93000
AAXX 28121 12570 11240 82003 10061 20060 39969 40292 57026 69911 71052 885// 333 84704 88628 93091
AAXX 28121 12580 11258 82003 10040 20036 30043 40310 58020 69911 72022 886// 333 88706 93091
AAXX 28121 12160 11/02 91403 10017 20016 30199 40253 58034 69901 74551 333 93097
AAXX 28121 12205 12567 82107 10074 20040 30214 40222 57038 60001 885// 333 93000
AAXX 28121 12465 11358 82004 10065 20053 30040 40277 58029 69901 76162 885// 333 85708 93097
AAXX 28121 12566 11250 81602 10060 20050 39995 40295 57033 60001 71022 875// 333 84706 93000
AAXX 28124 06030 01432 81817 10057 20044 30077 40093 57055 69911 75062 885// 333 69907 82710 87622
AAXX 28124 06060 01230 81912 10055 20048 30039 40104 57052 69911 75865 887// 333 69917 82705 83707 86709 91128
AAXX 28124 06070 07458 82010 10059 20029 30100 40130 57048 69921 71000 333 6///7 81/14 85/18 88/21 91024 91128
AAXX 28124 06120 36459 72016 10059 20040 30119 40145 57043 333 87/15 91028 91133
AAXX 28124 06180 01460 81915 10060 20040 30157 40164 57051 69951 70262 885// 333 69917 82612 88630
AAXX 28124 06193 07126 72213 10056 20054 30178 40189 57043 60011 78185 333 55300 20108 69947 81/03 83/05 85/07 87/28 91125
AAXX 28124 06011 07657 73005 10057 20044 39759 49826 57006 6///1 71011 333 55310 20187 6///7 81/40 87/48 91117
AAXX 28124 71397 11466 81524 10068 20056 39963 49997 57050 69901 76122 887// 333 10050 20029 44997 79999 90921
AAXX 28124 71400 16/64 /0000 11016 21018 60001 333 10036 21033 70000
AAXX 28124 71403 46/// /1621 10061 20050 30060 40080 56030 6///1 333 10052 20047 7////
AAXX 28124 71411 16/// /1525 10082 20073 30002 40014 56051 60001 333 10063 20056 70000
AAXX 28124 71412 16/// /1617 10040 20023 30063 40073 56035 60001 333 10033 20022 70000
AAXX 28124 71421 NIL
AAXX 28124 71430 16/// /2924 11029 21043 39887 49983 53039 60001 333 10059 21030 70122
AAXX 28124 71431 16/// /3214 11074 21112 39910 40006 51048 60001 333 10041 21074 70119
AAXX 28124 71432 16/// /3025 11026 21061 39955 40052 51044 60001 333 10047 21027 70054
AAXX 28124 71433 NIL
AAXX 28124 71435 NIL
AAXX 28124 71441 46/// /1609 11118 21136 39767 40084 57018 6///1 333 11093 21135 7////
AAXX 28124 71443 16/// /2407 11066 21078 39618 40036 56014 60001 333 11109 21117 4/008 70015 555 10010
AAXX 28124 71444 16/// /2502 11093 21100 39283 40052 56019 60001 333 11108 21118 4/016 70006
AAXX 28124 71447 16/// /2004 11111 21119 39520 40075 58006 60001 333 11063 21118 70003
AAXX 28124 71467 17/// /0713 11294 21322 39981 40101 53004 69931 7//4/ 333 11274 21309 4/003 70003
AAXX 28124 71472 NIL
AAXX 28124 71474 16964 02103 11021 21032 38773 49998 51024 60001 333 10006 21031 70000
AAXX 28124 71510 NIL
AAXX 28124 71538 11574 73115 11043 21105 39897 40131 52027 69921 77177 87500 333 10027 21043 42001 70092 90983
AAXX 28124 71600 16959 01417 10056 20038 30129 40135 56019 60001 333 10070 20034 70000
AAXX 28124 71601 NIL
AAXX 28124 71043 12783 60000 11302 21352 39939 40037 58002 69901 77600 85501 333 11239 21336 48033 70018 90962
AAXX 28124 71045 16/// /0604 11128 21144 39050 49910 56010 60001 333 11054 21148 4/030 70000
AAXX 28124 71050 46/// /3302 11094 21105 38898 49969 51024 6///1 333 11013 21097 7////
AAXX 28124 71051 NIL
AAXX 28124 71052 NIL
AAXX 28124 71066 12974 50000 11205 21240 39566 49994 55002 60001 80001 333 11073 21237 44022 70000
AAXX 28124 71068 12974 80000 11094 21116 39295 49988 58018 60001 80002 333 10004 21121 43005 70006
AAXX 28124 71069 16964 01105 11077 21117 39295 49997 58020 60001 333 10023 21091 70000
AAXX 28124 71076 16/// /2504 11090 21097 39573 49966 50000 60001 333 11081 21093 4/039 55/// 20000 70033 555 10040
AAXX 28124 71077 16/// /2502 11092 21105 39475 40016 55002 60001 333 11028 21092 4/016 55/// 20000 70026 555 10020
AAXX 28124 71079 NIL
AAXX 28124 71081 46964 03013 11343 21385 30036 40049 53010 6///1 333 11337 21361 7////
AAXX 28124 71082 NIL
AAXX 28124 71083 11974 03008 11323 21364 30056 40101 55001 69901 70277 333 11267 21329 44054 79999 90963
AAXX 28124 71090 46448 83118 11220 21260 39987 40023 52016 6///1 333 11221 21232 7////
AAXX 28124 71091 460// /3108 11250 39806 40020 53014 6///1 333 7////
AAXX 28124 71092 46964 01905 11261 39329 40010 51018 6///1 333 11195 21261 7////
AAXX 28124 71093 460// ///// 11232 39495 40003 51024 6///1 333 11213 21232 7////
AAXX 28124 71094 46058 /2209 11247 39034 49950 51026 6///1 333 11217 21249 7////
AAXX 28124 71095 46964 01802 11348 21389 39961 40046 53010 6///1 333 11308 21351 7////
AAXX 28124 71101 160// /1606 39817 51014 69951 333 70220
AAXX 28124 71104 11974 01713 10005 21015 38869 49965 51014 69901 70281 333 10006 21032 44028 70016 90952
AAXX 28124 71108 11566 61913 10106 20081 39994 40066 52024 60041 70361 86500 333 10106 20049 70224 90947
AAXX 28124 71109 11574 81405 10070 20056 39952 49978 51012 60081 76166 885// 333 10061 20051 70130 90983
AAXX 28124 71812 NIL
AAXX 28124 71819 15466 81506 10005 21005 30110 40152 51004 60001 333 10012 20001 70030
AAXX 28124 71820 16/// /3015 11033 21057 39860 49974 53041 60001 333 10048 21033 70128
AAXX 28124 71823 16964 30000 11318 21357 39734 40143 58014 60001 333 11074 21365 70000
AAXX 28124 71824 NIL
AAXX 28124 71826 16/// /0000 11246 21291 39986 40031 51031 60001 333 11198 21258 4/014 70000
AAXX 28124 71829 17/// /0309 11002 21006 39753 49912 56052 60151 7//4/ 333 10004 21023 70148
AAXX 28124 71833 46/// /3214 11087 21109 6///1 333 10013 21088 7////
AAXX 28124 71835 16/// /1603 11326 21360 39668 40185 56016 60001 333 11165 21334 4/019 70000
AAXX 28124 71837 NIL
AAXX 28124 71839 NIL
AAXX 28124 71840 NIL
AAXX 28124 71846 16/// /0000 11365 21398 39862 40207 57013 60001 333 11191 21367 4/008 70003
AAXX 28124 71847 NIL
AAXX 28124 71848 NIL
AAXX 28124 71849 NIL
AAXX 28124 71851 16/// /1708 11099 21115 39730 40073 58022 60001 333 11119 21139 70000
AAXX 28124 71857 NIL
AAXX 28124 71860 NIL
AAXX 28124 71876 15966 01804 11105 21130 39384 40054 58016 60001 333 10009 21111 70000
AAXX 28124 71885 NIL
AAXX 28124 71886 NIL
AAXX 28124 71888 NIL
AAXX 28124 71890 17/// /0115 11001 21022 39884 49911 56050 60141 7//4/ 333 10008 21024 4/029 70137 555 10140
AAXX 28124 71895 NIL
AAXX 28124 71900 46/// /23// 11174 21231 30170 40183 53011 6///1 333 11074 21180 7////
AAXX 28124 71903 NIL
AAXX 28124 71904 NIL
AAXX 28124 71914 17/// /3502 10083 20069 39841 40060 53024 69931 7//4/ 333 10072 20064 70138
AAXX 28124 71916 NIL
AAXX 28124 71918 460// ///// 11333 6///1 333 7////
AAXX 28124 71920 NIL
AAXX 28124 71921 NIL
AAXX 28124 71923 NIL
AAXX 28124 71927 NIL
AAXX 28124 71941 17666 83315 11176 21208 39626 40053 53019 69931 7714/ 333 10009 21176 70026
AAXX 28124 71947 15966 63312 11217 21241 39737 40097 53008 60001 333 10008 21217 70003
AAXX 28124 71930 NIL
AAXX 28124 71931 16/// /1807 11011 21020 30152 40164 58009 60001 333 10056 21019 70000
AAXX 28124 71934 11974 00000 11201 21216 39722 49982 50000 69901 70271 333 11064 21202 48028 70030 90953
AAXX 28124 71935 11974 00000 11234 21270 39772 49985 55006 69901 70171 333 11074 21248 47026 70014 90953
AAXX 28124 71936 11574 82705 11164 21190 39695 49958 58003 69901 77177 885// 333 11141 21164 48026 70038 90983
AAXX 28124 71937 NIL
AAXX 28124 71938 NIL
AAXX 28124 71940 12580 81603 11057 21116 39177 49981 57023 60001 885// 333 10014 21120 41997 70000
AAXX 28124 71943 12574 71507 11054 21123 39137 49969 56017 60001 84570 333 10019 21065 41001 70000
AAXX 28124 71944 160// ///// 11077 55006 60001 333 11001 21108 70000
AAXX 28124 71945 12874 40000 11216 21269 39491 49973 57017 60001 84030 333 11141 21222 47013 79999
AAXX 28124 71946 12974 00000 11277 21293 39776 49998 55001 60001 333 11185 21277 48044 70004
AAXX 28124 71948 46048 /0720 11294 39954 40073 55002 6///1 333 11246 21301 7////
AAXX 28124 71949 46/// /1309 11144 21168 39053 49923 56009 6///1 333 11064 21146 7////
AAXX 28124 71951 NIL
AAXX 28124 71957 47559 80000 11215 21280 39933 40024 56005 6///1 745// 333 11208 21222 7////
AAXX 28124 71964 12986 80000 11097 21126 39038 49886 57015 60001 8805/ 333 11051 21110 47019 70000
AAXX 28124 71966 16/// /0000 11277 21308 39489 49963 58007 60001 333 11187 21277 4/051 70000 555 10040
AAXX 28124 71968 460// /0504 11242 39954 40020 58006 6///1 333 11229 21243 7////
AAXX 28124 71350 16/// /1515 10030 20009 39964 40029 58047 60001 333 10025 20016 4/010 70000
AAXX 28124 71351 NIL
AAXX 28124 71352 16/// /3316 11092 21111 39598 40056 53029 60001 333 10012 21092 70084
AAXX 28124 71353 NIL
AAXX 28124 71354 NIL
AAXX 28124 71355 16/// /2803 11329 21363 30022 40111 56001 60001 333 11295 21343 4/011 70000
AAXX 28124 71356 16/// /2703 11332 21367 30024 40094 56005 60001 333 11255 21340 4/006 70000
AAXX 28124 71357 NIL
AAXX 28124 71358 16/// /3117 11219 21243 39985 40021 51016 60001 333 11220 21226 4/044 70006 555 10040
AAXX 28124 71359 NIL
AAXX 28124 71360 NIL
AAXX 28124 71361 NIL
AAXX 28124 71362 NIL
AAXX 28124 71363 NIL
AAXX 28124 71364 NIL
AAXX 28124 71365 NIL
AAXX 28124 71368 17566 83020 11073 21100 39664 40056 53026 60001 771// 333 10014 21073 70098
AAXX 28124 71369 15966 61006 11076 21119 39296 40000 58019 60001 333 10022 21088 70000
AAXX 28124 71370 46/// /2405 10007 20007 39732 49865 53007 6///1 333 10011 21010 7////
AAXX 28124 71371 15366 82417 10013 20004 39857 49890 53012 60001 333 10035 20006 70123
AAXX 28124 71372 NIL
AAXX 28124 71373 16/// /2207 10037 21001 60001 333 10058 20016 70088
AAXX 28124 71374 NIL
AAXX 28124 71375 NIL
AAXX 28124 71376 17/// /2906 11024 21036 39618 49907 53025 60021 7//4/ 333 10011 21024 70090
AAXX 28124 71377 16/// /2512 10008 21003 39844 49892 53011 60001 333 10023 20008 4/003 70143
AAXX 28124 71378 17/// /3305 11009 21019 39663 49868 55001 60071 7//4/ 333 10005 21019 4/019 70140 555 10110
AAXX 28124 71379 17/// /3314 11028 21033 39706 49873 56019 60041 7//4/ 333 10019 21028 70095
AAXX 28124 71380 NIL
AAXX 28124 71381 NIL
AAXX 28124 71382 17/// /1905 10003 21001 38940 49847 56016 60091 7//4/ 333 11023 21048 70170
AAXX 28124 71383 NIL
AAXX 28124 71384 NIL
AAXX 28124 71385 NIL
AAXX 28124 71386 NIL
AAXX 28124 71387 NIL
AAXX 28124 71388 NIL
AAXX 28124 71389 46/// /2103 10020 20015 6///1 333 10021 21007 7////
AAXX 28124 71390 NIL
AAXX 28124 71391 17/// ///// 11077 21099 60021 7//4/ 333 10003 21077 70124
AAXX 28124 71392 NIL
AAXX 28124 71393 NIL
AAXX 28124 71395 NIL
AAXX 28124 71398 15466 63106 11251 21275 30170 40182 55000 60001 333 11069 21251 70000
AAXX 28124 71399 NIL
AAXX 28124 71550 NIL
AAXX 28124 71551 NIL
AAXX 28124 71552 NIL
AAXX 28124 71553 NIL
AAXX 28124 71554 17/// /0607 10011 20009 39881 49887 57043 60131 7//4/ 333 10023 21011 70148
AAXX 28124 71555 NIL
AAXX 28124 71556 16/// /2908 11094 21122 39448 40060 57014 60001 333 11004 21110 4/003 70000 555 10010
AAXX 28124 71557 46/// /2404 10064 20038 6///1 333 10077 20011 7////
AAXX 28124 71558 46/// ///// 10004 21007 30106 40143 51004 6///1 333 10010 20001 7////
AAXX 28124 71559 46/// /2503 11096 21108 39370 40078 57011 6///1 333 11006 21096 55/// 20000 7////
AAXX 28124 71560 16/// /1510 11100 21117 39778 40095 58019 60001 333 11083 21137 70000
AAXX 28124 71563 NIL
AAXX 28124 71564 NIL
AAXX 28124 71565 NIL
AAXX 28124 71566 NIL
AAXX 28124 71567 NIL
AAXX 28124 71568 NIL
AAXX 28124 71569 16/// /2510 11098 21107 39349 40054 58009 60001 333 10007 21111 70003
AAXX 28124 71570 16/// /1508 11132 21166 39784 40107 58026 60001 333 11114 21160 70000
AAXX 28124 71571 NIL
AAXX 28124 71572 NIL
AAXX 28124 71573 16/// /3112 11047 21077 39778 40062 53026 60001 333 10023 21047 4/007 70122 555 10070
AAXX 28124 71574 11248 81509 10029 20025 39888 49960 56052 60021 76162 885// 333 10002 21025 43023 70024 90936
AAXX 28124 71575 16/// /3004 11214 21236 30006 40073 53018 60001 333 11224 21258 4/016 70000
AAXX 28124 71576 16/// /0000 11350 21389 39956 40046 53009 60001 333 11300 21354 4/002 55/// 20000 70000
AAXX 28124 71577 NIL
AAXX 28124 71578 NIL
AAXX 28124 71579 NIL
AAXX 28124 71580 11474 72110 11295 21342 30020 40058 51003 69901 70371 87500 333 11289 21315 48030 79999 90943
AAXX 28124 71581 NIL
AAXX 28124 71582 17458 81811 10081 20072 39889 49941 51012 60081 7614/ 333 10043 20018 70103
AAXX 28124 71583 NIL
AAXX 28124 71584 17128 80914 10005 20002 39974 40021 58051 60001 771// 333 10002 21014 70000
AAXX 28124 71585 NIL
AAXX 28124 71586 16/// /2502 11061 21072 39533 40000 58003 60001 333 11074 21125 4/033 70017 555 10010
AAXX 28124 71587 NIL
AAXX 28124 71588 16/// /1607 10002 21031 60001 333 10045 21001 70000
AAXX 28124 71589 16/// /1603 11031 21031 30042 40176 58009 60001 333 10015 21032 4/006 70000 555 10010
AAXX 28124 71590 17/// /1506 10056 20047 39699 49886 56037 60101 7//4/ 333 10002 21026 4/013 70127
AAXX 28124 71592 NIL
AAXX 28124 71593 NIL
AAXX 28124 71596 NIL
AAXX 28124 71598 17/40 /1313 10025 20015 39980 49986 58040 60021 7//4/ 333 10018 20002 4/005 70023
AAXX 28124 71599 17/// /1609 10066 20066 39805 40005 58050 60011 7//4/ 333 10030 20011 70012
AAXX 28124 71950 17766 81610 11030 21049 39287 49909 56012 60031 7004/ 333 10036 21043 70031
AAXX 28124 71952 17/// /0802 11049 21061 39076 49918 55000 60041 7//4/ 333 10013 21067 70048
AAXX 28124 71954 NIL
AAXX 28124 71956 NIL
AAXX 28124 71959 NIL
AAXX 28124 71960 460// /0616 11257 39907 40044 58003 6///1 333 11244 21276 7////
AAXX 28124 71962 16/// /1208 11157 21200 39703 40143 58030 60001 333 11020 21180 4/003 70487
AAXX 28124 71963 NIL
AAXX 28124 71967 16/// /2211 10023 20014 39794 49897 52011 60001 333 10030 20010 4/004 70134
AAXX 28124 71970 NIL
AAXX 28124 71971 NIL
AAXX 28124 71972 460// /2317 11194 39603 40078 53026 6///1 333 11145 21199 7////
AAXX 28124 71973 46/// /0702 11011 21033 39952 40141 55004 6///1 333 10027 21037 7////
AAXX 28124 71974 NIL
AAXX 28124 71975 460// /2721 11276 39244 49996 53026 6///1 333 11206 21276 7////
AAXX 28124 71976 NIL
AAXX 28124 71977 NIL
AAXX 28124 71978 NIL
AAXX 28124 71979 NIL
AAXX 28124 71980 46/// /0000 11337 21377 6///1 333 11154 21337 4/032 7////
AAXX 28124 71981 NIL
AAXX 28124 71982 NIL
AAXX 28124 71983 NIL
AAXX 28124 71984 16/// /2704 11279 21307 30053 40062 56002 60001 333 11298 21311 70000
AAXX 28124 71985 NIL
AAXX 28124 71986 NIL
AAXX 28124 71987 16/// /1416 10022 20013 39994 40003 58033 60001 333 10018 20009 70000
AAXX 28124 71988 NIL
AAXX 28124 71989 NIL
AAXX 28124 71990 NIL
AAXX 28124 71999 46/// ///// 10026 6///1 333 10090 20024 7////
AAXX 28124 71816 11520 80106 11134 21159 30094 40157 55000 69981 77182 885// 333 11014 21134 47047 55009 70010 90957 93102
AAXX 28124 71817 NIL
AAXX 28124 71818 11320 80405 11081 21114 30157 40175 53008 69921 77122 887// 333 11015 21083 43013 55000 70002 90927
AAXX 28124 71822 11/06 93513 11158 21177 39504 49985 56004 60071 773// 333 10000 21159 47048 70106 90999 93107
AAXX 28124 71825 11/12 90315 11196 21214 39394 40088 58030 60011 77122 333 11039 21199 47094 70032 90942 93101
AAXX 28124 71827 12074 10202 11303 21347 39902 40164 57008 60001 81600 333 11123 21306 47018 79999
AAXX 28124 71828 16964 33603 11256 21295 39473 40148 58015 60001 333 11109 21318 70005
AAXX 28124 71831 11561 22703 11323 21368 39895 40197 50001 69901 77677 82500 333 10019 21324 48042 70010 90973
AAXX 28124 71832 NIL
AAXX 28124 71834 12974 00000 11358 21403 39751 40216 58004 60001 333 11050 21360 48026 79999
AAXX 28124 71841 NIL
AAXX 28124 71842 12974 31406 11239 21284 39677 40177 57019 60001 83070 333 11112 21289 48012 70000
AAXX 28124 71844 NIL
AAXX 28124 71845 13974 21602 11318 21346 39679 40189 57015 60002 80001 333 11165 21336 44020 70000 555 10006 20004 33620 40070
AAXX 28124 71850 NIL
AAXX 28124 71852 16564 81814 11090 21106 39780 40082 58026 60001 333 11111 21147 70000
AAXX 28124 71854 11974 61306 11213 21248 39643 40145 57024 69902 703// 86070 333 11194 21268 48013 79999 90929 555 19999 29999
AAXX 28124 71858 17/// /2005 11112 21128 39749 40036 56027 69931 7//4/ 333 11114 21151 70006
AAXX 28124 71861 NIL
AAXX 28124 71862 12974 32203 11098 21111 39372 40082 57012 60001 80001 333 11007 21099 45001 70020
AAXX 28124 71863 46964 02708 11116 21143 39364 40072 58010 6///1 333 11001 21121 7////
AAXX 28124 71864 NIL
AAXX 28124 71865 16/// /2610 11060 21103 39360 40043 58012 60001 333 11031 21060 70000
AAXX 28124 71866 46964 02307 11119 21153 39437 40059 57012 6///1 333 10002 21121 7////
AAXX 28124 71867 11469 81607 11107 21114 39674 40014 58014 60021 77172 885// 333 11120 21145 47025 70026 90917 93103
AAXX 28124 71868 16/// /2505 11081 21096 39578 40025 56007 60001 333 11084 21126 70007
AAXX 28124 71869 12974 02705 11087 21116 39507 40034 56006 60001 333 11026 21087 47008 70024
AAXX 28124 71871 15966 32407 11087 21134 39226 40037 58019 60001 333 10003 21106 70000
AAXX 28124 71877 12974 20802 11066 21112 38735 49997 58034 60001 80002 333 10075 21072 41997 70000
AAXX 28124 71878 12874 81403 11055 21113 38929 49997 58037 60001 8808/ 333 10033 21127 48008 70000
AAXX 28124 71879 16764 81104 11038 21142 39203 40003 58029 60001 333 10037 21075 70000
AAXX 28124 71880 11274 51210 10015 20006 38959 40054 58006 60031 70177 83570 333 10037 20007 41997 70028 90923 93102
AAXX 28124 71882 160// /3607 10005 20002 39519 40054 55001 60061 333 10025 20005 70070
AAXX 28124 71883 NIL
AAXX 28124 71887 12786 11215 10025 20003 39596 40012 51008 60001 81500 333 10040 20024 79999
AAXX 28124 71889 11574 61819 10058 20018 39646 40060 53010 69941 78082 85570 333 10040 20018 70014 90917
AAXX 28124 71891 16564 81823 10059 20042 39735 40004 53021 60031 333 10084 20021 70045
AAXX 28124 71892 NIL
AAXX 28124 71450 NIL
AAXX 28124 71451 NIL
AAXX 28124 71452 46/// /2704 11090 21099 39354 40072 58014 6///1 333 10000 21106 7////
AAXX 28124 71453 16/// /1401 11012 21028 39120 40026 56039 60001 333 10065 21060 55/// 20000 70000
AAXX 28124 71454 NIL
AAXX 28124 71455 46/// /2207 11091 21102 39256 40055 58022 6///1 333 10030 21100 7////
AAXX 28124 71456 16/// /2810 11079 21122 39437 40039 55003 60001 333 11046 21086 70000
AAXX 28124 71457 16/// /1409 11020 21059 39102 49983 57052 60001 333 10054 21041 4/006 70000
AAXX 28124 71458 16/// /1704 11083 21120 39249 40021 58028 60001 333 10043 21110 4/008 70000
AAXX 28124 71459 16/// /0905 11063 21082 39231 40041 58029 60001 333 10044 21101 70000
AAXX 28124 71460 16/// /3510 11172 21208 39866 40115 52025 60001 333 10047 21173 70000
AAXX 28124 71461 NIL
AAXX 28124 71462 NIL
AAXX 28124 71463 46/// /3022 11041 21098 39836 40061 51044 6///1 333 10067 21041 7////
AAXX 28124 71464 NIL
AAXX 28124 71465 NIL
AAXX 28124 71466 NIL
AAXX 28124 71468 NIL
AAXX 28124 71470 NIL
AAXX 28124 71471 17556 81407 11054 21084 39186 49973 56019 60001 771// 333 10030 21071 70000
AAXX 28124 71473 17/// /2224 10075 20065 30021 40051 51020 69941 7//4/ 333 10071 20063 70096
AAXX 28124 71475 17/// /3602 10029 20026 39942 40035 51009 60031 7//4/ 333 10033 20021 70294
AAXX 28124 71476 NIL
AAXX 28124 71477 NIL
AAXX 28124 71478 NIL
AAXX 28124 71479 NIL
AAXX 28124 71480 NIL
AAXX 28124 71481 NIL
AAXX 28124 71482 NIL
AAXX 28124 71483 NIL
AAXX 28124 71484 NIL
AAXX 28124 71485 17/// /1418 10076 20066 39950 49970 53012 60011 7//4/ 333 10065 20054 70026
AAXX 28124 71486 17/// /1702 11012 21020 38781 49964 56007 69981 7//4/ 333 10023 21029 4/016 70008
AAXX 28124 71487 16/// /2304 11077 21090 39192 40062 58022 60001 333 10023 21079 70003
AAXX 28124 71489 NIL
AAXX 28124 71490 NIL
AAXX 28124 71491 NIL
AAXX 28124 71492 NIL
AAXX 28124 71493 16/// /1015 10046 20026 39979 40017 56046 60001 333 10040 20028 4/001 70000
AAXX 28124 71494 17/// /2508 10016 20013 39370 49878 53006 60021 7//4/ 333 10025 21007 70201
AAXX 28124 71495 NIL
AAXX 28124 71496 16/// /2407 11121 21144 39434 40054 58012 60001 333 10001 21122 55/// 20000 70000
AAXX 28124 71497 46/// /0703 11236 21262 39712 49984 58003 6///1 333 11141 21238 7////
AAXX 28124 71498 NIL
AAXX 28124 71499 15466 82907 11056 21074 39347 49975 50001 60001 333 11093 21110 70000
AAXX 28124 71102 NIL
AAXX 28124 71105 NIL
AAXX 28124 71107 NIL
AAXX 28124 71110 NIL
AAXX 28124 71111 17761 81709 10060 20053 39818 49826 51015 60021 7614/ 333 10047 20031 70219
AAXX 28124 71112 NIL
AAXX 28124 71113 17/// /3204 10102 20086 30030 40053 53017 60101 7//4/ 333 10066 20048 70290
AAXX 28124 71115 NIL
AAXX 28124 71116 16/// /2309 10047 21016 38948 40026 56033 60001 333 10057 20027 70000
AAXX 28124 71118 16/// /1503 11084 21139 39202 40028 56025 60001 333 10032 21100 70000
AAXX 28124 71121 16664 81004 11063 21142 39185 40007 58027 60001 333 10030 21091 70000
AAXX 28124 71127 16/// /1204 11057 21134 39087 49996 58030 60001 333 10022 21073 4/012 70000
AAXX 28124 71130 15966 02411 11077 21100 39566 40027 51001 60001 333 11052 21078 70000
AAXX 28124 71132 17466 80802 11102 21114 39653 49967 55000 69931 7714/ 333 11095 21108 70011
AAXX 28124 71133 NIL
AAXX 28124 71139 NIL
AAXX 28124 71141 NIL
AAXX 28124 71142 15966 81715 11046 21071 39080 40048 58025 60001 333 10030 21084 70000
AAXX 28124 71143 NIL
AAXX 28124 71144 NIL
AAXX 28124 71147 NIL
AAXX 28124 71149 16/// /1104 11100 21114 60001 333 11121 21129 70003
AAXX 28124 71893 11780 61507 10081 20072 39989 40020 53021 69981 78086 83570 333 10077 20056 55000 70174 90937
AAXX 28124 71894 17/// /1920 10096 20092 30025 40034 53021 60021 7//4/ 333 10099 20075 70240
AAXX 28124 71896 17366 60804 11052 21057 39126 49952 53011 60041 70044 333 10013 21073 70035
AAXX 28124 71897 11332 81425 10084 20070 3//// 4//// 52018 60041 75022 887XX 333 10085 20024 70038 90999
AAXX 28124 71898 160// ///// 10056 51028 60021 333 10033 20024 70030
AAXX 28124 71899 11359 82318 10065 20065 3//// 4//// 51004 60071 71062 887XX 333 10037 20018 70112 90913
AAXX 28124 71902 12974 72306 11208 21267 30164 40173 50011 60002 80008 333 11128 21217 43020 79999 555 19999 29999
AAXX 28124 71905 NIL
AAXX 28124 71906 11974 00000 11290 21334 30121 40175 53011 69901 70270 333 11199 21292 44015 79999 90921
AAXX 28124 71907 16520 82407 11216 21257 30102 40136 50002 60001 333 11211 21232 70005
AAXX 28124 71909 16964 02907 11276 21326 30039 40085 53032 60001 333 11230 21287 70000
AAXX 28124 71910 47464 82704 11214 21250 30012 40077 53018 6///1 745// 333 11224 21260 7////
AAXX 28124 71911 46458 81909 11316 30007 40066 53004 6///1 333 11306 21317 7////
AAXX 28124 71912 12974 01604 11241 21289 39917 40111 57019 60001 333 11252 21286 47018 70000
AAXX 28124 71915 11974 03410 11357 21400 39998 40085 51010 69901 77677 333 11315 21373 44041 55/// 79999 90983
AAXX 28124 71917 12974 02203 11327 21392 30055 40069 52001 60001 333 11233 21333 44014 55/// 10369 20000 79999
AAXX 28124 71922 11669 82605 11060 21071 39536 40004 58003 69901 77172 885// 333 11072 21127 47030 70034 90917
AAXX 28124 71924 NIL
AAXX 28124 71925 11974 03211 11373 21414 30037 40081 58002 69901 77677 333 11297 21373 42021 79999 90983
AAXX 28124 71926 11974 00000 11328 21386 30065 40091 58004 69901 77670 333 11253 21345 44042 79999 90973
AAXX 28124 71928 16/// /1311 11056 21126 38824 49986 56034 60001 333 10048 21120 4/008 70000 555 10020
AAXX 28124 71726 17/// /3107 11117 21135 39392 49930 53011 60051 7//4/ 333 11003 21117 4/041 70175 555 10230
AAXX 28124 71727 11682 41112 11007 21018 39670 49864 57034 60051 70277 81570 333 10016 21044 44036 70097 90933
AAXX 28124 71728 11/08 93407 11011 21026 39661 49878 57024 60161 77377 333 10013 21018 44018 70196 90983 93116
AAXX 28124 71730 11674 43518 11209 21228 39669 40109 53031 60011 73677 82570 333 10023 21210 43014 70100 90983
AAXX 28124 71731 11556 83615 11170 21230 39601 40059 53029 69981 77177 885// 333 10012 21171 48016 70138 90983
AAXX 28124 71735 NIL
AAXX 28124 71738 13974 00304 11272 21319 39828 40204 53007 69902 333 10040 21272 44018 70016 90999 555 10022 20016 30429 40181
AAXX 28124 71739 41466 43310 11252 21296 39779 40163 53010 6//// 77177 84500 333 10019 21252 4//// 7//// 90983 93101
AAXX 28124 71749 16364 82404 11214 21254 39947 40207 56014 60001 333 10036 21232 70000
AAXX 28124 71799 11580 52323 10125 20065 30030 40054 52021 69961 70286 83501 333 10081 20071 55000 70243 90927
AAXX 28124 71800 16/// /0412 10002 21018 30140 40173 55008 60001 333 10016 21056 70000
AAXX 28124 71801 12774 61303 11048 21091 30011 40188 56016 60001 86500 333 10009 21086 46005 70000
AAXX 28124 71803 12280 61408 11017 21029 39984 40173 56014 60001 81651 333 10013 21017 46006 70000
AAXX 28124 71807 NIL
AAXX 28124 71808 11458 80906 11003 21006 30098 40145 51007 69921 77122 885// 333 10003 21025 48028 70004 90931
AAXX 28124 71809 12574 70603 11041 21055 30122 40150 58004 60001 81570 333 10034 21062 70000
AAXX 28124 71810 NIL
AAXX 28124 71811 NIL
AAXX 28124 71813 16/// /1311 10014 20010 30051 40064 58025 60001 333 11002 21037 70000
AAXX 28124 71814 16/// /1407 10010 20008 30101 40111 58008 60001 333 10005 21021 70000
AAXX 28124 71815 12474 71211 10006 21017 30108 40139 55004 60001 87500 333 10027 21011 43011 70000
AAXX 28124 71201 17/// ///// 10086 20069 60011 7//4/ 333 10079 20060 70196
AAXX 28124 71202 17/// ///// 11068 21114 69971 7//4/ 333 10045 21110 7////
AAXX 28124 71203 15566 60905 10027 20014 39538 40055 53006 69931 333 10023 20001 70018
AAXX 28124 71209 46/// /2110 10111 6///1 333 10085 20058 7////
AAXX 28124 71211 46/// /1505 10064 20058 30027 40039 52017 6///1 333 10056 20046 7////
AAXX 28124 71212 17/// /1803 10006 20002 39073 49858 56014 60121 7//4/ 333 11022 21048 4/039 70248 555 10150
AAXX 28124 71213 46/// /3315 11202 21232 39804 40117 53025 6///1 333 10022 21202 7////
AAXX 28124 71214 NIL
AAXX 28124 71215 46/// /1503 10053 20025 39731 40073 53009 6///1 333 10037 20015 7////
AAXX 28124 71216 17/// /1405 10008 20003 39444 40058 55010 60091 7//4/ 333 10014 20001 4/017 70140 555 10050
AAXX 28124 71217 NIL
AAXX 28124 71218 17/// /0904 10024 20011 39612 40037 53002 60021 7//4/ 333 10033 20002 4/004 70074 555 10020
AAXX 28124 71219 NIL
AAXX 28124 71220 NIL
AAXX 28124 71221 NIL
AAXX 28124 71222 NIL
AAXX 28124 71223 NIL
AAXX 28124 71224 NIL
AAXX 28124 71225 NIL
AAXX 28124 71226 NIL
AAXX 28124 71227 NIL
AAXX 28124 71228 NIL
AAXX 28124 71229 NIL
AAXX 28124 71230 16/// /1106 11061 21093 39078 49967 56024 60001 333 10010 21091 70000
AAXX 28124 71231 16/// /2112 10042 21030 60001 333 10066 20018 70000
AAXX 28124 71232 16/// /2613 10008 21028 38491 49960 56024 60001 333 10039 21068 70000
AAXX 28124 71233 16/// /1310 11041 21112 60001 333 10044 21087 70000
AAXX 28124 71234 16/// /2416 10070 21030 38807 49966 58036 60001 333 10071 21021 70000
AAXX 28124 71235 16/// /1602 11075 21104 60001 333 10063 21075 70000
AAXX 28124 71236 46/// /3106 10030 21008 6///1 333 10036 20009 7////
AAXX 28124 71237 46/// /1609 11040 21100 39181 49991 58046 6///1 333 10061 21100 7////
AAXX 28124 71238 16/// /1001 11067 21103 60001 333 10040 21104 4/003 70000
AAXX 28124 71239 NIL
AAXX 28124 71240 16/// ///// 11063 21140 39195 40044 57026 60001 333 10068 21099 70000
AAXX 28124 71241 NIL
AAXX 28124 71242 16/// /1607 11057 21111 60001 333 10020 21131 4/001 70000
AAXX 28124 71243 NIL
AAXX 28124 71244 16/// /2007 10036 21008 38804 40011 56028 60001 333 10045 20004 70000
AAXX 28124 71245 NIL
AAXX 28124 71246 NIL
AAXX 28124 71247 17766 81206 10002 21017 39166 40009 56042 60001 761// 333 10068 21009 70000
AAXX 28124 71248 16/// /1504 11059 21114 38684 49976 58037 60001 333 10051 21087 4/015 70000 555 10010
AAXX 28124 71249 NIL
AAXX 28124 71401 NIL
AAXX 28124 71402 NIL
AAXX 28124 71404 NIL
AAXX 28124 71405 NIL
AAXX 28124 71406 NIL
AAXX 28124 71407 NIL
AAXX 28124 71408 NIL
AAXX 28124 71409 NIL
AAXX 28124 71410 17556 81509 11136 21158 39771 40059 58029 69931 771// 333 11154 21190 70003
AAXX 28124 71413 NIL
AAXX 28124 71414 NIL
AAXX 28124 71415 16/// /1717 10049 20027 30042 40045 58039 60001 333 10032 20014 4/002 70000
AAXX 28124 71417 NIL
AAXX 28124 71418 NIL
AAXX 28124 71419 46/// /1515 10052 20041 30102 40112 56023 6///1 333 10042 20019 7////
AAXX 28124 71423 NIL
AAXX 28124 71424 46/// /0809 6///1 333 7////
AAXX 28124 71425 NIL
AAXX 28124 71426 NIL
AAXX 28124 71427 NIL
AAXX 28124 71428 NIL
AAXX 28124 71429 17/// /1620 10017 20009 39982 40001 56048 60041 7//4/ 333 11002 21018 70038
AAXX 28124 71434 NIL
AAXX 28124 71436 17558 83112 11093 21113 39782 40018 53044 60021 7714/ 333 10032 21093 70076
AAXX 28124 71437 46/// /2815 11041 21098 39959 40055 53032 6///1 333 10045 21042 7////
AAXX 28124 71438 NIL
AAXX 28124 71439 NIL
AAXX 28124 71440 NIL
AAXX 28124 71442 NIL
AAXX 28124 71445 NIL
AAXX 28124 71446 16/// /1508 11061 21085 39066 40045 58025 60001 333 10029 21090 70003
AAXX 28124 71448 17/// /1507 11130 21156 39758 40099 58025 60061 7//4/ 333 11117 21163 70219
AAXX 28124 71449 NIL
AAXX 28124 71114 160// /2610 10113 20078 39991 40038 53004 60181 333 10058 20041 70345
AAXX 28124 71120 12974 60000 11098 21146 39373 40035 57009 60001 82071 333 11016 21100 42002 79999
AAXX 28124 71122 47/// /2407 11014 21026 38414 49995 58008 6///1 7//4/ 333 21019 4/015 7////
AAXX 28124 71123 11674 81110 11059 21116 39137 40000 58033 60001 71411 885// 333 10017 21144 44005 70000
AAXX 28124 71125 13874 32409 11094 21126 39441 40029 58009 60002 82071 333 47002 70006
AAXX 28124 71129 12774 71802 11085 21119 39217 40052 56020 60001 87500 333 10037 21107 42001 70004
AAXX 28124 71131 16/// /2003 11032 21050 38782 40032 58032 60001 333 10004 21062 70000
AAXX 28124 71135 16/// /2409 11055 21085 38980 40067 58022 60001 333 10016 21082 4/007 70000
AAXX 28124 71137 NIL
AAXX 28124 71140 11274 82203 11097 21100 39556 40067 5/016 69901 70277 886// 333 11091 21105 46001 70010 90963
AAXX 28124 71145 12974 01407 11214 21259 39810 40120 57032 60001 333 11217 21275 48037 70000
AAXX 28124 71148 NIL
AAXX 28124 71185 16564 61106 10022 30107 40131 58001 60001 333 10025 20019 70000
AAXX 28124 71188 11469 80704 10023 20006 39954 49996 56054 60031 72462 885// 333 10009 21041 43015 55001 70032 90941
AAXX 28124 71200 17/// /2213 10088 20079 60071 7//4/ 333 10073 20062 70212
AAXX 28124 71207 17/// /1410 10077 20077 39961 40024 53007 60101 7//4/ 333 10038 20024 70333
AAXX 28124 71260 13/// ///// 11192 21261 39931 40178 53016 60001 333 10047 21198 46001 70008
AAXX 28124 71250 16/// /3005 11070 21093 30039 40178 56016 60001 333 10009 21096 70000
AAXX 28124 71251 16/// /2011 10029 21017 39082 49992 57045 60001 333 10074 21008 70000
AAXX 28124 71252 NIL
AAXX 28124 71253 46/// /2202 11159 21170 6///1 333 11055 21180 4/020 7//// 555 10010
AAXX 28124 71254 16/// /1308 11059 21122 60001 333 10015 21113 4/004 70000 555 10010
AAXX 28124 71255 16/// /2612 11096 21122 60001 333 11005 21098 4/018 70003 555 10010
AAXX 28124 71256 46/// /0708 11078 21106 39058 49993 56025 6///1 333 10004 21078 7////
AAXX 28124 71257 NIL
AAXX 28124 71258 NIL
AAXX 28124 71259 NIL
AAXX 28124 71261 17/// /3420 11056 21073 39824 40087 53026 69941 7//4/ 333 10035 21059 70090
AAXX 28124 71263 11560 82917 11059 21095 39767 40059 52035 69981 78582 855// 333 10027 21059 4-6003 70076 909/7
AAXX 28124 71264 16/// /1414 10068 20052 30014 40045 57049 60001 333 10051 20042 4/002 70000
AAXX 28124 71265 15966 83020 11051 21111 39952 40046 53041 60001 333 10049 21051 70128
AAXX 28124 71266 NIL
AAXX 28124 71267 15966 82317 10051 21005 38929 40004 56031 60001 333 10064 20007 70000
AAXX 28124 71268 NIL
AAXX 28124 71269 NIL
AAXX 28124 71270 NIL
AAXX 28124 71271 16/// ///// 11073 21128 60001 333 10025 21077 70000
AAXX 28124 71272 17666 31811 11183 21204 39673 40040 58017 60001 771// 333 11205 21275 70000
AAXX 28124 71273 16/// /2103 11088 21143 39362 40024 58010 60001 333 11002 21088 55/// 20000 70000
AAXX 28124 71274 NIL
AAXX 28124 71275 NIL
AAXX 28124 71276 NIL
AAXX 28124 71277 NIL
AAXX 28124 71278 NIL
AAXX 28124 71279 17/// /0813 11006 21009 39905 49970 56058 60081 7//4/ 333 10003 21012 70086
AAXX 28124 71281 NIL
AAXX 28124 71282 46/// /3315 11112 21114 39772 40045 53037 6///1 333 10025 21113 7////
AAXX 28124 71283 NIL
AAXX 28124 71284 16/// ///// 11061 21115 60001 333 10020 21107 70000
AAXX 28124 71285 NIL
AAXX 28124 71286 NIL
AAXX 28124 71287 NIL
AAXX 28124 71288 NIL
AAXX 28124 71289 NIL
AAXX 28124 71290 17428 81503 11070 21078 39129 49959 55013 60001 771// 333 10003 21102 70000
AAXX 28124 71291 16/// /0902 11244 21269 39900 40216 56011 60001 333 10003 21244 4/009 55/// 20000 70000
AAXX 28124 71292 15966 82510 11054 21068 39436 40049 58007 60001 333 11080 21113 70000
AAXX 28124 71294 NIL
AAXX 28124 71295 NIL
AAXX 28124 71296 NIL
AAXX 28124 71297 NIL
AAXX 28124 71298 16/// /3310 11042 21096 39893 40129 51029 60001 333 10030 21042 70075
AAXX 28124 71299 NIL
AAXX 28124 71500 NIL
AAXX 28124 71501 NIL
AAXX 28124 71502 NIL
AAXX 28124 71503 NIL
AAXX 28124 71504 NIL
AAXX 28124 71505 NIL
AAXX 28124 71506 NIL
AAXX 28124 71507 16/// /2106 11126 21145 60001 333 11003 21135 70000
AAXX 28124 71508 16/// ///// 11053 21098 39908 40047 53038 60001 333 10050 21053 70136
AAXX 28124 71509 NIL
AAXX 28124 71511 NIL
AAXX 28124 71512 17/// /0809 10003 20003 30000 40014 58049 60091 7//4/ 333 10007 21011 70099
AAXX 28124 71513 17259 81312 10013 20010 30054 40069 58025 60001 710// 333 11003 21035 70000
AAXX 28124 71514 NIL
AAXX 28124 71515 16/// /2409 11090 21106 39354 40061 58011 60001 333 11026 21090 55/// 20000 70000
AAXX 28124 71516 16/// /2202 11066 21087 60001 333 10034 21082 70000
AAXX 28124 71517 NIL
AAXX 28124 71518 NIL
AAXX 28124 71519 NIL
AAXX 28124 71520 NIL
AAXX 28124 71521 NIL
AAXX 28124 71522 NIL
AAXX 28124 71523 NIL
AAXX 28124 71524 16/// /2309 10010 20001 39868 49894 53012 60001 333 10019 21001 4/003 70190
AAXX 28124 71525 NIL
AAXX 28124 71526 NIL
AAXX 28124 71527 15966 61508 11190 21222 39625 40156 56023 60001 333 11095 21231 70000
AAXX 28124 71528 NIL
AAXX 28124 71529 46/// /2705 11112 21129 39724 49951 52005 6///1 333 11111 21119 4/018 7//// 555 10010
AAXX 28124 71532 17559 83214 11133 21152 39696 40044 53034 60001 771// 333 10018 21133 70008
AAXX 28124 71534 17208 93213 11085 21098 39777 40051 53032 60011 745// 333 10028 21085 70085
AAXX 28124 71535 NIL
AAXX 28124 71536 NIL
AAXX 28124 71537 NIL
AAXX 28124 71539 NIL
AAXX 28124 71540 NIL
AAXX 28124 71541 NIL
AAXX 28124 71542 16/// /1601 11141 21154 60001 333 11049 21170 70000
AAXX 28124 71543 NIL
AAXX 28124 71544 NIL
AAXX 28124 71545 16/// ///// 11075 21122 60001 333 10021 21109 70004
AAXX 28124 71546 NIL
AAXX 28124 71547 NIL
AAXX 28124 71548 NIL
AAXX 28124 71549 NIL
AAXX 28124 71700 17456 81516 10076 20066 39907 49932 56057 60021 7614/ 333 10052 20009 70026
AAXX 28124 71701 11469 81430 10072 20068 39874 49935 57056 60021 76162 887// 333 10057 20036 41997 70084 90923
AAXX 28124 71702 16/// /1623 10041 21002 39987 40002 58037 60001 333 10024 20014 4/013 70000
AAXX 28124 71703 NIL
AAXX 28124 71704 17566 83218 11061 21090 39899 40123 5/034 60001 771//
AAXX 28124 71710 NIL
AAXX 28124 71712 17/// /2615 11003 21017 39856 49916 53026 60011 7//4/ 333 10029 21003 70098
AAXX 28124 71713 NIL
AAXX 28124 71716 NIL
AAXX 28124 71717 NIL
AAXX 28124 71720 NIL
AAXX 28124 71721 NIL
AAXX 28124 71723 NIL
AAXX 28124 71724 NIL
AAXX 28124 71732 NIL
AAXX 28124 71733 16/// /3310 11211 21245 39662 40115 53030 60001 333 10021 21211 4/007 70032
AAXX 28124 71734 NIL
AAXX 28124 71736 NIL
AAXX 28124 71737 NIL
AAXX 28124 71741 16/// /1215 10024 20003 39593 40010 51010 60001 333 10037 20014 70000
AAXX 28124 71742 46/// /1307 11018 21024 39985 40174 56014 6///1 333 10014 21018 7////
AAXX 28124 71743 NIL
AAXX 28124 71744 NIL
AAXX 28124 71745 NIL
AAXX 28124 71746 NIL
AAXX 28124 71747 NIL
AAXX 28124 71748 NIL
AAXX 28124 71051 NIL
AAXX 28124 71055 NIL
AAXX 28124 71057 NIL
AAXX 28124 71059 460// ///// 11288 39988 40083 58003 6///1 333 11243 21319 7////
AAXX 28124 71061 16/// /0602 11071 21103 39213 49995 57022 60001 333 10019 21098 4/004 70000
AAXX 28124 71062 46/// /1412 11035 21099 38893 49955 56038 6///1 333 10018 21095 4/013 7////
AAXX 28124 71064 460// /2502 11326 39853 40081 56003 6///1 333 11301 21345 7////
AAXX 28124 71065 NIL
AAXX 28124 71067 NIL
AAXX 28124 71070 NIL
AAXX 28124 71073 NIL
AAXX 28124 71074 NIL
AAXX 28124 71075 NIL
AAXX 28124 71078 NIL
AAXX 28124 71084 460// ///// 11352 30018 40069 50001 6///1 333 11293 21357 7////
AAXX 28124 71085 15966 12530 10035 21002 38637 49992 56023 60001 333 10043 20007 70000
AAXX 28124 71087 NIL
AAXX 28124 71088 460// /2809 11267 51010 6///1 333 11249 21283 7////
AAXX 28124 71089 NIL
AAXX 28124 71096 460// ///// 11253 39244 49996 53023 6///1 333 11240 21257 7////
AAXX 28124 71097 46964 02916 11228 39557 40047 53021 6///1 333 11197 21230 7////
AAXX 28124 71098 43/// /1203 11255 21295 39760 40143 58025 6///1 333 11222 21306 7////
AAXX 28124 71099 43/// /2407 11317 21364 30151 40173 56006 6///1 333 11282 21318 7////
AAXX 28124 71150 46/// /2305 11087 21095 39365 40056 58012 6///1 333 11097 21110 7////
AAXX 28124 71151 NIL
AAXX 28124 71152 16/// /1711 10031 20009 30144 40157 57006 60001 333 10035 20020 70000
AAXX 28124 71153 16/// /2617 10067 21020 60001 333 10065 20007 70000
AAXX 28124 71154 16/// /2326 10030 21004 60001 333 10049 20022 70000
AAXX 28124 71155 NIL
AAXX 28124 71156 NIL
AAXX 28124 71157 46/// ///// 11041 21122 6///1 333 10034 21073 7////
AAXX 28124 71158 NIL
AAXX 28124 71159 NIL
AAXX 28124 71160 NIL
AAXX 28124 71161 16/// /3114 11056 21078 39803 49950 53039 60001 333 10030 21056 70167
AAXX 28124 71162 NIL
AAXX 28124 71163 46/// /3104 11234 21255 39616 49965 58002 6///1 333 11159 21236 7////
AAXX 28124 71164 NIL
AAXX 28124 71165 NIL
AAXX 28124 71166 NIL
AAXX 28124 71167 15866 80606 11063 21142 38885 49977 56032 60001 333 10012 21111 70000
AAXX 28124 71168 NIL
AAXX 28124 71170 NIL
AAXX 28124 71171 16/// /3316 11035 21074 39950 40048 53037 60001 333 10046 21036 70071
AAXX 28124 71172 17/// ///// 11134 21157 39842 40062 53032 69981 7//4/ 333 10043 21135 4/008 70132 555 10070
AAXX 28124 71175 NIL
AAXX 28124 71176 460// /2327 11267 39381 40096 53027 6///1 333 11213 21273 7////
AAXX 28124 71177 460// /2310 11202 39072 40112 51007 6///1 333 11192 21231 7////
AAXX 28124 71178 16/// /1307 11025 21030 30149 40181 58012 60001 333 10007 21041 55/// 20000 70000
AAXX 28124 71179 460// /0707 11174 39300 40149 52012 6///1 333 11096 21198 7////
AAXX 28124 71180 16/// /1320 10030 20001 30089 40128 56017 60001 333 10028 20004 70000
AAXX 28124 71181 16006 81006 11034 21047 30111 40148 58019 60001 333 10025 21047 70005
AAXX 28124 71183 16/// /2513 39852 53011 60001 333 70140
AAXX 28124 71184 NIL
AAXX 28124 71186 NIL
AAXX 28124 71187 15666 82711 10110 20079 39991 40038 53004 60001 333 10057 20042 70000
AAXX 28124 71189 NIL
AAXX 28124 71190 NIL
AAXX 28124 71191 NIL
AAXX 28124 71192 17116 31603 11053 21053 39309 49965 53019 60021 7104/ 333 10022 21065 70026
AAXX 28124 71193 16/// /3207 11259 21284 39779 40163 53010 60001 333 10014 21260 4/030 70000
AAXX 28124 71196 17/// /3214 11126 21145 39800 40000 51038 69961 7//4/ 333 10008 21126 4/020 70055 555 10140
AAXX 28124 71197 16362 61313 10031 20023 30097 40147 56010 60001 333 10025 20016 70005
AAXX 28124 71198 46/// /2116 10024 20016 6///1 333 10024 20006 7////
AAXX 28124 71199 NIL
AAXX 28124 71604 NIL
AAXX 28124 71605 NIL
AAXX 28124 71611 17/// /2103 10037 20026 60011 7//4/ 333 10061 20005 70094
AAXX 28124 71612 NIL
AAXX 28124 71614 NIL
AAXX 28124 71616 17/// /2209 10027 20021 39766 49884 51011 60011 7//4/ 333 10016 20006 70200
AAXX 28124 71617 17/// /1107 10002 21007 39702 49866 56034 60071 7//4/ 333 10015 21030 70122
AAXX 28124 71618 NIL
AAXX 28124 71619 NIL
AAXX 28124 71622 NIL
AAXX 28124 71632 46/// /1505 11169 21188 39573 40023 56013 6///1 333 11160 21182 4/017 7////
AAXX 28124 71634 17/// /1407 10025 20019 39815 49966 58050 60021 7//4/ 333 10007 21002 4/010 70020
AAXX 28124 71638 NIL
AAXX 28124 71639 11459 83216 11073 21113 39792 40035 53031 69941 77172 8652/ 333 10037 21073 43005 70088 90937 93101
AAXX 28124 71642 13974 03403 11296 21337 39601 40181 50004 60001 333 10004 21297 48022 70030
AAXX 28124 71300 NIL
AAXX 28124 71301 NIL
AAXX 28124 71302 17/// /0803 11051 21055 39136 49950 53010 60041 7//4/ 333 10016 21061 4/023 70043 555 10050
AAXX 28124 71303 46/// ///// 11032 21082 6///1 333 10035 21034 7////
AAXX 28124 71305 15366 82504 11111 21124 39691 49982 57003 60001 333 11024 21111 70005
AAXX 28124 71306 17528 82408 11180 21208 30101 40134 50001 60001 771// 333 11177 21196 70000
AAXX 28124 71307 NIL
AAXX 28124 71308 16/// /1511 10049 20035 30007 40091 56031 60001 333 10031 21002 4/016 70000
AAXX 28124 71309 NIL
AAXX 28124 71310 16/// /1411 10029 20010 30015 40052 56041 60001 333 10018 20006 4/005 70000
AAXX 28124 71311 NIL
AAXX 28124 71312 16/// /2710 11083 21107 39564 40025 52002 60001 333 11053 21083 70008
AAXX 28124 71314 17/// /3316 11122 21150 39684 40039 53032 69931 7//4/ 333 10020 21122 4/020 70085 555 10210
AAXX 28124 71315 17/// /0000 10016 20011 39897 49950 56047 60021 7//4/ 333 11005 21045 4/017 70022
AAXX 28124 71316 16/// /1703 11080 21136 39331 40016 58016 60001 333 10013 21100 70000
AAXX 28124 71317 NIL
AAXX 28124 71318 16/// /1607 11069 21121 39079 40026 58024 60001 333 10049 21134 4/003 70000 555 10010
AAXX 28124 71319 17/// /1904 10005 20005 39018 49859 56023 60161 7//4/ 333 11010 21043 70293
AAXX 28124 71320 16/// /2912 11343 21377 30040 40040 53010 60001 333 11338 21362 4/062 70000
AAXX 28124 71321 NIL
AAXX 28124 71322 NIL
AAXX 28124 71323 17/// /2502 10038 20033 39595 49869 53003 60011 7//4/ 333 10015 21013 70110
AAXX 28124 71331 17/// /0902 11155 21175 60021 7//4/ 333 11134 21158 4/020 55/// 20000 70028 555 10010
AAXX 28124 71332 NIL
AAXX 28124 71334 46/// /1810 11184 21212 39699 40041 58017 6///1 333 11205 21294 7////
AAXX 28124 71335 46964 02509 11208 51014 6///1 333 11170 21217 7////
AAXX 28124 71336 46/// ///02 11010 21022 30143 40165 58011 6///1 333 10019 21022 7////
AAXX 28124 71337 46/// /1607 11015 21019 39917 40157 55002 6///1 333 10029 21017 7////
AAXX 28124 71338 46964 00000 11277 21323 30002 40009 53025 6///1 333 11207 21309 7////
AAXX 28124 71339 16658 63202 11031 21054 30145 40160 53012 60001 333 10005 21036 70010
AAXX 28124 71340 NIL
AAXX 28124 71341 NIL
AAXX 28124 71342 NIL
AAXX 28124 71343 NIL
AAXX 28124 71344 NIL
AAXX 28124 71345 NIL
AAXX 28124 71346 NIL
AAXX 28124 71347 NIL
AAXX 28124 71348 NIL
AAXX 28124 71349 NIL
AAXX 28124 71744 NIL
AAXX 28124 71750 NIL
AAXX 28124 71751 NIL
AAXX 28124 71752 NIL
AAXX 28124 71753 16/// /1411 10048 20032 30027 40056 58035 60001 333 10036 21018 4/005 70000
AAXX 28124 71754 16/// /1803 11127 21158 39381 40052 58016 60001 333 10010 21130 4/001 55/// 20000 70004 555 10020
AAXX 28124 71755 43/// /0000 11312 21358 39795 40166 58018 6///1 333 11226 21341 7////
AAXX 28124 71756 NIL
AAXX 28124 71758 NIL
AAXX 28124 71760 NIL
AAXX 28124 71761 NIL
AAXX 28124 71762 NIL
AAXX 28124 71763 NIL
AAXX 28124 71765 17/// /1821 10058 20035 39732 40002 52021 60011 7//4/ 333 10083 20020 70038
AAXX 28124 71766 16/// /1302 10063 20056 39947 40017 51016 60001 333 10071 20061 70143
AAXX 28124 71767 16/// /3311 11124 21144 39842 40108 53031 60001 333 10041 21124 4/006 70122 555 10060
AAXX 28124 71768 46/// /1206 10048 20022 39518 40061 51020 6///1 333 10036 20006 7////
AAXX 28124 71769 NIL
AAXX 28124 71770 46/// /0802 10011 20009 39314 40084 58006 6///1 333 10022 21001 7////
AAXX 28124 71771 NIL
AAXX 28124 71772 16/// /2009 10095 20064 30020 40026 53020 60001 333 10084 20071 70130
AAXX 28124 71773 16/// /1301 11095 21115 39034 49883 56016 60001 333 11053 21104 4/024 70000
AAXX 28124 71774 46/// ///// 10085 6///1 333 10057 20047 7////
AAXX 28124 71775 46/// /1808 10106 20082 30049 40055 53022 6///1 333 10055 20043 7////
AAXX 28124 71776 46/// /2310 10012 20004 39437 40077 58005 6///1 333 10019 20001 7////
AAXX 28124 71777 NIL
AAXX 28124 71778 NIL
AAXX 28124 71779 17/// /1602 11050 21052 39305 49960 53019 60021 7//4/ 333 10023 21079 4/023 70033 555 10030
AAXX 28124 71780 17/// /2916 10095 20081 30042 40069 51018 60031 7//4/ 333 10085 20065 70326
AAXX 28124 71781 46/// /1310 10112 20064 39995 40019 53022 6///1 333 10079 20068 7////
AAXX 28124 71782 46/// /1708 10012 20009 38726 40037 58005 6///1 333 10027 20005 7////
AAXX 28124 71783 17/// /2105 10099 20089 39991 40064 51016 60041 7//4/ 333 10076 20062 70234
AAXX 28124 71784 NIL
AAXX 28124 71785 17/// /1705 10107 20083 30051 40067 51022 69961 7//4/ 333 10102 20068 70180
AAXX 28124 71786 46/// /2715 11042 21049 38207 40024 58009 6///1 333 11032 21049 7////
AAXX 28124 71787 17/// /1618 10040 20040 39496 49975 56049 60051 7//4/ 333 10023 20017 70067
AAXX 28124 71788 NIL
AAXX 28124 71789 NIL
AAXX 28124 71791 NIL
AAXX 28124 71792 NIL
AAXX 28124 71793 NIL
AAXX 28124 71794 NIL
AAXX 28124 71795 NIL
AAXX 28124 71796 NIL
AAXX 28124 71797 NIL
AAXX 28124 71603 11466 81422 10102 20084 39911 49963 58059 69941 72162 885// 333 10068 20055 70004 90925
AAXX 28124 71607 17/// /1511 10095 20087 39883 49915 56055 60101 7//4/ 333 10063 20008 70100
AAXX 28124 71609 11462 81317 10072 20054 39835 49966 58050 60251 76122 885// 333 10056 20044 70025 90942
AAXX 28124 71610 17566 82103 10035 20028 39599 49888 52011 69951 7004/ 333 10050 20004 70081
AAXX 28124 71621 11462 83016 11055 21086 39891 49997 52048 69901 771// 886// 333 10051 21055 41997 70118 90999
AAXX 28124 71623 NIL
AAXX 28124 71624 11574 63121 11067 21114 39833 40046 53033 69901 70272 82570 333 10035 21067 42001 55000 70076 90963
AAXX 28124 71625 17456 83210 11124 21148 39845 40007 51035 69951 745// 333 10016 21124 70080
AAXX 28124 71627 11374 82516 10011 21007 39851 49895 53011 69901 70262 887// 333 10026 20008 43004 70144 90963
AAXX 28124 71628 11560 82922 11077 21101 39809 49949 52043 60081 77177 82500 333 4-3013 70098 909/7
AAXX 28124 71630 NIL
AAXX 28124 71631 NIL
AAXX 28124 71633 NIL
AAXX 28124 71705 11359 81517 10052 20030 39907 49993 58053 69901 78022 8657/ 333 10041 20027 41001 79999 90910
AAXX 28124 71706 12474 81617 10032 20007 39980 40040 57046 60001 82579 333 10028 20016 42007 70000
AAXX 28124 71707 12266 81607 10023 20010 30043 40120 58024 60001 887// 333 10008 21022 44005 70000
AAXX 28124 71709 13574 81616 10035 20009 30061 40074 55030 60002 81572 333 10027 20020 42004 70000 555 10000 20000
AAXX 28124 71711 NIL
AAXX 28124 71714 17/// /0902 10010 20005 39804 49894 53003 60061 7//4/ 333 10010 21009 4/017 70213 555 10040
AAXX 28124 71715 17/// /0206 10009 20005 39691 49868 56038 60101 7//4/ 333 10033 21014 4/004 70160 555 10040
AAXX 28124 71718 11348 80510 10004 20004 39835 49899 57036 60041 76176 887// 333 10026 21015 43004 70046 90973 93102
AAXX 28124 71719 17/// /1417 10015 20008 39992 49998 58052 60031 7//4/ 333 10015 21010 4/004 70026
AAXX 28124 71001 15966 83003 11205 21228 38919 49891 58009 60001 333 11062 21224 70000
AAXX 28124 71002 17424 80510 11175 21200 39569 40127 58018 69931 771// 333 11053 21195 70006
AAXX 28124 71003 469// ///// 6///1
AAXX 28124 71005 16/// ///// 11089 21128 60001 333 10026 21114 70000
AAXX 28124 71006 NIL
AAXX 28124 71007 NIL
AAXX 28124 71008 NIL
AAXX 28124 71009 NIL
AAXX 28124 71010 NIL
AAXX 28124 71011 NIL
AAXX 28124 71012 NIL
AAXX 28124 71013 NIL
AAXX 28124 71014 NIL
AAXX 28124 71015 NIL
AAXX 28124 71016 NIL
AAXX 28124 71017 NIL
AAXX 28124 71018 NIL
AAXX 28124 71019 NIL
AAXX 28124 71020 NIL
AAXX 28124 71021 NIL
AAXX 28124 71022 17566 81415 10050 20035 39799 49842 51030 60021 7614/ 333 10032 20022 70031
AAXX 28124 71023 NIL
AAXX 28124 71024 16/// /2001 11220 21237 60001 333 11067 21222 4/015 70000
AAXX 28124 71026 NIL
AAXX 28124 71027 16/// /1803 10022 20015 30098 40108 58023 60001 333 10046 21021 4/005 70008
AAXX 28124 71028 17/// /1510 10025 20017 38946 49965 51024 69991 7//4/ 333 10054 21024 4/005 70064 555 10040
AAXX 28124 71029 NIL
AAXX 28124 71030 17/32 /1620 10095 20087 39841 49928 56055 60051 7//4/ 333 10069 20062 70049
AAXX 28124 71032 46/// /3201 10008 20004 39230 40057 51016 6///1 333 10002 21012 4/016 7//// 555 10040
AAXX 28124 71033 46/// /3007 11060 21076 39347 49977 51001 6///1 333 11098 21117 4/024 55/// 20000 7//// 555 10040
AAXX 28124 71035 NIL
AAXX 28124 71036 15466 82411 11058 21075 39662 40042 56025 60001 333 11099 21104 70003
AAXX 28124 71039 46/// /0000 11218 6///1 333 11045 21235 7////
AAXX 28124 71040 46/// /0904 11008 21017 39662 49857 56031 6///1 333 10022 21036 7////
AAXX 28124 71041 15266 81409 10040 20036 39962 40104 56027 60001 333 10018 21004 70000
AAXX 28124 71042 16/// /1604 10094 20081 30048 40052 51024 60001 333 10085 20057 70194
AAXX 28124 71044 16/// /0312 11254 21297 39668 49996 58007 60001 333 11226 21254 4/016 70000 555 10010
AAXX 28124 71046 460// /1015 11233 30007 40025 58011 6///1 333 11234 21245 7////
AAXX 28124 71047 16/// ///// 11078 21132 60001 333 10022 21097 70000
AAXX 28124 71048 NIL
AAXX 28124 71049 NIL
AAXX 28124 71060 NIL
AAXX 28124 71063 NIL
AAXX 28124 71665 16/// /2506 11211 21266 30158 40168 50012 60001 333 11134 21218 4/034 70000
AAXX 28124 71666 16/// /1413 10048 20025 39938 49982 56058 60001 333 10039 20023 4/002 70000
AAXX 28124 71667 NIL
AAXX 28124 71668 17/// /1415 10068 20056 39888 49931 57053 60021 7//4/ 333 10041 20004 70028
AAXX 28124 71669 NIL
AAXX 28124 71670 16/// ///// 10019 20017 60001 333 10018 21001 70005
AAXX 28124 71671 16/// /1511 10070 20049 39950 40009 56045 60001 333 10047 20025 70000
AAXX 28124 71672 17/// /3007 11091 21122 39745 40010 53040 69931 7//4/ 333 10043 21091 4/009 70109 555 10090
AAXX 28124 71673 NIL
AAXX 28124 71674 NIL
AAXX 28124 71675 15966 01804 11303 21330 39882 40181 56015 60001 333 11247 21314 70000
AAXX 28124 71679 17/// /0603 11060 21066 38908 49911 53004 69931 7//4/ 333 10025 21060 4/004 70003 555 10040
AAXX 28124 71680 NIL
AAXX 28124 71681 46/// /1901 11015 21021 6///1 333 10023 21020 7////
AAXX 28124 71682 NIL
AAXX 28124 71683 NIL
AAXX 28124 71684 15866 63216 11202 21237 39803 40116 53027 60001 333 10019 21202 70011
AAXX 28124 71685 17356 83507 10006 20006 39517 40053 55001 60051 7614/ 333 10024 20004 70060
AAXX 28124 71686 469// /0603 11118 21131 38940 49887 56026 6///1 333 11012 21136
AAXX 28124 71687 17/// /1803 10036 20031 39239 40011 51010 60041 7//4/ 333 10019 20001 4/037 70149 555 10090
AAXX 28124 71688 NIL
AAXX 28124 71689 15966 02508 11101 21118 39546 40001 58004 60001 333 11006 21101 70016
AAXX 28124 71690 NIL
AAXX 28124 71691 17232 80716 10001 20000 39886 49913 56050 60001 771// 333 10009 21025 70000
AAXX 28124 71692 NIL
AAXX 28124 71694 16/// /3107 11136 21161 39692 40059 53031 60001 333 10020 21136 4/014 70069 555 10090
AAXX 28124 71695 17/// /1607 11106 21123 39671 40010 58013 60021 7//4/ 333 11119 21143 4/023 70015 555 10010
AAXX 28124 71696 NIL
AAXX 28124 71697 17566 83215 11083 21117 39859 40031 53040 60001 771// 333 10042 21083 70125
AAXX 28124 71699 16/// /1532 10089 20078 39927 49934 56065 60001 333 10075 20069 70008
AAXX 28124 17042 3//// /2901 10090 20029 30279 40321 5//// 60001
AAXX 28124 17074 11957 00103 10017 21027 39348 40329 57018 60001 71011 333 91109
AAXX 28124 17086 12970 33003 10052 21052 39567 40303 57020 60001 83050 333 83360
AAXX 28124 17088 12970 00000 10018 21069 38860 48548 57024 60001
AAXX 28124 17140 12665 22303 11010 21056 38780 48555 57015 60001 82100 333 82840
AAXX 28124 17155 11659 70702 11019 21049 39160 40342 57018 60001 71022 84550 333 84635 87359 91107
AAXX 28124 17203 12970 00000 10072 21098 38930 48574 57014 60001
AAXX 28124 17237 12970 00801 10087 20002 39761 40280 57025 60001 333 91104
AAXX 28124 17250 12675 80506 11039 21072 38889 48563 57012 60001 8452/ 333 84640 88460
AAXX 28124 17270 12970 00402 10122 21041 39582 40238 57012 60001
AAXX 28124 17295 12560 12106 10161 20042 30236 40243 57023 60001 81100 333 81830
AAXX 28124 17320 12670 31704 10159 20066 30236 40241 57021 60001 83200 333 83835 92428
AAXX 28124 17375 12970 01603 10162 20077 30238 40240 57022 60001 333 91107 92418
AAXX 28124 17500 12560 23107 10167 20074 30194 40254 57022 60001 82100 333 82825
AAXX 28124 17501 12560 22908 10155 20062 30221 40240 57022 60001 82100 333 82830 92427
AAXX 28124 17505 12560 20904 10162 20077 30137 40250 57022 60001 82100 333 82830
AAXX 28124 17507 12560 23106 10157 20060 30142 40262 57021 60001 82100 333 82825
AAXX 28124 17510 12560 10000 10164 20067 30210 40220 57020 60001 81100 333 81830 92417
AAXX 28124 17515 12560 20903 10159 20046 30080 40252 57025 60001 82100 333 82830
AAXX 28124 17521 12560 13003 10159 20049 30096 40238 57023 60001 81100 333 81830
AAXX 28124 17530 12560 20000 10162 20062 30191 40248 57025 60001 82100 333 82830
AAXX 28124 17535 12560 21104 10147 20068 30195 40231 57024 60001 82100 333 82830
AAXX 28124 17540 12560 20803 10151 20052 30235 40259 57023 60001 82100 333 82830 92417
AAXX 28124 17547 12560 23406 10124 20052 39997 40243 57019 60001 82100 333 82830 92437
AAXX 28124 17550 12560 23504 10136 20042 30095 40241 57020 60001 82100 333 82830 92427
AAXX 28124 17572 12560 1//// 10151 20065 30230 40255 57019 60001 81100 333 81830 92417
AAXX 28124 60710 12565 42704 10139 20067 30178 40258 56001 60001 82202 333 50091 82820 83070
AAXX 28124 60714 12470 51502 1//// 2//// 30269 40275 58015 60001 82282 333 50151 82816 83360
AAXX 28124 60720 11560 62202 10170 20119 30224 40258 56009 60041 70382 86800 333 50121 84820 83630
AAXX 28124 60728 12562 51904 10149 20143 30170 40264 58012 60001 85800 333 5//// 82823 84626
AAXX 28124 60729 12562 63004 10124 20103 30086 40275 57014 60001 84502 333 50111 84626 83070
AAXX 28124 60731 NIL
AAXX 28124 60732 12565 50000 10118 20050 39644 40256 55005 60001 85800 333 50111 84820
AAXX 28124 60734 12562 61002 10111 20095 39729 40255 58017 60001 81282 333 50031 81823 84360
AAXX 28124 60738 12558 4//// 10070 20055 38994 48562 52006 60001 84200 333 50161 84823
AAXX 28124 60739 12660 40302 10107 20050 39426 40253 58013 60001 84202 333 50101 84833 94249
AAXX 28124 60740 12460 30000 10145 20081 30258 40260 58012 60001 81880 333 50101 81816
AAXX 28124 60742 NIL
AAXX 28124 60764 12562 60208 10145 20063 30199 40251 58014 60001 86800 333 50421 84830 83633
AAXX 28124 60770 12560 70802 10161 20113 30107 40245 57022 60001 85202 333 50101 85826 83070
AAXX 28124 60772 12565 60506 10142 20114 39988 40244 56015 60001 85802 333 5///1 82826 84630
AAXX 28124 60775 12556 70904 10122 20085 39886 40244 56015 60001 878// 333 5///1 84823 84626
AAXX 28124 60780 12960 61402 10125 20065 39940 40249 57009 60001 86800 333 5///1 83826 84633
AAXX 28124 08055 12988 62610 10094 21016 39265 48622 58004 60001 80005 333 5///0 95000
AAXX 28124 08075 12981 03001 10064 20009 39290 48616 58004 60001 333 5///1
AAXX 28124 08084 02965 02807 10098 20010 39903 40343 58013 60001 333 60007
AAXX 28124 08171 11/02 92101 10004 20004 30105 40359 58004 60001 74544 333 89/06
AAXX 28124 08184 02980 01802 10125 20047 30141 40298 58021 60001 333 60007
AAXX 28124 08202 02962 11706 10087 20009 39410 42936 58010 60001 80001 333 5///0 60007
AAXX 28124 08235 NIL
AAXX 28124 08238 12960 00209 10136 20049 30247 40308 58015 60001
AAXX 28124 08280 12580 13005 10089 20018 39498 40334 58005 60001 81500
AAXX 28124 08330 NIL
AAXX 28124 08348 12968 01002 10078 20027 39604 40359 58001 60001
AAXX 28124 08360 02681 33003 10162 20044 30276 40313 58012 60001 82130 333 60007
AAXX 28124 08373 02675 20410 10158 20092 30282 40304 58013 60001 82400 333 60007
AAXX 28124 08410 02982 00805 10135 20028 30227 40339 58003 60001 333 60007
AAXX 28124 08419 02980 03301 10098 20004 39650 40331 58008 60001 333 60007
AAXX 28124 08451 02380 13508 10164 20078 30299 40332 50002 60001 81100 333 60007
AAXX 28124 08487 02584 31006 10183 20033 30285 40310 58011 60001 81571 333 60007
AAXX 28124 81225 12470 30906 10264 20235 40160 60024 82832 333 56299 58004 82810
AAXX 28124 81200 12470 21106 10274 20233 40155 60024 82833 333 56299 58002 82815
AAXX 28124 81202 11470 31205 10260 20243 40159 60044 725// 83802 333 20238 56209 58005 83815
AAXX 28124 81209 12465 70000 10254 20237 4//// 60194 87832 333 56299 5//// 83812 86620
AAXX 28124 81251 NIL
AAXX 28124 65306 31958 50610 10324 20068 39791 40120 70522 80002 333 0//00 59010 85076
AAXX 28124 65319 32958 50000 10337 20071 39608 40115 80002 333 0//00 59007 85076
AAXX 28124 65330 31920 50804 10330 20064 39672 40103 70522 80002 333 0//00 59011 85076
AAXX 28124 65335 32956 50804 10317 20162 39891 40113 80002 333 0//00 58002 85076
AAXX 28124 65344 32458 72208 10310 20260 30102 40113 82802 333 0//00 59002 81613 85076 94908 95837
AAXX 28124 48380 31958 00000 10252 20189 30045 40139 52012 70500 333 10307 59022
AAXX 28121 13160 32697 72502 10037 20011 30226 40338 57023 87500
AAXX 28121 13262 32998 00000 10042 21015 30185 40339 57028
AAXX 28121 13272 31212 81701 10019 20004 30220 40345 57020 71022 886// 333 88704
AAXX 28121 13285 31596 82702 10021 20012 30237 40344 57019 71022 886//
AAXX 28121 13289 11993 03103 11014 21018 39079 48561 58012 69921 74244 333 91119
AAXX 28121 13376 31695 8//// 11001 21022 30082 40358 57020 71022 885//
AAXX 28121 13388 31696 80000 10011 21019 30089 40348 57020 71022 885//
AAXX 28121 13462 32970 00000 10097 21033 30261 40301 57029
AAXX 28121 13473 NIL
AAXX 28121 13489 31495 50803 10009 21029 39798 40339 58023 71022 85600
AAXX 28124 71864 NIL
AAXX 28124 71865 16/// /2610 11060 21103 39360 40043 58012 60001 333 11031 21060 70000
AAXX 28124 71866 46964 02307 11119 21153 39437 40059 57012 6///1 333 10002 21121 7////
AAXX 28124 71867 11469 81607 11107 21114 39674 40014 58014 60021 77172 885// 333 11120 21145 47025 70026 90917 93103
AAXX 28124 71868 16/// /2505 11081 21096 39578 40025 56007 60001 333 11084 21126 70007
AAXX 28124 71869 12974 02705 11087 21116 39507 40034 56006 60001 333 11026 21087 47008 70024
AAXX 28124 71871 15966 32407 11087 21134 39226 40037 58019 60001 333 10003 21106 70000
AAXX 28124 71877 12974 20802 11066 21112 38735 49997 58034 60001 80002 333 10075 21072 41997 70000
AAXX 28124 71878 12874 81403 11055 21113 38929 49997 58037 60001 8808/ 333 10033 21127 48008 70000
AAXX 28124 71879 16764 81104 11038 21142 39203 40003 58029 60001 333 10037 21075 70000
AAXX 28124 71880 11274 51210 10015 20006 38959 40054 58006 60031 70177 83570 333 10037 20007 41997 70028 90923 93102
AAXX 28124 71882 160// /3607 10005 20002 39519 40054 55001 60061 333 10025 20005 70070
AAXX 28124 71883 NIL
AAXX 28124 71887 12786 11215 10025 20003 39596 40012 51008 60001 81500 333 10040 20024 79999
AAXX 28124 71889 11574 61819 10058 20018 39646 40060 53010 69941 78082 85570 333 10040 20018 70014 90917
AAXX 28124 71891 16564 81823 10059 20042 39735 40004 53021 60031 333 10084 20021 70045
AAXX 28124 71892 NIL
AAXX 28124 71930 NIL
AAXX 28124 71931 16/// /1807 11011 21020 30152 40164 58009 60001 333 10056 21019 70000
AAXX 28124 71934 11974 00000 11201 21216 39722 49982 50000 69901 70271 333 11064 21202 48028 70030 90953
AAXX 28124 71935 11974 00000 11234 21270 39772 49985 55006 69901 70171 333 11074 21248 47026 70014 90953
AAXX 28124 71936 11574 82705 11164 21190 39695 49958 58003 69901 77177 885// 333 11141 21164 48026 70038 90983
AAXX 28124 71937 NIL
AAXX 28124 71938 NIL
AAXX 28124 71940 12580 81603 11057 21116 39177 49981 57023 60001 885// 333 10014 21120 41997 70000
AAXX 28124 71943 12574 71507 11054 21123 39137 49969 56017 60001 84570 333 10019 21065 41001 70000
AAXX 28124 71944 160// ///// 11077 55006 60001 333 11001 21108 70000
AAXX 28124 71945 12874 40000 11216 21269 39491 49973 57017 60001 84030 333 11141 21222 47013 79999
AAXX 28124 71946 12974 00000 11277 21293 39776 49998 55001 60001 333 11185 21277 48044 70004
AAXX 28124 71948 46048 /0720 11294 39954 40073 55002 6///1 333 11246 21301 7////
AAXX 28124 71949 46/// /1309 11144 21168 39053 49923 56009 6///1 333 11064 21146 7////
AAXX 28124 71951 NIL
AAXX 28124 71957 47559 80000 11215 21280 39933 40024 56005 6///1 745// 333 11208 21222 7////
AAXX 28124 71964 12986 80000 11097 21126 39038 49886 57015 60001 8805/ 333 11051 21110 47019 70000
AAXX 28124 71966 16/// /0000 11277 21308 39489 49963 58007 60001 333 11187 21277 4/051 70000 555 10040
AAXX 28124 71968 460// /0504 11242 39954 40020 58006 6///1 333 11229 21243 7////
AAXX 28124 71726 17/// /3107 11117 21135 39392 49930 53011 60051 7//4/ 333 11003 21117 4/041 70175 555 10230
AAXX 28124 71727 11682 41112 11007 21018 39670 49864 57034 60051 70277 81570 333 10016 21044 44036 70097 90933
AAXX 28124 71728 11/08 93407 11011 21026 39661 49878 57024 60161 77377 333 10013 21018 44018 70196 90983 93116
AAXX 28124 71730 11674 43518 11209 21228 39669 40109 53031 60011 73677 82570 333 10023 21210 43014 70100 90983
AAXX 28124 71731 11556 83615 11170 21230 39601 40059 53029 69981 77177 885// 333 10012 21171 48016 70138 90983
AAXX 28124 71735 NIL
AAXX 28124 71738 13974 00304 11272 21319 39828 40204 53007 69902 333 10040 21272 44018 70016 90999 555 10022 20016 30429 40181
AAXX 28124 71739 41466 43310 11252 21296 39779 40163 53010 6//// 77177 84500 333 10019 21252 4//// 7//// 90983 93101
AAXX 28124 71749 16364 82404 11214 21254 39947 40207 56014 60001 333 10036 21232 70000
AAXX 28124 71799 11580 52323 10125 20065 30030 40054 52021 69961 70286 83501 333 10081 20071 55000 70243 90927
AAXX 28124 71800 16/// /0412 10002 21018 30140 40173 55008 60001 333 10016 21056 70000
AAXX 28124 71801 12774 61303 11048 21091 30011 40188 56016 60001 86500 333 10009 21086 46005 70000
AAXX 28124 71803 12280 61408 11017 21029 39984 40173 56014 60001 81651 333 10013 21017 46006 70000
AAXX 28124 71807 NIL
AAXX 28124 71808 11458 80906 11003 21006 30098 40145 51007 69921 77122 885// 333 10003 21025 48028 70004 90931
AAXX 28124 71809 12574 70603 11041 21055 30122 40150 58004 60001 81570 333 10034 21062 70000
AAXX 28124 71810 NIL
AAXX 28124 71811 NIL
AAXX 28124 71813 16/// /1311 10014 20010 30051 40064 58025 60001 333 11002 21037 70000
AAXX 28124 71814 16/// /1407 10010 20008 30101 40111 58008 60001 333 10005 21021 70000
AAXX 28124 71815 12474 71211 10006 21017 30108 40139 55004 60001 87500 333 10027 21011 43011 70000
AAXX 28124 71893 11780 61507 10081 20072 39989 40020 53021 69981 78086 83570 333 10077 20056 55000 70174 90937
AAXX 28124 71894 17/// /1920 10096 20092 30025 40034 53021 60021 7//4/ 333 10099 20075 70240
AAXX 28124 71896 17366 60804 11052 21057 39126 49952 53011 60041 70044 333 10013 21073 70035
AAXX 28124 71897 11332 81425 10084 20070 3//// 4//// 52018 60041 75022 887XX 333 10085 20024 70038 90999
AAXX 28124 71898 160// ///// 10056 51028 60021 333 10033 20024 70030
AAXX 28124 71899 11359 82318 10065 20065 3//// 4//// 51004 60071 71062 887XX 333 10037 20018 70112 90913
AAXX 28124 71902 12974 72306 11208 21267 30164 40173 50011 60002 80008 333 11128 21217 43020 79999 555 19999 29999
AAXX 28124 71905 NIL
AAXX 28124 71906 11974 00000 11290 21334 30121 40175 53011 69901 70270 333 11199 21292 44015 79999 90921
AAXX 28124 71907 16520 82407 11216 21257 30102 40136 50002 60001 333 11211 21232 70005
AAXX 28124 71909 16964 02907 11276 21326 30039 40085 53032 60001 333 11230 21287 70000
AAXX 28124 71910 47464 82704 11214 21250 30012 40077 53018 6///1 745// 333 11224 21260 7////
AAXX 28124 71911 46458 81909 11316 30007 40066 53004 6///1 333 11306 21317 7////
AAXX 28124 71912 12974 01604 11241 21289 39917 40111 57019 60001 333 11252 21286 47018 70000
AAXX 28124 71915 11974 03410 11357 21400 39998 40085 51010 69901 77677 333 11315 21373 44041 55/// 79999 90983
AAXX 28124 71917 12974 02203 11327 21392 30055 40069 52001 60001 333 11233 21333 44014 55/// 10369 20000 79999
AAXX 28124 71922 11669 82605 11060 21071 39536 40004 58003 69901 77172 885// 333 11072 21127 47030 70034 90917
AAXX 28124 71924 NIL
AAXX 28124 71925 11974 03211 11373 21414 30037 40081 58002 69901 77677 333 11297 21373 42021 79999 90983
AAXX 28124 71926 11974 00000 11328 21386 30065 40091 58004 69901 77670 333 11253 21345 44042 79999 90973
AAXX 28124 71928 16/// /1311 11056 21126 38824 49986 56034 60001 333 10048 21120 4/008 70000 555 10020
AAXX 28124 71816 11520 80106 11134 21159 30094 40157 55000 69981 77182 885// 333 11014 21134 47047 55009 70010 90957 93102
AAXX 28124 71817 NIL
AAXX 28124 71818 11320 80405 11081 21114 30157 40175 53008 69921 77122 887// 333 11015 21083 43013 55000 70002 90927
AAXX 28124 71822 11/06 93513 11158 21177 39504 49985 56004 60071 773// 333 10000 21159 47048 70106 90999 93107
AAXX 28124 71825 11/12 90315 11196 21214 39394 40088 58030 60011 77122 333 11039 21199 47094 70032 90942 93101
AAXX 28124 71827 12074 10202 11303 21347 39902 40164 57008 60001 81600 333 11123 21306 47018 79999
AAXX 28124 71828 16964 33603 11256 21295 39473 40148 58015 60001 333 11109 21318 70005
AAXX 28124 71831 11561 22703 11323 21368 39895 40197 50001 69901 77677 82500 333 10019 21324 48042 70010 90973
AAXX 28124 71832 NIL
AAXX 28124 71834 12974 00000 11358 21403 39751 40216 58004 60001 333 11050 21360 48026 79999
AAXX 28124 71841 NIL
AAXX 28124 71842 12974 31406 11239 21284 39677 40177 57019 60001 83070 333 11112 21289 48012 70000
AAXX 28124 71844 NIL
AAXX 28124 71845 13974 21602 11318 21346 39679 40189 57015 60002 80001 333 11165 21336 44020 70000 555 10006 20004 33620 40070
AAXX 28124 71850 NIL
AAXX 28124 71852 16564 81814 11090 21106 39780 40082 58026 60001 333 11111 21147 70000
AAXX 28124 71854 11974 61306 11213 21248 39643 40145 57024 69902 703// 86070 333 11194 21268 48013 79999 90929 555 19999 29999
AAXX 28124 71858 17/// /2005 11112 21128 39749 40036 56027 69931 7//4/ 333 11114 21151 70006
AAXX 28124 71861 NIL
AAXX 28124 71862 12974 32203 11098 21111 39372 40082 57012 60001 80001 333 11007 21099 45001 70020
AAXX 28124 71863 46964 02708 11116 21143 39364 40072 58010 6///1 333 11001 21121 7////
AAXX 28124 71043 12783 60000 11302 21352 39939 40037 58002 69901 77600 85501 333 11239 21336 48033 70018 90962
AAXX 28124 71045 16/// /0604 11128 21144 39050 49910 56010 60001 333 11054 21148 4/030 70000
AAXX 28124 71050 46/// /3302 11094 21105 38898 49969 51024 6///1 333 11013 21097 7////
AAXX 28124 71051 NIL
AAXX 28124 71052 NIL
AAXX 28124 71066 12974 50000 11205 21240 39566 49994 55002 60001 80001 333 11073 21237 44022 70000
AAXX 28124 71068 12974 80000 11094 21116 39295 49988 58018 60001 80002 333 10004 21121 43005 70006
AAXX 28124 71069 16964 01105 11077 21117 39295 49997 58020 60001 333 10023 21091 70000
AAXX 28124 71076 16/// /2504 11090 21097 39573 49966 50000 60001 333 11081 21093 4/039 55/// 20000 70033 555 10040
AAXX 28124 71077 16/// /2502 11092 21105 39475 40016 55002 60001 333 11028 21092 4/016 55/// 20000 70026 555 10020
AAXX 28124 71079 NIL
AAXX 28124 71081 46964 03013 11343 21385 30036 40049 53010 6///1 333 11337 21361 7////
AAXX 28124 71082 NIL
AAXX 28124 71083 11974 03008 11323 21364 30056 40101 55001 69901 70277 333 11267 21329 44054 79999 90963
AAXX 28124 71090 46448 83118 11220 21260 39987 40023 52016 6///1 333 11221 21232 7////
AAXX 28124 71091 460// /3108 11250 39806 40020 53014 6///1 333 7////
AAXX 28124 71092 46964 01905 11261 39329 40010 51018 6///1 333 11195 21261 7////
AAXX 28124 71093 460// ///// 11232 39495 40003 51024 6///1 333 11213 21232 7////
AAXX 28124 71094 46058 /2209 11247 39034 49950 51026 6///1 333 11217 21249 7////
AAXX 28124 71095 46964 01802 11348 21389 39961 40046 53010 6///1 333 11308 21351 7////
AAXX 28124 71101 160// /1606 39817 51014 69951 333 70220
AAXX 28124 71104 11974 01713 10005 21015 38869 49965 51014 69901 70281 333 10006 21032 44028 70016 90952
AAXX 28124 71108 11566 61913 10106 20081 39994 40066 52024 60041 70361 86500 333 10106 20049 70224 90947
AAXX 28124 71109 11574 81405 10070 20056 39952 49978 51012 60081 76166 885// 333 10061 20051 70130 90983
AAXX 28124 71397 11466 81524 10068 20056 39963 49997 57050 69901 76122 887// 333 10050 20029 44997 79999 90921
AAXX 28124 71400 16/64 /0000 11016 21018 60001 333 10036 21033 70000
AAXX 28124 71403 46/// /1621 10061 20050 30060 40080 56030 6///1 333 10052 20047 7////
AAXX 28124 71411 16/// /1525 10082 20073 30002 40014 56051 60001 333 10063 20056 70000
AAXX 28124 71412 16/// /1617 10040 20023 30063 40073 56035 60001 333 10033 20022 70000
AAXX 28124 71421 NIL
AAXX 28124 71430 16/// /2924 11029 21043 39887 49983 53039 60001 333 10059 21030 70122
AAXX 28124 71431 16/// /3214 11074 21112 39910 40006 51048 60001 333 10041 21074 70119
AAXX 28124 71432 16/// /3025 11026 21061 39955 40052 51044 60001 333 10047 21027 70054
AAXX 28124 71433 NIL
AAXX 28124 71435 NIL
AAXX 28124 71441 46/// /1609 11118 21136 39767 40084 57018 6///1 333 11093 21135 7////
AAXX 28124 71443 16/// /2407 11066 21078 39618 40036 56014 60001 333 11109 21117 4/008 70015 555 10010
AAXX 28124 71444 16/// /2502 11093 21100 39283 40052 56019 60001 333 11108 21118 4/016 70006
AAXX 28124 71447 16/// /2004 11111 21119 39520 40075 58006 60001 333 11063 21118 70003
AAXX 28124 71467 17/// /0713 11294 21322 39981 40101 53004 69931 7//4/ 333 11274 21309 4/003 70003
AAXX 28124 71472 NIL
AAXX 28124 71474 16964 02103 11021 21032 38773 49998 51024 60001 333 10006 21031 70000
AAXX 28124 71510 NIL
AAXX 28124 71538 11574 73115 11043 21105 39897 40131 52027 69921 77177 87500 333 10027 21043 42001 70092 90983
AAXX 28124 71600 16959 01417 10056 20038 30129 40135 56019 60001 333 10070 20034 70000
AAXX 28124 71601 NIL
AAXX 28124 71043 12783 60000 11302 21352 39939 40037 58002 69901 77600 85501 333 11239 21336 48033 70018 90962
AAXX 28124 71045 16/// /0604 11128 21144 39050 49910 56010 60001 333 11054 21148 4/030 70000
AAXX 28124 71050 46/// /3302 11094 21105 38898 49969 51024 6///1 333 11013 21097 7////
AAXX 28124 71051 NIL
AAXX 28124 71052 NIL
AAXX 28124 71066 12974 50000 11205 21240 39566 49994 55002 60001 80001 333 11073 21237 44022 70000
AAXX 28124 71068 12974 80000 11094 21116 39295 49988 58018 60001 80002 333 10004 21121 43005 70006
AAXX 28124 71069 16964 01105 11077 21117 39295 49997 58020 60001 333 10023 21091 70000
AAXX 28124 71076 16/// /2504 11090 21097 39573 49966 50000 60001 333 11081 21093 4/039 55/// 20000 70033 555 10040
AAXX 28124 71077 16/// /2502 11092 21105 39475 40016 55002 60001 333 11028 21092 4/016 55/// 20000 70026 555 10020
AAXX 28124 71079 NIL
AAXX 28124 71081 46964 03013 11343 21385 30036 40049 53010 6///1 333 11337 21361 7////
AAXX 28124 71082 NIL
AAXX 28124 71083 11974 03008 11323 21364 30056 40101 55001 69901 70277 333 11267 21329 44054 79999 90963
AAXX 28124 71090 46448 83118 11220 21260 39987 40023 52016 6///1 333 11221 21232 7////
AAXX 28124 71091 460// /3108 11250 39806 40020 53014 6///1 333 7////
AAXX 28124 71092 46964 01905 11261 39329 40010 51018 6///1 333 11195 21261 7////
AAXX 28124 71093 460// ///// 11232 39495 40003 51024 6///1 333 11213 21232 7////
AAXX 28124 71094 46058 /2209 11247 39034 49950 51026 6///1 333 11217 21249 7////
AAXX 28124 71095 46964 01802 11348 21389 39961 40046 53010 6///1 333 11308 21351 7////
AAXX 28124 71101 160// /1606 39817 51014 69951 333 70220
AAXX 28124 71104 11974 01713 10005 21015 38869 49965 51014 69901 70281 333 10006 21032 44028 70016 90952
AAXX 28124 71108 11566 61913 10106 20081 39994 40066 52024 60041 70361 86500 333 10106 20049 70224 90947
AAXX 28124 71109 11574 81405 10070 20056 39952 49978 51012 60081 76166 885// 333 10061 20051 70130 90983
AAXX 28124 71930 NIL
AAXX 28124 71931 16/// /1807 11011 21020 30152 40164 58009 60001 333 10056 21019 70000
AAXX 28124 71934 11974 00000 11201 21216 39722 49982 50000 69901 70271 333 11064 21202 48028 70030 90953
AAXX 28124 71935 11974 00000 11234 21270 39772 49985 55006 69901 70171 333 11074 21248 47026 70014 90953
AAXX 28124 71936 11574 82705 11164 21190 39695 49958 58003 69901 77177 885// 333 11141 21164 48026 70038 90983
AAXX 28124 71937 NIL
AAXX 28124 71938 NIL
AAXX 28124 71940 12580 81603 11057 21116 39177 49981 57023 60001 885// 333 10014 21120 41997 70000
AAXX 28124 71943 12574 71507 11054 21123 39137 49969 56017 60001 84570 333 10019 21065 41001 70000
AAXX 28124 71944 160// ///// 11077 55006 60001 333 11001 21108 70000
AAXX 28124 71945 12874 40000 11216 21269 39491 49973 57017 60001 84030 333 11141 21222 47013 79999
AAXX 28124 71946 12974 00000 11277 21293 39776 49998 55001 60001 333 11185 21277 48044 70004
AAXX 28124 71948 46048 /0720 11294 39954 40073 55002 6///1 333 11246 21301 7////
AAXX 28124 71949 46/// /1309 11144 21168 39053 49923 56009 6///1 333 11064 21146 7////
AAXX 28124 71951 NIL
AAXX 28124 71957 47559 80000 11215 21280 39933 40024 56005 6///1 745// 333 11208 21222 7////
AAXX 28124 71964 12986 80000 11097 21126 39038 49886 57015 60001 8805/ 333 11051 21110 47019 70000
AAXX 28124 71966 16/// /0000 11277 21308 39489 49963 58007 60001 333 11187 21277 4/051 70000 555 10040
AAXX 28124 71968 460// /0504 11242 39954 40020 58006 6///1 333 11229 21243 7////
AAXX 28124 71864 NIL
AAXX 28124 71865 16/// /2610 11060 21103 39360 40043 58012 60001 333 11031 21060 70000
AAXX 28124 71866 46964 02307 11119 21153 39437 40059 57012 6///1 333 10002 21121 7////
AAXX 28124 71867 11469 81607 11107 21114 39674 40014 58014 60021 77172 885// 333 11120 21145 47025 70026 90917 93103
AAXX 28124 71868 16/// /2505 11081 21096 39578 40025 56007 60001 333 11084 21126 70007
AAXX 28124 71869 12974 02705 11087 21116 39507 40034 56006 60001 333 11026 21087 47008 70024
AAXX 28124 71871 15966 32407 11087 21134 39226 40037 58019 60001 333 10003 21106 70000
AAXX 28124 71877 12974 20802 11066 21112 38735 49997 58034 60001 80002 333 10075 21072 41997 70000
AAXX 28124 71878 12874 81403 11055 21113 38929 49997 58037 60001 8808/ 333 10033 21127 48008 70000
AAXX 28124 71879 16764 81104 11038 21142 39203 40003 58029 60001 333 10037 21075 70000
AAXX 28124 71880 11274 51210 10015 20006 38959 40054 58006 60031 70177 83570 333 10037 20007 41997 70028 90923 93102
AAXX 28124 71882 160// /3607 10005 20002 39519 40054 55001 60061 333 10025 20005 70070
AAXX 28124 71883 NIL
AAXX 28124 71887 12786 11215 10025 20003 39596 40012 51008 60001 81500 333 10040 20024 79999
AAXX 28124 71889 11574 61819 10058 20018 39646 40060 53010 69941 78082 85570 333 10040 20018 70014 90917
AAXX 28124 71891 16564 81823 10059 20042 39735 40004 53021 60031 333 10084 20021 70045
AAXX 28124 71892 NIL
AAXX 28124 71726 17/// /3107 11117 21135 39392 49930 53011 60051 7//4/ 333 11003 21117 4/041 70175 555 10230
AAXX 28124 71727 11682 41112 11007 21018 39670 49864 57034 60051 70277 81570 333 10016 21044 44036 70097 90933
AAXX 28124 71728 11/08 93407 11011 21026 39661 49878 57024 60161 77377 333 10013 21018 44018 70196 90983 93116
AAXX 28124 71730 11674 43518 11209 21228 39669 40109 53031 60011 73677 82570 333 10023 21210 43014 70100 90983
AAXX 28124 71731 11556 83615 11170 21230 39601 40059 53029 69981 77177 885// 333 10012 21171 48016 70138 90983
AAXX 28124 71735 NIL
AAXX 28124 71738 13974 00304 11272 21319 39828 40204 53007 69902 333 10040 21272 44018 70016 90999 555 10022 20016 30429 40181
AAXX 28124 71739 41466 43310 11252 21296 39779 40163 53010 6//// 77177 84500 333 10019 21252 4//// 7//// 90983 93101
AAXX 28124 71749 16364 82404 11214 21254 39947 40207 56014 60001 333 10036 21232 70000
AAXX 28124 71799 11580 52323 10125 20065 30030 40054 52021 69961 70286 83501 333 10081 20071 55000 70243 90927
AAXX 28124 71800 16/// /0412 10002 21018 30140 40173 55008 60001 333 10016 21056 70000
AAXX 28124 71801 12774 61303 11048 21091 30011 40188 56016 60001 86500 333 10009 21086 46005 70000
AAXX 28124 71803 12280 61408 11017 21029 39984 40173 56014 60001 81651 333 10013 21017 46006 70000
AAXX 28124 71807 NIL
AAXX 28124 71808 11458 80906 11003 21006 30098 40145 51007 69921 77122 885// 333 10003 21025 48028 70004 90931
AAXX 28124 71809 12574 70603 11041 21055 30122 40150 58004 60001 81570 333 10034 21062 70000
AAXX 28124 71810 NIL
AAXX 28124 71811 NIL
AAXX 28124 71813 16/// /1311 10014 20010 30051 40064 58025 60001 333 11002 21037 70000
AAXX 28124 71814 16/// /1407 10010 20008 30101 40111 58008 60001 333 10005 21021 70000
AAXX 28124 71815 12474 71211 10006 21017 30108 40139 55004 60001 87500 333 10027 21011 43011 70000
AAXX 28124 71603 11466 81422 10102 20084 39911 49963 58059 69941 72162 885// 333 10068 20055 70004 90925
AAXX 28124 71607 17/// /1511 10095 20087 39883 49915 56055 60101 7//4/ 333 10063 20008 70100
AAXX 28124 71609 11462 81317 10072 20054 39835 49966 58050 60251 76122 885// 333 10056 20044 70025 90942
AAXX 28124 71610 17566 82103 10035 20028 39599 49888 52011 69951 7004/ 333 10050 20004 70081
AAXX 28124 71621 11462 83016 11055 21086 39891 49997 52048 69901 771// 886// 333 10051 21055 41997 70118 90999
AAXX 28124 71623 NIL
AAXX 28124 71624 11574 63121 11067 21114 39833 40046 53033 69901 70272 82570 333 10035 21067 42001 55000 70076 90963
AAXX 28124 71625 17456 83210 11124 21148 39845 40007 51035 69951 745// 333 10016 21124 70080
AAXX 28124 71627 11374 82516 10011 21007 39851 49895 53011 69901 70262 887// 333 10026 20008 43004 70144 90963
AAXX 28124 71628 11560 82922 11077 21101 39809 49949 52043 60081 77177 82500 333 4-3013 70098 909/7
AAXX 28124 71630 NIL
AAXX 28124 71631 NIL
AAXX 28124 71633 NIL
AAXX 28124 71705 11359 81517 10052 20030 39907 49993 58053 69901 78022 8657/ 333 10041 20027 41001 79999 90910
AAXX 28124 71706 12474 81617 10032 20007 39980 40040 57046 60001 82579 333 10028 20016 42007 70000
AAXX 28124 71707 12266 81607 10023 20010 30043 40120 58024 60001 887// 333 10008 21022 44005 70000
AAXX 28124 71709 13574 81616 10035 20009 30061 40074 55030 60002 81572 333 10027 20020 42004 70000 555 10000 20000
AAXX 28124 71711 NIL
AAXX 28124 71714 17/// /0902 10010 20005 39804 49894 53003 60061 7//4/ 333 10010 21009 4/017 70213 555 10040
AAXX 28124 71715 17/// /0206 10009 20005 39691 49868 56038 60101 7//4/ 333 10033 21014 4/004 70160 555 10040
AAXX 28124 71718 11348 80510 10004 20004 39835 49899 57036 60041 76176 887// 333 10026 21015 43004 70046 90973 93102
AAXX 28124 71719 17/// /1417 10015 20008 39992 49998 58052 60031 7//4/ 333 10015 21010 4/004 70026
AAXX 28124 71114 160// /2610 10113 20078 39991 40038 53004 60181 333 10058 20041 70345
AAXX 28124 71120 12974 60000 11098 21146 39373 40035 57009 60001 82071 333 11016 21100 42002 79999
AAXX 28124 71122 47/// /2407 11014 21026 38414 49995 58008 6///1 7//4/ 333 21019 4/015 7////
AAXX 28124 71123 11674 81110 11059 21116 39137 40000 58033 60001 71411 885// 333 10017 21144 44005 70000
AAXX 28124 71125 13874 32409 11094 21126 39441 40029 58009 60002 82071 333 47002 70006
AAXX 28124 71129 12774 71802 11085 21119 39217 40052 56020 60001 87500 333 10037 21107 42001 70004
AAXX 28124 71131 16/// /2003 11032 21050 38782 40032 58032 60001 333 10004 21062 70000
AAXX 28124 71135 16/// /2409 11055 21085 38980 40067 58022 60001 333 10016 21082 4/007 70000
AAXX 28124 71137 NIL
AAXX 28124 71140 11274 82203 11097 21100 39556 40067 5/016 69901 70277 886// 333 11091 21105 46001 70010 90963
AAXX 28124 71145 12974 01407 11214 21259 39810 40120 57032 60001 333 11217 21275 48037 70000
AAXX 28124 71148 NIL
AAXX 28124 71185 16564 61106 10022 30107 40131 58001 60001 333 10025 20019 70000
AAXX 28124 71188 11469 80704 10023 20006 39954 49996 56054 60031 72462 885// 333 10009 21041 43015 55001 70032 90941
AAXX 28124 71200 17/// /2213 10088 20079 60071 7//4/ 333 10073 20062 70212
AAXX 28124 71207 17/// /1410 10077 20077 39961 40024 53007 60101 7//4/ 333 10038 20024 70333
AAXX 28124 71260 13/// ///// 11192 21261 39931 40178 53016 60001 333 10047 21198 46001 70008
AAXX 28124 48571 32560 60000 10270 20226 30102 40114 52016 82136 333 10302 59008
AAXX 28124 48453 32960 20000 10289 20199 30116 40119 52010 80005 333 10320 59019
AAXX 28124 60020 12570 80102 10197 20115 30263 40308 50002 60001 88500 333 92427
AAXX 28124 60030 02670 50215 10202 20106 30231 40287 50001 60001 85800 333 60007 92428
AAXX 28124 60040 02580 60116 10209 20099 30267 40292 58002 60001 868// 333 60007 92428
AAXX 28124 60338 12582 20903 10144 20093 30254 40320 51004 60001 82500 333 92438
AAXX 28121 01262 46/// /1210 10034 21005 333 91112
AAXX 28121 01393 16/// /1303 11026 21048 39232 40040 58056 6//// 333 91107
AAXX 28121 01015 46/// /2107 10022 21006 333 91115
AAXX 28121 01180 11680 22202 11018 21046 39937 49994 50001 60001 70100 81140 333 91109
AAXX 28121 01450 16/// /1608 11011 21024 38857 49996 58072 69951 333 91114
AAXX 28121 01277 16/// /0703 10009 21023 60001 333 91106
AAXX 28121 01476 16/// /2013 10068 20058 30025 40031 58070 6//// 333 91118
AAXX 28121 01488 16/// /2601 10023 20018 60021 333 4/009 91102
AAXX 28124 81225 12470 30906 10264 20235 40160 60024 82832 333 56299 58004 82810
AAXX 28124 81200 12470 21106 10274 20233 40155 60024 82833 333 56299 58002 82815
AAXX 28124 81202 11470 31205 10260 20243 40159 60044 725// 83802 333 20238 56209 58005 83815
AAXX 28124 81209 12465 70000 10254 20237 4//// 60194 87832 333 56299 5//// 83812 86620
AAXX 28124 81251 NIL
AAXX 28124 91643 11498 83408 10284 20241 40093 58002 60001 71401 8327/ 333 10320 5689/ 83819 88361
AAXX 28124 91648 11498 72515 10264 20243 40091 69921 71482 8337/ 333 10306 5669/
AAXX 28121 13168 11697 82702 10029 20017 30237 40348 58021 69901 70252 885//
AAXX 28121 13174 11595 82502 10035 20028 30233 40337 57019 69911 71052 886//
AAXX 28121 13269 31596 40702 10026 20002 30121 40344 57025 71022 84800
AAXX 28121 13274 11694 82701 10016 20001 30178 40346 57019 69901 75052 8452/
AAXX 28121 13278 11595 82302 10009 21014 30115 40351 57019 69901 72277 885//
AAXX 28121 13378 32999 01502 10045 21109 38345 48570 57017
AAXX 28121 13397 32597 83203 11014 21033 39781 40345 57021 886//
AAXX 28121 13457 32670 32602 10128 20052 30289 40296 57025 83500 333 82640
AAXX 28121 13481 NIL
AAXX 28121 13173 31696 82702 10023 20016 30236 40340 57023 71022 885//
AAXX 28121 13180 31696 82902 10022 20020 30230 40345 56016 71022 885//
AAXX 28121 13266 31696 73600 10028 20001 30237 40342 57022 71022 87500
AAXX 28121 13369 31996 00000 11047 21103 39088 48539 57025 71040
AAXX 28121 13383 32697 82801 10020 21019 30136 40348 57020 885//
AAXX 28121 13384 11594 81601 10005 20001 30188 40347 57019 60011 76176 8802/
AAXX 28121 13389 32597 81301 10016 21044 30049 40342 58020 888//
AAXX 28121 13477 NIL
AAXX 28121 15501 12670 62503 10058 20018 30278 40323 58016 60001 82106 333 10058 21003 555 575//
AAXX 28121 15505 12972 00201 10046 21020 39949 40332 54000 60001 333 10055 21020 42001 555 562//
AAXX 28121 15511 12970 01404 10066 20007 30289 40329 58018 60001 333 10069 21016 555 566//
AAXX 28121 15514 12572 60000 10042 21011 30305 40342 57006 60001 86850 333 10045 21002 555 569//
AAXX 28121 15530 12962 31601 10054 21017 30091 40335 58020 60001 83030 333 10060 21068 42003 555 560//
AAXX 28121 15533 12970 32303 10034 21008 30279 40312 58015 60001 82051 333 10040 21006 41001 555 574//
AAXX 28121 15550 12968 82501 10041 20007 30297 40317 57013 60001 8807/ 333 10041 20015 555 578//
AAXX 28121 15561 12470 63206 10062 20022 30309 40317 58015 60001 86500 222// 00082 2//00 333 10070 20022 555 576// 81222 92014 92418
AAXX 28121 15562 12470 72903 10062 20028 30243 40317 57013 60001 87500 222// 2//00 333 10062 20032 555 579// 92012 92418
AAXX 28121 15600 11989 11408 10010 21082 38383 48583 58014 60001 70100 81040 333 10015 21010 47006 444 46101 555 548//
AAXX 28121 15601 12770 80000 11026 21056 39683 40335 58020 60001 885// 333 11026 21048 555 578//
AAXX 28121 15605 12666 82703 11032 21035 39457 40344 58015 60001 885// 333 11028 21048 44006 555 598//
AAXX 28121 15613 11988 00508 11020 21128 37784 47137 57004 60001 70200 333 11019 21036 48045 444 86151 555 544//
AAXX 28121 15628 12682 12302 10032 21032 30060 40326 58021 60001 81200 333 10032 21064 47009 555 563//
AAXX 28121 15642 11610 80000 11012 21014 30153 40330 58018 60001 71042 885// 333 11010 21054 555 599// 92712
AAXX 28121 15661 12570 53603 10072 21007 30278 40314 58023 60001 85500 222// 00070 20401 333 10075 21004 555 557// 92022 92428
AAXX 28121 15726 11884 11501 10071 21127 38335 48589 58010 60001 70100 81030 333 10073 21014 44040 555 523//
AAXX 28124 65352 31930 70406 10320 20032 3//// 4//// 70522 80002 333 5//// 87076
AAXX 28124 65361 32958 72202 10325 20072 3//// 4//// 80002 333 5//// 87076
AAXX 28124 65376 31930 70806 10304 20134 39666 40123 70522 80002 333 58006 87073
AAXX 28124 65387 32560 72206 10320 20265 30086 40104 83202 333 58001 82820 87074
AAXX 28124 41170 32964 03211 10192 20049 30194 40207 333 58014
AAXX 28121 06428 35356 /2106 10048 20038 30181 40231 58023 333 83/06 85/08 87/11 91112 91208
AAXX 28121 06447 36/// /2105 10049 20032 30108 40236 57027 60001 333 91115 91208
AAXX 28124 64600 32970 13606 10326 20175 39437 40071 81100 333 59014 81823 94900 95870
AAXX 28124 64601 31950 00616 10310 20044 38988 48508 70400 333 59006
AAXX 28124 64605 32980 00204 10330 20086 39338 40066 333 59015
AAXX 28124 64610 32980 03606 10345 20102 3//// 4//// 333 5////
AAXX 28124 64650 31958 02804 10339 20126 39666 40070 70500 333 59017
AAXX 28124 64654 32980 01004 10363 20060 39518 40073 333 59001
AAXX 28124 64655 32980 00206 10340 20099 39435 40066 333 59012
AAXX 28124 64656 32965 31804 10332 20132 39527 40071 80002 333 59005 83080
AAXX 28124 64659 NIL
AAXX 28124 64660 32965 00804 10332 20090 39543 40060 333 59012
AAXX 28124 64662 32980 61402 10338 20174 39573 40064 80002 333 59011 86080
AAXX 28124 64665 32980 01804 10340 20152 3//// 4//// 333 5////
AAXX 28124 91643 11498 83408 10284 20241 40093 58002 60001 71401 8327/ 333 10320 5689/ 83819 88361
AAXX 28124 91648 11498 72515 10264 20243 40091 69921 71482 8337/ 333 10306 5669/
AAXX 28121 06432 37/50 /2108 10045 20034 30164 40242 56026 71000 333 83/06 87/08 91114 91211
AAXX 28121 06458 35367 /2006 10048 20036 30083 40240 58023 333 85/08 88/10 91114 91211
AAXX 28121 06465 35376 /2005 10052 20032 30167 40235 58022 333 85/09 88/11 91111 91208
AAXX 28121 06496 37/45 /2004 10023 20020 39558 40248 58020 72033 333 85/01 88/03 91109 91206
AAXX 28124 78958 11465 71206 10246 20229 30163 40172 69911 78081 87802 333 10305 20238 58004 70001 84817 87635
BBXX 4XFV 28123 99409 11548 43397 52928 00/// 10040 21040 40120 54000 7//// 85/// 22224 0//// 2//// 3//// 4//// 5//// 6//// 80010 ICE /////
BBXX A8EH3 28123 99535 11754 41/98 50209 11030 21061 40120 52010 76871 8457/ 22265 04050 20502 81040
BBXX A8EY7 28123 99398 11542 41/98 13025 10055 21004 40160 58010 70100 8//// 22224 2//07 3//// 4//// 5//// 80030
BBXX DGBE 28123 99476 11772 41/97 80611 10060 20017 40100 52015 70322 8//// 22214 00060 2//// 80041
BBXX DGXS 28124 99501 11637 41/// 31733 10020 21005 40050 51003 78587 8//// 22214 00040 2//// 3//// 4//// 5//// 80010
BBXX LAGB5 28124 99310 11515 41697 63414 10150 20080 40210 52010 70222 8624/ 22223 00110 20704 332// 40905 80110
BBXX SHIP 28124 99337 11730 41898 42804 10160 20130 40190 52015 70111 84181 22223 00220 20400 329// 41504 5//// 6//// 80140 ICE /////
BBXX V7NV4 28124 99314 11571 41798 73328 10150 20116 40195 51010 70222 87462 22263 00230 20208 33030 40208 50206 6//// 80130 ICE /////
AAXX 28124 78958 11465 71206 10246 20229 30163 40172 69911 78081 87802 333 10305 20238 58004 70001 84817 87635
AAXX 28124 67280 32580 2//// 10354 20227 40075 82201 333 59035 94322
AAXX 28124 67323 32580 20306 10307 20214 40087 57012 82100 333 94310
AAXX 28124 67327 32580 41210 10326 20205 40090 57017 84200 333 94320
AAXX 28124 67331 32580 51506 10350 20216 40068 57023 85300 333 94330
AAXX 28124 67346 32580 80000 10/// 20/// 40106 57006 8327/ 333 94324
AAXX 28121 02019 07/82 /2606 11037 21086 39375 40001 50002 60021 70070 333 60005 90710 91112
AAXX 28121 02081 05/99 /2503 11064 21083 39567 49975 51018 60001 333 60005 90710 91104
AAXX 28121 02095 05/99 /2603 11056 21083 39787 49992 52020 60001 333 60005 90710 91106
AAXX 28121 02101 45575 /1501 11063 21084 39482 40050 58013 8//// 333 88/21
AAXX 28121 02119 07/99 /2002 11038 21077 39627 40016 53004 69911 70070 333 60005 90710 91107
AAXX 28121 02124 07/99 /2304 11059 21103 39508 40042 50002 60001 70010 333 60005 90710 91106
AAXX 28121 02126 05/81 /1401 11067 21088 39718 40063 58008 60001 333 60005 90710 91106
AAXX 28121 02151 35984 00000 11083 21097 39682 40025 51014 60001 333 60005 91002 90710 91104 90710 91203
AAXX 28121 02186 35983 02605 11034 21079 30007 40032 51013 60001 333 60005 91007 90710 91109 90710 91206
AAXX 28121 02197 07/61 /2703 11038 21074 39998 40016 51018 60001 70010 333 60005 90710 91107
AAXX 28121 02207 07799 ///// 10001 21024 39313 40012 56053 69981 70070 333 60005 88/50
AAXX 28121 02219 07/59 /0904 11044 21048 39367 40042 58038 69901 71087 333 60005 90710 91106
AAXX 28121 02226 45984 /1406 11019 21062 39593 40052 56044 8//// 333 87/58
AAXX 28121 02243 07/57 /1101 11043 21054 39800 40073 58024 60001 71010 333 60005 90710 91102
AAXX 28121 02269 05980 /2506 10014 21029 60001 333 60005 87/64 90710 91108
AAXX 28121 02287 05/75 /2507 11007 21037 30069 40079 56005 60001 333 60005 90710 91110
AAXX 28121 02297 05/99 /2710 11014 21062 30011 40057 58003 60001 333 60005 90710 91113
AAXX 28121 02308 05599 /2002 11033 21061 39177 40046 58047 60001 333 60005 88/30 90710 91106
AAXX 28121 02327 05/99 /0902 11013 21051 39630 40071 56046 60001 333 60005 90710 91104
AAXX 28121 02355 NIL
AAXX 28121 02366 45/81 /0000 11026 21043 30082 40088 58036 8////
AAXX 28121 02407 05467 /1503 10010 21003 39706 40078 58050 60001 333 60005 81/15 87/41 90710 91106
AAXX 28121 02418 47150 /1806 10036 20031 39960 40092 56056 761// 8//// 333 88/02
AAXX 28121 02435 45367 /1002 10020 21001 39912 40102 58042 8//// 333 81/09 83/11 87/15
AAXX 28121 02440 05799 /3201 11025 21039 60001 333 60005 81/56 86/57 90710 91102
AAXX 28121 02452 07459 /1802 10017 20013 69911 78186 333 69915 87/13 90710 91106
AAXX 28121 02456 07157 /1902 10007 20003 30080 40123 58039 60001 71010 333 60005 88/02 90710 91105
AAXX 28121 02469 07/64 /2103 10024 20011 60001 70010 333 60005 90710 91104
AAXX 28121 02498 05364 /2209 10035 20022 30131 40148 56033 60001 333 60005 84/07 87/59 90710 91111
AAXX 28121 02518 464// /1912 10061 20047 333 81/17 85/29 90710 91116
AAXX 28121 02520 07360 82006 10049 20039 30033 40101 58057 69931 76110 333 69935 87/08 88/12 91009 90710 91110 90710 91208
AAXX 28121 02550 47140 /1705 10027 20027 39851 40129 58051 710// 8//// 333 88/03
AAXX 28121 02562 NIL
AAXX 28121 02563 05867 /1904 10033 20015 30128 40151 58040 60001 333 60005 88/57 90710 91107
AAXX 28121 02565 07358 /1703 10032 20025 30038 40160 58049 60001 71010 333 60005 88/06 90710 91105
AAXX 28121 02589 05464 /2306 10047 20024 30144 40165 58031 60001 333 60005 87/11 90710 91110
AAXX 28121 02590 45264 /2007 10021 20015 30117 40181 58028 333 84/06 85/08
AAXX 28121 02618 07/29 /2105 10047 20047 39976 40142 58049 60021 76186 333 69965 90710 91112
AAXX 28121 02664 31135 82106 10056 20052 30110 40182 57045 60001 75054 886// 333 60005 88703 91009 90710 91109 90710 91206
AAXX 28121 02679 07265 /2209 10029 20023 30152 40197 58029 60001 70010 333 60005 87/04 90710 91113
AAXX 28121 01400 41497 62215 10087 20044 40014 57025 70222 86800 22200 06079 10607 70037 333 91119
AAXX 28121 01271 17884 80905 10024 21041 39972 49993 58070 6//// 700// 333 91108
AAXX 28121 01415 17348 82010 10073 20059 39970 49981 58057 6//// 761// 333 91117
AAXX 28121 01300 41497 72409 10062 20043 49870 57027 70162 877// 22200 02065 10812 70060 333 91121
AAXX 28124 68298 36/// /3204 1//// 2//// 39456 4//// 57008 333 1//// 2//// 91007 555 91012
AAXX 28121 33088 32597 62703 10036 21002 30100 40296 58014 86200
AAXX 28121 33177 32972 32103 10055 20023 30065 40306 58012 80001
AAXX 28121 33261 32697 22805 10036 21027 30052 40237 52011 82500
AAXX 28121 33275 32497 33009 10036 21017 39991 40218 52010 83500
AAXX 28121 33301 32497 42704 10035 20012 30015 40304 58011 84500
AAXX 28121 33325 32597 22802 10040 21006 30018 40291 58007 81501
AAXX 28121 33377 32597 33106 10039 21010 30059 40256 51003 82101
AAXX 28121 33415 NIL
AAXX 28121 33429 32597 23304 10055 20007 39874 40304 58011 82500
AAXX 28121 33466 NIL
AAXX 28121 33526 /1460 83302 10063 20047 39971 40316 58014 78082 883// 333 84312 555 69931
AAXX 28121 33562 32997 23004 10056 21008 39928 40295 56009 80001
AAXX 28121 33614 32698 32803 10034 20010 30152 40259 52003 82501
AAXX 28121 33761 32998 23303 10080 20011 30064 40289 58007 80001
AAXX 28121 33902 32697 13305 10088 20019 30208 40275 55002 81100
AAXX 28121 33983 /1496 72707 10059 20043 30209 40270 58007 71052 875// 333 87613 555 69901
AAXX 28121 34415 32670 33206 10053 21037 30110 40207 52013 83200
AAXX 28121 34523 32598 53107 10064 21038 30106 40182 52006 85300
AAXX 28121 34712 32572 23207 10073 20001 30141 40227 58002 82200
AAXX 28124 48581 31556 70000 10271 20230 30077 40118 52005 71022 82276 333 10310 59011 70004
BBXX PCEO 28123 99385 70263 41297 4//01 10178 20162 40395 52023 75065 82410 22254 04172 20000 327// 41203 5//// 80168
AAXX 28124 61766 32960 80609 10284 20052 30092 40134 81081 333 0//00 59001 81360 87075
AAXX 28124 61769 31958 73605 10274 20076 3//// 4//// 70522 80001 333 0//00 5//// 87075
AAXX 28121 14024 11/90 90000 10013 20012 39186 48561 57023 60001 74544 333 95090
BBXX PDHY 28123 99476 70295 41598 81808 10120 20062 40363 50010 70222 8441/ 22263 04110 20503 318// 40605 5//// 80090
AAXX 28121 13492 ///// 0//// 10050
AAXX 28121 13584 NIL
AAXX 28121 13585 41/93 90000 11042 21044 39494 40331 58030 74544
AAXX 28121 13597 42998 03603 10030 21015 30245 40320 58021
AAXX 28121 13598 42998 00000 10011 21053 48553 57017
AAXX 28123 61701 32960 50911 10299 20030 40139 80002 333 58004 85074
AAXX 28123 61705 NIL
AAXX 28123 61707 32960 20907 10312 20072 4//// 80002 333 5//// 82073
AAXX 28123 61711 32960 40803 10290 20190 4//// 80002 333 5//// 84073
AAXX 28123 61712 32960 50908 10310 20043 4//// 80002 333 5//// 85073
AAXX 28123 61717 NIL
AAXX 28123 61720 NIL
AAXX 28123 61721 32960 62808 10314 20055 4//// 80002 333 5//// 86073
AAXX 28123 61722 32960 20912 10317 20014 4//// 80002 333 5//// 84072
AAXX 28123 61731 NIL
AAXX 28123 61733 32960 60906 10330 20046 4//// 84032 333 5//// 84361 83072
AAXX 28124 61974 11468 71805 10265 20229 40083 60081 71562 8587/ 333 0//12 59006 82816 84650 86360 94329
AAXX 28124 61986 12575 61109 10304 20247 40104 60001 85840 333 58002 82820 84650 94322
AAXX 28124 61988 12480 30713 10279 20219 40128 60001 83802 333 58003 83818 91130
AAXX 28124 61989 11462 41013 10281 20221 40135 60001 71500 84802 333 58004 83817
AAXX 28124 61990 12475 60710 10282 20213 40129 60001 86802 333 59002 84817 84650 94322
AAXX 28124 61995 11468 61109 10251 20179 39648 60001 71522 85842 333 59004 82817 85650 91123 94322
AAXX 28124 48425 31950 20000 10273 20200 30127 40137 52018 70500 80005 333 10304 59013
AAXX 28124 91925 06/// /0202 10227 20204 30057 40118 55008 60041 333 10286 58006 60037 90710 91108 555 60005 10615
AAXX 28124 91943 36/// /0612 10263 20211 30124 40126 56009 333 58003= 91944 06/// /0418 10268 20213 30135 40138 56010 60021 333 60017 90710 91122 555 60005
AAXX 28124 91948 06/// /0103 10239 20202 30086 40189 56005 60001 333 10280 58012 60007 90710 91107 555 60005 13510
AAXX 28124 91929 04579 /0314 10271 20233 30104 40107 57017 60001 700// 333 60007 90710 91117 555 60005
AAXX 28124 91938 02470 30708 10262 20196 30112 40114 56016 60001 81201 333 60007 81816 83076 90710 91112 555 60005 10916
AAXX 28124 91954 06/// /3419 10266 20239 30099 40102 56017 60101 333 10289 59014 60007
AAXX 28124 91958 06/// /0208 10259 20228 30120 40122 58016 69921 333 10274 59010 69927 90710 91127 555 69925 13029
AAXX 28124 91945 06/// /0214 10267 20225 30128 40133 56014 69921 333 10291 69927
AAXX 28124 94102 46/// /2708 10288 20264 30056 40065
AAXX 28124 94103 NIL
AAXX 28124 94120 46/// /2907 10297 20261 30011 40051
AAXX 28124 94122 46/// /2608 10296 20268 30044 40052
AAXX 28124 94131 46/// /0000 10275 20243 39886 40036
AAXX 28124 94132 NIL
AAXX 28124 94147 NIL
AAXX 28124 94150 46/// /3115 10270 20254 39961 40020
AAXX 28124 94151 46/// /2908 10260 20244 30001 4////
AAXX 28124 94170 46/// /0402 10272 20248 30041 40063
AAXX 28124 94200 NIL
AAXX 28124 94203 46/// /2911 10299 20245 30042 40052
AAXX 28124 94206 46/// /2906 10299 2//// 39904 40031
AAXX 28124 94207 46/// /2717 10285 30039 40047 53015
AAXX 28124 94211 NIL
AAXX 28124 94212 46/// /0202 10316 20193 39572 40032
AAXX 28124 94216 46/// /2907 10334 20193 39985 40035
AAXX 28124 94236 NIL
AAXX 28124 94238 46/// /0904 10294 20102 39627 40039
AAXX 28124 94248 NIL
AAXX 28124 94255 46/// /0107 10269 20200 39790 40046
AAXX 28124 94268 46/// /0904 10235 20232 30055 40067
AAXX 28124 94287 46/// /2604 10250 20243 30070 40079
AAXX 28124 94290 NIL
AAXX 28124 94294 46/// /2101 10271 20238 30064 40074
AAXX 28124 94296 35/// /0000 10261 30065 40075 52015
AAXX 28124 94298 46/// /3608 10273 30061 40067 51012
AAXX 28124 95641 NIL
AAXX 28124 41241 36/// /2506 10233 20121 30129 40167 333 0E021 58029
AAXX 28124 41242 36/// /2212 10235 20089 30152 40176 333 0E023 5////
AAXX 28124 41244 36/// /2908 10213 20098 39830 48234 333 0E014 58014
AAXX 28124 41246 NIL
AAXX 28124 41251 32/67 /1805 10160 20041 36176 47812 91214 333 59180
AAXX 28124 41252 NIL
AAXX 28124 41253 36/// /0108 10239 20137 39791 40174 333 0E015 58018
AAXX 28124 41254 NIL
AAXX 28124 41255 36/// /2405 10279 20042 39618 40158 333 0E018 58016
AAXX 28124 41256 32560 33109 10235 20151 30159 40169 83200 333 58024 83830
AAXX 28124 41257 NIL
AAXX 28124 41258 36/// /2908 10232 20141 30155 40160 333 0E/// 58022
AAXX 28124 41259 36/// /2717 10074 21024 37124 40295 333 0E/// 59007
AAXX 28124 41262 NIL
AAXX 28124 41263 36/// /1604 10271 20025 39474 40165 333 0E013 58011
AAXX 28124 41264 NIL
AAXX 28124 41265 36/// /1406 10275 20102 39611 40163 333 0E021 58016
AAXX 28124 41267 35/// /3412 10240 20167 30145 40161 333 0E018 58018
AAXX 28124 41268 32560 20110 10247 20175 30143 40159 82500 333 58019 82625
AAXX 28124 41270 NIL
AAXX 28124 41275 NIL
AAXX 28124 41287 36/// /2914 10299 20045 30109 40175 333 0E015 58013
AAXX 28124 41288 31958 02804 10289 20128 30132 40153 70500 333 58006
AAXX 28124 41290 NIL
AAXX 28124 41295 36/// /2915 10263 20080 39982 40158 333 0E017 58022
AAXX 28124 41304 NIL
AAXX 28124 41312 36/// /1905 10273 20122 30114 40153 333 0E/// 58011
AAXX 28124 41314 32960 09905 10239 20062 39681 40181 333 58015
AAXX 28124 41315 36/// /3519 10200 20056 39179 42816 333 0E/// 58012
AAXX 28124 41316 32962 03612 10291 20059 30130 40157 333 58013
AAXX 28124 94500 NIL
AAXX 28124 94510 46/// /0805 10238 20124 39723 40061
AAXX 28124 94515 46/// /2005 10200 20117 39723 40063
AAXX 28124 94552 46/// /0509 10209 20163 39621 40077
AAXX 28124 94578 46/// /1707 10225 20161 30083 40094
AAXX 28124 94584 46/// /1320 10231 20182 39972 40080
AAXX 28124 94601 46/// /1221 10236 20178 30061 40078
AAXX 28124 94610 46/// /1309 10302 20056 30020 40043
AAXX 28124 94637 46/// /1009 10292 20005 39671 40087
AAXX 28124 94638 46/// /1111 10202 20155 30098 40129
AAXX 28124 94642 NIL
AAXX 28124 94643 NIL
AAXX 28124 94647 46/// /1110 10190 20126 30053 40172
AAXX 28124 94651 46/// /1316 10180 20143 30089 40165
AAXX 28124 94653 46/// /1714 10189 20153 30137 40155
AAXX 28124 94659 46/// /1519 10269 20067 3//// 4////
AAXX 28124 94672 46/// /1709 10165 20109 30162 40172
AAXX 28124 94691 46/// /1507 10205 21032 39801 40121
AAXX 28124 94693 46/// /2106 10211 20009 30071 40132
AAXX 28124 94700 NIL
AAXX 28124 94703 46/// /0903 10232 20147 39959 40081
AAXX 28124 94710 46/// /1305 10239 20112 39844 40091
AAXX 28124 94729 46/// /0805 10141 20111 39279 40112
AAXX 28124 94750 46/// /1703 10174 20156 30022 40145
AAXX 28124 94767 46/// /1711 10205 20145 30133 40139
AAXX 28124 94776 46/// /1508 10202 20151 30119 40129
AAXX 28124 94791 NIL
AAXX 28124 94802 46/// /0911 10192 20165 30040 40122
AAXX 28124 94804 46/// /1619 10169 20124 30146 40184
AAXX 28124 94807 NIL
AAXX 28124 94821 46/// /1604 10120 20105 30105 40187
AAXX 28124 94842 46/// /2109 10149 20099 30082 40181
AAXX 28124 94847 NIL
AAXX 28124 94850 46/// /2110 10146 20093 30121 40167
AAXX 28124 94865 46/// /2010 10153 20117 30154 40178
AAXX 28124 94866 46/// /2206 10128 20111 30037 40176
AAXX 28124 94875 46/// /1816 10181 20047 39999 40132
AAXX 28124 94893 NIL
AAXX 28124 94907 46/// /3208 10143 20113 30150 40160
AAXX 28124 94910 46/// /1105 10214 20152 39861 40106
AAXX 28124 94926 46/// /1004 10145 20120 39475 40132
AAXX 28124 94935 46/// /2904 10128 20112 30130 40156
AAXX 28124 94954 46/// /2123 10140 20084 30055 40166
AAXX 28124 94956 46/// /2402 10131 20097 30139 40165
AAXX 28124 94975 46/// /1002 10142 20042 30102 40134
AAXX 28124 94983 NIL
AAXX 28124 94995 46/// /2216 10197 20192 39993 40001
AAXX 28124 94996 46/// /3310 10213 20193 39887 40014
AAXX 28124 94997 NIL
AAXX 28124 94998 46/// /2322 10045 20017 39840 49850
AAXX 28124 95111 46/// /2603 10288 20237 30006 40042
AAXX 28124 95205 46/// /3216 10314 20239 30031 40038
AAXX 28124 95322 NIL
AAXX 28124 95448 46/// /0107 10307 20037 39522 40070
AAXX 28124 95458 46/// /1407 10277 20034 39857 40112
AAXX 28124 95480 46/// /1208 10274 20068 30054 40112
AAXX 28124 95481 46/// /1807 10273 20061 30051 40095
AAXX 28124 95482 46/// /1713 10309 20046 30024 40078
AAXX 28124 95485 46/// /1707 10250 2//// 39897 40096
AAXX 28124 95492 46/// /1406 10276 20085 39926 40077
AAXX 28124 95527 46/// /1709 10226 20096 39828 40075
AAXX 28124 95634 46/// /0709 10285 20054 39682 40074
AAXX 28124 95637 46/// /1214 10270 20137 39761 40088
AAXX 28124 95646 46/// /1318 10195 20118 39964 40148
AAXX 28124 95666 NIL
AAXX 28124 95719 46/// /1008 10199 20157 39779 40102
AAXX 28124 95762 46/// /1410 10173 20107 39649 40096
AAXX 28124 95826 NIL
AAXX 28124 95839 46/// /1809 10150 20032 30005 40162
AAXX 28124 95864 NIL
AAXX 28124 95909 NIL
AAXX 28124 95954 NIL
AAXX 28124 95966 46/// /2005 10152 20006 39926 40125
AAXX 28124 96995 46/// /3005 10248 20238 39809 40103
AAXX 28124 96996 478// 50310 10260 20238 30083 40087 52016 7//44
AAXX 28124 94299 46/// /3307 10273 20234 30061 40071
AAXX 28124 94300 46/// /2412 10247 20214 30038 40048
AAXX 28124 94302 46/// /2315 10255 20211 30045 40051
AAXX 28124 94312 46/// /2916 10292 20225 30015 40024
AAXX 28124 94313 NIL
AAXX 28124 94317 46/// /0713 10269 20179 39462 40030
AAXX 28124 94319 46/// /3207 10304 20206 39708 40029
AAXX 28124 94324 NIL
AAXX 28124 94326 46/// /1607 10228 21027 39473 40073
AAXX 28124 94327 46/// /1505 10271 21003 39706 40070
AAXX 28124 94332 46/// /0106 10275 20193 39667 40043
AAXX 28124 94333 NIL
AAXX 28124 94341 46/// /0606 10254 20198 39835 40064
AAXX 28124 94346 46/// /0307 10234 20200 39839 40053
AAXX 28124 94363 46/// /0106 10230 20205 39858 40070
AAXX 28124 94366 NIL
AAXX 28124 94367 46/// /1410 10210 20208 30040 40081
AAXX 28124 94374 46/// /1107 10245 20223 30061 40077
AAXX 28124 94388 46/// /1014 10249 20201 30081 40086
AAXX 28124 94393 46/// /0000 10265 30053 40065 51013
AAXX 28124 94394 46/// /1315 10246 30068 40076 52010
AAXX 28124 94403 46/// /1107 10298 20183 39992 40033
AAXX 28124 94429 46/// /1707 10261 20164 39604 40056
AAXX 28124 94430 46/// /1111 10299 20117 39467 40033
AAXX 28124 94449 46/// /1009 10275 20039 39574 40091
AAXX 28124 94451 NIL
AAXX 28124 94461 46/// /1106 10259 20048 39413 40065
AAXX 28124 94462 46/// /1407 10263 20023 39535 40076
AAXX 28124 94477 NIL
AAXX 28124 94488 NIL
AAXX 28124 92001 NIL
AAXX 28124 92014 NIL
AAXX 28124 92044 11470 20000 10266 20254 30080 40086 52014 60041 70121 82200
AAXX 28124 92047 NIL
AAXX 28124 92100 NIL
BBXX FHZI 28104 99666 31400 46/// /1404 10024 21010 39664 49675 57014 22200 05013 85010
BBXX FHZI 28114 99666 31400 46/// /2104 10023 21007 39659 49670 57014 22200 05013 85011
AAXX 28124 85406 12680 83604 10226 20151 40146 52010 60004 885// 333 20198 30/// 55077 56099 88633
AAXX 28124 85418 12565 72104 10212 20147 40155 52009 60004 87530 333 20196 30/// 55096 56000 70000 81633 86363
AAXX 28124 85432 12970 50914 10196 20020 37781 48457 52007 69904 85030 333 20010 30/// 51450 55013 56060 79999 85362
AAXX 28124 85442 12568 79902 10185 20156 40145 54000 60004 81504 333 20172 30/// 50600 55053 56407 70000 81620 87080
AAXX 28124 85467 12460 89902 10161 20129 40182 52015 60004 885// 333 20148 30/// 55066 56699 70000 88615
AAXX 28124 85469 42565 61511 10208 20182 40191 54002 86800 333 56200 85820 83630
AAXX 28124 85488 NIL
AAXX 28124 85574 11950 21603 10171 20117 39595 40144 53012 60004 70500 80001 333 20138 30/// 55125 70000
AAXX 28124 85577 11958 23201 10174 20121 39546 40150 53012 60004 70500 80001 333 20145 30012 50640 55118 56006 70000 82075
AAXX 28124 88963 01206 81416 10003 21008 39722 49752 57032 60054 77374 887// 333 10026 21002 46010 56699 60051 88706 90062 90091 90263 90278 92403 92800 94070 95090 96046
AAXX 28124 88968 01320 83220 11001 21007 39873 49888 57029 69984 75152 8672/ 333 10002 21018 42000 56979 69901 86708 88530 90042 90090 90218 90295 90921 92424 94070 95080
AAXX 28124 89034 01220 83404 11043 21066 39404 49715 57027 60014 77372 886// 333 11043 21066 46002 56899 60002 69931 88705 90921 92800 93520 96010 97508
AAXX 28124 89053 01007 82727 10020 20018 39730 49743 58008 60034 74664 887// 333 10050 20009 56699 60031 88701 90008 90076 90308 90973 92433 94075 94479 95095 96461 96410 97636 98507
AAXX 28124 89055 01000 80510 11012 21014 39545 49785 57015 60104 77374 886// 333 11012 21020 56899 60101 88701 90033 90090 90242 90276 92730 92800 95190 96044
AAXX 28124 89066 12970 40506 10045 21051 39769 49777 56009 60014 80007 333 10047 20000 56002 84270 92417 94020
AAXX 28124 85585 12498 52016 10172 20134 40191 53013 60004 85600 333 20161 30/// 55102 56400 70000 82712 83615
AAXX 28124 85586 11340 80000 10161 20123 40162 52024 60004 7052/ 886// 333 20154 30/// 50330 55058 56799 88708
AAXX 28124 85629 NIL
AAXX 28124 85672 12965 20303 10164 20136 40154 52031 60004 80009 333 20116 30/// 56006 70000 82170
AAXX 28124 85682 11240 83302 10135 20124 40157 53014 60004 71022 886// 333 20127 31/// 50770 55084 56799 70000 88705
AAXX 28124 85743 12960 02804 10143 20113 40165 52013 333 20099 30/// 50700 55102 70000
AAXX 28124 85766 11960 01604 10184 20132 40176 52010 60004 7040/ 333 20094 30/// 55131 70000
AAXX 28124 85782 12460 31810 10150 20115 40185 52012 60004 83500 333 20114 30/// 56400 70000 83615
AAXX 28124 85799 11360 51709 10132 20132 40200 52013 60004 70141 85600 333 20085 30/// 50550 55091 56400 70000 82707 85613
AAXX 28124 85830 NIL
AAXX 28124 85832 12980 09902 10157 20097 40201 51013 60004 333 20103 30/// 70000
AAXX 28124 85836 12970 09902 10149 20091 40254 51014 60004 333 20090 30/// 70000
AAXX 28124 85864 11980 10606 10172 20133 40184 52010 60004 80001 333 20120 30/// 55131 56003 70000 81070
AAXX 28124 85874 12980 33116 10158 20074 39563 40175 50010 60004 80002 333 20114 30/// 56006 70000 83070
AAXX 28124 85886 12970 40904 10164 20161 40171 52013 60004 80001 333 20104 30/// 56006 70000 84070
AAXX 28124 85934 12580 22743 10108 20014 40028 57006 69964 82101 333 20074 30/// 55017 56606 70004 82820
AAXX 28124 89054 11107 83017 10018 20013 49724 57012 69971 74065 886// 333 10029 20008 56799 88603 96451
AAXX 28124 89056 11115 82920 10014 20010 49739 54004 60012 71077 886// 333 10015 20002 41997 55025 56699 88703
AAXX 28124 89057 11230 82415 10020 20008 49730 57005 69942 75022 886// 333 10020 20002 42035 56699 88705
AAXX 28124 89058 11456 82916 10019 20012 39722 49743 57001 60031 71076 886//
AAXX 28124 89059 11210 80820 10005 21006 49734 57025 60062 72372 884// 333 10005 21004 42022 55050 72299 88605
AAXX 28124 89251 11140 83220 10017 20009 49731 57002 60022 76176 8672/ 333 20008
AAXX 28124 89564 NIL
AAXX 28124 89570 46/// /0619 11034 21096 39212 53007 333 10005
AAXX 28124 89571 41470 70114 10005 21039 39849 49878 53008 71522 84831
AAXX 28124 89573 NIL
AAXX 28124 89610 NIL
AAXX 28124 89611 41780 12306 10008 21037 39776 49828 58021 70200 81500
AAXX 28124 89614 NIL
AAXX 28124 89615 46/// /3302 11011 21102 38936 58015 333 11011
AAXX 28124 89807 NIL
AAXX 28124 89809 46/// /2005 10021 20006 39358 56073 333 10099
AAXX 28123 NIL
AAXX 28124 92001 NIL
AAXX 28124 92014 NIL
AAXX 28124 92044 11470 20000 10266 20254 30080 40086 52014 60041 70121 82200
AAXX 28124 92047 NIL
AAXX 28124 92100 NIL
BBXX YJZC5 28123 99179 31740 41293 53217 10280 20237 40084 51/// 70000 83875 22263 02280 2//// 399// 40203 80250
BBXX VNVF 28124 99185 31177 41497 12820 10275 20247 40045 53011 70200 8/100 22213 00290 20401 304// 40502 80255
BBXX VNSZ 28114 99384 31446 46/// /1921 10160 20119 30151 40177 52014 22235 04186 85136
BBXX C6FS9 28114 99322 31336 46/// /1629 10192 20163 30129 40165 52008 22200 04233 85173
BBXX VNSZ 28104 99383 31449 46/// /1716 10161 20115 30148 40174 52015 22244 04201 85134
BBXX 9HA2479 28104 99323 31536 46/// /1733 10214 20165 30071 40100 52030 22254 04226 85182
BBXX C6FS9 28104 99322 31336 46/// /1528 10193 20162 30124 40160 52006 22200 04235 85173
BBXX VROB 28104 99273 31532 46/// /1422 10236 20169 30055 40080 5//// 22200 04249 85191
BBXX VNAH 28104 99383 31416 46/// /1908 10161 20098 30161 40185 52008 22200 04193 85125
BBXX VNAH 28114 99383 31416 46/// /1807 10162 20103 30164 40188 52009 22200 04193 85128
BBXX VROB 28114 99273 31532 46/// /1521 10235 20174 30066 40091 5//// 22200 04248 85194
BBXX VRDG4 28123 99368 31766 41298 10424 10200 20192 40158 50012 70200 811// 22223 20604 80195
BBXX ZMKA 28124 99450 31716 41/93 /3613 10150 20143 40103 54000 74544 8//// 22213 20101 80146
BBXX 2ALD3 28123 99105 31519 41398 40208 10295 20275 40069 53/// 702// 84/// 22234 04290 2//// 80280
BBXX GRFP 28114 99353 31750 41298 80533 10190 20174 40129 52010 70222 8/7// 22244 00200 20402 311// 41004 80180
BBXX VRAE2 28124 99358 31753 41/// 80327 10195 20162 40136 58013 70122 8//// 22274 04200 2//// 80175
BBXX VROC 28124 99239 31540 41398 81415 10270 20226 40077 51011 70395 887// 22243 04280 20303 315// 40804 80240
AAXX 28124 94893 NIL
AAXX 28124 94907 46/// /3208 10143 20113 30150 40160
AAXX 28124 94910 46/// /1105 10214 20152 39861 40106
AAXX 28124 94926 46/// /1004 10145 20120 39475 40132
AAXX 28124 94935 46/// /2904 10128 20112 30130 40156
AAXX 28124 94954 46/// /2123 10140 20084 30055 40166
AAXX 28124 94956 46/// /2402 10131 20097 30139 40165
AAXX 28124 94975 46/// /1002 10142 20042 30102 40134
AAXX 28124 94983 NIL
AAXX 28124 94995 46/// /2216 10197 20192 39993 40001
AAXX 28124 94996 46/// /3310 10213 20193 39887 40014
AAXX 28124 94997 NIL
AAXX 28124 94998 46/// /2322 10045 20017 39840 49850
AAXX 28124 95111 46/// /2603 10288 20237 30006 40042
AAXX 28124 95205 46/// /3216 10314 20239 30031 40038
AAXX 28124 95322 NIL
AAXX 28124 95448 46/// /0107 10307 20037 39522 40070
AAXX 28124 95458 46/// /1407 10277 20034 39857 40112
AAXX 28124 95480 46/// /1208 10274 20068 30054 40112
AAXX 28124 95481 46/// /1807 10273 20061 30051 40095
AAXX 28124 95482 46/// /1713 10309 20046 30024 40078
AAXX 28124 95485 46/// /1707 10250 2//// 39897 40096
AAXX 28124 95492 46/// /1406 10276 20085 39926 40077
AAXX 28124 95527 46/// /1709 10226 20096 39828 40075
AAXX 28124 95634 46/// /0709 10285 20054 39682 40074
AAXX 28124 95637 46/// /1214 10270 20137 39761 40088
AAXX 28124 95646 46/// /1318 10195 20118 39964 40148
AAXX 28124 95666 NIL
AAXX 28124 95719 46/// /1008 10199 20157 39779 40102
AAXX 28124 95762 46/// /1410 10173 20107 39649 40096
AAXX 28124 95826 NIL
AAXX 28124 95839 46/// /1809 10150 20032 30005 40162
AAXX 28124 95864 NIL
AAXX 28124 95909 NIL
AAXX 28124 95954 NIL
AAXX 28124 95966 46/// /2005 10152 20006 39926 40125
AAXX 28124 96995 46/// /3005 10248 20238 39809 40103
AAXX 28124 96996 478// 50310 10260 20238 30083 40087 52016 7//44
AAXX 28124 94299 46/// /3307 10273 20234 30061 40071
AAXX 28124 94300 46/// /2412 10247 20214 30038 40048
AAXX 28124 94302 46/// /2315 10255 20211 30045 40051
AAXX 28124 94312 46/// /2916 10292 20225 30015 40024
AAXX 28124 94313 NIL
AAXX 28124 94317 46/// /0713 10269 20179 39462 40030
AAXX 28124 94319 46/// /3207 10304 20206 39708 40029
AAXX 28124 94324 NIL
AAXX 28124 94326 46/// /1607 10228 21027 39473 40073
AAXX 28124 94327 46/// /1505 10271 21003 39706 40070
AAXX 28124 94332 46/// /0106 10275 20193 39667 40043
AAXX 28124 94333 NIL
AAXX 28124 94341 46/// /0606 10254 20198 39835 40064
AAXX 28124 94346 46/// /0307 10234 20200 39839 40053
AAXX 28124 94363 46/// /0106 10230 20205 39858 40070
AAXX 28124 94366 NIL
AAXX 28124 94367 46/// /1410 10210 20208 30040 40081
AAXX 28124 94374 46/// /1107 10245 20223 30061 40077
AAXX 28124 94388 46/// /1014 10249 20201 30081 40086
AAXX 28124 94393 46/// /0000 10265 30053 40065 51013
AAXX 28124 94394 46/// /1315 10246 30068 40076 52010
AAXX 28124 94403 46/// /1107 10298 20183 39992 40033
AAXX 28124 94429 46/// /1707 10261 20164 39604 40056
AAXX 28124 94430 46/// /1111 10299 20117 39467 40033
AAXX 28124 94449 46/// /1009 10275 20039 39574 40091
AAXX 28124 94451 NIL
AAXX 28124 94461 46/// /1106 10259 20048 39413 40065
AAXX 28124 94462 46/// /1407 10263 20023 39535 40076
AAXX 28124 94477 NIL
AAXX 28124 94488 NIL
AAXX 28121 02464 45462 /1803 10027 20013 30121 40139 58037 8//// 333 81/16 83/56
AAXX 28121 02500 07457 /1914 10059 20050 30020 40062 58060 69991 78186 333 69915 85/10 90710 91119
AAXX 28121 02513 07/58 /1905 10060 20046 30110 40114 58048 60031 72286 333 69915 90710 91111
AAXX 28121 02615 07561 /2109 10058 20048 30170 40174 56047 69901 70061 333 60005 88/26 90710 91113
AAXX 28121 02635 07/58 /2204 10056 20050 69971 72386 333 69905 90710 91110
AAXX 28124 89564 NIL
AAXX 28124 89570 46/// /0619 11034 21096 39212 53007 333 10005
AAXX 28124 89571 41470 70114 10005 21039 39849 49878 53008 71522 84831
AAXX 28124 89573 NIL
AAXX 28124 89610 NIL
AAXX 28124 89611 41780 12306 10008 21037 39776 49828 58021 70200 81500
AAXX 28124 89614 NIL
AAXX 28124 89615 46/// /3302 11011 21102 38936 58015 333 11011
AAXX 28124 89807 NIL
AAXX 28124 89809 46/// /2005 10021 20006 39358 56073 333 10099
AAXX 28124 94102 46/// /2708 10288 20264 30056 40065
AAXX 28124 94103 NIL
AAXX 28124 94120 46/// /2907 10297 20261 30011 40051
AAXX 28124 94122 46/// /2608 10296 20268 30044 40052
AAXX 28124 94131 46/// /0000 10275 20243 39886 40036
AAXX 28124 94132 NIL
AAXX 28124 94147 NIL
AAXX 28124 94150 46/// /3115 10270 20254 39961 40020
AAXX 28124 94151 46/// /2908 10260 20244 30001 4////
AAXX 28124 94170 46/// /0402 10272 20248 30041 40063
AAXX 28124 94200 NIL
AAXX 28124 94203 46/// /2911 10299 20245 30042 40052
AAXX 28124 94206 46/// /2906 10299 2//// 39904 40031
AAXX 28124 94207 46/// /2717 10285 30039 40047 53015
AAXX 28124 94211 NIL
AAXX 28124 94212 46/// /0202 10316 20193 39572 40032
AAXX 28124 94216 46/// /2907 10334 20193 39985 40035
AAXX 28124 94236 NIL
AAXX 28124 94238 46/// /0904 10294 20102 39627 40039
AAXX 28124 94248 NIL
AAXX 28124 94255 46/// /0107 10269 20200 39790 40046
AAXX 28124 94268 46/// /0904 10235 20232 30055 40067
AAXX 28124 94287 46/// /2604 10250 20243 30070 40079
AAXX 28124 94290 NIL
AAXX 28124 94294 46/// /2101 10271 20238 30064 40074
AAXX 28124 94296 35/// /0000 10261 30065 40075 52015
AAXX 28124 94298 46/// /3608 10273 30061 40067 51012
AAXX 28124 95641 NIL
AAXX 28124 94500 NIL
AAXX 28124 94510 46/// /0805 10238 20124 39723 40061
AAXX 28124 94515 46/// /2005 10200 20117 39723 40063
AAXX 28124 94552 46/// /0509 10209 20163 39621 40077
AAXX 28124 94578 46/// /1707 10225 20161 30083 40094
AAXX 28124 94584 46/// /1320 10231 20182 39972 40080
AAXX 28124 94601 46/// /1221 10236 20178 30061 40078
AAXX 28124 94610 46/// /1309 10302 20056 30020 40043
AAXX 28124 94637 46/// /1009 10292 20005 39671 40087
AAXX 28124 94638 46/// /1111 10202 20155 30098 40129
AAXX 28124 94642 NIL
AAXX 28124 94643 NIL
AAXX 28124 94647 46/// /1110 10190 20126 30053 40172
AAXX 28124 94651 46/// /1316 10180 20143 30089 40165
AAXX 28124 94653 46/// /1714 10189 20153 30137 40155
AAXX 28124 94659 46/// /1519 10269 20067 3//// 4////
AAXX 28124 94672 46/// /1709 10165 20109 30162 40172
AAXX 28124 94691 46/// /1507 10205 21032 39801 40121
AAXX 28124 94693 46/// /2106 10211 20009 30071 40132
AAXX 28124 94700 NIL
AAXX 28124 94703 46/// /0903 10232 20147 39959 40081
AAXX 28124 94710 46/// /1305 10239 20112 39844 40091
AAXX 28124 94729 46/// /0805 10141 20111 39279 40112
AAXX 28124 94750 46/// /1703 10174 20156 30022 40145
AAXX 28124 94767 46/// /1711 10205 20145 30133 40139
AAXX 28124 94776 46/// /1508 10202 20151 30119 40129
AAXX 28124 94791 NIL
AAXX 28124 94802 46/// /0911 10192 20165 30040 40122
AAXX 28124 94804 46/// /1619 10169 20124 30146 40184
AAXX 28124 94807 NIL
AAXX 28124 94821 46/// /1604 10120 20105 30105 40187
AAXX 28124 94842 46/// /2109 10149 20099 30082 40181
AAXX 28124 94847 NIL
AAXX 28124 94850 46/// /2110 10146 20093 30121 40167
AAXX 28124 94865 46/// /2010 10153 20117 30154 40178
AAXX 28124 94866 46/// /2206 10128 20111 30037 40176
AAXX 28124 94875 46/// /1816 10181 20047 39999 40132
AAXX 28120 67586 32680 71203 10286 20172 38766 48498 85238 333 59016 85835 86280 555 10290 29048
AAXX 28124 91375 NIL
AAXX 28124 91519 NIL
AAXX 28124 91531 NIL
AAXX 28124 91532 45/// /0407 10274 20241 30085 40093 52005 333 10307
AAXX 28124 91559 NIL
AAXX 28124 91611 NIL
AAXX 28124 91642 NIL
AAXX 28124 91679 NIL
AAXX 28124 91689 NIL
AAXX 28124 91756 NIL
AAXX 28124 91844 NIL
AAXX 28124 92036 NIL
AAXX 28124 93713 NIL
AAXX 28124 94310 46/// /2817 10278 20241 30020 40031 52015 333 10321
AAXX 28124 95283 46/// /2504 10265 20212 30070 40077
AAXX 28124 95288 46/// /1104 10276 30055 40070 53015
AAXX 28124 95675 46/// /1816
AAXX 28124 95872 46/// /1611
AAXX 28124 95961 37/// /2812 10134 30113 40154 52011 7//44
AAXX 28121 38141 41598 82605 10013 21019 30011 40171 57010 72162 885// 555 1/000
AAXX 28121 38149 42598 82003 10030 21021 30128 40205 57005 885// 555 11004
AAXX 28121 38178 42598 71808 11004 21136 39950 40244 53002 87500 555 10100
AAXX 28121 38262 42698 82307 10027 21006 30121 40203 57007 885// 555 12002
AAXX 28121 38264 42598 72104 10036 21002 30130 40225 54000 85570 333 85621 555 1/003
AAXX 28121 38396 41697 72304 10040 20000 30116 40243 53030 78082 875// 333 83947 555 12004
AAXX 28121 38403 41495 82004 10011 21041 30128 40252 53009 71072 886// 555 1/004
AAXX 28121 38413 42598 62007 10000 21063 39963 40262 57003 82580 555 1/101
AAXX 28121 38457 41494 81602 11003 21012 39700 40306 52022 77372 8802/ 555 1/100
AAXX 28121 38462 41596 80000 11046 21066 38807 48541 52011 77177 887// 555 1/107
AAXX 28121 38565 32597 81806 11008 21047 39682 40286 51002 85540 555 11005
AAXX 28121 38579 32597 82205 10019 21031 39869 40299 53018 889// 555 1/000
AAXX 28121 38583 32597 81401 10009 21002 39976 40307 53018 887// 555 1/000
AAXX 28121 38611 41595 81001 10016 20008 39717 40304 52010 71042 8427/ 333 82445 555 1/000
AAXX 28121 38618 41993 83601 10009 20004 39579 40287 53010 74674 8807/ 555 12000
AAXX 28121 38683 42497 81806 10014 21005 30012 40297 53003 70272 887// 333 88712 555 11000
AAXX 28121 38696 41597 81101 10005 21009 39420 40302 53006 70282 86941 555 11101
AAXX 28121 38812 41697 81802 10030 20006 39838 40302 70282 8635/ 333 85923 555 11005
AAXX 28121 38927 32560 70000 10049 20022 39933 40317 53008 87900 333 86622 555 11006
BBXX YJZC5 28123 99179 31740 41293 53217 10280 20237 40084 51/// 70000 83875 22263 02280 2//// 399// 40203 80250
BBXX VNVF 28124 99185 31177 41497 12820 10275 20247 40045 53011 70200 8/100 22213 00290 20401 304// 40502 80255
BBXX VNSZ 28114 99384 31446 46/// /1921 10160 20119 30151 40177 52014 22235 04186 85136
BBXX C6FS9 28114 99322 31336 46/// /1629 10192 20163 30129 40165 52008 22200 04233 85173
BBXX VNSZ 28104 99383 31449 46/// /1716 10161 20115 30148 40174 52015 22244 04201 85134
BBXX 9HA2479 28104 99323 31536 46/// /1733 10214 20165 30071 40100 52030 22254 04226 85182
BBXX C6FS9 28104 99322 31336 46/// /1528 10193 20162 30124 40160 52006 22200 04235 85173
BBXX VROB 28104 99273 31532 46/// /1422 10236 20169 30055 40080 5//// 22200 04249 85191
BBXX VNAH 28104 99383 31416 46/// /1908 10161 20098 30161 40185 52008 22200 04193 85125
BBXX VNAH 28114 99383 31416 46/// /1807 10162 20103 30164 40188 52009 22200 04193 85128
BBXX VROB 28114 99273 31532 46/// /1521 10235 20174 30066 40091 5//// 22200 04248 85194
BBXX VRDG4 28123 99368 31766 41298 10424 10200 20192 40158 50012 70200 811// 22223 20604 80195
BBXX ZMKA 28124 99450 31716 41/93 /3613 10150 20143 40103 54000 74544 8//// 22213 20101 80146
BBXX 2ALD3 28123 99105 31519 41398 40208 10295 20275 40069 53/// 702// 84/// 22234 04290 2//// 80280
BBXX GRFP 28114 99353 31750 41298 80533 10190 20174 40129 52010 70222 8/7// 22244 00200 20402 311// 41004 80180
BBXX VRAE2 28124 99358 31753 41/// 80327 10195 20162 40136 58013 70122 8//// 22274 04200 2//// 80175
BBXX VROC 28124 99239 31540 41398 81415 10270 20226 40077 51011 70395 887// 22243 04280 20303 315// 40804 80240
AAXX 28124 63705 11565 41504 10257 20201 38833 48490 69907 72902 82903 333 59015 82822 81924 84172 555 10216
AAXX 28121 37395 42698 82703 10070 20032 30176 40319 57012 8552/ 555 11008
AAXX 28121 37409 41/91 92702 11022 21022 38837 48552 57002 77174 333 95080 555 1/103
AAXX 28121 37432 42997 00000 10008 21042 38992 48520 57008 555 10101
AAXX 28121 37514 42699 10000 10052 21071 39109 40274 57020 81500
AAXX 28121 37545 16/// /1503 10073 21022 39737 40257 56015 60001
AAXX 28121 37621 42699 10000 10092 21054 39593 40232 57017 81200 555 11010
AAXX 28121 37484 NIL
AAXX 28124 41859 NIL
AAXX 28124 41883 NIL
AAXX 28124 41891 NIL
AAXX 28124 41907 NIL
AAXX 28124 41923 31950 20000 10230 20160 30118 40128 70500 82030 333 10288 56090 58008 70000 82360
AAXX 28124 41936 31930 20000 10220 20170 40137 70500 82030 333 10280 56090 58012 70000 82362
AAXX 28124 41943 31440 70000 10234 20190 30127 40135 70522 83570 333 10287 56990 58013 70000 83616 85458
AAXX 28124 41950 31440 60000 10226 20190 30131 40134 70522 84531 333 10278 56799 58013 70000 84617 83362
AAXX 28124 41978 31440 60000 10225 20210 30124 40131 70542 82320 333 56990 58014 70000 82618 81928 84459
AAXX 28124 41992 11320 80000 10222 20180 30129 40131 69909 72055 8432/ 333 10237 56999 58009 70050 84615 88458 81925
AAXX 28124 78988 02482 61309 10259 20228 30147 40158 52014 69991 82270 333 10291 20244 59006 60007 70009 82817 86359
AAXX 28124 78873 02575 20613 10251 20209 30148 40193 52015 60001 82200 333 10280 20242 58003 60007 82820
AAXX 28124 78990 01/// /0000 10267 20233 30160 52015 60001 70000 333 10304 20254 59005 60007 70003
AAXX 28124 78988 02482 61309 10259 20228 30147 40158 52014 69991 82270 333 10291 20244 59006 60007 70009 82817 86359
AAXX 28124 78873 02575 20613 10251 20209 30148 40193 52015 60001 82200 333 10280 20242 58003 60007 82820
AAXX 28124 78990 01/// /0000 10267 20233 30160 52015 60001 70000 333 10304 20254 59005 60007 70003
AAXX 28124 78988 02482 61309 10259 20228 30147 40158 52014 69991 82270 333 10291 20244 59006 60007 70009 82817 86359
AAXX 28124 78873 02575 20613 10251 20209 30148 40193 52015 60001 82200 333 10280 20242 58003 60007 82820
AAXX 28124 78990 01/// /0000 10267 20233 30160 52015 60001 70000 333 10304 20254 59005 60007 70003
AAXX 28124 91367 32474 30909 10278 20232 83100 333 10317 562// 83815 555 92812 91369 32474 21020 10272 20244 30075 40078 82100 333 10311 562// 82815 555 92812
BBXX 44139 28121 99442 70571 46/// /1004 10055 40164 57022 22200 00053 11105 70025 333 91205
AAXX 28123 91802 NIL
AAXX 28123 91809 NIL
AAXX 28123 91831 36/// /3210 10237 2022.9 40087 57007
AAXX 28123 91841 36/// /0000 10236 20217 40072 57018 333 29298
AAXX 28123 91848 36/// /3419 10235 20230 49892 52005 333 10280
AAXX 28123 91843 11397 83015 10251 20248 40048 57020 60011 70288 8677/ 333 10283 5679/ 84705 86812 88459
AAXX 28124 85892 12670 22406 10173 20054 40171 52015 60004 333 20085 30/// 70000
BBXX 44139 28121 99442 70571 46/// /1004 10055 40164 57022 22200 00053 11105 70025 333 91205
AAXX 28124 62305 32960 50508 10165 20097 40252 57015 85050
AAXX 28124 62306 32560 40310 10182 20102 40252 57023 84200
AAXX 28124 62318 32560 50309 10196 20111 40234 57024 85800
AAXX 28124 62337 NIL
AAXX 28124 62366 32560 60316 10178 20092 40221 57024 83250
AAXX 28124 62393 32960 03605 10178 20039 40202 56023
AAXX 28124 62405 32960 10502 10220 20078 40180 57022 80002
AAXX 28124 62414 NIL
AAXX 28124 62417 32960 50909 10202 20085 40227 57032 85050
AAXX 28124 62440 32560 60213 10184 20081 40225 57025 86200
AAXX 28124 62463 32960 33611 10206 20079 40194 57029 83030
AAXX 28124 62465 32960 03614 10210 20139 40182 57026
AAXX 28124 62419 NIL
AAXX 28124 48360 32960 00000 10249 20179 39886 40147 52010 333 10298 59017
BBXX 46035 28121 99571 71778 46/// /3510 1//// 40078 51008 91150 22200 10806 20805 300// 41501 70028 333 91214 555 11103 22110 31145 43314 61149 353104 353106 338085 347109 351103 357078 83512 91134
BBXX 9V7955 28124 99319 71753 41/95 /2602 10200 20190 40150 51020 760// 8//// 22263 00180 20202 32726 40304 50204 6//// 80195 ICE /////
BBXX A8UE5 28124 99544 71735 41/// /3221 11050 21057 40035 54000 72300 8//// 22224 04030 2//// 3//// 4//// 5//// 81050
BBXX DCLH2 28120 99300 71624 41/98 61713 10210 20180 40215 57005 70322 8//// 22263 06220 2//// 3//// 4//// 5//// 80190
BBXX DGDD 28121 99327 71612 41/97 72210 10200 20185 40200 5/000 70200 8//// 22224 04180 2//// 3//// 4//// 5//// 80190
BBXX NWS0003 28124 99539 71665 43/// /0000 11040 21062 49975 5//// 7//// 8//// 222// 0//// 2//// 3//// 4//// 5//// 6//// 8//// ICE /////
BBXX OZBY2 28124 99374 71647 41/// 82326 10160 20130 40100 54000 7//21 8//// 22224 00150 20812 321// 41508 5//// 6//// 80140 ICE /////
AAXX 28121 33415 32597 32904 10059 21010 39905 40310 58011 82530
AAXX 28121 33466 32998 23103 10052 21001 30087 40277 58004 80001
AAXX 28124 06670 31140 71806 10019 21002 39779 40308 5//// 71042 85602 333 553// 21019 83702 83704 85070
AAXX 28124 06700 31/04 93101 11007 21009 39810 40327 5//// 74944 333 553// 20450
AAXX 28124 06680 32988 52524 10008 21093 37579 47129 5//// 80001 333 553// 20976 85072 444 56075
AAXX 28124 06990 31940 33305 10014 21004 39733 40300 5//// 70541 80002 333 553// 20958 83079
AAXX 28124 06760 32970 11502 10082 20004 39834 40288 5//// 80001 333 553// 21267 81079
AAXX 28124 06720 32982 22503 10012 21016 39720 40317 5//// 80001 333 553// 21242 82080
AAXX 28124 89002 42999 61907 11016 21045 39754 49808 57003 86030 333 11012 21052
AAXX 28124 06610 31003 82601 11005 21008 39716 40327 5//// 74444 886// 333 553// 20410 88701
AAXX 28124 60285 32458 50404 10168 20128 40279 50001 85500 333 85616
AAXX 28121 48820 32598 81401 10179 20127 30195 40203 53009 888// 333 00018 10189 59011 70000 82895 88697
AAXX 28121 48823 32497 80000 10182 20138 30197 40200 53008 888// 333 00018 10195 59009 70000 86894 88696
AAXX 28124 81225 12470 30906 10264 20235 40160 60024 82832 333 56299 58004 82810
AAXX 28124 81200 12470 21106 10274 20233 40155 60024 82833 333 56299 58002 82815
AAXX 28124 81202 11470 31205 10260 20243 40159 60044 725// 83802 333 20238 56209 58005 83815
AAXX 28124 81209 12465 70000 10254 20237 4//// 60194 87832 333 56299 5//// 83812 86620
AAXX 28124 81251 NIL
AAXX 28121 01025 17/16 /2604 10002 21009 39965 49976 51014 6//// 771// 333 91110
AAXX 28121 01059 41486 52911 10013 21021 39915 49924 51019 71687 83369 333 91119
AAXX 28121 01311 47156 81612 10053 20040 39874 49936 58070 761// 333 91123
AAXX 28121 48919 01598 80512 10257 20232 30084 40106 53014 69944 70382 8322/ 22200 02262 2//04 333 10262 5901 3 96622 70004 83895 88499
AAXX 28121 48916 32598 70201 10269 20231 30073 40120 53012 82208 333 00/// 10294 59013 70000 82895 87299
AAXX 28121 01441 16/// /1808 10003 21013 38998 49976 58070 60021 333 91113
AAXX 28124 71612 16/// /2204 10011 20000 39806 49895 53011 60001 333 10032 20011 70141
AAXX 28124 71959 17/// ///// 10054 21014 69981 7//4/ 333 10040 21005 4/005 70015
AAXX 28124 71977 46/// /1001 11225 21225 39262 49984 58005 6///1 333 11171 21227 4/035 7//// 555 10050
AAXX 28124 71978 46/// /0206 11249 21273 39678 40000 58008 6///1 333 11243 21251 4/006 7//// 555 10020
AAXX 28124 71989 16/// /0108 11271 21297 30171 40188 55000 60001 333 11264 21300 4/051 70000
AAXX 28124 71107 16/// /2635 10072 20065 39770 49880 52011 60001 333 10076 20042 70000
AAXX 28124 71110 16/// /0606 11029 21029 30103 40164 58022 60001 333 10019 21041 4/003 70000
AAXX 28124 71133 46/// /2608 11076 21138 39314 40021 58011 6///1 333 11012 21078 7////
AAXX 28124 71139 16/// /2108 11001 21043 38577 40017 58027 60001 333 10028 21023 70000
AAXX 28124 71141 16/// /3105 11327 21360 30021 40049 55001 60001 333 11298 21341 4/004 70010
AAXX 28124 71147 16/// /1608 11122 21138 60001 333 11108 21139 70000
AAXX 28124 71155 16/// ///// 11058 21099 60001 333 10017 21142 4/002 70000
AAXX 28124 71156 16/// /0603 11065 21148 38883 49973 56032 60001 333 10014 21112 4/017 70000
AAXX 28124 71158 16/// /1209 11144 21167 39786 40071 56035 60001 333 11160 21193 70000
AAXX 28124 71159 16/// /0905 10007 21019 30061 40133 55004 60001 333 10025 21024 70006
AAXX 28124 71160 17/// /1102 11117 21134 39730 49944 58003 69941 7//4/ 333 11128 21150 70052
AAXX 28124 71162 16/// /2708 11149 21168 39740 49951 50000 60001 333 11108 21149 70003
AAXX 28124 71164 46/// /1903 11239 21266 39954 40037 58001 6///1 333 11207 21239 7////
AAXX 28124 71165 46/// ///06 11190 21212 39686 49974 50002 6///1 333 11166 21194 7////
AAXX 28124 71166 46/// /0000 39344 50004 6///1 333 7////
AAXX 28124 71168 16/// /0000 11068 21086 39528 40127 58015 60001 333 10032 21072 70000
AAXX 28124 71758 16/// /1410 10019 20018 30045 40122 58020 60001 333 10009 21023 70000
AAXX 28124 71771 46/// /1618 10079 20067 39809 49829 51013 6///1 333 10057 20033 7////
AAXX 28124 71920 16/// /1426 10092 20083 39979 49985 58053 60001 333 10070 20062 70000
AAXX 28124 71402 46/// /1706 11006 21024 30051 40166 57006 6///1 333 10026 21013 7////
AAXX 28124 71407 16/// /2513 11305 21342 30044 40066 53002 60001 333 11286 21306 70000
AAXX 28124 71425 17/// /1108 10034 20013 39913 49949 56073 60011 7//4/ 333 10019 21004 70010
AAXX 28124 71442 16/// /1512 11112 21127 39743 40066 58042 60001 333 11136 21167 70000
AAXX 28124 71449 16/// /1304 11115 21144 39693 40108 56023 60001 333 11062 21142 70000
AAXX 28124 71268 12974 13608 11212 21235 39718 40139 53026 60001 81070 333 10020 21212 70062
AAXX 28124 71288 16/// /3206 11373 21412 30047 40073 58002 60001 333 11294 21373 4/002 70000
AAXX 28124 71294 17/// /3408 11126 21154 39597 40001 52037 60021 7//4/ 333 10018 4/012 70086 555 10070
AAXX 28124 71297 17/// /3109 11049 21084 69931 7//4/ 333 10039 21049 70108
AAXX 28124 71501 16/// /1107 11234 21259 30022 40024 58010 60001 333 11229 21238 4/056 70000
AAXX 28124 71503 46/// /0000 11213 21237 39733 40011 53002 6///1 333 11187 21235 4/005 7////
AAXX 28124 71511 16/// /2609 11077 21117 39412 40056 58008 60001 333 11014 21078 55/// 20000 70005
AAXX 28124 71522 47/// /3409 11055 21077 39432 49912 56032 6///1 7//4/ 333 11007 21055 70011
AAXX 28124 71357 16/// /1002 11268 21307 30006 40013 53025 60001 333 11206 21305 4/070 70000 555 10010
AAXX 28124 71361 16/// /2903 11239 21263 39763 49975 56005 60001 333 11072 21246 70011
AAXX 28124 71363 16/// /2504 11350 21388 30001 40059 56001 60001 333 11306 21370 70000
AAXX 28124 71364 16/// /2001 11220 21243 39880 40017 56005 60001 333 11211 21225 4/027 70012 555 10020
AAXX 28124 71365 16/// /3101 11283 21310 39772 49994 55000 60001 333 11187 21287 4/029 70000
AAXX 28124 71386 17/// /1603 10023 20012 39705 49907 56043 60121 7//4/ 333 10001 21026 70120
AAXX 28124 71393 16/// ///// 11072 21107 38727 49991 58034 60001 333 10067 21074 4/001 70000
AAXX 28124 71395 12374 81420 10054 20043 39869 40046 58042 60001 85772 333 10031 20015 42008 70000
AAXX 28124 71812 46964 30206 11294 21337 30079 40093 5/017 6///1 333 11260 7////
AAXX 28124 71837 16/// ///// 10056 60001 333 10057 20009 70000
AAXX 28124 71839 16/// ///// 10050 60001 333 10069 21009 70000
AAXX 28124 71840 46/// /1704 11158 21169 6///1 333 11106 21162 7////
AAXX 28124 71849 16/// /1714 11091 21107 39779 40088 58026 60001 333 11111 21147 70000
AAXX 28124 71137 16/// /0000 11069 21077 39110 40057 58025 60001 333 10014 21113 70000
AAXX 28124 71148 16/// /1905 11148 21161 39486 40081 56018 60001 333 11095 21149 4/003 70000
AAXX 28124 71015 16/// ///// 10038 60001 333 21017 7////
AAXX 28124 71017 16/// /3105 11323 21357 30050 40065 53001 60001 333 11305 21355 70000
AAXX 28124 71018 16/// ///01 11267 21294 39954 40044 51002 60001 333 11231 21280 70000
AAXX 28124 71019 46/// /1410 10051 20051 39604 49899 56032 6///1 333 10014 21024 7////
AAXX 28124 71020 46/// /0201 11294 21325 39714 49979 53006 6///1 333 11191 21294 4/007 7////
AAXX 28124 71021 46/// /2401 11267 21296 39610 49972 51002 6///1 333 11133 21276 4/007 7////
AAXX 28124 71450 16/// /2604 11100 21121 39336 40061 58021 60001 333 10021 21107 70008
AAXX 28124 71451 17/// /1902 11131 21150 39571 40004 58009 69961 7//4/ 333 11125 21152 4/024 70020 555 10020
AAXX 28124 71454 16/// /2905 11053 21088 39327 40018 58002 60001 333 11037 21065 55/// 20000 70003
AAXX 28124 71470 16/// /0603 11252 21278 39370 40016 56008 60001 333 21292 7////
AAXX 28124 71476 17/// /1524 39820 53012 60241 7//4/ 333 70358
AAXX 28124 71478 17/// /2233 10086 20075 39815 49949 53018 60021 7//4/ 333 20041 7////
AAXX 28124 71479 16/// /2124 10086 20078 39875 49994 53018 60001 333 10094 7////
AAXX 28124 71482 46/// /0803 10023 39912 49950 53009 6///1 333 10066 20013 7////
AAXX 28124 71484 16/// /1825 10081 20065 39814 49832 50020 60001 333 10057 20019 70000
AAXX 28124 71489 16/// /2003 11123 21150 39242 40054 56021 60001 333 10004 21131 70006
AAXX 28124 71492 46/// ///20 11192 21244 39312 40018 58001 6///1 333 11179 21220 4/014 7//// 555 10020
AAXX 28124 71631 17/// /0000 11107 21125 39558 40063 53027 69981 7//4/ 333 10014 21107 70066
AAXX 28124 71633 11/08 93006 11097 21112 39812 40087 52029 60021 77377 333 10037 21099 43011 55000 70134 90983 93105
AAXX 28124 71807 16/// /0604 11019 21024 30164 40183 58015 60001 333 10011 21035 70000
AAXX 28124 71850 12974 61610 11169 21227 39608 40129 57026 60001 86070 333 11095 21183 48014 79999
AAXX 28124 71938 11566 20305 11312 21343 30051 40082 50002 69901 77677 82500 333 11229 21318 44026 79999 90983
AAXX 28124 71307 16/// /3116 11056 21087 39866 40120 52037 60001 333 10035 21056 4/001 70095
AAXX 28124 71311 16/// /1619 10067 20036 39970 49994 58064 60001 333 10036 20025 70000
AAXX 28124 71317 16/// /1411 10035 20021 39998 40044 58043 60001 333 10028 20010 4/005 70000
AAXX 28124 71321 16/// /2907 11279 21310 30055 40101 53031 60001 333 11228 21286 4/011 70000
AAXX 28124 71883 46/// /0000 11006 21007 39204 40017 53005 6///1 333 10021 21010 7////
AAXX 28124 71892 11369 61306 10088 20066 30045 40051 53023 69901 70262 84570 333 10084 20061 55000 70174 90963
AAXX 28124 71239 16/// /2007 11123 21138 39599 40076 57016 60001 333 11088 21124 4/003 70000
AAXX 28124 71243 16/// /2409 10048 21017 38941 49995 56034 60001 333 10066 20005 70000
AAXX 28124 71246 16/// /1403 11117 21134 39336 40001 58012 60001 333 10017 21142 7////
AAXX 28124 71552 46/// /1414 11120 21142 6///1 333 11132 21155 7////
AAXX 28124 71553 16/// /2207 11082 21090 60001 333 11090 21101 70016
AAXX 28124 71564 16/// /1706 11127 21143 39703 40087 57024 60001 333 11099 21128 70000
AAXX 28124 71571 16/// /1508 11076 21132 38775 49965 56021 60001 333 11007 21091 70011
AAXX 28124 71577 46/// /1715 11115 21131 6///1 333 11126 21152 7////
AAXX 28124 71578 17/// /1107 10003 21001 60051 7//4/ 333 10011 21009 70221
AAXX 28124 71579 16/// /2302 11093 21114 39791 40082 58024 60001 333 11111 21147 70000
AAXX 28124 71585 46/// /2509 11100 21117 39538 49997 58004 6///1 333 21102 4/016 7//// 555 10030
AAXX 28124 71472 17/// /2027 10076 20061 60011 7//4/ 333 10062 20041 70022
AAXX 28124 71510 16/// /1902 11123 21151 39342 40057 58016 60001 333 10011 21136 70006
AAXX 28124 71703 11232 81509 10053 20047 39610 49901 57033 60063 761// 885// 333 10013 21024 43015 55/// 70064 90999 555 10016 20016 31717 40150
AAXX 28124 71732 17/// /3513 11151 21174 60011 7//4/ 333 10033 21154 4/003 70108 555 10010
AAXX 28124 71736 46/// ///// 10035 21004 6///1 333 10043 20005 4/001 7////
AAXX 28124 71744 17/// /1415 10042 20027 39919 49959 58059 60011 7//4/ 333 10022 20004 4/001 70012
AAXX 28124 71885 16/// ///// 10046 60001 333 10068 21006 70000
AAXX 28124 71886 16/// /2609 11055 21076 39435 40047 58007 60001 333 11081 21112 4/007 55/// 20000 70000
AAXX 28124 71669 16/// /2610 10054 21049 38373 49954 56027 60001 333 10028 21038 70000
AAXX 28124 71696 16/// /1810 11217 21253 30046 40084 57026 60001 333 11259 21301 70000
AAXX 28124 71074 16/// ///20 11309 21340 30004 40084 53004 60001 333 11274 21313 4/010 7////
AAXX 28124 71075 16/// /1811 11141 21157 39365 49978 58006 60001 333 11147 21153 4/063 70000
AAXX 28124 71087 46/// /2802 11281 21310 39772 49983 58001 6///1 333 11128 21282 7////
AAXX 28124 91753 04473 82916 10261 20245 30041 40073 58011 60011 700// 333 69967 90710 91127 555 69905
AAXX 28124 91754 06/// /2708 10262 20237 30034 40075 58007 69961 333 10289 55002 2//// 58003 60007 555 60005
AAXX 28124 71850 12974 61610 11169 21227 39608 40129 57026 60001 86070 333 11095 21183 48014 79999
AAXX 28124 71631 17/// /0000 11107 21125 39558 40063 53027 69981 7//4/ 333 10014 21107 70066
AAXX 28124 71633 11/08 93006 11097 21112 39812 40087 52029 60021 77377 333 10037 21099 43011 55000 70134 90983 93105
AAXX 28124 71883 46/// /0000 11006 21007 39204 40017 53005 6///1 333 10021 21010 7////
AAXX 28124 71892 11369 61306 10088 20066 30045 40051 53023 69901 70262 84570 333 10084 20061 55000 70174 90963
AAXX 28124 71137 16/// /0000 11069 21077 39110 40057 58025 60001 333 10014 21113 70000
AAXX 28124 71148 16/// /1905 11148 21161 39486 40081 56018 60001 333 11095 21149 4/003 70000
AAXX 28124 71938 11566 20305 11312 21343 30051 40082 50002 69901 77677 82500 333 11229 21318 44026 79999 90983
AAXX 28124 71472 17/// /2027 10076 20061 60011 7//4/ 333 10062 20041 70022
AAXX 28124 71510 16/// /1902 11123 21151 39342 40057 58016 60001 333 10011 21136 70006
AAXX 28124 71807 16/// /0604 11019 21024 30164 40183 58015 60001 333 10011 21035 70000
AAXX 28121 14008 12999 01805 10032 21116 37569 47144 57018 60001 333 95170 444 76095
AAXX 28124 91367 32474 30909 10278 20232 83100 333 10317 562// 83815 555 92812 91369 32474 21020 10272 20244 30075 40078 82100 333 10311 562// 82815 555 92812
AAXX 28124 71850 12974 61610 11169 21227 39608 40129 57026 60001 86070 333 11095 21183 48014 79999
AAXX 28124 17070 11956 01802 10006 21030 39417 40331 57023 69901 71071 333 91104 93100
BBXX 44150 28121 99425 70640 46/// /1613 10109 40033 57063 22200 00071 11206 70031 333 91216
AAXX 28123 63684 32682 52110 10307 201/// 84965 333 59006 83833 81935 85275 555 10208
AAXX 28124 84377 21258 80000 10240 20226 30027 40133 70220 85720 333 20228 5600/ 59009 69924 85705 87460
AAXX 28124 84501 31123 81702 10176 20160 30114 40141 71010 886// 333 20168 56000 58010 88702
AAXX 28124 84720 31960 49902 10200 20154 39507 40174 701// 80030 333 20155 56090 58002 84468
AAXX 28124 84752 22860 80000 10154 20096 37548 70222 8803/ 333 20135 5609/ 58004 60014 83357 85366
AAXX 28124 84735 31360 89901 10072 20049 36483 702// 82150 333 20040 56990 58004 60074 82810 86657
AAXX 28124 84688 21240 80000 10071 20030 36665 760// 886// 333 20 60 569// 5/8002 61904 83610 88630 84686 21559 8//// 10108 20071 36909 76022 888// 333 20108 56900 58000 69924 81825 83636 85643
AAXX 28124 84628 34560 81508 10216 20186 30122 40138 70222 885// 333 20201 564// 58010 88628
AAXX 28124 84515 21460 70000 10252 20232 39956 40134 70120 84530 333 20216 56990 59015 60034 84617 83358
AAXX 28124 84472 31960 0//// 10094 20086 37426 7000/ 333 20070 58000
AAXX 28124 84425 31560 70000 10240 20226 39945 40164 702// 8453/ 333 20/// 5689/ 58009 84620 83360
AAXX 28124 84370 31960 09901 10250 20235 30095 40129 702// 333 20210 58014
AAXX 28124 84455 21310 80000 10222 20213 39840 40194 71022 85630 333 20220 56000 59010 85607 83357
AAXX 28124 43466 22470 73202 10276 20223 30069 40081 83136 333 00015 10291 59011 60007 83818 87280
AAXX 28124 40550 35/70 /0108 10181 21010 40197 56014 333 0/020 55310 00439 10000 21249 30374 41048 51491 61623 55407 40875 90069 90401 91015 91121 91209 91307
AAXX 28124 40551 36/// /2721 10185 21015 333 0//// 90401 91027 91129 91221 91319
AAXX 28124 40552 35/63 /3121 10181 21024 40197 56010 333 0/020 55310 90069 90400 91025 91129 91221 91319
AAXX 28124 40553 35/70 /3218 10185 21020 40195 56014 333 0/021 55310 90069 90400 91023 91125 91219 91315
AAXX 28124 40568 36/// /0405 10150 20075 333 0//// 90400 91005 91115 91211 91309
AAXX 28124 40569 NIL
AAXX 28124 40570 37/70 /3015 10169 21007 40209 56012 700// 333 0/020 55309 90069 90401 91019 91125 91219 91315
AAXX 28124 40571 NIL
AAXX 28124 40572 NIL
AAXX 28124 40573 36/// /3218 10169 21018 333 0//// 90401 91023 91129 91221 91319
AAXX 28124 40580 36/// /3106 10189 21002 333 0/024 553// 00625 10000 21428 30276 41030 51566 61704 55407 41152 90400 91013 91117 91209 91307
AAXX 28124 40581 36/// /1203 10188 20024 333 0//// 90401 91009 91115 91205 91303
AAXX 28124 40582 31958 03417 10186 21029 40199 56013 70500 333 00022 55300 00574 10000 21475 30474 41106 51538 61949 55407 41001 90400 91023 91123 91217 91311
AAXX 28124 40583 NIL
AAXX 28124 40585 36/// /3504 10167 20049 222// 1//// 3//// 4//// 70/// 333 0//// 90400 91011 91123 91213 91307
AAXX 28124 40586 36/// /2908 10193 21023 333 0//// 90400 91017 91123 91211 91309
AAXX 28124 40587 46/// /3115 10191 21027 333 0/022 553// 00610 10000 21461 30392 41044 51509 61853 55407 41069 90401 91025 91127 91219 91315
AAXX 28124 40588 35/69 /3009 10176 20007 40197 56014 333 0/020 55300 90069 90401 91013 91121 91215 91313
AAXX 28124 40589 NIL
AAXX 28124 40590 36/// /3221 10178 21017 333 0//// 90401 91027 91129 91223 91321
AAXX 28124 40591 NIL
AAXX 28124 40592 35/66 /3312 10193 21022 40201 56013 333 0/020 55310 00686 10000 21402 30274 41070 51516 61676 55407 41128 90069 90400 91021 91123 91215 91311
AAXX 28124 40593 36/// /0408 10168 20078 333 0//// 90400 91009 91119 91213 91311
AAXX 28124 40594 36/// /3308 10202 21023 333 0//// 90401 91015 91119 91209 91307
AAXX 28124 40596 46/// /3003 10175 20056 333 0//// 90401 91005 91121 91215 91307
AAXX 28121 48917 32598 70000 10282 20232 30120 40126 52010 8221/ 222// 00292 2//00 333 00028 10312 59015 7000 0 82895 87499
AAXX 28121 48900 32497 60505 10262 20200 30106 40116 52018 868// 333 10300 59011 82894 85696
AAXX 28121 48918 32498 70702 10252 20206 30117 40128 52015 83208 222// 00254 2//02 333 00026 10276 59011 7000 0 82894 86299
AAXX 28121 48914 12598 71401 10264 20229 30116 40118 53013 69914 878// 333 00026 10297 59019 70001 83895 8569 6
AAXX 28124 40356 32960 00000 10120 21010 39239 48523 333 59021 555 04410 50237
AAXX 28124 40357 32960 00000 10149 20020 39582 40234 333 59018
AAXX 28124 40360 32960 01604 10138 20010 39631 40237 333 59019
AAXX 28124 40361 32960 00000 10150 21010 39448 40236 333 59015
AAXX 28124 40362 32960 03212 10145 21030 39702 40230 333 59009
AAXX 28124 40373 32960 03006 10156 20030 39786 40212 333 59009
AAXX 28124 40375 32960 00812 10175 21010 39309 40193 333 59026
AAXX 28124 40377 32960 03611 10160 20020 39732 40223 333 59010
AAXX 28124 40394 32960 01206 10154 20040 39072 48538 333 59013 555 04410 50221
AAXX 28124 40400 32960 02912 10260 20090 30143 40171 333 59016
AAXX 28124 40401 32960 02608 10200 21010 39479 40174 333 59040
AAXX 28124 40405 32960 00000 10170 20050 39465 40220 333 59001
AAXX 28124 40416 32960 03116 10180 20010 30171 40191 333 58007
AAXX 28124 40417 32960 03015 10174 21010 30192 40207 333 58005
AAXX 28124 40420 32960 03214 10173 21010 30000 40212 333 58008
AAXX 28124 40430 32960 01206 10232 20020 39445 40166 333 59010
AAXX 28124 40435 NIL
AAXX 28124 40437 32960 03107 10173 21010 39506 40221 333 59001
AAXX 28124 40439 32960 02510 10280 20040 30130 40140 333 59013
AAXX 28124 41024 32960 02907 10274 20170 30123 40143 333 59008
AAXX 28124 41030 32960 02502 10324 20150 39857 40127 333 59009
AAXX 28124 41036 32960 03006 10256 20020 38576 48526 333 59007 555 04410 50126
AAXX 28124 41055 32960 00606 10260 20000 38374 48520 333 59003 555 04410 50129
AAXX 28124 41061 32960 01016 10212 20080 39470 40184 333 58000
AAXX 28124 41084 32960 00210 10264 20050 38867 48520 333 58003 555 04410 50136
AAXX 28124 41112 32460 22014 10218 20110 37958 48524 82100 333 59009 82818 555 04410 50158
AAXX 28124 41114 32960 01704 10260 21020 37989 48519 333 59011 555 04410 50134
AAXX 28124 41128 32960 01106 10244 20010 38830 48533 333 59011 555 04410 50166
AAXX 28124 41136 32960 00805 10238 20050 39351 40169 333 59002
AAXX 28124 41140 32560 12411 10310 20230 30123 40132 81100 333 59004 81830
BBXX 44255 28121 99473 70573 46/// /1506 1//// 4//// 5//// 22200 0//// 1//// 70/// 333 912//
AAXX 28120 44203 329// 40000 11311 21328 38451 40525 53006 80004 333 11282
AAXX 28120 44207 329// 30000 11222 21261 38326 40407 51003 80006 333 11179
AAXX 28120 44212 32999 40000 11304 21334 39250 40539 52019 84050 333 11253
AAXX 28120 44213 32999 30000 11296 21326 38863 40536 52008 83030 333 11251
AAXX 28120 44215 32698 30000 11252 21284 38439 40460 52016 82580 333 11216
AAXX 28120 44218 329// 73202 11219 21244 38648 40442 52009 87070 333 11197
AAXX 28120 44225 329// 00000 11321 21343 38319 40573 52010 333 11304
AAXX 28120 44230 329// 00000 11212 21244 38833 40445 52004 333 11177
AAXX 28120 44232 329// 00000 11287 21317 39168 40447 52008 333 11208
AAXX 28120 44237 32999 01803 11196 21237 38508 40390 53013 333 11097
AAXX 28120 44239 329// 03501 11242 21281 38830 40412 52007 333 11176
AAXX 28120 44241 329// 00000 11278 21309 39327 40430 52011 333 11190
AAXX 28120 44256 32999 10000 11273 21291 39475 40446 56002 80004 333 11194
AAXX 28120 44265 329// 50000 11177 21210 38883 40387 54000 83044 333 11120
AAXX 28120 44272 329// 70000 11154 21224 38231 40335 53004 87070 333 11131
AAXX 28120 44275 32898 20000 11215 21227 37742 40442 51009 82041 333 11113
AAXX 28120 44282 32999 00000 11117 21212 38314 40335 52015 333 11009
AAXX 28120 44284 32999 20000 11265 21304 37878 40570 53004 82040 333 11166
AAXX 28120 44285 32999 01601 11211 21245 38344 40434 51009 333 11108
AAXX 28120 44287 32999 20405 11146 21227 38140 40404 52005 80004 333 11077
AAXX 28120 44294 329// 00000 11290 21320 38610 40515 52005 333 11179
AAXX 28120 44298 329// 00000 11223 21223 38770 40518 52005 333 11140
AAXX 28120 44302 129// 02902 11281 21310 39212 40475 53007 69902 333 11184 555 93199
AAXX 28120 44305 32999 00502 11215 21239 39148 40417 51004 333 11164
AAXX 28120 44313 32999 00000 11356 21390 39538 40526 52015 333 11248
AAXX 28120 44314 32998 30000 11225 21257 39263 40463 52011 80002 333 11153
AAXX 28120 44317 32998 00000 11192 21218 39031 40428 55003 333 11123
AAXX 28120 44336 329// 00000 11233 21258 38734 40460 52009 333 11169
AAXX 28120 44341 329// 00000 11192 21218 38648 40429 51010 333 11114
AAXX 28120 44347 32999 00000 11124 21196 38753 40344 52007 333 11067
AAXX 28120 44352 32999 00000 11213 21231 38998 40422 53003 333 11160
AAXX 28120 44358 329// 00903 11214 21226 39169 40431 51005 333 11181
AAXX 28120 44214 32998 23303 11140 21190 38290 40378 52001 81048 333 11077
AAXX 28120 44231 319// 20000 11218 21271 38761 40454 52006 70410 80001 333 11195
AAXX 28120 44259 32997 00501 11264 21295 39440 40455 52001 333 11181
AAXX 28120 44277 326// 72702 11142 21216 37810 40409 52004 82534 333 11050
AAXX 28120 44288 32999 02902 11106 21219 38185 40360 52009 333 11013
AAXX 28120 44292 319// 00000 11196 21229 38747 40412 53010 70400 333 11132
AAXX 28120 44304 329// 02303 11298 21328 39078 40473 52003 333 11204
AAXX 28120 44354 329// 00000 11227 21252 39186 40429 52006 333 11194
AAXX 28120 44373 32999 01801 11132 21203 38571 40359 51004 333 11053
BBXX SMGW 28121 99337 71325 43/98 12207 10153 40306 57009 22224 00166 2//// 4////
BBXX SBLW 28123 99296 71168 43/98 33216 10140 40224 57003 22274 00166 2//// 4////
AAXX 28121 37279 42498 71802 10078 20041 30157 40302 57012 87900
AAXX 28121 37308 42598 80000 10043 21008 57006 8451/ 555 12006
AAXX 28121 37531 42598 62708 10048 21015 39562 40298 57010 86500 555 91115
AAXX 28121 37553 42999 13402 21044 39573 40217 57018 80030 555 11009
AAXX 28121 37651 16/// ///00 10078 21023 3//// 4//// 5//// 60001
AAXX 28121 37492 NIL
BBXX SHJC 28121 99070 10772 43/97 83211 10276 40087 58003 22274 00281 2//// 4////
BBXX SJCD 28121 99489 11617 43/95 90406 11004 40052 54000 22253 00030
BBXX 9V8797 28124 99169 11131 43/97 80430 10235 40164 53018 22283 00241 2//// 4////
BBXX 42085 28121 99179 70665 46/// /0505 10258 40179 91150 333 91207
BBXX 42085 28121 99179 70665 46/// /0605 10258 40178 91140 333 91207
AAXX 28124 78988 02482 61309 10259 20228 30147 40158 52014 69991 82270 333 10291 20244 59006 60007 70009 82817 86359
AAXX 28124 78873 02575 20613 10251 20209 30148 40193 52015 60001 82200 333 10280 20242 58003 60007 82820
AAXX 28124 78990 01/// /0000 10267 20233 30160 52015 60001 70000 333 10304 20254 59005 60007 70003
BBXX 42085 28121 99179 70665 46/// /0605 10258 40180 53014 91200 22200 00271 10602 70010 333 91207
BBXX 41052 28121 99183 70648 46/// /0808 10264 40178 91150 333 91211
BBXX 41052 28121 99183 70648 46/// /0808 10265 40177 91140 333 91210
BBXX 41052 28121 99183 70648 46/// /0809 10263 40180 53014 91200 22200 00269 333 91211
AAXX 28121 06431 36/// /2005 10056 20044 30208 40220 58025 60001 333 91113 91208
AAXX 28124 04211 45/84 /0803 11106 21178 39776 49938 52005
AAXX 28124 04220 07984 71509 11103 21148 39871 49924 52027 69921 70080 333 55300 20000 6///7 81/63 87/70 91221
AAXX 28124 04221 45984 71311 11094 21203 39887 49926 52026 333 83/64 87/66 91117
AAXX 28124 04231 12989 72007 11106 21208 39907 49982 52055 6///1 8707/ 333 87365
AAXX 28124 04234 47426 71629 11085 21123 39964 49975 52061 78687 333 87/12 91149 91042
AAXX 28124 04241 475// 72118 11115 21163 39981 40022 52046 77177 333 81/23 83/37 87/47
AAXX 28124 04250 07/08 92316 11103 21131 39934 40043 52041 69921 77187 333 55300 20490 69927 89/09 91131
AAXX 28124 04254 47403 72414 11108 21143 39931 40050 52042 78588 333 87/16
AAXX 28124 04260 47616 73124 11075 21166 30026 40071 52058 78588 333 87/39 91140 91232
AAXX 28124 04270 47913 52415 11063 21124 39984 40024 52045 78588 333 85/62 91217 91022
AAXX 28124 04272 07933 1//// 11066 21082 39961 40035 52042 69961 77887 333 69907 81/61
AAXX 28124 04312 46/// ///// 11353 21399 30038 40081 52001
AAXX 28124 04320 45/83 92102 11279 21315 30061 40078 57005 333 55300 89/01
AAXX 28124 04339 45/84 ///// 11171 21252 39983 40078 57018 333 55300 20000
AAXX 28124 04360 06/// /3304 11073 21080 39873 49944 57035 60051 333 55300 20000 60057
AAXX 28124 04361 46/// 90833 11072 21092 39882 49935 57040 333 89/06 91147 91235 91043
AAXX 28124 04390 07426 12320 11037 21117 39895 49989 52014 60061 77187 333 60037 81/12 91030 91131
BBXX VCXF 28124 99464 70484 41194 80532 10050 2005/ 40131 57012 71042 89/// 22200 02025 20504 315// 40806 80050
BBXX 44255 28121 99473 70573 46/// /1506 1//// 4//// 5//// 22200 0//// 1//// 70/// 333 912//
AAXX 28121 57461 31956 60701 10084 21001 30127 40295 52018 70500 86040
AAXX 28121 57516 31730 80701 10092 20038 39938 40255 52013 71000 885// 333 05200
AAXX 28121 57816 31658 80203 10038 21014 38817 40243 52009 71000 885// 333 05200
AAXX 28121 58040 31930 70000 10033 20017 30290 40304 52015 71000 8704/
AAXX 28121 58251 31540 50402 10060 20033 30287 40292 52013 71000 85500
AAXX 28121 59644 31956 63602 10162 20072 30192 40209 52007 70500 86040
AAXX 28121 50136 32968 00000 11354 21397 39812 40446 54000
AAXX 28121 50745 32965 00000 11224 21259 30191 40399 52007
AAXX 28121 50774 11960 02701 11234 21264 30023 40363 52014 69901 70070
AAXX 28121 50788 NIL
AAXX 28121 51133 NIL
AAXX 28121 51431 NIL
AAXX 28121 51747 NIL
AAXX 28121 52203 NIL
AAXX 28121 52418 NIL
AAXX 28121 52681 NIL
AAXX 28121 53564 NIL
AAXX 28121 53614 32962 73602 11041 21107 38980 40349 52013 80002 333 05151
AAXX 28121 53646 32970 00902 11034 21114 38925 40347 52007 333 00101
AAXX 28121 53798 NIL
AAXX 28121 53845 NIL
AAXX 28121 53959 NIL
AAXX 28121 54094 32760 72901 11162 21229 30009 40339 52016 875//
AAXX 28121 54102 32980 01601 11237 21259 39142 40483 52011
AAXX 28121 54161 32960 03402 11191 21235 30066 40391 52014
AAXX 28121 54292 32970 22708 11128 21193 39967 40310 52016 80002
AAXX 28121 54374 11962 00202 11133 21192 39845 40344 52024 69931 70070
AAXX 28121 54423 NIL
AAXX 28121 54618 NIL
AAXX 28121 54843 32962 00202 10015 21016 30293 40322 52017
AAXX 28121 54909 32964 43401 10021 21005 30242 40308 52016 84030
AAXX 28121 56029 32980 33203 11029 21129 36446 52012 80002 333 05102
AAXX 28121 57127 NIL
AAXX 28121 57131 32962 03202 10016 21031 39800 40317 52020
AAXX 28121 50953 11965 03603 11198 21236 30176 40375 52015 69901 70070
AAXX 28121 52866 32970 00701 11090 21188 37716 52014 333 00057
AAXX 28121 54823 31958 61102 10024 21025 30099 40316 52013 71000 80002
AAXX 28121 50468 32970 03403 11248 21280 30142 40379 52002
AAXX 28121 54218 32970 00000 11126 21186 39540 40414 52013
AAXX 28121 54471 32960 00407 11107 21198 30369 40375 52021
AAXX 28121 58150 31556 70702 10070 20038 30296 40300 52011 71000 875//
AAXX 28121 58238 31950 03401 10053 20012 30241 40287 52014 70500
AAXX 28121 58457 31750 73402 10100 20042 30228 40282 52014 71000 875//
AAXX 28121 58606 31757 80901 10094 21010 30211 40271 52007 70500 885//
AAXX 28121 59316 32960 00902 10160 20126 30218 40223 52010
AAXX 28121 59758 32465 70904 10183 20157 30126 40203 52009 871//
AAXX 28121 56187 32961 83401 10070 20029 39600 40264 52016 8807/ 333 05201
AAXX 28121 51288 32980 71803 11133 21200 38364 52006 80002 333 00151
AAXX 28121 56778 32562 72203 10114 20067 38122 52002 878// 333 00000
AAXX 28121 57265 31958 03601 10039 20002 30174 40290 52012 71000
AAXX 28121 59287 32664 20202 10152 20118 30123 40209 52009 82502
AAXX 28121 53463 31956 00201 11068 21121 39048 40363 52006 70400 333 00252
AAXX 28121 53513 32965 00401 11079 21147 39063 40378 52010 333 00003
AAXX 28121 54497 32565 73406 11052 21201 30289 40306 52016 875//
AAXX 28121 53959 31959 72001 10006 21046 39842 40305 52006 70500 80002
AAXX 28121 58102 32965 83601 10048 20004 30256 40306 52015 80007
AAXX 28121 58221 31957 30201 10052 20017 30266 40295 52012 71000 80002
AAXX 28121 58752 31757 70401 10117 20094 30218 40265 52009 71000 875//
AAXX 28121 58847 32663 70201 10151 20103 30142 40245 52012 8754/
AAXX 28121 59134 32765 80902 10148 20100 30067 40237 52012 885//
AAXX 28121 59431 31750 83202 10139 20095 30077 40225 52005 71000 885//
AAXX 28121 57687 31740 83402 10081 21014 30185 40271 57001 70500 885//
AAXX 28121 59117 32970 02001 10160 20110 30107 40215 52010
AAXX 28121 52533 32980 01401 11071 21187 38566 40362 52008 333 00000
AAXX 28121 54511 32962 01403 11008 21062 30299 40341 52030
AAXX 28121 56080 32980 70701 11028 21180 37151 52035 80002 333 00000
AAXX 28121 57083 31920 00701 10031 21016 30169 40312 52017 71000
OOXX AAUNI 28124 99798 50833 56093 07671 46/// /2230 11073 21144 38944 49825 54000 91200
AAXX 28121 51463 32965 61801 11076 21130 39180 40354 52008 80002 333 00206
AAXX 28121 51573 32975 72701 11072 21154 30311 40358 52009 80002 333 00001
AAXX 28121 51709 32862 71401 11061 21103 38769 40343 52009 86502 333 00000
AAXX 28121 52652 32980 02201 11094 21208 38579 40359 52011 333 00000
AAXX 28121 52983 31956 72901 11035 21106 38139 52017 70500 80002 333 05104
AAXX 28121 53915 32965 71101 11010 21049 38719 40324 52021 8703/ 333 05101
AAXX 28121 54401 32970 03403 11031 21175 39432 40344 52009
AAXX 28121 56096 32770 70901 10061 21028 38986 40257 52024 875// 333 05201
AAXX 28121 51133 32980 53601 11063 21116 39633 40318 52010 80002 333 05151
AAXX 28121 53798 31958 73601 10007 21064 30224 40325 52016 70400 80002
AAXX 28121 51747 32980 10000 11116 21170 38983 40392 52005 80002 333 00052
AAXX 28121 52203 32980 70000 11126 21186 39413 40374 52011 80002 333 00000
AAXX 28121 52418 32980 62502 11081 21147 38950 40376 52013 80002 333 00152
AAXX 28121 52681 32980 02901 11066 21146 38694 40370 52015 333 00052
AAXX 28121 54423 32960 00201 11074 21128 39812 40367 52020
AAXX 28121 54618 32961 70701 11018 21051 30308 40327 52020 8703/
AAXX 28124 41859 31930 00000 10217 20170 30099 40137 70500 333 10278 58012 70000
AAXX 28124 41883 32930 00000 10205 20145 30116 40137 333 10298 58014 70000
AAXX 28124 41891 31940 00000 10240 20160 30091 40130 70521 333 10310 58005 70000
AAXX 28124 41907 32910 00000 10210 20160 30115 40131 333 10282 58008 70000
AAXX 28121 58362 32970 70701 10096 20060 30273 40281 52007 8703/
AAXX 28121 53588 32980 02202 11098 21129 37820 52008
AAXX 28121 53772 31920 82501 11039 21070 39369 40342 52013 71000 80007
AAXX 28121 54337 32960 00704 11098 21215 30292 40381 52021
AAXX 28121 54342 32962 03605 11140 21229 30311 40378 52015
AAXX 28121 53564 32961 00000 11091 21115 39277 40370 52013 333 00256
AAXX 28121 53845 32960 72501 11007 21071 39151 40326 52012 80002 333 00000
AAXX 28121 53959 31959 72001 10006 21046 39842 40305 52006 70500 80002
AAXX 28121 57127 32961 81801 10074 20015 39644 40267 52016 8807/
AAXX 28121 57494 32962 70201 10042 20019 30241 40272 52005 8704/
AAXX 28124 47401 11/50 82809 11001 21025 30182 40197 53004 69952 78582 883// 333 10005
AAXX 28124 47412 11/60 72405 11012 21086 30192 40226 51005 69902 70282 872// 333 10011
AAXX 28124 47420 15/70 /3117 11002 21054 30135 40169 53012 60002 333 10014
AAXX 28124 47426 15/70 /2910 11025 21063 30168 40217 53004 60002 333 10006
AAXX 28124 47582 11/65 73403 10022 21023 30218 40246 58005 69902 72682 873// 333 10034
AAXX 28124 47590 12/70 12003 11003 21035 30201 40257 50000 60002 81200 333 10052
AAXX 28124 47600 15/70 /2206 10004 21015 30235 40244 58016 69902 333 10058
AAXX 28124 47648 12/80 20416 10068 21018 30211 40246 58007 60002 81502 333 10085
AAXX 28124 47662 12/70 70702 10066 21064 30203 40248 58001 60002 875// 333 10093
AAXX 28124 47678 15/70 /2709 10091 20024 30039 40229 57008 60002 333 10125
AAXX 28124 47740 17/76 /3103 10020 20011 30212 40248 56009 69902 72386 333 10083
AAXX 28124 47778 15/70 /0403 10066 20003 30165 40251 51001 60002 333 10116
AAXX 28124 47807 12/75 21502 10064 20013 30246 40265 58001 60002 81131 333 10113
AAXX 28124 47827 12/65 73306 10092 20040 30215 40254 53001 60002 8257/ 333 10132
AAXX 28124 47843 15/82 /2103 10053 20028 30233 40267 55003 60002 333 10133
AAXX 28124 47893 12/75 42803 10057 21006 30249 40255 50001 60002 81101 333 10124
AAXX 28124 47909 12965 21703 10124 20101 30229 40239 58004 60002 82030 333 10170
AAXX 28124 47918 12/70 71109 10217 20151 30194 40211 50006 69902 8223/ 333 10240
AAXX 28124 47936 12/70 70604 10186 20112 30170 40229 55000 60002 8113/ 333 10216
AAXX 28124 47945 12/65 20701 10141 20120 30203 40228 50004 60002 82200 333 10215
AAXX 28124 47971 12/70 23004 10143 20093 30224 40234 53002 69902 82200 333 10200
AAXX 28124 47991 16/// /0509 10230 20165 30183 40193 51001 69902 333 10243
AAXX 28124 41254 36/// /3006 10160 20022 38064 48069 333 0E006 58002
AAXX 28121 48870 12498 73401 10234 20193 30157 40164 53012 69924 878// 333 01023 10255 59007 70002 82894 8769 6
AAXX 28121 48877 32598 83607 10246 20183 30151 40156 52012 888// 333 00025 10265 59014 70000 84895 86696
AAXX 28121 48887 32798 60704 10261 20205 30114 40120 53006 865// 333 00026 10298 59003 70000 86697
AAXX 28121 48920 01598 80210 10257 20244 30104 40107 52019 60164 72582 889// 222// 00277 2//03 333 10275 5900 7 60032 70155 83995 85697
AAXX 28121 40706 12960 02903 10038 21057 38711 40294 56016 60001 333
AAXX 28121 40718 12962 00402 10110 20072 30262 40233 57019 60001 222// 00112 20000 333
AAXX 28121 40732 12980 00903 10122 20052 30252 40227 56018 60001 333
AAXX 28121 40745 12560 12603 10088 21044 39090 40266 56001 60001 81700 333 81725
AAXX 28121 40754 11950 02102 10082 21030 38878 40251 55011 60001 70500 333
AAXX 28121 40766 12960 01205 10105 21085 38726 40236 57018 60001 333
AAXX 28121 40800 12660 10704 10078 21039 38485 40225 56015 60001 81100 333 81840
AAXX 28121 40811 11956 00902 10166 20053 30165 40193 55011 60001 70500 333
AAXX 28121 40841 12960 00302 10092 21043 38274 40218 56013 60001 333
AAXX 28121 40848 12965 00902 10126 21083 38527 40195 57016 60001 333
AAXX 28121 40856 11959 03604 10104 21067 38663 40220 55001 60001 70500 333
AAXX 28121 40875 11556 12204 10233 20127 30152 40163 56010 60001 70500 81100 333 81825
AAXX 28121 48892 12598 60207 10263 20243 30111 40116 53010 69964 82908 333 10279 58010 69962 70006 82995 8629 9
AAXX 28124 47407 11/60 72004 11026 21051 30042 40221 51006 69902 72682 872// 333 11004
AAXX 28124 47409 11/65 72810 11007 21066 30129 40184 51006 69902 70282 872// 333 10005
AAXX 28124 47418 12965 02813 11005 21071 30139 40190 53007 60002 333 10026
AAXX 28124 47421 17/70 /2804 11013 21081 30184 40229 58001 69902 70070 333 11010
AAXX 28124 47430 12/75 43502 11052 21081 30179 40236 51002 69902 84500 333 10006
AAXX 28124 47570 15/70 /0901 11041 21055 39995 40269 58004 60002 333 10036
AAXX 28124 47575 11/60 82005 10003 21016 30233 40238 56001 69902 78582 883// 333 10017
AAXX 28124 47584 11/60 71504 11006 21041 30049 40246 58004 69902 72682 873// 333 10014
AAXX 28124 47604 12/65 11804 10007 21023 30246 40255 58011 60002 81800 333 10065
AAXX 28124 47605 12/70 61607 10030 21019 30208 40251 58007 60002 85202 333 10068
AAXX 28124 47610 12/70 22605 11016 21056 39743 40268 58004 60002 82200 333 10028
AAXX 28124 47624 12/80 13204 10011 21069 30112 40257 50000 60002 81500 333 10081
AAXX 28124 47629 12980 10502 10003 21053 30216 40256 50000 60002 80002 333 10081
AAXX 28124 47636 12/65 30104 10038 21014 30184 40255 58002 60002 82532 333 10087
AAXX 28124 47651 12/80 62804 10034 21008 30234 40257 56006 60002 81202 333 10091
AAXX 28124 47655 15/70 /2807 10032 21042 30177 40236 58003 60002 333 10104
AAXX 28124 47675 17/70 /0708 10067 20000 30141 40234 58006 69902 72360 333 10102
AAXX 28124 47741 11/65 52601 10024 20014 30228 40256 56008 69902 70282 82201 333 10079
AAXX 28124 47746 11/70 61204 10022 20007 30237 40257 58006 69902 70281 83830 333 10077
AAXX 28124 47750 11358 70101 10021 20014 30232 40261 58004 69902 72582 872// 333 10060
AAXX 28124 47765 12/75 30208 10056 20004 30196 40263 58002 60002 83200 333 10108
AAXX 28124 47772 12/80 51502 10055 21005 30156 40259 58002 60002 81502 333 10082
AAXX 28124 47800 15/84 /3303 10061 21023 30262 40267 55003 60002 333 10102
AAXX 28124 47815 12/80 71704 10058 21018 30246 40263 58003 60002 85531 333 10101
AAXX 28124 47817 12975 10402 10053 20005 30225 40270 53004 60002 80001 333 10104
AAXX 28124 47830 12/65 62904 10075 20053 30237 40256 53003 60002 86802 333 10129
AAXX 28124 47887 12970 41305 10041 21015 30223 40266 50001 60002 80001 333 10106
AAXX 28124 47891 12965 22302 10044 21010 30244 40262 52001 60002 80001 333 10101
AAXX 28124 47895 12/75 10000 10042 20002 30254 40262 55000 60002 81200 333 10106
AAXX 28124 47927 12/70 11008 10194 20131 30168 40217 50002 69902 81100 333 10230
AAXX 28121 40706 12960 02903 10038 21057 38711 40294 56016 60001 333
AAXX 28121 40718 12962 00402 10110 20072 30262 40233 57019 60001 222// 00112 20000 333
AAXX 28121 40732 12980 00903 10122 20052 30252 40227 56018 60001 333
AAXX 28121 40745 12560 12603 10088 21044 39090 40266 56001 60001 81700 333 81725
AAXX 28121 40754 11950 02102 10082 21030 38878 40251 55011 60001 70500 333
AAXX 28121 40766 12960 01205 10105 21085 38726 40236 57018 60001 333
AAXX 28121 40800 12660 10704 10078 21039 38485 40225 56015 60001 81100 333 81840
AAXX 28121 40811 11956 00902 10166 20053 30165 40193 55011 60001 70500 333
AAXX 28121 40841 12960 00302 10092 21043 38274 40218 56013 60001 333
AAXX 28121 40848 12965 00902 10126 21083 38527 40195 57016 60001 333
AAXX 28121 40856 11959 03604 10104 21067 38663 40220 55001 60001 70500 333
AAXX 28121 40875 11556 12204 10233 20127 30152 40163 56010 60001 70500 81100 333 81825
AAXX 28124 61017 32960 71004 10260 21007 39738 40148 84032 333 0//00 59026 84364 85080
AAXX 28124 61024 32960 50804 10273 21005 39578 40145 80002 333 0//00 59015 85080
AAXX 28124 61036 32965 70406 10288 20019 39902 40140 80008 333 0//00 59010 87280
AAXX 28124 61043 32960 71208 10282 21029 39687 40126 80008 333 0//00 59013 87280
AAXX 28124 61045 32965 70402 10280 21018 39624 40120 80008 333 0//00 59021 87280
AAXX 28124 61049 32960 70804 10300 21005 39788 40104 80008 333 0//00 59015 87280
AAXX 28124 61052 32960 30808 10292 21013 39885 40142 80002 333 0//00 59006 83080
AAXX 28124 61075 32960 71002 10304 20034 39813 40120 80002 333 0//00 59012 85080
AAXX 28124 61080 32960 71004 10288 20007 39713 40132 80008 333 0//00 59011 87280
AAXX 28124 61090 32965 70406 10280 21035 39615 40113 80008 333 0//00 59018 87280
AAXX 28124 61091 32960 70000 10297 20107 39673 40127 80008 333 0//00 59030 87280
AAXX 28124 61096 31958 70402 10300 20044 39739 40118 70522 80008 333 0//00 59012 87280
AAXX 28124 61099 32960 70806 10315 20055 39887 40113 80008 333 0//00 59017 87280
AAXX 28121 08501 12/// /1603 10174 20168 30303 40340 52018 69931 333 91105
AAXX 28121 08505 32265 80603 10172 20156 30303 40353 52017 888// 333 84706 85811
AAXX 28121 08509 11260 50000 10154 20154 30293 40358 52017 69951 72052 83834 333 82706
AAXX 28121 08512 11365 72402 10171 20171 30268 40354 52017 69911 70254 878// 333 83707 84810
AAXX 28121 08515 NIL
AAXX 28121 08533 32/// /1105 10150 20058 30313 40342 52006 333 91108
AAXX 28121 08541 32/// /9903 10139 20082 30227 40348 57001 333 91105
AAXX 28121 08545 31958 29901 10117 20036 30280 40365 52003 71000 80002 222// 00145 333 82075
AAXX 28121 08548 32/// /9901 10105 20029 30153 40363 52004
AAXX 28121 08554 32970 00706 10158 20016 30334 40343 52003
AAXX 28121 08558 32965 11002 10133 20055 30048 40345 58002 80001 333 81099 91105
AAXX 28121 08560 31980 23101 10112 21010 39584 40349 50000 70200 80002 333 82099
AAXX 28121 08567 32/// /3001 10074 20025 39685 40366 54000
AAXX 28121 08570 NIL
AAXX 28121 08575 31970 21701 10060 20007 39529 40362 52002 70200 80001 333 82099
AAXX 28121 08579 31970 00403 10119 20045 30226 40354 57001 70200 333 91006 91106
BBXX MINUK05 2812/ 99571 70021 46/// ///// 10070 49880 57069
BBXX FLAO 2812/ 99764 70847 46/// ///// 11283 40041 52003
BBXX MINUK01 2812/ 99602 70012 46/// ///// 10073 49840 57046
AAXX 28121 33415 32597 32904 10059 21010 39905 40310 58011 82530
AAXX 28121 33466 32998 23103 10052 21001 30087 40277 58004 80001
AAXX 28124 88897 46/// /2818 10111 20067 49985 52017
AAXX 28124 NIL
AAXX 28124 NIL
AAXX 28124 NIL
AAXX 28124 NIL
AAXX 28124 NIL
AAXX 28124 NIL
AAXX 28124 NIL
AAXX 28124 82022 22570 20612 10276 20214 30053 40149 82000 333 20249 59002 60144
AAXX 28124 82193 22470 60507 10280 20245 30132 40150 82230 333 20248 59004 60474
AAXX 28124 82281 32570 60418 10296 20189 30087 40149 84230 333 20266 58004
AAXX 28124 82332 22470 70703 10250 20235 30049 40143 82530 333 20226 59007 60054
AAXX 28124 82398 32570 41010 10286 20219 30128 40157 84200 333 20246 58007
AAXX 28124 82400 32470 31206 10280 20232 30093 40158 83100 333 20253 58006
AAXX 28124 82579 32570 60305 10296 20226 30076 40152 83150 333 20257 58011
AAXX 28124 82917 21160 40000 1//// 2//// 39925 4//// 72842 81630 333 20000 59005 60204
AAXX 28124 82965 21270 72602 10217 20211 39830 40162 7026/ 81670 333 20208 58004 60754
AAXX 28124 82993 22570 40409 10277 20211 30029 40166 84100 333 20203 58002 69924
AAXX 28124 83208 32470 73503 10228 20212 39462 48550 82230 333 20212 59009
AAXX 28124 83349 21570 60205 10282 20232 30162 40168 70361 87801 333 20234 59004 69984
AAXX 28124 83362 22970 33604 10282 20217 39925 40140 83030 333 20238 59006 60024
AAXX 28124 83378 22470 70103 10208 20173 38993 48550 82530 333 20187 58005 69924
AAXX 28124 83460 32570 33608 10270 20212 30102 40158 83100 333 20220 59009
AAXX 28124 83497 NIL
AAXX 28124 83566 21370 80105 10194 20156 39230 48540 70162 85730 333 20163 59012 60334
AAXX 28124 83599 NIL
AAXX 28124 83612 32970 03207 10287 20209 39504 48550 52015 333 20232
AAXX 28124 83649 32570 60214 10297 20209 30136 40141 50002 82250 333 20240
AAXX 28124 83650 NIL
AAXX 28124 83780 32870 73301 10215 20147 39249 48540 53012 87030 333 20182
AAXX 28124 83827 32970 01206 10252 20214 39846 40119 51011 333 20219
AAXX 28124 83840 21240 81202 10188 20173 39138 48540 53011 75065 887// 333 20174 60064
AAXX 28124 83899 21462 61907 10205 20187 30172 40178 51016 76166 86500 333 20198 60184
AAXX 28124 83925 NIL
AAXX 28124 83970 NIL
AAXX 28124 83971 32970 51113 10245 20154 30181 40185 53011 85100 333 20203
AAXX 28124 70133 32966 00904 11289 21317 39970 49975 91153 333 21294 555 92812
AAXX 28124 70174 11966 03303 11267 21294 39716 49972 55002 69931 771// 91153 333 21267 4/071 70008 96010 555 92812
AAXX 28124 70200 32566 40803 11256 21289 39971 49978 58004 91153 333 21311 4/061 555 92812
AAXX 28124 70219 32966 81903 11300 21333 39918 49978 58000 91153 333 21328 4/003 555 92812
AAXX 28124 70231 12664 20000 11311 21339 39824 49959 53002 69901 91153 333 21311 4/097 70013 555 92812
AAXX 28124 70261 32466 60000 11283 21306 39751 49933 58002 91153 333 21322 555 92812
AAXX 28124 70267 35966 80000 11278 21311 39426 49945 56013 91153 333 21306 555 92812
AAXX 28124 70271 35866 80000 11150 21178 39263 49860 56013 91153 333 21156 70003 555 92812
AAXX 28124 70273 11359 80000 11117 21139 39814 49875 58011 69901 771// 91153 333 21122 4/076 70030 555 92812
AAXX 28124 70316 12966 01807 11133 21150 39928 49965 58004 69901 91153 333 21144 70008 555 92812
AAXX 28124 70326 32966 00000 11289 21322 39940 49953 56001 91154 333 21294 555 92812
AAXX 28124 70340 35966 03104 11228 21272 39887 49952 58003 91153 333 21256 555 92812
AAXX 28124 70350 32566 80000 11089 21133 39851 49892 57003 91153 333 21122 555 92812
AAXX 28124 70361 32866 80000 11044 21061 39803 49813 56030 91153 333 21056 70013 555 92812
AAXX 28124 70381 32766 82203 11017 21028 39811 49820 56031 91153 333 21017 70003 555 92812
AAXX 28124 70414 35966 02806 11044 21078 30079 40116 50001 91156 333 21056 555 92812
AAXX 28124 NIL
AAXX 28124 NIL
AAXX 28124 87022 32560 83202 10281 20191 39610 40103 52015 8352/ 333 10307 20262 56009 83640 88460
AAXX 28124 87046 01662 60902 10237 20206 39126 48523 51008 60084 70192 84860 333 10270 20203 56490 60081 82635 83840
AAXX 28124 87047 31462 70000 10216 20187 38820 48540 51013 71022 82270 333 10231 20195 30/// 56860 57899 82810 87360
AAXX 28124 87097 32970 00000 10250 20198 39820 40126 52011 333 10274 20208
AAXX 28124 87121 31560 80508 10234 20206 39634 40135 51016 71792 8792/ 333 10280 20226 56119 57930 86630 82945 85550 96015
AAXX 28124 87129 NIL
AAXX 28124 87155 31662 31405 10274 20202 30080 40140 52013 70400 81260 333 10274 20241 56710 57876 81850 83360
AAXX 28124 87162 32970 30905 10284 20203 30050 40116 52005 83070 333 10288 20248 56060 83360
AAXX 28124 87166 32960 11406 10262 20198 30066 40138 52015 81030 333 10269 20223 56070 81360
AAXX 28124 87178 32970 01409 10260 20191 39990 40133 52013 333 10284 20228
AAXX 28124 87217 32970 41804 10296 20218 39630 40102 5//// 84040 333 10334 20257 56050 84360
AAXX 28124 87222 32670 60516 10289 20199 39586 40086 51007 81479 333 10319 20266 56066 81640 83170
AAXX 28124 87257 32965 20906 10262 20163 30022 40122 52011 80002 333 10280 20200 56004 82070
AAXX 28124 87270 31958 11110 10249 20190 30093 40154 52013 70400 80001 333 10283 20215 30019 56006 81070
AAXX 28124 87289 32962 10912 10233 20178 30084 40165 52011 81070 333 10273 20204 56060 81360
AAXX 28124 87311 32965 21814 10300 20175 39442 40088 52023 80004 333 10340 20250 56000 82070
AAXX 28124 87320 NIL
AAXX 28124 87328 32780 72704 10269 20141 39497 40124 52020 87500 333 10302 20228 56000 87650 95000
AAXX 28124 82143 NIL
AAXX 28124 82599 32570 51008 10280 20231 30095 40155 85100 333 20238 59007
AAXX 28124 82824 32470 43002 10277 20240 30042 40143 81530 333 20249 59005
AAXX 28124 82899 32570 31009 10296 20208 30152 40164 83230 333 20263 59007
AAXX 28124 83117 NIL
AAXX 28124 83248 32470 20809 10305 20231 30145 40167 82100 333 20259 59002
AAXX 28124 83746 21462 73004 10246 20201 30128 40139 50000 70562 88500 333 20215 60034
BBXX 44067 28121 99384 70770 46/// /3303 10059 40055 53028 91200
BBXX 41029 28121 99328 70796 46/// /2908 1//// 91200 555 11086 22088
BBXX 44032 28121 99437 70694 46/22 /1909 10093 49883 56018 91204 22200 00083 10808 70042 333 91211 555 11115 22124
AAXX 28124 78526 12566 60806 10228 20224 30173 40195 53014 60031 91156 333 10289 20222 70036 555 92812
AAXX 28124 78543 12966 00609 10244 20217 30109 40190 53013 69951 91153 333 20228 70005 555 92812
AAXX 28123 87007 32465 70000 10116 20072 36782 47194 52011 84570 333 10158 20109 56770 84618 83360
AAXX 28123 87148 32970 71405 10265 20210 30025 40131 53015 87070 333 10300 20243 56000 87360
AAXX 28121 30372 32999 30000 11359 21387 39434 40441 57008 81041 333 11327
AAXX 28121 30433 32999 20000 11209 21242 39710 40358 58009 80001 333 11171
AAXX 28121 30554 329// 00000 11341 21365 39223 40428 53001 333 11260
AAXX 28121 30635 329// 01303 11208 21241 39736 40357 58002 333 11177
AAXX 28121 30673 32999 00201 11337 21342 39560 40445 58002 333 11230
AAXX 28121 30692 32997 00202 11361 21378 39849 40426 53/// 333 11264
AAXX 28121 30758 31910 00801 11314 21343 39523 40459 58005 70540 333 11271
AAXX 28121 30802 32999 32901 11175 21194 38721 48494 52010 80001 333 11066
AAXX 28121 30823 32999 00000 11235 21268 39688 40391 52004 333 11189
AAXX 28121 30879 32999 00000 11320 21344 39594 40466 52002 333 11272
AAXX 28121 30935 32999 00000 11272 21296 39369 40416 53003 333 11208
AAXX 28121 30949 12999 00000 11250 21262 39223 40436 52001 69922 333 11135
AAXX 28121 30965 329// 01201 11360 21384 39540 40506 52001 333 11230
AAXX 28121 31168 32999 02302 11146 21252 30277 40289 57003 333 11112
AAXX 28121 31300 NIL
AAXX 28121 31329 32999 00501 11283 21306 39615 40366 52004 333 11226
AAXX 28121 31369 11698 20000 11141 21147 30201 40292 54000 69960 70181 82500 333 11091
AAXX 28121 31416 11999 83603 11169 21169 30197 40293 58004 69930 72272 82027 333 11131
AAXX 28121 31484 11997 80000 11168 21181 39946 40308 58001 60010 77172 8802/ 333 11165
AAXX 28121 31512 119// 33402 11216 21264 30184 40369 52002 69902 70230 80001 333 11194
AAXX 28121 31538 11997 80000 11218 21230 39846 40320 54000 69980 77177 80007 333 11218
AAXX 28121 31707 11998 83407 11207 21247 30213 40313 52002 69920 72272 80006 333 11187
AAXX 28121 31735 11997 82702 11174 21196 30190 40286 58004 60010 77172 8802/ 333 11171
AAXX 28121 31770 11514 83202 11061 21069 30197 40228 52003 69950 78682 889// 333 11051
AAXX 28121 28676 415// 81507 11021 21049 39879 40005 57009 73673 886// 555 1/103
AAXX 28121 28766 41996 82011 11018 21029 39785 49972 57011 73873 8802/ 333 91016 91119 555 1/103
AAXX 28121 28867 NIL
AAXX 28121 28879 415// 82015 11040 21066 39761 40049 57007 73673 8557/ 333 91016 91120 555 1/106
AAXX 28121 28952 NIL
AAXX 28121 28966 415// 82010 11039 21054 39748 40031 57009 73773 885// 333 91017 91119 555 1/106
AAXX 28121 29802 419// 81806 11060 21083 30029 40175 53001 73673 8801/ 555 1/107
AAXX 28121 29807 425// 82004 11060 21100 30050 40171 57006 885// 555 1/107
AAXX 28121 34691 41598 72907 10026 21001 30063 40051 57008 70286 82330 555 1/000
AAXX 28121 35067 419// 81707 11038 21056 39767 40043 57010 73873 8802/ 333 91015 91119 555 1/104
AAXX 28121 35078 41596 82210 11049 21055 39711 40092 57003 77773 886// 333 91117 555 1/105
AAXX 28121 35085 414// 81909 11068 21077 39652 40136 53002 73873 886// 333 91015 91116 555 1/107
AAXX 28121 35108 41597 73106 10013 21039 39882 49927 53021 72276 87500 333 91014 91115
AAXX 28121 35188 414// 81809 11063 21086 39732 40174 57002 77173 8772/ 333 87712 91016 91119 555 1/107
AAXX 28121 35217 41596 82710 10014 21003 39896 49934 53006 70275 885// 333 91115 555 1/000
AAXX 28121 35229 41494 82312 11004 21007 39658 49925 57031 78683 889// 333 91119 555 1/101
AAXX 28121 35302 41998 63309 10017 21027 39937 49955 52016 70262 86050 555 1/001
AAXX 28121 35357 41597 81810 11062 21085 39726 40168 57004 73632 885// 555 1/107
AAXX 28121 35394 41998 72106 11085 21122 39538 40236 57009 73673 87010 555 1/110
AAXX 28121 35406 41597 52707 10029 21007 39982 49984 53006 70252 85500 555 1/002
AAXX 28121 35416 41597 82210 10007 21001 39848 49966 56012 72273 8802/ 333 91120 555 1/000
AAXX 28121 35426 41593 82110 11005 21017 39687 49973 57030 77173 8872/ 333 91016 91118 555 1/101
AAXX 28121 35497 429// 71405 11117 21154 39432 40266 54000 82042 555 1/112
AAXX 28121 35532 41/90 92016 11022 21034 39529 40015 56028 73973 333 91020 91120 92992 555 1/103
AAXX 28121 35671 41996 82006 11051 21064 39763 40200 57003 77173 8807/ 555 1/106
AAXX 28121 35700 41494 82405 10032 20011 30075 40052 57003 76162 8802/ 555 1/001
AAXX 28121 35746 41496 82312 10001 21002 30053 40120 57013 77173 8802/ 333 91116 555 1/000
AAXX 28121 35796 41597 80406 11147 21174 39859 40323 53002 77173 8802/ 555 1/114
AAXX 28121 35849 41597 82004 10004 21018 30075 40161 57005 76062 8872/ 555 1/100
AAXX 28121 35925 NIL
AAXX 28121 35953 41699 81806 11011 21034 30063 40193 57006 70273 885// 555 1/102
AAXX 28121 35969 41996 81805 11023 21048 30071 40246 57003 77172 8802/ 555 1/103
AAXX 28121 36003 41596 82006 11050 21060 30070 40224 53007 77373 8802/ 333 91110 555 1/106
AAXX 28121 36152 419// 71404 11124 21161 30064 40262 53004 70232 85042 555 1/114
AAXX 28121 36177 429// 51201 11111 21131 30039 40297 53003 80001 555 1/118
AAXX 28121 36208 429// 10602 11112 21152 39304 40328 54000 80001 555 1/115
AAXX 28121 36397 429// 31608 11097 21148 39717 40302 51001 83041 555 1/112
AAXX 28121 36428 429// 00000 11183 21199 39819 40358 53003 333 95090 555 1/121
AAXX 28121 36535 429// 00000 11202 21251 39684 40371 53004 555 1/124
AAXX 28121 36639 429// 20000 11188 21229 39685 40338 53008 80001 555 1/122
AAXX 28121 36821 425// 51002 11014 21029 39793 40288 53012 82932
AAXX 28121 36859 429// 70000 11030 21064 39494 40290 53011 85075 555 1/112
AAXX 28121 36864 41596 80000 11020 21023 39371 40279 53007 71022 886//
AAXX 28121 36870 413// 80000 11016 21033 39253 40280 53014 71022 886// 555 1/102
AAXX 28121 38001 NIL
AAXX 28121 38062 41596 81804 11016 21040 30061 40227 53001 77172 8872/ 555 1/103
AAXX 28121 38069 42997 71602 11026 21056 30061 40257 53002 87500
AAXX 28121 38196 NIL
AAXX 28121 38198 NIL
AAXX 28121 38222 42597 81401 11015 21063 39716 40285 53017 885// 555 1/103
AAXX 28121 38232 NIL
AAXX 28121 38328 NIL
AAXX 28121 38334 NIL
AAXX 28121 38341 42698 82402 10014 21018 39473 40265 53015 83442 555 1/100
AAXX 28121 38343 42998 80000 11030 21064 39418 40281 53012 80001
AAXX 28121 38439 NIL
AAXX 28121 22028 41497 73116 10010 21007 39818 49855 52023 78783 87930 333 91021 91127
AAXX 28121 22106 42598 62703 11052 21081 39834 49913 52026 86900 333 86924 91007 91110
AAXX 28121 22127 41698 32706 11047 21087 39688 49889 52030 73631 82530 333 91010 91112
AAXX 28121 22324 42699 23502 11047 21075 39872 49922 52037 81501 333 91004 91112
AAXX 28121 22621 41998 03005 11041 21083 39844 49986 52025 73630
AAXX 28121 22831 41998 23107 11020 21078 39935 49995 52040 73631 82030 333 91114
AAXX 28121 22892 42998 22805 10003 21045 30091 40107 52007 80001
AAXX 28121 26275 41998 02804 10016 21042 30119 40150 52024 70281
AAXX 28121 26389 42465 63004 10004 21058 39869 40135 52025 86600 333 91119
AAXX 28121 26499 42598 63007 10004 21059 39890 40122 52032 86500 333 86628 91118
AAXX 28121 26695 42597 33108 10009 21067 39845 40156 52025 83500 333 91013 91116
AAXX 28121 26882 42970 23008 10022 21057 39914 40191 52016 80001 333 91013 91116
AAXX 28121 22271 41498 33105 10009 21017 39770 49780 53025 70287 83300
AAXX 28121 22520 41999 12708 11052 21093 39934 49944 52029 70231 333 91113
AAXX 28121 22550 41497 83405 11003 21043 39869 49879 52044 73683 885// 333 88617 91115
AAXX 28121 22583 41484 72902 11053 21063 39726 49806 53032 70272 875// 333 87617
AAXX 28121 22768 41496 82905 11024 21043 39812 49867 52040 78583 8697/ 333 86915
AAXX 28121 22845 41698 22907 11032 21067 39808 49965 52047 73633 82400
AAXX 28121 22887 41/08 93206 11023 21032 39736 49804 52044 78682 333 89/05 91112
AAXX 28121 23205 41998 62003 11111 21131 39766 49781 52015 70272 82031 333 91105
AAXX 28121 23219 NIL
AAXX 28121 23418 41434 81502 11088 21112 39739 49813 52013 78587 8695/ 333 84919
AAXX 28121 23606 41960 80804 11084 21090 39607 49778 52014 77172 8802/
AAXX 28121 23711 NIL
AAXX 28121 23804 41297 83301 11035 21043 39611 49760 52030 70272 886// 333 85704
AAXX 28121 27037 41698 63210 11005 21076 39806 49967 52036 70132 85501
AAXX 28121 27199 41498 82502 11016 21021 39582 49775 52008 78582 889//
AAXX 28121 27271 41996 82710 11022 21050 39704 49858 52048 77187 8802/ 333 91116
AAXX 28121 27459 41498 63205 10003 21072 39734 49927 52035 73883 85931 333 85918 91118
AAXX 28121 27730 42598 23006 10016 21079 39860 40054 52023 82500 333 91119
AAXX 28120 44210 32999 20000 11196 21222 38553 53017 82080 333 11146
AAXX 28120 44216 32599 30000 11279 21303 39090 40505 53015 83500 333 11246
AAXX 28120 44217 32998 20000 11150 21184 37847 40354 56002 82040 333 11074
AAXX 28120 44219 329// 80000 11235 21260 38358 40454 51014 8802/ 333 11223
AAXX 28120 44221 329// 50000 11280 21298 38639 40498 52007 85070 333 11242
AAXX 28120 44224 329// 70000 11240 21287 38070 40459 52005 87070 333 11216
AAXX 28120 44229 32999 22701 11241 21281 37943 40467 51004 80004 333 11174
AAXX 28120 44242 329// 01801 11301 21330 39395 40439 52007 333 11223
AAXX 28120 44243 329// 00000 11312 21345 39494 40474 52008 333 11218
AAXX 28120 44254 129// 02702 11219 21238 39121 40404 54000 69902 333 11168 555 93100
AAXX 28120 44257 129// 00000 11288 21316 39052 40485 52003 69902 333 11187 555 93100
AAXX 28120 44263 32998 00000 11176 21226 38089 40448 53004 333 11160
AAXX 28120 44266 329// 70000 11083 21203 37765 40261 54000 87070 333 11059
AAXX 28120 44286 329// 00000 11200 21252 38669 40392 51009 333 11109
AAXX 28120 44291 319// 01602 11258 21285 38784 40470 53010 70400 333 11146
AAXX 28120 44325 329// 01403 11216 21241 38905 40434 57001 333 11140
AAXX 28120 44329 32998 02303 11114 21255 37777 40333 51001 333 11046
AAXX 28120 44338 32999 00000 11158 21228 38498 40368 52003 333 11055
AAXX 28120 44348 329// 00000 11176 21202 38739 40385 52014 333 11080
AAXX 28120 44374 32999 02302 11121 21227 38286 40383 53006 333 11038
AAXX 28120 44385 32999 00000 11144 21205 38986 40392 51007 333 11054
AAXX 28120 44386 329// 20506 11170 21212 39115 40389 51005 82080 333 11094
AAXX 28121 20107 41997 00204 11146 21217 39892 49992 52021 70230 333 91007 91112
AAXX 28121 22003 NIL
AAXX 28121 22004 NIL
AAXX 28121 22100 NIL
AAXX 28121 22140 NIL
AAXX 28121 22113 42584 72608 11018 21052 39827 49889 52026 82531 333 91013 91116
AAXX 28121 22212 41698 53206 11034 21066 39748 49911 52025 70331 81541 333 91008 91114
AAXX 28121 22213 NIL
AAXX 28121 22217 42598 10801 11061 21080 39906 49938 52028 81500 333 91001 93601
AAXX 28121 22235 41481 73206 11027 21057 39681 49774 52030 73631 86501 333 86617 91009 91112
AAXX 28121 22249 41584 73104 11019 21037 39663 49848 52028 73632 87500 333 91007 91110
AAXX 28121 22312 42999 12602 11064 21083 39922 49944 52031 81040 333 91005 91111
AAXX 28121 22334 42982 03007 11036 21065 39900 49907 52038 333 91009 91111
AAXX 28121 22349 41598 72904 11015 21049 39845 49856 52029 70232 87500 333 91005 91111
AAXX 28121 22408 41999 02804 11063 21090 39844 49997 52022 70230
AAXX 28121 22602 42477 52904 11032 21067 39792 40020 52017 82530
AAXX 28121 22619 42482 13109 11029 21071 39840 40003 52020 81500 333 91015 91118
AAXX 28121 22721 41599 22904 11029 21071 39894 49996 52021 70230 82500 333 91113
AAXX 28121 22802 42999 22603 11006 21074 30048 40071 51010 80001 333 91113
AAXX 28121 22820 42999 62906 11018 21067 39887 40027 52031 86030 333 91012 91114
AAXX 28121 26059 42598 22502 10025 21031 30116 40141 51009 82900 333 91112
AAXX 28121 26063 42997 13004 10015 21051 30104 40112 52010 80005 333 91111
AAXX 28121 26094 41580 33006 10002 21065 30007 40084 52030 70287 83500 333 91114
AAXX 28121 26157 42968 12804 10012 21020 30115 40166 51004 80001 333 91112
AAXX 28121 26167 41969 22603 10010 21054 30033 40147 51012 70281 80001
AAXX 28121 26258 42598 52803 10015 21036 30126 40182 52006 82504 333 91111
AAXX 28121 26298 42598 53106 10000 21057 39878 40111 52026 85500 333 91115
AAXX 28121 26359 42999 02703 10019 21074 30063 40199 52007 333 91111
AAXX 28121 26702 41496 82402 10017 20012 30227 40254 58023 71011 885// 333 91006 91107
AAXX 28121 26781 42998 03106 10015 21059 39893 40189 52017 333 91012 91112
AAXX 28121 27208 41497 43206 10003 21080 39900 40078 52037 70181 84600 333 91014 91118
AAXX 28121 27402 42697 52807 10005 21069 39914 40096 52039 85500 333 85643 91114
BBXX V7HD2 28124 99338 30257 41498 21413 10220 2016/ 40180 5//// 7//00 822// 22200 00215 2//// 3//// 4//// 5//// 6//// 80180 ICE /////
BBXX PBAD 28121 99253 70758 41598 42114 10240 20218 40156 51006 70111 844// 22234 02260 20301 310// 40802 5//// 80225
BBXX WBN6510 28124 99329 70765 41196 73040 1//// 2//// 40120 51020 79792 85977 22200 04194 20706 33028 40809 50809 6//// 8//// ICE /////
BBXX C6XC6 28124 99106 70869 41598 20524 10253 2//// 40120 52020 70100 821// 22273 04230 21002 3//// 4//// 5//// 6//// 8//// ICE /////
BBXX C6FN5 28123 99241 70889 41898 20315 10210 2015/ 40170 54/// 70011 82860 22275 00240 20104 3//// 4//// 5//// 6//// 80170 ICE /////
BBXX V7HC6 28124 99273 70907 41/// /0710 10150 20116 40220 52014 700// 8//// 222// 00233 2//// 3//// 4//// 5//// 6//// 80130 ICE /////
BBXX WDJK 28124 99536 71395 41597 82618 10055 20055 49690 54000 75022 8824/ 22233 00050 20805 323// 41009 5//// 6//// 80055 ICE /////
BBXX C6FM9 28123 99263 70789 41397 53225 10240 2021/ 40190 54000 7//22 8554/ 22273 00240 20301 332// 40301 5//// 6//// 80220 ICE /////
BBXX WKPY 28124 99375 70140 41698 50619 10175 20125 40355 52020 7//11 8518/ 22265 00186 20504 312// 41304 5//// 6//// 80145 ICE /////
AAXX 28121 26997 42572 12907 10031 21037 39985 40207 52017 81400
AAXX 28121 27595 41597 83004 11004 21022 39688 49829 53007 77172 8850/ 333 88624
AAXX 28121 27612 41597 63203 10013 21070 39888 40082 52031 70283 86500
AAXX 28121 27707 42582 63207 10009 21059 39870 40167 52030 86400 333 86624
AAXX 28121 27719 41597 62709 10011 21082 39860 40112 52026 70282 84330 333 91014 91117
AAXX 28121 27786 41496 82810 11006 21021 39727 49886 52012 78583 883// 333 88912 91013 91117
AAXX 28121 27857 42598 63107 10012 21059 39856 40018 52032 86300 333 91118
AAXX 28121 27906 42997 02709 10019 21050 39916 40161 52021
AAXX 28121 27928 42598 63207 10017 21069 39913 40121 52022 82550 333 91015
AAXX 28121 27947 42697 62811 10014 21057 39898 40057 52027 86500 333 86633 91016 91118
AAXX 28121 27962 41497 53010 10004 21062 39759 49977 53029 70181 85300 333 85916 91017 91117
AAXX 28121 27983 42598 72706 10003 21030 39787 49914 52011 82531 333 91112
AAXX 28121 27995 42698 62704 10010 21039 49911 52016 84551
AAXX 28121 28506 41997 82703 11001 21027 39705 49815 57013 70272 8807/
AAXX 28121 28704 41996 82806 11000 21021 39759 49852 52011 77172 8802/ 333 91112
AAXX 28121 28711 41498 82807 11012 21033 39468 49834 52017 73687 883// 333 88918 91012 91113
AAXX 28121 28807 41497 82907 10012 21033 39841 49891 52016 78582 889// 333 88911 91112
AAXX 28121 34009 41997 13007 10026 21056 39869 40176 52019 70281 81400 333 91015 91117
AAXX 28121 34110 42599 33208 10028 21057 39882 40162 52010 82330 333 91116
AAXX 28121 34123 41679 73109 10021 21051 39941 40126 52021 70281 87500 333 87636 91017 91118
AAXX 28121 34152 42699 72906 10013 21039 39858 40055 52024 86530 333 91013 91118
AAXX 28121 34163 42498 52709 10003 21052 40001 52016 85500 333 85620 91018 91118
AAXX 28121 34171 42570 52914 10010 21039 39798 49989 52016 85300 333 85929 91019 91120
AAXX 28121 34186 41598 33008 10015 21044 39829 49966 52018 70181 82330 333 91013 91117
AAXX 28121 34247 42571 73306 10030 21050 30015 40129 52027 87800 333 85621 91015 91116
AAXX 28121 34336 42670 52807 10045 21029 30032 40136 52012 85200 91015 91116
AAXX 28121 34391 42697 12707 10024 21025 39964 49994 52015 81200 333 91115
AAXX 28121 35011 41599 83104 10008 21006 39726 49877 53018 70272 8671/ 333 86723
AAXX 28121 35121 41396 82807 10008 20005 39734 49877 53004 77173 8872/ 333 88707 91012 91116
AAXX 28124 NIL
BBXX 46111 28121 99481 71227 46/// /3302 10095 40070 51013 91200 22200 00051
AAXX 28121 40701 12965 01502 10006 21106 38653 40316 56013 60001 333
AAXX 28121 40704 12980 02406 10046 21097 38650 40258 56009 60001 333
AAXX 28121 40708 12960 02005 10052 21039 38688 40231 57011 60001 333
AAXX 28121 40710 12980 03003 10010 21083 38360 40294 55021 60001 333
AAXX 28121 40713 12660 22802 10046 21063 38716 40240 56015 60001 81101 333 82070
AAXX 28121 40719 12960 03002 10130 20047 30244 40233 56018 60001 333
AAXX 28121 40731 12963 00701 10046 21034 38790 40290 56014 60001 333
AAXX 28121 40738 12975 00607 10132 20065 30254 40255 55017 60001 333
AAXX 28121 40740 12560 32002 10024 21012 38777 40252 55003 60001 83700 333 83730
AAXX 28121 40747 12960 00000 10079 21055 38668 40243 56016 60001 333
AAXX 28121 40757 12565 31902 10080 21008 38957 40267 56005 60001 83100 333 83830
AAXX 28121 40763 12665 12702 10080 21034 38971 40265 57007 60001 81100 333 81835
AAXX 28121 40782 12970 02403 10124 21066 38889 40196 56012 60001 333
AAXX 28121 40783 12960 00905 10060 21063 37998 40221 55006 60001 333
AAXX 28121 40789 12965 00000 10100 21034 39270 40266 56014 60001 333
AAXX 28121 40798 12660 31003 10054 21072 37973 40214 57018 60001 83400 333 83635
AAXX 28121 40818 12665 10303 10046 21055 37989 40216 56015 60001 81100 333 81840
AAXX 28121 40827 12660 11305 10126 21053 38872 40262 55004 60001 81100 333
AAXX 28121 40836 12964 02202 10126 21105 38189 40180 57020 60001 333
AAXX 28121 40851 12960 00000 10124 21063 38273 40170 56008 60001 333
AAXX 28121 40853 12665 11504 10100 21139 37751 40178 56004 60001 81100 333 81840
AAXX 28121 40854 12960 03604 10140 21061 38987 40201 55004 60001 333
AAXX 28121 40857 12960 03305 10166 20074 30188 40198 57006 60001 333
AAXX 28121 40859 12962 00000 10156 21097 38715 40167 56011 60001 333
AAXX 28121 40878 11958 00605 10162 21059 38855 40206 55008 60001 70500 333
AAXX 28121 40879 11958 02102 10221 21041 39491 40169 56010 60001 70500 333
AAXX 28121 40883 11956 02103 10224 20108 30146 40169 56006 60001 70500 222// 00198 20500 333
AAXX 28121 40898 12560 12004 10244 20155 30139 40148 56009 60001 81400 222// 00242 10600 333
AAXX 28121 40703 12965 00000 10048 21062 38980 40282 57018 60001 333
AAXX 28121 40712 12965 00702 10040 21071 38735 40288 56013 60001 333
AAXX 28121 40729 12960 00000 10060 21045 38371 40259 58011 60001 333
AAXX 28121 40736 12960 00604 10120 20065 30260 40234 57023 60001 333
AAXX 28121 40739 12965 02103 10054 21058 38735 40266 56009 60001 333
AAXX 28121 40743 12665 22603 10086 21057 39133 40274 55003 60001 82400 333 82635
AAXX 28121 40762 12665 11804 10060 21051 38595 40265 55006 60001 81400 333
AAXX 28121 40768 12960 00000 10054 21053 38288 40268 57013 60001 333
AAXX 28121 40769 11656 10000 10052 21036 38333 40256 56014 60001 70500 81100 333 81835
AAXX 28121 40785 12660 20702 10092 21017 39146 40263 55013 60001 82500 333 82640
AAXX 28121 40809 12962 03403 10105 21122 38531 40328 55004 60001 333
AAXX 28121 40821 12660 10000 10114 21027 38832 40240 57015 60001 81100 333
AAXX 28121 40831 12960 03203 10160 20050 30189 40197 57017 60001 333
AAXX 28121 40701 12965 01502 10006 21106 38653 40316 56013 60001 333
AAXX 28121 40704 12980 02406 10046 21097 38650 40258 56009 60001 333
AAXX 28121 40708 12960 02005 10052 21039 38688 40231 57011 60001 333
AAXX 28121 40710 12980 03003 10010 21083 38360 40294 55021 60001 333
AAXX 28121 40713 12660 22802 10046 21063 38716 40240 56015 60001 81101 333 82070
AAXX 28121 40719 12960 03002 10130 20047 30244 40233 56018 60001 333
AAXX 28121 40731 12963 00701 10046 21034 38790 40290 56014 60001 333
AAXX 28121 40738 12975 00607 10132 20065 30254 40255 55017 60001 333
AAXX 28121 40740 12560 32002 10024 21012 38777 40252 55003 60001 83700 333 83730
AAXX 28121 40747 12960 00000 10079 21055 38668 40243 56016 60001 333
AAXX 28121 40757 12565 31902 10080 21008 38957 40267 56005 60001 83100 333 83830
AAXX 28121 40763 12665 12702 10080 21034 38971 40265 57007 60001 81100 333 81835
AAXX 28121 40782 12970 02403 10124 21066 38889 40196 56012 60001 333
AAXX 28121 40783 12960 00905 10060 21063 37998 40221 55006 60001 333
AAXX 28121 40789 12965 00000 10100 21034 39270 40266 56014 60001 333
AAXX 28121 40798 12660 31003 10054 21072 37973 40214 57018 60001 83400 333 83635
AAXX 28121 40818 12665 10303 10046 21055 37989 40216 56015 60001 81100 333 81840
AAXX 28121 40827 12660 11305 10126 21053 38872 40262 55004 60001 81100 333
AAXX 28121 40836 12964 02202 10126 21105 38189 40180 57020 60001 333
AAXX 28121 40851 12960 00000 10124 21063 38273 40170 56008 60001 333
AAXX 28121 40853 12665 11504 10100 21139 37751 40178 56004 60001 81100 333 81840
AAXX 28121 40854 12960 03604 10140 21061 38987 40201 55004 60001 333
AAXX 28121 40857 12960 03305 10166 20074 30188 40198 57006 60001 333
AAXX 28121 40859 12962 00000 10156 21097 38715 40167 56011 60001 333
AAXX 28121 40878 11958 00605 10162 21059 38855 40206 55008 60001 70500 333
AAXX 28121 40879 11958 02102 10221 21041 39491 40169 56010 60001 70500 333
AAXX 28121 40883 11956 02103 10224 20108 30146 40169 56006 60001 70500 222// 00198 20500 333
AAXX 28121 40898 12560 12004 10244 20155 30139 40148 56009 60001 81400 222// 00242 10600 333
AAXX 28121 27612 41597 63203 10013 21070 39888 40082 52031 70283 86500 333 91013
AAXX 28124 91245 31458 60307 10240 20240 30150 710// 91155 555 92812
AAXX 28124 03008 11462 71829 10062 20021 49821 60011 78086 87/// 91150 333 87715 90710 91144 91040
AAXX 28121 40701 12965 01502 10006 21106 38653 40316 56013 60001 333
AAXX 28121 40704 12980 02406 10046 21097 38650 40258 56009 60001 333
AAXX 28121 40708 12960 02005 10052 21039 38688 40231 57011 60001 333
AAXX 28121 40710 12980 03003 10010 21083 38360 40294 55021 60001 333
AAXX 28121 40713 12660 22802 10046 21063 38716 40240 56015 60001 81101 333 82070
AAXX 28121 40719 12960 03002 10130 20047 30244 40233 56018 60001 333
AAXX 28121 40731 12963 00701 10046 21034 38790 40290 56014 60001 333
AAXX 28121 40738 12975 00607 10132 20065 30254 40255 55017 60001 333
AAXX 28121 40740 12560 32002 10024 21012 38777 40252 55003 60001 83700 333 83730
AAXX 28121 40747 12960 00000 10079 21055 38668 40243 56016 60001 333
AAXX 28121 40757 12565 31902 10080 21008 38957 40267 56005 60001 83100 333 83830
AAXX 28121 40763 12665 12702 10080 21034 38971 40265 57007 60001 81100 333 81835
AAXX 28121 40782 12970 02403 10124 21066 38889 40196 56012 60001 333
AAXX 28121 40783 12960 00905 10060 21063 37998 40221 55006 60001 333
AAXX 28121 40789 12965 00000 10100 21034 39270 40266 56014 60001 333
AAXX 28121 40798 12660 31003 10054 21072 37973 40214 57018 60001 83400 333 83635
AAXX 28121 40818 12665 10303 10046 21055 37989 40216 56015 60001 81100 333 81840
AAXX 28121 40827 12660 11305 10126 21053 38872 40262 55004 60001 81100 333
AAXX 28121 40836 12964 02202 10126 21105 38189 40180 57020 60001 333
AAXX 28121 40851 12960 00000 10124 21063 38273 40170 56008 60001 333
AAXX 28121 40853 12665 11504 10100 21139 37751 40178 56004 60001 81100 333 81840
AAXX 28121 40854 12960 03604 10140 21061 38987 40201 55004 60001 333
AAXX 28121 40857 12960 03305 10166 20074 30188 40198 57006 60001 333
AAXX 28121 40859 12962 00000 10156 21097 38715 40167 56011 60001 333
AAXX 28121 40878 11958 00605 10162 21059 38855 40206 55008 60001 70500 333
AAXX 28121 40879 11958 02102 10221 21041 39491 40169 56010 60001 70500 333
AAXX 28121 40883 11956 02103 10224 20108 30146 40169 56006 60001 70500 222// 00198 20500 333
AAXX 28121 40898 12560 12004 10244 20155 30139 40148 56009 60001 81400 222// 00242 10600 333
AAXX 28124 91165 32566 80714 10228 20178 30182 40216 58006 91153 333 20222 70005 555 92812
AAXX 28124 91182 32566 40612 10239 20178 30201 40204 58008 91153 333 20233 555 92812
AAXX 28124 91190 35466 20613 10217 20161 30192 40211 55006 91154 333 20211 91017 555 92812
AAXX 28124 91212 12566 60608 10261 20233 31390 40124 51007 60011 91154 333 20256 70013 555 92812
AAXX 28124 91285 12566 82508 10189 20172 30195 40209 58009 60011 91153 333 20189 70056 555 92812
AAXX 28124 91369 32474 21020 10272 20244 30075 40078 82100 333 10311 562// 82815 555 92812
AAXX 28121 28676 415// 81507 11021 21049 39879 40005 57009 73673 886// 555 1/103
AAXX 28121 28766 41996 82011 11018 21029 39785 49972 57011 73873 8802/ 333 91016 91119 555 1/103
AAXX 28121 28867 NIL
AAXX 28121 28879 415// 82015 11040 21066 39761 40049 57007 73673 8557/ 333 91016 91120 555 1/106
AAXX 28121 28952 NIL
AAXX 28121 28966 415// 82010 11039 21054 39748 40031 57009 73773 885// 333 91017 91119 555 1/106
AAXX 28121 29802 419// 81806 11060 21083 30029 40175 53001 73673 8801/ 555 1/107
AAXX 28121 29807 425// 82004 11060 21100 30050 40171 57006 885// 555 1/107
AAXX 28121 34691 41598 72907 10026 21001 30063 40051 57008 70286 82330 555 1/000
AAXX 28121 35067 419// 81707 11038 21056 39767 40043 57010 73873 8802/ 333 91015 91119 555 1/104
AAXX 28121 35078 41596 82210 11049 21055 39711 40092 57003 77773 886// 333 91117 555 1/105
AAXX 28121 35085 414// 81909 11068 21077 39652 40136 53002 73873 886// 333 91015 91116 555 1/107
AAXX 28121 35108 41597 73106 10013 21039 39882 49927 53021 72276 87500 333 91014 91115
AAXX 28121 35188 414// 81809 11063 21086 39732 40174 57002 77173 8772/ 333 87712 91016 91119 555 1/107
AAXX 28121 35217 41596 82710 10014 21003 39896 49934 53006 70275 885// 333 91115 555 1/000
AAXX 28121 35229 41494 82312 11004 21007 39658 49925 57031 78683 889// 333 91119 555 1/101
AAXX 28121 35302 41998 63309 10017 21027 39937 49955 52016 70262 86050 555 1/001
AAXX 28121 35357 41597 81810 11062 21085 39726 40168 57004 73632 885// 555 1/107
AAXX 28121 35394 41998 72106 11085 21122 39538 40236 57009 73673 87010 555 1/110
AAXX 28121 35406 41597 52707 10029 21007 39982 49984 53006 70252 85500 555 1/002
AAXX 28121 35416 41597 82210 10007 21001 39848 49966 56012 72273 8802/ 333 91120 555 1/000
AAXX 28121 35426 41593 82110 11005 21017 39687 49973 57030 77173 8872/ 333 91016 91118 555 1/101
AAXX 28121 35497 429// 71405 11117 21154 39432 40266 54000 82042 555 1/112
AAXX 28121 35532 41/90 92016 11022 21034 39529 40015 56028 73973 333 91020 91120 92992 555 1/103
AAXX 28121 35671 41996 82006 11051 21064 39763 40200 57003 77173 8807/ 555 1/106
AAXX 28121 35700 41494 82405 10032 20011 30075 40052 57003 76162 8802/ 555 1/001
AAXX 28121 35746 41496 82312 10001 21002 30053 40120 57013 77173 8802/ 333 91116 555 1/000
AAXX 28121 35796 41597 80406 11147 21174 39859 40323 53002 77173 8802/ 555 1/114
AAXX 28121 35849 41597 82004 10004 21018 30075 40161 57005 76062 8872/ 555 1/100
AAXX 28121 35925 NIL
AAXX 28121 35953 41699 81806 11011 21034 30063 40193 57006 70273 885// 555 1/102
AAXX 28121 35969 41996 81805 11023 21048 30071 40246 57003 77172 8802/ 555 1/103
AAXX 28121 36003 41596 82006 11050 21060 30070 40224 53007 77373 8802/ 333 91110 555 1/106
AAXX 28121 36152 419// 71404 11124 21161 30064 40262 53004 70232 85042 555 1/114
AAXX 28121 36177 429// 51201 11111 21131 30039 40297 53003 80001 555 1/118
AAXX 28121 36208 429// 10602 11112 21152 39304 40328 54000 80001 555 1/115
AAXX 28121 36397 429// 31608 11097 21148 39717 40302 51001 83041 555 1/112
AAXX 28121 36428 429// 00000 11183 21199 39819 40358 53003 333 95090 555 1/121
AAXX 28121 36535 429// 00000 11202 21251 39684 40371 53004 555 1/124
AAXX 28121 36639 429// 20000 11188 21229 39685 40338 53008 80001 555 1/122
AAXX 28121 36821 425// 51002 11014 21029 39793 40288 53012 82932
AAXX 28121 36859 429// 70000 11030 21064 39494 40290 53011 85075 555 1/112
AAXX 28121 36864 41596 80000 11020 21023 39371 40279 53007 71022 886//
AAXX 28121 36870 413// 80000 11016 21033 39253 40280 53014 71022 886// 555 1/102
AAXX 28121 38001 NIL
AAXX 28121 38062 41596 81804 11016 21040 30061 40227 53001 77172 8872/ 555 1/103
AAXX 28121 38069 42997 71602 11026 21056 30061 40257 53002 87500
AAXX 28121 38196 NIL
AAXX 28121 38198 NIL
AAXX 28121 38222 42597 81401 11015 21063 39716 40285 53017 885// 555 1/103
AAXX 28121 38232 NIL
AAXX 28121 38328 NIL
AAXX 28121 38334 NIL
AAXX 28121 38341 42698 82402 10014 21018 39473 40265 53015 83442 555 1/100
AAXX 28121 38343 42998 80000 11030 21064 39418 40281 53012 80001
AAXX 28121 38439 NIL
AAXX 28121 40703 12965 00000 10048 21062 38980 40282 57018 60001 333
AAXX 28121 40712 12965 00702 10040 21071 38735 40288 56013 60001 333
AAXX 28121 40729 12960 00000 10060 21045 38371 40259 58011 60001 333
AAXX 28121 40736 12960 00604 10120 20065 30260 40234 57023 60001 333
AAXX 28121 40739 12965 02103 10054 21058 38735 40266 56009 60001 333
AAXX 28121 40743 12665 22603 10086 21057 39133 40274 55003 60001 82400 333 82635
AAXX 28121 40762 12665 11804 10060 21051 38595 40265 55006 60001 81400 333
AAXX 28121 40768 12960 00000 10054 21053 38288 40268 57013 60001 333
AAXX 28121 40769 11656 10000 10052 21036 38333 40256 56014 60001 70500 81100 333 81835
AAXX 28121 40785 12660 20702 10092 21017 39146 40263 55013 60001 82500 333 82640
AAXX 28121 40809 12962 03403 10105 21122 38531 40328 55004 60001 333
AAXX 28121 40821 12660 10000 10114 21027 38832 40240 57015 60001 81100 333
AAXX 28121 40831 12960 03203 10160 20050 30189 40197 57017 60001 333
AAXX 28121 38598 41596 82703 10015 21010 40308 52018 71022 8872/
AAXX 28121 38599 NIL
AAXX 28121 38725 42699 80000 11021 21122 37760 48500 53001 86902
AAXX 28121 38734 41499 80708 11073 21107 37454 47040 53012 70382 85903
AAXX 28121 38744 41597 80000 11040 21060 38034 48540 53012 78588 889//
AAXX 28121 38836 41593 80000 10018 20007 39950 40314 53007 74684 889//
AAXX 28121 38838 41598 80000 10020 20004 39625 40315 52004 70282 889//
AAXX 28121 38844 41/92 90000 11043 21043 48510 56001 74984
AAXX 28121 38846 NIL
AAXX 28121 38847 42899 70000 10008 21000 40334 53001 8755/
AAXX 28121 38932 NIL
AAXX 28121 38933 42797 82601 10027 21006 39795 40325 54000 885//
AAXX 28121 38944 41697 63403 10031 21013 39645 40189 58007 70282 86500
AAXX 28121 38954 NIL
BBXX A8KM9 28124 99232 71407 41/98 80717 10200 20144 40241 51022 70322 8//// 22264 20405 80165
AAXX 28124 65501 32960 73606 10283 21041 39834 40148 80002 333 0//00 59007 87076
AAXX 28124 65502 32965 70406 10276 21038 39768 40147 80002 333 0//00 58002 87076
AAXX 28124 65503 32960 30610 10298 20062 39795 40138 80002 333 0//00 59007 83076
AAXX 28124 65505 32965 50610 10298 21012 39802 40139 80002 333 0//00 59003 85076
AAXX 28124 65507 32960 70810 10299 21009 39781 40128 80002 333 0//00 59006 87076
AAXX 28124 65510 32960 50612 10295 20006 39617 40128 80002 333 0//00 59005 85076
AAXX 28124 65516 32965 50808 10302 21004 39823 40128 80002 333 0//00 59003 85076
AAXX 28124 65518 32960 70404 10301 20001 39759 40120 80002 333 0//00 59006 87076
AAXX 28124 65522 32960 70212 10305 20003 39799 40127 80002 333 0//00 59006 87076
BBXX A8RV9 28124 99007 70386 41697 30710 10278 20222 40145 53/// 70222 82265 22234 20302 303// 41005 5//// 80238
BBXX DFCX2 28123 99251 50751 41598 81706 10185 20112 40168 51012 70222 885// 22284 06193 20500 323// 41804 80142
BBXX A8KX4 28124 99410 51084 41196 83217 10144 20131 40173 56027 76386 8972/ 22265 04133 20704 322// 41006 80137
BBXX A8UQ3 28123 99440 70091 41297 63415 10160 20098 40385 51010 71851 85757 22213 00140 21006 333// 41207 80125
AAXX 28121 10453 11/86 72318 10005 20005 38870 48493 58018 69931 74144 85508 333 49088 55310 856// 87273 91124 90226 91218 91220 444 56115
AAXX 28124 40100 12558 10205 10170 20084 30204 40236 56017 60001 81200 912// 333 81826 92427
AAXX 28124 40103 32960 03604 10160 20075 40244 57017 555 10186
AAXX 28124 40101 NIL
AAXX 28124 40102 NIL
BBXX FLAO 2812/ 99764 70847 46/// ///// 11283 40041 52003
BBXX VCXF 28124 99464 70484 41194 80532 10050 2005/ 40131 57012 71042 89/// 22200 02025 20504 315// 40806 80050
BBXX 42085 28121 99179 70665 46/// /0505 10258 40179 91150 333 91207
BBXX 42085 28121 99179 70665 46/// /0605 10258 40178 91140 333 91207
BBXX 42085 28121 99179 70665 46/// /0605 10258 40180 53014 91200 22200 00271 10602 70010 333 91207
BBXX 41052 28121 99183 70648 46/// /0809 10263 40180 53014 91200 22200 00269 333 91211
BBXX 41052 28121 99183 70648 46/// /0808 10265 40177 91140 333 91210
BBXX 41052 28121 99183 70648 46/// /0808 10264 40178 91150 333 91211
BBXX SMGW 28121 99337 71325 43/98 12207 10153 40306 57009 22224 00166 2//// 4////
BBXX SBLW 28123 99296 71168 43/98 33216 10140 40224 57003 22274 00166 2//// 4////
BBXX 44255 28121 99473 70573 46/// /1506 1//// 4//// 5//// 22200 0//// 1//// 70/// 333 912//
BBXX WDJK 28124 99536 71395 41597 82618 10055 20055 49690 54000 75022 8824/ 22233 00050 20805 323// 41009 5//// 6//// 80055 ICE /////
BBXX WBWK 28123 99300 71305 41698 70312 10156 2012/ 40290 56010 7//11 878// 22262 0//// 20301 334// 41204 5//// 6//// 80139 ICE /////
BBXX C6FM9 28123 99263 70789 41397 53225 10240 2021/ 40190 54000 7//22 8554/ 22273 00240 20301 332// 40301 5//// 6//// 80220 ICE /////
BBXX 44150 28121 99425 70640 46/// /1613 10109 40033 57063 22200 00071 11206 70031 333 91216
BBXX 44139 28121 99442 70571 46/// /1004 10055 40164 57022 22200 00053 11105 70025 333 91205
BBXX 9HJF9 28124 99169 70664 415// 51509 10250 20250 40180 51/// 7//// 85200 22254 00270 20201 3//// 401// 501// 6//// 80250 ICE /////
BBXX C6FN5 28123 99241 70889 41898 20315 10210 2015/ 40170 54/// 70011 82860 22275 00240 20104 3//// 4//// 5//// 6//// 80170 ICE /////
BBXX DPLE 28123 99484 70359 41497 81619 10110 20101 40300 57020 70322 8/61/ 22264 00130 20702 316// 40704 80105
BBXX KGTY 28124 99573 71451 41398 83221 10000 2//// 49789 57038 7//22 886// 22234 00028 20804 323// 41105 5//// 6//// ICE /////
BBXX DNCQ 28123 99310 71348 41/98 61008 10175 20096 40295 52005 70322 8//// 22224 04170 20501 3//// 4//// 5//// 80130
BBXX WBDS 28124 99419 70604 41598 61827 10112 2007/ 40170 57003 70222 866// 22215 00153 20403 309// 40804 5//// 6//// 80090 ICE /////
BBXX PJKV 28123 99157 70618 41598 20920 10270 20267 40182 53017 70200 82111 22284 04310 21202 307// 40803 5//// 80268
BBXX PHIN 28124 99464 70536 41798 20612 10071 20053 40167 56009 70100 82070 22263 00020 20302 313// 40904 80062
BBXX 46042 28121 99368 71224 46/// /3608 10121 40275 54000 91150 22200 00127 11305 20502 332// 41305 70025 333 91210 555 11085 22090 31144 43510 61149 357080 358078 354079 353075 353068 356067
BBXX 46053 28121 99342 71198 46/// /1201 10128 40221 56007 91150 22200 00134 11103 328// 41103 70016 333 91201 555 11007 22007 31104 40602 61149 125006 092004 046005 064004 062010 058009
BBXX 46089 28121 99459 71258 46/// /2210 10108 20108 40122 53020 91150 22200 00095 11309 20604 326// 41308 70046 333 91212 555 11107 22116 31115 42213 61149 217099 216101 216102 215104 213102 215102
BBXX NWS0003 28124 99539 71665 43/// /0000 11040 21062 49975 5//// 7//// 8//// 222// 0//// 2//// 3//// 4//// 5//// 6//// 8//// ICE /////
BBXX NWS0029 28124 99415 70707 43/// /2516 10088 20044 49935 5//// 7//// 8//// 222// 04075 2//// 3//// 4//// 5//// 6//// 8//// ICE /////
BBXX C6VG8 28124 99262 70785 41/// /3324 10190 2//// 40170 5//// 7//// 8//// 22255 0//// 2//// 3//// 4//// 5//// 6//// 8//// ICE /////
BBXX NWS0020 28124 99277 70640 43/// /1612 10206 20143 40200 5//// 7//// 8//// 222// 04232 2//// 3//// 4//// 5//// 6//// 8//// ICE /////
BBXX PHBO 28123 99356 70407 41297 81633 10189 20152 40157 50012 70262 8472/ 22214 20807 324// 41105 80167
BBXX C6KD8 28123 99196 70619 41598 60815 10252 20200 40203 53003 70222 83562 22254 02265 20602 305// 41203 5//// 80218
BBXX A8MW6 28124 99311 70373 41598 51520 10220 20183 40265 51015 70211 844/2 22254 00240 20603 318// 41005 5//// 80195
BBXX DDSC2 28123 99302 70466 41598 52722 10215 20143 40185 55/// 70111 85463 22254 00221 22010 80170
BBXX A8UN3 28124 99447 70597 41798 61320 10052 20035 40145 57025 70222 86070 22264 04050 2//02 309// 4//03 5//// 80044
BBXX DGDD 28121 99327 71612 41/97 72210 10200 20185 40200 5/000 70200 8//// 22224 04180 2//// 3//// 4//// 5//// 80190
BBXX DFGX2 28123 99494 71301 41/97 /2334 10090 20080 49985 55005 76055 8//// 22263 04090 2//// 80085
BBXX DEDI 28123 99439 70548 41398 50417 10086 20064 40162 58018 70322 831// 22223 00143 20604 307// 41006 80075
BBXX 46083 28121 99582 71380 46/// /1112 10042 21027 49784 56031 91150 22200 00065 11006 20604 300// 41004 70031 333 91216 555 11132 22141 31143 41016 61149 109121 109125 105124 104127 104120 107124 81114 91143
BBXX 46001 28121 99563 71480 46/// /3109 11012 49848 54000 91150 22200 00045 11104 20503 300// 41102 70018 333 91211 555 11093 22097 31050 43012 61149 304088 310082 306089 308087 313080 317086
BBXX 44008 28121 99405 70692 46/// /2608 10119 20101 49952 52012 91150 22200 00106 11112 20805 318// 41110 70058 333 91211 555 11091 22100 31146 42611 61149 257084 255077 255072 253070 247070 245066
BBXX 44022 28121 99409 70737 46/// ///07 10070 20015 49973 53017 91200 22200 00084 333 91209 555 11077 22077
BBXX 41038 28121 99341 70777 46/// /2709 10099 40130 53041 91200 22200 00136 333 91211
BBXX 41041 28121 99142 70460 46/// /0908 10267 20210 40190 51015 91150 22200 00263 10804 20603 3//// 40802 70019 333 91210 555 11085 22090 31109 40810 61149 087080 089083 087076 085077 081082 080082 80909 91132
BBXX 44039 28121 99411 70727 46/// /2511 10083 20040 49966 91200 22200 00087 10503 70013 333 91214
BBXX 44060 28121 99413 70721 46/// ///12 10081 49948 53009 91200 22200 00098 333 91214 555 11134 22139
BBXX 9V8797 28124 99169 11131 43/97 80430 10235 40164 53018 22283 00241 2//// 4////
BBXX SJCD 28121 99489 11617 43/95 90406 11004 40052 54000 22253 00030
BBXX SHJC 28121 99070 10772 43/97 83211 10276 40087 58003 22274 00281 2//// 4////
BBXX 9HA2064 28123 99450 11500 41797 82921 10010 21015 40080 54000 7//22 8874/ 22254 0//// 2//// 3//// 4//// 5//// 6//// 80000 ICE /////
BBXX DCCR2 28124 99424 11496 41596 83037 10040 21016 40120 51020 70322 8/3// 22254 00100 20809 305// 40905 80020
BBXX WKPN 28124 99188 10711 41997 03617 10260 2017/ 40128 56010 70200 8//// 22224 00300 20402 3//// 4//// 5//// 6//// 80200 ICE /////
BBXX OYCY2 28124 99417 11429 43/96 /3430 10000 2000/ 40220 52010 7//// 8//// 22263 00060 2//// 3//// 4//// 5//// 6//// 80000 ICE /////
BBXX HZGN 28123 99078 11189 41697 50110 10280 20246 40138 52020 70011 851// 22264 02274 20501 301// 40802 5//// 80255
BBXX DGBE 28123 99476 11772 41/97 80611 10060 20017 40100 52015 70322 8//// 22214 00060 2//// 80041
BBXX AUYR 28124 99105 10757 31365 43504 10280 20240 40136 57003 70524 83600 22233
BBXX VNVZ 28124 99132 11302 41398 50525 10290 20278 40127 56001 70212 843// 22213 00285 2//// 3//// 4//// 5//// 6//// 80285
BBXX DGXS 28124 99501 11637 41/// 31733 10020 21005 40050 51003 78587 8//// 22214 00040 2//// 3//// 4//// 5//// 80010
BBXX OXOR2 28124 99060 10906 41598 31810 10280 20223 40086 70100 81178 22245 00291 20301 329// 40704 80239
BBXX DCPY2 28124 99262 11226 41/97 /0920 10185 20160 40205 55005 70322 8//// 22284 04220 2//// 80170
BBXX DGZR2 28123 99274 11215 41/96 /0220 10140 20132 40232 52015 76386 8//// 22214 00170 2//// 80135
BBXX PCKU 28120 99071 11210 41697 40605 10271 20245 40106 52008 7//00 8/56/ 22243 04270 2//01 80252
AAXX 28121 14105 12999 02802 10107 20051 30285 40290 57025 60001
BBXX SLKR 28123 99333 51770 43/98 30818 10186 40189 50000 22254 00201 20000 40000
BBXX VROC 28124 99239 31540 41398 81415 10270 20226 40077 51011 70395 887// 22243 04280 20303 315// 40804 80240
BBXX VRAE2 28124 99358 31753 41/// 80327 10195 20162 40136 58013 70122 8//// 22274 04200 2//// 80175
BBXX ZMKA 28124 99450 31716 41/93 /3613 10150 20143 40103 54000 74544 8//// 22213 20101 80146
BBXX 2ALD3 28123 99105 31519 41398 40208 10295 20275 40069 53/// 702// 84/// 22234 04290 2//// 80280
BBXX VRDG4 28123 99368 31766 41298 10424 10200 20192 40158 50012 70200 811// 22223 20604 80195
BBXX VNVF 28124 99185 31177 41497 12820 10275 20247 40045 53011 70200 8/100 22213 00290 20401 304// 40502 80255
BBXX YJZC5 28123 99179 31740 41293 53217 10280 20237 40084 51/// 70000 83875 22263 02280 2//// 399// 40203 80250
BBXX MRWF2 28124 99190 31095 41499 52119 10250 2021/ 40090 52010 70311 85131 22234 00290 20802 32020 40804 50804 6//// 80220 ICE /////
BBXX ONFE 28124 99032 11005 436// 72507 10270 2023/ 40130 5//// 7//// 8//2/ 22273 00280 2//// 3//// 4//// 5//// 6//// 80240 ICE /////
BBXX PCCL 28123 99402 31707 41/97 80316 10182 40120 57015 75886 8//// 22263 04186 2////
BBXX KAOU 28124 99005 10832 43/// /0093 10283 20230 40078 5//// 7//// 8//// 222// 04286 2//// 3//// 4//// 5//// 6//// 8//// ICE /////
BBXX MIBR 28124 99029 30877 41/98 73121 10280 20244 40073 57010 72586 82272 22254 00282 20403 32032 40607 50405 80255
BBXX DCQR2 28123 99267 31532 41498 81318 10240 20183 40082 51010 70222 8477/ 22200 04240 20302 3//// 4//// 5//// 80204
BBXX PCDE 28123 99237 31517 41/98 71313 10252 20212 40085 52020 7//22 8//// 22233 20501 316// 40702 80224
BBXX A8KC6 28124 99283 31775 41597 40723 10230 20183 40090 52010 70322 824// 22214 04250 20506 307// 40506 5//// 80200 46379 173828122 011
BBXX MFLM9 28123 99201 31185 41397 22619 10300 20273 40042 54000 70200 81144 22200 00291 20403 327// 40504 5//// 80280
BBXX WE4805 28124 99475 70873 41/98 80208 11111 2//// 40166 56000 77107 8//// 22233 00039 2//// 3//// 4//// 5//// 6//// 8//// ICE /////
BBXX WZP8164 28124 99451 70868 41/98 73625 11077 2//// 40163 54000 70222 8//// 22213 0//// 20402 3//// 4//// 5//// 6//// 8//// ICE /////
BBXX MINUK01 2812/ 99602 70012 46/// ///// 10073 49840 57046
BBXX MINUK05 2812/ 99571 70021 46/// ///// 10070 49880 57069
BBXX WKPY 28124 99375 70140 41698 50619 10175 20125 40355 52020 7//11 8518/ 22265 00186 20504 312// 41304 5//// 6//// 80145 ICE /////
BBXX SHIP 28124 99371 10154 41497 80617 10140 2009/ 40280 53010 70162 8837/ 22200 00170 20506 307// 40506 5//// 6//// 80110 ICE /////
BBXX A8JF3 28124 99386 70231 41198 81715 10190 2017/ 40350 54000 70322 88622 22264 0//// 2//// 3//// 4//// 5//// 6//// 80175 ICE /////
BBXX 62023 28123 99514 70079 46/97 /2830 10083 2//// 40248 5//// 22200 10708 70039 333 91142 555 70066 81011
BBXX WRYC 28124 99357 70229 43/// /1005 10180 2013/ 4//// 5//// 7//// 8//// 22211 0//// 2//// 3//// 4//// 5//// 6//// 80150 ICE /////
BBXX KABP 28123 99339 10254 43/95 /0709 10175 2012/ 40270 57020 7//// 8//// 22211 0//// 2//// 3//// 4//// 5//// 6//// 80140 ICE /////
BBXX LF4H 28124 99596 10022 46/// /2131 10079 20036 49891 57037 8//// 22200 06084 10810 70050 333 91143
BBXX LAHV 28121 99589 10057 43/// /1810 10070 20055 49981 222// 04087 1////
BBXX LMEL 28121 99603 10053 43/// /1508 10049 20049 49935 5//// 222/0 04091 1//// 3//// 4//// 5////
BBXX PHAM 28124 99495 70011 41597 62415 10100 20085 40230 57020 7//// 85878 22200 20701 80092 90874
BBXX PCBT 28123 99433 70138 41598 80214 10138 20077 40388 52016 70222 8544/ 22214 20402 329// 41205 80105
BBXX TFHFN 28124 99642 70152 46/// ///// 22200 10804 70020
BBXX TFKGR 28124 99657 70136 46/// ///// 22200 10704 70021
BBXX TFGRS 28124 99663 70182 46/// ///// 22200 10703 70016
BBXX TFBKF 28124 99635 70202 46/// ///// 22200 10804 70020
BBXX TFGSK 28124 99641 70229 46/// ///// 22200 10804 70020
BBXX TFDRN 28124 99658 70212 46/// ///// 22200 10702 70012
BBXX TFSRT 28124 99633 70203 46/// ///// 22200 10806 70028
BBXX TFSTD 28124 99664 70234 46/// ///// 22200 10804 70022
BBXX TFGRV 28124 99638 70225 46/// ///// 22200 10803 70016
BBXX 62087 28121 99547 10068 46/// /0308 10079 20071 4//// 5//// 22270 00085
BBXX C6KD6 28124 99411 70279 41296 81218 10142 20135 40371 52038 71055 886// 22214 02156 20905 335// 41304 80138
BBXX A8CH2 28124 99373 70333 41598 51917 10210 20164 40310 5/005 70222 85455 22254 04170 20404 315// 40504 80180
BBXX TBWUK03 28123 99032 50304 41598 31413 10265 20242 40158 54000 70200 81408 22253 20401 315// 40702 5//// 80248
BBXX WRYD 28124 99125 10470 41698 31310 10280 2025/ 40146 57014 70200 831// 22225 00264 20201 308// 40602 5//// 6//// 80260 ICE /////
BBXX 3EPD8 28124 99185 70220 41197 20434 10230 20223 40187 7//00 81100 22214 04235 299// 80225
BBXX DGWD2 28123 99201 10627 41/99 39903 10245 20186 40150 54000 70300 82102 22234 00260 20000 399// 4//01 80205
BBXX DDYL2 28123 99155 10417 41/97 /3005 10270 20221 40130 57028 70511 8//// 22274 00260 20201 80235
BBXX PFFH 28123 99150 70188 41898 70315 10244 20199 40172 52012 70222 87070 22243 00227 20403 303// 40605 80213 90874
BBXX UBAU 28121 99122 70176 41898 40503 10270 40163 54000 70311 84050 22211 04255 20100
BBXX A8AX3 28123 99046 30113 41/97 21806 10280 40140 51/// 70200 81131 22234 2////
BBXX A8IQ2 28121 99347 30227 41598 11305 10275 20219 40205 53020 70000 81100 22263 00220 20501 316// 40903 5//// 80235
BBXX PDHO 28123 99198 10681 41998 00115 10250 20182 40138 55008 70200 80000 22264 00267 20403 80204
BBXX PDKK 28123 99045 30003 41597 81809 10264 40138 55020 70222 8446/ 22271 20301 318// 40803
BBXX PHPP 28124 99253 10580 41297 42822 10240 20155 40145 57005 70200 84110 22264 00255 20804 80185
BBXX PHKL 28120 99179 10400 41598 40204 10280 20224 40136 56021 70322 8418/ 22233 00281 201// 331// 41203 5//// 80240
AAXX 28121 08521 32470 70306 10180 20112 30262 40333 52011 87800 333 83816 85633
AAXX 28121 08524 32465 50305 10180 20107 30238 40336 52008 82131 333 82815 83358 91009 91111
BBXX A8CG7 28120 99294 31632 41298 32211 10221 20187 49980 58010 70300 81640 22234 04240 20603 314// 40704 5//// 80198
BBXX A8IM7 28124 99331 71642 41598 22327 10200 20144 40190 702// 8/5// 22225 04190 2//04 333// 4//08 5//// 80165
BBXX DHEE 28123 99132 70938 41998 53512 10255 20220 40135 55000 70211 8503/ 22274 00280 20202 333// 40406 80230
BBXX C6XC6 28124 99106 70869 41598 20524 10253 2//// 40120 52020 70100 821// 22273 04230 21002 3//// 4//// 5//// 6//// 8//// ICE /////
BBXX C6OT4 28124 99143 71123 41398 30714 10252 20219 40158 54000 70222 836// 22223 04264 21105 332// 41405 5//// 80230
AAXX 28124 85574 11950 21603 10171 20117 39595 40144 53012 60004 70500 80001 333 20138 30/// 55125 56006 70000 82075
AAXX 28124 41858 31957 00000 10212 20130 30089 40136 70500 333 10284 58004 70000
AAXX 28124 41863 32950 00000 10192 20100 30089 40136 333 10280 58007 70000
AAXX 28124 41886 31950 10000 10235 20200 30114 40135 70511 81030 333 10290 56090 58009 70000 81365
AAXX 28124 41895 32956 00000 10203 20160 30114 40137 333 10272 58010 70000
AAXX 28124 41909 NIL
AAXX 28124 41915 NIL
AAXX 28124 41926 NIL
AAXX 28124 41929 32956 20000 10220 20170 30122 40132 82030 333 10280 56090 58008 70000 82365
AAXX 28124 41933 31940 02302 10238 20200 30124 40133 70500 333 10294 58010 70000
AAXX 28124 41939 NIL
AAXX 28124 41941 NIL
AAXX 28124 41946 32950 20000 10220 20170 30135 40139 80001 333 10257 56009 58011 70000 82080
AAXX 28124 41947 NIL
AAXX 28124 41951 NIL
AAXX 28124 41953 31940 60000 10240 20210 30123 40128 70522 86030 333 10280 56090 58012 70000 86362
AAXX 28124 41958 31440 70000 10226 20170 30130 40133 70522 83570 333 10256 56990 58015 70000 83618 85460
AAXX 28124 41960 NIL
AAXX 28124 41963 NIL
AAXX 28124 41964 NIL
AAXX 28124 41965 NIL
AAXX 28124 41966 31440 60000 10230 20210 30059 40139 70522 82510 333 10264 56990 58015 70000 82616 85460
AAXX 28124 41984 NIL
AAXX 28124 41989 NIL
AAXX 28124 41998 NIL
AAXX 28124 62357 32560 50210 10185 20076 40229 57020 85800
AAXX 28124 62403 32960 00304 10218 20019 40188 57026
AAXX 28124 62423 32960 00408 10187 20076 40219 57035
AAXX 28124 41978 31440 60000 10225 20210 30124 40131 70542 82320 333 10250 56990 58014 70000 82618 81928 84459
AAXX 28121 45032 36/// /1202 10165 20137 30196 40213 54000
AAXX 28121 45035 36/// /1002 10168 20147 30168 40210 52002
AAXX 28121 45039 36/// /9901 10159 20138 30199 40215 52002
AAXX 28121 45044 36/// /1103 10157 20142 30118 40212 52001
BBXX 46207 28121 99509 71299 46/// /2213 10092 49929 52018 22200 00082 11408 70040 333 91216
AAXX 28121 45032 36/// /1202 10165 20137 30196 40213 54000
AAXX 28121 45035 36/// /1002 10168 20147 30168 40210 52002
AAXX 28121 45039 36/// /9901 10159 20138 30199 40215 52002
AAXX 28121 45044 36/// /1103 10157 20142 30118 40212 52001
AAXX 28124 41529 12997 00000 10156 20063 39803 40187 60002 333 10195 58013
AAXX 28124 41598 11996 02702 10205 20093 39909 40180 60002 70500 333 10228 58028
AAXX 28124 41620 32997 03605 10150 21099 38595 48499 333 10165 58026
AAXX 28124 41624 02997 00000 10195 20091 39975 40175 60002 333 10205 58023 60007
AAXX 28124 41640 01995 00000 10185 20132 39919 40169 60002 70400 333 10205 58026 60007
AAXX 28124 41660 12797 43110 10130 21042 38446 48535 60002 81430 333 10145 56990 58016 81650 83362
AAXX 28124 41675 11995 00000 10185 20078 30035 40179 60002 70400 333 10201 58023
AAXX 28124 41712 11996 00904 10195 21086 39215 48533 60002 70500 333 10200 58016
AAXX 28124 41715 01996 00000 10200 20046 30116 40182 60002 70500 333 10215 58033 60007
AAXX 28124 41756 21596 42306 10250 20176 30072 40136 60002 70504 84400 333 10268 56900 58021 60007 84625
AAXX 28124 41764 31996 03612 10200 20046 30105 40156 60002 70400 333 10225 58018 60007
AAXX 28124 41768 02996 00000 10255 20127 30137 40144 60002 333 10265 58019 60007
AAXX 28124 41780 02996 00512 10240 21043 30127 40154 60002 333 10260 58020 60007
AAXX 28124 62309 32560 40307 10187 20087 40237 57023 84200
AAXX 28124 62325 32560 60105 10194 20113 40244 57018 86800
AAXX 28124 62332 32560 30510 10190 20116 40232 57024 83100
AAXX 28124 62387 31930 23507 10194 20088 40208 57021 70600 82030
AAXX 28124 62452 32960 00206 10154 20031 40219 57028
AAXX 28124 62459 32960 43015 10198 20075 40195 57020 80004
AAXX 28124 78062 11669 23214 10189 20130 40189 60003 70200 82500 333 10268 20187 59004 70000 82640 90908
AAXX 28124 62309 32560 40307 10187 20087 40237 57023 84200
AAXX 28124 62325 32560 60105 10194 20113 40244 57018 86800
AAXX 28124 62332 32560 30510 10190 20116 40232 57024 83100
AAXX 28124 62387 31930 23507 10194 20088 40208 57021 70600 82030
AAXX 28124 62452 32960 00206 10154 20031 40219 57028
AAXX 28124 62459 32960 43015 10198 20075 40195 57020 80004
BBXX 46207 28121 99509 71299 46/// /2213 10092 49929 52018 22200 00082 11408 70040 333 91216
AAXX 28124 91945 06/// /0214 10267 20225 30128 40133 56014 69921 333 10291 69927
AAXX 28124 41529 12997 00000 10156 20063 39803 40187 60002 333 10195 58013
AAXX 28124 41598 11996 02702 10205 20093 39909 40180 60002 70500 333 10228 58028
AAXX 28124 41620 32997 03605 10150 21099 38595 48499 333 10165 58026
AAXX 28124 41624 02997 00000 10195 20091 39975 40175 60002 333 10205 58023 60007
AAXX 28124 41640 01995 00000 10185 20132 39919 40169 60002 70400 333 10205 58026 60007
AAXX 28124 41660 12797 43110 10130 21042 38446 48535 60002 81430 333 10145 56990 58016 81650 83362
AAXX 28124 41675 11995 00000 10185 20078 30035 40179 60002 70400 333 10201 58023
AAXX 28124 41712 11996 00904 10195 21086 39215 48533 60002 70500 333 10200 58016
AAXX 28124 41715 01996 00000 10200 20046 30116 40182 60002 70500 333 10215 58033 60007
AAXX 28124 41756 21596 42306 10250 20176 30072 40136 60002 70504 84400 333 10268 56900 58021 60007 84625
AAXX 28124 41764 31996 03612 10200 20046 30105 40156 60002 70400 333 10225 58018 60007
AAXX 28124 41768 02996 00000 10255 20127 30137 40144 60002 333 10265 58019 60007
AAXX 28124 41780 02996 00512 10240 21043 30127 40154 60002 333 10260 58020 60007
BBXX 3ERR2 28124 99635 10053 41497 81123 10066 20029 49900 57073 76162 8672/ 22200 06094 11207 70036 333 91131
BBXX LF3F 28124 99643 10078 41598 71019 10045 20006 49952 57074 70200 8562/ 22200 04090 10909 70044 333 91124
BBXX LF3N 28124 99653 10073 43/// /1216 10041 21013 49968 57068 91210 22200 10909 70045
BBXX LF4B 28124 99606 10037 47/98 /2121 10062 49903 57040 785// 22200 00059 10810 70052 333 91145
BBXX LF4C 28124 99584 10019 41497 62134 10081 20022 49913 57038 70262 86900 22200 00074 10810 70049 333 91140
BBXX LF5T 28124 99660 10081 43698 81612 10032 21030 49986 57049 8551/ 91210 22200 06082 11011 70055 333 91122
AAXX 28124 78062 11669 23214 10189 20130 40189 60003 70200 82500 333 10268 20187 59004 70000 82640 90908
AAXX 28121 28676 415// 81507 11021 21049 39879 40005 57009 73673 886// 555 1/103
AAXX 28121 28766 41996 82011 11018 21029 39785 49972 57011 73873 8802/ 333 91016 91119 555 1/103
AAXX 28121 28867 NIL
AAXX 28121 28879 415// 82015 11040 21066 39761 40049 57007 73673 8557/ 333 91016 91120 555 1/106
AAXX 28121 28952 NIL
AAXX 28121 28966 415// 82010 11039 21054 39748 40031 57009 73773 885// 333 91017 91119 555 1/106
AAXX 28121 29802 419// 81806 11060 21083 30029 40175 53001 73673 8801/ 555 1/107
AAXX 28121 29807 425// 82004 11060 21100 30050 40171 57006 885// 555 1/107
AAXX 28121 34691 41598 72907 10026 21001 30063 40051 57008 70286 82330 555 1/000
AAXX 28121 35067 419// 81707 11038 21056 39767 40043 57010 73873 8802/ 333 91015 91119 555 1/104
AAXX 28121 35078 41596 82210 11049 21055 39711 40092 57003 77773 886// 333 91117 555 1/105
AAXX 28121 35085 414// 81909 11068 21077 39652 40136 53002 73873 886// 333 91015 91116 555 1/107
AAXX 28121 35108 41597 73106 10013 21039 39882 49927 53021 72276 87500 333 91014 91115
AAXX 28121 35188 414// 81809 11063 21086 39732 40174 57002 77173 8772/ 333 87712 91016 91119 555 1/107
AAXX 28121 35217 41596 82710 10014 21003 39896 49934 53006 70275 885// 333 91115 555 1/000
AAXX 28121 35229 41494 82312 11004 21007 39658 49925 57031 78683 889// 333 91119 555 1/101
AAXX 28121 35302 41998 63309 10017 21027 39937 49955 52016 70262 86050 555 1/001
AAXX 28121 35357 41597 81810 11062 21085 39726 40168 57004 73632 885// 555 1/107
AAXX 28121 35394 41998 72106 11085 21122 39538 40236 57009 73673 87010 555 1/110
AAXX 28121 35406 41597 52707 10029 21007 39982 49984 53006 70252 85500 555 1/002
AAXX 28121 35416 41597 82210 10007 21001 39848 49966 56012 72273 8802/ 333 91120 555 1/000
AAXX 28121 35426 41593 82110 11005 21017 39687 49973 57030 77173 8872/ 333 91016 91118 555 1/101
AAXX 28121 35497 429// 71405 11117 21154 39432 40266 54000 82042 555 1/112
AAXX 28121 35532 41/90 92016 11022 21034 39529 40015 56028 73973 333 91020 91120 92992 555 1/103
AAXX 28121 35671 41996 82006 11051 21064 39763 40200 57003 77173 8807/ 555 1/106
AAXX 28121 35700 41494 82405 10032 20011 30075 40052 57003 76162 8802/ 555 1/001
AAXX 28121 35746 41496 82312 10001 21002 30053 40120 57013 77173 8802/ 333 91116 555 1/000
AAXX 28121 35796 41597 80406 11147 21174 39859 40323 53002 77173 8802/ 555 1/114
AAXX 28121 35849 41597 82004 10004 21018 30075 40161 57005 76062 8872/ 555 1/100
AAXX 28121 35925 41595 82310 10012 20007 39997 40108 57020 71072 887// 555 1/000
AAXX 28121 35953 41699 81806 11011 21034 30063 40193 57006 70273 885// 555 1/102
AAXX 28121 35969 41996 81805 11023 21048 30071 40246 57003 77172 8802/ 555 1/103
AAXX 28121 36003 41596 82006 11050 21060 30070 40224 53007 77373 8802/ 333 91110 555 1/106
AAXX 28121 36152 419// 71404 11124 21161 30064 40262 53004 70232 85042 555 1/114
AAXX 28121 36177 429// 51201 11111 21131 30039 40297 53003 80001 555 1/118
AAXX 28121 36208 429// 10602 11112 21152 39304 40328 54000 80001 555 1/115
AAXX 28121 36397 429// 31608 11097 21148 39717 40302 51001 83041 555 1/112
AAXX 28121 36428 429// 00000 11183 21199 39819 40358 53003 333 95090 555 1/121
AAXX 28121 36535 429// 00000 11202 21251 39684 40371 53004 555 1/124
AAXX 28121 36639 429// 20000 11188 21229 39685 40338 53008 80001 555 1/122
AAXX 28121 36821 425// 51002 11014 21029 39793 40288 53012 82932
AAXX 28121 36859 429// 70000 11030 21064 39494 40290 53011 85075 555 1/112
AAXX 28121 36864 41596 80000 11020 21023 39371 40279 53007 71022 886//
AAXX 28121 36870 413// 80000 11016 21033 39253 40280 53014 71022 886// 555 1/102
AAXX 28121 38001 41597 82912 10057 20030 30184 40155 57012 70262 8872/ 555 11005
AAXX 28121 38062 41596 81804 11016 21040 30061 40227 53001 77172 8872/ 555 1/103
AAXX 28121 38069 42997 71602 11026 21056 30061 40257 53002 87500
AAXX 28121 38196 41598 82001 11047 21060 39274 40284 52012 77172 8802/
AAXX 28121 38198 41597 81504 11018 21032 30026 40291 53008 77172 8802/ 555 1/102
AAXX 28121 38222 42597 81401 11015 21063 39716 40285 53017 885// 555 1/103
AAXX 28121 38232 42598 82408 10063 20029 30095 40193 57009 885// 555 1/005
AAXX 28121 38328 41595 82403 11010 21012 39548 40292 53021 78582 889// 555 1/101
AAXX 28121 38334 41294 82903 11020 21029 39306 40290 53019 77177 8802/ 555 1/102
AAXX 28121 38341 42698 82402 10014 21018 39473 40265 53015 83442 555 1/100
AAXX 28121 38343 42998 80000 11030 21064 39418 40281 53012 80001
AAXX 28121 38439 42598 81102 11004 21034 39955 40302 53017 885// 555 1/000
AAXX 28124 78062 11669 23214 10189 20130 40189 60003 70200 82500 333 10268 20187 59004 70000 82640 90908
AAXX 28121 48845 01498 82501 10164 20154 30194 40201 52008 69904 70262 888// 333 01017 10177 59014 69902 7999 9 83894 88697
AAXX 28121 48803 32497 80000 10182 20130 30074 40189 52012 888// 333 00018 10252 59017 70000 84894 88696
AAXX 28121 48840 32498 80000 10185 20143 30188 40194 52012 888// 333 00018 10195 59016 70000 83894 88696
AAXX 28124 87344 32562 70511 10256 20159 39626 40157 52011 81571 333 10279 20200 56666 81630 84360
AAXX 28124 87349 32970 63604 10250 20159 39778 40161 52011 82032 333 10282 20183 30016 56010 82360 84070
AAXX 28124 87371 32962 00510 10245 20151 30160 40180 52015 333 10272 20200
AAXX 28124 87374 32965 00510 10232 20145 30090 40176 52015 333 10273 20188
AAXX 28124 87395 32965 00914 10228 20170 30141 40186 52019 333 10270 20174
AAXX 28124 87418 12665 61408 10264 20163 39342 40102 52024 69904 84570 333 10332 20246 56550 84645
AAXX 28124 87436 32670 41109 10287 20152 39342 40118 52018 83570 333 10312 20229 56880 83640
AAXX 28124 87448 32565 70517 10266 20154 39592 40134 52020 83571 333 10276 20210 56556 83630 83360
AAXX 28124 87453 32965 60217 10232 20147 39680 40156 52019 83076 333 10258 20165 56059 83360 83270
AAXX 28124 87467 32970 20517 10247 20159 30042 40175 52023 80005 333 10247 20164 30000 56005 82270
AAXX 28124 87497 32965 20512 10223 20161 30170 40198 52011 80001 333 10256 20164 56005 82070
AAXX 28124 87506 02970 40706 10210 20123 38606 48532 53008 60054 84050 333 10222 20130 56050 69922 84360 95032
AAXX 28124 87509 32970 20000 10232 20165 39304 40127 52013 82070 333 10274 20183 30017 56070 82360
AAXX 28124 87534 32960 70512 10231 20126 30014 40172 52024 84076 333 10253 20173 30014 56055 84360 85270
AAXX 28124 87548 32960 60215 10238 20149 30092 40185 52019 82085 333 10254 20148 56066 82360 86270
AAXX 28124 87576 32960 20511 10248 20159 30181 40204 52008 80005 333 10248 20150 56006 82270
AAXX 28124 87582 32960 10208 10230 20165 30201 40208 52013 80001 333 10230 20214 56006 81070
AAXX 28124 87585 32960 03605 10239 20174 30176 40205 52012 333 10239 20205 30018
AAXX 28123 87480 32962 00513 10248 20155 30152 40181 52016 333 10269 20197
AAXX 28123 87532 32970 73613 10238 20133 39998 40163 52012 84072 333 10289 20200 56066 84360 83080
AAXX 28121 28676 415// 81507 11021 21049 39879 40005 57009 73673 886// 555 1/103
AAXX 28121 28766 41996 82011 11018 21029 39785 49972 57011 73873 8802/ 333 91016 91119 555 1/103
AAXX 28121 28867 NIL
AAXX 28121 28879 415// 82015 11040 21066 39761 40049 57007 73673 8557/ 333 91016 91120 555 1/106
AAXX 28121 28952 NIL
AAXX 28121 28966 415// 82010 11039 21054 39748 40031 57009 73773 885// 333 91017 91119 555 1/106
AAXX 28121 29802 419// 81806 11060 21083 30029 40175 53001 73673 8801/ 555 1/107
AAXX 28121 29807 425// 82004 11060 21100 30050 40171 57006 885// 555 1/107
AAXX 28121 34691 41598 72907 10026 21001 30063 40051 57008 70286 82330 555 1/000
AAXX 28121 35067 419// 81707 11038 21056 39767 40043 57010 73873 8802/ 333 91015 91119 555 1/104
AAXX 28121 35078 41596 82210 11049 21055 39711 40092 57003 77773 886// 333 91117 555 1/105
AAXX 28121 35085 414// 81909 11068 21077 39652 40136 53002 73873 886// 333 91015 91116 555 1/107
AAXX 28121 35108 41597 73106 10013 21039 39882 49927 53021 72276 87500 333 91014 91115
AAXX 28121 35188 414// 81809 11063 21086 39732 40174 57002 77173 8772/ 333 87712 91016 91119 555 1/107
AAXX 28121 35217 41596 82710 10014 21003 39896 49934 53006 70275 885// 333 91115 555 1/000
AAXX 28121 35229 41494 82312 11004 21007 39658 49925 57031 78683 889// 333 91119 555 1/101
AAXX 28121 35302 41998 63309 10017 21027 39937 49955 52016 70262 86050 555 1/001
AAXX 28121 35357 41597 81810 11062 21085 39726 40168 57004 73632 885// 555 1/107
AAXX 28121 35394 41998 72106 11085 21122 39538 40236 57009 73673 87010 555 1/110
AAXX 28121 35406 41597 52707 10029 21007 39982 49984 53006 70252 85500 555 1/002
AAXX 28121 35416 41597 82210 10007 21001 39848 49966 56012 72273 8802/ 333 91120 555 1/000
AAXX 28121 35426 41593 82110 11005 21017 39687 49973 57030 77173 8872/ 333 91016 91118 555 1/101
AAXX 28121 35497 429// 71405 11117 21154 39432 40266 54000 82042 555 1/112
AAXX 28121 35532 41/90 92016 11022 21034 39529 40015 56028 73973 333 91020 91120 92992 555 1/103
AAXX 28121 35671 41996 82006 11051 21064 39763 40200 57003 77173 8807/ 555 1/106
AAXX 28121 35700 41494 82405 10032 20011 30075 40052 57003 76162 8802/ 555 1/001
AAXX 28121 35746 41496 82312 10001 21002 30053 40120 57013 77173 8802/ 333 91116 555 1/000
AAXX 28121 35796 41597 80406 11147 21174 39859 40323 53002 77173 8802/ 555 1/114
AAXX 28121 35849 41597 82004 10004 21018 30075 40161 57005 76062 8872/ 555 1/100
AAXX 28121 35925 41595 82310 10012 20007 39997 40108 57020 71072 887// 555 1/000
AAXX 28121 35953 41699 81806 11011 21034 30063 40193 57006 70273 885// 555 1/102
AAXX 28121 35969 41996 81805 11023 21048 30071 40246 57003 77172 8802/ 555 1/103
AAXX 28121 36003 41596 82006 11050 21060 30070 40224 53007 77373 8802/ 333 91110 555 1/106
AAXX 28121 36152 419// 71404 11124 21161 30064 40262 53004 70232 85042 555 1/114
AAXX 28121 36177 429// 51201 11111 21131 30039 40297 53003 80001 555 1/118
AAXX 28121 36208 429// 10602 11112 21152 39304 40328 54000 80001 555 1/115
AAXX 28121 36397 429// 31608 11097 21148 39717 40302 51001 83041 555 1/112
AAXX 28121 36428 429// 00000 11183 21199 39819 40358 53003 333 95090 555 1/121
AAXX 28121 36535 429// 00000 11202 21251 39684 40371 53004 555 1/124
AAXX 28121 36639 429// 20000 11188 21229 39685 40338 53008 80001 555 1/122
AAXX 28121 36821 425// 51002 11014 21029 39793 40288 53012 82932
AAXX 28121 36859 429// 70000 11030 21064 39494 40290 53011 85075 555 1/112
AAXX 28121 36864 41596 80000 11020 21023 39371 40279 53007 71022 886//
AAXX 28121 36870 413// 80000 11016 21033 39253 40280 53014 71022 886// 555 1/102
AAXX 28121 38001 41597 82912 10057 20030 30184 40155 57012 70262 8872/ 555 11005
AAXX 28121 38062 41596 81804 11016 21040 30061 40227 53001 77172 8872/ 555 1/103
AAXX 28121 38069 42997 71602 11026 21056 30061 40257 53002 87500
AAXX 28121 38196 41598 82001 11047 21060 39274 40284 52012 77172 8802/
AAXX 28121 38198 41597 81504 11018 21032 30026 40291 53008 77172 8802/ 555 1/102
AAXX 28121 38222 42597 81401 11015 21063 39716 40285 53017 885// 555 1/103
AAXX 28121 38232 42598 82408 10063 20029 30095 40193 57009 885// 555 1/005
AAXX 28121 38328 41595 82403 11010 21012 39548 40292 53021 78582 889// 555 1/101
AAXX 28121 38334 41294 82903 11020 21029 39306 40290 53019 77177 8802/ 555 1/102
AAXX 28121 38341 42698 82402 10014 21018 39473 40265 53015 83442 555 1/100
AAXX 28121 38343 42998 80000 11030 21064 39418 40281 53012 80001
AAXX 28121 38439 42598 81102 11004 21034 39955 40302 53017 885// 555 1/000
AAXX 28121 22282 415// 82706 11016 21027 39751 49759 52019 70242 8655/
AAXX 28121 22438 NIL
AAXX 28121 22471 41374 83005 11012 21022 39786 49903 52021 78587 889// 333 86709
AAXX 28121 22563 41461 83405 11021 21027 39796 49833 52027 72687 885// 333 88614
AAXX 28121 22641 41499 82909 11022 21050 39915 49931 52037 73632 885// 333 86717 91117
AAXX 28121 22695 41598 83403 11075 21088 39644 49797 52032 70272 8552/ 333 85620
AAXX 28121 22867 41496 83104 11033 21054 39778 49891 52037 78583 889// 333 88915 91109
AAXX 28121 22939 42697 23008 11011 21099 39845 40008 52046 82500 333 91118
AAXX 28121 22996 41494 82805 11015 21023 39580 49765 52023 78682 8392/
AAXX 28121 23324 42981 81002 11097 21133 39754 49832 52011 8807/
AAXX 28121 27008 41598 72504 10003 21056 39876 40047 52040 70232 87900
AAXX 28121 27051 NIL
AAXX 28121 27225 42467 53308 10003 21064 39871 40001 52031 85500 333 85619 91016 91117
AAXX 28121 27252 41410 82907 11024 21030 39713 49897 52037 77173 8877/ 333 88714 91122
AAXX 28121 27333 41980 83206 10004 21066 39809 49965 52031 72273 8805/ 91116
AAXX 28121 27369 41673 73107 11008 21053 39753 49888 52041 73673 84501
AAXX 28121 27393 41496 82704 11020 21029 39624 49788 53007 78385 889//
AAXX 28121 27479 41408 82906 11017 21022 39733 49866 52034 78687 889// 333 88915 91114 92983
AAXX 28121 27532 41597 73009 10005 21045 39799 40011 52031 72282 87300 333 91015 91117
AAXX 28121 27648 41497 73007 10010 21058 39842 40009 52037 73683 879// 333 91012
AAXX 28121 27675 42598 73011 11005 21050 39730 49897 52023 87500
AAXX 28121 27679 41498 83110 11008 21058 39688 49917 52021 70282 885// 333 88617
AAXX 28121 28214 41599 72604 11017 21034 39569 49775 52014 70287 87900
AAXX 28121 34560 41597 73012 10015 21011 39937 40104 52019 72682 85330 333 85920 91121
AAXX 28121 34720 41597 32805 10077 20009 30164 40203 55002 70251 83600
AAXX 28121 34730 41497 52708 10072 20023 30102 40194 54000 70262 85500 333 85618 91117
AAXX 28121 34740 41598 72807 10057 20032 30094 40191 55000 70262 87900
AAXX 28121 34824 41596 82704 10051 20044 30240 40245 55003 71082 884//
AAXX 28121 34858 41496 83008 10059 20037 30069 40177 53002 71052 885// 333 91119
AAXX 28121 34866 42498 82909 10067 20029 30152 40143 55001 8570/ 333 91121 91021
AAXX 28121 34880 41497 62607 10061 20030 30137 40111 55000 70262 86330 333 86915 91118
AAXX 28121 37018 41598 81505 10070 20040 30218 40295 56011 72588 8697/
AAXX 28121 37054 42698 32807 10097 20016 39825 40205 53005 82530
AAXX 28121 37472 42598 81101 10086 20007 30234 40212 55002 85571
AAXX 28121 22165 41497 62607 10003 21011 39727 49787 52024 71582 85350
AAXX 28121 22676 41472 83106 11040 21055 39750 49828 52039 73673 885//
AAXX 28121 22837 42598 92907 10001 21063 39946 40016 52043 86500 333 86625
AAXX 28121 22954 41584 73110 11020 21059 39691 49940 52039 73783 87500 333 87624 91118
AAXX 28121 23405 41460 71302 11101 21114 39702 49802 52025 83570
AAXX 28121 23412 41397 81103 11094 21106 39714 49812 52010 77172 8872/ 333 86708
AAXX 28121 23803 41499 81202 11051 21061 39574 49750 53011 70273 8802/ 333 88514
AAXX 28121 27066 41495 83106 11024 21051 39671 49846 52048 77173 8677/ 333 86712
AAXX 28121 27083 41457 82205 11024 21030 39562 49781 52030 77173 8802/ 333 91112
AAXX 28121 27113 41560 32908 10004 21088 39857 40002 53039 70281 82530
AAXX 28121 27242 41480 72908 10006 21056 39806 49937 52028 70132 87900 333 87918 91018
AAXX 28121 27329 72584 73110 10010 21058 39881 40007 52034 87500 333 91118
AAXX 28121 27355 41498 82909 10002 21057 39764 49926 52031 73673 885// 333 91015 91120
AAXX 28121 27373 41496 83010 11024 21046 39635 49851 53045 78583 889// 333 88713 91119 9298/
AAXX 28121 27665 42597 82807 11005 21085 39678 49946 52030 8395/ 333 91118
AAXX 28121 27835 42697 23206 10018 21068 39909 40067 52017 82500 333 91012 91115
AAXX 28121 28009 42498 62602 11019 21034 39558 49763 52012 86500
AAXX 28121 28411 41597 82505 11013 21033 39599 49788 52020 70272 8697/
AAXX 28121 28418 41599 72805 11004 21028 39627 49789 53019 73687 87500 333 87622
AAXX 28124 41515 02697 60000 10105 21076 38560 48522 60002 84520 333 10128 56990 58016 60007 84650 82458
AAXX 28124 41560 22696 41803 10035 21033 38287 48519 60002 83430 333 10065 58005 60007
AAXX 28124 41571 11996 01304 10190 20078 39591 40188 60002 70500 333 10225 58020
AAXX 28124 41594 31994 01304 10180 20071 39968 40186 70500 333 10195 58034
AAXX 28124 41685 32997 03102 10165 21118 38921 48506 333 10175 58028
AAXX 28124 41710 01995 03102 10180 21102 39387 40156 60002 70600 333 10194 58023 60007
AAXX 28124 41718 11995 00502 10195 20038 30071 40176 60002 70500 333 10206 58027
AAXX 28124 41739 02997 03106 10210 21045 39053 48519 60002 333 10215 58023 60007
AAXX 28124 41744 32996 01802 10185 20018 38779 48507 333 10195 58012
AAXX 28124 41749 01995 03106 10210 20032 30132 40166 60002 70400 333 10225 58022 60007
AAXX 28124 41515 02697 60000 10105 21076 38560 48522 60002 84520 333 10128 56990 58016 60007 84650 82458
AAXX 28124 41560 22696 41803 10035 21033 38287 48519 60002 83430 333 10065 58005 60007
AAXX 28124 41571 11996 01304 10190 20078 39591 40188 60002 70500 333 10225 58020
AAXX 28124 41594 31994 01304 10180 20071 39968 40186 70500 333 10195 58034
AAXX 28124 41685 32997 03102 10165 21118 38921 48506 333 10175 58028
AAXX 28124 41710 01995 03102 10180 21102 39387 40156 60002 70600 333 10194 58023 60007
AAXX 28124 41718 11995 00502 10195 20038 30071 40176 60002 70500 333 10206 58027
AAXX 28124 41739 02997 03106 10210 21045 39053 48519 60002 333 10215 58023 60007
AAXX 28124 41744 32996 01802 10185 20018 38779 48507 333 10195 58012
AAXX 28124 41749 01995 03106 10210 20032 30132 40166 60002 70400 333 10225 58022 60007
AAXX 28121 40716 12660 10000 10060 21016 38968 40273 56012 60001 333 81400 33
AAXX 28121 40719 12960 03002 10130 20047 30244 40233 56018 60001 333
AAXX 28121 40721 12660 20000 10088 20033 39713 40269 57016 60001 82100 333 82835
AAXX 28121 40858 12960 03504 10164 20076 30189 40200 56011 60001 333
AAXX 28121 40872 11957 03204 10212 20017 30168 40173 55008 60001 70600 222// 00198 20302 333
AAXX 28121 40877 12960 01206 10220 21019 39609 40149 56010 60001 333
AAXX 28121 40898 12560 12004 10244 20155 30139 40148 56009 60001 81400 222// 00242 10600 333
AAXX 28124 60127 32660 60000 10110 20057 39715 40322 58001 86500 333 86633
BBXX OXVD2 28123 99060 10882 41/98 72710 10289 20225 40088 56012 70511 83678 22263 04280 20302 33118 40605 50705 80245
BBXX A8SC4 28124 99370 71584 41297 82416 10170 20154 40140 54000 75055 8/7// 22244 04130 20201 80160
BBXX A8GU5 28124 99354 70066 41698 30611 10180 20083 40320 56010 7//// 83100 22214 04190 20302 80130
AAXX 28121 14235 12960 0//// 10016 21056 39126 48563 57021 60001 333 70000
AAXX 28121 14246 11456 81802 10034 20013 30113 40324 57028 69901 72056 886// 333 70000
AAXX 28121 14314 12984 12501 10121 21009 30225 40290 57020 60001 80001 333 70000 92301 92418
AAXX 28121 14323 12981 01105 10109 21025 30256 40290 57021 60001 333 70000 92323 92438
AAXX 28121 14324 12980 20905 10052 21026 38482 48581 58010 60001 80002 333 70000
AAXX 28121 14328 11558 71901 10013 21018 39917 40328 58028 60001 710// 87500 333 70000
AAXX 28121 14330 11650 23601 10018 21028 39629 40319 57020 60001 710// 82100 333 70000
AAXX 28121 14438 12682 12301 10124 21023 30193 40284 58022 60001 81501 333 70000 92301
AAXX 28121 14443 32698 234// 10132 20090 30192 40289 57022 82200 333 70000 92312
AAXX 28121 14447 12984 01601 10147 20035 30258 40288 57024 60001 222// 00156 333 70000 92311
AAXX 28121 14472 12680 41403 10140 20051 30228 40292 57014 60001 84200 222// 00153 333 70000 92301
AAXX 28121 08501 12/// /1603 10174 20168 30303 40340 52018 69931 333 91105 555 50034 60005
AAXX 28121 08505 32265 80603 10172 20156 30303 40353 52017 888// 333 84706 85811 555 50004 60007
AAXX 28121 08506 32/// /0000 10165 20153 30291 40363 52016 555 59974 60005
AAXX 28121 08509 11260 50000 10154 20154 30293 40358 52017 69951 72052 83834 333 82706 555 50034 69927
AAXX 28121 08511 32370 52301 10164 20154 30251 40359 52016 83801 333 81709 83816 555 59914 60005
AAXX 28121 08512 11365 72402 10171 20171 30268 40354 52017 69911 70254 878// 333 83707 84810 555 50074 6///5
AAXX 28121 08515 NIL
AAXX 28121 08521 32470 70306 10180 20112 30262 40333 52011 87800 333 83816 85633 555 50004 60007
AAXX 28121 08522 32568 71003 10185 20084 30263 40332 52009 87800 222// 00198 314// 40301 333 82823 86633 91008 91108 555 50004 60005
AAXX 28121 08524 32465 50305 10180 20107 30238 40336 52008 82131 333 82815 83358 91009 91111 555 50004 60005
AAXX 28121 08530 NIL
AAXX 28121 08531 32/// /0407 10140 20077 30321 40360 54000 555 50004 60005
AAXX 28121 08532 31965 10503 10140 20054 30190 40354 50001 7020/ 80001 333 81070 555 50004 60007
AAXX 28121 08533 32/// /1105 10150 20058 30313 40342 52006 333 91108 555 50004 60005
AAXX 28120 08534 32965 09901 10104 20057 30338 40356 58001 555 50004 60007
AAXX 28120 08535 NIL
AAXX 28121 08537 32960 00404 10120 20061 30349 40353 50003 555 50004 60007
AAXX 28121 08540 31557 13604 10114 20054 30292 40362 50006 71000 81202 333 81820 555 50004 60007
AAXX 28121 08541 32/// /9903 10139 20082 30227 40348 57001 333 91105 555 50004 60005
AAXX 28121 08544 31958 20102 10104 20042 30342 40363 50008 71000 80001 333 82070 555 50004 60007
AAXX 28121 08545 31958 29901 10117 20036 30280 40365 52003 71000 80002 222// 00145 333 82075 555 50004 60005
AAXX 28121 08548 32/// /9901 10105 20029 30153 40363 52004 555 50004 60005
AAXX 28121 08551 31966 29901 10114 20052 30306 40365 52001 70200 80001 333 82099 555 50004 60005
AAXX 28121 08554 32970 00706 10158 20016 30334 40343 52003 555 50004 60005
AAXX 28121 08558 32965 11002 10133 20055 30048 40345 58002 80001 333 81099 91105 555 50004 60005
AAXX 28121 08560 31980 23101 10112 21010 39584 40349 50000 70200 80002 333 82099 555 50004 60005
AAXX 28121 08561 32970 10803 10134 20051 30109 40345 50000 80001 333 81080 555 50004 60007
AAXX 28121 08562 32/// /0802 10130 20052 30045 40342 54000 555 50004 60005
AAXX 28121 08567 32/// /3001 10074 20025 39685 40366 54000 555 50004 60005
AAXX 28121 08568 32980 29903 10091 21033 38763 48631 58003 80001 333 82099 91006 91106 555 50004 60005
AAXX 28121 08570 NIL
AAXX 28121 08571 32/// /9902 10138 20018 39637 40342 57005 333 91105 555 50004 60005
AAXX 28121 08575 31970 21701 10060 20007 39529 40362 52002 70200 80001 333 82099 555 50004 60005
AAXX 28121 08579 31970 00403 10119 20045 30226 40354 57001 70200 333 91006 91106 555 50004 60005
BBXX DCAX2 28123 99150 51660 41397 63322 10250 20250 40075 54000 75165 866// 22233 21004 333// 41004 5//// 80250
AAXX 28124 60353 NIL
AAXX 28124 60367 12565 2//// 10145 20103 40262 53013 60001 82100 333 0//00 82820
AAXX 28124 60369 11558 80326 10155 20058 40267 58016 60021 70366 8388/ 333 0//11 83826 84360 91846
AAXX 28124 60401 NIL
AAXX 28124 60403 12670 33602 10140 20061 40259 58009 60001 83201 333 0//00 83833 95950
AAXX 28124 60425 11412 82406 10078 20074 40303 58008 69921 71064 887// 333 0//11 84710 86826 95990
AAXX 28124 60461 12570 60000 10142 20081 40306 58006 60001 86200 222// 20000 333 86826 91808 95900
AAXX 28124 60467 11658 80000 10067 20060 40277 58001 60101 76066 8427/ 333 0//16 84833 86460 95900
AAXX 28124 60492 11560 80000 10090 20067 40302 58002 60001 70432 882// 333 88830 95900
AAXX 28124 60515 11557 82110 10054 20033 40279 58011 60011 72162 888// 333 0//61 88830 95970
AAXX 28124 60517 12570 22704 10143 20096 40317 58001 60001 82200 333 0//00 82820 95900
AAXX 28124 60522 12570 20000 10122 20070 40318 50001 60001 82130 333 0//00 82826 95900
AAXX 28124 60557 12460 80304 10033 20019 38933 48566 50002 60001 882// 333 85710 84826 95960
AAXX 28124 60563 12660 33412 10107 20011 39360 48557 58012 60001 82130 333 0//00 82833
AAXX 28124 60603 12660 50110 10155 20034 40231 58019 60001 82801 333 0//00 82840 83073
AAXX 28124 60638 12660 3//// 10164 20013 40204 58009 60001 83500 333 83640
AAXX 28124 60686 11957 00125 10180 21044 40196 58014 60001 70700 333 0//00
BBXX VRFO7 28124 99411 70186 41598 80517 10175 20125 40400 52010 70222 882// 22254 20802 327// 41006 80145
AAXX 28121 60370 16/// /0505 10136 20101 60041
AAXX 28121 60371 NIL
AAXX 28121 60372 16/// /0303 10106 20106 60061
AAXX 28121 60373 NIL
AAXX 28121 60374 NIL
AAXX 28121 60376 NIL
AAXX 28121 60379 NIL
AAXX 28121 60380 NIL
AAXX 28121 60381 NIL
AAXX 28121 60393 NIL
AAXX 28121 60394 NIL
AAXX 28121 60593 NIL
AAXX 28121 60595 NIL
AAXX 28121 60605 NIL
AAXX 28121 60613 NIL
AAXX 28121 60623 NIL
AAXX 28124 60624 36/// /0000 10160 21038
AAXX 28124 60639 NIL
AAXX 28124 60645 36/// /0000 10162 21004
AAXX 28121 08575 31970 21701 10060 20007 39529 40362 52002 70200 80001 333 82099
AAXX 28124 60395 11356 80000 10083 20079 40268 58010 60151 72166 8327/ 333 0//11 81706 83840 86460 95950
AAXX 28124 60421 12560 60000 10074 20029 39205 48540 58008 60001 86200 333 0//00 86830 95900
AAXX 28124 60423 12665 60000 10083 20049 39262 48524 58005 60001 86200 333 86840 95900
AAXX 28124 60430 11/04 91006 10070 20070 40291 58005 60061 76164 333 0//53 89/// 95990
AAXX 28124 60437 11558 83410 10056 20044 39034 48528 58013 60031 76062 888// 333 0//21 83826 86633 95980
AAXX 28124 60444 11558 80000 10018 20010 39144 48541 58001 60111 70277 882// 333 0//12 88830 95900
AAXX 28124 60452 12560 7//// 10145 20096 40301 58007 60001 872// 222// 2//// 333 87820 91826
AAXX 28124 60457 11558 72603 10110 20073 40305 58002 69941 72161 8227/ 333 0//11 82820 87460 95900
AAXX 28124 60514 11430 82606 10054 20046 39360 48576 58001 60031 76062 887// 333 0//11 88720 95990
AAXX 28124 60518 12565 63406 10160 20103 40295 58003 60001 82232 222// 29901 333 0//00 82820 84360 91827 95900
AAXX 28124 60520 12570 33004 10111 20059 40300 58006 60001 83200 333 83826 95900
AAXX 28124 60540 11560 40804 10066 20009 39112 48563 58020 60001 84200 333 84830 95900
AAXX 28124 60560 12665 71510 10050 20012 39029 48565 50001 60001 872// 333 87833 95960
BBXX IDDUK02 28124 99517 50578 46/// ///// 40017 222//
BBXX V7OX3 28124 99275 50437 41/98 /2108 10210 20178 40130 54000 7//22 8/71/ 22233 04240 21003 315// 41203 5//// 80190
AAXX 28124 60351 11560 50000 10154 20098 40241 58009 60071 85800 333 0//13 83820 83633 95900
AAXX 28124 60355 11665 42308 10144 20058 40248 58008 69911 70262 82202 333 0//16 82833 83073 95900
AAXX 28124 60445 11456 72402 10029 20022 39076 48541 58003 60061 70174 872// 333 0//52 83710 86826 95980
AAXX 28124 60468 11560 63306 10070 20032 39290 48547 53002 69951 70262 86200 333 0//55 86826 95900
AAXX 28124 60507 11556 82306 10080 20069 40307 58008 60001 70342 8528/ 333 85830 84360 95970
AAXX 28124 60511 NIL
AAXX 28124 60535 11550 83610 10005 20005 38890 48574 58005 69951 77172 8427/ 333 0//53 84826 86458 95900
AAXX 28124 60536 12670 80000 10071 20056 39410 48576 58005 60001 882// 333 88833 95900
AAXX 28124 60549 12656 83206 10037 20023 38999 48582 58007 60001 886// 333 85710 83833 95960
AAXX 28124 60550 11470 70103 10028 20003 38731 48563 58003 69911 70354 875// 333 0//56 87616 95960
AAXX 28124 60555 12970 30000 10140 21005 40277 58002 60001 83020 333 83360
AAXX 28124 60559 12960 20000 10147 20046 40258 58014 82032 333 0//00 82360
AAXX 28124 60581 12660 50211 10145 20045 40252 58011 60001 83230 333 0//00 83840
AAXX 28124 60602 12665 20806 10124 21012 40273 58002 82800 333 0//00 82843 95900
AAXX 28124 60607 12760 33608 10130 20009 40256 58011 60001 81130 333 0//00 81856
AAXX 28124 60640 12660 30000 10185 21021 40189 58015 60001 83200 333 0//00 83846
AAXX 28124 60690 NIL
BBXX BAREU05 28124 99450 70404 46/// ///// 40177 52014 22223
BBXX 41101 28124 99146 70562 46/// /0818 10265 20215 40172 52016 22200 00269 10704 70019
BBXX BAREU54 28124 99137 70763 46/// ///// 40149 52010 22254
BBXX FVNM 28124 99089 70795 46/// /3310 10257 20222 40128 53010 22200 00274
BBXX BATFR15 28124 99319 70380 44598 71721 10222 20190 40256 51031 76062 8777/ 22214 00219 20406 317// 40406 5////
BBXX BATEU04 28124 99590 70436 46/// /2849 11035 21071 4//// 22262
BBXX BATEU08 28124 99593 70449 46/// /3033 11033 21092 40049 53050 22233
BBXX A8KM9 28124 99232 71407 41/98 80717 10200 20144 40241 51022 70322 8//// 22264 20405 80165
BBXX A8IM7 28124 99331 71642 41598 22327 10200 20144 40190 702// 8/5// 22225 04190 2//04 333// 4//08 5//// 80165
BBXX A8SC4 28124 99370 71584 41297 82416 10170 20154 40140 54000 75055 8/7// 22244 04130 20201 80160
BBXX BATFR55 28124 99145 30523 44698 31206 10284 20234 40100 70100 81364 22232 00295 20704 312// 411// 5////
BBXX BATFR19 28124 99066 30057 46/// /1916 10244 20199 40132 57018 22200 00255
BBXX TBWUK03 28123 99032 50304 41598 31413 10265 20242 40158 54000 70200 81408 22253 20401 315// 40702 5//// 80248
BBXX DQVI 28123 99362 70030 41597 41011 10170 20137 40310 50000 7//// 8354/ 22224 00170 2//// 80150
BBXX BAREU63 28124 99424 10110 46/// /3310 10127 29063 40290 57020 22233
BBXX 61001 28124 99434 10078 46/// /1905 10129 20092 40286 57020 22200 00145 10501 70003
BBXX BAREU51 28124 99398 10123 46/// ///// 40275 57024 22235
BBXX BATFR09 28124 99400 10121 46/// /1306 10157 20035 40282 58032 22263 00159
BBXX BATFR02 28124 99504 70008 46/// /2634 10112 20072 40200 58059 22283 00114
BBXX BATFR54 28124 99523 70056 46/// /2540 10079 20029 40188 51032 22242 00110
BBXX BATFR52 28124 99494 70023 46/// /2326 10115 20079 40248 22285 00120
BBXX BATFR04 28124 99584 70062 46/// /1707 10019 21011 49821 22200 00354
BBXX BATFR60 28124 99527 10036 46/// /2040 10089 20077 40158 58017 22252 00082
BBXX BATFR03 28124 99498 70005 46/// /2333 10109 20092 40228 50013 22244
BBXX BATFR14 28124 99494 10010 46/// /2204 10079 20060 40252 58017 22200 00074
BBXX BATFR13 28124 99423 70214 44498 60817 10139 20082 40407 53012 70122 861// 22264 00154 20402 330// 41204 5////
BBXX BATEU09 28124 99413 10090 46/// /0709 10142 20077 40288 58022 22200 00164
BBXX BATFR46 28124 99385 10003 44697 63419 10137 20092 40305 58010 703// 8/7// 22212 00162 22002
BBXX BATUK01 28124 99560 70032 46/// /2306 10059 20014 49966 56032 22200 00069
BBXX 61002 28124 99421 10047 46/// ///06 10127 2//// 40302 57020 22200 00137 10501 70006
BBXX PCEO 28123 99385 70263 41297 4//01 10178 20162 40395 52023 75065 82410 22254 04172 20000 327// 41203 5//// 80168
BBXX PDHY 28123 99476 70295 41598 81808 10120 20062 40363 50010 70222 8441/ 22263 04110 20503 318// 40605 5//// 80090
BBXX A8UQ3 28123 99440 70091 41297 63415 10160 20098 40385 51010 71851 85757 22213 00140 21006 333// 41207 80125
AAXX 28124 60360 12575 22103 10152 20091 40259 58008 60001 81202 333 0//00 81826 95900
AAXX 28124 60390 11550 71905 10107 20098 40282 56017 60021 76162 8583/ 333 0//51 83820 84640 85358 95910
AAXX 28124 60402 11256 62611 10105 20097 40266 50002 60171 72996 84830 333 0//61 82705 83359 95910
AAXX 28124 60419 11560 72404 10079 20039 40264 58003 69921 70362 838// 333 83820 86630 95900
AAXX 28124 60475 12670 50000 10103 20041 39298 48551 50000 60001 85202 333 85840 95900
AAXX 28124 60490 12570 52308 10118 20082 40306 58007 60001 82230 333 82820 85360 95900
AAXX 28124 60525 12560 60000 10133 20030 40253 57011 60001 86200 333 0//00 86840 95900
AAXX 28124 60531 12570 40000 10121 20067 40320 58002 60001 84802 333 0//00 82820 95900
AAXX 28124 60566 12660 33605 10123 20021 40274 58008 60001 81132 333 0//00 81846
AAXX 28124 60571 12665 53614 10111 20032 39336 48575 50000 60001 83282 333 0//00 83833 95900
AAXX 28124 60580 12660 23608 10142 20061 40249 51019 60001 81232 333 81846
AAXX 28124 60590 12560 23408 10128 20034 40268 58011 60001 82200 333 0//00 82820
AAXX 28124 60611 12560 21208 10144 21008 40201 56021 60001 82230 333 0//00 82830
AAXX 28124 60620 12758 23616 10144 20030 40263 58002 60001 82200 333 0//00 82850
AAXX 28124 60630 12770 20718 10155 20029 40225 58017 60001 82200 333 82856
AAXX 28124 60656 12970 01910 10156 20013 40259 58007 60001 333 0//00
AAXX 28124 60670 12983 00000 10160 21053 39081 48515 58017 60001 333 0//00 95900
AAXX 28124 60680 12982 12807 10141 21067 38646 48521 58012 60001 80002 333 81073 95900
BBXX BATFR53 28124 99186 51456 44597 10314 10267 20207 40132 57018 70111 811// 22222 00275 20502 304// 40502 5////
BBXX BATFR35 28124 99167 51511 46/// /0517 10262 20229 40106 22262 00285
BBXX BATFR56 28124 99032 10910 46/// /2604 10282 20279 40096 53011 22223 00299
BBXX A8CG7 28120 99294 31632 41298 32211 10221 20187 49980 58010 70300 81640 22234 04240 20603 314// 40704 5//// 80198
BBXX DCAX2 28123 99150 51660 41397 63322 10250 20250 40075 54000 75165 866// 22233 21004 333// 41004 5//// 80250
AAXX 28124 62458 32960 02812 10202 20085 40182 57022
AAXX 28124 62455 32960 03603 10200 20058 40190 57039
AAXX 28124 62432 32960 53004 10196 20042 40208 57025 85050
AAXX 28124 62435 32960 60207 10200 20038 40186 57027 86010
AAXX 28124 62420 32960 50310 10192 20076 40219 57026 85050
AAXX 28124 62476 32960 00211 10234 20142 40160 56020
AAXX 28121 50844 32962 00000 11244 21277 40404 52007
AAXX 28121 50854 32965 03203 11198 21239 40390 52011
AAXX 28121 50968 11662 72503 11198 21224 40366 52014 69911 77070 875//
AAXX 28121 51379 32980 01603 11168 21203 40393 52009 333 00203
AAXX 28121 51467 32980 71601 11065 21154 38271 52018 80002 333 00001
AAXX 28121 51495 32980 22701 11101 21190 40368 52008 80002 333 00001
AAXX 28121 53480 32980 02702 11095 21162 40387 52009
AAXX 28121 53673 31957 00401 11027 21070 40341 52012 70400
AAXX 28121 53698 31956 72901 11004 21056 40335 52023 71000 80002
AAXX 28121 53898 31913 00000 10001 21042 40320 52017 71000
AAXX 28121 54308 32980 00401 11080 21171 40374 52017
AAXX 28121 54602 31958 50903 11007 21073 40332 52024 71000 80002
AAXX 28121 54725 31950 50703 11009 21020 40328 52020 71000 80002
AAXX 28121 54751 32965 00207 10001 21072 40325 52021
AAXX 28121 54916 32960 80000 10004 21012 40310 52014 80007
AAXX 28121 57014 32768 71404 10038 21049 40291 52035 875// 333 05203
AAXX 28121 57025 32962 03602 11009 21051 40320 52023
AAXX 28121 57046 32964 72003 11013 21101 37973 52009 80002 333 00004
AAXX 28121 58208 31956 80000 10019 20015 40300 52021 71000 8807/
AAXX 28124 41506 02696 83602 10080 21005 48535 60002 8442/ 333 10094 5699/ 58029 60007 84640 84460
AAXX 28124 41508 22697 52302 10128 21027 48550 60002 83220 333 10135 56990 59014 60007 83635 82460
AAXX 28124 41523 12997 30000 10150 21028 48544 60002 83040 333 10175 56090 58015 60007 83360
AAXX 28124 41535 12997 20000 10140 20007 48508 60002 82030 333 10165 56090 58019 82360
AAXX 28124 41536 12997 50000 10150 20022 48520 60002 82041 333 10190 56099 58013 82363 83069
AAXX 28124 41573 12997 01304 10070 21062 48517 60002 333 10110 58017
AAXX 28124 41600 01995 00000 10185 20101 39871 40168 60002 70400 333 10222 58015 60007
AAXX 28124 41630 11995 00000 10170 20070 40188 60002 70400 333 10190 58026
AAXX 28124 41678 02997 00000 10190 20072 40185 60002 333 10195 58024 60007
AAXX 28124 41696 02997 52302 10110 21069 38006 48519 60002 85020 333 10140 56090 58006 60007 85461
AAXX 28124 41697 02997 00000 10217 20106 30015 40171 60002 333 10230 58027 60007
AAXX 28124 41700 11995 00000 10195 20079 30046 40174 60002 70500 333 10203 58000
AAXX 28124 41725 02996 00504 10200 20061 30088 40167 60002 333 10205 58016 60007
AAXX 28124 41746 02996 03602 10200 20061 30117 40172 60002 333 10210 58026 60007
AAXX 28124 41759 11696 50906 10250 20196 30158 40164 60002 70500 86500 333 10260 56900 58018 86630
AAXX 28124 41785 02997 00502 10220 20064 30141 40154 60002 333 10235 58019 60007
AAXX 28121 15108 01999 02704 11016 21016 38182 48595 54000 60001 72841 333 44017 60007 95088 444 87171
AAXX 28121 40700 12960 00000 10122 20025 30151 40242 56022 60001 333
AAXX 28121 40723 12660 10000 10056 20013 38965 40265 55007 60001 81100 333 81835
AAXX 28121 40726 12660 22402 10044 21030 38706 40273 57016 60001 82200 333 82835
AAXX 28121 40727 12965 00000 10030 21028 38530 40286 56016 60001 333
AAXX 28121 40734 12970 01204 10122 20052 30260 40234 56017 60001 333
AAXX 28121 40737 12975 00604 10118 20058 30217 40235 56018 60001 333
AAXX 28121 40741 12964 01206 10094 21005 39943 40289 56010 60001 333
AAXX 28121 40780 12970 02704 10130 21058 38701 40196 57011 60001 333
AAXX 28121 40791 12962 03003 10135 21062 39404 40240 56006 60001 333
AAXX 28121 40792 12568 12804 10082 21059 38760 40248 56010 60001 81100 333 81830
AAXX 28121 40794 11957 00000 10160 20061 30095 40194 56013 60001 70600 91145 333
AAXX 28121 40812 11958 01202 10164 20018 39799 40179 56010 60001 70500 333
AAXX 28121 40829 12960 03306 10147 21050 39641 40223 56003 60001 333
AAXX 28121 40833 12960 02902 10162 20063 30172 40205 56014 60001 91145 333
AAXX 28121 40835 11940 00000 10140 20003 39349 40197 53009 60001 70500 333
AAXX 28121 40845 12960 03503 10158 20083 30189 40194 57011 60001 333
AAXX 28121 40882 11950 02807 10216 20112 30129 40164 55007 60001 70700 333
AAXX 28121 40889 12660 22907 10220 20108 30170 40175 57004 60001 82400 222// 00244 20401 333 82640
AAXX 28121 40890 11640 22706 10212 20106 30156 40164 56008 60001 70500 82100 222// 00210 20403 333 82835
AAXX 28121 40893 11950 02808 10244 20157 30146 40152 57011 60001 70700 222// 00225 20403 333
AAXX 28121 40897 15960 01805 10254 20113 30135 40149 56006 60001 333
AAXX 28121 40700 12960 00000 10122 20025 30151 40242 56022 60001 333
AAXX 28121 40723 12660 10000 10056 20013 38965 40265 55007 60001 81100 333 81835
AAXX 28121 40726 12660 22402 10044 21030 38706 40273 57016 60001 82200 333 82835
AAXX 28121 40727 12965 00000 10030 21028 38530 40286 56016 60001 333
AAXX 28121 40734 12970 01204 10122 20052 30260 40234 56017 60001 333
AAXX 28121 40737 12975 00604 10118 20058 30217 40235 56018 60001 333
AAXX 28121 40741 12964 01206 10094 21005 39943 40289 56010 60001 333
AAXX 28121 40780 12970 02704 10130 21058 38701 40196 57011 60001 333
AAXX 28121 40791 12962 03003 10135 21062 39404 40240 56006 60001 333
AAXX 28121 40792 12568 12804 10082 21059 38760 40248 56010 60001 81100 333 81830
AAXX 28121 40794 11957 00000 10160 20061 30095 40194 56013 60001 70600 91145 333
AAXX 28121 40812 11958 01202 10164 20018 39799 40179 56010 60001 70500 333
AAXX 28121 40829 12960 03306 10147 21050 39641 40223 56003 60001 333
AAXX 28121 40833 12960 02902 10162 20063 30172 40205 56014 60001 91145 333
AAXX 28121 40835 11940 00000 10140 20003 39349 40197 53009 60001 70500 333
AAXX 28121 40845 12960 03503 10158 20083 30189 40194 57011 60001 333
AAXX 28121 40882 11950 02807 10216 20112 30129 40164 55007 60001 70700 333
AAXX 28121 40889 12660 22907 10220 20108 30170 40175 57004 60001 82400 222// 00244 20401 333 82640
AAXX 28121 40890 11640 22706 10212 20106 30156 40164 56008 60001 70500 82100 222// 00210 20403 333 82835
AAXX 28121 40893 11950 02808 10244 20157 30146 40152 57011 60001 70700 222// 00225 20403 333
AAXX 28121 40897 15960 01805 10254 20113 30135 40149 56006 60001 333
AAXX 28121 40700 12960 00000 10122 20025 30151 40242 56022 60001 333
AAXX 28121 40723 12660 10000 10056 20013 38965 40265 55007 60001 81100 333 81835
AAXX 28121 40726 12660 22402 10044 21030 38706 40273 57016 60001 82200 333 82835
AAXX 28121 40727 12965 00000 10030 21028 38530 40286 56016 60001 333
AAXX 28121 40734 12970 01204 10122 20052 30260 40234 56017 60001 333
AAXX 28121 40737 12975 00604 10118 20058 30217 40235 56018 60001 333
AAXX 28121 40741 12964 01206 10094 21005 39943 40289 56010 60001 333
AAXX 28121 40780 12970 02704 10130 21058 38701 40196 57011 60001 333
AAXX 28121 40791 12962 03003 10135 21062 39404 40240 56006 60001 333
AAXX 28121 40792 12568 12804 10082 21059 38760 40248 56010 60001 81100 333 81830
AAXX 28121 40794 11957 00000 10160 20061 30095 40194 56013 60001 70600 91145 333
AAXX 28121 40812 11958 01202 10164 20018 39799 40179 56010 60001 70500 333
AAXX 28121 40829 12960 03306 10147 21050 39641 40223 56003 60001 333
AAXX 28121 40833 12960 02902 10162 20063 30172 40205 56014 60001 91145 333
AAXX 28121 40835 11940 00000 10140 20003 39349 40197 53009 60001 70500 333
AAXX 28121 40845 12960 03503 10158 20083 30189 40194 57011 60001 333
AAXX 28121 40882 11950 02807 10216 20112 30129 40164 55007 60001 70700 333
AAXX 28121 40889 12660 22907 10220 20108 30170 40175 57004 60001 82400 222// 00244 20401 333 82640
AAXX 28121 40890 11640 22706 10212 20106 30156 40164 56008 60001 70500 82100 222// 00210 20403 333 82835
AAXX 28121 40893 11950 02808 10244 20157 30146 40152 57011 60001 70700 222// 00225 20403 333
AAXX 28121 40897 15960 01805 10254 20113 30135 40149 56006 60001 333
AAXX 28124 78615 11482 80000 10220 20214 30060 40201 53004 60051 70352 8652/ 333 10296 20216 30/// 5689/ 58000 70050 86610 84459
AAXX 28124 78627 32582 20000 10116 20102 38191 53001 82500 333 10248 20110 30/// 56200 58001 82622
AAXX 28124 78637 11458 80000 10212 20209 30173 40189 53005 60011 71054 8453/ 333 10264 20204 31/// 5689/ 58009 70013 84616 85358
AAXX 28124 78641 32482 23612 10148 20129 38569 40164 53002 82500 333 10238 20146 30/// 56800 58004 82612
AAXX 28124 78647 31956 00000 10208 20205 30138 40145 53003 71000 333 10332 20202 30/// 59002
AAXX 28124
AAXX 28124 89022 41420 83112 11034 21050 39748 49785 57021 78582 882// 333 11031 21052 84811 88536
AAXX 28124 89062 42386 52804 10010 21020 39724 49764 57012 81639 333 10022 21005 81707 85170
AAXX 28124 87320 32970 61406 10262 20165 39624 40135 52023 86070 333 10315 20250 56010 86360
AAXX 28124 87078 32970 30902 10298 20206 39980 40126 52015 83030 333 10330 20230 56030 83360
AAXX 28124 87244 32570 81405 10242 20194 39773 40159 5//// 885// 333 10286 20196 56799 88625
AAXX 28124 87393 32970 11113 10230 20176 30109 40172 52013 80001 333 10262 20183 56006 81070
AAXX 28124 87416 32665 51808 10239 20159 39392 40106 52020 83570 333 10313 20230 30023 56000 83640
AAXX 28124 87563 32965 02708 10241 20162 30146 40188 53012 333 10126 20138
AAXX 28124 87640 32965 03612 10233 20174 30088 40197 52012 333 10258 20133 30010
AAXX 28124 87688 32965 43208 10226 20110 30054 40188 54000 84070 333 10282 20185 56060 84360
AAXX 28124 87774 32982 00000 10231 20172 39158 48532 5//// 333 10250 20133
AAXX 28124 87852 32984 52715 10160 20082 39657 40151 51006 84072 333 10238 20143 56060 84360
AAXX 28123 87791 02980 53215 10290 20159 30130 40138 51004 60034 83076 333 10290 20184 31000 56000 60032 83360 84270
AAXX 28124 87593 32960 00508 10226 20161 30178 40206 51/// 333 10226 20162
AAXX 28124 87623 31960 33612 10245 20145 39945 40163 51015 70721 83031 333 10294 20200 56076 83360
AAXX 28124 87641 32965 03609 10214 20154 30030 40200 51011 333 10276 20120 30010
AAXX 28124 87645 31959 03407 10206 20160 39998 40201 51007 71000 333 10250 20110
AAXX 28124 87648 32960 00506 10222 20163 30205 40216 52015 333 10222 20162
AAXX 28124 87692 32960 33608 10210 20164 40208 50001 81034 333 10210 20152 56055 81360 83070
AAXX 28124 87715 32970 09901 10260 20152 39824 40128 52009 333 10318 20222
AAXX 28124 87750 32965 33411 10283 20110 30073 40167 52011 81036 333 10328 20238 56088 81360 83270
AAXX 28124 87765 31956 01411 10222 20039 39218 48450 50009 70400 333 10259 20121 96104 96120
AAXX 28124 87784 02980 12906 10291 20142 40120 40143 53011 69904 81080 333 10294 20200 56000 69902 81360
AAXX 28124 87800 31980 00000 10195 20136 39796 40180 57003 70400 333 10295 20098 96104
AAXX 28124 87803 32980 02306 10185 20050 39268 40152 51015 333 10270 20127
AAXX 28124 87828 32980 22311 10234 20114 30077 40127 52023 81062 333 10250 20150 56066 71360
AAXX 28124 87860 32980 62308 10246 20084 30083 40137 52018 80006 333 10250 20150 56006 86070
AAXX 28124 87904 31980 12525 10150 20000 39878 40117 5//// 702// 81040 333 10202 20112 56060 57359 81359
AAXX 28124 87909 32980 11803 10175 20080 30064 40135 52019 80005 333 10295 20153 56008 81270
AAXX 28124 87925 32680 12530 10130 21040 30078 40102 52021 81500 333 10208 20088 56500 81635
AAXX 28124 87938 12680 52320 10081 21009 39906 49975 50003 69934 85800 333 10117 20070 56500 85835
AAXX 28123 87016 42560 83608 10250 20191 39713 40123 51012 84976 333 10300 20250 56556 83630 81935
AAXX 28123 87896 32980 82313 10200 20082 30034 40128 5//// 8807/ 333 10205 2//// 56059 88360
AAXX 28121 34357 41598 33203 10040 21036 39941 40096 51020 72781 82330 333 91119 91118
AAXX 28121 34363 42598 43011 10016 21030 39900 40053 53019 84500 333 91121 91018
AAXX 28121 34545 41498 63209 10056 21023 30035 40146 50006 70282 8630/ 333 91118 91120
AAXX 28121 34579 41698 22906 10043 21018 30031 40075 53019 70177 8220/ 333 91112
AAXX 28121 34838 41497 80106 10056 20042 30132 40229 55003 75152 8860/
AAXX 28121 34927 41396 82703 10061 20053 30228 40265 55001 76162 8872/
AAXX 28121 34949 41497 82815 10039 20026 39646 40195 57016 70262 884// 333 91128 91021
AAXX 28121 37001 41497 83203 10075 20058 30231 40272 56008 70286 885//
AAXX 28121 37031 42497 82809 10069 20038 30036 40231 55001 889//
AAXX 28121 37061 42597 73012 10085 20021 30024 40189 51006 87500 333 91123 91018 91122
AAXX 28121 37085 41598 82908 10094 20028 30209 40236 56007 70282 885// 333 91014 91115
AAXX 28121 37126 42999 82610 10019 21046 37948 48512 57003 87031 333 91118
AAXX 28121 37171 41697 80000 10075 20048 30292 40311 57007 78082 889// 333 85940
AAXX 28121 37228 42999 60302 10093 21049 39373 40196 53008 86050
AAXX 28121 37470 42598 61503 10086 20012 30224 40201 55004 84530
AAXX 28121 37663 42999 00905 10072 21063 39013 48494 55005
AAXX 28121 23914 41497 81404 11051 21054 39514 49767 56002 77172 8677/
AAXX 28121 23921 41593 81001 11084 21098 39708 49825 57004 78582 889//
AAXX 28121 23955 11566 81504 11131 21148 30012 40076 57010 69922 77172 86502 333 11131 86621
AAXX 28121 23966 11499 51401 11168 21187 30026 40160 52009 69932 70281 82902 333 11146
AAXX 28121 28138 41595 80802 11062 21066 39228 49789 57017 77372 8802/
AAXX 28121 28224 41396 81702 11029 21033 39542 49750 55003 77187 8872/
AAXX 28121 28255 41994 81703 11054 21061 39727 49855 57022 77172 8807/
AAXX 28121 28440 41596 81504 11044 21052 39456 49799 57028 78582 889//
AAXX 28121 28645 41495 82006 11012 21016 39546 49831 57048 78582 883//
AAXX 28121 28661 41996 81807 11005 21014 39810 49900 58024 77172 8802/
AAXX 28121 28722 41597 72904 10009 21008 39676 49802 53015 70272 87900
AAXX 28121 28748 41509 82010 11009 21016 39619 49852 57039 73873 8802/ 333 92983
AAXX 28121 28838 41597 82107 11026 21033 39374 49840 57030 73673 885//
AAXX 28121 29231 12598 51304 11128 21155 30071 40173 57012 69922 86900 333 11124
AAXX 28121 29313 11996 81603 11116 21138 30012 40139 57011 69922 77187 8802/ 333 11116
AAXX 28121 29612 11597 71705 11077 21091 30007 40163 57013 69922 73673 87300 333 11077 87926
AAXX 28121 29638 11596 81507 11097 21118 30072 40244 58008 69942 78583 86901 333 11097
AAXX 28121 29838 11996 81902 11085 21123 30030 40272 54000 69902 77172 8802/ 333 11084
AAXX 28121 29846 32660 41502 11096 21126 39899 40301 53001 82531 333 11077
AAXX 28121 36061 12999 00000 11159 21168 39890 40327 53004 69992 333 11063
AAXX 28121 28049 41997 81407 11064 21073 39665 49828 57017 77173 8802/
AAXX 28121 28144 41396 81203 11065 21074 39649 49805 56025 77173 8872/ 333 87707
AAXX 28121 28319 41499 82704 11007 21014 39607 49766 53012 70272 885// 333 88611
AAXX 28121 28321 41496 82702 11017 21016 39556 49754 53008 77173 8802/
AAXX 28121 28334 41418 82101 11032 21036 39469 49765 57018 77573 8802/
AAXX 28121 28434 41395 81202 11020 21023 39513 49763 56014 77172 8872/ 333 86709
AAXX 28121 28552 41995 81805 11015 21027 39752 49862 57032 77373 8802/
AAXX 28121 28666 41440 81607 11014 21023 39774 49946 57010 77173 8802/
AAXX 28121 28825 41497 83003 10015 21001 39658 49824 53006 70273 8672/
AAXX 28121 29111 11497 81803 11117 21140 30004 40095 58015 69942 78587 889// 333 11114 88913
AAXX 28121 29209 11598 81603 11112 21125 39977 40107 57013 69932 72272 885// 333 11112
AAXX 28121 29551 11997 81802 11102 21138 30078 40268 54000 69952 70273 80001 333 11066
AAXX 28121 29602 11496 81808 11068 21084 39992 40136 57007 69922 78587 889// 333 11068
AAXX 28121 29636 11596 71601 11109 21137 30025 40254 57003 69902 78581 87300 333 11096
AAXX 28121 29654 11396 81904 11109 21122 39642 40283 52003 60022 78583 85971 333 11089
AAXX 28121 29712 11498 81908 11066 21078 30038 40184 57008 69962 73673 886// 333 11064 88711
AAXX 28121 29724 11596 82006 11075 21092 30012 40221 57002 69902 78583 8637/ 333 11075
AAXX 28121 29726 11598 81803 11084 21107 30072 40246 53003 69942 70181 86301 333 11083 83921
AAXX 28121 29814 11497 81706 11072 21085 30063 40214 53010 69902 78583 86301 333 11058 86917
AAXX 28121 29827 11597 81805 11062 21070 30087 40244 53004 69922 78588 883// 333 11060
AAXX 28121 29923 32999 82105 11077 21122 39986 40271 53005 8802/ 333 11076
AAXX 28121 29939 32997 31002 11153 21172 30002 40304 54000 83030 333 11090
AAXX 28121 35026 41494 82306 11026 21032 39238 49861 57019 78683 889// 333 92981
AAXX 28121 36021 31997 41905 11082 21105 30064 40250 53005 73631 82031 333 11056
AAXX 28121 36022 32698 61804 11086 21140 30004 40276 52007 81530 333 11068
AAXX 28121 36038 31999 21605 11045 21088 39841 40293 53004 73631 82030 333 11039
AAXX 28121 36058 28091 36058 32999 30000 11136 21142 39774 40326 53011 80002 333 11074
AAXX 28121 36064 42999 13202 11082 21088 39711 40328 53010 81030 333 11025
AAXX 28121 36229 32999 00000 11154 21167 39125 40371 52006 333 11086
AAXX 28121 36259 32699 30000 11225 21265 38249 48541 52011 82901 333 11160
AAXX 28123 63631 32570 20506 10320 20/// 82100 3333 82822 5555 10//
AAXX 28123 63602 32570 33402 32570 33402 10303 20151 38776 83201 333 59006 83825 55510202
AAXX 28123 63654 32575 63403 10289 20163 48/// 85900 3333 85822 81924 5555 10207
AAXX 28121 23909 41396 80000 11041 21043 39511 49752 53009 77173 886//
AAXX 28121 28044 41495 81102 11073 21082 39648 49811 56018 77172 887//
AAXX 28121 28116 41396 82302 11030 21034 39527 49754 53004 77272 8872/
AAXX 28121 28240 41596 81404 11056 21067 39469 49787 57022 77187 8802/
AAXX 28121 28522 41495 82506 11012 21017 39515 49764 57003 77373 8802/
AAXX 28121 28621 41497 82705 11003 21009 39557 49782 53010 77173 8802/
AAXX 28121 28719 41499 727// 11009 21025 39421 49848 53017 70273 85730
AAXX 28121 29023 11397 81703 11144 21164 30041 40142 57006 69902 78587 889// 333 11142 86709
AAXX 28121 29122 11698 61504 11123 21143 30058 40134 57012 69902 70282 84530 333 11123 84641
AAXX 28121 29328 11497 61906 11118 21142 30046 40191 57007 69922 78583 84901 333 11115
AAXX 28121 29348 11997 02002 11118 21144 30088 40240 58002 69922 70281 333 11094
AAXX 28121 29405 11496 81605 11085 21100 39962 40112 57009 69932 78582 883// 333 11085 88914
AAXX 28121 29418 12598 81605 11096 21122 39984 40148 57013 69922 889// 333 11096
AAXX 28121 29430 11998 22002 11116 21144 30049 40233 57003 69922 70271 82030 333 11106
AAXX 28121 29524 11498 81504 11106 21126 30020 40188 57007 69932 73683 889// 333 11106
AAXX 28121 29605 11495 81806 11068 21080 39983 40128 57005 69942 78583 889// 333 11065
AAXX 28121 29631 11496 81806 11106 21119 30036 40229 57005 69922 77173 8802/ 333 11105
AAXX 28121 29645 12597 71502 11117 21144 30080 40276 58001 69922 81531 333 11094
AAXX 28121 29706 11498 82107 11060 21079 30020 40170 57003 69922 73683 883// 333 11060 88916
AAXX 28121 29736 11997 83105 11093 21118 30012 40272 57002 69952 77173 8802/ 333 11093
AAXX 28121 29937 32697 21804 11074 21109 30055 40284 53006 82500 333 11056
AAXX 28121 36034 31998 31804 11087 21116 30005 40292 58001 70231 83030 333 11076
AAXX 28121 36096 12997 50000 11292 21316 39595 40476 52019 69902 85030 333 11239 95090
AAXX 28124 71362 16/// /2103 11188 21207 39716 49974 51001 60001 333 11065 21196 70025
AAXX 28124 71374 46/// /1612 10011 20002 6///1 333 10009 20004 7////
AAXX 28124 71387 17/// /3408 11014 21016 39494 49861 56033 60071 7//4/ 333 11010 21019 70009
AAXX 28124 71506 46/// /0103 11250 21280 39053 49963 56008 6///1 333 11235 21287 7////
AAXX 28124 71514 17/// /2708 11116 21134 39364 40072 58012 60021 7//4/ 333 11001 21120 55/// 20000 70072
AAXX 28124 71539 16/// /2108 11084 21107 39372 40071 58011 60001 333 10030 21098 55/// 20000 70000
AAXX 28124 71228 17/// /1105 11082 21124 69971 7//4/ 333 10035 21121 7////
AAXX 28124 71421 17/// ///// 11092 21101 39358 40077 58029 60021 7//4/ 333 11039 21096 7////
AAXX 28124 71550 16/// /2310 11063 21079 39662 40042 56024 60001 333 11109 21115 4/004 70000 555 10020
AAXX 28124 71551 16/// /2904 11062 21120 39393 40053 58021 60001 333 10023 21070 70000
AAXX 28124 71903 47/// /2207 10065 20061 39728 49776 5/003 6///1 7//4/ 333 7////
AAXX 28124 71622 16/// ///// 11057 21069 39740 40080 52024 60001 333 10020 21057 4/006 70105 555 10060
AAXX 28124 71750 16/// /0505 11261 21290 39953 40203 50002 60001 333 10045 21263 4/007 70000
AAXX 28124 71861 16/// /2705 11064 21080 39326 40057 58008 60001 333 11049 21099 4/003 70006 555 10020
AAXX 28121 40009 32965 00000 10128 21003 40214 57022
AAXX 28121 40016 32970 02403 10118 21028 40254 57018
AAXX 28121 40022 32565 20000 10168 20077 40234 55004 82200 222// 20000 333 82830
AAXX 28121 40030 32970 00000 10118 20050 40241 57019
AAXX 28121 40039 32970 00000 10120 20037 40233 57014
AAXX 28121 40066 32970 00000 10150 20061 40131 57022
AAXX 28121 40072 32970 00000 10140 20017 40245 57018
AAXX 28121 40083 32970 00901 10096 21049 48515 57018
AAXX 28124 71737 17/// /3206 11026 21035 39362 49874 52006 60041 7//4/ 333 10011 21026 4/017 70117 555 10100
AAXX 28124 71743 16/// /1803 11257 21281 39918 40148 53002 60001 333 11216 21272 70000
AAXX 28124 71748 16/// /1609 11116 21133 39792 40092 57027 60001 333 11127 21154 70000
AAXX 28124 71951 11516 80502 11014 21017 39635 49898 56007 60071 77187 885// 333 10015 21016 47025 70078 90973 93106
AAXX 28124 71423 16/// /1518 10014 20006 30056 40065 58028 60001 333 10010 20005 70000
AAXX 28124 71956 16/// /3310 11167 21205 39897 40137 53032 60001 333 10043 21168 4/002 70037 555 10030
AAXX 28124 71970 16/// /2408 11096 21128 39437 40028 58008 60001 333 11016 21102 70003
AAXX 28124 71340 16/// /0905 11077 21112 60001 333 21119 7////
AAXX 28124 71341 16/// /2422 10042 21004 60001 333 10054 21015 70000
AAXX 28124 71342 17/// /1708 11047 21129 60031 7//4/ 333 10045 21085 70032
AAXX 28124 71344 16/// /1115 11051 21129 60001 333 10013 21071 70000
AAXX 28124 71347 16/// /1206 11066 21117 60001 333 10006 21126 70000
AAXX 28124 71348 16/// /0904 11066 21105 60001 333 10012 21126 70000
AAXX 28124 71349 16/// ///// 11107 21145 60001 333 10001 21112 70000
AAXX 28124 71170 16/// /1907 11101 21114 60001 333 11093 21111 70005
AAXX 28124 71186 46/// /0617 10004 21003 6///1 333 10000 21030 7////
AAXX 28124 71190 46/// /2905 10028 6///1 333 10025 20000 7////
AAXX 28124 71465 46/// /3110 11043 21084 39891 40110 51032 6///1 333 10047 21043 7////
AAXX 28124 71480 16/// /1301 11297 21329 39903 40031 58002 60001 333 11187 21352 4/027 70005 555 10010
AAXX 28124 71682 16/// /0401 11309 21335 39764 40004 52004 60001 333 11196 21314 70000
AAXX 28124 71269 16/// /1106 11033 21054 60001 333 10048 21057 70000
AAXX 28124 71285 46/// /1302 11107 21135 6///1 333 10011 21131 7////
AAXX 28124 71296 16/// /3214 11088 21099 39732 40040 53033 60001 333 10022 4/014 70092 555 10100
AAXX 28121 10200 01359 82108 10067 20052 30179 40177 58025 69901 72022 876// 333 31/// 55300 20178 30178 69907 87709 91114
AAXX 28121 40001 32970 00601 10134 21025 40218 58016
AAXX 28121 40007 32560 22504 10108 20050 40241 56018 82100 333 82830
AAXX 28121 40025 32560 33102 10160 20067 40239 56016 83400 333 83630
AAXX 28121 40045 32970 03105 10138 20026 40244 57018
AAXX 28121 40061 32970 00000 10128 21014 40263 58021
AAXX 28121 40080 32965 00000 10138 20006 39515 40242 57023
AAXX 28121 40087 NIL
AAXX 28121 40095 NIL
AAXX 28124 71861 16/// /2705 11064 21080 39326 40057 58008 60001 333 11049 21099 4/003 70006 555 10020
AAXX 28124 43400 NIL
AAXX 28124 43404 22970 7//// 10259 20201 30076 40086 81036 333 00016 10280 59009 60007 81358 87280
AAXX 28124 43410 NIL
AAXX 28124 43413 22470 82702 10258 20238 30077 40082 83177 333 00018 10275 59012 60007 82818 86458
AAXX 28124 43415 NIL
AAXX 28124 43418 22870 83205 10250 20201 3//// 4//// 83036 333 10275 5//// 60007 83358 88280
AAXX 28124 43421 22470 80000 10257 20215 39977 40078 83176 333 00016 10278 59015 60007 83818 84460 88280
AAXX 28124 43422 21968 827// 10258 20216 39949 40079 71044 80007 333 00017 10276 59018 60007 88280
AAXX 28124 43424 22472 82502 10269 20234 30070 40072 8217/ 333 00018 10280 59014 60007 82816 86462
AAXX 28124 43436 22970 73402 10266 20188 30071 40074 84077 333 00015 10285 59008 60007 84460 87280
AAXX 28124 43441 22470 80000 10274 20217 39945 40074 84126 333 00015 10298 59016 60007 84818 83460
AAXX 28124 43444 22470 70000 10239 20189 39551 40091 82137 333 10266 59014 60007 82818 87278
AAXX 28124 43467 22465 83206 10282 20223 30071 40076 8311/ 333 00018 10295 59017 60007 83814 88458
AAXX 28124 43473 22470 72703 10156 20004 38109 48473 82106 333 00002 10196 59006 60007 82815 87280
AAXX 28124 43475 22470 71402 10274 20204 30068 40077 84106 333 10292 59010 60007 84818 87280
AAXX 28124 43476 22970 70904 10194 20134 38744 48489 80006 333 10248 59012 60007 87280
AAXX 28124 43479 22960 70000 10225 20132 39236 80006 333 10252 59010 60007 87278
AAXX 28124 43486 22470 83201 10267 20205 39978 40072 83102 333 00015 1//// 59011 60007 83810 88280
AAXX 28124 43495 22470 7//// 10274 20230 30068 40084 84206 333 10281 59007 60007 84818 87280
AAXX 28124 43497 22474 71403 10288 20196 30046 40064 82206 333 10316 59013 60007 82818 87080
AAXX 28124 71421 17/// ///// 11092 21101 39358 40077 58029 60021 7//4/ 333 11039 21096 7////
AAXX 28124 71951 11516 80502 11014 21017 39635 49898 56007 60071 77187 885// 333 10015 21016 47025 70078 90973 93106
BBXX 9HA2064 28123 99450 11500 41797 82921 10010 21015 40080 54000 7//22 8874/ 22254 0//// 2//// 3//// 4//// 5//// 6//// 80000 ICE /////
BBXX C6SI6 28124 99350 11385 46/// /0310 10086 20013 40238 58003 7//// 8//// 22200 0//// 2////
BBXX DCCR2 28124 99424 11496 41596 83037 10040 21016 40120 51020 70322 8/3// 22254 00100 20809 305// 40905 80020
BBXX OYCY2 28124 99417 11429 43/96 /3430 10000 20000 40220 52010 7//// 8//// 22263 00060 2//// 3//// 4//// 5//// 6//// 80000 ICE /////
BBXX UCDN 28120 99495 11450 42699 70008 11010 40186 54186 72277 87720 22243 06040 20201 340// 40604
BBXX UFLC 28120 99454 11393 42498 80605 11048 40250 54000 8522/ 22213 06024 20402
AAXX 28124 61972 16/// /3203 10307 20239 40088 60001 333 59017 90710 91108 555 60005
AAXX 28124 61976 16/// /1013 10298 20228 40101 60041 333 58002 90710 91118 555 60005
AAXX 28124 41915 31550 50000 10230 20170 30131 40133 70500 82530 333 10266 56790 58008 70000 82618 84362
AAXX 28124 41926 32956 03602 10215 20180 30119 40133 333 10275 58010 70000
AAXX 28124 41939 31950 40000 10240 20200 40139 70542 84030 333 10283 56090 58012 70000 84362
AAXX 28124 41941 31450 63602 10244 20170 30114 40120 70522 84520 333 10294 56990 58007 70000 84615 86460
AAXX 28124 41947 31550 50000 10230 20170 30131 40133 70500 82530 333 10266 56790 58008 70000 82618 84362
AAXX 28124 41960 31450 72101 10240 20210 30138 40140 70522 85470 333 10276 56590 58012 70000 84615 86458
AAXX 28124 41963 31425 80000 10225 20210 30135 40138 70522 8353/ 333 10255 56999 58018 70000 83618 88360
AAXX 28124 41964 31435 62401 10222 20200 30147 40149 70522 83520 333 10271 56990 58017 70000 83618 86458
AAXX 28124 41984 32440 60000 10226 20210 30124 40126 83510 333 10264 56990 58019 70000 83618 84459
AAXX 28124 41989 31430 70000 10220 20190 30135 40138 70522 83570 333 10241 56990 58018 70010 83617 84460
AAXX 28124 41998 11430 80000 10210 20200 30124 40130 60039 75165 8352/ 333 10223 56999 59004 70180 83615 88457
BBXX 41053 28121 99185 70661 46/// /1203 10243 40185 53013 91200 22200 00271 11002 70011 333 91204
BBXX 41053 28121 99185 70661 46/// /1103 10244 40183 91150 333 91204
BBXX 41053 28121 99185 70661 46/// /1203 10244 40182 91140 333 91204
AAXX 28121 22213 41584 72504 11079 21101 39749 49919 52030 70231 82530 333 91005 91110
AAXX 28121 22004 41499 42102 11038 21056 39805 49918 52026 70181 81601 333 91005
AAXX 28121 22100 42999 72702 11077 21103 39799 49946 52026 85034 333 91005
AAXX 28121 22140 41497 83012 10005 21001 39788 49803 52004 78582 889// 333 91015 91118
AAXX 28121 28216 41698 82901 11020 21026 39480 49753 52011 77177 885//
AAXX 28121 28428 41496 82804 11008 21009 39592 49772 57001 77173 8802/
AAXX 28121 28451 41996 81505 11039 21050 39677 49833 57035 73673 8802/
AAXX 28121 28541 41522 81504 11032 21039 39316 49796 57031 78583 8637/
AAXX 28121 28655 41595 82009 11007 21016 39648 49864 57038 77173 885//
AAXX 28121 28756 41996 81908 11006 21012 39773 49918 58023 77173 8807/
AAXX 28121 29557 32998 22103 11085 21133 30000 40276 52007 80001 333 11046
AAXX 28121 29625 11597 81906 11096 21117 30025 40211 57003 69902 78581 889// 333 11096 88920
AAXX 28121 29813 11599 82006 11061 21080 30017 40200 53005 69902 73683 8457/ 333 11061
AAXX 28121 29822 11997 82004 11078 21100 30079 40248 53001 69902 77172 8802/ 333 11078
AAXX 28121 29915 31998 71907 11058 21073 30063 40225 53004 73632 86032 333 11055
AAXX 28121 36020 11496 81708 11068 21092 30051 40258 53006 69922 78583 889// 333 11065 88914
AAXX 28121 22003 41499 73309 10020 21027 39868 49877 52025 73683 86930 333 91013 91115
BBXX 46249 28121 99338 71197 46/// ///// 1//// 91210 22200 00145 11203 21002 326// 41202 70014
BBXX 46244 28121 99409 71244 46/// ///// 1//// 91205 22200 00101 11305 21003 328// 41304 70026
BBXX 51205 28121 99210 71564 46/// ///// 1//// 91218 22200 00233 11005 21005 331// 41302 70026
BBXX 42362 28121 99278 70907 46/// /0607 10156 20056 40227 54000 91200
BBXX 42362 28121 99278 70907 46/// /0806 10156 20056 40231 91215
BBXX 42363 28121 99282 70892 46/// /0509 10144 20056 40231 91215 333 91209
BBXX 42364 28121 99291 70881 46/// /0204 10133 20044 40227 91215
BBXX 41115 28121 99184 70673 46/// ///// 1//// 91205 22200 10902 20902 70008
AAXX 28121 37989 42598 10702 10097 20027 30286 40259 57022 81100 555 10020
AAXX 28121 37923 42997 02906 10079 20019 30238 40218 56010 555 11012
AAXX 28121 37905 42997 00000 10111 20013 30167 40256 57021 555 10013
AAXX 28121 37740 42999 02701 10069 21022 39418 40224 57029 555 10011
AAXX 28121 37749 42998 02705 10114 20009 30139 40256 57034 555 11009
AAXX 28121 37675 42999 00903 10090 21009 39551 40204 57010 555 11013
AAXX 28121 37735 42999 03207 10098 21047 39798 40171 57034 555 10012
AAXX 28121 37661 42998 02802 10074 21032 39469 40230 57022 555 10007
AAXX 28121 37864 32997 22210 10093 20019 40213 57017 82030
AAXX 28121 37925 42998 02701 10120 20002 30278 40294 57016 555 11011
AAXX 28121 37832 42998 03206 10120 21025 30148 402331 57028 555 10011
AAXX 28124 60195 32570 10000 10051 20006 38591 48602 52011 81200 333 81830 95500
AAXX 28124 60595 36/// /0000 11451
AAXX 28124 60639 36/// /0813 10161 21022
AAXX 28124 60605 36/// /0113 10130 21015
AAXX 28124 60381 16/// /0502 10117 20116 60071
AAXX 28121 23226 41660 81508 11110 21163 39625 49843 52007 70232 8555/ 333 85638
AAXX 28121 23701 41480 83603 11073 21090 39648 49778 52027 70272 8571/ 333 85710
AAXX 28121 28909 41497 42905 10013 21032 39777 49875 52017 70161 84500
BBXX 46240 28121 99366 71219 46/// ///// 1//// 91212 22200 00121 11203 21001 335// 41203 70014
BBXX 46217 28121 99342 71194 46/// ///// 1//// 91212 22200 00143 11302 20701 327// 41301 70010
BBXX 41113 28121 99284 70805 46/// ///// 1//// 91151 22200 00219 10301 20301 70007
BBXX 46241 28121 99330 71173 46/// ///// 1//// 91141 22200 00140 11402 21001 326// 41401 70008
AAXX 28121 13463 32970 02001 10104 21025 30238 40299 57029
AAXX 28121 13459 32970 01402 10072 21040 39522 40295 57024 333 45001
AAXX 28121 13461 32975 02303 10136 21015 30289 40297 57023 333 92322 92428 92513
AAXX 28121 13363 31962 01801 11031 21057 39389 48569 57028 70240 333 43011
BBXX 46231 28121 99327 71174 46/// ///// 1//// 91154 22200 00147 11302 21001 328// 41302 70011
BBXX 46222 28121 99336 71183 46/// ///// 1//// 91156 22200 00146 11302 21001 326// 41302 70009
BBXX 46242 28121 99332 71174 46/// ///// 1//// 91158 22200 00141 11202 20801 325// 41201 70008
BBXX 46223 28121 99335 71178 46/// ///// 1//// 91200 22200 00146 11402 21001 326// 41401 70008
BBXX 46216 28121 99343 71198 46/// ///// 1//// 91157 22200 00139 11302 21002 327// 41302 70011
BBXX 46211 28121 99469 71242 46/// ///// 1//// 91206 22200 00089 11109 21006 321// 41106 70045
AAXX 28121 56146 32980 03404 10007 21203 36718 52011 333 00000
AAXX 28121 56444 32980 02703 11013 21099 36809 52009 333 00051
AAXX 28121 56492 31756 80000 10091 20047 39842 40258 52016 71000 885// 333 05201
AAXX 28121 56571 32980 00401 10128 20012 38364 52012 333 05101
AAXX 28121 57799 32760 83401 10099 20030 30171 40262 52001 885//
AAXX 28121 57866 32765 80401 10090 20002 30052 40264 54000 885//
AAXX 28121 57957 31756 80403 10093 20035 30050 40253 52006 71000 885//
AAXX 28121 57993 32760 70000 10127 20026 30079 40248 52011 875//
AAXX 28121 58027 31956 00201 10033 20005 30243 40296 52012 71000
AAXX 28121 58141 31950 70902 10067 20042 30280 40300 52014 71000 8704/
AAXX 28121 58265 32562 60702 10080 20055 30285 40293 52011 86500
AAXX 28121 58472 32980 70204 10099 20059 30180 40276 52006 87040
AAXX 28121 58477 32670 80704 10116 20041 30223 40268 52007 885//
AAXX 28121 58527 32660 80000 10085 20025 30188 40266 52004 885//
AAXX 28121 58633 31956 80701 10109 20068 30157 40259 52006 70500 8807/
AAXX 28121 58666 32775 83607 10104 20073 30162 40266 52009 885//
AAXX 28121 58725 32960 81401 10109 20076 39981 40249 52003 8807/
AAXX 28121 58921 32962 71101 10146 20100 39986 40237 52006 8704/
AAXX 28121 59082 31657 81602 10144 20060 30078 40226 52002 70500 885//
AAXX 28121 59211 11960 81402 10146 20088 30005 40215 52004 69901 70060 8807/
AAXX 28121 59265 31756 80402 10159 20055 30079 40219 52003 70500 885//
AAXX 28121 59293 32968 00402 10163 20088 30126 40213 52010
AAXX 28121 59501 32960 00902 10162 20144 30194 40215 52013
AAXX 28121 59663 31757 82002 10168 20135 30104 40213 52009 71000 885//
AAXX 28121 59838 32765 70202 10208 20182 30175 40185 52009 875//
AAXX 28121 59948 32370 70906 10184 20162 39704 40192 52011 87802
AAXX 28121 59981 32570 70405 10239 20200 30159 40166 52008 878//
AAXX 28120 67423 32684 31002 10302 20229 39497 48514 83233 333 59004 83835 555 10314 29066
AAXX 28120 67690 32680 73603 10329 20218 83968 333 81940 83845 87280 555 10334 29053
AAXX 28120 67699 32680 52303 10333 20197 85200 333 85840 555 10340 29047
AAXX 28120 67489 32680 71104 10274 20188 38746 48499 84938 333 59016 81930 83835 87280 555 10277 29062
AAXX 28121 23219 42398 81404 11099 21121 39719 49825 53010 8802/
AAXX 28124 86330 32598 31207 10224 20169 40170 52014 83200 333 10254 20176 30015
AAXX 28124 86360 32497 11110 10232 20169 40180 50014 81105 333 10319 20151 30015
AAXX 28124 86460 32498 10711 10228 20154 40192 51007 81101 333 1//// 20174 30015
AAXX 28124 86490 32597 10708 10232 20167 40196 52013 81105 333 10242 20175 30013
AAXX 28124 86530 32597 10912 10216 20151 40197 50013 81501 333 10226 20130 30///
AAXX 28124 86545 31497 30710 10218 20162 40207 52008 70140 83400 333 10232 20136 31012
AAXX 28124 86565 31498 31507 10230 20153 40205 50008 70340 83200 333 10230 20107 30007
AAXX 28124 86580 32997 00408 10218 20162 40206 52011 333 10254 20153 30///
AAXX 28124 62010 32560 60904 10160 20091 40242 58016 83180 333 83830 86358
AAXX 28124 62012 32860 80000 10163 20085 30215 40245 57014 8807/ 333 88358
AAXX 28124 62016 11560 72906 10139 20107 40264 57020 60031 72162 83270 333 0//31 83820 86360
AAXX 28124 62124 32960 00115 10163 21036 39691 40203 57018
AAXX 28124 62259 32970 70912 10175 20072 40216 58030 87070 333 87360
AAXX 28124 62271 32970 61007 10182 21002 40226 58028 86030 333 86360
BBXX DDZA2 28124 99372 10052 41498 60826 10140 20123 40250 56030 7//11 86468 22223 04160 20302 80130
BBXX VRFO7 28124 99411 70186 41598 80517 10175 20125 40400 52010 70222 882// 22254 20802 327// 41006 80145
BBXX A8GU5 28124 99354 70066 41698 30611 10180 20083 40320 56010 7//// 83100 22214 04190 20302 80130
AAXX 28124 61401 NIL
AAXX 28124 61404 32960 51216 10181 21001 39849 40252 80002 333 0//00 58020 85073
AAXX 28124 61415 32958 60412 10213 20072 30221 40226 86070 333 0//00 59004 86463
AAXX 28124 61421 32960 00610 10/// 20/// 3//// 40/// 333 0//00 5////
AAXX 28124 61437 33960 60408 10244 20060 30084 40221 86072 333 0//00 58019 86363
AAXX 28124 61442 31930 60915 10258 21037 30185 40188 70722 86080 333 0//00 59006 86363
AAXX 28124 61450 31940 31014 10224 20008 39742 40203 707// 80002 333 0//00 58017 83073
AAXX 28124 61461 31940 60806 10265 21020 30100 40187 706// 80002 333 0//00 59011 86073
AAXX 28124 61489 31956 40414 10275 20001 30169 40176 707// 84070 333 0//00 59010 84363
AAXX 28124 61492 31930 20814 10280 21050 30175 40194 70710 82030 333 0//00 58007 82363
AAXX 28124 61497 34940 60816 10241 21008 39930 4//// 707// 80002 333 0//00 58019 86073
AAXX 28124 61498 31940 60808 10245 20137 30041 40174 705// 80008 333 0//00 58013 86273
AAXX 28124 61499 31930 50414 10234 21027 39928 40185 707// 80001 333 0//00 58019 85073
AAXX 28124 61510 35960 30602 10326 29012 30070 4//// 80002 333 0//00 5//// 83073
AAXX 28121 15615 11989 10704 11037 21308 37173 47120 58012 60001 70200 81030 333 11033 21047 444 26171 555 510//
AAXX 28121 38954 42899 80000 11009 21089 37940 48530 52001 8651/
AAXX 28121 38846 41496 80403 11026 21026 38557 48520 58006 77177 8872/
AAXX 28121 50353 31968 03601 11276 21301 30133 40388 52001 77600
AAXX 28121 50557 32970 01401 11302 21335 30052 40397 52003
AAXX 28121 50756 32960 03203 11246 21276 30047 40382 52011
AAXX 28121 50949 32965 03403 11187 21244 30205 40395 52013
AAXX 28121 50963 11760 32507 11214 21245 30194 40346 52014 69901 70070 83500
AAXX 28121 50978 32962 02903 11182 21212 39939 40321 52009
AAXX 28121 51087 NIL
AAXX 28121 51156 NIL
AAXX 28121 51644 32960 72001 11067 21114 39001 40349 52005 80002 333 00001
AAXX 28121 51656 NIL
AAXX 28121 51886 32980 10402 11090 21264 37116 52007 80002 333 00051
AAXX 28121 52602 32980 02902 11113 21293 37267 52006 333 05100
AAXX 28121 52713 32980 01401 11078 21263 36904 52008 333 05100
AAXX 28121 52754 32980 00701 11131 21213 36795 52012 333 00000
AAXX 28121 52818 32980 62501 11071 21218 37243 52009 80002 333 05151
AAXX 28121 52836 32980 70000 11071 21252 36892 52015 80002 333 05206
AAXX 28121 52955 32980 00000 11103 21262 36972 52013 333 05101
AAXX 28121 53068 32980 00705 11213 21240 39165 40444 52005 333 00352
AAXX 28121 53276 32980 01802 11144 21179 38941 40394 52004
AAXX 28121 54135 32975 00204 11153 21261 30167 40413 52009
AAXX 28121 54236 32970 03603 11150 21243 30281 40397 52013
AAXX 28121 54539 32970 00704 11030 21103 30336 40351 52020
AAXX 28121 54662 32970 03608 11052 21213 30215 40334 52022
AAXX 28121 54753 32560 70403 10011 21052 30321 40328 52020 874//
AAXX 28121 54857 31959 00204 10043 21030 30216 40311 52014 70500
AAXX 28121 57067 31958 60000 10002 21046 39596 40309 52016 71000 86030
AAXX 28121 57178 31930 00000 10022 21011 30136 40302 52019 71000
AAXX 28121 57245 32964 00000 10053 20009 39910 40274 52017 333 05151
AAXX 28121 57297 32960 70702 10043 20008 30152 40299 52012 8703/
AAXX 28121 40650 42960 03404 10180 20014 40217 56013
AAXX 28121 40604 42960 00000 10132 20035 40218 57014
AAXX 28121 40608 42960 02702 10154 20036 40221 57016
AAXX 28121 40621 42960 02702 10178 21022 40223 57014
AAXX 28121 40629 42960 02606 10148 20001 40254 57016
AAXX 28121 40631 42960 03203 10158 21003 40230 57015
AAXX 28121 40634 42960 02906 10154 20041 40249 57016
AAXX 28121 40642 42960 00000 10136 21045 40235 57018
AAXX 28121 40656 42960 02908 10177 20047 40205 56005
AAXX 28121 40665 42960 03102 10188 20063 40211 57013
AAXX 28121 40670 42960 03405 10173 20049 40216 57009
AAXX 28121 40674 42960 03305 10182 21011 40209 57011
AAXX 28121 40676 42960 03105 10178 20004 40203 56017
AAXX 28121 40680 42960 03302 10180 20057 40191 57018
AAXX 28121 40689 42960 03006 10162 20038 40203 57015
AAXX 28121 40691 42960 02103 10174 20044 40216 57008
BBXX 46221 28121 99339 71186 46/// ///// 1//// 91145 22200 00147 11302 21001 327// 41302 70011
AAXX 28124 91945 06/// /0214 10267 20225 30128 40133 56014 69921 333 10291 69927
AAXX 28121 89062 42386 52804 10010 21020 39724 49764 57012 81639 333 10022 21005 81707 85170
BBXX 62027 28124 99491 70022 46/// /2516 1//// 2//// 40257 50006 22200 00110 10903 335// 70017
BBXX 62029 28124 99487 70125 46/// /3124 10097 20019 40362 51033 22200 00128 10911 70057 333 90710 91134
BBXX 62081 28124 99510 70134 46/// ///// 10092 20043 40320 51039 22200 00120 11016 70079
BBXX 62001 28124 99452 70050 46/// /3217 10123 20111 40336 50009 22200 00139 10605 70024
BBXX 64045 28124 99591 70117 46/// /3343 10054 20035 49930 53135 22200 00100 11019 70096 333 90710 91163
BBXX 62442 28124 99490 70164 46/// /3118 1//// 2//// 40392 51025 22200 00122 333 90710 91128
BBXX 62303 28124 99516 70051 46/// /2724 10091 20034 40216 51019 22200 00112 10809 70044 333 90710 91131
BBXX 62105 28124 99554 70121 46/// /3036 10081 20044 40126 52059 22200 00105 11120 70099 333 90710 91155
BBXX 64046 28124 99606 70049 46/// /1421 10074 20045 49782 56042 22200 00082 11014 70071
BBXX 62301 28124 99524 70047 46/// /2723 10080 20036 40188 51017 22200 00091 10607 70035 333 90710 91133
BBXX LAJK7 28124 99308 70303 41498 61014 10200 2005/ 40330 51010 70222 84472 22253 00226 20101 305// 40302 5//// 6//// 80120 NNNN
BBXX 63055 28124 99606 10016 47797 /2117 10067 20066 49872 58029 700// 22200 10809 70045
BBXX 62112 28124 99584 70002 47596 /2037 10074 20032 49875 57058 700// 22200
BBXX PJAI 28124 99581 70014 47998 /2029 10078 20019 49856 57073 700// 22200
BBXX 62111 28124 99580 70003 46/// /2345 10077 20029 49907 57056 22200 10709 70044
BBXX 63056 28124 99597 10016 47597 /2032 10068 20061 49890 57031 700// 22200 10809 70045
BBXX 63110 28124 99595 10015 47597 /2128 10077 20030 49880 57032 700// 22200 10810 70051
BBXX 63057 28124 99592 10015 47597 /2140 10078 20028 49888 58036 700// 22200 10810 70051
BBXX 62128 28124 99587 10014 47597 /2139 10074 20024 49900 57041 700// 22200 10810 70050
BBXX 62129 28124 99584 10003 46/// ///// 10078 20026 49911 58046 22200
BBXX 62113 28124 99584 10002 47496 /2139 10074 20022 49921 57036 700// 22200
BBXX ZQSD5 28124 99583 10007 46/// /2142 10079 20026 49903 58044 22200 10911 70055
BBXX 63108 28124 99608 10017 47698 /2313 10055 20029 49864 58027 700// 22200 10808 70041
BBXX 63106 28124 99610 10017 46/// /2316 10060 49862 56036 22200
BBXX 63105 28124 99610 10017 47597 ///// 10065 20034 49862 56033 700// 22200
BBXX 63113 28124 99610 10017 46/// /2514 10065 20035 49867 57032 22200 10809 70046
BBXX 63112 28124 99611 10010 47/98 /2412 10079 20031 49851 57030 741// 22200 10809 70044
BBXX 63107 28124 99611 10017 46/// /2318 10065 49859 56036 22200
BBXX 63101 28124 99612 10009 46/// /2315 10071 20030 49852 56036 22200
BBXX 63103 28124 99612 10011 46/// /2320 10065 20060 49856 58028 22200 10709 70043
BBXX 63104 28124 99612 10016 47998 /2218 10068 20048 49857 56039 751// 22200
BBXX 63117 28124 99613 10011 47999 /2315 10160 20092 49851 56049 700// 22200
BBXX 63115 28124 99616 10013 47496 /2323 10066 20029 49844 56035 762// 22200 10810 70049
BBXX MWYG6 28124 99603 70040 47998 /1528 10074 700// 22200
BBXX 64041 28124 99607 70026 47597 /1620 10071 20027 49815 57043 700// 22200 10807 70035
BBXX 62164 28124 99572 10008 47597 /2236 10090 20026 49955 58040 700// 22200 00092 10608 70040
BBXX PJGO 28124 99571 10022 47597 /2121 10082 20038 49992 57029 700// 22200
BBXX 62133 28124 99571 10009 46/// /2240 10080 20008 49954 58043 22200 10708 70042
BBXX 62119 28124 99570 10019 47597 /2335 10082 20025 49992 58026 700// 22200 10708 70041
BBXX 62152 28124 99570 10018 47/97 /1925 10081 20032 49998 58029 700// 22200 10608 70041
BBXX 62154 28124 99564 10022 46/// /2231 10089 20028 40014 57028 22200
BBXX 62120 28124 99564 10021 47697 /2435 10089 40006 58026 700// 22200
BBXX 62132 28124 99564 10020 46/// /2531 10087 20026 40007 58027 22200
BBXX 62123 28124 99563 10022 47697 /2233 10088 20040 40010 58028 700// 22200
BBXX 62165 28124 99540 10009 47998 /2429 10088 20030 40116 58010 700// 22200 10504 70018
BBXX 62127 28124 99540 10007 47998 ///// 10084 20024 40111 58011 700// 22200 10404 70018
BBXX 62131 28124 99539 10012 46/// /22// 10088 20049 40118 58009 22200
BBXX 62149 28124 99537 10011 47998 /2223 10086 20059 40131 58002 700// 22200 10503 70016
BBXX 62148 28124 99536 10015 46/// /2225 10085 20056 40140 58005 22200
BBXX 62150 28124 99536 10007 47998 /2515 10086 20047 40142 50001 700// 22200 10402 70012
BBXX 62121 28124 99535 10027 46/// ///// 22200
BBXX 62144 28124 99534 10017 47997 /2326 10087 20055 40149 50003 700// 22200 10504 70018
BBXX 62145 28124 99531 10028 47597 /2126 10095 20069 40150 58013 700// 22200 10605 70027
BBXX 62142 28124 99530 10021 47597 /2419 10086 20065 40151 58007 700// 22200 10503 70016
BBXX 62114 28124 99583 10000 46/// /2043 10075 20025 49875 58060 22200
BBXX 62134 28124 99580 10014 47597 /2137 10078 20027 49922 58041 700// 22200 10709 70045
BBXX 62102 28124 99579 10018 46/// /2131 10077 20026 49941 57037 22200 10810 70050
BBXX 62117 28124 99579 10000 47596 /2143 10078 20033 49906 57049 700// 22200 10709 70046
BBXX 62143 28124 99577 10018 47597 /2116 10079 20021 49942 58036 700// 22200 10708 70042
BBXX 62118 28124 99577 10009 47997 /2143 10086 20021 49929 58042 700// 22200 10708 70042
BBXX 62155 28124 99577 10007 47697 /2244 10079 20025 49940 58044 751// 22200 10709 70044
BBXX 62116 28124 99576 10011 47597 /2341 10077 20017 49934 58042 700// 22200 10709 70045
BBXX 62104 28124 99574 10013 47697 /2338 10082 20020 49945 58041 700// 22200
BBXX 62146 28124 99572 10021 47/97 /2327 10080 20019 49977 58025 700// 22200 10709 70045
BBXX 62153 28124 99573 10020 47597 /2239 10082 20021 49967 58033 700// 22200 10708 70042
BBXX 62122 28124 99573 10016 47697 /2134 10102 20022 49968 58031 700// 22200 10709 70043
BBXX 62140 28124 99573 10013 46/// /23// 10080 20032 49958 57036 22200
BBXX 62305 28124 99504 10000 46/97 /2628 10116 20089 40223 58017 22200 00116 10604 70020 333 90710 91136
BBXX 64045 28124 99591 70117 46/// /3146 10058 20036 49936 53138 22200 00099 11019 70096 333 90710 91168
BBXX 62304 28124 99511 10018 46/97 /2328 10105 20087 40205 58017 22200 00107 10704 70020 333 90710 91140
BBXX 62170 28124 99514 10020 46/97 /2331 10108 20092 40192 58025 22200 00104 10604 70020 333 90710 91142
BBXX 62103 28124 99499 70029 46/99 /2931 10117 20076 40228 52002 22200 00120 10705 70024 333 90710 91142
BBXX 62163 28124 99475 70084 46/// /3125 10102 20034 40340 51029 22200 00127 10808 70040 333 90710 91132
BBXX 62094 28124 99517 70067 46/// /2827 10082 20036 40228 52027 22200 00107 10707 70035
BBXX 63119 28124 99583 10009 41297 82442 10076 20023 49891 57/// 703// 8/7// 22200 2//// 321// 40912 5////
BBXX 63110 28123 99595 10015 41597 72129 10077 49873 70522 8/8// 22200 10810 70049
BBXX 62301 28124 99524 70047 46/// /2723 10080 20036 40188 51017 22200 00091 10607 70035 333 90710 91132
BBXX 62095 28124 99530 70159 46/// /2925 10082 20031 40294 52041 22200 00109 11017 70084 333 90710 91138
BBXX 62094 28124 99517 70067 46/// /2827 10082 20036 40228 52027 22200 00107 10707 70035 333 90710 91137
BBXX 62107 28124 99501 70061 46/// /3237 10094 20024 40261 51024 22200 00114 10907 70035 333 90710 91144
BBXX VQIV8 28124 99371 10067 41/98 41207 10130 20091 40255 54000 70300 81342 22273 02160 29901 305// 40605 5//// 80110
BBXX UELS 28121 99366 70005 41598 70212 10140 40268 54000 70222 86010 22223 20402
BBXX 62103 28124 99499 70029 46/98 /3132 10101 20055 40232 53005 22200 00119 10705 70023 333 90710 91145
AAXX 28121 51076 32980 20901 11174 21212 39411 40365 52006 80002 333 00154
AAXX 28121 51243 32865 70701 11156 21180 39772 40383 52007 82502 333 00202
AAXX 28124 41270 36/70 /0209 10244 20175 30105 40117 333 0E018 58020
AAXX 28121 29998 32999 00000 11214 21239 38652 48505 53007 333 11190
AAXX 28121 30385 32999 00000 11374 21389 39807 40426 57001 333 11393
AAXX 28121 30469 NIL
AAXX 28121 30636 329// 00000 11330 21336 39722 40418 57002 333 11283
AAXX 28121 30650 32984 00000 11310 21334 39194 40456 57004 333 11255
AAXX 28121 30664 32999 00000 11352 21364 39335 40476 57003 333 11264
AAXX 28121 30781 NIL
AAXX 28121 30777 32998 00000 11323 21353 39729 40478 53002 333 11270
AAXX 28121 30844 32999 00000 11287 21299 39337 40431 58006 333 11228
AAXX 28121 30925 329// 00000 11225 21243 39329 40389 52006 333 11161
AAXX 28121 31371 32999 00000 11331 21360 30090 40394 58004 333 11223
AAXX 28121 31388 NIL
AAXX 28121 31478 NIL
AAXX 28121 31532 11999 80000 11260 21277 39964 40344 57002 69960 72272 82021 333 11255
AAXX 28121 31594 12999 23002 11274 21292 30149 40340 51001 69922 80001 333 11209
AAXX 28121 31655 11996 80000 11172 21178 30230 40280 57005 60020 77172 8802/ 333 11162
AAXX 28121 31754 11997 80000 11182 21201 39743 40279 58002 60020 77187 8802/ 333 11161
AAXX 28121 51087 32980 70000 11117 21154 39326 40376 52007 80002 333 00105
AAXX 28121 51156 32780 70000 11100 21157 38766 40349 52013 82502 333 00200
AAXX 28121 51656 32970 20000 11081 21117 39178 40353 52002 80002 333 00000
BBXX 41114 28121 99276 70802 46/// ///// 1//// 91216 22200 00240 10603 20603 70015
AAXX 28124 82586 32598 60506 10272 20222 39900 40137 84400 333 20230 58004
AAXX 28124 82678 21596 80000 10256 20232 30022 40162 70262 885// 333 20226 58013 60034
AAXX 28124 82784 32598 70903 10259 20221 39697 40153 87200 333 20194 58001
AAXX 28124 82791 32599 60505 10276 20199 39878 40155 85200 333 20227 58010
AAXX 28124 82983 32597 30908 10270 20213 39739 40148 83100 333 20240 58002
AAXX 28124 83096 21695 30904 10273 20230 30160 40167 72055 83500 333 20241 58009 69964
AAXX 28124 83186 32597 81405 10233 20193 39619 40148 885// 333 20202 58001
AAXX 28124 83236 32998 22303 10265 20209 39645 40132 80002 333 20217 58004
AAXX 28124 83242 32497 72703 10254 20193 39668 40158 87700 333 20234 59007
AAXX 28124 83288 32598 42303 10259 20207 39641 40129 81132 333 20214 59009
AAXX 28124 83344 22498 80504 10211 20184 39191 40153 82192 333 20165 59008 69924
AAXX 28124 83550 31597 5//// 10272 20226 30109 40138 70310 83240 333 20224 59013
AAXX 28124 83698 21798 80000 10244 20219 30130 40144 51010 70255 8852/ 333 20226 69934
AAXX 28124 83738 21698 80000 10230 20190 39640 40136 54000 70260 887// 333 20198 60034
AAXX 28121 38388 42598 72506 10072 21000 30171 40243 57003 87900 555 18007
AAXX 28121 38392 42698 72105 10044 21014 30133 40338 56001 87500 333 87646 555 11005
AAXX 28121 38507 42598 71807 10086 20038 30145 40246 57016 87500 333 87620 555 10010
AAXX 28121 38511 42598 72505 10079 20027 30093 40235 57013 85930 555 11008
AAXX 28121 38545 41598 61803 10034 21001 30087 40266 53003 70272 83970 555 1/004
AAXX 28121 38647 42698 22506 10112 21012 30202 40244 57010 82100 555 10012
AAXX 28121 38656 42698 62302 10077 20021 30157 40267 57005 83550 555 11006
AAXX 28121 38687 41597 72003 10049 20016 30059 40298 53004 70282 87500 333 87625 555 11005
AAXX 28121 38750 42997 00901 10127 20051 30280 40252 58021 555 10014
AAXX 28121 38763 42598 22203 10103 20027 30150 40255 57008 82204 555 11009
AAXX 28121 38774 42598 50902 10088 20040 30077 40273 57006 85200 555 10009
AAXX 28121 38799 42597 62301 10069 20028 30062 40297 54000 86100 555 11008
AAXX 28121 38806 42597 31401 10050 20006 30040 40305 57001 83900 555 11005
AAXX 28121 38880 42697 30704 10089 20009 30013 40269 56021 83500 555 10009
AAXX 28121 38886 42697 31202 10094 20004 30055 40284 57003 83200 555 10009
AAXX 28121 38895 42996 00000 10075 20021 30005 40299 56001 555 11008
AAXX 28121 38911 42998 41504 10059 20002 30008 40308 58003 84070 555 11006
AAXX 28121 38915 42997 61501 10064 20014 39982 40312 58006 86070 555 12009
AAXX 28121 38974 42998 01602 10090 21009 39942 40278 57010 555 10009
AAXX 28121 38987 42996 00701 10076 20006 39536 40285 57002 555 11009
AAXX 28121 22438 42570 73011 11027 21050 39884 49905 52038 87400
AAXX 28121 28588 41596 81808 11045 21061 39867 40026 57011 77173 8802/ 333 91013 91114
AAXX 28121 28465 41598 81707 11016 21027 39834 49910 57022 70272 885//
BBXX 46088 28121 99483 71232 46/// /1706 10093 40065 91220 22200 00079 10401 70003 333 91207 555 11063 22071 31219 41607 61219 167055 176040 201043 179037 215043 205053
BBXX 51201 28121 99217 71581 46/// ///// 1//// 91212 22200 00241 11303 20703 333// 41301 70015
AAXX 28121 28586 41596 81807 11051 21065 39891 40040 57011 77173 885// 333 88627
BBXX 46238 28121 99334 71195 46/// ///// 1//// 91150 22200 00138 11303 21002 328// 41303 70016
BBXX 44172 28121 99445 70634 46/// ///// 1//// 91201 22200 00060 11104 21004 312// 41102 70022
BBXX 44097 28121 99410 70711 46/// ///// 1//// 91202 22200 00114 11211 21007 321// 41208 70054
AAXX 28121 50788 11970 02503 11217 21238 30210 40305 57002 69911 70070
AAXX 28121 51431 32980 22501 11039 21065 39469 40299 52017 80002 333 05103
AAXX 28121 28791 41493 81910 11059 21063 39927 40074 57008 77173 8802/ 333 88511 91015 91115 92992
AAXX 28121 28688 41496 81806 11044 21064 39884 40044 57006 77173 8872/ 333 91012 91112
AAXX 28121 28696 41596 31904 11072 21093 39966 40108 57006 78587 83900
AAXX 28124 62010 32560 60904 10160 20091 40242 58016 83180 333 83830 86358
AAXX 28124 04203 46/// /3313 11175 21203 39980 49998 57003
AAXX 28124 04205 45/84 /1603 11252 21326 39971 49994 57005
AAXX 28124 04208 46/// /0907 11105 21188 39895 49941 57001
AAXX 28124 04213 46/// /1805 11103 21237 39818 49930 52009 333 91215
AAXX 28124 04214 46/// /0709 11088 21196 39889 49922 52003
AAXX 28124 04224 45984 61506 11101 21164 39888 49922 52028 333 81/62 86/68 91221
AAXX 28124 04228 NIL
AAXX 28124 04242 46/// /2421 11103 21126 30010 40027 52042
AAXX 28124 04253 46/// /2916 11081 21142 30047 40074 52059
AAXX 28124 04266 46/// /3136 11053 21126 30024 40063 52060
AAXX 28124 04285 46/// /2929 11039 21078 30008 40027 52034
AAXX 28124 04301 NIL
AAXX 28124 04313 46/// /1907 11233 21274 30061 40073 57001
AAXX 28124 04330 46/// /3202 11276 21312 30045 40063 57008
AAXX 28124 04351 46/// /0313 11115 21215 30035 40052 57029
AAXX 28124 04373 46/// /3225 11072 21113 39848 49942 57019
AAXX 28124 04382 46/// /2212 11059 21104 39910 49959 52003
AAXX 28124 04416 46/// ///// 11408 21426 36518 57002
AAXX 28121 23929 41572 81404 11071 21080 39809 49876 57011 70282 889//
AAXX 28124 67767 NIL
AAXX 28124 67843 42780 43604 10299 20170 38929 48493 83131 333 59022 83850 83080
AAXX 28124 67969 NIL
AAXX 28121 28383 41996 81304 11060 21075 39922 40007 57015 77173 8802/
AAXX 28124 62010 32560 60904 10160 20091 40242 58016 83180 333 83830 86358
AAXX 28121 60373 16/// /0101 10115 20114 60061
AAXX 28121 60623 36/// /0000 10158 21130
AAXX 28121 60393 16/// /1501 10113 20104 60041
AAXX 28124 40153 12660 10905 10093 20007 39147 48540 57015 60001 81100
AAXX 28124 40179 12970 03206 10187 20061 30183 40220 57019 60001
AAXX 28124 40180 12960 03305 10184 20059 30175 40224 57021 60001
AAXX 28124 40190 16/// ///// 10183 20063 39884 40212 57020 60001
AAXX 28124 40199 12975 20307 10217 20026 30169 40191 57030 60001 81044
AAXX 28121 14216 12980 12001 10132 21013 30134 40286 57024 60001 80002 333 70000 92322 92428
AAXX 28121 14219 11201 60301 11014 21016 39271 48555 58025 60001 74644 86600 333 70000
AAXX 28121 14232 11458 72301 10024 20005 30191 40331 57027 60001 71022 86610 333 70000
AAXX 28121 14234 11315 81801 10019 20017 30075 40331 58028 69911 75154 886// 333 70001
AAXX 28121 14236 11420 81201 10012 21008 30123 40329 57025 60001 71022 886// 333 70000
AAXX 28121 14244 11410 81001 11015 21017 30203 40340 57030 60001 7102/ 886// 333 70000
AAXX 28121 14248 11940 81802 11004 21009 30155 40337 57026 60001 7102/ 8802/ 333 70000
AAXX 28121 14253 11540 81601 11004 21012 30155 40337 57027 60001 71042 886// 333 70000
AAXX 28121 14256 12560 20801 10021 21012 39999 40330 57026 60001 82500 333 70000
AAXX 28121 14280 11910 71801 11002 21007 30224 40339 57021 60001 72842 87070 333 70000
AAXX 28121 14308 12984 00701 10113 21015 39931 40285 57022 60001 333 70000
AAXX 28121 14321 12684 21501 10132 20040 30272 40297 57021 60001 81101 333 70000 92301 92419
AAXX 28121 14370 11/01 90000 11020 21025 30221 40337 57020 69961 74474 333 70007
AAXX 28121 14382 11608 82901 11006 21009 30213 40339 57029 60001 742// 885// 333 70000
AAXX 28121 14428 12570 21502 10132 20075 30283 40290 58020 60001 82801 222// 00135 333 70000 92311
AAXX 28121 14441 12584 11801 10145 20060 30259 40283 58020 60001 81200 222// 00166 333 70000 92311
AAXX 28121 14452 12599 11201 10129 20087 30069 40294 57009 60001 81100 333 92301
AAXX 28121 14454 12980 01602 10132 20030 30225 40286 57022 60001 333 70000 92312
AAXX 28121 14462 12980 01202 10095 21020 30291 40297 57028 60001 333 70000
BBXX SHIP 28124 99173 11176 41498 60326 10250 20222 40153 52006 70222 8544/ 22252 00240 80230
BBXX SHIP 28124 99188 11309 41/98 /0613 10250 20207 40180 57032 70222 8//// 22243 00250 80220
BBXX JNCJ 28124 99340 11390 41296 81507 10090 20049 40220 58005 76062 887// 22232 00200 20202 307// 40203 80070
BBXX SHIP 28124 99130 71480 41/97 20626 10244 20204 40137 57016 70300 8//// 22200 04247
BBXX SHIP 28124 99383 31110 41497 81308 10157 20139 40143 51005 70322 8345/ 22253 00177 11204 20301 32217 41105 50602 85146
AAXX 28123 63684 32682 52110 10307 20/// 84965 333 59006 83833 81935 85275 555 10208
BBXX SHIP 28124 99383 31110 41497 81308 10157 20139 40143 51005 70322 8345/ 22253 00177 11204 20301 32217 41105 50602 85146
AAXX 28124 48408 32960 20202 10258 20179 39980 40130 52014 80001 333 10328 59015
AAXX 28124 61017 32960 71004 10260 21007 39738 40148 84032 333 0//00 59026 84364 85080
AAXX 28124 61024 32960 50804 10273 21005 39578 40145 80002 333 0//00 59015 85080
AAXX 28124 61036 32965 70406 10288 20019 39902 40140 80008 333 0//00 59010 87280
AAXX 28124 61043 32960 71208 10282 21029 39687 40126 80008 333 0//00 59013 87280
AAXX 28124 61045 32965 70402 10280 21018 39624 40120 80008 333 0//00 59021 87280
AAXX 28124 61049 32960 70804 10300 21005 39788 40104 80008 333 0//00 59015 87280
AAXX 28124 61052 32960 30808 10292 21013 39885 40142 80002 333 0//00 59006 83080
AAXX 28124 61075 32960 71002 10304 20034 39813 40120 80002 333 0//00 59012 85080
AAXX 28124 61080 32960 71004 10288 20007 39713 40132 80008 333 0//00 59011 87280
AAXX 28124 61090 32965 70406 10280 21035 39615 40113 80008 333 0//00 59018 87280
AAXX 28124 61091 32960 70000 10297 20107 39673 40127 80008 333 0//00 59030 87280
AAXX 28124 61096 31958 70402 10300 20044 39739 40118 70522 80008 333 0//00 59012 87280
AAXX 28124 61099 32960 70806 10315 20055 39887 40113 80008 333 0//00 59017 87280
AAXX 28121 23711 41498 89901 11065 21077 39618 49790 53010 70282 8693/ 333 86915
AAXX 28121 21432 31998 02109 11258 21282 30075 40096 52001 73630 333 11232
AAXX 28121 21824 31991 82322 11206 21212 30144 40153 58003 73932 86073 333 11184 91028 91129
AAXX 28121 21908 32999 21801 11346 21367 30102 40192 54000 80001 333 11323
AAXX 28121 21921 11996 81805 11245 21285 30195 40243 52007 60012 77172 8802/ 333 11185
AAXX 28121 21931 11997 82304 11208 21241 30176 40210 52024 69922 77172 8805/ 333 11208
AAXX 28121 21946 32999 82204 11321 21350 30145 40233 57005 8803/ 333 11351
AAXX 28121 21982 42998 63405 11220 21268 30155 40184 57011 80001 333 91107
AAXX 28121 25062 42998 02704 11324 21355 30244 40248 57001 333 91106
AAXX 28121 25123 11996 21303 11365 21394 30253 40290 57001 69900 70272 82010 333 11385
AAXX 28121 25138 31999 21201 11434 21461 30162 40306 54000 77670 80001 333 11417 91104
AAXX 28121 25173 41495 23011 11297 21315 30203 40208 57005 73831 82500 333 91117
AAXX 28121 25248 32998 00000 11491 21522 39789 40329 57002 333 11473 91100
AAXX 28121 25282 41984 03309 11267 21279 30147 40154 57005 73630 333 91113
AAXX 28121 25325 NIL
AAXX 28121 25356 42999 20000 11410 21451 30113 40229 57003 80001 333 91000
AAXX 28121 25399 41469 53406 11249 21281 30038 40048 57015 73631 82540 333 91110
AAXX 28121 25428 11917 20000 11460 21492 39930 40326 57001 69902 71000 80001 333 1//// 91101
AAXX 28121 25551 42998 03601 11448 21476 30196 40233 58003 333 91102
AAXX 28121 25563 41970 03209 11337 21359 30110 40199 57005 77670 333 91111
AAXX 28121 25594 41598 23605 11214 21254 30024 40077 58003 73630 82500 333 91111
AAXX 28121 25677 41998 03107 11228 21261 30169 40175 58001 73630 333 91110
AAXX 28121 31054 11998 80000 11424 21448 30114 40436 57009 69902 77172 86026 333 11388
AAXX 28121 31123 32998 01901 11417 21449 30065 40452 57008 333 11372
AAXX 28124 87129 01562 83203 10241 20229 39922 40149 52025 60124 70292 8557/ 333 10316 20235 60121 85620 84360
AAXX 28124 16344 12160 60408 10010 20010 38378 48560 57011 60001 86200 333 55301 86803 95000 95100
BBXX ELUC5 28123 99082 50921 41898 81414 10222 20186 40135 55000 70200 880// 22213 20703 80198
BBXX DEFY 28123 99147 70675 41597 20714 10278 20228 40159 52015 70200 82200 22262 00271 80242
BBXX ELWO6 28123 99397 70254 41/93 /0514 10170 20162 40350 50/// 7//44 22254 04166 20703 80165
BBXX DGOQ 28124 99543 10122 41297 82418 10054 40190 57030 7//11 8/6// 22200 04052 324// 4//02
BBXX DAJT 28124 99326 30038 41998 32808 10210 20155 40210 51010 70200 81045 22264 04190 2//00 80175
AAXX 28121 08570 31975 19901 10107 20036 39892 40359 57002 70200 80008 333 81299 91105
BBXX DDZA2 28124 99372 10052 41498 60826 10140 20123 40250 56030 7//11 86468 22223 04160 20302 80130
AAXX 28121 08570 31975 19901 10107 20036 39892 40359 57002 70200 80008 333 81299 91105 555 50004 60005
AAXX 28124 78062 11669 23214 10189 20130 40189 60003 70200 82500 333 10268 20187 59004 70000 82640 90908
AAXX 28121 08535 31959 00405 10122 20046 30260 40355 54000 710// 333 91108 555 50004 60005
BBXX EIPT 28124 99545 70054 41297 72438 10080 20038 40096 55002 70362 8677/ 22200 20302 3//// 4//// 5//// 80060
AAXX 28124 93498 NIL
AAXX 28124 93800 16/// /0608 10166 20158 40124 52002 60001
AAXX 28124 93805 16/// /3421 10138 20120 40106 57002 69961
BBXX 46207 28121 99509 71299 46/// /2213 10092 49929 52018 22200 00082 11408 70040 333 91216
BBXX DDAC2 28120 99375 71279 41/96 /2009 10120 20120 40270 54000 7//44 8/770 22273 04140 2//// 330// 4//06 5//// 80120
BBXX DNCQ 28123 99310 71348 41/98 61008 10175 20096 40295 52005 70322 8//// 22224 04170 20501 3//// 4//// 5//// 80130
BBXX KGTY 28124 99573 71451 41398 83221 10000 2//// 49789 57038 7//22 886// 22234 00028 20804 323// 41105 5//// 6//// ICE /////
BBXX SMGW 28121 99337 71325 43/98 12207 10153 40306 57009 22224 00166 2//// 4////
BBXX WBWK 28123 99300 71305 41698 70312 10156 20120 40290 56010 7//11 878// 22262 0//// 20301 334// 41204 5//// 6//// 80139 ICE /////
BBXX WDJK 28124 99536 71395 41597 82618 10055 20055 49690 54000 75022 8824/ 22233 00050 20805 323// 41009 5//// 6//// 80055 ICE /////
AAXX 28123 63631 32570 20506 10320 20/// 82100 333 82822 555
AAXX 28123 63602 32570 33402 10303 20151 38776 83201 333 59006 83825 555 10202
AAXX 28123 63654 32575 63403 10289 20163 48/// 85900 333 85822 81924 555 10207
BBXX 46147 28121 99518 71312 46/// /2112 10086 49876 52013 22200 00077 11009 70047 333 91217
AAXX 28121 25703 31996 20000 11473 21501 30028 40351 57005 77670 80001 333 11438
AAXX 28121 25745 32998 01301 11373 21401 30178 40237 57002 333 11347
AAXX 28121 25913 32999 60404 11182 21215 30064 40223 57001 81031 333 11153
AAXX 28121 25954 32999 03605 11192 21260 30064 40185 57004 333 11161
AAXX 28121 25956 32699 20507 11238 21287 30176 40182 57003 82500 333 11211
AAXX 28121 31088 32999 00104 11220 21286 30221 40229 57004 333 11190
AAXX 28121 31873 31996 82301 11205 21225 30157 40303 52004 77172 8802/ 333 11179
AAXX 28121 31909 32998 02805 11105 21215 30155 40237 51002 333 11047
AAXX 28121 31960 32997 70208 11136 21171 30034 40285 52017 80006 333 11066 91113
AAXX 28121 31961 31996 60502 11182 21201 30255 40305 51020 70422 80001 333 11096
AAXX 28121 32053 11495 80205 11053 21067 30200 40250 52010 60020 78583 889// 333 11018 88912 91008 91110
AAXX 28121 32061 11580 70104 11049 21059 30194 40234 53001 69940 78583 87900 333 11038 91007 91110
AAXX 28121 32098 11598 53202 11039 21054 30215 40225 51014 69900 70281 82903 333 11002 91002 91105
AAXX 28121 32150 11594 80401 11009 21013 30163 40193 52011 60080 78682 889// 333 11003 91002 91105
AAXX 28121 32165 11596 83008 11001 21009 30098 40159 52023 69980 78583 889// 333 10007 91013 91120
AAXX 28121 32215 31595 83202 11019 21040 30106 40135 52005 78682 889// 333 11004 91002 91106
AAXX 28121 32252 NIL
AAXX 28121 32389 11598 70000 11196 21215 30154 40194 53007 69960 78582 84930 333 11141
AAXX 28121 32477 32998 00102 11175 21194 30126 40160 51001 333 11101
AAXX 28121 32583 32598 53005 11074 21100 30116 40147 52001 82531 333 11045
AAXX 28121 32618 11598 30403 11067 21109 30138 40160 52002 69940 70281 83500 333 11044
AAXX 28121 27051 41396 83206 11030 21047 39729 49895 52035 77373 8652/ 333 84707
AAXX 28121 31873 31996 82301 11205 21225 30157 40303 52004 77172 8802/ 333 11179
AAXX 28121 31909 32998 02805 11105 21215 30155 40237 51002 333 11047
AAXX 28121 31961 31996 60502 11182 21201 30255 40305 51020 70422 80001 333 11096
AAXX 28121 31960 32997 70208 11136 21171 30034 40285 52017 80006 333 11066 91113
AAXX 28124 71435 16/// /1303 11272 21295 39552 40186 56018 60001 333 11008 21315 4/016 70000
AAXX 28124 71276 16/// ///06 11087 21140 60001 333 10010 21117 70000
AAXX 28124 71295 16/// /0903 11215 21239 39682 40153 56025 60001 333 11125 21248 4/025 55/// 20000 70000
AAXX 28124 71299 17/// /2704 11336 21369 39897 40201 58001 60071 7//4/ 333 10019 21337 4/033 70252 555 10020
AAXX 28124 71151 16/// /1511 11171 21206 39599 40123 58027 60001 333 11096 21185 4/004 55/// 20000 70000
AAXX 28124 71189 46/// /0808 10006 21003 6///1 333 10003 21037 7////
AAXX 28124 71191 17/// ///// 10049 20040 69961 7//4/ 333 10049 20032 4/007 70006
AAXX 28124 71924 11974 50000 11270 21305 39952 40045 57001 69901 77671 85070 333 11231 21280 48038 55/// 79999 90942
AAXX 28124 71976 46/// /2605 11338 21376 39440 40111 52017 6///1 333 11293 21341 7////
AAXX 28124 71979 16/// ///// 11093 21135 38290 49939 56021 60001 333 10003 21168 4/045 70012 555 10010
AAXX 28124 71217 16/// /1609 10013 21024 60001 333 10067 21050 70000
AAXX 28124 71224 16/// /2432 10043 21015 60001 333 10038 21022 70000
AAXX 28124 71026 46/// /1205 10000 21031 39160 40002 56042 6///1 333 21009 7////
AAXX 28124 71434 16/// /2205 11323 21356 30106 40177 56006 60001 333 11274 4/009 70000
AAXX 28124 71300 16/// /3016 11075 21097 39830 49952 51047 60001 333 10019 21075 4/008 70104
AAXX 28124 71309 16/// /2904 11255 21282 30168 40180 55001 60001 333 11069 21255 4/037 70000 555 10010
AAXX 28124 71343 16/// /1917 10035 21020 60001 333 10059 20017 70000
AAXX 28124 71832 16/// /2403 11356 21393 39856 40211 55000 60001 333 10008 21356 4/050 70000
AAXX 28124 71752 16/// /2919 11041 21081 39838 40056 53039 60001 333 10048 21041 4/001 70072 555 10010
AAXX 28124 16008 12970 00000 10062 21078 38619 48574 57022 60001 333 92871
AAXX 28124 65528 NIL
AAXX 28124 65536 NIL
AAXX 28124 65545 NIL
AAXX 28124 65548 NIL
AAXX 28124 65555 NIL
AAXX 28124 65557 32458 6//// 10291 20240 39896 40135 86200 333 58005 86813 94919
AAXX 28124 65560 NIL
AAXX 28124 65562 NIL
AAXX 28124 65563 31458 72804 10305 20234 39885 40125 70244 872// 333 59006 87811 94919
AAXX 28124 65578 32458 72604 10280 20252 30115 40132 87800 333 59001 81813 87620 94908
AAXX 28124 65585 NIL
AAXX 28124 65592 32460 7//// 10288 20247 30098 40121 85202 333 59005 83813 87076 94934
AAXX 28124 65594 32460 70008 10295 20254 30095 40129 872// 333 58000 87813 94908
AAXX 28124 65599 32460 6//// 10305 20250 30049 40123 86202 333 59001 86813 83076 94919
AAXX 28124 89002 42999 61907 11016 21045 39754 49808 57003 86030 333 11012 21052
AAXX 28124 71435 16/// /1303 11272 21295 39552 40186 56018 60001 333 11008 21315 4/016 70000
AAXX 28124 71832 16/// /2403 11356 21393 39856 40211 55000 60001 333 10008 21356 4/050 70000
AAXX 28124 71924 11974 50000 11270 21305 39952 40045 57001 69901 77671 85070 333 11231 21280 48038 55/// 79999 90942
BBXX 46183 28121 99536 71311 46/// /3206 10083 49828 52016 22200 00078 11006 70029 333 91210
AAXX 28121 56193 NIL
AAXX 28121 56196 31930 83401 10074 20036 40268 52016 71000 8807/ 333 05100
AAXX 28121 56287 31958 80000 10067 20042 40270 52018 71000 8807/ 333 05200
AAXX 28121 56684 32570 72202 10103 20024 37892 52009 874// 333 00000
AAXX 28121 56751 32780 20902 10093 20031 38020 52004 82400 333 05153
AAXX 28121 56786 32575 82003 10127 20051 38108 52007 884// 333 05103
AAXX 28121 56977 11462 80000 10132 20121 40203 52007 69901 76060 885// 333 05101
AAXX 28121 57259 32968 60902 10071 21011 40289 52020 86030
AAXX 28121 57279 31957 00701 10048 20000 40293 52009 71000
AAXX 28121 57348 32860 82901 10093 20033 40261 52013 885//
AAXX 28121 57399 32962 00202 10063 21007 40283 52014
AAXX 28121 57554 32861 80701 10057 20001 40283 52008 885//
AAXX 28121 57793 31930 80902 10097 20026 40262 57003 70500 8807/
AAXX 28121 58345 31957 80000 10064 20039 40285 52012 71000 8807/
AAXX 28121 58506 32966 70402 10028 21144 40283 52002 8704/
AAXX 28121 58813 32965 83602 10104 20041 40262 52011 8807/
AAXX 28121 58834 32966 80701 10142 20090 40245 52008 8807/
AAXX 28121 58926 32972 81801 10161 20098 40231 52012 8807/
AAXX 28121 58944 32563 80205 10132 20111 40244 52005 885//
AAXX 28121 59096 32663 80401 10173 20056 40221 52012 885//
AAXX 28121 59102 32662 70702 10147 20070 40233 52011 875//
AAXX 28121 59278 32760 82501 10188 20073 40212 52004 885//
AAXX 28121 59456 32870 70401 10188 20076 40204 52003 875//
AAXX 28121 59493 31930 01101 10179 20130 40210 52010 70500
AAXX 28121 59658 32760 60902 10173 20122 40204 52003 86500
AAXX 28121 59673 32963 01602 10170 20146 40211 52010
AAXX 28121 59845 32562 70902 10194 20170 40197 52011 878//
AAXX 28121 50434 32980 02002 11353 21390 39455 40509 52007
AAXX 28121 50527 32965 01804 11334 21367 39576 40507 52001
AAXX 28121 50603 32980 02502 11289 21322 39701 40485 52002
AAXX 28121 50632 32980 02904 11255 21297 39443 40458 52008
AAXX 28121 50727 32980 00000 11330 21370 39142 40525 52006
AAXX 28121 50915 32980 20000 11266 21317 39341 40485 52008 80002
AAXX 28121 51716 32965 70000 11056 21115 38962 40342 52012 83032 333 00001
AAXX 28121 51765 32980 00000 11109 21150 39282 40366 52004 333 00051
AAXX 28121 51777 32975 03601 11082 21142 39231 40352 57002 333 05102
AAXX 28121 51811 32962 72701 11054 21109 38839 40350 52015 82032 333 00002
AAXX 28121 51828 32965 33601 11045 21126 38671 40330 52011 80002 333 00001
AAXX 28121 52267 32980 23201 11100 21197 39167 40369 52004 80002 333 05151
AAXX 28121 52323 32980 41402 11092 21198 38256 52011 80002 333 00003
AAXX 28121 52495 32980 01101 11086 21198 38741 40386 52013 333 05101
AAXX 28121 53149 32980 00000 11104 21184 38849 40371 52008 333 00152
AAXX 28121 53192 32980 00401 11215 21233 38994 40471 52011
AAXX 28121 53231 32980 01405 11125 21215 38537 52010 333 00000
AAXX 28121 53336 32980 00701 11093 21160 38781 40380 52006 333 00000
AAXX 28121 53391 32980 00000 11131 21178 38570 40396 52004 333 00252
AAXX 28121 53529 32978 30000 11076 21121 38683 40374 52011 80002 333 00000
AAXX 28121 53543 32980 00401 11067 21138 38593 40349 52009
AAXX 28121 53723 32970 70000 11058 21095 38709 40363 52013 80002 333 05102
AAXX 28121 54012 32980 01101 11289 21328 39144 40489 52009
AAXX 28121 54026 32980 03601 11147 21256 30049 40409 52013
AAXX 28121 54027 32980 02901 11143 21271 39764 40407 52014
AAXX 28121 54208 32980 01401 11172 21195 38840 40441 52010
AAXX 28121 54776 31956 73209 10039 20004 30242 40301 52009 71000 80002
AAXX 28121 56004 32980 42704 11108 21318 35807 52012 80002 333 00100 91119 91527
AAXX 28121 56033 32680 70000 11095 21200 36007 52015 85902 333 00002
AAXX 28121 56046 32680 71801 11053 21125 36249 52016 83902 333 00003
AAXX 28121 78310 12570 60204 10231 20197 30184 40194 53001 60001 85240 333 10278 20218 30/// 56890 58009 70001 85820 92024 555 13602
AAXX 28121 78315 11568 20801 10189 20180 30117 40183 53001 60041 70181 81140 333 10294 20188 31/// 50880 56990 58002 70036 81820
AAXX 28121 78318 11565 53504 10230 20177 30184 40188 53008 60021 70181 85800 333 10293 20220 32/// 56800 58009 70085 83820 555 13602
AAXX 28121 78322 11558 50000 10203 20194 30173 40190 53010 60001 71011 84440 333 10275 20194 31/// 56990 58002 70017 84820
AAXX 28121 78324 11/10 13401 10196 20187 30168 40179 53006 60001 70500 81200 333 10288 20191 30/// 56900 57883 58005 818//
AAXX 28121 78325 11540 60206 10221 20179 30130 40188 52007 69941 70482 86800 333 10304 20214 31/// 55081 56800 58007 70152 81820 85621 555 13601
AAXX 28121 78328 01460 70205 10236 20199 30180 40/// 53005 69921 78082 878// 333 10294 20225 31/// 50470 56199 59002 69917 70002 86817 92426 555 10303
AAXX 28121 78333 12/10 10301 10195 20186 30174 40181 53005 60001 81240 333 10273 20188 30/// 56900 57834 58000 818//
AAXX 28121 78344 11563 40000 10192 20185 30133 40182 53005 60001 70500 83940 333 10287 20185 30/// 50560 56990 57971 58006 83820 819//
AAXX 28121 78345 11940 00000 10195 20186 30178 40182 54000 60001 71000 333 10276 20186 30/// 59001
AAXX 28121 78348 11550 10000 10195 20186 30129 40182 53004 60001 70500 81240 333 10287 20191 30/// 50324 56990 57816 59003 81822
AAXX 28121 78349 11540 13601 10170 20168 30074 40185 51003 60001 71000 81200 333 10301 20170 30/// 50264 56900 57815 59004 81820
AAXX 28121 78351 11550 10000 10182 20178 30160 40162 53006 60001 71000 81500 333 10302 20171 30/// 56900 59016 81626
AAXX 28121 78353 11560 10000 10197 20177 30164 40186 53014 60001 71000 81100 333 10287 20191 30/// 50044 56900 59005 81820
AAXX 28121 78355 11506 21801 10186 20179 30048 40190 51005 60001 74240 82800 333 10282 20175 30/// 55085 56900 58001 81820
AAXX 28121 78358 11530 10000 10183 20179 30166 40181 53004 60001 71040 81200 333 10290 20177 30/// 50224 56900 59001 81823
AAXX 28121 78360 11/60 10404 10217 20214 30171 40183 53001 60001 71000 81800 333 10288 20217 30/// 56900 57849 58005 818// 92023
AAXX 28121 78363 11560 20000 10168 20159 30055 40171 51006 60001 71000 82500 333 10308 20168 30/// 50430 56900 59002 82621
AAXX 28121 78365 11/60 12702 10206 20201 30175 40180 53006 60001 71000 81200 333 10272 20201 30/// 56900 57846 59010 818// 92012
AAXX 28121 78369 11568 12701 10206 20185 30171 40180 51007 60001 70500 81240 333 10292 20206 30/// 55084 56990 59005 81820 92011
AAXX 28121 48852 12598 80000 10186 20180 30177 40187 52009 60034 888// 333 01019 10199 59015 70028 86895 8869 7
AAXX 28121 48855 12597 70000 10205 20191 30179 40187 52012 60024 878// 333 01021 10227 59007 70015 82895 8769 7
AAXX 28121 48848 32565 83202 10179 20157 30182 40190 52010 888// 333 00017 10187 59013 70000 82895 88697
AAXX 28124 60692 36/// /0112 10224 21058
AAXX 28124 60662 36/// /0000 10139 21085
AAXX 28124 60676 36/// /0407 10138 21045
AAXX 28124 60660 36/// /3410 10157 21003
AAXX 28121 89064 11315 83101 10009 29091 49737 57001 60064 77177 885// 333 20004
AAXX 28121 60379 16/// /1302 10117 20117 60041
AAXX 28121 60380 16/// /3003 10108 20108 60021
AAXX 28121 60394 16/// /1801 10112 20112 60041
AAXX 28121 60374 16/// /0308 10145 20122 60101
AAXX 28121 60613 36/// /1107 10153 21020
AAXX 28124 60691 36/// /0311 10217 21079
AAXX 28124 60633 36/// /3508 10180 21051
AAXX 28124 60667 36/// /0000 10160 21045
AAXX 28124 60661 36/// /0206 10139 21033
AAXX 28124 61600 32960 60808 10272 20035 30152 40157 84032 333 59016 84363 85073
AAXX 28124 61612 32958 60808 10270 20008 30172 40180 84082 333 0//00 59001 84363 83073
AAXX 28124 61627 32959 40206 10295 20007 3//// 4//// 82032 333 0//00 5//// 82363 84073
AAXX 28124 61630 32960 31006 10294 20067 30147 40166 80002 333 0//00 58000 83073
AAXX 28124 61641 32960 50211 10260 20152 30123 40155 84071 333 0//00 59014 84363 85073
AAXX 28124 61666 32962 50806 10303 20131 30151 40159 80002 333 0//00 59010 85073
AAXX 28124 61679 32962 30810 10295 20147 30151 40159 80002 333 0//00 59004 83073
AAXX 28124 61687 31956 30812 10312 21030 30057 40114 70611 80002 333 0//00 59001 83073
AAXX 28124 61695 32960 60808 10290 20066 30121 40147 83032 333 0//00 59001 83363 85073
AAXX 28124 61697 32960 40612 10290 20094 30126 40141 80002 333 0//00 59006 84073
AAXX 28124 61698 32960 50808 10312 20099 30134 40145 81032 333 0//00 59001 81363 85073
AAXX 28124 61699 33958 61208 10300 20112 39939 40128 80002 333 58001 86073
AAXX 28124 60672 36/// /2005 10139 21089
BBXX 46131 28121 99499 71250 46/// /1506 1//// 40013 52014 22200 00079 10401 70007 333 91208
BBXX 46131 28121 99499 71250 46/// /1506 1//// 40013 52014 22200 00079 10401 70007 333 91208
AAXX 28124 41252 36/// /3017 10233 20070 39794 40083 333 0E015 58019
AAXX 28121 48826 31796 80501 10172 20151 30066 40204 53013 71022 885// 333 00018 10200 59014 70000 88697
AAXX 28121 48839 32697 80209 10180 20132 30128 40195 53007 885// 222// 00189 2//03 333 00/// 10193 59015 7000 0 88696 555 20178
AAXX 28121 48808 32498 80000 10145 20113 39923 40214 52007 888// 333 00015 10164 59006 70000 83894 88696
AAXX 28121 48830 31796 83402 10131 20098 39900 40215 53005 71022 885// 333 00014 10150 59007 70000 88697 555 20131
AAXX 28121 48806 32497 83202 10187 20117 39407 40184 52010 888// 333 00020 10227 59013 70000 82894 88696
AAXX 28121 10544 11/01 91909 10011 20011 39153 48517 58023 69901 74554 333 42008 55300 96450
AAXX 28124 40582 31958 03417 10186 21029 40199 56013 70500 333 00022 55300 00574 10000 21475 30474 41106 51538 61949 55407 41001 90400 91023 91123 91217 91311
AAXX 28124 41150 NIL
AAXX 28124 41168 NIL
AAXX 28124 41170 32964 03211 10192 20049 30194 40207 333 58014
AAXX 28124 41176 NIL
AAXX 28124 41184 31658 52809 10228 20128 40168 70600 84530 333 58018 84640
AAXX 28124 41194 11558 42711 10217 20118 30176 40181 60001 70611 84500 333 58017 84630
AAXX 28124 41196 31658 32812 10216 20109 30142 40181 70600 83500 333 58020 83640
AAXX 28124 41198 31530 12714 10243 20102 40163 70600 81500 333 58022 81630
AAXX 28124 41210 NIL
AAXX 28124 41216 NIL
AAXX 28124 41217 32660 42913 10208 20113 30152 40181 84500 333 58016 84635
AAXX 28124 41218 31659 13012 10213 20109 39871 40178 70600 81500 333 58018 81640
AAXX 28124 41226 NIL
AAXX 28124 41244 36/// /2908 10213 20098 39830 48234 333 0E014 58014
AAXX 28124 41246 NIL
AAXX 28124 41254 36/// /3006 10160 20022 38064 48069 333 0E006 58002
AAXX 28124 41256 32560 33109 10235 20151 30159 40169 83200 333 58024 83830
AAXX 28124 41258 36/// /2908 10232 20141 30155 40160 333 0E/// 58022
AAXX 28124 41268 32560 20110 10247 20175 30143 40159 82500 333 58019 82625
AAXX 28124 41312 36/// /1905 10273 20122 30114 40153 333 0E/// 58011
AAXX 28124 41314 32960 09905 10239 20062 39681 40181 333 58015
AAXX 28124 41316 32962 03612 10291 20059 30130 40157 333 58013
AAXX 28124 41404 12565 20310 10233 21211 37876 48511 60002 82100 333 59006 82830
AAXX 28124 41407 12970 00910 10234 20009 38949 48513 60002 333 58000
AAXX 28124 41431 11558 52414 10282 20241 30127 40140 60002 70544 85400 333 59005 85630
AAXX 28124 41466 12560 21810 10254 20040 38573 48474 82200 333 58004 82825
AAXX 28124 41477 NIL
AAXX 28124 41480 12460 21312 10278 20185 30146 40149 60002 333 58003 82818
AAXX 28121 10908 12989 72414 10013 21049 38561 48553 58013 60001 80001 333 49067 55310 21120 30305 87075 91118 91214
BBXX 46204 28121 99514 71288 46/// /1611 10093 49933 52013 22200 00084 11307 70034 333 91216
BBXX 46204 28121 99514 71288 46/// /1611 10093 49933 52013 22200 00084 11307 70034 333 91216
AAXX 28124 48350 32960 00000 10230 20182 39848 40150 52020 333 10296 59017
AAXX 28121 40604 42960 00000 10132 20035 40218 57014
AAXX 28121 40608 42960 02702 10154 20036 40221 57016
AAXX 28121 40621 42960 02702 10178 21022 40223 57014
AAXX 28121 40629 42960 02606 10148 20001 40254 57016
AAXX 28121 40631 42960 03203 10158 21003 40230 57015
AAXX 28121 40634 42960 02906 10154 20041 40249 57016
AAXX 28121 40642 42960 00000 10136 21045 40235 57018
AAXX 28121 40650 42960 03404 10180 20014 40217 56013
AAXX 28121 40656 42960 02908 10177 20047 40205 56005
AAXX 28121 40665 42960 03102 10188 20063 40211 57013
AAXX 28121 40670 42960 03405 10173 20049 40216 57009
AAXX 28121 40674 42960 03305 10182 21011 40209 57011
AAXX 28121 40676 42960 03105 10178 20004 40203 56017
AAXX 28121 40680 42960 03302 10180 20057 40191 57018
AAXX 28121 40689 42960 03006 10162 20038 40203 57015
AAXX 28121 40691 42960 02103 10174 20044 40216 57008
BBXX ZSAF 28124 99702 50026 41599 51212 11009 21073 49786 57006 70122 81506 22281 05012 20000 30000 40000 50000 ICE 68180
AAXX 28121 21802 32999 01405 11295 21309 30122 40148 58003 333 11293
AAXX 28121 24125 12998 10000 11355 21365 39882 40198 52006 69902 80001 333 11304
AAXX 28121 24136 32999 00000 11364 21394 30119 40232 52007 333 11364
AAXX 28121 24143 11999 31807 11290 21327 30130 40148 51002 69942 77173 83021 333 11245
AAXX 28121 24266 32998 02402 11454 21476 30098 40307 56006 333 11470
AAXX 28121 24329 NIL
AAXX 28121 24343 11597 81505 11279 21303 30143 40274 58003 69992 77173 84507 333 11275
AAXX 28121 24382 31994 20000 11467 21494 30031 40333 57005 71000 80001 333 11455
AAXX 28121 24639 11997 82002 11197 21216 30057 40220 57002 60012 77177 8802/ 333 11180
AAXX 28121 24641 11998 81003 11238 21263 30092 40246 57002 60012 77173 8801/ 333 11211
AAXX 28121 24652 31997 81207 11329 21357 30220 40360 57013 73632 82031 333 11327 91010 91112
AAXX 28121 24656 NIL
AAXX 28121 24671 32999 03601 11396 21456 39840 40462 58008 333 11480
AAXX 28121 24688 11996 50000 11498 21522 39381 40497 57006 69900 77171 80001 333 11470
AAXX 28121 24724 11999 22405 11221 21247 39657 40225 53005 69932 73631 80001 333 11170
AAXX 28121 24738 11997 81902 11182 21194 30041 40228 57002 60012 77172 8802/ 333 11177
AAXX 28121 24768 32997 21001 11444 21477 30121 40401 57015 80001 333 11415
AAXX 28121 24923 11996 82601 11254 21278 39926 40261 57008 69922 77172 8651/ 333 11253 86630
AAXX 28121 24944 32798 80000 11303 21327 39965 40292 57024 8353/ 333 11300
AAXX 28121 24951 32999 01001 11382 21409 30145 40339 57029 333 11382
AAXX 28121 24661 NIL
AAXX 28121 24959 11992 80101 11394 21422 30225 40377 57020 69902 74874 80005 333 11391
AAXX 28121 24962 31995 20000 11470 21494 30178 40406 57013 71000 80001 333 11455
AAXX 28121 24966 11995 00000 11437 21456 30146 40406 57014 69900 71000 333 11402
AAXX 28121 24967 NIL
AAXX 28121 25206 31997 02101 11424 21448 30251 40283 57007 70400 333 11387
AAXX 28121 25400 31996 00000 11414 21437 30218 40282 57008 71000 333 11416
AAXX 28121 30054 32998 31801 11295 21326 30037 40308 57008 80001 333 11281
AAXX 28121 30089 NIL
AAXX 28121 30393 32999 39901 11397 21416 39239 40461 57010 80001 333 11373 47///
AAXX 28121 30493 32999 00000 11380 21403 39242 40462 58004 333 11263
AAXX 28121 31004 32999 01801 11274 21291 39422 40346 57021 333 11234
AAXX 28121 31137 32999 60000 11475 21499 39273 40531 57002 80001 333 11345
AAXX 28124 91650 11598 83010 10260 2024/ 40089 58008 60061 70266 868// 333 10301 5699/ 83820 83648 87460
AAXX 28124 91652 NIL
AAXX 28124 91656 NIL
AAXX 28124 91659 NIL
AAXX 28124 91660 NIL
AAXX 28124 91669 36/// /1902 10249 20249 40079 57004 91215 333 10305
AAXX 28124 91670 36/// /1800 10268 20240 40076
AAXX 28124 91676 14/// /2501 10256 20241 30004 40064 55004 60011 333 10317
AAXX 28124 91680 11699 21503 10253 20250 40080 58001 60001 70121 82100 333 10299 569// 82830
AAXX 28124 91682 NIL
AAXX 28124 91683 11599 30000 10240 20237 40077 50002 60041 70190 83800 333 10311 569// 82822
AAXX 28124 91691 14/// /0301 10243 20239 30074 40077 55004 60001 333 10310
AAXX 28124 91693 11599 20000 10264 2024/ 40070 50001 60001 70210 82100 333 10302 569// 82827
AAXX 28124 91697 14/// /1102 10256 20234 30072 40077 55004 60001 333 10304
AAXX 28124 91699 14/// /1104 10258 20225 30053 40085 55003 60001 333 10314
BBXX VNSZ 28124 99387 31449 46/// /2118 10157 20111 30148 40174 52006 22235 04182 85130
BBXX C6FS9 28124 99322 31336 46/// /1529 10197 20172 30127 40163 52005 22200 04233 85181
BBXX 9HA2479 28124 99327 31531 46/// /1531 10207 20154 30084 40113 52021 22254 04231 85173
BBXX VROB 28124 99273 31532 46/// /1617 10233 20172 30070 40095 52020 22200 04248 85193
BBXX VNAH 28124 99383 31416 46/// /1807 10162 20105 30164 40188 52007 22200 04194 85129
BBXX V2OG2 28123 99154 30999 41498 41707 10269 20243 40108 53002 70211 84102 22273 20601 318// 40503 80250
BBXX ZCAS2 28123 99094 11275 41498 50412 10280 20237 40112 53002 70300 84160 22243 00291 21002 304// 41002 80250
BBXX VNSZ 28124 99387 31449 46/// /2118 10157 20111 30148 40174 52006 22235 04182 85130
BBXX C6FS9 28124 99322 31336 46/// /1529 10197 20172 30127 40163 52005 22200 04233 85181
BBXX 9HA2479 28124 99327 31531 46/// /1531 10207 20154 30084 40113 52021 22254 04231 85173
BBXX VROB 28124 99273 31532 46/// /1617 10233 20172 30070 40095 52020 22200 04248 85193
BBXX VNAH 28124 99383 31416 46/// /1807 10162 20105 30164 40188 52007 22200 04194 85129
BBXX V2OG2 28123 99154 30999 41498 41707 10269 20243 40108 53002 70211 84102 22273 20601 318// 40503 80250
BBXX 41036 28121 99342 70770 46/// ///// 10104 20029 40118 91220 22200 00173
AAXX 28124 82106 21196 82304 10242 20239 3//// 4//// 70396 887// 333 20235 5//// 60054
AAXX 28124 82113 32596 61404 10252 20243 3//// 4//// 85202 333 20244 5////
AAXX 28124 82212 22697 82704 10249 20236 30050 40132 887// 333 20234 58004 60044
AAXX 28124 82336 22696 80000 10242 20235 3//// 4//// 84470 333 20230 5//// 60374
AAXX 28124 82425 32996 81402 10260 20231 3//// 4//// 88050 333 20245 5////
AAXX 28124 82533 22297 61802 10254 20124 3//// 4//// 84650 333 20235 5//// 60074
AAXX 28124 82704 32695 80000 10239 20228 39895 40089 885// 333 20234 58000
AAXX 28124 82723 32196 63202 10263 20254 30079 40152 86600 333 20236 59007
AAXX 28124 82042 32698 60000 10253 20245 3//// 4//// 84422 333 20238 5////
AAXX 28124 82240 21696 80000 10255 20246 3//// 4//// 70362 889// 333 20240 5//// 60024
AAXX 28124 82317 32693 80902 10256 20242 3//// 4//// 885// 333 20222 5////
AAXX 28124 82610 32694 60000 10241 20235 3//// 4//// 83044 333 20222 5////
AAXX 28124 82807 22295 80000 10240 20237 3//// 4//// 887// 333 20232 5//// 60024
AAXX 28121 30157 31998 51104 11303 21349 30068 40389 58004 70232 80001 333 11302
BBXX ELNY2 28124 99256 10548 41696 52813 10230 20201 40190 54/// 7//00 85286 22200 0//// 20601 328// 41003 5//// 6//// 80210 ICE /////
BBXX ONGI 28124 99118 50227 41798 71219 10260 20202 40160 54000 7//21 861// 22233 00270 20505 312// 40302 5//// 6//// 80220 ICE /////
BBXX C6FM8 28124 99251 70773 41597 53020 10240 20196 40190 54/// 7//// 85/9/ 22273 0//// 21000 3//// 41000 51000 6//// 80210 ICE /////
BBXX WDE2719 28123 99607 71514 41/97 80905 11111 2//// 49880 5//// 771// 8//// 222// 01028 2//// 3//// 4//// 5//// 6//// 8//// ICE /////
AAXX 28121 28867 41996 82512 11026 21052 39705 49972 57013 77073 8802/ 555 1/104
AAXX 28121 28952 41996 81610 10000 21008 39740 49926 57029 77173 8802/ 555 1/101
AAXX 28121 34691 41598 72907 10026 21001 30063 40051 57008 70286 82330 555 1/000
AAXX 28121 35700 41494 82405 10032 20011 30075 40052 57003 76162 8802/ 555 1/001
AAXX 28121 35925 41595 82310 10012 20007 39997 40108 57020 71072 887// 555 1/000
AAXX 28121 38001 41597 82912 10057 20030 30184 40155 57012 70262 8872/ 555 11005
AAXX 28121 38196 41598 82001 11047 21060 39274 40284 52012 77172 8802/
AAXX 28121 38198 41597 81504 11018 21032 30026 40291 53008 77172 8802/ 555 1/102
AAXX 28121 38232 42598 82408 10063 20029 30095 40193 57009 885// 555 1/005
AAXX 28121 38328 41595 82403 11010 21012 39548 40292 53021 78582 889// 555 1/101
AAXX 28121 38334 41294 82903 11020 21029 39306 40290 53019 77177 8802/ 555 1/102
AAXX 28121 38439 42598 81102 11004 21034 39955 40302 53017 885// 555 1/000
AAXX 28121 28867 41996 82512 11026 21052 39705 49972 57013 77073 8802/ 555 1/104
AAXX 28121 28952 41996 81610 10000 21008 39740 49926 57029 77173 8802/ 555 1/101
AAXX 28121 34691 41598 72907 10026 21001 30063 40051 57008 70286 82330 555 1/000
AAXX 28121 35700 41494 82405 10032 20011 30075 40052 57003 76162 8802/ 555 1/001
AAXX 28121 35925 41595 82310 10012 20007 39997 40108 57020 71072 887// 555 1/000
AAXX 28121 38001 41597 82912 10057 20030 30184 40155 57012 70262 8872/ 555 11005
AAXX 28121 38196 41598 82001 11047 21060 39274 40284 52012 77172 8802/
AAXX 28121 38198 41597 81504 11018 21032 30026 40291 53008 77172 8802/ 555 1/102
AAXX 28121 38232 42598 82408 10063 20029 30095 40193 57009 885// 555 1/005
AAXX 28121 38328 41595 82403 11010 21012 39548 40292 53021 78582 889// 555 1/101
AAXX 28121 38334 41294 82903 11020 21029 39306 40290 53019 77177 8802/ 555 1/102
AAXX 28121 38439 42598 81102 11004 21034 39955 40302 53017 885// 555 1/000
BBXX 44060 28121 99413 70721 46/// ///12 10080 49948 91215 22200 00098 333 91215 555 11134 22139
BBXX 44033 28121 99441 70690 46/16 /1908 10095 49888 56025 91204 22200 00068 10804 70022 333 91210 555 11110 22122
BBXX 44034 28121 99441 70681 46/30 /1711 10099 49900 56036 91204 22200 00080 10809 70047 333 91213 555 11141 22153
BBXX 44024 28121 99423 70659 46/12 /1616 10115 49963 57054 91204 22200 00082 10809 70043 333 91220 555 11205 22222
BBXX 44022 28121 99409 70737 46/// ///07 10069 20014 49975 91215 22200 00084 333 91210 555 11077 22077
BBXX 44029 28121 99425 70706 46/30 /2310 10088 49908 53009 91204 22200 00084 11105 70026 333 91212 555 11121 22130
BBXX 44030 28121 99432 70704 46/// /2107 1//// 49895 53005 91204 22200 00075 11107 70035 333 91208 555 11082 22087
BBXX 46088 28121 99483 71232 46/// /1706 10093 40065 91220 22200 00079 10401 70003 333 91207 555 11063 22071 31219 41607 61219 167055 176040 201043 179037 215043 205053
BBXX EIPT 28124 99545 70054 41297 72438 10080 20038 40096 55002 70362 8677/ 22200 20302 3//// 4//// 5//// 80060
BBXX DDZA2 28124 99372 10052 41498 60826 10140 20123 40250 56030 7//11 86468 22223 04160 20302 80130
BBXX ELWO6 28123 99397 70254 41/93 /0514 10170 20162 40350 50/// 7//44 22254 04166 20703 80165
BBXX DGOQ 28124 99543 10122 41297 82418 10054 40190 57030 7//11 8/6// 22200 04052 324// 4//02
BBXX 62103 28124 99499 70029 46/98 /3132 10101 20055 40232 53005 22200 00119 10705 70023 333 90710 91145
BBXX UELS 28121 99366 70005 41598 70212 10140 40268 54000 70222 86010 22223 20402
BBXX VQIV8 28124 99371 10067 41/98 41207 10130 20091 40255 54000 70300 81342 22273 02160 29901 305// 40605 5//// 80110
BBXX 62107 28124 99501 70061 46/// /3237 10094 20024 40261 51024 22200 00114 10907 70035 333 90710 91144
BBXX 62094 28124 99517 70067 46/// /2827 10082 20036 40228 52027 22200 00107 10707 70035 333 90710 91137
BBXX 63119 28124 99583 10009 41297 82442 10076 20023 49891 57/// 703// 8/7// 22200 2//// 321// 40912 5////
BBXX 62095 28124 99530 70159 46/// /2925 10082 20031 40294 52041 22200 00109 11017 70084 333 90710 91138
BBXX 62094 28124 99517 70067 46/// /2827 10082 20036 40228 52027 22200 00107 10707 70035
BBXX 63110 28123 99595 10015 41597 72129 10077 49873 70522 8/8// 22200 10810 70049
BBXX 62301 28124 99524 70047 46/// /2723 10080 20036 40188 51017 22200 00091 10607 70035 333 90710 91132
BBXX 62163 28124 99475 70084 46/// /3125 10102 20034 40340 51029 22200 00127 10808 70040 333 90710 91132
BBXX 62103 28124 99499 70029 46/99 /2931 10117 20076 40228 52002 22200 00120 10705 70024 333 90710 91142
BBXX 62170 28124 99514 10020 46/97 /2331 10108 20092 40192 58025 22200 00104 10604 70020 333 90710 91142
BBXX 62304 28124 99511 10018 46/97 /2328 10105 20087 40205 58017 22200 00107 10704 70020 333 90710 91140
BBXX 62305 28124 99504 10000 46/97 /2628 10116 20089 40223 58017 22200 00116 10604 70020 333 90710 91136
BBXX 64045 28124 99591 70117 46/// /3146 10058 20036 49936 53138 22200 00099 11019 70096 333 90710 91168
BBXX 62122 28124 99573 10016 47697 /2134 10102 20022 49968 58031 700// 22200 10709 70043
BBXX 62140 28124 99573 10013 46/// /23// 10080 20032 49958 57036 22200
BBXX 62153 28124 99573 10020 47597 /2239 10082 20021 49967 58033 700// 22200 10708 70042
BBXX 62146 28124 99572 10021 47/97 /2327 10080 20019 49977 58025 700// 22200 10709 70045
BBXX 62104 28124 99574 10013 47697 /2338 10082 20020 49945 58041 700// 22200
BBXX 62116 28124 99576 10011 47597 /2341 10077 20017 49934 58042 700// 22200 10709 70045
BBXX 62155 28124 99577 10007 47697 /2244 10079 20025 49940 58044 751// 22200 10709 70044
BBXX 62117 28124 99579 10000 47596 /2143 10078 20033 49906 57049 700// 22200 10709 70046
BBXX 62118 28124 99577 10009 47997 /2143 10086 20021 49929 58042 700// 22200 10708 70042
BBXX 62114 28124 99583 10000 46/// /2043 10075 20025 49875 58060 22200
BBXX 62143 28124 99577 10018 47597 /2116 10079 20021 49942 58036 700// 22200 10708 70042
BBXX 62102 28124 99579 10018 46/// /2131 10077 20026 49941 57037 22200 10810 70050
BBXX 62134 28124 99580 10014 47597 /2137 10078 20027 49922 58041 700// 22200 10709 70045
BBXX 62142 28124 99530 10021 47597 /2419 10086 20065 40151 58007 700// 22200 10503 70016
BBXX 62144 28124 99534 10017 47997 /2326 10087 20055 40149 50003 700// 22200 10504 70018
BBXX 62145 28124 99531 10028 47597 /2126 10095 20069 40150 58013 700// 22200 10605 70027
BBXX 62165 28124 99540 10009 47998 /2429 10088 20030 40116 58010 700// 22200 10504 70018
BBXX 62150 28124 99536 10007 47998 /2515 10086 20047 40142 50001 700// 22200 10402 70012
BBXX 62149 28124 99537 10011 47998 /2223 10086 20059 40131 58002 700// 22200 10503 70016
BBXX DAJT 28124 99326 30038 41998 32808 10210 20155 40210 51010 70200 81045 22264 04190 2//00 80175
BBXX VVZU 28120 99229 10669 41997 60830 10266 20257 40187 56007 70001 8//// 22213 20407 30707 40506 50506
BBXX ONGI 28124 99118 50227 41798 71219 10260 20202 40160 54000 7//21 861// 22233 00270 20505 312// 40302 5//// 6//// 80220 ICE /////
BBXX ELNY2 28124 99256 10548 41696 52813 10230 20201 40190 54/// 7//00 85286 22200 0//// 20601 328// 41003 5//// 6//// 80210 ICE /////
BBXX A8UU3 28124 99010 50083 41/98 81713 10255 20230 40140 54000 7//22 8//// 22233 2//// 319// 41003 80237
BBXX PHAL 28123 99035 70023 41397 82004 10255 20248 40125 57007 72262 887// 22263 20300 80250 90875
BBXX TBWUK03 28123 99032 50304 41598 31413 10265 20242 40158 54000 70200 81408 22253 20401 315// 40702 5//// 80248
BBXX C6YA7 28124 99050 10922 41598 32105 10255 2019/ 40080 56010 70200 831// 22263 00290 20301 323// 41004 5//// 6//// 80210 ICE /////
BBXX JNCJ 28124 99340 11390 41296 81507 10090 20049 40220 58005 76062 887// 22232 00200 20202 307// 40203 80070
BBXX SHIP 28124 99173 11176 41498 60326 10250 20222 40153 52006 70222 8544/ 22252 00240 80230
BBXX SHIP 28124 99188 11309 41/98 /0613 10250 20207 40180 57032 70222 8//// 22243 00250 80220
BBXX OXVD2 28123 99060 10882 41/98 72710 10289 20225 40088 56012 70511 83678 22263 04280 20302 33118 40605 50705 80245
BBXX UCDN 28120 99495 11450 42699 70008 11010 40186 54186 72277 87720 22243 06040 20201 340// 40604
BBXX UFLC 28120 99454 11393 42498 80605 11048 40250 54000 8522/ 22213 06024 20402
BBXX ELUC5 28123 99082 50921 41898 81414 10222 20186 40135 55000 70200 880// 22213 20703 80198
BBXX V7OX3 28124 99275 50437 41/98 /2108 10210 20178 40130 54000 7//22 8/71/ 22233 04240 21003 315// 41203 5//// 80190
BBXX IDDUK02 28124 99517 50578 46/// ///// 40017 222//
BBXX 46204 28121 99514 71288 46/// /1611 10093 49933 52013 22200 00084 11307 70034 333 91216
BBXX 46131 28121 99499 71250 46/// /1506 1//// 40013 52014 22200 00079 10401 70007 333 91208
BBXX 46183 28121 99536 71311 46/// /3206 10083 49828 52016 22200 00078 11006 70029 333 91210
BBXX ZCDV9 28123 99329 70761 41598 82738 10140 20080 40115 52010 70322 8689/ 22224 04260 20808 32327 40810 50810 80110
BBXX DGAF 28123 99246 70752 41/98 /2212 10231 20215 40180 53004 70300 8/20/ 22234 00250 20102 80220
BBXX 46147 28121 99518 71312 46/// /2112 10086 49876 52013 22200 00077 11009 70047 333 91217
BBXX DEFY 28123 99147 70675 41597 20714 10278 20228 40159 52015 70200 82200 22262 00271 80242
BBXX 9LD2206 28123 99134 70387 41597 20615 10272 20220 40190 51008 70200 82100 22262 04265 20302 305// 40702 80235
BBXX 44097 28121 99410 70711 46/// ///// 1//// 91202 22200 00114 11211 21007 321// 41208 70054
BBXX 44172 28121 99445 70634 46/// ///// 1//// 91201 22200 00060 11104 21004 312// 41102 70022
BBXX 46238 28121 99334 71195 46/// ///// 1//// 91150 22200 00138 11303 21002 328// 41303 70016
BBXX 46088 28121 99483 71232 46/// /1706 10093 40065 91220 22200 00079 10401 70003 333 91207 555 11063 22071 31219 41607 61219 167055 176040 201043 179037 215043 205053
BBXX 41114 28121 99276 70802 46/// ///// 1//// 91216 22200 00240 10603 20603 70015
BBXX 46221 28121 99339 71186 46/// ///// 1//// 91145 22200 00147 11302 21001 327// 41302 70011
BBXX C6FM8 28124 99251 70773 41597 53020 10240 20196 40190 54/// 7//// 85/9/ 22273 0//// 21000 3//// 41000 51000 6//// 80210 ICE /////
BBXX 46211 28121 99469 71242 46/// ///// 1//// 91206 22200 00089 11109 21006 321// 41106 70045
BBXX 46231 28121 99327 71174 46/// ///// 1//// 91154 22200 00147 11302 21001 328// 41302 70011
BBXX 46242 28121 99332 71174 46/// ///// 1//// 91158 22200 00141 11202 20801 325// 41201 70008
BBXX 46222 28121 99336 71183 46/// ///// 1//// 91156 22200 00146 11302 21001 326// 41302 70009
BBXX 46223 28121 99335 71178 46/// ///// 1//// 91200 22200 00146 11402 21001 326// 41401 70008
BBXX 46216 28121 99343 71198 46/// ///// 1//// 91157 22200 00139 11302 21002 327// 41302 70011
BBXX 46217 28121 99342 71194 46/// ///// 1//// 91212 22200 00143 11302 20701 327// 41301 70010
BBXX 46240 28121 99366 71219 46/// ///// 1//// 91212 22200 00121 11203 21001 335// 41203 70014
BBXX 41113 28121 99284 70805 46/// ///// 1//// 91151 22200 00219 10301 20301 70007
BBXX 42362 28121 99278 70907 46/// /0806 10156 20056 40231 91215
BBXX 41115 28121 99184 70673 46/// ///// 1//// 91205 22200 10902 20902 70008
BBXX 42364 28121 99291 70881 46/// /0204 10133 20044 40227 91215
BBXX 42363 28121 99282 70892 46/// /0509 10144 20056 40231 91215 333 91209
BBXX 42362 28121 99278 70907 46/// /0607 10156 20056 40227 54000 91200
BBXX 46241 28121 99330 71173 46/// ///// 1//// 91141 22200 00140 11402 21001 326// 41401 70008
BBXX 51205 28121 99210 71564 46/// ///// 1//// 91218 22200 00233 11005 21005 331// 41302 70026
BBXX 46249 28121 99338 71197 46/// ///// 1//// 91210 22200 00145 11203 21002 326// 41202 70014
BBXX 46244 28121 99409 71244 46/// ///// 1//// 91205 22200 00101 11305 21003 328// 41304 70026
BBXX 41053 28121 99185 70661 46/// /1103 10244 40183 91150 333 91204
BBXX 41053 28121 99185 70661 46/// /1203 10244 40182 91140 333 91204
BBXX 41053 28121 99185 70661 46/// /1203 10243 40185 53013 91200 22200 00271 11002 70011 333 91204
BBXX A8SC4 28124 99370 71584 41297 82416 10170 20154 40140 54000 75055 8/7// 22244 04130 20201 80160
BBXX SHIP 28124 99318 71604 41597 72322 10220 20174 40200 54/// 7//22 8726/ 22263 00210 20305 32528 40706 51207 6//// 80190 ICE /////
BBXX A8UT7 28124 99412 70464 41597 81126 10175 20151 40000 56010 70522 8341/ 22253 20302 314// 40506 80160
BBXX A8WP6 28124 99105 70569 41687 50912 00/// 10270 2024/ 40205 51020 70221 85/// 22273 00263 2//// 3//// 4//// 5//// 6//// 80250
BBXX 46207 28121 99509 71299 46/// /2213 10092 49929 52018 22200 00082 11408 70040 333 91216
BBXX A8IP2 28123 99257 70611 41298 71112 10220 20171 40221 52/// 70322 8/778 22214 06240 2//// 336// 40806 5//// 80188
BBXX A8IM7 28124 99331 71642 41598 22327 10200 20144 40190 702// 8/5// 22225 04190 2//04 333// 4//08 5//// 80165
BBXX A8KM9 28124 99232 71407 41/98 80717 10200 20144 40241 51022 70322 8//// 22264 20405 80165
BBXX 46111 28121 99481 71227 46/// /3302 10095 40070 51013 91200 22200 00051
BBXX V7HC6 28124 99273 70907 41/// /0710 10150 20116 40220 52014 700// 8//// 222// 00233 2//// 3//// 4//// 5//// 6//// 80130 ICE /////
BBXX 44032 28121 99437 70694 46/22 /1909 10093 49883 56018 91204 22200 00083 10808 70042 333 91211 555 11115 22124
BBXX 41029 28121 99328 70796 46/// /2908 1//// 91200 555 11086 22088
BBXX 44067 28121 99384 70770 46/// /3303 10059 40055 53028 91200
BBXX SHIP 28124 99383 31110 41497 81308 10157 20139 40143 51005 70322 8345/ 22253 00177 11204 20301 32217 41105 50602 85146
BBXX C6UA2 28124 99282 31587 41797 32124 10220 20220 40050 54000 7//00 83//9 22214 00240 21506 310// 42508 5//// 6//// 80220 ICE /////
BBXX DCAX2 28123 99150 51660 41397 63322 10250 20250 40075 54000 75165 866// 22233 21004 333// 41004 5//// 80250
BBXX A8CG7 28120 99294 31632 41298 32211 10221 20187 49980 58010 70300 81640 22234 04240 20603 314// 40704 5//// 80198
BBXX SHIP 28124 99130 71480 41/97 20626 10244 20204 40137 57016 70300 8//// 22200 04247
BBXX 62148 28124 99536 10015 46/// /2225 10085 20056 40140 58005 22200
BBXX 62121 28124 99535 10027 46/// ///// 22200
BBXX 62127 28124 99540 10007 47998 ///// 10084 20024 40111 58011 700// 22200 10404 70018
BBXX 62131 28124 99539 10012 46/// /22// 10088 20049 40118 58009 22200
BBXX 62123 28124 99563 10022 47697 /2233 10088 20040 40010 58028 700// 22200
BBXX 62120 28124 99564 10021 47697 /2435 10089 40006 58026 700// 22200
BBXX 62132 28124 99564 10020 46/// /2531 10087 20026 40007 58027 22200
BBXX 62152 28124 99570 10018 47/97 /1925 10081 20032 49998 58029 700// 22200 10608 70041
BBXX PJGO 28124 99571 10022 47597 /2121 10082 20038 49992 57029 700// 22200
BBXX 62154 28124 99564 10022 46/// /2231 10089 20028 40014 57028 22200
BBXX 62133 28124 99571 10009 46/// /2240 10080 20008 49954 58043 22200 10708 70042
BBXX 62164 28124 99572 10008 47597 /2236 10090 20026 49955 58040 700// 22200 00092 10608 70040
BBXX 62119 28124 99570 10019 47597 /2335 10082 20025 49992 58026 700// 22200 10708 70041
BBXX 64041 28124 99607 70026 47597 /1620 10071 20027 49815 57043 700// 22200 10807 70035
BBXX 63104 28124 99612 10016 47998 /2218 10068 20048 49857 56039 751// 22200
BBXX 63115 28124 99616 10013 47496 /2323 10066 20029 49844 56035 762// 22200 10810 70049
BBXX MWYG6 28124 99603 70040 47998 /1528 10074 700// 22200
BBXX 63103 28124 99612 10011 46/// /2320 10065 20060 49856 58028 22200 10709 70043
BBXX 63117 28124 99613 10011 47999 /2315 10160 20092 49851 56049 700// 22200
BBXX 63113 28124 99610 10017 46/// /2514 10065 20035 49867 57032 22200 10809 70046
BBXX 63107 28124 99611 10017 46/// /2318 10065 49859 56036 22200
BBXX 63112 28124 99611 10010 47/98 /2412 10079 20031 49851 57030 741// 22200 10809 70044
BBXX 63101 28124 99612 10009 46/// /2315 10071 20030 49852 56036 22200
BBXX 63106 28124 99610 10017 46/// /2316 10060 49862 56036 22200
BBXX 63105 28124 99610 10017 47597 ///// 10065 20034 49862 56033 700// 22200
BBXX 62128 28124 99587 10014 47597 /2139 10074 20024 49900 57041 700// 22200 10810 70050
BBXX 63108 28124 99608 10017 47698 /2313 10055 20029 49864 58027 700// 22200 10808 70041
BBXX 63057 28124 99592 10015 47597 /2140 10078 20028 49888 58036 700// 22200 10810 70051
BBXX ZQSD5 28124 99583 10007 46/// /2142 10079 20026 49903 58044 22200 10911 70055
BBXX 62113 28124 99584 10002 47496 /2139 10074 20022 49921 57036 700// 22200
BBXX 63110 28124 99595 10015 47597 /2128 10077 20030 49880 57032 700// 22200 10810 70051
BBXX 62129 28124 99584 10003 46/// ///// 10078 20026 49911 58046 22200
BBXX 63056 28124 99597 10016 47597 /2032 10068 20061 49890 57031 700// 22200 10809 70045
BBXX PJAI 28124 99581 70014 47998 /2029 10078 20019 49856 57073 700// 22200
BBXX 62111 28124 99580 70003 46/// /2345 10077 20029 49907 57056 22200 10709 70044
BBXX LAJK7 28124 99308 70303 41498 61014 10200 2005/ 40330 51010 70222 84472 22253 00226 20101 305// 40302 5//// 6//// 80120 NNNN
BBXX 64046 28124 99606 70049 46/// /1421 10074 20045 49782 56042 22200 00082 11014 70071
BBXX 62112 28124 99584 70002 47596 /2037 10074 20032 49875 57058 700// 22200
BBXX 63055 28124 99606 10016 47797 /2117 10067 20066 49872 58029 700// 22200 10809 70045
BBXX 62301 28124 99524 70047 46/// /2723 10080 20036 40188 51017 22200 00091 10607 70035 333 90710 91133
BBXX 62442 28124 99490 70164 46/// /3118 1//// 2//// 40392 51025 22200 00122 333 90710 91128
BBXX 62303 28124 99516 70051 46/// /2724 10091 20034 40216 51019 22200 00112 10809 70044 333 90710 91131
BBXX 62001 28124 99452 70050 46/// /3217 10123 20111 40336 50009 22200 00139 10605 70024
BBXX 62105 28124 99554 70121 46/// /3036 10081 20044 40126 52059 22200 00105 11120 70099 333 90710 91155
BBXX 62029 28124 99487 70125 46/// /3124 10097 20019 40362 51033 22200 00128 10911 70057 333 90710 91134
BBXX 62081 28124 99510 70134 46/// ///// 10092 20043 40320 51039 22200 00120 11016 70079
BBXX 62027 28124 99491 70022 46/// /2516 1//// 2//// 40257 50006 22200 00110 10903 335// 70017
BBXX 64045 28124 99591 70117 46/// /3343 10054 20035 49930 53135 22200 00100 11019 70096 333 90710 91163
BBXX VRFO7 28124 99411 70186 41598 80517 10175 20125 40400 52010 70222 882// 22254 20802 327// 41006 80145
BBXX A8GU5 28124 99354 70066 41698 30611 10180 20083 40320 56010 7//// 83100 22214 04190 20302 80130
BBXX A8UQ3 28123 99440 70091 41297 63415 10160 20098 40385 51010 71851 85757 22213 00140 21006 333// 41207 80125
BBXX BATFR46 28124 99385 10003 44697 63419 10137 20092 40305 58010 703// 8/7// 22212 00162 22002
BBXX PDHY 28123 99476 70295 41598 81808 10120 20062 40363 50010 70222 8441/ 22263 04110 20503 318// 40605 5//// 80090
BBXX 61002 28124 99421 10047 46/// ///06 10127 2//// 40302 57020 22200 00137 10501 70006
BBXX PCEO 28123 99385 70263 41297 4//01 10178 20162 40395 52023 75065 82410 22254 04172 20000 327// 41203 5//// 80168
BBXX BATUK01 28124 99560 70032 46/// /2306 10059 20014 49966 56032 22200 00069
BBXX BATFR13 28124 99423 70214 44498 60817 10139 20082 40407 53012 70122 861// 22264 00154 20402 330// 41204 5////
BBXX BATEU09 28124 99413 10090 46/// /0709 10142 20077 40288 58022 22200 00164
BBXX BATFR14 28124 99494 10010 46/// /2204 10079 20060 40252 58017 22200 00074
BBXX BATFR03 28124 99498 70005 46/// /2333 10109 20092 40228 50013 22244
BBXX BATFR60 28124 99527 10036 46/// /2040 10089 20077 40158 58017 22252 00082
BBXX BATFR04 28124 99584 70062 46/// /1707 10019 21011 49821 22200 00354
BBXX BATFR02 28124 99504 70008 46/// /2634 10112 20072 40200 58059 22283 00114
BBXX BATFR52 28124 99494 70023 46/// /2326 10115 20079 40248 22285 00120
BBXX 61001 28124 99434 10078 46/// /1905 10129 20092 40286 57020 22200 00145 10501 70003
BBXX BAREU63 28124 99424 10110 46/// /3310 10127 29063 40290 57020 22233
BBXX BATFR54 28124 99523 70056 46/// /2540 10079 20029 40188 51032 22242 00110
BBXX BATFR09 28124 99400 10121 46/// /1306 10157 20035 40282 58032 22263 00159
BBXX DQVI 28123 99362 70030 41597 41011 10170 20137 40310 50000 7//// 8354/ 22224 00170 2//// 80150
BBXX BAREU51 28124 99398 10123 46/// ///// 40275 57024 22235
BBXX LF4C 28124 99584 10019 41497 62134 10081 20022 49913 57038 70262 86900 22200 00074 10810 70049 333 91140
BBXX 3ERR2 28124 99635 10053 41497 81123 10066 20029 49900 57073 76162 8672/ 22200 06094 11207 70036 333 91131
BBXX LF3F 28124 99643 10078 41598 71019 10045 20006 49952 57074 70200 8562/ 22200 04090 10909 70044 333 91124
BBXX LF5T 28124 99660 10081 43698 81612 10032 21030 49986 57049 8551/ 91210 22200 06082 11011 70055 333 91122
BBXX LF3N 28124 99653 10073 43/// /1216 10041 21013 49968 57068 91210 22200 10909 70045
BBXX LF4B 28124 99606 10037 47/98 /2121 10062 49903 57040 785// 22200 00059 10810 70052 333 91145
AAXX 28124 42398 32596 19901 10166 20130 40145 81500 333 10280 58013
AAXX 28124 42809 31995 30000 10230 20168 40137 70521 80001 333 10267 58014 83070
AAXX 28124 42886 31596 70000 10236 20137 40128 70521 81531 333 10280 58009 81620 85075
AAXX 28124 42895 32596 50000 10230 20150 40136 82530 333 10266 58017 82620 83360
AAXX 28124 42971 21595 80208 10240 20138 40132 70562 8452/ 333 10259 58010 6990/ 84620 88459
AAXX 28124 42309 NIL
AAXX 28124 42314 NIL
AAXX 28124 42410 NIL
AAXX 28124 42415 NIL
AAXX 28124 42492 NIL
AAXX 28124 42587 NIL
AAXX 28124 42591 NIL
AAXX 28124 42623 NIL
AAXX 28124 42701 NIL
AAXX 28124 42706 NIL
AAXX 28124 42724 NIL
AAXX 28124 42798 NIL
AAXX 28124 42977 NIL
AAXX 28124 43333 NIL
AAXX 28124 43368 NIL
AAXX 28121 60376 16/// /0504 10122 20122 60061
AAXX 28121 60593 36/// /3605 10133
BBXX MGSH7 28123 99558 10108 41797 82120 10060 20036 40134 57030 70222 8802/ 22273 20202 321// 40404 5//// 80050
AAXX 28124 89050 11194 83518 10014 20014 49740 56003 60072 74476 886//
AAXX 28124 89512 42998 81128 11025 21067 39641 49789 57003 8805/
AAXX 28124 89574 31598 60803 10008 21030 49883 52009 70272 81530 333 10011
AAXX 28124 89592 32398 80000 11011 21027 49878 54000 886//
AAXX 28124 89606 32998 02506 11256 21311 36342 47716 52001
BBXX 46185 28121 99524 71298 46/// /2012 10082 49884 52012 22200 00072 11007 70036 333 91215
AAXX 28121 55299 32980 03203 11057 21306 35846 52006 333 00100
AAXX 28121 55591 32980 00000 10018 21237 36509 52005 333 00300
AAXX 28121 56739 11578 72202 10128 20081 38362 52005 69901 70080 874// 333 00000
AAXX 28121 56951 11670 60701 10144 20106 38524 52009 69901 70080 86400 333 00001
AAXX 28121 56964 32562 80000 10134 20109 38742 40201 52011 884// 333 00001
AAXX 28121 57328 31930 80000 10080 20035 39841 40263 52011 71000 8807/
AAXX 28121 57411 31920 80201 10085 20056 39882 40263 52014 71000 8807/
AAXX 28121 57447 31930 82001 10044 20027 39722 40288 52010 71000 8807/
AAXX 28121 57662 32863 80701 10079 21027 30233 40278 52005 885//
AAXX 28121 57745 32962 80902 10079 21030 39929 40265 52007 8807/
AAXX 28121 57972 32960 83401 10093 20017 30028 40257 52003 8807/
AAXX 28121 58203 31956 03603 10014 21010 30255 40299 52011 71000
AAXX 28121 58314 32962 52001 10017 20010 30186 40298 52013 85040
AAXX 28121 58424 31956 00701 10075 21005 30262 40288 52014 70500
AAXX 28121 59023 32760 81801 10121 20057 39917 40232 52004 885//
AAXX 28121 59417 32561 81401 10149 20086 30063 40219 52008 888//
AAXX 28121 59985 32570 60407 10233 20206 30161 40166 52011 86200
AAXX 28121 59995 NIL
BBXX 46185 28121 99524 71298 46/// /2012 10082 49884 52012 22200 00072 11007 70036 333 91215
AAXX 28124 94996 454// 83410 10212 20193 39878 40012 51005 91230 333 10235
AAXX 28124 94996 454// 83410 10212 20193 39878 40012 51005 91230 333 10235
AAXX 28121 80001 01470 30504 10264 20229 30146 40147 69924 70151 81230 333 20255 31/// 50550 55097 5610/ 58007 69927 70002 81816
AAXX 28121 80002 01470 40404 10264 20226 60024 7036/ 84100 333 20242 33/// 5///0 55081 561// 60022 70019 84817
AAXX 28121 80009 31560 10000 10218 20195 30107 40112 7050/ 8180/ 333 20216 30/// 50420 55094 56099 58001 81820
AAXX 28121 80022 31962 30000 10246 20228 30120 40122 70500 80031 333 20238 30/// 50500 55086 56/00 58014 82360
AAXX 28121 80028 31560 10000 10218 20195 30107 40112 7050/ 8180/ 333 20216 30/// 50420 55094 56099 58001 81820
AAXX 28121 80035 31965 00703 10232 20218 30145 40150 7050/ 333 20223 30/// 50940 55094 59003
AAXX 28121 80036 31865 10204 10224 20205 7050/ 80030 333 20224 30/// 50530 55100 56/0/ 81358
AAXX 28121 80063 01458 70000 10256 20248 69924 7052/ 86610 333 20236 30/// 69922 86620
AAXX 28121 80084 01457 80000 10254 20245 60244 7152/ 8481/ 333 20241 31/// 55031 5609/ 60002 84815 88459
AAXX 28121 80091 11462 60000 10250 20238 60024 7052/ 86800 333 20244 30/// 50440 55092 569// 86615
AAXX 28121 80094 01365 70000 10202 20199 38824 60024 7402/ 81170 333 20194 31/// 50480 55082 5699/ 58006 60028 81807 87357
AAXX 28121 80097 32568 50000 10208 20199 39777 40128 83641 333 20203 30/// 50390 55075 5699/ 59005 83723
AAXX 28121 80099 11462 80000 10232 20223 39957 40101 69924 70552 8781/ 333 20230 31/// 50590 55089 569/9 58013 84608 85815
AAXX 28121 80110 01458 80000 10190 20163 38507 69924 7052/ 8457/ 333 20184 30/// 55021 5600/ 59006 69922 84615 86358
AAXX 28121 80112 01340 80000 10152 20144 37913 60034 70552 8557/ 333 20140 31/// 55045 56009 58000 69917 85608 84358
AAXX 28121 80139 NIL
AAXX 28121 80144 01340 70000 10242 20236 60124 7105/ 85750 333 20232 31/// 50140 55004 5600/ 60122 85707 86358
AAXX 28121 80149 NIL
AAXX 28121 80210 11463 71102 10195 20165 38676 69904 70522 83436 333 20188 31/// 50380 35082 56330 58007 83615 84358
AAXX 28121 80211 31570 50000 10196 20187 7052/ 83502 333 20188 30/// 50410 55076 568/2 83623 83070
AAXX 28121 80214 31460 60000 10219 20219 39139 7414/ 83530 333 20196 30/// 50450 55080 5650/ 58001 83610 84358
AAXX 28121 80222 11466 60302 10119 20103 37536 69904 70522 84855 333 20115 30/// 55075 56399 59005 81617 84827
AAXX 28121 80234 02962 70000 10226 20207 39637 40130 60034 86071 333 10297 20213 300// 50230 55023 56/39 58000 60012 86359
AAXX 28121 80241 NIL
AAXX 28121 80259 31560 40702 10212 20188 39069 70522 82830 333 20209 30/// 50550 55086 5639/ 58006 82825 83359
AAXX 28121 80315 32665 60000 10244 20216 39607 40110 81150 333 20231 30/// 50430 55045 5622/ 58001 81845 86361
AAXX 28121 80342 31440 70000 10158 20148 38231 7402/ 87800 333 20158 30/// 50320 55055 564// 58006 87612
AAXX 28121 80370 01450 80000 10090 20087 60034 7525/ 887// 333 20086 31/// 50090 55010 563// 60012 88712
AAXX 28121 80398 12470 80000 10238 20235 30053 40149 69914 8357/ 333 20234 30/// 50440 55053 5699/ 58000 83613 88458
BBXX ZMFR 28124 99413 31748 43/// /0315 10182 20136 40135 57002 22200 00191
BBXX ZMFR 28124 99413 31748 43/// /0315 10182 20136 40135 57002 22200 00191
AAXX 28121 47003 32980 03207 11053 21133 30253 40257 52007 333 11011
AAXX 28121 47005 11980 01801 11185 21204 38614 52008 69942 70170 333 11079
AAXX 28121 47022 32775 10000 11102 21146 38841 54000 81030 333 11016
AAXX 28121 47028 32965 03202 11034 21135 30191 40290 52008 333 10022
AAXX 28121 47031 32570 70000 11090 21110 38943 58003 87500 333 11035
AAXX 28121 47037 12970 00000 11049 21055 30157 40287 53003 69902 333 10010
AAXX 28121 47039 11556 00000 11043 21059 30083 40282 52003 69902 71000 333 10012
AAXX 28121 47046 31950 80000 11015 21063 30205 40228 53003 71022 80002 333 10062
AAXX 28121 47050 11540 80000 11036 21050 30242 40277 52001 69942 71044 885// 333 11012
AAXX 28121 47052 12565 62902 11014 21046 39930 40279 57003 69962 86500 333 10008
AAXX 28121 47060 11520 83203 11010 21017 30225 40285 53001 60052 71072 885// 333 10019
AAXX 28121 47061 32970 82305 10039 21027 30211 40255 52002 8807/ 333 10064
AAXX 28121 47065 11520 80000 10000 21008 30222 40289 53001 60022 71072 885// 333 10017
AAXX 28121 47067 11550 80000 11016 21024 30182 40306 54000 60012 71022 885// 333 11015
AAXX 28121 47068 11510 83404 10013 21001 30244 40280 53008 60032 71022 885// 333 10031
AAXX 28121 47070 11520 80000 11006 21018 30195 40285 57004 69902 71022 885// 333 10006
AAXX 28121 47075 11540 80000 11023 21029 39766 40206 57001 60012 72272 885// 333 11022
AAXX 28121 47090 32668 33605 10040 21047 30229 40252 56002 83500 333 10068 3/000 41/// 92022
AAXX 28121 47095 11520 82303 11010 21021 30086 40281 55001 60012 77072 8672/ 333 10009 3/101 43001
AAXX 28121 47097 129// /0501 11009 21058 30188 40288 54000 69902 333 10020 3/000
AAXX 28121 47098 129// /2702 11005 21024 30139 40278 56002 69932 333 10013 3/000
AAXX 28121 47099 129// /1601 10005 20003 30243 40281 55001 69902 333 10028 3/000
AAXX 28121 47100 11258 82514 11024 21047 39320 40263 57013 69902 77072 8672/ 333 11005 3/103 49023
AAXX 28121 47102 11630 63605 10027 20009 30102 40284 52007 69902 71022 85500 333 10054 31001
AAXX 28121 47104 32670 22702 10021 21046 30155 40254 51002 82500 333 10075 3/000 42///
AAXX 28121 47106 329// /2502 10032 21047 30203 40253 57006 333 10084 3/101
AAXX 28121 47112 11530 82304 10032 20020 30195 40281 54000 69912 75076 886// 333 10035 3/001 41/// 92011
AAXX 28121 47114 11558 80701 10002 21066 30097 40285 54000 69902 72272 8552/ 333 10015 31101
AAXX 28121 47119 11530 80000 10010 21014 30240 40283 50001 69912 72272 8552/ 333 10035 3/101 43001
AAXX 28121 47121 329// /3403 10006 21044 39981 40283 56001 333 10025 3/101
AAXX 28121 47127 329// /1401 10005 21049 30142 40288 56001 333 10030 3/000
AAXX 28121 47129 11657 72003 10021 21003 30253 40290 50001 69902 72162 87500 333 10056 31001
AAXX 28121 47130 32970 32005 10035 21047 30200 40263 55001 80001 333 10084 30102 92042
AAXX 28121 47131 31658 61602 10003 21053 30214 40287 54000 70522 86500 333 10038 34101
AAXX 28121 47135 329// /3602 11021 21070 39982 40293 52006 333 10044 3/103
AAXX 28121 47136 32962 60001 11011 21066 30104 40282 50002 80001 333 10054 30104
AAXX 28121 47137 329// /0702 11008 21073 30161 40284 50003 333 10061 3/103
AAXX 28121 47140 32961 00001 11005 21024 30265 40295 52004 333 10049 3/000 41/// 92012
AAXX 28121 47143 32961 00001 10016 21079 30211 40292 51006 333 10074 30104
AAXX 28121 47145 31658 80901 10009 21035 30250 40277 57001 70522 8552/ 333 10052 3/000 45///
AAXX 28121 47146 31956 00001 11007 21055 30226 40294 52004 70500 333 10058 34000
AAXX 28121 47150 31658 62301 10002 21028 30268 40288 54000 71022 85500 333 10058 34000
AAXX 28121 47152 32965 22702 10026 21070 30229 40273 50003 80001 333 10084 30102
AAXX 28121 47154 329// /3401 11008 21067 30224 40287 50004 333 10061 3/102
AAXX 28121 47155 32960 01103 10037 21065 30230 40277 50001 333 10073 30101
AAXX 28121 47156 32963 20506 10009 21057 30201 40293 52008 80001 333 10080 34000
AAXX 28121 47157 32960 00001 11024 21073 31000 40281 52013 333 10073 30104
AAXX 28121 47162 32962 00504 10023 21049 30235 40276 54000 333 10085 30101 92022
AAXX 28121 47169 32963 00206 10052 21024 30193 40289 52003 333 10055 31002 92032
AAXX 28121 47170 32965 02502 10019 21096 30239 40284 52006 333 10088 30101 92021
AAXX 28121 47171 329// /1104 11008 21059 30239 40296 51003 333 10051 3/101
AAXX 28121 47172 329// /1601 11005 21035 30219 40288 51003 333 10052 3/101
AAXX 28121 47173 329// /0001 11026 21071 30178 40294 52013 333 10074 3/102
AAXX 28121 47174 32962 00001 11024 21080 30077 40288 52010 333 10078 34103
AAXX 28121 47175 32965 03610 11001 21059 39695 40286 52004 333 10069 34101 92023
AAXX 28121 47185 12665 53608 10085 20037 30187 40278 53003 69952 85500 333 10094 31004 92033
AAXX 28121 47188 32670 63203 10061 20021 30251 40273 53002 85500 333 10112 30005 92022
AAXX 28121 47189 32675 53603 10070 20034 30211 40272 53004 85500 333 10109 30004 92022
AAXX 28121 47192 31958 00000 11026 21078 30245 40284 52006 70500 333 10080 30102
AAXX 28121 28867 41996 82512 11026 21052 39705 49972 57013 77073 8802/ 555 1/104
AAXX 28121 28952 41996 81610 10000 21008 39740 49926 57029 77173 8802/ 555 1/101
AAXX 28121 24790 31999 00000 11495 21511 39454 40439 57006 77670 333 11474
AAXX 28121 24988 32999 00000 11330 21360 39970 40254 57005 333 11231
AAXX 28121 25378 42998 03207 11174 21265 30125 40160 57008 333 91116
AAXX 28121 25503 12999 30801 11440 21469 30177 40328 58002 69900 82031 333 11431
AAXX 28121 25705 31996 51801 11444 21469 39953 40346 57003 77672 80001 333 11432
AAXX 28121 25927 32998 00000 11268 21300 30221 40229 58007 333 11209
AAXX 28121 25932 32999 73101 11181 21214 30175 40215 53005 80004 333 11156
AAXX 28121 31152 32997 41802 11407 21439 39959 40435 57009 80002 333 11385
AAXX 28121 31174 32999 00602 11244 21250 30301 40314 54000 333 11128
AAXX 28121 31489 11996 83001 11129 21149 30166 40288 57002 69970 77172 8802/ 333 11131
AAXX 28121 31866 32998 62705 11079 21146 30211 40217 57008 86020 333 11043
AAXX 28121 31959 32998 32805 11084 21160 30187 40232 52003 80002 333 11023
AAXX 28121 31989 32999 43502 11052 21173 30190 40246 50007 84030 333 10007
AAXX 28121 32027 11597 80208 11113 21126 30265 40274 52004 60030 73732 889// 333 11074 91010 91112
AAXX 28121 32076 11496 83603 11020 21026 30218 40228 52012 60020 78582 333 11008 91007 91108
AAXX 28121 32099 32598 80307 11017 21034 30192 40200 52014 8695/ 333 11003 91009 91113
AAXX 28121 32121 11497 81005 11012 21035 30176 40199 52004 60010 78582 889// 333 11008 91009 91110
AAXX 28121 32213 32598 20709 11028 21055 30060 40124 52004 81501 333 11009 91012 91115
AAXX 28121 32287 32999 00601 11151 21164 30186 40197 52002 333 11098
AAXX 28121 32408 11597 60205 11102 21122 30137 40177 52003 69920 70282 85530 333 11080
AAXX 28121 32509 32698 83404 11057 21114 30124 40159 52004 885// 333 11033
AAXX 28121 32594 32598 60604 11051 21088 30084 40121 52001 83502 333 10000
AAXX 28121 28867 41996 82512 11026 21052 39705 49972 57013 77073 8802/ 555 1/104
AAXX 28121 28952 41996 81610 10000 21008 39740 49926 57029 77173 8802/ 555 1/101
AAXX 28121 47101 11512 80001 11020 21028 30188 40288 57002 69962 77177 8672/ 333 11017 3/102 43///
AAXX 28121 47105 369// /2708 10040 21040 30220 40253 56002 333 10076 3/000
AAXX 28121 47108 11620 80502 10009 21005 30172 40281 56001 69932 71022 8652/ 333 10022 3/000 45///
AAXX 28121 47115 32668 62508 10048 21034 39969 40244 57009 85500 333 10062 3/001 49010
AAXX 28121 47133 31956 00001 11008 21054 30203 40291 50002 70510 333 10044 34101
AAXX 28121 47138 32964 22003 10035 21062 30273 40276 50003 80001 333 10090 30002 92032
AAXX 28121 47159 32965 33409 10052 21105 30184 40271 56001 80001 333 10096 30001 92023
AAXX 28121 47165 31959 00204 10006 21028 30239 40287 52003 71000 333 10064 31000 92022
AAXX 28121 47168 32970 02901 10037 21123 30196 40277 52003 333 10070 30000 92021
AAXX 28121 47184 32670 61603 10070 20018 30253 40278 52005 85500 333 10105 30006 92022
AAXX 28124 85442 12568 72004 10197 20161 40148 53004 60004 81504 333 20172 30/// 50600 55053 56407 70000 81620 87080
AAXX 28121 47008 11570 83201 11024 21102 30203 40259 52013 69942 70272 885// 333 10025
AAXX 28121 47014 12950 00501 11113 21197 39873 40299 52010 69942 333 11035
AAXX 28121 47016 11570 80000 11096 21166 39390 40291 52025 69902 70272 885// 333 11039
AAXX 28121 47020 12565 80000 11082 21088 39906 40304 53013 69942 885// 333 11020
AAXX 28121 47025 32960 03602 11023 21029 30208 40238 54000 333 10068
AAXX 28121 47035 32565 83604 11049 21113 30288 40297 52011 885// 333 10019
AAXX 28121 47041 32970 00000 10015 21081 30211 40239 52006 333 10079
AAXX 28121 47055 32565 22301 10024 21032 30211 40257 52002 82400 333 10055
AAXX 28121 47058 11559 83202 11014 21031 30242 40291 53003 60032 71072 885// 333 10005
AAXX 28121 47069 11556 80000 10008 21003 30182 40284 58002 69902 71022 885// 333 10029
AAXX 28124 67755 42675 70607 10324 20170 3//// 48/// 81201 333 5//// 81940 86080
AAXX 28124 67771 NIL
AAXX 28124 67773 42780 33202 10305 20182 3//// 48/// 83201 333 5//// 83850
AAXX 28124 67774 NIL
AAXX 28124 67785 NIL
AAXX 28124 67789 NIL
AAXX 28124 67855 NIL
AAXX 28124 67857 NIL
AAXX 28124 67863 NIL
AAXX 28124 67871 NIL
AAXX 28124 67875 NIL
AAXX 28124 67891 NIL
AAXX 28124 67895 NIL
AAXX 28124 67897 NIL
AAXX 28124 67899 NIL
AAXX 28124 67951 NIL
AAXX 28124 67963 NIL
AAXX 28124 67967 NIL
AAXX 28124 67971 NIL
AAXX 28124 67976 NIL
AAXX 28124 67979 42680 41602 10313 20189 3//// 48/// 84101 333 5//// 84832
AAXX 28124 67765 42781 70501 10290 20178 38650 48497 86232 333 59019 86850 85080
AAXX 28124 67775 41670 70209 10205 20188 38496 48500 79511 86833 333 59017 81930 86835
AAXX 28124 67779 42680 60604 10306 20201 39028 48494 82102 333 5//// 82849 86080
AAXX 28124 67853 NIL
AAXX 28124 67861 42780 53506 10277 20203 38718 48502 85232 333 59012 85850
AAXX 28124 67867 41580 60000 10269 20176 38556 48485 71522 85232 333 59036 85830
AAXX 28124 67881 NIL
AAXX 28124 67965 NIL
AAXX 28124 67975 NIL
AAXX 28124 67977 NIL
AAXX 28124 67983 41670 70901 10275 20204 38862 48494 70522 84203 333 59039 81930 84835 87280
AAXX 28124 67991 42780 31202 10356 20191 39542 48487 83102 333 59043 83856
AAXX 28124 89132 NIL
AAXX 28124 89542 46/// /2702 11008 20057 49841 52013
AAXX 28124 89575 NIL
AAXX 28124 89657 NIL
BBXX NIL
BBXX NIL
BBXX NIL
BBXX NIL
BBXX NIL
AAXX 28124 06670 31140 71806 10019 21002 39779 40308 57020 71042 85602 333 55310 21019 83702 83704 85070 91110 91206
AAXX 28124 06700 31/04 93101 11007 21009 39810 40327 58016 74944 333 55300 20450 91109 91204
AAXX 28124 06680 32988 52524 10008 21093 37579 47129 57017 80001 333 55310 20976 85072 91131 91226 444 56075
AAXX 28124 06990 31940 33305 10014 21004 39733 40300 57026 70541 80002 333 55310 20958 83079 91112 91206
AAXX 28124 06760 32970 11502 10082 20004 39834 40288 57022 80001 333 55310 21267 81079 91105 91202
AAXX 28124 06720 32982 22503 10012 21016 39720 40317 57031 80001 333 55310 21242 82080 91109 91206
AAXX 28124 06610 31003 82601 11005 21008 39716 40327 57014 74444 886// 333 55300 20410 88701 91107 91205
AAXX 28124 40250 32960 00000 10120 20004 39429 40238 57029
AAXX 28124 40265 31957 01107 10130 21021 39444 40254 57017 70522
AAXX 28124 40296 32960 00000 10214 20065 40225 57028
AAXX 28124 40310 NIL
AAXX 28124 40250 32960 00000 10120 20004 39429 40238 57029
AAXX 28124 40265 31957 01107 10130 21021 39444 40254 57017 70522
AAXX 28124 40296 32960 00000 10214 20065 40225 57028
AAXX 28124 40310 NIL
AAXX 28123 63658 32580 40208 10322 20148 38843 48481 83135 3333 59014 83825 8480 5555 10210
AAXX 28123 63682 32580 61803 10282 20204 3/// 48/// 86900 3333 5//// 85824 81928 5555 10230
AAXX 28121 31388 32984 00000 11323 21340 30061 40360 52001 333 11204
BBXX 51171 28121 99064 71623 46/// ///// 1//// 91146 22200 00276
BBXX 51170 28121 99168 71695 46/// ///// 1//// 91148 22200 00253
BBXX 52243 28121 99193 11666 46/// ///// 1//// 91154 22200 00269
BBXX 51174 28121 99142 51697 46/// ///// 1//// 91155 22200 00285
BBXX 51169 28121 99004 51600 46/// ///// 1//// 91155 22200 00258
AAXX 28121 23074 11997 61407 11167 21201 30033 40059 57006 69922 73673 83031 333 11165 91113
AAXX 28121 23274 11497 71706 11172 21191 30056 40094 53006 69902 77173 875// 333 11171 87619
AAXX 28121 23383 11896 80000 11243 21268 39805 40186 53004 69982 77172 8802/ 333 11241
AAXX 28121 23472 11597 71705 11162 21188 30076 40127 52006 69922 77173 83506 333 11150
AAXX 28121 23678 119// 81303 11150 21177 30105 40166 52008 69942 77177 8802/ 333 11142
AAXX 28121 23884 119// 60000 11120 21133 30128 40204 52012 60012 70272 80006 333 11083
AAXX 28121 23891 11996 80000 11206 21239 39900 52009 69972 77172 80006 333 11193
AAXX 28121 24507 129// 61301 11307 21330 39969 40240 53008 69902 84032 333 11292
AAXX 28121 24817 119// 81502 11190 21209 39869 40261 52002 60022 70072 82041 333 11171
AAXX 28121 24908 11998 82001 11165 21191 39912 40261 52001 60012 77177 83037 333 11160
AAXX 28121 29263 12980 31903 11129 21156 30153 40259 52016 69902 80002 333 11094
AAXX 28121 29282 12975 80000 11201 21220 30107 40291 52010 69942 8807/ 333 11183
AAXX 28121 29379 11596 80801 11125 21145 30064 40283 52010 60012 78577 8692/ 333 11121
AAXX 28121 29570 12596 62403 11070 21138 39930 40287 52014 82930 333 11050
AAXX 28121 29698 119// 80000 11151 21172 39771 40316 52012 60022 77372 8802/ 333 11152
AAXX 28121 30230 32998 30000 11338 21368 39972 40346 58003 80001 333 11377
AAXX 28121 30252 329// 70000 11355 21377 30060 40427 57005 80001 333 11343
AAXX 28121 30309 12999 82501 11164 21177 39747 40299 50001 69902 8801/ 333 11141
AAXX 28121 30328 329// 60000 11297 21322 39893 40374 53004 82041 333 11266
AAXX 28121 30521 329// 20000 11304 21321 39788 40378 53003 80001 333 11263
AAXX 28121 30710 32997 21002 11101 21129 39693 40298 52003 80001 333 11069
AAXX 28121 23973 11997 81703 11114 21127 30141 40205 52005 69962 77172 80008 333 11083
AAXX 28121 23975 118// 52103 11128 21155 30091 40205 52007 69962 77172 85070 333 11095
AAXX 28121 23986 11998 61803 11132 21152 39569 40230 52007 69972 77172 86010 333 11072
AAXX 28121 23987 11497 62003 11112 21132 30144 40220 52016 69992 78582 86900 333 11079
AAXX 28121 24606 118// 80000 11309 21332 39950 40250 52003 69932 70272 82042 333 11284
AAXX 28121 29253 119// 81802 11124 21159 30063 40244 52008 69932 77172 80007 333 11068
AAXX 28121 29471 11596 82201 11076 21090 30040 40275 52013 69952 78582 889// 333 11076 88920
AAXX 28121 29481 11999 81201 11109 21122 30035 40284 52006 69932 70271 333 11107
AAXX 28121 29553 11971 61802 11114 21120 39898 40280 52004 69982 70287 80001 333 11062
AAXX 28121 29562 11584 21802 11098 21115 39858 40290 52014 69922 72681 82900 333 11057
AAXX 28121 29581 116// 71203 11113 21126 30029 40298 52004 69982 70272 82971 333 11112
AAXX 28121 29594 11597 80000 11152 21165 39902 40311 52010 60012 78582 889// 333 11152
AAXX 28121 29653 32997 61401 11139 21174 39786 40296 52009 80001 333 11069
AAXX 28121 29675 11998 00000 11132 21152 39700 40323 52010 60022 70171 333 11070
AAXX 28121 29676 11996 03001 11138 21144 39859 40306 52013 60032 71071 333 11092
AAXX 28121 29752 114// 72508 11132 21145 38814 48459 52006 60052 78583 87900 333 11120
AAXX 28121 29759 115// 80000 11107 21135 39239 40304 52008 69992 78582 82935 333 11083
AAXX 28121 29766 12899 81101 11121 21134 39958 40331 52011 69982 8801/ 333 11118
AAXX 28121 29789 32999 20000 11148 21154 39085 40331 52015 80001 333 11090
AAXX 28121 29864 129// 82302 11075 21129 39642 40312 52010 69902 8807/ 333 11071
AAXX 28121 29866 119// 80000 11113 21126 39989 40325 52007 60012 71022 8801/ 333 11110
AAXX 28121 29869 119// 60000 11152 21158 39949 40348 52005 60032 71072 80001 333 11131
AAXX 28121 29956 32984 00000 11141 21168 39754 40347 52010 69952 333 11050
AAXX 28121 30337 32998 10000 11315 21339 39852 40361 58001 80001 333 11271
AAXX 28121 30405 129// 80000 11185 21204 39753 40319 52010 69902 82035 333 11157
AAXX 28121 30504 12997 72101 11174 21186 39634 40326 52014 69902 85032 333 11149
AAXX 28121 30603 31994 80000 11189 21195 39702 40315 52009 71022 80001 333 11144
AAXX 28121 30612 329// 82802 11206 21218 39744 40320 53002 85045 333 11145
AAXX 28121 30622 329// 00000 11310 21334 39661 40390 54000 333 11282
AAXX 28121 30627 32999 00202 11207 21226 39344 40347 53006 333 11190
AAXX 28121 30703 329// 80000 11227 21239 39597 40330 53003 80001 333 11164
AAXX 28121 36307 32997 20000 11306 21330 39039 48540 53008 80001 333 11262
AAXX 28124 67881 41680 63405 10275 20187 38562 48491 71792 85238 333 59027 81930 85843 86280
AAXX 28124 67965 41680 63603 10265 20203 38669 48496 71791 83273 333 59030 81935 83840 85458
AAXX 28124 67969 41675 60000 10348 20193 3//// 48/// 71511 84273 333 5//// 81935 84840
AAXX 28124 71445 17/// /1516 11137 21158 39780 40066 56028 60011 7//4/ 333 11151 21181 4/048 70059 555 10020
AAXX 28124 71079 11448 81408 11140 21164 39775 40064 57023 69941 77122 885// 333 11195 21228 48007 70004 90952
AAXX 28124 71464 46/// ///28 11033 39841 40056 53041 6///1 333 10051 21037 7////
AAXX 28124 71466 46/// ///// 11028 39889 51029 6///1 333 7////
AAXX 28124 71746 16/// /3216 11061 21094 39893 40117 51034 60001 333 10024 21063 70060
AAXX 28124 71747 16/// /0703 11213 21239 39674 40178 56023 60001 333 11006 21259 4/011 70000
AAXX 28124 71010 16/// /1106 11074 21130 60001 333 10044 21097 70000
AAXX 28124 71063 17/// /2812 11069 21085 39851 49949 53046 69931 7//4/ 333 10016 21069 4/013 70071
AAXX 28124 71667 16/// /2404 11214 21245 39941 40201 56014 60001 333 10035 21232 4/006 70000
AAXX 28124 71683 46/// /0305 11217 39888 40001 58004 6///1 333 11206 21223 7////
AAXX 28124 71351 17/// /1301 11050 21122 69941 7//4/ 333 10037 21077 70004
AAXX 28124 71353 17/// /1611 11057 21119 60011 7//4/ 333 10032 21105 70010
AAXX 28124 71375 46/// /0820 10000 6///1 333 10004 21006 7////
AAXX 28124 71385 46/// /0419 10003 6///1 333 10033 21013 7////
AAXX 28124 71916 46/// /3210 11298 21322 30054 40111 55002 6///1 333 11275 21310 7////
AAXX 28124 71257 17/// /1409 11042 21124 69961 7//4/ 333 10040 21099 70024
AAXX 28124 71258 16/// /1311 11073 21110 60001 333 10034 21081 70000
AAXX 28124 71259 16/// /0809 11041 21107 60001 333 10030 21112 70000
AAXX 28124 71270 16/// /3425 11066 21077 39835 40058 53033 60001 333 10053 21072 70142
AAXX 28124 71274 16/// /1404 11103 21137 60001 333 10010 21148 70000
AAXX 28124 71275 46/// /2101 11103 21135 6///1 333 10000 21129 7////
AAXX 28124 71278 16/// /1303 11091 21125 60001 333 10015 21108 70000
AAXX 28124 71286 16/// /1203 11080 21109 60001 333 10027 21123 70000
AAXX 28124 71287 16/// /1401 11093 21127 60001 333 10025 21116 70000
AAXX 28124 71289 16/// /1210 11047 21116 60001 333 10034 21098 70000
AAXX 28124 71581 17/// /0000 11144 21166 39525 40010 53029 69931 7//4/ 333 10011 4/019 70118 555 10130
AAXX 28124 71345 16/// /2015 10039 21016 60001 333 10052 20018 70000
AAXX 28124 71525 16/// /1909 10016 21014 60001 333 10063 21020 70000
AAXX 28124 71526 16/// /1115 11052 21101 60001 333 10044 21052 70000
AAXX 28124 71535 16/// /1913 10039 21013 60001 333 10074 20030 70000
AAXX 28124 71536 16/// /2420 10072 21015 60001 333 10062 20022 70000
AAXX 28124 71537 16/// /0507 11040 21082 60001 333 10043 21074 70000
AAXX 28124 71214 16/// /1607 11077 21133 60001 333 10052 21107 70000
AAXX 28124 71223 16/// /1604 11073 21141 60001 333 10056 21106 70000
AAXX 28124 71225 16/// /1917 10036 21020 60001 333 10058 20025 70000
AAXX 28124 71227 46/// /1304 11073 21113 6///1 333 10038 21108 7////
AAXX 28124 67855 41780 43303 10321 20203 3//// 48/// 72598 84202 333 5//// 84850
AAXX 28124 67951 41680 52807 10273 20183 3//// 48/// 71791 84233 333 5//// 81929 84830
AAXX 28124 67971 41775 60000 10306 20188 3//// 48/// 71791 86233 333 5//// 81950 85856
AAXX 28124 67963 41775 73003 10263 20191 3//// 48/// 78082 85273 333 5//// 81945 85850
AAXX 28124 67785 41680 70305 10235 20201 3//// 48/// 71798 85273 333 5//// 81930 84835 85459
AAXX 28124 40255 32960 00000 10140 20032 39508 40233 57017
AAXX 28124 40260 32960 01206 10125 21005 39461 40258 54001
AAXX 28124 40270 31956 00000 10124 21003 39325 40238 57011 70500
AAXX 28124 40272 32960 00000 10130 20024 39384 40235 57020
AAXX 28124 40290 NIL
AAXX 28124 40340 31956 03616 10204 20043 40195 57033 70500 80002 333 83070
AAXX 28124 42027 31595 22301 10056 20001 38456 48543 70500 82400 333 10102 58024
AAXX 28124 42101 31995 00000 10190 20134 40173 70500 333 10238 58020
AAXX 28124 42111 32996 00000 10166 20101 39394 40171 333 10238 58015
AAXX 28124 42131 32996 00000 10170 20115 40175 333 10216 58016
AAXX 28124 42165 31995 00502 10208 20143 40155 70500 333 10238 58023
AAXX 28124 42182 31995 00000 10184 20111 40166 70400 333 10239 58021
AAXX 28124 42189 31995 00000 10206 20137 40156 70500 333 10248 58019
AAXX 28124 42260 31994 00000 10168 20095 40162 70500 333 10218 59002
AAXX 28124 42328 31995 00206 10210 20022 40158 70500 333 10225 58026
AAXX 28124 42339 31995 00000 10220 20057 40149 70500 333 10254 58027
AAXX 28124 42361 31994 00000 10180 20114 40159 71044 333 10220 58023
AAXX 28124 42369 31995 09902 10200 20122 40156 70500 333 10243 58017
AAXX 28124 42379 31995 00000 10194 20135 40150 70500 333 10262 58022
AAXX 28124 42452 31995 00502 10196 20059 40157 70500 333 10217 58026
AAXX 28124 42475 31994 00000 10180 20130 40157 71000 333 10227 58018
AAXX 28124 42071 NIL
AAXX 28124 42348 NIL
AAXX 28123 42071 31995 00000 10162 20102 40180 70500 333 10207 58024
AAXX 28124 71079 11448 81408 11140 21164 39775 40064 57023 69941 77122 885// 333 11195 21228 48007 70004 90952
AAXX 28121 30089 32999 82701 11381 21401 30095 40357 57023 80005 333 11381
AAXX 28124 63729 32580 10000 10269 20192 38852 48/// 81901 333 55310 59015 81823 81925
AAXX 28124 63733 32580 33008 910280 20180 38838 48486 81931 333 55310 59011 81825 81927
AAXX 28124 63756 32580 63512 10268 20184 38846 48488 8193/ 333 55310 59011 81825 81927 86362
AAXX 28124 63791 02580 71212 10258 20194 39098 48488 60011 86903 333 0//12 55300 58001 60017 85830
AAXX 28124 63801 31580 72110 10284 20219 39186 48525 72992 8297/ 333 55300 59004 81823 81925 87359
AAXX 28124 63832 32580 43608 10302 20174 38783 48477 84900 333 55310 59017 84825 81926
AAXX 28124 63862 32580 32710 10277 20163 38876 48500 82973 333 55310 59004 82825 81927
AAXX 28124 63866 32580 50000 10290 20220 39495 48/// 85500 333 55306 59004 85625
AAXX 28124 63870 32580 42505 10322 20255 30064 40082 84900 333 55310 59007 84822 81924
AAXX 28124 63881 32480 63103 10227 20157 38206 48/// 85931 333 55310 58001 85819 81921
AAXX 28124 63887 01580 60805 10194 20172 38578 48495 69991 7196 86960 333 55300 59009 69997 86823 81925
AAXX 28124 63894 32580 43210 10316 20236 30029 40089 84900 333 55310 58012 8825 81926
AAXX 28124 63932 11580 70000 10180 20164 38305 48502 60026 76092 8392/ 333 55300 58001 83824 81925 87458
AAXX 28124 63962 11580 63608 10230 20204 38942 48503 60101 71796 84920 333 55308 59007 84822 81924 83457
AAXX 28124 63971 32580 30212 10310 20241 29965 40092 83900 333 55310 59001 83825 81926
BBXX 9HA2064 28123 99450 11500 41797 82921 10010 21015 40080 54000 7//22 8874/ 22254 0//// 2//// 3//// 4//// 5//// 6//// 80000 ICE /////
BBXX SJCD 28121 99489 11617 43/95 90406 11004 40052 54000 22253 00030
AAXX 28121 51711 32780 62902 11107 21143 38018 52013 83502 333 00102
AAXX 28121 51730 32970 71601 11049 21140 40335 52006 80002 333 00004
AAXX 28121 52112 32970 21801 11119 21195 40366 52002 80002 333 00000
AAXX 28121 52737 32980 00000 11073 21282 37074 52013 333 05204
AAXX 28121 52787 32980 02903 11081 21219 37033 52013 333 00000
AAXX 28121 53352 32980 01401 11126 21171 40422 52011
AAXX 28121 53593 32960 02201 11069 21116 40360 52011
AAXX 28121 53705 32965 71102 11021 21106 40339 52021 80002 333 05103
AAXX 28121 53863 31958 42701 11034 21068 40336 52011 71000 80002
AAXX 28121 53975 32963 70000 10008 21077 40320 52013 80002
AAXX 28121 54273 32970 02901 11164 21227 40373 52021
AAXX 28121 54324 32970 00703 11106 21245 40387 52021
AAXX 28121 54405 32965 00901 11037 21169 40342 52014
AAXX 28121 54436 32980 00402 11032 21158 40364 52018
AAXX 28121 54808 31901 03402 11014 21024 40317 52019 74600
AAXX 28121 54826 32965 11602 11042 21090 38520 52012 80002
AAXX 28121 54836 32962 00702 10024 21035 40324 52020
AAXX 28121 54863 32962 03401 10028 21035 40309 52016
AAXX 28121 56018 32980 02203 11037 21266 36163 52009 333 05103
AAXX 28121 56021 11680 70000 11095 21148 36063 52008 69911 70070 82902 333 00000
AAXX 28121 57071 31930 70405 10021 21022 40311 52018 71000 80002
AAXX 28124 68513 36/// /1715 10241 20157 30039 40149 51002 333 10241 20180 91020 555 91015
AAXX 28124 68514 NIL
AAXX 28124 68523 36/// /1506 10319 20033 39100 48539 58005 333 10319 20168 91012 555 91016
AAXX 28124 68527 36/// /1106 10301 20119 39057 48517 57008 333 10306 20195 91011 555 91014
AAXX 28124 68572 11474 73302 10164 20140 38400 48508 58002 60011 70355 872// 333 10174 20132 91004 555 20014 60125 91019
AAXX 28124 68575 36/// /1709 10198 20163 39102 48529 53002 333 10205 20170 91015 555 91018
AAXX 28124 68581 36/// /1804 10215 20179 39367 48522 51002 333 10224 20187 91010 555 91015
AAXX 28124 68583 16/// /2206 10255 20197 30012 40120 51006 69941 333 10257 20220 91016 555 20004 91012
AAXX 28124 68589 16/// /1506 10164 20131 38246 48506 58001 60011 333 10198 20154 91017 555 20014 69945 91020
AAXX 28124 68613 36/// /2508 10239 20158 30047 40160 51002 333 10247 20144 91014 555 91016
AAXX 28124 68647 NIL
AAXX 28124 68651 NIL
AAXX 28124 68715 NIL
AAXX 28124 68717 36/// /2904 10323 20113 39996 40133 57012 333 10323 20163 91010 555 91014
AAXX 28124 68723 36/// /2005 10302 20058 39403 48565 57008 333 10302 20161 91012 555 91016
AAXX 28124 68737 32475 51708 10225 20131 39268 48549 58006 85500 333 10225 20141 91017 555 91018
AAXX 28124 68744 16/// /1615 10204 20132 39117 48534 56000 69921 333 10211 20150 91025 555 20002 91018
AAXX 28124 68747 16/// /0804 10197 20167 39650 48562 57003 69961 333 10214 20173 91005 555 20006 69945 91018
AAXX 28124 68754 16/// /2103 10187 20152 39164 48550 55000 69921 333 10194 20151 91010 555 20002 91020
AAXX 28124 68817 NIL
AAXX 28124 68821 36/// /1908 10305 20117 39908 40137 58006 333 10305 20176 91014 555 91015
AAXX 28124 68835 16/// /1405 10254 20164 30065 40177 57003 69981 333 10255 20182 91011 555 20008 91018
AAXX 28124 68843 NIL
AAXX 28124 68849 NIL
AAXX 28124 68912 NIL
AAXX 28124 68918 36/// /1610 10229 20163 30156 40174 58001 333 10229 20184 91019 555 91017
AAXX 28124 68921 NIL
AAXX 28124 68925 36/// /1806 10253 20155 39805 40159 54000 333 10274 20161 91012 555 91017
AAXX 28124 68926 32170 71110 10265 20160 39995 40169 57007 875// 333 10265 20185 91017 555 91017
AAXX 28124 68935 NIL
AAXX 28124 41257 36/// /1008 10236 20147 39679 40168 333 0E014 58017
AAXX 28124 60679 36/// /2710 10069 21303
AAXX 28124 60650 36/// /3408 10144 21007
BBXX MIBR 28124 99029 30877 41/98 73121 10280 20244 40073 57010 72586 82272 22254 00282 20403 32032 40607 50405 80255
BBXX PDKK 28123 99045 30003 41597 81809 10264 40138 55020 70222 8446/ 22271 20301 318// 40803
BBXX A8AX3 28123 99046 30113 41/97 21806 10280 40140 51/// 70200 81131 22234 2////
BBXX BATFR19 28124 99066 30057 46/// /1916 10244 20199 40132 57018 22200 00255
BBXX BATFR55 28124 99145 30523 44698 31206 10284 20234 40100 70100 81364 22232 00295 20704 312// 411// 5////
BBXX MRWF2 28124 99190 31095 41499 52119 10250 2021/ 40090 52010 70311 85131 22234 00290 20802 32020 40804 50804 6//// 80220 /////
BBXX ONDY 28124 99191 30620 41898 21112 10270 2023/ 40130 54000 70210 81139 22213 00278 2//// 3//// 4//// 5//// 6//// 80240 /////
BBXX DAJT 28124 99326 30038 41998 32808 10210 20155 40210 51010 70200 81045 22264 04190 2//00 80175
BBXX V7HD2 28124 99338 30257 41498 21413 10220 2016/ 40180 5//// 7//00 822// 22200 00215 2//// 3//// 4//// 5//// 6//// 80180 /////
BBXX DBBT 28121 99339 30184 46/// /3203 10232 20131 40162 54000 22220 00149
BBXX A8IQ2 28121 99347 30227 41598 11305 10275 20219 40205 53020 70000 81100 22263 00220 20501 316// 40903 5//// 80235
BBXX DBLK 28121 99591 30000 41396 83412 11008 21012 49764 57002 77172 8572/ 22283 05016 20301 333// 41103 ICE 6/6/0
AAXX 28121 24967 32999 60000 11448 21483 30152 40417 57017 80001 333 11425
AAXX 28121 24656 11998 80602 11374 21407 30281 40399 57013 69902 77171 80007 333 11374
AAXX 28121 24661 31997 80000 11435 21461 30092 40410 58014 74011 80007 333 11435
AAXX 28124 68514 NIL
AAXX 28124 68647 NIL
AAXX 28124 68651 NIL
AAXX 28124 68715 NIL
AAXX 28124 68817 NIL
AAXX 28124 68843 NIL
AAXX 28124 68849 NIL
AAXX 28124 68912 NIL
AAXX 28124 68921 NIL
AAXX 28124 68935 NIL
AAXX 28121 50548 32970 00401 11280 21316 40411 52012
AAXX 28121 50564 32970 02501 11294 21316 40386 52005
AAXX 28121 51334 32970 21801 11150 21181 40379 52018 80002 333 00101
AAXX 28121 51818 32965 73402 11068 21123 40351 52015 80002 333 00000
AAXX 28121 52378 32980 01803 11116 21207 40389 52008 333 00051
AAXX 28121 53487 32960 03602 11086 21138 40366 52009
AAXX 28121 53502 32980 00202 11079 21156 40381 52012 333 00051
AAXX 28121 53923 32980 72002 10007 21066 40313 52019 8703/
AAXX 28121 54049 32970 03401 11205 21262 40403 52010
AAXX 28121 54115 32980 00401 11137 21217 40415 52013
AAXX 28121 54157 32962 00203 11171 21242 40396 52014
AAXX 28121 54186 32970 03203 11189 21233 40342 52014
AAXX 28121 54311 32980 00201 11126 21180 40387 52020
AAXX 28121 54346 32965 00203 11130 21217 40369 52015
AAXX 28121 54377 32965 00202 11076 21151 40319 52029
AAXX 28121 54386 11565 83604 11109 21180 40299 52021 69921 70070 885//
AAXX 28121 54493 32970 03404 11076 21170 40320 52021
AAXX 28121 54587 NIL
AAXX 28121 54715 31956 80903 10012 21026 40322 52018 71000 80007
AAXX 28121 54929 32962 00000 10030 20006 40310 52017
AAXX 28121 54945 32560 23201 10049 20026 40309 52014 82500
AAXX 28121 56065 32680 70701 11038 21135 36612 52022 82908 333 05104
AAXX 28121 57193 31956 60402 10041 20001 40302 52010 71000 80002
AAXX 28121 57290 31930 80701 10003 21010 40303 52015 71000 8807/
AAXX 28124 68174 31770 52907 10268 20157 38766 48497 58011 70522 83181 333 10269 20170 91012 555 91015
AAXX 28124 68191 36/// /0104 10328 20173 39594 48535 58013 333 10331 20197 91008 555 91010
AAXX 28124 68242 12680 53604 10266 20161 38702 48487 58006 69921 84270 333 10266 20146 91009 555 20002 91015
AAXX 28124 68262 36/// /2805 10264 20162 38687 48499 58007 333 10264 20197 91012 555 91016
AAXX 28124 68263 32680 62909 10241 20165 38473 48498 58006 84532 333 10243 20178 91013 555 91018
AAXX 28124 68267 11465 73212 10203 20171 38235 48503 58002 60041 76022 8357/ 333 10203 20162 91019 555 20042 91020
AAXX 28124 68289 16/// /2305 10227 20195 39127 48505 57006 60051 333 10257 20191 91008 555 20052 91014
AAXX 28124 68350 16/// /2804 10301 20156 38649 48505 58005 69921 333 10311 20151 91009 555 20002 91017
AAXX 28124 68368 41680 63410 10237 20175 38310 48495 58013 70522 84272 333 20182 555 91019
AAXX 28124 68403 36/// /2213 10234 20165 30136 40168 58006 333 10241 20187 91021 555 91016
AAXX 28124 68424 32782 22509 10336 20018 39179 48532 58006 82100 333 10336 20172 91016 555 91014
AAXX 28124 68438 12782 62905 10293 20112 38793 48497 58009 69921 86930 333 10298 20158 91012 555 20002 91015
AAXX 28124 68442 12682 63502 10261 20134 38643 48499 58007 60031 85270 333 10262 20145 91005 555 20038 91017
AAXX 28124 68461 32680 62410 10243 20133 38308 48488 58007 81302 333 10253 20146 91017 555 91018
AAXX 28124 68512 32682 32313 10258 20121 39029 48538 51001 82280 333 10273 20130 91022 555 91018
AAXX 28124 68538 31774 52804 10268 20094 38715 48506 58007 70522 85200 333 10274 20159 91012 555 91017
AAXX 28124 68587 NIL
AAXX 28124 68588 36/// /1718 10252 20192 30118 40134 58002 333 10258 20229 91025 555 91013
AAXX 28124 68591 16/// /2115 10212 20195 39969 40148 52001 60011 333 10234 20204 91020 555 20010 91015
AAXX 28124 68592 NIL
AAXX 28124 68618 32780 22008 10293 20050 39060 48547 58001 82100 333 10296 20144 91016 555 91018
AAXX 28124 68633 36/// /2110 10235 20123 38509 48504 58005 333 10236 20129 91016 555 91018
AAXX 28124 68668 11356 82011 10176 20157 39317 48537 53004 69981 76022 885// 333 10193 20166 91015 555 20008 91018
AAXX 28124 68714 36/// /2117 10270 20125 30115 40150 57002 333 10289 20160 91024 555 91015
AAXX 28124 68727 36/// /1407 10249 20094 39137 48536 57008 333 10254 20154 91014 555 91017
AAXX 28124 68752 16/// /1711 10201 20169 39499 48558 51001 60011 333 10208 20176 91015 555 20014 91019
AAXX 28124 68816 32682 11922 10250 20161 30112 40165 51003 81500 333 20228 91028 555 91016
AAXX 28124 68828 12570 51313 10227 20170 39950 40179 51001 60021 85500 333 20187 555 91018
AAXX 28124 68842 32580 11610 10230 20131 30117 40186 51004 60001 81500 333 20187 555 91018
AAXX 28124 68858 32480 51914 10226 20179 30017 40171 50001 84850 333 20194 555 91017
AAXX 28124 68906 12698 53507 10187 20087 30138 40202 58001 69921 81506 222// 00132 333 10191 20119 91018 555 20002 69925 91020
AAXX 28124 68994 32498 51821 10077 20029 30083 40112 53008 85500 222// 00069 333 10091 20060 91029 555 91011
AAXX 28124 89004 32780 61208 11050 21127 38800 49796 58001 84078 333 11029 21101 91010 555
AAXX 28124 89667 46/// /0708 11065 29094 39884 4//// 5//// 91210
AAXX 28124 89667 46/// /0808 11064 39885 4//// 5////
AAXX 2812/ 89872 46/// ///// 11045 39833 4//// 5//// 91220
AAXX 2812/ 89869 46/// ///// 11055 39815 4//// 5//// 91210
AAXX 2812/ 89866 46/// ///// 11048 39768 4//// 5//// 91220
AAXX 2812/ 89329 46/// ///// 11101 38752 4//// 5//// 91220
AAXX 2812/ 89327 46/// ///// 11003 39961 4//// 5//// 91210
AAXX 2812/ 89327 46/// ///// 11016 30059 4//// 5//// 91220
AAXX 2812/ 89332 46/// ///// 11054 39256 4//// 5//// 91210
AAXX 2812/ 89769 46/// ///// 11044 39859 4//// 5//// 91220
AAXX 2812/ 89879 46/// ///// 11001 39759 4//// 5//// 91210
AAXX 2812/ 89314 46/// ///// 11111 38200 4//// 5//// 91210
AAXX 28124 89667 46/// /0708 11064 39885 4//// 5////
BBXX 46206 28121 99488 71260 46/// /2209 10098 40045 52017 22200 00078 11008 70042 333 91211
AAXX 28124 42559 32996 00501 10208 20060 40135 333 10242 58019
AAXX 28124 42571 31996 00000 10200 20086 40142 70500 333 10233 58015
AAXX 28124 42667 32996 00703 10216 20125 39546 40135 333 10247 58022
AAXX 28124 42675 31996 00000 10214 20090 40138 70500 333 10237 58016
AAXX 28124 42754 31996 00506 10228 20079 39490 40123 70500 333 10252 58021
AAXX 28124 42779 32996 00000 10216 20086 39437 40135 333 10256 58017
AAXX 28124 42867 31996 11103 10238 20105 40125 70500 80001 333 10272 58017 81075
AAXX 28124 42933 32997 20000 10260 20087 40115 80001 333 10306 58014 82075
AAXX 28124 42874 NIL
AAXX 28124 43041 NIL
AAXX 28124 68587 NIL
AAXX 28124 68592 NIL
AAXX 28123 41150 32975 03018 10173 20047 40203 333 58004
AAXX 28121 50658 32962 03403 11242 21261 40388 52006
AAXX 28121 50888 11970 83201 11206 21229 40312 52003 69911 77077 8801/
AAXX 28121 50983 11965 83403 11189 21215 40308 52003 69921 70070 83037
AAXX 28121 51053 32980 10904 11124 21167 40356 52008 80002 333 00355
AAXX 28121 51542 32980 20701 11241 21268 37565 52010 80002 333 05100
AAXX 28121 52436 32980 00000 11106 21183 38509 40379 52012 333 00100
AAXX 28121 52908 32980 22704 11136 21268 35746 52014 80002 333 00153 91117 91527
AAXX 28121 52996 32970 71601 11046 21060 37583 52022 80002 333 05103
AAXX 28121 53083 32980 00403 11203 21220 40446 52006 333 00403
AAXX 28121 53764 32965 03201 11028 21073 40339 52010
AAXX 28121 53787 32962 00901 11032 21079 40336 52012
AAXX 28121 54096 32970 02904 11166 21206 40309 52009
AAXX 28121 54226 32980 03601 11164 21249 40405 52015
AAXX 28121 54259 32965 00401 11143 21206 40373 52017
AAXX 28121 54527 31950 00903 11014 21051 40341 52021 71000
AAXX 28121 54534 32965 01103 11024 21100 40348 52020
BBXX 46132 28121 99497 71279 46/// /2210 10093 49999 52021 22200 00086 10808 70041 333 91212
BBXX 46205 28121 99542 71343 46/// /1912 10076 49746 57001 22200 00072 11109 70045 333 91214
BBXX 46205 28121 99542 71343 46/// /1912 10076 49746 57001 22200 00072 11109 70045 333 91214
BBXX 46132 28121 99497 71279 46/// /2210 10093 49999 52021 22200 00086 10808 70041 333 91212
AAXX 28124 68183 32675 61005 10303 20204 39401 48521 58013 82572 333 10303 20195 91009 555 91011
AAXX 28124 68188 36/// /0903 10267 20197 39166 48509 58010 333 10287 20182 91006 555 91013
AAXX 28124 68268 16/// /2406 10271 20190 38867 48516 57016 69921 333 10289 20195 91010 555 20002 91017
AAXX 28124 68272 NIL
AAXX 28124 68296 36/// /0104 1//// 2//// 38910 4//// 57002 333 1//// 2//// 91009 555
AAXX 28124 68322 36/// /1706 10346 20046 39121 48523 57011 333 10350 20190 91013 555 91013
AAXX 28124 68338 32580 52805 10278 20150 38751 48491 57012 85200 333 10284 20165 91010 555 91015
AAXX 28124 68345 36/// /2705 10263 20152 38660 48506 50000 333 10264 20158 91010 555 91017
AAXX 28124 68362 32680 42705 10278 20132 38483 48485 57011 83240 333 10286 20168 91012 555 91016
AAXX 28124 68400 32370 81705 10243 20200 30032 40104 50000 881// 333 10290 20235 91013 555 91010
AAXX 28124 68408 32580 62105 10220 20170 30158 40166 58002 86144 333 10222 20175 91008 555 91016
AAXX 28124 68416 36/// /1606 10312 20066 39031 48526 57012 333 10322 20150 91016 555 91015
AAXX 28124 68478 11480 81705 10197 20167 38861 48502 58001 60011 76166 886// 333 10238 20182 91013 555 20018 60125 91016
AAXX 28124 68488 16/// /1803 10206 20164 39256 48511 58002 60091 333 10206 20188 91010 555 20094 91014
AAXX 28124 68494 16/// /2006 10230 20190 39992 40121 52005 60011 333 10235 20205 91016 555 20018 69925 91012
AAXX 28124 68524 32586 52105 10324 20054 39047 48524 57010 85100 333 10326 20178 91011 555 91015
AAXX 28124 68546 36/// /2508 10208 20115 38649 48496 57008 333 10258 20136 91014 555 91017
AAXX 28124 68558 16/// /1616 10160 20120 38190 48505 50000 69941 333 10213 20118 91021 555 20004 69945 91020
AAXX 28124 68570 11040 91505 10150 20123 38514 48506 54000 60081 79511 891// 333 10214 20142 91010 555 20082 60825 91019
AAXX 28124 68580 NIL
AAXX 28124 68614 32580 12508 10316 20122 30097 40136 57003 81200 333 10323 20171 91017 555 91013
AAXX 28124 68624 32882 41107 10271 20050 38748 48527 57007 84200 333 10278 20138 91013 555 91019
AAXX 28124 68674 NIL
AAXX 28124 68712 32400 11915 10208 20154 30091 40155 57003 81200 333 10211 20152 91020 555 91015
AAXX 28124 68718 NIL
AAXX 28124 68722 32480 61405 10263 20025 38565 48524 57007 86300 333 10272 20122 91010 555 91020
AAXX 28124 68814 NIL
AAXX 28124 68832 36/// /0606 10241 20087 39211 48547 57006 333 10256 20128 91010 555 91018
AAXX 28124 68916 36/// /0711 10222 20167 39910 40174 50000 333 10222 20175 91021 555 91018
AAXX 28124 68920 NIL
AAXX 28124 68928 NIL
BBXX 46181 28121 99538 71288 46/// /0604 10004 49897 52014 22200 00029 10200 70001 333 91204
AAXX 28124 68155 36/// /2502 10297 20199 39163 48511 58016 333 10301 20220 91005 555 91013
AAXX 28124 68171 NIL
AAXX 28124 68176 36/// /0102 10302 20161 39102 48507 58010 333 10310 20184 91003 555 91013
AAXX 28124 68181 NIL
AAXX 28124 68182 36/// /1104 10305 20209 39303 48518 58014 333 10307 20190 91007 555 91012
AAXX 28124 68185 NIL
AAXX 28124 68253 36/// /1103 10286 20185 39027 48512 58008 333 10286 20204 91007 555 91014
AAXX 28124 68255 36/// /3205 10274 20162 38837 48493 58005 333 10274 20188 91010 555 91014
AAXX 28124 68271 16/// /3104 10223 20191 38896 48503 57008 69961 333 10277 20203 91008 555 20006 91015
AAXX 28124 68273 16/// /2709 10249 20167 38443 48496 58008 69941 333 10260 20178 91015 555 20004 69925 91018
AAXX 28124 68287 36/// /1405 10203 20182 38557 48493 58001 333 10229 20142 91008 555 91017
AAXX 28124 68291 36/// /3503 10306 20207 39494 48522 58011 333 10320 20189 91008 555 91010
AAXX 28124 68297 NIL
AAXX 28124 68329 36/// /2003 10313 20138 39073 48524 58008 333 10320 20183 91006 555 91015
AAXX 28124 68331 36/// /2706 10294 20103 38826 48521 58002 333 10298 20171 91010 555 91017
AAXX 28124 68335 36/// /0103 10297 20153 38902 48523 58011 333 10298 20181 91007 555 91017
AAXX 28124 68341 16/// /2506 10275 20136 38519 48504 58007 69921 333 10280 20157 91011 555 20002 91018
AAXX 28124 68342 12480 33003 10286 20150 38500 48497 57013 69921 81230 333 10288 20142 91006 555 20002 91018
AAXX 28124 68343 16/// /0505 10262 20169 38765 48495 52775 69941 333 10271 20236 91009 555 20004 91015
AAXX 28124 68349 NIL
AAXX 28124 68353 36/// /2605 10268 20147 38496 48474 58005 333 10269 20175 91013 555 91015
AAXX 28124 68355 36/// /2410 10258 20165 38565 48500 50000 333 10259 20166 91016 555 91017
AAXX 28124 68370 31480 80000 10205 20186 38355 48502 57012 70266 885// 333 1//// 20180 555 91019
AAXX 28124 68377 36/// /2204 10270 20182 38719 48465 58010 333 10287 20206 91010 555 91012
AAXX 28124 68380 36/// /3204 10223 20155 3//// 4//// 5//// 333 10230 20163 91008 555
AAXX 28124 68387 NIL
AAXX 28124 68411 36/// /0803 10337 20113 39928 40126 58014 333 10337 20207 91008 555 91014
AAXX 28124 68429 36/// /2802 10283 20088 38671 48497 58010 333 10288 2//// 91005 555 91016
AAXX 28124 68449 36/// /2008 10227 20125 38377 48488 58005 333 10243 20152 91012 555 91017
AAXX 28124 68471 NIL
AAXX 28124 68474 11450 80910 10191 20152 38608 48500 53002 69941 72088 881// 333 10244 20140 91018 555 20004 69945 91017
AAXX 28124 68479 36/// /1717 10234 20158 38930 48500 54000 333 10262 20200 91024 555 91015
AAXX 28124 68481 36/// /1610 10231 20206 39755 40119 53001 333 10271 20224 91016 555 91013
AAXX 28124 68487 16/// /2008 10187 20156 38993 48514 51003 69921 333 10190 20169 91014 555 20002 91017
AAXX 28124 68491 16/// /2206 10226 20210 30102 40111 58000 60051 333 10241 20226 91013 555 20050 69985 91011
AAXX 28124 68497 16/// /2311 10225 20202 30083 40127 55000 60051 333 10230 20220 91019 555 20052 91012
BBXX VQHO7 28124 99030 70419 41498 50726 10280 20237 40147 51015 70211 8418/ 22234 00277 29902 307// 4//06 5//// 80250
BBXX 62141 28123 99493 50591 41597 82937 10126 20122 40060 54000 70322 8/7// 22200 20706 330// 40803 5//// 80124
BBXX ZCBF3 28123 99450 50403 41596 81530 10165 20157 40178 52015 75866 8882/ 22224 20504 312// 40807 5//// 80160
AAXX 28124 89020 46/// /3113 11038 21044 39743 49778 57019 91140
AAXX 28121 30499 32999 62702 11348 21364 39679 40436 57004 80005 333 11292
AAXX 28121 30683 329// 00000 11313 21330 39682 40418 58001 333 11232
AAXX 28121 30695 32998 02901 11364 21394 30032 40422 51001 333 11262
AAXX 28121 31253 32999 20000 11365 21394 39882 40414 53003 80001 333 11315
AAXX 28121 31295 32999 00000 11281 21305 39880 40391 53001 333 11219
AAXX 28121 31348 12999 00000 11266 21271 30110 40327 54000 69900 333 11125
AAXX 28121 31418 12584 80000 11147 21167 30033 40303 58003 69900 85502 333 11101
AAXX 28121 31439 12599 60206 11125 21138 30236 40282 52001 69900 82520 333 11106 91110
AAXX 28121 31442 32997 03103 11257 21295 39980 40374 52001 333 11215
AAXX 28121 31445 32984 03002 11258 21297 30079 40361 51002 333 11196
AAXX 28121 31474 12998 80000 11253 21285 39808 40339 52002 69920 80007 333 11231
AAXX 28121 31521 32984 00000 11267 21285 30036 40361 52002 333 11214
AAXX 28121 31527 32998 03202 11264 21282 30010 40346 58001 333 11205
AAXX 28121 31534 32999 30000 11264 21282 39961 40343 52006 80005 333 11202
AAXX 28121 31587 32999 00000 11287 21306 30206 40370 52002 333 11221
AAXX 28121 31632 NIL
AAXX 28121 31702 11997 82903 11249 21281 39973 40345 52004 69930 77172 86027 333 11214
AAXX 28121 31713 31997 80000 11204 21216 30183 40290 58008 77171 83018 333 11166
AAXX 28121 31725 11496 82702 11179 21185 30215 40287 57007 69950 78582 883// 333 11146
AAXX 28121 31801 11597 80000 11182 21201 30035 40280 53004 69900 77172 8352/ 333 11169
BBXX VQIB9 28124 99266 30454 41/98 30324 10290 20232 40095 54000 70200 8/047 22254 2//// 309// 40503 5//// 80250
BBXX DANV 28124 99259 10352 41998 03520 10238 20134 40180 56015 7//00 80000 22234 04210 20103 30000 80173
BBXX TBWUK34 28123 99166 70185 41498 60522 10232 20160 40183 54000 70322 82464 22244 00250 20503 336// 40802 5//// 80188
BBXX C6W2032 28123 99031 70072 41398 52114 10280 2016/ 40130 54000 7//66 85960 22264 00270 20302 32020 40304 50304 6//// 80200 ICE/////
AAXX 28124 88900 46/// /2209 10031 21002 39984 49987 58009 333 10031 20018
AAXX 28121 31825 11527 80000 11130 21136 30030 40249 58002 69930 77387 8872/ 333 11117
AAXX 28121 31845 32998 00000 11260 21284 30114 40296 52007 333 11150
AAXX 28121 31878 11956 80000 11199 21219 30169 40304 58008 69900 77172 8801/ 333 11143
AAXX 28121 31915 31897 89902 11177 21196 30024 40310 52013 77172 8802/ 333 11085
AAXX 28121 31921 11696 63002 11161 21180 30200 40305 53008 69900 71011 86900 333 11139
AAXX 28121 31969 32/// /3006 11078 21170 30230 40281 53014 333 11042
AAXX 28121 31981 32999 32102 11227 21246 30041 40301 52008 80001 333 11130
AAXX 28121 31987 32999 63505 11103 21163 39996 40269 51007 82041 333 11050
AAXX 28121 32069 12598 81205 11036 21054 30207 40212 52001 69900 885// 333 11023 91008 91109
BBXX PENR 28124 99187 70558 41599 30817 10263 20197 40207 52010 70311 8/100 22254 06276 2//// 399// 4//// 80220
BBXX PHHD 28121 99344 70594 41598 62505 10190 20124 40192 58006 70222 8/1/1 22243 04190 2//04 320// 41006 80150
AAXX 28121 30455 329// 00000 11308 21332 38990 48494 58006 333 11293
AAXX 28121 30731 329// 01201 11184 21203 39687 40343 53003 333 11121
AAXX 28121 30739 329// 01602 11290 21314 39507 40428 58003 333 11///
AAXX 28121 30741 329// 00501 11218 21236 38744 48526 58007 333 11168
AAXX 28121 30745 329// 00801 11305 21330 39150 40446 57004 333 11270
AAXX 28121 30764 32998 00000 11355 21384 39559 40482 57002 333 11298
AAXX 28121 30829 32984 00000 11268 21287 39647 40415 52007 333 11208
AAXX 28121 30838 32998 00000 11276 21281 39329 40425 52005 333 11174
AAXX 28121 30846 31997 00000 11315 21352 39431 40465 54000 77670 333 11245
AAXX 28121 30859 32999 00000 11335 21366 39519 40482 53001 333 11249
AAXX 28121 30862 31962 00000 11313 21350 39621 40462 58004 70400 333 11271
AAXX 28121 30957 329// 00802 11281 21292 39447 40452 51001 333 11206
AAXX 28121 30975 32998 00000 11368 21404 39746 40504 52005 333 11293
BBXX A8MH2 28124 99248 31535 41598 61526 10260 20225 40050 52020 70322 8444/ 22244 29905 3//// 4//// 5//// 80235
BBXX 9HA2295 28123 99467 31690 41298 83407 10150 20113 40099 50004 70222 8/7// 22223 20201 300// 40000 5//// 80130
AAXX 28124 82143 31598 60210 10290 20236 40155 7030/ 83280 222// 80250 333 20255 58000
AAXX 28124 83117 11697 61301 10230 20216 40143 51004 60171 7012/ 88433 222// 02200 20101 80220 333 20220
AAXX 28124 82392 32499 40506 10288 20203 30042 40144 84200 333 20231 58009
AAXX 28124 82583 32599 40909 10280 20195 39815 40149 83230 333 20230 58015
AAXX 28124 82594 32697 41405 10280 20220 30140 40148 83200 333 20230 58008
AAXX 28124 82683 32595 61406 10279 20176 39706 40155 85400 333 20224 58011
AAXX 28124 82780 32598 40503 10300 20184 39917 40165 84400 333 20253 58011
AAXX 28124 82789 32599 20506 10230 20163 38967 40056 82100 333 20171 58013
AAXX 28124 82795 32597 40905 10261 20203 39551 40167 84100 333 20210 58005
AAXX 28124 82879 32998 00506 10314 20166 39877 40139 333 20214 58005
AAXX 28124 82979 32498 3//// 10289 20178 39693 40133 83100 333 20238 58009
AAXX 28124 82986 32598 30903 10274 20189 39870 40153 83100 333 20222 58002
AAXX 28124 83179 21898 31402 10284 20185 39690 40134 70260 80004 333 20202 58013 69944
AAXX 28124 83192 32597 50903 10272 20182 39998 40163 85200 333 20207 58006
AAXX 28124 83339 32497 41403 10231 20189 39178 40131 81104 333 20186 59007
AAXX 28124 83498 32595 83608 10272 20237 30166 40171 84231 333 20232 59010
AAXX 28124 83650 41697 70708 10270 20221 40200 52005 71655 85531 222// 02258 21005 80235 333 20210
AAXX 28124 83925 31296 81503 10224 20157 40172 52010 7152/ 887// 222// 20000 80180 333 20216
AAXX 28124 83970 41697 31108 10240 20165 30190 40194 52020 7030/ 83180 222// 02220 20502 80190 333 20210
AAXX 28124 83264 22797 63204 10250 20217 39721 40188 82558 333 20220 58005 60244
AAXX 28124 83358 32698 50000 10266 20239 39710 40107 83269 333 20216 59034
AAXX 28124 83695 22697 60000 10244 20228 30007 40144 51006 8555/ 333 20224 60024
AAXX 28124 83718 21594 80000 10212 20207 39582 40152 52005 76288 887// 333 20199 61154
AAXX 28124 83270 32898 50000 10242 20215 39689 40172 81038 333 20227 58010
AAXX 28124 83309 31695 50000 10261 20244 39792 40112 71000 85530 333 20213 59006
AAXX 28124 83319 32597 50000 10258 20238 39804 40175 85500 333 20218 59001
AAXX 28124 83405 32796 5//// 10266 20246 39974 40107 85400 333 20224 59010
AAXX 28124 42634 32996 03604 10244 20113 40141 333 10253 58018
AAXX 28124 42647 32996 03605 10254 20118 40135 333 10270 58020
AAXX 28124 42737 32996 03605 10264 20122 40134 333 10283 58015
AAXX 28124 42840 32996 03204 10256 20146 40132 333 10290 58013
AAXX 28124 42909 32997 03604 10280 20059 40129 222// 20000 333 10297 58017
AAXX 28124 42921 32996 10000 10270 20010 40139 80001 333 10295 58013 81075
AAXX 28124 43003 31995 03406 10270 20148 40111 70400 333 10310 58010
AAXX 28124 43014 32996 22902 10270 20120 39462 40098 80001 333 10291 58011 82075
AAXX 28124 43063 32996 00000 10266 20110 39483 40098 80001 333 10299 58014 84070
AAXX 28124 43117 32997 60000 10280 20121 40097 80001 333 10302 58012
AAXX 28124 43192 31796 53204 10286 20187 40099 70522 81032 333 10312 58004
AAXX 28124 43110 NIL
BBXX 44040 28121 99410 70736 46/// /2708 10073 20023 49979 91215 22200 10301 70005 333 91211 555 11093 22108
BBXX 51178 28121 99142 51695 46/// ///// 1//// 91201 22200 00285
BBXX 51179 28121 99143 51708 46/// ///// 1//// 91203 22200 00286
BBXX 51176 28121 99278 71758 46/// ///// 1//// 91203 22200 00237
BBXX 52245 28121 99181 11458 46/// ///// 1//// 91206 22200 00276
BBXX 52248 28121 99135 11448 46/// ///// 1//// 91206 22200 00284
BBXX 52244 28121 99200 11452 46/// ///// 1//// 91208 22200 00267
BBXX 52246 28121 99152 11457 46/// ///// 1//// 91208 22200 00281
BBXX 51173 28121 99260 71739 46/// ///// 1//// 91211 22200 00249
BBXX 51172 28121 99284 71783 46/// ///// 1//// 91215 22200 00230
AAXX 28124 68171 NIL
AAXX 28124 68181 NIL
AAXX 28124 68185 NIL
AAXX 28124 68297 NIL
AAXX 28124 68349 NIL
AAXX 28124 68387 NIL
AAXX 28124 68471 NIL
AAXX 28123 63680 32570 51908 10295 20180 38815 48/// 85900 333 59008 85830 81932 555 10218
BBXX 46181 28121 99538 71288 46/// /0604 10004 49897 52014 22200 00029 10200 70001 333 91204
AAXX 28123 63680 32570 51908 10295 20180 38815 48/// 85900 333 59008 85830 81932 555 10218
BBXX 46184 28121 99539 71389 46/// /2505 10055 49683 52005 22200 00061 11109 70044 333 91207
AAXX 28124 68674 NIL
BBXX 46184 28121 99539 71389 46/// /2505 10055 49683 52005 22200 00061 11109 70044 333 91207
AAXX 28121 45032 36/// /1301 10164 20136 30198 40215 52002
AAXX 28121 45035 36/// /0902 10169 20144 30168 40210 54000
AAXX 28121 45039 36/// /0602 10166 20135 30198 40213 57001
AAXX 28121 45044 36/// /1102 10155 20140 30118 40212 54000
AAXX 28121 45032 36/// /1301 10164 20136 30198 40215 52002
AAXX 28121 45035 36/// /0902 10169 20144 30168 40210 54000
AAXX 28121 45039 36/// /0602 10166 20135 30198 40213 57001
AAXX 28121 45044 36/// /1102 10155 20140 30118 40212 54000
AAXX 28124 91723 NIL
AAXX 28124 91759 11598 72108 10252 20235 40062 58014 60001 71565 86870 333 10281 82820 84640 87461
AAXX 28124 91762 11598 83016 10266 20247 40071 53015 60171 75008 8587/ 333 83819 84638 88463
AAXX 28121 24856 31996 00101 11416 21443 30191 40374 57018 71000 333 11411
AAXX 28121 30679 NIL
AAXX 28121 30686 32999 00000 11357 21381 39996 40428 52001 333 11275
AAXX 28121 30961 32999 01503 11305 21324 39578 40472 58002 333 11281
AAXX 28121 30971 32999 01902 11339 21368 39362 40493 52005 333 11192
AAXX 28121 30978 32999 00000 11361 21397 39707 40501 52003 333 11244
AAXX 28121 31513 32999 03602 11270 21282 30111 40363 52003 333 11226
AAXX 28121 31624 NIL
AAXX 28121 31832 31956 82901 11221 21240 30207 40301 52005 77072 8802/ 333 11165
AAXX 28124 43086 32997 60000 10260 20034 39937 40115 80002 333 10296 58012
AAXX 28124 43128 32997 33203 10276 20048 39502 40098 80001 333 10314 58006 83070
AAXX 28124 43150 21495 80524 10250 20211 30036 40111 75022 84772 222// 21001 333 10300 58006 6990/ 84712 84358 86460
AAXX 28124 43185 32597 80502 10296 20188 30087 40090 8452/ 333 10316 59003 84620 88460
AAXX 28124 43189 32597 70704 10264 20213 30088 40097 83531 333 10310 59003
AAXX 28124 43198 32996 60000 10242 20075 39274 40090 80008 333 10289 58005 86270
AAXX 28124 43201 32997 00903 10292 20048 39371 40071 333 10310 58003
AAXX 28124 43213 32997 30000 10298 20067 39777 40089 81032 333 10330 58001
AAXX 28124 43226 32997 23201 10286 20190 30069 40098 80008 333 10323 58001
AAXX 28124 43233 32997 60503 10280 20031 39286 40078 80004 333 10306 59002
AAXX 28124 43237 32996 30000 10300 20052 39694 40079 80001 333 10322 59002 83075
AAXX 28124 43245 32597 80203 10284 20173 30061 40087 83878 333 10324 59012
AAXX 28124 43279 32597 73605 10284 20132 30070 40087 82532 333 10312 59013 82620 86360
AAXX 28124 43284 32996 23208 10286 20168 39971 40085 80001 333 10333 58005 82075
AAXX 28124 43295 32997 50000 10242 20048 39080 48495 80002 333 10295 59005 85070
AAXX 28124 43311 32597 53404 10310 20229 40093 83401 333 58006 82620 83075
AAXX 28124 43314 32697 63202 10300 20227 40090 83031 333 10329 59005
AAXX 28124 43321 31496 51808 10296 20161 39644 40081 70520 82530 333 10318 56909 59008
AAXX 28124 43329 32997 40000 10276 20203 30052 40065 80001 333 10318 59028
AAXX 28124 43344 31496 62703 10272 20142 39981 40080 70522 83504 333 10303 59015 83615 83070
AAXX 28124 43346 31596 50000 10288 20200 30065 40072 70522 81532 333 10300 59013 81620 85075
AAXX 28124 43353 31496 72170 10288 20220 40094 70522 82570 333 10316 56690 59002 82614 87458
AAXX 28124 43369 32597 63206 10286 20214 40094 83402 333 10309 58000 82620 84075
AAXX 28124 43371 32597 82703 10280 20221 30015 40087 82407 333 10302 59003 82620 88270
AAXX 28121 31913 NIL
AAXX 28121 32128 11598 70000 11026 21036 30141 40193 52007 69960 78582 87300 333 11011 91102
AAXX 28124 89628 46/// /3130 4//// 5////
AAXX 2812/ 89327 46/// ///// 11013 39977 4//// 5////
AAXX 2812/ 89872 46/// ///// 11044 39833 4//// 5////
AAXX 2812/ 89866 46/// ///// 11048 39768 4//// 5////
AAXX 2812/ 89332 46/// ///// 11054 39257 4//// 5////
AAXX 2812/ 89314 46/// ///// 11113 38202 4//// 5////
AAXX 2812/ 89329 46/// ///// 11091 38752 4//// 5////
AAXX 28124 45011 17950 /1706 10159 20138 40213 52009 60002 71011 333 10215 59019
AAXX 28121 08515 11010 82005 10176 20176 30238 40360 52020 69911 75052 887// 222// 00178 333 84701 86704 910// 911//
AAXX 28124 60353 11565 50405 10143 20104 40241 58012 60021 70398 85800 333 0//56 83820 83630 91847 95900
AAXX 28121 08515 11010 82005 10176 20176 30238 40360 52020 69911 75052 887// 222// 00178 333 84701 86704 910// 911// 555 50044 69917 912//
BBXX A8IM7 28124 99331 71642 41598 22327 10200 20144 40190 702// 8/5// 22225 04190 2//04 333 // 4//08 5//// 80165
BBXX A8SC4 28124 99370 71584 41297 82416 10170 20154 40140 54000 75055 8/7// 22244 04130 20201 80160
BBXX SHIP 28124 99318 71604 41597 72322 10220 20174 40200 54/// 7//22 8726/ 22263 00210 20305 32528 40706 51207 6//// 80190 ICE /////
BBXX 46004 28121 99509 71361 46/// /2416 10076 49815 52010 22200 00074 11013 70063 333 91220
AAXX 28121 56671 32780 63601 10105 20040 38195 52006 86400 333 05151
AAXX 28121 57378 31956 73202 10075 21005 40287 52009 70500 8703/
AAXX 28121 57426 31858 80000 10068 20045 40260 52008 71000 885// 333 05251
AAXX 28121 57476 32960 82501 10077 20022 40287 52015 8803/
AAXX 28121 57584 31958 80401 10082 21011 40285 52008 70500 8807/
AAXX 28121 57598 32960 80000 10082 20016 40271 52003 8807/
AAXX 28121 57655 32960 80201 10087 21035 40269 52008 8807/
AAXX 28121 57713 NIL
AAXX 28121 57776 32570 81403 10036 21044 40264 57001 885//
AAXX 28121 58321 31940 02901 10050 20020 40303 52023 71000
AAXX 28121 58437 32980 22703 11001 21093 38198 52007 82040
AAXX 28121 58445 NIL
AAXX 28121 58556 31656 83604 10109 20054 40269 52006 70500 885//
AAXX 28121 58569 32475 83604 10102 20062 40271 52006 8117/
AAXX 28121 58646 32660 80000 10118 20083 40255 52008 885//
AAXX 28121 58653 NIL
AAXX 28121 58660 NIL
AAXX 28121 58715 31956 83202 10090 21003 40269 52004 70500 8807/
AAXX 28121 58730 32765 83601 10122 20058 40253 57002 885//
AAXX 28121 58731 32965 83601 10113 20060 40258 52015 8807/
AAXX 28121 58754 32564 73401 10132 20095 40258 52011 875//
AAXX 28121 58911 32768 82501 10138 20073 40240 52007 885//
AAXX 28121 58931 32970 72902 10074 20044 38404 52005 87030
AAXX 28121 59254 32760 70000 10164 20089 40216 52002 875//
AAXX 28121 59632 31758 73602 10164 20048 40213 52005 70500 875//
AAXX 28121 59855 32570 30402 10200 20166 40198 52009 83100
BBXX 46004 28121 99509 71361 46/// /2416 10076 49815 52010 22200 00074 11013 70063 333 91220
AAXX 28124 67017 NIL
AAXX 28124 67020 31580 73406 10326 20233 30060 40087 57019 71522 83976 333 0//00 83720 81920 85273 94971 94975 95831 95835 555 81640 81460
AAXX 28124 67023 32582 61418 10310 20245 30080 40086 56013 83902 333 0//00 83820 81920 86073 94973 94974 94976 95833 95834 95836 555 81633
AAXX 28124 67037 31581 6//// 10/// 20/// 30051 40092 5/012 72990 84903 333 0//00 81820 81920 84640 94962 94964 95872 95874 555 82073
AAXX 28124 67067 31570 5//// 10268 20178 39236 48/// 57014 71511 84902 333 0//00 82823 81923 94951 94952 94953 95832 555 82630
AAXX 28124 67107 NIL
AAXX 28124 67131 32582 33410 10/// 20/// 30071 40076 57024 81802 333 0//00 81823 555 81640 83073
AAXX 28124 40435 32960 01510 10190 21030 39146 40180 333 59004
BBXX 44059 28121 99368 70763 46/// /2904 1//// 91220 333 91209
BBXX 44059 28121 99368 70763 46/// /2904 1//// 40067 91210 333 91207
BBXX 44059 28121 99368 70763 46/// /2904 10068 40065 53031 91200 22200 00104 333 91208
BBXX 44057 28121 99395 70761 46/// /2704 1//// 91220 333 91206
BBXX 44057 28121 99395 70761 46/// /2704 1//// 40025 91210 333 91204
BBXX 44057 28121 99395 70761 46/// /2703 10050 40024 51021 91200 22200 00051 333 91204
BBXX 44058 28121 99376 70763 46/// /3007 1//// 91210 333 91209
BBXX 44058 28121 99376 70763 46/// /2907 10071 40062 53028 91200 22200 00088 10201 70003 333 91210
AAXX 28124 71011 16/// ///// 11045 21127 60001 333 10043 21086 70000
AAXX 28124 71555 16/// /2628 10049 21048 38434 49963 58034 60001 333 10051 21012 70000
AAXX 28124 71359 16/// /0000 11107 21135 60001 333 10000 21107 70000
AAXX 28124 71954 46/// /1302 11126 21137 39633 40016 58012 6///1 333 11128 21150 7////
AAXX 28124 71888 16/// ///// 11082 21121 60001 333 10036 21114 70000
AAXX 28124 71895 16/// ///// 11062 21102 60001 333 10030 21124 70000
AAXX 28124 71405 16/// ///// 11077 21114 60001 333 10039 21118 70000
AAXX 28124 71417 16/// /1305 10000 21008 30115 40150 58001 60001 333 10046 20000 70000
AAXX 28124 71426 46/// /0519 10009 6///1 333 10015 21010 7////
AAXX 28124 71500 16/// /1206 11037 21141 60001 333 10031 21075 70000
AAXX 28124 71504 16/// ///// 11048 21097 60001 333 10025 21122 70000
AAXX 28124 71541 16/// /1606 11071 21120 60001 333 10003 21105 70000
AAXX 28124 71543 16/// /0302 11073 21109 60001 333 10003 21161 70000
AAXX 28124 71546 16/// /1705 11052 21103 60001 333 10023 21080 70000
AAXX 28124 71547 16/// /1301 11070 21111 60001 333 10012 21090 70004
AAXX 28124 71549 16/// ///// 11066 21135 60001 333 21107 7////
AAXX 28124 71067 17/// ///// 11065 21142 69941 7//4/ 333 10021 21124 70004
AAXX 28124 71788 16/// /1916 10038 21020 60001 333 10076 20009 70000
AAXX 28124 71792 17/// ///// 11058 21108 60011 7//4/ 333 10040 21128 70015
AAXX 28124 71221 16/// /0102 11096 21119 60001 333 10002 21130 70004
AAXX 28124 71226 47/// /1505 11057 21117 6///1 7//4/ 333 10023 7////
AAXX 28124 71229 46/// /1903 11122 21136 6///1 333 10006 21163 4/003 7////
AAXX 28124 71817 12674 80000 11033 21057 30143 40156 52008 60001 885// 333 42014 70000
AAXX 28124 71283 17/// /1401 11085 21121 69951 7//4/ 333 10007 21131 70005
AAXX 28124 71461 16/// /1605 11062 21108 60001 333 10021 21102 70000
AAXX 28124 71468 16/// /1505 11177 21190 39859 40197 56011 60001 333 21183 7////
AAXX 28124 71483 16/// ///// 11078 21110 60001 333 10019 21106 70000
AAXX 28124 71673 16/// ///// 11065 21112 60001 333 10027 21134 70000
AAXX 28124 71690 16/// ///// 11073 21105 60001 333 10000 21127 70000
AAXX 28124 67002 11580 61004 10300 20243 30084 40117 69901 71562 86802 333 0//12 58008 82822 85630 92408
AAXX 28124 67009 31570 70000 10295 20246 39974 40093 57016 71722 879// 333 0//00 87820 81920 94974 94976 95814 95816 555 10322
AAXX 28124 67012 32582 52412 10312 20253 30089 40100 56013 83232 333 0//00 83820 555 81360 82075
AAXX 28124 67025 11460 91406 10255 20245 30000 40099 57002 60011 72162 889// 333 0//21 83710 85817 94979 95879 555 82633
AAXX 28124 67027 31570 63214 10306 20247 30076 40097 56012 71792 83932 333 0//00 83820 81920 83360 94963 95873 555 82640 67045 NIL
AAXX 28124 67072 32481 31604 10292 20239 30118 40121 57011 83800 333 0//00 82817 92418 555 82640
AAXX 28124 67073 31580 4//// 10320 20237 30070 40096 57015 71500 82933 333 0//00 81920 82820 94961 94963 95833 555 81633 81360 81073
AAXX 28124 67083 11565 70602 10240 20191 38730 48505 57014 60011 72162 84933 333 0//51 82820 83920 83360 94979 95839=1.3 67095 31470 70402 10292 20234 30109 40116 57014 71522 8683/ 333 0//00 82917 84817 84633 94966/7 95836/7 555 82360
AAXX 28124 67113 NIL
AAXX 28124 67117 NIL
AAXX 28124 67137 32580 7//08 10258 20180 38876 48483 56017 86903 333 0//00 81920 86820 94994 94998 95834 95818 555 10286 82073
AAXX 28124 67143 32582 1//// 10/// 20/// 30112 40119 57016 81200 333 0//00 81820 92438
AAXX 28124 67152 32580 4//// 10325 20173 39171 48489 57022 83302 333 0//00 83820 81920 94992 94996 95876 555 82073
AAXX 28124 67157 32581 1//// 10/// 20/// 30120 40126 57020 81800 333 0//00 81820 555 81640
AAXX 28124 67161 32582 2//04 10320 20260 30071 40080 57015 82900 333 0//00 81920 82820 94992 95832
AAXX 28124 67197 32582 50819 10287 20229 30087 40097 57018 83302 333 0//00 82820 82920 84073 94967 95837 555 82633
AAXX 28124 71817 12674 80000 11033 21057 30143 40156 52008 60001 885// 333 42014 70000
BBXX 46146 28121 99493 71237 46/// /0907 10089 40039 52019 22200 00071 10301 70005 333 91209
BBXX 46092 28121 99368 71220 46/// /0704 10105 40271 54000 91157 22200 00120 555 11046 22046
BBXX 46146 28121 99493 71237 46/// /0907 10089 40039 52019 22200 00071 10301 70005 333 91209
BBXX 46232 28121 99325 71174 46/// ///// 1//// 91208 22200 00142 11403 21002 327// 41402 70015
BBXX 46246 28121 99500 71451 46/// ///// 1//// 91229 22200 00069 10909 20908 323// 41105 70045
BBXX 46246 28121 99500 71451 46/// ///// 1//// 91159 22200 00069 11109 20908 323// 41105 70047
AAXX 28121 56144 32980 00000 11005 21168 36848 52015 333 00000
AAXX 28121 56152 32680 32201 11049 21187 36300 52012 81402 333 00001
AAXX 28121 56167 32980 00000 10004 21156 37066 52021 333 05101
AAXX 28121 56182 32980 22002 10020 21134 37179 52022 80002 333 05200
AAXX 28121 56357 32980 02202 11008 21204 36441 52009 333 05101
AAXX 28121 56586 32960 00203 10009 21012 38045 52013 333 05201
AAXX 28121 56748 32580 72502 10143 20074 38365 52006 87400 333 00002
AAXX 28121 56763 32680 31404 10187 20069 40116 52008 82402 333 00000
AAXX 28121 56768 32680 71101 10112 20079 38195 52006 874// 333 00001
AAXX 28121 56838 11665 81601 10181 20142 40173 52009 69901 70080 888// 333 00100
AAXX 28121 56886 32765 72203 10118 20075 38306 52007 87400 333 05103
AAXX 28121 56946 11465 81401 10157 20149 40180 52007 69901 78080 884// 333 00151
AAXX 28121 56959 32762 83601 10165 20143 40192 52009 884// 333 00000
AAXX 28121 56969 32760 80000 10168 20141 40190 52007 885// 333 05151
AAXX 28121 57731 32662 80000 10074 20010 40260 52001 885// 333 05202
AAXX 28121 57766 32760 80901 10080 21018 40267 52004 885//
AAXX 28121 57845 32762 83201 10067 20004 40256 52001 885//
AAXX 28121 57853 31956 80202 10074 20004 40267 52008 70500 8807/
AAXX 28121 57916 11665 80000 10115 20054 40217 54000 69901 70060 885// 333 05151
AAXX 28121 57922 32663 81802 10065 20016 40241 52001 885// 333 05251
AAXX 28121 57932 32668 82002 10098 20007 40248 52003 885// 333 05151
AAXX 28121 58338 32961 00000 10063 20024 40280 52015
AAXX 28121 59007 32665 80000 10103 20049 40203 54000 885//
AAXX 28121 59046 11756 80202 10117 20066 40235 52003 69901 72100 885//
AAXX 28121 59058 11856 83203 10136 20016 40230 52005 69901 76000 885//
AAXX 28121 59072 31758 80202 10137 20020 40234 52002 70500 885//
AAXX 28121 59087 32760 70701 10167 20059 40217 52007 875//
AAXX 28121 59209 32462 82202 10126 20073 40206 52003 888//
AAXX 28124 81250 16/// ///// 10230 40158 52020 60034
BBXX 44039 28121 99411 70727 46/// /2511 10083 20039 49965 91153 22200 00087 10503 70013 333 91215
BBXX 44098 28121 99428 70702 46/// ///// 1//// 91207 22200 00085 10907 20906 310// 41103 70035
AAXX 28124 81250 16/// ///// 10230 40158 52020 60034
BBXX 44062 28121 99386 70764 46/// /2907 1//// 91220 22200 00083 333 91209
BBXX 44062 28121 99386 70764 46/// /2908 1//// 40037 91210 22200 00083 333 91210
BBXX 44062 28121 99386 70764 46/// /2908 10063 40036 53024 91200 22200 00083 10201 70005 333 91209
BBXX 44063 28121 99390 70764 46/// /2805 1//// 91220 333 91207
BBXX 44063 28121 99390 70764 46/// /2806 1//// 40063 91210 333 91207
BBXX 44063 28121 99390 70764 46/// /2806 10060 40062 51027 91200 22200 00077 1//00 70001 333 91208
BBXX 44041 28121 99372 70768 46/// /2806 1//// 91220 333 91207
BBXX 44041 28121 99372 70768 46/// /2906 1//// 40094 91210 333 91209
BBXX 44041 28121 99372 70768 46/// /2806 10064 40092 51030 91200 22200 00089 1//00 70002 333 91208
BBXX 44042 28121 99380 70763 46/// /2808 1//// 91220 333 91209
BBXX 44042 28121 99380 70763 46/// /2808 1//// 40056 91210 333 91210
BBXX 44042 28121 99380 70763 46/// /2808 10068 40055 51027 91200 22200 00086 10201 70005 333 91209
BBXX 44043 28121 99392 70764 46/// /2809 1//// 91220 333 91210
BBXX 44043 28121 99392 70764 46/// /2908 1//// 40030 91210 333 91210
BBXX 44043 28121 99392 70764 46/// /2908 10065 40030 51023 91200 22200 00066 10201 70004 333 91210
BBXX 41010 28121 99289 70785 46/// /3212 10174 40178 91220 22200 00236 333 91216 555 11129 22136
BBXX 41009 28121 99285 70802 46/// /3311 10145 20091 40201 91220 22200 00239 10604 20604 70022 333 91214 555 11111 22115
BBXX 42362 28121 99278 70907 46/// /0706 10156 20061 40231 91230
BBXX 42363 28121 99282 70892 46/// /0507 10144 20050 40231 91230 333 91207
BBXX 42364 28121 99291 70881 46/// /0402 10133 20044 40227 91230
BBXX 42361 28121 99276 70925 46/// ///04 10161 20083 40217 55000 91230 555 11029 22031
BBXX 44100 28121 99363 70756 46/// ///// 1//// 91222 22200 00124 11103 20403 313// 41101 70015
BBXX 41110 28121 99341 70777 46/// ///// 1//// 91221 22200 00135 10902 20902 70011
BBXX 42099 28121 99273 70842 46/// ///// 1//// 91227 22200 00226 10804 20804 70019
BBXX 41113 28121 99284 70805 46/// ///// 1//// 91221 22200 00219 10601 20601 70006
BBXX 41112 28121 99307 70813 46/// ///// 1//// 91221 22200 00165 10301 20301 70007
BBXX 44258 28121 99445 70634 46/// /1312 10072 40044 57052 22200 00059 11105 70023 333 91214
BBXX 42013 28121 99272 70829 46/// ///// 1//// 40212 91140
AAXX 28121 31300 31915 00000 11304 21315 30053 40382 52005 71000 333 11258
AAXX 28124 96009 32456 60809 10276 20243 30054 40090 52015 83922 333 56000 57903 59018 81917 82617 80965
AAXX 28124 96011 32560 60000 10280 20239 30074 40100 52014 83532 333 10326 56000 59001 83620
AAXX 28124 96035 31557 60306 10278 20235 30068 40106 52018 70522 83536 333 10321 56000 59020 83620
AAXX 28124 96073 31450 70000 10276 20246 30085 40097 51017 70522 83972 333 10324 56000 57901 58008 83915 80959
AAXX 28124 96091 01457 83505 10256 20242 30090 40113 53014 69921 70262 85871 333 10280 56800 57883 58004 69927 85613 87080 80860
AAXX 28124 96109 11457 70000 10274 20245 30055 40094 53012 69921 70162 82522 333 56000 57804 59002 69927 81816 84460 80833
AAXX 28124 96145 01440 83510 10256 20232 30096 40099 53010 69901 70562 8652/ 333 10276 56809 59010 69907 86615 88460
AAXX 28124 96147 NIL
AAXX 28124 96163 32560 50000 10282 20249 30100 40102 52012 81521 333 56000 58008 81625 83462
AAXX 28124 96179 01458 70000 10258 20246 30070 40107 52007 60021 76062 85218 333 10284 56700 57872 58003 69987 85817 80850
AAXX 28124 96195 32458 70205 10271 20237 30076 40112 52019 82521 333 10305 56000 58002 82615
AAXX 28124 96221 11460 70000 10279 20252 30087 40102 52019 60031 70262 82136 333 10306 56999 58000 82815
AAXX 28124 96237 01457 80000 10255 20247 30063 40105 52016 60041 72162 84278 333 10293 56000 57802 58006 84816 86460 87280 80858
AAXX 28124 96249 01458 80000 10248 20245 30042 40103 52014 60201 72162 84978 333 10290 56700 57971 57871 58004 60127 81917 83820 80981
AAXX 28124 96253 31420 60406 10261 20223 30065 40085 52018 71422 83972 333 10328 56000 57900 57800 81915 82820 83460
AAXX 28124 96295 01450 82105 10240 20232 30009 40111 51026 60331 79196 8592/ 333 10320 56009 57900 58013 60337 84912 80900
AAXX 28124 96509 12458 80000 10256 20248 30095 40106 53017 69941 85278 333 10278 56000 57801 58002 85815 80865
AAXX 28124 96581 01456 82403 10261 20250 30087 40094 52022 60051 72162 8517/ 333 10311 56609 58002 60057 85810 88462 80856
AAXX 28124 96633 01457 82306 10251 20243 30090 40098 52018 60431 76166 8492/ 333 10317 56009 57900 58010 60147 81915 83615 88458 809//
AAXX 28124 96645 01420 80000 10248 20246 30073 40105 52017 60031 76166 86972 333 10310 56000 57902 58011 60027 81912 86612 80982
AAXX 28124 96655 01450 80000 10239 20234 30093 40128 52020 60141 76162 86272 333 10320 56000 57802 60017 82810 84610 86462 80864
AAXX 28124 96685 01456 80000 10240 20237 30090 40114 52018 60211 76166 8362/ 333 10276 56009 58016 60177 86610 88462
AAXX 28124 96749 32561 63105 10282 20243 30098 40112 51028 81532 333 10326 56000 58010 81625 85363
AAXX 28124 96781 NIL
AAXX 28124 96805 32558 72605 10288 20248 30103 40112 51017 83271 333 10326 56000 57801 58013 83820 80858
AAXX 28124 96839 11450 60000 10274 20242 30095 40102 52018 69921 72996 83572 333 10318 56000 58006 83620
AAXX 28124 96935 NIL
AAXX 28124 97008 32459 60000 10268 20254 30079 40089 52010 83272 333 10294 56000 57801 59003 83818 85460 80860
AAXX 28124 97016 NIL
AAXX 28124 97126 01456 80000 10260 20248 30042 40103 52019 60011 72162 8392/ 333 10302 56009 57900 59001 60017 81916 82616 88460 80980
AAXX 28124 97142 NIL
AAXX 28124 97182 01460 73010 10273 20252 30095 40099 52020 60021 76162 8422/ 333 10298 56009 57800 58007 60027 84818 86460 808//
AAXX 28124 97240 01457 63307 10260 20250 39985 40100 52012 69981 70562 83131 333 10308 56000 69987 58014 83816
AAXX 28124 97284 01440 60000 10194 20181 38869 40107 52015 60041 71596 84271 333 10254 56000 57802 58010 69957 84812 80837
AAXX 28124 97310 31456 70000 10260 20249 30066 40078 52004 71322 84921 333 10328 56000 57902 58002 81918 84618 85460 80940 80840
AAXX 28124 97320 NIL
AAXX 28124 97378 32560 50000 10274 20260 39904 40067 56001 82101 333 10332 56000 59022 82820
AAXX 28124 97380 32558 10000 10290 20261 30067 40087 52019 81101 333 10331 56000 58013 81820
AAXX 28124 97406 01440 80000 10238 20238 30063 40088 52012 60371 79596 85372 333 10300 56000 57901 57801 58000 60287 82917 83816 86460 80980 80860
AAXX 28124 97570 31458 70000 10258 20249 30075 40082 52016 70542 86802 333 10316 56000 58000 82815 84616
AAXX 28124 97630 11420 70103 10248 20239 39932 40092 51018 69901 71562 84972 333 10286 56600 57962 58002 83810 81911 86360 80974
AAXX 28124 97682 32458 61303 10266 20252 30077 40085 52022 83872 333 10306 56000 57802 58006 83815 86361 80856
AAXX 28124 97698 NIL
AAXX 28124 97700 01450 80000 10250 20232 30074 40088 52008 60061 71562 8487/ 333 10310 56009 57804 57603 58009 69957 81816 83617 85458 80840 80650
AAXX 28124 97722 01462 40000 10249 20240 30088 40103 52024 60011 70162 84842 333 10330 56600 57862 58021 60017 83619 80857
AAXX 28124 97780 NIL
AAXX 28124 97790 32560 52815 10281 20236 30036 40057 52011 81132 333 10313 56600 57862 58001 81820 84358 80858
AAXX 28124 97014 01458 71204 10238 20228 30027 40120 52022 60041 76162 85271 333 10297 56700 57871 58005 60047 85816 80860
AAXX 28124 97028 01560 80902 10260 20245 30084 40090 53008 69901 72162 84221 333 10272 56000 57802 58002 69907 84819 87460 80860
AAXX 28124 97048 12458 70000 10251 20238 30065 40089 51008 69907 84972 333 10316 56000 57981 57881 59001 81917 83817 80980 80860
AAXX 28124 97072 32558 63304 10274 20230 30004 40104 57007 82571 333 10306 56000 58036 82620 84360
AAXX 28124 97086 01458 72502 10252 20235 30078 40102 51014 69941 71562 83570 333 10316 56000 58018 69947 83617 86460
AAXX 28124 97096 22460 80000 10260 20245 30089 40110 52017 8423/ 333 10302 56009 57803 58007 60067 84816 88460 80860
AAXX 28124 97120 01458 70000 10246 20240 30069 40102 52016 60031 76062 84870 333 10302 56000 57801 58002 69917 82818 86460 80860
AAXX 28124 97146 NIL
AAXX 28124 97180 32457 70503 10268 20265 30088 40106 51019 84272 333 10292 56000 58006 84819 84359
AAXX 28124 97192 01430 80803 10270 20256 30056 40113 52022 69981 71562 8641/ 333 10320 56209 58014 69987 86615 88460
AAXX 28124 97230 31460 82916 10272 20239 30088 40095 52016 70292 85532 333 10294 56600 58015 85617 83360
AAXX 28124 97260 32560 70000 10291 20265 30075 40082 52020 82511 333 10325 56000 58015 83620
AAXX 28124 97270 01440 70000 10250 20244 30082 40086 51006 60091 72196 86921 333 10350 56000 57901 58013 60057 81913 83817 86460 80973
AAXX 28124 97300 32560 60000 10288 20256 30047 52005 83271 333 10320 56000 57801 58002 83820 80858
AAXX 28124 97340 11560 82503 10276 20253 30074 40088 52016 60011 70296 82232 333 10338 56000 58009 82820 87080
AAXX 28124 97372 11458 60000 10261 20253 39963 40083 52013 60021 70196 83131 333 10304 56000 58002 83818
AAXX 28124 97430 01458 73004 10254 20239 30071 40101 52018 60011 76062 84932 333 10284 56700 57971 59003 60017 81915 83818 80980 80860
AAXX 28124 97460 01458 70000 10252 20232 30075 40089 52016 60031 71462 84372 333 10310 56000 57901 58004 60037 81917 83818 80959 80858
AAXX 28124 97502 01450 70000 10262 20254 30086 40090 52018 60011 76162 84432 333 10307 56000 59005 60017 84610
AAXX 28124 97530 NIL
AAXX 28124 97560 32460 70506 10268 20241 30075 40090 52013 83837 333 10306 56000 57802 58001 83818 83360 85279 80860
AAXX 28124 97580 32460 60000 10256 20250 30089 40096 52017 81271 333 10324 56000 57802 59001 81813 84360 80860
AAXX 28124 97600 NIL
AAXX 28124 97686 31450 81605 10190 20170 37348 40073 52026 71522 86847 333 10280 56000 57800 59007 84811 87361 80856
AAXX 28124 97690 32450 33104 10268 20241 39980 40081 52024 82831 333 10324 56000 57800 59003 81816
AAXX 28124 97724 01456 81005 10264 20228 30073 40089 52011 60041 76166 84872 333 10302 56700 57871 58006 69967 82815 85458 80856
AAXX 28124 97748 01456 82921 10280 20263 30054 40056 51001 60021 71662 8597/ 333 10340 56600 57960 59001 60027 83913 85458 80940
AAXX 28124 97760 12457 73104 10284 20254 30082 40092 52023 60041 83232 333 10315 56000 57801 58007 83816 80860
AAXX 28124 97796 01450 80000 10246 20243 30034 40085 52008 60331 72196 8697/ 333 56009 57900 59006 60037 82911 86612 80980
AAXX 28124 97810 32458 73009 10284 20253 30063 40072 52022 83232 333 10304 56700 57871 58004 83819 80850
AAXX 28124 97876 NIL
AAXX 28124 97900 11460 82807 10276 20265 30041 40070 52012 60371 70296 8392/ 333 10316 56609 57961 58003 82917 88460 80975
AAXX 28124 97980 11460 60000 10268 20257 30054 40061 52019 60011 70262 85832 333 10330 56000 59005 82817 83618
AAXX 28124 96001 31556 71011 10270 20256 39955 40103 52005 70522 84272 333 10302 56200 57822 59012 84820 80860
AAXX 28124 96015 NIL
AAXX 28124 96033 31457 50000 10282 20235 30103 40109 52014 70521 82926 333 10304 56000 57903 59013 81920 82617 80980
AAXX 28124 96075 31456 60000 10267 20257 30092 40097 52016 70522 83521 333 56000 58006 83617
AAXX 28124 96087 01458 80106 10260 20236 30075 40108 51016 69921 70262 84578 333 10284 56800 59005 69927 84615 84460 87280
AAXX 28124 96171 32456 70000 10280 20251 30076 40100 53013 83522 333 10292 56000 59002 83616 85458
AAXX 28124 96207 31440 70000 10229 20196 39235 40157 57003 70522 84531 333 10286 56000 84615
AAXX 28124 96525 11457 82803 10251 20241 30101 40108 52020 60011 70262 82976 333 10261 56000 57900 58001 82915 85460 809//
AAXX 28124 96529 32457 60000 10258 20246 30087 40111 51007 83131 333 10272 56000 59003 83818
AAXX 28124 96535 01456 80201 10250 20240 30077 40098 52016 60011 72162 8422/ 333 10264 56009 57803 59006 69967 84814 88460 80864
AAXX 28124 96557 01420 80000 10243 20238 30041 40090 52033 60151 76166 8592/ 333 10311 56609 57960 57860 59002 60147 82912 83813 88460 80980 80857
AAXX 28124 96559 01310 82706 10240 20231 30055 40092 52032 60111 76262 8692/ 333 10320 56609 57964 57863 58007 60117 81913 85808 88460 80972 80847
AAXX 28124 96565 31456 70000 10280 20263 30036 40088 52015 70522 83221 333 10322 56000 57802 59017 83810 84457 80850
AAXX 28124 96595 01230 80000 10236 20231 30073 40125 52028 60131 76162 8797/ 333 10332 56009 57900 58023 60087 81914 86706
AAXX 28124 96607 01440 82005 10240 30105 40120 52038 60211 79596 8592/ 333 10318 56009 58015 60217 81913 84812 88458 809//
AAXX 28124 96615 NIL
AAXX 28124 96695 01458 81802 10257 20242 30095 40101 51015 69911 76022 8622/ 333 10312 56000 57802 58016 69917 84817 80860
AAXX 28124 96737 32458 60000 10294 20242 30066 40096 53021 84221 333 10336 56000 58005 84615
AAXX 28124 96739 32456 72703 10287 20237 30061 40110 52021 85822 333 10334 56000 59004 81817 84620
AAXX 28124 96741 32556 73204 10292 20253 30093 40097 52024 83570 333 10324 56000 58005 83622 85360
AAXX 28124 96745 32556 70000 10299 20249 30103 40108 52027 83571 333 10330 56000 58009 83620 86460
AAXX 28124 96751 32550 71502 10227 20184 39037 48920 53000 86220 333 10267 56500 57851 59006 83820 83620 80880
AAXX 28124 96791 01456 82704 10244 20232 30059 40133 52038 60101 79196 8552/ 333 10328 56009 58008 60107 85617 88460
AAXX 28124 96797 01456 82404 10261 20247 30106 40111 52021 60051 76162 8597/ 333 10312 56009 57901 58010 60027 81918 84618 80980
AAXX 28124 96837 11557 70000 10276 20246 30096 40099 52016 69921 70262 84272 333 10305 56000 57800 58003 84823
AAXX 28124 96925 01460 82511 10272 20249 30098 40103 51019 60011 76262 85272 333 10292 56600 57860 58016 60017 85817 80860
AAXX 28124 96933 11460 62904 10288 20248 30093 40096 52020 69951 70162 82511 333 10342 56600 58011 69957 82619 84460
AAXX 28124 96937 01558 63404 10290 20245 30093 40098 53017 69911 70162 84821 333 10350 56000 58007 69917 83818 85460
AAXX 28124 96973 32458 83204 10284 20255 30086 40091 52014 84971 333 10314 56000 57901 58010 81919 83820 80976 80856
AAXX 28124 96987 01456 71207 10248 20238 30041 40101 52019 60041 76022 85928 333 10316 56400 57942 58019 60047 81918 84618 80980
BBXX 44140 28121 99429 70515 46/// /0014 10121 40078 5//// 22200 00084 11007 70036 333 91218
AAXX 28124 64700 31958 30804 10329 20008 39767 40101 70600 80002 333 0//00 59017 83075
AAXX 28124 64701 NIL
AAXX 28124 64702 NIL
AAXX 28124 64705 32960 00000 10365 20094 3//// 4//// 333 0//00 5////
AAXX 28124 64706 NIL
AAXX 28124 64708 NIL
AAXX 28124 64709 32960 23606 10233 21022 3//// 4//// 80002 91150 333 0//00 5//// 82075
AAXX 28124 64710 32960 50000 10340 20065 3//// 4//// 80002 91150 333 0//00 5//// 85075
AAXX 28124 64713 NIL
AAXX 28124 64722 32958 10000 10360 20056 3//// 4//// 80002 91150 333 0//00 5//// 81075
AAXX 28124 64750 32965 63604 10365 20070 39679 40082 80002 91157 333 0//00 59009 86075
AAXX 28124 64751 32960 23604 10355 21006 3//// 4//// 80002 333 0//00 5//// 82075
AAXX 28124 64753 32962 00406 10270 20040 3//// 4//// 333 0//00 5////
AAXX 28124 64754 31958 00406 10374 20030 3//// 4//// 70600 333 0//00 5////
AAXX 28124 64756 32962 40000 10370 20044 39485 4//// 80002 91150 333 0//00 59020 84075
AAXX 28124 64757 32965 00808 10330 20014 3//// 4//// 333 0//00 5////
AAXX 28124 64758 NIL
AAXX 28124 64761 NIL
BBXX 44140 28121 99429 70515 46/// /0014 10121 40078 5//// 22200 00084 11007 70036 333 91218
AAXX 28121 98134 31460 81007 10226 20186 39995 40187 52017 70242 8427/ 333 10236 56299 59015 84819 88357
AAXX 28121 98223 31462 20201 10268 20219 40126 53011 70141 81102 333 10328 56999 59016 81819
AAXX 28121 98232 31565 80404 10233 20216 40171 53007 71522 8457/ 333 10256 56999 58010 84620 88358
AAXX 28121 98325 31458 81603 10270 20243 40135 53015 70242 8357/ 333 10301 56999 59002 83616 88358
AAXX 28121 98328 31460 81103 10190 20175 38540 40123 53012 74044 8427/ 333 10246 56999 59008 84813 88358
AAXX 28121 98330 31470 50202 10269 20241 30104 40136 52015 70144 82206 333 10308 56999 59008 82818 85077
AAXX 28121 98336 31463 80205 10240 20232 30149 40154 51009 71522 8252/ 333 10276 56199 59021 82515 88457
AAXX 28121 98429 31560 21402 10271 20226 40134 52014 70544 82200 333 10306 56999 59001 82823
AAXX 28121 98430 31558 50000 10250 20222 40130 52016 70544 82101 333 10315 56999 59014 82820 83080
AAXX 28121 98431 31458 70901 10260 20238 30078 40125 51013 70242 83230 333 10290 56999 59021 83818 87359
AAXX 28121 98440 11462 80705 10268 20245 30131 40136 52008 69901 71584 8427/ 333 10289 56199 59009 84815 88358
AAXX 28121 98444 32465 20304 10270 20243 30119 40138 53032 82200 333 10319 56999 58000 82818
AAXX 28121 98526 32570 80404 10280 20244 40120 53022 81107 333 10/// 56999 59010 81820 88274
AAXX 28121 98531 31568 40202 10270 20215 30109 40113 53019 70544 81202 333 10329 56199 59004 81820 83075
AAXX 28121 98536 31465 80303 10253 20231 39926 40132 52007 70342 8327/ 333 10262 56199 58000 83818 88357
AAXX 28121 98543 32468 60000 10264 20243 30110 40121 53022 83201 333 10316 56999 59007 83818 84075
AAXX 28121 98550 32460 43601 10266 20235 40121 52017 81262 333 10313 56999 59004 81818 83074
AAXX 28121 98618 32470 50905 10275 20239 40115 53014 82268 333 10310 56299 59006 82819 85274
AAXX 28121 98630 32470 80203 10274 20253 40136 53010 83207 222// 2//02 333 10306 56199 59001 83818 88275
AAXX 28121 98637 NIL
AAXX 28121 98646 32560 43201 10266 20245 30113 40141 52016 81201 333 10292 56999 58004 81820 84080
AAXX 28121 98653 31465 40000 10277 20252 30061 40106 53011 70544 82208 333 10322 56999 58007 82818 83272
AAXX 28121 98741 31470 60000 10278 20249 40085 52011 70144 82208 333 10295 56199 59001 82817 86275
AAXX 28121 98747 31460 70000 10254 20238 39904 40110 53020 70544 82408 333 10302 56999 59007 82618 86274
AAXX 28121 98753 31468 63604 10277 20249 40111 52029 70544 82238 333 10314 56999 58004 82816 86279
AAXX 28121 98755 32575 30000 10264 20249 40114 51016 82201 333 10300 56999 58001 82820 83080
AAXX 28121 98836 NIL
BBXX KS088 28124 99267 70801 43/// /0702 10133 40198 22200 06238
BBXX KS098 28124 99446 71240 43/// /3021 10105 40165 22200 06000
BBXX KS094 28124 99159 70616 43/// /0809 10261 40193 22200 06264
BBXX KS007 28124 99267 70801 43/// ///// 10133 40158 22200
AAXX 28121 30054 32998 31801 11295 21326 30037 40308 57008 80001 333 11279
BBXX 46036 28121 99484 71339 46/// /2213 10093 49952 52010 22200 00081 11211 70056 333 91216
BBXX 46036 28121 99484 71339 46/// /2213 10093 49952 52010 22200 00081 11211 70056 333 91216
AAXX 28121 88900 46/// /2209 10031 21002 39984 49987 58009 333 10031 20018
AAXX 28124 63688 32580 60612 10236 20100 48/// 8593/ 333 59009 81924 85825
AAXX 28124 63708 32580 12008 10292 20178 48470 81200 333 59011 81829
AAXX 28124 63772 32580 40910 10309 20240 82930 333 81927
AAXX 28124 63820 12580 71004 10277 20256 40096 60031 8352/ 333 58022 83625 87459
AAXX 28124 63612 NIL
AAXX 28124 63661 NIL
AAXX 28124 63671 NIL
AAXX 28124 63695 NIL
AAXX 28124 63714 NIL
AAXX 28124 63723 NIL
AAXX 28124 63740 NIL
AAXX 28124 63793 NIL
AAXX 28123 63723 32682 30504 10358 20178 40071 83200 333 59005 83831
AAXX 28123 63793 11460 70507 10292 20224 40054 60011 70282 87942 333 58002 81918 87819
BBXX 46238 28121 99334 71195 46/// ///// 1//// 91220 22200 00138 11304 21002 329// 41303 70018
BBXX 46239 28121 99363 71221 46/// ///// 1//// 91221 22200 00123 11306 21003 330// 41305 70030
BBXX 64045 28124 99591 70117 46/// /3343 10054 20035 49930 53135 22200 00100 11019 70096 333 90710 91163
BBXX 62301 28124 99524 70047 46/// /2723 10080 20036 40188 51017 22200 00091 10607 70035 333 90710 91133
BBXX 63110 28124 99595 10015 47597 /2128 10077 20030 49880 57032 700// 22200 10810 70051
BBXX 63106 28124 99610 10017 46/// /2316 10060 49862 56036 22200
BBXX 63105 28124 99610 10017 47597 ///// 10065 20034 49862 56033 700// 22200
BBXX 62094 28124 99517 70067 46/// /2827 10082 20036 40228 52027 22200 00107 10707 70035
BBXX 62103 28124 99499 70029 46/99 /2931 10117 20076 40228 52002 22200 00120 10705 70024 333 90710 91142
AAXX 28124 83766 32597 40000 10248 20190 39490 40120 5//// 84200 333 20216
AAXX 28124 83836 21497 80903 10196 20188 39163 40127 51010 70362 886// 333 20184 60074
AAXX 28124 83881 22496 61402 10240 20197 39835 40112 53007 86800 333 20208 69984
AAXX 28124 83980 32597 11410 10213 20139 39906 40185 51011 81100 333 20154
AAXX 28124 83997 32497 31408 10234 20193 30186 40229 51016 83100 333 20156
AAXX 28124 82098 32497 60202 10272 20241 30124 40141 82230 333 20241 58006
AAXX 28124 82246 31596 81602 10255 20244 39937 40135 71022 8626/ 333 20217 58000
AAXX 28124 82445 21697 70000 10246 20234 30116 40168 70365 83570 333 20229 59007 60344
AAXX 28124 82460 22597 60505 10286 20233 30123 40152 86200 333 20248 58004 69934
AAXX 28124 82562 32598 70504 10269 20238 30045 40154 86520 333 20244 59005
AAXX 28124 82571 32497 50504 10269 20226 39974 40148 83230 333 20241 58010
AAXX 28124 82765 32598 63603 10274 20234 39941 40180 83420 333 20239 58005
AAXX 28124 82141 32698 60207 10285 20250 30134 40146 84270 333 20264 58005
AAXX 28124 82145 32598 53602 10292 20236 30100 40141 83230 333 20201 58001
AAXX 28124 82181 21497 70508 10256 20231 30025 40166 70265 81230 333 20244 59003 60054
AAXX 28124 82198 32495 83606 10283 20231 30086 40138 84536 333 20248 58001
AAXX 28124 82353 32496 83608 10250 20240 30030 40114 8672/ 333 20226 58006
AAXX 28124 82361 32497 80503 10263 20242 30122 40160 885// 333 20247 58004
AAXX 28124 82476 32595 50807 10277 20234 30031 40149 84800 333 20249 59006
AAXX 28124 82861 22597 61404 10274 20238 39948 40118 84240 333 20237 58000 69914
AAXX 28124 78318 11565 53504 10230 20177 30184 40188 53008 60021 70181 85800 333 10293 20220 32/// 56800 58009 70085 83820 555 13602
AAXX 28124 78325 11540 60206 10221 20179 30130 40188 52007 69941 70482 86800 333 10304 20214 31/// 55081 56800 58007 70152 81820 85621 555 13601
AAXX 28124 78333 12/10 10301 10195 20186 30174 40181 53005 60001 81240 333 10273 20188 30/// 56900 57834 58000 818//
AAXX 28124 78348 11550 10000 10195 20186 30129 40182 53004 60001 70500 81240 333 10287 20191 30/// 50324 56990 57816 59003 81822
AAXX 28124 78349 11540 13601 10170 20168 30074 40185 51003 60001 71000 81200 333 10301 20170 30/// 50264 56900 57815 59004 81820
AAXX 28124 78353 11560 10000 10197 20177 30164 40186 53014 60001 71000 81100 333 10287 20191 30/// 50044 56900 59005 81820
AAXX 28124 78360 11/60 10404 10217 20214 30171 40183 53001 60001 71000 81800 333 10288 20217 30/// 56900 57849 58005 818// 92023
AAXX 28124 78369 11568 12701 10206 20185 30171 40180 51007 60001 70500 81240 333 10292 20206 30/// 55084 56990 59005 81820 92011
AAXX 28121 23426 41956 80000 11125 21138 39857 49882 52005 77172 8802/
AAXX 28121 23625 41996 81202 11093 21105 39821 49855 52004 77172 8802/
AAXX 28121 28076 41597 81402 11086 21093 39867 49940 57016 70272 885//
AAXX 28121 28367 41984 81604 11032 21053 39759 49885 57021 70272 8807/
AAXX 28121 28382 41996 81306 11054 21064 39911 49982 57016 77173 8807/
AAXX 28121 28481 41997 81807 11037 21045 39885 49984 56016 73273 8807/
AAXX 28121 28491 41997 81604 11059 21081 39920 40031 57015 70272 8802/
AAXX 28121 28573 41497 81908 11026 21036 39872 49975 57013 73773 886// 333 88711 91013 91113
AAXX 28121 28593 41596 81706 11065 21093 39985 40085 57004 77173 8277/
AAXX 28121 28786 41996 81908 11046 21070 39911 40069 57006 73873 8802/ 333 91012 91113
AAXX 28121 28797 41594 81906 11063 21071 39938 40098 57004 78583 883// 333 88928 91012 91114
AAXX 28121 28799 41997 81904 11068 21088 39990 40138 57006 73673 87070
AAXX 28121 20046 41497 82801 11061 21069 39765 49796 52012 77172 885//
AAXX 28121 20069 31976 61907 11024 21053 39825 49837 52009 73632 86030 333 11023
AAXX 28121 20087 11897 82007 11119 21132 39886 49896 51003 69952 77173 8802/ 333 11079
AAXX 28121 20292 11394 82212 11143 21156 39952 49972 58005 69962 77173 8572/ 333 11108 91116
AAXX 28121 20353 46/// /1608 11036 21064 39816 49819 52007 333 91111
AAXX 28121 20667 41996 81610 11129 21149 39858 49865 58001 73873 8805/
AAXX 28121 20674 31494 71913 11156 21169 39884 49945 53007 73932 8555/ 333 11140 85611 91118
AAXX 28121 20744 41498 81309 11045 21068 39739 49756 52008 70273 8755/ 333 87619
AAXX 28121 20891 32998 71402 11229 21254 30053 40098 53001 86031 333 11215 91106
AAXX 28121 23022 41596 81913 11108 21128 39746 49806 54000 73883 885// 333 91016 91114
AAXX 28121 23032 41495 81606 11112 21125 39806 49836 53003 78683 889// 333 88912
AAXX 28121 23058 41396 81509 11170 21189 39957 49962 58002 78587 883// 333 88708 91113
AAXX 28121 23242 41396 81809 11130 21150 39912 49928 58003 78583 889// 333 88909 91112
AAXX 28121 23256 41498 81605 11182 21208 39956 49993 52005 77187 885// 333 88613
AAXX 28121 23330 41296 81703 11127 21140 39870 49891 52002 77172 8802/ 333 88503 93520
AAXX 28121 23445 41496 81407 11127 21147 39926 49952 52006 77172 8652/ 333 86619
AAXX 28121 23552 41496 81803 11143 21163 39978 40014 57001 77173 885// 333 88614
AAXX 28121 23631 41497 81604 11103 21116 39845 49886 52001 77172 885// 333 88612
AAXX 28121 23662 42998 81503 11170 21189 30035 40081 57007 8807/
AAXX 28121 23724 41998 81101 11096 21108 39775 49839 53002 77172 8802/
AAXX 28121 23734 41997 81002 11116 21129 39804 49898 57003 77172 8807/
AAXX 28121 23849 42596 71607 11133 21151 40002 57007 83530 333 83627
AAXX 28121 23867 41996 81503 11153 21173 30026 40102 57006 77173 8807/
AAXX 28121 23933 41496 81304 11100 21114 39876 49933 57013 77173 8651/ 333 86615
AAXX 28121 28064 41597 81505 11069 21081 39800 49891 57016 77072 885//
AAXX 28121 28275 41596 81404 11049 21062 39868 49927 57019 78583 8695/
AAXX 28121 28493 41996 81705 11070 21091 39976 40069 57010 77173 8801/
AAXX 28121 28698 41595 82204 11064 21068 39929 40086 57004 78687 889// 333 88920
BBXX 44099 28121 99369 70757 46/// ///// 1//// 91222 22200 00115 11103 21003 313// 41101 70017
BBXX 44060 28121 99413 70721 46/// ///12 10079 49948 91230 22200 00098 333 91214 555 11129 22139
BBXX 44022 28121 99409 70737 46/// ///07 10069 20014 49975 91230 22200 00084 333 91210 555 11082 22088
BBXX 44040 28121 99410 70736 46/// /2708 10072 20020 49980 91219 22200 10301 70005 333 91210 555 11093 22108
BBXX 51202 28121 99214 71577 46/// ///// 1//// 91209 22200 00240 11005 21004 308// 41102 70023
BBXX 46237 28121 99378 71226 46/// ///// 1//// 91210 22200 00106 11304 21002 326// 41303 70018
BBXX 46229 28121 99438 71246 46/// ///// 1//// 91221 22200 00097 11309 20807 327// 41306 70046
BBXX 46212 28121 99408 71243 46/// ///// 1//// 91212 22200 00101 11305 21003 329// 41304 70027
BBXX 46225 28121 99329 71174 46/// ///// 1//// 91214 22200 00148 11302 21001 327// 41301 70010
BBXX 46215 28121 99352 71209 46/// ///// 1//// 91208 22200 00126 11303 21002 327// 41302 70016
BBXX 46224 28121 99332 71175 46/// ///// 1//// 91206 22200 00143 11101 21001 326// 41101 70007
BBXX WDA2768 28124 99417 70874 43/// /2507 00/// 11036 21072 40167 52007 7//// 8//// 22200 0//// 2//// 3//// 4//// 5//// 6//// 81048 ICE /////
BBXX WCX9106 28123 99603 71465 41395 80613 11011 2//// 49830 57030 78677 88/// 22200 0//// 2//00 322// 4//01 5//// 6//// 8//// ICE /////
BBXX HZDD 28124 99216 10682 41296 80704 10235 20132 40145 54000 70522 826/7 22274 20201 336// 40301 5//// 80175
BBXX DANV 28124 99259 10352 41998 03520 10238 20134 40180 56015 7//00 80000 22234 04210 20103 30000 80173
BBXX TBWUK34 28123 99166 70185 41498 60522 10232 20160 40183 54000 70322 82464 22244 00250 20503 336// 40802 5//// 80188
BBXX VQIB9 28124 99266 30454 41/98 30324 10290 20232 40095 54000 70200 8/047 22254 2//// 309// 40503 5//// 80250
BBXX C6W2032 28123 99031 70072 41398 52114 10280 2016/ 40130 54000 7//66 85960 22264 00270 20302 32020 40304 50304 6//// 80200 ICE/////
BBXX UGSN 28121 99514 11409 42/97 /3412 11069 40270 52004 22200 00018 2////
BBXX UEYO 28121 99584 11499 42/98 /0506 11080 40227 54000 22253 01005 20301
BBXX UGOS 28121 99480 11453 41/98 /3612 10010 40159 52025 77072 22213 00006 20604 30400 40906
BBXX 52244 28121 99200 11452 46/// ///// 1//// 91208 22200 00267
BBXX 52248 28121 99135 11448 46/// ///// 1//// 91206 22200 00284
BBXX 52246 28121 99152 11457 46/// ///// 1//// 91208 22200 00281
BBXX 52245 28121 99181 11458 46/// ///// 1//// 91206 22200 00276
BBXX 52243 28121 99193 11666 46/// ///// 1//// 91154 22200 00269
BBXX ZCAS2 28123 99094 11275 41498 50412 10280 20237 40112 53002 70300 84160 22243 00291 21002 304// 41002 80250
BBXX 44058 28121 99376 70763 46/// /3007 1//// 91210 333 91209
BBXX 44057 28121 99395 70761 46/// /2704 1//// 40025 91210 333 91204
BBXX 44057 28121 99395 70761 46/// /2703 10050 40024 51021 91200 22200 00051 333 91204
BBXX 44057 28121 99395 70761 46/// /2704 1//// 91220 333 91206
BBXX 44059 28121 99368 70763 46/// /2904 1//// 40067 91210 333 91207
BBXX 44059 28121 99368 70763 46/// /2904 1//// 91220 333 91209
BBXX 46004 28121 99509 71361 46/// /2416 10076 49815 52010 22200 00074 11013 70063 333 91220
BBXX HZRX 28123 99246 70941 41997 02507 /// 10190 20145 40201 55003 70200 80000 22254 10150 20102 32525 40200 5//// 6//// 80100 ///// /////
BBXX 46184 28121 99539 71389 46/// /2505 10055 49683 52005 22200 00061 11109 70044 333 91207
BBXX 44040 28121 99410 70736 46/// /2708 10073 20023 49979 91215 22200 10301 70005 333 91211 555 11093 22108
BBXX 51172 28121 99284 71783 46/// ///// 1//// 91215 22200 00230
BBXX 51176 28121 99278 71758 46/// ///// 1//// 91203 22200 00237
BBXX 51173 28121 99260 71739 46/// ///// 1//// 91211 22200 00249
BBXX PHHD 28121 99344 70594 41598 62505 10190 20124 40192 58006 70222 8/1/1 22243 04190 2//04 320// 41006 80150
BBXX PENR 28124 99187 70558 41599 30817 10263 20197 40207 52010 70311 8/100 22254 06276 2//// 399// 4//// 80220
BBXX 46181 28121 99538 71288 46/// /0604 10004 49897 52014 22200 00029 10200 70001 333 91204
BBXX 46132 28121 99497 71279 46/// /2210 10093 49999 52021 22200 00086 10808 70041 333 91212
BBXX 46205 28121 99542 71343 46/// /1912 10076 49746 57001 22200 00072 11109 70045 333 91214
BBXX 46206 28121 99488 71260 46/// /2209 10098 40045 52017 22200 00078 11008 70042 333 91211
BBXX 46185 28121 99524 71298 46/// /2012 10082 49884 52012 22200 00072 11007 70036 333 91215
BBXX 44034 28121 99441 70681 46/30 /1711 10099 49900 56036 91204 22200 00080 10809 70047 333 91213 555 11141 22153
BBXX 44060 28121 99413 70721 46/// ///12 10080 49948 91215 22200 00098 333 91215 555 11134 22139
BBXX 44024 28121 99423 70659 46/12 /1616 10115 49963 57054 91204 22200 00082 10809 70043 333 91220 555 11205 22222
BBXX 44022 28121 99409 70737 46/// ///07 10069 20014 49975 91215 22200 00084 333 91210 555 11077 22077
BBXX 44033 28121 99441 70690 46/16 /1908 10095 49888 56025 91204 22200 00068 10804 70022 333 91210 555 11110 22122
BBXX 44030 28121 99432 70704 46/// /2107 1//// 49895 53005 91204 22200 00075 11107 70035 333 91208 555 11082 22087
BBXX 44029 28121 99425 70706 46/30 /2310 10088 49908 53009 91204 22200 00084 11105 70026 333 91212 555 11121 22130
BBXX WDE2719 28123 99607 71514 41/97 80905 11111 2//// 49880 5//// 771// 8//// 222// 01028 2//// 3//// 4//// 5//// 6//// 8//// ICE /////
BBXX 41036 28121 99342 70770 46/// ///// 10104 20029 40118 91220 22200 00173
BBXX WDF2960 28123 99220 71585 41498 30524 10239 20097 40195 56010 70210 838// 22243 0//// 20606 399// 41307 5//// 6//// 80156 ICE /////
BBXX DDBR2 28123 99279 70359 41498 31210 10215 20183 40285 51005 70188 83160 22264 04210 2//01 311// 4//03 5//// 80195
BBXX 62141 28123 99493 50591 41597 82937 10126 20122 40060 54000 70322 8/7// 22200 20706 330// 40803 5//// 80124
BBXX VQHO7 28124 99030 70419 41498 50726 10280 20237 40147 51015 70211 8418/ 22234 00277 29902 307// 4//06 5//// 80250
BBXX ZCBF3 28123 99450 50403 41596 81530 10165 20157 40178 52015 75866 8882/ 22224 20504 312// 40807 5//// 80160
BBXX 46036 28121 99484 71339 46/// /2213 10093 49952 52010 22200 00081 11211 70056 333 91216
BBXX KS007 28124 99267 70801 43/// ///// 10133 40158 22200
BBXX KS094 28124 99159 70616 43/// /0809 10261 40193 22200 06264
BBXX KS088 28124 99267 70801 43/// /0702 10133 40198 22200 06238
BBXX KS098 28124 99446 71240 43/// /3021 10105 40165 22200 06000
BBXX 44140 28121 99429 70515 46/// /0014 10121 40078 5//// 22200 00084 11007 70036 333 91218
BBXX WCX9106 28123 99603 71465 41395 80613 11011 2//// 49830 57030 78677 88/// 22200 0//// 2//00 322// 4//01 5//// 6//// 8//// ICE /////
BBXX 42013 28121 99272 70829 46/// ///// 1//// 40212 91140
BBXX 44258 28121 99445 70634 46/// /1312 10072 40044 57052 22200 00059 11105 70023 333 91214
BBXX 44042 28121 99380 70763 46/// /2808 1//// 91220 333 91209
BBXX 44041 28121 99372 70768 46/// /2806 10064 40092 51030 91200 22200 00089 1//00 70002 333 91208
BBXX 41113 28121 99284 70805 46/// ///// 1//// 91221 22200 00219 10601 20601 70006
BBXX 41112 28121 99307 70813 46/// ///// 1//// 91221 22200 00165 10301 20301 70007
BBXX 42099 28121 99273 70842 46/// ///// 1//// 91227 22200 00226 10804 20804 70019
BBXX 42364 28121 99291 70881 46/// /0402 10133 20044 40227 91230
BBXX 42361 28121 99276 70925 46/// ///04 10161 20083 40217 55000 91230 555 11029 22031
BBXX 44100 28121 99363 70756 46/// ///// 1//// 91222 22200 00124 11103 20403 313// 41101 70015
BBXX 41110 28121 99341 70777 46/// ///// 1//// 91221 22200 00135 10902 20902 70011
BBXX 42363 28121 99282 70892 46/// /0507 10144 20050 40231 91230 333 91207
BBXX 42362 28121 99278 70907 46/// /0706 10156 20061 40231 91230
BBXX 44043 28121 99392 70764 46/// /2908 10065 40030 51023 91200 22200 00066 10201 70004 333 91210
BBXX 41009 28121 99285 70802 46/// /3311 10145 20091 40201 91220 22200 00239 10604 20604 70022 333 91214 555 11111 22115
BBXX 44043 28121 99392 70764 46/// /2908 1//// 40030 91210 333 91210
BBXX 44042 28121 99380 70763 46/// /2808 10068 40055 51027 91200 22200 00086 10201 70005 333 91209
BBXX 41010 28121 99289 70785 46/// /3212 10174 40178 91220 22200 00236 333 91216 555 11129 22136
BBXX 44043 28121 99392 70764 46/// /2809 1//// 91220 333 91210
BBXX 44042 28121 99380 70763 46/// /2808 1//// 40056 91210 333 91210
BBXX 44063 28121 99390 70764 46/// /2806 10060 40062 51027 91200 22200 00077 1//00 70001 333 91208
BBXX 44063 28121 99390 70764 46/// /2805 1//// 91220 333 91207
BBXX 44063 28121 99390 70764 46/// /2806 1//// 40063 91210 333 91207
BBXX 44062 28121 99386 70764 46/// /2908 1//// 40037 91210 22200 00083 333 91210
BBXX 44041 28121 99372 70768 46/// /2806 1//// 91220 333 91207
BBXX 44062 28121 99386 70764 46/// /2908 10063 40036 53024 91200 22200 00083 10201 70005 333 91209
BBXX 44041 28121 99372 70768 46/// /2906 1//// 40094 91210 333 91209
BBXX 44062 28121 99386 70764 46/// /2907 1//// 91220 22200 00083 333 91209
BBXX 44098 28121 99428 70702 46/// ///// 1//// 91207 22200 00085 10907 20906 310// 41103 70035
BBXX 44039 28121 99411 70727 46/// /2511 10083 20039 49965 91153 22200 00087 10503 70013 333 91215
BBXX 46246 28121 99500 71451 46/// ///// 1//// 91159 22200 00069 11109 20908 323// 41105 70047
BBXX 46246 28121 99500 71451 46/// ///// 1//// 91229 22200 00069 10909 20908 323// 41105 70045
BBXX 46232 28121 99325 71174 46/// ///// 1//// 91208 22200 00142 11403 21002 327// 41402 70015
BBXX 46092 28121 99368 71220 46/// /0704 10105 40271 54000 91157 22200 00120 555 11046 22046
BBXX 46146 28121 99493 71237 46/// /0907 10089 40039 52019 22200 00071 10301 70005 333 91209
BBXX 44058 28121 99376 70763 46/// /2907 10071 40062 53028 91200 22200 00088 10201 70003 333 91210
BBXX 44059 28121 99368 70763 46/// /2904 10068 40065 53031 91200 22200 00104 333 91208
BBXX 51170 28121 99168 71695 46/// ///// 1//// 91148 22200 00253
BBXX 51171 28121 99064 71623 46/// ///// 1//// 91146 22200 00276
BBXX WC5932 28124 99444 70874 43/// /3518 00/// 11048 21094 40179 50012 7//// 8//// 22243 0//// 2//// 3//// 4//// 5//// 6//// 81062 ICE /////
BBXX WDA2768 28124 99417 70874 43/// /2507 00/// 11036 21072 40167 52007 7//// 8//// 22200 0//// 2//// 3//// 4//// 5//// 6//// 81048 ICE /////
BBXX MGSH7 28123 99558 10108 41797 82120 10060 20036 40134 57030 70222 8802/ 22273 20202 321// 40404 5//// 80050
BBXX 51179 28121 99143 51708 46/// ///// 1//// 91203 22200 00286
BBXX 51178 28121 99142 51695 46/// ///// 1//// 91201 22200 00285
BBXX A8MH2 28124 99248 31535 41598 61526 10260 20225 40050 52020 70322 8444/ 22244 29905 3//// 4//// 5//// 80235
BBXX 9HA2295 28123 99467 31690 41298 83407 10150 20113 40099 50004 70222 8/7// 22223 20201 300// 40000 5//// 80130
BBXX 51174 28121 99142 51697 46/// ///// 1//// 91155 22200 00285
BBXX 51169 28121 99004 51600 46/// ///// 1//// 91155 22200 00258
BBXX ZMFR 28124 99413 31748 43/// /0315 10182 20136 40135 57002 22200 00191
BBXX VNAH 28124 99383 31416 46/// /1807 10162 20105 30164 40188 52007 22200 04194 85129
BBXX V2OG2 28123 99154 30999 41498 41707 10269 20243 40108 53002 70211 84102 22273 20601 318// 40503 80250
BBXX C6FS9 28124 99322 31336 46/// /1529 10197 20172 30127 40163 52005 22200 04233 85181
BBXX VNSZ 28124 99387 31449 46/// /2118 10157 20111 30148 40174 52006 22235 04182 85130
BBXX 9HA2479 28124 99327 31531 46/// /1531 10207 20154 30084 40113 52021 22254 04231 85173
BBXX VROB 28124 99273 31532 46/// /1617 10233 20172 30070 40095 52020 22200 04248 85193
BBXX ZSAF 28124 99702 50026 41599 51212 11009 21073 49786 57006 70122 81506 22281 05012 20000 30000 40000 50000 ICE 68180
BBXX PDNN 28123 99488 70054 41297 73036 10112 20068 40280 50005 70282 86720 22213 20304 330// 40808 80089 90875
AAXX 28124 67771 42780 63003 10308 20176 3//// 48/// 85203 333 5//// 81945 85850
AAXX 28124 42309 31596 10000 10190 20145 40151 70500 81500 333 10284 58025
AAXX 28124 42314 31595 10000 10202 20120 40144 70520 81030 333 10278 58002 81360
AAXX 28124 42410 31595 10503 10232 20200 40136 70500 81500 333 10286 58010 81620
AAXX 28124 42415 32996 10000 10208 20158 40163 81030 333 10288 58012 81360
AAXX 28124 42492 31995 00000 10224 20150 40143 70500 333 10255 58014
AAXX 28124 42587 32996 00000 10228 20114 40136 333 10266 58017
AAXX 28124 42591 31995 00000 10220 20112 40149 70500 333 10249 58023
AAXX 28124 42623 31596 10000 10198 20107 39268 40137 70500 81800 333 10256 58007 81820
AAXX 28124 42701 31995 00000 10194 20110 39407 40138 70500 333 10256 58013
AAXX 28124 42724 31995 30000 10240 20193 40136 70522 82031 333 10291 58009 82360 83070
AAXX 28124 42798 31994 30000 10214 20104 40133 70400 82030 333 10271 58014 82360 83075
AAXX 28124 43333 21495 81410 10268 20251 40099 70562 8642/ 333 10302 56399 58007 6001/ 83616 84818 88458
AAXX 28124 91723 NIL
AAXX 28124 91964 36/// /0809 10217 20205 40212 57005
AAXX 28121 30385 32999 00000 11374 21389 39807 40426 57001 333 11333
BBXX 44137 28121 99423 70620 46/// /1611 10121 40101 57035 22200 00108 11107 70033 333 91214
BBXX JNCJ 28124 99340 11390 41296 81507 10090 20049 40220 58005 76062 887// 22232 00200 20202 307// 40203 80070
BBXX UEYO 28121 99584 11499 42/98 /0506 11080 40227 54000 22253 01005 20301
BBXX UGOS 28121 99480 11453 41/98 /3612 10010 40159 52025 77072 22213 00006 20604 30400 40906
BBXX UGSN 28121 99514 11409 42/97 /3412 11069 40270 52004 22200 00018 2////
BBXX 44137 28121 99423 70620 46/// /1611 10121 40101 57035 22200 00108 11107 70033 333 91214
AAXX 28121 31152 32997 41802 11407 21439 39959 40435 57009 80002 333 11385
AAXX 28121 31163 NIL
AAXX 28121 31285 32999 12001 11276 21314 30268 40258 54000 80009
AAXX 28121 31561 11996 80203 11121 21141 30248 40277 56009 69940 77372 8802/ 333 11121
AAXX 28121 31683 11496 80000 11094 21106 30167 40245 52003 60012 77172 887// 333 11083
AAXX 28121 32010 11598 73203 11114 21120 30221 40273 52003 69990 70282 84901 333 11027 84925 91005 91106
BBXX MINUK03 2812/ 99550 70015 46/// ///// 10083 40042 52053
AAXX 28124 71923 16/// ///13 11207 21224 39547 40003 56016 60001 333 11198 21233 70000
AAXX 28124 71592 16/// /0000 11303 21343 30024 40038 53007 60001 333 11266 21316 4/010 70000
AAXX 28124 71490 16/// /1013 11243 21264 39737 40072 57015 60001 333 11285 21321 4/009 70000
AAXX 28124 71963 16/// /0713 11218 21238 39575 49989 56013 60001 333 11237 21279 4/005 70000
AAXX 28124 71761 16/// ///// 11105 21131 60001 333 10014 21121 70000
AAXX 28124 71049 16/// /3009 11287 30056 40081 53001 60001 333 11275 21334 70000
BBXX 44138 28121 99443 70536 46/// /0309 10072 40153 57005 22200 00094 11107 70034 333 91210
BBXX 44138 28121 99443 70536 46/// /0309 10072 40153 57005 22200 00094 11107 70034 333 91210
AAXX 28124 42348 31995 01104 10188 20029 40161 70500 333 10218 58024
BBXX 46004 28121 99509 71361 46/// /2416 10076 49815 52010 22200 00074 11013 70063 333 91220
BBXX 46036 28121 99484 71339 46/// /2213 10093 49952 52010 22200 00081 11211 70056 333 91216
BBXX 46181 28121 99538 71288 46/// /0604 10004 49897 52014 22200 00029 10200 70001 333 91204
BBXX 46183 28121 99536 71311 46/// /3206 10083 49828 52016 22200 00078 11006 70029 333 91210
BBXX 46185 28121 99524 71298 46/// /2012 10082 49884 52012 22200 00072 11007 70036 333 91215
BBXX 46204 28121 99514 71288 46/// /1611 10093 49933 52013 22200 00084 11307 70034 333 91216
BBXX 46205 28121 99542 71343 46/// /1912 10076 49746 57001 22200 00072 11109 70045 333 91214
BBXX 46206 28121 99488 71260 46/// /2209 10098 40045 52017 22200 00078 11008 70042 333 91211
BBXX KS098 28124 99446 71240 43/// /3021 10105 40165 22200 06000
AAXX 2812/ 89869 46/// ///// 11053 39815 4//// 5////
AAXX 2812/ 89329 46/// ///// 11091 38752 4//// 5////
AAXX 2812/ 89799 46/// ///// 11231 4//// 5////
AAXX 2812/ 89828 46/// ///// 11255 36539 4//// 5////
AAXX 2812/ 89108 46/// ///// 11213 36922 4//// 5////
AAXX 2812/ 89879 46/// ///// 10000 39759 4//// 5////
AAXX 2812/ 89332 46/// ///// 11054 39257 4//// 5////
AAXX 2812/ 89769 46/// ///// 11046 39861 4//// 5////
AAXX 2812/ 89314 46/// ///// 11114 38201 4//// 5////
AAXX 2812/ 89869 46/// ///// 11045 39815 4//// 5////
AAXX 28124 89564 41581 80814 11007 21044 39818 49838 53013 71522 86806
AAXX 28124 89573 44975 70705 10001 21047 39859 49881 52009 70073 8703/
AAXX 28124 94210 35/// /2710 10288 30050 40055 52013
AAXX 28124 94289 46/// /0000 10276 30060 40067 53010 91215
AAXX 28124 94379 46/// /1018 10264 30061 40070 51014 91226
AAXX 28124 83552 32998 0//// 10290 20237 39980 40153 333 2//// 59006
AAXX 28124 83565 32697 62302 10262 20221 39651 40111 83260 333 20191 59020
AAXX 28124 83623 22996 6//// 1//// 2//// 39539 4//// 53026 85240 333 2//// 60044
AAXX 28124 83630 21497 63208 10226 20188 3//// 4//// 52020 70362 83550 333 20186 60074
AAXX 28124 83676 32597 20504 10255 20239 39482 40104 52014 82100 333 20210
AAXX 28124 83702 32998 63604 10293 20203 39383 40121 53010 80006 333 20220
AAXX 28124 83704 32898 30502 10294 20221 39691 40087 51005 80008 333 2////
AAXX 28124 83716 32997 10903 10286 20203 39626 40098 52028 81080 333 20236
AAXX 28124 83726 32597 43602 10249 20202 39190 40141 51013 84230 333 20175
AAXX 28124 94290 46/// /3410 10272 30057 40066 51007 91224
AAXX 28124 94290 46/// /3410 10272 30057 40066 51007 91224
AAXX 28124 89564 41581 80814 11007 21044 39818 49838 53013 71522 86806
AAXX 28124 89573 44975 70705 10001 21047 39859 49881 52009 70073 8703/
BBXX 41033 28121 99323 70804 46/// /2909 1//// 40175 51020 91200 555 11094 22097
BBXX H9UY 28124 99287 11594 41898 33218 00/// 10190 40197 54/// 70122 82241 9//// 22263 04220 20204 330// 40306 5//// 6//// 80150
BBXX SHIP 28124 99340 11622 41/97 53025 10140 20127 40163 51006 70302 8//// 91150 22224 00200 2//// 3//// 4//// 5//// 80120
BBXX SHIP 28124 99340 11397 41598 00709 10115 20038 40222 55000 70022 8//// 22283 00190 2//// 3//// 4//// 80080
AAXX 28121 55228 32980 02206 11048 21370 36013 57001 333 00301
AAXX 28121 55578 32980 00000 11007 21257 36367 54000 333 00300
AAXX 28121 55664 32980 00000 11029 21267 36004 52004 333 00200
AAXX 28121 55773 32970 01106 11069 21201 36018 52008 333 00151
AAXX 28121 56116 32680 23601 11021 21178 36335 52011 81102 333 00000
AAXX 28121 56137 32980 03202 10035 21215 36789 52017 333 00152
AAXX 28121 56172 32980 00901 10005 21106 37325 52025 333 05100
AAXX 28121 56247 32980 01402 10101 21180 37398 52014 333 05151
AAXX 28121 56312 32980 02002 10022 21097 37094 52013 333 00152
AAXX 28121 56462 32980 02904 10021 21137 37108 52022 333 05100
AAXX 28121 56651 32680 62504 10112 21081 37633 52006 86400 333 00000
AAXX 28121 56691 32468 81401 10087 20025 37771 52012 886// 333 05207
AAXX 28121 56985 11560 71604 10146 20074 38726 40179 52008 69901 70080 874// 333 05102
AAXX 28121 57633 32965 83601 10065 21032 39472 40274 52015 8807/ 333 05204
AAXX 28121 57902 32660 71403 10089 20053 38643 40209 54000 87500 333 05202
AAXX 28121 55279 32980 02704 11089 21273 35701 52007 333 00300
AAXX 28121 55472 32980 01802 11076 21363 35732 52006 333 00452
AAXX 28121 55696 32980 00402 10009 21214 36335 52010 333 00051
AAXX 28121 56079 32980 10201 11042 21121 36667 52010 80002 333 05151
AAXX 28121 56106 32980 02902 11009 21288 36199 52009 333 00102
AAXX 28121 56257 32980 00000 11016 21216 36266 52010 333 05100
AAXX 28121 56374 32980 00000 11019 21078 37420 52029 333 05201
AAXX 28121 56385 31/00 90000 11084 21087 37002 52013 74940 333 05254
AAXX 28121 56954 11359 80000 10149 20146 40199 52015 69931 76060 888// 333 00051
AAXX 28121 56966 32765 80202 10165 20099 40180 52008 885// 333 05101
AAXX 28121 57237 32960 83201 10065 20010 40274 52016 8807/
AAXX 28121 57306 31958 80401 10079 20050 40265 52012 71000 8807/
AAXX 28121 57604 31730 80901 10084 20055 40257 52012 71000 885//
AAXX 28121 57707 11456 83601 10018 20014 38520 52014 69901 76000 887// 333 05200
AAXX 28121 57832 32766 83603 10064 21035 39499 40255 54000 885// 333 05200
AAXX 28121 78458- 32466 1000 10200 20191 40197 52011 81200 333 10284 20192 30/// 56000 59003 81816
AAXX 28121 78460- 31410 30000 10204 20200 40193 51010 71044 83500 333 10296 20186 30/// 56000 58003 83616
AAXX 28121 78467- 32466 21803 10212 20203 40184 5//// 82200 333 10282 20180 30/// 56200 58004 82815
AAXX 28121 78479- 32466 10804 10240 20203 40166 52004 81100 333 10280 20230 30/// 56200 58003 70010 81818
AAXX 28121 78482- 32466 22702 10180 20164 40209 5//// 81550 333 10314 20173 30/// 56000 58012 81617
AAXX 28121 78486- 32466 23602 10222 20208 40171 52011 82200 333 10296 20210 30/// 50393 56000 58000 70006 82816
AAXX 28121 78488- 21466 10000 10205 20200 40190 5//// 702// 81270 333 10295 20185 31/// 56000 58005 69952 70005 81816
AAXX 28121 38599 41596 82403 10009 21014 39781 40311 52020 71022 885// 333 88620
AAXX 28121 38599 41596 82403 10009 21014 39781 40311 52020 71022 885// 333 88620
AAXX 2812/ 48969 NIL
AAXX 2812/ 48962 NIL
AAXX 2812/ 48990 NIL
AAXX 2812/ 48986 NIL
AAXX 2812/ 48995 NIL
AAXX 2812/ 48967 NIL
AAXX 2812/ 48992 NIL
AAXX 2812/ 48965 NIL
AAXX 2812/ 48985 NIL
AAXX 2812/ 48970 NIL
AAXX 2812/ 48991 NIL
AAXX 2812/ 48964 NIL
AAXX 2812/ 48997 NIL
AAXX 2812/ 48968 NIL
AAXX 2812/ 48973 NIL
AAXX 2812/ 48966 NIL
AAXX 2812/ 48983 NIL
AAXX 2812/ 48972 NIL
AAXX 2812/ 48998 NIL
AAXX 2812/ 48993 NIL
AAXX 2812/ 48971 NIL
AAXX 2812/ 48963 NIL
AAXX 2812/ 48987 NIL
AAXX 26123 63680 32570 51908 10295 20180 38815 48/// 85900 333 59008 85830 81932 555 10218 RH 50% VP 20.6 MAX 29.5
AAXX 28124 67899 41683 43002 10294 20192 3//// 48/// 71500 83203 333 5//// 81930 83843
AAXX 28121 40001 32970 00601 10134 21025 40218 58016
AAXX 28121 40007 32560 22504 10108 20050 40241 56018 82100 333 82830
AAXX 28121 40025 32560 33102 10160 20067 40239 56016 83400 333 83630
AAXX 28121 40045 32970 03105 10138 20026 40244 57018
AAXX 28121 40061 32970 00000 10128 21014 40263 58021
AAXX 28121 40080 32965 00000 10138 20006 39515 40242 57023
AAXX 28121 40087 NIL
AAXX 28121 40095 NIL
AAXX 28121 40009 32965 00000 10128 21003 40214 57022
AAXX 28121 40016 32970 02403 10118 21028 40254 57018
AAXX 28121 40022 32565 20000 10168 20077 40234 55004 82200 222// 20000 333 82830
AAXX 28121 40030 32970 00000 10118 20050 40241 57019
AAXX 28121 40039 32970 00000 10120 20037 40233 57014
AAXX 28121 40066 32970 00000 10150 20061 40131 57022
AAXX 28121 40072 32970 00000 10140 20017 40245 57018
AAXX 28121 40083 32970 00901 10096 21049 48515 57018
AAXX 28124 71981 16/// /2303 11061 21082 60001 333 10062 21084 70000
AAXX 28124 71982 16/// /2606 11097 21112 60001 333 10075 21102 70000
AAXX 28124 71986 16/// /1017 11027 21089 60001 333 10032 21070 70000
AAXX 28124 71990 17/// /3501 11207 21226 38323 49932 55007 69961 7//4/ 333 11090 21209 4/098 55/// 00000 70020
AAXX 28124 71277 46/// /1508 11072 21124 6///1 333 10019 7////
AAXX 28124 71354 16/// /2104 11075 21117 60001 333 10038 21105 70000
BBXX 46145 28121 99544 71324 46/// /1611 10064 49794 52001 22200 00071 10705 70023 333 91212
AAXX 28124 71048 16/// /0803 11046 21120 60001 333 10048 21085 70000
AAXX 28124 71406 16/// /1306 10009 20000 30127 40137 51006 60001 333 10014 20006 70066
AAXX 28124 71418 46/// /1520 10030 20017 30061 40093 58022 6///1 333 10030 20020 7////
BBXX 44056 28121 99362 70757 46/// ///// 1//// 91150 22200 00116 11002 21002 311// 41101 70010
AAXX 28124 71406 16/// /1306 10009 20000 30127 40137 51006 60001 333 10014 20006 70066
AAXX 28124 71418 46/// /1520 10030 20017 30061 40093 58022 6///1 333 10030 20020 7////
AAXX 28124 71277 46/// /1508 11072 21124 6///1 333 10019 7////
AAXX 28124 71981 16/// /2303 11061 21082 60001 333 10062 21084 70000
AAXX 28124 71982 16/// /2606 11097 21112 60001 333 10075 21102 70000
AAXX 28124 71986 16/// /1017 11027 21089 60001 333 10032 21070 70000
AAXX 28124 71990 17/// /3501 11207 21226 38323 49932 55007 69961 7//4/ 333 11090 21209 4/098 55/// 00000 70020
BBXX 46145 28121 99544 71324 46/// /1611 10064 49794 52001 22200 00071 10705 70023 333 91212
AAXX 28124 71354 16/// /2104 11075 21117 60001 333 10038 21105 70000
AAXX 28124 71048 16/// /0803 11046 21120 60001 333 10048 21085 70000
AAXX 2812/ 89767 46/// ///// 10013 39764 4//// 5////
AAXX 28124 43110 31996 73204 10276 20175 40105 70542 80002 333 10302 58008 87078
AAXX 28124 89657 46/// /1424 11025 20001 49743 51008
AAXX 28121 37545 42599 21408 10074 20000 39735 40253 57011 82100
BBXX 42360 28121 99267 70905 46/// /0505 10177 91200 22200 00246 10703 70013 333 91207
BBXX 41052 28121 99183 70648 46/// /0808 10265 40183 91230 333 91210
BBXX 41052 28121 99183 70648 46/// /0808 10264 40181 91220 333 91209
BBXX 41052 28121 99183 70648 46/// /0708 10262 40181 91210 333 91210
BBXX 41053 28121 99185 70661 46/// /1004 10242 40189 91230 333 91206
BBXX 41053 28121 99185 70661 46/// /1005 10238 40189 91220 333 91206
BBXX 41053 28121 99185 70661 46/// /1105 10245 40188 91210 333 91208
BBXX 42085 28121 99179 70665 46/// /0805 10264 40184 91230 333 91207
BBXX 42085 28121 99179 70665 46/// /0605 10261 40183 91220 333 91206
BBXX 42085 28121 99179 70665 46/// /0505 10258 40182 91210 333 91206
AAXX 28124 83064 32998 00000 10269 20227 39862 40131 333 2//// 58002
AAXX 28124 83235 22698 40000 10263 20213 39468 40134 84200 333 20219 58004 60024
AAXX 28124 83332 21696 70000 10211 20197 39230 40135 72062 84650 333 20184 58003 60284
AAXX 28124 83423 22698 83601 10237 20192 39324 40135 8457/ 333 20208 58001 69944
AAXX 28124 83470 22998 22705 10254 20219 39266 40113 80009 333 20197 59015 60204
AAXX 28124 83384 21596 83202 10216 20200 39570 40154 70365 888// 333 20206 58006 60104
AAXX 28124 83386 21498 60502 10245 20203 39612 40139 70362 81396 333 20196 58006 60084
AAXX 28124 83388 32497 40000 10258 20190 39466 40128 82206 333 20212 59003
AAXX 28124 83393 32599 83602 10242 20188 39435 40151 84770 333 20200 59008
AAXX 28124 83442 32597 50000 10280 20215 39802 40139 81131 333 20222 58002
AAXX 28124 83479 21598 83610 10208 20196 39360 40158 75196 887// 333 20192 58002 60584
AAXX 28124 83483 21598 83203 10240 20213 39582 40148 70265 885// 333 20204 58004 60184
AAXX 28124 83531 21597 73204 10214 20190 39111 40144 70162 87500 333 20179 59001 60124
AAXX 28124 83538 21497 83605 10199 20176 38725 40105 70262 887// 333 20168 59015 60074
AAXX 28124 83574 32794 80902 10282 20222 39576 40176 5//// 88700 333 20222
AAXX 28124 83582 21598 80501 10230 20203 39372 40136 52008 76362 88600 333 20194 60124
AAXX 28124 83595 32597 62702 10280 20220 30054 40138 83254 333 20228 59021
AAXX 28124 83687 21697 83204 10218 20201 39122 40122 53006 70262 887// 333 20191 69964
AAXX 28124 83692 21696 83204 10202 20200 39103 40135 53011 72162 882// 333 20170 60594
AAXX 28124 82863 21798 40000 10268 20237 39935 40147 7035/ 82840 333 20218 58012 60124
AAXX 28124 83228 32799 21802 10285 20217 39859 40132 81130 333 20228 59008
AAXX 28124 83368 21798 70000 10244 20235 39769 40133 70352 86230 333 20234 59001 60014
AAXX 28124 83374 21598 60000 10243 20210 39572 40142 70162 86800 333 20214 58002 60214
AAXX 28124 83526 21498 80504 10207 20196 39203 40142 70362 885// 333 20196 59003 60294
AAXX 28124 83811 21496 71402 10214 20191 39243 40128 53011 71062 84270 333 20188 60064
AAXX 28124 83844 21596 809// 10228 20213 30132 40139 51006 75065 8572/ 333 20221 69964
AAXX 28124 83887 22597 80910 10186 20166 39106 40150 52006 885// 333 20170 60044
AAXX 28124 83907 32997 00907 10237 20173 39884 40161 51012 333 20186
AAXX 28124 83914 21596 60910 10202 20156 39390 40155 52011 70510 86400 333 20172 60214
AAXX 28124 83919 22597 61415 10150 20110 38997 40181 52008 84540 333 20138 60134
AAXX 28124 83927 32997 00902 10230 20163 30080 40151 52011 333 20198
AAXX 28124 83936 32497 31407 10242 20170 30060 40181 51010 83100 333 20196
AAXX 28124 83948 21596 83202 10210 20178 30178 40184 52012 71065 888// 333 20180 60374
AAXX 28124 83964 32597 31402 10212 20144 39691 40178 52010 83200 333 20159
AAXX 28124 83995 32597 60908 10234 20201 30198 40201 53010 86200 333 20196
AAXX 28124 83437 21598 62703 10226 20196 39424 40137 70262 82360 333 20198 59006 60124
AAXX 28124 83579 21598 83602 10190 20183 39026 40144 70362 88000 333 20184 59012 60344
AAXX 28124 83592 32597 63607 10252 20215 39460 40135 84460 333 20197 59027
BBXX WC5932 28124 99444 70874 43/// /3518 00/// 11048 21094 40179 50012 7//// 8//// 22243 0//// 2//// 3//// 4//// 5//// 6//// 81062 ICE /////
BBXX 9V7645 28123 99158 70988 41897 23408 10265 20237 40133 52003 70200 818/5 22274 04300 2//// 3//// 4//// 5//// 6//// 80245 ICE /////
BBXX A8VL8 28124 99138 11123 41/// 50224 10250 20222 40155 51015 7//// 8//// 22213 0//// 2//// 3//// 4//// 5//// 6//// 80230 ICE /////
BBXX TBWUK38 28124 99025 70058 41292 71914 10260 20231 40126 56006 70361 8/700 22224 20202 304// 40202 5//// 80240
BBXX OYYL2 28120 99107 50337 41598 30709 10269 20212 40165 52018 70200 83140 22253 00274 20301 3//// 4//// 5//// 80231
BBXX H9UY 28124 99287 11594 41898 33218 00/// 10190 40197 54/// 70122 82241 9//// 22263 04220 20204 330// 40306 5//// 6//// 80150
BBXX SHIP 28124 99340 11397 41598 00709 10115 20038 40222 55000 70022 8//// 22283 00190 2//// 3//// 4//// 80080
BBXX SHIP 28124 99340 11622 41/97 53025 10140 20127 40163 51006 70302 8//// 91150 22224 00200 2//// 3//// 4//// 5//// 80120
BBXX 44056 28121 99362 70757 46/// ///// 1//// 91150 22200 00116 11002 21002 311// 41101 70010
BBXX 46145 28121 99544 71324 46/// /1611 10064 49794 52001 22200 00071 10705 70023 333 91212
BBXX 41033 28121 99323 70804 46/// /2909 1//// 40175 51020 91200 555 11094 22097
BBXX 44138 28121 99443 70536 46/// /0309 10072 40153 57005 22200 00094 11107 70034 333 91210
BBXX 44137 28121 99423 70620 46/// /1611 10121 40101 57035 22200 00108 11107 70033 333 91214
BBXX 44099 28121 99369 70757 46/// ///// 1//// 91222 22200 00115 11103 21003 313// 41101 70017
BBXX 46224 28121 99332 71175 46/// ///// 1//// 91206 22200 00143 11101 21001 326// 41101 70007
BBXX 46237 28121 99378 71226 46/// ///// 1//// 91210 22200 00106 11304 21002 326// 41303 70018
BBXX 46229 28121 99438 71246 46/// ///// 1//// 91221 22200 00097 11309 20807 327// 41306 70046
BBXX 46212 28121 99408 71243 46/// ///// 1//// 91212 22200 00101 11305 21003 329// 41304 70027
BBXX 44022 28121 99409 70737 46/// ///07 10069 20014 49975 91230 22200 00084 333 91210 555 11082 22088
BBXX 46225 28121 99329 71174 46/// ///// 1//// 91214 22200 00148 11302 21001 327// 41301 70010
BBXX 46215 28121 99352 71209 46/// ///// 1//// 91208 22200 00126 11303 21002 327// 41302 70016
BBXX 44040 28121 99410 70736 46/// /2708 10072 20020 49980 91219 22200 10301 70005 333 91210 555 11093 22108
BBXX 44060 28121 99413 70721 46/// ///12 10079 49948 91230 22200 00098 333 91214 555 11129 22139
BBXX 46239 28121 99363 71221 46/// ///// 1//// 91221 22200 00123 11306 21003 330// 41305 70030
BBXX 46238 28121 99334 71195 46/// ///// 1//// 91220 22200 00138 11304 21002 329// 41303 70018
BBXX A8LL8 28124 99439 70165 41498 30105 10130 20094 40430 52/// 70100 83145 22254 20406 327// 41006 80110
BBXX MINUK03 2812/ 99550 70015 46/// ///// 10083 40042 52053
BBXX PDNN 28123 99488 70054 41297 73036 10112 20068 40280 50005 70282 86720 22213 20304 330// 40808 80089 90875
BBXX 9V7645 28123 99158 70988 41897 23408 10265 20237 40133 52003 70200 818/5 22274 04300 2//// 3//// 4//// 5//// 6//// 80245 ICE /////
BBXX DMRX 28123 99140 70953 41698 20628 10250 20199 40138 54000 70100 81425 22234 00240 20208 303// 40408 80215
AAXX 28121 47008 11570 83201 11024 21102 30203 40259 52013 69942 70272 885// 333 10025
AAXX 28121 47014 12950 00501 11113 21197 39873 40299 52010 69942 333 11035
AAXX 28121 47016 11570 80000 11096 21166 39390 40291 52025 69902 70272 885// 333 11039
AAXX 28121 47020 12565 80000 11082 21088 39906 40304 53013 69942 885// 333 11020
AAXX 28121 47025 32960 03602 11023 21029 30208 40238 54000 333 10068
AAXX 28121 47035 32565 83604 11049 21113 30288 40297 52011 885// 333 10019
AAXX 28121 47041 32970 00000 10015 21081 30211 40239 52006 333 10079
AAXX 28121 47055 32565 22301 10024 21032 30211 40257 52002 82400 333 10055
AAXX 28121 47058 11559 83202 11014 21031 30242 40291 53003 60032 71072 885// 333 10005
AAXX 28121 47069 11556 80000 10008 21003 30182 40284 58002 69902 71022 885// 333 10029
AAXX 28121 47003 32980 03207 11053 21133 30253 40257 52007 333 11011
AAXX 28121 47005 11980 01801 11185 21204 38614 52008 69942 70170 333 11079
AAXX 28121 47022 32775 10000 11102 21146 38841 54000 81030 333 11016
AAXX 28121 47028 32965 03202 11034 21135 30191 40290 52008 333 10022
AAXX 28121 47031 32570 70000 11090 21110 38943 58003 87500 333 11035
AAXX 28121 47037 12970 00000 11049 21055 30157 40287 53003 69902 333 10010
AAXX 28121 47039 11556 00000 11043 21059 30083 40282 52003 69902 71000 333 10012
AAXX 28121 47046 31950 80000 11015 21063 30205 40228 53003 71022 80002 333 10062
AAXX 28121 47050 11540 80000 11036 21050 30242 40277 52001 69942 71044 885// 333 11012
AAXX 28121 47052 12565 62902 11014 21046 39930 40279 57003 69962 86500 333 10008
AAXX 28121 47060 11520 83203 11010 21017 30225 40285 53001 60052 71072 885// 333 10019
AAXX 28121 47061 32970 82305 10039 21027 30211 40255 52002 8807/ 333 10064
AAXX 28121 47065 11520 80000 10000 21008 30222 40289 53001 60022 71072 885// 333 10017
AAXX 28121 47067 11550 80000 11016 21024 30182 40306 54000 60012 71022 885// 333 11015
AAXX 28121 47068 11510 83404 10013 21001 30244 40280 53008 60032 71022 885// 333 10031
AAXX 28121 47070 11520 80000 11006 21018 30195 40285 57004 69902 71022 885// 333 10006
AAXX 28121 47075 11540 80000 11023 21029 39766 40206 57001 60012 72272 885// 333 11022
AAXX 28124 78767 11965 32304 10198 20183 30160 40162 50015 60032 705// 83070 333 10282 20199 31/// 56000 58010 70025 83359
AAXX 28124 78767 11965 32304 10198 20183 30160 40162 50015 60032 705// 83070 333 10282 20199 31/// 56000 58010 70025 83359
AAXX 28121 45032 36/// /1402 10163 20137 30197 40214 57001
AAXX 28121 45035 36/// /1002 10166 20140 30168 40210 54000
AAXX 28121 45039 36/// /0902 10164 20134 30200 40216 52002
AAXX 28121 45044 36/// /1003 10158 20142 30119 40213 52001
AAXX 28124 67975 41680 72504 10312 20191 38889 48489 71792 82972 333 59043 82935 83845
AAXX 28121 45032 36/// /1402 10163 20137 30197 40214 57001
AAXX 28121 45035 36/// /1002 10166 20140 30168 40210 54000
AAXX 28121 45039 36/// /0902 10164 20134 30200 40216 52002
AAXX 28121 45044 36/// /1003 10158 20142 30119 40213 52001
AAXX 28124 89646 46/// /0119 11113 29097 37548 4//// 5////
AAXX 28124 89648 46/// /2005 11198 29075 37198 4//// 5////
AAXX 28124 89659 46/// /1806 11158 29074 37679 4//// 5////
AAXX 28124 89661 46/// /2502 10002 29024 39241 4//// 5////
AAXX 28124 89662 41005 11014 21031 39778 49883 52009 74541 886// 222 ICE 98012 333 88701
AAXX 28124 89666 46/// /1809 11041 29095 39697 4//// 5////
BBXX A8GH5 28123 99290 70128 41297 60510 10175 20125 40300 54000 70322 8477/ 22254 04170 2//// 80145
AAXX 28124 71565 16/// /2410 11059 21102 60001 333 10045 21138 4/001 70016
AAXX 28124 71566 16/// /1107 11042 21110 60001 333 10020 21074 70000
AAXX 28124 71567 16/// /0000 11109 21139 60001 333 11014 21117 70000
AAXX 28124 71974 46/// /3212 11289 21313 30105 40150 52003 6///1 333 11293 21311 7////
AAXX 28124 71495 46/// /1705 11074 21120 6///1 333 10048 21074 7////
AAXX 28124 71848 16/// ///// 10018 21029 60001 333 10063 21040 70000
AAXX 28124 71399 16/// ///// 11077 21121 60001 333 10057 21113 70000
AAXX 28124 71073 16/// /1810 11006 21039 60001 333 10044 21047 70000
AAXX 28124 71013 16/// ///// 11045 21124 60001 333 10038 7////
AAXX 28124 71060 16/// /2701 11098 21119 38435 49998 56029 60001 333 10037 21098 4/012 70000
AAXX 28124 71793 46/// ///// 11064 21116 6///1 333 10051 21117 7////
AAXX 28124 94248 46/// /1221 10263 20245 30019 40033
AAXX 28124 94248 46/// /1221 10263 20245 30019 40033
AAXX 28121 01416 16/// ///// 10065 2//// 60071
AAXX 28121 10578 12989 62217 10045 21018 38838 48531 58024 60001 80004 333 44057 55310 21079 30222 86071 91119 91217 444 46105
AAXX 28124 60511 11556 83008 10040 20035 39140 48561 58003 60021 76064 8527/ 333 0//11 85823 86358 95970
BBXX ELYP7 28124 99058 11198 41497 50718 10283 20272 40102 5//// 7//00 85541 22243 00/// 20904 80275
BBXX S6JT 28124 99543 11749 41597 80210 11030 21034 40080 51010 71972 888// 22264 04030 2//// 81030
BBXX MGRX9 28124 99281 31107 41/97 /3137 10221 20186 40074 57017 70222 8/77/ 22233 00/// 20704 316// 40806 80199
BBXX PCSV 28123 99340 30263 41/97 /2002 10240 20240 40180 54000 702// 8/1// 22263 04190 20501 320// 40501 80240
BBXX V7SY6 28124 99045 11063 41697 70223 10270 20243 40140 54000 78022 87923 22213 00230 21004 30303 41008 51008 80250
BBXX 46247 28121 99378 71228 46/// ///// 1//// 91221 22200 00114 11304 21002 328// 41304 70022
BBXX 46241 28121 99330 71173 46/// ///// 1//// 91211 22200 00139 11301 21001 326// 41301 70007
AAXX 28121 01008 41589 13407 11130 21211 39951 49986 52023 70200 81500 333 91112
AAXX 28124 89667 46/// /0708 11067 29095 39884 4//// 5//// 91220
AAXX 28124 89667 46/// /0707 11067 29095 39885 4//// 5//// 91230
AAXX 2812/ 89828 46/// ///// 11261 36539 4//// 5//// 91220
AAXX 2812/ 89828 46/// ///// 11264 36539 4//// 5//// 91230
AAXX 2812/ 89108 46/// ///// 11214 36922 4//// 5//// 91220
AAXX 2812/ 89108 46/// ///// 11214 36920 4//// 5//// 91230
AAXX 2812/ 89879 46/// ///// 11001 39759 4//// 5//// 91220
AAXX 2812/ 89872 46/// ///// 11045 39833 4//// 5//// 91230
AAXX 2812/ 89869 46/// ///// 11058 39814 4//// 5//// 91220
AAXX 2812/ 89869 46/// ///// 11064 39813 4//// 5//// 91230
AAXX 2812/ 89329 46/// ///// 11100 38752 4//// 5//// 91230
AAXX 2812/ 89799 46/// ///// 11233 4//// 5//// 91220
AAXX 2812/ 89332 46/// ///// 11054 39256 4//// 5//// 91220
AAXX 2812/ 89769 46/// ///// 11045 39859 4//// 5//// 91230
AAXX 2812/ 89314 46/// ///// 11111 38200 4//// 5//// 91220
AAXX 28121 89063 41498 81901 10010 21014 39734 49745 57003 70272 886// 333 10013 21010
AAXX 28124 97320 11458 82708 10284 20249 30070 40083 52014 69901 70262 84227 333 10342 56009 57801 58008 84819 86459 80858
BBXX 52200 28121 99134 11448 46/// ///// 1//// 91216 22200 00286 11004 21004 309// 41101 70022
AAXX 28124 16294 12998 00702 10112 20059 30099 40295 57010 60001 555 0100/
BBXX 46216 28121 99343 71198 46/// ///// 1//// 91227 22200 00139 11202 20901 326// 41202 70011
BBXX 46223 28121 99335 71178 46/// ///// 1//// 91230 22200 00147 11302 21001 326// 41301 70008
BBXX 46213 28121 99403 71247 46/// ///// 1//// 91224 22200 00106 11305 21003 329// 41304 70025
BBXX 46231 28121 99327 71174 46/// ///// 1//// 91224 22200 00147 11302 21001 327// 41302 70010
BBXX 46222 28121 99336 71183 46/// ///// 1//// 91226 22200 00146 11402 21001 325// 41402 70009
BBXX 61001 28124 99434 10078 46/// /1905 10129 20092 40286 57020 22200 00145 10501 70003
BBXX BAREU63 28124 99424 10110 46/// /3310 10127 29063 40290 57020 22233
BBXX 61002 28124 99421 10047 46/// ///06 10127 2//// 40302 57020 22200 00137 10501 70006
BBXX BATEU09 28124 99413 10090 46/// /0709 10142 20077 40288 58022 22200 00164
BBXX BATFR09 28124 99400 10121 46/// /1306 10157 20035 40282 58032 22263 00159
BBXX BAREU51 28124 99398 10123 46/// ///// 40275 57024 22235
BBXX BATFR46 28124 99385 10003 44697 63419 10137 20092 40305 58010 703// 8/7// 22212 00162 22002
BBXX DBBH 28121 99378 10047 41498 60413 10146 20078 40266 57016 70361 85840 22222 04159 20705
BBXX A8OZ4 28124 99375 10065 43598 50812 10140 20080 40250 56010 7//// 858// 22224 00160 2//// 3//06 40604 5//// 80115
BBXX DDZA2 28124 99372 10052 41498 60826 10140 20123 40250 56030 7//11 86468 22223 04160 20302 80130
BBXX VQIV8 28124 99371 10067 41/98 41207 10130 20091 40255 54000 70300 81342 22273 02160 29901 305// 40605 5//// 80110
BBXX SHIP 28124 99371 10154 41497 80617 10140 2009/ 40280 53010 70162 8837/ 22200 00170 20506 307// 40506 5//// 6//// 80110 /////
BBXX UELS 28121 99366 70005 41598 70212 10140 40268 54000 70222 86010 22223 20402
BBXX WDE8265 28123 99364 10135 41498 80919 10155 2011/ 40249 56015 71552 8842/ 22234 0//// 20202 310// 40604 5//// 6//// 80130 /////
BBXX WKPF 28123 99340 10217 41898 40811 10160 2013/ 40261 58010 70211 8328/ 22225 00173 20403 30408 40504 50504 6//// 80140 /////
BBXX KABP 28123 99339 10254 43/95 /0709 10175 2012/ 40270 57020 7//// 8//// 22211 0//// 2//// 3//// 4//// 5//// 6//// 80140 /////
AAXX 28124 08330 11970 00803 10111 20034 30123 40358 58002 60001 70044
BBXX 64045 28124 99591 70117 46/// /3343 10054 20035 49930 53135 22200 00100 11019 70096 333 90710 91163
BBXX BATFR04 28124 99584 70062 46/// /1707 10019 21011 49821 22200 00354
BBXX 62112 28124 99584 70002 47596 /2037 10074 20032 49875 57058 700// 22200
BBXX 62113 28124 99584 10002 47496 /2139 10074 20022 49921 57036 700// 22200
BBXX 62129 28124 99584 10003 46/// ///// 10078 20026 49911 58046 22200
BBXX 62114 28124 99583 10000 46/// /2043 10075 20025 49875 58060 22200
BBXX PJAI 28124 99581 70014 47998 /2029 10078 20019 49856 57073 700// 22200
BBXX 62111 28124 99580 70003 46/// /2345 10077 20029 49907 57056 22200 10709 70044
BBXX 62117 28124 99579 10000 47596 /2143 10078 20033 49906 57049 700// 22200 10709 70046
BBXX MINUK05 2812/ 99571 70021 46/// ///// 10070 49880 57069
BBXX BATUK01 28124 99560 70032 46/// /2306 10059 20014 49966 56032 22200 00069
BBXX 62105 28124 99554 70121 46/// /3036 10081 20044 40126 52059 22200 00105 11120 70099 333 90710 91155
BBXX EIPT 28124 99545 70054 41297 72438 10080 20038 40096 55002 70362 8677/ 22200 20302 3//// 4//// 5//// 80060
BBXX 62095 28124 99530 70159 46/// /2925 10082 20031 40294 52041 22200 00109 11017 70084 333 90710 91138
BBXX 62301 28124 99524 70047 46/// /2723 10080 20036 40188 51017 22200 00091 10607 70035 333 90710 91133
BBXX BATFR54 28124 99523 70056 46/// /2540 10079 20029 40188 51032 22242 00110
BBXX 62094 28124 99517 70067 46/// /2827 10082 20036 40228 52027 22200 00107 10707 70035
BBXX 62303 28124 99516 70051 46/// /2724 10091 20034 40216 51019 22200 00112 10809 70044 333 90710 91131
BBXX 62023 28123 99514 70079 46/97 /2830 10083 2//// 40248 5//// 22200 10708 70039 333 91142 555 70066 81011
BBXX 62081 28124 99510 70134 46/// ///// 10092 20043 40320 51039 22200 00120 11016 70079
BBXX BATFR02 28124 99504 70008 46/// /2634 10112 20072 40200 58059 22283 00114
BBXX 62305 28124 99504 10000 46/97 /2628 10116 20089 40223 58017 22200 00116 10604 70020 333 90710 91136
BBXX 62107 28124 99501 70061 46/// /3237 10094 20024 40261 51024 22200 00114 10907 70035 333 90710 91144
BBXX 62103 28124 99499 70029 46/99 /2931 10117 20076 40228 52002 22200 00120 10705 70024 333 90710 91142
BBXX BATFR03 28124 99498 70005 46/// /2333 10109 20092 40228 50013 22244
BBXX PHAM 28124 99495 70011 41597 62415 10100 20085 40230 57020 7//// 85878 22200 20701 80092
BBXX BATFR52 28124 99494 70023 46/// /2326 10115 20079 40248 22285 00120
BBXX 62027 28124 99491 70022 46/// /2516 1//// 2//// 40257 50006 22200 00110 10903 335// 70017
BBXX 62442 28124 99490 70164 46/// /3118 1//// 2//// 40392 51025 22200 00122 333 90710 91128
BBXX PDNN 28123 99488 70054 41297 73036 10112 20068 40280 50005 70282 86720 22213 20304 330// 40808 80089
BBXX 62029 28124 99487 70125 46/// /3124 10097 20019 40362 51033 22200 00128 10911 70057 333 90710 91134
BBXX PDHY 28123 99476 70295 41598 81808 10120 20062 40363 50010 70222 8441/ 22263 04110 20503 318// 40605 5//// 80090
BBXX 62163 28124 99475 70084 46/// /3125 10102 20034 40340 51029 22200 00127 10808 70040 333 90710 91132
BBXX LAVX4 28124 99467 70190 41/97 73616 1015/ 2013/ 40375 54005 70322 86543 22213 0//// 2//// 3//// 41206 8015/
BBXX 62001 28124 99452 70050 46/// /3217 10123 20111 40336 50009 22200 00139 10605 70024
BBXX A8UQ3 28123 99440 70091 41297 63415 10160 20098 40385 51010 71851 85757 22213 00140 21006 333// 41207 80125
BBXX PCBT 28123 99433 70138 41598 80214 10138 20077 40388 52016 70222 8544/ 22214 20402 329// 41205 80105
BBXX BATFR13 28124 99423 70214 44498 60817 10139 20082 40407 53012 70122 861// 22264 00154 20402 330// 41204 5////
BBXX C6KD6 28124 99411 70279 41296 81218 10142 20135 40371 52038 71055 886// 22214 02156 20905 335// 41304 80138
BBXX VRFO7 28124 99411 70186 41598 80517 10175 20125 40400 52010 70222 882// 22254 20802 327// 41006 80145
BBXX ELWO6 28123 99397 70254 41/93 /0514 10170 20162 40350 50/// 7//44 22254 04166 20703 80165
BBXX A8JF3 28124 99386 70231 41198 81715 10190 2017/ 40350 54000 70322 88622 22264 0//// 2//// 3//// 4//// 5//// 6//// 80175 /////
BBXX PCEO 28123 99385 70263 41297 4//01 10178 20162 40395 52023 75065 82410 22254 04172 20000 327// 41203 5//// 80168
BBXX BATFR46 28124 99385 10003 44697 63419 10137 20092 40305 58010 703// 8/7// 22212 00162 22002
BBXX LAZV5 28124 99375 70188 41598 30615 10160 2014/ 40395 51015 70321 83166 22223 00180 20302 306// 40403 5//// 6//// 80150
BBXX WKPY 28124 99375 70140 41698 50619 10175 20125 40355 52020 7//11 8518/ 22265 00186 20504 312// 41304 5//// 6//// 80145 /////
BBXX UELS 28121 99366 70005 41598 70212 10140 40268 54000 70222 86010 22223 20402
BBXX DQVI 28123 99362 70030 41597 41011 10170 20137 40310 50000 7//// 8354/ 22224 00170 2//// 80150
BBXX WRYC 28124 99357 70229 43/// /1005 10180 2013/ 4//// 5//// 7//// 8//// 22211 0//// 2//// 3//// 4//// 5//// 6//// 80150 /////
BBXX A8GU5 28124 99354 70066 41698 30611 10180 20083 40320 56010 7//// 83100 22214 04190 20302 80130
BBXX 46219 28121 99332 71199 46/// ///// 1//// 91228 22200 00132 11304 20803 328// 41303 70021
BBXX 46242 28121 99332 71174 46/// ///// 1//// 91228 22200 00141 11101 21001 325// 41101 70007
AAXX 28124 08495 12475 10609 10155 20096 30317 40325 50000 60001 81500 91150 333 81616
BBXX 63106 28124 99610 10017 46/// /2316 10060 49862 56036 22200
BBXX 63113 28124 99610 10017 46/// /2514 10065 20035 49867 57032 22200 10809 70046
BBXX 64045 28124 99591 70117 46/// /3146 10058 20036 49936 53138 22200 00099 11019 70096 333 90710 91168
BBXX 63110 28123 99595 10015 41597 72129 10077 49873 70522 8/8// 22200 10810 70049
BBXX 62094 28124 99517 70067 46/// /2827 10082 20036 40228 52027 22200 00107 10707 70035 333 90710 91137
BBXX 62301 28124 99524 70047 46/// /2723 10080 20036 40188 51017 22200 00091 10607 70035 333 90710 91132
BBXX 62103 28124 99499 70029 46/98 /3132 10101 20055 40232 53005 22200 00119 10705 70023 333 90710 91145
AAXX 28123 63661 32380 33205 10270 20114 48492 82360 333 59011 82827
AAXX 28123 63671 32580 11203 10338 20160 81100 333 81829
AAXX 28124 89016 46/89 /1709 11029 29071 39388 4//// 5////
AAXX 28124 89003 46/89 /3405 11055 29067 39008 4//// 5////
AAXX 28124 89507 46/89 /1010 11219 29069 36746 4//// 5////
AAXX 28124 89614 46/// /1004 11023 29054 4//// 5//// 91230 333 90700 91106
AAXX 28124 94997 46/// ///// 10013 39870 49885 5////
AAXX 28124 89614 46/// /1004 11023 29054 4//// 5//// 91230 333 90700 91106
AAXX 28124 94997 46/// ///// 10013 39870 49885 5////
AAXX 28124 93498 NIL
AAXX 28124 85629 12680 50102 10154 20132 40142 52/// 60004 83101 333 20127 30/// 50740 55136 56707 70000 83830 83070
BBXX ZNQO3 28120 99537 10066 41/96 /2118 10062 20058 40166 58015 71222 8//// 22222 04078 20706 326// 40602 5//// 80060
BBXX A8HD5 28121 99231 11198 41698 23410 10190 20174 40220 51010 70111 81141 22283 04205 20604 30200 40604 5//// 80180
BBXX TBWUK18 28123 99329 30303 41/97 71920 10225 20189 40147 53005 70222 87756 22222 00242 20303 332// 40504 5//// 80202
BBXX TBWUK17 28123 99293 30404 41797 71218 10249 20210 40161 57027 70322 87676 22263 04260 20201 31414 40403 50604 80223
AAXX 28123 63702 11570 71408 10250 20191 69921 71796 8493/ 3333 84830 81925 87363 5555 10210
AAXX 28124 71006 17/// /1606 11057 21111 69941 7//4/ 333 10057 21115 70004
AAXX 28124 71007 47/// ///// 10057 21010 6///1 7//4/ 333 10066 20013 7////
AAXX 28124 71008 16/// /0806 11048 21095 60001 333 10042 21072 70000
AAXX 28124 71009 16/// /1409 11050 21108 60001 333 10046 21090 70000
AAXX 28124 71012 16/// /1905 11073 21136 60001 333 10049 21092 70000
AAXX 28124 71035 16/// ///// 11061 21105 60001 333 10037 21113 70000
AAXX 28124 71433 46/// /0510 11136 21151 39938 40177 51003 6///1 333 21137 7////
AAXX 28124 71102 16/// ///// 11085 21131 60001 333 10009 21115 70000
AAXX 28124 71105 16/// ///// 11001 21047 60001 333 10070 21034 70000
AAXX 28124 71841 16/// /0000 11395 21438 39779 40215 56010 60001 333 11108 21395 4/019 70000
AAXX 28124 71789 16/// ///// 10058 21006 60001 333 10069 20001 70000
AAXX 28124 71791 16/// /1602 11088 21129 60001 333 10017 21089 70000
AAXX 28124 71794 16/// ///// 11084 21133 60001 333 10037 21111 70000
AAXX 28124 71795 16/// ///// 11014 21040 60001 333 10064 21030 70000
AAXX 28124 71796 16/// ///// 11084 21117 60001 333 10056 21126 7////
AAXX 28124 71797 16/// ///// 11078 21129 60001 333 10006 21101 70000
AAXX 28124 71051 16/// ///// 10018 21025 60001 333 10044 20000 70000
AAXX 28124 71057 16/// ///// 10017 21032 60001 333 10070 21042 70000
AAXX 28124 71065 16/// ///// 11106 21137 60001 333 10018 21126 70000
AAXX 28124 71070 16/// ///// 10037 21015 60001 333 10049 20029 70000
AAXX 28124 71089 16/// ///// 11079 21131 60001 333 10034 21120 70000
AAXX 28124 71502 16/// /0917 11235 21253 39987 40003 58005 60001 333 11231 21247 70000
AAXX 28124 71509 16/// /2007 10028 21012 60001 333 10065 20005 70000
AAXX 28124 71517 16/// /2808 10022 21021 60001 333 10060 21031 70000
AAXX 28124 71518 16/// /2013 10025 21013 60001 333 10073 21015 70000
AAXX 28124 71519 16/// /2010 10044 21019 60001 333 10069 20000 70000
AAXX 28124 71528 16/// /2211 10037 21018 60001 333 10062 20009 70000
AAXX 28124 71409 16/// ///// 10037 21015 60001 333 10055 20013 70000
AAXX 28124 71841 16/// /0000 11395 21438 39779 40215 56010 60001 333 11108 21395 4/019 70000
AAXX 28124 71433 46/// /0510 11136 21151 39938 40177 51003 6///1 333 21137 7////
BBXX 46214 28121 99379 71235 46/// ///// 1//// 91223 22200 00120 11306 21003 328// 41305 70028
BBXX 46221 28121 99339 71186 46/// ///// 1//// 91215 22200 00147 11202 21002 326// 41202 70012
AAXX 28121 89063 41498 81901 10010 21014 39734 49745 57003 70272 886// 333 10013 21010
BBXX WDB9950 28123 99537 71611 41498 63010 11025 21060 49980 54000 7//22 861// 22264 00040 20101 3//// 4//// 5//// 6//// 81035 ICE /////
BBXX TBWUK17 28123 99293 30404 41797 71218 10249 20210 40161 57027 70322 87676 22263 04260 20201 31414 40403 50604 80223
BBXX TBWUK18 28123 99329 30303 41/97 71920 10225 20189 40147 53005 70222 87756 22222 00242 20303 332// 40504 5//// 80202
BBXX PCSV 28123 99340 30263 41/97 /2002 10240 20240 40180 54000 702// 8/1// 22263 04190 20501 320// 40501 80240
BBXX A8GH5 28123 99290 70128 41297 60510 10175 20125 40300 54000 70322 8477/ 22254 04170 2//// 80145
BBXX 46221 28121 99339 71186 46/// ///// 1//// 91215 22200 00147 11202 21002 326// 41202 70012
BBXX 46214 28121 99379 71235 46/// ///// 1//// 91223 22200 00120 11306 21003 328// 41305 70028
BBXX 46219 28121 99332 71199 46/// ///// 1//// 91228 22200 00132 11304 20803 328// 41303 70021
BBXX 46242 28121 99332 71174 46/// ///// 1//// 91228 22200 00141 11101 21001 325// 41101 70007
BBXX 46216 28121 99343 71198 46/// ///// 1//// 91227 22200 00139 11202 20901 326// 41202 70011
BBXX 46222 28121 99336 71183 46/// ///// 1//// 91226 22200 00146 11402 21001 325// 41402 70009
BBXX 46223 28121 99335 71178 46/// ///// 1//// 91230 22200 00147 11302 21001 326// 41301 70008
BBXX 46231 28121 99327 71174 46/// ///// 1//// 91224 22200 00147 11302 21001 327// 41302 70010
BBXX 46213 28121 99403 71247 46/// ///// 1//// 91224 22200 00106 11305 21003 329// 41304 70025
BBXX WDB9950 28123 99537 71611 41498 63010 11025 21060 49980 54000 7//22 861// 22264 00040 20101 3//// 4//// 5//// 6//// 81035 ICE /////
BBXX 46241 28121 99330 71173 46/// ///// 1//// 91211 22200 00139 11301 21001 326// 41301 70007
BBXX 46247 28121 99378 71228 46/// ///// 1//// 91221 22200 00114 11304 21002 328// 41304 70022
BBXX 42360 28121 99267 70905 46/// /0505 10177 91200 22200 00246 10703 70013 333 91207
BBXX 41052 28121 99183 70648 46/// /0808 10265 40183 91230 333 91210
BBXX 41052 28121 99183 70648 46/// /0808 10264 40181 91220 333 91209
BBXX 42085 28121 99179 70665 46/// /0805 10264 40184 91230 333 91207
BBXX 41053 28121 99185 70661 46/// /1005 10238 40189 91220 333 91206
BBXX 42085 28121 99179 70665 46/// /0505 10258 40182 91210 333 91206
BBXX 41053 28121 99185 70661 46/// /1105 10245 40188 91210 333 91208
BBXX 41053 28121 99185 70661 46/// /1004 10242 40189 91230 333 91206
BBXX 41052 28121 99183 70648 46/// /0708 10262 40181 91210 333 91210
BBXX 42085 28121 99179 70665 46/// /0605 10261 40183 91220 333 91206
BBXX 9HJI9 28124 99424 31570 41/// /3313 10150 2//// 4//// 5//// 7//// 8//// 22234 0//// 2//// 3//// 4//// 5//// 6//// 8//// ICE /////
BBXX MGRX9 28124 99281 31107 41/97 /3137 10221 20186 40074 57017 70222 8/77/ 22233 00/// 20704 316// 40806 80199
BBXX V7SY6 28124 99045 11063 41697 70223 10270 20243 40140 54000 78022 87923 22213 00230 21004 30303 41008 51008 80250
BBXX VRDN3 28124 99155 10730 41597 53513 00/// 10300 20180 40100 53010 70200 85515 22233 00275 20302 335// 40402 5//// 6//// 80220
BBXX VRDN3 28124 99155 10730 41597 53513 00/// 10300 2018/ 40100 53010 70200 85515 22233 00275 20302 335// 40402 5//// 6//// 80220
BBXX A8HD5 28121 99231 11198 41698 23410 10190 20174 40220 51010 70111 81141 22283 04205 20604 30200 40604 5//// 80180
BBXX S6JT 28124 99543 11749 41597 80210 11030 21034 40080 51010 71972 888// 22264 04030 2//// 81030
BBXX ELYP7 28124 99058 11198 41497 50718 10283 20272 40102 5//// 7//00 85541 22243 00/// 20904 80275
BBXX A8VL8 28124 99138 11123 41/// 50224 10250 20222 40155 51015 7//// 8//// 22213 0//// 2//// 3//// 4//// 5//// 6//// 80230 ICE /////
BBXX SHIP 28124 99367 70010 41498 60405 10145 20110 40285 52010 70222 85255 22264 00164 20504 330// 40605 80125
BBXX ZNQO3 28120 99537 10066 41/96 /2118 10062 20058 40166 58015 71222 8//// 22222 04078 20706 326// 40602 5//// 80060
BBXX SHIP 28124 99340 11397 41598 00709 10115 20038 40222 55000 70022 8//// 22283 00190 2//// 3//// 4//// 80080
BBXX S6JT 28124 99543 11749 41597 80210 11030 21034 40080 51010 71972 888// 22264 04030 2//// 81030
BBXX SHIP 28124 99340 11622 41/97 53025 10140 20127 40163 51006 70302 8//// 91150 22224 00200 2//// 3//// 4//// 5//// 80120
BBXX V2OG2 28123 99154 30999 41498 41707 10269 20243 40108 53002 70211 84102 22273 20601 318// 40503 80250
BBXX VQIB9 28124 99266 30454 41/98 30324 10290 20232 40095 54000 70200 8/047 22254 2//// 309// 40503 5//// 80250
BBXX TBWUK17 28123 99293 30404 41797 71218 10249 20210 40161 57027 70322 87676 22263 04260 20201 31414 40403 50604 80223
BBXX TBWUK18 28123 99329 30303 41/97 71920 10225 20189 40147 53005 70222 87756 22222 00242 20303 332// 40504 5//// 80202
AAXX 28124 71360 46/// ///// 11090 21138 6///1 333 10018 21113 7////
AAXX 28124 71380 16/// /1506 11058 21094 60001 333 10022 21131 70000
AAXX 28124 71381 47/// /3205 11006 21011 6///1 7//4/ 333 21013 7////
AAXX 28124 71383 47/// ///// 11112 21131 39348 49955 56029 6///1 7//4/ 333 11014 21112 7////
AAXX 28124 71014 16/// /1207 11069 21113 60001 333 10044 21086 7////
AAXX 28124 71413 16/// ///// 11063 21110 60001 333 10053 21130 70000
AAXX 28124 71414 16/// ///// 11107 21139 60001 333 10000 21119 70000
AAXX 28124 71440 16/// ///// 11035 21126 60001 333 10050 21055 70000
AAXX 28124 71904 16/// ///// 11064 21110 60001 333 10033 21108 70000
AAXX 28124 71857 16/// ///// 11103 21142 60001 333 11011 21107 7////
AAXX 28124 71346 16/// /1913 10040 21013 60001 333 10069 7////
AAXX 28124 71520 16/// /0309 11147 21163 39305 49984 55022 60001 333 11017 21147 70000
AAXX 28124 71521 17/// ///// 11133 21153 69981 7//4/ 333 11015 21133 70013
AAXX 28124 71523 17/// ///// 11096 21107 39539 49910 56006 60071 7//4/ 333 10004 21096 70025
AAXX 28124 71540 16/// /1511 11058 21112 60001 333 10058 21123 70000
AAXX 28124 71544 16/// ///// 11058 21112 60001 333 10016 21090 70000
AAXX 28124 71548 16/// ///// 11082 21135 60001 333 10017 21102 70000
AAXX 28124 71055 46/// /0405 11191 21209 39666 40002 51004 6///1 333 11195 21205 7////
AAXX 28124 71481 16/// /1105 11049 21120 60001 333 10015 21110 70000
AAXX 28124 71498 16/// /0913 11047 21098 60001 333 10035 21057 70000
AAXX 28124 71674 16/// ///// 11072 21112 60001 333 10054 21120 70000
AAXX 28124 07015 01261 82014 10042 20032 30178 40237 58015 69901 72052 886// 333 69907 88706 90710 91119 93100 555 69905
BBXX 46145 28121 99544 71324 46/// /1611 10064 49794 52001 22200 00071 10705 70023 333 91212
AAXX 28124 42874 32996 40000 10240 20130 40125 80002 333 10273 58015 84075
AAXX 28124 43041 32996 10502 10246 20138 39498 40110 80001 333 10291 58006 81075
AAXX 28121 13492 ///// 0//// 10050
AAXX 28121 13584 NIL
AAXX 28121 13585 41/93 90000 11042 21044 39494 40331 58030 74544
AAXX 28121 13597 42998 03603 10060 21015 30245 40320 58021
AAXX 28121 13598 42998 00000 10011 21053 48553 57017
BBXX PCSV 28123 99340 30263 41/97 /2002 10240 20240 40180 54000 702// 8/1// 22263 04190 20501 320// 40501 80240
AAXX 28124 88903 45/// /1309 10073 20029 39960 49960 58006 333 10083 20005
OOXX PTP53 28101 99377 70257 ///// 00121 26/// /2504 10165 29001 30283 91010 333 60000
OOXX PTP53 28101 99377 70257 ///// 00121 26/// /2503 10166 29001 30284 91020 333 60000
OOXX PTP53 28101 99377 70257 ///// 00121 26/// /2404 10166 29001 30286 91030 333 60000
OOXX PTP53 28101 99377 70257 ///// 00121 26/// /2504 10166 29001 30287 91040 333 60000
OOXX PTP53 28101 99377 70257 ///// 00121 26/// /2404 10167 29001 30288 91050 333 60000
OOXX PTP53 28111 99377 70257 ///// 00121 26/// /2203 10168 29001 30288 91100 333 60000
OOXX PTP53 28111 99377 70257 ///// 00121 26/// /2303 10170 29001 30288 91110 333 60000
OOXX PTP53 28111 99377 70257 ///// 00121 26/// /2203 10170 29001 30289 91120 333 60000
OOXX PTP53 28111 99377 70257 ///// 00121 26/// /2203 10170 29001 30290 91130 333 60000
OOXX PTP53 28111 99377 70257 ///// 00121 26/// /2204 10173 29001 30290 91140 333 60000
OOXX PTP53 28111 99377 70257 ///// 00121 26/// /2304 10172 29001 30290 91150 333 60000
OOXX PTP53 28121 99377 70257 ///// 00121 26/// /2204 10172 29001 30290 91200 333 60000
OOXX MXP44 28101 99280 71140 ///// 00041 26/// /1422 10098 29054 30174 91010 333 60000
OOXX MXP44 28101 99280 71140 ///// 00041 26/// /1422 10089 29053 30173 91020 333 60000
OOXX MXP44 28101 99280 71140 ///// 00041 26/// /1422 10087 29053 30172 91030 333 60000
OOXX MXP44 28101 99280 71140 ///// 00041 26/// /1422 10091 29054 30172 91040 333 60000
OOXX MXP44 28101 99280 71140 ///// 00041 26/// /1422 10091 29054 30173 91050 333 60000
OOXX MXP44 28111 99280 71140 ///// 00041 26/// /1422 10090 29053 30173 91100 333 60000
OOXX MXP44 28111 99280 71140 ///// 00041 26/// /1422 10088 29053 30173 91110 333 60000
OOXX MXP44 28111 99280 71140 ///// 00041 26/// /1422 10088 29053 30172 91120 333 60000
OOXX MXP44 28111 99280 71140 ///// 00041 26/// /1422 10090 29054 30172 91130 333 60000
OOXX MXP44 28111 99280 71140 ///// 00041 26/// /1422 10090 29054 30172 91140 333 60000
OOXX MXP44 28111 99280 71140 ///// 00041 26/// /1422 10086 29053 30174 91150 333 60000
OOXX MXP44 28121 99280 71140 ///// 00041 26/// /1422 10073 29053 30174 91200 333 60000
OOXX CAP17 28101 99476 70527 ///// 01331 26/// /3502 11016 29059 30052 91000 333 60000
OOXX CAP17 28101 99476 70527 ///// 01331 26/// /3503 11018 29056 30050 91010 333 60000
OOXX CAP17 28101 99476 70527 ///// 01331 26/// /3503 11017 29057 30049 91020 333 60000
OOXX CAP17 28101 99476 70527 ///// 01331 26/// /3402 11018 29057 30046 91030 333 60000
OOXX CAP17 28101 99476 70527 ///// 01331 26/// /3402 11011 29055 30042 91040 333 60000
OOXX CAP17 28101 99476 70527 ///// 01331 26/// /3102 11012 29059 30045 91050 333 60000
OOXX CAP17 28111 99476 70527 ///// 01331 26/// /1601 11024 29062 30043 91100 333 60000
OOXX CAP17 28111 99476 70527 ///// 01331 26/// /0501 11028 29065 30044 91110 333 60000
OOXX CAP17 28111 99476 70527 ///// 01331 26/// /1101 11021 29060 30045 91120 333 60000
OOXX CAP17 28111 99476 70527 ///// 01331 26/// /1201 11024 29061 30044 91130 333 60000
OOXX CAP17 28111 99476 70527 ///// 01331 26/// /0301 11024 29063 30044 91140 333 60000
OOXX CAP17 28111 99476 70527 ///// 01331 26/// /3602 11023 29066 30044 91150 333 60000
AAXX 28124 89528 46/// /3441 11163 36741 4//// 5////
AAXX 28123 63658 32580 40208 10322 20148 38843 48481 83135 333 59014 83825 555 10210
AAXX 28123 63682 32580 61803 10282 20204 3//// 48/// 86900 333 5//// 85824 81928 555 10230
AAXX 28124 43415 22470 80000 10236 20224 39978 40086 82136 333 00016 10272 59005 60007 82818 85360 87278
AAXX 28124 63729 32580 10000 10269 20192 38852 48/// 81901 333 55310 59015 81823 81925
AAXX 28124 63733 32580 33008 10280 20180 38838 48486 81931 333 55310 59011 81825 81927
AAXX 28124 63756 32580 63512 10268 20184 38846 48488 8193/ 333 55310 59011 81825 81927 86362
AAXX 28124 63791 02580 71212 10258 20194 39098 48488 60011 86903 333 0//12 55300 58001 60017 85830
AAXX 28124 63801 31580 72110 10284 20219 39186 48525 72992 8297/ 333 55300 59004 81823 81925 87359
AAXX 28124 63832 32580 43608 10302 20174 38783 48477 84900 333 55310 59017 84825 81926
AAXX 28124 63862 32580 32710 10277 20163 38876 48500 82973 333 55310 59004 82825 81927
AAXX 28124 63866 32580 50000 10290 20220 39495 48/// 85500 333 55306 59004 85625
AAXX 28124 63870 32580 42505 10322 20255 30064 40082 84900 333 55310 59007 84822 81924
AAXX 28124 63881 32480 63103 10227 20157 38206 48/// 85931 333 55310 58001 85819 81921
AAXX 28124 63887 01580 60805 10194 20172 38578 48495 69991 71966 86960 333 55300 59009 69997 86823 81925
AAXX 28124 63894 32580 43210 10316 20236 30029 40089 84900 333 55310 58012 58825 81926
AAXX 28124 63932 11580 70000 10180 20164 38305 48502 60026 76092 8392/ 333 55300 58001 83824 81925 87458
AAXX 28124 63962 11580 63608 10230 20204 38942 48503 60101 71796 84920 333 55308 59007 84822 81924 83457
AAXX 28124 63971 32580 30212 10310 20241 39965 40092 83900 333 55310 59001 83825 81926
AAXX 28124 71769 16/// /1203 10111 20066 30003 40019 51019 60001 333 10080 20069 70094
AAXX 28124 71778 46/// /2616 6///1 333 7////
AAXX 28124 71784 17/// /0203 10075 20070 39846 40048 53022 60021 7//4/ 333 10078 20066 70234
AAXX 28124 71401 17/// /1601 10002 21004 39405 40089 51002 60031 7//4/ 333 10004 21004 70120
AAXX 28124 71184 46/// /2313 10019 20004 6///1 333 10028 20009 7////
AAXX 28124 71199 46/// /3001 11225 21248 39107 49959 58016 6///1 333 11054 21263 4/030 7////
AAXX 28124 71568 17/// /1609 10070 20048 39985 49997 51012 60021 7//4/ 333 10062 20051 70170
AAXX 28124 71477 17/// /1519 10057 20049 60041 7//4/ 333 10040 20012 7////
AAXX 28124 71721 17/// /3207 11105 21124 39713 49959 51043 60011 7//4/ 333 10012 21105 70097
AAXX 28124 71723 17/// /2008 10017 20006 39868 49878 53013 60021 7//4/ 333 10019 20003 70191
AAXX 28124 71505 46/// /0000 11121 21142 39156 49874 58013 6///1 333 11010 21136 7////
AAXX 28124 71390 46/// /0712 11002 6///1 333 10024 21006 7////
AAXX 28124 91844 46/// /2903 10253 40043 22200 00267
AAXX 28124 96465 11458 70506 10268 20247 30054 40087 6///1 70962 86978 333 10322 83812 81915 83640 85364
AAXX 28124 67002 11580 61004 10300 20243 30084 40117 69901 71562 86802 333 0//12 58008 82822 85630 92408
AAXX 28124 67009 31570 70000 10295 20246 39974 40093 57016 71722 879// 333 0//00 87820 81920 94974 94976 95814 95816 555 10322
AAXX 28124 67012 32582 52412 10312 20253 30089 40100 56013 83232 333 0//00 83820 555 81360 82075
AAXX 28124 67025 11460 91406 10255 20245 30000 40099 57002 60011 72162 889// 333 0//21 83710 85817 94979 95879 555 82633
AAXX 28124 67027 31570 63214 10306 20247 30076 40097 56012 71792 83932 333 0//00 83820 81920 83360 94963 95873 555 82640
AAXX 28124 67045 NIL
AAXX 28124 67072 32481 31604 10292 20239 30118 40121 57011 83800 333 0//00 82817 92418 555 82640
AAXX 28124 67073 31580 4//// 10320 20237 30070 40096 57015 71500 82933 333 0//00 81920 82820 94961 94963 95833 555 81633 81360 81073
AAXX 28124 67083 11565 70602 10240 20191 38730 48505 57014 60011 72162 84933 333 0//51 82820 83920 83360 94979 95839
AAXX 28124 67095 31470 70402 10292 20234 30109 40116 57014 71522 8683/ 333 0//00 82917 84817 84633 555 82360
AAXX 28124 67113 NIL
AAXX 28124 67117 NIL
AAXX 28124 67137 32580 7//08 10258 20180 38876 48483 56017 86903 333 0//00 81920 86820 94994 94998 95834 95818 555 10286 82073
AAXX 28124 67143 32582 1//// 10/// 20/// 30112 40119 57016 81200 333 0//00 81820 92438
AAXX 28124 67152 32580 4//// 10325 20173 39171 48489 57022 83302 333 0//00 83820 81920 94992 94996 95876 555 82073
AAXX 28124 67157 32581 1//// 10/// 20/// 30120 40126 57020 81800 333 0//00 81820 555 81640
AAXX 28124 67161 32582 2//04 10320 20260 30071 40080 57015 82900 333 0//00 81920 82820 94992 95832
AAXX 28124 67197 32582 50819 10287 20229 30087 40097 57018 83302 333 0//00 82820 82920 84073 94967 95837 555 82633
AAXX 28123 63680 32570 51908 10295 20180 38815 48/// 85900 333 59008 85830 81932 555 10218
AAXX 28124 89610 46/// /0408 11023 39632 4//// 5//// 333 90700 91110
BBXX MINFR09 2812/ 99102 11501 46/// ///// 40109 52008
AAXX 28124 89610 46/// /0408 11023 39632 4//// 5//// 333 90700 91110
BBXX PEVH 28124 99520 70065 42798 32725 10075 40210 22213 20404
AAXX 28124 89610 46/// /0408 11023 39632 4//// 5//// 333 90700 91110
AAXX 28123 63702 11570 71408 10250 20191 69921 71796 8493/ 333 84830 81925 87363 555 10210
AAXX 28123 63702 11570 71408 10250 20191 69921 71796 8493/ 333 84830 81925 87363 555 10210
AAXX 28124 96465 11458 70506 10268 20247 30054 40087 6///1 70962 86978 333 10322 83812 81915 83640 85364
AAXX 28124 97698 01458 80000 10286 20231 30097 40104 52031 69901 76082 85922 333 10332 56000 57902 57802 58026 69907 82915 83816 87078 80976 80860
AAXX 28124 96615 01440 82807 10260 20254 30092 40106 52014 60151 76166 8632/ 333 10300 56609 57861 59002 60057 81914 85812 88460 80959 80856
BBXX VRXL7 28123 99016 70417 41297 70314 10300 2026/ 40150 50005 70311 87278 22253 00300 20104 30605 40104 50104 6//// 80270 ICE 0/0//
BBXX ONFP 28124 99001 30889 43696 73210 10270 2023/ 40100 54000 70022 87697 22213 04280 20903 33434 40904 50904 6//// 80240 ICE /////
BBXX MYNJ6 28123 99299 71203 412// 63619 10140 20105 40230 54000 7//11 86466 22273 00170 20805 33636 4//// 5//// 6//// 80120 ICE /////
BBXX 64045 28124 99591 70117 46/// /3343 10054 20035 49930 53135 22200 00100 11019 70096 333 90710 91163
BBXX 62301 28124 99524 70047 46/// /2723 10080 20036 40188 51017 22200 00091 10607 70035 333 90710 91133
BBXX 63110 28124 99595 10015 47597 /2128 10077 20030 49880 57032 700// 22200 10810 70051
BBXX 63106 28124 99610 10017 46/// /2316 10060 49862 56036 22200
BBXX 63105 28124 99610 10017 47597 ///// 10065 20034 49862 56033 700// 22200
BBXX 62094 28124 99517 70067 46/// /2827 10082 20036 40228 52027 22200 00107 10707 70035
BBXX 62103 28124 99499 70029 46/99 /2931 10117 20076 40228 52002 22200 00120 10705 70024 333 90710 91142
BBXX MINFR09 2812/ 99102 11501 46/// ///// 40109 52008
BBXX MEGW9 28124 99083 10763 41392 23015 10286 20249 40092 57011 70200 82610 22233 04250 2//01 3//// 4//01 5//// 80260
BBXX ONFP 28124 99001 30889 43696 73210 10270 2023/ 40100 54000 70022 87697 22213 04280 20903 33434 40904 50904 6//// 80240 ICE /////
BBXX MYNJ6 28123 99299 71203 412// 63619 10140 20105 40230 54000 7//11 86466 22273 00170 20805 33636 4//// 5//// 6//// 80120 ICE /////
BBXX VRXL7 28123 99016 70417 41297 70314 10300 2026/ 40150 50005 70311 87278 22253 00300 20104 30605 40104 50104 6//// 80270 ICE 0/0//
BBXX PEVH 28124 99520 70065 42798 32725 10075 40210 22213 20404
BBXX BSH05 28121 99549 10082 46/// ///// 22200 20704 70021
BBXX BSH03 28121 99540 10081 46/// ///// 22200 00066 20603 70016
OOXX AUP04 28111 99377 31451 ///// 00311 26/// /1601 10157 29070 30112 91107 333 60000
OOXX AUP04 28111 99377 31451 ///// 00311 26/// /1801 10155 29071 30112 91117 333 60000
OOXX AUP04 28111 99377 31451 ///// 00311 26/// /1801 10153 29072 30113 91127 333 60000
OOXX AUP04 28111 99377 31451 ///// 00311 26/// /1901 10152 29072 30114 91137 333 60000
OOXX AUP04 28111 99377 31451 ///// 00311 26/// /1902 10152 29072 30114 91147 333 60000
OOXX AUP04 28111 99377 31451 ///// 00311 26/// /1802 10152 29073 30116 91157 333 60000
OOXX AUP04 28121 99377 31451 ///// 00311 26/// /1802 10151 29074 30116 91207 333 60000
OOXX AUP04 28121 99377 31451 ///// 00311 26/// /1701 10150 29074 30117 91217 333 60000
OOXX AUP04 28121 99377 31451 ///// 00311 26/// /1702 10149 29075 30117 91227 333 60000
OOXX AUP04 28121 99377 31451 ///// 00311 26/// /1601 10147 29076 30117 91237 333 60000
OOXX AUP04 28121 99377 31451 ///// 00311 26/// /1801 10146 29077 30116 91247 333 60000
OOXX AUP04 28121 99377 31451 ///// 00311 26/// /1801 10145 29077 30115 91257 333 60000
OOXX RUP59 28101 99539 10848 ///// 02121 26/// /0103 11103 29074 39974 91050 333 60000
OOXX RUP59 28111 99539 10848 ///// 02121 26/// /0202 11104 29074 39975 91100 333 60000
OOXX RUP59 28111 99539 10848 ///// 02121 26/// /0103 11104 29074 39974 91110 333 60000
OOXX RUP59 28111 99539 10848 ///// 02121 26/// /0102 11103 29075 39974 91120 333 60000
OOXX RUP59 28111 99539 10848 ///// 02121 26/// /0102 11101 29075 39974 91130 333 60000
OOXX RUP59 28111 99539 10848 ///// 02121 26/// /0102 11100 29076 39973 91140 333 60000
OOXX RUP59 28111 99539 10848 ///// 02121 26/// /0102 11097 29076 39972 91150 333 60000
OOXX RUP59 28121 99539 10848 ///// 02121 26/// /0102 11097 29077 39973 91200 333 60000
OOXX RUP59 28121 99539 10848 ///// 02121 26/// /0202 11096 29076 39972 91210 333 60000
OOXX RUP59 28121 99539 10848 ///// 02121 26/// /0202 11096 29077 39974 91220 333 60000
OOXX RUP59 28121 99539 10848 ///// 02121 26/// /0102 11095 29077 39975 91230 333 60000
OOXX RUP59 28121 99539 10848 ///// 02121 26/// /3602 11096 29078 39974 91240 333 60000
OOXX ISP34 28101 99641 70219 ///// 01301 26/// /2201 11018 29001 30002 91010 333 6///0
OOXX ISP34 28101 99641 70219 ///// 01301 26/// /2501 11017 29001 30002 91020 333 6///0
OOXX ISP34 28101 99641 70219 ///// 01301 26/// /2501 11020 29001 30002 91030 333 6///0
OOXX ISP34 28101 99641 70219 ///// 01301 26/// /2602 11023 29001 30002 91040 333 6///0
OOXX ISP34 28101 99641 70219 ///// 01301 26/// /2101 11024 29001 30003 91050 333 6///0
OOXX ISP34 28111 99641 70219 ///// 01301 26/// /2601 11024 29001 30003 91100 333 6///0
OOXX ISP34 28111 99641 70219 ///// 01301 26/// /2702 11021 29001 30005 91110 333 6///0
OOXX ISP34 28111 99641 70219 ///// 01301 26/// /2202 11029 29001 30006 91120 333 6///0
OOXX ISP34 28111 99641 70219 ///// 01301 26/// /2101 11028 29001 30006 91130 333 6///0
OOXX ISP34 28111 99641 70219 ///// 01301 26/// /1401 11029 29001 30006 91140 333 6///0
OOXX ISP34 28111 99641 70219 ///// 01301 26/// /1602 11033 29001 30006 91150 333 6///0
OOXX ISP34 28121 99641 70219 ///// 01301 26/// /2001 11032 29001 30005 91200 333 6///0
OOXX KIP39 28101 99020 51574 ///// 00181 26/// /1006 10255 29084 30104 91030 333 60000
OOXX KIP39 28101 99020 51574 ///// 00181 26/// /1005 10255 29085 30101 91040 333 60000
OOXX KIP39 28101 99020 51574 ///// 00181 26/// /1006 10255 29084 30101 91050 333 60000
OOXX KIP39 28111 99020 51574 ///// 00181 26/// /1006 10254 29084 30101 91100 333 60000
OOXX KIP39 28111 99020 51574 ///// 00181 26/// /1006 10255 29083 30101 91110 333 60000
OOXX KIP39 28111 99020 51574 ///// 00181 26/// /1006 10256 29083 30100 91120 333 60000
OOXX KIP39 28111 99020 51574 ///// 00181 26/// /1005 10255 29083 30098 91130 333 60000
OOXX KIP39 28111 99020 51574 ///// 00181 26/// /1006 10254 29083 30098 91140 333 60000
OOXX KIP39 28111 99020 51574 ///// 00181 26/// /1006 10256 29083 30099 91150 333 60000
OOXX KIP39 28121 99020 51574 ///// 00181 26/// /1006 10255 29083 30098 91200 333 60000
OOXX KIP39 28121 99020 51574 ///// 00181 26/// /1006 10255 29083 30098 91210 333 60000
OOXX KIP39 28121 99020 51574 ///// 00181 26/// /1006 10255 29083 30097 91220 333 60000
OOXX RUP60 28101 99531 11588 ///// 00651 26/// /3405 11099 29070 30055 91052 333 60000
OOXX RUP60 28111 99531 11588 ///// 00651 26/// /3102 11098 29071 30055 91102 333 60000
OOXX RUP60 28111 99531 11588 ///// 00651 26/// /2705 11093 29069 30055 91112 333 60000
OOXX RUP60 28111 99531 11588 ///// 00651 26/// /3103 11095 29069 30054 91122 333 60000
OOXX RUP60 28111 99531 11588 ///// 00651 26/// /3006 11104 29071 30054 91132 333 60000
OOXX RUP60 28111 99531 11588 ///// 00651 26/// /0805 11105 29072 30054 91142 333 60000
OOXX RUP60 28111 99531 11588 ///// 00651 26/// /0206 11112 29072 30053 91152 333 60000
OOXX RUP60 28121 99531 11588 ///// 00651 26/// /2803 11107 29074 30053 91202 333 60000
OOXX RUP60 28121 99531 11588 ///// 00651 26/// /3203 11106 29071 30053 91212 333 60000
OOXX RUP60 28121 99531 11588 ///// 00651 26/// /2801 11113 29073 30053 91222 333 60000
OOXX RUP60 28121 99531 11588 ///// 00651 26/// /3203 11114 29075 30052 91232 333 60000
OOXX RUP60 28121 99531 11588 ///// 00651 26/// /3105 11110 29071 30052 91242 333 60000
OOXX MYP42 28101 99045 11014 ///// 15551 26/// /3603 10188 29086 38425 91004 333 60000
OOXX MYP42 28101 99045 11014 ///// 15551 26/// /0701 10191 29086 38434 91014 333 60000
OOXX MYP42 28101 99045 11014 ///// 15551 26/// /0201 10183 29086 38434 91024 333 60000
OOXX MYP42 28101 99045 11014 ///// 15551 26/// /0709 10186 29086 38427 91034 333 60000
OOXX MYP42 28101 99045 11014 ///// 15551 26/// /1205 10183 29087 38445 91044 333 60000
OOXX MYP42 28101 99045 11014 ///// 15551 26/// /0803 10178 29090 38438 91054 333 60000
OOXX MYP42 28111 99045 11014 ///// 15551 26/// /1106 10176 29090 38421 91104 333 60000
OOXX MYP42 28111 99045 11014 ///// 15551 26/// /0706 10176 29091 38447 91114 333 60000
OOXX MYP42 28111 99045 11014 ///// 15551 26/// /0603 10178 29091 38434 91124 333 60000
OOXX MYP42 28111 99045 11014 ///// 15551 26/// /0308 10175 29090 38423 91134 333 60000
OOXX MYP42 28111 99045 11014 ///// 15551 26/// /3611 10178 29091 38423 91144 333 60000
OOXX MYP42 28111 99045 11014 ///// 15551 26/// /0908 10172 29092 38431 91154 333 60000
OOXX FRP29 28101 99210 30556 ///// 00751 26/// /1904 10283 29073 39859 91009 333 60000
OOXX FRP29 28101 99210 30556 ///// 00751 26/// /2005 10283 29073 39859 91019 333 60000
OOXX FRP29 28101 99210 30556 ///// 00751 26/// /2105 10283 29072 39860 91029 333 60000
OOXX FRP29 28101 99210 30556 ///// 00751 26/// /1905 10282 29073 39856 91039 333 60000
OOXX FRP29 28101 99210 30556 ///// 00751 26/// /1805 10285 29074 39856 91049 333 60000
OOXX FRP29 28101 99210 30556 ///// 00751 26/// /1706 10283 29075 39855 91059 333 60000
OOXX FRP29 28111 99210 30556 ///// 00751 26/// /1706 10278 29078 39855 91109 333 60000
OOXX FRP29 28111 99210 30556 ///// 00751 26/// /1806 10275 29079 39854 91119 333 60000
OOXX FRP29 28111 99210 30556 ///// 00751 26/// /1706 10278 29076 39855 91129 333 60000
OOXX FRP29 28111 99210 30556 ///// 00751 26/// /1505 10282 29073 39855 91139 333 60000
OOXX FRP29 28111 99210 30556 ///// 00751 26/// /1605 10287 29069 39853 91149 333 60000
OOXX FRP29 28111 99210 30556 ///// 00751 26/// /1706 10288 29067 39853 91159 333 60000
OOXX NZP46 28101 99438 51765 ///// 00221 26/// /3608 10153 29/// 30195 91030 333 60000
OOXX NZP46 28101 99438 51765 ///// 00221 26/// /3608 10153 29/// 30196 91040 333 60000
OOXX NZP46 28101 99438 51765 ///// 00221 26/// /3608 10153 29/// 30197 91050 333 60000
OOXX NZP46 28111 99438 51765 ///// 00221 26/// /3508 10153 29/// 30197 91100 333 60000
OOXX NZP46 28111 99438 51765 ///// 00221 26/// /3508 10153 29/// 30198 91110 333 60000
OOXX NZP46 28111 99438 51765 ///// 00221 26/// /3508 10153 29/// 30196 91120 333 60000
OOXX NZP46 28111 99438 51765 ///// 00221 26/// /3608 10153 29/// 30196 91130 333 60000
OOXX NZP46 28111 99438 51765 ///// 00221 26/// /3608 10153 29/// 30195 91140 333 60000
OOXX NZP46 28111 99438 51765 ///// 00221 26/// /3608 10153 29/// 30195 91150 333 60000
OOXX NZP46 28121 99438 51765 ///// 00221 26/// /3608 10153 29/// 30195 91200 333 60000
OOXX NZP46 28121 99438 51765 ///// 00221 26/// /3608 10154 29/// 30195 91210 333 60000
OOXX NZP46 28121 99438 51765 ///// 00221 26/// /3608 10154 29/// 30193 91220 333 60000
OOXX GBP67 28101 99159 50057 ///// 04381 26/// /0404 10190 29075 39704 91020 333 60000
OOXX GBP67 28101 99159 50057 ///// 04381 26/// /0404 10192 29076 39703 91030 333 60000
OOXX GBP67 28101 99159 50057 ///// 04381 26/// /0403 10189 29082 39701 91040 333 60000
OOXX GBP67 28101 99159 50057 ///// 04381 26/// /0805 10179 29086 39703 91050 333 60000
OOXX GBP67 28111 99159 50057 ///// 04381 26/// /0805 10186 29082 39702 91100 333 60000
OOXX GBP67 28111 99159 50057 ///// 04381 26/// /0804 10186 29075 39702 91110 333 60000
OOXX GBP67 28111 99159 50057 ///// 04381 26/// /0704 10190 29072 39702 91120 333 60000
OOXX GBP67 28111 99159 50057 ///// 04381 26/// /0304 10194 29068 39702 91130 333 60000
OOXX GBP67 28111 99159 50057 ///// 04381 26/// /0303 10192 29067 39701 91140 333 60000
OOXX GBP67 28111 99159 50057 ///// 04381 26/// /0403 10193 29071 39700 91150 333 60000
OOXX GBP67 28121 99159 50057 ///// 04381 26/// /0504 10188 29077 39699 91200 333 60000
OOXX GBP67 28121 99159 50057 ///// 04381 26/// /0503 10186 29082 39701 91210 333 60000
OOXX AUP07 28101 99/// ///// ///// ///// 26/// /2510 10052 29080 39829 91050 333 60000
OOXX AUP07 28111 99/// ///// ///// ///// 26/// /2510 10052 29081 39830 91100 333 60000
OOXX AUP07 28111 99/// ///// ///// ///// 26/// /2608 10052 29082 39832 91110 333 60000
OOXX AUP07 28111 99/// ///// ///// ///// 26/// /2510 10055 29081 39834 91120 333 60000
OOXX AUP07 28111 99/// ///// ///// ///// 26/// /2511 10049 29082 39836 91130 333 69920
OOXX AUP07 28111 99/// ///// ///// ///// 26/// /2511 10048 29082 39838 91140 333 60000
OOXX AUP07 28111 99/// ///// ///// ///// 26/// /2511 10049 29082 39839 91150 333 60000
OOXX AUP07 28121 99/// ///// ///// ///// 26/// /2510 10046 29081 39842 91200 333 60000
OOXX AUP07 28121 99/// ///// ///// ///// 26/// /2411 10047 29081 39841 91210 333 60000
OOXX AUP07 28121 99/// ///// ///// ///// 26/// /2511 10049 29080 39841 91220 333 60000
OOXX AUP07 28121 99/// ///// ///// ///// 26/// /2511 10051 29080 39842 91230 333 60000
OOXX AUP07 28121 99/// ///// ///// ///// 26/// /2511 10051 29080 39843 91240 333 60000
OOXX RUP54 28101 99586 10494 ///// 01271 26/// /0603 11028 29090 39619 91027 333 60120
OOXX RUP54 28101 99586 10494 ///// 01271 26/// /0603 11029 29090 39620 91037 333 60120
OOXX RUP54 28101 99586 10494 ///// 01271 26/// /0704 11029 29090 39621 91047 333 60120
OOXX RUP54 28101 99586 10494 ///// 01271 26/// /0704 11030 29090 39621 91057 333 60120
OOXX RUP54 28111 99586 10494 ///// 01271 26/// /0604 11030 29090 39622 91107 333 60120
OOXX RUP54 28111 99586 10494 ///// 01271 26/// /0504 11028 29090 39624 91117 333 60120
OOXX RUP54 28111 99586 10494 ///// 01271 26/// /0604 11029 29090 39625 91127 333 60120
OOXX RUP54 28111 99586 10494 ///// 01271 26/// /0405 11029 29090 39627 91137 333 60120
OOXX RUP54 28111 99586 10494 ///// 01271 26/// /0405 11028 29090 39627 91147 333 60120
OOXX RUP54 28111 99586 10494 ///// 01271 26/// /0205 11028 29090 39628 91157 333 60120
OOXX RUP54 28121 99586 10494 ///// 01271 26/// /0605 11028 29090 39630 91207 333 60120
OOXX RUP54 28121 99586 10494 ///// 01271 26/// /0205 11027 29090 39633 91217 333 60120
OOXX GBP68 28101 99371 50123 ///// 00641 26/// /3505 10000 29062 30181 91010 333 60000
OOXX GBP68 28101 99371 50123 ///// 00641 26/// /3503 10000 29063 30181 91020 333 60000
OOXX GBP68 28101 99371 50123 ///// 00641 26/// /3504 10000 29070 30182 91030 333 60000
OOXX GBP68 28101 99371 50123 ///// 00641 26/// /3505 10000 29064 30182 91040 333 60000
OOXX GBP68 28101 99371 50123 ///// 00641 26/// /3504 10000 29067 30180 91050 333 60000
OOXX GBP68 28111 99371 50123 ///// 00641 26/// /3505 10000 29072 30179 91100 333 60000
OOXX GBP68 28111 99371 50123 ///// 00641 26/// /3505 10000 29062 30179 91110 333 60000
OOXX GBP68 28111 99371 50123 ///// 00641 26/// /3505 10000 29064 30181 91120 333 60000
OOXX GBP68 28111 99371 50123 ///// 00641 26/// /3505 10000 29065 30183 91130 333 60000
OOXX GBP68 28111 99371 50123 ///// 00641 26/// /3505 10000 29062 30183 91140 333 60000
OOXX GBP68 28111 99371 50123 ///// 00641 26/// /3504 10000 29067 30182 91150 333 60000
OOXX GBP68 28121 99371 50123 ///// 00641 26/// /3504 10000 29070 30181 91200 333 60000
OOXX MRP43 28101 99181 70159 ///// 00101 26/// /0709 10232 29017 30184 91050 333 60000
OOXX MRP43 28111 99181 70159 ///// 00101 26/// /0709 10236 29016 30184 91100 333 60000
OOXX MRP43 28111 99181 70159 ///// 00101 26/// /0609 10237 29016 30182 91110 333 60000
OOXX MRP43 28111 99181 70159 ///// 00101 26/// /0608 10240 29016 30185 91120 333 60000
OOXX MRP43 28111 99181 70159 ///// 00101 26/// /0608 10240 29016 30183 91130 333 60000
OOXX MRP43 28111 99181 70159 ///// 00101 26/// /0708 10242 29016 30182 91140 333 60000
OOXX MRP43 28111 99181 70159 ///// 00101 26/// /0707 10249 29014 30181 91150 333 60000
OOXX MRP43 28121 99181 70159 ///// 00101 26/// /0707 10251 29014 30180 91200 333 60000
OOXX MRP43 28121 99181 70159 ///// 00101 26/// /0808 10250 29014 30179 91210 333 60000
OOXX MRP43 28121 99181 70159 ///// 00101 26/// /0807 10252 29014 30181 91220 333 60000
OOXX MRP43 28121 99181 70159 ///// 00101 26/// /0706 10249 29014 30180 91230 333 60000
OOXX MRP43 28121 99181 70159 ///// 00101 26/// /0807 10252 29014 30178 91240 333 60000
OOXX AUP06 28101 99192 31468 ///// 00071 26/// /2903 10271 29081 30050 91056 333 60000
OOXX AUP06 28111 99192 31468 ///// 00071 26/// /2602 10271 29081 30052 91106 333 60000
OOXX AUP06 28111 99192 31468 ///// 00071 26/// /2702 10273 29078 30054 91116 333 60000
OOXX AUP06 28111 99192 31468 ///// 00071 26/// /2303 10275 29078 30056 91126 333 60000
OOXX AUP06 28111 99192 31468 ///// 00071 26/// /2103 10275 29078 30058 91136 333 60000
OOXX AUP06 28111 99192 31468 ///// 00071 26/// /2103 10273 29080 30059 91146 333 60000
OOXX AUP06 28111 99192 31468 ///// 00071 26/// /2101 10273 29081 30059 91156 333 60000
OOXX AUP06 28121 99192 31468 ///// 00071 26/// /2302 10271 29083 30060 91206 333 60000
OOXX AUP06 28121 99192 31468 ///// 00071 26/// /2602 10269 29083 30060 91216 333 60000
OOXX AUP06 28121 99192 31468 ///// 00071 26/// /2502 10271 29080 30061 91226 333 60000
OOXX AUP06 28121 99192 31468 ///// 00071 26/// /2403 10272 29079 30062 91236 333 60000
OOXX AUP06 28121 99192 31468 ///// 00071 26/// /2004 10271 29080 30064 91246 333 60000
OOXX RUP58 28101 99442 11320 ///// 01121 26/// /1102 11147 29060 30115 91052 333 60000
OOXX RUP58 28111 99442 11320 ///// 01121 26/// /1003 11148 29061 30116 91102 333 60000
OOXX RUP58 28111 99442 11320 ///// 01121 26/// /0802 11149 29062 30117 91112 333 60000
OOXX RUP58 28111 99442 11320 ///// 01121 26/// /0802 11149 29062 30117 91122 333 60000
OOXX RUP58 28111 99442 11320 ///// 01121 26/// /1003 11150 29062 30118 91132 333 60000
OOXX RUP58 28111 99442 11320 ///// 01121 26/// /1002 11151 29062 30119 91142 333 60000
OOXX RUP58 28111 99442 11320 ///// 01121 26/// /1002 11152 29063 30119 91152 333 60000
OOXX RUP58 28121 99442 11320 ///// 01121 26/// /0702 11153 29063 30120 91202 333 60000
OOXX RUP58 28121 99442 11320 ///// 01121 26/// /1002 11154 29065 30120 91212 333 60000
OOXX RUP58 28121 99442 11320 ///// 01121 26/// /1002 11155 29065 30121 91222 333 60000
OOXX RUP58 28121 99442 11320 ///// 01121 26/// /1002 11157 29066 30121 91232 333 60000
OOXX RUP58 28121 99442 11320 ///// 01121 26/// /1002 11156 29066 30122 91242 333 60000
OOXX ARP01 28101 99345 50585 ///// 00311 26/// /0000 10098 29036 30174 91010 333 60000
OOXX ARP01 28101 99345 50585 ///// 00311 26/// /1101 10099 29035 30174 91020 333 60000
OOXX ARP01 28101 99345 50585 ///// 00311 26/// /1101 10099 29035 30176 91030 333 60000
OOXX ARP01 28101 99345 50585 ///// 00311 26/// /0000 10100 29036 30176 91040 333 60000
OOXX ARP01 28101 99345 50585 ///// 00311 26/// /0000 10101 29035 30177 91050 333 60000
OOXX ARP01 28111 99345 50585 ///// 00311 26/// /1101 10102 29035 30178 91100 333 60000
OOXX ARP01 28111 99345 50585 ///// 00311 26/// /1102 10104 29034 30179 91110 333 60000
OOXX ARP01 28111 99345 50585 ///// 00311 26/// /1101 10104 29035 30180 91120 333 60000
OOXX ARP01 28111 99345 50585 ///// 00311 26/// /1101 10102 29035 30181 91130 333 60000
OOXX ARP01 28111 99345 50585 ///// 00311 26/// /0000 10103 29035 30181 91140 333 60000
OOXX ARP01 28111 99345 50585 ///// 00311 26/// /1101 10105 29034 30182 91150 333 60000
OOXX ARP01 28121 99345 50585 ///// 00311 26/// /0000 10109 29034 30182 91200 333 60000
AAXX 28124 91559 46/// /0000 10233 40066 22200 00292
AAXX 28124 62600 32970 03610 10245 20065 39956 40168 333 59057
AAXX 28124 62640 32970 70410 103205 20055 39755 40105 80007 333 56009 59018 87275
AAXX 28124 62641 32570 13610 10264 20166 30112 40160 81500 333 56200 59010 81630
AAXX 28124 62650 32970 00502 10275 20045 39862 40130 333 59030
AAXX 28124 62680 31968 03610 10320 20029 39713 40097 70600 333 59016
AAXX 28124 62721 32970 70211 10335 20055 39658 40084 80007 333 56009 59021 87275
AAXX 28124 62730 32970 00000 10370 20020 39570 40111 333 59006
AAXX 28124 62750 32970 70408 10330 20110 39645 40060 80007 333 56009 59019 87275
AAXX 28124 62751 32970 10606 10357 20063 39634 40076 80002 333 56006 59012 81080
AAXX 28124 62762 32970 70406 10344 20154 39594 40050 80007 333 56009 59010 87275
AAXX 28124 62771 32970 70306 10310 20050 39464 40091 80007 333 56009 59022 87275
AAXX 28124 62781 32970 70706 10335 20035 39472 40087 80007 333 56009 59016 87275
AAXX 28124 62795 32970 70202 10360 20110 39572 40052 80007 333 56009 59016 87275
AAXX 28124 62805 32970 73602 10357 20093 39533 40042 80007 333 56009 59015 87275
AAXX 28124 71428 17/// /1204 10056 20041 39899 49905 56085 60021 7//4/ 333 10024 21009 70019
AAXX 28124 71388 46/// /0905 11013 21020 39678 49863 56031 6///1 333 11001 21042 7////
AAXX 28124 71392 17/// /1503 10010 20007 60071 7//4/ 333 10012 21005 70262
AAXX 28124 71734 17/// /3213 11201 21248 39689 40095 53020 60011 7//4/ 333 10020 21201 70060
AAXX 28121 28552 41995 11015 21027 39752 49862 57032 77373 8802/ 333 92982
AAXX 28124 63740 12580 70612 10210 20156 48500 69911 8423/ 333 59001 84821 87358
AAXX 28124 62600 32970 03610 10245 20065 39956 40168 333 59057
AAXX 28124 62640 32970 70410 10320 20055 39755 40105 80007 333 56009 59018 87275
AAXX 28124 62641 32570 13610 10264 20166 30112 40160 81500 333 56200 59010 81630
AAXX 28124 62650 32970 00502 10275 20045 39862 40130 333 59030
AAXX 28124 62680 31968 03610 10320 20029 39713 40097 70600 333 59016
AAXX 28124 62721 32970 70211 10335 20055 39658 40084 80007 333 56009 59021 87275
AAXX 28124 62730 32970 00000 10370 20020 39570 40111 333 59006
AAXX 28124 62750 32970 70408 10330 20110 39645 40060 80007 333 56009 59019 87275
AAXX 28124 62751 32970 10606 10357 20063 39634 40076 80002 333 56006 59012 81080
AAXX 28124 62762 32970 70406 10344 20154 39594 40050 80007 333 56009 59010 87275
AAXX 28124 62771 32970 70306 10310 20050 39464 40091 80007 333 56009 59022 87275
AAXX 28124 62781 32970 70706 10335 20035 39472 40087 80007 333 56009 59016 87275
AAXX 28124 62795 32970 70202 10360 20110 39572 40052 80007 333 56009 59016 87275
AAXX 28124 62805 32970 73602 10357 20093 39533 40042 80007 333 56009 59015 87275
AAXX 28124 91531 46/// /0206 1//// 40075 22200 00278
AAXX 28124 40101 12956 00000 10126 20015 39143 48545 56020 60001 912//
AAXX 28124 97016 11560 81503 10276 20229 30100 40102 52017 69901 70262 8327/ 333 10312 56009 57801 58006 83820 86460 80860
AAXX 28124 89667 46/// /0707 11065 39884 4//// 5//// 91240
BBXX WDB9950 28123 99537 71611 41498 63010 11025 21060 49980 54000 7//22 861// 22264 00040 20101 3//// 4//// 5//// 6//// 81035 ICE /////
AAXX 28124 71016 16/// ///// 10056 60001 333 10045 20004 70000
AAXX 28124 71988 17/// /1440 10118 20098 39925 49944 56062 69971 7//4/ 333 10077 20066 70007
BBXX 44056 28121 99362 70757 46/// ///// 1//// 91220 22200 00116 11102 21002 312// 41101 70009
BBXX 44055 28121 99391 70753 46/// ///// 1//// 91230 22200 00080 10301 70006
BBXX 46109 28121 99481 71234 46/// /2101 10092 40070 91157 22200 00076
BBXX 46110 28121 99481 71230 46/// /2502 10092 40070 91158
AAXX 28124 71016 16/// ///// 10056 60001 333 10045 20004 70000
AAXX 28124 71988 17/// /1440 10118 20098 39925 49944 56062 69971 7//4/ 333 10077 20066 70007
AAXX 28124 91642 46/// /0000 1//// 40083 22200 0////
BBXX SHIP 28124 99175 11491 41497 30521 10250 20236 40134 52011 76066 834// 22282 00303 80240
BBXX 66022 28121 99541 10142 46/// /2008 10067 30210 22200 00040
BBXX 44055 28121 99391 70753 46/// ///// 1//// 91230 22200 00080 10301 70006
BBXX 46110 28121 99481 71230 46/// /2502 10092 40070 91158
BBXX 46109 28121 99481 71234 46/// /2101 10092 40070 91157 22200 00076
BBXX 44056 28121 99362 70757 46/// ///// 1//// 91220 22200 00116 11102 21002 312// 41101 70009
BBXX SHIP 28124 99175 11491 41497 30521 10250 20236 40134 52011 76066 834// 22282 00303 80240
AAXX 28124 89614 46/// ///// 11025 29065 38977 4//// 5//// 333 90700 91106
AAXX 28124 89807 46/// /2403 10020 29068 39765 4//// 5//// 333 90700 91105
AAXX 28124 89807 46/// /2403 10020 29068 39765 4//// 5//// 333 90700 91105
AAXX 28124 89614 46/// ///// 11025 29065 38977 4//// 5//// 333 90700 91106
AAXX 2812/ 89872 46/// ///// 11044 39833 4//// 5//// 91210
AAXX 2812/ 89866 46/// ///// 11045 39769 4//// 5//// 91210
AAXX 2812/ 89769 46/// ///// 11044 39861 4//// 5//// 91210
AAXX 2812/ 89828 46/// ///// 11248 36539 4//// 5//// 91210
AAXX 2812/ 89108 46/// ///// 11214 36922 4//// 5//// 91210
AAXX 28121 01380 41268 81502 11042 21056 70222 886// 333 4/030 91111
BBXX MINUK04 2812/ 99519 10013 46/// ///// 10110 4//// 52073
AAXX 28121 03969 11475 32513 10062 20025 30046 40151 51016 69901 72581 83800 333 81715 83640 90710 91121
AAXX 28124 71971 16/// /0302 11292 21318 39993 40040 53004 60001 333 11210 21294 70004
AAXX 28124 71971 16/// /0302 11292 21318 39993 40040 53004 60001 333 11210 21294 70004
BBXX ONFP 28124 99001 30889 43696 73210 10270 2023/ 40100 54000 70022 87697 22213 04280 20903 33434 40904 50904 6//// 80240 /////
AAXX 28124 92036 46/// /0102 10293 40077 22200 00316
BBXX 42043 28121 99290 70949 46/// /1104 1//// 40210 91230 22200 00133 333 91205
BBXX 42043 28121 99290 70949 46/// /0904 1//// 40215 91200 22200 00134 333 91205
BBXX 42044 28121 99262 70971 46/// /2202 10136 20103 40206 91230 22200 00153 333 91203
BBXX 42044 28121 99262 70971 46/// /2401 10136 20100 40208 56008 91200 22200 00153 333 91202
BBXX 42045 28121 99262 70965 46/// /1301 10164 40208 91230 22200 00210 333 91202
BBXX 42045 28121 99262 70965 46/// /1701 10165 40210 57009 91200 22200 00210 333 91202
BBXX 42046 28121 99279 70940 46/// /1104 1//// 40219 56006 91200 22200 00218 333 91206
BBXX 46094 28121 99446 71243 46/// /1812 10104 91230
BBXX 46094 28121 99446 71243 46/// /1914 10103 91220
BBXX 46094 28121 99446 71243 46/// /1712 10103 91210
BBXX 46094 28121 99446 71243 46/// /1912 10103 91200
BBXX 46094 28121 99446 71243 46/// /1711 10103 91150
BBXX 46094 28121 99446 71243 46/// /1808 10103 91140
BBXX 63106 28124 99610 10017 46/// /2316 10060 49862 56036 22200
BBXX 63113 28124 99610 10017 46/// /2514 10065 20035 49867 57032 22200 10809 70046
BBXX 64045 28124 99591 70117 46/// /3146 10058 20036 49936 53138 22200 00099 11019 70096 333 90710 91168
BBXX 63110 28123 99595 10015 41597 72129 10077 49873 70522 8/8// 22200 10810 70049
BBXX 62094 28124 99517 70067 46/// /2827 10082 20036 40228 52027 22200 00107 10707 70035 333 90710 91137
BBXX 62301 28124 99524 70047 46/// /2723 10080 20036 40188 51017 22200 00091 10607 70035 333 90710 91132
BBXX 62103 28124 99499 70029 46/98 /3132 10101 20055 40232 53005 22200 00119 10705 70023 333 90710 91145
AAXX 28124 93713 46/// /0000 10172 40126 22200 00168
OOXX AAPIG 28124 99758 51003 56251 08502 46/// /1211 11131 21258 38843 49830 5//// 91150
AAXX 28124 91689 46/// /0639 10251 40069 22200 00291
BBXX VRZQ9 28124 99362 70134 41298 50515 10150 2012/ 40370 54/// 70311 85109 22243 00210 20602 335// 40602 5//// 6//// 80130 ICE /////
BBXX MINUK03 2812/ 99550 70015 46/// ///// 10083 40042 52053
BBXX PEVH 28124 99520 70065 42798 32725 10075 40210 22213 20404
BBXX A8LL8 28124 99439 70165 41498 30105 10130 20094 40430 52/// 70100 83145 22254 20406 327// 41006 80110
BBXX SHIP 28124 99367 70010 41498 60405 10145 20110 40285 52010 70222 85255 22264 00164 20504 330// 40605 80125
BBXX UGOD 28121 99503 11563 42/98 90511 11001 40122 54000 22253 00022 20504 31300 40805
BBXX 46094 28121 99446 71243 46/// /1711 10103 91150
BBXX 46094 28121 99446 71243 46/// /1808 10103 91140
BBXX 46094 28121 99446 71243 46/// /1812 10104 91230
BBXX 46094 28121 99446 71243 46/// /1912 10103 91200
BBXX 46094 28121 99446 71243 46/// /1712 10103 91210
BBXX 46094 28121 99446 71243 46/// /1914 10103 91220
BBXX 42046 28121 99279 70940 46/// /1104 1//// 40219 56006 91200 22200 00218 333 91206
BBXX 42045 28121 99262 70965 46/// /1701 10165 40210 57009 91200 22200 00210 333 91202
BBXX 42045 28121 99262 70965 46/// /1301 10164 40208 91230 22200 00210 333 91202
BBXX 42044 28121 99262 70971 46/// /2202 10136 20103 40206 91230 22200 00153 333 91203
BBXX 42044 28121 99262 70971 46/// /2401 10136 20100 40208 56008 91200 22200 00153 333 91202
BBXX 42043 28121 99290 70949 46/// /1104 1//// 40210 91230 22200 00133 333 91205
BBXX 42043 28121 99290 70949 46/// /0904 1//// 40215 91200 22200 00134 333 91205
BBXX VRZQ9 28124 99362 70134 41298 50515 10150 2012/ 40370 54/// 70311 85109 22243 00210 20602 335// 40602 5//// 6//// 80130 ICE /////
BBXX MINUK04 2812/ 99519 10013 46/// ///// 10110 4//// 52073
AAXX 28121 98836 31460 30000 10270 20236 40116 53020 70544 81801 333 10320 56999 59005 81818 83081
AAXX 28123 63612 32980 00913 10358 20113 40070 333 59007
BBXX UGOD 28121 99503 11563 42/98 90511 11001 40122 54000 22253 00022 20504 31300 40805
AAXX 28123 63695 32580 30703 10245 20121 82230 333 82824 83359
AAXX 28121 98132 31465 60904 10230 20200 40238 51016 70544 84230 333 10251 56299 59013 84816 86358
AAXX 28121 98133 31465 80704 10/// 20/// 40170 5//// 70544 8327/ 333 10/// 56299 59015 83818 88359
AAXX 28121 98222 31575 30401 10265 20209 40123 53005 70544 81101 333 10320 56999 59013 81822
AAXX 28121 98233 11570 83602 10230 20209 40160 52006 69931 70544 885// 333 10245 56999 59021 88620
AAXX 28121 98324 31462 50903 10280 20229 40130 55004 70544 82278 333 10310 56999 59004 82816 83358 85280
AAXX 28121 98327 31668 73203 10238 20209 39969 40146 52016 70544 82108 333 10289 56999 59009 82842 87277
AAXX 28121 98334 31465 83602 10240 20226 39946 40152 52012 69921 70282 8227/ 333 10275 56999 59016 82817 88357
AAXX 28121 98425 31560 40403 10270 20224 40125 52009 70544 83108 333 10292 56999 59016 83820 84280
AAXX 28121 98426 31562 70804 10270 20209 40136 51012 70544 81178 333 10309 56999 59010 81820 84358 86280
AAXX 28121 98427 11472 30000 10252 20225 39940 40119 53011 82202 333 10290 56199 59016 82818
AAXX 28121 98428 32458 60403 10279 20240 40123 53010 82431 333 10300 56999 59017 82618 83360
AAXX 28121 98432 31568 50403 10263 20229 40127 52014 70544 82272 333 10308 56999 59019 82820
AAXX 28121 98433 31460 60404 10215 20201 39408 40132 55008 70544 82230 333 10260 56999 59008 82812 84357
AAXX 28121 98434 11464 53601 10250 20248 30133 40141 52008 69931 71588 83208 333 10282 56199 59021 83817 85275
AAXX 28121 98435 32470 80403 10258 20240 40133 5//// 8427/ 333 10294 56999 59007 84818 88358
AAXX 28121 98442 NIL
AAXX 28121 98446 32480 30902 10300 20272 30075 40121 56002 82201 333 56299 82818
AAXX 28121 98447 32470 60402 10250 20236 39865 40130 5//// 83202 333 10/// 56199 59007 83818 84070
AAXX 28121 98538 31468 53604 10285 20250 30125 40130 53023 70142 81206 333 10300 56999 59005 81811 85072
AAXX 28121 98546 32575 50402 10276 20259 30120 40128 52014 82208 333 10310 56999 59006 82820 85275
AAXX 28121 98548 32465 10000 10265 20250 30100 40106 53010 81100 333 10315 56999 59008 81816
AAXX 28121 98553 31470 22702 10260 20247 30118 40122 52016 70544 82200 333 10311 56999 59002 82818
AAXX 28121 98558 31464 50605 10276 20248 40124 53013 70244 82208 333 10306 56999 59003 82818 84272
AAXX 28121 98642 32462 60000 10260 20243 30103 40112 52014 81202 333 10306 56199 59005 81815 85072
AAXX 28121 98644 31465 60603 10265 20240 30109 40118 53028 70142 81278 333 10320 56199 59002 81817 83358 85272
AAXX 28121 98648 31468 33601 10240 20223 30043 40125 52017 70544 81201 333 10305 56999 59002 81817 83075
AAXX 28121 98746 31462 61802 10273 20230 40101 52026 70544 82876 333 10324 56999 58004 82818 83358 85275
AAXX 28121 98751 31470 50000 10225 20211 39451 40128 52021 70544 82230 333 10285 56999 58002 82815 83356
AAXX 28121 98752 31460 40000 10266 20250 40126 52019 70142 82578 333 10304 56199 58002 82616 84358
AAXX 28121 98851 31470 32703 10258 20228 39958 40108 53023 70544 81101 333 10332 56999 59004 81818 83075
BBXX 64045 28124 99591 70117 46/// /3343 10054 20035 49930 53135 22200 00100 11019 70096 333 90710 91163
BBXX 62301 28124 99524 70047 46/// /2723 10080 20036 40188 51017 22200 00091 10607 70035 333 90710 91133
BBXX 63110 28124 99595 10015 47597 /2128 10077 20030 49880 57032 700// 22200 10810 70051
BBXX 63106 28124 99610 10017 46/// /2316 10060 49862 56036 22200
BBXX 63105 28124 99610 10017 47597 ///// 10065 20034 49862 56033 700// 22200
BBXX 62094 28124 99517 70067 46/// /2827 10082 20036 40228 52027 22200 00107 10707 70035
BBXX 62103 28124 99499 70029 46/99 /2931 10117 20076 40228 52002 22200 00120 10705 70024 333 90710 91142
BBXX 42013 28121 99272 70829 46/// ///// 1//// 40217 91220 22200 00204
BBXX 42013 28121 99272 70829 46/// ///// 1//// 40212 53016 91200
BBXX WFLG 28124 99319 71264 41698 70513 10139 20100 40281 57010 70122 8717/ 22224 04128 20402 330// 41003 5//// 6//// 80117 ICE /////
BBXX WFLG 28124 99319 71264 41698 70513 10139 20100 40281 57010 70122 8717/ 22224 04128 20402 330// 41003 5//// 6//// 80117 ICE /////
BBXX A8IY8 28124 99034 11003 41398 63204 10270 20236 40110 53/// 70211 8/718 22274 04290 20000 300// 40000 5//// 80245
AAXX 28121 28797 41594 81906 11063 21071 39938 40098 57004 78583 883// 333 88928 91012 91114 92992
AAXX 28124 97600 01458 80000 10258 20243 30091 40097 52013 60041 72162 8492/ 333 10288 56609 57961 58010 60027 83916 88458 80957
AAXX 28121 24143 11999 31807 11290 21327 30130 40258 51002 69942 77173 83021 333 11245
AAXX 28124 67025 11460 81406 10255 20245 30000 40099 57002 60011 72162 889// 333 0//21 83710 85817 94979 95879 555 82633
BBXX 42369 28121 99272 70903 46/// /0705 1//// 91140 22200 10502 70012
BBXX 42370 28121 99273 70905 46/// ///// 10158 91140 22200 10502 70012
BBXX 42376 28121 99291 70879 46/// /1401 10138 40228 91140 22200 10302 70009
BBXX 42392 28121 99272 70900 46/// ///// 1//// 91140 22200 10502 70011
BBXX 42887 28121 99282 70885 46/// /0603 10177 91140 22200 10502 70012
BBXX 42376 28121 99291 70879 46/// /1401 10138 40228 91140 22200 10302 70009
BBXX 42887 28121 99282 70885 46/// /0603 10177 91140 22200 10502 70012
BBXX 42370 28121 99273 70905 46/// ///// 10158 91140 22200 10502 70012
BBXX 42392 28121 99272 70900 46/// ///// 1//// 91140 22200 10502 70011
BBXX 42369 28121 99272 70903 46/// /0705 1//// 91140 22200 10502 70012
BBXX 42013 28121 99272 70829 46/// ///// 1//// 40212 53016 91200
BBXX 42013 28121 99272 70829 46/// ///// 1//// 40217 91220 22200 00204
BBXX A8IY8 28124 99034 11003 41398 63204 10270 20236 40110 53/// 70211 8/718 22274 04290 20000 300// 40000 5//// 80245
BBXX 63106 28124 99610 10017 46/// /2316 10060 49862 56036 22200
BBXX 63113 28124 99610 10017 46/// /2514 10065 20035 49867 57032 22200 10809 70046
BBXX 64045 28124 99591 70117 46/// /3146 10058 20036 49936 53138 22200 00099 11019 70096 333 90710 91168
BBXX 63110 28123 99595 10015 41597 72129 10077 49873 70522 8/8// 22200 10810 70049
BBXX 62094 28124 99517 70067 46/// /2827 10082 20036 40228 52027 22200 00107 10707 70035 333 90710 91137
BBXX 62301 28124 99524 70047 46/// /2723 10080 20036 40188 51017 22200 00091 10607 70035 333 90710 91132
BBXX 62103 28124 99499 70029 46/98 /3132 10101 20055 40232 53005 22200 00119 10705 70023 333 90710 91145
BBXX WFLG 28124 99319 71264 41698 70513 10139 20100 40281 57010 70122 8717/ 22224 04128 20402 330// 41003 5//// 6//// 80117 ICE /////
BBXX VOXS 28124 99467 70480 41/93 90425 10032 2003/ 40150 56021 74544 89/// 22200 04019 20503 316// 40808 80029
BBXX VOXS 28124 99467 70480 41/93 90425 10032 2003/ 40150 56021 74544 89/// 22200 04019 20503 316// 40808 80029
BBXX CFO383 28124 99439 70602 47998 /1524 10066 2005/ 40130 5//// 700// 8//// 22200 00066 11005 2//// 70023 80057 333 91027
BBXX CFO383 28124 99439 70602 47998 /1524 10066 2005/ 40130 5//// 700// 8//// 22200 00066 11005 2//// 70023 80057 333 91027
AAXX 2812/ 68902 46/// ///// 40183 52002
BBXX VRDT5 28124 99010 11266 41196 61513 10260 2025/ 40120 54000 7//00 862// 22243 0//// 20403 323// 40406 5//// 6//// 80250 ICE /////
BBXX VRDT5 28124 99010 11266 41196 61513 10260 2025/ 40120 54000 7//00 862// 22243 0//// 20403 323// 40406 5//// 6//// 80250 ICE /////
BBXX CFO383 28124 99439 70602 47998 /1524 10066 2005/ 40130 5//// 700// 8//// 22200 00066 11005 2//// 70023 80057 333 91027
BBXX VOXS 28124 99467 70480 41/93 90425 10032 2003/ 40150 56021 74544 89/// 22200 04019 20503 316// 40808 80029
AAXX 28124 71249 16/// /1215 11070 21103 60001 333 10023 21073 70000
AAXX 28124 71249 16/// /1215 11070 21103 60001 333 10023 21073 70000
AAXX 28124 91375 46/// /0406 10234 40092 22200 00281
AAXX 28121 58968 32560 70000 10186 20160 30212 40220 51005 874//
AAXX 28121 58974 32565 70408 10187 20161 30097 40221 54000 874//
AAXX 28121 59358 31940 00103 10177 20144 30186 40218 52013 71011
AAXX 28121 59559 32564 50503 10218 20173 30174 40202 50009 83230
AAXX 28121 59792 32560 30408 10209 20187 30192 40197 52010 83100
AAXX 28121 59997 11458 80506 10274 20252 30108 40116 53014 60022 78082 8382/
AAXX 28121 59158 32660 63502 10178 20139 30112 40214 52009 86500
AAXX 28121 59562 32662 80201 10211 20170 30200 40211 51014 885//
AAXX 28121 59567 32560 63603 10190 20174 39831 40212 51011 86500
BBXX 42369 28121 99272 70903 46/// /0804 1//// 91200 22200 10502 70011
BBXX 42370 28121 99273 70905 46/// ///// 10159 91200 22200 10502 70011
AAXX 28124 71756 17/// /2003 10035 20019 38933 40009 53014 60021 7//4/ 333 10008 21004 4/076 70126 555 10110
AAXX 28124 71688 16/// /1105 10030 20027 38988 40007 52016 60001 333 10009 21004 4/104 70000 555 10070
AAXX 28124 71220 46/// /1325 10056 20042 6///1 333 10034 20018 7////
AAXX 28124 71427 17/// /0520 10000 21005 39922 49929 56063 60221 7//4/ 333 10006 21009 70220
AAXX 28124 71688 16/// /1105 10030 20027 38988 40007 52016 60001 333 10009 21004 4/104 70000 555 10070
AAXX 28124 71220 46/// /1325 10056 20042 6///1 333 10034 20018 7////
AAXX 28124 71427 17/// /0520 10000 21005 39922 49929 56063 60221 7//4/ 333 10006 21009 70220
AAXX 28124 71756 17/// /2003 10035 20019 38933 40009 53014 60021 7//4/ 333 10008 21004 4/076 70126 555 10110
AAXX 28124 91165 32566 80714 10228 20178 30182 40216 58006 91153
AAXX 28124 91203 32469 20710 10303 20293 30119 40124 51003 82101
AAXX 28124 91212 12566 60608 10261 20233 31390 40124 51007 60011 91154
AAXX 28124 91245 31458 60307 10240 20240 30150 710// 91155
AAXX 28124 91285 12566 82508 10189 20172 30195 40209 58009 60011 91153
AAXX 28124 91324 32474 81308 10300 20259 30088 40090 83201
AAXX 28124 91334 11474 80612 10280 20250 30095 40098 51008 60061 70282 82271
AAXX 28124 91348 11474 50705 10277 20232 30058 40110 52007 60031 70288 83101
AAXX 28124 91356 32566 20610 10283 20238 30086 40103 51000 82201
AAXX 28124 91367 32474 30909 10278 20232 83100
AAXX 28124 91369 32474 21020 10272 20244 30075 40078 82100
AAXX 28124 91376 32474 40612 10277 20233 30090 40093 50002 82101
AAXX 28124 91408 32474 80911 10279 20244 30059 40097 50007 81271
AAXX 28124 91413 32469 70608 10277 20239 30083 40108 53005 82171
AAXX 28124 91155 NIL
AAXX 28124 91217 NIL
AAXX 28124 91232 NIL
AAXX 28124 91250 NIL
AAXX 28124 91275 NIL
AAXX 28124 91317 NIL
AAXX 28124 91339 NIL
AAXX 28124 91353 NIL
AAXX 28124 91366 NIL
AAXX 28124 91371 NIL
AAXX 28124 91378 NIL
AAXX 28124 91425 NIL
AAXX 28124 91434 NIL
AAXX 28124 91601 NIL
AAXX 28124 91610 NIL
BBXX 42376 28121 99291 70879 46/// /1701 10138 40229 53005 91200 22200 10302 70009
BBXX 42392 28121 99272 70900 46/// ///// 1//// 91200 22200 10502 70012
BBXX 42887 28121 99282 70885 46/// /0303 10178 91200 22200 10502 70012
BBXX 64045 28124 99591 70117 46/// /3343 10054 20035 49930 53135 22200 00100 11019 70096 333 90710 91163
BBXX 62301 28124 99524 70047 46/// /2723 10080 20036 40188 51017 22200 00091 10607 70035 333 90710 91133
BBXX 63110 28124 99595 10015 47597 /2128 10077 20030 49880 57032 700// 22200 10810 70051
BBXX 63106 28124 99610 10017 46/// /2316 10060 49862 56036 22200
BBXX 63105 28124 99610 10017 47597 ///// 10065 20034 49862 56033 700// 22200
BBXX 62094 28124 99517 70067 46/// /2827 10082 20036 40228 52027 22200 00107 10707 70035
BBXX 62103 28124 99499 70029 46/99 /2931 10117 20076 40228 52002 22200 00120 10705 70024 333 90710 91142
AAXX 28124 91165 32566 80714 10228 20178 30182 40216 58006 91153
AAXX 28124 91212 12566 60608 10261 20233 31390 40124 51007 60011 91154
AAXX 28124 91285 12566 82508 10189 20172 30195 40209 58009 60011 91153
AAXX 28124 91334 11474 80612 10280 20250 30095 40098 51008 60061 70282 82271
AAXX 28124 91348 11474 50705 10277 20232 30058 40110 52007 60031 70288 83101
AAXX 28124 91356 32566 20610 10283 20238 30086 40103 51000 82201
AAXX 28124 91369 32474 21020 10272 20244 30075 40078 82100
AAXX 28124 91376 32474 40612 10277 20233 30090 40093 50002 82101
AAXX 28124 91408 32474 80911 10279 20244 30059 40097 50007 81271
AAXX 28124 91413 32469 70608 10277 20239 30083 40108 53005 82171
AAXX 28124 91245 31458 60307 10240 20240 30150 710// 91155
BBXX 42887 28121 99282 70885 46/// /0303 10178 91200 22200 10502 70012
BBXX 42376 28121 99291 70879 46/// /1701 10138 40229 53005 91200 22200 10302 70009
BBXX 42392 28121 99272 70900 46/// ///// 1//// 91200 22200 10502 70012
BBXX 42370 28121 99273 70905 46/// ///// 10159 91200 22200 10502 70011
BBXX 42369 28121 99272 70903 46/// /0804 1//// 91200 22200 10502 70011
BBXX VRZQ9 28124 99362 70134 41298 50515 10150 2012/ 40370 54/// 70311 85109 22243 00210 20602 335// 40602 5//// 6//// 80130 /////
AAXX 28124 71372 16/// /2412 10015 20002 60001 333 10033 20011 70080
AAXX 28124 71824 46/// /3605 11166 21184 6///1 333 10000 21167 7////
AAXX 28124 71710 16/// /1616 10029 20008 30063 40072 55030 60001 333 10024 20017 70010
AAXX 28124 71810 17/// /1414 10013 20007 39939 40005 56046 60041 7//4/ 333 10002 21020 70036
AAXX 28124 71614 16/// /2608 10010 21005 39826 49890 53017 60001 333 10033 20010 4/001 70057
AAXX 28124 71619 17/// /1108 10020 20014 39918 49975 58054 60051 7//4/ 333 11002 21021 70050
AAXX 28124 71810 17/// /1414 10013 20007 39939 40005 56046 60041 7//4/ 333 10002 21020 70036
AAXX 28124 71824 46/// /3605 11166 21184 6///1 333 10000 21167 7////
AAXX 28124 71710 16/// /1616 10029 20008 30063 40072 55030 60001 333 10024 20017 70010
AAXX 28124 71614 16/// /2608 10010 21005 39826 49890 53017 60001 333 10033 20010 4/001 70057
AAXX 28124 71619 17/// /1108 10020 20014 39918 49975 58054 60051 7//4/ 333 11002 21021 70050
AAXX 28124 71372 16/// /2412 10015 20002 60001 333 10033 20011 70080
BBXX ELZU3 28120 99385 70480 41297 70510 10182 20127 40049 52021 76262 867// 22223 2//06 80149
BBXX DFVY2 28124 99230 50418 41297 82608 10220 20210 40136 51006 72582 8/720 22225 00220 10603 70015 80213
BBXX VRAC9 28124 99174 11198 41298 80721 10270 2024/ 40120 52010 78122 889// 22213 00300 2//// 3//// 4//// 5//// 6//// 80250 ICE /////
BBXX PCBZ 28124 99113 70979 41/98 12321 10230 20216 40140 54000 70200 81100 22223 00230 20105 310// 40403 80220 90879
BBXX ELZU3 28120 99385 70480 41297 70510 10182 20127 40049 52021 76262 867// 22223 2//06 80149
BBXX PHDL 28123 99236 70910 41598 23310 10200 20135 40200 54000 70200 82100 22224 00256 20301 399// 4//03 80160 90879
BBXX VRAC9 28124 99174 11198 41298 80721 10270 2024/ 40120 52010 78122 889// 22213 00300 2//// 3//// 4//// 5//// 6//// 80250 ICE /////
BBXX DFVY2 28124 99230 50418 41297 82608 10220 20210 40136 51006 72582 8/720 22225 00220 10603 70015 80213
BBXX 42046 28121 99279 70940 46/// /1303 1//// 40221 91230 22200 00218 333 91205
BBXX 42047 28121 99279 70936 46/// /1104 10153 20070 40220 91230 22200 00221 333 91205
BBXX 42047 28121 99279 70936 46/// /1004 10151 20082 40217 57007 91200 22200 00221 333 91206
BBXX 63106 28124 99610 10017 46/// /2316 10060 49862 56036 22200
BBXX 63113 28124 99610 10017 46/// /2514 10065 20035 49867 57032 22200 10809 70046
BBXX 64045 28124 99591 70117 46/// /3146 10058 20036 49936 53138 22200 00099 11019 70096 333 90710 91168
BBXX 63110 28123 99595 10015 41597 72129 10077 49873 70522 8/8// 22200 10810 70049
BBXX 62094 28124 99517 70067 46/// /2827 10082 20036 40228 52027 22200 00107 10707 70035 333 90710 91137
BBXX 62301 28124 99524 70047 46/// /2723 10080 20036 40188 51017 22200 00091 10607 70035 333 90710 91132
BBXX 62103 28124 99499 70029 46/98 /3132 10101 20055 40232 53005 22200 00119 10705 70023 333 90710 91145
BBXX 42369 28121 99272 70903 46/// /0804 1//// 91220 22200 10502 70011
BBXX 42370 28121 99273 70905 46/// ///// 10159 91220 22200 10502 70011
BBXX 42376 28121 99291 70879 46/// /1701 10138 40229 91220 22200 10302 70009
BBXX 42392 28121 99272 70900 46/// ///// 1//// 91220 22200 10502 70012
BBXX 42887 28121 99282 70885 46/// /0502 10179 91220 22200 10502 70011
BBXX 42887 28121 99282 70885 46/// /0502 10179 91220 22200 10502 70011
BBXX 42392 28121 99272 70900 46/// ///// 1//// 91220 22200 10502 70012
BBXX 42376 28121 99291 70879 46/// /1701 10138 40229 91220 22200 10302 70009
BBXX 42370 28121 99273 70905 46/// ///// 10159 91220 22200 10502 70011
BBXX 42369 28121 99272 70903 46/// /0804 1//// 91220 22200 10502 70011
BBXX 42047 28121 99279 70936 46/// /1104 10153 20070 40220 91230 22200 00221 333 91205
BBXX 42047 28121 99279 70936 46/// /1004 10151 20082 40217 57007 91200 22200 00221 333 91206
BBXX 42046 28121 99279 70940 46/// /1303 1//// 40221 91230 22200 00218 333 91205
AAXX 28121 36058 38091 36058 32999 30000 11136 21142 39774 40326 53011 80002 333 11074
AAXX 28121 36064 32999 13202 11082 21088 39711 40328 53010 81030 333 11025
BBXX 64045 28124 99591 70117 46/// /3343 10054 20035 49930 53135 22200 00100 11019 70096 333 90710 91163
BBXX 62301 28124 99524 70047 46/// /2723 10080 20036 40188 51017 22200 00091 10607 70035 333 90710 91133
BBXX 63110 28124 99595 10015 47597 /2128 10077 20030 49880 57032 700// 22200 10810 70051
BBXX 63106 28124 99610 10017 46/// /2316 10060 49862 56036 22200
BBXX 63105 28124 99610 10017 47597 ///// 10065 20034 49862 56033 700// 22200
BBXX 62094 28124 99517 70067 46/// /2827 10082 20036 40228 52027 22200 00107 10707 70035
BBXX 62103 28124 99499 70029 46/99 /2931 10117 20076 40228 52002 22200 00120 10705 70024 333 90710 91142
AAXX 28121 10946 15982 01902 10057 21001 39433 40275 57027 60001 333 55310 21001 30295
BBXX WFLH 28123 99231 71518 41/98 80719 10233 20184 40235 57010 75055 8//// 22264 00217 20402 332// 41204 5//// 6//// 80200 ICE /////
BBXX WFLH 28123 99231 71518 41/98 80719 10233 20184 40235 57010 75055 8//// 22264 00217 20402 332// 41204 5//// 6//// 80200 ICE /////
BBXX MINFR03 2812/ 99227 10697 46/// ///// 10248 40141 57003
BBXX 9MBW7 28124 99375 11355 41698 61805 10070 21015 40180 56002 70311 86721 22254 00130 2//// 317// 40304 80045
BBXX 63106 28124 99610 10017 46/// /2316 10060 49862 56036 22200
BBXX 63113 28124 99610 10017 46/// /2514 10065 20035 49867 57032 22200 10809 70046
BBXX 64045 28124 99591 70117 46/// /3146 10058 20036 49936 53138 22200 00099 11019 70096 333 90710 91168
BBXX 63110 28123 99595 10015 41597 72129 10077 49873 70522 8/8// 22200 10810 70049
BBXX 62094 28124 99517 70067 46/// /2827 10082 20036 40228 52027 22200 00107 10707 70035 333 90710 91137
BBXX 62301 28124 99524 70047 46/// /2723 10080 20036 40188 51017 22200 00091 10607 70035 333 90710 91132
BBXX 62103 28124 99499 70029 46/98 /3132 10101 20055 40232 53005 22200 00119 10705 70023 333 90710 91145
BBXX MINFR03 2812/ 99227 10697 46/// ///// 10248 40141 57003
BBXX SHIP 28124 99375 11355 41698 61805 10070 21015 40180 56002 70311 86721 22254 00130 2//// 317// 40304 80045
AAXX 28124 71245 46/// /2223 11051 21073 6///1 333 11063 21077 7////
BBXX MINFR05 2812/ 99094 70167 46/// ///// 10283 40137 57005
AAXX 28124 71245 46/// /2223 11051 21073 6///1 333 11063 21077 7////
AAXX 28124 71627 11374 82516 10011 21007 39851 49895 53011 69901 70262 887// 333 10026 20008 42003 70144 90963
AAXX 28124 71627 11374 82516 10011 21007 39851 49895 53011 69901 70262 887// 333 10026 20008 42003 70144 90963
AAXX 28154 78583 42470 73506 10240 20224 40199 87800 333 01100 59001 81810 87650
AAXX 28124 71112 17/// ///// 69941 7//4/ 333 70180
AAXX 28124 71219 46/// /1420 6///1 333 7////
AAXX 28124 71219 46/// /1420 6///1 333 7////
AAXX 28124 71112 17/// ///// 69941 7//4/ 333 70180
BBXX 9MBW7 28124 99375 11355 41698 61805 10070 21015 40180 56002 70311 86721 22254 00130 2//// 317// 40304 80045
BBXX SHIP 28124 99375 11355 41698 61805 10070 21015 40180 56002 70311 86721 22254 00130 2//// 317// 40304 80045
AAXX 28124 96935 32560 73504 10291 20252 30088 40094 52020 83272 333 10329 56000 57802 58011 82820 85460 80860
BBXX 64045 28124 99591 70117 46/// /3343 10054 20035 49930 53135 22200 00100 11019 70096 333 90710 91163
BBXX 62301 28124 99524 70047 46/// /2723 10080 20036 40188 51017 22200 00091 10607 70035 333 90710 91133
BBXX 63110 28124 99595 10015 47597 /2128 10077 20030 49880 57032 700// 22200 10810 70051
BBXX 63106 28124 99610 10017 46/// /2316 10060 49862 56036 22200
BBXX 63105 28124 99610 10017 47597 ///// 10065 20034 49862 56033 700// 22200
BBXX 62094 28124 99517 70067 46/// /2827 10082 20036 40228 52027 22200 00107 10707 70035
BBXX 62103 28124 99499 70029 46/99 /2931 10117 20076 40228 52002 22200 00120 10705 70024 333 90710 91142
BBXX MINFR05 2812/ 99094 70167 46/// ///// 10283 40137 57005
AAXX 28124 71713 17/// /0406 10002 20002 60091 7//4/ 333 10038 21004 70140
AAXX 28124 71724 17/// /2216 10017 20006 39864 49871 52008 60031 7//4/ 333 10020 20000 70202
AAXX 28124 71301 17/// ///// 11219 21238 39703 40118 53019 69961 7//4/ 333 10017 21219 4/010 70069 555 10020
AAXX 28124 48380 31958 00000 10252 20189 30045 40139 52012 71000 333 10307 59022
AAXX 28124 71713 17/// /0406 10002 20002 60091 7//4/ 333 10038 21004 70140
AAXX 28124 71724 17/// /2216 10017 20006 39864 49871 52008 60031 7//4/ 333 10020 20000 70202
AAXX 28121 24329 32999 20000 11374 21401 39988 40231 52008 69932 82010 333 11234
AAXX 2812/ 89329 46/// ///// 11098 38751 4//// 5//// 91210
AAXX 2812/ 89799 46/// ///// 11235 4//// 5//// 91210
BBXX 63106 28124 99610 10017 46/// /2316 10060 49862 56036 22200
BBXX 63113 28124 99610 10017 46/// /2514 10065 20035 49867 57032 22200 10809 70046
BBXX 64045 28124 99591 70117 46/// /3146 10058 20036 49936 53138 22200 00099 11019 70096 333 90710 91168
BBXX 63110 28123 99595 10015 41597 72129 10077 49873 70522 8/8// 22200 10810 70049
BBXX 62094 28124 99517 70067 46/// /2827 10082 20036 40228 52027 22200 00107 10707 70035 333 90710 91137
BBXX 62301 28124 99524 70047 46/// /2723 10080 20036 40188 51017 22200 00091 10607 70035 333 90710 91132
BBXX 62103 28124 99499 70029 46/98 /3132 10101 20055 40232 53005 22200 00119 10705 70023 333 90710 91145
AAXX 28121 22235 41481 73206 11027 21057 39681 49874 52030 73631 86501 333 86617 91009 91112
AAXX 28121 38392 42698 72105 10044 21014 30133 40238 56001 87500 333 87646
BBXX WYR4481 28124 99438 70825 41/96 83233 11061 40100 70222 22243 20503
BBXX WYR4481 28124 99438 70825 41/96 83233 11061 40100 70222 22243 20503
BBXX A8CB7 28123 99259 30142 41397 31821 10210 20180 40140 54000 70122 83445 22284 06200 21102 318// 41104 80190
BBXX 64045 28124 99591 70117 46/// /3343 10054 20035 49930 53135 22200 00100 11019 70096 333 90710 91163
BBXX 62301 28124 99524 70047 46/// /2723 10080 20036 40188 51017 22200 00091 10607 70035 333 90710 91133
BBXX 63110 28124 99595 10015 47597 /2128 10077 20030 49880 57032 700// 22200 10810 70051
BBXX 63106 28124 99610 10017 46/// /2316 10060 49862 56036 22200
BBXX 63105 28124 99610 10017 47597 ///// 10065 20034 49862 56033 700// 22200
BBXX 62094 28124 99517 70067 46/// /2827 10082 20036 40228 52027 22200 00107 10707 70035
BBXX 62103 28124 99499 70029 46/99 /2931 10117 20076 40228 52002 22200 00120 10705 70024 333 90710 91142
BBXX A8CB7 28123 99259 30142 41397 31821 10210 20180 40140 54000 70122 83445 22284 06200 21102 318// 41104 80190
BBXX A8CB7 28123 99259 30142 41397 31821 10210 20180 40140 54000 70122 83445 22284 06200 21102 318// 41104 80190
AAXX 28124 42706 31995 10000 10232 20146 40133 70500 80001 333 10278 58011 81075
BBXX MINFR00 2812/ 99011 51021 46/// ///// 10210 40136 52008
AAXX 2812/ 89869 46/// ///// 11056 39813 4//// 5//// 91240
AAXX 2812/ 89329 46/// ///// 11113 38752 4//// 5//// 91240
AAXX 2812/ 89332 46/// ///// 11054 39255 4//// 5//// 91240
AAXX 2812/ 89314 46/// ///// 11108 38199 4//// 5//// 91240
AAXX 2812/ 89327 46/// ///// 11023 30162 4//// 5//// 91240
AAXX 2812/ 89879 46/// ///// 11003 39759 4//// 5//// 91240
BBXX 63106 28124 99610 10017 46/// /2316 10060 49862 56036 22200
BBXX 63113 28124 99610 10017 46/// /2514 10065 20035 49867 57032 22200 10809 70046
BBXX 64045 28124 99591 70117 46/// /3146 10058 20036 49936 53138 22200 00099 11019 70096 333 90710 91168
BBXX 63110 28123 99595 10015 41597 72129 10077 49873 70522 8/8// 22200 10810 70049
BBXX 62094 28124 99517 70067 46/// /2827 10082 20036 40228 52027 22200 00107 10707 70035 333 90710 91137
BBXX 62301 28124 99524 70047 46/// /2723 10080 20036 40188 51017 22200 00091 10607 70035 333 90710 91132
BBXX 62103 28124 99499 70029 46/98 /3132 10101 20055 40232 53005 22200 00119 10705 70023 333 90710 91145
BBXX MINFR00 2812/ 99011 51021 46/// ///// 10210 40136 52008
AAXX 28124 71638 16/// /1004 10090 20061 39929 40033 53021 60001 333 10084 20068 70110
AAXX 28124 71638 16/// /1004 10090 20061 39929 40033 53021 60001 333 10084 20068 70110
AAXX 28124 89514 32697 80916 11014 49784 52003 8702/ 333 11006 21022 86438
AAXX 28124 89514 32697 80916 11014 49784 52003 8702/ 333 11006 21022 86438
BBXX 64045 28124 99591 70117 46/// /3343 10054 20035 49930 53135 22200 00100 11019 70096 333 90710 91163
BBXX 62301 28124 99524 70047 46/// /2723 10080 20036 40188 51017 22200 00091 10607 70035 333 90710 91133
BBXX 63110 28124 99595 10015 47597 /2128 10077 20030 49880 57032 700// 22200 10810 70051
BBXX 63106 28124 99610 10017 46/// /2316 10060 49862 56036 22200
BBXX 63105 28124 99610 10017 47597 ///// 10065 20034 49862 56033 700// 22200
BBXX 62094 28124 99517 70067 46/// /2827 10082 20036 40228 52027 22200 00107 10707 70035
BBXX 62103 28124 99499 70029 46/99 /2931 10117 20076 40228 52002 22200 00120 10705 70024 333 90710 91142
AAXX 28124 71384 17/// /3001 10013 20010 39866 49873 56008 60101 7//4/ 333 10033 21001 70200
AAXX 28124 71384 17/// /3001 10013 20010 39866 49873 56008 60101 7//4/ 333 10033 21001 70200
AAXX 28124 41264 36/70 /2613 10283 20022 39770 40130 333 0E017 58016
BBXX 63106 28124 99610 10017 46/// /2316 10060 49862 56036 22200
BBXX 63113 28124 99610 10017 46/// /2514 10065 20035 49867 57032 22200 10809 70046
BBXX 64045 28124 99591 70117 46/// /3146 10058 20036 49936 53138 22200 00099 11019 70096 333 90710 91168
BBXX 63110 28123 99595 10015 41597 72129 10077 49873 70522 8/8// 22200 10810 70049
BBXX 62094 28124 99517 70067 46/// /2827 10082 20036 40228 52027 22200 00107 10707 70035 333 90710 91137
BBXX 62301 28124 99524 70047 46/// /2723 10080 20036 40188 51017 22200 00091 10607 70035 333 90710 91132
BBXX 62103 28124 99499 70029 46/98 /3132 10101 20055 40232 53005 22200 00119 10705 70023 333 90710 91145
AAXX 28124 71322 17/// /0105 11296 21324 30080 40093 56016 60011 7//4/ 333 11259 21320 4/008 70037
AAXX 28124 71322 17/// /0105 11296 21324 30080 40093 56016 60011 7//4/ 333 11259 21320 4/008 70037
BBXX 52243 28121 99193 11666 46/// ///// 1//// 91200 22200 00268
BBXX 51174 28121 99142 51697 46/// ///// 1//// 91200 22200 00285
BBXX 51171 28121 99064 71623 46/// ///// 1//// 91200 22200 00277
BBXX 51170 28121 99168 71695 46/// ///// 1//// 91200 22200 00253
BBXX 51169 28121 99004 51600 46/// ///// 1//// 91200 22200 00258
BBXX 64045 28124 99591 70117 46/// /3343 10054 20035 49930 53135 22200 00100 11019 70096 333 90710 91163
BBXX 62301 28124 99524 70047 46/// /2723 10080 20036 40188 51017 22200 00091 10607 70035 333 90710 91133
BBXX 63110 28124 99595 10015 47597 /2128 10077 20030 49880 57032 700// 22200 10810 70051
BBXX 63106 28124 99610 10017 46/// /2316 10060 49862 56036 22200
BBXX 63105 28124 99610 10017 47597 ///// 10065 20034 49862 56033 700// 22200
BBXX 62094 28124 99517 70067 46/// /2827 10082 20036 40228 52027 22200 00107 10707 70035
BBXX 62103 28124 99499 70029 46/99 /2931 10117 20076 40228 52002 22200 00120 10705 70024 333 90710 91142
BBXX 51174 28121 99142 51697 46/// ///// 1//// 91200 22200 00285
BBXX 51169 28121 99004 51600 46/// ///// 1//// 91200 22200 00258
BBXX 51171 28121 99064 71623 46/// ///// 1//// 91200 22200 00277
BBXX 51170 28121 99168 71695 46/// ///// 1//// 91200 22200 00253
BBXX 52243 28121 99193 11666 46/// ///// 1//// 91200 22200 00268
BBXX 63106 28124 99610 10017 46/// /2316 10060 49862 56036 22200
BBXX 63113 28124 99610 10017 46/// /2514 10065 20035 49867 57032 22200 10809 70046
BBXX 64045 28124 99591 70117 46/// /3146 10058 20036 49936 53138 22200 00099 11019 70096 333 90710 91168
BBXX 63110 28123 99595 10015 41597 72129 10077 49873 70522 8/8// 22200 10810 70049
BBXX 62094 28124 99517 70067 46/// /2827 10082 20036 40228 52027 22200 00107 10707 70035 333 90710 91137
BBXX 62301 28124 99524 70047 46/// /2723 10080 20036 40188 51017 22200 00091 10607 70035 333 90710 91132
BBXX 62103 28124 99499 70029 46/98 /3132 10101 20055 40232 53005 22200 00119 10705 70023 333 90710 91145
AAXX 28121 78090 15/// /0000 10224 30202 40205 69901 91200 222// 00249
BBXX WDF6832 28123 99370 70718 43497 82925 10160 2013/ 40000 5//// 7//// 885// 22225 0//// 20704 314// 412// 5//07 6//// 80140 ICE /////
BBXX WDF6832 28123 99370 70718 43497 82925 10160 2013/ 40000 5//// 7//// 885// 22225 0//// 20704 314// 412// 5//07 6//// 80140 ICE /////
AAXX 28124 71927 17/// /1903 10098 20076 39993 40050 51020 60011 7//4/ 333 10073 20053 70288
AAXX 28124 71605 17/// /3403 10081 20081 39890 40038 53014 60031 7//4/ 333 10076 20041 70481
AAXX 28124 71777 17/// ///// 10000 21001 39771 40021 51008 60061 7//4/ 333 10030 21004 4/012 70135 555 10020
AAXX 28124 71222 16/// /0602 11134 21147 38940 49908 56026 60001 333 11017 21156 4/033 70000 555 10010
AAXX 28124 71222 16/// /0602 11134 21147 38940 49908 56026 60001 333 11017 21156 4/033 70000 555 10010
AAXX 28124 71777 17/// ///// 10000 21001 39771 40021 51008 60061 7//4/ 333 10030 21004 4/012 70135 555 10020
AAXX 28124 71605 17/// /3403 10081 20081 39890 40038 53014 60031 7//4/ 333 10076 20041 70481
AAXX 28124 71927 17/// /1903 10098 20076 39993 40050 51020 60011 7//4/ 333 10073 20053 70288
BBXX 64045 28124 99591 70117 46/// /3343 10054 20035 49930 53135 22200 00100 11019 70096 333 90710 91163
BBXX 62301 28124 99524 70047 46/// /2723 10080 20036 40188 51017 22200 00091 10607 70035 333 90710 91133
BBXX 63110 28124 99595 10015 47597 /2128 10077 20030 49880 57032 700// 22200 10810 70051
BBXX 63106 28124 99610 10017 46/// /2316 10060 49862 56036 22200
BBXX 63105 28124 99610 10017 47597 ///// 10065 20034 49862 56033 700// 22200
BBXX 62094 28124 99517 70067 46/// /2827 10082 20036 40228 52027 22200 00107 10707 70035
BBXX 62103 28124 99499 70029 46/99 /2931 10117 20076 40228 52002 22200 00120 10705 70024 333 90710 91142
AAXX 28124 41246 32960 00114 10249 20150 30153 40157 333 58022
BBXX 63106 28124 99610 10017 46/// /2316 10060 49862 56036 22200
BBXX 63113 28124 99610 10017 46/// /2514 10065 20035 49867 57032 22200 10809 70046
BBXX 64045 28124 99591 70117 46/// /3146 10058 20036 49936 53138 22200 00099 11019 70096 333 90710 91168
BBXX 63110 28123 99595 10015 41597 72129 10077 49873 70522 8/8// 22200 10810 70049
BBXX 62094 28124 99517 70067 46/// /2827 10082 20036 40228 52027 22200 00107 10707 70035 333 90710 91137
BBXX 62301 28124 99524 70047 46/// /2723 10080 20036 40188 51017 22200 00091 10607 70035 333 90710 91132
BBXX 62103 28124 99499 70029 46/98 /3132 10101 20055 40232 53005 22200 00119 10705 70023 333 90710 91145
AAXX 28124 41246 32960 00114 10249 20150 30153 40157 333 58022
BBXX 64045 28124 99591 70117 46/// /3343 10054 20035 49930 53135 22200 00100 11019 70096 333 90710 91163
BBXX 62301 28124 99524 70047 46/// /2723 10080 20036 40188 51017 22200 00091 10607 70035 333 90710 91133
BBXX 63110 28124 99595 10015 47597 /2128 10077 20030 49880 57032 700// 22200 10810 70051
BBXX 63106 28124 99610 10017 46/// /2316 10060 49862 56036 22200
BBXX 63105 28124 99610 10017 47597 ///// 10065 20034 49862 56033 700// 22200
BBXX 62094 28124 99517 70067 46/// /2827 10082 20036 40228 52027 22200 00107 10707 70035
BBXX 62103 28124 99499 70029 46/99 /2931 10117 20076 40228 52002 22200 00120 10705 70024 333 90710 91142
AAXX 28124 91723 NIL
AAXX 28124 91964 36/// /0809 10217 20205 40212 57005
BBXX 63106 28124 99610 10017 46/// /2316 10060 49862 56036 22200
BBXX 63113 28124 99610 10017 46/// /2514 10065 20035 49867 57032 22200 10809 70046
BBXX 64045 28124 99591 70117 46/// /3146 10058 20036 49936 53138 22200 00099 11019 70096 333 90710 91168
BBXX 63110 28123 99595 10015 41597 72129 10077 49873 70522 8/8// 22200 10810 70049
BBXX 62094 28124 99517 70067 46/// /2827 10082 20036 40228 52027 22200 00107 10707 70035 333 90710 91137
BBXX 62301 28124 99524 70047 46/// /2723 10080 20036 40188 51017 22200 00091 10607 70035 333 90710 91132
BBXX 62103 28124 99499 70029 46/98 /3132 10101 20055 40232 53005 22200 00119 10705 70023 333 90710 91145
AAXX 28124 71618 15966 01907 11166 21221 30035 40074 56008 60001 333 11216 21293 70000
AAXX 28124 71618 15966 01907 11166 21221 30035 40074 56008 60001 333 11216 21293 70000
BBXX 64045 28124 99591 70117 46/// /3343 10054 20035 49930 53135 22200 00100 11019 70096 333 90710 91163
BBXX 62301 28124 99524 70047 46/// /2723 10080 20036 40188 51017 22200 00091 10607 70035 333 90710 91133
BBXX 63110 28124 99595 10015 47597 /2128 10077 20030 49880 57032 700// 22200 10810 70051
BBXX 63106 28124 99610 10017 46/// /2316 10060 49862 56036 22200
BBXX 63105 28124 99610 10017 47597 ///// 10065 20034 49862 56033 700// 22200
BBXX 62094 28124 99517 70067 46/// /2827 10082 20036 40228 52027 22200 00107 10707 70035
BBXX 62103 28124 99499 70029 46/99 /2931 10117 20076 40228 52002 22200 00120 10705 70024 333 90710 91142
AAXX 28121 30469 329// 00000 11397 21417 39601 40495 56007 333 11335
AAXX 28124 71023 160// /2105 11104 21124 39246 40018 58009 60001 333 11020 21104 70010
AAXX 28124 71023 160// /2105 11104 21124 39246 40018 58009 60001 333 11020 21104 70010
BBXX 63106 28124 99610 10017 46/// /2316 10060 49862 56036 22200
BBXX 63113 28124 99610 10017 46/// /2514 10065 20035 49867 57032 22200 10809 70046
BBXX 64045 28124 99591 70117 46/// /3146 10058 20036 49936 53138 22200 00099 11019 70096 333 90710 91168
BBXX 63110 28123 99595 10015 41597 72129 10077 49873 70522 8/8// 22200 10810 70049
BBXX 62094 28124 99517 70067 46/// /2827 10082 20036 40228 52027 22200 00107 10707 70035 333 90710 91137
BBXX 62301 28124 99524 70047 46/// /2723 10080 20036 40188 51017 22200 00091 10607 70035 333 90710 91132
BBXX 62103 28124 99499 70029 46/98 /3132 10101 20055 40232 53005 22200 00119 10705 70023 333 90710 91145
BBXX 64045 28124 99591 70117 46/// /3343 10054 20035 49930 53135 22200 00100 11019 70096 333 90710 91163
BBXX 62301 28124 99524 70047 46/// /2723 10080 20036 40188 51017 22200 00091 10607 70035 333 90710 91133
BBXX 63110 28124 99595 10015 47597 /2128 10077 20030 49880 57032 700// 22200 10810 70051
BBXX 63106 28124 99610 10017 46/// /2316 10060 49862 56036 22200
BBXX 63105 28124 99610 10017 47597 ///// 10065 20034 49862 56033 700// 22200
BBXX 62094 28124 99517 70067 46/// /2827 10082 20036 40228 52027 22200 00107 10707 70035
BBXX 62103 28124 99499 70029 46/99 /2931 10117 20076 40228 52002 22200 00120 10705 70024 333 90710 91142
AAXX 28124 71115 16/// /0000 11003 21004 39465 40044 53002 60001 333 10011 21012 70037
AAXX 28124 71115 16/// /0000 11003 21004 39465 40044 53002 60001 333 10011 21012 70037
AAXX 28123 91553 31598 69902 10260 20246 40074 58006 70222 86900 333 10300 568// 58012 85820 81925
AAXX 28123 91553 31598 69902 10260 20246 40074 58006 70222 86900 333 10300 568// 58012 85820 81925
AAXX 28124 91643 11498 83408 10284 20241 40093 58002 60001 71401 8327/ 333 10320 5689/ 83819 88361
AAXX 28124 87692 32960 33608 10210 20164 30184 40208 50001 81034 333 10210 20152 56055 81360 83070 555 10208 60722 64088 65055 70722 74159 89848
AAXX 28124 71720 16/// /1306 10081 20062 39879 40030 53020 60001 333 10071 20054 70130
AAXX 28124 71720 16/// /1306 10081 20062 39879 40030 53020 60001 333 10071 20054 70130
AAXX 28124 61202 NIL
AAXX 28124 61214 NIL
AAXX 28124 61223 32960 60412 10220 21029 39887 40190 80002 333 0//00 58009 86075
AAXX 28124 61226 32960 20410 10255 20027 39864 40162 80002 333 59011 82075
AAXX 28124 61230 32960 60814 10244 21038 39879 40150 80002 333 0//00 58009 86075
AAXX 28124 61233 32960 70610 10250 21027 3//// 4//// 80002 333 0//00 5//// 87075
AAXX 28124 61235 32960 70414 10265 21031 3//// 4//// 80002 333 0//00 5//// 87075
AAXX 28124 61240 32960 30408 10270 21008 39835 40161 80002 333 0//00 58006 83075
AAXX 28124 61250 32960 20804 10265 20097 3//// 4//// 80002 333 0//00 5//// 82075
AAXX 28124 61257 31958 70812 10283 21023 30098 40193 70622 80002 333 0//00 58005 87075
AAXX 28124 61265 32965 50410 10267 21011 39850 40158 80002 333 0//00 58005 85075
AAXX 28124 61270 32960 70808 10290 20040 3//// 4//// 80002 333 0//00 5//// 87075
AAXX 28124 61272 32960 70404 10270 20050 39830 40157 80002 333 0//00 58001 87075
AAXX 28124 61277 32960 40810 10300 21010 39832 40151 80002 333 0//00 58007 84075
AAXX 28124 61285 32960 61414 10306 21032 39993 40143 82072 333 58002 82365 85075
AAXX 28124 61291 32960 30810 10290 20006 39728 40137 80002 333 0//00 58010 83075
AAXX 28124 61293 32960 40610 10283 20034 3//// 4//// 80002 333 0//00 5//// 84075
AAXX 28124 61296 32970 60806 10310 20125 3//// 4//// 80002 333 0//00 5//// 86075
AAXX 28124 61297 32960 60608 10295 20028 3//// 4//// 80002 333 0//00 5//// 86075
AAXX 28121 30635 329// 01303 11208 21241 39736 40359 58002 333 11177
AAXX 28121 30781 32999 00000 11367 21385 39923 40573 52003 333 21264
BBXX BAREU00 28124 99531 10043 46/// ///// 40152 57009 22253
BBXX BAREU00 28124 99531 10043 46/// ///// 40152 57009 22253
BBXX A8UQ3 28123 99440 70091 41297 63415 10160 20098 40385 51010 71851 85757 22213 00140 21006 333// 41207 80125
BBXX A8UQ3 28123 99440 70091 41297 63415 10160 20098 40385 51010 71851 85757 22213 00140 21006 333// 41207 80125
BBXX BATFR15 28124 99319 70380 44598 71721 10222 20190 40256 51031 76062 8777/ 22214 00219 20406 317// 40406 5////
BBXX BATFR15 28124 99319 70380 44598 71721 10222 20190 40256 51031 76062 8777/ 22214 00219 20406 317// 40406 5////
BBXX TBWUK03 28123 99032 50304 41598 31413 10265 20242 40158 54000 70200 81408 22253 20401 315// 40702 5//// 80248
BBXX TBWUK03 28123 99032 50304 41598 31413 10265 20242 40158 54000 70200 81408 22253 20401 315// 40702 5//// 80248
BBXX A8EH3 28123 99535 11754 41/98 50209 11030 21061 40120 52010 76871 8457/ 22265 04050 20502 81040
BBXX BAREU00 28124 99531 10043 46/// ///// 40152 57009 22253
BBXX BATFR14 28124 99494 10010 46/// /2204 10079 20060 40252 58017 22200 00074
BBXX BATFR14 28124 99494 10010 46/// /2204 10079 20060 40252 58017 22200 00074
BBXX BAREU06 28124 99394 70003 46/// ///// 40316 57003 22200
BBXX TESTFR9 28124 99494 70023 46/// /2325 10114 29083 40266 22216
BBXX TESTFR9 28124 99494 70023 46/// /2325 10114 29083 40266 22216
BBXX BAREU06 28124 99394 70003 46/// ///// 40316 57003 22200
BBXX BAREU06 28124 99394 70003 46/// ///// 40316 57003 22200
BBXX BAREU06 28124 99394 70003 46/// ///// 40316 57003 22200
BBXX BAREU06 28124 99394 70003 46/// ///// 40316 57003 22200
BBXX TESTFR9 28124 99494 70023 46/// /2325 10114 29083 40266 22216
BBXX BATFR13 28124 99423 70214 44498 60817 10139 20082 40407 53012 70122 861// 22264 00154 20402 330// 41204 5////
BBXX BATFR13 28124 99423 70214 44498 60817 10139 20082 40407 53012 70122 861// 22264 00154 20402 330// 41204 5////
BBXX BATEU09 28124 99413 10090 46/// /0709 10142 20077 40288 58022 22200 00164
BBXX BATEU09 28124 99413 10090 46/// /0709 10142 20077 40288 58022 22200 00164
BBXX BATFR46 28124 99385 10003 44697 63419 10137 20092 40305 58010 703// 8/7// 22212 00162 22002
BBXX BATFR19 28124 99066 30057 46/// /1916 10244 20199 40132 57018 22200 00255
BBXX BATFR28 28124 99061 10867 46/// /2610 10277 20172 40083 53008 22262 00284
BBXX BATFR03 28124 99498 70005 46/// /2333 10109 20092 40228 50013 22244
BBXX BATFR03 28124 99498 70005 46/// /2333 10109 20092 40228 50013 22244
BBXX BATFR46 28124 99385 10003 44697 63419 10137 20092 40305 58010 703// 8/7// 22212 00162 22002
BBXX BATFR19 28124 99066 30057 46/// /1916 10244 20199 40132 57018 22200 00255
BBXX BATEU04 28124 99590 70436 46/// /2849 11035 21071 4//// 22262
BBXX BATEU04 28124 99590 70436 46/// /2849 11035 21071 4//// 22262
AAXX 28124 67327 32580 31214 10290 20164 40173 57005 81109
BBXX A8OZ4 28124 99375 10065 43598 50812 10140 20080 40250 56010 7//// 858// 22224 00160 2//// 3//06 40604 5//// 80115
AAXX 28124 67113 31565 2//// 10314 20221 30/// 40/// 5//// 70400 82200 333 0//00 82823
AAXX 28121 10641 17469 82004 10049 20023 30118 40268 58021 69901 700// 333 55300 88/12
AAXX 28121 10091 01564 82010 10059 20043 30132 40184 58048 69921 70254 875// 222// 06053 333 31/// 55300 20081 30081 69907 87621 91116 91213
AAXX 28121 10641 17469 82004 10049 20023 30118 40268 58021 69901 70050 333 55300 88/12
AAXX 28124 71604 16/// /1615 10009 21035 60001 333 21026 4/040 7////
BBXX SHIP 28124 99130 71480 41/97 20626 10244 20204 40137 57016 70300 8//// 22200 04247
AAXX 28124 91487 NIL
AAXX 28124 91490 NIL
AAXX 28124 91533 NIL
AAXX 28124 91601 NIL
AAXX 28124 91610 11499 70710 10267 20231 40081 54000 60001 70222 83208 333 10///
AAXX 28124 562/9
AAXX 28124 91623 NIL
AAXX 28124 91629 NIL
AAXX 28124 91701 NIL
AAXX 28124 91487 NIL
AAXX 28124 91490 NIL
AAXX 28124 91533 NIL
AAXX 28124 91601 NIL
AAXX 28124 91610 11499 70710 10267 20231 40081 54000 60001 70222 83208 333 10///
AAXX 28124 562/9
AAXX 28124 91623 NIL
AAXX 28124 91629 NIL
AAXX 28124 91701 NIL
